sequenceNumber,corporateNumber,process,correct,updateDate,changeDate,name,nameImageId,kind,prefectureName,cityName,streetNumber,addressImageId,prefectureCode,cityCode,postCode,addressOutside,addressOutsideImageId,closeDate,closeCause,successorCorporateNumber,changeCause,assignmentDate,latest,enName,enPrefectureName,enCityName,enAddressOutside,furigana,hihyoji
8,1010005034248,新規,0,2021-11-24,2021-11-24,ＲＢソーラーハートホールディングス一般社団法人,,その他の設立登記法人,東京都,中央区,八丁堀４丁目２番１０号ＡＯＪ税理士法人内,,13,102,1040032,,,,,,,2021-11-24,1,,,,,アールビーソーラーハートホールディングス,0
14,1010401163988,新規,0,2021-11-24,2021-11-24,Ｗｉｌｌ　Ｒｏｃｋ株式会社,,株式会社,東京都,港区,白金台５丁目１１番４号,,13,103,1080071,,,,,,,2021-11-24,1,,,,,ウィルロック,0
15,1010401164004,新規,0,2021-11-24,2021-11-24,株式会社アップドラフト,,株式会社,東京都,港区,海岸１丁目２番３号汐留芝離宮ビルディング２１階,,13,103,1050022,,,,,,,2021-11-24,1,,,,,アップドラフト,0
16,1010403026482,新規,0,2021-11-24,2021-11-24,イムロン合同会社,,合同会社,東京都,港区,六本木４丁目１番２六本木メイフラワーハウス４０５,,13,103,1060032,,,,,,,2021-11-24,1,,,,,,0
17,1010403026573,新規,0,2021-11-24,2021-11-24,合同会社アプレフ・ジャパン・ツー,,合同会社,東京都,港区,虎ノ門３丁目２２番１０－２０１号,,13,103,1050001,,,,,,,2021-11-24,1,,,,,アプレフジャパンツー,0
18,1010405020450,新規,0,2021-11-24,2021-11-24,ＲＢソーラースクエアホールディングス一般社団法人,,その他の設立登記法人,東京都,港区,虎ノ門３丁目２２番１０－２０１号,,13,103,1050001,,,,,,,2021-11-24,1,,,,,アールビーソーラースクエアホールディングス,0
20,1010503006434,新規,0,2021-11-24,2021-11-24,Ｊ．ｏｎｅ合同会社,,合同会社,東京都,台東区,根岸５丁目８番２５号,,13,106,1100003,,,,,,,2021-11-24,1,,,,,ジェイワン,0
22,1010601060267,新規,0,2021-11-24,2021-11-24,アトムスターリング株式会社,,株式会社,東京都,墨田区,太平１丁目２０番７号,,13,107,1300012,,,,,,,2021-11-24,1,,,,,アトムスターリング,0
23,1010601060275,新規,0,2021-11-24,2021-11-24,金澤グループ株式会社,,株式会社,東京都,江東区,南砂１丁目７番１０号ツチヤビル３階,,13,108,1360076,,,,,,,2021-11-24,1,,,,,カナサワグループ,0
29,1010801032512,新規,0,2021-11-24,2021-11-24,Ｇｒｏｕｐｙ株式会社,,株式会社,東京都,大田区,北千束１丁目３２－１,,13,111,1450062,,,,,,,2021-11-24,1,,,,,グルーピー,0
33,1010901049860,新規,0,2021-11-24,2021-11-24,株式会社ＲＩＹｕＵ,,株式会社,東京都,世田谷区,松原３丁目７番６号,,13,112,1560043,,,,,,,2021-11-24,1,,,,,リュウ,0
38,1011001144081,新規,0,2021-11-24,2021-11-24,エール防災株式会社,,株式会社,東京都,渋谷区,幡ヶ谷３丁目３９番１２号渋谷ウェストビル１階,,13,113,1510072,,,,,,,2021-11-24,1,,,,,エールボウサイ,0
46,1011101096999,新規,0,2021-11-24,2021-11-24,株式会社Ｓｏａｒｅ,,株式会社,東京都,新宿区,市谷台町３番１１－２０７号,,13,104,1620066,,,,,,,2021-11-24,1,,,,,ソアレ,0
47,1011101097007,新規,0,2021-11-24,2021-11-24,ＭＴＪ株式会社,,株式会社,東京都,新宿区,新宿６丁目８番５号,,13,104,1600022,,,,,,,2021-11-24,1,,,,,エムティージェイ,0
48,1011105010056,新規,0,2021-11-24,2021-11-24,特定非営利活動法人亜細亜文化藝術研究院,,その他の設立登記法人,東京都,新宿区,新宿４丁目１番２２号新宿コムロビル１００６号室,,13,104,1600022,,,,,,,2021-11-24,1,,,,,アジアブンカゲイジュツケンキュウイン,0
52,1011403003505,新規,0,2021-11-24,2021-11-24,合同会社ＴＵＫＵＲＵ,,合同会社,東京都,板橋区,中台３丁目２６番１６－５０１Ｄ号,,13,119,1740064,,,,,,,2021-11-24,1,,,,,ツクル,0
55,1011703002999,新規,0,2021-11-24,2021-11-24,ナダヤブラザーズ合同会社,,合同会社,東京都,江戸川区,南小岩７丁目１３番１２号,,13,123,1330056,,,,,,,2021-11-24,1,,,,,ナダヤブラザーズ,0
59,1012303001615,新規,0,2021-11-24,2021-11-24,合同会社善海,,合同会社,東京都,町田市,成瀬台２丁目３５番地２７,,13,209,1940043,,,,,,,2021-11-24,1,,,,,ゼンカイ,0
68,1013103001094,新規,0,2021-11-24,2021-11-24,たんぽぽ倶楽部合同会社,,合同会社,東京都,羽村市,栄町２丁目１４番地４グランツ羽村２０８,,13,227,2050002,,,,,,,2021-11-24,1,,,,,タンポポクラブ,0
75,1020001144058,新規,0,2021-11-24,2021-11-24,株式会社オケマル,,株式会社,神奈川県,横浜市港南区,港南台４丁目５番１４－４０４,,14,111,2340054,,,,,,,2021-11-24,1,,,,,オケマル,0
89,1030001145526,新規,0,2021-11-24,2021-11-24,株式会社ｖｅｒｍｉｌｌｉｏｎ,,株式会社,埼玉県,戸田市,川岸１丁目４番８－３０１号,,11,224,3350015,,,,,,,2021-11-24,1,,,,,バーミリオン,0
101,1040001039099,新規,0,2021-11-24,2021-11-24,市川建設株式会社,,株式会社,千葉県,松戸市,二十世紀が丘萩町３５０番地,,12,207,2710086,,,,,,,2021-11-24,1,,,,,,0
111,1040003018992,新規,0,2021-11-24,2021-11-24,合同会社アライブテックデザイン,,合同会社,千葉県,千葉市若葉区,加曽利町８２６番地２,,12,104,2640017,,,,,,,2021-11-24,1,,,,,アライブテックデザイン,0
119,1080001024601,新規,0,2021-11-24,2021-11-24,ＡＣ株式会社,,株式会社,静岡県,静岡市葵区,新通１丁目７番１９号,,22,101,4200065,,,,,,,2021-11-24,1,,,,,エーシー,0
128,1090003001993,新規,0,2021-11-24,2021-11-24,合同会社ＥＮエアコン,,合同会社,山梨県,中央市,山之神１０２２番地１０,,19,214,4093845,,,,,,,2021-11-24,1,,,,,イーエヌエアコン,0
129,1100003006297,新規,0,2021-11-24,2021-11-24,Ｓ＆Ｓ合同会社,,合同会社,長野県,北佐久郡軽井沢町,大字軽井沢１７５－２,,20,321,3890102,,,,,,,2021-11-24,1,,,,,エスアンドエス,0
142,1120001241992,新規,0,2021-11-24,2021-11-24,株式会社徳發,00124946,株式会社,大阪府,大阪市住之江区,浜口西１丁目１３番１５－２０３号,,27,125,5590006,,,,,,,2021-11-24,1,,,,,トクハツ,0
143,1120001242074,新規,0,2021-11-24,2021-11-24,株式会社ＳＨＩＮＩＮＧ．ｃｃ,,株式会社,大阪府,大阪市淀川区,野中南２丁目５番４５号,,27,123,5320022,,,,,,,2021-11-24,1,,,,,シャイニングシィシー,0
144,1120001242082,新規,0,2021-11-24,2021-11-24,株式会社Ｓ,,株式会社,大阪府,大阪市淀川区,木川東１丁目７番３０号,,27,123,5320012,,,,,,,2021-11-24,1,,,,,エス,0
145,1120003020627,新規,0,2021-11-24,2021-11-24,合同会社ＲＵＮＮＥＲ,,合同会社,大阪府,大阪市西成区,北津守４丁目４－１５,,27,122,5570061,,,,,,,2021-11-24,1,,,,,ランナー,0
147,1120901045246,新規,0,2021-11-24,2021-11-24,ＲＩＳＡ．ｉｎｃ株式会社,,株式会社,大阪府,茨木市,総持寺駅前町１－３６,,27,211,5670802,,,,,,,2021-11-24,1,,,,,リサインク,0
149,1122001035375,新規,0,2021-11-24,2021-11-24,アイワ商会株式会社,,株式会社,大阪府,柏原市,国分市場２丁目１３番１号,,27,221,5820022,,,,,,,2021-11-24,1,,,,,アイワショウカイ,0
152,1130001070581,新規,0,2021-11-24,2021-11-24,株式会社Ｄｕａｔ,,株式会社,京都府,福知山市,字野花７８４番地の５,,26,201,6200917,,,,,,,2021-11-24,1,,,,,ドゥアト,0
161,1140001123966,新規,0,2021-11-24,2021-11-24,株式会社オフィス・岳人,,株式会社,兵庫県,宝塚市,仁川月見ガ丘３番４４号,,28,214,6650067,,,,,,,2021-11-24,1,,,,,オフィスガクジン,0
165,1140003017027,新規,0,2021-11-24,2021-11-24,合同会社笑顔の木,,合同会社,兵庫県,川西市,中央町２番１－４０３,,28,217,6660016,,,,,,,2021-11-24,1,,,,,エガオノキ,0
169,1160003002431,新規,0,2021-11-24,2021-11-24,合同会社ツインドライヴ,,合同会社,滋賀県,大津市,中央１丁目５番１０－８０２号,,25,201,5200043,,,,,,,2021-11-24,1,,,,,,0
175,1180001148860,新規,0,2021-11-24,2021-11-24,株式会社ＮＳＰ２,,株式会社,愛知県,名古屋市中村区,名駅１丁目１番１号ＪＰタワー名古屋２１階,,23,105,4500002,,,,,,,2021-11-24,1,,,,,エヌエスピーツー,0
186,1200001039438,新規,0,2021-11-24,2021-11-24,株式会社Ｃｏｎｃｅｐｔ,,株式会社,岐阜県,土岐市,泉町久尻１４７７番地６,,21,212,5095142,,,,,,,2021-11-24,1,,,,,コンセプト,0
210,1290001095357,新規,0,2021-11-24,2021-11-24,株式会社Ａｌｌｕｒｅ,,株式会社,福岡県,福岡市博多区,博多駅前２丁目１９番１７号トーカン博多第５ビル３１２号室,,40,132,8120011,,,,,,,2021-11-24,1,,,,,アリュー,0
211,1290001095497,新規,0,2021-11-24,2021-11-24,ＳＹＭＹ株式会社,,株式会社,福岡県,春日市,昇町６丁目６８番地,,40,218,8160851,,,,,,,2021-11-24,1,,,,,エスワイエムワイ,0
212,1290001095506,新規,0,2021-11-24,2021-11-24,株式会社ウィズハウス,,株式会社,福岡県,福岡市西区,今宿東２丁目１０番５－１０９号,,40,135,8190161,,,,,,,2021-11-24,1,,,,,ウィズハウス,0
216,1290801028020,新規,0,2021-11-24,2021-11-24,株式会社ＧＳＩ地所,,株式会社,福岡県,北九州市小倉南区,守恒本町２丁目６番６号,,40,107,8020971,,,,,,,2021-11-24,1,,,,,ジーエスアイチショ,0
223,1330001029211,新規,0,2021-11-24,2021-11-24,株式会社Ｏｆｆｉｃｅ　ＨＡＲＵ,,株式会社,熊本県,玉名市,岱明町野口１８２番地２０,,43,206,8690222,,,,,,,2021-11-24,1,,,,,オフィスハル,0
229,1340005009373,新規,0,2021-11-24,2021-11-24,一般社団法人Ｐｒｅｓｅｅｄ,,その他の設立登記法人,鹿児島県,いちき串木野市,昭和通１８３番地２,,46,219,8960026,,,,,,,2021-11-24,1,,,,,プレシード,0
236,1360003011593,新規,0,2021-11-24,2021-11-24,合同会社Ｐｒｏｇｉｃ,,合同会社,沖縄県,中頭郡中城村,字南上原５８２番地３０街区５画地,,47,328,9012424,,,,,,,2021-11-24,1,,,,,プロジック,0
240,1380001032367,新規,0,2021-11-24,2021-11-24,株式会社イサバ,,株式会社,福島県,二本松市,塩沢町２丁目２９８番地５１,,07,210,9640897,,,,,,,2021-11-24,1,,,,,イサバ,0
243,1410001013025,新規,0,2021-11-24,2021-11-24,株式会社かるむ,,株式会社,秋田県,大仙市,神宮寺字本郷野８番地１,,05,212,0191701,,,,,,,2021-11-24,1,,,,,カルム,0
244,1420003002413,新規,0,2021-11-24,2021-11-24,合同会社華心,,合同会社,青森県,青森市,松原２丁目１２番１号,,02,201,0300813,,,,,,,2021-11-24,1,,,,,カシン,0
251,1430003013384,新規,0,2021-11-24,2021-11-24,合同会社ｓｅｔｔｅ,,合同会社,北海道,札幌市中央区,北九条西２３丁目２番１１－７０７号,,01,101,0600009,,,,,,,2021-11-24,1,,,,,セッテ,0
261,2010001222565,新規,0,2021-11-24,2021-11-24,株式会社パルクム,,株式会社,東京都,千代田区,九段南１丁目５番６号,,13,101,1020074,,,,,,,2021-11-24,1,,,,,パルクム,0
262,2010001222755,新規,0,2021-11-24,2021-11-24,ＪＩＳＫＫ株式会社,,株式会社,東京都,千代田区,丸の内２丁目２番２号,,13,101,1000005,,,,,,,2021-11-24,1,,,,,ジェイアイエスケーケー,0
267,2010005034247,新規,0,2021-11-24,2021-11-24,一般社団法人ＡＬＩＶＥ１,,その他の設立登記法人,東京都,中央区,八丁堀４丁目２番１０号ＡＯＪ税理士法人内,,13,102,1040032,,,,,,,2021-11-24,1,,,,,アライブワン,0
277,2010401163979,新規,0,2021-11-24,2021-11-24,Ｓｗｉｆｔ　Ｎａｖｉｇａｔｉｏｎ　Ｊａｐａｎ株式会社,,株式会社,東京都,港区,港南２丁目１６番１号品川イーストワンタワー７階,,13,103,1080075,,,,,,,2021-11-24,1,,,,,スウィフトナビゲーションジャパン,0
278,2010401164003,新規,0,2021-11-24,2021-11-24,ｇｆ．Ｉ株式会社,,株式会社,東京都,港区,高輪３丁目１２番８号,,13,103,1080074,,,,,,,2021-11-24,1,,,,,ジィエフドットアイ,0
280,2010403026481,新規,0,2021-11-24,2021-11-24,ダウラット合同会社,,合同会社,東京都,港区,六本木４丁目１番２六本木メイフラワーハウス６０３,,13,103,1060032,,,,,,,2021-11-24,1,,,,,,0
281,2010403026515,新規,0,2021-11-24,2021-11-24,エイアル合同会社,,合同会社,東京都,港区,六本木４丁目１番２号メイフラワーハウス１０２,,13,103,1060032,,,,,,,2021-11-24,1,,,,,エイアル,0
282,2010403026572,新規,0,2021-11-24,2021-11-24,あるひ合同会社,,合同会社,東京都,港区,浜松町２丁目７番１３号ＶＩＳＴＡ浜松町６階,,13,103,1050013,,,,,,,2021-11-24,1,,,,,アルヒ,0
283,2010403026597,新規,0,2021-11-24,2021-11-24,合同会社ｆｏｒ　ｕｓ,,合同会社,東京都,港区,芝浦４丁目５番１１－２０２号,,13,103,1080023,,,,,,,2021-11-24,1,,,,,フォーアス,0
293,2010801032503,新規,0,2021-11-24,2021-11-24,株式会社ｐｅｒｉｏｄ．,,株式会社,東京都,大田区,田園調布２丁目５１番６号,,13,111,1450071,,,,,,,2021-11-24,1,,,,,ピリオド,0
294,2010801032511,新規,0,2021-11-24,2021-11-24,株式会社Ｇｌｏｂａｌ－Ｎａｖｉ,,株式会社,東京都,大田区,池上６丁目３６番１０号４０１,,13,111,1460082,,,,,,,2021-11-24,1,,,,,グローバルナビ,0
299,2010901049851,新規,0,2021-11-24,2021-11-24,東海製陶ソリューションズ株式会社,,株式会社,東京都,世田谷区,上祖師谷５丁目７番７号,,13,112,1570065,,,,,,,2021-11-24,1,,,,,トウカイセイトウソリューションズ,0
300,2010903006958,新規,0,2021-11-24,2021-11-24,合同会社ＴｏＴｏＹ,,合同会社,東京都,世田谷区,砧３丁目２番２－２０１号,,13,112,1570073,,,,,,,2021-11-24,1,,,,,トトイ,0
303,2011003013721,新規,0,2021-11-24,2021-11-24,合同会社Ｓａｕｎａ＆Ｖｉｌｌａｇｅ,,合同会社,東京都,渋谷区,千駄ヶ谷３丁目４０－１０アーバンプレイス原宿１０８,,13,113,1510051,,,,,,,2021-11-24,1,,,,,サウナアンドヴィレッジ,0
304,2011003013762,新規,0,2021-11-24,2021-11-24,ファイブウィン合同会社,,合同会社,東京都,渋谷区,神宮前６丁目２３番４号桑野ビル２階,,13,113,1500001,,,,,,,2021-11-24,1,,,,,ファイブウィン,0
307,2011101096998,新規,0,2021-11-24,2021-11-24,株式会社ホフヌング,,株式会社,東京都,新宿区,舟町７番地４６ＬＡＮＤＤＥＮ舟町９０１,,13,104,1600006,,,,,,,2021-11-24,1,,,,,ホフヌング,0
313,2011701024862,新規,0,2021-11-24,2021-11-24,株式会社ＧＡＯＴｅｃｈ,,株式会社,東京都,江戸川区,平井４丁目１８番３－４０１号エステートＳＨＯＷＡ,,13,123,1320035,,,,,,,2021-11-24,1,,,,,ガオテック,0
319,2012305001983,新規,0,2021-11-24,2021-11-24,特定非営利活動法人Ｈｉｒｏ’ａ　ｆｉｅｌｄ,,その他の設立登記法人,東京都,町田市,西成瀬１丁目２９番１４号,,13,209,1940046,,,,,,,2021-11-24,1,,,,,ヒロアフィールド,0
321,2012401038574,新規,0,2021-11-24,2021-11-24,スリーパワー株式会社,,株式会社,東京都,府中市,府中町２丁目６番地の１３,,13,206,1830055,,,,,,,2021-11-24,1,,,,,スリーパワー,0
325,2013301048317,新規,0,2021-11-24,2021-11-24,株式会社伝助,,株式会社,東京都,豊島区,池袋２丁目１３番４号,,13,116,1710014,,,,,,,2021-11-24,1,,,,,デンスケ,0
332,2021001074566,新規,0,2021-11-24,2021-11-24,株式会社ｆｕｎ,,株式会社,神奈川県,厚木市,寿町１丁目７番１５－１号,,14,212,2430003,,,,,,,2021-11-24,1,,,,,ファン,0
346,2030001145509,新規,0,2021-11-24,2021-11-24,株式会社叶,,株式会社,埼玉県,吉川市,平沼１丁目１２－１８システムマンション２０２,,11,243,3420056,,,,,,,2021-11-24,1,,,,,カナ,0
347,2030001145517,新規,0,2021-11-24,2021-11-24,株式会社オプション工務店,,株式会社,埼玉県,さいたま市北区,東大成町１丁目６２６番地１野原ビル４階,,11,102,3310814,,,,,,,2021-11-24,1,,,,,オプションコウムテン,0
358,2040001121112,新規,0,2021-11-24,2021-11-24,株式会社Ｂ＆Ｊ　Ｄｅｓｉｇｎ,,株式会社,千葉県,千葉市中央区,祐光２丁目６番１２号,,12,101,2600007,,,,,,,2021-11-24,1,,,,,ビーアンドジェイデザイン,0
370,2070001038675,新規,0,2021-11-24,2021-11-24,株式会社クラージュ,,株式会社,群馬県,伊勢崎市,境伊与久１３０３番地２,,10,204,3700105,,,,,,,2021-11-24,1,,,,,クラージュ,0
376,2080103002462,新規,0,2021-11-24,2021-11-24,ＥＣＭサービス合同会社,,合同会社,静岡県,沼津市,住吉町４－１４,,22,203,4100816,,,,,,,2021-11-24,1,,,,,イーシーエムサービス,0
386,2100001034836,新規,0,2021-11-24,2021-11-24,株式会社唐松書房,,株式会社,長野県,諏訪郡下諏訪町,１１２番地１,,20,361,3930000,,,,,,,2021-11-24,1,,,,,カラマツショボウ,0
399,2120001242032,新規,0,2021-11-24,2021-11-24,株式会社ＷＴ建設,,株式会社,大阪府,大阪市中央区,南船場１丁目１６番２３－２０８号,,27,128,5420081,,,,,,,2021-11-24,1,,,,,ダブリューティーケンセツ,0
403,2120005022620,新規,0,2021-11-24,2021-11-24,一般社団法人キリン堂未病医学研究所,,その他の設立登記法人,大阪府,大阪市都島区,善源寺町２丁目８番１２号３階,,27,102,5340015,,,,,,,2021-11-24,1,,,,,キリンドウミビョウイガクケンキュウショ,0
405,2120901045237,新規,0,2021-11-24,2021-11-24,株式会社Ｓｅｒｅｎ,,株式会社,大阪府,豊中市,緑丘１丁目３１番２－１０７号,,27,203,5600002,,,,,,,2021-11-24,1,,,,,セレン,0
415,2130001070589,新規,0,2021-11-24,2021-11-24,株式会社ＲＥＯ保険グループ,,株式会社,京都府,城陽市,寺田水度坂１５番地の５４９,,26,207,6100121,,,,,,,2021-11-24,1,,,,,レオホケングループ,0
419,2140001123940,新規,0,2021-11-24,2021-11-24,株式会社オフィスマリブ,,株式会社,兵庫県,神戸市須磨区,行幸町１丁目１－３５ル・パレ須磨１４０２,,28,107,6540052,,,,,,,2021-11-24,1,,,,,オフィスマリブ,0
422,2150001025120,新規,0,2021-11-24,2021-11-24,株式会社中村介護タクシー,,株式会社,奈良県,桜井市,大字大福２４４－４,,29,206,6330067,,,,,,,2021-11-24,1,,,,,ナカムラカイゴタクシー,0
437,2180001148843,新規,0,2021-11-24,2021-11-24,アルファ鉄工株式会社,,株式会社,愛知県,津島市,唐臼町二ツ池５４番地,,23,208,4960026,,,,,,,2021-11-24,1,,,,,アルファテッコウ,0
438,2180001148884,新規,0,2021-11-24,2021-11-24,株式会社スマート,,株式会社,愛知県,北名古屋市,西之保青野１３１番地,,23,234,4810033,,,,,,,2021-11-24,1,,,,,スマート,0
445,2180301035650,新規,0,2021-11-24,2021-11-24,株式会社にこ,,株式会社,愛知県,豊橋市,つつじが丘３丁目３７番地の５,,23,201,4400858,,,,,,,2021-11-24,1,,,,,ニコ,0
446,2180303005180,新規,0,2021-11-24,2021-11-24,ＮａＶｉｅ合同会社,,合同会社,愛知県,豊田市,柿本町６丁目１８番地５グローリアス豊田柿本町３１０号,,23,211,4710855,,,,,,,2021-11-24,1,,,,,ナヴィ,0
448,2190001028879,新規,0,2021-11-24,2021-11-24,株式会社山本自動車,,株式会社,三重県,松阪市,飯南町粥見１７６２－１,,24,204,5151411,,,,,,,2021-11-24,1,,,,,ヤマモトジドウシャ,0
453,2200005013280,新規,0,2021-11-24,2021-11-24,特定非営利活動法人あいえんきえん,,その他の設立登記法人,岐阜県,揖斐郡揖斐川町,上南方５４５番地３６,,21,401,5010603,,,,,,,2021-11-24,1,,,,,アイエンキエン,0
454,2210001018695,新規,0,2021-11-24,2021-11-24,門機業株式会社,,株式会社,福井県,勝山市,元町３丁目５番１号,,18,206,9110804,,,,,,,2021-11-24,1,,,,,カドキギョウ,0
460,2240001058961,新規,0,2021-11-24,2021-11-24,株式会社カチコム,,株式会社,広島県,広島市西区,商工センター１丁目６番４０号,,34,104,7330833,,,,,,,2021-11-24,1,,,,,カチコム,0
464,2240003005383,新規,0,2021-11-24,2021-11-24,アグローバル合同会社,,合同会社,広島県,三原市,和田３丁目５番３２号,,34,204,7230041,,,,,,,2021-11-24,1,,,,,アグローバル,0
468,2280005007449,新規,0,2021-11-24,2021-11-24,一般社団法人石央物流団地協議会,,その他の設立登記法人,島根県,浜田市,下府町３２７番地８５,,32,202,6970006,,,,,,,2021-11-24,1,,,,,セキオウブツリュウダンチキョウギカイ,0
472,2290001095513,新規,0,2021-11-24,2021-11-24,株式会社知念,,株式会社,福岡県,小郡市,祇園２丁目６番地２－１１０２号,,40,216,8380144,,,,,,,2021-11-24,1,,,,,チネン,0
489,2320001018750,新規,0,2021-11-24,2021-11-24,株式会社清華工業,,株式会社,大分県,由布市,挾間町下市７５９番地２,,44,213,8795504,,,,,,,2021-11-24,1,,,,,セイカコウギョウ,0
492,2330001029219,新規,0,2021-11-24,2021-11-24,株式会社シアーズフォレスト,,株式会社,熊本県,熊本市南区,馬渡２丁目１２番３５号,,43,104,8620968,,,,,,,2021-11-24,1,,,,,シアーズフォレスト,0
494,2330003009144,新規,0,2021-11-24,2021-11-24,合同会社みうた,,合同会社,熊本県,山鹿市,鹿本町御宇田６４１番地,,43,208,8610304,,,,,,,2021-11-24,1,,,,,ミウタ,0
498,2340005009372,新規,0,2021-11-24,2021-11-24,特定非営利活動法人エラブてぃぬひら,,その他の設立登記法人,鹿児島県,大島郡知名町,大字知名１９０６－１,,46,534,8919214,,,,,,,2021-11-24,1,,,,,エラブティヌヒラ,0
499,2360001029678,新規,0,2021-11-24,2021-11-24,株式会社アールライト,,株式会社,沖縄県,那覇市,安里１丁目８番１４号,,47,201,9020067,,,,,,,2021-11-24,1,,,,,アールライト,0
501,2360003011592,新規,0,2021-11-24,2021-11-24,アイアンドウェイ合同会社,,合同会社,沖縄県,那覇市,字仲井真３９８番地４７・２階,,47,201,9020074,,,,,,,2021-11-24,1,,,,,アイアンドウェイ,0
513,2430001085433,新規,0,2021-11-24,2021-11-24,株式会社６６８８企画,,株式会社,北海道,札幌市豊平区,水車町４丁目１番１－５０３号,,01,105,0620912,,,,,,,2021-11-24,1,,,,,ロクロクハチハチキカク,0
516,2460001005628,新規,0,2021-11-24,2021-11-24,アテナ・ベスト株式会社,,株式会社,北海道,釧路市,堀川町５番２４号,,01,206,0850007,,,,,,,2021-11-24,1,,,,,アテナベスト,0
521,2480005006868,新規,0,2021-11-24,2021-11-24,一般社団法人野球でまちを元気にする会,,その他の設立登記法人,徳島県,阿南市,宝田町今市中新開２３番地３,,36,204,7740045,,,,,,,2021-11-24,1,,,,,ヤキュウデマチヲゲンキニスルカイ,0
524,2500001023831,新規,0,2021-11-24,2021-11-24,株式会社ＫＡＩＴ,,株式会社,愛媛県,今治市,南宝来町１丁目８番地１８,,38,202,7940043,,,,,,,2021-11-24,1,,,,,カイト,0
536,3010003036252,新規,0,2021-11-24,2021-11-24,合同会社ＣＯＣＯ,,合同会社,東京都,大島町,元町字家の上４６２－４,,13,361,1000101,,,,,,,2021-11-24,1,,,,,ココ,0
543,3010401163994,新規,0,2021-11-24,2021-11-24,株式会社ＡｄＧｒｉｔ,,株式会社,東京都,港区,北青山２丁目７番１３号プラセオ青山ビル３Ｆ,,13,103,1070061,,,,,,,2021-11-24,1,,,,,アドグリット,0
547,3010403026497,新規,0,2021-11-24,2021-11-24,みなと合同会社,,合同会社,東京都,港区,元赤坂１丁目１番７号,,13,103,1070051,,,,,,,2021-11-24,1,,,,,ミナト,0
548,3010403026588,新規,0,2021-11-24,2021-11-24,ＲＢソーラーヘキサゴン合同会社,,合同会社,東京都,港区,虎ノ門３丁目２２番１０－２０１号,,13,103,1050001,,,,,,,2021-11-24,1,,,,,アールビーソーラーヘキサゴン,0
549,3010405020449,新規,0,2021-11-24,2021-11-24,ＲＢソーラーパッション５ホールディングス一般社団法人,,その他の設立登記法人,東京都,港区,虎ノ門３丁目２２番１０－２０１号,,13,103,1050001,,,,,,,2021-11-24,1,,,,,アールビーソーラーパッションファイブホールディングス,0
550,3010405020457,新規,0,2021-11-24,2021-11-24,Ｔインフラホールディングス５号一般社団法人,,その他の設立登記法人,東京都,港区,元赤坂１丁目１番７号,,13,103,1070051,,,,,,,2021-11-24,1,,,,,ティーインフラホールディングスゴゴウ,0
561,3010601060273,新規,0,2021-11-24,2021-11-24,株式会社Ｒ＆Ｙ,,株式会社,東京都,墨田区,墨田４丁目１６番１０号,,13,107,1310031,,,,,,,2021-11-24,1,,,,,アールアンドワイ,0
565,3010801032510,新規,0,2021-11-24,2021-11-24,株式会社石田,,株式会社,東京都,大田区,鵜の木１丁目２５番１９号,,13,111,1460091,,,,,,,2021-11-24,1,,,,,イシダ,0
569,3010901049859,新規,0,2021-11-24,2021-11-24,株式会社Ａｎｏｔｈｅｒ　Ｍａｐ,,株式会社,東京都,世田谷区,三宿１丁目６番１４号ＲＢＭ池尻大橋レジデンス２０２,,13,112,1540005,,,,,,,2021-11-24,1,,,,,アナザーマップ,0
570,3010903006957,新規,0,2021-11-24,2021-11-24,アドコシステムサービス合同会社,,合同会社,東京都,世田谷区,三宿１丁目８番１０－１０６号,,13,112,1540005,,,,,,,2021-11-24,1,,,,,アドコシステムサービス,0
574,3011001144039,新規,0,2021-11-24,2021-11-24,株式会社ＪＯＢＯＲＡ,,株式会社,東京都,渋谷区,広尾１丁目１３番１号,,13,113,1500012,,,,,,,2021-11-24,1,,,,,ジョボラ,0
575,3011001144204,新規,0,2021-11-24,2021-11-24,株式会社利通商事,,株式会社,東京都,渋谷区,神宮前６丁目２３番４号桑野ビル２階,,13,113,1500001,,,,,,,2021-11-24,1,,,,,リツウショウジ,0
576,3011003013737,新規,0,2021-11-24,2021-11-24,合同会社ＴＫＲ,,合同会社,東京都,目黒区,八雲３丁目８番１８号,,13,110,1520023,,,,,,,2021-11-24,1,,,,,ティーケーアール,0
577,3011003013778,新規,0,2021-11-24,2021-11-24,合同会社ＪＰＹＰＴ,,合同会社,東京都,渋谷区,渋谷２丁目１９番１５号宮益坂ビルディング６０９,,13,113,1500002,,,,,,,2021-11-24,1,,,,,ジェーピーワイポインツ,0
578,3011103011203,新規,0,2021-11-24,2021-11-24,合同会社憩い・ときめき創造工房,,合同会社,東京都,新宿区,北新宿２丁目６番２０－３０２号,,13,104,1690074,,,,,,,2021-11-24,1,,,,,イコイトキメキソウゾウコウボウ,0
583,3012305001982,新規,0,2021-11-24,2021-11-24,一般社団法人Ｂａｂｙ　Ｔｈｅａｔｒｅ　Ｌａｂ,,その他の設立登記法人,東京都,町田市,東玉川学園２丁目１番２０号,,13,209,1940042,,,,,,,2021-11-24,1,,,,,ベイビーシアターラボ,0
584,3012401038557,新規,0,2021-11-24,2021-11-24,株式会社オルソシード,,株式会社,東京都,狛江市,中和泉３丁目３０番２４号,,13,219,2010012,,,,,,,2021-11-24,1,,,,,オルソシード,0
585,3012401038565,新規,0,2021-11-24,2021-11-24,株式会社いろはホーム,,株式会社,東京都,府中市,清水が丘３丁目２６番地の１８,,13,206,1830015,,,,,,,2021-11-24,1,,,,,イロハホーム,0
586,3012401038573,新規,0,2021-11-24,2021-11-24,株式会社ｉｎｆｉｎｉｔｉ,,株式会社,東京都,狛江市,東和泉１丁目３－１－３０２,,13,219,2010014,,,,,,,2021-11-24,1,,,,,インフィニティ,0
587,3012701016782,新規,0,2021-11-24,2021-11-24,株式会社Ｇｌｉｓ　Ｐｒоｄｕｃｔｉоｎ,,株式会社,東京都,西東京市,下保谷４丁目５番２３号,,13,229,2020004,,,,,,,2021-11-24,1,,,,,グリスプロダクション,0
593,3013305003283,新規,0,2021-11-24,2021-11-24,行政書士法人経営サポートプラスアルファ,,その他の設立登記法人,東京都,豊島区,東池袋１丁目１０番１号住友池袋駅前ビル４階,,13,116,1700013,,,,,,,2021-11-24,1,,,,,ケイエイサポートプラスアルファ,0
595,3020001144056,新規,0,2021-11-24,2021-11-24,株式会社Ｇ－ＬＡＢＯ,,株式会社,神奈川県,横浜市磯子区,丸山１丁目１１番１号グランスイート横浜ウィルステージ６０４,,14,107,2350011,,,,,,,2021-11-24,1,,,,,ジーラボ,0
596,3020001144064,新規,0,2021-11-24,2021-11-24,三豊サービス株式会社,,株式会社,神奈川県,横浜市保土ケ谷区,狩場町１６９番地１２５,,14,106,2400025,,,,,,,2021-11-24,1,,,,,サンポウサービス,0
615,3030001145516,新規,0,2021-11-24,2021-11-24,株式会社アーリーバード,,株式会社,埼玉県,狭山市,富士見１丁目３番地１３号,,11,215,3501306,,,,,,,2021-11-24,1,,,,,アーリーバード,0
619,3030003018364,新規,0,2021-11-24,2021-11-24,明成合同会社,,合同会社,埼玉県,朝霞市,西弁財１丁目１０番１６号ナウヴィレッジ朝霞台地下Ａ,,11,227,3510021,,,,,,,2021-11-24,1,,,,,メイセイ,0
630,3040003018990,新規,0,2021-11-24,2021-11-24,合同会社ＷＳ,,合同会社,千葉県,千葉市稲毛区,小中台町５０１番地３棟１００６号,,12,103,2630044,,,,,,,2021-11-24,1,,,,,ダブリュエス,0
647,3100001034835,新規,0,2021-11-24,2021-11-24,株式会社こまいフードサービス,,株式会社,長野県,松本市,大字和田２６２番地２,,20,202,3901242,,,,,,,2021-11-24,1,,,,,コマイフードサービス,0
663,3120001242031,新規,0,2021-11-24,2021-11-24,株式会社ｔｏｎｅｓ,,株式会社,大阪府,大阪市東淀川区,菅原４丁目６番４－３０４号,,27,114,5330022,,,,,,,2021-11-24,1,,,,,トーンズ,0
664,3120001242072,新規,0,2021-11-24,2021-11-24,Ｔｉｋｔｏｐメディア株式会社,,株式会社,大阪府,大阪市東成区,大今里南１丁目７番１７号アイ・マンション今里３０３号,,27,115,5370013,,,,,,,2021-11-24,1,,,,,チクトップメディア,0
673,3122003002223,新規,0,2021-11-24,2021-11-24,合同会社米子さくら茶屋,,合同会社,大阪府,東大阪市,鷹殿町９番５号,,27,227,5798036,,,,,,,2021-11-24,1,,,,,ヨナゴサクラチャヤ,0
677,3130001070588,新規,0,2021-11-24,2021-11-24,ＤＥＢＵ．ｃｏｍ株式会社,,株式会社,京都府,京都市山科区,上花山坂尻４－２２グレース上花山２０２,,26,110,6078465,,,,,,,2021-11-24,1,,,,,デブドットコム,0
683,3140001123948,新規,0,2021-11-24,2021-11-24,株式会社咲良,,株式会社,兵庫県,神戸市東灘区,住吉本町１丁目１７番１５号,,28,101,6580051,,,,,,,2021-11-24,1,,,,,サクラ,0
685,3140003017009,新規,0,2021-11-24,2021-11-24,合同会社ＡＰＯＬＬＯ,,合同会社,兵庫県,三木市,志染町青山２丁目１１番地の７,,28,215,6730521,,,,,,,2021-11-24,1,,,,,アポロ,0
700,3180001148735,新規,0,2021-11-24,2021-11-24,株式会社パイン・サークル,,株式会社,愛知県,名古屋市瑞穂区,瑞穂通６丁目３２番地の２,,23,108,4670806,,,,,,,2021-11-24,1,,,,,パインサークル,0
701,3180001148850,新規,0,2021-11-24,2021-11-24,株式会社ＭＨＭ,,株式会社,愛知県,名古屋市守山区,大森１丁目１７０３番地,,23,113,4630021,,,,,,,2021-11-24,1,,,,,エムエイチエム,0
708,3180301035641,新規,0,2021-11-24,2021-11-24,株式会社カーコーティングワークス,,株式会社,愛知県,蒲郡市,三谷北通４丁目５３番地,,23,214,4430022,,,,,,,2021-11-24,1,,,,,カーコーティングワークス,0
711,3190005011649,新規,0,2021-11-24,2021-11-24,特定非営利活動法人伊勢鷲嶺里山再生プロジェクト,,その他の設立登記法人,三重県,伊勢市,上野町字東山４２７番２６９３,,24,203,5161104,,,,,,,2021-11-24,1,,,,,イセシュウレイサトヤマサイセイプロジェクト,0
714,3200001039436,新規,0,2021-11-24,2021-11-24,Ａ－ＴＥＣＨ株式会社,,株式会社,岐阜県,羽島市,福寿町本郷１丁目１４２番地,,21,209,5016254,,,,,,,2021-11-24,1,,,,,エーテック,0
715,3200001039452,新規,0,2021-11-24,2021-11-24,株式会社ｐｕｂｌｉ,,株式会社,岐阜県,岐阜市,日野南８丁目３６－１３,,21,201,5008212,,,,,,,2021-11-24,1,,,,,パブリ,0
719,3230001019113,新規,0,2021-11-24,2021-11-24,株式会社大井鉄筋工業,,株式会社,富山県,富山市,水橋常願寺１１８番地,,16,201,9393543,,,,,,,2021-11-24,1,,,,,オオイテッキンコウギョウ,0
722,3240001058977,新規,0,2021-11-24,2021-11-24,株式会社ＪＰＮ　ＰＲＩＤＥ,,株式会社,広島県,広島市西区,庚午北１丁目２－７－２０１,,34,104,7330821,,,,,,,2021-11-24,1,,,,,ジェイピーエヌプライド,0
733,3290001095504,新規,0,2021-11-24,2021-11-24,株式会社ＣＩＲＣＵＬＡＴＥ,,株式会社,福岡県,福岡市中央区,天神２丁目３番１０－７１９号,,40,133,8100001,,,,,,,2021-11-24,1,,,,,サーキュレイト,0
736,3290801028019,新規,0,2021-11-24,2021-11-24,株式会社翼ＬＩＮＥ,,株式会社,福岡県,行橋市,大字入覚６８８番地１,,40,213,8240077,,,,,,,2021-11-24,1,,,,,ツバサライン,0
743,3360001029677,新規,0,2021-11-24,2021-11-24,八福株式会社,,株式会社,沖縄県,那覇市,字天久１１９６番地１２藤浦通関ビル３階ＳｅａｓｉｄｅＯｆｆｉｃｅ３１３号室,,47,201,9000005,,,,,,,2021-11-24,1,,,,,ハチフク,0
744,3360003011583,新規,0,2021-11-24,2021-11-24,Ｔ’ｚ　ｗｏｒｋｓ合同会社,,合同会社,沖縄県,那覇市,金城１丁目１２番２３号,,47,201,9010155,,,,,,,2021-11-24,1,,,,,ティーズワークス,0
747,3370005010384,新規,0,2021-11-24,2021-11-24,特定非営利活動法人エムケイベース,,その他の設立登記法人,宮城県,仙台市泉区,泉中央３丁目２７番地の１０,,04,105,9813133,,,,,,,2021-11-24,1,,,,,エムケイベース,0
757,3430001085440,新規,0,2021-11-24,2021-11-24,株式会社Ｓｏｌ　Ｆｏｕｒｓ,,株式会社,北海道,札幌市豊平区,月寒東二条１１丁目３番１３号,,01,105,0620052,,,,,,,2021-11-24,1,,,,,ソルフォース,0
766,3700150105599,新規,0,2021-11-24,2021-11-04,シティタワー大崎管理組合,,その他,東京都,品川区,大崎５丁目９－９,,13,109,1410032,,,,,,,2021-11-04,1,,,,,シテイタワーオオサキカンリクミアイ,0
777,4010003036342,新規,0,2021-11-24,2021-11-24,ＰｌａｎＺ合同会社,,合同会社,東京都,中央区,銀座４丁目１３番８号岩藤ビル５階,,13,102,1040061,,,,,,,2021-11-24,1,,,,,プランツ,0
779,4010103001816,新規,0,2021-11-24,2021-11-24,合同会社クマノミ総研,,合同会社,東京都,八王子市,元八王子町３丁目２７５０番地９７９,,13,201,1930826,,,,,,,2021-11-24,1,,,,,クマノミソウケン,0
786,4010401164001,新規,0,2021-11-24,2021-11-24,株式会社ＡｕｔｏＤａｔｅ,,株式会社,東京都,港区,芝４丁目７番６号芝ビルディング７０４,,13,103,1080014,,,,,,,2021-11-24,1,,,,,オートデート,0
790,4010403026587,新規,0,2021-11-24,2021-11-24,ＲＢソーラーペンタゴン合同会社,,合同会社,東京都,港区,虎ノ門３丁目２２番１０－２０１号,,13,103,1050001,,,,,,,2021-11-24,1,,,,,アールビーソーラーペンタゴン,0
795,4010601060272,新規,0,2021-11-24,2021-11-24,株式会社藤井建築設計事務所,,株式会社,東京都,江東区,冬木１２番４号間部ビル３階,,13,108,1350041,,,,,,,2021-11-24,1,,,,,フジイケンチクセッケイジムショ,0
801,4010901049858,新規,0,2021-11-24,2021-11-24,株式会社ネクストライフスタイル,,株式会社,東京都,世田谷区,若林１丁目２８番２号,,13,112,1540023,,,,,,,2021-11-24,1,,,,,ネクストライフスタイル,0
802,4010903006956,新規,0,2021-11-24,2021-11-24,合同会社ミズホコーポレーション,,合同会社,東京都,世田谷区,奥沢３丁目４番１４号,,13,112,1580083,,,,,,,2021-11-24,1,,,,,ミズホコーポレーション,0
810,4011003013728,新規,0,2021-11-24,2021-11-24,合同会社チェシア,,合同会社,東京都,渋谷区,渋谷１丁目１７番６－４０３号,,13,113,1500002,,,,,,,2021-11-24,1,,,,,チェシア,0
811,4011003013736,新規,0,2021-11-24,2021-11-24,合同会社エンカウンター,,合同会社,東京都,目黒区,目黒１丁目５番１８号７０３,,13,110,1530063,,,,,,,2021-11-24,1,,,,,エンカウンター,0
816,4011101096996,新規,0,2021-11-24,2021-11-24,株式会社Ｖｅ,,株式会社,東京都,新宿区,西新宿４丁目４１番７－８０６号,,13,104,1600023,,,,,,,2021-11-24,1,,,,,ビー,0
817,4011101097004,新規,0,2021-11-24,2021-11-24,株式会社アドコネクト,,株式会社,東京都,新宿区,西新宿３丁目３番１３号,,13,104,1600023,,,,,,,2021-11-24,1,,,,,アドコネクト,0
819,4011103011185,新規,0,2021-11-24,2021-11-24,ＦｒｅｅＹＥＳ合同会社,,合同会社,東京都,新宿区,馬場下町６１－１０ＫＳビル５Ｆ,,13,104,1620045,,,,,,,2021-11-24,1,,,,,フリーイエス,0
820,4011103011202,新規,0,2021-11-24,2021-11-24,合同会社ｐｒａｔｙａ,,合同会社,東京都,新宿区,西新宿３丁目３番１３号西新宿水間ビル６階,,13,104,1600023,,,,,,,2021-11-24,1,,,,,プラティア,0
823,4011501027510,新規,0,2021-11-24,2021-11-24,株式会社Ｍ’ｓカンパニー,,株式会社,東京都,荒川区,西日暮里２丁目２２番１－３００７号,,13,118,1160013,,,,,,,2021-11-24,1,,,,,エムズカンパニー,0
824,4011701024860,新規,0,2021-11-24,2021-11-24,株式会社宝悦商事,,株式会社,東京都,江戸川区,中央４丁目５番１５－２０２号,,13,123,1320021,,,,,,,2021-11-24,1,,,,,ホウエショウジ,0
825,4011801039998,新規,0,2021-11-24,2021-11-24,株式会社スポーツのミカタ,,株式会社,東京都,足立区,江北１丁目２５番１８号,,13,121,1230872,,,,,,,2021-11-24,1,,,,,スポーツノミカタ,0
826,4012303001620,新規,0,2021-11-24,2021-11-24,合同会社アラインゲンガー,,合同会社,東京都,町田市,真光寺１丁目１６番地８,,13,209,1950057,,,,,,,2021-11-24,1,,,,,アラインゲンガー,0
828,4012401038564,新規,0,2021-11-24,2021-11-24,株式会社ＢＡＫＥ　ＬＡＢＯ,,株式会社,東京都,武蔵野市,吉祥寺東町１丁目６番２４号,,13,203,1800002,,,,,,,2021-11-24,1,,,,,ベイクラボ,0
833,4013301048298,新規,0,2021-11-24,2021-11-24,セイテンゴウ株式会社,,株式会社,東京都,豊島区,北大塚２丁目８番１０号,,13,116,1700004,,,,,,,2021-11-24,1,,,,,セイテンゴウ,0
841,4020001144047,新規,0,2021-11-24,2021-11-24,株式会社村田コーポレーション,,株式会社,神奈川県,横浜市中区,本牧和田７番２１号,,14,104,2310827,,,,,,,2021-11-24,1,,,,,ムラタコーポレーション,0
860,4030001145325,新規,0,2021-11-24,2021-11-24,全翔冷電株式会社,,株式会社,埼玉県,さいたま市南区,松本３丁目１１番６号,,11,108,3360035,,,,,,,2021-11-24,1,,,,,ゼンショウレイデン,0
863,4030003018339,新規,0,2021-11-24,2021-11-24,合同会社ＹＡＭＡ,,合同会社,埼玉県,川口市,金山町２番３－５０３号イニシア川口,,11,203,3320014,,,,,,,2021-11-24,1,,,,,ヤマ,0
864,4030003018363,新規,0,2021-11-24,2021-11-24,合同会社Ｈ．Ｆ．Ｅ．ＳＨＡＲＥ　ＮＥＴ,,合同会社,埼玉県,ふじみ野市,市沢１丁目３番２０号,,11,245,3560057,,,,,,,2021-11-24,1,,,,,エイチエフイーシェアネット,0
880,4060003003866,新規,0,2021-11-24,2021-11-24,ＴＯＫＹＯ　ＴＲＡＤＩＮＧ合同会社,,合同会社,栃木県,小山市,城東６丁目１６番１０号,,09,208,3230807,,,,,,,2021-11-24,1,,,,,トウキョウトレーディング,0
889,4080101022931,新規,0,2021-11-24,2021-11-24,株式会社ユーモアイロ,,株式会社,静岡県,伊豆市,大平１９５番地の３,,22,222,4102415,,,,,,,2021-11-24,1,,,,,ユーモアイロ,0
895,4100001034834,新規,0,2021-11-24,2021-11-24,株式会社和工,,株式会社,長野県,諏訪市,大字湖南１１９５番地１,,20,206,3920131,,,,,,,2021-11-24,1,,,,,ワコウ,0
904,4120001241981,新規,0,2021-11-24,2021-11-24,株式会社ＭＡＪＵＮＥ,,株式会社,大阪府,大阪市都島区,東野田町３丁目１２－１１日祥ビル４Ｆ,,27,102,5340024,,,,,,,2021-11-24,1,,,,,マジュン,0
905,4120001242030,新規,0,2021-11-24,2021-11-24,株式会社ＫＴＡ,,株式会社,大阪府,大阪市生野区,林寺３丁目４番１０号,,27,116,5440023,,,,,,,2021-11-24,1,,,,,ケイティエイ,0
922,4140001123955,新規,0,2021-11-24,2021-11-24,Ｖｏｌｌｍｏｎｄ株式会社,,株式会社,兵庫県,神戸市中央区,海岸通３丁目１番１号,,28,110,6500024,,,,,,,2021-11-24,1,,,,,フォルモント,0
925,4150001025119,新規,0,2021-11-24,2021-11-24,株式会社みやこ電化センター,,株式会社,奈良県,奈良市,学園大和町１丁目１番地の２４,,29,201,6310041,,,,,,,2021-11-24,1,,,,,ミヤコデンカセンター,0
943,4180301035649,新規,0,2021-11-24,2021-11-24,さんさん保育園株式会社,,株式会社,愛知県,高浜市,屋敷町１丁目６番地６,,23,227,4441331,,,,,,,2021-11-24,1,,,,,サンサンホイクエン,0
944,4180301035657,新規,0,2021-11-24,2021-11-24,株式会社ＲＩＳＥ,,株式会社,愛知県,豊橋市,下地町字橋口１２４番地の１３,,23,201,4400086,,,,,,,2021-11-24,1,,,,,ライズ,0
950,4190005011648,新規,0,2021-11-24,2021-11-24,特定非営利活動法人日本メンタルヘルスの会,,その他の設立登記法人,三重県,四日市市,鵜の森１丁目２番１９号マルキビル２階,,24,202,5100074,,,,,,,2021-11-24,1,,,,,ニホンメンタルヘルスノカイ,0
959,4200001039451,新規,0,2021-11-24,2021-11-24,オドルキカク株式会社,,株式会社,岐阜県,岐阜市,島栄町２丁目２４番地,,21,201,5020904,,,,,,,2021-11-24,1,,,,,オドルキカク,0
962,4200003005385,新規,0,2021-11-24,2021-11-24,合同会社桜,,合同会社,岐阜県,美濃市,字小倉山１５７１番地３,,21,207,5013701,,,,,,,2021-11-24,1,,,,,サクラ,0
965,4200005013279,新規,0,2021-11-24,2021-11-24,特定非営利活動法人いびわんすと,,その他の設立登記法人,岐阜県,揖斐郡揖斐川町,脛永１２１５番地１３,,21,401,5010622,,,,,,,2021-11-24,1,,,,,イビワンスト,0
968,4230001019112,新規,0,2021-11-24,2021-11-24,株式会社こぐま商会,,株式会社,富山県,高岡市,姫野５２４番地３,,16,202,9340093,,,,,,,2021-11-24,1,,,,,コグマショウカイ,0
971,4240001058976,新規,0,2021-11-24,2021-11-24,株式会社Ｃｏｎｔｒｉｂｕｔｅ,,株式会社,広島県,広島市東区,二葉の里３丁目５－７ＧＲＡＮＯＤＥ広島３Ｆ,,34,102,7320057,,,,,,,2021-11-24,1,,,,,コントリビュート,0
977,4240003005381,新規,0,2021-11-24,2021-11-24,アンカー合同会社,,合同会社,広島県,福山市,寺町１５番５号,,34,207,7200041,,,,,,,2021-11-24,1,,,,,アンカー,0
989,4290001094983,新規,0,2021-11-24,2021-11-24,株式会社ＶＯＬＵＴＴＡ,,株式会社,福岡県,久留米市,三潴町草場４２６,,40,203,8300105,,,,,,,2021-11-24,1,,,,,ボルッタ,0
991,4290005018435,新規,0,2021-11-24,2021-11-24,一般社団法人こもも,,その他の設立登記法人,福岡県,宗像市,須恵３丁目５番６号,,40,220,8113405,,,,,,,2021-11-24,1,,,,,コモモ,0
998,4330001029217,新規,0,2021-11-24,2021-11-24,株式会社ヤマト建装,,株式会社,熊本県,熊本市東区,渡鹿８丁目１１－６,,43,102,8620970,,,,,,,2021-11-24,1,,,,,ヤマトケンソウ,0
1000,4330003009142,新規,0,2021-11-24,2021-11-24,合同会社未来計画,,合同会社,熊本県,熊本市中央区,九品寺３丁目１７番２号,,43,101,8620976,,,,,,,2021-11-24,1,,,,,ミライケイカク,0
1002,4350003003977,新規,0,2021-11-24,2021-11-24,リバウォーク合同会社,,合同会社,宮崎県,宮崎市,鶴島３丁目５０番地,,45,201,8800014,,,,,,,2021-11-24,1,,,,,リバウォーク,0
1013,4380005012503,新規,0,2021-11-24,2021-11-24,一般社団法人ＩМＡ,,その他の設立登記法人,福島県,会津若松市,門田町大字一ノ堰字村東４０番地,,07,202,9650844,,,,,,,2021-11-24,1,,,,,イマ,0
1019,4410001013022,新規,0,2021-11-24,2021-11-24,あきた白神環境テクノロジー株式会社,,株式会社,秋田県,能代市,落合字上悪土１６４番地,,05,202,0160014,,,,,,,2021-11-24,1,,,,,アキタシラカミカンキョウテクノロジー,0
1023,4420003002410,新規,0,2021-11-24,2021-11-24,合同会社ＨＩＲＯＳＵＮＲＩＳＥＳ　ＩＳＨＩＢＡＳＨＩ,,合同会社,青森県,上北郡おいらせ町,青葉３丁目５０番地２１９５,,02,412,0392189,,,,,,,2021-11-24,1,,,,,ヒロサンライズイシバシ,0
1026,4430001085423,新規,0,2021-11-24,2021-11-24,株式会社ＴＨＲＥＥ,,株式会社,北海道,札幌市中央区,宮の森一条５丁目１－６スリットビル２階,,01,101,0640951,,,,,,,2021-11-24,1,,,,,スリー,0
1027,4430001085431,新規,0,2021-11-24,2021-11-24,株式会社ネクストステージ,,株式会社,北海道,札幌市中央区,南九条西４丁目３番１－３４０８号,,01,101,0640809,,,,,,,2021-11-24,1,,,,,ネクストステージ,0
1032,4700150093249,新規,0,2021-11-24,2019-03-06,八幡ロータリークラブ,,その他,福岡県,北九州市八幡東区,枝光１丁目１－１アクティブリゾーツ福岡八幡内,,40,108,8050002,,,,,,,2019-03-06,1,,,,,ヤハタロータリークラブ,0
1040,5010001222752,新規,0,2021-11-24,2021-11-24,建翔リアルティ株式会社,,株式会社,東京都,千代田区,永田町２丁目１１番１号山王パークタワー３階,,13,101,1000014,,,,,,,2021-11-24,1,,,,,ケンショウリアルティ,0
1044,5010005034244,新規,0,2021-11-24,2021-11-24,一般社団法人オルキュウ,,その他の設立登記法人,東京都,千代田区,丸の内３丁目１番１号東京共同会計事務所内,,13,101,1000005,,,,,,,2021-11-24,1,,,,,オルキュウ,0
1048,5010103001815,新規,0,2021-11-24,2021-11-24,ダイナ合同会社,,合同会社,東京都,八王子市,七国６丁目５１番３号,,13,201,1920919,,,,,,,2021-11-24,1,,,,,ダイナ,0
1050,5010401163613,新規,0,2021-11-24,2021-11-24,株式会社ｉすくりーん,,株式会社,東京都,港区,六本木４丁目９－２－８１５,,13,103,1060032,,,,,,,2021-11-24,1,,,,,アイスクリーン,0
1054,5010403026578,新規,0,2021-11-24,2021-11-24,ＷＦＳ　Ｉｍｐｏｒｔ合同会社,,合同会社,東京都,港区,南青山２丁目２番１５号ウィン青山１３０２,,13,103,1070062,,,,,,,2021-11-24,1,,,,,ダブリューエフエスインポート,0
1055,5010403026586,新規,0,2021-11-24,2021-11-24,ＲＢソーラースクエア合同会社,,合同会社,東京都,港区,虎ノ門３丁目２２番１０－２０１号,,13,103,1050001,,,,,,,2021-11-24,1,,,,,アールビーソーラースクエア,0
1056,5010403026594,新規,0,2021-11-24,2021-11-24,Ｔインフラ５号合同会社,,合同会社,東京都,港区,元赤坂１丁目１番７号,,13,103,1070051,,,,,,,2021-11-24,1,,,,,ティーインフラゴゴウ,0
1059,5010501048111,新規,0,2021-11-24,2021-11-24,リキアン株式会社,,株式会社,東京都,台東区,鳥越１丁目２５番６号,,13,106,1110054,,,,,,,2021-11-24,1,,,,,リキアン,0
1065,5010601060271,新規,0,2021-11-24,2021-11-24,株式会社桜佰,,株式会社,東京都,墨田区,押上１丁目１５番２－４０２号,,13,107,1310045,,,,,,,2021-11-24,1,,,,,サクラハク,0
1071,5010703006008,新規,0,2021-11-24,2021-11-24,合同会社ＥＰＩＬＯＧＵＥ,,合同会社,東京都,品川区,東五反田１丁目１７番１１号,,13,109,1410022,,,,,,,2021-11-24,1,,,,,エピローグ,0
1077,5010803003961,新規,0,2021-11-24,2021-11-24,キッズロボ合同会社,,合同会社,東京都,大田区,矢口１丁目２０番３号ＭＡビル１Ｆ,,13,111,1460093,,,,,,,2021-11-24,1,,,,,キッズロボ,0
1082,5010901049849,新規,0,2021-11-24,2021-11-24,株式会社ＳＴＯＡ,,株式会社,東京都,世田谷区,岡本２丁目３４番１１号,,13,112,1570076,,,,,,,2021-11-24,1,,,,,ストア,0
1088,5011003013735,新規,0,2021-11-24,2021-11-24,合同会社サンロード,,合同会社,東京都,目黒区,目黒１丁目５番１８号７０３,,13,110,1530063,,,,,,,2021-11-24,1,,,,,サンロード,0
1096,5011101096913,新規,0,2021-11-24,2021-11-24,株式会社ＭｘＳストラテジー,,株式会社,東京都,新宿区,歌舞伎町１丁目１番１５号東信同和ビル８０３号,,13,104,1600021,,,,,,,2021-11-24,1,,,,,エムバイエスストラテジー,0
1097,5011101096962,新規,0,2021-11-24,2021-11-24,宏盛国際株式会社,,株式会社,東京都,新宿区,北新宿３丁目１２番２１号,,13,104,1690074,,,,,,,2021-11-24,1,,,,,ヒロモリコクサイ,0
1098,5011103011201,新規,0,2021-11-24,2021-11-24,合同会社日和,,合同会社,東京都,新宿区,歌舞伎町２丁目８番９号,,13,104,1600021,,,,,,,2021-11-24,1,,,,,ヒヨリ,0
1112,5012401038563,新規,0,2021-11-24,2021-11-24,株式会社ベネット電気,,株式会社,東京都,府中市,是政６丁目２７番地の２３,,13,206,1830014,,,,,,,2021-11-24,1,,,,,ベネットデンキ,0
1118,5013301048280,新規,0,2021-11-24,2021-11-24,株式会社ＡＮ,,株式会社,東京都,豊島区,南大塚１丁目４６－１４－２０５,,13,116,1700005,,,,,,,2021-11-24,1,,,,,アン,0
1123,5020001144062,新規,0,2021-11-24,2021-11-24,株式会社ＣＦＱ,,株式会社,神奈川県,川崎市宮前区,馬絹２丁目１４番１－２号,,14,136,2160035,,,,,,,2021-11-24,1,,,,,シーエフキュー,0
1131,5021005012354,新規,0,2021-11-24,2021-11-24,ＮＰＯ法人ブラービ,,その他の設立登記法人,神奈川県,大和市,草柳１丁目７番地２,,14,213,2420026,,,,,,,2021-11-24,1,,,,,ブラービ,0
1144,5040001121101,新規,0,2021-11-24,2021-11-24,株式会社ＡｏｒＫ,,株式会社,千葉県,船橋市,西船５丁目２５番４－１０７号,,12,204,2730031,,,,,,,2021-11-24,1,,,,,エーオアケー,0
1145,5040001121126,新規,0,2021-11-24,2021-11-24,Ｔ－Ｃｏｍｍｅｒｃｅ株式会社,,株式会社,千葉県,八千代市,下高野５４３番地３６,,12,221,2760021,,,,,,,2021-11-24,1,,,,,ティーコマース,0
1152,5040003018989,新規,0,2021-11-24,2021-11-24,合同会社ゲノムライフサイエンス,,合同会社,千葉県,柏市,柏の葉５丁目４番地６東葛テクノプラザ６０６,,12,217,2770882,,,,,,,2021-11-24,1,,,,,ゲノムライフサイエンス,0
1156,5050003006217,新規,0,2021-11-24,2021-11-24,合同会社ＦＩＡ,,合同会社,茨城県,鹿嶋市,大字荒井４４２番地２,,08,222,3112204,,,,,,,2021-11-24,1,,,,,エフアイエー,0
1159,5060003003865,新規,0,2021-11-24,2021-11-24,合同会社ポプラ,,合同会社,栃木県,宇都宮市,雀の宮７丁目２２番５号,,09,201,3210132,,,,,,,2021-11-24,1,,,,,ポプラ,0
1161,5070001038672,新規,0,2021-11-24,2021-11-24,世界株式会社,,株式会社,群馬県,藤岡市,岡之郷１７１番地３岩崎アパートＡ号,,10,209,3750011,,,,,,,2021-11-24,1,,,,,セカイ,0
1167,5090001017294,新規,0,2021-11-24,2021-11-24,株式会社プログレス,,株式会社,山梨県,中巨摩郡昭和町,清水新居３８０,,19,384,4093867,,,,,,,2021-11-24,1,,,,,プログレス,0
1170,5100001034833,新規,0,2021-11-24,2021-11-24,本三井クリエイト株式会社,,株式会社,長野県,埴科郡坂城町,大字中之条２５４３番地,,20,521,3890602,,,,,,,2021-11-24,1,,,,,モトミツイクリエイト,0
1186,5122001035371,新規,0,2021-11-24,2021-11-24,株式会社ＭＩＸ,,株式会社,大阪府,東大阪市,鴻池町２丁目７－２７,,27,227,5780972,,,,,,,2021-11-24,1,,,,,ミックス,0
1188,5122003002221,新規,0,2021-11-24,2021-11-24,合同会社三船,,合同会社,大阪府,大東市,氷野２丁目８番２５号サンシャインミフネＩＩＩ,00124938,27,218,5740062,,,,,,,2021-11-24,1,,,,,ミフネ,0
1194,5130001070578,新規,0,2021-11-24,2021-11-24,株式会社ＴＹＭ,,株式会社,京都府,京都市中京区,河原町通御池下る下丸屋町３９０番地２ＱＵＥＳＴＩＯＮビル,,26,104,6048006,,,,,,,2021-11-24,1,,,,,ティーワイエム,0
1201,5140001123954,新規,0,2021-11-24,2021-11-24,ドラゴンフライＲ＆Ｉ株式会社,,株式会社,兵庫県,姫路市,網干区余子浜１２６,,28,201,6711254,,,,,,,2021-11-24,1,,,,,ドラゴンフライリサーチアンドインベストメン,0
1202,5140003017007,新規,0,2021-11-24,2021-11-24,合同会社ＱＲｅＦＴＹ,,合同会社,兵庫県,三田市,ゆりのき台５丁目１７番地７,,28,219,6691324,,,,,,,2021-11-24,1,,,,,クリフティ,0
1205,5150001025126,新規,0,2021-11-24,2021-11-24,ＹＡＣＨＩＹＯ株式会社,,株式会社,奈良県,橿原市,川西町３３７番地の３,,29,205,6340826,,,,,,,2021-11-24,1,,,,,ヤチヨ,0
1215,5180001148857,新規,0,2021-11-24,2021-11-24,株式会社旅の多助,,株式会社,愛知県,名古屋市西区,浮野町１６６番地,,23,104,4520846,,,,,,,2021-11-24,1,,,,,タビノタスケ,0
1216,5180001148865,新規,0,2021-11-24,2021-11-24,株式会社リンクス,,株式会社,愛知県,春日井市,下屋敷町字下屋敷７７番地３,,23,206,4860906,,,,,,,2021-11-24,1,,,,,リンクス,0
1218,5180301035631,新規,0,2021-11-24,2021-11-24,株式会社角大工場,00124912,株式会社,愛知県,岡崎市,大平町字土井東１７番地１,,23,202,4440007,,,,,,,2021-11-24,1,,,,,カクダイコウジョウ,0
1219,5180301035656,新規,0,2021-11-24,2021-11-24,株式会社ＲＯＯＴ　ＰＯＲＴ,,株式会社,愛知県,岡崎市,日名南町１７番地４,,23,202,4440915,,,,,,,2021-11-24,1,,,,,ルートポート,0
1226,5200001039450,新規,0,2021-11-24,2021-11-24,株式会社岐阜まち家守,,株式会社,岐阜県,岐阜市,伊奈波通１丁目８番地,,21,201,5008043,,,,,,,2021-11-24,1,,,,,ギフマチヤモリ,0
1227,5200003005384,新規,0,2021-11-24,2021-11-24,合同会社花水木,,合同会社,岐阜県,美濃市,字小倉山１５７１番地３,,21,207,5013701,,,,,,,2021-11-24,1,,,,,ハナミズキ,0
1233,5230003001760,新規,0,2021-11-24,2021-11-24,Ｑ＆Ｔ合同会社,,合同会社,富山県,富山市,西中野本町２番１７号トキワビル１Ｆ－南,,16,201,9398083,,,,,,,2021-11-24,1,,,,,キューティー,0
1235,5240001058975,新規,0,2021-11-24,2021-11-24,株式会社プラスアルファ,,株式会社,広島県,広島市中区,上八丁堀８番２３号,,34,101,7300012,,,,,,,2021-11-24,1,,,,,プラスアルファ,0
1240,5290001095493,新規,0,2021-11-24,2021-11-24,株式会社ＣＥＬＶＩＳＴ,,株式会社,福岡県,福岡市博多区,博多駅東２丁目５番１号,,40,132,8120013,,,,,,,2021-11-24,1,,,,,セルヴィスト,0
1243,5290801028025,新規,0,2021-11-24,2021-11-24,株式会社ＮＥＯ,,株式会社,福岡県,北九州市小倉北区,小文字２丁目９番１４号,,40,106,8020037,,,,,,,2021-11-24,1,,,,,ネオ,0
1248,5320001018748,新規,0,2021-11-24,2021-11-24,株式会社ｈａｐｐｙ　ｓｅｖｅｎ,,株式会社,大分県,大分市,賀来西２丁目１２番９号,,44,201,8700850,,,,,,,2021-11-24,1,,,,,ハッピーセブン,0
1249,5320005009941,新規,0,2021-11-24,2021-11-24,医療法人社団咸宜会,,その他の設立登記法人,大分県,大分市,大字羽田字千鳥１１３２番地の８,,44,201,8700942,,,,,,,2021-11-24,1,,,,,シャダンカンギカイ,0
1251,5330001029216,新規,0,2021-11-24,2021-11-24,株式会社井上,,株式会社,熊本県,球磨郡湯前町,１８９８番地２,,43,506,8680600,,,,,,,2021-11-24,1,,,,,イノウエ,0
1253,5360001005081,新規,0,2021-11-24,2021-11-24,東陽産業株式会社,,株式会社,沖縄県,那覇市,字壺川３４番地,,47,201,9000025,,,,,,,2021-11-24,1,,,,,,0
1254,5360001029667,新規,0,2021-11-24,2021-11-24,株式会社りゅうきゅうＴｏｍｏ,,株式会社,沖縄県,那覇市,松川３丁目７番１号,,47,201,9020062,,,,,,,2021-11-24,1,,,,,リュウキュウトモ,0
1263,5420001017657,新規,0,2021-11-24,2021-11-24,エスペランサ・サケ株式会社,,株式会社,青森県,つがる市,木造豊田富久地４番地３,,02,209,0383111,,,,,,,2021-11-24,1,,,,,エスペランササケ,0
1266,5430001085389,新規,0,2021-11-24,2021-11-24,株式会社ツウィッグ,,株式会社,北海道,札幌市中央区,南一条西１丁目１番地１,,01,101,0600061,,,,,,,2021-11-24,1,,,,,ツウィッグ,0
1267,5430001085439,新規,0,2021-11-24,2021-11-24,株式会社ぎゃぎゃぎゃ,,株式会社,北海道,石狩市,緑苑台東三条３丁目２３７番地,,01,235,0613223,,,,,,,2021-11-24,1,,,,,ギャギャギャ,0
1271,5470003002082,新規,0,2021-11-24,2021-11-24,Ｇｏｍｅｚｕ合同会社,,合同会社,香川県,高松市,松縄町１１３１－４６,,37,201,7600079,,,,,,,2021-11-24,1,,,,,ゴメズ,0
1273,5480003001760,新規,0,2021-11-24,2021-11-24,合同会社山と川,,合同会社,徳島県,阿南市,大井町倉野４８－２,,36,204,7715177,,,,,,,2021-11-24,1,,,,,,0
1277,5500001023829,新規,0,2021-11-24,2021-11-24,株式会社しょうたんたん,,株式会社,愛媛県,松山市,今在家２丁目８番２３号,,38,201,7911106,,,,,,,2021-11-24,1,,,,,ショウタンタン,0
1289,6010001222751,新規,0,2021-11-24,2021-11-24,建翔キャピタルマネジメント株式会社,,株式会社,東京都,千代田区,永田町２丁目１１番１号山王パークタワー３階,,13,101,1000014,,,,,,,2021-11-24,1,,,,,ケンショウキャピタルマネジメント,0
1290,6010003036349,新規,0,2021-11-24,2021-11-24,トラスト合同会社,,合同会社,東京都,中央区,築地２丁目１２番６号,,13,102,1040045,,,,,,,2021-11-24,1,,,,,,0
1293,6010005034243,新規,0,2021-11-24,2021-11-24,Ｙｙキャピタル特定目的会社,,その他の設立登記法人,東京都,中央区,日本橋１丁目４番１号日本橋一丁目ビルディング,,13,102,1030027,,,,,,,2021-11-24,1,,,,,ワイワイキャピタル,0
1303,6010401163991,新規,0,2021-11-24,2021-11-24,株式会社ツイリー,,株式会社,東京都,港区,赤坂６丁目１９番５４－７０５号,,13,103,1070052,,,,,,,2021-11-24,1,,,,,,0
1304,6010401164049,新規,0,2021-11-24,2021-11-24,株式会社タイザノット,,株式会社,東京都,港区,南青山５丁目１７番２号,,13,103,1070062,,,,,,,2021-11-24,1,,,,,タイザノット,0
1306,6010403026585,新規,0,2021-11-24,2021-11-24,ＲＢソーラーパッション５合同会社,,合同会社,東京都,港区,虎ノ門３丁目２２番１０－２０１号,,13,103,1050001,,,,,,,2021-11-24,1,,,,,アールビーソーラーパッションファイブ,0
1314,6010803003960,新規,0,2021-11-24,2021-11-24,ＨＲ３９合同会社,,合同会社,東京都,大田区,南馬込１丁目２９番１２号,,13,111,1430025,,,,,,,2021-11-24,1,,,,,エイチアールサンキュー,0
1322,6011003013726,新規,0,2021-11-24,2021-11-24,Ｃｌｏｕｄ　Ｄｅｓｉｇｎ＆Ｓｏｌｕｔｉｏｎ合同会社,,合同会社,東京都,渋谷区,恵比寿４丁目２０－３恵比寿ガーデンプレイス１８階,,13,113,1500013,,,,,,,2021-11-24,1,,,,,クラウドデザインアンドソリューション,0
1326,6011101097002,新規,0,2021-11-24,2021-11-24,原田建設株式会社,,株式会社,東京都,新宿区,新宿７丁目１２番１号新宿平和ビル１階,,13,104,1600022,,,,,,,2021-11-24,1,,,,,ハラダケンセツ,0
1327,6011103011191,新規,0,2021-11-24,2021-11-24,乙葉合同会社,,合同会社,東京都,新宿区,歌舞伎町２丁目３１－３,,13,104,1600021,,,,,,,2021-11-24,1,,,,,オトハ,0
1329,6011303004219,新規,0,2021-11-24,2021-11-24,朝輝合同会社,,合同会社,東京都,杉並区,下高井戸２丁目１０番３－Ｂ－１１２プラザローヤル５,,13,115,1680073,,,,,,,2021-11-24,1,,,,,チョウキ,0
1330,6011403003509,新規,0,2021-11-24,2021-11-24,合同会社Ａ－ＬＩＮＥ,,合同会社,東京都,板橋区,東坂下２丁目２０番６－７０１号,,13,119,1740042,,,,,,,2021-11-24,1,,,,,エーライン,0
1331,6011501027500,新規,0,2021-11-24,2021-11-24,ファブリコ株式会社,,株式会社,東京都,荒川区,西日暮里５丁目４番８号,,13,118,1160013,,,,,,,2021-11-24,1,,,,,ファブリコ,0
1334,6011701024859,新規,0,2021-11-24,2021-11-24,株式会社Ｒ　ａｎｄ　Ｍ,,株式会社,東京都,江戸川区,松江２丁目２８番１６号,,13,123,1320025,,,,,,,2021-11-24,1,,,,,,0
1339,6012805003071,新規,0,2021-11-24,2021-11-24,一般社団法人国際共創再生機構,,その他の設立登記法人,東京都,立川市,柴崎町３丁目１４番６号リムーブル田口３０３号室,,13,202,1900023,,,,,,,2021-11-24,1,,,,,コクサイキョウソウサイセイキコウ,0
1352,6020003020855,新規,0,2021-11-24,2021-11-24,合同会社ｃｏｓｍｏｎａｕｔ,,合同会社,神奈川県,横浜市戸塚区,上矢部町２１１５番地２０,,14,110,2450053,,,,,,,2021-11-24,1,,,,,コスモノート,0
1357,6021001074570,新規,0,2021-11-24,2021-11-24,株式会社ＪＵＤＧＥＳ,,株式会社,神奈川県,座間市,相模が丘４丁目６６番１２号,,14,216,2520001,,,,,,,2021-11-24,1,,,,,ジャッジズ,0
1367,6030001145471,新規,0,2021-11-24,2021-11-24,株式会社ＢＲＩＧＨＴ　ＤＩＹ,,株式会社,埼玉県,川口市,川口３丁目２番６－８０３号,,11,203,3320015,,,,,,,2021-11-24,1,,,,,ブライトディーアイワイ,0
1368,6030001145513,新規,0,2021-11-24,2021-11-24,株式会社ＭＴＤ,,株式会社,埼玉県,三郷市,鷹野２丁目４３６番地ウェルズ３号室,,11,237,3410035,,,,,,,2021-11-24,1,,,,,エムティディ,0
1376,6040001121067,新規,0,2021-11-24,2021-11-24,株式会社エフューズ,,株式会社,千葉県,千葉市若葉区,都賀２丁目２５番５号サンベスク都賀５０２号,,12,104,2640025,,,,,,,2021-11-24,1,,,,,エフューズ,0
1377,6040001121100,新規,0,2021-11-24,2021-11-24,株式会社ＢｒｅａｄＬｉｎｋ,,株式会社,千葉県,千葉市中央区,新田町７番１０号,,12,101,2600027,,,,,,,2021-11-24,1,,,,,ブレッドリンク,0
1378,6040001121109,新規,0,2021-11-24,2021-11-24,株式会社イーワイホールディングス,,株式会社,千葉県,市原市,うるいど南１丁目５番地３,,12,219,2900170,,,,,,,2021-11-24,1,,,,,イーワイホールディングス,0
1381,6040003018996,新規,0,2021-11-24,2021-11-24,合同会社ＭＥＭ,,合同会社,千葉県,浦安市,当代島３丁目８番１１号,,12,227,2790001,,,,,,,2021-11-24,1,,,,,エムイーエム,0
1384,6050003006216,新規,0,2021-11-24,2021-11-24,ＫＨＡＬＩＤ　ＮＩＰＰＯＮ　ＴＲＡＤＩＮＧ合同会社,,合同会社,茨城県,坂東市,寺久１３３９番地４０,,08,228,3060656,,,,,,,2021-11-24,1,,,,,カリドニッポントレーディング,0
1407,6110003004626,新規,0,2021-11-24,2021-11-24,合同会社カシカリネットワークス,,合同会社,新潟県,柏崎市,大字本条２４６４－１３,,15,205,9493733,,,,,,,2021-11-24,1,,,,,カシカリネットワークス,0
1420,6120001241996,新規,0,2021-11-24,2021-11-24,徳＿株式会社,00124950,株式会社,大阪府,大阪市住之江区,浜口西１丁目１３番１５－４０１号,,27,125,5590006,,,,,,,2021-11-24,1,,,,,トクシン,0
1421,6120001242029,新規,0,2021-11-24,2021-11-24,株式会社なないろ,,株式会社,大阪府,門真市,末広町４番１３号ドーミーオーウエスト２０Ａ号室,,27,223,5710030,,,,,,,2021-11-24,1,,,,,ナナイロ,0
1422,6120001242078,新規,0,2021-11-24,2021-11-24,株式会社Ｔａｋｅ－ＲＨＹ,,株式会社,大阪府,大阪市北区,西天満５丁目１６番１５号エフワンビル１Ｆ,,27,127,5300047,,,,,,,2021-11-24,1,,,,,テイクリー,0
1425,6120003020614,新規,0,2021-11-24,2021-11-24,合同会社花火,,合同会社,大阪府,大阪市阿倍野区,昭和町５丁目５番２８号５０１号室,,27,119,5450011,,,,,,,2021-11-24,1,,,,,ハナビ,0
1430,6120103004450,新規,0,2021-11-24,2021-11-24,合同会社イロドリ,,合同会社,大阪府,高石市,羽衣３丁目４番１６号,,27,225,5920002,,,,,,,2021-11-24,1,,,,,イロドリ,0
1441,6130001070577,新規,0,2021-11-24,2021-11-24,株式会社ブライラント,,株式会社,京都府,京都市山科区,大塚南溝町１０番地４２,,26,110,6078131,,,,,,,2021-11-24,1,,,,,ブライラント,0
1451,6140001123945,新規,0,2021-11-24,2021-11-24,株式会社楓工業,,株式会社,兵庫県,伊丹市,池尻７丁目１２８番地３,,28,207,6640027,,,,,,,2021-11-24,1,,,,,カエデコウギョウ,0
1452,6140001123961,新規,0,2021-11-24,2021-11-24,Ｋｏｇｏ株式会社,,株式会社,兵庫県,神戸市中央区,雲井通４丁目１番１９号４階,,28,110,6510096,,,,,,,2021-11-24,1,,,,,コゴ,0
1453,6140003017014,新規,0,2021-11-24,2021-11-24,合同会社Ｅａｃｈ　ｗｉｌｌ,,合同会社,兵庫県,神戸市北区,鈴蘭台南町４丁目３番３２号２Ｆ,,28,109,6511113,,,,,,,2021-11-24,1,,,,,イーチウィル,0
1454,6150001025117,新規,0,2021-11-24,2021-11-24,株式会社ＢＦＵ,,株式会社,奈良県,奈良市,富雄元町１丁目２４－１１,,29,201,6310078,,,,,,,2021-11-24,1,,,,,ビーエフユー,0
1455,6150005009347,新規,0,2021-11-24,2021-11-24,一般社団法人ライラス,,その他の設立登記法人,奈良県,大和郡山市,魚町２５番地,,29,203,6391168,,,,,,,2021-11-24,1,,,,,ライラス,0
1464,6180001148856,新規,0,2021-11-24,2021-11-24,株式会社ＦＲＡＧＩＬＥ,,株式会社,愛知県,尾張旭市,北本地ケ原町２丁目９６番地４,,23,226,4880043,,,,,,,2021-11-24,1,,,,,フラジャイル,0
1468,6180003023223,新規,0,2021-11-24,2021-11-24,合同会社キャーラン,,合同会社,愛知県,豊明市,大久伝町南４－１フレア大久伝１Ａ,,23,229,4701111,,,,,,,2021-11-24,1,,,,,キャーラン,0
1478,6190001028883,新規,0,2021-11-24,2021-11-24,株式会社ｉｔｏ,,株式会社,三重県,北牟婁郡紀北町,東長島１２６‐１,,24,543,5193204,,,,,,,2021-11-24,1,,,,,イト,0
1483,6220005008614,新規,0,2021-11-24,2021-11-24,一般社団法人ＰＡＤＡＹＯＮ,,その他の設立登記法人,石川県,金沢市,野町３丁目１１番１号,,17,201,9218031,,,,,,,2021-11-24,1,,,,,パダヨン,0
1489,6240001058966,新規,0,2021-11-24,2021-11-24,ＧＯＡＬ　ＡＰＰ　ＪＡＰＡＮ株式会社,,株式会社,広島県,広島市中区,三川町３番１８号カルチェ並木通１１０１,,34,101,7300029,,,,,,,2021-11-24,1,,,,,ゴールエーピーピージャパン,0
1495,6260001036235,新規,0,2021-11-24,2021-11-24,株式会社ＧＯＬＤ　ＥＸＰＲＥＳＳ,,株式会社,岡山県,倉敷市,真備町岡田２７３番地１,,33,202,7101311,,,,,,,2021-11-24,1,,,,,ゴールドエクスプレス,0
1507,6290801028016,新規,0,2021-11-24,2021-11-24,瀚の橋株式会社,,株式会社,福岡県,行橋市,宮市町８－２４,,40,213,8240008,,,,,,,2021-11-24,1,,,,,カンノバシ,0
1512,6320005009940,新規,0,2021-11-24,2021-11-24,農事組合法人ＯＮＯファーム,,その他の設立登記法人,大分県,大分市,大字辻原１１７３番地の２,00124939,44,201,8701204,,,,,,,2021-11-24,1,,,,,オノファーム,0
1516,6330001029215,新規,0,2021-11-24,2021-11-24,山ｔｏ大地株式会社,,株式会社,熊本県,阿蘇市,一の宮町手野４５５番地２,,43,214,8692601,,,,,,,2021-11-24,1,,,,,ヤマトダイチ,0
1517,6330003009140,新規,0,2021-11-24,2021-11-24,合同会社アール,,合同会社,熊本県,合志市,須屋３６７４番地,,43,216,8611102,,,,,,,2021-11-24,1,,,,,アール,0
1522,6360001029666,新規,0,2021-11-24,2021-11-24,株式会社山城興業,,株式会社,沖縄県,沖縄市,美原４丁目２１番７号美原マンション３－Ｂ,,47,211,9042155,,,,,,,2021-11-24,1,,,,,ヤマシロコウギョウ,0
1523,6360001029674,新規,0,2021-11-24,2021-11-24,株式会社ＴＬ,,株式会社,沖縄県,島尻郡南風原町,字宮平３番地１ミルコマンション南風原スカイリベール１２０４,,47,350,9011104,,,,,,,2021-11-24,1,,,,,ティーエル,0
1527,6380003005060,新規,0,2021-11-24,2021-11-24,令合同会社,,合同会社,福島県,福島市,方木田字葉ノ木立２番地の１４,,07,201,9608163,,,,,,,2021-11-24,1,,,,,レイ,0
1528,6390001016686,新規,0,2021-11-24,2021-11-24,株式会社大山興銅店,,株式会社,山形県,東根市,大字野田２０５０番地,,06,211,9993775,,,,,,,2021-11-24,1,,,,,オオヤマコウドウテン,0
1529,6400003002864,新規,0,2021-11-24,2021-11-24,合同会社佐々木水産,,合同会社,岩手県,釜石市,大字平田第８地割１２番地２,,03,211,0260001,,,,,,,2021-11-24,1,,,,,ササキスイサン,0
1532,6410002014067,新規,0,2021-11-24,2021-11-24,有限会社ブラジルコーヒー店,,有限会社,秋田県,秋田市,大町２丁目２番１１号,,05,201,0100921,,,,,,,2021-11-24,1,,,,,,0
1534,6420001017656,新規,0,2021-11-24,2021-11-24,株式会社光連,,株式会社,青森県,弘前市,大字藤内町６番地８,,02,202,0368319,,,,,,,2021-11-24,1,,,,,コウレン,0
1536,6430003013388,新規,0,2021-11-24,2021-11-24,合同会社磯金ノーベルプレイス,,合同会社,北海道,札幌市中央区,南四条西２丁目１０番地,,01,101,0640804,,,,,,,2021-11-24,1,,,,,イソキンノーベルプレイス,0
1558,7010005034242,新規,0,2021-11-24,2021-11-24,一般社団法人中国光彩事業日本促進会,,その他の設立登記法人,東京都,中央区,銀座７丁目１５番８号,,13,102,1040061,,,,,,,2021-11-24,1,,,,,チュウゴクコウサイジギョウニホンソクシンカイ,0
1559,7010005034250,新規,0,2021-11-24,2021-11-24,ＲＢソーラースペードホールディングス一般社団法人,,その他の設立登記法人,東京都,中央区,八丁堀４丁目２番１０号ＡＯＪ税理士法人内,,13,102,1040032,,,,,,,2021-11-24,1,,,,,アールビーソーラースペードホールディングス,0
1560,7010101014965,新規,0,2021-11-24,2021-11-24,株式会社Ｍｏｃｏ,,株式会社,東京都,八王子市,横山町１６番１１－５０３号ヴェルディーク八王子横山町,,13,201,1920081,,,,,,,2021-11-24,1,,,,,モコ,0
1573,7010401163990,新規,0,2021-11-24,2021-11-24,レゼルバデジタル株式会社,,株式会社,東京都,港区,赤坂１丁目９－１３,,13,103,1070052,,,,,,,2021-11-24,1,,,,,レゼルバデジタル,0
1574,7010401163999,新規,0,2021-11-24,2021-11-24,株式会社ｉｋｕｒａ,,株式会社,東京都,港区,浜松町２丁目２番１５号浜松町ダイヤビル２Ｆ,,13,103,1050013,,,,,,,2021-11-24,1,,,,,イクラ,0
1575,7010401164015,新規,0,2021-11-24,2021-11-24,株式会社汐留エネルギー,,株式会社,東京都,港区,東新橋１丁目５番２号汐留シティセンター,,13,103,1050021,,,,,,,2021-11-24,1,,,,,シオドメエネルギー,0
1577,7010403026576,新規,0,2021-11-24,2021-11-24,合同会社ＡｓｕｕＧ,,合同会社,東京都,港区,西麻布４丁目１１番２８号麻布エンパイアマンション５０８,,13,103,1060031,,,,,,,2021-11-24,1,,,,,エースージー,0
1584,7010601060261,新規,0,2021-11-24,2021-11-24,諾恩株式会社,,株式会社,東京都,江東区,亀戸５丁目１７番２５号１Ｆ,,13,108,1360071,,,,,,,2021-11-24,1,,,,,ダクオン,0
1596,7010903006961,新規,0,2021-11-24,2021-11-24,アラタナステート合同会社,,合同会社,東京都,世田谷区,代田３丁目５１番地１号,,13,112,1550033,,,,,,,2021-11-24,1,,,,,アラタナステート,0
1603,7011001144051,新規,0,2021-11-24,2021-11-24,株式会社ＫＮＯＳ,,株式会社,東京都,渋谷区,渋谷２丁目１９－１５宮益坂ビルディング６０９,,13,113,1500002,,,,,,,2021-11-24,1,,,,,ノス,0
1609,7011101096969,新規,0,2021-11-24,2021-11-24,エイリコー株式会社,,株式会社,東京都,新宿区,歌舞伎町２丁目２５番８号,,13,104,1600021,,,,,,,2021-11-24,1,,,,,エイリコー,0
1615,7011603003448,新規,0,2021-11-24,2021-11-24,アチェーロ合同会社,,合同会社,東京都,練馬区,西大泉５丁目２２番６号,,13,120,1780065,,,,,,,2021-11-24,1,,,,,アチェーロ,0
1622,7012403005122,新規,0,2021-11-24,2021-11-24,ＭＰＦ合同会社,,合同会社,東京都,稲城市,若葉台１丁目３８番地の１３,,13,225,2060824,,,,,,,2021-11-24,1,,,,,エムピーエフ,0
1631,7020001144028,新規,0,2021-11-24,2021-11-24,株式会社ジァーノ,,株式会社,神奈川県,横浜市緑区,十日市場町８０１番地８－Ｅ－６０４,,14,113,2260025,,,,,,,2021-11-24,1,,,,,ジァーノ,0
1632,7020003020870,新規,0,2021-11-24,2021-11-24,ＣＩＣＩ商事合同会社,,合同会社,神奈川県,横浜市鶴見区,鶴見中央２丁目１２番３０－６２６号,,14,101,2300051,,,,,,,2021-11-24,1,,,,,シーシーショウジ,0
1634,7021001074561,新規,0,2021-11-24,2021-11-24,株式会社ホワイトライフ,,株式会社,神奈川県,大和市,つきみ野２丁目４番地７,,14,213,2420002,,,,,,,2021-11-24,1,,,,,ホワイトライフ,0
1635,7021001074578,新規,0,2021-11-24,2021-11-24,株式会社カバサワ架設,,株式会社,神奈川県,足柄下郡真鶴町,真鶴４１８－５,,14,383,2590201,,,,,,,2021-11-24,1,,,,,カバサワカセツ,0
1636,7021003011117,新規,0,2021-11-24,2021-11-24,合同会社あすか,,合同会社,神奈川県,相模原市中央区,東淵野辺５丁目１６番３号,,14,152,2520203,,,,,,,2021-11-24,1,,,,,アスカ,0
1644,7030001145462,新規,0,2021-11-24,2021-11-24,株式会社ＭＡＭＯＲＵ,,株式会社,埼玉県,深谷市,岡部７７４番地,,11,218,3690211,,,,,,,2021-11-24,1,,,,,マモル,0
1645,7030001145479,新規,0,2021-11-24,2021-11-24,株式会社福全建設,,株式会社,埼玉県,越谷市,東町５丁目８６６,,11,222,3430826,,,,,,,2021-11-24,1,,,,,フクゼンケンセツ,0
1646,7030001145495,新規,0,2021-11-24,2021-11-24,ＮＳキャピタル株式会社,,株式会社,埼玉県,桶川市,南１丁目３番１９号ＫＳマンション桶川２０３号室,,11,231,3630015,,,,,,,2021-11-24,1,,,,,エヌエスキャピタル,0
1647,7030001145504,新規,0,2021-11-24,2021-11-24,株式会社ライフエキスパート,,株式会社,埼玉県,さいたま市北区,宮原町３丁目２８８番地１大宮宮原パインマンション４０３,,11,102,3310812,,,,,,,2021-11-24,1,,,,,ライフエキスパート,0
1648,7030001145512,新規,0,2021-11-24,2021-11-24,アイトラスト株式会社,,株式会社,埼玉県,日高市,高麗川１丁目６番地１５,,11,242,3501249,,,,,,,2021-11-24,1,,,,,アイトラスト,0
1661,7040003018987,新規,0,2021-11-24,2021-11-24,洪偉商事合同会社,,合同会社,千葉県,山武市,松尾町五反田６３番地１,,12,237,2891523,,,,,,,2021-11-24,1,,,,,コウイショウジ,0
1662,7050001050181,新規,0,2021-11-24,2021-11-24,ＴＳ　ｎａｔｕｒｉｎｇ　ｓｅｒｖｉｃｅ株式会社,,株式会社,茨城県,かすみがうら市,深谷２８０６番地４５,,08,230,3000134,,,,,,,2021-11-24,1,,,,,ティーエスネイチャリングサービス,0
1673,7100001034831,新規,0,2021-11-24,2021-11-24,株式会社ｎ．ｆｉｅｌｄ,,株式会社,長野県,小県郡長和町,大門３５１８番地２５５８,,20,350,3860601,,,,,,,2021-11-24,1,,,,,エヌフィールド,0
1685,7120001241995,新規,0,2021-11-24,2021-11-24,株式会社徳信,00124949,株式会社,大阪府,大阪市住之江区,浜口西１丁目１３番１５－３０２号,,27,125,5590006,,,,,,,2021-11-24,1,,,,,トクシン,0
1686,7120001242011,新規,0,2021-11-24,2021-11-24,株式会社Ｒｅ．Ｖａｌｏｉｒ,,株式会社,大阪府,大阪市北区,芝田２丁目８番１１号共栄ビル３階,,27,127,5300012,,,,,,,2021-11-24,1,,,,,レバルワ,0
1687,7120001242028,新規,0,2021-11-24,2021-11-24,株式会社鳳,,株式会社,大阪府,大阪市鶴見区,安田２丁目２番７１号,,27,124,5380032,,,,,,,2021-11-24,1,,,,,オオトリ,0
1688,7120001242069,新規,0,2021-11-24,2021-11-24,株式会社ルスツデベロップメント,,株式会社,大阪府,大阪市福島区,吉野１丁目２０－３０－２０１,,27,103,5530006,,,,,,,2021-11-24,1,,,,,ルスツデベロップメント,0
1693,7120003020613,新規,0,2021-11-24,2021-11-24,合同会社昇生,,合同会社,大阪府,大阪市阿倍野区,昭和町５丁目５番２８号５０１号室,,27,119,5450011,,,,,,,2021-11-24,1,,,,,ショウセイ,0
1694,7120005022624,新規,0,2021-11-24,2021-11-24,司法書士法人Ｋａｔｉｅ,,その他の設立登記法人,大阪府,大阪市北区,天神橋２丁目北１－１４－３０２号,,27,127,5300041,,,,,,,2021-11-24,1,,,,,カティエ,0
1698,7120901045240,新規,0,2021-11-24,2021-11-24,株式会社ａｏ,,株式会社,大阪府,吹田市,豊津町１番４１－１１０２号,,27,205,5640051,,,,,,,2021-11-24,1,,,,,アオ,0
1713,7140001123944,新規,0,2021-11-24,2021-11-24,Ｎ．Ｌａｂｏ建築株式会社,,株式会社,兵庫県,川辺郡猪名川町,白金１丁目１０６番地６,,28,301,6660257,,,,,,,2021-11-24,1,,,,,エヌラボケンチク,0
1718,7170001016864,新規,0,2021-11-24,2021-11-24,フォレスタ株式会社,,株式会社,和歌山県,和歌山市,西浜１０８２番地１－１０２号室,,30,201,6410036,,,,,,,2021-11-24,1,,,,,フォレスタ,0
1719,7170001016872,新規,0,2021-11-24,2021-11-24,株式会社ネイミー,,株式会社,和歌山県,和歌山市,手平１丁目９番３０号Ａ,,30,201,6408319,,,,,,,2021-11-24,1,,,,,ネイミー,0
1727,7180001148855,新規,0,2021-11-24,2021-11-24,ＡＫＩコーポレーション株式会社,,株式会社,愛知県,海部郡大治町,大字砂子字大宮崎２６４５番地の３１,,23,424,4901143,,,,,,,2021-11-24,1,,,,,アキコーポレーション,0
1742,7180303005176,新規,0,2021-11-24,2021-11-24,合同会社ＤＣＴ,,合同会社,愛知県,岡崎市,上地６丁目１８番地中央マンション上地４０３,,23,202,4440823,,,,,,,2021-11-24,1,,,,,ディーシーティー,0
1750,7220001024556,新規,0,2021-11-24,2021-11-24,ＧＥＮＥＳＩＳ株式会社,,株式会社,石川県,金沢市,弥生２丁目１４番１１号,,17,201,9218036,,,,,,,2021-11-24,1,,,,,ジェネシス,0
1751,7220003003153,新規,0,2021-11-24,2021-11-24,合同会社ＵＭ,,合同会社,石川県,金沢市,野町１丁目３番６８号,,17,201,9218031,,,,,,,2021-11-24,1,,,,,ユーエム,0
1754,7230005009180,新規,0,2021-11-24,2021-11-24,特定非営利活動法人言語・生活サポート富山,,その他の設立登記法人,富山県,富山市,清風町２５２番地,,16,201,9318409,,,,,,,2021-11-24,1,,,,,ゲンゴセイカツサポートトヤマ,0
1767,7260001036234,新規,0,2021-11-24,2021-11-24,株式会社ライトパーソン,,株式会社,岡山県,岡山市南区,豊成２丁目１２番３４号,,33,104,7000942,,,,,,,2021-11-24,1,,,,,ライトパーソン,0
1775,7290801028015,新規,0,2021-11-24,2021-11-24,株式会社デイアイデイイー,,株式会社,福岡県,北九州市小倉北区,米町１丁目１番１号,,40,106,8020003,,,,,,,2021-11-24,1,,,,,デイアイデイイー,0
1782,7320001018746,新規,0,2021-11-24,2021-11-24,株式会社コンティナム,,株式会社,大分県,豊後高田市,堅来３２７２番地,,44,209,8721203,,,,,,,2021-11-24,1,,,,,コンティナム,0
1798,7400003002863,新規,0,2021-11-24,2021-11-24,合同会社ふきのとう,,合同会社,岩手県,盛岡市,清水町１２－１０－８０２号,,03,201,0200875,,,,,,,2021-11-24,1,,,,,フキノトウ,0
1800,7420001017655,新規,0,2021-11-24,2021-11-24,みろく横丁株式会社,,株式会社,青森県,八戸市,大字番町４番地１ポレスターアーバンシティー９０６号,,02,203,0310031,,,,,,,2021-11-24,1,,,,,ミロクヨコチョウ,0
1806,7430003013379,新規,0,2021-11-24,2021-11-24,合同会社ＳＷ福祉サービス,,合同会社,北海道,札幌市清田区,真栄一条１丁目１７番１７号,,01,110,0040831,,,,,,,2021-11-24,1,,,,,エスダブリュフクシサービス,0
1807,7430003013387,新規,0,2021-11-24,2021-11-24,合同会社Ｂｏｎｉｔａ,,合同会社,北海道,札幌市手稲区,手稲本町一条２丁目１番８－２０３号,,01,109,0060021,,,,,,,2021-11-24,1,,,,,ボニータ,0
1809,7450003002157,新規,0,2021-11-24,2021-11-24,エスターテ合同会社,,合同会社,北海道,旭川市,二条通１０丁目６１９番地の２　５０２号,,01,204,0700032,,,,,,,2021-11-24,1,,,,,エスターテ,0
1813,7480003001759,新規,0,2021-11-24,2021-11-24,合同会社森川工務店,,合同会社,徳島県,阿波市,市場町大野島字新ノ池５３番地９,,36,206,7711627,,,,,,,2021-11-24,1,,,,,モリカワコウムテン,0
1826,8010001222782,新規,0,2021-11-24,2021-11-24,株式会社ＢＥＳＴ　ＩＳＨＩＤＡホールディングス,,株式会社,東京都,文京区,白山５丁目７番１７号,,13,105,1120001,,,,,,,2021-11-24,1,,,,,ベストイシダホールディングス,0
1828,8010003036314,新規,0,2021-11-24,2021-11-24,合同会社ＳＬＣプロパティ,,合同会社,東京都,中央区,新川１丁目５番１７号エイハ新川１１階,,13,102,1040033,,,,,,,2021-11-24,1,,,,,エスエルシープロパティ,0
1835,8010401163965,新規,0,2021-11-24,2021-11-24,株式会社ゴエン,,株式会社,東京都,港区,南青山５丁目１７番２号,,13,103,1070062,,,,,,,2021-11-24,1,,,,,ゴエン,0
1838,8010403026518,新規,0,2021-11-24,2021-11-24,ＦＣ．３－５－２合同会社,,合同会社,東京都,港区,南麻布１丁目３－２ＥｓｐａｃｅＴｅＴｅ２０２,,13,103,1060047,,,,,,,2021-11-24,1,,,,,エフシーサンゴウニ,0
1840,8010405020436,新規,0,2021-11-24,2021-11-24,特定非営利活動法人空き家コンシェルジュ,,その他の設立登記法人,東京都,港区,南青山４丁目７番１７号グリーンヒル,,13,103,1070062,,,,,,,2021-11-24,1,,,,,アキヤコンシェルジュ,0
1841,8010405020452,新規,0,2021-11-24,2021-11-24,ＲＢソーラーヘキサゴンホールディングス一般社団法人,,その他の設立登記法人,東京都,港区,虎ノ門３丁目２２番１０－２０１号,,13,103,1050001,,,,,,,2021-11-24,1,,,,,アールビーソーラーヘキサゴンホールディングス,0
1844,8010501048125,新規,0,2021-11-24,2021-11-24,ｅｎｒｉｃｈ株式会社,,株式会社,東京都,台東区,元浅草３丁目１５番８－８０２号,,13,106,1110041,,,,,,,2021-11-24,1,,,,,エンリック,0
1852,8010801032506,新規,0,2021-11-24,2021-11-24,株式会社東京みらい経理代行,,株式会社,東京都,大田区,北嶺町３２番９号Ｕｎｎｏｂｌｅ１０２号室,,13,111,1450073,,,,,,,2021-11-24,1,,,,,トウキョウミライケイリダイコウ,0
1853,8010803003959,新規,0,2021-11-24,2021-11-24,合同会社ＫＯＴＡ,,合同会社,東京都,大田区,西六郷２丁目５－２,,13,111,1440056,,,,,,,2021-11-24,1,,,,,,0
1856,8010901049846,新規,0,2021-11-24,2021-11-24,株式会社ＫＵマネージメント,,株式会社,東京都,世田谷区,弦巻１丁目１１番５号,,13,112,1540016,,,,,,,2021-11-24,1,,,,,ケーユーマネージメント,0
1857,8010901049854,新規,0,2021-11-24,2021-11-24,Ａｋａｔｏｋｉ株式会社,,株式会社,東京都,世田谷区,松原３丁目３０番１０号２Ｆ,,13,112,1560043,,,,,,,2021-11-24,1,,,,,アカトキ,0
1865,8011101096976,新規,0,2021-11-24,2021-11-24,株式会社ＯＺＬＡＮＤ,,株式会社,東京都,新宿区,歌舞伎町２丁目２１番６号ハタノビル３階南,,13,104,1600021,,,,,,,2021-11-24,1,,,,,オズランド,0
1866,8011101097009,新規,0,2021-11-24,2021-11-24,株式会社Ｋｅｎｘｉｎ,,株式会社,東京都,新宿区,早稲田鶴巻町５３３－６－２０６,,13,104,1620041,,,,,,,2021-11-24,1,,,,,ケンシン,0
1868,8011103011207,新規,0,2021-11-24,2021-11-24,合同会社ＬＯＴＵＳＥＡ,,合同会社,東京都,新宿区,西新宿３丁目３－１３西新宿水間ビル６Ｆ,,13,104,1600023,,,,,,,2021-11-24,1,,,,,,0
1878,8012401038569,新規,0,2021-11-24,2021-11-24,株式会社ＡＲＴ,,株式会社,東京都,武蔵野市,中町２丁目３番－６ゾンネ武蔵野１Ｆ,,13,203,1800006,,,,,,,2021-11-24,1,,,,,アート,0
1882,8012801021232,新規,0,2021-11-24,2021-11-24,株式会社武田塾Ｅｎｇｌｉｓｈ,,株式会社,東京都,国立市,東１丁目４－２８篠崎ビル４０１,,13,215,1860002,,,,,,,2021-11-24,1,,,,,タケダジュクイングリッシュ,0
1891,8020001143961,新規,0,2021-11-24,2021-11-24,株式会社シーケン,,株式会社,神奈川県,横浜市鶴見区,平安町２丁目２８番地１ヨコハマアイランドガーデン１０４,,14,101,2300031,,,,,,,2021-11-24,1,,,,,シーケン,0
1897,8021001074569,新規,0,2021-11-24,2021-11-24,株式会社ファンリンク,,株式会社,神奈川県,平塚市,袖ケ浜２番２８号１０５,,14,203,2540813,,,,,,,2021-11-24,1,,,,,ファンリンク,0
1899,8021003011116,新規,0,2021-11-24,2021-11-24,ＩＭＡＧＩＮＡＴＩＯＮ合同会社,,合同会社,神奈川県,藤沢市,羽鳥５丁目５番３６号１０４号室,,14,205,2510056,,,,,,,2021-11-24,1,,,,,イマジネーション,0
1908,8030001145461,新規,0,2021-11-24,2021-11-24,株式会社泰金,,株式会社,埼玉県,草加市,栄町２丁目２番１２－８０３号,,11,221,3400011,,,,,,,2021-11-24,1,,,,,テクム,0
1909,8030001145494,新規,0,2021-11-24,2021-11-24,株式会社太平洋商事,,株式会社,埼玉県,春日部市,一ノ割１３１８番地１２,,11,214,3440031,,,,,,,2021-11-24,1,,,,,タイヘイヨウショウジ,0
1911,8030003018368,新規,0,2021-11-24,2021-11-24,合同会社ＬＥＧＡＬＩＳＳ,,合同会社,埼玉県,志木市,中宗岡２丁目１６番４４号,,11,228,3530002,,,,,,,2021-11-24,1,,,,,レガリス,0
1912,8030003018376,新規,0,2021-11-24,2021-11-24,合同会社Ｔｒｕｓｔ＆ＨｅａｌｔｈｃａｒｅＳｅｒｖｉｃｅ　ＫＩＴＡＹＡＭＡ,,合同会社,埼玉県,富士見市,関沢３丁目１４番８－１０１号,,11,235,3540025,,,,,,,2021-11-24,1,,,,,トラストアンドヘルスケアサービスキタヤマ,0
1933,8110001036215,新規,0,2021-11-24,2021-11-24,新成産業株式会社,,株式会社,新潟県,新潟市南区,西白根１５９５番地１,,15,106,9501262,,,,,,,2021-11-24,1,,,,,シンセイサンギョウ,0
1940,8120001241994,新規,0,2021-11-24,2021-11-24,徳啓株式会社,00124948,株式会社,大阪府,大阪市住之江区,浜口西１丁目１３番１５－３０１号,,27,125,5590006,,,,,,,2021-11-24,1,,,,,トクケイ,0
1941,8120001242068,新規,0,2021-11-24,2021-11-24,つばさ株式会社,,株式会社,大阪府,大阪市中央区,谷町９丁目１番２２号,,27,128,5420012,,,,,,,2021-11-24,1,,,,,ツバサ,0
1945,8120003020612,新規,0,2021-11-24,2021-11-24,レジュベネート合名会社,,合名会社,大阪府,大阪市港区,池島３丁目５番３ベイシティ大阪イーストアベニュー１２０１号,,27,107,5520015,,,,,,,2021-11-24,1,,,,,レジュベネート,0
1947,8120005022623,新規,0,2021-11-24,2021-11-24,一般社団法人聖賢会,,その他の設立登記法人,大阪府,大阪市淀川区,西三国３丁目５番２号,,27,123,5320006,,,,,,,2021-11-24,1,,,,,セイケンカイ,0
1948,8120105009479,新規,0,2021-11-24,2021-11-24,一般社団法人ａｃｈｉｅｖｅ８,,その他の設立登記法人,大阪府,貝塚市,久保６４番地１,,27,208,5970031,,,,,,,2021-11-24,1,,,,,アチーブエイト,0
1953,8122003002219,新規,0,2021-11-24,2021-11-24,合同会社キャリィサービス,,合同会社,大阪府,大東市,氷野４丁目６番５号,,27,218,5740062,,,,,,,2021-11-24,1,,,,,キャリィサービス,0
1957,8130001070583,新規,0,2021-11-24,2021-11-24,株式会社ごりきサポート,,株式会社,京都府,京都市下京区,西七条市部町３番地,,26,106,6008894,,,,,,,2021-11-24,1,,,,,ゴリキサポート,0
1959,8130003007600,新規,0,2021-11-24,2021-11-24,合同会社センティ北山,,合同会社,京都府,京都市北区,上賀茂桜井町２１番地７,,26,101,6038054,,,,,,,2021-11-24,1,,,,,センティキタヤマ,0
1961,8140001123927,新規,0,2021-11-24,2021-11-24,株式会社Ｇｒａｃｅ,,株式会社,兵庫県,加古川市,野口町良野１５４７番地,,28,210,6750017,,,,,,,2021-11-24,1,,,,,グレイス,0
1962,8140001123943,新規,0,2021-11-24,2021-11-24,トータルロジスティック関西株式会社,,株式会社,兵庫県,加古川市,加古川町稲屋９７１番地の３５,,28,210,6750034,,,,,,,2021-11-24,1,,,,,トータルロジスティックカンサイ,0
1968,8150001025123,新規,0,2021-11-24,2021-11-24,スマイルホーム株式会社,,株式会社,奈良県,生駒市,東生駒１丁目３５８番地２,,29,209,6300213,,,,,,,2021-11-24,1,,,,,スマイルホーム,0
1970,8160001023828,新規,0,2021-11-24,2021-11-24,株式会社エムエーピー,,株式会社,滋賀県,大津市,南小松１６４番地１,,25,201,5200502,,,,,,,2021-11-24,1,,,,,エムエーピー,0
1978,8180001148854,新規,0,2021-11-24,2021-11-24,株式会社仁建工業,,株式会社,愛知県,東海市,横須賀町四ノ割１０１番地サンマンション（３０２号）,,23,222,4770036,,,,,,,2021-11-24,1,,,,,ジンケンコウギョウ,0
1987,8180301035653,新規,0,2021-11-24,2021-11-24,株式会社Ｔｏｙ　Ｓｅｒｉｅｓ,,株式会社,愛知県,知立市,栄１丁目６番地エムズシティ知立ザ・タワー７０３号,,23,225,4720037,,,,,,,2021-11-24,1,,,,,トイシリーズ,0
1990,8180305009265,新規,0,2021-11-24,2021-11-24,一般社団法人ＶｉＶａｒｓｉｔｙ,,その他の設立登記法人,愛知県,岡崎市,康生通東２丁目２２番地１,,23,202,4440045,,,,,,,2021-11-24,1,,,,,ビバーシティ,0
1992,8190001028873,新規,0,2021-11-24,2021-11-24,株式会社Ｒｉｎｋ,,株式会社,三重県,四日市市,天カ須賀１丁目１５番１２号,,24,202,5108001,,,,,,,2021-11-24,1,,,,,リンク,0
2000,8240001058956,新規,0,2021-11-24,2021-11-24,喬晋工業株式会社,,株式会社,広島県,福山市,今津町７丁目１０番４１号,,34,207,7290111,,,,,,,2021-11-24,1,,,,,キョウシンコウギョウ,0
2001,8240001058972,新規,0,2021-11-24,2021-11-24,株式会社ＵＴＣ９,,株式会社,広島県,広島市中区,広瀬町５番１７－４０２号,,34,101,7300804,,,,,,,2021-11-24,1,,,,,ユーティーシーナイン,0
2015,8290001095409,新規,0,2021-11-24,2021-11-24,株式会社篠原建設,,株式会社,福岡県,久留米市,津福今町４５８番地の３,,40,203,8300061,,,,,,,2021-11-24,1,,,,,シノハラケンセツ,0
2018,8290003011850,新規,0,2021-11-24,2021-11-24,合同会社ブリランテ,,合同会社,福岡県,大野城市,南ケ丘１丁目２２番１号,,40,219,8160964,,,,,,,2021-11-24,1,,,,,ブリランテ,0
2021,8290801028014,新規,0,2021-11-24,2021-11-24,株式会社Ｇｒａｚｉｅ,,株式会社,福岡県,北九州市小倉北区,紺屋町２番１３号,,40,106,8020081,,,,,,,2021-11-24,1,,,,,グラッツェ,0
2025,8310001017599,新規,0,2021-11-24,2021-11-24,株式会社ＹＵＭＥＣＯＡＴ,,株式会社,長崎県,佐世保市,矢岳町１５番１７号,,42,202,8570047,,,,,,,2021-11-24,1,,,,,ユメコート,0
2028,8320003003662,新規,0,2021-11-24,2021-11-24,ｓｔｅｌｌａｅ　ｅｔ　ｌｕｎａｅ合同会社,,合同会社,大分県,速見郡日出町,２９３１番地,,44,341,8791506,,,,,,,2021-11-24,1,,,,,ステラエトルーナ,0
2031,8360001029664,新規,0,2021-11-24,2021-11-24,株式会社鉢嶺工務店,,株式会社,沖縄県,名護市,大北４丁目１６番６号フレアガーデン２０１号,,47,209,9050019,,,,,,,2021-11-24,1,,,,,ハチミネコウムテン,0
2032,8360001029680,新規,0,2021-11-24,2021-11-24,ＡＨＭエンジニアリング株式会社,,株式会社,沖縄県,糸満市,西崎２丁目３番２１号コーポサンフラワー１０１,,47,210,9010305,,,,,,,2021-11-24,1,,,,,エーエイチエムエンジニアリング,0
2042,8430001085428,新規,0,2021-11-24,2021-11-24,株式会社Ａｒｋ,,株式会社,北海道,札幌市西区,二十四軒二条１丁目１番５号,,01,107,0630802,,,,,,,2021-11-24,1,,,,,アーク,0
2046,8430003013386,新規,0,2021-11-24,2021-11-24,合同会社志田商事,,合同会社,北海道,苫小牧市,宮前町３丁目２番４号,,01,213,0591264,,,,,,,2021-11-24,1,,,,,シダショウジ,0
2052,8480003001758,新規,0,2021-11-24,2021-11-24,合同会社コネクティングザドッツ,,合同会社,徳島県,阿南市,羽ノ浦町宮倉日開元１９番地１５,,36,204,7791102,,,,,,,2021-11-24,1,,,,,コネクティングザドッツ,0
2054,8700150105363,新規,0,2021-11-24,2021-10-18,煌座,,その他,東京都,中央区,銀座１丁目２２－１１銀座大竹ビジデンス２Ｆ　煌エージェンシー内,,13,102,1040061,,,,,,,2021-10-18,1,,,,,キラメキザ,0
2063,9010001222749,新規,0,2021-11-24,2021-11-24,株式会社ソラス,,株式会社,東京都,中央区,銀座１丁目１２－４Ｎ＆Ｅ．ＢＬＤ．７階,,13,102,1040061,,,,,,,2021-11-24,1,,,,,ソラス,0
2065,9010005034249,新規,0,2021-11-24,2021-11-24,ＲＢソーラーダイヤホールディングス一般社団法人,,その他の設立登記法人,東京都,中央区,八丁堀４丁目２番１０号ＡＯＪ税理士法人内,,13,102,1040032,,,,,,,2021-11-24,1,,,,,アールビーソーラーダイヤホールディングス,0
2070,9010401163980,新規,0,2021-11-24,2021-11-24,きょうの日本酒株式会社,,株式会社,東京都,港区,赤坂６丁目１１－４－２０４,,13,103,1070052,,,,,,,2021-11-24,1,,,,,キョウノニホンシュ,0
2071,9010401163989,新規,0,2021-11-24,2021-11-24,株式会社ＴＩＭＥ,,株式会社,東京都,港区,白金台５丁目１１番４号,,13,103,1080071,,,,,,,2021-11-24,1,,,,,タイム,0
2072,9010405020451,新規,0,2021-11-24,2021-11-24,ＲＢソーラーペンタゴンホールディングス一般社団法人,,その他の設立登記法人,東京都,港区,虎ノ門３丁目２２番１０－２０１号,,13,103,1050001,,,,,,,2021-11-24,1,,,,,アールビーソーラーペンタゴンホールディングス,0
2075,9010501048124,新規,0,2021-11-24,2021-11-24,株式会社キャプリコーン,,株式会社,東京都,台東区,蔵前２丁目１４番２－２０５号,,13,106,1110051,,,,,,,2021-11-24,1,,,,,キャプリコーン,0
2076,9010503006435,新規,0,2021-11-24,2021-11-24,合同会社ミラクリエイト,,合同会社,東京都,台東区,根岸５丁目７番１２－３０１号ランドール根岸,,13,106,1100003,,,,,,,2021-11-24,1,,,,,ミラクリエイト,0
2078,9010601060276,新規,0,2021-11-24,2021-11-24,株式会社Ｒａｃｋ,,株式会社,東京都,江東区,東陽４丁目９番１６号,,13,108,1350016,,,,,,,2021-11-24,1,,,,,ラック,0
2083,9010901049853,新規,0,2021-11-24,2021-11-24,シェリオンジャパン株式会社,,株式会社,東京都,世田谷区,上野毛２丁目１２番３号,,13,112,1580093,,,,,,,2021-11-24,1,,,,,シェリオンジャパン,0
2085,9011001143877,新規,0,2021-11-24,2021-11-24,エアフレンド株式会社,,株式会社,東京都,渋谷区,円山町６番７号,,13,113,1500044,,,,,,,2021-11-24,1,,,,,エアフレンド,0
2091,9011301027367,新規,0,2021-11-24,2021-11-24,株式会社アップウインド,,株式会社,東京都,杉並区,松ノ木３丁目２６番７号,,13,115,1660014,,,,,,,2021-11-24,1,,,,,アップウインド,0
2095,9011801039993,新規,0,2021-11-24,2021-11-24,ＥｌｅｍｅｎｔＸ株式会社,,株式会社,東京都,葛飾区,金町２丁目２番１４－２０４号,,13,122,1250042,,,,,,,2021-11-24,1,,,,,エレメントエックス,0
2096,9011801040002,新規,0,2021-11-24,2021-11-24,株式会社夏,,株式会社,東京都,葛飾区,立石１丁目８番１５号レーベンハイム立石リッシュ８０３,,13,122,1240012,,,,,,,2021-11-24,1,,,,,ナツ,0
2107,9013301048310,新規,0,2021-11-24,2021-11-24,株式会社東之陽,,株式会社,東京都,豊島区,東池袋２丁目６０番２１号フラッツ池袋６０４号,,13,116,1700013,,,,,,,2021-11-24,1,,,,,ヒガシノヨウ,0
2112,9020001144026,新規,0,2021-11-24,2021-11-24,株式会社損保代車サービス,,株式会社,神奈川県,川崎市中原区,小杉町１丁目４０３番地１０サニーウェル小杉２１４,,14,133,2110063,,,,,,,2021-11-24,1,,,,,ソンポダイシャサービス,0
2116,9020003020860,新規,0,2021-11-24,2021-11-24,Ａｋｉｒａ　ｃｏｎｓｕｌｔｉｎｇ合同会社,,合同会社,神奈川県,川崎市川崎区,宮前町８番１５号パールビル９０２,,14,131,2100012,,,,,,,2021-11-24,1,,,,,アキラコンサルティング,0
2117,9020003020869,新規,0,2021-11-24,2021-11-24,あまざわ合同会社,,合同会社,神奈川県,横浜市青葉区,つつじが丘２６番地８,,14,117,2270055,,,,,,,2021-11-24,1,,,,,アマザワ,0
2119,9021003011115,新規,0,2021-11-24,2021-11-24,合同会社ケーエルアイ,,合同会社,神奈川県,相模原市南区,上鶴間本町６丁目１３番２号,,14,153,2520318,,,,,,,2021-11-24,1,,,,,ケーエルアイ,0
2120,9021003011123,新規,0,2021-11-24,2021-11-24,シャプラ合同会社,,合同会社,神奈川県,相模原市中央区,田名４３１６番地１,,14,152,2520244,,,,,,,2021-11-24,1,,,,,シャプラ,0
2131,9030001145527,新規,0,2021-11-24,2021-11-24,株式会社Ｍｏｔｔｏ,,株式会社,埼玉県,吉川市,きよみ野３丁目２３番地９,,11,243,3420058,,,,,,,2021-11-24,1,,,,,モット,0
2154,9070005009922,新規,0,2021-11-24,2021-11-24,上野村特定地域づくり事業協同組合,,その他の設立登記法人,群馬県,多野郡上野村,大字楢原３１０番地１,00124940,10,366,3701617,,,,,,,2021-11-24,1,,,,,ウエノムラトクテイチイキヅクリ,0
2157,9080001024602,新規,0,2021-11-24,2021-11-24,株式会社アールエムアール,,株式会社,静岡県,静岡市葵区,羽鳥６丁目２２番６６－４号,,22,101,4211215,,,,,,,2021-11-24,1,,,,,アールエムアール,0
2160,9090003001994,新規,0,2021-11-24,2021-11-24,合同会社ジェイウイング,,合同会社,山梨県,甲斐市,下今井３６８１－１,,19,210,4000105,,,,,,,2021-11-24,1,,,,,ジェイウイング,0
2168,9120001241993,新規,0,2021-11-24,2021-11-24,徳智株式会社,00124947,株式会社,大阪府,大阪市住之江区,浜口西１丁目１３番１５－２０２号,,27,125,5590006,,,,,,,2021-11-24,1,,,,,トクチイ,0
2169,9120001242018,新規,0,2021-11-24,2021-11-24,株式会社ＫＡＳＵＭＩ,,株式会社,大阪府,大阪市浪速区,日本橋東１丁目１０番１４－１２０１号,,27,111,5560006,,,,,,,2021-11-24,1,,,,,カスミ,0
2173,9120003020644,新規,0,2021-11-24,2021-11-24,合同会社縁満鯛,,合同会社,大阪府,枚方市,招提南町１丁目３０番１号,,27,210,5731155,,,,,,,2021-11-24,1,,,,,エンマンダイ,0
2179,9120901045255,新規,0,2021-11-24,2021-11-24,株式会社ＥＸ　ＷＯＲＫＳ,,株式会社,大阪府,吹田市,江坂町１丁目２番６号,,27,205,5640063,,,,,,,2021-11-24,1,,,,,エクストラワークス,0
2187,9130001070590,新規,0,2021-11-24,2021-11-24,株式会社ＧＥＭ,,株式会社,京都府,京都市上京区,椹木町通烏丸西入ル養安町２４２－７香山ビル２Ｆ,,26,102,6020000,,,,,,,2021-11-24,1,,,,,ジェム,0
2195,9140005025895,新規,0,2021-11-24,2021-11-24,医療法人たかの小児科,,その他の設立登記法人,兵庫県,伊丹市,大鹿４丁目５９,,28,207,6640899,,,,,,,2021-11-24,1,,,,,タカノショウニカ,0
2203,9180001148770,新規,0,2021-11-24,2021-11-24,株式会社ＩＲＯＨＡ,,株式会社,愛知県,名古屋市西区,城西３丁目１３番２４号,,23,104,4510031,,,,,,,2021-11-24,1,,,,,イロハ,0
2204,9180001148853,新規,0,2021-11-24,2021-11-24,株式会社Ｇｒａｔｉａ　Ｖｏｂｉｓ,,株式会社,愛知県,稲沢市,長野２丁目１１番５－３０２号,,23,220,4928142,,,,,,,2021-11-24,1,,,,,グラシアボビス,0
2205,9180001148861,新規,0,2021-11-24,2021-11-24,株式会社ＢＩＮＤ,,株式会社,愛知県,名古屋市中川区,西日置１丁目１番２６号サン・ピボット名南８０２号,,23,110,4540004,,,,,,,2021-11-24,1,,,,,バインド,0
2215,9180301035644,新規,0,2021-11-24,2021-11-24,株式会社大恭建築,,株式会社,愛知県,碧南市,平七町５丁目１０番地,,23,209,4470884,,,,,,,2021-11-24,1,,,,,ダイキョウケンチク,0
2216,9180301035652,新規,0,2021-11-24,2021-11-24,あいかんワークス株式会社,,株式会社,愛知県,刈谷市,半城土中町２丁目９番地７,,23,210,4480805,,,,,,,2021-11-24,1,,,,,アイカンワークス,0
2222,9200001039439,新規,0,2021-11-24,2021-11-24,株式会社Ｐ．Ｉ．Ｅ,,株式会社,岐阜県,高山市,朝日町大廣２８８番地２,,21,203,5093322,,,,,,,2021-11-24,1,,,,,ピーアイイー,0
2223,9200001039455,新規,0,2021-11-24,2021-11-24,岐友株式会社,,株式会社,岐阜県,岐阜市,敷島町１０丁目９７番地,,21,201,5008369,,,,,,,2021-11-24,1,,,,,ギユウ,0
2226,9220001024554,新規,0,2021-11-24,2021-11-24,株式会社ツナ・ビム,,株式会社,石川県,金沢市,もりの里１丁目２番地,,17,201,9201167,,,,,,,2021-11-24,1,,,,,ツナビム,0
2229,9230003001757,新規,0,2021-11-24,2021-11-24,ＭＫプラス合同会社,,合同会社,富山県,氷見市,稲積１９２番地の２０,,16,205,9350006,,,,,,,2021-11-24,1,,,,,エムケイプラス,0
2233,9240001058971,新規,0,2021-11-24,2021-11-24,株式会社タナベ・マリモファーム,,株式会社,広島県,神石郡神石高原町,古川５２６３番地２,,34,545,7293516,,,,,,,2021-11-24,1,,,,,タナベマリモファーム,0
2240,9280001008568,新規,0,2021-11-24,2021-11-24,株式会社ブリッジ,,株式会社,島根県,出雲市,大社町杵築西１６８７番地２Ｂ－１３,,32,203,6990751,,,,,,,2021-11-24,1,,,,,,0
2254,9290801028021,新規,0,2021-11-24,2021-11-24,株式会社ＧＳＩ興産,,株式会社,福岡県,北九州市小倉南区,守恒本町２丁目６番６号,,40,107,8020971,,,,,,,2021-11-24,1,,,,,ジーエスアイコウサン,0
2264,9340003003635,新規,0,2021-11-24,2021-11-24,合同会社Ｋｏｋｏｒｏ,,合同会社,鹿児島県,伊佐市,大口里１８７３番地６,,46,224,8952511,,,,,,,2021-11-24,1,,,,,ココロ,0
2269,9360001029663,新規,0,2021-11-24,2021-11-24,株式会社匠心,,株式会社,沖縄県,豊見城市,字渡橋名２８９番地３８グランドゥール渡橋名１０５号,,47,212,9010222,,,,,,,2021-11-24,1,,,,,ショウシン,0
2270,9360001029671,新規,0,2021-11-24,2021-11-24,株式会社ＡＭＩＲＩＡ,,株式会社,沖縄県,石垣市,字登野城８９２－１,,47,207,9070004,,,,,,,2021-11-24,1,,,,,アミリア,0
2271,9360003011594,新規,0,2021-11-24,2021-11-24,アヴォケーションクラフト合同会社,,合同会社,沖縄県,那覇市,赤嶺２丁目８番地５－３０３,,47,201,9010154,,,,,,,2021-11-24,1,,,,,アヴォケーションクラフト,0
2286,9430001085427,新規,0,2021-11-24,2021-11-24,金建工業株式会社,,株式会社,北海道,札幌市豊平区,美園二条２丁目３番３－３０５号,,01,105,0620002,,,,,,,2021-11-24,1,,,,,カネケンコウギョウ,0
2288,9430003013385,新規,0,2021-11-24,2021-11-24,合同会社アフィニティーフーズ,,合同会社,北海道,札幌市中央区,南五条西２丁目１番地７,,01,101,0640805,,,,,,,2021-11-24,1,,,,,アフィニティーフーズ,0
2291,9460303000741,新規,0,2021-11-24,2021-11-24,合同会社ＨＹ,,合同会社,北海道,北見市,末広町３８４番地６２,,01,208,0900826,,,,,,,2021-11-24,1,,,,,エイチワイ,0
2294,9470005006391,新規,0,2021-11-24,2021-11-24,一般社団法人弥山,,その他の設立登記法人,香川県,高松市,香川町大野４８４番地１,,37,201,7611701,,,,,,,2021-11-24,1,,,,,ミセン,0
