sequenceNumber,corporateNumber,process,correct,updateDate,changeDate,name,nameImageId,kind,prefectureName,cityName,streetNumber,addressImageId,prefectureCode,cityCode,postCode,addressOutside,addressOutsideImageId,closeDate,closeCause,successorCorporateNumber,changeCause,assignmentDate,latest,enName,enPrefectureName,enCityName,enAddressOutside,furigana,hihyoji
44,1010903006892,登記記録の閉鎖等,0,2022-05-31,2022-05-25,フィフティファイヴ合同会社,,合同会社,東京都,世田谷区,松原５丁目１９番６号パインヒルズ１０２,,13,112,1560043,,,2022-05-25,清算の結了等,,,2021-10-25,1,,,,,フィフティファイヴ,0
47,1011001097429,登記記録の閉鎖等,0,2022-05-31,2022-05-13,株式会社サンホープ・イリゲーションシステム,,株式会社,東京都,目黒区,中目黒１丁目１番７１号,,13,110,1530061,,,2022-05-13,清算の結了等,,,2015-10-05,1,,,,,サンホープイリゲーションシステム,0
48,1011001133423,登記記録の閉鎖等,0,2022-05-31,2022-05-11,恵比寿製薬株式会社,,株式会社,東京都,目黒区,中目黒４丁目８番２５－１２０５号プライムメゾン中目黒,,13,110,1530061,,,2022-05-11,清算の結了等,,,2020-04-28,1,,,,,エビスセイヤク,0
53,1011101001249,登記記録の閉鎖等,0,2022-05-31,2022-05-30,株式会社アワイ企画,,株式会社,東京都,新宿区,神楽坂６丁目３９番地４,,13,104,1620825,,,2022-05-30,清算の結了等,,,2015-10-05,1,,,,,アワイキカク,0
59,1011402002474,登記記録の閉鎖等,0,2022-05-31,2022-05-27,有限会社川口土建,,有限会社,東京都,板橋区,蓮根１丁目３１番２号,00055091,13,119,1740046,,,2022-05-27,清算の結了等,,,2015-10-05,1,,,,,カワグチドケン,0
68,1012401017125,登記記録の閉鎖等,0,2022-05-31,2022-05-26,株式会社ファルメ,,株式会社,神奈川県,横浜市青葉区,美しが丘４丁目３６番地２１,,14,117,2250002,,,2022-05-26,清算の結了等,,,2015-10-05,1,,,,,ファルメ,0
122,1080101015302,登記記録の閉鎖等,0,2022-05-31,2022-05-27,株式会社リビング・ワン,,株式会社,静岡県,下田市,大賀茂１３３３番地,,22,219,4150038,,,2022-05-27,清算の結了等,,,2015-10-05,1,,,,,リビングワン,0
123,1080401010878,登記記録の閉鎖等,0,2022-05-31,2022-05-27,ビデオ・ラボ・ネットワーク株式会社,,株式会社,静岡県,浜松市北区,細江町中川８８８番地３４５,,22,135,4311304,,,2022-05-27,清算の結了等,,,2015-10-05,1,,,,,ビデオラボネットワーク,0
145,1120005017547,登記記録の閉鎖等,0,2022-05-31,2022-05-17,一般社団法人日本スポーツ栄養コンディショニング協会,,その他の設立登記法人,大阪府,大阪市淀川区,塚本２丁目１０番２０号,00046806,27,123,5320026,,,2022-05-17,清算の結了等,,,2015-10-05,1,,,,,スポーツエイヨウコンディショニングキョウカイ,0
153,1120901014234,登記記録の閉鎖等,0,2022-05-31,2022-05-30,株式会社中嶋ファクトリー,,株式会社,大阪府,吹田市,新芦屋上２４番１－２０２号,00033410,27,205,5650804,,,2022-05-30,清算の結了等,,,2015-10-05,1,,,,,ナカジマファクトリー,0
155,1120902008061,登記記録の閉鎖等,0,2022-05-31,2022-05-30,有限会社らふれえず,,有限会社,大阪府,吹田市,垂水町１丁目２番２１号,,27,205,5640062,,,2022-05-30,清算の結了等,,,2015-10-05,1,,,,,ラフレエズ,0
190,1180305009024,登記記録の閉鎖等,0,2022-05-31,2022-05-17,一般社団法人ｍａｈｉｎａ,,その他の設立登記法人,愛知県,高浜市,碧海町３丁目３番地６,,23,227,4441324,,,2022-05-17,清算の結了等,,,2020-02-20,1,,,,,マヒナ,0
191,1190001008667,登記記録の閉鎖等,0,2022-05-31,2022-05-27,株式会社マリヤ,,株式会社,三重県,伊賀市,上野丸之内６８番地の１,,24,216,5180873,,,2022-05-27,清算の結了等,,,2015-10-05,1,,,,,マリヤ,0
241,1420001009237,登記記録の閉鎖等,0,2022-05-31,2022-05-23,津軽長寿温泉株式会社,,株式会社,青森県,弘前市,大字新里字中樋田１５６番地２,,02,202,0368083,,,2022-05-23,清算の結了等,,,2015-10-05,1,,,,,ツガルチョウジュオンセン,0
242,1430001023880,登記記録の閉鎖等,0,2022-05-31,2022-05-30,丸武興業株式会社,,株式会社,北海道,札幌市北区,篠路二条７丁目５番３号,,01,102,0028022,,,2022-05-30,清算の結了等,,,2015-10-05,1,,,,,マルタケコウギョウ,0
246,1470002009405,登記記録の閉鎖等,0,2022-05-31,2022-05-27,有限会社キョウリツ,,有限会社,香川県,高松市,香川町大野６５番地,,37,201,7611701,,,2022-05-27,清算の結了等,,,2015-10-05,1,,,,,キョウリツ,0
254,2010001099351,登記記録の閉鎖等,0,2022-05-31,2022-05-18,株式会社日本知的財産研究所,,株式会社,東京都,中央区,日本橋兜町１７番１号,,13,102,1030026,,,2022-05-18,清算の結了等,,,2015-10-05,1,,,,,ニホンチテキザイサンケンキュウジョ,0
265,2010401146281,登記記録の閉鎖等,0,2022-05-31,2022-05-12,株式会社スピードライン,,株式会社,東京都,港区,西新橋１丁目２番９号,,13,103,1050003,,,2022-05-12,清算の結了等,,,2019-06-17,1,,,,,スピードライン,0
327,2030002039627,登記記録の閉鎖等,0,2022-05-31,2022-05-24,有限会社吉木綜合事務所,,有限会社,埼玉県,幸手市,上高野１丁目２０番地８,,11,240,3400155,,,2022-05-24,清算の結了等,,,2015-10-05,1,,,,,,0
329,2030002073312,登記記録の閉鎖等,0,2022-05-31,2022-05-24,有限会社小林金型製作所,,有限会社,埼玉県,川越市,大字下広谷１１１２番地,,11,201,3500804,,,2022-05-24,清算の結了等,,,2015-10-05,1,,,,,コバヤシカナガタセイサクショ,0
331,2030002117085,登記記録の閉鎖等,0,2022-05-31,2022-05-19,有限会社春山,,有限会社,埼玉県,深谷市,仲町３番２号,,11,218,3660822,,,2022-05-19,清算の結了等,,,2015-10-05,1,,,,,ハルヤマ,0
345,2050002013035,登記記録の閉鎖等,0,2022-05-31,2022-05-16,有限会社霞浦ノ丘協同興産,,有限会社,茨城県,かすみがうら市,坂１２６６番地,,08,230,3000214,,,2022-05-16,清算の結了等,,,2015-10-05,1,,,,,カホノオカキョウドウコウサン,0
351,2070001016342,登記記録の閉鎖等,0,2022-05-31,2022-05-06,株式会社トーワキンゾク,,株式会社,群馬県,桐生市,相生町２丁目８７番地４,,10,203,3760011,,,2022-05-06,清算の結了等,,,2015-10-05,1,,,,,トーワキンゾク,0
361,2090002000888,登記記録の閉鎖等,0,2022-05-31,2022-05-25,有限会社サンクス,,有限会社,山梨県,甲府市,西下条町１７番地,,19,201,4000054,,,2022-05-25,清算の結了等,,,2015-10-05,1,,,,,,0
375,2120002017045,登記記録の閉鎖等,0,2022-05-31,2022-05-30,有限会社山寿,,有限会社,大阪府,大阪市住之江区,北島３丁目９番３号,,27,125,5590014,,,2022-05-30,清算の結了等,,,2015-10-05,1,,,,,ヤマジュ,0
390,2120901010562,登記記録の閉鎖等,0,2022-05-31,2022-05-30,大倉興産株式会社,,株式会社,大阪府,高槻市,古曽部町１丁目１１番２２号,,27,207,5691115,,,2022-05-30,清算の結了等,,,2015-10-05,1,,,,,オオクラコウサン,0
404,2140002015022,登記記録の閉鎖等,0,2022-05-31,2022-05-27,有限会社デザインスタジオプレアート,,有限会社,兵庫県,神戸市中央区,二宮町１丁目２番３号,,28,110,6510093,,,2022-05-27,清算の結了等,,,2015-10-05,1,,,,,デザインスタジオプレアート,0
434,2200001017260,登記記録の閉鎖等,0,2022-05-31,2022-05-27,ひかり商事株式会社,,株式会社,岐阜県,美濃加茂市,太田町２７３６番地の２,,21,211,5050041,,,2022-05-27,清算の結了等,,,2015-10-05,1,,,,,ヒカリショウジ,0
435,2200001038331,登記記録の閉鎖等,0,2022-05-31,2022-05-27,中川工業株式会社,,株式会社,岐阜県,各務原市,蘇原瑞穂町１丁目６番地２,,21,213,5040831,,,2022-05-27,清算の結了等,,,2021-02-18,1,,,,,ナカガワコウギョウ,0
523,3010901011785,登記記録の閉鎖等,0,2022-05-31,2022-05-23,株式会社みむろ不動産,,株式会社,東京都,世田谷区,桜上水１丁目１８番１２号,,13,112,1560045,,,2022-05-23,清算の結了等,,,2015-10-05,1,,,,,ミムロフドウサン,0
545,3011801006090,登記記録の閉鎖等,0,2022-05-31,2022-05-25,株式会社イマテツ,,株式会社,東京都,足立区,千住河原町６番１４号,,13,121,1200037,,,2022-05-25,清算の結了等,,,2015-10-05,1,,,,,イマテツ,0
573,3030001044908,登記記録の閉鎖等,0,2022-05-31,2022-05-25,ダイユウワーク株式会社,,株式会社,埼玉県,朝霞市,宮戸１丁目６番６号,,11,227,3510031,,,2022-05-25,清算の結了等,,,2015-10-05,1,,,,,ダイユウワーク,0
585,3040002073327,登記記録の閉鎖等,0,2022-05-31,2022-05-27,有限会社西賀商事,,有限会社,千葉県,市原市,姉崎海岸９０番地の２,,12,219,2990107,,,2022-05-27,清算の結了等,,,2015-10-05,1,,,,,サイガショウジ,0
633,3140001039863,登記記録の閉鎖等,0,2022-05-31,2022-05-27,株式会社俵屋商店,,株式会社,兵庫県,相生市,那波大浜町１９番６号,,28,208,6780051,,,2022-05-27,清算の結了等,,,2015-10-05,1,,,,,タワラヤショウテン,0
637,3140001086030,登記記録の閉鎖等,0,2022-05-31,2022-05-27,株式会社セブン・エイト,,株式会社,兵庫県,洲本市,塩屋１丁目２番１５号,,28,205,6560021,,,2022-05-27,清算の結了等,,,2015-10-05,1,,,,,セブンエイト,0
679,3230003001655,登記記録の閉鎖等,0,2022-05-31,2022-05-27,合同会社ぐっどかんとりー,,合同会社,富山県,高岡市,戸出市野瀬５０１,,16,202,9391101,,,2022-05-27,清算の結了等,,,2021-05-06,1,,,,,グッドカントリー,0
690,3310002003611,登記記録の閉鎖等,0,2022-05-31,2022-05-30,有限会社トラッド・プランニング,,有限会社,長崎県,長崎市,女の都４丁目２２番４号,,42,201,8528144,,,2022-05-30,清算の結了等,,,2015-10-05,1,,,,,トラッドプランニング,0
700,3360001016948,登記記録の閉鎖等,0,2022-05-31,2022-05-19,円隣株式会社,,株式会社,沖縄県,浦添市,字大平５０３番地５ベルグ大平マンション１０１号室,,47,208,9012113,,,2022-05-19,清算の結了等,,,2015-10-05,1,,,,,エンリン,0
739,4010005027653,登記記録の閉鎖等,0,2022-05-31,2022-05-27,一般社団法人オーナーズブックワン,,その他の設立登記法人,東京都,千代田区,霞が関３丁目２番５号,,13,101,1000013,,,2022-05-27,清算の結了等,,,2017-10-27,1,,,,,オーナーズブックワン,0
764,4010403024384,登記記録の閉鎖等,0,2022-05-31,2022-05-13,合同会社ベースタ,,合同会社,東京都,港区,北青山２丁目７－２０猪瀬ビル２階,,13,103,1070061,,,2022-05-13,清算の結了等,,,2020-12-21,1,,,,,ベースタ,0
787,4011001136068,登記記録の閉鎖等,0,2022-05-31,2022-05-12,ゼクサス株式会社,,株式会社,東京都,目黒区,洗足１丁目２６－１－２０２,,13,110,1520012,,,2022-05-12,清算の結了等,,,2020-10-06,1,,,,,ゼクサス,0
795,4011101044567,登記記録の閉鎖等,0,2022-05-31,2022-05-12,株式会社ＲＥＩＫＯ　ＩＮＴＥＲＮＡＴＩＯＮＡＬ,,株式会社,東京都,渋谷区,千駄ヶ谷１丁目７番５号,,13,113,1510051,,,2022-05-12,清算の結了等,,,2015-10-05,1,,,,,レイコインターナショナル,0
827,4020002040352,登記記録の閉鎖等,0,2022-05-31,2022-05-25,有限会社美穂電器,,有限会社,神奈川県,横浜市鶴見区,栄町通１丁目５番地８,,14,101,2300038,,,2022-05-25,清算の結了等,,,2015-10-05,1,,,,,ミホデンキ,0
834,4021001006947,登記記録の閉鎖等,0,2022-05-31,2022-05-27,株式会社眞空精工,,株式会社,神奈川県,茅ヶ崎市,萩園８１７番地１０,,14,207,2530071,,,2022-05-27,清算の結了等,,,2015-10-05,1,,,,,,0
873,4060002032767,登記記録の閉鎖等,0,2022-05-31,2022-05-26,有限会社山田工務店,,有限会社,栃木県,栃木市,皆川城内町１９６０番地,,09,203,3280067,,,2022-05-26,清算の結了等,,,2015-10-05,1,,,,,ヤマダコウムテン,0
884,4100002006452,登記記録の閉鎖等,0,2022-05-31,2022-05-30,有限会社グッドサポート,,有限会社,長野県,長野市,大字大豆島６２８２番地７,,20,201,3810022,,,2022-05-30,清算の結了等,,,2015-10-05,1,,,,,グッドサポート,0
885,4100002038264,登記記録の閉鎖等,0,2022-05-31,2022-05-26,有限会社対竜冷熱工業,,有限会社,長野県,下伊那郡松川町,生田７９７番地４,,20,402,3993302,,,2022-05-26,清算の結了等,,,2015-10-05,1,,,,,,0
889,4120001086304,登記記録の閉鎖等,0,2022-05-31,2022-05-27,株式会社難波印刷所,,株式会社,大阪府,大阪市中央区,谷町４丁目８番２６号,,27,128,5400012,,,2022-05-27,清算の結了等,,,2015-10-05,1,,,,,ナンバインサツショ,0
897,4120002028024,登記記録の閉鎖等,0,2022-05-31,2022-05-25,有限会社バードコーポレーション,,有限会社,大阪府,大阪市淀川区,新北野２丁目６番３０号,,27,123,5320025,,,2022-05-25,合併による解散等,8120001057251,令和４年５月１日大阪市淀川区新北野二丁目６番３０号鳥治食品株式会社（8120001057251）に合併し解散,2015-10-05,1,,,,,バードコーポレーション,0
905,4120102017471,登記記録の閉鎖等,0,2022-05-31,2022-05-27,有限会社あすか,,有限会社,大阪府,南河内郡河南町,大宝２丁目２９番６号,,27,382,5850005,,,2022-05-27,清算の結了等,,,2015-10-05,1,,,,,アスカ,0
918,4140001120135,登記記録の閉鎖等,0,2022-05-31,2022-05-27,グランクレア株式会社,,株式会社,兵庫県,伊丹市,荒牧６丁目１８番１３号,,28,207,6640001,,,2022-05-27,清算の結了等,,,2021-01-14,1,,,,,グランクレア,0
945,4180002076488,登記記録の閉鎖等,0,2022-05-31,2022-05-27,産立株式会社,,株式会社,愛知県,一宮市,萩原町花井方字中田島１２番地,,23,203,4910351,,,2022-05-27,清算の結了等,,,2015-10-05,1,,,,,,0
952,4190003003829,登記記録の閉鎖等,0,2022-05-31,2022-05-26,合同会社服部,,合同会社,三重県,四日市市,広永町１１３７番地,,24,202,5128061,,,2022-05-26,清算の結了等,,,2021-11-22,1,,,,,ハットリ,0
953,4200002016508,登記記録の閉鎖等,0,2022-05-31,2022-05-30,有限会社三光水道,,有限会社,岐阜県,加茂郡八百津町,上牧野１１８番地の１,,21,505,5050304,,,2022-05-30,清算の結了等,,,2015-10-05,1,,,,,サンコウスイドウ,0
961,4280001002757,登記記録の閉鎖等,0,2022-05-31,2022-05-27,株式会社ＣＡＤＡＮ,,株式会社,島根県,松江市,母衣町１００番地,,32,201,6900886,,,2022-05-27,清算の結了等,,,2015-10-05,1,,,,,キャダン,0
962,4290001020353,登記記録の閉鎖等,0,2022-05-31,2022-05-25,エヌケイマテリアル株式会社,,株式会社,福岡県,福岡市南区,清水４丁目２番８号,,40,134,8150031,,,2022-05-25,合併による解散等,8010401006612,令和４年５月１日東京都港区西新橋二丁目１４番１号興和西新橋ビルＢ棟化研マテリアル株式会社（8010401006612）に合併し解散,2015-10-05,1,,,,,エヌケイマテリアル,0
964,4290001034460,登記記録の閉鎖等,0,2022-05-31,2022-05-26,株式会社中島保険マネジメント,,株式会社,福岡県,福岡市中央区,六本松２丁目６番７－３０１号,,40,133,8100044,,,2022-05-26,清算の結了等,,,2015-10-05,1,,,,,ナカシマホケンマネジメント,0
973,4290002048360,登記記録の閉鎖等,0,2022-05-31,2022-05-26,有限会社アメックス,,有限会社,福岡県,久留米市,原古賀町３０－１,,40,203,8300046,,,2022-05-26,清算の結了等,,,2015-10-05,1,,,,,アメックス,0
983,4330002002602,登記記録の閉鎖等,0,2022-05-31,2022-05-27,有限会社銀杏釡めし,,有限会社,熊本県,熊本市中央区,練兵町２８番地（Ａ－１２０６号）,,43,101,8600017,,,2022-05-27,清算の結了等,,,2015-10-05,1,,,,,ギンナンカマメシ,0
989,4350005002795,登記記録の閉鎖等,0,2022-05-31,2022-05-26,大師通り商店街振興組合,,その他の設立登記法人,宮崎県,延岡市,山下町３丁目６番地２７,,45,203,8820055,,,2022-05-26,清算の結了等,,,2015-10-05,1,,,,,タイシドオリ,0
1003,4420001009218,登記記録の閉鎖等,0,2022-05-31,2022-05-23,株式会社辰巳設計,,株式会社,青森県,弘前市,大字田園２丁目３番地７,,02,202,0368086,,,2022-05-23,清算の結了等,,,2015-10-05,1,,,,,タツミセッケイ,0
1006,4430001054849,登記記録の閉鎖等,0,2022-05-31,2022-05-30,コントラしらおい株式会社,,株式会社,北海道,白老郡白老町,字北吉原４０１番地１６８,,01,578,0590923,,,2022-05-30,清算の結了等,,,2015-10-05,1,,,,,コントラシラオイ,0
1031,5010003015320,登記記録の閉鎖等,0,2022-05-31,2022-05-26,ソーシャル・ネットワークス合同会社,,合同会社,東京都,江東区,豊洲５丁目６番２９号,,13,108,1350061,,,2022-05-26,合併による解散等,5010001162585,令和４年５月１日東京都中央区明石町１－３株式会社インベストメント東京（5010001162585）に合併し解散,2015-10-05,1,,,,,ソーシャルネットワークス,0
1038,5010401095187,登記記録の閉鎖等,0,2022-05-31,2022-05-23,上海貨客船株式会社,,株式会社,東京都,千代田区,内幸町２丁目１番１号,,13,101,1000011,,,2022-05-23,清算の結了等,,,2015-10-05,1,,,,,シャンハイカキャクセン,0
1039,5010401151873,登記記録の閉鎖等,0,2022-05-31,2022-05-20,ハスキーテック株式会社,,株式会社,東京都,世田谷区,上野毛１丁目３０番１０号,,13,112,1580093,,,2022-05-20,清算の結了等,,,2020-03-25,1,,,,,ハスキーテック,0
1055,5010805002508,登記記録の閉鎖等,0,2022-05-31,2022-05-26,一般社団法人関東建設請負業協会,,その他の設立登記法人,東京都,大田区,南六郷２丁目５番４号,,13,111,1440045,,,2022-05-26,合併による解散等,7010005021182,令和４年５月２３日東京都千代田区二番町３番地５一般社団法人全国建設請負業協会（7010005021182）に合併し解散,2017-10-31,1,,,,,カントウケンセツウケオイギョウキョウカイ,0
1073,5011401019739,登記記録の閉鎖等,0,2022-05-31,2022-05-27,株式会社アポイオ,,株式会社,東京都,板橋区,南常盤台１丁目１９番３号,,13,119,1740072,,,2022-05-27,清算の結了等,,,2016-09-27,1,,,,,アポイオ,0
1078,5011803001484,登記記録の閉鎖等,0,2022-05-31,2022-05-25,合同会社和,,合同会社,東京都,足立区,竹の塚６丁目９番７号オークビル２０３号室,,13,121,1210813,,,2022-05-25,清算の結了等,,,2015-10-05,1,,,,,ヤワラ,0
1096,5020002080273,登記記録の閉鎖等,0,2022-05-31,2022-05-25,有限会社飯山商店,,有限会社,神奈川県,川崎市幸区,鹿島田２丁目１８番３０号,,14,132,2120058,,,2022-05-25,清算の結了等,,,2015-10-05,1,,,,,イイヤマショウテン,0
1099,5021001057931,登記記録の閉鎖等,0,2022-05-31,2022-05-27,株式会社ＢＬＩＦＥ,,株式会社,神奈川県,藤沢市,藤沢１００３番地の８,,14,205,2510052,,,2022-05-27,清算の結了等,,,2015-12-02,1,,,,,ブリフ,0
1128,5080103001123,登記記録の閉鎖等,0,2022-05-31,2022-05-23,足柄サービス合同会社,,合同会社,静岡県,駿東郡小山町,竹之下２５５番地,,22,344,4101313,,,2022-05-23,清算の結了等,,,2015-10-05,1,,,,,アシガラサービス,0
1130,5080401018967,登記記録の閉鎖等,0,2022-05-31,2022-05-27,株式会社ユウエス,,株式会社,静岡県,浜松市中区,高丘東１丁目６番５７号,,22,131,4338117,,,2022-05-27,清算の結了等,,,2015-10-05,1,,,,,ユウエス,0
1131,5080402022002,登記記録の閉鎖等,0,2022-05-31,2022-05-30,丸美繃帯有限会社,00068518,有限会社,静岡県,袋井市,諸井９５４番地,,22,216,4371121,,,2022-05-30,清算の結了等,,,2015-10-05,1,,,,,マルビホウタイ,0
1135,5100001009109,登記記録の閉鎖等,0,2022-05-31,2022-05-26,株式会社オーク,,株式会社,長野県,北佐久郡軽井沢町,中軽井沢６番地４,,20,321,3890112,,,2022-05-26,清算の結了等,,,2015-10-05,1,,,,,オーク,0
1179,5180001013375,登記記録の閉鎖等,0,2022-05-31,2022-05-27,株式会社プロセスアピール,,株式会社,愛知県,名古屋市北区,上飯田西町３丁目９番地の１３,,23,103,4620809,,,2022-05-27,清算の結了等,,,2015-10-05,1,,,,,プロセスアピール,0
1191,5190003003828,登記記録の閉鎖等,0,2022-05-31,2022-05-26,合同会社三洋,,合同会社,三重県,四日市市,広永町１１３７番地,,24,202,5128061,,,2022-05-26,清算の結了等,,,2021-11-22,1,,,,,サンヨウ,0
1244,5440001002459,登記記録の閉鎖等,0,2022-05-31,2022-05-17,株式会社安田総合不動産,,株式会社,北海道,函館市,本町２０番１９号,,01,202,0400011,,,2022-05-17,清算の結了等,,,2015-10-05,1,,,,,ヤスダソウゴウフドウサン,0
1250,5450002002151,登記記録の閉鎖等,0,2022-05-31,2022-05-27,有限会社越建設,,有限会社,北海道,旭川市,東光三条２丁目３番９号,,01,204,0788343,,,2022-05-27,清算の結了等,,,2015-10-05,1,,,,,コシケンセツ,0
1252,5480001007470,登記記録の閉鎖等,0,2022-05-31,2022-05-30,池田石油株式会社,,株式会社,徳島県,三好市,池田町マチ２１８１番地の１４,,36,208,7780002,,,2022-05-30,清算の結了等,,,2015-10-05,1,,,,,,0
1264,6010001215409,登記記録の閉鎖等,0,2022-05-31,2022-05-24,あゆみ製薬ホールディングス株式会社,,株式会社,東京都,中央区,銀座４丁目１２番１５号,,13,102,1040061,,,2022-05-24,合併による解散等,8010003029474,令和４年４月１日東京都中央区銀座四丁目１２番１５号ＡＹＭ　ＨＤ株式会社（8010003029474）に合併し解散,2021-01-27,1,,,,,アユミセイヤクホールディングス,0
1270,6010401117915,登記記録の閉鎖等,0,2022-05-31,2022-05-27,株式会社ＮＢマネジメント,,株式会社,東京都,港区,芝３丁目４番１２号,,13,103,1050014,,,2022-05-27,清算の結了等,,,2015-10-05,1,,,,,エヌビーマネジメント,0
1288,6010702004399,登記記録の閉鎖等,0,2022-05-31,2022-05-27,須藤商事有限会社,,有限会社,長野県,佐久市,新子田１７００－１５３,,20,217,3850007,,,2022-05-27,清算の結了等,,,2015-10-05,1,,,,,スドウショウジ,0
1295,6011001050300,登記記録の閉鎖等,0,2022-05-31,2022-05-11,株式会社イギア,,株式会社,東京都,渋谷区,恵比寿１丁目１９番２３号,,13,113,1500013,,,2022-05-11,清算の結了等,,,2015-10-05,1,,,,,イギア,0
1317,6011403003483,登記記録の閉鎖等,0,2022-05-31,2022-05-27,大盛合同会社,,合同会社,東京都,板橋区,中丸町３３－１５,,13,119,1730026,,,2022-05-27,清算の結了等,,,2021-10-27,1,,,,,オオモリ,0
1329,6020001022647,登記記録の閉鎖等,0,2022-05-31,2022-05-25,神奈川企業株式会社,,株式会社,神奈川県,横浜市神奈川区,子安通２丁目２２９番地,,14,102,2210021,,,2022-05-25,清算の結了等,,,2015-10-05,1,,,,,カナガワキギョウ,0
1333,6020001116696,登記記録の閉鎖等,0,2022-05-31,2022-05-25,株式会社Ｊｏｎｎｙ’ｓ　Ｃｏｍｐａｎｙ,,株式会社,神奈川県,川崎市川崎区,旭町１丁目１番１号丸金ビル３０２,,14,131,2100808,,,2022-05-25,清算の結了等,,,2016-06-23,1,,,,,ジョニーズカンパニー,0
1338,6020002100039,登記記録の閉鎖等,0,2022-05-31,2022-05-26,有限会社ハーツ,,有限会社,神奈川県,川崎市高津区,新作２丁目１番３４号,,14,134,2130014,,,2022-05-26,清算の結了等,,,2015-10-05,1,,,,,ハーツ,0
1367,6050001027610,登記記録の閉鎖等,0,2022-05-31,2022-05-25,株式会社ピン歩気,,株式会社,茨城県,取手市,東６丁目７０番１４号,,08,217,3020005,,,2022-05-25,清算の結了等,,,2015-10-05,1,,,,,ピンボケ,0
1370,6050001044028,登記記録の閉鎖等,0,2022-05-31,2022-05-20,株式会社ＨＮＨ　ＪＡＰＡＮ,,株式会社,茨城県,つくば市,並木３丁目１１番地８,,08,220,3050044,,,2022-05-20,清算の結了等,,,2018-02-19,1,,,,,エイチエヌエイチジャパン,0
1386,6100001017309,登記記録の閉鎖等,0,2022-05-31,2022-05-27,株式会社竹村自動車,,株式会社,長野県,大町市,大町２６５５番地,,20,212,3980002,,,2022-05-27,清算の結了等,,,2015-10-05,1,,,,,タケムラジドウシャ,0
1388,6100002035409,登記記録の閉鎖等,0,2022-05-31,2022-05-26,有限会社山住屋商店,,有限会社,長野県,上伊那郡辰野町,大字辰野１６３２番地,,20,382,3990421,,,2022-05-26,清算の結了等,,,2015-10-05,1,,,,,ヤマズミヤショウテン,0
1419,6120901024204,登記記録の閉鎖等,0,2022-05-31,2022-05-30,新和工業株式会社,,株式会社,大阪府,豊中市,勝部１丁目８１番地２,,27,203,5610894,,,2022-05-30,清算の結了等,,,2015-10-05,1,,,,,シンワコウギョウ,0
1420,6120901031547,登記記録の閉鎖等,0,2022-05-31,2022-05-30,株式会社ティーオークリエイト,,株式会社,大阪府,豊中市,勝部１丁目８１番地２,,27,203,5610894,,,2022-05-30,清算の結了等,,,2015-10-05,1,,,,,ティーオークリエイト,0
1437,6160001010745,登記記録の閉鎖等,0,2022-05-31,2022-05-30,株式会社伏龍,,株式会社,滋賀県,近江八幡市,安土町常楽寺３８番地２,,25,204,5211351,,,2022-05-30,清算の結了等,,,2015-10-05,1,,,,,フクリュウ,0
1442,6170001004300,登記記録の閉鎖等,0,2022-05-31,2022-05-27,株式会社ナカシタトウフ,,株式会社,和歌山県,和歌山市,園部６８６番地,,30,201,6408483,,,2022-05-27,清算の結了等,,,2015-10-05,1,,,,,,0
1453,6180002075637,登記記録の閉鎖等,0,2022-05-31,2022-05-27,有限会社田中興業,,有限会社,愛知県,一宮市,春明字西張渕７０番地,,23,203,4910003,,,2022-05-27,清算の結了等,,,2015-10-05,1,,,,,タナカコウギョウ,0
1454,6180002079877,登記記録の閉鎖等,0,2022-05-31,2022-05-27,有限会社スクエアワン・システムズ,,有限会社,愛知県,一宮市,今伊勢町宮後字西松山４５番地,,23,203,4910057,,,2022-05-27,清算の結了等,,,2015-10-05,1,,,,,,0
1458,6190003003827,登記記録の閉鎖等,0,2022-05-31,2022-05-26,合同会社ＭＴＭ,,合同会社,三重県,四日市市,広永町１１３７番地,,24,202,5128061,,,2022-05-26,清算の結了等,,,2021-11-22,1,,,,,エムティーエム,0
1461,6220001017263,登記記録の閉鎖等,0,2022-05-31,2022-05-30,株式会社サウサリート,,株式会社,石川県,河北郡内灘町,字ハマナス１丁目１３３番地,,17,365,9200268,,,2022-05-30,清算の結了等,,,2015-10-05,1,,,,,サウサリート,0
1488,6330005009774,登記記録の閉鎖等,0,2022-05-31,2022-05-26,一般社団法人南九州建設請負業協会,,その他の設立登記法人,熊本県,熊本市中央区,桜町１番２５号,,43,101,8600805,,,2022-05-26,合併による解散等,7010005021182,令和４年５月２３日東京都千代田区二番町３番地５一般社団法人全国建設請負業協会（7010005021182）に合併し解散,2017-11-09,1,,,,,ミナミキュウシュウケンセツウケオイギョウキョウカイ,0
1493,6370002019822,登記記録の閉鎖等,0,2022-05-31,2022-05-26,有限会社フジヒロＢＣＰ,,有限会社,宮城県,仙台市青葉区,みやぎ台４丁目１８番１３号,,04,101,9893214,,,2022-05-26,清算の結了等,,,2015-10-05,1,,,,,フジヒロビーシーピー,0
1495,6380005011940,登記記録の閉鎖等,0,2022-05-31,2022-05-26,一般社団法人東日本建設請負業協会,,その他の設立登記法人,福島県,郡山市,島２丁目４３番１２号,,07,203,9638034,,,2022-05-26,合併による解散等,7010005021182,令和４年５月２３日東京都千代田区二番町３番地５一般社団法人全国建設請負業協会（7010005021182）に合併し解散,2017-11-09,1,,,,,ヒガシニホンケンセツウケオイギョウキョウカイ,0
1501,6430001017572,登記記録の閉鎖等,0,2022-05-31,2022-05-30,株式会社山室海苔,,株式会社,北海道,札幌市白石区,流通センター７丁目２番１号,,01,104,0030030,,,2022-05-30,清算の結了等,,,2015-10-05,1,,,,,,0
1504,6450002004436,登記記録の閉鎖等,0,2022-05-31,2022-05-30,有限会社フーズファクトリー,,有限会社,北海道,旭川市,花咲町３丁目４０５８番地の１,,01,204,0700901,,,2022-05-30,清算の結了等,,,2015-10-05,1,,,,,フーズファクトリー,0
1515,7010001192564,登記記録の閉鎖等,0,2022-05-31,2022-05-18,株式会社エムシー投資管理機構,,株式会社,東京都,千代田区,丸の内２丁目６番１号,,13,101,1000005,,,2022-05-18,清算の結了等,,,2018-06-13,1,,,,,エムシートウシカンリキコウ,0
1547,7011001131215,登記記録の閉鎖等,0,2022-05-31,2022-05-10,株式会社ｔｏｏｏｔｈ,,株式会社,東京都,渋谷区,神宮前５丁目６－５Ｐａｔｈ表参道Ａ棟３Ｆ,,13,113,1500001,,,2022-05-10,清算の結了等,,,2019-12-05,1,,,,,トゥース,0
1553,7011301020489,登記記録の閉鎖等,0,2022-05-31,2022-05-30,株式会社０,,株式会社,東京都,新宿区,信濃町２番１号地下１階,,13,104,1600016,,,2022-05-30,清算の結了等,,,2015-10-05,1,,,,,,0
1560,7012402002541,登記記録の閉鎖等,0,2022-05-31,2022-05-26,有限会社松浦工務店,,有限会社,東京都,府中市,小柳町３丁目１４番地の１６,,13,206,1830013,,,2022-05-26,清算の結了等,,,2015-10-05,1,,,,,マツウラコウムテン,0
1616,7100001030780,登記記録の閉鎖等,0,2022-05-31,2022-05-26,株式会社カノシシ,,株式会社,長野県,小諸市,大字大久保１０７４番地１９,,20,208,3840071,,,2022-05-26,清算の結了等,,,2017-11-24,1,,,,,カノシシ,0
1706,7330005004709,登記記録の閉鎖等,0,2022-05-31,2022-05-25,特定非営利活動法人ふくろうネット,,その他の設立登記法人,熊本県,玉名市,中４番地,,43,206,8650064,,,2022-05-25,清算の結了等,,,2015-10-05,1,,,,,フクロウネット,0
1718,7370301003360,登記記録の閉鎖等,0,2022-05-31,2022-05-27,緒久里産業株式会社,,株式会社,宮城県,大崎市,三本木南谷地字長寿院浦１番地１０,,04,215,9896322,,,2022-05-27,清算の結了等,,,2015-10-05,1,,,,,,0
1726,7400001005463,登記記録の閉鎖等,0,2022-05-31,2022-05-27,株式会社花巻建設会館,,株式会社,岩手県,花巻市,鍛治町９番２３号,,03,205,0250086,,,2022-05-27,清算の結了等,,,2015-10-05,1,,,,,ハナマキケンセツカイカン,0
1774,8010601049535,登記記録の閉鎖等,0,2022-05-31,2022-05-13,株式会社ａｂａｓａｋｕ,,株式会社,東京都,港区,六本木３丁目４番３３号マルマン六本木ビル３階六本木ビジネスセンター内,,13,103,1060032,,,2022-05-13,清算の結了等,,,2016-04-18,1,,,,,アバサク,0
1789,8011001066625,登記記録の閉鎖等,0,2022-05-31,2022-05-16,Ｉｎｔｅｇｒｅｏｎ　Ｍａｎａｇｅｄ　Ｓｏｌｕｔｉｏｎｓ　Ｊａｐａｎ株式会社,,株式会社,東京都,渋谷区,道玄坂１丁目１２番１号渋谷マークシティウェスト２２階,,13,113,1500043,,,2022-05-16,清算の結了等,,,2015-10-05,1,,,,,インテグレオンマネージトソリューションズジャパン,0
1818,8011702007299,登記記録の閉鎖等,0,2022-05-31,2022-05-30,有限会社ダックスファミリー,,有限会社,東京都,江戸川区,中葛西２丁目２７番１号,,13,123,1340083,,,2022-05-30,清算の結了等,,,2015-10-05,1,,,,,,0
1819,8011702007638,登記記録の閉鎖等,0,2022-05-31,2022-05-26,有限会社つるや,,有限会社,東京都,江戸川区,北小岩２丁目３番６号,,13,123,1330051,,,2022-05-26,清算の結了等,,,2015-10-05,1,,,,,ツルヤ,0
1839,8021002045346,登記記録の閉鎖等,0,2022-05-31,2022-05-26,有限会社寺谷電気商会,,有限会社,神奈川県,海老名市,東柏ケ谷１丁目１９番４号,,14,215,2430401,,,2022-05-26,清算の結了等,,,2015-10-05,1,,,,,テラヤデンキショウカイ,0
1871,8080402015688,登記記録の閉鎖等,0,2022-05-31,2022-05-26,有限会社森下電工,,有限会社,静岡県,浜松市浜北区,西美薗２２９１番地の２,,22,136,4340033,,,2022-05-26,清算の結了等,,,2015-10-05,1,,,,,モリシタデンコウ,0
1875,8110001025077,登記記録の閉鎖等,0,2022-05-31,2022-05-26,株式会社丸正清水呉服店,,株式会社,新潟県,見附市,今町１丁目５番２６号,,15,211,9540111,,,2022-05-26,清算の結了等,,,2015-10-05,1,,,,,マルショウシミズゴフクテン,0
1880,8120001006051,登記記録の閉鎖等,0,2022-05-31,2022-05-30,浪速通信工業株式会社,,株式会社,大阪府,大阪市阿倍野区,天王寺町南２丁目２３番２５号,,27,119,5450002,,,2022-05-30,清算の結了等,,,2015-10-05,1,,,,,ナニワツウシンコウギョウ,0
1884,8120001039704,登記記録の閉鎖等,0,2022-05-31,2022-05-30,株式会社広田水産,,株式会社,大阪府,大阪市浪速区,敷津東２丁目２番８号,,27,111,5560012,,,2022-05-30,清算の結了等,,,2015-10-05,1,,,,,,0
1911,8120905002872,登記記録の閉鎖等,0,2022-05-31,2022-05-30,特定非営利活動法人和,,その他の設立登記法人,大阪府,茨木市,中穂積２丁目２番１０号,,27,211,5670034,,,2022-05-30,清算の結了等,,,2015-10-05,1,,,,,ナゴミ,0
1912,8120905005660,登記記録の閉鎖等,0,2022-05-31,2022-05-30,一般社団法人整理収納から始める空き家活性化プロジェクト,,その他の設立登記法人,大阪府,箕面市,萱野５丁目１３番４８号,,27,220,5620014,,,2022-05-30,清算の結了等,,,2018-01-10,1,,,,,セイリシュウノウカラハジメルアキヤカッセイカプロジェクト,0
1937,8180002021473,登記記録の閉鎖等,0,2022-05-31,2022-05-25,有限会社阪本製作所,,有限会社,愛知県,名古屋市天白区,福池１丁目１０５番地の１,,23,116,4680049,,,2022-05-25,清算の結了等,,,2015-10-05,1,,,,,サカモトセイサクショ,0
1938,8180002049234,登記記録の閉鎖等,0,2022-05-31,2022-05-25,有限会社ファイナンシャル・デザイナーズ,,有限会社,愛知県,名古屋市中村区,名駅南１丁目１０番９号,,23,105,4500003,,,2022-05-25,合併による解散等,6180001044675,令和４年５月２０日愛知県みよし市三好丘六丁目１１番地１１株式会社アイ・エフ・プランニング（6180001044675）に合併し解散,2015-10-05,1,,,,,,0
1939,8180002092234,登記記録の閉鎖等,0,2022-05-31,2022-05-24,有限会社アクシス,,有限会社,愛知県,津島市,大慶寺町４８番地４,,23,208,4960848,,,2022-05-24,清算の結了等,,,2015-10-05,1,,,,,アクシス,0
1958,8220001022253,登記記録の閉鎖等,0,2022-05-31,2022-05-27,株式会社中山組,,株式会社,石川県,小松市,串町東１１８番地,,17,203,9230965,,,2022-05-27,清算の結了等,,,2018-04-26,1,,,,,ナカヤマグミ,0
1987,8320002005362,登記記録の閉鎖等,0,2022-05-31,2022-05-30,有限会社白南風商事,,有限会社,大分県,大分市,高尾台１丁目１５番１号,,44,201,8700873,,,2022-05-30,清算の結了等,,,2015-10-05,1,,,,,シラハエショウジ,0
2038,9010002035217,登記記録の閉鎖等,0,2022-05-31,2022-05-18,有限会社インテックス,,有限会社,東京都,千代田区,永田町１丁目１１番２８号,,13,101,1000014,,,2022-05-18,清算の結了等,,,2015-10-05,1,,,,,インテックス,0
2039,9010003021141,登記記録の閉鎖等,0,2022-05-31,2022-05-18,日光８５コモド宮崎台合同会社,,合同会社,東京都,千代田区,丸の内３丁目１番１号東京共同会計事務所内,,13,101,1000005,,,2022-05-18,清算の結了等,,,2015-10-05,1,,,,,ニッコウエイティーファイブコモドミヤザキダイ,0
2070,9010901039714,登記記録の閉鎖等,0,2022-05-31,2022-05-23,楽天ＡｉｒＭａｐ株式会社,,株式会社,東京都,世田谷区,玉川１丁目１４番１号,,13,112,1580094,,,2022-05-23,清算の結了等,,,2017-03-13,1,,,,,ラクテンエアマップ,0
2071,9010902005491,登記記録の閉鎖等,0,2022-05-31,2022-05-25,有限会社ケアパートナー,,有限会社,東京都,世田谷区,奥沢３丁目３４番１５号,,13,112,1580083,,,2022-05-25,清算の結了等,,,2015-10-05,1,,,,,ケアパートナー,0
2074,9011001136253,登記記録の閉鎖等,0,2022-05-31,2022-05-11,ＥＧＳ株式会社,,株式会社,東京都,渋谷区,桜丘町１８番６号日本会館,,13,113,1500031,,,2022-05-11,清算の結了等,,,2020-10-19,1,,,,,イージーエス,0
2080,9011301023077,登記記録の閉鎖等,0,2022-05-31,2022-05-26,株式会社メープルリーフ・コンサルティング,,株式会社,東京都,杉並区,和田１丁目６１番１４号,,13,115,1660012,,,2022-05-26,清算の結了等,,,2017-04-14,1,,,,,メープルリーフコンサルティング,0
2082,9011303003754,登記記録の閉鎖等,0,2022-05-31,2022-05-23,合同会社ｃｈｉｐｒｏｇｒｅｓｓ,,合同会社,東京都,杉並区,成田東４丁目３５番,,13,115,1660015,,,2022-05-23,清算の結了等,,,2020-09-03,1,,,,,チップログレス,0
2090,9011802009252,登記記録の閉鎖等,0,2022-05-31,2022-05-24,有限会社阿部勇工務店,,有限会社,東京都,足立区,谷中２丁目１８番３号,,13,121,1200006,,,2022-05-24,清算の結了等,,,2015-10-05,1,,,,,アベユウコウムテン,0
2098,9013102005337,登記記録の閉鎖等,0,2022-05-31,2022-05-30,有限会社ＣＲＵＮＫ,,有限会社,東京都,福生市,大字福生８７８,,13,218,1970011,,,2022-05-30,清算の結了等,,,2015-10-05,1,,,,,,0
2099,9013201019064,登記記録の閉鎖等,0,2022-05-31,2022-05-30,株式会社Ｐｅａｃｅ＆Ｋｉｎｄｎｅｓｓ,,株式会社,東京都,東久留米市,幸町１丁目４番４号当麻ビル１Ｆ,,13,222,2030052,,,2022-05-30,清算の結了等,,,2015-10-05,1,,,,,ピースアンドカインドネス,0
2101,9020001065676,登記記録の閉鎖等,0,2022-05-31,2022-05-18,百合丘不動産株式会社,,株式会社,神奈川県,川崎市麻生区,高石１丁目１番５号,,14,137,2150003,,,2022-05-18,清算の結了等,,,2022-03-01,1,,,,,,0
2102,9020001082473,登記記録の閉鎖等,0,2022-05-31,2022-05-25,株式会社中山,,株式会社,神奈川県,川崎市川崎区,中瀬２丁目４番１１号,,14,131,2100818,,,2022-05-25,清算の結了等,,,2015-10-05,1,,,,,ナカヤマ,0
2107,9020002071491,登記記録の閉鎖等,0,2022-05-31,2022-05-27,有限会社ユースベネット,,有限会社,神奈川県,横浜市都筑区,見花山１－３０,,14,118,2240066,,,2022-05-27,清算の結了等,,,2015-10-05,1,,,,,ユースベネット,0
2118,9030001112650,登記記録の閉鎖等,0,2022-05-31,2022-05-30,エリアリバース株式会社,,株式会社,東京都,台東区,浅草橋３丁目１番２号,,13,106,1110053,,,2022-05-30,清算の結了等,,,2016-02-03,1,,,,,エリアリバース,0
2126,9040001032492,登記記録の閉鎖等,0,2022-05-31,2022-05-27,株式会社ソート,,株式会社,東京都,台東区,浅草橋２丁目２１番２号,,13,106,1110053,,,2022-05-27,清算の結了等,,,2015-10-05,1,,,,,ソート,0
2137,9050001030116,登記記録の閉鎖等,0,2022-05-31,2022-05-23,株式会社福田工務店,,株式会社,茨城県,常総市,篠山８６８番地,,08,211,3002721,,,2022-05-23,清算の結了等,,,2015-10-05,1,,,,,フクダコウムテン,0
2171,9120901041452,登記記録の閉鎖等,0,2022-05-31,2022-04-27,株式会社ＣＴＫ,,株式会社,大阪府,箕面市,箕面３丁目９番１４号,,27,220,5620001,,,2022-04-27,清算の結了等,,,2019-06-21,1,,,,,シーティケイ,0
2180,9140001016262,登記記録の閉鎖等,0,2022-05-31,2022-05-27,株式会社昭和装飾,,株式会社,兵庫県,神戸市長田区,山下町４丁目１番４号,,28,106,6530852,,,2022-05-27,清算の結了等,,,2015-10-05,1,,,,,ショウワソウショク,0
2210,9190001025969,登記記録の閉鎖等,0,2022-05-31,2022-05-27,株式会社エービーストアネクスト,,株式会社,三重県,鈴鹿市,庄野羽山４丁目１番地２イオンモール鈴鹿店２階ＡＢｓｔｏｒｅ,,24,207,5130834,,,2022-05-27,清算の結了等,,,2018-11-01,1,,,,,エービーストアネクスト,0
2278,9470002010421,登記記録の閉鎖等,0,2022-05-31,2022-05-30,有限会社大西均総合経営研究所,,有限会社,香川県,高松市,番町２丁目１１番１号,,37,201,7600017,,,2022-05-30,清算の結了等,,,2015-10-05,1,,,,,オオニシヒトシソウゴウケイエイケンキュウショ,0
