sequenceNumber,corporateNumber,process,correct,updateDate,changeDate,name,nameImageId,kind,prefectureName,cityName,streetNumber,addressImageId,prefectureCode,cityCode,postCode,addressOutside,addressOutsideImageId,closeDate,closeCause,successorCorporateNumber,changeCause,assignmentDate,latest,enName,enPrefectureName,enCityName,enAddressOutside,furigana,hihyoji
1,1010001104038,登記記録の閉鎖等,0,2023-06-28,2023-06-14,株式会社インターフィール,,株式会社,東京都,港区,南青山３丁目１番３号,,13,103,1070062,,,2023-06-14,清算の結了等,,,2015-10-05,1,,,,,インターフィール,0
5,1010003022956,登記記録の閉鎖等,0,2023-06-28,2023-06-21,合同会社ＫＳＬＦ９,,合同会社,東京都,千代田区,内幸町２丁目１番６号,,13,101,1000011,,,2023-06-21,清算の結了等,,,2016-01-21,1,,,,,ケイエスエルエフナイン,0
19,1010603008140,登記記録の閉鎖等,0,2023-06-28,2023-06-21,ＫＡＮＳＹＡ合同会社,,合同会社,東京都,江東区,枝川２丁目３番２０号,,13,108,1350051,,,2023-06-21,清算の結了等,,,2020-01-10,1,,,,,カンシャ,0
20,1010701037561,登記記録の閉鎖等,0,2023-06-28,2023-06-23,株式会社エスケー企画,,株式会社,東京都,品川区,東大井３丁目１１番１８大井町ハイツ５０４号室,,13,109,1400011,,,2023-06-23,清算の結了等,,,2019-05-10,1,,,,,エスケーキカク,0
22,1010801002639,登記記録の閉鎖等,0,2023-06-28,2023-06-26,株式会社カナン・コーポレーション,,株式会社,東京都,大田区,南雪谷３丁目７番６号,,13,111,1450066,,,2023-06-26,清算の結了等,,,2015-10-05,1,,,,,カナンコーポレーション,0
27,1010901043203,登記記録の閉鎖等,0,2023-06-28,2023-06-23,幸和電力株式会社,,株式会社,東京都,世田谷区,成城５丁目２５番８号,,13,112,1570066,,,2023-06-23,清算の結了等,,,2018-11-30,1,,,,,コウワデンリョク,0
51,1011402017167,登記記録の閉鎖等,0,2023-06-28,2023-06-26,有限会社インフィックス,,有限会社,東京都,板橋区,徳丸３丁目３７番１７号シントミプラザ徳丸３０２,,13,119,1750083,,,2023-06-26,清算の結了等,,,2015-10-05,1,,,,,,0
54,1011502006128,登記記録の閉鎖等,0,2023-06-28,2023-06-26,山上籐椅子工業有限会社,00055860,有限会社,東京都,北区,中里１丁目８番１０号,,13,117,1140015,,,2023-06-26,清算の結了等,,,2015-10-05,1,,,,,ヤマガミトウイスコウギョウ,0
55,1011601004271,登記記録の閉鎖等,0,2023-06-28,2023-06-23,株式会社中日商会,,株式会社,東京都,練馬区,貫井１丁目２３番１号,,13,120,1760021,,,2023-06-23,清算の結了等,,,2015-10-05,1,,,,,チュウニチショウカイ,0
59,1011701010517,登記記録の閉鎖等,0,2023-06-28,2023-06-26,株式会社サン・フロンティア,,株式会社,東京都,江戸川区,南篠崎町３丁目２８番１号,,13,123,1330065,,,2023-06-26,清算の結了等,,,2015-10-05,1,,,,,,0
77,1021002017376,登記記録の閉鎖等,0,2023-06-28,2023-06-21,青葉物流倉庫有限会社,,有限会社,神奈川県,相模原市中央区,宮下本町１丁目２番１８号,,14,152,2520211,,,2023-06-21,清算の結了等,,,2015-10-05,1,,,,,アオバブツリュウソウコ,0
116,1110002034447,登記記録の閉鎖等,0,2023-06-28,2023-06-21,有限会社ケーエスケー,,有限会社,新潟県,佐渡市,吉岡９９４番地３,,15,224,9520312,,,2023-06-21,清算の結了等,,,2015-10-05,1,,,,,ケーエスケー,0
120,1110005016293,登記記録の閉鎖等,0,2023-06-28,2023-06-20,一般社団法人１２Ｊｒバスケットボールアカデミー,,その他の設立登記法人,新潟県,新潟市江南区,亀田向陽２丁目５番５０号,,15,104,9500121,,,2023-06-20,清算の結了等,,,2018-09-06,1,,,,,トゥエルブジュニアバスケットボールアカデミー,0
136,1130001046755,登記記録の閉鎖等,0,2023-06-28,2023-06-22,株式会社ウイズ,,株式会社,京都府,京都市右京区,花園鷹司町１番地花園団地１４棟２０５号,,26,108,6168031,,,2023-06-22,清算の結了等,,,2015-10-05,1,,,,,ウイズ,0
140,1130003002995,登記記録の閉鎖等,0,2023-06-28,2023-06-21,合同会社コミュニティ野田川,,合同会社,京都府,与謝郡与謝野町,字三河内２８番地,,26,465,6292313,,,2023-06-21,清算の結了等,,,2015-10-05,1,,,,,コミュニティノダガワ,0
152,1140005010789,登記記録の閉鎖等,0,2023-06-28,2023-06-08,特定非営利活動法人Ｃａｌｍ自然保護共存研究グループ,,その他の設立登記法人,兵庫県,朝来市,和田山町白井６９１０,,28,225,6695220,,,2023-06-08,清算の結了等,,,2015-10-05,1,,,,,カルムシゼンホゴキョウゾンケンキュウグループ,0
157,1170002003611,登記記録の閉鎖等,0,2023-06-28,2023-06-26,有限会社三浦エンジニアリング,,有限会社,和歌山県,和歌山市,大谷８０６番地の１４０,,30,201,6408472,,,2023-06-26,清算の結了等,,,2015-10-05,1,,,,,ミウラエンジニアリング,0
182,1240002003760,登記記録の閉鎖等,0,2023-06-28,2023-06-26,有限会社加川鮮魚店,,有限会社,広島県,広島市安佐北区,口田４丁目３番１２号,,34,106,7391734,,,2023-06-26,清算の結了等,,,2023-06-23,1,,,,,カガワセンギョテン,0
186,1240002042998,登記記録の閉鎖等,0,2023-06-28,2023-06-22,有限会社ＹＵＴＡＫＡ,,有限会社,広島県,福山市,日吉台１丁目１６番３１号,,34,207,7210972,,,2023-06-22,合併による解散等,4260001025958,令和５年６月１日岡山県倉敷市真備町川辺２０００番地１１株式会社サネマサ（4260001025958）に合併し解散,2015-10-05,1,,,,,,0
187,1240003005392,登記記録の閉鎖等,0,2023-06-28,2023-06-19,Ｐｒｉｓｔｉｎｅ　Ａｓｓｅｔｓ合同会社,,合同会社,広島県,三次市,十日市東１丁目３番１号１階,,34,209,7280013,,,2023-06-19,清算の結了等,,,2021-12-06,1,,,,,プリスティーンアッセツ,0
207,1370001047408,登記記録の閉鎖等,0,2023-06-28,2023-06-22,株式会社秋茜,,株式会社,宮城県,仙台市泉区,高森３丁目４番地の１９０,,04,105,9813203,,,2023-06-22,清算の結了等,,,2021-08-02,1,,,,,アキアカネ,0
208,1370003004803,登記記録の閉鎖等,0,2023-06-28,2023-06-26,合同会社菜果,,合同会社,宮城県,仙台市宮城野区,岩切字千刈田８７番地の１,,04,102,9830821,,,2023-06-26,清算の結了等,,,2020-05-11,1,,,,,,0
215,1420002016199,登記記録の閉鎖等,0,2023-06-28,2023-06-21,有限会社マグネット,,有限会社,青森県,弘前市,大字元寺町３５番地,,02,202,0368355,,,2023-06-21,清算の結了等,,,2015-10-05,1,,,,,マグネット,0
219,1430001043318,登記記録の閉鎖等,0,2023-06-28,2023-06-19,株式会社タカハシ,,株式会社,北海道,江別市,大麻北町５１９番地の３,,01,217,0690861,,,2023-06-19,清算の結了等,,,2015-10-05,1,,,,,タカハシ,0
242,2010003026048,登記記録の閉鎖等,0,2023-06-28,2023-06-21,合同会社ＭＬ２,,合同会社,東京都,中央区,日本橋１丁目４番１号日本橋一丁目ビルディング,,13,102,1030027,,,2023-06-21,清算の結了等,,,2017-09-13,1,,,,,エムエルツー,0
248,2010405018931,登記記録の閉鎖等,0,2023-06-28,2023-06-14,一般社団法人Ｌｏｎｇ　Ｂｅａｃｈ,,その他の設立登記法人,東京都,港区,虎ノ門５丁目１番４号,,13,103,1050001,,,2023-06-14,清算の結了等,,,2020-07-27,1,,,,,ロングビーチ,0
250,2010601059696,登記記録の閉鎖等,0,2023-06-28,2023-06-22,山大株式会社,,株式会社,東京都,墨田区,押上１丁目１５番２－３０３号,,13,107,1310045,,,2023-06-22,清算の結了等,,,2021-07-27,1,,,,,ヤマダイ,0
256,2010801007273,登記記録の閉鎖等,0,2023-06-28,2023-06-26,株式会社長栄工務店,,株式会社,東京都,大田区,西嶺町１５番１６号,,13,111,1450075,,,2023-06-26,清算の結了等,,,2015-10-05,1,,,,,チョウエイコウムテン,0
258,2010801026505,登記記録の閉鎖等,0,2023-06-28,2023-06-14,２０１６．Ｓ．Ｐ．Ａ．ｆｅｌｉｃｉｔａ株式会社,,株式会社,東京都,大田区,千鳥３丁目１５番２１号,,13,111,1460083,,,2023-06-14,清算の結了等,,,2016-03-04,1,,,,,ニセンジュウロクエスピーエーフェリチタ,0
277,2011601011028,登記記録の閉鎖等,0,2023-06-28,2023-06-23,株式会社グッド,,株式会社,東京都,練馬区,谷原１丁目１６番５号,,13,120,1770032,,,2023-06-23,清算の結了等,,,2015-10-05,1,,,,,グッド,0
281,2013103000707,登記記録の閉鎖等,0,2023-06-28,2023-06-26,合同会社誠和工業,,合同会社,東京都,福生市,大字熊川１６８９番地４２,,13,218,1970003,,,2023-06-26,清算の結了等,,,2016-07-22,1,,,,,,0
292,2020003019471,登記記録の閉鎖等,0,2023-06-28,2023-06-21,ハイテック・ネオパワー合同会社,,合同会社,神奈川県,横浜市中区,元浜町３丁目２１番２号,,14,104,2310004,,,2023-06-21,清算の結了等,,,2021-03-24,1,,,,,ハイテックネオパワー,0
296,2021001068634,登記記録の閉鎖等,0,2023-06-28,2023-06-22,株式会社ＡＳＲ７１,,株式会社,神奈川県,横須賀市,安浦町３丁目５番地,,14,201,2380012,,,2023-06-22,清算の結了等,,,2019-11-18,1,,,,,エーエスアールセブンティワン,0
319,2040001049568,登記記録の閉鎖等,0,2023-06-28,2023-06-09,株式会社アトリエサイクル,,株式会社,千葉県,八街市,朝日４４１－１,,12,230,2891101,,,2023-06-09,清算の結了等,,,2015-10-05,1,,,,,アトリエサイクル,0
324,2050001024883,登記記録の閉鎖等,0,2023-06-28,2023-06-23,株式会社アイエヌシー,,株式会社,茨城県,日立市,大みか町３丁目１６番２３－３０７号,,08,202,3191221,,,2023-06-23,清算の結了等,,,2015-10-05,1,,,,,アイエヌシー,0
344,2080402015529,登記記録の閉鎖等,0,2023-06-28,2023-06-26,プラン・エス有限会社,,有限会社,静岡県,浜松市浜北区,竜南３７３番地,,22,136,4340024,,,2023-06-26,清算の結了等,,,2015-10-05,1,,,,,プランエス,0
349,2100001023715,登記記録の閉鎖等,0,2023-06-28,2023-06-23,株式会社グランスカイ,,株式会社,長野県,長野市,大字高田２５１１番地７,,20,201,3810034,,,2023-06-23,清算の結了等,,,2015-10-05,1,,,,,グランスカイ,0
362,2120001236414,登記記録の閉鎖等,0,2023-06-28,2023-06-26,株式会社発酵発芽研究所,,株式会社,大阪府,大阪市東住吉区,杭全３丁目３番２１号,,27,121,5460002,,,2023-06-26,清算の結了等,,,2021-04-01,1,,,,,ハッコウハツガケンキュウジョ,0
366,2120003022944,登記記録の閉鎖等,0,2023-06-28,2023-06-23,リーガルフロンティア合同会社,,合同会社,大阪府,大阪市北区,梅田１丁目１番３号大阪駅前第３ビル２９階１－１－１号,,27,127,5300001,,,2023-06-23,清算の結了等,,,2022-11-28,1,,,,,リーガルフロンティア,0
387,2160005010134,登記記録の閉鎖等,0,2023-06-28,2023-06-23,特定非営利活動法人プロボノ滋賀,,その他の設立登記法人,滋賀県,栗東市,霊仙寺１丁目１０番２５号,,25,208,5203035,,,2023-06-23,清算の結了等,,,2015-10-05,1,,,,,プロボノシガ,0
393,2180001106883,登記記録の閉鎖等,0,2023-06-28,2023-06-14,株式会社ジェイプロジェクト,,株式会社,愛知県,名古屋市中区,栄３丁目４番２８号,,23,106,4600008,,,2023-06-14,合併による解散等,8180001050135,令和５年６月１日名古屋市中区栄三丁目４番２８号株式会社ジェイグループホールディングス（8180001050135）に合併し解散,2015-10-05,1,,,,,ジェイプロジェクト,0
404,2180305008982,登記記録の閉鎖等,0,2023-06-28,2023-06-19,一般社団法人ソーシャルサポート東海,,その他の設立登記法人,愛知県,豊橋市,多米西町１丁目４番地２６,,23,201,4400026,,,2023-06-19,清算の結了等,,,2019-11-22,1,,,,,ソーシャルサポートトウカイ,0
406,2240001049498,登記記録の閉鎖等,0,2023-06-28,2023-06-26,新田興産株式会社,,株式会社,広島県,安芸郡府中町,浜田４丁目６番９－３０６号,,34,302,7350013,,,2023-06-26,清算の結了等,,,2016-06-07,1,,,,,ニッタコウサン,0
442,2370001016989,登記記録の閉鎖等,0,2023-06-28,2023-06-22,株式会社タクミ,,株式会社,宮城県,仙台市青葉区,木町通１丁目７番１０号,,04,101,9800801,,,2023-06-22,清算の結了等,,,2015-10-05,1,,,,,タクミ,0
508,3010801020944,登記記録の閉鎖等,0,2023-06-28,2023-06-26,Ｒｅｌｉａｎｃｅｓ株式会社,,株式会社,東京都,大田区,多摩川１丁目２１番４号多摩川コーポ３０１,,13,111,1460095,,,2023-06-26,清算の結了等,,,2015-10-05,1,,,,,リライアンス,0
523,3011003013778,登記記録の閉鎖等,0,2023-06-28,2023-06-19,合同会社ＪＰＹＰＴ,,合同会社,愛知県,豊橋市,広小路１丁目１８番地ユメックスビル５階トライアルビレッジ内,,23,201,4400881,,,2023-06-19,清算の結了等,,,2021-11-24,1,,,,,ジェーピーワイポインツ,0
525,3011101025675,登記記録の閉鎖等,0,2023-06-28,2023-06-13,株式会社ビジネスエッグ,,株式会社,東京都,港区,浜松町２丁目４番１号,,13,103,1050013,,,2023-06-13,清算の結了等,,,2015-10-05,1,,,,,ビジネスエッグ,0
545,3020001009465,登記記録の閉鎖等,0,2023-06-28,2023-06-22,浜ベストフーズ株式会社,,株式会社,神奈川県,横浜市神奈川区,橋本町１丁目１番地,,14,102,2210053,,,2023-06-22,清算の結了等,,,2015-10-05,1,,,,,ハマベストフーズ,0
553,3021001031723,登記記録の閉鎖等,0,2023-06-28,2023-06-12,株式会社グレイヴ,,株式会社,千葉県,柏市,柏３丁目４番１２－５０３号,,12,217,2770005,,,2023-06-12,清算の結了等,,,2015-10-05,1,,,,,グレイヴ,0
566,3030001134989,登記記録の閉鎖等,0,2023-06-28,2023-06-13,株式会社ＣＴＳ,,株式会社,埼玉県,さいたま市大宮区,桜木町１丁目２６６－３番地シンワＫＩビル２Ｆ,,11,103,3300854,,,2023-06-13,清算の結了等,,,2020-02-06,1,,,,,シイティエス,0
571,3040001006262,登記記録の閉鎖等,0,2023-06-28,2023-06-13,株式会社パルス・エンタープライズ,,株式会社,千葉県,千葉市若葉区,下田町５４１番地,,12,104,2650076,,,2023-06-13,清算の結了等,,,2015-10-05,1,,,,,パルスエンタープライズ,0
588,3070001011953,登記記録の閉鎖等,0,2023-06-28,2023-06-26,株式会社ミヤザワ観光バス,,株式会社,群馬県,富岡市,富岡３２３番地１８,,10,210,3702316,,,2023-06-26,清算の結了等,,,2015-10-05,1,,,,,ミヤザワカンコウバス,0
606,3120001180520,登記記録の閉鎖等,0,2023-06-28,2023-06-21,株式会社ジャパンアセットマネジメント,,株式会社,大阪府,大阪市生野区,勝山北３丁目１２番１１号,,27,116,5440033,,,2023-06-21,清算の結了等,,,2015-10-05,1,,,,,ジャパンアセットマネジメント,0
625,3140001036043,登記記録の閉鎖等,0,2023-06-28,2023-06-26,アグリトレーディング株式会社,,株式会社,兵庫県,三木市,大塚１丁目７番９号,,28,215,6730413,,,2023-06-26,清算の結了等,,,2015-10-05,1,,,,,アグリトレーディング,0
626,3140001055687,登記記録の閉鎖等,0,2023-06-28,2023-06-23,株式会社たいよう,,株式会社,兵庫県,尼崎市,塚口町１丁目２１番６号塚口エスティビル３階,,28,202,6610002,,,2023-06-23,清算の結了等,,,2015-10-05,1,,,,,タイヨウ,0
643,3180002058438,登記記録の閉鎖等,0,2023-06-28,2023-06-23,有限会社Ｍ．Ｆ．Ｃ,,有限会社,愛知県,名古屋市中村区,草薙町２丁目８０番地,,23,105,4530064,,,2023-06-23,清算の結了等,,,2015-10-05,1,,,,,エムエフシー,0
654,3210005006794,登記記録の閉鎖等,0,2023-06-28,2023-06-22,若狭イベント事業協同組合,,その他の設立登記法人,福井県,敦賀市,古田刈５３号１番地の４,,18,202,9140045,,,2023-06-22,清算の結了等,,,2015-10-05,1,,,,,ワカサイベント,0
663,3250005008408,登記記録の閉鎖等,0,2023-06-28,2023-06-15,一般社団法人未来人財開発機構,,その他の設立登記法人,山口県,周南市,大字徳山１０１５番地の７２,,35,215,7450851,,,2023-06-15,清算の結了等,,,2018-04-06,1,,,,,ミライジンザイカイハツキコウ,0
666,3270003001305,登記記録の閉鎖等,0,2023-06-28,2023-06-20,Ｄふりーけあ合同会社,,合同会社,鳥取県,八頭郡若桜町,大字若桜３７２,,31,325,6800701,,,2023-06-20,清算の結了等,,,2021-05-13,1,,,,,ディーフリーケア,0
710,3460302003206,登記記録の閉鎖等,0,2023-06-28,2023-06-26,有限会社スーパーなかの,,有限会社,北海道,紋別郡遠軽町,生田原７２１番地,,01,555,0990701,,,2023-06-26,清算の結了等,,,2015-10-05,1,,,,,スーパーナカノ,0
732,4010405018863,登記記録の閉鎖等,0,2023-06-28,2023-06-15,一般社団法人ＹＭＲ,,その他の設立登記法人,東京都,港区,南青山２丁目２番１５号ウィン青山１２１４号,,13,103,1070062,,,2023-06-15,清算の結了等,,,2020-06-30,1,,,,,ワイエムアール,0
738,4010801027906,登記記録の閉鎖等,0,2023-06-28,2023-06-14,株式会社ココドル,,株式会社,東京都,渋谷区,渋谷１丁目２番５号,,13,113,1500002,,,2023-06-14,合併による解散等,6011001150653,令和５年６月１日東京都渋谷区渋谷一丁目２番５号カソーク株式会社（6011001150653）に合併し解散,2017-06-23,1,,,,,ココドル,0
744,4011001068939,登記記録の閉鎖等,0,2023-06-28,2023-06-21,株式会社ＴＫＧ,,株式会社,東京都,豊島区,東池袋１丁目１７番３号ウェルシャン池袋,,13,116,1700013,,,2023-06-21,清算の結了等,,,2015-10-05,1,,,,,ティーケージー,0
747,4011001111401,登記記録の閉鎖等,0,2023-06-28,2023-06-26,株式会社６９,,株式会社,東京都,渋谷区,広尾５丁目４番１６号ＧＭＥＳ広尾クロス３Ｆ,,13,113,1500012,,,2023-06-26,清算の結了等,,,2016-06-14,1,,,,,ロック,0
751,4011002035277,登記記録の閉鎖等,0,2023-06-28,2023-06-26,アイピクシー有限会社,,有限会社,東京都,渋谷区,道玄坂１丁目１５番３号プリメーラ道玄坂９０８,,13,113,1500043,,,2023-06-26,清算の結了等,,,2015-10-05,1,,,,,,0
758,4011102012341,登記記録の閉鎖等,0,2023-06-28,2023-06-27,三木興産有限会社,,有限会社,東京都,新宿区,中町８番地,,13,104,1620835,,,2023-06-27,清算の結了等,,,2015-10-05,1,,,,,ミキコウサン,0
769,4011701020364,登記記録の閉鎖等,0,2023-06-28,2023-06-26,株式会社サン・ライフ,,株式会社,東京都,江戸川区,南篠崎町３丁目２８番２号,,13,123,1330065,,,2023-06-26,清算の結了等,,,2016-11-15,1,,,,,,0
771,4011802002848,登記記録の閉鎖等,0,2023-06-28,2023-06-23,有限会社後藤産業,,有限会社,東京都,葛飾区,東金町８丁目１３番７号,,13,122,1250041,,,2023-06-23,清算の結了等,,,2015-10-05,1,,,,,ゴトウサンギョウ,0
820,4040001112811,登記記録の閉鎖等,0,2023-06-28,2023-06-09,株式会社ラシク,,株式会社,千葉県,我孫子市,若松１７６番地の３,,12,222,2701147,,,2023-06-09,清算の結了等,,,2020-03-10,1,,,,,ラシク,0
833,4070002027948,登記記録の閉鎖等,0,2023-06-28,2023-06-23,有限会社荒井電気商会,,有限会社,群馬県,邑楽郡大泉町,中央３丁目１０番１号,,10,524,3700516,,,2023-06-23,清算の結了等,,,2015-10-05,1,,,,,アライデンキショウカイ,0
839,4080101021909,登記記録の閉鎖等,0,2023-06-28,2023-06-23,デプスデザイン株式会社,,株式会社,静岡県,富士市,青島町６４番地,,22,210,4170047,,,2023-06-23,清算の結了等,,,2020-07-17,1,,,,,デプスデザイン,0
853,4120001063170,登記記録の閉鎖等,0,2023-06-28,2023-06-26,株式会社グローバルシステム,,株式会社,大阪府,大阪市北区,梅田１丁目１１番４－１００号大阪駅前第４ビル１階,,27,127,5300001,,,2023-06-26,清算の結了等,,,2015-10-05,1,,,,,グローバルシステム,0
882,4140001027058,登記記録の閉鎖等,0,2023-06-28,2023-06-22,ＫｉＳＣＯ株式会社,,株式会社,兵庫県,神戸市中央区,港島南町５丁目３番６,,28,110,6500047,,,2023-06-22,清算の結了等,,,2015-10-05,1,,,,,キスコ,0
901,4180001148908,登記記録の閉鎖等,0,2023-06-28,2023-06-23,株式会社マスターズ７５８,,株式会社,愛知県,名古屋市千種区,春岡１丁目６番１３号土屋ビル３０２号,,23,101,4640848,,,2023-06-23,清算の結了等,,,2021-11-29,1,,,,,マスターズナゴヤ,0
903,4180002001025,登記記録の閉鎖等,0,2023-06-28,2023-06-26,有限会社千代田硝子,,有限会社,愛知県,名古屋市守山区,小幡千代田１２番１５号,,23,113,4630053,,,2023-06-26,清算の結了等,,,2015-10-05,1,,,,,チヨダガラス,0
982,5010003022928,登記記録の閉鎖等,0,2023-06-28,2023-06-21,合同会社ＭＬ１,,合同会社,東京都,中央区,日本橋１丁目４番１号日本橋一丁目ビルディング,,13,102,1030027,,,2023-06-21,清算の結了等,,,2016-01-18,1,,,,,エムエルワン,0
987,5010401115845,登記記録の閉鎖等,0,2023-06-28,2023-06-14,株式会社ＭＫＹ,,株式会社,東京都,港区,南青山６丁目７番７号ファーロ南青山４０１,,13,103,1070062,,,2023-06-14,清算の結了等,,,2015-10-05,1,,,,,エムケーワイ,0
993,5010405018929,登記記録の閉鎖等,0,2023-06-28,2023-06-14,一般社団法人Ａｃａｐｕｌｃｏ,,その他の設立登記法人,東京都,港区,虎ノ門５丁目１番４号,,13,103,1050001,,,2023-06-14,清算の結了等,,,2020-07-29,1,,,,,アカプルコ,0
1025,5011801037092,登記記録の閉鎖等,0,2023-06-28,2023-06-20,株式会社Ｂ－ＣＬＥＡＲ　ＰＬＵＳ,,株式会社,東京都,足立区,保木間２丁目５番１７号,,13,121,1210064,,,2023-06-20,合併による解散等,6030001145513,令和５年５月１９日千葉県松戸市二十世紀が丘萩町２７６番地株式会社ＭＴＤ（6030001145513）に合併し解散,2020-01-07,1,,,,,ビークリアプラス,0
1036,5020001081272,登記記録の閉鎖等,0,2023-06-28,2023-06-21,キムチ本舗株式会社,,株式会社,神奈川県,川崎市幸区,幸町４丁目１８スクエアフォー１８－１階,,14,132,2120011,,,2023-06-21,清算の結了等,,,2015-10-05,1,,,,,,0
1039,5020002061769,登記記録の閉鎖等,0,2023-06-28,2023-06-21,有限会社オオダテ,,有限会社,神奈川県,横浜市中区,日本大通７番地,,14,104,2310021,,,2023-06-21,清算の結了等,,,2015-10-05,1,,,,,オオダテ,0
1042,5020005013296,登記記録の閉鎖等,0,2023-06-28,2023-06-21,特定非営利活動法人いと,,その他の設立登記法人,神奈川県,横浜市神奈川区,神大寺１丁目３６番１２－１号,,14,102,2210801,,,2023-06-21,清算の結了等,,,2017-09-11,1,,,,,イト,0
1050,5030001023760,登記記録の閉鎖等,0,2023-06-28,2023-06-12,株式会社エナジック,,株式会社,埼玉県,所沢市,上新井５丁目８１番地の１,,11,208,3591142,,,2023-06-12,清算の結了等,,,2015-10-05,1,,,,,エナジック,0
1070,5060002018550,登記記録の閉鎖等,0,2023-06-28,2023-06-20,有限会社岡田自動車鈑金,,有限会社,栃木県,芳賀郡芳賀町,芳賀台５８番地,,09,345,3213325,,,2023-06-20,清算の結了等,,,2015-10-05,1,,,,,オカダジドウシャバンキン,0
1073,5070002001902,登記記録の閉鎖等,0,2023-06-28,2023-06-26,有限会社群和工業所,,有限会社,群馬県,前橋市,元総社町１３５１番地の３,,10,201,3710846,,,2023-06-26,清算の結了等,,,2015-10-05,1,,,,,グンワコウギョウショ,0
1075,5070002002999,登記記録の閉鎖等,0,2023-06-28,2023-06-26,有限会社住田屋本店,,有限会社,群馬県,前橋市,若宮町２丁目１２番２３号,,10,201,3710032,,,2023-06-26,清算の結了等,,,2015-10-05,1,,,,,スミダヤホンテン,0
1084,5110002015419,登記記録の閉鎖等,0,2023-06-28,2023-06-21,有限会社はまなす代行,,有限会社,新潟県,北蒲原郡聖籠町,大字蓮野５３５９番地,00070803,15,307,9570124,,,2023-06-21,清算の結了等,,,2015-10-05,1,,,,,ハマナスダイコウ,0
1117,5140001114210,登記記録の閉鎖等,0,2023-06-28,2023-06-26,株式会社エーイージーコーポレーション,,株式会社,兵庫県,神戸市灘区,水道筋６丁目３番４－１０４号,,28,102,6570831,,,2023-06-26,清算の結了等,,,2019-07-04,1,,,,,エーイージーコーポレーション,0
1120,5140005021287,登記記録の閉鎖等,0,2023-06-28,2023-06-14,特定非営利活動法人スポーツコミュニティ宝塚,,その他の設立登記法人,兵庫県,宝塚市,売布きよしガ丘７番８号,,28,214,6650855,,,2023-06-14,清算の結了等,,,2015-10-05,1,,,,,スポーツコミュニティタカラヅカ,0
1127,5180001131912,登記記録の閉鎖等,0,2023-06-28,2023-06-21,株式会社友喜,,株式会社,愛知県,名古屋市瑞穂区,宝田町１丁目６番地,,23,108,4670866,,,2023-06-21,清算の結了等,,,2018-04-13,1,,,,,ユウキ,0
1133,5180301024782,登記記録の閉鎖等,0,2023-06-28,2023-06-19,株式会社とよた山里ホールディングス,,株式会社,愛知県,豊田市,足助町宮ノ後２９番地１,,23,211,4442424,,,2023-06-19,清算の結了等,,,2015-10-05,1,,,,,トヨタヤマサトホールディングス,0
1135,5180303004849,登記記録の閉鎖等,0,2023-06-28,2023-06-16,合同会社パーラーでっていう,,合同会社,愛知県,豊川市,宿町金山１３２番地,,23,207,4410101,,,2023-06-16,清算の結了等,,,2021-01-04,1,,,,,パーラーデッテイウ,0
1141,5200002016903,登記記録の閉鎖等,0,2023-06-28,2023-06-23,有限会社オートライフワタナベ,,有限会社,岐阜県,可児市,下切５３３番地の１,,21,214,5090245,,,2023-06-23,清算の結了等,,,2015-10-05,1,,,,,オートライフワタナベ,0
1147,5240001021660,登記記録の閉鎖等,0,2023-06-28,2023-06-22,トクナガ運送株式会社,,株式会社,広島県,広島市西区,高須３丁目１０番１０号,,34,104,7330871,,,2023-06-22,清算の結了等,,,2015-10-05,1,,,,,トクナガウンソウ,0
1151,5250001016651,登記記録の閉鎖等,0,2023-06-28,2023-06-19,新樹フィールド株式会社,,株式会社,山口県,宇部市,大字西岐波４１１８番地２３,,35,202,7550151,,,2023-06-19,清算の結了等,,,2017-06-16,1,,,,,シンジュフィールド,0
1157,5280003001228,登記記録の閉鎖等,0,2023-06-28,2023-06-22,株式会社Ｈプラント,,株式会社,島根県,松江市,雑賀町２５０田中ビルＩＩ２階,00118394,32,201,6900056,,,2023-06-22,清算の結了等,,,2018-06-12,1,,,,,エイチプラント,0
1182,5370001015550,登記記録の閉鎖等,0,2023-06-28,2023-06-23,井村機械工業株式会社,,株式会社,宮城県,仙台市青葉区,木町通１丁目１番３２号,,04,101,9800801,,,2023-06-23,清算の結了等,,,2015-10-05,1,,,,,イムラキカイコウギョウ,0
1183,5370001020229,登記記録の閉鎖等,0,2023-06-28,2023-06-26,株式会社ＲｕｍｏｒＤｅｓｉｇｎ,,株式会社,宮城県,仙台市青葉区,鷺ケ森１丁目６－２５,,04,101,9810922,,,2023-06-26,清算の結了等,,,2015-10-05,1,,,,,ルーモアデザイン,0
1224,6010405020124,登記記録の閉鎖等,0,2023-06-28,2023-06-14,一般社団法人ＳＡ　ＰＲＯＰＥＲＴＹ５,,その他の設立登記法人,東京都,港区,虎ノ門５丁目１番４号,,13,103,1050001,,,2023-06-14,清算の結了等,,,2021-08-16,1,,,,,エスエープロパティファイブ,0
1225,6010501025266,登記記録の閉鎖等,0,2023-06-28,2023-06-26,株式会社菊理ＭＣＤ,,株式会社,東京都,台東区,東上野６丁目５番１１号,,13,106,1100015,,,2023-06-26,清算の結了等,,,2015-10-05,1,,,,,,0
1228,6010601037789,登記記録の閉鎖等,0,2023-06-28,2023-06-23,株式会社東亜マテリアル,,株式会社,東京都,江東区,平野２丁目８番１０－４０３号,,13,108,1350023,,,2023-06-23,清算の結了等,,,2015-10-05,1,,,,,トウアマテリアル,0
1268,6020002031085,登記記録の閉鎖等,0,2023-06-28,2023-06-22,有限会社馬場設計事務所,,有限会社,神奈川県,横浜市港南区,芹が谷５丁目４７番地１５号,,14,111,2330006,,,2023-06-22,清算の結了等,,,2015-10-05,1,,,,,ババセッケイジムショ,0
1281,6040001017315,登記記録の閉鎖等,0,2023-06-28,2023-06-08,壽商事株式会社,,株式会社,千葉県,船橋市,習志野４丁目２番２号,,12,204,2740071,,,2023-06-08,合併による解散等,7040001021687,令和５年５月１６日千葉県船橋市習志野四丁目２番２号株式会社テルティ（7040001021687）に合併し解散,2015-10-05,1,,,,,コトブキショウジ,0
1324,6120002011597,登記記録の閉鎖等,0,2023-06-28,2023-06-23,出戸共同ビル有限会社,,有限会社,大阪府,大阪市平野区,長吉長原西１丁目１番１０号,,27,126,5470015,,,2023-06-23,清算の結了等,,,2015-10-05,1,,,,,デトキョウドウビル,0
1347,6180001035575,登記記録の閉鎖等,0,2023-06-28,2023-06-23,熊田株式会社,,株式会社,愛知県,名古屋市中区,栄３丁目１２番３３号,,23,106,4600008,,,2023-06-23,清算の結了等,,,2015-10-05,1,,,,,クマダ,0
1348,6180001056357,登記記録の閉鎖等,0,2023-06-28,2023-06-14,株式会社ジェイブライダル,,株式会社,愛知県,名古屋市西区,牛島町６番１号名古屋ルーセントタワー２Ｆ,,23,104,4510046,,,2023-06-14,合併による解散等,8180001050135,令和５年６月１日名古屋市中区栄三丁目４番２８号株式会社ジェイグループホールディングス（8180001050135）に合併し解散,2015-10-05,1,,,,,ジェイブライダル,0
1360,6180301009361,登記記録の閉鎖等,0,2023-06-28,2023-06-19,株式会社堀田金属工業,,株式会社,愛知県,豊橋市,吉川町５１番地,,23,201,4418002,,,2023-06-19,清算の結了等,,,2015-10-05,1,,,,,ホッタキンゾクコウギョウ,0
1365,6240001029109,登記記録の閉鎖等,0,2023-06-28,2023-06-26,株式会社三栄コーポレーション,,株式会社,広島県,東広島市,八本松町原８５８８番地１,,34,212,7390151,,,2023-06-26,清算の結了等,,,2015-10-05,1,,,,,,0
1367,6240002011544,登記記録の閉鎖等,0,2023-06-28,2023-06-26,有限会社トラベルアイ,,有限会社,広島県,広島市中区,住吉町１５番３－５０１号,,34,101,7300813,,,2023-06-26,清算の結了等,,,2015-10-05,1,,,,,トラベルアイ,0
1370,6260002031111,登記記録の閉鎖等,0,2023-06-28,2023-06-20,有限会社西日本テクノ,,有限会社,岡山県,和気郡和気町,大中山１３２５番地の１１,,33,346,7090432,,,2023-06-20,清算の結了等,,,2015-10-05,1,,,,,ニシニホンテクノ,0
1395,6430002056495,登記記録の閉鎖等,0,2023-06-28,2023-06-14,有限会社平野電機商会,,有限会社,北海道,古平郡古平町,大字港町３１６番地,,01,406,0460113,,,2023-06-14,清算の結了等,,,2015-10-05,1,,,,,ヒラノデンキショウカイ,0
1397,6460002003643,登記記録の閉鎖等,0,2023-06-28,2023-06-26,有限会社オーエーシステムジンベイ,,有限会社,北海道,釧路郡釧路町,遠矢南１丁目１１番地,,01,661,0882156,,,2023-06-26,清算の結了等,,,2015-10-05,1,,,,,オーエーシステムジンベイ,0
1401,6470001012917,登記記録の閉鎖等,0,2023-06-28,2023-06-21,しんしん企畫株式会社,,株式会社,香川県,高松市,香南町横井２３５番地９,,37,201,7611404,,,2023-06-21,清算の結了等,,,2015-10-05,1,,,,,,0
1412,7010001199709,登記記録の閉鎖等,0,2023-06-28,2023-06-21,株式会社日本営農開発機構,,株式会社,東京都,千代田区,神田神保町２丁目３６番地１,,13,101,1010051,,,2023-06-21,清算の結了等,,,2019-04-04,1,,,,,ニホンエイノウカイハツキコウ,0
1441,7011201002703,登記記録の閉鎖等,0,2023-06-28,2023-06-26,株式会社鈴工房,,株式会社,東京都,中野区,新井１丁目３６番５号,,13,114,1650026,,,2023-06-26,清算の結了等,,,2015-10-05,1,,,,,スズコウボウ,0
1453,7012801000732,登記記録の閉鎖等,0,2023-06-28,2023-06-22,株式会社杉原電子,,株式会社,東京都,立川市,羽衣町２丁目１番１６号,,13,202,1900021,,,2023-06-22,清算の結了等,,,2015-10-05,1,,,,,スギハラデンシ,0
1457,7020001122990,登記記録の閉鎖等,0,2023-06-28,2023-06-19,想映のまち株式会社,,株式会社,神奈川県,横浜市中区,不老町１丁目２番地１号,,14,104,2310032,,,2023-06-19,清算の結了等,,,2017-09-12,1,,,,,ソウエイノマチ,0
1491,7050001039778,登記記録の閉鎖等,0,2023-06-28,2023-06-23,株式会社ニオク,,株式会社,茨城県,つくばみらい市,小絹７８２番３号,,08,235,3002445,,,2023-06-23,清算の結了等,,,2015-10-05,1,,,,,ニオク,0
1506,7080102006880,登記記録の閉鎖等,0,2023-06-28,2023-06-23,有限会社小林住宅機器センター,,有限会社,静岡県,御殿場市,萩原７３１番地,,22,215,4120042,,,2023-06-23,清算の結了等,,,2015-10-05,1,,,,,,0
1514,7110005013839,登記記録の閉鎖等,0,2023-06-28,2023-06-19,農事組合法人八色ファーム,,その他の設立登記法人,新潟県,南魚沼市,浦佐６３６８番地,,15,226,9497302,,,2023-06-19,清算の結了等,,,2015-10-05,1,,,,,ヤイロファーム,0
1527,7120002011596,登記記録の閉鎖等,0,2023-06-28,2023-06-23,出戸再開発ビル有限会社,,有限会社,大阪府,大阪市平野区,長吉長原西１丁目１番１０号,,27,126,5470015,,,2023-06-23,清算の結了等,,,2015-10-05,1,,,,,デトサイカイハツビル,0
1530,7120901040662,登記記録の閉鎖等,0,2023-06-28,2023-06-21,エルズロジパートナー株式会社,,株式会社,大阪府,茨木市,西中条町２番３０号,,27,211,5670887,,,2023-06-21,清算の結了等,,,2018-11-28,1,,,,,エルズロジパートナー,0
1545,7180001009371,登記記録の閉鎖等,0,2023-06-28,2023-06-26,株式会社松村商店,,株式会社,愛知県,名古屋市昭和区,折戸町２丁目３４番地,,23,107,4660858,,,2023-06-26,清算の結了等,,,2015-10-05,1,,,,,マツムラショウテン,0
1547,7180001114816,登記記録の閉鎖等,0,2023-06-28,2023-06-21,株式会社セブンサミッツ,,株式会社,愛知県,一宮市,浅野字野口１０８番地５,,23,203,4910871,,,2023-06-21,清算の結了等,,,2015-10-05,1,,,,,セブンサミッツ,0
1585,7370001023304,登記記録の閉鎖等,0,2023-06-28,2023-06-21,株式会社Ｇ－ＮＥＴ,,株式会社,宮城県,仙台市宮城野区,岩切１丁目９番１０号,,04,102,9830821,,,2023-06-21,清算の結了等,,,2015-10-05,1,,,,,ジーネット,0
1595,7400001007146,登記記録の閉鎖等,0,2023-06-28,2023-06-16,株式会社キャトル宮古,,株式会社,岩手県,宮古市,栄町３番３５号,,03,202,0270076,,,2023-06-16,清算の結了等,,,2015-10-05,1,,,,,,0
1622,8010401141748,登記記録の閉鎖等,0,2023-06-28,2023-06-14,Ｒｅｄｅｘ　Ｈｏｌｄｉｎｇｓ株式会社,,株式会社,東京都,港区,虎ノ門５丁目３番２０号仙石山アネックス２１０,,13,103,1050001,,,2023-06-14,清算の結了等,,,2018-10-30,1,,,,,レデックスホールディングス,0
1628,8010405019354,登記記録の閉鎖等,0,2023-06-28,2023-06-14,一般社団法人ＳＡ　ＰＲＯＰＥＲＴＹ　ＮＡＲＩＭＡＳＵ,,その他の設立登記法人,東京都,港区,虎ノ門５丁目１番４号,,13,103,1050001,,,2023-06-14,清算の結了等,,,2020-12-22,1,,,,,エスエープロパティナリマス,0
1632,8010501036807,登記記録の閉鎖等,0,2023-06-28,2023-06-12,株式会社ＬＩＮ　ｓｔｙｌｅ,,株式会社,埼玉県,川口市,並木２丁目４１番９号九龍ビル２０５号,,11,203,3320034,,,2023-06-12,清算の結了等,,,2015-10-05,1,,,,,リンスタイル,0
1639,8010805002934,登記記録の閉鎖等,0,2023-06-28,2023-06-26,一般社団法人ＯＦＦＩＣＥ　Ｋ,,その他の設立登記法人,東京都,大田区,中馬込２丁目１６番１号,,13,111,1430027,,,2023-06-26,清算の結了等,,,2022-04-07,1,,,,,オフィスケイ,0
1643,8011001055660,登記記録の閉鎖等,0,2023-06-28,2023-06-26,株式会社ｍｕｓｕｈｉ,,株式会社,東京都,渋谷区,代々木５丁目３８番８号今井ビル１階,,13,113,1510053,,,2023-06-26,清算の結了等,,,2015-10-05,1,,,,,,0
1644,8011001059331,登記記録の閉鎖等,0,2023-06-28,2023-06-26,ゼロアンドインフィニティ株式会社,,株式会社,東京都,渋谷区,道玄坂１丁目１５番３号プリメーラ道玄坂９０８,,13,113,1500043,,,2023-06-26,清算の結了等,,,2015-10-05,1,,,,,,0
1655,8011101045355,登記記録の閉鎖等,0,2023-06-28,2023-06-12,株式会社サイドサイン,,株式会社,千葉県,流山市,前ケ崎２番地６４,,12,220,2700144,,,2023-06-12,清算の結了等,,,2015-10-05,1,,,,,サイドサイン,0
1673,8011501010306,登記記録の閉鎖等,0,2023-06-28,2023-06-26,東京グラスワークサービス株式会社,,株式会社,東京都,北区,田端５丁目７番８－１０１号,,13,117,1140014,,,2023-06-26,清算の結了等,,,2015-10-05,1,,,,,,0
1731,8050001012461,登記記録の閉鎖等,0,2023-06-28,2023-06-23,株式会社タック,,株式会社,茨城県,土浦市,荒川沖東２丁目４－１,,08,203,3000871,,,2023-06-23,清算の結了等,,,2015-10-05,1,,,,,タック,0
1735,8050002001744,登記記録の閉鎖等,0,2023-06-28,2023-06-21,有限会社シンワ,,有限会社,茨城県,水戸市,元吉田町１３０７番地４,,08,201,3100836,,,2023-06-21,清算の結了等,,,2015-10-05,1,,,,,シンワ,0
1746,8080002015915,登記記録の閉鎖等,0,2023-06-28,2023-06-23,有限会社瑞興,,有限会社,静岡県,焼津市,柳新屋７１６番地の８,,22,212,4250074,,,2023-06-23,清算の結了等,,,2015-10-05,1,,,,,ズイコウ,0
1761,8110005016667,登記記録の閉鎖等,0,2023-06-28,2023-06-20,一般社団法人きずな縁,,その他の設立登記法人,新潟県,新発田市,御幸町４丁目４番４号,,15,206,9570057,,,2023-06-20,清算の結了等,,,2021-06-04,1,,,,,キズナエン,0
1763,8120001053036,登記記録の閉鎖等,0,2023-06-28,2023-06-26,株式会社ミヨシ、エム、エス、センター,,株式会社,大阪府,大阪市東淀川区,西淡路５丁目１８番１０号,,27,114,5330031,,,2023-06-26,清算の結了等,,,2015-10-05,1,,,,,ミヨシエムエスセンター,0
1764,8120001167959,登記記録の閉鎖等,0,2023-06-28,2023-06-26,株式会社マネジメントワイズ,,株式会社,大阪府,大阪市淀川区,西中島１丁目１５番２号,,27,123,5320011,,,2023-06-26,合併による解散等,1010001121917,令和５年６月２０日東京都港区南青山二丁目２３番８号株式会社アルマダ（1010001121917）に合併し解散,2015-10-05,1,,,,,マネジメントワイズ,0
1765,8120001187189,登記記録の閉鎖等,0,2023-06-28,2023-06-27,株式会社ステージ,,株式会社,大阪府,大阪市北区,天神橋３丁目１０番３０－５１１号,,27,127,5300041,,,2023-06-27,清算の結了等,,,2015-10-05,1,,,,,ステージ,0
1783,8140001007072,登記記録の閉鎖等,0,2023-06-28,2023-06-22,株式会社金星商会,,株式会社,兵庫県,神戸市中央区,加納町３丁目１２番１９号,,28,110,6500001,,,2023-06-22,清算の結了等,,,2015-10-05,1,,,,,キンセイショウカイ,0
1786,8140001030966,登記記録の閉鎖等,0,2023-06-28,2023-06-22,Ｅ＆Ｍ株式会社,,株式会社,兵庫県,神戸市西区,学園東町５丁目１番地５０５－１０３号,,28,111,6512102,,,2023-06-22,清算の結了等,,,2015-10-05,1,,,,,イーアンドエム,0
1795,8140002052225,登記記録の閉鎖等,0,2023-06-28,2023-06-23,有限会社ヒメジマーク製作所,,有限会社,兵庫県,姫路市,西夢前台２丁目２１番地の１,,28,201,6712214,,,2023-06-23,清算の結了等,,,2015-10-05,1,,,,,ヒメジマークセイサクショ,0
1796,8140002052860,登記記録の閉鎖等,0,2023-06-28,2023-06-23,有限会社エスワイマネージメント,,有限会社,兵庫県,姫路市,広峰２丁目１番２号,,28,201,6700882,,,2023-06-23,清算の結了等,,,2015-10-05,1,,,,,エスワイマネージメント,0
1803,8180001117909,登記記録の閉鎖等,0,2023-06-28,2023-06-23,株式会社山下商店,,株式会社,愛知県,名古屋市名東区,極楽５丁目１０４番地の１,,23,115,4650053,,,2023-06-23,清算の結了等,,,2015-10-05,1,,,,,ヤマシタショウテン,0
1826,8260001021111,登記記録の閉鎖等,0,2023-06-28,2023-06-26,株式会社ギムワン,,株式会社,岡山県,勝田郡勝央町,勝間田１２９番地３,,33,622,7094316,,,2023-06-26,清算の結了等,,,2015-10-05,1,,,,,,0
1841,8340001012390,登記記録の閉鎖等,0,2023-06-28,2023-06-26,株式会社サンヨーＥＭＳ,,株式会社,鹿児島県,鹿児島市,皆与志町３０６８番地,,46,201,8911206,,,2023-06-26,清算の結了等,,,2015-10-05,1,,,,,サンヨーイーエムエス,0
1846,8370002008708,登記記録の閉鎖等,0,2023-06-28,2023-06-23,有限会社丸三地所,,有限会社,宮城県,仙台市宮城野区,福室３丁目２５番１５号,,04,102,9830005,,,2023-06-23,清算の結了等,,,2015-10-05,1,,,,,マルサンチショ,0
1882,9010001166681,登記記録の閉鎖等,0,2023-06-28,2023-06-23,株式会社アイ・トラスト,,株式会社,神奈川県,座間市,南栗原２丁目２番４５－８０６号コスモさがみ野,,14,216,2520015,,,2023-06-23,清算の結了等,,,2015-10-05,1,,,,,アイトラスト,0
1884,9010001188949,登記記録の閉鎖等,0,2023-06-28,2023-06-14,ＡＶＡＮＣＥ　ＧＲＯＵＰ株式会社,,株式会社,東京都,港区,北青山３丁目１番６号,,13,103,1070061,,,2023-06-14,清算の結了等,,,2018-01-17,1,,,,,アヴァンスグループ,0
1885,9010001215141,登記記録の閉鎖等,0,2023-06-28,2023-06-06,Ｇｅｎｅｓｉｓ－２アソシエイツ株式会社,,株式会社,東京都,千代田区,丸の内２丁目２番１号岸本ビルヂング６階,,13,101,1000005,,,2023-06-06,合併による解散等,4010003034528,令和５年６月１日東京都千代田区丸の内二丁目２番１号岸本ビルヂングＧ－２アソシエイツ合同会社（4010003034528）に合併し解散,2021-01-14,1,,,,,ジェネシスツーアソシエイツ,0
1889,9010002022710,登記記録の閉鎖等,0,2023-06-28,2023-06-22,有限会社デンクス,,有限会社,東京都,中央区,日本橋蛎殻町１丁目１９番７号,,13,102,1030014,,,2023-06-22,清算の結了等,,,2015-10-05,1,,,,,デンクス,0
1892,9010401108011,登記記録の閉鎖等,0,2023-06-28,2023-06-21,株式会社ウェスタホールディングス,,株式会社,東京都,中央区,銀座８丁目４番２号,,13,102,1040061,,,2023-06-21,清算の結了等,,,2015-10-05,1,,,,,ウェスタホールディングス,0
1924,9013402001358,登記記録の閉鎖等,0,2023-06-28,2023-06-22,有限会社フラワー杉山,,有限会社,東京都,日野市,多摩平５丁目２番地の５７,,13,212,1910062,,,2023-06-22,清算の結了等,,,2015-10-05,1,,,,,,0
1934,9021001029407,登記記録の閉鎖等,0,2023-06-28,2023-06-22,ケナリー・ネットワークス株式会社,,株式会社,神奈川県,海老名市,大谷南２丁目２４番５１号,,14,215,2430418,,,2023-06-22,清算の結了等,,,2015-10-05,1,,,,,ケナリーネットワークス,0
1939,9030002027897,登記記録の閉鎖等,0,2023-06-28,2023-06-12,橋口印刷有限会社,,有限会社,埼玉県,戸田市,早瀬２丁目２５番２３号,,11,224,3350036,,,2023-06-12,清算の結了等,,,2015-10-05,1,,,,,ハシグチインサツ,0
1949,9050001024448,登記記録の閉鎖等,0,2023-06-28,2023-06-21,株式会社コクテック,,株式会社,茨城県,日立市,幸町１丁目７番１３号幸ビル２階２０３号,,08,202,3170073,,,2023-06-21,清算の結了等,,,2015-10-05,1,,,,,コクテック,0
1962,9070002034015,登記記録の閉鎖等,0,2023-06-28,2023-06-23,有限会社森尻ブロック工業,,有限会社,群馬県,邑楽郡明和町,南大島１１１番地の１,,10,522,3700701,,,2023-06-23,清算の結了等,,,2015-10-05,1,,,,,モリジリブロックコウギョウ,0
1966,9080101005213,登記記録の閉鎖等,0,2023-06-28,2023-06-14,株式会社フジマート,,株式会社,静岡県,御殿場市,東田中１７４４番地の７,,22,215,4120026,,,2023-06-14,清算の結了等,,,2015-10-05,1,,,,,フジマート,0
1979,9110005006452,登記記録の閉鎖等,0,2023-06-28,2023-06-21,八海山独立教会吉田教会,,その他の設立登記法人,新潟県,燕市,吉田新田町８番３号,,15,213,9590247,,,2023-06-21,清算の結了等,,,2015-10-05,1,,,,,ハッカイサンドクリツキョウカイヨシダキョウカイ,0
2011,9150001000075,登記記録の閉鎖等,0,2023-06-28,2023-06-23,株式会社アラカワ,,株式会社,奈良県,奈良市,押熊町１１３０－３,,29,201,6310011,,,2023-06-23,清算の結了等,,,2015-10-05,1,,,,,アラカワ,0
2020,9180001108270,登記記録の閉鎖等,0,2023-06-28,2023-06-23,株式会社Ｋ’ｓライフ,,株式会社,愛知県,名古屋市千種区,萱場２丁目１２番２７号,,23,101,4640086,,,2023-06-23,清算の結了等,,,2015-10-05,1,,,,,ケーズライフ,0
2030,9180003021224,登記記録の閉鎖等,0,2023-06-28,2023-06-21,アールアンドカンパニー合同会社,,合同会社,愛知県,名古屋市中川区,九重町７番２７号マンダリンコートささしまライブ３０３号,,23,110,4540808,,,2023-06-21,清算の結了等,,,2020-05-29,1,,,,,アールアンドカンパニー,0
2036,9180305002616,登記記録の閉鎖等,0,2023-06-28,2023-06-19,花園商店街振興組合,,その他の設立登記法人,愛知県,豊橋市,花園町５１番地,,23,201,4400895,,,2023-06-19,清算の結了等,,,2015-10-05,1,,,,,ハナゾノ,0
2052,9280003001100,登記記録の閉鎖等,0,2023-06-28,2023-06-22,合同会社揖屋仮設,,合同会社,島根県,松江市,東出雲町揖屋７３８番地２１,,32,201,6990101,,,2023-06-22,清算の結了等,,,2016-07-08,1,,,,,イヤカセツ,0
2060,9290003013739,登記記録の閉鎖等,0,2023-06-28,2023-06-22,合同会社こたくま,,合同会社,福岡県,福岡市博多区,美野島４丁目１番１－９１２号,,40,132,8120017,,,2023-06-22,清算の結了等,,,2023-04-06,1,,,,,コタクマ,0
2079,9380002019959,登記記録の閉鎖等,0,2023-06-28,2023-06-22,有限会社須賀川柏屋,,有限会社,福島県,須賀川市,中町４６番地,,07,207,9620845,,,2023-06-22,清算の結了等,,,2015-10-05,1,,,,,スカガワカシワヤ,0
