sequenceNumber,corporateNumber,process,correct,updateDate,changeDate,name,nameImageId,kind,prefectureName,cityName,streetNumber,addressImageId,prefectureCode,cityCode,postCode,addressOutside,addressOutsideImageId,closeDate,closeCause,successorCorporateNumber,changeCause,assignmentDate,latest,enName,enPrefectureName,enCityName,enAddressOutside,furigana,hihyoji
6,1010001259831,新規,0,2025-10-31,2025-10-31,株式会社サンメアコンサルティング,,株式会社,東京都,中央区,八丁堀２丁目２９番５号日興パレス八重洲８０１,,13,102,1040032,,,,,,,2025-10-31,1,,,,,サンメアコンサルティング,0
7,1010001259864,新規,0,2025-10-31,2025-10-31,Ｇ‐ＮＯＶＡホールディングス株式会社,,株式会社,東京都,中央区,勝どき１丁目８番１－３１０２号,,13,102,1040054,,,,,,,2025-10-31,1,,,,,ジーノヴァホールディングス,0
9,1010003049198,新規,0,2025-10-31,2025-10-31,合同会社イスト,,合同会社,東京都,千代田区,岩本町２丁目１１－３,,13,101,1010032,,,,,,,2025-10-31,1,,,,,イスト,0
10,1010003049248,新規,0,2025-10-31,2025-10-31,合同会社ＲＳプロパティーズ３,,合同会社,東京都,千代田区,大手町１丁目５番１号,,13,101,1000004,,,,,,,2025-10-31,1,,,,,アールエスプロパティーズスリー,0
20,1010401194050,新規,0,2025-10-31,2025-10-31,株式会社お多福,,株式会社,東京都,港区,赤坂２丁目１７－１２チュリス赤坂６０６,,13,103,1070052,,,,,,,2025-10-31,1,,,,,オタフク,0
21,1010401194059,新規,0,2025-10-31,2025-10-31,株式会社ＯＲＢ,,株式会社,東京都,港区,南青山６丁目１１番１号,,13,103,1070062,,,,,,,2025-10-31,1,,,,,オーブ,0
22,1010401194109,新規,0,2025-10-31,2025-10-31,イーマッチング株式会社,,株式会社,東京都,港区,新橋６丁目４－９,,13,103,1050004,,,,,,,2025-10-31,1,,,,,イーマッチング,0
23,1010401194141,新規,0,2025-10-31,2025-10-31,株式会社ＢＡＯＢＡＢ,,株式会社,東京都,港区,海岸３丁目７－１８－２０２,,13,103,1080022,,,,,,,2025-10-31,1,,,,,バオバブ,0
24,1010401194190,新規,0,2025-10-31,2025-10-31,株式会社Ｒｅｌａｙｔｉｏｎ,,株式会社,東京都,港区,北青山１丁目３－３三橋ビル３階,,13,103,1070061,,,,,,,2025-10-31,1,,,,,リレイション,0
26,1010403036473,新規,0,2025-10-31,2025-10-31,スピッツ合同会社,,合同会社,東京都,港区,高輪３丁目１２番４号ベローチェ高輪４０２,,13,103,1080074,,,,,,,2025-10-31,1,,,,,スピッツ,0
27,1010501054922,新規,0,2025-10-31,2025-10-31,青川株式会社,,株式会社,東京都,台東区,小島２丁目１８番１５号新御徒町妙見屋ビル７階,,13,106,1110056,,,,,,,2025-10-31,1,,,,,アオカワ,0
28,1010501054955,新規,0,2025-10-31,2025-10-31,櫻正商事株式会社,,株式会社,東京都,台東区,駒形２丁目２番１０号ファインライフ駒形３０１号室,,13,106,1110043,,,,,,,2025-10-31,1,,,,,オウセイショウジ,0
30,1010701048550,新規,0,2025-10-31,2025-10-31,株式会社麺食グローバルヒューマンリソーシズ,00141337,株式会社,東京都,品川区,東大井２丁目１３番８号ケイヒン東大井ビル１０階,,13,109,1400011,,,,,,,2025-10-31,1,,,,,メンショクグローバルヒューマンリソーシズ,0
33,1010901058382,新規,0,2025-10-31,2025-10-31,株式会社ＳｔｒａｔｅｇｙＯｐｓ,,株式会社,東京都,世田谷区,池尻４丁目２７―３２―４０７,,13,112,1540001,,,,,,,2025-10-31,1,,,,,ストラテジーオプス,0
41,1011001172909,新規,0,2025-10-31,2025-10-31,株式会社ｔｏｋｙｏ　ｃｒｅａｔｉｖｅ　ｖｉｓｉｏｎ,,株式会社,東京都,渋谷区,恵比寿４丁目２７番２号赤尾ビル８０１,,13,113,1500013,,,,,,,2025-10-31,1,,,,,トウキョウクリエイティブビジョン,0
49,1011101113754,新規,0,2025-10-31,2025-10-31,株式会社Ｇａｍｅｂｏｔ,,株式会社,東京都,新宿区,北新宿３丁目１０番１０－７１１号－Ｌ,,13,104,1690074,,,,,,,2025-10-31,1,,,,,ゲームボット,0
56,1011501032620,新規,0,2025-10-31,2025-10-31,株式会社ＢＭＳコンサルティング,,株式会社,東京都,荒川区,南千住７丁目１１番１号大京ハイツ２０３,,13,118,1160003,,,,,,,2025-10-31,1,,,,,ビーエムエスコンサルティング,0
60,1011801046980,新規,0,2025-10-31,2025-10-31,言乃葉心株式会社,,株式会社,東京都,葛飾区,青戸６丁目１０番２４号,,13,122,1250062,,,,,,,2025-10-31,1,,,,,コトノハココロ,0
61,1011801046989,新規,0,2025-10-31,2025-10-31,Ｇａｌａｘｙ　ｔｒａｖｅｌ株式会社,,株式会社,東京都,足立区,花畑６丁目３２番９号,,13,121,1210061,,,,,,,2025-10-31,1,,,,,ギャラクシートラベル,0
78,1020001165665,新規,0,2025-10-31,2025-10-31,株式会社Ｐｉｎｎａｃｌｅ,,株式会社,神奈川県,横浜市西区,浅間町１丁目４番３号ウィザードビル４０２,,14,103,2200072,,,,,,,2025-10-31,1,,,,,ピナクル,0
81,1020002008468,新規,0,2025-10-31,2025-10-31,有限会社テクセル,,有限会社,神奈川県,横浜市金沢区,富岡西４丁目５２番７号,,14,108,2360052,,,,,,,2025-10-31,1,,,,,テクセル,0
86,1021001086686,新規,0,2025-10-31,2025-10-31,株式会社アスター,,株式会社,神奈川県,相模原市南区,南台３丁目３番２４号カサフェンテＪ１０５,,14,153,2520314,,,,,,,2025-10-31,1,,,,,アスター,0
90,1021003016740,新規,0,2025-10-31,2025-10-31,合同会社日ト月,,合同会社,神奈川県,相模原市中央区,淵野辺１丁目１３―１５河井コーポ１階,,14,152,2520206,,,,,,,2025-10-31,1,,,,,ヒトツキ,0
91,1021003016757,新規,0,2025-10-31,2025-10-31,合同会社コバルトマネジメントサポート,,合同会社,神奈川県,足柄上郡開成町,宮台１１２１番地１,,14,366,2580023,,,,,,,2025-10-31,1,,,,,コバルトマネジメントサポート,0
103,1030003027978,新規,0,2025-10-31,2025-10-31,ＦＲＡＮＳＡＷ合同会社,,合同会社,埼玉県,川越市,大字小堤９１０番地３５エスパース・リュミエール鶴ヶ島小堤ＩＩＩ番館２０３号室,00141333,11,201,3500811,,,,,,,2025-10-31,1,,,,,フランソウ,0
106,1030005022325,新規,0,2025-10-31,2025-10-31,一般社団法人関東厚生福祉会,,その他の設立登記法人,埼玉県,朝霞市,大字浜崎７０３番地,,11,227,3510033,,,,,,,2025-10-31,1,,,,,カントウコウセイフクシカイ,0
110,1040001141193,新規,0,2025-10-31,2025-10-31,株式会社杉山建設,,株式会社,千葉県,松戸市,根本７番地の１３ヴィークスイート松戸１４０４号,,12,207,2710077,,,,,,,2025-10-31,1,,,,,スギヤマケンセツ,0
111,1040001141202,新規,0,2025-10-31,2025-10-31,株式会社コグチ,,株式会社,千葉県,柏市,しいの木台５丁目３４番地２８,,12,217,2770945,,,,,,,2025-10-31,1,,,,,コグチ,0
113,1040003028892,新規,0,2025-10-31,2025-10-31,合同会社ワークス,,合同会社,千葉県,富里市,久能２５３番地１２,,12,233,2860203,,,,,,,2025-10-31,1,,,,,ワークス,0
119,1050001057521,新規,0,2025-10-31,2025-10-31,ヴォルビア・ホールディングス株式会社,,株式会社,茨城県,ひたちなか市,新光町３８番地ひたちなかテクノセンターＡ１０４,,08,221,3120005,,,,,,,2025-10-31,1,,,,,ヴォルビアホールディングス,0
120,1050003009727,新規,0,2025-10-31,2025-10-31,合同会社プラチナム,,合同会社,茨城県,常総市,新石下３１７,,08,211,3002706,,,,,,,2025-10-31,1,,,,,プラチナム,0
122,1060001038719,新規,0,2025-10-31,2025-10-31,みくる株式会社,,株式会社,栃木県,足利市,堀込町２５３１番地２ＭＢＳビル,,09,202,3260831,,,,,,,2025-10-31,1,,,,,ミクル,0
125,1070003006177,新規,0,2025-10-31,2025-10-31,合同会社ＭＵＳＵＢＩ　ＦＯＵＮＤＡＴＩＯＮ,,合同会社,群馬県,高崎市,鶴見町１４番地１１ダイヤコーポ桂川７０４号,,10,202,3700848,,,,,,,2025-10-31,1,,,,,ムスビファンデーション,0
128,1080001027240,新規,0,2025-10-31,2025-10-31,ＴＡＫＥＹＡ　Ｈｏｌｄｉｎｇｓ株式会社,,株式会社,静岡県,静岡市清水区,真砂町３番２７号,,22,103,4240816,,,,,,,2025-10-31,1,,,,,タケヤホールディングス,0
130,1080103003461,新規,0,2025-10-31,2025-10-31,合同会社三々舎,,合同会社,静岡県,熱海市,伊豆山６５０,,22,205,4130002,,,,,,,2025-10-31,1,,,,,サンサンシャ,0
132,1090001019591,新規,0,2025-10-31,2025-10-31,株式会社Ｈｉｔｏｃｈｉ,,株式会社,山梨県,甲斐市,竜王新町４６４番地９、２Ｆ,,19,210,4000111,,,,,,,2025-10-31,1,,,,,ヒトチ,0
133,1110001039686,新規,0,2025-10-31,2025-10-31,株式会社丸山農園,,株式会社,新潟県,阿賀野市,外城町４番１８号,,15,223,9592022,,,,,,,2025-10-31,1,,,,,マルヤマノウエン,0
146,1120001281444,新規,0,2025-10-31,2025-10-31,麒麟株式会社,,株式会社,大阪府,大阪市中央区,安土町１丁目８番１号吉川産業ビル４０３号室,,27,128,5410052,,,,,,,2025-10-31,1,,,,,キリン,0
147,1120001281551,新規,0,2025-10-31,2025-10-31,株式会社ミッドプラン,,株式会社,大阪府,大阪市淀川区,西三国４丁目６番４９号,,27,123,5320006,,,,,,,2025-10-31,1,,,,,ミッドプラン,0
148,1120001281584,新規,0,2025-10-31,2025-10-31,宏安株式会社,,株式会社,大阪府,大阪市北区,天満２丁目２－１７－２０１Ｃ,,27,127,5300043,,,,,,,2025-10-31,1,,,,,コウアン,0
149,1120001281650,新規,0,2025-10-31,2025-10-31,株式会社ＢＡＳＴＥＴ,,株式会社,大阪府,大阪市中央区,南船場３丁目２番２２号おおきに南船場ビル２０５,,27,128,5420081,,,,,,,2025-10-31,1,,,,,バステト,0
153,1120003031087,新規,0,2025-10-31,2025-10-31,合同会社楽,,合同会社,大阪府,大阪市生野区,桃谷３丁目１９番１６－２０５号,,27,116,5440034,,,,,,,2025-10-31,1,,,,,ラク,0
154,1120003031120,新規,0,2025-10-31,2025-10-31,合同会社オリジン,,合同会社,大阪府,大阪市北区,豊崎３丁目１０番２号アイアンドエフ梅田７Ｆ７０６号,,27,127,5310072,,,,,,,2025-10-31,1,,,,,オリジン,0
155,1120003031137,新規,0,2025-10-31,2025-10-31,合同会社ＰＴＦ,,合同会社,大阪府,大阪市中央区,南船場３丁目２－２２おおきに南船場ビル２０５,,27,128,5420081,,,,,,,2025-10-31,1,,,,,ピーティーエフ,0
156,1120003031145,新規,0,2025-10-31,2025-10-31,竹内不動産合同会社,,合同会社,大阪府,大阪市中央区,南船場３丁目３番２８号,,27,128,5420081,,,,,,,2025-10-31,1,,,,,タケウチフドウサン,0
158,1120005025194,新規,0,2025-10-31,2025-10-31,ＧＯＥＮＭＯＮＲＡ協同組合,,その他の設立登記法人,大阪府,大阪市中央区,谷町３丁目２番３号木村ビル４階,,27,128,5400012,,,,,,,2025-10-31,1,,,,,ゴエンモンラ,0
161,1120101072710,新規,0,2025-10-31,2025-10-31,株式会社Ｂｅａｕｔｙ　Ｆｒｅｅ,,株式会社,大阪府,堺市中区,深井水池町３２５６番地１,,27,142,5998237,,,,,,,2025-10-31,1,,,,,ビューティーフリー,0
162,1120101072719,新規,0,2025-10-31,2025-10-31,株式会社アンノワー,,株式会社,大阪府,和泉市,王子町２丁目２番４号,,27,219,5940004,,,,,,,2025-10-31,1,,,,,アンノワー,0
163,1120103006773,新規,0,2025-10-31,2025-10-31,会計ラボ合同会社,,合同会社,大阪府,堺市南区,桃山台４丁１１－５,,27,145,5900141,,,,,,,2025-10-31,1,,,,,カイケイラボ,0
164,1120103006823,新規,0,2025-10-31,2025-10-31,合同会社澄商,,合同会社,大阪府,堺市西区,浜寺昭和町２丁１８９番地５,,27,144,5928345,,,,,,,2025-10-31,1,,,,,スミショウ,0
168,1120901051748,新規,0,2025-10-31,2025-10-31,株式会社優心,,株式会社,大阪府,茨木市,真砂１丁目１３番２号・エクセルハイム３・２０１号,,27,211,5670851,,,,,,,2025-10-31,1,,,,,ユウシン,0
170,1122001039830,新規,0,2025-10-31,2025-10-31,株式会社益田技環,,株式会社,大阪府,八尾市,南木の本７丁目２２６番地,,27,212,5810042,,,,,,,2025-10-31,1,,,,,マスダギカン,0
171,1122003003371,新規,0,2025-10-31,2025-10-31,合同会社ＮＡＧＯ,,合同会社,大阪府,東大阪市,南鴻池町２丁目８番１５号ＴＥＮ１号,,27,227,5780961,,,,,,,2025-10-31,1,,,,,ナゴ,0
175,1140001140284,新規,0,2025-10-31,2025-10-31,株式会社平建,,株式会社,兵庫県,宍粟市,山崎町上ノ１８２７番地,,28,227,6712501,,,,,,,2025-10-31,1,,,,,ヒラケン,0
176,1140001140508,新規,0,2025-10-31,2025-10-31,ＭＡＲＢＬＥ‐ｃｏｒｅｐｌｕｓ株式会社,,株式会社,兵庫県,加古川市,山手１丁目２１番６－１号,,28,210,6750002,,,,,,,2025-10-31,1,,,,,マーブルコアプラス,0
177,1140001140598,新規,0,2025-10-31,2025-10-31,株式会社ＧＲＥＥＤ,,株式会社,兵庫県,伊丹市,千僧５丁目９１番地・１－１０１号,,28,207,6640898,,,,,,,2025-10-31,1,,,,,グリード,0
179,1150001028512,新規,0,2025-10-31,2025-10-31,株式会社川田住建,,株式会社,奈良県,奈良市,青山８丁目２６５番地,,29,201,6308101,,,,,,,2025-10-31,1,,,,,カワタジュウケン,0
182,1170001018858,新規,0,2025-10-31,2025-10-31,株式会社ＷＡＬＬ,,株式会社,和歌山県,和歌山市,梅原５７９番地１,,30,201,6408452,,,,,,,2025-10-31,1,,,,,ウォール,0
198,1180001169221,新規,0,2025-10-31,2025-10-31,株式会社ＴＯＢＥ．Ｈｏｌｄｉｎｇｓ,,株式会社,愛知県,名古屋市中区,丸の内２丁目１６番８号２Ｆ,,23,106,4600002,,,,,,,2025-10-31,1,,,,,トゥービーホールディングス,0
199,1180001169238,新規,0,2025-10-31,2025-10-31,環和株式会社,,株式会社,愛知県,名古屋市緑区,八つ松１丁目９１２番地,,23,114,4580810,,,,,,,2025-10-31,1,,,,,カンワ,0
200,1180001169345,新規,0,2025-10-31,2025-10-31,株式会社ＥＮＣＯＲＥ,,株式会社,愛知県,名古屋市中区,大須４丁目１３番４３号ザ・パークハウス上前津フロント６０４号,,23,106,4600011,,,,,,,2025-10-31,1,,,,,アンコール,0
204,1180003029299,新規,0,2025-10-31,2025-10-31,ソラミチ合同会社,,合同会社,愛知県,名古屋市千種区,四谷通２丁目１番地マストスクエア本山四谷通８０２号,,23,101,4640819,,,,,,,2025-10-31,1,,,,,ソラミチ,0
205,1180005021287,新規,0,2025-10-31,2025-10-31,一般社団法人森と子ども未来会議,,その他の設立登記法人,愛知県,名古屋市熱田区,金山町１丁目２－８ジャルダン金山７－Ａ,,23,109,4560002,,,,,,,2025-10-31,1,,,,,モリトコドモミライカイギ,0
206,1180303006790,新規,0,2025-10-31,2025-10-31,電工松井合同会社,,合同会社,愛知県,豊橋市,高塚町字西方８０番地１,,23,201,4413203,,,,,,,2025-10-31,1,,,,,,0
212,1200003007120,新規,0,2025-10-31,2025-10-31,合同会社Ｂａｒｎｅｔ,,合同会社,岐阜県,多治見市,小泉町３丁目２２３番地１,,21,204,5070073,,,,,,,2025-10-31,1,,,,,バーネット,0
216,1230001021161,新規,0,2025-10-31,2025-10-31,徳安国際株式会社,,株式会社,富山県,富山市,五福３８５番地１,,16,201,9300887,,,,,,,2025-10-31,1,,,,,トクアンコクサイ,0
218,1260001040695,新規,0,2025-10-31,2025-10-31,瀬戸内ライフクリエイト株式会社,,株式会社,岡山県,倉敷市,茶屋町１５２６番地１５,,33,202,7101101,,,,,,,2025-10-31,1,,,,,セトウチライフクリエイト,0
219,1260003005399,新規,0,2025-10-31,2025-10-31,合同会社Ｌｉｎｋ　Ｕｐ,,合同会社,岡山県,津山市,田町１０９－４,,33,203,7080052,,,,,,,2025-10-31,1,,,,,リンクアップ,0
227,1290001111923,新規,0,2025-10-31,2025-10-31,株式会社真輝,,株式会社,福岡県,福岡市早良区,東入部２丁目９番７号,,40,137,8111102,,,,,,,2025-10-31,1,,,,,シンキ,0
228,1290001111964,新規,0,2025-10-31,2025-10-31,Ｍｏｏｌａ商事株式会社,,株式会社,福岡県,小郡市,津古８４６番地６５－２Ｆ,,40,216,8380102,,,,,,,2025-10-31,1,,,,,モーラ,0
229,1290001111997,新規,0,2025-10-31,2025-10-31,ＣＪＭ株式会社,,株式会社,福岡県,久留米市,東櫛原町２５１８番地１,,40,203,8300003,,,,,,,2025-10-31,1,,,,,シージェイエム,0
231,1290003017607,新規,0,2025-10-31,2025-10-31,合同会社Ｔｅｎｙｏ　Ｌｉｖｉｎｇ,,合同会社,福岡県,福岡市中央区,天神２丁目２番１２号Ｔ＆Ｊビルディング７Ｆ,,40,133,8100001,,,,,,,2025-10-31,1,,,,,テンヨウリビング,0
232,1290003017623,新規,0,2025-10-31,2025-10-31,合同会社まる,,合同会社,福岡県,柳川市,吉富町４９９番地１３,,40,207,8320055,,,,,,,2025-10-31,1,,,,,マル,0
237,1300001014397,新規,0,2025-10-31,2025-10-31,株式会社ＣＬＴイノベーションズ,,株式会社,佐賀県,唐津市,肥前町中浦１６３６番地７,,41,202,8471504,,,,,,,2025-10-31,1,,,,,シーエルティーイノベーションズ,0
241,1330003011266,新規,0,2025-10-31,2025-10-31,合同会社上田興業,,合同会社,熊本県,阿蘇郡小国町,大字宮原２３２４－１,,43,424,8692501,,,,,,,2025-10-31,1,,,,,カミダコウギョウ,0
246,1340001027742,新規,0,2025-10-31,2025-10-31,株式会社ＹＳＢＧ,,株式会社,鹿児島県,肝属郡肝付町,南方３６３番地５,,46,492,8931402,,,,,,,2025-10-31,1,,,,,ワイエスビージー,0
251,1360001035974,新規,0,2025-10-31,2025-10-31,株式会社蛇名堂ハブ酒商事,,株式会社,沖縄県,那覇市,松山１丁目１７番４４号八重洲第３ビル１０１,,47,201,9000032,,,,,,,2025-10-31,1,,,,,ジャナドウハブシュショウジ,0
252,1360003015363,新規,0,2025-10-31,2025-10-31,合同会社ＴＵＮＡＧＵ,,合同会社,沖縄県,沖縄市,宮里４丁目４番１０号,,47,211,9042165,,,,,,,2025-10-31,1,,,,,ツナグ,0
274,1430001095549,新規,0,2025-10-31,2025-10-31,株式会社ＩＺＵＭＩＲＵ,,株式会社,北海道,苫小牧市,住吉町１丁目５番３号,,01,213,0530046,,,,,,,2025-10-31,1,,,,,イズミル,0
275,1430005015346,新規,0,2025-10-31,2025-10-31,一般社団法人Ｃｏｖａｃｏ　Ｐｅａｃｈ,,その他の設立登記法人,北海道,札幌市白石区,平和通１１丁目南１番１１号,,01,104,0030028,,,,,,,2025-10-31,1,,,,,コバコピーチ,0
276,1450001014770,新規,0,2025-10-31,2025-10-31,株式会社ＮＡＫＡｋｏｏ,,株式会社,北海道,旭川市,神居一条１丁目１－２５,,01,204,0708011,,,,,,,2025-10-31,1,,,,,,0
278,1460101007772,新規,0,2025-10-31,2025-10-31,豊熊開発株式会社,,株式会社,北海道,帯広市,西十一条南３３丁目２番地１,,01,207,0800021,,,,,,,2025-10-31,1,,,,,,0
294,2010001259806,新規,0,2025-10-31,2025-10-31,株式会社ＲＥＰ,,株式会社,東京都,千代田区,岩本町３丁目９－３,,13,101,1010032,,,,,,,2025-10-31,1,,,,,アールイーピー,0
296,2010003049057,新規,0,2025-10-31,2025-10-31,合同会社リブラ,,合同会社,東京都,中央区,銀座１丁目２２－１１,,13,102,1040061,,,,,,,2025-10-31,1,,,,,リブラ,0
297,2010003049189,新規,0,2025-10-31,2025-10-31,合同会社ステリデント,,合同会社,東京都,中央区,銀座２丁目１１番１１号,,13,102,1040061,,,,,,,2025-10-31,1,,,,,ステリデント,0
298,2010003049197,新規,0,2025-10-31,2025-10-31,Ｓｐｒｉｎｔ　Ｈｏｌｄｉｎｇｓ３合同会社,,合同会社,東京都,千代田区,霞が関３丁目２番５号,,13,101,1000013,,,,,,,2025-10-31,1,,,,,スプリントホールディングススリー,0
299,2010003049247,新規,0,2025-10-31,2025-10-31,ＢＫＧ合同会社,,合同会社,東京都,中央区,晴海５丁目６番６号,,13,102,1040053,,,,,,,2025-10-31,1,,,,,ビーケージー,0
305,2010005040880,新規,0,2025-10-31,2025-10-31,Ｓｐｒｉｎｔ　ＨＤ３特定目的会社,,その他の設立登記法人,東京都,千代田区,霞が関３丁目２番５号,,13,101,1000013,,,,,,,2025-10-31,1,,,,,スプリントエイチディースリー,0
312,2010401194090,新規,0,2025-10-31,2025-10-31,株式会社バイタルリンク,,株式会社,東京都,港区,南青山３丁目３－３,,13,103,1070062,,,,,,,2025-10-31,1,,,,,バイタルリンク,0
313,2010401194149,新規,0,2025-10-31,2025-10-31,株式会社ＬＩＮＫ　ＡＧＥＮＴ,,株式会社,東京都,港区,南青山３丁目１番３６号青山丸竹ビル６Ｆ,,13,103,1070062,,,,,,,2025-10-31,1,,,,,リンクエージェント,0
314,2010403036431,新規,0,2025-10-31,2025-10-31,ＳＯＡＲ合同会社,,合同会社,東京都,港区,六本木３丁目１６番１２号六本木ＫＳビル５Ｆ,,13,103,1060032,,,,,,,2025-10-31,1,,,,,ソアー,0
320,2010801036735,新規,0,2025-10-31,2025-10-31,株式会社リカバー,,株式会社,東京都,大田区,西六郷４丁目６－２４コトー多摩川５１０,,13,111,1440056,,,,,,,2025-10-31,1,,,,,リカバー,0
322,2010901058373,新規,0,2025-10-31,2025-10-31,インテスケア株式会社,,株式会社,東京都,世田谷区,鎌田２丁目１２番１３号,,13,112,1570077,,,,,,,2025-10-31,1,,,,,インテスケア,0
323,2010903010381,新規,0,2025-10-31,2025-10-31,合同会社ｔｓｕｎｄｏｋｕ,,合同会社,東京都,世田谷区,代田１丁目５番３号,,13,112,1550033,,,,,,,2025-10-31,1,,,,,ツンドク,0
336,2011001173047,新規,0,2025-10-31,2025-10-31,株式会社ｗｉｔｈＨＥＲＯ,,株式会社,東京都,渋谷区,道玄坂１丁目１０－８東急ビル２Ｆ－Ｃ,,13,113,1500043,,,,,,,2025-10-31,1,,,,,ウィズヒーロー,0
337,2011001173204,新規,0,2025-10-31,2025-10-31,Ｌｉｇｈｔｍａｒｋｓ株式会社,,株式会社,東京都,目黒区,自由が丘２丁目１６番１２号ＲＪ３,,13,110,1520035,,,,,,,2025-10-31,1,,,,,ライトマークス,0
342,2011101113753,新規,0,2025-10-31,2025-10-31,株式会社ＢＩＴＳＣＲＡＴＣＨ,,株式会社,東京都,新宿区,西新宿３丁目２－９新宿ワシントンホテルビル本館２Ｆ,,13,104,1600023,,,,,,,2025-10-31,1,,,,,ビットスクラッチ,0
343,2011101113761,新規,0,2025-10-31,2025-10-31,株式会社ユーシー,,株式会社,東京都,新宿区,新宿４丁目４－１０ビジネスインのむらＣ号室,,13,104,1600022,,,,,,,2025-10-31,1,,,,,ユーシー,0
344,2011101113836,新規,0,2025-10-31,2025-10-31,株式会社ハーモニーデザイン,,株式会社,東京都,新宿区,西新宿３丁目３番１３号西新宿水間ビル２Ｆ,,13,104,1600023,,,,,,,2025-10-31,1,,,,,ハーモニーデザイン,0
346,2011103016608,新規,0,2025-10-31,2025-10-31,プライマービ合同会社,,合同会社,東京都,新宿区,新宿１丁目３６番２号新宿第七葉山ビル３階,,13,104,1600022,,,,,,,2025-10-31,1,,,,,プライマービ,0
350,2011201026756,新規,0,2025-10-31,2025-10-31,株式会社Ｃｌｉｎｋ,,株式会社,東京都,中野区,中央１丁目４３番１４号塔ノ山ビル３階,,13,114,1640011,,,,,,,2025-10-31,1,,,,,シーリンク,0
361,2011701028896,新規,0,2025-10-31,2025-10-31,株式会社ＧＵＯ,,株式会社,東京都,江戸川区,中央４丁目１番７－４０３号サンサーラ新小岩,,13,123,1320021,,,,,,,2025-10-31,1,,,,,ジーユーオー,0
365,2011801046955,新規,0,2025-10-31,2025-10-31,株式会社啓豊,,株式会社,東京都,葛飾区,青戸７丁目１０番７号,,13,122,1250062,,,,,,,2025-10-31,1,,,,,ケイホウ,0
370,2012401043764,新規,0,2025-10-31,2025-10-31,株式会社カクト,,株式会社,東京都,調布市,布田１丁目２６番地１２,,13,208,1820024,,,,,,,2025-10-31,1,,,,,カクト,0
371,2012403007429,新規,0,2025-10-31,2025-10-31,合同会社わきの坂,,合同会社,東京都,多摩市,鶴牧２丁目１０番地の５,,13,224,2060034,,,,,,,2025-10-31,1,,,,,ワキノサアイカ,0
392,2021001086685,新規,0,2025-10-31,2025-10-31,株式会社宮田設備,,株式会社,神奈川県,秦野市,菩提１４５８番地の７,,14,211,2591302,,,,,,,2025-10-31,1,,,,,ミヤタセツビ,0
393,2021001086693,新規,0,2025-10-31,2025-10-31,エスケー・マネジメント株式会社,,株式会社,神奈川県,中郡二宮町,富士見が丘３丁目１１番８号,,14,342,2590122,,,,,,,2025-10-31,1,,,,,エスケーマネジメント,0
397,2021003016756,新規,0,2025-10-31,2025-10-31,合同会社ブルーム,,合同会社,神奈川県,大和市,南林間１丁目８番２号西口第２ビル２階,,14,213,2420006,,,,,,,2025-10-31,1,,,,,ブルーム,0
402,2030001169292,新規,0,2025-10-31,2025-10-31,株式会社久和,,株式会社,埼玉県,上尾市,富士見２丁目１２番１号,,11,219,3620041,,,,,,,2025-10-31,1,,,,,クワ,0
406,2030005022324,新規,0,2025-10-31,2025-10-31,ＨＡＰ税理士法人,,その他の設立登記法人,埼玉県,蕨市,中央１丁目２６番１号Ｔ－１ビル３階,,11,223,3350004,,,,,,,2025-10-31,1,,,,,エイチエーピー,0
411,2040001141085,新規,0,2025-10-31,2025-10-31,株式会社春窓,,株式会社,千葉県,流山市,こうのす台６３３番地の３６,,12,220,2700102,,,,,,,2025-10-31,1,,,,,シュンソウ,0
414,2040003028850,新規,0,2025-10-31,2025-10-31,合同会社サクセスビジョン,,合同会社,千葉県,成田市,中台２丁目４－５,,12,211,2860015,,,,,,,2025-10-31,1,,,,,サクセスビジョン,0
415,2040003028909,新規,0,2025-10-31,2025-10-31,合同会社松風,,合同会社,千葉県,市川市,菅野１丁目１５番１２号,,12,203,2720824,,,,,,,2025-10-31,1,,,,,ショウフウ,0
416,2040003028917,新規,0,2025-10-31,2025-10-31,合同会社ＴＥＮＳＩＯＮ,,合同会社,千葉県,市川市,柏井町２丁目１２９２番地２サンハイツ２－２１０号,,12,203,2720802,,,,,,,2025-10-31,1,,,,,テンション,0
417,2040005022892,新規,0,2025-10-31,2025-10-31,労働者協同組合ワーカーズコープめぐる,,その他の設立登記法人,千葉県,匝瑳市,米持２１２,,12,235,2892107,,,,,,,2025-10-31,1,,,,,ワーカーズコープメグル,0
418,2050001057512,新規,0,2025-10-31,2025-10-31,イエリズム株式会社,,株式会社,茨城県,牛久市,田宮町３５９番地２,,08,219,3001236,,,,,,,2025-10-31,1,,,,,イエリズム,0
422,2060001038718,新規,0,2025-10-31,2025-10-31,株式会社ＣａｒｅＷａｓｈ,,株式会社,栃木県,宇都宮市,上戸祭町３０１４番地３,,09,201,3200051,,,,,,,2025-10-31,1,,,,,ケアウォッシュ,0
426,2070003006176,新規,0,2025-10-31,2025-10-31,ＭＵＢＲＯＯＫ　ＴＲＡＮＳＰＯＲＴ合同会社,,合同会社,群馬県,太田市,粕川町２７７－８,,10,205,3700421,,,,,,,2025-10-31,1,,,,,ムブルックトランスポート,0
428,2080003003593,新規,0,2025-10-31,2025-10-31,マイルストーンズ合同会社,,合同会社,静岡県,静岡市駿河区,南安倍３丁目１３番５号ＮＫビル２Ｃ,,22,102,4228054,,,,,,,2025-10-31,1,,,,,マイルストーンズ,0
431,2080401028242,新規,0,2025-10-31,2025-10-31,株式会社ＡＲＳコンサルティング,,株式会社,静岡県,浜松市中央区,薬師町５４番地の１,,22,138,4350017,,,,,,,2025-10-31,1,,,,,エーアールエスコンサルティング,0
434,2110005017282,新規,0,2025-10-31,2025-10-31,一般社団法人柔縁ＣＡＦＥ,,その他の設立登記法人,新潟県,長岡市,上の原町９番５４号,,15,202,9400237,,,,,,,2025-10-31,1,,,,,ジュウエンカフェ,0
440,2120001281542,新規,0,2025-10-31,2025-10-31,株式会社リザルト,,株式会社,大阪府,大阪市中央区,瓦町３丁目４番９号ステーツ本町９０１号室,,27,128,5410048,,,,,,,2025-10-31,1,,,,,リザルト,0
441,2120001281567,新規,0,2025-10-31,2025-10-31,株式会社エイチエスエステート,,株式会社,大阪府,大阪市都島区,中野町５丁目１３番２－５０３号,,27,102,5340027,,,,,,,2025-10-31,1,,,,,エイチエスエステート,0
442,2120001281641,新規,0,2025-10-31,2025-10-31,株式会社Ｌｕｍｉｏ,,株式会社,大阪府,枚方市,岡東町２２－５南ビル４階,,27,210,5730032,,,,,,,2025-10-31,1,,,,,ルミオ,0
447,2120003031094,新規,0,2025-10-31,2025-10-31,ＱＯＬ合同会社,,合同会社,大阪府,大阪市北区,天満１丁目５番７号１５０６号室,,27,127,5300043,,,,,,,2025-10-31,1,,,,,キューオーエル,0
448,2120003031152,新規,0,2025-10-31,2025-10-31,ＮＡＨ合同会社,,合同会社,大阪府,大阪市生野区,生野西１丁目３番２５号,,27,116,5440024,,,,,,,2025-10-31,1,,,,,エヌエーエイチ,0
450,2120105010079,新規,0,2025-10-31,2025-10-31,一般社団法人ＤＲＣみんスタマネジメント,,その他の設立登記法人,大阪府,富田林市,大字佐備８２３番地７号,,27,214,5840052,,,,,,,2025-10-31,1,,,,,ディーアールシーミンスタマネジメント,0
451,2120903005924,新規,0,2025-10-31,2025-10-31,ＮＯＣＩＡ合同会社,,合同会社,大阪府,吹田市,山田東４丁目４１番５－５０３号,,27,205,5650821,,,,,,,2025-10-31,1,,,,,ノシア,0
452,2120903005932,新規,0,2025-10-31,2025-10-31,ココ・スリール合同会社,,合同会社,大阪府,吹田市,藤白台３丁目５番１４－２０１号,,27,205,5650873,,,,,,,2025-10-31,1,,,,,ココスリール,0
455,2122001039838,新規,0,2025-10-31,2025-10-31,エッジサービス株式会社,,株式会社,大阪府,東大阪市,横小路町５丁目１番１１号,,27,227,5798063,,,,,,,2025-10-31,1,,,,,エッジサービス,0
461,2140001140572,新規,0,2025-10-31,2025-10-31,株式会社リデザイン,,株式会社,兵庫県,神戸市中央区,磯辺通１丁目１番１８－７０７号,,28,110,6510084,,,,,,,2025-10-31,1,,,,,リデザイン,0
462,2140001140580,新規,0,2025-10-31,2025-10-31,阿野建設株式会社,,株式会社,兵庫県,朝来市,和田山町土田５６２番地,,28,225,6695241,,,,,,,2025-10-31,1,,,,,アノケンセツ,0
466,2150003003735,新規,0,2025-10-31,2025-10-31,合同会社アンカー,,合同会社,奈良県,御所市,大字元町３５５番地の１ケイズビュー１番館２階,,29,208,6392301,,,,,,,2025-10-31,1,,,,,アンカー,0
467,2150005009730,新規,0,2025-10-31,2025-10-31,一般社団法人さすてなら,,その他の設立登記法人,奈良県,北葛城郡王寺町,畠田２丁目８８,,29,425,6360021,,,,,,,2025-10-31,1,,,,,サステナラ,0
473,2180001169294,新規,0,2025-10-31,2025-10-31,株式会社ユニバース,,株式会社,愛知県,名古屋市中区,正木４丁目８番７号,,23,106,4600024,,,,,,,2025-10-31,1,,,,,ユニバース,0
474,2180001169303,新規,0,2025-10-31,2025-10-31,株式会社ＥＬＩＸＡ,,株式会社,愛知県,名古屋市中区,栄３丁目２－３名古屋日興証券ビル４階,,23,106,4600008,,,,,,,2025-10-31,1,,,,,エリクサ,0
475,2180001169336,新規,0,2025-10-31,2025-10-31,Ｌｉｆｅ　Ｄｅｓｉｇｎ株式会社,,株式会社,愛知県,名古屋市東区,葵２丁目１１番１３号プロビデンス葵タワー１５０１,,23,102,4610004,,,,,,,2025-10-31,1,,,,,ライフデザイン,0
481,2190003005249,新規,0,2025-10-31,2025-10-31,ツナグリンク合同会社,,合同会社,三重県,伊賀市,ゆめが丘２丁目１６‐５,,24,216,5180131,,,,,,,2025-10-31,1,,,,,ツナグリンク,0
485,2210001020370,新規,0,2025-10-31,2025-10-31,株式会社プラナリス,,株式会社,福井県,鯖江市,新横江２丁目３番４号めがね会館７階（（株）ネットソリューション内）,,18,207,9160042,,,,,,,2025-10-31,1,,,,,プラナリス,0
487,2220005009013,新規,0,2025-10-31,2025-10-31,こまつ里山ＢＡＳＥＣＡＭＰ事業協同組合,,その他の設立登記法人,石川県,小松市,粟津町ニ５８番地,,17,203,9230326,,,,,,,2025-10-31,1,,,,,コマツサトヤマベースキャンプ,0
489,2230001021160,新規,0,2025-10-31,2025-10-31,株式会社イースタンブライト,,株式会社,富山県,高岡市,野村１２９６番地６,,16,202,9330014,,,,,,,2025-10-31,1,,,,,イースタンブライト,0
491,2240001065710,新規,0,2025-10-31,2025-10-31,株式会社ＮＥＸＹＣＬ,,株式会社,広島県,広島市中区,河原町３－３,,34,101,7300856,,,,,,,2025-10-31,1,,,,,ネクシクル,0
503,2290001111872,新規,0,2025-10-31,2025-10-31,株式会社エスアンドアイ,,株式会社,福岡県,大牟田市,八本町５７番地１,,40,202,8360816,,,,,,,2025-10-31,1,,,,,エスアンドアイ,0
504,2290001111897,新規,0,2025-10-31,2025-10-31,ＨＡＯＨＥテクノロジー株式会社,,株式会社,福岡県,福岡市東区,香住ヶ丘２丁目８番２号１０２－７号室,,40,131,8130003,,,,,,,2025-10-31,1,,,,,ハオフーテクノロジー,0
505,2290001111906,新規,0,2025-10-31,2025-10-31,株式会社パーシス,,株式会社,福岡県,福岡市博多区,博多駅前１丁目２３番２号ＰａｒｋＦｒｏｎｔ博多駅前一丁目５ＦーＢ,,40,132,8120011,,,,,,,2025-10-31,1,,,,,パーシス,0
506,2290001111930,新規,0,2025-10-31,2025-10-31,株式会社ＡＲＴＤＡＧ,,株式会社,福岡県,福岡市博多区,上川端町１１番８号川端中央ビル４１０号,,40,132,8120026,,,,,,,2025-10-31,1,,,,,アートダグ,0
507,2290001111947,新規,0,2025-10-31,2025-10-31,株式会社アイクルコーポレーション,,株式会社,福岡県,福岡市中央区,平尾２丁目１６番１０－４０３号ＣＬＵＢＴＨＥ．平尾駅前,,40,133,8100014,,,,,,,2025-10-31,1,,,,,アイクルコーポレーション,0
508,2290001111963,新規,0,2025-10-31,2025-10-31,株式会社ｃｒｅａ　ｈｅａｒｔ,,株式会社,福岡県,福岡市博多区,住吉４丁目４番２９－２０２号,,40,132,8120018,,,,,,,2025-10-31,1,,,,,クレアハート,0
512,2290003017622,新規,0,2025-10-31,2025-10-31,合同会社ＫＳＭアカウンティング,,合同会社,福岡県,福岡市博多区,博多駅前１丁目２３番２号ＰａｒｋＦｒｏｎｔ博多駅前１丁目５Ｆ－Ｂ,,40,132,8120011,,,,,,,2025-10-31,1,,,,,ケーエスエムアカウンティング,0
527,2340003005002,新規,0,2025-10-31,2025-10-31,合同会社牧迫,,合同会社,鹿児島県,鹿児島市,東坂元３丁目１４番１５号,,46,201,8920861,,,,,,,2025-10-31,1,,,,,マキサコ,0
546,2430003018201,新規,0,2025-10-31,2025-10-31,ＭＩＬ合同会社,,合同会社,北海道,苫小牧市,美園町３丁目３番２－１号,,01,213,0530041,,,,,,,2025-10-31,1,,,,,ミル,0
547,2430003018283,新規,0,2025-10-31,2025-10-31,合同会社ｔｋｃ,,合同会社,北海道,札幌市東区,東苗穂十三条４丁目２ー８,,01,103,0070813,,,,,,,2025-10-31,1,,,,,ティーケーシー,0
549,2460303000888,新規,0,2025-10-31,2025-10-31,合同会社キットファースト,,合同会社,北海道,北見市,柏陽町６０３－２,,01,208,0900013,,,,,,,2025-10-31,1,,,,,キットファースト,0
554,2500001026603,新規,0,2025-10-31,2025-10-31,株式会社ｓｅｒｅｎｏ,,株式会社,愛媛県,松山市,道後町２丁目１１番３５号,,38,201,7900843,,,,,,,2025-10-31,1,,,,,セレーノ,0
567,3010001259854,新規,0,2025-10-31,2025-10-31,ＳＡＭＵＲＡＩ　ｔｅｃｈｎｏｌｏｇｙ株式会社,,株式会社,東京都,中央区,日本橋兜町５－１兜町第一平和ビル３Ｆ,,13,102,1030026,,,,,,,2025-10-31,1,,,,,サムライテクノロジー,0
568,3010001259904,新規,0,2025-10-31,2025-10-31,Ａｇｈａｎｉｍ　Ｊａｐａｎ株式会社,,株式会社,東京都,中央区,日本橋３丁目９番１号日本橋三丁目スクエア１１階,,13,102,1030027,,,,,,,2025-10-31,1,,,,,アガニムジャパン,0
573,3010003049188,新規,0,2025-10-31,2025-10-31,合同会社Ｄ．Ａ．Ｗ．Ｔ,,合同会社,東京都,中央区,銀座２丁目１１番１１号,,13,102,1040061,,,,,,,2025-10-31,1,,,,,ディーエーダブリューティー,0
574,3010003049238,新規,0,2025-10-31,2025-10-31,Ｔｏｔｓｕ　Ｃａｐｉｔａｌ合同会社,,合同会社,東京都,中央区,新川１丁目１７番１８号,,13,102,1040033,,,,,,,2025-10-31,1,,,,,トウツウキャピタル,0
575,3010003049270,新規,0,2025-10-31,2025-10-31,Ｕ＆Ｈ合同会社,,合同会社,東京都,中央区,日本橋本石町３丁目３番１６号,,13,102,1030021,,,,,,,2025-10-31,1,,,,,ユーアンドエイチ,0
585,3010401194065,新規,0,2025-10-31,2025-10-31,株式会社Ａ．Ｐ．Ｄ,,株式会社,東京都,港区,新橋４丁目３１－３第３名和ビル５０７,,13,103,1050004,,,,,,,2025-10-31,1,,,,,エーピーディー,0
590,3010403036422,新規,0,2025-10-31,2025-10-31,合同会社オフィスふじおか,,合同会社,東京都,港区,北青山１丁目３番１号アールキューブ青山３階,,13,103,1070061,,,,,,,2025-10-31,1,,,,,オフィスフジオカ,0
591,3010403036439,新規,0,2025-10-31,2025-10-31,Ｈａｔｃｈマスターリース合同会社,,合同会社,東京都,港区,虎ノ門２丁目６番１号,,13,103,1050001,,,,,,,2025-10-31,1,,,,,ハッチマスターリース,0
593,3010405024929,新規,0,2025-10-31,2025-10-31,Ｈａｔｃｈ一般社団法人,,その他の設立登記法人,東京都,港区,虎ノ門２丁目６番１号,,13,103,1050001,,,,,,,2025-10-31,1,,,,,ハッチ,0
594,3010405024953,新規,0,2025-10-31,2025-10-31,一般社団法人ＢＯＬ２,,その他の設立登記法人,東京都,港区,虎ノ門５丁目３番２０号株式会社アカウンティング・マネジメント・サービス内,,13,103,1050001,,,,,,,2025-10-31,1,,,,,ビーオーエルツー,0
597,3010501054961,新規,0,2025-10-31,2025-10-31,株式会社ｖｅａｕｔｙａｌ,,株式会社,東京都,台東区,元浅草４丁目２－１２シティインデックス元浅草９０５,,13,106,1110041,,,,,,,2025-10-31,1,,,,,ヴューチャル,0
599,3010701048549,新規,0,2025-10-31,2025-10-31,Ｈ＆Ｃｏホールディングス株式会社,,株式会社,東京都,品川区,西五反田３丁目４番１０号目黒ＭＡＲＣレジデンスタワー１４０３号,,13,109,1410031,,,,,,,2025-10-31,1,,,,,エイチアンドコーホールディングス,0
600,3010703007981,新規,0,2025-10-31,2025-10-31,合同会社ＳＨＯＨＥＩ,,合同会社,東京都,品川区,西五反田２丁目２９番９号五反田アルファビル４Ｆ,,13,109,1410031,,,,,,,2025-10-31,1,,,,,ショウヘイ,0
603,3010902007923,新規,0,2025-10-31,2025-10-31,有限会社白金商事,,有限会社,東京都,世田谷区,上馬２丁目１０番１９号,,13,112,1540011,,,,,,,2025-10-31,1,,,,,,0
604,3010903010380,新規,0,2025-10-31,2025-10-31,合同会社Ｕｎｗｒｉｔｔｅｎ,,合同会社,東京都,世田谷区,東玉川２丁目３３番７号,,13,112,1580084,,,,,,,2025-10-31,1,,,,,アンリトゥン,0
613,3011001172634,新規,0,2025-10-31,2025-10-31,ＡＸＩ株式会社,,株式会社,東京都,渋谷区,広尾１丁目２番地１号ヒカリビル４階,,13,113,1500012,,,,,,,2025-10-31,1,,,,,,0
614,3011001173038,新規,0,2025-10-31,2025-10-31,ＨｅａｌＥｄｇｅ株式会社,,株式会社,東京都,渋谷区,道玄坂１丁目１０番８号渋谷道玄坂東急ビル２Ｆ－Ｃ,,13,113,1500043,,,,,,,2025-10-31,1,,,,,ヒールエッジ,0
615,3011001173203,新規,0,2025-10-31,2025-10-31,株式会社Ｓｏｌ　Ｍａｒｙ,,株式会社,東京都,目黒区,緑が丘３丁目１０番３６号,,13,110,1520034,,,,,,,2025-10-31,1,,,,,ソルマリー,0
616,3011001173252,新規,0,2025-10-31,2025-10-31,Ｒａｄｉａｎｔ　Ｂｕｎｎｙ　Ｓｔｕｄｉｏ株式会社,,株式会社,東京都,渋谷区,道玄坂１丁目１０番８号渋谷道玄坂東急ビル２Ｆ－Ｃ,,13,113,1500043,,,,,,,2025-10-31,1,,,,,レディアントバニースタジオ,0
620,3011003022820,新規,0,2025-10-31,2025-10-31,合同会社ＳｕｎＬｉｂｅｒｔｙ,,合同会社,東京都,渋谷区,桜丘町４番８－１００３号,,13,113,1500031,,,,,,,2025-10-31,1,,,,,サンリバティー,0
622,3011101113752,新規,0,2025-10-31,2025-10-31,株式会社イーグルハウス,,株式会社,東京都,新宿区,百人町１丁目１８番４キャピタルプラザ４０１号,,13,104,1690073,,,,,,,2025-10-31,1,,,,,イーグルハウス,0
623,3011101113769,新規,0,2025-10-31,2025-10-31,株式会社ＳＨＣ,,株式会社,東京都,新宿区,新宿５丁目１８番２０号ルックハイツ新宿８０３号,,13,104,1600022,,,,,,,2025-10-31,1,,,,,エスエイチシー,0
624,3011103016623,新規,0,2025-10-31,2025-10-31,プロジェクト・フレックス合同会社,,合同会社,東京都,新宿区,西新宿７丁目１８番５号ＶＯＲＴ西新宿５０２,,13,104,1600023,,,,,,,2025-10-31,1,,,,,プロジェクトフレックス,0
630,3011501032742,新規,0,2025-10-31,2025-10-31,株式会社ＴａｌｅｎｔＯｎ,,株式会社,東京都,荒川区,西日暮里１丁目４１番５－３０２号,,13,118,1160013,,,,,,,2025-10-31,1,,,,,タレントオン,0
631,3011501032775,新規,0,2025-10-31,2025-10-31,ＦＥ・ＰＬ株式会社,,株式会社,東京都,北区,豊島４丁目１５番３０号,,13,117,1140003,,,,,,,2025-10-31,1,,,,,エフイーピーエル,0
635,3011601029085,新規,0,2025-10-31,2025-10-31,株式会社空楽道,,株式会社,東京都,練馬区,大泉学園町５丁目３５番２２号,,13,120,1780061,,,,,,,2025-10-31,1,,,,,ソラミチ,0
636,3011603004904,新規,0,2025-10-31,2025-10-31,合同会社Ｅｎｊｏｙ　ｌｉｆｅ,,合同会社,東京都,練馬区,氷川台２丁目１番１１号,,13,120,1790084,,,,,,,2025-10-31,1,,,,,エンジョイライフ,0
638,3011703004440,新規,0,2025-10-31,2025-10-31,合同会社Ｌｕｍｉｒｉｓｅ,,合同会社,東京都,江戸川区,西一之江４丁目９番３１－２０８号フレホームズ松江,,13,123,1320023,,,,,,,2025-10-31,1,,,,,ルミライズ,0
639,3011801046979,新規,0,2025-10-31,2025-10-31,雅麗株式会社,,株式会社,東京都,足立区,鹿浜１丁目１３番１２号プライムハイツ鹿浜１０３室,,13,121,1230864,,,,,,,2025-10-31,1,,,,,ガレイ,0
647,3013105001883,新規,0,2025-10-31,2025-10-31,一般社団法人剛造作品保存基金,,その他の設立登記法人,東京都,福生市,本町２０番地５,,13,218,1970022,,,,,,,2025-10-31,1,,,,,ゴウゾウサクヒンホゾンキキン,0
661,3020001165564,新規,0,2025-10-31,2025-10-31,ライフベース株式会社,,株式会社,神奈川県,横浜市港北区,大豆戸町６１グリーンピア１０２,,14,109,2220032,,,,,,,2025-10-31,1,,,,,ライフベース,0
662,3020001165597,新規,0,2025-10-31,2025-10-31,株式会社エルヴァート,,株式会社,神奈川県,川崎市高津区,梶ケ谷５丁目２番地５８,,14,134,2130015,,,,,,,2025-10-31,1,,,,,エルヴァート,0
670,3021001086692,新規,0,2025-10-31,2025-10-31,株式会社ＩＣＨＩＧＵ,,株式会社,神奈川県,茅ヶ崎市,松が丘２丁目６番４２－１４号,,14,207,2530025,,,,,,,2025-10-31,1,,,,,イチグウ,0
674,3021003016755,新規,0,2025-10-31,2025-10-31,ＴＫ　Ｖｉｎ＆Ｔａｂｌｅ合同会社,,合同会社,神奈川県,高座郡寒川町,田端２７４番地４,,14,321,2530114,,,,,,,2025-10-31,1,,,,,ティケイヴィンアンドテーブル,0
679,3030001169317,新規,0,2025-10-31,2025-10-31,株式会社Ｒａｌｌｙ,,株式会社,埼玉県,朝霞市,泉水３丁目３－５５－７０６,,11,227,3510024,,,,,,,2025-10-31,1,,,,,ラリー,0
680,3030001169440,新規,0,2025-10-31,2025-10-31,ウィングループ株式会社,,株式会社,埼玉県,さいたま市岩槻区,大字鹿室５７０番地,,11,110,3390001,,,,,,,2025-10-31,1,,,,,ウィングループ,0
681,3030001169465,新規,0,2025-10-31,2025-10-31,株式会社Ｋ　ＯＮＥ,,株式会社,埼玉県,春日部市,緑町２丁目４番１５号,,11,214,3440063,,,,,,,2025-10-31,1,,,,,ケーワン,0
688,3030005022323,新規,0,2025-10-31,2025-10-31,医療法人明幸会,,その他の設立登記法人,埼玉県,越谷市,レイクタウン８丁目１０番地６レイクタウンＤＭビル３階,,11,222,3430828,,,,,,,2025-10-31,1,,,,,メイコウカイ,0
693,3040001141092,新規,0,2025-10-31,2025-10-31,株式会社ＡＲＣ　Ｎｅｘｔ,,株式会社,千葉県,船橋市,本町７丁目４番１１号船橋大一ビル３階,,12,204,2730005,,,,,,,2025-10-31,1,,,,,アークネクスト,0
694,3040001141191,新規,0,2025-10-31,2025-10-31,株式会社ＬＩＦＩＸ,,株式会社,千葉県,君津市,久保２丁目１０番８号２０１,,12,225,2991152,,,,,,,2025-10-31,1,,,,,リフィックス,0
695,3040001141225,新規,0,2025-10-31,2025-10-31,家バンク株式会社,,株式会社,千葉県,船橋市,栄町２丁目７番１７号,,12,204,2730018,,,,,,,2025-10-31,1,,,,,イエバンク,0
696,3040001141233,新規,0,2025-10-31,2025-10-31,株式会社アフタースクール,,株式会社,千葉県,野田市,野田３８９番地１,,12,208,2780037,,,,,,,2025-10-31,1,,,,,アフタースクール,0
707,3070003006175,新規,0,2025-10-31,2025-10-31,Ｎｅｋｏ　Ｌａｎｄ合同会社,,合同会社,群馬県,伊勢崎市,三室町４４７８－１,,10,204,3792235,,,,,,,2025-10-31,1,,,,,ネコランド,0
711,3080003003592,新規,0,2025-10-31,2025-10-31,合同会社マグノリア,,合同会社,静岡県,静岡市葵区,横内町５番地の３,,22,101,4200832,,,,,,,2025-10-31,1,,,,,マグノリア,0
721,3110003005949,新規,0,2025-10-31,2025-10-31,合同会社ＳＴＳ,,合同会社,新潟県,新潟市西区,寺尾台２丁目６番５号乙川マンション４０１号,,15,107,9502063,,,,,,,2025-10-31,1,,,,,エスティーエス,0
741,3120001280972,新規,0,2025-10-31,2025-10-31,株式会社ＳＥＡ　ＢＬＵＥ,,株式会社,大阪府,守口市,佐太中町６丁目５０番１２号,,27,209,5700002,,,,,,,2025-10-31,1,,,,,シーブルー,0
742,3120001281475,新規,0,2025-10-31,2025-10-31,株式会社彼岸花,,株式会社,大阪府,大阪市生野区,新今里５丁目１１－３メゾン新今里ＩＩ２０３号,00141338,27,116,5440001,,,,,,,2025-10-31,1,,,,,ヒガンバナ,0
743,3120001281517,新規,0,2025-10-31,2025-10-31,株式会社Ｏｉｍｏ,,株式会社,大阪府,大阪市浪速区,日本橋東１丁目５番４－３１号,,27,111,5560006,,,,,,,2025-10-31,1,,,,,オイモ,0
744,3120001281582,新規,0,2025-10-31,2025-10-31,株式会社ＬＨ,,株式会社,大阪府,大阪市中央区,内平野町２丁目３番１１号ロイヤルコーポ大手門２０２号室,,27,128,5400037,,,,,,,2025-10-31,1,,,,,エルエイチ,0
745,3120001281590,新規,0,2025-10-31,2025-10-31,株式会社ＴＭＯ,,株式会社,大阪府,大阪市中央区,東心斎橋２丁目５番２７号,,27,128,5420083,,,,,,,2025-10-31,1,,,,,ティーエムオー,0
746,3120001281640,新規,0,2025-10-31,2025-10-31,株式会社Ａｎｇｅ,,株式会社,大阪府,大阪市中央区,南船場３丁目１番７日宝東心斎橋ビル２０２号室,,27,128,5420081,,,,,,,2025-10-31,1,,,,,アンジュ,0
747,3120001281657,新規,0,2025-10-31,2025-10-31,株式会社Ａｗａｉ,,株式会社,大阪府,大阪市北区,松ケ枝町６－１２西栄ビル６Ｂ,,27,127,5300037,,,,,,,2025-10-31,1,,,,,アワイ,0
754,3120003031151,新規,0,2025-10-31,2025-10-31,合同会社ＹＡＤＯＣＯＲＯ,,合同会社,大阪府,大阪市生野区,生野西１丁目３番２５号,,27,116,5440024,,,,,,,2025-10-31,1,,,,,ヤドコロ,0
756,3120005025226,新規,0,2025-10-31,2025-10-31,スタートパートナーズ司法書士法人,,その他の設立登記法人,大阪府,大阪市平野区,平野西５丁目４番１４号,,27,126,5470033,,,,,,,2025-10-31,1,,,,,スタートパートナーズ,0
759,3120101072717,新規,0,2025-10-31,2025-10-31,愛のメモ株式会社,,株式会社,大阪府,堺市堺区,向陵西町４丁６番１２－３０８号,,27,141,5900026,,,,,,,2025-10-31,1,,,,,アイノメモ,0
760,3120101072725,新規,0,2025-10-31,2025-10-31,株式会社Ａｒｔ,,株式会社,大阪府,岸和田市,土生町６丁目１３番７９号,,27,202,5960825,,,,,,,2025-10-31,1,,,,,アート,0
761,3120901051688,新規,0,2025-10-31,2025-10-31,株式会社宇都宮組,,株式会社,大阪府,高槻市,上土室１丁目６番１号,,27,207,5691044,,,,,,,2025-10-31,1,,,,,ウツノミヤグミ,0
764,3122001039829,新規,0,2025-10-31,2025-10-31,株式会社ｒｏｍａｎ‐ｔｅｃ,,株式会社,大阪府,東大阪市,渋川町２丁目３番２６号,,27,227,5770836,,,,,,,2025-10-31,1,,,,,ロマンテック,0
765,3122001039837,新規,0,2025-10-31,2025-10-31,株式会社Ｉｖｙ,,株式会社,大阪府,八尾市,沼１丁目４１番地の３,,27,212,5810036,,,,,,,2025-10-31,1,,,,,アイビー,0
770,3130003010906,新規,0,2025-10-31,2025-10-31,合同会社アルケミスト,,合同会社,京都府,京都市下京区,梅小路東町８３－２イニシア梅小路公園２３１号室,,26,106,6008857,,,,,,,2025-10-31,1,,,,,アルケミスト,0
775,3140001140555,新規,0,2025-10-31,2025-10-31,新開株式会社,,株式会社,兵庫県,尼崎市,南武庫之荘５丁目５番１５号,,28,202,6610033,,,,,,,2025-10-31,1,,,,,シンカイ,0
776,3140001140571,新規,0,2025-10-31,2025-10-31,Ｙｏｋｕｓｕｒｕ　Ｍａｒｋｅｔｉｎｇ株式会社,,株式会社,兵庫県,神戸市中央区,磯辺通４丁目２番２６号,,28,110,6510084,,,,,,,2025-10-31,1,,,,,ヨクスルマーケティング,0
777,3140001140588,新規,0,2025-10-31,2025-10-31,株式会社新居工務店,,株式会社,兵庫県,洲本市,千草乙３１番地９,,28,205,6560031,,,,,,,2025-10-31,1,,,,,シンイコウムテン,0
779,3150001028510,新規,0,2025-10-31,2025-10-31,Ｌｏｇｅｎｃｅ株式会社,,株式会社,奈良県,生駒市,真弓南２丁目９番１８号,,29,209,6300123,,,,,,,2025-10-31,1,,,,,ロジェンス,0
790,3180001169293,新規,0,2025-10-31,2025-10-31,株式会社アルーナ,,株式会社,愛知県,名古屋市中区,正木４丁目８番７号,,23,106,4600024,,,,,,,2025-10-31,1,,,,,アルーナ,0
791,3180001169302,新規,0,2025-10-31,2025-10-31,株式会社ヴィオラズ,,株式会社,愛知県,あま市,篠田居島６９番地３,,23,237,4901211,,,,,,,2025-10-31,1,,,,,ヴィオラズ,0
799,3180003029132,新規,0,2025-10-31,2025-10-31,合同会社クロスブースト,,合同会社,愛知県,名古屋市中川区,東起町２丁目１０－６,,23,110,4540935,,,,,,,2025-10-31,1,,,,,クロスブースト,0
800,3180003029297,新規,0,2025-10-31,2025-10-31,合同会社Ｂｉａｎｃａ,,合同会社,愛知県,名古屋市西区,名駅３丁目７番９号サン・名駅三丁目ビル７０２号室,,23,104,4510045,,,,,,,2025-10-31,1,,,,,ビアンカ,0
810,3180303006789,新規,0,2025-10-31,2025-10-31,合同会社グラジオ,,合同会社,愛知県,蒲郡市,三谷北通２丁目１４３番地,,23,214,4430022,,,,,,,2025-10-31,1,,,,,,0
823,3270001009317,新規,0,2025-10-31,2025-10-31,株式会社ＣＯＲＥ,,株式会社,鳥取県,鳥取市,弥生町２８０エムズビル１階Ａ号,,31,201,6800832,,,,,,,2025-10-31,1,,,,,コア,0
825,3280003002005,新規,0,2025-10-31,2025-10-31,合同会社熊家,,合同会社,島根県,松江市,上東川津町２０３３番地,,32,201,6900821,,,,,,,2025-10-31,1,,,,,クマヤ,0
829,3290001111888,新規,0,2025-10-31,2025-10-31,株式会社ソルヴィレッツ,,株式会社,福岡県,大牟田市,大字三池５２２番地８,,40,202,8370921,,,,,,,2025-10-31,1,,,,,ソルヴィレッツ,0
830,3290001111938,新規,0,2025-10-31,2025-10-31,株式会社ＮＡＷ,,株式会社,福岡県,福岡市南区,塩原３丁目１８番８－３０１号,,40,134,8150032,,,,,,,2025-10-31,1,,,,,ナウ,0
831,3290001111954,新規,0,2025-10-31,2025-10-31,ＣｌｅａｒＰａｔｈ　Ｒｅｃｒｕｉｔｍｅｎｔ株式会社,,株式会社,福岡県,福岡市中央区,舞鶴３丁目２番５号アイビル５０１号室,,40,133,8100073,,,,,,,2025-10-31,1,,,,,,0
832,3290001111962,新規,0,2025-10-31,2025-10-31,株式会社ＳＲＰ,,株式会社,福岡県,大牟田市,黄金町２丁目１２番地１８１,,40,202,8360872,,,,,,,2025-10-31,1,,,,,エスアールピー,0
833,3290001112069,新規,0,2025-10-31,2025-10-31,株式会社ゴトウエステート,,株式会社,福岡県,福岡市中央区,高砂１丁目１７番３３号,,40,133,8100011,,,,,,,2025-10-31,1,,,,,ゴトウエステート,0
838,3290003017605,新規,0,2025-10-31,2025-10-31,合同会社Ｄｒａｆｉ,,合同会社,福岡県,福岡市東区,箱崎２丁目４３番９号,,40,131,8120053,,,,,,,2025-10-31,1,,,,,ドラフィ,0
841,3320001021415,新規,0,2025-10-31,2025-10-31,株式会社ＴＢライト,,株式会社,大分県,大分市,大字片島４３３番地の２,,44,201,8700943,,,,,,,2025-10-31,1,,,,,ティービーライト,0
856,3380001035673,新規,0,2025-10-31,2025-10-31,株式会社サンライズ,,株式会社,福島県,郡山市,笹川１丁目５７番地の１,,07,203,9630108,,,,,,,2025-10-31,1,,,,,サンライズ,0
859,3410001014310,新規,0,2025-10-31,2025-10-31,株式会社アクアスカイ・ドローンサービス,,株式会社,秋田県,秋田市,中通２丁目１番３６号マグナスビル４階大森建設株式会社秋田支社内,,05,201,0100001,,,,,,,2025-10-31,1,,,,,アクアスカイドローンサービス,0
862,3700150132750,新規,0,2025-10-31,2025-10-31,ＯＢＡＡＣＨＡＭＡ’Ｓ　ＳＰＩＲＩＴ　ＬＬＣ,,外国会社等,,,,,,,,４２７８　Ｃｅｓａｒ　Ｃｈａｖｅｚ　Ｓｔｒｅｅｔ，Ｓａｎ　Ｆｒａｎｃｉｓｃｏ，Ｃａｌｉｆｏｒｎｉａ　９４１３１，ＵＳＡ,,,,,,2025-10-31,1,,,,,オバアチヤマズスピリツトエルエルシー,0
877,4010001259894,新規,0,2025-10-31,2025-10-31,株式会社ＢａｓｅｂａｌｌＰｒｏｐｅｒｔｙ,,株式会社,東京都,千代田区,内幸町２丁目１番６号,,13,101,1000011,,,,,,,2025-10-31,1,,,,,ベースボールプロパティ,0
880,4010003049187,新規,0,2025-10-31,2025-10-31,合同会社ＤｅｎｔＵｐ,,合同会社,東京都,中央区,銀座２丁目１１番１１号,,13,102,1040061,,,,,,,2025-10-31,1,,,,,デントアップ,0
881,4010003049237,新規,0,2025-10-31,2025-10-31,Ｔｏｔｓｕ　Ｂｉｚ　Ａｘｉｓ合同会社,,合同会社,東京都,中央区,新川１丁目１７番１８号,,13,102,1040033,,,,,,,2025-10-31,1,,,,,トウツウビズアクシス,0
882,4010003049245,新規,0,2025-10-31,2025-10-31,ＦＰ　Ｊａｐａｎ合同会社,,合同会社,東京都,中央区,日本橋人形町２丁目２６番８－１６０１号,,13,102,1030013,,,,,,,2025-10-31,1,,,,,エフピージャパン,0
883,4010003049261,新規,0,2025-10-31,2025-10-31,ｉプロパティ２６合同会社,,合同会社,東京都,千代田区,永田町２丁目１４番２号－３階スリーアイズキャピタル株式会社内,,13,101,1000014,,,,,,,2025-10-31,1,,,,,アイプロパティトゥエンティシックス,0
899,4010401194130,新規,0,2025-10-31,2025-10-31,株式会社ブラックス,,株式会社,東京都,港区,芝浦１丁目１１番４号,,13,103,1050023,,,,,,,2025-10-31,1,,,,,ブラックス,0
902,4010403036280,新規,0,2025-10-31,2025-10-31,合同会社Ｃａｔｅｒｂｙｔｅ,,合同会社,東京都,港区,北青山１丁目３番１号アールキューブ青山３階,,13,103,1070061,,,,,,,2025-10-31,1,,,,,キャタバイト,0
903,4010403036462,新規,0,2025-10-31,2025-10-31,Ｐｏｌｙｘｅｎａ　Ｅｎｅｒｇｙ合同会社,,合同会社,東京都,港区,元麻布３丁目１番６号,,13,103,1060046,,,,,,,2025-10-31,1,,,,,ポリゼナエナジー,0
904,4010403036470,新規,0,2025-10-31,2025-10-31,合同会社ＴＦ,,合同会社,東京都,港区,港南３丁目６番２１－２８０４号,,13,103,1080075,,,,,,,2025-10-31,1,,,,,ティーエフ,0
911,4010601068225,新規,0,2025-10-31,2025-10-31,株式会社Ｏｆｆｉｃｅ　ＮＯＺＯＭＩ,,株式会社,東京都,江東区,豊洲１丁目２番３９－１７１９号,,13,108,1350061,,,,,,,2025-10-31,1,,,,,オフィスノゾミ,0
916,4010801036725,新規,0,2025-10-31,2025-10-31,株式会社山王ＲＥＭ,,株式会社,東京都,大田区,山王３丁目１５－２１,,13,111,1430023,,,,,,,2025-10-31,1,,,,,サンノウアールイーエム,0
931,4011001173193,新規,0,2025-10-31,2025-10-31,ＡＩＵＥＯ　ＡＲＣＨＩＴＥＣＴＳ株式会社,,株式会社,東京都,渋谷区,代官山町１４番２３号,,13,113,1500034,,,,,,,2025-10-31,1,,,,,アイウエオアーキテクツ,0
932,4011001173202,新規,0,2025-10-31,2025-10-31,株式会社サードプラネット,,株式会社,東京都,渋谷区,道玄坂１丁目１０番８号渋谷道玄坂東急ビル２Ｆ－Ｃ,,13,113,1500043,,,,,,,2025-10-31,1,,,,,サードプラネット,0
933,4011001173326,新規,0,2025-10-31,2025-10-31,株式会社ＺＥＲＯ,,株式会社,東京都,渋谷区,広尾５丁目４番１６号ＥＡＴ・ＰＬＡＹ・ＷＯＲＫＳ３Ｆ,,13,113,1500012,,,,,,,2025-10-31,1,,,,,ゼロ,0
941,4011101113768,新規,0,2025-10-31,2025-10-31,株式会社エコバンカー,,株式会社,東京都,新宿区,新宿１丁目２８番１７－８０２号,,13,104,1600022,,,,,,,2025-10-31,1,,,,,エコバンカー,0
942,4011103016663,新規,0,2025-10-31,2025-10-31,合同会社Ｙ＆Ｌ,,合同会社,東京都,新宿区,西新宿３丁目３－１３西新宿水間ビル２Ｆ,,13,104,1600023,,,,,,,2025-10-31,1,,,,,ワイアンドエル,0
958,4011501032774,新規,0,2025-10-31,2025-10-31,株式会社Ｖｅｘａ,,株式会社,東京都,北区,田端６丁目９番７－３０３号,,13,117,1140014,,,,,,,2025-10-31,1,,,,,ヴェクサ,0
959,4011503006743,新規,0,2025-10-31,2025-10-31,合同会社エフィケース,,合同会社,東京都,荒川区,荒川３丁目８－５,,13,118,1160002,,,,,,,2025-10-31,1,,,,,エフィケース,0
970,4011805003496,新規,0,2025-10-31,2025-10-31,一般社団法人ＳＡＨＡＹＡ,,その他の設立登記法人,東京都,葛飾区,西水元６丁目３番８号,,13,122,1250031,,,,,,,2025-10-31,1,,,,,サハヤ,0
997,4021001086683,新規,0,2025-10-31,2025-10-31,ファースト・エフテック株式会社,,株式会社,神奈川県,相模原市緑区,橋本台１丁目３１番２５号,,14,151,2520132,,,,,,,2025-10-31,1,,,,,,0
998,4021001086691,新規,0,2025-10-31,2025-10-31,株式会社西村工業,,株式会社,神奈川県,藤沢市,鵠沼石上２丁目５番１号湘南鵠沼ビル３階Ｃ号室,00141346,14,205,2510025,,,,,,,2025-10-31,1,,,,,ニシムラコウギョウ,0
1013,4030003028008,新規,0,2025-10-31,2025-10-31,合同会社ＯｎｅＷｅａｖｅ　Ｐａｒｔｎｅｒｓ,,合同会社,埼玉県,さいたま市大宮区,下町３丁目７－１Ｓ２２１５,,11,103,3300844,,,,,,,2025-10-31,1,,,,,ワンウィーヴパートナーズ,0
1020,4040001141190,新規,0,2025-10-31,2025-10-31,ＮＯＯＫ株式会社,,株式会社,千葉県,船橋市,習志野台２丁目３８番６号,,12,204,2740063,,,,,,,2025-10-31,1,,,,,ヌーク,0
1021,4040001141199,新規,0,2025-10-31,2025-10-31,株式会社熊福,,株式会社,千葉県,柏市,花野井６２０番地５,,12,217,2770812,,,,,,,2025-10-31,1,,,,,クマフク,0
1022,4040003028898,新規,0,2025-10-31,2025-10-31,合同会社クリア,,合同会社,千葉県,富里市,御料９６４番地４５グレイル葉山２０１,,12,233,2860211,,,,,,,2025-10-31,1,,,,,クリア,0
1025,4050001057519,新規,0,2025-10-31,2025-10-31,株式会社ＴＥＮ,,株式会社,茨城県,土浦市,烏山５丁目２２１４－２,,08,203,3000836,,,,,,,2025-10-31,1,,,,,ティーイーエヌ,0
1033,4070003006174,新規,0,2025-10-31,2025-10-31,合同会社スマートプラン,,合同会社,群馬県,前橋市,大渡町１丁目１２－２,,10,201,3710854,,,,,,,2025-10-31,1,,,,,スマートプラン,0
1040,4110001039675,新規,0,2025-10-31,2025-10-31,ＹＡＱＯＯＢ　ＳＯＮＳ　ＴＲＡＤＩＮＧ株式会社,,株式会社,新潟県,新発田市,舟入町１丁目２番３０号アーバンエステート１０２,,15,206,9570065,,,,,,,2025-10-31,1,,,,,ヤクブサンストレーディング,0
1058,4120001281466,新規,0,2025-10-31,2025-10-31,株式会社Ｏｎｌｙ１,,株式会社,大阪府,大阪市中央区,北久宝寺町４丁目４番１５号,,27,128,5410057,,,,,,,2025-10-31,1,,,,,オンリーワン,0
1059,4120001281598,新規,0,2025-10-31,2025-10-31,豊書合株式会社,,株式会社,大阪府,大阪市東住吉区,西今川３丁目２２番１号西今川３０１号室,,27,121,5460042,,,,,,,2025-10-31,1,,,,,ホウショゴウ,0
1060,4120001281623,新規,0,2025-10-31,2025-10-31,ＲＯＫＦＯＲＴ株式会社,,株式会社,大阪府,大阪市淀川区,東三国６丁目２３－１７－２０５,,27,123,5320002,,,,,,,2025-10-31,1,,,,,ロックフォート,0
1061,4120001281656,新規,0,2025-10-31,2025-10-31,みなもと株式会社,,株式会社,大阪府,大阪市城東区,野江４丁目１４番２号,,27,118,5360006,,,,,,,2025-10-31,1,,,,,ミナモト,0
1064,4120003031101,新規,0,2025-10-31,2025-10-31,合同会社ＨＡＴＡＮＯ,,合同会社,大阪府,大阪市浪速区,塩草１丁目３－２,,27,111,5560024,,,,,,,2025-10-31,1,,,,,ハタノ,0
1065,4120003031126,新規,0,2025-10-31,2025-10-31,合同会社スマートクリエイティブラボ,,合同会社,大阪府,大阪市北区,梅田１丁目２番２号大阪駅前第２ビル１２－１２,,27,127,5300001,,,,,,,2025-10-31,1,,,,,スマートクリエイティブラボ,0
1066,4120101072708,新規,0,2025-10-31,2025-10-31,株式会社一陽来福,,株式会社,大阪府,富田林市,寺池台３丁目８番２３号,,27,214,5840073,,,,,,,2025-10-31,1,,,,,イチヨウライフク,0
1067,4120101072716,新規,0,2025-10-31,2025-10-31,栄グローバル株式会社,,株式会社,大阪府,堺市北区,北花田町３丁４５番地４（１ＦＤ号室）,,27,146,5918002,,,,,,,2025-10-31,1,,,,,サカエグローバル,0
1070,4120901051695,新規,0,2025-10-31,2025-10-31,株式会社フットゾーントレーディング,,株式会社,大阪府,高槻市,真上町４丁目３番１号,,27,207,5691121,,,,,,,2025-10-31,1,,,,,フットゾーントレーディング,0
1071,4120901051745,新規,0,2025-10-31,2025-10-31,株式会社ＹＰＫ,,株式会社,大阪府,豊中市,二葉町１丁目１４番１５,,27,203,5610825,,,,,,,2025-10-31,1,,,,,ワイピーケー,0
1084,4140001140587,新規,0,2025-10-31,2025-10-31,ＭｅｉＭｅｉ株式会社,,株式会社,兵庫県,神戸市北区,松宮台１丁目５番地の１８,,28,109,6511147,,,,,,,2025-10-31,1,,,,,メイメイ,0
1085,4140001140595,新規,0,2025-10-31,2025-10-31,株式会社昼のようちえん夜のほいくえん,,株式会社,兵庫県,神戸市東灘区,住吉南町２丁目１１番１２号,,28,101,6580041,,,,,,,2025-10-31,1,,,,,ヒルノヨウチエンヨルノホイクエン,0
1086,4140001140637,新規,0,2025-10-31,2025-10-31,株式会社カケザン,,株式会社,兵庫県,芦屋市,翠ケ丘町１７－１０,,28,206,6590014,,,,,,,2025-10-31,1,,,,,カケザン,0
1088,4140003022791,新規,0,2025-10-31,2025-10-31,合同会社ケイワイコーポレーション,,合同会社,兵庫県,西宮市,甲子園口３丁目２６番２７号,,28,204,6638113,,,,,,,2025-10-31,1,,,,,ケイワイコーポレーション,0
1089,4140003022800,新規,0,2025-10-31,2025-10-31,合同会社ｇｒｏｗ,,合同会社,兵庫県,尼崎市,神田中通３丁目７９パレ正規３０７,,28,202,6600884,,,,,,,2025-10-31,1,,,,,グロウ,0
1100,4180001169350,新規,0,2025-10-31,2025-10-31,株式会社ＥＮＩＣＩＹＡ,,株式会社,愛知県,一宮市,北方町北方字西泉屋郷２１７番地１,,23,203,4938001,,,,,,,2025-10-31,1,,,,,エニシヤ,0
1104,4180003029296,新規,0,2025-10-31,2025-10-31,合同会社Ａｍｉｃａ,,合同会社,愛知県,瀬戸市,北みずの坂２丁目８番地の２１,,23,204,4890910,,,,,,,2025-10-31,1,,,,,アミカ,0
1108,4180301040368,新規,0,2025-10-31,2025-10-31,株式会社Ｋ’ｓ,,株式会社,愛知県,豊田市,四郷町森前南７番地４Ｔステージ豊田四郷レガリアイースト１４０２号,,23,211,4700373,,,,,,,2025-10-31,1,,,,,ケーズ,0
1112,4190003005239,新規,0,2025-10-31,2025-10-31,合同会社福昇,,合同会社,三重県,伊賀市,下友生２８６０番地２階２０２号室,,24,216,5180817,,,,,,,2025-10-31,1,,,,,フクショウ,0
1114,4200001044377,新規,0,2025-10-31,2025-10-31,株式会社栄養の杜,,株式会社,岐阜県,可児市,皐ケ丘７丁目６７番地,,21,214,5090236,,,,,,,2025-10-31,1,,,,,エイヨウノモリ,0
1123,4240005016006,新規,0,2025-10-31,2025-10-31,一般財団法人湯之山明神社崇敬会,,その他の設立登記法人,広島県,広島市佐伯区,湯来町大字和田４７１番地,,34,108,7380601,,,,,,,2025-10-31,1,,,,,ユノヤマミョウジンシャスウケイカイ,0
1125,4260001040692,新規,0,2025-10-31,2025-10-31,株式会社プラスチックス,,株式会社,岡山県,岡山市北区,田町１丁目７番５号,,33,101,7000825,,,,,,,2025-10-31,1,,,,,プラスチックス,0
1130,4290001111879,新規,0,2025-10-31,2025-10-31,Ｒ３マネジメント株式会社,,株式会社,福岡県,福岡市博多区,吉塚２丁目２０番４８,,40,132,8120041,,,,,,,2025-10-31,1,,,,,アールスリーマネジメント,0
1131,4290001111895,新規,0,2025-10-31,2025-10-31,株式会社ＦＩＶＥＳ,,株式会社,福岡県,福岡市南区,三宅１丁目２６番１７号,,40,134,8111344,,,,,,,2025-10-31,1,,,,,ファイブス,0
1132,4290001111945,新規,0,2025-10-31,2025-10-31,株式会社ミチクリエイト,,株式会社,福岡県,福岡市西区,室見が丘１丁目２１番６号,,40,135,8190030,,,,,,,2025-10-31,1,,,,,ミチクリエイト,0
1133,4290001111961,新規,0,2025-10-31,2025-10-31,株式会社ＡＳＥＡＮスタッフサービス,,株式会社,福岡県,福岡市中央区,天神２丁目２番１２号７Ｆ,,40,133,8100001,,,,,,,2025-10-31,1,,,,,,0
1142,4320001021422,新規,0,2025-10-31,2025-10-31,株式会社ＳＴＯ,,株式会社,大分県,大分市,三川上３丁目１番１３号,,44,201,8700143,,,,,,,2025-10-31,1,,,,,エスティーオー,0
1144,4330001033706,新規,0,2025-10-31,2025-10-31,株式会社ＳＯＮＯＫＡＷＡ,,株式会社,熊本県,八代市,田中東町弐壱号４番地２,,43,202,8660871,,,,,,,2025-10-31,1,,,,,ソノカワ,0
1145,4330001033714,新規,0,2025-10-31,2025-10-31,株式会社やまびこ,,株式会社,熊本県,合志市,野々島４４１４番地２８０,,43,216,8611103,,,,,,,2025-10-31,1,,,,,ヤマビコ,0
1149,4340001027731,新規,0,2025-10-31,2025-10-31,株式会社冨田商会,,株式会社,鹿児島県,霧島市,霧島田口２６３８番地３２９,,46,218,8994201,,,,,,,2025-10-31,1,,,,,トミタショウカイ,0
1151,4350001019793,新規,0,2025-10-31,2025-10-31,株式会社ＫＡＬＩＫＡ,,株式会社,宮崎県,宮崎市,日ノ出町５番地１,,45,201,8800856,,,,,,,2025-10-31,1,,,,,カリカ,0
1169,4430001095570,新規,0,2025-10-31,2025-10-31,株式会社エッセンスイマジン,,株式会社,北海道,札幌市豊平区,平岸五条６丁目２番２０－４０１号,,01,105,0620935,,,,,,,2025-10-31,1,,,,,エッセンスイマジン,0
1171,4490001011200,新規,0,2025-10-31,2025-10-31,株式会社大福市場,,株式会社,高知県,土佐清水市,足摺岬４６８番地,,39,209,7870315,,,,,,,2025-10-31,1,,,,,ダイフクイチバ,0
1186,5010001259803,新規,0,2025-10-31,2025-10-31,株式会社Ｋａｋｅｋｏｍｉ,,株式会社,東京都,中央区,日本橋２丁目１６－４ｒｅｍｉｘ日本橋６階,,13,102,1030027,,,,,,,2025-10-31,1,,,,,カケコミ,0
1189,5010003049194,新規,0,2025-10-31,2025-10-31,ＴＩＸＡ１ＨＯＭＥＳ合同会社,,合同会社,東京都,千代田区,霞が関３丁目２番５号,,13,101,1000013,,,,,,,2025-10-31,1,,,,,ティクサワンホームズ,0
1194,5010005040878,新規,0,2025-10-31,2025-10-31,一般社団法人こころわ,,その他の設立登記法人,東京都,千代田区,麹町６丁目２番地６千代田麹町レジデンス１４０３,,13,101,1020083,,,,,,,2025-10-31,1,,,,,ココロワ,0
1195,5010103002689,新規,0,2025-10-31,2025-10-31,ＦｉｖｅＨｏｐｅ合同会社,,合同会社,東京都,八王子市,堀之内５３２番地１２,,13,201,1920355,,,,,,,2025-10-31,1,,,,,ファイブホープ,0
1203,5010401194105,新規,0,2025-10-31,2025-10-31,株式会社東京事業承継ＥＲ,,株式会社,東京都,港区,赤坂７丁目１１－１２－１１０５,,13,103,1070052,,,,,,,2025-10-31,1,,,,,トウキョウジギョウショウケイイーアール,0
1204,5010401194187,新規,0,2025-10-31,2025-10-31,株式会社ラ・フェリシテ,,株式会社,東京都,港区,麻布十番１丁目２－７ラフィネ麻布十番７０１号室,,13,103,1060045,,,,,,,2025-10-31,1,,,,,ラフェリシテ,0
1212,5010601068216,新規,0,2025-10-31,2025-10-31,株式会社会計事務所ＴＡＭＯＮ,,株式会社,東京都,江東区,豊洲５丁目６番３６号豊洲プライムスクエア１０階,,13,108,1350061,,,,,,,2025-10-31,1,,,,,カイケイジムショタモン,0
1217,5010801036716,新規,0,2025-10-31,2025-10-31,榊総業株式会社,,株式会社,東京都,大田区,上池台２丁目３３－１０オークレット洗足池２０３,,13,111,1450064,,,,,,,2025-10-31,1,,,,,サカキソウギョウ,0
1218,5010801036732,新規,0,2025-10-31,2025-10-31,株式会社Ｍｏｆｆ　Ｌｉｎｋ,,株式会社,東京都,大田区,南馬込６丁目１１番１５‐５０２号,,13,111,1430025,,,,,,,2025-10-31,1,,,,,モフリンク,0
1219,5010801036740,新規,0,2025-10-31,2025-10-31,株式会社Ｗａｌｕｘｅ,,株式会社,東京都,大田区,北千束２丁目３３－１２,,13,111,1450062,,,,,,,2025-10-31,1,,,,,ワリュックス,0
1221,5010901058354,新規,0,2025-10-31,2025-10-31,株式会社コノミチ,,株式会社,東京都,世田谷区,太子堂４丁目１８番１５号マガザン三軒茶屋２－３Ｆ－３,,13,112,1540004,,,,,,,2025-10-31,1,,,,,コノミチ,0
1226,5011001173143,新規,0,2025-10-31,2025-10-31,羽集株式会社,,株式会社,東京都,渋谷区,恵比寿２丁目２４番６－２１０号,,13,113,1500013,,,,,,,2025-10-31,1,,,,,ハネシュウ,0
1227,5011001173201,新規,0,2025-10-31,2025-10-31,株式会社Ｏｈ　Ｍａｅ　Ｍａｙ,,株式会社,東京都,渋谷区,恵比寿西２丁目４番８号ウィンド恵比寿ビル８Ｆ,,13,113,1500021,,,,,,,2025-10-31,1,,,,,オメメ,0
1228,5011001173259,新規,0,2025-10-31,2025-10-31,株式会社ファシトデ,,株式会社,東京都,渋谷区,道玄坂１丁目１０番８号渋谷道玄坂東急ビル２Ｆ－Ｃ,,13,113,1500043,,,,,,,2025-10-31,1,,,,,ファシトデ,0
1229,5011001173325,新規,0,2025-10-31,2025-10-31,株式会社Ｂａｓｔｉｒａ,,株式会社,東京都,渋谷区,神山町２５番２号１Ｆ,,13,113,1500047,,,,,,,2025-10-31,1,,,,,バスティラ,0
1232,5011003022769,新規,0,2025-10-31,2025-10-31,合同会社アカミチ,,合同会社,東京都,目黒区,大岡山１丁目１６番６号,,13,110,1520033,,,,,,,2025-10-31,1,,,,,アカミチ,0
1233,5011005011225,新規,0,2025-10-31,2025-10-31,一般社団法人東京都ｅスポーツ協会,,その他の設立登記法人,東京都,渋谷区,神宮前６丁目３３番１号ラ．メーゾン．ド．ローズ２－Ｃ,,13,113,1500001,,,,,,,2025-10-31,1,,,,,トウキョウトイースポーツキョウカイ,0
1238,5011103016547,新規,0,2025-10-31,2025-10-31,合同会社Ｐｏｎｔ　Ｍｉｙａｂｉ,,合同会社,東京都,新宿区,新宿２丁目１２番１３号新宿アントレサロンビル２階,,13,104,1600022,,,,,,,2025-10-31,1,,,,,ポンミヤビ,0
1246,5011501032781,新規,0,2025-10-31,2025-10-31,ＳＫホールディングス株式会社,,株式会社,東京都,北区,西ケ原２丁目８番１－４２１号,,13,117,1140024,,,,,,,2025-10-31,1,,,,,エスケーホールディングス,0
1247,5011503006759,新規,0,2025-10-31,2025-10-31,森田畳店合同会社,,合同会社,東京都,荒川区,西日暮里４丁目２８番９号,,13,118,1160013,,,,,,,2025-10-31,1,,,,,モリタタタミテン,0
1249,5011701028902,新規,0,2025-10-31,2025-10-31,株式会社Ｍ・Ｓ・Ｋ,,株式会社,東京都,江戸川区,上篠崎４丁目２８－７ガーデンヒルズ吉田３０１号,,13,123,1330054,,,,,,,2025-10-31,1,,,,,エムエスケ,0
1257,5012303002238,新規,0,2025-10-31,2025-10-31,合同会社スタジオラプラプ,,合同会社,東京都,町田市,本町田１１５６番地７,,13,209,1940032,,,,,,,2025-10-31,1,,,,,スタジオラプラプ,0
1259,5012401043737,新規,0,2025-10-31,2025-10-31,株式会社ＧＡＴＺ,,株式会社,東京都,武蔵野市,吉祥寺南町２丁目１７―４,,13,203,1800003,,,,,,,2025-10-31,1,,,,,ガッツ,0
1264,5013301055203,新規,0,2025-10-31,2025-10-31,永大貿易株式会社,,株式会社,東京都,豊島区,池袋２丁目３６番１号,,13,116,1710014,,,,,,,2025-10-31,1,,,,,エイダイボウエキ,0
1275,5021001086682,新規,0,2025-10-31,2025-10-31,株式会社ＫＡＷＡ,,株式会社,神奈川県,秦野市,東田原２９６番地の１,,14,211,2570028,,,,,,,2025-10-31,1,,,,,カワ,0
1276,5021001086690,新規,0,2025-10-31,2025-10-31,ＮＵＣＬＥＡＲ株式会社,,株式会社,神奈川県,大和市,西鶴間１丁目１０－５,,14,213,2420005,,,,,,,2025-10-31,1,,,,,ニュークリア,0
1280,5021003016753,新規,0,2025-10-31,2025-10-31,合同会社生形商事,,合同会社,神奈川県,藤沢市,辻堂３丁目１５番８号シェルコート３０８,,14,205,2510047,,,,,,,2025-10-31,1,,,,,ウブカタショウジ,0
1285,5030001169414,新規,0,2025-10-31,2025-10-31,株式会社Ｓ・Ｂ・Ｄ,,株式会社,埼玉県,志木市,下宗岡１丁目５番９号,,11,228,3530003,,,,,,,2025-10-31,1,,,,,エスビーディー,0
1286,5030001169463,新規,0,2025-10-31,2025-10-31,株式会社サンノ,,株式会社,埼玉県,蕨市,塚越１丁目９番２０号ブリリア蕨６０５号,,11,223,3350002,,,,,,,2025-10-31,1,,,,,サンノ,0
1287,5030003027958,新規,0,2025-10-31,2025-10-31,合同会社Ｅ．Ｃ．Ｓ．Ｒ,,合同会社,埼玉県,川越市,大字鯨井１８０６番地（エスパース・リッシュ２０３号室）,,11,201,3500815,,,,,,,2025-10-31,1,,,,,イーシーエスアール,0
1288,5030003027990,新規,0,2025-10-31,2025-10-31,合同会社でど,,合同会社,埼玉県,草加市,谷塚町９８３番地,,11,221,3400023,,,,,,,2025-10-31,1,,,,,デド,0
1306,5060001038723,新規,0,2025-10-31,2025-10-31,メンテナンスまるみ株式会社,,株式会社,栃木県,鹿沼市,千渡１８８５番地１５,,09,205,3220002,,,,,,,2025-10-31,1,,,,,メンテナンスマルミ,0
1309,5070001043499,新規,0,2025-10-31,2025-10-31,サクライホールディングス株式会社,,株式会社,群馬県,桐生市,相生町４丁目２４７番地３３,,10,203,3760011,,,,,,,2025-10-31,1,,,,,,0
1319,5110003005947,新規,0,2025-10-31,2025-10-31,合同会社かんざし,,合同会社,新潟県,新潟市中央区,弁天橋通３丁目９－９,,15,103,9500925,,,,,,,2025-10-31,1,,,,,カンザシ,0
1335,5120001281374,新規,0,2025-10-31,2025-10-31,株式会社ウイング,,株式会社,大阪府,大阪市西成区,南津守７丁目１３番３０号,,27,122,5570063,,,,,,,2025-10-31,1,,,,,ウイング,0
1336,5120001281597,新規,0,2025-10-31,2025-10-31,株式会社トライト,,株式会社,大阪府,大阪市淀川区,東三国２丁目３２番１７号ループ大阪,,27,123,5320002,,,,,,,2025-10-31,1,,,,,トライト,0
1337,5120001281606,新規,0,2025-10-31,2025-10-31,拓実っち株式会社,,株式会社,大阪府,寝屋川市,上神田１丁目１２番２号,,27,215,5720052,,,,,,,2025-10-31,1,,,,,タクミッチ,0
1338,5120001281647,新規,0,2025-10-31,2025-10-31,株式会社大日総合会計,,株式会社,大阪府,守口市,大日東町４番Ｄ－６０２号,,27,209,5700016,,,,,,,2025-10-31,1,,,,,ダイニチソウゴウカイケイ,0
1339,5120001281655,新規,0,2025-10-31,2025-10-31,株式会社ＡＵＲＥＬＩＡ　ａｎｄ　Ｃｏ．Ｌｔｄ．,,株式会社,大阪府,大阪市北区,梅田３丁目２番１２３号,,27,127,5300001,,,,,,,2025-10-31,1,,,,,オーレリアアンドカンパニーリミテッド,0
1340,5120001281688,新規,0,2025-10-31,2025-10-31,ＣＥＮＴＵＲＹ株式会社,,株式会社,大阪府,大阪市天王寺区,上之宮町６番３号,,27,109,5430037,,,,,,,2025-10-31,1,,,,,センチュリー,0
1342,5120003031109,新規,0,2025-10-31,2025-10-31,合同会社Ｙ’ｓ　Ｌｉｎｏ,,合同会社,大阪府,大阪市港区,八幡屋２丁目２番１３号,,27,107,5520014,,,,,,,2025-10-31,1,,,,,ワイズリノ,0
1343,5120003031117,新規,0,2025-10-31,2025-10-31,合同会社ＭＴＳ,,合同会社,大阪府,大阪市中央区,南本町４丁目３番１６－３５０３号,,27,128,5410054,,,,,,,2025-10-31,1,,,,,エムティーエス,0
1344,5120003031141,新規,0,2025-10-31,2025-10-31,合同会社ワザモノｗｏｒｋｓ,,合同会社,大阪府,大阪市福島区,大開１丁目１３－３６ウィスタリア大開３０１号室,,27,103,5530007,,,,,,,2025-10-31,1,,,,,ワザモノワークス,0
1351,5120901051736,新規,0,2025-10-31,2025-10-31,大阪買取流通株式会社,,株式会社,大阪府,吹田市,江坂町２丁目２５番２５号,,27,205,5640063,,,,,,,2025-10-31,1,,,,,オオサカカイトリリュウツウ,0
1359,5130001080610,新規,0,2025-10-31,2025-10-31,株式会社堂島エクスペアリエンス,,株式会社,京都府,京都市北区,等持院南町１９番地１７,,26,101,6038344,,,,,,,2025-10-31,1,,,,,ドウジマエクスペアリエンス,0
1369,5140001140594,新規,0,2025-10-31,2025-10-31,読売但馬販売株式会社,,株式会社,兵庫県,豊岡市,大手町８番２２号,,28,209,6680031,,,,,,,2025-10-31,1,,,,,ヨミウリタジマハンバイ,0
1385,5180003029196,新規,0,2025-10-31,2025-10-31,合同会社ＰＲＩＭＥ　ＳＴＹＬＥ,,合同会社,愛知県,瀬戸市,塩草が丘３丁目八十番地,,23,204,4890899,,,,,,,2025-10-31,1,,,,,プライムスタイル,0
1386,5180003029320,新規,0,2025-10-31,2025-10-31,合同会社ぐしけん商店,,合同会社,愛知県,名古屋市名東区,よもぎ台３丁目９０１番地,,23,115,4650091,,,,,,,2025-10-31,1,,,,,グシケンショウテン,0
1388,5180301040367,新規,0,2025-10-31,2025-10-31,株式会社膳丸,,株式会社,愛知県,新城市,一鍬田字外畑３番地２,,23,221,4411338,,,,,,,2025-10-31,1,,,,,ゼンマル,0
1396,5200001044384,新規,0,2025-10-31,2025-10-31,株式会社東海設備,,株式会社,岐阜県,岐阜市,茜部辰新２丁目３０番地１,,21,201,5008264,,,,,,,2025-10-31,1,,,,,トウカイセツビ,0
1398,5210003001969,新規,0,2025-10-31,2025-10-31,合同会社Ｏｐｅｒｏ,,合同会社,福井県,福井市,大宮３丁目２１番２１号アイメゾン重藤２０１,,18,201,9100016,,,,,,,2025-10-31,1,,,,,オペロ,0
1409,5260001040691,新規,0,2025-10-31,2025-10-31,株式会社サードワン,,株式会社,岡山県,岡山市南区,浜野３丁目２２番２２－１号,,33,104,7000845,,,,,,,2025-10-31,1,,,,,サードワン,0
1419,5290001111886,新規,0,2025-10-31,2025-10-31,株式会社Ｂｉｇ　Ｍｏｕｎｔ　ａｎｄ　Ｃｏｍｐａｎｙ,,株式会社,福岡県,筑後市,大字下北島１３９,,40,211,8330034,,,,,,,2025-10-31,1,,,,,ビッグマウントアンドカンパニー,0
1420,5290001111928,新規,0,2025-10-31,2025-10-31,筑前不動産株式会社,,株式会社,福岡県,福岡市中央区,笹丘１丁目３２番３号,,40,133,8100034,,,,,,,2025-10-31,1,,,,,チクゼンフドウサン,0
1421,5290001111944,新規,0,2025-10-31,2025-10-31,株式会社Ｃｏ‐ａｎｙｔｈｉｎｇ,,株式会社,福岡県,福岡市中央区,渡辺通５丁目２－１０渡辺通プレイス７０１,,40,133,8100004,,,,,,,2025-10-31,1,,,,,コエニシング,0
1422,5290001111952,新規,0,2025-10-31,2025-10-31,金井鉱山株式会社,,株式会社,福岡県,八女市,星野村１７１６３番地３,,40,210,8340201,,,,,,,2025-10-31,1,,,,,キンセイコウザン,0
1432,5290003017603,新規,0,2025-10-31,2025-10-31,ジャスミンコード合同会社,,合同会社,福岡県,福岡市博多区,博多駅前１丁目２３番２号ＰａｒｋＦｒｏｎｔ博多駅前１丁目５Ｆ－Ｂ,,40,132,8120011,,,,,,,2025-10-31,1,,,,,ジャスミンコード,0
1435,5290801031994,新規,0,2025-10-31,2025-10-31,株式会社ＬＲＭ,,株式会社,福岡県,北九州市小倉北区,古船場町８番１号（４Ｆ）,,40,106,8020082,,,,,,,2025-10-31,1,,,,,エルアールエム,0
1438,5320001021421,新規,0,2025-10-31,2025-10-31,Ｐｒｅｍｏ株式会社,,株式会社,大分県,大分市,西大道３丁目２番６１号,,44,201,8700820,,,,,,,2025-10-31,1,,,,,プレモ,0
1444,5350001019792,新規,0,2025-10-31,2025-10-31,ひなたファーマ株式会社,,株式会社,宮崎県,延岡市,博労町１番地８,,45,203,8820044,,,,,,,2025-10-31,1,,,,,ヒナタファーマ,0
1457,5380001035671,新規,0,2025-10-31,2025-10-31,福島自動車工業株式会社,,株式会社,福島県,会津若松市,桜町９６番地の８,,07,202,9650854,,,,,,,2025-10-31,1,,,,,フクシマジドウシャコウギョウ,0
1460,5380003006175,新規,0,2025-10-31,2025-10-31,サニーポート合同会社,,合同会社,福島県,いわき市,平下荒川字諏訪下４０番地の１３,,07,204,9708032,,,,,,,2025-10-31,1,,,,,サニーポート,0
1462,5400001017221,新規,0,2025-10-31,2025-10-31,株式会社旨辛研究所,,株式会社,岩手県,奥州市,水沢神明町１丁目５番３７号,,03,215,0230821,,,,,,,2025-10-31,1,,,,,ウマカラケンキュウジョ,0
1468,5470001020945,新規,0,2025-10-31,2025-10-31,株式会社オートプロダクト,,株式会社,香川県,坂出市,京町３丁目４－１３,,37,203,7620001,,,,,,,2025-10-31,1,,,,,,0
1477,6010001259513,新規,0,2025-10-31,2025-10-31,株式会社Ｒｉｃｈｅｓｓｓ,,株式会社,東京都,文京区,千石４丁目６番２４号,,13,105,1120011,,,,,,,2025-10-31,1,,,,,リシェス,0
1478,6010001259810,新規,0,2025-10-31,2025-10-31,株式会社Ｅｖｏｌｖｅ,,株式会社,東京都,文京区,西片１丁目２番２号,,13,105,1130024,,,,,,,2025-10-31,1,,,,,エボルブ,0
1479,6010001259843,新規,0,2025-10-31,2025-10-31,株式会社アスラホールディングス,,株式会社,東京都,千代田区,神田神保町３丁目１２－３神保町スリービル８階,,13,101,1010051,,,,,,,2025-10-31,1,,,,,アスラホールディングス,0
1480,6010001259918,新規,0,2025-10-31,2025-10-31,株式会社キューニーゴ,,株式会社,東京都,千代田区,神田和泉町１番地６－１６ヤマトビル４０５,,13,101,1010024,,,,,,,2025-10-31,1,,,,,キューニーゴ,0
1486,6010003049202,新規,0,2025-10-31,2025-10-31,合同会社Ｈｉｇｇｓ,,合同会社,東京都,中央区,銀座１丁目１２－４Ｎ＆ＥＢＬＤ．７階,,13,102,1040061,,,,,,,2025-10-31,1,,,,,ヒッグス,0
1487,6010003049251,新規,0,2025-10-31,2025-10-31,ＳＭ１合同会社,,合同会社,東京都,千代田区,霞が関３丁目２番５号,,13,101,1000013,,,,,,,2025-10-31,1,,,,,エスエムワン,0
1489,6010005040877,新規,0,2025-10-31,2025-10-31,一般社団法人辰野蓄電所,,その他の設立登記法人,東京都,千代田区,二番町３番地麹町スクエア株式会社シリウス・アドバイザリー内,,13,101,1020084,,,,,,,2025-10-31,1,,,,,タツノハツデンショ,0
1498,6010401194104,新規,0,2025-10-31,2025-10-31,Ｌｉｎｄｏｕ株式会社,,株式会社,東京都,港区,北青山１丁目３－３三橋ビル３階,,13,103,1070061,,,,,,,2025-10-31,1,,,,,リンドウ,0
1499,6010401194112,新規,0,2025-10-31,2025-10-31,株式会社ＫＧＳエネルギーパートナーズ,,株式会社,東京都,港区,新橋２丁目１６番１号,,13,103,1050004,,,,,,,2025-10-31,1,,,,,ケージーエスエネルギーパートナーズ,0
1500,6010401194145,新規,0,2025-10-31,2025-10-31,株式会社コミュニティマーケティング総研,,株式会社,東京都,港区,芝４丁目７番６号芝ビルディング７０４,,13,103,1080014,,,,,,,2025-10-31,1,,,,,コミュニティマーケティングソウケン,0
1501,6010401194194,新規,0,2025-10-31,2025-10-31,ユラギ株式会社,,株式会社,東京都,港区,北青山１丁目３－３三橋ビル３階,,13,103,1070061,,,,,,,2025-10-31,1,,,,,ユラギ,0
1502,6010401194211,新規,0,2025-10-31,2025-10-31,株式会社Ａｘｉｓ,,株式会社,東京都,港区,六本木７丁目１７番１２－２１８号,,13,103,1060032,,,,,,,2025-10-31,1,,,,,アクシス,0
1507,6010403036477,新規,0,2025-10-31,2025-10-31,合同会社レジデンスアセットソリューション５号,,合同会社,東京都,港区,港南２丁目１５番３号,,13,103,1080075,,,,,,,2025-10-31,1,,,,,レジデンスアセットソリューションゴゴウ,0
1509,6010405024942,新規,0,2025-10-31,2025-10-31,一般社団法人Ｒａｏｈ　ｃａｐｉｔａｌ,,その他の設立登記法人,東京都,港区,芝浦１丁目１番１号,,13,103,1050023,,,,,,,2025-10-31,1,,,,,ラオウキャピタル,0
1511,6010501054959,新規,0,2025-10-31,2025-10-31,株式会社ミートラボ,,株式会社,東京都,台東区,東浅草２丁目９番３号,,13,106,1110025,,,,,,,2025-10-31,1,,,,,ミートラボ,0
1513,6010503008062,新規,0,2025-10-31,2025-10-31,ＤＥＮＮＡＭＡ合同会社,,合同会社,東京都,台東区,蔵前１丁目７番１０号５Ｆ,,13,106,1110051,,,,,,,2025-10-31,1,,,,,デンナマ,0
1515,6010505003656,新規,0,2025-10-31,2025-10-31,一般社団法人国際無形文化遺産交流協会,,その他の設立登記法人,東京都,台東区,東上野４丁目１７番１１－７０２号シャトレー上野,,13,106,1100015,,,,,,,2025-10-31,1,,,,,コクサイムケイブンカイサンコウリュウキョウカイ,0
1521,6010703007979,新規,0,2025-10-31,2025-10-31,アドバンスワーク合同会社,,合同会社,東京都,品川区,西五反田８丁目８番地１４マンション五反田１１０１,,13,109,1410031,,,,,,,2025-10-31,1,,,,,アドバンスワーク,0
1524,6010901058378,新規,0,2025-10-31,2025-10-31,株式会社ＴＧネクサス,,株式会社,東京都,世田谷区,駒沢２丁目４９番９号,,13,112,1540012,,,,,,,2025-10-31,1,,,,,ティージーネクサス,0
1525,6010901058386,新規,0,2025-10-31,2025-10-31,株式会社ｉ．ｔ．ｏ．,,株式会社,東京都,世田谷区,代沢３丁目７番２３号,,13,112,1550032,,,,,,,2025-10-31,1,,,,,アイティーオー,0
1535,6011101113667,新規,0,2025-10-31,2025-10-31,Ａａｒａｍｂｈａ株式会社,,株式会社,東京都,新宿区,百人町１丁目６番２７号新宿マンション３０２,,13,104,1690073,,,,,,,2025-10-31,1,,,,,アラムバ,0
1537,6011103016612,新規,0,2025-10-31,2025-10-31,Ｔｒｉｖｉｔｏ２合同会社,,合同会社,東京都,新宿区,四谷２丁目９番地１５東京ユナイテッド綜合事務所内,,13,104,1600004,,,,,,,2025-10-31,1,,,,,トリビトツー,0
1538,6011103016620,新規,0,2025-10-31,2025-10-31,合同会社シードアシード,,合同会社,東京都,新宿区,西新宿３丁目３番１３号西新宿水間ビル２Ｆ,,13,104,1600023,,,,,,,2025-10-31,1,,,,,シードアシード,0
1540,6011401027542,新規,0,2025-10-31,2025-10-31,株式会社ＳＵＮＬＩＦＴ,,株式会社,東京都,板橋区,高島平８丁目１２－１,,13,119,1750082,,,,,,,2025-10-31,1,,,,,サンリフト,0
1549,6011801047000,新規,0,2025-10-31,2025-10-31,株式会社ｓｔｕｄｉｏ　ａｘｉｓ,,株式会社,東京都,葛飾区,東金町１丁目３９番１－１００５号,,13,122,1250041,,,,,,,2025-10-31,1,,,,,スタジオアクシス,0
1555,6012301014580,新規,0,2025-10-31,2025-10-31,株式会社ＧＩＯＮ町田アリーナ,,株式会社,東京都,町田市,原町田１丁目１３－１町田ハイツ壱番館１－３,,13,209,1940013,,,,,,,2025-10-31,1,,,,,ギオンマチダアリーナ,0
1560,6013103001503,新規,0,2025-10-31,2025-10-31,合同会社ＲＥＰＲＥＺＮＴ,,合同会社,東京都,福生市,大字熊川５０５番地小林畳店内倉庫,,13,218,1970003,,,,,,,2025-10-31,1,,,,,レプレゼント,0
1583,6021001086681,新規,0,2025-10-31,2025-10-31,株式会社Ｍａｒｉｓａｎｃ,,株式会社,神奈川県,伊勢原市,高森１２１６番地,,14,214,2591114,,,,,,,2025-10-31,1,,,,,マリサンク,0
1584,6021003016686,新規,0,2025-10-31,2025-10-31,ＪＰＭ　ＴＲＡＤＩＮＧ合同会社,,合同会社,神奈川県,厚木市,上荻野２２５７番地２,,14,212,2430201,,,,,,,2025-10-31,1,,,,,ジェイピイエムトレーディング,0
1585,6021003016760,新規,0,2025-10-31,2025-10-31,合同会社ＹｍＩＴアセットマネジメント,,合同会社,神奈川県,大和市,中央林間７丁目９番５－１２０５号,,14,213,2420007,,,,,,,2025-10-31,1,,,,,ワイエムアイティーアセットマネジメント,0
1597,6030001169438,新規,0,2025-10-31,2025-10-31,株式会社徳栄建設,,株式会社,埼玉県,さいたま市見沼区,大字膝子５８６番地,,11,104,3370021,,,,,,,2025-10-31,1,,,,,トクエイケンセツ,0
1601,6030003027965,新規,0,2025-10-31,2025-10-31,合同会社Ｇｒａｔｉａ,,合同会社,埼玉県,越谷市,大字蒲生３８５３－６,,11,222,3430838,,,,,,,2025-10-31,1,,,,,グラーティア,0
1602,6030003027981,新規,0,2025-10-31,2025-10-31,碧綾アークス合同会社,,合同会社,埼玉県,新座市,栄５丁目２番４号,,11,230,3520014,,,,,,,2025-10-31,1,,,,,ヘキリョウアークス,0
1604,6030005022320,新規,0,2025-10-31,2025-10-31,社会保険労務士法人ＨＲリンクス,,その他の設立登記法人,埼玉県,戸田市,中町１丁目１９番地の６朝日パリオ弐番館１０１号,,11,224,3350012,,,,,,,2025-10-31,1,,,,,エイチアールリンクス,0
1606,6040001141081,新規,0,2025-10-31,2025-10-31,株式会社木苺,,株式会社,千葉県,茂原市,下永吉３４４番地１－２階,,12,210,2970035,,,,,,,2025-10-31,1,,,,,キイチゴ,0
1607,6040001141197,新規,0,2025-10-31,2025-10-31,株式会社シーエルリージェンシー,,株式会社,千葉県,船橋市,東船橋２丁目８番２号,,12,204,2730002,,,,,,,2025-10-31,1,,,,,シーエルリージェンシー,0
1608,6040001141230,新規,0,2025-10-31,2025-10-31,株式会社百合ノ寅,,株式会社,千葉県,成田市,久米野字仲土手２６４番地２,,12,211,2860126,,,,,,,2025-10-31,1,,,,,ユリノトラ,0
1611,6040003028896,新規,0,2025-10-31,2025-10-31,スライブプロス合同会社,,合同会社,千葉県,船橋市,印内町５６４番地８サウスサイドビル４Ｆｒｏｏｍ００９,,12,204,2730025,,,,,,,2025-10-31,1,,,,,スライブプロス,0
1615,6050001057509,新規,0,2025-10-31,2025-10-31,株式会社ＴＳＡ,,株式会社,茨城県,日立市,日高町１丁目２７番１９－３０２号,,08,202,3191414,,,,,,,2025-10-31,1,,,,,ティーエスエー,0
1616,6050001057517,新規,0,2025-10-31,2025-10-31,株式会社エターナル,,株式会社,茨城県,坂東市,逆井１８２５番地６３,,08,228,3060501,,,,,,,2025-10-31,1,,,,,エターナル,0
1619,6060001038722,新規,0,2025-10-31,2025-10-31,株式会社冠拓工業,,株式会社,栃木県,日光市,猪倉３５０７番地１７９,,09,206,3212344,,,,,,,2025-10-31,1,,,,,コウタクコウギョウ,0
1620,6060003005828,新規,0,2025-10-31,2025-10-31,合同会社アグリサービス益子,,合同会社,栃木県,芳賀郡益子町,大字山本１４５７番地,,09,342,3214213,,,,,,,2025-10-31,1,,,,,アグリサービスマシコ,0
1621,6070001043498,新規,0,2025-10-31,2025-10-31,トラスト管理株式会社,,株式会社,群馬県,前橋市,小相木町３９７番地１,,10,201,3710831,,,,,,,2025-10-31,1,,,,,トラストカンリ,0
1628,6080101025874,新規,0,2025-10-31,2025-10-31,株式会社Ｂｒｉｇｈｔ,,株式会社,静岡県,駿東郡清水町,堂庭１６５番地の９,,22,341,4110903,,,,,,,2025-10-31,1,,,,,ブライト,0
1633,6090001019587,新規,0,2025-10-31,2025-10-31,株式会社ＭＳ法人天石会,,株式会社,山梨県,富士吉田市,下吉田２丁目３番７号１階,,19,202,4030004,,,,,,,2025-10-31,1,,,,,,0
1636,6110001039681,新規,0,2025-10-31,2025-10-31,株式会社サーク,,株式会社,新潟県,新潟市西蒲区,長場４０４番地４,,15,108,9501332,,,,,,,2025-10-31,1,,,,,サーク,0
1645,6120001281489,新規,0,2025-10-31,2025-10-31,ＴｘＰＰＩＥ株式会社,,株式会社,大阪府,大阪市淀川区,東三国１丁目２０番９－２０１号,,27,123,5320002,,,,,,,2025-10-31,1,,,,,ティッピー,0
1646,6120001281571,新規,0,2025-10-31,2025-10-31,株式会社ＮＥＸＴ　ＨＯＭＥ,,株式会社,大阪府,大阪市浪速区,日本橋５丁目１３－１８,,27,111,5560005,,,,,,,2025-10-31,1,,,,,ネクストホーム,0
1647,6120001281588,新規,0,2025-10-31,2025-10-31,セブンケア株式会社,,株式会社,大阪府,大阪市西成区,太子１丁目１－１８ワカバビル９階,,27,122,5570002,,,,,,,2025-10-31,1,,,,,セブンケア,0
1648,6120001281613,新規,0,2025-10-31,2025-10-31,株式会社Ｎａｙ治,,株式会社,大阪府,大阪市旭区,森小路１丁目１４番２４号長門ハイツ２－４０７号,,27,117,5350013,,,,,,,2025-10-31,1,,,,,ネイチー,0
1649,6120001281638,新規,0,2025-10-31,2025-10-31,株式会社ＬＩＦＥ　ＧＵＩＤＥ,,株式会社,大阪府,大阪市中央区,船場中央３丁目１番７－４０４号,,27,128,5410055,,,,,,,2025-10-31,1,,,,,ライフガイド,0
1655,6122001039834,新規,0,2025-10-31,2025-10-31,株式会社Ｊｐｌｕｓ,,株式会社,大阪府,八尾市,東町６丁目８０番地,,27,212,5810861,,,,,,,2025-10-31,1,,,,,ジェプラス,0
1656,6122001039842,新規,0,2025-10-31,2025-10-31,和歌山畠山金属株式会社,,株式会社,大阪府,東大阪市,宝持３丁目１０番４号,,27,227,5770805,,,,,,,2025-10-31,1,,,,,ワカヤマハタケヤマキンゾク,0
1667,6150001028508,新規,0,2025-10-31,2025-10-31,株式会社弥栄,,株式会社,奈良県,大和郡山市,本庄町３３番地１０,,29,203,6391136,,,,,,,2025-10-31,1,,,,,ヤサカ,0
1668,6150001028516,新規,0,2025-10-31,2025-10-31,株式会社Ｌｉｎｋｓ,,株式会社,奈良県,北葛城郡王寺町,明神３丁目７番１９号,,29,425,6360022,,,,,,,2025-10-31,1,,,,,リンクス,0
1669,6170005007175,新規,0,2025-10-31,2025-10-31,一般社団法人熊野いのちをつなぐ公社,,その他の設立登記法人,和歌山県,東牟婁郡那智勝浦町,大字勝浦３３２番地７,,30,421,6495334,,,,,,,2025-10-31,1,,,,,クマノイノチヲツナグコウシャ,0
1679,6180001169282,新規,0,2025-10-31,2025-10-31,株式会社Ｒａｙ　Ｇｌｏｂａｌ,,株式会社,愛知県,名古屋市東区,筒井２丁目２番９号,,23,102,4610003,,,,,,,2025-10-31,1,,,,,レイグローバル,0
1680,6180001169308,新規,0,2025-10-31,2025-10-31,インゴットクリア株式会社,,株式会社,愛知県,常滑市,飛香台８丁目３番地の２,,23,216,4790868,,,,,,,2025-10-31,1,,,,,インゴットクリア,0
1681,6180001169324,新規,0,2025-10-31,2025-10-31,株式会社タクトアーキ,,株式会社,愛知県,名古屋市中村区,則武２丁目３番２号サン・オフィス名古屋７５８号室,,23,105,4530014,,,,,,,2025-10-31,1,,,,,タクトアーキ,0
1701,6200001044383,新規,0,2025-10-31,2025-10-31,株式会社ホンダ,,株式会社,岐阜県,養老郡養老町,竜泉寺２６９番地１６,,21,341,5031244,,,,,,,2025-10-31,1,,,,,ホンダ,0
1711,6260003005394,新規,0,2025-10-31,2025-10-31,アンエイト合同会社,,合同会社,岡山県,倉敷市,玉島乙島７４１６番地１５,,33,202,7138103,,,,,,,2025-10-31,1,,,,,アンエイト,0
1718,6290001111927,新規,0,2025-10-31,2025-10-31,株式会社想築,,株式会社,福岡県,福岡市博多区,東那珂２丁目４番１０号,,40,132,8120892,,,,,,,2025-10-31,1,,,,,ソウチク,0
1719,6290001111935,新規,0,2025-10-31,2025-10-31,Ｎｅｘｔ　ＳＥ株式会社,,株式会社,福岡県,福岡市博多区,博多駅南２丁目１番９号筑紫通りセンタービル１Ｆ,,40,132,8120016,,,,,,,2025-10-31,1,,,,,ネクストエスイー,0
1720,6290001111951,新規,0,2025-10-31,2025-10-31,株式会社７１４,,株式会社,福岡県,福岡市博多区,住吉３丁目８番３０－１１１５エンクレスト博多ＳＴＹＬＥ,,40,132,8120018,,,,,,,2025-10-31,1,,,,,ナナイチヨン,0
1733,6340001027738,新規,0,2025-10-31,2025-10-31,株式会社ＴｒｅｅＭｔ,,株式会社,鹿児島県,鹿児島市,原良５丁目２１番２号,,46,201,8900026,,,,,,,2025-10-31,1,,,,,トレント,0
1736,6350001019791,新規,0,2025-10-31,2025-10-31,株式会社青海,,株式会社,宮崎県,宮崎市,清武町加納甲２６７２－１エスポワール加納４０２,,45,201,8891605,,,,,,,2025-10-31,1,,,,,アオミ,0
1752,6430001095569,新規,0,2025-10-31,2025-10-31,株式会社内装いちばん,,株式会社,北海道,札幌市豊平区,西岡四条１丁目１３番１１号コート西岡４・１－１０１号,,01,105,0620034,,,,,,,2025-10-31,1,,,,,ナイソウイチバン,0
1757,6430003018288,新規,0,2025-10-31,2025-10-31,合同会社アイシフト,,合同会社,北海道,札幌市中央区,南五条西１５丁目２－３－５０３,,01,101,0640805,,,,,,,2025-10-31,1,,,,,アイシフト,0
1758,6450001014774,新規,0,2025-10-31,2025-10-31,株式会社倉神丸,,株式会社,北海道,苫前郡羽幌町,幸町３２番地の１,,01,484,0784121,,,,,,,2025-10-31,1,,,,,,0
1763,6480003002345,新規,0,2025-10-31,2025-10-31,合同会社オネスト,,合同会社,徳島県,徳島市,伊月町４丁目１６番地シャーメゾン伊月１０２号室,,36,201,7700935,,,,,,,2025-10-31,1,,,,,オネスト,0
1772,7010001259842,新規,0,2025-10-31,2025-10-31,株式会社アスラグループ,,株式会社,東京都,千代田区,神田神保町３丁目１２－３神保町スリービル８階,,13,101,1010051,,,,,,,2025-10-31,1,,,,,アスラグループ,0
1779,7010005040868,新規,0,2025-10-31,2025-10-31,弁護士法人ＣＹパートナーズ,,その他の設立登記法人,東京都,千代田区,丸の内２丁目２番２号,,13,101,1000005,,,,,,,2025-10-31,1,,,,,シーワイパートナーズ,0
1780,7010101016945,新規,0,2025-10-31,2025-10-31,株式会社源,,株式会社,東京都,八王子市,大和田町７丁目１８番３－２０５号,,13,201,1920045,,,,,,,2025-10-31,1,,,,,ミナモト,0
1782,7010401194284,新規,0,2025-10-31,2025-10-31,ＴＲカンパニー株式会社,,株式会社,東京都,港区,三田５丁目２番２２号２１０６,,13,103,1080073,,,,,,,2025-10-31,1,,,,,ティーアールカンパニー,0
1785,7010701048537,新規,0,2025-10-31,2025-10-31,株式会社ＮＯＷＡＬ,,株式会社,東京都,品川区,東品川４丁目１２番６号品川シーサイドキャナルタワー４階,,13,109,1400002,,,,,,,2025-10-31,1,,,,,ノワル,0
1786,7010701048553,新規,0,2025-10-31,2025-10-31,株式会社ワンクラフト,,株式会社,東京都,品川区,小山１丁目６－１１,,13,109,1420062,,,,,,,2025-10-31,1,,,,,ワンクラフト,0
1789,7010903010377,新規,0,2025-10-31,2025-10-31,合同会社ｕｎｉ,,合同会社,東京都,世田谷区,下馬３丁目５番１０－１０２号,,13,112,1540002,,,,,,,2025-10-31,1,,,,,ユニ,0
1790,7010905004856,新規,0,2025-10-31,2025-10-31,一般社団法人全国生涯学習推進協会,,その他の設立登記法人,東京都,世田谷区,砧４丁目８番６－３０２号,,13,112,1570073,,,,,,,2025-10-31,1,,,,,ゼンコクショウガイガクシュウスイシンキョウカイ,0
1791,7010905004864,新規,0,2025-10-31,2025-10-31,一般社団法人琴葉會,,その他の設立登記法人,東京都,世田谷区,用賀１丁目１３番２３号,,13,112,1580097,,,,,,,2025-10-31,1,,,,,コトハカイ,0
1800,7011001173166,新規,0,2025-10-31,2025-10-31,Ｃａｍｅｌｌｉａ株式会社,,株式会社,東京都,渋谷区,広尾１丁目２番地１号ヒカリビル４階,,13,113,1500012,,,,,,,2025-10-31,1,,,,,カメリア,0
1801,7011001173190,新規,0,2025-10-31,2025-10-31,株式会社ＥｄｅｎＱｕｅｓｔ,,株式会社,東京都,渋谷区,神南１丁目１１番４号ＦＰＧリンクス神南５階,,13,113,1500041,,,,,,,2025-10-31,1,,,,,エデンクエスト,0
1804,7011005011223,新規,0,2025-10-31,2025-10-31,一般社団法人日本中国ワイン協会,,その他の設立登記法人,東京都,目黒区,目黒１丁目５番１８‐３０２号,,13,110,1530063,,,,,,,2025-10-31,1,,,,,ニホンチュウゴクワインキョウカイ,0
1811,7011101113468,新規,0,2025-10-31,2025-10-31,株式会社モリ,,株式会社,東京都,新宿区,住吉町１１－１５コンフォート曙橋３０２,,13,104,1620065,,,,,,,2025-10-31,1,,,,,モリ,0
1812,7011101113591,新規,0,2025-10-31,2025-10-31,株式会社Ｍｅｄｉ‐ｔａｔｅ,,株式会社,東京都,新宿区,四谷２丁目１４番地３７嶋ビル６０１,,13,104,1600004,,,,,,,2025-10-31,1,,,,,メディテート,0
1814,7011105011643,新規,0,2025-10-31,2025-10-31,Ｔｒｉｖｉｔｏ２一般社団法人,,その他の設立登記法人,東京都,新宿区,四谷２丁目９番地１５東京ユナイテッド綜合事務所内,,13,104,1600004,,,,,,,2025-10-31,1,,,,,トリビトツー,0
1817,7011301031008,新規,0,2025-10-31,2025-10-31,株式会社Ｖｅｒｔｅｘ,,株式会社,東京都,杉並区,永福４丁目２８番９号,,13,115,1680064,,,,,,,2025-10-31,1,,,,,バーテックス,0
1819,7011303005760,新規,0,2025-10-31,2025-10-31,アルバ合同会社,,合同会社,東京都,杉並区,天沼３丁目３２番２０－３０１号エンブレム荻窪台,,13,115,1670032,,,,,,,2025-10-31,1,,,,,アルバ,0
1823,7011501032771,新規,0,2025-10-31,2025-10-31,日本伊爾贊株式会社,,株式会社,東京都,荒川区,南千住３丁目２７－２浅草ビル,,13,118,1160003,,,,,,,2025-10-31,1,,,,,ニホンイールザン,0
1824,7011503006757,新規,0,2025-10-31,2025-10-31,あすなろ合同会社,,合同会社,東京都,北区,堀船３丁目１３番地１０市村ビル１０１,,13,117,1140004,,,,,,,2025-10-31,1,,,,,アスナロ,0
1830,7011803007166,新規,0,2025-10-31,2025-10-31,ＫＹＤ‐Ａｃｃｏｕｎｔｉｎｇ合同会社,,合同会社,東京都,足立区,古千谷本町２丁目６－２,,13,121,1210832,,,,,,,2025-10-31,1,,,,,ケイワイディーアカウンティング,0
1837,7012401043768,新規,0,2025-10-31,2025-10-31,株式会社Ｌ．Ｌ．ＢＥＡＮ　ＣＯＬＬＥＣＴＩＶＥ　ＪＡＰＡＮ,,株式会社,東京都,武蔵野市,吉祥寺南町１丁目１６番３号,,13,203,1800003,,,,,,,2025-10-31,1,,,,,エルエルビーンコレクティブジャパン,0
1850,7030001169288,新規,0,2025-10-31,2025-10-31,株式会社ＬＩＢＥＲＴＡ,,株式会社,埼玉県,さいたま市西区,大字指扇領別所２３９－２３,,11,101,3310073,,,,,,,2025-10-31,1,,,,,リベルタ,0
1851,7030001169445,新規,0,2025-10-31,2025-10-31,株式会社アイエース,,株式会社,埼玉県,川口市,金山町１３番－１７－２０６号クリスタルマンション川口,,11,203,3320014,,,,,,,2025-10-31,1,,,,,アイエース,0
1852,7030001169478,新規,0,2025-10-31,2025-10-31,ＵＮＩ株式会社,,株式会社,埼玉県,富士見市,水谷東３丁目１４番１５号,,11,235,3540013,,,,,,,2025-10-31,1,,,,,ユニ,0
1853,7030001169511,新規,0,2025-10-31,2025-10-31,株式会社ＳｕｎＦｏｒｅｓｔ,,株式会社,埼玉県,川口市,中青木１丁目４―１８レオパレスフローラ３―２０２,,11,203,3320032,,,,,,,2025-10-31,1,,,,,サンフォレスト,0
1856,7030003027527,新規,0,2025-10-31,2025-10-31,合同会社流転スタジオ,,合同会社,埼玉県,大里郡寄居町,大字末野１２１９番地３,,11,408,3691205,,,,,,,2025-10-31,1,,,,,ルテンスタジオ,0
1862,7040001141213,新規,0,2025-10-31,2025-10-31,株式会社未来の世界の,,株式会社,千葉県,香取市,北２丁目８番地８,,12,236,2870002,,,,,,,2025-10-31,1,,,,,ミライノセカイノ,0
1863,7040001141221,新規,0,2025-10-31,2025-10-31,株式会社ＡＫＸ,,株式会社,千葉県,千葉市若葉区,貝塚町６２６－７,,12,104,2640023,,,,,,,2025-10-31,1,,,,,アックス,0
1866,7040003028862,新規,0,2025-10-31,2025-10-31,ＡＭＫＯ　ＪＡＰＡＮ　ＥＸＰＯＲＴ合同会社,,合同会社,千葉県,木更津市,祇園３丁目１２番２号,00141348,12,206,2920052,,,,,,,2025-10-31,1,,,,,アムコジャパンエクスポート,0
1867,7040005022913,新規,0,2025-10-31,2025-10-31,医療法人社団原木中山クリニック,,その他の設立登記法人,千葉県,船橋市,本中山７丁目５番１１号フォルトゥーナ１０１号室,,12,204,2730035,,,,,,,2025-10-31,1,,,,,バラキナカヤマクリニック,0
1868,7040005022946,新規,0,2025-10-31,2025-10-31,一般社団法人フリーランス社会保障支援協会,,その他の設立登記法人,千葉県,我孫子市,都８番地の４,,12,222,2701102,,,,,,,2025-10-31,1,,,,,フリーランスシャカイホショウシエンキョウカイ,0
1874,7070003006171,新規,0,2025-10-31,2025-10-31,リジェネフィールド合同会社,,合同会社,群馬県,藤岡市,藤岡２８６２番地,,10,209,3750024,,,,,,,2025-10-31,1,,,,,リジェネフィールド,0
1880,7080101025873,新規,0,2025-10-31,2025-10-31,株式会社ハゴロモファーム,,株式会社,静岡県,富士市,鮫島６８番地の１,,22,210,4160934,,,,,,,2025-10-31,1,,,,,ハゴロモファーム,0
1888,7110003005945,新規,0,2025-10-31,2025-10-31,Ｐｒｅｃｉｏｕｓ　Ｊａｐａｎ合同会社,,合同会社,新潟県,新潟市中央区,礎町通５ノ町２２６７番地１ｗｉｌｌＤｏ礎町６０１,,15,103,9518055,,,,,,,2025-10-31,1,,,,,プレシャスジャパン,0
1905,7120001281554,新規,0,2025-10-31,2025-10-31,株式会社マコト,,株式会社,大阪府,大阪市北区,梅田１丁目２番２号大阪駅前第２ビル１２－１２,,27,127,5300001,,,,,,,2025-10-31,1,,,,,マコト,0
1906,7120001281612,新規,0,2025-10-31,2025-10-31,株式会社新生,,株式会社,大阪府,大阪市住吉区,遠里小野３丁目１番１９号遠里小野ハイツ２０１号室,,27,120,5580032,,,,,,,2025-10-31,1,,,,,シンセイ,0
1908,7120003031131,新規,0,2025-10-31,2025-10-31,合同会社博泊,,合同会社,大阪府,大阪市港区,三先２丁目２－２３,,27,107,5520016,,,,,,,2025-10-31,1,,,,,パクパク,0
1910,7120101072721,新規,0,2025-10-31,2025-10-31,株式会社ＨＥ　ＸＩＮ　ＩＮＴＥＲＮＡＴＩＯＮＡＬ,,株式会社,大阪府,堺市北区,黒土町１４番地４－２０２号,,27,146,5918024,,,,,,,2025-10-31,1,,,,,ヘーシンインターナショナル,0
1911,7120103006826,新規,0,2025-10-31,2025-10-31,合同会社ＳＡＫＵＲＡ　ＣＲＥＡＴＥ,,合同会社,大阪府,泉南郡田尻町,吉見１０８２－１８,,27,362,5980092,,,,,,,2025-10-31,1,,,,,サクラクリエイト,0
1918,7122001039833,新規,0,2025-10-31,2025-10-31,株式会社ブルーバード,,株式会社,大阪府,東大阪市,中野２丁目２番５０－１１０７号,,27,227,5780913,,,,,,,2025-10-31,1,,,,,ブルーバード,0
1922,7130001080906,新規,0,2025-10-31,2025-10-31,株式会社ハルノワ,,株式会社,京都府,長岡京市,長法寺南野１６番地１ビアンカローザ１０１,,26,209,6170812,,,,,,,2025-10-31,1,,,,,ハルノワ,0
1923,7130001080914,新規,0,2025-10-31,2025-10-31,ＮＯＯＤＬＥ　ＬＡＢ株式会社,,株式会社,京都府,京都市中京区,高宮町５８５,,26,104,6048056,,,,,,,2025-10-31,1,,,,,ヌードルラボ,0
1924,7130003010902,新規,0,2025-10-31,2025-10-31,周小福合同会社,,合同会社,京都府,京都市北区,上賀茂朝露ケ原町４－３３アクティ上賀茂Ａ棟２０２,,26,101,6038035,,,,,,,2025-10-31,1,,,,,シュウショウフク,0
1935,7140001140584,新規,0,2025-10-31,2025-10-31,ビィ・シャイン株式会社,,株式会社,兵庫県,加東市,家原２４４番地１,,28,228,6731451,,,,,,,2025-10-31,1,,,,,ビィシャイン,0
1936,7140001140592,新規,0,2025-10-31,2025-10-31,株式会社ホールインワン,,株式会社,兵庫県,神戸市中央区,元町通５丁目６番４－３０５号,,28,110,6500022,,,,,,,2025-10-31,1,,,,,ホールインワン,0
1941,7140005027679,新規,0,2025-10-31,2025-10-31,ＮＰＯ法人グローカルマインド未来研究所,,その他の設立登記法人,兵庫県,芦屋市,西芦屋町２番８号,00141334,28,206,6590085,,,,,,,2025-10-31,1,,,,,グローカルマインドミライケンキュウジョ,0
1950,7180001169265,新規,0,2025-10-31,2025-10-31,株式会社Ｔｏｋｙｏ　Ｚ,,株式会社,愛知県,瀬戸市,高根町１丁目２１２番地の１,,23,204,4890931,,,,,,,2025-10-31,1,,,,,トウキョウゼット,0
1951,7180001169307,新規,0,2025-10-31,2025-10-31,インゴットエバイ株式会社,,株式会社,愛知県,常滑市,飛香台８丁目３番地の２,,23,216,4790868,,,,,,,2025-10-31,1,,,,,インゴットエバイ,0
1952,7180001169315,新規,0,2025-10-31,2025-10-31,株式会社アストラ,,株式会社,愛知県,津島市,橘町３丁目５番地５,,23,208,4960038,,,,,,,2025-10-31,1,,,,,アストラ,0
1987,7260003005402,新規,0,2025-10-31,2025-10-31,合同会社改善マニア,,合同会社,岡山県,岡山市北区,平田１３０番地１０２,,33,101,7000952,,,,,,,2025-10-31,1,,,,,カイゼンマニア,0
1996,7290001111926,新規,0,2025-10-31,2025-10-31,ＧｒａｓｔＥｓｔａｔｅ株式会社,,株式会社,福岡県,福岡市中央区,大手門３丁目４番２２号,,40,133,8100074,,,,,,,2025-10-31,1,,,,,グラストエステート,0
1997,7290001111950,新規,0,2025-10-31,2025-10-31,株式会社ＳＨＩＮ,,株式会社,福岡県,宗像市,上八７３１番地２,,40,220,8113513,,,,,,,2025-10-31,1,,,,,,0
1998,7290001111983,新規,0,2025-10-31,2025-10-31,株式会社ＳＳエンターテインメント,,株式会社,福岡県,福岡市早良区,賀茂４丁目１２番３号,,40,137,8140164,,,,,,,2025-10-31,1,,,,,エスエスエンターテインメント,0
2000,7290003017650,新規,0,2025-10-31,2025-10-31,フォルテ合同会社,,合同会社,福岡県,福岡市東区,奈多３丁目１番８号,,40,131,8110204,,,,,,,2025-10-31,1,,,,,フォルテ,0
2001,7290003017675,新規,0,2025-10-31,2025-10-31,合同会社Ｂｌｏｏｍ,,合同会社,福岡県,糟屋郡志免町,南里７丁目６番２８号,,40,343,8112207,,,,,,,2025-10-31,1,,,,,ブルーム,0
2015,7360003015366,新規,0,2025-10-31,2025-10-31,やんばる工房合同会社,,合同会社,沖縄県,名護市,宮里１丁目２８番８号南西ビル２Ｆ,,47,209,9050011,,,,,,,2025-10-31,1,,,,,ヤンバルコウボウ,0
2040,7470001020943,新規,0,2025-10-31,2025-10-31,株式会社Ｒｅ・Ｍａｉｓｏｎ,,株式会社,香川県,高松市,木太町１３８１－１,,37,201,7600080,,,,,,,2025-10-31,1,,,,,,0
2052,8010003049274,新規,0,2025-10-31,2025-10-31,合同会社ＤＯＮ　ＤＡＷＮ,,合同会社,東京都,八丈島八丈町,樫立２１４３－２,,13,401,1001621,,,,,,,2025-10-31,1,,,,,ドンドーン,0
2061,8010401194127,新規,0,2025-10-31,2025-10-31,株式会社バッカスラボ,,株式会社,東京都,港区,北青山１丁目３番１号アールキューブ青山３階,,13,103,1070061,,,,,,,2025-10-31,1,,,,,バッカスラボ,0
2062,8010401194135,新規,0,2025-10-31,2025-10-31,ピタッと採用株式会社,,株式会社,東京都,港区,虎ノ門２丁目２番１号住友不動産虎ノ門タワー１７階,,13,103,1050001,,,,,,,2025-10-31,1,,,,,ピタットサイヨウ,0
2063,8010401194151,新規,0,2025-10-31,2025-10-31,株式会社ビィーティーダブリュー,,株式会社,東京都,港区,三田５丁目１－２１－６０１,,13,103,1080073,,,,,,,2025-10-31,1,,,,,ビィーティーダブリュー,0
2064,8010401194218,新規,0,2025-10-31,2025-10-31,ＳＩＧＮＡＴＵＲＥ　Ｃｏｎｓｕｌｔｉｎｇ株式会社,,株式会社,東京都,港区,赤坂３丁目１－１６ＢＩビル７Ｆ,,13,103,1070052,,,,,,,2025-10-31,1,,,,,シグネチャコンサルティング,0
2065,8010401194283,新規,0,2025-10-31,2025-10-31,ＴＴカンパニー株式会社,,株式会社,東京都,港区,三田５丁目２番２２号２１０６,,13,103,1080073,,,,,,,2025-10-31,1,,,,,ティーティーカンパニー,0
2068,8010403036392,新規,0,2025-10-31,2025-10-31,源機工合同会社,,合同会社,東京都,港区,虎ノ門１丁目１５番１０号名和ビル４階,,13,103,1050001,,,,,,,2025-10-31,1,,,,,ミナモトキコウ,0
2069,8010403036442,新規,0,2025-10-31,2025-10-31,クリストファー・アセット・マネジメント合同会社,,合同会社,東京都,港区,六本木１丁目９番４－９０１号,,13,103,1060032,,,,,,,2025-10-31,1,,,,,クリストファーアセットマネジメント,0
2070,8010405024866,新規,0,2025-10-31,2025-10-31,社会保険労務士法人大友事務所,,その他の設立登記法人,東京都,港区,新橋３丁目３番１４号田村町ビル６階,,13,103,1050004,,,,,,,2025-10-31,1,,,,,オオトモジムショ,0
2074,8010701048544,新規,0,2025-10-31,2025-10-31,エスシーエルアイオミクス株式会社,,株式会社,東京都,品川区,東五反田１丁目１０番７－１１０１号,,13,109,1410022,,,,,,,2025-10-31,1,,,,,エスシーエルアイオミクス,0
2076,8010703007977,新規,0,2025-10-31,2025-10-31,Ｍｉｒａｌｌｅ合同会社,,合同会社,東京都,品川区,東五反田３丁目１番４号プラウドタワー高輪台９０３,,13,109,1410022,,,,,,,2025-10-31,1,,,,,ミレイユ,0
2078,8010805003214,新規,0,2025-10-31,2025-10-31,一般社団法人Ｕｎｉｖｅｒｓａｌ　Ａｃｔ　Ｃｒｅｓｎｏｖｉａ　ＩＰ　ｆｏｒ２５,,その他の設立登記法人,東京都,大田区,南六郷１丁目２番１１号ファミールハイツ３０５,,13,111,1440045,,,,,,,2025-10-31,1,,,,,ユニバーサルアクトクレスノビアアイピフォーニジュウゴ,0
2082,8010901058335,新規,0,2025-10-31,2025-10-31,暁トレーディング株式会社,,株式会社,東京都,世田谷区,弦巻５丁目７番３０－２２６号,,13,112,1540016,,,,,,,2025-10-31,1,,,,,アカツキトレーディング,0
2090,8011001173322,新規,0,2025-10-31,2025-10-31,株式会社Ｇｒｏｗｅｒ,,株式会社,東京都,渋谷区,円山町５番２号ＶＯＲＴ渋谷道玄坂ＩＩ１０階,00141341,13,113,1500044,,,,,,,2025-10-31,1,,,,,グロワー,0
2091,8011001173347,新規,0,2025-10-31,2025-10-31,株式会社Ｓａｎｊａｎａ　Ｉｎｔｅｒｎａｔｉｏｎａｌ,,株式会社,東京都,渋谷区,神宮前３丁目１番２４号ソフトタウン青山４３３,,13,113,1500001,,,,,,,2025-10-31,1,,,,,サンジャナインターナショナル,0
2093,8011101113806,新規,0,2025-10-31,2025-10-31,ＨＥＬＩＸ環境開発株式会社,,株式会社,東京都,新宿区,西新宿６丁目２３番１－４０９号,,13,104,1600023,,,,,,,2025-10-31,1,,,,,ヘリックスカンキョウカイハツ,0
2097,8011601029139,新規,0,2025-10-31,2025-10-31,Ｅ‐ＧＥＮＳＥＮ株式会社,,株式会社,東京都,練馬区,練馬３丁目２６番２号ソアール豊島園３０４号,,13,120,1760001,,,,,,,2025-10-31,1,,,,,イーゲンセン,0
2103,8012403007431,新規,0,2025-10-31,2025-10-31,Ｏｎｅ’ｓ　Ｃａｒｅｅｒ　Ｐａｒｔｎｅｒｓ合同会社,,合同会社,東京都,稲城市,矢野口３７５０－１９アートフル矢野口駅前ビルＢ１,,13,225,2060812,,,,,,,2025-10-31,1,,,,,ワンズキャリアパートナーズ,0
2108,8013301055209,新規,0,2025-10-31,2025-10-31,株式会社スタジオレオ,,株式会社,東京都,豊島区,池袋４丁目２９番６号アクシア池袋１２０２,,13,116,1710014,,,,,,,2025-10-31,1,,,,,スタジオレオ,0
2116,8020001165254,新規,0,2025-10-31,2025-10-31,Ｍａｘｐｈｏｔｏｎｉｃｓ　Ｊａｐａｎ株式会社,,株式会社,神奈川県,横浜市都筑区,早渕１丁目２８－２,,14,118,2240025,,,,,,,2025-10-31,1,,,,,マックスフォトニクスジャパン,0
2117,8020001165535,新規,0,2025-10-31,2025-10-31,株式会社輝櫻,,株式会社,神奈川県,横浜市戸塚区,小雀町１９３８番地１,,14,110,2440004,,,,,,,2025-10-31,1,,,,,キザクラ,0
2130,8030001169436,新規,0,2025-10-31,2025-10-31,株式会社ひよこの里,,株式会社,埼玉県,草加市,弁天１丁目６番１７号,,11,221,3400004,,,,,,,2025-10-31,1,,,,,ヒヨコノサト,0
2131,8030001169452,新規,0,2025-10-31,2025-10-31,株式会社地域戦略技術工業,,株式会社,埼玉県,春日部市,豊町１丁目１０番３号,,11,214,3440066,,,,,,,2025-10-31,1,,,,,チイキセンリャクギジュツコウギョウ,0
2132,8030001169469,新規,0,2025-10-31,2025-10-31,株式会社零壱,,株式会社,埼玉県,川口市,大字榛松８８７番地の３,,11,203,3340062,,,,,,,2025-10-31,1,,,,,ゼロイチ,0
2143,8040001141146,新規,0,2025-10-31,2025-10-31,株式会社ネクストライフ千葉,,株式会社,千葉県,柏市,柏３丁目６番２９号サンライズ吉野２０１号室,,12,217,2770005,,,,,,,2025-10-31,1,,,,,ネクストライフチバ,0
2144,8040001141154,新規,0,2025-10-31,2025-10-31,株式会社ＯＮＥ,,株式会社,千葉県,千葉市若葉区,みつわ台５丁目２８番７号,,12,104,2640032,,,,,,,2025-10-31,1,,,,,ワン,0
2145,8040001141212,新規,0,2025-10-31,2025-10-31,株式会社高末,00141340,株式会社,千葉県,浦安市,明海６丁目１番１１－１０３号,,12,227,2790014,,,,,,,2025-10-31,1,,,,,タカスエ,0
2146,8040001141229,新規,0,2025-10-31,2025-10-31,ＦＩＤＡＮＬＩ株式会社,,株式会社,千葉県,千葉市中央区,神明町２１１－５ツインコートタムラ４０２,,12,101,2600022,,,,,,,2025-10-31,1,,,,,フィダンル,0
2147,8040003028886,新規,0,2025-10-31,2025-10-31,合同会社ＬＵＭＩＮＡ,,合同会社,千葉県,流山市,西初石３丁目１４４７番地の１２グレロブラン１０１,,12,220,2700121,,,,,,,2025-10-31,1,,,,,ルミナ,0
2150,8050001057523,新規,0,2025-10-31,2025-10-31,株式会社光輝,,株式会社,茨城県,稲敷郡阿見町,大字若栗８９２番地,,08,443,3000333,,,,,,,2025-10-31,1,,,,,コウキ,0
2152,8070001043505,新規,0,2025-10-31,2025-10-31,株式会社Ａｔｒｅｅ,,株式会社,群馬県,佐波郡玉村町,大字角渕４５９６番地１１,,10,464,3701124,,,,,,,2025-10-31,1,,,,,アツリー,0
2157,8080101025872,新規,0,2025-10-31,2025-10-31,株式会社ハルモク,,株式会社,静岡県,伊豆の国市,長岡８３９番地の１０,,22,225,4102211,,,,,,,2025-10-31,1,,,,,ハルモク,0
2173,8120001281520,新規,0,2025-10-31,2025-10-31,株式会社夢菜園,,株式会社,大阪府,大阪市福島区,大開２丁目２番２０号,,27,103,5530007,,,,,,,2025-10-31,1,,,,,ユメサイエン,0
2174,8120001281529,新規,0,2025-10-31,2025-10-31,石田グループ株式会社,,株式会社,大阪府,大阪市城東区,今福東１丁目１３番１０号ユンヌ・ホワイエ４０１号室,,27,118,5360002,,,,,,,2025-10-31,1,,,,,イシダグループ,0
2175,8120001281553,新規,0,2025-10-31,2025-10-31,株式会社リバーセ,,株式会社,大阪府,大阪市中央区,龍造寺町６－２－７０４,,27,128,5400014,,,,,,,2025-10-31,1,,,,,リバーセ,0
2176,8120001281603,新規,0,2025-10-31,2025-10-31,ネット・サウンド株式会社,,株式会社,大阪府,枚方市,楠葉朝日２丁目４番１１号２０１号室,,27,210,5731111,,,,,,,2025-10-31,1,,,,,ネットサウンド,0
2182,8120003031139,新規,0,2025-10-31,2025-10-31,合同会社いのとら,,合同会社,大阪府,大阪市北区,東天満１丁目７番１３－３０５号,,27,127,5300044,,,,,,,2025-10-31,1,,,,,イノトラ,0
2183,8120003031155,新規,0,2025-10-31,2025-10-31,ＢＤＮ　ＴＲＡＤＩＮＧ合同会社,,合同会社,大阪府,大阪市西成区,天下茶屋東２丁目１４番１１号,,27,122,5570011,,,,,,,2025-10-31,1,,,,,ビーディエヌトレーディング,0
2187,8120103006825,新規,0,2025-10-31,2025-10-31,工真商事合同会社,,合同会社,大阪府,堺市北区,中長尾町３丁５番２号セイクレッド５０１号室,,27,146,5918044,,,,,,,2025-10-31,1,,,,,コウシンショウジ,0
2190,8120901051709,新規,0,2025-10-31,2025-10-31,ＨＩＫＡＲＩホールディングス株式会社,,株式会社,大阪府,豊中市,服部西町１丁目２番１９号,,27,203,5610858,,,,,,,2025-10-31,1,,,,,ヒカリホールディングス,0
2195,8122001039832,新規,0,2025-10-31,2025-10-31,株式会社リベルラビジネスサポート,,株式会社,大阪府,八尾市,渋川町７丁目１番１８号,,27,212,5810075,,,,,,,2025-10-31,1,,,,,リベルラビジネスサポート,0
2201,8130001080913,新規,0,2025-10-31,2025-10-31,ＡＭＢＥＲ琥珀株式会社,,株式会社,京都府,京都市東山区,下河原通高台寺門前下河原町４７２番地,,26,105,6050825,,,,,,,2025-10-31,1,,,,,アンバーコハク,0
2206,8140001140609,新規,0,2025-10-31,2025-10-31,Ｋｏｂｅ　Ａｓｓｅｔ　Ｐａｒｔｎｅｒｓ株式会社,,株式会社,兵庫県,神戸市灘区,永手町３丁目４番１９号,,28,102,6570027,,,,,,,2025-10-31,1,,,,,コウベアセットパートナーズ,0
2208,8150001028514,新規,0,2025-10-31,2025-10-31,株式会社ＥＩＫＯ,,株式会社,奈良県,橿原市,山之坊町３６４番地,,29,205,6340071,,,,,,,2025-10-31,1,,,,,エイコ,0
2222,8180001169355,新規,0,2025-10-31,2025-10-31,株式会社ｓｗｉｆｔｒｉｖｅｒ,,株式会社,愛知県,名古屋市中村区,名駅３丁目４番１０号アルティメイト名駅１ｓｔ２階,,23,105,4500002,,,,,,,2025-10-31,1,,,,,スウィフトリバー,0
2228,8180003029284,新規,0,2025-10-31,2025-10-31,合同会社ｎｕｄｇｅ,,合同会社,愛知県,一宮市,新生４丁目３番２１‐４０３号　プレジデントモリス,,23,203,4910912,,,,,,,2025-10-31,1,,,,,ナッジ,0
2229,8180005021289,新規,0,2025-10-31,2025-10-31,一般社団法人こども家庭サポートみっけ,,その他の設立登記法人,愛知県,名古屋市北区,真畔町３１番地,,23,103,4620862,,,,,,,2025-10-31,1,,,,,コドモカテイサポートミッケ,0
2238,8220001026997,新規,0,2025-10-31,2025-10-31,Ｓｉｅｓｔａ　ｃｌｅａｎｉｎｇ株式会社,,株式会社,石川県,金沢市,野田１丁目７２番地,,17,201,9218107,,,,,,,2025-10-31,1,,,,,シエスタクリーニング,0
2239,8220003004150,新規,0,2025-10-31,2025-10-31,合同会社Ｎｅｗ　Ｐｅａｃｅ　Ａｒｃｈ,,合同会社,石川県,金沢市,馬替３丁目１９１番地２,,17,201,9218141,,,,,,,2025-10-31,1,,,,,ニューピースアーチ,0
2244,8240001065713,新規,0,2025-10-31,2025-10-31,株式会社くれバイオマテリアル,,株式会社,広島県,広島市中区,大手町１丁目１－２０相生橋ビル７階Ａ号室,,34,101,7300051,,,,,,,2025-10-31,1,,,,,,0
2247,8260001040680,新規,0,2025-10-31,2025-10-31,株式会社ファミリア,,株式会社,岡山県,倉敷市,中庄３２０６番地８１,,33,202,7100016,,,,,,,2025-10-31,1,,,,,ファミリア,0
2249,8260003005401,新規,0,2025-10-31,2025-10-31,合同会社志聞,,合同会社,岡山県,岡山市南区,妹尾１９２８番地４,,33,104,7010205,,,,,,,2025-10-31,1,,,,,シモン,0
2250,8260005011538,新規,0,2025-10-31,2025-10-31,一般社団法人瀬戸内わくわくプロジェクト,,その他の設立登記法人,岡山県,倉敷市,児島柳田町６０９－２,,33,202,7110936,,,,,,,2025-10-31,1,,,,,セトウチワクワクプロジェクト,0
2255,8290001111925,新規,0,2025-10-31,2025-10-31,ＭＵＳＥ株式会社,,株式会社,福岡県,福岡市城南区,七隈２丁目７番６号,,40,136,8140133,,,,,,,2025-10-31,1,,,,,ミューズ,0
2256,8290001111933,新規,0,2025-10-31,2025-10-31,株式会社ロマカプロ,,株式会社,福岡県,福岡市中央区,大名２丁目６番１１号,,40,133,8100041,,,,,,,2025-10-31,1,,,,,,0
2257,8290001111941,新規,0,2025-10-31,2025-10-31,株式会社ラックリーフ,,株式会社,福岡県,糟屋郡粕屋町,内橋東２丁目２番２０号,,40,349,8112320,,,,,,,2025-10-31,1,,,,,ラックリーフ,0
2258,8290001112015,新規,0,2025-10-31,2025-10-31,三興リアルエステート株式会社,,株式会社,福岡県,福岡市東区,香椎１丁目１番１号,,40,131,8130011,,,,,,,2025-10-31,1,,,,,サンコウリアルエステート,0
2261,8290003017617,新規,0,2025-10-31,2025-10-31,合同会社パセンス,,合同会社,福岡県,福岡市博多区,美野島２丁目２－２１－１Ｆ,,40,132,8120017,,,,,,,2025-10-31,1,,,,,,0
2262,8290003017625,新規,0,2025-10-31,2025-10-31,合同会社音泉,,合同会社,福岡県,福岡市東区,名子３丁目１０番１８号,,40,131,8130024,,,,,,,2025-10-31,1,,,,,オンセン,0
2265,8320001021419,新規,0,2025-10-31,2025-10-31,デルタ・シールズ株式会社,,株式会社,大分県,大分市,判田台東２丁目９番３号,,44,201,8701108,,,,,,,2025-10-31,1,,,,,デルタシールズ,0
2271,8340003004972,新規,0,2025-10-31,2025-10-31,合同会社ヴィラあむとぅファーム,,合同会社,鹿児島県,大島郡伊仙町,大字検福１８５,,46,532,8918116,,,,,,,2025-10-31,1,,,,,ヴィラアムトゥファーム,0
2272,8350001019765,新規,0,2025-10-31,2025-10-31,株式会社美食都市,,株式会社,宮崎県,宮崎市,旭１丁目８番１５号ＪＯＢビル２階Ｂ号,,45,201,8800803,,,,,,,2025-10-31,1,,,,,ビショクトシ,0
2277,8370005011015,新規,0,2025-10-31,2025-10-31,一般社団法人ＪＡＰＡＮ・ＬＥＧＡＬ　ＷＥＤＤＩＮＧ,,その他の設立登記法人,宮城県,仙台市青葉区,一番町１丁目８番３２－４０１号,,04,101,9800811,,,,,,,2025-10-31,1,,,,,ジャパンリーガルウエディング,0
2284,8400001017219,新規,0,2025-10-31,2025-10-31,株式会社ＴＯＭＵＳＨＩ岩泉,,株式会社,岩手県,下閉伊郡岩泉町,乙茂字大向２３番地２,,03,483,0270502,,,,,,,2025-10-31,1,,,,,トムシイワイズミ,0
2287,8430001095567,新規,0,2025-10-31,2025-10-31,株式会社パシフィカン,,株式会社,北海道,札幌市中央区,南十四条西１丁目１番８－１００７号,,01,101,0640914,,,,,,,2025-10-31,1,,,,,パシフィカン,0
2288,8430003018286,新規,0,2025-10-31,2025-10-31,合同会社ＡＭＯＲＥ＆ＲＥＡＳＯＮ経営研究所,,合同会社,北海道,札幌市中央区,南一条西１６丁目１番地３２３春野ビル３Ｆ,,01,101,0600061,,,,,,,2025-10-31,1,,,,,アモーレアンドリーズンケイエイケンキュウショ,0
2289,8450001014772,新規,0,2025-10-31,2025-10-31,北海道国際アドベンチャーマスターズ株式会社,,株式会社,北海道,上川郡東川町,西町５丁目１番３号,,01,458,0711425,,,,,,,2025-10-31,1,,,,,ホッカイドウコクサイアドベンチャーマスターズ,0
2298,9010001259849,新規,0,2025-10-31,2025-10-31,株式会社ＰｌａｙＳｈｉｆｔ,,株式会社,東京都,中央区,銀座１丁目１２番４号Ｎ＆ＥＢＬＤ．６Ｆ,,13,102,1040061,,,,,,,2025-10-31,1,,,,,プレイシフト,0
2300,9010003049182,新規,0,2025-10-31,2025-10-31,合同会社さくらさくら,,合同会社,東京都,中央区,銀座１丁目１２番４号Ｎ＆ＥＢＬＤ．６Ｆ,,13,102,1040061,,,,,,,2025-10-31,1,,,,,サクラサクラ,0
2301,9010003049199,新規,0,2025-10-31,2025-10-31,合同会社Ｇ＆Ｃ　ＥＮＥＲＧＹ　ＪＡＰＡＮ,,合同会社,東京都,千代田区,丸の内１丁目８番３号丸の内トラストタワー本館２０Ｆ,,13,101,1000005,,,,,,,2025-10-31,1,,,,,ジーアンドシーエネルギージャパン,0
2303,9010005040841,新規,0,2025-10-31,2025-10-31,一般社団法人地域映劇社,,その他の設立登記法人,東京都,文京区,根津１丁目１番１５－１１０１号,,13,105,1130031,,,,,,,2025-10-31,1,,,,,チイキエイゲキシャ,0
2304,9010005040858,新規,0,2025-10-31,2025-10-31,本郷春日マンション管理組合法人,,その他の設立登記法人,東京都,文京区,本郷１丁目３０番１６号,,13,105,1130033,,,,,,,2025-10-31,1,,,,,ホンゴウカスガマンション,0
2323,9010401194142,新規,0,2025-10-31,2025-10-31,株式会社ランドテック,,株式会社,東京都,港区,赤坂３丁目１７番３号Ｈ１Ｏ赤坂１２階,,13,103,1070052,,,,,,,2025-10-31,1,,,,,ランドテック,0
2324,9010401194159,新規,0,2025-10-31,2025-10-31,株式会社ジェイケイフォーチュン,,株式会社,東京都,港区,南青山２丁目２番１５－９４２号ウィン青山,,13,103,1070062,,,,,,,2025-10-31,1,,,,,ジェイケイフォーチュン,0
2326,9010403036409,新規,0,2025-10-31,2025-10-31,合同会社創誠児,,合同会社,東京都,港区,浜松町２丁目２番１５号浜松町ダイヤビル２Ｆ,,13,103,1050013,,,,,,,2025-10-31,1,,,,,ソウセイジ,0
2327,9010403036417,新規,0,2025-10-31,2025-10-31,合同会社エムプラス,,合同会社,東京都,港区,北青山１丁目２－３青山ビル１１階（ジャスミー内）,,13,103,1070061,,,,,,,2025-10-31,1,,,,,エムプラス,0
2328,9010403036458,新規,0,2025-10-31,2025-10-31,合同会社ミヤケン,,合同会社,東京都,港区,南麻布３丁目１１番６号,,13,103,1060047,,,,,,,2025-10-31,1,,,,,ミヤケン,0
2333,9010603011871,新規,0,2025-10-31,2025-10-31,ワイズキャピタルマネジメント合同会社,,合同会社,東京都,墨田区,亀沢４丁目１４－１６－５０６,,13,107,1300014,,,,,,,2025-10-31,1,,,,,ワイズキャピタルマネジメント,0
2335,9010703007984,新規,0,2025-10-31,2025-10-31,ＩＣＹＢＲＯＷＳ合同会社,,合同会社,東京都,品川区,戸越１丁目１７番７－１１０１号,,13,109,1420041,,,,,,,2025-10-31,1,,,,,アイシーブロウ,0
2336,9010801036737,新規,0,2025-10-31,2025-10-31,株式会社Ｉｇｎｉｓｓｉｏｎ,,株式会社,東京都,大田区,中央５丁目２７番８号,,13,111,1430024,,,,,,,2025-10-31,1,,,,,イグニッション,0
2337,9010901058350,新規,0,2025-10-31,2025-10-31,永瑞投資株式会社,,株式会社,東京都,世田谷区,代沢２丁目５番４号,,13,112,1550032,,,,,,,2025-10-31,1,,,,,エイズイトウシ,0
2351,9011001173172,新規,0,2025-10-31,2025-10-31,株式会社Ｋｕｂｅｒａ,,株式会社,東京都,目黒区,下目黒１丁目１－１４－７Ｆ,,13,110,1530064,,,,,,,2025-10-31,1,,,,,クベラ,0
2352,9011001173453,新規,0,2025-10-31,2025-10-31,株式会社Ｌｅｇａｔｏ,,株式会社,東京都,渋谷区,恵比寿西２丁目４番８号ウィンド恵比寿ビル８Ｆ,,13,113,1500021,,,,,,,2025-10-31,1,,,,,レガート,0
2358,9011003022765,新規,0,2025-10-31,2025-10-31,合同会社ＬＵＭＥＲＡ,,合同会社,東京都,渋谷区,恵比寿西２丁目８－４ＥＸ恵比寿西ビル５階,,13,113,1500021,,,,,,,2025-10-31,1,,,,,ルメラ,0
2361,9011103016601,新規,0,2025-10-31,2025-10-31,合同会社ＨＡＲＵ,,合同会社,東京都,新宿区,大久保１丁目５－１２ＰｒｅｍｉｕｍＣｕｂｅＧ東新宿１１０２,,13,104,1690072,,,,,,,2025-10-31,1,,,,,ハル,0
2366,9011501032761,新規,0,2025-10-31,2025-10-31,株式会社優功,,株式会社,東京都,北区,上十条３丁目２１番１０号,,13,117,1140034,,,,,,,2025-10-31,1,,,,,ユウコウ,0
2367,9011501032778,新規,0,2025-10-31,2025-10-31,株式会社Ｓ＆Ｙキャピタルホールディングス,,株式会社,東京都,荒川区,荒川７丁目２０番１号,,13,118,1160002,,,,,,,2025-10-31,1,,,,,エスアンドワイキャピタルホールディングス,0
2369,9011503006755,新規,0,2025-10-31,2025-10-31,合同会社Ａｌｍａ　Ｓａｐｏｒｅ,,合同会社,東京都,北区,田端４丁目１９－３遠藤ビル１０１号室,,13,117,1140014,,,,,,,2025-10-31,1,,,,,,0
2386,9013101009850,新規,0,2025-10-31,2025-10-31,株式会社ＳＡＫＡＭＩＣＨＩ設計,,株式会社,東京都,福生市,大字熊川４１７番地７,,13,218,1970003,,,,,,,2025-10-31,1,,,,,サカミチセッケイ,0
2388,9013303007941,新規,0,2025-10-31,2025-10-31,合同会社Ａ　Ｔｒａｄｉｎｇ,,合同会社,東京都,豊島区,南大塚３丁目４７－２モナークマンション大塚１０３号室,,13,116,1700005,,,,,,,2025-10-31,1,,,,,エイトレーディング,0
2392,9020001165617,新規,0,2025-10-31,2025-10-31,株式会社ブレイク・ボトム,,株式会社,神奈川県,川崎市高津区,久末１４０１番地１２ＵＡハイツ２号,,14,134,2130026,,,,,,,2025-10-31,1,,,,,ブレイクボトム,0
2393,9020003029729,新規,0,2025-10-31,2025-10-31,合同会社ＭＵＳＵＢＩ　Ｊａｐａｎ,,合同会社,神奈川県,川崎市多摩区,長尾７丁目１６－７－１Ａ,,14,135,2140023,,,,,,,2025-10-31,1,,,,,ムスビジャパン,0
2396,9021001086687,新規,0,2025-10-31,2025-10-31,株式会社ＴＯ　ＦＡＣＥ,,株式会社,神奈川県,藤沢市,鵠沼藤が谷４丁目５番１０－８号,,14,205,2510031,,,,,,,2025-10-31,1,,,,,トゥフェイス,0
2397,9021001086695,新規,0,2025-10-31,2025-10-31,株式会社正和組,,株式会社,神奈川県,平塚市,真田２丁目１番２２号,,14,203,2591206,,,,,,,2025-10-31,1,,,,,,0
2407,9030001169468,新規,0,2025-10-31,2025-10-31,株式会社Ｋ．ｓ工業,,株式会社,埼玉県,三郷市,彦成３丁目１１番７－９０６号,,11,237,3410003,,,,,,,2025-10-31,1,,,,,ケイエスコウギョウ,0
2413,9030003027970,新規,0,2025-10-31,2025-10-31,合同会社ＨＹ,,合同会社,埼玉県,春日部市,牛島１５９６番地１,,11,214,3440004,,,,,,,2025-10-31,1,,,,,エイチワイ,0
2416,9040001141120,新規,0,2025-10-31,2025-10-31,Ａｒｃ　Ｐｏｒｔａｌ株式会社,,株式会社,千葉県,千葉市美浜区,若葉３丁目１番地１１幕張ベイパークミッドスクエアタワー４２０４号,,12,106,2610014,,,,,,,2025-10-31,1,,,,,アークポータル,0
2417,9040001141178,新規,0,2025-10-31,2025-10-31,株式会社ｍｉｅｕｘ,,株式会社,千葉県,柏市,明原１丁目８番１５号,,12,217,2770843,,,,,,,2025-10-31,1,,,,,ミュー,0
2418,9040001141211,新規,0,2025-10-31,2025-10-31,株式会社ノビシロ,,株式会社,千葉県,船橋市,本町４丁目３６番１９号プラウド船橋本町通り１１０２号,,12,204,2730005,,,,,,,2025-10-31,1,,,,,ノビシロ,0
2423,9040003028869,新規,0,2025-10-31,2025-10-31,合同会社Ｋ．Ｓ興商,,合同会社,千葉県,柏市,手賀の杜３丁目１４番地９,,12,217,2701447,,,,,,,2025-10-31,1,,,,,ケーエスコウショウ,0
2432,9070001043512,新規,0,2025-10-31,2025-10-31,株式会社ＵＺＡＩＲ　ＴＲＡＤＩＮＧ,,株式会社,群馬県,太田市,飯田町１９１番地２大沢荘１０号,,10,205,3730851,,,,,,,2025-10-31,1,,,,,ウザイルトレーディング,0
2435,9080103003462,新規,0,2025-10-31,2025-10-31,合同会社ＫＵＬＩＡ　ＴＲＵＳＴ,,合同会社,静岡県,田方郡函南町,平井１２８５番地の５,,22,325,4190107,,,,,,,2025-10-31,1,,,,,クーリアトラスト,0
2457,9120001281544,新規,0,2025-10-31,2025-10-31,ＥＩＥ株式会社,,株式会社,大阪府,大阪市中央区,南本町２丁目１－１本町サザンビル５０５,,27,128,5410054,,,,,,,2025-10-31,1,,,,,イーアイイー,0
2458,9120001281560,新規,0,2025-10-31,2025-10-31,株式会社カンミ,,株式会社,大阪府,大阪市北区,梅田１丁目２番２号大阪駅前第２ビル１２－１２,,27,127,5300001,,,,,,,2025-10-31,1,,,,,カンミ,0
2459,9120001281602,新規,0,2025-10-31,2025-10-31,株式会社ＺＩＳＵ,,株式会社,大阪府,大阪市西区,九条南１丁目２－２０ドーム前いずみビル４０２,,27,106,5500025,,,,,,,2025-10-31,1,,,,,ジス,0
2460,9120001281610,新規,0,2025-10-31,2025-10-31,株式会社ＫＭ　ｃｏｎｓｕｌｔｉｎｇ,,株式会社,大阪府,大阪市西区,北堀江２丁目２番２４号ＰａｒｋＬａｎｅＨｏｒｉｅＢｌｄ８１３号,,27,106,5500014,,,,,,,2025-10-31,1,,,,,ケーエムコンサルティング,0
2468,9120003031138,新規,0,2025-10-31,2025-10-31,ＳＧＴＫ合同会社,,合同会社,大阪府,大阪市北区,中崎西１丁目６番１４－９０２号,,27,127,5300015,,,,,,,2025-10-31,1,,,,,エスジーティーケー,0
2469,9120005025220,新規,0,2025-10-31,2025-10-31,一般社団法人健口促進協会,,その他の設立登記法人,大阪府,大阪市北区,天神橋１丁目１２番６号天神橋ビル６階,,27,127,5300041,,,,,,,2025-10-31,1,,,,,ケンコウソクシンキョウカイ,0
2492,9140001140558,新規,0,2025-10-31,2025-10-31,アトリエココ株式会社,,株式会社,兵庫県,姫路市,飾磨区英賀東町２丁目９４番地１アメージングエステートＩＶＢ棟,00141339,28,201,6728087,,,,,,,2025-10-31,1,,,,,アトリエココ,0
2493,9140001140616,新規,0,2025-10-31,2025-10-31,光ｆｏｒｍｓ株式会社,,株式会社,兵庫県,神戸市垂水区,泉が丘５丁目８番５２号,,28,108,6550885,,,,,,,2025-10-31,1,,,,,ヒカリファームズ,0
2500,9150001028513,新規,0,2025-10-31,2025-10-31,株式会社ヨシコウ,,株式会社,奈良県,大和高田市,春日町１丁目８番２０－２号,,29,202,6350067,,,,,,,2025-10-31,1,,,,,ヨシコウ,0
2501,9160001027150,新規,0,2025-10-31,2025-10-31,株式会社フェリシア,,株式会社,滋賀県,長浜市,香花寺町４１４番地,,25,203,5260132,,,,,,,2025-10-31,1,,,,,フェリシア,0
2518,9180001169362,新規,0,2025-10-31,2025-10-31,株式会社ＲＥＸＥＲ　ＡＧＥＮＣＹ,,株式会社,愛知県,名古屋市中村区,名駅３丁目２５番３号大橋ビル１２階,,23,105,4500002,,,,,,,2025-10-31,1,,,,,レクサーエージェンシー,0
2521,9180005021288,新規,0,2025-10-31,2025-10-31,一般社団法人ＶＡＵＡ,,その他の設立登記法人,愛知県,長久手市,岩作三ケ峯１番１１４,,23,238,4801103,,,,,,,2025-10-31,1,,,,,バウア,0
2522,9180301040363,新規,0,2025-10-31,2025-10-31,ブーゲンビリア株式会社,,株式会社,愛知県,刈谷市,重原本町１丁目１番地ライオンズ刈谷グラシアフォート４０１号,,23,210,4480023,,,,,,,2025-10-31,1,,,,,ブーゲンビリア,0
2523,9180301040371,新規,0,2025-10-31,2025-10-31,トラストＦＰオフィス株式会社,,株式会社,愛知県,豊橋市,上伝馬町９８番地朝日プラザ豊橋アーバンスクエア２０７,,23,201,4400074,,,,,,,2025-10-31,1,,,,,トラストエフピーオフィス,0
2530,9230001021162,新規,0,2025-10-31,2025-10-31,株式会社ｒｅｓｏｌｖｅｓ,,株式会社,富山県,砺波市,栄町５２８－２,,16,208,9391371,,,,,,,2025-10-31,1,,,,,リゾルヴズ,0
2532,9240003007464,新規,0,2025-10-31,2025-10-31,合同会社廿日市串戸ＰＪ,,合同会社,広島県,広島市中区,舟入中町１２番７号,,34,101,7300842,,,,,,,2025-10-31,1,,,,,ハツカイチクシドピージェイ,0
2536,9260005011537,新規,0,2025-10-31,2025-10-31,内田・小西税理士法人,,その他の設立登記法人,岡山県,岡山市中区,国富８００番地６,,33,102,7038236,,,,,,,2025-10-31,1,,,,,ウチダコニシ,0
2537,9290001111874,新規,0,2025-10-31,2025-10-31,株式会社ＰＩＶＯＴ,,株式会社,福岡県,福岡市早良区,飯倉２丁目１３－８,,40,137,8140161,,,,,,,2025-10-31,1,,,,,ピボット,0
2538,9290001111916,新規,0,2025-10-31,2025-10-31,株式会社わらしべ,,株式会社,福岡県,福岡市西区,愛宕２丁目５番１５号,,40,135,8190015,,,,,,,2025-10-31,1,,,,,ワラシベ,0
2539,9290001111924,新規,0,2025-10-31,2025-10-31,井上株式会社,,株式会社,福岡県,大川市,大字向島１９９８番地４,,40,212,8310005,,,,,,,2025-10-31,1,,,,,イノウエ,0
2540,9290001111949,新規,0,2025-10-31,2025-10-31,株式会社ＢＵＤＤＹ,,株式会社,福岡県,久留米市,六ツ門町２１番地４－２階,,40,203,8300031,,,,,,,2025-10-31,1,,,,,バディ,0
2544,9290003017599,新規,0,2025-10-31,2025-10-31,スマートランク合同会社,,合同会社,福岡県,福岡市博多区,博多駅前１丁目２３番２号ＰａｒｋＦｒｏｎｔ博多駅前１丁目５Ｆ－Ｂ,,40,132,8120011,,,,,,,2025-10-31,1,,,,,スマートランク,0
2545,9290003017616,新規,0,2025-10-31,2025-10-31,合同会社翔響湊‐ＴｏｋｉＴｏ,,合同会社,福岡県,久留米市,国分町１１４３番地７,,40,203,8390863,,,,,,,2025-10-31,1,,,,,トキトトキト,0
2550,9320001021418,新規,0,2025-10-31,2025-10-31,株式会社ＲＵＳＴＩＣ,,株式会社,大分県,大分市,大字旦野原８４７番地の９３アルフォート１０７,,44,201,8701124,,,,,,,2025-10-31,1,,,,,ラスティック,0
2554,9340001027743,新規,0,2025-10-31,2025-10-31,株式会社Ａ’ｄｏｏｒｓ,,株式会社,鹿児島県,姶良市,松原町２丁目２８－１６,,46,225,8995422,,,,,,,2025-10-31,1,,,,,エードアーズ,0
2555,9340003005004,新規,0,2025-10-31,2025-10-31,合同会社すまいのたね,,合同会社,鹿児島県,霧島市,国分広瀬２丁目２９番１０号,,46,218,8994321,,,,,,,2025-10-31,1,,,,,スマイノタネ,0
2558,9350003005060,新規,0,2025-10-31,2025-10-31,合同会社リエゾン,,合同会社,宮崎県,東諸県郡国富町,大字本庄４２５０番地３,,45,382,8801101,,,,,,,2025-10-31,1,,,,,リエゾン,0
2563,9370001053183,新規,0,2025-10-31,2025-10-31,株式会社マルド電工,,株式会社,宮城県,白石市,東町１丁目３番２８号,,04,206,9890225,,,,,,,2025-10-31,1,,,,,マルドデンコウ,0
2573,9430003018285,新規,0,2025-10-31,2025-10-31,合同会社Ｈｏｔでんきシステム,,合同会社,北海道,札幌市手稲区,前田十条２０丁目１０番２５号,,01,109,0060820,,,,,,,2025-10-31,1,,,,,ホットデンキシステム,0
2575,9450001014771,新規,0,2025-10-31,2025-10-31,株式会社Ｒａｂ,,株式会社,北海道,旭川市,神楽四条４丁目１番２１号ＹＯＹＯビル４階４０１号室,,01,204,0708004,,,,,,,2025-10-31,1,,,,,,0
2577,9460101007773,新規,0,2025-10-31,2025-10-31,ＮＥＷ　ＷＯＲＬＤ　ＵＮＩＯＮ株式会社,,株式会社,北海道,帯広市,東四条南５丁目３番地４号,,01,207,0800804,,,,,,,2025-10-31,1,,,,,,0
