sequenceNumber,corporateNumber,process,correct,updateDate,changeDate,name,nameImageId,kind,prefectureName,cityName,streetNumber,addressImageId,prefectureCode,cityCode,postCode,addressOutside,addressOutsideImageId,closeDate,closeCause,successorCorporateNumber,changeCause,assignmentDate,latest,enName,enPrefectureName,enCityName,enAddressOutside,furigana,hihyoji
28,1010701023314,登記記録の閉鎖等,0,2024-07-19,2024-07-16,株式会社フォースメディア,,株式会社,東京都,千代田区,九段北４丁目１－２８,,13,101,1020073,,,2024-07-16,合併による解散等,5120001094974,令和６年７月１日大阪市中央区伏見町四丁目１番１号エレコム株式会社（5120001094974）に合併し解散,2015-10-05,1,,,,,フォースメディア,0
34,1010902022478,登記記録の閉鎖等,0,2024-07-19,2024-07-02,有限会社ミル・フィーユ,,有限会社,岩手県,奥州市,江刺岩谷堂字御所橋２９９番地,,03,215,0231101,,,2024-07-02,清算の結了等,,,2015-10-05,1,,,,,ミルフィーユ,0
48,1011101006000,登記記録の閉鎖等,0,2024-07-19,2024-07-10,京王地下駐車場株式会社,,株式会社,東京都,新宿区,西新宿１丁目１番地,,13,104,1600023,,,2024-07-10,合併による解散等,3011101005999,令和６年７月１日東京都新宿区新宿三丁目１番２４号京王電鉄株式会社（3011101005999）に合併し解散,2015-10-05,1,,,,,ケイオウチカチュウシャジョウ,0
81,1013301018007,登記記録の閉鎖等,0,2024-07-19,2024-07-18,ラコーネットワーク株式会社,,株式会社,東京都,中野区,野方３丁目２７番３号,,13,114,1650027,,,2024-07-18,清算の結了等,,,2015-10-05,1,,,,,ラコーネットワーク,0
99,1030001051914,登記記録の閉鎖等,0,2024-07-19,2024-07-16,中央連続伝票株式会社,,株式会社,埼玉県,北葛飾郡杉戸町,杉戸３丁目１３番１４号,,11,464,3450036,,,2024-07-16,清算の結了等,,,2015-10-05,1,,,,,チュウオウレンゾクデンピョウ,0
108,1030003018705,登記記録の閉鎖等,0,2024-07-19,2024-07-01,合同会社ｎ２,,合同会社,東京都,渋谷区,代々木１丁目３６番６号ＴＣ第５９代々木駅前ビル６０１号室,,13,113,1510053,,,2024-07-01,清算の結了等,,,2022-01-21,1,,,,,エヌツー,0
118,1040005019493,登記記録の閉鎖等,0,2024-07-19,2024-07-03,一般社団法人アスリートサポートネットワーク,,その他の設立登記法人,千葉県,松戸市,上本郷３４３番地エクセレント北松戸５０１号,,12,207,2710064,,,2024-07-03,清算の結了等,,,2017-04-25,1,,,,,アスリートサポートネットワーク,0
120,1050001001314,登記記録の閉鎖等,0,2024-07-19,2024-07-11,昭和鴻業株式会社,,株式会社,茨城県,水戸市,住吉町１５１番地の１,,08,201,3100844,,,2024-07-11,清算の結了等,,,2015-10-05,1,,,,,ショウワコウギョウ,0
129,1080001002458,登記記録の閉鎖等,0,2024-07-19,2024-07-05,株式会社静清タイプ,,株式会社,静岡県,静岡市葵区,相生町１１番１７号,,22,101,4200838,,,2024-07-05,清算の結了等,,,2015-10-05,1,,,,,セイシンタイプ,0
130,1080002002283,登記記録の閉鎖等,0,2024-07-19,2024-07-05,有限会社佐々木興業,,有限会社,静岡県,静岡市葵区,古庄６丁目２番１３号,,22,101,4200812,,,2024-07-05,清算の結了等,,,2015-10-05,1,,,,,ササキコウギョウ,0
143,1120001064114,登記記録の閉鎖等,0,2024-07-19,2024-07-12,株式会社阪重,,株式会社,大阪府,大阪市北区,天神橋３丁目８番２号,,27,127,5300041,,,2024-07-12,清算の結了等,,,2015-10-05,1,,,,,サカジュウ,0
157,1122005002826,登記記録の閉鎖等,0,2024-07-19,2024-07-16,特定非営利活動法人クリアーワン,,その他の設立登記法人,大阪府,八尾市,萱振町１丁目２４番地,,27,212,5810834,,,2024-07-16,清算の結了等,,,2015-10-05,1,,,,,,0
174,1180001043038,登記記録の閉鎖等,0,2024-07-19,2024-07-11,株式会社ペガサス太陽,,株式会社,愛知県,名古屋市中川区,尾頭橋３丁目３番３号,,23,110,4540012,,,2024-07-11,合併による解散等,3010001034365,令和６年７月１日東京都千代田区平河町一丁目５番１５号ＶＯＲＴ平河町１００１号室東京パーラーシステム株式会社（3010001034365）に合併し解散,2015-10-05,1,,,,,ペガサスタイヨウ,0
179,1180002009269,登記記録の閉鎖等,0,2024-07-19,2024-07-03,有限会社栄和広報,,有限会社,愛知県,名古屋市瑞穂区,新開町２４－１２３　５－３０５,,23,108,4670856,,,2024-07-03,清算の結了等,,,2015-10-05,1,,,,,エイワコウホウ,0
182,1180003011629,登記記録の閉鎖等,0,2024-07-19,2024-07-03,丸木撚糸合資会社,,合資会社,愛知県,一宮市,九品町３丁目６番地,,23,203,4910079,,,2024-07-03,清算の結了等,,,2015-10-05,1,,,,,マルキネンシ,0
190,1200002004366,登記記録の閉鎖等,0,2024-07-19,2024-07-16,有限会社マネージメント・エム,,有限会社,岐阜県,岐阜市,芥見南山１丁目２番１０号,,21,201,5013133,,,2024-07-16,清算の結了等,,,2015-10-05,1,,,,,マネージメントエム,0
193,1200002010868,登記記録の閉鎖等,0,2024-07-19,2024-07-17,有限会社大光組,,有限会社,岐阜県,羽島市,小熊町江頭８３０番地の２,,21,209,5016263,,,2024-07-17,清算の結了等,,,2015-10-05,1,,,,,オオミツグミ,0
216,1290002031534,登記記録の閉鎖等,0,2024-07-19,2024-06-20,有限会社花色,,有限会社,福岡県,福岡市西区,西の丘２丁目１９番６号,,40,135,8190046,,,2024-06-20,清算の結了等,,,2015-10-05,1,,,,,ハナイロ,0
217,1290002046838,登記記録の閉鎖等,0,2024-07-19,2024-06-20,有限会社真崎交通,00093473,有限会社,福岡県,嘉麻市,漆生８８６番地５,,40,227,8200201,,,2024-06-20,清算の結了等,,,2015-10-05,1,,,,,マサキコウツウ,0
229,1360001012420,登記記録の閉鎖等,0,2024-07-19,2024-07-17,株式会社仲田開発,,株式会社,沖縄県,島尻郡伊是名村,字勢理客１５８８番地,,47,360,9050605,,,2024-07-17,清算の結了等,,,2015-10-05,1,,,,,ナカダカイハツ,0
233,1370001002890,登記記録の閉鎖等,0,2024-07-19,2024-07-01,木ノ下薬品株式会社,,株式会社,宮城県,仙台市若林区,連坊小路１８番３号,,04,103,9840053,,,2024-07-01,清算の結了等,,,2015-10-05,1,,,,,キノシタヤクヒン,0
234,1370001009110,登記記録の閉鎖等,0,2024-07-19,2024-07-01,株式会社高秀,00081447,株式会社,宮城県,仙台市青葉区,中央３丁目１番１号,,04,101,9800021,,,2024-07-01,合併による解散等,1370002009290,令和６年７月１日仙台市青葉区土樋一丁目７番１０号株式会社アイテック（1370002009290）に合併し解散,2015-10-05,1,,,,,タカシュウ,0
237,1370102000182,登記記録の閉鎖等,0,2024-07-19,2024-07-02,有限会社銀杏社,,有限会社,宮城県,柴田郡柴田町,槻木上町１丁目１番５８号,,04,323,9891753,,,2024-07-02,清算の結了等,,,2015-10-05,1,,,,,ギンナンシャ,0
268,1500001007521,登記記録の閉鎖等,0,2024-07-19,2024-07-08,株式会社Ａｎｇｅｌｉｑｕｅ．Ｈ,,株式会社,愛媛県,松山市,大街道３丁目４番地１,,38,201,7900004,,,2024-07-08,清算の結了等,,,2015-10-05,1,,,,,,0
295,2010402003300,登記記録の閉鎖等,0,2024-07-19,2024-07-02,有限会社かあまにあ,,有限会社,東京都,港区,新橋６丁目１０番９号,,13,103,1050004,,,2024-07-02,清算の結了等,,,2015-10-05,1,,,,,カアマニア,0
300,2010601000206,登記記録の閉鎖等,0,2024-07-19,2024-07-12,株式会社グリーンパートナーズ,,株式会社,東京都,江東区,大島８丁目３８番１５－８１１号,,13,108,1360072,,,2024-07-12,清算の結了等,,,2015-10-05,1,,,,,グリーンパートナーズ,0
306,2011001122945,登記記録の閉鎖等,0,2024-07-19,2024-07-02,株式会社慶旺サービス,,株式会社,東京都,渋谷区,代々木１丁目１９‐１２新代々木ビル４０５,,13,113,1510053,,,2024-07-02,清算の結了等,,,2018-06-27,1,,,,,ケイオウサービス,0
344,2013202004658,登記記録の閉鎖等,0,2024-07-19,2024-07-01,有限会社中島塗装工業所,,有限会社,東京都,目黒区,八雲１丁目１０番７号,,13,110,1520023,,,2024-07-01,清算の結了等,,,2015-10-05,1,,,,,ナカジマトソウコウギョウショ,0
352,2020002054791,登記記録の閉鎖等,0,2024-07-19,2024-07-01,吉原企画有限会社,,有限会社,神奈川県,横浜市都筑区,高山１６番１７号,,14,118,2240065,,,2024-07-01,清算の結了等,,,2015-10-05,1,,,,,ヨシハラキカク,0
374,2040002070564,登記記録の閉鎖等,0,2024-07-19,2024-07-03,有限会社本郷,,有限会社,千葉県,君津市,糸川３５４番地,,12,225,2921145,,,2024-07-03,清算の結了等,,,2015-10-05,1,,,,,ホンゴウ,0
378,2050002009289,登記記録の閉鎖等,0,2024-07-19,2024-07-10,有限会社トビタ精機,,有限会社,茨城県,東茨城郡大洗町,五反田４３６番地,,08,309,3111306,,,2024-07-10,清算の結了等,,,2015-10-05,1,,,,,トビタセイキ,0
383,2070001014156,登記記録の閉鎖等,0,2024-07-19,2024-07-16,株式会社ワコウ測量,,株式会社,群馬県,伊勢崎市,境小此木１２５番地,,10,204,3700135,,,2024-07-16,清算の結了等,,,2015-10-05,1,,,,,ワコウソクリョウ,0
387,2070002023180,登記記録の閉鎖等,0,2024-07-19,2024-07-16,有限会社キングドレス,,有限会社,群馬県,桐生市,相生町１丁目５６４番地の４,,10,203,3760011,,,2024-07-16,清算の結了等,,,2015-10-05,1,,,,,キングドレス,0
392,2080402020628,登記記録の閉鎖等,0,2024-07-19,2024-07-18,有限会社大精工業,,有限会社,静岡県,磐田市,掛塚３１０７番地の２,,22,211,4380234,,,2024-07-18,清算の結了等,,,2015-10-05,1,,,,,タイセイコウギョウ,0
404,2120001217851,登記記録の閉鎖等,0,2024-07-19,2024-07-17,株式会社エングラム,,株式会社,大阪府,大阪市北区,中崎西２丁目４番１２号,,27,127,5300015,,,2024-07-17,清算の結了等,,,2018-12-18,1,,,,,エングラム,0
423,2120902021534,登記記録の閉鎖等,0,2024-07-19,2024-07-12,有限会社佐藤不動産,,有限会社,大阪府,豊中市,清風荘１丁目３番２－１０１－Ｂ号,,27,203,5600041,,,2024-07-12,清算の結了等,,,2015-10-05,1,,,,,サトウフドウサン,0
428,2140001049632,登記記録の閉鎖等,0,2024-07-19,2024-07-12,株式会社大三温泉,,株式会社,兵庫県,尼崎市,建家町９７番地,,28,202,6600871,,,2024-07-12,清算の結了等,,,2015-10-05,1,,,,,ダイサンオンセン,0
429,2140001059012,登記記録の閉鎖等,0,2024-07-19,2024-07-16,株式会社三光システム,,株式会社,兵庫県,姫路市,飾磨区構４丁目３３番地,,28,201,6728071,,,2024-07-16,清算の結了等,,,2015-10-05,1,,,,,サンコウシステム,0
433,2140002017084,登記記録の閉鎖等,0,2024-07-19,2024-07-08,有限会社ライフ,,有限会社,兵庫県,神戸市長田区,水笠通６丁目２番２号,,28,106,6530842,,,2024-07-08,清算の結了等,,,2015-10-05,1,,,,,ライフ,0
444,2180001044316,登記記録の閉鎖等,0,2024-07-19,2024-07-01,株式会社フローブ,,株式会社,愛知県,名古屋市中区,千代田４丁目１７番８号千代田ビル２Ｆ,,23,106,4600012,,,2024-07-01,合併による解散等,3180001062135,令和６年６月３０日名古屋市中区千代田四丁目１７番８号株式会社丸増商会（3180001062135）に合併し解散,2015-10-05,1,,,,,フローブ,0
447,2180002073339,登記記録の閉鎖等,0,2024-07-19,2024-07-03,有限会社櫻井技研,,有限会社,愛知県,瀬戸市,内田町１丁目２０５番地の２,,23,204,4890902,,,2024-07-03,清算の結了等,,,2015-10-05,1,,,,,サクライギケン,0
448,2180003002296,登記記録の閉鎖等,0,2024-07-19,2024-07-03,合資会社小島電業社,,合資会社,愛知県,名古屋市東区,泉１丁目１１番１７号,,23,102,4610001,,,2024-07-03,清算の結了等,,,2015-10-05,1,,,,,コジマデンギョウシャ,0
452,2180301000373,登記記録の閉鎖等,0,2024-07-19,2024-07-05,岡崎米穀株式会社,,株式会社,愛知県,岡崎市,稲熊町字８丁目４３番地１第２１御幸オフィス１０２,,23,202,4440071,,,2024-07-05,清算の結了等,,,2015-10-05,1,,,,,オカザキベイコク,0
459,2200002007384,登記記録の閉鎖等,0,2024-07-19,2024-07-11,有限会社サカエグループ,,有限会社,岐阜県,各務原市,鵜沼羽場町３丁目１番地の３,,21,213,5090135,,,2024-07-11,清算の結了等,,,2015-10-05,1,,,,,サカエグループ,0
460,2200002011444,登記記録の閉鎖等,0,2024-07-19,2024-07-09,徳田技研有限会社,,有限会社,岐阜県,羽島郡岐南町,徳田６丁目２４６番地,,21,302,5016016,,,2024-07-09,清算の結了等,,,2015-10-05,1,,,,,トクダギケン,0
471,2250002004146,登記記録の閉鎖等,0,2024-07-19,2024-07-12,有限会社石田鮮魚店,,有限会社,山口県,宇部市,大字妻崎開作１５８７番地の１１,,35,202,7590204,,,2024-07-12,清算の結了等,,,2015-10-05,1,,,,,イシダセンギョテン,0
473,2260002017188,登記記録の閉鎖等,0,2024-07-19,2024-07-03,有限会社尾崎紙器工業所,,有限会社,岡山県,倉敷市,児島田の口６丁目１番３３号,,33,202,7110903,,,2024-07-03,清算の結了等,,,2015-10-05,1,,,,,オサキシキコウギョウショ,0
505,2420001002100,登記記録の閉鎖等,0,2024-07-19,2024-07-16,株式会社木商建設,,株式会社,青森県,青森市,奥野１丁目６番１０号,,02,201,0300841,,,2024-07-16,清算の結了等,,,2015-10-05,1,,,,,モクショウケンセツ,0
509,2430001060519,登記記録の閉鎖等,0,2024-07-19,2024-07-12,株式会社サロンドヴィヴィ北海道,,株式会社,北海道,江別市,東野幌本町３５番２,,01,217,0690824,,,2024-07-12,清算の結了等,,,2015-10-05,1,,,,,サロンドヴィヴィホッカイドウ,0
517,2460001001180,登記記録の閉鎖等,0,2024-07-19,2024-07-18,株式会社エヌイーアイ,,株式会社,北海道,釧路市,駒場町３番８号,,01,206,0850048,,,2024-07-18,清算の結了等,,,2015-10-05,1,,,,,エヌイーアイ,0
519,2470002002623,登記記録の閉鎖等,0,2024-07-19,2024-07-01,有限会社建設機構研究所,,有限会社,長野県,佐久市,長土呂６３８番地２,,20,217,3850021,,,2024-07-01,清算の結了等,,,2015-10-05,1,,,,,ケンセツキコウケンキュウジョ,0
529,3010001135618,登記記録の閉鎖等,0,2024-07-19,2024-07-04,株式会社ぐるなび総研,,株式会社,東京都,千代田区,有楽町１丁目１番２号,,13,101,1000006,,,2024-07-04,清算の結了等,,,2015-10-05,1,,,,,グルナビソウケン,0
551,3010403025714,登記記録の閉鎖等,0,2024-07-19,2024-07-02,合同会社ＳＡＰ　Ｏｇｕ,,合同会社,東京都,港区,虎ノ門５丁目１番４号,,13,103,1050001,,,2024-07-02,清算の結了等,,,2021-07-14,1,,,,,エスエーピーオグ,0
623,3030001072306,登記記録の閉鎖等,0,2024-07-19,2024-07-12,株式会社剛伸会,,株式会社,埼玉県,川越市,大字笠幡４４９４番地６（笠幡ＫＡＳＨＩＹＡ－Ｆ）,,11,201,3501175,,,2024-07-12,清算の結了等,,,2015-10-05,1,,,,,ゴウシンカイ,0
642,3060001012028,登記記録の閉鎖等,0,2024-07-19,2024-07-03,タシロ恒産株式会社,,株式会社,栃木県,那須塩原市,井口５７４番地１,,09,213,3292763,,,2024-07-03,清算の結了等,,,2015-10-05,1,,,,,タシロコウサン,0
645,3060002002110,登記記録の閉鎖等,0,2024-07-19,2024-07-04,有限会社岡川建設,,有限会社,栃木県,宇都宮市,御幸ケ原町２４番地１１鈴木ハウスＢ－６,,09,201,3210982,,,2024-07-04,清算の結了等,,,2015-10-05,1,,,,,オカガワケンセツ,0
649,3080402013936,登記記録の閉鎖等,0,2024-07-19,2024-07-11,有限会社エーオーアイ,,有限会社,静岡県,浜松市中央区,広沢３丁目１８番２６号,,22,138,4328013,,,2024-07-11,清算の結了等,,,2015-10-05,1,,,,,エーオーアイ,0
656,3110001025016,登記記録の閉鎖等,0,2024-07-19,2024-07-05,中野繊維工業株式会社,,株式会社,新潟県,見附市,新潟町４５０１番地７,,15,211,9540006,,,2024-07-05,清算の結了等,,,2015-10-05,1,,,,,ナカノセンイコウギョウ,0
672,3120101008084,登記記録の閉鎖等,0,2024-07-19,2024-07-12,株式会社ワコー,,株式会社,大阪府,堺市北区,北花田町２丁１２番地１,,27,146,5918002,,,2024-07-12,清算の結了等,,,2015-10-05,1,,,,,ワコー,0
674,3120902014982,登記記録の閉鎖等,0,2024-07-19,2024-07-16,有限会社青木ティエスエイチ,,有限会社,大阪府,箕面市,粟生間谷西３丁目２１番１１－５０８号,,27,220,5620023,,,2024-07-16,清算の結了等,,,2015-10-05,1,,,,,アオキティエスエイチ,0
675,3122001027131,登記記録の閉鎖等,0,2024-07-19,2024-07-16,Ｍ＆Ｅ株式会社,,株式会社,大阪府,八尾市,恩智中町４丁目１６９番地,,27,212,5810883,,,2024-07-16,清算の結了等,,,2015-10-05,1,,,,,エムアンドイー,0
680,3140001042999,登記記録の閉鎖等,0,2024-07-19,2024-07-12,正栄建設株式会社,,株式会社,兵庫県,加古川市,尾上町安田３３１－１,,28,210,6750021,,,2024-07-12,清算の結了等,,,2015-10-05,1,,,,,ショウエイケンセツ,0
701,3180001087396,登記記録の閉鎖等,0,2024-07-19,2024-07-03,ケンコーホーム株式会社,,株式会社,愛知県,稲沢市,船橋町屋敷７４４番地グリーンパークやしき１０３,,23,220,4928267,,,2024-07-03,清算の結了等,,,2015-10-05,1,,,,,ケンコーホーム,0
702,3180001089657,登記記録の閉鎖等,0,2024-07-19,2024-07-02,株式会社恒川新聞店,,株式会社,愛知県,春日井市,堀ノ内町４丁目４番地６,,23,206,4860829,,,2024-07-02,清算の結了等,,,2015-10-05,1,,,,,ツネカワシンブンテン,0
711,3190001005332,登記記録の閉鎖等,0,2024-07-19,2024-07-16,株式会社深茂園芸,,株式会社,三重県,鈴鹿市,深溝町１６７９番地,,24,207,5190321,,,2024-07-16,清算の結了等,,,2015-10-05,1,,,,,フカシゲエンゲイ,0
726,3260002013310,登記記録の閉鎖等,0,2024-07-19,2024-07-01,有限会社レディアンス,,有限会社,岡山県,岡山市北区,大供表町３番１号,,33,101,7000912,,,2024-07-01,合併による解散等,1260001024153,令和６年７月１日岡山市中区東山一丁目３番４２号株式会社アシスト（1260001024153）に合併し解散,2015-10-05,1,,,,,レディアンス,0
738,3320005007492,登記記録の閉鎖等,0,2024-07-19,2024-07-11,一般社団法人５１年友の会,,その他の設立登記法人,大分県,日田市,吹上町９番３５号,,44,204,8770083,,,2024-07-11,清算の結了等,,,2015-10-05,1,,,,,ゴジュウイチネントモノカイ,0
740,3330001023286,登記記録の閉鎖等,0,2024-07-19,2024-07-10,株式会社ビズテック,,株式会社,熊本県,上益城郡益城町,大字広崎１０５４番地５,,43,443,8612236,,,2024-07-10,清算の結了等,,,2016-10-05,1,,,,,ビズテック,0
742,3330003007320,登記記録の閉鎖等,0,2024-07-19,2024-07-05,合同会社ＬＳＴ,,合同会社,熊本県,菊池市,隈府１４９７番７,,43,210,8611331,,,2024-07-05,清算の結了等,,,2017-12-27,1,,,,,エルエスティー,0
744,3340002001406,登記記録の閉鎖等,0,2024-07-19,2024-07-12,有限会社いちろく本店,,有限会社,鹿児島県,鹿児島市,桜ヶ丘７丁目５番１４号,,46,201,8900075,,,2024-07-12,清算の結了等,,,2015-10-05,1,,,,,イチロクホンテン,0
757,3380002030054,登記記録の閉鎖等,0,2024-07-19,2024-07-09,有限会社澤田機工,,有限会社,福島県,双葉郡浪江町,大字苅宿字鹿畑９９番地の１１,,07,547,9791505,,,2024-07-09,清算の結了等,,,2015-10-05,1,,,,,サワダキコウ,0
762,3400503000107,登記記録の閉鎖等,0,2024-07-19,2024-06-28,合資会社昆吉魚店,,合資会社,岩手県,一関市,千厩町千厩字町１４０番地,00085952,03,209,0290803,,,2024-06-28,清算の結了等,,,2015-10-05,1,,,,,コンキチサカナテン,0
767,3410002003956,登記記録の閉鎖等,0,2024-07-19,2024-07-10,有限会社リー・ビーカンパニー,,有限会社,秋田県,秋田市,茨島４丁目１９番６１号,00086591,05,201,0100065,,,2024-07-10,清算の結了等,,,2015-10-05,1,,,,,リービーカンパニー,0
784,4010001124644,登記記録の閉鎖等,0,2024-07-19,2024-07-04,株式会社全国商店街支援センター,,株式会社,東京都,中央区,湊１丁目６番１１号,,13,102,1040043,,,2024-07-04,清算の結了等,,,2015-10-05,1,,,,,ゼンコクショウテンガイシエンセンター,0
800,4010102010719,登記記録の閉鎖等,0,2024-07-19,2024-07-16,有限会社アトリエＵＮＯ,,有限会社,東京都,八王子市,小比企町５４１番地２４,,13,201,1930934,,,2024-07-16,清算の結了等,,,2015-10-05,1,,,,,アトリエウノ,0
801,4010102010751,登記記録の閉鎖等,0,2024-07-19,2024-07-18,有限会社アカハネ,,有限会社,東京都,八王子市,北野町５７７番地５,,13,201,1920906,,,2024-07-18,清算の結了等,,,2015-10-05,1,,,,,,0
836,4011103012191,登記記録の閉鎖等,0,2024-07-19,2024-07-02,ＮＥｗｈｅｒｅ　Ｊａｐａｎ合同会社,,合同会社,東京都,港区,赤坂１丁目１１番４４号赤坂インターシティ５階Ｍａｚａｒｓ・Ｊａｐａｎ株式会社内,,13,103,1070052,,,2024-07-02,清算の結了等,,,2022-09-26,1,,,,,エニウェアジャパン,0
858,4013102002223,登記記録の閉鎖等,0,2024-07-19,2024-07-12,有限会社東京花壇,,有限会社,東京都,西多摩郡日の出町,大字平井３７４番地１,,13,305,1900182,,,2024-07-12,清算の結了等,,,2015-10-05,1,,,,,トウキョウカダン,0
859,4013102003700,登記記録の閉鎖等,0,2024-07-19,2024-07-16,有限会社ブルーウエイブ,,有限会社,東京都,羽村市,緑ヶ丘１丁目１４番地１０,,13,227,2050003,,,2024-07-16,清算の結了等,,,2015-10-05,1,,,,,ブルーウエイブ,0
868,4020003011930,登記記録の閉鎖等,0,2024-07-19,2024-07-01,Ｋ．Ｉ．美創合同会社,,合同会社,神奈川県,横浜市南区,三春台１１５番地,,14,105,2320002,,,2024-07-01,清算の結了等,,,2016-10-19,1,,,,,ケイアイビソウ,0
881,4030001122605,登記記録の閉鎖等,0,2024-07-19,2024-07-11,日本テスコ株式会社,,株式会社,埼玉県,坂戸市,千代田５丁目１番２８号,,11,239,3500214,,,2024-07-11,清算の結了等,,,2017-10-18,1,,,,,,0
882,4030001122794,登記記録の閉鎖等,0,2024-07-19,2024-07-16,株式会社雅樹工業,,株式会社,埼玉県,さいたま市岩槻区,大字南辻１３７番地１ヨーロピアンシャレーパラシオＢ,00111701,11,110,3390062,,,2024-07-16,清算の結了等,,,2017-10-31,1,,,,,,0
888,4030002067725,登記記録の閉鎖等,0,2024-07-19,2024-07-11,有限会社アドセラミックス研究所,,有限会社,埼玉県,春日部市,備後東８丁目３１番１３号,,11,214,3440032,,,2024-07-11,清算の結了等,,,2015-10-05,1,,,,,アドセラミックスケンキュウショ,0
917,4090001002900,登記記録の閉鎖等,0,2024-07-19,2024-07-09,株式会社ニューワールド,,株式会社,山梨県,中央市,西花輪３６７９番地の１,,19,214,4093843,,,2024-07-09,清算の結了等,,,2015-10-05,1,,,,,ニューワールド,0
922,4110001020321,登記記録の閉鎖等,0,2024-07-19,2024-07-16,中央電気工業株式会社,,株式会社,茨城県,鹿嶋市,大字光４番地,,08,222,3140014,,,2024-07-16,合併による解散等,9010001035003,令和６年７月１日東京都中央区八重洲一丁目４番１６号新日本電工株式会社（9010001035003）に合併し解散,2015-10-05,1,,,,,チュウオウデンキコウギョウ,0
923,4110002000181,登記記録の閉鎖等,0,2024-07-19,2024-07-05,有限会社はじめ,,有限会社,新潟県,新潟市東区,南紫竹１丁目３番２５号,,15,102,9500854,,,2024-07-05,清算の結了等,,,2015-10-05,1,,,,,,0
926,4120001142643,登記記録の閉鎖等,0,2024-07-19,2024-07-16,株式会社ｎａｎｏ　ｃｏｌｏｒ,,株式会社,大阪府,大阪市中央区,久太郎町２丁目５番１９号丸忠第３ビル６０３号室,,27,128,5410056,,,2024-07-16,清算の結了等,,,2015-10-05,1,,,,,ナノカラー,0
950,4140001036521,登記記録の閉鎖等,0,2024-07-19,2024-07-12,株式会社ミドリ産業,,株式会社,兵庫県,三木市,別所町巴２１番１,,28,215,6730443,,,2024-07-12,合併による解散等,8140001036146,令和６年７月１日兵庫県三木市別所町巴２１番１東洋物産工業株式会社（8140001036146）に合併し解散,2015-10-05,1,,,,,ミドリサンギョウ,0
951,4140001044549,登記記録の閉鎖等,0,2024-07-19,2024-07-16,株式会社地主工作所,,株式会社,兵庫県,加古郡稲美町,岡５３８番地の２,,28,381,6751113,,,2024-07-16,清算の結了等,,,2015-10-05,1,,,,,ジヌシコウサクショ,0
968,4160003002536,登記記録の閉鎖等,0,2024-07-19,2024-07-09,ＢｅＴｅｃｈ合同会社,,合同会社,鹿児島県,薩摩川内市,平佐町４４７２番地１,,46,215,8950012,,,2024-07-09,清算の結了等,,,2022-04-07,1,,,,,ビィーテック,0
980,4180002085729,登記記録の閉鎖等,0,2024-07-19,2024-07-02,有限会社南知多漁業青年グループ,,有限会社,愛知県,知多郡南知多町,大字日間賀島字久渕道下３８番地の１,,23,445,4703504,,,2024-07-02,清算の結了等,,,2015-10-05,1,,,,,ミナミチタギョギョウセイネングループ,0
982,4190002018786,登記記録の閉鎖等,0,2024-07-19,2024-07-10,有限会社システム技研,,有限会社,三重県,桑名市,大字本願寺２５２番地１,,24,205,5110835,,,2024-07-10,清算の結了等,,,2015-10-05,1,,,,,システムギケン,0
985,4210001008918,登記記録の閉鎖等,0,2024-07-19,2024-07-10,株式会社すいせん,,株式会社,福井県,福井市,二の宮１丁目２番２８号,,18,201,9100015,,,2024-07-10,清算の結了等,,,2015-10-05,1,,,,,スイセン,0
996,4240001006142,登記記録の閉鎖等,0,2024-07-19,2024-07-12,太陽興産株式会社,,株式会社,広島県,広島市安佐北区,小河原町１４７４番地２,,34,106,7391754,,,2024-07-12,清算の結了等,,,2015-10-05,1,,,,,タイヨウコウサン,0
997,4240001025687,登記記録の閉鎖等,0,2024-07-19,2024-07-16,株式会社協栄,,株式会社,広島県,呉市,本通５丁目１１番１号,,34,202,7370045,,,2024-07-16,清算の結了等,,,2015-10-05,1,,,,,キョウエイ,0
998,4240001029812,登記記録の閉鎖等,0,2024-07-19,2024-07-10,株式会社イーストイモリ,,株式会社,広島県,福山市,東手城町２丁目１０番５号,,34,207,7210962,,,2024-07-10,合併による解散等,7240001030073,令和６年７月１日広島県福山市南手城町一丁目２４番３１号井森塗料株式会社（7240001030073）に合併し解散,2015-10-05,1,,,,,イーストイモリ,0
1001,4240001047533,登記記録の閉鎖等,0,2024-07-19,2024-07-16,株式会社テック・岡,,株式会社,広島県,広島市東区,二葉の里２丁目１番１－１６号,,34,102,7320057,,,2024-07-16,清算の結了等,,,2015-10-05,1,,,,,テックオカ,0
1003,4240001053647,登記記録の閉鎖等,0,2024-07-19,2024-07-16,株式会社金子屋金井,,株式会社,広島県,広島市中区,大手町３丁目３番２９号,,34,101,7300051,,,2024-07-16,清算の結了等,,,2018-12-07,1,,,,,カネコヤカナイ,0
1017,4320003000184,登記記録の閉鎖等,0,2024-07-19,2024-07-04,合資会社ニッチサービス,,合資会社,大分県,大分市,大字宮崎１５４０番地３７,,44,201,8701133,,,2024-07-04,清算の結了等,,,2015-10-05,1,,,,,,0
1033,4400001014153,登記記録の閉鎖等,0,2024-07-19,2024-07-02,株式会社インフィニティソリューションズ,,株式会社,岩手県,盛岡市,中央通３丁目１４番１７－１１０５号,,03,201,0200021,,,2024-07-02,清算の結了等,,,2018-05-17,1,,,,,インフィニティソリューションズ,0
1035,4400502000560,登記記録の閉鎖等,0,2024-07-19,2024-07-01,有限会社八森工務店,,有限会社,岩手県,一関市,赤荻字亀田２３６番地２,,03,209,0210041,,,2024-07-01,清算の結了等,,,2015-10-05,1,,,,,ハチモリコウムテン,0
1043,4420001005010,登記記録の閉鎖等,0,2024-07-19,2024-07-08,株式会社なりた,,株式会社,青森県,青森市,大字新城字山田６７７番地３４９,,02,201,0380042,,,2024-07-08,清算の結了等,,,2015-10-05,1,,,,,ナリタ,0
1045,4420001016040,登記記録の閉鎖等,0,2024-07-19,2024-07-08,株式会社倖研,,株式会社,青森県,青森市,大字泉野字野脇２６番地,,02,201,0300922,,,2024-07-08,清算の結了等,,,2018-01-19,1,,,,,コウケン,0
1046,4420002017525,登記記録の閉鎖等,0,2024-07-19,2024-07-09,有限会社三共電気,,有限会社,青森県,三沢市,桜町２丁目１６番２０号,,02,207,0330031,,,2024-07-09,清算の結了等,,,2015-10-05,1,,,,,サンキョウデンキ,0
1047,4420005002243,登記記録の閉鎖等,0,2024-07-19,2024-07-04,公益社団法人岩木憩の家,,その他の設立登記法人,青森県,青森市,浪岡大字女鹿沢字平野１５５番地,,02,201,0381331,,,2024-07-04,清算の結了等,,,2015-10-05,1,,,,,イワキイコイノイエ,0
1061,4480003001687,登記記録の閉鎖等,0,2024-07-19,2024-07-16,大野動物病院合同会社,,合同会社,徳島県,海部郡牟岐町,大字中村字本村１１８番地１,,36,383,7750006,,,2024-07-16,清算の結了等,,,2021-07-12,1,,,,,オオノドウブツビョウイン,0
1082,5010401163118,登記記録の閉鎖等,0,2024-07-19,2024-07-01,ＫＯ－ＧＵ株式会社,,株式会社,東京都,渋谷区,恵比寿４丁目２０－４恵比寿ガーデンプレイスグラススクエアＢ１Ｆ,,13,113,1500013,,,2024-07-01,清算の結了等,,,2021-10-12,1,,,,,コーグ,0
1095,5010701019886,登記記録の閉鎖等,0,2024-07-19,2024-07-01,クワトロ株式会社,,株式会社,東京都,中央区,日本橋２丁目１番１０号,,13,102,1030027,,,2024-07-01,合併による解散等,7010001055770,令和６年７月１日東京都中央区日本橋二丁目１番１０号株式会社双葉ホールディングス（7010001055770）に合併し解散,2015-10-05,1,,,,,クワトロ,0
1108,5011002030483,登記記録の閉鎖等,0,2024-07-19,2024-07-17,有限会社ｅａｒｔｈ　ｂｅｌｌ,,有限会社,東京都,中野区,中央１丁目１２番２号,,13,114,1640011,,,2024-07-17,清算の結了等,,,2015-10-05,1,,,,,アースベル,0
1121,5011501011463,登記記録の閉鎖等,0,2024-07-19,2024-07-18,三星工業株式会社,,株式会社,東京都,荒川区,東尾久６丁目４５番１３号,,13,118,1160012,,,2024-07-18,清算の結了等,,,2015-10-05,1,,,,,サンセイコウギョウ,0
1128,5011801009249,登記記録の閉鎖等,0,2024-07-19,2024-07-16,株式会社大栄田中建設,,株式会社,東京都,足立区,古千谷本町１丁目１番２１号,,13,121,1210832,,,2024-07-16,清算の結了等,,,2015-10-05,1,,,,,ダイエイタナカケンセツ,0
1134,5012401032624,登記記録の閉鎖等,0,2024-07-19,2024-07-17,株式会社パンゴリン・ロボット・ジャパン,,株式会社,東京都,八王子市,東町７－６エバーズ第１２八王子ビル３階,,13,201,1920082,,,2024-07-17,清算の結了等,,,2017-04-19,1,,,,,パンゴリンロボットジャパン,0
1176,5040001119715,登記記録の閉鎖等,0,2024-07-19,2024-07-04,株式会社Ｎｕｒｓｉｎｇ　Ｓｅｌｅｃｔｉｏｎ,,株式会社,千葉県,船橋市,七林町１１７番地１０６パストラル習志野１０３号室,,12,204,2740821,,,2024-07-04,清算の結了等,,,2021-08-06,1,,,,,ナーシングセレクション,0
1180,5040002029491,登記記録の閉鎖等,0,2024-07-19,2024-07-03,有限会社ダイシン工業,,有限会社,千葉県,八千代市,大和田新田８６５番地６,,12,221,2760046,,,2024-07-03,清算の結了等,,,2015-10-05,1,,,,,ダイシンコウギョウ,0
1181,5040002037016,登記記録の閉鎖等,0,2024-07-19,2024-07-03,有限会社森下塗装,,有限会社,千葉県,市川市,南大野１丁目４４番３号,,12,203,2720804,,,2024-07-03,清算の結了等,,,2015-10-05,1,,,,,モリシタトソウ,0
1184,5040003008577,登記記録の閉鎖等,0,2024-07-19,2024-07-04,合同会社舞健美来,,合同会社,千葉県,船橋市,金杉７丁目１２番６号,,12,204,2730853,,,2024-07-04,清算の結了等,,,2016-05-17,1,,,,,,0
1193,5070001025902,登記記録の閉鎖等,0,2024-07-19,2024-07-17,株式会社ドリーム,,株式会社,群馬県,みどり市,笠懸町阿左美２１０５番地１６,,10,212,3792311,,,2024-07-17,清算の結了等,,,2015-10-05,1,,,,,ドリーム,0
1199,5080103002690,登記記録の閉鎖等,0,2024-07-19,2024-07-16,合同会社プロス,,合同会社,静岡県,沼津市,末広町１２３番地プレステージ末広２０４,,22,203,4100888,,,2024-07-16,清算の結了等,,,2022-11-25,1,,,,,プロス,0
1207,5110002003869,登記記録の閉鎖等,0,2024-07-19,2024-07-08,有限会社高成電気工事,,有限会社,新潟県,新潟市東区,太平２丁目１番地６,,15,102,9500005,,,2024-07-08,清算の結了等,,,2015-10-05,1,,,,,タカセイデンキコウジ,0
1223,5120901018660,登記記録の閉鎖等,0,2024-07-19,2024-07-12,株式会社プレイスプランニング,,株式会社,大阪府,吹田市,南吹田３丁目１３番６号,,27,205,5640043,,,2024-07-12,清算の結了等,,,2015-10-05,1,,,,,プレイスプランニング,0
1224,5120901031564,登記記録の閉鎖等,0,2024-07-19,2024-07-16,ルーセントライフネス株式会社,,株式会社,大阪府,豊中市,曽根南町２丁目１０番２０－４０２号,,27,203,5610804,,,2024-07-16,清算の結了等,,,2015-10-05,1,,,,,ルーセントライフネス,0
1231,5130002032255,登記記録の閉鎖等,0,2024-07-19,2024-07-10,有限会社洋品イケダ,,有限会社,京都府,与謝郡与謝野町,字加悦１１０７番地,,26,465,6292403,,,2024-07-10,清算の結了等,,,2015-10-05,1,,,,,ヨウヒンイケダ,0
1232,5140001034078,登記記録の閉鎖等,0,2024-07-19,2024-07-16,株式会社ワイ・エスジャパン,,株式会社,大阪府,豊中市,服部元町１丁目３番１１号,,27,203,5610851,,,2024-07-16,清算の結了等,,,2015-10-05,1,,,,,ワイエスジャパン,0
1253,5180001079268,登記記録の閉鎖等,0,2024-07-19,2024-07-02,株式会社丸高商事,00072324,株式会社,愛知県,瀬戸市,上品野町３１番地,,23,204,4801214,,,2024-07-02,清算の結了等,,,2015-10-05,1,,,,,マルタカショウジ,0
1275,5230002008922,登記記録の閉鎖等,0,2024-07-19,2024-07-16,有限会社サチコーポレーション,,有限会社,富山県,滑川市,吾妻町３４３番地,,16,206,9360033,,,2024-07-16,清算の結了等,,,2015-10-05,1,,,,,サチコーポレーション,0
1283,5280002009214,登記記録の閉鎖等,0,2024-07-19,2024-07-17,有限会社太江建設,,有限会社,島根県,江津市,敬川町８２５番地１,,32,207,6993162,,,2024-07-17,清算の結了等,,,2015-10-05,1,,,,,タイコウケンセツ,0
1284,5290001019048,登記記録の閉鎖等,0,2024-07-19,2024-06-20,コモドファニチャー株式会社,,株式会社,福岡県,福岡市早良区,有田３丁目５番１７号,,40,137,8140033,,,2024-06-20,清算の結了等,,,2015-10-05,1,,,,,コモドファニチャー,0
1288,5290003008560,登記記録の閉鎖等,0,2024-07-19,2024-06-21,ナカテック福岡合同会社,,合同会社,福岡県,春日市,原町２丁目３０－１－１０３,,40,218,8160804,,,2024-06-21,清算の結了等,,,2018-11-29,1,,,,,ナカテックフクオカ,0
1300,5320005002756,登記記録の閉鎖等,0,2024-07-19,2024-07-12,協同組合別府食品センター,,その他の設立登記法人,大分県,別府市,浜脇１丁目６番３２号,,44,202,8740947,,,2024-07-12,清算の結了等,,,2015-10-05,1,,,,,ベップショクヒンセンター,0
1318,5400501000148,登記記録の閉鎖等,0,2024-07-19,2024-07-01,株式会社エスコーポレーション,,株式会社,東京都,港区,西新橋１丁目６－１２アイオス虎ノ門５０１号,,13,103,1050003,,,2024-07-01,清算の結了等,,,2015-10-05,1,,,,,エスコーポレーション,0
1326,5430001025493,登記記録の閉鎖等,0,2024-07-19,2024-07-12,株式会社中央興業,,株式会社,北海道,札幌市北区,新川四条１６丁目３番２５号,,01,102,0010924,,,2024-07-12,清算の結了等,,,2015-10-05,1,,,,,チュウオウコウギョウ,0
1331,5430002022325,登記記録の閉鎖等,0,2024-07-19,2024-07-11,有限会社ロイヤル家電,,有限会社,北海道,札幌市東区,北四十七条東７丁目１番２０－１号,,01,103,0070847,,,2024-07-11,清算の結了等,,,2015-10-05,1,,,,,ロイヤルカデン,0
1335,5440002006005,登記記録の閉鎖等,0,2024-07-19,2024-07-12,有限会社丸高高橋商店,,有限会社,北海道,函館市,万代町１６番２５号,,01,202,0400075,,,2024-07-12,清算の結了等,,,2015-10-05,1,,,,,マルタカタカハシショウテン,0
1399,6011601012518,登記記録の閉鎖等,0,2024-07-19,2024-07-05,株式会社ファッションパークベベ,,株式会社,東京都,練馬区,練馬１丁目１番１０号,,13,120,1760001,,,2024-07-05,合併による解散等,3011601004831,令和６年６月２１日東京都練馬区練馬一丁目１番１０号トキワ興業株式会社（3011601004831）に合併し解散,2015-10-05,1,,,,,,0
1402,6011701025139,登記記録の閉鎖等,0,2024-07-19,2024-07-09,株式会社ファンテェック,,株式会社,東京都,江戸川区,北葛西３丁目６番１３号,,13,123,1340081,,,2024-07-09,清算の結了等,,,2022-03-23,1,,,,,ファンテェック,0
1415,6013301047579,登記記録の閉鎖等,0,2024-07-19,2024-07-17,株式会社＆ｍｅａｌ,,株式会社,東京都,豊島区,目白３丁目１番２８号,,13,116,1710031,,,2024-07-17,合併による解散等,3010901044208,令和６年７月１日東京都港区南青山三丁目８番７号株式会社ｍｅｅｔｈ（3010901044208）に合併し解散,2021-06-10,1,,,,,アンドミール,0
1434,6021002010161,登記記録の閉鎖等,0,2024-07-19,2024-07-12,有限会社イシイ,,有限会社,神奈川県,茅ヶ崎市,堤１０３４番地１,,14,207,2530006,,,2024-07-12,清算の結了等,,,2015-10-05,1,,,,,イシイ,0
1449,6030002011326,登記記録の閉鎖等,0,2024-07-19,2024-07-16,常陸工機有限会社,,有限会社,埼玉県,さいたま市北区,植竹町１丁目２８２番地,,11,102,3310813,,,2024-07-16,清算の結了等,,,2015-10-05,1,,,,,,0
1454,6040001025169,登記記録の閉鎖等,0,2024-07-19,2024-07-04,プレアクリエイト株式会社,,株式会社,千葉県,船橋市,湊町２丁目１２番２４号,,12,204,2730011,,,2024-07-04,清算の結了等,,,2015-10-05,1,,,,,プレアクリエイト,0
1465,6050001043269,登記記録の閉鎖等,0,2024-07-19,2024-07-10,株式会社ミルク工房もりや,,株式会社,茨城県,守谷市,立沢２０５８番地,,08,224,3020118,,,2024-07-10,合併による解散等,5050001010625,令和６年７月１日茨城県土浦市真鍋一丁目７番５号株式会社アクアクララ筑波山（5050001010625）に合併し解散,2017-08-14,1,,,,,ミルクコウボウモリヤ,0
1468,6050002038697,登記記録の閉鎖等,0,2024-07-19,2024-07-16,ペットのきもち有限会社,,有限会社,茨城県,牛久市,さくら台３丁目４８番地１１,,08,219,3001217,,,2024-07-16,清算の結了等,,,2015-10-05,1,,,,,ペットノキモチ,0
1470,6070001033276,登記記録の閉鎖等,0,2024-07-19,2024-07-17,藤本商事株式会社,,株式会社,群馬県,高崎市,貝沢町９５３－１,,10,202,3700042,,,2024-07-17,清算の結了等,,,2017-03-17,1,,,,,フジモトショウジ,0
1529,6140003014861,登記記録の閉鎖等,0,2024-07-19,2024-07-10,合同会社Ｃａｒｅｎ,,合同会社,兵庫県,伊丹市,伊丹２丁目１番５－４０８号,,28,207,6640846,,,2024-07-10,清算の結了等,,,2020-04-03,1,,,,,カレン,0
1550,6180301001616,登記記録の閉鎖等,0,2024-07-19,2024-07-05,西三河食糧株式会社,,株式会社,愛知県,岡崎市,稲熊町字８丁目４３番地１第２１御幸オフィス１０２,,23,202,4440071,,,2024-07-05,清算の結了等,,,2015-10-05,1,,,,,ニシミカワショクリョウ,0
1552,6190005004550,登記記録の閉鎖等,0,2024-07-19,2024-07-10,特定非営利活動法人三重すずかスポーツクラブ,,その他の設立登記法人,三重県,鈴鹿市,住吉４丁目２１番１３号,,24,207,5130826,,,2024-07-10,清算の結了等,,,2015-10-05,1,,,,,ミエスズカスポーツクラブ,0
1556,6210002012990,登記記録の閉鎖等,0,2024-07-19,2024-07-09,有限会社鯖江工芸,00077955,有限会社,福井県,鯖江市,糺町４４号６番地,,18,207,9160004,,,2024-07-09,清算の結了等,,,2015-10-05,1,,,,,サバエコウゲイ,0
1567,6260001032580,登記記録の閉鎖等,0,2024-07-19,2024-07-18,山本ホールディングス株式会社,,株式会社,岡山県,岡山市東区,宍甘１６５番地１,,33,103,7038216,,,2024-07-18,清算の結了等,,,2018-11-08,1,,,,,ヤマモトホールディングス,0
1579,6330001008466,登記記録の閉鎖等,0,2024-07-19,2024-07-05,株式会社ゆうネット企画,,株式会社,熊本県,熊本市東区,長嶺南４丁目４番６０号,,43,102,8618039,,,2024-07-05,清算の結了等,,,2015-10-05,1,,,,,ユウネットキカク,0
1589,6370002020581,登記記録の閉鎖等,0,2024-07-19,2024-07-01,有限会社ヒロサキ,,有限会社,宮城県,黒川郡大和町,吉岡字志田町４８番地,,04,421,9813621,,,2024-07-01,清算の結了等,,,2015-10-05,1,,,,,ヒロサキ,0
1611,6480005006807,登記記録の閉鎖等,0,2024-07-19,2024-07-16,一般社団法人いきいきファーム立江,,その他の設立登記法人,徳島県,小松島市,立江町字南田頭３番地,,36,203,7730017,,,2024-07-16,清算の結了等,,,2020-12-15,1,,,,,イキイキファームタツエ,0
1623,7010001227097,登記記録の閉鎖等,0,2024-07-19,2024-07-03,株式会社スパーク,,株式会社,東京都,千代田区,内神田１丁目１８番１１号東京ロイヤルプラザ１１０２号室,,13,101,1010047,,,2024-07-03,清算の結了等,,,2022-06-03,1,,,,,スパーク,0
1642,7010402014004,登記記録の閉鎖等,0,2024-07-19,2024-07-02,有限会社ルピコ,,有限会社,東京都,港区,芝３丁目１７番１５－６０２号,,13,103,1050014,,,2024-07-02,清算の結了等,,,2015-10-05,1,,,,,ルピコ,0
1646,7010501017353,登記記録の閉鎖等,0,2024-07-19,2024-07-08,株式会社にしきおり,,株式会社,東京都,台東区,蔵前２丁目４番６号,,13,106,1110051,,,2024-07-08,清算の結了等,,,2015-10-05,1,,,,,ニシキオリ,0
1653,7010803004272,登記記録の閉鎖等,0,2024-07-19,2024-07-08,合同会社ＬＥＸＵＳ,,合同会社,東京都,大田区,蒲田５丁目１９番１号,,13,111,1440052,,,2024-07-08,清算の結了等,,,2022-08-30,1,,,,,レクサス,0
1670,7011305002715,登記記録の閉鎖等,0,2024-07-19,2024-07-12,一般社団法人持続可能な環境社会を目指す人材ネットワーク,,その他の設立登記法人,東京都,杉並区,下高井戸１丁目１８番１２号,,13,115,1680073,,,2024-07-12,清算の結了等,,,2021-03-05,1,,,,,ジゾクカノウナカンキョウシャカイヲメザスジンザイネットワーク,0
1685,7012305000452,登記記録の閉鎖等,0,2024-07-19,2024-07-12,特定非営利活動法人町田すまいの会,,その他の設立登記法人,東京都,町田市,旭町２丁目２番１９号さつき荘１０３号室,,13,209,1940023,,,2024-07-12,清算の結了等,,,2015-10-05,1,,,,,マチダスマイノカイ,0
1708,7021001023510,登記記録の閉鎖等,0,2024-07-19,2024-07-16,株式会社ビッグランド,,株式会社,神奈川県,厚木市,田村町４番７号メゾンハーモニー１０１号,,14,212,2430016,,,2024-07-16,清算の結了等,,,2015-10-05,1,,,,,ビッグランド,0
1714,7030001067698,登記記録の閉鎖等,0,2024-07-19,2024-07-16,モバイルブリッジ株式会社,,株式会社,埼玉県,越谷市,大沢１丁目１４番１４号,,11,222,3430025,,,2024-07-16,清算の結了等,,,2015-10-05,1,,,,,モバイルブリッジ,0
1729,7040001123558,登記記録の閉鎖等,0,2024-07-19,2024-07-03,揚川株式会社,,株式会社,千葉県,印旛郡酒々井町,中川５０－１岡田第２ビル２Ｆ,,12,322,2850921,,,2024-07-03,清算の結了等,,,2022-05-27,1,,,,,アカワ,0
1731,7040002010680,登記記録の閉鎖等,0,2024-07-19,2024-07-04,有限会社マーツエンジニアリング,,有限会社,千葉県,千葉市若葉区,小倉台４丁目１７番８号,,12,104,2640006,,,2024-07-04,清算の結了等,,,2015-10-05,1,,,,,マーツエンジニアリング,0
1740,7070001001546,登記記録の閉鎖等,0,2024-07-19,2024-07-17,株式会社ジオ設計,,株式会社,群馬県,前橋市,西片貝町３丁目５３番地,,10,201,3710013,,,2024-07-17,清算の結了等,,,2015-10-05,1,,,,,ジオセッケイ,0
1747,7100001031317,登記記録の閉鎖等,0,2024-07-19,2024-07-01,藤巻水力発電株式会社,,株式会社,長野県,長野市,金井田３番地,,20,201,3812222,,,2024-07-01,合併による解散等,4100001030016,令和６年７月１日長野県飯山市大字飯山２６５２番地３藤巻発電株式会社（4100001030016）に合併し解散,2018-06-08,1,,,,,フジマキスイリョクハツデン,0
1793,7140003012435,登記記録の閉鎖等,0,2024-07-19,2024-07-16,合同会社オニシ,,合同会社,兵庫県,加古川市,尾上町養田１２９０番地の１４,,28,210,6750025,,,2024-07-16,清算の結了等,,,2017-09-19,1,,,,,オニシ,0
1795,7160001016386,登記記録の閉鎖等,0,2024-07-19,2024-07-12,株式会社とばっこ,,株式会社,滋賀県,野洲市,冨波甲９０２番地１,,25,210,5202351,,,2024-07-12,清算の結了等,,,2015-10-05,1,,,,,トバッコ,0
1818,7220001005606,登記記録の閉鎖等,0,2024-07-19,2024-07-12,深沢製＿株式会社,00078278,株式会社,石川県,金沢市,芳斉２丁目１０番５号,,17,201,9200862,,,2024-07-12,清算の結了等,,,2015-10-05,1,,,,,フカザワセイトウ,0
1833,7250001013300,登記記録の閉鎖等,0,2024-07-19,2024-07-12,株式会社グッドライフ,,株式会社,山口県,岩国市,尾津町２丁目５２番２５号,,35,208,7400032,,,2024-07-12,清算の結了等,,,2015-10-05,1,,,,,グッドライフ,0
1843,7290002053481,登記記録の閉鎖等,0,2024-07-19,2024-06-21,株式会社ＳＥＩＳＹＯ　ＦＵＲＮＩＴＵＲＥ,,株式会社,福岡県,大川市,大字酒見１６４８番地,,40,212,8310016,,,2024-06-21,清算の結了等,,,2015-10-05,1,,,,,セイショーファニチャー,0
1861,7370002014500,登記記録の閉鎖等,0,2024-07-19,2024-07-02,有限会社仙台製本,,有限会社,宮城県,仙台市青葉区,上杉２丁目５番９号,,04,101,9800011,,,2024-07-02,清算の結了等,,,2015-10-05,1,,,,,センダイセイホン,0
1862,7370201002875,登記記録の閉鎖等,0,2024-07-19,2024-07-02,株式会社Ｍ＆Ｇ,,株式会社,宮城県,大崎市,鳴子温泉字中屋敷６７番地３０,,04,215,9896804,,,2024-07-02,清算の結了等,,,2015-10-05,1,,,,,エムアンドジー,0
1868,7400001014217,登記記録の閉鎖等,0,2024-07-19,2024-07-02,株式会社川食,,株式会社,岩手県,九戸郡洋野町,小子内第４地割９番地,,03,507,0287904,,,2024-07-02,清算の結了等,,,2018-07-05,1,,,,,カワショク,0
1875,7430001049615,登記記録の閉鎖等,0,2024-07-19,2024-07-11,安全モータース株式会社,,株式会社,北海道,小樽市,港町８番２号,,01,203,0470007,,,2024-07-11,清算の結了等,,,2015-10-05,1,,,,,アンゼンモータース,0
1877,7430002061247,登記記録の閉鎖等,0,2024-07-19,2024-07-11,有限会社イズミ電気工事,,有限会社,北海道,苫小牧市,ときわ町４丁目２０番２３号,,01,213,0591261,,,2024-07-11,清算の結了等,,,2015-10-05,1,,,,,イズミデンキコウジ,0
1882,7470002011504,登記記録の閉鎖等,0,2024-07-19,2024-07-10,有限会社鎌野鮮魚店,00005392,有限会社,香川県,丸亀市,城東町３丁目１１番１５号,,37,202,7630013,,,2024-07-10,清算の結了等,,,2015-10-05,1,,,,,カマノセンギョテン,0
1883,7480001012106,登記記録の閉鎖等,0,2024-07-19,2024-07-17,株式会社美上,,株式会社,徳島県,徳島市,秋田町２丁目３７番地の２,,36,201,7700934,,,2024-07-17,清算の結了等,,,2023-05-17,1,,,,,ミカミ,0
1890,7500002009676,登記記録の閉鎖等,0,2024-07-19,2024-07-09,有限会社橋本防水,,有限会社,愛媛県,松山市,朝日ケ丘２丁目１番５６号,,38,201,7918024,,,2024-07-09,清算の結了等,,,2015-10-05,1,,,,,ハシモトボウスイ,0
1895,8010001051240,登記記録の閉鎖等,0,2024-07-19,2024-07-04,エレメントシックス株式会社,,株式会社,東京都,千代田区,丸の内２丁目１番１号明治生命館７階ディーエルエイ・パイパー東京パートナーシップ外国法共同事業法律事務所内,,13,101,1000005,,,2024-07-04,清算の結了等,,,2015-10-05,1,,,,,エレメントシックス,0
1898,8010001222246,登記記録の閉鎖等,0,2024-07-19,2024-07-01,ＴＥＲＡＫＯＹＡヒューマンログ株式会社,,株式会社,東京都,中央区,日本橋２丁目１番１０号,,13,102,1030027,,,2024-07-01,合併による解散等,7010001055770,令和６年７月１日東京都中央区日本橋二丁目１番１０号株式会社双葉ホールディングス（7010001055770）に合併し解散,2021-11-08,1,,,,,テラコヤヒューマンログ,0
1900,8010001237756,登記記録の閉鎖等,0,2024-07-19,2024-07-17,ＶＱＰ２０２３株式会社,,株式会社,東京都,千代田区,神田須田町１丁目１４番地ヒューリック神田須田町ビル３Ｆ,,13,101,1010041,,,2024-07-17,合併による解散等,5020001073229,令和６年７月１日東京都大田区南蒲田二丁目１６番１号テクノポートカマタセンタービル５階眞保炉材工業株式会社（5020001073229）に合併し解散,2023-08-17,1,,,,,ブイキューピーニイゼロニイサン,0
1914,8010502007352,登記記録の閉鎖等,0,2024-07-19,2024-07-01,有限会社ティ・エスセンチュリー,,有限会社,東京都,台東区,東上野２丁目１５番１１号,,13,106,1100015,,,2024-07-01,合併による解散等,7010502001884,令和６年７月１日東京都台東区東上野二丁目１５番１１号栄進商興株式会社（7010502001884）に合併し解散,2015-10-05,1,,,,,,0
1935,8011105010108,登記記録の閉鎖等,0,2024-07-19,2024-07-04,入間プロパティーズ特定目的会社,,その他の設立登記法人,東京都,新宿区,四谷２丁目９番地１５東京ユナイテッド綜合事務所内,,13,104,1600004,,,2024-07-04,清算の結了等,,,2022-01-26,1,,,,,イルマプロパティーズ,0
1939,8011501002641,登記記録の閉鎖等,0,2024-07-19,2024-07-16,株式会社ジャス,,株式会社,東京都,北区,赤羽２丁目６７番２号,,13,117,1150045,,,2024-07-16,清算の結了等,,,2015-10-05,1,,,,,ジャス,0
1943,8011503002598,登記記録の閉鎖等,0,2024-07-19,2024-07-18,合同会社シルクケアサービス,,合同会社,東京都,北区,王子２丁目２１番３号,,13,117,1140002,,,2024-07-18,清算の結了等,,,2015-10-05,1,,,,,,0
1978,8030002082415,登記記録の閉鎖等,0,2024-07-19,2024-07-11,有限会社岩崎工務店,,有限会社,埼玉県,鴻巣市,郷地２６７１番地,,11,217,3650022,,,2024-07-11,清算の結了等,,,2015-10-05,1,,,,,イワサキコウムテン,0
1981,8030005019843,登記記録の閉鎖等,0,2024-07-19,2024-07-11,一般社団法人ベビケア推進協会,,その他の設立登記法人,埼玉県,八潮市,大瀬１丁目１０番地１２大山ビル１０２,,11,234,3400822,,,2024-07-11,清算の結了等,,,2020-03-19,1,,,,,ベビケアスイシンキョウカイ,0
1992,8050001012957,登記記録の閉鎖等,0,2024-07-19,2024-07-12,株式会社ＳＴ保険事務所,,株式会社,茨城県,土浦市,富士崎１丁目８番２１号,,08,203,3000813,,,2024-07-12,清算の結了等,,,2015-10-05,1,,,,,エステイホケンジムショ,0
2001,8060001027459,登記記録の閉鎖等,0,2024-07-19,2024-07-03,有楽株式会社,,株式会社,栃木県,足利市,大門通２３７５番地,,09,202,3260812,,,2024-07-03,清算の結了等,,,2015-10-05,1,,,,,ユウラク,0
2018,8110001024145,登記記録の閉鎖等,0,2024-07-19,2024-07-08,株式会社アフィリエイト,,株式会社,新潟県,長岡市,表町２丁目３番地１,,15,202,9400071,,,2024-07-08,清算の結了等,,,2015-10-05,1,,,,,アフィリエイト,0
2019,8110002027089,登記記録の閉鎖等,0,2024-07-19,2024-07-08,大谷リース有限会社,,有限会社,新潟県,長岡市,新組町字筒場１９３５番地１,,15,202,9400897,,,2024-07-08,清算の結了等,,,2015-10-05,1,,,,,オオタニリース,0
2025,8120001153265,登記記録の閉鎖等,0,2024-07-19,2024-07-16,株式会社心＿,00029427,株式会社,大阪府,守口市,八島町７番９号,,27,209,5700095,,,2024-07-16,清算の結了等,,,2015-10-05,1,,,,,シンエイ,0
2038,8120002033920,登記記録の閉鎖等,0,2024-07-19,2024-07-17,有限会社櫓鮨,,有限会社,大阪府,大阪市北区,堂島１丁目１番２０号,,27,127,5300003,,,2024-07-17,清算の結了等,,,2015-10-05,1,,,,,ヤグラズシ,0
2061,8140002033407,登記記録の閉鎖等,0,2024-07-19,2024-07-16,イサオ工業有限会社,,有限会社,兵庫県,宍粟市,波賀町谷９７番地の２,,28,227,6714244,,,2024-07-16,清算の結了等,,,2015-10-05,1,,,,,イサオコウギョウ,0
2066,8160002013869,登記記録の閉鎖等,0,2024-07-19,2024-07-17,有限会社鍛冶吉,,有限会社,滋賀県,守山市,岡町９３番地の８,,25,207,5240032,,,2024-07-17,清算の結了等,,,2015-10-05,1,,,,,カジヨシ,0
2071,8180001031738,登記記録の閉鎖等,0,2024-07-19,2024-07-12,東和石油販売株式会社,,株式会社,愛知県,名古屋市中区,松原３丁目２番８号,,23,106,4600017,,,2024-07-12,合併による解散等,2010001126403,令和６年７月１日東京都中央区新富一丁目１８番８号出光リテール販売株式会社（2010001126403）に合併し解散,2015-10-05,1,,,,,トウワセキユハンバイ,0
2078,8180005003725,登記記録の閉鎖等,0,2024-07-19,2024-07-09,名古屋長者町協同組合,,その他の設立登記法人,愛知県,名古屋市中区,丸の内２丁目１９番１０号,,23,106,4600002,,,2024-07-09,清算の結了等,,,2015-10-05,1,,,,,ナゴヤチョウジャマチ,0
2079,8180005020126,登記記録の閉鎖等,0,2024-07-19,2024-07-11,一般財団法人地域医療推進センター愛知,,その他の設立登記法人,愛知県,春日井市,松新町１丁目５番地ホテルプラザ勝川３階１号室,,23,206,4860931,,,2024-07-11,清算の結了等,,,2023-03-09,1,,,,,チイキイリョウスイシンセンターアイチ,0
2085,8200001032551,登記記録の閉鎖等,0,2024-07-19,2024-07-10,Ｔ．Ｊ．Ｐ株式会社,,株式会社,岐阜県,岐阜市,金園町７丁目１２番地,,21,201,5008113,,,2024-07-10,清算の結了等,,,2016-02-09,1,,,,,ティージェイピー,0
2115,8290801020367,登記記録の閉鎖等,0,2024-07-19,2024-07-08,株式会社大昇,,株式会社,福岡県,直方市,大字下境４６４番地１,,40,204,8220007,,,2024-07-08,清算の結了等,,,2015-10-05,1,,,,,ダイショウ,0
2147,8420002005864,登記記録の閉鎖等,0,2024-07-19,2024-07-08,鳥谷部産業有限会社,,有限会社,青森県,八戸市,大字湊町字久保４３番地の３１,,02,203,0310812,,,2024-07-08,清算の結了等,,,2015-10-05,1,,,,,トヤベサンギョウ,0
2150,8430001034995,登記記録の閉鎖等,0,2024-07-19,2024-07-10,株式会社Ｓ．Ｒ．Ｓ　ＣＯＲＰＯＲＡＴＩＯＮ,,株式会社,北海道,札幌市西区,山の手一条１２丁目１０番３９号,,01,107,0630001,,,2024-07-10,清算の結了等,,,2015-10-05,1,,,,,エスアールエスコーポレーション,0
2155,8440002003825,登記記録の閉鎖等,0,2024-07-19,2024-07-17,有限会社富士園,,有限会社,北海道,北斗市,久根別５丁目１４番４号,,01,236,0490121,,,2024-07-17,清算の結了等,,,2015-10-05,1,,,,,フジエン,0
2160,8470001007502,登記記録の閉鎖等,0,2024-07-19,2024-07-08,株式会社サンツーリスト,,株式会社,香川県,丸亀市,今津町９８番地３,,37,202,7630051,,,2024-07-08,清算の結了等,,,2015-10-05,1,,,,,サンツーリスト,0
2166,8490001005470,登記記録の閉鎖等,0,2024-07-19,2024-07-11,株式会社平成車椅子サービス,,株式会社,高知県,土佐市,塚地２１１番地,,39,205,7811153,,,2024-07-11,清算の結了等,,,2015-10-05,1,,,,,ヘイセイクルマイスサービス,0
2189,9010501013680,登記記録の閉鎖等,0,2024-07-19,2024-07-08,株式会社ミスタータン,,株式会社,東京都,台東区,今戸１丁目１８番４号,,13,106,1110024,,,2024-07-08,清算の結了等,,,2015-10-05,1,,,,,ミスタータン,0
2191,9010502004299,登記記録の閉鎖等,0,2024-07-19,2024-07-01,有限会社佐高商事,00051261,有限会社,東京都,台東区,東上野２丁目１５番１１号,,13,106,1100015,,,2024-07-01,合併による解散等,7010502001884,令和６年７月１日東京都台東区東上野二丁目１５番１１号栄進商興株式会社（7010502001884）に合併し解散,2015-10-05,1,,,,,サタカショウジ,0
2194,9010602027695,登記記録の閉鎖等,0,2024-07-19,2024-07-12,坂有限会社,,有限会社,東京都,江東区,北砂７丁目７番１０－９０３号,,13,108,1360073,,,2024-07-12,清算の結了等,,,2015-10-05,1,,,,,バン,0
2215,9011101025109,登記記録の閉鎖等,0,2024-07-19,2024-07-04,株式会社ジェイ・シー・ツーリスト,,株式会社,東京都,新宿区,百人町２丁目４番６号,,13,104,1690073,,,2024-07-04,合併による解散等,2011101046045,令和６年７月１日東京都新宿区百人町二丁目４番６号株式会社エイ・ピー・シー（2011101046045）に合併し解散,2015-10-05,1,,,,,ジェイシーツーリスト,0
2244,9013302019293,登記記録の閉鎖等,0,2024-07-19,2024-07-08,有限会社オディール,,有限会社,東京都,豊島区,南長崎６丁目１５番２－３０３号,,13,116,1710052,,,2024-07-08,清算の結了等,,,2015-10-05,1,,,,,オディール,0
2249,9020001094196,登記記録の閉鎖等,0,2024-07-19,2024-06-17,株式会社ｃｏｃｏｒｏｂａ,,株式会社,神奈川県,横浜市青葉区,柿の木台２８番地３３,,14,117,2270048,,,2024-06-17,清算の結了等,,,2015-10-05,1,,,,,ココロバ,0
2272,9030002091530,登記記録の閉鎖等,0,2024-07-19,2024-07-16,有限会社越谷物流センター,,有限会社,埼玉県,越谷市,大字砂原１０４７番地,,11,222,3430803,,,2024-07-16,清算の結了等,,,2015-10-05,1,,,,,,0
2281,9040003017483,登記記録の閉鎖等,0,2024-07-19,2024-07-03,ツクモ環境合同会社,,合同会社,千葉県,富里市,七栄４６８番地９,,12,233,2860221,,,2024-07-03,清算の結了等,,,2021-04-12,1,,,,,ツクモカンキョウ,0
2283,9050001022179,登記記録の閉鎖等,0,2024-07-19,2024-07-12,株式会社サンケー電機工業,,株式会社,茨城県,行方市,麻生５９０番地の１,,08,233,3113832,,,2024-07-12,清算の結了等,,,2015-10-05,1,,,,,サンケーデンキコウギョウ,0
2309,9120001176075,登記記録の閉鎖等,0,2024-07-19,2024-07-10,関西熱技術株式会社,,株式会社,大阪府,大阪市生野区,田島５丁目７番３３号,,27,116,5440011,,,2024-07-10,清算の結了等,,,2015-10-05,1,,,,,カンサイネツギジュツ,0
2314,9120001256918,登記記録の閉鎖等,0,2024-07-19,2024-07-10,青美株式会社,,株式会社,大阪府,大阪市中央区,島之内１丁目１１番２９号,,27,128,5420082,,,2024-07-10,清算の結了等,,,2023-08-02,1,,,,,アオビ,0
2352,9180001044664,登記記録の閉鎖等,0,2024-07-19,2024-07-11,ジャパンベストレスキューシステム株式会社,,株式会社,愛知県,名古屋市中区,錦１丁目１０番２０号,,23,106,4600003,,,2024-07-11,合併による解散等,2010001239584,令和６年７月１日東京都千代田区永田町二丁目１０番３号ＭＢＫＰ　Ｖｅｇａ株式会社（2010001239584）に合併し解散,2015-10-05,1,,,,,ジャパンベストレスキューシステム,0
2363,9180002046866,登記記録の閉鎖等,0,2024-07-19,2024-07-02,日本鴻大貿易有限会社,,有限会社,愛知県,名古屋市千種区,稲舟通１丁目３６番地,,23,101,4640824,,,2024-07-02,清算の結了等,,,2015-10-05,1,,,,,ニホンコウダイボウエキ,0
2374,9180301010333,登記記録の閉鎖等,0,2024-07-19,2024-07-05,東三織物株式会社,,株式会社,愛知県,豊川市,御油町河田１４番地,,23,207,4410211,,,2024-07-05,清算の結了等,,,2015-10-05,1,,,,,トウサンオリモノ,0
2413,9290802015605,登記記録の閉鎖等,0,2024-07-19,2024-07-10,有限会社安田設計コンサルタント,,有限会社,福岡県,北九州市八幡西区,金剛３丁目１番６号,,40,109,8071263,,,2024-07-10,清算の結了等,,,2015-10-05,1,,,,,ヤスダセッケイコンサルタント,0
2420,9340001015145,登記記録の閉鎖等,0,2024-07-19,2024-07-04,株式会社ＪＳ,,株式会社,東京都,中央区,銀座３丁目１３番１９号東銀座３１３ビル５階,,13,102,1040061,,,2024-07-04,清算の結了等,,,2015-10-05,1,,,,,ジェイエス,0
2422,9340002013222,登記記録の閉鎖等,0,2024-07-19,2024-07-12,有限会社溜建築設計工房,,有限会社,鹿児島県,鹿児島市,明和１丁目４５番１号,,46,201,8900024,,,2024-07-12,清算の結了等,,,2015-10-05,1,,,,,タマリケンチクセッケイコウボウ,0
2429,9380001007980,登記記録の閉鎖等,0,2024-07-19,2024-07-09,株式会社サン・レモン,,株式会社,福島県,田村市,船引町船引字畑添５４番地,,07,211,9634312,,,2024-07-09,清算の結了等,,,2015-10-05,1,,,,,サンレモン,0
