sequenceNumber,corporateNumber,process,correct,updateDate,changeDate,name,nameImageId,kind,prefectureName,cityName,streetNumber,addressImageId,prefectureCode,cityCode,postCode,addressOutside,addressOutsideImageId,closeDate,closeCause,successorCorporateNumber,changeCause,assignmentDate,latest,enName,enPrefectureName,enCityName,enAddressOutside,furigana,hihyoji
10,1010001224851,新規,0,2022-03-03,2022-03-03,Ｓｐｏｎｔａｎｅｉｔｙ株式会社,,株式会社,東京都,中央区,銀座６丁目１３－１６銀座Ｗａｌｌビル,,13,102,1040061,,,,,,,2022-03-03,1,,,,,スポンタニーイティ,0
11,1010001224950,新規,0,2022-03-03,2022-03-03,株式会社ウチダ,,株式会社,東京都,千代田区,平河町２丁目１６番２－１９１４号,,13,101,1020093,,,,,,,2022-03-03,1,,,,,ウチダ,0
14,1010005034693,新規,0,2022-03-03,2022-03-03,一般社団法人豊田藤岡,,その他の設立登記法人,東京都,千代田区,平河町１丁目６番１５号シルスフィア会計事務所内,,13,101,1020093,,,,,,,2022-03-03,1,,,,,トヨタフジオカ,0
15,1010101015085,新規,0,2022-03-03,2022-03-03,株式会社Ｓａｍｅ　Ｐａｇｅ,,株式会社,東京都,八王子市,絹ケ丘２丁目４５番１６号,,13,201,1920912,,,,,,,2022-03-03,1,,,,,セイムページ,0
20,1010401165919,新規,0,2022-03-03,2022-03-03,株式会社ＫＥＮホテルマネジメント,,株式会社,東京都,港区,西麻布１丁目２番７号,,13,103,1060031,,,,,,,2022-03-03,1,,,,,ケンホテルマネジメント,0
21,1010401165935,新規,0,2022-03-03,2022-03-03,株式会社Ｆａｃｅｌｌｉｎａ３７,,株式会社,東京都,港区,浜松町２丁目２番１５号浜松町ダイヤビル２Ｆ,,13,103,1050013,,,,,,,2022-03-03,1,,,,,ファチェリーナサンジュウナナ,0
22,1010401165951,新規,0,2022-03-03,2022-03-03,Ｈｏｒｉｚｏｎ　Ｏｎｅ株式会社,,株式会社,東京都,港区,虎ノ門４丁目１番１号,,13,103,1050001,,,,,,,2022-03-03,1,,,,,ホライゾンワン,0
24,1010403027191,新規,0,2022-03-03,2022-03-03,ＫＡＳインベストメント合同会社,,合同会社,東京都,港区,南青山４丁目２１番２６号リュエル青山Ｃ棟Ｂ１細谷総合会計事務所内,,13,103,1070062,,,,,,,2022-03-03,1,,,,,ケイエイエスインベストメント,0
28,1010701042306,新規,0,2022-03-03,2022-03-03,株式会社ｇｒｏｓｓｏ,,株式会社,東京都,品川区,荏原４丁目４番１２号グリーンプラザ武蔵小山２０３号室,,13,109,1420063,,,,,,,2022-03-03,1,,,,,グロッソ,0
29,1010701042322,新規,0,2022-03-03,2022-03-03,株式会社Ｃ．,,株式会社,東京都,品川区,戸越１丁目２６番１号,,13,109,1420041,,,,,,,2022-03-03,1,,,,,シードット,0
39,1010901050471,新規,0,2022-03-03,2022-03-03,ヨリアイ株式会社,,株式会社,東京都,世田谷区,駒沢５丁目１３番１５号,,13,112,1540012,,,,,,,2022-03-03,1,,,,,ヨリアイ,0
40,1010903007189,新規,0,2022-03-03,2022-03-03,アブリル合同会社,,合同会社,東京都,世田谷区,上馬１丁目３０－７ユニライフ上馬１０８,,13,112,1540011,,,,,,,2022-03-03,1,,,,,アブリル,0
47,1011001145988,新規,0,2022-03-03,2022-03-03,株式会社Ｗｅｒｇｓｈｉｒｅ,,株式会社,東京都,渋谷区,渋谷２丁目１９番１５号宮益坂ビルディング６０９,,13,113,1500002,,,,,,,2022-03-03,1,,,,,ワーグシャー,0
48,1011001146045,新規,0,2022-03-03,2022-03-03,株式会社ＭＡＲＫＳ,,株式会社,東京都,渋谷区,松濤２丁目２番１３－１２０１号,,13,113,1500046,,,,,,,2022-03-03,1,,,,,マークス,0
49,1011001146103,新規,0,2022-03-03,2022-03-03,株式会社ＨＴ　Ｅｎｔｅｒｔａｉｎｍｅｎｔ,,株式会社,東京都,目黒区,下目黒１丁目２番５号,,13,110,1530064,,,,,,,2022-03-03,1,,,,,エイチティエンターテインメント,0
50,1011003014258,新規,0,2022-03-03,2022-03-03,合同会社ＰｏｒｔａｌＡｇｅｎｃｙ,,合同会社,東京都,渋谷区,神宮前６丁目２３番４号２階,,13,113,1500001,,,,,,,2022-03-03,1,,,,,ポータルエージェンシー,0
54,1011101097948,新規,0,2022-03-03,2022-03-03,ＬＹＲＥ　Ｈｏｌｄｉｎｇｓ株式会社,,株式会社,東京都,新宿区,新宿１丁目１１番１７号,,13,104,1600022,,,,,,,2022-03-03,1,,,,,ライアーホールディングス,0
55,1011101098021,新規,0,2022-03-03,2022-03-03,株式会社オフィス　ハットリユウタ,,株式会社,東京都,新宿区,二十騎町２番１２号メイゾン牛込６０２,,13,104,1620855,,,,,,,2022-03-03,1,,,,,オフィスハットリユウタ,0
61,1011401024073,新規,0,2022-03-03,2022-03-03,株式会社ウィルターゲット,,株式会社,東京都,板橋区,幸町１－１４アトラス大山９０２,,13,119,1730034,,,,,,,2022-03-03,1,,,,,ウィルターゲット,0
63,1011503005087,新規,0,2022-03-03,2022-03-03,ＬＳＺ合同会社,,合同会社,東京都,荒川区,東尾久２丁目３４番９メゾンリエール４０１号,,13,118,1160012,,,,,,,2022-03-03,1,,,,,エルエスジィー,0
64,1011505002454,新規,0,2022-03-03,2022-03-03,医療法人社団ＳＨＣ,,その他の設立登記法人,東京都,北区,王子１丁目１０番１７号ヒューリック王子ビル５階Ｂ,,13,117,1140002,,,,,,,2022-03-03,1,,,,,エスエイチシー,0
66,1011801040397,新規,0,2022-03-03,2022-03-03,株式会社オレンジハウス,,株式会社,東京都,葛飾区,四つ木１丁目１番３号,,13,122,1240011,,,,,,,2022-03-03,1,,,,,オレンジハウス,0
67,1011801040406,新規,0,2022-03-03,2022-03-03,株式会社熊壱,,株式会社,東京都,足立区,鹿浜７丁目３番１９号,,13,121,1230864,,,,,,,2022-03-03,1,,,,,クマイチ,0
68,1011801040414,新規,0,2022-03-03,2022-03-03,株式会社ｊｏｉｅ,,株式会社,東京都,足立区,千住３丁目５番地,,13,121,1200034,,,,,,,2022-03-03,1,,,,,ジョア,0
70,1011803004986,新規,0,2022-03-03,2022-03-03,ＭＵＳＴＡＫＩＭ合同会社,,合同会社,東京都,葛飾区,青戸５丁目２０号１９号,,13,122,1250062,,,,,,,2022-03-03,1,,,,,ムスタキム,0
72,1012401038906,新規,0,2022-03-03,2022-03-03,せいせき２０７０株式会社,,株式会社,東京都,多摩市,関戸２丁目１３番地の２,,13,224,2060011,,,,,,,2022-03-03,1,,,,,セイセキニイゼロナナゼロ,0
73,1012401038914,新規,0,2022-03-03,2022-03-03,株式会社スマイル５８６,,株式会社,東京都,小金井市,貫井南町３丁目２２番２７－８０３号プラウド武蔵小金井,,13,210,1840014,,,,,,,2022-03-03,1,,,,,スマイルゴーハチロク,0
78,1013301048755,新規,0,2022-03-03,2022-03-03,ＧＨサインソリューションズ株式会社,,株式会社,東京都,豊島区,西池袋１丁目４番１０号,,13,116,1710021,,,,,,,2022-03-03,1,,,,,ジーエイチサインソリューションズ,0
79,1013301048763,新規,0,2022-03-03,2022-03-03,株式会社ＩＨＮ,,株式会社,東京都,豊島区,池袋３丁目６０番２－２０９号,,13,116,1710014,,,,,,,2022-03-03,1,,,,,アイエイチエヌ,0
82,1020001145411,新規,0,2022-03-03,2022-03-03,株式会社ＳＯＳＯ,,株式会社,神奈川県,横浜市南区,永楽町２丁目１７番地４ハーモニーレジデンス横浜大通り公園５０３,,14,105,2320031,,,,,,,2022-03-03,1,,,,,ソウソウ,0
83,1020001145469,新規,0,2022-03-03,2022-03-03,株式会社ＩＮＫ,,株式会社,神奈川県,横浜市港北区,新横浜３丁目１７番１２号,,14,109,2220033,,,,,,,2022-03-03,1,,,,,アイエヌケー,0
84,1020001145477,新規,0,2022-03-03,2022-03-03,株式会社エムズファミリー,,株式会社,神奈川県,横浜市港北区,大倉山４丁目３９番１号,,14,109,2220037,,,,,,,2022-03-03,1,,,,,エムズファミリー,0
85,1020001145543,新規,0,2022-03-03,2022-03-03,株式会社Ｅｎｃｈａｎｔｅ,,株式会社,神奈川県,川崎市川崎区,渡田新町３丁目９番４号,,14,131,2100844,,,,,,,2022-03-03,1,,,,,アンシャンテー,0
92,1020003021395,新規,0,2022-03-03,2022-03-03,合同会社Ｓｏｌｅ,,合同会社,神奈川県,横浜市港北区,新吉田東６丁目５０番３５号,,14,109,2230058,,,,,,,2022-03-03,1,,,,,ソーレ,0
105,1030001147092,新規,0,2022-03-03,2022-03-03,岩堀バイソンエナジー株式会社,,株式会社,埼玉県,川越市,六軒町１丁目３番地１０,,11,201,3500041,,,,,,,2022-03-03,1,,,,,イワホリバイソンエナジー,0
106,1030003018911,新規,0,2022-03-03,2022-03-03,ＳＵＮＲＩＳＥ　ＧＲＯＵＰ合同会社,,合同会社,埼玉県,羽生市,東９丁目７番地１,,11,216,3480052,,,,,,,2022-03-03,1,,,,,サンライズグループ,0
107,1030003018969,新規,0,2022-03-03,2022-03-03,ｍｅｉｅｎ合同会社,,合同会社,埼玉県,さいたま市桜区,田島１丁目２１番３－１０５号,,11,106,3380837,,,,,,,2022-03-03,1,,,,,メイエン,0
113,1040001122417,新規,0,2022-03-03,2022-03-03,マルトシホールディングス株式会社,,株式会社,千葉県,東金市,山田１３１５番地１,,12,213,2830823,,,,,,,2022-03-03,1,,,,,マルトシホールディングス,0
114,1040001122425,新規,0,2022-03-03,2022-03-03,株式会社ＦＩＬＴＥＲ,,株式会社,千葉県,印西市,戸神台２丁目１番地１棟１２０５号,,12,231,2701349,,,,,,,2022-03-03,1,,,,,フィルター,0
116,1040003019594,新規,0,2022-03-03,2022-03-03,和楽輪の郷合同会社,,合同会社,千葉県,長生郡睦沢町,大上１２３番地,,12,422,2994423,,,,,,,2022-03-03,1,,,,,ワラワノサト,0
119,1050001050682,新規,0,2022-03-03,2022-03-03,アイエス・テクノロジー株式会社,,株式会社,茨城県,つくば市,竹園１丁目８－２２０４,,08,220,3050032,,,,,,,2022-03-03,1,,,,,アイエステクノロジー,0
120,1050001050708,新規,0,2022-03-03,2022-03-03,株式会社Ｊ．ＢＡＳＥ,,株式会社,茨城県,取手市,新町２丁目５番４１号,,08,217,3020024,,,,,,,2022-03-03,1,,,,,ジェーベース,0
122,1050003006410,新規,0,2022-03-03,2022-03-03,ＧＲトレーディング合同会社,,合同会社,茨城県,古河市,東山田５８２番地１スリープルーム２階Ｄ号室,,08,204,3060112,,,,,,,2022-03-03,1,,,,,ジーアールトレーディング,0
125,1070001038998,新規,0,2022-03-03,2022-03-03,株式会社井埜建板,,株式会社,群馬県,伊勢崎市,波志江町３３５８番地２４,,10,204,3720001,,,,,,,2022-03-03,1,,,,,イノケンバン,0
126,1070003004404,新規,0,2022-03-03,2022-03-03,合同会社ｅｍｏ　ｐｌａｎｎｉｎｇ,,合同会社,群馬県,佐波郡玉村町,大字南玉１４６－３３,,10,464,3701111,,,,,,,2022-03-03,1,,,,,エモプランニング,0
130,1080105006223,新規,0,2022-03-03,2022-03-03,三島労務社会保険労務士法人,,その他の設立登記法人,静岡県,三島市,川原ケ谷１５３番地,,22,206,4110022,,,,,,,2022-03-03,1,,,,,ミシマロウム,0
131,1080401025645,新規,0,2022-03-03,2022-03-03,株式会社Ｓ．ｗｏｒｋｓ,,株式会社,静岡県,磐田市,赤池３６８番地２,,22,211,4380824,,,,,,,2022-03-03,1,,,,,エスワークス,0
135,1100001035109,新規,0,2022-03-03,2022-03-03,ＫＴシステム株式会社,,株式会社,長野県,上田市,別所温泉１９３１番地１,,20,203,3861431,,,,,,,2022-03-03,1,,,,,ケーティーシステム,0
136,1110001007420,新規,0,2022-03-03,2022-03-03,株式会社石黒農園,,株式会社,新潟県,新潟市南区,下塩俵１９２７番地,,15,106,9501241,,,,,,,2022-03-03,1,,,,,,0
141,1110001036469,新規,0,2022-03-03,2022-03-03,株式会社ＮＩＩＧＡＴＡ－ＫＥＮ,,株式会社,新潟県,上越市,南高田町２番３号,,15,222,9430846,,,,,,,2022-03-03,1,,,,,ニイガタケン,0
142,1110001036485,新規,0,2022-03-03,2022-03-03,株式会社ばーず,,株式会社,新潟県,村上市,大町１番１６号,,15,212,9580842,,,,,,,2022-03-03,1,,,,,バーズ,0
147,1120003021212,新規,0,2022-03-03,2022-03-03,合資会社Ｈｅａｒｔ　ｉｎ　Ｓｈｉｒｔｓ,,合資会社,大阪府,大阪市中央区,安堂寺町２丁目６－３９－１０４,,27,128,5420061,,,,,,,2022-03-03,1,,,,,ハートインシャーツ,0
148,1120005022828,新規,0,2022-03-03,2022-03-03,一般社団法人日本海外自動車産業促進会,,その他の設立登記法人,大阪府,大阪市東淀川区,菅原４丁目１０番２８号トーカン東淀川キャステール８１６号室,,27,114,5330022,,,,,,,2022-03-03,1,,,,,ニホンカイガイジドウシャサンギョウソクシンカイ,0
150,1120901045659,新規,0,2022-03-03,2022-03-03,株式会社ＳＲ　ｓｕｐｐｏｒｔ,,株式会社,大阪府,豊中市,岡町北３丁目１１番１２－４０７号,,27,203,5610884,,,,,,,2022-03-03,1,,,,,エスアールサポート,0
151,1120901045667,新規,0,2022-03-03,2022-03-03,株式会社Ｉｒｏｎ　Ｓｏｕｌ,,株式会社,大阪府,高槻市,芥川町１丁目１１番１号,,27,207,5691123,,,,,,,2022-03-03,1,,,,,アイアンソウル,0
158,1130003007788,新規,0,2022-03-03,2022-03-03,合同会社蒼点,,合同会社,京都府,京都市伏見区,石田大山町１番地３ハヤシビル１０４,,26,109,6011433,,,,,,,2022-03-03,1,,,,,ソウテン,0
163,1140001125095,新規,0,2022-03-03,2022-03-03,株式会社ＳＡ,,株式会社,兵庫県,西宮市,神原１０番１２－４０３号,,28,204,6620021,,,,,,,2022-03-03,1,,,,,エスエー,0
164,1140001125129,新規,0,2022-03-03,2022-03-03,株式会社ｂｅｔ,,株式会社,兵庫県,明石市,小久保４丁目１番地の９タウニー西明石Ｂ棟２０１号,,28,203,6730005,,,,,,,2022-03-03,1,,,,,ベット,0
165,1140001125153,新規,0,2022-03-03,2022-03-03,株式会社ＮＴ,,株式会社,兵庫県,神戸市北区,大沢町中大沢７８０番地,,28,109,6511524,,,,,,,2022-03-03,1,,,,,エヌティ,0
167,1140003017407,新規,0,2022-03-03,2022-03-03,合同会社ＲＹＳＫパートナーズ,,合同会社,兵庫県,芦屋市,浜風町２３番９号,,28,206,6590032,,,,,,,2022-03-03,1,,,,,アールワイエスケーパートナーズ,0
168,1140003017415,新規,0,2022-03-03,2022-03-03,バンディーグループ合同会社,,合同会社,兵庫県,西宮市,石刎町１６番２０号ローズハウス１Ｆ,,28,204,6620074,,,,,,,2022-03-03,1,,,,,バンディーグループ,0
171,1150001025369,新規,0,2022-03-03,2022-03-03,株式会社ＩＬＩＯＳ,,株式会社,奈良県,五條市,野原西３丁目１０番４４号,,29,207,6370036,,,,,,,2022-03-03,1,,,,,イリオス,0
172,1150001025377,新規,0,2022-03-03,2022-03-03,株式会社ＫＹＴコーポレーション,,株式会社,奈良県,大和高田市,大字大谷４０７番地１５,,29,202,6350076,,,,,,,2022-03-03,1,,,,,ケーワイティーコーポレーション,0
175,1160001024031,新規,0,2022-03-03,2022-03-03,株式会社トータルサービス,,株式会社,滋賀県,大津市,本堅田５丁目２３番１８－１１０２号,,25,201,5200242,,,,,,,2022-03-03,1,,,,,トータルサービス,0
176,1160003002506,新規,0,2022-03-03,2022-03-03,合同会社ＦＦＣ,,合同会社,滋賀県,高島市,勝野１５８１番地,,25,212,5201121,,,,,,,2022-03-03,1,,,,,エフエフシー,0
181,1180001150189,新規,0,2022-03-03,2022-03-03,株式会社ＳＴＫ,,株式会社,愛知県,一宮市,萩原町串作字荒神浦５２番地１,,23,203,4910376,,,,,,,2022-03-03,1,,,,,エスティケイ,0
182,1180001150206,新規,0,2022-03-03,2022-03-03,株式会社黒川,,株式会社,愛知県,名古屋市西区,則武新町３丁目７番１号,,23,104,4510051,,,,,,,2022-03-03,1,,,,,クロカワ,0
183,1180001150230,新規,0,2022-03-03,2022-03-03,株式会社Ｚ,,株式会社,愛知県,春日井市,東野町４丁目１番地２,,23,206,4860817,,,,,,,2022-03-03,1,,,,,ゼット,0
184,1180001150255,新規,0,2022-03-03,2022-03-03,株式会社真弓運輸,,株式会社,愛知県,名古屋市天白区,中平５丁目１６１２番地,,23,116,4680014,,,,,,,2022-03-03,1,,,,,マユミウンユ,0
185,1180001150263,新規,0,2022-03-03,2022-03-03,株式会社ＣｒｅｃｉａｔｅＦｏｏｄｓ,,株式会社,愛知県,一宮市,北浦町一丁目２１番地１,,23,203,4910901,,,,,,,2022-03-03,1,,,,,クレシエイトフーズ,0
186,1180001150271,新規,0,2022-03-03,2022-03-03,瀧本家具製作所株式会社,,株式会社,愛知県,名古屋市北区,中切町３丁目２８番地の３,,23,103,4620051,,,,,,,2022-03-03,1,,,,,タキモトカグセイサクショ,0
187,1180001150321,新規,0,2022-03-03,2022-03-03,株式会社レイズ,,株式会社,愛知県,名古屋市昭和区,隼人町８番地１８,,23,107,4660833,,,,,,,2022-03-03,1,,,,,レイズ,0
195,1180003023558,新規,0,2022-03-03,2022-03-03,合同会社ＹＭ企画,,合同会社,愛知県,大府市,若草町３丁目１３２番地,,23,223,4740022,,,,,,,2022-03-03,1,,,,,ワイエムキカク,0
197,1180301035965,新規,0,2022-03-03,2022-03-03,株式会社美濃利,,株式会社,愛知県,豊田市,大林町１２丁目１２番地１,,23,211,4730902,,,,,,,2022-03-03,1,,,,,ミノリ,0
198,1180301035973,新規,0,2022-03-03,2022-03-03,株式会社エムシー,,株式会社,愛知県,豊川市,萩山町３丁目７０番地の６,,23,207,4420879,,,,,,,2022-03-03,1,,,,,エムシー,0
201,1180303005264,新規,0,2022-03-03,2022-03-03,合同会社オフィス仁,,合同会社,愛知県,岡崎市,康生通東１丁目２番地,,23,202,4440045,,,,,,,2022-03-03,1,,,,,オフィスジン,0
203,1190001029168,新規,0,2022-03-03,2022-03-03,初景株式会社,,株式会社,三重県,亀山市,みずきが丘４６番地７,,24,210,5190181,,,,,,,2022-03-03,1,,,,,ハツケイ,0
204,1190001029184,新規,0,2022-03-03,2022-03-03,株式会社ＡＳＡ桑名東部,,株式会社,三重県,桑名市,明正町６９番地２,,24,205,5110823,,,,,,,2022-03-03,1,,,,,アサクワナトウブ,0
209,1210001018829,新規,0,2022-03-03,2022-03-03,株式会社あわら温泉屋台村,,株式会社,福井県,あわら市,田中々第４号３番地１,,18,208,9104124,,,,,,,2022-03-03,1,,,,,アワラオンセンヤタイムラ,0
210,1210003001469,新規,0,2022-03-03,2022-03-03,合同会社ＮＥＸＴ,,合同会社,福井県,福井市,高柳２丁目１８０６番地,,18,201,9100837,,,,,,,2022-03-03,1,,,,,ネクスト,0
215,1220003003233,新規,0,2022-03-03,2022-03-03,合同会社ＭＳＫ,,合同会社,石川県,金沢市,窪３丁目２５９番地,,17,201,9218151,,,,,,,2022-03-03,1,,,,,エムエスケー,0
217,1230001019255,新規,0,2022-03-03,2022-03-03,ＡＧＲＩ　ＢＡＳＥ株式会社,,株式会社,富山県,富山市,友杉４７８番地,,16,201,9398224,,,,,,,2022-03-03,1,,,,,アグリベース,0
221,1240001059408,新規,0,2022-03-03,2022-03-03,中宏商事株式会社,,株式会社,広島県,廿日市市,大野３４０６番地５９,,34,213,7390488,,,,,,,2022-03-03,1,,,,,ナカヒロショウジ,0
222,1240001059416,新規,0,2022-03-03,2022-03-03,株式会社ＡＲＢＩ,,株式会社,広島県,広島市中区,大手町１丁目１番２６号大手町一番ビル３０５,,34,101,7300051,,,,,,,2022-03-03,1,,,,,アービ,0
224,1240005015349,新規,0,2022-03-03,2022-03-03,司法書士法人松原事務所,,その他の設立登記法人,広島県,東広島市,西条土与丸６丁目１番９２号,,34,212,7390007,,,,,,,2022-03-03,1,,,,,マツバラジムショ,0
231,1250001019443,新規,0,2022-03-03,2022-03-03,トータルペイント株式会社,,株式会社,山口県,宇部市,大字善和３８７番地５５,,35,202,7590134,,,,,,,2022-03-03,1,,,,,トータルペイント,0
233,1260001036611,新規,0,2022-03-03,2022-03-03,株式会社ＳＥＩＫＡ,,株式会社,岡山県,岡山市北区,東古松２丁目１０番３７号ビ・ウェル東古松８０３号,,33,101,7000921,,,,,,,2022-03-03,1,,,,,セイカ,0
237,1290001096611,新規,0,2022-03-03,2022-03-03,セイハホールディングス株式会社,,株式会社,福岡県,福岡市博多区,店屋町１番３５号,,40,132,8120025,,,,,,,2022-03-03,1,,,,,セイハホールディングス,0
238,1290003012228,新規,0,2022-03-03,2022-03-03,合同会社ＩＳＢＳ,,合同会社,福岡県,福岡市早良区,原８丁目９番５号,,40,137,8140022,,,,,,,2022-03-03,1,,,,,アイエスビーエス,0
239,1290005018586,新規,0,2022-03-03,2022-03-03,税理士法人古賀会計,,その他の設立登記法人,福岡県,久留米市,藤光町９５７番地,,40,203,8300054,,,,,,,2022-03-03,1,,,,,コガカイケイ,0
241,1290801028292,新規,0,2022-03-03,2022-03-03,株式会社Ｌｕｘｅ　Ｏｕｔｓ,,株式会社,福岡県,直方市,大字感田２０１７番地１,,40,204,8220001,,,,,,,2022-03-03,1,,,,,ラックスアウツ,0
244,1310001017738,新規,0,2022-03-03,2022-03-03,株式会社ユーズネットサービス,,株式会社,長崎県,諫早市,幸町５８番１０号丸千アパート１７号,,42,204,8540022,,,,,,,2022-03-03,1,,,,,ユーズネットサービス,0
245,1310003004296,新規,0,2022-03-03,2022-03-03,合同会社肥深,,合同会社,長崎県,長崎市,三景台町２８番１９号,,42,201,8500824,,,,,,,2022-03-03,1,,,,,ヒシン,0
246,1310005008592,新規,0,2022-03-03,2022-03-03,医療法人すずき矯正歯科,,その他の設立登記法人,長崎県,長崎市,川口町１－１－１０６,,42,201,8528108,,,,,,,2022-03-03,1,,,,,スズキキョウセイシカ,0
247,1320001018933,新規,0,2022-03-03,2022-03-03,株式会社おとむすび大分,,株式会社,大分県,大分市,大字三芳１１９６番地の１,,44,201,8700030,,,,,,,2022-03-03,1,,,,,オトムスビオオイタ,0
249,1320003003743,新規,0,2022-03-03,2022-03-03,合同会社Ｐｌａｎｔ　Ｖｉｌｌａｇｅ,,合同会社,大分県,杵築市,大字宮司８１７番地３３,,44,210,8730004,,,,,,,2022-03-03,1,,,,,プラントヴィレッジ,0
250,1330001029491,新規,0,2022-03-03,2022-03-03,株式会社星和フォーティング,,株式会社,熊本県,熊本市南区,八分字町６１番地ラツールＩＩ２０１,00125858,43,104,8615253,,,,,,,2022-03-03,1,,,,,セイワフォーティング,0
251,1330001029517,新規,0,2022-03-03,2022-03-03,株式会社龍輝,,株式会社,熊本県,熊本市北区,龍田陳内４丁目１８番１５号カメリアガーデン２０２号,,43,105,8618005,,,,,,,2022-03-03,1,,,,,リュウキ,0
253,1330003009277,新規,0,2022-03-03,2022-03-03,Ｗｅｌｌ－ＰＦサービス合同会社,,合同会社,熊本県,熊本市中央区,九品寺４丁目３番２－１０３,,43,101,8620976,,,,,,,2022-03-03,1,,,,,ウェルピイエフサービス,0
254,1340001024533,新規,0,2022-03-03,2022-03-03,株式会社エス・エステートマネジメント,,株式会社,鹿児島県,鹿児島市,新栄町１９番３号,,46,201,8900072,,,,,,,2022-03-03,1,,,,,エスエステートマネジメント,0
255,1340001024541,新規,0,2022-03-03,2022-03-03,株式会社ｂｒｉｌｌｅｒ　ｂｅａｕｔｅ,,株式会社,鹿児島県,鹿児島市,上福元町３５５７番地４,,46,201,8910116,,,,,,,2022-03-03,1,,,,,ブリエボーテ,0
258,1350003004037,新規,0,2022-03-03,2022-03-03,サンバード合同会社,,合同会社,宮崎県,宮崎市,大字小松１２１６番地６,,45,201,8802112,,,,,,,2022-03-03,1,,,,,サンバード,0
263,1370003005611,新規,0,2022-03-03,2022-03-03,合同会社プレジャリアル,,合同会社,宮城県,亘理郡亘理町,字道田西１番地３,,04,361,9892351,,,,,,,2022-03-03,1,,,,,プレジャリアル,0
266,1380001032631,新規,0,2022-03-03,2022-03-03,株式会社インテリア笹島,,株式会社,福島県,郡山市,芳賀１丁目１５番９号,,07,203,9638813,,,,,,,2022-03-03,1,,,,,インテリアササジマ,0
269,1390001016807,新規,0,2022-03-03,2022-03-03,株式会社飛庄,,株式会社,山形県,山形市,桧町１丁目１０番８号,,06,201,9900813,,,,,,,2022-03-03,1,,,,,トビショウ,0
270,1390001016815,新規,0,2022-03-03,2022-03-03,株式会社クドウ農園,,株式会社,山形県,村山市,大字富並３８４５番地内３,,06,208,9950208,,,,,,,2022-03-03,1,,,,,クドウノウエン,0
272,1400001015798,新規,0,2022-03-03,2022-03-03,株式会社菜の花,,株式会社,岩手県,北上市,中野町１丁目１５番４７号,,03,206,0240024,,,,,,,2022-03-03,1,,,,,ナノハナ,0
277,1410005006454,新規,0,2022-03-03,2022-03-03,特定非営利活動法人ステップひろば,,その他の設立登記法人,秋田県,秋田市,大町１丁目２番７号サン・パティオ大町南棟２階,,05,201,0100921,,,,,,,2022-03-03,1,,,,,ステップヒロバ,0
278,1420001017751,新規,0,2022-03-03,2022-03-03,株式会社ＲＡＮＷＡＹ,,株式会社,青森県,青森市,安方２丁目１７番１１号,,02,201,0300803,,,,,,,2022-03-03,1,,,,,ランウェイ,0
281,1430001086102,新規,0,2022-03-03,2022-03-03,フジアシスト株式会社,,株式会社,北海道,夕張郡栗山町,字中里６１番地４９,,01,429,0691522,,,,,,,2022-03-03,1,,,,,フジアシスト,0
282,1430001086119,新規,0,2022-03-03,2022-03-03,株式会社ゼロステップ,,株式会社,北海道,札幌市白石区,栄通１７丁目８番１２号メイユール栄通１０５号室,,01,104,0030021,,,,,,,2022-03-03,1,,,,,ゼロステップ,0
285,1430005014406,新規,0,2022-03-03,2022-03-03,一般社団法人ユーステニス育成会,,その他の設立登記法人,北海道,札幌市豊平区,平岸一条１７丁目８番１５号,,01,105,0620931,,,,,,,2022-03-03,1,,,,,ユーステニスイクセイカイ,0
286,1440001009037,新規,0,2022-03-03,2022-03-03,株式会社ＫＩＳＡＫＩエステート,,株式会社,北海道,函館市,白鳥町１７番１８号,,01,202,0400082,,,,,,,2022-03-03,1,,,,,キサキエステート,0
290,1480003001797,新規,0,2022-03-03,2022-03-03,合同会社ＥＳＴＥＬＡ,,合同会社,徳島県,吉野川市,鴨島町鴨島７２３－１住友店舗１Ｆ,,36,205,7760010,,,,,,,2022-03-03,1,,,,,エステラ,0
291,1500001024038,新規,0,2022-03-03,2022-03-03,株式会社星川和則商店,,株式会社,愛媛県,四国中央市,上分町３２番地１,,38,213,7990121,,,,,,,2022-03-03,1,,,,,ホシカワカズノリショウテン,0
294,1500003002784,新規,0,2022-03-03,2022-03-03,ごごしまビアファーム合同会社,,合同会社,愛媛県,松山市,由良町８０３番地１,,38,201,7918092,,,,,,,2022-03-03,1,,,,,ゴゴシマビアファーム,0
295,1500005008466,新規,0,2022-03-03,2022-03-03,社会保険労務士法人イスキア,,その他の設立登記法人,愛媛県,松山市,雄郡２丁目１０番８号,,38,201,7900031,,,,,,,2022-03-03,1,,,,,イスキア,0
301,2010001224982,新規,0,2022-03-03,2022-03-03,株式会社ＢＭエコモ,,株式会社,東京都,中央区,明石町６番２４号,,13,102,1040044,,,,,,,2022-03-03,1,,,,,ビーエムエコモ,0
306,2010005034668,新規,0,2022-03-03,2022-03-03,オーク・ロジ厚木特定目的会社,,その他の設立登記法人,東京都,千代田区,内神田２丁目２番６号５階あすな会計事務所内,,13,101,1010047,,,,,,,2022-03-03,1,,,,,オークロジアツギ,0
310,2010101015084,新規,0,2022-03-03,2022-03-03,株式会社諸星設備,,株式会社,東京都,八王子市,中野上町５丁目２６番８号,,13,201,1920041,,,,,,,2022-03-03,1,,,,,モロホシセツビ,0
313,2010401165950,新規,0,2022-03-03,2022-03-03,ＭａｓｔｅｒｙＡｓｓｅｔｓ株式会社,,株式会社,東京都,港区,南青山２丁目２番１５号,,13,103,1070062,,,,,,,2022-03-03,1,,,,,マスタリーアセッツ,0
316,2010403027208,新規,0,2022-03-03,2022-03-03,合同会社ＫＡＲＵＩＮ,,合同会社,東京都,港区,南青山７丁目１２－５－１０３,,13,103,1070062,,,,,,,2022-03-03,1,,,,,カルイン,0
323,2010603009419,新規,0,2022-03-03,2022-03-03,東洋フィナンシャルサポート合同会社,,合同会社,東京都,江東区,毛利１丁目１９－１７,,13,108,1350001,,,,,,,2022-03-03,1,,,,,トウヨウフィナンシャルサポート,0
329,2010803004079,新規,0,2022-03-03,2022-03-03,合同会社コモハピネス,,合同会社,東京都,大田区,東雪谷１丁目１番３－９０３号,,13,111,1450065,,,,,,,2022-03-03,1,,,,,コモハピネス,0
330,2010901050470,新規,0,2022-03-03,2022-03-03,株式会社ミヤハラナユタ,,株式会社,東京都,世田谷区,上野毛１丁目６－２０,,13,112,1580093,,,,,,,2022-03-03,1,,,,,ミヤハラナユタ,0
331,2010903007205,新規,0,2022-03-03,2022-03-03,合同会社ＭＫｓ,,合同会社,東京都,世田谷区,宮坂１丁目３６番１２号,,13,112,1560051,,,,,,,2022-03-03,1,,,,,,0
335,2011001145789,新規,0,2022-03-03,2022-03-03,株式会社Ａｖｉａｔｏｒ,,株式会社,東京都,渋谷区,神宮前６丁目２３－４,,13,113,1500001,,,,,,,2022-03-03,1,,,,,アビエーター,0
336,2011001145962,新規,0,2022-03-03,2022-03-03,とおい山株式会社,,株式会社,東京都,渋谷区,猿楽町１８番８号,,13,113,1500033,,,,,,,2022-03-03,1,,,,,トオイヤマ,0
337,2011001145987,新規,0,2022-03-03,2022-03-03,株式会社Ｃｒｏｗｎｔａｉｌ,,株式会社,東京都,渋谷区,恵比寿西２丁目９番９号根本ビル３Ｆ,,13,113,1500021,,,,,,,2022-03-03,1,,,,,クラウンテール,0
338,2011001146077,新規,0,2022-03-03,2022-03-03,ローカスブルー株式会社,,株式会社,東京都,渋谷区,渋谷１丁目３番９号ヒューリック渋谷一丁目ビル７階６１７号室,,13,113,1500002,,,,,,,2022-03-03,1,,,,,ローカスブルー,0
344,2011103011526,新規,0,2022-03-03,2022-03-03,合同会社ＵＦＩＴ,,合同会社,東京都,新宿区,西新宿４丁目１７番５号Ｔ＆ＫビルディングＢ１,,13,104,1600023,,,,,,,2022-03-03,1,,,,,ユーフィット,0
347,2011401024072,新規,0,2022-03-03,2022-03-03,株式会社エクスチェンジ,,株式会社,東京都,板橋区,双葉町３６番２号,,13,119,1730011,,,,,,,2022-03-03,1,,,,,エクスチェンジ,0
349,2011403003586,新規,0,2022-03-03,2022-03-03,合同会社フジタテクノサポート,,合同会社,東京都,板橋区,中板橋１４番１４－４０１号鈴亀ビル,,13,119,1730016,,,,,,,2022-03-03,1,,,,,フジタテクノサポート,0
350,2011501027801,新規,0,2022-03-03,2022-03-03,Ｓ．ｔｅａｍ株式会社,,株式会社,東京都,北区,赤羽１丁目３９番５号ライオンビル明晃館２０１,,13,117,1150045,,,,,,,2022-03-03,1,,,,,エスチーム,0
351,2011505002453,新規,0,2022-03-03,2022-03-03,医療法人社団隆昇会,,その他の設立登記法人,東京都,荒川区,西日暮里２丁目１９番４号たちばなビル２階,,13,118,1160013,,,,,,,2022-03-03,1,,,,,リュウショウカイ,0
352,2011601025770,新規,0,2022-03-03,2022-03-03,株式会社ＦＯＵ,,株式会社,東京都,練馬区,南大泉５丁目２２番１０－３０５号,,13,120,1780064,,,,,,,2022-03-03,1,,,,,フー,0
353,2011701025084,新規,0,2022-03-03,2022-03-03,株式会社ＳＵＭＭＯＮ,,株式会社,東京都,江戸川区,西小岩１丁目４番７号誠和ビル６階２号,,13,123,1330057,,,,,,,2022-03-03,1,,,,,サモン,0
360,2011801040405,新規,0,2022-03-03,2022-03-03,株式会社ビヨンド,,株式会社,東京都,足立区,古千谷本町１丁目６番１２号,,13,121,1210832,,,,,,,2022-03-03,1,,,,,ビヨンド,0
361,2011801040413,新規,0,2022-03-03,2022-03-03,株式会社明るく楽しく,,株式会社,東京都,足立区,鹿浜５丁目１５番１２号,,13,121,1230864,,,,,,,2022-03-03,1,,,,,アカルクタノシク,0
365,2012401038921,新規,0,2022-03-03,2022-03-03,株式会社ＳＹメディカル,,株式会社,東京都,小金井市,貫井北町５丁目１２番３号,,13,210,1840015,,,,,,,2022-03-03,1,,,,,エスワイメディカル,0
368,2012701016957,新規,0,2022-03-03,2022-03-03,株式会社ｔｅｔｏｔｅ,,株式会社,東京都,清瀬市,下清戸２丁目５４６番地２,,13,221,2040011,,,,,,,2022-03-03,1,,,,,テトテ,0
369,2013301048770,新規,0,2022-03-03,2022-03-03,株式会社ｓｅｎａ,,株式会社,東京都,豊島区,池袋１丁目１番８号,,13,116,1700014,,,,,,,2022-03-03,1,,,,,セナ,0
374,2020001145476,新規,0,2022-03-03,2022-03-03,株式会社ＡＬＭＡＳ,,株式会社,神奈川県,川崎市高津区,下作延７丁目９番１２号,,14,134,2130033,,,,,,,2022-03-03,1,,,,,アルマス,0
375,2020001145484,新規,0,2022-03-03,2022-03-03,ＣＲＥＳＴ株式会社,,株式会社,神奈川県,横浜市港北区,新横浜２丁目５番１４号３Ｆ,,14,109,2220033,,,,,,,2022-03-03,1,,,,,クレスト,0
376,2020001145526,新規,0,2022-03-03,2022-03-03,株式会社ＰＲＯＭＩＮＥＮＣＥ,,株式会社,神奈川県,川崎市幸区,塚越２丁目２８６番地１,,14,132,2120024,,,,,,,2022-03-03,1,,,,,,0
393,2040001122416,新規,0,2022-03-03,2022-03-03,Ｌｉｎｋ株式会社,,株式会社,千葉県,流山市,おおたかの森東３丁目１５番地の５,,12,220,2700138,,,,,,,2022-03-03,1,,,,,リンク,0
394,2040001122432,新規,0,2022-03-03,2022-03-03,株式会社ｍｅｌｌｏｗ,,株式会社,千葉県,千葉市中央区,春日１丁目２０－１伊坂第２ビル１０１,,12,101,2600033,,,,,,,2022-03-03,1,,,,,メロウ,0
395,2040001122440,新規,0,2022-03-03,2022-03-03,株式会社塩味,,株式会社,千葉県,松戸市,根本４５２番地５０１号,,12,207,2710077,,,,,,,2022-03-03,1,,,,,シオアジ,0
404,2070001038997,新規,0,2022-03-03,2022-03-03,ケミテック飯田株式会社,,株式会社,群馬県,伊勢崎市,東本町１０６番地１０,,10,204,3720025,,,,,,,2022-03-03,1,,,,,ケミテックイイダ,0
406,2080001024798,新規,0,2022-03-03,2022-03-03,株式会社ＦＤＫ　ＨＤ,,株式会社,静岡県,藤枝市,藤岡５丁目２３番１号,,22,214,4260006,,,,,,,2022-03-03,1,,,,,エフディーケイエイチディ,0
409,2080401025644,新規,0,2022-03-03,2022-03-03,南洋社ＭＩＣ株式会社,,株式会社,静岡県,磐田市,川袋１８０番地１,,22,211,4380232,,,,,,,2022-03-03,1,,,,,ナンヨウシャエムアイシー,0
410,2080401025652,新規,0,2022-03-03,2022-03-03,株式会社祐エアサービス,,株式会社,静岡県,浜松市西区,和地町２７７８番地,,22,133,4311115,,,,,,,2022-03-03,1,,,,,ユウエアサービス,0
414,2100001035108,新規,0,2022-03-03,2022-03-03,株式会社山本,,株式会社,長野県,千曲市,大字磯部１３６６番地９,,20,218,3890806,,,,,,,2022-03-03,1,,,,,ヤマモト,0
422,2110001036468,新規,0,2022-03-03,2022-03-03,株式会社シン・エクステリア,,株式会社,新潟県,三条市,月岡２丁目３９番３７号,,15,204,9550803,,,,,,,2022-03-03,1,,,,,シンエクステリア,0
423,2110001036484,新規,0,2022-03-03,2022-03-03,株式会社朝日塗装,,株式会社,新潟県,新潟市北区,島見町２１２５番地,,15,101,9503102,,,,,,,2022-03-03,1,,,,,アサヒトソウ,0
436,2120003021203,新規,0,2022-03-03,2022-03-03,ｔａｇａｙａｓｕ合同会社,,合同会社,大阪府,大阪市西区,京町堀２丁目４番１－２４０４号,,27,106,5500003,,,,,,,2022-03-03,1,,,,,タガヤス,0
442,2120903004050,新規,0,2022-03-03,2022-03-03,ＮＯＮ’Ｓ　ＦＲＡＮＫ合同会社,,合同会社,大阪府,高槻市,芥川町１丁目１０番２８号,,27,207,5691123,,,,,,,2022-03-03,1,,,,,ノンズフランク,0
445,2130001071240,新規,0,2022-03-03,2022-03-03,株式会社ＴＡＳＫ,,株式会社,京都府,宇治市,木幡東中６番地の９,,26,204,6110002,,,,,,,2022-03-03,1,,,,,タスク,0
446,2130003007787,新規,0,2022-03-03,2022-03-03,ガラクタカラ合同会社,,合同会社,京都府,京都市伏見区,向島本丸町５４番地５５,,26,109,6128112,,,,,,,2022-03-03,1,,,,,ガラクタカラ,0
447,2130003007795,新規,0,2022-03-03,2022-03-03,関西アレンジ合同会社,,合同会社,京都府,宇治市,伊勢田町北山７番地の４５,,26,204,6110043,,,,,,,2022-03-03,1,,,,,カンサイアレンジ,0
450,2140001125144,新規,0,2022-03-03,2022-03-03,株式会社ＯＮＥ　ＭＯＲＥ,,株式会社,兵庫県,西宮市,満池谷町５番７－１０２号,,28,204,6620031,,,,,,,2022-03-03,1,,,,,ワンモア,0
451,2140001125169,新規,0,2022-03-03,2022-03-03,ｍａｍａｎｏ株式会社,,株式会社,兵庫県,神戸市須磨区,潮見台町２丁目１番１３－１０３号,,28,107,6540075,,,,,,,2022-03-03,1,,,,,ママノ,0
453,2140003017414,新規,0,2022-03-03,2022-03-03,合同会社西一,,合同会社,兵庫県,神戸市中央区,八幡通４丁目２番９号,,28,110,6510085,,,,,,,2022-03-03,1,,,,,ニシイチ,0
455,2140005026058,新規,0,2022-03-03,2022-03-03,南あわじ温泉郷事業協同組合,,その他の設立登記法人,兵庫県,南あわじ市,福良甲５１２番地２南あわじ市商工会南淡支所内,,28,224,6560501,,,,,,,2022-03-03,1,,,,,ミナミアワジオンセンキョウ,0
457,2160003002505,新規,0,2022-03-03,2022-03-03,合同会社ＮＯＵＢ,,合同会社,滋賀県,草津市,草津１丁目４番１４号,,25,206,5250034,,,,,,,2022-03-03,1,,,,,ノウブ,0
459,2170001016992,新規,0,2022-03-03,2022-03-03,浦辺商会株式会社,,株式会社,和歌山県,西牟婁郡白浜町,３０７９番地の６,,30,401,6492211,,,,,,,2022-03-03,1,,,,,ウラベショウカイ,0
460,2170005006949,新規,0,2022-03-03,2022-03-03,一般社団法人クリエイト,,その他の設立登記法人,和歌山県,和歌山市,市小路１６７番地,,30,201,6408464,,,,,,,2022-03-03,1,,,,,クリエイト,0
469,2180001150114,新規,0,2022-03-03,2022-03-03,株式会社一ノ日,,株式会社,愛知県,名古屋市天白区,古川町１０３番地の１,,23,116,4680046,,,,,,,2022-03-03,1,,,,,イチノヒ,0
470,2180001150213,新規,0,2022-03-03,2022-03-03,株式会社Ｐｅｔｉｔｅ　ｉｌｅ,,株式会社,愛知県,小牧市,堀の内３丁目１４番地ホリノウチビル１－Ｃ,,23,219,4850046,,,,,,,2022-03-03,1,,,,,プティイール,0
471,2180001150246,新規,0,2022-03-03,2022-03-03,ＣＡＲＡＭＥＬ　ＣＵＳＴＡＲＤ株式会社,,株式会社,愛知県,名古屋市中区,栄１丁目３１番４１号,,23,106,4600008,,,,,,,2022-03-03,1,,,,,カラメルカスタード,0
476,2180301035964,新規,0,2022-03-03,2022-03-03,Ｇｒｅｅｎ　Ａｃｔ株式会社,,株式会社,愛知県,豊川市,萩山町２丁目３０番地,,23,207,4420879,,,,,,,2022-03-03,1,,,,,グリーンアクト,0
479,2180303005271,新規,0,2022-03-03,2022-03-03,彩幸合同会社,,合同会社,愛知県,豊橋市,牟呂町字百間５５番地２,,23,201,4418087,,,,,,,2022-03-03,1,,,,,サイコウ,0
480,2190001029191,新規,0,2022-03-03,2022-03-03,ミライリスホールディングス株式会社,,株式会社,三重県,三重郡朝日町,大字縄生１０２６番地１,,24,343,5108101,,,,,,,2022-03-03,1,,,,,ミライリスホールディングス,0
481,2190001029200,新規,0,2022-03-03,2022-03-03,株式会社共友工業,,株式会社,三重県,四日市市,垂坂町２０７１番地２,,24,202,5108037,,,,,,,2022-03-03,1,,,,,キョウユウコウギョウ,0
482,2190003003913,新規,0,2022-03-03,2022-03-03,ＴＧＥ合同会社,,合同会社,三重県,桑名市,長島町西川８１６番地,,24,205,5111102,,,,,,,2022-03-03,1,,,,,ティージーイー,0
485,2200001039809,新規,0,2022-03-03,2022-03-03,フレッシュグロサリーＲＰＣ株式会社,,株式会社,岐阜県,瑞穂市,本田４７４番地の１,,21,216,5010236,,,,,,,2022-03-03,1,,,,,フレッシュグロサリーアールピーシー,0
486,2200003005478,新規,0,2022-03-03,2022-03-03,合同会社ＤＡＩＴＥＣ,,合同会社,岐阜県,大垣市,美和町１７２０番地１,,21,202,5030857,,,,,,,2022-03-03,1,,,,,ダイテック,0
487,2210001018828,新規,0,2022-03-03,2022-03-03,株式会社ＳＡＫＡＪＩＲＩ　ＩＮＤ,,株式会社,福井県,福井市,御幸２丁目６番１２号,,18,201,9100854,,,,,,,2022-03-03,1,,,,,サカジリインダストリー,0
488,2210001018836,新規,0,2022-03-03,2022-03-03,森山設備株式会社,,株式会社,福井県,鯖江市,上鯖江１丁目１０番６－４号,,18,207,9160055,,,,,,,2022-03-03,1,,,,,モリヤマセツビ,0
490,2210003001468,新規,0,2022-03-03,2022-03-03,合同会社ＧＬＯＢＡＬ　ＣＯＮＮＥＣＴ,,合同会社,福井県,福井市,飯塚町第１３号１０９番地パーク・ヴィラ３０１,,18,201,9188067,,,,,,,2022-03-03,1,,,,,グローバルコネクト,0
495,2240003005532,新規,0,2022-03-03,2022-03-03,合同会社ＫＩＤＳ　ＣＯＭＭＵＮＥ,,合同会社,広島県,東広島市,西条町助実１８６７－８,,34,212,7390021,,,,,,,2022-03-03,1,,,,,キッズコミューン,0
499,2260001036593,新規,0,2022-03-03,2022-03-03,株式会社コスタ,,株式会社,岡山県,備前市,日生町寒河３８番地,,33,211,7013202,,,,,,,2022-03-03,1,,,,,コスタ,0
500,2260001036602,新規,0,2022-03-03,2022-03-03,吉美建設株式会社,,株式会社,岡山県,津山市,三浦３０１番地６,,33,203,7081101,,,,,,,2022-03-03,1,,,,,ヨシミケンセツ,0
501,2260003003823,新規,0,2022-03-03,2022-03-03,合同会社ＴＨＥ　ＲＩＲＥ．,,合同会社,岡山県,岡山市南区,新保９０４番地５,,33,104,7000945,,,,,,,2022-03-03,1,,,,,リール,0
507,2290001096684,新規,0,2022-03-03,2022-03-03,ノリケラトプス研究所株式会社,,株式会社,福岡県,柳川市,沖端町３２,,40,207,8320065,,,,,,,2022-03-03,1,,,,,ノリケラトプスケンキュウショ,0
509,2290003012210,新規,0,2022-03-03,2022-03-03,３４ＶＩＥＴ　ＭＡＲＴ合同会社,,合同会社,福岡県,糸島市,前原中央２丁目５－１４－２Ｆ,,40,230,8191116,,,,,,,2022-03-03,1,,,,,サンヨンベトマート,0
510,2290801028291,新規,0,2022-03-03,2022-03-03,株式会社ｓｐｒｅａｄ,,株式会社,福岡県,北九州市八幡西区,千代ケ崎３丁目１４番１３号,,40,109,8070803,,,,,,,2022-03-03,1,,,,,スプレッド,0
512,2300003001797,新規,0,2022-03-03,2022-03-03,合同会社プラスアルファ,,合同会社,佐賀県,神埼市,神埼町姉川１５１４番地,,41,210,8420014,,,,,,,2022-03-03,1,,,,,プラスアルファ,0
513,2310001017745,新規,0,2022-03-03,2022-03-03,株式会社ＲＯＯＴＳ,,株式会社,長崎県,西彼杵郡長与町,吉無田郷１２２１－２４５,,42,307,8512126,,,,,,,2022-03-03,1,,,,,,0
514,2310003004295,新規,0,2022-03-03,2022-03-03,ＫＥＹＢＵＲＧ合同会社,,合同会社,長崎県,長崎市,ダイヤランド２丁目９－１８,,42,201,8500963,,,,,,,2022-03-03,1,,,,,,0
518,2320003003742,新規,0,2022-03-03,2022-03-03,合同会社いわおオフィス,,合同会社,大分県,別府市,元町１９番１０号別府ビル４０１,,44,202,8740944,,,,,,,2022-03-03,1,,,,,イワオオフィス,0
521,2330001029508,新規,0,2022-03-03,2022-03-03,株式会社ＮＯＢＬＥ,,株式会社,熊本県,熊本市西区,二本木５丁目１番４号しおりビル１階,,43,103,8600051,,,,,,,2022-03-03,1,,,,,ノーブル,0
523,2330003009276,新規,0,2022-03-03,2022-03-03,合同会社大善,,合同会社,熊本県,山鹿市,鹿本町来民５８０番地,,43,208,8610331,,,,,,,2022-03-03,1,,,,,ダイゼン,0
525,2340001024532,新規,0,2022-03-03,2022-03-03,株式会社山王工業,,株式会社,鹿児島県,鹿児島市,宇宿４丁目３７番１０号,,46,201,8900073,,,,,,,2022-03-03,1,,,,,サンノウコウギョウ,0
526,2340001024549,新規,0,2022-03-03,2022-03-03,株式会社外薗建具工業,,株式会社,鹿児島県,鹿児島市,谷山港１丁目３番地１６,,46,201,8910131,,,,,,,2022-03-03,1,,,,,ホカゾノタテグコウギョウ,0
530,2370001048248,新規,0,2022-03-03,2022-03-03,株式会社ＬＩＡＬＩＲＥ,,株式会社,宮城県,仙台市青葉区,一番町３丁目９番１３号ＤＡＴＥＯＮＥ,,04,101,9800811,,,,,,,2022-03-03,1,,,,,リアリー,0
531,2370003005610,新規,0,2022-03-03,2022-03-03,合同会社グロウライン,,合同会社,宮城県,仙台市青葉区,小田原４丁目２番５０－２,,04,101,9800003,,,,,,,2022-03-03,1,,,,,グロウライン,0
534,2380001032630,新規,0,2022-03-03,2022-03-03,株式会社北拓エネルギーメンテナンス研究所,,株式会社,福島県,いわき市,四倉町字芳ノ沢７７番地２４,,07,204,9790201,,,,,,,2022-03-03,1,,,,,ホクタクエネルギーメンテナンスケンキュウジョ,0
535,2380001032639,新規,0,2022-03-03,2022-03-03,Ｒｅｖｅｌｉｚｅ株式会社,,株式会社,福島県,郡山市,笹川１丁目９７番地の１,,07,203,9630108,,,,,,,2022-03-03,1,,,,,レヴライズ,0
536,2390001016806,新規,0,2022-03-03,2022-03-03,株式会社アップルサポート,,株式会社,山形県,西置賜郡白鷹町,大字荒砥乙２９７７番地８,,06,402,9920832,,,,,,,2022-03-03,1,,,,,アップルサポート,0
540,2410001013107,新規,0,2022-03-03,2022-03-03,株式会社ミートフード,,株式会社,秋田県,秋田市,大町３丁目２番３０号,,05,201,0100921,,,,,,,2022-03-03,1,,,,,ミートフード,0
541,2410001013115,新規,0,2022-03-03,2022-03-03,柴田電気工事株式会社,,株式会社,秋田県,横手市,平鹿町浅舞字林崎６４番地３,,05,203,0130105,,,,,,,2022-03-03,1,,,,,シバタデンキコウジ,0
545,2430001086084,新規,0,2022-03-03,2022-03-03,北海自動車リース株式会社,,株式会社,北海道,札幌市西区,二十四軒四条３丁目３番１２,,01,107,0630804,,,,,,,2022-03-03,1,,,,,ホッカイジドウシャリース,0
546,2430001086118,新規,0,2022-03-03,2022-03-03,大熊ダイヤモンドデバイス株式会社,,株式会社,北海道,札幌市北区,北十八条西４丁目１－１４　１８ＨＴビル４Ｆ,,01,102,0010018,,,,,,,2022-03-03,1,,,,,オオクマダイヤモンドデバイス,0
547,2430003013672,新規,0,2022-03-03,2022-03-03,合同会社ノースアルパイン,,合同会社,北海道,北広島市,若葉町１丁目４番地１,,01,234,0611142,,,,,,,2022-03-03,1,,,,,ノースアルパイン,0
549,2460101007152,新規,0,2022-03-03,2022-03-03,石上鉄建株式会社,,株式会社,北海道,中川郡本別町,新町２９番地２１,,01,646,0893324,,,,,,,2022-03-03,1,,,,,イシガミテッケン,0
553,2470001018983,新規,0,2022-03-03,2022-03-03,山口電設株式会社,,株式会社,香川県,高松市,西植田町３１７６番地７,,37,201,7610445,,,,,,,2022-03-03,1,,,,,ヤマグチデンセツ,0
556,2500001024037,新規,0,2022-03-03,2022-03-03,株式会社愛善,,株式会社,愛媛県,西条市,喜多川３１２番地１,,38,206,7930042,,,,,,,2022-03-03,1,,,,,アイゼン,0
562,3010001225022,新規,0,2022-03-03,2022-03-03,リテイル・マネジメント・サポート株式会社,,株式会社,東京都,千代田区,神田鍛冶町３丁目４番地ｏａｋ神田鍛冶町７階,,13,101,1010045,,,,,,,2022-03-03,1,,,,,リテイルマネジメントサポート,0
568,3010003037085,新規,0,2022-03-03,2022-03-03,ＦＩＬＵＬＵ合同会社,,合同会社,東京都,中央区,銀座１丁目２２番１１号,,13,102,1040061,,,,,,,2022-03-03,1,,,,,フィルル,0
572,3010005034667,新規,0,2022-03-03,2022-03-03,一般社団法人オーク・ロジ,,その他の設立登記法人,東京都,千代田区,内神田２丁目２番６号５階あすな会計事務所内,,13,101,1010047,,,,,,,2022-03-03,1,,,,,オークロジ,0
573,3010101015083,新規,0,2022-03-03,2022-03-03,エイトワン株式会社,,株式会社,東京都,八王子市,川口町２１２３番地４,,13,201,1930801,,,,,,,2022-03-03,1,,,,,エイトワン,0
575,3010401165900,新規,0,2022-03-03,2022-03-03,創健株式会社,,株式会社,東京都,港区,元赤坂１丁目２番７号赤坂Ｋタワー,,13,103,1070051,,,,,,,2022-03-03,1,,,,,ソウケン,0
581,3010403027207,新規,0,2022-03-03,2022-03-03,合同会社松田,,合同会社,東京都,港区,浜松町２丁目２番１５号浜松町ダイヤビル２Ｆ,,13,103,1050013,,,,,,,2022-03-03,1,,,,,マツダ,0
582,3010403027215,新規,0,2022-03-03,2022-03-03,合同会社Ｆｉｒｓｔ,,合同会社,東京都,港区,六本木２丁目２番４－８０８号,,13,103,1060032,,,,,,,2022-03-03,1,,,,,ファースト,0
583,3010501048526,新規,0,2022-03-03,2022-03-03,株式会社ＴＯＭＯＲＡ,,株式会社,東京都,台東区,上野３丁目１２番６号,,13,106,1100005,,,,,,,2022-03-03,1,,,,,トモラ,0
586,3010601060777,新規,0,2022-03-03,2022-03-03,シンセンス株式会社,,株式会社,東京都,江東区,新木場４丁目３番２６号,,13,108,1360082,,,,,,,2022-03-03,1,,,,,シンセンス,0
587,3010601060785,新規,0,2022-03-03,2022-03-03,株式会社フルオーツ,,株式会社,東京都,江東区,清澄２丁目９番１４号,,13,108,1350024,,,,,,,2022-03-03,1,,,,,フルオーツ,0
588,3010603009418,新規,0,2022-03-03,2022-03-03,合同会社エッセンス・ワン,,合同会社,東京都,江東区,三好３丁目１番８号,,13,108,1350022,,,,,,,2022-03-03,1,,,,,エッセンスワン,0
590,3010701042295,新規,0,2022-03-03,2022-03-03,デジタル・バンク株式会社,,株式会社,東京都,品川区,平塚２丁目５番８号,,13,109,1420051,,,,,,,2022-03-03,1,,,,,デジタルバンク,0
591,3010703006141,新規,0,2022-03-03,2022-03-03,ケイズホールディングス合同会社,,合同会社,東京都,品川区,上大崎３丁目１番１号目黒セントラルスクエア１５階,,13,109,1410021,,,,,,,2022-03-03,1,,,,,ケイズホールディングス,0
593,3010801032782,新規,0,2022-03-03,2022-03-03,株式会社ＦＣＡ,,株式会社,東京都,大田区,大森東４丁目３６番２号,,13,111,1430012,,,,,,,2022-03-03,1,,,,,エフシーエー,0
599,3010903007195,新規,0,2022-03-03,2022-03-03,合同会社Ａｃｅ,,合同会社,東京都,世田谷区,代田６丁目１８番１１号Ｌコート下北沢３０２,,13,112,1550033,,,,,,,2022-03-03,1,,,,,エース,0
604,3011001145945,新規,0,2022-03-03,2022-03-03,株式会社ｖｉｅ,,株式会社,東京都,渋谷区,神南１丁目６－５,,13,113,1500041,,,,,,,2022-03-03,1,,,,,ビー,0
605,3011001145978,新規,0,2022-03-03,2022-03-03,株式会社ＹＵＵＵＵＵ,,株式会社,東京都,渋谷区,富ヶ谷２丁目４３番１２号,,13,113,1510063,,,,,,,2022-03-03,1,,,,,ユーウ,0
606,3011001146076,新規,0,2022-03-03,2022-03-03,ちょこじ株式会社,,株式会社,東京都,渋谷区,神宮前６丁目２３番４号２Ｆ,,13,113,1500001,,,,,,,2022-03-03,1,,,,,チョコジ,0
607,3011001146092,新規,0,2022-03-03,2022-03-03,株式会社ＳＡＭＵＲＡＩアセット,,株式会社,東京都,渋谷区,千駄ヶ谷３丁目３番３１－４０１号,,13,113,1510051,,,,,,,2022-03-03,1,,,,,サムライアセット,0
609,3011003014264,新規,0,2022-03-03,2022-03-03,合同会社フランネル,,合同会社,東京都,渋谷区,道玄坂１丁目１０番８号渋谷道玄坂東急ビル２Ｆ－Ｃ,,13,113,1500043,,,,,,,2022-03-03,1,,,,,フランネル,0
610,3011005009460,新規,0,2022-03-03,2022-03-03,目黒青葉台グランドハイツ管理組合法人,,その他の設立登記法人,東京都,目黒区,青葉台４丁目２番１３号,,13,110,1530042,,,,,,,2022-03-03,1,,,,,メグロアオバダイグランドハイツ,0
611,3011101098028,新規,0,2022-03-03,2022-03-03,株式会社ＣＯＲＥＺＯＮ,,株式会社,東京都,新宿区,西新宿１丁目２６番２号新宿野村ビル３２階,,13,104,1600023,,,,,,,2022-03-03,1,,,,,コアゾン,0
613,3011201023686,新規,0,2022-03-03,2022-03-03,株式会社Ｌｏｗ　Ｃｏｄｅ,,株式会社,東京都,中野区,中野２丁目１２番５号メゾンリラ２０１,,13,114,1640001,,,,,,,2022-03-03,1,,,,,ローコード,0
616,3011501027800,新規,0,2022-03-03,2022-03-03,株式会社ｕｍｉ,,株式会社,東京都,北区,中里１丁目１１番３号,,13,117,1140015,,,,,,,2022-03-03,1,,,,,ウミ,0
619,3011801040395,新規,0,2022-03-03,2022-03-03,株式会社ＭＤファシリティマネジメント,,株式会社,東京都,葛飾区,青戸３丁目２７番１１号南葛ビル８Ｆ,,13,122,1250062,,,,,,,2022-03-03,1,,,,,エムディーファシリティマネジメント,0
620,3011801040404,新規,0,2022-03-03,2022-03-03,株式会社Ａｌｌスポーツ,,株式会社,東京都,足立区,東綾瀬１丁目８番１２号スガワビル１Ｆ,,13,121,1200004,,,,,,,2022-03-03,1,,,,,オールスポーツ,0
621,3011801040412,新規,0,2022-03-03,2022-03-03,株式会社Ｌｉｇｈｔ　ＢＲＯＴＨＥＲＳ,,株式会社,東京都,葛飾区,亀有２丁目１番４号,,13,122,1250061,,,,,,,2022-03-03,1,,,,,ライトブラザーズ,0
623,3011805003150,新規,0,2022-03-03,2022-03-03,一般社団法人豊樹会,,その他の設立登記法人,東京都,葛飾区,堀切４丁目７番２１号ダイヤモンドヒルズ松崎１０１,,13,122,1240006,,,,,,,2022-03-03,1,,,,,ホウジュカイ,0
625,3012701016964,新規,0,2022-03-03,2022-03-03,アリヒサ電気株式会社,,株式会社,東京都,東村山市,秋津町３丁目５番地７,,13,213,1890001,,,,,,,2022-03-03,1,,,,,アリヒサデンキ,0
630,3020001145475,新規,0,2022-03-03,2022-03-03,株式会社タカダン,,株式会社,神奈川県,横浜市鶴見区,汐入町１丁目３３番地２－１０１,,14,101,2300043,,,,,,,2022-03-03,1,,,,,タカダン,0
631,3020001145509,新規,0,2022-03-03,2022-03-03,株式会社ランバーサービス,,株式会社,神奈川県,川崎市多摩区,長尾７丁目９－１,,14,135,2140023,,,,,,,2022-03-03,1,,,,,ランバーサービス,0
632,3020001145525,新規,0,2022-03-03,2022-03-03,株式会社ＩＫＣ,,株式会社,神奈川県,横浜市磯子区,森３丁目７番２０号,,14,107,2350023,,,,,,,2022-03-03,1,,,,,アイケーシー,0
638,3020003021385,新規,0,2022-03-03,2022-03-03,合同会社ＣｏＳａｌｅｓ,,合同会社,神奈川県,横浜市戸塚区,川上町９１番地１,,14,110,2440805,,,,,,,2022-03-03,1,,,,,シーオーセールス,0
639,3020003021402,新規,0,2022-03-03,2022-03-03,合同会社ＳＤダイニング,,合同会社,神奈川県,横浜市保土ケ谷区,和田１丁目１１番２０号,,14,106,2400065,,,,,,,2022-03-03,1,,,,,エスディーダイニング,0
643,3021001075308,新規,0,2022-03-03,2022-03-03,株式会社山興業,,株式会社,神奈川県,藤沢市,川名７８９番地川名ハイツ３０１号,,14,205,2510015,,,,,,,2022-03-03,1,,,,,サンコウギョウ,0
649,3021005012447,新規,0,2022-03-03,2022-03-03,一般社団法人大人のＱＯＬコーチング協会,,その他の設立登記法人,神奈川県,茅ヶ崎市,中海岸１丁目５番２８－１号,,14,207,2530055,,,,,,,2022-03-03,1,,,,,オトナノキューオーエルコーチングキョウカイ,0
653,3030001147090,新規,0,2022-03-03,2022-03-03,株式会社はぐくみ,,株式会社,埼玉県,比企郡鳩山町,大字高野倉１４２番地,,11,348,3500304,,,,,,,2022-03-03,1,,,,,ハグクミ,0
656,3030003018760,新規,0,2022-03-03,2022-03-03,ビッグアップル合同会社,,合同会社,埼玉県,戸田市,本町５丁目１４番１７－５０５号,,11,224,3350023,,,,,,,2022-03-03,1,,,,,ビッグアップル,0
657,3040001122431,新規,0,2022-03-03,2022-03-03,株式会社ニーズ,,株式会社,千葉県,船橋市,習志野台５丁目２７－１１,,12,204,2740063,,,,,,,2022-03-03,1,,,,,ニーズ,0
665,3060001034617,新規,0,2022-03-03,2022-03-03,株式会社宇都宮自動車,,株式会社,栃木県,鹿沼市,茂呂２５２７番地９,,09,205,3220026,,,,,,,2022-03-03,1,,,,,ウツノミヤジドウシャ,0
667,3070001038996,新規,0,2022-03-03,2022-03-03,株式会社タリモ,,株式会社,群馬県,伊勢崎市,宮子町３５７４番地１－Ａ１,,10,204,3720801,,,,,,,2022-03-03,1,,,,,タリモ,0
668,3070001039004,新規,0,2022-03-03,2022-03-03,株式会社峯重,,株式会社,群馬県,桐生市,新里町野４５０番地１,,10,203,3760122,,,,,,,2022-03-03,1,,,,,ミネジュウ,0
673,3080001024797,新規,0,2022-03-03,2022-03-03,株式会社Ｃｈａｉｎｏｎ,,株式会社,静岡県,藤枝市,高柳１丁目１５番６７号,,22,214,4260041,,,,,,,2022-03-03,1,,,,,シェノン,0
674,3080003002743,新規,0,2022-03-03,2022-03-03,マルイチヴェルデ合同会社,,合同会社,静岡県,島田市,東町１４７番地,,22,209,4270011,,,,,,,2022-03-03,1,,,,,マルイチヴェルデ,0
676,3080401025651,新規,0,2022-03-03,2022-03-03,株式会社つちやせいか,,株式会社,静岡県,周智郡森町,森１３６７番地の１,,22,461,4370215,,,,,,,2022-03-03,1,,,,,ツチヤセイカ,0
684,3090001017453,新規,0,2022-03-03,2022-03-03,株式会社たちばな薬局,,株式会社,山梨県,南アルプス市,上今諏訪１７４９番地１,,19,208,4000211,,,,,,,2022-03-03,1,,,,,タチバナヤッキョク,0
691,3100001035107,新規,0,2022-03-03,2022-03-03,株式会社組曲,,株式会社,長野県,岡谷市,加茂町１丁目６番６号吉田館２Ｆ,,20,204,3940003,,,,,,,2022-03-03,1,,,,,クミキョク,0
692,3100001035115,新規,0,2022-03-03,2022-03-03,株式会社佐藤製作所,,株式会社,長野県,上高井郡高山村,大字高井字神明下５３７６－２,,20,543,3820800,,,,,,,2022-03-03,1,,,,,サトウセイサクジョ,0
696,3110001036467,新規,0,2022-03-03,2022-03-03,株式会社松井ファーム,,株式会社,新潟県,南魚沼市,宮８３７番地,,15,226,9496775,,,,,,,2022-03-03,1,,,,,マツイファーム,0
701,3120001244192,新規,0,2022-03-03,2022-03-03,株式会社ＴＲＹ,,株式会社,大阪府,大阪市住吉区,我孫子西２丁目８番４号,,27,120,5580015,,,,,,,2022-03-03,1,,,,,トライ,0
709,3120003021219,新規,0,2022-03-03,2022-03-03,リバティインターナショナル合同会社,,合同会社,大阪府,大阪市浪速区,難波中２丁目１０番７０号パークスタワー１９階,,27,111,5560011,,,,,,,2022-03-03,1,,,,,リバティインターナショナル,0
712,3120101065142,新規,0,2022-03-03,2022-03-03,株式会社ＮＦＲ,,株式会社,大阪府,堺市堺区,三国ヶ丘御幸通１５４,,27,141,5900028,,,,,,,2022-03-03,1,,,,,エヌエフアール,0
717,3120901045673,新規,0,2022-03-03,2022-03-03,上條産業株式会社,,株式会社,大阪府,豊中市,曽根西町１丁目９番１６の２号,,27,203,5610801,,,,,,,2022-03-03,1,,,,,カミジョウサンギョウ,0
720,3130001071231,新規,0,2022-03-03,2022-03-03,労働環境株式会社,,株式会社,京都府,京都市左京区,田中関田町２７,,26,103,6068203,,,,,,,2022-03-03,1,,,,,ロウドウカンキョウ,0
723,3140001125119,新規,0,2022-03-03,2022-03-03,株式会社テレガーメ,,株式会社,兵庫県,神戸市兵庫区,湊町３丁目２番５－９０８号神戸ハーバーウエスト,,28,105,6520812,,,,,,,2022-03-03,1,,,,,テレガーメ,0
724,3140001125127,新規,0,2022-03-03,2022-03-03,株式会社ＰＡＬＡＣＥ　ＷＥＳＴ,,株式会社,兵庫県,伊丹市,春日丘１丁目５５番地１２,,28,207,6640893,,,,,,,2022-03-03,1,,,,,パレスウエスト,0
725,3140005026057,新規,0,2022-03-03,2022-03-03,一般社団法人ＫＩＤＳ＆ＦＲＥＥ,,その他の設立登記法人,兵庫県,芦屋市,大桝町５番８－３０２号,,28,206,6590066,,,,,,,2022-03-03,1,,,,,キッズアンドフリー,0
727,3150001025375,新規,0,2022-03-03,2022-03-03,株式会社グリーンライフ,,株式会社,奈良県,生駒郡三郷町,立野北１丁目１０番２０号,,29,343,6360821,,,,,,,2022-03-03,1,,,,,グリーンライフ,0
736,3180001150195,新規,0,2022-03-03,2022-03-03,ＨＡＮＡコーポレーション株式会社,,株式会社,愛知県,名古屋市西区,牛島町２番２６号（アルテミス１００２号）,,23,104,4510046,,,,,,,2022-03-03,1,,,,,ハナコーポレーション,0
737,3180001150204,新規,0,2022-03-03,2022-03-03,株式会社エハラ,,株式会社,愛知県,名古屋市千種区,今池南１０番１５号,,23,101,4640851,,,,,,,2022-03-03,1,,,,,エハラ,0
738,3180001150212,新規,0,2022-03-03,2022-03-03,ｉＫリクルーティング株式会社,,株式会社,愛知県,名古屋市港区,泰明町１丁目３番地,,23,111,4550069,,,,,,,2022-03-03,1,,,,,アイケーリクルーティング,0
739,3180001150229,新規,0,2022-03-03,2022-03-03,一建設株式会社,,株式会社,愛知県,名古屋市中川区,野田３丁目４０番地の１,,23,110,4540912,,,,,,,2022-03-03,1,,,,,ハジメケンセツ,0
740,3180001150245,新規,0,2022-03-03,2022-03-03,株式会社Ｈｏｍｉｅｓ,,株式会社,愛知県,名古屋市瑞穂区,片坂町３丁目６１番地,,23,108,4670052,,,,,,,2022-03-03,1,,,,,ホーミーズ,0
741,3180001150253,新規,0,2022-03-03,2022-03-03,株式会社Ｙ＆Ｋ,,株式会社,愛知県,大府市,若草町１丁目１０５６番地,,23,223,4740022,,,,,,,2022-03-03,1,,,,,ワイアンドケイ,0
748,3180301035963,新規,0,2022-03-03,2022-03-03,株式会社こもれび,,株式会社,愛知県,豊橋市,東七根町字松端１７０番地,,23,201,4413201,,,,,,,2022-03-03,1,,,,,コモレビ,0
749,3180301035971,新規,0,2022-03-03,2022-03-03,株式会社後藤地質,,株式会社,愛知県,豊川市,伊奈町古当２５番地３,,23,207,4410105,,,,,,,2022-03-03,1,,,,,ゴトウチシツ,0
750,3180301035988,新規,0,2022-03-03,2022-03-03,株式会社ベクトル,,株式会社,愛知県,豊田市,若宮町２丁目７０番地,,23,211,4710026,,,,,,,2022-03-03,1,,,,,ベクトル,0
755,3190001029166,新規,0,2022-03-03,2022-03-03,株式会社ＳＴＩ,,株式会社,三重県,鈴鹿市,高岡町２７１９番地１,,24,207,5130014,,,,,,,2022-03-03,1,,,,,エスティーアイ,0
759,3210001018827,新規,0,2022-03-03,2022-03-03,浜本建装株式会社,,株式会社,福井県,福井市,高木中央２丁目２９０３番地,,18,201,9100804,,,,,,,2022-03-03,1,,,,,ハマモトケンソウ,0
760,3210001018835,新規,0,2022-03-03,2022-03-03,株式会社ビナシス,,株式会社,福井県,坂井市,三国町池上６２－１２,,18,210,9130001,,,,,,,2022-03-03,1,,,,,ビナシス,0
761,3220001024725,新規,0,2022-03-03,2022-03-03,株式会社真心総合サービス,,株式会社,石川県,金沢市,四十万町リ６５番地１,,17,201,9218133,,,,,,,2022-03-03,1,,,,,マゴコロソウゴウサービス,0
771,3240003005531,新規,0,2022-03-03,2022-03-03,合同会社Ｓｏｍｍｅ　ｒｉ　ｅｔ　Ｍｏｕ,,合同会社,広島県,広島市南区,大州３丁目４番１２－１２０２号,,34,103,7320802,,,,,,,2022-03-03,1,,,,,ソムリエムー,0
772,3250001019441,新規,0,2022-03-03,2022-03-03,ひろ不動産株式会社,,株式会社,山口県,防府市,大字江泊２５１０番地の４,,35,206,7470014,,,,,,,2022-03-03,1,,,,,ヒロフドウサン,0
777,3260005011039,新規,0,2022-03-03,2022-03-03,保証責任下鍛冶屋負債整理組合,,その他の設立登記法人,岡山県,真庭市,,,33,214,7193100,,,,,,,2022-03-03,1,,,,,ホショウセキニンシモカジヤフサイセイリクミアイ,0
778,3280001008648,新規,0,2022-03-03,2022-03-03,株式会社ＴＦＥ,,株式会社,島根県,飯石郡飯南町,獅子２０６番地２,,32,386,6903311,,,,,,,2022-03-03,1,,,,,ティーエフイー,0
779,3280001008656,新規,0,2022-03-03,2022-03-03,株式会社しまね・プラネッツ,,株式会社,島根県,江津市,渡津町９６１番地４,,32,207,6950001,,,,,,,2022-03-03,1,,,,,シマネプラネッツ,0
792,3290801028290,新規,0,2022-03-03,2022-03-03,株式会社成和,,株式会社,福岡県,北九州市八幡西区,上香月１丁目７番２２号,,40,109,8071101,,,,,,,2022-03-03,1,,,,,セイワ,0
794,3310001017736,新規,0,2022-03-03,2022-03-03,株式会社Ｅｘｔｅｒｉｏｒ　Ｌａｂｏｒａｔｏｒｙ,,株式会社,長崎県,大村市,大川田町９９６番地１０,,42,205,8560804,,,,,,,2022-03-03,1,,,,,エクステリアラボラトリー,0
795,3310001017752,新規,0,2022-03-03,2022-03-03,株式会社ＧＨＪインターナショナル,,株式会社,長崎県,長崎市,新大工町２番１６号,,42,201,8500017,,,,,,,2022-03-03,1,,,,,ジイエイチジェイインターナショナル,0
799,3330001029507,新規,0,2022-03-03,2022-03-03,株式会社アソビヘアー,,株式会社,熊本県,熊本市東区,月出２丁目２番６５号守平ビル１階ａｇｅ,,43,102,8620920,,,,,,,2022-03-03,1,,,,,アソビヘアー,0
800,3330001029515,新規,0,2022-03-03,2022-03-03,株式会社Ｊ・ＦＬＯＷＥＲ,,株式会社,熊本県,上天草市,大矢野町登立２３３４番地,,43,212,8693601,,,,,,,2022-03-03,1,,,,,ジェイフラワー,0
816,3390001016805,新規,0,2022-03-03,2022-03-03,株式会社伊義,,株式会社,山形県,天童市,大字山口３０番地の１,,06,210,9940101,,,,,,,2022-03-03,1,,,,,イヨシ,0
818,3400001015796,新規,0,2022-03-03,2022-03-03,信成産業株式会社,,株式会社,岩手県,奥州市,胆沢南都田字午房谷地１５５番地１,,03,215,0230401,,,,,,,2022-03-03,1,,,,,シンセイサンギョウ,0
823,3410001013106,新規,0,2022-03-03,2022-03-03,パディーフィールド奥州株式会社,,株式会社,秋田県,横手市,十文字町植田字四ツ屋１９０番地,,05,203,0190513,,,,,,,2022-03-03,1,,,,,パデイーフイールドオウシュウ,0
824,3410001013114,新規,0,2022-03-03,2022-03-03,共生農福科学株式会社,,株式会社,秋田県,仙北郡美郷町,六郷字古屋敷８２番地１,,05,434,0191404,,,,,,,2022-03-03,1,,,,,キョウセイノウフクカガク,0
831,3430001086100,新規,0,2022-03-03,2022-03-03,湊建装株式会社,,株式会社,北海道,札幌市白石区,米里一条２丁目４番１号,,01,104,0030871,,,,,,,2022-03-03,1,,,,,ミナトケンソウ,0
832,3430001086109,新規,0,2022-03-03,2022-03-03,エイトエナジー株式会社,,株式会社,北海道,札幌市中央区,旭ケ丘５丁目１番１４号,,01,101,0640941,,,,,,,2022-03-03,1,,,,,エイトエナジー,0
833,3430003013671,新規,0,2022-03-03,2022-03-03,合同会社アール・エス,,合同会社,北海道,札幌市白石区,川下一条８丁目１番１６号,,01,104,0030861,,,,,,,2022-03-03,1,,,,,アールエス,0
835,3470001018990,新規,0,2022-03-03,2022-03-03,株式会社佑建築,,株式会社,香川県,仲多度郡まんのう町,造田１９３４番地,,37,406,7660201,,,,,,,2022-03-03,1,,,,,タスクケンチク,0
836,3470003002142,新規,0,2022-03-03,2022-03-03,ｎｏｗｈｅｒｅ合同会社,,合同会社,香川県,高松市,上天神町８０４番地５,,37,201,7618056,,,,,,,2022-03-03,1,,,,,ノウウェア,0
839,3500001024036,新規,0,2022-03-03,2022-03-03,株式会社矢野縫製,,株式会社,愛媛県,今治市,五十嵐甲１０３番地１,,38,202,7940861,,,,,,,2022-03-03,1,,,,,ヤノホウセイ,0
844,3700150107265,新規,0,2022-03-03,2022-03-03,ＳＨＥＨＡＲＡ　ＥＮＴＥＲＰＲＩＳＥＳ,,外国会社等,千葉県,茂原市,下永吉６９８番地１０－２Ｆ－３,,12,210,2970035,スリランカ民主社会主義共和国、ピリマタワラ、ダウラガラロード、Ｎｏ．４５７,,,,,,2022-03-03,1,,,,,シエハラエンタープライズ,0
852,4010003037150,新規,0,2022-03-03,2022-03-03,合同会社Ｋａｎｔａｒ,,合同会社,東京都,中央区,銀座１丁目６番１１号土志田ビルディング３Ｆ,,13,102,1040061,,,,,,,2022-03-03,1,,,,,カンタル,0
853,4010003037159,新規,0,2022-03-03,2022-03-03,ＪＲＥパートナーズ合同会社,,合同会社,東京都,文京区,音羽１丁目２０番１４号,,13,105,1120013,,,,,,,2022-03-03,1,,,,,ジェイアールイーパートナーズ,0
857,4010005034641,新規,0,2022-03-03,2022-03-03,一般社団法人生活共同体ＴＳＵＭＵＧＩ,,その他の設立登記法人,東京都,中央区,日本橋横山町５－１３,,13,102,1030003,,,,,,,2022-03-03,1,,,,,セイカツキョウドウタイツムギ,0
858,4010005034658,新規,0,2022-03-03,2022-03-03,一般社団法人Ａ－ＳＴＡＲＴ,,その他の設立登記法人,東京都,中央区,日本橋浜町２丁目２６番８号,,13,102,1030007,,,,,,,2022-03-03,1,,,,,エースタート,0
864,4010401165924,新規,0,2022-03-03,2022-03-03,株式会社Ｍｃｏｎｅ,,株式会社,東京都,港区,北青山２丁目１２－８ＢＩＺＳＭＡＲＴ青山,,13,103,1070061,,,,,,,2022-03-03,1,,,,,エムコネ,0
865,4010401165949,新規,0,2022-03-03,2022-03-03,Ｓｍａｒｔ－ＩＰ株式会社,,株式会社,東京都,港区,虎ノ門１丁目１７－１虎ノ門ヒルズビジネスタワー１５Ｆ,,13,103,1050001,,,,,,,2022-03-03,1,,,,,スマートアイピー,0
866,4010403027206,新規,0,2022-03-03,2022-03-03,合同会社ＢＪＪ　ＬＡＢ,,合同会社,東京都,港区,芝３丁目４番１８－７０５号,,13,103,1050014,,,,,,,2022-03-03,1,,,,,ビージェージェーラボ,0
867,4010501048525,新規,0,2022-03-03,2022-03-03,祥栄メディカル株式会社,,株式会社,東京都,台東区,元浅草３丁目１番４－１２０１号,,13,106,1110041,,,,,,,2022-03-03,1,,,,,ショウエイメディカル,0
869,4010603009409,新規,0,2022-03-03,2022-03-03,イマジック合同会社,,合同会社,東京都,江東区,有明１丁目１番１７－１３１６号,,13,108,1350063,,,,,,,2022-03-03,1,,,,,イマジック,0
873,4010801032781,新規,0,2022-03-03,2022-03-03,株式会社ビズクリエーション,,株式会社,東京都,大田区,中央５丁目２１－１３,,13,111,1430024,,,,,,,2022-03-03,1,,,,,ビズクリエーション,0
884,4010901050460,新規,0,2022-03-03,2022-03-03,株式会社Ｈ＆Ｔ,,株式会社,東京都,世田谷区,池尻４丁目２７番３２－１１０６号,,13,112,1540001,,,,,,,2022-03-03,1,,,,,エイチアンドティー,0
885,4010901050469,新規,0,2022-03-03,2022-03-03,オフィスＪ株式会社,,株式会社,東京都,世田谷区,玉川２丁目１１番２－２０７号,,13,112,1580094,,,,,,,2022-03-03,1,,,,,オフィスジェイ,0
886,4010903007203,新規,0,2022-03-03,2022-03-03,スポーツパフォーマンスエージェンシー合同会社,,合同会社,東京都,世田谷区,北沢３丁目２番１１号３Ｆ－６,,13,112,1550031,,,,,,,2022-03-03,1,,,,,スポーツパフォーマンスエージェンシー,0
889,4011001145977,新規,0,2022-03-03,2022-03-03,株式会社ｍｅｌｔ,,株式会社,東京都,渋谷区,渋谷２丁目１９－１５宮益坂ビルディング６０９,,13,113,1500002,,,,,,,2022-03-03,1,,,,,メルト,0
891,4011003014288,新規,0,2022-03-03,2022-03-03,合同会社ぽこ,,合同会社,東京都,渋谷区,神宮前６丁目２３番４号桑野ビル２階,,13,113,1500001,,,,,,,2022-03-03,1,,,,,ポコ,0
896,4011105010152,新規,0,2022-03-03,2022-03-03,一般社団法人ＯＣＤ,,その他の設立登記法人,東京都,新宿区,西早稲田１丁目２１番２－１０１号,,13,104,1690051,,,,,,,2022-03-03,1,,,,,,0
905,4011501027799,新規,0,2022-03-03,2022-03-03,青空マルシェ株式会社,,株式会社,東京都,荒川区,南千住７丁目２４番２４－９２０号,,13,118,1160003,,,,,,,2022-03-03,1,,,,,アオゾラマルシェ,0
906,4011503005084,新規,0,2022-03-03,2022-03-03,グループ・オブ・ウイズダム合同会社,,合同会社,東京都,北区,堀船２丁目２２－２堀船第二住宅８０３号室,,13,117,1140004,,,,,,,2022-03-03,1,,,,,グループオブウイズダム,0
907,4011503005092,新規,0,2022-03-03,2022-03-03,合同会社ＰＲＡＶＡＪＲＡ,,合同会社,東京都,北区,王子本町１丁目４－１２レジェンド王子本町７０４,,13,117,1140022,,,,,,,2022-03-03,1,,,,,プラヴァージュラ,0
908,4011603003541,新規,0,2022-03-03,2022-03-03,合同会社Ｔｏｃａｒｌｙ,,合同会社,東京都,練馬区,東大泉２丁目１番３５－５０４,,13,120,1780063,,,,,,,2022-03-03,1,,,,,トカリー,0
917,4011801040394,新規,0,2022-03-03,2022-03-03,株式会社ルアナ,,株式会社,東京都,葛飾区,新小岩１丁目２５番６号持田ビル１階,,13,122,1240024,,,,,,,2022-03-03,1,,,,,ルアナ,0
918,4011801040403,新規,0,2022-03-03,2022-03-03,株式会社ＫＮＤ,,株式会社,東京都,葛飾区,青戸６丁目１２番１６号,,13,122,1250062,,,,,,,2022-03-03,1,,,,,ケーエヌディー,0
919,4011801040411,新規,0,2022-03-03,2022-03-03,允澤株式会社,,株式会社,東京都,足立区,西新井本町５丁目２番４－２０２号,,13,121,1230845,,,,,,,2022-03-03,1,,,,,インザワ,0
922,4011803004991,新規,0,2022-03-03,2022-03-03,合同会社Ｒ．ｓｋ,,合同会社,東京都,足立区,島根２丁目１５番１号アベリア館１０１号,,13,121,1210815,,,,,,,2022-03-03,1,,,,,アールエスケー,0
923,4012301012909,新規,0,2022-03-03,2022-03-03,株式会社ＴＡＨ,,株式会社,東京都,町田市,根岸１丁目９番地７,,13,209,1940038,,,,,,,2022-03-03,1,,,,,ティーエーエイチ,0
924,4012401038928,新規,0,2022-03-03,2022-03-03,高木建装株式会社,,株式会社,東京都,府中市,小柳町３丁目２３番地の１３アネックスフラワー２０１,,13,206,1830013,,,,,,,2022-03-03,1,,,,,タカギケンソウ,0
925,4012401038936,新規,0,2022-03-03,2022-03-03,株式会社ＮＥＳＴ技研,,株式会社,東京都,三鷹市,井の頭５丁目１６番７号Ｂ１,,13,204,1810001,,,,,,,2022-03-03,1,,,,,ネストギケン,0
927,4013303006056,新規,0,2022-03-03,2022-03-03,Ｊａｐａｎｅｓｅ　Ｂｅａｕｔｙ　Ｓｕｐｐｌｙ合同会社,,合同会社,東京都,豊島区,駒込１丁目１０番４号,,13,116,1700003,,,,,,,2022-03-03,1,,,,,ジャパニーズビューティーサプライ,0
928,4013303006072,新規,0,2022-03-03,2022-03-03,合同会社メテオール,,合同会社,東京都,豊島区,東池袋４丁目３番１５号,,13,116,1700013,,,,,,,2022-03-03,1,,,,,メテオール,0
933,4020001145508,新規,0,2022-03-03,2022-03-03,株式会社Ｇ．Ｎ．Ｓ,,株式会社,神奈川県,横浜市南区,大橋町３丁目５３番地３４,,14,105,2320054,,,,,,,2022-03-03,1,,,,,ジーエヌエス,0
934,4020001145516,新規,0,2022-03-03,2022-03-03,株式会社結心,,株式会社,神奈川県,川崎市川崎区,田町１丁目７番３号,,14,131,2100822,,,,,,,2022-03-03,1,,,,,,0
940,4020003021351,新規,0,2022-03-03,2022-03-03,合同会社Ｚｅｐｈｙｒ,,合同会社,神奈川県,横浜市青葉区,たちばな台１丁目１４－１０,,14,117,2270046,,,,,,,2022-03-03,1,,,,,ゼフィール,0
941,4020003021392,新規,0,2022-03-03,2022-03-03,合同会社アスラ,,合同会社,神奈川県,川崎市幸区,古川町４３番地２,,14,132,2120025,,,,,,,2022-03-03,1,,,,,アスラ,0
952,4040001122422,新規,0,2022-03-03,2022-03-03,株式会社Ｄ．ａｒｒｏｗｓ,,株式会社,千葉県,千葉市中央区,院内１丁目１８番１３号三矢四番館２Ｂ,,12,101,2600018,,,,,,,2022-03-03,1,,,,,ディーアローズ,0
958,4040003019609,新規,0,2022-03-03,2022-03-03,合同会社トリイ住宅設備,,合同会社,千葉県,八千代市,大和田新田３５４番地１０４,,12,221,2760046,,,,,,,2022-03-03,1,,,,,トリイジュウタクセツビ,0
959,4040003019617,新規,0,2022-03-03,2022-03-03,合同会社ＧＳＰＲＥＡＤ,,合同会社,千葉県,習志野市,実籾５丁目２０－１１,,12,216,2750002,,,,,,,2022-03-03,1,,,,,ジースプリード,0
961,4050001050705,新規,0,2022-03-03,2022-03-03,株式会社ＢＯＮＤ,,株式会社,茨城県,下妻市,黒駒１０５１番地２,,08,210,3040007,,,,,,,2022-03-03,1,,,,,ボンド,0
967,4070001039003,新規,0,2022-03-03,2022-03-03,株式会社大吉,,株式会社,群馬県,利根郡昭和村,大字森下２５１番地１１,,10,448,3791204,,,,,,,2022-03-03,1,,,,,ダイキチ,0
968,4070001039011,新規,0,2022-03-03,2022-03-03,株式会社ＭＡＴＳＵＲＩ,,株式会社,群馬県,渋川市,中郷４５６番地１９,,10,208,3770202,,,,,,,2022-03-03,1,,,,,マツリ,0
976,4080401025650,新規,0,2022-03-03,2022-03-03,株式会社稲垣電機,,株式会社,静岡県,磐田市,大久保２９２番地２３,,22,211,4380002,,,,,,,2022-03-03,1,,,,,イナガキデンキ,0
981,4100001035106,新規,0,2022-03-03,2022-03-03,株式会社アルファデザイン,,株式会社,長野県,岡谷市,長地権現町２丁目７番１１号,,20,204,3940081,,,,,,,2022-03-03,1,,,,,アルファデザイン,0
985,4110001036482,新規,0,2022-03-03,2022-03-03,株式会社ＧＲＡＣＥＳ,,株式会社,新潟県,新潟市中央区,古町通８番町１４３７番地６,,15,103,9518063,,,,,,,2022-03-03,1,,,,,グレイス,0
990,4120003021218,新規,0,2022-03-03,2022-03-03,合同会社ＺＥＮ,,合同会社,大阪府,大阪市東淀川区,東中島１丁目１８番２６－２０８号,,27,114,5330033,,,,,,,2022-03-03,1,,,,,ゼン,0
992,4120005022833,新規,0,2022-03-03,2022-03-03,一般社団法人ひふみ,,その他の設立登記法人,大阪府,大阪市港区,三先２丁目２０番６２号,,27,107,5520016,,,,,,,2022-03-03,1,,,,,ヒフミ,0
997,4120101065141,新規,0,2022-03-03,2022-03-03,株式会社アクア,,株式会社,大阪府,堺市東区,北野田７１３番地１,,27,143,5998123,,,,,,,2022-03-03,1,,,,,アクア,0
999,4120901045656,新規,0,2022-03-03,2022-03-03,株式会社ＪＥＸ．Ｋ,,株式会社,大阪府,摂津市,鳥飼和道１丁目１０番１７号,,27,224,5660073,,,,,,,2022-03-03,1,,,,,ジェクスケー,0
1012,4160001024020,新規,0,2022-03-03,2022-03-03,株式会社ＳＨＩＧＡ　ＬＡＮＫＡ,,株式会社,滋賀県,大津市,大石富川４丁目９番１０号,,25,201,5202265,,,,,,,2022-03-03,1,,,,,シガランカ,0
1013,4170001016999,新規,0,2022-03-03,2022-03-03,森下運送株式会社,,株式会社,和歌山県,有田市,港町８４５番地３２,,30,204,6490305,,,,,,,2022-03-03,1,,,,,モリシタウンソウ,0
1018,4180001150186,新規,0,2022-03-03,2022-03-03,ＰＬＵＳ　Ｓ株式会社,,株式会社,愛知県,名古屋市中川区,下之一色町字松蔭３丁目９番地,,23,110,4540945,,,,,,,2022-03-03,1,,,,,プラスエス,0
1019,4180001150260,新規,0,2022-03-03,2022-03-03,株式会社エアレクト,,株式会社,愛知県,名古屋市西区,天塚町４丁目６３番地プレズ名古屋庄内通１Ｄ室,,23,104,4510021,,,,,,,2022-03-03,1,,,,,エアレクト,0
1023,4180003023539,新規,0,2022-03-03,2022-03-03,Ｆｅｅ　Ｐｅａｃｅ合同会社,,合同会社,愛知県,名古屋市港区,港楽１丁目４番１７号,,23,111,4550014,,,,,,,2022-03-03,1,,,,,フィーピース,0
1024,4180005019659,新規,0,2022-03-03,2022-03-03,医療法人ＩＣＡＳ,,その他の設立登記法人,愛知県,名古屋市緑区,浦里４丁目８７番地,,23,114,4580847,,,,,,,2022-03-03,1,,,,,アイシーエーエス,0
1027,4180301035979,新規,0,2022-03-03,2022-03-03,株式会社Ｏｋａｍｏｔｏ＆パートナーズ,,株式会社,愛知県,豊橋市,羽田町７４番地１岡本ビル３階,,23,201,4418012,,,,,,,2022-03-03,1,,,,,オカモトアンドパートナーズ,0
1028,4180301035987,新規,0,2022-03-03,2022-03-03,暴れん坊チキン株式会社,,株式会社,愛知県,岡崎市,康生通東２丁目７番地,,23,202,4440045,,,,,,,2022-03-03,1,,,,,アバレンボウチキン,0
1029,4180301035995,新規,0,2022-03-03,2022-03-03,株式会社梅田技建,,株式会社,愛知県,豊川市,伊奈町平内７番地２,,23,207,4410105,,,,,,,2022-03-03,1,,,,,ウメダギケン,0
1030,4190001029181,新規,0,2022-03-03,2022-03-03,株式会社あおい電機工事,,株式会社,三重県,桑名市,大字太夫８９番地１－１０２号,,24,205,5110826,,,,,,,2022-03-03,1,,,,,アオイデンキコウジ,0
1031,4190001029198,新規,0,2022-03-03,2022-03-03,株式会社ＡＧテクノ,,株式会社,三重県,津市,藤方１０２２番地１,,24,201,5140815,,,,,,,2022-03-03,1,,,,,エージーテクノ,0
1034,4200001039798,新規,0,2022-03-03,2022-03-03,株式会社ヒートトリート草葉,,株式会社,岐阜県,多治見市,滝呂町３丁目１１４番地,,21,204,5070813,,,,,,,2022-03-03,1,,,,,ヒートトリートクサバ,0
1035,4200001039823,新規,0,2022-03-03,2022-03-03,株式会社ラジエーションサポート,,株式会社,岐阜県,羽島郡岐南町,平島５丁目５９番地プリート田園２０７号室,,21,302,5016003,,,,,,,2022-03-03,1,,,,,ラジエーションサポート,0
1036,4200003005476,新規,0,2022-03-03,2022-03-03,合同会社ファームジネン,,合同会社,岐阜県,高山市,大洞町１８１番地,,21,203,5060811,,,,,,,2022-03-03,1,,,,,ファームジネン,0
1037,4210003001466,新規,0,2022-03-03,2022-03-03,ＮＳ＆アソシエイツ合同会社,,合同会社,福井県,福井市,照手３丁目６番１２号,,18,201,9100024,,,,,,,2022-03-03,1,,,,,エヌエスアンドアソシエイツ,0
1047,4240003005530,新規,0,2022-03-03,2022-03-03,合同会社アイ工業,,合同会社,広島県,広島市西区,楠木町１丁目１３番２１－１０２号,,34,104,7330002,,,,,,,2022-03-03,1,,,,,アイコウギョウ,0
1059,4260001036583,新規,0,2022-03-03,2022-03-03,株式会社ＭｌＲｌＳＥ,,株式会社,岡山県,岡山市中区,乙多見１５４番地６フローラルガーデン１－２０２号,,33,102,7038228,,,,,,,2022-03-03,1,,,,,ミライズ,0
1060,4260001036600,新規,0,2022-03-03,2022-03-03,株式会社マザーカントリー,,株式会社,岡山県,赤磐市,小鎌１０５２番地,,33,213,7012446,,,,,,,2022-03-03,1,,,,,マザーカントリー,0
1061,4260001036609,新規,0,2022-03-03,2022-03-03,株式会社イワイ,,株式会社,岡山県,倉敷市,児島上の町２丁目９番６５－３０号,,33,202,7110907,,,,,,,2022-03-03,1,,,,,イワイ,0
1063,4260003003821,新規,0,2022-03-03,2022-03-03,合同会社エムコネクト,,合同会社,岡山県,岡山市北区,中撫川６００番地４,,33,101,7010163,,,,,,,2022-03-03,1,,,,,エムコネクト,0
1064,4260005011046,新規,0,2022-03-03,2022-03-03,一般社団法人あどないん,,その他の設立登記法人,岡山県,岡山市南区,豊成２丁目４番２３号,,33,104,7000942,,,,,,,2022-03-03,1,,,,,アドナイン,0
1069,4270001008466,新規,0,2022-03-03,2022-03-03,株式会社ＮＰＦ,,株式会社,鳥取県,倉吉市,森１７５,,31,203,6820615,,,,,,,2022-03-03,1,,,,,エヌピーエフ,0
1072,4280001008647,新規,0,2022-03-03,2022-03-03,旭昇興業株式会社,,株式会社,島根県,安来市,荒島町１１８５番地１,,32,206,6920007,,,,,,,2022-03-03,1,,,,,アサヒショウコウギョウ,0
1073,4280001008655,新規,0,2022-03-03,2022-03-03,株式会社Ｌｉｖ　ｇｕｉｄｅ,,株式会社,島根県,松江市,古曽志町９９４番地,,32,201,6900151,,,,,,,2022-03-03,1,,,,,リヴガイド,0
1076,4290001096600,新規,0,2022-03-03,2022-03-03,株式会社ＭＤＡ,,株式会社,福岡県,福岡市中央区,警固１丁目６番２６号１階,,40,133,8100023,,,,,,,2022-03-03,1,,,,,エムディエイ,0
1077,4290001096609,新規,0,2022-03-03,2022-03-03,株式会社康健,,株式会社,福岡県,福岡市南区,玉川町１９－２６,,40,134,8150037,,,,,,,2022-03-03,1,,,,,コウケン,0
1078,4290001096625,新規,0,2022-03-03,2022-03-03,小林工業株式会社,,株式会社,福岡県,糸島市,板持２丁目３番９号,,40,230,8191101,,,,,,,2022-03-03,1,,,,,コバヤシコウギョウ,0
1079,4290001096658,新規,0,2022-03-03,2022-03-03,エリア物産株式会社,,株式会社,福岡県,福岡市東区,みなと香椎３丁目１番１号,,40,131,8130019,,,,,,,2022-03-03,1,,,,,エリアブッサン,0
1083,4310003004293,新規,0,2022-03-03,2022-03-03,合同会社ライズ空調サービス,,合同会社,長崎県,長崎市,三京町８１５番地１２１,,42,201,8512206,,,,,,,2022-03-03,1,,,,,ライズクウチョウサービス,0
1087,4330001029497,新規,0,2022-03-03,2022-03-03,株式会社ランドフォーメーション,,株式会社,熊本県,熊本市南区,田迎６丁目５番１号１０１号室,,43,104,8620962,,,,,,,2022-03-03,1,,,,,ランドフォーメーション,0
1088,4330001029506,新規,0,2022-03-03,2022-03-03,株式会社Ｍ－Ｃｌｏｖｅｒ’ｓ,,株式会社,熊本県,熊本市中央区,花畑町１３番２号竹葉ビルＢ１Ｆ,,43,101,8600806,,,,,,,2022-03-03,1,,,,,エムクローバーズ,0
1089,4330001029514,新規,0,2022-03-03,2022-03-03,株式会社ＳＵＩＳＯＫ,,株式会社,熊本県,菊池郡大津町,大字真木４１２番地１,,43,403,8691212,,,,,,,2022-03-03,1,,,,,,0
1101,4380001032629,新規,0,2022-03-03,2022-03-03,株式会社望,,株式会社,福島県,南会津郡南会津町,貝原６０７番地,,07,368,9670335,,,,,,,2022-03-03,1,,,,,ノゾミ,0
1102,4380001032645,新規,0,2022-03-03,2022-03-03,株式会社山福,,株式会社,福島県,福島市,天神町９番２７号,,07,201,9608001,,,,,,,2022-03-03,1,,,,,ヤマフク,0
1103,4380005012544,新規,0,2022-03-03,2022-03-03,一般社団法人石陽新社,,その他の設立登記法人,福島県,石川郡石川町,大字中野字寺内１５番地の５,,07,501,9637837,,,,,,,2022-03-03,1,,,,,セキヨウシンシャ,0
1104,4390001016804,新規,0,2022-03-03,2022-03-03,株式会社浅野目農園,,株式会社,山形県,東根市,大字長瀞１４２７番地第１,,06,211,9993771,,,,,,,2022-03-03,1,,,,,アサノメノウエン,0
1105,4390001016812,新規,0,2022-03-03,2022-03-03,星王開発株式会社,,株式会社,山形県,新庄市,十日町６１８０番地の２４,,06,205,9960091,,,,,,,2022-03-03,1,,,,,セイオウカイハツ,0
1106,4390001016820,新規,0,2022-03-03,2022-03-03,ＯＮＥ　ＡＩＲ株式会社,,株式会社,山形県,上山市,新町１丁目９番３０号,,06,207,9993158,,,,,,,2022-03-03,1,,,,,ワンエアー,0
1108,4400001015795,新規,0,2022-03-03,2022-03-03,株式会社亀山工業,,株式会社,岩手県,奥州市,水沢台町６番１７号ＳｔｒｅａｍＳｔｙｌｅ３１０Ａ棟２７号室,,03,215,0230825,,,,,,,2022-03-03,1,,,,,カメヤマコウギョウ,0
1109,4400003002908,新規,0,2022-03-03,2022-03-03,合同会社ＴＯＰＲＡＮＫ,,合同会社,岩手県,北上市,大通り２丁目２番３１号佐藤ビル３階,,03,206,0240061,,,,,,,2022-03-03,1,,,,,トップランク,0
1111,4410001013113,新規,0,2022-03-03,2022-03-03,株式会社翠久の里,,株式会社,秋田県,横手市,大屋寺内字堀ノ内１０６番地４,,05,203,0130052,,,,,,,2022-03-03,1,,,,,スイキュウノサト,0
1113,4410003003624,新規,0,2022-03-03,2022-03-03,合同会社石川建築設計,,合同会社,秋田県,湯沢市,関口字寺沢２０４番地２,,05,207,0120862,,,,,,,2022-03-03,1,,,,,イシカワケンチクセッケイ,0
1115,4430001086082,新規,0,2022-03-03,2022-03-03,株式会社エステック,,株式会社,北海道,札幌市南区,北ノ沢４丁目５－３,,01,106,0050832,,,,,,,2022-03-03,1,,,,,エステック,0
1116,4430001086090,新規,0,2022-03-03,2022-03-03,ＩＣ株式会社,,株式会社,北海道,札幌市中央区,南五条西４丁目７番地１Ｎ．ＳＱＵＡＲＥビル１階,,01,101,0640805,,,,,,,2022-03-03,1,,,,,アイシー,0
1118,4430003013670,新規,0,2022-03-03,2022-03-03,合同会社ＫＭＳＧ,,合同会社,北海道,札幌市手稲区,新発寒二条４丁目１番８号,,01,109,0060802,,,,,,,2022-03-03,1,,,,,ケーエムエスジー,0
1123,4460101007150,新規,0,2022-03-03,2022-03-03,株式会社戸梶農場,,株式会社,北海道,広尾郡大樹町,字大樹１１４番地,,01,641,0892105,,,,,,,2022-03-03,1,,,,,トカジノウジョウ,0
1128,4500001024035,新規,0,2022-03-03,2022-03-03,株式会社Ｈ＆Ｔ,,株式会社,愛媛県,今治市,町谷甲６８４番地６,,38,202,7991514,,,,,,,2022-03-03,1,,,,,エイチアンドティー,0
1129,4500001024043,新規,0,2022-03-03,2022-03-03,市兼左官株式会社,,株式会社,愛媛県,喜多郡内子町,内子２９１９番地,,38,422,7913301,,,,,,,2022-03-03,1,,,,,イチカネサカン,0
1140,5010001224930,新規,0,2022-03-03,2022-03-03,株式会社ｕｔｕｒｉ,,株式会社,東京都,中央区,銀座１丁目１２番４号Ｎ＆Ｅ・ＢＬＤ．７階,,13,102,1040061,,,,,,,2022-03-03,1,,,,,ウツリ,0
1141,5010001224963,新規,0,2022-03-03,2022-03-03,三幸アセットマネジメント株式会社,,株式会社,東京都,中央区,銀座４丁目６番１号,,13,102,1040061,,,,,,,2022-03-03,1,,,,,サンコウアセットマネジメント,0
1142,5010001225029,新規,0,2022-03-03,2022-03-03,株式会社経営戦略研究所,,株式会社,東京都,中央区,日本橋蛎殻町１丁目３８番９号,,13,102,1030014,,,,,,,2022-03-03,1,,,,,ケイエイセンリャクケンキュウジョ,0
1152,5010003037133,新規,0,2022-03-03,2022-03-03,Ｖｏｌｕｅ合同会社,,合同会社,東京都,千代田区,丸の内１丁目６番５号丸の内北口ビルディング９階ＷｅＷｏｒｋ内,,13,101,1000005,,,,,,,2022-03-03,1,,,,,ヴォールエ,0
1155,5010005034657,新規,0,2022-03-03,2022-03-03,一般社団法人１００年企業戦略研究所,,その他の設立登記法人,東京都,千代田区,富士見２丁目１０番２号,,13,101,1020071,,,,,,,2022-03-03,1,,,,,ヒャクネンキギョウセンリャクケンキュウショ,0
1156,5010005034665,新規,0,2022-03-03,2022-03-03,京浜島二丁目開発特定目的会社,,その他の設立登記法人,東京都,千代田区,平河町１丁目６番１５号シルスフィア会計事務所内,,13,101,1020093,,,,,,,2022-03-03,1,,,,,ケイヒンジマニチョウメカイハツ,0
1157,5010101015081,新規,0,2022-03-03,2022-03-03,株式会社ＤＥＸ,,株式会社,東京都,八王子市,七国４丁目１５番１０号,,13,201,1920919,,,,,,,2022-03-03,1,,,,,デックス,0
1159,5010401165898,新規,0,2022-03-03,2022-03-03,ＴｒｅｅＦｒｏｇ　Ｔｈｅｒａｐｅｕｔｉｃｓ　Ｊａｐａｎ株式会社,,株式会社,東京都,港区,東麻布１丁目２３番５号ＰＭＣビル４階,,13,103,1060044,,,,,,,2022-03-03,1,,,,,ツリーフロッグセラピュティクスジャパン,0
1160,5010401165923,新規,0,2022-03-03,2022-03-03,エムエイチホールディングス株式会社,,株式会社,東京都,港区,六本木６丁目１６番１１号,,13,103,1060032,,,,,,,2022-03-03,1,,,,,エムエイチホールディングス,0
1161,5010401165948,新規,0,2022-03-03,2022-03-03,株式会社ＪＡＣＯＭ,,株式会社,東京都,港区,芝２丁目２９番１４号,,13,103,1050014,,,,,,,2022-03-03,1,,,,,ジャコム,0
1162,5010401165964,新規,0,2022-03-03,2022-03-03,ＧＣＪＧ２３株式会社,,株式会社,東京都,港区,元赤坂１丁目１番８号株式会社赤坂国際会計内,,13,103,1070051,,,,,,,2022-03-03,1,,,,,ジーシージェイジートゥエンティスリー,0
1163,5010403027205,新規,0,2022-03-03,2022-03-03,合同会社Ｄ３,,合同会社,東京都,港区,南青山２丁目２番１５号,,13,103,1070062,,,,,,,2022-03-03,1,,,,,ディースリー,0
1164,5010405020777,新規,0,2022-03-03,2022-03-03,Ｌｉｆｅｓｔｙｌｅ１ｂ一般社団法人,,その他の設立登記法人,東京都,港区,六本木１丁目６番１号泉ガーデンタワー,,13,103,1060032,,,,,,,2022-03-03,1,,,,,ライフスタイルワンビー,0
1172,5010701042319,新規,0,2022-03-03,2022-03-03,株式会社スキルズアップ,,株式会社,東京都,品川区,東品川１丁目３－１５,,13,109,1400002,,,,,,,2022-03-03,1,,,,,スキルズアップ,0
1177,5010901050435,新規,0,2022-03-03,2022-03-03,株式会社ホワイトベアー,,株式会社,東京都,世田谷区,三軒茶屋１丁目３０番８号,,13,112,1540024,,,,,,,2022-03-03,1,,,,,,0
1178,5010903007202,新規,0,2022-03-03,2022-03-03,合同会社ＫＫコンサルティング,,合同会社,東京都,世田谷区,太子堂１丁目１０番１２号グリーンパル１０１,,13,112,1540004,,,,,,,2022-03-03,1,,,,,ケイケイコンサルティング,0
1190,5011001145984,新規,0,2022-03-03,2022-03-03,株式会社山本大介デザイン事務所,,株式会社,東京都,渋谷区,鉢山町９番２１号,,13,113,1500035,,,,,,,2022-03-03,1,,,,,ヤマモトダイスケデザインジムショ,0
1191,5011001145992,新規,0,2022-03-03,2022-03-03,株式会社ｍａｇｉｃ　ｈｏｕｒ,,株式会社,東京都,渋谷区,神宮前６丁目２３番４号桑野ビル２階,,13,113,1500001,,,,,,,2022-03-03,1,,,,,マジックアワー,0
1192,5011001146033,新規,0,2022-03-03,2022-03-03,株式会社ＯｎｅＴｒａｃｋ,,株式会社,東京都,渋谷区,円山町５番５号Ｎａｖｉ渋谷Ｖ３階,00125865,13,113,1500044,,,,,,,2022-03-03,1,,,,,ワントラック,0
1194,5011003014254,新規,0,2022-03-03,2022-03-03,ｂｃ－ｌａｂ合同会社,,合同会社,東京都,渋谷区,道玄坂１丁目１０番８号渋谷道玄坂東急ビル２Ｆ－Ｃ,,13,113,1500043,,,,,,,2022-03-03,1,,,,,ビーシーラボ,0
1195,5011003014262,新規,0,2022-03-03,2022-03-03,合同会社ねこの日,,合同会社,東京都,渋谷区,渋谷２丁目１９－１５宮益坂ビルディング６０９,,13,113,1500002,,,,,,,2022-03-03,1,,,,,ネコノヒ,0
1196,5011003014287,新規,0,2022-03-03,2022-03-03,Ｓｉａｌ　Ｔｈｏｕｓａｎｄ合同会社,,合同会社,東京都,渋谷区,円山町５番５号Ｎａｖｉ渋谷Ｖ３階,,13,113,1500044,,,,,,,2022-03-03,1,,,,,シアルサウザンド,0
1197,5011005009442,新規,0,2022-03-03,2022-03-03,一般社団法人先端社会科学技術研究所,,その他の設立登記法人,東京都,渋谷区,神宮前６丁目２３番４号桑野ビル２階,,13,113,1500001,,,,,,,2022-03-03,1,,,,,センタンシャカイカガクギジュツケンキュウジョ,0
1198,5011005009467,新規,0,2022-03-03,2022-03-03,一般社団法人情報オリンピック日本委員会,,その他の設立登記法人,東京都,渋谷区,渋谷１丁目１０番７－３０１号,,13,113,1500002,,,,,,,2022-03-03,1,,,,,ジョウホウオリンピックニホンイインカイ,0
1202,5011101097993,新規,0,2022-03-03,2022-03-03,株式会社ＫＴＴＹ,,株式会社,東京都,新宿区,新宿７丁目２５番２号アクサス新宿タワーズＥＡＳＴ１４０１,,13,104,1600022,,,,,,,2022-03-03,1,,,,,ケーティーティーワイ,0
1204,5011201023684,新規,0,2022-03-03,2022-03-03,株式会社エムズ,,株式会社,東京都,中野区,本町４丁目３１番６－１１０５号,,13,114,1640012,,,,,,,2022-03-03,1,,,,,エムズ,0
1208,5011405002187,新規,0,2022-03-03,2022-03-03,医療法人社団白圓会,,その他の設立登記法人,東京都,板橋区,成増２丁目１７番１３号ヒューリック成増２階店舗３Ａ,,13,119,1750094,,,,,,,2022-03-03,1,,,,,ハクエンカイ,0
1209,5011601025768,新規,0,2022-03-03,2022-03-03,ケイアル株式会社,,株式会社,東京都,練馬区,豊玉北２丁目２０番３－４０２号,,13,120,1760012,,,,,,,2022-03-03,1,,,,,ケイアル,0
1214,5011801040393,新規,0,2022-03-03,2022-03-03,株式会社ＷＨＥＥＬ　ＦＲＯＮＴＩＥＲ,,株式会社,東京都,葛飾区,立石８丁目３０番１５号メゾン・フェニックスＢ３０３,,13,122,1240012,,,,,,,2022-03-03,1,,,,,ウィルフロンティア,0
1215,5011801040402,新規,0,2022-03-03,2022-03-03,株式会社みどり,,株式会社,東京都,葛飾区,東四つ木１丁目２３番１８号,,13,122,1240014,,,,,,,2022-03-03,1,,,,,ミドリ,0
1216,5011801040410,新規,0,2022-03-03,2022-03-03,株式会社Ｔｈａｇｒａｄａ　Ａｉｒｗａｙｓ,,株式会社,東京都,足立区,千住１丁目２７番１号,,13,121,1200034,,,,,,,2022-03-03,1,,,,,サグラーダエアウェイズ,0
1217,5011803004990,新規,0,2022-03-03,2022-03-03,リンプレックス合同会社,,合同会社,東京都,足立区,千住宮元町１６番３号,,13,121,1200043,,,,,,,2022-03-03,1,,,,,リンプレックス,0
1219,5012401038919,新規,0,2022-03-03,2022-03-03,株式会社アマネハーツ,,株式会社,東京都,府中市,八幡町２丁目２２番地の４シャルマンウエスト１０３,,13,206,1830016,,,,,,,2022-03-03,1,,,,,アマネハーツ,0
1220,5012401038927,新規,0,2022-03-03,2022-03-03,株式会社城地質,,株式会社,東京都,武蔵野市,西久保３丁目１８番４－３０８号,,13,203,1800013,,,,,,,2022-03-03,1,,,,,ジョウチシツ,0
1221,5012403005256,新規,0,2022-03-03,2022-03-03,みらいヘルスケアコンサルティング合同会社,,合同会社,東京都,三鷹市,下連雀３丁目２４番３－７０１号,,13,204,1810013,,,,,,,2022-03-03,1,,,,,ミライヘルスケアコンサルティング,0
1222,5012701016954,新規,0,2022-03-03,2022-03-03,株式会社Ｂ　ｍｏｎｉｔｏｒ,,株式会社,東京都,東村山市,秋津町４丁目３３番地１１３,,13,213,1890001,,,,,,,2022-03-03,1,,,,,ビーモニター,0
1223,5012801021425,新規,0,2022-03-03,2022-03-03,ｅ・コネクト株式会社,,株式会社,東京都,東大和市,奈良橋３丁目５５６番地の６,,13,220,2070031,,,,,,,2022-03-03,1,,,,,イーコネクト,0
1224,5012803002712,新規,0,2022-03-03,2022-03-03,合同会社フォルモサ,,合同会社,東京都,立川市,栄町２丁目６２番地の３８,,13,202,1900003,,,,,,,2022-03-03,1,,,,,,0
1230,5020001145473,新規,0,2022-03-03,2022-03-03,大谷建設株式会社,,株式会社,神奈川県,川崎市川崎区,川中島１丁目１９番５ダンデライオンＩＩ１階,00125859,14,131,2100803,,,,,,,2022-03-03,1,,,,,オオタニケンセツ,0
1231,5020001145481,新規,0,2022-03-03,2022-03-03,株式会社ヨコハマ南管理事務所,,株式会社,神奈川県,横浜市南区,南太田１丁目２３番１３号,,14,105,2320006,,,,,,,2022-03-03,1,,,,,ヨコハマミナミカンリジムショ,0
1232,5020001145507,新規,0,2022-03-03,2022-03-03,株式会社ＣＬＯＳ横浜,,株式会社,神奈川県,横浜市中区,元町４丁目１６８,,14,104,2310861,,,,,,,2022-03-03,1,,,,,クロスヨコハマ,0
1235,5021001075306,新規,0,2022-03-03,2022-03-03,株式会社ＩｎｓｐｉｒｅＮｅｘｔ,,株式会社,神奈川県,相模原市南区,東林間７丁目１８番７－３号,,14,153,2520311,,,,,,,2022-03-03,1,,,,,インスパイアネクスト,0
1245,5030001147097,新規,0,2022-03-03,2022-03-03,株式会社プラスアルファ,,株式会社,埼玉県,狭山市,狭山４４番９号,,11,215,3501334,,,,,,,2022-03-03,1,,,,,プラスアルファ,0
1247,5030003018965,新規,0,2022-03-03,2022-03-03,エスダブル合同会社,,合同会社,埼玉県,所沢市,大字上山口４７８番地１２,,11,208,3591153,,,,,,,2022-03-03,1,,,,,エスダブル,0
1254,5040003019616,新規,0,2022-03-03,2022-03-03,ＨＹＭ合同会社,,合同会社,千葉県,佐倉市,王子台１丁目２１番地８安原ビル２Ｆ,,12,212,2850837,,,,,,,2022-03-03,1,,,,,エイチワイエム,0
1260,5050001050704,新規,0,2022-03-03,2022-03-03,株式会社あかば,,株式会社,茨城県,つくばみらい市,山王新田２９５番地２,,08,235,3002332,,,,,,,2022-03-03,1,,,,,アカバ,0
1264,5070001038994,新規,0,2022-03-03,2022-03-03,株式会社小山商店,,株式会社,群馬県,吾妻郡嬬恋村,大字大笹３１８９番地３,,10,425,3771613,,,,,,,2022-03-03,1,,,,,コヤマショウテン,0
1265,5070001039002,新規,0,2022-03-03,2022-03-03,株式会社ヌリセラ,,株式会社,群馬県,前橋市,大手町１丁目６番地９アッコラビル４１１号,,10,201,3710026,,,,,,,2022-03-03,1,,,,,ヌリセラ,0
1267,5080001024787,新規,0,2022-03-03,2022-03-03,ボーダーレスモビリティ株式会社,,株式会社,静岡県,静岡市駿河区,下川原４丁目２６番２０号,,22,102,4210113,,,,,,,2022-03-03,1,,,,,ボーダーレスモビリティ,0
1268,5080005007433,新規,0,2022-03-03,2022-03-03,一般社団法人ＴＯＹＯＴＡ　ＡＳＳＩＳＴ,,その他の設立登記法人,静岡県,静岡市駿河区,馬渕３丁目１９番３－２号,,22,102,4228063,,,,,,,2022-03-03,1,,,,,トヨタアシスト,0
1270,5080401025641,新規,0,2022-03-03,2022-03-03,金井製茶株式会社,,株式会社,静岡県,袋井市,山田９５８番地,,22,216,4370001,,,,,,,2022-03-03,1,,,,,カネイセイチャ,0
1271,5080401025658,新規,0,2022-03-03,2022-03-03,株式会社ベトハスリカートレーディング,,株式会社,静岡県,浜松市中区,富塚町２０５２番地の３ヒノデビル２Ｆ,,22,131,4328002,,,,,,,2022-03-03,1,,,,,ベトハスリカートレーディング,0
1273,5090001017451,新規,0,2022-03-03,2022-03-03,ＡＮＫトレーディング株式会社,,株式会社,山梨県,甲府市,上石田４丁目５番５号２Ｆ,,19,201,4000041,,,,,,,2022-03-03,1,,,,,エーエヌケートレーディング,0
1277,5100003006434,新規,0,2022-03-03,2022-03-03,アライアンドカンパニー合同会社,,合同会社,長野県,長野市,大字富竹７８０－２,,20,201,3810006,,,,,,,2022-03-03,1,,,,,アライアンドカンパニー,0
1278,5110003004701,新規,0,2022-03-03,2022-03-03,合同会社ジェック,,合同会社,新潟県,長岡市,鉄工町１丁目２番１０号,,15,202,9402022,,,,,,,2022-03-03,1,,,,,ジェック,0
1283,5120001244208,新規,0,2022-03-03,2022-03-03,株式会社Ｋ．レントリース,,株式会社,大阪府,大阪市中央区,南船場１丁目１４番６－８Ｆ,,27,128,5420081,,,,,,,2022-03-03,1,,,,,ケイレントリース,0
1286,5120003021191,新規,0,2022-03-03,2022-03-03,合資会社Ｃ・Ｓｙｎｅｒｇｙ,,合資会社,大阪府,守口市,金下町１丁目２番９－３０５号,,27,209,5700079,,,,,,,2022-03-03,1,,,,,シーシナジー,0
1296,5130001071238,新規,0,2022-03-03,2022-03-03,株式会社ｎｕｌｌｋｙｏｔｏ,,株式会社,京都府,京都市上京区,黒門通中立売下る榎町３８０番地７,,26,102,6028251,,,,,,,2022-03-03,1,,,,,ナルキョウト,0
1299,5140001125091,新規,0,2022-03-03,2022-03-03,川尻電業株式会社,,株式会社,兵庫県,美方郡香美町,香住区沖浦９１１番地の３０,,28,585,6696433,,,,,,,2022-03-03,1,,,,,カワジリデンギョウ,0
1300,5140001125133,新規,0,2022-03-03,2022-03-03,ごえん株式会社,,株式会社,兵庫県,丹波市,春日町歌道谷３７６番地,,28,223,6693414,,,,,,,2022-03-03,1,,,,,ゴエン,0
1303,5140005026055,新規,0,2022-03-03,2022-03-03,一般社団法人Ｊアセットマネジメント,,その他の設立登記法人,兵庫県,神戸市垂水区,潮見が丘２丁目１番１９－６０６号,,28,108,6550005,,,,,,,2022-03-03,1,,,,,ジェイアセットマネジメント,0
1311,5180001150243,新規,0,2022-03-03,2022-03-03,ＫＳＧクリエイト株式会社,,株式会社,愛知県,名古屋市東区,矢田２丁目１８番２４号,,23,102,4610040,,,,,,,2022-03-03,1,,,,,ケーエスジークリエイト,0
1312,5180001150276,新規,0,2022-03-03,2022-03-03,株式会社なかむら,,株式会社,愛知県,海部郡大治町,大字三本木字村部６番地の１,,23,424,4901142,,,,,,,2022-03-03,1,,,,,ナカムラ,0
1315,5180005019658,新規,0,2022-03-03,2022-03-03,特定非営利活動法人地域づくりの学び舎,,その他の設立登記法人,愛知県,知多郡美浜町,大字布土字和田１７３番地１７,,23,446,4702401,,,,,,,2022-03-03,1,,,,,チイキヅクリノマナビヤ,0
1319,5180301035978,新規,0,2022-03-03,2022-03-03,株式会社エルレーヌ,,株式会社,愛知県,豊田市,日之出町２丁目１番地１４コーポ日之出１０２号,,23,211,4710075,,,,,,,2022-03-03,1,,,,,エルレーヌ,0
1320,5180301035986,新規,0,2022-03-03,2022-03-03,ＤＥＰ株式会社,,株式会社,愛知県,安城市,横山町大山田中１２番地３－３０３号室,,23,212,4460045,,,,,,,2022-03-03,1,,,,,ディーイーピー,0
1321,5180301035994,新規,0,2022-03-03,2022-03-03,トライベイ株式会社,,株式会社,愛知県,豊川市,蔵子５丁目４番地２５,,23,207,4420842,,,,,,,2022-03-03,1,,,,,トライベイ,0
1324,5190001029172,新規,0,2022-03-03,2022-03-03,株式会社ＭＡＲＵ,,株式会社,三重県,鈴鹿市,算所町１２８０番地,,24,207,5130805,,,,,,,2022-03-03,1,,,,,マル,0
1325,5190001029189,新規,0,2022-03-03,2022-03-03,株式会社ＩＪＫ,,株式会社,三重県,伊賀市,伊勢路７４番地の１,,24,216,5180205,,,,,,,2022-03-03,1,,,,,アイジェイケイ,0
1327,5200001039806,新規,0,2022-03-03,2022-03-03,株式会社如月電機,,株式会社,岐阜県,美濃加茂市,下米田町小山８２４番地４,,21,211,5050017,,,,,,,2022-03-03,1,,,,,キサラギデンキ,0
1328,5200001039814,新規,0,2022-03-03,2022-03-03,株式会社ＬＰＨ,,株式会社,岐阜県,各務原市,蘇原栄町４丁目５番地１,,21,213,5040822,,,,,,,2022-03-03,1,,,,,エルピーエイチ,0
1329,5200001039830,新規,0,2022-03-03,2022-03-03,株式会社デバイン．,,株式会社,岐阜県,各務原市,那加山後町１丁目２４０番地,,21,213,5040042,,,,,,,2022-03-03,1,,,,,デバイン,0
1330,5200003005475,新規,0,2022-03-03,2022-03-03,合同会社クリーンバディ,,合同会社,岐阜県,郡上市,大和町万場４０８番地２,,21,219,5014611,,,,,,,2022-03-03,1,,,,,クリーンバディ,0
1331,5200003005483,新規,0,2022-03-03,2022-03-03,合同会社ライフタイムス,,合同会社,岐阜県,可児市,星見台２丁目６８番地,,21,214,5090230,,,,,,,2022-03-03,1,,,,,ライフタイムス,0
1334,5220001024715,新規,0,2022-03-03,2022-03-03,株式会社胡桃建築設計事務所,,株式会社,石川県,金沢市,西泉２丁目１３１番地１,,17,201,9218043,,,,,,,2022-03-03,1,,,,,クルミケンチクセッケイジムショ,0
1338,5240001059395,新規,0,2022-03-03,2022-03-03,株式会社ＳＵＭＳ　ＮＥＸＴＡＲ,,株式会社,広島県,広島市中区,鉄砲町１番２０号,,34,101,7300017,,,,,,,2022-03-03,1,,,,,サムスネクスター,0
1339,5240001059404,新規,0,2022-03-03,2022-03-03,株式会社ＨＡＭＭＥＲＳ　ＵＮＩＴＥＤ,,株式会社,広島県,広島市南区,出島１丁目２０番３号,,34,103,7340013,,,,,,,2022-03-03,1,,,,,ハマーズユナイテッド,0
1340,5240001059420,新規,0,2022-03-03,2022-03-03,株式会社まつおか,,株式会社,広島県,福山市,東深津町６丁目３番３１号,,34,207,7210974,,,,,,,2022-03-03,1,,,,,マツオカ,0
1341,5240001059429,新規,0,2022-03-03,2022-03-03,株式会社川誠,,株式会社,広島県,広島市東区,光町２丁目８番８－１０３号,,34,102,7320052,,,,,,,2022-03-03,1,,,,,カワセイ,0
1351,5260001036590,新規,0,2022-03-03,2022-03-03,株式会社Ｎｅｘｔ　Ｏｎｅ,,株式会社,岡山県,倉敷市,玉島中央町２丁目１番５６号,,33,202,7138122,,,,,,,2022-03-03,1,,,,,ネクストワン,0
1352,5260001036608,新規,0,2022-03-03,2022-03-03,株式会社大迫建設,,株式会社,岡山県,倉敷市,藤戸町天城１８５番地２,,33,202,7100132,,,,,,,2022-03-03,1,,,,,オオサコケンセツ,0
1356,5280001008646,新規,0,2022-03-03,2022-03-03,株式会社ファンタズマ,,株式会社,島根県,浜田市,上府町イ６７３番地,,32,202,6970005,,,,,,,2022-03-03,1,,,,,ファンタズマ,0
1357,5280001008654,新規,0,2022-03-03,2022-03-03,プルシアンブルー株式会社,,株式会社,島根県,松江市,東出雲町揖屋２０９０番地６５,,32,201,6990101,,,,,,,2022-03-03,1,,,,,プルシアンブルー,0
1362,5280005007470,新規,0,2022-03-03,2022-03-03,特定非営利活動法人浜田市に桜を育てる会,,その他の設立登記法人,島根県,浜田市,朝日町９１番地１３宮田建設工業株式会社内,,32,202,6970033,,,,,,,2022-03-03,1,,,,,ハマダシニサクラヲソダテルカイ,0
1366,5290001096608,新規,0,2022-03-03,2022-03-03,株式会社吉村,,株式会社,福岡県,福岡市東区,和白丘２丁目８番１号,,40,131,8110213,,,,,,,2022-03-03,1,,,,,ヨシムラ,0
1367,5290003012232,新規,0,2022-03-03,2022-03-03,Ｆｌｅｕｒ　ｄ’ｅｓｐｏｉｒ合同会社,,合同会社,福岡県,福岡市城南区,西片江２丁目２４番１４－２０５号,,40,136,8140141,,,,,,,2022-03-03,1,,,,,フルールデスポワール,0
1371,5290801028289,新規,0,2022-03-03,2022-03-03,株式会社ジーナイン,,株式会社,福岡県,北九州市小倉北区,清水３丁目７番１８号２Ｆ,,40,106,8030841,,,,,,,2022-03-03,1,,,,,ジーナイン,0
1372,5290803004073,新規,0,2022-03-03,2022-03-03,合同会社Ｃｏｍｍｕｎｉｔｙ　Ｄｅｓｉｇｎ　ＴＡＧＡＷＡ,,合同会社,福岡県,田川市,大字糒１７００番地２２７,,40,206,8250005,,,,,,,2022-03-03,1,,,,,コミュニティデザインタガワ,0
1373,5300001012827,新規,0,2022-03-03,2022-03-03,株式会社海田不動産,,株式会社,佐賀県,佐賀市,大和町大字川上５６２番地１,,41,201,8400214,,,,,,,2022-03-03,1,,,,,カイダフドウサン,0
1375,5310001017750,新規,0,2022-03-03,2022-03-03,株式会社ＴＫエンジニアリング,,株式会社,長崎県,佐世保市,大塔町６６２－３４,,42,202,8571161,,,,,,,2022-03-03,1,,,,,,0
1376,5310003004292,新規,0,2022-03-03,2022-03-03,ディ・ライト合同会社,,合同会社,長崎県,長崎市,琴海村松町７３８番地,,42,201,8513102,,,,,,,2022-03-03,1,,,,,ディライト,0
1378,5320001018946,新規,0,2022-03-03,2022-03-03,株式会社ファースト建装,,株式会社,大分県,大分市,萩原２丁目４番７号ＡＭＫビル１０１,,44,201,8700921,,,,,,,2022-03-03,1,,,,,ファーストケンソウ,0
1379,5330001029488,新規,0,2022-03-03,2022-03-03,株式会社オン・ストレングス,,株式会社,熊本県,人吉市,南町１８番地１２,,43,203,8680055,,,,,,,2022-03-03,1,,,,,オンストレングス,0
1380,5330001029496,新規,0,2022-03-03,2022-03-03,株式会社フリーダム,,株式会社,熊本県,天草郡苓北町,志岐１番地６,,43,531,8632503,,,,,,,2022-03-03,1,,,,,フリーダム,0
1382,5330003009273,新規,0,2022-03-03,2022-03-03,フォレスト五木合同会社,,合同会社,熊本県,球磨郡五木村,甲１６７０番地１６,,43,511,8680201,,,,,,,2022-03-03,1,,,,,フォレストイツキ,0
1383,5340001024538,新規,0,2022-03-03,2022-03-03,株式会社ＭＢＩ,,株式会社,鹿児島県,鹿児島市,東千石町１－２６フォリス観光ビル天文館３階,,46,201,8920842,,,,,,,2022-03-03,1,,,,,エムビーアイ,0
1384,5340001024546,新規,0,2022-03-03,2022-03-03,ＥＣＯファシリティ株式会社,,株式会社,鹿児島県,鹿児島市,南林寺町４番１０号１０１号室,,46,201,8920834,,,,,,,2022-03-03,1,,,,,エコファシリティ,0
1388,5360003011846,新規,0,2022-03-03,2022-03-03,合同会社なかち興業,,合同会社,沖縄県,島尻郡八重瀬町,字富盛３７７番地１,,47,362,9010402,,,,,,,2022-03-03,1,,,,,ナカチコウギョウ,0
1395,5390001016803,新規,0,2022-03-03,2022-03-03,株式会社クダモノラクエン,,株式会社,山形県,西村山郡河北町,谷地字月山堂４２１番地の６,,06,321,9993511,,,,,,,2022-03-03,1,,,,,クダモノラクエン,0
1401,5400005008217,新規,0,2022-03-03,2022-03-03,行政書士法人えにし許認可,,その他の設立登記法人,岩手県,一関市,字沼田３２番地２,,03,209,0210831,,,,,,,2022-03-03,1,,,,,エニシキョニンカ,0
1403,5410001013112,新規,0,2022-03-03,2022-03-03,株式会社クモの糸,,株式会社,秋田県,秋田市,飯島新町３丁目９番６号,,05,201,0110947,,,,,,,2022-03-03,1,,,,,クモノイト,0
1406,5420005007794,新規,0,2022-03-03,2022-03-03,ＡＯＱＱ協同組合,,その他の設立登記法人,青森県,青森市,本町５丁目１番２０号,,02,201,0300802,,,,,,,2022-03-03,1,,,,,アオック,0
1409,5430001086107,新規,0,2022-03-03,2022-03-03,株式会社登喜和デリシャスフーズ,,株式会社,北海道,札幌市東区,北五十一条東２丁目２番２７号,,01,103,0070851,,,,,,,2022-03-03,1,,,,,トキワデリシャスフーズ,0
1410,5430001086115,新規,0,2022-03-03,2022-03-03,株式会社Ｒｅｓａｃｔｏｒｙ,,株式会社,北海道,札幌市豊平区,美園四条２丁目２番２０－２０７号,,01,105,0620004,,,,,,,2022-03-03,1,,,,,レザクトリー,0
1411,5460001005666,新規,0,2022-03-03,2022-03-03,Ｍ．Ｃ．Ｍ株式会社,,株式会社,北海道,釧路市,鳥取大通５丁目３－１９オレンジビル２－２,,01,206,0840906,,,,,,,2022-03-03,1,,,,,エムシーエム,0
1412,5480001011662,新規,0,2022-03-03,2022-03-03,株式会社徳島中央不動産,,株式会社,徳島県,板野郡北島町,鯛浜字大西１１５－１Ｆ,,36,402,7710204,,,,,,,2022-03-03,1,,,,,トクシマチュウオウフドウサン,0
1417,5500001024026,新規,0,2022-03-03,2022-03-03,株式会社エフディテック,,株式会社,愛媛県,松山市,北吉田町１０２２番地１,,38,201,7918041,,,,,,,2022-03-03,1,,,,,エフディテック,0
1418,5500001024042,新規,0,2022-03-03,2022-03-03,株式会社ＭＫサービス,,株式会社,愛媛県,四国中央市,土居町北野甲１６４９番地１,,38,213,7990722,,,,,,,2022-03-03,1,,,,,エムケーサービス,0
1420,5700150107271,新規,0,2022-03-03,2022-03-03,ＥＵＲＯ　ＷＡＴＥＲ　ＳＹＳＴＥＭ　ＰＲＩＶＡＴＥ　ＬＩＭＩＴＥＤ,,外国会社等,千葉県,茂原市,新小轡３２６番地４小轡オフィス１－７,,12,210,2970006,スリランカ民主社会主義共和国、ワタワラ、ロセッラ（Ｓ．Ｒ．地区）ヘイドリエステート,,,,,,2022-03-03,1,,,,,ユーロウオーターシステムプライベートリミテツド,0
1431,6010003037108,新規,0,2022-03-03,2022-03-03,合同会社ＯＷ２,,合同会社,東京都,千代田区,丸の内２丁目２番１号岸本ビルヂング６Ｆ,,13,101,1000005,,,,,,,2022-03-03,1,,,,,オーダブリューツー,0
1432,6010003037149,新規,0,2022-03-03,2022-03-03,合同会社Ｏｒｔｅｌｌｏ,,合同会社,東京都,中央区,銀座１丁目６番１１号土志田ビルディング３Ｆ,,13,102,1040061,,,,,,,2022-03-03,1,,,,,オルテッロ,0
1433,6010005034648,新規,0,2022-03-03,2022-03-03,クレール特定目的会社,,その他の設立登記法人,東京都,中央区,日本橋１丁目４番１号,,13,102,1030027,,,,,,,2022-03-03,1,,,,,クレール,0
1435,6010401165633,新規,0,2022-03-03,2022-03-03,株式会社ｖｃｈｒ,,株式会社,東京都,港区,浜松町２丁目２－１５,,13,103,1050013,,,,,,,2022-03-03,1,,,,,バウチャー,0
1436,6010401165947,新規,0,2022-03-03,2022-03-03,株式会社Ｌｉｎｋａｒｄ,,株式会社,東京都,港区,南青山２丁目２番１５号ウィン青山９４２,,13,103,1070062,,,,,,,2022-03-03,1,,,,,リンカード,0
1439,6010405020776,新規,0,2022-03-03,2022-03-03,Ｌｉｆｅｓｔｙｌｅ１ａ一般社団法人,,その他の設立登記法人,東京都,港区,六本木１丁目６番１号泉ガーデンタワー,,13,103,1060032,,,,,,,2022-03-03,1,,,,,ライフスタイルワンエー,0
1440,6010501048523,新規,0,2022-03-03,2022-03-03,株式会社ＩＫＰ,,株式会社,東京都,台東区,東上野１丁目２番４号,,13,106,1100015,,,,,,,2022-03-03,1,,,,,アイケイピー,0
1442,6010601060790,新規,0,2022-03-03,2022-03-03,株式会社小林,,株式会社,東京都,墨田区,東駒形２丁目９番６号,,13,107,1300005,,,,,,,2022-03-03,1,,,,,コバヤシ,0
1443,6010603009415,新規,0,2022-03-03,2022-03-03,合同会社バーツ,,合同会社,東京都,墨田区,錦糸１丁目２番１号アルカセントラル１４Ｆ,,13,107,1300013,,,,,,,2022-03-03,1,,,,,バーツ,0
1447,6010803004075,新規,0,2022-03-03,2022-03-03,ＫＳアーティストラボ合同会社,,合同会社,東京都,大田区,北千束３丁目５番１１号,,13,111,1450062,,,,,,,2022-03-03,1,,,,,ケイエスアーティストラボ,0
1448,6010903007201,新規,0,2022-03-03,2022-03-03,合同会社忘牛,,合同会社,東京都,世田谷区,玉川３丁目２０－２マノア玉川第３ビル５０１,,13,112,1580094,,,,,,,2022-03-03,1,,,,,ボウギュウ,0
1449,6010905004270,新規,0,2022-03-03,2022-03-03,医療法人社団幸神会,,その他の設立登記法人,東京都,世田谷区,新町２丁目３８番１４号アースワーク桜新町２階,,13,112,1540014,,,,,,,2022-03-03,1,,,,,コウジンカイ,0
1460,6011005009458,新規,0,2022-03-03,2022-03-03,一般社団法人アマテラスアカデミア,,その他の設立登記法人,東京都,渋谷区,神宮前１丁目１１－１１グリーンファンタジア５０６,,13,113,1500001,,,,,,,2022-03-03,1,,,,,アマテラスアカデミア,0
1462,6011103011530,新規,0,2022-03-03,2022-03-03,合同会社ＤｅｌｉｇｈｔＦｕｌ,,合同会社,東京都,新宿区,高田馬場３丁目１４－８,,13,104,1690075,,,,,,,2022-03-03,1,,,,,ディライトフル,0
1474,6011501027797,新規,0,2022-03-03,2022-03-03,Ｋ６株式会社,,株式会社,東京都,北区,田端４丁目５番５－１０１号藤和シティコープ駒込,,13,117,1140014,,,,,,,2022-03-03,1,,,,,クロ,0
1475,6011503005090,新規,0,2022-03-03,2022-03-03,合同会社ティーエムクリエイト,,合同会社,東京都,北区,上十条５丁目２２番１４号アーバンシティ寿１０１号,,13,117,1140034,,,,,,,2022-03-03,1,,,,,ティーエムクリエイト,0
1477,6011601025767,新規,0,2022-03-03,2022-03-03,株式会社サークル,,株式会社,東京都,練馬区,中村南１丁目７番１２－４０１号,,13,120,1760025,,,,,,,2022-03-03,1,,,,,サークル,0
1478,6011703003076,新規,0,2022-03-03,2022-03-03,インテグノロジー合同会社,,合同会社,東京都,江戸川区,篠崎町５丁目２－２０,,13,123,1330061,,,,,,,2022-03-03,1,,,,,インテグノロジー,0
1488,6012703002415,新規,0,2022-03-03,2022-03-03,合同会社ＨＯＮＵ,,合同会社,東京都,東村山市,野口町２丁目１１番地６,,13,213,1890022,,,,,,,2022-03-03,1,,,,,ホヌ,0
1491,6012801021432,新規,0,2022-03-03,2022-03-03,株式会社Ｈｕｉｔ,,株式会社,東京都,立川市,錦町２丁目５番１号,,13,202,1900022,,,,,,,2022-03-03,1,,,,,ユイット,0
1493,6013301048750,新規,0,2022-03-03,2022-03-03,株式会社Ｒ２Ｄ,,株式会社,東京都,豊島区,北大塚２丁目５番４号三信ビル,,13,116,1700004,,,,,,,2022-03-03,1,,,,,アールツーディ,0
1494,6013303006062,新規,0,2022-03-03,2022-03-03,アオメディカルアカウンティング合同会社,,合同会社,東京都,豊島区,要町１丁目４９番１０―４０４号,,13,116,1710043,,,,,,,2022-03-03,1,,,,,アオメディカルアカウンティング,0
1495,6013303006070,新規,0,2022-03-03,2022-03-03,ＡＴＲＥＥ　ＴＲＡＤＩＮＧ合同会社,,合同会社,東京都,豊島区,南大塚１丁目６０番９号泉荘１０２号,,13,116,1700005,,,,,,,2022-03-03,1,,,,,アトリートレーディング,0
1498,6020001145464,新規,0,2022-03-03,2022-03-03,株式会社プラスワン住宅,,株式会社,神奈川県,横浜市青葉区,あかね台２丁目７番地３３,,14,117,2270066,,,,,,,2022-03-03,1,,,,,プラスワンジュウタク,0
1499,6020001145489,新規,0,2022-03-03,2022-03-03,スリーエスマテリアル株式会社,,株式会社,神奈川県,川崎市宮前区,平３丁目１９番６１号,,14,136,2160022,,,,,,,2022-03-03,1,,,,,スリーエスマテリアル,0
1500,6020001145506,新規,0,2022-03-03,2022-03-03,株式会社あんにん,,株式会社,神奈川県,横浜市西区,南幸２丁目２０番１５－２０１号,,14,103,2200005,,,,,,,2022-03-03,1,,,,,アンニン,0
1501,6020001145522,新規,0,2022-03-03,2022-03-03,株式会社Ｔ－Ｐａｌａｃｅ,,株式会社,神奈川県,川崎市中原区,井田三舞町１６番８－１０３号アルカサル元住吉,,14,133,2110037,,,,,,,2022-03-03,1,,,,,ティーパレス,0
1508,6021001075123,新規,0,2022-03-03,2022-03-03,株式会社スタジオピッコリーノ,,株式会社,神奈川県,藤沢市,藤が岡２丁目４番１６号,,14,205,2510004,,,,,,,2022-03-03,1,,,,,スタジオピッコリーノ,0
1509,6021001075321,新規,0,2022-03-03,2022-03-03,株式会社大将建設,,株式会社,神奈川県,藤沢市,下土棚５６６番地の１２,,14,205,2520807,,,,,,,2022-03-03,1,,,,,タイショウケンセツ,0
1514,6030003018956,新規,0,2022-03-03,2022-03-03,＿晟合同会社,00125855,合同会社,埼玉県,川口市,戸塚東４丁目２番１０号サンシティ東川口２０５号室,,11,203,3330802,,,,,,,2022-03-03,1,,,,,キンセイ,0
1517,6040001122412,新規,0,2022-03-03,2022-03-03,株式会社アイシスネット,,株式会社,千葉県,船橋市,三山９丁目３２番９－１号,,12,204,2740072,,,,,,,2022-03-03,1,,,,,アイシスネット,0
1523,6050001050694,新規,0,2022-03-03,2022-03-03,株式会社けやき台会計,,株式会社,茨城県,守谷市,けやき台２丁目３５番地２,,08,224,3020128,,,,,,,2022-03-03,1,,,,,ケヤキダイカイケイ,0
1525,6060001034614,新規,0,2022-03-03,2022-03-03,久宝トレーディング株式会社,,株式会社,栃木県,真岡市,若旅２４９番地,,09,209,3214352,,,,,,,2022-03-03,1,,,,,クホウトレーディング,0
1526,6060001034630,新規,0,2022-03-03,2022-03-03,株式会社茶々丸,,株式会社,栃木県,宇都宮市,駒生町１５３５番地１３,,09,201,3200065,,,,,,,2022-03-03,1,,,,,チャチャマル,0
1527,6070001038993,新規,0,2022-03-03,2022-03-03,Ｒ・Ｉ総合企画株式会社,,株式会社,群馬県,前橋市,日吉町２丁目３１番地１４,,10,201,3710017,,,,,,,2022-03-03,1,,,,,アールアイソウゴウキカク,0
1528,6070001039001,新規,0,2022-03-03,2022-03-03,株式会社プラティニ,,株式会社,群馬県,伊勢崎市,宮子町３２７３番地,,10,204,3720801,,,,,,,2022-03-03,1,,,,,プラティニ,0
1529,6070001039018,新規,0,2022-03-03,2022-03-03,たかさき中小企業総合支援株式会社,,株式会社,群馬県,高崎市,吉井町南陽台２丁目１３－１６,,10,202,3702101,,,,,,,2022-03-03,1,,,,,タカサキチュウショウキギョウソウゴウシエン,0
1530,6070003004399,新規,0,2022-03-03,2022-03-03,合同会社ＭＡＥＤＡＩ,,合同会社,群馬県,前橋市,富士見町小暮２０１４番地３,,10,201,3710103,,,,,,,2022-03-03,1,,,,,マエダイ,0
1533,6080001024794,新規,0,2022-03-03,2022-03-03,株式会社Ｄホールディングス,,株式会社,静岡県,牧之原市,布引原２２１番地１,,22,226,4210407,,,,,,,2022-03-03,1,,,,,ディーホールディングス,0
1534,6080001024803,新規,0,2022-03-03,2022-03-03,株式会社アクセル,,株式会社,静岡県,島田市,阪本８７番地の１,,22,209,4270111,,,,,,,2022-03-03,1,,,,,アクセル,0
1537,6080005007432,新規,0,2022-03-03,2022-03-03,一般社団法人高収益農業投資協会,,その他の設立登記法人,静岡県,静岡市駿河区,高松２丁目１５番２６号,,22,102,4228034,,,,,,,2022-03-03,1,,,,,コウシュウエキノウギョウトウシキョウカイ,0
1538,6080101023127,新規,0,2022-03-03,2022-03-03,株式会社ＳＴＧアセット,,株式会社,静岡県,田方郡函南町,平井１７５３番地の８００,,22,325,4190107,,,,,,,2022-03-03,1,,,,,エスティージーアセット,0
1539,6080101023135,新規,0,2022-03-03,2022-03-03,株式会社セブンスカンパニー,,株式会社,静岡県,富士市,本町９番１９号ＳＫビル１３西１階,,22,210,4160914,,,,,,,2022-03-03,1,,,,,セブンスカンパニー,0
1540,6080103002541,新規,0,2022-03-03,2022-03-03,レヴァンテ合同会社,,合同会社,静岡県,沼津市,大岡９８０番地の１‐Ｂ１０２,,22,203,4100022,,,,,,,2022-03-03,1,,,,,レヴァンテ,0
1541,6080401025649,新規,0,2022-03-03,2022-03-03,田圃家穂波株式会社,,株式会社,静岡県,袋井市,広岡２２８４番地の１,,22,216,4370021,,,,,,,2022-03-03,1,,,,,タンボヤホナミ,0
1544,6090001017459,新規,0,2022-03-03,2022-03-03,株式会社シェフレーズ,,株式会社,山梨県,甲州市,勝沼町綿塚９５番地４,,19,213,4091305,,,,,,,2022-03-03,1,,,,,シェフレーズ,0
1548,6100001035104,新規,0,2022-03-03,2022-03-03,株式会社Ｌａ　ｂｅｌｌｅ　ｖｉｅ,,株式会社,長野県,北佐久郡軽井沢町,大字長倉字北原８２０番２７,,20,321,3890111,,,,,,,2022-03-03,1,,,,,ラベルヴィー,0
1558,6120001244116,新規,0,2022-03-03,2022-03-03,合木貿易株式会社,,株式会社,大阪府,大阪市住吉区,我孫子西１丁目５－３,,27,120,5580015,,,,,,,2022-03-03,1,,,,,ゴウキボウエキ,0
1563,6120005022823,新規,0,2022-03-03,2022-03-03,一般社団法人宙総合コンサルティング,,その他の設立登記法人,大阪府,大阪市北区,東天満２丁目８番１－９０４号,,27,127,5300044,,,,,,,2022-03-03,1,,,,,ヒロシソウゴウコンサルティング,0
1572,6120901045679,新規,0,2022-03-03,2022-03-03,株式会社Ａｘｓｉａ,,株式会社,大阪府,吹田市,豊津町９番１６号第１ロンヂェビル５階Ｃ号室,,27,205,5640051,,,,,,,2022-03-03,1,,,,,アクシア,0
1574,6140001125132,新規,0,2022-03-03,2022-03-03,ケイ電工株式会社,,株式会社,兵庫県,丹波篠山市,高屋１００番地２,,28,221,6692727,,,,,,,2022-03-03,1,,,,,,0
1575,6140001125157,新規,0,2022-03-03,2022-03-03,株式会社ＬＩＦＩＸ,,株式会社,兵庫県,神戸市兵庫区,菊水町１０丁目３９番地の２３夢野団地４－３０６号,,28,105,6520058,,,,,,,2022-03-03,1,,,,,リフィックス,0
1577,6140003017377,新規,0,2022-03-03,2022-03-03,合同会社はいたつ薬局,,合同会社,兵庫県,宝塚市,売布２丁目９番１３号,,28,214,6650852,,,,,,,2022-03-03,1,,,,,ハイタツヤッキョク,0
1578,6140003017410,新規,0,2022-03-03,2022-03-03,ウィステリア合同会社,,合同会社,兵庫県,西宮市,津門大塚町２番３０－２０６号,,28,204,6638241,,,,,,,2022-03-03,1,,,,,ウィステリア,0
1579,6150001025372,新規,0,2022-03-03,2022-03-03,株式会社Ｔ－ＴＥＣＨ,,株式会社,奈良県,五條市,田園４丁目３番地の２,,29,207,6370093,,,,,,,2022-03-03,1,,,,,ティーテック,0
1590,6180001150176,新規,0,2022-03-03,2022-03-03,株式会社オベリゾン,,株式会社,愛知県,名古屋市名東区,極楽１丁目１５番地の２,,23,115,4650053,,,,,,,2022-03-03,1,,,,,オベリゾン,0
1591,6180001150218,新規,0,2022-03-03,2022-03-03,株式会社ｔｏｖｉｌａ,,株式会社,愛知県,一宮市,北今字十八丁三ノ切５１番地,,23,203,4940004,,,,,,,2022-03-03,1,,,,,トビラ,0
1592,6180001150250,新規,0,2022-03-03,2022-03-03,株式会社ロックリーン,,株式会社,愛知県,一宮市,浅井町小日比野字柿ノ木２９番地,,23,203,4910104,,,,,,,2022-03-03,1,,,,,ロックリーン,0
1593,6180001150267,新規,0,2022-03-03,2022-03-03,株式会社山本電設,,株式会社,愛知県,名古屋市中川区,戸田２丁目１６１５番地の４,,23,110,4540962,,,,,,,2022-03-03,1,,,,,ヤマモトデンセツ,0
1595,6180303005268,新規,0,2022-03-03,2022-03-03,合同会社リグオプラス,,合同会社,愛知県,豊田市,中垣内町高瀬６番地２,,23,211,4442215,,,,,,,2022-03-03,1,,,,,リグオプラス,0
1598,6190001029171,新規,0,2022-03-03,2022-03-03,株式会社Ｓｕｎｎｙ,,株式会社,三重県,津市,新町１丁目１番１６号,,24,201,5140042,,,,,,,2022-03-03,1,,,,,サニー,0
1599,6190001029196,新規,0,2022-03-03,2022-03-03,株式会社紳,,株式会社,三重県,鈴鹿市,長太旭町２丁目８番１４号,,24,207,5130042,,,,,,,2022-03-03,1,,,,,シン,0
1605,6200003005474,新規,0,2022-03-03,2022-03-03,合同会社神戸,,合同会社,岐阜県,岐阜市,加納坂井町３７番地３,,21,201,5008475,,,,,,,2022-03-03,1,,,,,カンベ,0
1606,6210001018832,新規,0,2022-03-03,2022-03-03,株式会社アイアン,,株式会社,福井県,越前市,新在家町第９号８番地１,,18,209,9150232,,,,,,,2022-03-03,1,,,,,アイアン,0
1608,6220001024714,新規,0,2022-03-03,2022-03-03,株式会社Ｐａｓｓｉｎｇ　Ｐｏｉｎｔ,,株式会社,石川県,加賀市,水田丸町ト９８番地,,17,206,9220265,,,,,,,2022-03-03,1,,,,,パッシングポイント,0
1612,6240001059403,新規,0,2022-03-03,2022-03-03,ＮＡＫＡＩＧＲＯＵＰ株式会社,,株式会社,広島県,東広島市,黒瀬町市飯田１６１番地,,34,212,7392626,,,,,,,2022-03-03,1,,,,,ナカイグループ,0
1613,6240001059428,新規,0,2022-03-03,2022-03-03,株式会社プラス,,株式会社,広島県,広島市中区,白島北町１６番１号,,34,101,7300001,,,,,,,2022-03-03,1,,,,,プラス,0
1614,6240003005537,新規,0,2022-03-03,2022-03-03,合同会社ＡＣＴひろしま,,合同会社,広島県,安芸郡坂町,坂西２丁目１番２３－２号,,34,309,7314314,,,,,,,2022-03-03,1,,,,,アクトヒロシマ,0
1618,6260001036598,新規,0,2022-03-03,2022-03-03,株式会社グローバル専門人材開発ラボ,,株式会社,岡山県,岡山市北区,野田屋町１丁目５番１８号,,33,101,7000815,,,,,,,2022-03-03,1,,,,,グローバルセンモンジンザイカイハツラボ,0
1622,6260003003828,新規,0,2022-03-03,2022-03-03,ＤＩＶＡ合同会社,,合同会社,岡山県,岡山市北区,建部町福渡９５３－１,,33,101,7093111,,,,,,,2022-03-03,1,,,,,ディーバ,0
1623,6260005011044,新規,0,2022-03-03,2022-03-03,Ｍａｋｏｔｏ行政書士法人,,その他の設立登記法人,岡山県,岡山市中区,江崎１１番地８（３０１号）,,33,102,7028005,,,,,,,2022-03-03,1,,,,,マコト,0
1625,6280001008653,新規,0,2022-03-03,2022-03-03,株式会社エボル,,株式会社,島根県,浜田市,国分町２７３番地２５コーポ協和Ａ１０１,,32,202,6970003,,,,,,,2022-03-03,1,,,,,エボル,0
1631,6310003004291,新規,0,2022-03-03,2022-03-03,合同会社Ｒｉｎｋｉｎｓ,,合同会社,長崎県,長崎市,魚の町２番１６号,,42,201,8500874,,,,,,,2022-03-03,1,,,,,リンキンス,0
1632,6320001018937,新規,0,2022-03-03,2022-03-03,株式会社大分給食センター,,株式会社,大分県,大分市,大字一の洲３番地の６,,44,201,8700112,,,,,,,2022-03-03,1,,,,,オオイタキュウショクセンター,0
1633,6320001018945,新規,0,2022-03-03,2022-03-03,上晨株式会社,,株式会社,大分県,大分市,中春日町１２番３０号エクセル中春日ビル４０８,,44,201,8700039,,,,,,,2022-03-03,1,,,,,ジョウシン,0
1639,6330001029512,新規,0,2022-03-03,2022-03-03,ＡＣＴスペース株式会社,,株式会社,熊本県,熊本市北区,清水岩倉２丁目１４番１０号,,43,105,8618084,,,,,,,2022-03-03,1,,,,,アクトスペース,0
1643,6340001024537,新規,0,2022-03-03,2022-03-03,株式会社Ｗｉｔｈ,,株式会社,鹿児島県,鹿児島市,桜ヶ丘２丁目２５番地１３－１０２号,,46,201,8910175,,,,,,,2022-03-03,1,,,,,ウィズ,0
1647,6350003004040,新規,0,2022-03-03,2022-03-03,合同会社Ｂｌｏｗｉｎ,,合同会社,宮崎県,宮崎市,中村東３丁目１番２３号高城第２ビル５０２号,,45,201,8800904,,,,,,,2022-03-03,1,,,,,ブロウィン,0
1651,6370003005607,新規,0,2022-03-03,2022-03-03,ａｋｍ合同会社,,合同会社,宮城県,仙台市青葉区,中央２丁目２－１０、５Ｆ,,04,101,9800021,,,,,,,2022-03-03,1,,,,,エーケーエム,0
1657,6390001016802,新規,0,2022-03-03,2022-03-03,株式会社鎌田農園,,株式会社,山形県,東村山郡中山町,大字柳沢６０３番地１,,06,302,9900406,,,,,,,2022-03-03,1,,,,,カマタノウエン,0
1658,6390001016819,新規,0,2022-03-03,2022-03-03,株式会社ＡＬＩＶＥ,,株式会社,山形県,山形市,馬見ケ崎３丁目２番３３－２０３号ヒルサイド馬見ケ崎,,06,201,9900810,,,,,,,2022-03-03,1,,,,,アライブ,0
1659,6390003001934,新規,0,2022-03-03,2022-03-03,合同会社くるまやＧ－ｂｅｒ,,合同会社,山形県,天童市,石鳥居１丁目４番３９号,,06,210,9940057,,,,,,,2022-03-03,1,,,,,クルマヤジーバー,0
1662,6400001015793,新規,0,2022-03-03,2022-03-03,株式会社アドバンスサービス,,株式会社,岩手県,盛岡市,みたけ３丁目２２番５７号,,03,201,0200122,,,,,,,2022-03-03,1,,,,,アドバンスサービス,0
1663,6410001013111,新規,0,2022-03-03,2022-03-03,万六ホールディングス株式会社,,株式会社,秋田県,仙北市,田沢湖生保内字上滝沢８２番地１,,05,215,0141201,,,,,,,2022-03-03,1,,,,,マンロクホールディングス,0
1665,6410003003622,新規,0,2022-03-03,2022-03-03,合同会社クレアチオン,,合同会社,秋田県,横手市,大屋新町字中野３５１番地１,,05,203,0130051,,,,,,,2022-03-03,1,,,,,クレアチオン,0
1666,6420003002466,新規,0,2022-03-03,2022-03-03,合同会社ｌｉｂｅｒｔｅ,,合同会社,青森県,八戸市,大字鮫町字古馬屋２３－５３市営住宅２－３７,,02,203,0310841,,,,,,,2022-03-03,1,,,,,リベルテ,0
1672,6450001013628,新規,0,2022-03-03,2022-03-03,株式会社熊谷農産,,株式会社,北海道,雨竜郡妹背牛町,字妹背牛６５２４番地,,01,433,0790500,,,,,,,2022-03-03,1,,,,,クマガイノウサン,0
1673,6460001005665,新規,0,2022-03-03,2022-03-03,株式会社グローアップ,,株式会社,北海道,川上郡弟子屈町,字奥オソツベツ原野４０番地３,,01,665,0883200,,,,,,,2022-03-03,1,,,,,グローアップ,0
1682,7010001224929,新規,0,2022-03-03,2022-03-03,株式会社ＫＯＮＤＡ,,株式会社,東京都,千代田区,九段南１丁目５番６号りそな九段ビル５Ｆ,,13,101,1020074,,,,,,,2022-03-03,1,,,,,コンダ,0
1683,7010001224945,新規,0,2022-03-03,2022-03-03,地域医療発展支援株式会社,,株式会社,東京都,千代田区,一番町２番地,,13,101,1020082,,,,,,,2022-03-03,1,,,,,チイキイリョウハッテンシエン,0
1684,7010001225002,新規,0,2022-03-03,2022-03-03,株式会社ＥＮＺＩＡＮ,,株式会社,東京都,中央区,銀座１丁目１２－４Ｎ＆ＥＢＬＤ．７階,,13,102,1040061,,,,,,,2022-03-03,1,,,,,エンジアン,0
1686,7010003037148,新規,0,2022-03-03,2022-03-03,合同会社Ｍｏｔｏｒｉｃｏ,,合同会社,東京都,中央区,銀座１丁目６番１１号土志田ビルディング３Ｆ,,13,102,1040061,,,,,,,2022-03-03,1,,,,,モトリコ,0
1695,7010401165938,新規,0,2022-03-03,2022-03-03,株式会社ユニバーサルスポーツＵＫ,,株式会社,東京都,港区,港南３丁目６番２１－９０３号,,13,103,1080075,,,,,,,2022-03-03,1,,,,,ユニバーサルスポーツユーケー,0
1696,7010403027194,新規,0,2022-03-03,2022-03-03,合同会社常盤パートナーズ,,合同会社,東京都,港区,元赤坂１丁目１番７－１００６号,,13,103,1070051,,,,,,,2022-03-03,1,,,,,トキワパートナーズ,0
1698,7010501048522,新規,0,2022-03-03,2022-03-03,株式会社ベストジオ,,株式会社,東京都,台東区,寿３丁目１６番１４号大島ビル４Ｆ,,13,106,1110042,,,,,,,2022-03-03,1,,,,,ベストジオ,0
1699,7010501048530,新規,0,2022-03-03,2022-03-03,株式会社ラクオッカ,,株式会社,東京都,台東区,台東２丁目６番３号ＴＯビル１階,,13,106,1100016,,,,,,,2022-03-03,1,,,,,ラクオッカ,0
1700,7010601060773,新規,0,2022-03-03,2022-03-03,株式会社ＦＵＺＺＴＯＮＥ,,株式会社,東京都,江東区,有明１丁目３番１４,,13,108,1350063,,,,,,,2022-03-03,1,,,,,ファズトーン,0
1702,7010801032787,新規,0,2022-03-03,2022-03-03,株式会社かねこ屋,,株式会社,東京都,大田区,中央２丁目１６番６号,,13,111,1430024,,,,,,,2022-03-03,1,,,,,カネコヤ,0
1703,7010903007191,新規,0,2022-03-03,2022-03-03,Ｋｒｉｅ合同会社,,合同会社,東京都,世田谷区,船橋２丁目４番２５－４２１号,,13,112,1560055,,,,,,,2022-03-03,1,,,,,ケーリエ,0
1708,7011001145958,新規,0,2022-03-03,2022-03-03,ＡＨマネジメントサービス株式会社,,株式会社,東京都,渋谷区,幡ヶ谷１丁目１２番１２号ＴＳビル１階,,13,113,1510072,,,,,,,2022-03-03,1,,,,,エイエッチマネジメントサービス,0
1709,7011001145974,新規,0,2022-03-03,2022-03-03,ＭＡＫＥＯＶＥＲ　ＴＯＫＹＯ株式会社,,株式会社,東京都,渋谷区,千駄ヶ谷３丁目５１番１０号,,13,113,1510051,,,,,,,2022-03-03,1,,,,,メイクオーバートーキョー,0
1710,7011001146015,新規,0,2022-03-03,2022-03-03,株式会社アワスト,,株式会社,東京都,渋谷区,神宮前５丁目１１番６号,,13,113,1500001,,,,,,,2022-03-03,1,,,,,アワスト,0
1712,7011003014244,新規,0,2022-03-03,2022-03-03,ＴＨＥＬＵＸ合同会社,,合同会社,東京都,目黒区,中目黒１丁目４番２０,,13,110,1530061,,,,,,,2022-03-03,1,,,,,ザラックス,0
1718,7011301027600,新規,0,2022-03-03,2022-03-03,株式会社ＹＵＩ,,株式会社,東京都,杉並区,西荻北３丁目１０－３（河村方）,,13,115,1670042,,,,,,,2022-03-03,1,,,,,ユイ,0
1721,7011501027805,新規,0,2022-03-03,2022-03-03,株式会社フォワードライフ,,株式会社,東京都,北区,赤羽西１丁目１番１３号,,13,117,1150055,,,,,,,2022-03-03,1,,,,,フォワードライフ,0
1722,7011501027813,新規,0,2022-03-03,2022-03-03,株式会社ＴＤＲ,,株式会社,東京都,荒川区,東日暮里５丁目３９番１号ＳＮ日暮里マンション５０１,,13,118,1160014,,,,,,,2022-03-03,1,,,,,ティーディーアール,0
1727,7011801040400,新規,0,2022-03-03,2022-03-03,株式会社Ｏｎｅｓ,,株式会社,東京都,葛飾区,西新小岩１丁目８番１０号Ａ．Ｋ．ＣＲＯＷＮ１Ｆ,,13,122,1240025,,,,,,,2022-03-03,1,,,,,ワンズ,0
1728,7011801040409,新規,0,2022-03-03,2022-03-03,株式会社Ｆｐｌｕｓ,,株式会社,東京都,葛飾区,小菅１丁目２３番１４号,,13,122,1240001,,,,,,,2022-03-03,1,,,,,エフプラス,0
1735,7012401038925,新規,0,2022-03-03,2022-03-03,株式会社Ａｉｒ－Ｋ,,株式会社,東京都,三鷹市,下連雀８丁目２－１９,,13,204,1810013,,,,,,,2022-03-03,1,,,,,エアーケイ,0
1738,7012701016960,新規,0,2022-03-03,2022-03-03,株式会社シンテックス,,株式会社,東京都,西東京市,ひばりが丘３丁目２番５１号,,13,229,2020001,,,,,,,2022-03-03,1,,,,,シンテックス,0
1747,7020001145455,新規,0,2022-03-03,2022-03-03,株式会社Ｔ’ｓ　ｃｏｎｓｔｒｕｃｔｉｏｎ,,株式会社,神奈川県,横浜市港北区,新吉田東４丁目４番３－２０３号,,14,109,2230058,,,,,,,2022-03-03,1,,,,,ティーズコンストラクション,0
1748,7020001145471,新規,0,2022-03-03,2022-03-03,株式会社カンフォタブル,,株式会社,神奈川県,横浜市泉区,岡津町６００番地,,14,116,2450003,,,,,,,2022-03-03,1,,,,,カンフォタブル,0
1749,7020001145488,新規,0,2022-03-03,2022-03-03,株式会社Ｃ．Ｓ．Ｆ．Ｉ．,,株式会社,神奈川県,横浜市磯子区,磯子２丁目２９番１０－１０４号,,14,107,2350016,,,,,,,2022-03-03,1,,,,,シーエスエフアイ,0
1756,7021003011397,新規,0,2022-03-03,2022-03-03,合同会社ギムレット,,合同会社,神奈川県,小田原市,城山２丁目１８番４６号,,14,206,2500045,,,,,,,2022-03-03,1,,,,,ギムレット,0
1757,7030001147095,新規,0,2022-03-03,2022-03-03,建成株式会社,,株式会社,埼玉県,川口市,上青木西５丁目２番１６号,,11,203,3330845,,,,,,,2022-03-03,1,,,,,ケンセイ,0
1759,7030003018856,新規,0,2022-03-03,2022-03-03,ＷａｉＷａｉ合同会社,,合同会社,埼玉県,春日部市,備後西３丁目１０番１４号,,11,214,3440033,,,,,,,2022-03-03,1,,,,,ワイワイ,0
1760,7030003018889,新規,0,2022-03-03,2022-03-03,ＹＭＪＥＷＥＬＲＹ合同会社,,合同会社,埼玉県,富士見市,渡戸２丁目７－２４橋本,,11,235,3540032,,,,,,,2022-03-03,1,,,,,ワイエムジュエリ,0
1765,7040001122403,新規,0,2022-03-03,2022-03-03,株式会社人和,,株式会社,千葉県,君津市,下湯江１３９番地２２,,12,225,2991131,,,,,,,2022-03-03,1,,,,,ヒトワ,0
1766,7040001122436,新規,0,2022-03-03,2022-03-03,株式会社ベルクオレ,,株式会社,千葉県,印西市,原２丁目１番地Ａ棟９１８号,,12,231,2701335,,,,,,,2022-03-03,1,,,,,ベルクオレ,0
1769,7040003019597,新規,0,2022-03-03,2022-03-03,合同会社オアシス,,合同会社,千葉県,松戸市,松戸新田２６５番地の１７,,12,207,2702241,,,,,,,2022-03-03,1,,,,,オアシス,0
1770,7040005021535,新規,0,2022-03-03,2022-03-03,一般財団法人猫税局,,その他の設立登記法人,千葉県,長生郡一宮町,一宮２８４番地５,,12,421,2994301,,,,,,,2022-03-03,1,,,,,ネコゼイキョク,0
1772,7070001038992,新規,0,2022-03-03,2022-03-03,株式会社ここのい,,株式会社,群馬県,渋川市,渋川８９２番地２３浅見マンション１００号,,10,208,3770008,,,,,,,2022-03-03,1,,,,,ココノイ,0
1773,7070001039000,新規,0,2022-03-03,2022-03-03,株式会社八子建創,,株式会社,群馬県,佐波郡玉村町,大字藤川２７番地１,,10,464,3701101,,,,,,,2022-03-03,1,,,,,ヤコケンソウ,0
1774,7070001039009,新規,0,2022-03-03,2022-03-03,株式会社Ｖｉｖｉｄ　Ａｉｒ,,株式会社,群馬県,前橋市,下新田町４６０番地４７,,10,201,3710822,,,,,,,2022-03-03,1,,,,,ヴィヴィッドエアー,0
1776,7080001024785,新規,0,2022-03-03,2022-03-03,株式会社ＲＲＦＴ,,株式会社,静岡県,静岡市駿河区,中島３０７番地,,22,102,4228046,,,,,,,2022-03-03,1,,,,,アールアールエフティー,0
1778,7080005007431,新規,0,2022-03-03,2022-03-03,一般財団法人中村ＣＡＴＳテラス,,その他の設立登記法人,静岡県,静岡市葵区,水落町６番８号,,22,101,4200831,,,,,,,2022-03-03,1,,,,,ナカムラキャッツテラス,0
1780,7080101023126,新規,0,2022-03-03,2022-03-03,株式会社富士美創,,株式会社,静岡県,富士市,川成島１０１７番地の４,,22,210,4160939,,,,,,,2022-03-03,1,,,,,フジビソウ,0
1781,7080103002540,新規,0,2022-03-03,2022-03-03,Ｍ‐ｓｔｙｌｅ合同会社,,合同会社,静岡県,三島市,西若町７‐４２‐２０１,,22,206,4110038,,,,,,,2022-03-03,1,,,,,エムスタイル,0
1786,7090001017458,新規,0,2022-03-03,2022-03-03,株式会社田中農園,,株式会社,山梨県,甲州市,塩山下萩原７９２番地,,19,213,4040024,,,,,,,2022-03-03,1,,,,,タナカノウエン,0
1789,7110001036471,新規,0,2022-03-03,2022-03-03,株式会社市村板金工業,,株式会社,新潟県,妙高市,大字大原新田６８５番地３,,15,217,9440332,,,,,,,2022-03-03,1,,,,,イチムラバンキンコウギョウ,0
1799,7120001244164,新規,0,2022-03-03,2022-03-03,株式会社Ｓｉｉｃａ,,株式会社,大阪府,大阪市北区,末広町１番３号,,27,127,5300053,,,,,,,2022-03-03,1,,,,,シーカ,0
1807,7120901045661,新規,0,2022-03-03,2022-03-03,株式会社ＹＫＧ,,株式会社,大阪府,池田市,五月丘３丁目２番Ｂー６０９号,,27,204,5630029,,,,,,,2022-03-03,1,,,,,ワイケージー,0
1808,7120903004054,新規,0,2022-03-03,2022-03-03,ＮＡＣ合同会社,,合同会社,大阪府,茨木市,沢良宜東町１２番２９号,,27,211,5670863,,,,,,,2022-03-03,1,,,,,ナック,0
1811,7130001071203,新規,0,2022-03-03,2022-03-03,株式会社Ｂｒｉｌｌａｎｔｅ,,株式会社,京都府,京都市伏見区,深草正覚町１番地１７オルフェアライフ稲荷山４０５号室,,26,109,6120801,,,,,,,2022-03-03,1,,,,,ブリランテ,0
1812,7130001071236,新規,0,2022-03-03,2022-03-03,株式会社Ｎｏｍｕｒａ　Ａｒｔ　Ｐｌａｎｔ,,株式会社,京都府,京都市左京区,一乗寺下り松町１４－４０２,,26,103,6060000,,,,,,,2022-03-03,1,,,,,ノムラアートプラント,0
1814,7130003007782,新規,0,2022-03-03,2022-03-03,希商店合同会社,,合同会社,京都府,福知山市,字戸田１０２４,,26,201,6200801,,,,,,,2022-03-03,1,,,,,ノゾミショウテン,0
1815,7130005016393,新規,0,2022-03-03,2022-03-03,一般社団法人こえのつばさ,,その他の設立登記法人,京都府,京都市上京区,宮垣町９１－１０２,,26,102,6020853,,,,,,,2022-03-03,1,,,,,コエノツバサ,0
1817,7140001125098,新規,0,2022-03-03,2022-03-03,株式会社グランツ,,株式会社,兵庫県,神戸市中央区,磯辺通１丁目１－２０ＫＯＷＡＢＬＤＧ．,,28,110,6510084,,,,,,,2022-03-03,1,,,,,グランツ,0
1825,7160001024026,新規,0,2022-03-03,2022-03-03,株式会社バーシス,,株式会社,滋賀県,長浜市,西浅井町塩津中１１１０番地７,,25,203,5290704,,,,,,,2022-03-03,1,,,,,バーシス,0
1827,7170001017004,新規,0,2022-03-03,2022-03-03,株式会社プラスワン,,株式会社,和歌山県,橋本市,高野口町名古曽８２２番地の２,,30,203,6497203,,,,,,,2022-03-03,1,,,,,プラスワン,0
1835,7180001150175,新規,0,2022-03-03,2022-03-03,株式会社ディシェアーキャリア,,株式会社,愛知県,名古屋市中区,栄３丁目２番３号,,23,106,4600008,,,,,,,2022-03-03,1,,,,,ディシェアーキャリア,0
1836,7180001150191,新規,0,2022-03-03,2022-03-03,余合商事株式会社,,株式会社,愛知県,名古屋市西区,比良１丁目３３４番地,,23,104,4520802,,,,,,,2022-03-03,1,,,,,ヨゴウショウジ,0
1837,7180001150217,新規,0,2022-03-03,2022-03-03,株式会社悠家,,株式会社,愛知県,名古屋市中区,新栄１丁目５番６号スタービル２Ｃ,,23,106,4600007,,,,,,,2022-03-03,1,,,,,ユウヤ,0
1838,7180001150241,新規,0,2022-03-03,2022-03-03,株式会社Ａ－Ｔｒｕｓ名南,,株式会社,愛知県,名古屋市熱田区,伝馬２丁目１６番１３号豊建ビル５階,,23,109,4560034,,,,,,,2022-03-03,1,,,,,アトラスメイナン,0
1839,7180001150274,新規,0,2022-03-03,2022-03-03,株式会社ｙｏｕｎｅｄ,,株式会社,愛知県,名古屋市中川区,清川町６丁目１番地の１,,23,110,4540049,,,,,,,2022-03-03,1,,,,,ユーニッド,0
1845,7180003023569,新規,0,2022-03-03,2022-03-03,合同会社ＴＡＩＧＡ,,合同会社,愛知県,名古屋市瑞穂区,柏木町２丁目１２番地の２（ユーフォリア八事桜ケ丘５０１号）,,23,108,4670044,,,,,,,2022-03-03,1,,,,,タイガ,0
1846,7180301035968,新規,0,2022-03-03,2022-03-03,株式会社フジセイ,,株式会社,愛知県,刈谷市,西境町兵九前９７番地５,,23,210,4480006,,,,,,,2022-03-03,1,,,,,フジセイ,0
1847,7180301035984,新規,0,2022-03-03,2022-03-03,株式会社岡本,,株式会社,愛知県,豊田市,高岡町池端８１番地３０,,23,211,4730933,,,,,,,2022-03-03,1,,,,,オカモト,0
1848,7180301035992,新規,0,2022-03-03,2022-03-03,株式会社ｍａｒｖｅｌｏｕｓ,,株式会社,愛知県,知立市,弘法２丁目７番地２,,23,225,4720052,,,,,,,2022-03-03,1,,,,,マーベラス,0
1853,7190001029170,新規,0,2022-03-03,2022-03-03,株式会社惺栄,,株式会社,三重県,桑名市,大字和泉６０５番地２グランフォンテーヌ１０３号,,24,205,5110838,,,,,,,2022-03-03,1,,,,,セイエイ,0
1854,7190001029179,新規,0,2022-03-03,2022-03-03,株式会社オレンジスター,,株式会社,三重県,桑名市,多度町力尾２２４４番地,,24,205,5110125,,,,,,,2022-03-03,1,,,,,オレンジスター,0
1858,7200001039804,新規,0,2022-03-03,2022-03-03,株式会社時代軒菓舗,,株式会社,岐阜県,美濃市,２１９２番地４,,21,207,5013701,,,,,,,2022-03-03,1,,,,,ジダイケンカホ,0
1859,7200001039812,新規,0,2022-03-03,2022-03-03,株式会社ＦＫ,,株式会社,岐阜県,羽島郡岐南町,上印食３丁目７３番地２,,21,302,5016001,,,,,,,2022-03-03,1,,,,,エフケー,0
1861,7200003005481,新規,0,2022-03-03,2022-03-03,合同会社エバーリワイフ,,合同会社,岐阜県,多治見市,小泉町７丁目１５８番地の２,,21,204,5070073,,,,,,,2022-03-03,1,,,,,エバーリワイフ,0
1863,7210001018831,新規,0,2022-03-03,2022-03-03,株式会社Ｋ－ＮＥＸＴ,,株式会社,福井県,越前市,芝原３丁目３番３８号,,18,209,9150805,,,,,,,2022-03-03,1,,,,,ケーネクスト,0
1864,7220003003228,新規,0,2022-03-03,2022-03-03,ＧＩＶＥ合同会社,,合同会社,石川県,金沢市,材木町２７番２３号,,17,201,9200921,,,,,,,2022-03-03,1,,,,,,0
1865,7220003003236,新規,0,2022-03-03,2022-03-03,エージェクス合同会社,,合同会社,石川県,白山市,蓮池町ア９番地７,,17,210,9290205,,,,,,,2022-03-03,1,,,,,エージェクス,0
1868,7240001059419,新規,0,2022-03-03,2022-03-03,タツトモギコウ株式会社,,株式会社,広島県,福山市,沼隈町草深１１８－１,,34,207,7210000,,,,,,,2022-03-03,1,,,,,タツトモギコウ,0
1869,7240001059427,新規,0,2022-03-03,2022-03-03,ＹＭＯ株式会社,,株式会社,広島県,広島市西区,高須１丁目３番１０号,,34,104,7330871,,,,,,,2022-03-03,1,,,,,ワイエムオー,0
1873,7240005015343,新規,0,2022-03-03,2022-03-03,一般財団法人環境教育医学研究所,,その他の設立登記法人,広島県,広島市西区,庚午北４丁目８－１９,,34,104,7330821,,,,,,,2022-03-03,1,,,,,カンキョウキョウイクイガクケンキュウジョ,0
1877,7260001036597,新規,0,2022-03-03,2022-03-03,株式会社ＪＡＣＫ　ＭＥＮ,,株式会社,岡山県,岡山市北区,菅野１２１２番地１,,33,101,7011141,,,,,,,2022-03-03,1,,,,,ジャックメン,0
1878,7260001036614,新規,0,2022-03-03,2022-03-03,株式会社徳山工業,,株式会社,岡山県,倉敷市,北畝１丁目２０番５号,,33,202,7128032,,,,,,,2022-03-03,1,,,,,トクヤマコウギョウ,0
1880,7260003003827,新規,0,2022-03-03,2022-03-03,合同会社ＴＡＫＵＭＩ,,合同会社,岡山県,玉野市,明神町２番２２号,,33,204,7060025,,,,,,,2022-03-03,1,,,,,タクミ,0
1881,7270003001391,新規,0,2022-03-03,2022-03-03,ｍｏｒｉｔａ　ｆｒｉｅｎｄ　ｃｏｍｐａｎｙ合同会社,,合同会社,鳥取県,西伯郡大山町,国信３２４,,31,386,6893200,,,,,,,2022-03-03,1,,,,,モリタフレンドカンパニー,0
1882,7280001008652,新規,0,2022-03-03,2022-03-03,祝部電工株式会社,,株式会社,島根県,出雲市,大社町杵築北２７１２番地１２,,32,203,6990702,,,,,,,2022-03-03,1,,,,,ホウリデンコウ,0
1884,7280003001589,新規,0,2022-03-03,2022-03-03,合同会社シンキ,,合同会社,島根県,松江市,東津田町７４０番地アヴニールヴィラ栂前Ｃ１０２,,32,201,6900011,,,,,,,2022-03-03,1,,,,,シンキ,0
1888,7290002057664,新規,0,2022-03-03,2022-03-03,親和工業有限会社,,有限会社,福岡県,飯塚市,楽市３２３番地,,40,205,8200074,,,,,,,2022-03-03,1,,,,,シンワコウギョウ,0
1892,7300001012825,新規,0,2022-03-03,2022-03-03,株式会社Ｗｉｔｈ,,株式会社,佐賀県,唐津市,浜玉町平原甲１３４１－１,,41,202,8495112,,,,,,,2022-03-03,1,,,,,ウィズ,0
1893,7310003004282,新規,0,2022-03-03,2022-03-03,インテリジェンスパートナーズ合同会社,,合同会社,長崎県,佐世保市,小佐世保町１２－８,,42,202,8570813,,,,,,,2022-03-03,1,,,,,インテリジェンスパートナーズ,0
1894,7320001018936,新規,0,2022-03-03,2022-03-03,カスガ水産株式会社,,株式会社,大分県,佐伯市,大字二栄５８５番地１６,,44,205,8761102,,,,,,,2022-03-03,1,,,,,カスガスイサン,0
1895,7320001018944,新規,0,2022-03-03,2022-03-03,株式会社ＣＲＥＯ,,株式会社,大分県,大分市,大字森町６８５番地の２,,44,201,8700127,,,,,,,2022-03-03,1,,,,,クレオ,0
1898,7330003009271,新規,0,2022-03-03,2022-03-03,合同会社ハイフィールド,,合同会社,熊本県,熊本市中央区,黒髪４丁目３６３番地８,,43,101,8600862,,,,,,,2022-03-03,1,,,,,ハイフィールド,0
1901,7340001024536,新規,0,2022-03-03,2022-03-03,株式会社三昧堂,,株式会社,鹿児島県,霧島市,牧園町高千穂３９１４－６７,,46,218,8996603,,,,,,,2022-03-03,1,,,,,ザンマイドウ,0
1902,7340001024544,新規,0,2022-03-03,2022-03-03,株式会社ＫＳＫＳ,,株式会社,鹿児島県,指宿市,西方６０３番地６,,46,210,8910311,,,,,,,2022-03-03,1,,,,,ケイエスケイエス,0
1903,7340005009418,新規,0,2022-03-03,2022-03-03,一般社団法人ＦＣアラーラ鹿児島,,その他の設立登記法人,鹿児島県,姶良市,西餅田３９６６番地２１,,46,225,8995431,,,,,,,2022-03-03,1,,,,,エフシーアラーラカゴシマ,0
1908,7380003005118,新規,0,2022-03-03,2022-03-03,エデュサイエンス合同会社,,合同会社,福島県,郡山市,富田町字坦ノ腰５８番地の１第２ヨコヤマビル４０６号,,07,203,9638041,,,,,,,2022-03-03,1,,,,,エデュサイエンス,0
1910,7400001015792,新規,0,2022-03-03,2022-03-03,株式会社鈴木モータース,,株式会社,岩手県,一関市,室根町矢越字千刈田２０番地３,,03,209,0291202,,,,,,,2022-03-03,1,,,,,スズキモータース,0
1920,7430001086088,新規,0,2022-03-03,2022-03-03,株式会社丸谷工務店,,株式会社,北海道,余市郡仁木町,北町６丁目３８番地８,,01,407,0482405,,,,,,,2022-03-03,1,,,,,マルタニコウムテン,0
1922,7430005014375,新規,0,2022-03-03,2022-03-03,特定非営利活動法人ゆにこみゅーん,,その他の設立登記法人,北海道,滝川市,朝日町東２丁目１２番地２３号,,01,225,0730015,,,,,,,2022-03-03,1,,,,,ユニコミューン,0
1923,7460001005664,新規,0,2022-03-03,2022-03-03,株式会社ＲＩＳＥ,,株式会社,北海道,釧路郡釧路町,緑１丁目４７番地,,01,661,0882153,,,,,,,2022-03-03,1,,,,,ライズ,0
1928,7500001024032,新規,0,2022-03-03,2022-03-03,ＴＲＵＳＴ株式会社,,株式会社,愛媛県,四国中央市,土居町津根３５７番地１,,38,213,7990704,,,,,,,2022-03-03,1,,,,,トラスト,0
1929,7500001024040,新規,0,2022-03-03,2022-03-03,株式会社ＹＭ．Ｌｉｎｅ,,株式会社,愛媛県,今治市,喜田村４丁目８番８号,,38,202,7991502,,,,,,,2022-03-03,1,,,,,ワイエムライン,0
1940,8010001224928,新規,0,2022-03-03,2022-03-03,グローバルプラスサービス株式会社,,株式会社,東京都,中央区,八重洲２丁目１０番１０号,,13,102,1040028,,,,,,,2022-03-03,1,,,,,グローバルプラスサービス,0
1941,8010001224960,新規,0,2022-03-03,2022-03-03,株式会社ＦＢＢ,,株式会社,東京都,中央区,銀座７丁目４番６号ＡＣＮ７ビル８階,,13,102,1040061,,,,,,,2022-03-03,1,,,,,エフビービー,0
1943,8010101015087,新規,0,2022-03-03,2022-03-03,株式会社ＹＨＬＯジャパン,,株式会社,東京都,八王子市,明神町３丁目２０番５号,,13,201,1920046,,,,,,,2022-03-03,1,,,,,ワイエイチエルオージャパン,0
1949,8010401165887,新規,0,2022-03-03,2022-03-03,株式会社ＤＡＤＡＣＡ　ＳＰＣ,,株式会社,東京都,港区,白金台５丁目１８番８号ラ・レジダンス・ド・白金台１０１,,13,103,1080071,,,,,,,2022-03-03,1,,,,,ダダカエスピーシー,0
1950,8010401165904,新規,0,2022-03-03,2022-03-03,株式会社Ｔｅｒａｋｏｙａ．ＡＩ,,株式会社,東京都,港区,虎ノ門１丁目１７番１号虎ノ門ヒルズビジネスタワー１５階,,13,103,1050001,,,,,,,2022-03-03,1,,,,,テラコヤエイアイ,0
1951,8010401165912,新規,0,2022-03-03,2022-03-03,株式会社Ｆ－ＳＴＹＬＥ,,株式会社,東京都,港区,新橋３丁目３番１４号田村町ビル１０階,,13,103,1050004,,,,,,,2022-03-03,1,,,,,エフスタイル,0
1952,8010401165920,新規,0,2022-03-03,2022-03-03,ゴラフト株式会社,,株式会社,東京都,港区,南青山２丁目２番１５号,,13,103,1070062,,,,,,,2022-03-03,1,,,,,ゴラフト,0
1953,8010401165978,新規,0,2022-03-03,2022-03-03,株式会社ＦｌａｓｈＤａｙｓ,,株式会社,東京都,港区,海岸１丁目４番２２号,,13,103,1050022,,,,,,,2022-03-03,1,,,,,フラッシュデイズ,0
1955,8010405020774,新規,0,2022-03-03,2022-03-03,一般社団法人福博であい通りビルディング,,その他の設立登記法人,東京都,港区,虎ノ門３丁目２２番１０－２０１号,,13,103,1050001,,,,,,,2022-03-03,1,,,,,フクハクデアイドオリビルディング,0
1958,8010601060789,新規,0,2022-03-03,2022-03-03,株式会社互援,,株式会社,東京都,江東区,亀戸５丁目３８番４号,,13,108,1360071,,,,,,,2022-03-03,1,,,,,ゴエン,0
1959,8010603009421,新規,0,2022-03-03,2022-03-03,合同会社ポジティブ・デザイン・ワークス,,合同会社,東京都,江東区,有明３丁目７－１１有明パークビル２０Ｆ,,13,108,1350063,,,,,,,2022-03-03,1,,,,,ポジティブデザインワークス,0
1963,8010703006137,新規,0,2022-03-03,2022-03-03,３ＰＲＯ　ＬＯＧＩＳＴＥＥＤ合同会社,,合同会社,東京都,品川区,北品川５丁目１８番１９－２０６号,,13,109,1410001,,,,,,,2022-03-03,1,,,,,サンプロロジスティード,0
1964,8010801032778,新規,0,2022-03-03,2022-03-03,株式会社やまと企画,,株式会社,東京都,大田区,上池台５丁目３２－７,,13,111,1450064,,,,,,,2022-03-03,1,,,,,ヤマトキカク,0
1966,8010803004081,新規,0,2022-03-03,2022-03-03,Ｐｒｉｍｅ　Ｒｅｓｉｄｅｎｔｉａｌ合同会社,,合同会社,東京都,大田区,下丸子２丁目１８－５－１０６,,13,111,1460092,,,,,,,2022-03-03,1,,,,,プライムレジデンシャル,0
1967,8010901050399,新規,0,2022-03-03,2022-03-03,Ｂｕｓｅｎａ　Ｐｒｏｄｕｃｔｓ株式会社,,株式会社,東京都,世田谷区,成城１丁目３１番１１号,,13,112,1570066,,,,,,,2022-03-03,1,,,,,ブセナプロダクツ,0
1968,8010901050424,新規,0,2022-03-03,2022-03-03,株式会社Ａ－ＮＥＸＴ,,株式会社,東京都,世田谷区,三宿１丁目４番２１号ＳＱＵＡＲＥ三軒茶屋２階,,13,112,1540005,,,,,,,2022-03-03,1,,,,,エーネクスト,0
1969,8010901050457,新規,0,2022-03-03,2022-03-03,株式会社田頭硝子店,,株式会社,東京都,世田谷区,南烏山３丁目１８番１４号,,13,112,1570062,,,,,,,2022-03-03,1,,,,,タガシラガラステン,0
1970,8010901050465,新規,0,2022-03-03,2022-03-03,株式会社ＭＡＹＫ,,株式会社,東京都,世田谷区,太子堂１丁目１２番２７号コンフォートテラス１００５号,,13,112,1540004,,,,,,,2022-03-03,1,,,,,メイク,0
1971,8010905004269,新規,0,2022-03-03,2022-03-03,一般社団法人楽,,その他の設立登記法人,東京都,世田谷区,中町４丁目３５番２１－３０１号,,13,112,1580091,,,,,,,2022-03-03,1,,,,,ラク,0
1978,8011001145981,新規,0,2022-03-03,2022-03-03,Ｄｉｇｉｔａｌ　Ｉｍｐａｃｔ株式会社,,株式会社,東京都,渋谷区,円山町５番５号Ｎａｖｉ渋谷Ｖ３階,00125856,13,113,1500044,,,,,,,2022-03-03,1,,,,,デジタルインパクト,0
1979,8011001146055,新規,0,2022-03-03,2022-03-03,株式会社椋鳥,,株式会社,東京都,目黒区,三田２丁目４番９号メゾンタナカ４０６,,13,110,1530062,,,,,,,2022-03-03,1,,,,,ムクドリ,0
1983,8011003014268,新規,0,2022-03-03,2022-03-03,ＳＯＮＩＣＬＯＲＥ合同会社,,合同会社,東京都,渋谷区,道玄坂１丁目１０番８号渋谷道玄坂東急ビル２Ｆ－Ｃ,,13,113,1500043,,,,,,,2022-03-03,1,,,,,ソニックロア,0
1985,8011105010157,新規,0,2022-03-03,2022-03-03,一般社団法人ＷＡＴＥＲ　ＰＬＡＮＥＴ　ＳＴＵＤＩＯ,,その他の設立登記法人,東京都,新宿区,築地町４番地神楽坂テクノスビル,,13,104,1620818,,,,,,,2022-03-03,1,,,,,ウォータープラネットスタジオ,0
1987,8011201023681,新規,0,2022-03-03,2022-03-03,イーシュ株式会社,,株式会社,東京都,中野区,東中野５丁目１番１－１１０９号,,13,114,1640003,,,,,,,2022-03-03,1,,,,,イーシュ,0
1994,8011603003538,新規,0,2022-03-03,2022-03-03,合同会社ＭＣＳ．ＴＯＫＹＯ,,合同会社,東京都,練馬区,三原台３丁目５番２５－２１５号,,13,120,1770031,,,,,,,2022-03-03,1,,,,,エムシーエストウキョウ,0
1998,8012301012896,新規,0,2022-03-03,2022-03-03,株式会社防災プロスパー,,株式会社,東京都,町田市,常盤町３２４８番地２－１０１,,13,209,1940213,,,,,,,2022-03-03,1,,,,,ボウサイプロスパー,0
1999,8012403005261,新規,0,2022-03-03,2022-03-03,ＳＡＩＬ合同会社,,合同会社,東京都,調布市,深大寺北町７丁目１０－２４,,13,208,1820011,,,,,,,2022-03-03,1,,,,,セイル,0
2000,8012701016968,新規,0,2022-03-03,2022-03-03,ＳＥＣ株式会社,,株式会社,東京都,東久留米市,新川町２丁目３番１号２０２号室,,13,222,2030013,,,,,,,2022-03-03,1,,,,,エスイーシー,0
2002,8012803002718,新規,0,2022-03-03,2022-03-03,合同会社ＹＳＫ,,合同会社,東京都,立川市,上砂町３丁目３７－１２Ｃ－Ｗｉｎｄｓ２０３,,13,202,1900032,,,,,,,2022-03-03,1,,,,,,0
2003,8012805003094,新規,0,2022-03-03,2022-03-03,医療法人社団ＹＭＲ,,その他の設立登記法人,東京都,立川市,柴崎町６丁目１９番１６号メディカル・フォレストたちかわ,,13,202,1900023,,,,,,,2022-03-03,1,,,,,ワイエムアール,0
2006,8013301048757,新規,0,2022-03-03,2022-03-03,株式会社ＴＡＵ,,株式会社,東京都,豊島区,池袋１丁目５番２－１００２号,,13,116,1700014,,,,,,,2022-03-03,1,,,,,ティーエーユー,0
2007,8013301048765,新規,0,2022-03-03,2022-03-03,ＲＧマネジメント株式会社,,株式会社,東京都,豊島区,雑司が谷２丁目１４番８号,,13,116,1710032,,,,,,,2022-03-03,1,,,,,アールジーマネジメント,0
2014,8020001145487,新規,0,2022-03-03,2022-03-03,株式会社プルームス,,株式会社,神奈川県,川崎市中原区,木月２丁目１番３－２０４号,,14,133,2110025,,,,,,,2022-03-03,1,,,,,プルームス,0
2015,8020001145495,新規,0,2022-03-03,2022-03-03,株式会社イプ,,株式会社,神奈川県,横浜市青葉区,元石川町４２４６番地,,14,117,2250004,,,,,,,2022-03-03,1,,,,,イプ,0
2016,8020001145504,新規,0,2022-03-03,2022-03-03,株式会社スカイウィロー,,株式会社,神奈川県,横浜市南区,宮元町３丁目５６番地,,14,105,2320016,,,,,,,2022-03-03,1,,,,,スカイウィロー,0
2017,8020001145512,新規,0,2022-03-03,2022-03-03,株式会社翔栄商事,,株式会社,神奈川県,横浜市保土ケ谷区,法泉２丁目２６番２３－２１０号,,14,106,2400032,,,,,,,2022-03-03,1,,,,,ショウエイショウジ,0
2018,8020001145529,新規,0,2022-03-03,2022-03-03,ｃｉｅ株式会社,,株式会社,神奈川県,川崎市中原区,丸子通１丁目６３２番地フローリエ細山Ｆ１０２,,14,133,2110006,,,,,,,2022-03-03,1,,,,,シエ,0
2025,8021003011438,新規,0,2022-03-03,2022-03-03,ＨＡＮＩＦＡ　ＡＵＴＯ合同会社,,合同会社,神奈川県,愛甲郡愛川町,三増３５０番地の８－Ａ,,14,401,2430308,,,,,,,2022-03-03,1,,,,,ハニファオート,0
2028,8030001147086,新規,0,2022-03-03,2022-03-03,株式会社トランザント,,株式会社,埼玉県,越谷市,越ヶ谷１丁目２番地２１号,,11,222,3430813,,,,,,,2022-03-03,1,,,,,トランザント,0
2037,8040001122501,新規,0,2022-03-03,2022-03-03,株式会社徳太郎,,株式会社,千葉県,千葉市稲毛区,長沼原町７０３番地,,12,103,2630001,,,,,,,2022-03-03,1,,,,,トクタロウ,0
2040,8040003019596,新規,0,2022-03-03,2022-03-03,合同会社櫻,,合同会社,千葉県,市原市,五所１９７２番地１－４０８号,,12,219,2900066,,,,,,,2022-03-03,1,,,,,サクラ,0
2043,8050001050726,新規,0,2022-03-03,2022-03-03,レイリーフードテック株式会社,,株式会社,茨城県,ひたちなか市,大字金上９４４－１,,08,221,3120022,,,,,,,2022-03-03,1,,,,,レイリーフードテック,0
2047,8060001034612,新規,0,2022-03-03,2022-03-03,株式会社井口商事,,株式会社,栃木県,小山市,大字横倉新田７番地１５７,,09,208,3230819,,,,,,,2022-03-03,1,,,,,イグチショウジ,0
2052,8070001038991,新規,0,2022-03-03,2022-03-03,株式会社ラディス,,株式会社,群馬県,桐生市,堤町２丁目６番５号ＣＡＭＰ２２３、２０２号室,,10,203,3760042,,,,,,,2022-03-03,1,,,,,ラディス,0
2053,8070001039008,新規,0,2022-03-03,2022-03-03,株式会社高司コーポレーション,,株式会社,群馬県,安中市,松井田町新堀３８８番地８,,10,211,3790221,,,,,,,2022-03-03,1,,,,,タカシコーポレーション,0
2054,8070003004406,新規,0,2022-03-03,2022-03-03,Ｋ－Ｆａｍ開発合同会社,,合同会社,群馬県,みどり市,笠懸町阿左美１８１６番地８,,10,212,3792311,,,,,,,2022-03-03,1,,,,,ケーファムカイハツ,0
2055,8080001024801,新規,0,2022-03-03,2022-03-03,株式会社Ｗｏｒｋ　Ｐｒｏｊｅｃｔｓ,,株式会社,静岡県,静岡市駿河区,下川原５丁目１６番８号,,22,102,4210113,,,,,,,2022-03-03,1,,,,,ワークプロジェクト,0
2056,8080101023125,新規,0,2022-03-03,2022-03-03,株式会社ＴＵＫＵＲＵ　Ｉｎｎｏｖａｔｉｏｎ,,株式会社,静岡県,熱海市,上多賀６８６番地,,22,205,4130101,,,,,,,2022-03-03,1,,,,,ツクルイノベーション,0
2058,8080401025639,新規,0,2022-03-03,2022-03-03,株式会社ＭＳマネジメントパートナー,,株式会社,静岡県,浜松市中区,蜆塚２丁目７番１号,,22,131,4328018,,,,,,,2022-03-03,1,,,,,エムエスマネジメントパートナー,0
2059,8080401025647,新規,0,2022-03-03,2022-03-03,株式会社小柳電機,,株式会社,静岡県,袋井市,見取２５４番地の１,,22,216,4370005,,,,,,,2022-03-03,1,,,,,コヤナギデンキ,0
2060,8080401025655,新規,0,2022-03-03,2022-03-03,株式会社ＩＫ,,株式会社,静岡県,掛川市,柳町５１番地,,22,213,4360052,,,,,,,2022-03-03,1,,,,,アイケイ,0
2061,8090001017449,新規,0,2022-03-03,2022-03-03,Ｐｕｌｌ，ｏｆ　ｔｈｅ　ｍｏｏｎ株式会社,,株式会社,山梨県,甲府市,山宮町３１６７番地３３,,19,201,4000075,,,,,,,2022-03-03,1,,,,,プルオブザムーン,0
2066,8100001035102,新規,0,2022-03-03,2022-03-03,株式会社軽井沢チョコレート館,,株式会社,長野県,北佐久郡軽井沢町,軽井沢４番地２,,20,321,3890103,,,,,,,2022-03-03,1,,,,,カルイザワチョコレートカン,0
2067,8100001035110,新規,0,2022-03-03,2022-03-03,株式会社Ｒ,,株式会社,長野県,松本市,中央１丁目１４番２２号タカナワビル２０２,,20,202,3900811,,,,,,,2022-03-03,1,,,,,アール,0
2068,8100001035127,新規,0,2022-03-03,2022-03-03,株式会社りんとく,,株式会社,長野県,佐久市,安原１４２４番地１４,,20,217,3850004,,,,,,,2022-03-03,1,,,,,リントク,0
2071,8110001036470,新規,0,2022-03-03,2022-03-03,株式会社渋谷工業,,株式会社,新潟県,新発田市,八幡新田６９９番地１,,15,206,9570032,,,,,,,2022-03-03,1,,,,,シブヤコウギョウ,0
2081,8120001244196,新規,0,2022-03-03,2022-03-03,株式会社システムオールグリーン,,株式会社,大阪府,大阪市北区,梅田１丁目１－３大阪駅前第３ビル２９階１－１－１号室,,27,127,5300001,,,,,,,2022-03-03,1,,,,,システムオールグリーン,0
2083,8120005022821,新規,0,2022-03-03,2022-03-03,一般社団法人日本飲食業経営審議会,,その他の設立登記法人,大阪府,大阪市淀川区,西中島５丁目１２番８号,,27,123,5320011,,,,,,,2022-03-03,1,,,,,ニホンインショクギョウケイエイシンギカイ,0
2084,8120901045660,新規,0,2022-03-03,2022-03-03,株式会社ｂａｃｋｙａｒｄ,,株式会社,大阪府,茨木市,大池２丁目１５番８号,,27,211,5670826,,,,,,,2022-03-03,1,,,,,バックヤード,0
2087,8120903004053,新規,0,2022-03-03,2022-03-03,合同会社Ｆａｕｓｔ,,合同会社,大阪府,高槻市,塚原４丁目１３番１８号,,27,207,5691046,,,,,,,2022-03-03,1,,,,,ファウスト,0
2093,8130001071268,新規,0,2022-03-03,2022-03-03,株式会社ＴＡＩＲＡ　ＨＡＭＡＤＡ　ＡＲＣＨＩＴＥＣＴ　ＯＦＦＩＣＥ,,株式会社,京都府,京都市中京区,夷川通油小路西入西夷川町５７０番地向山ビル２階,,26,104,6040073,,,,,,,2022-03-03,1,,,,,タイラハマダアーキテクトオフィス,0
2098,8140001125089,新規,0,2022-03-03,2022-03-03,株式会社環幸,,株式会社,兵庫県,神戸市灘区,烏帽子町３丁目１番２３－２０３号,,28,102,6570042,,,,,,,2022-03-03,1,,,,,カンコウ,0
2099,8140001125139,新規,0,2022-03-03,2022-03-03,株式会社ｙａｓｓ,,株式会社,兵庫県,神戸市中央区,磯上通４丁目１－１４,,28,110,6510086,,,,,,,2022-03-03,1,,,,,ヤース,0
2100,8140003017409,新規,0,2022-03-03,2022-03-03,ブレーブス合同会社,,合同会社,兵庫県,西宮市,生瀬高台１３番１０号,,28,204,6691111,,,,,,,2022-03-03,1,,,,,ブレーブス,0
2104,8160005011052,新規,0,2022-03-03,2022-03-03,医療法人ＮＥＸＵＳ,,その他の設立登記法人,滋賀県,野洲市,行畑７９０番地,,25,210,5202341,,,,,,,2022-03-03,1,,,,,ネクサス,0
2119,8180001150166,新規,0,2022-03-03,2022-03-03,株式会社ｍａｓａｋａ,,株式会社,愛知県,名古屋市中区,大須４丁目１１番５号,,23,106,4600011,,,,,,,2022-03-03,1,,,,,マサカ,0
2120,8180001150190,新規,0,2022-03-03,2022-03-03,株式会社キムラ防災コンサルタント,,株式会社,愛知県,清須市,萩野１０３番地,,23,233,4520919,,,,,,,2022-03-03,1,,,,,キムラボウサイコンサルタント,0
2121,8180001150224,新規,0,2022-03-03,2022-03-03,株式会社ＳＷＩＦＴ　ＥＳＴＡＴＥ,,株式会社,愛知県,名古屋市東区,新出来１丁目５番４号,,23,102,4610038,,,,,,,2022-03-03,1,,,,,スイフトエステート,0
2128,8180003023568,新規,0,2022-03-03,2022-03-03,合同会社ロゼリア,,合同会社,愛知県,名古屋市中川区,丸米町２丁目１６１番地,,23,110,4540834,,,,,,,2022-03-03,1,,,,,ロゼリア,0
2130,8180301035975,新規,0,2022-03-03,2022-03-03,株式会社Ｅ＆Ｂ大久保,,株式会社,愛知県,豊橋市,石巻萩平町字城下３７番地２,,23,201,4411103,,,,,,,2022-03-03,1,,,,,イーアンドビーオオクボ,0
2133,8180303005266,新規,0,2022-03-03,2022-03-03,合同会社Ｂ‐Ｆｌａｔ,,合同会社,愛知県,豊田市,西中山町新左屋敷１７０番地１７,,23,211,4700431,,,,,,,2022-03-03,1,,,,,ビーフラット,0
2134,8190001029203,新規,0,2022-03-03,2022-03-03,にじいろクラブ株式会社,,株式会社,三重県,北牟婁郡紀北町,馬瀬３４１番地３,,24,543,5193401,,,,,,,2022-03-03,1,,,,,ニジイロクラブ,0
2135,8190003003916,新規,0,2022-03-03,2022-03-03,合同会社猫の手サービス,,合同会社,三重県,津市,北河路町５２２－２,,24,201,5140056,,,,,,,2022-03-03,1,,,,,ネコノテサービス,0
2137,8200001039811,新規,0,2022-03-03,2022-03-03,株式会社Ｌｕｃｋ,,株式会社,岐阜県,揖斐郡池田町,池野５５０番地の７,,21,404,5032424,,,,,,,2022-03-03,1,,,,,ラック,0
2138,8200001039828,新規,0,2022-03-03,2022-03-03,株式会社４３２,,株式会社,岐阜県,岐阜市,大洞緑山２丁目３番２号,,21,201,5013125,,,,,,,2022-03-03,1,,,,,ヨンサンニ,0
2139,8210001018830,新規,0,2022-03-03,2022-03-03,株式会社長畝ファーム,,株式会社,福井県,坂井市,丸岡町長畝第４５号１６番地１,,18,210,9100273,,,,,,,2022-03-03,1,,,,,ノウネファーム,0
2141,8230005009205,新規,0,2022-03-03,2022-03-03,富山市場物流協同組合,,その他の設立登記法人,富山県,富山市,掛尾町５００番地,,16,201,9398212,,,,,,,2022-03-03,1,,,,,トヤマシジョウブツリュウ,0
2144,8240001059418,新規,0,2022-03-03,2022-03-03,株式会社フード＆ロジスティクスエンジニアリング,,株式会社,広島県,広島市安佐南区,高取北４丁目２７番６号,,34,105,7310144,,,,,,,2022-03-03,1,,,,,フードアンドロジスティクスエンジニアリング,0
2145,8240003005535,新規,0,2022-03-03,2022-03-03,Ｌｏｔｕｓ合同会社,,合同会社,広島県,広島市南区,翠５丁目７番３－３号,,34,103,7340005,,,,,,,2022-03-03,1,,,,,ロータス,0
2153,8280003001588,新規,0,2022-03-03,2022-03-03,合同会社シーラック,,合同会社,島根県,大田市,久手町波根西２２２７番地,,32,205,6940051,,,,,,,2022-03-03,1,,,,,,0
2158,8290001096596,新規,0,2022-03-03,2022-03-03,株式会社ゼロステップ,,株式会社,福岡県,福岡市博多区,博多駅南３丁目３番１２号,,40,132,8120016,,,,,,,2022-03-03,1,,,,,ゼロステップ,0
2159,8290001096621,新規,0,2022-03-03,2022-03-03,株式会社ＫＡＩＺＥＮ,,株式会社,福岡県,福岡市東区,千早４丁目１４番３６ＣＩＮＱ　ＩＷＡＳＥ　ＢＬＤ５１５号,,40,131,8130044,,,,,,,2022-03-03,1,,,,,カイゼン,0
2160,8290001096638,新規,0,2022-03-03,2022-03-03,フォトシア株式会社,,株式会社,福岡県,福岡市博多区,住吉２丁目４番７－３０８号,,40,132,8120018,,,,,,,2022-03-03,1,,,,,フォトシア,0
2161,8290001096646,新規,0,2022-03-03,2022-03-03,株式会社ｈｙ＆ｃｏ．,,株式会社,福岡県,福岡市中央区,大名１丁目２番２８号アイディール大名３０３,,40,133,8100041,,,,,,,2022-03-03,1,,,,,エイチワイアンドカンパニー,0
2168,8290801028286,新規,0,2022-03-03,2022-03-03,北九州陸運株式会社,,株式会社,福岡県,行橋市,北泉５丁目８番１号,,40,213,8240033,,,,,,,2022-03-03,1,,,,,キタキュウシュウリクウン,0
2171,8300003001800,新規,0,2022-03-03,2022-03-03,合同会社ＢＤＭ,,合同会社,佐賀県,佐賀市,神園５丁目１２番１４号,,41,201,8400806,,,,,,,2022-03-03,1,,,,,ビーディーエム,0
2172,8300005007060,新規,0,2022-03-03,2022-03-03,一般社団法人夢心,,その他の設立登記法人,佐賀県,三養基郡上峰町,大字坊所１８３９番地１４,,41,345,8490123,,,,,,,2022-03-03,1,,,,,ユメゴコロ,0
2173,8310001017748,新規,0,2022-03-03,2022-03-03,株式会社フク左官社,,株式会社,長崎県,佐世保市,田の浦町２８４番地１,,42,202,8593205,,,,,,,2022-03-03,1,,,,,,0
2177,8320001018927,新規,0,2022-03-03,2022-03-03,株式会社ＢｅＣＫ,,株式会社,大分県,大分市,大字小野鶴１３４０番地の１４,,44,201,8701153,,,,,,,2022-03-03,1,,,,,ベック,0
2178,8330001029485,新規,0,2022-03-03,2022-03-03,株式会社由建,,株式会社,熊本県,玉名郡長洲町,大字長洲２５８２番地,,43,368,8690123,,,,,,,2022-03-03,1,,,,,ユウケン,0
2179,8330001029493,新規,0,2022-03-03,2022-03-03,株式会社けんさんぎふと,,株式会社,熊本県,菊池郡菊陽町,大字原水１３４２番地プラネスト菊陽１１０１号,,43,404,8691102,,,,,,,2022-03-03,1,,,,,ケンサンギフト,0
2180,8330001029502,新規,0,2022-03-03,2022-03-03,株式会社ワイズトップ．ＥＸＴ,,株式会社,熊本県,玉名市,天水町部田見２８０９番地,,43,206,8615403,,,,,,,2022-03-03,1,,,,,ワイズトップイーエックスティー,0
2182,8340003003727,新規,0,2022-03-03,2022-03-03,合同会社モリタカ,,合同会社,鹿児島県,薩摩川内市,原田町１８番７号,,46,215,8950074,,,,,,,2022-03-03,1,,,,,モリタカ,0
2183,8350001017612,新規,0,2022-03-03,2022-03-03,株式会社明大不動産,,株式会社,宮崎県,宮崎市,吉村町北原甲１４３０番地１,,45,201,8800841,,,,,,,2022-03-03,1,,,,,メイダイフドウサン,0
2187,8370005010446,新規,0,2022-03-03,2022-03-03,一般社団法人子どもアドボカシーセンターみやぎ,,その他の設立登記法人,宮城県,多賀城市,中央２丁目２５番３号,,04,209,9850873,,,,,,,2022-03-03,1,,,,,コドモアドボカシーセンターミヤギ,0
2192,8380001032625,新規,0,2022-03-03,2022-03-03,株式会社三万石商事,,株式会社,福島県,郡山市,富久山町福原字神子田７番地５,,07,203,9638061,,,,,,,2022-03-03,1,,,,,サンマンゴクショウジ,0
2194,8390001016817,新規,0,2022-03-03,2022-03-03,株式会社ＳＨＡＲＥＳ,,株式会社,山形県,山形市,小立１丁目２番１５号,,06,201,9902402,,,,,,,2022-03-03,1,,,,,シェアーズ,0
2198,8410003003620,新規,0,2022-03-03,2022-03-03,合同会社ミウラ塗装,,合同会社,秋田県,潟上市,昭和乱橋字古開７９番地１２,,05,211,0181402,,,,,,,2022-03-03,1,,,,,ミウラトソウ,0
2202,8430003013667,新規,0,2022-03-03,2022-03-03,合同会社北海オートエンジニアリング,,合同会社,北海道,札幌市東区,中沼町４２番地１４,,01,103,0070890,,,,,,,2022-03-03,1,,,,,ホッカイオートエンジニアリング,0
2207,8450001013626,新規,0,2022-03-03,2022-03-03,株式会社リズカーレ,,株式会社,北海道,士別市,東一条６丁目３２３番地８,,01,220,0950011,,,,,,,2022-03-03,1,,,,,リズカーレ,0
2210,8460001005663,新規,0,2022-03-03,2022-03-03,株式会社ホワイトルーム,,株式会社,北海道,釧路郡釧路町,光和５丁目１４番地,,01,661,0880623,,,,,,,2022-03-03,1,,,,,ホワイトルーム,0
2211,8460101007147,新規,0,2022-03-03,2022-03-03,小宇宙スタイル株式会社,,株式会社,北海道,帯広市,西四条南２丁目１７番地,,01,207,0800014,,,,,,,2022-03-03,1,,,,,コスモスタイル,0
2213,8480005006887,新規,0,2022-03-03,2022-03-03,一般社団法人Ｍａｎａｋａ,,その他の設立登記法人,徳島県,板野郡北島町,太郎八須字外開２番地１１４,,36,402,7710202,,,,,,,2022-03-03,1,,,,,マナカ,0
2214,8490001010132,新規,0,2022-03-03,2022-03-03,桜輝トレード株式会社,,株式会社,高知県,安芸郡田野町,２７５３番地１,,39,303,7816410,,,,,,,2022-03-03,1,,,,,オウキトレード,0
2217,8500001024048,新規,0,2022-03-03,2022-03-03,株式会社エムズ,,株式会社,愛媛県,松山市,湊町３丁目５番地８,,38,201,7900012,,,,,,,2022-03-03,1,,,,,エムズ,0
2219,8500003002786,新規,0,2022-03-03,2022-03-03,合同会社ストロークプラス,,合同会社,愛媛県,松山市,三番町７丁目１０番地３,,38,201,7900003,,,,,,,2022-03-03,1,,,,,ストロークプラス,0
2227,9010001224910,新規,0,2022-03-03,2022-03-03,株式会社アイドリングトーク,,株式会社,東京都,中央区,銀座６丁目１３番９号ｂｉｚｃｕｂｅ,,13,102,1040061,,,,,,,2022-03-03,1,,,,,アイドリングトーク,0
2228,9010001224927,新規,0,2022-03-03,2022-03-03,株式会社Ａｒｉｓｅ,,株式会社,東京都,千代田区,神田淡路町１丁目９番地５,,13,101,1010063,,,,,,,2022-03-03,1,,,,,アライズ,0
2230,9010003037138,新規,0,2022-03-03,2022-03-03,Ｒａｉｎｂｏｗ　Ｃｏｍｍｕｎｉｔｙ合同会社,,合同会社,東京都,中央区,銀座１丁目２２番１１号銀座大竹ビジデンス２階,,13,102,1040061,,,,,,,2022-03-03,1,,,,,レインボーコミュニティ,0
2231,9010003037154,新規,0,2022-03-03,2022-03-03,リンクマネジメント合同会社,,合同会社,東京都,千代田区,麹町２丁目２番地２２ＡＣＮ半蔵門ビル２Ｆ,,13,101,1020083,,,,,,,2022-03-03,1,,,,,リンクマネジメント,0
2241,9010401165903,新規,0,2022-03-03,2022-03-03,株式会社高田商事,,株式会社,東京都,港区,南青山７丁目１０番５－１５０１号,,13,103,1070062,,,,,,,2022-03-03,1,,,,,タカダショウジ,0
2242,9010401165969,新規,0,2022-03-03,2022-03-03,株式会社幸コーポレーション,,株式会社,東京都,港区,南青山５丁目４番５１号,,13,103,1070062,,,,,,,2022-03-03,1,,,,,ユキコーポレーション,0
2243,9010501048529,新規,0,2022-03-03,2022-03-03,株式会社ＧＯＬＤＬＵＳＨ,,株式会社,東京都,台東区,東上野３丁目２３番５号,,13,106,1100015,,,,,,,2022-03-03,1,,,,,ゴールドラッシュ,0
2245,9010503006518,新規,0,2022-03-03,2022-03-03,ＰＲＡＧＡＴＩ＆ＰＲＡＴＩＧＹＡ合同会社,,合同会社,東京都,台東区,浅草橋１丁目９番１５号浅草橋大地ビル地下１階,,13,106,1110053,,,,,,,2022-03-03,1,,,,,プラガティアンドプラティギヤ,0
2251,9010801032785,新規,0,2022-03-03,2022-03-03,株式会社ｂａｃｋｇｒｏｕｎｄ,,株式会社,東京都,大田区,大森中３丁目１４番１－３号,,13,111,1430014,,,,,,,2022-03-03,1,,,,,バックグラウンド,0
2255,9010901050448,新規,0,2022-03-03,2022-03-03,ＫＳＳＡ株式会社,,株式会社,東京都,世田谷区,奥沢５丁目２０番１６号,,13,112,1580083,,,,,,,2022-03-03,1,,,,,ケイエスエスエイ,0
2256,9010901050464,新規,0,2022-03-03,2022-03-03,優桜株式会社,,株式会社,東京都,世田谷区,駒沢２丁目１番２号花芳ビル１階,,13,112,1540012,,,,,,,2022-03-03,1,,,,,ユウサクラ,0
2257,9010901050472,新規,0,2022-03-03,2022-03-03,株式会社ビス,,株式会社,東京都,世田谷区,玉川３丁目２９番２－３０５号,,13,112,1580094,,,,,,,2022-03-03,1,,,,,ビス,0
2258,9010903007198,新規,0,2022-03-03,2022-03-03,合同会社ｙｏｇａフロンティア,,合同会社,東京都,世田谷区,太子堂１丁目１番地１１号コーポ乗鞍７０２,,13,112,1540004,,,,,,,2022-03-03,1,,,,,ヨガフロンティア,0
2265,9011001145898,新規,0,2022-03-03,2022-03-03,株式会社ＯＦＦＩＣＥ憲真,,株式会社,東京都,渋谷区,代々木３丁目３１番５号,,13,113,1510053,,,,,,,2022-03-03,1,,,,,オフィスケンシン,0
2266,9011001145972,新規,0,2022-03-03,2022-03-03,株式会社ＫＯＤＥ・ＮＵＴＲＩＴＩＯＮＺ,,株式会社,東京都,渋谷区,神宮前６丁目２３番４号桑野ビル２Ｆ,,13,113,1500001,,,,,,,2022-03-03,1,,,,,コードニュートリション,0
2267,9011001146013,新規,0,2022-03-03,2022-03-03,株式会社ｎｕｎｕ－ｌａｂ,,株式会社,東京都,渋谷区,松濤１丁目２８番５号,,13,113,1500046,,,,,,,2022-03-03,1,,,,,ヌヌラボ,0
2268,9011005009406,新規,0,2022-03-03,2022-03-03,一般社団法人日本全国お国自慢の会,,その他の設立登記法人,東京都,渋谷区,宇田川町６－２０－４０４パラシオン渋谷,,13,113,1500042,,,,,,,2022-03-03,1,,,,,ニホンゼンコクオクニジマンノカイ,0
2271,9011101098014,新規,0,2022-03-03,2022-03-03,株式会社ワイズ,,株式会社,東京都,新宿区,大久保２丁目２５番２６号,,13,104,1690072,,,,,,,2022-03-03,1,,,,,ワイズ,0
2273,9011203003763,新規,0,2022-03-03,2022-03-03,合同会社ｓｐｕｔｎｉｋ　ｄｅｓｉｇｎ,,合同会社,東京都,中野区,東中野４丁目５番１０－１７０９号,,13,114,1640003,,,,,,,2022-03-03,1,,,,,スプートニックデザイン,0
2275,9011401024074,新規,0,2022-03-03,2022-03-03,株式会社Ｇ２Ｋ,,株式会社,東京都,板橋区,坂下２丁目１番２３－６２６号,,13,119,1740043,,,,,,,2022-03-03,1,,,,,ジーツーケイ,0
2277,9011403003588,新規,0,2022-03-03,2022-03-03,ｌｉｎｏ合同会社,,合同会社,東京都,板橋区,赤塚２丁目１０番４号笹井ビル１Ｆ,,13,119,1750092,,,,,,,2022-03-03,1,,,,,リノ,0
2278,9011501027803,新規,0,2022-03-03,2022-03-03,株式会社ザイマス,,株式会社,東京都,北区,赤羽台４丁目１７番１８－９２０号,,13,117,1150053,,,,,,,2022-03-03,1,,,,,ザイマス,0
2279,9011501027811,新規,0,2022-03-03,2022-03-03,原田株式会社,,株式会社,東京都,荒川区,西尾久７丁目１１番１２号２Ｆ－Ｂ室,,13,118,1160011,,,,,,,2022-03-03,1,,,,,ハラダ,0
2284,9011801040398,新規,0,2022-03-03,2022-03-03,株式会社建材用防炎剤,,株式会社,東京都,足立区,加賀１丁目６番９号,,13,121,1230861,,,,,,,2022-03-03,1,,,,,ケンザイヨウボウエンザイ,0
2285,9011801040415,新規,0,2022-03-03,2022-03-03,善一商事株式会社,,株式会社,東京都,葛飾区,東金町３丁目４１番７号,,13,122,1250041,,,,,,,2022-03-03,1,,,,,ゼンイチショウジ,0
2292,9012401038923,新規,0,2022-03-03,2022-03-03,株式会社ＡＱ,,株式会社,東京都,調布市,若葉町１丁目１６番地１９,,13,208,1820003,,,,,,,2022-03-03,1,,,,,アク,0
2294,9012403005260,新規,0,2022-03-03,2022-03-03,アイクラフト合同会社,,合同会社,東京都,府中市,若松町２丁目１１番地の１サンパレス府中２０６,,13,206,1830005,,,,,,,2022-03-03,1,,,,,アイクラフト,0
2295,9012701016959,新規,0,2022-03-03,2022-03-03,株式会社拓工,,株式会社,東京都,小平市,花小金井南町３丁目７番４８号,,13,211,1870003,,,,,,,2022-03-03,1,,,,,ヒラク,0
2296,9012801021438,新規,0,2022-03-03,2022-03-03,株式会社Ｆｌｅｅｔ,,株式会社,東京都,立川市,上砂町３丁目５０番３号橋本貸家１,,13,202,1900032,,,,,,,2022-03-03,1,,,,,フリート,0
2304,9020001145544,新規,0,2022-03-03,2022-03-03,横浜ウェルコ株式会社,,株式会社,神奈川県,横浜市神奈川区,泉町６番地６,,14,102,2210842,,,,,,,2022-03-03,1,,,,,ヨコハマウェルコ,0
2309,9020003021280,新規,0,2022-03-03,2022-03-03,合同会社ＣｏｕｃｈＷｈｅｅｌｓ,,合同会社,神奈川県,横浜市港北区,菊名３丁目３番２９号,,14,109,2220011,,,,,,,2022-03-03,1,,,,,カウチホイールズ,0
2313,9021003011445,新規,0,2022-03-03,2022-03-03,合同会社ＢＭＩ,,合同会社,神奈川県,厚木市,三田３丁目１７番２９号,,14,212,2430211,,,,,,,2022-03-03,1,,,,,ビーエムアイ,0
2316,9030001147127,新規,0,2022-03-03,2022-03-03,株式会社コダマグラニット,,株式会社,埼玉県,草加市,谷塚１丁目２３番１－３０４号,,11,221,3400028,,,,,,,2022-03-03,1,,,,,コダマグラニット,0
2318,9030003018961,新規,0,2022-03-03,2022-03-03,合同会社ＴＳエイト,,合同会社,埼玉県,坂戸市,大字塚越１２７９番地２,,11,239,3500209,,,,,,,2022-03-03,1,,,,,ティーエスエイト,0
2324,9040001122434,新規,0,2022-03-03,2022-03-03,株式会社グローアップ,,株式会社,千葉県,千葉市若葉区,下田町１３５６番地,,12,104,2650076,,,,,,,2022-03-03,1,,,,,グローアップ,0
2325,9040001122442,新規,0,2022-03-03,2022-03-03,株式会社ＨＧＣ情報セキュリティ研究所,,株式会社,千葉県,船橋市,前原西２丁目１４番２号津田沼駅前安田ビル別館２階,,12,204,2740825,,,,,,,2022-03-03,1,,,,,エイチジーシージョウホウセキュリティケンキュウジョ,0
2326,9040001122491,新規,0,2022-03-03,2022-03-03,株式会社成鴻商事,,株式会社,千葉県,市川市,市川南３丁目１０番２８号,,12,203,2720033,,,,,,,2022-03-03,1,,,,,セイコウショウジ,0
2328,9040003019595,新規,0,2022-03-03,2022-03-03,合同会社寛,,合同会社,千葉県,千葉市若葉区,千城台東２丁目３８番２５号,,12,104,2640002,,,,,,,2022-03-03,1,,,,,ヒロ,0
2334,9050001050709,新規,0,2022-03-03,2022-03-03,株式会社グローアップトノオカ,,株式会社,茨城県,那珂市,菅谷３２１８番地,,08,226,3110105,,,,,,,2022-03-03,1,,,,,グローアップトノオカ,0
2336,9060001034611,新規,0,2022-03-03,2022-03-03,株式会社ラクシミュ,,株式会社,栃木県,那須郡那須町,大字高久丙１１４７番地１０１,,09,407,3250302,,,,,,,2022-03-03,1,,,,,ラクシミュ,0
2337,9060001034628,新規,0,2022-03-03,2022-03-03,ＭＯＳＨＩＭＯＳＨＩ　ＭＹＡＮＭＡＲ株式会社,,株式会社,栃木県,宇都宮市,材木町４番１号矢口ビル２０１号室,,09,201,3200042,,,,,,,2022-03-03,1,,,,,モシモシミャンマー,0
2338,9070001038999,新規,0,2022-03-03,2022-03-03,株式会社マスダ設備,,株式会社,群馬県,みどり市,大間々町桐原５８１番地４,,10,212,3760102,,,,,,,2022-03-03,1,,,,,マスダセツビ,0
2339,9070001039007,新規,0,2022-03-03,2022-03-03,株式会社アフルメーション,,株式会社,群馬県,前橋市,後家町６９番地１,,10,201,3710834,,,,,,,2022-03-03,1,,,,,アフルメーション,0
2340,9080101023124,新規,0,2022-03-03,2022-03-03,株式会社長智建設,,株式会社,静岡県,三島市,萩６２３番地,,22,206,4110045,,,,,,,2022-03-03,1,,,,,ナガトモケンセツ,0
2341,9080101023140,新規,0,2022-03-03,2022-03-03,株式会社新生ＨＯＭＥ’Ｓ,,株式会社,静岡県,三島市,文教町２丁目９番５０号,,22,206,4110033,,,,,,,2022-03-03,1,,,,,シンセイホームズ,0
2344,9080401025654,新規,0,2022-03-03,2022-03-03,株式会社Ｇｒｏｏｖｙ　Ｌｉｆｅ,,株式会社,静岡県,浜松市西区,篠原町５６２番地の３６,,22,133,4310201,,,,,,,2022-03-03,1,,,,,グルーヴィーライフ,0
2345,9080405007434,新規,0,2022-03-03,2022-03-03,ＮＰＯ法人すてっぷ,,その他の設立登記法人,静岡県,浜松市北区,三方原町８２９番地の３,,22,135,4338105,,,,,,,2022-03-03,1,,,,,ステップ,0
2348,9090001017448,新規,0,2022-03-03,2022-03-03,株式会社Ｂ　Ｗａｔｅｒ,,株式会社,山梨県,甲府市,徳行３丁目６番３号ラフィーネ高野３０７,,19,201,4000047,,,,,,,2022-03-03,1,,,,,ビーウォーター,0
2354,9100003006430,新規,0,2022-03-03,2022-03-03,合同会社ＩＯ,,合同会社,長野県,安曇野市,穂高有明４０８２番地３,,20,220,3998301,,,,,,,2022-03-03,1,,,,,イオ,0
2363,9120005022829,新規,0,2022-03-03,2022-03-03,税理士法人ＴＫパートナーズ,,その他の設立登記法人,大阪府,大阪市北区,西天満２丁目２番３号,,27,127,5300047,,,,,,,2022-03-03,1,,,,,ティーケーパートナーズ,0
2368,9130001071267,新規,0,2022-03-03,2022-03-03,株式会社稜美,,株式会社,京都府,向日市,鶏冠井町馬司８－５,,26,208,6170004,,,,,,,2022-03-03,1,,,,,リョウビ,0
2373,9140001125096,新規,0,2022-03-03,2022-03-03,株式会社ＪＰ,,株式会社,兵庫県,神戸市中央区,北長狭通３丁目８番３号（１Ｆ）,,28,110,6500012,,,,,,,2022-03-03,1,,,,,ジェイピー,0
2375,9140003017408,新規,0,2022-03-03,2022-03-03,合同会社ジェイエスティー,,合同会社,兵庫県,神戸市垂水区,舞子坂３丁目２７番４８－１１０号,,28,108,6550044,,,,,,,2022-03-03,1,,,,,ジェイエスティー,0
2376,9140003017416,新規,0,2022-03-03,2022-03-03,合同会社ｍａｋｅ,,合同会社,兵庫県,神戸市西区,北別府１丁目１３番地の１グランシャリオ西神戸Ｂ２０２号,,28,111,6512117,,,,,,,2022-03-03,1,,,,,エムエーケイイー,0
2380,9150005009377,新規,0,2022-03-03,2022-03-03,一般社団法人優,,その他の設立登記法人,奈良県,奈良市,学園朝日元町１丁目５０７番地の６,,29,201,6310015,,,,,,,2022-03-03,1,,,,,ユウ,0
2382,9160005011051,新規,0,2022-03-03,2022-03-03,医療法人Ｒ＆Ｓ,,その他の設立登記法人,滋賀県,大津市,雄琴２丁目３番３７号,,25,201,5200101,,,,,,,2022-03-03,1,,,,,アールアンドエス,0
2383,9170001017002,新規,0,2022-03-03,2022-03-03,株式会社キャリアアイ,,株式会社,和歌山県,和歌山市,十一番丁１０番地ジャムビル３階Ａ,,30,201,6408159,,,,,,,2022-03-03,1,,,,,キャリアアイ,0
2388,9180001150157,新規,0,2022-03-03,2022-03-03,株式会社フィットネスライフ,,株式会社,愛知県,名古屋市中村区,乾出町２丁目２４番地,,23,105,4530832,,,,,,,2022-03-03,1,,,,,フィットネスライフ,0
2389,9180001150165,新規,0,2022-03-03,2022-03-03,株式会社インボルブズ,,株式会社,愛知県,名古屋市緑区,大根山２丁目２０３番地,,23,114,4598007,,,,,,,2022-03-03,1,,,,,インボルブズ,0
2390,9180001150280,新規,0,2022-03-03,2022-03-03,株式会社ブラウニー,,株式会社,愛知県,名古屋市天白区,平針３丁目２２１１番地,,23,116,4680011,,,,,,,2022-03-03,1,,,,,ブラウニー,0
2393,9190001029185,新規,0,2022-03-03,2022-03-03,株式会社Ｕｍｙｕｒａ．,,株式会社,三重県,志摩市,浜島町浜島１０２２番地５,,24,215,5170404,,,,,,,2022-03-03,1,,,,,ウミューラドット,0
2394,9190001029193,新規,0,2022-03-03,2022-03-03,株式会社サンエーコーポレーション,,株式会社,三重県,桑名市,常盤町５１番地５,,24,205,5110062,,,,,,,2022-03-03,1,,,,,サンエーコーポレーション,0
2395,9190001029202,新規,0,2022-03-03,2022-03-03,株式会社高木産業,00125864,株式会社,三重県,伊勢市,旭町３６番地２,,24,203,5160045,,,,,,,2022-03-03,1,,,,,タカギサンギョウ,0
2396,9190003003915,新規,0,2022-03-03,2022-03-03,結実惠合同会社,,合同会社,三重県,鈴鹿市,国分町６０１番地の４,,24,207,5130013,,,,,,,2022-03-03,1,,,,,ユウミエ,0
2398,9200001039802,新規,0,2022-03-03,2022-03-03,池田技建工業株式会社,,株式会社,岐阜県,不破郡関ケ原町,大字野上１３００番地の１,,21,362,5031532,,,,,,,2022-03-03,1,,,,,イケダギケンコウギョウ,0
2399,9200001039810,新規,0,2022-03-03,2022-03-03,株式会社滝沢建創,,株式会社,岐阜県,多治見市,白山町１丁目２３１番地,,21,204,5070038,,,,,,,2022-03-03,1,,,,,タキザワケンソウ,0
2404,9230001019264,新規,0,2022-03-03,2022-03-03,株式会社ロックワールド,,株式会社,富山県,富山市,黒瀬４９６番地２,,16,201,9398213,,,,,,,2022-03-03,1,,,,,ロックワールド,0
2405,9230003001815,新規,0,2022-03-03,2022-03-03,ＡＣＥ　Ｅｄｕｃａｔｉｏｎ合同会社,,合同会社,富山県,富山市,中田１丁目５－２０,,16,201,9318453,,,,,,,2022-03-03,1,,,,,エースエデュケーション,0
2410,9240001059400,新規,0,2022-03-03,2022-03-03,島谷設備株式会社,,株式会社,広島県,尾道市,向東町３５１１番地７,,34,205,7220062,,,,,,,2022-03-03,1,,,,,シマタニセツビ,0
2411,9240001059417,新規,0,2022-03-03,2022-03-03,株式会社アシスト会計,,株式会社,広島県,広島市中区,八丁堀１２－２２築地ビル５０３,,34,101,7300013,,,,,,,2022-03-03,1,,,,,アシストカイケイ,0
2412,9240001059433,新規,0,2022-03-03,2022-03-03,株式会社広島東珍康,,株式会社,広島県,広島市中区,十日市町１丁目３番２１号,,34,101,7300805,,,,,,,2022-03-03,1,,,,,ヒロシマトンチンカン,0
2415,9240003005534,新規,0,2022-03-03,2022-03-03,合同会社みこと,,合同会社,広島県,広島市中区,小町９番５号,,34,101,7300041,,,,,,,2022-03-03,1,,,,,ミコト,0
2416,9240005015341,新規,0,2022-03-03,2022-03-03,一般社団法人ワンハート制作委員会,,その他の設立登記法人,広島県,東広島市,八本松東３丁目１９番５号,,34,212,7390142,,,,,,,2022-03-03,1,,,,,ワンハートセイサクイインカイ,0
2417,9250001019444,新規,0,2022-03-03,2022-03-03,株式会社落合住建,,株式会社,山口県,山口市,嘉川５０７９番地,,35,203,7540897,,,,,,,2022-03-03,1,,,,,オチアイジュウケン,0
2420,9260001036579,新規,0,2022-03-03,2022-03-03,株式会社ＺｅＮ,,株式会社,岡山県,倉敷市,白楽町７４番地１,,33,202,7100824,,,,,,,2022-03-03,1,,,,,ゼン,0
2421,9260001036595,新規,0,2022-03-03,2022-03-03,株式会社リョーシン,,株式会社,岡山県,総社市,久代３５７７番地１０,,33,208,7101201,,,,,,,2022-03-03,1,,,,,リョーシン,0
2431,9280001008650,新規,0,2022-03-03,2022-03-03,株式会社悠新仮設,,株式会社,島根県,大田市,長久町長久ロ３０２番地１４,,32,205,6940041,,,,,,,2022-03-03,1,,,,,ユウシンカセツ,0
2434,9280003001587,新規,0,2022-03-03,2022-03-03,オケラ合同会社,,合同会社,島根県,松江市,北田町１１番地３レオネクストアテナ２－２０９,,32,201,6900883,,,,,,,2022-03-03,1,,,,,オケラ,0
2440,9290001096645,新規,0,2022-03-03,2022-03-03,株式会社谷口電気,,株式会社,福岡県,糸島市,志摩師吉４８１番地１４,,40,230,8191314,,,,,,,2022-03-03,1,,,,,タニグチデンキ,0
2442,9290003012220,新規,0,2022-03-03,2022-03-03,ＳＩＴＳ合同会社,,合同会社,福岡県,糟屋郡新宮町,夜臼４丁目７－１４,,40,345,8110110,,,,,,,2022-03-03,1,,,,,エスアイティエス,0
2446,9310003004297,新規,0,2022-03-03,2022-03-03,合同会社ここいろ,,合同会社,長崎県,長崎市,木鉢町２丁目２２８番地１３,,42,201,8500076,,,,,,,2022-03-03,1,,,,,ココイロ,0
2449,9330001029492,新規,0,2022-03-03,2022-03-03,三華空調株式会社,,株式会社,熊本県,宇城市,松橋町両仲間３０８番地１１,,43,213,8690533,,,,,,,2022-03-03,1,,,,,サンカクウチョウ,0
2453,9340001024542,新規,0,2022-03-03,2022-03-03,マルヤマ株式会社,,株式会社,鹿児島県,姶良郡湧水町,川西８１７番地１,,46,452,8996104,,,,,,,2022-03-03,1,,,,,マルヤマ,0
2454,9340003003726,新規,0,2022-03-03,2022-03-03,Ｅｔｈｎｏ合同会社,,合同会社,鹿児島県,鹿児島市,上之園町２４－８甲南ビルＭ２Ｆ,,46,201,8900052,,,,,,,2022-03-03,1,,,,,エスノ,0
2458,9360003011842,新規,0,2022-03-03,2022-03-03,合同会社志,,合同会社,沖縄県,沖縄市,大里２丁目３３番地１,,47,211,9042163,,,,,,,2022-03-03,1,,,,,ココロザシ,0
2459,9370001048274,新規,0,2022-03-03,2022-03-03,株式会社ヤマテツ,,株式会社,宮城県,多賀城市,城南１丁目１番６号,,04,209,9850865,,,,,,,2022-03-03,1,,,,,ヤマテツ,0
2464,9390001016808,新規,0,2022-03-03,2022-03-03,株式会社智堂技建,,株式会社,山形県,鶴岡市,美咲町１５番３９号,,06,203,9970857,,,,,,,2022-03-03,1,,,,,チドウギケン,0
2465,9390001016816,新規,0,2022-03-03,2022-03-03,まきのファーム株式会社,,株式会社,山形県,西村山郡河北町,大字溝延字東４６２番地,,06,321,9993522,,,,,,,2022-03-03,1,,,,,マキノファーム,0
2468,9410001013109,新規,0,2022-03-03,2022-03-03,株式会社ゆり産業,,株式会社,秋田県,湯沢市,清水町１丁目１番３５号,,05,207,0120033,,,,,,,2022-03-03,1,,,,,ユリサンギョウ,0
2469,9410005006455,新規,0,2022-03-03,2022-03-03,秋田外国人材協同組合,,その他の設立登記法人,秋田県,秋田市,八橋大畑２丁目３番１号,,05,201,0100962,,,,,,,2022-03-03,1,,,,,アキタガイコクジンザイ,0
2474,9430001086111,新規,0,2022-03-03,2022-03-03,株式会社高野漁業,00125860,株式会社,北海道,小樽市,蘭島１丁目１番１１号,,01,203,0482562,,,,,,,2022-03-03,1,,,,,タカノギョギョウ,0
2477,9450005004331,新規,0,2022-03-03,2022-03-03,なよろ地域づくり事業協同組合,,その他の設立登記法人,北海道,名寄市,大通南３丁目１４番地,,01,221,0960010,,,,,,,2022-03-03,1,,,,,ナヨロチイキヅクリ,0
2478,9460001005662,新規,0,2022-03-03,2022-03-03,Ｔｅａｍ　ｄｙｎａｍｉｃｓ株式会社,,株式会社,北海道,釧路市,大楽毛二線１７２番地６６,,01,206,0840917,,,,,,,2022-03-03,1,,,,,チームダイナミクス,0
2479,9460003000884,新規,0,2022-03-03,2022-03-03,合同会社スリーピース,,合同会社,北海道,釧路郡釧路町,桂木５丁目１番地,,01,661,0880621,,,,,,,2022-03-03,1,,,,,スリーピース,0
2480,9460103001428,新規,0,2022-03-03,2022-03-03,合同会社Ａｎｙ,,合同会社,北海道,帯広市,西四条南４丁目２１番,,01,207,0800014,,,,,,,2022-03-03,1,,,,,アニー,0
2483,9470001018985,新規,0,2022-03-03,2022-03-03,濱田屋アプリケーションズ株式会社,,株式会社,香川県,高松市,桜町１丁目３番１号,,37,201,7600074,,,,,,,2022-03-03,1,,,,,ハマダヤアプリケーションズ,0
2490,9500001024030,新規,0,2022-03-03,2022-03-03,西瀬戸シップマネージメント株式会社,,株式会社,愛媛県,今治市,北宝来町２丁目２番地１,,38,202,7940028,,,,,,,2022-03-03,1,,,,,ニシセトシップマネージメント,0
