sequenceNumber,corporateNumber,process,correct,updateDate,changeDate,name,nameImageId,kind,prefectureName,cityName,streetNumber,addressImageId,prefectureCode,cityCode,postCode,addressOutside,addressOutsideImageId,closeDate,closeCause,successorCorporateNumber,changeCause,assignmentDate,latest,enName,enPrefectureName,enCityName,enAddressOutside,furigana,hihyoji
13,1010001226055,新規,0,2022-04-28,2022-04-28,株式会社ＢＥＬＬＥＦＩＮＥ,,株式会社,東京都,千代田区,内神田２丁目８番地４,,13,101,1010047,,,,,,,2022-04-28,1,,,,,ベルファイン,0
14,1010001226162,新規,0,2022-04-28,2022-04-28,株式会社ＬｕｃａｓＬａｎｄ,,株式会社,東京都,千代田区,神田小川町３丁目２８番地５,,13,101,1010052,,,,,,,2022-04-28,1,,,,,ルーカスランド,0
15,1010001226195,新規,0,2022-04-28,2022-04-28,ｅｃｂｒａｎｄ株式会社,,株式会社,東京都,中央区,京橋１丁目１－５セントラルビル２階,,13,102,1040031,,,,,,,2022-04-28,1,,,,,イーシーブランド,0
16,1010001226212,新規,0,2022-04-28,2022-04-28,株式会社ユナイトスポーツ,,株式会社,東京都,千代田区,平河町１丁目３番６号,,13,101,1020093,,,,,,,2022-04-28,1,,,,,ユナイトスポーツ,0
17,1010003037558,新規,0,2022-04-28,2022-04-28,メラシス合同会社,,合同会社,東京都,千代田区,内神田２丁目２番６号５階あすな会計事務所内,,13,101,1010047,,,,,,,2022-04-28,1,,,,,メラシス,0
18,1010003037582,新規,0,2022-04-28,2022-04-28,合同会社パディフ,,合同会社,東京都,文京区,千駄木３丁目２番８－１０２号,,13,105,1130022,,,,,,,2022-04-28,1,,,,,パディフ,0
25,1010401166867,新規,0,2022-04-28,2022-04-28,Ｓｏｇｈｅｎ株式会社,,株式会社,東京都,港区,虎ノ門１丁目１７番１号,,13,103,1050001,,,,,,,2022-04-28,1,,,,,ソウゲン,0
31,1010403027506,新規,0,2022-04-28,2022-04-28,合同会社インデペンデンス,,合同会社,東京都,港区,南青山２丁目２番１５号,,13,103,1070062,,,,,,,2022-04-28,1,,,,,インデペンデンス,0
32,1010405020921,新規,0,2022-04-28,2022-04-28,一般社団法人城組,,その他の設立登記法人,東京都,港区,南青山２丁目２番１５号ウィン青山９４２,,13,103,1070062,,,,,,,2022-04-28,1,,,,,シログミ,0
40,1010903007354,新規,0,2022-04-28,2022-04-28,合同会社ＨＡＹＡ,,合同会社,東京都,世田谷区,祖師谷３丁目４７番地２６号,,13,112,1570072,,,,,,,2022-04-28,1,,,,,ハヤ,0
41,1010905004309,新規,0,2022-04-28,2022-04-28,福島太陽光発電所一般社団法人,,その他の設立登記法人,東京都,世田谷区,経堂５丁目２０番７号,,13,112,1560052,,,,,,,2022-04-28,1,,,,,フクシマタイヨウコウハツデンショ,0
44,1011001147010,新規,0,2022-04-28,2022-04-28,株式会社ｂＶ,,株式会社,東京都,渋谷区,神宮前２丁目２９－１ジェントルエア神宮前８０１,,13,113,1500001,,,,,,,2022-04-28,1,,,,,ビーヴイ,0
45,1011001147217,新規,0,2022-04-28,2022-04-28,ｍｓ‐ｃｏｎｓｅｎｔ株式会社,,株式会社,東京都,渋谷区,大山町１８番２３号コートアネックス大山町３０１,,13,113,1510065,,,,,,,2022-04-28,1,,,,,エムズコンセント,0
47,1011003014613,新規,0,2022-04-28,2022-04-28,Ｈｏｒｉｚｏｎ　Ｒｅｃｒｕｉｔｍｅｎｔ合同会社,,合同会社,東京都,渋谷区,代々木１丁目３０－１５天翔代々木ビル,,13,113,1510053,,,,,,,2022-04-28,1,,,,,ホライゾンリクルートメント,0
48,1011003014621,新規,0,2022-04-28,2022-04-28,Ｈｉｇｈ　Ｈｏｐｅｓ合同会社,,合同会社,東京都,渋谷区,渋谷２丁目１９―１５宮益坂ビルディング６０９,,13,113,1500002,,,,,,,2022-04-28,1,,,,,ハイホープス,0
52,1011103011709,新規,0,2022-04-28,2022-04-28,ＣＨＩＥＮ‐ＹＥＮ合同会社,,合同会社,東京都,新宿区,上落合３丁目７番１３号ペアパレス落合１０３,,13,104,1610034,,,,,,,2022-04-28,1,,,,,チェンイエン,0
62,1012305002009,新規,0,2022-04-28,2022-04-28,一般社団法人ディライトハウス,,その他の設立登記法人,東京都,町田市,本町田１３６５番地１４,,13,209,1940032,,,,,,,2022-04-28,1,,,,,ディライトハウス,0
66,1012403005342,新規,0,2022-04-28,2022-04-28,光宝合同会社,,合同会社,東京都,調布市,布田２丁目２番地６調布マンション２０５,,13,208,1820024,,,,,,,2022-04-28,1,,,,,コウホウ,0
77,1020001146310,新規,0,2022-04-28,2022-04-28,株式会社Ｓｙｍｐａｔｈｙ,,株式会社,神奈川県,横浜市西区,老松町２４番地－２０１号,,14,103,2200032,,,,,,,2022-04-28,1,,,,,シンパシー,0
78,1020001146335,新規,0,2022-04-28,2022-04-28,株式会社Ａｙａｍｅｔｏｉｕｈａｎａ,,株式会社,神奈川県,横浜市鶴見区,下野谷町１丁目１３番地１日商岩井鶴見マンション６１６号室,,14,101,2300047,,,,,,,2022-04-28,1,,,,,アヤメトイウハナ,0
86,1021001075813,新規,0,2022-04-28,2022-04-28,株式会社ユーディフル,,株式会社,神奈川県,平塚市,袖ケ浜８番５号袖ケ浜アパート１－４０３,,14,203,2540813,,,,,,,2022-04-28,1,,,,,ユーディフル,0
87,1021001075821,新規,0,2022-04-28,2022-04-28,株式会社さくらアセットキーパー,,株式会社,神奈川県,大和市,中央林間西５丁目９番９号,,14,213,2420008,,,,,,,2022-04-28,1,,,,,,0
97,1030001147935,新規,0,2022-04-28,2022-04-28,株式会社Ｌｏｃｋ　ｗｏｒｋｓ,,株式会社,埼玉県,川口市,芝下３丁目２４番１号,,11,203,3330848,,,,,,,2022-04-28,1,,,,,ロックワークス,0
98,1030001147968,新規,0,2022-04-28,2022-04-28,株式会社ミスズ,,株式会社,埼玉県,越谷市,レイクタウン５丁目１３番１０号,,11,222,3430828,,,,,,,2022-04-28,1,,,,,ミスズ,0
99,1030001147976,新規,0,2022-04-28,2022-04-28,株式会社ナレッジ,,株式会社,埼玉県,富士見市,ふじみ野東１丁目４－１,,11,235,3540036,,,,,,,2022-04-28,1,,,,,ナレッジ,0
100,1030001147992,新規,0,2022-04-28,2022-04-28,株式会社オレンジデイズ,,株式会社,埼玉県,所沢市,緑町１丁目４番１－７１３号,,11,208,3591111,,,,,,,2022-04-28,1,,,,,オレンジデイズ,0
106,1030003019323,新規,0,2022-04-28,2022-04-28,アンビション合同会社,,合同会社,埼玉県,川口市,大字安行領根岸１２８１番地３１７号,,11,203,3330834,,,,,,,2022-04-28,1,,,,,アンビション,0
107,1030005020849,新規,0,2022-04-28,2022-04-28,一般社団法人日本臨床・分析中毒学会,,その他の設立登記法人,埼玉県,入間郡毛呂山町,大字毛呂本郷３８埼玉医科大学病院臨床中毒センター内,,11,326,3500451,,,,,,,2022-04-28,1,,,,,ニホンリンショウブンセキチュウドクガッカイ,0
121,1040003019909,新規,0,2022-04-28,2022-04-28,合同会社テラグランデ,,合同会社,千葉県,浦安市,当代島３丁目６番７号Ｍ’ｓＣＯＵＲＴ１０６,,12,227,2790001,,,,,,,2022-04-28,1,,,,,テラグランデ,0
122,1050001051020,新規,0,2022-04-28,2022-04-28,株式会社ＤＡＮＫ,,株式会社,茨城県,神栖市,神栖４丁目６番２３－１号ｅｃｏ・ｃａｓａ・ｃｕｂｅ神栖四丁目Ｂ,,08,232,3140143,,,,,,,2022-04-28,1,,,,,ダンク,0
125,1060001034817,新規,0,2022-04-28,2022-04-28,高心工業株式会社,00126441,株式会社,栃木県,小山市,大字上石塚７９７番地５,,09,208,3230063,,,,,,,2022-04-28,1,,,,,,0
126,1060001034825,新規,0,2022-04-28,2022-04-28,株式会社ワークス,,株式会社,栃木県,宇都宮市,富士見が丘２丁目１８番３号,,09,201,3200011,,,,,,,2022-04-28,1,,,,,ワークス,0
129,1080003002794,新規,0,2022-04-28,2022-04-28,合同会社プロジェクトＣ,,合同会社,静岡県,静岡市清水区,楠３１６番地の２,,22,103,4240881,,,,,,,2022-04-28,1,,,,,プロジェクトシー,0
133,1080401025777,新規,0,2022-04-28,2022-04-28,株式会社エスエー地質,,株式会社,静岡県,浜松市中区,旭町６－１一条タワー１５０２,,22,131,4300927,,,,,,,2022-04-28,1,,,,,,0
147,1120001245440,新規,0,2022-04-28,2022-04-28,ＩＴＯＳＨＯ株式会社,,株式会社,大阪府,寝屋川市,上神田２丁目４番８号,,27,215,5720052,,,,,,,2022-04-28,1,,,,,イトーショー,0
148,1120001245548,新規,0,2022-04-28,2022-04-28,株式会社ＧｏｏｄＰｌａｎＣｏｎｓｕｌｔｉｎｇ,,株式会社,大阪府,大阪市北区,曾根崎２丁目８番５号,,27,127,5300057,,,,,,,2022-04-28,1,,,,,グッドプランコンサルティング,0
149,1120001245580,新規,0,2022-04-28,2022-04-28,平野町株式会社,,株式会社,大阪府,大阪市中央区,平野町１丁目８番７号,,27,128,5410046,,,,,,,2022-04-28,1,,,,,ヒラノマチ,0
164,1120903004126,新規,0,2022-04-28,2022-04-28,合同会社クラウンライズ,,合同会社,大阪府,吹田市,山田西１丁目１番１６－２号,,27,205,5650824,,,,,,,2022-04-28,1,,,,,クラウンライズ,0
179,1140001125797,新規,0,2022-04-28,2022-04-28,株式会社ＴｅａｒＥｘｏ,,株式会社,兵庫県,神戸市灘区,六甲台町１－１,,28,102,6570013,,,,,,,2022-04-28,1,,,,,ティアエクソ,0
185,1180001151071,新規,0,2022-04-28,2022-04-28,ＮＡＧＡＴＡ　ＡＧＥＮＴ株式会社,,株式会社,愛知県,津島市,東柳原町５丁目５番地１,,23,208,4960045,,,,,,,2022-04-28,1,,,,,ナガタエージェント,0
191,1180003023772,新規,0,2022-04-28,2022-04-28,合同会社Ｓ空調,,合同会社,愛知県,知多郡武豊町,緑台６番地の５６,,23,447,4702300,,,,,,,2022-04-28,1,,,,,エスクウチョウ,0
204,1220001024818,新規,0,2022-04-28,2022-04-28,株式会社ヒグチＨＤ,,株式会社,石川県,加賀市,大聖寺敷地ト１７番地２,,17,206,9220011,,,,,,,2022-04-28,1,,,,,ヒグチエイチディー,0
210,1230005009228,新規,0,2022-04-28,2022-04-28,一般社団法人ＫＵ・ＹＯＵ,,その他の設立登記法人,富山県,富山市,山田小島２１９６番地１,,16,201,9302123,,,,,,,2022-04-28,1,,,,,クヨウ,0
231,1290001097378,新規,0,2022-04-28,2022-04-28,株式会社五常,,株式会社,福岡県,福岡市早良区,田隈３丁目２４番２号,,40,137,8140174,,,,,,,2022-04-28,1,,,,,ゴジョウ,0
240,1330003009343,新規,0,2022-04-28,2022-04-28,合同会社ＮＣＳ,,合同会社,熊本県,熊本市北区,梶尾町１７９０－６,,43,105,8615512,,,,,,,2022-04-28,1,,,,,エヌシーエス,0
264,1390005008957,新規,0,2022-04-28,2022-04-28,医療法人眞恵会,,その他の設立登記法人,山形県,山形市,桧町３丁目７番３０号,,06,201,9900813,,,,,,,2022-04-28,1,,,,,マケイカイ,0
268,1420001017826,新規,0,2022-04-28,2022-04-28,グリーンエッヂ株式会社,,株式会社,青森県,平川市,新山岡部１０１番地１,,02,210,0360231,,,,,,,2022-04-28,1,,,,,グリーンエッヂ,0
274,1470005006440,新規,0,2022-04-28,2022-04-28,一般社団法人坂出市観光協会,,その他の設立登記法人,香川県,坂出市,元町１丁目１番１号,,37,203,7620045,,,,,,,2022-04-28,1,,,,,サカイデシカンコウキョウカイ,0
277,1490005006843,新規,0,2022-04-28,2022-04-28,行政書士法人オールウィン法務事務所,,その他の設立登記法人,高知県,高知市,はりまや町１丁目５番２８号,,39,201,7800822,,,,,,,2022-04-28,1,,,,,オールウィンホウムジムショ,0
280,1700150108091,新規,0,2022-04-28,2022-04-18,東京沖縄芸能実演家連盟,,その他,東京都,杉並区,善福寺２丁目２４－２６パークサイド善福寺１０８,,13,115,1670041,,,,,,,2022-04-18,1,,,,,トウキヨウオキナワゲイノウジツエンカレンメイ,0
281,1700150108455,新規,0,2022-04-28,2022-04-28,Ｋａｖｉｓｈａｒａ　Ｍｏｔｏｒｓ　ａｎｄ　Ｋａｖｉｓｈａｒａ　Ｓｈｏｅ　Ｐａｌａｃｅ,,外国会社等,千葉県,四街道市,大日８３６番地Ｙ,,12,228,2840001,スリランカ民主社会主義共和国、アヌラダプラ、サマギプラ、マタレジャンクション、１－４、４ｔｈレーン,,,,,,2022-04-28,1,,,,,カビシヤラモータースアンドカビシヤラシユーパレス,0
289,2010001226161,新規,0,2022-04-28,2022-04-28,日本松普機電株式会社,,株式会社,東京都,中央区,日本橋蛎殻町１丁目３番５号共同ビル２階２３号,,13,102,1030014,,,,,,,2022-04-28,1,,,,,ニホンマツフキデン,0
290,2010001226203,新規,0,2022-04-28,2022-04-28,双日ＩＰ　Ｉｎｖｅｓｔｍｅｎｔ株式会社,,株式会社,東京都,千代田区,内幸町２丁目１番１号,,13,101,1000011,,,,,,,2022-04-28,1,,,,,ソウジツアイピーインベストメント,0
291,2010001226228,新規,0,2022-04-28,2022-04-28,株式会社ＲＥＢＧＬＯマーケティング,,株式会社,東京都,千代田区,丸の内２丁目３番２号郵船ビルディング１階,,13,101,1000005,,,,,,,2022-04-28,1,,,,,リブグロマーケティング,0
292,2010001226236,新規,0,2022-04-28,2022-04-28,株式会社トヨムスヒ,,株式会社,東京都,中央区,銀座７丁目７番９号山市ビル１Ｆ,,13,102,1040061,,,,,,,2022-04-28,1,,,,,トヨムスヒ,0
293,2010003037417,新規,0,2022-04-28,2022-04-28,ｓｏｌｖｅコンサルティング合同会社,,合同会社,東京都,中央区,銀座１丁目２２番１１号２階,,13,102,1040061,,,,,,,2022-04-28,1,,,,,ソルブコンサルティング,0
294,2010003037557,新規,0,2022-04-28,2022-04-28,合同会社エス・ホテルオペレーションズ飛騨高山,,合同会社,東京都,千代田区,丸の内１丁目８番３号,,13,101,1000005,,,,,,,2022-04-28,1,,,,,エスホテルオペレーションズヒダタカヤマ,0
295,2010003037573,新規,0,2022-04-28,2022-04-28,合同会社Ｃｉｐｈｅｒ‐ＤＣ,,合同会社,東京都,中央区,八重洲２丁目５番１２号,,13,102,1040028,,,,,,,2022-04-28,1,,,,,サイファーディーシー,0
302,2010403027562,新規,0,2022-04-28,2022-04-28,ＲＣＳ　Ｊａｐａｎ合同会社,,合同会社,東京都,港区,港南１丁目２番７０号,,13,103,1080075,,,,,,,2022-04-28,1,,,,,アールシーエスジャパン,0
306,2010701042569,新規,0,2022-04-28,2022-04-28,株式会社エンシマ,,株式会社,東京都,品川区,東大井１丁目９番３２－２０９号,,13,109,1400011,,,,,,,2022-04-28,1,,,,,エンシマ,0
313,2010901050784,新規,0,2022-04-28,2022-04-28,株式会社ＯＮＥ　ＧＲＯＵＰ,,株式会社,東京都,世田谷区,奥沢６丁目３２番８号リーザハヤトミ１Ｆ,,13,112,1580083,,,,,,,2022-04-28,1,,,,,ワングループ,0
314,2010903007353,新規,0,2022-04-28,2022-04-28,三量合同会社,,合同会社,東京都,世田谷区,世田谷１丁目４１番２号,,13,112,1540017,,,,,,,2022-04-28,1,,,,,サンリョウ,0
319,2011005009552,新規,0,2022-04-28,2022-04-28,一般財団法人日本みらいの夢財団,,その他の設立登記法人,東京都,渋谷区,神宮前３丁目１４－１７神宮苑ビル２０１,,13,113,1500001,,,,,,,2022-04-28,1,,,,,ニホンミライノユメザイダン,0
324,2011103011708,新規,0,2022-04-28,2022-04-28,ＭＴ合同会社,,合同会社,東京都,新宿区,北新宿４丁目１番１７号,,13,104,1690074,,,,,,,2022-04-28,1,,,,,エムティ,0
327,2011201023794,新規,0,2022-04-28,2022-04-28,株式会社ＡＢメディカル,,株式会社,東京都,中野区,本町４丁目３８番１１号,,13,114,1640012,,,,,,,2022-04-28,1,,,,,エービーメディカル,0
328,2011401024196,新規,0,2022-04-28,2022-04-28,株式会社ＮＥＴ　ＣＩＴＹ　ＡＧＥＮＴ,,株式会社,東京都,板橋区,上板橋１丁目１９番２１号,,13,119,1740076,,,,,,,2022-04-28,1,,,,,ネットシティーエイジェント,0
339,2013303006132,新規,0,2022-04-28,2022-04-28,アンテック合同会社,,合同会社,東京都,豊島区,南長崎３丁目２２番９号ダイワコーポ・ＩＩ２０４号,00126430,13,116,1710052,,,,,,,2022-04-28,1,,,,,アンテック,0
346,2020003021709,新規,0,2022-04-28,2022-04-28,ｉｎｔｒｏｄｕｃｉｎｇ合同会社,,合同会社,神奈川県,横浜市旭区,鶴ケ峰本町３丁目２２－１６,,14,112,2410021,,,,,,,2022-04-28,1,,,,,イントロデューシング,0
348,2021001075770,新規,0,2022-04-28,2022-04-28,ｃｏｒｅ株式会社,,株式会社,神奈川県,横須賀市,長坂３丁目２４番４号,,14,201,2400101,,,,,,,2022-04-28,1,,,,,コア,0
349,2021001075829,新規,0,2022-04-28,2022-04-28,株式会社秀栄塗建,,株式会社,神奈川県,横須賀市,大矢部２丁目９番１８号大矢部共同ビル２０２,,14,201,2380024,,,,,,,2022-04-28,1,,,,,シュウエイトケン,0
357,2021005012514,新規,0,2022-04-28,2022-04-28,特定非営利活動法人日本唾液ケア研究会,,その他の設立登記法人,神奈川県,横須賀市,稲岡町８２番地６,,14,201,2380003,,,,,,,2022-04-28,1,,,,,ニホンダエキケアケンキュウカイ,0
363,2030001147892,新規,0,2022-04-28,2022-04-28,ローズウッド株式会社,,株式会社,埼玉県,さいたま市中央区,大戸５丁目２４番２－１０１号,,11,105,3380012,,,,,,,2022-04-28,1,,,,,ローズウッド,0
364,2030001147967,新規,0,2022-04-28,2022-04-28,ＭｅｅＦａ株式会社,,株式会社,埼玉県,北足立郡伊奈町,栄４丁目１１９－１イズムユウＣ２０４号室,,11,301,3620805,,,,,,,2022-04-28,1,,,,,ミーファ,0
378,2040005021589,新規,0,2022-04-28,2022-04-28,一般社団法人ゆりかご,,その他の設立登記法人,千葉県,柏市,大室１１３１－５０,,12,217,2770813,,,,,,,2022-04-28,1,,,,,ユリカゴ,0
384,2070003004469,新規,0,2022-04-28,2022-04-28,合同会社２ｎｄ,,合同会社,群馬県,みどり市,笠懸町阿左美８９５番地,,10,212,3792311,,,,,,,2022-04-28,1,,,,,セカンド,0
387,2080003002793,新規,0,2022-04-28,2022-04-28,合同会社ＳＫＲ,,合同会社,静岡県,静岡市駿河区,馬渕１丁目１３番３２－３号,,22,102,4228063,,,,,,,2022-04-28,1,,,,,エスケーアール,0
389,2080103002578,新規,0,2022-04-28,2022-04-28,合同会社Ｉｎｓｉｄｅ　Ｍａｇｉｃ,,合同会社,静岡県,富士宮市,小泉６９３番地の１,,22,207,4180022,,,,,,,2022-04-28,1,,,,,インサイドマジック,0
403,2120001245448,新規,0,2022-04-28,2022-04-28,株式会社幸本舗,,株式会社,大阪府,寝屋川市,日之出町１２－７,,27,215,5720835,,,,,,,2022-04-28,1,,,,,ユキホンポ,0
404,2120001245555,新規,0,2022-04-28,2022-04-28,シルクロード龍株式会社,,株式会社,大阪府,大阪市中央区,日本橋１丁目１４番１３号サンオフィス日本橋５０３号室,,27,128,5420073,,,,,,,2022-04-28,1,,,,,シルクロードリュウ,0
405,2120001245563,新規,0,2022-04-28,2022-04-28,慧美株式会社,,株式会社,大阪府,大阪市西区,南堀江４丁目３１番５－１１０３号,,27,106,5500015,,,,,,,2022-04-28,1,,,,,エミ,0
406,2120001245588,新規,0,2022-04-28,2022-04-28,株式会社林田工業,,株式会社,大阪府,大阪市城東区,今福西６丁目９番１０号,,27,118,5360004,,,,,,,2022-04-28,1,,,,,ハヤシダコウギョウ,0
412,2120003021483,新規,0,2022-04-28,2022-04-28,Ｏｎｅ‐Ａｌｌ合同会社,,合同会社,大阪府,守口市,梶町３丁目５５番１１号,,27,209,5700015,,,,,,,2022-04-28,1,,,,,ワンオール,0
418,2120101065498,新規,0,2022-04-28,2022-04-28,株式会社小野コーポレーション,,株式会社,大阪府,和泉市,井ノ口町２番７号,,27,219,5940072,,,,,,,2022-04-28,1,,,,,オノコーポレーション,0
425,2120905006318,新規,0,2022-04-28,2022-04-28,一般社団法人クレッシェンドシステマ,,その他の設立登記法人,大阪府,吹田市,江坂町２丁目３番１０－５０３号,,27,205,5640063,,,,,,,2022-04-28,1,,,,,クレッシェンドシステマ,0
428,2130001071678,新規,0,2022-04-28,2022-04-28,株式会社庭井,,株式会社,京都府,京都市山科区,川田菱尾田４３番地２１,,26,110,6078337,,,,,,,2022-04-28,1,,,,,ニワイ,0
436,2140001125805,新規,0,2022-04-28,2022-04-28,株式会社Ｂｏｏｍ　Ａｃａｄｅｍｙ,,株式会社,兵庫県,神戸市灘区,青谷町４丁目１番７号リバーサイド青谷１０１号,,28,102,6570805,,,,,,,2022-04-28,1,,,,,ブームアカデミー,0
437,2140001125813,新規,0,2022-04-28,2022-04-28,株式会社テルテラ,,株式会社,兵庫県,尼崎市,西大物町１２番５５－２２０７号,,28,202,6600827,,,,,,,2022-04-28,1,,,,,テルテラ,0
438,2140001125821,新規,0,2022-04-28,2022-04-28,海恵商事株式会社,,株式会社,兵庫県,神戸市灘区,鶴甲３丁目１２番４０－２１８号,,28,102,6570011,,,,,,,2022-04-28,1,,,,,カイエショウジ,0
439,2140001125838,新規,0,2022-04-28,2022-04-28,北斗技研株式会社,,株式会社,兵庫県,神戸市北区,有野町有野３４１６－１,,28,109,6511312,,,,,,,2022-04-28,1,,,,,ホクトギケン,0
440,2140001125846,新規,0,2022-04-28,2022-04-28,日本東勝競売株式会社,,株式会社,兵庫県,神戸市垂水区,千鳥が丘１丁目１番１１－３号,,28,108,6550011,,,,,,,2022-04-28,1,,,,,ニホントウショウケイバイ,0
451,2170001017082,新規,0,2022-04-28,2022-04-28,株式会社絆,,株式会社,和歌山県,和歌山市,楠見中７１番地９,,30,201,6408463,,,,,,,2022-04-28,1,,,,,キズナ,0
482,2200001040015,新規,0,2022-04-28,2022-04-28,株式会社ダイヤモンドＢ．Ａ．Ｃ．Ｕ．Ｓ,,株式会社,岐阜県,多治見市,本町２丁目３５番地１,,21,204,5070033,,,,,,,2022-04-28,1,,,,,ダイヤモンドビーエイシーユーエス,0
488,2220003003265,新規,0,2022-04-28,2022-04-28,合同会社ＯＱ　ｗｏｒｋｓ,,合同会社,石川県,金沢市,田上新町１６３,,17,201,9201153,,,,,,,2022-04-28,1,,,,,オゥキュウワァクス,0
492,2240001059687,新規,0,2022-04-28,2022-04-28,株式会社ハルカ,,株式会社,広島県,福山市,南本庄３丁目５番８－１２０２号,,34,207,7200077,,,,,,,2022-04-28,1,,,,,ハルカ,0
500,2290001097344,新規,0,2022-04-28,2022-04-28,株式会社Ｂ４,,株式会社,福岡県,福岡市博多区,中呉服町１番１１号,,40,132,8120035,,,,,,,2022-04-28,1,,,,,ビーフォー,0
510,2330001029680,新規,0,2022-04-28,2022-04-28,株式会社ＯＺＭＵ,,株式会社,熊本県,熊本市中央区,渡鹿３丁目８番１０号ジュネス・ワコー,,43,101,8620970,,,,,,,2022-04-28,1,,,,,オズム,0
515,2340001024689,新規,0,2022-04-28,2022-04-28,株式会社ＪＡＰＡＮ　ＳＰ,,株式会社,鹿児島県,鹿児島市,山田町２５０２番地２,,46,201,8910104,,,,,,,2022-04-28,1,,,,,ジャパンエスピー,0
520,2360001030339,新規,0,2022-04-28,2022-04-28,伊波硝子株式会社,,株式会社,沖縄県,宜野湾市,嘉数２丁目１７番７号,,47,205,9012226,,,,,,,2022-04-28,1,,,,,イハガラス,0
525,2370003005676,新規,0,2022-04-28,2022-04-28,アルテック合同会社,,合同会社,宮城県,仙台市泉区,南光台６丁目１２番７－１号,,04,105,9818003,,,,,,,2022-04-28,1,,,,,アルテック,0
540,2420001017825,新規,0,2022-04-28,2022-04-28,株式会社ＥＢＩＫＥＮ,,株式会社,青森県,青森市,大字新城字山田５８４番地９,,02,201,0380042,,,,,,,2022-04-28,1,,,,,エビケン,0
543,2430001086514,新規,0,2022-04-28,2022-04-28,ａｒａｎｙａ管理株式会社,,株式会社,北海道,札幌市中央区,北五条西１２丁目２－２４ａｒａｎｙａビル２階,,01,101,0600005,,,,,,,2022-04-28,1,,,,,アランヤカンリ,0
544,2430003013838,新規,0,2022-04-28,2022-04-28,合同会社ジブンジザイ,,合同会社,北海道,札幌市厚別区,厚別中央二条５丁目２－２５六興ビル３０３,,01,108,0040052,,,,,,,2022-04-28,1,,,,,ジブンジザイ,0
551,2700150014941,新規,0,2022-04-28,2015-10-09,千葉酪中央地区酪農ヘルパー組合,,その他,千葉県,千葉市若葉区,富田町１０３３－１,,12,104,2650041,,,,,,,2015-10-09,1,,,,,チバラクチユウオウチクラクノウヘルパークミアイ,0
552,2700150107951,新規,0,2022-04-28,2022-04-14,モーツァルトの音楽をたのしむ会,,その他,神奈川県,川崎市多摩区,菅北浦４丁目１４－１－１１２,,14,135,2140008,,,,,,,2022-04-14,1,,,,,モーツアルトノオンガクヲタノシムカイ,0
553,2700150107968,新規,0,2022-04-28,2022-04-14,ＧＩＶＥ　ＦＩＲＳＴ,,その他,福岡県,福岡市中央区,鳥飼１丁目４－３３丸万ビル３０６号,,40,133,8100053,,,,,,,2022-04-14,1,,,,,ギブフアースト,0
554,2700150108066,新規,0,2022-04-28,2022-04-18,ワイナリーズ,,その他,神奈川県,川崎市多摩区,南生田６丁目１６－４,,14,135,2140036,,,,,,,2022-04-18,1,,,,,ワイナリーズ,0
555,2700150108421,新規,0,2022-04-28,2022-04-28,ＪＡＰＳ　ＬＡＮＫＡ　ＥＮＴＥＲＰＲＩＳＥＳ,,外国会社等,千葉県,富里市,立沢７３２－Ａ２,,12,233,2860214,スリランカ民主社会主義共和国、コロンボ８、マラダナロード、ボラーレ、Ｎｏ．６９２,,,,,,2022-04-28,1,,,,,ジヤプスランカーエンタープライセス,0
556,2700150108454,新規,0,2022-04-28,2022-04-28,ＵＮＩＯＮ　ＴＯＰ　ＰＴＥ．ＬＴＤ．,,外国会社等,東京都,渋谷区,渋谷１丁目１３－９,,13,113,1500002,９０　ＨＡＶＥＬＯＣＫ　ＲＯＡＤ，＃０７－０２，ＫＩＮＧ’Ｓ　ＣＥＮＴＲＥ，ＳＩＮＧＡＰＯＲＥ　１６９６６２,,,,,,2022-04-28,1,,,,,ユニオントツププライベートリミテツド,0
561,3010001226152,新規,0,2022-04-28,2022-04-28,株式会社プラスキャリア,,株式会社,東京都,中央区,勝どき５丁目３番１－３０３１号,,13,102,1040054,,,,,,,2022-04-28,1,,,,,プラスキャリア,0
562,3010001226177,新規,0,2022-04-28,2022-04-28,株式会社フューチャーシンクス,,株式会社,東京都,中央区,日本橋２丁目１番３号,,13,102,1030027,,,,,,,2022-04-28,1,,,,,フューチャーシンクス,0
563,3010001226202,新規,0,2022-04-28,2022-04-28,株式会社第三商会,,株式会社,東京都,千代田区,九段南４丁目６－５ヴェルデ九段４０２,,13,101,1020074,,,,,,,2022-04-28,1,,,,,ダイサンショウカイ,0
564,3010001226210,新規,0,2022-04-28,2022-04-28,ＦＪ情報処理サービス株式会社,,株式会社,東京都,文京区,千駄木５丁目４１番４－３０３号,,13,105,1130022,,,,,,,2022-04-28,1,,,,,エフジェイジョウホウショリサービス,0
565,3010001226268,新規,0,2022-04-28,2022-04-28,株式会社ＪＥＲＡパワートレーディング,,株式会社,東京都,中央区,日本橋２丁目５番１号,,13,102,1030027,,,,,,,2022-04-28,1,,,,,ジェラパワートレーディング,0
567,3010003037548,新規,0,2022-04-28,2022-04-28,ＷＡＲＰ合同会社,,合同会社,東京都,中央区,銀座１丁目２２－１１－２Ｆ,,13,102,1040061,,,,,,,2022-04-28,1,,,,,ワープ,0
568,3010003037556,新規,0,2022-04-28,2022-04-28,ルナジャパン合同会社,,合同会社,東京都,中央区,京橋２丁目１２番９号,,13,102,1040031,,,,,,,2022-04-28,1,,,,,ルナジャパン,0
569,3010003037564,新規,0,2022-04-28,2022-04-28,愛知犬山自然エネルギー合同会社,,合同会社,東京都,文京区,本郷５丁目３３番１０号,,13,105,1130033,,,,,,,2022-04-28,1,,,,,アイチイヌヤマシゼンエネルギー,0
571,3010005034948,新規,0,2022-04-28,2022-04-28,一般社団法人シンワ,,その他の設立登記法人,東京都,中央区,日本橋堀留町１丁目１０番１号カクタビル５階,,13,102,1030012,,,,,,,2022-04-28,1,,,,,シンワ,0
581,3010403027586,新規,0,2022-04-28,2022-04-28,Ａｌｆａ合同会社,,合同会社,東京都,港区,虎ノ門３丁目２２番１０－２０１号,,13,103,1050001,,,,,,,2022-04-28,1,,,,,アルファ,0
582,3010405020944,新規,0,2022-04-28,2022-04-28,一般社団法人日本デジタル空間経済連盟,,その他の設立登記法人,東京都,港区,六本木１丁目６番１号,,13,103,1060032,,,,,,,2022-04-28,1,,,,,ニホンデジタルクウカンケイザイレンメイ,0
596,3010701042568,新規,0,2022-04-28,2022-04-28,株式会社ブランタブル,,株式会社,東京都,品川区,西五反田３丁目１０番１８－１１０９号,,13,109,1410031,,,,,,,2022-04-28,1,,,,,ブランタブル,0
597,3010801032915,新規,0,2022-04-28,2022-04-28,株式会社アースコーポレーション,,株式会社,東京都,大田区,羽田３丁目５番１４号ＡｌｔＲａｏｍ２０４,,13,111,1440043,,,,,,,2022-04-28,1,,,,,アースコーポレーション,0
606,3011001147181,新規,0,2022-04-28,2022-04-28,株式会社ＹＥＬＦ,,株式会社,東京都,渋谷区,恵比寿１丁目２２番１７号オーワビル６Ｆ,,13,113,1500013,,,,,,,2022-04-28,1,,,,,エルフ,0
607,3011001147198,新規,0,2022-04-28,2022-04-28,株式会社ＥＡＲＰＩＣＫ,,株式会社,東京都,渋谷区,神宮前６丁目２３番４号桑野ビル２階,,13,113,1500001,,,,,,,2022-04-28,1,,,,,イヤーピック,0
608,3011001147223,新規,0,2022-04-28,2022-04-28,株式会社ＺＯＮＥ,,株式会社,東京都,渋谷区,広尾１丁目１－３６本国ビル４０３,,13,113,1500012,,,,,,,2022-04-28,1,,,,,ゾーン,0
614,3011103011707,新規,0,2022-04-28,2022-04-28,合同会社ＴＡＫＡ,,合同会社,東京都,新宿区,細工町３番２１号,,13,104,1620838,,,,,,,2022-04-28,1,,,,,タカ,0
625,3011601025927,新規,0,2022-04-28,2022-04-28,糀屋三郎右衛門株式会社,,株式会社,東京都,練馬区,中村２丁目２９番８号,,13,120,1760024,,,,,,,2022-04-28,1,,,,,コウジヤサブロウウエモン,0
629,3011803005066,新規,0,2022-04-28,2022-04-28,ＬＡ　ＧＩＮ合同会社,,合同会社,東京都,葛飾区,青戸７丁目２３番１１号,,13,122,1250062,,,,,,,2022-04-28,1,,,,,ラジン,0
634,3012803002755,新規,0,2022-04-28,2022-04-28,ＶＩＥＴ　ＫＡＺＥ合同会社,,合同会社,東京都,国立市,富士見台１丁目２７番地１－２０－４０３,,13,215,1860003,,,,,,,2022-04-28,1,,,,,,0
651,3020001146291,新規,0,2022-04-28,2022-04-28,ａｕｎ株式会社,,株式会社,神奈川県,川崎市川崎区,中瀬３丁目２０番１９－１１０４号,,14,131,2100818,,,,,,,2022-04-28,1,,,,,アウン,0
652,3020001146325,新規,0,2022-04-28,2022-04-28,株式会社こころ,,株式会社,神奈川県,横浜市西区,北幸２丁目１３番５号北幸ぐうはうすＡ棟１０３,,14,103,2200004,,,,,,,2022-04-28,1,,,,,ココロ,0
655,3020003021699,新規,0,2022-04-28,2022-04-28,ＡＭＰ合同会社,,合同会社,神奈川県,横浜市保土ケ谷区,仏向町１３２６番地７,,14,106,2400044,,,,,,,2022-04-28,1,,,,,エーエムピー,0
658,3021001075828,新規,0,2022-04-28,2022-04-28,株式会社ケイアイエス,,株式会社,神奈川県,相模原市南区,東林間６丁目１２番１３号,,14,153,2520311,,,,,,,2022-04-28,1,,,,,ケイアイエス,0
663,3021005012505,新規,0,2022-04-28,2022-04-28,特定非営利活動法人ＮＡＧＯＭＩ　ＭＩＮＤ,,その他の設立登記法人,神奈川県,茅ヶ崎市,東海岸南６丁目８９１７番地２１,,14,207,2530054,,,,,,,2022-04-28,1,,,,,ナゴミマインド,0
668,3030003019321,新規,0,2022-04-28,2022-04-28,合同会社Ｔ．Ｔ　Ｐｈａｒｍａ,,合同会社,埼玉県,朝霞市,溝沼６丁目９番３３－９０８号,,11,227,3510023,,,,,,,2022-04-28,1,,,,,ティーティーファーマ,0
673,3040001123207,新規,0,2022-04-28,2022-04-28,株式会社Ｈａｐｐｉｎｅｓｓ,,株式会社,千葉県,千葉市若葉区,大宮町２１２４番地１４,,12,104,2640016,,,,,,,2022-04-28,1,,,,,ハピネス,0
679,3040003019964,新規,0,2022-04-28,2022-04-28,合同会社Ｄｏ　ｉｔ　Ｎｏｗ,,合同会社,千葉県,松戸市,日暮３丁目１５－１８,,12,207,2702253,,,,,,,2022-04-28,1,,,,,ドゥーイットナウ,0
680,3050001051019,新規,0,2022-04-28,2022-04-28,株式会社歩ウェルディング,,株式会社,茨城県,鹿嶋市,大字平井１３３８番地１５小岩井団地２６,,08,222,3140012,,,,,,,2022-04-28,1,,,,,アユミウェルディング,0
691,3060003004056,新規,0,2022-04-28,2022-04-28,ミウラ合同会社,,合同会社,栃木県,那須郡那須町,大字漆塚９８６番地１０,,09,407,3293221,,,,,,,2022-04-28,1,,,,,ミウラ,0
702,3100002012559,新規,0,2022-04-28,2022-04-28,有限会社谷工業,,有限会社,長野県,小諸市,大字滋野甲７３６番地１９,,20,208,3840809,,,,,,,2022-04-28,1,,,,,タニコウギョウ,0
720,3120001245587,新規,0,2022-04-28,2022-04-28,Ｌ．Ａ．Ｌ株式会社,,株式会社,大阪府,大阪市東住吉区,駒川５丁目１３番８号,,27,121,5460043,,,,,,,2022-04-28,1,,,,,エルエーエル,0
725,3120103004676,新規,0,2022-04-28,2022-04-28,合同会社Ｄｉｒｅｃｔｉｏｎ,,合同会社,大阪府,和泉市,府中町６丁目１３番１６号,,27,219,5940071,,,,,,,2022-04-28,1,,,,,ディレクション,0
726,3120901045905,新規,0,2022-04-28,2022-04-28,Ｆｌａｔｄｅｓｉｇｎ株式会社,,株式会社,大阪府,高槻市,川西町１丁目４番３号,,27,207,5691133,,,,,,,2022-04-28,1,,,,,フラットデザイン,0
732,3130001071660,新規,0,2022-04-28,2022-04-28,株式会社久村工業,,株式会社,京都府,京都市西京区,松尾万石町５９番地,,26,111,6158287,,,,,,,2022-04-28,1,,,,,ヒサムラコウギョウ,0
734,3130003007910,新規,0,2022-04-28,2022-04-28,合同会社オフィス川勝,,合同会社,京都府,亀岡市,東つつじケ丘曙台４丁目１１番５号,,26,206,6210833,,,,,,,2022-04-28,1,,,,,オフィスカワカツ,0
739,3140001125795,新規,0,2022-04-28,2022-04-28,株式会社ＢｕｚｚＷｏｏｄｙ,,株式会社,兵庫県,尼崎市,稲葉荘４丁目３番６号,,28,202,6600064,,,,,,,2022-04-28,1,,,,,バウ,0
740,3140001125812,新規,0,2022-04-28,2022-04-28,株式会社ひとはな,,株式会社,兵庫県,神戸市中央区,加納町４丁目８番１７号,,28,110,6500001,,,,,,,2022-04-28,1,,,,,ヒトハナ,0
741,3140001125837,新規,0,2022-04-28,2022-04-28,株式会社ＣＦＯ,,株式会社,兵庫県,芦屋市,翠ケ丘町１５番１－３０５号,,28,206,6590014,,,,,,,2022-04-28,1,,,,,シーエフオー,0
742,3140003017636,新規,0,2022-04-28,2022-04-28,合同会社ＳｔｏｒｉＡ,,合同会社,兵庫県,川西市,大和西２丁目１４－２０,,28,217,6660112,,,,,,,2022-04-28,1,,,,,ストーリア,0
743,3140003017644,新規,0,2022-04-28,2022-04-28,合同会社ヴァメ,,合同会社,兵庫県,加古川市,平岡町高畑４２３番地の３,,28,210,6750103,,,,,,,2022-04-28,1,,,,,ヴァメ,0
746,3170001017081,新規,0,2022-04-28,2022-04-28,株式会社アステック,,株式会社,和歌山県,田辺市,明洋２丁目６番１０号,,30,206,6460062,,,,,,,2022-04-28,1,,,,,アステック,0
753,3180001151061,新規,0,2022-04-28,2022-04-28,株式会社テンワーズ,,株式会社,愛知県,名古屋市東区,橦木町１丁目１０番地－６１０号,,23,102,4610014,,,,,,,2022-04-28,1,,,,,テンワーズ,0
754,3180001151078,新規,0,2022-04-28,2022-04-28,Ｓｈｉｎｓｈｉ．株式会社,,株式会社,愛知県,名古屋市中区,栄１丁目２２番２号ライオンズ名古屋ビル５３６,,23,106,4600008,,,,,,,2022-04-28,1,,,,,シンシ,0
772,3220003003272,新規,0,2022-04-28,2022-04-28,合同会社リメイク,,合同会社,石川県,河北郡津幡町,字能瀬ウ１８５‐３,,17,361,9290319,,,,,,,2022-04-28,1,,,,,リメイク,0
774,3240001059686,新規,0,2022-04-28,2022-04-28,フラッグス株式会社,,株式会社,広島県,広島市安佐北区,落合１丁目２８番７号,,34,106,7391731,,,,,,,2022-04-28,1,,,,,フラッグス,0
775,3240001059694,新規,0,2022-04-28,2022-04-28,株式会社Ｇ・Ｐ,,株式会社,広島県,東広島市,黒瀬町国近クリエイトパーク８番地１,,34,212,7392502,,,,,,,2022-04-28,1,,,,,ジーピー,0
779,3240005015388,新規,0,2022-04-28,2022-04-28,一般社団法人広島市アートまちづくり協会,,その他の設立登記法人,広島県,広島市中区,大手町１丁目１番２６号大手町一番ビル３０５,,34,101,7300051,,,,,,,2022-04-28,1,,,,,ヒロシマシアートマチヅクリキョウカイ,0
782,3260003003896,新規,0,2022-04-28,2022-04-28,ブロス合同会社,,合同会社,岡山県,赤磐市,千躰１６６番地１３,,33,213,7090714,,,,,,,2022-04-28,1,,,,,ブロス,0
783,3270001008509,新規,0,2022-04-28,2022-04-28,株式会社Ｒｅｊｏｉｃｅ,,株式会社,鳥取県,鳥取市,青葉町３丁目２１９番地,,31,201,6800802,,,,,,,2022-04-28,1,,,,,リジョイス,0
804,3310001017835,新規,0,2022-04-28,2022-04-28,グリーンパーク長崎県央県南株式会社,,株式会社,長崎県,諫早市,久山町１４４２番地１,,42,204,8540066,,,,,,,2022-04-28,1,,,,,グリーンパークナガサキケンオウケンナン,0
829,3430001086554,新規,0,2022-04-28,2022-04-28,株式会社プロテクトライフ,,株式会社,北海道,札幌市東区,北十九条東１６丁目３番１７－４０３号,,01,103,0650019,,,,,,,2022-04-28,1,,,,,プロテクトライフ,0
833,3430003013837,新規,0,2022-04-28,2022-04-28,Ｎｏｒｔｈ　Ｃｏｎｎｅｃｔ合同会社,,合同会社,北海道,勇払郡むかわ町,宮戸９０番地１,,01,586,0540016,,,,,,,2022-04-28,1,,,,,ノースコネクト,0
836,3450001013688,新規,0,2022-04-28,2022-04-28,三和木材工業株式会社,,株式会社,北海道,士別市,西二条７丁目,,01,220,0950022,,,,,,,2022-04-28,1,,,,,サンワモクザイコウギョウ,0
838,3470001019056,新規,0,2022-04-28,2022-04-28,株式会社ＭＡＲＫ,,株式会社,香川県,高松市,東山崎町３０５番地１７,,37,201,7610312,,,,,,,2022-04-28,1,,,,,マーク,0
846,3700150107959,新規,0,2022-04-28,2022-04-14,オフィス香音,,その他,千葉県,松戸市,金ケ作４３－１１８,,12,207,2702251,,,,,,,2022-04-14,1,,,,,オフイスカノン,0
847,3700150108049,新規,0,2022-04-28,2022-04-15,周南コンビナート脱炭素推進協議会,,その他,山口県,周南市,岐山通１丁目１番地,,35,215,7450071,,,,,,,2022-04-15,1,,,,,シユウナンコンビナートダツタンソスイシンキヨウギカイ,0
848,3700150108437,新規,0,2022-04-28,2022-04-28,Ａ　Ｕ　ＨＯＬＤＩＮＧＳ　ＰＲＩＶＡＴＥ　ＬＩＭＩＴＥＤ,,外国会社等,千葉県,八街市,八街い７７番地１４１－Ａ,,12,230,2891143,スリランカ民主社会主義共和国、キャンディ、ガンポラ、ヒジラガマ、Ｎｏ．２／２,,,,,,2022-04-28,1,,,,,エユホルデイングスプライベートリミテツド,0
849,3700150108453,新規,0,2022-04-28,2022-04-28,ＡＸＩＡ　ＦＲＯＮＴＩＥＲ　ＰＴＥ．ＬＴＤ．,,外国会社等,東京都,渋谷区,渋谷１丁目１３－９,,13,113,1500002,９０　ＨＡＶＥＬＯＣＫ　ＲＯＡＤ，＃０７－０２，ＫＩＮＧ’Ｓ　ＣＥＮＴＲＥ，ＳＩＮＧＡＰＯＲＥ　１６９６６２,,,,,,2022-04-28,1,,,,,アクシアフロンテイアプライベートリミテツド,0
854,4010001225723,新規,0,2022-04-28,2022-04-28,株式会社フェザーマーケティング,,株式会社,東京都,千代田区,神田多町２丁目５番地１神田リープレックスリズ１２０１号,,13,101,1010046,,,,,,,2022-04-28,1,,,,,フェザーマーケティング,0
855,4010001226069,新規,0,2022-04-28,2022-04-28,株式会社大地商事,,株式会社,東京都,中央区,日本橋箱崎町３２番７号ＤＨビル,,13,102,1030015,,,,,,,2022-04-28,1,,,,,ダイチショウジ,0
856,4010001226151,新規,0,2022-04-28,2022-04-28,株式会社レディ,,株式会社,東京都,中央区,銀座１丁目２２番１１号銀座大竹ビジデンス２階,,13,102,1040061,,,,,,,2022-04-28,1,,,,,レディ,0
857,4010001226168,新規,0,2022-04-28,2022-04-28,禅株式会社,,株式会社,東京都,中央区,銀座１丁目２２番１１号銀座大竹ビジデンス２階,,13,102,1040061,,,,,,,2022-04-28,1,,,,,ゼン,0
858,4010001226201,新規,0,2022-04-28,2022-04-28,エイチシステム株式会社,,株式会社,東京都,千代田区,外神田４丁目６番１０号３階,,13,101,1010021,,,,,,,2022-04-28,1,,,,,エイチシステム,0
859,4010001226218,新規,0,2022-04-28,2022-04-28,カゾクエスト株式会社,,株式会社,東京都,中央区,銀座１丁目２２番１１号銀座大竹ビジデンス２階,,13,102,1040061,,,,,,,2022-04-28,1,,,,,カゾクエスト,0
860,4010001226226,新規,0,2022-04-28,2022-04-28,稲葉総合株式会社,,株式会社,東京都,千代田区,大手町１丁目７番２号,,13,101,1000004,,,,,,,2022-04-28,1,,,,,イナバソウゴウ,0
861,4010001226234,新規,0,2022-04-28,2022-04-28,予防再生メディカルサービス株式会社,,株式会社,東京都,千代田区,内神田１丁目７番５号,,13,101,1010047,,,,,,,2022-04-28,1,,,,,,0
862,4010001226242,新規,0,2022-04-28,2022-04-28,ＨＴＳＫ株式会社,,株式会社,東京都,千代田区,丸の内２丁目１番１号明治安田生命ビル１１階,,13,101,1000005,,,,,,,2022-04-28,1,,,,,エイチティーエスケー,0
864,4010003037563,新規,0,2022-04-28,2022-04-28,合同会社Ｎ’ｓ,,合同会社,東京都,中央区,新富１丁目３番２号ハイツ新富町５０１,,13,102,1040041,,,,,,,2022-04-28,1,,,,,エヌズ,0
865,4010003037571,新規,0,2022-04-28,2022-04-28,ディメンジョナリー合同会社,,合同会社,東京都,中央区,銀座１丁目２２番１１号銀座大竹ビジデンス２階,,13,102,1040061,,,,,,,2022-04-28,1,,,,,,0
868,4010005034947,新規,0,2022-04-28,2022-04-28,一般社団法人新時代アジアピースアカデミー,,その他の設立登記法人,東京都,千代田区,神田三崎町２丁目６番９号三栄ビル３０１,,13,101,1010061,,,,,,,2022-04-28,1,,,,,シンジダイアジアピースアカデミー,0
870,4010401166864,新規,0,2022-04-28,2022-04-28,株式会社ライフ＆カンパニー,,株式会社,東京都,港区,海岸３丁目９番１５号,,13,103,1080022,,,,,,,2022-04-28,1,,,,,ライフアンドカンパニー,0
887,4010801032914,新規,0,2022-04-28,2022-04-28,ｉｎＦＯＲＣ株式会社,,株式会社,東京都,大田区,大森北１丁目３３番７－５０３号,,13,111,1430016,,,,,,,2022-04-28,1,,,,,,0
888,4010901050790,新規,0,2022-04-28,2022-04-28,株式会社世田谷アド,,株式会社,東京都,世田谷区,駒沢１丁目７－２３フォンテーヌ駒沢１０３号,,13,112,1540012,,,,,,,2022-04-28,1,,,,,セタガヤアド,0
889,4010903007351,新規,0,2022-04-28,2022-04-28,合同会社Ｓ＆Ｓ,,合同会社,東京都,世田谷区,南烏山４丁目１３番９号風間ビル１Ｆ,,13,112,1570062,,,,,,,2022-04-28,1,,,,,エスアンドエス,0
893,4011001147222,新規,0,2022-04-28,2022-04-28,株式会社Ｂｕｃｋｅｔｐｌａｃｅ　Ｊａｐａｎ,,株式会社,東京都,渋谷区,千駄ヶ谷５丁目２７番５号リンクスクエア新宿１６階,,13,113,1510051,,,,,,,2022-04-28,1,,,,,バケットプレイスジャパン,0
894,4011001147239,新規,0,2022-04-28,2022-04-28,株式会社グリーングロース,,株式会社,東京都,渋谷区,神宮前６丁目２３番４号桑野ビル２階,,13,113,1500001,,,,,,,2022-04-28,1,,,,,,0
895,4011003014610,新規,0,2022-04-28,2022-04-28,枚方開発合同会社,,合同会社,東京都,渋谷区,広尾５丁目４番１６号３Ｆ,,13,113,1500012,,,,,,,2022-04-28,1,,,,,ヒラカタカイハツ,0
903,4011101098687,新規,0,2022-04-28,2022-04-28,ＭＭ　ＩＮＴＥＲＮＡＴＩＯＮＡＬ株式会社,,株式会社,東京都,新宿区,大久保２丁目８番８号パークサイド大升１０３,,13,104,1690072,,,,,,,2022-04-28,1,,,,,エムエムインターナショナル,0
914,4011603003590,新規,0,2022-04-28,2022-04-28,森アドバイザリー合同会社,,合同会社,東京都,練馬区,石神井町６丁目２７番４号,,13,120,1770041,,,,,,,2022-04-28,1,,,,,モリアドバイザリー,0
915,4011701025264,新規,0,2022-04-28,2022-04-28,Ｄｒｅａｍｓｏｕｒｃｅ株式会社,,株式会社,東京都,江戸川区,東葛西５丁目１２－６カワマンビル２Ｆ,,13,123,1340084,,,,,,,2022-04-28,1,,,,,ドリームソース,0
916,4011701025272,新規,0,2022-04-28,2022-04-28,株式会社白井エンジニアリング,,株式会社,東京都,江戸川区,南篠崎町４丁目１４番１２号,,13,123,1330065,,,,,,,2022-04-28,1,,,,,シライエンジニアリング,0
921,4012403005331,新規,0,2022-04-28,2022-04-28,合同会社ＬＡＹＬ,,合同会社,東京都,府中市,日新町５丁目５－１２アイフラット日新１０３,,13,206,1830036,,,,,,,2022-04-28,1,,,,,レイル,0
936,4020003021707,新規,0,2022-04-28,2022-04-28,ＩＤＥＡ　Ｆａｃｔｏｒｙ合同会社,,合同会社,神奈川県,横浜市神奈川区,鶴屋町２丁目９番地１６,,14,102,2210835,,,,,,,2022-04-28,1,,,,,アイデアファクトリー,0
940,4021001075819,新規,0,2022-04-28,2022-04-28,株式会社リベルタス,,株式会社,神奈川県,大和市,中央林間５丁目２番２０－６０５号,,14,213,2420007,,,,,,,2022-04-28,1,,,,,リベルタス,0
951,4021005012504,新規,0,2022-04-28,2022-04-28,特定非営利活動法人地域で子どもを育む会,,その他の設立登記法人,神奈川県,大和市,つきみ野３丁目２５番地４,,14,213,2420002,,,,,,,2022-04-28,1,,,,,チイキデコドモヲハグクムカイ,0
954,4030001147940,新規,0,2022-04-28,2022-04-28,株式会社Ｍａｕｉ＆Ｃｏｍｐａｎｙ,,株式会社,埼玉県,越谷市,越ヶ谷３丁目２番２８－１号Ｒｅｓｅｒｖｅ越谷レジデンス１階,,11,222,3430813,,,,,,,2022-04-28,1,,,,,マウイアンドカンパニー,0
955,4030001147965,新規,0,2022-04-28,2022-04-28,株式会社Ｍ．Ｙ　Ｊａｐａｎ　Ｂｒａｎｄ　Ｓｈｏｐ,,株式会社,埼玉県,川越市,大字寺尾６６８番地１オークヒルＡ棟１０１号室,,11,201,3501141,,,,,,,2022-04-28,1,,,,,エムワイジャパンブランドショップ,0
956,4030001147973,新規,0,2022-04-28,2022-04-28,エフティーメディカル株式会社,,株式会社,埼玉県,鴻巣市,生出塚２丁目１６番１６号,,11,217,3650033,,,,,,,2022-04-28,1,,,,,エフティーメディカル,0
975,4080003002791,新規,0,2022-04-28,2022-04-28,合同会社フォーエブリィ,,合同会社,静岡県,静岡市葵区,桜町１丁目１８番２２号,,22,101,4200945,,,,,,,2022-04-28,1,,,,,フォーエブリィ,0
976,4080101023252,新規,0,2022-04-28,2022-04-28,株式会社きくらぼ,,株式会社,静岡県,駿東郡長泉町,下長窪１３８番地の３,,22,342,4110934,,,,,,,2022-04-28,1,,,,,キクラボ,0
984,4110001036623,新規,0,2022-04-28,2022-04-28,株式会社Ｓｈｉｒｏｗ,,株式会社,新潟県,新潟市西蒲区,下和納３５６９番地サンシャイン２８Ａ－１０２,,15,108,9530065,,,,,,,2022-04-28,1,,,,,シロウ,0
992,4120001245537,新規,0,2022-04-28,2022-04-28,山陽株式会社,,株式会社,大阪府,大阪市生野区,巽北１丁目２１－２９生野ハイツ４１３号室,00126431,27,116,5440004,,,,,,,2022-04-28,1,,,,,サンヨウ,0
993,4120001245545,新規,0,2022-04-28,2022-04-28,フニー株式会社,,株式会社,大阪府,大阪市東成区,大今里南３丁目１４番２４号ローリエ２０２,,27,115,5370013,,,,,,,2022-04-28,1,,,,,フニー,0
998,4120003021548,新規,0,2022-04-28,2022-04-28,合同会社夢の架け橋自然農園,,合同会社,大阪府,大阪市旭区,高殿２丁目１９番３５号,,27,117,5350031,,,,,,,2022-04-28,1,,,,,ユメノカケハシシゼンノウエン,0
1002,4120101065447,新規,0,2022-04-28,2022-04-28,株式会社Ｄ’ｓパートナー,,株式会社,大阪府,和泉市,春木町６１５番地１,,27,219,5941141,,,,,,,2022-04-28,1,,,,,ディーズパートナー,0
1008,4120901045904,新規,0,2022-04-28,2022-04-28,アクアネット株式会社,,株式会社,大阪府,池田市,畑３丁目２番３号,,27,204,5630021,,,,,,,2022-04-28,1,,,,,アクアネット,0
1013,4130001071676,新規,0,2022-04-28,2022-04-28,ＤＹＢ株式会社,,株式会社,京都府,京都市伏見区,醍醐上ノ山町１８番地３０,,26,109,6011371,,,,,,,2022-04-28,1,,,,,ディーワイビー,0
1021,4140001125811,新規,0,2022-04-28,2022-04-28,レフェイン・ジャパン株式会社,,株式会社,兵庫県,神戸市灘区,浜田町２丁目３番１２号,,28,102,6570862,,,,,,,2022-04-28,1,,,,,レフェインジャパン,0
1022,4140001125828,新規,0,2022-04-28,2022-04-28,株式会社リベルタス,,株式会社,兵庫県,神戸市灘区,岩屋北町１丁目６番１２－８０１号,,28,102,6570846,,,,,,,2022-04-28,1,,,,,リベルタス,0
1024,4140003017635,新規,0,2022-04-28,2022-04-28,合同会社ＰＲＯＰＳ,,合同会社,兵庫県,神戸市中央区,八幡通４丁目１番３７－１４０２号,,28,110,6510085,,,,,,,2022-04-28,1,,,,,プロップス,0
1026,4150003002669,新規,0,2022-04-28,2022-04-28,合同会社フィル,,合同会社,奈良県,橿原市,中曽司町８３番地４号,,29,205,6340845,,,,,,,2022-04-28,1,,,,,フィル,0
1035,4180001151110,新規,0,2022-04-28,2022-04-28,Ｓ．Ｔ．Ｕ・ＵＰＡＡＳＨＮＡ株式会社,,株式会社,愛知県,名古屋市中区,新栄町３丁目８番地１,,23,106,4600004,,,,,,,2022-04-28,1,,,,,エスティーユーウパスナ,0
1037,4180005019758,新規,0,2022-04-28,2022-04-28,一般社団法人中部ウェイクサーフィン連盟,,その他の設立登記法人,愛知県,名古屋市中村区,名駅南２丁目８番２６号,,23,105,4500003,,,,,,,2022-04-28,1,,,,,チュウブウェイクサーフィンレンメイ,0
1041,4180301036176,新規,0,2022-04-28,2022-04-28,株式会社ＹｕＲＡ,,株式会社,愛知県,額田郡幸田町,大字菱池字欠間１０６番地２ネオポリス幸田１０２,,23,501,4440113,,,,,,,2022-04-28,1,,,,,ユラ,0
1044,4190001029363,新規,0,2022-04-28,2022-04-28,株式会社ｎｅｗ　ｅｎｄ．,,株式会社,三重県,伊勢市,上地町５０１番地,,24,203,5160051,,,,,,,2022-04-28,1,,,,,ニューエンドドット,0
1047,4200001040021,新規,0,2022-04-28,2022-04-28,株式会社ＫＩＳＨＩＮ　ＦＡＲＭ,,株式会社,岐阜県,安八郡神戸町,大字西保１７６１番地の１,,21,381,5032323,,,,,,,2022-04-28,1,,,,,キシンファーム,0
1062,4260003003895,新規,0,2022-04-28,2022-04-28,合同会社宇宙,,合同会社,岡山県,岡山市北区,横井上１２番地１（２０５号室）,,33,101,7011145,,,,,,,2022-04-28,1,,,,,ウチュウ,0
1073,4290001097359,新規,0,2022-04-28,2022-04-28,株式会社Ｈａｐｐｙ　Ｌｉｂｅｒｔｙ,,株式会社,福岡県,福岡市南区,若久団地３番１－３１１号,,40,134,8150048,,,,,,,2022-04-28,1,,,,,ハッピーリバティー,0
1074,4290001097367,新規,0,2022-04-28,2022-04-28,株式会社白馬,,株式会社,福岡県,福岡市早良区,高取１丁目１番１４号,,40,137,8140011,,,,,,,2022-04-28,1,,,,,ハクバ,0
1077,4290003012448,新規,0,2022-04-28,2022-04-28,合同会社やない考房,,合同会社,福岡県,福岡市南区,鶴田４丁目２２番８号,,40,134,8111352,,,,,,,2022-04-28,1,,,,,ヤナイコウボウ,0
1088,4290805009542,新規,0,2022-04-28,2022-04-28,ＮＰＯ法人いろは,,その他の設立登記法人,福岡県,北九州市小倉南区,富士見２丁目２番１８－５０１号,,40,107,8020801,,,,,,,2022-04-28,1,,,,,イロハ,0
1089,4310001017834,新規,0,2022-04-28,2022-04-28,フェニックス株式会社,,株式会社,長崎県,長崎市,岩川町６番８－１１０２号,,42,201,8528106,,,,,,,2022-04-28,1,,,,,フェニックス,0
1094,4330001029679,新規,0,2022-04-28,2022-04-28,株式会社大通物流,,株式会社,熊本県,熊本市中央区,中央街１２番１６－１００１号コアマンションネクステージ下通,,43,101,8600802,,,,,,,2022-04-28,1,,,,,ダイツウブツリュウ,0
1103,4360003011962,新規,0,2022-04-28,2022-04-28,クレバ合同会社,,合同会社,沖縄県,那覇市,松尾２丁目９－２３上原アパート４０２,,47,201,9000014,,,,,,,2022-04-28,1,,,,,クレバ,0
1107,4370001048510,新規,0,2022-04-28,2022-04-28,株式会社つねふく,,株式会社,宮城県,柴田郡大河原町,字新南３６番地８,,04,321,9891245,,,,,,,2022-04-28,1,,,,,ツネフク,0
1109,4370003005674,新規,0,2022-04-28,2022-04-28,合同会社ちむ,,合同会社,宮城県,黒川郡大衡村,大衡字要害３７番地,,04,424,9813602,,,,,,,2022-04-28,1,,,,,チム,0
1124,4430001086512,新規,0,2022-04-28,2022-04-28,やさしいラボ株式会社,,株式会社,北海道,札幌市豊平区,美園二条４丁目１番２２号,,01,105,0620002,,,,,,,2022-04-28,1,,,,,ヤサシイラボ,0
1132,4470001019055,新規,0,2022-04-28,2022-04-28,株式会社出石興業,,株式会社,香川県,高松市,林町３２５番地３,,37,201,7610301,,,,,,,2022-04-28,1,,,,,イズイシコウギョウ,0
1138,4700150107842,新規,0,2022-04-28,2022-04-11,劇団とんぼ座,,その他,宮崎県,児湯郡川南町,大字川南１９６７５－３,,45,405,8891301,,,,,,,2022-04-11,1,,,,,ゲキダントンボザ,0
1139,4700150108097,新規,0,2022-04-28,2022-04-18,滋賀で舞と地歌を楽しむ会実行委員会,,その他,滋賀県,大津市,日吉台４丁目１０－６,,25,201,5200112,,,,,,,2022-04-18,1,,,,,シガデマイトジウタヲタノシムカイジツコウイインカイ,0
1140,4700150108452,新規,0,2022-04-28,2022-04-28,ＵＮＩＳＯＮ　ＣＥＬＬ　ＰＴＥ．ＬＴＤ．,,外国会社等,,,,,,,,９０　ＨＡＶＥＬＯＣＫ　ＲＯＡＤ，＃０７－０２，ＫＩＮＧ’Ｓ　ＣＥＮＴＲＥ，ＳＩＮＧＡＰＯＲＥ　１６９６６２,,,,,,2022-04-28,1,,,,,ユニゾンセルプライベートリミテツド,0
1146,5010001225986,新規,0,2022-04-28,2022-04-28,株式会社Ｔ＆Ａ,,株式会社,東京都,中央区,銀座３丁目１４番１７号ＫｏｂｉｋｉｓｓＧｉｎｚａ１００２,,13,102,1040061,,,,,,,2022-04-28,1,,,,,ティーアンドエー,0
1147,5010001226159,新規,0,2022-04-28,2022-04-28,株式会社Ｌｅｄｉａｎ　Ｓｐａ,,株式会社,東京都,中央区,京橋２丁目２番１号,,13,102,1040031,,,,,,,2022-04-28,1,,,,,レディアンスパ,0
1148,5010001226175,新規,0,2022-04-28,2022-04-28,株式会社ひらく,,株式会社,東京都,千代田区,神田駿河台４丁目３番地,,13,101,1010062,,,,,,,2022-04-28,1,,,,,ヒラク,0
1149,5010001226200,新規,0,2022-04-28,2022-04-28,ＰＷＳ株式会社,,株式会社,東京都,千代田区,丸の内１丁目９番１号,,13,101,1000005,,,,,,,2022-04-28,1,,,,,ピーダブリューエス,0
1150,5010001226209,新規,0,2022-04-28,2022-04-28,銀座フーズ株式会社,,株式会社,東京都,中央区,銀座６丁目６番１号,,13,102,1040061,,,,,,,2022-04-28,1,,,,,ギンザフーズ,0
1151,5010001226217,新規,0,2022-04-28,2022-04-28,株式会社プレパラート,,株式会社,東京都,千代田区,神田小川町３丁目１４番地,,13,101,1010052,,,,,,,2022-04-28,1,,,,,プレパラート,0
1152,5010001226225,新規,0,2022-04-28,2022-04-28,株式会社アロフト・システム,,株式会社,東京都,千代田区,神田須田町２丁目２３－１天翔秋葉原万世橋ビル９階９０３号室,,13,101,1010041,,,,,,,2022-04-28,1,,,,,アロフトシステム,0
1153,5010001226241,新規,0,2022-04-28,2022-04-28,ＨＴＳＫホールディングス株式会社,,株式会社,東京都,千代田区,丸の内２丁目１番１号明治安田生命ビル１１階,,13,101,1000005,,,,,,,2022-04-28,1,,,,,エイチティーエスケーホールディングス,0
1155,5010003037505,新規,0,2022-04-28,2022-04-28,合同会社西部興業,,合同会社,東京都,千代田区,神田和泉町１番地１－１５,,13,101,1010024,,,,,,,2022-04-28,1,,,,,セイブコウギョウ,0
1156,5010003037546,新規,0,2022-04-28,2022-04-28,北里星堂医療開発合同会社,,合同会社,東京都,文京区,本郷３丁目２４番９号,,13,105,1130033,,,,,,,2022-04-28,1,,,,,キタサトセイドウイリョウカイハツ,0
1157,5010003037554,新規,0,2022-04-28,2022-04-28,ジェイコアレジ６ホールディング合同会社,,合同会社,東京都,千代田区,丸の内３丁目１番１号東京共同会計事務所内,,13,101,1000005,,,,,,,2022-04-28,1,,,,,ジェイコアレジシックスホールディング,0
1165,5010401166847,新規,0,2022-04-28,2022-04-28,株式会社Ｉｃｈｉｊｉｋｕ,,株式会社,東京都,港区,元麻布３丁目１番６号,,13,103,1060046,,,,,,,2022-04-28,1,,,,,イチジク,0
1166,5010403027510,新規,0,2022-04-28,2022-04-28,わがお合同会社,,合同会社,東京都,港区,東麻布３丁目７－９・３階,,13,103,1060044,,,,,,,2022-04-28,1,,,,,ワガオ,0
1181,5010903007342,新規,0,2022-04-28,2022-04-28,ＳＥＮＥＣＡ２合同会社,,合同会社,東京都,世田谷区,岡本１丁目３番５－１０６号,,13,112,1570076,,,,,,,2022-04-28,1,,,,,セネカツー,0
1182,5010903007350,新規,0,2022-04-28,2022-04-28,合同会社輝峰,,合同会社,東京都,世田谷区,桜上水４丁目１番Ｉ－８０１号,00126437,13,112,1560045,,,,,,,2022-04-28,1,,,,,キホウ,0
1188,5011003014592,新規,0,2022-04-28,2022-04-28,Ｔｏｍｏｒｒｏｗ　Ｅｎｅｒｇｙ　Ｊａｐａｎ合同会社,,合同会社,東京都,渋谷区,猿楽町１１番３－８０７号プラウド代官山フロント,,13,113,1500033,,,,,,,2022-04-28,1,,,,,トゥモローエナジージャパン,0
1189,5011101098694,新規,0,2022-04-28,2022-04-28,株式会社Ｓｔｕｄｉｏ　Ｓｗｉｔｃｈ,,株式会社,東京都,新宿区,西新宿４丁目２９番１０号エクセル１－１０７,,13,104,1600023,,,,,,,2022-04-28,1,,,,,スタジオスイッチ,0
1198,5011803005064,新規,0,2022-04-28,2022-04-28,Ａｇｅ合同会社,,合同会社,東京都,足立区,辰沼１丁目１番地９号,,13,121,1210054,,,,,,,2022-04-28,1,,,,,エイジ,0
1215,5020003021714,新規,0,2022-04-28,2022-04-28,合同会社ａｒｃ０４,,合同会社,神奈川県,横浜市青葉区,荏子田２丁目３３番地６６,,14,117,2250005,,,,,,,2022-04-28,1,,,,,アークゼロヨン,0
1216,5020005015508,新規,0,2022-04-28,2022-04-28,一般社団法人Ｌｏｃａｌ　Ｒｅｆｉｎｅ　Ｕｎｉｔ,,その他の設立登記法人,神奈川県,横浜市泉区,新橋町７２６番地１クレイノＳ＆Ｓ１０４号,,14,116,2450009,,,,,,,2022-04-28,1,,,,,ローカルリファインユニット,0
1222,5021001075842,新規,0,2022-04-28,2022-04-28,株式会社ＱＴフード,,株式会社,神奈川県,海老名市,泉２丁目１２番５号,,14,215,2430437,,,,,,,2022-04-28,1,,,,,キューティーフード,0
1228,5030001147964,新規,0,2022-04-28,2022-04-28,株式会社ＶＯ,,株式会社,埼玉県,戸田市,本町３丁目１０番２０号,,11,224,3350023,,,,,,,2022-04-28,1,,,,,ブイオー,0
1229,5030001147997,新規,0,2022-04-28,2022-04-28,株式会社神山工業,,株式会社,埼玉県,さいたま市北区,今羽町３４２番地１５,,11,102,3310801,,,,,,,2022-04-28,1,,,,,カミヤマコウギョウ,0
1233,5030003019328,新規,0,2022-04-28,2022-04-28,ＫＹＢステージ合同会社,,合同会社,埼玉県,上尾市,谷津２丁目９番５号,,11,219,3620042,,,,,,,2022-04-28,1,,,,,ケーワイビーステージ,0
1234,5030005020853,新規,0,2022-04-28,2022-04-28,一般社団法人たかいたかい保育園,,その他の設立登記法人,埼玉県,鴻巣市,原馬室２８２５番地,,11,217,3650043,,,,,,,2022-04-28,1,,,,,タカイタカイホイクエン,0
1239,5040003019839,新規,0,2022-04-28,2022-04-28,Ｆｏｕｒ４ｓ合同会社,,合同会社,千葉県,山武市,成東２５４２－１,,12,237,2891326,,,,,,,2022-04-28,1,,,,,フォーフォーズ,0
1240,5040003019962,新規,0,2022-04-28,2022-04-28,合同会社つばめ,,合同会社,千葉県,松戸市,本町１４－１３クリオラベルヴィ松戸６０４,,12,207,2710091,,,,,,,2022-04-28,1,,,,,ツバメ,0
1246,5050005013062,新規,0,2022-04-28,2022-04-28,一般社団法人広域関東圏事業振興協会,,その他の設立登記法人,茨城県,龍ケ崎市,長沖町２８０番地２,,08,208,3010015,,,,,,,2022-04-28,1,,,,,コウイキカントウケンジギョウシンコウキョウカイ,0
1247,5050005013070,新規,0,2022-04-28,2022-04-28,一般財団法人倉留福祉財団,,その他の設立登記法人,茨城県,つくば市,大貫２３５番地,,08,220,3004218,,,,,,,2022-04-28,1,,,,,クラルフクシザイダン,0
1248,5060001034821,新規,0,2022-04-28,2022-04-28,Ｉ　ＡＭ株式会社,,株式会社,栃木県,佐野市,若松町１３８番地,,09,204,3270846,,,,,,,2022-04-28,1,,,,,アイアム,0
1249,5060003004054,新規,0,2022-04-28,2022-04-28,合同会社那須育成センター,,合同会社,栃木県,那須塩原市,青木９０８,,09,213,3250103,,,,,,,2022-04-28,1,,,,,ナスイクセイセンター,0
1251,5080101023251,新規,0,2022-04-28,2022-04-28,株式会社Ｙｏｕ,,株式会社,静岡県,三島市,広小路町８番１２号西川ビル２Ｆ,,22,206,4110856,,,,,,,2022-04-28,1,,,,,ユー,0
1260,5100003006525,新規,0,2022-04-28,2022-04-28,合同会社水青社,,合同会社,長野県,諏訪郡富士見町,境８１１４番地,,20,362,3990101,,,,,,,2022-04-28,1,,,,,ミズアオシャ,0
1287,5120005022931,新規,0,2022-04-28,2022-04-28,一般社団法人未来整体研究会,,その他の設立登記法人,大阪府,大阪市浪速区,元町１丁目２－１７－７Ｃ,,27,111,5560016,,,,,,,2022-04-28,1,,,,,ミライセイタイケンキュウカイ,0
1300,5130001071675,新規,0,2022-04-28,2022-04-28,株式会社ＯＮＥ,,株式会社,京都府,宇治市,伊勢田町南遊田４－１サウスビル２Ｆ,,26,204,6110043,,,,,,,2022-04-28,1,,,,,ワン,0
1313,5140001125777,新規,0,2022-04-28,2022-04-28,株式会社水穂農産,,株式会社,兵庫県,豊岡市,赤石４１３番地,,28,209,6680801,,,,,,,2022-04-28,1,,,,,ミズホノウサン,0
1314,5140001125827,新規,0,2022-04-28,2022-04-28,株式会社緑神,,株式会社,兵庫県,神戸市北区,鈴蘭台南町８丁目７番４号スズランダイサウスＡ１０２号,,28,109,6511113,,,,,,,2022-04-28,1,,,,,リョクシン,0
1331,5180005019757,新規,0,2022-04-28,2022-04-28,協同組合ＴＡＩＨＯＵ　ＪＰ,,その他の設立登記法人,愛知県,名古屋市中区,東桜２丁目１９番６号,,23,106,4600005,,,,,,,2022-04-28,1,,,,,タイホウジェイピー,0
1335,5180301036167,新規,0,2022-04-28,2022-04-28,株式会社ＮＯＶＡ　ＣＲＥＡＴＩＯＮ,,株式会社,愛知県,豊川市,八幡町鐘鋳場２６６番地の３,,23,207,4420857,,,,,,,2022-04-28,1,,,,,ノヴァクリエイション,0
1336,5180301036175,新規,0,2022-04-28,2022-04-28,株式会社Ｌｉｔ,,株式会社,愛知県,安城市,桜井町塔見塚４７番地２,,23,212,4441154,,,,,,,2022-04-28,1,,,,,リット,0
1340,5180303005319,新規,0,2022-04-28,2022-04-28,のんちゃんのお店合同会社,,合同会社,愛知県,豊田市,高岡本町秋葉７４番地１,,23,211,4730922,,,,,,,2022-04-28,1,,,,,ノンチャンノオミセ,0
1342,5190001029370,新規,0,2022-04-28,2022-04-28,株式会社ＪＳＴ,,株式会社,三重県,鈴鹿市,小社町１３５番地１,,24,207,5190324,,,,,,,2022-04-28,1,,,,,ジェイエスティ,0
1349,5200001040020,新規,0,2022-04-28,2022-04-28,株式会社ひろせ建築,,株式会社,岐阜県,瑞穂市,別府４９５番地,,21,216,5010222,,,,,,,2022-04-28,1,,,,,ヒロセケンチク,0
1353,5210001018899,新規,0,2022-04-28,2022-04-28,株式会社大嵜左官工業,,株式会社,福井県,坂井市,三国町錦４丁目３番５３号,,18,210,9130043,,,,,,,2022-04-28,1,,,,,オオサキサカンコウギョウ,0
1357,5220003003270,新規,0,2022-04-28,2022-04-28,合同会社Ｏｆｆｉｃｅ．Ｒ,,合同会社,石川県,金沢市,粟崎町３丁目２５８番地,,17,201,9200226,,,,,,,2022-04-28,1,,,,,オフィスアール,0
1358,5220005008664,新規,0,2022-04-28,2022-04-28,一般社団法人応援サポートハウスおばちゃんち,,その他の設立登記法人,石川県,羽咋郡宝達志水町,小川タ４２番地１３,,17,386,9291343,,,,,,,2022-04-28,1,,,,,オウエンサポートハウスオバチャンチ,0
1366,5260001036806,新規,0,2022-04-28,2022-04-28,株式会社西日本保険サービス,,株式会社,岡山県,岡山市南区,妹尾１９１０－２,,33,104,7010205,,,,,,,2022-04-28,1,,,,,ニシニホンホケンサービス,0
1381,5290801028479,新規,0,2022-04-28,2022-04-28,株式会社ノゾマン,,株式会社,福岡県,北九州市八幡西区,筒井町７番２０号,,40,109,8060032,,,,,,,2022-04-28,1,,,,,ノゾマン,0
1385,5320001019036,新規,0,2022-04-28,2022-04-28,株式会社りわ,,株式会社,大分県,大分市,高江中央２丁目３１番地の１,,44,201,8701116,,,,,,,2022-04-28,1,,,,,リワ,0
1390,5340003003770,新規,0,2022-04-28,2022-04-28,ＭＥＩＫ合同会社,,合同会社,鹿児島県,薩摩川内市,西開聞町１６番１号,,46,215,8950055,,,,,,,2022-04-28,1,,,,,メイク,0
1391,5350001017714,新規,0,2022-04-28,2022-04-28,株式会社桜丸,,株式会社,宮崎県,都城市,高崎町大牟田２０４３番地４,,45,202,8894505,,,,,,,2022-04-28,1,,,,,サクマル,0
1394,5360001030336,新規,0,2022-04-28,2022-04-28,株式会社サトイ,,株式会社,沖縄県,中頭郡北谷町,字宮城１－１,,47,326,9040113,,,,,,,2022-04-28,1,,,,,サトイ,0
1400,5380001032776,新規,0,2022-04-28,2022-04-28,株式会社かぶとむし,,株式会社,福島県,福島市,本内字荒田７番地の１,,07,201,9600103,,,,,,,2022-04-28,1,,,,,カブトムシ,0
1402,5380003005169,新規,0,2022-04-28,2022-04-28,合同会社ＡＫ　ＴＲＡＤＩＮＧ,,合同会社,福島県,福島市,瀬上町字幸町３８番地エミネンス１０１,,07,201,9600101,,,,,,,2022-04-28,1,,,,,エーケートレーディング,0
1403,5380005012576,新規,0,2022-04-28,2022-04-28,ＮＰＯ法人ｍａｋａｎａ,,その他の設立登記法人,福島県,郡山市,字名倉３０８アメニティ名倉Ａ２０２号室,,07,203,9638845,,,,,,,2022-04-28,1,,,,,,0
1411,5430003013843,新規,0,2022-04-28,2022-04-28,合同会社石狩再エネデータセンター第１号,,合同会社,北海道,石狩市,花川北六条１丁目５番地,,01,235,0613216,,,,,,,2022-04-28,1,,,,,イシカリサイエネデータセンターダイイチゴウ,0
1412,5450001013686,新規,0,2022-04-28,2022-04-28,株式会社ｓｕｎ’ｓ　ｆａｍｉｌｙ,,株式会社,北海道,上川郡東川町,東２号北２９番地,,01,458,0711432,,,,,,,2022-04-28,1,,,,,サンズファミリー,0
1413,5450003002200,新規,0,2022-04-28,2022-04-28,合同会社ＮＲ３ＭＡＮＡＧＥＭＥＮＴ,,合同会社,北海道,利尻郡利尻町,仙法志字御崎５０番地,,01,518,0970311,,,,,,,2022-04-28,1,,,,,エヌアールスリーマネジメント,0
1416,5460301005060,新規,0,2022-04-28,2022-04-28,あばしり電力株式会社,,株式会社,北海道,網走市,字呼人５３４番地の２,,01,211,0992421,,,,,,,2022-04-28,1,,,,,アバシリデンリョク,0
1419,5700150107858,新規,0,2022-04-28,2022-04-12,ういこっちゃね,,その他,三重県,いなべ市,藤原町上相場８２８,,24,214,5110502,,,,,,,2022-04-12,1,,,,,ウイコツチヤネ,0
1420,5700150108427,新規,0,2022-04-28,2022-04-28,ＯＤＡＷＡＲＡ　ＬＡＮＫＡ　ＰＲＩＶＡＴＥ　ＬＩＭＩＴＥＤ,,外国会社等,千葉県,八街市,東吉田７２５番地オフィス１号,,12,230,2891114,スリランカ民主社会主義共和国、マタレ、ラットタロード、１７－１－１,,,,,,2022-04-28,1,,,,,オダワラランカプライベートリミテツド,0
1421,5700150108451,新規,0,2022-04-28,2022-04-28,ＭｏｖｉｎｇＩＴ　Ｌｔｄ,,外国会社等,,,,,,,,英国、マンチェスター、キングストリート８２、３階、マーフィー・トンプソン・ムーア・,,,,,,2022-04-28,1,,,,,ムーヴイングアイテイーエルテイーデイー,0
1441,6010001226158,新規,0,2022-04-28,2022-04-28,ＦＭホールディングス株式会社,,株式会社,東京都,千代田区,大手町１丁目１番１号,,13,101,1000004,,,,,,,2022-04-28,1,,,,,エフエムホールディングス,0
1442,6010001226166,新規,0,2022-04-28,2022-04-28,株式会社ランス,,株式会社,東京都,千代田区,神田錦町３丁目１１弦本ビル２Ｆ,,13,101,1010054,,,,,,,2022-04-28,1,,,,,ランス,0
1443,6010001226174,新規,0,2022-04-28,2022-04-28,Ｎコンサルタンツ株式会社,,株式会社,東京都,千代田区,神田淡路町２丁目１番７号,,13,101,1010063,,,,,,,2022-04-28,1,,,,,エヌコンサルタンツ,0
1444,6010001226265,新規,0,2022-04-28,2022-04-28,ジュノネットワーク準備株式会社,,株式会社,東京都,千代田区,大手町１丁目２番１号,,13,101,1000004,,,,,,,2022-04-28,1,,,,,ジュノネットワークジュンビ,0
1460,6010503006578,新規,0,2022-04-28,2022-04-28,合同会社次世代地域政策研究所,,合同会社,東京都,台東区,浅草橋３丁目８－１１－８０５,,13,106,1110053,,,,,,,2022-04-28,1,,,,,ジセダイチイキセイサクケンキュウジョ,0
1471,6010801032887,新規,0,2022-04-28,2022-04-28,株式会社Ｕｎｉｔｅ,,株式会社,東京都,大田区,山王２丁目１７番１３号ルミナス大森山王１０１,,13,111,1430023,,,,,,,2022-04-28,1,,,,,ユナイト,0
1474,6010901050780,新規,0,2022-04-28,2022-04-28,株式会社Ｐｏｋｅｒｌｏｇ,,株式会社,東京都,世田谷区,三軒茶屋２丁目１１番１４号,,13,112,1540024,,,,,,,2022-04-28,1,,,,,ポカログ,0
1483,6011001147212,新規,0,2022-04-28,2022-04-28,株式会社ｍｅｌｏｎｐａｎ,,株式会社,東京都,渋谷区,神宮前６丁目２３番４号桑野ビル２階,,13,113,1500001,,,,,,,2022-04-28,1,,,,,メロンパン,0
1490,6011101098702,新規,0,2022-04-28,2022-04-28,株式会社ＡＢＣ,,株式会社,東京都,新宿区,大久保１丁目１６番２４号Ｂ１,,13,104,1690072,,,,,,,2022-04-28,1,,,,,エービーシー,0
1491,6011103011712,新規,0,2022-04-28,2022-04-28,合同会社カプセルプランニング,,合同会社,東京都,新宿区,高田馬場２丁目１９－８,,13,104,1690075,,,,,,,2022-04-28,1,,,,,カプセルプランニング,0
1493,6011203003808,新規,0,2022-04-28,2022-04-28,Ｄｉｇｉｔａｌ　Ｗｉｎｇ合同会社,,合同会社,東京都,中野区,白鷺３丁目１３番２１号,,13,114,1650035,,,,,,,2022-04-28,1,,,,,デジタルウィング,0
1500,6011605002440,新規,0,2022-04-28,2022-04-28,一般社団法人日本尺八演奏家ネットワーク,,その他の設立登記法人,東京都,練馬区,大泉学園町３丁目２０番３号松本方,,13,120,1780061,,,,,,,2022-04-28,1,,,,,ニホンシャクハチエンソウカネットワーク,0
1513,6013301049030,新規,0,2022-04-28,2022-04-28,株式会社Ｋａｍｉｊｉ,,株式会社,東京都,豊島区,南大塚３丁目３７番５－１４０２号,,13,116,1700005,,,,,,,2022-04-28,1,,,,,カミジ,0
1517,6013303006137,新規,0,2022-04-28,2022-04-28,合同会社ハーツクリエイト,,合同会社,東京都,豊島区,上池袋２丁目３０番５号,,13,116,1700012,,,,,,,2022-04-28,1,,,,,ハーツクリエイト,0
1531,6020001146314,新規,0,2022-04-28,2022-04-28,株式会社上野,,株式会社,神奈川県,川崎市川崎区,池上新町２丁目１４番１７号,,14,131,2100832,,,,,,,2022-04-28,1,,,,,ウエノ,0
1532,6020001146322,新規,0,2022-04-28,2022-04-28,株式会社永盛,,株式会社,神奈川県,横浜市中区,山下町１４６－６－５Ｆ,,14,104,2310023,,,,,,,2022-04-28,1,,,,,ナガモリ,0
1544,6021001075825,新規,0,2022-04-28,2022-04-28,株式会社Ｅｉｇｈｔ,,株式会社,神奈川県,藤沢市,藤沢９７１－３パール湘南５Ｆ,,14,205,2510052,,,,,,,2022-04-28,1,,,,,エイト,0
1545,6021001075841,新規,0,2022-04-28,2022-04-28,株式会社笑楽,,株式会社,神奈川県,座間市,南栗原２丁目２番４５号,,14,216,2520015,,,,,,,2022-04-28,1,,,,,ワラク,0
1553,6030001147971,新規,0,2022-04-28,2022-04-28,株式会社エス・フォード,,株式会社,埼玉県,朝霞市,岡３丁目５番１２号サンビームＶ２０２,,11,227,3510007,,,,,,,2022-04-28,1,,,,,エスフォード,0
1557,6030003019327,新規,0,2022-04-28,2022-04-28,ＫＹＡステージ合同会社,,合同会社,埼玉県,上尾市,谷津２丁目９番５号,,11,219,3620042,,,,,,,2022-04-28,1,,,,,ケーワイエーステージ,0
1563,6040003019953,新規,0,2022-04-28,2022-04-28,イケメン合同会社,,合同会社,千葉県,松戸市,新松戸４丁目１７番地ベルトピア新松戸ＩＩ－２０５,00126433,12,207,2700034,,,,,,,2022-04-28,1,,,,,イケメン,0
1565,6040005021593,新規,0,2022-04-28,2022-04-28,医療法人社団史誠会,,その他の設立登記法人,千葉県,八千代市,勝田台２丁目１２番地９,,12,221,2760023,,,,,,,2022-04-28,1,,,,,シセイカイ,0
1571,6060001034820,新規,0,2022-04-28,2022-04-28,Ｍｉａｎ株式会社,,株式会社,栃木県,栃木市,岩舟町新里１３０４番地１６号,,09,203,3294316,,,,,,,2022-04-28,1,,,,,ミアン,0
1573,6060005009975,新規,0,2022-04-28,2022-04-28,一般社団法人とちぎ映画演劇文化協議会,,その他の設立登記法人,栃木県,宇都宮市,桜４丁目１４番６号,,09,201,3200043,,,,,,,2022-04-28,1,,,,,トチギエイガエンゲキブンカキョウギカイ,0
1582,6100003006524,新規,0,2022-04-28,2022-04-28,合同会社モクシル,,合同会社,長野県,上田市,中之条１３８４－４,,20,203,3860034,,,,,,,2022-04-28,1,,,,,モクシル,0
1588,6120001245543,新規,0,2022-04-28,2022-04-28,株式会社Ｓ＆ＣＴＲＡＤＩＮＧ,,株式会社,大阪府,大阪市中央区,北久宝寺町３丁目６－１本町南ガーデンシティ７階,,27,128,5410057,,,,,,,2022-04-28,1,,,,,エスアンドシートレーディング,0
1589,6120001245568,新規,0,2022-04-28,2022-04-28,株式会社ＩＰＰＯ,,株式会社,大阪府,大阪市北区,南森町１丁目４番１１号ローラン南森町４０６号室,,27,127,5300054,,,,,,,2022-04-28,1,,,,,イッポ,0
1597,6120103004665,新規,0,2022-04-28,2022-04-28,ＢＬＯＳＴＥ合同会社,,合同会社,大阪府,堺市中区,土塔町３０２９－７,,27,142,5998234,,,,,,,2022-04-28,1,,,,,ブロステ,0
1605,6122001035817,新規,0,2022-04-28,2022-04-28,迅田国際株式会社,,株式会社,大阪府,八尾市,楽音寺３丁目１９プルーム楽音寺１０３号,,27,212,5810853,,,,,,,2022-04-28,1,,,,,ジンタコクサイ,0
1606,6122001035825,新規,0,2022-04-28,2022-04-28,株式会社Ｎｏｒｔｈ　Ｐｌｕｍ,,株式会社,大阪府,八尾市,太田８丁目７７番地の３,,27,212,5810037,,,,,,,2022-04-28,1,,,,,ノースプラム,0
1611,6140001078594,新規,0,2022-04-28,2022-04-28,株式会社タナカ,,株式会社,兵庫県,伊丹市,北河原４丁目１番２０号,,28,207,6640837,,,,,,,2022-04-28,1,,,,,タナカ,0
1615,6140001125826,新規,0,2022-04-28,2022-04-28,ＳＡＮＴＩＲＡ　ＣＯ．ＬＴＤ株式会社,,株式会社,兵庫県,神戸市中央区,浜辺通４丁目１－２３三宮ベンチャービルディング８階８１１,,28,110,6510083,,,,,,,2022-04-28,1,,,,,サンティラシィーオードットエルティディ,0
1617,6140003017633,新規,0,2022-04-28,2022-04-28,合同会社ＡＺ‐ｍｅｒｉｔ,,合同会社,兵庫県,姫路市,西新町１０８番地２ロワイヤル西新町６０２号,,28,201,6700033,,,,,,,2022-04-28,1,,,,,アズメリット,0
1619,6140005026161,新規,0,2022-04-28,2022-04-28,医療法人社団むらた泌尿器科医院,,その他の設立登記法人,兵庫県,明石市,大久保町駅前１丁目７番地の１２リアルティ大久保駅前,,28,203,6740058,,,,,,,2022-04-28,1,,,,,ムラタヒニョウキカイイン,0
1622,6150001025496,新規,0,2022-04-28,2022-04-28,株式会社スリーティーズ,,株式会社,奈良県,奈良市,菅野台２０番１０号,,29,201,6310043,,,,,,,2022-04-28,1,,,,,スリーティーズ,0
1639,6180001151050,新規,0,2022-04-28,2022-04-28,ヨイクデザイン株式会社,,株式会社,愛知県,海部郡蟹江町,本町５丁目１００番地ニューシティ蟹江六番館９０２号,,23,425,4970034,,,,,,,2022-04-28,1,,,,,ヨイクデザイン,0
1640,6180001151100,新規,0,2022-04-28,2022-04-28,株式会社ＳＫＹ‐Ｈｕ,,株式会社,愛知県,名古屋市中区,栄４丁目３番７号シエルブルー栄１１０７号,,23,106,4600008,,,,,,,2022-04-28,1,,,,,スカイフ,0
1641,6180001151109,新規,0,2022-04-28,2022-04-28,株式会社舩橋不動産,,株式会社,愛知県,小牧市,大字三ツ渕７７２番地２,,23,219,4850075,,,,,,,2022-04-28,1,,,,,フナハシフドウサン,0
1644,6180005019756,新規,0,2022-04-28,2022-04-28,一般社団法人ＳＤＧｓ振興会,,その他の設立登記法人,愛知県,名古屋市中区,三の丸１丁目１４番７号本丸ビル４階,,23,106,4600001,,,,,,,2022-04-28,1,,,,,エスディージーズシンコウカイ,0
1656,6200003005549,新規,0,2022-04-28,2022-04-28,合同会社ＡＩＵ,,合同会社,岐阜県,岐阜市,正木中４丁目８番８－１０１号（プラム正木）,,21,201,5020882,,,,,,,2022-04-28,1,,,,,アイユー,0
1660,6230001019341,新規,0,2022-04-28,2022-04-28,株式会社アイリス,,株式会社,富山県,富山市,太郎丸本町１丁目４番地９,,16,201,9398272,,,,,,,2022-04-28,1,,,,,アイリス,0
1661,6240001059691,新規,0,2022-04-28,2022-04-28,株式会社エム・アイ・シー・エアライン,,株式会社,広島県,広島市中区,東白島町１２番１５号,,34,101,7300004,,,,,,,2022-04-28,1,,,,,エムアイシーエアライン,0
1665,6250005008743,新規,0,2022-04-28,2022-04-28,一般社団法人ｐｌｕｓ　Ｏｎｅ,,その他の設立登記法人,山口県,下関市,彦島塩浜町３丁目１０番１３号グランシャリオＩ２０１号,00126432,35,201,7500086,,,,,,,2022-04-28,1,,,,,プラスワン,0
1667,6260001036805,新規,0,2022-04-28,2022-04-28,株式会社Ｓｅｒｉｏｕｓ　ｐｌａｙ,,株式会社,岡山県,岡山市南区,泉田４２１番地２０,,33,104,7000944,,,,,,,2022-04-28,1,,,,,セリオスプレイ,0
1669,6260003003893,新規,0,2022-04-28,2022-04-28,ＫＳＭネットワーク合同会社,,合同会社,岡山県,倉敷市,粒江１９３９番地１,,33,202,7100034,,,,,,,2022-04-28,1,,,,,ケーエスエムネットワーク,0
1678,6290001097282,新規,0,2022-04-28,2022-04-28,株式会社サンコイチ,,株式会社,福岡県,福岡市中央区,天神４丁目９番１４－２０１号,,40,133,8100001,,,,,,,2022-04-28,1,,,,,サンコイチ,0
1679,6290001097373,新規,0,2022-04-28,2022-04-28,株式会社ｈａｃｏｎｉｗａ,,株式会社,福岡県,糸島市,前原駅南２丁目１２番１号ライフステージＩＩＩ１階,00126442,40,230,8191138,,,,,,,2022-04-28,1,,,,,ハコニワ,0
1686,6310001017832,新規,0,2022-04-28,2022-04-28,株式会社祐和都市開発,,株式会社,長崎県,長崎市,坂本１丁目１３番２－３０２号,,42,201,8528102,,,,,,,2022-04-28,1,,,,,ユウワトシカイハツ,0
1700,6360003011977,新規,0,2022-04-28,2022-04-28,合同会社Ｍコンサルタント,,合同会社,沖縄県,那覇市,松島１丁目２２番１９号,,47,201,9020069,,,,,,,2022-04-28,1,,,,,エムコンサルタント,0
1705,6410001013177,新規,0,2022-04-28,2022-04-28,ＥＡＳＴ　ＬＯＧＩＣ株式会社,,株式会社,秋田県,湯沢市,裏門２丁目４番２０号,,05,207,0120824,,,,,,,2022-04-28,1,,,,,イーストロジック,0
1708,6430001086485,新規,0,2022-04-28,2022-04-28,株式会社ＡＬＬＩＡＮＣＥ　ＨＯＫＫＡＩＤＯ,,株式会社,北海道,札幌市西区,発寒十条２丁目９番１０－６０１号,,01,107,0630830,,,,,,,2022-04-28,1,,,,,アライアンスホッカイドウ,0
1709,6430001086510,新規,0,2022-04-28,2022-04-28,株式会社ＳＦＩＴＯ,,株式会社,北海道,札幌市清田区,平岡六条３丁目２番１０号,,01,110,0040876,,,,,,,2022-04-28,1,,,,,スフィート,0
1712,6430003013842,新規,0,2022-04-28,2022-04-28,ＶＰＮ　Ｓｔｒｅａｍｉｎｇ合同会社,,合同会社,北海道,札幌市中央区,南一条西１６丁目１番地３２３春野ビル３Ｆ,,01,101,0600061,,,,,,,2022-04-28,1,,,,,ブイピーエヌストリーミング,0
1713,6430003013859,新規,0,2022-04-28,2022-04-28,Ｈｉｌａｒｉｏｕｓ合同会社,,合同会社,北海道,虻田郡倶知安町,字樺山３０番地１２３,,01,400,0440078,,,,,,,2022-04-28,1,,,,,ヒラリアス,0
1722,6480003001826,新規,0,2022-04-28,2022-04-28,合同会社つむぎ,,合同会社,徳島県,徳島市,渋野町佐野８１番地,,36,201,7714267,,,,,,,2022-04-28,1,,,,,,0
1724,6700150107394,新規,0,2022-04-28,2022-03-14,関西現代音楽研究会,,その他,兵庫県,西宮市,浜甲子園２丁目１７－７,,28,204,6638154,,,,,,,2022-03-14,1,,,,,カンサイゲンダイオンガクケンキユウカイ,0
1725,6700150108450,新規,0,2022-04-28,2022-04-28,Ａｉｒｂｕｓ　Ｆｌｉｇｈｔ　Ｈｏｕｒ　Ｓｅｒｖｉｃｅｓ　ｌｉｍｉｔｅｄ,,外国会社等,,,,,,,,５ｔｈ　Ｆｌｏｏｒ，６　Ｇｅｏｒｇｅ’ｓ　Ｄｏｃｋ，ＩＦＳＣＤｕｂｌｉｎ　１，Ｃｏ　Ｄｕｂｌｉｎ　Ｄ０１Ｋ５Ｃ７，Ｉｒｅｌａｎｄ,,,,,,2022-04-28,1,,,,,エアバスフライトアワーサービスリミテツド,0
1738,7010001226157,新規,0,2022-04-28,2022-04-28,株式会社ＳＲＫ,,株式会社,東京都,千代田区,鍛冶町１丁目６番２号,,13,101,1010044,,,,,,,2022-04-28,1,,,,,エスアールケー,0
1739,7010001226165,新規,0,2022-04-28,2022-04-28,株式会社シェイクハンズ,,株式会社,東京都,千代田区,神田岩本町１番地１４ＫＤＸ秋葉原ビル９階,,13,101,1010033,,,,,,,2022-04-28,1,,,,,シェイクハンズ,0
1740,7010001226181,新規,0,2022-04-28,2022-04-28,キヤマコンサルティング株式会社,,株式会社,東京都,千代田区,神田須田町２丁目２３－１天翔秋葉原万世橋ビル８階８０２号室,,13,101,1010041,,,,,,,2022-04-28,1,,,,,キヤマコンサルティング,0
1741,7010001226231,新規,0,2022-04-28,2022-04-28,セルリソーシズ株式会社,,株式会社,東京都,千代田区,内神田１丁目１２番１号,,13,101,1010047,,,,,,,2022-04-28,1,,,,,セルリソーシズ,0
1751,7010403027467,新規,0,2022-04-28,2022-04-28,合同会社Ｅｍｉｌｉａ,,合同会社,東京都,港区,南青山２丁目２番１５号,,13,103,1070062,,,,,,,2022-04-28,1,,,,,エミリア,0
1752,7010403027517,新規,0,2022-04-28,2022-04-28,合同会社バンギコーポレーション,,合同会社,東京都,港区,南青山５丁目４番１１－４１１号,,13,103,1070062,,,,,,,2022-04-28,1,,,,,バンギコーポレーション,0
1767,7010901050788,新規,0,2022-04-28,2022-04-28,ＹＭＹ株式会社,,株式会社,東京都,世田谷区,梅丘１丁目４番１号,,13,112,1540022,,,,,,,2022-04-28,1,,,,,ワイエムワイ,0
1768,7010903007349,新規,0,2022-04-28,2022-04-28,合同会社かるちべ,,合同会社,東京都,世田谷区,三軒茶屋１丁目２７－２７モテアマス三軒茶屋,,13,112,1540024,,,,,,,2022-04-28,1,,,,,カルチベ,0
1773,7011001147120,新規,0,2022-04-28,2022-04-28,株式会社ＤＦＣ,,株式会社,東京都,渋谷区,神宮前４丁目１２番５号表参道ヒルズセルゴバテラスＥ５０４,,13,113,1500001,,,,,,,2022-04-28,1,,,,,ディーエフシー,0
1774,7011001147211,新規,0,2022-04-28,2022-04-28,株式会社パビリオン,,株式会社,東京都,渋谷区,猿楽町２９番９－３５号,,13,113,1500033,,,,,,,2022-04-28,1,,,,,パビリオン,0
1775,7011001147228,新規,0,2022-04-28,2022-04-28,株式会社トゥーンクラッカー,,株式会社,東京都,渋谷区,渋谷３丁目９番９号東京建物渋谷ビル８階,,13,113,1500002,,,,,,,2022-04-28,1,,,,,トゥーンクラッカー,0
1781,7011201023798,新規,0,2022-04-28,2022-04-28,株式会社ＮＩＫＫＥＮ,,株式会社,東京都,中野区,沼袋３丁目１２番４号ニューハイム中野沼袋１０１,,13,114,1650025,,,,,,,2022-04-28,1,,,,,ニッケン,0
1782,7011203003807,新規,0,2022-04-28,2022-04-28,合同会社ダーナ,,合同会社,東京都,中野区,中野１丁目２４－２パークレジナス中野１０２号室,,13,114,1640001,,,,,,,2022-04-28,1,,,,,ダーナ,0
1788,7011401024200,新規,0,2022-04-28,2022-04-28,株式会社エミリ・パーク,,株式会社,東京都,板橋区,小茂根１丁目１９番１０－２０２号,,13,119,1730037,,,,,,,2022-04-28,1,,,,,エミリパーク,0
1790,7011501027994,新規,0,2022-04-28,2022-04-28,ＡＢＩＲ　ＤＹＮＡＭＩＣＳ株式会社,,株式会社,東京都,荒川区,荒川３丁目３６番２号第三北城荘１０１号室,,13,118,1160002,,,,,,,2022-04-28,1,,,,,アビルダイナミクス,0
1798,7012303001667,新規,0,2022-04-28,2022-04-28,Ｔｉｇｒｉｓ合同会社,,合同会社,東京都,町田市,野津田町１３７１－１９,,13,209,1950063,,,,,,,2022-04-28,1,,,,,ティグリス,0
1821,7020001146321,新規,0,2022-04-28,2022-04-28,株式会社和盛,,株式会社,神奈川県,横浜市中区,山下町１４６－６－３Ｆ,,14,104,2310023,,,,,,,2022-04-28,1,,,,,カズモリ,0
1822,7020001146338,新規,0,2022-04-28,2022-04-28,ＪＩＮリアルティ株式会社,,株式会社,神奈川県,横浜市保土ケ谷区,常盤台３９番３号,,14,106,2400067,,,,,,,2022-04-28,1,,,,,ジェイアイエヌリアルティ,0
1827,7021001075808,新規,0,2022-04-28,2022-04-28,株式会社薬光道,,株式会社,神奈川県,秦野市,鈴張町７番４号,,14,211,2570055,,,,,,,2022-04-28,1,,,,,ヤッコウドウ,0
1828,7021001075840,新規,0,2022-04-28,2022-04-28,ビリオン株式会社,,株式会社,神奈川県,鎌倉市,大船４丁目１３番１０号,,14,204,2470056,,,,,,,2022-04-28,1,,,,,ビリオン,0
1840,7030001147954,新規,0,2022-04-28,2022-04-28,株式会社彩電リース,,株式会社,埼玉県,加須市,割目４４５番地１,,11,210,3470025,,,,,,,2022-04-28,1,,,,,サイデンリース,0
1841,7030001147979,新規,0,2022-04-28,2022-04-28,株式会社ｂｌｏｏｍ　ｌｉｎｋ,,株式会社,埼玉県,さいたま市大宮区,桜木町２丁目３番地大宮マルイ７階,,11,103,3300854,,,,,,,2022-04-28,1,,,,,ブルームリンク,0
1844,7030003019326,新規,0,2022-04-28,2022-04-28,合同会社小林総業,,合同会社,埼玉県,深谷市,大谷４７６番地１,,11,218,3660814,,,,,,,2022-04-28,1,,,,,コバヤシソウギョウ,0
1846,7030005020851,新規,0,2022-04-28,2022-04-28,特定非営利活動法人マナビダネ,,その他の設立登記法人,埼玉県,入間市,大字下藤沢１０７１番地２１,,11,225,3580011,,,,,,,2022-04-28,1,,,,,マナビダネ,0
1852,7040001123186,新規,0,2022-04-28,2022-04-28,株式会社Ｒｉｎｇｓ　Ｐａｒａｓｏｌ,,株式会社,千葉県,船橋市,坪井東３丁目８番５号,,12,204,2740060,,,,,,,2022-04-28,1,,,,,リングパラソル,0
1853,7040001123194,新規,0,2022-04-28,2022-04-28,株式会社Ｎｅｗｆｏｒｕｍ,,株式会社,千葉県,船橋市,本中山６丁目９番１０号,,12,204,2730035,,,,,,,2022-04-28,1,,,,,ニューフォオム,0
1855,7040003019944,新規,0,2022-04-28,2022-04-28,ＶＩＮ合同会社,,合同会社,千葉県,八千代市,勝田台１丁目１４番地７１,,12,221,2760023,,,,,,,2022-04-28,1,,,,,ビン,0
1860,7050001051023,新規,0,2022-04-28,2022-04-28,株式会社寿不動産,,株式会社,茨城県,下妻市,加養８３４番地３,,08,210,3040048,,,,,,,2022-04-28,1,,,,,コトブキフドウサン,0
1888,7120001245369,新規,0,2022-04-28,2022-04-28,株式会社堂山ホテル,,株式会社,大阪府,大阪市北区,堂山町１７番８号,,27,127,5300027,,,,,,,2022-04-28,1,,,,,ドウヤマホテル,0
1889,7120001245542,新規,0,2022-04-28,2022-04-28,株式会社ＶＯＷ,,株式会社,大阪府,大阪市北区,梅田１丁目１番３号大阪駅前第３ビル２９階,,27,127,5300001,,,,,,,2022-04-28,1,,,,,ヴァウ,0
1890,7120001245559,新規,0,2022-04-28,2022-04-28,株式会社Ｒｕｂｅａｓｔ,,株式会社,大阪府,大阪市北区,梅田１丁目２－２大阪駅前第２ビル２階５－６号室,,27,127,5300001,,,,,,,2022-04-28,1,,,,,ルビースト,0
1891,7120001245591,新規,0,2022-04-28,2022-04-28,株式会社森野組,,株式会社,大阪府,大阪市城東区,中央３丁目２番５－４０１号,,27,118,5360005,,,,,,,2022-04-28,1,,,,,モリノグミ,0
1892,7120001245600,新規,0,2022-04-28,2022-04-28,株式会社Ｒｅｓｅｔ,,株式会社,大阪府,大阪市旭区,赤川２丁目５番１３－６０７号,,27,117,5350005,,,,,,,2022-04-28,1,,,,,リセット,0
1893,7120003021537,新規,0,2022-04-28,2022-04-28,合同会社マンモス,,合同会社,大阪府,大阪市北区,天神橋７丁目７―１３ラポール天神橋２０３,,27,127,5310041,,,,,,,2022-04-28,1,,,,,マンモス,0
1894,7120003021586,新規,0,2022-04-28,2022-04-28,合同会社Ｂ＆Ｓノリタカカンパニー,,合同会社,大阪府,大阪市北区,梅田１丁目１番３号大阪駅前第３ビル２９階１－１－１号室,,27,127,5300001,,,,,,,2022-04-28,1,,,,,ビーアンドエスノリタカカンパニー,0
1908,7130001071665,新規,0,2022-04-28,2022-04-28,Ｆｉｎｇｏｏ株式会社,,株式会社,京都府,京都市下京区,玉津島町２９４,,26,106,6008427,,,,,,,2022-04-28,1,,,,,フィングー,0
1916,7140001125833,新規,0,2022-04-28,2022-04-28,株式会社ライエン,,株式会社,兵庫県,相生市,那波野３丁目３番１１号,,28,208,6780011,,,,,,,2022-04-28,1,,,,,ライエン,0
1920,7140003017632,新規,0,2022-04-28,2022-04-28,合同会社渡邊,,合同会社,兵庫県,明石市,中崎２丁目７番３１－１２０３号,,28,203,6730883,,,,,,,2022-04-28,1,,,,,ワタナベ,0
1921,7140005026160,新規,0,2022-04-28,2022-04-28,一般社団法人美子の郷,,その他の設立登記法人,兵庫県,神戸市垂水区,星陵台５丁目３番３４号,,28,108,6550038,,,,,,,2022-04-28,1,,,,,ミネノサト,0
1925,7160003002558,新規,0,2022-04-28,2022-04-28,合同会社ウェイクス,,合同会社,滋賀県,草津市,西大路町１０番１０－Ａ５０１号ファミールハイツ草津,,25,206,5250037,,,,,,,2022-04-28,1,,,,,ウェイクス,0
1926,7170003001716,新規,0,2022-04-28,2022-04-28,合同会社ポレポレ,,合同会社,和歌山県,和歌山市,新在家８５番地２１,,30,201,6408345,,,,,,,2022-04-28,1,,,,,ポレポレ,0
1933,7180001151108,新規,0,2022-04-28,2022-04-28,株式会社ハナイ塗装,,株式会社,愛知県,大府市,共西町７丁目１５６番地,,23,223,4740062,,,,,,,2022-04-28,1,,,,,ハナイトソウ,0
1939,7180003023759,新規,0,2022-04-28,2022-04-28,高尾バイオガスファーム合同会社,,合同会社,愛知県,豊明市,前後町大狭間１４４５番２,,23,229,4701151,,,,,,,2022-04-28,1,,,,,タカオバイオガスファーム,0
1943,7180301036181,新規,0,2022-04-28,2022-04-28,株式会社ＤＥＷＡコーポレーション,,株式会社,愛知県,新城市,門谷字中浦５８番地,,23,221,4411944,,,,,,,2022-04-28,1,,,,,デワコーポレーション,0
1945,7190001029360,新規,0,2022-04-28,2022-04-28,株式会社大都,,株式会社,三重県,鈴鹿市,郡山町２０３３番地の２,,24,207,5100263,,,,,,,2022-04-28,1,,,,,ダイト,0
1946,7190001029369,新規,0,2022-04-28,2022-04-28,株式会社ファーストライン,,株式会社,三重県,津市,上浜町４丁目４９番地上浜団地４号棟６０６号室,,24,201,5140008,,,,,,,2022-04-28,1,,,,,ファーストライン,0
1951,7220001024820,新規,0,2022-04-28,2022-04-28,株式会社ＤｒｅａｍＲｅｌｉｚｅ,,株式会社,石川県,金沢市,菊川１丁目７番５号,,17,201,9200967,,,,,,,2022-04-28,1,,,,,ドリームリアライズ,0
1952,7220003003269,新規,0,2022-04-28,2022-04-28,合同会社Ｏｆｆｉｃｅ．ｍｅｅ,,合同会社,石川県,金沢市,北町乙７４番地１リューキ３・３０４号,,17,201,9200055,,,,,,,2022-04-28,1,,,,,オフィスミィ,0
1964,7250005008742,新規,0,2022-04-28,2022-04-28,一般社団法人ＳＤＧｓワークス,,その他の設立登記法人,山口県,山陽小野田市,大字鴨庄８１番地１,,35,216,7570005,,,,,,,2022-04-28,1,,,,,エスディージーズワークス,0
1965,7260001036804,新規,0,2022-04-28,2022-04-28,株式会社Ｖホールディングス,,株式会社,岡山県,岡山市南区,泉田４２１番地２０,,33,104,7000944,,,,,,,2022-04-28,1,,,,,ブイホールディングス,0
1972,7270005005515,新規,0,2022-04-28,2022-04-28,医療法人とっとの杜,,その他の設立登記法人,鳥取県,鳥取市,国府町麻生９１番地,,31,201,6800142,,,,,,,2022-04-28,1,,,,,トットノモリ,0
1986,7290003012461,新規,0,2022-04-28,2022-04-28,ＡＮＨ　ＮＨＵ合同会社,,合同会社,福岡県,福岡市南区,大楠２丁目５番１０号,,40,134,8150082,,,,,,,2022-04-28,1,,,,,アンニュ,0
1989,7310003004349,新規,0,2022-04-28,2022-04-28,合同会社やよい,,合同会社,長崎県,長崎市,赤迫２丁目５番５－１２０２号,,42,201,8528156,,,,,,,2022-04-28,1,,,,,ヤヨイ,0
1990,7320001019042,新規,0,2022-04-28,2022-04-28,株式会社ＨＯＳＨＩＮＯ,,株式会社,大分県,日田市,南元町１２番１０号,,44,204,8770024,,,,,,,2022-04-28,1,,,,,ホシノ,0
1996,7360001030301,新規,0,2022-04-28,2022-04-28,株式会社ＧＭＷ,,株式会社,沖縄県,那覇市,久茂地１丁目１－１、９Ｆ,,47,201,9000015,,,,,,,2022-04-28,1,,,,,,0
1999,7360003011976,新規,0,2022-04-28,2022-04-28,合同会社ＫＳ企画,,合同会社,沖縄県,豊見城市,字高安８６番地,,47,212,9010242,,,,,,,2022-04-28,1,,,,,ケーエスキカク,0
2008,7370003005671,新規,0,2022-04-28,2022-04-28,合同会社天音,,合同会社,宮城県,仙台市若林区,若林４丁目７番２５号吉野アパート１１号室,,04,103,9840826,,,,,,,2022-04-28,1,,,,,アマネ,0
2029,7420001017829,新規,0,2022-04-28,2022-04-28,株式会社スターライトメモリーズ,,株式会社,青森県,八戸市,小中野５丁目２番５号大町マンション５Ｆ,,02,203,0310802,,,,,,,2022-04-28,1,,,,,スターライトメモリーズ,0
2034,7430005014458,新規,0,2022-04-28,2022-04-28,一般社団法人あるく,,その他の設立登記法人,北海道,札幌市中央区,南十五条西１０丁目１番２０－３０８号,,01,101,0640915,,,,,,,2022-04-28,1,,,,,アルク,0
2039,7700150107699,新規,0,2022-04-28,2022-04-05,ＤＡＮＣＥＸ実行委員会,,その他,宮城県,名取市,杜せきのした５丁目２０－３　２Ｆ,,04,207,9811227,,,,,,,2022-04-05,1,,,,,ダンスエツクスジツコウイインカイ,0
2040,7700150107740,新規,0,2022-04-28,2022-04-08,三龍会,,その他,愛知県,海部郡大治町,大字三本木字堅田５３,,23,424,4901142,,,,,,,2022-04-08,1,,,,,サンリユウカイ,0
2041,7700150108425,新規,0,2022-04-28,2022-04-28,Ｓ．Ｋ．Ｎ．　Ａｕｔｏ　Ｓｏｌｕｔｉｏｎｓ,,外国会社等,千葉県,四街道市,大日８３６番地Ｚ,,12,228,2840001,スリランカ民主社会主義共和国、デヒワラ、ペイリスアベニュー、１４Ａ,,,,,,2022-04-28,1,,,,,エスケイエヌオートソリユーシヨンズ,0
2053,8010001226098,新規,0,2022-04-28,2022-04-28,ＯＩＫＯＳ　ＭＵＳＩＣ株式会社,,株式会社,東京都,千代田区,麹町１丁目４番地４,,13,101,1020083,,,,,,,2022-04-28,1,,,,,オイコスミュージック,0
2054,8010001226164,新規,0,2022-04-28,2022-04-28,株式会社ハンズグローバル,,株式会社,東京都,千代田区,神田岩本町１番地１４ＫＤＸ秋葉原ビル９階,,13,101,1010033,,,,,,,2022-04-28,1,,,,,ハンズグローバル,0
2055,8010001226197,新規,0,2022-04-28,2022-04-28,株式会社銀商,,株式会社,東京都,中央区,銀座６丁目１２番１５号いちご銀座６１２ビル６階,,13,102,1040061,,,,,,,2022-04-28,1,,,,,ギンショウ,0
2056,8010001226239,新規,0,2022-04-28,2022-04-28,ウィズプラス商事株式会社,,株式会社,東京都,千代田区,神田練塀町４５番６０５号,,13,101,1010022,,,,,,,2022-04-28,1,,,,,ウィズプラスショウジ,0
2059,8010003037485,新規,0,2022-04-28,2022-04-28,ＣＴＬＧ合同会社,,合同会社,東京都,中央区,銀座１丁目２２番１１号銀座大竹ビジデンス２階,,13,102,1040061,,,,,,,2022-04-28,1,,,,,シーティーエルジー,0
2060,8010003037551,新規,0,2022-04-28,2022-04-28,八雲合同会社,,合同会社,東京都,中央区,銀座１丁目２２番１１号銀座大竹ビジデンス２階,,13,102,1040061,,,,,,,2022-04-28,1,,,,,ヤクモ,0
2063,8010005034943,新規,0,2022-04-28,2022-04-28,一般社団法人金融データ活用推進協会,,その他の設立登記法人,東京都,文京区,千駄木３丁目２７番９号,,13,105,1130022,,,,,,,2022-04-28,1,,,,,キンユウデータカツヨウスイシンキョウカイ,0
2064,8010005034951,新規,0,2022-04-28,2022-04-28,横浜みなとみらい６２街区一般社団法人,,その他の設立登記法人,東京都,千代田区,丸の内３丁目１番１号東京共同会計事務所内,,13,101,1000005,,,,,,,2022-04-28,1,,,,,ヨコハマミナトミライロクジュウニガイク,0
2069,8010401166910,新規,0,2022-04-28,2022-04-28,株式会社キキライフ,,株式会社,東京都,港区,西新橋１丁目１８－６クロスオフィス内幸町,,13,103,1050003,,,,,,,2022-04-28,1,,,,,キキライフ,0
2072,8010403027516,新規,0,2022-04-28,2022-04-28,合同会社ｔｅｎ,,合同会社,東京都,港区,南青山２丁目２番１５号,,13,103,1070062,,,,,,,2022-04-28,1,,,,,テン,0
2076,8010701042563,新規,0,2022-04-28,2022-04-28,ＳＡＶＯＩＲ株式会社,,株式会社,東京都,品川区,西五反田２丁目９－７ドルミ五反田アンメゾン４０７号,,13,109,1410031,,,,,,,2022-04-28,1,,,,,サヴォア,0
2082,8010901050779,新規,0,2022-04-28,2022-04-28,株式会社ＴｉＡＲＡ,,株式会社,東京都,世田谷区,上北沢５丁目４４番１１－３０７号,,13,112,1560057,,,,,,,2022-04-28,1,,,,,ティアラ,0
2086,8011001147202,新規,0,2022-04-28,2022-04-28,株式会社タスクル,,株式会社,東京都,渋谷区,渋谷２丁目２４番１２号渋谷スクランブルスクエア３９階,,13,113,1500002,,,,,,,2022-04-28,1,,,,,タスクル,0
2087,8011001147219,新規,0,2022-04-28,2022-04-28,株式会社代々木グローバル学園,,株式会社,東京都,渋谷区,千駄ヶ谷５丁目８番２号,,13,113,1510051,,,,,,,2022-04-28,1,,,,,ヨヨギグローバルガクエン,0
2089,8011003014615,新規,0,2022-04-28,2022-04-28,ジェイケイ・マネジメント合同会社,,合同会社,東京都,渋谷区,道玄坂２丁目１５－１－７０２,,13,113,1500043,,,,,,,2022-04-28,1,,,,,,0
2096,8011101098725,新規,0,2022-04-28,2022-04-28,アストロラーベ株式会社,,株式会社,東京都,新宿区,西新宿３丁目３番１３号,,13,104,1600023,,,,,,,2022-04-28,1,,,,,アストロラーベ,0
2097,8011103011702,新規,0,2022-04-28,2022-04-28,合同会社Ｅｍｂｌｅｍ,,合同会社,東京都,新宿区,新宿２丁目３番１６－８０９号,,13,104,1600022,,,,,,,2022-04-28,1,,,,,エンブレム,0
2099,8011203003806,新規,0,2022-04-28,2022-04-28,大泉合同会社,,合同会社,東京都,中野区,新井２丁目５１－２メゾンドビュー２０２,,13,114,1650026,,,,,,,2022-04-28,1,,,,,ダイセン,0
2105,8011401024199,新規,0,2022-04-28,2022-04-28,株式会社ＨＥＲＡ　ＪＡＰＡＮ,,株式会社,東京都,板橋区,大山東町３２番１２－６０１号,,13,119,1730014,,,,,,,2022-04-28,1,,,,,ヘラジャパン,0
2106,8011405002201,新規,0,2022-04-28,2022-04-28,一般社団法人あそび庁,,その他の設立登記法人,東京都,板橋区,蓮根３丁目１４番１２－４０２号,,13,119,1740046,,,,,,,2022-04-28,1,,,,,アソビチョウ,0
2111,8011701025269,新規,0,2022-04-28,2022-04-28,安律株式会社,,株式会社,東京都,江戸川区,一之江３丁目１２番１２号,,13,123,1320024,,,,,,,2022-04-28,1,,,,,アンリツ,0
2114,8011801040647,新規,0,2022-04-28,2022-04-28,ゆいホールディング株式会社,,株式会社,東京都,足立区,千住１丁目３４番１０号,,13,121,1200034,,,,,,,2022-04-28,1,,,,,ユイホールディング,0
2117,8012405004732,新規,0,2022-04-28,2022-04-28,一般社団法人ｏｏｏ,,その他の設立登記法人,東京都,調布市,若葉町１丁目３１番地１０,,13,208,1820003,,,,,,,2022-04-28,1,,,,,オオオ,0
2120,8012703002446,新規,0,2022-04-28,2022-04-28,合同会社フライ,,合同会社,東京都,清瀬市,上清戸２丁目１２－１９エルシェアート清瀬,,13,221,2040013,,,,,,,2022-04-28,1,,,,,フライ,0
2121,8012803002759,新規,0,2022-04-28,2022-04-28,合同会社ＭＯＴＯＹＡグループ,,合同会社,東京都,立川市,錦町２丁目１番１１号立川ロゼビル１階,,13,202,1900022,,,,,,,2022-04-28,1,,,,,モトヤグループ,0
2130,8020001146337,新規,0,2022-04-28,2022-04-28,ＪＩＮキャピタル株式会社,,株式会社,神奈川県,横浜市保土ケ谷区,常磐台３９番３号,,14,106,2400000,,,,,,,2022-04-28,1,,,,,ジェイアイエヌキャピタル,0
2133,8020003021703,新規,0,2022-04-28,2022-04-28,Ｗａｆｆｌｅ合同会社,,合同会社,神奈川県,横浜市中区,尾上町５丁目７１番地,,14,104,2310015,,,,,,,2022-04-28,1,,,,,ワッフル,0
2145,8030001147953,新規,0,2022-04-28,2022-04-28,株式会社澤崎,,株式会社,埼玉県,春日部市,豊町１丁目１８番６号,,11,214,3440066,,,,,,,2022-04-28,1,,,,,サワサキ,0
2150,8030003019325,新規,0,2022-04-28,2022-04-28,合同会社ＴＭコンサル,,合同会社,埼玉県,川越市,脇田本町７－８,,11,201,3501123,,,,,,,2022-04-28,1,,,,,ティーエムコンサル,0
2151,8030003019333,新規,0,2022-04-28,2022-04-28,日本海南商事合同会社,,合同会社,埼玉県,新座市,中野２丁目４－４８,,11,230,3520005,,,,,,,2022-04-28,1,,,,,ニホンカイナンショウジ,0
2162,8040001123185,新規,0,2022-04-28,2022-04-28,株式会社中村工業,,株式会社,千葉県,千葉市若葉区,桜木１丁目３１番２５号スカイビレッジ１－１号,,12,104,2640028,,,,,,,2022-04-28,1,,,,,ナカムラコウギョウ,0
2166,8040005021583,新規,0,2022-04-28,2022-04-28,一般社団法人タオ・アカデミージャパン,,その他の設立登記法人,千葉県,市川市,福栄４丁目５番９－４０５号（ローズガーデン南行徳六番館）,,12,203,2720137,,,,,,,2022-04-28,1,,,,,タオアカデミージャパン,0
2171,8060001034819,新規,0,2022-04-28,2022-04-28,株式会社Ｃｈｅｓｔｅｒ,,株式会社,栃木県,那須塩原市,永田町１番２０号,,09,213,3292727,,,,,,,2022-04-28,1,,,,,チェスター,0
2173,8070003004471,新規,0,2022-04-28,2022-04-28,合同会社Ｌｉｔｔｌｅ　Ｄｉｖｉｓｏｒｉａ,,合同会社,群馬県,伊勢崎市,今泉町１丁目１５２８番地５,,10,204,3720031,,,,,,,2022-04-28,1,,,,,リトルディビソリア,0
2185,8110001036628,新規,0,2022-04-28,2022-04-28,サンスイ株式会社,,株式会社,新潟県,新潟市東区,はなみずき１丁目５番１号,,15,102,9500893,,,,,,,2022-04-28,1,,,,,サンスイ,0
2192,8120001245541,新規,0,2022-04-28,2022-04-28,株式会社西天商会,,株式会社,大阪府,大阪市北区,梅田１丁目１－３大阪駅前第３ビル２９階１－１－１号室,,27,127,5300001,,,,,,,2022-04-28,1,,,,,セイテンショウカイ,0
2193,8120001245582,新規,0,2022-04-28,2022-04-28,株式会社ＡＲＡＩＹＡ,,株式会社,大阪府,大阪市西区,京町堀２丁目４番１号,,27,106,5500003,,,,,,,2022-04-28,1,,,,,アライヤ,0
2194,8120001245590,新規,0,2022-04-28,2022-04-28,株式会社あかね不動産,,株式会社,大阪府,大阪市天王寺区,舟橋町９番１号,,27,109,5430024,,,,,,,2022-04-28,1,,,,,アカネフドウサン,0
2204,8120003021577,新規,0,2022-04-28,2022-04-28,合同会社ＴＯＣコンサルティング,,合同会社,大阪府,寝屋川市,石津東町２７番１２号,,27,215,5720027,,,,,,,2022-04-28,1,,,,,ティーオーシーコンサルティング,0
2205,8120003021585,新規,0,2022-04-28,2022-04-28,合同会社７９,,合同会社,大阪府,大阪市中央区,島之内１丁目１５番２５－１１０６号,,27,128,5420082,,,,,,,2022-04-28,1,,,,,ナナキュー,0
2211,8120901045900,新規,0,2022-04-28,2022-04-28,＿月商事株式会社,00126436,株式会社,大阪府,豊中市,上野西２丁目２番３０号１階１０２号室,,27,203,5600011,,,,,,,2022-04-28,1,,,,,キンツキショウジ,0
2215,8122001035823,新規,0,2022-04-28,2022-04-28,株式会社アジアン商事,,株式会社,大阪府,東大阪市,菱江５丁目１１番１５号,,27,227,5780984,,,,,,,2022-04-28,1,,,,,アジアンショウジ,0
2220,8122003002326,新規,0,2022-04-28,2022-04-28,合同会社こばる,,合同会社,大阪府,四條畷市,大字清瀧３４番地の６,,27,229,5750063,,,,,,,2022-04-28,1,,,,,コバル,0
2228,8140003017615,新規,0,2022-04-28,2022-04-28,デンコウテック合同会社,,合同会社,兵庫県,神戸市西区,玉津町西河原１１１－１,,28,111,6512127,,,,,,,2022-04-28,1,,,,,デンコウテック,0
2235,8170003001715,新規,0,2022-04-28,2022-04-28,Ｄ．ＯＮＥ．ＣＲＥＷ合同会社,,合同会社,和歌山県,田辺市,江川３９番１７号,,30,206,6460054,,,,,,,2022-04-28,1,,,,,ディーワンクルー,0
2248,8180301036172,新規,0,2022-04-28,2022-04-28,トヨタ刺繍株式会社,00126434,株式会社,愛知県,豊田市,四郷町下古屋４０番地,,23,211,4700373,,,,,,,2022-04-28,1,,,,,トヨタシシュウ,0
2249,8180301036180,新規,0,2022-04-28,2022-04-28,株式会社ｅ‐ｂｅｎｔ,,株式会社,愛知県,岡崎市,箱柳町字猫沢２３番地８,,23,202,4440001,,,,,,,2022-04-28,1,,,,,イーベント,0
2256,8210001018905,新規,0,2022-04-28,2022-04-28,株式会社天穂,,株式会社,福井県,福井市,下天下町第１号６番地,,18,201,9103632,,,,,,,2022-04-28,1,,,,,テンスイ,0
2257,8210003001504,新規,0,2022-04-28,2022-04-28,合同会社Ｍ＆Ｉ企画,,合同会社,福井県,あわら市,後山第７２号９番地,,18,208,9190735,,,,,,,2022-04-28,1,,,,,エムアンドアイキカク,0
2265,8240003005601,新規,0,2022-04-28,2022-04-28,合同会社ＯＵＴＬＩＮＥ,,合同会社,広島県,広島市南区,東本浦町８番１７号,,34,103,7340025,,,,,,,2022-04-28,1,,,,,アウトライン,0
2277,8290003012460,新規,0,2022-04-28,2022-04-28,キングスコートフクオカ合同会社,,合同会社,福岡県,福岡市城南区,西片江１丁目２２－３１,,40,136,8140141,,,,,,,2022-04-28,1,,,,,キングスコートフクオカ,0
2278,8290801028484,新規,0,2022-04-28,2022-04-28,株式会社隠岐島開発,,株式会社,福岡県,北九州市小倉南区,徳吉西１丁目６番２４号,,40,107,8030278,,,,,,,2022-04-28,1,,,,,オキシマカイハツ,0
2280,8290805009547,新規,0,2022-04-28,2022-04-28,特定非営利活動法人アーツトンネル,,その他の設立登記法人,福岡県,田川市,大字猪国２５５９番地,,40,206,8260045,,,,,,,2022-04-28,1,,,,,アーツトンネル,0
2282,8320001019033,新規,0,2022-04-28,2022-04-28,株式会社ＹＡＭＡＳＨＯＵ,,株式会社,大分県,大分市,大字鶴崎２４１２番地の１,,44,201,8700106,,,,,,,2022-04-28,1,,,,,ヤマショウ,0
2287,8340001024683,新規,0,2022-04-28,2022-04-28,株式会社タカラポーク,,株式会社,鹿児島県,曽於市,財部町南俣１８１１番地２,,46,217,8994101,,,,,,,2022-04-28,1,,,,,タカラポーク,0
2288,8340001024691,新規,0,2022-04-28,2022-04-28,株式会社志布志フーズ,,株式会社,鹿児島県,志布志市,志布志町安楽３０９２番地５,,46,221,8997104,,,,,,,2022-04-28,1,,,,,シブシフーズ,0
2304,8420001017828,新規,0,2022-04-28,2022-04-28,株式会社ボン・ヴォヤージュ,,株式会社,青森県,弘前市,大字富栄字平岡３６番地２,,02,202,0368382,,,,,,,2022-04-28,1,,,,,ボンヴォヤージュ,0
2308,8420005007809,新規,0,2022-04-28,2022-04-28,ＡＩＳグループ協同組合,,その他の設立登記法人,青森県,青森市,大字筒井字八ツ橋１２１番地３,,02,201,0300944,,,,,,,2022-04-28,1,,,,,エーアイエスグループ,0
2309,8430001086509,新規,0,2022-04-28,2022-04-28,瀬尾カンパニー株式会社,,株式会社,北海道,札幌市豊平区,平岸三条９丁目９－５－９０１,,01,105,0620933,,,,,,,2022-04-28,1,,,,,セオカンパニー,0
2325,8700150107756,新規,0,2022-04-28,2022-04-11,ＣＯＧＩＦＩＬＭ,,その他,京都府,京都市下京区,朱雀正会町１－１京果会館２０１,,26,106,6008841,,,,,,,2022-04-11,1,,,,,コギフイルム,0
2326,8700150108449,新規,0,2022-04-28,2022-04-28,ＴＥＫ（ＨＯＮＧ　ＫＯＮＧ）ＳＣＩＥＮＣＥ　＆　ＴＥＣＨＮＯＬＯＧＹ　ＬＩＭＩＴＥＤ,,外国会社等,,,,,,,,ＲＭ　１２０２，ＣＡＰＩＴＯＬ　ＣＴＲ，５－１９　ＪＡＲＤＩＮＥ’Ｓ　ＢＡＺＡＡＲ，ＣＡＵＳＥＷＡＹ　ＢＡＹ，ＨＫ,,,,,,2022-04-28,1,,,,,テイーイーケーホンコンサイエンスアンドテクノロジーリミテツド,0
2338,9010001226139,新規,0,2022-04-28,2022-04-28,Ｃｅｎｔｅｎａｒｉａｎ株式会社,,株式会社,東京都,千代田区,内神田２丁目８番１号２階,,13,101,1010047,,,,,,,2022-04-28,1,,,,,センテナリアン,0
2339,9010001226171,新規,0,2022-04-28,2022-04-28,株式会社ハードワーカー,,株式会社,東京都,中央区,銀座７丁目１３番６号サガミビル２階,,13,102,1040061,,,,,,,2022-04-28,1,,,,,ハードワーカー,0
2340,9010001226205,新規,0,2022-04-28,2022-04-28,生和ホームズ株式会社,,株式会社,東京都,千代田区,神田淡路町１丁目３番,,13,101,1010063,,,,,,,2022-04-28,1,,,,,セイワホームズ,0
2344,9010005034950,新規,0,2022-04-28,2022-04-28,ベルジャヤ横浜ホスピタリティアセット特定目的会社,,その他の設立登記法人,東京都,千代田区,丸の内３丁目１番１号東京共同会計事務所内,,13,101,1000005,,,,,,,2022-04-28,1,,,,,ベルジャヤヨコハマホスピタリティアセット,0
2353,9010401166868,新規,0,2022-04-28,2022-04-28,Ｓｍａｃｉｅ株式会社,,株式会社,東京都,港区,赤坂４丁目８番１９号フロントタウン３階,,13,103,1070052,,,,,,,2022-04-28,1,,,,,スマシエ,0
2354,9010401167032,新規,0,2022-04-28,2022-04-28,株式会社タカダフードサービス,,株式会社,東京都,港区,六本木６丁目７番７号ラ．レンヌ２階,,13,103,1060032,,,,,,,2022-04-28,1,,,,,タカダフードサービス,0
2358,9010501048776,新規,0,2022-04-28,2022-04-28,株式会社ｉｎｎｏｃ,,株式会社,東京都,台東区,北上野２丁目２８番２号,,13,106,1100014,,,,,,,2022-04-28,1,,,,,イノック,0
2359,9010505003307,新規,0,2022-04-28,2022-04-28,一般社団法人全日本華僑華人社団連合会,,その他の設立登記法人,東京都,台東区,台東４丁目２９番１３号明和ビル５０１,,13,106,1100016,,,,,,,2022-04-28,1,,,,,ゼンニホンカキョウカジンシャダンレンゴウカイ,0
2370,9010901050786,新規,0,2022-04-28,2022-04-28,株式会社ファントム,,株式会社,東京都,世田谷区,三軒茶屋２丁目１４番２２号,,13,112,1540024,,,,,,,2022-04-28,1,,,,,ファントム,0
2379,9011001147226,新規,0,2022-04-28,2022-04-28,株式会社ＰＭＩパートナーズ,,株式会社,東京都,渋谷区,松濤１丁目２８番２号,,13,113,1500046,,,,,,,2022-04-28,1,,,,,ピーエムアイパートナーズ,0
2390,9011101098666,新規,0,2022-04-28,2022-04-28,環宇信商株式会社,,株式会社,東京都,新宿区,歌舞伎町２丁目４２番１１カーサ新宿２０６,,13,104,1600021,,,,,,,2022-04-28,1,,,,,カンウシンショウ,0
2391,9011201023805,新規,0,2022-04-28,2022-04-28,株式会社ｓｉｚｚｌｅ,,株式会社,東京都,中野区,南台２丁目１１番３－２０１号,,13,114,1640014,,,,,,,2022-04-28,1,,,,,シズル,0
2394,9011303004397,新規,0,2022-04-28,2022-04-28,合同会社アプリコットセレナーデ,,合同会社,東京都,杉並区,松庵２丁目８番２８号,,13,115,1670054,,,,,,,2022-04-28,1,,,,,,0
2426,9020003021702,新規,0,2022-04-28,2022-04-28,合同会社ネットセレクト,,合同会社,神奈川県,横浜市中区,山田町８番地１フロール山田町第３－６１０号室,,14,104,2310036,,,,,,,2022-04-28,1,,,,,ネットセレクト,0
2427,9020003021710,新規,0,2022-04-28,2022-04-28,ＲＥＣ　Ａｎｉｍａｔｉｏｎ　Ｆａｃｔｏｒｙ合同会社,,合同会社,神奈川県,横浜市保土ケ谷区,権太坂１丁目２９－２１,,14,106,2400026,,,,,,,2022-04-28,1,,,,,レックアニメーションファクトリー,0
2433,9021001075822,新規,0,2022-04-28,2022-04-28,株式会社ｃｈｉｌｄ　ｈｏｍｅ,,株式会社,神奈川県,小田原市,曽我原３０３番地の３,,14,206,2500206,,,,,,,2022-04-28,1,,,,,,0
2443,9030001147894,新規,0,2022-04-28,2022-04-28,三和工業株式会社,,株式会社,埼玉県,川口市,大字芝３９５９番地の６,,11,203,3330866,,,,,,,2022-04-28,1,,,,,サンワコウギョウ,0
2444,9030001147969,新規,0,2022-04-28,2022-04-28,株式会社Ｅｍｉｒａｉｚ,,株式会社,埼玉県,さいたま市岩槻区,並木２丁目５番２－７０４号,,11,110,3390068,,,,,,,2022-04-28,1,,,,,エミライズ,0
2446,9030003019332,新規,0,2022-04-28,2022-04-28,合同会社ＴＲＵＯＮＧ　ＰＨＡＭ,,合同会社,埼玉県,戸田市,下前１丁目１４番２６－２１７号,,11,224,3350016,,,,,,,2022-04-28,1,,,,,チュオンファム,0
2453,9040005021590,新規,0,2022-04-28,2022-04-28,医療法人社団結輝会,,その他の設立登記法人,千葉県,松戸市,胡録台２１０番２,,12,207,2710075,,,,,,,2022-04-28,1,,,,,ユウキカイ,0
2457,9060001034826,新規,0,2022-04-28,2022-04-28,株式会社高山不動産宇都宮,,株式会社,栃木県,宇都宮市,東簗瀬１丁目２８番地５,,09,201,3210925,,,,,,,2022-04-28,1,,,,,タカヤマフドウサンウツノミヤ,0
2469,9080401025778,新規,0,2022-04-28,2022-04-28,リボックス株式会社,,株式会社,静岡県,浜松市中区,板屋町１０１番地の２２小川ビル２階,,22,131,4300928,,,,,,,2022-04-28,1,,,,,リボックス,0
2470,9090001017547,新規,0,2022-04-28,2022-04-28,株式会社ＬＳＰＤ,,株式会社,山梨県,甲府市,国母８丁目１３番２３号,,19,201,4000043,,,,,,,2022-04-28,1,,,,,エルエスピーディー,0
2489,9120001245557,新規,0,2022-04-28,2022-04-28,小田株式会社,,株式会社,大阪府,大阪市中央区,南船場１丁目１０番１２号ローゼンビル４０３室,,27,128,5420081,,,,,,,2022-04-28,1,,,,,オダ,0
2490,9120001245573,新規,0,2022-04-28,2022-04-28,株式会社リンクアンカー,,株式会社,大阪府,大阪市此花区,梅香２丁目５番１４号,,27,104,5540013,,,,,,,2022-04-28,1,,,,,リンクアンカー,0
2500,9130001071663,新規,0,2022-04-28,2022-04-28,華陽株式会社,,株式会社,京都府,京都市伏見区,深草下川原町５０番地４－２０３,,26,109,6128401,,,,,,,2022-04-28,1,,,,,カヨウ,0
2506,9140001125823,新規,0,2022-04-28,2022-04-28,株式会社那覇組,,株式会社,兵庫県,加古郡稲美町,岡２６８７番地の５,,28,381,6751113,,,,,,,2022-04-28,1,,,,,ナハグミ,0
2532,9180001151106,新規,0,2022-04-28,2022-04-28,株式会社サンベルク,,株式会社,愛知県,日進市,梅森台２丁目１１９エレガンス２０１,,23,230,4700133,,,,,,,2022-04-28,1,,,,,サンベルク,0
2533,9180001151114,新規,0,2022-04-28,2022-04-28,株式会社Ｇｒｏｗｔｈ　Ｃｕｒｖｅ,,株式会社,愛知県,名古屋市中区,東桜２丁目２２番１８号,,23,106,4600005,,,,,,,2022-04-28,1,,,,,グロースカーブ,0
2536,9180003023773,新規,0,2022-04-28,2022-04-28,合同会社エニーウェイ,,合同会社,愛知県,知多市,岡田字東島１５－７,,23,224,4780021,,,,,,,2022-04-28,1,,,,,エニーウェイ,0
2544,9190003003956,新規,0,2022-04-28,2022-04-28,合同会社光久農園,,合同会社,三重県,伊賀市,白樫字下田２１１９番１７,,24,216,5181151,,,,,,,2022-04-28,1,,,,,ミツヒサノウエン,0
2549,9210003001503,新規,0,2022-04-28,2022-04-28,合同会社ビーノア,,合同会社,福井県,福井市,足羽４丁目１２番１号,,18,201,9188007,,,,,,,2022-04-28,1,,,,,ビーノア,0
2555,9240001059689,新規,0,2022-04-28,2022-04-28,株式会社ｂｒａｖｏ,,株式会社,広島県,広島市中区,富士見町４番１７－８０３号,,34,101,7300043,,,,,,,2022-04-28,1,,,,,ブラボ,0
2559,9260001036785,新規,0,2022-04-28,2022-04-28,株式会社アクト,,株式会社,岡山県,浅口市,金光町須恵７７番地７,,33,216,7190112,,,,,,,2022-04-28,1,,,,,アクト,0
2567,9290001097354,新規,0,2022-04-28,2022-04-28,株式会社オール・テック,,株式会社,福岡県,うきは市,浮羽町浮羽４５９番地７堤アパート３号,,40,225,8391402,,,,,,,2022-04-28,1,,,,,オールテック,0
2568,9290001097379,新規,0,2022-04-28,2022-04-28,株式会社山勢,,株式会社,福岡県,久留米市,御井町６８７番地１５,,40,203,8390851,,,,,,,2022-04-28,1,,,,,サンセイ,0
2580,9310003004347,新規,0,2022-04-28,2022-04-28,合同会社ＳｏｒａＲｉｎ,,合同会社,長崎県,佐世保市,広田１丁目１０番１１－１０３号,,42,202,8593223,,,,,,,2022-04-28,1,,,,,ソラリン,0
2586,9330001029682,新規,0,2022-04-28,2022-04-28,株式会社ＵＹＫ,,株式会社,熊本県,熊本市中央区,渡鹿３丁目１５番６８号,,43,101,8620970,,,,,,,2022-04-28,1,,,,,ユーワイケー,0
2589,9340001024690,新規,0,2022-04-28,2022-04-28,株式会社ＡＫＡＨＩＤＡ,,株式会社,鹿児島県,鹿屋市,今坂町１０１１８番地１５－４０６号,,46,203,8930057,,,,,,,2022-04-28,1,,,,,アカヒダ,0
2591,9360001030316,新規,0,2022-04-28,2022-04-28,株式会社ＳＡＴ,,株式会社,沖縄県,石垣市,字真栄里５４４番地１,,47,207,9070002,,,,,,,2022-04-28,1,,,,,エスエイティー,0
2592,9360001030324,新規,0,2022-04-28,2022-04-28,株式会社丸島,,株式会社,沖縄県,宮古島市,上野字新里２３５番地６０１,,47,214,9060202,,,,,,,2022-04-28,1,,,,,マルシマ,0
2604,9400003002928,新規,0,2022-04-28,2022-04-28,合同会社Ｒｅｕｓ,,合同会社,岩手県,北上市,上野町１丁目２８番７号,,03,206,0240021,,,,,,,2022-04-28,1,,,,,レウス,0
2606,9420001017827,新規,0,2022-04-28,2022-04-28,株式会社青海,,株式会社,青森県,むつ市,苫生町１丁目１５番６号,,02,208,0350055,,,,,,,2022-04-28,1,,,,,セイカイ,0
2614,9490001010164,新規,0,2022-04-28,2022-04-28,株式会社岡本電気商会,,株式会社,高知県,高知市,福井町３１２３番地,,39,201,7800965,,,,,,,2022-04-28,1,,,,,オカモトデンキショウカイ,0
2619,9700150107813,新規,0,2022-04-28,2022-04-11,ＵＮＩＯＮＦＩＥＬＤ,,その他,北海道,札幌市中央区,南七条西４丁目２－５ＬＣ七番館５Ｆ,,01,101,0640807,,,,,,,2022-04-11,1,,,,,ユニオンフイールド,0
2620,9700150108332,新規,0,2022-04-28,2022-04-26,富田組,,その他,東京都,荒川区,荒川４丁目１２－８ピュアハイツ１０１,,13,118,1160002,,,,,,,2022-04-26,1,,,,,トミタグミ,0
2621,9700150108423,新規,0,2022-04-28,2022-04-28,Ｚｅｅ－Ｒｏｗ　Ｌａｎｋａ　Ｔｒａｄｉｎｇ,,外国会社等,千葉県,富里市,立沢１３５５－Ａ,,12,233,2860214,スリランカ民主社会主義共和国、アクラナ、ニーレラＮｏ．５６１,,,,,,2022-04-28,1,,,,,ジローウランカートレーデイング,0
