sequenceNumber,corporateNumber,process,correct,updateDate,changeDate,name,nameImageId,kind,prefectureName,cityName,streetNumber,addressImageId,prefectureCode,cityCode,postCode,addressOutside,addressOutsideImageId,closeDate,closeCause,successorCorporateNumber,changeCause,assignmentDate,latest,enName,enPrefectureName,enCityName,enAddressOutside,furigana,hihyoji
11,1010001242671,新規,0,2024-02-29,2024-02-29,ジョイライフ管理株式会社,,株式会社,東京都,文京区,春日２丁目４番１０号,,13,105,1120003,,,,,,,2024-02-29,1,,,,,ジョイライフカンリ,0
12,1010001242696,新規,0,2024-02-29,2024-02-29,株式会社グリーンエナジーぐんま,,株式会社,東京都,千代田区,神田錦町３丁目２３番地１メットライフ神田錦町ビル８階,,13,101,1010054,,,,,,,2024-02-29,1,,,,,グリーンエナジーグンマ,0
17,1010003043077,新規,0,2024-02-29,2024-02-29,合同会社Ｂｉｏ　Ｓｙｎｅｒｇｙ　Ｊａｐａｎ,,合同会社,東京都,中央区,銀座１丁目２２－１１銀座大竹ビジデンス２Ｆ,,13,102,1040061,,,,,,,2024-02-29,1,,,,,バイオシナジージャパン,0
23,1010401180686,新規,0,2024-02-29,2024-02-29,和友株式会社,,株式会社,東京都,港区,虎ノ門３丁目８番２５号虎ノ門近鉄ビル６Ｆ,,13,103,1050001,,,,,,,2024-02-29,1,,,,,カズトモ,0
27,1010403032068,新規,0,2024-02-29,2024-02-29,ゼンリバティ合同会社,,合同会社,東京都,港区,赤坂６丁目５－３８ファミルグランスイート・ザ赤坂８０１号室,,13,103,1070052,,,,,,,2024-02-29,1,,,,,ゼンリバティ,0
32,1010501051853,新規,0,2024-02-29,2024-02-29,株式会社オフィス茅間,,株式会社,東京都,台東区,東上野３丁目３５－１２本池田第３ビル３０１,,13,106,1100015,,,,,,,2024-02-29,1,,,,,オフィスカヤマ,0
34,1010603010682,新規,0,2024-02-29,2024-02-29,合同会社レーブ,,合同会社,東京都,江東区,富岡２丁目１１番１８号西村ビル４階,,13,108,1350047,,,,,,,2024-02-29,1,,,,,レーブ,0
36,1010701045622,新規,0,2024-02-29,2024-02-29,株式会社Ｃｏｎｎｅｃｔ,,株式会社,東京都,品川区,北品川１丁目９番７号ＴＯＰＲＯＯＭ品川３０２,,13,109,1400001,,,,,,,2024-02-29,1,,,,,コネクト,0
39,1010801034822,新規,0,2024-02-29,2024-02-29,ＡＭＴＣ株式会社,,株式会社,東京都,大田区,千鳥３丁目１番４号,,13,111,1460083,,,,,,,2024-02-29,1,,,,,アムテック,0
41,1010803004864,新規,0,2024-02-29,2024-02-29,ユウシ合同会社,,合同会社,東京都,大田区,田園調布４丁目２７番１号,,13,111,1450071,,,,,,,2024-02-29,1,,,,,ユウシ,0
42,1010901054778,新規,0,2024-02-29,2024-02-29,アドバンスフィールド株式会社,,株式会社,東京都,世田谷区,船橋２丁目１０番６号,,13,112,1560055,,,,,,,2024-02-29,1,,,,,アドバンスフィールド,0
45,1010905004580,新規,0,2024-02-29,2024-02-29,一般社団法人アニマシオントイ,,その他の設立登記法人,東京都,世田谷区,宮坂１丁目３９番２号,,13,112,1560051,,,,,,,2024-02-29,1,,,,,アニマシオントイ,0
53,1011003018589,新規,0,2024-02-29,2024-02-29,合同会社ＦＡＮＴＡＳＩＡ,,合同会社,東京都,渋谷区,恵比寿１丁目３２番６－７０２号,,13,113,1500013,,,,,,,2024-02-29,1,,,,,ファンタジア,0
56,1011101106254,新規,0,2024-02-29,2024-02-29,Ｔｉｄｅ　Ｅｎｔｅｒｔａｉｎｍｅｎｔ株式会社,,株式会社,東京都,新宿区,歌舞伎町１丁目２－３,,13,104,1600021,,,,,,,2024-02-29,1,,,,,タイドエンターテインメント,0
57,1011101106361,新規,0,2024-02-29,2024-02-29,ｉＭｉｎ　Ｔｅｃｈｎｏｌｏｇｙ株式会社,,株式会社,東京都,新宿区,北新宿３丁目１０番１０－７１１－Ｄ,,13,104,1690074,,,,,,,2024-02-29,1,,,,,アイミンテクノロジー,0
61,1011501030368,新規,0,2024-02-29,2024-02-29,株式会社ＭＯＯＮ,,株式会社,東京都,荒川区,南千住７丁目１２番６－２０１号,,13,118,1160003,,,,,,,2024-02-29,1,,,,,ムーン,0
62,1011501030376,新規,0,2024-02-29,2024-02-29,株式会社Ｊ＆Ｋ　ａｃｔ,,株式会社,東京都,北区,上中里２丁目３３番７号,,13,117,1140016,,,,,,,2024-02-29,1,,,,,ジェイアンドケイアクト,0
68,1011801043846,新規,0,2024-02-29,2024-02-29,株式会社草柳興業,,株式会社,東京都,葛飾区,西亀有３丁目２２番３号,,13,122,1250002,,,,,,,2024-02-29,1,,,,,クサヤナギコウギョウ,0
72,1011803006108,新規,0,2024-02-29,2024-02-29,合同会社ＡｄｄＡｓｓｅｔｓ,,合同会社,東京都,葛飾区,西新小岩４丁目３９－３０,,13,122,1240025,,,,,,,2024-02-29,1,,,,,アドアセット,0
81,1020001155996,新規,0,2024-02-29,2024-02-29,株式会社Ｓｔｒｅｅｔ　ｓｍａｒｔ,,株式会社,神奈川県,横浜市都筑区,葛が谷１３番４－７０１号,,14,118,2240062,,,,,,,2024-02-29,1,,,,,ストリートスマート,0
82,1020001156004,新規,0,2024-02-29,2024-02-29,ＡＲＡＩグループホールディングス株式会社,,株式会社,神奈川県,横浜市中区,翁町２丁目８番地２ロワール横濱関内１０１,,14,104,2310028,,,,,,,2024-02-29,1,,,,,アライグループホールディングス,0
93,1021001081563,新規,0,2024-02-29,2024-02-29,エクリュ株式会社,,株式会社,神奈川県,足柄下郡真鶴町,真鶴１０９０番地１,,14,383,2590201,,,,,,,2024-02-29,1,,,,,エクリュ,0
94,1021001081571,新規,0,2024-02-29,2024-02-29,株式会社ＳＡＮＴＥ,,株式会社,神奈川県,鎌倉市,常盤１６１－１鎌倉徳増ビル１階,,14,204,2480022,,,,,,,2024-02-29,1,,,,,サンテ,0
98,1021003014199,新規,0,2024-02-29,2024-02-29,ＬＥＶＡＮＴＥ合同会社,,合同会社,神奈川県,相模原市南区,相模大野６丁目２０番５－１０７号,,14,153,2520303,,,,,,,2024-02-29,1,,,,,レヴァンテ,0
102,1030001158833,新規,0,2024-02-29,2024-02-29,株式会社ＳＮＨ,,株式会社,埼玉県,川口市,東川口５丁目２８番３号,,11,203,3330801,,,,,,,2024-02-29,1,,,,,エスエヌエイチ,0
103,1030001158916,新規,0,2024-02-29,2024-02-29,株式会社Ｃ・Ｓ・Ｄ,,株式会社,埼玉県,川口市,幸町１丁目７番１－１３０４号,,11,203,3320016,,,,,,,2024-02-29,1,,,,,シーエスディー,0
104,1030001158932,新規,0,2024-02-29,2024-02-29,株式会社Ｋ　ＰＲＯＤＵＣＥ,,株式会社,埼玉県,さいたま市桜区,中島４丁目８番５号,,11,106,3380822,,,,,,,2024-02-29,1,,,,,ケイプロデュース,0
105,1030001158949,新規,0,2024-02-29,2024-02-29,株式会社ライトホープ,,株式会社,埼玉県,本庄市,四方田２３６番地１,,11,211,3670034,,,,,,,2024-02-29,1,,,,,ライトホープ,0
115,1040001132432,新規,0,2024-02-29,2024-02-29,株式会社楽楽,,株式会社,千葉県,市川市,真間４丁目４番１３－４０２号,,12,203,2720826,,,,,,,2024-02-29,1,,,,,ラクラク,0
116,1040001132440,新規,0,2024-02-29,2024-02-29,マルゲン住設株式会社,,株式会社,千葉県,東金市,台方９００番地１８,,12,213,2830811,,,,,,,2024-02-29,1,,,,,マルゲンジュウセツ,0
117,1040001132449,新規,0,2024-02-29,2024-02-29,株式会社Ｃ＆Ｐ,,株式会社,千葉県,千葉市中央区,登戸５丁目１９番１１号ヒルズ・アクレイム５０７号,,12,101,2600032,,,,,,,2024-02-29,1,,,,,シーアンドピー,0
118,1040001132457,新規,0,2024-02-29,2024-02-29,株式会社リビルトライフ,,株式会社,千葉県,印旛郡酒々井町,東酒々井３丁目３番１１９,,12,322,2850923,,,,,,,2024-02-29,1,,,,,リビルトライフ,0
121,1040003024413,新規,0,2024-02-29,2024-02-29,合同会社ＢＩＲＤ　Ｅｘｐｒｅｓｓ,,合同会社,千葉県,東金市,堀上１４７番地３,,12,213,2830063,,,,,,,2024-02-29,1,,,,,バードエクスプレス,0
122,1040003024438,新規,0,2024-02-29,2024-02-29,Ｔｈａｒａｋａ　Ｉｎｔｅｒｎａｔｉｏｎａｌ合同会社,,合同会社,千葉県,山武市,大木字堀田５４９番１,,12,237,2891211,,,,,,,2024-02-29,1,,,,,タラカインターナショナル,0
124,1050001054361,新規,0,2024-02-29,2024-02-29,株式会社ポルト・クロシェット,,株式会社,茨城県,筑西市,小川１５３２番地１,,08,227,3080857,,,,,,,2024-02-29,1,,,,,ポルトクロシェット,0
130,1070003005294,新規,0,2024-02-29,2024-02-29,合同会社ＴＮＳＩ,,合同会社,群馬県,佐波郡玉村町,大字南玉１３９番地１,,10,464,3701111,,,,,,,2024-02-29,1,,,,,ティーエヌエスアイ,0
131,1070005010235,新規,0,2024-02-29,2024-02-29,一般社団法人館林アーバンデザイン,,その他の設立登記法人,群馬県,館林市,本町２丁目５番４７号ＴＭ２１プラザ２０５,,10,207,3740024,,,,,,,2024-02-29,1,,,,,タテバヤシアーバンデザイン,0
132,1080001026151,新規,0,2024-02-29,2024-02-29,株式会社いろは会計,,株式会社,静岡県,静岡市駿河区,稲川２丁目３番８－３０３号,,22,102,4228062,,,,,,,2024-02-29,1,,,,,イロハカイケイ,0
134,1080101024559,新規,0,2024-02-29,2024-02-29,株式会社京海,,株式会社,静岡県,三島市,大社町８－３６,,22,206,4110853,,,,,,,2024-02-29,1,,,,,キョウカイ,0
139,1100001037245,新規,0,2024-02-29,2024-02-29,つどいの里株式会社,,株式会社,長野県,茅野市,北山柏原３０１１,,20,214,3910301,,,,,,,2024-02-29,1,,,,,ツドイノサト,0
154,1120001262700,新規,0,2024-02-29,2024-02-29,恒邦株式会社,,株式会社,大阪府,大阪市北区,樋之口町２番２号,,27,127,5300032,,,,,,,2024-02-29,1,,,,,コウホウ,0
159,1120003026046,新規,0,2024-02-29,2024-02-29,合同会社清水総合事務所,,合同会社,大阪府,大阪市生野区,勝山北１丁目９番９号,,27,116,5440033,,,,,,,2024-02-29,1,,,,,シミズソウゴウジムショ,0
163,1120903005058,新規,0,2024-02-29,2024-02-29,ＷＩＮＴＡＴＡ　ＯＦＦＩＣＥ合同会社,,合同会社,大阪府,茨木市,鮎川４丁目２８番１７号シャングリラ鮎川３０１号,,27,211,5670831,,,,,,,2024-02-29,1,,,,,ウィンタタオフィス,0
166,1130001076439,新規,0,2024-02-29,2024-02-29,株式会社Ｃｏｃｏｎ　Ｓａｎｔｅ,,株式会社,京都府,宇治市,伊勢田町北山１８番地,,26,204,6110043,,,,,,,2024-02-29,1,,,,,ココンサンテ,0
168,1140001133478,新規,0,2024-02-29,2024-02-29,株式会社的場工務店,,株式会社,兵庫県,尼崎市,口田中２丁目１番１－２号,,28,202,6610983,,,,,,,2024-02-29,1,,,,,マトバコウムテン,0
169,1140001133486,新規,0,2024-02-29,2024-02-29,日本産学研融合創新株式会社,,株式会社,兵庫県,神戸市長田区,名倉町１丁目１－５－３階,,28,106,6530883,,,,,,,2024-02-29,1,,,,,ニホンサンガクケンユウゴウソウシン,0
170,1140001133503,新規,0,2024-02-29,2024-02-29,ＡＩＬＥホールディングス株式会社,,株式会社,兵庫県,西宮市,上大市１丁目６番３９号,,28,204,6638003,,,,,,,2024-02-29,1,,,,,エールホールディングス,0
173,1150001027084,新規,0,2024-02-29,2024-02-29,株式会社正圓,,株式会社,奈良県,桜井市,大字初瀬９２３番地,,29,206,6330112,,,,,,,2024-02-29,1,,,,,ショウエン,0
181,1180003026429,新規,0,2024-02-29,2024-02-29,合同会社ＦＣＩ,,合同会社,愛知県,名古屋市北区,清水２丁目１９番９号１Ｆ,,23,103,4620844,,,,,,,2024-02-29,1,,,,,エフシーアイ,0
187,1190003004598,新規,0,2024-02-29,2024-02-29,合同会社もり屋,,合同会社,三重県,津市,庄田町８４７番地１,,24,201,5141255,,,,,,,2024-02-29,1,,,,,モリヤ,0
188,1190005011907,新規,0,2024-02-29,2024-02-29,一般社団法人食の輪よっかいち,,その他の設立登記法人,三重県,四日市市,諏訪栄町３番４号,,24,202,5100086,,,,,,,2024-02-29,1,,,,,ショクノワヨッカイチ,0
197,1240001062857,新規,0,2024-02-29,2024-02-29,株式会社ＬＯＬ,,株式会社,広島県,広島市西区,南観音町３番２０号,,34,104,7330034,,,,,,,2024-02-29,1,,,,,ロル,0
207,1290003015008,新規,0,2024-02-29,2024-02-29,ＪＪＭインターナショナル合同会社,,合同会社,福岡県,福岡市中央区,薬院２丁目１３番１０－７０１号,,40,133,8100022,,,,,,,2024-02-29,1,,,,,ジェイジェイエムインターナショナル,0
208,1290803004630,新規,0,2024-02-29,2024-02-29,合同会社セントラルサポート,,合同会社,福岡県,北九州市八幡西区,楠橋西２丁目１２－２６－２０５,,40,109,8071145,,,,,,,2024-02-29,1,,,,,セントラルサポート,0
213,1330001031794,新規,0,2024-02-29,2024-02-29,ＡＵＴ　Ｊａｐａｎ株式会社,,株式会社,熊本県,熊本市中央区,水道町８番１号よねはくビル２０１号,,43,101,8600844,,,,,,,2024-02-29,1,,,,,エーユーティージャパン,0
215,1350001018807,新規,0,2024-02-29,2024-02-29,株式会社イーエムファーム,,株式会社,宮崎県,宮崎市,田野町乙２１０８番地,,45,201,8891702,,,,,,,2024-02-29,1,,,,,イーエムファーム,0
220,1360001033251,新規,0,2024-02-29,2024-02-29,株式会社Ｓｃｕｂｙ,,株式会社,沖縄県,沖縄市,中央１丁目７番８号,,47,211,9040004,,,,,,,2024-02-29,1,,,,,スキュービー,0
221,1360003013747,新規,0,2024-02-29,2024-02-29,合同会社米盛清掃,,合同会社,沖縄県,石垣市,新栄町５０番地６,,47,207,9070014,,,,,,,2024-02-29,1,,,,,ヨネモリセイソウ,0
224,1370003006493,新規,0,2024-02-29,2024-02-29,合同会社Ｄａｉｓｉｅｓ,,合同会社,宮城県,仙台市泉区,南光台２丁目２番２８号,,04,105,9818003,,,,,,,2024-02-29,1,,,,,デイジーズ,0
228,1400001016565,新規,0,2024-02-29,2024-02-29,きらりファーマシー株式会社,,株式会社,岩手県,宮古市,実田２丁目５番９号,,03,202,0270025,,,,,,,2024-02-29,1,,,,,キラリファーマシー,0
233,1430001091184,新規,0,2024-02-29,2024-02-29,株式会社ＯＭＯＳＵ,,株式会社,北海道,札幌市中央区,双子山３丁目３番２６号,,01,101,0640946,,,,,,,2024-02-29,1,,,,,オモス,0
247,2010001242654,新規,0,2024-02-29,2024-02-29,Ｔｒｕｓｔ　Ｆｕｔｕｒｅ株式会社,,株式会社,東京都,文京区,千駄木３丁目２７番９号,,13,105,1130022,,,,,,,2024-02-29,1,,,,,トラストフューチャー,0
248,2010001242679,新規,0,2024-02-29,2024-02-29,株式会社ｉｌｌｄｅｆｉｎｅｄ,,株式会社,東京都,千代田区,神田神保町２丁目１４－１１朝日神保町プラザ９０９,,13,101,1010051,,,,,,,2024-02-29,1,,,,,イルディファインド,0
249,2010001242687,新規,0,2024-02-29,2024-02-29,株式会社小僧寿し準備会社,,株式会社,東京都,中央区,日本橋蛎殻町１丁目５番６号,,13,102,1030014,,,,,,,2024-02-29,1,,,,,コゾウズシジュンビガイシャ,0
257,2010401180719,新規,0,2024-02-29,2024-02-29,株式会社ＭＥ‐Ｌａｂ　Ｊａｐａｎ,,株式会社,東京都,港区,元赤坂１丁目３番１３号,,13,103,1070051,,,,,,,2024-02-29,1,,,,,エムイーラボジャパン,0
258,2010401180751,新規,0,2024-02-29,2024-02-29,ＡＦＴ　ＪＰ株式会社,,株式会社,東京都,港区,西麻布１丁目４番４０号西麻布ＳＨＩＮＯビル４階,,13,103,1060031,,,,,,,2024-02-29,1,,,,,アーエフティージェーピー,0
260,2010405022999,新規,0,2024-02-29,2024-02-29,一般社団法人日本デザイン思考協会,,その他の設立登記法人,東京都,港区,北青山１丁目３番１号アールキューブ青山３階,,13,103,1070061,,,,,,,2024-02-29,1,,,,,ニホンデザインシコウキョウカイ,0
262,2010603010673,新規,0,2024-02-29,2024-02-29,合同会社ＭＣＡ,,合同会社,東京都,墨田区,墨田２丁目６番８－７０２号ソレアード鐘ヶ淵,,13,107,1310031,,,,,,,2024-02-29,1,,,,,エムシーエー,0
267,2010801034813,新規,0,2024-02-29,2024-02-29,Ｂｒａｎｄｅｉｓ　Ｂｌｕｅ株式会社,,株式会社,東京都,大田区,池上７丁目１６番７号,,13,111,1460082,,,,,,,2024-02-29,1,,,,,ブランダイスブルー,0
270,2010901054777,新規,0,2024-02-29,2024-02-29,株式会社ｔａｋａｍａｃｈｉ,,株式会社,東京都,世田谷区,三宿２丁目１３番１５号サニーヒル２０２,,13,112,1540005,,,,,,,2024-02-29,1,,,,,タカマチ,0
282,2011103014132,新規,0,2024-02-29,2024-02-29,Ｙ　ＢＥＡＭ合同会社,,合同会社,東京都,新宿区,高田馬場４丁目１８－１５第２中村ビル２０４,,13,104,1690075,,,,,,,2024-02-29,1,,,,,ワイビーム,0
287,2011501030383,新規,0,2024-02-29,2024-02-29,国臻株式会社,,株式会社,東京都,荒川区,町屋３丁目１－１３－３０７,,13,118,1160001,,,,,,,2024-02-29,1,,,,,コクシン,0
288,2011601027560,新規,0,2024-02-29,2024-02-29,株式会社ＦＲＥＥ　ＮＥＣＴ,,株式会社,東京都,練馬区,石神井台２丁目２０番８号,,13,120,1770045,,,,,,,2024-02-29,1,,,,,フリーネクト,0
291,2011701027072,新規,0,2024-02-29,2024-02-29,株式会社竹電通,,株式会社,東京都,江戸川区,中葛西８丁目６番８－１０４号,,13,123,1340083,,,,,,,2024-02-29,1,,,,,タケデンツウ,0
295,2013303007023,新規,0,2024-02-29,2024-02-29,オーケーインテリジェンス合同会社,,合同会社,東京都,豊島区,南大塚２丁目２１番１０号レリタージュ２０２号,,13,116,1700005,,,,,,,2024-02-29,1,,,,,オーケーインテリジェンス,0
300,2020001155962,新規,0,2024-02-29,2024-02-29,創和株式会社,,株式会社,神奈川県,横浜市中区,長者町９丁目１４７番地２,,14,104,2310033,,,,,,,2024-02-29,1,,,,,ソウワ,0
301,2020001155995,新規,0,2024-02-29,2024-02-29,株式会社石附運送,,株式会社,神奈川県,横浜市港北区,新吉田東５丁目７３番２３号,,14,109,2230058,,,,,,,2024-02-29,1,,,,,イシヅキウンソウ,0
303,2020003025627,新規,0,2024-02-29,2024-02-29,合同会社ＴＨＩＮＫＥＤＧＥ,,合同会社,神奈川県,横浜市西区,浅間町１丁目４番３号ウィザードビル４０２,,14,103,2200072,,,,,,,2024-02-29,1,,,,,シンクエッジ,0
310,2021001081579,新規,0,2024-02-29,2024-02-29,株式会社正琉,,株式会社,神奈川県,横須賀市,鴨居３丁目５９番９号,,14,201,2390813,,,,,,,2024-02-29,1,,,,,マサリュウ,0
316,2030001158915,新規,0,2024-02-29,2024-02-29,トキガー株式会社,,株式会社,埼玉県,比企郡ときがわ町,大字玉川１１４６番地,,11,349,3550342,,,,,,,2024-02-29,1,,,,,トキガー,0
317,2030001158923,新規,0,2024-02-29,2024-02-29,サクラノオカラボ株式会社,,株式会社,埼玉県,川越市,的場新町１番地１５,,11,201,3501107,,,,,,,2024-02-29,1,,,,,サクラノオカラボ,0
318,2030001158931,新規,0,2024-02-29,2024-02-29,株式会社リクトル,,株式会社,埼玉県,上尾市,中分１丁目２７番地２０（２階）,,11,219,3620067,,,,,,,2024-02-29,1,,,,,リクトル,0
328,2040001132431,新規,0,2024-02-29,2024-02-29,株式会社征,,株式会社,千葉県,印西市,師戸２７４４番地,,12,231,2701615,,,,,,,2024-02-29,1,,,,,マサ,0
332,2050001054369,新規,0,2024-02-29,2024-02-29,株式会社Ｌｉｂｅｒｔｅ．ｃｒｅｅｒ,,株式会社,茨城県,水戸市,笠原町５０番地４,,08,201,3100852,,,,,,,2024-02-29,1,,,,,リベルテクレエ,0
333,2050003008166,新規,0,2024-02-29,2024-02-29,合同会社ブンブン,,合同会社,茨城県,つくばみらい市,板橋１８０７番地５,,08,235,3002307,,,,,,,2024-02-29,1,,,,,ブンブン,0
336,2070005010234,新規,0,2024-02-29,2024-02-29,ＮＰＯ法人笑顔の森,,その他の設立登記法人,群馬県,高崎市,吉井町吉井４９５番地,,10,202,3702132,,,,,,,2024-02-29,1,,,,,エガオノモリ,0
337,2080001026142,新規,0,2024-02-29,2024-02-29,株式会社リック,,株式会社,静岡県,静岡市駿河区,宮竹１丁目１－１６,,22,102,4228035,,,,,,,2024-02-29,1,,,,,リック,0
352,2120001262617,新規,0,2024-02-29,2024-02-29,株式会社ＶＣ‐ｔｅｃｈ,,株式会社,大阪府,守口市,藤田町１丁目１２番９号,,27,209,5700014,,,,,,,2024-02-29,1,,,,,ブイシーテック,0
353,2120001262625,新規,0,2024-02-29,2024-02-29,Ｍａｎｇｏ株式会社,,株式会社,大阪府,大阪市中央区,瓦屋町２丁目１０－１４第３天偉ビル３Ｇ室,,27,128,5420066,,,,,,,2024-02-29,1,,,,,マンゴ,0
354,2120001262674,新規,0,2024-02-29,2024-02-29,Ｓｅｖｅｎ　ｓｔａｒｓ国際株式会社,,株式会社,大阪府,大阪市中央区,島之内１丁目２２－２２－６０１号室,,27,128,5420082,,,,,,,2024-02-29,1,,,,,セブンスターコクサイ,0
355,2120001262708,新規,0,2024-02-29,2024-02-29,株式会社タカハシ,,株式会社,大阪府,大阪市淀川区,宮原１丁目１９番２３号ステュディオ新御堂１１１６,,27,123,5320003,,,,,,,2024-02-29,1,,,,,タカハシ,0
356,2120001262716,新規,0,2024-02-29,2024-02-29,株式会社Ｔｈｅ　Ｓｏｗ,,株式会社,大阪府,大阪市中央区,博労町４丁目６番１７号第三丸米ビル２１２,,27,128,5410059,,,,,,,2024-02-29,1,,,,,ザソウ,0
357,2120001262749,新規,0,2024-02-29,2024-02-29,緑亨株式会社,,株式会社,大阪府,大阪市阿倍野区,西田辺町２丁目１番２３号,,27,119,5450014,,,,,,,2024-02-29,1,,,,,リョクコウ,0
359,2120003026004,新規,0,2024-02-29,2024-02-29,合同会社Ｈａｎｃｏｃｋ,,合同会社,大阪府,大阪市淀川区,宮原１丁目１７－２８第２アーバンス新大阪７０１,,27,123,5320003,,,,,,,2024-02-29,1,,,,,ハンコック,0
365,2120103005700,新規,0,2024-02-29,2024-02-29,ＣＭ　ＭＯＴＯＲＳ合同会社,,合同会社,大阪府,富田林市,錦織東２丁目１０番５号グランドコーポ錦１０２号,,27,214,5840069,,,,,,,2024-02-29,1,,,,,シーエムモータース,0
366,2120903005065,新規,0,2024-02-29,2024-02-29,合同会社スリーフォワード,,合同会社,大阪府,茨木市,田中町１２番３３－２２０号,,27,211,5670025,,,,,,,2024-02-29,1,,,,,スリーフォワード,0
371,2130003009338,新規,0,2024-02-29,2024-02-29,合同会社ｓｔｕｄｉｏ　ｒｏｏｆ,,合同会社,京都府,京都市東山区,泉涌寺五葉ノ辻町１１番地８,00133892,26,105,6050974,,,,,,,2024-02-29,1,,,,,スタジオルーフ,0
377,2140001133469,新規,0,2024-02-29,2024-02-29,株式会社ＳＥＫＩＲＯ,,株式会社,兵庫県,川西市,見野１丁目１５番１２号,,28,217,6660105,,,,,,,2024-02-29,1,,,,,セキロオ,0
378,2140001133485,新規,0,2024-02-29,2024-02-29,株式会社ＭＫ不動産,,株式会社,兵庫県,尼崎市,東園田町４丁目９６番地の５松田マンション１Ａ号室,,28,202,6610953,,,,,,,2024-02-29,1,,,,,エムケーフドウサン,0
379,2140001133493,新規,0,2024-02-29,2024-02-29,株式会社ハートスフィール,,株式会社,兵庫県,神戸市兵庫区,西橘通１丁目２－１８,,28,105,6520034,,,,,,,2024-02-29,1,,,,,ハートスフィール,0
380,2140001133502,新規,0,2024-02-29,2024-02-29,ケイアイ建創株式会社,,株式会社,兵庫県,神戸市垂水区,乙木１丁目１０番７－３０８号,,28,108,6550882,,,,,,,2024-02-29,1,,,,,ケイアイケンソウ,0
383,2140005026958,新規,0,2024-02-29,2024-02-29,特定非営利活動法人リテックス,,その他の設立登記法人,兵庫県,伊丹市,西台２丁目５－１１,,28,207,6640858,,,,,,,2024-02-29,1,,,,,リテックス,0
386,2160001025706,新規,0,2024-02-29,2024-02-29,リフリーチ株式会社,,株式会社,滋賀県,長浜市,八幡東町４５３番地１セイキンズコート２０２号室,,25,203,5260031,,,,,,,2024-02-29,1,,,,,リフリーチ,0
390,2170001018023,新規,0,2024-02-29,2024-02-29,株式会社ａｔｏｒｉｅ,,株式会社,和歌山県,和歌山市,中之島３４５番地（２０３）,,30,201,6408392,,,,,,,2024-02-29,1,,,,,アトリエ,0
395,2180001160328,新規,0,2024-02-29,2024-02-29,株式会社ニシキ,,株式会社,愛知県,名古屋市港区,港陽１丁目１番３０号Ａｃｉｔｙ港陽３１０号室,,23,111,4550013,,,,,,,2024-02-29,1,,,,,ニシキ,0
397,2180303006014,新規,0,2024-02-29,2024-02-29,合同会社ＯＳＯＨ,,合同会社,愛知県,豊田市,緑ケ丘５丁目６番地５４,,23,211,4710838,,,,,,,2024-02-29,1,,,,,オソウ,0
404,2210001019652,新規,0,2024-02-29,2024-02-29,株式会社和田工業,,株式会社,福井県,今立郡池田町,常安第１７号１３番地１,,18,382,9102521,,,,,,,2024-02-29,1,,,,,ワダコウギョウ,0
406,2220003003686,新規,0,2024-02-29,2024-02-29,ＩＺＵ　ＳＴＵＤＩＯ合同会社,,合同会社,石川県,金沢市,末町５の２０１番地１０,,17,201,9201302,,,,,,,2024-02-29,1,,,,,イヅスタジオ,0
411,2230001020229,新規,0,2024-02-29,2024-02-29,株式会社オトリノ,,株式会社,富山県,富山市,舟橋今町２番３号,,16,201,9300098,,,,,,,2024-02-29,1,,,,,オトリノ,0
413,2240001062823,新規,0,2024-02-29,2024-02-29,ＭＣＵホールディングス株式会社,,株式会社,広島県,呉市,広白石４丁目１１番４号,,34,202,7370143,,,,,,,2024-02-29,1,,,,,エムシーユーホールディングス,0
414,2240001062856,新規,0,2024-02-29,2024-02-29,エルゴケア株式会社,,株式会社,広島県,広島市中区,吉島東１丁目２２番２号,,34,101,7300822,,,,,,,2024-02-29,1,,,,,エルゴケア,0
416,2240005015736,新規,0,2024-02-29,2024-02-29,医療法人ファミーユ,,その他の設立登記法人,広島県,広島市安佐南区,中須１丁目７番７号２Ｆ,,34,105,7310121,,,,,,,2024-02-29,1,,,,,ファミーユ,0
419,2260001038788,新規,0,2024-02-29,2024-02-29,ソシー株式会社,,株式会社,岡山県,岡山市南区,下中野１４２０番地７,,33,104,7000973,,,,,,,2024-02-29,1,,,,,ソシー,0
421,2270005005577,新規,0,2024-02-29,2024-02-29,一般社団法人大山蒜山自然学校,,その他の設立登記法人,鳥取県,西伯郡伯耆町,福兼２８７番地１４,,31,390,6894216,,,,,,,2024-02-29,1,,,,,ダイセンヒルゼンシゼンガッコウ,0
429,2290001104835,新規,0,2024-02-29,2024-02-29,株式会社自然ぐすり,,株式会社,福岡県,福岡市中央区,天神１丁目４番１号,,40,133,8100001,,,,,,,2024-02-29,1,,,,,シゼングスリ,0
430,2290001104868,新規,0,2024-02-29,2024-02-29,株式会社Ｗｉｓｔｅｒｉａ　ｒｅｌａｔｉｏｎｓｈｉｐ　ｍａｎａｇｅｍｅｎｔ,,株式会社,福岡県,福岡市中央区,渡辺通５丁目８番３号パルムセレクション１０１号,,40,133,8100004,,,,,,,2024-02-29,1,,,,,ウィステリアリレーションシップマネジメント,0
441,2330001031802,新規,0,2024-02-29,2024-02-29,株式会社さくら桜ステーション,,株式会社,熊本県,八代市,中片町２３７番地,,43,202,8660812,,,,,,,2024-02-29,1,,,,,サクラサクラステーション,0
442,2330003010242,新規,0,2024-02-29,2024-02-29,合同会社Ｇｏｏｄ　Ｒｅ‐Ｌｉｆｅ,,合同会社,熊本県,熊本市中央区,出水４丁目３－４０アリアンス出水１０２,,43,101,8620941,,,,,,,2024-02-29,1,,,,,グッドリライフ,0
443,2340001026314,新規,0,2024-02-29,2024-02-29,株式会社アルコス,,株式会社,鹿児島県,鹿児島市,船津町１番１１号３階,,46,201,8920831,,,,,,,2024-02-29,1,,,,,アルコス,0
444,2340001026322,新規,0,2024-02-29,2024-02-29,株式会社４Ｓ１Ｍ,,株式会社,鹿児島県,鹿児島市,照国町１７番２４－１６０３号,,46,201,8920841,,,,,,,2024-02-29,1,,,,,フォーエスワンエム,0
445,2340003004383,新規,0,2024-02-29,2024-02-29,伊佐アシスト合同会社,,合同会社,鹿児島県,伊佐市,大口原田３３８,,46,224,8952506,,,,,,,2024-02-29,1,,,,,イサアシスト,0
457,2410001013742,新規,0,2024-02-29,2024-02-29,株式会社リアプラム,,株式会社,秋田県,山本郡八峰町,八森字磯村１３０番地１９,,05,349,0182676,,,,,,,2024-02-29,1,,,,,リアプラム,0
458,2430001091183,新規,0,2024-02-29,2024-02-29,株式会社コニ商会,,株式会社,北海道,江別市,文京台５６番地の４ソニア５６Ｂ２０２,,01,217,0690833,,,,,,,2024-02-29,1,,,,,コニショウカイ,0
459,2430003016007,新規,0,2024-02-29,2024-02-29,合同会社北海道ＦＯＲＴＵＮＡサービス,,合同会社,北海道,札幌市東区,北九条東３丁目１番５号,,01,103,0600909,,,,,,,2024-02-29,1,,,,,ホッカイドウフォルトゥナサービス,0
462,2462503000214,新規,0,2024-02-29,2024-02-29,合同会社ＤＥＥＲＧＡＲＤＥＮ,,合同会社,北海道,標津郡中標津町,東当幌３３－１１,,01,692,0861144,,,,,,,2024-02-29,1,,,,,,0
472,3010001242653,新規,0,2024-02-29,2024-02-29,株式会社ネクストライフ,,株式会社,東京都,千代田区,内神田３丁目２１番８号神田駅北口合同ビル５０３,,13,101,1010047,,,,,,,2024-02-29,1,,,,,ネクストライフ,0
473,3010001242661,新規,0,2024-02-29,2024-02-29,株式会社Ｍ．Ａパートナーズ,,株式会社,東京都,中央区,湊２丁目１５番１４号パークシティ中央湊２２０９号室,,13,102,1040043,,,,,,,2024-02-29,1,,,,,エムエーパートナーズ,0
474,3010001242678,新規,0,2024-02-29,2024-02-29,株式会社ＥＣメディアサポート,,株式会社,東京都,中央区,銀座１丁目１２番４号Ｎ＆Ｅ・ＢＬＤ．６Ｆ,,13,102,1040061,,,,,,,2024-02-29,1,,,,,イーシーメディアサポート,0
475,3010001242686,新規,0,2024-02-29,2024-02-29,株式会社ｅマーケティング,,株式会社,東京都,中央区,銀座１丁目１２－４Ｎ＆ＥＢＬＤ．７階,,13,102,1040061,,,,,,,2024-02-29,1,,,,,イーマーケティング,0
476,3010001242728,新規,0,2024-02-29,2024-02-29,ショーテックス日本株式会社,,株式会社,東京都,千代田区,霞が関３丁目２番６号東京倶楽部ビルディング１１階,,13,101,1000013,,,,,,,2024-02-29,1,,,,,ショーテックスニッポン,0
479,3010003043034,新規,0,2024-02-29,2024-02-29,合同会社Ｅａｓｔ　Ｂｌｕｅ１,,合同会社,東京都,千代田区,一ツ橋２丁目６番３号アクシスインベストメントアドバイザーズ株式会社内,,13,101,1010003,,,,,,,2024-02-29,1,,,,,イーストブルーワン,0
480,3010003043050,新規,0,2024-02-29,2024-02-29,合同会社Ｅａｓｔ　Ｂｌｕｅ２,,合同会社,東京都,千代田区,一ツ橋２丁目６番３号アクシスインベストメントアドバイザーズ株式会社内,,13,101,1010003,,,,,,,2024-02-29,1,,,,,イーストブルーツー,0
481,3010003043075,新規,0,2024-02-29,2024-02-29,新庄ＨＣＣ合同会社,,合同会社,東京都,中央区,日本橋２丁目２番２１号日本橋二丁目ビル４階スリーエス内,,13,102,1030027,,,,,,,2024-02-29,1,,,,,シンジョウエイチシーシー,0
482,3010003043083,新規,0,2024-02-29,2024-02-29,ＴＯＰＰＡ合同会社,,合同会社,東京都,中央区,勝どき５丁目１４－３勝ちどきハイツ１３１０,,13,102,1040054,,,,,,,2024-02-29,1,,,,,トッパ,0
483,3010003043091,新規,0,2024-02-29,2024-02-29,合同会社ステップリンクス,,合同会社,東京都,中央区,日本橋室町１丁目１１番１２号日本橋水野ビル７階,,13,102,1030022,,,,,,,2024-02-29,1,,,,,ステップリンクス,0
484,3010005037967,新規,0,2024-02-29,2024-02-29,一般社団法人八重洲二丁目北地区エリアマネジメント,,その他の設立登記法人,東京都,中央区,八重洲２丁目２番１号八重洲セントラルタワー,,13,102,1040028,,,,,,,2024-02-29,1,,,,,ヤエスニチョウメキタチクエリアマネジメント,0
492,3010405022998,新規,0,2024-02-29,2024-02-29,アクトアドヴァイザーズ弁護士法人,,その他の設立登記法人,東京都,港区,虎ノ門１丁目１７番１号,,13,103,1050001,,,,,,,2024-02-29,1,,,,,アクトアドヴァイザーズ,0
493,3010405023006,新規,0,2024-02-29,2024-02-29,一般社団法人ＳＧＢ,,その他の設立登記法人,東京都,港区,元赤坂１丁目１番８号赤坂コミュニティビル４階,,13,103,1070051,,,,,,,2024-02-29,1,,,,,エスジービー,0
502,3010505003493,新規,0,2024-02-29,2024-02-29,キャリア・ゲートウェイ協同組合,,その他の設立登記法人,東京都,台東区,東上野２丁目９番１号,,13,106,1100015,,,,,,,2024-02-29,1,,,,,キャリアゲートウェイ,0
503,3010601064729,新規,0,2024-02-29,2024-02-29,鴻盈株式会社,,株式会社,東京都,江東区,東砂５丁目５番６号Ｋビル３０１,,13,108,1360074,,,,,,,2024-02-29,1,,,,,コウエ,0
504,3010603010672,新規,0,2024-02-29,2024-02-29,合同会社にくきゅう,,合同会社,東京都,墨田区,八広４丁目４３番１３号,,13,107,1310041,,,,,,,2024-02-29,1,,,,,ニクキュウ,0
508,3010903008862,新規,0,2024-02-29,2024-02-29,ＴＩコンサルティング合同会社,,合同会社,東京都,世田谷区,成城４丁目１１－１７,,13,112,1570066,,,,,,,2024-02-29,1,,,,,ティーアイコンサルティング,0
515,3011001160309,新規,0,2024-02-29,2024-02-29,株式会社ＹＯＳＯ,,株式会社,東京都,目黒区,中目黒１丁目８番３－１０９号,,13,110,1530061,,,,,,,2024-02-29,1,,,,,ヨソ,0
517,3011003018587,新規,0,2024-02-29,2024-02-29,ＴＮＳ合同会社,,合同会社,東京都,渋谷区,神泉町１０番１５号アネックス神泉３０１,,13,113,1500045,,,,,,,2024-02-29,1,,,,,ティーエヌエス,0
518,3011101106376,新規,0,2024-02-29,2024-02-29,Ａｌｐｈａ　Ｚｏｎｅ株式会社,,株式会社,東京都,新宿区,四谷４丁目２８番１４号パレ・ウルービル７０２,,13,104,1600004,,,,,,,2024-02-29,1,,,,,アルファゾーン,0
521,3011301029443,新規,0,2024-02-29,2024-02-29,一半株式会社,,株式会社,東京都,杉並区,高円寺南１丁目７番２０号龍氏ビル２０５号室,,13,115,1660003,,,,,,,2024-02-29,1,,,,,イチハン,0
525,3011501030374,新規,0,2024-02-29,2024-02-29,株式会社ｆｒｅｅｄｏｍ,,株式会社,東京都,北区,赤羽西１丁目３０番１１号ベルメゾン赤羽１０２,,13,117,1150055,,,,,,,2024-02-29,1,,,,,フリーダム,0
526,3011601027576,新規,0,2024-02-29,2024-02-29,株式会社ＯＭＮ,,株式会社,東京都,練馬区,南大泉５丁目６‐７,,13,120,1780064,,,,,,,2024-02-29,1,,,,,オーエムエヌ,0
557,3021005013032,新規,0,2024-02-29,2024-02-29,一般社団法人湘南ビーチスポーツクラブ,,その他の設立登記法人,神奈川県,足柄下郡箱根町,仙石原１９２ＨＣＶＩＬＬＡＧＥ－Ａ２,,14,382,2500631,,,,,,,2024-02-29,1,,,,,ショウナンビーチスポーツクラブ,0
560,3030001158914,新規,0,2024-02-29,2024-02-29,株式会社ハローパンダ,,株式会社,埼玉県,川口市,本町４丁目５番３２,,11,203,3320012,,,,,,,2024-02-29,1,,,,,ハローパンダ,0
561,3030001158922,新規,0,2024-02-29,2024-02-29,株式会社Ａｔｔｒａｃｔ,,株式会社,埼玉県,富士見市,関沢２丁目１３番４９号,,11,235,3540025,,,,,,,2024-02-29,1,,,,,アトラクト,0
562,3030001158930,新規,0,2024-02-29,2024-02-29,株式会社６６６,,株式会社,埼玉県,川口市,西川口１丁目３０番２０－３０６号,,11,203,3320021,,,,,,,2024-02-29,1,,,,,ロクロクロク,0
563,3030001158939,新規,0,2024-02-29,2024-02-29,株式会社玉屋商店,,株式会社,埼玉県,熊谷市,本石１丁目２９９番地,,11,202,3600815,,,,,,,2024-02-29,1,,,,,タマヤショウテン,0
564,3030001158955,新規,0,2024-02-29,2024-02-29,株式会社リアクト,,株式会社,埼玉県,さいたま市大宮区,北袋町１丁目３４０番地３階,,11,103,3300835,,,,,,,2024-02-29,1,,,,,リアクト,0
575,3040001132422,新規,0,2024-02-29,2024-02-29,株式会社Ｂ‐ＬＩＦＥ,,株式会社,千葉県,流山市,江戸川台西２丁目２９６番地の１,,12,220,2700115,,,,,,,2024-02-29,1,,,,,ビーライフ,0
576,3040001132430,新規,0,2024-02-29,2024-02-29,株式会社栗原興業,,株式会社,千葉県,柏市,増尾１７０３番地１,,12,217,2770033,,,,,,,2024-02-29,1,,,,,クリハラコウギョウ,0
577,3040001132439,新規,0,2024-02-29,2024-02-29,株式会社成松亮,,株式会社,千葉県,君津市,人見３丁目５番３０号２０２,,12,225,2991147,,,,,,,2024-02-29,1,,,,,ナリマツリョウ,0
578,3040003024436,新規,0,2024-02-29,2024-02-29,合同会社Ｈ・Ｓ,,合同会社,千葉県,千葉市中央区,富士見２丁目７番９号富士見ビル６０９号,,12,101,2600015,,,,,,,2024-02-29,1,,,,,エイチエス,0
579,3040003024444,新規,0,2024-02-29,2024-02-29,合同会社ＨＡＲＲＹ’Ｓ　ＭＡＩＮＴＥＮＡＮＣＥ,,合同会社,千葉県,木更津市,羽鳥野５丁目３番地１２,,12,206,2920819,,,,,,,2024-02-29,1,,,,,ハリーズメンテナンス,0
588,3070001041414,新規,0,2024-02-29,2024-02-29,ｈａｃ株式会社,,株式会社,群馬県,前橋市,荒牧町３丁目１３番地２７,,10,201,3710044,,,,,,,2024-02-29,1,,,,,ハック,0
589,3070001041439,新規,0,2024-02-29,2024-02-29,株式会社エンカウント,,株式会社,群馬県,高崎市,栄町３－１１高崎バナーズビル３－５Ｆ,,10,202,3700841,,,,,,,2024-02-29,1,,,,,エンカウント,0
591,3070005010233,新規,0,2024-02-29,2024-02-29,社会保険労務士法人ユーイズム,,その他の設立登記法人,群馬県,桐生市,相生町４丁目２８番地の４,,10,203,3760011,,,,,,,2024-02-29,1,,,,,ユーイズム,0
597,3090001018559,新規,0,2024-02-29,2024-02-29,富士エステート＆リゾート株式会社,,株式会社,山梨県,南巨摩郡南部町,万沢３５２０番地,,19,366,4092103,,,,,,,2024-02-29,1,,,,,フジエステートアンドリゾート,0
599,3100001037243,新規,0,2024-02-29,2024-02-29,株式会社ＨＡＣＨＩ０ＨＡＣＨＩ,,株式会社,長野県,長野市,松代町松代５８３番地,,20,201,3811231,,,,,,,2024-02-29,1,,,,,ハチマルハチ,0
603,3100003007426,新規,0,2024-02-29,2024-02-29,合同会社純晴天,,合同会社,長野県,下伊那郡天龍村,平岡１３３８－５,,20,413,3991201,,,,,,,2024-02-29,1,,,,,ジュンセイテン,0
604,3110001038208,新規,0,2024-02-29,2024-02-29,株式会社ミットグリュック,,株式会社,新潟県,新潟市西区,新通南１丁目１６‐３,,15,107,9502038,,,,,,,2024-02-29,1,,,,,ミットグリュック,0
615,3120001262285,新規,0,2024-02-29,2024-02-29,株式会社Ｄｉｅｔ　Ｄｅｓｉｇｎ　Ｌａｂ．,,株式会社,大阪府,大阪市北区,梅田１丁目２番２号大阪駅前第２ビル１２－１２,,27,127,5300001,,,,,,,2024-02-29,1,,,,,ダイエットデザインラボ,0
616,3120001262723,新規,0,2024-02-29,2024-02-29,株式会社ヤマトハウステック,,株式会社,大阪府,大阪市住吉区,万代５丁目１３番１８号,,27,120,5580055,,,,,,,2024-02-29,1,,,,,ヤマトハウステック,0
620,3120003026052,新規,0,2024-02-29,2024-02-29,合同会社マイル,,合同会社,大阪府,枚方市,菊丘町３１番１９号,,27,210,5730091,,,,,,,2024-02-29,1,,,,,マイル,0
624,3120101069119,新規,0,2024-02-29,2024-02-29,株式会社ＫＢＹ,,株式会社,大阪府,富田林市,高辺台２丁目５番１９号,,27,214,5840072,,,,,,,2024-02-29,1,,,,,ケービーワイ,0
625,3120101069127,新規,0,2024-02-29,2024-02-29,株式会社サーマル,,株式会社,大阪府,堺市南区,新檜尾台２丁１番３－７０３号,,27,145,5900143,,,,,,,2024-02-29,1,,,,,サーマル,0
626,3120901048825,新規,0,2024-02-29,2024-02-29,株式会社タイセイ,,株式会社,大阪府,茨木市,豊川２丁目１７－３１,,27,211,5670057,,,,,,,2024-02-29,1,,,,,タイセイ,0
629,3130001076437,新規,0,2024-02-29,2024-02-29,ロブスタジオ株式会社,,株式会社,京都府,京都市下京区,七条通油小路東入大黒町２２７番地第２キョートビル４０２,,26,106,6008223,,,,,,,2024-02-29,1,,,,,ロブスタジオ,0
630,3130001076453,新規,0,2024-02-29,2024-02-29,あすなろ建築株式会社,,株式会社,京都府,京田辺市,宮津宮ノ下５７－１エンゼルハウス２０１号,,26,211,6100314,,,,,,,2024-02-29,1,,,,,アスナロケンチク,0
631,3130001076461,新規,0,2024-02-29,2024-02-29,株式会社獅子王,,株式会社,京都府,京都市中京区,梅忠町２４，三条ＣＯＨＪＵ．ＢＬＤＧ，５階，５０１,,26,104,6048136,,,,,,,2024-02-29,1,,,,,シシオウ,0
635,3140001133492,新規,0,2024-02-29,2024-02-29,ＩＰＷＡＹＳ株式会社,,株式会社,兵庫県,神戸市中央区,東川崎町１丁目８番４号神戸市産業振興センター,,28,110,6500044,,,,,,,2024-02-29,1,,,,,アイピーウェイズ,0
636,3140001133501,新規,0,2024-02-29,2024-02-29,株式会社仁星会,,株式会社,兵庫県,西宮市,川添町１１番１４号,,28,204,6620944,,,,,,,2024-02-29,1,,,,,ジンセイカイ,0
638,3140003020210,新規,0,2024-02-29,2024-02-29,合同会社オーバーウェルミング,,合同会社,兵庫県,神戸市西区,竜が岡４丁目２０番地の１２,,28,111,6512412,,,,,,,2024-02-29,1,,,,,オーバーウェルミング,0
641,3170001018022,新規,0,2024-02-29,2024-02-29,株式会社ユーアイ,,株式会社,和歌山県,和歌山市,雑賀町５７－１エンドレスビル２Ｆ,,30,201,6408108,,,,,,,2024-02-29,1,,,,,ユーアイ,0
646,3180001160351,新規,0,2024-02-29,2024-02-29,株式会社アライブエンジニアリング,,株式会社,愛知県,名古屋市中村区,日吉町２５番地,,23,105,4530029,,,,,,,2024-02-29,1,,,,,アライブエンジニアリング,0
650,3180003026419,新規,0,2024-02-29,2024-02-29,ＨＢ合同会社,,合同会社,愛知県,名古屋市熱田区,新尾頭１丁目１番１２号,,23,109,4560018,,,,,,,2024-02-29,1,,,,,エイチビー,0
651,3180003026427,新規,0,2024-02-29,2024-02-29,合同会社ＪＡＰＥＮＩＡ,,合同会社,愛知県,名古屋市東区,新出来２丁目５－２９Ｇｌｏｒｉａ２０１,,23,102,4610038,,,,,,,2024-02-29,1,,,,,ジャペニア,0
652,3210003001756,新規,0,2024-02-29,2024-02-29,合同会社ピースサポート,,合同会社,福井県,丹生郡越前町,西田中３丁目３０８,,18,423,9160141,,,,,,,2024-02-29,1,,,,,ピースサポート,0
659,3240001062863,新規,0,2024-02-29,2024-02-29,株式会社Ｓｕｚｕｍｅ８５２,,株式会社,広島県,広島市中区,堺町２丁目４番１８－２０４号,,34,101,7300853,,,,,,,2024-02-29,1,,,,,スズメハチゴニ,0
661,3240005015735,新規,0,2024-02-29,2024-02-29,医療法人ＶＩＯＬＡ,,その他の設立登記法人,広島県,広島市西区,庚午中２丁目１９番１８号,,34,104,7330822,,,,,,,2024-02-29,1,,,,,ヴィオラ,0
665,3260001038787,新規,0,2024-02-29,2024-02-29,株式会社太陽建設,,株式会社,岡山県,岡山市南区,山田１８８０番地３５,,33,104,7010202,,,,,,,2024-02-29,1,,,,,タイヨウケンセツ,0
672,3290001104842,新規,0,2024-02-29,2024-02-29,株式会社スイプル,,株式会社,福岡県,福岡市博多区,博多駅前１丁目２３番２号ＰａｒｋＦｒｏｎｔ博多駅前１丁目５Ｆ－Ｂ,,40,132,8120011,,,,,,,2024-02-29,1,,,,,スイプル,0
673,3290001104850,新規,0,2024-02-29,2024-02-29,泰平株式会社,,株式会社,福岡県,久留米市,田主丸町野田７３６番地,,40,203,8391231,,,,,,,2024-02-29,1,,,,,タイヘイ,0
674,3290001104867,新規,0,2024-02-29,2024-02-29,株式会社心,,株式会社,福岡県,春日市,春日原東町４丁目９プラッツアシベ２０２,,40,218,8160801,,,,,,,2024-02-29,1,,,,,ココロ,0
675,3290003015006,新規,0,2024-02-29,2024-02-29,浦通商合同会社,,合同会社,福岡県,福岡市南区,高宮４丁目１９番２５号,,40,134,8150083,,,,,,,2024-02-29,1,,,,,ウラツウショウ,0
676,3290801030354,新規,0,2024-02-29,2024-02-29,株式会社咲楽,,株式会社,福岡県,北九州市八幡西区,香月中央１丁目１３番３５号,,40,109,8071102,,,,,,,2024-02-29,1,,,,,サクラ,0
683,3360001033258,新規,0,2024-02-29,2024-02-29,株式会社Ｈａｗｋ　Ｒｅｂａｒ,,株式会社,沖縄県,国頭郡宜野座村,字宜野座２６８番地５・Ｆ２,,47,313,9041302,,,,,,,2024-02-29,1,,,,,ホークリィバー,0
685,3360003013753,新規,0,2024-02-29,2024-02-29,合同会社ＨＡＲＶＥＬ,,合同会社,沖縄県,宜野湾市,真志喜５丁目１７番６号１階,,47,205,9012224,,,,,,,2024-02-29,1,,,,,ハーベル,0
686,3360005006994,新規,0,2024-02-29,2024-02-29,一般社団法人おきなわこどもサポートチーム,,その他の設立登記法人,沖縄県,那覇市,古島１丁目２３番６号２Ｆ,,47,201,9020061,,,,,,,2024-02-29,1,,,,,オキナワコドモサポートチーム,0
688,3370001050979,新規,0,2024-02-29,2024-02-29,株式会社アールカイズ,,株式会社,宮城県,仙台市青葉区,北山２丁目２番２０号ＲＯＹＡＬＴＯＫＡＩＡ－３０３,,04,101,9810931,,,,,,,2024-02-29,1,,,,,アールカイズ,0
693,3410001013741,新規,0,2024-02-29,2024-02-29,株式会社エステート東光,,株式会社,秋田県,大館市,御成町４丁目８番７４号,,05,204,0170044,,,,,,,2024-02-29,1,,,,,エステートトウコウ,0
699,3430003016006,新規,0,2024-02-29,2024-02-29,合同会社といろ,,合同会社,北海道,札幌市西区,琴似二条３丁目１番７号,,01,107,0630812,,,,,,,2024-02-29,1,,,,,トイロ,0
702,3450001014240,新規,0,2024-02-29,2024-02-29,株式会社ｔｏｎｅ,,株式会社,北海道,旭川市,二条通７丁目１２３－４１　２．７ビル２Ｆ,,01,204,0700032,,,,,,,2024-02-29,1,,,,,トーン,0
717,4010001242677,新規,0,2024-02-29,2024-02-29,株式会社ＴｒａｎｓＸ,,株式会社,東京都,文京区,本郷４丁目１番地３号明和本郷ビル７Ｆ,,13,105,1130033,,,,,,,2024-02-29,1,,,,,トランスエックス,0
718,4010001242685,新規,0,2024-02-29,2024-02-29,豊田ＨＤ株式会社,,株式会社,東京都,中央区,八重洲２丁目１番１号ＹＡＮＭＡＲ－ＴＯＫＹＯ１２階,,13,102,1040028,,,,,,,2024-02-29,1,,,,,トヨダホールディングス,0
721,4010101016031,新規,0,2024-02-29,2024-02-29,株式会社Ｔ．Ｍ．Ｂ．,,株式会社,東京都,八王子市,大谷町５５８番地１,,13,201,1920034,,,,,,,2024-02-29,1,,,,,ティーエムビー,0
726,4010401180700,新規,0,2024-02-29,2024-02-29,株式会社ＬｕｄｉＶｅｎｔ,,株式会社,東京都,港区,北青山１丁目３番１号アールキューブ青山３階,,13,103,1070061,,,,,,,2024-02-29,1,,,,,ルディベント,0
731,4010601064728,新規,0,2024-02-29,2024-02-29,ＢｉｏＧｒｏｗｔｈ株式会社,,株式会社,東京都,江東区,東砂５丁目５番６号Ｋビル４０２,,13,108,1360074,,,,,,,2024-02-29,1,,,,,バイオグロース,0
732,4010601064736,新規,0,2024-02-29,2024-02-29,安和株式会社,,株式会社,東京都,墨田区,向島４丁目１番１－２１２号,,13,107,1310033,,,,,,,2024-02-29,1,,,,,アンワ,0
739,4010901054783,新規,0,2024-02-29,2024-02-29,株式会社Ｖ．Ｆ．Ｃ,,株式会社,東京都,世田谷区,奥沢６丁目１６番３号,,13,112,1580083,,,,,,,2024-02-29,1,,,,,ブイエフシー,0
742,4011001160258,新規,0,2024-02-29,2024-02-29,株式会社フォースヤード,,株式会社,東京都,目黒区,緑が丘１丁目１５番８号,,13,110,1520034,,,,,,,2024-02-29,1,,,,,フォースヤード,0
743,4011001160308,新規,0,2024-02-29,2024-02-29,株式会社ＧＥＭＢＡ　ＨＤ,,株式会社,東京都,渋谷区,桜丘町９番８号,,13,113,1500031,,,,,,,2024-02-29,1,,,,,ゲンバホールディングス,0
744,4011001160316,新規,0,2024-02-29,2024-02-29,ＬＣ株式会社,,株式会社,東京都,目黒区,中目黒２丁目８番９号４階,,13,110,1530061,,,,,,,2024-02-29,1,,,,,エルシー,0
757,4011201025269,新規,0,2024-02-29,2024-02-29,株式会社ＣＡＮＡＤＹ,,株式会社,東京都,中野区,若宮１丁目４４番１号,,13,114,1650033,,,,,,,2024-02-29,1,,,,,カナディ,0
758,4011401025894,新規,0,2024-02-29,2024-02-29,株式会社ＳＯＹＵ,,株式会社,東京都,板橋区,東山町３３－１０,,13,119,1740073,,,,,,,2024-02-29,1,,,,,エスオーワイユー,0
760,4011501030373,新規,0,2024-02-29,2024-02-29,株式会社片庭金属輸送,,株式会社,東京都,荒川区,西尾久７丁目２番１０号,,13,118,1160011,,,,,,,2024-02-29,1,,,,,カタニワキンゾクユソウ,0
762,4011703003763,新規,0,2024-02-29,2024-02-29,合同会社Ｋｏｔａｎａｇａ,,合同会社,東京都,江戸川区,西葛西５丁目７番６号,,13,123,1340088,,,,,,,2024-02-29,1,,,,,コタナガ,0
775,4012801022993,新規,0,2024-02-29,2024-02-29,株式会社セイワ・企画,,株式会社,東京都,立川市,柴崎町６丁目１９番６号シティハイム立川１０９号,,13,202,1900023,,,,,,,2024-02-29,1,,,,,セイワキカク,0
780,4013301052135,新規,0,2024-02-29,2024-02-29,株式会社成田友樹建築設計事務所,,株式会社,東京都,豊島区,高松３丁目５番９号,,13,116,1710042,,,,,,,2024-02-29,1,,,,,ナリタユウキケンチクセッケイジムショ,0
799,4021001081577,新規,0,2024-02-29,2024-02-29,株式会社まるみねっと,,株式会社,神奈川県,座間市,ひばりが丘３丁目５２番２１号,,14,216,2520003,,,,,,,2024-02-29,1,,,,,マルミネット,0
802,4021003014205,新規,0,2024-02-29,2024-02-29,Ｄｉａｍｏｎｄ　Ｃｈｉｃ　Ｊａｐａｎ合同会社,,合同会社,神奈川県,横須賀市,野比１丁目４番３－７０４号,,14,201,2390841,,,,,,,2024-02-29,1,,,,,ダイアモンドチックジャパン,0
803,4021005013031,新規,0,2024-02-29,2024-02-29,一般社団法人ＭＭＫ,,その他の設立登記法人,神奈川県,足柄下郡真鶴町,岩８５４番地４中島荘３号,,14,383,2590202,,,,,,,2024-02-29,1,,,,,エムエムケイ,0
808,4030001158913,新規,0,2024-02-29,2024-02-29,無有株式会社,,株式会社,埼玉県,さいたま市見沼区,大和田町２丁目４０７番地５,,11,104,3370053,,,,,,,2024-02-29,1,,,,,ナシアリ,0
809,4030001158921,新規,0,2024-02-29,2024-02-29,カワノグループ株式会社,,株式会社,埼玉県,比企郡ときがわ町,大字別所２７４番地１,,11,349,3550352,,,,,,,2024-02-29,1,,,,,カワノグループ,0
810,4030001158938,新規,0,2024-02-29,2024-02-29,コネクトビジネス株式会社,,株式会社,埼玉県,川越市,大字小堤５４９番地３１９,,11,201,3500811,,,,,,,2024-02-29,1,,,,,コネクトビジネス,0
811,4030001158954,新規,0,2024-02-29,2024-02-29,株式会社Ｐａｖｅｍｅｎｔ,,株式会社,埼玉県,川口市,本町２丁目６番２５－１３０１号,,11,203,3320012,,,,,,,2024-02-29,1,,,,,ペイヴメント,0
816,4030003023727,新規,0,2024-02-29,2024-02-29,合同会社ＫＮＫ,,合同会社,埼玉県,本庄市,児玉町児玉１３０９番地１グレースタンＣ号棟,,11,211,3670212,,,,,,,2024-02-29,1,,,,,ケイエヌケイ,0
821,4040003024443,新規,0,2024-02-29,2024-02-29,合同会社ウォーキングフラワー,,合同会社,千葉県,習志野市,実籾１丁目５－３櫻井コーポ２０１,00133897,12,216,2750002,,,,,,,2024-02-29,1,,,,,ウォーキングフラワー,0
825,4050001054359,新規,0,2024-02-29,2024-02-29,ドラゴンバイク株式会社,,株式会社,茨城県,龍ケ崎市,大徳町７３４－５,,08,208,3010816,,,,,,,2024-02-29,1,,,,,ドラゴンバイク,0
826,4050001054367,新規,0,2024-02-29,2024-02-29,ジー・トラスト不動産株式会社,,株式会社,茨城県,日立市,東町２丁目９番１号,,08,202,3170061,,,,,,,2024-02-29,1,,,,,ジートラストフドウサン,0
828,4070001041446,新規,0,2024-02-29,2024-02-29,株式会社飯塚板金工業,00133894,株式会社,群馬県,吾妻郡中之条町,大字入山２６５０番地１,,10,421,3771701,,,,,,,2024-02-29,1,,,,,イイヅカバンキンコウギョウ,0
840,4100001037242,新規,0,2024-02-29,2024-02-29,志倉久之株式会社,,株式会社,長野県,北佐久郡軽井沢町,大字軽井沢１０１９番地１５０,,20,321,3890102,,,,,,,2024-02-29,1,,,,,シクラヒサユキ,0
842,4100003007425,新規,0,2024-02-29,2024-02-29,Ｙａｍａ　Ｌｏｄｇｅ合同会社,,合同会社,長野県,飯山市,大字飯山１１４９２番地４００,,20,213,3892253,,,,,,,2024-02-29,1,,,,,ヤマロッジ,0
850,4120001262664,新規,0,2024-02-29,2024-02-29,株式会社ＣＲＯＷＮ‐Ｎ,,株式会社,大阪府,大阪市住吉区,山之内４丁目１６番２４号,,27,120,5580023,,,,,,,2024-02-29,1,,,,,クラウンエヌ,0
851,4120001262706,新規,0,2024-02-29,2024-02-29,株式会社Ｏ・Ｓ建設,,株式会社,大阪府,大阪市北区,西天満３丁目７番１７号ラムール西天満６０１号,,27,127,5300047,,,,,,,2024-02-29,1,,,,,オーエスケンセツ,0
852,4120001262739,新規,0,2024-02-29,2024-02-29,株式会社美創,,株式会社,大阪府,大阪市西区,九条３丁目１５番２５号,,27,106,5500027,,,,,,,2024-02-29,1,,,,,ビソウ,0
853,4120001262747,新規,0,2024-02-29,2024-02-29,林崎株式会社,,株式会社,大阪府,大阪市中央区,瓦屋町１丁目１１－６－８０４,,27,128,5420066,,,,,,,2024-02-29,1,,,,,ハヤサキ,0
862,4130001076428,新規,0,2024-02-29,2024-02-29,株式会社クローバー,,株式会社,京都府,京都市南区,吉祥院前田町２４番地１Ｆ,,26,107,6018341,,,,,,,2024-02-29,1,,,,,クローバー,0
863,4130001076452,新規,0,2024-02-29,2024-02-29,株式会社Ｔ’ｓ‐ＰＬＡＮ,,株式会社,京都府,京都市伏見区,久我本町４番地５９,,26,109,6128492,,,,,,,2024-02-29,1,,,,,ティーズプラン,0
864,4130001076460,新規,0,2024-02-29,2024-02-29,株式会社大蔵弁天,,株式会社,京都府,京都市東山区,宮川筋４丁目３２０番１，４階,,26,105,6050801,,,,,,,2024-02-29,1,,,,,ダイゾウベンテン,0
865,4130003009328,新規,0,2024-02-29,2024-02-29,Ｃｏｃｋｔａｉｌ合同会社,,合同会社,京都府,京都市中京区,壬生辻町３７番地７,,26,104,6048822,,,,,,,2024-02-29,1,,,,,カクテル,0
869,4140001133500,新規,0,2024-02-29,2024-02-29,株式会社尼子,,株式会社,兵庫県,姫路市,書写２２７５番地,,28,201,6712201,,,,,,,2024-02-29,1,,,,,アマコ,0
870,4140001133509,新規,0,2024-02-29,2024-02-29,株式会社Ｌｉｔｔｌｅ　Ｒｉｎｇｅｄ,,株式会社,兵庫県,神戸市長田区,大塚町１丁目８番１１号プレノ長田７０１号室,,28,106,6530811,,,,,,,2024-02-29,1,,,,,リトルリングド,0
872,4140003020192,新規,0,2024-02-29,2024-02-29,合同会社松下エステートこんぺき,,合同会社,兵庫県,神戸市東灘区,向洋町中６丁目３番地の８６,,28,101,6580032,,,,,,,2024-02-29,1,,,,,マツシタエステートコンペキ,0
873,4150001027107,新規,0,2024-02-29,2024-02-29,株式会社ＦＡＳＴＥＰ,,株式会社,奈良県,生駒郡三郷町,立野南２丁目７番１６号,,29,343,6360822,,,,,,,2024-02-29,1,,,,,ファステップ,0
874,4160001025720,新規,0,2024-02-29,2024-02-29,株式会社中京ウェルネス,,株式会社,滋賀県,守山市,矢島町１３４０,,25,207,5240015,,,,,,,2024-02-29,1,,,,,,0
879,4170003001990,新規,0,2024-02-29,2024-02-29,合同会社Ｇｒｏｕｐ‐Ｓ,,合同会社,和歌山県,橋本市,東家１丁目２番６号,,30,203,6480072,,,,,,,2024-02-29,1,,,,,グループエス,0
883,4180001160318,新規,0,2024-02-29,2024-02-29,ブルーアール株式会社,,株式会社,愛知県,名古屋市中川区,尾頭橋２丁目２番１６号,,23,110,4540012,,,,,,,2024-02-29,1,,,,,ブルーアール,0
884,4180001160342,新規,0,2024-02-29,2024-02-29,株式会社シンプル,,株式会社,愛知県,名古屋市名東区,藤里町８０６－２,,23,115,4650036,,,,,,,2024-02-29,1,,,,,シンプル,0
887,4180003026285,新規,0,2024-02-29,2024-02-29,合同会社ＪＳリリース,,合同会社,愛知県,名古屋市中川区,荒子１丁目９１番地ライオンズマンション高畑５０４,,23,110,4540869,,,,,,,2024-02-29,1,,,,,ジェイエスリリース,0
888,4180003026426,新規,0,2024-02-29,2024-02-29,Ｗｏｍａｎライフソリューション合同会社,,合同会社,愛知県,名古屋市緑区,鳴海町字向田１４６番地の３,,23,114,4580831,,,,,,,2024-02-29,1,,,,,ウーマンライフソリューション,0
893,4200001042199,新規,0,2024-02-29,2024-02-29,株式会社ＭＳ　ＴＥＣＨ,,株式会社,岐阜県,多治見市,昭栄町３０番地１３２,,21,204,5070076,,,,,,,2024-02-29,1,,,,,エムエステック,0
898,4220001025838,新規,0,2024-02-29,2024-02-29,マークサプライズ株式会社,,株式会社,石川県,金沢市,朝霧台２丁目７１番地,,17,201,9201158,,,,,,,2024-02-29,1,,,,,マークサプライズ,0
899,4230001020227,新規,0,2024-02-29,2024-02-29,ぐりーん電力株式会社,,株式会社,富山県,高岡市,波岡１７４番地２,,16,202,9330958,,,,,,,2024-02-29,1,,,,,グリーンデンリョク,0
900,4240001062862,新規,0,2024-02-29,2024-02-29,巽産業株式会社,,株式会社,広島県,広島市安佐南区,中須１丁目５５番５－１０３号,,34,105,7310121,,,,,,,2024-02-29,1,,,,,タツミサンギョウ,0
902,4240005015734,新規,0,2024-02-29,2024-02-29,医療法人社団まきこ眼科クリニック,,その他の設立登記法人,広島県,安芸郡熊野町,出来庭３丁目３番３３号,,34,307,7314221,,,,,,,2024-02-29,1,,,,,マキコガンカクリニック,0
903,4260001038786,新規,0,2024-02-29,2024-02-29,株式会社Ｍａｔｔｅｒ,,株式会社,岡山県,倉敷市,連島町鶴新田２８９番地２０,,33,202,7128006,,,,,,,2024-02-29,1,,,,,マター,0
907,4290001104899,新規,0,2024-02-29,2024-02-29,株式会社絵本の森保育園,,株式会社,福岡県,福岡市中央区,高砂２丁目１５番５号,,40,133,8100011,,,,,,,2024-02-29,1,,,,,エホンノモリホイクエン,0
919,4360001033265,新規,0,2024-02-29,2024-02-29,株式会社Ｒｉｓｅ,,株式会社,沖縄県,那覇市,長田２丁目３４番６－１０２号ガーデンフィールドハイツＡ棟,,47,201,9020077,,,,,,,2024-02-29,1,,,,,ライズ,0
922,4370001050961,新規,0,2024-02-29,2024-02-29,株式会社ＧＬ　Ｃｒｅａｔｉｖｅ　Ｊａｐａｎ,,株式会社,宮城県,仙台市宮城野区,苦竹１丁目７番２５－４０５号,,04,102,9830036,,,,,,,2024-02-29,1,,,,,ジーエルクリエイティブジャパン,0
925,4390001017538,新規,0,2024-02-29,2024-02-29,株式会社新和現図,,株式会社,山形県,飽海郡遊佐町,遊佐字高砂７５番地,,06,461,9998301,,,,,,,2024-02-29,1,,,,,シンワゲンズ,0
926,4410001013740,新規,0,2024-02-29,2024-02-29,株式会社７２９,,株式会社,秋田県,にかほ市,院内字下横根３３番地８,,05,214,0180411,,,,,,,2024-02-29,1,,,,,ナニク,0
928,4420003002880,新規,0,2024-02-29,2024-02-29,合同会社歯科工房竹浪,,合同会社,青森県,弘前市,大字向外瀬３丁目１０番地４,,02,202,0368066,,,,,,,2024-02-29,1,,,,,シカコウボウタケナミ,0
932,4430003016005,新規,0,2024-02-29,2024-02-29,合同会社Ｒｙｕｚｉｎ札幌,,合同会社,北海道,札幌市東区,北四十条東２０丁目３－２２,,01,103,0070840,,,,,,,2024-02-29,1,,,,,リュウジンサッポロ,0
943,5010001242668,新規,0,2024-02-29,2024-02-29,ブライトストーン株式会社,,株式会社,東京都,中央区,勝どき４丁目６番２－３８１５号,,13,102,1040054,,,,,,,2024-02-29,1,,,,,ブライトストーン,0
944,5010001242718,新規,0,2024-02-29,2024-02-29,株式会社新世紀,,株式会社,東京都,千代田区,平河町１丁目６番８号協同法律事務所内,,13,101,1020093,,,,,,,2024-02-29,1,,,,,シンセイキ,0
946,5010003043073,新規,0,2024-02-29,2024-02-29,８Ｍキャピタル合同会社,,合同会社,東京都,中央区,銀座２丁目１５番２号ＫＲＧｉｎｚａＩＩ４Ｆ,00133904,13,102,1040061,,,,,,,2024-02-29,1,,,,,ハチエムキャピタル,0
948,5010401180674,新規,0,2024-02-29,2024-02-29,株式会社Ｅ‐Ｐｒｏｊｅｃｔ,,株式会社,東京都,港区,高輪４丁目２３番６号ハイホーム高輪７０８,,13,103,1080074,,,,,,,2024-02-29,1,,,,,イープロジェクト,0
949,5010401180699,新規,0,2024-02-29,2024-02-29,明慶キャピタル株式会社,,株式会社,東京都,港区,新橋３丁目２番４号ＭＫプレイス２階,,13,103,1050004,,,,,,,2024-02-29,1,,,,,メイケイキャピタル,0
950,5010401180724,新規,0,2024-02-29,2024-02-29,ＲＯＵＮＤＳ株式会社,,株式会社,東京都,港区,北青山１丁目３番１号アールキューブ青山３階,,13,103,1070061,,,,,,,2024-02-29,1,,,,,ラウンズ,0
951,5010401180740,新規,0,2024-02-29,2024-02-29,株式会社不老長寿研究所,,株式会社,東京都,港区,麻布台１丁目５－９、３Ｆ,,13,103,1060041,,,,,,,2024-02-29,1,,,,,フロウチョウジュケンキュウジョ,0
954,5010403032023,新規,0,2024-02-29,2024-02-29,シャムロック合同会社,,合同会社,東京都,港区,南青山３丁目１番３６号,,13,103,1070062,,,,,,,2024-02-29,1,,,,,シャムロック,0
957,5010601064735,新規,0,2024-02-29,2024-02-29,株式会社和,,株式会社,東京都,墨田区,東向島４丁目４０番１５－１０９号,,13,107,1310032,,,,,,,2024-02-29,1,,,,,ナゴミ,0
958,5010603010679,新規,0,2024-02-29,2024-02-29,アニメチェーン合同会社,,合同会社,東京都,江東区,福住２丁目７‐９‐７０５,,13,108,1350032,,,,,,,2024-02-29,1,,,,,アニメチェーン,0
961,5010801034802,新規,0,2024-02-29,2024-02-29,ＩＬＵＭＡ株式会社,,株式会社,東京都,大田区,蒲田４丁目１０－１４－１７１５,,13,111,1440052,,,,,,,2024-02-29,1,,,,,イルマ,0
965,5010805003092,新規,0,2024-02-29,2024-02-29,一般社団法人人と自然,,その他の設立登記法人,東京都,大田区,仲池上２丁目５番５号,,13,111,1460081,,,,,,,2024-02-29,1,,,,,ヒトトシゼン,0
966,5010901054790,新規,0,2024-02-29,2024-02-29,株式会社ｅｎ．,,株式会社,東京都,世田谷区,用賀２丁目３０番１０号,,13,112,1580097,,,,,,,2024-02-29,1,,,,,エン,0
971,5011001160257,新規,0,2024-02-29,2024-02-29,Ａｕｄｉｅｎｔｅｓ株式会社,,株式会社,東京都,渋谷区,渋谷３丁目６番２号エクラート渋谷５階,,13,113,1500002,,,,,,,2024-02-29,1,,,,,アウディエンテス,0
972,5011001160281,新規,0,2024-02-29,2024-02-29,株式会社バナナフーズ,,株式会社,東京都,目黒区,青葉台１丁目２８番１１号ブルックスビル２Ｆ,,13,110,1530042,,,,,,,2024-02-29,1,,,,,バナナフーズ,0
973,5011001160298,新規,0,2024-02-29,2024-02-29,Ａｓｈｉｔａ　Ｔｅｃｈｎｏｌｏｇｙ株式会社,,株式会社,東京都,渋谷区,道玄坂１丁目２１番１号３階,,13,113,1500043,,,,,,,2024-02-29,1,,,,,アシタテクノロジー,0
975,5011003018585,新規,0,2024-02-29,2024-02-29,合同会社マルベン,,合同会社,東京都,目黒区,碑文谷３丁目１７番９－２０１号,,13,110,1520003,,,,,,,2024-02-29,1,,,,,マルベン,0
981,5011103014146,新規,0,2024-02-29,2024-02-29,ＣｏＣｏｎｕｔ　ｓｏｕｐ合同会社,,合同会社,東京都,新宿区,西新宿３丁目３－１３西新宿水間ビル６Ｆ,,13,104,1600023,,,,,,,2024-02-29,1,,,,,ココナツスープ,0
983,5011303005069,新規,0,2024-02-29,2024-02-29,合同会社Ａｃｅ　Ｃｈｏｉｃｅ,,合同会社,東京都,杉並区,成田西１丁目２５番１３号,,13,115,1660016,,,,,,,2024-02-29,1,,,,,エースチョイス,0
986,5011601027558,新規,0,2024-02-29,2024-02-29,株式会社Ａｅｏｎｕｓ,,株式会社,東京都,練馬区,関町北１丁目２１番９号４Ｆ,,13,120,1770051,,,,,,,2024-02-29,1,,,,,イオナス,0
987,5011601027566,新規,0,2024-02-29,2024-02-29,株式会社三興設備,,株式会社,東京都,練馬区,土支田３丁目３５番１１号ドゥ・グランデ・ＩＩ１０５,00133891,13,120,1790076,,,,,,,2024-02-29,1,,,,,サンコウセツビ,0
1013,5021001081576,新規,0,2024-02-29,2024-02-29,株式会社ホームタウン湘南,,株式会社,神奈川県,藤沢市,善行５丁目１番１７号,,14,205,2510871,,,,,,,2024-02-29,1,,,,,ホームタウンショウナン,0
1014,5021003014204,新規,0,2024-02-29,2024-02-29,合同会社西湘空撮,,合同会社,神奈川県,平塚市,公所７３２番地の８,,14,203,2540906,,,,,,,2024-02-29,1,,,,,セイショウクウサツ,0
1015,5021005013022,新規,0,2024-02-29,2024-02-29,特定非営利活動法人横須賀福祉相談センター,,その他の設立登記法人,神奈川県,横須賀市,安浦町１丁目４番地４号若松安浦ビル２階,,14,201,2380012,,,,,,,2024-02-29,1,,,,,ヨコスカフクシソウダンセンター,0
1019,5030001158904,新規,0,2024-02-29,2024-02-29,ＭＴ　ＨＯＵＳＥ株式会社,,株式会社,埼玉県,蕨市,中央７丁目２２番１０号,,11,223,3350004,,,,,,,2024-02-29,1,,,,,エムティーハウス,0
1020,5030001158912,新規,0,2024-02-29,2024-02-29,株式会社ＭＧＫ,,株式会社,埼玉県,新座市,畑中３丁目１番１５－１０４号,,11,230,3520012,,,,,,,2024-02-29,1,,,,,エムジーケー,0
1021,5030001158929,新規,0,2024-02-29,2024-02-29,株式会社リノベスト,,株式会社,埼玉県,新座市,野火止５丁目６番２０号,,11,230,3520011,,,,,,,2024-02-29,1,,,,,リノベスト,0
1022,5030001158945,新規,0,2024-02-29,2024-02-29,株式会社ＳＨＲＩＪＡＮＡ　ＴＲＡＤＩＮＧ,,株式会社,埼玉県,戸田市,笹目５丁目２番１０号,,11,224,3350034,,,,,,,2024-02-29,1,,,,,シリジャナトレーディング,0
1028,5040001132420,新規,0,2024-02-29,2024-02-29,株式会社朝顔,,株式会社,千葉県,習志野市,東習志野１丁目５番１３号ハイツ赤坂１０１号室,,12,216,2750001,,,,,,,2024-02-29,1,,,,,アサガオ,0
1030,5040003024426,新規,0,2024-02-29,2024-02-29,合同会社藤花,,合同会社,千葉県,千葉市中央区,中央１丁目８番５号リージェントビル６Ｆ,,12,101,2600013,,,,,,,2024-02-29,1,,,,,トウカ,0
1031,5040003024434,新規,0,2024-02-29,2024-02-29,東京Ｌｉｎｋａｇｅ合同会社,,合同会社,千葉県,松戸市,南花島４丁目６１番３－１０６号,,12,207,2710065,,,,,,,2024-02-29,1,,,,,トウキョウリンケージ,0
1032,5040005022304,新規,0,2024-02-29,2024-02-29,一般財団法人森島奨学財団,,その他の設立登記法人,千葉県,船橋市,西船１丁目９番６号,,12,204,2730031,,,,,,,2024-02-29,1,,,,,モリシマショウガクザイダン,0
1033,5050001054366,新規,0,2024-02-29,2024-02-29,新光株式会社,,株式会社,茨城県,守谷市,松前台１丁目７番地４プルミエール守谷Ｄ１０１,,08,224,3020102,,,,,,,2024-02-29,1,,,,,シンコウ,0
1037,5070001041445,新規,0,2024-02-29,2024-02-29,株式会社ＭＵＧＥＮ,,株式会社,群馬県,藤岡市,中１５５番地,,10,209,3750005,,,,,,,2024-02-29,1,,,,,ムゲン,0
1040,5070003005282,新規,0,2024-02-29,2024-02-29,長樂合同会社,,合同会社,群馬県,高崎市,南町１番地１,,10,202,3700834,,,,,,,2024-02-29,1,,,,,チョウラク,0
1046,5080405007611,新規,0,2024-02-29,2024-02-29,一般社団法人デモテク,,その他の設立登記法人,静岡県,菊川市,半済３０６１番地の９１,,22,224,4390019,,,,,,,2024-02-29,1,,,,,デモテク,0
1047,5090001018565,新規,0,2024-02-29,2024-02-29,華泰株式会社,,株式会社,山梨県,南都留郡鳴沢村,字富士山８５４５番地１０７９－１１２号室,,19,429,4010320,,,,,,,2024-02-29,1,,,,,カタイ,0
1048,5090005007614,新規,0,2024-02-29,2024-02-29,一般社団法人サムサラの樹,,その他の設立登記法人,山梨県,西八代郡市川三郷町,山保８３９５,,19,346,4093602,,,,,,,2024-02-29,1,,,,,サムサラノキ,0
1049,5100001022549,新規,0,2024-02-29,2024-02-29,株式会社玉木屋製菓,,株式会社,長野県,飯田市,松尾久井３９１番地,,20,205,3950816,,,,,,,2024-02-29,1,,,,,タマキヤセイカ,0
1052,5100003007424,新規,0,2024-02-29,2024-02-29,みらい合同会社,,合同会社,長野県,千曲市,上山田温泉３丁目５０番地１－８０７号,,20,218,3890821,,,,,,,2024-02-29,1,,,,,ミライ,0
1060,5120001262738,新規,0,2024-02-29,2024-02-29,株式会社ＣＯＣＩＡＬＣＬＵＢ,,株式会社,大阪府,大阪市港区,築港２丁目１－１９－０１,,27,107,5520021,,,,,,,2024-02-29,1,,,,,コーシャルクラブ,0
1061,5120001262754,新規,0,2024-02-29,2024-02-29,株式会社ＨＡＴＡ　ＲＡＭＵＮＥホールディングス,,株式会社,大阪府,大阪市都島区,都島北通１丁目１０番２０号,,27,102,5340014,,,,,,,2024-02-29,1,,,,,ハタラムネホールディングス,0
1063,5120003025952,新規,0,2024-02-29,2024-02-29,ニック合同会社,,合同会社,大阪府,大阪市北区,梅田１丁目２番２号大阪駅前第２ビル１２‐１２,,27,127,5300001,,,,,,,2024-02-29,1,,,,,ニック,0
1065,5120101069125,新規,0,2024-02-29,2024-02-29,株式会社ＬＵＸＥ,,株式会社,大阪府,泉大津市,虫取町２丁目２番２－５０７号,,27,206,5950037,,,,,,,2024-02-29,1,,,,,リュクス,0
1071,5122001037855,新規,0,2024-02-29,2024-02-29,株式会社Ｐｅｄｉｃｓ,,株式会社,大阪府,東大阪市,長堂１丁目３番７号,,27,227,5770056,,,,,,,2024-02-29,1,,,,,ペディックス,0
1075,5130001076451,新規,0,2024-02-29,2024-02-29,ＫＲＣ株式会社,,株式会社,京都府,京都市中京区,六角通堺町東入堀之上町１０５,,26,104,6048117,,,,,,,2024-02-29,1,,,,,ケーアールシー,0
1076,5130005017014,新規,0,2024-02-29,2024-02-29,一般社団法人ＫＵファイナンス研究所,,その他の設立登記法人,京都府,京都市中京区,新町通三条下る三条町３３３番地２カーネルヒル４０１,,26,104,6048205,,,,,,,2024-02-29,1,,,,,ケーユーファイナンスケンキュウジョ,0
1079,5140001133508,新規,0,2024-02-29,2024-02-29,株式会社エスアンドエス,,株式会社,兵庫県,尼崎市,南塚口町２丁目１番３号,,28,202,6610012,,,,,,,2024-02-29,1,,,,,エスアンドエス,0
1085,5160001025711,新規,0,2024-02-29,2024-02-29,株式会社ジョン’ス,,株式会社,滋賀県,彦根市,戸賀町２７番地３,,25,202,5220042,,,,,,,2024-02-29,1,,,,,ジョンス,0
1090,5180001160300,新規,0,2024-02-29,2024-02-29,株式会社ランゲージ,,株式会社,愛知県,名古屋市中区,栄３丁目７－４ヒノデ写真館ビル１Ｆ,,23,106,4600008,,,,,,,2024-02-29,1,,,,,ランゲージ,0
1091,5180001160317,新規,0,2024-02-29,2024-02-29,株式会社Ｍ＆Ｔ‐ｕｐ,,株式会社,愛知県,一宮市,伝法寺４丁目４番地７,,23,203,4910828,,,,,,,2024-02-29,1,,,,,エムアンドティーアップ,0
1092,5180001160341,新規,0,2024-02-29,2024-02-29,株式会社百輝,,株式会社,愛知県,名古屋市熱田区,四番１丁目２番４号－１,,23,109,4560051,,,,,,,2024-02-29,1,,,,,ヒャッキ,0
1093,5180003026433,新規,0,2024-02-29,2024-02-29,合同会社ＳＡＩ,,合同会社,愛知県,名古屋市中川区,尾頭橋４丁目１３－７,,23,110,4540012,,,,,,,2024-02-29,1,,,,,エスエーアイ,0
1094,5180005020533,新規,0,2024-02-29,2024-02-29,一般社団法人いごこちサポート,,その他の設立登記法人,愛知県,名古屋市熱田区,一番２丁目２１番１号しろとり斎場相談サロン内,,23,109,4560053,,,,,,,2024-02-29,1,,,,,イゴコチサポート,0
1101,5200003006242,新規,0,2024-02-29,2024-02-29,Ｒｅｉ　ｏｆｆｉｃｅ合同会社,,合同会社,岐阜県,岐阜市,加納城南通１丁目５番地３,,21,201,5008486,,,,,,,2024-02-29,1,,,,,レイオフィス,0
1102,5220001025837,新規,0,2024-02-29,2024-02-29,株式会社サポート・プランニング,,株式会社,石川県,白山市,新田町１７番地７,,17,210,9240015,,,,,,,2024-02-29,1,,,,,サポートプランニング,0
1106,5240001062853,新規,0,2024-02-29,2024-02-29,株式会社ＴＩ‐ＲＡ,,株式会社,広島県,広島市中区,舟入町８番３４号,,34,101,7300841,,,,,,,2024-02-29,1,,,,,ティーラ,0
1110,5260005011318,新規,0,2024-02-29,2024-02-29,ＮＰＯ法人チャイスマ,,その他の設立登記法人,岡山県,岡山市中区,江崎４２番地１０,,33,102,7028005,,,,,,,2024-02-29,1,,,,,チャイスマ,0
1117,5290001104865,新規,0,2024-02-29,2024-02-29,株式会社シンフォニア,,株式会社,福岡県,福岡市中央区,平尾浄水町７番１－３０２号,,40,133,8100029,,,,,,,2024-02-29,1,,,,,シンフォニア,0
1118,5290001104873,新規,0,2024-02-29,2024-02-29,株式会社ｍｏｋｕｂａｋａｉ,,株式会社,福岡県,福岡市早良区,百道浜３丁目９番３３－２５０５号,,40,137,8140001,,,,,,,2024-02-29,1,,,,,モクバカイ,0
1121,5290801030344,新規,0,2024-02-29,2024-02-29,株式会社グリー・ロード,,株式会社,福岡県,北九州市小倉北区,原町１丁目９－４－９０４,,40,106,8030815,,,,,,,2024-02-29,1,,,,,グリーロード,0
1122,5290803004627,新規,0,2024-02-29,2024-02-29,合同会社ＲＯＸ,,合同会社,福岡県,豊前市,大字沓川８１－１,,40,214,8280023,,,,,,,2024-02-29,1,,,,,ロックス,0
1129,5330001031799,新規,0,2024-02-29,2024-02-29,株式会社吉村企業,,株式会社,熊本県,上益城郡御船町,大字小坂２２１４番地５,,43,441,8613202,,,,,,,2024-02-29,1,,,,,ヨシムラキギョウ,0
1130,5330005010766,新規,0,2024-02-29,2024-02-29,一般社団法人九州ゴルフ＆リゾート,,その他の設立登記法人,熊本県,上益城郡益城町,大字田原１１５５番地１２,,43,443,8612202,,,,,,,2024-02-29,1,,,,,キュウシュウゴルフアンドリゾート,0
1133,5350001018811,新規,0,2024-02-29,2024-02-29,ＮＯＲＭ＆ＨＡＮＣＥ株式会社,,株式会社,宮崎県,東臼杵郡諸塚村,大字家代３２７８番地１,,45,429,8831301,,,,,,,2024-02-29,1,,,,,ノームエンハンス,0
1138,5360001033256,新規,0,2024-02-29,2024-02-29,Ｂｌａｃｋ　Ａｒｋ株式会社,,株式会社,沖縄県,浦添市,字経塚５１７番地,,47,208,9012111,,,,,,,2024-02-29,1,,,,,ブラックアーク,0
1139,5370001050977,新規,0,2024-02-29,2024-02-29,株式会社Ｏｎｅ,,株式会社,宮城県,富谷市,太子堂２丁目９番２６号,,04,216,9813303,,,,,,,2024-02-29,1,,,,,ワン,0
1140,5370003006498,新規,0,2024-02-29,2024-02-29,合同会社ケアプランセンター木村,,合同会社,宮城県,名取市,植松３丁目５番２号,,04,207,9811226,,,,,,,2024-02-29,1,,,,,ケアプランセンターキムラ,0
1152,5460105002279,新規,0,2024-02-29,2024-02-29,農事組合法人Ｍ＆Ｈ,,その他の設立登記法人,北海道,帯広市,東十四条南６丁目１－９,,01,207,0800814,,,,,,,2024-02-29,1,,,,,エムアンドエイチ,0
1153,5470001020053,新規,0,2024-02-29,2024-02-29,株式会社高橋造園,00133890,株式会社,香川県,小豆郡土庄町,上庄５８６番地,,37,322,7614122,,,,,,,2024-02-29,1,,,,,タカハシゾウエン,0
1155,5500003003192,新規,0,2024-02-29,2024-02-29,鎌田建設合同会社,,合同会社,愛媛県,八幡浜市,保内町川之石１番耕地４４番地１６,,38,204,7960201,,,,,,,2024-02-29,1,,,,,カマダケンセツ,0
1160,6010001242618,新規,0,2024-02-29,2024-02-29,ＥＳＧアカデミー株式会社,,株式会社,東京都,千代田区,神田小川町３丁目６番地,,13,101,1010052,,,,,,,2024-02-29,1,,,,,イーエスジーアカデミー,0
1161,6010001242626,新規,0,2024-02-29,2024-02-29,株式会社ＡＬＱＯＵＺ,,株式会社,東京都,千代田区,大手町１丁目６番１号大手町ビル４階,,13,101,1000004,,,,,,,2024-02-29,1,,,,,アルコウズ,0
1162,6010001242642,新規,0,2024-02-29,2024-02-29,ＡＭＴＤ　Ｊａｐａｎ株式会社,,株式会社,東京都,千代田区,四番町４番地９新東京国際リーガル内,,13,101,1020081,,,,,,,2024-02-29,1,,,,,エーエムティディジャパン,0
1163,6010001242650,新規,0,2024-02-29,2024-02-29,株式会社岡本企画,,株式会社,東京都,千代田区,富士見１丁目３番１１号富士見デュープレックスＢ’ｓ４階,,13,101,1020071,,,,,,,2024-02-29,1,,,,,オカモトキカク,0
1164,6010001242659,新規,0,2024-02-29,2024-02-29,アルファ・エッジ・キャピタル株式会社,,株式会社,東京都,千代田区,有楽町１丁目１３番２号第一生命日比谷ファースト１２階Ｓｉｇｎａｔｕｒｅ日比谷ファースト内,,13,101,1000006,,,,,,,2024-02-29,1,,,,,アルファエッジキャピタル,0
1165,6010001242675,新規,0,2024-02-29,2024-02-29,株式会社Ｍａｎｕｓｓｉｈａ,,株式会社,東京都,中央区,日本橋室町１丁目１１番１２号日本橋水野ビル７階,,13,102,1030022,,,,,,,2024-02-29,1,,,,,マヌシハ,0
1166,6010001242683,新規,0,2024-02-29,2024-02-29,株式会社ＺＥＫＩＯ,,株式会社,東京都,中央区,銀座１丁目１２番４号Ｎ＆Ｅ－ＢＬＤ．７階,,13,102,1040061,,,,,,,2024-02-29,1,,,,,ゼキオ,0
1167,6010001242691,新規,0,2024-02-29,2024-02-29,豊電機株式会社,,株式会社,東京都,千代田区,神田和泉町１番地６－１６ヤマトビル４０５,,13,101,1010024,,,,,,,2024-02-29,1,,,,,トヨデンキ,0
1169,6010003043072,新規,0,2024-02-29,2024-02-29,ＢＡ合同会社,,合同会社,東京都,中央区,日本橋室町１丁目１１番１２号日本橋水野ビル７階,,13,102,1030022,,,,,,,2024-02-29,1,,,,,ビーエー,0
1171,6010005037964,新規,0,2024-02-29,2024-02-29,一般社団法人リーダーシップコーチング協会,,その他の設立登記法人,東京都,中央区,銀座１丁目１４－１４銀座中公ビル２階,,13,102,1040061,,,,,,,2024-02-29,1,,,,,リーダーシップコーチングキョウカイ,0
1172,6010103002317,新規,0,2024-02-29,2024-02-29,合同会社ＡＢＤ　ＫＡＬＩＫＡ,,合同会社,東京都,八王子市,元横山町１丁目１７番６号,,13,201,1920063,,,,,,,2024-02-29,1,,,,,エービーディーカリカ,0
1173,6010105002249,新規,0,2024-02-29,2024-02-29,一般社団法人日本刀舞協会,,その他の設立登記法人,東京都,八王子市,横川町１０８番地横川町住宅１－２０１,,13,201,1930823,,,,,,,2024-02-29,1,,,,,ニホントウブキョウカイ,0
1184,6010401180665,新規,0,2024-02-29,2024-02-29,ＢＴＳ株式会社,,株式会社,東京都,港区,南麻布５丁目１０番２７－５０３号,,13,103,1060047,,,,,,,2024-02-29,1,,,,,ビーティーエス,0
1189,6010501051857,新規,0,2024-02-29,2024-02-29,株式会社冨士ユニホーム,,株式会社,東京都,台東区,元浅草３丁目１０番７号コスモ元浅草１０１号室,,13,106,1110041,,,,,,,2024-02-29,1,,,,,フジユニホーム,0
1197,6010903008835,新規,0,2024-02-29,2024-02-29,合同会社ＭＩＨＩＲＯ,,合同会社,東京都,世田谷区,世田谷１丁目７番１０号コーポセブン,,13,112,1540017,,,,,,,2024-02-29,1,,,,,ミヒロ,0
1207,6011001160256,新規,0,2024-02-29,2024-02-29,株式会社メタソリッドソリューションズ,,株式会社,東京都,目黒区,目黒１丁目５－１９目黒第一ビル４０３,,13,110,1530063,,,,,,,2024-02-29,1,,,,,メタソリッドソリューションズ,0
1208,6011001160272,新規,0,2024-02-29,2024-02-29,株式会社マイカレ,,株式会社,東京都,渋谷区,神泉町１０番１５号アネックス神泉３０１,,13,113,1500045,,,,,,,2024-02-29,1,,,,,マイカレ,0
1209,6011001160289,新規,0,2024-02-29,2024-02-29,Ｖ株式会社,,株式会社,東京都,渋谷区,広尾５丁目１－１５－２０２号,,13,113,1500012,,,,,,,2024-02-29,1,,,,,ブイ,0
1210,6011001160297,新規,0,2024-02-29,2024-02-29,株式会社テント,,株式会社,東京都,渋谷区,千駄ヶ谷２丁目７番４号フローリッシュ千駄ケ谷地下１室,,13,113,1510051,,,,,,,2024-02-29,1,,,,,テント,0
1212,6011003018584,新規,0,2024-02-29,2024-02-29,合同会社レミューズ,,合同会社,東京都,渋谷区,桜丘町２３番１７号シティコート桜丘４０８,,13,113,1500031,,,,,,,2024-02-29,1,,,,,レミューズ,0
1219,6011401025892,新規,0,2024-02-29,2024-02-29,Ｐａｒｋ株式会社,,株式会社,東京都,板橋区,板橋１丁目４４番１４－１０２号,,13,119,1730004,,,,,,,2024-02-29,1,,,,,パーク,0
1225,6011503005958,新規,0,2024-02-29,2024-02-29,合同会社ＩＢＥＲＩＳ　ｅｎｔｅｒｔａｉｎｍｅｎｔ,,合同会社,東京都,北区,西ケ原４丁目５１－３５パークキューブ西ヶ原ステージ６０２,,13,117,1140024,,,,,,,2024-02-29,1,,,,,イベリスエンターテイメント,0
1227,6012303001940,新規,0,2024-02-29,2024-02-29,合同会社ＩＳＭ,,合同会社,東京都,町田市,原町田６丁目１７番２１号３０６号室,,13,209,1940013,,,,,,,2024-02-29,1,,,,,アイエスエム,0
1228,6012701018108,新規,0,2024-02-29,2024-02-29,株式会社カクタ工務店,,株式会社,東京都,西東京市,ひばりが丘３丁目２番５１号,,13,229,2020001,,,,,,,2024-02-29,1,,,,,カクタコウムテン,0
1229,6012703002919,新規,0,2024-02-29,2024-02-29,合同会社ほほえみ,,合同会社,東京都,小平市,大沼町６丁目１１番２１号,,13,211,1870001,,,,,,,2024-02-29,1,,,,,ホホエミ,0
1240,6020001155991,新規,0,2024-02-29,2024-02-29,長安の実株式会社,,株式会社,神奈川県,川崎市高津区,久末１５３４番地９,,14,134,2130026,,,,,,,2024-02-29,1,,,,,チョウアンノミ,0
1247,6021001081567,新規,0,2024-02-29,2024-02-29,株式会社森田興業,,株式会社,神奈川県,綾瀬市,早川城山４丁目１番３１号,,14,218,2521127,,,,,,,2024-02-29,1,,,,,モリタコウギョウ,0
1248,6021001081575,新規,0,2024-02-29,2024-02-29,ミキソリューション株式会社,,株式会社,神奈川県,相模原市南区,大野台１丁目９－２１－３,,14,153,2520331,,,,,,,2024-02-29,1,,,,,ミキソリューション,0
1249,6021001081583,新規,0,2024-02-29,2024-02-29,株式会社英明ホールディングス,,株式会社,神奈川県,平塚市,四之宮２丁目３番７２号,,14,203,2540014,,,,,,,2024-02-29,1,,,,,エイメイホールディングス,0
1256,6030001158911,新規,0,2024-02-29,2024-02-29,株式会社エンタープライズフカイ,,株式会社,埼玉県,三郷市,彦川戸１丁目１２５番地,,11,237,3410005,,,,,,,2024-02-29,1,,,,,エンタープライズフカイ,0
1257,6030001158928,新規,0,2024-02-29,2024-02-29,ＲＥＣＩ株式会社,,株式会社,埼玉県,川口市,南前川１丁目５番１８号,,11,203,3330846,,,,,,,2024-02-29,1,,,,,レシ,0
1268,6040001132403,新規,0,2024-02-29,2024-02-29,株式会社経営企画,,株式会社,千葉県,八千代市,勝田台１丁目１９番４号,,12,221,2760023,,,,,,,2024-02-29,1,,,,,ケイエイキカク,0
1269,6040001132428,新規,0,2024-02-29,2024-02-29,株式会社サローム,,株式会社,千葉県,流山市,西平井２丁目６番地の８ＰＲＥＳＩＤＥＮＳＩＩ３０２号室,00133896,12,220,2700156,,,,,,,2024-02-29,1,,,,,サローム,0
1270,6040001132436,新規,0,2024-02-29,2024-02-29,株式会社アグリフード千葉,,株式会社,千葉県,山武市,松尾町本柏２８８４番地２,,12,237,2891521,,,,,,,2024-02-29,1,,,,,アグリフードチバ,0
1274,6040003024367,新規,0,2024-02-29,2024-02-29,合同会社ＭＫコンサルティング,,合同会社,千葉県,千葉市若葉区,貝塚町４３０番地２アリュールＩＩＩ１０２号,00133903,12,104,2640023,,,,,,,2024-02-29,1,,,,,エムケイコンサルティング,0
1275,6040003024417,新規,0,2024-02-29,2024-02-29,合同会社わかば,,合同会社,千葉県,東金市,台方６８８番地９,,12,213,2830811,,,,,,,2024-02-29,1,,,,,ワカバ,0
1276,6040003024425,新規,0,2024-02-29,2024-02-29,金田グローバル貿易合同会社,,合同会社,千葉県,木更津市,金田東６丁目２番地３の２０１,,12,206,2920009,,,,,,,2024-02-29,1,,,,,カネダグローバルボウエキ,0
1279,6050001054365,新規,0,2024-02-29,2024-02-29,ロンジャパン株式会社,,株式会社,茨城県,取手市,米ノ井４４番地７,,08,217,3020033,,,,,,,2024-02-29,1,,,,,ロンジャパン,0
1281,6070001041444,新規,0,2024-02-29,2024-02-29,株式会社小林製作所,,株式会社,群馬県,伊勢崎市,三室町５２１５番地６,,10,204,3792235,,,,,,,2024-02-29,1,,,,,コバヤシセイサクショ,0
1285,6080101024538,新規,0,2024-02-29,2024-02-29,株式会社ＬＩＶＥ　ＣＡＰＳＵＬＥ,,株式会社,静岡県,富士市,島田町１丁目５０番地,,22,210,4170033,,,,,,,2024-02-29,1,,,,,ライブカプセル,0
1291,6090001018564,新規,0,2024-02-29,2024-02-29,株式会社ミトモ工業,,株式会社,山梨県,甲府市,高畑３丁目３番３号アスカＩＩ２０１号室,00133905,19,201,4000042,,,,,,,2024-02-29,1,,,,,ミトモコウギョウ,0
1299,6120001262704,新規,0,2024-02-29,2024-02-29,株式会社和韻,,株式会社,大阪府,大阪市浪速区,下寺３丁目１－１４エクレールタ陽ケ丘５号２１３室,,27,111,5560001,,,,,,,2024-02-29,1,,,,,ワイン,0
1300,6120001262745,新規,0,2024-02-29,2024-02-29,美鹿株式会社,,株式会社,大阪府,大阪市西成区,天下茶屋３丁目２４番２２－３０８号,,27,122,5570014,,,,,,,2024-02-29,1,,,,,メイルウ,0
1301,6120001262753,新規,0,2024-02-29,2024-02-29,株式会社飛翔,,株式会社,大阪府,大阪市西成区,萩之茶屋３丁目４番１８号,,27,122,5570004,,,,,,,2024-02-29,1,,,,,ヒショウ,0
1302,6120003026025,新規,0,2024-02-29,2024-02-29,Ｓｕｎｌｉｇｈｔ　Ｓｅｌｅｃｔ合同会社,,合同会社,大阪府,大阪市港区,南市岡１丁目１１番８－１０３号,,27,107,5520011,,,,,,,2024-02-29,1,,,,,サンライトセレクト,0
1303,6120003026058,新規,0,2024-02-29,2024-02-29,合同会社ＡＬＥＳＹＳ,,合同会社,大阪府,大阪市北区,梅田１丁目１‐３大阪駅前第３ビル２９階１‐１‐１号室,,27,127,5300001,,,,,,,2024-02-29,1,,,,,アレシス,0
1305,6120101069140,新規,0,2024-02-29,2024-02-29,株式会社ファイナンシャルアシスタンス,,株式会社,大阪府,堺市堺区,大町西３丁１番２６号ビルレ宿院３０４号,,27,141,5900959,,,,,,,2024-02-29,1,,,,,ファイナンシャルアシスタンス,0
1317,6140001133498,新規,0,2024-02-29,2024-02-29,株式会社アイスは別腹,,株式会社,兵庫県,姫路市,北条口２丁目６９番地ＭＷビル２Ｆ,,28,201,6700935,,,,,,,2024-02-29,1,,,,,アイスハベツバラ,0
1327,6180001160332,新規,0,2024-02-29,2024-02-29,株式会社ユニバーサルサポート,,株式会社,愛知県,名古屋市天白区,野並４丁目１８１番地の２,,23,116,4680045,,,,,,,2024-02-29,1,,,,,ユニバーサルサポート,0
1330,6180003026424,新規,0,2024-02-29,2024-02-29,ミロズ合同会社,,合同会社,愛知県,名古屋市西区,新道１丁目３番３１号サニーハイツ２０７号,,23,104,4510043,,,,,,,2024-02-29,1,,,,,ミロズ,0
1331,6180005020532,新規,0,2024-02-29,2024-02-29,一般社団法人臨床研究支援機構オレンジ,,その他の設立登記法人,愛知県,名古屋市中村区,名駅４丁目２４番５号,,23,105,4500002,,,,,,,2024-02-29,1,,,,,リンショウシエンキコウオレンジ,0
1341,6200005013574,新規,0,2024-02-29,2024-02-29,一般社団法人ココロノアカリ,,その他の設立登記法人,岐阜県,岐阜市,大菅南１６番１６号,,21,201,5010119,,,,,,,2024-02-29,1,,,,,ココロノアカリ,0
1342,6210001019649,新規,0,2024-02-29,2024-02-29,株式会社コネクトプレアー,,株式会社,福井県,福井市,下荒井町第１９号３２番地,,18,201,9188017,,,,,,,2024-02-29,1,,,,,コネクトプレアー,0
1344,6220001025836,新規,0,2024-02-29,2024-02-29,株式会社ＢＢリサーチ,,株式会社,石川県,能美郡川北町,字土室西１３番地２９,,17,324,9231261,,,,,,,2024-02-29,1,,,,,ビービーリサーチ,0
1350,6240005015732,新規,0,2024-02-29,2024-02-29,医療法人伸幸会,,その他の設立登記法人,広島県,福山市,曙町３丁目２１番９号,,34,207,7210952,,,,,,,2024-02-29,1,,,,,シンコウカイ,0
1359,6290003015003,新規,0,2024-02-29,2024-02-29,ＡｓＢ合同会社,,合同会社,福岡県,福岡市南区,高宮１丁目１番１７号フラワーコーポ平尾７０１,,40,134,8150083,,,,,,,2024-02-29,1,,,,,アスビー,0
1378,6380005012798,新規,0,2024-02-29,2024-02-29,一般社団法人原発事故影響研究所,,その他の設立登記法人,福島県,双葉郡浪江町,大字下津島字町３６番地,,07,547,9791756,,,,,,,2024-02-29,1,,,,,ゲンパツジコエイキョウケンキュウジョ,0
1385,6420003002879,新規,0,2024-02-29,2024-02-29,合同会社田園総業,,合同会社,青森県,弘前市,大字田園１丁目３番地１,,02,202,0368086,,,,,,,2024-02-29,1,,,,,デンエンソウギョウ,0
1387,6430001091163,新規,0,2024-02-29,2024-02-29,和楽不動産株式会社,,株式会社,北海道,札幌市豊平区,西岡四条６丁目３番１０号,,01,105,0620034,,,,,,,2024-02-29,1,,,,,ワラクフドウサン,0
1391,6470005006551,新規,0,2024-02-29,2024-02-29,一般社団法人ＬＩＮＧＯ,,その他の設立登記法人,香川県,小豆郡小豆島町,蒲生甲２３７２番地２,,37,324,7614302,,,,,,,2024-02-29,1,,,,,リンゴ,0
1406,7010001242708,新規,0,2024-02-29,2024-02-29,嘉楽株式会社,,株式会社,東京都,中央区,銀座４丁目１３番８号岩藤ビル５階,,13,102,1040061,,,,,,,2024-02-29,1,,,,,カラク,0
1407,7010001242724,新規,0,2024-02-29,2024-02-29,株式会社ＳａｌｕｓＴｅｃｈ,,株式会社,東京都,千代田区,大手町１丁目６－１大手町ビル２Ｆ・ＦＩＮＯＬＡＢ２５０号室,,13,101,1000004,,,,,,,2024-02-29,1,,,,,サルーステック,0
1413,7010401180664,新規,0,2024-02-29,2024-02-29,株式会社７１５,,株式会社,東京都,港区,南青山２丁目２番１５号ウィン青山９４２,,13,103,1070062,,,,,,,2024-02-29,1,,,,,ナナイチゴ,0
1414,7010401180697,新規,0,2024-02-29,2024-02-29,株式会社トヨタカホールディングス,,株式会社,東京都,港区,芝公園１丁目８番１２号,,13,103,1050011,,,,,,,2024-02-29,1,,,,,トヨタカホールディングス,0
1415,7010401180714,新規,0,2024-02-29,2024-02-29,株式会社ＤＥＣＯＩ,,株式会社,東京都,港区,南青山５丁目４－３０,,13,103,1070062,,,,,,,2024-02-29,1,,,,,デコイ,0
1416,7010401180722,新規,0,2024-02-29,2024-02-29,株式会社ＡＰ８０ホールディングス,,株式会社,東京都,港区,虎ノ門４丁目１番２８号虎ノ門タワーズオフィス１７階,,13,103,1050001,,,,,,,2024-02-29,1,,,,,エーピーハチジュウホールディングス,0
1424,7010501051823,新規,0,2024-02-29,2024-02-29,月銀国際貿易株式会社,,株式会社,東京都,台東区,台東２丁目３１番１０号第二掛川ビル１１８号室,,13,106,1100016,,,,,,,2024-02-29,1,,,,,ゲツギンコクサイボウエキ,0
1429,7010901054789,新規,0,2024-02-29,2024-02-29,株式会社ＵＮＤＥＲ　ＢＡＲ,,株式会社,東京都,世田谷区,三軒茶屋１丁目３９番１３号,,13,112,1540024,,,,,,,2024-02-29,1,,,,,アンダーバー,0
1438,7011001160288,新規,0,2024-02-29,2024-02-29,株式会社パスイッチ,,株式会社,東京都,渋谷区,恵比寿南１丁目１番１号ＨｕｍａｘＥｂｉｓｕビル６０８,,13,113,1500022,,,,,,,2024-02-29,1,,,,,パスイッチ,0
1439,7011001160305,新規,0,2024-02-29,2024-02-29,ｕｎｉｉｚｅｃ株式会社,,株式会社,東京都,渋谷区,富ヶ谷１丁目１４番１４号３Ｆ・４Ｆ,,13,113,1510063,,,,,,,2024-02-29,1,,,,,ユニゼク,0
1442,7011003018575,新規,0,2024-02-29,2024-02-29,合同会社ｔａｇｏｔｏ．ｉｎｃ,,合同会社,東京都,渋谷区,恵比寿西２丁目４番８号ウィンド恵比寿ビル８Ｆ,,13,113,1500021,,,,,,,2024-02-29,1,,,,,タゴトインコーポレイティッド,0
1445,7011101106307,新規,0,2024-02-29,2024-02-29,１９８８株式会社,,株式会社,東京都,新宿区,高田馬場１丁目２４番９号,,13,104,1690075,,,,,,,2024-02-29,1,,,,,イチキューハチハチ,0
1446,7011101106348,新規,0,2024-02-29,2024-02-29,株式会社石翠,,株式会社,東京都,新宿区,新宿４丁目３番１５号レイフラット新宿Ｂ棟３Ｆ,,13,104,1600022,,,,,,,2024-02-29,1,,,,,セキスイ,0
1447,7011101106356,新規,0,2024-02-29,2024-02-29,株式会社Ａｌｔ,,株式会社,東京都,新宿区,西新宿１丁目３番３号品川ステーションビル新宿４１０号,,13,104,1600023,,,,,,,2024-02-29,1,,,,,オルト,0
1453,7011501030370,新規,0,2024-02-29,2024-02-29,株式会社Ｐｕｒｅ　Ｒｅｎｏｖａｔｉｏｎ,,株式会社,東京都,荒川区,荒川５丁目３０番２号,,13,118,1160002,,,,,,,2024-02-29,1,,,,,ピュアリノベーション,0
1454,7011501030379,新規,0,2024-02-29,2024-02-29,株式会社ＢＯＷ‐ＬＩＮＧ,,株式会社,東京都,北区,豊島３丁目２６番２１号,,13,117,1140003,,,,,,,2024-02-29,1,,,,,バウリング,0
1456,7011603004256,新規,0,2024-02-29,2024-02-29,希合同会社,,合同会社,東京都,練馬区,豊玉南１丁目２０番５－１０４号,,13,120,1760014,,,,,,,2024-02-29,1,,,,,ノゾミ,0
1467,7012803003329,新規,0,2024-02-29,2024-02-29,合同会社３９,,合同会社,東京都,日野市,多摩平３丁目２６番地の３,,13,212,1910062,,,,,,,2024-02-29,1,,,,,ミク,0
1468,7012805003252,新規,0,2024-02-29,2024-02-29,医療法人社団明瞳,,その他の設立登記法人,東京都,国分寺市,南町２丁目１６番２０号米沢ビル２階,,13,214,1850021,,,,,,,2024-02-29,1,,,,,メイドウ,0
1479,7021001081590,新規,0,2024-02-29,2024-02-29,株式会社ラリュール,,株式会社,神奈川県,厚木市,松枝２丁目４番１９－１号,,14,212,2430005,,,,,,,2024-02-29,1,,,,,ラリュール,0
1483,7030001158860,新規,0,2024-02-29,2024-02-29,アイベックスアドバタイズメント株式会社,,株式会社,埼玉県,蕨市,錦町１丁目１６番１０号オランジェリー２０５号,,11,223,3350005,,,,,,,2024-02-29,1,,,,,アイベックスアドバタイズメント,0
1484,7030001158885,新規,0,2024-02-29,2024-02-29,株式会社ＬＩＢＥＲＴＡＳ　ＧＲＯＵＰ,,株式会社,埼玉県,さいたま市緑区,大字中尾２０８７番地１６,,11,109,3360932,,,,,,,2024-02-29,1,,,,,リベルタスグループ,0
1485,7030001158910,新規,0,2024-02-29,2024-02-29,株式会社ＫＣ,,株式会社,埼玉県,川口市,南鳩ヶ谷１丁目２６番３号,,11,203,3340013,,,,,,,2024-02-29,1,,,,,ケーシー,0
1486,7030001158927,新規,0,2024-02-29,2024-02-29,株式会社オフィス三村,,株式会社,埼玉県,さいたま市中央区,上落合６丁目９番４５号,,11,105,3380001,,,,,,,2024-02-29,1,,,,,オフィスミムラ,0
1493,7040001132427,新規,0,2024-02-29,2024-02-29,株式会社大家,,株式会社,千葉県,市川市,新井１丁目７番９－１０１号,,12,203,2720144,,,,,,,2024-02-29,1,,,,,オオヤ,0
1494,7040001132443,新規,0,2024-02-29,2024-02-29,株式会社ビジネット,,株式会社,千葉県,松戸市,常盤平３丁目２７番地の２常盤平セントラルハイツ２棟６０１号,,12,207,2702261,,,,,,,2024-02-29,1,,,,,ビジネット,0
1497,7040003024432,新規,0,2024-02-29,2024-02-29,合同会社デラシネトレード,,合同会社,千葉県,市川市,行徳駅前２丁目３番１－９０７号,,12,203,2720133,,,,,,,2024-02-29,1,,,,,デラシネトレード,0
1501,7060001036865,新規,0,2024-02-29,2024-02-29,株式会社Ｗｉｎｇ,,株式会社,栃木県,矢板市,扇町１丁目１４番８－１０５号,,09,211,3292161,,,,,,,2024-02-29,1,,,,,ウィング,0
1502,7070001041443,新規,0,2024-02-29,2024-02-29,株式会社エービーシー,,株式会社,群馬県,太田市,只上町２５１９番地１,,10,205,3730011,,,,,,,2024-02-29,1,,,,,エービーシー,0
1509,7090001018563,新規,0,2024-02-29,2024-02-29,株式会社スパセッツ,,株式会社,山梨県,中巨摩郡昭和町,清水新居１５９７ダイタ昭和マンション５０２,,19,384,4093867,,,,,,,2024-02-29,1,,,,,スパセッツ,0
1510,7090003002508,新規,0,2024-02-29,2024-02-29,ａｕｓｃｏ合同会社,,合同会社,山梨県,北杜市,高根町長澤１６２８,,19,209,4080001,,,,,,,2024-02-29,1,,,,,オスコ,0
1511,7100003007422,新規,0,2024-02-29,2024-02-29,合同会社田川農産,,合同会社,長野県,中野市,大字新野９７６番地,,20,211,3830034,,,,,,,2024-02-29,1,,,,,タガワノウサン,0
1521,7120001262736,新規,0,2024-02-29,2024-02-29,尋衣株式会社,,株式会社,大阪府,大阪市城東区,野江３丁目２６番１１－２０２号,,27,118,5360006,,,,,,,2024-02-29,1,,,,,ジンイ,0
1525,7120003026040,新規,0,2024-02-29,2024-02-29,英誠合同会社,,合同会社,大阪府,大阪市都島区,中野町４丁目１１－９－３０２号,,27,102,5340027,,,,,,,2024-02-29,1,,,,,エイセイ,0
1526,7120101069123,新規,0,2024-02-29,2024-02-29,株式会社ＭＵＧＥＮ,,株式会社,大阪府,泉佐野市,中庄１４７９番地の１,,27,213,5980002,,,,,,,2024-02-29,1,,,,,ムゲン,0
1528,7120901048813,新規,0,2024-02-29,2024-02-29,カレット株式会社,,株式会社,大阪府,摂津市,香露園７番１７号,,27,224,5660034,,,,,,,2024-02-29,1,,,,,カレット,0
1529,7120901048821,新規,0,2024-02-29,2024-02-29,東梓株式会社,,株式会社,大阪府,吹田市,藤白台５丁目７番４号,,27,205,5650873,,,,,,,2024-02-29,1,,,,,トウシ,0
1534,7130001076425,新規,0,2024-02-29,2024-02-29,株式会社Ｓａｒａｓｖａｔｉ０５２８０,,株式会社,京都府,京都市上京区,一条通小川東入西之口町２１９番地７、１Ｆ,,26,102,6020925,,,,,,,2024-02-29,1,,,,,サラスヴァティーゼロゴーニーハチゼロ,0
1535,7130001076458,新規,0,2024-02-29,2024-02-29,Ｈｏｕｓｅ　ｏｆ　Ｕｎｉｖｅｒｓｅ　Ｊｏｙ株式会社,,株式会社,京都府,京都市伏見区,深草願成町４３番地５,,26,109,6120809,,,,,,,2024-02-29,1,,,,,ハウスオブユニバースジョイ,0
1543,7140001133472,新規,0,2024-02-29,2024-02-29,株式会社ＫＲ　ＴＯＷＮ,,株式会社,兵庫県,神戸市中央区,生田町３丁目３－８－７０３,,28,110,6510092,,,,,,,2024-02-29,1,,,,,ケイアールタウン,0
1544,7140001133489,新規,0,2024-02-29,2024-02-29,株式会社孫市,,株式会社,兵庫県,川西市,中央町１９－２,,28,217,6660016,,,,,,,2024-02-29,1,,,,,マゴイチ,0
1545,7140001133497,新規,0,2024-02-29,2024-02-29,株式会社Ｈｉｂｉｓｓ,,株式会社,兵庫県,姫路市,飾磨区御幸４５番地１,,28,201,6728056,,,,,,,2024-02-29,1,,,,,ハイビス,0
1546,7140001133506,新規,0,2024-02-29,2024-02-29,株式会社ｈａｔｓｕｋｏｉ,,株式会社,兵庫県,姫路市,相野９２７番地１２８,,28,201,6712232,,,,,,,2024-02-29,1,,,,,ハツコイ,0
1547,7140001133514,新規,0,2024-02-29,2024-02-29,ＣＳＣ株式会社,,株式会社,兵庫県,尼崎市,塚口町３丁目２６番２－３０２号,,28,202,6610002,,,,,,,2024-02-29,1,,,,,シーエスシー,0
1552,7140003020207,新規,0,2024-02-29,2024-02-29,合同会社クローバーズ,,合同会社,兵庫県,西宮市,若山町１－８－１０３,,28,204,6638016,,,,,,,2024-02-29,1,,,,,クローバーズ,0
1557,7160005011276,新規,0,2024-02-29,2024-02-29,一般社団法人縁樹,,その他の設立登記法人,滋賀県,近江八幡市,安土町上豊浦１２６１番地,,25,204,5211341,,,,,,,2024-02-29,1,,,,,エンジュ,0
1564,7180001160298,新規,0,2024-02-29,2024-02-29,株式会社ＬＥＬＩＥＮ,,株式会社,愛知県,名古屋市中村区,松重町４番５５号（レーベン名古屋松重町ＧＲＡＮＤＡＵＢＥ１３１０号）,,23,105,4500004,,,,,,,2024-02-29,1,,,,,ルリアン,0
1575,7200001042205,新規,0,2024-02-29,2024-02-29,株式会社スズダイ,,株式会社,岐阜県,岐阜市,下土居３丁目１番１２号,,21,201,5020858,,,,,,,2024-02-29,1,,,,,スズダイ,0
1581,7240005015731,新規,0,2024-02-29,2024-02-29,三翠協同組合,,その他の設立登記法人,広島県,府中市,中須町１４９９番地,,34,208,7260012,,,,,,,2024-02-29,1,,,,,サンスイ,0
1586,7270001008926,新規,0,2024-02-29,2024-02-29,がいなＳＹＡパートナーズ株式会社,,株式会社,鳥取県,米子市,昭和町２５番地,,31,202,6830037,,,,,,,2024-02-29,1,,,,,ガイナエスワイエーパートナーズ,0
1593,7290001104855,新規,0,2024-02-29,2024-02-29,株式会社ＳＥＡＮ　ＴＲＡＤＥ,,株式会社,福岡県,福岡市博多区,博多駅中央街８番１号ＪＲＪＰ博多ビル３Ｆ,,40,132,8120012,,,,,,,2024-02-29,1,,,,,セアントレード,0
1602,7320003004298,新規,0,2024-02-29,2024-02-29,合同会社あさひ,,合同会社,大分県,津久見市,大字千怒５２０５番地,,44,207,8792401,,,,,,,2024-02-29,1,,,,,アサヒ,0
1603,7330001031797,新規,0,2024-02-29,2024-02-29,株式会社エコ・ネット,,株式会社,熊本県,球磨郡多良木町,大字久米２８８７番地２,,43,505,8680503,,,,,,,2024-02-29,1,,,,,エコネット,0
1610,7360001033254,新規,0,2024-02-29,2024-02-29,株式会社Ｚｅｎｓｈｉｎ,,株式会社,沖縄県,島尻郡南風原町,字照屋３０１番地１９グランセラ武３０２,,47,350,9011116,,,,,,,2024-02-29,1,,,,,ゼンシン,0
1611,7360001033262,新規,0,2024-02-29,2024-02-29,株式会社ＨＡＣＣＨＩ,,株式会社,沖縄県,沖縄市,上地２丁目２４３番地２,,47,211,9040031,,,,,,,2024-02-29,1,,,,,ハッチ,0
1616,7370001050983,新規,0,2024-02-29,2024-02-29,株式会社太田設計舎,,株式会社,宮城県,仙台市若林区,卸町２丁目１５番地の２－５Ｆ－ＴＲＵＮＫ＃２６,,04,103,9840015,,,,,,,2024-02-29,1,,,,,オオタセッケイシャ,0
1618,7380001034325,新規,0,2024-02-29,2024-02-29,渡部自工株式会社,,株式会社,福島県,双葉郡富岡町,大字本岡字本町１７９番地,,07,543,9791151,,,,,,,2024-02-29,1,,,,,ワタナベジコウ,0
1620,7390001017535,新規,0,2024-02-29,2024-02-29,Ｓｐｉｂｅｒ　ＩＰ　Ｍａｎａｇｅｍｅｎｔ　Ｈｏｌｄｉｎｇｓ　Ｂ株式会社,,株式会社,山形県,鶴岡市,覚岸寺字水上２３４番地１,,06,203,9970052,,,,,,,2024-02-29,1,,,,,スパイバーアイピーマネジメントホールディングスビー,0
1629,7430001091179,新規,0,2024-02-29,2024-02-29,株式会社Ｅｘｉｔｏ,,株式会社,北海道,札幌市豊平区,平岸一条２丁目１０番３号,,01,105,0620931,,,,,,,2024-02-29,1,,,,,エクシト,0
1630,7430001091187,新規,0,2024-02-29,2024-02-29,株式会社オーセントライク,,株式会社,北海道,札幌市白石区,平和通１５丁目北２２－２３,,01,104,0030029,,,,,,,2024-02-29,1,,,,,オーセントライク,0
1633,7430003015986,新規,0,2024-02-29,2024-02-29,合同会社本間コーポレーション,,合同会社,北海道,札幌市中央区,北三条西１３丁目３番２－１２０３号,,01,101,0600003,,,,,,,2024-02-29,1,,,,,ホンマコーポレーション,0
1636,7460003000985,新規,0,2024-02-29,2024-02-29,合同会社フィールズ,,合同会社,北海道,釧路市,末広町５丁目１３番地オリエンタルプラザ４Ｆ,,01,206,0850014,,,,,,,2024-02-29,1,,,,,フィールズ,0
1637,7460101007503,新規,0,2024-02-29,2024-02-29,株式会社ＡＣＳ,,株式会社,北海道,河西郡芽室町,東七条３丁目３番地９,,01,637,0820017,,,,,,,2024-02-29,1,,,,,エーシーエス,0
1649,8010001242467,新規,0,2024-02-29,2024-02-29,株式会社Ｒｅｖｏ　Ｍｅｄｉｃａｌ,,株式会社,東京都,千代田区,永田町２丁目４－１１フレンドビル３階,,13,101,1000014,,,,,,,2024-02-29,1,,,,,レボメディカル,0
1650,8010001242649,新規,0,2024-02-29,2024-02-29,子どもコーポレーション株式会社,,株式会社,東京都,文京区,小石川２丁目５番１－３０９号,,13,105,1120002,,,,,,,2024-02-29,1,,,,,コドモコーポレーション,0
1651,8010001242681,新規,0,2024-02-29,2024-02-29,株式会社ｒｅｃＲＯＯＴ　Ｅｎｄｏ,,株式会社,東京都,千代田区,富士見２丁目７番１－３００６号,,13,101,1020071,,,,,,,2024-02-29,1,,,,,リクルートエンド,0
1652,8010001242707,新規,0,2024-02-29,2024-02-29,株式会社ＫＳホールディングス,,株式会社,東京都,千代田区,丸の内１丁目６番１号,,13,101,1000005,,,,,,,2024-02-29,1,,,,,ケーエスホールディングス,0
1655,8010003042808,新規,0,2024-02-29,2024-02-29,合同会社旬果,,合同会社,東京都,中央区,銀座１丁目１２－４Ｎ＆ＥＢＬＤ．７階,,13,102,1040061,,,,,,,2024-02-29,1,,,,,シュンカ,0
1656,8010003043079,新規,0,2024-02-29,2024-02-29,Ｓｐｉｒｉｔ　Ｓｏｕｌ合同会社,,合同会社,東京都,中央区,日本橋３丁目２番１４号新槇町ビル別館第一２階,,13,102,1030027,,,,,,,2024-02-29,1,,,,,スピリットソウル,0
1657,8010003043087,新規,0,2024-02-29,2024-02-29,合同会社ＡＩＦＩ,,合同会社,東京都,中央区,銀座１丁目１２－４Ｎ＆ＥＢＬＤ．７階,,13,102,1040061,,,,,,,2024-02-29,1,,,,,アイファイ,0
1659,8010103002315,新規,0,2024-02-29,2024-02-29,合同会社団十郎,,合同会社,東京都,八王子市,館町１６２８番地２,,13,201,1930944,,,,,,,2024-02-29,1,,,,,ダンジュウロウ,0
1667,8010401180696,新規,0,2024-02-29,2024-02-29,ＳＢＩオルタナティブ・アセットマネジメント株式会社,,株式会社,東京都,港区,六本木１丁目６番１号,,13,103,1060032,,,,,,,2024-02-29,1,,,,,エスビーアイオルタナティブアセットマネジメント,0
1668,8010401180721,新規,0,2024-02-29,2024-02-29,株式会社ＡＰ８０,,株式会社,東京都,港区,虎ノ門４丁目１番２８号虎ノ門タワーズオフィス１７階,,13,103,1050001,,,,,,,2024-02-29,1,,,,,エーピーハチジュウ,0
1670,8010501051756,新規,0,2024-02-29,2024-02-29,京盛源株式会社,,株式会社,東京都,台東区,台東２丁目３１－１０ＩＮＣｏｆｆｉｃｅ御徒町１０８号室,,13,106,1100016,,,,,,,2024-02-29,1,,,,,キョウセイゲン,0
1675,8010801034782,新規,0,2024-02-29,2024-02-29,雷小兔株式会社,,株式会社,東京都,大田区,東海３丁目７－３東海ビル３１６室,,13,111,1430001,,,,,,,2024-02-29,1,,,,,ライショウト,0
1676,8010801034816,新規,0,2024-02-29,2024-02-29,ガンガンジャパン株式会社,,株式会社,東京都,大田区,南雪谷１丁目１７番３号ハイテラス石川台Ｂ１０６,,13,111,1450066,,,,,,,2024-02-29,1,,,,,ガンガンジャパン,0
1685,8011001160262,新規,0,2024-02-29,2024-02-29,株式会社ｓｏｌｙｕｅ,,株式会社,東京都,渋谷区,千駄ヶ谷１丁目４番５号ｗａｓｏ１Ｆ,,13,113,1510051,,,,,,,2024-02-29,1,,,,,ソリュエ,0
1686,8011001160287,新規,0,2024-02-29,2024-02-29,ＮＯ　ＮＡＭＥ　ＰＲＯＪＥＣＴ株式会社,,株式会社,東京都,渋谷区,渋谷２丁目１２番１５号,,13,113,1500002,,,,,,,2024-02-29,1,,,,,ノーネームプロジェクト,0
1687,8011001160312,新規,0,2024-02-29,2024-02-29,Ｉｐｓａｎａ株式会社,,株式会社,東京都,渋谷区,神宮前６丁目２３番４号桑野ビル２階,,13,113,1500001,,,,,,,2024-02-29,1,,,,,イプサナ,0
1689,8011005010364,新規,0,2024-02-29,2024-02-29,一般社団法人日本テニス普及協会,,その他の設立登記法人,東京都,渋谷区,恵比寿４丁目２０番３号恵比寿ガーデンプレイスタワー１８階株式会社シャイニング内,,13,113,1500013,,,,,,,2024-02-29,1,,,,,ニホンテニスフキュウキョウカイ,0
1695,8011101106314,新規,0,2024-02-29,2024-02-29,東京森戸商会株式会社,,株式会社,東京都,新宿区,四谷三栄町１２番４４号東洋四谷ビル３階Ｃ号室,,13,104,1600008,,,,,,,2024-02-29,1,,,,,トウキョウモリトショウカイ,0
1698,8011103014151,新規,0,2024-02-29,2024-02-29,ＪＯＡＴ合同会社,,合同会社,東京都,新宿区,西新宿３丁目５番１２号トーカン新宿第２キャステール,,13,104,1600023,,,,,,,2024-02-29,1,,,,,ジョート,0
1702,8011501030378,新規,0,2024-02-29,2024-02-29,株式会社東安商事,,株式会社,東京都,荒川区,西尾久４丁目６番７号レジデンシャルステート田端５０３号室,,13,118,1160011,,,,,,,2024-02-29,1,,,,,トウアンショウジ,0
1703,8011503005972,新規,0,2024-02-29,2024-02-29,合同会社ネクスト,,合同会社,東京都,荒川区,荒川６丁目７番４－２０１号,,13,118,1160002,,,,,,,2024-02-29,1,,,,,ネクスト,0
1704,8011701027075,新規,0,2024-02-29,2024-02-29,株式会社ｃｅ,,株式会社,東京都,江戸川区,篠崎町１丁目１４番５号ＴＡＫＡＲＡＰＡＬＡＣＥ２０１号室,,13,123,1330061,,,,,,,2024-02-29,1,,,,,シーイー,0
1706,8012701018106,新規,0,2024-02-29,2024-02-29,株式会社斗南ネイチャーフィールド,,株式会社,東京都,東久留米市,柳窪４丁目１４番３１号,,13,222,2030044,,,,,,,2024-02-29,1,,,,,トナミネイチャーフィールド,0
1712,8013301052123,新規,0,2024-02-29,2024-02-29,ユキフクロウ株式会社,,株式会社,東京都,豊島区,池袋３丁目１９－３パインセンターハイツ池袋１０２,,13,116,1710014,,,,,,,2024-02-29,1,,,,,ユキフクロウ,0
1715,8020001156006,新規,0,2024-02-29,2024-02-29,株式会社Ｌｉｔ,,株式会社,神奈川県,川崎市中原区,下小田中６丁目１４番１１号アクレールＡ－１０２,,14,133,2110041,,,,,,,2024-02-29,1,,,,,リット,0
1721,8021001081549,新規,0,2024-02-29,2024-02-29,株式会社ＫＡＮＲＥＩ　ＷＯＲＫＳ,,株式会社,神奈川県,足柄下郡箱根町,元箱根６４番地,,14,382,2500522,,,,,,,2024-02-29,1,,,,,,0
1722,8021001081565,新規,0,2024-02-29,2024-02-29,株式会社ＨＡＳＥ　ＩＮＴＥＲＮＡＴＩＯＮＡＬ,,株式会社,神奈川県,藤沢市,亀井野２丁目１７番地の１,,14,205,2520813,,,,,,,2024-02-29,1,,,,,ハセインターナショナル,0
1723,8021001081573,新規,0,2024-02-29,2024-02-29,株式会社ｅｓｐｅｒａｎｃｅ,,株式会社,神奈川県,相模原市中央区,相模原５丁目１１番９号日神パレステージ相模原２０５,,14,152,2520231,,,,,,,2024-02-29,1,,,,,エスペランス,0
1727,8021003014192,新規,0,2024-02-29,2024-02-29,ＨＦＪＩＤＯＳＨＡ合同会社,,合同会社,神奈川県,愛甲郡愛川町,中津８５８番地の１ヤシマハイツ１０３,,14,401,2430303,,,,,,,2024-02-29,1,,,,,エイチエフジドウシャ,0
1728,8021003014201,新規,0,2024-02-29,2024-02-29,Ｓ．Ｈ．Ｍ．商会合同会社,,合同会社,神奈川県,愛甲郡清川村,煤ヶ谷１９６１番地,,14,402,2430112,,,,,,,2024-02-29,1,,,,,エスエイチエムショウカイ,0
1734,8030001158570,新規,0,2024-02-29,2024-02-29,ＮＯＫＡ株式会社,,株式会社,埼玉県,越谷市,南越谷１丁目１５－１ラクーン４Ｆ,,11,222,3430845,,,,,,,2024-02-29,1,,,,,ノーカ,0
1735,8030001158892,新規,0,2024-02-29,2024-02-29,株式会社インクリースジム,,株式会社,埼玉県,上尾市,大字平塚１６５９番地７,,11,219,3620011,,,,,,,2024-02-29,1,,,,,インクリースジム,0
1736,8030001158926,新規,0,2024-02-29,2024-02-29,株式会社アルファインターナショナル,,株式会社,埼玉県,吉川市,大字高久６８７番,,11,243,3420035,,,,,,,2024-02-29,1,,,,,アルファインターナショナル,0
1737,8030003023673,新規,0,2024-02-29,2024-02-29,合同会社イースト,,合同会社,埼玉県,川口市,芝下３丁目１６－２６,,11,203,3330848,,,,,,,2024-02-29,1,,,,,イースト,0
1739,8030003023723,新規,0,2024-02-29,2024-02-29,合同会社真心,,合同会社,埼玉県,さいたま市大宮区,仲町１丁目５０番地福田産業ビル２階２０２号,,11,103,3300845,,,,,,,2024-02-29,1,,,,,マゴコロ,0
1750,8040001132392,新規,0,2024-02-29,2024-02-29,株式会社Ｍａｓａｆｕｊｉ,,株式会社,千葉県,木更津市,請西東７丁目２１番地６,,12,206,2920806,,,,,,,2024-02-29,1,,,,,マサフジ,0
1751,8040001132426,新規,0,2024-02-29,2024-02-29,株式会社ＳＵＮＴＯＢＥ,,株式会社,千葉県,野田市,清水２１４番地,,12,208,2780043,,,,,,,2024-02-29,1,,,,,サントビー,0
1752,8040001132434,新規,0,2024-02-29,2024-02-29,株式会社ＬＡＮＢＵＤＤＹ,,株式会社,千葉県,市原市,五井６４６１番地１リバーサイドバームハイツ五井Ｃ－５０２,,12,219,2900056,,,,,,,2024-02-29,1,,,,,ランバディ,0
1754,8040003024423,新規,0,2024-02-29,2024-02-29,ＧＵＲＵＮＧ　ＴＲＡＤＩＮＧ合同会社,,合同会社,千葉県,成田市,本三里塚１７２番地６寿美テナントＢ,,12,211,2860118,,,,,,,2024-02-29,1,,,,,グルントレーディング,0
1756,8050001054363,新規,0,2024-02-29,2024-02-29,ＯＦＦ　ＧＲＩＤ　ＷＯＲＬＤ株式会社,,株式会社,茨城県,日立市,多賀町１丁目１４番４号和田ビル１階Ｂ号室,,08,202,3160003,,,,,,,2024-02-29,1,,,,,オフグリッドワールド,0
1758,8050003008169,新規,0,2024-02-29,2024-02-29,グローブストア合同会社,,合同会社,茨城県,水戸市,元吉田町１８５７番地の１３ＳＲＬコンフォート元吉田Ｂ棟１０１号,,08,201,3100836,,,,,,,2024-02-29,1,,,,,グローブストア,0
1764,8070001041442,新規,0,2024-02-29,2024-02-29,株式会社富岡マネジメント,,株式会社,群馬県,太田市,下浜田町７５０番地,,10,205,3730821,,,,,,,2024-02-29,1,,,,,トミオカマネジメント,0
1784,8120001262660,新規,0,2024-02-29,2024-02-29,株式会社上田慎一郎,,株式会社,大阪府,大阪市北区,中之島６丁目１番４５－７０４,,27,127,5300005,,,,,,,2024-02-29,1,,,,,ウエダシンイチロウ,0
1785,8120001262677,新規,0,2024-02-29,2024-02-29,株式会社ｉｇｌｏｏ,,株式会社,大阪府,大阪市平野区,瓜破１丁目９－３５,,27,126,5470024,,,,,,,2024-02-29,1,,,,,イグルー,0
1786,8120001262702,新規,0,2024-02-29,2024-02-29,株式会社Ｃｏｍｏｄｏ,,株式会社,大阪府,大阪市西成区,橘３丁目１３番７号,,27,122,5570051,,,,,,,2024-02-29,1,,,,,コモド,0
1787,8120001262743,新規,0,2024-02-29,2024-02-29,暢魚株式会社,,株式会社,大阪府,大阪市東住吉区,矢田１丁目２０－１７ハイツワールド２Ｄ号室,,27,121,5460023,,,,,,,2024-02-29,1,,,,,チョウギョ,0
1791,8120101069139,新規,0,2024-02-29,2024-02-29,株式会社カンバラｅｃｏ,,株式会社,大阪府,高石市,東羽衣５丁目２２番４号,,27,225,5920003,,,,,,,2024-02-29,1,,,,,カンバラエコ,0
1796,8120901048820,新規,0,2024-02-29,2024-02-29,株式会社ＮＩＫＡ,,株式会社,大阪府,豊中市,螢池西町１丁目２６番５号シャンブルヴィラ２０１号室,,27,203,5600036,,,,,,,2024-02-29,1,,,,,ニカ,0
1797,8120901048829,新規,0,2024-02-29,2024-02-29,株式会社Ｌｏｕｄ＆Ｃｌｅａｒ,,株式会社,大阪府,吹田市,春日３丁目１７番９０号,,27,205,5650853,,,,,,,2024-02-29,1,,,,,ラウドアンドクリア,0
1803,8140001133471,新規,0,2024-02-29,2024-02-29,株式会社Ｗｉｔｈ　Ｙｏｕ,,株式会社,兵庫県,神戸市北区,京地４丁目３番７号,,28,109,6511304,,,,,,,2024-02-29,1,,,,,ウィズユー,0
1804,8140001133488,新規,0,2024-02-29,2024-02-29,ＡＬＡＳ株式会社,,株式会社,兵庫県,西宮市,下葭原町２番２７－５２３号,,28,204,6620956,,,,,,,2024-02-29,1,,,,,エーエルエーエス,0
1805,8140001133505,新規,0,2024-02-29,2024-02-29,株式会社Ｙ＆Ｍ,,株式会社,兵庫県,川西市,絹延町２番２４号,,28,217,6660012,,,,,,,2024-02-29,1,,,,,ワイアンドエム,0
1806,8140001133513,新規,0,2024-02-29,2024-02-29,フェニックスコンサルティング株式会社,,株式会社,兵庫県,宝塚市,仁川台２０７,,28,214,6650074,,,,,,,2024-02-29,1,,,,,フェニックスコンサルティング,0
1809,8180001160297,新規,0,2024-02-29,2024-02-29,株式会社インテリア雅,,株式会社,愛知県,名古屋市守山区,小幡１丁目１９番６号,,23,113,4630011,,,,,,,2024-02-29,1,,,,,インテリアミヤビ,0
1813,8180003026406,新規,0,2024-02-29,2024-02-29,合同会社ａｗｅｘｃｉ,,合同会社,愛知県,大府市,森岡町５丁目３０番地の１,,23,223,4740038,,,,,,,2024-02-29,1,,,,,アウェクシー,0
1814,8180003026422,新規,0,2024-02-29,2024-02-29,合同会社ｏｎｅ　ｗｅｅｋ,,合同会社,愛知県,清須市,阿原星の宮１０８番地,,23,233,4520901,,,,,,,2024-02-29,1,,,,,ワンウィーク,0
1818,8180301038367,新規,0,2024-02-29,2024-02-29,株式会社隼工業,,株式会社,愛知県,豊田市,上郷町会下山８３番地４,,23,211,4701218,,,,,,,2024-02-29,1,,,,,ハヤブサコウギョウ,0
1821,8190001031142,新規,0,2024-02-29,2024-02-29,株式会社江島ハイム,,株式会社,三重県,鈴鹿市,南江島町１７番２０号,,24,207,5100235,,,,,,,2024-02-29,1,,,,,エジマハイム,0
1823,8200001042204,新規,0,2024-02-29,2024-02-29,株式会社セゾンマルナカ,,株式会社,岐阜県,羽島市,舟橋町宮北２丁目７４番地３,,21,209,5016301,,,,,,,2024-02-29,1,,,,,セゾンマルナカ,0
1824,8200003006248,新規,0,2024-02-29,2024-02-29,合同会社フロンティア,,合同会社,岐阜県,瑞穂市,牛牧５３６番地１ＳＯＵＴＨ　ＭＥＬＬＯＷ４０２号,,21,216,5010234,,,,,,,2024-02-29,1,,,,,フロンティア,0
1828,8220005008810,新規,0,2024-02-29,2024-02-29,一般社団法人北陸日台民間相互交流会,,その他の設立登記法人,石川県,金沢市,尾張町２丁目６番５３号武蔵マンション３０１号,,17,201,9200902,,,,,,,2024-02-29,1,,,,,ホクリクニッタイミンカンソウゴコウリュウカイ,0
1832,8240003006558,新規,0,2024-02-29,2024-02-29,Ａｔｕ合同会社,,合同会社,広島県,広島市東区,戸坂山根２丁目１番３２－２０６号,,34,102,7320002,,,,,,,2024-02-29,1,,,,,アツ,0
1833,8240005015730,新規,0,2024-02-29,2024-02-29,一般社団法人ワークサポート倶楽部広島,,その他の設立登記法人,広島県,広島市安佐北区,口田南９丁目５－１,,34,106,7391733,,,,,,,2024-02-29,1,,,,,ワークサポートクラブヒロシマ,0
1843,8290001104862,新規,0,2024-02-29,2024-02-29,ＡＢＩ‐ＨＡＵＳ株式会社,,株式会社,福岡県,福岡市南区,大楠１丁目８番１９号,,40,134,8150082,,,,,,,2024-02-29,1,,,,,アビハウス,0
1844,8290001104879,新規,0,2024-02-29,2024-02-29,株式会社ＣＴＡ,,株式会社,福岡県,福岡市早良区,西新１丁目１１－２７－４０５号,,40,137,8140002,,,,,,,2024-02-29,1,,,,,シーティーエー,0
1851,8340005009706,新規,0,2024-02-29,2024-02-29,一般社団法人あるひ,,その他の設立登記法人,鹿児島県,いちき串木野市,冠嶽１２８４４－２,,46,219,8960051,,,,,,,2024-02-29,1,,,,,アルヒ,0
1858,8360001033237,新規,0,2024-02-29,2024-02-29,株式会社オル・シャトー,,株式会社,沖縄県,糸満市,字潮平７３７番地の５,,47,210,9010302,,,,,,,2024-02-29,1,,,,,オルシャトー,0
1859,8360001033253,新規,0,2024-02-29,2024-02-29,ナイスセイク株式会社,,株式会社,沖縄県,沖縄市,字登川２６７１番地の１,,47,211,9042142,,,,,,,2024-02-29,1,,,,,ナイスセイク,0
1860,8360001033261,新規,0,2024-02-29,2024-02-29,株式会社りねもね,,株式会社,沖縄県,那覇市,久米１丁目４番２２号グロセスシュロス２０３,,47,201,9000033,,,,,,,2024-02-29,1,,,,,リネモネ,0
1862,8360003013749,新規,0,2024-02-29,2024-02-29,合同会社ブルードルフィンズ沖縄,,合同会社,沖縄県,那覇市,真嘉比３丁目１４番１７号レオパレスルーペ１０７５－３０６,,47,201,9020068,,,,,,,2024-02-29,1,,,,,ブルードルフィンズオキナワ,0
1868,8420001018611,新規,0,2024-02-29,2024-02-29,リアン株式会社,,株式会社,青森県,上北郡六戸町,大字犬落瀬字通目木１０６番地１３３,,02,405,0330071,,,,,,,2024-02-29,1,,,,,リアン,0
1870,8430001091186,新規,0,2024-02-29,2024-02-29,株式会社Ｓａｔｏｒｉｅ,,株式会社,北海道,札幌市中央区,南五条西１５丁目２－３－５０３,,01,101,0640805,,,,,,,2024-02-29,1,,,,,サトリエ,0
1874,8460003000984,新規,0,2024-02-29,2024-02-29,合同会社カーフ・ナーサリー,,合同会社,北海道,厚岸郡厚岸町,太田４の通り４３番地の２,,01,662,0881144,,,,,,,2024-02-29,1,,,,,カーフナーサリー,0
1875,8460101007502,新規,0,2024-02-29,2024-02-29,ＮＫ工業株式会社,,株式会社,北海道,帯広市,西十六条南３８丁目５番４号,,01,207,0800026,,,,,,,2024-02-29,1,,,,,エヌケイコウギョウ,0
1884,8500001025483,新規,0,2024-02-29,2024-02-29,株式会社華盛,,株式会社,愛媛県,松山市,高砂町１丁目１番地７第８グリーンハイツ２０２,,38,201,7900822,,,,,,,2024-02-29,1,,,,,ハナモリ,0
1891,9010001242631,新規,0,2024-02-29,2024-02-29,クリエイターズヴィレッジ株式会社,,株式会社,東京都,千代田区,神田佐久間町１丁目８番４号アルテール秋葉原内,,13,101,1010025,,,,,,,2024-02-29,1,,,,,クリエイターズヴィレッジ,0
1892,9010001242672,新規,0,2024-02-29,2024-02-29,株式会社羽鳥書店,,株式会社,東京都,文京区,千駄木５丁目４９番２号,,13,105,1130022,,,,,,,2024-02-29,1,,,,,ハトリショテン,0
1893,9010003043037,新規,0,2024-02-29,2024-02-29,Ｈｅｒａ合同会社,,合同会社,東京都,千代田区,霞が関３丁目２番５号,,13,101,1000013,,,,,,,2024-02-29,1,,,,,ヘラ,0
1894,9010005037961,新規,0,2024-02-29,2024-02-29,一般社団法人Ｓａｎｄｉａ,,その他の設立登記法人,東京都,中央区,八丁堀４丁目２番１０号ＡＯＪ税理士法人内,,13,102,1040032,,,,,,,2024-02-29,1,,,,,サンディア,0
1898,9010401180662,新規,0,2024-02-29,2024-02-29,株式会社ＨＡＡＢ総研,,株式会社,東京都,港区,南青山２丁目２２番１９号アドバンテック南青山８Ｆ,,13,103,1070062,,,,,,,2024-02-29,1,,,,,ハーブソウケン,0
1899,9010401180687,新規,0,2024-02-29,2024-02-29,ＮＡＯＫＩ商事株式会社,,株式会社,東京都,港区,芝大門２丁目４番５－１００４号,,13,103,1050012,,,,,,,2024-02-29,1,,,,,ナオキショウジ,0
1900,9010401180704,新規,0,2024-02-29,2024-02-29,株式会社マックスビート,,株式会社,東京都,港区,赤坂３丁目２１番５号,,13,103,1070052,,,,,,,2024-02-29,1,,,,,マックスビート,0
1901,9010401180720,新規,0,2024-02-29,2024-02-29,株式会社ＦＯＯＤＹ,,株式会社,東京都,港区,三田３丁目１番１９号柳下ビル１Ｆ,,13,103,1080073,,,,,,,2024-02-29,1,,,,,フーディ,0
1902,9010403032060,新規,0,2024-02-29,2024-02-29,新里コンサルティング合同会社,,合同会社,東京都,港区,北青山１丁目３番１号アールキューブ青山３階,,13,103,1070061,,,,,,,2024-02-29,1,,,,,シンザトコンサルティング,0
1903,9010501051755,新規,0,2024-02-29,2024-02-29,潤贏株式会社,,株式会社,東京都,台東区,台東２丁目３１－１０－１１５室,,13,106,1100016,,,,,,,2024-02-29,1,,,,,ジュンエイ,0
1904,9010501051854,新規,0,2024-02-29,2024-02-29,＿海金麒株式会社,00133895,株式会社,東京都,台東区,蔵前３丁目２１番１－３０４号,,13,106,1110051,,,,,,,2024-02-29,1,,,,,エンミキンリン,0
1910,9010803004865,新規,0,2024-02-29,2024-02-29,合同会社Ｕｐ‐Ｓｕｐｐｏｒｔ,,合同会社,東京都,大田区,仲六郷２丁目４０番１０号,,13,111,1440055,,,,,,,2024-02-29,1,,,,,アップサポート,0
1911,9010901054787,新規,0,2024-02-29,2024-02-29,株式会社ＺＥＮＺＡＩ,,株式会社,東京都,世田谷区,上野毛１丁目１６番３号,,13,112,1580093,,,,,,,2024-02-29,1,,,,,ゼンザイ,0
1913,9011001160286,新規,0,2024-02-29,2024-02-29,ヒュウマカ株式会社,,株式会社,東京都,目黒区,自由が丘１丁目２２番１６号マンションフローラ１０１,,13,110,1520035,,,,,,,2024-02-29,1,,,,,ヒュウマカ,0
1914,9011001160311,新規,0,2024-02-29,2024-02-29,株式会社Ｏｎｅ＆Ｏｎｌｙ　Ｔｅｃｈｎｏｌｏｇｉｅｓ,,株式会社,東京都,渋谷区,道玄坂１丁目１０番８号渋谷道玄坂東急ビル２Ｆ－Ｃ,,13,113,1500043,,,,,,,2024-02-29,1,,,,,ワンアンドオンリーテクノロジーズ,0
1930,9011501030377,新規,0,2024-02-29,2024-02-29,株式会社Ｆｉｎａｌ　Ｆｉｎａｎｃｅ,,株式会社,東京都,北区,東十条４丁目１３番８号,,13,117,1140001,,,,,,,2024-02-29,1,,,,,ファイナルファイナンス,0
1931,9011601027562,新規,0,2024-02-29,2024-02-29,株式会社Ｒｏｍａｎｉａ,,株式会社,東京都,練馬区,南大泉６丁目２０番３１号,,13,120,1780064,,,,,,,2024-02-29,1,,,,,ロマニア,0
1935,9012403006432,新規,0,2024-02-29,2024-02-29,合同会社Ｔｅｎ．Ｐ,,合同会社,東京都,武蔵野市,吉祥寺本町１丁目３０－２ティエドゥール吉祥寺４０１,,13,203,1800004,,,,,,,2024-02-29,1,,,,,テンピー,0
1939,9012803003327,新規,0,2024-02-29,2024-02-29,Ｍ‐Ｔｅｃｈ合同会社,,合同会社,東京都,東大和市,上北台３丁目４２７番地の１グランシティ玉川上水１０３,,13,220,2070023,,,,,,,2024-02-29,1,,,,,エムテック,0
1941,9013303007025,新規,0,2024-02-29,2024-02-29,合同会社Ｅｎｄｙ,,合同会社,東京都,豊島区,雑司が谷１丁目３４番１１号ドゥエルオオタニ１０２号,,13,116,1710032,,,,,,,2024-02-29,1,,,,,エンディ,0
1954,9020001155989,新規,0,2024-02-29,2024-02-29,株式会社ゲートテック,,株式会社,神奈川県,川崎市中原区,宮内２丁目３０番７号,,14,133,2110051,,,,,,,2024-02-29,1,,,,,ゲートテック,0
1955,9020001156005,新規,0,2024-02-29,2024-02-29,ＫＲＭ’Ｓ株式会社,,株式会社,神奈川県,川崎市宮前区,野川本町１丁目２番１８号,,14,136,2160041,,,,,,,2024-02-29,1,,,,,ケーアールエムズ,0
1961,9021001081556,新規,0,2024-02-29,2024-02-29,株式会社Ｌｉｎｃ　ｉｎｃ．,,株式会社,神奈川県,相模原市南区,若松６丁目５－５７,,14,153,2520334,,,,,,,2024-02-29,1,,,,,リンクインク,0
1962,9021001081564,新規,0,2024-02-29,2024-02-29,株式会社ピーター・パン,,株式会社,神奈川県,藤沢市,鵠沼石上２丁目５番１号,,14,205,2510025,,,,,,,2024-02-29,1,,,,,ピーターパン,0
1963,9021001081580,新規,0,2024-02-29,2024-02-29,株式会社ＹＴＬ,,株式会社,神奈川県,相模原市南区,磯部１９３２番地３,,14,153,2520327,,,,,,,2024-02-29,1,,,,,ワイティエル,0
1972,9030001158883,新規,0,2024-02-29,2024-02-29,株式会社ふじや,,株式会社,埼玉県,さいたま市岩槻区,仲町２丁目４番１０号,,11,110,3390054,,,,,,,2024-02-29,1,,,,,フジヤ,0
1973,9030001158933,新規,0,2024-02-29,2024-02-29,株式会社トリコルジャパン,,株式会社,埼玉県,東松山市,大字下野本１３０５番地,,11,212,3550036,,,,,,,2024-02-29,1,,,,,トリコルジャパン,0
1975,9030003023722,新規,0,2024-02-29,2024-02-29,ソリッドロジック合同会社,,合同会社,埼玉県,蕨市,中央１丁目２５番３号,,11,223,3350004,,,,,,,2024-02-29,1,,,,,ソリッドロジック,0
1982,9040001132425,新規,0,2024-02-29,2024-02-29,株式会社ＫａＴＳ,,株式会社,千葉県,四街道市,鹿放ケ丘１番地１０,,12,228,2840008,,,,,,,2024-02-29,1,,,,,キャッツ,0
1987,9050001054362,新規,0,2024-02-29,2024-02-29,株式会社海真,,株式会社,茨城県,龍ケ崎市,佐沼町４番地１,,08,208,3010812,,,,,,,2024-02-29,1,,,,,カイシン,0
1994,9070001041441,新規,0,2024-02-29,2024-02-29,株式会社梅沢工務店,,株式会社,群馬県,藤岡市,藤岡２９９０番地５,,10,209,3750024,,,,,,,2024-02-29,1,,,,,ウメザワコウムテン,0
1998,9080001026144,新規,0,2024-02-29,2024-02-29,株式会社Ｓａｋｕｒａ　Ｂｅａｕｔｙ　Ｊａｐａｎ,,株式会社,静岡県,静岡市駿河区,丸子６丁目９番７号,,22,102,4210103,,,,,,,2024-02-29,1,,,,,サクラビューティージャパン,0
2016,9100001037246,新規,0,2024-02-29,2024-02-29,株式会社ｇｒｅａｔｆｕｌ　ｐｏｒｔ,,株式会社,長野県,飯田市,北方３５９番地２,,20,205,3950151,,,,,,,2024-02-29,1,,,,,グレートフルポート,0
2033,9120001262602,新規,0,2024-02-29,2024-02-29,株式会社リアライズジャパン,,株式会社,大阪府,大阪市中央区,瓦屋町３丁目１０番６号,,27,128,5420066,,,,,,,2024-02-29,1,,,,,リアライズジャパン,0
2034,9120001262718,新規,0,2024-02-29,2024-02-29,株式会社雅,,株式会社,大阪府,大阪市生野区,中川東２丁目４－３９－２階,,27,116,5440006,,,,,,,2024-02-29,1,,,,,ミヤビ,0
2039,9120003026055,新規,0,2024-02-29,2024-02-29,合同会社万里屋,,合同会社,大阪府,大阪市生野区,巽北１丁目２１番２９号生野ハイツ７階７１３号室,00133898,27,116,5440004,,,,,,,2024-02-29,1,,,,,マンリヤ,0
2040,9120101069138,新規,0,2024-02-29,2024-02-29,株式会社新島,,株式会社,大阪府,堺市中区,楢葉２７番地１サンライズ１０７号,,27,142,5998252,,,,,,,2024-02-29,1,,,,,ニイジマ,0
2045,9130001076448,新規,0,2024-02-29,2024-02-29,Ｈｏｐｅ　Ｒｅｎｏｖａｔｉｏｎ株式会社,,株式会社,京都府,八幡市,男山長沢１２番地３９,,26,210,6148367,,,,,,,2024-02-29,1,,,,,ホープリノベーション,0
2050,9140001133479,新規,0,2024-02-29,2024-02-29,株式会社リー・インパクト,,株式会社,兵庫県,姫路市,北条永良町１９８番地２,,28,201,6700946,,,,,,,2024-02-29,1,,,,,リーインパクト,0
2051,9140001133495,新規,0,2024-02-29,2024-02-29,株式会社アキラ建匠,,株式会社,兵庫県,加古川市,東神吉町西井ノ口３７５番地の２,,28,210,6750055,,,,,,,2024-02-29,1,,,,,アキラケンショウ,0
2058,9150003003191,新規,0,2024-02-29,2024-02-29,合同会社Ｄａｉｓｙ,,合同会社,奈良県,北葛城郡広陵町,馬見北７丁目９－１５,,29,426,6350831,,,,,,,2024-02-29,1,,,,,デイジー,0
2060,9160005011274,新規,0,2024-02-29,2024-02-29,社会福祉法人むげ,,その他の設立登記法人,滋賀県,甲賀市,甲南町寺庄６７２番地５５,,25,209,5203301,,,,,,,2024-02-29,1,,,,,ムゲ,0
2065,9180001160346,新規,0,2024-02-29,2024-02-29,株式会社Ｔｏｐ　Ｒａｎｋ　Ｐｅｒｆｏｒｍａｎｃｅ,,株式会社,愛知県,名古屋市昭和区,広路町字北石坂１０２番地２３,,23,107,4660834,,,,,,,2024-02-29,1,,,,,トップランクパフォーマンス,0
2067,9180003026413,新規,0,2024-02-29,2024-02-29,すばるフィジカルコンディショニングラボ合同会社,,合同会社,愛知県,春日井市,八田町４丁目８番地１３,,23,206,4860849,,,,,,,2024-02-29,1,,,,,スバルフィジカルコンディショニングラボ,0
2071,9200003006247,新規,0,2024-02-29,2024-02-29,合同会社ＹＧ,,合同会社,岐阜県,関市,月見町３５番地,,21,205,5013854,,,,,,,2024-02-29,1,,,,,ワイジー,0
2087,9290001104853,新規,0,2024-02-29,2024-02-29,株式会社チャレンジアス,,株式会社,福岡県,福岡市博多区,博多駅前２丁目１９番１７号,,40,132,8120011,,,,,,,2024-02-29,1,,,,,チャレンジアス,0
2088,9290001104878,新規,0,2024-02-29,2024-02-29,株式会社ＭＷＧ,,株式会社,福岡県,福岡市博多区,比恵町４番２７号,,40,132,8120014,,,,,,,2024-02-29,1,,,,,エムダブリュージー,0
2089,9290003015009,新規,0,2024-02-29,2024-02-29,第一商事合同会社,,合同会社,福岡県,福岡市早良区,飯倉６丁目３５－１８－１階Ａ号,,40,137,8140161,,,,,,,2024-02-29,1,,,,,ダイイチ,0
2090,9290801030357,新規,0,2024-02-29,2024-02-29,株式会社Ｌｅｔｓ,,株式会社,福岡県,北九州市小倉北区,京町３丁目７番１－１３０８号,,40,106,8020002,,,,,,,2024-02-29,1,,,,,レッツ,0
2091,9300003002079,新規,0,2024-02-29,2024-02-29,合同会社ＨＡＣＯラボ,,合同会社,佐賀県,神埼市,千代田町詫田７３２番地３,,41,210,8420061,,,,,,,2024-02-29,1,,,,,ハコラボ,0
2096,9330001031795,新規,0,2024-02-29,2024-02-29,株式会社ＪＹＫ,,株式会社,熊本県,八代市,袋町４番１４号,,43,202,8660855,,,,,,,2024-02-29,1,,,,,ジェイワイケイ,0
2098,9340003004385,新規,0,2024-02-29,2024-02-29,合同会社Ｐｅｇａｓｕｓ　Ｌｉｎｋ,,合同会社,鹿児島県,南さつま市,加世田唐仁原６２３５番地,,46,220,8971121,,,,,,,2024-02-29,1,,,,,ペガサスリンク,0
2103,9360001033260,新規,0,2024-02-29,2024-02-29,ＤＣＪ株式会社,,株式会社,沖縄県,国頭郡恩納村,字恩納６５９６番地２１,,47,311,9040411,,,,,,,2024-02-29,1,,,,,ディーシージェイ,0
2114,9410003003900,新規,0,2024-02-29,2024-02-29,合同会社アーレイズ,,合同会社,秋田県,大館市,字水門前９１番地３,,05,204,0170888,,,,,,,2024-02-29,1,,,,,アーレイズ,0
2119,9430001091177,新規,0,2024-02-29,2024-02-29,株式会社Ｃｏｄｅｍｉｎｇｌｅ,,株式会社,北海道,札幌市中央区,北十五条西１５丁目４番１－３０３号,,01,101,0600015,,,,,,,2024-02-29,1,,,,,コードミングル,0
2120,9430001091185,新規,0,2024-02-29,2024-02-29,株式会社Ｋｒｏｗｎ　Ｃｒｏｗｎ,,株式会社,北海道,札幌市南区,定山渓６０８番地２,,01,106,0612301,,,,,,,2024-02-29,1,,,,,クラウンクラウン,0
2121,9430001091193,新規,0,2024-02-29,2024-02-29,株式会社アンシャンテ,,株式会社,北海道,札幌市中央区,南二条西３丁目１１番地４ティアラドゥビル４Ｆ,,01,101,0600062,,,,,,,2024-02-29,1,,,,,アンシャンテ,0
2125,9460101007501,新規,0,2024-02-29,2024-02-29,株式会社ポロシリ,,株式会社,北海道,帯広市,拓成町西５線２４番地,,01,207,0802337,,,,,,,2024-02-29,1,,,,,ポロシリ,0
2128,9480001012401,新規,0,2024-02-29,2024-02-29,株式会社三芳菊酒造,,株式会社,徳島県,三好市,池田町サラダ１７５４番地,,36,208,7780003,,,,,,,2024-02-29,1,,,,,ミヨシギクシュゾウ,0
