sequenceNumber,corporateNumber,process,correct,updateDate,changeDate,name,nameImageId,kind,prefectureName,cityName,streetNumber,addressImageId,prefectureCode,cityCode,postCode,addressOutside,addressOutsideImageId,closeDate,closeCause,successorCorporateNumber,changeCause,assignmentDate,latest,enName,enPrefectureName,enCityName,enAddressOutside,furigana,hihyoji
9,1010001241921,新規,0,2024-02-09,2024-02-09,三謙株式会社,,株式会社,東京都,千代田区,麹町３丁目１０番地１２ザ・パークハウス麹町レジデンス１２０３号室,,13,101,1020083,,,,,,,2024-02-09,1,,,,,サンケン,0
10,1010001242176,新規,0,2024-02-09,2024-02-09,エライア日本株式会社,,株式会社,東京都,中央区,日本橋３丁目９番１号日本橋三丁目スクエア１１階,,13,102,1030027,,,,,,,2024-02-09,1,,,,,エライアニッポン,0
22,1010401180307,新規,0,2024-02-09,2024-02-09,株式会社カーザ・イン・アフィット,,株式会社,東京都,港区,南青山２丁目２番１５号,,13,103,1070062,,,,,,,2024-02-09,1,,,,,カーザインアフィット,0
25,1010405022934,新規,0,2024-02-09,2024-02-09,一般財団法人アミファ・デザイン・アート振興財団,,その他の設立登記法人,東京都,港区,北青山２丁目１３番５号,,13,103,1070061,,,,,,,2024-02-09,1,,,,,アミファデザインアートシンコウザイダン,0
29,1010701045515,新規,0,2024-02-09,2024-02-09,藍色信号時尚日本株式会社,,株式会社,東京都,品川区,西五反田２丁目１１番１５号,,13,109,1410031,,,,,,,2024-02-09,1,,,,,アオイロシンゴウジショウニホン,0
36,1011001159930,新規,0,2024-02-09,2024-02-09,株式会社ＴＥＮＲＹＵ,,株式会社,東京都,渋谷区,道玄坂１丁目１０番８号渋谷道玄坂東急ビル２Ｆ－Ｃ,,13,113,1500043,,,,,,,2024-02-09,1,,,,,テンリュウ,0
37,1011001159939,新規,0,2024-02-09,2024-02-09,株式会社アーティキュレーション,,株式会社,東京都,渋谷区,恵比寿西２丁目４番８号ウィンド恵比寿ビル８Ｆ,,13,113,1500021,,,,,,,2024-02-09,1,,,,,アーティキュレーション,0
38,1011001159947,新規,0,2024-02-09,2024-02-09,株式会社ＫＵＴＯＭＥ,,株式会社,東京都,渋谷区,東３丁目６－２２グラマシー恵比寿６０５,,13,113,1500011,,,,,,,2024-02-09,1,,,,,クトメ,0
39,1011001159963,新規,0,2024-02-09,2024-02-09,株式会社ＭＡＣＨＩＴＡ,,株式会社,東京都,渋谷区,恵比寿西２丁目８番４号ＥＸ恵比寿西ビル５階,,13,113,1500021,,,,,,,2024-02-09,1,,,,,マチタ,0
40,1011003018440,新規,0,2024-02-09,2024-02-09,ＨＬ　Ｃｒｅａｔｉｖｅ　Ｆａｃｔｏｒｙ合同会社,,合同会社,東京都,渋谷区,東１丁目１番３８号東常盤松マンション２０１,,13,113,1500011,,,,,,,2024-02-09,1,,,,,エイチエルクリエイティブファクトリー,0
41,1011003018473,新規,0,2024-02-09,2024-02-09,合同会社ヨアケ,,合同会社,東京都,渋谷区,道玄坂１丁目１０番８号渋谷道玄坂東急ビル２Ｆ－Ｃ,,13,113,1500043,,,,,,,2024-02-09,1,,,,,ヨアケ,0
43,1011101106064,新規,0,2024-02-09,2024-02-09,株式会社ＫＯＹＡＭＡホールディングス,,株式会社,東京都,新宿区,百人町２丁目５番２号,,13,104,1690073,,,,,,,2024-02-09,1,,,,,コヤマホールディングス,0
46,1011401025856,新規,0,2024-02-09,2024-02-09,ギャラリー欅株式会社,,株式会社,東京都,板橋区,志村３丁目５番７号,,13,119,1740056,,,,,,,2024-02-09,1,,,,,ギャラリーケヤキ,0
47,1011501030319,新規,0,2024-02-09,2024-02-09,ＭＤ．Ｃｏｎｎｅｃｔ株式会社,,株式会社,東京都,荒川区,西尾久５丁目２０番７－１０１号,,13,118,1160011,,,,,,,2024-02-09,1,,,,,エムディーコネクト,0
51,1011801043771,新規,0,2024-02-09,2024-02-09,株式会社ＪＡＣ,,株式会社,東京都,足立区,入谷７丁目２１－７－１Ｆ,,13,121,1210836,,,,,,,2024-02-09,1,,,,,ジェイエーシー,0
54,1012401041505,新規,0,2024-02-09,2024-02-09,株式会社Ｇ‐ＢＲＡＩＮ,,株式会社,東京都,多摩市,鶴牧２丁目１４番地の２,,13,224,2060034,,,,,,,2024-02-09,1,,,,,ジーブレイン,0
56,1012701018079,新規,0,2024-02-09,2024-02-09,株式会社キムラ工業,,株式会社,東京都,西東京市,ひばりが丘北１丁目９－２２,,13,229,2020002,,,,,,,2024-02-09,1,,,,,キムラコウギョウ,0
57,1012703002907,新規,0,2024-02-09,2024-02-09,合同会社ＹＰ‐ＭＯＶＥ,,合同会社,東京都,小平市,小川東町５丁目１７番２６インペリアルハウス２１５,,13,211,1870031,,,,,,,2024-02-09,1,,,,,ワイピームーブ,0
72,1020001155740,新規,0,2024-02-09,2024-02-09,ＹＯＨＡＮＮＡ株式会社,,株式会社,神奈川県,横浜市神奈川区,神大寺４丁目１４番２１号３ユナイト片倉アデリーナ１０２室,,14,102,2210801,,,,,,,2024-02-09,1,,,,,ヨハンナ,0
73,1020001155757,新規,0,2024-02-09,2024-02-09,株式会社Ａ９,,株式会社,神奈川県,横浜市西区,浅間町１丁目４番３号ウィザードビル４０２,,14,103,2200072,,,,,,,2024-02-09,1,,,,,エーナイン,0
81,1020005016278,新規,0,2024-02-09,2024-02-09,ＮＰＯ法人ＳＤＧｓ　ｆｏｒ　Ｔｅｅｎｓ,,その他の設立登記法人,神奈川県,横浜市南区,高根町４丁目２８番７号,,14,105,2320022,,,,,,,2024-02-09,1,,,,,エスディジーズフォーティーンズ,0
88,1021001081423,新規,0,2024-02-09,2024-02-09,ロクサン株式会社,,株式会社,神奈川県,逗子市,久木４丁目１７８３番地,,14,208,2490001,,,,,,,2024-02-09,1,,,,,ロクサン,0
89,1021001081431,新規,0,2024-02-09,2024-02-09,株式会社ＧＯＯＤ　ＪＯＢ,,株式会社,神奈川県,藤沢市,羽鳥１丁目４番地３号,,14,205,2510056,,,,,,,2024-02-09,1,,,,,グッドジョブ,0
95,1030001158610,新規,0,2024-02-09,2024-02-09,株式会社共創医療,,株式会社,埼玉県,草加市,吉町４丁目１番４６号,,11,221,3400017,,,,,,,2024-02-09,1,,,,,キョウソウイリョウ,0
96,1030001158619,新規,0,2024-02-09,2024-02-09,株式会社ＣＩＪ,,株式会社,埼玉県,春日部市,中央１丁目２番地６Ｍ６０ビル３０２,,11,214,3440067,,,,,,,2024-02-09,1,,,,,シーアイジェイ,0
105,1040001132127,新規,0,2024-02-09,2024-02-09,株式会社順安,,株式会社,千葉県,船橋市,海神町南１丁目１６２７番地２７,,12,204,2730024,,,,,,,2024-02-09,1,,,,,ジュンアン,0
106,1040001132151,新規,0,2024-02-09,2024-02-09,株式会社ＯＲＩＯＮクリーン,,株式会社,千葉県,市川市,新田３丁目１２－１８－４０５,,12,203,2720035,,,,,,,2024-02-09,1,,,,,オリオンクリーン,0
111,1040003024289,新規,0,2024-02-09,2024-02-09,合同会社Ｋｉｋｕｔａ　Ｄｉｇｉｔａｌ　Ｔｅｃｈｎｏｌｏｇｙ,,合同会社,千葉県,千葉市花見川区,朝日ケ丘３丁目１８番２号サンライズヒル朝日ケ丘Ａ棟３０１号,,12,102,2620019,,,,,,,2024-02-09,1,,,,,キクタデジタルテクノロジー,0
117,1060001036813,新規,0,2024-02-09,2024-02-09,ワイジーニーク株式会社,,株式会社,栃木県,芳賀郡芳賀町,大字稲毛田２４８６番地４,,09,345,3213303,,,,,,,2024-02-09,1,,,,,ワイジーニーク,0
119,1060003004900,新規,0,2024-02-09,2024-02-09,合同会社ｔｒａｄｅ,,合同会社,栃木県,那須塩原市,安藤町２１－１２,,09,213,3250021,,,,,,,2024-02-09,1,,,,,トレード,0
125,1080001026127,新規,0,2024-02-09,2024-02-09,株式会社エスビーアイ静岡,,株式会社,静岡県,静岡市駿河区,池田２８１番地の２Ｈ３オフィスビル２階２０２号室,,22,102,4228005,,,,,,,2024-02-09,1,,,,,エスビーアイシズオカ,0
137,1100001037212,新規,0,2024-02-09,2024-02-09,株式会社Ｋ’ｓＹ・インシュアランス,,株式会社,長野県,飯田市,座光寺５５５４番地１,,20,205,3950001,,,,,,,2024-02-09,1,,,,,ケーズワイインシュアランス,0
139,1110001038168,新規,0,2024-02-09,2024-02-09,株式会社シンプリィライフ,,株式会社,新潟県,上越市,国府２丁目２１番２１番,,15,222,9420082,,,,,,,2024-02-09,1,,,,,シンプリィライフ,0
153,1120001262072,新規,0,2024-02-09,2024-02-09,株式会社新日立建託,,株式会社,大阪府,大阪市中央区,高津１丁目１０番１８号栄光ビル２０１号室,,27,128,5420072,,,,,,,2024-02-09,1,,,,,シンニッタツケンタク,0
154,1120001262089,新規,0,2024-02-09,2024-02-09,株式会社Ｎ‐ＳＯＹＲＩＤ,,株式会社,大阪府,大阪市西区,新町１丁目２４番８号ノース四ツ橋ビル４０５,,27,106,5500013,,,,,,,2024-02-09,1,,,,,エヌソイリッド,0
155,1120001262155,新規,0,2024-02-09,2024-02-09,株式会社ＫＩＭＡＲＩＴＥ,,株式会社,大阪府,大阪市中央区,南船場４丁目１０番５号南船場ＳＯＨＯビル,,27,128,5420081,,,,,,,2024-02-09,1,,,,,キマリテ,0
156,1120001262163,新規,0,2024-02-09,2024-02-09,株式会社ＢＵＫＫＥＮ,,株式会社,大阪府,大阪市西区,立売堀２丁目５番４１号,,27,106,5500012,,,,,,,2024-02-09,1,,,,,ブッケン,0
157,1120001262188,新規,0,2024-02-09,2024-02-09,株式会社Ａ．Ａｎｇｅｌ　Ｇａｔｅ,,株式会社,大阪府,大阪市中央区,日本橋１丁目２１番９号,,27,128,5420073,,,,,,,2024-02-09,1,,,,,エーエンジェルゲート,0
158,1120001262279,新規,0,2024-02-09,2024-02-09,株式会社ＢＥＳＴＵＳ,,株式会社,大阪府,大阪市生野区,勝山北２丁目１４番２２号シャーメゾンＡｎｅｍｏｓ１０３号,,27,116,5440033,,,,,,,2024-02-09,1,,,,,ベスタス,0
160,1120003025849,新規,0,2024-02-09,2024-02-09,志東合同会社,,合同会社,大阪府,大阪市中央区,南船場１丁目９番２６号７０２室,,27,128,5420081,,,,,,,2024-02-09,1,,,,,シドウ,0
161,1120003025915,新規,0,2024-02-09,2024-02-09,マウンテンソフトウェア合同会社,,合同会社,大阪府,大阪市北区,梅田１丁目２番２号大阪駅前第２ビル１２－１２,,27,127,5300001,,,,,,,2024-02-09,1,,,,,マウンテンソフトウェア,0
162,1120003025923,新規,0,2024-02-09,2024-02-09,合同会社夢乃企画,,合同会社,大阪府,大阪市北区,梅田１丁目１－３大阪駅前第３ビル２９階１－１－１号室,,27,127,5300001,,,,,,,2024-02-09,1,,,,,ユメノキカク,0
185,1130001076298,新規,0,2024-02-09,2024-02-09,株式会社ミルカンパニー,,株式会社,京都府,京都市東山区,妙法院前側町４２８番地２,,26,105,6050932,,,,,,,2024-02-09,1,,,,,ミルカンパニー,0
186,1130001076323,新規,0,2024-02-09,2024-02-09,株式会社Ｃｕｏｒｅ,,株式会社,京都府,京都市北区,紫竹高縄町３－５２,,26,101,6038204,,,,,,,2024-02-09,1,,,,,クオレ,0
193,1180001160122,新規,0,2024-02-09,2024-02-09,ＢｒｉｇｈｔＦ株式会社,,株式会社,愛知県,名古屋市中区,錦３丁目２番２３号（Ｓｅｒｅｚａ錦９０３号）,,23,106,4600003,,,,,,,2024-02-09,1,,,,,ブライトエフ,0
196,1180003026338,新規,0,2024-02-09,2024-02-09,合同会社みなもり,,合同会社,愛知県,名古屋市西区,菊井１丁目４番１号,,23,104,4510044,,,,,,,2024-02-09,1,,,,,ミナモリ,0
198,1190001031082,新規,0,2024-02-09,2024-02-09,鳥羽ドック株式会社,,株式会社,三重県,鳥羽市,安楽島町１１００番地,,24,211,5170021,,,,,,,2024-02-09,1,,,,,トバドック,0
205,1230003002151,新規,0,2024-02-09,2024-02-09,木下商事合同会社,,合同会社,富山県,高岡市,片原町１６番地１,,16,202,9330026,,,,,,,2024-02-09,1,,,,,キノシタショウジ,0
210,1240003006531,新規,0,2024-02-09,2024-02-09,合同会社希林のにわ,,合同会社,広島県,三原市,青葉台１２番１０号,,34,204,7230047,,,,,,,2024-02-09,1,,,,,キリンノニワ,0
213,1260003004574,新規,0,2024-02-09,2024-02-09,合同会社シュガ,,合同会社,岡山県,岡山市北区,中島田町２丁目３番１５－１０２号,,33,101,7000982,,,,,,,2024-02-09,1,,,,,シュガ,0
217,1290001104605,新規,0,2024-02-09,2024-02-09,株式会社グローリーライフ,,株式会社,福岡県,福岡市南区,南大橋２丁目３０番１４号,,40,134,8150034,,,,,,,2024-02-09,1,,,,,グローリーライフ,0
218,1290001104646,新規,0,2024-02-09,2024-02-09,株式会社Ｖｅｒｄｅ・Ｖｉｖｉ,,株式会社,福岡県,福岡市西区,大字小田１６２０番地の４,,40,135,8190203,,,,,,,2024-02-09,1,,,,,ウェルデビビ,0
219,1290001104670,新規,0,2024-02-09,2024-02-09,エフゲート株式会社,,株式会社,福岡県,福岡市博多区,美野島３丁目１番５－１４０４号,,40,132,8120017,,,,,,,2024-02-09,1,,,,,エフゲート,0
220,1290003014959,新規,0,2024-02-09,2024-02-09,合同会社ウイング,,合同会社,福岡県,福岡市博多区,御供所町１番９号博多セントラルビル５階,,40,132,8120037,,,,,,,2024-02-09,1,,,,,ウイング,0
237,1340001026273,新規,0,2024-02-09,2024-02-09,広発株式会社,,株式会社,鹿児島県,霧島市,国分福島３丁目１番２９号,,46,218,8994322,,,,,,,2024-02-09,1,,,,,コウハツ,0
242,1370001050923,新規,0,2024-02-09,2024-02-09,ナーシングサービス株式会社,,株式会社,宮城県,仙台市青葉区,北根２丁目５番１２号,,04,101,9810902,,,,,,,2024-02-09,1,,,,,ナーシングサービス,0
245,1380001034297,新規,0,2024-02-09,2024-02-09,株式会社Ｆｏｏｄ　Ｄｉｒｅｃｔｉｏｎ,,株式会社,福島県,いわき市,平字三町目１番地の１ＡＢＥ一のビル１Ｆ,,07,204,9708026,,,,,,,2024-02-09,1,,,,,フードディレクション,0
252,1400003003215,新規,0,2024-02-09,2024-02-09,合同会社叶,,合同会社,岩手県,陸前高田市,小友町字中里２６,,03,210,0292207,,,,,,,2024-02-09,1,,,,,カノウ,0
254,1420003002875,新規,0,2024-02-09,2024-02-09,Ｓｈｉｒａｋａｍｉ　Ｌａｂ合同会社,,合同会社,青森県,五所川原市,字鎌谷町５１３番地２５,,02,205,0370033,,,,,,,2024-02-09,1,,,,,シラカミラボ,0
257,1430001091044,新規,0,2024-02-09,2024-02-09,株式会社ＴＡＫＡ,,株式会社,北海道,札幌市西区,八軒六条東２丁目８番１０号オークビル４階４０７号,,01,107,0630866,,,,,,,2024-02-09,1,,,,,タカ,0
263,1460301005196,新規,0,2024-02-09,2024-02-09,株式会社あおぞらＦＡＲＭ,,株式会社,北海道,網走郡大空町,女満別本郷１７１番地の３,,01,564,0992301,,,,,,,2024-02-09,1,,,,,アオゾラファーム,0
265,1470003002565,新規,0,2024-02-09,2024-02-09,合同会社Ａｒｔｉｆｙ　Ｄｅｓｉｇｎ,,合同会社,香川県,香川郡直島町,７５３,,37,364,7613110,,,,,,,2024-02-09,1,,,,,アーティファイデザイン,0
274,2010001242092,新規,0,2024-02-09,2024-02-09,株式会社ＳＣＩＥＮ,,株式会社,東京都,文京区,本郷６丁目２５番１４号,,13,105,1130033,,,,,,,2024-02-09,1,,,,,サイエン,0
275,2010001242167,新規,0,2024-02-09,2024-02-09,株式会社ＩＮＦＩＮＩＴＥＪＯＹ,,株式会社,東京都,千代田区,外神田３丁目１３番９号,,13,101,1010021,,,,,,,2024-02-09,1,,,,,インフィニットジョイ,0
276,2010001242200,新規,0,2024-02-09,2024-02-09,株式会社ＧＬＥＰ,,株式会社,東京都,千代田区,九段南４丁目７番１９号ツボヤビル３Ｆ,,13,101,1020074,,,,,,,2024-02-09,1,,,,,グレップ,0
281,2010003042870,新規,0,2024-02-09,2024-02-09,合同会社ＮＵ,,合同会社,東京都,千代田区,一番町６－４パークコート千代田一番町４０７号,,13,101,1020082,,,,,,,2024-02-09,1,,,,,エヌユー,0
282,2010003042904,新規,0,2024-02-09,2024-02-09,合同会社ＫＨＦ,,合同会社,東京都,中央区,日本橋１丁目４番１号日本橋一丁目ビルディング,,13,102,1030027,,,,,,,2024-02-09,1,,,,,ケイエイチエフ,0
283,2010101016000,新規,0,2024-02-09,2024-02-09,株式会社あこがれ,,株式会社,東京都,八王子市,上野町４６番地４,,13,201,1920902,,,,,,,2024-02-09,1,,,,,アコガレ,0
294,2010405022933,新規,0,2024-02-09,2024-02-09,一般社団法人エクシード,,その他の設立登記法人,東京都,港区,南青山３丁目１０番４１号,,13,103,1070062,,,,,,,2024-02-09,1,,,,,エクシード,0
306,2010901054711,新規,0,2024-02-09,2024-02-09,株式会社ＤｏｕｂｌｅＤｏｗｎ,,株式会社,東京都,世田谷区,代沢３丁目１７－１５－Ｃ,,13,112,1550032,,,,,,,2024-02-09,1,,,,,ダブルダウン,0
308,2010903008806,新規,0,2024-02-09,2024-02-09,合同会社タイガーピット・エンターテインメント,,合同会社,東京都,世田谷区,粕谷２丁目１７－１ドームズ芦花公園１０７号,,13,112,1570063,,,,,,,2024-02-09,1,,,,,タイガーピットエンターテインメント,0
315,2011001159905,新規,0,2024-02-09,2024-02-09,大安米店株式会社,,株式会社,東京都,目黒区,大橋２丁目７番地７号,,13,110,1530044,,,,,,,2024-02-09,1,,,,,ダイヤスコメテン,0
316,2011001159913,新規,0,2024-02-09,2024-02-09,株式会社スタジオクラッチ,,株式会社,東京都,渋谷区,幡ヶ谷１丁目８番３号ＶＯＲＴ幡ヶ谷ＢＬＤ．６Ｆ,,13,113,1510072,,,,,,,2024-02-09,1,,,,,スタジオクラッチ,0
317,2011001159962,新規,0,2024-02-09,2024-02-09,株式会社ｚ‐ａｘｉｓ,,株式会社,東京都,渋谷区,渋谷２丁目１９－１５宮益坂ビルディング６０９,,13,113,1500002,,,,,,,2024-02-09,1,,,,,ザクシス,0
319,2011003018472,新規,0,2024-02-09,2024-02-09,合同会社ヘルビナ,,合同会社,東京都,渋谷区,神宮前６丁目２３番４号桑野ビル２階,,13,113,1500001,,,,,,,2024-02-09,1,,,,,ヘルビナ,0
323,2011101106121,新規,0,2024-02-09,2024-02-09,株式会社ゆきむら,,株式会社,東京都,新宿区,西新宿１丁目２６番２号新宿野村ビル３２階,,13,104,1600023,,,,,,,2024-02-09,1,,,,,ユキムラ,0
324,2011101106146,新規,0,2024-02-09,2024-02-09,エムインターナショナル株式会社,,株式会社,東京都,新宿区,上落合１丁目１２番１４号,,13,104,1610034,,,,,,,2024-02-09,1,,,,,エムインターナショナル,0
325,2011103014074,新規,0,2024-02-09,2024-02-09,合同会社ｏｎｌｉｎｅ,,合同会社,東京都,新宿区,西新宿３丁目３番１３号西新宿水間ビル６階,,13,104,1600023,,,,,,,2024-02-09,1,,,,,オンライン,0
336,2011703003740,新規,0,2024-02-09,2024-02-09,合同会社Ａｉｍ　Ｈｉｇｈ,,合同会社,東京都,江戸川区,平井５丁目１０－３－５０１,,13,123,1320035,,,,,,,2024-02-09,1,,,,,エイムハイ,0
339,2011801043770,新規,0,2024-02-09,2024-02-09,株式会社アベンディア,,株式会社,東京都,葛飾区,新宿６丁目２番１－１９１６号,,13,122,1250051,,,,,,,2024-02-09,1,,,,,アベンディア,0
350,2012401041495,新規,0,2024-02-09,2024-02-09,インタイム株式会社,,株式会社,東京都,多摩市,鶴牧１丁目４‐１７いずみビル６階,,13,224,2060034,,,,,,,2024-02-09,1,,,,,インタイム,0
353,2012403006406,新規,0,2024-02-09,2024-02-09,栄斗合同会社,,合同会社,東京都,府中市,幸町１丁目１３番地の１９,,13,206,1830054,,,,,,,2024-02-09,1,,,,,,0
356,2012703002906,新規,0,2024-02-09,2024-02-09,ＭＡＲＯＪＡ合同会社,,合同会社,東京都,東久留米市,小山５丁目１０番１８号プレタメゾン小山２０１,,13,222,2030051,,,,,,,2024-02-09,1,,,,,マロザ,0
357,2013101009345,新規,0,2024-02-09,2024-02-09,株式会社ロングホーム,,株式会社,東京都,青梅市,今井３丁目３１番地の４８,,13,205,1980023,,,,,,,2024-02-09,1,,,,,ロングホーム,0
371,2020001155681,新規,0,2024-02-09,2024-02-09,Ｒａｓｈｉｋｕ株式会社,,株式会社,神奈川県,横浜市西区,楠町４番３号,,14,103,2200003,,,,,,,2024-02-09,1,,,,,ラシク,0
372,2020001155707,新規,0,2024-02-09,2024-02-09,株式会社木暮組,,株式会社,神奈川県,川崎市川崎区,本町２丁目８番地１４本町松永ビル９０２,,14,131,2100001,,,,,,,2024-02-09,1,,,,,コグレグミ,0
376,2021001081430,新規,0,2024-02-09,2024-02-09,吉山創建株式会社,,株式会社,神奈川県,座間市,座間２丁目２９８２番地の６,,14,216,2520027,,,,,,,2024-02-09,1,,,,,ヨシヤマソウケン,0
379,2021003014108,新規,0,2024-02-09,2024-02-09,合同会社イスルギ,,合同会社,神奈川県,中郡大磯町,大磯１３１０番地３,,14,341,2550003,,,,,,,2024-02-09,1,,,,,イスルギ,0
380,2021003014149,新規,0,2024-02-09,2024-02-09,Ｄｅｖｉ＆Ａｍｍｕ合同会社,,合同会社,神奈川県,横須賀市,若松町３丁目１５番地ヒトモトビル３０２号室,,14,201,2380007,,,,,,,2024-02-09,1,,,,,デビアンドエム,0
392,2030003023596,新規,0,2024-02-09,2024-02-09,合同会社ひみつきち,,合同会社,埼玉県,北本市,北本４丁目２７５番地３,,11,233,3640006,,,,,,,2024-02-09,1,,,,,ヒミツキチ,0
393,2030005021549,新規,0,2024-02-09,2024-02-09,一般社団法人日本技術・文化マネジメント協議会,,その他の設立登記法人,埼玉県,幸手市,南２丁目１２番４０－１０１号,,11,240,3400156,,,,,,,2024-02-09,1,,,,,ニホンギジュツブンカマネジメントキョウギカイ,0
397,2040001132118,新規,0,2024-02-09,2024-02-09,株式会社アカメ,,株式会社,千葉県,佐倉市,西志津１丁目１１番８－４０２号,,12,212,2850845,,,,,,,2024-02-09,1,,,,,アカメ,0
398,2040001132134,新規,0,2024-02-09,2024-02-09,株式会社Ｚ・Ｋ,,株式会社,千葉県,市川市,欠真間２丁目１６番２２号,,12,203,2720142,,,,,,,2024-02-09,1,,,,,ゼットケイ,0
399,2040001132150,新規,0,2024-02-09,2024-02-09,株式会社ＲＥＶＥＲＥＤ,,株式会社,千葉県,柏市,南逆井４丁目２３番４号,,12,217,2770043,,,,,,,2024-02-09,1,,,,,リバード,0
400,2040003024296,新規,0,2024-02-09,2024-02-09,東京盛心合同会社,,合同会社,千葉県,佐倉市,稲荷台１丁目８番地２アパガーデンプレイス臼井駅前５２８号,,12,212,2850864,,,,,,,2024-02-09,1,,,,,トウキョウセイシン,0
401,2040003024305,新規,0,2024-02-09,2024-02-09,合同会社ＣＬＵＳＴＥＲ,,合同会社,千葉県,柏市,柏１丁目１番１１号,,12,217,2770005,,,,,,,2024-02-09,1,,,,,クラスター,0
405,2060001036812,新規,0,2024-02-09,2024-02-09,株式会社ゆーあい不動産,,株式会社,栃木県,宇都宮市,新町１丁目７番２号,,09,201,3200831,,,,,,,2024-02-09,1,,,,,ユーアイフドウサン,0
407,2060003004899,新規,0,2024-02-09,2024-02-09,合同会社Ｓｕｎ‐ｖｉｌｌａｇｅ,,合同会社,栃木県,さくら市,氏家３９９９－２,,09,214,3291311,,,,,,,2024-02-09,1,,,,,サンヴィレッジ,0
409,2070001041365,新規,0,2024-02-09,2024-02-09,株式会社ＬＵＣＫ,,株式会社,群馬県,前橋市,元総社町２丁目６番地２ライズグレースＡ１０２,,10,201,3710846,,,,,,,2024-02-09,1,,,,,ラック,0
412,2070005010226,新規,0,2024-02-09,2024-02-09,特定非営利活動法人ＯＲＡＮＧＥＷＡＶＥ,,その他の設立登記法人,群馬県,太田市,高林南町２３２番地１,,10,205,3730827,,,,,,,2024-02-09,1,,,,,オレンジウェイブ,0
414,2080001026126,新規,0,2024-02-09,2024-02-09,株式会社ＩＮＤＥＰＥＮＤＥＮＴ,,株式会社,静岡県,静岡市葵区,伝馬町１番地の２ホテルシティオ静岡３階,,22,101,4200858,,,,,,,2024-02-09,1,,,,,インディペンデント,0
419,2100005013118,新規,0,2024-02-09,2024-02-09,一般社団法人アサマ・メディシア,,その他の設立登記法人,長野県,小諸市,田町２丁目３番１２号,,20,208,3840028,,,,,,,2024-02-09,1,,,,,アサマメディシア,0
424,2120001262063,新規,0,2024-02-09,2024-02-09,株式会社分秒,,株式会社,大阪府,大阪市淀川区,西宮原３丁目２番１号新大阪ビジネス第２ニッケンマンション４２７号,,27,123,5320004,,,,,,,2024-02-09,1,,,,,ブンビョウ,0
425,2120001262105,新規,0,2024-02-09,2024-02-09,株式会社ＰＹＣ,,株式会社,大阪府,大阪市北区,大淀南２丁目２番９－３１１３号,,27,127,5310075,,,,,,,2024-02-09,1,,,,,ピーワイシー,0
426,2120001262138,新規,0,2024-02-09,2024-02-09,株式会社マーヴェリックプロパティ,,株式会社,大阪府,大阪市中央区,内本町１丁目３番９号内本町中央ビル５０３,,27,128,5400026,,,,,,,2024-02-09,1,,,,,マーヴェリックプロパティ,0
427,2120001262162,新規,0,2024-02-09,2024-02-09,辰桜株式会社,,株式会社,大阪府,大阪市中央区,瓦屋町２丁目１２－１５－４０８,,27,128,5420066,,,,,,,2024-02-09,1,,,,,シンオウ,0
428,2120001262245,新規,0,2024-02-09,2024-02-09,株式会社温度,,株式会社,大阪府,大阪市生野区,鶴橋１丁目１０－２３,,27,116,5440031,,,,,,,2024-02-09,1,,,,,オンド,0
430,2120003025880,新規,0,2024-02-09,2024-02-09,合同会社Ｌｅｂｅｎ,,合同会社,大阪府,大阪市平野区,長吉川辺１丁目１－３７,,27,126,5470014,,,,,,,2024-02-09,1,,,,,レーベン,0
431,2120003025930,新規,0,2024-02-09,2024-02-09,合同会社心桜,,合同会社,大阪府,大阪市西成区,潮路１丁目８番１０号,,27,122,5570052,,,,,,,2024-02-09,1,,,,,コハル,0
435,2120901048751,新規,0,2024-02-09,2024-02-09,株式会社三誉,,株式会社,大阪府,吹田市,南高浜町２３番１９号,,27,205,5640025,,,,,,,2024-02-09,1,,,,,ミノリ,0
440,2130001076330,新規,0,2024-02-09,2024-02-09,株式会社ＲＡＶ　ＩＮＴＥＲＮＡＴＩＯＮＡＬ,,株式会社,京都府,京都市下京区,大国町２２７,,26,106,6000000,,,,,,,2024-02-09,1,,,,,ラブインターナショナル,0
446,2140001133295,新規,0,2024-02-09,2024-02-09,株式会社フォレスト,,株式会社,兵庫県,尼崎市,武庫之荘本町１丁目８番６号,,28,202,6610031,,,,,,,2024-02-09,1,,,,,フォレスト,0
454,2140005026941,新規,0,2024-02-09,2024-02-09,社会福祉法人優心会,,その他の設立登記法人,兵庫県,伊丹市,南野北１丁目２番１８号,,28,207,6640887,,,,,,,2024-02-09,1,,,,,ユウシンカイ,0
456,2160003003115,新規,0,2024-02-09,2024-02-09,合同会社たくさんの光,,合同会社,滋賀県,大津市,坂本２丁目１０番１３号,,25,201,5200113,,,,,,,2024-02-09,1,,,,,タクサンノヒカリ,0
466,2190003004580,新規,0,2024-02-09,2024-02-09,Ｆ．Ａ．Ｍ．ＳＨＯＫＡＩ合同会社,,合同会社,三重県,四日市市,東日野町３４８‐１シャトルムツミ３０１,,24,202,5100942,,,,,,,2024-02-09,1,,,,,エフエイエムショウカイ,0
470,2220001025815,新規,0,2024-02-09,2024-02-09,株式会社ＴＡＹＡ‐ＳＨＩＫＫＩＴＥＮ,,株式会社,石川県,金沢市,寺地２丁目９番５号,,17,201,9218178,,,,,,,2024-02-09,1,,,,,タヤシッキテン,0
483,2250003003436,新規,0,2024-02-09,2024-02-09,合同会社ＭＡＳＡＭＥＤＩＡ,,合同会社,山口県,下関市,上田中町２丁目１８番２号,,35,201,7500009,,,,,,,2024-02-09,1,,,,,マサメディア,0
484,2250005008895,新規,0,2024-02-09,2024-02-09,特定非営利活動法人アラ・モード,,その他の設立登記法人,山口県,防府市,桑山２丁目１１番２２号,,35,206,7470808,,,,,,,2024-02-09,1,,,,,アラモード,0
487,2260003004573,新規,0,2024-02-09,2024-02-09,合同会社２８,,合同会社,岡山県,総社市,総社３丁目１－１４,,33,208,7191126,,,,,,,2024-02-09,1,,,,,ニジュウハチ,0
495,2290001104629,新規,0,2024-02-09,2024-02-09,株式会社叶,,株式会社,福岡県,福津市,中央２丁目８番１－９０３号,,40,224,8113217,,,,,,,2024-02-09,1,,,,,カナイ,0
503,2310001018850,新規,0,2024-02-09,2024-02-09,海の森再生株式会社,,株式会社,長崎県,諫早市,飯盛町佐田３３８番地１,,42,204,8541122,,,,,,,2024-02-09,1,,,,,ウミノモリサイセイ,0
506,2320001020285,新規,0,2024-02-09,2024-02-09,株式会社吉辰,,株式会社,大分県,大分市,大字鶴崎２３２５番地の２リアンレガーロ大分鶴崎ステーション１０７,,44,201,8700106,,,,,,,2024-02-09,1,,,,,,0
512,2360003013696,新規,0,2024-02-09,2024-02-09,合同会社ＳＳＫ　Ｌｏｕｎｇｅ,,合同会社,沖縄県,浦添市,内間４丁目２４番５－３０２号ルベライト,,47,208,9012121,,,,,,,2024-02-09,1,,,,,エスエスケーラウンジ,0
517,2370001050930,新規,0,2024-02-09,2024-02-09,株式会社Ｔｏｕｍｕ,,株式会社,宮城県,仙台市青葉区,一番町１丁目５－２０グローリオ一番町１４０１号室,,04,101,9800811,,,,,,,2024-02-09,1,,,,,トウム,0
528,2410001013726,新規,0,2024-02-09,2024-02-09,株式会社ＪＡふるさと福祉会,,株式会社,秋田県,横手市,平鹿町醍醐字道中後２８番地１,,05,203,0130102,,,,,,,2024-02-09,1,,,,,ジェーエーフルサトフクシカイ,0
536,2470001020023,新規,0,2024-02-09,2024-02-09,株式会社クラスト技研,,株式会社,香川県,善通寺市,弘田町１５５０番地,,37,204,7650071,,,,,,,2024-02-09,1,,,,,クラストギケン,0
537,2470001020031,新規,0,2024-02-09,2024-02-09,株式会社Ｓｏｌｖｉｑ,,株式会社,香川県,高松市,太田上町８７６番地８,,37,201,7618074,,,,,,,2024-02-09,1,,,,,ソルヴィック,0
538,2490005006925,新規,0,2024-02-09,2024-02-09,一般社団法人ニャンとかなるワンの会,,その他の設立登記法人,高知県,香南市,夜須町手結山１７１２番地１３,,39,211,7815622,,,,,,,2024-02-09,1,,,,,ニャントカナルワンノカイ,0
556,3010001242100,新規,0,2024-02-09,2024-02-09,株式会社ケイアールエム・ジャパン,,株式会社,東京都,千代田区,麹町１丁目６番１６号半蔵門海和ビル９階（Ｃ／ＯＪｏｏ－ｒｅａｌｅｓｔａｔｅ－ｏｆｆｉｃｅ）,,13,101,1020083,,,,,,,2024-02-09,1,,,,,ケイアールエムジャパン,0
557,3010001242141,新規,0,2024-02-09,2024-02-09,三世秦蔵六・玉鋼株式会社,,株式会社,東京都,文京区,千石４丁目１４番９号,,13,105,1120011,,,,,,,2024-02-09,1,,,,,サンセイハタゾウロクタマハガネ,0
561,3010003042853,新規,0,2024-02-09,2024-02-09,ＬＥＶＥＣＨＹファンド１４号合同会社,,合同会社,東京都,千代田区,紀尾井町３－８第２紀尾井町ビル９０１アクシス綜合会計事務所内,,13,101,1020094,,,,,,,2024-02-09,1,,,,,レベチーファンドジュウヨンゴウ,0
562,3010003042886,新規,0,2024-02-09,2024-02-09,アスクチカ合同会社,,合同会社,東京都,千代田区,九段南１丁目５番６号りそな九段ビル５階ＫＳフロア,,13,101,1020074,,,,,,,2024-02-09,1,,,,,アスクチカ,0
563,3010003042903,新規,0,2024-02-09,2024-02-09,合同会社グリーンエネルギー２号,,合同会社,東京都,中央区,日本橋１丁目４番１号日本橋一丁目ビルディング,,13,102,1030027,,,,,,,2024-02-09,1,,,,,グリーンエネルギーニゴウ,0
566,3010005037868,新規,0,2024-02-09,2024-02-09,一般社団法人ライフＤＸ推進協会,,その他の設立登記法人,東京都,千代田区,麹町６丁目２番６号ＰＭＯ麹町２１２号,,13,101,1020083,,,,,,,2024-02-09,1,,,,,ライフディーエックススイシンキョウカイ,0
581,3010401180313,新規,0,2024-02-09,2024-02-09,株式会社シンクフォワード,,株式会社,東京都,港区,芝浦３丁目１番２１号,,13,103,1080023,,,,,,,2024-02-09,1,,,,,シンクフォワード,0
582,3010401180321,新規,0,2024-02-09,2024-02-09,株式会社ベルダ,,株式会社,東京都,港区,三田５丁目２－２９ザ・パークハウス三田３０７,,13,103,1080073,,,,,,,2024-02-09,1,,,,,ベルダ,0
585,3010501051769,新規,0,2024-02-09,2024-02-09,株式会社ＢＡＳＹＡＵＭＡ,,株式会社,東京都,台東区,上野３丁目１６－２天翔上野末広町ビル７０４－Ｃ号室,,13,106,1100005,,,,,,,2024-02-09,1,,,,,バシャウマ,0
589,3010601064621,新規,0,2024-02-09,2024-02-09,株式会社在原,,株式会社,東京都,墨田区,東駒形１丁目１７番８号,,13,107,1300005,,,,,,,2024-02-09,1,,,,,アリハラ,0
604,3011001159945,新規,0,2024-02-09,2024-02-09,株式会社ＷｉｌｄＣａｒｄ,,株式会社,東京都,目黒区,下目黒１丁目６番２１－９０２号ドエルアルス目黒,,13,110,1530064,,,,,,,2024-02-09,1,,,,,ワイルドカード,0
605,3011001159953,新規,0,2024-02-09,2024-02-09,株式会社ＰＯＭｉＥ,,株式会社,東京都,渋谷区,広尾５丁目４番１６号ＥＡＴＰＬＡＹＷＯＲＫＳ３Ｆ,,13,113,1500012,,,,,,,2024-02-09,1,,,,,ポミエ,0
607,3011003018471,新規,0,2024-02-09,2024-02-09,ｍｏｎｓ　ｆｏｎｓ合同会社,,合同会社,東京都,渋谷区,道玄坂１丁目１０番８号渋谷道玄坂東急ビル２Ｆ－Ｃ,,13,113,1500043,,,,,,,2024-02-09,1,,,,,モンスフォンス,0
612,3011103014008,新規,0,2024-02-09,2024-02-09,ＫＢＩ・３ｒｄ‐３合同会社,,合同会社,東京都,新宿区,四谷坂町９番９号,,13,104,1600002,,,,,,,2024-02-09,1,,,,,ケービーアイサーアードスリー,0
614,3011201025237,新規,0,2024-02-09,2024-02-09,リバイブ株式会社,,株式会社,東京都,中野区,中野４丁目１０番２号２階,,13,114,1640001,,,,,,,2024-02-09,1,,,,,リバイブ,0
617,3011501030275,新規,0,2024-02-09,2024-02-09,ＨＦＤ株式会社,,株式会社,東京都,荒川区,西日暮里５丁目１８番地１０号,,13,118,1160013,,,,,,,2024-02-09,1,,,,,エイチエフディ,0
618,3011503005952,新規,0,2024-02-09,2024-02-09,ＣＩＦコンサルティング合同会社,,合同会社,東京都,北区,赤羽１丁目七番九号赤羽第一葉山ビル４階,,13,117,1150045,,,,,,,2024-02-09,1,,,,,シーアイエフコンサルティング,0
619,3011701026998,新規,0,2024-02-09,2024-02-09,キラキラ株式会社,,株式会社,東京都,江戸川区,南葛西６丁目１３－１２第二パークメゾン４０１号室,,13,123,1340085,,,,,,,2024-02-09,1,,,,,キラキラ,0
622,3011805003340,新規,0,2024-02-09,2024-02-09,特定非営利活動法人がじゅまるの会,,その他の設立登記法人,東京都,足立区,中川５丁目６番７号,,13,121,1200002,,,,,,,2024-02-09,1,,,,,ガジュマルノカイ,0
626,3012403006405,新規,0,2024-02-09,2024-02-09,合同会社ｉｇｎｉｔｉｏｎ,,合同会社,東京都,調布市,染地２丁目４２‐１‐１０１,,13,208,1820023,,,,,,,2024-02-09,1,,,,,イグニッション,0
629,3012701018077,新規,0,2024-02-09,2024-02-09,株式会社アートハウジング,,株式会社,東京都,東久留米市,南町４丁目６番２５号,,13,222,2030031,,,,,,,2024-02-09,1,,,,,アートハウジング,0
631,3013103001308,新規,0,2024-02-09,2024-02-09,合同会社Ｇｒｅｙｓ,,合同会社,東京都,羽村市,羽加美１丁目２７番地１カワバタハイツ１０５,,13,227,2050016,,,,,,,2024-02-09,1,,,,,,0
635,3013301052045,新規,0,2024-02-09,2024-02-09,株式会社Ｅｖｉｓｃｏ,,株式会社,東京都,豊島区,池袋２丁目５８番８号ＴＯビル４０１,,13,116,1710014,,,,,,,2024-02-09,1,,,,,エヴィスコ,0
636,3013301052061,新規,0,2024-02-09,2024-02-09,尖峰創新株式会社,,株式会社,東京都,豊島区,千川２丁目３９番８号グランドコート池袋１０４号,,13,116,1710041,,,,,,,2024-02-09,1,,,,,センホウソウシン,0
648,3020001155755,新規,0,2024-02-09,2024-02-09,株式会社石川不動産企画,,株式会社,神奈川県,川崎市高津区,子母口５４番地１９９,,14,134,2130023,,,,,,,2024-02-09,1,,,,,イシカワフドウサンキカク,0
653,3020003025527,新規,0,2024-02-09,2024-02-09,Ｊｕｍｂｏ‐Ｂｒａｓｓ合同会社,,合同会社,神奈川県,横浜市青葉区,あざみ野３丁目２７番地１－１０２,,14,117,2250011,,,,,,,2024-02-09,1,,,,,ジャンボブラス,0
662,3030001158591,新規,0,2024-02-09,2024-02-09,イムアプラス設備設計株式会社,,株式会社,埼玉県,入間郡三芳町,大字藤久保８５５番地３２０,,11,324,3540041,,,,,,,2024-02-09,1,,,,,イムアプラスセツビセッケイ,0
663,3030001158609,新規,0,2024-02-09,2024-02-09,株式会社ＹＪサービス,,株式会社,埼玉県,さいたま市桜区,栄和４丁目５番３２号,,11,106,3380823,,,,,,,2024-02-09,1,,,,,ワイジェーサービス,0
672,3040003024304,新規,0,2024-02-09,2024-02-09,合同会社Ｃｏｓｍｏｓ,,合同会社,千葉県,千葉市花見川区,宮野木台３丁目１３番地４号,,12,102,2620015,,,,,,,2024-02-09,1,,,,,コスモス,0
673,3040003024320,新規,0,2024-02-09,2024-02-09,合同会社Ｌｕｆｆ,,合同会社,千葉県,八千代市,緑が丘西１丁目６番地３３,,12,221,2760040,,,,,,,2024-02-09,1,,,,,ラフ,0
676,3050003008124,新規,0,2024-02-09,2024-02-09,合同会社Ｅｎｎ,,合同会社,茨城県,水戸市,大塚町３０９番地１,,08,201,3114143,,,,,,,2024-02-09,1,,,,,エン,0
679,3060003004898,新規,0,2024-02-09,2024-02-09,合同会社ＲＩＶＥＲ,,合同会社,栃木県,那須烏山市,神長８９５－９,,09,215,3210632,,,,,,,2024-02-09,1,,,,,リバー,0
684,3070001041364,新規,0,2024-02-09,2024-02-09,全国障がい者雇用連盟株式会社,,株式会社,群馬県,前橋市,広瀬町３丁目１８番地１５,,10,201,3710812,,,,,,,2024-02-09,1,,,,,ゼンコクショウガイシャコヨウレンメイ,0
685,3070001041372,新規,0,2024-02-09,2024-02-09,株式会社ＭＴクリーンサービス,,株式会社,群馬県,邑楽郡邑楽町,大字中野３１３３番地２,,10,525,3700603,,,,,,,2024-02-09,1,,,,,エムティークリーンサービス,0
691,3070003005268,新規,0,2024-02-09,2024-02-09,ＦＡＳＣＩＮＡＴＥ合同会社,,合同会社,群馬県,前橋市,青柳町５２４番地３,,10,201,3710056,,,,,,,2024-02-09,1,,,,,ファサネイト,0
692,3080001026125,新規,0,2024-02-09,2024-02-09,株式会社朝日,,株式会社,静岡県,静岡市清水区,由比今宿６５番地,,22,103,4213111,,,,,,,2024-02-09,1,,,,,アサヒ,0
693,3080101024524,新規,0,2024-02-09,2024-02-09,株式会社ＭＩＹＡＫＯ,,株式会社,静岡県,御殿場市,新橋１６３１番地の１,,22,215,4120043,,,,,,,2024-02-09,1,,,,,ミヤコ,0
695,3080103002973,新規,0,2024-02-09,2024-02-09,合同会社ＤＲＥＳＯＲＴ１,,合同会社,静岡県,賀茂郡東伊豆町,奈良本町９８７－１０,,22,301,4130302,,,,,,,2024-02-09,1,,,,,ディリゾートワン,0
696,3080103002981,新規,0,2024-02-09,2024-02-09,合同会社ＨＩＢＡ　ＭＯＴＯＲＳ,,合同会社,静岡県,富士宮市,北山４９６３番地８ー１０１,,22,207,4180112,,,,,,,2024-02-09,1,,,,,ヒバモータース,0
698,3080401026996,新規,0,2024-02-09,2024-02-09,株式会社ＰＡＲＡＬＬＥＬ,,株式会社,静岡県,浜松市中央区,幸２丁目４６番４３号,,22,138,4338123,,,,,,,2024-02-09,1,,,,,パラレル,0
702,3100001037210,新規,0,2024-02-09,2024-02-09,株式会社星海流通サービス,,株式会社,長野県,下高井郡山ノ内町,大字夜間瀬３０１０番地２８,,20,561,3810405,,,,,,,2024-02-09,1,,,,,セイカリュウツウサービス,0
706,3110001038166,新規,0,2024-02-09,2024-02-09,株式会社ゆかり上越,,株式会社,新潟県,上越市,下門前１７０５番地,,15,222,9420063,,,,,,,2024-02-09,1,,,,,ユカリジョウエツ,0
719,3120001262062,新規,0,2024-02-09,2024-02-09,株式会社飲食店店構え研究所,,株式会社,大阪府,大阪市北区,梅田１丁目２番２号大阪駅前第２ビル１２－１２,,27,127,5300001,,,,,,,2024-02-09,1,,,,,インショクテンミセガマエケンキュウジョ,0
720,3120001262079,新規,0,2024-02-09,2024-02-09,マスターズシーズン株式会社,,株式会社,大阪府,大阪市中央区,伏見町４丁目２番１４号,,27,128,5410044,,,,,,,2024-02-09,1,,,,,マスターズシーズン,0
726,3120003025888,新規,0,2024-02-09,2024-02-09,合同会社ウェブネクスト,,合同会社,大阪府,大阪市中央区,南船場３丁目２番２２号,,27,128,5420081,,,,,,,2024-02-09,1,,,,,ウェブネクスト,0
731,3120101069028,新規,0,2024-02-09,2024-02-09,株式会社リベラストリーム,,株式会社,大阪府,大阪狭山市,茱萸木２丁目３９８番地１８,,27,231,5890013,,,,,,,2024-02-09,1,,,,,リベラストリーム,0
735,3120901048750,新規,0,2024-02-09,2024-02-09,株式会社こはる,,株式会社,大阪府,吹田市,山田西１丁目２８番Ａ１６－２０３号,,27,205,5650824,,,,,,,2024-02-09,1,,,,,コハル,0
743,3130001076338,新規,0,2024-02-09,2024-02-09,玉山工業株式会社,,株式会社,京都府,綴喜郡井手町,大字井手小字野神５２－３,,26,343,6100302,,,,,,,2024-02-09,1,,,,,タマヤマコウギョウ,0
748,3150001027066,新規,0,2024-02-09,2024-02-09,株式会社Ｔ＆Ｍ工業,,株式会社,奈良県,御所市,大字櫛羅２５３８番地の７,,29,208,6392312,,,,,,,2024-02-09,1,,,,,ティアンドエムコウギョウ,0
755,3180003026336,新規,0,2024-02-09,2024-02-09,合同会社かたのとおしの,,合同会社,愛知県,常滑市,字小森２５番地の１,,23,216,4790067,,,,,,,2024-02-09,1,,,,,カタノトオシノ,0
759,3190001031097,新規,0,2024-02-09,2024-02-09,伊籐企画株式会社,,株式会社,三重県,員弁郡東員町,大字長深２１１２番地５,,24,324,5110255,,,,,,,2024-02-09,1,,,,,イトウキカク,0
764,3200001042142,新規,0,2024-02-09,2024-02-09,憲工業株式会社,,株式会社,岐阜県,岐阜市,北鶉２丁目４０番地１－Ｂ２０６,,21,201,5008287,,,,,,,2024-02-09,1,,,,,ケンコウギョウ,0
765,3200001042150,新規,0,2024-02-09,2024-02-09,株式会社Ｇｒｏｗｉｎｇ,,株式会社,岐阜県,羽島市,竹鼻町狐穴１１３３番地１,,21,209,5016232,,,,,,,2024-02-09,1,,,,,グロウイング,0
785,3290003014957,新規,0,2024-02-09,2024-02-09,合同会社ＫＡＮＡＤＥ,,合同会社,福岡県,筑後市,大字西牟田３７４４番地３,,40,211,8330053,,,,,,,2024-02-09,1,,,,,カナデ,0
788,3290803004612,新規,0,2024-02-09,2024-02-09,合同会社こいしの郷,,合同会社,福岡県,北九州市若松区,原町８番２６号,,40,103,8080016,,,,,,,2024-02-09,1,,,,,コイシノサト,0
796,3350003004563,新規,0,2024-02-09,2024-02-09,合同会社イムディーナ,,合同会社,宮崎県,東臼杵郡門川町,大字門川尾末６６５１番地２,,45,421,8890611,,,,,,,2024-02-09,1,,,,,イムディーナ,0
797,3360001033167,新規,0,2024-02-09,2024-02-09,株式会社Ａｌｌ　Ｓｕｐｐｏｒｔ　Ｃｏｍｐａｎｙ,,株式会社,沖縄県,那覇市,銘苅１丁目１８番１号,,47,201,9000004,,,,,,,2024-02-09,1,,,,,オールサポートカンパニー,0
798,3360003013695,新規,0,2024-02-09,2024-02-09,ザ・ストーリーズ合同会社,,合同会社,沖縄県,名護市,字宮里１００４番地,,47,209,9050011,,,,,,,2024-02-09,1,,,,,ザストーリーズ,0
799,3360003013704,新規,0,2024-02-09,2024-02-09,合同会社ホークス通運,,合同会社,沖縄県,豊見城市,字我那覇１６２番地４－２Ｆ,,47,212,9010231,,,,,,,2024-02-09,1,,,,,ホークスツウウン,0
803,3380001034279,新規,0,2024-02-09,2024-02-09,株式会社フォレアスパッケージ,,株式会社,福島県,南相馬市,原町区栄町３丁目１６７番地の１,,07,212,9750003,,,,,,,2024-02-09,1,,,,,フォレアスパッケージ,0
823,3470001020030,新規,0,2024-02-09,2024-02-09,株式会社Ｌｅａｐ,,株式会社,香川県,高松市,古馬場町６番地２萱本ビル１階,,37,201,7600045,,,,,,,2024-02-09,1,,,,,リープ,0
834,4010001242223,新規,0,2024-02-09,2024-02-09,株式会社Ｔｒｕｓｔ　Ｆｏｒｃｅ,,株式会社,東京都,千代田区,神田三崎町２丁目２１番６号ＧａｉａＦｏｒｃｅＢｕｉｌｄｉｎｇ,,13,101,1010061,,,,,,,2024-02-09,1,,,,,トラストフォース,0
835,4010001242231,新規,0,2024-02-09,2024-02-09,株式会社ピカリ,,株式会社,東京都,千代田区,飯田橋１丁目１２－１６福岡ビル３階,,13,101,1020072,,,,,,,2024-02-09,1,,,,,ピカリ,0
837,4010003042902,新規,0,2024-02-09,2024-02-09,ソーラープラネット合同会社,,合同会社,東京都,千代田区,神田三崎町２丁目２０番７号,,13,101,1010061,,,,,,,2024-02-09,1,,,,,ソーラープラネット,0
838,4010003042910,新規,0,2024-02-09,2024-02-09,合同会社カラマル,,合同会社,東京都,文京区,千駄木３丁目４４－１ケイズビル２Ｆ,,13,105,1130022,,,,,,,2024-02-09,1,,,,,カラマル,0
839,4010005037784,新規,0,2024-02-09,2024-02-09,一般社団法人あい協議会,,その他の設立登記法人,東京都,中央区,日本橋室町１丁目１１番１２号,,13,102,1030022,,,,,,,2024-02-09,1,,,,,アイキョウギカイ,0
840,4010005037875,新規,0,2024-02-09,2024-02-09,一般社団法人日本中国品牌商品交易促成総会,,その他の設立登記法人,東京都,中央区,八丁堀３丁目１２番７号八丁堀ＫＹビル４階,,13,102,1040032,,,,,,,2024-02-09,1,,,,,ニホンチユウゴクヒンハイシヨウヒンコウエキソクセイソウカイ,0
846,4010401180163,新規,0,2024-02-09,2024-02-09,Ｉ．Ｆ．ＡＲＴ株式会社,,株式会社,東京都,港区,芝公園１丁目８番２０号,,13,103,1050011,,,,,,,2024-02-09,1,,,,,アイエフアート,0
848,4010403031959,新規,0,2024-02-09,2024-02-09,ＪＤＩ合同会社,,合同会社,東京都,港区,六本木７丁目１７番１０号,,13,103,1060032,,,,,,,2024-02-09,1,,,,,ジェイディアイ,0
851,4010501051751,新規,0,2024-02-09,2024-02-09,東麟商事株式会社,,株式会社,東京都,台東区,台東２丁目３１番１０号第２掛川ビル１０９号室,,13,106,1100016,,,,,,,2024-02-09,1,,,,,トウリンショウジ,0
857,4010701045545,新規,0,2024-02-09,2024-02-09,株式会社Ｅｎｖｉｓｉｏｎ　Ｒｅａｌｔｙ,,株式会社,東京都,品川区,戸越１丁目２０番１２号,,13,109,1420041,,,,,,,2024-02-09,1,,,,,エンビジョンリアルティ,0
860,4010901054701,新規,0,2024-02-09,2024-02-09,株式会社スマートＧＸ,,株式会社,東京都,世田谷区,赤堤１丁目３７番５号,,13,112,1560044,,,,,,,2024-02-09,1,,,,,スマートジーエックス,0
866,4011001159960,新規,0,2024-02-09,2024-02-09,株式会社Ｇｒｏｗｔｈ＆Ｔｅｃｈｎｏｌｏｇｙ,,株式会社,東京都,目黒区,大橋１丁目５番１－１３０１号,,13,110,1530044,,,,,,,2024-02-09,1,,,,,グロースアンドテクノロジー,0
871,4011103014080,新規,0,2024-02-09,2024-02-09,宏紀合同会社,,合同会社,東京都,新宿区,新宿６丁目２７番１－５１２号,,13,104,1600022,,,,,,,2024-02-09,1,,,,,ヒロノリ,0
872,4011201025211,新規,0,2024-02-09,2024-02-09,年々歳々株式会社,,株式会社,東京都,中野区,弥生町２丁目１８－８－２０７号室,,13,114,1640013,,,,,,,2024-02-09,1,,,,,ネンネンサイサイ,0
873,4011301029392,新規,0,2024-02-09,2024-02-09,株式会社ｎｉｃｃｏｎｏｃｏ,,株式会社,東京都,杉並区,荻窪４丁目２２番９号,,13,115,1670051,,,,,,,2024-02-09,1,,,,,ニッコノコ,0
875,4011401025845,新規,0,2024-02-09,2024-02-09,株式会社ジュンナリ新薬,,株式会社,東京都,板橋区,前野町５丁目３８－３－１０１室,,13,119,1740063,,,,,,,2024-02-09,1,,,,,ジュンナリシンヤク,0
876,4011401025853,新規,0,2024-02-09,2024-02-09,株式会社ＡＫＴ,,株式会社,東京都,板橋区,富士見町７番４－２０７号,,13,119,1740062,,,,,,,2024-02-09,1,,,,,エーケーティー,0
879,4011501030299,新規,0,2024-02-09,2024-02-09,リボン交通株式会社,,株式会社,東京都,北区,浮間５丁目４番５１号４階１０４号,,13,117,1150051,,,,,,,2024-02-09,1,,,,,リボンコウツウ,0
881,4011603004242,新規,0,2024-02-09,2024-02-09,ＦＩＸＥＲ　ＴＯＫＹＯ合同会社,,合同会社,東京都,練馬区,田柄４丁目８－１４,,13,120,1790073,,,,,,,2024-02-09,1,,,,,フィクサートウキョウ,0
886,4011801043769,新規,0,2024-02-09,2024-02-09,株式会社Ｂ‐ＦＯＲＴ,,株式会社,東京都,葛飾区,東金町１丁目３番１－１６０９号,,13,122,1250041,,,,,,,2024-02-09,1,,,,,ビーフォート,0
888,4012301013774,新規,0,2024-02-09,2024-02-09,株式会社ｉＯ住建,,株式会社,東京都,町田市,小山町１１０７番地１,,13,209,1940212,,,,,,,2024-02-09,1,,,,,アイオージュウケン,0
904,4020001155738,新規,0,2024-02-09,2024-02-09,ＢＬＵＥ　ＯＣＥＡＮ株式会社,,株式会社,神奈川県,横浜市南区,大岡４丁目３７番７－２０６号,,14,105,2320061,,,,,,,2024-02-09,1,,,,,ブルーオーシャン,0
905,4020001155762,新規,0,2024-02-09,2024-02-09,株式会社アールエーオフィス,,株式会社,神奈川県,横浜市戸塚区,上矢部町２２５－６,,14,110,2450053,,,,,,,2024-02-09,1,,,,,アールエーオフィス,0
912,4020003025534,新規,0,2024-02-09,2024-02-09,ワトソン合同会社,,合同会社,神奈川県,横浜市戸塚区,平戸町１２０５番地５４,,14,110,2440803,,,,,,,2024-02-09,1,,,,,ワトソン,0
918,4021003014130,新規,0,2024-02-09,2024-02-09,合同会社ニッカ,,合同会社,神奈川県,小田原市,東町３丁目２番２０号,,14,206,2500003,,,,,,,2024-02-09,1,,,,,ニッカ,0
934,4040001132124,新規,0,2024-02-09,2024-02-09,京葉プラス商事株式会社,,株式会社,千葉県,木更津市,本郷１丁目１２番２４号,,12,206,2920015,,,,,,,2024-02-09,1,,,,,,0
935,4040001132157,新規,0,2024-02-09,2024-02-09,ＤＥＮＡ株式会社,,株式会社,千葉県,白井市,平塚字谷津台２００１－２,,12,232,2701402,,,,,,,2024-02-09,1,,,,,デナ,0
941,4040003024294,新規,0,2024-02-09,2024-02-09,合同会社ｅｎ,,合同会社,千葉県,印旛郡栄町,龍角寺１１０６番地１,,12,329,2701506,,,,,,,2024-02-09,1,,,,,エン,0
942,4040003024303,新規,0,2024-02-09,2024-02-09,合同会社ハナタ,,合同会社,千葉県,松戸市,小山５２３番地の４コスモ松戸２１１号,,12,207,2710093,,,,,,,2024-02-09,1,,,,,ハナタ,0
948,4050005013385,新規,0,2024-02-09,2024-02-09,一般社団法人ワットパアピプンヨー寺院つくば,,その他の設立登記法人,茨城県,筑西市,木戸１２９３番地２,,08,227,3080104,,,,,,,2024-02-09,1,,,,,ワットパアピプンヨージインツクバ,0
952,4070001041371,新規,0,2024-02-09,2024-02-09,株式会社ＤｏＮ,,株式会社,群馬県,前橋市,下新田町６４０番地７,,10,201,3710822,,,,,,,2024-02-09,1,,,,,ディーオーエヌ,0
956,4080001026124,新規,0,2024-02-09,2024-02-09,株式会社しずまち不動産,,株式会社,静岡県,静岡市駿河区,大谷２丁目２５番２４号,,22,102,4228017,,,,,,,2024-02-09,1,,,,,シズマチフドウサン,0
968,4100005013116,新規,0,2024-02-09,2024-02-09,一般社団法人Ｃａｔｎｉｐ,,その他の設立登記法人,長野県,駒ヶ根市,赤穂４１４４－５カーサ・れもん館Ｆ号,,20,210,3994117,,,,,,,2024-02-09,1,,,,,キャットニップ,0
974,4120001262053,新規,0,2024-02-09,2024-02-09,株式会社八洲電設,,株式会社,大阪府,守口市,日光町３－４,,27,209,5700092,,,,,,,2024-02-09,1,,,,,ハッシュウデンセツ,0
975,4120001262078,新規,0,2024-02-09,2024-02-09,株式会社ＣｕｅＢｅＸ,,株式会社,大阪府,大阪市北区,梅田１丁目１－３大阪駅前第３ビル２９階１－１－１号室,,27,127,5300001,,,,,,,2024-02-09,1,,,,,キュービクス,0
976,4120001262136,新規,0,2024-02-09,2024-02-09,福勝貿易株式会社,,株式会社,大阪府,大阪市淀川区,三津屋北２丁目１１番８号,,27,123,5320032,,,,,,,2024-02-09,1,,,,,フクショウボウエキ,0
977,4120001262243,新規,0,2024-02-09,2024-02-09,ラグナキッズ株式会社,,株式会社,大阪府,大阪市北区,角田町１番２０号フキヤビル８階８２号室,,27,127,5300017,,,,,,,2024-02-09,1,,,,,ラグナキッズ,0
985,4120103005657,新規,0,2024-02-09,2024-02-09,合同会社やまなみ会,,合同会社,大阪府,南河内郡河南町,さくら坂３丁目７番３号,,27,382,5850025,,,,,,,2024-02-09,1,,,,,ヤマナミカイ,0
991,4130001076329,新規,0,2024-02-09,2024-02-09,株式会社ＲＡＶ３,,株式会社,京都府,京都市下京区,大黒町２２７,,26,106,6008043,,,,,,,2024-02-09,1,,,,,ラブスリー,0
995,4140001133186,新規,0,2024-02-09,2024-02-09,株式会社コスミック,,株式会社,兵庫県,宝塚市,寿楽荘１７番１５号,,28,214,6650012,,,,,,,2024-02-09,1,,,,,コスミック,0
996,4140001133293,新規,0,2024-02-09,2024-02-09,株式会社ＥＡＤＥＬ,,株式会社,兵庫県,伊丹市,荒牧１丁目１８番２２－２号,,28,207,6640001,,,,,,,2024-02-09,1,,,,,エーデル,0
997,4140001133302,新規,0,2024-02-09,2024-02-09,ｒｉｐｅｎ株式会社,,株式会社,兵庫県,神戸市中央区,加納町３丁目１０－７－１,,28,110,6500001,,,,,,,2024-02-09,1,,,,,ライペン,0
998,4140003020127,新規,0,2024-02-09,2024-02-09,合同会社ジーユウ,,合同会社,兵庫県,西宮市,甲子園口５丁目１３番９号,,28,204,6638113,,,,,,,2024-02-09,1,,,,,ジーユウ,0
1002,4160003003113,新規,0,2024-02-09,2024-02-09,合同会社ＫＩＭＵＲＡ,,合同会社,滋賀県,大津市,月輪２丁目１７番１２号,,25,201,5202152,,,,,,,2024-02-09,1,,,,,キムラ,0
1003,4180001160086,新規,0,2024-02-09,2024-02-09,株式会社アットワークホールディングス,,株式会社,愛知県,名古屋市千種区,清住町１丁目９２番地,,23,101,4640034,,,,,,,2024-02-09,1,,,,,アットワークホールディングス,0
1004,4180001160128,新規,0,2024-02-09,2024-02-09,株式会社日本武道ツーリズム機構,,株式会社,愛知県,名古屋市中村区,砂田町２丁目４１番地の２,,23,105,4530056,,,,,,,2024-02-09,1,,,,,ニホンブドウツーリズムキコウ,0
1012,4180003026327,新規,0,2024-02-09,2024-02-09,合同会社ＢＯＮＤ,,合同会社,愛知県,名古屋市西区,城西１丁目１０番１８号,,23,104,4510031,,,,,,,2024-02-09,1,,,,,ボンド,0
1013,4180003026335,新規,0,2024-02-09,2024-02-09,ＡＡＡ　Ｓｅｒｖｉｃｅ合同会社,,合同会社,愛知県,尾張旭市,東栄町１丁目５番地３,,23,226,4880011,,,,,,,2024-02-09,1,,,,,トリプルエーサービス,0
1014,4180003026351,新規,0,2024-02-09,2024-02-09,トレジャー・インベストメント合同会社,,合同会社,愛知県,常滑市,榎戸町５丁目１４３番地,,23,216,4790854,,,,,,,2024-02-09,1,,,,,トレジャーインベストメント,0
1015,4180301038313,新規,0,2024-02-09,2024-02-09,株式会社沓名電工,,株式会社,愛知県,豊川市,御油町今斉４５番地の２シノン松風Ｉ２０１号室,00133674,23,207,4410211,,,,,,,2024-02-09,1,,,,,クツナデンコウ,0
1020,4190001031096,新規,0,2024-02-09,2024-02-09,株式会社グルーヴクエスト,,株式会社,三重県,鈴鹿市,庄野羽山２丁目７番１３号,,24,207,5130834,,,,,,,2024-02-09,1,,,,,グルーヴクエスト,0
1025,4220005008806,新規,0,2024-02-09,2024-02-09,一般社団法人ＷＡＯＪＥ金沢支部,,その他の設立登記法人,石川県,金沢市,円光寺本町８番５０号,,17,201,9218176,,,,,,,2024-02-09,1,,,,,ワオジェカナザワシブ,0
1039,4260003004571,新規,0,2024-02-09,2024-02-09,合同会社ＳＦＦ,,合同会社,岡山県,岡山市北区,青江３丁目１１番１１号４０３号,,33,101,7000941,,,,,,,2024-02-09,1,,,,,エスエフエフ,0
1044,4280001009117,新規,0,2024-02-09,2024-02-09,株式会社ＳａｃｏＳ,,株式会社,島根県,松江市,袖師町１０番３号,,32,201,6900049,,,,,,,2024-02-09,1,,,,,サコス,0
1049,4290003014956,新規,0,2024-02-09,2024-02-09,合同会社日成職人社,,合同会社,福岡県,福岡市城南区,七隈３丁目１４番３号,,40,136,8140133,,,,,,,2024-02-09,1,,,,,ニッセイショクニンシャ,0
1061,4330001031742,新規,0,2024-02-09,2024-02-09,株式会社森山,,株式会社,熊本県,玉名市,岱明町庄山８７７番地１６,,43,206,8690231,,,,,,,2024-02-09,1,,,,,モリヤマ,0
1067,4350003004562,新規,0,2024-02-09,2024-02-09,合同会社ワック,,合同会社,宮崎県,延岡市,緑ケ丘５丁目７番４号,,45,203,8820863,,,,,,,2024-02-09,1,,,,,ワック,0
1068,4360001033174,新規,0,2024-02-09,2024-02-09,株式会社スペア,,株式会社,沖縄県,浦添市,屋富祖３丁目２番２号３Ｆ,,47,208,9012127,,,,,,,2024-02-09,1,,,,,スペア,0
1069,4360003013694,新規,0,2024-02-09,2024-02-09,合同会社砂川農園,,合同会社,沖縄県,中頭郡北谷町,字浜川１６９番地の５,,47,326,9040112,,,,,,,2024-02-09,1,,,,,スナガワノウエン,0
1071,4380001034294,新規,0,2024-02-09,2024-02-09,株式会社ＩＷＡＳＷＡフードカンパニー,,株式会社,福島県,郡山市,土瓜１丁目２２５－３,,07,203,9630204,,,,,,,2024-02-09,1,,,,,イワサワフードカンパニー,0
1074,4410003003888,新規,0,2024-02-09,2024-02-09,合同会社アルファシステム,,合同会社,秋田県,秋田市,将軍野南４丁目１番４６号,,05,201,0110936,,,,,,,2024-02-09,1,,,,,アルファシステム,0
1079,4430001091009,新規,0,2024-02-09,2024-02-09,株式会社Ａａｌｕ　Ｃｒｅａｔｅ,,株式会社,北海道,札幌市中央区,南四条西８丁目８番地１晴ばれビル５階,,01,101,0640804,,,,,,,2024-02-09,1,,,,,アールクリエイト,0
1087,4460303000812,新規,0,2024-02-09,2024-02-09,合同会社Ｃ’ｓ,,合同会社,北海道,北見市,端野町三区４８５番地２２,,01,208,0992103,,,,,,,2024-02-09,1,,,,,シーズ,0
1107,5010001242164,新規,0,2024-02-09,2024-02-09,株式会社ランドエスパースホールディングス,,株式会社,東京都,中央区,銀座８丁目８番５号,,13,102,1040061,,,,,,,2024-02-09,1,,,,,ランドエスパースホールディングス,0
1108,5010001242239,新規,0,2024-02-09,2024-02-09,株式会社スチールナビマネジメント,,株式会社,東京都,千代田区,内神田１丁目７番１号,,13,101,1010047,,,,,,,2024-02-09,1,,,,,スチールナビマネジメント,0
1111,5010003042901,新規,0,2024-02-09,2024-02-09,合同会社晴海,,合同会社,東京都,中央区,晴海１丁目６－１晴海ビュータワー１号棟３５０４号,,13,102,1040053,,,,,,,2024-02-09,1,,,,,ハルミ,0
1114,5010401180253,新規,0,2024-02-09,2024-02-09,株式会社ＭＹＫ,,株式会社,東京都,港区,六本木７丁目３番２６－３０６号,,13,103,1060032,,,,,,,2024-02-09,1,,,,,エムワイケー,0
1115,5010401180311,新規,0,2024-02-09,2024-02-09,株式会社マリンリンクス,,株式会社,東京都,港区,西新橋１丁目１１番地５号西新橋福徳ビル３階,,13,103,1050003,,,,,,,2024-02-09,1,,,,,マリンリンクス,0
1122,5010403031941,新規,0,2024-02-09,2024-02-09,千葉県銚子市風力発電所合同会社,,合同会社,東京都,港区,赤坂７丁目６番６６号,,13,103,1070052,,,,,,,2024-02-09,1,,,,,チバケンチョウシシフウリョクハツデンショ,0
1136,5011001159919,新規,0,2024-02-09,2024-02-09,株式会社ファースト,,株式会社,東京都,目黒区,緑が丘２丁目１７番１７号,,13,110,1520034,,,,,,,2024-02-09,1,,,,,ファースト,0
1137,5011001159927,新規,0,2024-02-09,2024-02-09,株式会社東京システム,,株式会社,東京都,渋谷区,恵比寿西２丁目８番４号ＥＸ恵比寿西ビル５階,,13,113,1500021,,,,,,,2024-02-09,1,,,,,トウキョウシステム,0
1141,5011101106069,新規,0,2024-02-09,2024-02-09,ＣＯＣＯＲＯ　ＧＲＯＵＰ株式会社,,株式会社,東京都,新宿区,西新宿３丁目３番１３号西新宿水間ビル６階,,13,104,1600023,,,,,,,2024-02-09,1,,,,,ココログループ,0
1142,5011303005052,新規,0,2024-02-09,2024-02-09,ＡＷＣ合同会社,,合同会社,東京都,杉並区,和田３丁目２９番１１－２００号,,13,115,1660012,,,,,,,2024-02-09,1,,,,,エーダブリューシー,0
1145,5011603004241,新規,0,2024-02-09,2024-02-09,合同会社つむぎの木,,合同会社,東京都,練馬区,桜台６丁目３６番６号,,13,120,1760002,,,,,,,2024-02-09,1,,,,,ツムギノキ,0
1169,5020001155729,新規,0,2024-02-09,2024-02-09,プライムリード株式会社,,株式会社,神奈川県,横浜市青葉区,すすき野１丁目６番地６１,,14,117,2250021,,,,,,,2024-02-09,1,,,,,プライムリード,0
1175,5020003025509,新規,0,2024-02-09,2024-02-09,合同会社ＢＮＤ,,合同会社,神奈川県,横浜市瀬谷区,南台２丁目４番地１,,14,114,2460032,,,,,,,2024-02-09,1,,,,,ビーエヌディー,0
1181,5021001081436,新規,0,2024-02-09,2024-02-09,Ｃｅｌｓｓ　Ｔｅｃｈｎｏｌｏｇｉｅｓ株式会社,,株式会社,神奈川県,茅ヶ崎市,東海岸南２丁目１０番４０－９号,,14,207,2530054,,,,,,,2024-02-09,1,,,,,セルステクノロジーズ,0
1189,5030005021546,新規,0,2024-02-09,2024-02-09,特定非営利活動法人鳩ヶ谷ペアレンツ,,その他の設立登記法人,埼玉県,川口市,大字里１１７５番地の２２,,11,203,3340005,,,,,,,2024-02-09,1,,,,,ハトガヤペアレンツ,0
1194,5040001132123,新規,0,2024-02-09,2024-02-09,株式会社ＴＹリアルティ,,株式会社,千葉県,流山市,松ケ丘１丁目４７６番地の５ラフィーヌ・松ケ丘１０４,,12,220,2700141,,,,,,,2024-02-09,1,,,,,ティーワイリアルティ,0
1203,5070003005266,新規,0,2024-02-09,2024-02-09,ソーゴーテック合同会社,,合同会社,群馬県,桐生市,黒保根町下田沢２４６２番地,,10,203,3760144,,,,,,,2024-02-09,1,,,,,ソーゴーテック,0
1205,5080101024530,新規,0,2024-02-09,2024-02-09,サザンパートナーズ株式会社,,株式会社,静岡県,伊豆の国市,韮山山木６７１番地,,22,225,4102141,,,,,,,2024-02-09,1,,,,,サザンパートナーズ,0
1209,5110001038156,新規,0,2024-02-09,2024-02-09,株式会社貴一,,株式会社,新潟県,新潟市西蒲区,巻甲４０５２番地１,,15,108,9530041,,,,,,,2024-02-09,1,,,,,キイチ,0
1210,5110001038164,新規,0,2024-02-09,2024-02-09,カズヤロギング株式会社,,株式会社,新潟県,上越市,大字元屋敷１３６番地,,15,222,9430427,,,,,,,2024-02-09,1,,,,,カズヤロギング,0
1221,5120001261896,新規,0,2024-02-09,2024-02-09,株式会社思葭,,株式会社,大阪府,大阪市港区,弁天２丁目１４－２５中野ビルＢ－５,,27,107,5520007,,,,,,,2024-02-09,1,,,,,シカ,0
1222,5120001262077,新規,0,2024-02-09,2024-02-09,号外ＡＤ株式会社,,株式会社,大阪府,大阪市東淀川区,淡路４丁目３０番２号,,27,114,5330032,,,,,,,2024-02-09,1,,,,,ゴウガイエーディー,0
1233,5120901048749,新規,0,2024-02-09,2024-02-09,株式会社モリスビズ,,株式会社,大阪府,豊中市,稲津町２丁目１番２３号,,27,203,5610854,,,,,,,2024-02-09,1,,,,,モリスビズ,0
1234,5120903005046,新規,0,2024-02-09,2024-02-09,合同会社ｅｉｔｏｒｕｓ　ｔｅｃｈ,,合同会社,大阪府,吹田市,山田西２丁目４番Ａ１－４０９号,,27,205,5650824,,,,,,,2024-02-09,1,,,,,エイトーラステック,0
1235,5122001037822,新規,0,2024-02-09,2024-02-09,株式会社和新運送,,株式会社,大阪府,東大阪市,荒本新町６番２９－３０２号,,27,227,5770022,,,,,,,2024-02-09,1,,,,,ワシンウンソウ,0
1236,5130001076311,新規,0,2024-02-09,2024-02-09,株式会社Ｒｉｔａ,,株式会社,京都府,向日市,物集女町北ノ口１００番の８０,,26,208,6170001,,,,,,,2024-02-09,1,,,,,リタ,0
1241,5140001133292,新規,0,2024-02-09,2024-02-09,株式会社ＵｚｕＶｉｃ,,株式会社,兵庫県,西宮市,南越木岩町１０－２５コンコード苦楽園２Ｆ３０３号室,,28,204,6620075,,,,,,,2024-02-09,1,,,,,ウズビック,0
1246,5140003020118,新規,0,2024-02-09,2024-02-09,合同会社みらい,,合同会社,兵庫県,神戸市中央区,橘通３丁目３番１２号ＢＯＳＨＵＫＥＴＡＣＨＩＢＡＮＡ,,28,110,6500016,,,,,,,2024-02-09,1,,,,,ミライ,0
1250,5170005007069,新規,0,2024-02-09,2024-02-09,一般社団法人ＫＩＳＨＵ　ＳＯＣＩＡＬ　ＣＬＵＢ,,その他の設立登記法人,和歌山県,有田市,箕島７４２－６,,30,204,6490304,,,,,,,2024-02-09,1,,,,,キシュウソーシャルクラブ,0
1258,5180005020517,新規,0,2024-02-09,2024-02-09,一般社団法人春日井市水泳協会,,その他の設立登記法人,愛知県,春日井市,旭町４丁目２４番地２,,23,206,4860929,,,,,,,2024-02-09,1,,,,,カスガイシスイエイキョウカイ,0
1259,5180301038304,新規,0,2024-02-09,2024-02-09,株式会社神谷興業,,株式会社,愛知県,豊川市,平井町坂田前４６番地,,23,207,4410104,,,,,,,2024-02-09,1,,,,,カミヤコウギョウ,0
1272,5260003004570,新規,0,2024-02-09,2024-02-09,合同会社蕾,,合同会社,岡山県,岡山市北区,岡南町２丁目１番１号シャインコート岡南町３０５号室,,33,101,7000866,,,,,,,2024-02-09,1,,,,,ツボミ,0
1277,5290001104659,新規,0,2024-02-09,2024-02-09,株式会社ｉＴａｋｋ,,株式会社,福岡県,福岡市南区,若久６丁目２２番３８号,,40,134,8150042,,,,,,,2024-02-09,1,,,,,アイタック,0
1281,5290003014955,新規,0,2024-02-09,2024-02-09,アイ・アイ・シー合同会社,,合同会社,福岡県,福岡市東区,和白４丁目３番２９号,,40,131,8110202,,,,,,,2024-02-09,1,,,,,アイアイシー,0
1286,5300003002074,新規,0,2024-02-09,2024-02-09,合同会社ｍｙ　ｆａｖｏｒｉｔｅ　ｊｅｗｅｌ,,合同会社,佐賀県,小城市,牛津町下砥川７７１,,41,208,8490304,,,,,,,2024-02-09,1,,,,,マイフェイバリットジュエル,0
1290,5310005008738,新規,0,2024-02-09,2024-02-09,社会福祉法人まごころ,,その他の設立登記法人,長崎県,諫早市,御手水町９３６番地１,,42,204,8590314,,,,,,,2024-02-09,1,,,,,マゴコロ,0
1292,5320005010131,新規,0,2024-02-09,2024-02-09,特定非営利活動法人ＥＰＰ,,その他の設立登記法人,大分県,大分市,大字上宗方字小迫９１８番地７６,,44,201,8701152,,,,,,,2024-02-09,1,,,,,イーピーピー,0
1294,5330001031717,新規,0,2024-02-09,2024-02-09,株式会社大杉建築塗装,,株式会社,熊本県,菊池郡菊陽町,大字原水４２４５番地１３１,,43,404,8691102,,,,,,,2024-02-09,1,,,,,オオスギケンチクトソウ,0
1296,5340001026278,新規,0,2024-02-09,2024-02-09,株式会社セカンドマネジメント,,株式会社,鹿児島県,日置市,伊集院町大田２０２３番地１,,46,216,8992521,,,,,,,2024-02-09,1,,,,,セカンドマネジメント,0
1303,5360003013677,新規,0,2024-02-09,2024-02-09,Ｒｏｏｔｓ　ｔｏ　Ｖｉｓｉｏｎ合同会社,,合同会社,沖縄県,沖縄市,美里１丁目４番６号アクト美里２０６,,47,211,9042153,,,,,,,2024-02-09,1,,,,,ルーツトゥビジョン,0
1304,5360003013693,新規,0,2024-02-09,2024-02-09,合同会社Ｓｕｎｎｙ,,合同会社,沖縄県,那覇市,樋川２丁目１５番１２号,,47,201,9000022,,,,,,,2024-02-09,1,,,,,サニー,0
1305,5360005006984,新規,0,2024-02-09,2024-02-09,農事組合法人宮國農産,,その他の設立登記法人,沖縄県,宮古島市,伊良部字仲地１８９番地,,47,214,9060504,,,,,,,2024-02-09,1,,,,,ミヤグニノウサン,0
1321,5470001020020,新規,0,2024-02-09,2024-02-09,株式会社ＯｌｉｖｅＷｏｒｋ,,株式会社,香川県,善通寺市,原田町１００２－１ハートマンション１０３号室,,37,204,7650032,,,,,,,2024-02-09,1,,,,,オリーブワーク,0
1322,5470003002578,新規,0,2024-02-09,2024-02-09,合同会社ワイズ,,合同会社,香川県,坂出市,本町１丁目３番１７号サーパス本町１００２号,,37,203,7620044,,,,,,,2024-02-09,1,,,,,ワイズ,0
1325,5490001010696,新規,0,2024-02-09,2024-02-09,株式会社Ｍｉｋｋｅ,,株式会社,高知県,高知市,神田１３７９番地１アルファスマート神田公園６０１号,,39,201,7808040,,,,,,,2024-02-09,1,,,,,ミッケ,0
1334,6010001242213,新規,0,2024-02-09,2024-02-09,株式会社ＢＩＴＥＮＤＡ,,株式会社,東京都,中央区,銀座１丁目１２番４号Ｎ＆ＥＢＬＤ．６Ｆ,,13,102,1040061,,,,,,,2024-02-09,1,,,,,ビテンダ,0
1335,6010001242221,新規,0,2024-02-09,2024-02-09,鈴木総研株式会社,,株式会社,東京都,中央区,銀座１丁目２２番１１号銀座大竹ビジデンス２Ｆ,,13,102,1040061,,,,,,,2024-02-09,1,,,,,スズキソウケン,0
1336,6010001242238,新規,0,2024-02-09,2024-02-09,ＢＩＳＯＮ　ＢＲＯＴＨＥＲＳ株式会社,,株式会社,東京都,中央区,日本橋茅場町２丁目７－６晴花ビル６Ｆ,,13,102,1030025,,,,,,,2024-02-09,1,,,,,バイソンブラザーズ,0
1343,6010003042909,新規,0,2024-02-09,2024-02-09,合同会社シルバーウォッチ,,合同会社,東京都,千代田区,丸の内３丁目１番１号東京共同会計事務所内,,13,101,1000005,,,,,,,2024-02-09,1,,,,,シルバーウォッチ,0
1352,6010401180112,新規,0,2024-02-09,2024-02-09,株式会社Ｈｏｐｔｅｒ　Ｆａｃｔｏｒｙ,,株式会社,東京都,港区,港南４丁目２番７号,,13,103,1080075,,,,,,,2024-02-09,1,,,,,ホプターファクトリー,0
1353,6010401180310,新規,0,2024-02-09,2024-02-09,株式会社ＲＥＸＩＭＯ　ＰＬＡＮＮＩＮＧ,,株式会社,東京都,港区,浜松町１丁目１３番２号,,13,103,1050013,,,,,,,2024-02-09,1,,,,,レクシモプランニング,0
1360,6010601064627,新規,0,2024-02-09,2024-02-09,ライズテック株式会社,,株式会社,東京都,江東区,亀戸７丁目４０番５－８１２号,,13,108,1360071,,,,,,,2024-02-09,1,,,,,ライズテック,0
1361,6010701045436,新規,0,2024-02-09,2024-02-09,株式会社事業振興,,株式会社,東京都,品川区,北品川５丁目９番３１号ミッドサザンレジデンス御殿山１７０８,,13,109,1410001,,,,,,,2024-02-09,1,,,,,ジギョウシンコウ,0
1369,6010901054708,新規,0,2024-02-09,2024-02-09,株式会社ＩＱＣ,,株式会社,東京都,世田谷区,大原２丁目２７－２８－５０１,,13,112,1560041,,,,,,,2024-02-09,1,,,,,アイキューシー,0
1372,6011001159967,新規,0,2024-02-09,2024-02-09,株式会社ＵｉＮｅｓｓ,,株式会社,東京都,渋谷区,恵比寿２丁目３８－１レジディア広尾南３０１,,13,113,1500013,,,,,,,2024-02-09,1,,,,,ユイネス,0
1374,6011003018469,新規,0,2024-02-09,2024-02-09,合同会社ＲＳＴ,,合同会社,東京都,目黒区,東山２丁目４番１２号,,13,110,1530043,,,,,,,2024-02-09,1,,,,,アールエスティー,0
1378,6011101105986,新規,0,2024-02-09,2024-02-09,株式会社Ｏｎｅ’ｓ,,株式会社,東京都,新宿区,西新宿６丁目２番３号新宿アイランドアネックス４０８,,13,104,1600023,,,,,,,2024-02-09,1,,,,,ワンズ,0
1379,6011101106126,新規,0,2024-02-09,2024-02-09,株式会社メディサ,,株式会社,東京都,新宿区,新宿１丁目１０番２号,,13,104,1600022,,,,,,,2024-02-09,1,,,,,メディサ,0
1385,6011703003745,新規,0,2024-02-09,2024-02-09,合同会社トゥルーアイ,,合同会社,東京都,江戸川区,西一之江３丁目７－８三愛西一之江マンション３０５,,13,123,1320023,,,,,,,2024-02-09,1,,,,,トゥルーアイ,0
1395,6012801022959,新規,0,2024-02-09,2024-02-09,株式会社まこと調査解析,,株式会社,東京都,国分寺市,東元町３丁目３０番７号,,13,214,1850022,,,,,,,2024-02-09,1,,,,,マコトチョウサカイセキ,0
1396,6012803003313,新規,0,2024-02-09,2024-02-09,合同会社ＭＡＸ,,合同会社,東京都,昭島市,田中町１丁目９－９,,13,207,1960014,,,,,,,2024-02-09,1,,,,,マックス,0
1409,6021001081427,新規,0,2024-02-09,2024-02-09,株式会社ＨＡＴＡＭＡ’Ｓ,,株式会社,神奈川県,藤沢市,片瀬２丁目１番２７号,,14,205,2510032,,,,,,,2024-02-09,1,,,,,ハタマズ,0
1410,6021001081443,新規,0,2024-02-09,2024-02-09,株式会社奈良屋,,株式会社,神奈川県,小田原市,南鴨宮３丁目５番１５－３０１号,,14,206,2500875,,,,,,,2024-02-09,1,,,,,ナラヤ,0
1419,6030001158580,新規,0,2024-02-09,2024-02-09,Ｏｐｅｒａｔｉｏｎａｌ　Ｅｘｃｅｌｌｅｎｃｅ株式会社,,株式会社,埼玉県,さいたま市緑区,美園４丁目５－１,,11,109,3360967,,,,,,,2024-02-09,1,,,,,オペレーショナルエクセレンス,0
1420,6030001158589,新規,0,2024-02-09,2024-02-09,株式会社ケア・オフィス福,,株式会社,埼玉県,越谷市,北越谷２丁目３５番１３－１０２号,,11,222,3430026,,,,,,,2024-02-09,1,,,,,ケアオフィスフク,0
1421,6030001158597,新規,0,2024-02-09,2024-02-09,株式会社ＫＣ,,株式会社,埼玉県,越谷市,大字恩間５５５番地１,,11,222,3430033,,,,,,,2024-02-09,1,,,,,ケーシー,0
1424,6030003023584,新規,0,2024-02-09,2024-02-09,合同会社Ｌｅｖｙ,,合同会社,埼玉県,草加市,青柳７丁目２２番２８号,,11,221,3400002,,,,,,,2024-02-09,1,,,,,レビィー,0
1430,6040001132114,新規,0,2024-02-09,2024-02-09,モンターニャ株式会社,,株式会社,千葉県,君津市,陽光台３丁目８番７号,,12,225,2991166,,,,,,,2024-02-09,1,,,,,モンターニャ,0
1431,6040001132122,新規,0,2024-02-09,2024-02-09,株式会社ＷＡＬＮＵＴＳ,,株式会社,千葉県,勝浦市,浜勝浦２４９番地,,12,218,2995233,,,,,,,2024-02-09,1,,,,,ウォルナッツ,0
1432,6040001132139,新規,0,2024-02-09,2024-02-09,スカイ商事株式会社,,株式会社,千葉県,千葉市美浜区,稲毛海岸１丁目２番１６棟３０５号,,12,106,2610005,,,,,,,2024-02-09,1,,,,,スカイショウジ,0
1433,6040001132147,新規,0,2024-02-09,2024-02-09,株式会社ハートボイス,,株式会社,千葉県,市川市,八幡３丁目７番１８号,,12,203,2720021,,,,,,,2024-02-09,1,,,,,ハートボイス,0
1434,6040001132155,新規,0,2024-02-09,2024-02-09,株式会社フレッシュライン,,株式会社,千葉県,市原市,五井中央東１丁目１６－１３－３０７,,12,219,2900054,,,,,,,2024-02-09,1,,,,,フレッシュライン,0
1439,6060001036809,新規,0,2024-02-09,2024-02-09,株式会社ｂｒｉｎｄｌｅ　ｐｌａｃｅ,,株式会社,栃木県,宇都宮市,西一の沢町６番１６号,,09,201,3200046,,,,,,,2024-02-09,1,,,,,ブリンドルプレース,0
1440,6060003004904,新規,0,2024-02-09,2024-02-09,Ｍ．Ｃグローバルトレーディング合同会社,,合同会社,栃木県,宇都宮市,峰４丁目１３番１８号,,09,201,3210942,,,,,,,2024-02-09,1,,,,,エムシーグローバルトレーディング,0
1455,6110003005285,新規,0,2024-02-09,2024-02-09,合同会社グリーンアドバンス,,合同会社,新潟県,新発田市,向中条９４５番地,,15,206,9592426,,,,,,,2024-02-09,1,,,,,グリーンアドバンス,0
1462,6120001262084,新規,0,2024-02-09,2024-02-09,株式会社エムケイコーポレーション,,株式会社,大阪府,守口市,佐太中町２丁目２５番７号,,27,209,5700002,,,,,,,2024-02-09,1,,,,,エムケイコーポレーション,0
1463,6120001262134,新規,0,2024-02-09,2024-02-09,泰昌株式会社,,株式会社,大阪府,大阪市生野区,新今里５丁目７番７号Ｂ１０２,,27,116,5440001,,,,,,,2024-02-09,1,,,,,タイショウ,0
1464,6120001262233,新規,0,2024-02-09,2024-02-09,株式会社ＭＢＧリライアンス,,株式会社,大阪府,大阪市中央区,大手前１丁目７番３１号ＯＭＭ１階ＳｅｒｖｉｃｅＯｆｆｉｃｅＷ天満橋,,27,128,5400008,,,,,,,2024-02-09,1,,,,,エムビージーリライアンス,0
1472,6120101069041,新規,0,2024-02-09,2024-02-09,株式会社大成建築,,株式会社,大阪府,泉南郡熊取町,大久保中５丁目８６８番地の５,,27,361,5900403,,,,,,,2024-02-09,1,,,,,タイセイケンチク,0
1479,6130003009292,新規,0,2024-02-09,2024-02-09,Ｃａｔｓ＆Ｃｏ．合同会社,,合同会社,京都府,京都市下京区,朱雀宝蔵町４４番地協栄ビル２階京都朱雀スタジオ,,26,106,6008846,,,,,,,2024-02-09,1,,,,,キャッツアンドコー,0
1495,6140001133291,新規,0,2024-02-09,2024-02-09,株式会社ＢＷＥ,,株式会社,兵庫県,尼崎市,東園田町５丁目６４番地の４,,28,202,6610953,,,,,,,2024-02-09,1,,,,,ビーダブルイー,0
1501,6160001025677,新規,0,2024-02-09,2024-02-09,株式会社キノテク,,株式会社,滋賀県,大津市,園山２丁目１９番７号,,25,201,5200842,,,,,,,2024-02-09,1,,,,,キノテク,0
1502,6160001025685,新規,0,2024-02-09,2024-02-09,株式会社ＬＥＡＰ,,株式会社,滋賀県,彦根市,河原２丁目２番１６号,,25,202,5220083,,,,,,,2024-02-09,1,,,,,リープ,0
1504,6170001017995,新規,0,2024-02-09,2024-02-09,株式会社朝日産業,,株式会社,和歌山県,和歌山市,中之島２６２番地３,,30,201,6408392,,,,,,,2024-02-09,1,,,,,アサヒサンギョウ,0
1511,6180001160051,新規,0,2024-02-09,2024-02-09,ＪＥＳ総合研究所株式会社,,株式会社,愛知県,一宮市,本町２丁目２番１１号,,23,203,4910859,,,,,,,2024-02-09,1,,,,,ジェイイーエスソウゴウケンキュウジョ,0
1523,6210001019632,新規,0,2024-02-09,2024-02-09,株式会社ＮＡＰＡＴＵＮＩＴＥ,,株式会社,福井県,あわら市,桑原第１３号３３番地,,18,208,9190612,,,,,,,2024-02-09,1,,,,,ナパウニテ,0
1528,6230003002147,新規,0,2024-02-09,2024-02-09,合同会社ホワイト＆サンズ,,合同会社,富山県,富山市,呉羽町３７７０番地,,16,201,9300138,,,,,,,2024-02-09,1,,,,,ホワイトアンドサンズ,0
1532,6240003006527,新規,0,2024-02-09,2024-02-09,合同会社Ｒ,,合同会社,広島県,安芸郡府中町,浜田１丁目１番１６号レジデンス森下１－Ｂ,,34,302,7350013,,,,,,,2024-02-09,1,,,,,アール,0
1537,6250003003432,新規,0,2024-02-09,2024-02-09,合同会社結,,合同会社,山口県,防府市,八王子２丁目１１－２０－１００３,,35,206,7470037,,,,,,,2024-02-09,1,,,,,ユイ,0
1547,6290001104666,新規,0,2024-02-09,2024-02-09,ＰＡＴ株式会社,,株式会社,福岡県,福岡市中央区,天神２丁目２番１２号Ｔ＆Ｊビルディング７Ｆ,,40,133,8100001,,,,,,,2024-02-09,1,,,,,ピーエーティー,0
1552,6290003014946,新規,0,2024-02-09,2024-02-09,合同会社あすなろＦｕｍｉ,,合同会社,福岡県,宗像市,田熊４丁目１１番２０－３０３号,,40,220,8113431,,,,,,,2024-02-09,1,,,,,アスナロフミ,0
1554,6290801030302,新規,0,2024-02-09,2024-02-09,株式会社力造建設,,株式会社,福岡県,田川市,大字伊田１６８２番地１,,40,206,8250002,,,,,,,2024-02-09,1,,,,,リキゾウケンセツ,0
1566,6320005010130,新規,0,2024-02-09,2024-02-09,特定非営利活動法人長湯温泉しだれ桜の里を大きく育てる会,,その他の設立登記法人,大分県,竹田市,直入町大字下田北２９１２番地,,44,208,8780404,,,,,,,2024-02-09,1,,,,,ナガユオンセンシダレザクラノサトヲオオキクソダテルカイ,0
1567,6330001031740,新規,0,2024-02-09,2024-02-09,悠和地所株式会社,,株式会社,熊本県,熊本市中央区,渡鹿６丁目７番６５－６０１号,,43,101,8620970,,,,,,,2024-02-09,1,,,,,ユウワチショ,0
1569,6360001033180,新規,0,2024-02-09,2024-02-09,株式会社ａｎｄ　Ｂｅｅｅ,,株式会社,沖縄県,石垣市,字大川２７８番地ＴＡＭＡビルＩＩ２Ｆ２０１号,00133676,47,207,9070022,,,,,,,2024-02-09,1,,,,,アンドビー,0
1570,6360003013684,新規,0,2024-02-09,2024-02-09,合同会社畑走車,,合同会社,沖縄県,糸満市,字真栄平１６１３番地,,47,210,9010331,,,,,,,2024-02-09,1,,,,,ハッソウシャ,0
1571,6360003013692,新規,0,2024-02-09,2024-02-09,合同会社沖縄アミューズメントｂａｒ,,合同会社,沖縄県,那覇市,首里大名町２丁目４０番地コーポ大名１０２,,47,201,9030802,,,,,,,2024-02-09,1,,,,,オキナワアミューズメントバー,0
1573,6370003006480,新規,0,2024-02-09,2024-02-09,合同会社エース,,合同会社,宮城県,石巻市,立町２丁目７－８富久屋ビル二階,,04,202,9860824,,,,,,,2024-02-09,1,,,,,エース,0
1592,6430003015946,新規,0,2024-02-09,2024-02-09,アウリステート合同会社,,合同会社,北海道,恵庭市,恵み野西５丁目９番５,,01,231,0611373,,,,,,,2024-02-09,1,,,,,アウリステート,0
1594,6450003002430,新規,0,2024-02-09,2024-02-09,合同会社ナミイチ,,合同会社,北海道,紋別市,本町６丁目４番１号,,01,219,0940004,,,,,,,2024-02-09,1,,,,,ナミイチ,0
1597,6470001020028,新規,0,2024-02-09,2024-02-09,株式会社Ｎａｔｕｒａｌ９,,株式会社,香川県,綾歌郡宇多津町,２８６２番地６,,37,386,7690210,,,,,,,2024-02-09,1,,,,,ナチュラルナイン,0
1598,6490001010695,新規,0,2024-02-09,2024-02-09,株式会社滄馬,,株式会社,高知県,高知市,旭町３丁目７３番地,,39,201,7800935,,,,,,,2024-02-09,1,,,,,ソウマ,0
1609,7010001242071,新規,0,2024-02-09,2024-02-09,株式会社ＣｈｉｐＭａｔｅ,,株式会社,東京都,千代田区,外神田２丁目５番９号プラウドフラット外神田１００７号室,,13,101,1010021,,,,,,,2024-02-09,1,,,,,チップメイト,0
1610,7010001242154,新規,0,2024-02-09,2024-02-09,株式会社ａｂｙｓｓ‐ｔｏｋｙｏ,,株式会社,東京都,文京区,千駄木５丁目４１番２号－１０４,,13,105,1130022,,,,,,,2024-02-09,1,,,,,アビストーキョー,0
1611,7010003042908,新規,0,2024-02-09,2024-02-09,ｉｓｌａｎｄ　ｓｔｕｄｉｏ合同会社,,合同会社,東京都,中央区,築地７丁目８－１０,,13,102,1040045,,,,,,,2024-02-09,1,,,,,アイランドスタジオ,0
1629,7010401180326,新規,0,2024-02-09,2024-02-09,株式会社ライトキャリア,,株式会社,東京都,港区,六本木４丁目８番７号六本木嶋田ビル５Ｆ,,13,103,1060032,,,,,,,2024-02-09,1,,,,,ライトキャリア,0
1632,7010403031898,新規,0,2024-02-09,2024-02-09,ブルーインフラＣ号合同会社,,合同会社,東京都,港区,元赤坂１丁目１番７号,,13,103,1070051,,,,,,,2024-02-09,1,,,,,ブルーインフラシーゴウ,0
1633,7010403031915,新規,0,2024-02-09,2024-02-09,ＲＥＰＰ４合同会社,,合同会社,東京都,港区,北青山３丁目１５番１３－３０９号,,13,103,1070061,,,,,,,2024-02-09,1,,,,,アールイーピーピーフォー,0
1634,7010403031964,新規,0,2024-02-09,2024-02-09,Ｐｉｓｔｏｌｓｔａｒ合同会社,,合同会社,東京都,港区,南青山３丁目１－３６青山丸竹ビル６Ｆ,,13,103,1070062,,,,,,,2024-02-09,1,,,,,ピストルスター,0
1636,7010503007336,新規,0,2024-02-09,2024-02-09,合同会社ムーンジャンプ,,合同会社,東京都,台東区,浅草橋５丁目１５－７－１１０２,,13,106,1110053,,,,,,,2024-02-09,1,,,,,ムーンジャンプ,0
1654,7011003018468,新規,0,2024-02-09,2024-02-09,合同会社ＣＲＥＥＶＥ,,合同会社,東京都,渋谷区,道玄坂１丁目１０番８号渋谷道玄坂東急ビル２Ｆ－Ｃ,,13,113,1500043,,,,,,,2024-02-09,1,,,,,クリーヴ,0
1661,7011103014061,新規,0,2024-02-09,2024-02-09,合同会社ツーベースヒット,,合同会社,東京都,新宿区,西新宿３丁目３番１３号西新宿水間ビル２Ｆ,,13,104,1600023,,,,,,,2024-02-09,1,,,,,ツーベースヒット,0
1668,7011501030321,新規,0,2024-02-09,2024-02-09,株式会社オソグリ,,株式会社,東京都,北区,王子本町２丁目９番１２－６０５号,,13,117,1140022,,,,,,,2024-02-09,1,,,,,オソグリ,0
1675,7011701027010,新規,0,2024-02-09,2024-02-09,株式会社リノ・ジャパン,,株式会社,東京都,江戸川区,西葛西５丁目２番２－１１０３号,,13,123,1340088,,,,,,,2024-02-09,1,,,,,リノジャパン,0
1681,7011801043758,新規,0,2024-02-09,2024-02-09,融＿盛株式会社,00133675,株式会社,東京都,足立区,竹の塚６丁目１５－１１新井ビル３階３０１号室,,13,121,1210813,,,,,,,2024-02-09,1,,,,,ユウシンモリ,0
1684,7012803003312,新規,0,2024-02-09,2024-02-09,ＨＩＫＡＲＩ　ＪＡＰＡＮ合同会社,,合同会社,東京都,日野市,三沢２丁目１８番地５土方コーポ１０２,,13,212,1910032,,,,,,,2024-02-09,1,,,,,ヒカリジャパン,0
1696,7020003025507,新規,0,2024-02-09,2024-02-09,エイチコーポレーション合同会社,,合同会社,神奈川県,横浜市神奈川区,神大寺１丁目２３番２号,,14,102,2210801,,,,,,,2024-02-09,1,,,,,エイチコーポレーション,0
1697,7020003025523,新規,0,2024-02-09,2024-02-09,合同会社咲々,,合同会社,神奈川県,川崎市多摩区,中野島４丁目１番１－３０９号,,14,135,2140012,,,,,,,2024-02-09,1,,,,,サクサク,0
1698,7020005016272,新規,0,2024-02-09,2024-02-09,一般社団法人バースあおば,,その他の設立登記法人,神奈川県,横浜市青葉区,鴨志田町５０９番地１,,14,117,2270033,,,,,,,2024-02-09,1,,,,,バースアオバ,0
1699,7020005016280,新規,0,2024-02-09,2024-02-09,一般社団法人ＡＧＬＡＲＥＳ　ＳＯＣＣＥＲ　ＡＣＡＤＥＭＹ,,その他の設立登記法人,神奈川県,横浜市西区,北幸２丁目１０番４８号むつみビル３階,,14,103,2200004,,,,,,,2024-02-09,1,,,,,アグラレスサッカーアカデミー,0
1705,7021005013020,新規,0,2024-02-09,2024-02-09,一般社団法人寺子屋みらい塾,,その他の設立登記法人,神奈川県,茅ヶ崎市,十間坂１丁目９番２１－２号,,14,207,2530045,,,,,,,2024-02-09,1,,,,,テラコヤミライジュク,0
1709,7030003023591,新規,0,2024-02-09,2024-02-09,合同会社ＯＮＥ　ＤＲＡＦＴ,,合同会社,埼玉県,春日部市,一ノ割４丁目１８－５１,,11,214,3440031,,,,,,,2024-02-09,1,,,,,ワンドラフト,0
1716,7040001132121,新規,0,2024-02-09,2024-02-09,株式会社栄塗,,株式会社,千葉県,富津市,西大和田１２７番地,,12,226,2930035,,,,,,,2024-02-09,1,,,,,エイト,0
1725,7070001041369,新規,0,2024-02-09,2024-02-09,Ｅｎ．Ｃｏｎｎｅｃｔ株式会社,,株式会社,群馬県,前橋市,大友町３丁目２４番１号ホテル１－２－３前橋マーキュリーＥＡＳＴ７階,,10,201,3710847,,,,,,,2024-02-09,1,,,,,エンコネクト,0
1732,7090001018539,新規,0,2024-02-09,2024-02-09,株式会社Ｍｉｔｏｗａ．,,株式会社,山梨県,甲州市,勝沼町上岩崎５３４番地,,19,213,4091312,,,,,,,2024-02-09,1,,,,,ミトワ,0
1733,7100001037207,新規,0,2024-02-09,2024-02-09,マンション管理総合支援サービス株式会社,,株式会社,長野県,長野市,南千歳２丁目１７番地２,,20,201,3800823,,,,,,,2024-02-09,1,,,,,マンションカンリソウゴウシエンサービス,0
1743,7120003025876,新規,0,2024-02-09,2024-02-09,Ｔｏｋａｍａｋ　Ｄｅｖｅｌｏｐｍｅｎｔｓ合同会社,,合同会社,大阪府,大阪市中央区,南本町２丁目１－１－２０８,,27,128,5410054,,,,,,,2024-02-09,1,,,,,トカマクデベロップメンツ,0
1748,7120101069032,新規,0,2024-02-09,2024-02-09,奕辰株式会社,,株式会社,大阪府,阪南市,貝掛６３番３号シーサイド貝掛Ｂ棟４０７室,,27,232,5990231,,,,,,,2024-02-09,1,,,,,エキシン,0
1749,7120103005646,新規,0,2024-02-09,2024-02-09,合同会社雙田教育,,合同会社,大阪府,岸和田市,野田町２丁目９番８号,,27,202,5960076,,,,,,,2024-02-09,1,,,,,ソウダキョウイク,0
1751,7120903005044,新規,0,2024-02-09,2024-02-09,合同会社喜箱,,合同会社,大阪府,豊中市,東豊中町５丁目１９番２３号,,27,203,5600003,,,,,,,2024-02-09,1,,,,,キバコ,0
1755,7122001037812,新規,0,2024-02-09,2024-02-09,ＡＫＩＮＤＯ　ＳＰＡＲＫＬＥ株式会社,,株式会社,大阪府,八尾市,東山本新町３丁目４番１７号,,27,212,5810866,,,,,,,2024-02-09,1,,,,,アキンドスパークル,0
1760,7130001076326,新規,0,2024-02-09,2024-02-09,ＦＲＡＭ株式会社,,株式会社,京都府,京都市伏見区,中島前山町２０番地,,26,109,6128464,,,,,,,2024-02-09,1,,,,,フラム,0
1767,7140001133274,新規,0,2024-02-09,2024-02-09,株式会社ＭＫＯ,,株式会社,兵庫県,尼崎市,西昆陽３丁目３１番１９号カサヴェールＡ棟２０２,,28,202,6610047,,,,,,,2024-02-09,1,,,,,エムケーオー,0
1768,7140001133308,新規,0,2024-02-09,2024-02-09,株式会社オーシャン・ブルー,,株式会社,兵庫県,神戸市中央区,布引町２丁目１番１２号,,28,110,6510097,,,,,,,2024-02-09,1,,,,,オーシャンブルー,0
1771,7140005026945,新規,0,2024-02-09,2024-02-09,特定非営利活動法人高齢者の住まいと暮らし研究センター,,その他の設立登記法人,兵庫県,神戸市中央区,海岸通６丁目１番１３－１３０３号,,28,110,6500024,,,,,,,2024-02-09,1,,,,,コウレイシャノスマイトクラシケンキュウセンター,0
1772,7160001025684,新規,0,2024-02-09,2024-02-09,株式会社近江,,株式会社,滋賀県,近江八幡市,中小森町８４６番地８,,25,204,5230041,,,,,,,2024-02-09,1,,,,,オウミ,0
1784,7180003026290,新規,0,2024-02-09,2024-02-09,合同会社ｎｏｎａＭｅ,,合同会社,愛知県,名古屋市港区,正保町３丁目２７番６号,,23,111,4550074,,,,,,,2024-02-09,1,,,,,ノーネーム,0
1788,7180303006001,新規,0,2024-02-09,2024-02-09,合同会社Ｆｕｔｕｒｅ,,合同会社,愛知県,岡崎市,大和町字荒田１２番地７,,23,202,4440931,,,,,,,2024-02-09,1,,,,,フューチャー,0
1793,7190003004584,新規,0,2024-02-09,2024-02-09,合同会社ｐｌｅｉｎｅ’ｌｕｎｅ,,合同会社,三重県,松阪市,新町９８０番地,,24,204,5150075,,,,,,,2024-02-09,1,,,,,プレーヌリュヌ,0
1802,7240001062777,新規,0,2024-02-09,2024-02-09,株式会社アンビエント,,株式会社,広島県,広島市東区,二葉の里３丁目５－７ＧＲＡＮＯＤＥ広島３Ｆ,,34,102,7320057,,,,,,,2024-02-09,1,,,,,アンビエント,0
1804,7240003006526,新規,0,2024-02-09,2024-02-09,カミムラ企画合同会社,,合同会社,広島県,廿日市市,宮内２丁目５番３３号,,34,213,7380034,,,,,,,2024-02-09,1,,,,,カミムラキカク,0
1811,7260001038750,新規,0,2024-02-09,2024-02-09,Ｓ．Ｇｏｌｄ株式会社,,株式会社,岡山県,倉敷市,玉島上成４９７番地１,,33,202,7138101,,,,,,,2024-02-09,1,,,,,エスゴールド,0
1818,7290001104616,新規,0,2024-02-09,2024-02-09,株式会社ＢＬＵＥ　ＧＩＡＮＴ,,株式会社,福岡県,福岡市博多区,博多駅前４丁目３０番２２－３１２号,,40,132,8120011,,,,,,,2024-02-09,1,,,,,ブルージャイアント,0
1819,7290001104657,新規,0,2024-02-09,2024-02-09,株式会社みこころ舎,,株式会社,福岡県,福岡市博多区,博多駅南４丁目２０番１７号,,40,132,8120016,,,,,,,2024-02-09,1,,,,,ミココロシャ,0
1820,7290001104665,新規,0,2024-02-09,2024-02-09,株式会社ライフタスビルド,,株式会社,福岡県,福岡市南区,清水１丁目３番８－９０３号,,40,134,8150031,,,,,,,2024-02-09,1,,,,,ライフタスビルド,0
1825,7320001020289,新規,0,2024-02-09,2024-02-09,株式会社ＦｕｎＳｕｓ,,株式会社,大分県,大分市,藤の台２０番地の６,,44,201,8700957,,,,,,,2024-02-09,1,,,,,ファンサス,0
1830,7360001033163,新規,0,2024-02-09,2024-02-09,株式会社南海商会ホールディングス,,株式会社,沖縄県,豊見城市,字名嘉地３４８番地,,47,212,9010235,,,,,,,2024-02-09,1,,,,,ナンカイショウカイホールディングス,0
1831,7360001033171,新規,0,2024-02-09,2024-02-09,株式会社ＴＫ,,株式会社,沖縄県,那覇市,牧志１丁目１－４１－１－Ｂ,,47,201,9000013,,,,,,,2024-02-09,1,,,,,ティーケー,0
1832,7360003013691,新規,0,2024-02-09,2024-02-09,湾ちゃん企画合同会社,,合同会社,沖縄県,那覇市,松尾２丁目１９－２６,,47,201,9000014,,,,,,,2024-02-09,1,,,,,ワンチャンキカク,0
1841,7390001017519,新規,0,2024-02-09,2024-02-09,株式会社Ｆｅｒｍｅ　Ｌａ・ｒｅｃｏｌｔｅ,,株式会社,山形県,寒河江市,本楯１丁目１２６番地,,06,206,9910049,,,,,,,2024-02-09,1,,,,,フェルムラレコルト,0
1843,7390003002205,新規,0,2024-02-09,2024-02-09,ＳＫＡＬＷＬＴＰ合同会社,,合同会社,山形県,山形市,伊達城３丁目３番地１９,,06,201,9902163,,,,,,,2024-02-09,1,,,,,スカルワルティーピー,0
1847,7430001090924,新規,0,2024-02-09,2024-02-09,株式会社ロイヤル農機,,株式会社,北海道,虻田郡真狩村,字真狩２９番地１０,,01,396,0481631,,,,,,,2024-02-09,1,,,,,ロイヤルノウキ,0
1850,7430005014887,新規,0,2024-02-09,2024-02-09,一般社団法人山水蒙,,その他の設立登記法人,北海道,札幌市中央区,北一条西２６丁目５番１－２２０１号,,01,101,0640821,,,,,,,2024-02-09,1,,,,,サンスイモウ,0
1868,8010001242104,新規,0,2024-02-09,2024-02-09,ＳＤＧ株式会社,,株式会社,東京都,文京区,千駄木５丁目４９番３号ベレーザ千駄木４０３,,13,105,1130022,,,,,,,2024-02-09,1,,,,,エスディージー,0
1869,8010001242137,新規,0,2024-02-09,2024-02-09,株式会社ＴＹシステム,,株式会社,東京都,中央区,日本橋室町１丁目１１番１２号日本橋水野ビル７階,,13,102,1030022,,,,,,,2024-02-09,1,,,,,ティーワイシステム,0
1870,8010001242236,新規,0,2024-02-09,2024-02-09,Ｄ‐ＰＲＩＤＥ株式会社,,株式会社,東京都,中央区,晴海３丁目１３番２－４１０８号,,13,102,1040053,,,,,,,2024-02-09,1,,,,,ディープライド,0
1871,8010001242252,新規,0,2024-02-09,2024-02-09,株式会社達,,株式会社,東京都,中央区,銀座１丁目１６番７号銀座大栄ビル５階,,13,102,1040061,,,,,,,2024-02-09,1,,,,,タツ,0
1888,8010401180283,新規,0,2024-02-09,2024-02-09,Ｘ‐ｓｏｌｕｔｉｏｎ株式会社,,株式会社,東京都,港区,浜松町２丁目２番１５号浜松町ダイヤビル２階,,13,103,1050013,,,,,,,2024-02-09,1,,,,,クロスソリューション,0
1897,8010403031897,新規,0,2024-02-09,2024-02-09,ブルーインフラ４号合同会社,,合同会社,東京都,港区,元赤坂１丁目１番７号,,13,103,1070051,,,,,,,2024-02-09,1,,,,,ブルーインフラヨンゴウ,0
1898,8010403031914,新規,0,2024-02-09,2024-02-09,ＲＥＰＰ３合同会社,,合同会社,東京都,港区,北青山３丁目１５番１３－３０９号,,13,103,1070061,,,,,,,2024-02-09,1,,,,,アールイーピーピースリー,0
1899,8010405022936,新規,0,2024-02-09,2024-02-09,一般社団法人骨姿勢協会,,その他の設立登記法人,東京都,港区,南青山４丁目８番１１号レジェンド南青山ガーデン３０１,,13,103,1070062,,,,,,,2024-02-09,1,,,,,ホネシセイキョウカイ,0
1900,8010405022944,新規,0,2024-02-09,2024-02-09,一般社団法人麻布教育ラボ,,その他の設立登記法人,東京都,港区,東麻布１丁目２７番８号,,13,103,1060044,,,,,,,2024-02-09,1,,,,,アザブキョウイクラボ,0
1902,8010601064625,新規,0,2024-02-09,2024-02-09,株式会社ＤｅｓｉｇｎＢｉｒｔｈ,,株式会社,東京都,墨田区,文花１丁目１８－１３,,13,107,1310044,,,,,,,2024-02-09,1,,,,,デザインバース,0
1903,8010603010635,新規,0,2024-02-09,2024-02-09,合同会社ＴＪ,,合同会社,東京都,墨田区,立川１丁目４番１１－４０１号,,13,107,1300023,,,,,,,2024-02-09,1,,,,,ティジェイ,0
1913,8010903008809,新規,0,2024-02-09,2024-02-09,合同会社マイコ,,合同会社,東京都,世田谷区,成城６丁目１３番６号メゾン今村ＩＩ２Ｆ,00133677,13,112,1570066,,,,,,,2024-02-09,1,,,,,マイコ,0
1919,8011001159890,新規,0,2024-02-09,2024-02-09,吉田産業株式会社,,株式会社,東京都,渋谷区,代官山町２０番２３号フォレストゲート代官山３階,,13,113,1500034,,,,,,,2024-02-09,1,,,,,ヨシダサンギョウ,0
1920,8011003018467,新規,0,2024-02-09,2024-02-09,合同会社アイエムアイ,,合同会社,東京都,目黒区,原町１丁目９番１号東京シェア西小山３０３,,13,110,1520011,,,,,,,2024-02-09,1,,,,,アイエムアイ,0
1923,8011101106108,新規,0,2024-02-09,2024-02-09,株式会社康宝,,株式会社,東京都,新宿区,西早稲田１丁目１１番８号ヴィラ早稲田５０２号室,,13,104,1690051,,,,,,,2024-02-09,1,,,,,コウホウ,0
1928,8011503005948,新規,0,2024-02-09,2024-02-09,合同会社プリンス,,合同会社,東京都,北区,王子４丁目１８番１２号,,13,117,1140002,,,,,,,2024-02-09,1,,,,,プリンス,0
1933,8011803006084,新規,0,2024-02-09,2024-02-09,合同会社ＫＤＫ,,合同会社,東京都,足立区,梅島３丁目３３－６エンブレム西新井２Ｆ,,13,121,1210816,,,,,,,2024-02-09,1,,,,,ケーディーケー,0
1937,8012403006409,新規,0,2024-02-09,2024-02-09,合同会社アークコーポレーション,,合同会社,東京都,府中市,新町２丁目１１－５,,13,206,1830052,,,,,,,2024-02-09,1,,,,,アークコーポレーション,0
1938,8013301052049,新規,0,2024-02-09,2024-02-09,株式会社亜信,,株式会社,東京都,豊島区,巣鴨３丁目２５番２号Ａ．Ｙビル４Ｆ,,13,116,1700002,,,,,,,2024-02-09,1,,,,,アシン,0
1948,8020001155750,新規,0,2024-02-09,2024-02-09,株式会社北釧,,株式会社,神奈川県,横浜市港南区,日野５丁目１２番５号メゾン山田３０２号,,14,111,2340051,,,,,,,2024-02-09,1,,,,,ホクセン,0
1949,8020001155759,新規,0,2024-02-09,2024-02-09,株式会社ＴＡＰＡＣ,,株式会社,神奈川県,横浜市中区,本牧間門４１番１４－４号,,14,104,2310825,,,,,,,2024-02-09,1,,,,,タパック,0
1954,8021001081417,新規,0,2024-02-09,2024-02-09,株式会社テックトレード,,株式会社,神奈川県,厚木市,飯山南２丁目９番２１号,,14,212,2430218,,,,,,,2024-02-09,1,,,,,テックトレード,0
1955,8021001081425,新規,0,2024-02-09,2024-02-09,株式会社ｍｅａｍａｋａｍａｅ,,株式会社,神奈川県,平塚市,横内３１１５,,14,203,2540002,,,,,,,2024-02-09,1,,,,,メアマカマエ,0
1957,8021003014135,新規,0,2024-02-09,2024-02-09,ＳＧサイエンス合同会社,,合同会社,神奈川県,鎌倉市,二階堂２６７番地２３７,,14,204,2480002,,,,,,,2024-02-09,1,,,,,エスジーサイエンス,0
1958,8021003014143,新規,0,2024-02-09,2024-02-09,Ｌａｚｅｒ　Ｚｏｎｅ合同会社,,合同会社,神奈川県,横須賀市,若松町２丁目７ミウラプラザビル地下１階,,14,201,2380007,,,,,,,2024-02-09,1,,,,,レーザーゾーン,0
1966,8030001158595,新規,0,2024-02-09,2024-02-09,株式会社華山,,株式会社,埼玉県,本庄市,東台２丁目１０番１７号,,11,211,3670021,,,,,,,2024-02-09,1,,,,,カザン,0
1974,8030003023541,新規,0,2024-02-09,2024-02-09,合同会社サークルオブスマイル,,合同会社,埼玉県,新座市,大和田１丁目１２番地１５フラワーハイツ１０２号,,11,230,3520004,,,,,,,2024-02-09,1,,,,,サークルオブスマイル,0
1985,8040001132137,新規,0,2024-02-09,2024-02-09,株式会社ミライトケア,,株式会社,千葉県,富里市,七栄６４６番地７８２メゾンドール２０２号室,,12,233,2860221,,,,,,,2024-02-09,1,,,,,ミライトケア,0
1986,8040001132153,新規,0,2024-02-09,2024-02-09,華盛コンサルティング株式会社,,株式会社,千葉県,市川市,須和田１丁目２８番４号,,12,203,2720825,,,,,,,2024-02-09,1,,,,,ハナモリコンサルティング,0
1993,8060001036815,新規,0,2024-02-09,2024-02-09,株式会社カネセン,,株式会社,栃木県,さくら市,馬場１０５番地２,,09,214,3291321,,,,,,,2024-02-09,1,,,,,カネセン,0
1996,8060003004902,新規,0,2024-02-09,2024-02-09,合同会社アルペジオ,,合同会社,栃木県,那須烏山市,神長８９５－４,,09,215,3210632,,,,,,,2024-02-09,1,,,,,アルペジオ,0
2001,8080101024528,新規,0,2024-02-09,2024-02-09,ＲＩＳＥ　ＭＯＤＥＬＩＮＧ株式会社,,株式会社,静岡県,駿東郡長泉町,竹原１７３番地の８,,22,342,4110944,,,,,,,2024-02-09,1,,,,,ライズモデリング,0
2003,8090001018538,新規,0,2024-02-09,2024-02-09,株式会社ＮＩＨＯＮ雇用センター,,株式会社,山梨県,大月市,猿橋町殿上６３０番地１,,19,206,4090617,,,,,,,2024-02-09,1,,,,,ニホンコヨウセンター,0
2016,8120001262074,新規,0,2024-02-09,2024-02-09,日イ貿易株式会社,,株式会社,大阪府,大阪市北区,梅田１丁目１－３大阪駅前第３ビル２９階１－１－１号室,,27,127,5300001,,,,,,,2024-02-09,1,,,,,ニチイボウエキ,0
2017,8120001262198,新規,0,2024-02-09,2024-02-09,株式会社ファンテック,,株式会社,大阪府,交野市,星田１丁目４３番２６号,,27,230,5760016,,,,,,,2024-02-09,1,,,,,ファンテック,0
2042,8180302008427,新規,0,2024-02-09,2024-02-09,タナ忠建設有限会社,,有限会社,愛知県,豊橋市,天伯町字竜ケ丘１０５番地の２,,23,201,4418122,,,,,,,2024-02-09,1,,,,,タナチュウケンセツ,0
2043,8190003004583,新規,0,2024-02-09,2024-02-09,合同会社つむぎ,,合同会社,三重県,津市,河芸町東千里６０７番地１,,24,201,5100303,,,,,,,2024-02-09,1,,,,,ツムギ,0
2044,8200003006231,新規,0,2024-02-09,2024-02-09,合同会社ＲＥＣＹＣＬＩＮＧ,,合同会社,岐阜県,高山市,朝日町西洞字若林１６２８番地５９０,,21,203,5093314,,,,,,,2024-02-09,1,,,,,リサイクリング,0
2047,8220001025818,新規,0,2024-02-09,2024-02-09,株式会社ＣａｒＮｅｘｕｓ,,株式会社,石川県,金沢市,専光寺町ヲ２０１番地,,17,201,9200356,,,,,,,2024-02-09,1,,,,,カーネクサス,0
2053,8240001062768,新規,0,2024-02-09,2024-02-09,株式会社ユニビジネスソリューション,,株式会社,広島県,広島市安佐南区,山本新町４丁目１４番４号,,34,105,7310139,,,,,,,2024-02-09,1,,,,,ユニビジネスソリューション,0
2056,8260003004568,新規,0,2024-02-09,2024-02-09,合同会社ひまわり,,合同会社,岡山県,岡山市南区,北浦７６４番地,,33,104,7028012,,,,,,,2024-02-09,1,,,,,ヒマワリ,0
2065,8330003010212,新規,0,2024-02-09,2024-02-09,合同会社ＧＯＯＦＥＥ,,合同会社,熊本県,熊本市西区,花園６丁目９番２８号,,43,103,8600072,,,,,,,2024-02-09,1,,,,,グーフィー,0
2071,8370003006479,新規,0,2024-02-09,2024-02-09,合同会社ＧｏｏｓｅＰａｔｈ,,合同会社,宮城県,仙台市若林区,東七番丁１－１５,,04,103,9840074,,,,,,,2024-02-09,1,,,,,グースパス,0
2072,8380001034299,新規,0,2024-02-09,2024-02-09,株式会社サルベドエンタテイメント,,株式会社,福島県,いわき市,平中神谷字後原４番地の１,,07,204,9708021,,,,,,,2024-02-09,1,,,,,サルベドエンタテイメント,0
2075,8390001017518,新規,0,2024-02-09,2024-02-09,Ｕ米ＭＯＮ株式会社,,株式会社,山形県,東田川郡庄内町,榎木字川原畑３１８番地１,,06,428,9997702,,,,,,,2024-02-09,1,,,,,ウマイモン,0
2076,8390003002204,新規,0,2024-02-09,2024-02-09,合同会社ネオライン,,合同会社,山形県,酒田市,こあら２丁目１７番地の２,,06,204,9980878,,,,,,,2024-02-09,1,,,,,ネオライン,0
2086,8460105002276,新規,0,2024-02-09,2024-02-09,農事組合法人アグリ十勝,,その他の設立登記法人,北海道,中川郡幕別町,旭町２１番地の７３,,01,643,0890602,,,,,,,2024-02-09,1,,,,,,0
2099,9010001242086,新規,0,2024-02-09,2024-02-09,株式会社バーチャルイノベーション,,株式会社,東京都,文京区,後楽２丁目１６番５号福永ビル,,13,105,1120004,,,,,,,2024-02-09,1,,,,,バーチャルイノベーション,0
2100,9010001242094,新規,0,2024-02-09,2024-02-09,株式会社Ｅｍｅｒａｉｄ,,株式会社,東京都,文京区,本郷６丁目２５番１４号,,13,105,1130033,,,,,,,2024-02-09,1,,,,,エメレイド,0
2101,9010001242111,新規,0,2024-02-09,2024-02-09,株式会社ＴＥＮＪＩＮ　ＳＹＳＴＥＭ　ＣＯＮＳＵＬＴＩＮＧ,,株式会社,東京都,文京区,湯島３丁目２０－６－１１１０,,13,105,1130034,,,,,,,2024-02-09,1,,,,,テンジンシステムコンサルティング,0
2102,9010001242210,新規,0,2024-02-09,2024-02-09,株式会社ＹＳ工業,,株式会社,東京都,中央区,日本橋馬喰町２丁目４番１２－４０１号,,13,102,1030002,,,,,,,2024-02-09,1,,,,,ワイエスコウギョウ,0
2103,9010001242251,新規,0,2024-02-09,2024-02-09,株式会社サンエトワール,,株式会社,東京都,中央区,晴海２丁目３番２－１９０３号,,13,102,1040053,,,,,,,2024-02-09,1,,,,,サンエトワール,0
2109,9010003042914,新規,0,2024-02-09,2024-02-09,ＥＬ　ＢＲＩＤＡＬ合同会社,,合同会社,東京都,中央区,日本橋馬喰町２丁目７番１５号,,13,102,1030002,,,,,,,2024-02-09,1,,,,,エルブライダル,0
2110,9010005037879,新規,0,2024-02-09,2024-02-09,特定非営利活動法人疾病対策情報センター,,その他の設立登記法人,東京都,文京区,本郷７丁目３番１号東京大学医学部３号館別棟４階公衆衛生学教室内,,13,105,1130033,,,,,,,2024-02-09,1,,,,,シッペイタイサクジョウホウセンター,0
2111,9010101016002,新規,0,2024-02-09,2024-02-09,株式会社ロングターム,,株式会社,東京都,八王子市,打越町５９２番地２６,,13,201,1920911,,,,,,,2024-02-09,1,,,,,,0
2121,9010401180299,新規,0,2024-02-09,2024-02-09,株式会社アンタント,,株式会社,東京都,港区,新橋２丁目１６番１－１００６号,,13,103,1050004,,,,,,,2024-02-09,1,,,,,アンタント,0
2122,9010401180308,新規,0,2024-02-09,2024-02-09,Ｃｏｓｍｉｃ　Ｖｉｓｉｏｎ　Ｉｎｎｏｖａｔｉｏｎｓ　Ｊａｐａｎ株式会社,,株式会社,東京都,港区,高輪２丁目１２番４７号,,13,103,1080074,,,,,,,2024-02-09,1,,,,,コスミックビジョンイノベーションズジャパン,0
2123,9010401180332,新規,0,2024-02-09,2024-02-09,株式会社Ｒｏｎａｓｈａ,,株式会社,東京都,港区,芝浦１丁目６番４１－９１２号,,13,103,1050023,,,,,,,2024-02-09,1,,,,,ロナーシャ,0
2124,9010401180349,新規,0,2024-02-09,2024-02-09,株式会社Ｌｅｖｅｒａｇｅ　Ｌａｂｏ,,株式会社,東京都,港区,港南１丁目８－２３品川ハートビュータワー１６０６号室,,13,103,1080075,,,,,,,2024-02-09,1,,,,,レバレッジラボ,0
2128,9010403031896,新規,0,2024-02-09,2024-02-09,ブルーインフラ３号合同会社,,合同会社,東京都,港区,元赤坂１丁目１番７号,,13,103,1070051,,,,,,,2024-02-09,1,,,,,ブルーインフラサンゴウ,0
2129,9010405022943,新規,0,2024-02-09,2024-02-09,一般社団法人ビジネス・リカレント教育協会,,その他の設立登記法人,東京都,港区,赤坂３丁目１６番５号,,13,103,1070052,,,,,,,2024-02-09,1,,,,,ビジネスリカレントキョウイクキョウカイ,0
2130,9010601035427,新規,0,2024-02-09,2024-02-09,株式会社グローバル・グループ,,株式会社,東京都,江東区,有明３丁目１番２５号,,13,108,1350063,,,,,,,2024-02-09,1,,,,,,0
2132,9010603010634,新規,0,2024-02-09,2024-02-09,Ｋａｗａｓｅｍｉｚａｉｋｕ合同会社,,合同会社,東京都,墨田区,墨田５丁目３７番５号,,13,107,1310031,,,,,,,2024-02-09,1,,,,,カワセミザイク,0
2135,9010703007051,新規,0,2024-02-09,2024-02-09,Ｅｘｅｃｕｔｉｖｅ　Ｂｏｏｓｔｅｒ合同会社,,合同会社,東京都,品川区,荏原２丁目１－４,,13,109,1420063,,,,,,,2024-02-09,1,,,,,エグゼクティブブースター,0
2140,9010803004840,新規,0,2024-02-09,2024-02-09,ＭＡ　Ｉｎｔｅｒｎａｔｉｏｎａｌ合同会社,,合同会社,東京都,大田区,南久が原２丁目２番１号,,13,111,1460084,,,,,,,2024-02-09,1,,,,,エムエーインターナショナル,0
2144,9010901054688,新規,0,2024-02-09,2024-02-09,株式会社ＭＡＣＲＯ　Ｌａｂ,,株式会社,東京都,世田谷区,下馬５丁目２９番３号,,13,112,1540002,,,,,,,2024-02-09,1,,,,,マクロラボ,0
2148,9011001159931,新規,0,2024-02-09,2024-02-09,株式会社４４１,,株式会社,東京都,渋谷区,代々木３丁目３７番７号グランハイツ代々木７０１,,13,113,1510053,,,,,,,2024-02-09,1,,,,,ヨンヨンイチ,0
2149,9011001159964,新規,0,2024-02-09,2024-02-09,株式会社ｉｖｙ,,株式会社,東京都,渋谷区,神宮前２丁目１８－１９,,13,113,1500001,,,,,,,2024-02-09,1,,,,,アイビー,0
2151,9011003018474,新規,0,2024-02-09,2024-02-09,ｓｅｌｅｃｔａｂｌｅ合同会社,,合同会社,東京都,渋谷区,神宮前６丁目２３番４号桑野ビル２階,,13,113,1500001,,,,,,,2024-02-09,1,,,,,セレクタブル,0
2157,9011101106131,新規,0,2024-02-09,2024-02-09,株式会社ＭＥＤＬＡＣ　Ｌａｂｏ,,株式会社,東京都,新宿区,西新宿３丁目５番９号,,13,104,1600023,,,,,,,2024-02-09,1,,,,,メドラックラボ,0
2163,9011503005947,新規,0,2024-02-09,2024-02-09,合同会社ＰＯＵＰＯＵ,,合同会社,東京都,北区,上十条１丁目１７番１７号クオレハウス２－Ａ号,,13,117,1140034,,,,,,,2024-02-09,1,,,,,ポウポウ,0
2165,9011801043764,新規,0,2024-02-09,2024-02-09,盛達株式会社,,株式会社,東京都,足立区,花畑４丁目７番６号第５正華ビル２０２号室,,13,121,1210061,,,,,,,2024-02-09,1,,,,,セイタツ,0
2166,9011803006083,新規,0,2024-02-09,2024-02-09,合同会社ＭＩＹＡＢＩ,,合同会社,東京都,葛飾区,東立石４丁目５０番９号,,13,122,1240013,,,,,,,2024-02-09,1,,,,,ミヤビ,0
2169,9012303001938,新規,0,2024-02-09,2024-02-09,合同会社和,,合同会社,東京都,町田市,常盤町３２７７－１２,,13,209,1940213,,,,,,,2024-02-09,1,,,,,ワ,0
2186,9020001155758,新規,0,2024-02-09,2024-02-09,株式会社ＮｅＸＵＳ,,株式会社,神奈川県,横浜市保土ケ谷区,坂本町２０５番地１１４,,14,106,2400043,,,,,,,2024-02-09,1,,,,,ネクサス,0
2187,9020003025505,新規,0,2024-02-09,2024-02-09,合同会社ｅｆ,,合同会社,神奈川県,横浜市磯子区,磯子３丁目１３番Ｋ－６１３号,,14,107,2350016,,,,,,,2024-02-09,1,,,,,エフ,0
2188,9020003025513,新規,0,2024-02-09,2024-02-09,月光日本合同会社,,合同会社,神奈川県,横浜市磯子区,久木町２０－５浜マーケット内,,14,107,2350015,,,,,,,2024-02-09,1,,,,,ゲッコウニッポン,0
2193,9021001081416,新規,0,2024-02-09,2024-02-09,株式会社Ｍｏｒｅ＆Ｍｏｒｅ,,株式会社,神奈川県,逗子市,逗子７丁目３番４５－２０１号,,14,208,2490006,,,,,,,2024-02-09,1,,,,,モアアンドモア,0
2194,9021001081449,新規,0,2024-02-09,2024-02-09,Ｊａｃｋ　Ｅｎｔｅｒｐｒｉｓｅ株式会社,,株式会社,神奈川県,小田原市,中里２０３番地の７,,14,206,2500872,,,,,,,2024-02-09,1,,,,,ジャックエンタープライズ,0
2195,9021005013019,新規,0,2024-02-09,2024-02-09,特定非営利活動法人圏央福祉ライフケアサポート,,その他の設立登記法人,神奈川県,座間市,相武台３丁目２０番５号ベルハイム相模Ｅ号室,,14,216,2520011,,,,,,,2024-02-09,1,,,,,ケンオウフクシライフケアサポート,0
2219,9060003004901,新規,0,2024-02-09,2024-02-09,合同会社Ｒｅ．ｉｎｆｉｎｉｔｅ,,合同会社,栃木県,さくら市,氏家３５０９－１８７,,09,214,3291311,,,,,,,2024-02-09,1,,,,,リインフィニット,0
2248,9120001262156,新規,0,2024-02-09,2024-02-09,株式会社ウープロ,,株式会社,大阪府,大阪市淀川区,西宮原１丁目８番２４号新大阪第３ドイビル６Ｆ,,27,123,5320004,,,,,,,2024-02-09,1,,,,,ウープロ,0
2249,9120001262172,新規,0,2024-02-09,2024-02-09,ＪＬＫ株式会社,,株式会社,大阪府,大阪市北区,豊崎３丁目１６番１６号ブランズタワー梅田Ｎｏｒｔｈ２９０６号室,,27,127,5310072,,,,,,,2024-02-09,1,,,,,ジェイエルケー,0
2258,9120101069030,新規,0,2024-02-09,2024-02-09,株式会社Ｕ＆Ｊ,,株式会社,大阪府,堺市美原区,黒山２３２番地,,27,147,5870002,,,,,,,2024-02-09,1,,,,,ユーアンドジェイ,0
2262,9122001037819,新規,0,2024-02-09,2024-02-09,株式会社Ｕ３,,株式会社,大阪府,東大阪市,玉串町東２丁目６番２３号,,27,227,5780932,,,,,,,2024-02-09,1,,,,,ユースリー,0
2267,9140001133297,新規,0,2024-02-09,2024-02-09,株式会社Ｈｉｔｌｙ,,株式会社,兵庫県,川西市,大和西２丁目２－１７畦野ビル３階,,28,217,6660112,,,,,,,2024-02-09,1,,,,,ヒットリー,0
2271,9180001160115,新規,0,2024-02-09,2024-02-09,株式会社インディゴリーフ,,株式会社,愛知県,名古屋市中区,丸の内１丁目１１番３３号ライオンズマンション丸の内第５－６０９号室,,23,106,4600002,,,,,,,2024-02-09,1,,,,,インディゴリーフ,0
2273,9180301038317,新規,0,2024-02-09,2024-02-09,キョウエイホールディングス株式会社,,株式会社,愛知県,岡崎市,上里３丁目４番地２ワキタビル２Ｂ,,23,202,4442136,,,,,,,2024-02-09,1,,,,,キョウエイホールディングス,0
2276,9180305009545,新規,0,2024-02-09,2024-02-09,一般社団法人日本学び支援協会,,その他の設立登記法人,愛知県,刈谷市,井ケ谷町中前田９８番地１,,23,210,4480001,,,,,,,2024-02-09,1,,,,,ニホンマナビシエンキョウカイ,0
2279,9200001042145,新規,0,2024-02-09,2024-02-09,株式会社エヌ,,株式会社,岐阜県,多治見市,小泉町８丁目４９番地,,21,204,5070073,,,,,,,2024-02-09,1,,,,,エヌ,0
2280,9200005013571,新規,0,2024-02-09,2024-02-09,一般財団法人中島洋三記念化学振興財団,,その他の設立登記法人,岐阜県,中津川市,加子母１７９７番地,,21,206,5080421,,,,,,,2024-02-09,1,,,,,ナカシマヨウゾウキネンカガクシンコウザイダン,0
2282,9220003003655,新規,0,2024-02-09,2024-02-09,合同会社ｕｎｉｔｙｑｕｅ,,合同会社,石川県,金沢市,野町３丁目１１‐１金沢未来のまち創造館,,17,201,9218031,,,,,,,2024-02-09,1,,,,,ユニティーク,0
2283,9230003002152,新規,0,2024-02-09,2024-02-09,合同会社ことこと,,合同会社,富山県,魚津市,上村木２丁目５番５号,,16,204,9370046,,,,,,,2024-02-09,1,,,,,,0
2290,9240005015721,新規,0,2024-02-09,2024-02-09,無限責任久井村上原負債整理組合,,その他の設立登記法人,広島県,三原市,久井町,,34,204,7230000,,,,,,,2024-02-09,1,,,,,,0
2291,9260001038749,新規,0,2024-02-09,2024-02-09,咲良不動産株式会社,,株式会社,岡山県,岡山市東区,上道北方７３０番地グランヴィスタ上道別棟,,33,103,7090625,,,,,,,2024-02-09,1,,,,,サクラフドウサン,0
2296,9290001104671,新規,0,2024-02-09,2024-02-09,株式会社クレフィ,,株式会社,福岡県,福岡市南区,玉川町９番１２号,,40,134,8150037,,,,,,,2024-02-09,1,,,,,クレフィ,0
2298,9290003014951,新規,0,2024-02-09,2024-02-09,合同会社Ｌｅｂｅｎ,,合同会社,福岡県,福岡市南区,横手３丁目２０番２１－１０１号,,40,134,8111311,,,,,,,2024-02-09,1,,,,,レーベン,0
2305,9310001018852,新規,0,2024-02-09,2024-02-09,株式会社ポニーランドパートナーズ,,株式会社,長崎県,長崎市,田中町３４５０番地１５,,42,201,8510134,,,,,,,2024-02-09,1,,,,,ポニーランドパートナーズ,0
2307,9320003004288,新規,0,2024-02-09,2024-02-09,合同会社グッドグレイス,,合同会社,大分県,中津市,大字下宮永５３８番地５,,44,203,8710029,,,,,,,2024-02-09,1,,,,,グッドグレイス,0
2310,9340003004360,新規,0,2024-02-09,2024-02-09,合同会社Ｏｂｌｉｑｕｅ,,合同会社,鹿児島県,日置市,東市来町長里２１９７番地３,,46,216,8992202,,,,,,,2024-02-09,1,,,,,オブリーク,0
2315,9360001033178,新規,0,2024-02-09,2024-02-09,株式会社ブルーライン,,株式会社,沖縄県,宮古島市,下地字上地４３７番地１,,47,214,9060304,,,,,,,2024-02-09,1,,,,,ブルーライン,0
2316,9370001050899,新規,0,2024-02-09,2024-02-09,株式会社栄,,株式会社,宮城県,仙台市太白区,柳生字沢目１３番地,,04,104,9811106,,,,,,,2024-02-09,1,,,,,サカエ,0
2323,9370003006478,新規,0,2024-02-09,2024-02-09,合同会社ＲＤアソシエイツ,,合同会社,宮城県,仙台市若林区,南鍛冶町１０１番地の１シャンボール第２荒町３０２,,04,103,9840061,,,,,,,2024-02-09,1,,,,,アールディーアソシエイツ,0
2328,9380003005677,新規,0,2024-02-09,2024-02-09,合同会社ファンタスティック・プラネット,,合同会社,福島県,郡山市,桜木２丁目３１番２号,,07,203,9638021,,,,,,,2024-02-09,1,,,,,ファンタスティックプラネット,0
2330,9400005008394,新規,0,2024-02-09,2024-02-09,医療法人社団こうぶん会,,その他の設立登記法人,岩手県,宮古市,大通１丁目３番２４号,,03,202,0270083,,,,,,,2024-02-09,1,,,,,コウブンカイ,0
2343,9430003015951,新規,0,2024-02-09,2024-02-09,合同会社北海創造舎,,合同会社,北海道,札幌市厚別区,大谷地西４丁目１２番１４号,,01,108,0040042,,,,,,,2024-02-09,1,,,,,ホッカイソウゾウシャ,0
2348,9460105002275,新規,0,2024-02-09,2024-02-09,農事組合法人ファームサポート,,その他の設立登記法人,北海道,河東郡音更町,木野西通１３丁目３－１７,,01,631,0800302,,,,,,,2024-02-09,1,,,,,ファームサポート,0
