sequenceNumber,corporateNumber,process,correct,updateDate,changeDate,name,nameImageId,kind,prefectureName,cityName,streetNumber,addressImageId,prefectureCode,cityCode,postCode,addressOutside,addressOutsideImageId,closeDate,closeCause,successorCorporateNumber,changeCause,assignmentDate,latest,enName,enPrefectureName,enCityName,enAddressOutside,furigana,hihyoji
10,1010001231121,新規,0,2022-11-29,2022-11-29,株式会社天立,,株式会社,東京都,中央区,入船１丁目９番８号,,13,102,1040042,,,,,,,2022-11-29,1,,,,,テンリ,0
11,1010001231154,新規,0,2022-11-29,2022-11-29,かんぽＮＥＸＴパートナーズ株式会社,,株式会社,東京都,中央区,京橋３丁目１番１号,,13,102,1040031,,,,,,,2022-11-29,1,,,,,カンポネクストパートナーズ,0
13,1010003039199,新規,0,2022-11-29,2022-11-29,カタリスト戦略投資２号合同会社,,合同会社,東京都,千代田区,永田町２丁目１１番１号,,13,101,1000014,,,,,,,2022-11-29,1,,,,,カタリストセンリャクトウシニゴウ,0
14,1010005035840,新規,0,2022-11-29,2022-11-29,一般社団法人トークン・ツー,,その他の設立登記法人,東京都,千代田区,霞が関３丁目２番５号,,13,101,1000013,,,,,,,2022-11-29,1,,,,,トークンツー,0
16,1010401171017,新規,0,2022-11-29,2022-11-29,株式会社ｎ．ＣＨ　Ｅｎｔｅｒｔａｉｎｍｅｎｔ　Ｇｒｏｕｐ　Ｊａｐａｎ,,株式会社,東京都,港区,元赤坂１丁目２番７号赤坂Ｋタワー４Ｆ,,13,103,1070051,,,,,,,2022-11-29,1,,,,,エヌシーエッチエンタテインメントグループジャパン,0
17,1010401171041,新規,0,2022-11-29,2022-11-29,Ｕｎｉｖｅｒｓａｌ　Ｌｏｖｅ株式会社,,株式会社,東京都,港区,南青山３丁目１番３６号青山丸竹ビル６階,,13,103,1070062,,,,,,,2022-11-29,1,,,,,ユニバーサルラブ,0
18,1010401171074,新規,0,2022-11-29,2022-11-29,株式会社ＦＥＮＥＴＲＥ,,株式会社,東京都,港区,南青山３丁目１－３６青山丸竹ビル６Ｆ,,13,103,1070062,,,,,,,2022-11-29,1,,,,,フェネトル,0
19,1010403028990,新規,0,2022-11-29,2022-11-29,玉取崎３Ｒバイオガス発電合同会社,,合同会社,東京都,港区,新橋６丁目１７番２１号１０階,,13,103,1050004,,,,,,,2022-11-29,1,,,,,タマトリザキスリーアールバイオガスハツデン,0
25,1010605004154,新規,0,2022-11-29,2022-11-29,特定非営利活動法人Ａｂｉｙ,,その他の設立登記法人,東京都,墨田区,本所３丁目１２番６号,,13,107,1300004,,,,,,,2022-11-29,1,,,,,アビィ,0
28,1010803004369,新規,0,2022-11-29,2022-11-29,合同会社Ｂｅｎｕ,,合同会社,東京都,大田区,南千束１丁目８番１１号,,13,111,1450063,,,,,,,2022-11-29,1,,,,,ベヌ,0
29,1010901052047,新規,0,2022-11-29,2022-11-29,株式会社ワンダース,,株式会社,東京都,世田谷区,若林３丁目９番３－３０３号,,13,112,1540023,,,,,,,2022-11-29,1,,,,,,0
38,1011001151136,新規,0,2022-11-29,2022-11-29,オース株式会社,,株式会社,東京都,渋谷区,富ヶ谷１丁目１４番１４号スタンフォードアネックスビル３Ｆ,,13,113,1510063,,,,,,,2022-11-29,1,,,,,オース,0
39,1011001151144,新規,0,2022-11-29,2022-11-29,Ｕａｔｅｌｉｅｒ株式会社,,株式会社,東京都,渋谷区,神宮前６丁目２３番４号,,13,113,1500001,,,,,,,2022-11-29,1,,,,,ユアトリエ,0
40,1011001151185,新規,0,2022-11-29,2022-11-29,株式会社クレエドラボテ,,株式会社,東京都,渋谷区,代々木１丁目４５番１３号,,13,113,1510053,,,,,,,2022-11-29,1,,,,,クレエドラボテ,0
41,1011001151193,新規,0,2022-11-29,2022-11-29,株式会社Ｎ＆Ｓコーポレーション,,株式会社,東京都,渋谷区,桜丘町１１番５号,,13,113,1500031,,,,,,,2022-11-29,1,,,,,エヌアンドエスコーポレーション,0
46,1011101100991,新規,0,2022-11-29,2022-11-29,ＮＫＳコンサルティング株式会社,,株式会社,東京都,新宿区,下落合３丁目２２番２０－３０１号,,13,104,1610033,,,,,,,2022-11-29,1,,,,,エヌケイエスコンサルティング,0
52,1011303004586,新規,0,2022-11-29,2022-11-29,合同会社ＤＥＳＩＧＮ　ＷＯＲＫ,,合同会社,東京都,杉並区,高井戸東３丁目３６番１５号ボナール藤３０４,,13,115,1680072,,,,,,,2022-11-29,1,,,,,,0
54,1011501028718,新規,0,2022-11-29,2022-11-29,株式会社幸和,,株式会社,東京都,北区,志茂１丁目３３番８号,,13,117,1150042,,,,,,,2022-11-29,1,,,,,コウワ,0
55,1011503005376,新規,0,2022-11-29,2022-11-29,合同会社Ｏ２ＢＯＸ,,合同会社,東京都,荒川区,西尾久２丁目２５番５号,,13,118,1160011,,,,,,,2022-11-29,1,,,,,オーツーボックス,0
56,1011601026398,新規,0,2022-11-29,2022-11-29,株式会社ＯＦＦＩＣＥ　ＷＡＴＡＮＡＢＥ,,株式会社,東京都,練馬区,春日町３丁目３４番７号２Ｆ,,13,120,1790074,,,,,,,2022-11-29,1,,,,,オフィスワタナベ,0
59,1011801041610,新規,0,2022-11-29,2022-11-29,株式会社ＳＬＡＰＳ,,株式会社,東京都,足立区,綾瀬１丁目２－８ヴィラアルピナ１０２,,13,121,1200005,,,,,,,2022-11-29,1,,,,,スラップス,0
61,1011803005398,新規,0,2022-11-29,2022-11-29,合同会社ディテアーク,,合同会社,東京都,足立区,小台２丁目１９番７号,,13,121,1200046,,,,,,,2022-11-29,1,,,,,ディテアーク,0
66,1012401039912,新規,0,2022-11-29,2022-11-29,株式会社ゼロイチ,,株式会社,東京都,多摩市,連光寺１丁目２３番地の９,,13,224,2060021,,,,,,,2022-11-29,1,,,,,ゼロイチ,0
80,1013301049992,新規,0,2022-11-29,2022-11-29,Ｐｒｏｐｅｒｔｉｅｓ　Ｓｅｒｖｉｃｅｓ株式会社,,株式会社,東京都,豊島区,東池袋５丁目７番１号ＤＲＳ第３ビル６０１号室,,13,116,1700013,,,,,,,2022-11-29,1,,,,,プロパティズサービシーズ,0
92,1020003022798,新規,0,2022-11-29,2022-11-29,合同会社筒,,合同会社,神奈川県,川崎市麻生区,はるひ野５丁目３番９号,,14,137,2150036,,,,,,,2022-11-29,1,,,,,ツツ,0
95,1021001077545,新規,0,2022-11-29,2022-11-29,株式会社彩色建美,,株式会社,神奈川県,厚木市,愛名５１６番地４０,,14,212,2430038,,,,,,,2022-11-29,1,,,,,サイショクケンビ,0
96,1021001077561,新規,0,2022-11-29,2022-11-29,株式会社Ｓ・Ｃ工業,,株式会社,神奈川県,藤沢市,長後６６８番地１サザン長後２０３,,14,205,2520801,,,,,,,2022-11-29,1,,,,,,0
97,1021003012426,新規,0,2022-11-29,2022-11-29,Ｔｒｅｅ　Ｂａｌａｎｃｅ合同会社,,合同会社,神奈川県,座間市,入谷西２丁目１番６号,,14,216,2520029,,,,,,,2022-11-29,1,,,,,ツリーバランス,0
98,1021005012671,新規,0,2022-11-29,2022-11-29,特定非営利活動法人メダカのお弁当,,その他の設立登記法人,神奈川県,相模原市中央区,相模原２丁目１２番２１号,,14,152,2520231,,,,,,,2022-11-29,1,,,,,メダカノオベントウ,0
105,1030001151227,新規,0,2022-11-29,2022-11-29,株式会社セイルド,,株式会社,埼玉県,三郷市,番匠免１丁目６７番地６,,11,237,3410056,,,,,,,2022-11-29,1,,,,,セイルド,0
106,1030001151235,新規,0,2022-11-29,2022-11-29,株式会社ＷＯＯＤＹ,,株式会社,埼玉県,三郷市,早稲田８丁目９番地３号棟２０５号,,11,237,3410018,,,,,,,2022-11-29,1,,,,,ウッディー,0
107,1030001151243,新規,0,2022-11-29,2022-11-29,株式会社ＡＭＡＮ,,株式会社,埼玉県,八潮市,中央２丁目２４番地１２泉コートビレッジ２０１,,11,234,3400816,,,,,,,2022-11-29,1,,,,,アマン,0
113,1030005021079,新規,0,2022-11-29,2022-11-29,特定非営利活動法人ココカラ,,その他の設立登記法人,埼玉県,新座市,新座３丁目４番４３号,,11,230,3520006,,,,,,,2022-11-29,1,,,,,ココカラ,0
116,1040001126038,新規,0,2022-11-29,2022-11-29,株式会社ＫＯＰＳ,,株式会社,千葉県,船橋市,前原西２丁目１４－２,,12,204,2740825,,,,,,,2022-11-29,1,,,,,コップス,0
118,1040005021821,新規,0,2022-11-29,2022-11-29,ＮＰＯ法人おむすび,,その他の設立登記法人,千葉県,松戸市,小金上総町５番地の１５号,,12,207,2700015,,,,,,,2022-11-29,1,,,,,オムスビ,0
121,1050001052010,新規,0,2022-11-29,2022-11-29,株式会社あけぼのホールディングス,,株式会社,茨城県,坂東市,沓掛３２４４番地５,,08,228,3060515,,,,,,,2022-11-29,1,,,,,アケボノホールディングス,0
122,1050003007053,新規,0,2022-11-29,2022-11-29,合同会社ピットブル,,合同会社,茨城県,つくば市,谷田部２９５８,,08,220,3050861,,,,,,,2022-11-29,1,,,,,ピットブル,0
129,1060001035468,新規,0,2022-11-29,2022-11-29,株式会社瑞穂の国,,株式会社,栃木県,宇都宮市,東木代町６１５番地,,09,201,3210916,,,,,,,2022-11-29,1,,,,,ミズホノクニ,0
132,1060003004306,新規,0,2022-11-29,2022-11-29,合同会社Ｌｅｆｉｘ,,合同会社,栃木県,足利市,本城２丁目１９０２番地セントラルコーポ６０１号室,,09,202,3260808,,,,,,,2022-11-29,1,,,,,リフィックス,0
133,1060003004322,新規,0,2022-11-29,2022-11-29,エイプス合同会社,,合同会社,栃木県,宇都宮市,幸町４番７号,,09,201,3200848,,,,,,,2022-11-29,1,,,,,エイプス,0
137,1070005010053,新規,0,2022-11-29,2022-11-29,一般社団法人天彩,,その他の設立登記法人,群馬県,高崎市,旭町２４番地２ニュースタイルビル１Ｆ,,10,202,3700052,,,,,,,2022-11-29,1,,,,,ノア,0
140,1080003002902,新規,0,2022-11-29,2022-11-29,合同会社松美堂,,合同会社,静岡県,静岡市葵区,竜南３丁目１２番３０号,,22,101,4200804,,,,,,,2022-11-29,1,,,,,ショウビドウ,0
155,1120001250523,新規,0,2022-11-29,2022-11-29,ヘルミュリー貿易株式会社,,株式会社,大阪府,大阪市東成区,深江北３丁目４番２１号エクラ深江橋６１２Ｂ,,27,115,5370001,,,,,,,2022-11-29,1,,,,,ヘルミュリーボウエキ,0
156,1120001250564,新規,0,2022-11-29,2022-11-29,株式会社メイプルライト,,株式会社,大阪府,大阪市中央区,島之内２丁目１４番２１号おおきに堺筋八幡町ビル６０２号,,27,128,5420082,,,,,,,2022-11-29,1,,,,,メイプルライト,0
169,1130001073171,新規,0,2022-11-29,2022-11-29,株式会社ＡＳＯＢＩ　ＡＮＤ　ＰＬＡＹ,,株式会社,京都府,京都市南区,東九条西明田町４３番地の１５,,26,107,6018045,,,,,,,2022-11-29,1,,,,,アソビアンドプレイ,0
170,1130001073196,新規,0,2022-11-29,2022-11-29,株式会社Ｉｍｍｐｒｅｘ,,株式会社,京都府,木津川市,城山台７丁目１５番地９,,26,214,6190218,,,,,,,2022-11-29,1,,,,,インプレックス,0
174,1140001128189,新規,0,2022-11-29,2022-11-29,株式会社ＣＯＣＯＨＯＵＳＥ,,株式会社,兵庫県,洲本市,五色町鮎原南谷６６７番地３,,28,205,6561325,,,,,,,2022-11-29,1,,,,,ココハウス,0
177,1140003018413,新規,0,2022-11-29,2022-11-29,ＡＬＯＴ合同会社,,合同会社,兵庫県,高砂市,阿弥陀１丁目１７－３,,28,216,6760815,,,,,,,2022-11-29,1,,,,,アロット,0
182,1160001024667,新規,0,2022-11-29,2022-11-29,株式会社滋ノ八,,株式会社,滋賀県,近江八幡市,安土町西老蘇４７８番地１,,25,204,5211334,,,,,,,2022-11-29,1,,,,,シノヤ,0
195,1180305009412,新規,0,2022-11-29,2022-11-29,協同組合金剛サービス,,その他の設立登記法人,愛知県,豊田市,和会町東郷１２０番地２,,23,211,4701216,,,,,,,2022-11-29,1,,,,,コンゴウサービス,0
209,1260005011164,新規,0,2022-11-29,2022-11-29,医療法人社団彩明会,,その他の設立登記法人,岡山県,倉敷市,昭和１丁目２－３７,,33,202,7100057,,,,,,,2022-11-29,1,,,,,シャダンサイメイカイ,0
210,1280003001669,新規,0,2022-11-29,2022-11-29,合同会社ＳＥＯ観光開発,,合同会社,島根県,松江市,北堀町３１８番地,,32,201,6900888,,,,,,,2022-11-29,1,,,,,エスイーオーカンコウカイハツ,0
217,1290001099696,新規,0,2022-11-29,2022-11-29,福岡印刷機械株式会社,,株式会社,福岡県,筑紫野市,紫１丁目４番１３号,,40,217,8180061,,,,,,,2022-11-29,1,,,,,フクオカインサツキカイ,0
218,1290001099721,新規,0,2022-11-29,2022-11-29,燦栄コンサルティング株式会社,,株式会社,福岡県,糟屋郡粕屋町,大字仲原２６２５－１－４０９,,40,349,8112304,,,,,,,2022-11-29,1,,,,,サンエイコンサルティング,0
222,1290003013250,新規,0,2022-11-29,2022-11-29,合同会社Ｓａｌｏｎ　ｄｅ　Ｓａｔｓｕｋｉ,,合同会社,福岡県,福岡市中央区,薬院４丁目１５番１０－２０１号グランドパレス浄水通り,,40,133,8100022,,,,,,,2022-11-29,1,,,,,サロンドサツキ,0
223,1290801029076,新規,0,2022-11-29,2022-11-29,株式会社ＲｅａｌｉｓｔｉｃＪＰ,,株式会社,福岡県,直方市,大字上境２８８７番地１６,,40,204,8220006,,,,,,,2022-11-29,1,,,,,リアリスティックジェイピー,0
224,1290803004275,新規,0,2022-11-29,2022-11-29,清滝４４３８合同会社,,合同会社,福岡県,北九州市門司区,清滝４丁目４番３８号,,40,101,8010833,,,,,,,2022-11-29,1,,,,,キヨタキヨンヨンサンハチ,0
226,1300005007117,新規,0,2022-11-29,2022-11-29,一般社団法人Ｊプラス,,その他の設立登記法人,佐賀県,佐賀市,大財北町６番８号,,41,201,8400802,,,,,,,2022-11-29,1,,,,,ジェイプラス,0
228,1310001018141,新規,0,2022-11-29,2022-11-29,ＡＬＰＨＡ株式会社,,株式会社,長崎県,佐世保市,新田町６１９番地１１ＧｒａｎｄＣｈａｒｉｏｔ４－１,,42,202,8580913,,,,,,,2022-11-29,1,,,,,アルファ,0
229,1320001019436,新規,0,2022-11-29,2022-11-29,株式会社グッドワーク,,株式会社,大分県,中津市,大字宮夫１４１番地７,,44,203,8710012,,,,,,,2022-11-29,1,,,,,グッドワーク,0
234,1340003003980,新規,0,2022-11-29,2022-11-29,合同会社ＬＩＮＫ,,合同会社,鹿児島県,霧島市,隼人町見次５１３番地３,,46,218,8995117,,,,,,,2022-11-29,1,,,,,リンク,0
239,1390001017078,新規,0,2022-11-29,2022-11-29,さるわーれ株式会社,,株式会社,山形県,山形市,西田５丁目７番５号,,06,201,9900831,,,,,,,2022-11-29,1,,,,,サルワーレ,0
243,1430001087942,新規,0,2022-11-29,2022-11-29,株式会社アウェイク,,株式会社,北海道,札幌市東区,北三十一条東１丁目２番１－３０３号,,01,103,0650031,,,,,,,2022-11-29,1,,,,,アウェイク,0
244,1430001087950,新規,0,2022-11-29,2022-11-29,株式会社ＶＲＯＯＭ,,株式会社,北海道,苫小牧市,新明町２丁目３番３号,,01,213,0530055,,,,,,,2022-11-29,1,,,,,ヴルーム,0
245,1430003014498,新規,0,2022-11-29,2022-11-29,合同会社ＭＹ　ＣＡＳＡ,,合同会社,北海道,小樽市,銭函１丁目２１番２１,,01,203,0470261,,,,,,,2022-11-29,1,,,,,マイカサ,0
246,1440001009193,新規,0,2022-11-29,2022-11-29,株式会社北海道セントラルキッチン,,株式会社,北海道,函館市,本町３２番１３号第４ＬＣ舘４Ｆ－Ａ,,01,202,0400011,,,,,,,2022-11-29,1,,,,,ホッカイドウセントラルキッチン,0
268,2010001231079,新規,0,2022-11-29,2022-11-29,株式会社リノタス,,株式会社,東京都,千代田区,神田松永町１８番地２秋葉原ノースコート,,13,101,1010023,,,,,,,2022-11-29,1,,,,,リノタス,0
269,2010001231120,新規,0,2022-11-29,2022-11-29,ＩＮＯＳＡＫＩ株式会社,,株式会社,東京都,千代田区,九段南１丁目５番６号りそな九段ビル５Ｆ,,13,101,1020074,,,,,,,2022-11-29,1,,,,,イノサキ,0
270,2010001231153,新規,0,2022-11-29,2022-11-29,感恩ホールディングス株式会社,,株式会社,東京都,千代田区,神田紺屋町８番地２,,13,101,1010035,,,,,,,2022-11-29,1,,,,,カンオンホールディングス,0
276,2010003039165,新規,0,2022-11-29,2022-11-29,ＣＡＮＤＹ　ＣＡＮＤＹ合同会社,,合同会社,東京都,文京区,湯島３丁目３５－８コア湯島ビル６０１,,13,105,1130034,,,,,,,2022-11-29,1,,,,,キャンディーキャンディー,0
277,2010003039173,新規,0,2022-11-29,2022-11-29,ジャパンマネー合同会社,,合同会社,東京都,文京区,小石川３丁目１６番１３－１０１号,,13,105,1120002,,,,,,,2022-11-29,1,,,,,ジャパンマネー,0
278,2010003039181,新規,0,2022-11-29,2022-11-29,合同会社ＴＫＳ,,合同会社,東京都,文京区,湯島３丁目３７番１１号,,13,105,1130034,,,,,,,2022-11-29,1,,,,,ティーケーエス,0
279,2010003039198,新規,0,2022-11-29,2022-11-29,カタリスト戦略投資１号合同会社,,合同会社,東京都,千代田区,永田町２丁目１１番１号,,13,101,1000014,,,,,,,2022-11-29,1,,,,,カタリストセンリャクトウシイチゴウ,0
290,2010401170942,新規,0,2022-11-29,2022-11-29,株式会社ＬＵＸＵＲＹ　ＡＭＢＥＲ,,株式会社,東京都,港区,赤坂９丁目１番７－８０８号,,13,103,1070052,,,,,,,2022-11-29,1,,,,,ラグジュアリーアンバー,0
291,2010401171032,新規,0,2022-11-29,2022-11-29,株式会社ＮＩＫＯＬＡ　ＴＥＣＨＮＯＬＯＧＹ,,株式会社,東京都,港区,芝大門２丁目７番１号,,13,103,1050012,,,,,,,2022-11-29,1,,,,,ニコラテクノロジー,0
292,2010401171065,新規,0,2022-11-29,2022-11-29,株式会社アメンドクロス,,株式会社,東京都,港区,南青山３丁目１番３６号青山丸竹ビル６Ｆ,,13,103,1070062,,,,,,,2022-11-29,1,,,,,アメンドクロス,0
294,2010403028981,新規,0,2022-11-29,2022-11-29,合同会社ＥｘｏＥａｒｔｈ,,合同会社,東京都,港区,浜松町２丁目４番１号,,13,103,1050013,,,,,,,2022-11-29,1,,,,,エクソアース,0
298,2010601062221,新規,0,2022-11-29,2022-11-29,株式会社データアーチ,,株式会社,東京都,墨田区,立花３丁目１０番９号,,13,107,1310043,,,,,,,2022-11-29,1,,,,,データアーチ,0
304,2010703006489,新規,0,2022-11-29,2022-11-29,にゃーん合同会社,,合同会社,東京都,品川区,西五反田７丁目２２ＴＯＣビル１２Ｆ－５１号室,,13,109,1410031,,,,,,,2022-11-29,1,,,,,ニャーン,0
308,2011001151201,新規,0,2022-11-29,2022-11-29,株式会社７ＯＰＥＲＡＴＩＯＮＳ,,株式会社,東京都,渋谷区,渋谷３丁目１９番１号,,13,113,1500002,,,,,,,2022-11-29,1,,,,,ナナオペレーションズ,0
309,2011003015809,新規,0,2022-11-29,2022-11-29,エミリー合同会社,,合同会社,東京都,渋谷区,道玄坂１丁目１０番８号渋谷道玄坂東急ビル２Ｆ―Ｃ,,13,113,1500043,,,,,,,2022-11-29,1,,,,,エミリー,0
312,2011101100966,新規,0,2022-11-29,2022-11-29,株式会社Ｓ・Ｌａｂｏｒａｔｏｒｙ,,株式会社,東京都,新宿区,新宿５丁目２－７,,13,104,1600022,,,,,,,2022-11-29,1,,,,,エスラボラトリー,0
313,2011101100999,新規,0,2022-11-29,2022-11-29,Ｄｉｃｅ＆Ｋｅｙ株式会社,,株式会社,東京都,新宿区,西新宿４丁目３５番３４号グランバリュー西新宿４０６,,13,104,1600023,,,,,,,2022-11-29,1,,,,,ダイスアンドキー,0
316,2011103012425,新規,0,2022-11-29,2022-11-29,合同会社友人,,合同会社,東京都,新宿区,西新宿３丁目３番１３号西新宿水間ビル２Ｆ,,13,104,1600023,,,,,,,2022-11-29,1,,,,,ユウジン,0
317,2011103012433,新規,0,2022-11-29,2022-11-29,長興合同会社,,合同会社,東京都,新宿区,新宿５丁目１０番４号ＨＹＤビル１０１号室,,13,104,1600022,,,,,,,2022-11-29,1,,,,,チョウコウ,0
318,2011201024256,新規,0,2022-11-29,2022-11-29,株式会社ＴＬＤ,,株式会社,東京都,中野区,南台２丁目１８番３号和暢ビル２Ｆ,,13,114,1640014,,,,,,,2022-11-29,1,,,,,ティーエルディー,0
321,2011501028717,新規,0,2022-11-29,2022-11-29,徽煌株式会社,,株式会社,東京都,北区,西ケ原１丁目３７番１３号,,13,117,1140024,,,,,,,2022-11-29,1,,,,,キコウ,0
322,2011503005375,新規,0,2022-11-29,2022-11-29,合同会社ＪＡＰＡＮ‐ＵＺＢＥＫ,,合同会社,東京都,北区,神谷１丁目７番１２－１０３号フローラ神谷橋,,13,117,1150043,,,,,,,2022-11-29,1,,,,,ジャパンウズベク,0
328,2012401039911,新規,0,2022-11-29,2022-11-29,株式会社すきまデザイン,,株式会社,東京都,多摩市,永山２丁目１－１－１１０２,,13,224,2060025,,,,,,,2022-11-29,1,,,,,スキマデザイン,0
336,2013301049975,新規,0,2022-11-29,2022-11-29,＿＿株式会社,00128622,株式会社,東京都,豊島区,高田１丁目１７番３号子野ビル３０１,,13,116,1710033,,,,,,,2022-11-29,1,,,,,キンギョク,0
337,2013301049983,新規,0,2022-11-29,2022-11-29,株式会社Ｗｏｎｄｅｒ　Ｒｉｓｅ,,株式会社,東京都,豊島区,南大塚３丁目３６番７号南大塚Ｔ＆Ｔビル６Ｆ,,13,116,1700005,,,,,,,2022-11-29,1,,,,,ワンダーライズ,0
338,2013301049991,新規,0,2022-11-29,2022-11-29,株式会社アイティーノン,,株式会社,東京都,豊島区,東池袋４丁目２６－１３東栄ビル,,13,116,1700013,,,,,,,2022-11-29,1,,,,,アイティーノン,0
339,2013301050000,新規,0,2022-11-29,2022-11-29,株式会社テラサキ企画,,株式会社,東京都,豊島区,東池袋１丁目１７番１１号パークハイツ池袋１１０５号,,13,116,1700013,,,,,,,2022-11-29,1,,,,,テラサキキカク,0
340,2013303006388,新規,0,2022-11-29,2022-11-29,合同会社ヒカリ,,合同会社,東京都,豊島区,東池袋３丁目８番８－６０４号,,13,116,1700013,,,,,,,2022-11-29,1,,,,,ヒカリ,0
346,2020001149139,新規,0,2022-11-29,2022-11-29,株式会社１０００,,株式会社,神奈川県,横浜市中区,相生町２丁目５２番地金子ビル３Ｆ,,14,104,2310012,,,,,,,2022-11-29,1,,,,,セン,0
347,2020001149147,新規,0,2022-11-29,2022-11-29,株式会社加瀬プランナー,,株式会社,神奈川県,横浜市港北区,新横浜３丁目１９番１１号,,14,109,2220033,,,,,,,2022-11-29,1,,,,,カセプランナー,0
355,2021003012425,新規,0,2022-11-29,2022-11-29,合同会社ＩＷＩ,,合同会社,神奈川県,横須賀市,ハイランド４丁目２０番１８号,,14,201,2390833,,,,,,,2022-11-29,1,,,,,アイダブリューアイ,0
361,2030001151168,新規,0,2022-11-29,2022-11-29,株式会社ＥＬＥＧＡＮＣＥ,,株式会社,埼玉県,さいたま市西区,宮前町２０９３番地２アムール宮前２０２,,11,101,3310046,,,,,,,2022-11-29,1,,,,,エレガンス,0
362,2030001151218,新規,0,2022-11-29,2022-11-29,株式会社共栄インベスト,,株式会社,埼玉県,八潮市,八潮８丁目８番地８－２０５号,,11,234,3400815,,,,,,,2022-11-29,1,,,,,キョウエイインベスト,0
363,2030001151242,新規,0,2022-11-29,2022-11-29,株式会社Ｔ　Ｃｏｒｐｏｒａｔｉｏｎ,,株式会社,埼玉県,深谷市,菅沼９４番地５,,11,218,3691104,,,,,,,2022-11-29,1,,,,,ティーコーポレーション,0
371,2050001052018,新規,0,2022-11-29,2022-11-29,株式会社デイズ,,株式会社,茨城県,つくば市,自由ケ丘８２４番地１１,,08,220,3001266,,,,,,,2022-11-29,1,,,,,デイズ,0
374,2050003007052,新規,0,2022-11-29,2022-11-29,Ｌｅｔ’ｓ合同会社,,合同会社,茨城県,ひたちなか市,大字三反田３４６６－１８,,08,221,3120021,,,,,,,2022-11-29,1,,,,,レッツ,0
376,2060001035483,新規,0,2022-11-29,2022-11-29,株式会社ＪＯＹ,,株式会社,栃木県,宇都宮市,東簗瀬１丁目４番地１８カーサエテルナＩ１０５号,00128611,09,201,3210925,,,,,,,2022-11-29,1,,,,,ジョイ,0
379,2080003002901,新規,0,2022-11-29,2022-11-29,合同会社松寿堂,,合同会社,静岡県,静岡市葵区,竜南３丁目１２番３０号,,22,101,4200804,,,,,,,2022-11-29,1,,,,,ショウジュドウ,0
381,2110001037136,新規,0,2022-11-29,2022-11-29,花菱株式会社,,株式会社,新潟県,新潟市中央区,姥ケ山５丁目１６番１２号,,15,103,9500923,,,,,,,2022-11-29,1,,,,,ハナビシ,0
390,2120001250514,新規,0,2022-11-29,2022-11-29,株式会社ハッピーマンゴー,,株式会社,大阪府,大阪市北区,芝田２丁目８番１１号共栄ビル３Ｆ,,27,127,5300012,,,,,,,2022-11-29,1,,,,,ハッピーマンゴー,0
391,2120001250605,新規,0,2022-11-29,2022-11-29,株式会社みおつくしパートナーズ,,株式会社,大阪府,大阪市淀川区,加島４丁目５番３－２１１号,,27,123,5320031,,,,,,,2022-11-29,1,,,,,ミオツクシパートナーズ,0
395,2120003022952,新規,0,2022-11-29,2022-11-29,合同会社ＭＳ,,合同会社,大阪府,大阪市都島区,都島中通３丁目２番１５号,,27,102,5340022,,,,,,,2022-11-29,1,,,,,エムエス,0
396,2120003022960,新規,0,2022-11-29,2022-11-29,合同会社エコパワー２,,合同会社,大阪府,大阪市北区,梅田１丁目１番３号大阪駅前第３ビル２４階,,27,127,5300001,,,,,,,2022-11-29,1,,,,,エコパワーツー,0
397,2120101066595,新規,0,2022-11-29,2022-11-29,株式会社モウリック,,株式会社,大阪府,泉佐野市,鶴原１７０１番地の１,,27,213,5980071,,,,,,,2022-11-29,1,,,,,モウリック,0
413,2130001073154,新規,0,2022-11-29,2022-11-29,Ａｌｔｈａｅａアシスト株式会社,,株式会社,京都府,京都市南区,八条源町１１０番地１０,,26,107,6018477,,,,,,,2022-11-29,1,,,,,アルテアアシスト,0
415,2130003008348,新規,0,2022-11-29,2022-11-29,合同会社ＮＬＰＯ,,合同会社,京都府,長岡京市,神足３丁目１８番３２号,,26,209,6170833,,,,,,,2022-11-29,1,,,,,エヌエルピーオー,0
416,2140001044253,新規,0,2022-11-29,2022-11-29,松景精麦株式会社,,株式会社,兵庫県,高砂市,高砂町藍屋町１６９２番地,,28,216,6760037,,,,,,,2022-11-29,1,,,,,マツカゲセイバク,0
417,2140001128188,新規,0,2022-11-29,2022-11-29,株式会社ＴＣＨ,,株式会社,兵庫県,神戸市中央区,元町通２丁目９番１号元町プラザ６０１－Ａ号,,28,110,6500022,,,,,,,2022-11-29,1,,,,,ティーシーエイチ,0
420,2140003018412,新規,0,2022-11-29,2022-11-29,合同会社Ａ．Ｉ．,,合同会社,兵庫県,明石市,大久保町高丘５丁目３番地の２、５９棟５０１号,,28,203,6740057,,,,,,,2022-11-29,1,,,,,エイアイ,0
423,2140005026388,新規,0,2022-11-29,2022-11-29,一般社団法人小野・中川記念協会,,その他の設立登記法人,兵庫県,姫路市,八代本町１丁目１０番７号,,28,201,6700874,,,,,,,2022-11-29,1,,,,,オノナカガワキネンキョウカイ,0
424,2170001017388,新規,0,2022-11-29,2022-11-29,株式会社スパイスカンパニー,,株式会社,和歌山県,岩出市,溝川１８８番地の１（Ａ号）,,30,209,6496221,,,,,,,2022-11-29,1,,,,,スパイスカンパニー,0
429,2180001153950,新規,0,2022-11-29,2022-11-29,株式会社ＨＡＵＯＬＩ,,株式会社,愛知県,名古屋市北区,楠１丁目１１１２番地の６,,23,103,4620012,,,,,,,2022-11-29,1,,,,,ハウオリ,0
430,2180001153975,新規,0,2022-11-29,2022-11-29,株式会社Ｗｉｔｈ,,株式会社,愛知県,名古屋市中区,丸の内３丁目２３番２３号リエトコート丸の内２０３号,,23,106,4600002,,,,,,,2022-11-29,1,,,,,ウィズ,0
431,2180001153983,新規,0,2022-11-29,2022-11-29,ＡＲＭＯＲ株式会社,,株式会社,愛知県,あま市,下萱津江西４７番メルシーハイツ１０１号,,23,237,4901114,,,,,,,2022-11-29,1,,,,,アーマー,0
445,2200005013413,新規,0,2022-11-29,2022-11-29,和良村農業會,,その他の設立登記法人,岐阜県,郡上市,和良町大字下洞７６１番地の２,,21,219,5014200,,,,,,,2022-11-29,1,,,,,ワラムラノウギョウカイ,0
449,2240001060711,新規,0,2022-11-29,2022-11-29,株式会社ｃｉｒｃｌｅ８,,株式会社,広島県,広島市西区,井口１丁目６番３５号,,34,104,7330842,,,,,,,2022-11-29,1,,,,,サークルエイト,0
456,2290001099712,新規,0,2022-11-29,2022-11-29,株式会社ｋ‐ｓｐａｃｅ,,株式会社,福岡県,福岡市中央区,春吉２丁目９番１号ファロディハルヨシＩＩ６０３,00128617,40,133,8100003,,,,,,,2022-11-29,1,,,,,ケースペース,0
466,2330001030341,新規,0,2022-11-29,2022-11-29,株式会社鰻福,,株式会社,熊本県,宇城市,三角町三角浦３１９番地の１,,43,213,8693207,,,,,,,2022-11-29,1,,,,,マンプク,0
467,2350003004226,新規,0,2022-11-29,2022-11-29,合同会社アイセル,,合同会社,宮崎県,宮崎市,青島６丁目１５番３号,,45,201,8892162,,,,,,,2022-11-29,1,,,,,アイセル,0
468,2350005006121,新規,0,2022-11-29,2022-11-29,ＡＣにちなん事業協同組合,,その他の設立登記法人,宮崎県,日南市,園田２丁目１番地１,,45,204,8870012,,,,,,,2022-11-29,1,,,,,エーシーニチナン,0
472,2360003012483,新規,0,2022-11-29,2022-11-29,合同会社シムズ,,合同会社,沖縄県,宜野湾市,普天間１丁目１４番１３号,,47,205,9012202,,,,,,,2022-11-29,1,,,,,シムズ,0
473,2370001049295,新規,0,2022-11-29,2022-11-29,株式会社チバ塗装,,株式会社,宮城県,仙台市泉区,西田中字並木南３番地の１,,04,105,9813224,,,,,,,2022-11-29,1,,,,,チバトソウ,0
474,2370001049304,新規,0,2022-11-29,2022-11-29,株式会社友善,,株式会社,宮城県,黒川郡大郷町,粕川字海老沢南１３番地の１,,04,422,9813502,,,,,,,2022-11-29,1,,,,,ユウゼン,0
475,2370001049312,新規,0,2022-11-29,2022-11-29,株式会社ニコラ,,株式会社,宮城県,仙台市青葉区,立町１番１４―３０３号,,04,101,9800822,,,,,,,2022-11-29,1,,,,,ニコラ,0
490,2400005008285,新規,0,2022-11-29,2022-11-29,一般社団法人セレアード,,その他の設立登記法人,岩手県,盛岡市,北山１丁目５番３２号,,03,201,0200061,,,,,,,2022-11-29,1,,,,,セレアード,0
500,2460101007284,新規,0,2022-11-29,2022-11-29,株式会社三協漁販,,株式会社,北海道,帯広市,西十一条北３丁目１番地１シンセイパレスＢ棟宅建事務所２Ｆ,,01,207,0800041,,,,,,,2022-11-29,1,,,,,サンキョウギョハン,0
505,2700150113074,新規,0,2022-11-29,2022-11-29,ＴＯＦＦＳＴＥＣＨＮＯＬＯＧＩＥＳＰＴＥ．ＬＴＤ,,外国会社等,東京都,台東区,千束３丁目２１－１２キートスビル３０３号室,,13,106,1110031,１１４ＬａｖｅｎｄａｒＳｔｒｅｅｔ，＃０９－５３，ＣＴＨＵＢ２Ｓｉｎｇａｐｏｒｅ３３８７２９,,,,,,2022-11-29,1,,,,,トツフズテクノロジーズプライベートリミテツド,0
513,3010001230377,新規,0,2022-11-29,2022-11-29,ＮｅｗＴｒｉｇｇｅｒ株式会社,,株式会社,東京都,千代田区,内幸町２丁目１－１飯野ビルディング９階,,13,101,1000011,,,,,,,2022-11-29,1,,,,,ニュートリガー,0
514,3010001231128,新規,0,2022-11-29,2022-11-29,株式会社さくら会計,,株式会社,東京都,中央区,佃１丁目１１番９－３００８号,,13,102,1040051,,,,,,,2022-11-29,1,,,,,サクラカイケイ,0
515,3010001231144,新規,0,2022-11-29,2022-11-29,株式会社Ｍｉｌｌｉｏｎ　Ｂａｎａｎａ,,株式会社,東京都,千代田区,麹町２丁目６－７ＳｔａｒＢｕｉｌｄｉｎｇ５階,,13,101,1020083,,,,,,,2022-11-29,1,,,,,,0
522,3010003039156,新規,0,2022-11-29,2022-11-29,合同会社ソーシャルデザインコレクティブ,,合同会社,東京都,中央区,銀座１丁目１２番４号Ｎ＆ＥＢＬＤ．６Ｆ,,13,102,1040061,,,,,,,2022-11-29,1,,,,,ソーシャルデザインコレクティブ,0
523,3010003039172,新規,0,2022-11-29,2022-11-29,合同会社八千代上高野太陽光発電所,,合同会社,東京都,千代田区,神田和泉町１番地２の７,,13,101,1010024,,,,,,,2022-11-29,1,,,,,ヤチヨカミコウヤタイヨウコウハツデンショ,0
524,3010003039206,新規,0,2022-11-29,2022-11-29,合同会社ＨＫ　ＳＥＲＶＩＣＥ　ＪＡＰＡＮ,,合同会社,東京都,千代田区,紀尾井町４－１ガーデンタワー１０Ｆ,,13,101,1020094,,,,,,,2022-11-29,1,,,,,エイチケーサービスジャパン,0
529,3010005035839,新規,0,2022-11-29,2022-11-29,一般財団法人ＣＲＯＳＳ‐ＢＥＥジュニアアスリートファンデーション,,その他の設立登記法人,東京都,千代田区,紀尾井町１番１１号,,13,101,1020094,,,,,,,2022-11-29,1,,,,,クロスビージュニアアスリートファンデーション,0
530,3010101015430,新規,0,2022-11-29,2022-11-29,株式会社ＣＯＲＥ,,株式会社,東京都,八王子市,中野町２２１４番地８,,13,201,1920015,,,,,,,2022-11-29,1,,,,,コア,0
540,3010401171056,新規,0,2022-11-29,2022-11-29,株式会社ＦＲＣ,,株式会社,東京都,港区,赤坂２丁目２３番１号アークヒルズフロントタワー１１０１,,13,103,1070052,,,,,,,2022-11-29,1,,,,,エフアールシー,0
544,3010501049680,新規,0,2022-11-29,2022-11-29,逸福株式会社,,株式会社,東京都,台東区,三ノ輪２丁目３番８号,,13,106,1100011,,,,,,,2022-11-29,1,,,,,イチフク,0
545,3010503006795,新規,0,2022-11-29,2022-11-29,あずきビール合同会社,,合同会社,東京都,台東区,根岸３丁目７番１２号,,13,106,1100003,,,,,,,2022-11-29,1,,,,,アズキビール,0
547,3010601062220,新規,0,2022-11-29,2022-11-29,竹高株式会社,,株式会社,東京都,墨田区,横川３丁目６番７号２－Ｆ室,,13,107,1300003,,,,,,,2022-11-29,1,,,,,タケタカ,0
554,3010701043533,新規,0,2022-11-29,2022-11-29,株式会社ＹＡＹＡ,,株式会社,東京都,品川区,上大崎２丁目２番２８号,,13,109,1410021,,,,,,,2022-11-29,1,,,,,ヤヤ,0
555,3010703006488,新規,0,2022-11-29,2022-11-29,合同会社林,,合同会社,東京都,品川区,大崎３丁目１番５号ルミネ五反田第２－２０２号室,,13,109,1410032,,,,,,,2022-11-29,1,,,,,ハヤシ,0
560,3010903007798,新規,0,2022-11-29,2022-11-29,Ｌａｎａｉ合同会社,,合同会社,東京都,世田谷区,等々力６丁目１５番５－８０６号,,13,112,1580082,,,,,,,2022-11-29,1,,,,,ラナイ,0
564,3011001151035,新規,0,2022-11-29,2022-11-29,株式会社ＹＯＬＯ,,株式会社,東京都,渋谷区,神宮前６丁目２３－４桑野ビル２Ｆ,,13,113,1500001,,,,,,,2022-11-29,1,,,,,ヨロ,0
569,3011103012440,新規,0,2022-11-29,2022-11-29,カドマル合同会社,,合同会社,東京都,新宿区,西新宿３丁目３番１３号西新宿水間ビル２Ｆ,,13,104,1600023,,,,,,,2022-11-29,1,,,,,カドマル,0
572,3011303004584,新規,0,2022-11-29,2022-11-29,合同会社木子,,合同会社,東京都,杉並区,荻窪５丁目２７番６号中島第一ビル３Ｆ,,13,115,1670051,,,,,,,2022-11-29,1,,,,,モクシ,0
574,3011501028708,新規,0,2022-11-29,2022-11-29,インスピラジャパン株式会社,,株式会社,東京都,北区,赤羽１丁目３０番１１－３０６号,,13,117,1150045,,,,,,,2022-11-29,1,,,,,インスピラジャパン,0
575,3011501028716,新規,0,2022-11-29,2022-11-29,株式会社Ｌｆｏｒｇｅ,,株式会社,東京都,北区,赤羽北３丁目５－３２ＭＡＸＩＶ北赤羽ＤＵＥ４０２,,13,117,1150052,,,,,,,2022-11-29,1,,,,,エルフォージ,0
576,3011503005374,新規,0,2022-11-29,2022-11-29,合同会社ＨＭ　Ｓａｒｋｅｒ,,合同会社,東京都,北区,中十条２丁目１番９号チェリー荘２階２０１号室,,13,117,1140032,,,,,,,2022-11-29,1,,,,,エイチエムサルケル,0
582,3011701025810,新規,0,2022-11-29,2022-11-29,株式会社Ｅ．Ｉ．Ｇ,,株式会社,東京都,江戸川区,西小松川町６番１１号,,13,123,1320032,,,,,,,2022-11-29,1,,,,,イーアイジー,0
592,3012403005704,新規,0,2022-11-29,2022-11-29,ＡＫＩ　ＨＲサポート合同会社,,合同会社,東京都,府中市,四谷１丁目３８番地の１‐３１０,,13,206,1830035,,,,,,,2022-11-29,1,,,,,アキエイチアールサポート,0
594,3013101009063,新規,0,2022-11-29,2022-11-29,株式会社山慶ホーム,,株式会社,東京都,青梅市,河辺町５丁目２９番地の３５ササキビル３０１号,,13,205,1980036,,,,,,,2022-11-29,1,,,,,ヤマケイホーム,0
599,3013301049990,新規,0,2022-11-29,2022-11-29,株式会社ＪＪ,,株式会社,東京都,豊島区,雑司が谷３丁目９－９目白日加商事ビル２０３,,13,116,1710032,,,,,,,2022-11-29,1,,,,,ジェイジェイ,0
600,3013301049999,新規,0,2022-11-29,2022-11-29,株式会社Ｑｕｅｅｎ　ｂｅｅ,,株式会社,東京都,豊島区,池袋２丁目１３番４号天翔オフィス池袋西口２０９,,13,116,1710014,,,,,,,2022-11-29,1,,,,,クイーンビー,0
612,3020001149138,新規,0,2022-11-29,2022-11-29,株式会社マクアイコンサルティング,,株式会社,神奈川県,横浜市西区,北幸２丁目１０番地２８号むつみビル３Ｆ,,14,103,2200004,,,,,,,2022-11-29,1,,,,,マクアイコンサルティング,0
613,3020001149146,新規,0,2022-11-29,2022-11-29,株式会社加瀬サポート,,株式会社,神奈川県,川崎市幸区,中幸町３丁目２６番地２４クレッセント川崎タワー３８０１,,14,132,2120012,,,,,,,2022-11-29,1,,,,,カセサポート,0
614,3020001149187,新規,0,2022-11-29,2022-11-29,株式会社ＴＯＤ,,株式会社,神奈川県,横浜市戸塚区,戸塚町７１９番地４,,14,110,2440003,,,,,,,2022-11-29,1,,,,,ティーオーディー,0
616,3020003022813,新規,0,2022-11-29,2022-11-29,ミラクルスマイルインターフェース合同会社,,合同会社,神奈川県,川崎市中原区,上平間２３７番地メゾンマリーナ１０２,,14,133,2110013,,,,,,,2022-11-29,1,,,,,ミラクルスマイルインターフェース,0
617,3021001077543,新規,0,2022-11-29,2022-11-29,株式会社鳳来工業,,株式会社,神奈川県,綾瀬市,小園１２５２番地２３,,14,218,2521121,,,,,,,2022-11-29,1,,,,,ホウライコウギョウ,0
621,3021003012432,新規,0,2022-11-29,2022-11-29,ＹＳＫ３合同会社,,合同会社,神奈川県,厚木市,宮の里４丁目２番１１号,,14,212,2430216,,,,,,,2022-11-29,1,,,,,ワイエスケースリー,0
628,3030001151217,新規,0,2022-11-29,2022-11-29,株式会社ヒロ川口,,株式会社,埼玉県,川口市,本蓮２丁目１８番１０号,00128612,11,203,3340076,,,,,,,2022-11-29,1,,,,,ヒロカワグチ,0
633,3030003020642,新規,0,2022-11-29,2022-11-29,ＡＷＡＫＥＳ合同会社,,合同会社,埼玉県,さいたま市大宮区,桜木町２丁目３番地大宮マルイ７階,,11,103,3300854,,,,,,,2022-11-29,1,,,,,アウェイクス,0
643,3040003021334,新規,0,2022-11-29,2022-11-29,ＧＲＥＥＮ　ＮＩＰＰ０Ｎ合同会社,,合同会社,千葉県,印西市,滝９９５番１６,,12,231,2702328,,,,,,,2022-11-29,1,,,,,グリーンニッポン,0
644,3040003021359,新規,0,2022-11-29,2022-11-29,合同会社ＹＵＫＡＩ,,合同会社,千葉県,木更津市,東太田１丁目９－４６ほっともっと東太田店,,12,206,2920043,,,,,,,2022-11-29,1,,,,,ユカイ,0
652,3070003004732,新規,0,2022-11-29,2022-11-29,合同会社高柳,,合同会社,群馬県,吾妻郡中之条町,大字中之条町６９３－１,,10,421,3770424,,,,,,,2022-11-29,1,,,,,タカヤナギ,0
653,3080001025317,新規,0,2022-11-29,2022-11-29,株式会社Ｎ・Ｍ・Ｃ,,株式会社,静岡県,焼津市,中根３５３番地の３,,22,212,4250061,,,,,,,2022-11-29,1,,,,,エヌエムシー,0
658,3100001035908,新規,0,2022-11-29,2022-11-29,株式会社ａｉ‐ｉｒｏ,,株式会社,長野県,佐久市,岩村田１３４３番地８グレーヌＢ,,20,217,3850022,,,,,,,2022-11-29,1,,,,,アイイロ,0
667,3120001250521,新規,0,2022-11-29,2022-11-29,璞爵株式会社,,株式会社,大阪府,大阪市東成区,深江北３丁目４番２１号エクラ深江橋６１２Ａ,,27,115,5370001,,,,,,,2022-11-29,1,,,,,ボクシャク,0
668,3120001250579,新規,0,2022-11-29,2022-11-29,新東洋商事株式会社,,株式会社,大阪府,大阪市生野区,中川４丁目４番６号,,27,116,5440005,,,,,,,2022-11-29,1,,,,,シントウヨウショウジ,0
669,3120001250587,新規,0,2022-11-29,2022-11-29,日本軟水株式会社,,株式会社,大阪府,大阪市天王寺区,上本町５丁目７番２号,,27,109,5430001,,,,,,,2022-11-29,1,,,,,ニホンナンスイ,0
670,3120001250604,新規,0,2022-11-29,2022-11-29,ＨＡＬサーマルエンジ株式会社,,株式会社,大阪府,大阪市住吉区,遠里小野６丁目１３番１７号,,27,120,5580032,,,,,,,2022-11-29,1,,,,,ハルサーマルエンジ,0
674,3120003022951,新規,0,2022-11-29,2022-11-29,合同会社アサヒ環境,,合同会社,大阪府,大阪市浪速区,元町１丁目２番５号１２０６,,27,111,5560016,,,,,,,2022-11-29,1,,,,,アサヒカンキョウ,0
682,3120103004940,新規,0,2022-11-29,2022-11-29,合同会社らいふ,,合同会社,大阪府,松原市,田井城２丁目２番２－４３４号,,27,217,5800044,,,,,,,2022-11-29,1,,,,,ライフ,0
684,3120903004388,新規,0,2022-11-29,2022-11-29,合同会社ファミリーツリー,,合同会社,大阪府,箕面市,桜ケ丘１丁目１０－１８,,27,220,5620046,,,,,,,2022-11-29,1,,,,,ファミリーツリー,0
692,3130001073153,新規,0,2022-11-29,2022-11-29,株式会社ＫＹＯＳＡＩ,,株式会社,京都府,綴喜郡宇治田原町,大字南小字上中道３番地の２,,26,344,6100241,,,,,,,2022-11-29,1,,,,,キョウサイ,0
699,3140001128179,新規,0,2022-11-29,2022-11-29,株式会社ジェティー,,株式会社,兵庫県,神戸市長田区,高取山町１丁目１７番１０号,,28,106,6530856,,,,,,,2022-11-29,1,,,,,ジェテイー,0
703,3150001025978,新規,0,2022-11-29,2022-11-29,株式会社蘇秀,,株式会社,奈良県,奈良市,横井３丁目１７５番地１０２号室,,29,201,6308422,,,,,,,2022-11-29,1,,,,,ソシュウ,0
707,3160001024665,新規,0,2022-11-29,2022-11-29,株式会社ワンエービー,,株式会社,滋賀県,草津市,若竹町８番３８号,,25,206,5250031,,,,,,,2022-11-29,1,,,,,ワンエービー,0
714,3180001153933,新規,0,2022-11-29,2022-11-29,株式会社ＨＯＭＥＹエンタープライズ,,株式会社,愛知県,名古屋市西区,名西２丁目２７番１９号,,23,104,4510064,,,,,,,2022-11-29,1,,,,,ホーミーエンタープライズ,0
715,3180001153999,新規,0,2022-11-29,2022-11-29,ＣＥＮＴＲＡＬ　ＣＯＬＬＥＧＥ　ＪＡＰＡＮ株式会社,,株式会社,愛知県,名古屋市名東区,宝が丘２６７番地の２,,23,115,4650043,,,,,,,2022-11-29,1,,,,,セントラルカレッジジャパン,0
719,3180301036846,新規,0,2022-11-29,2022-11-29,株式会社Ｉｎｆｌｉｇｈｔ,,株式会社,愛知県,豊橋市,つつじが丘３丁目６番地の８,,23,201,4400858,,,,,,,2022-11-29,1,,,,,インフライト,0
720,3180301036862,新規,0,2022-11-29,2022-11-29,株式会社ＡＯＩ,,株式会社,愛知県,岡崎市,江口１丁目３番地１３ラベリテ１０２号,,23,202,4440843,,,,,,,2022-11-29,1,,,,,アオイ,0
722,3190001029950,新規,0,2022-11-29,2022-11-29,株式会社ＨＯＭＥ　ＳＡＬＯＮ　Ｋ’Ｓ,,株式会社,三重県,亀山市,関町鷲山３０９番地１,,24,210,5191105,,,,,,,2022-11-29,1,,,,,ホームサロンケーズ,0
723,3190001029959,新規,0,2022-11-29,2022-11-29,株式会社ＭＩ,,株式会社,三重県,鈴鹿市,稲生塩屋２丁目６番１９号,,24,207,5100207,,,,,,,2022-11-29,1,,,,,エムアイ,0
734,3250001019862,新規,0,2022-11-29,2022-11-29,株式会社河本設備工業,,株式会社,山口県,岩国市,由宇町峇清５０９番地,,35,208,7401406,,,,,,,2022-11-29,1,,,,,カワモトセツビコウギョウ,0
740,3290001099711,新規,0,2022-11-29,2022-11-29,株式会社ロイズ・エスクローマネジメント,,株式会社,福岡県,糟屋郡志免町,南里２丁目１７番１９号,,40,343,8112207,,,,,,,2022-11-29,1,,,,,ロイズエスクローマネジメント,0
742,3290003013249,新規,0,2022-11-29,2022-11-29,ＶＰ　ＧＲＯＵＰ合同会社,,合同会社,福岡県,福岡市南区,塩原３丁目１４番２３号,,40,134,8150032,,,,,,,2022-11-29,1,,,,,ブイピーグループ,0
744,3290801029082,新規,0,2022-11-29,2022-11-29,株式会社福,,株式会社,福岡県,田川郡香春町,大字中津原１４５３番地１,,40,601,8221405,,,,,,,2022-11-29,1,,,,,フク,0
750,3320001019442,新規,0,2022-11-29,2022-11-29,株式会社豊国企画,,株式会社,大分県,大分市,大字横尾４３０７番地の１グランソレイユ小野Ａ　Ａ－１,,44,201,8700126,,,,,,,2022-11-29,1,,,,,トヨグニキカク,0
753,3330001030340,新規,0,2022-11-29,2022-11-29,株式会社エムエステート,,株式会社,熊本県,玉名市,横島町横島７１３４番地,,43,206,8650072,,,,,,,2022-11-29,1,,,,,エムエステート,0
755,3330003009606,新規,0,2022-11-29,2022-11-29,合同会社ＴＫＧ,,合同会社,熊本県,熊本市北区,津浦町４１番１２号,,43,105,8600088,,,,,,,2022-11-29,1,,,,,ティーケージー,0
761,3370001049278,新規,0,2022-11-29,2022-11-29,株式会社テコ,,株式会社,宮城県,仙台市宮城野区,東仙台２丁目３番１５－４０８号ベルシティ東仙台,,04,102,9830833,,,,,,,2022-11-29,1,,,,,テコ,0
762,3370001049311,新規,0,2022-11-29,2022-11-29,株式会社ｓｏａｎ,,株式会社,宮城県,仙台市泉区,西中山２丁目１０番９号,,04,105,9813218,,,,,,,2022-11-29,1,,,,,ソアン,0
767,3380005012652,新規,0,2022-11-29,2022-11-29,特定非営利活動法人Ｓｏｓｏｒａ　ｇａｒｄｅｎ,,その他の設立登記法人,福島県,福島市,三河南町１番２０号コラッセふくしま６階,,07,201,9608053,,,,,,,2022-11-29,1,,,,,ソソラガーデン,0
769,3410001013329,新規,0,2022-11-29,2022-11-29,株式会社Ｃａｒ　ｒｈｙｔｈｍ,,株式会社,秋田県,秋田市,土崎港相染町字中谷地１７６,,05,201,0110951,,,,,,,2022-11-29,1,,,,,カーリズム,0
774,3430001087940,新規,0,2022-11-29,2022-11-29,株式会社Ａ‐ｍａｐ,,株式会社,北海道,江別市,新栄台４６番地の２２,,01,217,0690806,,,,,,,2022-11-29,1,,,,,エーマップ,0
775,3430003014496,新規,0,2022-11-29,2022-11-29,合同会社ＳＴＹ,,合同会社,北海道,千歳市,桜木１丁目１２番４号,,01,224,0660071,,,,,,,2022-11-29,1,,,,,エスティワイ,0
784,3700150113073,新規,0,2022-11-29,2022-11-29,韓国中小ベンチャー企業振興公団　東京事務所,,外国会社等,東京都,港区,虎ノ門２丁目３－１７虎ノ門２丁目タワー１９Ｆ,,13,103,1050001,韓国慶尚南道晋州市東津路４３０（忠武公洞）,,,,,,2022-11-29,1,,,,,カンコクチユウシヨウベンチヤーキギヨウシンコウコウダントウキヨウジムシヨ,0
797,4010001231110,新規,0,2022-11-29,2022-11-29,ｇｆ．ＣＩＭ株式会社,,株式会社,東京都,中央区,日本橋富沢町９番１０号稲村ビル,,13,102,1030006,,,,,,,2022-11-29,1,,,,,ジーエフドットシム,0
798,4010001231168,新規,0,2022-11-29,2022-11-29,株式会社ｏｏｎａｍｉ,,株式会社,東京都,中央区,銀座１丁目１２番４号Ｎ＆ＥＢＬＤ．６Ｆ,,13,102,1040061,,,,,,,2022-11-29,1,,,,,オオナミ,0
802,4010003039163,新規,0,2022-11-29,2022-11-29,合同会社レーヴァティ３３０７,,合同会社,東京都,中央区,日本橋１丁目４番１号,,13,102,1030027,,,,,,,2022-11-29,1,,,,,レーヴァティサンサンゼロナナ,0
807,4010401171022,新規,0,2022-11-29,2022-11-29,ＮｅＵクリエイト株式会社,,株式会社,東京都,港区,新橋５丁目１２番１１号,,13,103,1050004,,,,,,,2022-11-29,1,,,,,ニュークリエイト,0
808,4010401171047,新規,0,2022-11-29,2022-11-29,株式会社Ｈ．Ｔ．Ｒ,,株式会社,東京都,港区,西麻布２丁目２５番１８号麻布パレス１階,,13,103,1060031,,,,,,,2022-11-29,1,,,,,エイチティーアール,0
809,4010401171055,新規,0,2022-11-29,2022-11-29,株式会社リタ,,株式会社,東京都,港区,浜松町２丁目２番１５号浜松町ダイヤビル２Ｆ,,13,103,1050013,,,,,,,2022-11-29,1,,,,,リタ,0
817,4010601062203,新規,0,2022-11-29,2022-11-29,福豊株式会社,,株式会社,東京都,江東区,有明１丁目４番２０－２２２８号,,13,108,1350063,,,,,,,2022-11-29,1,,,,,フクユタ,0
818,4010603009862,新規,0,2022-11-29,2022-11-29,ａｉｌｅ合同会社,,合同会社,東京都,江東区,東雲１丁目９番１９－１０１０号,,13,108,1350062,,,,,,,2022-11-29,1,,,,,エール,0
820,4010703006487,新規,0,2022-11-29,2022-11-29,合同会社ＩＦＯＧ,,合同会社,東京都,品川区,小山３丁目２２番４号ＧＵＲＡＮＭＯＮＡ－ＫＵＨＩＲＯＴＡ１０４,,13,109,1420062,,,,,,,2022-11-29,1,,,,,アイエフオージー,0
822,4010901052044,新規,0,2022-11-29,2022-11-29,株式会社ｓｋｅｌｅｔｏｎ　ｃｒｅｗ,,株式会社,東京都,世田谷区,池尻３丁目１５番５号,,13,112,1540001,,,,,,,2022-11-29,1,,,,,,0
824,4010903007797,新規,0,2022-11-29,2022-11-29,シェアードバリュー・コンサルティング合同会社,,合同会社,東京都,世田谷区,三軒茶屋２丁目５６―７―１６０４,,13,112,1540024,,,,,,,2022-11-29,1,,,,,シェアードバリューコンサルティング,0
836,4011001151190,新規,0,2022-11-29,2022-11-29,株式会社ＢＡＮＡＮＡ,,株式会社,東京都,目黒区,中町２丁目２２番１０号,,13,110,1530065,,,,,,,2022-11-29,1,,,,,バナナ,0
837,4011001151199,新規,0,2022-11-29,2022-11-29,株式会社キャンリブ神宮前,,株式会社,東京都,渋谷区,神宮前１丁目１－５,,13,113,1500001,,,,,,,2022-11-29,1,,,,,キャンリブジングウマエ,0
839,4011101100972,新規,0,2022-11-29,2022-11-29,ＭＪＫプランニング株式会社,,株式会社,東京都,新宿区,西落合２丁目１９番１８号,,13,104,1610031,,,,,,,2022-11-29,1,,,,,エムジェーケープランニング,0
841,4011103012423,新規,0,2022-11-29,2022-11-29,野村商事合同会社,,合同会社,東京都,新宿区,新宿７丁目１２―１１グローリオ東シンジュク４０２号室,,13,104,1600022,,,,,,,2022-11-29,1,,,,,ノムラショウジ,0
842,4011201024262,新規,0,2022-11-29,2022-11-29,株式会社ＭＳ　Ｃｏｍｐａｎｙ,,株式会社,東京都,中野区,東中野１丁目２８番６－１０２号,,13,114,1640003,,,,,,,2022-11-29,1,,,,,エムエスカンパニー,0
844,4011401024731,新規,0,2022-11-29,2022-11-29,大田貿易株式会社,,株式会社,東京都,板橋区,中台３丁目１９－５幸福ハウス２０３号,,13,119,1740064,,,,,,,2022-11-29,1,,,,,オオダボウエキ,0
845,4011501028673,新規,0,2022-11-29,2022-11-29,Ｂｌｕｅｒｏｓｅ　Ｒｅｓｅａｒｃｈ　Ｉｎｓｔｉｔｕｔｅ株式会社,,株式会社,東京都,北区,西ケ原２丁目８番１－４１８号,,13,117,1140024,,,,,,,2022-11-29,1,,,,,ブルーローズリサーチインスティチュート,0
850,4011503005373,新規,0,2022-11-29,2022-11-29,合同会社あん,,合同会社,東京都,北区,上十条５丁目２６番９号,,13,117,1140034,,,,,,,2022-11-29,1,,,,,アン,0
855,4011701025818,新規,0,2022-11-29,2022-11-29,株式会社ＧＥＲ,,株式会社,東京都,江戸川区,春江町３丁目３２番３号,,13,123,1320003,,,,,,,2022-11-29,1,,,,,ゲル,0
859,4011801041608,新規,0,2022-11-29,2022-11-29,株式会社グランエイト,,株式会社,東京都,足立区,平野２丁目８番２１号,,13,121,1210076,,,,,,,2022-11-29,1,,,,,グランエイト,0
880,4020001149145,新規,0,2022-11-29,2022-11-29,株式会社パルティノン,,株式会社,神奈川県,川崎市川崎区,砂子１丁目１番地１５,,14,131,2100006,,,,,,,2022-11-29,1,,,,,パルティノン,0
881,4020001149186,新規,0,2022-11-29,2022-11-29,ＧＴ株式会社,,株式会社,神奈川県,横浜市青葉区,市ケ尾町１１７０－６市ヶ尾内野ビル２０１,,14,117,2250024,,,,,,,2022-11-29,1,,,,,ブローバルトレード,0
888,4021001077542,新規,0,2022-11-29,2022-11-29,株式会社モアスタイル,,株式会社,神奈川県,相模原市南区,東林間４丁目３３番１２号,,14,153,2520311,,,,,,,2022-11-29,1,,,,,モアスタイル,0
889,4021001077550,新規,0,2022-11-29,2022-11-29,マイダス国際株式会社,,株式会社,神奈川県,厚木市,関口２９９番地３,,14,212,2430804,,,,,,,2022-11-29,1,,,,,マイダスコクサイ,0
890,4021001077559,新規,0,2022-11-29,2022-11-29,株式会社Ｃｏｍｍｏｎ　Ｆｅｅｌｓ,,株式会社,神奈川県,秦野市,南矢名２３２番地の３,,14,211,2570003,,,,,,,2022-11-29,1,,,,,コモンフィールズ,0
892,4021003012431,新規,0,2022-11-29,2022-11-29,合同会社ロハス,,合同会社,神奈川県,厚木市,戸室３丁目９番９号,,14,212,2430031,,,,,,,2022-11-29,1,,,,,ロハス,0
898,4030001151216,新規,0,2022-11-29,2022-11-29,株式会社峰喜,,株式会社,埼玉県,川口市,上青木西４丁目１番２４－５０６号,,11,203,3330845,,,,,,,2022-11-29,1,,,,,ミネキ,0
899,4030001151224,新規,0,2022-11-29,2022-11-29,株式会社Ｗｕｐ,,株式会社,埼玉県,上尾市,二ツ宮１０７６番地２７,,11,219,3620017,,,,,,,2022-11-29,1,,,,,ダブルアップ,0
900,4030001151232,新規,0,2022-11-29,2022-11-29,株式会社ＡｃｅＴｒｕｓｔ,,株式会社,埼玉県,さいたま市西区,大字中野林２８７番地,,11,101,3310057,,,,,,,2022-11-29,1,,,,,エーストラスト,0
913,4040001126027,新規,0,2022-11-29,2022-11-29,株式会社ＴＫサポートライフ,,株式会社,千葉県,船橋市,行田１丁目４８番６森田ビル３０２号,,12,204,2730044,,,,,,,2022-11-29,1,,,,,,0
916,4040003021366,新規,0,2022-11-29,2022-11-29,ＺＡＩＮＡ　ＴＲＡＤＩＮＧ合同会社,,合同会社,千葉県,山武郡芝山町,高田１１８０番地３のＣ,,12,409,2891623,,,,,,,2022-11-29,1,,,,,ザイナトレーディング,0
921,4080001025316,新規,0,2022-11-29,2022-11-29,株式会社駿河リフォーム,,株式会社,静岡県,静岡市葵区,羽鳥５丁目２２番６－１０３号,,22,101,4211215,,,,,,,2022-11-29,1,,,,,スルガリフォーム,0
942,4120001250586,新規,0,2022-11-29,2022-11-29,安創巨石株式会社,,株式会社,大阪府,大阪市城東区,新喜多２丁目３番２１号,,27,118,5360015,,,,,,,2022-11-29,1,,,,,アンソウキョセキ,0
943,4120001250594,新規,0,2022-11-29,2022-11-29,株式会社橋本商店,,株式会社,大阪府,大阪市浪速区,大国１丁目１番１４号,,27,111,5560014,,,,,,,2022-11-29,1,,,,,ハシモトショウテン,0
944,4120001250603,新規,0,2022-11-29,2022-11-29,株式会社Ｐｅａｃｅ,,株式会社,大阪府,大阪市北区,梅田１丁目２番２号大阪駅前第２ビル１２－１２,,27,127,5300001,,,,,,,2022-11-29,1,,,,,ピース,0
945,4120001250652,新規,0,2022-11-29,2022-11-29,日本シールディング株式会社,,株式会社,大阪府,大阪市北区,天満３丁目５番１３－６０５号,,27,127,5300043,,,,,,,2022-11-29,1,,,,,ニホンシールディング,0
951,4120903004379,新規,0,2022-11-29,2022-11-29,Ｍｅｄｕｓａ　Ｊａｐａｎ合同会社,,合同会社,大阪府,高槻市,宮野町８－２高槻野村マンション１０５,,27,207,5690081,,,,,,,2022-11-29,1,,,,,メデューサジャパン,0
959,4140001128178,新規,0,2022-11-29,2022-11-29,株式会社恵心エクスプレス,,株式会社,兵庫県,加古郡播磨町,南大中２丁目９番２５号２Ｆ－Ｂ,,28,382,6750147,,,,,,,2022-11-29,1,,,,,ケイシンエクスプレス,0
960,4140003018410,新規,0,2022-11-29,2022-11-29,合同会社カノン,,合同会社,兵庫県,川西市,鼓が滝３丁目１９番３７号,,28,217,6660123,,,,,,,2022-11-29,1,,,,,カノン,0
963,4150001025977,新規,0,2022-11-29,2022-11-29,株式会社ＹＳＲＩ,,株式会社,奈良県,生駒郡三郷町,三室２丁目２１番１０号,,29,343,6360802,,,,,,,2022-11-29,1,,,,,スリー,0
965,4160001024664,新規,0,2022-11-29,2022-11-29,株式会社ＤＡＯ,,株式会社,滋賀県,東近江市,平柳町１３８２,,25,213,5270102,,,,,,,2022-11-29,1,,,,,ダオ,0
966,4170003001792,新規,0,2022-11-29,2022-11-29,合同会社ＡＲＵＪＩＮＥＴ,,合同会社,和歌山県,和歌山市,雑賀町７１番地あるじビル１Ｆ,,30,201,6408108,,,,,,,2022-11-29,1,,,,,アルジネット,0
967,4180001153949,新規,0,2022-11-29,2022-11-29,株式会社ＳＨＩＮＥ　ＬＩＦＥ,,株式会社,愛知県,名古屋市千種区,春岡２丁目２３番１号,,23,101,4640848,,,,,,,2022-11-29,1,,,,,シャインライフ,0
968,4180001153973,新規,0,2022-11-29,2022-11-29,株式会社アイリス,,株式会社,愛知県,北名古屋市,沖村蔵前７４番地,,23,234,4810043,,,,,,,2022-11-29,1,,,,,アイリス,0
971,4180301036861,新規,0,2022-11-29,2022-11-29,株式会社Ｒｉｃｃｉｏ,,株式会社,愛知県,安城市,篠目町井山９８番地４１,,23,212,4460073,,,,,,,2022-11-29,1,,,,,リッチオ,0
972,4180303005518,新規,0,2022-11-29,2022-11-29,ＡＳＩＡ　ＦＯＯＤ合同会社,,合同会社,愛知県,豊田市,美山町４丁目１１番地１４マノワール美山１Ｆ,,23,211,4710849,,,,,,,2022-11-29,1,,,,,アジアフード,0
974,4190001029958,新規,0,2022-11-29,2022-11-29,株式会社インテリアシンガ,,株式会社,三重県,鈴鹿市,住吉２丁目１７番１号,,24,207,5130826,,,,,,,2022-11-29,1,,,,,インテリアシンガ,0
979,4200003005749,新規,0,2022-11-29,2022-11-29,合同会社安江機械,,合同会社,岐阜県,揖斐郡池田町,片山１６４３の６０,,21,404,5032428,,,,,,,2022-11-29,1,,,,,ヤスエキカイ,0
985,4220001025144,新規,0,2022-11-29,2022-11-29,株式会社モール,,株式会社,石川県,金沢市,新保本３丁目４３番地,,17,201,9218062,,,,,,,2022-11-29,1,,,,,モール,0
990,4230003001935,新規,0,2022-11-29,2022-11-29,ＳＵＣＣＥＳＳ合同会社,,合同会社,富山県,高岡市,大坪町３丁目８－４０,,16,202,9330918,,,,,,,2022-11-29,1,,,,,サクセス,0
992,4240001060701,新規,0,2022-11-29,2022-11-29,株式会社アイ・ソーイング瀬戸内,,株式会社,広島県,三原市,港町１丁目５番１９号,,34,204,7230017,,,,,,,2022-11-29,1,,,,,アイソーイングセトウチ,0
1007,4290001099727,新規,0,2022-11-29,2022-11-29,Ｍ８株式会社,,株式会社,福岡県,福岡市中央区,天神３丁目６番１２号天神岡部ＩＩビル１階,00128619,40,133,8100001,,,,,,,2022-11-29,1,,,,,エムエイト,0
1008,4290003013248,新規,0,2022-11-29,2022-11-29,ＧＲＥＥＮ合同会社,,合同会社,福岡県,福岡市東区,箱崎４丁目３４番１５号,,40,131,8120053,,,,,,,2022-11-29,1,,,,,グリーン,0
1014,4310001018139,新規,0,2022-11-29,2022-11-29,株式会社ゴーケア,,株式会社,長崎県,諫早市,幸町２９４番地１,,42,204,8540022,,,,,,,2022-11-29,1,,,,,ゴーケア,0
1016,4320001019441,新規,0,2022-11-29,2022-11-29,株式会社サイガン,,株式会社,大分県,宇佐市,大字高砂新田２７１番地の４,,44,211,8720046,,,,,,,2022-11-29,1,,,,,サイガン,0
1026,4360001031260,新規,0,2022-11-29,2022-11-29,株式会社将源,,株式会社,沖縄県,うるま市,勝連南風原６９５番地,,47,213,9042311,,,,,,,2022-11-29,1,,,,,ショウゲン,0
1027,4360001031269,新規,0,2022-11-29,2022-11-29,ＤＩＲＥＣＴ　ＡＳＩＡ株式会社,,株式会社,沖縄県,那覇市,泉崎１丁目１３番８号ハーモニー泉崎３階,,47,201,9000021,,,,,,,2022-11-29,1,,,,,ダイレクトアジア,0
1032,4360003012498,新規,0,2022-11-29,2022-11-29,合同会社ＲＩＫＩみれい,,合同会社,沖縄県,那覇市,字仲井真８９番地５,,47,201,9020074,,,,,,,2022-11-29,1,,,,,アールアイケーアイミレイ,0
1034,4370001049302,新規,0,2022-11-29,2022-11-29,株式会社センレイ,,株式会社,宮城県,大崎市,古川西館２丁目１番１２号,,04,215,9896156,,,,,,,2022-11-29,1,,,,,センレイ,0
1035,4370001049310,新規,0,2022-11-29,2022-11-29,株式会社ＩＦＵ住販,,株式会社,宮城県,仙台市青葉区,一番町４丁目９番１７号イワマビル５階,,04,101,9800811,,,,,,,2022-11-29,1,,,,,アイエフユージュウハン,0
1039,4370003005906,新規,0,2022-11-29,2022-11-29,合同会社ベアバレー,,合同会社,宮城県,仙台市青葉区,国分町３丁目１１番３０－２０６号,,04,101,9800803,,,,,,,2022-11-29,1,,,,,ベアバレー,0
1053,4440003001492,新規,0,2022-11-29,2022-11-29,合同会社エターナルヘルス,,合同会社,北海道,函館市,本町３６番８号,,01,202,0400011,,,,,,,2022-11-29,1,,,,,エターナルヘルス,0
1060,4700150052246,新規,0,2022-11-29,2015-10-09,絵のまち尾道四季展運営委員会,,その他,広島県,尾道市,西土堂町１７－１９尾道市立美術館内,,34,205,7220032,,,,,,,2015-10-09,1,,,,,エノマチオノミチシキテンウンエイイインカイ,0
1062,4700150112693,新規,0,2022-11-29,2022-11-10,鹿児島ミュージックユニオン,,その他,鹿児島県,西之表市,西之表６９６３,,46,213,8913101,,,,,,,2022-11-10,1,,,,,カゴシマミユージツクユニオン,0
1063,4700150113072,新規,0,2022-11-29,2022-11-29,ＡｎｈｕｉＣｈａｎｇｇａｎＮｅｔｗｏｒｋＴｅｃｈｎｏｌｏｇｙ,,外国会社等,,,,,,,,ｙｕ　ｓｈａｎ　ｑｕ，ｊｉｕ　ｈｕａ　ｘｉ　ｌｕ　１３６９　ｈａｏ，８　ｄｏｎｇ　３０２－２　ｓｈｉ　Ｍａ’ａｎｓｈａｎ　Ａｎｈｕｉ　ＣＮ　２４３０００,,,,,,2022-11-29,1,,,,,アンホイチヤンアンネツトワークテクノロジー,0
1068,5010001231092,新規,0,2022-11-29,2022-11-29,ＫＩＴＡＮＯ株式会社,,株式会社,東京都,千代田区,外神田２丁目１９番１２号お茶の水五島ビル１階,,13,101,1010021,,,,,,,2022-11-29,1,,,,,キタノ,0
1069,5010001231101,新規,0,2022-11-29,2022-11-29,株式会社マルシェコム,,株式会社,東京都,中央区,銀座１丁目３番１号,,13,102,1040061,,,,,,,2022-11-29,1,,,,,マルシェコム,0
1070,5010001231142,新規,0,2022-11-29,2022-11-29,Ｇｌｏｐｔｅｃ株式会社,,株式会社,東京都,千代田区,神田三崎町３丁目５番９号天翔オフィス水道橋３０５―Ｈ号,,13,101,1010061,,,,,,,2022-11-29,1,,,,,グロプテック,0
1071,5010001231167,新規,0,2022-11-29,2022-11-29,株式会社ＢＨ‐ＬＡＢＯ,,株式会社,東京都,中央区,銀座１丁目２２番１１号銀座大竹ビジデンス２階,,13,102,1040061,,,,,,,2022-11-29,1,,,,,ビーエイチラボ,0
1075,5010003039146,新規,0,2022-11-29,2022-11-29,合同会社ＲＡＩＳＥ,,合同会社,東京都,中央区,銀座１丁目１６番７号銀座大栄ビル５Ｆ,,13,102,1040061,,,,,,,2022-11-29,1,,,,,レイズ,0
1076,5010003039170,新規,0,2022-11-29,2022-11-29,ａｔｅｌｉｅｒ　ａｒａｓｈｉｍａ合同会社,,合同会社,東京都,中央区,銀座１丁目２２番１１号銀座大竹ビジデンス２階,,13,102,1040061,,,,,,,2022-11-29,1,,,,,アトリエアラシマ,0
1077,5010003039179,新規,0,2022-11-29,2022-11-29,合同会社ｅｎ,,合同会社,東京都,中央区,銀座１丁目１２番４号Ｎ＆ＥＢＬＤ．６Ｆ,,13,102,1040061,,,,,,,2022-11-29,1,,,,,エン,0
1078,5010003039187,新規,0,2022-11-29,2022-11-29,合同会社ストロベリー,,合同会社,東京都,中央区,日本橋１丁目４番１号日本橋一丁目ビルディング,,13,102,1030027,,,,,,,2022-11-29,1,,,,,ストロベリー,0
1079,5010101015429,新規,0,2022-11-29,2022-11-29,株式会社ＮＥＫＯＢＡＫＯ,,株式会社,東京都,八王子市,上野町２７番地３コスモス八王子３０１号,,13,201,1920902,,,,,,,2022-11-29,1,,,,,ネコバコ,0
1088,5010403028987,新規,0,2022-11-29,2022-11-29,ＫＥＩリニューアブルコンサルティング合同会社,,合同会社,東京都,港区,虎ノ門５丁目１３－１虎ノ門４０ＭＴビル７Ｆ,,13,103,1050001,,,,,,,2022-11-29,1,,,,,ケーイーアイリニューアブルコンサルティング,0
1090,5010601062210,新規,0,2022-11-29,2022-11-29,ＫＡＮＯ株式会社,,株式会社,東京都,江東区,亀戸５丁目１２番７号１Ｆ,,13,108,1360071,,,,,,,2022-11-29,1,,,,,カノ,0
1094,5010801033465,新規,0,2022-11-29,2022-11-29,株式会社ＦＬＥＵＲＩ,,株式会社,東京都,大田区,南雪谷１丁目１５番５号,,13,111,1450066,,,,,,,2022-11-29,1,,,,,フリューリ,0
1095,5010901052043,新規,0,2022-11-29,2022-11-29,丸家株式会社,,株式会社,東京都,世田谷区,奥沢６丁目２９番１号,,13,112,1580083,,,,,,,2022-11-29,1,,,,,マルヤ,0
1098,5011001151181,新規,0,2022-11-29,2022-11-29,株式会社プラグ,,株式会社,東京都,目黒区,目黒３丁目１１番９号,,13,110,1530063,,,,,,,2022-11-29,1,,,,,プラグ,0
1105,5011101100996,新規,0,2022-11-29,2022-11-29,亥生商事株式会社,,株式会社,東京都,新宿区,四谷４丁目２２番地第二富士川ビル２０１号室,,13,104,1600004,,,,,,,2022-11-29,1,,,,,カイセイショウジ,0
1107,5011103012439,新規,0,2022-11-29,2022-11-29,Ｔｅｃｃａ合同会社,,合同会社,東京都,新宿区,新宿５丁目１１番３０号,,13,104,1600022,,,,,,,2022-11-29,1,,,,,テッカ,0
1108,5011201024253,新規,0,2022-11-29,2022-11-29,株式会社ネクストクリーン,,株式会社,東京都,中野区,鷺宮１丁目１４番９号,,13,114,1650032,,,,,,,2022-11-29,1,,,,,ネクストクリーン,0
1111,5011303004582,新規,0,2022-11-29,2022-11-29,合同会社ロムルスパートナーズ,,合同会社,東京都,杉並区,成田東４丁目１０番１５号,,13,115,1660015,,,,,,,2022-11-29,1,,,,,ロムルスパートナーズ,0
1112,5011303004590,新規,0,2022-11-29,2022-11-29,合同会社ＴＡＫＥＩ,,合同会社,東京都,杉並区,高円寺南１丁目６番５号,,13,115,1660003,,,,,,,2022-11-29,1,,,,,タケイ,0
1113,5011403003831,新規,0,2022-11-29,2022-11-29,継志館ホールディング合同会社,,合同会社,東京都,板橋区,成増１丁目９番１１号クレスト成増１０７,,13,119,1750094,,,,,,,2022-11-29,1,,,,,ケイシカンホールディング,0
1118,5011605002482,新規,0,2022-11-29,2022-11-29,一般社団法人日本こども福祉支援協議会,,その他の設立登記法人,東京都,練馬区,北町８丁目３０番１６号コーポ細川３０３,,13,120,1790081,,,,,,,2022-11-29,1,,,,,ニホンコドモフクシシエンキョウギカイ,0
1121,5011701025817,新規,0,2022-11-29,2022-11-29,株式会社Ｓ‐ＫＨ,,株式会社,東京都,江戸川区,西小岩１丁目２７－２２ＡＭＡＺＩＮＧＴＯＷＮ３０１,,13,123,1330057,,,,,,,2022-11-29,1,,,,,エスケーエイチ,0
1122,5011801041607,新規,0,2022-11-29,2022-11-29,株式会社ＯＮＥ４ＡＬＬ,,株式会社,東京都,足立区,千住１丁目４番１号東京芸術センター１０Ｆ,,13,121,1200034,,,,,,,2022-11-29,1,,,,,ワンフォーオール,0
1124,5012301013220,新規,0,2022-11-29,2022-11-29,株式会社創和,,株式会社,東京都,町田市,森野２丁目１１番１４号,,13,209,1940022,,,,,,,2022-11-29,1,,,,,ソウワ,0
1137,5020001149111,新規,0,2022-11-29,2022-11-29,株式会社２１ＬＡＢ,,株式会社,神奈川県,横浜市青葉区,美しが丘４丁目２４番地２ＴＲＩＮＩＴＹ６,,14,117,2250002,,,,,,,2022-11-29,1,,,,,トエンティーワンラボ,0
1138,5020001149144,新規,0,2022-11-29,2022-11-29,株式会社Ａｎｇｌｅ　ａｎｄ　Ｄｅｐｔｈ,,株式会社,神奈川県,横浜市青葉区,美しが丘１丁目１３番地１０吉村ビル１０７号,,14,117,2250002,,,,,,,2022-11-29,1,,,,,アングルアンドデプス,0
1145,5020003022794,新規,0,2022-11-29,2022-11-29,合同会社ロックパートナー,,合同会社,神奈川県,横浜市西区,高島２丁目１１番２号スカイメナー横浜５１９,,14,103,2200011,,,,,,,2022-11-29,1,,,,,ロックパートナー,0
1146,5020003022811,新規,0,2022-11-29,2022-11-29,合同会社ロブコ,,合同会社,神奈川県,横浜市西区,浅間町１丁目４番３号ウィザードビル４０２,,14,103,2200072,,,,,,,2022-11-29,1,,,,,ロブコ,0
1150,5021001077558,新規,0,2022-11-29,2022-11-29,株式会社湘南創造,,株式会社,神奈川県,鎌倉市,玉縄３丁目５７１番地２,,14,204,2470071,,,,,,,2022-11-29,1,,,,,ショウナンソウゾウ,0
1159,5030001151198,新規,0,2022-11-29,2022-11-29,株式会社ＶＲＳ,,株式会社,埼玉県,比企郡吉見町,大字長谷１５２９番地,,11,347,3550156,,,,,,,2022-11-29,1,,,,,ブイアールエス,0
1160,5030001151223,新規,0,2022-11-29,2022-11-29,株式会社ナーフルマーモン,,株式会社,埼玉県,所沢市,大字山口１０２６番地２,,11,208,3591145,,,,,,,2022-11-29,1,,,,,ナーフルマーモン,0
1161,5030001151231,新規,0,2022-11-29,2022-11-29,株式会社ＧＯＬＤＦＩＲＳＴ,,株式会社,埼玉県,さいたま市桜区,山久保１丁目４番２７号,,11,106,3380821,,,,,,,2022-11-29,1,,,,,ゴールドファースト,0
1165,5040001125993,新規,0,2022-11-29,2022-11-29,株式会社ＷＡＫＵ　ＷＯＲＫ,,株式会社,千葉県,大網白里市,みどりが丘３丁目２１番地３６,,12,239,2993255,,,,,,,2022-11-29,1,,,,,ワクワーク,0
1166,5040001126034,新規,0,2022-11-29,2022-11-29,株式会社ＭＳ　ＪＡＰＡＮ　ＴＲＡＤＩＮＧ,,株式会社,千葉県,松戸市,栄町西１丁目７８１番地５,,12,207,2710061,,,,,,,2022-11-29,1,,,,,エムエスジャパントレーディング,0
1169,5040003021373,新規,0,2022-11-29,2022-11-29,合同会社ディーペック,,合同会社,千葉県,柏市,塚崎８９０番地１１,,12,217,2770923,,,,,,,2022-11-29,1,,,,,ディーペック,0
1183,5070003004730,新規,0,2022-11-29,2022-11-29,合同会社ＴａＡｉ,,合同会社,群馬県,館林市,尾曳町２３番５１号,,10,207,3740019,,,,,,,2022-11-29,1,,,,,タアイ,0
1204,5120001250404,新規,0,2022-11-29,2022-11-29,株式会社Ｆｏｒｔｉｍｅ,,株式会社,大阪府,大阪市淀川区,西中島６丁目３番２４号,,27,123,5320011,,,,,,,2022-11-29,1,,,,,フォータイム,0
1205,5120001250560,新規,0,2022-11-29,2022-11-29,株式会社フレックス,,株式会社,大阪府,大阪市住吉区,苅田９丁目９番２号,,27,120,5580011,,,,,,,2022-11-29,1,,,,,フレックス,0
1206,5120001250593,新規,0,2022-11-29,2022-11-29,株式会社Ｐｌａｎｔａｇｅ,,株式会社,大阪府,大阪市東住吉区,中野１丁目４番１号,,27,121,5460012,,,,,,,2022-11-29,1,,,,,プランテージ,0
1207,5120001250602,新規,0,2022-11-29,2022-11-29,株式会社Ｋ,,株式会社,大阪府,大阪市中央区,南船場４丁目１０番５号南船場ＳＯＨＯビル７０２,,27,128,5420081,,,,,,,2022-11-29,1,,,,,ケイ,0
1211,5120003022966,新規,0,2022-11-29,2022-11-29,真心会計合同会社,,合同会社,大阪府,大阪市阿倍野区,阪南町１丁目２２番９－９０２号,,27,119,5450021,,,,,,,2022-11-29,1,,,,,マゴコロカイケイ,0
1214,5120901046769,新規,0,2022-11-29,2022-11-29,株式会社新日本電力,,株式会社,大阪府,豊中市,服部本町５丁目１番１－４０１号,,27,203,5610852,,,,,,,2022-11-29,1,,,,,シンニホンデンリョク,0
1224,5130001073151,新規,0,2022-11-29,2022-11-29,株式会社京都ＲＯＯＦ,,株式会社,京都府,京都市伏見区,久我東町３番地４ローゼンハウス２０４号室,,26,109,6128494,,,,,,,2022-11-29,1,,,,,キョウトルーフ,0
1225,5130001073168,新規,0,2022-11-29,2022-11-29,株式会社ＴＯＰ　ＨＥＩＧＨＴＳ,,株式会社,京都府,京都市左京区,田中大堰町５２番地２,,26,103,6068202,,,,,,,2022-11-29,1,,,,,トップハイツ,0
1233,5140001128185,新規,0,2022-11-29,2022-11-29,株式会社ｓｏｒｔ,,株式会社,兵庫県,尼崎市,武庫之荘本町２丁目１６番８－１０２号,,28,202,6610031,,,,,,,2022-11-29,1,,,,,ソート,0
1234,5140001128193,新規,0,2022-11-29,2022-11-29,株式会社ＲＥ‐ＧＲＡＣＥ,,株式会社,兵庫県,芦屋市,陽光町８番２０－１１０３号,,28,206,6590034,,,,,,,2022-11-29,1,,,,,リーグレイス,0
1237,5150003002817,新規,0,2022-11-29,2022-11-29,合同会社心の友,,合同会社,奈良県,大和郡山市,九条町２０６番１８,,29,203,6391001,,,,,,,2022-11-29,1,,,,,ココロノトモ,0
1253,5180301036860,新規,0,2022-11-29,2022-11-29,株式会社ティーティーウー,,株式会社,愛知県,岡崎市,宇頭北町２丁目７番地８,,23,202,4440906,,,,,,,2022-11-29,1,,,,,ティーティーウー,0
1256,5200003005748,新規,0,2022-11-29,2022-11-29,合同会社ＭＴ２Ｈ,,合同会社,岐阜県,高山市,上二之町４４番地６,,21,203,5060845,,,,,,,2022-11-29,1,,,,,エムティーツーエイチ,0
1260,5220001025143,新規,0,2022-11-29,2022-11-29,アンカーウーマン金澤株式会社,,株式会社,石川県,金沢市,石引３丁目７‐１４,,17,201,9200935,,,,,,,2022-11-29,1,,,,,アンカーウーマンカナザワ,0
1264,5230001019615,新規,0,2022-11-29,2022-11-29,株式会社ＫＳＨ,,株式会社,富山県,富山市,新庄銀座３丁目５番８号,,16,201,9300991,,,,,,,2022-11-29,1,,,,,ケーエスエイチ,0
1267,5240001060700,新規,0,2022-11-29,2022-11-29,株式会社アイ・ソーイング関東,,株式会社,広島県,三原市,港町１丁目５番１９号,,34,204,7230017,,,,,,,2022-11-29,1,,,,,アイソーイングカントウ,0
1269,5260001037432,新規,0,2022-11-29,2022-11-29,株式会社鞘,,株式会社,岡山県,浅口郡里庄町,大字新庄３２５０番地２６,,33,445,7190302,,,,,,,2022-11-29,1,,,,,サヤ,0
1275,5290003013255,新規,0,2022-11-29,2022-11-29,ＧＴエナジー合同会社,,合同会社,福岡県,福岡市博多区,博多駅南３丁目１７－１９,,40,132,8120016,,,,,,,2022-11-29,1,,,,,ジーティーエナジー,0
1276,5290005018863,新規,0,2022-11-29,2022-11-29,ボーダレス・パートナーズ協同組合,,その他の設立登記法人,福岡県,福岡市東区,多の津４丁目１４番１号,,40,131,8130034,,,,,,,2022-11-29,1,,,,,ボーダレスパートナーズ,0
1280,5320001019440,新規,0,2022-11-29,2022-11-29,株式会社ＡＳジャパン,,株式会社,大分県,大分市,大字常行２１０番地の１８,,44,201,8700116,,,,,,,2022-11-29,1,,,,,エーエスジャパン,0
1282,5340001025206,新規,0,2022-11-29,2022-11-29,株式会社川崎農園,,株式会社,鹿児島県,奄美市,名瀬小浜町１６－２,,46,222,8940006,,,,,,,2022-11-29,1,,,,,カワサキノウエン,0
1298,5430001087955,新規,0,2022-11-29,2022-11-29,株式会社Ｋ’ｓ,,株式会社,北海道,札幌市中央区,南十一条西９丁目２番１１号,,01,101,0640811,,,,,,,2022-11-29,1,,,,,ケーズ,0
1306,5500001024620,新規,0,2022-11-29,2022-11-29,株式会社ｍｉｇｎｏｎ,,株式会社,愛媛県,松山市,西石井１丁目９番３６号クオリア２０８号,,38,201,7900931,,,,,,,2022-11-29,1,,,,,ミニョン,0
1307,5700150112536,新規,0,2022-11-29,2022-11-02,伴谷小学校地域学校協働本部,,その他,滋賀県,甲賀市,水口町伴中山２２５２,,25,209,5280064,,,,,,,2022-11-02,1,,,,,バンタニシヨウガツコウチイキガツコウキヨウドウホンブ,0
1308,5700150113071,新規,0,2022-11-29,2022-11-29,Ｇｕａｎｇｚｈｏｕ　Ｘｉａｏ　Ｊｉ　Ｋｕａｉ　Ｐａｏ　Ｗａｎｇ　Ｌｕｏ　Ｋｅ　Ｊｉ　Ｙｏｕ　Ｘｉａｎ,,外国会社等,,,,,,,,ＴｉａｎＨｅＱｕＪｉａｎＹｅＬｕＨｕａＣｕｉＪｉｅ　６８Ｈａｏ　３０１Ａ－１，６８　Ｈ　Ｇｕａｎｇｚｈｏｕ　Ｇｕａｎｇｄｏｎｇ　５１００００　ＣＮ,,,,,,2022-11-29,1,,,,,クワンチヨウシヤオジークアイパオワンルオクーチーヨウシエン,0
1314,6010001231117,新規,0,2022-11-29,2022-11-29,ＲＥＩエステート株式会社,,株式会社,東京都,千代田区,外神田６丁目１４番３号,,13,101,1010021,,,,,,,2022-11-29,1,,,,,レイエステート,0
1315,6010001231133,新規,0,2022-11-29,2022-11-29,株式会社Ｗｏｒｋ　Ｄｅｓｉｇｎ　Ｌａｂ,,株式会社,東京都,中央区,勝どき１丁目３番１－６１３号,,13,102,1040054,,,,,,,2022-11-29,1,,,,,ワークデザインラボ,0
1316,6010001231141,新規,0,2022-11-29,2022-11-29,Ｕｔｏ　Ｐａｙ株式会社,,株式会社,東京都,千代田区,丸の内１丁目６番５号丸の内北口ビルディング９階,,13,101,1000005,,,,,,,2022-11-29,1,,,,,ユートペイ,0
1317,6010001231190,新規,0,2022-11-29,2022-11-29,株式会社ソトコト・ネットワーク,,株式会社,東京都,千代田区,神田小川町２丁目１番２号シンコーミュージックプラザ東館７階,,13,101,1010052,,,,,,,2022-11-29,1,,,,,ソトコトネットワーク,0
1319,6010003039178,新規,0,2022-11-29,2022-11-29,合同会社エズエックス,,合同会社,東京都,千代田区,神田和泉町一丁目６番１６号,,13,101,1010024,,,,,,,2022-11-29,1,,,,,エズエックス,0
1320,6010003039186,新規,0,2022-11-29,2022-11-29,合同会社ＪＲＥＡＳＴファンド第５号,,合同会社,東京都,中央区,日本橋１丁目４番１号日本橋一丁目ビルディング,,13,102,1030027,,,,,,,2022-11-29,1,,,,,ジェイアールイーストファンドダイゴゴウ,0
1322,6010005035836,新規,0,2022-11-29,2022-11-29,一般社団法人つばさ,,その他の設立登記法人,東京都,中央区,日本橋１丁目４番１号日本橋一丁目ビルディング,,13,102,1030027,,,,,,,2022-11-29,1,,,,,ツバサ,0
1334,6010401171020,新規,0,2022-11-29,2022-11-29,匠芯株式会社,,株式会社,東京都,港区,浜松町２丁目２番１５号浜松町ダイヤビル２Ｆ,,13,103,1050013,,,,,,,2022-11-29,1,,,,,ショウシン,0
1335,6010401171061,新規,0,2022-11-29,2022-11-29,ＡＴＥＣ　Ｊａｐａｎ株式会社,,株式会社,東京都,港区,元麻布３丁目１番６号,,13,103,1060046,,,,,,,2022-11-29,1,,,,,エイテックジャパン,0
1339,6010405021618,新規,0,2022-11-29,2022-11-29,一般社団法人リデザインプロ,,その他の設立登記法人,東京都,港区,南青山２丁目２番１５号ウィン青山９４２,,13,103,1070062,,,,,,,2022-11-29,1,,,,,リデザインプロ,0
1341,6010501049678,新規,0,2022-11-29,2022-11-29,株式会社Ｌｅａｔｈｅｒ　Ｔｏｋｙｏ　Ｇｒｏｕｐ,,株式会社,東京都,台東区,花川戸２丁目３番５号,,13,106,1110033,,,,,,,2022-11-29,1,,,,,レザートウキョウグループ,0
1342,6010601062218,新規,0,2022-11-29,2022-11-29,金海国際株式会社,,株式会社,東京都,江東区,豊洲２丁目５番１号,,13,108,1350061,,,,,,,2022-11-29,1,,,,,キンカイコクサイ,0
1350,6010803004372,新規,0,2022-11-29,2022-11-29,総合ビジネスサポート合同会社,,合同会社,東京都,大田区,南雪谷１丁目４番地１６ドレッセ南雪谷６０４号,,13,111,1450066,,,,,,,2022-11-29,1,,,,,ソウゴウビジネスサポート,0
1352,6010903007812,新規,0,2022-11-29,2022-11-29,ＫＡＫＵＨＩＴＯ合同会社,,合同会社,東京都,世田谷区,上馬３丁目３番１４号,,13,112,1540011,,,,,,,2022-11-29,1,,,,,,0
1360,6011001151172,新規,0,2022-11-29,2022-11-29,株式会社Ａｒｔ　Ｒｅｐｕｂｌｉｃ,,株式会社,東京都,渋谷区,南平台町１６番１７号,,13,113,1500036,,,,,,,2022-11-29,1,,,,,アートリパブリック,0
1361,6011001151180,新規,0,2022-11-29,2022-11-29,株式会社ＢＬＵＲＲＥＤ,,株式会社,東京都,渋谷区,神宮前４丁目２８番７号ＲＤＭビル１Ｆ－２,,13,113,1500001,,,,,,,2022-11-29,1,,,,,ブラード,0
1366,6011003015805,新規,0,2022-11-29,2022-11-29,合同会社Ｔ．ＫＫＭ,,合同会社,東京都,目黒区,緑が丘２丁目２３番１４号,,13,110,1520034,,,,,,,2022-11-29,1,,,,,ティードットケイケイエム,0
1368,6011101100921,新規,0,2022-11-29,2022-11-29,株式会社ａｋｉｄｕｋｉ,,株式会社,東京都,新宿区,西新宿３丁目３番１３号西新宿水間ビル２Ｆ,,13,104,1600023,,,,,,,2022-11-29,1,,,,,アキヅキ,0
1369,6011101100954,新規,0,2022-11-29,2022-11-29,株式会社ＨＡＮＧＯＶＥＲ,,株式会社,東京都,新宿区,歌舞伎町２丁目２５番１１号兼六第五ビル地上４Ｆ－Ｂ室,,13,104,1600021,,,,,,,2022-11-29,1,,,,,ハングオーバー,0
1370,6011101100987,新規,0,2022-11-29,2022-11-29,株式会社Ｚ　ＬＡＮＤ,,株式会社,東京都,新宿区,富久町１５番１－３８０４号,,13,104,1620067,,,,,,,2022-11-29,1,,,,,ゼットランド,0
1377,6011501028688,新規,0,2022-11-29,2022-11-29,たまごデジタル株式会社,,株式会社,東京都,北区,浮間１丁目１番１４号リムジンビル２１２,,13,117,1150051,,,,,,,2022-11-29,1,,,,,タマゴデジタル,0
1378,6011501028713,新規,0,2022-11-29,2022-11-29,株式会社ブルーゴリヴィング,,株式会社,東京都,荒川区,西日暮里４丁目９番６号,,13,118,1160013,,,,,,,2022-11-29,1,,,,,ブルーゴリヴィング,0
1384,6011701025816,新規,0,2022-11-29,2022-11-29,八達嶺株式会社,,株式会社,東京都,江戸川区,南葛西５丁目１５番１０号ハビタシオン南葛西５０２,,13,123,1340085,,,,,,,2022-11-29,1,,,,,ハッタツレイ,0
1385,6011801041597,新規,0,2022-11-29,2022-11-29,ＢＬＵＥＳＵＮ　ＪＡＰＡＮ株式会社,,株式会社,東京都,葛飾区,白鳥４丁目１－２４白鳥ダイヤモンドマンション１号館１０２号,,13,122,1250063,,,,,,,2022-11-29,1,,,,,ブルーサンジャパン,0
1391,6012803002934,新規,0,2022-11-29,2022-11-29,全通合同会社,,合同会社,東京都,日野市,程久保３丁目３－１９－２０２,,13,212,1910042,,,,,,,2022-11-29,1,,,,,ゼンツウ,0
1395,6013301049996,新規,0,2022-11-29,2022-11-29,Ａ　Ｃｏｒｐｏｒａｔｉｏｎ株式会社,,株式会社,東京都,豊島区,巣鴨４丁目１２番２－６０４号,,13,116,1700002,,,,,,,2022-11-29,1,,,,,エーコーポレーション,0
1396,6013303006384,新規,0,2022-11-29,2022-11-29,ＶＥＲＹＳ合同会社,,合同会社,東京都,豊島区,南大塚２丁目３６番１－５１３号,,13,116,1700005,,,,,,,2022-11-29,1,,,,,ベリース,0
1402,6020001149168,新規,0,2022-11-29,2022-11-29,株式会社はだし,,株式会社,神奈川県,川崎市高津区,久地１丁目４７番３－１号,,14,134,2130032,,,,,,,2022-11-29,1,,,,,ハダシ,0
1407,6020003022793,新規,0,2022-11-29,2022-11-29,オフィス・アリア合同会社,,合同会社,神奈川県,横浜市神奈川区,白楽５１番地１４,,14,102,2210065,,,,,,,2022-11-29,1,,,,,オフィスアリア,0
1408,6020003022802,新規,0,2022-11-29,2022-11-29,ＪＡ　Ｉｎｔｅｒｎａｔｉｏｎａｌ合同会社,,合同会社,神奈川県,横浜市中区,山下町２番地産業貿易センタービル２階,,14,104,2310023,,,,,,,2022-11-29,1,,,,,ジェイエーインターナショナル,0
1409,6020003022810,新規,0,2022-11-29,2022-11-29,合同会社ＡＲＹ,,合同会社,神奈川県,横浜市中区,北仲通５丁目５７番地２ザ・タワー横浜北仲５４１６号室,,14,104,2310003,,,,,,,2022-11-29,1,,,,,エーアールワイ,0
1416,6021001077549,新規,0,2022-11-29,2022-11-29,ワクワクプラント株式会社,,株式会社,神奈川県,逗子市,逗子５丁目４番２５号,,14,208,2490006,,,,,,,2022-11-29,1,,,,,ワクワクプラント,0
1417,6021001077557,新規,0,2022-11-29,2022-11-29,サンクラフト株式会社,,株式会社,神奈川県,相模原市南区,相模台４丁目１３番４号,,14,153,2520321,,,,,,,2022-11-29,1,,,,,サンクラフト,0
1426,6030001151206,新規,0,2022-11-29,2022-11-29,株式会社エムワイホールディングス,,株式会社,埼玉県,日高市,大字女影１２８８番地,,11,242,3501227,,,,,,,2022-11-29,1,,,,,エムワイホールディングス,0
1427,6030001151222,新規,0,2022-11-29,2022-11-29,株式会社Ｋｙｏｇｏｋｕ,,株式会社,埼玉県,草加市,氷川町２１５２番地１,,11,221,3400034,,,,,,,2022-11-29,1,,,,,キョウゴク,0
1428,6030001151230,新規,0,2022-11-29,2022-11-29,株式会社ＵＳ．Ｄａｉｓｙ,,株式会社,埼玉県,上尾市,宮本町五丁目１７番,,11,219,3620036,,,,,,,2022-11-29,1,,,,,ユーエスデイジー,0
1434,6030003020648,新規,0,2022-11-29,2022-11-29,合同会社コバセイ,,合同会社,埼玉県,所沢市,小手指台７番地の２８,,11,208,3591148,,,,,,,2022-11-29,1,,,,,コバセイ,0
1439,6040001125992,新規,0,2022-11-29,2022-11-29,株式会社ＲＯＨＡ工務店,,株式会社,千葉県,船橋市,車方町１１３５番地１１,,12,204,2740051,,,,,,,2022-11-29,1,,,,,ロハコウムテン,0
1440,6040001126025,新規,0,2022-11-29,2022-11-29,株式会社ファブール,,株式会社,千葉県,南房総市,宮下４７番地６,,12,234,2992505,,,,,,,2022-11-29,1,,,,,ファブール,0
1441,6040001126033,新規,0,2022-11-29,2022-11-29,株式会社ＬＡＬ　ａｇｅｎｔ,,株式会社,千葉県,船橋市,夏見３丁目２５番３４号,,12,204,2730865,,,,,,,2022-11-29,1,,,,,ラルエージェント,0
1443,6040003021364,新規,0,2022-11-29,2022-11-29,合同会社アクマル自動車,,合同会社,千葉県,山武市,木原１４０８番地３０Ｂ,,12,237,2891212,,,,,,,2022-11-29,1,,,,,アクマルジドウシャ,0
1446,6050001052022,新規,0,2022-11-29,2022-11-29,ＡＭＡＮＤＥＥＰ株式会社,,株式会社,茨城県,水戸市,笠原町１４５６番地笠原ハイツ１１５号,,08,201,3100852,,,,,,,2022-11-29,1,,,,,アマンディープ,0
1447,6050003007057,新規,0,2022-11-29,2022-11-29,ｆｏｒｋｔａｉｌ合同会社,,合同会社,茨城県,つくば市,島名４４３６番地ガレリアヴェール１００２号,,08,220,3002655,,,,,,,2022-11-29,1,,,,,フォークテイル,0
1451,6070001039868,新規,0,2022-11-29,2022-11-29,ｊａｃｋ　ｓｔｙｌｅ株式会社,,株式会社,群馬県,高崎市,金古町５６７番地５,,10,202,3703511,,,,,,,2022-11-29,1,,,,,ジャックスタイル,0
1459,6100001035913,新規,0,2022-11-29,2022-11-29,株式会社ＭＡＳＡＬＵ,,株式会社,長野県,長野市,三輪５丁目１番２５号ＲＩＯｄｏｓ２０１,,20,201,3800803,,,,,,,2022-11-29,1,,,,,マサル,0
1462,6110003004915,新規,0,2022-11-29,2022-11-29,合同会社経営支援工房,,合同会社,新潟県,南魚沼郡湯沢町,大字湯沢１８３１番地,,15,461,9496101,,,,,,,2022-11-29,1,,,,,ケイエイシエンコウボウ,0
1471,6120001250592,新規,0,2022-11-29,2022-11-29,那由多企画株式会社,,株式会社,大阪府,大阪市此花区,酉島２丁目１番２９号,,27,104,5540051,,,,,,,2022-11-29,1,,,,,ナユタキカク,0
1472,6120001250601,新規,0,2022-11-29,2022-11-29,株式会社久喜,,株式会社,大阪府,大阪市淀川区,十八条１丁目１番３２－２０４号,,27,123,5320001,,,,,,,2022-11-29,1,,,,,クキ,0
1481,6130001073167,新規,0,2022-11-29,2022-11-29,株式会社弥ｓｕｋｅ,,株式会社,京都府,京都市中京区,新京極通薬師下る東側町５０７番地,,26,104,6040000,,,,,,,2022-11-29,1,,,,,ヤスケ,0
1482,6130003008328,新規,0,2022-11-29,2022-11-29,Ａｍｕｌｅｙ合同会社,,合同会社,京都府,京都市中京区,御池通東洞院東入笹屋町４３６永和御池ビル６０６号,,26,104,6048187,,,,,,,2022-11-29,1,,,,,アミュレイ,0
1486,6140001128192,新規,0,2022-11-29,2022-11-29,株式会社ＰＬＡＮＥＴ,,株式会社,兵庫県,宝塚市,逆瀬川１丁目１番４６号Ｍ・Ｔビル１０１号,,28,214,6650035,,,,,,,2022-11-29,1,,,,,プラネット,0
1488,6160001024670,新規,0,2022-11-29,2022-11-29,株式会社ファントムベリー,,株式会社,滋賀県,高島市,今津町今津１１１番地,,25,212,5201621,,,,,,,2022-11-29,1,,,,,ファントムベリー,0
1496,6190001029964,新規,0,2022-11-29,2022-11-29,株式会社ＬＯＧＯＳ,,株式会社,三重県,津市,雲出島貫町９２７番地１,,24,201,5140305,,,,,,,2022-11-29,1,,,,,ロゴス,0
1498,6200001040705,新規,0,2022-11-29,2022-11-29,Ｓ‐ｃｌａｓｓ株式会社,,株式会社,岐阜県,岐阜市,日光町１丁目１８番地,,21,201,5020933,,,,,,,2022-11-29,1,,,,,エスクラス,0
1506,6230003001933,新規,0,2022-11-29,2022-11-29,つばめ企画合同会社,,合同会社,富山県,射水市,橋下条１２２７番地１０,,16,211,9390332,,,,,,,2022-11-29,1,,,,,ツバメキカク,0
1509,6240001060716,新規,0,2022-11-29,2022-11-29,農丸株式会社,,株式会社,広島県,広島市安佐南区,伴南４丁目２３番２５号,,34,105,7313168,,,,,,,2022-11-29,1,,,,,,0
1521,6290001099709,新規,0,2022-11-29,2022-11-29,Ｗｏｒｋｅｒｓ　Ｂａｎｋ株式会社,,株式会社,福岡県,筑紫野市,大字筑紫２３番地１エフケイハイツ２０１号,,40,217,8180025,,,,,,,2022-11-29,1,,,,,ワーカーズバンク,0
1525,6290003013246,新規,0,2022-11-29,2022-11-29,合同会社ＹＡＳＡＫＩ,,合同会社,福岡県,福岡市博多区,下呉服町１０番３３－２０１号,,40,132,8120034,,,,,,,2022-11-29,1,,,,,ヤサキ,0
1535,6340001025205,新規,0,2022-11-29,2022-11-29,株式会社ＴＧトータルサービス,,株式会社,鹿児島県,出水市,高尾野町大久保３４９７番地３パインヒルズＣ号,,46,208,8990401,,,,,,,2022-11-29,1,,,,,ティージートータルサービス,0
1540,6360001031259,新規,0,2022-11-29,2022-11-29,株式会社ＧＬＡＳＳＳＥＮ,,株式会社,沖縄県,中頭郡読谷村,字伊良皆２３２－２、Ａ－４,,47,324,9040303,,,,,,,2022-11-29,1,,,,,グラッセン,0
1541,6360003012422,新規,0,2022-11-29,2022-11-29,ＩＮＫＳ合同会社,,合同会社,沖縄県,宮古島市,平良字東仲宗根８１２番地４,,47,214,9060007,,,,,,,2022-11-29,1,,,,,インクス,0
1543,6370001049283,新規,0,2022-11-29,2022-11-29,株式会社ゴジュウマル,,株式会社,宮城県,仙台市青葉区,一番町４丁目７番１号,,04,101,9800811,,,,,,,2022-11-29,1,,,,,ゴジュウマル,0
1544,6370001049300,新規,0,2022-11-29,2022-11-29,株式会社ニシザワ,,株式会社,宮城県,登米市,迫町佐沼字西佐沼１７３番地２,,04,212,9870511,,,,,,,2022-11-29,1,,,,,ニシザワ,0
1554,6430001087938,新規,0,2022-11-29,2022-11-29,株式会社Ａｉ　Ｍａｎｐｏｗｅｒ　Ａｇｅｎｃｙ,,株式会社,北海道,札幌市中央区,南八条西４丁目４２２番地,,01,101,0640808,,,,,,,2022-11-29,1,,,,,アイマンパワーエージェンシー,0
1563,6700150113070,新規,0,2022-11-29,2022-11-29,ＳＨＥＮＺＨＥＮ　ＳＨＩＴＵＯＬＥＨＵＷＡＩＨＵＯＤＯＮＧＹＯＵＸＩＡＮＧＯＧＮＳＩ,,外国会社等,,,,,,,,ＧＵＡＮＧＤＯＮＧＳＨＥＮＧ　ＳＨＥＮＺＨＥＮＳＨＩＱＩＡＮＨＡＩＳＨＥＮＧＡＮＧＨＥＺＵＯＱＵ，ＱＩＡＮＷＡＮＹＩＬＵ１ＨＡＯＡＤＯＮＧ２０１ＳＨＩ（ＲＵＺＨＵＳＨＥＮＺＨＥＮＳＨＩＱＩＡＮＨＡＩＳＨＡＮＧＷＵＭＩＳＨＵＹＯＵＸＩＡＮＧＯＮＧＳＩ）,,,,,,2022-11-29,1,,,,,シンセンシトウーレフーワイフオードンヨウシエンゴンス,0
1569,7010001231108,新規,0,2022-11-29,2022-11-29,株式会社ＭＩＲＡＩコーポレーション,,株式会社,東京都,千代田区,平河町２丁目７番１０号平河町レジデンス７０１号,,13,101,1020093,,,,,,,2022-11-29,1,,,,,ミライコーポレーション,0
1570,7010001231124,新規,0,2022-11-29,2022-11-29,株式会社ＭＫアセットマネジメント,,株式会社,東京都,千代田区,内幸町２丁目１番１号飯野ビルディング９階,,13,101,1000011,,,,,,,2022-11-29,1,,,,,エムケーアセットマネジメント,0
1571,7010001231140,新規,0,2022-11-29,2022-11-29,ＬＱインターナショナル株式会社,,株式会社,東京都,中央区,日本橋本町１丁目４番９号日本橋ＭＭＩビル９階,,13,102,1030023,,,,,,,2022-11-29,1,,,,,エルキューインターナショナル,0
1572,7010001231157,新規,0,2022-11-29,2022-11-29,株式会社ブルズテクノロジー,,株式会社,東京都,千代田区,東神田１丁目６－４,,13,101,1010031,,,,,,,2022-11-29,1,,,,,ブルズテクノロジー,0
1578,7010003039177,新規,0,2022-11-29,2022-11-29,合同会社ＫＵＲＯＫＩＮ　ＪＡＰＡＮ,,合同会社,東京都,中央区,銀座１丁目２２番１１号銀座大竹ビジデンス２階,,13,102,1040061,,,,,,,2022-11-29,1,,,,,クロキンジャパン,0
1579,7010003039202,新規,0,2022-11-29,2022-11-29,ＫＥＮＯＫＵＭＡＦＩＬＭＳ合同会社,,合同会社,東京都,中央区,銀座１丁目２２番１１号銀座大竹ビジデンス２階,,13,102,1040061,,,,,,,2022-11-29,1,,,,,ケノクマフィルムズ,0
1581,7010005035835,新規,0,2022-11-29,2022-11-29,一般社団法人Ｅｂｉｓｕ,,その他の設立登記法人,東京都,千代田区,丸の内３丁目１番１号東京共同会計事務所内,,13,101,1000005,,,,,,,2022-11-29,1,,,,,エビス,0
1590,7010401170772,新規,0,2022-11-29,2022-11-29,株式会社Ｕｋｉｍａ,,株式会社,東京都,港区,南青山５丁目４番１９号ザ・アッパーレジデンシィズ南青山４０４,,13,103,1070062,,,,,,,2022-11-29,1,,,,,ウキマ,0
1591,7010401171028,新規,0,2022-11-29,2022-11-29,株式会社ｍｉｚｕｋａ,,株式会社,東京都,港区,白金台２丁目１０番４－４０３号,,13,103,1080071,,,,,,,2022-11-29,1,,,,,ミズカ,0
1592,7010401171036,新規,0,2022-11-29,2022-11-29,ＬＵＸＯＲ株式会社,,株式会社,東京都,港区,六本木５丁目１５番２１－１０５号,,13,103,1060032,,,,,,,2022-11-29,1,,,,,ルクソール,0
1598,7010803004371,新規,0,2022-11-29,2022-11-29,合同会社コム・ア・ラ・メゾン,,合同会社,東京都,大田区,大森東１丁目３番２号Ｆメゾン１０４,,13,111,1430012,,,,,,,2022-11-29,1,,,,,コムアラメゾン,0
1603,7010903007778,新規,0,2022-11-29,2022-11-29,ボイスフレンズ合同会社,,合同会社,東京都,世田谷区,用賀４丁目１８―９サウンドプルーフプロ用賀２０２,,13,112,1580097,,,,,,,2022-11-29,1,,,,,ボイスフレンズ,0
1610,7011001150999,新規,0,2022-11-29,2022-11-29,株式会社ＤＡＷＮ,,株式会社,東京都,目黒区,目黒２丁目１０番８号第２アトモスフィア青山１０Ｆ,,13,110,1530063,,,,,,,2022-11-29,1,,,,,ドーン,0
1612,7011003015655,新規,0,2022-11-29,2022-11-29,合同会社Ｄｉｘｏｎ,,合同会社,東京都,渋谷区,神山町２８番１号,,13,113,1500047,,,,,,,2022-11-29,1,,,,,ディクソン,0
1613,7011003015804,新規,0,2022-11-29,2022-11-29,合同会社ＭＳ不動産,,合同会社,東京都,渋谷区,元代々木町４６番４－３０３号,,13,113,1510062,,,,,,,2022-11-29,1,,,,,エムエスフドウサン,0
1619,7011101100986,新規,0,2022-11-29,2022-11-29,株式会社ＳＳ未来投資,,株式会社,東京都,新宿区,富久町１５番１－３８０４号,,13,104,1620067,,,,,,,2022-11-29,1,,,,,エスエスミライトウシ,0
1620,7011103012429,新規,0,2022-11-29,2022-11-29,大宮商事合同会社,,合同会社,東京都,新宿区,下落合３丁目１２番２８－３０７号,,13,104,1610033,,,,,,,2022-11-29,1,,,,,オオミヤショウジ,0
1622,7011501028704,新規,0,2022-11-29,2022-11-29,株式会社アシスト,,株式会社,東京都,北区,十条仲原２丁目１２番２号,,13,117,1140031,,,,,,,2022-11-29,1,,,,,アシスト,0
1623,7011501028712,新規,0,2022-11-29,2022-11-29,株式会社プランＢ,,株式会社,東京都,荒川区,東尾久２丁目３５番６号,,13,118,1160012,,,,,,,2022-11-29,1,,,,,プランビー,0
1628,7011801041605,新規,0,2022-11-29,2022-11-29,株式会社ＦｏｃｕｓＦｏｏｄｓ,,株式会社,東京都,足立区,西新井本町２丁目１３番１７－３０５号,,13,121,1230845,,,,,,,2022-11-29,1,,,,,フォーカスフーズ,0
1631,7012403005700,新規,0,2022-11-29,2022-11-29,プンクテ合同会社,,合同会社,東京都,武蔵野市,吉祥寺本町１丁目２０番１号吉祥寺永谷シティプラザ１００２,,13,203,1800004,,,,,,,2022-11-29,1,,,,,プンクテ,0
1633,7012405004808,新規,0,2022-11-29,2022-11-29,ベネセレ福祉会ＮＰＯ法人旅する世界,,その他の設立登記法人,東京都,稲城市,東長沼２３０番地の６,,13,225,2060802,,,,,,,2022-11-29,1,,,,,ベネセレフクシカイエヌピーオーホウジンタビスルセカイ,0
1634,7012801021984,新規,0,2022-11-29,2022-11-29,慧晨国際株式会社,,株式会社,東京都,東大和市,新堀１丁目１４３２－８３ロイヤルコーポ２０２,,13,220,2070012,,,,,,,2022-11-29,1,,,,,エシンコクサイ,0
1644,7020001149175,新規,0,2022-11-29,2022-11-29,株式会社Ｋ’ｓ　Ｆａｃｔｏｒｙ,,株式会社,神奈川県,横浜市西区,浅間町１丁目１２番地４,,14,103,2200072,,,,,,,2022-11-29,1,,,,,ケーズファクトリー,0
1647,7020003022784,新規,0,2022-11-29,2022-11-29,いわ商事合同会社,,合同会社,神奈川県,横浜市中区,長者町８丁目１３３番地１,,14,104,2310033,,,,,,,2022-11-29,1,,,,,イワショウジ,0
1648,7020003022792,新規,0,2022-11-29,2022-11-29,合同会社邦,,合同会社,神奈川県,横浜市中区,山手町４６番地４,,14,104,2310862,,,,,,,2022-11-29,1,,,,,ホウ,0
1652,7021001077556,新規,0,2022-11-29,2022-11-29,株式会社ＣｉｔｒｕｓＣｏｍｐａｎｙ,,株式会社,神奈川県,藤沢市,城南４丁目５番１５号,,14,205,2510057,,,,,,,2022-11-29,1,,,,,シトラスカンパニー,0
1657,7021003012429,新規,0,2022-11-29,2022-11-29,合同会社ビーンズカンパニー,,合同会社,神奈川県,横須賀市,鴨居３丁目８７番１６－８号,,14,201,2390813,,,,,,,2022-11-29,1,,,,,,0
1658,7021003012437,新規,0,2022-11-29,2022-11-29,合同会社大石ホールディングス,,合同会社,神奈川県,海老名市,中野２丁目９番地２１号,,14,215,2430425,,,,,,,2022-11-29,1,,,,,オオイシホールディングス,0
1669,7030001151213,新規,0,2022-11-29,2022-11-29,株式会社マーキュリークリエイティブ,,株式会社,埼玉県,熊谷市,拾六間５０８番地２,,11,202,3600846,,,,,,,2022-11-29,1,,,,,マーキュリークリエイティブ,0
1670,7030001151246,新規,0,2022-11-29,2022-11-29,株式会社Ｂｌｉｔｚ,,株式会社,埼玉県,川口市,戸塚２丁目１８番２３号グランディールＩＩ２０２号,00128618,11,203,3330811,,,,,,,2022-11-29,1,,,,,ブリッツ,0
1677,7040001126008,新規,0,2022-11-29,2022-11-29,株式会社Ｓ・フィールド,,株式会社,千葉県,千葉市中央区,富士見１丁目７－４富士見ビル１階,,12,101,2600015,,,,,,,2022-11-29,1,,,,,エスフィールド,0
1679,7040003021363,新規,0,2022-11-29,2022-11-29,合同会社ＳＡＫＩＫＯ　ＴＲＡＤＩＮＧ,,合同会社,千葉県,白井市,中２７６番地６,,12,232,2701406,,,,,,,2022-11-29,1,,,,,サキコトレーディング,0
1680,7040003021371,新規,0,2022-11-29,2022-11-29,ＦＳＭ合同会社,,合同会社,千葉県,印西市,学園台三丁目６番７,,12,231,2701300,,,,,,,2022-11-29,1,,,,,エフエスエム,0
1683,7050003007023,新規,0,2022-11-29,2022-11-29,ふむふむ資産マネジメント合同会社,,合同会社,茨城県,つくば市,松野木１４１番地５,,08,220,3050056,,,,,,,2022-11-29,1,,,,,フムフムシサンマネジメント,0
1684,7060001035479,新規,0,2022-11-29,2022-11-29,株式会社想い出製作所,,株式会社,栃木県,宇都宮市,宝木本町１４４７番地５８宝木メゾネットＩ東側,00128610,09,201,3200075,,,,,,,2022-11-29,1,,,,,オモイデセイサクショ,0
1691,7080101023662,新規,0,2022-11-29,2022-11-29,台南通商株式会社,,株式会社,静岡県,富士市,岩本９１２番地,,22,210,4160901,,,,,,,2022-11-29,1,,,,,タイナンツウショウ,0
1693,7080403004666,新規,0,2022-11-29,2022-11-29,合同会社ゆいまぁーる,,合同会社,静岡県,浜松市南区,長田町１７番地の６,,22,134,4300832,,,,,,,2022-11-29,1,,,,,,0
1698,7100003006795,新規,0,2022-11-29,2022-11-29,合同会社安曇野コーポレーション,,合同会社,長野県,松本市,大字空港東８９９５番地７,,20,202,3901132,,,,,,,2022-11-29,1,,,,,アズミノコーポレーション,0
1712,7120001250344,新規,0,2022-11-29,2022-11-29,デリッシュヴェンダージャパン株式会社,,株式会社,大阪府,大阪市北区,東天満１丁目２番１４号,,27,127,5300044,,,,,,,2022-11-29,1,,,,,デリッシュヴェンダージャパン,0
1713,7120003022956,新規,0,2022-11-29,2022-11-29,ポジップ合同会社,,合同会社,大阪府,大阪市東淀川区,下新庄５丁目１４番６号,,27,114,5330021,,,,,,,2022-11-29,1,,,,,ポジップ,0
1714,7120005023309,新規,0,2022-11-29,2022-11-29,一般社団法人医薬ビジランスセンター,,その他の設立登記法人,大阪府,大阪市天王寺区,勝山２丁目１４番８号シャンテ勝山６０２号,,27,109,5430043,,,,,,,2022-11-29,1,,,,,イヤクビジランスセンター,0
1716,7120101066590,新規,0,2022-11-29,2022-11-29,株式会社ＳＡＮ・ＡＩ,,株式会社,大阪府,堺市中区,大野芝町１６１番地４１,,27,142,5998233,,,,,,,2022-11-29,1,,,,,サンアイ,0
1717,7120103004937,新規,0,2022-11-29,2022-11-29,太陽合同会社,,合同会社,大阪府,堺市南区,三原台２丁４番１７,,27,145,5900111,,,,,,,2022-11-29,1,,,,,タイヨウ,0
1718,7120901046718,新規,0,2022-11-29,2022-11-29,株式会社右衛門,,株式会社,大阪府,高槻市,庄所町７番１１号,,27,207,5690064,,,,,,,2022-11-29,1,,,,,ウエモン,0
1722,7130001073166,新規,0,2022-11-29,2022-11-29,株式会社Ｂ．Ｂ９８,,株式会社,京都府,京都市南区,吉祥院西ノ庄中町５番７,,26,107,6010000,,,,,,,2022-11-29,1,,,,,ビービーキューハチ,0
1725,7130003008343,新規,0,2022-11-29,2022-11-29,合同会社グラマシー,,合同会社,京都府,八幡市,八幡三本橋１８番地の１６９山形屋ビル２・２０３号室,,26,210,6148093,,,,,,,2022-11-29,1,,,,,グラマシー,0
1730,7140001128183,新規,0,2022-11-29,2022-11-29,株式会社エクセレント三和ＹＭコーポレーション,,株式会社,兵庫県,神戸市灘区,高徳町３丁目１番１４号４０１,,28,102,6570025,,,,,,,2022-11-29,1,,,,,エクセレントミワワイエムコーポレーション,0
1731,7140001128191,新規,0,2022-11-29,2022-11-29,株式会社ｔｕｎａｇｕｗａ,,株式会社,兵庫県,神戸市中央区,生田町４丁目６－３０,,28,110,6510092,,,,,,,2022-11-29,1,,,,,ツナグワ,0
1734,7140003018408,新規,0,2022-11-29,2022-11-29,合同会社ｓｆｉｓｅ,,合同会社,兵庫県,神戸市東灘区,本庄町１丁目８番１３－６０５号,,28,101,6580012,,,,,,,2022-11-29,1,,,,,スフィーズ,0
1736,7150001025974,新規,0,2022-11-29,2022-11-29,春香金属興業株式会社,,株式会社,奈良県,葛城市,中戸２９７－１,,29,211,6392146,,,,,,,2022-11-29,1,,,,,シュンコウキンゾクコウギョウ,0
1738,7160005011144,新規,0,2022-11-29,2022-11-29,一般社団法人ライジングジャパン卓球協会,,その他の設立登記法人,滋賀県,栗東市,小柿４丁目６－１４－２０２,,25,208,5203024,,,,,,,2022-11-29,1,,,,,ライジングジャパンタッキュウキョウカイ,0
1743,7180001153913,新規,0,2022-11-29,2022-11-29,株式会社令和令,,株式会社,愛知県,名古屋市東区,泉３丁目１７番１０号泉ビル８階,,23,102,4610001,,,,,,,2022-11-29,1,,,,,レイワレイ,0
1747,7180003024534,新規,0,2022-11-29,2022-11-29,合同会社スターサービス,,合同会社,愛知県,名古屋市天白区,福池１丁目２６－４,,23,116,4680049,,,,,,,2022-11-29,1,,,,,スターサービス,0
1750,7180301036859,新規,0,2022-11-29,2022-11-29,株式会社ゼロヨン,,株式会社,愛知県,岡崎市,藤川荒古２丁目７番地３,,23,202,4443527,,,,,,,2022-11-29,1,,,,,ゼロヨン,0
1752,7190003004155,新規,0,2022-11-29,2022-11-29,合同会社太田工業,,合同会社,三重県,桑名郡木曽岬町,大字源緑輪中２５２番地,,24,303,4980816,,,,,,,2022-11-29,1,,,,,オオタコウギョウ,0
1759,7240001060715,新規,0,2022-11-29,2022-11-29,株式会社利光,,株式会社,広島県,三原市,皆実３丁目９番３４－２０３号,,34,204,7230052,,,,,,,2022-11-29,1,,,,,,0
1781,7290001099732,新規,0,2022-11-29,2022-11-29,株式会社ＮＦＫ,,株式会社,福岡県,福岡市中央区,大名１丁目９番４５－２１２号,,40,133,8100041,,,,,,,2022-11-29,1,,,,,エヌエフケイ,0
1784,7290003013253,新規,0,2022-11-29,2022-11-29,ゼロパスタ合同会社,,合同会社,福岡県,福岡市中央区,平尾１丁目４－７－３Ｆ,,40,133,8100014,,,,,,,2022-11-29,1,,,,,ゼロパスタ,0
1788,7300003001909,新規,0,2022-11-29,2022-11-29,合同会社ウェルネット,,合同会社,佐賀県,鳥栖市,下野町２５０８番地,,41,203,8410063,,,,,,,2022-11-29,1,,,,,ウェルネット,0
1798,7370003005903,新規,0,2022-11-29,2022-11-29,白田会計合同会社,,合同会社,宮城県,仙台市宮城野区,名掛丁２０６番地の１７－６０３,,04,102,9830864,,,,,,,2022-11-29,1,,,,,シラタカイケイ,0
1802,7390001017080,新規,0,2022-11-29,2022-11-29,株式会社Ｎ‐ＭＡＩＮ,,株式会社,山形県,米沢市,舘山６丁目１番３５号,,06,202,9920072,,,,,,,2022-11-29,1,,,,,エヌメイン,0
1812,7430001087937,新規,0,2022-11-29,2022-11-29,株式会社Ｒｏｐｐｏ,,株式会社,北海道,札幌市白石区,東札幌二条４丁目６番４号,,01,104,0030002,,,,,,,2022-11-29,1,,,,,ロッポ,0
1815,7490001010348,新規,0,2022-11-29,2022-11-29,Ｒｅｅｇｌｅ株式会社,,株式会社,高知県,高知市,帯屋町１丁目１４－２０ＳＴ柳町Ｉ,00128621,39,201,7800841,,,,,,,2022-11-29,1,,,,,リーグル,0
1818,7500001024619,新規,0,2022-11-29,2022-11-29,株式会社Ｐａｓｓ,,株式会社,愛媛県,南宇和郡愛南町,御荘平城４１６６番地１３,,38,506,7984110,,,,,,,2022-11-29,1,,,,,パス,0
1829,8010001230868,新規,0,2022-11-29,2022-11-29,株式会社ｈｅａｒｔｒｉｃｈ,,株式会社,東京都,中央区,銀座７丁目１３－６サガミビル２階,,13,102,1040061,,,,,,,2022-11-29,1,,,,,ハートリッチ,0
1830,8010001231016,新規,0,2022-11-29,2022-11-29,東青商事株式会社,,株式会社,東京都,中央区,日本橋兜町１７番１日本橋ロイヤルプラザ６０５,,13,102,1030026,,,,,,,2022-11-29,1,,,,,トウセイショウジ,0
1831,8010001231098,新規,0,2022-11-29,2022-11-29,株式会社マイコーポーレーション,,株式会社,東京都,千代田区,内神田１丁目７番５号,,13,101,1010047,,,,,,,2022-11-29,1,,,,,マイコーポーレーション,0
1832,8010001231156,新規,0,2022-11-29,2022-11-29,株式会社デジタルレトリバー,,株式会社,東京都,千代田区,東神田１丁目６－４ロイジェント東神田７０１号室,,13,101,1010031,,,,,,,2022-11-29,1,,,,,デジタルレトリバー,0
1834,8010003039135,新規,0,2022-11-29,2022-11-29,合同会社三刀流,,合同会社,東京都,中央区,晴海３丁目１３－１ＤＥＵＸＴＯＵＲＳＥＡＳＴ４９２４,,13,102,1040053,,,,,,,2022-11-29,1,,,,,サントウリュウ,0
1835,8010003039176,新規,0,2022-11-29,2022-11-29,合同会社Ａｒｕｍａｍｉ,,合同会社,東京都,文京区,関口１丁目１１番１０号寺井ビル２階,,13,105,1120014,,,,,,,2022-11-29,1,,,,,アルマミ,0
1837,8010005035842,新規,0,2022-11-29,2022-11-29,一般社団法人エステックエナジーホールディングス,,その他の設立登記法人,東京都,千代田区,丸の内３丁目１番１号東京共同会計事務所内,,13,101,1000005,,,,,,,2022-11-29,1,,,,,エステックエナジーホールディングス,0
1842,8010401171019,新規,0,2022-11-29,2022-11-29,ＴＯＰ　ＭＡＵＮＡ株式会社,,株式会社,東京都,港区,南青山２丁目２７－２０ＶＯＲＴ外苑前ＩＩ５Ｆ,00128609,13,103,1070062,,,,,,,2022-11-29,1,,,,,トップマウナ,0
1843,8010401171027,新規,0,2022-11-29,2022-11-29,株式会社ＲＫ,,株式会社,東京都,港区,浜松町２丁目２番１５号,,13,103,1050013,,,,,,,2022-11-29,1,,,,,アールケー,0
1844,8010401171043,新規,0,2022-11-29,2022-11-29,株式会社アジア未来総研,,株式会社,東京都,港区,南青山３丁目１番３６号青山丸竹ビル６Ｆ,,13,103,1070062,,,,,,,2022-11-29,1,,,,,アジアミライソウケン,0
1845,8010401171051,新規,0,2022-11-29,2022-11-29,株式会社ＹＫインベストメント,,株式会社,東京都,港区,麻布台３丁目５番３－７０５号室,,13,103,1060041,,,,,,,2022-11-29,1,,,,,ワイケーインベストメント,0
1846,8010403028992,新規,0,2022-11-29,2022-11-29,Ａｚａｂｕｄａｉ　Ｌｉｖｉｎｇ　ＰＳ合同会社,,合同会社,東京都,港区,六本木１丁目９番１０号アークヒルズ仙石山森タワー４０階,,13,103,1060032,,,,,,,2022-11-29,1,,,,,アザブダイリビングピーエス,0
1852,8010601062208,新規,0,2022-11-29,2022-11-29,株式会社東京ナノテック,,株式会社,東京都,墨田区,押上３丁目３１番１７号,,13,107,1310045,,,,,,,2022-11-29,1,,,,,トウキョウナノテック,0
1860,8010901052040,新規,0,2022-11-29,2022-11-29,株式会社ゆもも,,株式会社,東京都,世田谷区,新町２丁目２番２０号,,13,112,1540014,,,,,,,2022-11-29,1,,,,,,0
1865,8011001151055,新規,0,2022-11-29,2022-11-29,ＴＳＵｎｉｔｅｄ株式会社,,株式会社,東京都,渋谷区,富ヶ谷１丁目１４－１４スタンフォードアネックスビル３階,,13,113,1510063,,,,,,,2022-11-29,1,,,,,ティーエスユナイテッド,0
1866,8011001151162,新規,0,2022-11-29,2022-11-29,ブブカム株式会社,,株式会社,東京都,渋谷区,松濤２丁目８番８号,,13,113,1500046,,,,,,,2022-11-29,1,,,,,ブブカム,0
1867,8011001151187,新規,0,2022-11-29,2022-11-29,株式会社ｍｏｓｈｍｅｌ,,株式会社,東京都,渋谷区,神宮前６丁目２３番４号桑野ビル２階,,13,113,1500001,,,,,,,2022-11-29,1,,,,,モシュメル,0
1868,8011001151195,新規,0,2022-11-29,2022-11-29,株式会社Ｐｒｉｍｅ　ｂｉａｎｃａ,,株式会社,東京都,渋谷区,神宮前６丁目３５番３号コープオリンピア３２４号室,,13,113,1500001,,,,,,,2022-11-29,1,,,,,プライムビアンカ,0
1880,8011101100985,新規,0,2022-11-29,2022-11-29,株式会社ライトプレイス,,株式会社,東京都,新宿区,細工町１－１３,,13,104,1620838,,,,,,,2022-11-29,1,,,,,ライトプレイス,0
1881,8011101100993,新規,0,2022-11-29,2022-11-29,株式会社ＣＬＳ,,株式会社,東京都,新宿区,大久保１丁目７番２４‐４０１号,,13,104,1690072,,,,,,,2022-11-29,1,,,,,シーエルエス,0
1884,8011503005378,新規,0,2022-11-29,2022-11-29,ＪＨ合同会社,,合同会社,東京都,北区,中十条１丁目１８番５号プラザボヌール２０２号,,13,117,1140032,,,,,,,2022-11-29,1,,,,,ジェイエイチ,0
1887,8011701025814,新規,0,2022-11-29,2022-11-29,株式会社ミント,,株式会社,東京都,江戸川区,西瑞江５丁目１８番地８クレベールサイＣ号室,,13,123,1340015,,,,,,,2022-11-29,1,,,,,ミント,0
1892,8012403005699,新規,0,2022-11-29,2022-11-29,合同会社Ｓｅｌｔｅｎ,,合同会社,東京都,武蔵野市,西久保２丁目１９番７号ベルジュール武蔵野ＩＶ３０８号室,00128608,13,203,1800013,,,,,,,2022-11-29,1,,,,,ゼルテン,0
1897,8012801021991,新規,0,2022-11-29,2022-11-29,株式会社エンフェイズ,,株式会社,東京都,国立市,北１丁目５－１５,,13,215,1860001,,,,,,,2022-11-29,1,,,,,エンフェイズ,0
1907,8020003022783,新規,0,2022-11-29,2022-11-29,永徳貿易合同会社,,合同会社,神奈川県,川崎市中原区,小杉御殿町１丁目９０４,,14,133,2110068,,,,,,,2022-11-29,1,,,,,,0
1909,8020005015736,新規,0,2022-11-29,2022-11-29,一般社団法人うるの木,,その他の設立登記法人,神奈川県,横浜市都筑区,早渕３丁目３５番３号,,14,118,2240025,,,,,,,2022-11-29,1,,,,,ウルノキ,0
1911,8021001077514,新規,0,2022-11-29,2022-11-29,マルサン株式会社,,株式会社,神奈川県,秦野市,南矢名８４７番地,,14,211,2570003,,,,,,,2022-11-29,1,,,,,マルサン,0
1920,8030001150998,新規,0,2022-11-29,2022-11-29,株式会社彩美,,株式会社,埼玉県,さいたま市大宮区,桜木町２丁目３番地大宮マルイ７階,,11,103,3300854,,,,,,,2022-11-29,1,,,,,サイビ,0
1921,8030001151237,新規,0,2022-11-29,2022-11-29,株式会社ＤＹＣ,,株式会社,埼玉県,川越市,大字天沼新田２７７番地３,,11,201,3500806,,,,,,,2022-11-29,1,,,,,ディーワイシー,0
1924,8030003020605,新規,0,2022-11-29,2022-11-29,ジャパンツーリング合同会社,,合同会社,埼玉県,草加市,吉町５丁目６番５３号,,11,221,3400017,,,,,,,2022-11-29,1,,,,,ジャパンツーリング,0
1925,8030003020646,新規,0,2022-11-29,2022-11-29,合同会社ＫＡＺＵコンストラクション,,合同会社,埼玉県,さいたま市緑区,大字中尾５５２番地８アクト浦和３０３号室,,11,109,3360932,,,,,,,2022-11-29,1,,,,,カズコンストラクション,0
1931,8040001125966,新規,0,2022-11-29,2022-11-29,ミライトテック株式会社,,株式会社,千葉県,千葉市美浜区,打瀬２丁目１０番地パティオス１５番街４０８号,,12,106,2610013,,,,,,,2022-11-29,1,,,,,ミライトテック,0
1932,8040001125982,新規,0,2022-11-29,2022-11-29,株式会社蒼い空,,株式会社,千葉県,木更津市,羽鳥野４丁目１番地７１,,12,206,2920819,,,,,,,2022-11-29,1,,,,,アオイソラ,0
1938,8040003021338,新規,0,2022-11-29,2022-11-29,富田合同会社,,合同会社,千葉県,千葉市稲毛区,天台３丁目１２―５小山ハイツ１０１号,,12,103,2630016,,,,,,,2022-11-29,1,,,,,トミタ,0
1939,8040003021362,新規,0,2022-11-29,2022-11-29,猫福商会合同会社,,合同会社,千葉県,富里市,七栄５２３番地２６,,12,233,2860221,,,,,,,2022-11-29,1,,,,,ネコフクショウカイ,0
1940,8040003021370,新規,0,2022-11-29,2022-11-29,ＭＡＸ　ＷＯＲＬＤ　ＴＲＡＤＩＮＧ合同会社,,合同会社,千葉県,山武市,川崎１４８番地７,,12,237,2891331,,,,,,,2022-11-29,1,,,,,マックスワールドトレーディング,0
1944,8050001052020,新規,0,2022-11-29,2022-11-29,株式会社ＴＳＵＢＡＫＩ　ＪＡＰＡＮ,,株式会社,茨城県,結城郡八千代町,大字今里６８３番地１,,08,521,3003531,,,,,,,2022-11-29,1,,,,,ツバキジャパン,0
1947,8060001035478,新規,0,2022-11-29,2022-11-29,アップトゥユー株式会社,,株式会社,栃木県,宇都宮市,下荒針町３６１４番地５ライオンキング２０２号,,09,201,3210346,,,,,,,2022-11-29,1,,,,,アップトゥユー,0
1948,8060001035486,新規,0,2022-11-29,2022-11-29,株式会社大森,,株式会社,栃木県,小山市,大字神鳥谷９３４エメラルドガーデン小山３０８,,09,208,3230827,,,,,,,2022-11-29,1,,,,,オオモリ,0
1954,8080101023661,新規,0,2022-11-29,2022-11-29,株式会社伊東一碧管理サービス,,株式会社,静岡県,伊東市,富戸１３１５番地の２,,22,208,4130231,,,,,,,2022-11-29,1,,,,,イトウイッペキカンリサービス,0
1964,8120001250533,新規,0,2022-11-29,2022-11-29,明皓貿易株式会社,,株式会社,大阪府,大阪市生野区,巽北１丁目１番１号２Ｆ－Ｈ,,27,116,5440004,,,,,,,2022-11-29,1,,,,,メイコウボウエキ,0
1965,8120001250566,新規,0,2022-11-29,2022-11-29,株式会社みらい,,株式会社,大阪府,大阪市西区,江戸堀２丁目１－１江戸堀センタービル９階,,27,106,5500002,,,,,,,2022-11-29,1,,,,,ミライ,0
1969,8120003022963,新規,0,2022-11-29,2022-11-29,合同会社金和,,合同会社,大阪府,守口市,大宮通１丁目９番１１号,,27,209,5700033,,,,,,,2022-11-29,1,,,,,キンワ,0
1972,8120103004944,新規,0,2022-11-29,2022-11-29,合同会社ＡｆｔｅｒＣｏｎｎｅｃｔ,,合同会社,大阪府,堺市北区,船堂町１丁１６番６３号,,27,146,5918003,,,,,,,2022-11-29,1,,,,,アフターコネクト,0
1975,8122001036433,新規,0,2022-11-29,2022-11-29,株式会社暁,,株式会社,大阪府,東大阪市,南上小阪１０－２９,,27,227,5770814,,,,,,,2022-11-29,1,,,,,アカツキ,0
1980,8130001073165,新規,0,2022-11-29,2022-11-29,株式会社ＹＳＯ,,株式会社,京都府,京都市東山区,下堀詰町２３２番地,,26,105,6050992,,,,,,,2022-11-29,1,,,,,ワイエスオー,0
1981,8130001073173,新規,0,2022-11-29,2022-11-29,株式会社ＡＭＧ,,株式会社,京都府,京都市右京区,嵯峨大覚寺門前六道町２８番地４,,26,108,6168417,,,,,,,2022-11-29,1,,,,,エイエムジー,0
1988,8140001128182,新規,0,2022-11-29,2022-11-29,株式会社オーテック,,株式会社,兵庫県,神戸市須磨区,北落合６丁目３番６－１２０８号,,28,107,6540151,,,,,,,2022-11-29,1,,,,,オーテック,0
1993,8160001024669,新規,0,2022-11-29,2022-11-29,株式会社ラコリーナ研究所,,株式会社,滋賀県,近江八幡市,北之庄町６１５番地１,,25,204,5230806,,,,,,,2022-11-29,1,,,,,ラコリーナケンキュウショ,0
2001,8180001153945,新規,0,2022-11-29,2022-11-29,株式会社エンドレスＡＵＴＯ,,株式会社,愛知県,春日井市,細木町２丁目１２２番地,,23,206,4860937,,,,,,,2022-11-29,1,,,,,エンドレスオート,0
2003,8180301036858,新規,0,2022-11-29,2022-11-29,山本調査測量事務所株式会社,,株式会社,愛知県,豊橋市,前田南町１丁目１４番地３,,23,201,4400851,,,,,,,2022-11-29,1,,,,,ヤマモトチョウサソクリョウジムショ,0
2004,8180305009414,新規,0,2022-11-29,2022-11-29,一般社団法人庚申講常福寺,,その他の設立登記法人,愛知県,安城市,安城町常福寺２６番地,,23,212,4460026,,,,,,,2022-11-29,1,,,,,コウシンコウジョウフクジ,0
2005,8190001029954,新規,0,2022-11-29,2022-11-29,三重松井興産株式会社,,株式会社,三重県,四日市市,大字日永５２１６番地１２,,24,202,5100885,,,,,,,2022-11-29,1,,,,,ミエマツイコウサン,0
2009,8200001040703,新規,0,2022-11-29,2022-11-29,ＵＳＴＡＤ　ＴＲＡＤＩＮＧ株式会社,,株式会社,岐阜県,多治見市,池田町３丁目９７番地,,21,204,5070048,,,,,,,2022-11-29,1,,,,,ウスタードトレーディング,0
2015,8240001060714,新規,0,2022-11-29,2022-11-29,株式会社Ｈｉｔｏｔｏｋｉ,,株式会社,広島県,庄原市,東城町粟田９２４番地,,34,210,7295127,,,,,,,2022-11-29,1,,,,,ヒトトキ,0
2018,8260001037438,新規,0,2022-11-29,2022-11-29,株式会社森分,,株式会社,岡山県,倉敷市,東塚３丁目９番５号ヴィスタ桑田ＶＩＩＩ－１０１,00128620,33,202,7128044,,,,,,,2022-11-29,1,,,,,モリワケ,0
2027,8290001099715,新規,0,2022-11-29,2022-11-29,嘉瑞商貿株式会社,,株式会社,福岡県,福岡市博多区,吉塚２丁目２１番１号,,40,132,8120041,,,,,,,2022-11-29,1,,,,,カズイショウボウ,0
2028,8290001099723,新規,0,2022-11-29,2022-11-29,株式会社ヨーソロー,,株式会社,福岡県,飯塚市,西徳前７番３７号,,40,205,8200031,,,,,,,2022-11-29,1,,,,,ヨーソロー,0
2033,8290003013244,新規,0,2022-11-29,2022-11-29,合同会社ＳＴＡＲＦＩＳＨ,,合同会社,福岡県,福岡市東区,香椎浜４丁目９番２－５０１号,,40,131,8130016,,,,,,,2022-11-29,1,,,,,スターフィッシュ,0
2035,8290801029078,新規,0,2022-11-29,2022-11-29,株式会社ＪＫＭ,,株式会社,福岡県,北九州市小倉北区,富野台１３‐１１,,40,106,8020033,,,,,,,2022-11-29,1,,,,,ジェイケイエム,0
2039,8300001013145,新規,0,2022-11-29,2022-11-29,株式会社ソアビータ,,株式会社,佐賀県,唐津市,南城内１番１号,,41,202,8470013,,,,,,,2022-11-29,1,,,,,ソアビータ,0
2042,8340003003982,新規,0,2022-11-29,2022-11-29,キリシマ生活合同会社,,合同会社,鹿児島県,霧島市,国分府中町３番２号コーポ吉満２０２号室,,46,218,8994346,,,,,,,2022-11-29,1,,,,,キリシマセイカツ,0
2047,8370001049315,新規,0,2022-11-29,2022-11-29,株式会社ＨＬＣ,,株式会社,宮城県,仙台市泉区,高森６丁目２９番地の１６,,04,105,9813203,,,,,,,2022-11-29,1,,,,,エイチエルシー,0
2049,8370003005902,新規,0,2022-11-29,2022-11-29,ＭＲＡ合同会社,,合同会社,宮城県,仙台市太白区,中田２丁目２３番３５号,,04,104,9811104,,,,,,,2022-11-29,1,,,,,エムアールエー,0
2058,8420001018082,新規,0,2022-11-29,2022-11-29,株式会社ＰＭカンパニー,,株式会社,青森県,三沢市,中央町２丁目８番３４号スカイプラザミサワ１Ｆ,,02,207,0330001,,,,,,,2022-11-29,1,,,,,ピーエムカンパニー,0
2059,8430001087952,新規,0,2022-11-29,2022-11-29,株式会社アイプロモーション,,株式会社,北海道,札幌市手稲区,手稲金山１３１番地２４,,01,109,0060049,,,,,,,2022-11-29,1,,,,,アイプロモーション,0
2065,8470001019349,新規,0,2022-11-29,2022-11-29,株式会社光珀商会,,株式会社,香川県,高松市,瓦町２丁目９番５号,,37,201,7600052,,,,,,,2022-11-29,1,,,,,コウハクショウカイ,0
2067,8700150112715,新規,0,2022-11-29,2022-11-10,Ｄａｎｃｅ　Ｍａｒｃｈｅ,,その他,東京都,港区,高輪４丁目１４－７ラポール高輪３０４,,13,103,1080074,,,,,,,2022-11-10,1,,,,,ダンスマルシエ,0
2074,9010001231097,新規,0,2022-11-29,2022-11-29,株式会社ＴＡＫ建築企画,,株式会社,東京都,中央区,日本橋人形町２丁目３４番５号,,13,102,1030013,,,,,,,2022-11-29,1,,,,,タックケンチクキカク,0
2075,9010001231122,新規,0,2022-11-29,2022-11-29,テンジャック株式会社,,株式会社,東京都,千代田区,神田練塀町３番地ベルファース秋葉原１８０７,,13,101,1010022,,,,,,,2022-11-29,1,,,,,テンジャック,0
2076,9010001231139,新規,0,2022-11-29,2022-11-29,株式会社ＧＲＩＴ,,株式会社,東京都,中央区,日本橋本町３丁目６番７－２０１号,,13,102,1030023,,,,,,,2022-11-29,1,,,,,グリット,0
2077,9010001231171,新規,0,2022-11-29,2022-11-29,株式会社中井商店,,株式会社,東京都,中央区,日本橋小舟町６－１６中井商店,,13,102,1030024,,,,,,,2022-11-29,1,,,,,ナカイショウテン,0
2079,9010003039191,新規,0,2022-11-29,2022-11-29,合同会社天ぷらやぐち,,合同会社,東京都,中央区,日本橋人形町２丁目９－７,,13,102,1030013,,,,,,,2022-11-29,1,,,,,テンプラヤグチ,0
2080,9010003039200,新規,0,2022-11-29,2022-11-29,カタリスト戦略投資３号合同会社,,合同会社,東京都,千代田区,永田町２丁目１１番１号,,13,101,1000014,,,,,,,2022-11-29,1,,,,,カタリストセンリャクトウシサンゴウ,0
2081,9010005035841,新規,0,2022-11-29,2022-11-29,札幌ステーションフロント特定目的会社,,その他の設立登記法人,東京都,千代田区,丸の内３丁目１番１号東京共同会計事務所内,,13,101,1000005,,,,,,,2022-11-29,1,,,,,サッポロステーションフロント,0
2082,9010101015433,新規,0,2022-11-29,2022-11-29,盛和株式会社,,株式会社,東京都,八王子市,新町２番５号コスモリード八王子,,13,201,1920065,,,,,,,2022-11-29,1,,,,,セイワ,0
2091,9010401171091,新規,0,2022-11-29,2022-11-29,株式会社Ａ’ａｌｄａ　Ａｎｉｍａｌ　Ｈｏｓｐｉｔａｌ　ＳＰＣ１号,,株式会社,東京都,港区,新橋６丁目１１番８号ＰＯＲＴＯＮＥＳＨＩＭＢＡＳＨＩ３Ｆ,,13,103,1050004,,,,,,,2022-11-29,1,,,,,アルダアニマルホスピタルエスピーシーイチゴウ,0
2096,9010403028983,新規,0,2022-11-29,2022-11-29,合同会社Ｂ‐ＭＥＬＯ．,,合同会社,東京都,港区,南青山３丁目１０番４１号,,13,103,1070062,,,,,,,2022-11-29,1,,,,,ビーメロ,0
2097,9010405021623,新規,0,2022-11-29,2022-11-29,Ａｚａｂｕｄａｉ　Ｌｉｖｉｎｇ特定目的会社,,その他の設立登記法人,東京都,港区,六本木１丁目９番１０号アークヒルズ仙石山森タワー４０階,,13,103,1060032,,,,,,,2022-11-29,1,,,,,アザブダイリビング,0
2103,9010601062215,新規,0,2022-11-29,2022-11-29,富士インポート株式会社,,株式会社,東京都,江東区,大島８丁目１４番４号,,13,108,1360072,,,,,,,2022-11-29,1,,,,,フジイインポート,0
2117,9011001150865,新規,0,2022-11-29,2022-11-29,ＰＥＴ　ＦＯＯＤ　ＴＥＣＨ株式会社,,株式会社,東京都,渋谷区,神宮前６丁目２３－４桑野ビル２Ｆ,,13,113,1500001,,,,,,,2022-11-29,1,,,,,ペットフードテック,0
2118,9011001151161,新規,0,2022-11-29,2022-11-29,ベイニング株式会社,,株式会社,東京都,渋谷区,神宮前６丁目２３番４号桑野ビル２Ｆ,,13,113,1500001,,,,,,,2022-11-29,1,,,,,ベイニング,0
2119,9011001151186,新規,0,2022-11-29,2022-11-29,ペタルーダ・マインド株式会社,,株式会社,東京都,目黒区,緑が丘２丁目１１番８号,,13,110,1520034,,,,,,,2022-11-29,1,,,,,ペタルーダマインド,0
2126,9011103012443,新規,0,2022-11-29,2022-11-29,合同会社ブランカ,,合同会社,東京都,新宿区,細工町１番１３号,,13,104,1620838,,,,,,,2022-11-29,1,,,,,ブランカ,0
2130,9011303004587,新規,0,2022-11-29,2022-11-29,合同会社ＳＴＡＲ　ＡＲＲＯＷＳ,,合同会社,東京都,杉並区,宮前５丁目１７－３、１０３,,13,115,1680081,,,,,,,2022-11-29,1,,,,,スターアローズ,0
2132,9011401024735,新規,0,2022-11-29,2022-11-29,株式会社Ｓｍａｒｔ,,株式会社,東京都,板橋区,板橋３丁目５番３号ニキメディカルハイツ１００１,,13,119,1730004,,,,,,,2022-11-29,1,,,,,スマート,0
2133,9011501028719,新規,0,2022-11-29,2022-11-29,ＫＲＳ株式会社,,株式会社,東京都,北区,赤羽１丁目１０番４号マスカタビル４Ｆ,,13,117,1150045,,,,,,,2022-11-29,1,,,,,ケーアールエス,0
2136,9011701025813,新規,0,2022-11-29,2022-11-29,株式会社Ｄｉｓｋ,,株式会社,東京都,江戸川区,大杉３丁目４番１５号,,13,123,1320022,,,,,,,2022-11-29,1,,,,,ディスク,0
2144,9012801021982,新規,0,2022-11-29,2022-11-29,株式会社大内造園,,株式会社,東京都,昭島市,田中町１丁目２４番１８－２０３号,,13,207,1960014,,,,,,,2022-11-29,1,,,,,オオウチゾウエン,0
2145,9012801021990,新規,0,2022-11-29,2022-11-29,株式会社アップルコーポレーション,,株式会社,東京都,立川市,錦町４丁目９番４号,,13,202,1900022,,,,,,,2022-11-29,1,,,,,アップルコーポレーション,0
2163,9020003022799,新規,0,2022-11-29,2022-11-29,Ｐｉｌａｔｅｓ　Ｓｔｕｄｉｏ　Ｆｌｙ　Ｙｏｋｏｈａｍａ合同会社,,合同会社,神奈川県,横浜市港北区,大倉山２丁目１番１４号久保田ビル４０１号,,14,109,2220037,,,,,,,2022-11-29,1,,,,,ピラティススタジオフライヨコハマ,0
2167,9021003012427,新規,0,2022-11-29,2022-11-29,合同会社雅,,合同会社,神奈川県,相模原市中央区,中央１丁目８番４号井上ハイツ１０３,,14,152,2520239,,,,,,,2022-11-29,1,,,,,ミヤビ,0
2173,9030001151228,新規,0,2022-11-29,2022-11-29,株式会社阿部工業,,株式会社,埼玉県,新座市,野火止６丁目２番３７号,,11,230,3520011,,,,,,,2022-11-29,1,,,,,アベコウギョウ,0
2174,9030001151244,新規,0,2022-11-29,2022-11-29,株式会社ハットライフソリューション,,株式会社,埼玉県,さいたま市桜区,大字宿１７１番地東Ｂ棟,,11,106,3380814,,,,,,,2022-11-29,1,,,,,ハットライフソリューション,0
2177,9030003020645,新規,0,2022-11-29,2022-11-29,合同会社Ｓｔｕｄｉｏ　Ｓｔａｒｒｙ　Ｒａｙ,,合同会社,埼玉県,さいたま市岩槻区,本町２丁目２番３６号,,11,110,3390057,,,,,,,2022-11-29,1,,,,,スタジオスターリーレイ,0
2192,9060003004323,新規,0,2022-11-29,2022-11-29,合同会社ＪＮ,,合同会社,栃木県,小山市,大字中久喜２９１番地１１,,09,208,3230806,,,,,,,2022-11-29,1,,,,,ジェーエヌ,0
2195,9070001039873,新規,0,2022-11-29,2022-11-29,ＥｖｅｒＦｒｅｅ　ＪＡＰＡＮ株式会社,,株式会社,群馬県,前橋市,大利根町２丁目１番地６,,10,201,3710825,,,,,,,2022-11-29,1,,,,,エバーフリージャパン,0
2202,9100003006793,新規,0,2022-11-29,2022-11-29,合同会社辰野ファーム,,合同会社,長野県,上伊那郡箕輪町,大字中箕輪１８５０,,20,383,3994601,,,,,,,2022-11-29,1,,,,,タツノファーム,0
2215,9120001250524,新規,0,2022-11-29,2022-11-29,杰森株式会社,,株式会社,大阪府,大阪市中央区,松屋町９番２０号ローレルステート松屋町１１０７Ａ,,27,128,5420067,,,,,,,2022-11-29,1,,,,,ケツシン,0
2216,9120001250565,新規,0,2022-11-29,2022-11-29,株式会社Ｏ．Ｅ．Ｔ,,株式会社,大阪府,交野市,倉治３丁目２２番４３号,,27,230,5760051,,,,,,,2022-11-29,1,,,,,オーイーティー,0
2217,9120001250598,新規,0,2022-11-29,2022-11-29,株式会社ラグザス・クリエイト,,株式会社,大阪府,大阪市北区,大深町３番１号グランフロント大阪タワーＢ１８階,,27,127,5300011,,,,,,,2022-11-29,1,,,,,ラグザスクリエイト,0
2227,9120901046765,新規,0,2022-11-29,2022-11-29,株式会社デクロス,,株式会社,大阪府,吹田市,垂水町３丁目２９－２チサンマンション第五江坂１０４号室,,27,205,5640062,,,,,,,2022-11-29,1,,,,,デクロス,0
2233,9130001073164,新規,0,2022-11-29,2022-11-29,ＤＡＹ株式会社,,株式会社,京都府,京都市下京区,西七条南衣田町２１－１コーポラス上杉６０５,,26,106,6008884,,,,,,,2022-11-29,1,,,,,ディーエイワイ,0
2234,9130001073180,新規,0,2022-11-29,2022-11-29,ＦＯＵＲ　ＬＥＡＶＥＳ株式会社,,株式会社,京都府,京都市上京区,北小路室町３９０番地４,,26,102,6020901,,,,,,,2022-11-29,1,,,,,フォーリーブス,0
2243,9140003018406,新規,0,2022-11-29,2022-11-29,Ｅｃｏ‐Ｒａｓｙ合同会社,,合同会社,兵庫県,西宮市,安井町３番５－６号,,28,204,6620045,,,,,,,2022-11-29,1,,,,,エコラシイ,0
2248,9160001024668,新規,0,2022-11-29,2022-11-29,株式会社ＫＡＯＲＵファクトリー,,株式会社,滋賀県,大津市,大萱４丁目１１番１－５２８号,,25,201,5202144,,,,,,,2022-11-29,1,,,,,カオルファクトリー,0
2250,9170003001796,新規,0,2022-11-29,2022-11-29,合同会社ＭＡＭＯＲＵＮＤＡ,,合同会社,和歌山県,和歌山市,雑賀町７１番地あるじビル１Ｆ,,30,201,6408108,,,,,,,2022-11-29,1,,,,,マモルンダ,0
2264,9180301036857,新規,0,2022-11-29,2022-11-29,株式会社タカトシ運送,,株式会社,愛知県,豊橋市,東岩田３丁目５番地の２４,,23,201,4400033,,,,,,,2022-11-29,1,,,,,タカトシウンソウ,0
2267,9190001029961,新規,0,2022-11-29,2022-11-29,ノータスフィールド三重株式会社,,株式会社,三重県,伊賀市,川東１３９２番地,,24,216,5191424,,,,,,,2022-11-29,1,,,,,ノータスフィールドミエ,0
2271,9200001040702,新規,0,2022-11-29,2022-11-29,株式会社ツールエッジ,,株式会社,岐阜県,岐阜市,高田３丁目９番６号,,21,201,5008224,,,,,,,2022-11-29,1,,,,,ツールエッジ,0
2281,9240003005906,新規,0,2022-11-29,2022-11-29,Ａｋｉｒａ　Ｆｏｏｄｓ合同会社,,合同会社,広島県,広島市安佐北区,可部３丁目８－３５,,34,106,7310221,,,,,,,2022-11-29,1,,,,,アキラフーズ,0
2296,9290001099722,新規,0,2022-11-29,2022-11-29,株式会社Ｌｉｍａ,,株式会社,福岡県,福岡市中央区,今泉１丁目３番２３号セルクル今泉４０４号,,40,133,8100021,,,,,,,2022-11-29,1,,,,,リマ,0
2297,9290001099730,新規,0,2022-11-29,2022-11-29,株式会社トリプルダブル,,株式会社,福岡県,久留米市,田主丸町殖木３６１番地１０,,40,203,8391204,,,,,,,2022-11-29,1,,,,,トリプルダブル,0
2301,9290003013243,新規,0,2022-11-29,2022-11-29,合同会社プレイエステート,,合同会社,福岡県,宗像市,公園通り２丁目７番４号,,40,220,8113516,,,,,,,2022-11-29,1,,,,,プレイエステート,0
2302,9290003013251,新規,0,2022-11-29,2022-11-29,合同会社Ｔ．Ｍ．Ｋ,,合同会社,福岡県,福岡市早良区,西新５丁目４番１２号,,40,137,8140002,,,,,,,2022-11-29,1,,,,,ティーエムケー,0
2307,9300001013144,新規,0,2022-11-29,2022-11-29,株式会社いのうえ畜産,,株式会社,佐賀県,唐津市,肥前町入野甲２６００番地,,41,202,8471526,,,,,,,2022-11-29,1,,,,,イノウエチクサン,0
2317,9340001025202,新規,0,2022-11-29,2022-11-29,アスカ株式会社,,株式会社,鹿児島県,姶良市,脇元１９４８番地２,,46,225,8995651,,,,,,,2022-11-29,1,,,,,アスカ,0
2319,9350003004228,新規,0,2022-11-29,2022-11-29,合同会社ＫＲＥ,,合同会社,宮崎県,日向市,高砂町１１６番地２,,45,206,8830042,,,,,,,2022-11-29,1,,,,,ケーアールイー,0
2326,9370001049306,新規,0,2022-11-29,2022-11-29,株式会社ヘーレン,,株式会社,宮城県,岩沼市,中央１丁目２番２号村上ビル１０２号,,04,211,9892432,,,,,,,2022-11-29,1,,,,,ヘーレン,0
2327,9370001049314,新規,0,2022-11-29,2022-11-29,株式会社８ｍａｎ,,株式会社,宮城県,仙台市宮城野区,榴岡４丁目６－２３今野ビル２Ｆ,,04,102,9830852,,,,,,,2022-11-29,1,,,,,エイトマン,0
2335,9430001087935,新規,0,2022-11-29,2022-11-29,株式会社北海道救急リリーフ,,株式会社,北海道,札幌市中央区,南五条東３丁目１４番地１カサブランカ参番館２０３,,01,101,0600055,,,,,,,2022-11-29,1,,,,,ホッカイドウキュウキュウリリーフ,0
2336,9430001087951,新規,0,2022-11-29,2022-11-29,株式会社Ｈ・Ｋ,,株式会社,北海道,札幌市中央区,南一条西２３丁目１番３３号,,01,101,0640801,,,,,,,2022-11-29,1,,,,,エイチケー,0
2345,9500003002926,新規,0,2022-11-29,2022-11-29,合同会社ＩＸＳＡ,,合同会社,愛媛県,松山市,北斎院町２８６番地１５オレンジスクウェア１０２号,,38,201,7918031,,,,,,,2022-11-29,1,,,,,イクサ,0
