sequenceNumber,corporateNumber,process,correct,updateDate,changeDate,name,nameImageId,kind,prefectureName,cityName,streetNumber,addressImageId,prefectureCode,cityCode,postCode,addressOutside,addressOutsideImageId,closeDate,closeCause,successorCorporateNumber,changeCause,assignmentDate,latest,enName,enPrefectureName,enCityName,enAddressOutside,furigana,hihyoji
10,1010001224868,新規,0,2022-03-02,2022-03-02,株式会社Ｐａｎ　Ｐｒｏｐｅｒｔｙ　Ｐａｒｔｎｅｒ,,株式会社,東京都,中央区,日本橋人形町３丁目６番３－６０１号,,13,102,1030013,,,,,,,2022-03-02,1,,,,,パンプロパティパートナー,0
11,1010001224876,新規,0,2022-03-02,2022-03-02,興和デンタルヘルス株式会社,,株式会社,東京都,中央区,日本橋本町３丁目４番１４号,,13,102,1030023,,,,,,,2022-03-02,1,,,,,コウワデンタルヘルス,0
12,1010001224975,新規,0,2022-03-02,2022-03-02,株式会社Ｂｅｓｔ　ｐａｒｔｎｅｒ,,株式会社,東京都,中央区,銀座１丁目２２番１１号銀座大竹ビジデンス２階,,13,102,1040061,,,,,,,2022-03-02,1,,,,,ベストパートナー,0
13,1010003037112,新規,0,2022-03-02,2022-03-02,ダラスプロパティー合同会社,,合同会社,東京都,千代田区,丸の内１丁目１１番１号,,13,101,1000005,,,,,,,2022-03-02,1,,,,,ダラスプロパティー,0
16,1010005034652,新規,0,2022-03-02,2022-03-02,一般社団法人ＴＲＮ２,,その他の設立登記法人,東京都,中央区,日本橋１丁目４番１号,,13,102,1030027,,,,,,,2022-03-02,1,,,,,ティーアールエヌツー,0
17,1010005034660,新規,0,2022-03-02,2022-03-02,三田一般社団法人,,その他の設立登記法人,東京都,千代田区,神田小川町３丁目２６番８号神田小川町三丁目ビル６階,,13,101,1010052,,,,,,,2022-03-02,1,,,,,ミタ,0
23,1010401165860,新規,0,2022-03-02,2022-03-02,クレアシオン・ホールディングス株式会社,,株式会社,東京都,港区,赤坂９丁目７番１号,,13,103,1070052,,,,,,,2022-03-02,1,,,,,クレアシオンホールディングス,0
24,1010401165902,新規,0,2022-03-02,2022-03-02,ＰａｓｓＰａｙ株式会社,,株式会社,東京都,港区,六本木７丁目７番７号,,13,103,1060032,,,,,,,2022-03-02,1,,,,,パスペイ,0
26,1010601060754,新規,0,2022-03-02,2022-03-02,サステナブルシフト株式会社,,株式会社,東京都,江東区,有明２丁目１番２－９２４号,,13,108,1350063,,,,,,,2022-03-02,1,,,,,サステナブルシフト,0
38,1011001145922,新規,0,2022-03-02,2022-03-02,株式会社ＭＥアカデミー,,株式会社,東京都,渋谷区,渋谷２丁目１９番１５号宮益坂ビルディング６０９,,13,113,1500002,,,,,,,2022-03-02,1,,,,,エムイーアカデミー,0
39,1011001145996,新規,0,2022-03-02,2022-03-02,株式会社Ａ．Ｐ．Ｆ,,株式会社,東京都,渋谷区,千駄ヶ谷２丁目１番８号,,13,113,1510051,,,,,,,2022-03-02,1,,,,,エーピーエフ,0
40,1011001146012,新規,0,2022-03-02,2022-03-02,株式会社ダイゴビレッジ,,株式会社,東京都,渋谷区,宇田川町３－７ヒューリック渋谷公園通りビル５階－３０,,13,113,1500042,,,,,,,2022-03-02,1,,,,,ダイゴビレッジ,0
42,1011003014266,新規,0,2022-03-02,2022-03-02,Ｇｏｒｇｏｍ合同会社,,合同会社,東京都,渋谷区,渋谷２丁目１９－１５宮益坂ビルディング６０９,,13,113,1500002,,,,,,,2022-03-02,1,,,,,ゴルゴム,0
43,1011101097964,新規,0,2022-03-02,2022-03-02,アジアンエデュケーション株式会社,,株式会社,東京都,新宿区,西新宿３丁目２番９号新宿ワシントンホテルビル本館２Ｆ,,13,104,1600023,,,,,,,2022-03-02,1,,,,,アジアンエデュケーション,0
44,1011101097972,新規,0,2022-03-02,2022-03-02,株式会社ｍｅｄａｓｓｉｓｔｏ,,株式会社,東京都,新宿区,市谷柳町４０番地１,,13,104,1620061,,,,,,,2022-03-02,1,,,,,メダシスト,0
45,1011101097980,新規,0,2022-03-02,2022-03-02,株式会社Ｘ－Ｌｉｎｋｅｒ,,株式会社,東京都,新宿区,西新宿３丁目３番１３号西新宿水間ビル６階,,13,104,1600023,,,,,,,2022-03-02,1,,,,,エックスリンカー,0
46,1011101097989,新規,0,2022-03-02,2022-03-02,株式会社二歩,,株式会社,東京都,新宿区,西新宿３丁目３番１３号西新宿水間ビル６階,,13,104,1600023,,,,,,,2022-03-02,1,,,,,ニホ,0
47,1011105010163,新規,0,2022-03-02,2022-03-02,一般社団法人ジャパンポーカーシリーズ,,その他の設立登記法人,東京都,新宿区,歌舞伎町１丁目２２番９号Ｊゴールドビル６階,,13,104,1600021,,,,,,,2022-03-02,1,,,,,ジャパンポーカーシリーズ,0
52,1011605002429,新規,0,2022-03-02,2022-03-02,一般社団法人ＦＵ－ＳＨＵ,,その他の設立登記法人,東京都,練馬区,桜台４丁目１０番１４－１０２号,,13,120,1760002,,,,,,,2022-03-02,1,,,,,フウシュウ,0
60,1013103001111,新規,0,2022-03-02,2022-03-02,合同会社Ｓ－ＣｕｔＥｎｔｅｒｔａｉｎｍｅｎｔ,,合同会社,東京都,福生市,武蔵野台１丁目１７番地６ファインクレスト福生２０２,,13,218,1970013,,,,,,,2022-03-02,1,,,,,エスカットエンターテイメント,0
64,1013303006059,新規,0,2022-03-02,2022-03-02,Ｓｅｎｓｅｎｒａｎ合同会社,,合同会社,東京都,豊島区,長崎１丁目２２番１６号,,13,116,1710051,,,,,,,2022-03-02,1,,,,,センセンラン,0
73,1020001145444,新規,0,2022-03-02,2022-03-02,株式会社ＩＣＴ黄金エステート,,株式会社,神奈川県,横浜市中区,弥生町１丁目５番地１,,14,104,2310058,,,,,,,2022-03-02,1,,,,,アイシィティコガネエステート,0
74,1020001145510,新規,0,2022-03-02,2022-03-02,株式会社ｔｒｅ　ａｔｔｏ,,株式会社,神奈川県,川崎市麻生区,高石６丁目１５番５９号,,14,137,2150003,,,,,,,2022-03-02,1,,,,,トレアット,0
75,1020003021288,新規,0,2022-03-02,2022-03-02,ｅＭｅｍｏｒｙ　Ｊａｐａｎ合同会社,,合同会社,神奈川県,横浜市西区,みなとみらい４丁目４－２横浜ブルーアベニュー１２階,,14,103,2200012,,,,,,,2022-03-02,1,,,,,イーメモリージャパン,0
76,1020003021346,新規,0,2022-03-02,2022-03-02,合同会社Ｃｕｒｏｍｉｉ,,合同会社,神奈川県,横浜市鶴見区,鶴見中央５丁目４番１４号,,14,101,2300051,,,,,,,2022-03-02,1,,,,,クロミー,0
86,1030001147043,新規,0,2022-03-02,2022-03-02,株式会社ロッキー,,株式会社,埼玉県,さいたま市緑区,大字間宮６４０番地５,,11,109,3360965,,,,,,,2022-03-02,1,,,,,ロッキー,0
92,1030003018944,新規,0,2022-03-02,2022-03-02,合同会社ＴＳＣｏｎｓｕｌｔｉｎｇ,,合同会社,埼玉県,所沢市,北中３丁目１３番１７号,,11,208,3591101,,,,,,,2022-03-02,1,,,,,ティーエスコンサルティング,0
93,1030003018952,新規,0,2022-03-02,2022-03-02,ＴＡＭＡＧＯ合同会社,,合同会社,埼玉県,蕨市,中央１丁目１０番１０号,,11,223,3350004,,,,,,,2022-03-02,1,,,,,タマゴ,0
95,1030005020733,新規,0,2022-03-02,2022-03-02,一般社団法人住まいラボ,,その他の設立登記法人,埼玉県,さいたま市南区,南浦和２丁目２７番１５号信庄ビル５階,,11,108,3360017,,,,,,,2022-03-02,1,,,,,スマイラボ,0
99,1040001122400,新規,0,2022-03-02,2022-03-02,株式会社シャンフィールド,,株式会社,千葉県,香取市,大崎２８５番地１,,12,236,2870035,,,,,,,2022-03-02,1,,,,,シャンフィールド,0
100,1040001122409,新規,0,2022-03-02,2022-03-02,株式会社みなみ総業,,株式会社,千葉県,大網白里市,四天木２５７４－５９,,12,239,2993203,,,,,,,2022-03-02,1,,,,,ミナミソウギョウ,0
101,1040001122458,新規,0,2022-03-02,2022-03-02,株式会社東興通商,,株式会社,千葉県,船橋市,浜町２丁目３番３１－１２１７号,,12,204,2730012,,,,,,,2022-03-02,1,,,,,トウコウツウショウ,0
102,1040001122490,新規,0,2022-03-02,2022-03-02,株式会社アトリエナガノ,,株式会社,千葉県,千葉市中央区,新宿２丁目２番地７号,,12,101,2600021,,,,,,,2022-03-02,1,,,,,アトリエナガノ,0
106,1060001034619,新規,0,2022-03-02,2022-03-02,株式会社なごみＬｉｆｅ,,株式会社,栃木県,宇都宮市,春日町３番３１号,,09,201,3210108,,,,,,,2022-03-02,1,,,,,ナゴミライフ,0
113,1080001024790,新規,0,2022-03-02,2022-03-02,株式会社優企画,,株式会社,静岡県,静岡市駿河区,中村町２９４－１,,22,102,4228047,,,,,,,2022-03-02,1,,,,,ユウキカク,0
116,1080003002745,新規,0,2022-03-02,2022-03-02,合同会社カクタスガーデン,,合同会社,静岡県,藤枝市,高州２５番地の７,,22,214,4260000,,,,,,,2022-03-02,1,,,,,カクタスガーデン,0
117,1080103002538,新規,0,2022-03-02,2022-03-02,合同会社萬天館,,合同会社,静岡県,沼津市,松長８０番地,,22,203,4100874,,,,,,,2022-03-02,1,,,,,マンテンカン,0
119,1090001017447,新規,0,2022-03-02,2022-03-02,株式会社やまなしハイドロジェンカンパニー,,株式会社,山梨県,甲府市,下向山町３２１６番地,,19,201,4001507,,,,,,,2022-03-02,1,,,,,ヤマナシハイドロジェンカンパニー,0
128,1120001244054,新規,0,2022-03-02,2022-03-02,株式会社ホトポス,,株式会社,大阪府,大阪市住吉区,我孫子３丁目８番１９号,,27,120,5580014,,,,,,,2022-03-02,1,,,,,ホトポス,0
129,1120001244087,新規,0,2022-03-02,2022-03-02,ＵＷ株式会社,,株式会社,大阪府,大阪市淀川区,西中島５丁目７番２５－１００４号,,27,123,5320011,,,,,,,2022-03-02,1,,,,,ユーダブリュー,0
130,1120001244145,新規,0,2022-03-02,2022-03-02,株式会社Ｄｅｓｋｂｕｌｌｅｔ,,株式会社,大阪府,大阪市浪速区,難波中２丁目１０番７０号なんばパークスタワー１９Ｆ,,27,111,5560011,,,,,,,2022-03-02,1,,,,,デスクバレット,0
131,1120003021170,新規,0,2022-03-02,2022-03-02,合同会社鷹羽ゴルフマネージメント,,合同会社,大阪府,大阪市北区,豊崎３丁目１５番５号ＴＫビル２Ｆ,,27,127,5310072,,,,,,,2022-03-02,1,,,,,タカハゴルフマネージメント,0
138,1120101065136,新規,0,2022-03-02,2022-03-02,株式会社琉夏,,株式会社,大阪府,岸和田市,山直中町３７８番地の５,,27,202,5960102,,,,,,,2022-03-02,1,,,,,リュウカ,0
140,1120901045634,新規,0,2022-03-02,2022-03-02,株式会社ＪＵＭＰＬＩＦＥ,,株式会社,大阪府,豊中市,曽根東町５丁目７番９－１０１号,,27,203,5610802,,,,,,,2022-03-02,1,,,,,ジャンプライフ,0
155,1130001071233,新規,0,2022-03-02,2022-03-02,ダイキ工務店株式会社,,株式会社,京都府,宇治市,槇島町南落合１０５番７－６１０号,,26,204,6110041,,,,,,,2022-03-02,1,,,,,ダイキコウムテン,0
160,1140001125054,新規,0,2022-03-02,2022-03-02,株式会社ラフスペース,,株式会社,兵庫県,明石市,大久保町谷八木７５９番地２,,28,203,6740062,,,,,,,2022-03-02,1,,,,,ラフスペース,0
161,1140001125079,新規,0,2022-03-02,2022-03-02,株式会社ファウヌス,,株式会社,兵庫県,神戸市西区,伊川谷町潤和１５９６番地の１アイリープラザ潤和２０５号,,28,111,6512124,,,,,,,2022-03-02,1,,,,,ファウヌス,0
168,1150001025385,新規,0,2022-03-02,2022-03-02,株式会社日賀井造園土木,,株式会社,奈良県,奈良市,都祁友田町１７５９番地の１,00125847,29,201,6320246,,,,,,,2022-03-02,1,,,,,ヒガイゾウエンドボク,0
176,1160005011050,新規,0,2022-03-02,2022-03-02,一般社団法人ＪＧＳ協会,,その他の設立登記法人,滋賀県,草津市,平井４丁目１番３号,,25,206,5250023,,,,,,,2022-03-02,1,,,,,ジェージーエスキョウカイ,0
177,1170001016993,新規,0,2022-03-02,2022-03-02,株式会社井出物流,,株式会社,和歌山県,和歌山市,太田７４９番地７,,30,201,6408323,,,,,,,2022-03-02,1,,,,,イデブツリュウ,0
178,1170001017001,新規,0,2022-03-02,2022-03-02,株式会社こだま紙工,,株式会社,和歌山県,和歌山市,加納２２６番地１,,30,201,6408391,,,,,,,2022-03-02,1,,,,,コダマシコウ,0
183,1180001150172,新規,0,2022-03-02,2022-03-02,株式会社佐野ワールドフードプラン,,株式会社,愛知県,名古屋市東区,筒井３丁目２７番１８号,,23,102,4610003,,,,,,,2022-03-02,1,,,,,サノワールドフードプラン,0
184,1180001150239,新規,0,2022-03-02,2022-03-02,ソルフォースコンサルティング株式会社,,株式会社,愛知県,名古屋市中区,錦２丁目１５番１９号アゼット錦ビル４Ｂ,,23,106,4600003,,,,,,,2022-03-02,1,,,,,ソルフォースコンサルティング,0
190,1180301035981,新規,0,2022-03-02,2022-03-02,株式会社福寿へ紬,,株式会社,愛知県,高浜市,向山町４丁目６番地５,,23,227,4441313,,,,,,,2022-03-02,1,,,,,フクジュヘツムグ,0
192,1190001029176,新規,0,2022-03-02,2022-03-02,株式会社１９８０,,株式会社,三重県,松阪市,中央町３８４番地１ＯＺビル１階,,24,204,5150019,,,,,,,2022-03-02,1,,,,,イチキュウハチゼロ,0
193,1190001029192,新規,0,2022-03-02,2022-03-02,株式会社スマイルサークル,,株式会社,三重県,伊勢市,船江４丁目１８番２８号,,24,203,5160008,,,,,,,2022-03-02,1,,,,,スマイルサークル,0
194,1190003003914,新規,0,2022-03-02,2022-03-02,合同会社にげば企画,,合同会社,三重県,松阪市,川井町４５１番地３,,24,204,5150818,,,,,,,2022-03-02,1,,,,,ニゲバキカク,0
199,1200001039826,新規,0,2022-03-02,2022-03-02,株式会社ｅｉｇｈｔ,,株式会社,岐阜県,土岐市,泉町定林寺２７７番地の６,,21,212,5095102,,,,,,,2022-03-02,1,,,,,エイト,0
201,1200003005479,新規,0,2022-03-02,2022-03-02,合同会社楠田商事,,合同会社,岐阜県,瑞穂市,祖父江１４４－５,,21,216,5010225,,,,,,,2022-03-02,1,,,,,クスダショウジ,0
204,1220001024710,新規,0,2022-03-02,2022-03-02,株式会社Ｐｌｕｓ　Ｅ,,株式会社,石川県,金沢市,東山１丁目１３番７号,,17,201,9200831,,,,,,,2022-03-02,1,,,,,プラスイー,0
205,1220003003225,新規,0,2022-03-02,2022-03-02,合同会社ミロク,,合同会社,石川県,金沢市,専光寺町そ９７‐５,,17,201,9200356,,,,,,,2022-03-02,1,,,,,ミロク,0
207,1240001059399,新規,0,2022-03-02,2022-03-02,株式会社せとうち旅館,,株式会社,広島県,尾道市,山波町６７８番地１,,34,205,7220052,,,,,,,2022-03-02,1,,,,,セトウチリョカン,0
208,1240001059432,新規,0,2022-03-02,2022-03-02,株式会社ＪＣＡ生命科学研究所,,株式会社,広島県,広島市中区,光南１丁目３番２２－３０２号,,34,101,7300825,,,,,,,2022-03-02,1,,,,,ジェーシーエーセイメイカガクケンキュウショ,0
216,1250001019435,新規,0,2022-03-02,2022-03-02,株式会社末國水産,,株式会社,山口県,熊毛郡田布施町,大字波野５７４番地,,35,343,7421502,,,,,,,2022-03-02,1,,,,,スエクニスイサン,0
224,1260001036578,新規,0,2022-03-02,2022-03-02,株式会社サポートリユース,,株式会社,岡山県,赤磐市,桜が丘東５丁目５番地３５２,,33,213,7090721,,,,,,,2022-03-02,1,,,,,サポートリユース,0
225,1260001036586,新規,0,2022-03-02,2022-03-02,株式会社えん不動産,,株式会社,岡山県,倉敷市,上富井２４８番地１,,33,202,7100846,,,,,,,2022-03-02,1,,,,,エンフドウサン,0
226,1260001036594,新規,0,2022-03-02,2022-03-02,株式会社オフィス福原,,株式会社,岡山県,岡山市北区,東島田町１丁目６番５号藤井ビル４階,,33,101,7000983,,,,,,,2022-03-02,1,,,,,オフィスフクハラ,0
227,1260001036603,新規,0,2022-03-02,2022-03-02,株式会社Ｔａｓ,,株式会社,岡山県,岡山市中区,四御神５５９番地１,,33,102,7038201,,,,,,,2022-03-02,1,,,,,タス,0
232,1290001096578,新規,0,2022-03-02,2022-03-02,株式会社オルフェウス,,株式会社,福岡県,福岡市中央区,平丘町２番２２号,,40,133,8100017,,,,,,,2022-03-02,1,,,,,オルフェウス,0
233,1290001096594,新規,0,2022-03-02,2022-03-02,株式会社トランスホープ,,株式会社,福岡県,那珂川市,仲１丁目１０９－３,,40,231,8111253,,,,,,,2022-03-02,1,,,,,トランスホープ,0
236,1290005018578,新規,0,2022-03-02,2022-03-02,一般社団法人耳ヨガトレーニング協会,,その他の設立登記法人,福岡県,福岡市西区,富士見３丁目２０番１号,,40,135,8190387,,,,,,,2022-03-02,1,,,,,ミミヨガトレーンングキョウカイ,0
239,1290801028301,新規,0,2022-03-02,2022-03-02,株式会社ＧｒａｔｅｆｕｌＤａｙｓ．,,株式会社,福岡県,遠賀郡遠賀町,浅木１丁目１５番５号,,40,384,8114312,,,,,,,2022-03-02,1,,,,,,0
249,1320001018941,新規,0,2022-03-02,2022-03-02,株式会社建宝,,株式会社,大分県,大分市,大字市８８８番地の７６,,44,201,8701151,,,,,,,2022-03-02,1,,,,,ケンホウ,0
250,1330001029483,新規,0,2022-03-02,2022-03-02,株式会社堂上エンジニアリング,,株式会社,熊本県,宇城市,松橋町浦川内１８６番地,,43,213,8690521,,,,,,,2022-03-02,1,,,,,ドノウエエンジニアリング,0
251,1330001029500,新規,0,2022-03-02,2022-03-02,株式会社上野総業,,株式会社,熊本県,山鹿市,鹿本町石渕１０１０番地,,43,208,8610311,,,,,,,2022-03-02,1,,,,,ウエノソウギョウ,0
252,1330003009269,新規,0,2022-03-02,2022-03-02,合同会社永進,,合同会社,熊本県,天草市,本渡町本戸馬場１９８３番地３,,43,215,8630002,,,,,,,2022-03-02,1,,,,,エイシン,0
255,1340001024525,新規,0,2022-03-02,2022-03-02,株式会社インテリアＭＡＲＩＮ,,株式会社,鹿児島県,鹿児島市,鴨池１丁目５９番２７号,,46,201,8900063,,,,,,,2022-03-02,1,,,,,インテリアマリン,0
258,1340003003725,新規,0,2022-03-02,2022-03-02,合同会社ＡＴＥＬＩＥＲ　Ｍ,,合同会社,鹿児島県,鹿児島市,吉野町６６８０番地６,,46,201,8920871,,,,,,,2022-03-02,1,,,,,アトリエエム,0
259,1340005009415,新規,0,2022-03-02,2022-03-02,一般社団法人シマクル,,その他の設立登記法人,鹿児島県,熊毛郡南種子町,中之上２４９４番地１,,46,502,8913701,,,,,,,2022-03-02,1,,,,,シマクル,0
260,1350001017610,新規,0,2022-03-02,2022-03-02,株式会社ＫＴＳ,,株式会社,宮崎県,宮崎市,大塚町竹下５３２番地１０,,45,201,8800951,,,,,,,2022-03-02,1,,,,,ケイティーエス,0
262,1370001048257,新規,0,2022-03-02,2022-03-02,株式会社Ｓｍｉｌｉｖｅ,,株式会社,宮城県,仙台市泉区,寺岡６丁目１５番地の２０,,04,105,9813204,,,,,,,2022-03-02,1,,,,,スマイライブ,0
263,1370001048265,新規,0,2022-03-02,2022-03-02,株式会社ミトラ,,株式会社,宮城県,仙台市青葉区,二日町１６番２号,,04,101,9800802,,,,,,,2022-03-02,1,,,,,ミトラ,0
264,1370003005603,新規,0,2022-03-02,2022-03-02,合同会社Ａｇｉｌｉｔｙ　Ｓｈａｒｅ,,合同会社,宮城県,仙台市青葉区,本町１丁目５番２８号カーニープレイス仙台駅前通６０３号室,,04,101,9800014,,,,,,,2022-03-02,1,,,,,アジリティシェア,0
277,1430003013665,新規,0,2022-03-02,2022-03-02,合同会社ＨＭＳ,,合同会社,北海道,札幌市中央区,南七条西２３丁目２番２４号,,01,101,0640807,,,,,,,2022-03-02,1,,,,,エイチエムエス,0
278,1430003013673,新規,0,2022-03-02,2022-03-02,合同会社農業リスクコンサルタント,,合同会社,北海道,札幌市西区,発寒十一条１丁目４番１２号,,01,107,0630831,,,,,,,2022-03-02,1,,,,,ノウギョウリスクコンサルタント,0
280,1450001013624,新規,0,2022-03-02,2022-03-02,アサヒ板金株式会社,,株式会社,北海道,旭川市,永山十二条２丁目６番４号,,01,204,0798422,,,,,,,2022-03-02,1,,,,,アサヒバンキン,0
281,1460001005661,新規,0,2022-03-02,2022-03-02,株式会社ＨＫ　ｉｎｎｏｖａｔｉｏｎ,,株式会社,北海道,釧路市,鳥取北１０丁目８番５号,,01,206,0840907,,,,,,,2022-03-02,1,,,,,エイチケーイノベーション,0
286,1470001018984,新規,0,2022-03-02,2022-03-02,株式会社一配管土木,,株式会社,香川県,木田郡三木町,大字平木１０７９番地６,,37,341,7610702,,,,,,,2022-03-02,1,,,,,ハジメハイカンドボク,0
288,1470003002144,新規,0,2022-03-02,2022-03-02,Ｗａｖｂｅｅ合同会社,,合同会社,香川県,高松市,紙町５４７番地１サンライフ松本Ｄ棟１０２号,,37,201,7618055,,,,,,,2022-03-02,1,,,,,ウェービー,0
289,1490001010130,新規,0,2022-03-02,2022-03-02,株式会社靖志,,株式会社,高知県,高知市,南金田１５番１０号,,39,201,7810074,,,,,,,2022-03-02,1,,,,,ヤスシ,0
290,1490005006827,新規,0,2022-03-02,2022-03-02,農事組合法人大正中津川,,その他の設立登記法人,高知県,高岡郡四万十町,大正中津川２４３番地の１,,39,412,7860316,,,,,,,2022-03-02,1,,,,,タイショウナカツガワ,0
296,1700150106938,新規,0,2022-03-02,2022-02-04,演奏集団「ザ・トリオ」,,その他,東京都,中央区,新川２丁目２７－５－６０１,,13,102,1040033,,,,,,,2022-02-04,1,,,,,エンソウシユウダンザトリオ,0
299,2010001224867,新規,0,2022-03-02,2022-03-02,Ｍ．Ｍ　ｉｎｃｕｂａｔｏｒ株式会社,,株式会社,東京都,中央区,京橋２丁目８番２１号仁大ビル天翔オフィス京橋７３４号室,,13,102,1040031,,,,,,,2022-03-02,1,,,,,エムエムインキュベーター,0
303,2010003037103,新規,0,2022-03-02,2022-03-02,合同会社ＮＲＴグロース１８,,合同会社,東京都,中央区,八丁堀４丁目２番１０号ＡＯＪ税理士法人内,,13,102,1040032,,,,,,,2022-03-02,1,,,,,エヌアールティグロースエイティーン,0
304,2010005034651,新規,0,2022-03-02,2022-03-02,一般社団法人ユースキャリア教育機構,,その他の設立登記法人,東京都,千代田区,神田錦町３丁目１１－９弦本ビル２Ｆ,,13,101,1010054,,,,,,,2022-03-02,1,,,,,ユースキャリアキョウイクキコウ,0
308,2010401165876,新規,0,2022-03-02,2022-03-02,株式会社ライフイズ,,株式会社,東京都,港区,赤坂９丁目１番２－６１１号,,13,103,1070052,,,,,,,2022-03-02,1,,,,,ライフイズ,0
309,2010401165901,新規,0,2022-03-02,2022-03-02,ＭｅｔａＷｏｒｌｄ株式会社,,株式会社,東京都,港区,西麻布３丁目１３番１６－８０２号,,13,103,1060031,,,,,,,2022-03-02,1,,,,,メタワールド,0
311,2010403027141,新規,0,2022-03-02,2022-03-02,ＮＩＮＡＳ　ＴＲＡＤＩＮＧ合同会社,,合同会社,東京都,港区,南青山２丁目２番８号ＤＦビル５階６０３,,13,103,1070062,,,,,,,2022-03-02,1,,,,,ニナストレーディング,0
312,2010501048527,新規,0,2022-03-02,2022-03-02,株式会社ＬＯＮＯ　ＨＥＡＬＴＨ販売,,株式会社,東京都,台東区,柳橋１丁目３番１１号,,13,106,1110052,,,,,,,2022-03-02,1,,,,,ロノヘルスハンバイ,0
316,2010705003328,新規,0,2022-03-02,2022-03-02,一般社団法人ケイズ,,その他の設立登記法人,東京都,品川区,上大崎３丁目１番１号目黒セントラルスクエア１５階,,13,109,1410021,,,,,,,2022-03-02,1,,,,,ケイズ,0
319,2010901050446,新規,0,2022-03-02,2022-03-02,株式会社小林経済研究所,,株式会社,東京都,世田谷区,上用賀５丁目６番１９号,,13,112,1580098,,,,,,,2022-03-02,1,,,,,コバヤシケイザイケンキュウジョ,0
331,2011001145938,新規,0,2022-03-02,2022-03-02,株式会社ＭＯＰＵＳ,,株式会社,東京都,渋谷区,恵比寿４丁目２２番４号シエル恵比寿２０２,,13,113,1500013,,,,,,,2022-03-02,1,,,,,モプス,0
332,2011001145995,新規,0,2022-03-02,2022-03-02,株式会社愉快な暮らし,,株式会社,東京都,目黒区,八雲１丁目８番７号,,13,110,1520023,,,,,,,2022-03-02,1,,,,,ユカイナクラシ,0
333,2011001146052,新規,0,2022-03-02,2022-03-02,株式会社Ａｒｉ・ｇａｔｅホールディングス,,株式会社,東京都,渋谷区,代官山町１９番４号代官山駅ビル二階,,13,113,1500034,,,,,,,2022-03-02,1,,,,,アリゲートホールディングス,0
336,2011003014257,新規,0,2022-03-02,2022-03-02,合同会社チョコアンドクッキー,,合同会社,東京都,渋谷区,渋谷３丁目１３番５号ＢＰＲレジデンス渋谷８０２,,13,113,1500002,,,,,,,2022-03-02,1,,,,,チョコアンドクッキー,0
337,2011003014273,新規,0,2022-03-02,2022-03-02,ＨＬＲ合同会社,,合同会社,東京都,渋谷区,本町５丁目４番７号,,13,113,1510071,,,,,,,2022-03-02,1,,,,,エイチエルアール,0
338,2011101097988,新規,0,2022-03-02,2022-03-02,ネクスターズ株式会社,,株式会社,東京都,新宿区,大久保３丁目８番３号,,13,104,1690072,,,,,,,2022-03-02,1,,,,,ネクスターズ,0
339,2011105010154,新規,0,2022-03-02,2022-03-02,一般社団法人ユニバーサル,,その他の設立登記法人,東京都,新宿区,西新宿５丁目８番５－９０２号,,13,104,1600023,,,,,,,2022-03-02,1,,,,,,0
340,2011201023679,新規,0,2022-03-02,2022-03-02,なかののなかの株式会社,,株式会社,東京都,中野区,中央２丁目２番３号ＳＴＡＲＬＩＧＨＴＢＬＤＧ．４階,,13,114,1640011,,,,,,,2022-03-02,1,,,,,ナカノノナカノ,0
345,2011701025076,新規,0,2022-03-02,2022-03-02,囲炉裏株式会社,,株式会社,東京都,江戸川区,西葛西７丁目２９番１０号西葛西アパートメント２－２０１,,13,123,1340088,,,,,,,2022-03-02,1,,,,,イロリ,0
351,2011801040396,新規,0,2022-03-02,2022-03-02,エイト株式会社,,株式会社,東京都,葛飾区,亀有５丁目４１－１０サンクレイドル亀有１４０２,,13,122,1250061,,,,,,,2022-03-02,1,,,,,エイト,0
352,2011803004985,新規,0,2022-03-02,2022-03-02,スキフ合同会社,,合同会社,東京都,足立区,島根４丁目３０番８号,,13,121,1210815,,,,,,,2022-03-02,1,,,,,スキフ,0
355,2012403005259,新規,0,2022-03-02,2022-03-02,ＬａｉＹｏ合同会社,,合同会社,東京都,調布市,布田６丁目１７番地３２,,13,208,1820024,,,,,,,2022-03-02,1,,,,,ライヨ,0
362,2020001145427,新規,0,2022-03-02,2022-03-02,株式会社スコビー,,株式会社,神奈川県,川崎市高津区,新作３丁目５－２０ル・マリエＷ２１,,14,134,2130014,,,,,,,2022-03-02,1,,,,,スコビー,0
363,2020001145435,新規,0,2022-03-02,2022-03-02,株式会社ノクサス商会,,株式会社,神奈川県,横浜市港北区,樽町１丁目２３番９号１０３,,14,109,2220001,,,,,,,2022-03-02,1,,,,,ノクサスショウカイ,0
364,2020001145501,新規,0,2022-03-02,2022-03-02,ＳＫオール株式会社,,株式会社,神奈川県,横浜市中区,不老町１丁目２番地７シャトレーイン横浜７０１号室,,14,104,2310032,,,,,,,2022-03-02,1,,,,,エスケーオール,0
365,2020001145542,新規,0,2022-03-02,2022-03-02,株式会社臼井建業,,株式会社,神奈川県,川崎市中原区,木月３丁目５０番２２－３０７号天王森マンション,,14,133,2110025,,,,,,,2022-03-02,1,,,,,ウスイケンギョウ,0
369,2020003021386,新規,0,2022-03-02,2022-03-02,合同会社ＦＣＧ商事,,合同会社,神奈川県,横浜市旭区,今宿西町４０８番地１,,14,112,2410031,,,,,,,2022-03-02,1,,,,,エフシージーショウジ,0
370,2020003021394,新規,0,2022-03-02,2022-03-02,合同会社ｏｎ,,合同会社,神奈川県,横浜市金沢区,西柴２丁目３１Ｅ３０４,,14,108,2360017,,,,,,,2022-03-02,1,,,,,オン,0
371,2020005015394,新規,0,2022-03-02,2022-03-02,特定非営利活動法人みずとんぼ,,その他の設立登記法人,神奈川県,川崎市幸区,幸町２丁目５９３番地モリファーストビル４階,,14,132,2120011,,,,,,,2022-03-02,1,,,,,ミズトンボ,0
377,2021001075309,新規,0,2022-03-02,2022-03-02,株式会社那須工業,,株式会社,神奈川県,大和市,深見５８６番地４Ｇ－ｓｔｙｌｅＦｕｋａｍｉＡ１０１,,14,213,2420011,,,,,,,2022-03-02,1,,,,,ナスコウギョウ,0
378,2021001075317,新規,0,2022-03-02,2022-03-02,株式会社コムレイド,,株式会社,神奈川県,横須賀市,二葉１丁目３番５号,,14,201,2390814,,,,,,,2022-03-02,1,,,,,コムレイド,0
387,2030003018951,新規,0,2022-03-02,2022-03-02,両毛ＲＡＭ合同会社,,合同会社,埼玉県,春日部市,大字大場１２６７番地７,,11,214,3440000,,,,,,,2022-03-02,1,,,,,リョウモウアールエーエム,0
393,2040001122390,新規,0,2022-03-02,2022-03-02,株式会社Ｐｌｕｓ　ｏｎｅ,,株式会社,千葉県,市川市,南行徳４丁目１２番６号２５Ｂ－１０８,,12,203,2720138,,,,,,,2022-03-02,1,,,,,プラスワン,0
399,2040003019552,新規,0,2022-03-02,2022-03-02,トップウィン合同会社,,合同会社,千葉県,千葉市中央区,富士見１丁目１４番１３号,,12,101,2600015,,,,,,,2022-03-02,1,,,,,トップウィン,0
401,2040005021531,新規,0,2022-03-02,2022-03-02,一般社団法人７ｐｒｏｊｅｃｔ,,その他の設立登記法人,千葉県,柏市,大津ケ丘１丁目２８番地８,,12,217,2770921,,,,,,,2022-03-02,1,,,,,ナナプロジェクト,0
415,2080101023130,新規,0,2022-03-02,2022-03-02,株式会社ワイエスケー,,株式会社,静岡県,沼津市,大諏訪３９５番地の２,,22,203,4100873,,,,,,,2022-03-02,1,,,,,ワイエスケー,0
419,2090001017446,新規,0,2022-03-02,2022-03-02,株式会社匠冷設,,株式会社,山梨県,甲府市,蓬沢１丁目８番１０号,,19,201,4000827,,,,,,,2022-03-02,1,,,,,タクミレイセツ,0
425,2110001036476,新規,0,2022-03-02,2022-03-02,株式会社ニプコ,,株式会社,新潟県,新潟市東区,中野山５丁目７番２２号,,15,102,9500841,,,,,,,2022-03-02,1,,,,,ニプコ,0
432,2120001244094,新規,0,2022-03-02,2022-03-02,株式会社ＥＬＵＦｉＴＨ,,株式会社,大阪府,大阪市生野区,林寺２丁目９－１２,,27,116,5440023,,,,,,,2022-03-02,1,,,,,エルフィス,0
433,2120001244136,新規,0,2022-03-02,2022-03-02,株式会社ＨＯＴＡＲＵ,,株式会社,大阪府,大阪市浪速区,日本橋４丁目５番１号日本橋ガーデンビュー２Ｆ,,27,111,5560005,,,,,,,2022-03-02,1,,,,,ホタル,0
434,2120001244160,新規,0,2022-03-02,2022-03-02,ＭＥ４７株式会社,,株式会社,大阪府,大阪市西成区,天下茶屋１丁目４番１８号１０１号室,,27,122,5570014,,,,,,,2022-03-02,1,,,,,ミーフォーティーセブン,0
437,2120003021211,新規,0,2022-03-02,2022-03-02,合同会社ティーエムズマネジメント,,合同会社,大阪府,守口市,高瀬町１丁目２番１９－１０１号,,27,209,5700053,,,,,,,2022-03-02,1,,,,,ティーエムズマネジメント,0
440,2120005022819,新規,0,2022-03-02,2022-03-02,一般社団法人薬剤師生涯教育支援機構,,その他の設立登記法人,大阪府,大阪市北区,天神橋１丁目９番５号アドバンス天神橋３Ｆ,,27,127,5300041,,,,,,,2022-03-02,1,,,,,ヤクザイシショウガイキョウイクシエンキコウ,0
444,2120101065135,新規,0,2022-03-02,2022-03-02,株式会社植忠,,株式会社,大阪府,堺市美原区,菅生１４００番地,,27,147,5870041,,,,,,,2022-03-02,1,,,,,ウエチュウ,0
447,2120103004594,新規,0,2022-03-02,2022-03-02,合同会社ＭＡＰＬＥ,,合同会社,大阪府,岸和田市,荒木町１丁目１３番１４号,,27,202,5960004,,,,,,,2022-03-02,1,,,,,メープル,0
449,2120901045658,新規,0,2022-03-02,2022-03-02,株式会社ＳＡＫＵＲＡ　ＢＡＳＥ,,株式会社,大阪府,豊中市,南桜塚３丁目３番１３号,,27,203,5610882,,,,,,,2022-03-02,1,,,,,サクラベース,0
450,2120901045666,新規,0,2022-03-02,2022-03-02,株式会社希,,株式会社,大阪府,高槻市,郡家新町１５番１０号,,27,207,5691136,,,,,,,2022-03-02,1,,,,,ホープ,0
454,2122001035622,新規,0,2022-03-02,2022-03-02,株式会社ｙＲカンパニー,,株式会社,大阪府,東大阪市,長堂１丁目８番２８－１６１０号,,27,227,5770056,,,,,,,2022-03-02,1,,,,,ワイアールカンパニー,0
455,2122001035639,新規,0,2022-03-02,2022-03-02,株式会社ジョイントエール,,株式会社,大阪府,四條畷市,田原台１丁目２番７号,,27,229,5750013,,,,,,,2022-03-02,1,,,,,,0
470,2160001024022,新規,0,2022-03-02,2022-03-02,株式会社きりんのき,,株式会社,滋賀県,湖南市,菩提寺西１丁目２番１６号,,25,211,5203248,,,,,,,2022-03-02,1,,,,,,0
479,2180001150270,新規,0,2022-03-02,2022-03-02,株式会社ニッシン技建,,株式会社,愛知県,日進市,栄２丁目１３０５番地ノースステージビル２Ｅ,,23,230,4700113,,,,,,,2022-03-02,1,,,,,ニッシンギケン,0
481,2180301035972,新規,0,2022-03-02,2022-03-02,株式会社平岩農園,,株式会社,愛知県,額田郡幸田町,大字坂崎字鍛冶屋下１番地,,23,501,4440104,,,,,,,2022-03-02,1,,,,,ヒライワノウエン,0
483,2190001029167,新規,0,2022-03-02,2022-03-02,株式会社幸歩,,株式会社,三重県,津市,雲出本郷町１５０４番地１５,,24,201,5140304,,,,,,,2022-03-02,1,,,,,シアル,0
484,2190001029175,新規,0,2022-03-02,2022-03-02,株式会社モビリティナビ,,株式会社,三重県,津市,垂水９９番地１,,24,201,5140821,,,,,,,2022-03-02,1,,,,,モビリティナビ,0
490,2220003003232,新規,0,2022-03-02,2022-03-02,合同会社金沢Ｗｉｚ,,合同会社,石川県,金沢市,寺地２丁目２０番１号,,17,201,9218178,,,,,,,2022-03-02,1,,,,,カナザワウィズ,0
493,2240001059398,新規,0,2022-03-02,2022-03-02,株式会社ウィズワーカー,,株式会社,広島県,廿日市市,串戸６丁目９番２０号,,34,213,7380033,,,,,,,2022-03-02,1,,,,,ウィズワーカー,0
494,2240001059407,新規,0,2022-03-02,2022-03-02,株式会社セトウチ,,株式会社,広島県,広島市西区,観音本町２丁目７番２９号,,34,104,7330033,,,,,,,2022-03-02,1,,,,,セトウチ,0
495,2240001059415,新規,0,2022-03-02,2022-03-02,株式会社ＴＡＧＡＷＡ,,株式会社,広島県,広島市東区,山根町１０番１７号,,34,102,7320048,,,,,,,2022-03-02,1,,,,,タガワ,0
499,2260001036585,新規,0,2022-03-02,2022-03-02,株式会社カーデータシェアリング,,株式会社,岡山県,岡山市南区,泉田４２１番地２０,,33,104,7000944,,,,,,,2022-03-02,1,,,,,カーデータシェアリング,0
500,2280001008649,新規,0,2022-03-02,2022-03-02,株式会社あかりいろ,,株式会社,島根県,松江市,春日町１９４－１０,,32,201,6900877,,,,,,,2022-03-02,1,,,,,アカリイロ,0
510,2290003012111,新規,0,2022-03-02,2022-03-02,トレードマシーン合同会社,,合同会社,福岡県,嘉穂郡桂川町,大字土居１０６３番地,,40,421,8200606,,,,,,,2022-03-02,1,,,,,トレードマシーン,0
513,2290805009528,新規,0,2022-03-02,2022-03-02,一般社団法人親和会,,その他の設立登記法人,福岡県,宮若市,長井鶴３２４番地６,,40,226,8230012,,,,,,,2022-03-02,1,,,,,シンワカイ,0
517,2310001017737,新規,0,2022-03-02,2022-03-02,吉弘商事株式会社,00125853,株式会社,長崎県,諫早市,永昌町１１番１０－８０１号ＣＡＳＡ永昌館,,42,204,8540072,,,,,,,2022-03-02,1,,,,,ヨシヒロショウジ,0
518,2320001018932,新規,0,2022-03-02,2022-03-02,株式会社ＭＡＲＲＹ　ＧＯＬＤ,,株式会社,大分県,大分市,大津町１丁目３番１９号,,44,201,8700907,,,,,,,2022-03-02,1,,,,,マリーゴールド,0
519,2320001018940,新規,0,2022-03-02,2022-03-02,株式会社幡手工業,,株式会社,大分県,中津市,大字大悟法８１１番地２０Ｇｒａｎｆｉｎｅ大悟法Ｅ棟,,44,203,8710151,,,,,,,2022-03-02,1,,,,,ハタテコウギョウ,0
520,2330001029499,新規,0,2022-03-02,2022-03-02,株式会社翔建住設,,株式会社,熊本県,熊本市東区,戸島本町１番６号,,43,102,8618042,,,,,,,2022-03-02,1,,,,,ショウケンジュウセツ,0
521,2330003009268,新規,0,2022-03-02,2022-03-02,ＰＱ貿易合同会社,,合同会社,熊本県,熊本市北区,植木町有泉６７３,,43,105,8610123,,,,,,,2022-03-02,1,,,,,ピーキューボウエキ,0
522,2340001024516,新規,0,2022-03-02,2022-03-02,株式会社土地匠,,株式会社,鹿児島県,霧島市,国分野口東９番３８号土地匠ビル１階,,46,218,8994341,,,,,,,2022-03-02,1,,,,,トチショウ,0
523,2340001024524,新規,0,2022-03-02,2022-03-02,株式会社吉井商店,,株式会社,鹿児島県,大島郡与論町,大字茶花２１３番地,,46,535,8919301,,,,,,,2022-03-02,1,,,,,ヨシイショウテン,0
527,2350001017618,新規,0,2022-03-02,2022-03-02,ＨＯＵＳＥ　ＩＮＮＯＶＡＴＩＯＮ株式会社,,株式会社,宮崎県,宮崎市,大字浮田９２２番地３,,45,201,8802104,,,,,,,2022-03-02,1,,,,,ハウスイノベーション,0
530,2370001048256,新規,0,2022-03-02,2022-03-02,株式会社Ｔｓｕｎａｇｕ不動産,,株式会社,宮城県,仙台市太白区,郡山７丁目８番１８号,,04,104,9820003,,,,,,,2022-03-02,1,,,,,ツナグフドウサン,0
535,2390001016814,新規,0,2022-03-02,2022-03-02,エルエムテクノ株式会社,,株式会社,山形県,天童市,北目３丁目９番８号グランデメゾン１０２号,,06,210,9940042,,,,,,,2022-03-02,1,,,,,エルエムテクノ,0
540,2430001086101,新規,0,2022-03-02,2022-03-02,ジェイ・アート株式会社,,株式会社,北海道,札幌市厚別区,厚別中央三条２丁目１３番３０号,,01,108,0040053,,,,,,,2022-03-02,1,,,,,ジェイアート,0
546,2440001009036,新規,0,2022-03-02,2022-03-02,株式会社棒二森屋,,株式会社,北海道,函館市,若松町１７番１２号,,01,202,0400063,,,,,,,2022-03-02,1,,,,,,0
547,2450001013623,新規,0,2022-03-02,2022-03-02,株式会社ＴＡＫＥＵＣＨＩｆａｒｍ,,株式会社,北海道,深川市,多度志１７８０番地,,01,228,0740141,,,,,,,2022-03-02,1,,,,,タケウチファーム,0
548,2450001013631,新規,0,2022-03-02,2022-03-02,Ｓｕｎｒｉｓｅ株式会社,,株式会社,北海道,旭川市,豊岡十五条７丁目４番１号,,01,204,0788245,,,,,,,2022-03-02,1,,,,,サンライズ,0
550,2460001005660,新規,0,2022-03-02,2022-03-02,株式会社トムソーヤ,,株式会社,北海道,白糠郡白糠町,西一条北３丁目１番地５２,,01,668,0880321,,,,,,,2022-03-02,1,,,,,トムソーヤ,0
555,2480001011665,新規,0,2022-03-02,2022-03-02,株式会社Ｎｉｋｉｎｉｋｉ,,株式会社,徳島県,阿南市,宝田町平岡８４８番地,,36,204,7740045,,,,,,,2022-03-02,1,,,,,ニキニキ,0
558,2500001024029,新規,0,2022-03-02,2022-03-02,株式会社安永建築,,株式会社,愛媛県,松山市,天山１丁目１番２７号,,38,201,7900951,,,,,,,2022-03-02,1,,,,,ヤスナガケンチク,0
559,2500001024045,新規,0,2022-03-02,2022-03-02,株式会社ＬＵＮＡＢＩ,,株式会社,愛媛県,松山市,土居田町３７５番５,,38,201,7900056,,,,,,,2022-03-02,1,,,,,ルナビ,0
560,2500003002783,新規,0,2022-03-02,2022-03-02,ＹＯＳＩＸ合同会社,,合同会社,愛媛県,今治市,大西町山之内甲３６０番地３,,38,202,7992207,,,,,,,2022-03-02,1,,,,,ヨシックス,0
563,2700150107068,新規,0,2022-03-02,2022-02-15,奈良県身体障害者福祉協会連合会,,その他,奈良県,橿原市,大久保町３２０－１１奈良県社会福祉総合センター内,,29,205,6340061,,,,,,,2022-02-15,1,,,,,ナラケンシンタイシヨウガイシヤフクシキヨウカイレンゴウカイ,0
569,3010001224627,新規,0,2022-03-02,2022-03-02,株式会社ティーズ,,株式会社,東京都,文京区,本駒込６丁目１番１８号,,13,105,1130021,,,,,,,2022-03-02,1,,,,,ティーズ,0
570,3010001224949,新規,0,2022-03-02,2022-03-02,株式会社ｆｃｆｓ,,株式会社,東京都,千代田区,神田小川町１丁目８番地３,,13,101,1010052,,,,,,,2022-03-02,1,,,,,エフシーエフエス,0
575,3010005034650,新規,0,2022-03-02,2022-03-02,一般社団法人ＯＷ２,,その他の設立登記法人,東京都,千代田区,丸の内２丁目２番１号岸本ビルヂング６Ｆ,,13,101,1000005,,,,,,,2022-03-02,1,,,,,オーダブリューツー,0
580,3010401165859,新規,0,2022-03-02,2022-03-02,株式会社ＭＹホールディングス,,株式会社,東京都,港区,芝浦４丁目２１番１－２６０７号,,13,103,1080023,,,,,,,2022-03-02,1,,,,,エムワイホールディングス,0
581,3010401165933,新規,0,2022-03-02,2022-03-02,株式会社リノトラ,,株式会社,東京都,港区,赤坂９丁目１－７赤坂レジデンシャル５７１号室,,13,103,1070052,,,,,,,2022-03-02,1,,,,,リノトラ,0
584,3010601060760,新規,0,2022-03-02,2022-03-02,株式会社ホライズンＴＯＫＹＯ,,株式会社,東京都,江東区,東砂５丁目６番１８号,,13,108,1360074,,,,,,,2022-03-02,1,,,,,ホライズントーキョー,0
596,3011001145895,新規,0,2022-03-02,2022-03-02,株式会社ラルス,,株式会社,東京都,渋谷区,神宮前６丁目２９番４号原宿ｋｏｍｉｙａビル６階,,13,113,1500001,,,,,,,2022-03-02,1,,,,,ラルス,0
597,3011001145937,新規,0,2022-03-02,2022-03-02,株式会社Ｓ３,,株式会社,東京都,渋谷区,代々木１丁目２５－５,,13,113,1510053,,,,,,,2022-03-02,1,,,,,エススリー,0
598,3011001145953,新規,0,2022-03-02,2022-03-02,株式会社ツインズ,,株式会社,東京都,目黒区,上目黒３丁目２９番７号,,13,110,1530051,,,,,,,2022-03-02,1,,,,,ツインズ,0
599,3011001145986,新規,0,2022-03-02,2022-03-02,株式会社ランドマン,,株式会社,東京都,渋谷区,恵比寿南１丁目１番９号岩徳ビル７階,,13,113,1500022,,,,,,,2022-03-02,1,,,,,ランドマン,0
600,3011001145994,新規,0,2022-03-02,2022-03-02,株式会社Ｇ－Ｃｒｅｗアカウンティング,,株式会社,東京都,渋谷区,渋谷２丁目１０番９号,,13,113,1500002,,,,,,,2022-03-02,1,,,,,ジークルーアカウンティング,0
601,3011001146010,新規,0,2022-03-02,2022-03-02,株式会社クバッセ,,株式会社,東京都,渋谷区,恵比寿３丁目７番３号東部恵比寿第３橘コーポ１０２,,13,113,1500013,,,,,,,2022-03-02,1,,,,,クバッセ,0
602,3011003014272,新規,0,2022-03-02,2022-03-02,合同会社ＸＤ,,合同会社,東京都,渋谷区,神宮前６丁目２３番４号桑野ビル２階,,13,113,1500001,,,,,,,2022-03-02,1,,,,,エックスディ,0
604,3011005009444,新規,0,2022-03-02,2022-03-02,一般社団法人日本美食鑑定協会,,その他の設立登記法人,東京都,渋谷区,恵比寿４丁目２０号３番,,13,113,1500013,,,,,,,2022-03-02,1,,,,,ニホンビショクカンテイキョウカイ,0
609,3011101097987,新規,0,2022-03-02,2022-03-02,ＤＸ　Ｔｏｋｙｏ株式会社,,株式会社,東京都,新宿区,新宿１丁目９番１号,,13,104,1600022,,,,,,,2022-03-02,1,,,,,ディーエックストウキョウ,0
613,3011301027595,新規,0,2022-03-02,2022-03-02,株式会社ＬｉＭ,,株式会社,東京都,杉並区,和田２丁目３６番１４号,,13,115,1660012,,,,,,,2022-03-02,1,,,,,リム,0
621,3011801040387,新規,0,2022-03-02,2022-03-02,株式会社遊輝興業,,株式会社,東京都,足立区,保木間４丁目８番７号１０２号室,,13,121,1210064,,,,,,,2022-03-02,1,,,,,ユウキコウギョウ,0
625,3012401038929,新規,0,2022-03-02,2022-03-02,株式会社ｂｅｎｃｈｍａｒｋ,,株式会社,東京都,調布市,緑ケ丘１丁目９番地２９,,13,208,1820001,,,,,,,2022-03-02,1,,,,,ベンチマーク,0
626,3012403005258,新規,0,2022-03-02,2022-03-02,フリーダム合同会社,,合同会社,東京都,府中市,押立町４丁目４番地の１８,,13,206,1830012,,,,,,,2022-03-02,1,,,,,フリーダム,0
629,3012803002714,新規,0,2022-03-02,2022-03-02,合同会社アポロ,,合同会社,東京都,国立市,中１丁目１０番地の２０,,13,215,1860004,,,,,,,2022-03-02,1,,,,,アポロ,0
638,3020001145434,新規,0,2022-03-02,2022-03-02,株式会社ＭＵＴＡＮＴ,,株式会社,神奈川県,横浜市港北区,樽町１丁目３番１９号,,14,109,2220001,,,,,,,2022-03-02,1,,,,,ミュータント,0
639,3020001145442,新規,0,2022-03-02,2022-03-02,株式会社ナインド,,株式会社,神奈川県,横浜市青葉区,荏田西２丁目２３番地３４,,14,117,2250014,,,,,,,2022-03-02,1,,,,,ナインド,0
640,3020001145467,新規,0,2022-03-02,2022-03-02,株式会社Ｓｏｅｌ,,株式会社,神奈川県,横浜市泉区,白百合３丁目８番１９号,,14,116,2450005,,,,,,,2022-03-02,1,,,,,ソエル,0
641,3020001145541,新規,0,2022-03-02,2022-03-02,アイラト株式会社,,株式会社,神奈川県,横浜市西区,花咲町６丁目１４３番地横浜ＭＩＤベースタワーレジデンス１３０９号,,14,103,2200022,,,,,,,2022-03-02,1,,,,,アイラト,0
644,3020003021377,新規,0,2022-03-02,2022-03-02,Ｏ’ｓ合同会社,,合同会社,神奈川県,横浜市瀬谷区,下瀬谷１丁目７－４ドエル籾山２－２０２,,14,114,2460035,,,,,,,2022-03-02,1,,,,,オーズ,0
645,3020003021393,新規,0,2022-03-02,2022-03-02,合同会社オーバーチュア,,合同会社,神奈川県,川崎市中原区,木月４丁目８番８－８０２号,,14,133,2110025,,,,,,,2022-03-02,1,,,,,オーバーチュア,0
647,3021001075316,新規,0,2022-03-02,2022-03-02,株式会社スティルライフ,,株式会社,神奈川県,藤沢市,鵠沼橘１丁目２番９－８０１号,00125852,14,205,2510024,,,,,,,2022-03-02,1,,,,,スティルライフ,0
648,3021001075340,新規,0,2022-03-02,2022-03-02,株式会社マリン,,株式会社,神奈川県,横須賀市,根岸町３丁目３番１６号,,14,201,2390807,,,,,,,2022-03-02,1,,,,,マリン,0
658,3030001147058,新規,0,2022-03-02,2022-03-02,株式会社ＶＩＹＯＮ,,株式会社,埼玉県,川口市,並木３丁目２３番２５,,11,203,3320034,,,,,,,2022-03-02,1,,,,,ヴィヨン,0
663,3030003018926,新規,0,2022-03-02,2022-03-02,合同会社うたかね,,合同会社,埼玉県,入間郡三芳町,大字竹間沢３７７－１ハイラークみずほ台５０４号,,11,324,3540043,,,,,,,2022-03-02,1,,,,,ウタカネ,0
664,3030003018950,新規,0,2022-03-02,2022-03-02,合同会社ｎｍ５,,合同会社,埼玉県,新座市,野火止５丁目２１－６,,11,230,3520011,,,,,,,2022-03-02,1,,,,,ンームズ,0
671,3040001122381,新規,0,2022-03-02,2022-03-02,株式会社ＹＭＤｐｒｉｖａｔｅ,,株式会社,千葉県,鎌ケ谷市,中央２丁目２番１０－２号,,12,224,2730124,,,,,,,2022-03-02,1,,,,,ワイエムディプライベート,0
672,3040001122398,新規,0,2022-03-02,2022-03-02,株式会社華盛商事,,株式会社,千葉県,浦安市,北栄１丁目２番２８ー１０６号新定マンション,,12,227,2790002,,,,,,,2022-03-02,1,,,,,カセイショウジ,0
673,3040001122489,新規,0,2022-03-02,2022-03-02,株式会社ＫＭ興産,,株式会社,千葉県,流山市,おおたかの森東３丁目３１番地の１５,,12,220,2700138,,,,,,,2022-03-02,1,,,,,ケイエムコウサン,0
676,3040005021530,新規,0,2022-03-02,2022-03-02,一般社団法人千葉イノベーションベース,,その他の設立登記法人,千葉県,船橋市,西船４丁目１９番３号西船成島ビル,,12,204,2730031,,,,,,,2022-03-02,1,,,,,チバイノベーションベース,0
677,3050001050706,新規,0,2022-03-02,2022-03-02,Ａｇｒｏファーム株式会社,,株式会社,茨城県,常総市,本石下３３５７番地３,,08,211,3002707,,,,,,,2022-03-02,1,,,,,アグロファーム,0
680,3070001038988,新規,0,2022-03-02,2022-03-02,株式会社これさえあれば,,株式会社,群馬県,伊勢崎市,宮子町１１７７番地７,,10,204,3720801,,,,,,,2022-03-02,1,,,,,コレサエアレバ,0
682,3080001024789,新規,0,2022-03-02,2022-03-02,株式会社ＡＬＩＭＥＮＴ,,株式会社,静岡県,藤枝市,駅前１丁目７番１４号すずろくビル１階,,22,214,4260034,,,,,,,2022-03-02,1,,,,,アリマン,0
685,3090001017437,新規,0,2022-03-02,2022-03-02,株式会社Ａ－ＣＲＯＮＯＳ,,株式会社,山梨県,南巨摩郡富士川町,長澤２３７８－８,,19,368,4000505,,,,,,,2022-03-02,1,,,,,エークロノス,0
701,3120001244077,新規,0,2022-03-02,2022-03-02,株式会社ラムトン,,株式会社,大阪府,大阪市東淀川区,西淡路１丁目１番３６号,,27,114,5330031,,,,,,,2022-03-02,1,,,,,ラムトン,0
702,3120001244127,新規,0,2022-03-02,2022-03-02,株式会社イレブン,,株式会社,大阪府,大阪市北区,梅田１丁目１番３号大阪駅前第三ビル２３０７,,27,127,5300001,,,,,,,2022-03-02,1,,,,,イレブン,0
703,3120001244143,新規,0,2022-03-02,2022-03-02,株式会社Ｓｍｉｌｅ　Ｆｉｓｈ,,株式会社,大阪府,交野市,私部西１丁目１１番５ＨＩＫＯ壱番館３０５号,,27,230,5760041,,,,,,,2022-03-02,1,,,,,スマイルフィッシュ,0
709,3120003021202,新規,0,2022-03-02,2022-03-02,Ｌａｃｔｅｒ合同会社,,合同会社,大阪府,大阪市福島区,福島１丁目１番４８,,27,103,5530003,,,,,,,2022-03-02,1,,,,,ラクター,0
710,3120003021210,新規,0,2022-03-02,2022-03-02,合同会社ｋｏｒｕｎｅ,,合同会社,大阪府,大阪市福島区,鷺洲５丁目１２－１－９０５,,27,103,5530002,,,,,,,2022-03-02,1,,,,,コルネ,0
711,3120005022818,新規,0,2022-03-02,2022-03-02,行政書士法人Ｎｉｎｅ,,その他の設立登記法人,大阪府,大阪市中央区,安土町１丁目４番１０号,,27,128,5410052,,,,,,,2022-03-02,1,,,,,ナイン,0
712,3120101065134,新規,0,2022-03-02,2022-03-02,ＳＭＴジャパン株式会社,,株式会社,大阪府,岸和田市,春木南浜町１２番３１号,,27,202,5960036,,,,,,,2022-03-02,1,,,,,エスエムティージャパン,0
714,3120901045665,新規,0,2022-03-02,2022-03-02,株式会社ＧＲＭ,,株式会社,大阪府,豊中市,長興寺北３丁目５番１７－１０５号,,27,203,5610875,,,,,,,2022-03-02,1,,,,,ジーアールエム,0
717,3122001035621,新規,0,2022-03-02,2022-03-02,株式会社ｉＯｒｂｉｔ,,株式会社,大阪府,八尾市,本町６丁目１４番１５号,,27,212,5810003,,,,,,,2022-03-02,1,,,,,アイオービット,0
731,3140003017396,新規,0,2022-03-02,2022-03-02,ひとまちｐｌｕｓ合同会社,,合同会社,兵庫県,神崎郡神河町,粟賀町１７０番地,,28,446,6792414,,,,,,,2022-03-02,1,,,,,ヒトマチプラス,0
733,3160001024021,新規,0,2022-03-02,2022-03-02,株式会社咲栄,,株式会社,滋賀県,大津市,朝日が丘１丁目２１番１号,,25,201,5200052,,,,,,,2022-03-02,1,,,,,サキエ,0
742,3180001150162,新規,0,2022-03-02,2022-03-02,株式会社ＦＯＲ８,,株式会社,愛知県,名古屋市中区,栄２丁目２番６号ファンファンタワー５Ｆ,,23,106,4600008,,,,,,,2022-03-02,1,,,,,フォアエイト,0
743,3180001150179,新規,0,2022-03-02,2022-03-02,株式会社ＳＰＡ,,株式会社,愛知県,名古屋市中川区,野田２丁目２３０番地の１（Ｄ－３）,,23,110,4540912,,,,,,,2022-03-02,1,,,,,エスピーエー,0
746,3180301035947,新規,0,2022-03-02,2022-03-02,株式会社長楽寝装,,株式会社,愛知県,豊橋市,下五井町青木３１番地の２５,,23,201,4400091,,,,,,,2022-03-02,1,,,,,チョウラクシンソウ,0
747,3190001029174,新規,0,2022-03-02,2022-03-02,株式会社ＯＮＥ,,株式会社,三重県,津市,一志町みのりヶ丘１１５番地１５４,,24,201,5152517,,,,,,,2022-03-02,1,,,,,ワン,0
748,3190001029182,新規,0,2022-03-02,2022-03-02,イシハラ商事株式会社,,株式会社,三重県,松阪市,小津町８００番地,,24,204,5152114,,,,,,,2022-03-02,1,,,,,イシハラショウジ,0
749,3190001029190,新規,0,2022-03-02,2022-03-02,株式会社ＳＹＡ,,株式会社,三重県,津市,中河原６４０,,24,201,5140018,,,,,,,2022-03-02,1,,,,,エスワイエー,0
752,3200001039799,新規,0,2022-03-02,2022-03-02,株式会社鷲見工務店,,株式会社,岐阜県,岐阜市,権現町５番地,,21,201,5008379,,,,,,,2022-03-02,1,,,,,スミコウムテン,0
753,3200001039808,新規,0,2022-03-02,2022-03-02,株式会社ヤマセイ,,株式会社,岐阜県,揖斐郡大野町,大字寺内３２６番地１,,21,403,5010503,,,,,,,2022-03-02,1,,,,,ヤマセイ,0
754,3200001039824,新規,0,2022-03-02,2022-03-02,ワースインベストメント株式会社,,株式会社,岐阜県,羽島郡岐南町,八剣４丁目８４番地,,21,302,5016012,,,,,,,2022-03-02,1,,,,,ワースインベストメント,0
756,3230001019261,新規,0,2022-03-02,2022-03-02,北陸サービス株式会社,,株式会社,富山県,南砺市,院林６番地１,,16,210,9391531,,,,,,,2022-03-02,1,,,,,ホクリクサービス,0
757,3230003001812,新規,0,2022-03-02,2022-03-02,合同会社北雪研究所,,合同会社,富山県,富山市,梅沢町１丁目７番２－４０３号,,16,201,9300055,,,,,,,2022-03-02,1,,,,,ホクセツケンキュウジョ,0
760,3240001059397,新規,0,2022-03-02,2022-03-02,株式会社イーエヌシー,,株式会社,広島県,広島市西区,中広町２丁目３０番１号,,34,104,7330012,,,,,,,2022-03-02,1,,,,,イーエヌシー,0
761,3240001059406,新規,0,2022-03-02,2022-03-02,株式会社あおばメモリアル廿日市会館,,株式会社,広島県,広島市西区,上天満町１０番２７号,,34,104,7330021,,,,,,,2022-03-02,1,,,,,アオバメモリアルハツカイチカイカン,0
762,3240001059414,新規,0,2022-03-02,2022-03-02,株式会社古江電気サービス,,株式会社,広島県,広島市西区,古江西町１３番１１－１２号,,34,104,7330874,,,,,,,2022-03-02,1,,,,,フルエデンキサービス,0
763,3240003005523,新規,0,2022-03-02,2022-03-02,ずっとデザイン合同会社,,合同会社,広島県,広島市中区,大手町１丁目１番２６号,,34,101,7300051,,,,,,,2022-03-02,1,,,,,ズットデザイン,0
764,3240005015347,新規,0,2022-03-02,2022-03-02,ＳＯＷＡ税理士法人,,その他の設立登記法人,広島県,広島市中区,八丁堀６番９号藤本ビル２階,,34,101,7300013,,,,,,,2022-03-02,1,,,,,ソウワ,0
773,3260001036584,新規,0,2022-03-02,2022-03-02,株式会社リピートコール,,株式会社,岡山県,岡山市南区,泉田４２１番地２０,,33,104,7000944,,,,,,,2022-03-02,1,,,,,リピートコール,0
774,3260001036592,新規,0,2022-03-02,2022-03-02,株式会社豊和設備工業,,株式会社,岡山県,岡山市中区,平井４丁目５番３５号,,33,102,7038282,,,,,,,2022-03-02,1,,,,,ホウワセツビコウギョウ,0
775,3260001036601,新規,0,2022-03-02,2022-03-02,株式会社ホーワビルサービス,,株式会社,岡山県,岡山市北区,鹿田町１丁目３番１６号,,33,101,7000914,,,,,,,2022-03-02,1,,,,,ホーワビルサービス,0
780,3290005018584,新規,0,2022-03-02,2022-03-02,一般社団法人ツール・ド・九州,,その他の設立登記法人,福岡県,福岡市中央区,天神１丁目１６番１号,,40,133,8100001,,,,,,,2022-03-02,1,,,,,ツールドキュウシュウ,0
784,3320001018931,新規,0,2022-03-02,2022-03-02,株式会社古庄ＡＬＭ,,株式会社,大分県,大分市,大手町１丁目６番８号,,44,201,8700022,,,,,,,2022-03-02,1,,,,,フルショウエーエルエム,0
788,3340001024515,新規,0,2022-03-02,2022-03-02,株式会社ＴＳライフ,,株式会社,鹿児島県,熊毛郡南種子町,茎永３３５５番地,,46,502,8913703,,,,,,,2022-03-02,1,,,,,ティーエスライフ,0
789,3340001024523,新規,0,2022-03-02,2022-03-02,株式会社東信貿易,,株式会社,鹿児島県,伊佐市,菱刈重留３３９番地１,,46,224,8952705,,,,,,,2022-03-02,1,,,,,トウシンボウエキ,0
790,3340001024531,新規,0,2022-03-02,2022-03-02,株式会社郡山開発,,株式会社,鹿児島県,鹿児島市,花尾町９０４番地１,,46,201,8911101,,,,,,,2022-03-02,1,,,,,コオリヤマカイハツ,0
795,3350001017617,新規,0,2022-03-02,2022-03-02,株式会社スマイルＰＬＵＳ,,株式会社,宮崎県,都城市,志比田町５８６６番地６,,45,202,8850093,,,,,,,2022-03-02,1,,,,,スマイルプラス,0
801,3360001030057,新規,0,2022-03-02,2022-03-02,株式会社盛家,,株式会社,沖縄県,那覇市,銘苅１丁目１５番１９号,,47,201,9000004,,,,,,,2022-03-02,1,,,,,モリヤ,0
804,3370001048255,新規,0,2022-03-02,2022-03-02,ＲＫ　ＴＲＡＤＩＮＧ株式会社,,株式会社,宮城県,白石市,鷹巣字川崎本木１番地６,,04,206,9890222,,,,,,,2022-03-02,1,,,,,アールケートレーディング,0
805,3370003005601,新規,0,2022-03-02,2022-03-02,合同会社田中美健,,合同会社,宮城県,仙台市青葉区,一番町１丁目９番２－７０２号,,04,101,9800811,,,,,,,2022-03-02,1,,,,,タナカビケン,0
809,3390001016813,新規,0,2022-03-02,2022-03-02,株式会社ミライズコーポレーション,,株式会社,山形県,山形市,南二番町５‐４,,06,201,9902442,,,,,,,2022-03-02,1,,,,,ミライズコーポレーション,0
814,3430003013663,新規,0,2022-03-02,2022-03-02,合同会社ＦＯＲＳＥＮＳＥ,,合同会社,北海道,札幌市中央区,南二条西１丁目２－１深山パーキングビル地下１階,,01,101,0600062,,,,,,,2022-03-02,1,,,,,フォーセンス,0
822,3460101007151,新規,0,2022-03-02,2022-03-02,株式会社優創サポート,,株式会社,北海道,中川郡幕別町,札内豊町４５番地の７,,01,643,0890532,,,,,,,2022-03-02,1,,,,,ユウソウサポート,0
824,3480001011664,新規,0,2022-03-02,2022-03-02,板谷総建株式会社,,株式会社,徳島県,徳島市,応神町西貞方字小島１３０番地の７,,36,201,7711155,,,,,,,2022-03-02,1,,,,,イタタニソウケン,0
827,3480003001795,新規,0,2022-03-02,2022-03-02,合同会社ひだまり,,合同会社,徳島県,徳島市,国府町日開１３７番地の２,,36,201,7793117,,,,,,,2022-03-02,1,,,,,ヒダマリ,0
829,3500001024028,新規,0,2022-03-02,2022-03-02,株式会社ＮｉｃｏＬａｎａ,,株式会社,愛媛県,松山市,高岡町８６番地１,,38,201,7918036,,,,,,,2022-03-02,1,,,,,ニコラナ,0
830,3500001024044,新規,0,2022-03-02,2022-03-02,ラルベルタＥＸ株式会社,,株式会社,愛媛県,東温市,下林甲１７６４番地,,38,215,7910222,,,,,,,2022-03-02,1,,,,,ラルベルタイーエックス,0
832,3500003002782,新規,0,2022-03-02,2022-03-02,合同会社トモカンパニー,,合同会社,愛媛県,松山市,桑原５丁目４番３６号,,38,201,7900911,,,,,,,2022-03-02,1,,,,,,0
833,3700150106952,新規,0,2022-03-02,2022-02-08,和歌山県小学校・中学校校長会事務局,,その他,和歌山県,和歌山市,美園町２丁目６３,,30,201,6408331,,,,,,,2022-02-08,1,,,,,ワカヤマケンシヨウガツコウチユウガツコウコウチヨウカイジムキヨク,0
838,4010101015082,新規,0,2022-03-02,2022-03-02,ＳＤＬａｂ株式会社,,株式会社,東京都,八王子市,加住町２丁目１７６,,13,201,1920004,,,,,,,2022-03-02,1,,,,,エスディラボ,0
845,4010401165874,新規,0,2022-03-02,2022-03-02,株式会社エーネックス,,株式会社,東京都,港区,芝５丁目２７番３号ＭＢＣ,,13,103,1080014,,,,,,,2022-03-02,1,,,,,エーネックス,0
846,4010401165882,新規,0,2022-03-02,2022-03-02,株式会社ＨｏｎｅｙＢｅｅ,,株式会社,東京都,港区,白金２丁目５番２０－５０５号,,13,103,1080072,,,,,,,2022-03-02,1,,,,,ハニービー,0
847,4010401165899,新規,0,2022-03-02,2022-03-02,ＭＩＲＡＩＴ　ＪＡＰＡＮ株式会社,,株式会社,東京都,港区,港南２丁目１６番４号品川グランドセントラルタワー８Ｆ,,13,103,1080075,,,,,,,2022-03-02,1,,,,,ミライトジャパン,0
857,4011001145993,新規,0,2022-03-02,2022-03-02,株式会社ＪＡＤＥ,,株式会社,東京都,渋谷区,渋谷１丁目１番３号アミーホール３Ｆ,,13,113,1500002,,,,,,,2022-03-02,1,,,,,ジェイド,0
858,4011001146001,新規,0,2022-03-02,2022-03-02,株式会社Ｃｏｎｎｅｃｔ　Ｆｏｒｃｅ,,株式会社,東京都,渋谷区,笹塚３丁目２１番６号ベルメゾン笹塚３０３,,13,113,1510073,,,,,,,2022-03-02,1,,,,,コネクトフォース,0
862,4011003014239,新規,0,2022-03-02,2022-03-02,合同会社ユリナカンパニー,,合同会社,東京都,渋谷区,道玄坂１丁目１０―８渋谷道玄坂東急ビル２Ｆ―Ｃ,,13,113,1500043,,,,,,,2022-03-02,1,,,,,ユリナカンパニー,0
863,4011003014271,新規,0,2022-03-02,2022-03-02,合同会社ラルゴ,,合同会社,東京都,渋谷区,神宮前３丁目１８番１６号,,13,113,1500001,,,,,,,2022-03-02,1,,,,,ラルゴ,0
869,4011101097887,新規,0,2022-03-02,2022-03-02,株式会社ＨＵＭ,,株式会社,東京都,新宿区,西新宿３丁目３－１３西新宿水間ビル６Ｆ,,13,104,1600023,,,,,,,2022-03-02,1,,,,,エイチユーエム,0
870,4011101097986,新規,0,2022-03-02,2022-03-02,Ｔ－ＬＥＡＰ株式会社,,株式会社,東京都,新宿区,四谷４丁目２５番地６,,13,104,1600004,,,,,,,2022-03-02,1,,,,,ティーリープ,0
872,4011201023677,新規,0,2022-03-02,2022-03-02,株式会社Ｆ・ホームズ,,株式会社,東京都,中野区,鷺宮６丁目２８番４６号,,13,114,1650032,,,,,,,2022-03-02,1,,,,,エフホームズ,0
883,4012301012900,新規,0,2022-03-02,2022-03-02,株式会社ＲｅＨｅａｒｔ,,株式会社,東京都,町田市,小野路町４４５２番地７７,,13,209,1950064,,,,,,,2022-03-02,1,,,,,リハート,0
887,4012401038903,新規,0,2022-03-02,2022-03-02,株式会社二十二設備,,株式会社,東京都,調布市,西つつじケ丘３丁目５番地２－１０１号,,13,208,1820006,,,,,,,2022-03-02,1,,,,,ニジュウニセツビ,0
893,4020001145350,新規,0,2022-03-02,2022-03-02,株式会社Ｇｌｉｔｔｅｒ,,株式会社,神奈川県,横浜市都筑区,南山田町４５８５－５,,14,118,2240026,,,,,,,2022-03-02,1,,,,,グリッター,0
894,4020001145433,新規,0,2022-03-02,2022-03-02,株式会社心健建設,,株式会社,神奈川県,横浜市南区,宮元町３丁目５２番地コルディア横濱サウス５０１,,14,105,2320016,,,,,,,2022-03-02,1,,,,,シンケンケンセツ,0
895,4020001145458,新規,0,2022-03-02,2022-03-02,株式会社ＴＹＳ,,株式会社,神奈川県,川崎市高津区,久地１丁目１８番１０－１０１号,,14,134,2130032,,,,,,,2022-03-02,1,,,,,ティーワイエス,0
897,4020003021293,新規,0,2022-03-02,2022-03-02,高木合同会社,00125844,合同会社,神奈川県,横浜市泉区,岡津町２４７番地１グリーンメゾン１０２号,,14,116,2450003,,,,,,,2022-03-02,1,,,,,タカギ,0
898,4020003021319,新規,0,2022-03-02,2022-03-02,合同会社ＲＴ,,合同会社,神奈川県,横浜市鶴見区,矢向３丁目３３－７－２階,,14,101,2300001,,,,,,,2022-03-02,1,,,,,アールティー,0
899,4020003021376,新規,0,2022-03-02,2022-03-02,合同会社ｎｅｂｕｌａ,,合同会社,神奈川県,横浜市西区,西平沼町４番１号,,14,103,2200024,,,,,,,2022-03-02,1,,,,,ネビュラ,0
900,4021001075240,新規,0,2022-03-02,2022-03-02,石川建工株式会社,,株式会社,神奈川県,南足柄市,怒田２８１２番地５,,14,217,2500106,,,,,,,2022-03-02,1,,,,,イシカワケンコウ,0
909,4030001147008,新規,0,2022-03-02,2022-03-02,株式会社ＳＡＩＫＥＮ,,株式会社,埼玉県,春日部市,西金野井４９１番地１,,11,214,3440112,,,,,,,2022-03-02,1,,,,,サイケン,0
910,4030001147024,新規,0,2022-03-02,2022-03-02,プレスカワジャパン株式会社,,株式会社,埼玉県,草加市,稲荷２丁目３２番地５号－１階,,11,221,3400003,,,,,,,2022-03-02,1,,,,,プレスカワジャパン,0
911,4030001147073,新規,0,2022-03-02,2022-03-02,株式会社ＳａｅＺａｅ,,株式会社,埼玉県,ふじみ野市,大井中央１丁目５番２５号,,11,245,3560058,,,,,,,2022-03-02,1,,,,,サエザエ,0
920,4040001122397,新規,0,2022-03-02,2022-03-02,株式会社ＭＤＳ,,株式会社,千葉県,松戸市,三矢小台４丁目１－１,,12,207,2710087,,,,,,,2022-03-02,1,,,,,エムディーエス,0
921,4040001122463,新規,0,2022-03-02,2022-03-02,株式会社ＯＳ　ＮＥＴＷＯＲＫ,,株式会社,千葉県,船橋市,高野台１丁目１７番１６－１号,,12,204,2740801,,,,,,,2022-03-02,1,,,,,オーエスネットワーク,0
925,4040003019591,新規,0,2022-03-02,2022-03-02,双王日耀合同会社,,合同会社,千葉県,千葉市若葉区,都賀５丁目２４番２１号フローテラス都賀２０６号室,,12,104,2640025,,,,,,,2022-03-02,1,,,,,ソウオウヒヨウ,0
928,4040005021521,新規,0,2022-03-02,2022-03-02,一般社団法人馬の国ＳＴセントジョージ・乗馬学校オリンピッククラブ,,その他の設立登記法人,千葉県,千葉市中央区,道場北１丁目２５２番４号,,12,101,2600006,,,,,,,2022-03-02,1,,,,,ウマノクニエスティセントジョージジョウバガッコウオリンピッククラブ,0
930,4050003006358,新規,0,2022-03-02,2022-03-02,合同会社ＳＥＮＡ,,合同会社,茨城県,笠間市,下郷７１５番地３,,08,216,3190202,,,,,,,2022-03-02,1,,,,,セナ,0
932,4070001038979,新規,0,2022-03-02,2022-03-02,ＨＡＲＯＯＮ　ＴＲＡＤＩＮＧ株式会社,,株式会社,群馬県,太田市,牛沢町１５３番地１３５４コーポ１０５号室,,10,205,3730833,,,,,,,2022-03-02,1,,,,,ハルーントレーディング,0
933,4080001024788,新規,0,2022-03-02,2022-03-02,大夢建設工業株式会社,,株式会社,静岡県,静岡市葵区,上足洗３丁目１２番８－３０１号,,22,101,4200841,,,,,,,2022-03-02,1,,,,,ダイムケンセツコウギョウ,0
934,4080001024796,新規,0,2022-03-02,2022-03-02,株式会社アリエル,,株式会社,静岡県,静岡市葵区,千代田４丁目２番１２号,,22,101,4200803,,,,,,,2022-03-02,1,,,,,アリエル,0
936,4080003002742,新規,0,2022-03-02,2022-03-02,合同会社一期,,合同会社,静岡県,静岡市清水区,下野北３番１２号,,22,103,4240021,,,,,,,2022-03-02,1,,,,,イチゴ,0
937,4080005007434,新規,0,2022-03-02,2022-03-02,一般社団法人一会,,その他の設立登記法人,静岡県,焼津市,花沢３５番地の２－１号,,22,212,4250001,,,,,,,2022-03-02,1,,,,,イチエ,0
939,4080101023129,新規,0,2022-03-02,2022-03-02,大静ファーム株式会社,,株式会社,静岡県,駿東郡長泉町,本宿２９１番地の１,,22,342,4110945,,,,,,,2022-03-02,1,,,,,タイセイファーム,0
942,4090001017436,新規,0,2022-03-02,2022-03-02,株式会社ルシエルトリニティー,,株式会社,山梨県,富士吉田市,新倉２５８８番地の１０,,19,202,4030011,,,,,,,2022-03-02,1,,,,,ルシエルトリニティー,0
949,4120001244142,新規,0,2022-03-02,2022-03-02,ＢＣＹＫ株式会社,,株式会社,大阪府,大阪市中央区,船場中央２丁目１番４号船場センタービル４号館地下一階Ｂ１０８ＲＯＹＡＬＯＦＦＩＣＥ内,,27,128,5410055,,,,,,,2022-03-02,1,,,,,ビーシーワイケイ,0
950,4120001244159,新規,0,2022-03-02,2022-03-02,思域株式会社,,株式会社,大阪府,大阪市東住吉区,桑津３丁目３０番２７号,,27,121,5460041,,,,,,,2022-03-02,1,,,,,シイキ,0
952,4120005022817,新規,0,2022-03-02,2022-03-02,一般社団法人門真沖スポーツクラブ,,その他の設立登記法人,大阪府,門真市,千石東町２９番１２号,,27,223,5710013,,,,,,,2022-03-02,1,,,,,カドマオキスポーツクラブ,0
954,4120101065133,新規,0,2022-03-02,2022-03-02,株式会社大翔電工,,株式会社,大阪府,大阪狭山市,東池尻５丁目１４４９番地の２９,,27,231,5890004,,,,,,,2022-03-02,1,,,,,ダイショウデンコウ,0
962,4122001035637,新規,0,2022-03-02,2022-03-02,株式会社未来,,株式会社,大阪府,八尾市,跡部南の町２丁目１番１５号,,27,212,5810055,,,,,,,2022-03-02,1,,,,,ミライ,0
967,4130001071263,新規,0,2022-03-02,2022-03-02,のあ株式会社,,株式会社,京都府,京都市下京区,堀川通綾小路下る綾堀川町３１１番地２の１０５,,26,106,6008482,,,,,,,2022-03-02,1,,,,,ノア,0
974,4150001025382,新規,0,2022-03-02,2022-03-02,ＢＯＯＭ　ＰＬＵＳ株式会社,,株式会社,奈良県,橿原市,川西町９３５－２８,,29,205,6340826,,,,,,,2022-03-02,1,,,,,ブームプラス,0
983,4180003023530,新規,0,2022-03-02,2022-03-02,ＣＯＭＰＡＳＳ合同会社,,合同会社,愛知県,名古屋市中区,栄５丁目２６番２９号ＧＳ栄ビル３階,,23,106,4600008,,,,,,,2022-03-02,1,,,,,コンパス,0
984,4180303005261,新規,0,2022-03-02,2022-03-02,合同会社フミとロミ,,合同会社,愛知県,刈谷市,井ケ谷町下ノ瀬３番地,,23,210,4480001,,,,,,,2022-03-02,1,,,,,フミトロミ,0
985,4190001029173,新規,0,2022-03-02,2022-03-02,エムテック株式会社,,株式会社,三重県,四日市市,西富田町５１２番地８,,24,202,5108024,,,,,,,2022-03-02,1,,,,,エムテック,0
987,4190003003911,新規,0,2022-03-02,2022-03-02,合同会社グリーンライト,,合同会社,三重県,津市,久居二ノ町１７２８番地１,,24,201,5141121,,,,,,,2022-03-02,1,,,,,グリーンライト,0
988,4200001039807,新規,0,2022-03-02,2022-03-02,株式会社エイシン企画,,株式会社,岐阜県,岐阜市,朝霧町３７番地２,,21,201,5008255,,,,,,,2022-03-02,1,,,,,エイシンキカク,0
997,4240001059388,新規,0,2022-03-02,2022-03-02,株式会社ＬｉＮｅｏ,,株式会社,広島県,広島市中区,基町１１－１０合人社広島紙屋町ビル８Ｆ－２,,34,101,7300011,,,,,,,2022-03-02,1,,,,,リネオ,0
998,4240001059396,新規,0,2022-03-02,2022-03-02,株式会社ネオブレイン,,株式会社,広島県,広島市西区,三篠町３丁目２１番１５号,,34,104,7330003,,,,,,,2022-03-02,1,,,,,ネオブレイン,0
999,4240001059405,新規,0,2022-03-02,2022-03-02,株式会社まりも,,株式会社,広島県,広島市安佐南区,西原１丁目２３番１２号,,34,105,7310113,,,,,,,2022-03-02,1,,,,,マリモ,0
1001,4240005015346,新規,0,2022-03-02,2022-03-02,医療法人はんざわ歯科医院,,その他の設立登記法人,広島県,広島市佐伯区,利松２丁目２２番３号,,34,108,7315106,,,,,,,2022-03-02,1,,,,,ハンザワシカイイン,0
1005,4260001036575,新規,0,2022-03-02,2022-03-02,株式会社ＥＮＩＸＴＩＡＬ,,株式会社,岡山県,津山市,上河原１７２番地５コーポアルカディア１Ｆ,,33,203,7080002,,,,,,,2022-03-02,1,,,,,エニシャル,0
1006,4260001036591,新規,0,2022-03-02,2022-03-02,株式会社ティークリップ,,株式会社,岡山県,岡山市北区,下中野３２３番地１０１,,33,101,7000973,,,,,,,2022-03-02,1,,,,,ティークリップ,0
1014,4290001096526,新規,0,2022-03-02,2022-03-02,Ｅｎｂｉｒｄｓ株式会社,,株式会社,福岡県,福岡市博多区,博多駅前２丁目１－１,,40,132,8120011,,,,,,,2022-03-02,1,,,,,エンバーズ,0
1015,4290003012191,新規,0,2022-03-02,2022-03-02,合同会社リノット,,合同会社,福岡県,古賀市,花見東４丁目３番１‐６０１号,,40,223,8113112,,,,,,,2022-03-02,1,,,,,リノット,0
1016,4290003012200,新規,0,2022-03-02,2022-03-02,テトラグラフ合同会社,,合同会社,福岡県,福岡市博多区,上川端町９－３５冷泉荘Ａ５１,,40,132,8120026,,,,,,,2022-03-02,1,,,,,テトラグラフ,0
1017,4290003012217,新規,0,2022-03-02,2022-03-02,合同会社ＭｏｂｉＶａｌｅｔ,,合同会社,福岡県,福岡市中央区,大名２丁目６番１１号,,40,133,8100041,,,,,,,2022-03-02,1,,,,,モビバレット,0
1028,4320001018939,新規,0,2022-03-02,2022-03-02,株式会社達成工業,,株式会社,大分県,大分市,小佐井３丁目３番５号,,44,201,8700327,,,,,,,2022-03-02,1,,,,,タッセイコウギョウ,0
1030,4330001029489,新規,0,2022-03-02,2022-03-02,株式会社アンボイス,,株式会社,熊本県,阿蘇市,一の宮町坂梨２６５９番地２,,43,214,8692611,,,,,,,2022-03-02,1,,,,,アンボイス,0
1034,4340001024530,新規,0,2022-03-02,2022-03-02,生田屋珈琲株式会社,,株式会社,鹿児島県,鹿児島市,坂元町２７番２８号,,46,201,8920862,,,,,,,2022-03-02,1,,,,,イクタヤコーヒー,0
1035,4340001024539,新規,0,2022-03-02,2022-03-02,株式会社森びと緑産,,株式会社,鹿児島県,鹿児島市,花尾町９０４番地１,,46,201,8911101,,,,,,,2022-03-02,1,,,,,モリビトリョクサン,0
1036,4350001017616,新規,0,2022-03-02,2022-03-02,株式会社Ｌｏｔｕｓ　ｃａｒｅ　ｃｏｍｐａｎｙ,,株式会社,宮崎県,宮崎市,波島２丁目１８番１７－１号,,45,201,8800826,,,,,,,2022-03-02,1,,,,,ロータスケアカンパニー,0
1037,4360005006606,新規,0,2022-03-02,2022-03-02,一般社団法人しもじ島そらの協力会,,その他の設立登記法人,沖縄県,宮古島市,伊良部字長浜１９０番地１,,47,214,9060506,,,,,,,2022-03-02,1,,,,,シモジジマソラノキョウリョクカイ,0
1039,4370001048254,新規,0,2022-03-02,2022-03-02,株式会社サンユーズ,,株式会社,宮城県,仙台市青葉区,中山吉成２丁目１６番１０号,,04,101,9893203,,,,,,,2022-03-02,1,,,,,サンユーズ,0
1040,4370001048270,新規,0,2022-03-02,2022-03-02,株式会社ＬＥＡＬＥ,,株式会社,宮城県,仙台市泉区,将監２丁目２６－１１プリエールコートイズミ２０１,,04,105,9813132,,,,,,,2022-03-02,1,,,,,レアーレ,0
1054,4410001013105,新規,0,2022-03-02,2022-03-02,株式会社エスエスクリーン,,株式会社,秋田県,秋田市,外旭川字大堤６５４番地２２,,05,201,0100802,,,,,,,2022-03-02,1,,,,,エスエスクリーン,0
1059,4430001086116,新規,0,2022-03-02,2022-03-02,株式会社マキノ創匠,,株式会社,北海道,石狩市,花畔四条１丁目１０４番地１,,01,235,0613284,,,,,,,2022-03-02,1,,,,,マキノソウショウ,0
1062,4460001005659,新規,0,2022-03-02,2022-03-02,肥土原産業株式会社,,株式会社,北海道,釧路市,鳥取大通３丁目２番１０号,,01,206,0840906,,,,,,,2022-03-02,1,,,,,ヒドハラサンギョウ,0
1071,4500003002781,新規,0,2022-03-02,2022-03-02,合同会社ビーンシステム,,合同会社,愛媛県,松山市,生石町４９７番地,,38,201,7900051,,,,,,,2022-03-02,1,,,,,ビーンシステム,0
1073,4700150107248,新規,0,2022-03-02,2022-03-02,７－Ｅｌｅｖｅｎ　Ｉｎｔｅｒｎａｔｉｏｎａｌ　ＬＬＣ,,外国会社等,東京都,千代田区,二番町８番地８,,13,101,1020084,アメリカ合衆国テキサス州アービングハックベリーロード３２００,,,,,,2022-03-02,1,,,,,セブンイレブンインターナシヨナルエルエルシー,0
1078,5010001224939,新規,0,2022-03-02,2022-03-02,株式会社Ｆｉｌｌ　Ｇａｐｓ,,株式会社,東京都,中央区,銀座６丁目１４－８銀座石井ビル,,13,102,1040061,,,,,,,2022-03-02,1,,,,,フィルギャップス,0
1079,5010001224955,新規,0,2022-03-02,2022-03-02,株式会社ＹＡＭＡＳＨＯ,,株式会社,東京都,千代田区,神田三崎町２丁目１１番１１号,,13,101,1010061,,,,,,,2022-03-02,1,,,,,ヤマショウ,0
1080,5010003037117,新規,0,2022-03-02,2022-03-02,合同会社ＯＭＳＢ,,合同会社,東京都,中央区,晴海３丁目１３－１－３１０４,,13,102,1040053,,,,,,,2022-03-02,1,,,,,オムスビ,0
1084,5010401165857,新規,0,2022-03-02,2022-03-02,ＦＪホールディングス株式会社,,株式会社,東京都,港区,六本木７丁目１８番５号,,13,103,1060032,,,,,,,2022-03-02,1,,,,,エフジェイホールディングス,0
1085,5010403027171,新規,0,2022-03-02,2022-03-02,Ｓ－Ｖｉｓｉｏｎ合同会社,,合同会社,東京都,港区,南青山２丁目２番１５号,,13,103,1070062,,,,,,,2022-03-02,1,,,,,エスーヴィジョン,0
1086,5010403027188,新規,0,2022-03-02,2022-03-02,ホオガシワ合同会社,,合同会社,東京都,港区,南青山２丁目２番１５号,,13,103,1070062,,,,,,,2022-03-02,1,,,,,ホオガシワ,0
1087,5010403027196,新規,0,2022-03-02,2022-03-02,アントラー合同会社,,合同会社,東京都,港区,芝浦１丁目６番４１－２７０４号,,13,103,1050023,,,,,,,2022-03-02,1,,,,,アントラー,0
1088,5010501048524,新規,0,2022-03-02,2022-03-02,ＨＷテクノロジー株式会社,,株式会社,東京都,台東区,台東３丁目２９－６テンルビル４０１,,13,106,1100016,,,,,,,2022-03-02,1,,,,,エッチダブリューテクノロジー,0
1091,5010601060759,新規,0,2022-03-02,2022-03-02,株式会社Ｒｅｓｔ　Ｉｎ　Ｐｅａｃｅ,,株式会社,東京都,江東区,有明３丁目７番２６号有明フロンティアビルＢ棟９階,,13,108,1350063,,,,,,,2022-03-02,1,,,,,レストインピース,0
1094,5010603009416,新規,0,2022-03-02,2022-03-02,合同会社永豊,,合同会社,東京都,江東区,大島４丁目１番６－８１１号,,13,108,1360072,,,,,,,2022-03-02,1,,,,,エイホウ,0
1096,5010701042302,新規,0,2022-03-02,2022-03-02,株式会社ボーダレス,,株式会社,東京都,品川区,西品川１丁目２番１号大崎ガーデンレジデンス,,13,109,1410033,,,,,,,2022-03-02,1,,,,,ボーダレス,0
1100,5010801032764,新規,0,2022-03-02,2022-03-02,株式会社ＭＡＵファースト,,株式会社,東京都,大田区,北嶺町２５番８号,,13,111,1450073,,,,,,,2022-03-02,1,,,,,エムエーユーファースト,0
1109,5010901050451,新規,0,2022-03-02,2022-03-02,株式会社Ｓｈｉｍａｄｅｓｉｇｎ,,株式会社,東京都,世田谷区,羽根木１丁目２１－２３羽根木の森０９,,13,112,1560042,,,,,,,2022-03-02,1,,,,,シマデザイン,0
1111,5011001146000,新規,0,2022-03-02,2022-03-02,クイックエクスペリエンス株式会社,,株式会社,東京都,渋谷区,道玄坂１丁目２１番１号渋谷ソラスタ３階,,13,113,1500043,,,,,,,2022-03-02,1,,,,,クイックエクスペリエンス,0
1112,5011001146009,新規,0,2022-03-02,2022-03-02,株式会社ＷＥＬＬＥＲ,,株式会社,東京都,渋谷区,恵比寿１丁目１９番１９号恵比寿ビジネスタワー,,13,113,1500013,,,,,,,2022-03-02,1,,,,,ウェラー,0
1113,5011001146017,新規,0,2022-03-02,2022-03-02,ＯＳＡＫＥＬ株式会社,,株式会社,東京都,渋谷区,神宮前６丁目２３番４号２階,,13,113,1500001,,,,,,,2022-03-02,1,,,,,オサケル,0
1117,5011003014270,新規,0,2022-03-02,2022-03-02,ＭＯＯＣＡ合同会社,,合同会社,東京都,渋谷区,神宮前６丁目２３－４桑野ビル２階,,13,113,1500001,,,,,,,2022-03-02,1,,,,,モッカ,0
1128,5011801040385,新規,0,2022-03-02,2022-03-02,株式会社みなともＬｉｎｋ,,株式会社,東京都,足立区,舎人３丁目１４番１５－３０４号,,13,121,1210831,,,,,,,2022-03-02,1,,,,,ミナトモリンク,0
1130,5011805003149,新規,0,2022-03-02,2022-03-02,一般財団法人足立青色申告会,,その他の設立登記法人,東京都,足立区,千住旭町４４番１５号,,13,121,1200026,,,,,,,2022-03-02,1,,,,,アダチアオイロシンコクカイ,0
1132,5012401038902,新規,0,2022-03-02,2022-03-02,株式会社ＰＯＣ,,株式会社,東京都,武蔵野市,吉祥寺南町１丁目６番３号,,13,203,1800003,,,,,,,2022-03-02,1,,,,,ピーオーシー,0
1143,5020001145457,新規,0,2022-03-02,2022-03-02,株式会社グレイスサポート,,株式会社,神奈川県,横浜市中区,海岸通４丁目２３マリンビル５０８,,14,104,2310002,,,,,,,2022-03-02,1,,,,,グレイスサポート,0
1144,5020001145465,新規,0,2022-03-02,2022-03-02,株式会社装栄,,株式会社,神奈川県,横浜市栄区,犬山町３１番１１号,,14,115,2470026,,,,,,,2022-03-02,1,,,,,ソウエイ,0
1145,5020001145515,新規,0,2022-03-02,2022-03-02,株式会社ブラウニー,,株式会社,神奈川県,横浜市都筑区,荏田南１丁目２０番４－２０４号,,14,118,2240007,,,,,,,2022-03-02,1,,,,,ブラウニー,0
1149,5020003021391,新規,0,2022-03-02,2022-03-02,ｅ－ｔｈｒｅｅ合同会社,,合同会社,神奈川県,横浜市戸塚区,平戸２丁目２番１０－２号,,14,110,2440802,,,,,,,2022-03-02,1,,,,,イースリー,0
1151,5020005015400,新規,0,2022-03-02,2022-03-02,一般社団法人仮想商店街協会,,その他の設立登記法人,神奈川県,横浜市保土ケ谷区,釜台町２番１１号,,14,106,2400066,,,,,,,2022-03-02,1,,,,,カソウショウテンガイキョウカイ,0
1154,5021001075314,新規,0,2022-03-02,2022-03-02,ＳＨＯＮＡＮ　Ｓｋｙ株式会社,,株式会社,神奈川県,藤沢市,藤沢１０１番地６,,14,205,2510052,,,,,,,2022-03-02,1,,,,,ショウナンスカイ,0
1156,5021003011440,新規,0,2022-03-02,2022-03-02,合同会社エヌデザイン,,合同会社,神奈川県,相模原市中央区,田名塩田３丁目２１番１号,,14,152,2520245,,,,,,,2022-03-02,1,,,,,エヌデザイン,0
1162,5030001147015,新規,0,2022-03-02,2022-03-02,リーダー株式会社,,株式会社,埼玉県,川口市,大字安行原１４４７－１,,11,203,3340057,,,,,,,2022-03-02,1,,,,,リーダー,0
1163,5030001147072,新規,0,2022-03-02,2022-03-02,株式会社ジェイリアルエステート,,株式会社,埼玉県,川口市,北原台３丁目４番１１号,,11,203,3330815,,,,,,,2022-03-02,1,,,,,ジェイリアルエステート,0
1166,5030003018908,新規,0,2022-03-02,2022-03-02,Ｄｅｓｓｉｎｅｒ　Ｐｌｕｓ合同会社,,合同会社,埼玉県,新座市,東北２丁目３９ー１０ドゥーセット弐番館６Ｆ,,11,230,3520001,,,,,,,2022-03-02,1,,,,,デシネプリュス,0
1167,5030003018932,新規,0,2022-03-02,2022-03-02,合同会社ＴＡＭパートナーズ,,合同会社,埼玉県,戸田市,南町３番１,,11,224,3350025,,,,,,,2022-03-02,1,,,,,タムパートナーズ,0
1168,5030003018940,新規,0,2022-03-02,2022-03-02,合同会社ノアサポート,,合同会社,埼玉県,川口市,芝３丁目１１番２５号,,11,203,3330866,,,,,,,2022-03-02,1,,,,,ノアサポート,0
1181,5040003019582,新規,0,2022-03-02,2022-03-02,合同会社スマイルスタート,,合同会社,千葉県,木更津市,清見台東２丁目８番２１号,,12,206,2920041,,,,,,,2022-03-02,1,,,,,スマイルスタート,0
1191,5080001024795,新規,0,2022-03-02,2022-03-02,株式会社市川不動産ホーム,,株式会社,静岡県,静岡市葵区,羽鳥６丁目２２番１１号,,22,101,4211215,,,,,,,2022-03-02,1,,,,,イチカワフドウサンホーム,0
1198,5090001017443,新規,0,2022-03-02,2022-03-02,国土開発株式会社,,株式会社,山梨県,笛吹市,石和町市部１０３８番地,,19,211,4060031,,,,,,,2022-03-02,1,,,,,コクドカイハツ,0
1202,5110001036473,新規,0,2022-03-02,2022-03-02,株式会社コンタクトことり,,株式会社,新潟県,新潟市中央区,紫竹山２丁目４番３１号,,15,103,9500914,,,,,,,2022-03-02,1,,,,,コンタクトコトリ,0
1217,5120001244034,新規,0,2022-03-02,2022-03-02,銘東ホールディングス株式会社,,株式会社,大阪府,大阪市西区,本田４丁目１番７号,,27,106,5500022,,,,,,,2022-03-02,1,,,,,メイトウホールディングス,0
1218,5120001244133,新規,0,2022-03-02,2022-03-02,株式会社Ｔ＆Ｎ,,株式会社,大阪府,大阪市城東区,今福東２丁目７番２６号,,27,118,5360002,,,,,,,2022-03-02,1,,,,,ティーアンドエヌ,0
1221,5120003021183,新規,0,2022-03-02,2022-03-02,ＳＨＩＮＡＩ合同会社,,合同会社,大阪府,大阪市浪速区,下寺２丁目６－１９ヴィラ松井５Ｄ,,27,111,5560001,,,,,,,2022-03-02,1,,,,,シナイ,0
1222,5120003021209,新規,0,2022-03-02,2022-03-02,合同会社ＣＡＣ,,合同会社,大阪府,大阪市北区,豊崎３丁目１５－５－２Ｆ,,27,127,5310072,,,,,,,2022-03-02,1,,,,,シーアーシー,0
1227,5120101065140,新規,0,2022-03-02,2022-03-02,株式会社Ｋｏｙａｍａｄｅｎｋｏｏ,,株式会社,大阪府,富田林市,加太３丁目４番１号,,27,214,5840078,,,,,,,2022-03-02,1,,,,,コヤマデンコー,0
1229,5120103004591,新規,0,2022-03-02,2022-03-02,合同会社幸神,,合同会社,大阪府,堺市東区,中茶屋９４－２２,,27,143,5998128,,,,,,,2022-03-02,1,,,,,コウジン,0
1234,5122001035628,新規,0,2022-03-02,2022-03-02,株式会社伸光製作所,,株式会社,大阪府,東大阪市,中石切町６丁目２番６８号,,27,227,5798014,,,,,,,2022-03-02,1,,,,,シンコウセイサクショ,0
1240,5140001125067,新規,0,2022-03-02,2022-03-02,株式会社ＹＵＵＷＡテック,,株式会社,兵庫県,伊丹市,野間北１丁目４番１０号アーバン野間北ハイツ１０６,,28,207,6640875,,,,,,,2022-03-02,1,,,,,ユウワテック,0
1244,5150001025381,新規,0,2022-03-02,2022-03-02,株式会社ｘＡＬＰＨＡ,,株式会社,奈良県,北葛城郡広陵町,馬見北３丁目１番１１号,,29,426,6350831,,,,,,,2022-03-02,1,,,,,エックスアルファ,0
1248,5170001016998,新規,0,2022-03-02,2022-03-02,株式会社親宏産業,,株式会社,和歌山県,和歌山市,六十谷１３４６－６５,,30,201,6408482,,,,,,,2022-03-02,1,,,,,シンコウサンギョウ,0
1257,5180003023554,新規,0,2022-03-02,2022-03-02,ルーテックス合同会社,,合同会社,愛知県,名古屋市昭和区,滝川町２６番地の４,,23,107,4660826,,,,,,,2022-03-02,1,,,,,ルーテックス,0
1259,5180301035961,新規,0,2022-03-02,2022-03-02,株式会社もりまち,,株式会社,愛知県,岡崎市,淡渕町字堂面１２５番地,,23,202,4443617,,,,,,,2022-03-02,1,,,,,モリマチ,0
1261,5180303005269,新規,0,2022-03-02,2022-03-02,合同会社Ｔ．Ｍ．Ｗｏｒｋｓ,,合同会社,愛知県,みよし市,三好丘旭２丁目２番地３,,23,236,4700203,,,,,,,2022-03-02,1,,,,,ティーエムワークス,0
1263,5190001029180,新規,0,2022-03-02,2022-03-02,株式会社松阪電算ホールディングス,,株式会社,三重県,松阪市,石津町３５３番地１,,24,204,5150006,,,,,,,2022-03-02,1,,,,,マツサカデンサンホールディングス,0
1264,5190001029197,新規,0,2022-03-02,2022-03-02,株式会社リンダボルゲリ,,株式会社,三重県,津市,一志町田尻９４番地３,,24,201,5152516,,,,,,,2022-03-02,1,,,,,リンダボルゲリ,0
1265,5200001039797,新規,0,2022-03-02,2022-03-02,株式会社木村樹脂工業所,,株式会社,岐阜県,山県市,青波４０７番地,,21,215,5012256,,,,,,,2022-03-02,1,,,,,キムラジュシコウギョウショ,0
1273,5240001059412,新規,0,2022-03-02,2022-03-02,株式会社富乃屋,,株式会社,広島県,広島市西区,小河内町１丁目１０番３号,,34,104,7330025,,,,,,,2022-03-02,1,,,,,トミノヤ,0
1280,5240005015345,新規,0,2022-03-02,2022-03-02,医療法人いしばし耳鼻咽喉科クリニック,,その他の設立登記法人,広島県,広島市安佐南区,祇園５丁目２番４５－２０１号,,34,105,7310138,,,,,,,2022-03-02,1,,,,,イシバシジビインコウカクリニック,0
1294,5260001036599,新規,0,2022-03-02,2022-03-02,株式会社マガーリ,,株式会社,岡山県,岡山市北区,表町１丁目３番２３号,,33,101,7000822,,,,,,,2022-03-02,1,,,,,マガーリ,0
1299,5270001008465,新規,0,2022-03-02,2022-03-02,株式会社Ｔ－ｍａｒｃｈ,,株式会社,鳥取県,鳥取市,千代水３丁目１０５番地,,31,201,6800911,,,,,,,2022-03-02,1,,,,,ティマーチ,0
1302,5290001096590,新規,0,2022-03-02,2022-03-02,ＣＵＴＯＮＡ株式会社,,株式会社,福岡県,福岡市中央区,天神２丁目３番１０号天神パインクレスト７１９号,,40,133,8100001,,,,,,,2022-03-02,1,,,,,キュトナ,0
1306,5290801028314,新規,0,2022-03-02,2022-03-02,株式会社ＭＢＢＲ,,株式会社,福岡県,北九州市小倉北区,米町１丁目１－１小倉駅前ひびきビル６Ｆ,,40,106,8020003,,,,,,,2022-03-02,1,,,,,エムビービーアール,0
1311,5310001017734,新規,0,2022-03-02,2022-03-02,ダイワホーム株式会社,,株式会社,長崎県,長崎市,中川２丁目８－２８－Ｃ,,42,201,8500013,,,,,,,2022-03-02,1,,,,,ダイワホーム,0
1312,5310005008589,新規,0,2022-03-02,2022-03-02,医療法人拓伸会,,その他の設立登記法人,長崎県,西彼杵郡長与町,高田郷７０６番地３,,42,307,8512127,,,,,,,2022-03-02,1,,,,,タクシンカイ,0
1313,5320001018938,新規,0,2022-03-02,2022-03-02,誠幸建設株式会社,,株式会社,大分県,大分市,大在北３丁目６番２０号ナチュール北Ｂ１０２,,44,201,8700245,,,,,,,2022-03-02,1,,,,,セイコウケンセツ,0
1320,5350001017607,新規,0,2022-03-02,2022-03-02,宮崎土地開発株式会社,,株式会社,宮崎県,宮崎市,大字本郷北方４３５９番地２,,45,201,8800925,,,,,,,2022-03-02,1,,,,,ミヤザキトチカイハツ,0
1326,5370003005608,新規,0,2022-03-02,2022-03-02,Ｙ’ｓ工業合同会社,,合同会社,宮城県,東松島市,大曲字櫓前１８番地１,,04,214,9810502,,,,,,,2022-03-02,1,,,,,ワイズコウギョウ,0
1329,5380005012543,新規,0,2022-03-02,2022-03-02,農事組合法人湊肉用牛生産組合,,その他の設立登記法人,福島県,河沼郡湯川村,大字笈川字舘１４番地,,07,422,9693543,,,,,,,2022-03-02,1,,,,,ミナトニクヨウギュウセイサンクミアイ,0
1330,5390001016811,新規,0,2022-03-02,2022-03-02,ふくろうソリューション株式会社,,株式会社,山形県,米沢市,窪田町窪田１１７番地の１９,,06,202,9920003,,,,,,,2022-03-02,1,,,,,フクロウソリューション,0
1335,5400001015794,新規,0,2022-03-02,2022-03-02,株式会社ＳＲＫ,,株式会社,岩手県,盛岡市,仙北３丁目１６番３３号リバーライトＡ号,,03,201,0200861,,,,,,,2022-03-02,1,,,,,エスアールケイ,0
1336,5400003002907,新規,0,2022-03-02,2022-03-02,合同会社ミニポ,,合同会社,岩手県,滝沢市,巣子９３６番地９セントビレッジ５０・１０５号,,03,216,0200611,,,,,,,2022-03-02,1,,,,,ミニポ,0
1343,5430001086123,新規,0,2022-03-02,2022-03-02,サプライズ株式会社,,株式会社,北海道,札幌市東区,伏古十条１丁目７番１５,,01,103,0070870,,,,,,,2022-03-02,1,,,,,サプライズ,0
1347,5450003002183,新規,0,2022-03-02,2022-03-02,合同会社ＬｉｆｅＣａｒｅ,,合同会社,北海道,旭川市,二条通９丁目３７３番地１,,01,204,0700032,,,,,,,2022-03-02,1,,,,,ライフケア,0
1351,5470005006420,新規,0,2022-03-02,2022-03-02,医療法人社団葵桜会,,その他の設立登記法人,香川県,高松市,高松町２５００番地５,,37,201,7610104,,,,,,,2022-03-02,1,,,,,アオイザクラカイ,0
1355,5500001024034,新規,0,2022-03-02,2022-03-02,株式会社ｉｎｆｉｎｏｐｅ,,株式会社,愛媛県,松山市,六軒家町２番１９号,,38,201,7918021,,,,,,,2022-03-02,1,,,,,インフィノープ,0
1356,5500003002780,新規,0,2022-03-02,2022-03-02,ベラ愛媛合同会社,,合同会社,愛媛県,松山市,味酒町２丁目１番地１９,,38,201,7900814,,,,,,,2022-03-02,1,,,,,ベラエヒメ,0
1357,5700150106190,新規,0,2022-03-02,2021-12-10,富山県ものづくり総合見本市実行委員会,,その他,富山県,富山市,新総曲輪１－７,,16,201,9300006,,,,,,,2021-12-10,1,,,,,トヤマケンモノヅクリソウゴウミホンイチジツコウイインカイ,0
1369,6010001224896,新規,0,2022-03-02,2022-03-02,株式会社シンシア,,株式会社,東京都,中央区,銀座１丁目１８番６号,,13,102,1040061,,,,,,,2022-03-02,1,,,,,シンシア,0
1370,6010001224905,新規,0,2022-03-02,2022-03-02,７６株式会社,,株式会社,東京都,千代田区,丸の内２丁目１番１号明治安田生命ビル１１階,,13,101,1000005,,,,,,,2022-03-02,1,,,,,ナナロク,0
1371,6010001224938,新規,0,2022-03-02,2022-03-02,株式会社ロイスロックパートナーズ,,株式会社,東京都,中央区,東日本橋２丁目２７番９号初音森ビル,,13,102,1030004,,,,,,,2022-03-02,1,,,,,ロイスロックパートナーズ,0
1372,6010001224962,新規,0,2022-03-02,2022-03-02,株式会社ＬＩＮＧＲＥＳＳＯ,,株式会社,東京都,中央区,銀座１丁目１２－４Ｎ＆ＥＢＬＤ．７階,,13,102,1040061,,,,,,,2022-03-02,1,,,,,リングレッソ,0
1382,6010401165872,新規,0,2022-03-02,2022-03-02,株式会社ＮＢＢ,,株式会社,東京都,港区,西麻布４丁目２２番１１号３Ｆ,,13,103,1060031,,,,,,,2022-03-02,1,,,,,エヌビービー,0
1383,6010401165880,新規,0,2022-03-02,2022-03-02,株式会社伊藤・大川内,,株式会社,東京都,港区,白金１丁目１７番１－４２０１号,,13,103,1080072,,,,,,,2022-03-02,1,,,,,イトウオオカワチ,0
1384,6010401165930,新規,0,2022-03-02,2022-03-02,株式会社ＫＳパートナーズ,,株式会社,東京都,港区,新橋５丁目３５番６号大平ビル３階,,13,103,1050004,,,,,,,2022-03-02,1,,,,,ケイエスパートナーズ,0
1385,6010405020768,新規,0,2022-03-02,2022-03-02,医療法人社団令秀,,その他の設立登記法人,東京都,港区,元麻布３丁目２番１９号モモンビル５階,,13,103,1060046,,,,,,,2022-03-02,1,,,,,レイシュウ,0
1387,6010503006520,新規,0,2022-03-02,2022-03-02,合同会社小川,,合同会社,東京都,台東区,台東３丁目３３―２,,13,106,1100016,,,,,,,2022-03-02,1,,,,,オガワ,0
1398,6010901050450,新規,0,2022-03-02,2022-03-02,株式会社おっちも,,株式会社,東京都,世田谷区,桜新町２丁目２１番１－２０７号,,13,112,1540015,,,,,,,2022-03-02,1,,,,,オッチモ,0
1404,6011001145892,新規,0,2022-03-02,2022-03-02,株式会社サイテック,,株式会社,東京都,渋谷区,渋谷２丁目１９－１５宮益坂ビルディング６０９,,13,113,1500002,,,,,,,2022-03-02,1,,,,,サイテック,0
1405,6011001145991,新規,0,2022-03-02,2022-03-02,株式会社Ｉ．Ｇ．Ａ　ＴＯＫＹＯ,,株式会社,東京都,渋谷区,鶯谷町１３番１号,,13,113,1500032,,,,,,,2022-03-02,1,,,,,アイジーエートウキョウ,0
1406,6011001146016,新規,0,2022-03-02,2022-03-02,株式会社エスプリファシリティーズ,,株式会社,東京都,渋谷区,道玄坂１丁目１０番８号渋谷道玄坂東急ビル２Ｆ－Ｃ,,13,113,1500043,,,,,,,2022-03-02,1,,,,,エスプリファシリティーズ,0
1413,6011801040392,新規,0,2022-03-02,2022-03-02,株式会社ＴＲＩＦＥ　ＤＥＳＩＧＮ,,株式会社,東京都,葛飾区,立石３丁目１０番１６－５０２号,,13,122,1240012,,,,,,,2022-03-02,1,,,,,トライフデザイン,0
1414,6011801040401,新規,0,2022-03-02,2022-03-02,Ｂ‐ＦＬＡＰ株式会社,,株式会社,東京都,葛飾区,立石６丁目５－１タイムマンション１０１,,13,122,1240012,,,,,,,2022-03-02,1,,,,,ビーフラップ,0
1420,6012701016953,新規,0,2022-03-02,2022-03-02,株式会社ライフプレミアムコンサルティング,,株式会社,東京都,西東京市,ひばりが丘北３丁目６番３４号ラークビル３０２号,,13,229,2020002,,,,,,,2022-03-02,1,,,,,ライフプレミアムコンサルティング,0
1422,6013101008855,新規,0,2022-03-02,2022-03-02,株式会社オフィスラキア,,株式会社,東京都,福生市,志茂２２番地７,,13,218,1970023,,,,,,,2022-03-02,1,,,,,オフィスラキア,0
1434,6020001145448,新規,0,2022-03-02,2022-03-02,株式会社横翔,,株式会社,神奈川県,横浜市戸塚区,俣野町４７番地７,,14,110,2450066,,,,,,,2022-03-02,1,,,,,ヨコショウ,0
1435,6020001145497,新規,0,2022-03-02,2022-03-02,株式会社大生,,株式会社,神奈川県,横浜市都筑区,加賀原２丁目２番１－４０８号,,14,118,2240055,,,,,,,2022-03-02,1,,,,,ダイセイ,0
1438,6020003021300,新規,0,2022-03-02,2022-03-02,鏡聖合同会社,,合同会社,神奈川県,川崎市多摩区,菅仙谷１丁目２－９,,14,135,2140006,,,,,,,2022-03-02,1,,,,,キョウセイ,0
1440,6021001075288,新規,0,2022-03-02,2022-03-02,株式会社ｕｍ,,株式会社,神奈川県,藤沢市,藤沢５４８番地の１,,14,205,2510052,,,,,,,2022-03-02,1,,,,,ウム,0
1441,6021001075296,新規,0,2022-03-02,2022-03-02,株式会社奏,,株式会社,神奈川県,相模原市中央区,中央１丁目１番１８号,,14,152,2520239,,,,,,,2022-03-02,1,,,,,カナデ,0
1442,6021001075305,新規,0,2022-03-02,2022-03-02,株式会社ジェントルマン,,株式会社,神奈川県,鎌倉市,梶原３丁目１１番２０号,,14,204,2470063,,,,,,,2022-03-02,1,,,,,ジェントルマン,0
1444,6021003011415,新規,0,2022-03-02,2022-03-02,Ｑｏｂｂｅ合同会社,,合同会社,神奈川県,相模原市中央区,田名塩田４丁目６－２６,,14,152,2520245,,,,,,,2022-03-02,1,,,,,コビー,0
1449,6030001147006,新規,0,2022-03-02,2022-03-02,Ｌ＆Ｍ株式会社,,株式会社,埼玉県,新座市,野火止４丁目１９番２－１０５号,,11,230,3520011,,,,,,,2022-03-02,1,,,,,エルアンドエム,0
1450,6030001147071,新規,0,2022-03-02,2022-03-02,株式会社リズナレッジ,,株式会社,埼玉県,上尾市,西宮下４丁目３１３番地１４,,11,219,3620043,,,,,,,2022-03-02,1,,,,,リズナレッジ,0
1451,6030003018849,新規,0,2022-03-02,2022-03-02,合同会社プラス,,合同会社,埼玉県,さいたま市緑区,美園４丁目１番１号ウェリス浦和美園サウステラス３２０号,,11,109,3360967,,,,,,,2022-03-02,1,,,,,プラス,0
1453,6040001122379,新規,0,2022-03-02,2022-03-02,Ｄ２株式会社,,株式会社,千葉県,船橋市,田喜野井１丁目２９番１８号カトウピアエビネＩＩ－１０２号,00125849,12,204,2740073,,,,,,,2022-03-02,1,,,,,ディーツー,0
1454,6040001122387,新規,0,2022-03-02,2022-03-02,株式会社アイコンサル,,株式会社,千葉県,銚子市,中央町４番地２４,,12,202,2880041,,,,,,,2022-03-02,1,,,,,アイコンサル,0
1455,6040001122395,新規,0,2022-03-02,2022-03-02,株式会社Ｃ－ＲＯＰＣ,,株式会社,千葉県,印西市,木下東４丁目１番地７,,12,231,2701323,,,,,,,2022-03-02,1,,,,,シーロピック,0
1456,6040001122453,新規,0,2022-03-02,2022-03-02,ピープルエナジー株式会社,,株式会社,千葉県,四街道市,大日４４７番地１２,,12,228,2840001,,,,,,,2022-03-02,1,,,,,ピープルエナジー,0
1464,6040005021528,新規,0,2022-03-02,2022-03-02,ＮＰＯ法人さかえランドバンク,,その他の設立登記法人,千葉県,印旛郡栄町,安食１７５６番地４,,12,329,2701516,,,,,,,2022-03-02,1,,,,,サカエランドバンク,0
1468,6050001050703,新規,0,2022-03-02,2022-03-02,株式会社ＥＭＺＥＱ,,株式会社,茨城県,常総市,本石下４９１５番地４,,08,211,3002707,,,,,,,2022-03-02,1,,,,,エムゼック,0
1475,6070005009958,新規,0,2022-03-02,2022-03-02,ＮＰＯ法人一期一会,,その他の設立登記法人,群馬県,高崎市,上大類町６９０番地３,,10,202,3700031,,,,,,,2022-03-02,1,,,,,イチゴイチエ,0
1477,6080001024786,新規,0,2022-03-02,2022-03-02,株式会社ＴＭＫＣ,,株式会社,静岡県,焼津市,吉永１０２番地の７,,22,212,4210211,,,,,,,2022-03-02,1,,,,,ティーエムケーシー,0
1485,6090001017434,新規,0,2022-03-02,2022-03-02,株式会社トレスエルマノス,,株式会社,山梨県,富士吉田市,富士見４丁目１１番２２号,,19,202,4030009,,,,,,,2022-03-02,1,,,,,トレスエルマノス,0
1487,6090003002046,新規,0,2022-03-02,2022-03-02,合同会社ｐｉｅｎｉ,,合同会社,山梨県,南アルプス市,藤田１４７２番地３,,19,208,4000334,,,,,,,2022-03-02,1,,,,,ピエニ,0
1494,6110001036472,新規,0,2022-03-02,2022-03-02,株式会社上貴工業,,株式会社,新潟県,東蒲原郡阿賀町,平堀１８６０番地１,,15,385,9594403,,,,,,,2022-03-02,1,,,,,カミキコウギョウ,0
1495,6110001036480,新規,0,2022-03-02,2022-03-02,株式会社ウイングス,,株式会社,新潟県,新潟市東区,山木戸６丁目１３番２号,,15,102,9500871,,,,,,,2022-03-02,1,,,,,ウイングス,0
1504,6120001244124,新規,0,2022-03-02,2022-03-02,株式会社ＩＣＨＩ,,株式会社,大阪府,大阪市東淀川区,豊里２丁目１５番１２号,,27,114,5330013,,,,,,,2022-03-02,1,,,,,イチ,0
1505,6120001244149,新規,0,2022-03-02,2022-03-02,株式会社忠宝,,株式会社,大阪府,大阪市阿倍野区,美章園２丁目６番８号,,27,119,5450003,,,,,,,2022-03-02,1,,,,,チュウホウ,0
1518,6122001035627,新規,0,2022-03-02,2022-03-02,オカムラインサイツ株式会社,,株式会社,大阪府,東大阪市,池島町１丁目１番２２号,,27,227,5798064,,,,,,,2022-03-02,1,,,,,オカムラインサイツ,0
1525,6130001071229,新規,0,2022-03-02,2022-03-02,株式会社カームツーリスト,,株式会社,京都府,城陽市,寺田宮ノ谷２９番地の１１７,,26,207,6100121,,,,,,,2022-03-02,1,,,,,カームツーリスト,0
1544,6160001024019,新規,0,2022-03-02,2022-03-02,株式会社未来コーポレーション,,株式会社,滋賀県,守山市,石田町５９３番地８,,25,207,5240014,,,,,,,2022-03-02,1,,,,,ミライコーポレーション,0
1548,6170001016997,新規,0,2022-03-02,2022-03-02,株式会社ｂｌｏｓｓｏｍ,,株式会社,和歌山県,御坊市,湯川町富安１１０５番地１,,30,205,6440014,,,,,,,2022-03-02,1,,,,,ブロッサム,0
1555,6180001150168,新規,0,2022-03-02,2022-03-02,株式会社ａｉ－ｓｏｕｍｕ,,株式会社,愛知県,大府市,中央町３丁目４６番地,,23,223,4740025,,,,,,,2022-03-02,1,,,,,エーアイソウム,0
1556,6180001150259,新規,0,2022-03-02,2022-03-02,Ｓ－ＲＡＮＫ　ＰＲＯＰＥＲＴＹ株式会社,,株式会社,愛知県,名古屋市瑞穂区,桃園町３－１１宝マンション堀田ソレアード６１８号,,23,108,4670855,,,,,,,2022-03-02,1,,,,,エスランクプロパティ,0
1559,6180003023561,新規,0,2022-03-02,2022-03-02,Ｋｉｎｇｓｏｎ合同会社,,合同会社,愛知県,稲沢市,長野１丁目１２番８号,,23,220,4928142,,,,,,,2022-03-02,1,,,,,キングソン,0
1561,6180301035969,新規,0,2022-03-02,2022-03-02,ＹＡＳＵＣＯ株式会社,,株式会社,愛知県,額田郡幸田町,大字芦谷字仲田１３０番地２,00125848,23,501,4440116,,,,,,,2022-03-02,1,,,,,ヤスコ,0
1562,6180301035977,新規,0,2022-03-02,2022-03-02,株式会社未来サポート,,株式会社,愛知県,岡崎市,若宮町３丁目４２番地２,,23,202,4440014,,,,,,,2022-03-02,1,,,,,ミライサポート,0
1565,6200001039796,新規,0,2022-03-02,2022-03-02,ＫＥホールディングス株式会社,,株式会社,岐阜県,岐阜市,下奈良１丁目２８番２号,,21,201,5008385,,,,,,,2022-03-02,1,,,,,ケーイーホールディングス,0
1566,6200001039805,新規,0,2022-03-02,2022-03-02,株式会社ＩＴＯ,,株式会社,岐阜県,大垣市,綾野５丁目１２５番地１４２,,21,202,5030984,,,,,,,2022-03-02,1,,,,,イトウ,0
1567,6200001039813,新規,0,2022-03-02,2022-03-02,株式会社ＫＶＪ,,株式会社,岐阜県,羽島郡笠松町,田代９６９番地の１１,,21,303,5016062,,,,,,,2022-03-02,1,,,,,ケイブイジェー,0
1574,6240005015344,新規,0,2022-03-02,2022-03-02,医療法人たけなか眼科,,その他の設立登記法人,広島県,広島市安佐南区,祇園５丁目２番４５－３０２号,,34,105,7310138,,,,,,,2022-03-02,1,,,,,タケナカガンカ,0
1579,6260001036607,新規,0,2022-03-02,2022-03-02,株式会社ボンズテック,,株式会社,岡山県,総社市,真壁１４３０番地４,,33,208,7191134,,,,,,,2022-03-02,1,,,,,ボンズテック,0
1583,6270001008464,新規,0,2022-03-02,2022-03-02,株式会社ａｋａｔｓｕｋｉ,,株式会社,鳥取県,鳥取市,南安長１丁目２番１８号,,31,201,6800914,,,,,,,2022-03-02,1,,,,,アカツキ,0
1584,6280001008645,新規,0,2022-03-02,2022-03-02,株式会社グロティアエステート,,株式会社,島根県,出雲市,姫原町２１５－５－１５０２,,32,203,6930061,,,,,,,2022-03-02,1,,,,,グロティアエステート,0
1592,6290001096672,新規,0,2022-03-02,2022-03-02,株式会社ＫＵＢＯＴＡ,,株式会社,福岡県,小郡市,二森１４５８－１１,,40,216,8380126,,,,,,,2022-03-02,1,,,,,クボタ,0
1595,6290005018581,新規,0,2022-03-02,2022-03-02,ＮＰＯ法人国際宋徽宗書画芸術研究院,,その他の設立登記法人,福岡県,糟屋郡志免町,大字志免１５８３－２,,40,343,8112202,,,,,,,2022-03-02,1,,,,,コクサイソウキソウショガゲイジュツケンキュウイン,0
1596,6290801028313,新規,0,2022-03-02,2022-03-02,株式会社たからや,,株式会社,福岡県,北九州市八幡西区,鷹の巣１丁目２番１２－５０１号,,40,109,8060047,,,,,,,2022-03-02,1,,,,,タカラヤ,0
1598,6300001012826,新規,0,2022-03-02,2022-03-02,株式会社ここいろ,,株式会社,佐賀県,佐賀市,鍋島１丁目１４番１７号トゥインクルアルディアＣ１０２,,41,201,8490937,,,,,,,2022-03-02,1,,,,,ココイロ,0
1600,6320003003739,新規,0,2022-03-02,2022-03-02,合同会社Ｎｏ　ｓｉｄｅ,,合同会社,大分県,大分市,日岡１丁目９番３０号エストレーラ日岡１０３,,44,201,8700914,,,,,,,2022-03-02,1,,,,,ノーサイド,0
1603,6330001029487,新規,0,2022-03-02,2022-03-02,株式会社ブライトファン,,株式会社,熊本県,荒尾市,樺９３４番地,,43,204,8640165,,,,,,,2022-03-02,1,,,,,ブライトファン,0
1606,6340001024529,新規,0,2022-03-02,2022-03-02,エムズ企画株式会社,,株式会社,鹿児島県,姶良市,蒲生町下久徳１６２番地３,,46,225,8995304,,,,,,,2022-03-02,1,,,,,エムズキカク,0
1609,6370001048269,新規,0,2022-03-02,2022-03-02,株式会社ＮｉＡＫＡ,,株式会社,宮城県,仙台市太白区,秋保町湯元字除４番地の３９,,04,104,9820241,,,,,,,2022-03-02,1,,,,,ニアカ,0
1615,6390001016810,新規,0,2022-03-02,2022-03-02,株式会社Ｆａｒｍおとらふ,,株式会社,山形県,寒河江市,大字谷沢１１５２番地の１,,06,206,9900521,,,,,,,2022-03-02,1,,,,,ファームオトラフ,0
1621,6430001086056,新規,0,2022-03-02,2022-03-02,株式会社インスパイア,,株式会社,北海道,白老郡白老町,字竹浦２０１番地１６５,,01,578,0590642,,,,,,,2022-03-02,1,,,,,インスパイア,0
1630,6460101007149,新規,0,2022-03-02,2022-03-02,株式会社ヴェール,,株式会社,北海道,帯広市,白樺十六条東１９丁目１５番地,,01,207,0800050,,,,,,,2022-03-02,1,,,,,ヴェール,0
1631,6460303000752,新規,0,2022-03-02,2022-03-02,合同会社虹雨工房,,合同会社,北海道,網走郡美幌町,字西二条南２丁目２番地の２５,,01,543,0920033,,,,,,,2022-03-02,1,,,,,ニジアメコウボウ,0
1635,6490003001635,新規,0,2022-03-02,2022-03-02,合同会社創建,,合同会社,高知県,高知市,池３２２３番地１５,,39,201,7810111,,,,,,,2022-03-02,1,,,,,ソウケン,0
1638,6500001024033,新規,0,2022-03-02,2022-03-02,澤田建築社株式会社,,株式会社,愛媛県,伊予郡松前町,大字横田３２９番地６,,38,401,7913154,,,,,,,2022-03-02,1,,,,,サワダケンチクシャ,0
1640,6700150105704,新規,0,2022-03-02,2021-11-11,若獅子会,,その他,東京都,杉並区,宮前４丁目２２－５,,13,115,1680081,,,,,,,2021-11-11,1,,,,,ワカジシカイ,0
1641,6700150106438,新規,0,2022-03-02,2021-12-27,ネオロイヤルハイツあびこ管理組合,,その他,大阪府,大阪市住吉区,我孫子５丁目１－７,,27,120,5580014,,,,,,,2021-12-27,1,,,,,ネオロイヤルハイツアビコカンリクミアイ,0
1647,7010001224862,新規,0,2022-03-02,2022-03-02,株式会社ＴＡＴＡＲＡ,,株式会社,東京都,中央区,銀座７丁目１０番５号,,13,102,1040061,,,,,,,2022-03-02,1,,,,,タタラ,0
1648,7010001224895,新規,0,2022-03-02,2022-03-02,株式会社ウィザー,,株式会社,東京都,千代田区,富士見２丁目６番１０三共富士見ビル１Ｆ,,13,101,1020071,,,,,,,2022-03-02,1,,,,,ウィザー,0
1649,7010001224912,新規,0,2022-03-02,2022-03-02,株式会社白蘭,,株式会社,東京都,中央区,銀座１丁目１２番４号Ｎ＆ＥＢＬＤ．７階,,13,102,1040061,,,,,,,2022-03-02,1,,,,,ビャクラン,0
1650,7010001224920,新規,0,2022-03-02,2022-03-02,九尾堂株式会社,,株式会社,東京都,中央区,八重洲２丁目１１番７号,,13,102,1040028,,,,,,,2022-03-02,1,,,,,キュウビドウ,0
1653,7010003037115,新規,0,2022-03-02,2022-03-02,合同会社ＲＦ４,,合同会社,東京都,千代田区,内幸町２丁目１番６号,,13,101,1000011,,,,,,,2022-03-02,1,,,,,アールエフフォー,0
1654,7010003037123,新規,0,2022-03-02,2022-03-02,Ｏｆｆｉｃｅ　ＩＲＯＲＩ合同会社,,合同会社,東京都,文京区,向丘１丁目１６－１７ＬＯＧｉｎｎＴｏｋｙｏ,,13,105,1130023,,,,,,,2022-03-02,1,,,,,オフィスイロリ,0
1658,7010401165896,新規,0,2022-03-02,2022-03-02,株式会社ＮＤＨＫ,,株式会社,東京都,港区,南青山１丁目２０番１２号ＲＢＴ,,13,103,1070062,,,,,,,2022-03-02,1,,,,,エヌディーエイチケイ,0
1659,7010401165946,新規,0,2022-03-02,2022-03-02,株式会社シェアリー,,株式会社,東京都,港区,麻布十番３丁目７－５デシモ麻布８０２号室,,13,103,1060045,,,,,,,2022-03-02,1,,,,,シェアリー,0
1660,7010401165962,新規,0,2022-03-02,2022-03-02,株式会社ニュートン,,株式会社,東京都,港区,赤坂３丁目１２番２号,,13,103,1070052,,,,,,,2022-03-02,1,,,,,ニュートン,0
1662,7010403027186,新規,0,2022-03-02,2022-03-02,えみりーな合同会社,,合同会社,東京都,港区,南青山２丁目２番１５号,,13,103,1070062,,,,,,,2022-03-02,1,,,,,エミリーナ,0
1665,7010603009406,新規,0,2022-03-02,2022-03-02,合同会社トライアンプ,,合同会社,東京都,江東区,白河３丁目９番１７号ＡＬＰＩＮＥ清澄白河９０２号,,13,108,1350021,,,,,,,2022-03-02,1,,,,,トライアンプ,0
1670,7010701042300,新規,0,2022-03-02,2022-03-02,株式会社アットマーク,,株式会社,東京都,品川区,東五反田１丁目６番３号,,13,109,1410022,,,,,,,2022-03-02,1,,,,,アットマーク,0
1672,7010803004074,新規,0,2022-03-02,2022-03-02,合同会社ＦＬＴ,,合同会社,東京都,大田区,東矢口３丁目９番４－２０３号,,13,111,1460094,,,,,,,2022-03-02,1,,,,,エフエルティー,0
1675,7010903007183,新規,0,2022-03-02,2022-03-02,合同会社福州,,合同会社,東京都,世田谷区,北沢３丁目７番６号,,13,112,1550031,,,,,,,2022-03-02,1,,,,,フクシュウ,0
1680,7011001145925,新規,0,2022-03-02,2022-03-02,Ｌｏｎｇ　Ｗａｖｅ株式会社,,株式会社,東京都,渋谷区,神南１丁目１２－１４渋谷宮田ビル,,13,113,1500041,,,,,,,2022-03-02,1,,,,,ロングウェイブ,0
1681,7011001145933,新規,0,2022-03-02,2022-03-02,株式会社Ｑｗｅｒｔｉｃ,,株式会社,東京都,渋谷区,神宮前２丁目３０番１０号原宿インペリアルハイツ２０３,,13,113,1500001,,,,,,,2022-03-02,1,,,,,クウェルティック,0
1682,7011001146007,新規,0,2022-03-02,2022-03-02,株式会社トライクル,,株式会社,東京都,渋谷区,道玄坂２丁目１６－８ビジネスビップ渋谷・道玄坂坂本ビル６Ｆ,,13,113,1500043,,,,,,,2022-03-02,1,,,,,トライクル,0
1690,7011101098008,新規,0,2022-03-02,2022-03-02,株式会社ピンカシオン,,株式会社,東京都,新宿区,新宿５丁目４番１号新宿Ｑフラットビル６１１,,13,104,1600022,,,,,,,2022-03-02,1,,,,,ピンカシオン,0
1691,7011103011513,新規,0,2022-03-02,2022-03-02,ＳＯＲＡＩＲＯ　ＷＯＲＫ合同会社,,合同会社,東京都,新宿区,百人町２丁目９番６号竹内ビルチクリンシャ３階Ｂ号,,13,104,1690073,,,,,,,2022-03-02,1,,,,,ソライロワーク,0
1694,7011303004325,新規,0,2022-03-02,2022-03-02,合同会社サンク,,合同会社,東京都,杉並区,和泉２丁目６番１３号マ・メール２０１,,13,115,1680063,,,,,,,2022-03-02,1,,,,,サンク,0
1696,7011503005073,新規,0,2022-03-02,2022-03-02,ＡＮＧＥＬ合同会社,,合同会社,東京都,荒川区,町屋３丁目１３－２リリックコート３１３－１０３,,13,118,1160001,,,,,,,2022-03-02,1,,,,,エンジェル,0
1699,7011803004980,新規,0,2022-03-02,2022-03-02,合同会社ＥＮＯＭＯＴＯ,,合同会社,東京都,足立区,扇１丁目４５番１７号,,13,121,1230873,,,,,,,2022-03-02,1,,,,,エノモト,0
1700,7011805003147,新規,0,2022-03-02,2022-03-02,一般社団法人地域安心サポートこころ,,その他の設立登記法人,東京都,葛飾区,小菅１丁目２８番１６号,,13,122,1240001,,,,,,,2022-03-02,1,,,,,チイキアンシンサポートココロ,0
1701,7012301012906,新規,0,2022-03-02,2022-03-02,株式会社大沢建設,,株式会社,東京都,町田市,野津田町２５６番地８,,13,209,1950063,,,,,,,2022-03-02,1,,,,,オオサワケンセツ,0
1704,7012403005254,新規,0,2022-03-02,2022-03-02,合同会社ＡＳＨＩＢＡ,,合同会社,東京都,武蔵野市,吉祥寺本町１丁目１１番３０－１００５号,,13,203,1800004,,,,,,,2022-03-02,1,,,,,アシバ,0
1706,7012701016952,新規,0,2022-03-02,2022-03-02,株式会社阿部美装サービス,,株式会社,東京都,東村山市,野口町３丁目１２－７１,,13,213,1890022,,,,,,,2022-03-02,1,,,,,アベビソウサーブス,0
1707,7012703002414,新規,0,2022-03-02,2022-03-02,合同会社ＥＰＩＣ,,合同会社,東京都,清瀬市,松山３丁目１番地３テラス清瀬３０２号室,,13,221,2040022,,,,,,,2022-03-02,1,,,,,エピック,0
1710,7012801021423,新規,0,2022-03-02,2022-03-02,株式会社スクエア昭島,,株式会社,東京都,昭島市,大神町３丁目１５番１４号,,13,207,1960013,,,,,,,2022-03-02,1,,,,,スクエアアキシマ,0
1714,7013303006061,新規,0,2022-03-02,2022-03-02,合同会社Ｂｉｂｕｎ,,合同会社,東京都,豊島区,東池袋１丁目１７番１１号パークハイツ池袋１１０５号,,13,116,1700013,,,,,,,2022-03-02,1,,,,,ビブン,0
1723,7020001145447,新規,0,2022-03-02,2022-03-02,株式会社アライアンス,,株式会社,神奈川県,横浜市鶴見区,栄町通１丁目５－１２,,14,101,2300038,,,,,,,2022-03-02,1,,,,,アライアンス,0
1724,7020001145505,新規,0,2022-03-02,2022-03-02,株式会社コスミオン山昂,00125851,株式会社,神奈川県,横浜市南区,浦舟一丁目１番８号,,14,105,2320000,,,,,,,2022-03-02,1,,,,,コスミオンサンコウ,0
1735,7030001147046,新規,0,2022-03-02,2022-03-02,株式会社明光,,株式会社,埼玉県,さいたま市浦和区,東仲町９番８号,,11,107,3300056,,,,,,,2022-03-02,1,,,,,ミョウコウ,0
1736,7030001147062,新規,0,2022-03-02,2022-03-02,サイタホーム株式会社,,株式会社,埼玉県,川口市,西川口１丁目２７番１２－６０２号ライオンズマンション西川口第５,,11,203,3320021,,,,,,,2022-03-02,1,,,,,サイタホーム,0
1746,7040001122394,新規,0,2022-03-02,2022-03-02,株式会社ＴＩＰ　ＩＮＴＥＲＮＡＴＩＯＮＡＬ,,株式会社,千葉県,佐倉市,上志津１８２７番地２６,,12,212,2850846,,,,,,,2022-03-02,1,,,,,ティップインターナショナル,0
1747,7040001122411,新規,0,2022-03-02,2022-03-02,株式会社わかな,,株式会社,千葉県,柏市,柏１２６７番地１４,,12,217,2770005,,,,,,,2022-03-02,1,,,,,ワカナ,0
1748,7040001122460,新規,0,2022-03-02,2022-03-02,株式会社ベリーベリー,,株式会社,千葉県,松戸市,八ケ崎４丁目３４番地の４,,12,207,2700023,,,,,,,2022-03-02,1,,,,,ベリーベリー,0
1749,7050001050702,新規,0,2022-03-02,2022-03-02,株式会社Ｓ．Ｌ．Ｓ　ＥＮＴＥＲＰＲＩＳＥＳ,,株式会社,茨城県,筑西市,木戸１３５７番地２,,08,227,3080104,,,,,,,2022-03-02,1,,,,,エスエルエスエンタープライゼス,0
1753,7060001034605,新規,0,2022-03-02,2022-03-02,興建ホールディングス株式会社,,株式会社,栃木県,宇都宮市,陽東４丁目１９番１１号,,09,201,3210904,,,,,,,2022-03-02,1,,,,,コウケンホールディングス,0
1754,7060001034613,新規,0,2022-03-02,2022-03-02,株式会社舘河屋酒店小林一松商店,,株式会社,栃木県,宇都宮市,千波町１４番８号,,09,201,3200022,,,,,,,2022-03-02,1,,,,,タテカワヤサケテンコバヤシイチマツショウテン,0
1755,7060001034621,新規,0,2022-03-02,2022-03-02,株式会社Ｓｍｉｌｅａｔｅ,,株式会社,栃木県,宇都宮市,兵庫塚３丁目８番１０号,,09,201,3210138,,,,,,,2022-03-02,1,,,,,スマイレイト,0
1758,7080001024793,新規,0,2022-03-02,2022-03-02,石川保温株式会社,,株式会社,静岡県,牧之原市,波津１１０７番地９,,22,226,4210523,,,,,,,2022-03-02,1,,,,,イシカワホオン,0
1759,7080101023134,新規,0,2022-03-02,2022-03-02,株式会社Ｔ＆Ｔ,,株式会社,静岡県,三島市,中央町６番２号,,22,206,4110858,,,,,,,2022-03-02,1,,,,,ティーアンドティー,0
1763,7090001017441,新規,0,2022-03-02,2022-03-02,戸栗企画株式会社,,株式会社,山梨県,南巨摩郡南部町,成島２７２８番地１,,19,366,4092216,,,,,,,2022-03-02,1,,,,,トグリキカク,0
1765,7110003004708,新規,0,2022-03-02,2022-03-02,征和合同会社,,合同会社,新潟県,上越市,大潟区雁子浜３１０－１９,,15,222,9493101,,,,,,,2022-03-02,1,,,,,セイワ,0
1775,7120001244081,新規,0,2022-03-02,2022-03-02,株式会社Ｍａｎｍａ,,株式会社,大阪府,大阪市都島区,都島中通３丁目１７番３号,,27,102,5340022,,,,,,,2022-03-02,1,,,,,マンマ,0
1776,7120001244115,新規,0,2022-03-02,2022-03-02,ＬＩＧＨＴＯＵＣＨ株式会社,,株式会社,大阪府,大阪市中央区,上本町西１丁目１番９－３０４号,,27,128,5420062,,,,,,,2022-03-02,1,,,,,ライトタッチ,0
1780,7120901045653,新規,0,2022-03-02,2022-03-02,株式会社ディスラプター,,株式会社,大阪府,豊中市,勝部３丁目２番７号,,27,203,5610894,,,,,,,2022-03-02,1,,,,,ディスラブター,0
1781,7120905006288,新規,0,2022-03-02,2022-03-02,一般社団法人日本ＲＥＴＯＰ気学協会,,その他の設立登記法人,大阪府,高槻市,富田町３丁目１３番１７－１０１号,,27,207,5690814,,,,,,,2022-03-02,1,,,,,ニホンリトップキガクキョウカイ,0
1782,7122001035626,新規,0,2022-03-02,2022-03-02,株式会社ＢＤＣ,,株式会社,大阪府,八尾市,高安町南１丁目５３番地,,27,212,5810875,,,,,,,2022-03-02,1,,,,,ビーディーシー,0
1783,7122001035634,新規,0,2022-03-02,2022-03-02,株式会社Ａ,,株式会社,大阪府,大東市,北条１丁目１９番１０－４０２号,,27,218,5740011,,,,,,,2022-03-02,1,,,,,ア,0
1789,7140001125065,新規,0,2022-03-02,2022-03-02,株式会社ｂｒａｎｃｈ,,株式会社,兵庫県,淡路市,久留麻２１番地１,,28,226,6562311,,,,,,,2022-03-02,1,,,,,ブランチ,0
1790,7140001125073,新規,0,2022-03-02,2022-03-02,株式会社ビースリーホーム,,株式会社,兵庫県,神戸市中央区,坂口通７丁目２番１７号,,28,110,6510062,,,,,,,2022-03-02,1,,,,,ビースリーホーム,0
1791,7140001125081,新規,0,2022-03-02,2022-03-02,株式会社ＦｕＴｕＲｅ,,株式会社,兵庫県,神戸市兵庫区,佐比江町５０番地３０１号室,,28,105,6520821,,,,,,,2022-03-02,1,,,,,フューチャー,0
1798,7150001025371,新規,0,2022-03-02,2022-03-02,Ｈａｔｃｈ株式会社,,株式会社,奈良県,橿原市,八木町３丁目２番２３,,29,205,6340078,,,,,,,2022-03-02,1,,,,,ハッチ,0
1801,7160001024018,新規,0,2022-03-02,2022-03-02,株式会社Ｎａｍａｋｏ　Ｆａｃｔｏｒｙ,,株式会社,滋賀県,栗東市,安養寺１丁目１番１１号サンワードビル１階２号,,25,208,5203015,,,,,,,2022-03-02,1,,,,,ナマコファクトリー,0
1824,7180303005267,新規,0,2022-03-02,2022-03-02,合同会社エムケー,,合同会社,愛知県,岡崎市,井田南町１番地９,,23,202,4440068,,,,,,,2022-03-02,1,,,,,エムケー,0
1829,7190001029187,新規,0,2022-03-02,2022-03-02,株式会社エデュケーショナルヴィレッジ,,株式会社,三重県,鈴鹿市,南玉垣町３０００番地の１２,,24,207,5130816,,,,,,,2022-03-02,1,,,,,エデュケーショナルヴィレッジ,0
1830,7190001029195,新規,0,2022-03-02,2022-03-02,株式会社コンフィライン,,株式会社,三重県,津市,河芸町一色２６４９番地１,,24,201,5100306,,,,,,,2022-03-02,1,,,,,コンフィライン,0
1835,7200003005473,新規,0,2022-03-02,2022-03-02,合同会社和田翔開発,,合同会社,岐阜県,大垣市,枝郷１丁目７番地１,,21,202,5032207,,,,,,,2022-03-02,1,,,,,ワダショウカイハツ,0
1844,7240001059410,新規,0,2022-03-02,2022-03-02,広島華僑華人サポートセンター株式会社,,株式会社,広島県,広島市東区,光町１丁目１１番５－３２１号,,34,102,7320052,,,,,,,2022-03-02,1,,,,,ヒロシマカキョウカジンサポートセンター,0
1847,7240003005528,新規,0,2022-03-02,2022-03-02,ＲＡＣＩＮＥ合同会社,,合同会社,広島県,広島市西区,己斐本町１丁目２５番１１号八宝ビル３１０,,34,104,7330812,,,,,,,2022-03-02,1,,,,,ラシーヌ,0
1850,7260001036589,新規,0,2022-03-02,2022-03-02,株式会社アグリインテグ,,株式会社,岡山県,岡山市北区,御津新庄３００３番地９,,33,101,7092106,,,,,,,2022-03-02,1,,,,,アグリインテグ,0
1851,7260001036606,新規,0,2022-03-02,2022-03-02,株式会社西下板金,00125846,株式会社,岡山県,総社市,富原６９番地１１,,33,208,7191144,,,,,,,2022-03-02,1,,,,,ニシシタバンキン,0
1853,7260005011043,新規,0,2022-03-02,2022-03-02,西本春樹司法書士法人,,その他の設立登記法人,岡山県,岡山市北区,中山下１丁目１０番１０号新田ビル７階,,33,101,7000821,,,,,,,2022-03-02,1,,,,,ニシモトハルキ,0
1854,7270001008463,新規,0,2022-03-02,2022-03-02,株式会社ＡＲＫ住建,,株式会社,鳥取県,鳥取市,西品治６８６番地,,31,201,6800811,,,,,,,2022-03-02,1,,,,,アークジュウケン,0
1860,7290001096589,新規,0,2022-03-02,2022-03-02,株式会社高橋工業,00125845,株式会社,福岡県,福岡市南区,警弥郷１丁目３１番１６－２０２号,,40,134,8111324,,,,,,,2022-03-02,1,,,,,タカハシコウギョウ,0
1862,7290003012197,新規,0,2022-03-02,2022-03-02,合同会社エイ・エス・コミット,,合同会社,福岡県,糸島市,潤１丁目２番３９号,,40,230,8191105,,,,,,,2022-03-02,1,,,,,エイエスコミット,0
1863,7290003012222,新規,0,2022-03-02,2022-03-02,マミーエイド合同会社,,合同会社,福岡県,福岡市博多区,博多駅前２丁目１９番１７号トーカン博多第５ビル３１２号室,,40,132,8120011,,,,,,,2022-03-02,1,,,,,マミーエイド,0
1868,7320001018928,新規,0,2022-03-02,2022-03-02,株式会社いちから,,株式会社,大分県,佐伯市,内町２番２８号２階,,44,205,8760845,,,,,,,2022-03-02,1,,,,,イチカラ,0
1871,7330001029494,新規,0,2022-03-02,2022-03-02,株式会社こめだファーム,,株式会社,熊本県,阿蘇郡西原村,大字鳥子１２２１番地１,,43,432,8612401,,,,,,,2022-03-02,1,,,,,コメダファーム,0
1874,7350001017621,新規,0,2022-03-02,2022-03-02,株式会社ＯＫ,,株式会社,宮崎県,小林市,水流迫２１７番地４,,45,205,8860002,,,,,,,2022-03-02,1,,,,,オウケイ,0
1875,7360001030045,新規,0,2022-03-02,2022-03-02,株式会社フロンティアゆい,,株式会社,沖縄県,宜野湾市,上原２丁目４番１０号,,47,205,9012204,,,,,,,2022-03-02,1,,,,,フロンティアユイ,0
1879,7370003005606,新規,0,2022-03-02,2022-03-02,合同会社サポートＭ,,合同会社,宮城県,仙台市青葉区,木町通２丁目１番３３号伊澤竹に雀ビル２１１号,,04,101,9800801,,,,,,,2022-03-02,1,,,,,サポートエム,0
1884,7420005007792,新規,0,2022-03-02,2022-03-02,農事組合法人五郷地区きのこ生産組合,,その他の設立登記法人,青森県,青森市,浪岡大字本郷字松元１１４番地１,,02,201,0381323,,,,,,,2022-03-02,1,,,,,ゴゴウチクキノコセイサンクミアイ,0
1888,7450001013627,新規,0,2022-03-02,2022-03-02,株式会社すきざわ整骨院,,株式会社,北海道,紋別市,潮見町３丁目６番３５号,,01,219,0940006,,,,,,,2022-03-02,1,,,,,スキザワセイコツイン,0
1890,7460101007148,新規,0,2022-03-02,2022-03-02,株式会社サンウッド,,株式会社,北海道,河東郡音更町,南鈴蘭北６丁目４番地１,,01,631,0800311,,,,,,,2022-03-02,1,,,,,サンウッド,0
1908,8010003037114,新規,0,2022-03-02,2022-03-02,合同会社石垣真栄里ホテルプロジェクト,,合同会社,東京都,中央区,日本橋１丁目４番１号,,13,102,1030027,,,,,,,2022-03-02,1,,,,,イシガキマエサトホテルプロジェクト,0
1909,8010003037130,新規,0,2022-03-02,2022-03-02,三田合同会社,,合同会社,東京都,千代田区,神田小川町３丁目２６番８号神田小川町三丁目ビル６階,,13,101,1010052,,,,,,,2022-03-02,1,,,,,ミタ,0
1916,8010401165846,新規,0,2022-03-02,2022-03-02,株式会社モビーディック,,株式会社,東京都,港区,赤坂６丁目１９番５０－２０５号,,13,103,1070052,,,,,,,2022-03-02,1,,,,,モビーディック,0
1917,8010401165854,新規,0,2022-03-02,2022-03-02,株式会社ＴＹホールディングス,,株式会社,東京都,港区,赤坂９丁目７番１号,,13,103,1070052,,,,,,,2022-03-02,1,,,,,ティーワイホールディングス,0
1918,8010401165879,新規,0,2022-03-02,2022-03-02,株式会社レットイットワーク,,株式会社,東京都,港区,南青山２丁目２番１５号ウィン青山９４２,,13,103,1070062,,,,,,,2022-03-02,1,,,,,レットイットワーク,0
1919,8010401165895,新規,0,2022-03-02,2022-03-02,株式会社ＫＵＯＮ,,株式会社,東京都,港区,六本木６丁目１－２０,,13,103,1060032,,,,,,,2022-03-02,1,,,,,クオン,0
1920,8010401165945,新規,0,2022-03-02,2022-03-02,株式会社ＨＲプロビサイド,,株式会社,東京都,港区,東新橋１丁目１０番２－１３０７号,,13,103,1050021,,,,,,,2022-03-02,1,,,,,エイチアールプロビサイド,0
1921,8010403027185,新規,0,2022-03-02,2022-03-02,合同会社アブダクション,,合同会社,東京都,港区,浜松町２丁目２番１５号浜松町ダイヤビル２Ｆ,,13,103,1050013,,,,,,,2022-03-02,1,,,,,アブダクション,0
1925,8010405020758,新規,0,2022-03-02,2022-03-02,一般社団法人日本ＥＳＧ協会,,その他の設立登記法人,東京都,港区,芝公園２丁目１１－１４－１００２,,13,103,1050011,,,,,,,2022-03-02,1,,,,,ニホンイーエスジーキョウカイ,0
1928,8010501048488,新規,0,2022-03-02,2022-03-02,未来生命株式会社,,株式会社,東京都,台東区,東上野３丁目２１－７福井ビル４０２,,13,106,1100015,,,,,,,2022-03-02,1,,,,,ミライセイメイ,0
1931,8010601060764,新規,0,2022-03-02,2022-03-02,株式会社日本総合整体研究所,,株式会社,東京都,墨田区,江東橋４丁目１０－１３ベルグリーン錦糸町１０２,,13,107,1300022,,,,,,,2022-03-02,1,,,,,ニホンソウゴウセイタイケンキュウジョ,0
1949,8011001145932,新規,0,2022-03-02,2022-03-02,株式会社若草,,株式会社,東京都,渋谷区,笹塚１丁目２１番１７－２０２号,,13,113,1510073,,,,,,,2022-03-02,1,,,,,ワカクサ,0
1950,8011001145940,新規,0,2022-03-02,2022-03-02,株式会社ロジカルツリー,,株式会社,東京都,目黒区,碑文谷４丁目４番１５号,,13,110,1520003,,,,,,,2022-03-02,1,,,,,ロジカルツリー,0
1951,8011001145998,新規,0,2022-03-02,2022-03-02,Ｕライフケア株式会社,,株式会社,東京都,渋谷区,本町４丁目８番８－１０１号,,13,113,1510071,,,,,,,2022-03-02,1,,,,,ユーライフケア,0
1952,8011001146014,新規,0,2022-03-02,2022-03-02,Ｋａｎｏｎ株式会社,,株式会社,東京都,渋谷区,神南１丁目１１－３ＰＯＲＴＡＬＰＯＩＮＴＳＨＩＢＵＹＡ,,13,113,1500041,,,,,,,2022-03-02,1,,,,,カノン,0
1961,8011101097982,新規,0,2022-03-02,2022-03-02,Ｊコンストラクトフードサービス株式会社,,株式会社,東京都,新宿区,四谷三栄町９番４号堀木ビル,,13,104,1600008,,,,,,,2022-03-02,1,,,,,ジェイコンストラクトフードサービス,0
1962,8011101098031,新規,0,2022-03-02,2022-03-02,株式会社ランドリーｂｅｔａ,,株式会社,東京都,新宿区,神楽坂３丁目４番地神楽坂山本ビル６階,,13,104,1620825,,,,,,,2022-03-02,1,,,,,ランドリーベータ,0
1963,8011303004324,新規,0,2022-03-02,2022-03-02,ＶｉｓｉｏｎＮｅｐａｌ合同会社,,合同会社,東京都,杉並区,荻窪２丁目１３番８号片平アパート２０５号,,13,115,1670051,,,,,,,2022-03-02,1,,,,,ビジョンネパール,0
1966,8011403003589,新規,0,2022-03-02,2022-03-02,合同会社学舎,,合同会社,東京都,板橋区,赤塚４丁目９番４号,,13,119,1750092,,,,,,,2022-03-02,1,,,,,マナビヤ,0
1967,8011501027770,新規,0,2022-03-02,2022-03-02,株式会社淇,,株式会社,東京都,北区,豊島１丁目３９番１５号ルネージュ福島３０２号室,,13,117,1140003,,,,,,,2022-03-02,1,,,,,キ,0
1971,8011801040399,新規,0,2022-03-02,2022-03-02,株式会社スルーム,,株式会社,東京都,葛飾区,立石１丁目１９番５号八幡屋ビル３Ｆ,,13,122,1240012,,,,,,,2022-03-02,1,,,,,スルーム,0
1972,8011803004988,新規,0,2022-03-02,2022-03-02,合同会社住まいる,,合同会社,東京都,葛飾区,金町６丁目１２番１３号ヴィラトライデント８０２,,13,122,1250042,,,,,,,2022-03-02,1,,,,,スマイル,0
1973,8012305001994,新規,0,2022-03-02,2022-03-02,特定非営利活動法人クローバーヘルス・インターナショナル,,その他の設立登記法人,東京都,町田市,中町３丁目４番２号高峰ビル２０２,,13,209,1940021,,,,,,,2022-03-02,1,,,,,クローバーヘルスインターナショナル,0
1977,8012705002295,新規,0,2022-03-02,2022-03-02,医療法人社団カネトシ会,,その他の設立登記法人,東京都,東久留米市,滝山４丁目１番３５号２階,,13,222,2030033,,,,,,,2022-03-02,1,,,,,カネトシカイ,0
1978,8012801021430,新規,0,2022-03-02,2022-03-02,株式会社安藤工業,,株式会社,東京都,昭島市,朝日町５丁目７番２７号,,13,207,1960025,,,,,,,2022-03-02,1,,,,,アンドウコウギョウ,0
1988,8020001145446,新規,0,2022-03-02,2022-03-02,Ｔ．Ｋ．エンジ株式会社,,株式会社,神奈川県,川崎市中原区,下小田中２丁目８番５号コーポサザンクロス１階,,14,133,2110041,,,,,,,2022-03-02,1,,,,,ティーケイエンジ,0
1989,8020001145479,新規,0,2022-03-02,2022-03-02,株式会社マルマサ産業,,株式会社,神奈川県,川崎市宮前区,平５丁目３番４１号サンシティ宮前Ｂ１０２,,14,136,2160022,,,,,,,2022-03-02,1,,,,,マルマササンギョウ,0
1990,8020003021380,新規,0,2022-03-02,2022-03-02,合同会社エンリッチ・ゴー,,合同会社,神奈川県,横浜市鶴見区,馬場４丁目２５番５１号,,14,101,2300076,,,,,,,2022-03-02,1,,,,,エンリッチゴー,0
1997,8030001147029,新規,0,2022-03-02,2022-03-02,株式会社Ｔ＆Ｋ,,株式会社,埼玉県,さいたま市南区,根岸４丁目１８番３号,,11,108,3360024,,,,,,,2022-03-02,1,,,,,ティアンドケイ,0
1999,8030003018938,新規,0,2022-03-02,2022-03-02,Ｐａｍｉｌｙａ　Ｌａ　Ｓａｂａｍ合同会社,,合同会社,埼玉県,川口市,元郷１丁目１－１３,,11,203,3320011,,,,,,,2022-03-02,1,,,,,パミリヤラサバム,0
2000,8030003018946,新規,0,2022-03-02,2022-03-02,合同会社ＴＪプランナーズ,,合同会社,埼玉県,草加市,吉町２丁目６番２４号,,11,221,3400017,,,,,,,2022-03-02,1,,,,,ティージェープランナーズ,0
2001,8030003018954,新規,0,2022-03-02,2022-03-02,合同会社ランテクト,,合同会社,埼玉県,和光市,丸山台２丁目１２番３－２０４号,,11,229,3510112,,,,,,,2022-03-02,1,,,,,ランテクト,0
2008,8040001122402,新規,0,2022-03-02,2022-03-02,Ｉ’ｃｈｉｂａ’ｎ株式会社,,株式会社,千葉県,市川市,市川１丁目５－１２－５０７,,12,203,2720034,,,,,,,2022-03-02,1,,,,,イチバン,0
2009,8040001122419,新規,0,2022-03-02,2022-03-02,ＴＧＩＦ株式会社,,株式会社,千葉県,千葉市稲毛区,稲毛台町９番１０号,,12,103,2630032,,,,,,,2022-03-02,1,,,,,ティージーアイエフ,0
2010,8040001122443,新規,0,2022-03-02,2022-03-02,株式会社ａｓｏｋｋａ,,株式会社,千葉県,松戸市,西馬橋３丁目１８番地の３,,12,207,2710044,,,,,,,2022-03-02,1,,,,,アソッカ,0
2012,8040005021534,新規,0,2022-03-02,2022-03-02,一般財団法人里見ねこうらら,,その他の設立登記法人,千葉県,市川市,南八幡５丁目２番６号,,12,203,2720023,,,,,,,2022-03-02,1,,,,,サトミネコウララ,0
2021,8080001024792,新規,0,2022-03-02,2022-03-02,株式会社兎道,,株式会社,静岡県,牧之原市,波津６０５番地１４,,22,226,4210523,,,,,,,2022-03-02,1,,,,,ウサギドウ,0
2022,8080003002747,新規,0,2022-03-02,2022-03-02,合同会社ハーモニー,,合同会社,静岡県,藤枝市,小石川町４丁目１４番２号,,22,214,4260033,,,,,,,2022-03-02,1,,,,,ハーモニー,0
2023,8080101023133,新規,0,2022-03-02,2022-03-02,Ｄａｎｄｅｌｉｏｎｚ株式会社,,株式会社,静岡県,三島市,錦が丘２７番地の４,,22,206,4110808,,,,,,,2022-03-02,1,,,,,ダンデライオンズ,0
2027,8090005007470,新規,0,2022-03-02,2022-03-02,一般社団法人穂足地区組合,,その他の設立登記法人,山梨県,北杜市,須玉町大豆生田３９５番地,,19,209,4080115,,,,,,,2022-03-02,1,,,,,ホタリチククミアイ,0
2042,8120001244015,新規,0,2022-03-02,2022-03-02,株式会社興進,,株式会社,大阪府,大阪市住吉区,沢之町２丁目６－１１－１０１,,27,120,5580031,,,,,,,2022-03-02,1,,,,,コウシン,0
2043,8120001244064,新規,0,2022-03-02,2022-03-02,株式会社Ｓｔｙｌｅ,,株式会社,大阪府,大阪市城東区,諏訪３丁目５番３２号藤伊コーポ３０２,,27,118,5360021,,,,,,,2022-03-02,1,,,,,スタイル,0
2045,8120003021197,新規,0,2022-03-02,2022-03-02,タレンジャ合同会社,,合同会社,大阪府,大阪市北区,梅田１丁目１番３号大阪駅前第３ビル２９階１－１－１号室,,27,127,5300001,,,,,,,2022-03-02,1,,,,,タレンジャ,0
2046,8120003021214,新規,0,2022-03-02,2022-03-02,合同会社二八商事,,合同会社,大阪府,大阪市住之江区,南加賀屋２丁目９番６号,,27,125,5590015,,,,,,,2022-03-02,1,,,,,ニハチショウジ,0
2050,8120901045652,新規,0,2022-03-02,2022-03-02,株式会社晃西,,株式会社,大阪府,高槻市,西面南２丁目６番１０号,,27,207,5690847,,,,,,,2022-03-02,1,,,,,コウセイ,0
2057,8130003007781,新規,0,2022-03-02,2022-03-02,合同会社オープンスタイル,,合同会社,京都府,京都市西京区,御陵大枝山町５丁目４番地１０,,26,111,6101102,,,,,,,2022-03-02,1,,,,,オープンスタイル,0
2062,8140001125064,新規,0,2022-03-02,2022-03-02,三創株式会社,,株式会社,兵庫県,西宮市,清水町１番１１号,,28,204,6620033,,,,,,,2022-03-02,1,,,,,サンソウ,0
2063,8140001125072,新規,0,2022-03-02,2022-03-02,株式会社ビースリートラベル,,株式会社,兵庫県,神戸市中央区,坂口通７丁目２番１７号,,28,110,6510062,,,,,,,2022-03-02,1,,,,,ビースリートラベル,0
2074,8150001025379,新規,0,2022-03-02,2022-03-02,株式会社ＢＯＮＤ　ＰＬＵＳ,,株式会社,奈良県,香芝市,良福寺６６９－１,,29,210,6390235,,,,,,,2022-03-02,1,,,,,ボンドプラス,0
2075,8160003002508,新規,0,2022-03-02,2022-03-02,ｍａｎｅｋｉｎｅｋｏ合同会社,,合同会社,滋賀県,大津市,国分１丁目３６番２０号,,25,201,5200844,,,,,,,2022-03-02,1,,,,,マネキネコ,0
2076,8170001016995,新規,0,2022-03-02,2022-03-02,株式会社井口電工,,株式会社,和歌山県,有田郡有田川町,大字西丹生図３５９番地８,,30,366,6430813,,,,,,,2022-03-02,1,,,,,イグチデンコウ,0
2082,8180001150182,新規,0,2022-03-02,2022-03-02,株式会社ＲＯＺＥＬ　ＷＡＶＥ,,株式会社,愛知県,名古屋市中区,栄３丁目３２番２３号,,23,106,4600008,,,,,,,2022-03-02,1,,,,,ロゼルウェーブ,0
2089,8180301035959,新規,0,2022-03-02,2022-03-02,株式会社ＯＶＥＲ　ＤＯＯＲ,,株式会社,愛知県,豊田市,若林西町上ノ山１２３番地２,,23,211,4730917,,,,,,,2022-03-02,1,,,,,オーバードア,0
2090,8180301035967,新規,0,2022-03-02,2022-03-02,ヒロセスクリーン株式会社,,株式会社,愛知県,西尾市,法光寺町住崎山２番地２,,23,213,4450892,,,,,,,2022-03-02,1,,,,,ヒロセスクリーン,0
2091,8180301035983,新規,0,2022-03-02,2022-03-02,株式会社ＺＥＳＴ　ＬＩＮＥ　ＳＥＲＶＩＣＥ,,株式会社,愛知県,岡崎市,橋目町字割塚１６番地９,,23,202,4440908,,,,,,,2022-03-02,1,,,,,ゼストラインサービス,0
2097,8190001029178,新規,0,2022-03-02,2022-03-02,株式会社まつだて動物診療所,,株式会社,三重県,四日市市,川北１丁目１１番８号,,24,202,5108031,,,,,,,2022-03-02,1,,,,,マツダテドウブツシンリョウショ,0
2098,8190001029186,新規,0,2022-03-02,2022-03-02,おそうじのＳＡＳＡ株式会社,,株式会社,三重県,津市,河芸町杜の街２丁目３番地１,,24,201,5100318,,,,,,,2022-03-02,1,,,,,オソウジノササ,0
2099,8190001029194,新規,0,2022-03-02,2022-03-02,黒田アグリ株式会社,,株式会社,三重県,三重郡菰野町,大字小島８１番地,,24,341,5101323,,,,,,,2022-03-02,1,,,,,クロダアグリ,0
2105,8200001039803,新規,0,2022-03-02,2022-03-02,ＢＬＵＥ　ｆｒｅｅ株式会社,,株式会社,岐阜県,岐阜市,細畑１丁目６番４号,,21,201,5008238,,,,,,,2022-03-02,1,,,,,ブルーフリー,0
2111,8220001024704,新規,0,2022-03-02,2022-03-02,株式会社サンユウ,,株式会社,石川県,金沢市,福増町北８４０番地１,,17,201,9200376,,,,,,,2022-03-02,1,,,,,サンユウ,0
2116,8230001019257,新規,0,2022-03-02,2022-03-02,高岡技建株式会社,,株式会社,富山県,高岡市,醍醐３３６番地５,,16,202,9391131,,,,,,,2022-03-02,1,,,,,タカオカギケン,0
2122,8240001059401,新規,0,2022-03-02,2022-03-02,株式会社ＲＰサポート,,株式会社,広島県,東広島市,西条町寺家５６３７番地３,,34,212,7390041,,,,,,,2022-03-02,1,,,,,アールピーサポート,0
2125,8240005015342,新規,0,2022-03-02,2022-03-02,医療法人あおぼし会,,その他の設立登記法人,広島県,呉市,中通１丁目３番１４号,,34,202,7370046,,,,,,,2022-03-02,1,,,,,アオボシカイ,0
2131,8260001036596,新規,0,2022-03-02,2022-03-02,株式会社Ｌｉｆｅ　Ｉｎｎｏｖａｔｉｏｎ,,株式会社,岡山県,岡山市南区,新保６８５番地１１,,33,104,7000945,,,,,,,2022-03-02,1,,,,,ライフイノベーション,0
2132,8260001036605,新規,0,2022-03-02,2022-03-02,巧工舎株式会社,,株式会社,岡山県,倉敷市,中島２０６番地５,,33,202,7100803,,,,,,,2022-03-02,1,,,,,タクミコウシャ,0
2133,8260003003826,新規,0,2022-03-02,2022-03-02,Ｐｉｔｔｉ合同会社,,合同会社,岡山県,岡山市北区,今６丁目４－１２－１０２,,33,101,7000975,,,,,,,2022-03-02,1,,,,,ピッティ,0
2134,8270001008462,新規,0,2022-03-02,2022-03-02,株式会社狩屋原ｄｅ百笑一起,,株式会社,鳥取県,日野郡日南町,福寿実１０９５番地１,,31,401,6895545,,,,,,,2022-03-02,1,,,,,カリヤバラデヒャクショウイッキ,0
2138,8290001096588,新規,0,2022-03-02,2022-03-02,株式会社Ａ５０,,株式会社,福岡県,福岡市中央区,天神２丁目３－１０天神パインクレスト７１９,,40,133,8100001,,,,,,,2022-03-02,1,,,,,エーフィフティ,0
2139,8290001096670,新規,0,2022-03-02,2022-03-02,ＪＵＳＩＴＥＣ株式会社,,株式会社,福岡県,福岡市西区,福重４丁目２４番３４－３０２号,,40,135,8190022,,,,,,,2022-03-02,1,,,,,ジュシテック,0
2143,8290003012213,新規,0,2022-03-02,2022-03-02,合同会社新宮,,合同会社,福岡県,春日市,松ヶ丘１丁目１番地１,,40,218,8160843,,,,,,,2022-03-02,1,,,,,シングウ,0
2144,8290005018571,新規,0,2022-03-02,2022-03-02,ＮＰＯ法人ふれあい広場たんぽぽ,,その他の設立登記法人,福岡県,久留米市,荒木町荒木１９６５番地１０,,40,203,8300063,,,,,,,2022-03-02,1,,,,,フレアイヒロバタンポポ,0
2146,8290801028303,新規,0,2022-03-02,2022-03-02,株式会社アクトプランニング,,株式会社,福岡県,北九州市小倉南区,南方２丁目１０番１４号（Ｄ２０２）,,40,107,8020976,,,,,,,2022-03-02,1,,,,,アクトプランニング,0
2152,8320001018935,新規,0,2022-03-02,2022-03-02,大分電装株式会社,,株式会社,大分県,臼杵市,野津町大字宮原２８５６番地の２６,,44,206,8750233,,,,,,,2022-03-02,1,,,,,オオイタデンソウ,0
2156,8330001029477,新規,0,2022-03-02,2022-03-02,株式会社優真Ｅ．Ｍ．Ｔ,,株式会社,熊本県,合志市,御代志１６６１番地３２４,,43,216,8611104,,,,,,,2022-03-02,1,,,,,ユウシンイーエムティー,0
2157,8330003009270,新規,0,2022-03-02,2022-03-02,合同会社春賀,,合同会社,熊本県,熊本市東区,長嶺南６丁目３番３－１０５号,,43,102,8618039,,,,,,,2022-03-02,1,,,,,カスガ,0
2159,8340001024527,新規,0,2022-03-02,2022-03-02,株式会社福徳,,株式会社,鹿児島県,姶良市,東餅田２３６９番地８,,46,225,8995421,,,,,,,2022-03-02,1,,,,,フクトク,0
2161,8350001017620,新規,0,2022-03-02,2022-03-02,株式会社ＧＲＡＮＤＩＸ,,株式会社,宮崎県,宮崎市,恒久６丁目９番地１０,,45,201,8800913,,,,,,,2022-03-02,1,,,,,グランディクス,0
2165,8370001048259,新規,0,2022-03-02,2022-03-02,Ｙ’ｓシステム株式会社,,株式会社,宮城県,仙台市青葉区,国見ケ丘５丁目４３番５１号,,04,101,9893201,,,,,,,2022-03-02,1,,,,,ワイズシステム,0
2166,8370001048267,新規,0,2022-03-02,2022-03-02,株式会社小澤建築,,株式会社,宮城県,亘理郡亘理町,字新井町６４番地２,,04,361,9892351,,,,,,,2022-03-02,1,,,,,オザワケンチク,0
2168,8390001016800,新規,0,2022-03-02,2022-03-02,株式会社新栄美装,,株式会社,山形県,山形市,大字内表８４３番地７,,06,201,9900877,,,,,,,2022-03-02,1,,,,,シンエイビソウ,0
2169,8390001016809,新規,0,2022-03-02,2022-03-02,株式会社すまいるファーム,,株式会社,山形県,東置賜郡川西町,大字小松１６４１番地,,06,382,9990133,,,,,,,2022-03-02,1,,,,,スマイルファーム,0
2171,8390003001932,新規,0,2022-03-02,2022-03-02,タイニークリエイツ合同会社,,合同会社,山形県,新庄市,大字鳥越９８８番地の５グレイス　ノバ１０４,,06,205,9960041,,,,,,,2022-03-02,1,,,,,タイニークリエイツ,0
2174,8430001086087,新規,0,2022-03-02,2022-03-02,株式会社ポポ,,株式会社,北海道,札幌市手稲区,星置三条１丁目３１番１２号,,01,109,0060853,,,,,,,2022-03-02,1,,,,,ポポ,0
2177,8440001009039,新規,0,2022-03-02,2022-03-02,株式会社アクター,,株式会社,北海道,函館市,山の手１丁目１番８号山の手ビル１階,,01,202,0410836,,,,,,,2022-03-02,1,,,,,アクター,0
2184,8470001018986,新規,0,2022-03-02,2022-03-02,株式会社Ｋ・Ｓ,,株式会社,香川県,高松市,牟礼町牟礼１２７０番地７,,37,201,7610121,,,,,,,2022-03-02,1,,,,,ケーエス,0
2190,8490003001633,新規,0,2022-03-02,2022-03-02,合同会社あるがまま,,合同会社,高知県,高岡郡四万十町,黒石７３４番地,,39,412,7860042,,,,,,,2022-03-02,1,,,,,アルガママ,0
2193,8500001024031,新規,0,2022-03-02,2022-03-02,株式会社川口,,株式会社,愛媛県,松山市,三番町４丁目７番地１２,,38,201,7900003,,,,,,,2022-03-02,1,,,,,カワグチ,0
2195,8700150107054,新規,0,2022-03-02,2022-02-15,合同労働組合ユニオンジャパン,,その他,大阪府,大阪市東淀川区,上新庄３丁目１４－１２－１２０２,,27,114,5330006,,,,,,,2022-02-15,1,,,,,ゴウドウロウドウクミアイユニオンジヤパン,0
2201,9010001224919,新規,0,2022-03-02,2022-03-02,株式会社令和レストラン,,株式会社,東京都,文京区,湯島３丁目４２－９,,13,105,1130034,,,,,,,2022-03-02,1,,,,,レイワレストラン,0
2202,9010003037113,新規,0,2022-03-02,2022-03-02,マイアミプロパティー合同会社,,合同会社,東京都,千代田区,丸の内１丁目１１番１号,,13,101,1000005,,,,,,,2022-03-02,1,,,,,マイアミプロパティー,0
2203,9010003037121,新規,0,2022-03-02,2022-03-02,サスティナブルソーラーウェイ合同会社,,合同会社,東京都,千代田区,丸の内３丁目１番１号,,13,101,1000005,,,,,,,2022-03-02,1,,,,,サスティナブルソーラーウェイ,0
2207,9010005034645,新規,0,2022-03-02,2022-03-02,一般社団法人日本患者由来がんモデル学会,,その他の設立登記法人,東京都,中央区,築地５丁目１番１号国立がん研究センター研究所希少がん研究分野,,13,102,1040045,,,,,,,2022-03-02,1,,,,,ニホンカンジャユライガンモデルガッカイ,0
2208,9010005034653,新規,0,2022-03-02,2022-03-02,一般社団法人石垣真栄里ホテルプロジェクト,,その他の設立登記法人,東京都,中央区,日本橋１丁目４番１号,,13,102,1030027,,,,,,,2022-03-02,1,,,,,イシガキマエサトホテルプロジェクト,0
2211,9010401165853,新規,0,2022-03-02,2022-03-02,株式会社アクア,,株式会社,東京都,港区,浜松町１丁目１０番８号,,13,103,1050013,,,,,,,2022-03-02,1,,,,,アクア,0
2212,9010401165878,新規,0,2022-03-02,2022-03-02,株式会社ＭＩＭＯ,,株式会社,東京都,港区,北青山２丁目１２番４号坂本ビル３階,,13,103,1070061,,,,,,,2022-03-02,1,,,,,ミモ,0
2214,9010403027192,新規,0,2022-03-02,2022-03-02,合同会社Ｒｅ　ｆａｖ,,合同会社,東京都,港区,南青山３丁目８番４０号青山センタービル２階,,13,103,1070062,,,,,,,2022-03-02,1,,,,,リファブ,0
2215,9010405020773,新規,0,2022-03-02,2022-03-02,ＥＳＲ２７特定目的会社,,その他の設立登記法人,東京都,港区,浜松町１丁目２０番１０号ライオネス浜松町５０６号室,,13,103,1050013,,,,,,,2022-03-02,1,,,,,イーエスアールニジュウナナ,0
2221,9010701042315,新規,0,2022-03-02,2022-03-02,株式会社ＹＭＲＮ,,株式会社,東京都,品川区,北品川５丁目３番１号,,13,109,1410001,,,,,,,2022-03-02,1,,,,,ワイエムアールエヌ,0
2224,9010703006136,新規,0,2022-03-02,2022-03-02,合同会社新,,合同会社,東京都,品川区,荏原２丁目２番１４－２０１号,,13,109,1420063,,,,,,,2022-03-02,1,,,,,アラタ,0
2234,9011001145931,新規,0,2022-03-02,2022-03-02,株式会社ホリデー,,株式会社,東京都,渋谷区,代々木１丁目２５－５,,13,113,1510053,,,,,,,2022-03-02,1,,,,,ホリデー,0
2235,9011001145989,新規,0,2022-03-02,2022-03-02,株式会社ＢＯＯＳＴ,,株式会社,東京都,渋谷区,松濤１丁目２８番２号,,13,113,1500046,,,,,,,2022-03-02,1,,,,,ブースト,0
2239,9011003014267,新規,0,2022-03-02,2022-03-02,Ｂｈ合同会社,,合同会社,東京都,渋谷区,恵比寿４丁目３－１,,13,113,1500013,,,,,,,2022-03-02,1,,,,,ビーエイチ,0
2240,9011101098030,新規,0,2022-03-02,2022-03-02,株式会社ランドリーａｌｐｈａ,,株式会社,東京都,新宿区,神楽坂３丁目４番地神楽坂山本ビル６階,,13,104,1620825,,,,,,,2022-03-02,1,,,,,ランドリーアルファ,0
2242,9011103011528,新規,0,2022-03-02,2022-03-02,合同会社りんくうホテルマネジメント,,合同会社,東京都,新宿区,四谷２丁目９番地１５東京ユナイテッド綜合事務所内,,13,104,1600004,,,,,,,2022-03-02,1,,,,,リンクウホテルマネジメント,0
2246,9011303004323,新規,0,2022-03-02,2022-03-02,合同会社エンパチ総研,,合同会社,東京都,杉並区,下高井戸３丁目１５番８号Ｋコーポ,,13,115,1680073,,,,,,,2022-03-02,1,,,,,エンパチソウケン,0
2253,9011803004987,新規,0,2022-03-02,2022-03-02,合同会社ｉ．,,合同会社,東京都,足立区,南花畑４丁目３番１マスカレードＡ１０１,,13,121,1210062,,,,,,,2022-03-02,1,,,,,アイドット,0
2255,9012701016967,新規,0,2022-03-02,2022-03-02,株式会社コネクト,,株式会社,東京都,西東京市,住吉町６丁目１５番２４号ハイテラス２０１号,,13,229,2020005,,,,,,,2022-03-02,1,,,,,コネクト,0
2258,9013103001112,新規,0,2022-03-02,2022-03-02,ＡＥＩ合同会社,,合同会社,東京都,羽村市,川崎１丁目６番１６号,,13,227,2050021,,,,,,,2022-03-02,1,,,,,エーイーアイ,0
2267,9020001145404,新規,0,2022-03-02,2022-03-02,株式会社イイベル,,株式会社,神奈川県,川崎市幸区,中幸町３丁目３－１太陽ビル３Ｆ,,14,132,2120012,,,,,,,2022-03-02,1,,,,,イイベル,0
2268,9020001145445,新規,0,2022-03-02,2022-03-02,株式会社Ｍ＆Ｔ,,株式会社,神奈川県,横浜市南区,弘明寺町字前田１５４番地,,14,105,2320067,,,,,,,2022-03-02,1,,,,,エムアンドティー,0
2269,9020001145486,新規,0,2022-03-02,2022-03-02,Ｊａｐａｎ　Ｆｉｎａｎｃｅ　Ｈｏｕｓｅ株式会社,,株式会社,神奈川県,川崎市川崎区,観音１丁目５番４号,,14,131,2100831,,,,,,,2022-03-02,1,,,,,ジャパンファイナンスハウス,0
2276,9030001147085,新規,0,2022-03-02,2022-03-02,株式会社スプリング,,株式会社,埼玉県,草加市,谷塚上町９４番１,,11,221,3400024,,,,,,,2022-03-02,1,,,,,スプリング,0
2279,9040001122384,新規,0,2022-03-02,2022-03-02,株式会社ＫＲＭ,,株式会社,千葉県,八千代市,萱田町６５９番地５ブロンズハイム２０７,,12,221,2760044,,,,,,,2022-03-02,1,,,,,ケーアールエム,0
2280,9040001122401,新規,0,2022-03-02,2022-03-02,株式会社ルミエール,,株式会社,千葉県,富里市,新橋３番地１１,,12,233,2860224,,,,,,,2022-03-02,1,,,,,ルミエール,0
2295,9080001024791,新規,0,2022-03-02,2022-03-02,株式会社中井俊裕カーボンニュートラル研究所,,株式会社,静岡県,静岡市駿河区,泉町８番２０－１００２号,,22,102,4228066,,,,,,,2022-03-02,1,,,,,ナカイトシヒロカーボンニュートラルケンキュウショ,0
2297,9080003002746,新規,0,2022-03-02,2022-03-02,合同会社カトー,,合同会社,静岡県,静岡市駿河区,中島３１９４番地,,22,102,4228046,,,,,,,2022-03-02,1,,,,,カトー,0
2301,9080103002539,新規,0,2022-03-02,2022-03-02,合同会社アウスヴァール,,合同会社,静岡県,裾野市,岩波８６番地の６,,22,220,4101101,,,,,,,2022-03-02,1,,,,,アウスヴァール,0
2302,9080105006224,新規,0,2022-03-02,2022-03-02,一般社団法人一滴の水,,その他の設立登記法人,静岡県,伊豆の国市,南條１５４３番地の１７,,22,225,4102114,,,,,,,2022-03-02,1,,,,,イッテキノミズ,0
2318,9120001243932,新規,0,2022-03-02,2022-03-02,株式会社Ｒ．ｃｏｒｐｏｒａｔｉｏｎ,,株式会社,大阪府,大阪市旭区,新森６丁目１２番３８号,,27,117,5350022,,,,,,,2022-03-02,1,,,,,アールコーポレーション,0
2319,9120001244022,新規,0,2022-03-02,2022-03-02,株式会社ＭＨ,,株式会社,大阪府,寝屋川市,末広町１７番１５－１０３号,,27,215,5720009,,,,,,,2022-03-02,1,,,,,エムエイチ,0
2320,9120001244088,新規,0,2022-03-02,2022-03-02,株式会社グランシエル,,株式会社,大阪府,大阪市淀川区,十三東４丁目２番１５号十三アルヴィータビル３階,,27,123,5320023,,,,,,,2022-03-02,1,,,,,グランシエル,0
2321,9120001244146,新規,0,2022-03-02,2022-03-02,ＳＨＯＷコーポレーション株式会社,,株式会社,大阪府,大阪市東成区,深江北１丁目２番５号,,27,115,5370001,,,,,,,2022-03-02,1,,,,,ショーコーポレーション,0
2322,9120001244154,新規,0,2022-03-02,2022-03-02,株式会社Ｔｒａｄｅ　Ｋ,,株式会社,大阪府,大阪市中央区,南船場２丁目１１番４号エースビル２０４号室,,27,128,5420081,,,,,,,2022-03-02,1,,,,,トレードケー,0
2323,9120001244195,新規,0,2022-03-02,2022-03-02,株式会社クロスワーカー,,株式会社,大阪府,大阪市北区,梅田１丁目１番３号,,27,127,5300001,,,,,,,2022-03-02,1,,,,,クロスワーカー,0
2325,9120003021205,新規,0,2022-03-02,2022-03-02,合同会社ＯＷＬ,,合同会社,大阪府,大阪市東淀川区,豊里２丁目２４番３号,,27,114,5330013,,,,,,,2022-03-02,1,,,,,アウル,0
2326,9120003021213,新規,0,2022-03-02,2022-03-02,合同会社アンファング,,合同会社,大阪府,大阪市中央区,西心斎橋２丁目１０番１３号クリスタルエグゼ心斎橋１３０２号,,27,128,5420086,,,,,,,2022-03-02,1,,,,,アンファング,0
2335,9140001125063,新規,0,2022-03-02,2022-03-02,株式会社ｎｏｄｅ,,株式会社,兵庫県,神戸市中央区,海岸通４丁目３－２０,,28,110,6500024,,,,,,,2022-03-02,1,,,,,ノード,0
2336,9140001125071,新規,0,2022-03-02,2022-03-02,虎壱工業株式会社,,株式会社,兵庫県,明石市,二見町東二見８０２番地の１,,28,203,6740092,,,,,,,2022-03-02,1,,,,,トライコウギョウ,0
2337,9150001025386,新規,0,2022-03-02,2022-03-02,株式会社ハシモトエンジニアリング,,株式会社,奈良県,大和郡山市,高田口町３番地２,,29,203,6391133,,,,,,,2022-03-02,1,,,,,ハシモトエンジニアリング,0
2339,9160001024016,新規,0,2022-03-02,2022-03-02,ａ．ｍ．ｓｕｎｓｈｉｎｅ株式会社,,株式会社,滋賀県,大津市,大平２丁目１番２２号,,25,201,5200867,,,,,,,2022-03-02,1,,,,,エーエムサンシャイン,0
2340,9160001024024,新規,0,2022-03-02,2022-03-02,Ｉ．Ｂ．ＯＨＡＮＡ株式会社,,株式会社,滋賀県,大津市,衣川３丁目７番２６号,,25,201,5200244,,,,,,,2022-03-02,1,,,,,アイビーオハナ,0
2353,9180001150181,新規,0,2022-03-02,2022-03-02,株式会社ＪＯＹ　ＳＵＮ,,株式会社,愛知県,名古屋市天白区,平針台１丁目１０１３,,23,116,4680030,,,,,,,2022-03-02,1,,,,,ジョイサン,0
2355,9180301035974,新規,0,2022-03-02,2022-03-02,株式会社ＴＲ,,株式会社,愛知県,西尾市,下町神明下５６番地,,23,213,4450891,,,,,,,2022-03-02,1,,,,,ティーアール,0
2356,9180303005265,新規,0,2022-03-02,2022-03-02,合同会社ＮＩＣＯ,,合同会社,愛知県,岡崎市,伊賀町４７４番地１,,23,202,4440075,,,,,,,2022-03-02,1,,,,,ニコ,0
2365,9220003003226,新規,0,2022-03-02,2022-03-02,レイバーエスコーターズ合同会社,,合同会社,石川県,白山市,石立町２１４番地１,,17,210,9240058,,,,,,,2022-03-02,1,,,,,レイバーエスコーターズ,0
2382,9260001036587,新規,0,2022-03-02,2022-03-02,株式会社フロルオート,,株式会社,岡山県,岡山市北区,牟佐８８２番地１,,33,101,7012141,,,,,,,2022-03-02,1,,,,,フロルオート,0
2383,9260001036604,新規,0,2022-03-02,2022-03-02,株式会社ハピネス,,株式会社,岡山県,津山市,野介代９３３番地７,,33,203,7080821,,,,,,,2022-03-02,1,,,,,ハピネス,0
2389,9290001096595,新規,0,2022-03-02,2022-03-02,株式会社こんるり,,株式会社,福岡県,福津市,若木台１丁目１－６,,40,224,8113221,,,,,,,2022-03-02,1,,,,,コンルリ,0
2392,9290003012237,新規,0,2022-03-02,2022-03-02,合同会社シンコーメディカル,,合同会社,福岡県,古賀市,舞の里５丁目３４番１０号,,40,223,8113114,,,,,,,2022-03-02,1,,,,,シンコーメディカル,0
2394,9290801028310,新規,0,2022-03-02,2022-03-02,副都心開発株式会社,,株式会社,福岡県,北九州市八幡西区,黒崎城石３番７号,,40,109,8060004,,,,,,,2022-03-02,1,,,,,フクトシンカイハツ,0
2398,9310001017739,新規,0,2022-03-02,2022-03-02,株式会社ＳＵＮＮＹ　ＢＩＲＤ,,株式会社,長崎県,長崎市,三川町１３１５番地１,,42,201,8528121,,,,,,,2022-03-02,1,,,,,サニーバード,0
2401,9320001018934,新規,0,2022-03-02,2022-03-02,株式会社ＡｓｓｉｓｔＬｉｎｋ,,株式会社,大分県,大分市,大字永興８４６番地,,44,201,8700883,,,,,,,2022-03-02,1,,,,,アシストリンク,0
2404,9330001029501,新規,0,2022-03-02,2022-03-02,エムズホーム株式会社,,株式会社,熊本県,熊本市南区,川口町１９０７番地３,,43,104,8614123,,,,,,,2022-03-02,1,,,,,エムズホーム,0
2409,9340001024526,新規,0,2022-03-02,2022-03-02,オーガニックグリーン株式会社,,株式会社,鹿児島県,鹿児島市,小川町１０番１３号入佐ビル,,46,201,8920817,,,,,,,2022-03-02,1,,,,,オーガニックグリーン,0
2410,9340001024534,新規,0,2022-03-02,2022-03-02,株式会社エス・リスクマネジメント,,株式会社,鹿児島県,鹿児島市,新栄町１９番３号,,46,201,8900072,,,,,,,2022-03-02,1,,,,,エスリスクマネジメント,0
2413,9350001017611,新規,0,2022-03-02,2022-03-02,株式会社ＮＡＣデザイン,,株式会社,宮崎県,宮崎市,阿波岐原町前浜４２７６番地１９１,,45,201,8800835,,,,,,,2022-03-02,1,,,,,ナックデザイン,0
2414,9350003004038,新規,0,2022-03-02,2022-03-02,合同会社やました動物病院,,合同会社,宮崎県,宮崎市,和知川原２丁目９０番地,,45,201,8800023,,,,,,,2022-03-02,1,,,,,ヤマシタドウブツビョウイン,0
2419,9370001048266,新規,0,2022-03-02,2022-03-02,ＭＰＫＴ株式会社,,株式会社,宮城県,仙台市宮城野区,榴岡１丁目７番１５号サニービル２０１号,,04,102,9830852,,,,,,,2022-03-02,1,,,,,エムケーピーティー,0
2422,9390003001931,新規,0,2022-03-02,2022-03-02,稲栄開発合同会社,,合同会社,山形県,山形市,元木１丁目１０番５９‐８号,,06,201,9902447,,,,,,,2022-03-02,1,,,,,トウエイカイハツ,0
2431,9460301005049,新規,0,2022-03-02,2022-03-02,サントラックス株式会社,,株式会社,北海道,北見市,東相内町９９１番２,,01,208,0990878,,,,,,,2022-03-02,1,,,,,サントラックス,0
2437,9470005006417,新規,0,2022-03-02,2022-03-02,医療法人高志会,,その他の設立登記法人,香川県,高松市,春日町８１２番地１,,37,201,7610101,,,,,,,2022-03-02,1,,,,,タカシカイ,0
2438,9480003001798,新規,0,2022-03-02,2022-03-02,合同会社テルメンテ,,合同会社,徳島県,鳴門市,撫養町立岩字六枚８７,,36,202,7720017,,,,,,,2022-03-02,1,,,,,テルメンテ,0
2439,9490001010131,新規,0,2022-03-02,2022-03-02,株式会社Ｏｎｅ　Ｈａｂｉｔ,,株式会社,高知県,高知市,越前町２丁目１１番１１－９０２号,,39,201,7800928,,,,,,,2022-03-02,1,,,,,ワンハビット,0
2442,9500001024039,新規,0,2022-03-02,2022-03-02,株式会社ＴＳＵＢＡＭＥ,,株式会社,愛媛県,四国中央市,金生町下分９９１－１石駒ビル１階南号室,,38,213,7990111,,,,,,,2022-03-02,1,,,,,ツバメ,0
2443,9500003002785,新規,0,2022-03-02,2022-03-02,合同会社イルポンテイタリアーノ,,合同会社,愛媛県,松山市,大街道３丁目２番２６号,,38,201,7900004,,,,,,,2022-03-02,1,,,,,イルポンテイタリアーノ,0
2444,9700150032945,新規,0,2022-03-02,2015-10-09,北水同窓会,,その他,北海道,函館市,港町３丁目１－１北大水産学部内,,01,202,0410821,,,,,,,2015-10-09,1,,,,,ホクスイドウソウカイ,0
