sequenceNumber,corporateNumber,process,correct,updateDate,changeDate,name,nameImageId,kind,prefectureName,cityName,streetNumber,addressImageId,prefectureCode,cityCode,postCode,addressOutside,addressOutsideImageId,closeDate,closeCause,successorCorporateNumber,changeCause,assignmentDate,latest,enName,enPrefectureName,enCityName,enAddressOutside,furigana,hihyoji
7,1010001260657,新規,0,2025-12-11,2025-12-11,株式会社エムシーワイ,,株式会社,東京都,文京区,大塚３丁目１－１０,00141835,13,105,1120012,,,,,,,2025-12-11,1,,,,,エムシーワイ,0
8,1010001260847,新規,0,2025-12-11,2025-12-11,株式会社サンブリッジ,,株式会社,東京都,千代田区,九段北１丁目４番１号ＶＯＲＴ九段下ｂｒｏｏｋｓ９階,,13,101,1020073,,,,,,,2025-12-11,1,,,,,サンブリッジ,0
9,1010001260946,新規,0,2025-12-11,2025-12-11,シーワイ株式会社,,株式会社,東京都,文京区,湯島４丁目１０番１１号,,13,105,1130034,,,,,,,2025-12-11,1,,,,,シーワイ,0
10,1010001260962,新規,0,2025-12-11,2025-12-11,サンクルオフィス株式会社,,株式会社,東京都,中央区,銀座１丁目２２番１１号銀座大竹ビジデンス２Ｆ,,13,102,1040061,,,,,,,2025-12-11,1,,,,,サンクルオフィス,0
11,1010001260987,新規,0,2025-12-11,2025-12-11,網班東京株式会社,,株式会社,東京都,千代田区,神田佐久間町１丁目１４番,,13,101,1010025,,,,,,,2025-12-11,1,,,,,モウハントウキョウ,0
12,1010001261085,新規,0,2025-12-11,2025-12-11,株式会社Ｍａｘｅｎ,,株式会社,東京都,中央区,新川１丁目３番２１号,,13,102,1040033,,,,,,,2025-12-11,1,,,,,マクセン,0
16,1010003049636,新規,0,2025-12-11,2025-12-11,ＮＩＣＥ　ＰＬＵＳ合同会社,,合同会社,東京都,中央区,銀座７丁目１３番２１号銀座ｓｉｎｒｏｋｕｓｙｕビル２階,,13,102,1040061,,,,,,,2025-12-11,1,,,,,ナイスプラス,0
17,1010003049652,新規,0,2025-12-11,2025-12-11,合同会社ＳＯＳｉＬＡプライベートファンド３,,合同会社,東京都,中央区,京橋２丁目１２番６号ＡＯＪ税理士法人内,,13,102,1040031,,,,,,,2025-12-11,1,,,,,ソシラプライベートファンドサード,0
24,1010401195073,新規,0,2025-12-11,2025-12-11,株式会社ＭＩＲＡ,,株式会社,東京都,港区,赤坂４丁目８－１９赤坂フロントタウン３階,,13,103,1070052,,,,,,,2025-12-11,1,,,,,ミラ,0
28,1010601068392,新規,0,2025-12-11,2025-12-11,Ｃｏｂｉ株式会社,,株式会社,東京都,江東区,豊洲３丁目６番８－３１１６号,,13,108,1350061,,,,,,,2025-12-11,1,,,,,コビ,0
33,1010701048749,新規,0,2025-12-11,2025-12-11,Ｄｉｖｉｎｅ　Ａｓｓｅｔ　Ｊａｐａｎ株式会社,,株式会社,東京都,品川区,南品川５丁目１１番４６－５１９号,,13,109,1400004,,,,,,,2025-12-11,1,,,,,ディバインアセットジャパン,0
34,1010703008032,新規,0,2025-12-11,2025-12-11,合同会社ＤＡＩＳＨＩＲＯＬＡＢ,,合同会社,東京都,品川区,旗の台６丁目１５番４号,,13,109,1420064,,,,,,,2025-12-11,1,,,,,ダイシロラボ,0
35,1010901058622,新規,0,2025-12-11,2025-12-11,株式会社ＴＯＰ　ＭＯＴＩＯＮ,,株式会社,東京都,世田谷区,等々力４丁目３番１０号石川ビル１階,,13,112,1580082,,,,,,,2025-12-11,1,,,,,トップモーション,0
36,1010903010457,新規,0,2025-12-11,2025-12-11,合同会社ＴＳＵＭＩＫＡＳＡＮＥ,,合同会社,東京都,世田谷区,奥沢５丁目２５番３号,,13,112,1580083,,,,,,,2025-12-11,1,,,,,ツミカサネ,0
37,1010905004878,新規,0,2025-12-11,2025-12-11,一般社団法人アートピースジャパン,,その他の設立登記法人,東京都,世田谷区,北沢２丁目１０－１５－８０９,,13,112,1550031,,,,,,,2025-12-11,1,,,,,アートピースジャパン,0
44,1011001174161,新規,0,2025-12-11,2025-12-11,株式会社Ａｎｃｈｏｒ　Ａｒｔ　Ｗｏｒｋｓ,,株式会社,東京都,目黒区,五本木２丁目４４番２号,,13,110,1530053,,,,,,,2025-12-11,1,,,,,アンカーアートワークス,0
46,1011003023077,新規,0,2025-12-11,2025-12-11,合同会社ネクサソーレ,,合同会社,東京都,渋谷区,神南１丁目１１－４ＦＰＧリンクス神南５階,,13,113,1500041,,,,,,,2025-12-11,1,,,,,ネクサソーレ,0
47,1011003023102,新規,0,2025-12-11,2025-12-11,Ｐｉｎｋｅｒ合同会社,,合同会社,東京都,渋谷区,広尾１丁目２番地１号ヒカリビル４階,,13,113,1500012,,,,,,,2025-12-11,1,,,,,ピンカー,0
50,1011101114133,新規,0,2025-12-11,2025-12-11,株式会社縁都,,株式会社,東京都,新宿区,西新宿３丁目３番１３号西新宿水間ビル２Ｆ,,13,104,1600023,,,,,,,2025-12-11,1,,,,,エント,0
55,1011401027646,新規,0,2025-12-11,2025-12-11,株式会社Ａｘｉｓ　Ｊａｐａｎ　Ｗａｔｃｈ,,株式会社,東京都,板橋区,弥生町９番３号平和荘１０５,,13,119,1730021,,,,,,,2025-12-11,1,,,,,アクシスジャパンウォッチ,0
57,1011503006804,新規,0,2025-12-11,2025-12-11,合同会社アルカナ,,合同会社,東京都,荒川区,南千住４丁目９番７－３０８号,,13,118,1160003,,,,,,,2025-12-11,1,,,,,アルカナ,0
60,1011701029012,新規,0,2025-12-11,2025-12-11,株式会社高砂ホールディングス,,株式会社,東京都,江戸川区,中央２丁目２番３号,,13,123,1320021,,,,,,,2025-12-11,1,,,,,タカサゴホールディングス,0
67,1013305003806,新規,0,2025-12-11,2025-12-11,一般社団法人アートテック教育機構,,その他の設立登記法人,東京都,豊島区,東池袋２丁目６２番８号ＢＩＧオフィスプラザ池袋１２０６,,13,116,1700013,,,,,,,2025-12-11,1,,,,,アートテックキョウイクキコウ,0
85,1021001087016,新規,0,2025-12-11,2025-12-11,株式会社ブーゲンビリア,,株式会社,神奈川県,逗子市,逗子５丁目３番２８号鈴木屋ビル１階,,14,208,2490006,,,,,,,2025-12-11,1,,,,,ブーゲンビリア,0
92,1030001169962,新規,0,2025-12-11,2025-12-11,Ｂｕｓｉｎｅｓｓ　Ｓｕｃｃｅｓｓｉｏｎ株式会社,,株式会社,埼玉県,三郷市,栄１丁目２９５番地２１,,11,237,3410043,,,,,,,2025-12-11,1,,,,,ビジネスサクセッション,0
93,1030001170012,新規,0,2025-12-11,2025-12-11,株式会社ＳａｎＫａｋｕＫｕＫｕＫｕ,,株式会社,埼玉県,所沢市,くすのき台３丁目１０番地の１,,11,208,3590037,,,,,,,2025-12-11,1,,,,,サンカクククク,0
94,1030001170078,新規,0,2025-12-11,2025-12-11,株式会社八雲,,株式会社,埼玉県,さいたま市岩槻区,東岩槻２丁目５番地２７,,11,110,3390005,,,,,,,2025-12-11,1,,,,,ヤクモ,0
95,1030001170128,新規,0,2025-12-11,2025-12-11,株式会社Ｎ．Ａ．Ｋ,,株式会社,埼玉県,春日部市,中央１丁目１７番地６,,11,214,3440067,,,,,,,2025-12-11,1,,,,,ナック,0
99,1030003028233,新規,0,2025-12-11,2025-12-11,合同会社レアハウス,,合同会社,埼玉県,川口市,飯塚３丁目５－３４,,11,203,3320023,,,,,,,2025-12-11,1,,,,,レアハウス,0
103,1040001141722,新規,0,2025-12-11,2025-12-11,株式会社皆愛ホーム,,株式会社,千葉県,習志野市,藤崎２丁目８番２３号,,12,216,2750017,,,,,,,2025-12-11,1,,,,,ミナアイホーム,0
105,1040003029156,新規,0,2025-12-11,2025-12-11,ＧＴＡＣ合同会社,,合同会社,千葉県,松戸市,大谷口５６７番地の１エクセレントシティ新松戸３０１号,,12,207,2700005,,,,,,,2025-12-11,1,,,,,ジータック,0
107,1060001038842,新規,0,2025-12-11,2025-12-11,株式会社双翔,,株式会社,栃木県,日光市,瀬尾７８４番地１,,09,206,3211264,,,,,,,2025-12-11,1,,,,,ソウショウ,0
135,1120001282616,新規,0,2025-12-11,2025-12-11,鳴鶴堂株式会社,,株式会社,大阪府,大阪市北区,天満橋２丁目３－３２－２０２,,27,127,5300042,,,,,,,2025-12-11,1,,,,,メイカクドウ,0
138,1120003031418,新規,0,2025-12-11,2025-12-11,凱澄合同会社,,合同会社,大阪府,大阪市西区,本田４丁目６番１１４,,27,106,5500022,,,,,,,2025-12-11,1,,,,,ガイスミ,0
144,1120901051962,新規,0,2025-12-11,2025-12-11,株式会社Ａｖａｎｃｅｒ,,株式会社,大阪府,吹田市,芳野町１－１,,27,205,5640054,,,,,,,2025-12-11,1,,,,,アヴァンセ,0
147,1122001039995,新規,0,2025-12-11,2025-12-11,高山研磨株式会社,,株式会社,大阪府,八尾市,太田新町６丁目２４３番地,,27,212,5810039,,,,,,,2025-12-11,1,,,,,タカヤマケンマ,0
151,1130001081158,新規,0,2025-12-11,2025-12-11,株式会社Ｐｏｌｉ,,株式会社,京都府,長岡京市,開田４丁目１－１,,26,209,6170826,,,,,,,2025-12-11,1,,,,,ポリー,0
152,1130003010998,新規,0,2025-12-11,2025-12-11,ファーストグランド合同会社,,合同会社,京都府,京都市中京区,西ノ京右馬寮町８番地８７,,26,104,6048492,,,,,,,2025-12-11,1,,,,,ファーストグランド,0
153,1130003011006,新規,0,2025-12-11,2025-12-11,合同会社セブニック,,合同会社,京都府,京都市下京区,七条通油小路東入大黒町２２７番地第２キョートビル４０２,,26,106,6008223,,,,,,,2025-12-11,1,,,,,セブニック,0
156,1140001141027,新規,0,2025-12-11,2025-12-11,株式会社みなと人財サービス,,株式会社,兵庫県,神戸市兵庫区,下沢通３丁目４番２７号オオスミビル５階,,28,105,6520047,,,,,,,2025-12-11,1,,,,,ミナトジンザイサービス,0
159,1150003003777,新規,0,2025-12-11,2025-12-11,ＣｏｒｅＭ合同会社,,合同会社,奈良県,生駒市,白庭台４丁目８番６号,,29,209,6300136,,,,,,,2025-12-11,1,,,,,コアエム,0
171,1180001169725,新規,0,2025-12-11,2025-12-11,株式会社ｒｅＱ,,株式会社,愛知県,名古屋市中区,錦１丁目１７番１３号名興中駒ビル４０９,,23,106,4600003,,,,,,,2025-12-11,1,,,,,リクイーン,0
172,1180001169849,新規,0,2025-12-11,2025-12-11,株式会社ユーパオ,,株式会社,愛知県,弥富市,鯏浦町上巳１２番地,,23,235,4980021,,,,,,,2025-12-11,1,,,,,ユーパオ,0
173,1180001169865,新規,0,2025-12-11,2025-12-11,株式会社Ｇａｋｕｓａｐｏ,,株式会社,愛知県,名古屋市天白区,八事山４３９,,23,116,4680077,,,,,,,2025-12-11,1,,,,,ガクサポ,0
176,1180003029407,新規,0,2025-12-11,2025-12-11,アバビールトレーディング合同会社,,合同会社,愛知県,春日井市,高森台７丁目１番地２県営東高森台住宅３１１棟３０６号室,,23,206,4870032,,,,,,,2025-12-11,1,,,,,アバビールトレーディング,0
177,1180003029464,新規,0,2025-12-11,2025-12-11,合同会社ＮＫ,,合同会社,愛知県,半田市,成岩東町７１－１,,23,205,4750845,,,,,,,2025-12-11,1,,,,,エヌケー,0
179,1180005021337,新規,0,2025-12-11,2025-12-11,一般社団法人中部日本臓器提供支援協会,,その他の設立登記法人,愛知県,豊明市,沓掛町田楽ケ窪１番地９８,,23,229,4701101,,,,,,,2025-12-11,1,,,,,チュウブニホンゾウキテイキョウシエンキョウカイ,0
183,1190003005299,新規,0,2025-12-11,2025-12-11,合同会社鳥集,,合同会社,三重県,鈴鹿市,長太栄町５丁目４番３１号,,24,207,5130043,,,,,,,2025-12-11,1,,,,,チョウシュウ,0
197,1250001021449,新規,0,2025-12-11,2025-12-11,たるい引越運送株式会社,,株式会社,山口県,岩国市,旭町１丁目１番４５号,,35,208,7400024,,,,,,,2025-12-11,1,,,,,タルイヒッコシウンソウ,0
207,1290001112459,新規,0,2025-12-11,2025-12-11,株式会社１０１,,株式会社,福岡県,福岡市中央区,薬院２丁目１番５－８０２号,,40,133,8100022,,,,,,,2025-12-11,1,,,,,ヒャクイチ,0
208,1290001112483,新規,0,2025-12-11,2025-12-11,メタエッジ株式会社,,株式会社,福岡県,福岡市東区,千早１丁目１０番２１号,,40,131,8130044,,,,,,,2025-12-11,1,,,,,メタエッジ,0
222,1370001053307,新規,0,2025-12-11,2025-12-11,株式会社ＦＵＬＦＩＬＬ,,株式会社,宮城県,仙台市太白区,ひより台４８番３７－１号,,04,104,9820811,,,,,,,2025-12-11,1,,,,,フルフィル,0
231,1470001021014,新規,0,2025-12-11,2025-12-11,株式会社ローヤル,,株式会社,香川県,高松市,由良町６５８番地３,,37,201,7610441,,,,,,,2025-12-11,1,,,,,ローヤル,0
233,1490005007016,新規,0,2025-12-11,2025-12-11,医療法人よしの,,その他の設立登記法人,高知県,須崎市,大間東町１８８番地,,39,206,7850035,,,,,,,2025-12-11,1,,,,,ヨシノ,0
240,1700150133338,新規,0,2025-12-11,2025-12-11,東洋紡健康保険組合,,その他,大阪府,大阪市北区,梅田１丁目１３番１号,,27,127,5300001,,,,,,,2025-12-11,1,,,,,トウヨウボウケンコウホケンクミアイ,0
241,1700150133346,新規,0,2025-12-11,2025-12-11,合同製鐵健康保険組合,,その他,大阪府,大阪市西淀川区,西島１丁目１番２号,,27,113,5550042,,,,,,,2025-12-11,1,,,,,ゴウドウセイテツケンコウホケンクミアイ,0
242,1700150133354,新規,0,2025-12-11,2025-12-11,中山鋼業健康保険組合,,その他,大阪府,大阪市西淀川区,西島１丁目２番１３３号,,27,113,5550042,,,,,,,2025-12-11,1,,,,,ナカヤマコウギョウケンコウホケンクミアイ,0
243,1700150133362,新規,0,2025-12-11,2025-12-11,ＮＯＫ健康保険組合,,その他,東京都,港区,芝大門１丁目１２番１５号,,13,103,1050012,,,,,,,2025-12-11,1,,,,,エヌオーケーケンコウホケンクミアイ,0
244,1700150133370,新規,0,2025-12-11,2025-12-11,Ｃｌｅａｎｉｃ　Ｃｌｅａｎｉｎｇ　Ｅｑｕｉｐｍｅｎｔ　Ｌｉｍｉｔｅｄ,,外国会社等,,,,,,,,２３－３９　Ｐａｒ　Ｔｉｎ　Ｐａｒ　Ｓｔｒｅｅｔ，Ｒｍ１２０５，１２／ｆｌ，Ｃｈｅｕｎｇ　Ｆｕｎｇ　Ｉｎｄｕｓｔｒｉａｌ　Ｂｌｄｇ，Ｔｓｕｅｎ　Ｗａｎ　Ｎ．Ｔ．ＨＫ,,,,,,2025-12-11,1,,,,,ジエンリーチーンジエチイツァイヨウシエンゴンスー,0
255,2010001260796,新規,0,2025-12-11,2025-12-11,株式会社ＳＨＩＮ‐ＳＩ,,株式会社,東京都,中央区,銀座７丁目６－１２・６Ｆ,,13,102,1040061,,,,,,,2025-12-11,1,,,,,シンシ,0
256,2010001260846,新規,0,2025-12-11,2025-12-11,Ｚｅｆｆｏｒｔ株式会社,,株式会社,東京都,中央区,銀座１丁目１２番４号Ｎ＆Ｅ・ＢＬＤ．６Ｆ,,13,102,1040061,,,,,,,2025-12-11,1,,,,,ゼフォート,0
257,2010001260904,新規,0,2025-12-11,2025-12-11,ＡｂｙｓｓＥｄｇｅ株式会社,,株式会社,東京都,中央区,日本橋兜町１７番２号兜町第６葉山ビル４階,,13,102,1030026,,,,,,,2025-12-11,1,,,,,アビスエッジ,0
258,2010001260961,新規,0,2025-12-11,2025-12-11,株式会社Ｍ’ｓ１ｏｆ１,,株式会社,東京都,中央区,佃１丁目１１番８号ピアウエストスクエア１階,,13,102,1040051,,,,,,,2025-12-11,1,,,,,エムズワンオブワン,0
259,2010001261027,新規,0,2025-12-11,2025-12-11,株式会社山葉,,株式会社,東京都,千代田区,神田和泉町１番地６－１６ヤマトビル４０５,,13,101,1010024,,,,,,,2025-12-11,1,,,,,サンヨウ,0
260,2010001261084,新規,0,2025-12-11,2025-12-11,株式会社自然栄養研究所,,株式会社,東京都,中央区,日本橋浜町２丁目５７番７号,,13,102,1030007,,,,,,,2025-12-11,1,,,,,シゼンエイヨウケンキュウジョ,0
262,2010003049668,新規,0,2025-12-11,2025-12-11,ＫＡＭ合同会社,,合同会社,東京都,文京区,小石川４丁目９番１２号,,13,105,1120002,,,,,,,2025-12-11,1,,,,,ケーエーエム,0
263,2010003049692,新規,0,2025-12-11,2025-12-11,合同会社ＡＩＭ,,合同会社,東京都,中央区,銀座１丁目１２番４号,,13,102,1040061,,,,,,,2025-12-11,1,,,,,エイム,0
264,2010003049701,新規,0,2025-12-11,2025-12-11,合同会社レックス,,合同会社,東京都,中央区,日本橋１丁目４番１号,,13,102,1030027,,,,,,,2025-12-11,1,,,,,レックス,0
269,2010401194909,新規,0,2025-12-11,2025-12-11,ＪｅｄＡＩ　Ｎｅｘｕｓ株式会社,,株式会社,東京都,港区,六本木３丁目１６番１２号六本木ＫＳビル５階,,13,103,1060032,,,,,,,2025-12-11,1,,,,,ジェダイネクサス,0
270,2010401194966,新規,0,2025-12-11,2025-12-11,株式会社フォーエスストラテジー,,株式会社,東京都,港区,赤坂３丁目１－１ＢＩビル７階,,13,103,1070052,,,,,,,2025-12-11,1,,,,,フォーエスストラテジー,0
271,2010401195080,新規,0,2025-12-11,2025-12-11,ＡＬＴＥＮＥＲＧＹ　ＰＯＷＥＲ　ＳＹＳＴＥＭＳ　ＪＡＰＡＮ株式会社,,株式会社,東京都,港区,港南２丁目５番１０号ＰＭＯ品川３階,,13,103,1080075,,,,,,,2025-12-11,1,,,,,オルテンナジーパワーシステムズジャパン,0
272,2010401195147,新規,0,2025-12-11,2025-12-11,７２ｋ株式会社,,株式会社,東京都,港区,赤坂８丁目１２番２８号パレス赤坂５０２,,13,103,1070052,,,,,,,2025-12-11,1,,,,,セブンティーツーケー,0
274,2010403036720,新規,0,2025-12-11,2025-12-11,合同会社ＧａｔｅＰｏｉｎｔ,,合同会社,東京都,港区,赤坂２丁目１６－１３パークヒルズ赤坂６０１,,13,103,1070052,,,,,,,2025-12-11,1,,,,,ゲートポイント,0
275,2010403036794,新規,0,2025-12-11,2025-12-11,合同会社Ｇｉｖｅｒ‐Ｔｅｃｈ,,合同会社,東京都,港区,浜松町２丁目２番１５号浜松町ダイヤビル２Ｆ,,13,103,1050013,,,,,,,2025-12-11,1,,,,,ギバーテック,0
295,2011001173971,新規,0,2025-12-11,2025-12-11,ＳｏｒａＥｄｇｅ株式会社,,株式会社,東京都,渋谷区,富ヶ谷１丁目１４番１４号３階・４階,,13,113,1510063,,,,,,,2025-12-11,1,,,,,ソラエッジ,0
296,2011001174103,新規,0,2025-12-11,2025-12-11,株式会社Ｓａｌｅｓ　Ｃａｐｉｔａｌ,,株式会社,東京都,渋谷区,広尾１丁目１－５ブランシャール広尾２０１,,13,113,1500012,,,,,,,2025-12-11,1,,,,,セールスキャピタル,0
297,2011001174400,新規,0,2025-12-11,2025-12-11,株式会社ｃｏｃｏｒｏ　ｉｌ　ｃｕｏｒｅ,,株式会社,東京都,渋谷区,神山町１６番４号,,13,113,1500047,,,,,,,2025-12-11,1,,,,,ココロイルクオーレ,0
298,2011003023076,新規,0,2025-12-11,2025-12-11,Ｃｏｓｍｏ　Ｈｕｂ　ＤＡＯ合同会社,,合同会社,東京都,目黒区,中根２丁目１－１５サウスサイド都立大Ｂ１Ｆ,,13,110,1520031,,,,,,,2025-12-11,1,,,,,コスモハブダオ,0
303,2011101114124,新規,0,2025-12-11,2025-12-11,株式会社木火,,株式会社,東京都,新宿区,百人町１丁目１８－８大久保カドビルＬｉｎｋＳｐａｃｅ百人町,,13,104,1690073,,,,,,,2025-12-11,1,,,,,モクヒ,0
319,2012401043888,新規,0,2025-12-11,2025-12-11,株式会社Ｋ‐ＳＴＹＬＥ　ｍｕｓｉｃ,,株式会社,東京都,調布市,若葉町２丁目２５番地４２エルクレール若葉２０１,,13,208,1820003,,,,,,,2025-12-11,1,,,,,ケースタイルミュージック,0
330,2020001166084,新規,0,2025-12-11,2025-12-11,株式会社ＡＩＲ建設,,株式会社,神奈川県,横浜市旭区,白根５丁目１６－１,,14,112,2410005,,,,,,,2025-12-11,1,,,,,エイアイアールケンセツ,0
331,2020001166191,新規,0,2025-12-11,2025-12-11,株式会社ＭＯＮＯＬＩＴＨ,,株式会社,神奈川県,横浜市神奈川区,金港町５－１４クアドリフォリオ８階,,14,102,2210056,,,,,,,2025-12-11,1,,,,,モノリス,0
332,2020001166225,新規,0,2025-12-11,2025-12-11,株式会社嶺山工業,,株式会社,神奈川県,横浜市港北区,新羽町２８４番地リヴィエール・ボー２・２１０,,14,109,2230057,,,,,,,2025-12-11,1,,,,,ミネヤマコウギョウ,0
347,2030001170003,新規,0,2025-12-11,2025-12-11,株式会社ＹＧＭ,,株式会社,埼玉県,さいたま市大宮区,土手町１丁目２６５番地６,,11,103,3300801,,,,,,,2025-12-11,1,,,,,ワイジーエム,0
348,2030001170028,新規,0,2025-12-11,2025-12-11,ミライ建設株式会社,,株式会社,埼玉県,川越市,石原町１丁目３４番地４,,11,201,3500824,,,,,,,2025-12-11,1,,,,,ミライケンセツ,0
349,2030001170052,新規,0,2025-12-11,2025-12-11,株式会社レミラ,,株式会社,埼玉県,さいたま市西区,大字内野本郷６９３番地７７,,11,101,3310045,,,,,,,2025-12-11,1,,,,,レミラ,0
350,2030001170077,新規,0,2025-12-11,2025-12-11,株式会社ＡＪ　ＴＲＡＤＩＮＧ　ＪＡＰＡＮ,,株式会社,埼玉県,八潮市,緑町５丁目９番地５第２光陽ハイツ１０２,,11,234,3400808,,,,,,,2025-12-11,1,,,,,エイジェイトレーディングジャパン,0
360,2040001141647,新規,0,2025-12-11,2025-12-11,株式会社ＡＳＳＥＴＩＡ,,株式会社,千葉県,市川市,八幡２丁目９番１５号,,12,203,2720021,,,,,,,2025-12-11,1,,,,,アセティア,0
361,2040001141738,新規,0,2025-12-11,2025-12-11,株式会社新岡工業,,株式会社,千葉県,野田市,桜の里３丁目３３番地の９メゾンセレッソＩＩ２０２,00141838,12,208,2780048,,,,,,,2025-12-11,1,,,,,ニイオカコウギョウ,0
362,2040001141746,新規,0,2025-12-11,2025-12-11,株式会社ＹＭＤＡ,,株式会社,千葉県,千葉市緑区,おゆみ野中央７丁目２８番地４,,12,105,2660032,,,,,,,2025-12-11,1,,,,,ワイエムディーエー,0
363,2040003029122,新規,0,2025-12-11,2025-12-11,合同会社コントリブート,,合同会社,千葉県,千葉市中央区,宮崎町７３８番地２７,,12,101,2600805,,,,,,,2025-12-11,1,,,,,コントリブート,0
364,2040003029139,新規,0,2025-12-11,2025-12-11,ＳＭＴ現場サポート合同会社,,合同会社,千葉県,船橋市,旭町５丁目１８番１２号,,12,204,2730041,,,,,,,2025-12-11,1,,,,,エスエムティーゲンバサポート,0
391,2120001282656,新規,0,2025-12-11,2025-12-11,ＳＡＫＩＧＡＫＥホールディングス株式会社,,株式会社,大阪府,大阪市住吉区,万代４丁目１２－８,,27,120,5580055,,,,,,,2025-12-11,1,,,,,サキガケホールディングス,0
392,2120001282680,新規,0,2025-12-11,2025-12-11,默聲日本株式会社,,株式会社,大阪府,大阪市北区,天満２丁目１－１２天満橋ＳＥビル４階,,27,127,5300043,,,,,,,2025-12-11,1,,,,,モクセイニッポン,0
395,2120003031433,新規,0,2025-12-11,2025-12-11,合同会社けむり,,合同会社,大阪府,大阪市北区,梅田１丁目２番２号大阪駅前第２ビル１２－１２,,27,127,5300001,,,,,,,2025-12-11,1,,,,,ケムリ,0
402,2120901051961,新規,0,2025-12-11,2025-12-11,株式会社コンフォート,,株式会社,大阪府,高槻市,高槻町１１番７号２０３号,,27,207,5690803,,,,,,,2025-12-11,1,,,,,コンフォート,0
408,2122003003420,新規,0,2025-12-11,2025-12-11,合同会社みなくる,,合同会社,大阪府,大東市,北条１丁目１０－１４小南ハイツＢ棟１０５,,27,218,5740011,,,,,,,2025-12-11,1,,,,,ミナクル,0
418,2140001141034,新規,0,2025-12-11,2025-12-11,株式会社ＦＩＲＳＴ　ＳＴＥＰ,,株式会社,兵庫県,西宮市,東山台１丁目１５番地１番館１０１号,,28,204,6691133,,,,,,,2025-12-11,1,,,,,ファーストステップ,0
429,2180001169880,新規,0,2025-12-11,2025-12-11,株式会社ＳＧクリーン,,株式会社,愛知県,名古屋市千種区,今池３丁目３８番１号,,23,101,4640850,,,,,,,2025-12-11,1,,,,,エスジークリーン,0
430,2180001169906,新規,0,2025-12-11,2025-12-11,株式会社ＮＯＲＯＳＨＩ,,株式会社,愛知県,名古屋市中区,栄４丁目３番１９号パルテＹＭビル３階,,23,106,4600008,,,,,,,2025-12-11,1,,,,,ノロシ,0
435,2180003029455,新規,0,2025-12-11,2025-12-11,合同会社７’ｓ　Ｐｒｏｄｕｃｔｉｏｎ,,合同会社,愛知県,名古屋市中区,栄４丁目１２番５号和光ビル地下２階Ａ号室,,23,106,4600008,,,,,,,2025-12-11,1,,,,,,0
436,2180003029471,新規,0,2025-12-11,2025-12-11,合同会社那由多,,合同会社,愛知県,北名古屋市,鹿田３９３２－５,,23,234,4810004,,,,,,,2025-12-11,1,,,,,ナユタ,0
437,2180003029505,新規,0,2025-12-11,2025-12-11,Ｓｐｒｉｎｇｓ合同会社,,合同会社,愛知県,名古屋市中村区,名駅４丁目２４番５号第２森ビル４０１,,23,105,4500002,,,,,,,2025-12-11,1,,,,,スプリングス,0
438,2180005021328,新規,0,2025-12-11,2025-12-11,南知多造船工業協同組合,,その他の設立登記法人,愛知県,知多郡南知多町,大字豊浜字峠１６番地の１,,23,445,4703412,,,,,,,2025-12-11,1,,,,,ミナミチタゾウセンコウギョウ,0
441,2190003005298,新規,0,2025-12-11,2025-12-11,合同会社ＨＡＲＵ,,合同会社,三重県,伊勢市,村松町３９３０,,24,203,5150507,,,,,,,2025-12-11,1,,,,,ハル,0
445,2200001044511,新規,0,2025-12-11,2025-12-11,株式会社６６レンタカー,,株式会社,岐阜県,本巣郡北方町,芝原中町４丁目８番地,,21,421,5010422,,,,,,,2025-12-11,1,,,,,ロクロクレンタカー,0
454,2250001003685,新規,0,2025-12-11,2025-12-11,山口中央住宅株式会社,,株式会社,山口県,宇部市,大字東須恵２３６７番地の７,,35,202,7590206,,,,,,,2025-12-11,1,,,,,ヤマグチチュウオウジュウタク,0
466,2290001112490,新規,0,2025-12-11,2025-12-11,株式会社Ｋ．Ｆ．Ｈ,,株式会社,福岡県,福岡市博多区,千代２丁目２２番８－２０２号,,40,132,8120044,,,,,,,2025-12-11,1,,,,,ケーエフエイチ,0
471,2290005019897,新規,0,2025-12-11,2025-12-11,特定非営利活動法人コーシェリ,,その他の設立登記法人,福岡県,福岡市博多区,博多駅南３丁目１３番１７号小山ビル５０２号,,40,132,8120016,,,,,,,2025-12-11,1,,,,,コーシェリ,0
474,2290803005223,新規,0,2025-12-11,2025-12-11,合同会社くらし日和,,合同会社,福岡県,中間市,土手ノ内１丁目２５－２,,40,215,8090033,,,,,,,2025-12-11,1,,,,,クラシビヨリ,0
477,2340001027824,新規,0,2025-12-11,2025-12-11,株式会社クリエイティブコウカ,,株式会社,鹿児島県,霧島市,隼人町見次１３００番地２,,46,218,8995117,,,,,,,2025-12-11,1,,,,,クリエイティブコウカ,0
486,2360005007333,新規,0,2025-12-11,2025-12-11,一般社団法人宜野湾青年会議所,,その他の設立登記法人,沖縄県,宜野湾市,普天間２丁目１３番１１号２Ｆ,,47,205,9012202,,,,,,,2025-12-11,1,,,,,ギノワンセイネンカイギショ,0
488,2370003007409,新規,0,2025-12-11,2025-12-11,合同会社ＷＳ,,合同会社,宮城県,仙台市若林区,伊在１丁目１２番地の６ライオンズガーデン六丁の目中央４０４,,04,103,9840038,,,,,,,2025-12-11,1,,,,,ダブリューエス,0
492,2380003006194,新規,0,2025-12-11,2025-12-11,合同会社ネクストリア,,合同会社,福島県,南相馬市,原町区雫字上江７７番地の２,,07,212,9750042,,,,,,,2025-12-11,1,,,,,ネクストリア,0
493,2380005013040,新規,0,2025-12-11,2025-12-11,神野・古谷行政書士法人,,その他の設立登記法人,福島県,福島市,丸子字富塚３４番地の６,,07,201,9600111,,,,,,,2025-12-11,1,,,,,カミノフルヤ,0
502,2470001021013,新規,0,2025-12-11,2025-12-11,株式会社ダンク,,株式会社,香川県,高松市,由良町６５８番地３,,37,201,7610441,,,,,,,2025-12-11,1,,,,,ダンク,0
503,2470003003034,新規,0,2025-12-11,2025-12-11,合同会社ＴＡＲＲ,,合同会社,香川県,高松市,番町３丁目６番５号,,37,201,7600017,,,,,,,2025-12-11,1,,,,,ティーエーアールアール,0
506,2700150133337,新規,0,2025-12-11,2025-12-11,キッコーマン健康保険組合,,その他,千葉県,野田市,野田２５０番地,,12,208,2780037,,,,,,,2025-12-11,1,,,,,キッコーマンケンコウホケンクミアイ,0
507,2700150133345,新規,0,2025-12-11,2025-12-11,ＡＮＡウイングス健康保険組合,,その他,東京都,大田区,羽田空港３丁目３－２,,13,111,1440041,,,,,,,2025-12-11,1,,,,,エーエヌエーウイングスケンコウホケンクミアイ,0
508,2700150133353,新規,0,2025-12-11,2025-12-11,日本甜菜製糖健康保険組合,,その他,東京都,中央区,京橋２丁目６番４号,,13,102,1040031,,,,,,,2025-12-11,1,,,,,ニッポンテンサイセイトウケンコウホケンクミアイ,0
509,2700150133361,新規,0,2025-12-11,2025-12-11,ＴＯＹＯ　ＴＩＲＥ健康保険組合,,その他,兵庫県,伊丹市,藤ノ木２丁目２番１３号,,28,207,6640847,,,,,,,2025-12-11,1,,,,,トーヨータイヤケンコウホケンクミアイ,0
515,3010001260903,新規,0,2025-12-11,2025-12-11,Ｋａｎｊｉｎ　Ｔｈｅｒａｐｅｕｔｉｃｓ株式会社,,株式会社,東京都,中央区,日本橋本町３丁目７番２号,,13,102,1030023,,,,,,,2025-12-11,1,,,,,カンジンセラピューティクス,0
516,3010001260936,新規,0,2025-12-11,2025-12-11,株式会社ふくしま,,株式会社,東京都,中央区,湊２丁目２番８号ＣＫビル５階,,13,102,1040043,,,,,,,2025-12-11,1,,,,,フクシマ,0
517,3010001260977,新規,0,2025-12-11,2025-12-11,株式会社ゴロベル,,株式会社,東京都,千代田区,神田和泉町１番地６－１６ヤマトビル４０５,,13,101,1010024,,,,,,,2025-12-11,1,,,,,ゴロベル,0
520,3010003049618,新規,0,2025-12-11,2025-12-11,佐賀多久蓄電合同会社,,合同会社,東京都,千代田区,神田東松下町１８番地高正ビル５階,,13,101,1010042,,,,,,,2025-12-11,1,,,,,サガタクチクデン,0
521,3010003049626,新規,0,2025-12-11,2025-12-11,合同会社Ｈ　ｔｗｏ　Ｙ,,合同会社,東京都,千代田区,神田神保町３丁目１１番６号神保町ビル１０階,,13,101,1010051,,,,,,,2025-12-11,1,,,,,エイチツーワイ,0
522,3010003049642,新規,0,2025-12-11,2025-12-11,熊谷事務所合同会社,,合同会社,東京都,中央区,銀座１丁目１２番４号Ｎ＆ＥＢＬＤ．６Ｆ,,13,102,1040061,,,,,,,2025-12-11,1,,,,,クマガイジムショ,0
523,3010003049650,新規,0,2025-12-11,2025-12-11,合同会社Ｙｕｇｅｎマスターリース,,合同会社,東京都,中央区,銀座２丁目１０番８号マニエラ銀座ビル４階,,13,102,1040061,,,,,,,2025-12-11,1,,,,,ユウゲンマスターリース,0
524,3010003049667,新規,0,2025-12-11,2025-12-11,宮崎県串間市蓄電所合同会社,,合同会社,東京都,中央区,京橋２丁目２番１号,,13,102,1040031,,,,,,,2025-12-11,1,,,,,ミヤザキケンクシマシチクデンショ,0
526,3010005040995,新規,0,2025-12-11,2025-12-11,一般社団法人日本スチームコンベクションオーブン協会,,その他の設立登記法人,東京都,千代田区,神田神保町２丁目１０－３１・ＩＷビル１Ｆ,,13,101,1010051,,,,,,,2025-12-11,1,,,,,ニホンスチームコンベクションオーブンキョウカイ,0
527,3010005041060,新規,0,2025-12-11,2025-12-11,一般社団法人戸塚クロス,,その他の設立登記法人,東京都,中央区,銀座４丁目６番１号三幸アセットマネジメント株式会社内,,13,102,1040061,,,,,,,2025-12-11,1,,,,,トツカクロス,0
530,3010401194742,新規,0,2025-12-11,2025-12-11,株式会社ＣａｒｔｅｒａＩＮ,,株式会社,東京都,港区,麻布十番１丁目５－１０アトラスビル,,13,103,1060045,,,,,,,2025-12-11,1,,,,,カルテライン,0
531,3010401195088,新規,0,2025-12-11,2025-12-11,ＫＣＡＰＢＯ８株式会社,,株式会社,東京都,港区,南青山３丁目１０番４３号,,13,103,1070062,,,,,,,2025-12-11,1,,,,,ケーシーエーピービーオーエイト,0
532,3010401195146,新規,0,2025-12-11,2025-12-11,エムウインド株式会社,,株式会社,東京都,港区,芝５丁目３３番１１号,,13,103,1080014,,,,,,,2025-12-11,1,,,,,エムウインド,0
535,3010505003667,新規,0,2025-12-11,2025-12-11,一般社団法人南開日本校友総会,,その他の設立登記法人,東京都,台東区,根岸２丁目２１－５－１０３,,13,106,1100003,,,,,,,2025-12-11,1,,,,,ナンカイニホンコウユウソウカイ,0
539,3010603011943,新規,0,2025-12-11,2025-12-11,合同会社みらいど,,合同会社,東京都,江東区,三好２丁目４－３,,13,108,1350022,,,,,,,2025-12-11,1,,,,,ミライド,0
553,3010903010455,新規,0,2025-12-11,2025-12-11,ロックドイン合同会社,,合同会社,東京都,世田谷区,若林３丁目３－２－１０２,,13,112,1540023,,,,,,,2025-12-11,1,,,,,ロックドイン,0
564,3011001174069,新規,0,2025-12-11,2025-12-11,株式会社フェルメーヴ,,株式会社,東京都,渋谷区,代々木１丁目１２番２号,,13,113,1510053,,,,,,,2025-12-11,1,,,,,フェルメーヴ,0
565,3011001174102,新規,0,2025-12-11,2025-12-11,株式会社財務パレット,,株式会社,東京都,渋谷区,渋谷１丁目７－１渋谷Ｓ－６ビル３階,,13,113,1500002,,,,,,,2025-12-11,1,,,,,ザイムパレット,0
566,3011001174226,新規,0,2025-12-11,2025-12-11,株式会社ＭＯＮＫＹ　ＭＡＧＩＣ,,株式会社,東京都,渋谷区,渋谷３丁目１７番４号山口ビル新館４階,,13,113,1500002,,,,,,,2025-12-11,1,,,,,モンキーマジック,0
568,3011003023026,新規,0,2025-12-11,2025-12-11,合同会社オートファジー,,合同会社,東京都,渋谷区,千駄ヶ谷３丁目２７－９－２０２,,13,113,1510051,,,,,,,2025-12-11,1,,,,,オートファジー,0
584,3011801047176,新規,0,2025-12-11,2025-12-11,都市水工テクノロジーズ株式会社,,株式会社,東京都,足立区,六町４丁目７番３７号,,13,121,1210073,,,,,,,2025-12-11,1,,,,,トシスイコウテクノロジーズ,0
588,3012401043912,新規,0,2025-12-11,2025-12-11,株式会社コルダータ,,株式会社,東京都,武蔵野市,吉祥寺北町２丁目１９番９号,,13,203,1800001,,,,,,,2025-12-11,1,,,,,コルダータ,0
589,3012405005198,新規,0,2025-12-11,2025-12-11,一般社団法人Ｔｒｉｂｅ　Ｊａｐａｎ,,その他の設立登記法人,東京都,多摩市,中沢２丁目３番地１ライオンズマンション多摩センター３０２号,,13,224,2060036,,,,,,,2025-12-11,1,,,,,トライブジャパン,0
591,3012803003943,新規,0,2025-12-11,2025-12-11,合同会社ＣＲＡＷＬ　ＵＰ,,合同会社,東京都,立川市,柴崎町３丁目４番４号,,13,202,1900023,,,,,,,2025-12-11,1,,,,,クロールアップ,0
599,3013305003804,新規,0,2025-12-11,2025-12-11,一般社団法人ごみゼロアクション協会,,その他の設立登記法人,東京都,豊島区,西池袋５丁目１３－１８,,13,116,1710021,,,,,,,2025-12-11,1,,,,,ゴミゼロアクションキョウカイ,0
611,3020001166216,新規,0,2025-12-11,2025-12-11,株式会社ＬＵＭＩＮＡ,,株式会社,神奈川県,横浜市西区,桜木町５丁目２６番地１２セルアージュ横濱桜木町ラフィネ６０１,,14,103,2200021,,,,,,,2025-12-11,1,,,,,ルミナ,0
612,3020001166249,新規,0,2025-12-11,2025-12-11,株式会社縁ホールディングス,,株式会社,神奈川県,川崎市多摩区,中野島４丁目２４番２－１２号,,14,135,2140012,,,,,,,2025-12-11,1,,,,,エニシホールディングス,0
619,3020003029908,新規,0,2025-12-11,2025-12-11,合同会社ｉｎｃｌｕｓｉｏｎ,,合同会社,神奈川県,横浜市神奈川区,片倉１丁目２番２０－５０６号,,14,102,2210865,,,,,,,2025-12-11,1,,,,,インクルージョン,0
621,3021001086924,新規,0,2025-12-11,2025-12-11,株式会社オネストリフォーム,,株式会社,神奈川県,三浦市,南下浦町上宮田１４９０番地１ウエリス三浦海岸２１２号,,14,210,2380101,,,,,,,2025-12-11,1,,,,,オネストリフォーム,0
622,3021001086965,新規,0,2025-12-11,2025-12-11,株式会社ＲＥＲＡＩＳＥ,,株式会社,神奈川県,厚木市,中町４丁目１４番１号サクセス本厚木ビル５Ｆ,,14,212,2430018,,,,,,,2025-12-11,1,,,,,リレイズ,0
625,3030001169936,新規,0,2025-12-11,2025-12-11,株式会社ＨＯＵＷＡ,,株式会社,埼玉県,川口市,大字安行７５番地の９,,11,203,3340059,,,,,,,2025-12-11,1,,,,,,0
626,3030001170043,新規,0,2025-12-11,2025-12-11,東洋株式会社,,株式会社,埼玉県,入間郡毛呂山町,中央４丁目１１番地１,,11,326,3500461,,,,,,,2025-12-11,1,,,,,トウヨウ,0
627,3030001170051,新規,0,2025-12-11,2025-12-11,株式会社ホープ,,株式会社,埼玉県,上尾市,原市中３丁目１２番地３,,11,219,3620023,,,,,,,2025-12-11,1,,,,,ホープ,0
628,3030001170076,新規,0,2025-12-11,2025-12-11,株式会社Ｍ＆Ａ,,株式会社,埼玉県,さいたま市大宮区,大成町２丁目３７６番地ルートマンション５０３,,11,103,3300852,,,,,,,2025-12-11,1,,,,,エムアンドエー,0
629,3030001170084,新規,0,2025-12-11,2025-12-11,ビーネクスト株式会社,,株式会社,埼玉県,北葛飾郡杉戸町,大字深輪１９３番地８,,11,464,3450012,,,,,,,2025-12-11,1,,,,,ビーネクスト,0
633,3030003028231,新規,0,2025-12-11,2025-12-11,合同会社ＭＹＯＵＧＡＮ,,合同会社,埼玉県,さいたま市大宮区,仲町１丁目６６－２ドミノ杉浦ビル４階,,11,103,3300845,,,,,,,2025-12-11,1,,,,,ミョウガン,0
642,3040001141563,新規,0,2025-12-11,2025-12-11,株式会社我孫子・柏相続相談センター,,株式会社,千葉県,我孫子市,天王台２丁目１０番７－３０４号,,12,222,2701143,,,,,,,2025-12-11,1,,,,,アビコカシワソウゾクソウダンセンター,0
643,3040001141737,新規,0,2025-12-11,2025-12-11,阿部歯科金属株式会社,,株式会社,千葉県,松戸市,新松戸６丁目３５番地の２,,12,207,2700034,,,,,,,2025-12-11,1,,,,,アベシカキンゾク,0
648,3060001038840,新規,0,2025-12-11,2025-12-11,株式会社エーエムクリエイト,,株式会社,栃木県,宇都宮市,錦２丁目１０番８号プレステージ宇都宮２０８号室,,09,201,3210967,,,,,,,2025-12-11,1,,,,,エーエムクリエイト,0
649,3060001038849,新規,0,2025-12-11,2025-12-11,株式会社苺色,,株式会社,栃木県,鹿沼市,千渡８７６番地３,,09,205,3220002,,,,,,,2025-12-11,1,,,,,イチゴイロ,0
668,3120001282424,新規,0,2025-12-11,2025-12-11,株式会社プリメーラカーサ,,株式会社,大阪府,大阪市北区,豊崎４丁目１０－４－１階,,27,127,5310072,,,,,,,2025-12-11,1,,,,,プリメーラカーサ,0
669,3120001282639,新規,0,2025-12-11,2025-12-11,株式会社鴻億豪,,株式会社,大阪府,大阪市西区,北堀江２丁目３－１０－６階,,27,106,5500014,,,,,,,2025-12-11,1,,,,,コウオクゴウ,0
679,3120903005997,新規,0,2025-12-11,2025-12-11,合同会社かのう,,合同会社,大阪府,茨木市,彩都あさぎ２丁目８－３０ア・デイ彩都１３０５号,,27,211,5670085,,,,,,,2025-12-11,1,,,,,カノウ,0
685,3130001081180,新規,0,2025-12-11,2025-12-11,株式会社ＣＨＥマネジメント,,株式会社,京都府,京都市下京区,西七条市部町７０番地,,26,106,6008894,,,,,,,2025-12-11,1,,,,,シーエイチイーマネジメント,0
686,3130003010988,新規,0,2025-12-11,2025-12-11,合同会社Ｃ‐ＣＡＴＳ,,合同会社,京都府,京都市北区,衣笠東開キ町５番地１ヴィラ衣笠３０４,,26,101,6038453,,,,,,,2025-12-11,1,,,,,シーキャッツ,0
687,3130003011004,新規,0,2025-12-11,2025-12-11,合同会社Ｅｎｄ　Ｆｅｅｌ,,合同会社,京都府,京都市北区,大宮釈迦谷１０番地２８９号,,26,101,6038478,,,,,,,2025-12-11,1,,,,,エンドフィール,0
688,3130005017536,新規,0,2025-12-11,2025-12-11,特定非営利活動法人まるばひいらぎ,,その他の設立登記法人,京都府,京都市左京区,一乗寺松田町１３１番地２,,26,103,6068124,,,,,,,2025-12-11,1,,,,,マルバヒイラギ,0
696,3140001141000,新規,0,2025-12-11,2025-12-11,株式会社ＳＫＹ　ＰＥＡＣＥ,,株式会社,兵庫県,神戸市北区,京地３丁目１６番地の１０,,28,109,6511304,,,,,,,2025-12-11,1,,,,,スカイピース,0
697,3140001141058,新規,0,2025-12-11,2025-12-11,庄司設備株式会社,,株式会社,兵庫県,明石市,大久保町高丘５丁目３番地の１－４３棟１０５号,,28,203,6740057,,,,,,,2025-12-11,1,,,,,ショウジセツビ,0
698,3140001141066,新規,0,2025-12-11,2025-12-11,株式会社Ｕｒｅｓｉｅ,,株式会社,兵庫県,神戸市兵庫区,大開通２丁目３番１０号,,28,105,6520803,,,,,,,2025-12-11,1,,,,,ウレシエ,0
699,3140001141082,新規,0,2025-12-11,2025-12-11,株式会社ブライトリンク,,株式会社,兵庫県,神戸市中央区,磯辺通１丁目１番１８号カサベラ国際プラザビル７０７号室,,28,110,6510084,,,,,,,2025-12-11,1,,,,,ブライトリンク,0
700,3140001141090,新規,0,2025-12-11,2025-12-11,株式会社Ｓａｒｔｏ,,株式会社,兵庫県,宝塚市,武庫川町６番２６－２１０１号,,28,214,6650844,,,,,,,2025-12-11,1,,,,,サルト,0
702,3140003022958,新規,0,2025-12-11,2025-12-11,合同会社ＶＩＴＡＬＩＳ,,合同会社,兵庫県,神戸市東灘区,住吉台２番１２－８１３号,,28,101,6580062,,,,,,,2025-12-11,1,,,,,ヴィリタス,0
704,3150001028584,新規,0,2025-12-11,2025-12-11,株式会社宗電,,株式会社,奈良県,天理市,杉本町２９５番地１プレミールＩＡ号,,29,204,6320078,,,,,,,2025-12-11,1,,,,,ムネデン,0
707,3170003002346,新規,0,2025-12-11,2025-12-11,合同会社ＣｒｏｓｓＬｉｎｋ,,合同会社,和歌山県,岩出市,根来１３５９番地,,30,209,6496202,,,,,,,2025-12-11,1,,,,,クロスリンク,0
714,3180001169616,新規,0,2025-12-11,2025-12-11,株式会社ジェネサポ,,株式会社,愛知県,名古屋市西区,笠取町１丁目１２番地フェリカメゾン笠取２０１号,,23,104,4510072,,,,,,,2025-12-11,1,,,,,ジェネサポ,0
717,3180003029462,新規,0,2025-12-11,2025-12-11,合同会社Ｎ．Ｈ．ＴＲＡＤＩＮＧ,,合同会社,愛知県,春日井市,神屋町１６６２番地１,,23,206,4800304,,,,,,,2025-12-11,1,,,,,エヌエッチトレーディング,0
736,3260003005439,新規,0,2025-12-11,2025-12-11,合同会社ＳＥＮＫＡ,,合同会社,岡山県,総社市,黒尾４８６番地,,33,208,7191105,,,,,,,2025-12-11,1,,,,,センカ,0
737,3260003005447,新規,0,2025-12-11,2025-12-11,合同会社リライズ,,合同会社,岡山県,倉敷市,藤戸町天城２４０１番地２２,,33,202,7100132,,,,,,,2025-12-11,1,,,,,リライズ,0
738,3280003002013,新規,0,2025-12-11,2025-12-11,合同会社オルセル,,合同会社,島根県,出雲市,小山町３３０番地５,,32,203,6930051,,,,,,,2025-12-11,1,,,,,オルセル,0
747,3290001112432,新規,0,2025-12-11,2025-12-11,株式会社ＬｅＣｈｉｅｎ,,株式会社,福岡県,福岡市博多区,美野島３丁目１４番１９号しず花３Ｆ,,40,132,8120017,,,,,,,2025-12-11,1,,,,,ルシアン,0
752,3290003017811,新規,0,2025-12-11,2025-12-11,合同会社福縁フードビジネス,,合同会社,福岡県,糟屋郡篠栗町,尾仲１丁目１４番２６号,,40,342,8112413,,,,,,,2025-12-11,1,,,,,フクエンフードビジネス,0
753,3290003017836,新規,0,2025-12-11,2025-12-11,合同会社響己舎Ｌａｂｏ,,合同会社,福岡県,大牟田市,萩尾町２丁目２４７－３,,40,202,8360096,,,,,,,2025-12-11,1,,,,,ヒビキシャラボ,0
755,3290803005222,新規,0,2025-12-11,2025-12-11,合同会社ＮＳＯ,,合同会社,福岡県,北九州市小倉北区,上到津２丁目１番８－１３０２号,,40,106,8030845,,,,,,,2025-12-11,1,,,,,エヌエスオー,0
762,3330003011347,新規,0,2025-12-11,2025-12-11,ラ・ヴェラ合同会社,,合同会社,熊本県,菊池郡大津町,大字引水９４５番地２趨勢ビル,,43,403,8691234,,,,,,,2025-12-11,1,,,,,ラヴェラ,0
766,3340005009925,新規,0,2025-12-11,2025-12-11,一般社団法人さつま町創生ＧＤＸセンター,,その他の設立登記法人,鹿児島県,薩摩郡さつま町,宮之城屋地１５６５番地２,,46,392,8951803,,,,,,,2025-12-11,1,,,,,サツマチョウソウセイジィディエックスセンター,0
769,3360001036120,新規,0,2025-12-11,2025-12-11,株式会社ニューリッチ,,株式会社,沖縄県,那覇市,久茂地３丁目２６－３２ＹＳＣビル２０２,,47,201,9000015,,,,,,,2025-12-11,1,,,,,ニューリッチ,0
772,3380001035731,新規,0,2025-12-11,2025-12-11,株式会社Ｓｅｐｔ,,株式会社,福島県,福島市,飯坂町平野字田下２６番地の２３チェリーガーデンＩＩＩ２０２号室,00141837,07,201,9600231,,,,,,,2025-12-11,1,,,,,セプト,0
773,3410005006667,新規,0,2025-12-11,2025-12-11,一般社団法人湯横圏域会,,その他の設立登記法人,秋田県,湯沢市,小野字大沢田２２１番地,,05,207,0190205,,,,,,,2025-12-11,1,,,,,トウオウケンイキカイ,0
787,3500001026668,新規,0,2025-12-11,2025-12-11,株式会社サクラプラス,,株式会社,愛媛県,新居浜市,黒島１丁目１番２７号,,38,205,7920892,,,,,,,2025-12-11,1,,,,,サクラプラス,0
788,3700150133336,新規,0,2025-12-11,2025-12-11,ニチバン健康保険組合,,その他,東京都,千代田区,麹町５丁目１番地,,13,101,1020083,,,,,,,2025-12-11,1,,,,,ニチバンケンコウホケンクミアイ,0
789,3700150133344,新規,0,2025-12-11,2025-12-11,パーソルキャリア健康保険組合,,その他,東京都,港区,南青山１丁目１５－５　パーソル南青山ビル,,13,103,1070062,,,,,,,2025-12-11,1,,,,,パーソルキャリアケンコウホケンクミアイ,0
790,3700150133352,新規,0,2025-12-11,2025-12-11,グンゼ健康保険組合,,その他,京都府,綾部市,青野町膳所１番地,,26,203,6230011,,,,,,,2025-12-11,1,,,,,グンゼケンコウホケンクミアイ,0
791,3700150133360,新規,0,2025-12-11,2025-12-11,日本重化学工業健康保険組合,,その他,富山県,高岡市,吉久１丁目１番１４５号,,16,202,9330002,,,,,,,2025-12-11,1,,,,,ニホンジュウカガクコウギョウケンコウホケンクミアイ,0
792,3700150133369,新規,0,2025-12-11,2025-12-11,ロートグループ健康保険組合,,その他,大阪府,大阪市生野区,巽西１丁目８－１,,27,116,5440012,,,,,,,2025-12-11,1,,,,,ロートグループケンコウホケンクミアイ,0
804,4010001260910,新規,0,2025-12-11,2025-12-11,株式会社立華,,株式会社,東京都,中央区,銀座４丁目１２－１ＶＯＲＴ銀座イーストＩＩ・７Ｆ,00141846,13,102,1040061,,,,,,,2025-12-11,1,,,,,,0
805,4010001260919,新規,0,2025-12-11,2025-12-11,長美株式会社,,株式会社,東京都,中央区,東日本橋３丁目６番１８号ハニー堀留ビル２Ｆ,,13,102,1030004,,,,,,,2025-12-11,1,,,,,ナガビ,0
806,4010001260968,新規,0,2025-12-11,2025-12-11,株式会社メディスカイ,,株式会社,東京都,中央区,銀座１丁目１２番４号Ｎ＆Ｅ・ＢＬＤ．６階,,13,102,1040061,,,,,,,2025-12-11,1,,,,,メディスカイ,0
807,4010001261000,新規,0,2025-12-11,2025-12-11,株式会社ＭＳｃｕｂｅ,,株式会社,東京都,千代田区,神田須田町１丁目７－８ＶＯＲＴ秋葉原ＩＶ２Ｆ,00141848,13,101,1010041,,,,,,,2025-12-11,1,,,,,エムエスキューブ,0
810,4010003049617,新規,0,2025-12-11,2025-12-11,合同会社シグナコ,,合同会社,東京都,中央区,晴海３丁目６番８－２００６号,,13,102,1040053,,,,,,,2025-12-11,1,,,,,シグナコ,0
811,4010003049625,新規,0,2025-12-11,2025-12-11,合同会社グローバル経済研究所,,合同会社,東京都,千代田区,神田和泉町１番地６－１６ヤマトビル４０５,,13,101,1010024,,,,,,,2025-12-11,1,,,,,,0
812,4010003049633,新規,0,2025-12-11,2025-12-11,リベラティア合同会社,,合同会社,東京都,中央区,銀座１丁目２２番１１号銀座大竹ビジデンス２Ｆ,,13,102,1040061,,,,,,,2025-12-11,1,,,,,リベラティア,0
813,4010003049674,新規,0,2025-12-11,2025-12-11,合同会社Ｒ‐ＢＦ１号,,合同会社,東京都,中央区,日本橋１丁目４番１号日本橋一丁目ビルディング,,13,102,1030027,,,,,,,2025-12-11,1,,,,,アールビーエフイチゴウ,0
814,4010003049682,新規,0,2025-12-11,2025-12-11,ダントー・アルプス系統用蓄電所Ｆ合同会社,,合同会社,東京都,中央区,銀座１丁目８番１６号３階,,13,102,1040061,,,,,,,2025-12-11,1,,,,,ダントーアルプスケイトウヨウチクデンショエフ,0
815,4010003049708,新規,0,2025-12-11,2025-12-11,Ｎｓｃａｌｅ　Ｓｅｒｖｉｃｅｓ　Ｊａｐａｎ合同会社,,合同会社,東京都,中央区,日本橋３丁目９番１号日本橋三丁目スクエア１１階,,13,102,1030027,,,,,,,2025-12-11,1,,,,,エヌエスケールサービシズジャパン,0
829,4010401194931,新規,0,2025-12-11,2025-12-11,株式会社ＪＬパートナーズ,,株式会社,東京都,港区,南青山７丁目１０番３号,,13,103,1070062,,,,,,,2025-12-11,1,,,,,ジェイエルパートナーズ,0
830,4010401194948,新規,0,2025-12-11,2025-12-11,株式会社マイクロギャラリー,,株式会社,東京都,港区,新橋５丁目７－２市村ビル６Ｆ,,13,103,1050004,,,,,,,2025-12-11,1,,,,,マイクロギャラリー,0
831,4010401195087,新規,0,2025-12-11,2025-12-11,Ｒ．ｔｅｃｈ株式会社,,株式会社,東京都,港区,港南２丁目１６番１号品川イーストワンタワー４階,,13,103,1080075,,,,,,,2025-12-11,1,,,,,アールテック,0
832,4010401195095,新規,0,2025-12-11,2025-12-11,株式会社デュオプルメリア,,株式会社,東京都,港区,南青山３丁目１番３６号青山丸竹ビル６Ｆ,,13,103,1070062,,,,,,,2025-12-11,1,,,,,デュオプルメリア,0
833,4010401195104,新規,0,2025-12-11,2025-12-11,Ｍｕｔａｒｅｓ　Ｊａｐａｎ株式会社,,株式会社,東京都,港区,六本木３丁目６番９号小見山公認会計士事務所内,,13,103,1060032,,,,,,,2025-12-11,1,,,,,ムタレスジャパン,0
834,4010401195137,新規,0,2025-12-11,2025-12-11,エブリＬａｂｏ株式会社,,株式会社,東京都,港区,虎ノ門１丁目１６番１６号,,13,103,1050001,,,,,,,2025-12-11,1,,,,,エブリラボ,0
836,4010403036727,新規,0,2025-12-11,2025-12-11,合同会社ケーエイチエス,,合同会社,東京都,港区,浜松町２丁目２－１５浜松町ダイヤビル２Ｆ,,13,103,1050013,,,,,,,2025-12-11,1,,,,,ケーエイチエス,0
841,4010601068398,新規,0,2025-12-11,2025-12-11,Ｓ‐ＺＡＱサプライ株式会社,,株式会社,東京都,墨田区,文花３丁目１８番１５－２１２号,,13,107,1310044,,,,,,,2025-12-11,1,,,,,エスザックサプライ,0
859,4011001174183,新規,0,2025-12-11,2025-12-11,株式会社Ｍｉｒｏ　Ｒｅｖｅ,,株式会社,東京都,渋谷区,円山町５番３号ＭＩＥＵＸ渋谷ビル８階,,13,113,1500044,,,,,,,2025-12-11,1,,,,,ミロレーヴ,0
860,4011001174357,新規,0,2025-12-11,2025-12-11,株式会社ｐｕｒｃｈａｓｅ,,株式会社,東京都,目黒区,下目黒３丁目２番１－２０１号ザ・パークハビオ目黒,,13,110,1530064,,,,,,,2025-12-11,1,,,,,パーチェス,0
864,4011005011283,新規,0,2025-12-11,2025-12-11,一般社団法人日本フードトラック推進協議会,,その他の設立登記法人,東京都,目黒区,上目黒２丁目４３－１８,,13,110,1530051,,,,,,,2025-12-11,1,,,,,,0
865,4011101114213,新規,0,2025-12-11,2025-12-11,株式会社ＲＥＳＴ,,株式会社,東京都,新宿区,歌舞伎町１丁目３番１５号,,13,104,1600021,,,,,,,2025-12-11,1,,,,,レスト,0
866,4011103016820,新規,0,2025-12-11,2025-12-11,ＡＲＴＩＣＡ合同会社,,合同会社,東京都,新宿区,西新宿３丁目３番１３号西新宿水間ビル２Ｆ,,13,104,1600023,,,,,,,2025-12-11,1,,,,,アルティカ,0
873,4011503006801,新規,0,2025-12-11,2025-12-11,合同会社渡辺創建,,合同会社,東京都,荒川区,西尾久８丁目１６番８号コリビングハウスＲ荒川遊園地前２０１,,13,118,1160011,,,,,,,2025-12-11,1,,,,,ワタナベソウケン,0
902,4020001166248,新規,0,2025-12-11,2025-12-11,株式会社テリオス,,株式会社,神奈川県,川崎市高津区,北見方２丁目２７番１３号プリムローズ２０１,,14,134,2130005,,,,,,,2025-12-11,1,,,,,テリオス,0
906,4020005017075,新規,0,2025-12-11,2025-12-11,医療法人ＲＥＧ,,その他の設立登記法人,神奈川県,川崎市川崎区,砂子２丁目６番地２三恵ビル８階,,14,131,2100006,,,,,,,2025-12-11,1,,,,,アールイージー,0
907,4021001086972,新規,0,2025-12-11,2025-12-11,株式会社Ｋａｕｎｉｓ　ｋｏｔｉ,,株式会社,神奈川県,茅ヶ崎市,本村１丁目８番２６号,,14,207,2530042,,,,,,,2025-12-11,1,,,,,カウニスコティ,0
908,4021001086997,新規,0,2025-12-11,2025-12-11,株式会社高橋防水工業,,株式会社,神奈川県,秦野市,戸川８３７番地の５,,14,211,2591306,,,,,,,2025-12-11,1,,,,,タカハシボウスイコウギョウ,0
909,4021001087005,新規,0,2025-12-11,2025-12-11,株式会社小澤工業,,株式会社,神奈川県,大和市,南林間６丁目１８番１５号,,14,213,2420006,,,,,,,2025-12-11,1,,,,,オザワコウギョウ,0
913,4021003016853,新規,0,2025-12-11,2025-12-11,合同会社ＢＵＫＨＡＲＩ　ＣＯＲＰＯＲＡＴＩＯＮ,,合同会社,神奈川県,鎌倉市,玉縄５丁目３番地４５,,14,204,2470071,,,,,,,2025-12-11,1,,,,,,0
917,4030001170050,新規,0,2025-12-11,2025-12-11,株式会社ＫＡＩＲＯＳ,,株式会社,埼玉県,川口市,大字道合５２－１４,,11,203,3330835,,,,,,,2025-12-11,1,,,,,カイロス,0
918,4030001170059,新規,0,2025-12-11,2025-12-11,株式会社Ｓ　ａｎｄ,,株式会社,埼玉県,草加市,谷塚仲町４０４－７,,11,221,3400025,,,,,,,2025-12-11,1,,,,,サンド,0
920,4030003028206,新規,0,2025-12-11,2025-12-11,合同会社プロセレクト,,合同会社,埼玉県,上尾市,愛宕１丁目６番２１－１０２号,,11,219,3620034,,,,,,,2025-12-11,1,,,,,プロセレクト,0
921,4030003028230,新規,0,2025-12-11,2025-12-11,合同会社ＩＧＮＩＳ,,合同会社,埼玉県,さいたま市西区,大字佐知川１７４番地１３,,11,101,3310064,,,,,,,2025-12-11,1,,,,,イグニス,0
922,4030003028239,新規,0,2025-12-11,2025-12-11,和泉合同会社,,合同会社,埼玉県,吉川市,中央３丁目４９－１０,,11,243,3420061,,,,,,,2025-12-11,1,,,,,ワイズミ,0
923,4030005022363,新規,0,2025-12-11,2025-12-11,医療法人社団会心会,,その他の設立登記法人,埼玉県,八潮市,大瀬３丁目５番地５,,11,234,3400822,,,,,,,2025-12-11,1,,,,,カイシンカイ,0
931,4040001141744,新規,0,2025-12-11,2025-12-11,株式会社ワンダースタイル,,株式会社,千葉県,船橋市,古作３丁目１３－５－４０３,,12,204,2730037,,,,,,,2025-12-11,1,,,,,ワンダースタイル,0
934,4040003029079,新規,0,2025-12-11,2025-12-11,ＮＯＶＡ合同会社,,合同会社,千葉県,船橋市,三山９丁目３２番６号,,12,204,2740072,,,,,,,2025-12-11,1,,,,,ノヴァ,0
935,4040003029129,新規,0,2025-12-11,2025-12-11,合同会社Ｗ・Ｍ・Ｉ,,合同会社,千葉県,白井市,復１５１０番地の１０,,12,232,2701422,,,,,,,2025-12-11,1,,,,,ダブリューエムアイ,0
961,4120001282613,新規,0,2025-12-11,2025-12-11,株式会社ＢＥＳＴＷＩＮ,,株式会社,大阪府,大阪市西区,北堀江１丁目６－５大輪ビル２階Ｄ号室,,27,106,5500014,,,,,,,2025-12-11,1,,,,,ベストウイン,0
962,4120001282638,新規,0,2025-12-11,2025-12-11,宇鵬株式会社,,株式会社,大阪府,大阪市中央区,島之内２丁目６－６－１０１ウーロ島之内,,27,128,5420082,,,,,,,2025-12-11,1,,,,,ウホウ,0
963,4120001282654,新規,0,2025-12-11,2025-12-11,株式会社吉田工業,00141847,株式会社,大阪府,大阪市平野区,長吉出戸６丁目３番２２号,,27,126,5470011,,,,,,,2025-12-11,1,,,,,ヨシダコウギョウ,0
964,4120001282670,新規,0,2025-12-11,2025-12-11,株式会社ＮａＨｉｒａ,,株式会社,大阪府,大阪市天王寺区,下味原町２－４,,27,109,5430025,,,,,,,2025-12-11,1,,,,,ナヒラ,0
965,4120001282695,新規,0,2025-12-11,2025-12-11,株式会社ＺｅｒｏＯｎｅ,,株式会社,大阪府,大阪市北区,浮田１丁目２番１０号,,27,127,5300021,,,,,,,2025-12-11,1,,,,,ゼロワン,0
968,4120003031431,新規,0,2025-12-11,2025-12-11,合同会社啓,,合同会社,大阪府,大阪市東住吉区,東田辺２丁目４番１号２０４号,,27,121,5460032,,,,,,,2025-12-11,1,,,,,ケイ,0
973,4122001039992,新規,0,2025-12-11,2025-12-11,株式会社Ｋ＆Ｅ,,株式会社,大阪府,八尾市,二俣１丁目１３番地,,27,212,5810024,,,,,,,2025-12-11,1,,,,,ケイアンドイー,0
981,4130001081205,新規,0,2025-12-11,2025-12-11,おしゃれ泥棒株式会社,,株式会社,京都府,宇治市,小倉町東山５番地の９,,26,204,6110042,,,,,,,2025-12-11,1,,,,,オシャレドロボウ,0
988,4140001141073,新規,0,2025-12-11,2025-12-11,株式会社山甲コーポレーション,,株式会社,兵庫県,西宮市,甲風園１丁目５番１６号甲風ビル１０２,,28,204,6620832,,,,,,,2025-12-11,1,,,,,サンコウコーポレーション,0
989,4140003022949,新規,0,2025-12-11,2025-12-11,合同会社ｃｏｍｍｕｎｉｃａｔｉｏｎ　ｗａｖｅ,,合同会社,兵庫県,神戸市兵庫区,石井町７丁目１番７号,,28,105,6520061,,,,,,,2025-12-11,1,,,,,コミュニケーションウエイブ,0
998,4160003003674,新規,0,2025-12-11,2025-12-11,合同会社湖都かまど,,合同会社,滋賀県,大津市,下阪本４丁目８番１１号,,25,201,5200105,,,,,,,2025-12-11,1,,,,,コトカマド,0
999,4180001169540,新規,0,2025-12-11,2025-12-11,株式会社Ｃｏｎｎｅｃｔ　ｙｕ,,株式会社,愛知県,名古屋市中村区,靖国町１丁目８８番地,,23,105,4530065,,,,,,,2025-12-11,1,,,,,コネクトユー,0
1000,4180001169862,新規,0,2025-12-11,2025-12-11,株式会社Ｕ‐ｐｌｕｓ,,株式会社,愛知県,名古屋市西区,名駅２丁目３４番１７号セントラル名古屋１１０１号,,23,104,4510045,,,,,,,2025-12-11,1,,,,,ユープラス,0
1001,4180301040483,新規,0,2025-12-11,2025-12-11,近藤織布株式会社,,株式会社,愛知県,西尾市,善明町下深５８番地,,23,213,4450034,,,,,,,2025-12-11,1,,,,,,0
1002,4180303006838,新規,0,2025-12-11,2025-12-11,合同会社ＨＬＴパートナーズ,,合同会社,愛知県,刈谷市,野田町吹戸１９番地１０,,23,210,4480803,,,,,,,2025-12-11,1,,,,,エイチエルティーパートナーズ,0
1009,4220003004187,新規,0,2025-12-11,2025-12-11,レイ合同会社,,合同会社,石川県,金沢市,堀川新町５番１号アリマビル３Ｆ金沢Ｒｉｓｅ,,17,201,9200849,,,,,,,2025-12-11,1,,,,,レイ,0
1010,4230003002553,新規,0,2025-12-11,2025-12-11,合同会社共育,,合同会社,富山県,小矢部市,名畑５２番地１１,,16,209,9320131,,,,,,,2025-12-11,1,,,,,キョウイク,0
1013,4240003007519,新規,0,2025-12-11,2025-12-11,ありものリンク合同会社,,合同会社,広島県,広島市南区,段原２丁目１７番９号デュオヒルズ比治山レジデンス１７０３号室,,34,103,7320811,,,,,,,2025-12-11,1,,,,,アリモノリンク,0
1025,4290001112514,新規,0,2025-12-11,2025-12-11,株式会社レゾナント,,株式会社,福岡県,福岡市中央区,唐人町１丁目１０番１－９０４号,,40,133,8100063,,,,,,,2025-12-11,1,,,,,レゾナント,0
1027,4290801032093,新規,0,2025-12-11,2025-12-11,株式会社わかまつみらい,,株式会社,福岡県,北九州市若松区,波打町７－１６－２０１,,40,103,8080013,,,,,,,2025-12-11,1,,,,,ワカマツミライ,0
1036,4330001033821,新規,0,2025-12-11,2025-12-11,株式会社ＮＩＣＯＲＩ　ＢＲＩＧＨＴ,,株式会社,熊本県,熊本市中央区,上通町１０－５,,43,101,8600845,,,,,,,2025-12-11,1,,,,,ニコリブライト,0
1041,4370003007415,新規,0,2025-12-11,2025-12-11,合同会社緑晃,,合同会社,宮城県,仙台市宮城野区,福室２丁目３番２０号第二伊藤アパート１号室,,04,102,9830005,,,,,,,2025-12-11,1,,,,,リョクコウ,0
1047,4380005013039,新規,0,2025-12-11,2025-12-11,一般社団法人ゆめの森ネットワーク,,その他の設立登記法人,福島県,双葉郡大熊町,大字下野上字清水３０９,,07,545,9791308,,,,,,,2025-12-11,1,,,,,ユメノモリネットワーク,0
1055,4460001006054,新規,0,2025-12-11,2025-12-11,株式会社ＮＥＸＳＹ,,株式会社,北海道,釧路市,緑ケ岡２丁目１３番３号,,01,206,0850814,,,,,,,2025-12-11,1,,,,,ネクシー,0
1060,4500001026675,新規,0,2025-12-11,2025-12-11,株式会社寺垣ビルド工業,,株式会社,愛媛県,松山市,平和通５丁目５番地７,,38,201,7900807,,,,,,,2025-12-11,1,,,,,テラガキビルドコウギョウ,0
1062,4700150133335,新規,0,2025-12-11,2025-12-11,東京商工リサーチ健康保険組合,,その他,東京都,千代田区,大手町１丁目３－１　ＪＡビル,,13,101,1000004,,,,,,,2025-12-11,1,,,,,トウキョウショウコウリサーチケンコウホケンクミアイ,0
1063,4700150133343,新規,0,2025-12-11,2025-12-11,池友会健康保険組合,,その他,福岡県,福岡市東区,和白丘２丁目１１番１７号２階,,40,131,8110213,,,,,,,2025-12-11,1,,,,,チユウカイケンコウホケンクミアイ,0
1064,4700150133351,新規,0,2025-12-11,2025-12-11,ニデック健康保険組合,,その他,京都府,京都市南区,久世殿城町３３８,,26,107,6018205,,,,,,,2025-12-11,1,,,,,ニデックケンコウホケンクミアイ,0
1069,5010001260133,新規,0,2025-12-11,2025-12-11,Ｓｔａｂｌｅｓｃｏｉｎ．ｃｏｍ株式会社,,株式会社,東京都,千代田区,麹町２丁目１０－３,,13,101,1020083,,,,,,,2025-12-11,1,,,,,ステーブルズコインドットコム,0
1070,5010001260942,新規,0,2025-12-11,2025-12-11,株式会社Ｍ＆Ｎメディカル,,株式会社,東京都,文京区,本駒込１丁目２５番２２号,,13,105,1130021,,,,,,,2025-12-11,1,,,,,エムアンドエヌメディカル,0
1071,5010001260959,新規,0,2025-12-11,2025-12-11,Ｇｒａｎｄｉｒ株式会社,,株式会社,東京都,千代田区,二番町６番地３二番町三協ビルレジデンス８０２号,,13,101,1020084,,,,,,,2025-12-11,1,,,,,グランディール,0
1072,5010001260975,新規,0,2025-12-11,2025-12-11,株式会社ＥｎＶａｕｌｔ,,株式会社,東京都,中央区,銀座１丁目１２番４号Ｎ＆ＥＢＬＤ．６Ｆ,,13,102,1040061,,,,,,,2025-12-11,1,,,,,エンボルト,0
1073,5010001260991,新規,0,2025-12-11,2025-12-11,株式会社絆,,株式会社,東京都,文京区,湯島３丁目４０番１号,,13,105,1130034,,,,,,,2025-12-11,1,,,,,キズナ,0
1074,5010001261049,新規,0,2025-12-11,2025-12-11,株式会社ワンズクリエーション,,株式会社,東京都,千代田区,隼町２番１６－３０１号,,13,101,1020092,,,,,,,2025-12-11,1,,,,,ワンズクリエーション,0
1075,5010001261073,新規,0,2025-12-11,2025-12-11,株式会社ソラリス,,株式会社,東京都,中央区,日本橋箱崎町３６番２号,,13,102,1030015,,,,,,,2025-12-11,1,,,,,ソラリス,0
1078,5010003049640,新規,0,2025-12-11,2025-12-11,Ｊ＆ＴＣ御代田蓄電合同会社,,合同会社,東京都,千代田区,神田練塀町３番地,,13,101,1010022,,,,,,,2025-12-11,1,,,,,ジェイアンドティーシーミヨタチクデン,0
1079,5010003049681,新規,0,2025-12-11,2025-12-11,ダントー・アルプス系統用蓄電所Ｅ合同会社,,合同会社,東京都,中央区,銀座１丁目８番１６号３階,,13,102,1040061,,,,,,,2025-12-11,1,,,,,ダントーアルプスケイトウヨウチクデンショイー,0
1084,5010401195078,新規,0,2025-12-11,2025-12-11,株式会社Ｒｅｖｅｒｐ,,株式会社,東京都,港区,南麻布３丁目２１番１７号ＢＣｉｔｙＴｏｗｅｒＡＺＡＢＵＴＯＫＹＯ９階,,13,103,1060047,,,,,,,2025-12-11,1,,,,,リバープ,0
1089,5010405025116,新規,0,2025-12-11,2025-12-11,一般社団法人Ｊａｐａｎ　Ｓｍａｒｔ　Ｃｈａｉｎ　Ｆｏｕｎｄａｔｉｏｎ,,その他の設立登記法人,東京都,港区,六本木７丁目７番７号Ｔｒｉ－ＳｅｖｅｎＲｏｐｐｏｎｇｉ８階,,13,103,1060032,,,,,,,2025-12-11,1,,,,,ジャパンスマートチェーンファウンデーション,0
1092,5010501055173,新規,0,2025-12-11,2025-12-11,株式会社ＴＯＲＩＥＮ,,株式会社,東京都,台東区,上野４丁目９－１５上野オサダビル,,13,106,1100005,,,,,,,2025-12-11,1,,,,,トリエン,0
1095,5010701048753,新規,0,2025-12-11,2025-12-11,株式会社ＧｏｖＮｏａ,,株式会社,東京都,品川区,北品川５丁目５－１５－３Ｆ－４Ｆ,,13,109,1410001,,,,,,,2025-12-11,1,,,,,ガブノア,0
1100,5011001173820,新規,0,2025-12-11,2025-12-11,株式会社エヌ,,株式会社,東京都,渋谷区,円山町５番５号Ｎａｖｉ渋谷Ｖ３階,,13,113,1500044,,,,,,,2025-12-11,1,,,,,エヌ,0
1101,5011001174109,新規,0,2025-12-11,2025-12-11,株式会社リテラス,,株式会社,東京都,渋谷区,恵比寿西２丁目４番８号ウィンド恵比寿ビル８Ｆ,,13,113,1500021,,,,,,,2025-12-11,1,,,,,リテラス,0
1102,5011001174224,新規,0,2025-12-11,2025-12-11,株式会社ＥｖｎＬｉｎｋ,,株式会社,東京都,渋谷区,恵比寿南１丁目４番２号紀伊國屋ビル４階,,13,113,1500022,,,,,,,2025-12-11,1,,,,,イーブンリンク,0
1103,5011001174414,新規,0,2025-12-11,2025-12-11,株式会社Ｔ＆Ｓ,,株式会社,東京都,渋谷区,広尾４丁目１番３１－１００７号,,13,113,1500012,,,,,,,2025-12-11,1,,,,,ティーアンドエス,0
1106,5011003023148,新規,0,2025-12-11,2025-12-11,合同会社ＭＭ,,合同会社,東京都,目黒区,青葉台３丁目６―２８―２２０８,,13,110,1530042,,,,,,,2025-12-11,1,,,,,エムエム,0
1107,5011003023164,新規,0,2025-12-11,2025-12-11,合同会社ＨＳコンサルティング,,合同会社,東京都,渋谷区,道玄坂１丁目１０番８号渋谷道玄坂東急ビル２Ｆ－Ｃ,,13,113,1500043,,,,,,,2025-12-11,1,,,,,エイチエスコンサルティング,0
1118,5012401043902,新規,0,2025-12-11,2025-12-11,株式会社ＹＡＷＡＲＡＫＡ　ｗｏｒｋｓ,,株式会社,東京都,狛江市,中和泉２丁目１３番１号クレセント２０２,,13,219,2010012,,,,,,,2025-12-11,1,,,,,ヤワラカワークス,0
1121,5012403007509,新規,0,2025-12-11,2025-12-11,合同会社４０８デザイン,,合同会社,東京都,調布市,東つつじケ丘３丁目２７番地２８,,13,208,1820005,,,,,,,2025-12-11,1,,,,,ヨンマルハチデザイン,0
1132,5020001166288,新規,0,2025-12-11,2025-12-11,株式会社ＳＴＹＬＥ,,株式会社,神奈川県,横浜市青葉区,荏田西５丁目３番地３４カサフェンテＢ－１０２,,14,117,2250014,,,,,,,2025-12-11,1,,,,,スタイル,0
1137,5020003029947,新規,0,2025-12-11,2025-12-11,ＯｎｅＴｈｉｎｇｓ合同会社,,合同会社,神奈川県,横浜市西区,浅間町１丁目４番３号ウィザードビル４０２,,14,103,2200072,,,,,,,2025-12-11,1,,,,,ワンシングス,0
1140,5020005017074,新規,0,2025-12-11,2025-12-11,医療法人七施,,その他の設立登記法人,神奈川県,横浜市港南区,港南台５丁目２３番３０号港南台医療モール２階２０２号室,,14,111,2340054,,,,,,,2025-12-11,1,,,,,シチセ,0
1142,5021001086996,新規,0,2025-12-11,2025-12-11,株式会社千結,,株式会社,神奈川県,横須賀市,久里浜１丁目５番３号,,14,201,2390831,,,,,,,2025-12-11,1,,,,,センユウ,0
1143,5021001087004,新規,0,2025-12-11,2025-12-11,株式会社ＯＮＥＢＯＮＤ,,株式会社,神奈川県,鎌倉市,浄明寺５丁目３番１６号,,14,204,2480003,,,,,,,2025-12-11,1,,,,,ワンボンド,0
1147,5021003016893,新規,0,2025-12-11,2025-12-11,合同会社ｃｏｎｔｉ,,合同会社,神奈川県,相模原市中央区,弥栄１丁目１７番１３号２０２,,14,152,2520229,,,,,,,2025-12-11,1,,,,,コンティ,0
1148,5021003016902,新規,0,2025-12-11,2025-12-11,Ｓｏｌｅｉｌ　Ａｓｉａ合同会社,,合同会社,神奈川県,綾瀬市,早川城山２丁目１６番５号,,14,218,2521127,,,,,,,2025-12-11,1,,,,,ソレイユアジア,0
1155,5030003028213,新規,0,2025-12-11,2025-12-11,合同会社Ｗｅｇｇ,,合同会社,埼玉県,上尾市,大字上尾村１３１２－１－Ｂ２０１,,11,219,3620013,,,,,,,2025-12-11,1,,,,,ウェッグ,0
1156,5040001141454,新規,0,2025-12-11,2025-12-11,株式会社有馬工業,,株式会社,千葉県,木更津市,永井作１丁目３番１４－３０５号,,12,206,2920053,,,,,,,2025-12-11,1,,,,,アリマコウギョウ,0
1157,5040001141735,新規,0,2025-12-11,2025-12-11,株式会社Ｐ．ｙｏｕｒ＆Ｐｅａｃｅ,,株式会社,千葉県,山武市,木原１１３６－４９,,12,237,2891212,,,,,,,2025-12-11,1,,,,,ピュアアンドピース,0
1162,5060001038847,新規,0,2025-12-11,2025-12-11,株式会社ベストパートナーズ,,株式会社,栃木県,下野市,石橋２３７番地４,,09,216,3290511,,,,,,,2025-12-11,1,,,,,ベストパートナーズ,0
1170,5110001039781,新規,0,2025-12-11,2025-12-11,株式会社ＭＹＯＫＯ　ＷＥＬＬＮＥＳＳ　ＤＥＳＩＧＮ,,株式会社,新潟県,妙高市,下町８番３３号,,15,217,9440048,,,,,,,2025-12-11,1,,,,,ミョウコウウェルネスデザイン,0
1186,5120001282637,新規,0,2025-12-11,2025-12-11,水玉株式会社,,株式会社,大阪府,大阪市中央区,島之内２丁目６－６－１０１ウーロ島之内,,27,128,5420082,,,,,,,2025-12-11,1,,,,,ミズタマ,0
1187,5120001282661,新規,0,2025-12-11,2025-12-11,Ｙｕｌａｌａ　Ｊａｐａｎ株式会社,,株式会社,大阪府,大阪市中央区,北久宝寺町３丁目６－１本町南ガーデンシティ７階,,27,128,5410057,,,,,,,2025-12-11,1,,,,,ユララジャパン,0
1188,5120001282703,新規,0,2025-12-11,2025-12-11,株式会社ＲＩＳＥ　ＴＥＣＨＮＯ,,株式会社,大阪府,大阪市港区,南市岡３丁目６番５９－６０９号,,27,107,5520011,,,,,,,2025-12-11,1,,,,,ライズテクノ,0
1193,5120003031422,新規,0,2025-12-11,2025-12-11,合同会社ブレイゾン,,合同会社,大阪府,大阪市北区,野崎町７－８梅田パークビル３０５,,27,127,5300055,,,,,,,2025-12-11,1,,,,,ブレイゾン,0
1194,5120003031430,新規,0,2025-12-11,2025-12-11,合同会社ＰＳ・ＦＡＣＴＯＲＹ,,合同会社,大阪府,大阪市淀川区,木川東３丁目４番３号,,27,123,5320012,,,,,,,2025-12-11,1,,,,,ピーエスファクトリー,0
1195,5120003031447,新規,0,2025-12-11,2025-12-11,合同会社大我,,合同会社,大阪府,大阪市都島区,東野田町５丁目１１番２４号コンフォール京橋２０１,,27,102,5340024,,,,,,,2025-12-11,1,,,,,タイガ,0
1204,5122001039991,新規,0,2025-12-11,2025-12-11,株式会社ＧＬＯＢＡＬ・ＬＩＮＫＳ,,株式会社,大阪府,東大阪市,鴻池元町７番１３号,,27,227,5780974,,,,,,,2025-12-11,1,,,,,グローバルリンクス,0
1207,5130001081212,新規,0,2025-12-11,2025-12-11,株式会社ホームケア萬福,,株式会社,京都府,京都市山科区,椥辻封シ川町３５番地１５,00141843,26,110,6078167,,,,,,,2025-12-11,1,,,,,ホームケアバンプク,0
1208,5140001141056,新規,0,2025-12-11,2025-12-11,株式会社Ｃｏｍｉｎｇ　Ｕｐ,,株式会社,兵庫県,神戸市東灘区,御影石町４丁目１８番４号,,28,101,6580045,,,,,,,2025-12-11,1,,,,,カミングアップ,0
1209,5140001141072,新規,0,2025-12-11,2025-12-11,株式会社プエンテリブロ,,株式会社,兵庫県,神戸市中央区,栄町通１丁目１番９号,,28,110,6500023,,,,,,,2025-12-11,1,,,,,プエンテリブロ,0
1210,5140001141089,新規,0,2025-12-11,2025-12-11,株式会社Ａｒｌ’ｓ　Ｌａｂ,,株式会社,兵庫県,神戸市北区,泉台１丁目１－７,,28,109,6511141,,,,,,,2025-12-11,1,,,,,アールズラボ,0
1213,5140003022956,新規,0,2025-12-11,2025-12-11,Ｍｏｎｓｉｅｕｒ　Ｂｉｓｔｒｏｔ合同会社,,合同会社,兵庫県,神戸市中央区,花隈町５番２１－６０６号,,28,110,6500013,,,,,,,2025-12-11,1,,,,,ムッシュビストロ,0
1214,5140003022964,新規,0,2025-12-11,2025-12-11,合同会社ひだまり,,合同会社,兵庫県,西宮市,大社町３番３８－５０６号,,28,204,6620867,,,,,,,2025-12-11,1,,,,,ヒダマリ,0
1216,5160001027278,新規,0,2025-12-11,2025-12-11,ＶＩＳＩＯＮ２０７０株式会社,,株式会社,滋賀県,米原市,甲津原５３０番地,,25,214,5210301,,,,,,,2025-12-11,1,,,,,ビジョンニゼロナナゼロ,0
1217,5160003003673,新規,0,2025-12-11,2025-12-11,合同会社ｏｔｏ工房,,合同会社,滋賀県,大津市,坂本３丁目３２番２０－８０５号,,25,201,5200113,,,,,,,2025-12-11,1,,,,,オトコウボウ,0
1222,5180001169878,新規,0,2025-12-11,2025-12-11,株式会社Ｙｏｕ　Ａｎｄ　Ｍｅ,,株式会社,愛知県,豊明市,栄町大蔵下８１番地３,,23,229,4701164,,,,,,,2025-12-11,1,,,,,ユーアンドミー,0
1235,5180005021341,新規,0,2025-12-11,2025-12-11,特定非営利活動法人ロゴスケア,,その他の設立登記法人,愛知県,春日井市,大留町１丁目３１２０番地１３,,23,206,4870024,,,,,,,2025-12-11,1,,,,,ロゴスケア,0
1239,5200001044509,新規,0,2025-12-11,2025-12-11,ＳＨＩＺＥＬ．Ｍｕ株式会社,,株式会社,岐阜県,岐阜市,栄新町３丁目５３番地２,,21,201,5020849,,,,,,,2025-12-11,1,,,,,シゼルドットムー,0
1251,5290001112521,新規,0,2025-12-11,2025-12-11,株式会社ＹＫＫＮ,,株式会社,福岡県,筑紫野市,二日市中央６丁目２番１８号浪花通り１階１１８号室,,40,217,8180072,,,,,,,2025-12-11,1,,,,,ワイケイケイエヌ,0
1262,5290805009871,新規,0,2025-12-11,2025-12-11,農事組合法人日本みん農Ｌａｂ,,その他の設立登記法人,福岡県,京都郡苅田町,大字南原１９１３番地１８,,40,621,8000355,,,,,,,2025-12-11,1,,,,,ニホンミンノウラボ,0
1269,5320003004853,新規,0,2025-12-11,2025-12-11,合同会社コナカ企画,,合同会社,大分県,大分市,花津留１丁目２番２１号第２分健ビル１０１,,44,201,8700933,,,,,,,2025-12-11,1,,,,,コナカキカク,0
1271,5330001033820,新規,0,2025-12-11,2025-12-11,株式会社ｚｕａｎｔｅ,,株式会社,熊本県,熊本市中央区,新屋敷２丁目２７番１７号ハウスロフティー１０１,,43,101,8620975,,,,,,,2025-12-11,1,,,,,ズアンテ,0
1282,5380001035738,新規,0,2025-12-11,2025-12-11,ヤマトホールディングス株式会社,,株式会社,福島県,いわき市,小名浜字大原境西５７番地の４コーポ岡田テナント１階Ｃ号室,,07,204,9718101,,,,,,,2025-12-11,1,,,,,ヤマトホールディングス,0
1287,5430001095751,新規,0,2025-12-11,2025-12-11,株式会社ＣＲＩＳＥ,,株式会社,北海道,札幌市中央区,南六条西５丁目８番地メイトビル４階,,01,101,0640806,,,,,,,2025-12-11,1,,,,,シーライズ,0
1288,5430001095792,新規,0,2025-12-11,2025-12-11,株式会社ＮＡＣ,,株式会社,北海道,虻田郡倶知安町,ニセコひらふ一条２丁目９番１号,,01,400,0440080,,,,,,,2025-12-11,1,,,,,ナック,0
1292,5500001026674,新規,0,2025-12-11,2025-12-11,株式会社ネクスモ,,株式会社,愛媛県,松山市,三番町４丁目４－６松山センタービル２号館１階,,38,201,7900003,,,,,,,2025-12-11,1,,,,,ネクスモ,0
1297,5700150133334,新規,0,2025-12-11,2025-12-11,トーハツ健康保険組合,,その他,東京都,板橋区,小豆沢３丁目５－４,,13,119,1740051,,,,,,,2025-12-11,1,,,,,トーハツケンコウホケンクミアイ,0
1298,5700150133342,新規,0,2025-12-11,2025-12-11,山陽電鉄健康保険組合,,その他,兵庫県,神戸市長田区,御屋敷通３丁目１番１号,,28,106,6530843,,,,,,,2025-12-11,1,,,,,サンヨウデンテツケンコウホケンクミアイ,0
1299,5700150133350,新規,0,2025-12-11,2025-12-11,富士紡健康保険組合,,その他,東京都,中央区,日本橋人形町１丁目１８番１２号,,13,102,1030013,,,,,,,2025-12-11,1,,,,,フジボウケンコウホケンクミアイ,0
1300,5700150133359,新規,0,2025-12-11,2025-12-11,日産化学健康保険組合,,その他,東京都,中央区,日本橋２丁目５番１号,,13,102,1030027,,,,,,,2025-12-11,1,,,,,ニッサンカガクケンコウホケンクミアイ,0
1311,6010001260917,新規,0,2025-12-11,2025-12-11,ＮｐＴｅｃｈ株式会社,,株式会社,東京都,中央区,日本橋室町１丁目１１番１２号日本橋水野ビル７階,,13,102,1030022,,,,,,,2025-12-11,1,,,,,,0
1312,6010001260966,新規,0,2025-12-11,2025-12-11,株式会社Ａｉｆｌｏｗｋ,,株式会社,東京都,千代田区,富士見１丁目３－１１富士見デュープレックスＢ’ｓ４Ｆ,,13,101,1020071,,,,,,,2025-12-11,1,,,,,アイフローク,0
1313,6010001260990,新規,0,2025-12-11,2025-12-11,株式会社ベンチャー総研,,株式会社,東京都,中央区,新富２丁目１番７号５階,,13,102,1040041,,,,,,,2025-12-11,1,,,,,ベンチャーソウケン,0
1314,6010001261015,新規,0,2025-12-11,2025-12-11,桜下キャピタル株式会社,,株式会社,東京都,中央区,銀座１丁目１２番４号Ｎ＆Ｅ・ＢＬＤ．６Ｆ,,13,102,1040061,,,,,,,2025-12-11,1,,,,,サクラシタキャピタル,0
1315,6010001261089,新規,0,2025-12-11,2025-12-11,株式会社ＳＩＭ　Ｐｏｉｎｔ,,株式会社,東京都,中央区,勝どき１丁目１３番６－４００９号,,13,102,1040054,,,,,,,2025-12-11,1,,,,,シムポイント,0
1316,6010001261130,新規,0,2025-12-11,2025-12-11,株式会社Ｌｅｉ,,株式会社,東京都,千代田区,紀尾井町４番１号,,13,101,1020094,,,,,,,2025-12-11,1,,,,,レイ,0
1320,6010003049631,新規,0,2025-12-11,2025-12-11,Ｍｉｒａｉｓｅ合同会社,,合同会社,東京都,中央区,銀座６丁目１３番１６号銀座ｗａｌｌビルＵＣＦ５階,,13,102,1040061,,,,,,,2025-12-11,1,,,,,,0
1321,6010003049648,新規,0,2025-12-11,2025-12-11,合同会社Ｙｕｇｅｎ,,合同会社,東京都,中央区,銀座２丁目１０番８号マニエラ銀座ビル４階,,13,102,1040061,,,,,,,2025-12-11,1,,,,,ユウゲン,0
1322,6010003049672,新規,0,2025-12-11,2025-12-11,秋山ホールディングス合同会社,,合同会社,東京都,中央区,銀座１丁目１２番４号Ｎ＆ＥＢＬＤ．６Ｆ,,13,102,1040061,,,,,,,2025-12-11,1,,,,,アキヤマホールディングス,0
1323,6010003049680,新規,0,2025-12-11,2025-12-11,ダントー・アルプス系統用蓄電所Ｄ合同会社,,合同会社,東京都,中央区,銀座１丁目８番１６号３階,,13,102,1040061,,,,,,,2025-12-11,1,,,,,ダントーアルプスケイトウヨウチクデンショディー,0
1332,6010401195093,新規,0,2025-12-11,2025-12-11,レイガン研究所株式会社,,株式会社,東京都,港区,芝浦３丁目４番１号グランパークタワー３２階,,13,103,1080023,,,,,,,2025-12-11,1,,,,,レイガンケンキュウジョ,0
1342,6010903010485,新規,0,2025-12-11,2025-12-11,ｍｉｅｕ合同会社,,合同会社,東京都,世田谷区,羽根木２丁目４０番１１号,,13,112,1560042,,,,,,,2025-12-11,1,,,,,ミュー,0
1361,6011003023147,新規,0,2025-12-11,2025-12-11,合同会社ＭＥＭＯＰＥＴ,,合同会社,東京都,渋谷区,道玄坂１丁目１０番８号渋谷道玄坂東急ビル２Ｆ―Ｃ,,13,113,1500043,,,,,,,2025-12-11,1,,,,,メモペット,0
1379,6012801024410,新規,0,2025-12-11,2025-12-11,ＭＮ　ＩｏＴ　Ｓｏｌｕｔｉｏｎｓ株式会社,,株式会社,東京都,日野市,多摩平２丁目５番１号ＰｌａｎＴ内,,13,212,1910062,,,,,,,2025-12-11,1,,,,,エムエヌアイオーティーソリューションズ,0
1380,6013101009886,新規,0,2025-12-11,2025-12-11,株式会社幹栄ルーフ,,株式会社,東京都,青梅市,千ヶ瀬町２丁目２１４番地,,13,205,1980043,,,,,,,2025-12-11,1,,,,,ミキエイルーフ,0
1398,6020001166147,新規,0,2025-12-11,2025-12-11,株式会社Ｚ‐ＷＡＬＬホールディングス,,株式会社,神奈川県,横浜市西区,楠町４番地７横浜楠町ビル４階,,14,103,2200003,,,,,,,2025-12-11,1,,,,,ゼットウォールホールディングス,0
1399,6020001166246,新規,0,2025-12-11,2025-12-11,株式会社Ｗｏｖｅｎ　Ｗｏｒｋｓ,,株式会社,神奈川県,横浜市港北区,日吉本町６丁目１３番１０号,,14,109,2230062,,,,,,,2025-12-11,1,,,,,ウーブンワークス,0
1402,6020003029921,新規,0,2025-12-11,2025-12-11,合同会社クリス,,合同会社,神奈川県,川崎市多摩区,生田２丁目１４番１９号,,14,135,2140038,,,,,,,2025-12-11,1,,,,,クリス,0
1403,6020005017073,新規,0,2025-12-11,2025-12-11,レビンリンク社会保険労務士法人,,その他の設立登記法人,神奈川県,横浜市中区,桜木町１丁目１－７ヒューリックみなとみらい１０階,,14,104,2310062,,,,,,,2025-12-11,1,,,,,レビンリンクシャカイホケンロウムシ,0
1404,6020005017081,新規,0,2025-12-11,2025-12-11,医療法人ｉｎｆｉｎｉｔｙ,,その他の設立登記法人,神奈川県,横浜市鶴見区,鶴見中央１丁目１０番３号鶴見ハウスＢ１階,,14,101,2300051,,,,,,,2025-12-11,1,,,,,インフィニティ,0
1409,6021001086970,新規,0,2025-12-11,2025-12-11,株式会社當間住設,,株式会社,神奈川県,藤沢市,高倉５０８番地の１１,,14,205,2520802,,,,,,,2025-12-11,1,,,,,トウマジュウセツ,0
1416,6030001170057,新規,0,2025-12-11,2025-12-11,有馬興業株式会社,,株式会社,埼玉県,蕨市,南町３丁目２番１５－２０２号,,11,223,3350003,,,,,,,2025-12-11,1,,,,,アリマコウギョウ,0
1421,6040001141643,新規,0,2025-12-11,2025-12-11,株式会社Ｌｕｎｏａ,,株式会社,千葉県,四街道市,内黒田１８７番地３,,12,228,2840013,,,,,,,2025-12-11,1,,,,,ルノア,0
1422,6040001141726,新規,0,2025-12-11,2025-12-11,株式会社エマウ,,株式会社,千葉県,流山市,南流山３丁目１０番８号ダイヤモンドクレスト南流山１Ｆ,,12,220,2700163,,,,,,,2025-12-11,1,,,,,エマウ,0
1423,6040001141742,新規,0,2025-12-11,2025-12-11,アイマヤ株式会社,,株式会社,千葉県,流山市,大字東深井６５番地の３,,12,220,2700101,,,,,,,2025-12-11,1,,,,,アイマヤ,0
1436,6080002015132,新規,0,2025-12-11,2025-12-11,有限会社茶香園,,有限会社,静岡県,牧之原市,静谷２６２０番地の６,,22,226,4210404,,,,,,,2025-12-11,1,,,,,サコウエン,0
1442,6100003008512,新規,0,2025-12-11,2025-12-11,合同会社ＧＧ　ＥＮＴＥＲＰＲＩＳＥ,,合同会社,長野県,安曇野市,明科光１８１番地１,,20,220,3997103,,,,,,,2025-12-11,1,,,,,ジージーエンタープライズ,0
1448,6120001282636,新規,0,2025-12-11,2025-12-11,静花株式会社,,株式会社,大阪府,大阪市中央区,島之内２丁目６－６－１０１ウーロ島之内,,27,128,5420082,,,,,,,2025-12-11,1,,,,,セイカ,0
1449,6120001282652,新規,0,2025-12-11,2025-12-11,Ｂｌｕｅ　Ｐｉｎ　Ｊａｐａｎ株式会社,,株式会社,大阪府,大阪市北区,中之島６丁目１番３８－３７１１号,,27,127,5300005,,,,,,,2025-12-11,1,,,,,ブルーピンジャパン,0
1450,6120001282693,新規,0,2025-12-11,2025-12-11,株式会社マグネットロジ,,株式会社,大阪府,大阪市中央区,内久宝寺町３丁目１番１号,,27,128,5400013,,,,,,,2025-12-11,1,,,,,マグネットロジ,0
1451,6120001282719,新規,0,2025-12-11,2025-12-11,成協興産株式会社,,株式会社,大阪府,寝屋川市,錦町１９番１０号,,27,215,5720043,,,,,,,2025-12-11,1,,,,,セイキョウコウサン,0
1452,6120003031347,新規,0,2025-12-11,2025-12-11,合同会社Ｓｉｌｖｅｒ　Ｇａｔｅ,,合同会社,大阪府,大阪市北区,野崎町７－８梅田パークビル３０５,,27,127,5300055,,,,,,,2025-12-11,1,,,,,シルバーゲート,0
1453,6120003031355,新規,0,2025-12-11,2025-12-11,ＥｄｇｅＥｎ合同会社,,合同会社,大阪府,大阪市北区,西天満４丁目１番４号４０１号室,,27,127,5300047,,,,,,,2025-12-11,1,,,,,エッジエン,0
1456,6120101072945,新規,0,2025-12-11,2025-12-11,株式会社ＡＬＢＡＬＩＺＥ,,株式会社,大阪府,大阪狭山市,今熊３丁目６９２番地の３７,,27,231,5890021,,,,,,,2025-12-11,1,,,,,アルバライズ,0
1465,6130001081203,新規,0,2025-12-11,2025-12-11,株式会社泉園銘茶本舗,,株式会社,京都府,宇治市,宇治蓮華２４番地,,26,204,6110021,,,,,,,2025-12-11,1,,,,,イズミエンメイチャホンポ,0
1472,6140001141063,新規,0,2025-12-11,2025-12-11,株式会社ＯＧＵＨ,,株式会社,兵庫県,三田市,長坂６２３番地５３,,28,219,6691355,,,,,,,2025-12-11,1,,,,,オグー,0
1489,6230001021207,新規,0,2025-12-11,2025-12-11,株式会社マキ,,株式会社,富山県,下新川郡朝日町,平柳１２０２番地,,16,343,9390744,,,,,,,2025-12-11,1,,,,,マキ,0
1506,6290003017833,新規,0,2025-12-11,2025-12-11,合同会社Ｒｅｎ,,合同会社,福岡県,糸島市,二丈深江３丁目１６－１５,,40,230,8191601,,,,,,,2025-12-11,1,,,,,レン,0
1514,6360001036118,新規,0,2025-12-11,2025-12-11,みなまーる株式会社,,株式会社,沖縄県,浦添市,当山２丁目６番１３号,,47,208,9012104,,,,,,,2025-12-11,1,,,,,ミナマール,0
1519,6380001035737,新規,0,2025-12-11,2025-12-11,株式会社高橋鉄工所,,株式会社,福島県,白河市,大信豊地字新田１３番地,,07,205,9690306,,,,,,,2025-12-11,1,,,,,タカハシテッコウジョ,0
1523,6410003004182,新規,0,2025-12-11,2025-12-11,合同会社バンジャグループ,,合同会社,秋田県,能代市,浅内字清水下４５番地,,05,202,0160179,,,,,,,2025-12-11,1,,,,,バンジャグループ,0
1532,6460001006052,新規,0,2025-12-11,2025-12-11,株式会社ビービーファーム,,株式会社,北海道,川上郡弟子屈町,鈴蘭６丁目１番１７－１０３号,,01,665,0883202,,,,,,,2025-12-11,1,,,,,ビービーファーム,0
1539,6500001026673,新規,0,2025-12-11,2025-12-11,Ｓｅｔｏｕｃｈｉ　Ｐｅａｋ　Ｅｓｔａｔｅ　ＪＰＮ株式会社,,株式会社,愛媛県,松山市,西垣生町６７７番地２,,38,201,7918044,,,,,,,2025-12-11,1,,,,,セトウチピークエステートジェイピーエヌ,0
1544,6500003003638,新規,0,2025-12-11,2025-12-11,合同会社Ｂｅａｕｒａ,,合同会社,愛媛県,松山市,余戸東５丁目１５番７号幸風２０１号,,38,201,7900044,,,,,,,2025-12-11,1,,,,,ビュラ,0
1545,6700150133341,新規,0,2025-12-11,2025-12-11,東京機械健康保険組合,,その他,東京都,港区,三田３丁目１１番３６号　三田日東ダイビル６階,,13,103,1080073,,,,,,,2025-12-11,1,,,,,トウキョウキカイケンコウホケンクミアイ,0
1546,6700150133358,新規,0,2025-12-11,2025-12-11,大同生命健康保険組合,,その他,大阪府,大阪市西区,江戸堀１丁目２番１号,,27,106,5500002,,,,,,,2025-12-11,1,,,,,ダイドウセイメイケンコウホケンクミアイ,0
1547,6700150133366,新規,0,2025-12-11,2025-12-11,シティグループ健康保険組合,,その他,東京都,千代田区,大手町１丁目１番１号,,13,101,1000004,,,,,,,2025-12-11,1,,,,,シティグループケンコウホケンクミアイ,0
1561,7010001260131,新規,0,2025-12-11,2025-12-11,株式会社ＤＡＮＣＥＲ,,株式会社,東京都,千代田区,九段南３丁目５番１１号スクエア九段ビル１Ｆ,,13,101,1020074,,,,,,,2025-12-11,1,,,,,,0
1562,7010001260676,新規,0,2025-12-11,2025-12-11,ＪＩＳＤＡ株式会社,,株式会社,東京都,千代田区,丸の内１丁目７－１２サピアタワー８階,,13,101,1000005,,,,,,,2025-12-11,1,,,,,ジスダ,0
1563,7010001260899,新規,0,2025-12-11,2025-12-11,日本虎鯨株式会社,,株式会社,東京都,千代田区,外神田２丁目２番１７号７７号室,,13,101,1010021,,,,,,,2025-12-11,1,,,,,ニホンコゲイ,0
1564,7010001260940,新規,0,2025-12-11,2025-12-11,スマイルパーク株式会社,,株式会社,東京都,千代田区,神田佐久間町３丁目３８番地,,13,101,1010025,,,,,,,2025-12-11,1,,,,,スマイルパーク,0
1565,7010001260965,新規,0,2025-12-11,2025-12-11,株式会社ユースフルワークサポート,,株式会社,東京都,文京区,湯島１丁目１１番８－２０１号,,13,105,1130034,,,,,,,2025-12-11,1,,,,,ユースフルワークサポート,0
1566,7010001261014,新規,0,2025-12-11,2025-12-11,新興出版社啓林館パートナーズ株式会社,,株式会社,東京都,千代田区,神田神保町１丁目４８番地１,,13,101,1010051,,,,,,,2025-12-11,1,,,,,シンコウシュッパンシャケイリンカンパートナーズ,0
1567,7010001261071,新規,0,2025-12-11,2025-12-11,ＯｎＮｅｔＴｒａｄｅ株式会社,,株式会社,東京都,中央区,日本橋本町３丁目３番６号ワカ末ビル７階,,13,102,1030023,,,,,,,2025-12-11,1,,,,,オンネットトレード,0
1568,7010001261113,新規,0,2025-12-11,2025-12-11,株式会社ＮｅｃｔａＲａｙ,,株式会社,東京都,文京区,向丘２丁目３番１０号東大前ＨｉＲＡＫＵＧＡＴＥ,,13,105,1130023,,,,,,,2025-12-11,1,,,,,ネクタレイ,0
1572,7010003049630,新規,0,2025-12-11,2025-12-11,ＩＮＦ蓄電所６号合同会社,,合同会社,東京都,千代田区,富士見２丁目１０番２号,,13,101,1020071,,,,,,,2025-12-11,1,,,,,アイエヌエフチクデンショロクゴウ,0
1573,7010003049647,新規,0,2025-12-11,2025-12-11,合同会社アイデアリンク・ネクサス,,合同会社,東京都,中央区,日本橋蛎殻町１丁目６番４号第三カネタツビル７０２号,,13,102,1030014,,,,,,,2025-12-11,1,,,,,アイデアリンクネクサス,0
1579,7010103002712,新規,0,2025-12-11,2025-12-11,合同会社穏樹,,合同会社,東京都,八王子市,明神町３丁目２２番４号,,13,201,1920046,,,,,,,2025-12-11,1,,,,,オンジュ,0
1586,7010401194458,新規,0,2025-12-11,2025-12-11,株式会社明富,,株式会社,東京都,港区,北青山１丁目４－１－４１０,,13,103,1070061,,,,,,,2025-12-11,1,,,,,メイトミ,0
1587,7010401195076,新規,0,2025-12-11,2025-12-11,ＣｌａｒｉＦｉ　Ｊａｐａｎ株式会社,,株式会社,東京都,港区,虎ノ門１丁目１３番５号ＶＯＲＴ虎ノ門ＩＩ３階,00141836,13,103,1050001,,,,,,,2025-12-11,1,,,,,クラリファイジャパン,0
1588,7010401195183,新規,0,2025-12-11,2025-12-11,株式会社ＣＲＥＡＴＯＲ’ＺＺ,,株式会社,東京都,港区,芝２丁目２番１２号５階,,13,103,1050014,,,,,,,2025-12-11,1,,,,,クリエイターズ,0
1591,7010405025089,新規,0,2025-12-11,2025-12-11,青山東京税理士法人,,その他の設立登記法人,東京都,港区,南青山１丁目１番１号新青山ビル東館１３階青山東京法律事務所内,,13,103,1070062,,,,,,,2025-12-11,1,,,,,アオヤマトウキョウ,0
1592,7010501055155,新規,0,2025-12-11,2025-12-11,株式会社池田や,,株式会社,東京都,台東区,雷門１丁目２番３－９０１号スカイコート浅草雷門,,13,106,1110034,,,,,,,2025-12-11,1,,,,,イケダヤ,0
1601,7010901058559,新規,0,2025-12-11,2025-12-11,日本国際美術研究院株式会社,,株式会社,東京都,世田谷区,深沢１丁目１８－７,,13,112,1580081,,,,,,,2025-12-11,1,,,,,ニホンコクサイビジュツケンキュウイン,0
1602,7010901058600,新規,0,2025-12-11,2025-12-11,株式会社Ａ１Ａ,,株式会社,東京都,世田谷区,代田１丁目７番１２号ビリディス花見堂２０５,,13,112,1550033,,,,,,,2025-12-11,1,,,,,エーワンエー,0
1612,7011001174032,新規,0,2025-12-11,2025-12-11,株式会社マイキャラ,,株式会社,東京都,目黒区,東山３丁目１５番１号,,13,110,1530043,,,,,,,2025-12-11,1,,,,,マイキャラ,0
1613,7011001174098,新規,0,2025-12-11,2025-12-11,株式会社Ｋｅｔｅ,,株式会社,東京都,渋谷区,南平台町６番４号ザ・ウエストミンスター南平台３０４,,13,113,1500036,,,,,,,2025-12-11,1,,,,,ケテ,0
1614,7011001174230,新規,0,2025-12-11,2025-12-11,エネハブ株式会社,,株式会社,東京都,渋谷区,道玄坂１丁目１０番８号渋谷道玄坂東急ビル２Ｆ－Ｃ,,13,113,1500043,,,,,,,2025-12-11,1,,,,,エネハブ,0
1615,7011001174271,新規,0,2025-12-11,2025-12-11,グライディクス株式会社,,株式会社,東京都,渋谷区,広尾１丁目２番１号ヒカリビル４階,,13,113,1500012,,,,,,,2025-12-11,1,,,,,グライディクス,0
1616,7011001174370,新規,0,2025-12-11,2025-12-11,エンソウスタジオ株式会社,,株式会社,東京都,渋谷区,円山町５番３号ＭＩＥＵＸ渋谷ビル８階,,13,113,1500044,,,,,,,2025-12-11,1,,,,,エンソウスタジオ,0
1618,7011003022973,新規,0,2025-12-11,2025-12-11,合同会社金田商店,,合同会社,東京都,渋谷区,渋谷２丁目１９－１５宮益坂ビルディング６０９,,13,113,1500002,,,,,,,2025-12-11,1,,,,,カネダショウテン,0
1623,7011101114144,新規,0,2025-12-11,2025-12-11,株式会社ＬＩＢＥＬＥＮＡ,,株式会社,東京都,新宿区,高田馬場３丁目２５－１１,,13,104,1690075,,,,,,,2025-12-11,1,,,,,リベレナ,0
1624,7011101114292,新規,0,2025-12-11,2025-12-11,株式会社キーブリッジ,,株式会社,東京都,新宿区,西新宿３丁目３番１３号西新宿水間ビル６階,,13,104,1600023,,,,,,,2025-12-11,1,,,,,キーブリッジ,0
1625,7011103016826,新規,0,2025-12-11,2025-12-11,合同会社ＵＮＯ　Ｙ　ＳＯＬＯ,,合同会社,東京都,新宿区,歌舞伎町２丁目２０番５号,,13,104,1600021,,,,,,,2025-12-11,1,,,,,ウノイソロ,0
1626,7011401027657,新規,0,2025-12-11,2025-12-11,株式会社ＫＧストア,,株式会社,東京都,板橋区,中丸町２３番１３号,,13,119,1730026,,,,,,,2025-12-11,1,,,,,ケージーストア,0
1632,7013301055408,新規,0,2025-12-11,2025-12-11,株式会社Ｃｒｅａｔｅ,,株式会社,東京都,豊島区,南長崎１丁目１３番１２号ラ・メゾン長崎２０１,,13,116,1710052,,,,,,,2025-12-11,1,,,,,クリエイト,0
1639,7020001166245,新規,0,2025-12-11,2025-12-11,リヴェッタ株式会社,,株式会社,神奈川県,横浜市中区,伊勢佐木町２丁目６６満利屋ビル６０４,,14,104,2310045,,,,,,,2025-12-11,1,,,,,リヴェッタ,0
1663,7040001141733,新規,0,2025-12-11,2025-12-11,ニュー小湊ホテル株式会社,,株式会社,千葉県,鴨川市,小湊１８２番地の２,,12,223,2995501,,,,,,,2025-12-11,1,,,,,ニューコミナトホテル,0
1666,7040003029126,新規,0,2025-12-11,2025-12-11,合同会社リライフ,,合同会社,千葉県,市原市,八幡２３６６番地２バニュルスＩ－１０３,00141839,12,219,2900062,,,,,,,2025-12-11,1,,,,,リライフ,0
1668,7080001027326,新規,0,2025-12-11,2025-12-11,株式会社百代鉄筋工業,,株式会社,静岡県,静岡市駿河区,中島４６番地の３４７,,22,102,4228046,,,,,,,2025-12-11,1,,,,,ハクタイテッキンコウギョウ,0
1680,7120001282577,新規,0,2025-12-11,2025-12-11,株式会社ライフラボ,,株式会社,大阪府,大阪市浪速区,幸町２丁目３番３号,,27,111,5560021,,,,,,,2025-12-11,1,,,,,ライフラボ,0
1681,7120001282635,新規,0,2025-12-11,2025-12-11,ＯＳグリーンエナジー株式会社,,株式会社,大阪府,大阪市北区,梅田３丁目２番２号,,27,127,5300001,,,,,,,2025-12-11,1,,,,,オーエスグリーンエナジー,0
1682,7120001282668,新規,0,2025-12-11,2025-12-11,株式会社トライリンク,,株式会社,大阪府,枚方市,尊延寺３丁目６番２０号,,27,210,5730112,,,,,,,2025-12-11,1,,,,,トライリンク,0
1685,7120003031437,新規,0,2025-12-11,2025-12-11,合同会社Ａｒｂｏｓ,,合同会社,大阪府,大阪市生野区,新今里３丁目５－１６,,27,116,5440001,,,,,,,2025-12-11,1,,,,,アルボス,0
1688,7120901051916,新規,0,2025-12-11,2025-12-11,株式会社テクニカル・リノベーション,,株式会社,大阪府,豊中市,螢池北町１丁目２番１７号,,27,203,5600031,,,,,,,2025-12-11,1,,,,,テクニカルリノベーション,0
1689,7120901051957,新規,0,2025-12-11,2025-12-11,株式会社ＨＲ　Ｈｅｒｏ,,株式会社,大阪府,吹田市,江坂町２丁目２３番１１号,,27,205,5640063,,,,,,,2025-12-11,1,,,,,エイチアールヒーロー,0
1699,7130001081210,新規,0,2025-12-11,2025-12-11,株式会社琥珀,,株式会社,京都府,京都市中京区,河原町通御池下る下丸屋町３９０番地２,,26,104,6048006,,,,,,,2025-12-11,1,,,,,コハク,0
1701,7130003010984,新規,0,2025-12-11,2025-12-11,合同会社ＫＧＤ,,合同会社,京都府,宇治市,神明宮北４１番地の３７,,26,204,6110025,,,,,,,2025-12-11,1,,,,,ケージーディー,0
1702,7130003011000,新規,0,2025-12-11,2025-12-11,合同会社姉小路谷口商舗,,合同会社,京都府,京都市中京区,姉小路通柳馬場東入菊屋町５６９番地,,26,104,6048102,,,,,,,2025-12-11,1,,,,,アネヤコウジタニグチショウホ,0
1711,7140001141038,新規,0,2025-12-11,2025-12-11,株式会社ＯＮＥ,,株式会社,兵庫県,高砂市,高砂町高瀬町１５４５番地,,28,216,6760036,,,,,,,2025-12-11,1,,,,,ワン,0
1712,7140001141087,新規,0,2025-12-11,2025-12-11,株式会社ルーチェラ,,株式会社,兵庫県,宝塚市,武庫川町１－３－２Ｆ,,28,214,6650844,,,,,,,2025-12-11,1,,,,,ルーチェラ,0
1714,7140003022962,新規,0,2025-12-11,2025-12-11,合同会社うー,,合同会社,兵庫県,加古郡稲美町,岡２３３番地の１,,28,381,6751113,,,,,,,2025-12-11,1,,,,,ウー,0
1725,7180001169892,新規,0,2025-12-11,2025-12-11,株式会社Ｅｓｐｅｒｔｏ　Ｌｕｃｅ,,株式会社,愛知県,名古屋市南区,元塩町１丁目５番地の１４,,23,112,4570823,,,,,,,2025-12-11,1,,,,,エスペルトルーチェ,0
1727,7180003029467,新規,0,2025-12-11,2025-12-11,ＧＴＫ合同会社,,合同会社,愛知県,名古屋市中区,千代田１丁目４－７ルナクレシエンテ１０１,,23,106,4600012,,,,,,,2025-12-11,1,,,,,ジーティーケイ,0
1744,7270001009346,新規,0,2025-12-11,2025-12-11,株式会社Ｔ・Ｋホールディングス,,株式会社,鳥取県,米子市,永江５０１番地,,31,202,6830014,,,,,,,2025-12-11,1,,,,,ティーケーホールディングス,0
1747,7290001112486,新規,0,2025-12-11,2025-12-11,ＭＲＭ株式会社,,株式会社,福岡県,小郡市,美鈴の杜１丁目２番地１７,,40,216,8380108,,,,,,,2025-12-11,1,,,,,エムアールエム,0
1748,7290001112511,新規,0,2025-12-11,2025-12-11,株式会社ｗａｖｅ,,株式会社,福岡県,福岡市早良区,百道浜４丁目５－４,,40,137,8140001,,,,,,,2025-12-11,1,,,,,ウェーブ,0
1756,7340001027836,新規,0,2025-12-11,2025-12-11,株式会社ｌａ　ｐｏｈｍ,,株式会社,鹿児島県,鹿児島市,吉野町２３４３番地７,,46,201,8920871,,,,,,,2025-12-11,1,,,,,ラポーム,0
1757,7340003005039,新規,0,2025-12-11,2025-12-11,合同会社ステアライズ,,合同会社,鹿児島県,鹿児島市,下福元町６９３４番地５,,46,201,8910144,,,,,,,2025-12-11,1,,,,,ステアライズ,0
1763,7360001036117,新規,0,2025-12-11,2025-12-11,株式会社アンジ沖縄,,株式会社,沖縄県,那覇市,泊２丁目１７－９－１Ｆ,,47,201,9000012,,,,,,,2025-12-11,1,,,,,アンジオキナワ,0
1768,7370005011040,新規,0,2025-12-11,2025-12-11,医療法人みなみかた歯科医院,,その他の設立登記法人,宮城県,登米市,南方町山成２０７番地６,,04,212,9870401,,,,,,,2025-12-11,1,,,,,ミナミカタシカイイン,0
1772,7380005013036,新規,0,2025-12-11,2025-12-11,郡山市造園緑化協同組合,,その他の設立登記法人,福島県,郡山市,八山田２丁目１４８番地,,07,203,9638052,,,,,,,2025-12-11,1,,,,,コオリヤマシゾウエンリョクカ,0
1781,7430001095840,新規,0,2025-12-11,2025-12-11,株式会社ＡＬＬＷＡＹ,,株式会社,北海道,苫小牧市,有珠の沢町３丁目２０番７号,,01,213,0530842,,,,,,,2025-12-11,1,,,,,オールウェイ,0
1792,7700150133340,新規,0,2025-12-11,2025-12-11,黒田精工健康保険組合,,その他,神奈川県,川崎市幸区,堀川町５８０番地１６,,14,132,2120013,,,,,,,2025-12-11,1,,,,,クロダセイコウケンコウホケンクミアイ,0
1793,7700150133349,新規,0,2025-12-11,2025-12-11,東京鐵鋼健康保険組合,,その他,栃木県,小山市,大字横倉新田５２０番地,,09,208,3230819,,,,,,,2025-12-11,1,,,,,トウキョウテッコウケンコウホケンクミアイ,0
1794,7700150133357,新規,0,2025-12-11,2025-12-11,アルプス技研グループ健康保険組合,,その他,東京都,渋谷区,千駄ヶ谷５丁目２１番１４号,,13,113,1510051,,,,,,,2025-12-11,1,,,,,アルプスギケングループケンコウホケンクミアイ,0
1795,7700150133365,新規,0,2025-12-11,2025-12-11,住友不動産健康保険組合,,その他,東京都,新宿区,西新宿２丁目６番１号,,13,104,1600023,,,,,,,2025-12-11,1,,,,,スミトモフドウサンケンコウホケンクミアイ,0
1796,7700150133373,新規,0,2025-12-11,2025-12-11,そごう・西武健康保険組合,,その他,神奈川県,横浜市西区,高島２丁目１８番１号,,14,103,2200011,,,,,,,2025-12-11,1,,,,,ソゴウセイブケンコウホケンクミアイ,0
1810,8010001260832,新規,0,2025-12-11,2025-12-11,株式会社ノーサイドブルーイング,,株式会社,東京都,中央区,日本橋浜町２丁目４３番９号,,13,102,1030007,,,,,,,2025-12-11,1,,,,,ノーサイドブルーイング,0
1811,8010001260907,新規,0,2025-12-11,2025-12-11,ミーゴ株式会社,,株式会社,東京都,中央区,日本橋室町１丁目１１番１２号日本橋水野ビル７階,,13,102,1030022,,,,,,,2025-12-11,1,,,,,ミーゴ,0
1812,8010001260948,新規,0,2025-12-11,2025-12-11,株式会社ウィルドリーム,,株式会社,東京都,中央区,銀座１丁目１２番４号Ｎ＆ＥＢＬＤ．７階,,13,102,1040061,,,,,,,2025-12-11,1,,,,,ウィルドリーム,0
1813,8010001260972,新規,0,2025-12-11,2025-12-11,ＡＬＯ　Ｃｏｎｓｕｌｔｉｎｇ株式会社,,株式会社,東京都,千代田区,神田小川町３丁目９番地２ＢＩＺＣＯＲＥ神保町８階,,13,101,1010052,,,,,,,2025-12-11,1,,,,,エーエルオーコンサルティング,0
1814,8010001260980,新規,0,2025-12-11,2025-12-11,株式会社アップトランス,,株式会社,東京都,千代田区,内神田２丁目９番６号,,13,101,1010047,,,,,,,2025-12-11,1,,,,,アップトランス,0
1815,8010001261013,新規,0,2025-12-11,2025-12-11,啓林館プロモーション株式会社,,株式会社,東京都,千代田区,神田神保町１丁目４８番地１,,13,101,1010051,,,,,,,2025-12-11,1,,,,,ケイリンカンプロモーション,0
1816,8010003049308,新規,0,2025-12-11,2025-12-11,合同会社またたび日和,,合同会社,東京都,文京区,千駄木５丁目３７番７号,,13,105,1130022,,,,,,,2025-12-11,1,,,,,マタタビビヨリ,0
1817,8010003049605,新規,0,2025-12-11,2025-12-11,合同会社ユアス,,合同会社,東京都,文京区,白山１丁目２４番６号,,13,105,1130001,,,,,,,2025-12-11,1,,,,,ユアス,0
1818,8010003049646,新規,0,2025-12-11,2025-12-11,合同会社ティーツーイー,,合同会社,東京都,文京区,本郷４丁目１番６号１階,,13,105,1130033,,,,,,,2025-12-11,1,,,,,ティーツーイー,0
1819,8010003049662,新規,0,2025-12-11,2025-12-11,合同会社みらい,,合同会社,東京都,千代田区,神田神保町３丁目１１番６号神保町ビル１０階,,13,101,1010051,,,,,,,2025-12-11,1,,,,,ミライ,0
1821,8010005041048,新規,0,2025-12-11,2025-12-11,一般社団法人ＧＭＰＡ,,その他の設立登記法人,東京都,千代田区,有楽町１丁目８番１号,,13,101,1000006,,,,,,,2025-12-11,1,,,,,ジーエムピーエー,0
1822,8010005041056,新規,0,2025-12-11,2025-12-11,一般社団法人潜在動作国際協会,,その他の設立登記法人,東京都,中央区,日本橋室町１丁目１１－１２日本橋水野ビル７階,,13,102,1030022,,,,,,,2025-12-11,1,,,,,センザイドウサコクサイキョウカイ,0
1834,8010401195034,新規,0,2025-12-11,2025-12-11,タチノバ株式会社,,株式会社,東京都,港区,北青山１丁目３－１アールキューブ青山３階,,13,103,1070061,,,,,,,2025-12-11,1,,,,,タチノバ,0
1835,8010401195067,新規,0,2025-12-11,2025-12-11,株式会社ＭＡＢ,,株式会社,東京都,港区,南青山３丁目１－３６青山丸竹ビル６階,,13,103,1070062,,,,,,,2025-12-11,1,,,,,マブ,0
1836,8010401195182,新規,0,2025-12-11,2025-12-11,株式会社ＬＡＳＴＣＡＬＬ,,株式会社,東京都,港区,六本木７丁目９番４号六本木Ｈビル,,13,103,1060032,,,,,,,2025-12-11,1,,,,,ラストコール,0
1840,8010403036715,新規,0,2025-12-11,2025-12-11,新ばし牛かつおか田合同会社,,合同会社,東京都,港区,新橋２丁目１６－１ニューしんばしビル１５,,13,103,1050004,,,,,,,2025-12-11,1,,,,,,0
1841,8010403036756,新規,0,2025-12-11,2025-12-11,合同会社ワイズリンクプラス,,合同会社,東京都,港区,赤坂３丁目１５番９号ＡＣＲビル６階,,13,103,1070052,,,,,,,2025-12-11,1,,,,,ワイズリンクプラス,0
1848,8010701048742,新規,0,2025-12-11,2025-12-11,株式会社ラミトジータ,,株式会社,東京都,品川区,南大井６丁目１１番１０号,,13,109,1400013,,,,,,,2025-12-11,1,,,,,ラミトジータ,0
1864,8011001174106,新規,0,2025-12-11,2025-12-11,株式会社Ｉｎｆｏ　Ｈｕｂ,,株式会社,東京都,渋谷区,道玄坂１丁目１０番８号渋谷道玄坂東急ビル２Ｆ－Ｃ,,13,113,1500043,,,,,,,2025-12-11,1,,,,,インフォハブ,0
1865,8011002000855,新規,0,2025-12-11,2025-12-11,有限会社吾妻屋,,有限会社,東京都,渋谷区,鶯谷町１番６号,,13,113,1500032,,,,,,,2025-12-11,1,,,,,アズマヤ,0
1869,8011003023079,新規,0,2025-12-11,2025-12-11,合同会社Ｍ．Ｏ．Ｄ　ＡＧＥＮＴ,,合同会社,東京都,渋谷区,本町４丁目２２番１０－１１１０号ＰＡＲＫＨＡＢＩＯ渋谷本町レジデンス,,13,113,1510071,,,,,,,2025-12-11,1,,,,,エムオーディエージェント,0
1870,8011005011288,新規,0,2025-12-11,2025-12-11,一般社団法人千本教育基金,,その他の設立登記法人,東京都,渋谷区,渋谷２丁目２１番１号渋谷ヒカリエ３２Ｆ,,13,113,1500002,,,,,,,2025-12-11,1,,,,,センモトキョウイクキキン,0
1877,8011105011667,新規,0,2025-12-11,2025-12-11,特定非営利活動法人子どもの健全な成長のための外あそびを推進する会,,その他の設立登記法人,東京都,新宿区,西新宿３丁目３番１３号西新宿水間ビル２階,,13,104,1600023,,,,,,,2025-12-11,1,,,,,コドモノケンゼンナセイチョウノタメノソトアソビヲスイシンスルカイ,0
1882,8011501032903,新規,0,2025-12-11,2025-12-11,株式会社ＯＢＪＥＴ　ＯＢＪＥＣＴ,,株式会社,東京都,北区,赤羽１丁目７－９赤羽第一葉山ビル４Ｆ,,13,117,1150045,,,,,,,2025-12-11,1,,,,,オブジェオブジェクト,0
1903,8013303007983,新規,0,2025-12-11,2025-12-11,合同会社ときいろ,,合同会社,東京都,豊島区,高田１丁目３４番２０号,,13,116,1710033,,,,,,,2025-12-11,1,,,,,トキイロ,0
1911,8020001166129,新規,0,2025-12-11,2025-12-11,株式会社Ｔｅｓｏｒｏ,,株式会社,神奈川県,横浜市戸塚区,戸塚町３１８５番地５,,14,110,2440003,,,,,,,2025-12-11,1,,,,,テゾーロ,0
1912,8020001166252,新規,0,2025-12-11,2025-12-11,株式会社ジンクス,,株式会社,神奈川県,横浜市鶴見区,馬場５丁目１７番１１号,,14,101,2300076,,,,,,,2025-12-11,1,,,,,ジンクス,0
1923,8021001086985,新規,0,2025-12-11,2025-12-11,株式会社サン・データセンターホールディングス,,株式会社,神奈川県,横須賀市,小川町１４番地１,,14,201,2380004,,,,,,,2025-12-11,1,,,,,サンデータセンターホールディングス,0
1925,8021003016890,新規,0,2025-12-11,2025-12-11,ＣＥＨ合同会社,,合同会社,神奈川県,横須賀市,野比２丁目４４番５号,,14,201,2390841,,,,,,,2025-12-11,1,,,,,シーイーエイチ,0
1934,8030001170030,新規,0,2025-12-11,2025-12-11,株式会社Ａｕｂｅ,,株式会社,埼玉県,さいたま市北区,土呂町２丁目７６番地５,,11,102,3310804,,,,,,,2025-12-11,1,,,,,オーブ,0
1935,8030001170055,新規,0,2025-12-11,2025-12-11,株式会社ジョイロード,,株式会社,埼玉県,朝霞市,大字上内間木４０２番地,,11,227,3510001,,,,,,,2025-12-11,1,,,,,ジョイロード,0
1936,8030003028235,新規,0,2025-12-11,2025-12-11,ＦＱＴＣ　Ｕｒａｗａ合同会社,,合同会社,埼玉県,さいたま市緑区,芝原１丁目８番地１１,,11,109,3360917,,,,,,,2025-12-11,1,,,,,エフキューティーシーウラワ,0
1940,8040001141633,新規,0,2025-12-11,2025-12-11,株式会社サブロエム,,株式会社,千葉県,市原市,出津１１５番地,,12,219,2900042,,,,,,,2025-12-11,1,,,,,サブロエム,0
1943,8040003029125,新規,0,2025-12-11,2025-12-11,合同会社Ｗｅｌｌ　ｂｅ,,合同会社,千葉県,柏市,高田１０２９番地２Ｅ棟,,12,217,2770861,,,,,,,2025-12-11,1,,,,,ウェルビー,0
1944,8040003029133,新規,0,2025-12-11,2025-12-11,合同会社ＳｅｅＤｓ,,合同会社,千葉県,柏市,永楽台２丁目３番２５号,,12,217,2770086,,,,,,,2025-12-11,1,,,,,シーズ,0
1950,8080001027325,新規,0,2025-12-11,2025-12-11,株式会社ＦＪＭ,,株式会社,静岡県,静岡市葵区,福田ケ谷４０６番地の９３,,22,101,4212109,,,,,,,2025-12-11,1,,,,,エフジェイエム,0
1958,8120001282634,新規,0,2025-12-11,2025-12-11,株式会社ＫＯＨＫＩ,,株式会社,大阪府,大阪市西区,立売堀１丁目９番３４－３０４号,,27,106,5500012,,,,,,,2025-12-11,1,,,,,コウキ,0
1959,8120001282642,新規,0,2025-12-11,2025-12-11,株式会社新農商事,,株式会社,大阪府,大阪市淀川区,新北野１丁目１１番１９－１０１号,,27,123,5320025,,,,,,,2025-12-11,1,,,,,シンノウショウジ,0
1982,8140001141053,新規,0,2025-12-11,2025-12-11,株式会社ウェルストーン工業,,株式会社,兵庫県,西宮市,東町１丁目１１番１４号,,28,204,6620922,,,,,,,2025-12-11,1,,,,,ウェルストーンコウギョウ,0
1983,8140001141061,新規,0,2025-12-11,2025-12-11,株式会社ｅ‐ｃｒｅ８＆ｃｏ．,,株式会社,兵庫県,神戸市兵庫区,湊川町２丁目１０番１０号,,28,105,6520041,,,,,,,2025-12-11,1,,,,,イークリエイトアンドコー,0
1984,8140001141078,新規,0,2025-12-11,2025-12-11,つのぐみ株式会社,,株式会社,兵庫県,宝塚市,南口１丁目１６番６号,,28,214,6650011,,,,,,,2025-12-11,1,,,,,ツノグミ,0
1985,8140001141086,新規,0,2025-12-11,2025-12-11,株式会社ＪＯＪＯ,,株式会社,兵庫県,神戸市須磨区,横尾５丁目１番地の１,,28,107,6540131,,,,,,,2025-12-11,1,,,,,ジョジョ,0
1990,8140003022961,新規,0,2025-12-11,2025-12-11,合同会社ハナブサ,,合同会社,兵庫県,宍粟市,山崎町鹿沢１５２番地２,,28,227,6712576,,,,,,,2025-12-11,1,,,,,ハナブサ,0
1991,8150003003779,新規,0,2025-12-11,2025-12-11,合同会社空次,,合同会社,奈良県,奈良市,尼辻中町５番９号,00141845,29,201,6308024,,,,,,,2025-12-11,1,,,,,ソラツグ,0
1999,8180001169850,新規,0,2025-12-11,2025-12-11,ＥＶＡＲＡＩＮ株式会社,,株式会社,愛知県,名古屋市東区,東桜２丁目３番７号東カン名古屋キャステール３４１号室,,23,102,4610005,,,,,,,2025-12-11,1,,,,,エバライン,0
2011,8200001044506,新規,0,2025-12-11,2025-12-11,ＨＤ　Ｇｌｏｂａｌ株式会社,,株式会社,岐阜県,岐阜市,鏡島西２丁目１４番１－１００号鏡島ハイツ,,21,201,5010123,,,,,,,2025-12-11,1,,,,,エイチディグローバル,0
2013,8220001027070,新規,0,2025-12-11,2025-12-11,株式会社北一,,株式会社,石川県,輪島市,二ツ屋町五字３８番地２,,17,204,9280021,,,,,,,2025-12-11,1,,,,,キタイチ,0
2028,8300005007283,新規,0,2025-12-11,2025-12-11,医療法人陽葉会,,その他の設立登記法人,佐賀県,佐賀市,久保田町大字徳万２１００番地１６,,41,201,8490201,,,,,,,2025-12-11,1,,,,,ヒヨウカイ,0
2029,8310001019884,新規,0,2025-12-11,2025-12-11,株式会社Ｋ’ｚ　ＰＬＵＭ,,株式会社,長崎県,佐世保市,新田町４８７番９,,42,202,8580913,,,,,,,2025-12-11,1,,,,,ケーズプラム,0
2031,8320001021492,新規,0,2025-12-11,2025-12-11,大分造景株式会社,,株式会社,大分県,別府市,大字鶴見５７０番地の６,,44,202,8740840,,,,,,,2025-12-11,1,,,,,オオイタゾウケイ,0
2044,8380001035743,新規,0,2025-12-11,2025-12-11,株式会社エルピス,,株式会社,福島県,郡山市,若葉町１９－１３,,07,203,9638011,,,,,,,2025-12-11,1,,,,,エルピス,0
2053,8470001021016,新規,0,2025-12-11,2025-12-11,株式会社ＯＮＥ　ＨＯＲＳＥ,,株式会社,香川県,さぬき市,鴨部１１９７番地１,,37,206,7692104,,,,,,,2025-12-11,1,,,,,ワンホース,0
2056,8480001013037,新規,0,2025-12-11,2025-12-11,ｓｏｗｅｒｓ株式会社,,株式会社,徳島県,小松島市,日開野町字川田５番地の５,,36,203,7730010,,,,,,,2025-12-11,1,,,,,サワーズ,0
2062,8700150133348,新規,0,2025-12-11,2025-12-11,ダイヘン健康保険組合,,その他,大阪府,大阪市淀川区,田川２丁目１番１１号,,27,123,5320027,,,,,,,2025-12-11,1,,,,,ダイヘンケンコウホケンクミアイ,0
2063,8700150133356,新規,0,2025-12-11,2025-12-11,日本経営サエラグループ健康保険組合,,その他,大阪府,豊中市,寺内２丁目４番１号,,27,203,5610872,,,,,,,2025-12-11,1,,,,,ニホンケイエイサエラグループケンコウホケンクミアイ,0
2064,8700150133364,新規,0,2025-12-11,2025-12-11,ＮＩＰＰＯ健康保険組合,,その他,東京都,中央区,京橋１丁目１９番１１号,,13,102,1040031,,,,,,,2025-12-11,1,,,,,ニッポケンコウホケンクミアイ,0
2065,8700150133372,新規,0,2025-12-11,2025-12-11,アルファ健康保険組合,,その他,神奈川県,横浜市金沢区,福浦１丁目６番８号,,14,108,2360004,,,,,,,2025-12-11,1,,,,,アルファケンコウホケンクミアイ,0
2080,9010001260609,新規,0,2025-12-11,2025-12-11,株式会社Ｆｏｃｕｓ　Ｔｅｃｈ,,株式会社,東京都,千代田区,岩本町２丁目３－８エスポーアールビル４Ｆ,,13,101,1010032,,,,,,,2025-12-11,1,,,,,フォーカステック,0
2081,9010001260872,新規,0,2025-12-11,2025-12-11,株式会社Ｎｅｕｔｒａｌ　Ｈｏｓｔ　Ｊａｐａｎ,,株式会社,東京都,千代田区,東神田１丁目１０番４号,,13,101,1010031,,,,,,,2025-12-11,1,,,,,ニュートラルホストジャパン,0
2082,9010001260914,新規,0,2025-12-11,2025-12-11,株式会社Ｅｌｅｖｅｎ‐Ｓｔｕｄｉｏ,,株式会社,東京都,中央区,日本橋室町１丁目１１番１２号日本橋水野ビル７階,,13,102,1030022,,,,,,,2025-12-11,1,,,,,,0
2083,9010001260996,新規,0,2025-12-11,2025-12-11,泰陌美業株式会社,,株式会社,東京都,文京区,西片２丁目１１番１５－２０１号,,13,105,1130024,,,,,,,2025-12-11,1,,,,,タイモーメイギョウ,0
2084,9010001261012,新規,0,2025-12-11,2025-12-11,エディットリンク株式会社,,株式会社,東京都,千代田区,神田神保町１丁目４８番地１,,13,101,1010051,,,,,,,2025-12-11,1,,,,,エディットリンク,0
2085,9010001261020,新規,0,2025-12-11,2025-12-11,スームス株式会社,,株式会社,東京都,千代田区,鍛冶町１丁目２－１５,,13,101,1010044,,,,,,,2025-12-11,1,,,,,スームス,0
2086,9010001261037,新規,0,2025-12-11,2025-12-11,株式会社レーニス,,株式会社,東京都,千代田区,隼町２番１２－１００７号,,13,101,1020092,,,,,,,2025-12-11,1,,,,,レーニス,0
2087,9010001261053,新規,0,2025-12-11,2025-12-11,株式会社八重桜,,株式会社,東京都,中央区,八重洲１丁目５番１７号,,13,102,1030028,,,,,,,2025-12-11,1,,,,,ヤエザクラ,0
2089,9010003049620,新規,0,2025-12-11,2025-12-11,合同会社ＣＬＦ４,,合同会社,東京都,中央区,日本橋１丁目４番１号日本橋一丁目ビルディング,,13,102,1030027,,,,,,,2025-12-11,1,,,,,シーエルエフフォー,0
2090,9010003049637,新規,0,2025-12-11,2025-12-11,京人合同会社,,合同会社,東京都,中央区,銀座１丁目１２番４号Ｎ＆ＥＢＬＤ．６Ｆ,,13,102,1040061,,,,,,,2025-12-11,1,,,,,キョウジン,0
2091,9010003049645,新規,0,2025-12-11,2025-12-11,アルファグリッド合同会社,,合同会社,東京都,中央区,勝どき５丁目３番１－５３２１号,,13,102,1040054,,,,,,,2025-12-11,1,,,,,アルファグリッド,0
2092,9010003049678,新規,0,2025-12-11,2025-12-11,合同会社ペタバイト,,合同会社,東京都,中央区,京橋２丁目１２番６号ＡＯＪ税理士法人内,,13,102,1040031,,,,,,,2025-12-11,1,,,,,ペタバイト,0
2096,9010401195033,新規,0,2025-12-11,2025-12-11,株式会社ＦＵＮＱＵＥＴ,,株式会社,東京都,港区,港南２丁目１５－１品川インターシティＡ棟２８階,,13,103,1080075,,,,,,,2025-12-11,1,,,,,ファンケット,0
2097,9010403036739,新規,0,2025-12-11,2025-12-11,Ｔｈｉｒｄ　Ｗａｖｅ　Ｓｙｓｔｅｍｓ　Ｊａｐａｎ合同会社,,合同会社,東京都,港区,赤坂２丁目２３番１号アークヒルズ・フロントタワーＩｎＣｏｎｔｒｏｌ内,,13,103,1070052,,,,,,,2025-12-11,1,,,,,サードウェーブシステムズジャパン,0
2101,9010701048741,新規,0,2025-12-11,2025-12-11,Ｌｙｎｔｅｒａ株式会社,,株式会社,東京都,品川区,東五反田１丁目１９番４号,,13,109,1410022,,,,,,,2025-12-11,1,,,,,リンテラ,0
2111,9011001171564,新規,0,2025-12-11,2025-12-11,株式会社Ｗｉｎｓｌｏｗ,,株式会社,東京都,目黒区,中町２丁目３８番５号オークテラス２０２号,,13,110,1530065,,,,,,,2025-12-11,1,,,,,ウィンスロウ,0
2112,9011001174105,新規,0,2025-12-11,2025-12-11,Ｍｅｄｉｃａｌ　Ｓｏｆｔ　Ｊａｐａｎ株式会社,,株式会社,東京都,渋谷区,神南１丁目１１－４ＦＰＧリンクス神南５階,,13,113,1500041,,,,,,,2025-12-11,1,,,,,メディカルソフトジャパン,0
2113,9011001174179,新規,0,2025-12-11,2025-12-11,株式会社Ｂｌｏｏｍｔａｎ,,株式会社,東京都,目黒区,下目黒２丁目１４－２０ＷＪＨａｕｓ５０２,,13,110,1530064,,,,,,,2025-12-11,1,,,,,ブルータン,0
2114,9011001174229,新規,0,2025-12-11,2025-12-11,株式会社ロンボス,,株式会社,東京都,渋谷区,恵比寿西１丁目３３番３号光雲閣３０８,,13,113,1500021,,,,,,,2025-12-11,1,,,,,ロンボス,0
2115,9011001174385,新規,0,2025-12-11,2025-12-11,Ｅ‐ＬＩＮＫ　ＪＡＰＡＮ株式会社,,株式会社,東京都,渋谷区,道玄坂１丁目１０番８号渋谷道玄坂東急ビル２Ｆ－Ｃ,,13,113,1500043,,,,,,,2025-12-11,1,,,,,イーリンクジャパン,0
2119,9011101114126,新規,0,2025-12-11,2025-12-11,エアライズ株式会社,,株式会社,東京都,新宿区,西新宿６丁目５番１号新宿アイランドタワー２階,,13,104,1600023,,,,,,,2025-12-11,1,,,,,エアライズ,0
2120,9011101114167,新規,0,2025-12-11,2025-12-11,株式会社ＳｅｃｕＳｈａｒｄ,,株式会社,東京都,新宿区,愛住町２２第三山田ビル５階,,13,104,1600005,,,,,,,2025-12-11,1,,,,,セキュシャード,0
2121,9011103016808,新規,0,2025-12-11,2025-12-11,合同会社是武士,,合同会社,東京都,新宿区,市谷柳町４０－１グリーンパーク市ヶ谷柳町６０３,,13,104,1620061,,,,,,,2025-12-11,1,,,,,シブシ,0
2149,9020001166193,新規,0,2025-12-11,2025-12-11,株式会社ｍｉｕｋ,,株式会社,神奈川県,横浜市神奈川区,台町３－９横浜台町テラス１Ｆ,,14,102,2210834,,,,,,,2025-12-11,1,,,,,ミューク,0
2150,9020001166243,新規,0,2025-12-11,2025-12-11,タンデムワークス株式会社,,株式会社,神奈川県,川崎市高津区,下作延１丁目１－７ｎｏｋｕｔｉｃａ,,14,134,2130033,,,,,,,2025-12-11,1,,,,,タンデムワークス,0
2155,9021001086984,新規,0,2025-12-11,2025-12-11,株式会社ＩＳＯＮＯ,,株式会社,神奈川県,相模原市中央区,宮下２丁目２２番９号グローリーガーデン２１３号,,14,152,2520212,,,,,,,2025-12-11,1,,,,,イソノ,0
2158,9021005013489,新規,0,2025-12-11,2025-12-11,医療法人社団ＯＮＣ,,その他の設立登記法人,神奈川県,藤沢市,辻堂神台１丁目２番１２号Ｌｕｚ湘南辻堂５階５１６－３区画,,14,205,2510041,,,,,,,2025-12-11,1,,,,,オーエヌシー,0
2173,9030003028226,新規,0,2025-12-11,2025-12-11,合同会社まある,,合同会社,埼玉県,さいたま市南区,大字広ヶ谷戸５２－２５,,11,108,3360041,,,,,,,2025-12-11,1,,,,,マアル,0
2174,9030003028242,新規,0,2025-12-11,2025-12-11,Ｌ合同会社,,合同会社,埼玉県,三郷市,東町１７７番地２,,11,237,3410036,,,,,,,2025-12-11,1,,,,,エル,0
2186,9040001141748,新規,0,2025-12-11,2025-12-11,未来設計株式会社,,株式会社,千葉県,千葉市花見川区,幕張町１丁目１３４２番地１,,12,102,2620032,,,,,,,2025-12-11,1,,,,,ミライセッケイ,0
2193,9040005022969,新規,0,2025-12-11,2025-12-11,一般社団法人丹波会,,その他の設立登記法人,千葉県,松戸市,小金原４丁目２２番地の４,,12,207,2700021,,,,,,,2025-12-11,1,,,,,タンバカイ,0
2196,9060001038843,新規,0,2025-12-11,2025-12-11,Ｓｏｒａｌｉｎｋ株式会社,,株式会社,栃木県,那須郡那須町,大字寺子丙１番地２０９,,09,407,3293222,,,,,,,2025-12-11,1,,,,,ソラリンク,0
2206,9070001043644,新規,0,2025-12-11,2025-12-11,株式会社Ｓａｉｌ’ｓ,,株式会社,群馬県,邑楽郡大泉町,西小泉１丁目２６－４,,10,524,3700517,,,,,,,2025-12-11,1,,,,,,0
2211,9100001039192,新規,0,2025-12-11,2025-12-11,株式会社Ｈａｌｕ　ｉｒｏ,,株式会社,長野県,塩尻市,大字広丘野村７１４－２,,20,215,3990702,,,,,,,2025-12-11,1,,,,,ハルイロ,0
2241,9120901051955,新規,0,2025-12-11,2025-12-11,株式会社Ｕｎｉｔｅｄ　ｗｏｒｋｓ,,株式会社,大阪府,豊中市,利倉西１丁目４番２８号,,27,203,5610844,,,,,,,2025-12-11,1,,,,,ユナイテッドワークス,0
2246,9122001039996,新規,0,2025-12-11,2025-12-11,株式会社インテリアひらかわ,,株式会社,大阪府,大東市,諸福７丁目２番１４号,,27,218,5740044,,,,,,,2025-12-11,1,,,,,インテリアヒラカワ,0
2247,9122003003422,新規,0,2025-12-11,2025-12-11,ライフアクセラレーション合同会社,,合同会社,大阪府,東大阪市,小若江１丁目２４番１１号,,27,227,5770818,,,,,,,2025-12-11,1,,,,,ライフアクセラレーション,0
2258,9140001141060,新規,0,2025-12-11,2025-12-11,株式会社Ｒｅｐｌｕｖｄ,,株式会社,兵庫県,神戸市中央区,北長狭通４丁目４－１４ＫＡビル４Ｆ,,28,110,6500012,,,,,,,2025-12-11,1,,,,,リプルヴ,0
2260,9140003022952,新規,0,2025-12-11,2025-12-11,合同会社錦,,合同会社,兵庫県,姫路市,小姓町３５－１船場西ビル２０９,,28,201,6700043,,,,,,,2025-12-11,1,,,,,ニシキ,0
2263,9160001027266,新規,0,2025-12-11,2025-12-11,株式会社Ｃｚ,,株式会社,滋賀県,栗東市,手原３丁目１１番１２号,,25,208,5203047,,,,,,,2025-12-11,1,,,,,シーズ,0
2271,9180001169783,新規,0,2025-12-11,2025-12-11,株式会社あいち動物眼科,,株式会社,愛知県,名古屋市千種区,新池町３丁目１８番地の３,,23,101,4640027,,,,,,,2025-12-11,1,,,,,アイチドウブツガンカ,0
2278,9200001044513,新規,0,2025-12-11,2025-12-11,ＴＥＦ株式会社,,株式会社,岐阜県,揖斐郡揖斐川町,谷汲長瀬４２７番地１,,21,401,5011303,,,,,,,2025-12-11,1,,,,,テフ,0
2295,9270001009344,新規,0,2025-12-11,2025-12-11,池田工業株式会社,,株式会社,鳥取県,倉吉市,虹ケ丘町２０６番地,,31,203,6820036,,,,,,,2025-12-11,1,,,,,イケダコウギョウ,0
2303,9290001112468,新規,0,2025-12-11,2025-12-11,株式会社オブラス,,株式会社,福岡県,福岡市南区,野多目６丁目１番３０号,,40,134,8111347,,,,,,,2025-12-11,1,,,,,オブラス,0
2304,9290001112492,新規,0,2025-12-11,2025-12-11,株式会社筑紫地所,,株式会社,福岡県,筑紫野市,二日市中央２丁目６番５号アビエント４階４０１号室,,40,217,8180072,,,,,,,2025-12-11,1,,,,,チクシジショ,0
2307,9290003017822,新規,0,2025-12-11,2025-12-11,合同会社Ｗ．Ｈ,,合同会社,福岡県,福岡市南区,桧原６丁目２０－９,,40,134,8111355,,,,,,,2025-12-11,1,,,,,ダブリューエイチ,0
2309,9290801032089,新規,0,2025-12-11,2025-12-11,株式会社Ｓｈｉｎ,,株式会社,福岡県,北九州市八幡西区,永犬丸２丁目１番８－８０２号,,40,109,8070851,,,,,,,2025-12-11,1,,,,,シン,0
2310,9290801032097,新規,0,2025-12-11,2025-12-11,株式会社ひらく不動産鑑定,,株式会社,福岡県,京都郡苅田町,大字葛川１３３番地の１,,40,621,8000338,,,,,,,2025-12-11,1,,,,,ヒラクフドウサンカンテイ,0
2316,9340001027834,新規,0,2025-12-11,2025-12-11,株式会社ＶＯＵＬ,,株式会社,鹿児島県,鹿児島市,呉服町３－１９－２Ｆ,,46,201,8920826,,,,,,,2025-12-11,1,,,,,ボウル,0
2318,9360003015463,新規,0,2025-12-11,2025-12-11,合同会社ｓｐａａｒｐｏｔ,,合同会社,沖縄県,中頭郡北中城村,字ライカム５７７番地モンドミオ沖縄リゾートライカムヒルズ８１０号,,47,327,9012306,,,,,,,2025-12-11,1,,,,,スパールポット,0
2323,9380001035742,新規,0,2025-12-11,2025-12-11,株式会社澤上商店,,株式会社,福島県,郡山市,中町６番１４号,,07,203,9638004,,,,,,,2025-12-11,1,,,,,,0
2325,9380003006205,新規,0,2025-12-11,2025-12-11,マルタカ合同会社,,合同会社,福島県,いわき市,平沼ノ内字新街６０番地の１,,07,204,9700222,,,,,,,2025-12-11,1,,,,,マルタカ,0
2332,9430001095797,新規,0,2025-12-11,2025-12-11,株式会社サンフラム,,株式会社,北海道,札幌市中央区,北二条東１丁目３番地３アルファ北２条ビル３階,,01,101,0600032,,,,,,,2025-12-11,1,,,,,サンフラム,0
2337,9470001021015,新規,0,2025-12-11,2025-12-11,株式会社サンワーク,,株式会社,香川県,高松市,由良町６５８番地３,,37,201,7610441,,,,,,,2025-12-11,1,,,,,サンワーク,0
2339,9490001011229,新規,0,2025-12-11,2025-12-11,株式会社森光,,株式会社,高知県,土佐市,蓮池７９０番地３,,39,205,7811105,,,,,,,2025-12-11,1,,,,,モリミツ,0
2341,9490005007017,新規,0,2025-12-11,2025-12-11,医療法人ＯＳ,,その他の設立登記法人,高知県,高知市,福井町８１１番地１,,39,201,7800965,,,,,,,2025-12-11,1,,,,,オーエス,0
2343,9500005008839,新規,0,2025-12-11,2025-12-11,医療法人さくらめんと耳鼻咽喉科,,その他の設立登記法人,愛媛県,松山市,南江戸３丁目１番６０号,,38,201,7900062,,,,,,,2025-12-11,1,,,,,サクラメントジビインコウカ,0
2344,9700150133339,新規,0,2025-12-11,2025-12-11,西部電気健康保険組合,,その他,福岡県,福岡市博多区,博多駅東３丁目７－１,,40,132,8120013,,,,,,,2025-12-11,1,,,,,セイブデンキケンコウホケンクミアイ,0
2345,9700150133347,新規,0,2025-12-11,2025-12-11,京葉ガス健康保険組合,,その他,千葉県,市川市,市川南２丁目８番８号,,12,203,2720033,,,,,,,2025-12-11,1,,,,,ケイヨウガスケンコウホケンクミアイ,0
2346,9700150133355,新規,0,2025-12-11,2025-12-11,内田洋行健康保険組合,,その他,東京都,中央区,新川１丁目１４－１,,13,102,1040033,,,,,,,2025-12-11,1,,,,,ウチダヨウコウケンコウホケンクミアイ,0
2347,9700150133363,新規,0,2025-12-11,2025-12-11,がん研究会健康保険組合,,その他,東京都,江東区,有明３丁目８番３１号,,13,108,1350063,,,,,,,2025-12-11,1,,,,,ガンケンキュウカイケンコウホケンクミアイ,0
2348,9700150133371,新規,0,2025-12-11,2025-12-11,住友不動産ステップ健康保険組合,,その他,東京都,新宿区,西新宿４丁目３２番１２号,,13,104,1600023,,,,,,,2025-12-11,1,,,,,スミトモフドウサンステップケンコウホケンクミアイ,0
