sequenceNumber,corporateNumber,process,correct,updateDate,changeDate,name,nameImageId,kind,prefectureName,cityName,streetNumber,addressImageId,prefectureCode,cityCode,postCode,addressOutside,addressOutsideImageId,closeDate,closeCause,successorCorporateNumber,changeCause,assignmentDate,latest,enName,enPrefectureName,enCityName,enAddressOutside,furigana,hihyoji
15,1010001254287,新規,0,2025-04-18,2025-04-18,兼松シードポート株式会社,,株式会社,東京都,千代田区,丸の内２丁目７番２号,,13,101,1000005,,,,,,,2025-04-18,1,,,,,カネマツシードポート,0
16,1010001254320,新規,0,2025-04-18,2025-04-18,株式会社ＡＲＣＡＮＡ,,株式会社,東京都,中央区,銀座７丁目１３番６号サガミビル２階,,13,102,1040061,,,,,,,2025-04-18,1,,,,,アルカナ,0
31,1010401189612,新規,0,2025-04-18,2025-04-18,ララプライムリアルティ株式会社,,株式会社,東京都,港区,六本木６丁目１０番１号六本木ヒルズ森タワー１６Ｆ,,13,103,1060032,,,,,,,2025-04-18,1,,,,,ララプライムリアルティ,0
32,1010403034832,新規,0,2025-04-18,2025-04-18,ＬＭＮ合同会社,,合同会社,東京都,港区,高輪１丁目４番１０－２２０１号,,13,103,1080074,,,,,,,2025-04-18,1,,,,,エルエムエヌ,0
33,1010403034865,新規,0,2025-04-18,2025-04-18,ＧｉＢＢＯＲｉＭ合同会社,,合同会社,東京都,港区,赤坂４丁目８番１９号赤坂フロントタウン３階,,13,103,1070052,,,,,,,2025-04-18,1,,,,,ギボリム,0
38,1010603011499,新規,0,2025-04-18,2025-04-18,合同会社のれんず,,合同会社,東京都,墨田区,両国１丁目１６番７号,,13,107,1300026,,,,,,,2025-04-18,1,,,,,ノレンズ,0
40,1010701047577,新規,0,2025-04-18,2025-04-18,株式会社Ａｄｏｒｙ,,株式会社,東京都,品川区,荏原６丁目１－９,,13,109,1420063,,,,,,,2025-04-18,1,,,,,アドリー,0
41,1010703007678,新規,0,2025-04-18,2025-04-18,合同会社はんなえすていと,,合同会社,東京都,品川区,大崎２丁目９番２－６１５号,,13,109,1410032,,,,,,,2025-04-18,1,,,,,ハンナエステイト,0
44,1010801036059,新規,0,2025-04-18,2025-04-18,株式会社Ｎ．Ｄ．Ｉ,,株式会社,東京都,大田区,西蒲田４丁目１９番４号,,13,111,1440051,,,,,,,2025-04-18,1,,,,,エヌディーアイ,0
50,1010903009862,新規,0,2025-04-18,2025-04-18,合同会社ジーガレージシェイクスピア道,,合同会社,東京都,世田谷区,等々力６丁目９番６号,,13,112,1580082,,,,,,,2025-04-18,1,,,,,ジーガレージシェイクスピアドウ,0
54,1011001168691,新規,0,2025-04-18,2025-04-18,株式会社ＳＵＮＮＹ　ＲＯＣＫＳ,,株式会社,東京都,渋谷区,道玄坂１丁目１０番８号渋谷道玄坂東急ビル２Ｆ－Ｃ,,13,113,1500043,,,,,,,2025-04-18,1,,,,,サニーロックス,0
55,1011001168923,新規,0,2025-04-18,2025-04-18,株式会社レコードアンドメモリーズ,,株式会社,東京都,目黒区,青葉台１丁目２０番４号フォースビル１階,,13,110,1530042,,,,,,,2025-04-18,1,,,,,レコードアンドメモリーズ,0
56,1011001168989,新規,0,2025-04-18,2025-04-18,株式会社ｍｅｏｗ　ｍｅｏｗ　ｒｅｃｏｒｄｓ,,株式会社,東京都,渋谷区,渋谷２丁目１９－２５宮益坂ビルディング６０９,,13,113,1500002,,,,,,,2025-04-18,1,,,,,ミャウミャウレコーズ,0
57,1011001169013,新規,0,2025-04-18,2025-04-18,セットミーフリーホールディングス株式会社,,株式会社,東京都,渋谷区,渋谷２丁目７－１４ＶＯＲＴ・ＡＯＹＡＭＡ３０２,,13,113,1500002,,,,,,,2025-04-18,1,,,,,セットミーフリーホールディングス,0
59,1011003021279,新規,0,2025-04-18,2025-04-18,合同会社Ｆｒｏｇコンサルティング,,合同会社,東京都,渋谷区,渋谷２丁目１９－１５宮益坂ビルディング６０９,,13,113,1500002,,,,,,,2025-04-18,1,,,,,フロッグコンサルティング,0
63,1011101111428,新規,0,2025-04-18,2025-04-18,株式会社ＪＩＳＥＫＩ,,株式会社,東京都,新宿区,歌舞伎町２丁目３－２１明治通りビル１００２,,13,104,1600021,,,,,,,2025-04-18,1,,,,,ジセキ,0
64,1011301030502,新規,0,2025-04-18,2025-04-18,株式会社ＫＢＤ,,株式会社,東京都,杉並区,高井戸東３丁目２９－１５ＫＹビル２階,,13,115,1680072,,,,,,,2025-04-18,1,,,,,ケービーデー,0
66,1011303005519,新規,0,2025-04-18,2025-04-18,合同会社影虎,,合同会社,東京都,杉並区,井草３丁目２５番６号,,13,115,1670021,,,,,,,2025-04-18,1,,,,,カゲトラ,0
71,1011403004676,新規,0,2025-04-18,2025-04-18,スプレディア合同会社,,合同会社,東京都,板橋区,東坂下１丁目１９－２４志幸４２シャンソン４０９号,,13,119,1740042,,,,,,,2025-04-18,1,,,,,スプレディア,0
76,1011603004674,新規,0,2025-04-18,2025-04-18,合同会社Ｕｎｄｏｎｅ,,合同会社,東京都,練馬区,桜台３丁目４３番１３号ファミリーテラス桜台Ｂ－２,,13,120,1760002,,,,,,,2025-04-18,1,,,,,アンダーン,0
86,1012401042998,新規,0,2025-04-18,2025-04-18,株式会社美翔工業,,株式会社,東京都,府中市,住吉町１丁目７番地の２,,13,206,1830034,,,,,,,2025-04-18,1,,,,,ミショウコウギョウ,0
88,1012403007082,新規,0,2025-04-18,2025-04-18,合同会社Ａ３,,合同会社,東京都,小金井市,貫井南町４丁目１番７号友好荘１０１号室,,13,210,1840014,,,,,,,2025-04-18,1,,,,,エースリー,0
96,1013305003707,新規,0,2025-04-18,2025-04-18,社会保険労務士法人曽田事務所,,その他の設立登記法人,東京都,豊島区,池袋１丁目８－７サン池袋Ｉ４０１,00138843,13,116,1700014,,,,,,,2025-04-18,1,,,,,ソダジムショ,0
107,1020001162448,新規,0,2025-04-18,2025-04-18,株式会社スマートライフラボ,,株式会社,神奈川県,横浜市西区,高島１丁目２番５号,,14,103,2200011,,,,,,,2025-04-18,1,,,,,スマートライフラボ,0
108,1020001162464,新規,0,2025-04-18,2025-04-18,株式会社Ｔ‐ＣＬＯＵＤ,,株式会社,神奈川県,横浜市都筑区,北山田１丁目９番３号ＥＫＩＮＩＷＡ・ＫＩＴＡＹＡＭＡＴＡ－１Ｆ,,14,118,2240021,,,,,,,2025-04-18,1,,,,,ティークラウド,0
113,1021001084962,新規,0,2025-04-18,2025-04-18,マーロウビジネスソリューション株式会社,,株式会社,神奈川県,逗子市,逗子１丁目４番２号銀の塔ビル２階,,14,208,2490006,,,,,,,2025-04-18,1,,,,,マーロウビジネスソリューション,0
114,1021001084995,新規,0,2025-04-18,2025-04-18,株式会社ＷＩＮＭＡＸ,,株式会社,神奈川県,秦野市,堀西９７７番地の４メゾン梓２０１号,,14,211,2591331,,,,,,,2025-04-18,1,,,,,ウィンマックス,0
128,1030003026567,新規,0,2025-04-18,2025-04-18,合同会社自由Ｇｉｎ,,合同会社,埼玉県,朝霞市,溝沼２丁目７－１４－３,,11,227,3510023,,,,,,,2025-04-18,1,,,,,ジユウジン,0
129,1030003026609,新規,0,2025-04-18,2025-04-18,合同会社バディオン,,合同会社,埼玉県,川口市,栄町３丁目２番１５－２０７川口ファミリーマンション,,11,203,3320017,,,,,,,2025-04-18,1,,,,,バディオン,0
135,1040001138388,新規,0,2025-04-18,2025-04-18,株式会社Ｔ・ＲＯＯＴ,,株式会社,千葉県,船橋市,上山町１丁目１０４番地パルテノンＦ３０５号室,,12,204,2730046,,,,,,,2025-04-18,1,,,,,ティールート,0
140,1040003027267,新規,0,2025-04-18,2025-04-18,合同会社Ｂ‐Ｐｌａｎｅｔ,,合同会社,千葉県,市川市,菅野４丁目７番２８号ＤＥＬＩＧＨＴ・ＰＯＲＴＥＲ・Ａ号,,12,203,2720824,,,,,,,2025-04-18,1,,,,,ビープラネット,0
153,1060001038116,新規,0,2025-04-18,2025-04-18,株式会社Ｙ’ｓ,,株式会社,栃木県,足利市,助戸仲町５４０番地３・１０１号室,,09,202,3260043,,,,,,,2025-04-18,1,,,,,ワイズ,0
164,1110001039199,新規,0,2025-04-18,2025-04-18,フューチャーセンス株式会社,,株式会社,新潟県,新潟市中央区,本町通６番町１１４１－１ストークビル新潟一番館３階バーチャルオフィス３１７号室,,15,103,9518067,,,,,,,2025-04-18,1,,,,,フューチャーセンス,0
173,1120001274679,新規,0,2025-04-18,2025-04-18,ＡＲＫＳ　ＷＡＹ　ＪＡＰＡＮ株式会社,,株式会社,大阪府,大阪市鶴見区,浜３丁目１２番４－８０１号,,27,124,5380035,,,,,,,2025-04-18,1,,,,,アークスウェイジャパン,0
174,1120001274704,新規,0,2025-04-18,2025-04-18,金宇株式会社,,株式会社,大阪府,大阪市都島区,都島北通１丁目１番５号サンエール都島３０３号室,,27,102,5340014,,,,,,,2025-04-18,1,,,,,キンウ,0
175,1120001274720,新規,0,2025-04-18,2025-04-18,Ｂａｍｂｌａ　Ｔｅａ株式会社,,株式会社,大阪府,大阪市北区,本庄西２丁目２番４号,,27,127,5310073,,,,,,,2025-04-18,1,,,,,バンブラティー,0
176,1120001274737,新規,0,2025-04-18,2025-04-18,株式会社グリーンウッド,,株式会社,大阪府,大阪市住之江区,緑木２丁目４番２０号,,27,125,5590022,,,,,,,2025-04-18,1,,,,,グリーンウッド,0
181,1120101071489,新規,0,2025-04-18,2025-04-18,株式会社グランジャム,,株式会社,大阪府,松原市,天美東２丁目８５番地の１,,27,217,5800032,,,,,,,2025-04-18,1,,,,,グランジャム,0
182,1120101071497,新規,0,2025-04-18,2025-04-18,株式会社大阪ヌワコット,,株式会社,大阪府,堺市堺区,向陵東町３丁２番９号,,27,141,5900025,,,,,,,2025-04-18,1,,,,,オオサカヌワコット,0
184,1120901050725,新規,0,2025-04-18,2025-04-18,株式会社優光,,株式会社,大阪府,高槻市,堤町４番２８号,,27,207,5690047,,,,,,,2025-04-18,1,,,,,ユウコウ,0
185,1120901050733,新規,0,2025-04-18,2025-04-18,ＫＲエステート株式会社,,株式会社,大阪府,高槻市,北大樋町４９番２６号,00138832,27,207,5690041,,,,,,,2025-04-18,1,,,,,ケイアールエステート,0
191,1130001079466,新規,0,2025-04-18,2025-04-18,株式会社はく福,,株式会社,京都府,京都市右京区,太秦土本町１番地１ミサトハイツ１０２号室,,26,108,6168147,,,,,,,2025-04-18,1,,,,,ハクフク,0
201,1160001026696,新規,0,2025-04-18,2025-04-18,株式会社叶,,株式会社,滋賀県,草津市,大路１丁目３番１２号,,25,206,5250032,,,,,,,2025-04-18,1,,,,,カナウ,0
205,1180001166375,新規,0,2025-04-18,2025-04-18,株式会社マジカルジェニック,,株式会社,愛知県,名古屋市北区,柳原２丁目３番１１号,,23,103,4620845,,,,,,,2025-04-18,1,,,,,マジカルジェニック,0
206,1180001166474,新規,0,2025-04-18,2025-04-18,株式会社ブルーフィナンシャルパートナーズ,,株式会社,愛知県,名古屋市東区,東桜２丁目３番７号,,23,102,4610005,,,,,,,2025-04-18,1,,,,,ブルーフィナンシャルパートナーズ,0
208,1180003028342,新規,0,2025-04-18,2025-04-18,Ｈｏｔ　Ｃｏｎｓｕｌｔｉｎｇ合同会社,,合同会社,愛知県,一宮市,開明字東石亀２１番地４,,23,203,4940001,,,,,,,2025-04-18,1,,,,,ホットコンサルティング,0
209,1180003028350,新規,0,2025-04-18,2025-04-18,合同会社サンライズ,,合同会社,愛知県,名古屋市北区,田幡２丁目１３番３７号,,23,103,4620843,,,,,,,2025-04-18,1,,,,,サンライズ,0
210,1180005021064,新規,0,2025-04-18,2025-04-18,一般社団法人ＮＵｔｄ,,その他の設立登記法人,愛知県,名古屋市天白区,平針台１丁目２００４番地,,23,116,4680030,,,,,,,2025-04-18,1,,,,,ナンザンユナイテッド,0
213,1180303006535,新規,0,2025-04-18,2025-04-18,ＴＫＣ合同会社,,合同会社,愛知県,刈谷市,青山町１丁目１５１－１５,,23,210,4480014,,,,,,,2025-04-18,1,,,,,ティーケーシー,0
216,1190005012038,新規,0,2025-04-18,2025-04-18,一般社団法人四日市子ども育成ネットワーク,,その他の設立登記法人,三重県,四日市市,安島１丁目７番１５号ＢＯＮビル２階,,24,202,5100075,,,,,,,2025-04-18,1,,,,,ヨッカイチコドモイクセイネットワーク,0
220,1200001043654,新規,0,2025-04-18,2025-04-18,株式会社ＭａＮａｎｎ,,株式会社,岐阜県,関市,巾２丁目１９８番地８,,21,205,5013256,,,,,,,2025-04-18,1,,,,,マナン,0
224,1220001026632,新規,0,2025-04-18,2025-04-18,株式会社カイデン,,株式会社,石川県,鹿島郡中能登町,春木１２部３番地,,17,407,9291703,,,,,,,2025-04-18,1,,,,,カイデン,0
226,1220005008949,新規,0,2025-04-18,2025-04-18,医療法人社団翔,,その他の設立登記法人,石川県,金沢市,窪５丁目５５０番地,,17,201,9218151,,,,,,,2025-04-18,1,,,,,ハバタキ,0
230,1240001064804,新規,0,2025-04-18,2025-04-18,朝野商事株式会社,,株式会社,広島県,府中市,府中町１４２番地５,,34,208,7260005,,,,,,,2025-04-18,1,,,,,アサノショウジ,0
231,1240001064820,新規,0,2025-04-18,2025-04-18,株式会社ＭＵＦＡＳＡ,,株式会社,広島県,広島市佐伯区,五日市１丁目８番２‐３０号,,34,108,7315127,,,,,,,2025-04-18,1,,,,,ムファサ,0
243,1260003005143,新規,0,2025-04-18,2025-04-18,合同会社明東,,合同会社,岡山県,岡山市北区,南方４丁目１１番３０号２０４号室,,33,101,7000807,,,,,,,2025-04-18,1,,,,,メイトウ,0
244,1270001009186,新規,0,2025-04-18,2025-04-18,株式会社フリースタイルワーク,,株式会社,鳥取県,鳥取市,南町４１３番地,,31,201,6800814,,,,,,,2025-04-18,1,,,,,フリースタイルワーク,0
245,1290001109744,新規,0,2025-04-18,2025-04-18,株式会社メディカルサポート福岡,,株式会社,福岡県,福岡市博多区,寿町３丁目３番３３－１２０１号,,40,132,8120884,,,,,,,2025-04-18,1,,,,,メディカルサポートフクオカ,0
253,1310001019560,新規,0,2025-04-18,2025-04-18,株式会社色彩農園,,株式会社,長崎県,西彼杵郡時津町,日並郷３６５０番地,,42,308,8512108,,,,,,,2025-04-18,1,,,,,シキサイノウエン,0
262,1330003010961,新規,0,2025-04-18,2025-04-18,合同会社ＭＡＲＢＬＵ,,合同会社,熊本県,阿蘇郡西原村,大字河原２２３０番地１４クリアコート３号室,,43,432,8612404,,,,,,,2025-04-18,1,,,,,マーブル,0
264,1340005009852,新規,0,2025-04-18,2025-04-18,一般社団法人薩摩文化普及の会,,その他の設立登記法人,鹿児島県,鹿児島市,東千石町１４番２号シオタ電器ビル６階,,46,201,8920842,,,,,,,2025-04-18,1,,,,,サツマブンカフキュウノカイ,0
265,1350001019490,新規,0,2025-04-18,2025-04-18,株式会社いえものこと,,株式会社,宮崎県,宮崎市,橘通東４丁目１番４号,,45,201,8800805,,,,,,,2025-04-18,1,,,,,イエモノコト,0
271,1370003007038,新規,0,2025-04-18,2025-04-18,合同会社Ｓｏｕｎｄｓｃａｐｅ,,合同会社,宮城県,仙台市青葉区,川平４丁目２６番２５号,,04,101,9810954,,,,,,,2025-04-18,1,,,,,サウンドスケープ,0
272,1370003007046,新規,0,2025-04-18,2025-04-18,合同会社Ｗｉｌｌｉｎｇｌｙ,,合同会社,宮城県,仙台市宮城野区,二十人町１５６番地セントフィールド榴ヶ岡アネックス４０２,,04,102,9830862,,,,,,,2025-04-18,1,,,,,ウイングリー,0
275,1400001017010,新規,0,2025-04-18,2025-04-18,ＬＥＮＤＳ　ＷＯＲＫ株式会社,,株式会社,岩手県,花巻市,東和町土沢６区２番地,,03,205,0280114,,,,,,,2025-04-18,1,,,,,レンズワーク,0
278,1450001014597,新規,0,2025-04-18,2025-04-18,株式会社ＰＬＵＳ,,株式会社,北海道,旭川市,豊岡十条１０丁目３番１号,,01,204,0788240,,,,,,,2025-04-18,1,,,,,プラス,0
283,1500005008788,新規,0,2025-04-18,2025-04-18,企業組合ツガザクラ,,その他の設立登記法人,愛媛県,新居浜市,別子山乙４３５－１２,,38,205,7990650,,,,,,,2025-04-18,1,,,,,ツガザクラ,0
284,1700150129996,新規,0,2025-04-18,2025-04-18,国際繊維科技有限公司,,外国会社等,,,,,,,,台湾台北市松山區敦化北路４巷２５弄１號,,,,,,2025-04-18,1,,,,,コクサイセンイカギユウゲンコウシ,0
298,2010001253817,新規,0,2025-04-18,2025-04-18,旭アプス株式会社,,株式会社,東京都,中央区,東日本橋２丁目１５番７－１１０２号,,13,102,1030004,,,,,,,2025-04-18,1,,,,,アサヒアプス,0
299,2010001254237,新規,0,2025-04-18,2025-04-18,株式会社ＭＳＨ,,株式会社,東京都,中央区,銀座７丁目１５番８号タウンハイツ銀座４０６,,13,102,1040061,,,,,,,2025-04-18,1,,,,,エムエスエイチ,0
300,2010001254278,新規,0,2025-04-18,2025-04-18,株式会社マーベナスクリマ,,株式会社,東京都,千代田区,神田和泉町１番地６－１６ヤマトビル４０５,,13,101,1010024,,,,,,,2025-04-18,1,,,,,マーベナスクリマ,0
303,2010003047110,新規,0,2025-04-18,2025-04-18,合同会社フィルム日和,,合同会社,東京都,千代田区,岩本町３丁目１０－７東自機ビル７Ｆ,,13,101,1010032,,,,,,,2025-04-18,1,,,,,フィルムビヨリ,0
304,2010005039931,新規,0,2025-04-18,2025-04-18,特定非営利活動法人ウクライナ文化センターＵＫＲＡＩＮＥ　ＨＯＵＳＥ　ＪＡＰＡＮ,,その他の設立登記法人,東京都,中央区,銀座６丁目６番１号銀座風月堂ビル５Ｆ,,13,102,1040061,,,,,,,2025-04-18,1,,,,,ウクライナブンカセンターウクライナハウスジャパン,0
312,2010401189611,新規,0,2025-04-18,2025-04-18,株式会社ＡＲ　ｂｒａｎｄ,,株式会社,東京都,港区,六本木３丁目２番２－５０６号,,13,103,1060032,,,,,,,2025-04-18,1,,,,,アールブランド,0
316,2010703007677,新規,0,2025-04-18,2025-04-18,合同会社早武淳事務所,,合同会社,東京都,品川区,戸越１丁目１４番１２号,,13,109,1420041,,,,,,,2025-04-18,1,,,,,ハヤタケジュンジムショ,0
317,2010801036058,新規,0,2025-04-18,2025-04-18,株式会社ユタエンシス,,株式会社,東京都,大田区,西蒲田１丁目１３番１４号,,13,111,1440051,,,,,,,2025-04-18,1,,,,,ユタエンシス,0
327,2011001169012,新規,0,2025-04-18,2025-04-18,株式会社ヤエノワ,,株式会社,東京都,目黒区,下目黒１丁目１番１４号コノトラビル７Ｆ,,13,110,1530064,,,,,,,2025-04-18,1,,,,,ヤエノワ,0
336,2011101111377,新規,0,2025-04-18,2025-04-18,株式会社ＤＯＣＣＩ,,株式会社,東京都,新宿区,新宿１丁目３６番２号新宿第七葉山ビル３Ｆ,,13,104,1600022,,,,,,,2025-04-18,1,,,,,ドッチ,0
338,2011301030501,新規,0,2025-04-18,2025-04-18,株式会社Ｅｘｅｌｌｉｇｈｔ,,株式会社,東京都,杉並区,高井戸東３丁目２９－１５．２階,,13,115,1680072,,,,,,,2025-04-18,1,,,,,エクセライト,0
340,2011503006497,新規,0,2025-04-18,2025-04-18,５ＣＨＯＣＯ　ＤＥＳＩＧＮ　ＷＯＲＫＳ合同会社,,合同会社,東京都,北区,志茂３丁目３６番６号,,13,117,1150042,,,,,,,2025-04-18,1,,,,,ゴチョコデザインワークス,0
344,2011801045965,新規,0,2025-04-18,2025-04-18,山羊速度管理株式会社,,株式会社,東京都,足立区,青井３丁目５番２６－６３０号,,13,121,1200012,,,,,,,2025-04-18,1,,,,,ヤギソクドカンリ,0
351,2013301054091,新規,0,2025-04-18,2025-04-18,天球株式会社,,株式会社,東京都,豊島区,東池袋２丁目６２－８,,13,116,1700013,,,,,,,2025-04-18,1,,,,,テンキュウ,0
352,2013301054174,新規,0,2025-04-18,2025-04-18,ライジングサポート株式会社,,株式会社,東京都,豊島区,池袋２丁目５３番１２号ノーブル池袋５階,,13,116,1710014,,,,,,,2025-04-18,1,,,,,ライジングサポート,0
359,2020001162439,新規,0,2025-04-18,2025-04-18,株式会社Ｎａｉｔｏｎｉｃ,,株式会社,神奈川県,横浜市西区,みなとみらい３丁目７番１号８Ｆ,,14,103,2200012,,,,,,,2025-04-18,1,,,,,ナイトニック,0
368,2021005013347,新規,0,2025-04-18,2025-04-18,医療法人社団青天会,,その他の設立登記法人,神奈川県,厚木市,戸室５丁目３１番１号アツギトレリス３階２－６,00138827,14,212,2430031,,,,,,,2025-04-18,1,,,,,セイテンカイ,0
375,2030001166059,新規,0,2025-04-18,2025-04-18,株式会社ＵＮＩＯＮ　ＷＯＲＫＳ,,株式会社,埼玉県,さいたま市南区,大字大谷口７９６番地８７,,11,108,3360042,,,,,,,2025-04-18,1,,,,,ユニオンワークス,0
376,2030001166067,新規,0,2025-04-18,2025-04-18,株式会社グランド住設,,株式会社,埼玉県,三郷市,彦成２丁目３６７番地１,,11,237,3410003,,,,,,,2025-04-18,1,,,,,グランドジュウセツ,0
382,2030003026566,新規,0,2025-04-18,2025-04-18,合同会社ルナマーケティング,,合同会社,埼玉県,所沢市,並木７丁目１番地３－４０３,,11,208,3590042,,,,,,,2025-04-18,1,,,,,ルナマーケティング,0
386,2040001138354,新規,0,2025-04-18,2025-04-18,株式会社Ｈｉｍｍｅｌ,,株式会社,千葉県,柏市,柏３丁目３番１８号ＨＡＬＢＬＤ２Ｆ,,12,217,2770005,,,,,,,2025-04-18,1,,,,,ヒンメル,0
387,2040001138370,新規,0,2025-04-18,2025-04-18,株式会社新桂林コーポレーション,,株式会社,千葉県,習志野市,大久保１丁目２３番１１号１Ｆ,,12,216,2750011,,,,,,,2025-04-18,1,,,,,シンケイリンコーポレーション,0
388,2040001138379,新規,0,2025-04-18,2025-04-18,Ａｓｉａｎａ　Ｆｕｓｉｏｎ株式会社,,株式会社,千葉県,松戸市,常盤平４丁目３番地の１２レクセルマンション常盤平さくら通り６０１号,,12,207,2702261,,,,,,,2025-04-18,1,,,,,アシアナフュージョン,0
389,2040001138387,新規,0,2025-04-18,2025-04-18,株式会社忍商会,,株式会社,千葉県,成田市,本三里塚１７１番地９７,,12,211,2860118,,,,,,,2025-04-18,1,,,,,シノブショウカイ,0
390,2040001138404,新規,0,2025-04-18,2025-04-18,株式会社爆売れラボ,,株式会社,千葉県,船橋市,藤原５丁目１２番３１号,,12,204,2730047,,,,,,,2025-04-18,1,,,,,バクウレラボ,0
394,2040003027373,新規,0,2025-04-18,2025-04-18,合同会社ともだち,,合同会社,千葉県,船橋市,上山町２丁目２６４－２,,12,204,2730046,,,,,,,2025-04-18,1,,,,,トモダチ,0
397,2050001056522,新規,0,2025-04-18,2025-04-18,株式会社ＯＫテクノ,,株式会社,茨城県,高萩市,大字石滝２２０７番地の９,,08,214,3180022,,,,,,,2025-04-18,1,,,,,オーケーテクノ,0
402,2060001038107,新規,0,2025-04-18,2025-04-18,株式会社アストラ,,株式会社,栃木県,宇都宮市,河原町１番４０号,,09,201,3200822,,,,,,,2025-04-18,1,,,,,アストラ,0
410,2080101025449,新規,0,2025-04-18,2025-04-18,株式会社ＧＲＯＷＴＨ,,株式会社,静岡県,富士市,中丸３４９番地の１,,22,210,4160933,,,,,,,2025-04-18,1,,,,,グロウス,0
411,2090001019211,新規,0,2025-04-18,2025-04-18,株式会社ＳＯＲＩＮ,,株式会社,山梨県,南都留郡道志村,字堰口１１５９４番地乙,,19,422,4020200,,,,,,,2025-04-18,1,,,,,ソーリン,0
429,2120001274703,新規,0,2025-04-18,2025-04-18,ニッケン・ジャパン株式会社,,株式会社,大阪府,枚方市,渚南町３９番２８－１０２号,,27,210,5731183,,,,,,,2025-04-18,1,,,,,ニッケンジャパン,0
430,2120001274711,新規,0,2025-04-18,2025-04-18,株式会社ＯＳＧ　ＣＡＰＩＴＡＬ,,株式会社,大阪府,大阪市住之江区,平林南１丁目８番４号,,27,125,5590025,,,,,,,2025-04-18,1,,,,,オーエスジーキャピタル,0
431,2120001274736,新規,0,2025-04-18,2025-04-18,株式会社ＭＯＮＤＥ,,株式会社,大阪府,大阪市中央区,本町橋２番２３号１２３７号室,,27,128,5400029,,,,,,,2025-04-18,1,,,,,モンド,0
432,2120001274752,新規,0,2025-04-18,2025-04-18,玖藤株式会社,,株式会社,大阪府,大阪市東淀川区,東中島２丁目１９番１４号５Ａ,,27,114,5330033,,,,,,,2025-04-18,1,,,,,キュウトウ,0
433,2120001274983,新規,0,2025-04-18,2025-04-18,株式会社ＴＮ,,株式会社,大阪府,大阪市東住吉区,住道矢田５丁目８－２０,,27,121,5460022,,,,,,,2025-04-18,1,,,,,ティーエヌ,0
437,2120003029163,新規,0,2025-04-18,2025-04-18,合同会社キャトル,,合同会社,大阪府,枚方市,堂山１丁目４３－１０,,27,210,5730007,,,,,,,2025-04-18,1,,,,,キャトル,0
440,2120101071488,新規,0,2025-04-18,2025-04-18,株式会社カイシュウデザイン,,株式会社,大阪府,松原市,南新町１丁目２番９号,,27,217,5800023,,,,,,,2025-04-18,1,,,,,カイシュウデザイン,0
444,2120901050732,新規,0,2025-04-18,2025-04-18,株式会社キャリーワークス,,株式会社,大阪府,池田市,神田２丁目１番３４－４０３号,,27,204,5630043,,,,,,,2025-04-18,1,,,,,キャリーワークス,0
446,2120903005619,新規,0,2025-04-18,2025-04-18,ＢＬＯＮＤＥＬ合同会社,,合同会社,大阪府,箕面市,百楽荘１丁目２番７号,,27,220,5620042,,,,,,,2025-04-18,1,,,,,ブロンデル,0
451,2130001079465,新規,0,2025-04-18,2025-04-18,株式会社ＤＣプランニング,,株式会社,京都府,京都市下京区,仏光寺通烏丸東入上柳町３３１番地,,26,106,6008099,,,,,,,2025-04-18,1,,,,,ディーシープランニング,0
455,2130005017347,新規,0,2025-04-18,2025-04-18,一般社団法人光ノ庭,,その他の設立登記法人,京都府,京都市北区,大宮釈迦谷１０番地１２８,,26,101,6038478,,,,,,,2025-04-18,1,,,,,ヒカリノニワ,0
457,2140001138162,新規,0,2025-04-18,2025-04-18,株式会社さいえん,,株式会社,兵庫県,宍粟市,一宮町杉田４６０番地,,28,227,6714139,,,,,,,2025-04-18,1,,,,,サイエン,0
458,2140003021936,新規,0,2025-04-18,2025-04-18,ＭＮＴ合同会社,,合同会社,兵庫県,姫路市,東山３９４番地１４,,28,201,6728014,,,,,,,2025-04-18,1,,,,,エムエヌティー,0
459,2140005027469,新規,0,2025-04-18,2025-04-18,一般社団法人日本ネヘミヤ・リーダー同行運動,,その他の設立登記法人,兵庫県,神戸市兵庫区,上庄通３丁目１番１－２Ｃ,,28,105,6520862,,,,,,,2025-04-18,1,,,,,ニホンネヘミヤリーダードウコウウンドウ,0
462,2160001026695,新規,0,2025-04-18,2025-04-18,株式会社みなみ開発,,株式会社,滋賀県,守山市,守山６丁目１番１－２０２号,,25,207,5240022,,,,,,,2025-04-18,1,,,,,ミナミカイハツ,0
473,2180001166408,新規,0,2025-04-18,2025-04-18,株式会社灯,,株式会社,愛知県,名古屋市中村区,名駅南２丁目７番８号（ＮＡＧＯＹＡｔｈｅＴＯＷＥＲ２５１１）,,23,105,4500003,,,,,,,2025-04-18,1,,,,,アカリ,0
474,2180001166457,新規,0,2025-04-18,2025-04-18,株式会社ノーヴァス,,株式会社,愛知県,名古屋市昭和区,花見通３丁目１６番地の１,,23,107,4660831,,,,,,,2025-04-18,1,,,,,ノーヴァス,0
477,2180003028333,新規,0,2025-04-18,2025-04-18,合同会社ＡＲＰ,,合同会社,愛知県,名古屋市中村区,名駅３丁目４－１０アルティメイト名駅１ｓｔ２階,,23,105,4500002,,,,,,,2025-04-18,1,,,,,エーアールピー,0
483,2180301039718,新規,0,2025-04-18,2025-04-18,株式会社ＷＩＴＨホールディングス,,株式会社,愛知県,豊橋市,東田町字北臨済寺３５番地の３,,23,201,4400048,,,,,,,2025-04-18,1,,,,,ウィズホールディングス,0
484,2180301039726,新規,0,2025-04-18,2025-04-18,株式会社エムズグローバル,,株式会社,愛知県,安城市,東栄町３丁目１１番８号,,23,212,4460007,,,,,,,2025-04-18,1,,,,,エムズグローバル,0
485,2180301039734,新規,0,2025-04-18,2025-04-18,株式会社Ｖｅｓｔａ,,株式会社,愛知県,岡崎市,赤渋町字蔵西５７番地２,,23,202,4440241,,,,,,,2025-04-18,1,,,,,ウェスタ,0
487,2180305009683,新規,0,2025-04-18,2025-04-18,一般社団法人ハート・エイド・ジャパン,,その他の設立登記法人,愛知県,豊田市,越戸町梅盛４６番地１,,23,211,4700332,,,,,,,2025-04-18,1,,,,,ハートエイドジャパン,0
504,2260001040125,新規,0,2025-04-18,2025-04-18,株式会社Ｂｕｉｌｂａｓｅ,,株式会社,岡山県,岡山市北区,問屋町２７－１０１明比第５ビル１階,,33,101,7000977,,,,,,,2025-04-18,1,,,,,ビルベイス,0
505,2260003005142,新規,0,2025-04-18,2025-04-18,希曼緑色建築合同会社,,合同会社,岡山県,岡山市北区,南方４丁目１１番３０号２０３号室,,33,101,7000807,,,,,,,2025-04-18,1,,,,,キマンリョクショクケンチク,0
525,2370003007053,新規,0,2025-04-18,2025-04-18,合同会社Ｈｏｌｏｍｕａ,,合同会社,宮城県,多賀城市,新田字南関合３６番地の８メゾンリバーサイドＫＩＩＩ１０３,00138828,04,209,9850854,,,,,,,2025-04-18,1,,,,,ホロムア,0
542,2430003017541,新規,0,2025-04-18,2025-04-18,合同会社Ｌｉｎｎｙ,,合同会社,北海道,虻田郡ニセコ町,字富士見１２７－１１,,01,395,0481501,,,,,,,2025-04-18,1,,,,,リニー,0
549,2450001014596,新規,0,2025-04-18,2025-04-18,株式会社エステーケー油圧サポート,,株式会社,北海道,旭川市,東鷹栖東一条４丁目６３７番地１１０,,01,204,0718111,,,,,,,2025-04-18,1,,,,,エステーケーユアツサポート,0
557,2700150129995,新規,0,2025-04-18,2025-04-18,Ａｎｏｎｙｍｏｕｓ　Ｐｒｏｄｕｃｔｉｏｎ　Ｌｉｍｉｔｅｄ,,外国会社等,,,,,,,,Ｆｌａｔ　Ｃ，３９／Ｆｌｏｏｒ，Ｂｌｏｃｋ　１，Ｓｃｅｎｉｃ　Ｖｉｅｗ，６３　Ｆｕｎｇ　Ｓｈｉｎｇ　Ｓｔｒｅｅｔ，Ｎｇａｕ　Ｃｈｉ　Ｗａｎ，Ｋｏｗｌｏｏｎ．,,,,,,2025-04-18,1,,,,,アノニマスプロダクシヨンリミテツド,0
566,3010001254244,新規,0,2025-04-18,2025-04-18,Ｋｏｋｏｒｏ　Ｈｏｌｄｉｎｇｓ株式会社,,株式会社,東京都,中央区,八丁堀４丁目４番４号３階,,13,102,1040032,,,,,,,2025-04-18,1,,,,,ココロホールディングス,0
567,3010001254252,新規,0,2025-04-18,2025-04-18,新井プランニング株式会社,,株式会社,東京都,中央区,晴海１丁目８番８号,,13,102,1040053,,,,,,,2025-04-18,1,,,,,アライプランニング,0
568,3010001254293,新規,0,2025-04-18,2025-04-18,株式会社Ａｚｕｍａ　Ｒｅｔｒｅａｔ,,株式会社,東京都,中央区,銀座１丁目１２番４号Ｎ＆ＥＢＬＤ．６Ｆ,,13,102,1040061,,,,,,,2025-04-18,1,,,,,アズマリトリート,0
569,3010001254310,新規,0,2025-04-18,2025-04-18,晨旭株式会社,,株式会社,東京都,中央区,晴海５丁目１番９－７１５号,,13,102,1040053,,,,,,,2025-04-18,1,,,,,シンキョク,0
578,3010401189478,新規,0,2025-04-18,2025-04-18,ディリンクス株式会社,,株式会社,東京都,港区,白金１丁目２５番１１－３０４号,,13,103,1080072,,,,,,,2025-04-18,1,,,,,ディリンクス,0
579,3010401189635,新規,0,2025-04-18,2025-04-18,株式会社ＹＦＫ,,株式会社,東京都,港区,赤坂４丁目１４番１４－３４０４号,,13,103,1070052,,,,,,,2025-04-18,1,,,,,ワイエフケイ,0
587,3010601067046,新規,0,2025-04-18,2025-04-18,株式会社貴船,,株式会社,東京都,江東区,豊洲６丁目２番３１－４４０３号,,13,108,1350061,,,,,,,2025-04-18,1,,,,,キフネ,0
589,3010701047575,新規,0,2025-04-18,2025-04-18,株式会社ＨＩＧＨ＆ＯＮＥ,,株式会社,東京都,品川区,上大崎２丁目１８―２５目黒三田フラワーマンション６０４,,13,109,1410021,,,,,,,2025-04-18,1,,,,,ハイアンドワン,0
590,3010703007676,新規,0,2025-04-18,2025-04-18,合同会社ｍｏｉｓｈ,,合同会社,東京都,品川区,上大崎３丁目１番３０－３５０７号,,13,109,1410021,,,,,,,2025-04-18,1,,,,,モイッシュ,0
601,3011001168970,新規,0,2025-04-18,2025-04-18,株式会社Ａｍａｎｅｋｕ,,株式会社,東京都,渋谷区,桜丘町４－１４ＶＯＲＴ渋谷桜丘ビル５Ｆ,,13,113,1500031,,,,,,,2025-04-18,1,,,,,アマネク,0
602,3011001168987,新規,0,2025-04-18,2025-04-18,株式会社ＢＲＩＴＥ,,株式会社,東京都,渋谷区,代官山町８－７Ｄａｉｗａ代官山ビル,,13,113,1500034,,,,,,,2025-04-18,1,,,,,ブライト,0
603,3011003021418,新規,0,2025-04-18,2025-04-18,Ｅ合同会社,,合同会社,東京都,渋谷区,幡ヶ谷３丁目４８番６号,,13,113,1510072,,,,,,,2025-04-18,1,,,,,イー,0
608,3011101111392,新規,0,2025-04-18,2025-04-18,金誠株式会社,,株式会社,東京都,新宿区,中井２丁目７－７エクスクルーシヴ中井１階Ｂ０６号室,,13,104,1610035,,,,,,,2025-04-18,1,,,,,キンセイ,0
610,3011201026227,新規,0,2025-04-18,2025-04-18,株式会社パレット,,株式会社,東京都,中野区,弥生町４丁目２９番１０号,,13,114,1640013,,,,,,,2025-04-18,1,,,,,パレット,0
614,3011401026984,新規,0,2025-04-18,2025-04-18,株式会社ジーシーＲ＆Ｄ,,株式会社,東京都,板橋区,蓮沼町７６番１号,,13,119,1740052,,,,,,,2025-04-18,1,,,,,ジーシーアールアンドディー,0
615,3011501031959,新規,0,2025-04-18,2025-04-18,株式会社ニューボーン,,株式会社,東京都,荒川区,南千住７丁目１番１号ブランズタワー南千住２６０７,,13,118,1160003,,,,,,,2025-04-18,1,,,,,ニューボーン,0
618,3011503006496,新規,0,2025-04-18,2025-04-18,ＴＵ　ＫＩＮＨ合同会社,,合同会社,東京都,北区,神谷２丁目２４番３－１０２号ＣＡＳＡ－ＭＥＧＵＲＯ,,13,117,1150043,,,,,,,2025-04-18,1,,,,,トウキン,0
621,3012401043004,新規,0,2025-04-18,2025-04-18,株式会社ＡｒｂｏｒＬｅａｆ,,株式会社,東京都,調布市,仙川町２丁目６番地５プラウドシティ仙川８１６,,13,208,1820002,,,,,,,2025-04-18,1,,,,,アーバーリーフ,0
623,3012403007072,新規,0,2025-04-18,2025-04-18,合同会社ＪＯＭＯＮ,,合同会社,東京都,府中市,八幡町２丁目１９番地の６,,13,206,1830016,,,,,,,2025-04-18,1,,,,,ジョウモン,0
633,3020001162025,新規,0,2025-04-18,2025-04-18,Ｋｅｙｓｔｏｎｅｓ株式会社,,株式会社,神奈川県,横浜市西区,浅間町１丁目４番３号ウィザードビル４０２,,14,103,2200072,,,,,,,2025-04-18,1,,,,,キーストーンズ,0
634,3020001162330,新規,0,2025-04-18,2025-04-18,株式会社ユニファイヘルスケア,,株式会社,神奈川県,川崎市川崎区,駅前本町１１－２川崎フロンティアビル１２階Ａ－２,,14,131,2100007,,,,,,,2025-04-18,1,,,,,ユニファイヘルスケア,0
635,3020001162438,新規,0,2025-04-18,2025-04-18,株式会社幸友建設,,株式会社,神奈川県,川崎市宮前区,野川本町２丁目２８番２９号,,14,136,2160041,,,,,,,2025-04-18,1,,,,,コウユウケンセツ,0
636,3020001162454,新規,0,2025-04-18,2025-04-18,株式会社ＮＥＸＴ　ＢＵＩＬＤ,,株式会社,神奈川県,横浜市西区,北幸２丁目１０番４８号むつみビル３階,,14,103,2200004,,,,,,,2025-04-18,1,,,,,ネクストビルド,0
643,3020003028240,新規,0,2025-04-18,2025-04-18,合同会社冒険科学研究所,,合同会社,神奈川県,横浜市神奈川区,金港町５－１４クアドリフォリオ８階,,14,102,2210056,,,,,,,2025-04-18,1,,,,,ボウケンカガクケンキュウショ,0
646,3021001084952,新規,0,2025-04-18,2025-04-18,株式会社Ｐｕａｍａｎａ,,株式会社,神奈川県,茅ヶ崎市,中海岸３丁目５番６１号,,14,207,2530055,,,,,,,2025-04-18,1,,,,,プアマナ,0
652,3030001166033,新規,0,2025-04-18,2025-04-18,株式会社ＧＲＡＮＴＳ,,株式会社,埼玉県,熊谷市,筑波２丁目５５番地熊谷駅前ビル５Ｆ,,11,202,3600037,,,,,,,2025-04-18,1,,,,,グランツ,0
656,3030003026598,新規,0,2025-04-18,2025-04-18,ＤａｉｓｙＰａｔｈ合同会社,,合同会社,埼玉県,川口市,元郷２丁目２番６号,,11,203,3320011,,,,,,,2025-04-18,1,,,,,デイジーパス,0
657,3030003026615,新規,0,2025-04-18,2025-04-18,合同会社ＨＩＢＯＮ,,合同会社,埼玉県,さいたま市見沼区,島町３４番地６,,11,104,3370006,,,,,,,2025-04-18,1,,,,,ヒボン,0
658,3030005022125,新規,0,2025-04-18,2025-04-18,一般社団法人Ａｕｒｏｒａ,,その他の設立登記法人,埼玉県,さいたま市北区,吉野町２丁目５５番地グロリア１０１,,11,102,3310811,,,,,,,2025-04-18,1,,,,,アウローラ,0
661,3040001138238,新規,0,2025-04-18,2025-04-18,すがやデンキ株式会社,,株式会社,千葉県,柏市,若柴６９番地１,,12,217,2770871,,,,,,,2025-04-18,1,,,,,スガヤデンキ,0
662,3040001138329,新規,0,2025-04-18,2025-04-18,株式会社遠藤レーシングファーム,,株式会社,千葉県,香取市,観音３８０番地８,,12,236,2870036,,,,,,,2025-04-18,1,,,,,エンドウレーシングファーム,0
663,3040001138337,新規,0,2025-04-18,2025-04-18,株式会社橋之道,,株式会社,千葉県,市川市,平田３丁目５番２７号,,12,203,2720031,,,,,,,2025-04-18,1,,,,,ハシミチ,0
664,3040003027372,新規,0,2025-04-18,2025-04-18,合同会社アイ・プランニング,,合同会社,千葉県,佐倉市,王子台６丁目２２番地１３,,12,212,2850837,,,,,,,2025-04-18,1,,,,,アイプランニング,0
665,3040005022727,新規,0,2025-04-18,2025-04-18,ちあき社会保険労務士法人,,その他の設立登記法人,千葉県,船橋市,若松２丁目１番１１－１００７号,,12,204,2730013,,,,,,,2025-04-18,1,,,,,チアキ,0
667,3050001056414,新規,0,2025-04-18,2025-04-18,フェアリーテイル株式会社,,株式会社,茨城県,つくば市,みどりの１丁目６２番地８,,08,220,3050881,,,,,,,2025-04-18,1,,,,,フェアリーテイル,0
668,3050001056521,新規,0,2025-04-18,2025-04-18,株式会社佐藤ＲＯＯＦ,,株式会社,茨城県,水戸市,見川４丁目２８番地の４８,,08,201,3100912,,,,,,,2025-04-18,1,,,,,サトウルーフ,0
670,3050003009196,新規,0,2025-04-18,2025-04-18,合同会社ＮＥＸＴＤＯＯＲ,,合同会社,茨城県,下妻市,皆葉１０７０番地１,,08,210,3040822,,,,,,,2025-04-18,1,,,,,ネクストドア,0
672,3060001038114,新規,0,2025-04-18,2025-04-18,株式会社関東クリーンサービス,,株式会社,栃木県,栃木市,大平町新１５４０番地１６６,,09,203,3294425,,,,,,,2025-04-18,1,,,,,カントウクリーンサービス,0
675,3060005010333,新規,0,2025-04-18,2025-04-18,一般社団法人トンネル覆工新技術研究会,,その他の設立登記法人,栃木県,那須塩原市,上横林４１４番地１０１１,,09,213,3292805,,,,,,,2025-04-18,1,,,,,トンネルフッコウシンギジュツケンキュウカイ,0
681,3070003005879,新規,0,2025-04-18,2025-04-18,合同会社ＮＯＡＭＡＮＡ,,合同会社,群馬県,佐波郡玉村町,大字上之手１６２１番地７,,10,464,3701127,,,,,,,2025-04-18,1,,,,,ノアマナ,0
687,3090001019219,新規,0,2025-04-18,2025-04-18,株式会社ジェイ・インペックス,,株式会社,山梨県,甲府市,宝２丁目７番４号,,19,201,4000034,,,,,,,2025-04-18,1,,,,,ジェイインペックス,0
690,3110001039197,新規,0,2025-04-18,2025-04-18,株式会社Ｃｈｕｃｋ,,株式会社,新潟県,新潟市東区,牡丹山４丁目６番１８号,,15,102,9500872,,,,,,,2025-04-18,1,,,,,チャック,0
692,3110003005734,新規,0,2025-04-18,2025-04-18,合同会社ｎａｎａｌａ,,合同会社,新潟県,新潟市中央区,東大通２丁目７番２１号グランティ新潟８０６号,,15,103,9500087,,,,,,,2025-04-18,1,,,,,ナナラ,0
697,3120001274685,新規,0,2025-04-18,2025-04-18,株式会社第一薬品,,株式会社,大阪府,大阪市平野区,平野市町２丁目９番１１号,,27,126,5470042,,,,,,,2025-04-18,1,,,,,ダイイチヤクヒン,0
698,3120001274693,新規,0,2025-04-18,2025-04-18,株式会社ハンナン,,株式会社,大阪府,大阪市淀川区,宮原１丁目１－１新大阪阪急ビル３Ｆ,,27,123,5320003,,,,,,,2025-04-18,1,,,,,ハンナン,0
699,3120001274702,新規,0,2025-04-18,2025-04-18,吉鹿株式会社,,株式会社,大阪府,大阪市都島区,都島本通２丁目１０番７－４０５号,,27,102,5340021,,,,,,,2025-04-18,1,,,,,ヨシシカ,0
700,3120001274710,新規,0,2025-04-18,2025-04-18,株式会社ペイフォワード,,株式会社,大阪府,大阪市西区,九条１丁目１４番１０号８０１,,27,106,5500027,,,,,,,2025-04-18,1,,,,,ペイフォワード,0
701,3120001274751,新規,0,2025-04-18,2025-04-18,雲雲株式会社,,株式会社,大阪府,大阪市阿倍野区,天王寺町南２丁目２２－１９－５０３号室,,27,119,5450002,,,,,,,2025-04-18,1,,,,,ユンユン,0
702,3120001274768,新規,0,2025-04-18,2025-04-18,創宇株式会社,,株式会社,大阪府,大阪市港区,市岡２丁目２番４－１０３号,,27,107,5520012,,,,,,,2025-04-18,1,,,,,ソウウ,0
705,3120003029162,新規,0,2025-04-18,2025-04-18,Ｕ＆Ｈシステム合同会社,,合同会社,大阪府,枚方市,山之上北町２０番１５号,,27,210,5730049,,,,,,,2025-04-18,1,,,,,ユーアンドエイチシステム,0
707,3120101071487,新規,0,2025-04-18,2025-04-18,株式会社ウカイ,,株式会社,大阪府,河内長野市,中片添町１４番２２－１０６号,,27,216,5860046,,,,,,,2025-04-18,1,,,,,ウカイ,0
708,3120101071495,新規,0,2025-04-18,2025-04-18,興盛株式会社,,株式会社,大阪府,堺市中区,東山１０１３パレドール東山３０７号室,,27,142,5998247,,,,,,,2025-04-18,1,,,,,コウセイ,0
709,3120101071504,新規,0,2025-04-18,2025-04-18,聖和株式会社,,株式会社,大阪府,貝塚市,麻生中１０８７－３,,27,208,5970081,,,,,,,2025-04-18,1,,,,,セイワ,0
710,3120103006409,新規,0,2025-04-18,2025-04-18,合同会社いのうえ,,合同会社,大阪府,和泉市,弥生町２丁目２７番９号,,27,219,5940061,,,,,,,2025-04-18,1,,,,,イノウエ,0
720,3130003010385,新規,0,2025-04-18,2025-04-18,スパークルバザール合同会社,,合同会社,京都府,京都市下京区,朱雀宝蔵町４４番地協栄ビル２階京都朱雀スタジオＮ－１０９,,26,106,6008846,,,,,,,2025-04-18,1,,,,,スパークルバザール,0
727,3140003021902,新規,0,2025-04-18,2025-04-18,合同会社ここはな,,合同会社,兵庫県,神戸市灘区,篠原字小屋場山１０３８番地の１５８,,28,102,6570002,,,,,,,2025-04-18,1,,,,,ココハナ,0
729,3140005027484,新規,0,2025-04-18,2025-04-18,特定非営利活動法人ことのは,,その他の設立登記法人,兵庫県,明石市,大久保町江井島４１８,,28,203,6740064,,,,,,,2025-04-18,1,,,,,コトノハ,0
737,3180001166431,新規,0,2025-04-18,2025-04-18,ＴｅｃｈＳａｇｅ株式会社,,株式会社,愛知県,名古屋市東区,東桜２丁目３番７号東カン名古屋キャステール６５０号,,23,102,4610005,,,,,,,2025-04-18,1,,,,,テクセージ,0
738,3180001166456,新規,0,2025-04-18,2025-04-18,グリットビジネスパートナーズ株式会社,,株式会社,愛知県,一宮市,木曽川町里小牧字本茅場５０番地１,,23,203,4930005,,,,,,,2025-04-18,1,,,,,グリットビジネスパートナーズ,0
743,3180003028349,新規,0,2025-04-18,2025-04-18,合同会社経営相談所,,合同会社,愛知県,名古屋市西区,浮野町１４２番地,,23,104,4520846,,,,,,,2025-04-18,1,,,,,ケイエイソウダンジョ,0
749,3180301039733,新規,0,2025-04-18,2025-04-18,株式会社彩果園,,株式会社,愛知県,豊橋市,小島町字海見坂６番地の８４,,23,201,4413122,,,,,,,2025-04-18,1,,,,,サイカエン,0
762,3230001020855,新規,0,2025-04-18,2025-04-18,となみ野コンサルティング株式会社,,株式会社,富山県,南砺市,福光１０８７番地１コルトゥーラ２０１号室,,16,210,9391610,,,,,,,2025-04-18,1,,,,,トナミノコンサルティング,0
766,3240001064785,新規,0,2025-04-18,2025-04-18,株式会社薪ライフ,,株式会社,広島県,三次市,十日市東３丁目６番１３号,,34,209,7280013,,,,,,,2025-04-18,1,,,,,マキライフ,0
767,3240001064827,新規,0,2025-04-18,2025-04-18,株式会社Ｆａｍｉｌｉａ,,株式会社,広島県,広島市安佐南区,長楽寺１丁目２４番１８号,,34,105,7310143,,,,,,,2025-04-18,1,,,,,ファミリア,0
770,3240003007156,新規,0,2025-04-18,2025-04-18,ヒロホーム合同会社,,合同会社,広島県,福山市,奈良津町３丁目１番２１号,,34,207,7200022,,,,,,,2025-04-18,1,,,,,ヒロホーム,0
776,3260001040124,新規,0,2025-04-18,2025-04-18,株式会社イトセフ,,株式会社,岡山県,岡山市北区,下石井２丁目１０番３０－３４０６号,,33,101,7000907,,,,,,,2025-04-18,1,,,,,イトセフ,0
777,3260003005141,新規,0,2025-04-18,2025-04-18,博途合同会社,,合同会社,岡山県,岡山市北区,南方４丁目１１番３０号２０２号室,,33,101,7000807,,,,,,,2025-04-18,1,,,,,ハクト,0
783,3290001109759,新規,0,2025-04-18,2025-04-18,功建工業株式会社,,株式会社,福岡県,福岡市博多区,金の隈１丁目３６番１４号,,40,132,8120863,,,,,,,2025-04-18,1,,,,,コウケンコウギョウ,0
786,3300005007239,新規,0,2025-04-18,2025-04-18,医療法人慶愛会,,その他の設立登記法人,佐賀県,鳥栖市,蔵上２丁目１１２番地,,41,203,8410056,,,,,,,2025-04-18,1,,,,,ケイアイカイ,0
789,3330001033104,新規,0,2025-04-18,2025-04-18,九州セキュリティパートナーズ株式会社,,株式会社,熊本県,熊本市北区,室園町３－４８マリーハイム２０４号,,43,105,8618072,,,,,,,2025-04-18,1,,,,,セキュリティパートナーズ,0
802,3370001052422,新規,0,2025-04-18,2025-04-18,株式会社シースリーアール,,株式会社,宮城県,仙台市泉区,松森字陣ケ原８番地の１,,04,105,9813111,,,,,,,2025-04-18,1,,,,,シースリーアール,0
803,3370001052488,新規,0,2025-04-18,2025-04-18,株式会社高山産業,,株式会社,宮城県,白石市,大鷹沢大町字和尚堂７１番地１４,,04,206,9890212,,,,,,,2025-04-18,1,,,,,タカヤマサンギョウ,0
805,3380001035252,新規,0,2025-04-18,2025-04-18,株式会社クロスワン,,株式会社,福島県,伊達市,保原町字実町６番地７,,07,213,9600628,,,,,,,2025-04-18,1,,,,,クロスワン,0
812,3410001014137,新規,0,2025-04-18,2025-04-18,株式会社令和,,株式会社,秋田県,由利本荘市,一番堰９６番地３,,05,210,0150852,,,,,,,2025-04-18,1,,,,,レイワ,0
820,3430001094219,新規,0,2025-04-18,2025-04-18,株式会社ＲＡ　ＲＥＡＬＩ,,株式会社,北海道,札幌市豊平区,月寒東一条１５丁目１２番２０－９０１号,,01,105,0620051,,,,,,,2025-04-18,1,,,,,ラレアリ,0
822,3430003017540,新規,0,2025-04-18,2025-04-18,合同会社ｎｏｃｃａ,,合同会社,北海道,江別市,あさひが丘３６番地の１０,,01,217,0690826,,,,,,,2025-04-18,1,,,,,ノッカ,0
823,3430003017549,新規,0,2025-04-18,2025-04-18,合同会社ＬＵＣＫ,,合同会社,北海道,札幌市西区,西町南１９丁目１番１８－３０３号,,01,107,0630062,,,,,,,2025-04-18,1,,,,,ラック,0
824,3440001009596,新規,0,2025-04-18,2025-04-18,ゆうのうしりうち株式会社,,株式会社,北海道,上磯郡知内町,字湯ノ里２８４,,01,333,0491221,,,,,,,2025-04-18,1,,,,,ユウノウシリウチ,0
839,4010001254128,新規,0,2025-04-18,2025-04-18,株式会社フューチャーナイン,,株式会社,東京都,千代田区,鍛冶町１丁目７－１手島ビル２Ｆ,,13,101,1010044,,,,,,,2025-04-18,1,,,,,フューチャーナイン,0
840,4010001254268,新規,0,2025-04-18,2025-04-18,アルバトランスジャパン株式会社,,株式会社,東京都,中央区,日本橋室町１丁目２番６号日本橋大栄ビル７階,,13,102,1030022,,,,,,,2025-04-18,1,,,,,アルバトランスジャパン,0
841,4010001254326,新規,0,2025-04-18,2025-04-18,株式会社ソライロ,,株式会社,東京都,文京区,西片１丁目１４番１１－１０９号,,13,105,1130024,,,,,,,2025-04-18,1,,,,,ソライロ,0
847,4010101016642,新規,0,2025-04-18,2025-04-18,ＫＲＴ株式会社,,株式会社,東京都,八王子市,南大沢５丁目９番地１－１０２,,13,201,1920364,,,,,,,2025-04-18,1,,,,,ケーアールティー,0
853,4010401189592,新規,0,2025-04-18,2025-04-18,株式会社ミントボックス,,株式会社,東京都,港区,浜松町２丁目２番１５号２階,,13,103,1050013,,,,,,,2025-04-18,1,,,,,ミントボックス,0
854,4010401189650,新規,0,2025-04-18,2025-04-18,ＡＭＶＡＲ株式会社,,株式会社,東京都,港区,北青山１丁目３番１号アールキューブ青山３階,,13,103,1070061,,,,,,,2025-04-18,1,,,,,アンバー,0
855,4010401189659,新規,0,2025-04-18,2025-04-18,株式会社Ｂｕｌｌｅｔ,,株式会社,東京都,港区,芝５丁目２０－２０春日ビル２Ｆ,,13,103,1080014,,,,,,,2025-04-18,1,,,,,バレット,0
859,4010405024341,新規,0,2025-04-18,2025-04-18,ハチホールディング特定目的会社,,その他の設立登記法人,東京都,港区,六本木１丁目９番１０号アークヒルズ仙石山森タワー４０階,,13,103,1060032,,,,,,,2025-04-18,1,,,,,ハチホールディング,0
871,4011001168821,新規,0,2025-04-18,2025-04-18,株式会社メモレ,,株式会社,東京都,目黒区,東が丘２丁目１２番１９号,,13,110,1520021,,,,,,,2025-04-18,1,,,,,メモレ,0
872,4011001168904,新規,0,2025-04-18,2025-04-18,株式会社Ａｄｅｖｉａ,,株式会社,東京都,渋谷区,渋谷２丁目１９番１９号ワコー宮益坂ビル５階,,13,113,1500002,,,,,,,2025-04-18,1,,,,,アデヴィア,0
873,4011001168920,新規,0,2025-04-18,2025-04-18,ＴＫ百貨店準備株式会社,,株式会社,東京都,渋谷区,宇田川町３７番５号,,13,113,1500042,,,,,,,2025-04-18,1,,,,,ティーケーヒャッカテンジュンビ,0
874,4011001169002,新規,0,2025-04-18,2025-04-18,株式会社Ａｉｌｕｍ,,株式会社,東京都,渋谷区,渋谷２丁目１９－１５宮益坂ビルディング６０９,,13,113,1500002,,,,,,,2025-04-18,1,,,,,エルム,0
876,4011003021425,新規,0,2025-04-18,2025-04-18,合同会社ｈａｊｉｋｋｏ,,合同会社,東京都,渋谷区,道玄坂１丁目１０番８号渋谷道玄坂東急ビル２Ｆ－Ｃ,,13,113,1500043,,,,,,,2025-04-18,1,,,,,ハジッコ,0
879,4011101111391,新規,0,2025-04-18,2025-04-18,株式会社ＲｅＶＯＩＣＥ,,株式会社,東京都,新宿区,西新宿３丁目３番１３号,,13,104,1600023,,,,,,,2025-04-18,1,,,,,リボイス,0
882,4011305003039,新規,0,2025-04-18,2025-04-18,一般社団法人Ｂｅｖｏ　Ａｔｈｌｅｔｅｓ　Ｃｒｅａｔｉｏｎ,,その他の設立登記法人,東京都,杉並区,宮前３丁目２－２１,,13,115,1680081,,,,,,,2025-04-18,1,,,,,ビィボアスリーツクリエイション,0
885,4011503006495,新規,0,2025-04-18,2025-04-18,合同会社フリーダムプレス,,合同会社,東京都,荒川区,町屋２丁目９番１３号,,13,118,1160001,,,,,,,2025-04-18,1,,,,,フリーダムプレス,0
889,4011701028267,新規,0,2025-04-18,2025-04-18,ｓｕｍｍｅｒ　ａｉｒ株式会社,,株式会社,東京都,江戸川区,平井５丁目４４番６号－３０３,,13,123,1320035,,,,,,,2025-04-18,1,,,,,サマーエアー,0
890,4011703004200,新規,0,2025-04-18,2025-04-18,合同会社ＢＥＹＯＮＤ,,合同会社,東京都,江戸川区,一之江町２９８７番地１－２Ｆ,,13,123,1340092,,,,,,,2025-04-18,1,,,,,ビヨンド,0
895,4012401043003,新規,0,2025-04-18,2025-04-18,株式会社ＡＬＣ,,株式会社,東京都,府中市,浅間町３丁目１８番地の１,,13,206,1830001,,,,,,,2025-04-18,1,,,,,アルク,0
901,4020001162354,新規,0,2025-04-18,2025-04-18,株式会社ジエス,,株式会社,神奈川県,横浜市旭区,白根６丁目６番１５号,,14,112,2410005,,,,,,,2025-04-18,1,,,,,ジエス,0
902,4020001162412,新規,0,2025-04-18,2025-04-18,株式会社ＢＥ　ＦＡＮＴＡＳＩＳＴＡ,,株式会社,神奈川県,横浜市旭区,二俣川１丁目４５番地６９荻原ビル,,14,112,2410821,,,,,,,2025-04-18,1,,,,,ビーファンタジスタ,0
906,4020003028256,新規,0,2025-04-18,2025-04-18,合同会社ＪＳアセット,,合同会社,神奈川県,横浜市南区,大岡１丁目５８－７,,14,105,2320061,,,,,,,2025-04-18,1,,,,,ジェイエスアセット,0
907,4020005016787,新規,0,2025-04-18,2025-04-18,一般財団法人外国につながる学生のための奨学金かながわ,,その他の設立登記法人,神奈川県,横浜市栄区,小菅ケ谷１丁目２番１号地球市民かながわプラザＮＰＯなどのための事務室ＭＥ－ＮＥＴ内,,14,115,2470007,,,,,,,2025-04-18,1,,,,,ガイコクニツナガルガクセイノタメノショウガクキンカナガワ,0
912,4021001084951,新規,0,2025-04-18,2025-04-18,宇宙全てと大爆笑株式会社,,株式会社,神奈川県,藤沢市,辻堂元町３丁目２－２６シャトルヤマツＡ１０１号,,14,205,2510043,,,,,,,2025-04-18,1,,,,,ウチュウスベテトダイバクショウ,0
913,4021001085009,新規,0,2025-04-18,2025-04-18,株式会社ＴＫＧ,,株式会社,神奈川県,鎌倉市,大町４丁目１５番７号,,14,204,2480007,,,,,,,2025-04-18,1,,,,,ティーケージー,0
915,4021005013345,新規,0,2025-04-18,2025-04-18,特定非営利活動法人日本和楽器協会,,その他の設立登記法人,神奈川県,鎌倉市,小町２丁目２０番２５号,,14,204,2480006,,,,,,,2025-04-18,1,,,,,ニホンワガッキキョウカイ,0
923,4030001166040,新規,0,2025-04-18,2025-04-18,株式会社関谷造園,,株式会社,埼玉県,大里郡寄居町,大字用土１９２２番地１,,11,408,3691201,,,,,,,2025-04-18,1,,,,,セキヤゾウエン,0
927,4030003026589,新規,0,2025-04-18,2025-04-18,合同会社Ｌｉａｎ,,合同会社,埼玉県,北葛飾郡松伏町,大字金杉４８６番地１６,,11,465,3430103,,,,,,,2025-04-18,1,,,,,リアン,0
928,4030003026597,新規,0,2025-04-18,2025-04-18,合同会社スズキプロスタッフオフィス,,合同会社,埼玉県,越谷市,大字袋山１８６６番地４,,11,222,3430032,,,,,,,2025-04-18,1,,,,,スズキプロスタッフオフィス,0
929,4030003026614,新規,0,2025-04-18,2025-04-18,ＭＡＲＩＥ＆ＭＩＣＨＥＬＬＥ合同会社,,合同会社,埼玉県,さいたま市見沼区,大字御蔵１１２７番地１,,11,104,3370033,,,,,,,2025-04-18,1,,,,,マリーアンドミッシェル,0
931,4040001138294,新規,0,2025-04-18,2025-04-18,株式会社ｋ‐ｚＱ便,,株式会社,千葉県,松戸市,古ケ崎１丁目３０５５番地の１パティーナ松戸１０６号,,12,207,2710068,,,,,,,2025-04-18,1,,,,,ケーズキュウビン,0
932,4040001138344,新規,0,2025-04-18,2025-04-18,日本サブマリンケーブル株式会社,,株式会社,千葉県,富津市,新富４２番１号,,12,226,2930011,,,,,,,2025-04-18,1,,,,,ニホンサブマリンケーブル,0
933,4040001138352,新規,0,2025-04-18,2025-04-18,株式会社メディアクション,,株式会社,千葉県,船橋市,東中山２丁目１３－３０－３０７,,12,204,2730036,,,,,,,2025-04-18,1,,,,,メディアクション,0
936,4040003027322,新規,0,2025-04-18,2025-04-18,合同会社アサンテアルファ,,合同会社,千葉県,成田市,本三里塚１００１－１１５１,,12,211,2860118,,,,,,,2025-04-18,1,,,,,アサンテアルファ,0
937,4040003027371,新規,0,2025-04-18,2025-04-18,Ｎ．Ｋ合同会社,,合同会社,千葉県,千葉市花見川区,犢橋町６１３番地１,,12,102,2620013,,,,,,,2025-04-18,1,,,,,エヌケー,0
942,4060001038113,新規,0,2025-04-18,2025-04-18,株式会社Ｖｉｒａｌ　Ｓｈｉｆｔ,,株式会社,栃木県,宇都宮市,大谷町１４２４－２８,,09,201,3210345,,,,,,,2025-04-18,1,,,,,,0
943,4060001038121,新規,0,2025-04-18,2025-04-18,株式会社ＳＵＲＡＮＩ,,株式会社,栃木県,宇都宮市,中河原町１‐７元睦ビル１階,,09,201,3200815,,,,,,,2025-04-18,1,,,,,スラニ,0
949,4070003005878,新規,0,2025-04-18,2025-04-18,ＴＡＮＡＫＡＹＡ合同会社,,合同会社,群馬県,太田市,東別所町４７６番地４,,10,205,3730815,,,,,,,2025-04-18,1,,,,,タナカヤ,0
961,4110005017223,新規,0,2025-04-18,2025-04-18,一般社団法人ＦＣＡ,,その他の設立登記法人,新潟県,十日町市,学校町２丁目７２６番地１,,15,210,9480022,,,,,,,2025-04-18,1,,,,,エフシーエー,0
965,4120001274651,新規,0,2025-04-18,2025-04-18,ブレンド株式会社,,株式会社,大阪府,大阪市天王寺区,石ケ辻町１４－６－３０１,,27,109,5430031,,,,,,,2025-04-18,1,,,,,ブレンド,0
966,4120001274701,新規,0,2025-04-18,2025-04-18,株式会社ＭＵ断熱,,株式会社,大阪府,大阪市平野区,喜連２丁目５番８１－３０４号,,27,126,5470027,,,,,,,2025-04-18,1,,,,,エムユーダンネツ,0
967,4120001274718,新規,0,2025-04-18,2025-04-18,ＳＡＵＤＡＤＥ株式会社,,株式会社,大阪府,大阪市中央区,宗右衛門町７番９号,,27,128,5420084,,,,,,,2025-04-18,1,,,,,サウダージ,0
968,4120001274742,新規,0,2025-04-18,2025-04-18,興誠株式会社,,株式会社,大阪府,大阪市西成区,松２丁目８番２号１０１号室,,27,122,5570034,,,,,,,2025-04-18,1,,,,,コウセイ,0
969,4120001274825,新規,0,2025-04-18,2025-04-18,株式会社ＴＨＲＥＥ　ＡＲＲＯＷＳ,,株式会社,大阪府,大阪市天王寺区,上本町６丁目２番３－２１０１号,,27,109,5430001,,,,,,,2025-04-18,1,,,,,スリーアローズ,0
970,4120001274949,新規,0,2025-04-18,2025-04-18,Ｗｅ　ｓｈａｒｅ株式会社,,株式会社,大阪府,大阪市西成区,南津守７丁目１番１６－５０９室,,27,122,5570063,,,,,,,2025-04-18,1,,,,,ウィーシェア,0
971,4120001274973,新規,0,2025-04-18,2025-04-18,株式会社キンエイジュン,,株式会社,大阪府,大阪市西成区,南津守７丁目１番１６－３０６室,,27,122,5570063,,,,,,,2025-04-18,1,,,,,キンエイジュン,0
972,4120001275063,新規,0,2025-04-18,2025-04-18,株式会社サルーテム,,株式会社,大阪府,大阪市天王寺区,玉造本町９番１号フォレスト真田山５０３号,,27,109,5430013,,,,,,,2025-04-18,1,,,,,サルーテム,0
976,4120003029153,新規,0,2025-04-18,2025-04-18,合同会社ＭａＴｅｃｈ,,合同会社,大阪府,大阪市中央区,南船場４丁目１０番５号南船場ＳＯＨＯビル７０２,,27,128,5420081,,,,,,,2025-04-18,1,,,,,マテック,0
977,4120003029285,新規,0,2025-04-18,2025-04-18,合同会社Ｄｅｅｐ　Ｖｉｓｉｏｎ,,合同会社,大阪府,大阪市中央区,糸屋町１丁目１‐３グランパシフィック天満橋５０３,,27,128,5400022,,,,,,,2025-04-18,1,,,,,ディープヴィジョン,0
979,4120101071478,新規,0,2025-04-18,2025-04-18,ＢａｓｅＬｉｎｅ株式会社,,株式会社,大阪府,堺市北区,南花田町４１７番地３,,27,146,5918011,,,,,,,2025-04-18,1,,,,,ベースライン,0
986,4130001079471,新規,0,2025-04-18,2025-04-18,株式会社ＵＮＩ,,株式会社,京都府,京都市下京区,朱雀宝蔵町４４番地協栄ビル２階京都朱雀スタジオ,,26,106,6008846,,,,,,,2025-04-18,1,,,,,ウニ,0
994,4140005027483,新規,0,2025-04-18,2025-04-18,一般社団法人レスキューロボットコンテスト,,その他の設立登記法人,兵庫県,神戸市東灘区,住吉東町３丁目３番５－１号,,28,101,6580052,,,,,,,2025-04-18,1,,,,,レスキューロボットコンテスト,0
995,4160001026693,新規,0,2025-04-18,2025-04-18,株式会社一志解業,,株式会社,滋賀県,大津市,大石淀３丁目１５－１１,,25,201,5202262,,,,,,,2025-04-18,1,,,,,イッシカイギョウ,0
1000,4180001166455,新規,0,2025-04-18,2025-04-18,株式会社メディアルク,,株式会社,愛知県,名古屋市中川区,山王２丁目６番Ａ－１２０２号,,23,110,4540011,,,,,,,2025-04-18,1,,,,,メディアルク,0
1014,4220001026621,新規,0,2025-04-18,2025-04-18,株式会社ＴＨＥ　ＡＲＴ　ＪＡＰＡＮ,,株式会社,石川県,金沢市,駅西本町２丁目１２番３７号,,17,201,9200025,,,,,,,2025-04-18,1,,,,,ジアートジャパン,0
1023,4290005019714,新規,0,2025-04-18,2025-04-18,一般社団法人西隈藤五郎会,,その他の設立登記法人,福岡県,那珂川市,西隈３丁目１番１６号,,40,231,8111242,,,,,,,2025-04-18,1,,,,,ニシグマトウゴロウカイ,0
1024,4290801031450,新規,0,2025-04-18,2025-04-18,恒信貿易株式会社,,株式会社,福岡県,北九州市小倉北区,浅野２丁目１７番４６号２０１室,,40,106,8020001,,,,,,,2025-04-18,1,,,,,コウシンボウエキ,0
1025,4290801031459,新規,0,2025-04-18,2025-04-18,株式会社水の門,,株式会社,福岡県,北九州市門司区,田野浦１丁目１３－６,,40,101,8010803,,,,,,,2025-04-18,1,,,,,ミナト,0
1026,4290801031467,新規,0,2025-04-18,2025-04-18,株式会社ＴＯＰ不動産,,株式会社,福岡県,直方市,須崎町１６番１７号,,40,204,8220024,,,,,,,2025-04-18,1,,,,,トップフドウサン,0
1033,4330001033103,新規,0,2025-04-18,2025-04-18,コムズエンジニアリング株式会社,,株式会社,熊本県,荒尾市,牛水８３１番地４,,43,204,8640026,,,,,,,2025-04-18,1,,,,,コムズエンジニアリング,0
1034,4330003010959,新規,0,2025-04-18,2025-04-18,ＮＥＸＵＳ　ＮＥＯ合同会社,,合同会社,熊本県,球磨郡錦町,大字一武２８２６番地５,,43,501,8680302,,,,,,,2025-04-18,1,,,,,ネクサスネオ,0
1049,4370001052479,新規,0,2025-04-18,2025-04-18,環境エネルギーサポート株式会社,,株式会社,宮城県,仙台市青葉区,小松島２丁目１６番８－２１２号,,04,101,9810905,,,,,,,2025-04-18,1,,,,,カンキョウエネルギーサポート,0
1050,4370001052487,新規,0,2025-04-18,2025-04-18,株式会社中広ワークイン,,株式会社,宮城県,仙台市若林区,舟丁１８番地の２,,04,103,9840806,,,,,,,2025-04-18,1,,,,,チュウコウワークイン,0
1052,4370003007035,新規,0,2025-04-18,2025-04-18,合同会社ユツケル,,合同会社,宮城県,仙台市太白区,大塒町１２番２２号,,04,104,9820027,,,,,,,2025-04-18,1,,,,,ユツケル,0
1054,4370005010945,新規,0,2025-04-18,2025-04-18,一般社団法人縁,,その他の設立登記法人,宮城県,仙台市若林区,荒井字藤田北裏上２５－１,,04,103,9840032,,,,,,,2025-04-18,1,,,,,エン,0
1059,4380001035251,新規,0,2025-04-18,2025-04-18,Ｐｒｏｓｐｅｒ　Ａｇｒｉ株式会社,,株式会社,福島県,いわき市,勿来町関田北町３５番地の２,,07,204,9790146,,,,,,,2025-04-18,1,,,,,プロスパーアグリ,0
1063,4420001019076,新規,0,2025-04-18,2025-04-18,株式会社３Ｋ,,株式会社,青森県,弘前市,大字山下町７番地１,,02,202,0368011,,,,,,,2025-04-18,1,,,,,スリーケー,0
1067,4430001094184,新規,0,2025-04-18,2025-04-18,株式会社Ｂｒｉｇｈｔ　Ｃｒａｆｔ,,株式会社,北海道,札幌市厚別区,厚別東三条７丁目１４－７,,01,108,0040003,,,,,,,2025-04-18,1,,,,,ブライトクラフト,0
1068,4430001094192,新規,0,2025-04-18,2025-04-18,株式会社ラチェットモータース,,株式会社,北海道,札幌市豊平区,水車町７丁目７番１２号ｉｃｃｕＪ２０２,,01,105,0620912,,,,,,,2025-04-18,1,,,,,ラチェットモータース,0
1069,4430001094226,新規,0,2025-04-18,2025-04-18,安信国際株式会社,,株式会社,北海道,千歳市,北斗４丁目５番９号,,01,224,0660073,,,,,,,2025-04-18,1,,,,,アンシンコクサイ,0
1073,4450005004451,新規,0,2025-04-18,2025-04-18,医療法人社団里光会,,その他の設立登記法人,北海道,旭川市,永山五条１９丁目１番４０号,,01,204,0798415,,,,,,,2025-04-18,1,,,,,リコウカイ,0
1075,4460105002313,新規,0,2025-04-18,2025-04-18,一般社団法人帯広畜産大学とことこあるこう,,その他の設立登記法人,北海道,帯広市,稲田町西２線１１番地,,01,207,0800834,,,,,,,2025-04-18,1,,,,,オビヒロチクサンダイガクトコトコアルコウ,0
1076,4460301005292,新規,0,2025-04-18,2025-04-18,大嶺実業株式会社,,株式会社,北海道,北見市,川東５６番地１５３,,01,208,0900807,,,,,,,2025-04-18,1,,,,,オオミネジツギョウ,0
1080,4500001026246,新規,0,2025-04-18,2025-04-18,株式会社オカベ塗装,,株式会社,愛媛県,松山市,三津２丁目１４番８号ビックユー２０２号,,38,201,7918061,,,,,,,2025-04-18,1,,,,,オカベトソウ,0
1081,4500003003490,新規,0,2025-04-18,2025-04-18,合同会社グローアップ,,合同会社,愛媛県,四国中央市,具定町２３２番地１２,,38,213,7990423,,,,,,,2025-04-18,1,,,,,グローアップ,0
1088,5010001254259,新規,0,2025-04-18,2025-04-18,株式会社Ｌｕｄｄ,,株式会社,東京都,千代田区,神田佐久間二丁目１８番地１秋葉原ＳＴＮフロント１０階,,13,101,1000000,,,,,,,2025-04-18,1,,,,,ラッド,0
1089,5010001254267,新規,0,2025-04-18,2025-04-18,株式会社Ｒｇｒｏｗ,,株式会社,東京都,中央区,日本橋室町１丁目１１番１２号日本橋水野ビル７階,,13,102,1030022,,,,,,,2025-04-18,1,,,,,アールグロウ,0
1090,5010001254300,新規,0,2025-04-18,2025-04-18,ＫＯＫＯ　Ｇｒｏｕｐｓ株式会社,,株式会社,東京都,千代田区,神田和泉町一丁目６番１６号ヤマトビル４０５号室,,13,101,1010024,,,,,,,2025-04-18,1,,,,,ココグループス,0
1091,5010001254309,新規,0,2025-04-18,2025-04-18,ユーレカトーキョー株式会社,,株式会社,東京都,中央区,京橋２丁目２番１号,,13,102,1040031,,,,,,,2025-04-18,1,,,,,ユーレカトーキョー,0
1092,5010001254317,新規,0,2025-04-18,2025-04-18,リゾルト１株式会社,,株式会社,東京都,中央区,銀座８丁目１８－１銀座木挽町ビル４階,,13,102,1040061,,,,,,,2025-04-18,1,,,,,リゾルトワン,0
1094,5010003047099,新規,0,2025-04-18,2025-04-18,ＣｌｏｕｄＨＱ　Ｊａｐａｎ合同会社,,合同会社,東京都,千代田区,丸の内２丁目６番１号丸の内パークビルディング森・濱田松本法律事務所外国法共同事業内,,13,101,1000005,,,,,,,2025-04-18,1,,,,,クラウドエイチキュージャパン,0
1095,5010003047108,新規,0,2025-04-18,2025-04-18,ＣＨＥＬＳＥＡ　ＲＥＣＯＲＤＳ合同会社,,合同会社,東京都,中央区,日本橋室町１丁目１１番１２号日本橋水野ビル７階,,13,102,1030022,,,,,,,2025-04-18,1,,,,,チェルシーレコード,0
1097,5010005039937,新規,0,2025-04-18,2025-04-18,一般社団法人一次産業事業承継協会,,その他の設立登記法人,東京都,中央区,京橋２丁目２番１号京橋エドグラン１９階,,13,102,1040031,,,,,,,2025-04-18,1,,,,,イチジサンギョウジギョウショケイキョウカイ,0
1098,5010005039953,新規,0,2025-04-18,2025-04-18,Ｈｕｎｄｒｅｄ一般社団法人,,その他の設立登記法人,東京都,千代田区,丸の内２丁目２番３号丸の内仲通りビル６階,,13,101,1000005,,,,,,,2025-04-18,1,,,,,ハンドレッド,0
1112,5010401189591,新規,0,2025-04-18,2025-04-18,株式会社イネイブラ,,株式会社,東京都,港区,南青山３丁目１番３６号青山丸竹ビル６Ｆ,,13,103,1070062,,,,,,,2025-04-18,1,,,,,イネイブラ,0
1113,5010401189732,新規,0,2025-04-18,2025-04-18,ＹＡＨＵＩ金融株式会社,,株式会社,東京都,港区,虎ノ門１丁目１３番５号ＶＯＲＴ虎ノ門ＩＩ３階,00138830,13,103,1050001,,,,,,,2025-04-18,1,,,,,ヤフィキンユウ,0
1120,5010703007682,新規,0,2025-04-18,2025-04-18,合同会社チャイルドケア,,合同会社,東京都,品川区,西五反田８丁目１－１３ＧＢＳ－Ａ－８号,,13,109,1410031,,,,,,,2025-04-18,1,,,,,チャイルドケア,0
1125,5010903009859,新規,0,2025-04-18,2025-04-18,ホラーズエンターテイメント合同会社,,合同会社,東京都,世田谷区,代沢３丁目１２番１６号,,13,112,1550032,,,,,,,2025-04-18,1,,,,,ホラーズエンターテイメント,0
1133,5011003021416,新規,0,2025-04-18,2025-04-18,合同会社アンバーコンサルティング,,合同会社,東京都,渋谷区,神泉町１番２２－３０４号,,13,113,1500045,,,,,,,2025-04-18,1,,,,,アンバーコンサルティング,0
1141,5011101111473,新規,0,2025-04-18,2025-04-18,株式会社ＧＡＳＨ　ＪＡＰＡＮ,,株式会社,東京都,新宿区,大久保２丁目５番９号シティプラザ大久保６階,,13,104,1690072,,,,,,,2025-04-18,1,,,,,ギャッシュジャパン,0
1142,5011103015788,新規,0,2025-04-18,2025-04-18,合同会社Ｆｅｌｉｓｔｉｃ,,合同会社,東京都,新宿区,西新宿３丁目３番１３号西新宿水間ビル２Ｆ,,13,104,1600023,,,,,,,2025-04-18,1,,,,,フェリスティック,0
1143,5011203004666,新規,0,2025-04-18,2025-04-18,プリモシーン合同会社,,合同会社,東京都,中野区,本町４丁目２１－２,,13,114,1640012,,,,,,,2025-04-18,1,,,,,プリモーシン,0
1147,5011403004680,新規,0,2025-04-18,2025-04-18,ＮＡＢＩＮＡ合同会社,,合同会社,東京都,板橋区,向原１丁目８－１２－２０１,,13,119,1730036,,,,,,,2025-04-18,1,,,,,ナビナ,0
1153,5011601028589,新規,0,2025-04-18,2025-04-18,株式会社ひなぎく,,株式会社,東京都,練馬区,桜台５丁目３７番２３号,,13,120,1760002,,,,,,,2025-04-18,1,,,,,ヒナギク,0
1170,5013301054106,新規,0,2025-04-18,2025-04-18,ＴＲＹＴ株式会社,,株式会社,東京都,豊島区,南池袋１丁目１６番１５号ダイヤゲート池袋５階,,13,116,1710022,,,,,,,2025-04-18,1,,,,,トライト,0
1179,5020001162444,新規,0,2025-04-18,2025-04-18,ＶＥＧＡ株式会社,,株式会社,神奈川県,横浜市青葉区,美しが丘西３丁目４４番地２５,,14,117,2250001,,,,,,,2025-04-18,1,,,,,ベガ,0
1182,5020003028296,新規,0,2025-04-18,2025-04-18,合同会社アルコーリンク,,合同会社,神奈川県,横浜市神奈川区,金港町５－１４クアドリフォリオ８階,,14,102,2210056,,,,,,,2025-04-18,1,,,,,アルコーリンク,0
1186,5021001085008,新規,0,2025-04-18,2025-04-18,株式会社一田,,株式会社,神奈川県,平塚市,達上ケ丘４番７０号,,14,203,2540064,,,,,,,2025-04-18,1,,,,,イチデン,0
1198,5030003026596,新規,0,2025-04-18,2025-04-18,合同会社リンク,,合同会社,埼玉県,さいたま市見沼区,大字丸ヶ崎１０５３番地１,,11,104,3370001,,,,,,,2025-04-18,1,,,,,リンク,0
1199,5030003026605,新規,0,2025-04-18,2025-04-18,ａｄｊｕｖａｎｔ合同会社,,合同会社,埼玉県,狭山市,入間川２丁目６－３ワコーレ第二狭山３０２,,11,215,3501305,,,,,,,2025-04-18,1,,,,,アジュバンド,0
1206,5040001138351,新規,0,2025-04-18,2025-04-18,臨床診断研究センター株式会社,,株式会社,千葉県,千葉市美浜区,中瀬１丁目６ｍＢａｙＰＯＩＮＴ幕張低層棟２Ｆ,,12,106,2610023,,,,,,,2025-04-18,1,,,,,リンショウシンダンケンキュウセンター,0
1207,5040001138368,新規,0,2025-04-18,2025-04-18,Ａｄｖｅｎｉａ株式会社,,株式会社,千葉県,柏市,高田１０７９番地１オーベル柏１０２号,,12,217,2770861,,,,,,,2025-04-18,1,,,,,アドヴェニア,0
1208,5040001138384,新規,0,2025-04-18,2025-04-18,株式会社Ａ．Ｉペイント,,株式会社,千葉県,松戸市,東松戸２丁目１８番地の１３,,12,207,2702225,,,,,,,2025-04-18,1,,,,,エイアイペイント,0
1209,5040001138401,新規,0,2025-04-18,2025-04-18,株式会社彩工業,,株式会社,千葉県,長生郡長柄町,山之郷２３２番地８１,,12,426,2970231,,,,,,,2025-04-18,1,,,,,アヤコウギョウ,0
1213,5040005022733,新規,0,2025-04-18,2025-04-18,特定非営利活動法人ガウラ未来サポート,,その他の設立登記法人,千葉県,袖ケ浦市,坂戸市場９２番地３,,12,229,2990262,,,,,,,2025-04-18,1,,,,,ガウラミライサポート,0
1224,5070001042781,新規,0,2025-04-18,2025-04-18,株式会社ライフクリエイト,,株式会社,群馬県,太田市,下浜田町１０８５番地７２,,10,205,3730821,,,,,,,2025-04-18,1,,,,,ライフクリエイト,0
1225,5070001042856,新規,0,2025-04-18,2025-04-18,株式会社聖陽,,株式会社,群馬県,前橋市,宮地町３３番地６８,,10,201,3710814,,,,,,,2025-04-18,1,,,,,,0
1226,5070003005877,新規,0,2025-04-18,2025-04-18,合同会社地域共育リンク,,合同会社,群馬県,前橋市,千代田町２丁目２番１１号・２階,,10,201,3710022,,,,,,,2025-04-18,1,,,,,チイキキョウイクリンク,0
1233,5080101025446,新規,0,2025-04-18,2025-04-18,株式会社悠久,,株式会社,静岡県,沼津市,三園町１３番３５号,,22,203,4100833,,,,,,,2025-04-18,1,,,,,ユウキュウ,0
1240,5100001038529,新規,0,2025-04-18,2025-04-18,ＪＡＴ株式会社,,株式会社,長野県,茅野市,ちの２８３番地コンフォールパレスＭＧ５０１号,,20,214,3910001,,,,,,,2025-04-18,1,,,,,ジェイエイティ,0
1248,5110005017222,新規,0,2025-04-18,2025-04-18,医療法人社団Ｌａｕｇｈ　Ｗｉｔｈ,,その他の設立登記法人,新潟県,新潟市南区,庄瀬７０３１番地,,15,106,9501446,,,,,,,2025-04-18,1,,,,,ラフウィズ,0
1256,5120001274626,新規,0,2025-04-18,2025-04-18,株式会社Ｒｙｕｊｉｎ,,株式会社,大阪府,大阪市北区,曾根崎１丁目３－６－５０１,,27,127,5300057,,,,,,,2025-04-18,1,,,,,リュウジン,0
1257,5120001274717,新規,0,2025-04-18,2025-04-18,株式会社いちファーマシー,,株式会社,大阪府,大阪市東住吉区,南田辺２丁目４番１７号,,27,121,5460033,,,,,,,2025-04-18,1,,,,,イチファーマシー,0
1258,5120001275112,新規,0,2025-04-18,2025-04-18,株式会社ｍｏｍｅｌｔ,,株式会社,大阪府,大阪市西区,南堀江３丁目１６番２１シエリアタワー大阪堀江１４０９号室,,27,106,5500015,,,,,,,2025-04-18,1,,,,,モメルト,0
1263,5120003029160,新規,0,2025-04-18,2025-04-18,合同会社ＡＦＫＲ,,合同会社,大阪府,寝屋川市,若葉町６番１０号,,27,215,5720031,,,,,,,2025-04-18,1,,,,,エーエフケーアール,0
1271,5120101071444,新規,0,2025-04-18,2025-04-18,ＪａｐａｎＶｉｓｉｏｎ株式会社,,株式会社,大阪府,堺市堺区,甲斐町東６丁１－４朝日プラザ堺東１０２号室,,27,141,5900953,,,,,,,2025-04-18,1,,,,,ジャパンビジョン,0
1272,5120101071493,新規,0,2025-04-18,2025-04-18,株式会社Ｖｉｓｉｏｎ　Ｃｏｎｎｅｃｔ,,株式会社,大阪府,松原市,岡６丁目２番１号キャナルコート神田４階,,27,217,5800014,,,,,,,2025-04-18,1,,,,,ビジョンコネクト,0
1273,5120103006407,新規,0,2025-04-18,2025-04-18,合同会社Ｙｕｕｗａ,,合同会社,大阪府,堺市西区,鳳東町２丁１６９番地３,,27,144,5938324,,,,,,,2025-04-18,1,,,,,ユウワ,0
1283,5130001079454,新規,0,2025-04-18,2025-04-18,株式会社ＲＹＯＭＡ,,株式会社,京都府,京都市右京区,山ノ内西裏町１５－８８マンハイム東雲１０３号室,,26,108,6150071,,,,,,,2025-04-18,1,,,,,リョウマ,0
1289,5140003021933,新規,0,2025-04-18,2025-04-18,ＭＫ　ＴＲＡＤＩＮＧ合同会社,,合同会社,兵庫県,神戸市西区,南別府１丁目６－５,,28,111,6512116,,,,,,,2025-04-18,1,,,,,エムケートレーディング,0
1290,5140005027482,新規,0,2025-04-18,2025-04-18,医療法人社団木下歯科,,その他の設立登記法人,兵庫県,伊丹市,稲野町６丁目８６番地,,28,207,6640861,,,,,,,2025-04-18,1,,,,,キノシタシカ,0
1291,5160001026692,新規,0,2025-04-18,2025-04-18,株式会社碧葉,,株式会社,滋賀県,大津市,青山２丁目８番５号,,25,201,5202101,,,,,,,2025-04-18,1,,,,,アオバ,0
1292,5160001026701,新規,0,2025-04-18,2025-04-18,株式会社Ｔｏｍｏｒｉｍｏ,,株式会社,滋賀県,高島市,今津町梅原３２８番地,,25,212,5201654,,,,,,,2025-04-18,1,,,,,トモリモ,0
1295,5180001166446,新規,0,2025-04-18,2025-04-18,チャアズ株式会社,,株式会社,愛知県,名古屋市東区,白壁２丁目８番２０号,,23,102,4610011,,,,,,,2025-04-18,1,,,,,チャアズ,0
1296,5180001166462,新規,0,2025-04-18,2025-04-18,株式会社ＧＬＯＢＡＬ　ＡＵＴＯ,,株式会社,愛知県,名古屋市守山区,大字上志段味字樹木１６５３番地の３,,23,113,4630001,,,,,,,2025-04-18,1,,,,,グローバルオート,0
1299,5180003028347,新規,0,2025-04-18,2025-04-18,ＤＵＢＡＩ合同会社,,合同会社,愛知県,岩倉市,稲荷町稲荷６５番地水越産業アパート南棟２０３号,,23,228,4820012,,,,,,,2025-04-18,1,,,,,ドバイ,0
1301,5180301039731,新規,0,2025-04-18,2025-04-18,株式会社ＲＵＮＡ‐ＡＫＩ,,株式会社,愛知県,岡崎市,大樹寺１丁目５番地１７,,23,202,4442134,,,,,,,2025-04-18,1,,,,,ルナアキ,0
1314,5220001026620,新規,0,2025-04-18,2025-04-18,株式会社シープカンパニー,,株式会社,石川県,金沢市,朝霧台２丁目３９番地,,17,201,9201158,,,,,,,2025-04-18,1,,,,,シープカンパニー,0
1328,5250001021107,新規,0,2025-04-18,2025-04-18,株式会社山角電気設備,,株式会社,山口県,長門市,東深川１８６０番地１,,35,211,7594101,,,,,,,2025-04-18,1,,,,,ヤマカドデンキセツビ,0
1331,5290801031466,新規,0,2025-04-18,2025-04-18,株式会社グットプラス,,株式会社,福岡県,北九州市八幡西区,沖田５丁目２１－５４,,40,109,8070077,,,,,,,2025-04-18,1,,,,,グットプラス,0
1335,5300005007237,新規,0,2025-04-18,2025-04-18,医療法人雪風,,その他の設立登記法人,佐賀県,唐津市,和多田用尺１２番２９号,,41,202,8470075,,,,,,,2025-04-18,1,,,,,ユキカゼ,0
1336,5320001021058,新規,0,2025-04-18,2025-04-18,株式会社ジャズミー,,株式会社,大分県,大分市,顕徳町１丁目１０番５号,,44,201,8700025,,,,,,,2025-04-18,1,,,,,ジャズミー,0
1337,5330001033102,新規,0,2025-04-18,2025-04-18,株式会社しみじみ,,株式会社,熊本県,熊本市北区,四方寄町１８０１番地１,,43,105,8615515,,,,,,,2025-04-18,1,,,,,シミジミ,0
1338,5330003010966,新規,0,2025-04-18,2025-04-18,友利グローバル合同会社,,合同会社,熊本県,熊本市北区,山室３丁目２番５号,,43,105,8600084,,,,,,,2025-04-18,1,,,,,ユウリグローバル,0
1343,5340003004827,新規,0,2025-04-18,2025-04-18,合同会社Ｌｕｓｈ　Ｌｉｆｅ,,合同会社,鹿児島県,南九州市,知覧町瀬世４６００番地４１,,46,223,8970305,,,,,,,2025-04-18,1,,,,,ラッシュライフ,0
1347,5360003014857,新規,0,2025-04-18,2025-04-18,合同会社Ｏｖｅｒｃｏｏｋｅｄ,,合同会社,沖縄県,宮古島市,伊良部字前里添２番地７,,47,214,9060501,,,,,,,2025-04-18,1,,,,,オーバークック,0
1351,5370005010944,新規,0,2025-04-18,2025-04-18,一般社団法人Ｆｕｔｕｒｅ　Ａｒｔ　Ｆｒｏｎｔｉｅｒ,,その他の設立登記法人,宮城県,仙台市青葉区,本町１丁目１２－１２,,04,101,9800014,,,,,,,2025-04-18,1,,,,,フューチャーアートフロンティア,0
1379,5480001012801,新規,0,2025-04-18,2025-04-18,徳島トヨタホールディングス株式会社,,株式会社,徳島県,徳島市,国府町観音寺１３０番地１,,36,201,7793123,,,,,,,2025-04-18,1,,,,,トクシマトヨタホールディングス,0
1380,5480005007079,新規,0,2025-04-18,2025-04-18,一般社団法人日本スパイダー協会,,その他の設立登記法人,徳島県,徳島市,川内町下別宮西４７番地１,,36,201,7710105,,,,,,,2025-04-18,1,,,,,ニホンスパイダーキョウカイ,0
1382,5700150130001,新規,0,2025-04-18,2025-04-18,Ｎｉｋｏｎ　ＳＬＭ　Ｓｏｌｕｔｉｏｎｓ　Ｓｉｎｇａｐｏｒｅ　Ｐｔｅ．Ｌｔｄ．,,外国会社等,東京都,港区,海岸１丁目２番３号　汐留芝離宮ビルディング２１階,,13,103,1050022,シンガポール共和国、６０９９１６シンガポール、インターナショナル・ビジネス・パーク２５、ドイツセンター♯０３－５７／５８,,,,,,2025-04-18,1,,,,,ニコンエスエルエムソリユーシヨンズシンガポールピーテイーイーリミテツド,0
1386,6010001254274,新規,0,2025-04-18,2025-04-18,ジャパンマスターリース株式会社,,株式会社,東京都,中央区,八重洲１丁目５番１０号ソーケンビル八重洲３階,,13,102,1030028,,,,,,,2025-04-18,1,,,,,ジャパンマスターリース,0
1387,6010001254324,新規,0,2025-04-18,2025-04-18,株式会社エキスパートギルド,,株式会社,東京都,中央区,日本橋小網町１６番２号,,13,102,1030016,,,,,,,2025-04-18,1,,,,,エキスパートギルド,0
1388,6010003047065,新規,0,2025-04-18,2025-04-18,ＤＹＫ合同会社,,合同会社,東京都,中央区,京橋１丁目８番１０号,,13,102,1040031,,,,,,,2025-04-18,1,,,,,ディーワイケー,0
1394,6010005039952,新規,0,2025-04-18,2025-04-18,ＣａｐｉｔａＬａｎｄ　Ｈｕｎｄｒｅｄ　Ｖｅｎｔｕｒｅｓ一般社団法人,,その他の設立登記法人,東京都,千代田区,丸の内２丁目２番３号丸の内仲通りビル６階,,13,101,1000005,,,,,,,2025-04-18,1,,,,,キャピタランドハンドレッドベンチャーズ,0
1402,6010401189715,新規,0,2025-04-18,2025-04-18,株式会社ＦＬＩＱ,,株式会社,東京都,港区,南青山３丁目１番３６号青山丸竹ビル６Ｆ,,13,103,1070062,,,,,,,2025-04-18,1,,,,,フリック,0
1408,6010603011511,新規,0,2025-04-18,2025-04-18,合同会社ヘルスナース,,合同会社,東京都,江東区,亀戸９丁目３４番１,,13,108,1360071,,,,,,,2025-04-18,1,,,,,ヘルスナース,0
1409,6010705003753,新規,0,2025-04-18,2025-04-18,特定非営利活動法人ＩＣＴリハビリテーション研究会,,その他の設立登記法人,東京都,品川区,平塚１丁目１３番１０号クレストフォルム戸越６０５,,13,109,1420051,,,,,,,2025-04-18,1,,,,,アイシーティーリハビリテーションケンキュウカイ,0
1410,6010803005354,新規,0,2025-04-18,2025-04-18,合同会社ＧＴＭコンサルティング,,合同会社,東京都,大田区,南千束２丁目２５番１７－３１０号,,13,111,1450063,,,,,,,2025-04-18,1,,,,,ジーティーエムコンサルティング,0
1420,6011001169082,新規,0,2025-04-18,2025-04-18,モバイルセンス株式会社,,株式会社,東京都,渋谷区,渋谷２丁目１９番１５号宮益坂ビルディング６０９,,13,113,1500002,,,,,,,2025-04-18,1,,,,,モバイルセンス,0
1422,6011003021423,新規,0,2025-04-18,2025-04-18,合同会社シオグミ,,合同会社,東京都,渋谷区,道玄坂１丁目１０番８号渋谷道玄坂東急ビル２Ｆ－Ｃ,,13,113,1500043,,,,,,,2025-04-18,1,,,,,シオグミ,0
1426,6011101111349,新規,0,2025-04-18,2025-04-18,株式会社ぺしゅくらん,,株式会社,東京都,新宿区,新宿２丁目１２番１３号,,13,104,1600022,,,,,,,2025-04-18,1,,,,,ペシュクラン,0
1427,6011101111448,新規,0,2025-04-18,2025-04-18,文政株式会社,,株式会社,東京都,新宿区,市谷柳町１番地４,,13,104,1620061,,,,,,,2025-04-18,1,,,,,ブンセイ,0
1431,6011303005506,新規,0,2025-04-18,2025-04-18,合同会社ＴＫＳＹ,,合同会社,東京都,杉並区,高円寺北４丁目２６－１０グランヴェール高円寺ＥＡＳＴ１０２,,13,115,1660002,,,,,,,2025-04-18,1,,,,,ティーケーエスワイ,0
1434,6011501031956,新規,0,2025-04-18,2025-04-18,韓洋商事株式会社,,株式会社,東京都,荒川区,東尾久２丁目２－９三祥ビル２１５室,,13,118,1160012,,,,,,,2025-04-18,1,,,,,カンヨウショウジ,0
1439,6011703004207,新規,0,2025-04-18,2025-04-18,合同会社ＬＥＡＰ,,合同会社,東京都,江戸川区,中央２丁目１番１２号,,13,123,1320021,,,,,,,2025-04-18,1,,,,,リープ,0
1466,6030001166030,新規,0,2025-04-18,2025-04-18,株式会社オールテック,,株式会社,埼玉県,狭山市,大字青柳７番地の５,,11,215,3501301,,,,,,,2025-04-18,1,,,,,オールテック,0
1467,6030001166055,新規,0,2025-04-18,2025-04-18,株式会社ＮＯＶＡＳＴＲＡ,,株式会社,埼玉県,さいたま市大宮区,桜木町２丁目３番地大宮マルイ７階,,11,103,3300854,,,,,,,2025-04-18,1,,,,,ノヴァストラ,0
1468,6030001166063,新規,0,2025-04-18,2025-04-18,株式会社わーるどもんすたー,,株式会社,埼玉県,川口市,西青木２丁目１１番３１号,,11,203,3320035,,,,,,,2025-04-18,1,,,,,ワールドモンスター,0
1469,6030001166071,新規,0,2025-04-18,2025-04-18,日安電子科技株式会社,,株式会社,埼玉県,さいたま市浦和区,北浦和２丁目１－１６－１０３号室,,11,107,3300074,,,,,,,2025-04-18,1,,,,,ニチアンデンシカギ,0
1474,6030003026562,新規,0,2025-04-18,2025-04-18,合同会社ワンダ,,合同会社,埼玉県,北本市,中丸１０丁目４３番地１,,11,233,3640013,,,,,,,2025-04-18,1,,,,,ワンダ,0
1475,6030003026612,新規,0,2025-04-18,2025-04-18,横山合同会社,,合同会社,埼玉県,蕨市,塚越７丁目２６番３号,,11,223,3350002,,,,,,,2025-04-18,1,,,,,ヨコヤマ,0
1481,6040001138383,新規,0,2025-04-18,2025-04-18,Ｒｅｚａｓｔ株式会社,,株式会社,千葉県,船橋市,海神３丁目７番２５－２０５号,,12,204,2730021,,,,,,,2025-04-18,1,,,,,リザスト,0
1482,6040001138400,新規,0,2025-04-18,2025-04-18,株式会社さくもあ,,株式会社,千葉県,佐倉市,中志津１丁目３３－９,,12,212,2850843,,,,,,,2025-04-18,1,,,,,サクモア,0
1484,6040005022716,新規,0,2025-04-18,2025-04-18,一般社団法人野毛平工業団地連絡協議会,,その他の設立登記法人,千葉県,成田市,新泉１９番地,,12,211,2860825,,,,,,,2025-04-18,1,,,,,ノゲダイラコウギョウダンチレンラクキョウギカイ,0
1485,6040005022732,新規,0,2025-04-18,2025-04-18,一般社団法人建設業災害対策連携協会,,その他の設立登記法人,千葉県,成田市,芦田２１０２－１,,12,211,2860831,,,,,,,2025-04-18,1,,,,,ケンセツギョウサイガイタイサクレンケイキョウカイ,0
1486,6040005022740,新規,0,2025-04-18,2025-04-18,医療法人社団コーラス,,その他の設立登記法人,千葉県,四街道市,大日１０３番地５３,,12,228,2840001,,,,,,,2025-04-18,1,,,,,コーラス,0
1487,6050001056510,新規,0,2025-04-18,2025-04-18,柴沼醤油ダイニング株式会社,,株式会社,茨城県,土浦市,虫掛３７４番地,,08,203,3000066,,,,,,,2025-04-18,1,,,,,シバヌマショウユダイニング,0
1488,6050001056527,新規,0,2025-04-18,2025-04-18,株式会社ＡＩＴＡ,,株式会社,茨城県,つくば市,上郷１９１８番地３,,08,220,3002645,,,,,,,2025-04-18,1,,,,,アイタ,0
1495,6060005010330,新規,0,2025-04-18,2025-04-18,特定非営利活動法人Ｆｌｙｉｎｇ　Ｋｉｗｉ,,その他の設立登記法人,栃木県,小山市,大字中河原３３５番地１,,09,208,3230157,,,,,,,2025-04-18,1,,,,,フライングキウイ,0
1496,6070001042863,新規,0,2025-04-18,2025-04-18,真澄株式会社,,株式会社,群馬県,前橋市,城東町１丁目２９番地４,,10,201,3710016,,,,,,,2025-04-18,1,,,,,,0
1499,6080003003441,新規,0,2025-04-18,2025-04-18,合同会社の助,,合同会社,静岡県,静岡市清水区,蒲原５１８４番地の２４,,22,103,4213203,,,,,,,2025-04-18,1,,,,,ノスケ,0
1512,6120001274708,新規,0,2025-04-18,2025-04-18,株式会社ＭＯクリエイト,,株式会社,大阪府,大阪市住吉区,殿辻２丁目５番１４号メゾン沢之町５Ａ号,00138834,27,120,5580042,,,,,,,2025-04-18,1,,,,,エムオークリエイト,0
1513,6120001274757,新規,0,2025-04-18,2025-04-18,株式会社ネクサスコンサルティング,,株式会社,大阪府,大阪市中央区,南船場３丁目２－２２おおきに南船場ビル２０５,,27,128,5420081,,,,,,,2025-04-18,1,,,,,ネクサスコンサルティング,0
1515,6120101071492,新規,0,2025-04-18,2025-04-18,神建設株式会社,,株式会社,大阪府,堺市南区,美木多上２６９０番地,,27,145,5900136,,,,,,,2025-04-18,1,,,,,ジンケンセツ,0
1520,6122003003185,新規,0,2025-04-18,2025-04-18,合同会社ＰＬＵＳＡＬＰＨＡ,,合同会社,大阪府,八尾市,木の本１丁目１－２,,27,212,5810044,,,,,,,2025-04-18,1,,,,,プラスアルファ,0
1526,6130001079461,新規,0,2025-04-18,2025-04-18,株式会社ｉｎｆｉｎｉｔｙ,,株式会社,京都府,京都市中京区,西ノ京職司町６７－７６,,26,104,6048381,,,,,,,2025-04-18,1,,,,,インフィニティ,0
1527,6130003010390,新規,0,2025-04-18,2025-04-18,合同会社バックベース,,合同会社,京都府,京都市下京区,七条通油小路東入大黒町２２７番地第２キョートビル４０２,,26,106,6008223,,,,,,,2025-04-18,1,,,,,バックベース,0
1543,6180001166073,新規,0,2025-04-18,2025-04-18,株式会社３Ｍ’ｓ　ｍａｎａｇｅｍｅｎｔ,,株式会社,愛知県,一宮市,萩原町串作字郷４６７－１,,23,203,4910376,,,,,,,2025-04-18,1,,,,,スリーエムズマネジメント,0
1544,6180001166338,新規,0,2025-04-18,2025-04-18,安株式会社,,株式会社,愛知県,名古屋市中区,千代田３丁目８番１０号万長ビル６０１号,,23,106,4600012,,,,,,,2025-04-18,1,,,,,アン,0
1548,6180301039730,新規,0,2025-04-18,2025-04-18,株式会社Ｍ‐ａｃｅ,,株式会社,愛知県,安城市,福釜町鴻ノ巣９７番地１０,,23,212,4460052,,,,,,,2025-04-18,1,,,,,エムエース,0
1553,6200003006786,新規,0,2025-04-18,2025-04-18,合同会社Ｙｏｈｋｅ　Ｃｒｅａｔｅ,,合同会社,岐阜県,中津川市,阿木４３４３番地の３,,21,206,5097321,,,,,,,2025-04-18,1,,,,,ヨーククリエイト,0
1558,6230001020852,新規,0,2025-04-18,2025-04-18,株式会社とやま創造,,株式会社,富山県,富山市,下タ林２８０番地３,,16,201,9392226,,,,,,,2025-04-18,1,,,,,トヤマソウゾウ,0
1566,6240001064824,新規,0,2025-04-18,2025-04-18,ｆｉｅｌｄｂｏｏｋ株式会社,,株式会社,広島県,広島市安佐南区,西原１丁目２０番３３－４０８号,,34,105,7310113,,,,,,,2025-04-18,1,,,,,フィールドブック,0
1573,6260003005147,新規,0,2025-04-18,2025-04-18,合同会社かいさな不動産,,合同会社,岡山県,和気郡和気町,福富４５６－１５,,33,346,7090442,,,,,,,2025-04-18,1,,,,,カイサナフドウサン,0
1577,6290001109649,新規,0,2025-04-18,2025-04-18,渡森株式会社,,株式会社,福岡県,福岡市東区,唐原５丁目１番４７－２０２号,,40,131,8130001,,,,,,,2025-04-18,1,,,,,トシン,0
1580,6290801031457,新規,0,2025-04-18,2025-04-18,株式会社ＨＩＬＯ,,株式会社,福岡県,北九州市小倉南区,朽網西３丁目１１番１２号,,40,107,8000233,,,,,,,2025-04-18,1,,,,,ヒロ,0
1588,6320003004638,新規,0,2025-04-18,2025-04-18,合同会社煌伸運輸,,合同会社,大分県,日田市,大字日高５７８番地７,,44,204,8770000,,,,,,,2025-04-18,1,,,,,コウシンウンユ,0
1596,6360001035061,新規,0,2025-04-18,2025-04-18,株式会社五栄興業,,株式会社,沖縄県,浦添市,字経塚６０７番地３,,47,208,9012111,,,,,,,2025-04-18,1,,,,,ゴエイコウギョウ,0
1598,6360003014856,新規,0,2025-04-18,2025-04-18,ａｌｅｇｒｉａ合同会社,,合同会社,沖縄県,宮古島市,平良字下里１５４１－６ｇａｒｉ－ｃａｓａ２Ａ,,47,214,9060013,,,,,,,2025-04-18,1,,,,,アレグリア,0
1599,6360003014872,新規,0,2025-04-18,2025-04-18,合同会社朝陽組,,合同会社,沖縄県,宮古島市,平良字松原２９８番地,,47,214,9060014,,,,,,,2025-04-18,1,,,,,アサヒグミ,0
1602,6370001052477,新規,0,2025-04-18,2025-04-18,株式会社後藤工業,,株式会社,宮城県,大崎市,古川大宮４丁目５番２号,,04,215,9896221,,,,,,,2025-04-18,1,,,,,ゴトウコウギョウ,0
1603,6370003007041,新規,0,2025-04-18,2025-04-18,合同会社フライングブイ,,合同会社,宮城県,仙台市宮城野区,安養寺１丁目４－６,,04,102,9830832,,,,,,,2025-04-18,1,,,,,フライングブイ,0
1610,6390005009117,新規,0,2025-04-18,2025-04-18,特定非営利活動法人マルセンステップ,,その他の設立登記法人,山形県,長井市,あら町１番２６号,,06,209,9930006,,,,,,,2025-04-18,1,,,,,マルセンステップ,0
1615,6460001006003,新規,0,2025-04-18,2025-04-18,株式会社ＭＡＲＵＫＡ,,株式会社,北海道,釧路郡釧路町,昆布森１丁目１０２番地１,,01,661,0852272,,,,,,,2025-04-18,1,,,,,,0
1632,7010001254307,新規,0,2025-04-18,2025-04-18,株式会社ジェネシス,,株式会社,東京都,中央区,銀座１丁目１２番４号Ｎ＆ＥＢＬＤ６Ｆ,,13,102,1040061,,,,,,,2025-04-18,1,,,,,,0
1633,7010001254315,新規,0,2025-04-18,2025-04-18,ファンタジーインベストメント株式会社,,株式会社,東京都,中央区,築地３丁目３番２号ＮＥＷＳ築地ビル７号室,,13,102,1040045,,,,,,,2025-04-18,1,,,,,,0
1634,7010001254331,新規,0,2025-04-18,2025-04-18,株式会社ＡｔｏＺ,,株式会社,東京都,中央区,日本橋３丁目７－７日本橋アーバンビルヂング４階,,13,102,1030027,,,,,,,2025-04-18,1,,,,,エートゥゼット,0
1641,7010003047106,新規,0,2025-04-18,2025-04-18,鬼高資産運用合同会社,,合同会社,東京都,千代田区,平河町１丁目６番１５号シルスフィア会計事務所内,,13,101,1020093,,,,,,,2025-04-18,1,,,,,オニダカシサンウンヨウ,0
1644,7010005039951,新規,0,2025-04-18,2025-04-18,エコーランド特定目的会社,,その他の設立登記法人,東京都,千代田区,霞が関３丁目２番５号,,13,101,1000013,,,,,,,2025-04-18,1,,,,,エコーランド,0
1647,7010401189549,新規,0,2025-04-18,2025-04-18,株式会社カラン,,株式会社,東京都,港区,赤坂２丁目１３－１７シントミ赤坂第２ビル３０２,,13,103,1070052,,,,,,,2025-04-18,1,,,,,カラン,0
1648,7010401189623,新規,0,2025-04-18,2025-04-18,株式会社Ｔｅｎｄｅｒ　Ｂｌｏｏｍ,,株式会社,東京都,港区,北青山１丁目３番１号アルキューブ青山３階,,13,103,1070061,,,,,,,2025-04-18,1,,,,,テンダーブルーム,0
1649,7010401189714,新規,0,2025-04-18,2025-04-18,Ｕｎｉｔｅｄ　Ｉｒｏｎ　Ｔｅｃｈ株式会社,,株式会社,東京都,港区,赤坂２丁目８番１４－５０４号,,13,103,1070052,,,,,,,2025-04-18,1,,,,,ユナイテッドアイロンテック,0
1650,7010401189813,新規,0,2025-04-18,2025-04-18,株式会社ｇＨｉｖｅ,,株式会社,東京都,港区,北青山１丁目３－３三橋ビル３階,,13,103,1070061,,,,,,,2025-04-18,1,,,,,ジーハイブ,0
1652,7010403034835,新規,0,2025-04-18,2025-04-18,Ｌｕｒｂｅｌ合同会社,,合同会社,東京都,港区,北青山１丁目３番１号アールキューブ青山３階,,13,103,1070061,,,,,,,2025-04-18,1,,,,,ルルベル,0
1658,7010603011510,新規,0,2025-04-18,2025-04-18,合同会社Ａｄｅ,,合同会社,東京都,江東区,新大橋２丁目２番１０号,,13,108,1350007,,,,,,,2025-04-18,1,,,,,アーデ,0
1659,7010603011519,新規,0,2025-04-18,2025-04-18,合同会社フィノス,,合同会社,東京都,江東区,清澄３丁目１０番７号シエロ２０１,,13,108,1350024,,,,,,,2025-04-18,1,,,,,フィノス,0
1660,7010701047522,新規,0,2025-04-18,2025-04-18,株式会社Ｃ＆Ｇシステムズ,,株式会社,東京都,品川区,東品川２丁目２番２４号,,13,109,1400002,,,,,,,2025-04-18,1,,,,,シーアンドジーシステムズ,0
1663,7010901057197,新規,0,2025-04-18,2025-04-18,株式会社ＢＯＮＮＹ　ＥＳＴＡＴＥ,,株式会社,東京都,世田谷区,北沢５丁目２４番２１号－２５,,13,112,1550031,,,,,,,2025-04-18,1,,,,,ボニーエステイト,0
1673,7011001168810,新規,0,2025-04-18,2025-04-18,株式会社希屋,,株式会社,東京都,目黒区,青葉台２丁目１６番１２－６０３号メゾン鳳月,,13,110,1530042,,,,,,,2025-04-18,1,,,,,マレヤ,0
1674,7011001168975,新規,0,2025-04-18,2025-04-18,ＰｕＲｕｔｈ株式会社,,株式会社,東京都,渋谷区,渋谷２丁目１９－１５宮益坂ビルディング６０９,,13,113,1500002,,,,,,,2025-04-18,1,,,,,パルス,0
1675,7011003021422,新規,0,2025-04-18,2025-04-18,Ｌｉｐｓｙｎｃ　Ｐｒｏｄｕｃｔｉｏｎ合同会社,,合同会社,東京都,渋谷区,神宮前６丁目２３番４号桑野ビル２階,,13,113,1500001,,,,,,,2025-04-18,1,,,,,リップシンクプロダクション,0
1682,7011101111372,新規,0,2025-04-18,2025-04-18,株式会社ＭＴＩｃｏｎｓｕｌｔｉｎｇ,,株式会社,東京都,新宿区,富久町３２－３東新富久町ビル１階,,13,104,1620067,,,,,,,2025-04-18,1,,,,,エムティアイコンサルティング,0
1683,7011103015786,新規,0,2025-04-18,2025-04-18,合同会社楽,,合同会社,東京都,新宿区,新宿７丁目６番１０号,,13,104,1600022,,,,,,,2025-04-18,1,,,,,ラク,0
1685,7011301030505,新規,0,2025-04-18,2025-04-18,安隆株式会社,,株式会社,東京都,杉並区,高円寺南２丁目１７番１４号１階,,13,115,1660003,,,,,,,2025-04-18,1,,,,,アンリュウ,0
1686,7011303005505,新規,0,2025-04-18,2025-04-18,合同会社諦空塾,,合同会社,東京都,杉並区,浜田山４丁目１８―２４―１０４,,13,115,1680065,,,,,,,2025-04-18,1,,,,,タイクウジュク,0
1691,7011403004679,新規,0,2025-04-18,2025-04-18,Ｚｅｎ　ｊａｐａｎｅｓｅ合同会社,,合同会社,東京都,板橋区,中台１丁目１８－６あすかパレス中台２０５号室,,13,119,1740064,,,,,,,2025-04-18,1,,,,,ゼンジャパニーズ,0
1692,7011503006492,新規,0,2025-04-18,2025-04-18,ＡＰＲＩＬ合同会社,,合同会社,東京都,荒川区,西日暮里１丁目４７番９号狩野ビル３０１,,13,118,1160013,,,,,,,2025-04-18,1,,,,,エイプレ,0
1694,7011703004206,新規,0,2025-04-18,2025-04-18,合同会社アップステージ,,合同会社,東京都,江戸川区,西葛西６丁目２７番１３－６０２号ファランドール西葛西,,13,123,1340088,,,,,,,2025-04-18,1,,,,,アップステージ,0
1701,7012703003247,新規,0,2025-04-18,2025-04-18,Ｒａｂａ　Ｅｍｕｎａｔｅｃｈａ合同会社,,合同会社,東京都,東久留米市,東本町３番１５号,,13,222,2030014,,,,,,,2025-04-18,1,,,,,ラバエムナテッカ,0
1706,7013303007605,新規,0,2025-04-18,2025-04-18,合同会社しろいぶた,,合同会社,東京都,豊島区,巣鴨１丁目９番１号グランド東邦ビル,,13,116,1700002,,,,,,,2025-04-18,1,,,,,シロイブタ,0
1713,7020001162244,新規,0,2025-04-18,2025-04-18,株式会社梶本商店,,株式会社,神奈川県,横浜市瀬谷区,下瀬谷２丁目２５番地１４ラディエンス横浜瀬谷２０８,,14,114,2460035,,,,,,,2025-04-18,1,,,,,カジモトショウテン,0
1714,7020001162392,新規,0,2025-04-18,2025-04-18,Ｒｅｇｉｓ　Ｈａｒｂｏｒ　Ｉｎｔｅｒｎａｔｉｏｎａｌ株式会社,,株式会社,神奈川県,横浜市中区,西竹之丸１１２番地１４,,14,104,2310852,,,,,,,2025-04-18,1,,,,,レジスハーバーインターナショナル,0
1717,7020003028096,新規,0,2025-04-18,2025-04-18,合同会社ＬｉＲｕ,,合同会社,神奈川県,横浜市港南区,上永谷５丁目１４－２３,,14,111,2330012,,,,,,,2025-04-18,1,,,,,リル,0
1718,7020003028311,新規,0,2025-04-18,2025-04-18,合同会社風香,,合同会社,神奈川県,横浜市中区,山手町１０６番地３,,14,104,2310862,,,,,,,2025-04-18,1,,,,,フウカ,0
1719,7021001085006,新規,0,2025-04-18,2025-04-18,株式会社ゴルアド,,株式会社,神奈川県,横須賀市,光の丘８番３号ＹＲＰベンチャー棟３階,,14,201,2390847,,,,,,,2025-04-18,1,,,,,ゴルアド,0
1728,7030001166062,新規,0,2025-04-18,2025-04-18,株式会社インターセクション,,株式会社,埼玉県,川口市,飯塚１丁目１４番２４－４０５号藤和川口コープ,,11,203,3320023,,,,,,,2025-04-18,1,,,,,インターセクション,0
1730,7030003026603,新規,0,2025-04-18,2025-04-18,合同会社エニレック,,合同会社,埼玉県,川口市,大字赤山１０７２番地の８,,11,203,3330825,,,,,,,2025-04-18,1,,,,,エニレック,0
1734,7040001138333,新規,0,2025-04-18,2025-04-18,株式会社ミートクリエイション,,株式会社,千葉県,浦安市,北栄２丁目６番２８号,,12,227,2790002,,,,,,,2025-04-18,1,,,,,ミートクリエイション,0
1735,7040001138390,新規,0,2025-04-18,2025-04-18,ｕｎｏ　ｄｕｅ株式会社,,株式会社,千葉県,市原市,五井２２３５番地６号１階,,12,219,2900056,,,,,,,2025-04-18,1,,,,,ウーノドゥエ,0
1736,7040003027377,新規,0,2025-04-18,2025-04-18,合同会社ＳＡＫＡ’ｓ,,合同会社,千葉県,船橋市,西船３丁目２番１１－５０６号,,12,204,2730031,,,,,,,2025-04-18,1,,,,,サカス,0
1737,7040003027393,新規,0,2025-04-18,2025-04-18,合同会社ＩＴＯリフォーム,,合同会社,千葉県,習志野市,東習志野５丁目２番４－２号,,12,216,2750001,,,,,,,2025-04-18,1,,,,,イトウリフォーム,0
1739,7040005022715,新規,0,2025-04-18,2025-04-18,一般社団法人いきいきライフ協会らぼ,,その他の設立登記法人,千葉県,船橋市,高根台１丁目１１番７号新田ハイツ３０１,,12,204,2740065,,,,,,,2025-04-18,1,,,,,イキイキライフキョウカイラボ,0
1769,7100001038485,新規,0,2025-04-18,2025-04-18,株式会社時と時と,,株式会社,長野県,安曇野市,穂高北穂高１３４－２,,20,220,3998302,,,,,,,2025-04-18,1,,,,,トキトトキト,0
1774,7100005013336,新規,0,2025-04-18,2025-04-18,特定非営利活動法人ＡＣＲＯ‐ｍｏｖｅｍｅｎｔ,,その他の設立登記法人,長野県,松本市,筑摩２丁目１０番地６号,,20,202,3900821,,,,,,,2025-04-18,1,,,,,アクロムーブメント,0
1783,7120001274681,新規,0,2025-04-18,2025-04-18,株式会社ＡＱＵＡ,,株式会社,大阪府,大阪市生野区,巽西３丁目９番６号,,27,116,5440012,,,,,,,2025-04-18,1,,,,,アクア,0
1784,7120001274772,新規,0,2025-04-18,2025-04-18,快易海外株式会社,,株式会社,大阪府,大阪市生野区,新今里３丁目５番１８号ＳＥＩＫＡビル２０１号室,,27,116,5440001,,,,,,,2025-04-18,1,,,,,カイカイカイガイ,0
1785,7120001274962,新規,0,2025-04-18,2025-04-18,サクラス株式会社,,株式会社,大阪府,大阪市浪速区,難波中３丁目３番１０号,,27,111,5560011,,,,,,,2025-04-18,1,,,,,サクラス,0
1791,7120003029150,新規,0,2025-04-18,2025-04-18,カラバトトレーディング合同会社,,合同会社,大阪府,大阪市西淀川区,大和田４丁目１３番２２アルカン参番館２０３号室,,27,113,5550032,,,,,,,2025-04-18,1,,,,,カラバトトレーディング,0
1792,7120003029167,新規,0,2025-04-18,2025-04-18,合同会社コンビクション,,合同会社,大阪府,大阪市阿倍野区,相生通２丁目４－１３,,27,119,5450033,,,,,,,2025-04-18,1,,,,,コンビクション,0
1793,7120003029183,新規,0,2025-04-18,2025-04-18,合同会社アイルズ,,合同会社,大阪府,大阪市城東区,中央１丁目１１番３号,,27,118,5360005,,,,,,,2025-04-18,1,,,,,アイルズ,0
1796,7120105010000,新規,0,2025-04-18,2025-04-18,一般社団法人マハロ,,その他の設立登記法人,大阪府,羽曳野市,高鷲１０丁目４番１号,,27,222,5830882,,,,,,,2025-04-18,1,,,,,マハロ,0
1813,7130001079460,新規,0,2025-04-18,2025-04-18,株式会社申易,,株式会社,京都府,京都市下京区,朱雀正会町３８－８,,26,106,6008841,,,,,,,2025-04-18,1,,,,,シンイ,0
1832,7160001026699,新規,0,2025-04-18,2025-04-18,株式会社ユイタックライフ,,株式会社,滋賀県,湖南市,岩根３３３６－２２,,25,211,5203252,,,,,,,2025-04-18,1,,,,,ユイタックライフ,0
1844,7180001166386,新規,0,2025-04-18,2025-04-18,株式会社イシダ米穀店,,株式会社,愛知県,名古屋市東区,矢田東２番２３号,,23,102,4610044,,,,,,,2025-04-18,1,,,,,イシダベイコクテン,0
1846,7180003028312,新規,0,2025-04-18,2025-04-18,ＰＯＭＥＤ合同会社,,合同会社,愛知県,一宮市,大和町馬引字西出１９番地パビリオン桔梗ケ丘Ａ棟５０６号,,23,203,4910931,,,,,,,2025-04-18,1,,,,,ポメド,0
1852,7200001043657,新規,0,2025-04-18,2025-04-18,株式会社オールデン,,株式会社,岐阜県,中津川市,駒場１６６６番地の３００６,,21,206,5080011,,,,,,,2025-04-18,1,,,,,オールデン,0
1856,7220001026627,新規,0,2025-04-18,2025-04-18,株式会社ｙｏｕｔｈ,,株式会社,石川県,金沢市,片町２丁目２３番５号,,17,201,9200981,,,,,,,2025-04-18,1,,,,,ユース,0
1876,7290803005029,新規,0,2025-04-18,2025-04-18,ティアタス合同会社,,合同会社,福岡県,遠賀郡岡垣町,大字三吉２１８番地８,,40,383,8114205,,,,,,,2025-04-18,1,,,,,ティアタス,0
1886,7350003004915,新規,0,2025-04-18,2025-04-18,合同会社企業経営サポート宮崎,,合同会社,宮崎県,宮崎市,大橋１丁目７５番地,,45,201,8800022,,,,,,,2025-04-18,1,,,,,キギョウケイエイサポートミヤザキ,0
1888,7360001035060,新規,0,2025-04-18,2025-04-18,株式会社沖縄代車レンタカー,,株式会社,沖縄県,うるま市,字川崎４７番地１,,47,213,9042203,,,,,,,2025-04-18,1,,,,,オキナワダイシャレンタカー,0
1889,7360001035077,新規,0,2025-04-18,2025-04-18,ＮｅｘＣｕｌｔｕｒｅ株式会社,,株式会社,沖縄県,国頭郡恩納村,字冨着５５４番地１プリンスプラージュ沖縄５０６,,47,311,9040413,,,,,,,2025-04-18,1,,,,,ネクスカルチャー,0
1903,7430001094165,新規,0,2025-04-18,2025-04-18,Ｎｉｓｅｋｏ　Ｒｅｓｏｒｔ　Ｈｏｋｋａｉｄｏ株式会社,,株式会社,北海道,虻田郡倶知安町,北三条東１丁目１７番地,,01,400,0440003,,,,,,,2025-04-18,1,,,,,ニセコリゾートホッカイドウ,0
1904,7430001094198,新規,0,2025-04-18,2025-04-18,株式会社ノース,,株式会社,北海道,札幌市中央区,南三条西１丁目３番ＵＵＲコート札幌南三条プレミアタワー１７１０号,,01,101,0600063,,,,,,,2025-04-18,1,,,,,ノース,0
1905,7430001094207,新規,0,2025-04-18,2025-04-18,ｅｍｋ株式会社,,株式会社,北海道,札幌市中央区,南十一条西２１丁目２－２１－３０３号,,01,101,0640811,,,,,,,2025-04-18,1,,,,,イーエムケー,0
1910,7480003002253,新規,0,2025-04-18,2025-04-18,合同会社ダイナンス,,合同会社,徳島県,徳島市,南田宮１丁目６番１９－７０５号,,36,201,7700004,,,,,,,2025-04-18,1,,,,,ダイナンス,0
1915,7700150129999,新規,0,2025-04-18,2025-04-18,ｉ．ｄａｙ，ＬＬＣ,,外国会社等,東京都,港区,北青山１丁目３－１－３Ｆ,,13,103,1070061,アメリカ合衆国デラウェア州ルイス市コースタル・ハイウェイ１６１９２番,,,,,,2025-04-18,1,,,,,アイドツトデイエルエルシー,0
1920,8010001254264,新規,0,2025-04-18,2025-04-18,株式会社ツナグ．,,株式会社,東京都,千代田区,丸の内３丁目２番２号丸の内二重橋ビル２階,,13,101,1000005,,,,,,,2025-04-18,1,,,,,ツナグ,0
1921,8010001254330,新規,0,2025-04-18,2025-04-18,アルトワン株式会社,,株式会社,東京都,中央区,銀座１丁目１２番４号Ｎ＆ＥＢＬＤ．７Ｆ,,13,102,1040061,,,,,,,2025-04-18,1,,,,,アルトワン,0
1927,8010003047096,新規,0,2025-04-18,2025-04-18,八彩屋さん合同会社,,合同会社,東京都,中央区,銀座１丁目２２番１１号銀座大竹ビジデンス２Ｆ,,13,102,1040061,,,,,,,2025-04-18,1,,,,,ヤサイヤサン,0
1936,8010401189622,新規,0,2025-04-18,2025-04-18,株式会社Ｉｎｓｐｉｒｅｅ,,株式会社,東京都,港区,南青山６丁目７番５－７０３号,,13,103,1070062,,,,,,,2025-04-18,1,,,,,アンスピレ,0
1937,8010401189647,新規,0,2025-04-18,2025-04-18,株式会社ＭＯＧ,,株式会社,東京都,港区,赤坂９丁目６番４２号,,13,103,1070052,,,,,,,2025-04-18,1,,,,,エムオージー,0
1941,8010603011492,新規,0,2025-04-18,2025-04-18,エイデント合同会社,,合同会社,東京都,江東区,北砂３丁目２８番５号,,13,108,1360073,,,,,,,2025-04-18,1,,,,,エイデント,0
1946,8010701047579,新規,0,2025-04-18,2025-04-18,株式会社Ｋプルミエール,,株式会社,東京都,品川区,西五反田１丁目２６番２号五反田サンハイツ９１１,,13,109,1410031,,,,,,,2025-04-18,1,,,,,ケイプルミエール,0
1947,8010703007663,新規,0,2025-04-18,2025-04-18,合同会社３３,,合同会社,東京都,品川区,西大井４丁目１１番１６号ザ・サンメゾン西大井金子山エルド２０２,,13,109,1400015,,,,,,,2025-04-18,1,,,,,サンサン,0
1948,8010801036060,新規,0,2025-04-18,2025-04-18,株式会社タートルハッシュ,,株式会社,東京都,大田区,北千束３丁目２４番１－３１５号,,13,111,1450062,,,,,,,2025-04-18,1,,,,,タートルハッシュ,0
1958,8011003021421,新規,0,2025-04-18,2025-04-18,合同会社Ｒｏｌｌｅｒ,,合同会社,東京都,渋谷区,本町３丁目４３－１０－３０２,,13,113,1510071,,,,,,,2025-04-18,1,,,,,ローラー,0
1959,8011003021470,新規,0,2025-04-18,2025-04-18,合同会社ミース研究所,,合同会社,東京都,目黒区,三田１丁目２番２１号シャンブル三田１０３,,13,110,1530062,,,,,,,2025-04-18,1,,,,,ミースケンキュウジョ,0
1962,8011101111405,新規,0,2025-04-18,2025-04-18,株式会社ヴェリアス企画,,株式会社,東京都,新宿区,西新宿３丁目３番１３号西新宿水間ビル６階,,13,104,1600023,,,,,,,2025-04-18,1,,,,,ヴェリアスキカク,0
1963,8011103015785,新規,0,2025-04-18,2025-04-18,ａｈｍ‐ｓ合同会社,,合同会社,東京都,新宿区,中里町２７,,13,104,1620804,,,,,,,2025-04-18,1,,,,,エイエイチエムエス,0
1967,8011401027029,新規,0,2025-04-18,2025-04-18,株式会社ＮＨｓｔｕｄｉｏ,,株式会社,東京都,板橋区,徳丸４丁目３０番２３－４０４号,,13,119,1750083,,,,,,,2025-04-18,1,,,,,エヌエイチスタジオ,0
1969,8011403004678,新規,0,2025-04-18,2025-04-18,合同会社オフィスリンク,,合同会社,東京都,板橋区,東坂下２丁目１０番１－５０５号,,13,119,1740042,,,,,,,2025-04-18,1,,,,,オフィスリンク,0
1971,8011503006491,新規,0,2025-04-18,2025-04-18,広福日通合同会社,,合同会社,東京都,荒川区,東日暮里２丁目２１－７,,13,118,1160014,,,,,,,2025-04-18,1,,,,,コウフクニッツウ,0
1973,8011601028586,新規,0,2025-04-18,2025-04-18,株式会社エアポートプレミアム,,株式会社,東京都,練馬区,大泉学園町４丁目１７番２３号,,13,120,1780061,,,,,,,2025-04-18,1,,,,,エアポートプレミアム,0
1976,8011801045992,新規,0,2025-04-18,2025-04-18,株式会社ＣＨＡＲＧＥ,,株式会社,東京都,足立区,西新井５丁目２９番５－５０５号,,13,121,1230841,,,,,,,2025-04-18,1,,,,,チャージ,0
1977,8012401042983,新規,0,2025-04-18,2025-04-18,株式会社財友タクシー,,株式会社,東京都,府中市,清水が丘３丁目２０番地の３ヒルズ府中清水が丘２０７,,13,206,1830015,,,,,,,2025-04-18,1,,,,,ザイユウタクシー,0
1998,8020001162235,新規,0,2025-04-18,2025-04-18,株式会社ＰＩＡＳＯ,,株式会社,神奈川県,横浜市西区,北幸１丁目１１番１号水信ビル７階,,14,103,2200004,,,,,,,2025-04-18,1,,,,,ピアソ,0
1999,8020001162367,新規,0,2025-04-18,2025-04-18,ＡＬＴＡＮ株式会社,,株式会社,神奈川県,横浜市港北区,大豆戸町１９０,,14,109,2220032,,,,,,,2025-04-18,1,,,,,,0
2000,8020001162441,新規,0,2025-04-18,2025-04-18,株式会社Ｗｉｓｔｅｒｉａ　Ｗｏｒｋｓ,,株式会社,神奈川県,川崎市高津区,溝口１丁目９番７号長谷川ビル５Ｆ,,14,134,2130001,,,,,,,2025-04-18,1,,,,,ウィステリアワークス,0
2003,8020003028277,新規,0,2025-04-18,2025-04-18,ＫＭＧＲ合同会社,,合同会社,神奈川県,横浜市西区,浅間台１０６番地１２,,14,103,2200071,,,,,,,2025-04-18,1,,,,,ケーエムジーアール,0
2008,8021001084997,新規,0,2025-04-18,2025-04-18,株式会社成信,,株式会社,神奈川県,厚木市,温水９６２－５,,14,212,2430033,,,,,,,2025-04-18,1,,,,,セイシン,0
2009,8021001085005,新規,0,2025-04-18,2025-04-18,株式会社４ｙｏｕ,,株式会社,神奈川県,厚木市,飯山５９６番地１,,14,212,2430213,,,,,,,2025-04-18,1,,,,,フォーユー,0
2016,8030001166020,新規,0,2025-04-18,2025-04-18,株式会社ディーノ,,株式会社,埼玉県,川口市,金山町１２番１－８０４号サウスゲートタワー川口,,11,203,3320014,,,,,,,2025-04-18,1,,,,,ディーノ,0
2017,8030001166029,新規,0,2025-04-18,2025-04-18,株式会社テクノモールド,,株式会社,埼玉県,川口市,大字安行北谷６０２番地の１,,11,203,3340054,,,,,,,2025-04-18,1,,,,,テクノモールド,0
2018,8030001166037,新規,0,2025-04-18,2025-04-18,株式会社ケイモータース,,株式会社,埼玉県,坂戸市,大字北峰６番地３,,11,239,3500258,,,,,,,2025-04-18,1,,,,,ケイモータース,0
2019,8030001166045,新規,0,2025-04-18,2025-04-18,株式会社ＴＯＣＨＩＹＡ,,株式会社,埼玉県,所沢市,北所沢町２０１１番地１,,11,208,3590046,,,,,,,2025-04-18,1,,,,,トチヤ,0
2025,8030003026585,新規,0,2025-04-18,2025-04-18,ＮＨ合同会社,,合同会社,埼玉県,川口市,三ツ和１丁目２９番地の１７,,11,203,3340011,,,,,,,2025-04-18,1,,,,,エヌエイチ,0
2026,8030003026610,新規,0,2025-04-18,2025-04-18,Ａｎｕｅｎｕｅ　Ｂｅａｕｔｙ　Ｐｒｏｄｕｃｔｓ合同会社,,合同会社,埼玉県,川越市,田町２４番地２１ヴィスタガーデン川越１３０３号,,11,201,3501113,,,,,,,2025-04-18,1,,,,,アヌエヌエビューティプロダクツ,0
2036,8040003027384,新規,0,2025-04-18,2025-04-18,合同会社ｏｎ＆ｏ’ｎ,,合同会社,千葉県,船橋市,高根町１６８４－１,,12,204,2740817,,,,,,,2025-04-18,1,,,,,オンアンドオン,0
2037,8050001056533,新規,0,2025-04-18,2025-04-18,株式会社玉元,,株式会社,茨城県,石岡市,若宮３丁目７８７６番地１,,08,205,3150017,,,,,,,2025-04-18,1,,,,,タマモト,0
2042,8050005013613,新規,0,2025-04-18,2025-04-18,一般社団法人かさまくらしＬａｂ．,,その他の設立登記法人,茨城県,笠間市,笠間２５５１番地１,,08,216,3091611,,,,,,,2025-04-18,1,,,,,カサマクラシラボ,0
2045,8060003005512,新規,0,2025-04-18,2025-04-18,合同会社ＭＩＳＡＫＩ,,合同会社,栃木県,宇都宮市,鶴田２丁目２２番１６号スプランドールＳマンション２０３号室,,09,201,3200857,,,,,,,2025-04-18,1,,,,,ミサキ,0
2051,8070001042853,新規,0,2025-04-18,2025-04-18,株式会社ケーアイコーポレーション,,株式会社,群馬県,太田市,高瀬町３２８番地８,,10,205,3730072,,,,,,,2025-04-18,1,,,,,ケーアイコーポレーション,0
2057,8100003008089,新規,0,2025-04-18,2025-04-18,合同会社士土,,合同会社,長野県,佐久市,中込２０５５番地２４,,20,217,3850051,,,,,,,2025-04-18,1,,,,,シド,0
2066,8120001274631,新規,0,2025-04-18,2025-04-18,株式会社プレシャス,,株式会社,大阪府,大阪市西淀川区,野里１丁目２２番１９号スペランツァ塚本７０２,00138841,27,113,5550024,,,,,,,2025-04-18,1,,,,,プレシャス,0
2067,8120001274706,新規,0,2025-04-18,2025-04-18,新昇株式会社,,株式会社,大阪府,大阪市都島区,内代町１丁目６番２４号３０１号室,,27,102,5340013,,,,,,,2025-04-18,1,,,,,シンショウ,0
2068,8120001274714,新規,0,2025-04-18,2025-04-18,株式会社ＱＶファクトリー,,株式会社,大阪府,大阪市北区,天神橋１丁目１３番９号ファミール栄５０５号室,,27,127,5300041,,,,,,,2025-04-18,1,,,,,キューブイファクトリー,0
2069,8120001274994,新規,0,2025-04-18,2025-04-18,エーシーホールディングス株式会社,,株式会社,大阪府,門真市,速見町１１番１４号,,27,223,5710039,,,,,,,2025-04-18,1,,,,,エーシーホールディングス,0
2071,8120003029158,新規,0,2025-04-18,2025-04-18,合同会社山田事務所,,合同会社,大阪府,大阪市北区,梅田１丁目１－３大阪駅前第３ビル２９階１－１－１号室,,27,127,5300001,,,,,,,2025-04-18,1,,,,,ヤマダジムショ,0
2072,8120101071466,新規,0,2025-04-18,2025-04-18,株式会社ボイス,,株式会社,大阪府,泉佐野市,鶴原１５７７番地の５,,27,213,5980071,,,,,,,2025-04-18,1,,,,,ボイス,0
2073,8120101071490,新規,0,2025-04-18,2025-04-18,吉田建業株式会社,,株式会社,大阪府,岸和田市,紙屋町１４番４号,,27,202,5960064,,,,,,,2025-04-18,1,,,,,ヨシダケンギョウ,0
2092,8140001137877,新規,0,2025-04-18,2025-04-18,株式会社Ｃａｓｃａｄｅ,,株式会社,兵庫県,神戸市中央区,磯辺通１丁目１番１８号カサベラ国際プラザビル７０７号室,,28,110,6510084,,,,,,,2025-04-18,1,,,,,カスケード,0
2093,8140001138207,新規,0,2025-04-18,2025-04-18,エティズグループ株式会社,,株式会社,兵庫県,神戸市中央区,野崎通１丁目３番１８号,,28,110,6510054,,,,,,,2025-04-18,1,,,,,エティズグループ,0
2098,8160001026698,新規,0,2025-04-18,2025-04-18,株式会社ＬＩＮＤＡ,,株式会社,滋賀県,草津市,南笠東２丁目７番９号,,25,206,5250071,,,,,,,2025-04-18,1,,,,,リンダ,0
2109,8180001166451,新規,0,2025-04-18,2025-04-18,ＪＫ　ＷＡＨＥＥＤ　ＴＲＡＤＩＮＧ株式会社,,株式会社,愛知県,一宮市,千秋町塩尻字新屋敷３６番地２,,23,203,4910815,,,,,,,2025-04-18,1,,,,,ジェーケーワヒードトレーディング,0
2110,8180001166468,新規,0,2025-04-18,2025-04-18,株式会社ＴＡＰＥＴＵＭ　ＬＯＢＢＹ,,株式会社,愛知県,名古屋市中区,錦２丁目５番２５号,,23,106,4600003,,,,,,,2025-04-18,1,,,,,タペータムロビー,0
2115,8180005021066,新規,0,2025-04-18,2025-04-18,一般社団法人ＡＩＳＡＴＯ,,その他の設立登記法人,愛知県,名古屋市東区,泉１丁目３番４３号レジディア泉１５０２号,,23,102,4610001,,,,,,,2025-04-18,1,,,,,アイサト,0
2116,8200003006784,新規,0,2025-04-18,2025-04-18,合同会社対話教育研究所,,合同会社,岐阜県,岐阜市,金宝町２丁目５－１,,21,201,5008847,,,,,,,2025-04-18,1,,,,,タイワキョウイクケンキュウジョ,0
2119,8210005010197,新規,0,2025-04-18,2025-04-18,医療法人夕日会,,その他の設立登記法人,福井県,福井市,石盛１丁目１８１６番地,,18,201,9100125,,,,,,,2025-04-18,1,,,,,ユウヒカイ,0
2123,8220001026626,新規,0,2025-04-18,2025-04-18,株式会社ＳＴＬ,,株式会社,石川県,金沢市,片町２丁目１３番１１号,,17,201,9200981,,,,,,,2025-04-18,1,,,,,エスティーエル,0
2124,8220005008950,新規,0,2025-04-18,2025-04-18,医療法人けやき,,その他の設立登記法人,石川県,金沢市,八日市５丁目４５１番地,,17,201,9218064,,,,,,,2025-04-18,1,,,,,ケヤキ,0
2127,8240001064822,新規,0,2025-04-18,2025-04-18,株式会社川本塗装,,株式会社,広島県,福山市,伊勢丘６丁目１０番２０号,,34,207,7210915,,,,,,,2025-04-18,1,,,,,カワモトトソウ,0
2133,8260003005145,新規,0,2025-04-18,2025-04-18,合同会社コトプレイス,,合同会社,岡山県,津山市,上河原１７４番地９,,33,203,7080002,,,,,,,2025-04-18,1,,,,,コトプレイス,0
2134,8280003001943,新規,0,2025-04-18,2025-04-18,合同会社ミヤビスタジオ,,合同会社,島根県,安来市,伯太町西母里１３９番地,,32,206,6920212,,,,,,,2025-04-18,1,,,,,ミヤビスタジオ,0
2135,8290803005028,新規,0,2025-04-18,2025-04-18,ＳＨ合同会社,,合同会社,福岡県,田川市,大字弓削田５３５番３１,,40,206,8260041,,,,,,,2025-04-18,1,,,,,エスエイチ,0
2138,8320001021055,新規,0,2025-04-18,2025-04-18,株式会社ＣＲＥＡ,,株式会社,大分県,大分市,中央町３丁目５番１６号ＷＡＺＡＷＡＺＡビル２０２号室,,44,201,8700035,,,,,,,2025-04-18,1,,,,,クレア,0
2154,8360003014854,新規,0,2025-04-18,2025-04-18,合同会社サンアクア,,合同会社,沖縄県,那覇市,牧志２丁目１７－２７－４０１,,47,201,9000013,,,,,,,2025-04-18,1,,,,,サンアクア,0
2161,8390003002377,新規,0,2025-04-18,2025-04-18,合同会社Ｐｕｌｓｅｏｎ　Ｌａｂ．,,合同会社,山形県,米沢市,中田町７５１－１,,06,202,9920011,,,,,,,2025-04-18,1,,,,,パルソンラボ,0
2169,8430001094230,新規,0,2025-04-18,2025-04-18,株式会社Ｓｉｍｓ,,株式会社,北海道,札幌市東区,北三十二条東１丁目４番５号,,01,103,0650032,,,,,,,2025-04-18,1,,,,,シムズ,0
2172,8430003017552,新規,0,2025-04-18,2025-04-18,合同会社Ｆｏｃｕｓ　Ｆｉｔ,,合同会社,北海道,札幌市東区,北八条東４丁目１番２０号,,01,103,0600908,,,,,,,2025-04-18,1,,,,,フォーカスフィット,0
2176,8480001012815,新規,0,2025-04-18,2025-04-18,株式会社Ｒｅｆｌｅｎｇｅ,,株式会社,徳島県,阿南市,学原町壱丁地１番地８,,36,204,7740014,,,,,,,2025-04-18,1,,,,,リフレンジ,0
2179,8500001026242,新規,0,2025-04-18,2025-04-18,株式会社ＧＡＲＵＤＡ,,株式会社,愛媛県,西条市,明屋敷５７番地１１,,38,206,7930023,,,,,,,2025-04-18,1,,,,,ガルーダ,0
2181,8700150129998,新規,0,2025-04-18,2025-04-18,ノラウトロンテクノロジー蘇州有限公司,,外国会社等,東京都,港区,西新橋１丁目２０－９　ＴＳＲビル３Ｆ,,13,103,1050003,中華人民共和国蘇州市蘇州工業園区東京工業広場３５号ビル,,,,,,2025-04-18,1,,,,,ノラウトロンテクノロジーソシユウヨーシエンコンスー,0
2195,9010005039933,新規,0,2025-04-18,2025-04-18,一般社団法人渋谷三丁目,,その他の設立登記法人,東京都,中央区,日本橋１丁目４番１号日本橋一丁目ビルディング,,13,102,1030027,,,,,,,2025-04-18,1,,,,,シブヤサンチョウメ,0
2204,9010401189324,新規,0,2025-04-18,2025-04-18,ＰＵＲＰＯＳＥ　ＤＥＳＩＧＮ株式会社,,株式会社,東京都,港区,赤坂４丁目８－１９赤坂フロントタウン３階,,13,103,1070052,,,,,,,2025-04-18,1,,,,,パーパスデザイン,0
2208,9010405024270,新規,0,2025-04-18,2025-04-18,一般社団法人ＪＡＰＡＮ　ＦＯＯＤ　ＰＲＩＤＥ,,その他の設立登記法人,東京都,港区,白金台５丁目１４番１－６０１号,,13,103,1080071,,,,,,,2025-04-18,1,,,,,ジャパンフードプライド,0
2209,9010405024345,新規,0,2025-04-18,2025-04-18,一般社団法人日本語教育機関未来創造推進協会,,その他の設立登記法人,東京都,港区,赤坂２丁目８番１１号赤坂山王プラザ２０６号,,13,103,1070052,,,,,,,2025-04-18,1,,,,,ニホンゴキョウイクキカンミライソウゾウスイシンキョウカイ,0
2214,9010701047586,新規,0,2025-04-18,2025-04-18,株式会社トラストワン,,株式会社,東京都,品川区,西五反田５丁目２６番１０号,,13,109,1410031,,,,,,,2025-04-18,1,,,,,トラストワン,0
2222,9011001168965,新規,0,2025-04-18,2025-04-18,株式会社Ｃｒｅａｔｉｖｅ＆Ｎ,,株式会社,東京都,渋谷区,神南１丁目１１番４号ＦＰＧリンクス神南５階,,13,113,1500041,,,,,,,2025-04-18,1,,,,,クリエイティブアンドエヌ,0
2223,9011001169006,新規,0,2025-04-18,2025-04-18,株式会社ＳＴＮ,,株式会社,東京都,渋谷区,道玄坂１丁目１０番８号渋谷道玄坂東急ビル２Ｆ－Ｃ,,13,113,1500043,,,,,,,2025-04-18,1,,,,,エスティーエヌ,0
2228,9011003021346,新規,0,2025-04-18,2025-04-18,合同会社Ｎｏｖａｒｅ,,合同会社,東京都,目黒区,碑文谷６丁目１－２３ウッドビル碑文谷３Ａ,,13,110,1520003,,,,,,,2025-04-18,1,,,,,ノヴァーレ,0
2230,9011101111370,新規,0,2025-04-18,2025-04-18,株式会社エムエス,,株式会社,東京都,新宿区,矢来町３７番地グレイストーン４０１,,13,104,1620805,,,,,,,2025-04-18,1,,,,,エムエス,0
2235,9011503006499,新規,0,2025-04-18,2025-04-18,ＭＩＨＡＮＡ合同会社,,合同会社,東京都,荒川区,西日暮里２丁目２７番１号Ｋ‘ｓＳＱＵＡＲＥ５０２号室,,13,118,1160013,,,,,,,2025-04-18,1,,,,,ミーハーナ,0
2236,9011701028270,新規,0,2025-04-18,2025-04-18,株式会社スマイルケア訪問介護,,株式会社,東京都,江戸川区,船堀７丁目１９番１３号Ｆｌｏｒｉａｎ１階,,13,123,1340091,,,,,,,2025-04-18,1,,,,,スマイルケアホウモンカイゴ,0
2237,9011703004204,新規,0,2025-04-18,2025-04-18,ＡＩＮｅｘ　ＰＭＯ合同会社,,合同会社,東京都,江戸川区,小松川３丁目１１番１８号－１００１号,,13,123,1320034,,,,,,,2025-04-18,1,,,,,エーアイネックスピーエムオー,0
2254,9012403007059,新規,0,2025-04-18,2025-04-18,合同会社ｍｏｏｎ,,合同会社,東京都,三鷹市,下連雀２丁目１４－１６,,13,204,1810013,,,,,,,2025-04-18,1,,,,,ムーン,0
2255,9012403007075,新規,0,2025-04-18,2025-04-18,合同会社ＳＦＫＳ,,合同会社,東京都,調布市,多摩川６丁目３５番地２１,,13,208,1820025,,,,,,,2025-04-18,1,,,,,エスエフケーエス,0
2270,9020001162234,新規,0,2025-04-18,2025-04-18,株式会社あすてり,,株式会社,神奈川県,横浜市中区,常盤町３丁目３０番１号ＳＯＬＡＣＵＢＥ横濱関内４－Ｉ,,14,104,2310014,,,,,,,2025-04-18,1,,,,,アステリ,0
2271,9020001162432,新規,0,2025-04-18,2025-04-18,株式会社新屋,,株式会社,神奈川県,横浜市青葉区,美しが丘４丁目１５番地７,,14,117,2250002,,,,,,,2025-04-18,1,,,,,シンヤ,0
2272,9020001162449,新規,0,2025-04-18,2025-04-18,株式会社スマートライフアーキテクツ,,株式会社,神奈川県,横浜市西区,高島１丁目２番５号,,14,103,2200011,,,,,,,2025-04-18,1,,,,,スマートライフアーキテクツ,0
2280,9021001084963,新規,0,2025-04-18,2025-04-18,株式会社ＹＧＳコーポレーション湘南,,株式会社,神奈川県,茅ヶ崎市,高田１丁目４番３３号,,14,207,2530002,,,,,,,2025-04-18,1,,,,,ワイジーエスコーポレーションショウナン,0
2283,9021003015883,新規,0,2025-04-18,2025-04-18,浅川居宅介護支援事業所合同会社,,合同会社,神奈川県,相模原市南区,鵜野森２丁目２５－３５－２０５,,14,153,2520301,,,,,,,2025-04-18,1,,,,,アサカワキョタクカイゴシエンジギョウショ,0
2292,9030001165896,新規,0,2025-04-18,2025-04-18,ＪＩＮ株式会社,,株式会社,埼玉県,吉川市,大字鍋小路１２５,,11,243,3420004,,,,,,,2025-04-18,1,,,,,ジン,0
2293,9030001166052,新規,0,2025-04-18,2025-04-18,株式会社ＯＮＥ　ＳＴＥＰ,,株式会社,埼玉県,さいたま市南区,南浦和２丁目３５番５号,,11,108,3360017,,,,,,,2025-04-18,1,,,,,ワンステップ,0
2294,9030001166060,新規,0,2025-04-18,2025-04-18,株式会社Ｌｕｍｉｎｏｕｓ,,株式会社,埼玉県,さいたま市大宮区,櫛引町１丁目４０３番地フォーエストＢ１０３号,,11,103,3300851,,,,,,,2025-04-18,1,,,,,ルミナス,0
2295,9030001166077,新規,0,2025-04-18,2025-04-18,アイシクル株式会社,,株式会社,埼玉県,草加市,旭町４丁目９番２５号丸中ビル３０２,,11,221,3400053,,,,,,,2025-04-18,1,,,,,アイシクル,0
2305,9050001056524,新規,0,2025-04-18,2025-04-18,Ｚ・Ｒ株式会社,,株式会社,茨城県,坂東市,逆井字里２４８４番地１,,08,228,3060501,,,,,,,2025-04-18,1,,,,,ゼットアール,0
2307,9050005013612,新規,0,2025-04-18,2025-04-18,一般社団法人オリーブ協会,,その他の設立登記法人,茨城県,水戸市,水府町１５０２,,08,201,3100005,,,,,,,2025-04-18,1,,,,,オリーブキョウカイ,0
2309,9060001038117,新規,0,2025-04-18,2025-04-18,株式会社ＹＫ,,株式会社,栃木県,宇都宮市,簗瀬２丁目１１番１１号グレースメロウＤ２０２,,09,201,3210934,,,,,,,2025-04-18,1,,,,,ワイケー,0
2325,9100001038517,新規,0,2025-04-18,2025-04-18,株式会社三栄農場,,株式会社,長野県,小諸市,丙字水梨４８５番地１,,20,208,3840803,,,,,,,2025-04-18,1,,,,,サンエイノウジョウ,0
2326,9100001038525,新規,0,2025-04-18,2025-04-18,株式会社ｍｉｎｋａ,,株式会社,長野県,伊那市,富県４４７２,,20,209,3960621,,,,,,,2025-04-18,1,,,,,ミンカ,0
2339,9120001274688,新規,0,2025-04-18,2025-04-18,長炬株式会社,,株式会社,大阪府,大阪市中央区,大手通１丁目３番９号ＴＯＭＯＢＬＤＧ２０６号,,27,128,5400021,,,,,,,2025-04-18,1,,,,,チョウキョ,0
2340,9120001274993,新規,0,2025-04-18,2025-04-18,株式会社アイエイチケイ,,株式会社,大阪府,大阪市中央区,心斎橋筋１丁目９番１７号エトワール心斎橋,,27,128,5420085,,,,,,,2025-04-18,1,,,,,アイエイチケイ,0
2347,9120901050742,新規,0,2025-04-18,2025-04-18,株式会社クリスタルガーデン,,株式会社,大阪府,吹田市,千里山月が丘１－４グランヴェール深澤１０７号室,,27,205,5650847,,,,,,,2025-04-18,1,,,,,クリスタルガーデン,0
2354,9122001039039,新規,0,2025-04-18,2025-04-18,ＬＤＣ株式会社,,株式会社,大阪府,東大阪市,長田東３丁目３番４５号,,27,227,5770012,,,,,,,2025-04-18,1,,,,,エルディーシー,0
2356,9130001079459,新規,0,2025-04-18,2025-04-18,エバージュン株式会社,,株式会社,京都府,京都市伏見区,深草ススハキ町１６番地,,26,109,6120000,,,,,,,2025-04-18,1,,,,,エバージュン,0
2360,9140003021962,新規,0,2025-04-18,2025-04-18,合同会社Ｐｒｏｊｅｃｔ　Ｐ,,合同会社,兵庫県,丹波市,氷上町下新庄９３０－１１,,28,223,6693614,,,,,,,2025-04-18,1,,,,,プロジェクトピー,0
2361,9160001026697,新規,0,2025-04-18,2025-04-18,株式会社繋,,株式会社,滋賀県,彦根市,後三条町４７８番地１,,25,202,5220086,,,,,,,2025-04-18,1,,,,,ツナグ,0
2367,9180001166434,新規,0,2025-04-18,2025-04-18,株式会社秀企画,,株式会社,愛知県,小牧市,小牧３丁目１４７番地,,23,219,4850041,,,,,,,2025-04-18,1,,,,,シュウキカク,0
2373,9180003028327,新規,0,2025-04-18,2025-04-18,合同会社ＬＥＧＡＬＩＳＳ,,合同会社,愛知県,名古屋市中川区,万場２丁目６１２番地の４,,23,110,4540997,,,,,,,2025-04-18,1,,,,,レガリス,0
2376,9180301039728,新規,0,2025-04-18,2025-04-18,ＫＡＴＳＵ製作所株式会社,,株式会社,愛知県,岡崎市,小針町字拾弐塚６４番地２,,23,202,4440907,,,,,,,2025-04-18,1,,,,,カツセイサクショ,0
2377,9180301039736,新規,0,2025-04-18,2025-04-18,株式会社レアリゼ,,株式会社,愛知県,蒲郡市,拾石町広見２７番地１６,,23,214,4430038,,,,,,,2025-04-18,1,,,,,レアリゼ,0
2385,9200001043655,新規,0,2025-04-18,2025-04-18,株式会社シェルトン,,株式会社,岐阜県,関市,板取１５７４番地４,,21,205,5012901,,,,,,,2025-04-18,1,,,,,シェルトン,0
2386,9200001043671,新規,0,2025-04-18,2025-04-18,株式会社小川精工,,株式会社,岐阜県,揖斐郡池田町,粕ケ原２２９９番地の８,,21,404,5032402,,,,,,,2025-04-18,1,,,,,オガワセイコウ,0
2395,9220001026625,新規,0,2025-04-18,2025-04-18,株式会社ｎｉｎｅ,,株式会社,石川県,金沢市,堀川新町５番１号,,17,201,9200849,,,,,,,2025-04-18,1,,,,,ナイン,0
2410,9260001040119,新規,0,2025-04-18,2025-04-18,株式会社Ｓｐｒｉｎｇ,,株式会社,岡山県,美作市,奥２６７－１,,33,215,7012605,,,,,,,2025-04-18,1,,,,,スプリング,0
2412,9260003005136,新規,0,2025-04-18,2025-04-18,プラスＤＩＹ合同会社,,合同会社,岡山県,倉敷市,四十瀬５０８番地１３,,33,202,7100835,,,,,,,2025-04-18,1,,,,,プラスディーアイワイ,0
2413,9260003005144,新規,0,2025-04-18,2025-04-18,合同会社しゃばーす,,合同会社,岡山県,赤磐市,西軽部２７２番地,,33,213,7012215,,,,,,,2025-04-18,1,,,,,シャバース,0
2420,9290801031462,新規,0,2025-04-18,2025-04-18,ＳＯＵＮＤＥＹＥジャパン株式会社,,株式会社,福岡県,北九州市小倉北区,浅野３丁目８番１号ＡＩＭビル６階,,40,106,8020001,,,,,,,2025-04-18,1,,,,,サウンドアイジャパン,0
2432,9360001035059,新規,0,2025-04-18,2025-04-18,ＴＲＹ株式会社,,株式会社,沖縄県,うるま市,字赤道３７８－１２,,47,213,9042245,,,,,,,2025-04-18,1,,,,,トライ,0
2433,9370001052490,新規,0,2025-04-18,2025-04-18,株式会社アルゴナース,,株式会社,宮城県,仙台市青葉区,荒巻字青葉４６８－１東北大学マテリアル・イノベーション・センター青葉山ガレージ,,04,101,9800845,,,,,,,2025-04-18,1,,,,,アルゴナース,0
2434,9370005010949,新規,0,2025-04-18,2025-04-18,一般社団法人森の寺子屋,,その他の設立登記法人,宮城県,仙台市泉区,福岡字西森下１６番地,,04,105,9813225,,,,,,,2025-04-18,1,,,,,モリノテラコヤ,0
2436,9380005012960,新規,0,2025-04-18,2025-04-18,特定非営利活動法人トリニティ,,その他の設立登記法人,福島県,会津若松市,町北町大字藤室字藤室５１２番地,,07,202,9650057,,,,,,,2025-04-18,1,,,,,トリニティ,0
2442,9430001094205,新規,0,2025-04-18,2025-04-18,やどつぐ株式会社,,株式会社,北海道,積丹郡積丹町,大字美国町字船澗１０５,,01,405,0460201,,,,,,,2025-04-18,1,,,,,ヤドツグ,0
2443,9430001094213,新規,0,2025-04-18,2025-04-18,株式会社ジーコネクト,,株式会社,北海道,札幌市中央区,北一条西２２丁目２番１－５０６号,,01,101,0640821,,,,,,,2025-04-18,1,,,,,ジーコネクト,0
2446,9430003017535,新規,0,2025-04-18,2025-04-18,合同会社ＲＣリサイクル３９,,合同会社,北海道,札幌市中央区,南十三条西５丁目１番１２－２１７号,,01,101,0640913,,,,,,,2025-04-18,1,,,,,アールシーリサイクルミク,0
2447,9430003017543,新規,0,2025-04-18,2025-04-18,合同会社ＨＢＵリアルエステート,,合同会社,北海道,恵庭市,黄金中央４丁目１１番地の１８－２０２,,01,231,0611449,,,,,,,2025-04-18,1,,,,,エイチビーユーリアルエステート,0
2448,9440003001678,新規,0,2025-04-18,2025-04-18,合同会社Ｎ　ｃｏｎｎｅｃｔ,,合同会社,北海道,函館市,高丘町５９番４号,,01,202,0420955,,,,,,,2025-04-18,1,,,,,エヌコネクト,0
2449,9470001020677,新規,0,2025-04-18,2025-04-18,株式会社オークラＢＭワークス,,株式会社,香川県,三豊市,高瀬町上麻乙３３３番地１７,,37,208,7670014,,,,,,,2025-04-18,1,,,,,オークラビーエムワークス,0
2455,9500005008789,新規,0,2025-04-18,2025-04-18,企業組合内子ジビエ,,その他の設立登記法人,愛媛県,喜多郡内子町,五十崎乙４３６番地５,,38,422,7950301,,,,,,,2025-04-18,1,,,,,ウチコジビエ,0
2458,9700150129997,新規,0,2025-04-18,2025-04-18,Ｓｉｔｅ　Ｄｅｓｉｇｎ　Ｇｒｏｕｐ，Ｌｔｄ．,,外国会社等,東京都,港区,西新橋３丁目２４番８号　山内ビル３階,,13,103,1050003,アメリカ合衆国イリノイ州シカゴ市８８８南ミシガン通りユニットＰＨ１,,,,,,2025-04-18,1,,,,,サイトデザイングループリミテツド,0
