sequenceNumber,corporateNumber,process,correct,updateDate,changeDate,name,nameImageId,kind,prefectureName,cityName,streetNumber,addressImageId,prefectureCode,cityCode,postCode,addressOutside,addressOutsideImageId,closeDate,closeCause,successorCorporateNumber,changeCause,assignmentDate,latest,enName,enPrefectureName,enCityName,enAddressOutside,furigana,hihyoji
19,1010005017772,登記記録の閉鎖等,0,2024-04-23,2024-04-01,社会保険労務士法人グリーン,,その他の設立登記法人,千葉県,船橋市,松が丘２丁目４９番８号,,12,204,2740064,,,2024-04-01,清算の結了等,,,2015-10-05,1,,,,,グリーン,0
27,1010701014874,登記記録の閉鎖等,0,2024-04-23,2024-04-18,コベルコ建機インターナショナルトレーディング株式会社,,株式会社,東京都,品川区,北品川５丁目５番１５号,,13,109,1410001,,,2024-04-18,合併による解散等,8040001026256,令和６年４月１日千葉県市川市二俣新町１７番地コベルコ建機日本株式会社（8040001026256）に合併し解散,2015-10-05,1,,,,,コベルコケンキインターナショナルトレーディング,0
28,1010701024428,登記記録の閉鎖等,0,2024-04-23,2024-04-08,株式会社ジャルセールス,,株式会社,東京都,品川区,東品川２丁目４番１１号野村不動産天王洲ビル,,13,109,1400002,,,2024-04-08,合併による解散等,7010701007666,令和６年４月１日東京都品川区東品川二丁目４番１１号日本航空株式会社（7010701007666）に合併し解散,2015-10-05,1,,,,,ジャルセールス,0
70,1030001017262,登記記録の閉鎖等,0,2024-04-23,2024-04-02,ハートキッズ株式会社,,株式会社,埼玉県,さいたま市北区,宮原町３丁目５８７番地,,11,102,3310812,,,2024-04-02,合併による解散等,5030001114816,令和６年４月１日埼玉県さいたま市緑区道祖土一丁目１９－１３サイドガーデン西館１０２株式会社ＡＬＴＡ（5030001114816）に合併し解散,2015-10-05,1,,,,,ハートキッズ,0
85,1040002020693,登記記録の閉鎖等,0,2024-04-23,2024-04-12,有限会社植草食品,,有限会社,千葉県,船橋市,藤原３丁目２番３３号,,12,204,2730047,,,2024-04-12,清算の結了等,,,2015-10-05,1,,,,,ウエクサショクヒン,0
89,1050002010495,登記記録の閉鎖等,0,2024-04-23,2024-04-18,有限会社レディスショップカトレヤ,,有限会社,茨城県,笠間市,東平２丁目５－５,,08,216,3091705,,,2024-04-18,清算の結了等,,,2015-10-05,1,,,,,レディスショップカトレヤ,0
96,1060002027695,登記記録の閉鎖等,0,2024-04-23,2024-04-12,アイ・クリーン・サービス有限会社,,有限会社,栃木県,小山市,大字犬塚７８番地６,,09,208,3230811,,,2024-04-12,清算の結了等,,,2015-10-05,1,,,,,アイクリーンサービス,0
124,1110002004937,登記記録の閉鎖等,0,2024-04-23,2024-04-17,有限会社新潟メジャーテクスサービス,,有限会社,新潟県,新潟市江南区,曽野木１丁目８番１２号,,15,104,9501135,,,2024-04-17,清算の結了等,,,2015-10-05,1,,,,,ニイガタメジャーテクスサービス,0
138,1120005005270,登記記録の閉鎖等,0,2024-04-23,2024-04-22,医療法人皓仁会,,その他の設立登記法人,大阪府,大阪市北区,東天満１丁目１番１５号,,27,127,5300044,,,2024-04-22,清算の結了等,,,2015-10-05,1,,,,,,0
145,1120102006163,登記記録の閉鎖等,0,2024-04-23,2024-04-16,有限会社ミキテックエンジニアリング,,有限会社,大阪府,堺市南区,新檜尾台３丁３番８－１０１号,,27,145,5900143,,,2024-04-16,合併による解散等,9120101054296,令和６年４月１日大阪府松原市岡七丁目２３８番地サクラテック株式会社（9120101054296）に合併し解散,2015-10-05,1,,,,,ミキテックエンジニアリング,0
172,1150001020072,登記記録の閉鎖等,0,2024-04-23,2024-04-11,Ｂｕｚｏｏ株式会社,,株式会社,大阪府,大阪市福島区,吉野１丁目５番１７号野田庄ビル２Ｆ,,27,103,5530006,,,2024-04-11,清算の結了等,,,2015-10-05,1,,,,,バズー,0
176,1160001021383,登記記録の閉鎖等,0,2024-04-23,2024-04-18,ＥＮＩＳＨＩ株式会社,,株式会社,滋賀県,彦根市,中藪町６０５－１,,25,202,5220051,,,2024-04-18,清算の結了等,,,2019-01-09,1,,,,,エニシ,0
180,1160003002704,登記記録の閉鎖等,0,2024-04-23,2024-04-12,Ｍ２ＧＡＭＥ．合同会社,,合同会社,滋賀県,彦根市,岡町１１３番地１０,,25,202,5220037,,,2024-04-12,清算の結了等,,,2022-10-17,1,,,,,エムツーゲーム,0
185,1180001075056,登記記録の閉鎖等,0,2024-04-23,2024-04-10,株式会社御幸倉庫,,株式会社,愛知県,春日井市,御幸町２丁目５番地の２,,23,206,4860953,,,2024-04-10,合併による解散等,1180001076120,令和６年４月１日名古屋市港区砂美町１２８番地東海トナミロジスティクス株式会社（1180001076120）に合併し解散,2015-10-05,1,,,,,ミユキソウコ,0
189,1180001082647,登記記録の閉鎖等,0,2024-04-23,2024-04-11,株式会社川合鉄工所,,株式会社,愛知県,一宮市,和光２丁目４番３２号,,23,203,4910026,,,2024-04-11,清算の結了等,,,2015-10-05,1,,,,,カワイテッコウショ,0
193,1180002061286,登記記録の閉鎖等,0,2024-04-23,2024-04-11,有限会社スタッフプランニング,,有限会社,愛知県,名古屋市千種区,松軒１丁目５番１７号,,23,101,4640084,,,2024-04-11,清算の結了等,,,2015-10-05,1,,,,,スタッフプランニング,0
204,1180305003605,登記記録の閉鎖等,0,2024-04-23,2024-04-02,豊川門前通商店街振興組合,,その他の設立登記法人,愛知県,豊川市,門前町５８番地,,23,207,4420037,,,2024-04-02,合併による解散等,4180305003602,令和６年４月１日愛知県豊川市豊川栄町１７番地（豊川商店街駅前駐車場内）豊川商店街振興組合（4180305003602）に合併し解散,2015-10-05,1,,,,,トヨカワモンゼンドオリ,0
208,1200002027648,登記記録の閉鎖等,0,2024-04-23,2024-04-17,有限会社マルヨシ,,有限会社,岐阜県,下呂市,金山町祖師野２０３番地９,,21,220,5091606,,,2024-04-17,清算の結了等,,,2015-10-05,1,,,,,マルヨシ,0
229,1290001006925,登記記録の閉鎖等,0,2024-04-23,2024-04-01,株式会社九州技術調査,,株式会社,福岡県,福岡市中央区,高砂２丁目６番４号,,40,133,8100011,,,2024-04-01,清算の結了等,,,2015-10-05,1,,,,,キュウシュウギジュツチョウサ,0
235,1290002037135,登記記録の閉鎖等,0,2024-04-23,2024-04-01,有限会社村山鈑金工業所,,有限会社,福岡県,糟屋郡須惠町,大字上須恵字平原３９番地の１,,40,344,8112100,,,2024-04-01,清算の結了等,,,2015-10-05,1,,,,,ムラマバンキンコウギョウショ,0
252,1330002022314,登記記録の閉鎖等,0,2024-04-23,2024-04-01,株式会社新世紀物流,,株式会社,熊本県,玉名市,天水町小天９２５１番地１,,43,206,8615401,,,2024-04-01,合併による解散等,8330001011575,令和６年４月１日熊本県玉名市天水町小天７２６２番地株式会社天水（8330001011575）に合併し解散,2015-10-05,1,,,,,シンセイキブツリュウ,0
261,1370301003250,登記記録の閉鎖等,0,2024-04-23,2024-04-01,株式会社みかぜ屋,,株式会社,宮城県,石巻市,大橋３丁目１３番地１１,,04,202,9860805,,,2024-04-01,清算の結了等,,,2015-10-05,1,,,,,ミカゼヤ,0
262,1380001012204,登記記録の閉鎖等,0,2024-04-23,2024-04-15,株式会社ＭＡＰあんしん経営,,株式会社,福島県,いわき市,小島町３丁目１２番地の２富士乃屋第３ビル,,07,204,9738411,,,2024-04-15,清算の結了等,,,2015-10-05,1,,,,,マップアンシンケイエイ,0
280,1450002000679,登記記録の閉鎖等,0,2024-04-23,2024-04-16,有限会社伊藤鉄筋工業,,有限会社,北海道,上川郡鷹栖町,８線西一号２番地,,01,452,0711248,,,2024-04-16,清算の結了等,,,2015-10-05,1,,,,,イトウテッキンコウギョウ,0
287,1480005003957,登記記録の閉鎖等,0,2024-04-23,2024-04-01,徳島北農業協同組合,,その他の設立登記法人,徳島県,鳴門市,大麻町大谷字八反田１０番地１,,36,202,7790302,,,2024-04-01,合併による解散等,9480005003058,令和６年４月１日徳島県徳島市北佐古一番町５番１２号徳島県農業協同組合（9480005003058）に合併し解散,2015-10-05,1,,,,,トクシマキタ,0
296,2010001233298,登記記録の閉鎖等,0,2024-04-23,2024-04-16,株式会社ＭＡ‐２,,株式会社,東京都,中央区,銀座１丁目２２番１１号銀座大竹ビジデンス２Ｆ,,13,102,1040061,,,2024-04-16,清算の結了等,,,2023-02-24,1,,,,,エムエーツー,0
298,2010003038448,登記記録の閉鎖等,0,2024-04-23,2024-04-08,リリーガーデン合同会社,,合同会社,東京都,中央区,銀座６丁目１３－１６,,13,102,1040061,,,2024-04-08,清算の結了等,,,2022-08-31,1,,,,,リリーガーデン,0
316,2010701018453,登記記録の閉鎖等,0,2024-04-23,2024-04-05,アンカー株式会社,,株式会社,東京都,品川区,平塚２丁目９番１－１０２号,,13,109,1420051,,,2024-04-05,清算の結了等,,,2015-10-05,1,,,,,アンカー,0
332,2011001115486,登記記録の閉鎖等,0,2024-04-23,2024-04-17,株式会社エムアンドエムズ,,株式会社,東京都,世田谷区,用賀２丁目２番３６号,,13,112,1580097,,,2024-04-17,清算の結了等,,,2017-03-28,1,,,,,エムアンドエムズ,0
345,2011201020040,登記記録の閉鎖等,0,2024-04-23,2024-04-22,東京ペイメント株式会社,,株式会社,東京都,中野区,本町６丁目２７－１２,,13,114,1640012,,,2024-04-22,清算の結了等,,,2017-07-26,1,,,,,トウキョウペイメント,0
379,2020003015677,登記記録の閉鎖等,0,2024-04-23,2024-04-12,ＣＨＡＮＣＥ　ＡＵＴＯＷＯＲＬＤ　ＩＮＴ．　ＪＡＰＡＮ合同会社,,合同会社,神奈川県,横浜市中区,山下町２５番地１４モナニビル３０２,,14,104,2310023,,,2024-04-12,清算の結了等,,,2019-02-27,1,,,,,チャンスオートワールドインターナショナルジャパン,0
399,2030002011552,登記記録の閉鎖等,0,2024-04-23,2024-04-16,有限会社藤野商店,,有限会社,埼玉県,さいたま市浦和区,常盤５丁目３番７号,,11,107,3300061,,,2024-04-16,清算の結了等,,,2015-10-05,1,,,,,フジノショウテン,0
400,2030002044932,登記記録の閉鎖等,0,2024-04-23,2024-04-16,有限会社千葉技建,,有限会社,埼玉県,草加市,北谷３丁目６番２０号,,11,221,3400046,,,2024-04-16,清算の結了等,,,2015-10-05,1,,,,,チバギケン,0
409,2040001079697,登記記録の閉鎖等,0,2024-04-23,2024-04-12,ともだちコーポレーション株式会社,,株式会社,千葉県,柏市,手賀の杜３丁目１６番地１８,,12,217,2701447,,,2024-04-12,清算の結了等,,,2015-10-05,1,,,,,トモダチコーポレーション,0
436,2080402007575,登記記録の閉鎖等,0,2024-04-23,2024-04-18,有限会社松本重機,,有限会社,静岡県,浜松市中央区,上島４丁目１３番９号,,22,138,4338122,,,2024-04-18,清算の結了等,,,2015-10-05,1,,,,,マツモトジュウキ,0
439,2100002009754,登記記録の閉鎖等,0,2024-04-23,2024-04-08,有限会社竹内食菌,,有限会社,長野県,千曲市,大字千本柳２２５番地１,,20,218,3890803,,,2024-04-08,清算の結了等,,,2015-10-05,1,,,,,タケウチショクキン,0
441,2100002037301,登記記録の閉鎖等,0,2024-04-23,2024-04-08,有限会社マキノ特殊ネット,,有限会社,長野県,飯田市,東新町１丁目６４番地,,20,205,3950017,,,2024-04-08,清算の結了等,,,2015-10-05,1,,,,,マキノトクシュネット,0
443,2110005005618,登記記録の閉鎖等,0,2024-04-23,2024-04-01,下田商工会,,その他の設立登記法人,新潟県,三条市,笹岡３６０番地１,,15,204,9550152,,,2024-04-01,合併による解散等,2110005017076,令和６年４月１日新潟県三条市新堀２２９０番地栄商工会（3110005005617）と合併して新潟県三条市新堀２２９０番地三条市商工会（2110005017076）を設立し解散,2015-10-05,1,,,,,シタダ,0
462,2120005005617,登記記録の閉鎖等,0,2024-04-23,2024-04-22,医療法人松本歯科診療所,,その他の設立登記法人,大阪府,大阪市北区,中之島３丁目２番１８号,,27,127,5300005,,,2024-04-22,清算の結了等,,,2015-10-05,1,,,,,マツモトシカシンリョウショ,0
494,2180002018335,登記記録の閉鎖等,0,2024-04-23,2024-04-08,有限会社杉浦ボルト製作所,,有限会社,愛知県,名古屋市中川区,下之一色町字松蔭４丁目７番地の１,,23,110,4540945,,,2024-04-08,清算の結了等,,,2015-10-05,1,,,,,スギウラボルトセイサクショ,0
495,2180002048638,登記記録の閉鎖等,0,2024-04-23,2024-04-09,有限会社大名古屋紙工,,有限会社,愛知県,名古屋市東区,出来町３丁目１１番６号,,23,102,4610032,,,2024-04-09,清算の結了等,,,2015-10-05,1,,,,,ダイナゴヤシコウ,0
515,2240002048565,登記記録の閉鎖等,0,2024-04-23,2024-04-18,有限会社一志,,有限会社,広島県,広島市佐伯区,五日市町下河内５１０－１－２０３号,,34,108,7315100,,,2024-04-18,清算の結了等,,,2015-10-05,1,,,,,イッシン,0
520,2260001008576,登記記録の閉鎖等,0,2024-04-23,2024-04-11,ファイン株式会社,,株式会社,岡山県,岡山市北区,辰巳２３番地１２４,,33,101,7000976,,,2024-04-11,清算の結了等,,,2015-10-05,1,,,,,ファイン,0
521,2260001016686,登記記録の閉鎖等,0,2024-04-23,2024-04-10,株式会社岡山タイヤサービス,,株式会社,岡山県,倉敷市,福江４０７番地の３,,33,202,7100145,,,2024-04-10,清算の結了等,,,2015-10-05,1,,,,,オカヤマタイヤサービス,0
524,2290003004488,登記記録の閉鎖等,0,2024-04-23,2024-04-01,合同会社キックス,,合同会社,福岡県,福岡市中央区,平尾２丁目１４－１０－７０２,,40,133,8100014,,,2024-04-01,合併による解散等,1320003001185,令和６年３月３１日福岡市博多区美野島二丁目３１－１４－１５０４合同会社フラッシュワークス（1320003001185）に合併し解散,2015-10-05,1,,,,,キックス,0
526,2290003012870,登記記録の閉鎖等,0,2024-04-23,2024-04-18,１ｅａｄ’ｓ合同会社,,合同会社,広島県,東広島市,黒瀬楢原北３丁目９番６号,00130185,34,212,7392627,,,2024-04-18,清算の結了等,,,2022-08-24,1,,,,,リーズ,0
529,2320003001845,登記記録の閉鎖等,0,2024-04-23,2024-04-01,合同会社ギブミーチョコレート,,合同会社,福岡県,福岡市中央区,平尾２丁目１４－１０－７０２,,40,133,8100014,,,2024-04-01,合併による解散等,1320003001185,令和６年３月３１日福岡市博多区美野島二丁目３１－１４－１５０４合同会社フラッシュワークス（1320003001185）に合併し解散,2015-10-05,1,,,,,ギブミーチョコレート,0
532,2330002006027,登記記録の閉鎖等,0,2024-04-23,2024-04-15,有限会社創和設計,,有限会社,熊本県,熊本市中央区,上水前寺１丁目６番２号３０２,,43,101,8620951,,,2024-04-15,清算の結了等,,,2015-10-05,1,,,,,ソウワセッケイ,0
534,2330005006701,登記記録の閉鎖等,0,2024-04-23,2024-04-16,熊本県職員天草地区生活協同組合,,その他の設立登記法人,熊本県,天草市,今釜新町３５３０番地,,43,215,8630013,,,2024-04-16,清算の結了等,,,2015-10-05,1,,,,,クマモトケンショクインアマクサチク,0
545,2370001046202,登記記録の閉鎖等,0,2024-04-23,2024-04-19,Ｄｅｘｅｒｉａｌｓ　Ｐｒｅｃｉｓｉｏｎ　Ｃｏｍｐｏｎｅｎｔｓ株式会社,,株式会社,宮城県,登米市,中田町宝江新井田字加賀野境３０番地,,04,212,9870622,,,2024-04-19,合併による解散等,8010001175931,令和６年４月１日栃木県下野市下坪山１７２４番地デクセリアルズフォトニクスソリューションズ株式会社（8010001175931）に合併し解散,2020-10-06,1,,,,,デクセリアルズプレシジョンコンポーネンツ,0
557,2430001012569,登記記録の閉鎖等,0,2024-04-23,2024-04-15,株式会社日刊印刷,,株式会社,北海道,札幌市白石区,中央二条６丁目１番１５号,,01,104,0030012,,,2024-04-15,清算の結了等,,,2015-10-05,1,,,,,ニッカンインサツ,0
565,2430002035354,登記記録の閉鎖等,0,2024-04-23,2024-04-19,有限会社新栄産業,,有限会社,北海道,札幌市厚別区,厚別西一条４丁目３番２号,,01,108,0040061,,,2024-04-19,清算の結了等,,,2015-10-05,1,,,,,,0
577,2470002017828,登記記録の閉鎖等,0,2024-04-23,2024-04-12,有限会社大景自動車,,有限会社,香川県,さぬき市,志度４１３９番地２０３,,37,206,7692101,,,2024-04-12,清算の結了等,,,2015-10-05,1,,,,,オオカゲジドウシャ,0
615,3010701040167,登記記録の閉鎖等,0,2024-04-23,2024-04-08,ツインエスジャパン株式会社,,株式会社,東京都,品川区,小山４丁目１４番２１号２０１,,13,109,1420062,,,2024-04-08,清算の結了等,,,2020-11-30,1,,,,,ツインエスジャパン,0
626,3010902005258,登記記録の閉鎖等,0,2024-04-23,2024-04-22,ケィ・オー・エス・インターナショナル有限会社,,有限会社,東京都,世田谷区,野沢２丁目３番１号,,13,112,1540003,,,2024-04-22,清算の結了等,,,2015-10-05,1,,,,,ケィオーエスインターナショナル,0
646,3011801042763,登記記録の閉鎖等,0,2024-04-23,2024-04-19,株式会社ソア法定検査事務所,,株式会社,東京都,足立区,梅田４丁目６番１１号ＳＥＡＮＨＯＬＭＥＳＩＩ,00131238,13,121,1230851,,,2024-04-19,清算の結了等,,,2023-07-21,1,,,,,ソアホウテイケンサジムショ,0
663,3020003013647,登記記録の閉鎖等,0,2024-04-23,2024-04-12,合同会社ｋｍｚ,,合同会社,神奈川県,横浜市磯子区,磯子３丁目４番２９－２０３号,,14,107,2350016,,,2024-04-12,清算の結了等,,,2017-12-14,1,,,,,ケイエムゼット,0
688,3060002019848,登記記録の閉鎖等,0,2024-04-23,2024-04-11,有限会社かねか大貫材木店,,有限会社,栃木県,鹿沼市,下田町１丁目５００１番地５,,09,205,3220036,,,2024-04-11,清算の結了等,,,2015-10-05,1,,,,,カネカオオヌキザイモクテン,0
705,3110001015958,登記記録の閉鎖等,0,2024-04-23,2024-04-17,株式会社トヨタカ,,株式会社,新潟県,燕市,吉田松岡新田４６番地の１,,15,213,9590243,,,2024-04-17,清算の結了等,,,2015-10-05,1,,,,,トヨタカ,0
706,3110003000768,登記記録の閉鎖等,0,2024-04-23,2024-04-17,合同会社桜井技研,,合同会社,新潟県,五泉市,番坂甲３１７２番地５,,15,218,9591766,,,2024-04-17,清算の結了等,,,2015-10-05,1,,,,,サクライギケン,0
708,3110005005617,登記記録の閉鎖等,0,2024-04-23,2024-04-01,栄商工会,,その他の設立登記法人,新潟県,三条市,新堀２２９０番地,,15,204,9591153,,,2024-04-01,合併による解散等,2110005017076,令和６年４月１日新潟県三条市笹岡３６０番地１下田商工会（2110005005618）と合併して新潟県三条市新堀２２９０番地三条市商工会（2110005017076）を設立し解散,2015-10-05,1,,,,,サカエ,0
745,3130001065316,登記記録の閉鎖等,0,2024-04-23,2024-04-17,株式会社中村,,株式会社,京都府,京都市西京区,川島玉頭町２４番地３,,26,111,6158193,,,2024-04-17,清算の結了等,,,2019-09-26,1,,,,,ナカムラ,0
750,3140001002945,登記記録の閉鎖等,0,2024-04-23,2024-04-19,愛水工業株式会社,,株式会社,兵庫県,神戸市西区,櫨谷町寺谷１２４２番地の１１８神戸ハイテクイースト工場１０２号,,28,111,6512231,,,2024-04-19,清算の結了等,,,2015-10-05,1,,,,,,0
752,3140001044062,登記記録の閉鎖等,0,2024-04-23,2024-04-17,高砂紙業株式会社,,株式会社,兵庫県,高砂市,高砂町栄町１０５番地,,28,216,6760038,,,2024-04-17,合併による解散等,8010001008769,令和６年４月１日東京都墨田区両国二丁目１０番１４号三菱製紙株式会社（8010001008769）に合併し解散,2015-10-05,1,,,,,タカサゴシギョウ,0
763,3140003012983,登記記録の閉鎖等,0,2024-04-23,2024-04-15,合同会社二番手,,合同会社,兵庫県,丹波市,柏原町柏原１９３４－２,,28,223,6693309,,,2024-04-15,清算の結了等,,,2018-05-09,1,,,,,ニバンテ,0
768,3160001003363,登記記録の閉鎖等,0,2024-04-23,2024-04-11,株式会社アイプランニング,,株式会社,滋賀県,大津市,竜が丘１１番１１号,,25,201,5200803,,,2024-04-11,合併による解散等,5160001000656,令和６年３月３１日滋賀県大津市竜が丘１１番１１号株式会社ＫＥＩＪＩ（5160001000656）に合併し解散,2015-10-05,1,,,,,アイプランニング,0
775,3180001132929,登記記録の閉鎖等,0,2024-04-23,2024-04-10,株式会社インフィニティ５２,,株式会社,愛知県,名古屋市中区,大須３丁目５番４９号,,23,106,4600011,,,2024-04-10,清算の結了等,,,2018-07-05,1,,,,,インフィニティゴジュウニ,0
780,3180002030289,登記記録の閉鎖等,0,2024-04-23,2024-04-10,有限会社オフィスビッグバン,,有限会社,愛知県,知多市,八幡新町３丁目１０番地の６,,23,224,4780052,,,2024-04-10,清算の結了等,,,2015-10-05,1,,,,,オフィスビッグバン,0
783,3180003004110,登記記録の閉鎖等,0,2024-04-23,2024-04-10,合資会社竹内モータース,,合資会社,愛知県,名古屋市緑区,鳴海町字京田１５番地,,23,114,4580801,,,2024-04-10,清算の結了等,,,2015-10-05,1,,,,,タケウチモータース,0
793,3190002005645,登記記録の閉鎖等,0,2024-04-23,2024-04-18,有限会社垣内農園,,有限会社,三重県,北牟婁郡紀北町,古里１０４８番地の１,,24,543,5193209,,,2024-04-18,清算の結了等,,,2015-10-05,1,,,,,カキウチノウエン,0
806,3240002045875,登記記録の閉鎖等,0,2024-04-23,2024-04-18,有限会社ナベシマ企画,,有限会社,鳥取県,米子市,目久美町２９番地３,,31,202,6830035,,,2024-04-18,清算の結了等,,,2015-10-05,1,,,,,ナベシマキカク,0
811,3250005004530,登記記録の閉鎖等,0,2024-04-23,2024-03-28,八幡宮,,その他の設立登記法人,山口県,萩市,川上８３５２番地,,35,204,7580141,,,2024-03-28,合併による解散等,1250005004532,令和６年３月２８日山口県萩市川上４７８１番地船戸神社（1250005004532）に合併し解散,2015-10-05,1,,,,,,0
826,3290805003604,登記記録の閉鎖等,0,2024-04-23,2024-04-03,特定非営利活動法人ＮＰＯお元気様会,,その他の設立登記法人,福岡県,北九州市小倉南区,徳力３丁目６番１６号,,40,107,8020974,,,2024-04-03,清算の結了等,,,2015-10-05,1,,,,,エヌピーオーオゲンキサマカイ,0
831,3330001014772,登記記録の閉鎖等,0,2024-04-23,2024-04-15,株式会社建築工房ほんだ,,株式会社,熊本県,熊本市東区,長嶺西３丁目２番５号,,43,102,8618037,,,2024-04-15,清算の結了等,,,2015-10-05,1,,,,,ケンチクコウボウホンダ,0
834,3330003003014,登記記録の閉鎖等,0,2024-04-23,2024-04-22,合資会社宇城環境,,合資会社,熊本県,熊本市南区,城南町東阿高２０番地５,,43,104,8614225,,,2024-04-22,清算の結了等,,,2015-10-05,1,,,,,ウキカンキョウ,0
835,3350002002535,登記記録の閉鎖等,0,2024-04-23,2024-04-12,有限会社セントラル測量設計,,有限会社,宮崎県,宮崎市,村角町六反田８５４番地の１,,45,201,8800837,,,2024-04-12,清算の結了等,,,2015-10-05,1,,,,,セントラルソクリョウセッケイ,0
852,3430002012625,登記記録の閉鎖等,0,2024-04-23,2024-04-12,有限会社タムラ,,有限会社,北海道,札幌市中央区,南十六条西１９丁目２番１３号,,01,101,0640916,,,2024-04-12,清算の結了等,,,2015-10-05,1,,,,,タムラ,0
854,3430002061878,登記記録の閉鎖等,0,2024-04-23,2024-04-12,有限会社見上牧場,,有限会社,北海道,日高郡新ひだか町,静内川合１９３番地,,01,610,0592563,,,2024-04-12,清算の結了等,,,2015-10-05,1,,,,,ミカミボクジョウ,0
863,3470003001598,登記記録の閉鎖等,0,2024-04-23,2024-04-09,豊楽合同会社,,合同会社,香川県,仲多度郡まんのう町,炭所西１４５２番地１,,37,406,7660017,,,2024-04-09,清算の結了等,,,2019-06-04,1,,,,,ホウラク,0
866,3480005003121,登記記録の閉鎖等,0,2024-04-23,2024-04-01,阿波市農業協同組合,,その他の設立登記法人,徳島県,阿波市,阿波町南柴生２０６番地,,36,206,7711703,,,2024-04-01,合併による解散等,9480005003058,令和６年４月１日徳島県徳島市北佐古一番町５番１２号徳島県農業協同組合（9480005003058）に合併し解散,2015-10-05,1,,,,,アワシ,0
867,3480005005258,登記記録の閉鎖等,0,2024-04-23,2024-04-01,美馬農業協同組合,,その他の設立登記法人,徳島県,美馬市,脇町字拝原１３００番地,,36,207,7793601,,,2024-04-01,合併による解散等,9480005003058,令和６年４月１日徳島県徳島市北佐古一番町５番１２号徳島県農業協同組合（9480005003058）に合併し解散,2015-10-05,1,,,,,ミマ,0
882,4010001064031,登記記録の閉鎖等,0,2024-04-23,2024-04-10,株式会社ユースーツ,,株式会社,東京都,千代田区,外神田３丁目１番１６号,,13,101,1010021,,,2024-04-10,清算の結了等,,,2015-10-05,1,,,,,ユースーツ,0
883,4010001143693,登記記録の閉鎖等,0,2024-04-23,2024-04-10,ＪＸサバ深海石油開発株式会社,,株式会社,東京都,千代田区,大手町１丁目１番２号,,13,101,1000004,,,2024-04-10,清算の結了等,,,2015-10-05,1,,,,,ジェイエックスサバシンカイセキユカイハツ,0
911,4010401140274,登記記録の閉鎖等,0,2024-04-23,2024-04-08,Ｏｒｉｇｉｎａｌ　Ｊａｐａｎ株式会社,,株式会社,東京都,港区,北青山３丁目５番１０号,,13,103,1070061,,,2024-04-08,清算の結了等,,,2018-08-16,1,,,,,オリジナルジャパン,0
930,4010601058390,登記記録の閉鎖等,0,2024-04-23,2024-04-12,株式会社ひばり,,株式会社,東京都,墨田区,押上３丁目４２番１０号伸東ビル１階,,13,107,1310045,,,2024-04-12,清算の結了等,,,2020-11-30,1,,,,,ヒバリ,0
942,4011001064624,登記記録の閉鎖等,0,2024-04-23,2024-04-05,エィアンドピィ株式会社,,株式会社,東京都,千代田区,神田小川町３丁目１０番地７,,13,101,1010052,,,2024-04-05,清算の結了等,,,2015-10-05,1,,,,,エィアンドピィ,0
944,4011002021979,登記記録の閉鎖等,0,2024-04-23,2024-04-04,有限会社隆豊,00053449,有限会社,東京都,渋谷区,神宮前３丁目１３番１３号,,13,113,1500001,,,2024-04-04,清算の結了等,,,2015-10-05,1,,,,,,0
951,4011101040418,登記記録の閉鎖等,0,2024-04-23,2024-04-11,株式会社ゲンテン,,株式会社,東京都,新宿区,市谷本村町２番１号,,13,104,1620845,,,2024-04-11,合併による解散等,9011102003823,令和６年４月１日東京都新宿区市谷本村町２番１号株式会社ゲンテン（9011102003823）に合併し解散,2015-10-05,1,,,,,ゲンテン,0
952,4011101068070,登記記録の閉鎖等,0,2024-04-23,2024-04-12,株式会社ＨＡＬコンサルティング,,株式会社,東京都,新宿区,西新宿８丁目３番３２号,,13,104,1600023,,,2024-04-12,清算の結了等,,,2015-10-05,1,,,,,ハルコンサルティング,0
955,4011302015441,登記記録の閉鎖等,0,2024-04-23,2024-04-12,有限会社愛の手ラブハンズ,,有限会社,東京都,杉並区,高円寺南３丁目４１番４号,,13,115,1660003,,,2024-04-12,清算の結了等,,,2015-10-05,1,,,,,アイノテラブハンズ,0
956,4011401016712,登記記録の閉鎖等,0,2024-04-23,2024-04-12,日本安全エレベーター株式会社,,株式会社,東京都,板橋区,前野町４丁目１８番１２号,,13,119,1740063,,,2024-04-12,清算の結了等,,,2015-10-05,1,,,,,ニホンアンゼンエレベーター,0
966,4012401038077,登記記録の閉鎖等,0,2024-04-23,2024-04-10,株式会社ＴＯＹ,,株式会社,東京都,中央区,日本橋兜町１７番１号日本橋ロイヤルプラザ７０６,,13,102,1030026,,,2024-04-10,清算の結了等,,,2021-07-09,1,,,,,トイ,0
967,4012701000496,登記記録の閉鎖等,0,2024-04-23,2024-04-10,杉山金物株式会社,,株式会社,東京都,小平市,小川西町４丁目２６番１号,,13,211,1870035,,,2024-04-10,清算の結了等,,,2015-10-05,1,,,,,スギヤマカナモノ,0
968,4012701014182,登記記録の閉鎖等,0,2024-04-23,2024-04-15,マイノリティ株式会社,,株式会社,埼玉県,所沢市,上新井２丁目２７番地の４エステート６－１０２,,11,208,3591142,,,2024-04-15,清算の結了等,,,2017-03-10,1,,,,,マイノリティ,0
970,4012802002706,登記記録の閉鎖等,0,2024-04-23,2024-04-12,有限会社石井工業,,有限会社,東京都,昭島市,緑町４丁目２０番２４号,,13,207,1960004,,,2024-04-12,清算の結了等,,,2015-10-05,1,,,,,イシイコウギョウ,0
998,4030002013316,登記記録の閉鎖等,0,2024-04-23,2024-04-15,有限会社みやこ商事,,有限会社,埼玉県,さいたま市見沼区,大和田町１丁目１７２７番地,,11,104,3370053,,,2024-04-15,清算の結了等,,,2015-10-05,1,,,,,ミヤコショウジ,0
1013,4040001090479,登記記録の閉鎖等,0,2024-04-23,2024-04-01,株式会社ＫＴエキスパート,,株式会社,千葉県,八街市,山田台２８１番地,,12,230,2891124,,,2024-04-01,合併による解散等,3040002017259,令和６年４月１日千葉県八街市山田台２８１番地株式会社鎌滝興業（3040002017259）に合併し解散,2015-10-05,1,,,,,ケーティーエキスパート,0
1018,4040005019565,登記記録の閉鎖等,0,2024-04-23,2024-04-11,一般社団法人ネットワーク・ガイアガイア,,その他の設立登記法人,千葉県,南房総市,市部６１８番地２,,12,234,2992226,,,2024-04-11,清算の結了等,,,2017-06-05,1,,,,,ネットワークガイアガイア,0
1019,4050001006979,登記記録の閉鎖等,0,2024-04-23,2024-04-16,株式会社工機マニュファクチャリング＆サービス,,株式会社,茨城県,ひたちなか市,大字武田１０６０番地,,08,221,3120025,,,2024-04-16,合併による解散等,7010401038697,令和６年４月１日東京都港区港南二丁目１５番１号工機ホールディングス株式会社（7010401038697）に合併し解散,2015-10-05,1,,,,,コウキマニュファクチャリングアンドサービス,0
1033,4060002037477,登記記録の閉鎖等,0,2024-04-23,2024-04-10,有限会社みにむ,,有限会社,栃木県,足利市,田中町９１１番１号,,09,202,3260822,,,2024-04-10,清算の結了等,,,2015-10-05,1,,,,,ミニム,0
1041,4100001030131,登記記録の閉鎖等,0,2024-04-23,2024-04-05,マルゼンフーズ株式会社,,株式会社,長野県,長野市,市場３番地４３,,20,201,3812202,,,2024-04-05,合併による解散等,1100001001333,令和６年４月１日長野市市場３番地４３株式会社ナガレイ（1100001001333）に合併し解散,2017-04-13,1,,,,,マルゼンフーズ,0
1046,4110001034065,登記記録の閉鎖等,0,2024-04-23,2024-04-16,株式会社ＬＲ,,株式会社,新潟県,新潟市中央区,米山３丁目３番２３号１１８号,,15,103,9500916,,,2024-04-16,清算の結了等,,,2019-05-31,1,,,,,エルアール,0
1047,4110005004634,登記記録の閉鎖等,0,2024-04-23,2024-04-01,黒川商工会,,その他の設立登記法人,新潟県,胎内市,黒川１１０６番地１３,,15,227,9592807,,,2024-04-01,合併による解散等,4110005017074,令和６年４月１日新潟県胎内市新和町２番５号中条町商工会（8110005004639）と合併して新潟県胎内市新和町２番５号胎内市商工会（4110005017074）を設立し解散,2015-10-05,1,,,,,クロカワ,0
1049,4120001025220,登記記録の閉鎖等,0,2024-04-23,2024-04-10,株式会社福田楽譜,,株式会社,大阪府,大阪市天王寺区,小橋町１４－７８－７０３,,27,109,5430028,,,2024-04-10,清算の結了等,,,2015-10-05,1,,,,,フクダガクフ,0
1052,4120001180783,登記記録の閉鎖等,0,2024-04-23,2024-04-04,株式会社船井総研デジタル,,株式会社,大阪府,大阪市中央区,北浜４丁目４番１０号,,27,128,5410041,,,2024-04-04,合併による解散等,5120001180782,令和６年４月１日大阪市中央区北浜四丁目４番１０号株式会社船井総合研究所（5120001180782）に合併し解散,2015-10-05,1,,,,,フナイソウケンデジタル,0
1068,4120003013017,登記記録の閉鎖等,0,2024-04-23,2024-04-18,合同会社トランザ,,合同会社,大阪府,大阪市中央区,北久宝寺町３丁目６番１号,,27,128,5410057,,,2024-04-18,清算の結了等,,,2017-07-05,1,,,,,トランザ,0
1075,4122001005210,登記記録の閉鎖等,0,2024-04-23,2024-04-22,株式会社長尾工務店,,株式会社,大阪府,東大阪市,菱江２丁目５番３号,,27,227,5780984,,,2024-04-22,清算の結了等,,,2015-10-05,1,,,,,ナガオコウムテン,0
1112,4180002070466,登記記録の閉鎖等,0,2024-04-23,2024-04-09,有限会社Ｆ＆Ｗソリューションズ,,有限会社,愛知県,小牧市,大字本庄２５４２番地,,23,219,4850821,,,2024-04-09,清算の結了等,,,2015-10-05,1,,,,,エフアンドダブリューソリューションズ,0
1115,4180003012772,登記記録の閉鎖等,0,2024-04-23,2024-04-09,合資会社シキシマ,,合資会社,愛知県,半田市,雁宿町１丁目３８番地,,23,205,4750918,,,2024-04-09,清算の結了等,,,2015-10-05,1,,,,,シキシマ,0
1122,4180305008403,登記記録の閉鎖等,0,2024-04-23,2024-04-02,本町商店街振興組合,,その他の設立登記法人,愛知県,豊川市,西本町４７番地,,23,207,4420034,,,2024-04-02,合併による解散等,4180305003602,令和６年４月１日愛知県豊川市豊川栄町１７番地（豊川商店街駅前駐車場内）豊川商店街振興組合（4180305003602）に合併し解散,2015-10-05,1,,,,,ホンマチ,0
1133,4250001013369,登記記録の閉鎖等,0,2024-04-23,2024-04-17,株式会社ウィル,,株式会社,山口県,下関市,丸山町２丁目１０番１７号,,35,201,7500019,,,2024-04-17,清算の結了等,,,2015-10-05,1,,,,,ウィル,0
1135,4260001014085,登記記録の閉鎖等,0,2024-04-23,2024-04-10,中国観光株式会社,,株式会社,岡山県,倉敷市,浜町１丁目１３番１５号,,33,202,7100062,,,2024-04-10,清算の結了等,,,2015-10-05,1,,,,,チュウゴクカンコウ,0
1145,4290001014917,登記記録の閉鎖等,0,2024-04-23,2024-04-01,東洋商事株式会社,,株式会社,福岡県,福岡市中央区,赤坂２丁目３番３３号,,40,133,8100042,,,2024-04-01,清算の結了等,,,2015-10-05,1,,,,,トウヨウショウジ,0
1158,4310001011168,登記記録の閉鎖等,0,2024-04-23,2024-04-17,株式会社ともしび,,株式会社,長崎県,五島市,上大津町１９２番地２,,42,211,8530013,,,2024-04-17,清算の結了等,,,2015-10-05,1,,,,,トモシビ,0
1161,4330003001784,登記記録の閉鎖等,0,2024-04-23,2024-04-12,合同会社オフィスユーサイド,,合同会社,熊本県,熊本市南区,平田１丁目１４番８号亀川ビル２Ｆ,,43,104,8600826,,,2024-04-12,清算の結了等,,,2015-10-05,1,,,,,オフィスユーサイド,0
1163,4340002015405,登記記録の閉鎖等,0,2024-04-23,2024-04-19,有限会社ばかうま食堂,,有限会社,鹿児島県,霧島市,溝辺町麓２８２番地１,,46,218,8996404,,,2024-04-19,清算の結了等,,,2015-10-05,1,,,,,バカウマショクドウ,0
1177,4420001001447,登記記録の閉鎖等,0,2024-04-23,2024-04-16,株式会社東北ネオン工芸,,株式会社,青森県,弘前市,大字寒沢町５番地３７,,02,202,0368226,,,2024-04-16,清算の結了等,,,2015-10-05,1,,,,,トウホクネオンコウゲイ,0
1186,4430003014074,登記記録の閉鎖等,0,2024-04-23,2024-04-16,ＧＢＡフードカンパニー合同会社,,合同会社,北海道,札幌市中央区,南八条西１２丁目１番３０号,,01,101,0640808,,,2024-04-16,清算の結了等,,,2022-07-06,1,,,,,ジビエフードカンパニー,0
1191,4470001012670,登記記録の閉鎖等,0,2024-04-23,2024-04-12,株式会社風向,,株式会社,香川県,高松市,川島東町２９３番地５,,37,201,7610443,,,2024-04-12,清算の結了等,,,2015-10-05,1,,,,,フウコウ,0
1211,5010001206458,登記記録の閉鎖等,0,2024-04-23,2024-04-15,総合メディカルグループ株式会社,,株式会社,福岡県,福岡市中央区,大名２丁目９番２３号,,40,133,8100041,,,2024-04-15,合併による解散等,7010001241040,令和６年３月２９日東京都千代田区霞が関三丁目２番５号総合メディカルグループ株式会社（7010001241040）に合併し解散,2020-01-08,1,,,,,ソウゴウメディカルグループ,0
1248,5010801030891,登記記録の閉鎖等,0,2024-04-23,2024-04-17,株式会社クリスタルコレクション,,株式会社,東京都,大田区,大森西３丁目７－１７－１０３号室,,13,111,1430015,,,2024-04-17,合併による解散等,6020001114477,令和６年４月１日さいたま市大宮区仲町三丁目５８番地－３０２号株式会社シャローム（6020001114477）に合併し解散,2020-05-22,1,,,,,クリスタルコレクション,0
1251,5010903005230,登記記録の閉鎖等,0,2024-04-23,2024-04-16,合同会社ＶＩＶＩＤ＆ＬＩＶＥＬＹ,,合同会社,東京都,新宿区,大久保２丁目２番１２号ＶＯＲＴ東新宿５０２,,13,104,1690072,,,2024-04-16,清算の結了等,,,2019-09-26,1,,,,,ビビッドアンドライブリー,0
1252,5010903006559,登記記録の閉鎖等,0,2024-04-23,2024-04-11,シルクル１合同会社,,合同会社,東京都,千代田区,九段南４丁目６番１－２０２号,,13,101,1020074,,,2024-04-11,清算の結了等,,,2021-05-25,1,,,,,シルクルワン,0
1260,5011101088588,登記記録の閉鎖等,0,2024-04-23,2024-04-11,株式会社ＧＹＲＥ４,,株式会社,東京都,新宿区,歌舞伎町１丁目１番６号,,13,104,1600021,,,2024-04-11,清算の結了等,,,2019-08-09,1,,,,,ジャイルフォー,0
1263,5011101104246,登記記録の閉鎖等,0,2024-04-23,2024-04-18,株式会社朝日エンジニアリングスタッフ,,株式会社,東京都,新宿区,下宮比町２番１号,,13,104,1620822,,,2024-04-18,合併による解散等,1120001109100,令和６年４月１日大阪市中央区本町四丁目２番１２号野村不動産御堂筋本町ビル９階サポート人材センター株式会社（1120001109100）に合併し解散,2023-09-06,1,,,,,アサヒエンジニアリングスタッフ,0
1266,5011103013940,登記記録の閉鎖等,0,2024-04-23,2024-04-11,合同会社マイファンド,,合同会社,東京都,新宿区,西新宿４丁目４１－１０フォレストマンション８０５,,13,104,1600023,,,2024-04-11,清算の結了等,,,2024-01-10,1,,,,,マイファンド,0
1278,5013201015884,登記記録の閉鎖等,0,2024-04-23,2024-04-08,株式会社オープンドリームホールディングス,,株式会社,東京都,目黒区,中町２丁目４２番２号コーポ向井３号室,,13,110,1530065,,,2024-04-08,清算の結了等,,,2015-10-05,1,,,,,オープンドリームホールディングス,0
1297,5030001000033,登記記録の閉鎖等,0,2024-04-23,2024-04-17,アサヒ厨房株式会社,,株式会社,埼玉県,さいたま市南区,大字大谷口５０８８番地４,,11,108,3360042,,,2024-04-17,清算の結了等,,,2015-10-05,1,,,,,アサヒチュウボウ,0
1305,5030002090610,登記記録の閉鎖等,0,2024-04-23,2024-04-15,有限会社マエダ電機工業,,有限会社,埼玉県,吉川市,大字保８３１番地５,,11,243,3420041,,,2024-04-15,清算の結了等,,,2015-10-05,1,,,,,マエダデンキコウギョウ,0
1322,5050002035670,登記記録の閉鎖等,0,2024-04-23,2024-04-17,有限会社常陽オオタニット,,有限会社,茨城県,常陸大宮市,南町１１３０番地の５,,08,225,3192263,,,2024-04-17,清算の結了等,,,2015-10-05,1,,,,,,0
1340,5100002016351,登記記録の閉鎖等,0,2024-04-23,2024-04-05,長門コーポレーション有限会社,,有限会社,長野県,東御市,和２１１０番地１,,20,219,3890505,,,2024-04-05,合併による解散等,6100002016061,令和６年４月１日長野県上田市塩川２５００番地５３長門運輸株式会社（6100002016061）に合併し解散,2015-10-05,1,,,,,ナガトコーポレーション,0
1343,5110005000888,登記記録の閉鎖等,0,2024-04-23,2024-04-01,酒屋町商工会,,その他の設立登記法人,新潟県,新潟市江南区,酒屋町８２１番地１０,,15,104,9500324,,,2024-04-01,合併による解散等,9110005001610,令和６年４月１日新潟県新潟市江南区横越中央一丁目１番５号新潟こうなん商工会（9110005001610）に合併し解散,2015-10-05,1,,,,,サカヤマチ,0
1344,5110005009748,登記記録の閉鎖等,0,2024-04-23,2024-04-02,妙高商工会,,その他の設立登記法人,新潟県,妙高市,大字関山字原田１６６８番地６,,15,217,9492235,,,2024-04-02,合併による解散等,4110005009749,令和６年４月２日新潟県妙高市大字毛祝坂５８番地３妙高高原商工会（4110005009749）に合併し解散,2015-10-05,1,,,,,ミョウコウ,0
1350,5120001212528,登記記録の閉鎖等,0,2024-04-23,2024-04-11,ＡＬＬ　ＡＧＥＮＣＹ株式会社,,株式会社,大阪府,大阪市中央区,島之内１丁目８－８,,27,128,5420082,,,2024-04-11,清算の結了等,,,2018-04-10,1,,,,,オールエージェンシー,0
1360,5120005019812,登記記録の閉鎖等,0,2024-04-23,2024-04-22,一般社団法人オメガ・ジャパン,,その他の設立登記法人,大阪府,大阪市中央区,玉造２丁目２６番４７号,,27,128,5400004,,,2024-04-22,清算の結了等,,,2017-11-09,1,,,,,オメガジャパン,0
1361,5120101021531,登記記録の閉鎖等,0,2024-04-23,2024-04-19,三栄電機株式会社,,株式会社,大阪府,堺市美原区,多治井３８２番地の１,,27,147,5870012,,,2024-04-19,清算の結了等,,,2015-10-05,1,,,,,,0
1376,5140002002736,登記記録の閉鎖等,0,2024-04-23,2024-04-18,アイ・ビー・シー・ジヤパン有限会社,,有限会社,兵庫県,神戸市中央区,熊内町４丁目１０番６－７０４号,,28,110,6510056,,,2024-04-18,清算の結了等,,,2015-10-05,1,,,,,アイビーシージャパン,0
1379,5150001004352,登記記録の閉鎖等,0,2024-04-23,2024-04-19,綜合エンジニアリング株式会社,,株式会社,奈良県,奈良市,秋篠三和町２丁目１０番３号,,29,201,6310814,,,2024-04-19,清算の結了等,,,2015-10-05,1,,,,,,0
1380,5150001005920,登記記録の閉鎖等,0,2024-04-23,2024-04-10,株式会社未在,,株式会社,東京都,豊島区,目白４丁目１１番７号,,13,116,1710031,,,2024-04-10,清算の結了等,,,2015-10-05,1,,,,,ミザイ,0
1397,5180002062090,登記記録の閉鎖等,0,2024-04-23,2024-04-10,有限会社オカダトレーディング,,有限会社,愛知県,名古屋市名東区,植園町２丁目１番地,,23,115,4650077,,,2024-04-10,清算の結了等,,,2015-10-05,1,,,,,オカダトレーディング,0
1398,5180002067239,登記記録の閉鎖等,0,2024-04-23,2024-04-08,有限会社ヘルスケア,,有限会社,愛知県,春日井市,石尾台６丁目１７番地の２,,23,206,4870006,,,2024-04-08,清算の結了等,,,2015-10-05,1,,,,,ヘルスケア,0
1405,5190001022177,登記記録の閉鎖等,0,2024-04-23,2024-04-15,ジャパンエネルギー株式会社,,株式会社,三重県,津市,丸之内６番１１号丸之内南ビル２階,,24,201,5140033,,,2024-04-15,清算の結了等,,,2015-10-05,1,,,,,ジャパンエネルギー,0
1416,5240005011716,登記記録の閉鎖等,0,2024-04-23,2024-04-01,慈雲寺,,その他の設立登記法人,広島県,三原市,糸崎６丁目２３番１７号,,34,204,7290324,,,2024-04-01,合併による解散等,3240005012146,令和６年４月１日広島県三原市東町三丁目５番２号松寿寺（3240005012146）に合併し解散,2015-10-05,1,,,,,ジウンジ,0
1448,5370301001077,登記記録の閉鎖等,0,2024-04-23,2024-04-10,二ツ山建設株式会社,,株式会社,宮城県,石巻市,恵み野６丁目２番地１２,,04,202,9860868,,,2024-04-10,合併による解散等,2370001003995,令和６年４月１日仙台市若林区遠見塚東２番６０号株式会社ＨＯＫＵＢＵ（2370001003995）に合併し解散,2015-10-05,1,,,,,フタツヤマケンセツ,0
1454,5410002011313,登記記録の閉鎖等,0,2024-04-23,2024-04-09,有限会社小山鋸加工所,,有限会社,秋田県,大仙市,花館上町８番３号,,05,212,0140002,,,2024-04-09,清算の結了等,,,2015-10-05,1,,,,,オヤマノコギリカコウショ,0
1455,5410002013391,登記記録の閉鎖等,0,2024-04-23,2024-04-09,有限会社亜美ドレス,,有限会社,秋田県,横手市,雄物川町常野字塚越１１５番地の３,,05,203,0130215,,,2024-04-09,清算の結了等,,,2015-10-05,1,,,,,アミドレス,0
1469,5462505000226,登記記録の閉鎖等,0,2024-04-23,2024-04-19,特定非営利活動法人日露平和公園協会,,その他の設立登記法人,北海道,野付郡別海町,本別海７番地の５３,,01,691,0860522,,,2024-04-19,清算の結了等,,,2015-10-05,1,,,,,ニチロヘイワコウエンキョウカイ,0
1481,6010001187474,登記記録の閉鎖等,0,2024-04-23,2024-04-03,トッピ株式会社,,株式会社,東京都,千代田区,麹町１丁目４番地４,,13,101,1020083,,,2024-04-03,清算の結了等,,,2017-11-07,1,,,,,トッピ,0
1488,6010005028971,登記記録の閉鎖等,0,2024-04-23,2024-04-16,一般社団法人ＴＲＹレジデンス３,,その他の設立登記法人,東京都,千代田区,丸の内３丁目１番１号東京共同会計事務所内,,13,101,1000005,,,2024-04-16,清算の結了等,,,2018-08-20,1,,,,,ティーアールワイレジデンススリー,0
1491,6010102000817,登記記録の閉鎖等,0,2024-04-23,2024-04-12,有限会社井上内装サービス,,有限会社,東京都,八王子市,台町４丁目３９番４ー５０３号,,13,201,1930931,,,2024-04-12,清算の結了等,,,2015-10-05,1,,,,,イノウエナイソウサービス,0
1493,6010401122642,登記記録の閉鎖等,0,2024-04-23,2024-04-11,株式会社ロングレインジャパン,,株式会社,東京都,新宿区,新宿５丁目１６番１０号,,13,104,1600022,,,2024-04-11,合併による解散等,9011101075780,令和６年４月１日東京都新宿区新宿五丁目１６番１０号株式会社三越伊勢丹トランジット（9011101075780）に合併し解散,2016-01-20,1,,,,,ロングレインジャパン,0
1505,6010801018309,登記記録の閉鎖等,0,2024-04-23,2024-04-17,株式会社ＡＷＰ,,株式会社,東京都,世田谷区,上野毛１丁目３３番９－３０４号,,13,112,1580093,,,2024-04-17,清算の結了等,,,2015-10-05,1,,,,,エーダブルピー,0
1529,6011801028289,登記記録の閉鎖等,0,2024-04-23,2024-04-17,株式会社サンライズ,,株式会社,茨城県,取手市,本郷１丁目１４番１１号,,08,217,3020022,,,2024-04-17,清算の結了等,,,2015-10-05,1,,,,,サンライズ,0
1548,6020002037826,登記記録の閉鎖等,0,2024-04-23,2024-04-15,有限会社クレイン,,有限会社,神奈川県,横浜市鶴見区,下末吉１丁目７番１７号,,14,101,2300012,,,2024-04-15,清算の結了等,,,2015-10-05,1,,,,,クレイン,0
1563,6030001103009,登記記録の閉鎖等,0,2024-04-23,2024-04-15,株式会社富永工業,,株式会社,埼玉県,志木市,中宗岡４丁目１２番１２号,,11,228,3530002,,,2024-04-15,清算の結了等,,,2015-10-05,1,,,,,トミナガコウギョウ,0
1583,6050001036413,登記記録の閉鎖等,0,2024-04-23,2024-04-18,株式会社エントライズ,,株式会社,茨城県,水戸市,平須町１８２８番地の１９２平須ビル２０３,,08,201,3100853,,,2024-04-18,清算の結了等,,,2015-10-05,1,,,,,エントライズ,0
1606,6100003005253,登記記録の閉鎖等,0,2024-04-23,2024-04-05,シルバー環境合同会社,,合同会社,長野県,上田市,長瀬１３６３番地６２,,20,203,3860407,,,2024-04-05,清算の結了等,,,2019-03-05,1,,,,,シルバーカンキョウ,0
1608,6110005003493,登記記録の閉鎖等,0,2024-04-23,2024-04-01,三川商工会,,その他の設立登記法人,新潟県,東蒲原郡阿賀町,白崎１４８番地,,15,385,9594622,,,2024-04-01,合併による解散等,7110005003468,令和６年４月１日新潟県東蒲原郡阿賀町津川３５８１番地１阿賀町商工会（7110005003468）に合併し解散,2015-10-05,1,,,,,ミカワ,0
1609,6110005016784,登記記録の閉鎖等,0,2024-04-23,2024-04-01,鹿瀬上川商工会,,その他の設立登記法人,新潟県,東蒲原郡阿賀町,両郷甲２１５０番地,,15,385,9594507,,,2024-04-01,合併による解散等,7110005003468,令和６年４月１日新潟県東蒲原郡阿賀町津川３５８１番地１阿賀町商工会（7110005003468）に合併し解散,2022-04-15,1,,,,,カノセカミカワ,0
1660,6180005018543,登記記録の閉鎖等,0,2024-04-23,2024-04-18,ＮＰＯ法人あいち子どもキャリア,,その他の設立登記法人,愛知県,名古屋市天白区,平針南４丁目１４０６番地カルバンラゴ１０５号,,23,116,4680020,,,2024-04-18,清算の結了等,,,2019-11-28,1,,,,,アイチコドモキャリア,0
1675,6240001019423,登記記録の閉鎖等,0,2024-04-23,2024-04-19,株式会社ラジロック,,株式会社,広島県,広島市東区,中山新町１丁目８番１－３号,,34,102,7320021,,,2024-04-19,清算の結了等,,,2015-10-05,1,,,,,ラジロック,0
1681,6260002027646,登記記録の閉鎖等,0,2024-04-23,2024-04-09,有限会社安東工業,,有限会社,岡山県,津山市,下野田１５３番地の２,,33,203,7081213,,,2024-04-09,清算の結了等,,,2015-10-05,1,,,,,アンドウコウギョウ,0
1683,6270002001253,登記記録の閉鎖等,0,2024-04-23,2024-04-22,有限会社ビデオセンターヤマガタ,,有限会社,鳥取県,鳥取市,川端１丁目２０３番地,,31,201,6800036,,,2024-04-22,清算の結了等,,,2015-10-05,1,,,,,ビデオセンターヤマガタ,0
1714,6380002006720,登記記録の閉鎖等,0,2024-04-23,2024-04-12,直江商事有限会社,,有限会社,福島県,伊達市,保原町上保原字寺前３７番地７,,07,213,9600684,,,2024-04-12,清算の結了等,,,2015-10-05,1,,,,,ナオエショウジ,0
1720,6430001052966,登記記録の閉鎖等,0,2024-04-23,2024-04-18,坂木材工業株式会社,,株式会社,北海道,苫小牧市,旭町１丁目１番１４号,,01,213,0530018,,,2024-04-18,清算の結了等,,,2023-12-07,1,,,,,サカモクザイコウギョウ,0
1737,6480005004843,登記記録の閉鎖等,0,2024-04-23,2024-04-01,かいふ農業協同組合,,その他の設立登記法人,徳島県,海部郡海陽町,大里字松ノ本７７番地,,36,388,7750203,,,2024-04-01,合併による解散等,9480005003058,令和６年４月１日徳島県徳島市北佐古一番町５番１２号徳島県農業協同組合（9480005003058）に合併し解散,2015-10-05,1,,,,,カイフ,0
1741,6500005004816,登記記録の閉鎖等,0,2024-04-23,2024-04-17,医療法人社団日浅産婦人科医院,,その他の設立登記法人,愛媛県,今治市,郷新屋敷町３丁目１番９号,,38,202,7940826,,,2024-04-17,清算の結了等,,,2015-10-05,1,,,,,ヒアササンフジンカイイン,0
1776,7010501037418,登記記録の閉鎖等,0,2024-04-23,2024-04-22,株式会社ＩＴＦ,,株式会社,千葉県,船橋市,西船４丁目１４番１２号,,12,204,2730031,,,2024-04-22,合併による解散等,6020001041382,令和６年４月１日横浜市神奈川区鶴屋町二丁目２０番地１ＹＴＵビル３階株式会社ジェーピーエー（6020001041382）に合併し解散,2015-10-05,1,,,,,アイティエフ,0
1806,7011301005291,登記記録の閉鎖等,0,2024-04-23,2024-04-19,株式会社ニューパラダイム社,,株式会社,東京都,中野区,新井１丁目１４番３号久栄マンション４Ｂ,,13,114,1650026,,,2024-04-19,清算の結了等,,,2015-10-05,1,,,,,ニューパラダイムシャ,0
1807,7011301014672,登記記録の閉鎖等,0,2024-04-23,2024-04-16,株式会社共和理研,,株式会社,東京都,杉並区,和泉３丁目３７番３号,,13,115,1680063,,,2024-04-16,清算の結了等,,,2015-10-05,1,,,,,キョウワリケン,0
1820,7011801032802,登記記録の閉鎖等,0,2024-04-23,2024-04-18,株式会社東京遊屋,,株式会社,東京都,葛飾区,堀切４丁目５２番５号,,13,122,1240006,,,2024-04-18,清算の結了等,,,2017-01-23,1,,,,,トウキョウアソビヤ,0
1826,7020001093299,登記記録の閉鎖等,0,2024-04-23,2024-04-15,ふれんど総合計画株式会社,,株式会社,神奈川県,横浜市青葉区,市ケ尾町１１５３番地２ライオンズプラザ市ケ尾２０３,,14,117,2250024,,,2024-04-15,清算の結了等,,,2015-10-05,1,,,,,フレンドソウゴウケイカク,0
1831,7020003009591,登記記録の閉鎖等,0,2024-04-23,2024-04-15,合同会社ＳＲサポート,,合同会社,神奈川県,横浜市神奈川区,神奈川２丁目１９番地１コーリンビル２Ｂ,,14,102,2210045,,,2024-04-15,清算の結了等,,,2015-10-05,1,,,,,エスアールサポート,0
1850,7030003004393,登記記録の閉鎖等,0,2024-04-23,2024-04-15,合同会社ライフデザイン,,合同会社,埼玉県,川口市,並木元町１番６６－１２１７号リボンシティレジデンスＢ棟,,11,203,3320033,,,2024-04-15,清算の結了等,,,2015-10-05,1,,,,,ライフデザイン,0
1876,7080002014199,登記記録の閉鎖等,0,2024-04-23,2024-04-12,有限会社岡島製材所,,有限会社,静岡県,島田市,川根町笹間上１７０３番地,,22,209,4280211,,,2024-04-12,清算の結了等,,,2015-10-05,1,,,,,オカジマセイザイショ,0
1882,7080401022967,登記記録の閉鎖等,0,2024-04-23,2024-04-17,株式会社ＴＹＳ,,株式会社,静岡県,袋井市,下山梨１７１１番地の１,,22,216,4370123,,,2024-04-17,清算の結了等,,,2018-06-05,1,,,,,ティーワイエス,0
1890,7110005016057,登記記録の閉鎖等,0,2024-04-23,2024-04-16,一般社団法人日本地域観光振興協会,,その他の設立登記法人,新潟県,新発田市,滝沢１４８１番地,,15,206,9592381,,,2024-04-16,清算の結了等,,,2017-02-14,1,,,,,ニホンチイキカンコウシンコウキョウカイ,0
1917,7140001020613,登記記録の閉鎖等,0,2024-04-23,2024-04-19,株式会社トランスプロ,,株式会社,兵庫県,神戸市中央区,栄町通２丁目４番７号,,28,110,6500023,,,2024-04-19,清算の結了等,,,2015-10-05,1,,,,,トランスプロ,0
1935,7180001117315,登記記録の閉鎖等,0,2024-04-23,2024-04-08,株式会社ティガ,,株式会社,愛知県,一宮市,千秋町加納馬場字大山２２７４番地１,,23,203,4910811,,,2024-04-08,清算の結了等,,,2015-10-05,1,,,,,ティガ,0
1937,7180002057031,登記記録の閉鎖等,0,2024-04-23,2024-04-08,有限会社アルム,,有限会社,愛知県,名古屋市中村区,太閤通５丁目７番地,,23,105,4530811,,,2024-04-08,清算の結了等,,,2015-10-05,1,,,,,アルム,0
1966,7280001000394,登記記録の閉鎖等,0,2024-04-23,2024-04-19,株式会社住創,,株式会社,島根県,松江市,田和山町１００番地,,32,201,6900058,,,2024-04-19,清算の結了等,,,2015-10-05,1,,,,,ジュウソウ,0
1970,7290001011622,登記記録の閉鎖等,0,2024-04-23,2024-04-01,株式会社イハラ興産,,株式会社,福岡県,福岡市博多区,博多駅東３丁目８番８号,,40,132,8120013,,,2024-04-01,合併による解散等,6290001011623,令和６年４月１日福岡市博多区博多駅東三丁目８番３号伊原金属株式会社（6290001011623）に合併し解散,2015-10-05,1,,,,,,0
1986,7290802014014,登記記録の閉鎖等,0,2024-04-23,2024-04-17,有限会社幸栄建設,,有限会社,福岡県,北九州市八幡西区,御開３丁目８番６号,,40,109,8070806,,,2024-04-17,清算の結了等,,,2015-10-05,1,,,,,コウエイケンセツ,0
1990,7310002009539,登記記録の閉鎖等,0,2024-04-23,2024-04-05,有限会社加藤塗装,,有限会社,長崎県,佐世保市,小川内町７００番地,,42,202,8570146,,,2024-04-05,清算の結了等,,,2015-10-05,1,,,,,カトウトソウ,0
1993,7320002020362,登記記録の閉鎖等,0,2024-04-23,2024-04-08,有限会社アクア,,有限会社,大分県,中津市,２１０９番地の１,,44,203,8710099,,,2024-04-08,清算の結了等,,,2015-10-05,1,,,,,,0
2005,7370001046635,登記記録の閉鎖等,0,2024-04-23,2024-04-12,株式会社ＴＯＳＥＩ　ＨＯＭＥ,,株式会社,東京都,武蔵野市,境南町１丁目１２－１１レスト武蔵野１０６,,13,203,1800023,,,2024-04-12,清算の結了等,,,2021-01-27,1,,,,,トウセイホーム,0
2008,7370301000829,登記記録の閉鎖等,0,2024-04-23,2024-04-01,第一住宅株式会社,,株式会社,宮城県,石巻市,大街道東２丁目１１番７６号,,04,202,9860855,,,2024-04-01,清算の結了等,,,2015-10-05,1,,,,,ダイイチジュウタク,0
2015,7390002009432,登記記録の閉鎖等,0,2024-04-23,2024-04-10,有限会社ジョイサンワイガラシデンキ,,有限会社,山形県,鶴岡市,湯田川字中田４５番地の２号,,06,203,9970752,,,2024-04-10,清算の結了等,,,2015-10-05,1,,,,,ジョイサンワイガラシデンキ,0
2018,7410001009281,登記記録の閉鎖等,0,2024-04-23,2024-04-05,株式会社ユニサービス,,株式会社,秋田県,横手市,横山町４番５５号,,05,203,0130044,,,2024-04-05,清算の結了等,,,2015-10-05,1,,,,,ユニサービス,0
2027,7430002019336,登記記録の閉鎖等,0,2024-04-23,2024-04-15,有限会社瑞穂商事,,有限会社,北海道,札幌市北区,屯田五条７丁目１番５３号,,01,102,0020855,,,2024-04-15,清算の結了等,,,2015-10-05,1,,,,,ミズホショウジ,0
2029,7430003015409,登記記録の閉鎖等,0,2024-04-23,2024-04-18,合同会社Ｎ＆ｏｎｅ,,合同会社,北海道,札幌市北区,屯田五条４丁目４番３号,,01,102,0020855,,,2024-04-18,清算の結了等,,,2023-09-07,1,,,,,エヌアンドワン,0
2036,7480005005436,登記記録の閉鎖等,0,2024-04-23,2024-04-01,阿波みよし農業協同組合,,その他の設立登記法人,徳島県,三好郡東みよし町,昼間１８１２番地,,36,489,7712501,,,2024-04-01,合併による解散等,9480005003058,令和６年４月１日徳島県徳島市北佐古一番町５番１２号徳島県農業協同組合（9480005003058）に合併し解散,2015-10-05,1,,,,,アワミヨシ,0
2051,8010001189948,登記記録の閉鎖等,0,2024-04-23,2024-04-05,ＯＮＰＲＥＳＳ　ＪＡＰＡＮ株式会社,,株式会社,東京都,品川区,東品川４丁目１２番９号品川シーサイドビュータワー１、２５１８号,,13,109,1400002,,,2024-04-05,清算の結了等,,,2018-03-02,1,,,,,オンプレスジャパン,0
2058,8010002019063,登記記録の閉鎖等,0,2024-04-23,2024-04-05,有限会社木下会計事務所,,有限会社,東京都,中央区,日本橋久松町１３番３号,,13,102,1030005,,,2024-04-05,清算の結了等,,,2015-10-05,1,,,,,キノシタカイケイジムショ,0
2070,8010401052152,登記記録の閉鎖等,0,2024-04-23,2024-04-18,株式会社クリエイト工房,,株式会社,東京都,港区,芝２丁目３番９号,,13,103,1050014,,,2024-04-18,合併による解散等,4210001013827,令和６年４月１日福井県鯖江市上河端町第６号１番地３３株式会社アートテクノロジー（4210001013827）に合併し解散,2015-10-05,1,,,,,クリエイトコウボウ,0
2071,8010401131360,登記記録の閉鎖等,0,2024-04-23,2024-04-10,株式会社ミラーレワールド,,株式会社,東京都,北区,赤羽西４丁目７番７号,,13,117,1150055,,,2024-04-10,清算の結了等,,,2017-05-16,1,,,,,ミラーレワールド,0
2077,8010602026310,登記記録の閉鎖等,0,2024-04-23,2024-04-12,有限会社土田エンジニアリング,,有限会社,東京都,江東区,大島６丁目１番５－１２１２号,,13,108,1360072,,,2024-04-12,清算の結了等,,,2015-10-05,1,,,,,ツチダエンジニアリング,0
2086,8011001106356,登記記録の閉鎖等,0,2024-04-23,2024-04-19,株式会社Ａｒｔｒｉｇｇｅｒ,,株式会社,東京都,渋谷区,渋谷２丁目２１－１渋谷ヒカリエ８階８／（ハチ）,,13,113,1500002,,,2024-04-19,清算の結了等,,,2015-10-05,1,,,,,アートリガー,0
2094,8011101077943,登記記録の閉鎖等,0,2024-04-23,2024-04-11,株式会社ＩＭＴ,,株式会社,東京都,新宿区,新宿５丁目１６番１０号,,13,104,1600022,,,2024-04-11,合併による解散等,9011101075780,令和６年４月１日東京都新宿区新宿五丁目１６番１０号株式会社三越伊勢丹トランジット（9011101075780）に合併し解散,2016-08-16,1,,,,,アイエムティ,0
2103,8011401007402,登記記録の閉鎖等,0,2024-04-23,2024-04-12,株式会社荒井自動車整備工場,,株式会社,東京都,板橋区,蓮根２丁目２番２号,00054859,13,119,1740046,,,2024-04-12,清算の結了等,,,2015-10-05,1,,,,,アライジドウシャセイビコウジョウ,0
2116,8011801018726,登記記録の閉鎖等,0,2024-04-23,2024-04-19,株式会社山崎工房,00057061,株式会社,東京都,足立区,西伊興３丁目１７番２１号,,13,121,1210824,,,2024-04-19,清算の結了等,,,2015-10-05,1,,,,,ヤマザキコウボウ,0
2126,8013402002984,登記記録の閉鎖等,0,2024-04-23,2024-04-16,有限会社峯岸商事,,有限会社,東京都,多摩市,南野２丁目２８番１４号,,13,224,2060032,,,2024-04-16,清算の結了等,,,2015-10-05,1,,,,,ミネギシショウジ,0
2134,8020002039300,登記記録の閉鎖等,0,2024-04-23,2024-04-12,有限会社土井電設社,,有限会社,神奈川県,横浜市鶴見区,汐入町２丁目３９番地の９,,14,101,2300043,,,2024-04-12,清算の結了等,,,2015-10-05,1,,,,,ドイデンセツシャ,0
2143,8021003012089,登記記録の閉鎖等,0,2024-04-23,2024-04-15,Ｔｚアカウンティングファーム合同会社,,合同会社,神奈川県,中郡二宮町,山西３５番地の１９２,,14,342,2590124,,,2024-04-15,清算の結了等,,,2022-09-01,1,,,,,,0
2145,8030001034664,登記記録の閉鎖等,0,2024-04-23,2024-04-11,井坂興業株式会社,,株式会社,埼玉県,草加市,八幡町１０５１番地３,,11,221,3400006,,,2024-04-11,清算の結了等,,,2015-10-05,1,,,,,イサカコウギョウ,0
2179,8050003003822,登記記録の閉鎖等,0,2024-04-23,2024-04-17,合同会社ＪＭアプリシエーション,,合同会社,茨城県,守谷市,松並青葉１丁目１７番地２４,,08,224,3020132,,,2024-04-17,清算の結了等,,,2017-07-18,1,,,,,ジェイエムアプリシエーション,0
2185,8080001003912,登記記録の閉鎖等,0,2024-04-23,2024-04-02,株式会社ナックス静岡,,株式会社,静岡県,静岡市駿河区,宮竹１丁目９番１６号,,22,102,4228035,,,2024-04-02,合併による解散等,9080401002579,令和６年４月１日静岡県浜松市中央区有玉南町２４５９番地の２鈴屋塗料株式会社（9080401002579）に合併し解散,2015-10-05,1,,,,,ナックスシズオカ,0
2198,8100002004337,登記記録の閉鎖等,0,2024-04-23,2024-04-08,有限会社ファースト電気,,有限会社,長野県,長野市,大字若槻団地１番地３３６,,20,201,3810051,,,2024-04-08,清算の結了等,,,2015-10-05,1,,,,,ファーストデンキ,0
2202,8110002026966,登記記録の閉鎖等,0,2024-04-23,2024-04-17,有限会社エスタリオール・パースルーム,,有限会社,新潟県,長岡市,川崎１丁目２６０６番地１３,,15,202,9400864,,,2024-04-17,清算の結了等,,,2015-10-05,1,,,,,エスタリオールパースルーム,0
2205,8110005004639,登記記録の閉鎖等,0,2024-04-23,2024-04-01,中条町商工会,,その他の設立登記法人,新潟県,胎内市,新和町２番５号,,15,227,9592642,,,2024-04-01,合併による解散等,4110005017074,令和６年４月１日新潟県胎内市黒川１１０６番地１３黒川商工会（4110005004634）と合併して新潟県胎内市新和町２番５号胎内市商工会（4110005017074）を設立し解散,2015-10-05,1,,,,,ナカジョウマチ,0
2208,8120001092117,登記記録の閉鎖等,0,2024-04-23,2024-04-15,株式会社リテツク,,株式会社,大阪府,大阪市中央区,南本町１丁目５番６号,,27,128,5410054,,,2024-04-15,清算の結了等,,,2015-10-05,1,,,,,リテツク,0
2225,8120101007288,登記記録の閉鎖等,0,2024-04-23,2024-04-17,モリ工技株式会社,,株式会社,大阪府,堺市北区,百舌鳥梅町１丁２番地の１５,,27,146,5918032,,,2024-04-17,清算の結了等,,,2015-10-05,1,,,,,モリコウギ,0
2241,8140002060236,登記記録の閉鎖等,0,2024-04-23,2024-04-18,株式会社ユープラン,,株式会社,兵庫県,神戸市東灘区,御影中町３丁目２番４－３５０９号,,28,101,6580054,,,2024-04-18,清算の結了等,,,2015-10-05,1,,,,,ユープラン,0
2257,8180001145389,登記記録の閉鎖等,0,2024-04-23,2024-04-10,ＪＯＹＬＯＯＰ株式会社,,株式会社,愛知県,名古屋市緑区,ほら貝３丁目１０２番地,,23,114,4580013,,,2024-04-10,清算の結了等,,,2021-04-01,1,,,,,ジョイループ,0
2271,8190001012786,登記記録の閉鎖等,0,2024-04-23,2024-04-17,株式会社クローバー化学,,株式会社,三重県,桑名市,長島町横満蔵１１４番地２,,24,205,5111133,,,2024-04-17,清算の結了等,,,2015-10-05,1,,,,,クローバーカガク,0
2274,8200002011315,登記記録の閉鎖等,0,2024-04-23,2024-04-18,有限会社山田工務店,,有限会社,岐阜県,羽島市,上中町一色１１２１番地の２,,21,209,5016312,,,2024-04-18,清算の結了等,,,2015-10-05,1,,,,,ヤマダコウムテン,0
2290,8290001014194,登記記録の閉鎖等,0,2024-04-23,2024-04-01,セピア商事株式会社,,株式会社,福岡県,福岡市博多区,東那珂２丁目１１番３０号,,40,132,8120892,,,2024-04-01,合併による解散等,9290001061467,令和６年４月１日福岡市西区小戸一丁目１６番２４号株式会社介福本舗（9290001061467）に合併し解散,2015-10-05,1,,,,,セピアショウジ,0
2297,8290002045528,登記記録の閉鎖等,0,2024-04-23,2024-04-01,有限会社サンケイ石油,,有限会社,福岡県,飯塚市,伊岐須６６４番地の１２,,40,205,8200053,,,2024-04-01,清算の結了等,,,2015-10-05,1,,,,,サンケイセキユ,0
2302,8310001018110,登記記録の閉鎖等,0,2024-04-23,2024-04-16,株式会社プリージングカンパニー,,株式会社,長崎県,諫早市,小川町４３３番地３,,42,204,8540053,,,2024-04-16,清算の結了等,,,2022-11-04,1,,,,,プリージングカンパニー,0
2325,8380002023020,登記記録の閉鎖等,0,2024-04-23,2024-04-15,有限会社勝美建装,,有限会社,福島県,いわき市,久之浜町久之浜字北田１３番地,,07,204,9790333,,,2024-04-15,清算の結了等,,,2015-10-05,1,,,,,カツミケンソウ,0
2354,8480005003001,登記記録の閉鎖等,0,2024-04-23,2024-04-01,麻植郡農業協同組合,,その他の設立登記法人,徳島県,吉野川市,鴨島町鴨島１０６番地の１１,,36,205,7760010,,,2024-04-01,合併による解散等,9480005003058,令和６年４月１日徳島県徳島市北佐古一番町５番１２号徳島県農業協同組合（9480005003058）に合併し解散,2015-10-05,1,,,,,オエグン,0
2373,9010002009534,登記記録の閉鎖等,0,2024-04-23,2024-04-10,有限会社ケイエス企画,,有限会社,東京都,千代田区,神田三崎町２丁目９番２号,,13,101,1010061,,,2024-04-10,清算の結了等,,,2015-10-05,1,,,,,ケイエスキカク,0
2375,9010003025613,登記記録の閉鎖等,0,2024-04-23,2024-04-09,グループ・テティス・ジャパン合同会社,,合同会社,東京都,千代田区,大手町１丁目５番１号大手町ファーストスクエア・イーストタワー４Ｆ,,13,101,1000004,,,2024-04-09,清算の結了等,,,2017-07-24,1,,,,,グループテティスジャパン,0
2379,9010005015380,登記記録の閉鎖等,0,2024-04-23,2024-04-17,一般社団法人プレキャストコンクリート工業会,,その他の設立登記法人,東京都,千代田区,神田小川町１丁目８番３号,,13,101,1010052,,,2024-04-17,清算の結了等,,,2015-10-05,1,,,,,プレキャストコンクリートコウギョウカイ,0
2439,9020001132699,登記記録の閉鎖等,0,2024-04-23,2024-04-11,株式会社大松ホームサービス,,株式会社,神奈川県,横浜市金沢区,幸浦２丁目１４番地２,,14,108,2360003,,,2024-04-11,合併による解散等,4020001044412,令和６年３月３１日横浜市金沢区幸浦二丁目１４番地２株式会社大松運輸（4020001044412）に合併し解散,2019-09-06,1,,,,,ダイマツホームサービス,0
2471,9070001006816,登記記録の閉鎖等,0,2024-04-23,2024-04-17,株式会社クラミットジャパン,,株式会社,群馬県,高崎市,小八木町１６４４番地１,,10,202,3700071,,,2024-04-17,清算の結了等,,,2015-10-05,1,,,,,クラミットジャパン,0
2478,9080001019065,登記記録の閉鎖等,0,2024-04-23,2024-04-15,株式会社Ｋ’ｓカンパニー,,株式会社,静岡県,静岡市葵区,両替町２丁目７番１０号５階,,22,101,4200032,,,2024-04-15,清算の結了等,,,2015-10-05,1,,,,,,0
2486,9100002032444,登記記録の閉鎖等,0,2024-04-23,2024-04-08,有限会社伊藤精工,,有限会社,長野県,伊那市,上牧７１７４番地,,20,209,3960006,,,2024-04-08,清算の結了等,,,2015-10-05,1,,,,,イトウセイコウ,0
2510,9120101029570,登記記録の閉鎖等,0,2024-04-23,2024-04-15,株式会社サニーサイドおおさか,,株式会社,大阪府,大阪市西区,立売堀１丁目９番１０号,,27,106,5500012,,,2024-04-15,清算の結了等,,,2015-10-05,1,,,,,サニーサイドオオサカ,0
2513,9120901030380,登記記録の閉鎖等,0,2024-04-23,2024-04-12,株式会社日本リハビリデバイス技術研究所,,株式会社,大阪府,豊中市,本町４丁目７番１６号,,27,203,5600021,,,2024-04-12,清算の結了等,,,2015-10-05,1,,,,,ニホンリハビリデバイスギジュツケンキュウショ,0
2517,9122002006228,登記記録の閉鎖等,0,2024-04-23,2024-04-22,有限会社エス・アイ商会,,有限会社,大阪府,東大阪市,菱江６丁目５番５号,,27,227,5780984,,,2024-04-22,清算の結了等,,,2015-10-05,1,,,,,エスアイショウカイ,0
2523,9130005007754,登記記録の閉鎖等,0,2024-04-23,2024-04-17,中生産森林組合,,その他の設立登記法人,京都府,船井郡京丹波町,中コヤガイチ２９番地,,26,407,6291132,,,2024-04-17,清算の結了等,,,2015-10-05,1,,,,,ナカ,0
2524,9130005015996,登記記録の閉鎖等,0,2024-04-23,2024-04-17,特定非営利活動法人臨床文藝医学会,,その他の設立登記法人,京都府,京都市中京区,西ノ京永本町６番地セントリヴィエ二条５０１号室,,26,104,6048421,,,2024-04-17,清算の結了等,,,2020-10-20,1,,,,,リンショウブンゲイイガクカイ,0
2529,9140002039915,登記記録の閉鎖等,0,2024-04-23,2024-04-19,有限会社伊崎屋,,有限会社,兵庫県,尼崎市,塚口町４丁目５２番地,,28,202,6610002,,,2024-04-19,清算の結了等,,,2015-10-05,1,,,,,,0
2543,9180001148713,登記記録の閉鎖等,0,2024-04-23,2024-04-10,長翼鴎株式会社,,株式会社,愛知県,名古屋市中区,丸の内３丁目７番９号,,23,106,4600002,,,2024-04-10,清算の結了等,,,2021-11-15,1,,,,,チョウヨクオウ,0
2545,9180002041826,登記記録の閉鎖等,0,2024-04-23,2024-04-10,有限会社アイ・ティ・アイ,,有限会社,愛知県,名古屋市瑞穂区,玉水町２丁目３５番地の３,,23,108,4670046,,,2024-04-10,清算の結了等,,,2024-02-20,1,,,,,アイティアイ,0
2551,9180005006181,登記記録の閉鎖等,0,2024-04-23,2024-04-01,社会福祉法人長生福寿会,,その他の設立登記法人,愛知県,名古屋市西区,二方町１５番地,,23,104,4520817,,,2024-04-01,合併による解散等,6180005002794,令和６年４月１日名古屋市北区名城三丁目２番１２号社会福祉法人紫水会（6180005002794）に合併し解散,2015-10-05,1,,,,,チョウセイフクジュカイ,0
2590,9280002008484,登記記録の閉鎖等,0,2024-04-23,2024-04-22,中川魚類有限会社,,有限会社,島根県,浜田市,港町２８５番地２,,32,202,6970052,,,2024-04-22,清算の結了等,,,2015-10-05,1,,,,,ナカガワギョルイ,0
2600,9310001015073,登記記録の閉鎖等,0,2024-04-23,2024-04-11,株式会社モノコトラボ,,株式会社,長崎県,長崎市,東古川町４番１１号スターハイツ４０５号室,,42,201,8500855,,,2024-04-11,清算の結了等,,,2017-08-02,1,,,,,モノコトラボ,0
2611,9350001013734,登記記録の閉鎖等,0,2024-04-23,2024-04-15,株式会社土屋工業,,株式会社,宮崎県,日向市,向江町２丁目１１番地,,45,206,8830051,,,2024-04-15,清算の結了等,,,2015-11-19,1,,,,,ツチヤコウギョウ,0
2618,9380002019703,登記記録の閉鎖等,0,2024-04-23,2024-04-15,有限会社オオカワラ保険サービス,,有限会社,福島県,須賀川市,仁井田字日向窪１０番地,,07,207,9620402,,,2024-04-15,清算の結了等,,,2015-10-05,1,,,,,オオカワラホケンサービス,0
2622,9420002000328,登記記録の閉鎖等,0,2024-04-23,2024-04-16,有限会社アイレック,,有限会社,青森県,青森市,中央３丁目２０番２３号,,02,201,0300822,,,2024-04-16,清算の結了等,,,2015-10-05,1,,,,,アイレック,0
2639,9480005001185,登記記録の閉鎖等,0,2024-04-23,2024-04-01,名西郡農業協同組合,,その他の設立登記法人,徳島県,名西郡石井町,高川原字高川原２１８番地,,36,341,7793223,,,2024-04-01,合併による解散等,9480005003058,令和６年４月１日徳島県徳島市北佐古一番町５番１２号徳島県農業協同組合（9480005003058）に合併し解散,2015-10-05,1,,,,,ミョウザイグン,0
2641,9480005004122,登記記録の閉鎖等,0,2024-04-23,2024-04-01,阿南農業協同組合,,その他の設立登記法人,徳島県,阿南市,桑野町上張１５番地,,36,204,7791402,,,2024-04-01,合併による解散等,9480005003058,令和６年４月１日徳島県徳島市北佐古一番町５番１２号徳島県農業協同組合（9480005003058）に合併し解散,2015-10-05,1,,,,,,0
2642,9490001004331,登記記録の閉鎖等,0,2024-04-23,2024-04-22,株式会社ロッソヴェルデ,,株式会社,高知県,高知市,梅ノ辻７番２２－３０３号アルファステイツ梅ノ辻,00006397,39,201,7808011,,,2024-04-22,清算の結了等,,,2015-10-05,1,,,,,ロッソヴェルデ,0
