sequenceNumber,corporateNumber,process,correct,updateDate,changeDate,name,nameImageId,kind,prefectureName,cityName,streetNumber,addressImageId,prefectureCode,cityCode,postCode,addressOutside,addressOutsideImageId,closeDate,closeCause,successorCorporateNumber,changeCause,assignmentDate,latest,enName,enPrefectureName,enCityName,enAddressOutside,furigana,hihyoji
10,1010003048118,新規,0,2025-07-25,2025-07-25,本町橋プロパティー合同会社,,合同会社,東京都,千代田区,霞が関３丁目２番５号,,13,101,1000013,,,,,,,2025-07-25,1,,,,,ホンマチバシプロパティー,0
12,1010005040428,新規,0,2025-07-25,2025-07-25,一般社団法人ＫＮＩＴ１,,その他の設立登記法人,東京都,千代田区,丸の内１丁目４番１号東京共同会計事務所内,,13,101,1000005,,,,,,,2025-07-25,1,,,,,ニットワン,0
17,1010401191898,新規,0,2025-07-25,2025-07-25,株式会社レスト,,株式会社,東京都,港区,北青山１丁目３－３三橋ビル３階,,13,103,1070061,,,,,,,2025-07-25,1,,,,,レスト,0
19,1010403035525,新規,0,2025-07-25,2025-07-25,合同会社ブルールクス,,合同会社,東京都,港区,北青山１丁目３番１号アールキューブ青山３階,,13,103,1070061,,,,,,,2025-07-25,1,,,,,ブルールクス,0
20,1010403035665,新規,0,2025-07-25,2025-07-25,Ｆｒｕａ合同会社,,合同会社,東京都,港区,北青山１丁目３番１号アールキューブ青山３階,,13,103,1070061,,,,,,,2025-07-25,1,,,,,フルア,0
26,1010601067675,新規,0,2025-07-25,2025-07-25,株式会社みやこ水産,,株式会社,東京都,江東区,東陽１丁目１８番３－１０８号,,13,108,1350016,,,,,,,2025-07-25,1,,,,,ミヤコスイサン,0
30,1010801036422,新規,0,2025-07-25,2025-07-25,株式会社ＤＯＹＭＺ,,株式会社,東京都,大田区,蒲田１丁目２６－６－５０２,,13,111,1440052,,,,,,,2025-07-25,1,,,,,ドイムズ,0
31,1010901057772,新規,0,2025-07-25,2025-07-25,株式会社ＴｒｕｅＳｅｌｆ,,株式会社,東京都,世田谷区,桜丘１丁目１４番１１－５１２号,,13,112,1560054,,,,,,,2025-07-25,1,,,,,トゥルーセルフ,0
32,1010901057797,新規,0,2025-07-25,2025-07-25,株式会社ＫＡＢＫＵＮ,,株式会社,東京都,世田谷区,砧５丁目７－２６－２１８,,13,112,1570073,,,,,,,2025-07-25,1,,,,,カブクン,0
36,1010903010135,新規,0,2025-07-25,2025-07-25,合同会社アルアイン,,合同会社,東京都,世田谷区,三宿１丁目８－１０ライオンズマンション三宿４０８,,13,112,1540005,,,,,,,2025-07-25,1,,,,,アルアイン,0
38,1011001171010,新規,0,2025-07-25,2025-07-25,株式会社つむぎ,,株式会社,東京都,渋谷区,渋谷２丁目１９番１９号ワコー宮益坂ビル５階,,13,113,1500002,,,,,,,2025-07-25,1,,,,,ツムギ,0
39,1011001171076,新規,0,2025-07-25,2025-07-25,株式会社ポートレイト,,株式会社,東京都,渋谷区,代々木４丁目２８－８,,13,113,1510053,,,,,,,2025-07-25,1,,,,,ポートレイト,0
40,1011001171472,新規,0,2025-07-25,2025-07-25,株式会社Ｂｌｉｖｉｏｒａ,,株式会社,東京都,渋谷区,渋谷１丁目３－９ヒューリック渋谷一丁目ビル７階,,13,113,1500002,,,,,,,2025-07-25,1,,,,,,0
60,1012701018995,新規,0,2025-07-25,2025-07-25,株式会社キータスワークス,,株式会社,東京都,西東京市,芝久保町４丁目５番１１号,,13,229,1880014,,,,,,,2025-07-25,1,,,,,,0
66,1020001163999,新規,0,2025-07-25,2025-07-25,エスエス食品株式会社,,株式会社,神奈川県,横浜市港北区,高田西１丁目５番３－５号,,14,109,2230066,,,,,,,2025-07-25,1,,,,,エスエスショクヒン,0
68,1020003028993,新規,0,2025-07-25,2025-07-25,セブンシーインベストメント合同会社,,合同会社,神奈川県,川崎市中原区,市ノ坪４４９番地３シティタワー武蔵小杉１８１０,,14,133,2110016,,,,,,,2025-07-25,1,,,,,セブンシーインベストメント,0
76,1021001085886,新規,0,2025-07-25,2025-07-25,石原総合コンサルティング株式会社,,株式会社,神奈川県,藤沢市,片瀬海岸３丁目１０番９号,,14,205,2510035,,,,,,,2025-07-25,1,,,,,イシハラソウゴウコンサルティング,0
86,1030001167784,新規,0,2025-07-25,2025-07-25,株式会社ＤＡＩＥＩ,,株式会社,埼玉県,鶴ヶ島市,南町２丁目１番１５－３０４,,11,241,3502215,,,,,,,2025-07-25,1,,,,,ダイエイ,0
87,1030001167792,新規,0,2025-07-25,2025-07-25,株式会社グローバルホールディングス,,株式会社,埼玉県,本庄市,見福３丁目１１番１０号,,11,211,3670044,,,,,,,2025-07-25,1,,,,,グローバルホールディングス,0
93,1030003027251,新規,0,2025-07-25,2025-07-25,合同会社ハケ,,合同会社,埼玉県,新座市,新座３丁目５－９－１０５,,11,230,3520006,,,,,,,2025-07-25,1,,,,,ハケ,0
96,1040001031337,新規,0,2025-07-25,2025-07-25,株式会社丸武倉庫,,株式会社,千葉県,浦安市,北栄１丁目１２番３０号,,12,227,2790002,,,,,,,2025-07-25,1,,,,,マルタケソウコ,0
103,1040003028042,新規,0,2025-07-25,2025-07-25,合同会社鈴木建機,,合同会社,千葉県,柏市,布施１－１,,12,217,2770825,,,,,,,2025-07-25,1,,,,,スズキケンキ,0
104,1050001056960,新規,0,2025-07-25,2025-07-25,株式会社長嶋商事,,株式会社,茨城県,坂東市,馬立１２７７番地２０,,08,228,3060605,,,,,,,2025-07-25,1,,,,,ナガシマショウジ,0
105,1050003009438,新規,0,2025-07-25,2025-07-25,ＡＮＨ　ＶＵ合同会社,,合同会社,茨城県,牛久市,牛久町３０８５番地４,,08,219,3001221,,,,,,,2025-07-25,1,,,,,アインヴー,0
106,1050003009446,新規,0,2025-07-25,2025-07-25,合同会社Ｃ．Ｕ．,,合同会社,茨城県,つくば市,春日１丁目１１番地１２,,08,220,3050821,,,,,,,2025-07-25,1,,,,,シーユー,0
115,1090001019402,新規,0,2025-07-25,2025-07-25,株式会社今村工業,,株式会社,山梨県,西八代郡市川三郷町,市川大門６２４５番地９,,19,346,4093601,,,,,,,2025-07-25,1,,,,,イマムラコウギョウ,0
121,1110005017250,新規,0,2025-07-25,2025-07-25,農事組合法人北野ファーム,,その他の設立登記法人,新潟県,新潟市西蒲区,北野４８４番地,,15,108,9530134,,,,,,,2025-07-25,1,,,,,キタノファーム,0
127,1120001278085,新規,0,2025-07-25,2025-07-25,株式会社ＡＬＢＡ,,株式会社,大阪府,枚方市,藤田町１番１－２０３号,,27,210,5730045,,,,,,,2025-07-25,1,,,,,アルバ,0
128,1120001278102,新規,0,2025-07-25,2025-07-25,信和株式会社,,株式会社,大阪府,大阪市平野区,平野市町２丁目６番１４号ドリーム平野Ｄ３１室,,27,126,5470042,,,,,,,2025-07-25,1,,,,,シンワ,0
129,1120001278127,新規,0,2025-07-25,2025-07-25,株式会社コネクション,,株式会社,大阪府,大阪市中央区,久太郎町１丁目５番１５－１３０４号,,27,128,5410056,,,,,,,2025-07-25,1,,,,,コネクション,0
130,1120001278151,新規,0,2025-07-25,2025-07-25,株式会社ネバレボ,,株式会社,大阪府,寝屋川市,打上高塚町８番８ー２０２号,,27,215,5720850,,,,,,,2025-07-25,1,,,,,ネバレボ,0
131,1120001278168,新規,0,2025-07-25,2025-07-25,Ｍ＆Ｍコンサルティング株式会社,,株式会社,大阪府,枚方市,渚西２丁目５番３号,,27,210,5731178,,,,,,,2025-07-25,1,,,,,エムアンドエムコンサルティング,0
132,1120001278184,新規,0,2025-07-25,2025-07-25,株式会社医創ＲＩＳＥ,,株式会社,大阪府,大阪市浪速区,難波中２丁目５番２１号ＮＴＴコミュニケーションズ浪速ビル５Ｆ,,27,111,5560011,,,,,,,2025-07-25,1,,,,,イソウライズ,0
133,1120001278192,新規,0,2025-07-25,2025-07-25,株式会社恩澤,,株式会社,大阪府,大阪市住吉区,大領４丁目４番２０号,,27,120,5580001,,,,,,,2025-07-25,1,,,,,オンサワ,0
134,1120001278226,新規,0,2025-07-25,2025-07-25,ＹＰ株式会社,,株式会社,大阪府,大阪市西成区,千本南１丁目１３－３０,,27,122,5570055,,,,,,,2025-07-25,1,,,,,ワイピー,0
135,1120001278234,新規,0,2025-07-25,2025-07-25,安拓株式会社,,株式会社,大阪府,大阪市北区,本庄東３丁目３番７号マンション淀３０１Ｂ,,27,127,5310074,,,,,,,2025-07-25,1,,,,,アンタク,0
137,1120003030106,新規,0,2025-07-25,2025-07-25,ＳｔｕｄｙＰｌｕｓ合同会社,,合同会社,大阪府,枚方市,香里ケ丘１１丁目２９番１８－１０１号,,27,210,5730084,,,,,,,2025-07-25,1,,,,,スタディプラス,0
138,1120003030130,新規,0,2025-07-25,2025-07-25,ＳＰ　ＥＳＳ７合同会社,,合同会社,大阪府,大阪市中央区,南船場２丁目６－３第２ＢＳビル６０１号室,,27,128,5420081,,,,,,,2025-07-25,1,,,,,エスピーイーエスエスセブン,0
139,1120003030139,新規,0,2025-07-25,2025-07-25,合同会社こうつクリーニング,,合同会社,大阪府,大阪市旭区,生江２丁目６番８号,,27,117,5350004,,,,,,,2025-07-25,1,,,,,コウツクリーニング,0
141,1120101072157,新規,0,2025-07-25,2025-07-25,ターンオーバー株式会社,,株式会社,大阪府,堺市中区,上之６６９番地１３,,27,142,5998244,,,,,,,2025-07-25,1,,,,,ターンオーバー,0
142,1120101072173,新規,0,2025-07-25,2025-07-25,西正建設株式会社,,株式会社,大阪府,岸和田市,箕土路町３丁目１４番９号,,27,202,5960801,,,,,,,2025-07-25,1,,,,,ニッセイケンセツ,0
147,1120901051236,新規,0,2025-07-25,2025-07-25,ＭＡＫＩＡ株式会社,,株式会社,大阪府,高槻市,安岡寺町６丁目１１番１１号,,27,207,5691029,,,,,,,2025-07-25,1,,,,,マキア,0
151,1122001039450,新規,0,2025-07-25,2025-07-25,株式会社レベタメ,,株式会社,大阪府,八尾市,沼１丁目６８－６５－２－３１１,,27,212,5810036,,,,,,,2025-07-25,1,,,,,レベタメ,0
152,1122001039459,新規,0,2025-07-25,2025-07-25,株式会社藤静建設,,株式会社,大阪府,東大阪市,御厨２丁目１番,,27,227,5770032,,,,,,,2025-07-25,1,,,,,トウセイケンセツ,0
153,1122003003256,新規,0,2025-07-25,2025-07-25,合同会社みやび総合事務所,,合同会社,大阪府,東大阪市,長田３丁目４番１２－４０６号,,27,227,5770015,,,,,,,2025-07-25,1,,,,,ミヤビソウゴウジムショ,0
162,1140001139392,新規,0,2025-07-25,2025-07-25,株式会社智茂志,,株式会社,兵庫県,神戸市中央区,浪花町５６ＫｉＰ内,,28,110,6500035,,,,,,,2025-07-25,1,,,,,チモシ,0
163,1140003022340,新規,0,2025-07-25,2025-07-25,尼宮企画合同会社,,合同会社,兵庫県,西宮市,神園町８番３８号,,28,204,6620027,,,,,,,2025-07-25,1,,,,,アマミヤキカク,0
167,1150001028280,新規,0,2025-07-25,2025-07-25,株式会社神座東日本,,株式会社,奈良県,北葛城郡広陵町,大字安部４５３－７,,29,426,6350825,,,,,,,2025-07-25,1,,,,,カムクラヒガシニホン,0
168,1150001028289,新規,0,2025-07-25,2025-07-25,松本不動産株式会社,,株式会社,奈良県,大和郡山市,額田部北町７０９番地１０,,29,203,6391037,,,,,,,2025-07-25,1,,,,,マツモトフドウサン,0
173,1160001026936,新規,0,2025-07-25,2025-07-25,株式会社天平グループ,,株式会社,滋賀県,高島市,新旭町太田７７５番地,,25,212,5201512,,,,,,,2025-07-25,1,,,,,テンペイグループ,0
180,1180001167811,新規,0,2025-07-25,2025-07-25,株式会社ＰＲＯＧＲＥＳＳ,,株式会社,愛知県,瀬戸市,泉町３１,,23,204,4890073,,,,,,,2025-07-25,1,,,,,プログレス,0
192,1200001044066,新規,0,2025-07-25,2025-07-25,株式会社アクティブ,,株式会社,岐阜県,不破郡垂井町,宮代２９０７番地の１,,21,361,5032124,,,,,,,2025-07-25,1,,,,,アクティブ,0
194,1200005013785,新規,0,2025-07-25,2025-07-25,一般社団法人翔垣,,その他の設立登記法人,岐阜県,大垣市,昼飯町９０８番地１シャーメゾン長澤Ａ１０２,,21,202,5032216,,,,,,,2025-07-25,1,,,,,ショウガキ,0
209,1230001021013,新規,0,2025-07-25,2025-07-25,株式会社ＩＷＩＮ,,株式会社,富山県,富山市,太郎丸本町３丁目７‐１２城南地所ビル２階,,16,201,9398272,,,,,,,2025-07-25,1,,,,,アイウィン,0
231,1320001021227,新規,0,2025-07-25,2025-07-25,株式会社ミトメ舎,,株式会社,大分県,大分市,大字片島４１７番地の５,,44,201,8700943,,,,,,,2025-07-25,1,,,,,ミトメシャ,0
233,1320003004725,新規,0,2025-07-25,2025-07-25,合同会社ＴＢＲ,,合同会社,大分県,日田市,大字十二町６６７番地３コーポ暁１０３号,,44,204,8770000,,,,,,,2025-07-25,1,,,,,ティービーアール,0
242,1370001052878,新規,0,2025-07-25,2025-07-25,株式会社佐藤リユース,,株式会社,宮城県,多賀城市,下馬４丁目３番１５号,,04,209,9850835,,,,,,,2025-07-25,1,,,,,サトウリユース,0
244,1370003007203,新規,0,2025-07-25,2025-07-25,合同会社にじいろ,,合同会社,宮城県,刈田郡蔵王町,宮字篤司９５番地５オーベルジュ宮１０２,,04,301,9890701,,,,,,,2025-07-25,1,,,,,ニジイロ,0
248,1380003006096,新規,0,2025-07-25,2025-07-25,合同会社どんぐり,,合同会社,福島県,いわき市,南台１丁目３６番地の５,,07,204,9748242,,,,,,,2025-07-25,1,,,,,ドングリ,0
255,1430003017864,新規,0,2025-07-25,2025-07-25,Ｓｎｏｐｒｏ合同会社,,合同会社,北海道,虻田郡倶知安町,字樺山１１４－１,,01,400,0440078,,,,,,,2025-07-25,1,,,,,スノプロ,0
275,2010001257082,新規,0,2025-07-25,2025-07-25,株式会社オリミナート,,株式会社,東京都,千代田区,神田駿河台３丁目７番地２荻野ビル４階,,13,101,1010062,,,,,,,2025-07-25,1,,,,,オリミナート,0
276,2010001257099,新規,0,2025-07-25,2025-07-25,Ｆｒｅｓｈｉｎｅ　Ｐｒｏｄｕｃｔｓ株式会社,,株式会社,東京都,文京区,千石４丁目１４番９号,,13,105,1120011,,,,,,,2025-07-25,1,,,,,フレシャインプロダクツ,0
280,2010005040419,新規,0,2025-07-25,2025-07-25,一般社団法人ＰＩＯ,,その他の設立登記法人,東京都,中央区,日本橋１丁目４番１号日本橋一丁目ビルディング,,13,102,1030027,,,,,,,2025-07-25,1,,,,,ピーアイオー,0
281,2010005040427,新規,0,2025-07-25,2025-07-25,ＡＰＨ１一般社団法人,,その他の設立登記法人,東京都,千代田区,丸の内１丁目４番１号東京共同会計事務所内,,13,101,1000005,,,,,,,2025-07-25,1,,,,,エーピーエイチワン,0
282,2010101016776,新規,0,2025-07-25,2025-07-25,桜花貿易株式会社,,株式会社,東京都,八王子市,千人町１丁目２番２１号メゾン・ド・ノア千人町４０１号,,13,201,1930835,,,,,,,2025-07-25,1,,,,,サクラボウエキ,0
293,2010401191880,新規,0,2025-07-25,2025-07-25,株式会社ゲリオン,,株式会社,東京都,港区,新橋４丁目１４番１号新橋ＡＵＮ・ＢＬＤＧ４階,,13,103,1050004,,,,,,,2025-07-25,1,,,,,ゲリオン,0
294,2010401192004,新規,0,2025-07-25,2025-07-25,株式会社ティアーズアンドカンパニー,,株式会社,東京都,港区,南青山４丁目１８番１１号フォレストヒルズイーストウィング２階,,13,103,1070062,,,,,,,2025-07-25,1,,,,,ティアーズアンドカンパニー,0
295,2010401192012,新規,0,2025-07-25,2025-07-25,ＢＲＯＤ株式会社,,株式会社,東京都,港区,西麻布４丁目１２番２０号,,13,103,1060031,,,,,,,2025-07-25,1,,,,,ブロッド,0
297,2010405024541,新規,0,2025-07-25,2025-07-25,ＳＣＧ５７特定目的会社,,その他の設立登記法人,東京都,港区,虎ノ門２丁目６番１号,,13,103,1050001,,,,,,,2025-07-25,1,,,,,エスシージーフィフティセブン,0
300,2010505003619,新規,0,2025-07-25,2025-07-25,一般社団法人個人スポーツ国際交流協議会,,その他の設立登記法人,東京都,台東区,浅草５丁目６０番６号草薙ビル１階１０２号室,,13,106,1110032,,,,,,,2025-07-25,1,,,,,コジンスポーツコクサイコウリュウキョウギカイ,0
319,2011003022037,新規,0,2025-07-25,2025-07-25,西橋商事合同会社,,合同会社,東京都,目黒区,下目黒６丁目８番１８－４０４号グランヴェール目黒,,13,110,1530064,,,,,,,2025-07-25,1,,,,,ニシハシショウジ,0
320,2011003022045,新規,0,2025-07-25,2025-07-25,坂原貿易合同会社,,合同会社,東京都,渋谷区,道玄坂１丁目１０番８号渋谷道玄坂東急ビル２Ｆ－Ｃ,,13,113,1500043,,,,,,,2025-07-25,1,,,,,サカハラボウエキ,0
325,2011105011508,新規,0,2025-07-25,2025-07-25,特定非営利活動法人ＣＡＲＥＡＲ,,その他の設立登記法人,東京都,新宿区,赤城下町４５ＫＢＣ、Ｅ－２,,13,104,1620803,,,,,,,2025-07-25,1,,,,,キャリア,0
329,2011501032355,新規,0,2025-07-25,2025-07-25,安生株式会社,,株式会社,東京都,北区,豊島２丁目１０番６号創益企画ビル２１０号室,,13,117,1140003,,,,,,,2025-07-25,1,,,,,アンセイ,0
331,2011503006621,新規,0,2025-07-25,2025-07-25,合同会社栄,,合同会社,東京都,北区,田端新町３丁目４番３号ＧｒａｎｄＭａｙ－２０１号,,13,117,1140012,,,,,,,2025-07-25,1,,,,,サカエ,0
336,2012303002199,新規,0,2025-07-25,2025-07-25,彩幸合同会社,,合同会社,東京都,町田市,鶴川２丁目１７番地１１,,13,209,1950061,,,,,,,2025-07-25,1,,,,,サイコウ,0
338,2012401043392,新規,0,2025-07-25,2025-07-25,株式会社グローバル・トーン,,株式会社,東京都,武蔵野市,吉祥寺本町１丁目２０番１号吉祥寺永谷シティプラザ１００２,,13,203,1800004,,,,,,,2025-07-25,1,,,,,グローバルトーン,0
340,2012403007239,新規,0,2025-07-25,2025-07-25,Ｂ＆Ｍ　ＩＮＴＥＲＣＯＮＴＩＮＥＮＴＡＬ合同会社,,合同会社,東京都,府中市,武蔵台３丁目４７番１５号プレミアプラッツ２０２,,13,206,1830042,,,,,,,2025-07-25,1,,,,,ビーアンドエムインターコンチネンタル,0
341,2012403007255,新規,0,2025-07-25,2025-07-25,合同会社トレチル,,合同会社,東京都,府中市,本町１丁目３番地の７サクヤコノハナ５０１,,13,206,1830027,,,,,,,2025-07-25,1,,,,,トレチル,0
350,2020001163965,新規,0,2025-07-25,2025-07-25,株式会社もりだんＨＯＵＳＥ,,株式会社,神奈川県,川崎市幸区,鹿島田１丁目９－４西口マーケット,,14,132,2120058,,,,,,,2025-07-25,1,,,,,モリダンハウス,0
351,2020001163973,新規,0,2025-07-25,2025-07-25,株式会社ＥＣＨＯＥＳ,,株式会社,神奈川県,川崎市幸区,小倉２丁目２１－１０,,14,132,2120054,,,,,,,2025-07-25,1,,,,,,0
352,2020001164030,新規,0,2025-07-25,2025-07-25,株式会社田内商店,,株式会社,神奈川県,川崎市麻生区,王禅寺東３丁目３４番７号,,14,137,2150018,,,,,,,2025-07-25,1,,,,,タノウチショウテン,0
367,2030001167767,新規,0,2025-07-25,2025-07-25,今井ビジネスサービス株式会社,,株式会社,埼玉県,深谷市,寿町５２番地,,11,218,3660025,,,,,,,2025-07-25,1,,,,,イマイビジネスサービス,0
368,2030001167800,新規,0,2025-07-25,2025-07-25,株式会社ｍａｈａｌｏ,,株式会社,埼玉県,蕨市,中央２丁目２２番２２号,,11,223,3350004,,,,,,,2025-07-25,1,,,,,マハロ,0
374,2030003027267,新規,0,2025-07-25,2025-07-25,合同会社ＮＡＹＴ,,合同会社,埼玉県,新座市,新堀１丁目８－１５,,11,230,3520032,,,,,,,2025-07-25,1,,,,,ネイト,0
380,2040001139682,新規,0,2025-07-25,2025-07-25,株式会社ＢｉｋＵ,,株式会社,千葉県,柏市,中央町５番２１号穂高第１ブラザーズ柏３０２号,,12,217,2770021,,,,,,,2025-07-25,1,,,,,ビクウ,0
382,2040003028058,新規,0,2025-07-25,2025-07-25,合同会社カノープス,,合同会社,千葉県,市川市,福栄１丁目３番２５号パルクメゾンミナミ１０１,,12,203,2720137,,,,,,,2025-07-25,1,,,,,カノープス,0
390,2060001038429,新規,0,2025-07-25,2025-07-25,ファストシャッター株式会社,,株式会社,栃木県,鹿沼市,千渡１４３９番地１５,,09,205,3220002,,,,,,,2025-07-25,1,,,,,ファストシャッター,0
408,2090001019401,新規,0,2025-07-25,2025-07-25,株式会社オズリッジ,,株式会社,山梨県,北杜市,小淵沢町上笹尾３３３２番地２３４５,,19,209,4080041,,,,,,,2025-07-25,1,,,,,オズリッジ,0
412,2100001038787,新規,0,2025-07-25,2025-07-25,株式会社東京電気工事グループ,,株式会社,長野県,北佐久郡軽井沢町,大字長倉４７０１番地４８,,20,321,3890111,,,,,,,2025-07-25,1,,,,,トウキョウデンキコウジグループ,0
422,2120001278068,新規,0,2025-07-25,2025-07-25,アダチ空調株式会社,,株式会社,大阪府,寝屋川市,高柳１丁目１番３号,,27,215,5720051,,,,,,,2025-07-25,1,,,,,アダチクウチョウ,0
423,2120001278084,新規,0,2025-07-25,2025-07-25,株式会社エーアール,,株式会社,大阪府,大阪市天王寺区,烏ケ辻２丁目２番１１号,,27,109,5430042,,,,,,,2025-07-25,1,,,,,エーアール,0
424,2120001278126,新規,0,2025-07-25,2025-07-25,株式会社ＯＦＦＩＣＥ　ＣＫ,,株式会社,大阪府,大阪市北区,東天満２丁目３番７－３５０２号,,27,127,5300044,,,,,,,2025-07-25,1,,,,,オフィスシーケイ,0
425,2120001278142,新規,0,2025-07-25,2025-07-25,株式会社山川建築,,株式会社,大阪府,大阪市福島区,海老江２丁目５番２１号,,27,103,5530001,,,,,,,2025-07-25,1,,,,,ヤマカワケンチク,0
426,2120001278150,新規,0,2025-07-25,2025-07-25,雄投資グループ株式会社,,株式会社,大阪府,大阪市阿倍野区,阿倍野筋３丁目３番１８号,,27,119,5450052,,,,,,,2025-07-25,1,,,,,ユウトウシグループ,0
427,2120001278159,新規,0,2025-07-25,2025-07-25,株式会社バロン,,株式会社,大阪府,大阪市淀川区,加島３丁目６番１７号,,27,123,5320031,,,,,,,2025-07-25,1,,,,,バロン,0
428,2120001278183,新規,0,2025-07-25,2025-07-25,株式会社Ｅｎｊｉｅｌ,,株式会社,大阪府,大阪市北区,鶴野町４番地Ａ号コープ野村３０６号室,,27,127,5300014,,,,,,,2025-07-25,1,,,,,エンジエール,0
429,2120001278191,新規,0,2025-07-25,2025-07-25,株式会社１００ｘ,,株式会社,大阪府,大阪市中央区,南船場３丁目２番２２号おおきに南船場ビル２０５,,27,128,5420081,,,,,,,2025-07-25,1,,,,,ワンハンドレッド,0
431,2120003030030,新規,0,2025-07-25,2025-07-25,合同会社石川企画,,合同会社,大阪府,大阪市北区,梅田１丁目１番３号大阪駅前第３ビル２９階１－１－１号室,,27,127,5300001,,,,,,,2025-07-25,1,,,,,イシカワキカク,0
432,2120003030071,新規,0,2025-07-25,2025-07-25,ＷＳ　Ｄｅｓｉｇｎ合同会社,,合同会社,大阪府,枚方市,氷室台１丁目１０－２４,,27,210,5730115,,,,,,,2025-07-25,1,,,,,ダブルエスデザイン,0
433,2120003030088,新規,0,2025-07-25,2025-07-25,合同会社くろねこ倉庫,,合同会社,大阪府,大阪市港区,市岡２丁目３番６号,,27,107,5520012,,,,,,,2025-07-25,1,,,,,クロネコソウコ,0
434,2120003030096,新規,0,2025-07-25,2025-07-25,合同会社木花咲,,合同会社,大阪府,大阪市淀川区,三国本町３丁目２６番４号１階,,27,123,5320005,,,,,,,2025-07-25,1,,,,,コノハナサク,0
435,2120003030105,新規,0,2025-07-25,2025-07-25,ＫＫＣ　ｌａｂｏ．合同会社,,合同会社,大阪府,枚方市,山之上５丁目１１番１１号,,27,210,5730047,,,,,,,2025-07-25,1,,,,,ケーケーシーラボ,0
438,2120101072123,新規,0,2025-07-25,2025-07-25,株式会社サンヨーハウス,,株式会社,大阪府,泉佐野市,高松東２丁目１番１２号,,27,213,5980012,,,,,,,2025-07-25,1,,,,,サンヨーハウス,0
439,2120101072156,新規,0,2025-07-25,2025-07-25,栄トレーディング株式会社,,株式会社,大阪府,藤井寺市,岡１丁目４番２１号,,27,226,5830027,,,,,,,2025-07-25,1,,,,,サカエトレーディング,0
444,2120901051235,新規,0,2025-07-25,2025-07-25,エムズ板金株式会社,,株式会社,大阪府,豊中市,原田南１丁目８番２８号,,27,203,5610805,,,,,,,2025-07-25,1,,,,,エムズバンキン,0
445,2120905006755,新規,0,2025-07-25,2025-07-25,医療法人彩結会,,その他の設立登記法人,大阪府,吹田市,高野台３丁目１番１号,,27,205,5650861,,,,,,,2025-07-25,1,,,,,サイユウカイ,0
451,2130005017405,新規,0,2025-07-25,2025-07-25,一般社団法人心愛クリニック,,その他の設立登記法人,京都府,京都市下京区,室町通四条下る鶏鉾町４８０オフィスワン四条烏丸１２０１,,26,106,6008491,,,,,,,2025-07-25,1,,,,,シンアイクリニック,0
457,2140001139367,新規,0,2025-07-25,2025-07-25,株式会社Ｔｅｇａｒ,,株式会社,兵庫県,尼崎市,武庫之荘７丁目２番１号,,28,202,6610035,,,,,,,2025-07-25,1,,,,,ティガー,0
459,2150003003669,新規,0,2025-07-25,2025-07-25,合同会社ｍｅｒｅ,,合同会社,奈良県,天理市,柳本町９１６番地６,,29,204,6320052,,,,,,,2025-07-25,1,,,,,メレ,0
463,2160001026935,新規,0,2025-07-25,2025-07-25,株式会社草津興産,,株式会社,滋賀県,草津市,西草津２丁目３番２２号,,25,206,5250035,,,,,,,2025-07-25,1,,,,,クサツコウサン,0
468,2170001018733,新規,0,2025-07-25,2025-07-25,株式会社かだせん家守舎,,株式会社,和歌山県,和歌山市,西庄１０１６番地３２,,30,201,6400112,,,,,,,2025-07-25,1,,,,,カダセンヤモリシャ,0
476,2180001167802,新規,0,2025-07-25,2025-07-25,Ａ．Ｂ　ＩＮＴＥＲＮＡＴＩＯＮＡＬ株式会社,,株式会社,愛知県,名古屋市港区,宝神町字西屋敷１１１３番地司マンション宝神５０２号,,23,111,4550833,,,,,,,2025-07-25,1,,,,,エービーインターナショナル,0
477,2180001167810,新規,0,2025-07-25,2025-07-25,ＡＫＩＧＡＬＬＥＲＹ株式会社,,株式会社,愛知県,名古屋市南区,南野２丁目１１２番地５,,23,112,4570068,,,,,,,2025-07-25,1,,,,,アキギャラリー,0
484,2180003028738,新規,0,2025-07-25,2025-07-25,合同会社イーストグリーン,,合同会社,愛知県,名古屋市中村区,則武２丁目１４番１１号３６,,23,105,4530014,,,,,,,2025-07-25,1,,,,,イーストグリーン,0
485,2180303006666,新規,0,2025-07-25,2025-07-25,合同会社オートスキル,,合同会社,愛知県,岡崎市,矢作町字神居１番地１１東海ハイツ矢作２０１号,,23,202,4440943,,,,,,,2025-07-25,1,,,,,オートスキル,0
512,2280001009465,新規,0,2025-07-25,2025-07-25,ローカルパートナーズ株式会社,,株式会社,島根県,松江市,学園２丁目１６‐１４,,32,201,6900825,,,,,,,2025-07-25,1,,,,,ローカルパートナーズ,0
519,2290001110817,新規,0,2025-07-25,2025-07-25,株式会社いろの環,,株式会社,福岡県,福岡市博多区,諸岡５丁目３１番５－６０２号,,40,132,8120894,,,,,,,2025-07-25,1,,,,,イロノワ,0
520,2290001110833,新規,0,2025-07-25,2025-07-25,株式会社ワイズロア,,株式会社,福岡県,筑紫野市,美しが丘南２丁目５番地１３,,40,217,8180034,,,,,,,2025-07-25,1,,,,,ワイズロア,0
521,2290001110841,新規,0,2025-07-25,2025-07-25,株式会社ＦＯＲＥＳＴＥＲ,,株式会社,福岡県,福岡市西区,愛宕南１丁目１番３９－９０６号クラブエイリック室見河畔ザ・テラス,,40,135,8190007,,,,,,,2025-07-25,1,,,,,フォレスター,0
522,2290001110882,新規,0,2025-07-25,2025-07-25,ルミライトソリューションズ株式会社,,株式会社,福岡県,糟屋郡志免町,別府北１丁目１４番２８号東邦石油ビル,,40,343,8112233,,,,,,,2025-07-25,1,,,,,ルミライトソリューションズ,0
525,2290003017151,新規,0,2025-07-25,2025-07-25,ｃｉｖｅｔｔａ合同会社,,合同会社,福岡県,福岡市中央区,薬院３丁目３番２９号６０３ライオンズマンション薬院駅南,,40,133,8100022,,,,,,,2025-07-25,1,,,,,チベッタ,0
527,2290801031733,新規,0,2025-07-25,2025-07-25,総和プランニング株式会社,,株式会社,福岡県,鞍手郡鞍手町,大字木月２２５３－１,,40,402,8071303,,,,,,,2025-07-25,1,,,,,ソウワプランニング,0
531,2310003005046,新規,0,2025-07-25,2025-07-25,ＤＡＩＬＹ　ＲＯＯＳＴ合同会社,,合同会社,長崎県,長崎市,元船町９－１８長崎ＢｉｚＰＯＲＴ２階,,42,201,8500035,,,,,,,2025-07-25,1,,,,,デイリールースト,0
536,2340001027535,新規,0,2025-07-25,2025-07-25,ＫＩＺＵＮＡ国際株式会社,,株式会社,鹿児島県,曽於市,末吉町諏訪方８４６３番地４,,46,217,8998604,,,,,,,2025-07-25,1,,,,,キズナコクサイ,0
537,2340003004862,新規,0,2025-07-25,2025-07-25,合同会社Ｎｕｔｒｏｋｏ,,合同会社,鹿児島県,曽於郡大崎町,菱田９５１番地２,,46,468,8997301,,,,,,,2025-07-25,1,,,,,ヌトロコ,0
541,2350003004985,新規,0,2025-07-25,2025-07-25,合同会社ＰＬＵＭ,,合同会社,宮崎県,宮崎市,清武町今泉乙２６７－１０,,45,201,8891602,,,,,,,2025-07-25,1,,,,,プラム,0
542,2360001035528,新規,0,2025-07-25,2025-07-25,株式会社ＲｅＭａｉｎ,,株式会社,沖縄県,島尻郡南風原町,字宮平３番地１ミルコマンション南風原スカイリベール１００４,,47,350,9011104,,,,,,,2025-07-25,1,,,,,リマイン,0
544,2360003015115,新規,0,2025-07-25,2025-07-25,合同会社Ｔｉｄｙ　Ｏｋｉｎａｗａ,,合同会社,沖縄県,那覇市,泉崎１丁目３番１４号－２階,,47,201,9000021,,,,,,,2025-07-25,1,,,,,タイディオキナワ,0
547,2370001052877,新規,0,2025-07-25,2025-07-25,株式会社Ｂｒｉｇｈｉｖｅ,,株式会社,宮城県,仙台市青葉区,本町１丁目１２－１２ＧＭビルディング３階,,04,101,9800014,,,,,,,2025-07-25,1,,,,,ブライハイブ,0
555,2430001094863,新規,0,2025-07-25,2025-07-25,株式会社ＥＦＦＥＣＴＯＲ,,株式会社,北海道,札幌市豊平区,美園三条７丁目１番２２号,,01,105,0620003,,,,,,,2025-07-25,1,,,,,エフェクター,0
557,2430003017459,新規,0,2025-07-25,2025-07-25,合同会社みいねる,,合同会社,北海道,札幌市西区,西野四条１０丁目１４番２６号,,01,107,0630034,,,,,,,2025-07-25,1,,,,,ミイネル,0
558,2430003017855,新規,0,2025-07-25,2025-07-25,ＬＩＮＫ‐ＢＩＴ合同会社,,合同会社,北海道,札幌市白石区,北郷三条７丁目４番５号ブリーズ北郷２０４,,01,104,0030833,,,,,,,2025-07-25,1,,,,,リンクビット,0
559,2430003017863,新規,0,2025-07-25,2025-07-25,合同会社くらしのわ,,合同会社,北海道,札幌市白石区,北郷二条１３丁目４番８－３号,,01,104,0030832,,,,,,,2025-07-25,1,,,,,クラシノワ,0
577,3010001257098,新規,0,2025-07-25,2025-07-25,株式会社Ｔｒｅｅ　Ｔｏｐ,,株式会社,東京都,中央区,銀座８丁目７－１８かなめ屋ビル３階,,13,102,1040061,,,,,,,2025-07-25,1,,,,,ツリートップ,0
578,3010001257180,新規,0,2025-07-25,2025-07-25,株式会社フクシマヤプラス,,株式会社,東京都,中央区,日本橋室町１丁目１１番１２号日本橋水野ビル７階,,13,102,1030022,,,,,,,2025-07-25,1,,,,,フクシマヤプラス,0
582,3010003048116,新規,0,2025-07-25,2025-07-25,ＺＥＨ２合同会社,,合同会社,東京都,千代田区,霞が関３丁目２番５号,,13,101,1000013,,,,,,,2025-07-25,1,,,,,ゼッチツー,0
583,3010003048157,新規,0,2025-07-25,2025-07-25,合同会社ＳＵＩ,,合同会社,東京都,中央区,銀座１丁目１２番４号Ｎ＆ＥＢＬＤ．６Ｆ,,13,102,1040061,,,,,,,2025-07-25,1,,,,,スイ,0
589,3010401191665,新規,0,2025-07-25,2025-07-25,株式会社アダーデザイン,,株式会社,東京都,港区,北青山２丁目７－１３プラセオ青山ビル３Ｆ,,13,103,1070061,,,,,,,2025-07-25,1,,,,,アダーデザイン,0
590,3010401191946,新規,0,2025-07-25,2025-07-25,株式会社ＯＮＷＯＲＫ,,株式会社,東京都,港区,赤坂６丁目３番１２号齊藤ビル１階,,13,103,1070052,,,,,,,2025-07-25,1,,,,,オンワーク,0
591,3010401191987,新規,0,2025-07-25,2025-07-25,株式会社住マイルＣａｒｅ　Ｊａｐａｎ,,株式会社,東京都,港区,芝２丁目２４－１１センターコート芝３０３,,13,103,1050014,,,,,,,2025-07-25,1,,,,,スマイルケアジャパン,0
594,3010403035647,新規,0,2025-07-25,2025-07-25,合同会社Ｂｕｚｚｒｕ,,合同会社,東京都,港区,北青山１丁目３番１号アールキューブ青山３階,,13,103,1070061,,,,,,,2025-07-25,1,,,,,バズル,0
595,3010403035696,新規,0,2025-07-25,2025-07-25,合同会社Ｓｔｅｌｌａｖｉａ　Ｐａｒｔｎｅｒｓ,,合同会社,東京都,港区,高輪１丁目４番１０－１６０７号,,13,103,1080074,,,,,,,2025-07-25,1,,,,,ステラビアパートナーズ,0
596,3010405024540,新規,0,2025-07-25,2025-07-25,ＳＣＧ５６特定目的会社,,その他の設立登記法人,東京都,港区,虎ノ門２丁目６番１号,,13,103,1050001,,,,,,,2025-07-25,1,,,,,エスシージーフィフティシックス,0
598,3010601067657,新規,0,2025-07-25,2025-07-25,Ａｓｔｒｏｓｉａ　Ｉｎｔｅｒｎａｔｉｏｎａｌ株式会社,,株式会社,東京都,江東区,亀戸３丁目６２番１０号ＳＡＮビル５０２号室,,13,108,1360071,,,,,,,2025-07-25,1,,,,,アストロシアインターナショナル,0
599,3010601067673,新規,0,2025-07-25,2025-07-25,株式会社ハートライフウィック,,株式会社,東京都,江東区,古石場２丁目１７番３号門仲レーベル３０３,,13,108,1350045,,,,,,,2025-07-25,1,,,,,ハートライフウィック,0
600,3010603011704,新規,0,2025-07-25,2025-07-25,Ｅｎｒｉｃｈ　Ａｒｉａｋｅ合同会社,,合同会社,東京都,江東区,有明１丁目１番１７－１６０８号,,13,108,1350063,,,,,,,2025-07-25,1,,,,,エンリッチアリアケ,0
604,3010803005480,新規,0,2025-07-25,2025-07-25,松山合同会社,,合同会社,東京都,大田区,大森東５丁目２７番１１－３０７号,,13,111,1430012,,,,,,,2025-07-25,1,,,,,マツヤマ,0
615,3011001171017,新規,0,2025-07-25,2025-07-25,株式会社ＳＤＦａｓｔ,,株式会社,東京都,渋谷区,千駄ヶ谷５丁目２１－５ミサワビル９０２,,13,113,1510051,,,,,,,2025-07-25,1,,,,,エスディーファスト,0
616,3011001171446,新規,0,2025-07-25,2025-07-25,株式会社ＥＡＧＬＥＤＲＯＮＥ,,株式会社,東京都,渋谷区,神南１丁目１１‐４ＦＰＧリンクス神南５階,,13,113,1500041,,,,,,,2025-07-25,1,,,,,イーグルドローン,0
617,3011001171454,新規,0,2025-07-25,2025-07-25,ＧＰバイアウトＹ株式会社,,株式会社,東京都,目黒区,自由が丘２丁目１６‐１２ＲＪ３,,13,110,1520035,,,,,,,2025-07-25,1,,,,,ジーピーバイアウトワイ,0
618,3011003022192,新規,0,2025-07-25,2025-07-25,エルスクエア合同会社,,合同会社,東京都,目黒区,下目黒４丁目２０番１３‐３１１号ジェイパーク目黒３林試の森,,13,110,1530064,,,,,,,2025-07-25,1,,,,,エルスクエア,0
620,3011101112597,新規,0,2025-07-25,2025-07-25,株式会社りすたーと,,株式会社,東京都,新宿区,高田馬場２丁目１４番２号新陽ビル７Ｆ,,13,104,1690075,,,,,,,2025-07-25,1,,,,,リスタート,0
625,3011501032354,新規,0,2025-07-25,2025-07-25,Ｂａｓｔｉｏｎ株式会社,,株式会社,東京都,荒川区,東日暮里５丁目５０番５号アートホテル日暮里ラングウッド３Ｆ－Ｃ５９,,13,118,1160014,,,,,,,2025-07-25,1,,,,,バスティアン,0
628,3011801046500,新規,0,2025-07-25,2025-07-25,ＡＱＵＡＬＩ株式会社,,株式会社,東京都,足立区,関原３丁目４０番８号,,13,121,1230852,,,,,,,2025-07-25,1,,,,,アクアリ,0
630,3011803006980,新規,0,2025-07-25,2025-07-25,秋山工務店合同会社,,合同会社,東京都,足立区,西新井栄町３丁目４番１１号,,13,121,1230843,,,,,,,2025-07-25,1,,,,,アキヤマコウムテン,0
635,3013303007781,新規,0,2025-07-25,2025-07-25,東籬貿易合同会社,,合同会社,東京都,豊島区,東池袋１丁目３０番１４号ライオンズマンション東池袋１００２,,13,116,1700013,,,,,,,2025-07-25,1,,,,,トウリボウエキ,0
647,3021001085752,新規,0,2025-07-25,2025-07-25,Ｍ＆Ｏホールディングス株式会社,,株式会社,神奈川県,厚木市,中町３丁目１１番１８号,,14,212,2430018,,,,,,,2025-07-25,1,,,,,エムアンドオーホールディングス,0
648,3021001085884,新規,0,2025-07-25,2025-07-25,株式会社ＫｉＮｏＷａ,,株式会社,神奈川県,厚木市,旭町１丁目２５番１－２２０４号,,14,212,2430014,,,,,,,2025-07-25,1,,,,,キノワ,0
665,3030001167717,新規,0,2025-07-25,2025-07-25,株式会社べルートンハウス,,株式会社,埼玉県,川口市,長蔵１丁目１１番１１号サニーコート１０３,,11,203,3330807,,,,,,,2025-07-25,1,,,,,ベルートンハウス,0
666,3030001167766,新規,0,2025-07-25,2025-07-25,宝源株式会社,,株式会社,埼玉県,川口市,西川口１丁目３０－２０－４０７号,,11,203,3320021,,,,,,,2025-07-25,1,,,,,ホウゲン,0
667,3030001167782,新規,0,2025-07-25,2025-07-25,株式会社双世,,株式会社,埼玉県,新座市,東北２丁目２番１０号アローハイツ３０３号室,,11,230,3520001,,,,,,,2025-07-25,1,,,,,ソウセイ,0
668,3030001167790,新規,0,2025-07-25,2025-07-25,株式会社イーストヒルズ,,株式会社,埼玉県,上尾市,壱丁目東２５番地４,,11,219,3620082,,,,,,,2025-07-25,1,,,,,イーストヒルズ,0
669,3030001167840,新規,0,2025-07-25,2025-07-25,株式会社Ｋ２,,株式会社,埼玉県,草加市,谷塚２丁目９－１－３０６,,11,221,3400028,,,,,,,2025-07-25,1,,,,,ケーツー,0
676,3030003027225,新規,0,2025-07-25,2025-07-25,早大建設合同会社,,合同会社,埼玉県,戸田市,下前２丁目１番３５,,11,224,3350016,,,,,,,2025-07-25,1,,,,,ソウダイケンセツ,0
677,3030003027241,新規,0,2025-07-25,2025-07-25,合同会社Ｆ．Ｉコミュニティ,,合同会社,埼玉県,所沢市,西所沢１丁目１６番１８－４０５号ライオンズステーションプラザ西所沢,,11,208,3591144,,,,,,,2025-07-25,1,,,,,エフアイコミュニティ,0
692,3050001056983,新規,0,2025-07-25,2025-07-25,ＨＯＥ‐ＴＲＵＹＥＮ株式会社,,株式会社,茨城県,鉾田市,台濁沢９７３番地２,,08,234,3112102,,,,,,,2025-07-25,1,,,,,ホエーチュエン,0
693,3050001057008,新規,0,2025-07-25,2025-07-25,せいべえファーム株式会社,,株式会社,茨城県,桜川市,加茂部３１３番地１,,08,231,3091452,,,,,,,2025-07-25,1,,,,,セイベエファーム,0
694,3050003009444,新規,0,2025-07-25,2025-07-25,合同会社ひびき,,合同会社,茨城県,取手市,野々井１０４９－９,,08,217,3020032,,,,,,,2025-07-25,1,,,,,ヒビキ,0
701,3070001043154,新規,0,2025-07-25,2025-07-25,株式会社ＧＺｅｎｉｔｈ,,株式会社,群馬県,前橋市,問屋町２丁目１３－６,,10,201,3710855,,,,,,,2025-07-25,1,,,,,ジーゼニス,0
713,3080403005313,新規,0,2025-07-25,2025-07-25,合同会社ＮＯＶＳＳ,,合同会社,静岡県,浜松市中央区,鍛冶町１４０Ｃビル４階,,22,138,4300933,,,,,,,2025-07-25,1,,,,,ノブズ,0
721,3100001038794,新規,0,2025-07-25,2025-07-25,株式会社うすや,,株式会社,長野県,上田市,常入１丁目１０－１６,,20,203,3860015,,,,,,,2025-07-25,1,,,,,ウスヤ,0
729,3120001278117,新規,0,2025-07-25,2025-07-25,冠享株式会社,,株式会社,大阪府,大阪市生野区,新今里３丁目４番１７号ＯＧビル５０７Ｂ,,27,116,5440001,,,,,,,2025-07-25,1,,,,,カンキョウ,0
730,3120001278125,新規,0,2025-07-25,2025-07-25,株式会社ダブルエスコーポレーション,,株式会社,大阪府,大阪市城東区,東中浜８丁目６番２６号,,27,118,5360023,,,,,,,2025-07-25,1,,,,,ダブルエスコーポレーション,0
731,3120001278158,新規,0,2025-07-25,2025-07-25,有田商事株式会社,,株式会社,大阪府,大阪市浪速区,恵美須西２丁目１４番地１３ライオンズマンション難波南第二２０６室,,27,111,5560003,,,,,,,2025-07-25,1,,,,,アリタショウジ,0
732,3120001278166,新規,0,2025-07-25,2025-07-25,株式会社ＣＯＦ,,株式会社,大阪府,大阪市北区,天神橋５丁目２番１０号,,27,127,5300041,,,,,,,2025-07-25,1,,,,,シーオーエフ,0
733,3120001278174,新規,0,2025-07-25,2025-07-25,株式会社ＶＥＸＵＭ,,株式会社,大阪府,大阪市中央区,西心斎橋１丁目５番１２号アーバンライフ３０８,,27,128,5420086,,,,,,,2025-07-25,1,,,,,ベクサム,0
739,3120003030087,新規,0,2025-07-25,2025-07-25,中聯合同会社,,合同会社,大阪府,大阪市淀川区,西宮原２丁目６番１６－１１２９号,,27,123,5320004,,,,,,,2025-07-25,1,,,,,チュウレン,0
740,3120003030095,新規,0,2025-07-25,2025-07-25,合同会社Ｓｏｎａｔｉｎａ,,合同会社,大阪府,大阪市北区,梅田１丁目２番２号大阪駅前第２ビル１２－１２,,27,127,5300001,,,,,,,2025-07-25,1,,,,,ソナチネ,0
741,3120003030104,新規,0,2025-07-25,2025-07-25,合同会社Ａ,,合同会社,大阪府,大阪市北区,梅田１丁目１番３号大阪駅前第３ビル２９階１－１－１号室,,27,127,5300001,,,,,,,2025-07-25,1,,,,,エース,0
745,3120101072163,新規,0,2025-07-25,2025-07-25,株式会社大盛工業,,株式会社,大阪府,堺市西区,鳳西町３丁６３４番地４,,27,144,5938326,,,,,,,2025-07-25,1,,,,,タイセイコウギョウ,0
749,3120903005774,新規,0,2025-07-25,2025-07-25,あくせく企画合同会社,,合同会社,大阪府,高槻市,寿町３丁目１７番１３号,,27,207,5690826,,,,,,,2025-07-25,1,,,,,アクセクキカク,0
753,3130005017412,新規,0,2025-07-25,2025-07-25,一般財団法人ポノス財団,,その他の設立登記法人,京都府,京都市下京区,四条通柳馬場東入立売東町１２番地１,,26,106,6008005,,,,,,,2025-07-25,1,,,,,ポノスザイダン,0
757,3140001139382,新規,0,2025-07-25,2025-07-25,株式会社動,,株式会社,兵庫県,神戸市中央区,二宮町３丁目１１番６－１００４号,,28,110,6510093,,,,,,,2025-07-25,1,,,,,ドウ,0
758,3140001139390,新規,0,2025-07-25,2025-07-25,株式会社三木金物産業,,株式会社,兵庫県,三木市,鳥町１１番地の１,,28,215,6730456,,,,,,,2025-07-25,1,,,,,ミキカナモノサンギョウ,0
763,3150001028279,新規,0,2025-07-25,2025-07-25,株式会社神座西日本,,株式会社,奈良県,北葛城郡広陵町,大字安部４５３－７,,29,426,6350825,,,,,,,2025-07-25,1,,,,,カムクラニシニホン,0
764,3150001028287,新規,0,2025-07-25,2025-07-25,株式会社岩見建設,,株式会社,奈良県,橿原市,出合町１８５番地の５,,29,205,6340013,,,,,,,2025-07-25,1,,,,,イワミケンセツ,0
769,3150003003668,新規,0,2025-07-25,2025-07-25,合同会社ＨｕｌｕＬａｎｉ,,合同会社,奈良県,香芝市,関屋北４丁目４番２８号,,29,210,6390254,,,,,,,2025-07-25,1,,,,,フルラニ,0
781,3180001167735,新規,0,2025-07-25,2025-07-25,いいねカーズ株式会社,,株式会社,愛知県,名古屋市中村区,名駅３丁目４－１０アルティメイト名駅１ｓｔ２階,,23,105,4500002,,,,,,,2025-07-25,1,,,,,イイネカーズ,0
782,3180001167768,新規,0,2025-07-25,2025-07-25,株式会社プレジール,,株式会社,愛知県,名古屋市中村区,豊国通３丁目１７,,23,105,4530834,,,,,,,2025-07-25,1,,,,,プレジール,0
783,3180001167784,新規,0,2025-07-25,2025-07-25,Ｈｉｎａｔａ株式会社,,株式会社,愛知県,豊明市,阿野町大高道１０－１野村ハイツ３０２,,23,229,4701141,,,,,,,2025-07-25,1,,,,,ヒナタ,0
784,3180001167834,新規,0,2025-07-25,2025-07-25,株式会社夢キャリ,,株式会社,愛知県,名古屋市中区,錦１丁目１７－１３、２Ｆ,,23,106,4600003,,,,,,,2025-07-25,1,,,,,ユメキャリ,0
789,3190001032418,新規,0,2025-07-25,2025-07-25,伊勢麦酒株式会社,,株式会社,三重県,伊勢市,古市町４１番地,,24,203,5160033,,,,,,,2025-07-25,1,,,,,イセビール,0
790,3190001032426,新規,0,2025-07-25,2025-07-25,株式会社ひまわりホールディングス,,株式会社,三重県,四日市市,新正５丁目４番３５－２号,,24,202,5100064,,,,,,,2025-07-25,1,,,,,ヒマワリホールディングス,0
804,3240001065263,新規,0,2025-07-25,2025-07-25,株式会社Ｋ１３,,株式会社,広島県,広島市中区,江波東１丁目１７番１７－３０１号,,34,101,7300832,,,,,,,2025-07-25,1,,,,,ケージュウサン,0
805,3240001065271,新規,0,2025-07-25,2025-07-25,株式会社ＲｅｉＴｅｃｈ,,株式会社,広島県,三原市,小坂町３６２７番地３,,34,204,7230131,,,,,,,2025-07-25,1,,,,,レイテック,0
806,3240003007321,新規,0,2025-07-25,2025-07-25,合同会社末広コーポレーション,,合同会社,広島県,大竹市,小方１丁目７番７号,,34,211,7390623,,,,,,,2025-07-25,1,,,,,スエヒロコーポレーション,0
809,3250001021265,新規,0,2025-07-25,2025-07-25,株式会社ＲｙＤｉｎｇｓ,,株式会社,山口県,周南市,若草町３番２４号アイビークロス１階,,35,215,7450841,,,,,,,2025-07-25,1,,,,,ライディングス,0
811,3250003003781,新規,0,2025-07-25,2025-07-25,合同会社ＡＯＴ,,合同会社,山口県,岩国市,横山３丁目７番６－２号,,35,208,7410081,,,,,,,2025-07-25,1,,,,,エーオーティー,0
815,3290001110832,新規,0,2025-07-25,2025-07-25,株式会社ホープ・ミャンマーＨＲセンター,,株式会社,福岡県,福岡市博多区,吉塚１丁目１９番１号,,40,132,8120041,,,,,,,2025-07-25,1,,,,,ホープミャンマーエイチアールセンター,0
816,3290003017150,新規,0,2025-07-25,2025-07-25,合同会社Ｄｕｅｔｎｏｔｅ,,合同会社,福岡県,福岡市博多区,博多駅前１丁目２３番２号ＰａｒｋＦｒｏｎｔ博多駅前１丁目５Ｆ－Ｂ,,40,132,8120011,,,,,,,2025-07-25,1,,,,,デュエットノート,0
825,3320003004723,新規,0,2025-07-25,2025-07-25,合同会社ＢＬＥＳＳ,,合同会社,大分県,別府市,弓ケ浜町５番２０号,,44,202,8740927,,,,,,,2025-07-25,1,,,,,ブレス,0
827,3330003011140,新規,0,2025-07-25,2025-07-25,合同会社クロスウェイブジャパン,,合同会社,熊本県,熊本市中央区,手取本町３番１４号,,43,101,8600808,,,,,,,2025-07-25,1,,,,,クロスウェイブジャパン,0
829,3350001019670,新規,0,2025-07-25,2025-07-25,ＭＴエンタプライズ株式会社,,株式会社,宮崎県,宮崎市,大字芳士字谷口６９２番地１７,,45,201,8800123,,,,,,,2025-07-25,1,,,,,エムティーエンタプライズ,0
832,3360001035527,新規,0,2025-07-25,2025-07-25,株式会社ルーチェ,,株式会社,沖縄県,宮古島市,平良字西里２２３番地,,47,214,9060012,,,,,,,2025-07-25,1,,,,,ルーチェ,0
833,3360001035535,新規,0,2025-07-25,2025-07-25,株式会社トライ,,株式会社,沖縄県,島尻郡八重瀬町,字長毛２５０番地,,47,362,9010501,,,,,,,2025-07-25,1,,,,,トライ,0
834,3370001052868,新規,0,2025-07-25,2025-07-25,アダプト株式会社,,株式会社,宮城県,仙台市青葉区,中央４丁目４－１９アーバンネット仙台中央ビル２Ｆ　ＹＵＩ　ＮＯＳ内,,04,101,9800021,,,,,,,2025-07-25,1,,,,,アダプト,0
835,3370001052876,新規,0,2025-07-25,2025-07-25,未来エステート株式会社,,株式会社,宮城県,仙台市泉区,南光台１丁目１０番６号,,04,105,9818003,,,,,,,2025-07-25,1,,,,,ミライエステート,0
841,3410001014236,新規,0,2025-07-25,2025-07-25,株式会社ノチカ不動産,,株式会社,秋田県,大仙市,大曲中通町３番８号,,05,212,0140024,,,,,,,2025-07-25,1,,,,,ノチカフドウサン,0
850,3430003017854,新規,0,2025-07-25,2025-07-25,Ｓｔａｒ　Ｗａｖｅ合同会社,,合同会社,北海道,札幌市東区,北九条東１３丁目２番５号,,01,103,0650009,,,,,,,2025-07-25,1,,,,,スターウェーブ,0
869,4010401191838,新規,0,2025-07-25,2025-07-25,Ａｒｉｓｔａ　Ａｕｔｏ　Ｉｎｔｅｒｎａｔｉｏｎａｌ株式会社,,株式会社,東京都,港区,新橋２丁目１１番１０号,,13,103,1050004,,,,,,,2025-07-25,1,,,,,アリスタオートインターナショナル,0
870,4010401191879,新規,0,2025-07-25,2025-07-25,株式会社ゴウタケ,,株式会社,東京都,港区,浜松町２丁目２番１５号浜松町ダイアビル２Ｆ,,13,103,1050013,,,,,,,2025-07-25,1,,,,,ゴウタケ,0
871,4010401191920,新規,0,2025-07-25,2025-07-25,ｉ．Ｍｏｏｎ株式会社,,株式会社,東京都,港区,六本木３丁目１６番１２号六本木ＫＳビル５Ｆ,,13,103,1060032,,,,,,,2025-07-25,1,,,,,アイムーン,0
872,4010401191945,新規,0,2025-07-25,2025-07-25,株式会社Ｅｎｌｉｓ,,株式会社,東京都,港区,浜松町２丁目２番１５号浜松町ダイヤビル２Ｆ,,13,103,1050013,,,,,,,2025-07-25,1,,,,,エンリス,0
873,4010401191961,新規,0,2025-07-25,2025-07-25,ｆｒｕｃｔｕｓ株式会社,,株式会社,東京都,港区,北青山１丁目２番３号青山ビル１２階,,13,103,1070061,,,,,,,2025-07-25,1,,,,,フラクタス,0
874,4010401191978,新規,0,2025-07-25,2025-07-25,ＳＢＩ　Ｃｉｒｃｌｅ　Ｈｏｌｄｉｎｇｓ株式会社,,株式会社,東京都,港区,六本木１丁目６番１号,,13,103,1060032,,,,,,,2025-07-25,1,,,,,エスビーアイサークルホールディングス,0
875,4010401192010,新規,0,2025-07-25,2025-07-25,芳山株式会社,,株式会社,東京都,港区,六本木４丁目３番１１－２１４号六本木ユニハウス,,13,103,1060032,,,,,,,2025-07-25,1,,,,,ヨシヤマ,0
879,4010403035646,新規,0,2025-07-25,2025-07-25,合同会社ＢＲＢＫ,,合同会社,東京都,港区,高輪４丁目１８番２０号コトー高輪１０２号室,,13,103,1080074,,,,,,,2025-07-25,1,,,,,ビルベック,0
880,4010403035654,新規,0,2025-07-25,2025-07-25,パートナーシップインベストメント合同会社,,合同会社,東京都,港区,六本木１丁目４番５号,,13,103,1060032,,,,,,,2025-07-25,1,,,,,パートナーシップインベストメント,0
881,4010405024589,新規,0,2025-07-25,2025-07-25,ＰＪＭＦ　Ｖｅｇａ一般社団法人,,その他の設立登記法人,東京都,港区,元赤坂１丁目１番７－８０７号,,13,103,1070051,,,,,,,2025-07-25,1,,,,,ピージェイエムエフベガ,0
883,4010601067672,新規,0,2025-07-25,2025-07-25,株式会社岩本,,株式会社,東京都,墨田区,江東橋３丁目１番１１号６０２号室,,13,107,1300022,,,,,,,2025-07-25,1,,,,,イワモト,0
887,4010801036411,新規,0,2025-07-25,2025-07-25,Ｔｒａｉｌ‐Ｇｏ株式会社,,株式会社,東京都,大田区,北糀谷１丁目１０番１０号,,13,111,1440032,,,,,,,2025-07-25,1,,,,,トレイルゴー,0
891,4010903010116,新規,0,2025-07-25,2025-07-25,ユニティオルタス合同会社,,合同会社,東京都,世田谷区,羽根木１丁目１７番８号,,13,112,1560042,,,,,,,2025-07-25,1,,,,,ユニティオルタス,0
892,4010903010132,新規,0,2025-07-25,2025-07-25,合同会社晴,,合同会社,東京都,世田谷区,等々力８丁目２６番２３―１０５,,13,112,1580082,,,,,,,2025-07-25,1,,,,,ハレ,0
894,4011001170629,新規,0,2025-07-25,2025-07-25,株式会社Ｔｈｅｒｍｏ　Ｄｅｓｉｇｎ　Ｓｔｕｄｉｏ,,株式会社,東京都,渋谷区,恵比寿西２丁目８番４号ＥＸ恵比寿西ビル５階,,13,113,1500021,,,,,,,2025-07-25,1,,,,,サーモデザインスタジオ,0
895,4011001171008,新規,0,2025-07-25,2025-07-25,株式会社ＳＯＵＮＤ,,株式会社,東京都,渋谷区,円山町５番５号Ｎａｖｉ渋谷Ｖ３階,,13,113,1500044,,,,,,,2025-07-25,1,,,,,サウンド,0
896,4011001171445,新規,0,2025-07-25,2025-07-25,株式会社ｕｎｂｖｉａ,,株式会社,東京都,渋谷区,恵比寿西２丁目８番４号ＥＸ恵比寿西ビル５階,,13,113,1500021,,,,,,,2025-07-25,1,,,,,アンヴィア,0
899,4011003022051,新規,0,2025-07-25,2025-07-25,合同会社ＦＵＳＩＯＮＹＸ,,合同会社,東京都,渋谷区,神南１丁目１１－４ＦＰＧリンクス神南５階,,13,113,1500041,,,,,,,2025-07-25,1,,,,,,0
906,4011101112547,新規,0,2025-07-25,2025-07-25,株式会社Ａｌａｎ　Ｓｍｉｔｈｅｅ　Ｆｉｌｍ,,株式会社,東京都,新宿区,西新宿３丁目３番１３号西新宿水間ビル６階,,13,104,1600023,,,,,,,2025-07-25,1,,,,,アランスミシーフィルム,0
908,4011501032345,新規,0,2025-07-25,2025-07-25,神舟株式会社,,株式会社,東京都,荒川区,南千住１丁目１５－６－１０１,,13,118,1160003,,,,,,,2025-07-25,1,,,,,シンシュウ,0
912,4012301014475,新規,0,2025-07-25,2025-07-25,株式会社意識と身体研究所,,株式会社,東京都,町田市,金森東４丁目１９番１１号,,13,209,1940015,,,,,,,2025-07-25,1,,,,,イシキトカラダケンキュウジョ,0
915,4012701018976,新規,0,2025-07-25,2025-07-25,えーす株式会社,,株式会社,東京都,西東京市,芝久保町１丁目１２番６６－３４０号,,13,229,1880014,,,,,,,2025-07-25,1,,,,,エース,0
917,4012803003802,新規,0,2025-07-25,2025-07-25,ＭＡ合同会社,,合同会社,東京都,立川市,錦町６丁目１０番１９号コーポ寿楽１階１－２号室,,13,202,1900022,,,,,,,2025-07-25,1,,,,,エムエイ,0
918,4013101009756,新規,0,2025-07-25,2025-07-25,株式会社ＳＫＳ,,株式会社,東京都,羽村市,富士見平１丁目１３番地１アルテーア羽村１０３,,13,227,2050013,,,,,,,2025-07-25,1,,,,,エスケイエス,0
921,4013301054668,新規,0,2025-07-25,2025-07-25,株式会社ベース匠,,株式会社,東京都,豊島区,巣鴨５丁目３２番６号ハイツひろ３０１号,,13,116,1700002,,,,,,,2025-07-25,1,,,,,ベースタクミ,0
922,4013303007756,新規,0,2025-07-25,2025-07-25,合同会社イトマン,,合同会社,東京都,豊島区,南長崎１丁目１番１２号アスペンハイツ２０２号,,13,116,1710052,,,,,,,2025-07-25,1,,,,,イトマン,0
923,4013303007780,新規,0,2025-07-25,2025-07-25,オウル企画合同会社,,合同会社,東京都,豊島区,東池袋２丁目６２番８号ＢＩＧオフィスプラザ池袋１２０６,,13,116,1700013,,,,,,,2025-07-25,1,,,,,オウルキカク,0
929,4020001163765,新規,0,2025-07-25,2025-07-25,株式会社ＦＬｅｘ　Ａｃａｄｅｍｙ,,株式会社,神奈川県,川崎市多摩区,登戸２５２５－５秀心ビル２０２,,14,135,2140014,,,,,,,2025-07-25,1,,,,,フレックスアカデミー,0
930,4020001164029,新規,0,2025-07-25,2025-07-25,ＫＥＰＥ株式会社,,株式会社,神奈川県,川崎市高津区,坂戸３丁目２番１号,,14,134,2130012,,,,,,,2025-07-25,1,,,,,ケペ,0
932,4020003028982,新規,0,2025-07-25,2025-07-25,ぼん鍼灸マッサージ接骨院合同会社,,合同会社,神奈川県,横浜市鶴見区,豊岡町４０番１３号トヨオカ吉田ビル１階左側,,14,101,2300062,,,,,,,2025-07-25,1,,,,,ボンシンキュウマッサージセッコツイン,0
937,4021001085883,新規,0,2025-07-25,2025-07-25,株式会社永野設備,,株式会社,神奈川県,相模原市南区,東大沼２丁目１８番３号,,14,153,2520333,,,,,,,2025-07-25,1,,,,,ナガノセツビ,0
938,4021001085891,新規,0,2025-07-25,2025-07-25,株式会社ＡＲＡＴＡＫＡ,,株式会社,神奈川県,座間市,相模が丘５丁目５番７－７０５号ブリリア小田急相模原,,14,216,2520001,,,,,,,2025-07-25,1,,,,,アラタカ,0
939,4021001085900,新規,0,2025-07-25,2025-07-25,株式会社ＤＨＴ　ＪＡＰＡＮ,,株式会社,神奈川県,横須賀市,神明町１番地５２,,14,201,2390832,,,,,,,2025-07-25,1,,,,,ディーエイチティージャパン,0
952,4030001167708,新規,0,2025-07-25,2025-07-25,株式会社笑糸,,株式会社,埼玉県,所沢市,有楽町１０番６号,,11,208,3591117,,,,,,,2025-07-25,1,,,,,エミイト,0
953,4030001167740,新規,0,2025-07-25,2025-07-25,株式会社ＭＲＭ,,株式会社,埼玉県,鴻巣市,筑波２丁目８番２３－１号,,11,217,3690114,,,,,,,2025-07-25,1,,,,,,0
954,4030001167781,新規,0,2025-07-25,2025-07-25,株式会社Ｒｅｔｕｒｎ,,株式会社,埼玉県,草加市,中根３丁目１１番７号グリーンハイツ１０１号,,11,221,3400005,,,,,,,2025-07-25,1,,,,,リターン,0
961,4040001139821,新規,0,2025-07-25,2025-07-25,株式会社セイレーン,,株式会社,千葉県,柏市,東１丁目２番４５号サンライズイシド２０２,,12,217,2770014,,,,,,,2025-07-25,1,,,,,セイレーン,0
963,4040003028056,新規,0,2025-07-25,2025-07-25,合同会社シャルム・Ｉ,,合同会社,千葉県,山武郡芝山町,大里１４０８番地,,12,409,2891603,,,,,,,2025-07-25,1,,,,,シャルムアイ,0
970,4050001056966,新規,0,2025-07-25,2025-07-25,株式会社エイティアイ,,株式会社,茨城県,土浦市,文京町１－５０,,08,203,3000045,,,,,,,2025-07-25,1,,,,,エイティアイ,0
971,4050001056982,新規,0,2025-07-25,2025-07-25,ＳＡＴＶＩＫ　ＩＮＴＥＲＮＡＴＩＯＮＡＬ株式会社,,株式会社,茨城県,筑西市,丙１０２番地,,08,227,3080031,,,,,,,2025-07-25,1,,,,,サトビクインターナショナル,0
973,4050003009435,新規,0,2025-07-25,2025-07-25,合同会社Ｆｉｒｓｔ,,合同会社,茨城県,鹿嶋市,大字宮中２３６３番地１エルヴィーナ宮中Ａ２０２,,08,222,3140031,,,,,,,2025-07-25,1,,,,,ファースト,0
974,4050003009443,新規,0,2025-07-25,2025-07-25,合同会社サイバーツインズ,,合同会社,茨城県,取手市,白山８丁目８番１７－８号,,08,217,3020023,,,,,,,2025-07-25,1,,,,,サイバーツインズ,0
978,4080101025678,新規,0,2025-07-25,2025-07-25,株式会社ＫＡＮＡＭＥ,,株式会社,静岡県,富士市,厚原１９０５番地の２,,22,210,4190201,,,,,,,2025-07-25,1,,,,,カナメ,0
991,4090001019399,新規,0,2025-07-25,2025-07-25,賢秋冷送株式会社,,株式会社,山梨県,笛吹市,石和町小石和１３８番地２４,,19,211,4060033,,,,,,,2025-07-25,1,,,,,ケンシュウレイソウ,0
992,4090003002865,新規,0,2025-07-25,2025-07-25,オーエヌエム合同会社,,合同会社,山梨県,甲州市,勝沼町等々力２３２８番地１０,,19,213,4091315,,,,,,,2025-07-25,1,,,,,オーエヌエム,0
1006,4120001277803,新規,0,2025-07-25,2025-07-25,株式会社リフロール,,株式会社,大阪府,大阪市北区,梅田１丁目２番２号大阪駅前第２ビル１２－１２,,27,127,5300001,,,,,,,2025-07-25,1,,,,,リフロール,0
1007,4120001278074,新規,0,2025-07-25,2025-07-25,株式会社玉井興業,,株式会社,大阪府,大阪市住吉区,山之内１丁目２３番２１－３０１号,,27,120,5580023,,,,,,,2025-07-25,1,,,,,タマイコウギョウ,0
1008,4120001278108,新規,0,2025-07-25,2025-07-25,和心株式会社,,株式会社,大阪府,大阪市西成区,花園北１丁目７番１４号４０２－Ａ号室,,27,122,5570016,,,,,,,2025-07-25,1,,,,,ワシン,0
1009,4120001278116,新規,0,2025-07-25,2025-07-25,凱業株式会社,,株式会社,大阪府,大阪市東成区,深江北３丁目４番２１号エクラ深江橋６１２Ａ,,27,115,5370001,,,,,,,2025-07-25,1,,,,,カイギョウ,0
1010,4120001278124,新規,0,2025-07-25,2025-07-25,ＬＹＬ株式会社,,株式会社,大阪府,大阪市住吉区,清水丘３丁目６番１７号清水丘アパートＢ棟２０１号,,27,120,5580033,,,,,,,2025-07-25,1,,,,,エルワイエル,0
1011,4120001278132,新規,0,2025-07-25,2025-07-25,至開株式会社,,株式会社,大阪府,大阪市西成区,萩之茶屋２丁目６番４－２２０号,,27,122,5570004,,,,,,,2025-07-25,1,,,,,シカイ,0
1012,4120001278140,新規,0,2025-07-25,2025-07-25,株式会社Ｐｏｎｓｈｅｂｅ,,株式会社,大阪府,大阪市中央区,松屋町３番２２号５Ｄ,,27,128,5420067,,,,,,,2025-07-25,1,,,,,ポンシェビ,0
1013,4120001278149,新規,0,2025-07-25,2025-07-25,株式会社竹本鶴鳴會,,株式会社,大阪府,大阪市中央区,西心斎橋２丁目１８番１２号,,27,128,5420086,,,,,,,2025-07-25,1,,,,,タケモトカクメイカイ,0
1014,4120001278157,新規,0,2025-07-25,2025-07-25,株式会社福禄,,株式会社,大阪府,大阪市旭区,大宮１丁目２１番１６号,,27,117,5350002,,,,,,,2025-07-25,1,,,,,フクロク,0
1015,4120001278173,新規,0,2025-07-25,2025-07-25,株式会社ＳＥＯ,,株式会社,大阪府,守口市,藤田町５丁目４－１４,,27,209,5700014,,,,,,,2025-07-25,1,,,,,エスイーオー,0
1017,4120003030094,新規,0,2025-07-25,2025-07-25,合同会社ＡＰリフォーム,,合同会社,大阪府,大阪市住之江区,御崎２丁目１２番２９号,,27,125,5590013,,,,,,,2025-07-25,1,,,,,エーピーリフォーム,0
1018,4120003030103,新規,0,2025-07-25,2025-07-25,ルセット合同会社,,合同会社,大阪府,大阪市北区,梅田１丁目２番２号大阪駅前第２ビル１２－１２,,27,127,5300001,,,,,,,2025-07-25,1,,,,,ルセット,0
1019,4120101072121,新規,0,2025-07-25,2025-07-25,株式会社クラッチポイント,,株式会社,大阪府,堺市美原区,小平尾１０５１番地１２,,27,147,5870021,,,,,,,2025-07-25,1,,,,,クラッチポイント,0
1020,4120101072170,新規,0,2025-07-25,2025-07-25,株式会社そら,,株式会社,大阪府,松原市,天美北３丁目１６番１９号,,27,217,5800031,,,,,,,2025-07-25,1,,,,,ソラ,0
1025,4120903005773,新規,0,2025-07-25,2025-07-25,合同会社テラリオ,,合同会社,大阪府,吹田市,江坂町１丁目１２－７－１００３,,27,205,5640063,,,,,,,2025-07-25,1,,,,,テラリオ,0
1027,4122001039448,新規,0,2025-07-25,2025-07-25,株式会社Ｍ．ＷＡＬＬ,,株式会社,大阪府,八尾市,久宝園２丁目７１番地の３,,27,212,5810817,,,,,,,2025-07-25,1,,,,,エムウォール,0
1033,4130001080157,新規,0,2025-07-25,2025-07-25,株式会社ＡＷＳ,,株式会社,京都府,京都市中京区,六角通室町西入玉蔵町１３０番地スペリオン四条烏丸４０６号室,,26,104,6048211,,,,,,,2025-07-25,1,,,,,エーダブリュエス,0
1034,4130001080215,新規,0,2025-07-25,2025-07-25,株式会社丸興エステート,,株式会社,京都府,京都市伏見区,瀬戸物町７１５番地１アーバンハイツ桃山２１０号,,26,109,6128052,,,,,,,2025-07-25,1,,,,,マルコウエステート,0
1036,4130003010632,新規,0,2025-07-25,2025-07-25,合同会社月光海山八紘一宇,,合同会社,京都府,綾部市,舘町下舘７７番地,,26,203,6230232,,,,,,,2025-07-25,1,,,,,ゲッコウカイザンハッコウイチウ,0
1040,4140001139398,新規,0,2025-07-25,2025-07-25,株式会社ＡＬＰＨＡ　ＷＡＫＥ,,株式会社,兵庫県,芦屋市,東山町２９番１２号,,28,206,6590091,,,,,,,2025-07-25,1,,,,,アルファウェイク,0
1042,4140005027574,新規,0,2025-07-25,2025-07-25,一般社団法人旅するおと,,その他の設立登記法人,兵庫県,神戸市垂水区,舞子台３丁目１２番２－１０６号,,28,108,6550046,,,,,,,2025-07-25,1,,,,,タビスルオト,0
1043,4150001028286,新規,0,2025-07-25,2025-07-25,株式会社アクアシステムウィンロック,,株式会社,奈良県,奈良市,法華寺町２８０－１コンフォース１０６,,29,201,6308001,,,,,,,2025-07-25,1,,,,,アクアシステムウィンロック,0
1044,4160001026917,新規,0,2025-07-25,2025-07-25,株式会社ｉｒｏｄｏｒｉ,,株式会社,滋賀県,草津市,南草津１丁目３－２太陽プラザ南草津駅前１０１０号室,,25,206,5250050,,,,,,,2025-07-25,1,,,,,イロドリ,0
1045,4160001026933,新規,0,2025-07-25,2025-07-25,株式会社育農舎,,株式会社,滋賀県,蒲生郡日野町,大字音羽３９０番地,,25,383,5291626,,,,,,,2025-07-25,1,,,,,イクノウシャ,0
1046,4160005011428,新規,0,2025-07-25,2025-07-25,一般社団法人湖国文化芸術機構,,その他の設立登記法人,滋賀県,大津市,打出浜２－１コラボしが２１－１階ＢｉｚＢａｓｅコラボ２１－Ｂ２５,,25,201,5200806,,,,,,,2025-07-25,1,,,,,ココクブンカゲイジュツキコウ,0
1053,4180001167718,新規,0,2025-07-25,2025-07-25,アルシャリフトレーディング株式会社,,株式会社,愛知県,一宮市,三ツ井５丁目２番３０号,,23,203,4910827,,,,,,,2025-07-25,1,,,,,アルシャリフトレーディング,0
1063,4190001032417,新規,0,2025-07-25,2025-07-25,株式会社グランドベース,,株式会社,三重県,四日市市,河原田町３８９９番地４,,24,202,5100874,,,,,,,2025-07-25,1,,,,,グランドベース,0
1064,4190003005123,新規,0,2025-07-25,2025-07-25,合同会社ＴＮＣＹランド,,合同会社,三重県,津市,大里野田町５９７番地,,24,201,5140122,,,,,,,2025-07-25,1,,,,,ティーエヌシーワイランド,0
1065,4200001044071,新規,0,2025-07-25,2025-07-25,株式会社トーシンサービス,,株式会社,岐阜県,大垣市,平町２９番地,,21,202,5030841,,,,,,,2025-07-25,1,,,,,トーシンサービス,0
1073,4230001021010,新規,0,2025-07-25,2025-07-25,株式会社Ｈｏｎｅｙ　Ｃｏｍｂ,,株式会社,富山県,射水市,八幡町３丁目１４番４０号,,16,211,9340025,,,,,,,2025-07-25,1,,,,,ハニカム,0
1081,4260001040387,新規,0,2025-07-25,2025-07-25,株式会社片岡産業,,株式会社,岡山県,笠岡市,新賀３８３番地,,33,205,7140005,,,,,,,2025-07-25,1,,,,,カタオカサンギョウ,0
1082,4260003005272,新規,0,2025-07-25,2025-07-25,ＳＦＫＫパートナーズ合同会社,,合同会社,岡山県,笠岡市,笠岡２４８１番地１６,,33,205,7140081,,,,,,,2025-07-25,1,,,,,エスエフケーケーパートナーズ,0
1085,4280003001971,新規,0,2025-07-25,2025-07-25,ＫＫインサイトパートナーズ合同会社,,合同会社,島根県,松江市,東出雲町意宇南１丁目６番地１０,,32,201,6990111,,,,,,,2025-07-25,1,,,,,ケイケイインサイトパートナーズ,0
1089,4290001110757,新規,0,2025-07-25,2025-07-25,ｄａｙ株式会社,,株式会社,福岡県,大野城市,白木原１丁目１１番３号－２Ｆ,,40,219,8160943,,,,,,,2025-07-25,1,,,,,デイ,0
1090,4290001110831,新規,0,2025-07-25,2025-07-25,株式会社マイルド,,株式会社,福岡県,福岡市早良区,西新１丁目１２番２０号,,40,137,8140002,,,,,,,2025-07-25,1,,,,,マイルド,0
1091,4290003017141,新規,0,2025-07-25,2025-07-25,合同会社Ｅｉｆｅｒ,,合同会社,福岡県,福岡市早良区,室見３丁目１番１９号,,40,137,8140015,,,,,,,2025-07-25,1,,,,,アイファー,0
1092,4290003017158,新規,0,2025-07-25,2025-07-25,合同会社ＮＩＴ,,合同会社,福岡県,太宰府市,朱雀４丁目１７番１２号,,40,221,8180103,,,,,,,2025-07-25,1,,,,,エヌアイティー,0
1100,4310001019707,新規,0,2025-07-25,2025-07-25,株式会社ＤＫ,,株式会社,長崎県,長崎市,岩川町７番１０－６０１号,,42,201,8528106,,,,,,,2025-07-25,1,,,,,ディーケイ,0
1101,4320003004722,新規,0,2025-07-25,2025-07-25,ニューモ合同会社,,合同会社,大分県,大分市,金池町２丁目１番１０号,,44,201,8700026,,,,,,,2025-07-25,1,,,,,ニューモ,0
1102,4340001027533,新規,0,2025-07-25,2025-07-25,株式会社ヤナギ,,株式会社,鹿児島県,肝属郡肝付町,北方１８７５番地８,,46,492,8931401,,,,,,,2025-07-25,1,,,,,ヤナギ,0
1104,4350003004991,新規,0,2025-07-25,2025-07-25,合同会社Ｍ・Ｋ・ｃｏｎｓｔｒｕｃｔｉｏｎ,,合同会社,宮崎県,都城市,小松原町１１４１番９,,45,202,8850022,,,,,,,2025-07-25,1,,,,,エムケイコンストラクション,0
1106,4360001035526,新規,0,2025-07-25,2025-07-25,ＢＡＬＩ　ＯＫＩＮＡＷＡ株式会社,,株式会社,沖縄県,那覇市,曙２丁目２３－９,,47,201,9000002,,,,,,,2025-07-25,1,,,,,バリオキナワ,0
1110,4370001052867,新規,0,2025-07-25,2025-07-25,株式会社ＪＣＩウエスト,,株式会社,宮城県,富谷市,成田１丁目５番地３,,04,216,9813341,,,,,,,2025-07-25,1,,,,,ジェーシーアイウエスト,0
1117,4390001018065,新規,0,2025-07-25,2025-07-25,株式会社ＨＡＲＤＥＮ,,株式会社,山形県,天童市,大字原町甲１８番地,,06,210,9940055,,,,,,,2025-07-25,1,,,,,ハーデン,0
1119,4430001094886,新規,0,2025-07-25,2025-07-25,株式会社Ｓａｍｕｒａｉ　Ｃｏｎｃｉｅｒｇｅ,,株式会社,北海道,虻田郡真狩村,字光３９番地１８,,01,396,0481611,,,,,,,2025-07-25,1,,,,,サムライコンシェルジュ,0
1120,4430001094944,新規,0,2025-07-25,2025-07-25,株式会社蝦名,,株式会社,北海道,札幌市北区,新琴似十二条１６丁目１０‐９,,01,102,0010912,,,,,,,2025-07-25,1,,,,,エビナ,0
1122,4430003017903,新規,0,2025-07-25,2025-07-25,合同会社ソラリス北見,,合同会社,北海道,札幌市北区,屯田七条１１丁目１２番１７号,,01,102,0020857,,,,,,,2025-07-25,1,,,,,ソラリスキタミ,0
1133,5010001256453,新規,0,2025-07-25,2025-07-25,ＩＶホールディングス株式会社,,株式会社,東京都,千代田区,神田須田町１丁目７番８号２階,,13,101,1010041,,,,,,,2025-07-25,1,,,,,アイビーホールディングス,0
1134,5010001257088,新規,0,2025-07-25,2025-07-25,株式会社ＩｎＹｕａｎ,,株式会社,東京都,中央区,銀座１丁目１２－４Ｎ＆ＥＢＬＤ．７階,,13,102,1040061,,,,,,,2025-07-25,1,,,,,インユアン,0
1135,5010001257195,新規,0,2025-07-25,2025-07-25,株式会社ヤグラ,,株式会社,東京都,千代田区,大手町１丁目５－１大手町ファーストスクエアイーストタワー４Ｆ,,13,101,1000004,,,,,,,2025-07-25,1,,,,,ヤグラ,0
1144,5010401191630,新規,0,2025-07-25,2025-07-25,ＳＵＧＯＹ株式会社,,株式会社,東京都,港区,北青山２丁目７番１７,,13,103,1070061,,,,,,,2025-07-25,1,,,,,スゴイ,0
1145,5010401192018,新規,0,2025-07-25,2025-07-25,シビックワークス株式会社,,株式会社,東京都,港区,赤坂２丁目１６－５－３０１,,13,103,1070052,,,,,,,2025-07-25,1,,,,,シビックワークス,0
1146,5010403035645,新規,0,2025-07-25,2025-07-25,イデアインベストメント合同会社,,合同会社,東京都,港区,六本木３丁目１６番１２号六本木ＫＳビル５階,,13,103,1060032,,,,,,,2025-07-25,1,,,,,イデアインベストメント,0
1147,5010405024539,新規,0,2025-07-25,2025-07-25,ＳＣＧ５５特定目的会社,,その他の設立登記法人,東京都,港区,虎ノ門２丁目６番１号,,13,103,1050001,,,,,,,2025-07-25,1,,,,,エスシージーフィフティファイブ,0
1152,5010801036410,新規,0,2025-07-25,2025-07-25,ＫＢインターナショナル株式会社,,株式会社,東京都,大田区,東矢口３丁目２５番３号マドレーヌ東矢口４０１,,13,111,1460094,,,,,,,2025-07-25,1,,,,,ケービーインターナショナル,0
1153,5010803005479,新規,0,2025-07-25,2025-07-25,合同会社Ｆｅａｔｈｅｒ　Ｔｏｕｃｈ,,合同会社,東京都,大田区,仲六郷３丁目５番８号グランドール白井２０２,,13,111,1440055,,,,,,,2025-07-25,1,,,,,フェザータッチ,0
1156,5010903010123,新規,0,2025-07-25,2025-07-25,合同会社ｔｉｎｙ　ｋｏｕｇｅｉ,,合同会社,東京都,世田谷区,松原４丁目２９番１０号松原シティハウス１０４,,13,112,1560043,,,,,,,2025-07-25,1,,,,,タイニーコウゲイ,0
1157,5010903010131,新規,0,2025-07-25,2025-07-25,合同会社円満,,合同会社,東京都,世田谷区,南烏山１丁目１４番２８号,,13,112,1570062,,,,,,,2025-07-25,1,,,,,エンマン,0
1164,5011001170990,新規,0,2025-07-25,2025-07-25,株式会社カルトラーレ,,株式会社,東京都,渋谷区,神南１丁目１１番４号ＦＰＧリンクス神南５階,,13,113,1500041,,,,,,,2025-07-25,1,,,,,カルトラーレ,0
1165,5011001171007,新規,0,2025-07-25,2025-07-25,Ｊａｐａｎ　Ｅｎｔｅｒｔａｉｎｅｒ　Ａｃａｄｅｍｙ株式会社,,株式会社,東京都,目黒区,上目黒１丁目１６番１２号２０１Ａ号室,,13,110,1530051,,,,,,,2025-07-25,1,,,,,ジャパンエンターテイナーアカデミー,0
1166,5011001171031,新規,0,2025-07-25,2025-07-25,株式会社三浦麻友子事務所,,株式会社,東京都,渋谷区,道玄坂１丁目１６－６二葉ビル８ｂ,,13,113,1500043,,,,,,,2025-07-25,1,,,,,ミウラマユコジムショ,0
1167,5011003022042,新規,0,2025-07-25,2025-07-25,合同会社ハート光,,合同会社,東京都,渋谷区,渋谷３丁目７－１高山ランド第１２ビル,,13,113,1500002,,,,,,,2025-07-25,1,,,,,,0
1168,5011003022182,新規,0,2025-07-25,2025-07-25,Ｉｎｔｅｒｎａｔｉｏｎａｌ　Ｃａｔ　Ｓｔｕｄｉｏｓ合同会社,,合同会社,東京都,渋谷区,神泉町２０番２１号クロスシー渋谷神泉ビル７－０２号室,,13,113,1500045,,,,,,,2025-07-25,1,,,,,インターナショナルキャットスタジオ,0
1169,5011005011092,新規,0,2025-07-25,2025-07-25,一般社団法人日本小顔美容協会,,その他の設立登記法人,東京都,渋谷区,大山町２３番１号,,13,113,1510065,,,,,,,2025-07-25,1,,,,,ニホンコガオビヨウキョウカイ,0
1179,5011501032344,新規,0,2025-07-25,2025-07-25,株式会社ＥＪ　ａｓｓｉｓｔ,,株式会社,東京都,荒川区,西日暮里６丁目４２番２号インプルーブ西日暮里１２０２,,13,118,1160013,,,,,,,2025-07-25,1,,,,,イイジェイアシスト,0
1180,5011701028563,新規,0,2025-07-25,2025-07-25,Ｂｅｄｄｅｄｅｎｙｕ株式会社,,株式会社,東京都,江戸川区,北小岩８丁目２６－１－２１０室,,13,123,1330051,,,,,,,2025-07-25,1,,,,,ベッデデンユ,0
1188,5011803006979,新規,0,2025-07-25,2025-07-25,秋山アーキテクト合同会社,,合同会社,東京都,足立区,西新井栄町３丁目４番１１号,,13,121,1230843,,,,,,,2025-07-25,1,,,,,アキヤマアーキテクト,0
1191,5012801024130,新規,0,2025-07-25,2025-07-25,株式会社オリジントランス,,株式会社,東京都,武蔵村山市,中原１丁目１０番地の２,,13,223,2080035,,,,,,,2025-07-25,1,,,,,オリジントランス,0
1197,5020001163863,新規,0,2025-07-25,2025-07-25,株式会社創心,,株式会社,神奈川県,横浜市港北区,鳥山町６４８番地１０３,,14,109,2220035,,,,,,,2025-07-25,1,,,,,ソウシン,0
1198,5020001163913,新規,0,2025-07-25,2025-07-25,株式会社エムペグ,,株式会社,神奈川県,川崎市高津区,梶ケ谷２丁目３番地５梶ヶ谷リベール５０７,,14,134,2130015,,,,,,,2025-07-25,1,,,,,エムペグ,0
1199,5020003029047,新規,0,2025-07-25,2025-07-25,合同会社Ａｌｔｒｕ,,合同会社,神奈川県,横浜市戸塚区,吉田町７７８‐１０‐１４０,,14,110,2440817,,,,,,,2025-07-25,1,,,,,アルトル,0
1215,5030001167748,新規,0,2025-07-25,2025-07-25,株式会社ブルースカイ,,株式会社,埼玉県,行田市,中央１９番１６号,,11,206,3610078,,,,,,,2025-07-25,1,,,,,ブルースカイ,0
1220,5030003027264,新規,0,2025-07-25,2025-07-25,合同会社遊楽舎,,合同会社,埼玉県,日高市,大字南平沢２３１番地４,,11,242,3501206,,,,,,,2025-07-25,1,,,,,ユウラクシャ,0
1230,5050003009442,新規,0,2025-07-25,2025-07-25,合同会社青空,,合同会社,茨城県,小美玉市,西郷地１３４６番地２４５,,08,236,3190102,,,,,,,2025-07-25,1,,,,,アオゾラ,0
1240,5090001019398,新規,0,2025-07-25,2025-07-25,株式会社天神フューチャーコネクト,,株式会社,山梨県,都留市,上谷６丁目１１－１３,,19,204,4020053,,,,,,,2025-07-25,1,,,,,テンジンフューチャーコネクト,0
1260,5120001278115,新規,0,2025-07-25,2025-07-25,大吉株式会社,,株式会社,大阪府,大阪市東住吉区,今川８丁目５番３４号常磐ビル２０１号室,,27,121,5460003,,,,,,,2025-07-25,1,,,,,ダイキチ,0
1261,5120001278123,新規,0,2025-07-25,2025-07-25,株式会社Ｅｃｏ　Ｓｔａｔｉｏｎ,,株式会社,大阪府,大阪市中央区,博労町１丁目５－８－５０２,,27,128,5410059,,,,,,,2025-07-25,1,,,,,エコステーション,0
1262,5120001278164,新規,0,2025-07-25,2025-07-25,株式会社３９Ｓアセット,,株式会社,大阪府,大阪市中央区,今橋３丁目２番２－９０３号,,27,128,5410042,,,,,,,2025-07-25,1,,,,,サンクスアセット,0
1263,5120001278172,新規,0,2025-07-25,2025-07-25,株式会社ＡＲＣＡＴＨ,,株式会社,大阪府,大阪市淀川区,三国本町１丁目１６番２７－１１１７号,,27,123,5320005,,,,,,,2025-07-25,1,,,,,アルカス,0
1264,5120001278180,新規,0,2025-07-25,2025-07-25,株式会社ｈｉｎａｐｉｎ,,株式会社,大阪府,大阪市西区,江戸堀１丁目２５番２５－１１０１,,27,106,5500002,,,,,,,2025-07-25,1,,,,,ヒナピン,0
1265,5120001278230,新規,0,2025-07-25,2025-07-25,株式会社ＯＭ,,株式会社,大阪府,大阪市西成区,南津守３丁目１０番４号,,27,122,5570063,,,,,,,2025-07-25,1,,,,,オーウム,0
1266,5120001278296,新規,0,2025-07-25,2025-07-25,株式会社ＫＡＮＡＤＥ,,株式会社,大阪府,大阪市都島区,都島本通１丁目７－１９楠風ビル５０２,,27,102,5340021,,,,,,,2025-07-25,1,,,,,カナデ,0
1268,5120003030110,新規,0,2025-07-25,2025-07-25,訪問介護よろこび合同会社,,合同会社,大阪府,大阪市住之江区,御崎１丁目９－２２,,27,125,5590013,,,,,,,2025-07-25,1,,,,,ホウモンカイゴヨロコビ,0
1271,5120101072145,新規,0,2025-07-25,2025-07-25,ＬＥＡＬＥ株式会社,,株式会社,大阪府,堺市堺区,田出井町１番２－３１０７号,,27,141,5900014,,,,,,,2025-07-25,1,,,,,レアーレ,0
1291,5140003022337,新規,0,2025-07-25,2025-07-25,ＡＴＤ　Ｓｏｌｕｔｉｏｎ　Ｊａｐａｎ合同会社,,合同会社,兵庫県,神戸市中央区,下山手通２丁目１３番３号建創ビル９Ｆ,,28,110,6500011,,,,,,,2025-07-25,1,,,,,エーティーディーソリューションジャパン,0
1293,5170001018730,新規,0,2025-07-25,2025-07-25,株式会社ハザマ,,株式会社,和歌山県,和歌山市,西田井１６０番地１９,,30,201,6496335,,,,,,,2025-07-25,1,,,,,ハザマ,0
1298,5180001167766,新規,0,2025-07-25,2025-07-25,株式会社三川,,株式会社,愛知県,名古屋市中村区,名駅４丁目２４－５第２森ビル４０１,,23,105,4500002,,,,,,,2025-07-25,1,,,,,ミカワ,0
1299,5180001167881,新規,0,2025-07-25,2025-07-25,株式会社Ｆｅｌｕｎａ,,株式会社,愛知県,名古屋市中区,平和２丁目１３番２６号ダイアパレス東別院第２、８０４号,,23,106,4600021,,,,,,,2025-07-25,1,,,,,フェルナ,0
1300,5180001167931,新規,0,2025-07-25,2025-07-25,サムライズ株式会社,,株式会社,愛知県,名古屋市中川区,十番町３丁目２番地の１,,23,110,4540055,,,,,,,2025-07-25,1,,,,,サムライズ,0
1302,5180003028768,新規,0,2025-07-25,2025-07-25,ＮＮ．Ｓｔｕｄｉｏ合同会社,,合同会社,愛知県,名古屋市中川区,昭明町２丁目４９番地の３（松葉第一マンション３０７号）,,23,110,4540855,,,,,,,2025-07-25,1,,,,,エヌエヌスタジオ,0
1311,5190001032416,新規,0,2025-07-25,2025-07-25,株式会社ＡＸＥＬ　ＴＲＡＤＩＮＧ,,株式会社,三重県,津市,あのつ台３丁目２７番地４,,24,201,5140131,,,,,,,2025-07-25,1,,,,,アクセルトレーディング,0
1314,5200001044070,新規,0,2025-07-25,2025-07-25,ｎａｎａ‐ｃｒｅａｔｅ株式会社,,株式会社,岐阜県,関市,笠屋２丁目９９番地,,21,205,5013910,,,,,,,2025-07-25,1,,,,,ナナクリエイト,0
1333,5240001065278,新規,0,2025-07-25,2025-07-25,株式会社武田組,,株式会社,広島県,広島市安佐北区,落合南４丁目１５番３１号,,34,106,7391732,,,,,,,2025-07-25,1,,,,,タケダグミ,0
1334,5240001065286,新規,0,2025-07-25,2025-07-25,株式会社山拓,,株式会社,広島県,広島市西区,南観音町１５番１１号,,34,104,7330034,,,,,,,2025-07-25,1,,,,,ヤマタク,0
1338,5260005011499,新規,0,2025-07-25,2025-07-25,ＮＰＯ法人ハレルクス,,その他の設立登記法人,岡山県,倉敷市,早高５７２番地７,,33,202,7100022,,,,,,,2025-07-25,1,,,,,ハレルクス,0
1347,5290003017149,新規,0,2025-07-25,2025-07-25,全芳居合同会社,,合同会社,福岡県,福岡市中央区,輝国２丁目２４－２５－７１２,,40,133,8100032,,,,,,,2025-07-25,1,,,,,ゼンホウキョ,0
1351,5290805009847,新規,0,2025-07-25,2025-07-25,特定非営利活動法人ＳＨＰ,,その他の設立登記法人,福岡県,北九州市八幡西区,陣原３丁目１６番２５号（１０１）,,40,109,8070821,,,,,,,2025-07-25,1,,,,,エスエイチピー,0
1354,5330001033416,新規,0,2025-07-25,2025-07-25,株式会社ＵＮＵコーポレーション,,株式会社,熊本県,水俣市,わらび野１番３号１階－Ａ,,43,205,8670004,,,,,,,2025-07-25,1,,,,,ユーエヌユーコーポレーション,0
1355,5330001033432,新規,0,2025-07-25,2025-07-25,一栄観光株式会社,,株式会社,熊本県,熊本市中央区,中央街６番３１号,,43,101,8600802,,,,,,,2025-07-25,1,,,,,イチエイカンコウ,0
1358,5350001019669,新規,0,2025-07-25,2025-07-25,アイワホールディングス株式会社,,株式会社,宮崎県,宮崎市,高岡町上倉永２８６３番地１,,45,201,8802213,,,,,,,2025-07-25,1,,,,,アイワホールディングス,0
1361,5360001035525,新規,0,2025-07-25,2025-07-25,株式会社嶺保険企画,,株式会社,沖縄県,うるま市,字具志川２０９番地１階,,47,213,9042223,,,,,,,2025-07-25,1,,,,,ミネホケンキカク,0
1364,5370001052866,新規,0,2025-07-25,2025-07-25,ヒラマ株式会社,,株式会社,宮城県,仙台市太白区,鈎取字新田町３５番地の７,,04,104,9820804,,,,,,,2025-07-25,1,,,,,ヒラマ,0
1365,5370001052890,新規,0,2025-07-25,2025-07-25,株式会社建是,,株式会社,宮城県,亘理郡亘理町,逢隈田沢字早川５４番地７,00140049,04,361,9892383,,,,,,,2025-07-25,1,,,,,ケンゼ,0
1367,5370003007208,新規,0,2025-07-25,2025-07-25,合同会社Ｅｄｕ　Ｐｒｏ,,合同会社,宮城県,仙台市青葉区,通町２丁目１７－１８ラビットハイツＩＶ２０２,00140048,04,101,9810915,,,,,,,2025-07-25,1,,,,,エデュプロ,0
1369,5400003003509,新規,0,2025-07-25,2025-07-25,合同会社蕾,,合同会社,岩手県,盛岡市,永井２２地割５４番地１２,,03,201,0200834,,,,,,,2025-07-25,1,,,,,ツボミ,0
1372,5430005015268,新規,0,2025-07-25,2025-07-25,一般社団法人札幌相続遺言サポート協会,,その他の設立登記法人,北海道,札幌市西区,琴似一条５丁目１番１０－７０２号,,01,107,0630811,,,,,,,2025-07-25,1,,,,,サッポロソウゾクユイゴンサポートキョウカイ,0
1380,5500001026427,新規,0,2025-07-25,2025-07-25,株式会社ラポール,,株式会社,愛媛県,松山市,桑原２丁目１３番２１号,,38,201,7900911,,,,,,,2025-07-25,1,,,,,ラポール,0
1382,5700150131494,新規,0,2025-07-25,2025-07-25,Ｃｈａｎｇｚｈｏｕ　Ｘｉｎｂｅｌ　Ｍａｔｅｒｎｉｔｙ　＆　Ｉｎｆａｎｔ　Ｐｒｏｄｕｃｔｓ　Ｃｏ．,,外国会社等,,,,,,,,Ｎｏ．９３－４１，２Ｆ，Ｎｏ．３８，Ｔａｉｇａｎｇ　Ｒｏａｄ，Ｌｉｃｈｅｎｇ　Ｓｔｒｅｅｔ，Ｌｉｙａｎｇ　Ｃｉｔｙ，Ｃｈａｎｇｚｈｏｕ　Ｃｉｔｙ，Ｊｉａｎｇｓｕ　Ｐｒｏｖｉｎｃｅ,,,,,,2025-07-25,1,,,,,チヤンジヨウシンベイアームーインヨンピンヨウシエンゴンスー,0
1387,6010001257120,新規,0,2025-07-25,2025-07-25,アメリカホールディングス株式会社,,株式会社,東京都,千代田区,神田神保町３丁目１２－３神保町スリービル８階,,13,101,1010051,,,,,,,2025-07-25,1,,,,,アメリカホールディングス,0
1388,6010001257129,新規,0,2025-07-25,2025-07-25,ＳＭＣ０４０１株式会社,,株式会社,東京都,千代田区,丸の内１丁目１番２号,,13,101,1000005,,,,,,,2025-07-25,1,,,,,エスエムシーゼロフォーゼロワン,0
1389,6010003047998,新規,0,2025-07-25,2025-07-25,合同会社ＭＡＲＫ０３,,合同会社,東京都,千代田区,霞が関３丁目２番５号,,13,101,1000013,,,,,,,2025-07-25,1,,,,,マークゼロスリー,0
1392,6010401191893,新規,0,2025-07-25,2025-07-25,株式会社Ｐｏｒｔａ,,株式会社,東京都,港区,赤坂３丁目１９－１東京農村４Ｆ,,13,103,1070052,,,,,,,2025-07-25,1,,,,,ポルタ,0
1395,6010403035603,新規,0,2025-07-25,2025-07-25,ａｂｅｂｅ合同会社,,合同会社,東京都,港区,南青山３丁目１番３６号青山丸竹ビル６Ｆ,,13,103,1070062,,,,,,,2025-07-25,1,,,,,アベベ,0
1396,6010405024538,新規,0,2025-07-25,2025-07-25,ＳＣＧ５４特定目的会社,,その他の設立登記法人,東京都,港区,虎ノ門２丁目６番１号,,13,103,1050001,,,,,,,2025-07-25,1,,,,,エスシージーフィフティフォー,0
1399,6010601067662,新規,0,2025-07-25,2025-07-25,株式会社Ｍエステート,,株式会社,東京都,江東区,東砂７丁目１６番９号,,13,108,1360074,,,,,,,2025-07-25,1,,,,,エムエステート,0
1409,6011001171006,新規,0,2025-07-25,2025-07-25,株式会社國麻呂,,株式会社,東京都,渋谷区,神宮前６丁目２３番４号桑野ビル２階,,13,113,1500001,,,,,,,2025-07-25,1,,,,,クニマロ,0
1410,6011001171071,新規,0,2025-07-25,2025-07-25,株式会社ＢｅｌｌｅＹ．Ｊ,,株式会社,東京都,目黒区,東山３丁目２０－２０サニーヒルズ東山１０３,,13,110,1530043,,,,,,,2025-07-25,1,,,,,ベリージェイ,0
1411,6011001171427,新規,0,2025-07-25,2025-07-25,株式会社ｓｉｘ　ｓｉｇｍａ,,株式会社,東京都,渋谷区,渋谷２丁目９－１０キングビル６Ｆ,,13,113,1500002,,,,,,,2025-07-25,1,,,,,シックスシグマ,0
1413,6011003022058,新規,0,2025-07-25,2025-07-25,合同会社波乗蒸留所,,合同会社,東京都,渋谷区,広尾１丁目２番地１号ヒカリビル４階,,13,113,1500012,,,,,,,2025-07-25,1,,,,,ナミノリジョウリュウジョ,0
1414,6011003022173,新規,0,2025-07-25,2025-07-25,ネクストクアリタス合同会社,,合同会社,東京都,渋谷区,東３丁目１９番８号ＳＨ３１９８－２０１,,13,113,1500011,,,,,,,2025-07-25,1,,,,,ネクストクアリタス,0
1415,6011005011091,新規,0,2025-07-25,2025-07-25,一般社団法人日本美容美髪協会,,その他の設立登記法人,東京都,渋谷区,大山町２３番１号,,13,113,1510065,,,,,,,2025-07-25,1,,,,,ニホンビヨウビハツキョウカイ,0
1428,6011503006618,新規,0,2025-07-25,2025-07-25,ＬＵＣＬＥＡ．合同会社,,合同会社,東京都,荒川区,西日暮里６丁目１４番１２－１００１号リストレジデンス西日暮里壱番館,,13,118,1160013,,,,,,,2025-07-25,1,,,,,ルークレア,0
1432,6012701018982,新規,0,2025-07-25,2025-07-25,株式会社イーストプラス,,株式会社,東京都,東村山市,青葉町２丁目２番５号,,13,213,1890002,,,,,,,2025-07-25,1,,,,,イーストプラス,0
1433,6013105001880,新規,0,2025-07-25,2025-07-25,特定非営利活動法人オールフォーオール,,その他の設立登記法人,東京都,あきる野市,秋川２丁目７番地４丸昌ビル２Ｆ,,13,228,1970804,,,,,,,2025-07-25,1,,,,,オールフォーオール,0
1438,6013301054666,新規,0,2025-07-25,2025-07-25,株式会社永強商事,,株式会社,東京都,豊島区,北大塚３丁目３４番１号ＤＴビル２Ｆ,,13,116,1700004,,,,,,,2025-07-25,1,,,,,エイキョウショウジ,0
1444,6020005016934,新規,0,2025-07-25,2025-07-25,特定非営利活動法人きらきらん,,その他の設立登記法人,神奈川県,横浜市瀬谷区,中央３９番地２,,14,114,2460014,,,,,,,2025-07-25,1,,,,,キラキラン,0
1447,6021001085907,新規,0,2025-07-25,2025-07-25,株式会社ＷＡＤＡ　Ｔ＆Ｔ,,株式会社,神奈川県,横須賀市,湘南鷹取５丁目３２番１５号,,14,201,2370066,,,,,,,2025-07-25,1,,,,,ワダティーアンドティー,0
1457,6030001167788,新規,0,2025-07-25,2025-07-25,株式会社Ａｔｔｒａｃｔｉｖｅ,,株式会社,埼玉県,戸田市,大字新曽１６８０番地の６－３０５,,11,224,3350021,,,,,,,2025-07-25,1,,,,,アトラクティブ,0
1460,6030003027222,新規,0,2025-07-25,2025-07-25,瑞森合同会社,,合同会社,埼玉県,入間郡毛呂山町,若山１丁目４４－４レプロ毛呂山１０１室,,11,326,3500462,,,,,,,2025-07-25,1,,,,,ズイセン,0
1461,6030003027247,新規,0,2025-07-25,2025-07-25,合同会社サンエム化研,,合同会社,埼玉県,川口市,芝１丁目１７番２２号,,11,203,3330866,,,,,,,2025-07-25,1,,,,,サンエムカケン,0
1468,6040001139638,新規,0,2025-07-25,2025-07-25,株式会社とうぶ,,株式会社,千葉県,松戸市,六実４丁目５番１号,,12,207,2702204,,,,,,,2025-07-25,1,,,,,トウブ,0
1469,6040001139679,新規,0,2025-07-25,2025-07-25,株式会社きゆもとけいこ,,株式会社,千葉県,船橋市,本町６丁目２番１０－１０７号,,12,204,2730005,,,,,,,2025-07-25,1,,,,,キユモトケイコ,0
1470,6040003028046,新規,0,2025-07-25,2025-07-25,合同会社７７７,,合同会社,千葉県,柏市,関場町６－１７－２,,12,217,2770028,,,,,,,2025-07-25,1,,,,,スリーセブン,0
1472,6050003009425,新規,0,2025-07-25,2025-07-25,アサイチプロジェクト合同会社,,合同会社,茨城県,土浦市,大岩田１７７１番地１,,08,203,3000835,,,,,,,2025-07-25,1,,,,,アサイチプロジェクト,0
1473,6050005013672,新規,0,2025-07-25,2025-07-25,一般財団法人廣澤美術館,,その他の設立登記法人,茨城県,筑西市,大塚５９９番地１,,08,227,3080813,,,,,,,2025-07-25,1,,,,,ヒロサワビジュツカン,0
1475,6070001043077,新規,0,2025-07-25,2025-07-25,株式会社マレオリ,,株式会社,群馬県,伊勢崎市,昭和町１６４５―１１ルミエール２、３Ａ,,10,204,3720014,,,,,,,2025-07-25,1,,,,,マレオリ,0
1479,6080001027054,新規,0,2025-07-25,2025-07-25,株式会社Ｋ．Ｄ．Ｎ,,株式会社,静岡県,静岡市駿河区,中島９７９番地の２ヴィラサンセール３０Ｃ,,22,102,4228046,,,,,,,2025-07-25,1,,,,,ケイディエヌ,0
1484,6080103003382,新規,0,2025-07-25,2025-07-25,合同会社Ｇｅｎｏｍｉｘ創研,,合同会社,静岡県,三島市,幸原町１丁目４番４号,,22,206,4110031,,,,,,,2025-07-25,1,,,,,ジェノミックスソウケン,0
1499,6120001277660,新規,0,2025-07-25,2025-07-25,株式会社ＡｉＮＡＭａｒｋｅｔｉｎｇＳｏｌｕｔｉｏｎ,,株式会社,大阪府,大阪市中央区,伏見町２丁目２－１０谷ビル５Ｆ,,27,128,5410044,,,,,,,2025-07-25,1,,,,,アイナマーケティングソリューション,0
1500,6120001277974,新規,0,2025-07-25,2025-07-25,株式会社ＭＵＪＩＮ,,株式会社,大阪府,大阪市北区,梅田１丁目１－３,,27,127,5300001,,,,,,,2025-07-25,1,,,,,ムジン,0
1501,6120001278048,新規,0,2025-07-25,2025-07-25,ＡＵＲＩＡ株式会社,,株式会社,大阪府,大阪市淀川区,西宮原１丁目７番１５－９０６号,,27,123,5320004,,,,,,,2025-07-25,1,,,,,アウリア,0
1502,6120001278106,新規,0,2025-07-25,2025-07-25,日新株式会社,,株式会社,大阪府,大阪市西区,九条３丁目１３番３号２Ｆ,,27,106,5500027,,,,,,,2025-07-25,1,,,,,ニッシン,0
1503,6120001278130,新規,0,2025-07-25,2025-07-25,龍二株式会社,,株式会社,大阪府,大阪市生野区,勝山北５丁目２番１０号,,27,116,5440033,,,,,,,2025-07-25,1,,,,,タツニ,0
1504,6120001278139,新規,0,2025-07-25,2025-07-25,株式会社ＰＮＳＫ,,株式会社,大阪府,大阪市北区,芝田２丁目８番１１号,,27,127,5300012,,,,,,,2025-07-25,1,,,,,ピーエヌエスケー,0
1505,6120001278155,新規,0,2025-07-25,2025-07-25,ＤＡＩＶＥ株式会社,,株式会社,大阪府,枚方市,西禁野１丁目３番３０号,,27,210,5731192,,,,,,,2025-07-25,1,,,,,ダイブ,0
1506,6120001278171,新規,0,2025-07-25,2025-07-25,株式会社Ｋｅｙ　Ｐｅｒｓｏｎ,,株式会社,大阪府,大阪市浪速区,桜川１丁目７番３１号ナディアビル４階,,27,111,5560022,,,,,,,2025-07-25,1,,,,,キーパーソン,0
1507,6120001278188,新規,0,2025-07-25,2025-07-25,河妖屋株式会社,,株式会社,大阪府,大阪市北区,中津３丁目３番１７号平成ビル４階,,27,127,5310071,,,,,,,2025-07-25,1,,,,,カヨウヤ,0
1508,6120003030084,新規,0,2025-07-25,2025-07-25,合同会社大野舞台,,合同会社,大阪府,大阪市西成区,玉出西２丁目１６番２３号,,27,122,5570045,,,,,,,2025-07-25,1,,,,,オオノステージ,0
1509,6120003030134,新規,0,2025-07-25,2025-07-25,ＳＰ　ＥＳＳ１１合同会社,,合同会社,大阪府,大阪市中央区,南船場２丁目６－３第２ＢＳビル６０１号室,,27,128,5420081,,,,,,,2025-07-25,1,,,,,エスピーイーエスエスイレブン,0
1512,6120101072169,新規,0,2025-07-25,2025-07-25,株式会社元氣松風,,株式会社,大阪府,岸和田市,藤井町１丁目１７番３０号,,27,202,5960046,,,,,,,2025-07-25,1,,,,,ゲンキマツカゼ,0
1514,6120901051231,新規,0,2025-07-25,2025-07-25,株式会社Ｔ‐ｓｌｏｐｅ,,株式会社,大阪府,豊中市,上新田２丁目２５番１－５０４号,,27,203,5600085,,,,,,,2025-07-25,1,,,,,ティースロープ,0
1515,6120905006768,新規,0,2025-07-25,2025-07-25,医療法人ｓｏｌｅｉｌ,,その他の設立登記法人,大阪府,吹田市,垂水町１丁目５番４０号,,27,205,5640062,,,,,,,2025-07-25,1,,,,,ソレイユ,0
1517,6122001039446,新規,0,2025-07-25,2025-07-25,株式会社ＥＡＧＬＥ　ＨＯＭＥ,,株式会社,大阪府,東大阪市,衣摺４丁目４番２６号,,27,227,5770827,,,,,,,2025-07-25,1,,,,,イーグルホーム,0
1518,6122001039454,新規,0,2025-07-25,2025-07-25,株式会社フェリックス,,株式会社,大阪府,大東市,明美の里町１１番１号２０２号,,27,218,5740003,,,,,,,2025-07-25,1,,,,,フェリックス,0
1521,6130001080122,新規,0,2025-07-25,2025-07-25,メディカルキャピタルパートナーズ株式会社,,株式会社,京都府,京都市下京区,烏丸通塩小路下る東塩小路町９０１番地京都駅ビル内ホテルグランヴィア京都７階,,26,106,6008216,,,,,,,2025-07-25,1,,,,,メディカルキャピタルパートナーズ,0
1522,6130001080130,新規,0,2025-07-25,2025-07-25,株式会社ＳＯＩ,,株式会社,京都府,京都市北区,上賀茂本山京都産業大学４号館３階Ｉｎｎｏｖａｔｉｏｎラボ,,26,101,6038047,,,,,,,2025-07-25,1,,,,,ソイ,0
1523,6130001080163,新規,0,2025-07-25,2025-07-25,株式会社家庭,,株式会社,京都府,京都市左京区,岩倉三宅町２４９番地１２,,26,103,6060022,,,,,,,2025-07-25,1,,,,,イエニワ,0
1525,6130003010630,新規,0,2025-07-25,2025-07-25,ＨＡＩＤＥＲ　ＴＲＡＤＩＮＧ合同会社,,合同会社,京都府,木津川市,加茂町里西鳥口７６番地コスモハイツ東２階２０１号室,,26,214,6191152,,,,,,,2025-07-25,1,,,,,ハイダートレーディング,0
1527,6140001139371,新規,0,2025-07-25,2025-07-25,来住建築株式会社,,株式会社,兵庫県,西脇市,西脇２８２番地の２,,28,213,6770015,,,,,,,2025-07-25,1,,,,,キシケンチク,0
1528,6140001139388,新規,0,2025-07-25,2025-07-25,株式会社こころ調剤薬局,,株式会社,兵庫県,姫路市,飾磨区三宅１丁目１９２番地,,28,201,6728048,,,,,,,2025-07-25,1,,,,,ココロチョウザイヤッキョク,0
1532,6140003022328,新規,0,2025-07-25,2025-07-25,幸栄合同会社,,合同会社,兵庫県,姫路市,白浜町甲２９７番地３,,28,201,6728023,,,,,,,2025-07-25,1,,,,,コウエイ,0
1535,6170005007159,新規,0,2025-07-25,2025-07-25,一般社団法人ＢＬＵＥ　ＥＮＧＩＮＥ’Ｓ,,その他の設立登記法人,和歌山県,有田市,箕島５６４番地７,,30,204,6490304,,,,,,,2025-07-25,1,,,,,ブルーエンジンズ,0
1538,6180001167807,新規,0,2025-07-25,2025-07-25,株式会社片平工務店,,株式会社,愛知県,東海市,中ノ池２丁目９番地の３５,,23,222,4770033,,,,,,,2025-07-25,1,,,,,カタヒラコウムテン,0
1541,6190001032423,新規,0,2025-07-25,2025-07-25,株式会社オクトーバークラフト,,株式会社,三重県,度会郡南伊勢町,内瀬２１０番地,,24,472,5160111,,,,,,,2025-07-25,1,,,,,,0
1552,6220005008985,新規,0,2025-07-25,2025-07-25,農事組合法人小林農園,,その他の設立登記法人,石川県,金沢市,八田町東３２４番地,,17,201,9203104,,,,,,,2025-07-25,1,,,,,コバヤシノウエン,0
1556,6240001065277,新規,0,2025-07-25,2025-07-25,Ｃａｒｉｆ株式会社,,株式会社,広島県,広島市中区,幟町１３番４号,,34,101,7300016,,,,,,,2025-07-25,1,,,,,カリフ,0
1559,6250001021270,新規,0,2025-07-25,2025-07-25,株式会社ＮＥＸＷＯＲＫオオスミ,,株式会社,山口県,山口市,維新公園３丁目６番４０号,,35,203,7530815,,,,,,,2025-07-25,1,,,,,ネクスワークオオスミ,0
1579,6290001110838,新規,0,2025-07-25,2025-07-25,ＭＯＢＹＤＩＣＫ株式会社,,株式会社,福岡県,福岡市東区,奈多２丁目３－２４,,40,131,8110204,,,,,,,2025-07-25,1,,,,,モビーディック,0
1580,6290003017148,新規,0,2025-07-25,2025-07-25,合同会社石橋商店,,合同会社,福岡県,福岡市西区,愛宕浜１丁目２２番９号,,40,135,8190013,,,,,,,2025-07-25,1,,,,,イシバシショウテン,0
1581,6290003017156,新規,0,2025-07-25,2025-07-25,合同会社ＡＫＩＴＯＭＩＮＡ,,合同会社,福岡県,大牟田市,旭町３丁目３番地３,,40,202,8360807,,,,,,,2025-07-25,1,,,,,アキトミナ,0
1582,6290003017164,新規,0,2025-07-25,2025-07-25,合同会社あの日の空,,合同会社,福岡県,久留米市,田主丸町豊城１３６５番地２９,,40,203,8391234,,,,,,,2025-07-25,1,,,,,アノヒノソラ,0
1589,6330003011138,新規,0,2025-07-25,2025-07-25,合同会社Ａ．ＪＣＯＲＰＯＲＡＴＩＯＮ,,合同会社,熊本県,宇城市,不知火町大字高良下り松２００２番地２,,43,213,8690500,,,,,,,2025-07-25,1,,,,,エージェーコーポレーション,0
1593,6360003015111,新規,0,2025-07-25,2025-07-25,合同会社Ｎ．ｏ．ｒ．ｔ．ｈ,,合同会社,沖縄県,名護市,字仲尾次４６８,,47,209,9051144,,,,,,,2025-07-25,1,,,,,ノース,0
1594,6370001052873,新規,0,2025-07-25,2025-07-25,株式会社シープラン・テック,,株式会社,宮城県,大崎市,松山千石字鶴田１１５番地３,,04,215,9871304,,,,,,,2025-07-25,1,,,,,シープランテック,0
1600,6400003003508,新規,0,2025-07-25,2025-07-25,合同会社Ｍｏｉ,,合同会社,岩手県,北上市,川岸４丁目７番１６－１１０４号アーク北上,,03,206,0240032,,,,,,,2025-07-25,1,,,,,モワ,0
1603,6420003003142,新規,0,2025-07-25,2025-07-25,ＯＳＴエンターテイメント合同会社,,合同会社,青森県,平川市,南田中北原６番地１,,02,210,0360203,,,,,,,2025-07-25,1,,,,,オーエスティーエンターテイメント,0
1611,6480003002295,新規,0,2025-07-25,2025-07-25,ＳＯＤＡＴＴＥ合同会社,,合同会社,徳島県,名西郡石井町,藍畑字西覚円５５６－２,,36,341,7793211,,,,,,,2025-07-25,1,,,,,ソダッテ,0
1621,6700150131493,新規,0,2025-07-25,2025-07-25,ＰＩＥＣＥＦＵＴＵＲＥ　ＰＴＥ．ＬＴＤ．,,外国会社等,,,,,,,,４５ＭｉｄｄｌｅＲｏａｄ＃０６－０１，Ｓｉｎｇａｐｏｒｅ１８８９５４,,,,,,2025-07-25,1,,,,,ピースフユーチヤー,0
1627,7010001257094,新規,0,2025-07-25,2025-07-25,Ｄａｔａ　Ｋｎｏｗｌｅｄｇｅ　Ｍａｎａｇｅｍｅｎｔ　Ｊａｐａｎ株式会社,,株式会社,東京都,中央区,銀座６丁目１３番１６号銀座ＷａｌｌビルＵＣＦ５０１,,13,102,1040061,,,,,,,2025-07-25,1,,,,,データナレッジマネジメントジャパン,0
1630,7010003048137,新規,0,2025-07-25,2025-07-25,ＫＮＩＴ１合同会社,,合同会社,東京都,千代田区,丸の内１丁目４番１号東京共同会計事務所内,,13,101,1000005,,,,,,,2025-07-25,1,,,,,ニットワン,0
1632,7010005040406,新規,0,2025-07-25,2025-07-25,ＣＳＡ社会保険労務士法人,,その他の設立登記法人,東京都,中央区,銀座７丁目１３番４号田辺ビル５階,,13,102,1040061,,,,,,,2025-07-25,1,,,,,シーエスエー,0
1640,7010401191975,新規,0,2025-07-25,2025-07-25,ヴィジョンスタイル株式会社,,株式会社,東京都,港区,虎ノ門１丁目１６番６号,,13,103,1050001,,,,,,,2025-07-25,1,,,,,ヴィジョンスタイル,0
1642,7010403035569,新規,0,2025-07-25,2025-07-25,Ａ‐ＱＵＥＳＴ合同会社,,合同会社,東京都,港区,北青山１丁目３－３三橋ビル３Ｆ,,13,103,1070061,,,,,,,2025-07-25,1,,,,,エークエスト,0
1643,7010405024594,新規,0,2025-07-25,2025-07-25,ＧＡＲＮＥＴ神楽坂一般社団法人,,その他の設立登記法人,東京都,港区,六本木１丁目６番１号泉ガーデンタワー１２階,,13,103,1060032,,,,,,,2025-07-25,1,,,,,ガーネットカグラザカ,0
1647,7010601067686,新規,0,2025-07-25,2025-07-25,株式会社ＧＥＮＩＵＳ　ＯＰＥＲＡＴＩＯＮ,,株式会社,東京都,江東区,豊洲４丁目１０番１８－１１０１号,,13,108,1350061,,,,,,,2025-07-25,1,,,,,ジニアスオペレーション,0
1651,7010701048058,新規,0,2025-07-25,2025-07-25,カルデザイン株式会社,,株式会社,東京都,品川区,北品川５丁目７番３号グランデバンセ御殿山ザ・レジデンス４０４,,13,109,1410001,,,,,,,2025-07-25,1,,,,,カルデザイン,0
1653,7010803005485,新規,0,2025-07-25,2025-07-25,合同会社田之上工業,,合同会社,東京都,大田区,中馬込２丁目１番１０号,,13,111,1430027,,,,,,,2025-07-25,1,,,,,タノウエコウギョウ,0
1656,7010901057800,新規,0,2025-07-25,2025-07-25,ＳｏｉＮ　Ｂｅｙｏｎｄ株式会社,,株式会社,東京都,世田谷区,奥沢１丁目２７番１２号,,13,112,1580083,,,,,,,2025-07-25,1,,,,,ソインビヨンド,0
1667,7011003022016,新規,0,2025-07-25,2025-07-25,ヤギ合同会社,,合同会社,東京都,渋谷区,神南１丁目１１‐４ＦＰＧリンクス神南５階,,13,113,1500041,,,,,,,2025-07-25,1,,,,,ヤギ,0
1669,7011101112552,新規,0,2025-07-25,2025-07-25,Ｊ‐ＰＡＲＴｓ　Ｅｘｐｏｒｔ株式会社,,株式会社,東京都,新宿区,西新宿６丁目１２番７号ストーク新宿１階Ａ－２０,,13,104,1600023,,,,,,,2025-07-25,1,,,,,ジェイパーツエクスポート,0
1670,7011101112577,新規,0,2025-07-25,2025-07-25,株式会社ＯＦＦＭＡＴＥ,,株式会社,東京都,新宿区,西新宿３丁目２－９新宿ワシントンホテルビル本館２Ｆ,,13,104,1600023,,,,,,,2025-07-25,1,,,,,オフメイト,0
1677,7011401027277,新規,0,2025-07-25,2025-07-25,株式会社四光ホールディングス,,株式会社,東京都,板橋区,前野町６丁目６番７号,,13,119,1740063,,,,,,,2025-07-25,1,,,,,ヨンコウホールディングス,0
1678,7011501032350,新規,0,2025-07-25,2025-07-25,株式会社めしあがレーベル,,株式会社,東京都,荒川区,西日暮里５丁目９番１２－７０４号,,13,118,1160013,,,,,,,2025-07-25,1,,,,,メシアガレーベル,0
1679,7011503006617,新規,0,2025-07-25,2025-07-25,合同会社エコアシスタンス,,合同会社,東京都,荒川区,東尾久６丁目４３番１３－１００１号,,13,118,1160012,,,,,,,2025-07-25,1,,,,,エコアシスタンス,0
1681,7011701028553,新規,0,2025-07-25,2025-07-25,株式会社Ａｐｐｌｅ　Ｐｌｕｓ,,株式会社,東京都,江戸川区,西葛西３丁目１５番１６号アイリス２Ｆ,,13,123,1340088,,,,,,,2025-07-25,1,,,,,アップルプラス,0
1686,7011803006985,新規,0,2025-07-25,2025-07-25,ＭＥパートナーズ合同会社,,合同会社,東京都,足立区,千住１丁目３０番３カノン千住１４０６号,,13,121,1200034,,,,,,,2025-07-25,1,,,,,エムイーパートナーズ,0
1688,7012405005137,新規,0,2025-07-25,2025-07-25,一般社団法人ＱｕａｋｅＩｎｓｉｇｈｔ　Ｔｏｋｙｏ,,その他の設立登記法人,東京都,調布市,小島町１丁目１番地１ＵＥＣアライアンスセンター５２１号,,13,208,1820026,,,,,,,2025-07-25,1,,,,,クエークインサイトトウキョウ,0
1689,7012801024129,新規,0,2025-07-25,2025-07-25,株式会社恵電設,,株式会社,東京都,昭島市,福島町１０１４番地１１,,13,207,1960031,,,,,,,2025-07-25,1,,,,,メグミデンセツ,0
1697,7013301054665,新規,0,2025-07-25,2025-07-25,株式会社石川商事,,株式会社,東京都,豊島区,北大塚３丁目３４番１号ＤＴビル２Ｆ,,13,116,1700004,,,,,,,2025-07-25,1,,,,,イシカワショウジ,0
1702,7020001164026,新規,0,2025-07-25,2025-07-25,株式会社楓建設,,株式会社,神奈川県,横浜市緑区,十日市場町９１０番地７コーポ旭１０１,,14,113,2260025,,,,,,,2025-07-25,1,,,,,カエデケンセツ,0
1703,7020001164034,新規,0,2025-07-25,2025-07-25,株式会社セントラルアイル,,株式会社,神奈川県,横浜市金沢区,柴町７番地１１６,,14,108,2360012,,,,,,,2025-07-25,1,,,,,セントラルアイル,0
1705,7020003029012,新規,0,2025-07-25,2025-07-25,合同会社電脳ＡＩ絵巻,,合同会社,神奈川県,横浜市金沢区,富岡東２丁目５番８‐４０１号,,14,108,2360051,,,,,,,2025-07-25,1,,,,,デンノウエーアイエマキ,0
1706,7020003029037,新規,0,2025-07-25,2025-07-25,合同会社ラベンダーサポート,,合同会社,神奈川県,横浜市西区,浅間町１丁目４番地３号,,14,103,2200072,,,,,,,2025-07-25,1,,,,,ラベンダーサポート,0
1709,7021001085831,新規,0,2025-07-25,2025-07-25,株式会社共栄建設,,株式会社,神奈川県,藤沢市,善行坂１丁目１５番３号,,14,205,2510876,,,,,,,2025-07-25,1,,,,,キョウエイケンセツ,0
1710,7021001085889,新規,0,2025-07-25,2025-07-25,株式会社ＨａｐｐｉＴｏｍｏ　ＬＡＮＤ,,株式会社,神奈川県,厚木市,温水１０２２番地１,,14,212,2430033,,,,,,,2025-07-25,1,,,,,ハピトモランド,0
1711,7021001085897,新規,0,2025-07-25,2025-07-25,エーアールホーム株式会社,,株式会社,神奈川県,愛甲郡愛川町,棚沢８７７番地の５,,14,401,2430300,,,,,,,2025-07-25,1,,,,,エーアールホーム,0
1725,7030003027262,新規,0,2025-07-25,2025-07-25,合同会社Ｆｉｒｏ,,合同会社,埼玉県,さいたま市中央区,鈴谷９丁目３番１０号３０１号,,11,105,3380013,,,,,,,2025-07-25,1,,,,,フィロー,0
1730,7040001139661,新規,0,2025-07-25,2025-07-25,株式会社ハーモニー＆ピース,,株式会社,千葉県,八千代市,勝田台１丁目２番３号,,12,221,2760023,,,,,,,2025-07-25,1,,,,,ハーモニーアンドピース,0
1738,7070005010411,新規,0,2025-07-25,2025-07-25,中之条町特定地域づくり事業協同組合,,その他の設立登記法人,群馬県,吾妻郡中之条町,大字中之条町９１８,,10,421,3770424,,,,,,,2025-07-25,1,,,,,ナカノジョウマチトクテイチイキヅクリジギョウ,0
1743,7080103003381,新規,0,2025-07-25,2025-07-25,Ｆｕｊｉ　Ｔｒａｄｉｎｇ合同会社,,合同会社,静岡県,御殿場市,板妻３６７番地の１,,22,215,4120048,,,,,,,2025-07-25,1,,,,,フジトレーディング,0
1746,7080401028048,新規,0,2025-07-25,2025-07-25,株式会社エイペックス,,株式会社,静岡県,浜松市中央区,和合北３丁目２番１８号,,22,138,4338127,,,,,,,2025-07-25,1,,,,,エイペックス,0
1749,7080403005318,新規,0,2025-07-25,2025-07-25,合同会社ＢＡＳＥＬＩＶ,,合同会社,静岡県,浜松市中央区,西伊場町１５番８号丸竹マンション２０２,,22,138,4328038,,,,,,,2025-07-25,1,,,,,ベースリブ,0
1773,7120001277981,新規,0,2025-07-25,2025-07-25,宏信株式会社,,株式会社,大阪府,大阪市中央区,上町１丁目２５－２清ビル４Ｄ,,27,128,5400005,,,,,,,2025-07-25,1,,,,,コウシン,0
1774,7120001278006,新規,0,2025-07-25,2025-07-25,株式会社４４ＡＭＵＳＥＬ,,株式会社,大阪府,大阪市北区,中崎西１丁目１番２２－４０２号,,27,127,5300015,,,,,,,2025-07-25,1,,,,,ヨンヨンアミューゼル,0
1775,7120001278113,新規,0,2025-07-25,2025-07-25,株式会社Ｔｏｐ　Ｍｉｎｅ,,株式会社,大阪府,大阪市北区,西天満４丁目１１－８－３０５,,27,127,5300047,,,,,,,2025-07-25,1,,,,,トップマイン,0
1776,7120001278121,新規,0,2025-07-25,2025-07-25,株式会社エクラ,,株式会社,大阪府,門真市,桑才町１番３５号,,27,223,5710035,,,,,,,2025-07-25,1,,,,,エクラ,0
1777,7120001278138,新規,0,2025-07-25,2025-07-25,株式会社ＲＡＹ,,株式会社,大阪府,大阪市北区,梅田１丁目１番３号大阪駅前第３ビル２９階１－１－１号室,,27,127,5300001,,,,,,,2025-07-25,1,,,,,レイ,0
1778,7120001278170,新規,0,2025-07-25,2025-07-25,株式会社バンプアップ,,株式会社,大阪府,大阪市福島区,海老江８丁目７番１４号,,27,103,5530001,,,,,,,2025-07-25,1,,,,,バンプアップ,0
1779,7120001278179,新規,0,2025-07-25,2025-07-25,株式会社Ｓｏｎｏｋｏｎｇ　ＪＡＰＡＮ,,株式会社,大阪府,大阪市北区,芝田２丁目８番１１号共栄ビル３階,,27,127,5300012,,,,,,,2025-07-25,1,,,,,ソノコンジャパン,0
1780,7120001278220,新規,0,2025-07-25,2025-07-25,銘華株式会社,,株式会社,大阪府,大阪市東淀川区,下新庄５丁目９番１２号１階,,27,114,5330021,,,,,,,2025-07-25,1,,,,,メイカ,0
1785,7120003030067,新規,0,2025-07-25,2025-07-25,合同会社寛達商事,,合同会社,大阪府,大阪市住之江区,南港北２丁目１－１０,,27,125,5590034,,,,,,,2025-07-25,1,,,,,カンタツショウジ,0
1786,7120003030075,新規,0,2025-07-25,2025-07-25,合同会社ヒューマンリンク,,合同会社,大阪府,大阪市北区,野崎町７－８梅田パークビル３階,,27,127,5300055,,,,,,,2025-07-25,1,,,,,ヒューマンリンク,0
1787,7120003030083,新規,0,2025-07-25,2025-07-25,合同会社縁,,合同会社,大阪府,大阪市西淀川区,中島１丁目６－４,,27,113,5550041,,,,,,,2025-07-25,1,,,,,エニシ,0
1788,7120003030091,新規,0,2025-07-25,2025-07-25,合同会社Ｓｏｌａｒａ,,合同会社,大阪府,大阪市中央区,南船場３丁目２番２２号おおきに南船場ビル２０５,,27,128,5420081,,,,,,,2025-07-25,1,,,,,ソラーラ,0
1789,7120003030109,新規,0,2025-07-25,2025-07-25,ＫＶＷ合同会社,,合同会社,大阪府,大阪市東住吉区,山坂１丁目１３番１３号,,27,121,5460035,,,,,,,2025-07-25,1,,,,,ケーヴィーダブリュー,0
1790,7120003030133,新規,0,2025-07-25,2025-07-25,ＳＰ　ＥＳＳ１０合同会社,,合同会社,大阪府,大阪市中央区,南船場２丁目６－３第２ＢＳビル６０１号室,,27,128,5420081,,,,,,,2025-07-25,1,,,,,エスピーイーエスエステン,0
1796,7120101072168,新規,0,2025-07-25,2025-07-25,株式会社ＮＫＣ,,株式会社,大阪府,河内長野市,寿町１２－４８,,27,216,5860026,,,,,,,2025-07-25,1,,,,,エヌケーシー,0
1798,7120103006594,新規,0,2025-07-25,2025-07-25,合同会社Ｌｉｌｙ　Ｂｅａｕｔｙ,,合同会社,大阪府,貝塚市,海塚１丁目１９－６ビバ・イチョシ３０２号,,27,208,5970083,,,,,,,2025-07-25,1,,,,,リリービューティー,0
1802,7120903005770,新規,0,2025-07-25,2025-07-25,合同会社ＨＩＧＵＣＨＩ,,合同会社,大阪府,豊中市,庄本町３丁目１３番７号,,27,203,5610835,,,,,,,2025-07-25,1,,,,,ヒグチ,0
1803,7122001039445,新規,0,2025-07-25,2025-07-25,株式会社村尾不動産,,株式会社,大阪府,東大阪市,吉田３丁目５番４１号,,27,227,5780924,,,,,,,2025-07-25,1,,,,,ムラオフドウサン,0
1804,7122001039453,新規,0,2025-07-25,2025-07-25,株式会社なぎさ,,株式会社,大阪府,東大阪市,中石切町５丁目１２番２５号,,27,227,5798014,,,,,,,2025-07-25,1,,,,,ナギサ,0
1807,7130001080138,新規,0,2025-07-25,2025-07-25,株式会社ＤＯＵＢＬＥＮＩＮＥ＆Ｃｏ,,株式会社,京都府,京都市南区,東寺町５１８番地フォルトゥーナ東寺町１０７号室,,26,107,6018478,,,,,,,2025-07-25,1,,,,,ダブルナインアンドコー,0
1814,7160001026939,新規,0,2025-07-25,2025-07-25,ＡＹＡＴＡＫＡ株式会社,,株式会社,滋賀県,彦根市,平田町６０７番地３,,25,202,5220041,,,,,,,2025-07-25,1,,,,,アヤタカ,0
1818,7180001167814,新規,0,2025-07-25,2025-07-25,株式会社ＭＡＲＵＳＨＯ,,株式会社,愛知県,名古屋市天白区,梅が丘１丁目１２０３番地の１,,23,116,4680004,,,,,,,2025-07-25,1,,,,,マルショウ,0
1819,7180001167913,新規,0,2025-07-25,2025-07-25,株式会社グッドイナフ,,株式会社,愛知県,一宮市,東五城字篭島３５番地２,,23,203,4940008,,,,,,,2025-07-25,1,,,,,グッドイナフ,0
1822,7180003028725,新規,0,2025-07-25,2025-07-25,合同会社ＪＵＰＴＯＲ,,合同会社,愛知県,一宮市,今伊勢町馬寄字福塚前８－２,,23,203,4910051,,,,,,,2025-07-25,1,,,,,ユプター,0
1823,7180003028758,新規,0,2025-07-25,2025-07-25,合同会社ＴＢＬライフ,,合同会社,愛知県,名古屋市瑞穂区,彌富ケ丘町１丁目７番地の８,,23,108,4670048,,,,,,,2025-07-25,1,,,,,ティービーエルライフ,0
1826,7190001032422,新規,0,2025-07-25,2025-07-25,株式会社山本建材,,株式会社,三重県,松阪市,豊原町１００９番地２１,,24,204,5150205,,,,,,,2025-07-25,1,,,,,ヤマモトケンザイ,0
1843,7220005008984,新規,0,2025-07-25,2025-07-25,一般社団法人素直,,その他の設立登記法人,石川県,野々市市,菅原町１１番５３－１号,,17,212,9218814,,,,,,,2025-07-25,1,,,,,スナオ,0
1846,7230001021008,新規,0,2025-07-25,2025-07-25,株式会社Ｄａｎｋａ,,株式会社,富山県,富山市,梅沢町２丁目１０番５号,,16,201,9300055,,,,,,,2025-07-25,1,,,,,ダンカ,0
1848,7230003002468,新規,0,2025-07-25,2025-07-25,合同会社アマビエ,,合同会社,富山県,富山市,大泉東町１丁目３‐９スイートレジデンスＴＯＹＡＭＡ５Ｂ,,16,201,9398093,,,,,,,2025-07-25,1,,,,,アマビエ,0
1850,7240001065268,新規,0,2025-07-25,2025-07-25,川技信株式会社,,株式会社,広島県,東広島市,八本松南８丁目１１番１７号,,34,212,7390144,,,,,,,2025-07-25,1,,,,,カワギシン,0
1860,7280001009469,新規,0,2025-07-25,2025-07-25,矢田建築株式会社,,株式会社,島根県,松江市,福原町２５５番地の２,,32,201,6900811,,,,,,,2025-07-25,1,,,,,ヤタケンチク,0
1863,7290001110853,新規,0,2025-07-25,2025-07-25,株式会社クルミ,,株式会社,福岡県,福岡市東区,香椎照葉７丁目４番２９号,,40,131,8130017,,,,,,,2025-07-25,1,,,,,クルミ,0
1865,7290003017139,新規,0,2025-07-25,2025-07-25,イノベスタ合同会社,,合同会社,福岡県,福岡市博多区,博多駅前１丁目８番７号,,40,132,8120011,,,,,,,2025-07-25,1,,,,,イノベスタ,0
1869,7310001019712,新規,0,2025-07-25,2025-07-25,株式会社大日本国土開発,,株式会社,長崎県,佐世保市,鹿子前町７９７番地１,,42,202,8580922,,,,,,,2025-07-25,1,,,,,ダイニホンコクドカイハツ,0
1871,7330001033414,新規,0,2025-07-25,2025-07-25,アップメンテナンス株式会社,,株式会社,熊本県,熊本市東区,月出２丁目２番４０号,,43,102,8620920,,,,,,,2025-07-25,1,,,,,アップメンテナンス,0
1880,7360001035523,新規,0,2025-07-25,2025-07-25,株式会社ここハウス,,株式会社,沖縄県,浦添市,字経塚６６１番地名嘉ビル１階,,47,208,9012111,,,,,,,2025-07-25,1,,,,,ココハウス,0
1914,8010001256558,新規,0,2025-07-25,2025-07-25,Ｔｒｕｓｔホールディングス株式会社,,株式会社,東京都,中央区,日本橋箱崎町１番２号,,13,102,1030015,,,,,,,2025-07-25,1,,,,,トラストホールディングス,0
1915,8010001257052,新規,0,2025-07-25,2025-07-25,ＮＹＣＩ１５株式会社,,株式会社,東京都,中央区,新川１丁目６番１１号,,13,102,1040033,,,,,,,2025-07-25,1,,,,,エヌワイシーアイフィフティーン,0
1916,8010001257069,新規,0,2025-07-25,2025-07-25,国立興産株式会社,,株式会社,東京都,千代田区,神田猿楽町２丁目１番２号,,13,101,1010064,,,,,,,2025-07-25,1,,,,,コクリツコウサン,0
1917,8010001257093,新規,0,2025-07-25,2025-07-25,ＢｏｌｔｚＡＩ株式会社,,株式会社,東京都,中央区,銀座２丁目１５番２号ＫＲＧｉｎｚａＩＩ６階,00140047,13,102,1040061,,,,,,,2025-07-25,1,,,,,ボルツエーアイ,0
1918,8010001257119,新規,0,2025-07-25,2025-07-25,アメリカグループ株式会社,,株式会社,東京都,千代田区,神田神保町３丁目１２－３神保町スリービル８階,,13,101,1010051,,,,,,,2025-07-25,1,,,,,アメリカグループ,0
1922,8010003048045,新規,0,2025-07-25,2025-07-25,合同会社ＳｅａｆａｍＸ,,合同会社,東京都,中央区,晴海２丁目２番地４２－３１２２号,,13,102,1040053,,,,,,,2025-07-25,1,,,,,シーファムクロス,0
1923,8010003048111,新規,0,2025-07-25,2025-07-25,合同会社ロータス,,合同会社,東京都,中央区,銀座１丁目１２番４号Ｎ＆ＥＢＬＤ．６Ｆ,,13,102,1040061,,,,,,,2025-07-25,1,,,,,ロータス,0
1924,8010003048136,新規,0,2025-07-25,2025-07-25,ＡＰＨ１合同会社,,合同会社,東京都,千代田区,丸の内１丁目４番１号東京共同会計事務所内,,13,101,1000005,,,,,,,2025-07-25,1,,,,,エーピーエイチワン,0
1927,8010401191875,新規,0,2025-07-25,2025-07-25,光和貴金属株式会社,,株式会社,東京都,港区,南青山６丁目２番９号,,13,103,1070062,,,,,,,2025-07-25,1,,,,,コウワキキンゾク,0
1928,8010401191900,新規,0,2025-07-25,2025-07-25,株式会社ノッチアップ,,株式会社,東京都,港区,虎ノ門１丁目１０番５号,,13,103,1050001,,,,,,,2025-07-25,1,,,,,ノッチアップ,0
1929,8010401191958,新規,0,2025-07-25,2025-07-25,ＩＮＴＬＯＯＰ　Ｐｒｏｊｅｃｔ　Ｍａｎａｇｅｍｅｎｔ株式会社,,株式会社,東京都,港区,赤坂２丁目４番６号,,13,103,1070052,,,,,,,2025-07-25,1,,,,,イントループプロジェクトマネジメント,0
1933,8010403035667,新規,0,2025-07-25,2025-07-25,合同会社マーケティング総合研究所,,合同会社,東京都,港区,新橋４丁目２９番１号,,13,103,1050004,,,,,,,2025-07-25,1,,,,,マーケティングソウゴウケンキュウショ,0
1937,8010405024593,新規,0,2025-07-25,2025-07-25,ＫＩＣ酒々井特定目的会社,,その他の設立登記法人,東京都,港区,南青山４丁目２１番２６号リュエル青山Ｃ棟Ｂ１細谷総合会計事務所内,,13,103,1070062,,,,,,,2025-07-25,1,,,,,ケイアイシーシスイ,0
1939,8010601067636,新規,0,2025-07-25,2025-07-25,株式会社Ｗｉｌｌｅ,,株式会社,東京都,江東区,豊洲５丁目２番１２号豊洲ＢＡＹＳＩＤＥクリニックビル５階,,13,108,1350061,,,,,,,2025-07-25,1,,,,,ヴィレ,0
1940,8010601067669,新規,0,2025-07-25,2025-07-25,プラスオム株式会社,,株式会社,東京都,江東区,白河２丁目１４番２号,,13,108,1350021,,,,,,,2025-07-25,1,,,,,プラスオム,0
1943,8010801036416,新規,0,2025-07-25,2025-07-25,Ｍ’ｓ株式会社,,株式会社,東京都,大田区,蒲田５丁目４９番１０－３０３号,,13,111,1440052,,,,,,,2025-07-25,1,,,,,エムズ,0
1944,8010903010120,新規,0,2025-07-25,2025-07-25,ＭａｓｔｅｒＳｏｌｅｉｌ合同会社,,合同会社,東京都,世田谷区,代沢３丁目９番１３号パサニアコートＡ棟１,,13,112,1550032,,,,,,,2025-07-25,1,,,,,マスターソレイユ,0
1945,8010903010129,新規,0,2025-07-25,2025-07-25,ＡＩＪ合同会社,,合同会社,東京都,世田谷区,代沢３丁目１７番１５号ブリーズＤ,,13,112,1550032,,,,,,,2025-07-25,1,,,,,エーアイジェイ,0
1946,8010905004806,新規,0,2025-07-25,2025-07-25,一般社団法人芋煮会,,その他の設立登記法人,東京都,世田谷区,北沢４丁目１５番２６号パティオデピーノ２０１,,13,112,1550031,,,,,,,2025-07-25,1,,,,,イモニカイ,0
1953,8011001171004,新規,0,2025-07-25,2025-07-25,株式会社ＴＧ,,株式会社,東京都,渋谷区,宇田川町１番１２－２００４号パークコート渋谷・ザ・タワー,,13,113,1500042,,,,,,,2025-07-25,1,,,,,ティージー,0
1954,8011001171020,新規,0,2025-07-25,2025-07-25,ＲｅａｌＲｅａｌ株式会社,,株式会社,東京都,渋谷区,笹塚１丁目６４番８号Ｄａｉｗａ笹塚ビル６階,,13,113,1510073,,,,,,,2025-07-25,1,,,,,リアルリアル,0
1955,8011001171029,新規,0,2025-07-25,2025-07-25,株式会社ディープ・ソリューション,,株式会社,東京都,渋谷区,円山町５－５,,13,113,1500044,,,,,,,2025-07-25,1,,,,,ディープソリューション,0
1956,8011001171193,新規,0,2025-07-25,2025-07-25,株式会社Ｂｅａｒ　Ｐｌａｎｎｉｎｇ,,株式会社,東京都,渋谷区,恵比寿西２丁目８番４号ＥＸ恵比寿西ビル５階,,13,113,1500021,,,,,,,2025-07-25,1,,,,,ベアプランニング,0
1959,8011003022048,新規,0,2025-07-25,2025-07-25,アップウインド合同会社,,合同会社,東京都,渋谷区,鉢山町１１－１－３０９,,13,113,1500035,,,,,,,2025-07-25,1,,,,,アップウインド,0
1969,8011601028776,新規,0,2025-07-25,2025-07-25,株式会社トラストファンドキャピタル,,株式会社,東京都,練馬区,豊玉北２丁目１９－１５江古田第２ローヤルコーポＡ４０３,,13,120,1760012,,,,,,,2025-07-25,1,,,,,トラストファンドキャピタル,0
1973,8012801024061,新規,0,2025-07-25,2025-07-25,株式会社ＷＡＧＯ,,株式会社,東京都,立川市,錦町６丁目８番２３号,,13,202,1900022,,,,,,,2025-07-25,1,,,,,ワゴウ,0
1974,8013101009752,新規,0,2025-07-25,2025-07-25,株式会社和昇,,株式会社,東京都,青梅市,千ヶ瀬町３丁目４６８番地の１３,,13,205,1980043,,,,,,,2025-07-25,1,,,,,カズショウ,0
1980,8013301054664,新規,0,2025-07-25,2025-07-25,株式会社ＲＩＫＩＴＯ,,株式会社,東京都,豊島区,東池袋２丁目６２番８号ＢＩＧオフィスプラザ池袋１２０６,,13,116,1700013,,,,,,,2025-07-25,1,,,,,リキト,0
2000,8030001167778,新規,0,2025-07-25,2025-07-25,株式会社柴山建設,,株式会社,埼玉県,熊谷市,宮町１丁目１５４番地２,,11,202,3600041,,,,,,,2025-07-25,1,,,,,シバヤマケンセツ,0
2008,8040001139660,新規,0,2025-07-25,2025-07-25,株式会社センスイ,,株式会社,千葉県,市原市,福増３６６番地１,,12,219,2900202,,,,,,,2025-07-25,1,,,,,センスイ,0
2019,8080103003380,新規,0,2025-07-25,2025-07-25,合同会社Ｅ・ＲＥＳＵＬＴＳ,,合同会社,静岡県,富士市,宮島５７９,,22,210,4160945,,,,,,,2025-07-25,1,,,,,イーリザルツ,0
2021,8080403005317,新規,0,2025-07-25,2025-07-25,合同会社ＦＲＥＡＣＡＲＳ,,合同会社,静岡県,袋井市,高尾２６９５番地の３,,22,216,4370023,,,,,,,2025-07-25,1,,,,,フリーカーズ,0
2023,8090001019404,新規,0,2025-07-25,2025-07-25,株式会社ＢＲＩＧＩＤ,,株式会社,山梨県,北杜市,長坂町小荒間７１番地２２,,19,209,4080031,,,,,,,2025-07-25,1,,,,,ブリギッド,0
2033,8100003008304,新規,0,2025-07-25,2025-07-25,合同会社こばやしや,,合同会社,長野県,上田市,蒼久保７７２－２,,20,203,3860155,,,,,,,2025-07-25,1,,,,,コバヤシヤ,0
2041,8120001278095,新規,0,2025-07-25,2025-07-25,株式会社Ｎｅｘｔ　Ｓｏｕｒｃｉｎｇ,,株式会社,大阪府,大阪市旭区,生江３丁目５－２３,,27,117,5350004,,,,,,,2025-07-25,1,,,,,ネクストソーシング,0
2042,8120001278112,新規,0,2025-07-25,2025-07-25,株式会社ＯＮＥ　ＭＥＭＯＲＹ,,株式会社,大阪府,枚方市,池之宮３丁目７－１,,27,210,5730005,,,,,,,2025-07-25,1,,,,,ワンメモリー,0
2043,8120001278145,新規,0,2025-07-25,2025-07-25,株式会社なんば地所,,株式会社,大阪府,大阪市中央区,南船場３丁目６番２２号,,27,128,5420081,,,,,,,2025-07-25,1,,,,,ナンバジショ,0
2044,8120001278161,新規,0,2025-07-25,2025-07-25,株式会社ＡＩＴ,,株式会社,大阪府,大阪市天王寺区,真法院町１７番７号,,27,109,5430041,,,,,,,2025-07-25,1,,,,,エーアイティー,0
2045,8120001278178,新規,0,2025-07-25,2025-07-25,株式会社ラフィンアース,,株式会社,大阪府,大阪市鶴見区,焼野２丁目南１番１５号,,27,124,5380037,,,,,,,2025-07-25,1,,,,,ラフィンアース,0
2046,8120001278211,新規,0,2025-07-25,2025-07-25,Ｎファミリーホールディングス株式会社,,株式会社,大阪府,大阪市中央区,北久宝寺町１丁目２番１５号,,27,128,5410057,,,,,,,2025-07-25,1,,,,,エヌファミリーホールディングス,0
2052,8120003030090,新規,0,2025-07-25,2025-07-25,合同会社タルミル,,合同会社,大阪府,大阪市城東区,蒲生２丁目９番５号城東マンション２Ａ,,27,118,5360016,,,,,,,2025-07-25,1,,,,,タルミル,0
2053,8120003030099,新規,0,2025-07-25,2025-07-25,千朶雲合同会社,,合同会社,大阪府,大阪市城東区,鴫野西５丁目１５番７－３０６号,,27,118,5360014,,,,,,,2025-07-25,1,,,,,センダグモ,0
2054,8120003030132,新規,0,2025-07-25,2025-07-25,ＳＰ　ＥＳＳ９合同会社,,合同会社,大阪府,大阪市中央区,南船場２丁目６－３第２ＢＳビル６０１号室,,27,128,5420081,,,,,,,2025-07-25,1,,,,,エスピーイーエスエスナイン,0
2055,8120005025064,新規,0,2025-07-25,2025-07-25,一般社団法人ランバイクアスリート育成協会,,その他の設立登記法人,大阪府,大阪市中央区,内淡路町１丁目３番６号,,27,128,5400038,,,,,,,2025-07-25,1,,,,,ランバイクアスリートイクセイキョウカイ,0
2060,8120101072167,新規,0,2025-07-25,2025-07-25,株式会社Ｎ‐ｎｏｖｅｌ,,株式会社,大阪府,堺市堺区,戎之町東３－２－３０,,27,141,5900000,,,,,,,2025-07-25,1,,,,,,0
2067,8122001039452,新規,0,2025-07-25,2025-07-25,株式会社Ｓｃｅｎｔ　Ｓｐａｃｅ,,株式会社,大阪府,八尾市,太子堂５丁目１－３４,,27,212,5810063,,,,,,,2025-07-25,1,,,,,セントスペース,0
2068,8122001039460,新規,0,2025-07-25,2025-07-25,株式会社匠,,株式会社,大阪府,東大阪市,森河内東１丁目１２－１９,,27,227,5770062,,,,,,,2025-07-25,1,,,,,タクミ,0
2073,8130003010612,新規,0,2025-07-25,2025-07-25,Ｓｈｉｚｕｙａ　Ｈｏｍｅ合同会社,,合同会社,京都府,京都市南区,西九条東島町１１－５,,26,107,6018432,,,,,,,2025-07-25,1,,,,,シズヤホーム,0
2078,8140001139394,新規,0,2025-07-25,2025-07-25,Ｅｉｇｈｔ　Ｂｕｚｚ株式会社,,株式会社,兵庫県,伊丹市,西野３丁目２０７番地,,28,207,6640028,,,,,,,2025-07-25,1,,,,,エイトバズ,0
2084,8160003003555,新規,0,2025-07-25,2025-07-25,合同会社春夏秋冬,,合同会社,滋賀県,大津市,比叡平１丁目２８番６号,,25,201,5200016,,,,,,,2025-07-25,1,,,,,シュンカシュウトウ,0
2085,8170001018728,新規,0,2025-07-25,2025-07-25,株式会社和の国,,株式会社,和歌山県,和歌山市,延時１３９番地３,,30,201,6408443,,,,,,,2025-07-25,1,,,,,ワノクニ,0
2095,8180003028757,新規,0,2025-07-25,2025-07-25,７１０Ｈｚ　ｔｏｎｅ合同会社,,合同会社,愛知県,半田市,有楽町１丁目１０２番地の１,,23,205,4750837,,,,,,,2025-07-25,1,,,,,ナナイチゼロヘルツトーン,0
2098,8190001032421,新規,0,2025-07-25,2025-07-25,株式会社メディカルハート,,株式会社,三重県,津市,神戸７６９番地２,,24,201,5140824,,,,,,,2025-07-25,1,,,,,メディカルハート,0
2099,8200001044068,新規,0,2025-07-25,2025-07-25,Ｊワークス株式会社,,株式会社,岐阜県,羽島郡岐南町,伏屋２丁目２１９番地１,,21,302,5016006,,,,,,,2025-07-25,1,,,,,ジェイワークス,0
2117,8240001065283,新規,0,2025-07-25,2025-07-25,株式会社ａｎｄ　ｓｃｏｐｅ,,株式会社,広島県,広島市安佐南区,長束３丁目４６番８－２０６号,,34,105,7310135,,,,,,,2025-07-25,1,,,,,アンドスコープ,0
2121,8250001021269,新規,0,2025-07-25,2025-07-25,株式会社ＣＯＬＯＲ,,株式会社,山口県,防府市,八王子１丁目１番３－２０５号,,35,206,7470037,,,,,,,2025-07-25,1,,,,,カラー,0
2128,8280001009468,新規,0,2025-07-25,2025-07-25,株式会社ＦＡＲＭ　ＳＥＮＯＯ,,株式会社,島根県,雲南市,大東町前原３１７番地,,32,209,6991234,,,,,,,2025-07-25,1,,,,,ファームセノオ,0
2132,8290001110844,新規,0,2025-07-25,2025-07-25,レアクロノホールディングス株式会社,,株式会社,福岡県,福岡市東区,水谷３丁目１１番５号１Ｆ,,40,131,8130041,,,,,,,2025-07-25,1,,,,,レアクロノホールディングス,0
2133,8290001110852,新規,0,2025-07-25,2025-07-25,株式会社石塚ＮＡＩＬ研究所,,株式会社,福岡県,福岡市中央区,大名２丁目２番５７－５０２号,,40,133,8100041,,,,,,,2025-07-25,1,,,,,イシヅカネイルケンキュウジョ,0
2134,8290003017138,新規,0,2025-07-25,2025-07-25,合同会社そらりす,,合同会社,福岡県,福岡市南区,向野２丁目４番５－９０２号,,40,134,8150035,,,,,,,2025-07-25,1,,,,,,0
2136,8320001021237,新規,0,2025-07-25,2025-07-25,株式会社玄,,株式会社,大分県,大分市,田中町２丁目１３番１号,,44,201,8700852,,,,,,,2025-07-25,1,,,,,ゲン,0
2140,8370003007205,新規,0,2025-07-25,2025-07-25,合同会社Ｈａｎａｒｏ,,合同会社,宮城県,仙台市太白区,長町３丁目５番３－７０１号,,04,104,9820011,,,,,,,2025-07-25,1,,,,,ハナロ,0
2144,8390001018061,新規,0,2025-07-25,2025-07-25,株式会社侍,,株式会社,山形県,山形市,下条町３丁目１番３６号,,06,201,9900823,,,,,,,2025-07-25,1,,,,,サムライ,0
2149,8420003003165,新規,0,2025-07-25,2025-07-25,ＣｒｏｓｓＨａｒｍｏｎｙ合同会社,,合同会社,青森県,三戸郡五戸町,大字倉石又重字山田１００番地１,,02,442,0391703,,,,,,,2025-07-25,1,,,,,クロスハーモニー,0
2154,8440001009658,新規,0,2025-07-25,2025-07-25,株式会社ＮＶＣ,,株式会社,北海道,函館市,昭和町４番地８０,,01,202,0410823,,,,,,,2025-07-25,1,,,,,エヌブイシー,0
2157,8480003002293,新規,0,2025-07-25,2025-07-25,合同会社清信,,合同会社,徳島県,小松島市,日開野町字高須３３‐１ラヴィータ１Ｆ,,36,203,7730010,,,,,,,2025-07-25,1,,,,,キヨシン,0
2167,9010001256978,新規,0,2025-07-25,2025-07-25,野亀文化株式会社,,株式会社,東京都,千代田区,神田錦町３丁目１５番地錦精社神田ビル天翔オフィス大手町竹橋２階２１４号室,,13,101,1010054,,,,,,,2025-07-25,1,,,,,ノガメブンカ,0
2171,9010003048110,新規,0,2025-07-25,2025-07-25,トータルワークスＪＰ合同会社,,合同会社,東京都,中央区,銀座７丁目１３番６号サガミビル２階,,13,102,1040061,,,,,,,2025-07-25,1,,,,,トータルワークス,0
2172,9010003048119,新規,0,2025-07-25,2025-07-25,合同会社オリエント４号,,合同会社,東京都,千代田区,霞が関３丁目２番５号,,13,101,1000013,,,,,,,2025-07-25,1,,,,,オリエントヨンゴウ,0
2173,9010005040437,新規,0,2025-07-25,2025-07-25,ブルーインフラホールディングスＬ４号一般社団法人,,その他の設立登記法人,東京都,千代田区,紀尾井町４番１号ニューオータニガーデンコート１９階フィンポート税理士法人内,,13,101,1020094,,,,,,,2025-07-25,1,,,,,ブルーインフラホールディングスエルヨンゴウ,0
2183,9010401191858,新規,0,2025-07-25,2025-07-25,株式会社ギャラリー・サカ,,株式会社,東京都,港区,元赤坂１丁目７番２２号,,13,103,1070051,,,,,,,2025-07-25,1,,,,,ギャラリーサカ,0
2184,9010401191932,新規,0,2025-07-25,2025-07-25,株式会社創進舎,,株式会社,東京都,港区,元麻布１丁目１番１１号２０２号,,13,103,1060046,,,,,,,2025-07-25,1,,,,,ソウシンシャ,0
2187,9010403035658,新規,0,2025-07-25,2025-07-25,合同会社やまとなでしこ,,合同会社,東京都,港区,南青山２丁目３‐３‐２４０３,,13,103,1070062,,,,,,,2025-07-25,1,,,,,ヤマトナデシコ,0
2192,9010801036415,新規,0,2025-07-25,2025-07-25,ハル株式会社,,株式会社,東京都,大田区,北千束２丁目４２番９号,,13,111,1450062,,,,,,,2025-07-25,1,,,,,ハル,0
2193,9010803005483,新規,0,2025-07-25,2025-07-25,合同会社アルファベット,,合同会社,東京都,大田区,北千束１丁目６２番９－１０３号,,13,111,1450062,,,,,,,2025-07-25,1,,,,,アルファベット,0
2195,9010901057781,新規,0,2025-07-25,2025-07-25,株式会社知ラズコーポレーション,,株式会社,東京都,世田谷区,松原２丁目２９番１７号ルミナス松原１０１号室,,13,112,1560043,,,,,,,2025-07-25,1,,,,,シラズコーポレーション,0
2203,9011001171416,新規,0,2025-07-25,2025-07-25,株式会社ＲＥＦＬＥＸ,,株式会社,東京都,目黒区,青葉台１丁目２４番２－３０１号クレッセント目黒青葉台,,13,110,1530042,,,,,,,2025-07-25,1,,,,,リフレックス,0
2204,9011001171449,新規,0,2025-07-25,2025-07-25,浦和無線株式会社,,株式会社,東京都,渋谷区,西原１丁目２１番１６号９０３号室,,13,113,1510066,,,,,,,2025-07-25,1,,,,,ウラワムセン,0
2205,9011003022063,新規,0,2025-07-25,2025-07-25,合同会社Ｇｒｏｗｔｈ　Ａｃｔｉｖａｔｉｏｎ,,合同会社,東京都,渋谷区,神南１丁目１１－４ＦＰＧリンクス神南５階,,13,113,1500041,,,,,,,2025-07-25,1,,,,,グロースアクティベーション,0
2206,9011003022179,新規,0,2025-07-25,2025-07-25,メネフネ合同会社,,合同会社,東京都,渋谷区,代官山町８－７ＤＡＩＷＡ代官山ビル,,13,113,1500034,,,,,,,2025-07-25,1,,,,,メネフネ,0
2210,9011105011501,新規,0,2025-07-25,2025-07-25,特定非営利活動法人酪農乳業ネットワーク協会うしミル,,その他の設立登記法人,東京都,新宿区,西新宿３丁目３番１３号西新宿水間ビル６階,,13,104,1600023,,,,,,,2025-07-25,1,,,,,ラクノウニュウギョウネットワークキョウカイウシミル,0
2213,9011401027267,新規,0,2025-07-25,2025-07-25,思郡株式会社,,株式会社,東京都,板橋区,坂下１丁目２８番２号,,13,119,1740043,,,,,,,2025-07-25,1,,,,,シグン,0
2215,9011501032332,新規,0,2025-07-25,2025-07-25,株式会社ＹＳｃｏｐｅ,,株式会社,東京都,北区,東十条２丁目１６－１３菱和パレス東十条駅前４０３号室,,13,117,1140001,,,,,,,2025-07-25,1,,,,,ワイスコープ,0
2216,9011501032340,新規,0,2025-07-25,2025-07-25,星琴株式会社,,株式会社,東京都,荒川区,東日暮里３丁目１０番地２２サンフルハイツ３０１,,13,118,1160014,,,,,,,2025-07-25,1,,,,,ホシコト,0
2220,9012403007216,新規,0,2025-07-25,2025-07-25,Ａｄｖａｎｃｅｄ　Ｐａｒｔｎｅｒｓ合同会社,,合同会社,東京都,武蔵野市,吉祥寺南町４丁目２８番８号１,,13,203,1800003,,,,,,,2025-07-25,1,,,,,アドバンスドパートナーズ,0
2223,9013301054671,新規,0,2025-07-25,2025-07-25,ポラリスグリッド株式会社,,株式会社,東京都,豊島区,高松２丁目５５番１８号,,13,116,1710042,,,,,,,2025-07-25,1,,,,,ポラリスグリッド,0
2224,9013303007776,新規,0,2025-07-25,2025-07-25,Ｇｏｌｄｅｎ　Ｌｉｇｈｔ合同会社,,合同会社,東京都,豊島区,西巣鴨１丁目８番１３号シモンハウス１０１,,13,116,1700001,,,,,,,2025-07-25,1,,,,,ゴールデンライト,0
2232,9021001085755,新規,0,2025-07-25,2025-07-25,株式会社ＲＩＳＥ　ＰＲＯＣＥＥＤ,,株式会社,神奈川県,座間市,入谷東２丁目８番３－４０１号,,14,216,2520028,,,,,,,2025-07-25,1,,,,,ライズプロシード,0
2240,9030001167769,新規,0,2025-07-25,2025-07-25,株式会社Ｄ　ｆａｒｍ,,株式会社,埼玉県,北本市,大字下石戸下５３５番地５リリー・ヴァリーＶＩ１０３,00140051,11,233,3640023,,,,,,,2025-07-25,1,,,,,ディーファーム,0
2249,9030003027252,新規,0,2025-07-25,2025-07-25,はじまり企画合同会社,,合同会社,埼玉県,さいたま市浦和区,常盤３丁目１１番１５－２０５号,,11,107,3300061,,,,,,,2025-07-25,1,,,,,ハジマリキカク,0
2281,9120001278045,新規,0,2025-07-25,2025-07-25,株式会社ひこぼし,,株式会社,大阪府,大阪市中央区,北浜３丁目５番２２号オリックス淀屋橋ビル３階３０２号,,27,128,5410041,,,,,,,2025-07-25,1,,,,,ヒコボシ,0
2282,9120001278103,新規,0,2025-07-25,2025-07-25,株式会社ＪＣサービス,,株式会社,大阪府,大阪市中央区,日本橋２丁目１番２６－６０１号,,27,128,5420073,,,,,,,2025-07-25,1,,,,,ジェイシーサービス,0
2283,9120001278111,新規,0,2025-07-25,2025-07-25,義家株式会社,,株式会社,大阪府,大阪市城東区,今福南２丁目２３番３２号今福ハイツ２－４,,27,118,5360003,,,,,,,2025-07-25,1,,,,,ギカ,0
2284,9120001278136,新規,0,2025-07-25,2025-07-25,株式会社末増コーポレート,,株式会社,大阪府,大阪市平野区,加美鞍作１丁目６番２９号,,27,126,5470004,,,,,,,2025-07-25,1,,,,,スエマスコーポレート,0
2285,9120001278169,新規,0,2025-07-25,2025-07-25,博華株式会社,,株式会社,大阪府,大阪市都島区,内代町３丁目７－１８－４０１,,27,102,5340013,,,,,,,2025-07-25,1,,,,,ハクカ,0
2286,9120001278177,新規,0,2025-07-25,2025-07-25,株式会社箕田工業,,株式会社,大阪府,大阪市浪速区,日本橋３丁目４番９号エグゼレジデンスタワー２３０５,,27,111,5560005,,,,,,,2025-07-25,1,,,,,ミタコウギョウ,0
2287,9120001278219,新規,0,2025-07-25,2025-07-25,瀛漫株式会社,,株式会社,大阪府,大阪市西成区,北津守４丁目１０番２９－１０１,,27,122,5570061,,,,,,,2025-07-25,1,,,,,エイマン,0
2288,9120001278227,新規,0,2025-07-25,2025-07-25,ＹＴＴ株式会社,,株式会社,大阪府,大阪市中央区,南船場１丁目３－９,,27,128,5420081,,,,,,,2025-07-25,1,,,,,ワイティーティー,0
2289,9120001278235,新規,0,2025-07-25,2025-07-25,冶都株式会社,,株式会社,大阪府,大阪市生野区,新今里３丁目８－１６啓源ビル３０１,,27,116,5440001,,,,,,,2025-07-25,1,,,,,ヤト,0
2292,9120003030081,新規,0,2025-07-25,2025-07-25,Ｍｏｒｅ　ｙｏｕｎｇ合同会社,,合同会社,大阪府,大阪市住吉区,遠里小野４丁目５－２、１０２,,27,120,5580032,,,,,,,2025-07-25,1,,,,,モアヤング,0
2293,9120003030107,新規,0,2025-07-25,2025-07-25,ＬＵＩＳＳＡ合同会社,,合同会社,大阪府,大阪市福島区,吉野１丁目１８番２号丸市ハイツ２０２号,,27,103,5530006,,,,,,,2025-07-25,1,,,,,ルイーサ,0
2294,9120003030131,新規,0,2025-07-25,2025-07-25,ＳＰ　ＥＳＳ８合同会社,,合同会社,大阪府,大阪市中央区,南船場２丁目６－３第２ＢＳビル６０１号室,,27,128,5420081,,,,,,,2025-07-25,1,,,,,エスピーイーエスエスエイト,0
2299,9120101072166,新規,0,2025-07-25,2025-07-25,株式会社ＴＨＲＥＥ　ＯＡＫ,,株式会社,大阪府,堺市北区,長曽根町１３０－４２,,27,146,5918025,,,,,,,2025-07-25,1,,,,,スリーオーク,0
2317,9160001026937,新規,0,2025-07-25,2025-07-25,株式会社エルセット,,株式会社,滋賀県,大津市,唐崎３丁目１番３２,,25,201,5200106,,,,,,,2025-07-25,1,,,,,エルセット,0
2319,9170001018735,新規,0,2025-07-25,2025-07-25,株式会社京昌建設,,株式会社,和歌山県,和歌山市,毛見１２－５,,30,201,6410014,,,,,,,2025-07-25,1,,,,,ケイショウケンセツ,0
2328,9180001167820,新規,0,2025-07-25,2025-07-25,株式会社ｐｌａｎｔＦＡＢ,,株式会社,愛知県,名古屋市守山区,翠松園３丁目１６０１番地の２,,23,113,4630010,,,,,,,2025-07-25,1,,,,,プラントファブ,0
2333,9180303006668,新規,0,2025-07-25,2025-07-25,合同会社万平,,合同会社,愛知県,蒲郡市,栄町５番４号,,23,214,4430035,,,,,,,2025-07-25,1,,,,,マンペイ,0
2338,9200003006932,新規,0,2025-07-25,2025-07-25,合同会社ＤＹＭ,,合同会社,岐阜県,岐阜市,江添２丁目４番２３号,,21,201,5008383,,,,,,,2025-07-25,1,,,,,ディーワイエム,0
2353,9240001065274,新規,0,2025-07-25,2025-07-25,株式会社Ｃｏｍｅ‐ｏｎ,,株式会社,広島県,広島市西区,己斐上５丁目３１番３号,,34,104,7330815,,,,,,,2025-07-25,1,,,,,カモン,0
2354,9240001065282,新規,0,2025-07-25,2025-07-25,株式会社あい整体,,株式会社,広島県,東広島市,西条土与丸６丁目２番５２号面谷ビル１０１,,34,212,7390007,,,,,,,2025-07-25,1,,,,,アイセイタイ,0
2362,9290003017137,新規,0,2025-07-25,2025-07-25,ノーダリンク合同会社,,合同会社,福岡県,福岡市博多区,博多駅前１丁目２３番２号ＰａｒｋＦｒｏｎｔ博多駅前１丁目５Ｆ－Ｂ,,40,132,8120011,,,,,,,2025-07-25,1,,,,,ノーダリンク,0
2363,9300003002319,新規,0,2025-07-25,2025-07-25,合同会社むかい,,合同会社,佐賀県,佐賀市,兵庫北１丁目１番２１－９０８号,,41,201,8490919,,,,,,,2025-07-25,1,,,,,ムカイ,0
2365,9320003004726,新規,0,2025-07-25,2025-07-25,合同会社Ｅ＆Ｋ,,合同会社,大分県,津久見市,大字津久見２１８７番地の１,,44,207,8792421,,,,,,,2025-07-25,1,,,,,イーアンドケー,0
2368,9330005010936,新規,0,2025-07-25,2025-07-25,ＮＰＯ法人ナッジ,,その他の設立登記法人,熊本県,熊本市西区,横手４丁目８番２３号,,43,103,8600046,,,,,,,2025-07-25,1,,,,,ナッジ,0
2374,9360003015091,新規,0,2025-07-25,2025-07-25,合同会社理学療法舎,,合同会社,沖縄県,南城市,大里字大城８３４番地,,47,215,9011203,,,,,,,2025-07-25,1,,,,,リガクリョウホウシャ,0
2376,9370001052879,新規,0,2025-07-25,2025-07-25,セレンディップ工房株式会社,,株式会社,宮城県,仙台市太白区,八本松１丁目１３番１１－２１７号,,04,104,9820001,,,,,,,2025-07-25,1,,,,,セレンディップコウボウ,0
2377,9370003007204,新規,0,2025-07-25,2025-07-25,合同会社ＡＭＫ,,合同会社,宮城県,大崎市,鹿島台船越字鍋田５０番地２,,04,215,9894101,,,,,,,2025-07-25,1,,,,,エーエムケー,0
2381,9380001035478,新規,0,2025-07-25,2025-07-25,株式会社サニーダクト,,株式会社,福島県,福島市,飯坂町平野字代７番地の１６,,07,201,9600231,,,,,,,2025-07-25,1,,,,,サニーダクト,0
2390,9430003017881,新規,0,2025-07-25,2025-07-25,合同会社ｍｅｒｃｉ,,合同会社,北海道,札幌市北区,北十二条西２丁目１番地１６,,01,102,0010012,,,,,,,2025-07-25,1,,,,,メルシー,0
2391,9440001009657,新規,0,2025-07-25,2025-07-25,株式会社Ｋ．ＦＡＣＴＯＲＹ,,株式会社,北海道,茅部郡森町,字白川９番地６,,01,345,0492307,,,,,,,2025-07-25,1,,,,,ケイファクトリー,0
2397,9480003002292,新規,0,2025-07-25,2025-07-25,合同会社すぽっとらいと,,合同会社,徳島県,徳島市,春日３丁目３番３８号,,36,201,7700002,,,,,,,2025-07-25,1,,,,,スポットライト,0
2398,9490001011121,新規,0,2025-07-25,2025-07-25,株式会社進誠,,株式会社,高知県,高知市,葛島３丁目５－１１,,39,201,7818121,,,,,,,2025-07-25,1,,,,,シンセイ,0
2399,9500001026423,新規,0,2025-07-25,2025-07-25,株式会社ＵＮＣＥＲＴＡＩＮ,,株式会社,愛媛県,八幡浜市,松本町１丁目１１２－８,,38,204,7960052,,,,,,,2025-07-25,1,,,,,アンサーティン,0
