sequenceNumber,corporateNumber,process,correct,updateDate,changeDate,name,nameImageId,kind,prefectureName,cityName,streetNumber,addressImageId,prefectureCode,cityCode,postCode,addressOutside,addressOutsideImageId,closeDate,closeCause,successorCorporateNumber,changeCause,assignmentDate,latest,enName,enPrefectureName,enCityName,enAddressOutside,furigana,hihyoji
6,1010001250105,新規,0,2024-11-25,2024-11-25,ＧＡＩＡ株式会社,,株式会社,東京都,中央区,銀座１丁目１９番１４号銀座ＯＮＥビル６階,,13,102,1040061,,,,,,,2024-11-25,1,,,,,ガイア,0
8,1010003045593,新規,0,2024-11-25,2024-11-25,麹町リース８合同会社,,合同会社,東京都,千代田区,麹町１丁目４番地半蔵門ファーストビル５階株式会社ファンドクリエーション内,,13,101,1020083,,,,,,,2024-11-25,1,,,,,コウジマチリースハチ,0
9,1010101016414,新規,0,2024-11-25,2024-11-25,株式会社勝沢機工,,株式会社,東京都,八王子市,片倉町４４８番地４－１０１号,,13,201,1920914,,,,,,,2024-11-25,1,,,,,カツザワキコウ,0
15,1010403033850,新規,0,2024-11-25,2024-11-25,ＧＶＳＪ４７合同会社,,合同会社,東京都,港区,六本木３丁目１６番２６号,,13,103,1060032,,,,,,,2024-11-25,1,,,,,ジーブイエスジェイフォーティセブン,0
18,1010503007647,新規,0,2024-11-25,2024-11-25,合同会社タフラボ,,合同会社,東京都,台東区,鳥越１丁目３番４号ザ・パークハウス浅草橋西レジデンス８０４号,,13,106,1110054,,,,,,,2024-11-25,1,,,,,タフラボ,0
19,1010601066347,新規,0,2024-11-25,2024-11-25,アドバンス株式会社,,株式会社,東京都,江東区,亀戸９丁目３３番１号１４１１,,13,108,1360071,,,,,,,2024-11-25,1,,,,,アドバンス,0
22,1010801035580,新規,0,2024-11-25,2024-11-25,株式会社想建建設,,株式会社,東京都,大田区,南雪谷３丁目７－１９パークサイド南雪谷１０２号室,,13,111,1450066,,,,,,,2024-11-25,1,,,,,ソウケンケンセツ,0
23,1010801035589,新規,0,2024-11-25,2024-11-25,株式会社Ｐｕｒ　Ｐａｓｓｉｏｎ,,株式会社,東京都,大田区,大森北１丁目１７番１３号ＡＣＮ大森駅前ビル７階,,13,111,1430016,,,,,,,2024-11-25,1,,,,,パーパッション,0
33,1011001165929,新規,0,2024-11-25,2024-11-25,株式会社Ｐ．Ｂグループホールディングス,,株式会社,東京都,渋谷区,渋谷１丁目１４番１５号森ビル３階,,13,113,1500002,,,,,,,2024-11-25,1,,,,,ピービーグループホールディングス,0
34,1011001166027,新規,0,2024-11-25,2024-11-25,株式会社ＩｎｎｏｖａＸ,,株式会社,東京都,渋谷区,渋谷２丁目１９－１５宮益坂ビルディング６０９,,13,113,1500002,,,,,,,2024-11-25,1,,,,,イノヴァックス,0
35,1011003020446,新規,0,2024-11-25,2024-11-25,合同会社ＭＡＸ,,合同会社,東京都,渋谷区,円山町５番５号Ｎａｖｉ渋谷Ｖ３階,,13,113,1500044,,,,,,,2024-11-25,1,,,,,マックス,0
38,1011201025949,新規,0,2024-11-25,2024-11-25,ＤＹＹホールディングス株式会社,,株式会社,東京都,中野区,野方５丁目１８番３号,,13,114,1650027,,,,,,,2024-11-25,1,,,,,ディーワイワイホールディングス,0
43,1011801045215,新規,0,2024-11-25,2024-11-25,株式会社吉田商事,,株式会社,東京都,足立区,小台１丁目６－５ＫＦ－ＲＯＯＭ小台２０４,,13,121,1200046,,,,,,,2024-11-25,1,,,,,ヨシダショウジ,0
45,1012401042503,新規,0,2024-11-25,2024-11-25,マローリンク株式会社,,株式会社,東京都,狛江市,岩戸北３丁目１番２０号,,13,219,2010004,,,,,,,2024-11-25,1,,,,,マローリンク,0
46,1012403006852,新規,0,2024-11-25,2024-11-25,ソウソウル・ジャパン合同会社,,合同会社,東京都,府中市,小柳町５丁目２２－２,,13,206,1830013,,,,,,,2024-11-25,1,,,,,ソウソウルジャパン,0
49,1012703003137,新規,0,2024-11-25,2024-11-25,ＦＬグループ合同会社,,合同会社,東京都,小平市,花小金井南町１丁目３番１６－Ｈ７２２,,13,211,1870003,,,,,,,2024-11-25,1,,,,,,0
56,1013303007404,新規,0,2024-11-25,2024-11-25,直美香合同会社,,合同会社,東京都,豊島区,駒込３丁目５番６号,,13,116,1700003,,,,,,,2024-11-25,1,,,,,ナミコウ,0
61,1020001160096,新規,0,2024-11-25,2024-11-25,ココ株式会社,,株式会社,神奈川県,横浜市青葉区,藤が丘２丁目３１－２０,,14,117,2270043,,,,,,,2024-11-25,1,,,,,ココ,0
62,1020001160261,新規,0,2024-11-25,2024-11-25,株式会社ジョイクラフト,,株式会社,神奈川県,横浜市青葉区,もみの木台３番地１ピークネストＢ－３０１,,14,117,2250026,,,,,,,2024-11-25,1,,,,,ジョイクラフト,0
63,1020001160328,新規,0,2024-11-25,2024-11-25,株式会社ＷＩＤＥ,,株式会社,神奈川県,横浜市中区,山手町８４番地３,,14,104,2310862,,,,,,,2024-11-25,1,,,,,ワイド,0
67,1020003027310,新規,0,2024-11-25,2024-11-25,合同会社ＵＫＡＮＯ,,合同会社,神奈川県,川崎市宮前区,初山２丁目８番２５－５,,14,136,2160026,,,,,,,2024-11-25,1,,,,,,0
73,1021003015247,新規,0,2024-11-25,2024-11-25,西湘クリーンワークス合同会社,,合同会社,神奈川県,足柄下郡真鶴町,岩８７４番地１８４号,,14,383,2590202,,,,,,,2024-11-25,1,,,,,セイショウクリーンワークス,0
81,1030001163593,新規,0,2024-11-25,2024-11-25,株式会社Ａ‐ＣＲＥＡＴＥ,,株式会社,埼玉県,八潮市,大字南川崎６０番地１,,11,234,3400814,,,,,,,2024-11-25,1,,,,,エークリエイト,0
82,1030001163610,新規,0,2024-11-25,2024-11-25,株式会社上野商事,,株式会社,埼玉県,川口市,前川３丁目４－４,,11,203,3330842,,,,,,,2024-11-25,1,,,,,ウエノショウジ,0
95,1040001136284,新規,0,2024-11-25,2024-11-25,株式会社ＣＯＬＯＲＥＲ,,株式会社,千葉県,流山市,青田１３７番地の７,,12,220,2700112,,,,,,,2024-11-25,1,,,,,クロレ,0
96,1040001136301,新規,0,2024-11-25,2024-11-25,株式会社スムエール,,株式会社,千葉県,船橋市,本町４丁目４４番２５－１２０４号,,12,204,2730005,,,,,,,2024-11-25,1,,,,,スムエール,0
98,1040003026252,新規,0,2024-11-25,2024-11-25,ＢＯＢＯ合同会社,,合同会社,千葉県,八千代市,勝田台１丁目２９番地,,12,221,2760023,,,,,,,2024-11-25,1,,,,,ボボ,0
102,1060001037670,新規,0,2024-11-25,2024-11-25,ＮＡＳ‐Ｗｏｒｋｉｎｇ株式会社,,株式会社,栃木県,那須塩原市,上大貫２０９５番地３,,09,213,3292814,,,,,,,2024-11-25,1,,,,,ナスワーキング,0
104,1080001026622,新規,0,2024-11-25,2024-11-25,株式会社いつき,,株式会社,静岡県,静岡市駿河区,中原６７０番地の１フォーリア中原Ｆ－１,,22,102,4228058,,,,,,,2024-11-25,1,,,,,イツキ,0
106,1080101025144,新規,0,2024-11-25,2024-11-25,株式会社ＭＫ熱海リゾート,,株式会社,静岡県,熱海市,伊豆山字前鳴沢８１０番地の５,,22,205,4130002,,,,,,,2024-11-25,1,,,,,エムケイアタミリゾート,0
107,1080101025152,新規,0,2024-11-25,2024-11-25,株式会社がじゅまる,,株式会社,静岡県,三島市,富士ビレッジ１１番６号,,22,206,4110028,,,,,,,2024-11-25,1,,,,,ガジュマル,0
115,1100001038045,新規,0,2024-11-25,2024-11-25,株式会社ｅ‐ｙｏ,,株式会社,長野県,塩尻市,大字大門八番町一丁目２８番,,20,215,3990744,,,,,,,2024-11-25,1,,,,,イーヨ,0
116,1100001038061,新規,0,2024-11-25,2024-11-25,株式会社ｇｒｏｗ,,株式会社,長野県,小県郡青木村,大字村松１７３６番地１,,20,349,3861602,,,,,,,2024-11-25,1,,,,,グロー,0
123,1100003007857,新規,0,2024-11-25,2024-11-25,ファム家合同会社,,合同会社,長野県,伊那市,坂下３３０８番地２６,,20,209,3960024,,,,,,,2024-11-25,1,,,,,ファムヤ,0
131,1120001270496,新規,0,2024-11-25,2024-11-25,行必果株式会社,,株式会社,大阪府,大阪市生野区,中川３丁目４番１７号２０８室,,27,116,5440005,,,,,,,2024-11-25,1,,,,,コウヒッカ,0
132,1120001270505,新規,0,2024-11-25,2024-11-25,九九株式会社,,株式会社,大阪府,大阪市天王寺区,寺田町２丁目４番１４号,,27,109,5430045,,,,,,,2024-11-25,1,,,,,キュウキュウ,0
133,1120001270521,新規,0,2024-11-25,2024-11-25,ＴＫＩ株式会社,,株式会社,大阪府,大阪市大正区,鶴町１丁目７番２号,,27,108,5510023,,,,,,,2024-11-25,1,,,,,ティーケイアイ,0
134,1120001270554,新規,0,2024-11-25,2024-11-25,チェンジエージェンシー・コンサルティング株式会社,,株式会社,大阪府,大阪市北区,梅田１丁目２番２号大阪駅前第２ビル１２－１２,,27,127,5300001,,,,,,,2024-11-25,1,,,,,チェンジエージェンシーコンサルティング,0
135,1120001270562,新規,0,2024-11-25,2024-11-25,石山商事株式会社,,株式会社,大阪府,大阪市住吉区,杉本２丁目２６－３２－４０６号,,27,120,5580022,,,,,,,2024-11-25,1,,,,,イシヤマショウジ,0
136,1120003027886,新規,0,2024-11-25,2024-11-25,合同会社下前電機サービス,,合同会社,大阪府,大阪市東住吉区,中野４丁目１５番１０－５０６,,27,121,5460012,,,,,,,2024-11-25,1,,,,,シモマエデンキサービス,0
140,1130001078393,新規,0,2024-11-25,2024-11-25,ＨＩＳＡＫＯＬＡＢ株式会社,,株式会社,京都府,京都市下京区,七条通油小路東入大黒町２２７番地第２キョートビル４０２,,26,106,6008223,,,,,,,2024-11-25,1,,,,,ヒサコラボ,0
141,1130003010032,新規,0,2024-11-25,2024-11-25,ＭＩＹＡＫＯ．ＳＳ合同会社,,合同会社,京都府,京都市南区,吉祥院石原町１００番地２,,26,107,6018367,,,,,,,2024-11-25,1,,,,,ミヤコエスエス,0
153,1140001136506,新規,0,2024-11-25,2024-11-25,桜花商事株式会社,,株式会社,兵庫県,神戸市灘区,水道筋５丁目２番４号,,28,102,6570831,,,,,,,2024-11-25,1,,,,,オウカショウジ,0
154,1140003021350,新規,0,2024-11-25,2024-11-25,合同会社Ｄ‐ｔｉｅ,,合同会社,兵庫県,神戸市中央区,磯辺通１丁目１番１８号カサベラ国際プラザビル７０７号,,28,110,6510084,,,,,,,2024-11-25,1,,,,,ディータイ,0
157,1150001027679,新規,0,2024-11-25,2024-11-25,株式会社脇田総建,,株式会社,奈良県,桜井市,大字外山３７７番地の１ＩＩ－１０１,00137126,29,206,6330007,,,,,,,2024-11-25,1,,,,,ワキタソウケン,0
158,1160003003339,新規,0,2024-11-25,2024-11-25,合同会社ライフロード,,合同会社,滋賀県,彦根市,野田山町９００番地１３,,25,202,5220025,,,,,,,2024-11-25,1,,,,,ライフロード,0
164,1180001164296,新規,0,2024-11-25,2024-11-25,株式会社Ｇｒｏｗｔｈ　Ｓｅｎｃｅ,,株式会社,愛知県,名古屋市中区,富士見町５番７号,,23,106,4600014,,,,,,,2024-11-25,1,,,,,グロースセンス,0
165,1180001164305,新規,0,2024-11-25,2024-11-25,株式会社不動産の清水,,株式会社,愛知県,名古屋市中川区,葉池町２丁目２０番地の２パークサイドシャトル１階,,23,110,4540844,,,,,,,2024-11-25,1,,,,,フドウサンノシミズ,0
168,1180003027666,新規,0,2024-11-25,2024-11-25,合同会社ｂｉａｓ,,合同会社,愛知県,名古屋市西区,山木１丁目１４４番地１,,23,104,4520833,,,,,,,2024-11-25,1,,,,,ビアス,0
170,1180005020842,新規,0,2024-11-25,2024-11-25,一般社団法人有理,,その他の設立登記法人,愛知県,名古屋市東区,矢田１丁目２０番１２号,,23,102,4610040,,,,,,,2024-11-25,1,,,,,ユウリ,0
176,1190001031826,新規,0,2024-11-25,2024-11-25,株式会社ＢＳＭ,,株式会社,三重県,鈴鹿市,江島町１５１１番地サトウビル３０１,,24,207,5100237,,,,,,,2024-11-25,1,,,,,ビーエスエム,0
190,1260001039663,新規,0,2024-11-25,2024-11-25,株式会社ＨｅｉｍＣｏｍｐａｎｙ,,株式会社,岡山県,倉敷市,北畝５丁目１５番３６号,,33,202,7128032,,,,,,,2024-11-25,1,,,,,ハイムカンパニー,0
201,1290001108069,新規,0,2024-11-25,2024-11-25,株式会社永進,,株式会社,福岡県,大牟田市,南船津町４丁目１０番地１,,40,202,8360075,,,,,,,2024-11-25,1,,,,,エイシン,0
202,1290001108093,新規,0,2024-11-25,2024-11-25,株式会社優昌,,株式会社,福岡県,福岡市東区,八田２丁目３０番２２号,,40,131,8130031,,,,,,,2024-11-25,1,,,,,ユウショウ,0
204,1290003016096,新規,0,2024-11-25,2024-11-25,ニューフィールド合同会社,,合同会社,福岡県,福岡市中央区,六本松４丁目８番１２－８０５号,,40,133,8100044,,,,,,,2024-11-25,1,,,,,ニューフィールド,0
205,1290003016113,新規,0,2024-11-25,2024-11-25,合同会社Ｋ．Ｈ．２,,合同会社,福岡県,福岡市中央区,大名２丁目２番７号大名センタービル６Ｆ,,40,133,8100041,,,,,,,2024-11-25,1,,,,,ケイエイチツー,0
206,1290801031065,新規,0,2024-11-25,2024-11-25,株式会社和成工務店,,株式会社,福岡県,鞍手郡鞍手町,大字中山２０７６番地,,40,402,8071312,,,,,,,2024-11-25,1,,,,,カズナリコウムテン,0
209,1290803004886,新規,0,2024-11-25,2024-11-25,合同会社燦愛,,合同会社,福岡県,築上郡築上町,大字椎田１０１６番地７,,40,647,8290301,,,,,,,2024-11-25,1,,,,,サンアイ,0
210,1320001020823,新規,0,2024-11-25,2024-11-25,株式会社ｓｅｖｅｎ　ｒａｙ,,株式会社,大分県,大分市,賀来西２丁目１２番９号,,44,201,8700850,,,,,,,2024-11-25,1,,,,,セブンレイ,0
214,1360001034464,新規,0,2024-11-25,2024-11-25,株式会社ｃｈａｌｌｅｎｇｅ,,株式会社,沖縄県,那覇市,前島１丁目２－１０,,47,201,9000016,,,,,,,2024-11-25,1,,,,,チャレンジ,0
216,1360003014480,新規,0,2024-11-25,2024-11-25,合同会社ＳｅｅＤ‐Ｈｉｇｈ,,合同会社,沖縄県,沖縄市,南桃原４丁目１０番５号２Ｆ,,47,211,9040035,,,,,,,2024-11-25,1,,,,,シードハイ,0
225,1380003005899,新規,0,2024-11-25,2024-11-25,すまいの窓口合同会社,,合同会社,福島県,伊達市,諏訪野１丁目１番地６１,,07,213,9600446,,,,,,,2024-11-25,1,,,,,スマイノマドグチ,0
228,1390001017805,新規,0,2024-11-25,2024-11-25,ＴＫホーム株式会社,,株式会社,山形県,山形市,大字長谷堂９１番地,,06,201,9902363,,,,,,,2024-11-25,1,,,,,ティーケーホーム,0
229,1410001013999,新規,0,2024-11-25,2024-11-25,株式会社ホームケアあんず,,株式会社,秋田県,大館市,御成町２丁目５番２号,,05,204,0170044,,,,,,,2024-11-25,1,,,,,ホームケアアンズ,0
246,1700150127950,新規,0,2024-11-25,2024-11-25,ｎａｎｊｉｎｈｏｎｇａｎｄｉａｎｚｉｋｅｊｉｙｏｕｘｉａｎｇｏｎｇｓｉ,,外国会社等,,,,,,,,ｎａｎｊｉｎｇｓｈｉｊｉａｎｇｎｉｎｇｑｕｔｉａｎｙｕａｎｄｏｎｇｌｕ１００９ｈａｏ２１００００　ＣＮ,,,,,,2024-11-25,1,,,,,ナンジンホンアンデンシカギヨウシエンゴンスー,0
247,1700150127959,新規,0,2024-11-25,2024-11-25,ｇｕａｎｇｚｈｏｕｊｉｅａｉｗｅｉｄｉａｎｑｉｙｏｕｘｉａｎｇｏｎｇｓｉ,,外国会社等,,,,,,,,ｘｉｎｈｕａｊｉｅ　ｘｉｘｉｕｌｕ　３２　ｈａｏ　ｇｕａｎｇｚｈｏｕ　ｈｕａｄｕ　ｇｕａｎｇｄｏｎｇ,,,,,,2024-11-25,1,,,,,グワンジョウジエアイウェイディエンチーヨウシエンゴンスー,0
251,2010001250129,新規,0,2024-11-25,2024-11-25,株式会社Ｊ‐ＨＯＭＥ,,株式会社,東京都,文京区,本郷３丁目３６番地岩崎ビル,,13,105,1130033,,,,,,,2024-11-25,1,,,,,ジェーホーム,0
252,2010001250178,新規,0,2024-11-25,2024-11-25,株式会社商工中金ヒューマンデザイン,,株式会社,東京都,中央区,八重洲２丁目１０番１７号,,13,102,1040028,,,,,,,2024-11-25,1,,,,,ショウコウチュウキンヒューマンデザイン,0
255,2010003045584,新規,0,2024-11-25,2024-11-25,ＢＳ南大垣合同会社,,合同会社,東京都,千代田区,大手町２丁目３番２号,,13,101,1000004,,,,,,,2024-11-25,1,,,,,ビーエスミナミオオガキ,0
256,2010003045592,新規,0,2024-11-25,2024-11-25,麹町リース７合同会社,,合同会社,東京都,千代田区,麹町１丁目４番地半蔵門ファーストビル５階株式会社ファンドクリエーション内,,13,101,1020083,,,,,,,2024-11-25,1,,,,,コウジマチリースナナ,0
259,2010101016405,新規,0,2024-11-25,2024-11-25,ＴＩＴＩ株式会社,,株式会社,東京都,八王子市,大和田町２丁目１番１６号,,13,201,1920045,,,,,,,2024-11-25,1,,,,,ティティ,0
264,2010401186641,新規,0,2024-11-25,2024-11-25,フォレスト・アドバイザーズ株式会社,,株式会社,東京都,港区,南青山３丁目１番３６号青山丸竹ビル６Ｆ,,13,103,1070062,,,,,,,2024-11-25,1,,,,,フォレストアドバイザーズ,0
266,2010403033866,新規,0,2024-11-25,2024-11-25,合同会社ピーチボーイ,,合同会社,東京都,港区,六本木３丁目１番３０号Ａ・Ｂビル６階,,13,103,1060032,,,,,,,2024-11-25,1,,,,,ピーチボーイ,0
270,2010501053238,新規,0,2024-11-25,2024-11-25,株式会社ＮＥＯＲＥＳＯＬＵＴＩＯＮ,,株式会社,東京都,台東区,松が谷２丁目２０番１５－１３０１号,,13,106,1110036,,,,,,,2024-11-25,1,,,,,ネオレゾリューション,0
277,2010701046883,新規,0,2024-11-25,2024-11-25,株式会社うすきね,,株式会社,東京都,品川区,東五反田１丁目１７番１０号プランドール壱番街３Ｎ,,13,109,1410022,,,,,,,2024-11-25,1,,,,,ウスキネ,0
286,2011001165473,新規,0,2024-11-25,2024-11-25,株式会社バフェット,,株式会社,東京都,渋谷区,神南１丁目１５番８号ひきだしのような家に５階,,13,113,1500041,,,,,,,2024-11-25,1,,,,,バフェット,0
287,2011001166174,新規,0,2024-11-25,2024-11-25,株式会社ＭｅｒａｋＯｒｎｅ,,株式会社,東京都,目黒区,八雲４丁目５番１３号八雲レーベル１０４,,13,110,1520023,,,,,,,2024-11-25,1,,,,,メラコルネ,0
291,2011101109702,新規,0,2024-11-25,2024-11-25,東成テクノロジー株式会社,,株式会社,東京都,新宿区,西新宿３丁目３番１３号西新宿水間ビル２Ｆ,,13,104,1600023,,,,,,,2024-11-25,1,,,,,トウセイテクノロジー,0
294,2011203004537,新規,0,2024-11-25,2024-11-25,合同会社前代アト夢,,合同会社,東京都,中野区,中野１丁目６番２号,,13,114,1640001,,,,,,,2024-11-25,1,,,,,マエシロアトム,0
298,2011503006308,新規,0,2024-11-25,2024-11-25,合同会社はこっぺ,,合同会社,東京都,荒川区,町屋８丁目２番９号ソルフィエスタ町屋９０２,,13,118,1160001,,,,,,,2024-11-25,1,,,,,ハコッペ,0
299,2011601028229,新規,0,2024-11-25,2024-11-25,株式会社ｆｏｒ　Ｈｏｍｅ,,株式会社,東京都,練馬区,向山１丁目９番１号,,13,120,1760022,,,,,,,2024-11-25,1,,,,,フォーホーム,0
301,2011603004525,新規,0,2024-11-25,2024-11-25,ＡＤＶＡＮＴＡＧＥ合同会社,,合同会社,東京都,練馬区,北町３丁目１－１９サイレントハウス３０３号室,,13,120,1790081,,,,,,,2024-11-25,1,,,,,アドヴァンテージ,0
302,2011701027849,新規,0,2024-11-25,2024-11-25,株式会社ティーケーエンタープライズ,,株式会社,東京都,江戸川区,松江２丁目４３番２５号,,13,123,1320025,,,,,,,2024-11-25,1,,,,,ティーケーエンタープライズ,0
307,2011801045206,新規,0,2024-11-25,2024-11-25,株式会社ＺＫＩ　ｄｅｓｉｇｎ,,株式会社,東京都,足立区,東和５丁目１３－２４－３０７,,13,121,1200003,,,,,,,2024-11-25,1,,,,,ツキデザイン,0
312,2012403006851,新規,0,2024-11-25,2024-11-25,ニッシュアベニール合同会社,,合同会社,東京都,武蔵野市,西久保２丁目３２番１号,,13,203,1800013,,,,,,,2024-11-25,1,,,,,ニッシュアベニール,0
317,2013303007403,新規,0,2024-11-25,2024-11-25,合同会社ＴＮ．Ｃｏｎｓｕｌｔｉｎｇ,,合同会社,東京都,豊島区,西池袋１丁目２９番３号ロイヤル西池袋ビル８Ｆ,,13,116,1710021,,,,,,,2024-11-25,1,,,,,ティーエヌコンサルティング,0
332,2020001160046,新規,0,2024-11-25,2024-11-25,株式会社コムキャスト,,株式会社,神奈川県,川崎市川崎区,駅前本町１１番地２川崎フロンティアビル４階,,14,131,2100007,,,,,,,2024-11-25,1,,,,,コムキャスト,0
336,2020003027318,新規,0,2024-11-25,2024-11-25,合同会社Ｂｒｉｄｇｅ,,合同会社,神奈川県,横浜市神奈川区,金港町５－１４クアドリフォリオ８階,,14,102,2210056,,,,,,,2024-11-25,1,,,,,ブリッジ,0
337,2020003027326,新規,0,2024-11-25,2024-11-25,合同会社松本設備,,合同会社,神奈川県,川崎市高津区,蟹ケ谷７７番地１－１１１３号,,14,134,2130025,,,,,,,2024-11-25,1,,,,,マツモトセツビ,0
343,2021001083807,新規,0,2024-11-25,2024-11-25,ラ・ストラーダ株式会社,,株式会社,神奈川県,相模原市南区,松が枝町６番２－２号,,14,153,2520313,,,,,,,2024-11-25,1,,,,,ラストラーダ,0
345,2030001163618,新規,0,2024-11-25,2024-11-25,株式会社Ｒｉｓｉｎｇ,,株式会社,埼玉県,春日部市,藤塚１０５３番地５,,11,214,3440011,,,,,,,2024-11-25,1,,,,,ライジング,0
350,2030003025535,新規,0,2024-11-25,2024-11-25,Ｉｎｎｏｖａｔｉｏｎｓ合同会社,,合同会社,埼玉県,北葛飾郡松伏町,大字松伏５０４－５,,11,465,3430111,,,,,,,2024-11-25,1,,,,,イノベーションズ,0
351,2030003025551,新規,0,2024-11-25,2024-11-25,Ｏｆｆｉｃｅ　ＯＣＨＩＡＩ合同会社,,合同会社,埼玉県,さいたま市桜区,南元宿１丁目１２番３０号４０２,,11,106,3380831,,,,,,,2024-11-25,1,,,,,オフィスオチアイ,0
357,2040001136300,新規,0,2024-11-25,2024-11-25,株式会社ｃｒｅａｔｉｖｅ,,株式会社,千葉県,市川市,高谷２丁目２０番３号（ツインプラザＡ１０３号）,,12,203,2720013,,,,,,,2024-11-25,1,,,,,クリエイティブ,0
360,2040003026268,新規,0,2024-11-25,2024-11-25,合同会社ＴＥＮ　ＴＥＮ,,合同会社,千葉県,船橋市,本町２丁目８番１１－４０２号,,12,204,2730005,,,,,,,2024-11-25,1,,,,,テンテン,0
361,2050001055771,新規,0,2024-11-25,2024-11-25,株式会社ＭＵＧＥＮ,,株式会社,茨城県,ひたちなか市,大字津田２１４７番地１５２,,08,221,3120032,,,,,,,2024-11-25,1,,,,,ムゲン,0
373,2080403005149,新規,0,2024-11-25,2024-11-25,合同会社Ｇｃｒｅｓｔ,,合同会社,静岡県,浜松市中央区,村櫛町４２２５－１,,22,138,4311207,,,,,,,2024-11-25,1,,,,,ジークレスト,0
393,2120001270512,新規,0,2024-11-25,2024-11-25,銀座株式会社,,株式会社,大阪府,大阪市港区,南市岡１丁目８番２２号内田文化１０１Ｂ,,27,107,5520011,,,,,,,2024-11-25,1,,,,,ギンザ,0
394,2120001270529,新規,0,2024-11-25,2024-11-25,株式会社西川商会,,株式会社,大阪府,守口市,藤田町１丁目１３番１１号,,27,209,5700014,,,,,,,2024-11-25,1,,,,,ニシカワショウカイ,0
395,2120001270561,新規,0,2024-11-25,2024-11-25,ＤＥＫＥＹ　ＪＡＰＡＮ株式会社,,株式会社,大阪府,大阪市北区,西天満４丁目４番１８号,,27,127,5300047,,,,,,,2024-11-25,1,,,,,ディケィジャパン,0
403,2130003010007,新規,0,2024-11-25,2024-11-25,合同会社ＦＵＴＵＲＥＷＯＲＫＳ,,合同会社,京都府,京都市下京区,西新屋敷中堂寺町５９番地１,,26,106,6008816,,,,,,,2024-11-25,1,,,,,フィチャーワークス,0
410,2140001136513,新規,0,2024-11-25,2024-11-25,株式会社ＪＡＰＡＮ　ＩＮＴＥＲＮＡＴＩＯＮＡＬ　ＴＲＡＤＩＮＧ,,株式会社,兵庫県,芦屋市,涼風町２８番１－４１４号,,28,206,6590036,,,,,,,2024-11-25,1,,,,,ジャパンインターナショナルトレーディング,0
414,2160003003338,新規,0,2024-11-25,2024-11-25,合同会社あまなつ企画,,合同会社,滋賀県,栗東市,綣３丁目８番２３－１１０１号グレーシィ栗東セレージュ,,25,208,5203031,,,,,,,2024-11-25,1,,,,,アマナツキカク,0
417,2170001018394,新規,0,2024-11-25,2024-11-25,株式会社ｎｅｃｏｔｏ,,株式会社,和歌山県,新宮市,南檜杖５５１番地１０,,30,207,6470054,,,,,,,2024-11-25,1,,,,,ネコト,0
423,2180001164254,新規,0,2024-11-25,2024-11-25,株式会社翔栄,,株式会社,愛知県,名古屋市東区,東桜１丁目５番地１０号Ｕレジデンス東桜１１０６,,23,102,4610005,,,,,,,2024-11-25,1,,,,,ショウエイ,0
424,2180001164279,新規,0,2024-11-25,2024-11-25,ＭｅｅｅｅｔＵｐ株式会社,,株式会社,愛知県,名古屋市昭和区,鶴舞１丁目２番３２号,,23,107,4660064,,,,,,,2024-11-25,1,,,,,ミートアップ,0
425,2180001164287,新規,0,2024-11-25,2024-11-25,株式会社栗野工務店,,株式会社,愛知県,一宮市,東加賀野井字川原１７３５番地１,,23,203,4940016,,,,,,,2024-11-25,1,,,,,クリノコウムテン,0
426,2180001164304,新規,0,2024-11-25,2024-11-25,株式会社百花,,株式会社,愛知県,名古屋市中区,新栄３丁目５番７号,,23,106,4600007,,,,,,,2024-11-25,1,,,,,ヒャッカ,0
429,2180003027657,新規,0,2024-11-25,2024-11-25,合同会社左心房社,,合同会社,愛知県,名古屋市天白区,久方１丁目１５３番地相生山団地４４号棟５０１号室,,23,116,4680034,,,,,,,2024-11-25,1,,,,,サシンボウシャ,0
430,2180003027665,新規,0,2024-11-25,2024-11-25,合同会社Ｑｕｏｒｅ,,合同会社,愛知県,名古屋市中村区,名駅４丁目２４番５号第２森ビル４０１,,23,105,4500002,,,,,,,2024-11-25,1,,,,,クオレ,0
432,2180005020841,新規,0,2024-11-25,2024-11-25,一般社団法人Ｏｎｅ　Ｗｏｒｌｄ,,その他の設立登記法人,愛知県,知多郡南知多町,大字山海字屋敷１２２番地,,23,445,4703322,,,,,,,2024-11-25,1,,,,,ワンワールド,0
433,2180301039263,新規,0,2024-11-25,2024-11-25,株式会社Ｓｕｍｉｃｃｈｉ,,株式会社,愛知県,豊川市,伊奈町南山新田１８８番地２４,,23,207,4410105,,,,,,,2024-11-25,1,,,,,スミッチ,0
435,2180303006352,新規,0,2024-11-25,2024-11-25,合同会社キャベツｍｏＤｅ,,合同会社,愛知県,高浜市,稗田町３丁目２番地３２,,23,227,4441321,,,,,,,2024-11-25,1,,,,,キヤベツモード,0
449,2240003006951,新規,0,2024-11-25,2024-11-25,合同会社ソラノネカンパニー,,合同会社,広島県,安芸郡海田町,西浜１１番地２７号,,34,304,7360024,,,,,,,2024-11-25,1,,,,,ソラノネカンパニー,0
452,2260001039662,新規,0,2024-11-25,2024-11-25,株式会社鷹翔,,株式会社,岡山県,津山市,奥津川５６４番地,,33,203,7081201,,,,,,,2024-11-25,1,,,,,タカショウ,0
453,2260001039670,新規,0,2024-11-25,2024-11-25,株式会社眞斗建設,,株式会社,岡山県,岡山市東区,東幸西１０００番地,,33,103,7048135,,,,,,,2024-11-25,1,,,,,マコトケンセツ,0
456,2260003004978,新規,0,2024-11-25,2024-11-25,ＳＡＭＡ　ＳＡＭＡ合同会社,,合同会社,岡山県,笠岡市,笠岡２４８１番地１６,,33,205,7140081,,,,,,,2024-11-25,1,,,,,サマサマ,0
465,2290003016112,新規,0,2024-11-25,2024-11-25,合同会社Ｋ．Ｈ．１,,合同会社,福岡県,福岡市中央区,大名２丁目２番７号大名センタービル６Ｆ,,40,133,8100041,,,,,,,2024-11-25,1,,,,,ケイエイチワン,0
469,2320003004518,新規,0,2024-11-25,2024-11-25,合同会社トラストワーク,,合同会社,大分県,宇佐市,大字松崎１５６６番地の１,,44,211,8720015,,,,,,,2024-11-25,1,,,,,トラストワーク,0
476,2330003010639,新規,0,2024-11-25,2024-11-25,合同会社熊本県建設業協会荒尾支部,,合同会社,熊本県,荒尾市,宮内出目１１５８番地１,,43,204,8640003,,,,,,,2024-11-25,1,,,,,クマモトケンケンセツギョウキョウカイアラオシブ,0
477,2350001019300,新規,0,2024-11-25,2024-11-25,セラヴィホールディングス株式会社,,株式会社,宮崎県,都城市,平江町３街区７の２号,,45,202,8850021,,,,,,,2024-11-25,1,,,,,セラヴィホールディングス,0
479,2360001034471,新規,0,2024-11-25,2024-11-25,株式会社Ｚｉｎｇ,,株式会社,沖縄県,中頭郡読谷村,字瀬名波６８３番地１,,47,324,9040325,,,,,,,2024-11-25,1,,,,,ズィング,0
490,2430001093106,新規,0,2024-11-25,2024-11-25,株式会社Ｓ‐Ｅｉｇｈｔ,,株式会社,北海道,札幌市東区,北十一条東１０丁目４番１５号,,01,103,0650011,,,,,,,2024-11-25,1,,,,,エスエイト,0
503,2700150127958,新規,0,2024-11-25,2024-11-25,Ｓｈｅｎｚｈｅｎｓｈｉｒｏｎｇｈｕｉｄｉａｎｚｉｙｏｕｘｉａｎｇｏｎｇｓｉ,,外国会社等,,,,,,,,ｌｏｎｇｇａｎｇｑｕ　ｂａｎｔｉａｎｊｉｅｄａｏ　ｍａａｎｔａｎｇｓｈｅｑｕ　ｈｕａｎｃｈｅｎｇｎａｎｌｕ５ｈａｏ　ｂａｎｔｉａｎｇｕｏｊｉｚｈｏｎｇｘｉｎ　Ｆｄｏｎｇ　ｓｈｉｅｒｃｅｎｇ　１２０６ｓｈｉ　Ｓｈｅｎｚｈｅｎｓｈｉ　Ｇｕａｎｇｄｏｎｇｓｈｅｎｇ　５１８１００　ＣＮ,,,,,,2024-11-25,1,,,,,シェンジェンシーロンフイディエンズーヨウシエンゴンスー,0
512,3010001250202,新規,0,2024-11-25,2024-11-25,ＣＥＦ　Ｒ株式会社,,株式会社,東京都,千代田区,平河町１丁目７番１６号,,13,101,1020093,,,,,,,2024-11-25,1,,,,,シーイーエフアール,0
513,3010003045583,新規,0,2024-11-25,2024-11-25,ＢＳ亀山合同会社,,合同会社,東京都,千代田区,大手町２丁目３番２号,,13,101,1000004,,,,,,,2024-11-25,1,,,,,ビーエスカメヤマ,0
515,3010005039162,新規,0,2024-11-25,2024-11-25,一般社団法人ＷＳ２,,その他の設立登記法人,東京都,千代田区,永田町２丁目１７番５号,,13,101,1000014,,,,,,,2024-11-25,1,,,,,ダブリュエスツー,0
516,3010101016412,新規,0,2024-11-25,2024-11-25,株式会社ＦＲＯＧ,,株式会社,東京都,八王子市,山田町１５６９番地シャルム２０２,,13,201,1930933,,,,,,,2024-11-25,1,,,,,フロッグ,0
523,3010403033849,新規,0,2024-11-25,2024-11-25,ＧＶＳＪ４６合同会社,,合同会社,東京都,港区,六本木３丁目１６番２６号,,13,103,1060032,,,,,,,2024-11-25,1,,,,,ジーブイエスジェイフォーティシックス,0
525,3010501053237,新規,0,2024-11-25,2024-11-25,株式会社三友商事,,株式会社,東京都,台東区,上野４丁目７－８アメ横センタービル２Ｆ５号室,,13,106,1100005,,,,,,,2024-11-25,1,,,,,ミトモショウジ,0
526,3010601066337,新規,0,2024-11-25,2024-11-25,株式会社ゴート企画,,株式会社,東京都,江東区,平野１丁目６番７号渡邉ビル２Ｆ,,13,108,1350023,,,,,,,2024-11-25,1,,,,,ゴートキカク,0
530,3010701046817,新規,0,2024-11-25,2024-11-25,ｅｎｓｙａ株式会社,,株式会社,東京都,品川区,東品川３丁目２８－２５プロロジスアーバン東品川１３Ｆ,,13,109,1400002,,,,,,,2024-11-25,1,,,,,エンシャ,0
535,3010901056376,新規,0,2024-11-25,2024-11-25,株式会社メゾンドエール,,株式会社,東京都,世田谷区,玉川１丁目１５番２－３２０６号,,13,112,1580094,,,,,,,2024-11-25,1,,,,,メゾンドエール,0
541,3011001166025,新規,0,2024-11-25,2024-11-25,株式会社Ｊａｐａｎ　Ｐｒｅｍｉｅｒ　Ｍｅｄｉｃａｌ　Ｔｒｕｓｔ,,株式会社,東京都,渋谷区,恵比寿１丁目７番１３号只見ビル７Ｆ,,13,113,1500013,,,,,,,2024-11-25,1,,,,,ジャパンプレミアムメディカルトラスト,0
542,3011001166066,新規,0,2024-11-25,2024-11-25,株式会社ＳＥＬｙｕ,,株式会社,東京都,渋谷区,千駄ヶ谷３丁目１５番３号,,13,113,1510051,,,,,,,2024-11-25,1,,,,,セリュー,0
544,3011003020460,新規,0,2024-11-25,2024-11-25,合同会社ＥＶＥＲＭＯＲＥ,,合同会社,東京都,目黒区,青葉台４丁目４番１－９０４号ＬＭ目黒青葉台,,13,110,1530042,,,,,,,2024-11-25,1,,,,,エヴァーモア,0
547,3011101109701,新規,0,2024-11-25,2024-11-25,株式会社Ｄ＆Ｄ　ｎａｉｌ　ｓａｌｏｎ,,株式会社,東京都,新宿区,北新宿３丁目２－１６シャンボール北新宿６０６,,13,104,1690074,,,,,,,2024-11-25,1,,,,,ディーアンドディーネイルサロン,0
549,3011301030178,新規,0,2024-11-25,2024-11-25,株式会社リセント,,株式会社,東京都,杉並区,下高井戸１丁目１２番１３号,,13,115,1680073,,,,,,,2024-11-25,1,,,,,リセント,0
554,3011601028228,新規,0,2024-11-25,2024-11-25,株式会社クラウドミッション,,株式会社,東京都,練馬区,貫井４丁目２番３１－５０７号,,13,120,1760021,,,,,,,2024-11-25,1,,,,,クラウドミッション,0
562,3012403006850,新規,0,2024-11-25,2024-11-25,合同会社フレックスグループ,,合同会社,東京都,府中市,是政２丁目３８番地の６サンリット２０１,,13,206,1830014,,,,,,,2024-11-25,1,,,,,フレックスグループ,0
564,3012701018580,新規,0,2024-11-25,2024-11-25,サングッド株式会社,,株式会社,東京都,小平市,回田町１１０－１ライオンズガーデンテラス武蔵小金井１０３,,13,211,1870013,,,,,,,2024-11-25,1,,,,,サングッド,0
568,3013101009567,新規,0,2024-11-25,2024-11-25,株式会社エフォート,,株式会社,東京都,羽村市,羽中２丁目１０番１８号,,13,227,2050015,,,,,,,2024-11-25,1,,,,,エフォート,0
579,3020001160276,新規,0,2024-11-25,2024-11-25,ＢＥＮＥＦＩＴ　ＥＡＲＴＨ株式会社,,株式会社,神奈川県,横浜市磯子区,上中里町３８８番地１,,14,107,2350042,,,,,,,2024-11-25,1,,,,,ベネフィットアース,0
582,3020003027300,新規,0,2024-11-25,2024-11-25,合同会社アシスト,,合同会社,神奈川県,横浜市鶴見区,上末吉３丁目１４番１８号ユナイト末吉テネシーの杜２０３,,14,101,2300011,,,,,,,2024-11-25,1,,,,,アシスト,0
583,3020003027309,新規,0,2024-11-25,2024-11-25,合同会社ＦＭＢ,,合同会社,神奈川県,横浜市港北区,綱島東６丁目８－１９,,14,109,2230052,,,,,,,2024-11-25,1,,,,,,0
584,3020003027333,新規,0,2024-11-25,2024-11-25,Ｎｅｗ　Ｄｒｉｖｅ合同会社,,合同会社,神奈川県,横浜市港北区,新横浜１丁目１番８号ライオンズプラザ新横浜８０４号室,,14,109,2220033,,,,,,,2024-11-25,1,,,,,ニュードライブ,0
587,3021001083847,新規,0,2024-11-25,2024-11-25,株式会社モクビル,,株式会社,神奈川県,平塚市,西真土３丁目９番１７号,,14,203,2540019,,,,,,,2024-11-25,1,,,,,モクビル,0
594,3030001163534,新規,0,2024-11-25,2024-11-25,株式会社シルクグローバル教育センター,,株式会社,埼玉県,川口市,大字安行原２１０５番地,,11,203,3340057,,,,,,,2024-11-25,1,,,,,シルクグローバルキョウイクセンター,0
595,3030001163542,新規,0,2024-11-25,2024-11-25,株式会社ＴＥＮＫＡＩ,,株式会社,埼玉県,ふじみ野市,亀久保１６４０―２,,11,245,3560051,,,,,,,2024-11-25,1,,,,,テンカイ,0
596,3030001163600,新規,0,2024-11-25,2024-11-25,株式会社Ｈ＆Ｔ‐ｃｏｍｐａｎｙ,,株式会社,埼玉県,越谷市,レイクタウン８丁目８番地５３２号,,11,222,3430828,,,,,,,2024-11-25,1,,,,,エイチアンドティカンパニー,0
597,3030001163609,新規,0,2024-11-25,2024-11-25,株式会社Ｄ‐ｓｔｙｌｅ,,株式会社,埼玉県,所沢市,東狭山ケ丘６丁目７９７番地の１,,11,208,3591106,,,,,,,2024-11-25,1,,,,,ディースタイル,0
598,3030001163625,新規,0,2024-11-25,2024-11-25,株式会社竹内設備工業,,株式会社,埼玉県,川口市,大字峯１４８８番地の３,,11,203,3340056,,,,,,,2024-11-25,1,,,,,タケウチセツビコウギョウ,0
605,3030003025550,新規,0,2024-11-25,2024-11-25,Ｋ・Ｙ国際合同会社,,合同会社,埼玉県,川口市,西川口１丁目２９番３－２０９号ライオンズマンション西川口第１１,,11,203,3320021,,,,,,,2024-11-25,1,,,,,ケイワイコクサイ,0
623,3060003005343,新規,0,2024-11-25,2024-11-25,輝商事合同会社,,合同会社,栃木県,宇都宮市,鶴田町２５０３－３７,,09,201,3200851,,,,,,,2024-11-25,1,,,,,ヒカリショウジ,0
629,3110001038868,新規,0,2024-11-25,2024-11-25,株式会社米道楽,,株式会社,新潟県,新潟市西蒲区,曽根７０３番地,,15,108,9590422,,,,,,,2024-11-25,1,,,,,コメドウラク,0
637,3120001270503,新規,0,2024-11-25,2024-11-25,株式会社フードオーケストラ,,株式会社,大阪府,大阪市阿倍野区,阿倍野元町８番５号,,27,119,5450034,,,,,,,2024-11-25,1,,,,,フードオーケストラ,0
638,3120001270544,新規,0,2024-11-25,2024-11-25,ボーウェン株式会社,,株式会社,大阪府,大阪市住吉区,苅田３丁目１６番２６－６０５号,,27,120,5580011,,,,,,,2024-11-25,1,,,,,ボーウェン,0
639,3120001270560,新規,0,2024-11-25,2024-11-25,株式会社ＥＴＥＲＮＩＴＹ,,株式会社,大阪府,大阪市住之江区,浜口西１丁目２番８号住吉グリーンハイツ１０６号室,,27,125,5590006,,,,,,,2024-11-25,1,,,,,エタニティー,0
642,3120003028040,新規,0,2024-11-25,2024-11-25,合同会社ＵＮＩＳＯＮ,,合同会社,大阪府,大阪市北区,中之島６丁目１番３８－６０８号,,27,127,5300005,,,,,,,2024-11-25,1,,,,,ユニゾン,0
646,3120103006160,新規,0,2024-11-25,2024-11-25,合同会社Ｏｐｕｓ　Ｃｅｒａｍｉｃ,,合同会社,大阪府,阪南市,光陽台３丁目２０番２号,,27,232,5990223,,,,,,,2024-11-25,1,,,,,オプスセラミック,0
656,3130001078409,新規,0,2024-11-25,2024-11-25,ＩＮＡＧＡＫＩ　ＷＯＲＫＳ株式会社,,株式会社,京都府,京都市下京区,東塩小路町６１４番地－２階,,26,106,6008216,,,,,,,2024-11-25,1,,,,,イナガキワークス,0
663,3140001136512,新規,0,2024-11-25,2024-11-25,株式会社Ｋ・Ｍ工業,,株式会社,兵庫県,尼崎市,南武庫之荘９丁目５番２０号,,28,202,6610033,,,,,,,2024-11-25,1,,,,,ケイエムコウギョウ,0
676,3180001164311,新規,0,2024-11-25,2024-11-25,株式会社ＭＴＢ,,株式会社,愛知県,犬山市,字西唐曽７５番地１,,23,215,4840935,,,,,,,2024-11-25,1,,,,,エムティービー,0
681,3180003027648,新規,0,2024-11-25,2024-11-25,合同会社ＴＳＴ,,合同会社,愛知県,一宮市,本町３丁目３番４号,,23,203,4910859,,,,,,,2024-11-25,1,,,,,ティーエスティー,0
682,3180003027656,新規,0,2024-11-25,2024-11-25,合同会社ＫＩＴ,,合同会社,愛知県,名古屋市天白区,井の森町１０２番地の１－１００１,,23,116,4680047,,,,,,,2024-11-25,1,,,,,キット,0
683,3180003027664,新規,0,2024-11-25,2024-11-25,合同会社スリーエス,,合同会社,愛知県,名古屋市緑区,元徳重１丁目１００１番地,,23,114,4580852,,,,,,,2024-11-25,1,,,,,スリーエス,0
694,3240003006950,新規,0,2024-11-25,2024-11-25,Ｍ２‐ＬＩＴＥ合同会社,,合同会社,広島県,尾道市,山波町１１１５,,34,205,7220052,,,,,,,2024-11-25,1,,,,,エムツーライト,0
713,3290001108100,新規,0,2024-11-25,2024-11-25,株式会社ＪＯＵＲＮＥＹＳＩＤＥ,,株式会社,福岡県,糟屋郡志免町,別府３丁目１－３７,,40,343,8112205,,,,,,,2024-11-25,1,,,,,ジャニーサイド,0
717,3290003016086,新規,0,2024-11-25,2024-11-25,合同会社ＲｅＣＲＥＳＴ,,合同会社,福岡県,福岡市早良区,西新４丁目９番１４号あっぱれビル１階,,40,137,8140002,,,,,,,2024-11-25,1,,,,,リクレスト,0
720,3290005019558,新規,0,2024-11-25,2024-11-25,一般社団法人ワットプラブッタマハーチャクラパット日本,,その他の設立登記法人,福岡県,八女市,星野村１６５６９－１,,40,210,8340201,,,,,,,2024-11-25,1,,,,,ワットプラブッタマハーチャクラパットニホン,0
730,3320005010199,新規,0,2024-11-25,2024-11-25,一般社団法人大分スポーツサロンＡ‐ブリッジ,,その他の設立登記法人,大分県,大分市,緑が丘２丁目２３番１号,,44,201,8701172,,,,,,,2024-11-25,1,,,,,オオイタスポーツサロンエーブリッジ,0
741,3380003005889,新規,0,2024-11-25,2024-11-25,Ｒ２Ｐ合同会社,,合同会社,福島県,郡山市,御前南５丁目２０９番地,,07,203,9630209,,,,,,,2024-11-25,1,,,,,アールツーピー,0
745,3430003017012,新規,0,2024-11-25,2024-11-25,合同会社ＨＡＹＡＳＨＩ,,合同会社,北海道,札幌市中央区,南二条東４丁目２－４－１００５号,,01,101,0600052,,,,,,,2024-11-25,1,,,,,ハヤシ,0
746,3430003017020,新規,0,2024-11-25,2024-11-25,合同会社イリス,,合同会社,北海道,札幌市中央区,南二条東２丁目１６番地堀尾ビル,,01,101,0600052,,,,,,,2024-11-25,1,,,,,イリス,0
749,3460101007630,新規,0,2024-11-25,2024-11-25,株式会社レオンエステート,,株式会社,北海道,帯広市,西十条北６丁目６番地,,01,207,0800040,,,,,,,2024-11-25,1,,,,,レオンエステート,0
756,3700150127949,新規,0,2024-11-25,2024-11-25,Ｇｕａｎｇｚｈｏｕ　Ｍｅｎｇ　Ｓｈｅｎｇ　Ｅｌｅｃｔｒｏｎｉｃ　Ｔｅｃｈｎｏｌｏｇｙ　Ｃｏｍｐａｎｙ,,外国会社等,,,,,,,,Ｒｏｏｍ　Ｎｏ．１４１４，１４ｔｈ　ｆｌｏｏｒ，Ｚｈａｎｗａｎｇ　Ｄｉｇｉｔａｌ　Ｐｌａｚａ，Ｓｈｉｐａｉ　ｗｅｓｔ　ｒｏａｄ　ｎｏ．８，Ｔｉａｎｈｅ　Ｇｕａｎｇｚｈｏｕ,,,,,,2024-11-25,1,,,,,コウシュウメンセンエレクトロニックテクノロジーカンパニー,0
757,3700150127957,新規,0,2024-11-25,2024-11-25,ｘｉａｍｅｎｊｉｚｈｉｃｈｕａｎｇｘｉａｎｇｇｏｎｇｙｅｙｏｕｘｉａｎｇｏｎｇｓｉ,,外国会社等,,,,,,,,ｌｏｎｇｓｈａｎｇｚｈｏｎｇｌｕ７０ｈａｏ　３３０５ｓｈｉ　ｘｉａｍｅｎｓｈｉ　Ｆｕｊｉａｎ　３６１００１　ＣＮ,,,,,,2024-11-25,1,,,,,シャーメンジージーチュワンシャンゴンイエヨウシエンゴンスー,0
758,3700150127965,新規,0,2024-11-25,2024-11-25,Ｃｈｏｎｇｑｉｎｇ　Ｙｉｎｇｎｕｏｃｈａｎｇｑｉｎｇ　Ｔｅｃｈｎｏｌｏｇｙ　Ｃｏ．，Ｌｔｄ,,外国会社等,,,,,,,,Ｒｏｏｍ　２２０４，Ｆｌｏｏｒ　２２，Ｂｕｉｌｄｉｎｇ　９，Ｎｏ．１０６，Ｊｉｎｋａｉ　Ｄａｄａｏ　Ｘｉｄｕａｎ，Ｄａｚｈｕｌｉｎ　Ｊｉｅｄａｏ，Ｌｉａｎｇｊｉａｎｇ　Ｘｉｎｑｕ，Ｃｈｏｎｇｑｉｎｇ　４０１１２３　ＣＮ,,,,,,2024-11-25,1,,,,,チョンチンインヌオチャンチンテクノロジーカンパニーリミテッド,0
770,4010001249904,新規,0,2024-11-25,2024-11-25,株式会社Ａ２Ｏ　Ｅｎｔｅｒｔａｉｎｍｅｎｔ　Ｊａｐａｎ,,株式会社,東京都,中央区,築地２丁目２番８号Ｍ．ＢａｌａｎｃｅＧｉｎｚａＥａｓｔ１階,,13,102,1040045,,,,,,,2024-11-25,1,,,,,エーツーオーエンターテイメントジャパン,0
771,4010001250218,新規,0,2024-11-25,2024-11-25,株式会社ＤＳＩ,,株式会社,東京都,中央区,東日本橋２丁目２番５号ジャコワ東日本橋６０１号,,13,102,1030004,,,,,,,2024-11-25,1,,,,,ディーエスアイ,0
773,4010003045517,新規,0,2024-11-25,2024-11-25,合同会社ＳＴＡＹ７,,合同会社,東京都,中央区,京橋２丁目１２番６号ＡＯＪ税理士法人内,,13,102,1040031,,,,,,,2024-11-25,1,,,,,ステイセブン,0
774,4010003045582,新規,0,2024-11-25,2024-11-25,福島小高ソーラーファーム合同会社,,合同会社,東京都,中央区,京橋２丁目１２番６号ＡＯＪ税理士法人内,,13,102,1040031,,,,,,,2024-11-25,1,,,,,フクシマオダカソーラーファーム,0
776,4010005039178,新規,0,2024-11-25,2024-11-25,大正区鶴町デベロップメント特定目的会社,,その他の設立登記法人,東京都,千代田区,霞が関３丁目２番５号,,13,101,1000013,,,,,,,2024-11-25,1,,,,,タイショウクツルマチデベロップメント,0
778,4010105002317,新規,0,2024-11-25,2024-11-25,一般社団法人国際協力サポーターズ,,その他の設立登記法人,東京都,八王子市,北野町５７８番地１８,,13,201,1920906,,,,,,,2024-11-25,1,,,,,コクサイキョウリョクサポーターズ,0
789,4010403033848,新規,0,2024-11-25,2024-11-25,ＧＶＳＪ４５合同会社,,合同会社,東京都,港区,六本木３丁目１６番２６号,,13,103,1060032,,,,,,,2024-11-25,1,,,,,ジーブイエスジェイフォーティファイブ,0
791,4010405023822,新規,0,2024-11-25,2024-11-25,塩浜一般社団法人,,その他の設立登記法人,東京都,港区,元赤坂１丁目１番８号株式会社赤坂国際会計内,,13,103,1070051,,,,,,,2024-11-25,1,,,,,シオハマ,0
792,4010501053236,新規,0,2024-11-25,2024-11-25,株式会社文中,,株式会社,東京都,台東区,松が谷３丁目８番６－４０４号センチュリー東上野,,13,106,1110036,,,,,,,2024-11-25,1,,,,,ブンチュウ,0
793,4010501053252,新規,0,2024-11-25,2024-11-25,Ｎｉｏｌｏｇｉｅ　Ｊａｐａｎ株式会社,,株式会社,東京都,台東区,台東３丁目２８番４－１階Ｂ室,,13,106,1100016,,,,,,,2024-11-25,1,,,,,ニオロギジャパン,0
797,4010901056383,新規,0,2024-11-25,2024-11-25,株式会社ＨＡＢＩＣＨＴ,,株式会社,東京都,世田谷区,羽根木２丁目５番２１号ａｐａｒｔｍｅｎｔ縁２０４,,13,112,1560042,,,,,,,2024-11-25,1,,,,,ハービヒト,0
798,4010903009505,新規,0,2024-11-25,2024-11-25,合同会社安心警備,,合同会社,東京都,世田谷区,駒沢４丁目３０番９号Ｂ棟２０１号室,,13,112,1540012,,,,,,,2024-11-25,1,,,,,アンシンケイビ,0
803,4011001165777,新規,0,2024-11-25,2024-11-25,株式会社５８ＤＯ,,株式会社,東京都,渋谷区,渋谷２丁目１９‐１５宮益坂ビルディング６０９,,13,113,1500002,,,,,,,2024-11-25,1,,,,,ゴジュウハチド,0
804,4011001165843,新規,0,2024-11-25,2024-11-25,株式会社Ｈｙｌｅｎ,,株式会社,東京都,渋谷区,渋谷２丁目１９－１５宮益坂ビルディング６０９,,13,113,1500002,,,,,,,2024-11-25,1,,,,,ヒレン,0
806,4011003020476,新規,0,2024-11-25,2024-11-25,ＧＯＡＬＰｌｕｓ合同会社,,合同会社,東京都,渋谷区,渋谷２丁目１９‐１５宮益坂ビルディング６０９,,13,113,1500002,,,,,,,2024-11-25,1,,,,,ゴールプラス,0
808,4011101109642,新規,0,2024-11-25,2024-11-25,センキ株式会社,,株式会社,東京都,新宿区,高田馬場１丁目２７－３ニュー竹宝ビル７０８号室,,13,104,1690075,,,,,,,2024-11-25,1,,,,,センキ,0
809,4011105011241,新規,0,2024-11-25,2024-11-25,一般社団法人ＩＯＴ,,その他の設立登記法人,東京都,新宿区,四谷２丁目９番地１５東京ユナイテッド綜合事務所内,,13,104,1600004,,,,,,,2024-11-25,1,,,,,アイオーティー,0
816,4011501031405,新規,0,2024-11-25,2024-11-25,株式会社インレットストーンズ,,株式会社,東京都,北区,神谷１丁目３０番１１号,,13,117,1150043,,,,,,,2024-11-25,1,,,,,,0
818,4011503006297,新規,0,2024-11-25,2024-11-25,ＭＡＩＴＥＱ合同会社,,合同会社,東京都,北区,田端１丁目２６番５号,,13,117,1140014,,,,,,,2024-11-25,1,,,,,メイテック,0
823,4011801045204,新規,0,2024-11-25,2024-11-25,ＦＩＲＳＴ　ＪＡＰＡＮ株式会社,,株式会社,東京都,足立区,大谷田１丁目４３番１６－２０９号,,13,121,1200001,,,,,,,2024-11-25,1,,,,,ファーストジャパン,0
825,4012401042509,新規,0,2024-11-25,2024-11-25,株式会社ｓａｍｉｎｉａ,,株式会社,東京都,武蔵野市,吉祥寺北町２丁目１７番７号,,13,203,1800001,,,,,,,2024-11-25,1,,,,,サミニア,0
834,4020001159887,新規,0,2024-11-25,2024-11-25,株式会社包援,,株式会社,神奈川県,横浜市神奈川区,白楽１１３Ｃ号室,,14,102,2210065,,,,,,,2024-11-25,1,,,,,ホウエン,0
835,4020001160317,新規,0,2024-11-25,2024-11-25,株式会社創建アセットマネジメント,,株式会社,神奈川県,横浜市中区,尾上町４丁目５４番地Ｋａｎｎａｉｅｘ６Ｆ,,14,104,2310015,,,,,,,2024-11-25,1,,,,,ソウケンアセットマネジメント,0
840,4020003027324,新規,0,2024-11-25,2024-11-25,合同会社ウィスプラ,,合同会社,神奈川県,横浜市旭区,上白根２丁目６６番１３号,,14,112,2410002,,,,,,,2024-11-25,1,,,,,ウィスプラ,0
845,4021001083846,新規,0,2024-11-25,2024-11-25,株式会社メカニア,,株式会社,神奈川県,平塚市,長持１９１番地の７,,14,203,2591217,,,,,,,2024-11-25,1,,,,,メカニア,0
847,4021003015269,新規,0,2024-11-25,2024-11-25,ＦＡＭＥ　Ｔｒａｄｉｎｇ合同会社,,合同会社,神奈川県,相模原市南区,磯部４４６３番地５,,14,153,2520327,,,,,,,2024-11-25,1,,,,,ファムトレーディング,0
853,4030001163590,新規,0,2024-11-25,2024-11-25,株式会社渡辺電機,,株式会社,埼玉県,熊谷市,久保島１７１３番地,,11,202,3600831,,,,,,,2024-11-25,1,,,,,ワタナベデンキ,0
854,4030001163616,新規,0,2024-11-25,2024-11-25,株式会社ＱＵＥＬＬＥ,,株式会社,埼玉県,戸田市,美女木２丁目１３番地の３０,,11,224,3350031,,,,,,,2024-11-25,1,,,,,クヴェレ,0
856,4030005021951,新規,0,2024-11-25,2024-11-25,一般社団法人早稲田国際ブランド研究院,,その他の設立登記法人,埼玉県,入間郡越生町,大字如意４３５番地２３－２０２号室,,11,327,3500413,,,,,,,2024-11-25,1,,,,,ワセダコクサイブランドケンキュウイン,0
860,4040003026241,新規,0,2024-11-25,2024-11-25,天森合同会社,,合同会社,千葉県,市川市,南行徳２丁目２１－６－２０３号室,,12,203,2720138,,,,,,,2024-11-25,1,,,,,アモリ,0
863,4060001037676,新規,0,2024-11-25,2024-11-25,明電ホールディングス株式会社,,株式会社,栃木県,宇都宮市,西原３丁目２番５号,,09,201,3200862,,,,,,,2024-11-25,1,,,,,メイデンホールディングス,0
874,4100005013256,新規,0,2024-11-25,2024-11-25,一般社団法人Ｋａｓｐａ　Ｊａｐａｎエコシステム協会,,その他の設立登記法人,長野県,長野市,松代町東条２９９８番地１,,20,201,3811221,,,,,,,2024-11-25,1,,,,,カスパジャパンエコシステムキョウカイ,0
875,4110001038867,新規,0,2024-11-25,2024-11-25,株式会社まちづくり長岡,,株式会社,新潟県,長岡市,東坂之上町２丁目３番地５,,15,202,9400066,,,,,,,2024-11-25,1,,,,,マチヅクリナカオカ,0
876,4110003005584,新規,0,2024-11-25,2024-11-25,合同会社楽丸,,合同会社,新潟県,長岡市,古正寺１丁目２８４７番地,,15,202,9402106,,,,,,,2024-11-25,1,,,,,ラクマル,0
889,4120001270543,新規,0,2024-11-25,2024-11-25,株式会社フェリチェパートナーズ,,株式会社,大阪府,大阪市中央区,北浜２丁目２番２１－３００６号,,27,128,5410041,,,,,,,2024-11-25,1,,,,,フェリチェパートナーズ,0
897,4120005024631,新規,0,2024-11-25,2024-11-25,特定非営利活動法人アセアン友好人材センター,,その他の設立登記法人,大阪府,大阪市中央区,南船場１丁目１番１２号,,27,128,5420081,,,,,,,2024-11-25,1,,,,,アセアンユウコウジンザイセンター,0
899,4120103006143,新規,0,2024-11-25,2024-11-25,合同会社ＦＵＴＵＲＥ,,合同会社,大阪府,堺市北区,常磐町１丁１７番地３ファインデイズ北花田１１０４号,,27,146,5918001,,,,,,,2024-11-25,1,,,,,フューチャー,0
923,4150001027701,新規,0,2024-11-25,2024-11-25,株式会社チュウシン豊運,,株式会社,奈良県,天理市,櫟本町２９２９番地２６,,29,204,6320004,,,,,,,2024-11-25,1,,,,,チュウシンホウウン,0
932,4180001164302,新規,0,2024-11-25,2024-11-25,株式会社実裕,,株式会社,愛知県,名古屋市瑞穂区,片坂町２丁目１番地の１,,23,108,4670052,,,,,,,2024-11-25,1,,,,,ミユ,0
933,4180001164310,新規,0,2024-11-25,2024-11-25,ＧＴＫＣ　ＪＡＰＡＮ株式会社,,株式会社,愛知県,名古屋市西区,牛島町２－１０ＦＲＥＥＢＥＬＬ７１２,,23,104,4510046,,,,,,,2024-11-25,1,,,,,ジーティーケーシージャパン,0
934,4180001164327,新規,0,2024-11-25,2024-11-25,株式会社ＵＺＵ,,株式会社,愛知県,名古屋市瑞穂区,大喜新町２丁目１３番地の７シバタビル２階,,23,108,4670868,,,,,,,2024-11-25,1,,,,,ユズ,0
936,4180003027655,新規,0,2024-11-25,2024-11-25,合同会社ａｔｏｍｉｋｕ,,合同会社,愛知県,名古屋市名東区,一社４丁目２３番地,,23,115,4650093,,,,,,,2024-11-25,1,,,,,アトミク,0
937,4180003027663,新規,0,2024-11-25,2024-11-25,合同会社槻,,合同会社,愛知県,長久手市,東浦３０９番地,,23,238,4801174,,,,,,,2024-11-25,1,,,,,ケヤキ,0
938,4180003027671,新規,0,2024-11-25,2024-11-25,ＭＩＲ　ＴＲＡＤＩＮＧ合同会社,,合同会社,愛知県,大府市,北崎町井田８９番地１,,23,223,4740001,,,,,,,2024-11-25,1,,,,,ミールトレーディング,0
945,4210001019980,新規,0,2024-11-25,2024-11-25,グレースサポート株式会社,,株式会社,福井県,福井市,上細江町第２５号４５番地１,,18,201,9190302,,,,,,,2024-11-25,1,,,,,グレースサポート,0
953,4260001039660,新規,0,2024-11-25,2024-11-25,株式会社ＣＨＩＭＪＵＮ　ｏｋａｙａｍａ,,株式会社,岡山県,倉敷市,玉島１６３１―１,,33,202,7138102,,,,,,,2024-11-25,1,,,,,チムジュンオカヤマ,0
954,4260001039669,新規,0,2024-11-25,2024-11-25,株式会社ｂｌｕｅ　ｂｅｅｓ,,株式会社,岡山県,岡山市北区,北長瀬表町２丁目１７番８０号ＢＲＡＮＣＨ岡山北長瀬ハッシュタグ岡山コワーキングスペース,,33,101,7000962,,,,,,,2024-11-25,1,,,,,ブルービーズ,0
969,4290001108090,新規,0,2024-11-25,2024-11-25,株式会社エンパワー,,株式会社,福岡県,福岡市南区,大橋２丁目２４－１８，９０３,,40,134,8150033,,,,,,,2024-11-25,1,,,,,エンパワー,0
975,4290801031062,新規,0,2024-11-25,2024-11-25,株式会社ＫＭ,,株式会社,福岡県,直方市,大字上新入１６７２番地４,,40,204,8220033,,,,,,,2024-11-25,1,,,,,ケイエム,0
976,4290803004900,新規,0,2024-11-25,2024-11-25,合同会社うららか,,合同会社,福岡県,北九州市若松区,塩屋３丁目１９番２６号,,40,103,8080131,,,,,,,2024-11-25,1,,,,,ウララカ,0
985,4350001019298,新規,0,2024-11-25,2024-11-25,株式会社ひたむき,,株式会社,宮崎県,都城市,高崎町大牟田７５４番地２,,45,202,8894505,,,,,,,2024-11-25,1,,,,,ヒタムキ,0
989,4370003006838,新規,0,2024-11-25,2024-11-25,合同会社ＤＸｉＡ,,合同会社,宮城県,仙台市若林区,荒井３丁目３番地の２７リベルテ２０２,,04,103,9840032,,,,,,,2024-11-25,1,,,,,ディクシア,0
999,4450003002556,新規,0,2024-11-25,2024-11-25,合同会社生きものがかり,,合同会社,北海道,上川郡当麻町,市街６区,,01,454,0781300,,,,,,,2024-11-25,1,,,,,イキモノガカリ,0
1002,4470001020467,新規,0,2024-11-25,2024-11-25,ニュータイプＸ株式会社,,株式会社,香川県,小豆郡土庄町,甲１３１３番地１,,37,322,7614101,,,,,,,2024-11-25,1,,,,,ニュータイプエックス,0
1005,4700150123716,新規,0,2024-11-25,2024-01-31,東京ソワール取引先持株会,,その他,東京都,中央区,銀座７丁目１６番１２号Ｇ－７ビルディング７Ｆ,,13,102,1040061,,,,,,,2024-01-31,1,,,,,トウキョウソワールトリヒキサキモチカブカイ,0
1007,4700150127948,新規,0,2024-11-25,2024-11-25,ｊｉａｎｇｍｅｎｓｈｉ　ｗｅｉｆｅｎｇｋｅｊｉ　ｙｏｕｘｉａｎｇｏｎｇｓｉ,,外国会社等,,,,,,,,ＰｅｎｇＪｉａｎｇＱｕ　ＧａｎｇＫｏｕＬｕ　２，４，６Ｈａｏ　ＥｒＣｅｎｇ　ＺｉＢｉａｎ　２００４Ｓｈｉ，ＪｉａｎｇＭｅｎ，Ｃｈｉｎａ,,,,,,2024-11-25,1,,,,,ジャンメンシウェイフェンカギユウゲンコウシ,0
1008,4700150127956,新規,0,2024-11-25,2024-11-25,Ｇｕａｎｇｄｏｎｇ　Ｍａｒｓ　Ｃｒｏｓｓｂｏｒｄｅｒ　Ｅｃｏｍｍｅｒｃｅ　Ｔｒａｄｅ　Ｃｏ．，,,外国会社等,,,,,,,,ｑｉｎｇｇｏｎｇｓａｎｌｕ１８ｈａｏｓｉｚｕｏｗｕｃｅｎｇｎｅｉｚｉｂｉａｎｑｕｙｕ５０６Ａ３０（ｚｈｕｓｕｏｓｈｅｎｂａｏ）ｆｏｓｈａｎｓｈｉ　ｃｈａｎｃｈｅｎｇｑｕ　ｇｕａｎｇｄｏｎｇｓｈｅｎｇ　５２８０００　ＣＮ,,,,,,2024-11-25,1,,,,,グワンドンマーアースークワージンディエンシャンマオイーヨウシエンゴンスー,0
1009,4700150127964,新規,0,2024-11-25,2024-11-25,ｗｅｎｚｈｏｕｓｈｉ　ｗｅｎｙｕａｎ　ｊｉｎｃｈｕｋｏｕ　ｙｏｕｘｉａｎ　ｇｏｎｇｓｉ,,外国会社等,,,,,,,,ｚｈｅｊｉａｎｇｓｈｅｎｇ　ｗｅｎｚｈｏｕｓｈｉ　ｏｕｈａｉｑｕ　ｘｉａｎｙａｎ　ｊｉｅｄａｏ　ｘｉａｌｉｎｃｕｎ　ｙｏｕｄｉａｎｌｕ　３１ｈａｏ２ｃｅｎｇ　３２５０００　ＣＮ,,,,,,2024-11-25,1,,,,,ウェンゾウシウェンユェンジンツウコウユウゲンコウシ,0
1013,5010001250126,新規,0,2024-11-25,2024-11-25,株式会社ヴァリューホールディングス,,株式会社,東京都,中央区,日本橋本町４丁目１番１号,,13,102,1030023,,,,,,,2024-11-25,1,,,,,ヴァリューホールディングス,0
1014,5010001250142,新規,0,2024-11-25,2024-11-25,株式会社三平先端技術研究所,,株式会社,東京都,中央区,京橋２丁目１３番１１号宝町三清ビル,,13,102,1040031,,,,,,,2024-11-25,1,,,,,サンペイセンタンギジュツケンキュウジョ,0
1015,5010001250150,新規,0,2024-11-25,2024-11-25,Ｆｒｏｎｔｉｅｒ　Ｉｎｖｅｓｔｍｅｎｔｓ株式会社,,株式会社,東京都,千代田区,永田町２丁目１０番３号,,13,101,1000014,,,,,,,2024-11-25,1,,,,,フロンティアインベストメンツ,0
1016,5010001250191,新規,0,2024-11-25,2024-11-25,株式会社ＥｌａｖＥａｔ,,株式会社,東京都,文京区,根津２丁目２－５,,13,105,1130031,,,,,,,2024-11-25,1,,,,,エレベイト,0
1020,5010005039169,新規,0,2024-11-25,2024-11-25,一般社団法人茶屋町ホテルインベストメント,,その他の設立登記法人,東京都,千代田区,霞が関３丁目２番５号,,13,101,1000013,,,,,,,2024-11-25,1,,,,,チャヤマチホテルインベストメント,0
1022,5010103002458,新規,0,2024-11-25,2024-11-25,合同会社Ｃａｓｈｍａｒｅ,,合同会社,東京都,八王子市,明神町２丁目１２番１８号ハウスフローラ１０１号,,13,201,1920046,,,,,,,2024-11-25,1,,,,,カシメア,0
1023,5010105002316,新規,0,2024-11-25,2024-11-25,特定非営利活動法人日本コミュニケーションエステティック協会,,その他の設立登記法人,東京都,八王子市,南大沢４丁目１５番地１－５０１,,13,201,1920364,,,,,,,2024-11-25,1,,,,,,0
1029,5010401186597,新規,0,2024-11-25,2024-11-25,株式会社テロス・エロス・エトス,,株式会社,東京都,港区,西麻布１丁目３番１２－４０２号,,13,103,1060031,,,,,,,2024-11-25,1,,,,,テロスエロスエトス,0
1030,5010401186630,新規,0,2024-11-25,2024-11-25,ＳｅＮｓｕ株式会社,,株式会社,東京都,港区,南青山２丁目５番１７号ＰＯＬＡ青山ビルディング５階Ｏｖｅｒｌａｐ,,13,103,1070062,,,,,,,2024-11-25,1,,,,,センス,0
1032,5010403033847,新規,0,2024-11-25,2024-11-25,ＧＶＳＪ４４合同会社,,合同会社,東京都,港区,六本木３丁目１６番２６号,,13,103,1060032,,,,,,,2024-11-25,1,,,,,ジーブイエスジェイフォーティフォー,0
1033,5010405023771,新規,0,2024-11-25,2024-11-25,元離宮二条城前一般社団法人,,その他の設立登記法人,東京都,港区,虎ノ門３丁目２２番１０－２０１号,,13,103,1050001,,,,,,,2024-11-25,1,,,,,モトリキュウニジョウジョウマエ,0
1034,5010405023796,新規,0,2024-11-25,2024-11-25,Ｗｉｎｂｌｏｏｍ　Ｊａｐａｎ特定目的会社,,その他の設立登記法人,東京都,港区,虎ノ門３丁目２２番１０－２０１号,,13,103,1050001,,,,,,,2024-11-25,1,,,,,ウィンブルームジャパン,0
1036,5010601066319,新規,0,2024-11-25,2024-11-25,株式会社Ｓｅｖｅｎ　ｔｈｒｅｅ,,株式会社,東京都,江東区,猿江２丁目１番４－５０５号,,13,108,1350003,,,,,,,2024-11-25,1,,,,,セブンスリー,0
1038,5010603011231,新規,0,2024-11-25,2024-11-25,合同会社Ｃｏｎｃｅｐｔ　Ｆｕｔｕｒｅ,,合同会社,東京都,江東区,亀戸９丁目１６番５ー１０１号,,13,108,1360071,,,,,,,2024-11-25,1,,,,,コンセプトフューチャー,0
1045,5010903009495,新規,0,2024-11-25,2024-11-25,合同会社ｍａｐ,,合同会社,東京都,世田谷区,奥沢１丁目２７番１２号,,13,112,1580083,,,,,,,2024-11-25,1,,,,,マップ,0
1051,5011001165933,新規,0,2024-11-25,2024-11-25,株式会社ＴＯＫＹＯ　ＮＥＷ　ＮＥＷ,,株式会社,東京都,目黒区,上目黒２丁目１番１号中目黒ＧＴタワー８Ｆ,,13,110,1530051,,,,,,,2024-11-25,1,,,,,トウキョーニューニュー,0
1053,5011003020483,新規,0,2024-11-25,2024-11-25,ルッキオ合同会社,,合同会社,東京都,渋谷区,道玄坂１丁目１０番８号渋谷道玄坂東急ビル２Ｆ‐Ｃ,,13,113,1500043,,,,,,,2024-11-25,1,,,,,ルッキオ,0
1065,5011401026603,新規,0,2024-11-25,2024-11-25,株式会社ＧＯＥＮ,,株式会社,東京都,板橋区,東坂下２丁目１０番１０－９０３号,,13,119,1740042,,,,,,,2024-11-25,1,,,,,ゴエン,0
1068,5011701027846,新規,0,2024-11-25,2024-11-25,株式会社シンク,,株式会社,東京都,江戸川区,中葛西５丁目１６番１４号フラットＫ２Ｆ,,13,123,1340083,,,,,,,2024-11-25,1,,,,,シンク,0
1069,5011801045161,新規,0,2024-11-25,2024-11-25,株式会社ＳＨＵ　ＲＩＳＥ,,株式会社,東京都,足立区,南花畑２丁目４０－１８,,13,121,1210062,,,,,,,2024-11-25,1,,,,,シューライズ,0
1073,5011803006566,新規,0,2024-11-25,2024-11-25,トゥン時計合同会社,,合同会社,東京都,足立区,東和５丁目１２番２３号大磯マンション３０２号,,13,121,1200003,,,,,,,2024-11-25,1,,,,,トゥントケイ,0
1079,5012403006849,新規,0,2024-11-25,2024-11-25,合同会社シャインズ,,合同会社,東京都,武蔵野市,境南町２丁目９番２５－８０１号,,13,203,1800023,,,,,,,2024-11-25,1,,,,,シャインズ,0
1081,5012805003295,新規,0,2024-11-25,2024-11-25,弁護士法人金法律事務所,,その他の設立登記法人,東京都,昭島市,玉川町３丁目１６－１４三浦ビル２階Ａ室,,13,207,1960034,,,,,,,2024-11-25,1,,,,,キンホウリツジムショ,0
1083,5013301053421,新規,0,2024-11-25,2024-11-25,株式会社ａｌｌａｔａｎｙｓ,,株式会社,東京都,豊島区,長崎５丁目３１番３号,,13,116,1710051,,,,,,,2024-11-25,1,,,,,アラタニス,0
1084,5013303007409,新規,0,2024-11-25,2024-11-25,プロブランク合同会社,,合同会社,東京都,豊島区,東池袋３丁目１１－９三島ビル４０２,,13,116,1700013,,,,,,,2024-11-25,1,,,,,プロブランク,0
1090,5020001160324,新規,0,2024-11-25,2024-11-25,株式会社イメージアホールディングス,,株式会社,神奈川県,横浜市青葉区,田奈町２７番地１,,14,117,2270064,,,,,,,2024-11-25,1,,,,,イメージアホールディングス,0
1092,5020003027298,新規,0,2024-11-25,2024-11-25,Ａｓｐｉｒｅ　Ｆｒｅｅ合同会社,,合同会社,神奈川県,横浜市神奈川区,片倉４丁目２２－１１,,14,102,2210865,,,,,,,2024-11-25,1,,,,,アスパイアフリー,0
1095,5021003015243,新規,0,2024-11-25,2024-11-25,Ｗ　Ｌａｂ合同会社,,合同会社,神奈川県,三浦郡葉山町,一色１１９０番地の８,,14,301,2400111,,,,,,,2024-11-25,1,,,,,ダブリューラボ,0
1097,5030001163607,新規,0,2024-11-25,2024-11-25,ＭＫ株式会社,,株式会社,埼玉県,蕨市,南町３丁目２８番１０号南町ハイツ３０３号室,,11,223,3350003,,,,,,,2024-11-25,1,,,,,エムケー,0
1098,5030001163615,新規,0,2024-11-25,2024-11-25,株式会社大竹管理,,株式会社,埼玉県,吉川市,大字高富９４９番地１,,11,243,3420036,,,,,,,2024-11-25,1,,,,,オオタケカンリ,0
1099,5030001163623,新規,0,2024-11-25,2024-11-25,久喜新電力株式会社,,株式会社,埼玉県,久喜市,栗橋東４丁目２０－７,,11,232,3491103,,,,,,,2024-11-25,1,,,,,クキシンデンリョク,0
1116,5040005022576,新規,0,2024-11-25,2024-11-25,一般社団法人エクウェスパーリトリートプラスネイチャーサークル,,その他の設立登記法人,千葉県,香取市,本矢作２２５番地１,,12,236,2870025,,,,,,,2024-11-25,1,,,,,エクウェスパーリトリートプラスネイチャーサークル,0
1122,5060001037667,新規,0,2024-11-25,2024-11-25,株式会社絆電工,,株式会社,栃木県,小山市,東間々田２丁目１３番地１４,,09,208,3290206,,,,,,,2024-11-25,1,,,,,キズナデンコウ,0
1138,5100001038058,新規,0,2024-11-25,2024-11-25,ＳＵＤＡＩＳ　ＴＲＡＤＩＮＧ株式会社,,株式会社,長野県,埴科郡坂城町,大字坂城１０３４１番地１,,20,521,3890601,,,,,,,2024-11-25,1,,,,,スーダイストレーディング,0
1141,5100003007878,新規,0,2024-11-25,2024-11-25,ａｎｄ　ＬＩＦＥ合同会社,,合同会社,長野県,長野市,神明７番地,,20,201,3888020,,,,,,,2024-11-25,1,,,,,アンドライフ,0
1148,5120001270443,新規,0,2024-11-25,2024-11-25,テクーラ株式会社,,株式会社,大阪府,大阪市都島区,都島北通１丁目２２－２２ハイム都島４０３号室,,27,102,5340014,,,,,,,2024-11-25,1,,,,,テクーラ,0
1149,5120001270484,新規,0,2024-11-25,2024-11-25,日本清和投資ホールディングス株式会社,,株式会社,大阪府,大阪市中央区,常盤町２丁目１番８号ＦＧビル大阪６０２,,27,128,5400028,,,,,,,2024-11-25,1,,,,,ニホンセイワトウシホールディングス,0
1150,5120001270542,新規,0,2024-11-25,2024-11-25,株式会社ＲＢＨ,,株式会社,大阪府,大阪市浪速区,元町３丁目１０番１１－１０３号,,27,111,5560016,,,,,,,2024-11-25,1,,,,,アールビーエイチ,0
1151,5120003028039,新規,0,2024-11-25,2024-11-25,合同会社アメコト,,合同会社,大阪府,大阪市浪速区,桜川２丁目６番１７－６０８号,,27,111,5560022,,,,,,,2024-11-25,1,,,,,アメコト,0
1166,5140001136510,新規,0,2024-11-25,2024-11-25,ＨＥＬＬＯ　ＰＡＮＤＡ株式会社,,株式会社,兵庫県,洲本市,本町６丁目４番３６号,,28,205,6560025,,,,,,,2024-11-25,1,,,,,ハローパンダ,0
1167,5140001136527,新規,0,2024-11-25,2024-11-25,株式会社Ｌｉｎｏ　Ｍａｈａｌｏ,,株式会社,兵庫県,神戸市中央区,栄町通６丁目１番１９号,,28,110,6500023,,,,,,,2024-11-25,1,,,,,リノマハロ,0
1168,5140003021347,新規,0,2024-11-25,2024-11-25,合同会社Ｔ．Ｔ．Ｃ,,合同会社,兵庫県,三木市,志染町広野４丁目３９番地の２,,28,215,6730541,,,,,,,2024-11-25,1,,,,,ティーティーシー,0
1178,5180001164284,新規,0,2024-11-25,2024-11-25,株式会社ＫＥＩＳＨＩＮ,,株式会社,愛知県,あま市,小橋方南山西１６１番地,,23,237,4901212,,,,,,,2024-11-25,1,,,,,ケイシン,0
1179,5180001164301,新規,0,2024-11-25,2024-11-25,キヅキ株式会社,,株式会社,愛知県,名古屋市天白区,西入町１７０番地の２,,23,116,4680039,,,,,,,2024-11-25,1,,,,,キヅキ,0
1180,5180003027654,新規,0,2024-11-25,2024-11-25,合同会社ネクスト乙川,,合同会社,愛知県,名古屋市千種区,向陽町２丁目９番地の１（パークテラス向陽町１０１号）,,23,101,4640062,,,,,,,2024-11-25,1,,,,,ネクストオトガワ,0
1181,5180003027662,新規,0,2024-11-25,2024-11-25,Ｋｕｕｎ合同会社,,合同会社,愛知県,一宮市,今伊勢町新神戸字郷前３－４,,23,203,4910052,,,,,,,2024-11-25,1,,,,,クウン,0
1185,5190001031822,新規,0,2024-11-25,2024-11-25,株式会社伊勢ねぎや,,株式会社,三重県,伊勢市,上野町１２９５番地１,,24,203,5161104,,,,,,,2024-11-25,1,,,,,イセネギヤ,0
1213,5290001108057,新規,0,2024-11-25,2024-11-25,株式会社新銀座,,株式会社,福岡県,大牟田市,本町１丁目１番地３,,40,202,8360046,,,,,,,2024-11-25,1,,,,,シンギンザ,0
1214,5290001108065,新規,0,2024-11-25,2024-11-25,８４自動車サービス株式会社,,株式会社,福岡県,福岡市東区,香住ヶ丘２丁目８－１２ドムール香住ヶ丘２０７,,40,131,8130003,,,,,,,2024-11-25,1,,,,,ハチヨンジドウシャサービス,0
1215,5290001108098,新規,0,2024-11-25,2024-11-25,株式会社Ｃ．Ｃ．Ｃ,,株式会社,福岡県,筑紫野市,大字山家５５１７番地１,,40,217,8180003,,,,,,,2024-11-25,1,,,,,シーシーシー,0
1220,5290801031053,新規,0,2024-11-25,2024-11-25,株式会社７世代先へ,,株式会社,福岡県,田川郡福智町,市場１９０８番地,,40,610,8221103,,,,,,,2024-11-25,1,,,,,ナナセダイサキヘ,0
1240,5370001051967,新規,0,2024-11-25,2024-11-25,仙杜ハウス株式会社,,株式会社,宮城県,名取市,美田園４丁目１８番地の１ラ・メール美田園Ａ棟２０１号,,04,207,9811217,,,,,,,2024-11-25,1,,,,,セントハウス,0
1245,5390003002314,新規,0,2024-11-25,2024-11-25,合同会社米沢トミー,,合同会社,山形県,米沢市,中田町１７１３番地,,06,202,9920011,,,,,,,2024-11-25,1,,,,,ヨネザワトミー,0
1253,5430003017019,新規,0,2024-11-25,2024-11-25,アンド２３カンパニー合同会社,,合同会社,北海道,札幌市豊平区,月寒東一条１４丁目２番２４号ティナ２０２号,,01,105,0620051,,,,,,,2024-11-25,1,,,,,アンドニジュウサンカンパニー,0
1264,5470001020474,新規,0,2024-11-25,2024-11-25,株式会社Ｃ‐ＭＥＴＡＬ,,株式会社,香川県,高松市,小村町４３番地１３,,37,201,7610431,,,,,,,2024-11-25,1,,,,,シーメタル,0
1266,5490001010911,新規,0,2024-11-25,2024-11-25,株式会社マリラポ,,株式会社,高知県,高知市,梅ノ辻２番４号,,39,201,7808011,,,,,,,2024-11-25,1,,,,,,0
1267,5490003001958,新規,0,2024-11-25,2024-11-25,合同会社きのえたつ,,合同会社,高知県,高岡郡四万十町,東川角乙２８４番地,,39,412,7860084,,,,,,,2024-11-25,1,,,,,,0
1269,5500005008743,新規,0,2024-11-25,2024-11-25,医療法人祥瑞会,,その他の設立登記法人,愛媛県,新居浜市,宮原町１番５８号,,38,205,7920833,,,,,,,2024-11-25,1,,,,,ショウズイカイ,0
1271,5700150127955,新規,0,2024-11-25,2024-11-25,Ｙｉｗｕ　ｓｈａｎｇ　ｗｅｉ　ｊｉｎ　ｃｈｕ　ｋｏｕ　ｙｏｕ　ｘｉａｎ　ｇｏｎｇ　ｓｉ,,外国会社等,,,,,,,,Ｒｍ．４０６　Ｂｌｋ．ｌ６Ａ，Ｉｎｔｅｒｎａｔｉｏｎａｌ　Ｌａｎｄ　Ｐｏｒｔ　Ｅ－Ｍａｌｌ　Ｐｈａｓｅ　ＩＩ　Ｎｏ．２８８　Ｋａｉｙｕｎ　Ｒｄ，Ｃｈｅｎｇｘｉ　Ｓｔｒ．Ｙｉｗｕ　Ｊｉｎｈｕａ，Ｃｈｉｎａ（Ｚｈｅｊｉａｎｇ）ＦＴＺ,00137072,,,,,2024-11-25,1,,,,,イウシャンウェイジンツウコウユウゲンコウシ,0
1272,5700150127963,新規,0,2024-11-25,2024-11-25,Ｃｈｏｎｇｑｉｎｇ　Ｙｉｎｇｎｕｏｌａｎｄｅ　Ｔｅｃｈｎｏｌｏｇｙ　Ｃｏ．，Ｌｔｄ,,外国会社等,,,,,,,,Ｒｏｏｍ　５０１，Ｎｏ．１，Ｆｌｏｏｒ　５，Ｂｕｉｌｄｉｎｇ　１１，Ｎｏ．１０６，Ｊｉｎｋａｉ　Ｄａｄａｏ　Ｘｉｄｕａｎ，Ｙｕａｎｙａｎｇ　Ｊｉｅｄａｏ，Ｌｉａｎｇｊｉａｎｇ　Ｘｉｎｑｕ，Ｃｈｏｎｇｇｉｎｇ　４０１１２０　ＣＮ,,,,,,2024-11-25,1,,,,,チョンチンインヌオランデテクノロジーカンパニーリミテッド,0
1281,6010003045597,新規,0,2024-11-25,2024-11-25,合同会社ＳＳＷ,,合同会社,東京都,中央区,日本橋蛎殻町１丁目－１７－２－６０５,,13,102,1030014,,,,,,,2024-11-25,1,,,,,エスエスダブリュー,0
1282,6010003045622,新規,0,2024-11-25,2024-11-25,ブラックサンド合同会社,,合同会社,東京都,文京区,小日向３丁目１７番１,,13,105,1120006,,,,,,,2024-11-25,1,,,,,ブラックサンド,0
1285,6010005039168,新規,0,2024-11-25,2024-11-25,Ｒｉｖｕｌｅｔｓ　Ｇｉｎｚａ　ＴＭＫ一般社団法人,,その他の設立登記法人,東京都,千代田区,霞が関３丁目２番５号,,13,101,1000013,,,,,,,2024-11-25,1,,,,,リビュレッツギンザティーエムケイ,0
1293,6010403033846,新規,0,2024-11-25,2024-11-25,ＧＶＳＪ４３合同会社,,合同会社,東京都,港区,六本木３丁目１６番２６号,,13,103,1060032,,,,,,,2024-11-25,1,,,,,ジーブイエスジェイフォーティスリー,0
1294,6010501053234,新規,0,2024-11-25,2024-11-25,株式会社浅草パートナーズ,,株式会社,東京都,台東区,西浅草２丁目２０番６－２０２号,,13,106,1110035,,,,,,,2024-11-25,1,,,,,アサクサパートナーズ,0
1299,6010703007450,新規,0,2024-11-25,2024-11-25,ノヴェア合同会社,,合同会社,東京都,品川区,西品川１丁目２９番１２号ＣＳＲ品川,,13,109,1410033,,,,,,,2024-11-25,1,,,,,ノヴェア,0
1300,6010703007467,新規,0,2024-11-25,2024-11-25,合同会社ジオスケール,,合同会社,東京都,品川区,東大井３丁目２３－１４,,13,109,1400011,,,,,,,2024-11-25,1,,,,,ジオスケール,0
1316,6011001166030,新規,0,2024-11-25,2024-11-25,株式会社ＨｔｏＹ,,株式会社,東京都,渋谷区,南平台町１９番４号,,13,113,1500036,,,,,,,2024-11-25,1,,,,,エイチトゥーワイ,0
1317,6011001166195,新規,0,2024-11-25,2024-11-25,株式会社エヌズドライブ,,株式会社,東京都,渋谷区,本町５丁目２３番８号,,13,113,1510071,,,,,,,2024-11-25,1,,,,,エヌズドライブ,0
1320,6011101109681,新規,0,2024-11-25,2024-11-25,アオイ株式会社,,株式会社,東京都,新宿区,百人町１丁目１９－１３－３Ａ,,13,104,1690073,,,,,,,2024-11-25,1,,,,,アオイ,0
1327,6011703004041,新規,0,2024-11-25,2024-11-25,甜湾合同会社,,合同会社,東京都,江戸川区,南小岩３丁目１－１４プランドールＭ１１８室,,13,123,1330056,,,,,,,2024-11-25,1,,,,,テンワン,0
1337,6020001160216,新規,0,2024-11-25,2024-11-25,株式会社Ｒｕｎ’ｓ,,株式会社,神奈川県,横浜市港北区,日吉本町２丁目４７番３９号Ｒｉｖｅｒｆｉｅｌｄ２０３,,14,109,2230062,,,,,,,2024-11-25,1,,,,,ランズ,0
1338,6020001160224,新規,0,2024-11-25,2024-11-25,京田株式会社,,株式会社,神奈川県,川崎市麻生区,片平１丁目１９番７号,,14,137,2150023,,,,,,,2024-11-25,1,,,,,キョウデン,0
1339,6020001160240,新規,0,2024-11-25,2024-11-25,株式会社木易商事,,株式会社,神奈川県,横浜市磯子区,馬場町５番６－１号,,14,107,2350002,,,,,,,2024-11-25,1,,,,,モクエキショウジ,0
1346,6020005016604,新規,0,2024-11-25,2024-11-25,Ｂｅ　Ｔｈｅ　Ｏｎｅ協同組合,,その他の設立登記法人,神奈川県,横浜市旭区,中白根４丁目１番２－３３２号,,14,112,2410004,,,,,,,2024-11-25,1,,,,,ビーザワン,0
1347,6021001083828,新規,0,2024-11-25,2024-11-25,秀和ホールディングス株式会社,,株式会社,神奈川県,海老名市,泉２丁目４番１－１１３４号,,14,215,2430437,,,,,,,2024-11-25,1,,,,,シュウワホールディングス,0
1348,6021001083836,新規,0,2024-11-25,2024-11-25,株式会社ＮＥＸＴ　ＴＯＯＬ,,株式会社,神奈川県,座間市,小松原２丁目２６番１８号,,14,216,2520002,,,,,,,2024-11-25,1,,,,,ネクストツール,0
1349,6021001083844,新規,0,2024-11-25,2024-11-25,株式会社ブライトホーム,,株式会社,神奈川県,厚木市,三田南２丁目９番２６号ヒルドアコート２０１号室,,14,212,2430217,,,,,,,2024-11-25,1,,,,,ブライトホーム,0
1352,6021003015267,新規,0,2024-11-25,2024-11-25,合同会社ＮＩＰＰＯＮ　ＡＵＴＯ　ＳＵＰＰＬＹ,,合同会社,神奈川県,愛甲郡愛川町,中津２０５５番地の４０,,14,401,2430303,,,,,,,2024-11-25,1,,,,,ニッポンオートサプライ,0
1362,6030001163597,新規,0,2024-11-25,2024-11-25,株式会社浦和電設,,株式会社,埼玉県,さいたま市南区,大字太田窪２１０７番地,,11,108,3360015,,,,,,,2024-11-25,1,,,,,ウラワデンセツ,0
1365,6030003025556,新規,0,2024-11-25,2024-11-25,尹合同会社,,合同会社,埼玉県,さいたま市北区,東大成町１丁目２６４番地１ヴェレーナ北大宮レジデンス２０１,,11,102,3310814,,,,,,,2024-11-25,1,,,,,イン,0
1382,6090001019018,新規,0,2024-11-25,2024-11-25,株式会社ＯＴＯＴＯ,,株式会社,山梨県,南都留郡山中湖村,平野５０８番地の６１１,,19,425,4010502,,,,,,,2024-11-25,1,,,,,オトト,0
1386,6110001038865,新規,0,2024-11-25,2024-11-25,株式会社柏崎農産,,株式会社,新潟県,柏崎市,大字下方６０８番地,,15,205,9451104,,,,,,,2024-11-25,1,,,,,カシワザキノウサン,0
1391,6120001270442,新規,0,2024-11-25,2024-11-25,ＩＴＮＥＸ株式会社,,株式会社,大阪府,大阪市中央区,船場中央３丁目１－７船場センタービル７号館２Ｆ２１７－Ａ,,27,128,5410055,,,,,,,2024-11-25,1,,,,,アイティーネックス,0
1392,6120001270509,新規,0,2024-11-25,2024-11-25,株式会社タジマコーヒー,,株式会社,大阪府,大阪市生野区,田島４丁目４番３７号,,27,116,5440011,,,,,,,2024-11-25,1,,,,,タジマコーヒー,0
1393,6120001270541,新規,0,2024-11-25,2024-11-25,ＩＲＯＨＡ株式会社,,株式会社,大阪府,大阪市鶴見区,安田２丁目３－２０,,27,124,5380032,,,,,,,2024-11-25,1,,,,,イロハ,0
1394,6120001270558,新規,0,2024-11-25,2024-11-25,和潤商事株式会社,,株式会社,大阪府,大阪市生野区,巽中１丁目８番１３号野本マンション２０２号,00137138,27,116,5440013,,,,,,,2024-11-25,1,,,,,ワジュンショウジ,0
1399,6120901050068,新規,0,2024-11-25,2024-11-25,彩華株式会社,,株式会社,大阪府,箕面市,半町２丁目２２番２１号,,27,220,5620044,,,,,,,2024-11-25,1,,,,,サイカ,0
1400,6120903005425,新規,0,2024-11-25,2024-11-25,合同会社壱,,合同会社,大阪府,豊中市,箕輪２丁目９番２号,,27,203,5600035,,,,,,,2024-11-25,1,,,,,イチ,0
1406,6130005017244,新規,0,2024-11-25,2024-11-25,一般社団法人創生の森,,その他の設立登記法人,京都府,京都市中京区,西ノ京左馬寮町１１番地,,26,104,6048491,,,,,,,2024-11-25,1,,,,,ソウセイノモリ,0
1412,6140001136518,新規,0,2024-11-25,2024-11-25,株式会社アンドエー,,株式会社,兵庫県,明石市,朝霧南町３丁目１３－２０,,28,203,6730870,,,,,,,2024-11-25,1,,,,,アンドエー,0
1413,6140001136526,新規,0,2024-11-25,2024-11-25,としまさラボ株式会社,,株式会社,兵庫県,神戸市垂水区,潮見が丘１丁目６番１８号,,28,108,6550005,,,,,,,2024-11-25,1,,,,,トシマサラボ,0
1414,6140003021338,新規,0,2024-11-25,2024-11-25,エムケイ設計合同会社,,合同会社,兵庫県,高砂市,米田町塩市３９１番地の１８,,28,216,6760806,,,,,,,2024-11-25,1,,,,,エムケイセッケイ,0
1415,6140003021354,新規,0,2024-11-25,2024-11-25,合同会社ピエール・シャン,,合同会社,兵庫県,西宮市,羽衣町７番２－３０１号,,28,204,6620051,,,,,,,2024-11-25,1,,,,,ピエールシャン,0
1417,6150005009644,新規,0,2024-11-25,2024-11-25,社会福祉法人光修会,,その他の設立登記法人,奈良県,天理市,平等坊町２２１番２,,29,204,6320077,,,,,,,2024-11-25,1,,,,,コウシュウカイ,0
1434,6180001164275,新規,0,2024-11-25,2024-11-25,株式会社ＴＫ’ｓ,,株式会社,愛知県,知多市,八幡字東大平地２０番地の５,,23,224,4780001,,,,,,,2024-11-25,1,,,,,ティーケーズ,0
1435,6180001164309,新規,0,2024-11-25,2024-11-25,株式会社Ｗｅｂマーケティング協会,,株式会社,愛知県,名古屋市中区,栄２丁目３番１６号アーク栄広小路ビル,,23,106,4600008,,,,,,,2024-11-25,1,,,,,ウェブマーケティングキョウカイ,0
1437,6180003027629,新規,0,2024-11-25,2024-11-25,合同会社ロイヤル,,合同会社,愛知県,あま市,上萱津北ノ川３－２－６１６,,23,237,4901112,,,,,,,2024-11-25,1,,,,,ロイヤル,0
1447,6210001019979,新規,0,2024-11-25,2024-11-25,株式会社Ｏｃｅａｎ　Ｈｏｌｄｉｎｇｓ,,株式会社,福井県,あわら市,大溝１丁目２６番１７号,,18,208,9190628,,,,,,,2024-11-25,1,,,,,オーシャンホールディングス,0
1449,6220001026347,新規,0,2024-11-25,2024-11-25,株式会社ＷＳ,,株式会社,石川県,羽咋郡宝達志水町,今浜ホ３１１番地１,,17,386,9291344,,,,,,,2024-11-25,1,,,,,ダブリューエス,0
1450,6240001064147,新規,0,2024-11-25,2024-11-25,ＭＩＳＡ　ＯＨＤｅｓｉｇｎ株式会社,,株式会社,広島県,広島市南区,京橋町１番７号アスティ広島京橋ビルディング,,34,103,7320828,,,,,,,2024-11-25,1,,,,,ミサオーエイチデザイン,0
1457,6260001039667,新規,0,2024-11-25,2024-11-25,株式会社えん,,株式会社,岡山県,岡山市南区,福田４８８番地６,,33,104,7028021,,,,,,,2024-11-25,1,,,,,エン,0
1463,6280001009296,新規,0,2024-11-25,2024-11-25,株式会社ＡｔｌａｓＤｅｓｉｇｎ,,株式会社,島根県,隠岐郡海士町,大字知々井９２５,,32,525,6840411,,,,,,,2024-11-25,1,,,,,アトラスデザイン,0
1486,6290801031060,新規,0,2024-11-25,2024-11-25,株式会社四季,,株式会社,福岡県,北九州市小倉南区,沼本町２丁目８番５号,,40,107,8000208,,,,,,,2024-11-25,1,,,,,シキ,0
1487,6290803004898,新規,0,2024-11-25,2024-11-25,合同会社ＡＫＡＴＳＵＫＩ,,合同会社,福岡県,北九州市戸畑区,浅生２丁目８番２１号,,40,105,8040062,,,,,,,2024-11-25,1,,,,,アカツキ,0
1497,6370001051966,新規,0,2024-11-25,2024-11-25,株式会社東北グリーンエナジー,,株式会社,宮城県,仙台市宮城野区,新田４丁目１６番１０号,,04,102,9830038,,,,,,,2024-11-25,1,,,,,トウホクグリーンエナジー,0
1511,6430003016944,新規,0,2024-11-25,2024-11-25,合同会社ＲｙＲａ,,合同会社,北海道,沙流郡日高町,富川東５丁目１１－１７,,01,601,0550004,,,,,,,2024-11-25,1,,,,,リラ,0
1513,6440003001648,新規,0,2024-11-25,2024-11-25,合同会社ナチュラル,,合同会社,北海道,函館市,深堀町４１番１８号,,01,202,0420941,,,,,,,2024-11-25,1,,,,,ナチュラル,0
1518,6700150127310,新規,0,2024-11-25,2024-09-27,マンガ大賞実行委員会,,その他,東京都,練馬区,石神井町２丁目２８－３１鳥谷様方,,13,120,1770041,,,,,,,2024-09-27,1,,,,,マンガタイシヨウジツコウイインカイ,0
1519,6700150127954,新規,0,2024-11-25,2024-11-25,Ｃｈｏｎｇｑｉｎｇ　Ｙｉｈｅｔｏｎｇ　Ｅ－ｃｏｍｍｅｒｃｅ　Ｃｏ．，Ｌｔｄ,,外国会社等,,,,,,,,Ｒｏｏｍ　２，Ｆｌｏｏｒ　２７，Ｂｕｉｌｄｉｎｇ　８，Ｎｏ．１０，Ｈｕａｎｇｙａｎｇ　Ｒｏａｄ，Ｘｉｅｊｉａｗａｎ，Ｊｉｕｌｏｎｇｐｏ　Ｄｉｓｔｒｉｃｔ，Ｃｈｏｎｇｑｉｎｇ,,,,,,2024-11-25,1,,,,,チョンチンイヘトンイーコマースカンパニーリミテッド,0
1520,6700150127962,新規,0,2024-11-25,2024-11-25,ＱＵＡＮＺＨＯＵＳＨＩ　ＦＥＩＸＶＧＯＵ　ＤＩＡＮＺＩＳＨＡＮＧＷＵ　ＣＯ．，ＬＴＤ,,外国会社等,,,,,,,,Ｒｏｏｍ　Ｎｏ．８０１，Ｒｏａｄ　Ｎｏ．３４８，Ｂａｏｍｅｉ　Ｓｔｒｅｅｔ，Ｌｏｎｇｘｕｎ　Ｔｏｗｎ　Ｄｅｈｕａ　Ｃｏｕｎｔｙ　Ｑｕａｎｚｈｏｕ　Ｃｉｔｙ　Ｆｕｊｉａｎ　Ｐｒｏｖｉｎｃｅ　３６２５００　ＣＮ,,,,,,2024-11-25,1,,,,,チュエンジョウシーフェイシーゴウディエンズーシャンウーヨウシエンゴンスー,0
1526,7010001249645,新規,0,2024-11-25,2024-11-25,コアラペイメント日本株式会社,,株式会社,東京都,中央区,京橋２丁目７番８号８０５,,13,102,1040031,,,,,,,2024-11-25,1,,,,,コアラペイメントニホン,0
1527,7010001250124,新規,0,2024-11-25,2024-11-25,Ｚｅｂｒａ　ＡＩ株式会社,,株式会社,東京都,千代田区,丸の内１丁目１１番１号パシフィックセンチュリープレイス丸の内１３Ｆ,,13,101,1000005,,,,,,,2024-11-25,1,,,,,ゼブラエーアイ,0
1528,7010001250149,新規,0,2024-11-25,2024-11-25,Ｈｏｎｔａｉ　Ｃａｐｉｔａｌ株式会社,,株式会社,東京都,中央区,新川２丁目１９番８号ステージグランデ新川６０５号室,,13,102,1040033,,,,,,,2024-11-25,1,,,,,ホンタイキャピタル,0
1530,7010003045588,新規,0,2024-11-25,2024-11-25,合同会社ニューウィンド,,合同会社,東京都,千代田区,平河町１丁目６－１５ＵＳビル８Ｆ,,13,101,1020093,,,,,,,2024-11-25,1,,,,,ニューウィンド,0
1532,7010005039167,新規,0,2024-11-25,2024-11-25,ＡＡＪ　Ｈ一般社団法人,,その他の設立登記法人,東京都,千代田区,霞が関３丁目２番５号,,13,101,1000013,,,,,,,2024-11-25,1,,,,,エーエージェーエイチ,0
1539,7010401186620,新規,0,2024-11-25,2024-11-25,株式会社グローバル・コネクトＰＲ,,株式会社,東京都,港区,南麻布２丁目８番２１号ＳＮＵＧＭＩＮＡＭＩ－ＡＺＡＢＵ６Ｆ,,13,103,1060047,,,,,,,2024-11-25,1,,,,,グローバルコネクトピーアール,0
1540,7010401186661,新規,0,2024-11-25,2024-11-25,株式会社Ｃｈａｏｓ　Ｃｏｎｓｕｌｔｉｎｇ,,株式会社,東京都,港区,南麻布３丁目２０番１号,,13,103,1060047,,,,,,,2024-11-25,1,,,,,カオスコンサルティング,0
1542,7010403033845,新規,0,2024-11-25,2024-11-25,ＧＶＳＪ４２合同会社,,合同会社,東京都,港区,六本木３丁目１６番２６号,,13,103,1060032,,,,,,,2024-11-25,1,,,,,ジーブイエスジェイフォーティトゥー,0
1543,7010403033853,新規,0,2024-11-25,2024-11-25,ＧＶＳＪ５０合同会社,,合同会社,東京都,港区,六本木３丁目１６番２６号,,13,103,1060032,,,,,,,2024-11-25,1,,,,,ジーブイエスジェイフィフティ,0
1545,7010405023555,新規,0,2024-11-25,2024-11-25,一般社団法人港区エンタ,,その他の設立登記法人,東京都,港区,新橋１丁目１６番９号,,13,103,1050004,,,,,,,2024-11-25,1,,,,,ミナトクエンタ,0
1546,7010405023662,新規,0,2024-11-25,2024-11-25,一般社団法人日本美容サロン協会,,その他の設立登記法人,東京都,港区,麻布十番２丁目１９－８ボヌール麻布十番３０１,,13,103,1060045,,,,,,,2024-11-25,1,,,,,ニホンビヨウサロンキョウカイ,0
1552,7010603011221,新規,0,2024-11-25,2024-11-25,合同会社６１２,,合同会社,東京都,墨田区,太平２丁目６－５渡辺マンション,,13,107,1300012,,,,,,,2024-11-25,1,,,,,ロクイチニ,0
1557,7010701046870,新規,0,2024-11-25,2024-11-25,株式会社オーランド,,株式会社,東京都,品川区,東品川４丁目５番８－１２０９号,,13,109,1400002,,,,,,,2024-11-25,1,,,,,オーランド,0
1558,7010703007466,新規,0,2024-11-25,2024-11-25,Ｎｅａｔ　Ｔｅｅｔｈ合同会社,,合同会社,東京都,品川区,豊町２丁目１５番５号,,13,109,1420042,,,,,,,2024-11-25,1,,,,,ニートティース,0
1563,7010901056380,新規,0,2024-11-25,2024-11-25,ＭＶＶ株式会社,,株式会社,東京都,世田谷区,尾山台２丁目３１番１１号,,13,112,1580086,,,,,,,2024-11-25,1,,,,,エムブイツー,0
1564,7010903009519,新規,0,2024-11-25,2024-11-25,フォレストワ合同会社,,合同会社,東京都,世田谷区,上用賀４丁目９－２４ガーデン上用賀ハウスＡ－０３,,13,112,1580098,,,,,,,2024-11-25,1,,,,,フォレストワ,0
1570,7011001165956,新規,0,2024-11-25,2024-11-25,パーペチュアル東京株式会社,,株式会社,東京都,渋谷区,代々木２丁目１１番２号,,13,113,1510053,,,,,,,2024-11-25,1,,,,,パーペチュアルトウキョウ,0
1571,7011001165964,新規,0,2024-11-25,2024-11-25,エクステム株式会社,,株式会社,東京都,渋谷区,桜丘町２６番１号セルリアンタワー１５階,,13,113,1500031,,,,,,,2024-11-25,1,,,,,エクステム,0
1572,7011001166194,新規,0,2024-11-25,2024-11-25,株式会社ＳＴエレベーション,,株式会社,東京都,目黒区,目黒本町４丁目１５番９号３０１号室,,13,110,1520002,,,,,,,2024-11-25,1,,,,,エスティーエレベーション,0
1573,7011003020440,新規,0,2024-11-25,2024-11-25,合同会社ＲＭ　Ｆａｃｔｏｒ,,合同会社,東京都,渋谷区,代々木２丁目３４－５ユニゾン代々木２０１,,13,113,1510053,,,,,,,2024-11-25,1,,,,,,0
1574,7011005010761,新規,0,2024-11-25,2024-11-25,一般社団法人Ｃｌｉｎｉｃ‐ｂａｓｅ心臓リハビリテーション推進協会,,その他の設立登記法人,東京都,目黒区,自由が丘２丁目１６番１０号ＲＪ３,,13,110,1520035,,,,,,,2024-11-25,1,,,,,クリニックベースシンゾウリハビリテーションスイシンキョウカイ,0
1575,7011005010778,新規,0,2024-11-25,2024-11-25,一般社団法人青少年読書推進機構,,その他の設立登記法人,東京都,目黒区,柿の木坂２丁目２１番１４号,,13,110,1520022,,,,,,,2024-11-25,1,,,,,セイショウネンドクショスイシンキコウ,0
1582,7011101109706,新規,0,2024-11-25,2024-11-25,株式会社カチヅケ,,株式会社,東京都,新宿区,西新宿７丁目１１番１５号,,13,104,1600023,,,,,,,2024-11-25,1,,,,,カチヅケ,0
1587,7011301030174,新規,0,2024-11-25,2024-11-25,株式会社中井地所,,株式会社,東京都,杉並区,和泉３丁目２２番１号,,13,115,1680063,,,,,,,2024-11-25,1,,,,,ナカイジショ,0
1591,7012301014167,新規,0,2024-11-25,2024-11-25,ＬａｎｄＸ株式会社,,株式会社,東京都,町田市,下小山田町１１０５番地９号,,13,209,1940202,,,,,,,2024-11-25,1,,,,,ランドエックス,0
1600,7020001160280,新規,0,2024-11-25,2024-11-25,株式会社ＢＢＢ,,株式会社,神奈川県,川崎市高津区,坂戸３丁目１０番４－１０４－４号棟,,14,134,2130012,,,,,,,2024-11-25,1,,,,,スリービー,0
1601,7020001160297,新規,0,2024-11-25,2024-11-25,ＡＲＴ株式会社,,株式会社,神奈川県,横浜市西区,北幸２丁目１０番４８号,,14,103,2200004,,,,,,,2024-11-25,1,,,,,アート,0
1604,7020005016611,新規,0,2024-11-25,2024-11-25,一般社団法人廣瀬創造舎,00137127,その他の設立登記法人,神奈川県,横浜市中区,黄金町２丁目８番地７リバーサイド黄金町１０,,14,104,2310054,,,,,,,2024-11-25,1,,,,,ヒロセソウゾウシャ,0
1613,7021005013227,新規,0,2024-11-25,2024-11-25,一般社団法人相模原個人タクシー協会,,その他の設立登記法人,神奈川県,相模原市中央区,富士見２丁目１０番１５号,,14,152,2520236,,,,,,,2024-11-25,1,,,,,サガミハラコジンタクシーキョウカイ,0
1619,7030001163588,新規,0,2024-11-25,2024-11-25,株式会社ＡＴ企画,,株式会社,埼玉県,ふじみ野市,福岡中央２丁目１４番２２号,,11,245,3560031,,,,,,,2024-11-25,1,,,,,エーティーキカク,0
1620,7030001163596,新規,0,2024-11-25,2024-11-25,株式会社ＡＧＲＩ　Ｃｏｎｃｅｐｔ,,株式会社,埼玉県,鶴ヶ島市,松ヶ丘４丁目１番３－２０３号,,11,241,3502205,,,,,,,2024-11-25,1,,,,,アグリコンセプト,0
1621,7030001163605,新規,0,2024-11-25,2024-11-25,ＩＧＥＳマンパワーグループ株式会社,,株式会社,埼玉県,さいたま市大宮区,東町２丁目１３６番５号バウハウス大宮Ｄ号室,,11,103,3300841,,,,,,,2024-11-25,1,,,,,アイジーイーエスマンパワーグループ,0
1622,7030001163613,新規,0,2024-11-25,2024-11-25,株式会社エーアールジャパン,,株式会社,埼玉県,熊谷市,上須戸３７８番地２２,,11,202,3600213,,,,,,,2024-11-25,1,,,,,エーアールジャパン,0
1623,7030003025547,新規,0,2024-11-25,2024-11-25,萩原経営サポート合同会社,,合同会社,埼玉県,深谷市,東方１９２９番地４,,11,218,3660041,,,,,,,2024-11-25,1,,,,,ハギワラケイエイサポート,0
1624,7030003025555,新規,0,2024-11-25,2024-11-25,ＬＣ合同会社,,合同会社,埼玉県,さいたま市浦和区,東仲町２５－１０,,11,107,3300056,,,,,,,2024-11-25,1,,,,,エルシ,0
1629,7040001136238,新規,0,2024-11-25,2024-11-25,Ｔｒａｄｅｒｓ　Ｌａｂ株式会社,,株式会社,千葉県,千葉市中央区,中央４丁目１２番１２号中央土地建物ビル５０３,,12,101,2600013,,,,,,,2024-11-25,1,,,,,トレーダーズラボ,0
1630,7040001136304,新規,0,2024-11-25,2024-11-25,株式会社ＲＳ,,株式会社,千葉県,木更津市,ほたる野１丁目１３番地６－１０１号,,12,206,2920038,,,,,,,2024-11-25,1,,,,,アールエス,0
1631,7040001136329,新規,0,2024-11-25,2024-11-25,ＯＭＡＫＡＳＥ　ＪＡＰＡＮ株式会社,,株式会社,千葉県,茂原市,東部台２丁目９番地３,,12,210,2970015,,,,,,,2024-11-25,1,,,,,オマカセジャパン,0
1633,7040003026148,新規,0,2024-11-25,2024-11-25,合同会社トライアングル,,合同会社,千葉県,大網白里市,上谷新田４５２―２１,,12,239,2993268,,,,,,,2024-11-25,1,,,,,トライアングル,0
1643,7090001019017,新規,0,2024-11-25,2024-11-25,Ｃｏｒｅ　Ｒｏｃｋ株式会社,,株式会社,山梨県,都留市,与縄６０番地２,,19,204,4020012,,,,,,,2024-11-25,1,,,,,コアロック,0
1647,7110001038864,新規,0,2024-11-25,2024-11-25,株式会社ＯｎｅＴｅａｍ,,株式会社,新潟県,新潟市中央区,鳥屋野４１７番地,,15,103,9500951,,,,,,,2024-11-25,1,,,,,ワンチーム,0
1659,7120001270128,新規,0,2024-11-25,2024-11-25,大阪令和総合警備サービス株式会社,,株式会社,大阪府,大阪市北区,西天満３丁目３－２１レジディア西天満１２０５,,27,127,5300047,,,,,,,2024-11-25,1,,,,,オオサカレイワソウゴウケイビサービス,0
1660,7120001270540,新規,0,2024-11-25,2024-11-25,株式会社ＲＨ,,株式会社,大阪府,大阪市中央区,東心斎橋２丁目５番２２号岩伸ミカドビル２階,,27,128,5420083,,,,,,,2024-11-25,1,,,,,アールエイチ,0
1667,7120101070642,新規,0,2024-11-25,2024-11-25,株式会社結,,株式会社,大阪府,富田林市,向陽台３丁目３番７－１１３号,,27,214,5840082,,,,,,,2024-11-25,1,,,,,ユイ,0
1677,7130001078405,新規,0,2024-11-25,2024-11-25,株式会社Ｌｅｖｅｌ,,株式会社,京都府,京都市南区,久世上久世町５３０番地１メゾン桂川２０１号室,,26,107,6018212,,,,,,,2024-11-25,1,,,,,レベル,0
1678,7130001078413,新規,0,2024-11-25,2024-11-25,株式会社ＩＺＵ,,株式会社,京都府,京都市西京区,川島権田町４３番地６９,,26,111,6158195,,,,,,,2024-11-25,1,,,,,イズ,0
1679,7130005017243,新規,0,2024-11-25,2024-11-25,ＮＰＯ法人ここたす,,その他の設立登記法人,京都府,南丹市,園部町若松町５９,,26,213,6220017,,,,,,,2024-11-25,1,,,,,ココタス,0
1682,7140001136509,新規,0,2024-11-25,2024-11-25,株式会社Ｃ＆Ｃ,,株式会社,兵庫県,神戸市垂水区,西舞子２丁目１－５０掬泉ビル２Ｆ,,28,108,6550048,,,,,,,2024-11-25,1,,,,,シーアンドシー,0
1685,7150003003425,新規,0,2024-11-25,2024-11-25,合同会社ふたば,,合同会社,奈良県,生駒郡三郷町,城山台３丁目５番１１号,,29,343,6360824,,,,,,,2024-11-25,1,,,,,フタバ,0
1688,7160001026369,新規,0,2024-11-25,2024-11-25,株式会社吉田,,株式会社,滋賀県,大津市,唐崎１丁目１８番３０号,,25,201,5200106,,,,,,,2024-11-25,1,,,,,ヨシダ,0
1693,7180001164274,新規,0,2024-11-25,2024-11-25,株式会社たけ寅,,株式会社,愛知県,名古屋市中村区,烏森町５丁目３３番地,,23,105,4530855,,,,,,,2024-11-25,1,,,,,タケトラ,0
1694,7180001164282,新規,0,2024-11-25,2024-11-25,株式会社Ｔサポート,,株式会社,愛知県,名古屋市中川区,川前町１２６番地,,23,110,4540916,,,,,,,2024-11-25,1,,,,,ティーサポート,0
1698,7180003027669,新規,0,2024-11-25,2024-11-25,合同会社ＮＩＧＯ,,合同会社,愛知県,名古屋市東区,泉１丁目１１番４号ウィズエムビル５０２号室,,23,102,4610001,,,,,,,2024-11-25,1,,,,,ニゴー,0
1699,7180005020845,新規,0,2024-11-25,2024-11-25,一般社団法人日本健康寿命を延ばす会,,その他の設立登記法人,愛知県,名古屋市中区,栄１丁目１２番１３号,,23,106,4600008,,,,,,,2024-11-25,1,,,,,ニホンケンコウジュミョウヲノバスカイ,0
1700,7180301039259,新規,0,2024-11-25,2024-11-25,株式会社ＶＡＬ２,,株式会社,愛知県,岡崎市,中島東町１丁目４番地１ハウスオブマキ２０２号室,,23,202,4440223,,,,,,,2024-11-25,1,,,,,ヴァルツー,0
1708,7240001064113,新規,0,2024-11-25,2024-11-25,株式会社ＬＵＭＯＳ,,株式会社,広島県,福山市,加茂町下加茂７６９番地１１,,34,207,7210000,,,,,,,2024-11-25,1,,,,,ルーモス,0
1709,7240001064154,新規,0,2024-11-25,2024-11-25,株式会社広建機,,株式会社,広島県,広島市安佐北区,三入東２丁目２９番８号,,34,106,7310212,,,,,,,2024-11-25,1,,,,,ヒロケンキ,0
1718,7290003016090,新規,0,2024-11-25,2024-11-25,合同会社ＷＩＮ,,合同会社,福岡県,太宰府市,通古賀４丁目４番２７－１０７号,,40,221,8180104,,,,,,,2024-11-25,1,,,,,ウィン,0
1720,7300005007219,新規,0,2024-11-25,2024-11-25,一般社団法人しろいし町観光協会,,その他の設立登記法人,佐賀県,杵島郡白石町,大字福田１２４７番地１,,41,425,8491112,,,,,,,2024-11-25,1,,,,,シロイシチョウカンコウキョウカイ,0
1730,7360001034459,新規,0,2024-11-25,2024-11-25,唯多株式会社,,株式会社,沖縄県,那覇市,字国場１０００番地３カンセイホーム国場５－Ｂ号室,,47,201,9020075,,,,,,,2024-11-25,1,,,,,ユイタ,0
1731,7360001034467,新規,0,2024-11-25,2024-11-25,ＦＬＯＡＴ株式会社,,株式会社,沖縄県,中頭郡中城村,字南上原１０４０－１４サン・ステージ２０６号室,,47,328,9012424,,,,,,,2024-11-25,1,,,,,フロート,0
1732,7360001034475,新規,0,2024-11-25,2024-11-25,株式会社Ｒｅ，メイク,,株式会社,沖縄県,浦添市,屋富祖４丁目５番３号２階,,47,208,9012127,,,,,,,2024-11-25,1,,,,,リメイク,0
1733,7360003014475,新規,0,2024-11-25,2024-11-25,合同会社Ａｃｃｅｌ,,合同会社,沖縄県,南城市,佐敷字津波古９７０番地,,47,215,9011414,,,,,,,2024-11-25,1,,,,,アクセル,0
1745,7430001093134,新規,0,2024-11-25,2024-11-25,湾湾株式会社,,株式会社,北海道,札幌市中央区,南八条西１３丁目３番６２号１Ｆ,,01,101,0640808,,,,,,,2024-11-25,1,,,,,ワンワン,0
1746,7430003017017,新規,0,2024-11-25,2024-11-25,Ｋｉｗｉ　Ｐｈｏｔｏｇｒａｐｈｙ合同会社,,合同会社,北海道,虻田郡倶知安町,字高砂２２２番地４１ラピスラズリＫＮ号室,,01,400,0440076,,,,,,,2024-11-25,1,,,,,キウィフォトグラフィー,0
1751,7470001020472,新規,0,2024-11-25,2024-11-25,株式会社Ｎｅｘｔ　Ｌｉｎｋ,,株式会社,香川県,高松市,屋島西町２３０７番地７サンタウン２１Ａ１０２,,37,201,7610113,,,,,,,2024-11-25,1,,,,,ネクストリンク,0
1757,7700150127953,新規,0,2024-11-25,2024-11-25,ｃｈａｏ　ｚｈｏｕ　ｓｈｉ　ｍｉ　ｓｉ　ｒｕｉ　ｍａｏ　ｙｉ　ｙｏｕ　ｘｉａｎ　ｇｏｎｇ　ｓｉ,,外国会社等,,,,,,,,ｃｈａｏ　ａｎ　ｑｕ　ｇｕ　ｘｉａｎｇ　ｚｈｅｎ　ｆｅｎｇ　ｙａｎｇ　ｙｉ　ｃｕｎ　ｄｏｎｇ　ｊｉｎｇ　１９ｈａｏ　ｃｈａｏ　ｚｈｏｕ　ＣＮ,,,,,,2024-11-25,1,,,,,チャオゾウシミシルイマオイユウゲンコウシ,0
1758,7700150127961,新規,0,2024-11-25,2024-11-25,ｆｕｚｈｏｕｌｉｎｇｘｕａｎｍａｏｙｉｙｏｕｘｉａｎｇｏｎｇｓｉ,,外国会社等,,,,,,,,ｆｕｊｉａｎｓｈｅｎｇｆｕｚｈｏｕｓｈｉｃｈａｎｇｌｅｑｕｈｕｎａｎｚｈｅｎｈｕｂｉｎｃｕｎｐｅｎｇｃｈｅｎｇｌｕ１９ｈａｏ,,,,,,2024-11-25,1,,,,,フージョウリンシュエンマオイーヨウシエンゴンスー,0
1770,8010001250180,新規,0,2024-11-25,2024-11-25,ＪＭＣ‐ＢＭ株式会社,,株式会社,東京都,中央区,日本橋茅場町２丁目１２番１０号,,13,102,1030025,,,,,,,2024-11-25,1,,,,,ジェイエムシービーエム,0
1771,8010001250222,新規,0,2024-11-25,2024-11-25,ＵＮＩＴＥＤ　ＯＮＥＮＥＳＳ株式会社,,株式会社,東京都,中央区,京橋３丁目９番６号ＧＭ－３ビル５Ｆ,,13,102,1040031,,,,,,,2024-11-25,1,,,,,ユナイテッドワンネス,0
1772,8010003045513,新規,0,2024-11-25,2024-11-25,シャローム合同会社,,合同会社,東京都,千代田区,神田鍛冶町３丁目７番地２１天翔神田駅前ビル３階３０２号室,,13,101,1010045,,,,,,,2024-11-25,1,,,,,シャローム,0
1773,8010003045595,新規,0,2024-11-25,2024-11-25,合同会社ＧＰファンド,,合同会社,東京都,千代田区,神田錦町１丁目２１番１号,,13,101,1010054,,,,,,,2024-11-25,1,,,,,ジーピーファンド,0
1777,8010005039166,新規,0,2024-11-25,2024-11-25,Ｒｉｖｕｌｅｔｓ　Ｇｉｎｚａ　ＧＫ一般社団法人,,その他の設立登記法人,東京都,千代田区,霞が関３丁目２番５号,,13,101,1000013,,,,,,,2024-11-25,1,,,,,リビュレッツギンザジーケー,0
1783,8010403033844,新規,0,2024-11-25,2024-11-25,ＧＶＳＪ４１合同会社,,合同会社,東京都,港区,六本木３丁目１６番２６号,,13,103,1060032,,,,,,,2024-11-25,1,,,,,ジーブイエスジェイフォーティワン,0
1784,8010403033852,新規,0,2024-11-25,2024-11-25,ＧＶＳＪ４９合同会社,,合同会社,東京都,港区,六本木３丁目１６番２６号,,13,103,1060032,,,,,,,2024-11-25,1,,,,,ジーブイエスジェイフォーティナイン,0
1789,8010601066332,新規,0,2024-11-25,2024-11-25,株式会社ＳＯＦＶＩＬ,,株式会社,東京都,墨田区,江東橋４丁目２７番１４号,,13,107,1300022,,,,,,,2024-11-25,1,,,,,ソフビル,0
1790,8010601066340,新規,0,2024-11-25,2024-11-25,株式会社ａｃｃｅｎｔ．ｃｒｅａｔｉｖｅ　ｓｔｕｄｉｏ,,株式会社,東京都,江東区,木場５丁目６番２－２０３号,,13,108,1350042,,,,,,,2024-11-25,1,,,,,アクセントクリエイティブスタジオ,0
1791,8010603011229,新規,0,2024-11-25,2024-11-25,匠合同会社,,合同会社,東京都,江東区,亀戸５丁目１０番７福本ビル３０１,,13,108,1360071,,,,,,,2024-11-25,1,,,,,タクミ,0
1792,8010701046853,新規,0,2024-11-25,2024-11-25,株式会社ＤｅＣａｒｂｏｘｎ,,株式会社,東京都,品川区,東五反田１丁目１０番７号ＡＩＯＳ五反田ビル６０７,,13,109,1410022,,,,,,,2024-11-25,1,,,,,デカルボ,0
1793,8010703007449,新規,0,2024-11-25,2024-11-25,藤興業合同会社,,合同会社,東京都,品川区,西五反田８丁目３番１１号パークウェル五反田１００３,,13,109,1410031,,,,,,,2024-11-25,1,,,,,フジコウギョウ,0
1795,8010801035590,新規,0,2024-11-25,2024-11-25,株式会社ＺＥＲＯ　ＳＥＶＥＮ,,株式会社,東京都,大田区,大森西７丁目９番７－７０１号,,13,111,1430015,,,,,,,2024-11-25,1,,,,,ゼロセブン,0
1796,8010901056371,新規,0,2024-11-25,2024-11-25,株式会社ＨＥＩＷＡ,,株式会社,東京都,世田谷区,粕谷４丁目２０番１８号,,13,112,1570063,,,,,,,2024-11-25,1,,,,,ヘイワ,0
1797,8010903009518,新規,0,2024-11-25,2024-11-25,ｎｏｒｍａｌｌｙ合同会社,,合同会社,東京都,世田谷区,奥沢７丁目４７番４号ルアナ自由が丘１０１,,13,112,1580083,,,,,,,2024-11-25,1,,,,,ノーマリー,0
1803,8011001165963,新規,0,2024-11-25,2024-11-25,ｍｕｇｍｉｌｉｇｒａｍ株式会社,,株式会社,東京都,渋谷区,道玄坂１丁目１０番８号渋谷道玄坂東急ビル２Ｆ－Ｃ,,13,113,1500043,,,,,,,2024-11-25,1,,,,,マグミリグラム,0
1804,8011001166020,新規,0,2024-11-25,2024-11-25,Ｓｍａｔｃｈ株式会社,,株式会社,東京都,渋谷区,渋谷１丁目１４番１１号,,13,113,1500002,,,,,,,2024-11-25,1,,,,,スマッチ,0
1805,8011001166193,新規,0,2024-11-25,2024-11-25,株式会社ＤＹＲ,,株式会社,東京都,渋谷区,道玄坂１丁目１０番８号渋谷道玄坂東急ビル２Ｆ－Ｃ,,13,113,1500043,,,,,,,2024-11-25,1,,,,,ディーワイアール,0
1807,8011003020456,新規,0,2024-11-25,2024-11-25,ＡＢ　ＭＡＮＡＧＥＭＥＮＴ合同会社,,合同会社,東京都,目黒区,下目黒１丁目１番１４号コノトラビル７Ｆ,,13,110,1530064,,,,,,,2024-11-25,1,,,,,エービーマネジメント,0
1811,8011201025942,新規,0,2024-11-25,2024-11-25,株式会社Ｒａｗｋｅｙ,,株式会社,東京都,中野区,東中野２丁目９－２３シャレーＮＫ,,13,114,1640003,,,,,,,2024-11-25,1,,,,,ロウキー,0
1820,8013301053427,新規,0,2024-11-25,2024-11-25,クレメンティア・ホールディングス株式会社,,株式会社,東京都,豊島区,高松１丁目１１番１５号,,13,116,1710042,,,,,,,2024-11-25,1,,,,,クレメンティアホールディングス,0
1830,8020001160239,新規,0,2024-11-25,2024-11-25,株式会社ＹＴ,,株式会社,神奈川県,横浜市金沢区,六浦南１丁目３０番１０号,,14,108,2360038,,,,,,,2024-11-25,1,,,,,ワイティー,0
1831,8020001160255,新規,0,2024-11-25,2024-11-25,株式会社Ｐａｔｈ０１,,株式会社,神奈川県,横浜市神奈川区,金港町５－１４クアドリフォリオ８階,,14,102,2210056,,,,,,,2024-11-25,1,,,,,パスワン,0
1832,8020001160288,新規,0,2024-11-25,2024-11-25,Ｇｕｓｈｉｎｅ日本株式会社,,株式会社,神奈川県,横浜市港北区,新横浜３丁目６番地１２日総第１２ビル２０９号,,14,109,2220033,,,,,,,2024-11-25,1,,,,,グーシンニホン,0
1833,8020001160362,新規,0,2024-11-25,2024-11-25,株式会社ＹＬＯ,,株式会社,神奈川県,横浜市西区,北幸１丁目４番１号横浜天理ビル９Ｆ,,14,103,2200004,,,,,,,2024-11-25,1,,,,,ワイエルオー,0
1837,8020005016610,新規,0,2024-11-25,2024-11-25,プライムコート下田第二管理組合法人,,その他の設立登記法人,神奈川県,横浜市港北区,下田町５丁目２１番２１号,,14,109,2230064,,,,,,,2024-11-25,1,,,,,プライムコートシモダダイニ,0
1843,8021001083818,新規,0,2024-11-25,2024-11-25,株式会社Ｋ．Ａ．Ｎ．,,株式会社,神奈川県,三浦郡葉山町,一色５５９番地の１１,,14,301,2400111,,,,,,,2024-11-25,1,,,,,ケーエーエヌ,0
1844,8021001083850,新規,0,2024-11-25,2024-11-25,ＤＲＥＡＭ株式会社,,株式会社,神奈川県,大和市,つきみ野５丁目２番地１１,,14,213,2420002,,,,,,,2024-11-25,1,,,,,ドリーム,0
1855,8030001163595,新規,0,2024-11-25,2024-11-25,株式会社ローク,,株式会社,埼玉県,越谷市,北越谷４丁目９番８号アミークス３０５,,11,222,3430026,,,,,,,2024-11-25,1,,,,,ローク,0
1856,8030001163620,新規,0,2024-11-25,2024-11-25,Ｏｒｙ株式会社,,株式会社,埼玉県,川越市,大字的場５３８番地５,,11,201,3501101,,,,,,,2024-11-25,1,,,,,オリ,0
1865,8040001136303,新規,0,2024-11-25,2024-11-25,株式会社なかむら,,株式会社,千葉県,八千代市,ゆりのき台５丁目１番地４アルバ八千代２０８号,,12,221,2760042,,,,,,,2024-11-25,1,,,,,ナカムラ,0
1872,8040003026254,新規,0,2024-11-25,2024-11-25,合同会社ＳＵＭＸ,,合同会社,千葉県,木更津市,祇園１丁目２６番１６－２０６号,,12,206,2920052,,,,,,,2024-11-25,1,,,,,サムクロス,0
1877,8050001055717,新規,0,2024-11-25,2024-11-25,株式会社カメックス,,株式会社,茨城県,水戸市,渡里町２９３９番地の１,,08,201,3100902,,,,,,,2024-11-25,1,,,,,カメックス,0
1879,8060001037672,新規,0,2024-11-25,2024-11-25,大木ホールディングス株式会社,,株式会社,栃木県,栃木市,大町１８番１２号,,09,203,3280071,,,,,,,2024-11-25,1,,,,,オオキホールディングス,0
1881,8070001042399,新規,0,2024-11-25,2024-11-25,ハムダン商会株式会社,,株式会社,群馬県,館林市,瀬戸谷町２５８３－１,,10,207,3740021,,,,,,,2024-11-25,1,,,,,ハムダンショウカイ,0
1882,8070003005676,新規,0,2024-11-25,2024-11-25,合同会社ブレンド,,合同会社,群馬県,伊勢崎市,市場町２丁目６２９番地ブレシアカツラＩＩ２０６,00137137,10,204,3792211,,,,,,,2024-11-25,1,,,,,ブレンド,0
1895,8120001270507,新規,0,2024-11-25,2024-11-25,株式会社協栄空調設備,,株式会社,大阪府,枚方市,招提平野町８番１７号,,27,210,5731135,,,,,,,2024-11-25,1,,,,,キョウエイクウチョウセツビ,0
1896,8120001270515,新規,0,2024-11-25,2024-11-25,ＳＴＥＰ　ＢＹ　ＳＴＥＰ株式会社,,株式会社,大阪府,大阪市中央区,備後町１丁目６番１号,,27,128,5410051,,,,,,,2024-11-25,1,,,,,ステップバイステップ,0
1897,8120001270523,新規,0,2024-11-25,2024-11-25,琳インターナショナル株式会社,,株式会社,大阪府,大阪市淀川区,加島３丁目中５番１９－６０５号,,27,123,5320031,,,,,,,2024-11-25,1,,,,,リンインターナショナル,0
1898,8120001270531,新規,0,2024-11-25,2024-11-25,株式会社ＡＭＡＳＡ,,株式会社,大阪府,大阪市北区,梅田１丁目１－３大阪駅前第３ビル２９階１－１－１号室,,27,127,5300001,,,,,,,2024-11-25,1,,,,,アマサ,0
1904,8120003028028,新規,0,2024-11-25,2024-11-25,合同会社Ｓｔａｒｒｙ　Ｌｉｂｒａ,,合同会社,大阪府,大阪市浪速区,敷津東２丁目１番２４－３２０１号,,27,111,5560012,,,,,,,2024-11-25,1,,,,,スターリーリブラ,0
1905,8120003028036,新規,0,2024-11-25,2024-11-25,ＳＰ滋賀大津合同会社,,合同会社,大阪府,大阪市中央区,南船場２丁目６－３第２ＢＳビル６０１号室,,27,128,5420081,,,,,,,2024-11-25,1,,,,,エスピーシガオオツ,0
1906,8120005024628,新規,0,2024-11-25,2024-11-25,一般社団法人日本先進医療・福祉協会,,その他の設立登記法人,大阪府,大阪市西区,西本町１丁目１１番１－１００６号,,27,106,5500005,,,,,,,2024-11-25,1,,,,,ニホンセンシンイリョウフクシキョウカイ,0
1913,8120103006156,新規,0,2024-11-25,2024-11-25,ＢＥＴＯＴＯＷＮ合同会社,,合同会社,大阪府,富田林市,錦織東１丁目６番５号－２０１号室,,27,214,5840069,,,,,,,2024-11-25,1,,,,,ベトタウン,0
1914,8120903005431,新規,0,2024-11-25,2024-11-25,合同会社義一,,合同会社,大阪府,高槻市,宮之川原元町１５番１３号,,27,207,5691033,,,,,,,2024-11-25,1,,,,,ギイチ,0
1917,8122001038685,新規,0,2024-11-25,2024-11-25,株式会社モディア,,株式会社,大阪府,八尾市,亀井町１丁目１番２９号,,27,212,5810065,,,,,,,2024-11-25,1,,,,,モディア,0
1920,8130001078404,新規,0,2024-11-25,2024-11-25,株式会社永田造園,,株式会社,京都府,亀岡市,千代川町小林植田１０番地,,26,206,6210043,,,,,,,2024-11-25,1,,,,,ナガタゾウエン,0
1929,8140001136508,新規,0,2024-11-25,2024-11-25,株式会社ＭＣオモロイ,,株式会社,兵庫県,三田市,南が丘１丁目５１番２号,,28,219,6691535,,,,,,,2024-11-25,1,,,,,メッチャオモロイ,0
1930,8140001136524,新規,0,2024-11-25,2024-11-25,株式会社ＯＤＥＫＡＫＥ,,株式会社,兵庫県,神戸市中央区,磯辺通１丁目１番１８号カサベラ国際プラザビル７０７,,28,110,6510084,,,,,,,2024-11-25,1,,,,,オデカケ,0
1931,8140003021352,新規,0,2024-11-25,2024-11-25,合同会社イコミキ,,合同会社,兵庫県,明石市,東野町８番地ヴァーチュアスあさぎり４０５号,,28,203,6730844,,,,,,,2024-11-25,1,,,,,イコミキ,0
1934,8140005027281,新規,0,2024-11-25,2024-11-25,一般社団法人日本救急医療連絡会,,その他の設立登記法人,兵庫県,神戸市西区,伊川谷町別府７１９番１,,28,111,6512115,,,,,,,2024-11-25,1,,,,,ニホンキュウキュウイリョウレンラクカイ,0
1942,8180001164281,新規,0,2024-11-25,2024-11-25,株式会社ロクジノチカラ,,株式会社,愛知県,名古屋市北区,生駒町６丁目１３６番地の２,,23,103,4620832,,,,,,,2024-11-25,1,,,,,ロクジノチカラ,0
1943,8180001164307,新規,0,2024-11-25,2024-11-25,株式会社スタートライフ,,株式会社,愛知県,名古屋市中区,栄２丁目３番１６号アーク栄広小路ビル,,23,106,4600008,,,,,,,2024-11-25,1,,,,,スタートライフ,0
1944,8180001164315,新規,0,2024-11-25,2024-11-25,株式会社ミライガーデン,,株式会社,愛知県,名古屋市守山区,鳥羽見１丁目１番２０号,,23,113,4630076,,,,,,,2024-11-25,1,,,,,ミライガーデン,0
1946,8180005020844,新規,0,2024-11-25,2024-11-25,一般社団法人エイチキューブＨＤ,,その他の設立登記法人,愛知県,名古屋市中区,錦１丁目７番３４号,,23,106,4600003,,,,,,,2024-11-25,1,,,,,エイチキューブホールディングス,0
1957,8240001064161,新規,0,2024-11-25,2024-11-25,株式会社ＫＩＭＵＲＡ,,株式会社,広島県,廿日市市,宮島町５９２番地,,34,213,7390588,,,,,,,2024-11-25,1,,,,,キムラ,0
1974,8290001108054,新規,0,2024-11-25,2024-11-25,ｓ．ｔ．ｅ．Ｃｏｃｏ株式会社,,株式会社,福岡県,久留米市,御井町１８５９番地,,40,203,8390851,,,,,,,2024-11-25,1,,,,,エスティーイーココ,0
1975,8290001108062,新規,0,2024-11-25,2024-11-25,株式会社久留米学校給食サービス,,株式会社,福岡県,久留米市,宮ノ陣３丁目６番２６号,,40,203,8390801,,,,,,,2024-11-25,1,,,,,クルメガッコウキュウショクサービス,0
1976,8290001108079,新規,0,2024-11-25,2024-11-25,Ｐｙｒｓａｉ株式会社,,株式会社,福岡県,福岡市中央区,天神４丁目６番２８号天神ファーストビル７階,,40,133,8100001,,,,,,,2024-11-25,1,,,,,パーサイ,0
1977,8290005019561,新規,0,2024-11-25,2024-11-25,一般社団法人ベースキャンプ,,その他の設立登記法人,福岡県,宗像市,泉ヶ丘１丁目６番地４,,40,220,8114142,,,,,,,2024-11-25,1,,,,,ベースキャンプ,0
1979,8300005007218,新規,0,2024-11-25,2024-11-25,医療法人ＥＭＵ,,その他の設立登記法人,佐賀県,杵島郡白石町,大字戸ケ里１８１１番地,,41,425,8491203,,,,,,,2024-11-25,1,,,,,イーエムユウ,0
1982,8310003004901,新規,0,2024-11-25,2024-11-25,合同会社ＴＥＮ,,合同会社,長崎県,西彼杵郡長与町,高田郷２０３７－１松尾ハイツＩＩ１０２号,00137124,42,307,8512127,,,,,,,2024-11-25,1,,,,,テン,0
1983,8320001020825,新規,0,2024-11-25,2024-11-25,株式会社大真興業,,株式会社,大分県,大分市,牧１丁目１６番１１号エクセル牧Ｂ１０２,,44,201,8700924,,,,,,,2024-11-25,1,,,,,ダイシンコウギョウ,0
1991,8330001032670,新規,0,2024-11-25,2024-11-25,株式会社ＪＹＳＮ,,株式会社,熊本県,熊本市中央区,花畑町１番１４号Ａ＆Ｍ　ＨＡＮＡＢＡＴＡ３０１号,,43,101,8600806,,,,,,,2024-11-25,1,,,,,ジェイシン,0
1992,8330001032679,新規,0,2024-11-25,2024-11-25,ＫＩアセット株式会社,,株式会社,熊本県,熊本市中央区,水道町１５番２０－１１０８号,,43,101,8600844,,,,,,,2024-11-25,1,,,,,ケイアイアセット,0
1998,8360001034474,新規,0,2024-11-25,2024-11-25,株式会社ＥＹＥ’ｓ,,株式会社,沖縄県,浦添市,屋富祖１丁目２番５号コーポ順２階,,47,208,9012127,,,,,,,2024-11-25,1,,,,,アイズ,0
1999,8370001051964,新規,0,2024-11-25,2024-11-25,株式会社みやと,,株式会社,宮城県,仙台市青葉区,小田原５丁目２番３７－２号,,04,101,9800003,,,,,,,2024-11-25,1,,,,,ミヤト,0
2003,8380001034935,新規,0,2024-11-25,2024-11-25,株式会社トラストコーポレーション,,株式会社,福島県,郡山市,桑野１丁目１４番１号フォーシーズン開成山公園７０３号,,07,203,9638025,,,,,,,2024-11-25,1,,,,,トラストコーポレーション,0
2009,8410001014000,新規,0,2024-11-25,2024-11-25,さくら不動産コンサルティング株式会社,,株式会社,秋田県,秋田市,新屋天秤野３番１４号,,05,201,0101611,,,,,,,2024-11-25,1,,,,,サクラフドウサンコンサルティング,0
2011,8420003003025,新規,0,2024-11-25,2024-11-25,合同会社バンビ,,合同会社,青森県,青森市,大字大野字山下４６－２８,,02,201,0300852,,,,,,,2024-11-25,1,,,,,バンビ,0
2012,8430001093133,新規,0,2024-11-25,2024-11-25,株式会社オーシャン貿易,,株式会社,北海道,札幌市西区,琴似二条６丁目２番２６－５０１号,,01,107,0630812,,,,,,,2024-11-25,1,,,,,オーシャンボウエキ,0
2015,8490001010909,新規,0,2024-11-25,2024-11-25,株式会社ＡＲＴＳ　ＡＣＥ,,株式会社,高知県,南国市,大＿甲１６９８番地６セグエンテＩＩ３０２,00137125,39,204,7830004,,,,,,,2024-11-25,1,,,,,アーツエース,0
2016,8500001026011,新規,0,2024-11-25,2024-11-25,株式会社ＫＺＹ,,株式会社,愛媛県,新居浜市,宮西町２番１８号,,38,205,7920024,,,,,,,2024-11-25,1,,,,,ケイズィーワイ,0
2017,8500003003371,新規,0,2024-11-25,2024-11-25,合同会社西興,,合同会社,愛媛県,松山市,桑原２丁目３番２７号永井ビル２階,,38,201,7900911,,,,,,,2024-11-25,1,,,,,ニシコウ,0
2019,8700150127952,新規,0,2024-11-25,2024-11-25,Ｓｈｅｎｚｈｅｎｓｈｉ　Ｂｏｒｕｉｔｏｎｘｉｎｊｉｓｈｕｙｏｕｘｉａｎｇｏｎｇｓｉ,,外国会社等,,,,,,,,Ｂａｏａｎｑｕ　Ｓｈｉｙａｎｊｉｅｄａｏ　Ｓｈｉｌｏｎｇｓｈｅｑｕ　Ｓｈｉｈｕａｎｌｕ　２Ｈａｏ　Ｘｉｎｓｈｉｄａｉ　Ｇｏｎｇｒｏｎｇｇｏｎｇｙｅｙｕａｎ　Ａ２Ｄｏｎｇ　Ｓｈｉｃｅｎｇ　Ｓｈｅｎｚｈｅｎ　ＣＮ,,,,,,2024-11-25,1,,,,,シンセンシボルイツウシンギジュツユウゲンコウシ,0
2020,8700150127960,新規,0,2024-11-25,2024-11-25,Ｓｈｅｎｑｉｕ　Ｅｒｍｕ　Ｔｒａｄｉｎｇ　Ｃｏ．，Ｌｔｄ．,,外国会社等,,,,,,,,Ｎｏ．０８０　Ｚｈｉｄｏｎｇ　Ａｄｍｉｎｉｓｔｒａｔｉｖｅ　Ｖｉｌｌａｇｅ，Ｚｈｉｄｉａｎ　Ｔｏｗｎ，Ｓｈｅｎｑｉｕ　ｃｏｕｎｔｙ，Ｚｈｏｕｋｏｕ　Ｃｉｔｙ，Ｈｅｎａｎ　Ｐｒｏｖｉｎｃｅ　４６６０００　ＣＮ,,,,,,2024-11-25,1,,,,,シェンチューシエンアームーシャンマオヨウシエンゴンスー,0
2031,9010001249973,新規,0,2024-11-25,2024-11-25,ヴェリタス株式会社,,株式会社,東京都,中央区,銀座１丁目１２番４号Ｎ＆ＥＢＬＤ．６Ｆ,,13,102,1040061,,,,,,,2024-11-25,1,,,,,ヴェリタス,0
2032,9010001250139,新規,0,2024-11-25,2024-11-25,平河町金融事業準備株式会社,,株式会社,東京都,千代田区,平河町１丁目４番３号,,13,101,1020093,,,,,,,2024-11-25,1,,,,,ヒラカワチョウキンユウジギョウジュンビ,0
2033,9010001250205,新規,0,2024-11-25,2024-11-25,ブラウニー株式会社,,株式会社,東京都,中央区,銀座１丁目１２－４Ｎ＆ＥＢＬＤ．７階,,13,102,1040061,,,,,,,2024-11-25,1,,,,,ブラウニー,0
2034,9010001250254,新規,0,2024-11-25,2024-11-25,株式会社アドライブエージェント,,株式会社,東京都,千代田区,神田美倉町１番地,,13,101,1010038,,,,,,,2024-11-25,1,,,,,アドライブエージェント,0
2036,9010003045561,新規,0,2024-11-25,2024-11-25,合同会社矢島,,合同会社,東京都,中央区,東日本橋３丁目５番８－１２０６号,,13,102,1030004,,,,,,,2024-11-25,1,,,,,ヤジマ,0
2038,9010005039058,新規,0,2024-11-25,2024-11-25,特定非営利活動法人ドリーム・サステナビリティ・ジャパン,,その他の設立登記法人,東京都,中央区,日本橋人形町３丁目３－５天翔日本橋人形町ビル３０６号,,13,102,1030013,,,,,,,2024-11-25,1,,,,,ドリームサステナビリティジャパン,0
2039,9010005039181,新規,0,2024-11-25,2024-11-25,一般財団法人森の風環境基金,,その他の設立登記法人,東京都,中央区,日本橋人形町１丁目９番２号冨士ビル４階,,13,102,1030013,,,,,,,2024-11-25,1,,,,,モリノカゼカンキョウキキン,0
2049,9010403033851,新規,0,2024-11-25,2024-11-25,ＧＶＳＪ４８合同会社,,合同会社,東京都,港区,六本木３丁目１６番２６号,,13,103,1060032,,,,,,,2024-11-25,1,,,,,ジーブイエスジェイフォーティエイト,0
2058,9010601066364,新規,0,2024-11-25,2024-11-25,株式会社俊楽,,株式会社,東京都,墨田区,両国１丁目１２番１２号塚田ビル３階,,13,107,1300026,,,,,,,2024-11-25,1,,,,,シュンラク,0
2059,9010701046869,新規,0,2024-11-25,2024-11-25,株式会社アベリア,,株式会社,東京都,品川区,東品川３丁目３２－４２－１００３,,13,109,1400002,,,,,,,2024-11-25,1,,,,,アベリア,0
2060,9010701046877,新規,0,2024-11-25,2024-11-25,株式会社ｐｈｅｂｕｓ,,株式会社,東京都,品川区,荏原５丁目１６番１５号,,13,109,1420063,,,,,,,2024-11-25,1,,,,,フィーバス,0
2073,9011003020463,新規,0,2024-11-25,2024-11-25,リンクケアプラス合同会社,,合同会社,東京都,渋谷区,渋谷２丁目１９番１５号宮益坂ビルディング６０９,,13,113,1500002,,,,,,,2024-11-25,1,,,,,リンクケアプラス,0
2074,9011101109687,新規,0,2024-11-25,2024-11-25,リンクビレッジ株式会社,,株式会社,東京都,新宿区,新宿５丁目１２番５号アクロス新宿９０３,,13,104,1600022,,,,,,,2024-11-25,1,,,,,リンクビレッジ,0
2075,9011101109695,新規,0,2024-11-25,2024-11-25,株式会社ＢｒａｉｎＶｅｎｔｕｒｅｓＪａｐａｎ,,株式会社,東京都,新宿区,大久保１丁目１５番１８－７０１号,,13,104,1690072,,,,,,,2024-11-25,1,,,,,ブレインヴェンチャースジャパン,0
2082,9011801045208,新規,0,2024-11-25,2024-11-25,豪朗泰株式会社,,株式会社,東京都,葛飾区,柴又３丁目１１番１１号カエデ柴又１０６号室,,13,122,1250052,,,,,,,2024-11-25,1,,,,,ゴウロウタイ,0
2083,9011801045216,新規,0,2024-11-25,2024-11-25,株式会社デミタスコーポレーション,,株式会社,東京都,葛飾区,東金町１丁目４０番４号仁ビル５階,,13,122,1250041,,,,,,,2024-11-25,1,,,,,デミタスコーポレーション,0
2084,9011803006562,新規,0,2024-11-25,2024-11-25,ＳＫサービス合同会社,,合同会社,東京都,足立区,西保木間２丁目１８－２１－１０９,,13,121,1210812,,,,,,,2024-11-25,1,,,,,エスケイサービス,0
2085,9012301014165,新規,0,2024-11-25,2024-11-25,株式会社Ｎ・Ｅ・Ｓ,,株式会社,東京都,町田市,広袴３丁目１番地８５,,13,209,1950056,,,,,,,2024-11-25,1,,,,,エヌイーエス,0
2087,9012703003138,新規,0,2024-11-25,2024-11-25,監理技術舎合同会社,,合同会社,東京都,西東京市,ひばりが丘３丁目５番３号の３０４,,13,229,2020001,,,,,,,2024-11-25,1,,,,,カンリギジュツシャ,0
2090,9013301053426,新規,0,2024-11-25,2024-11-25,株式会社ＡＧＣ,,株式会社,東京都,豊島区,東池袋１丁目３４－５いちご東池袋ビル６Ｆ,,13,116,1700013,,,,,,,2024-11-25,1,,,,,エージーシー,0
2108,9021001083825,新規,0,2024-11-25,2024-11-25,株式会社ＳＳＳ,,株式会社,神奈川県,小田原市,成田８０８番地の１,,14,206,2500862,,,,,,,2024-11-25,1,,,,,エスエスエス,0
2113,9021003015264,新規,0,2024-11-25,2024-11-25,合同会社ＫＡＺＯＯ,,合同会社,神奈川県,相模原市緑区,橋本台１丁目１６番５２号,,14,151,2520132,,,,,,,2024-11-25,1,,,,,,0
2120,9030001163594,新規,0,2024-11-25,2024-11-25,アンビシャスジャパン株式会社,,株式会社,埼玉県,草加市,手代１丁目３１番４０号,,11,221,3400021,,,,,,,2024-11-25,1,,,,,アンビシャスジャパン,0
2121,9030001163611,新規,0,2024-11-25,2024-11-25,株式会社ＲＥＮＯ,,株式会社,埼玉県,越谷市,赤山本町３番地２４ライオンズグローベル越谷ステーションプラザ１２０１号,,11,222,3430808,,,,,,,2024-11-25,1,,,,,レノ,0
2126,9030003025545,新規,0,2024-11-25,2024-11-25,山勝マネジメント合同会社,,合同会社,埼玉県,八潮市,大瀬４丁目２番地１・５０７号,,11,234,3400822,,,,,,,2024-11-25,1,,,,,ヤマカツマネジメント,0
2127,9030005021947,新規,0,2024-11-25,2024-11-25,特定非営利活動法人みんなの学び舎るぴなす,,その他の設立登記法人,埼玉県,秩父市,太田１１０番地,,11,207,3680065,,,,,,,2024-11-25,1,,,,,ミンナノマナビヤルピナス,0
2139,9040003026237,新規,0,2024-11-25,2024-11-25,エスケークリーン合同会社,,合同会社,千葉県,松戸市,常盤平３丁目２番地の１４鶴見ハイツ２０１号,,12,207,2702261,,,,,,,2024-11-25,1,,,,,エスケークリーン,0
2141,9050003008837,新規,0,2024-11-25,2024-11-25,ユナイテッド・クリーン合同会社,,合同会社,茨城県,牛久市,上柏田２丁目３５番地４,,08,219,3001232,,,,,,,2024-11-25,1,,,,,ユナイテッドクリーン,0
2153,9080101025145,新規,0,2024-11-25,2024-11-25,株式会社土肥温泉ＰＦＩソリューションズ,,株式会社,静岡県,伊豆市,土肥６７０番地の２,,22,222,4103302,,,,,,,2024-11-25,1,,,,,トイオンセンピーエフアイソリューションズ,0
2160,9100001038062,新規,0,2024-11-25,2024-11-25,株式会社アイリスライフ,,株式会社,長野県,松本市,大字笹賀４２８５－１－７,,20,202,3990033,,,,,,,2024-11-25,1,,,,,アイリスライフ,0
2163,9100003007874,新規,0,2024-11-25,2024-11-25,幸福亭合同会社,,合同会社,長野県,長野市,青木島町綱島６４０－１１,,20,201,3812206,,,,,,,2024-11-25,1,,,,,コウフクテイ,0
2173,9120001270497,新規,0,2024-11-25,2024-11-25,Ｃａｌｌａｗａｙ株式会社,,株式会社,大阪府,大阪市東成区,深江北３丁目４番２１号エクラ深江橋２１５Ｃ,,27,115,5370001,,,,,,,2024-11-25,1,,,,,カァラァウェィ,0
2174,9120001270522,新規,0,2024-11-25,2024-11-25,Ｍｏｋ．Ｐｈｏｔｏ株式会社,,株式会社,大阪府,大阪市東成区,大今里南５丁目９番１９号,,27,115,5370013,,,,,,,2024-11-25,1,,,,,モックフォト,0
2178,9120101070640,新規,0,2024-11-25,2024-11-25,株式会社ディム,,株式会社,大阪府,松原市,三宅中８丁目２番８号,,27,217,5800046,,,,,,,2024-11-25,1,,,,,ディム,0
2181,9120905006658,新規,0,2024-11-25,2024-11-25,一般社団法人柊,,その他の設立登記法人,大阪府,摂津市,別府２丁目２３番２２－７０１号,,27,224,5660046,,,,,,,2024-11-25,1,,,,,ヒイラギ,0
2182,9130001078386,新規,0,2024-11-25,2024-11-25,株式会社藤井工務店,,株式会社,京都府,京都市山科区,東野南井ノ上町８番地１５,,26,110,6078143,,,,,,,2024-11-25,1,,,,,フジイコウムテン,0
2183,9130001078403,新規,0,2024-11-25,2024-11-25,Ｔｉｇケイアイ株式会社,,株式会社,京都府,京都市南区,上鳥羽高畠町２５番地パデシオン十条３１５号,,26,107,6018101,,,,,,,2024-11-25,1,,,,,ティグケイアイ,0
2184,9130001078411,新規,0,2024-11-25,2024-11-25,株式会社アーキテックホールディングス,,株式会社,京都府,京都市左京区,北白川東瀬ノ内町２５番地２,,26,103,6068254,,,,,,,2024-11-25,1,,,,,アーキテックホールディングス,0
2185,9130003010025,新規,0,2024-11-25,2024-11-25,合同会社すみれ,,合同会社,京都府,久世郡久御山町,市田鈴間１７番地１１,,26,322,6130022,,,,,,,2024-11-25,1,,,,,スミレ,0
2191,9140003021351,新規,0,2024-11-25,2024-11-25,合同会社ＡＳＫ,,合同会社,兵庫県,芦屋市,大桝町６番５－４０２号,,28,206,6590066,,,,,,,2024-11-25,1,,,,,エーエスケー,0
2192,9150001027696,新規,0,2024-11-25,2024-11-25,株式会社ＲＡＩＳＥ,,株式会社,奈良県,大和郡山市,西岡町７－２６,,29,203,6391014,,,,,,,2024-11-25,1,,,,,ライズ,0
2205,9180001164272,新規,0,2024-11-25,2024-11-25,株式会社ＮＥＸＳＴＲ,,株式会社,愛知県,清須市,鍋片３丁目７６番地,,23,233,4520907,,,,,,,2024-11-25,1,,,,,ネクスター,0
2206,9180001164280,新規,0,2024-11-25,2024-11-25,株式会社ｈａｊｉｍｅ,,株式会社,愛知県,名古屋市中村区,竹橋町２８－５シーズンコート名駅西１Ｂ号室,,23,105,4530016,,,,,,,2024-11-25,1,,,,,ハジメ,0
2207,9180001164306,新規,0,2024-11-25,2024-11-25,株式会社Ｐ＆Ｅサイトウ,,株式会社,愛知県,名古屋市緑区,鳴海町字片坂５６番地,,23,114,4580801,,,,,,,2024-11-25,1,,,,,ピーアンドイーサイトウ,0
2208,9180001164330,新規,0,2024-11-25,2024-11-25,株式会社ＢＡＳＥ,,株式会社,愛知県,名古屋市千種区,新西２丁目３番６号,,23,101,4640003,,,,,,,2024-11-25,1,,,,,ベース,0
2212,9180301039265,新規,0,2024-11-25,2024-11-25,株式会社つるまる,,株式会社,愛知県,岡崎市,羽根町字鰻池２４８番地１,,23,202,4440813,,,,,,,2024-11-25,1,,,,,ツルマル,0
2231,9290001107996,新規,0,2024-11-25,2024-11-25,株式会社パーツロジ,,株式会社,福岡県,福岡市博多区,東那珂３丁目２番１２号,00137139,40,132,8120892,,,,,,,2024-11-25,1,,,,,パーツロジ,0
2232,9290001108061,新規,0,2024-11-25,2024-11-25,株式会社エイチソサエティジャパン,,株式会社,福岡県,福岡市中央区,大名１丁目１－２９－１Ｆ,,40,133,8100041,,,,,,,2024-11-25,1,,,,,エイチソサエティジャパン,0
2235,9290003016097,新規,0,2024-11-25,2024-11-25,合同会社Ｂｒｉｓｋ,,合同会社,福岡県,福岡市中央区,大宮２丁目１－２０サザン薬院３Ｆ,,40,133,8100013,,,,,,,2024-11-25,1,,,,,ブリスク,0
2236,9290003016114,新規,0,2024-11-25,2024-11-25,合同会社Ｋ．Ｈ．３,,合同会社,福岡県,福岡市中央区,大名２丁目２番７号大名センタービル６Ｆ,,40,133,8100041,,,,,,,2024-11-25,1,,,,,ケイエイチスリー,0
2237,9290005019560,新規,0,2024-11-25,2024-11-25,一般社団法人日本舌協会,,その他の設立登記法人,福岡県,福岡市城南区,鳥飼６丁目９番２１号,,40,136,8140103,,,,,,,2024-11-25,1,,,,,ニホンゼツキョウカイ,0
2238,9290801031066,新規,0,2024-11-25,2024-11-25,株式会社ラクシープラス,,株式会社,福岡県,北九州市八幡西区,藤原４丁目９番１０号,,40,109,8070873,,,,,,,2024-11-25,1,,,,,ラクシープラス,0
2243,9330003010657,新規,0,2024-11-25,2024-11-25,合同会社あおいとり,,合同会社,熊本県,熊本市南区,富合町志々水１３１番地４ベージャフロール３０３,,43,104,8614163,,,,,,,2024-11-25,1,,,,,アオイトリ,0
2245,9340001026943,新規,0,2024-11-25,2024-11-25,株式会社ＡＭＡＭＩ　ＧＲＥＥＮ　ＬＡＢＥＬ,,株式会社,鹿児島県,奄美市,名瀬港町６番２号,,46,222,8940026,,,,,,,2024-11-25,1,,,,,アマミグリーンラベル,0
2247,9360001034465,新規,0,2024-11-25,2024-11-25,琉球ソフトクリーム株式会社,,株式会社,沖縄県,那覇市,牧志３丁目１－１,,47,201,9000013,,,,,,,2024-11-25,1,,,,,リュウキュウソフトクリーム,0
2249,9360003014481,新規,0,2024-11-25,2024-11-25,合同会社ジェライク,,合同会社,沖縄県,那覇市,牧志２丁目１７番２７－４０１号,,47,201,9000013,,,,,,,2024-11-25,1,,,,,ジェライク,0
2256,9400001016863,新規,0,2024-11-25,2024-11-25,株式会社ＭＨホールディングス,,株式会社,岩手県,九戸郡軽米町,大字上舘第４０地割４番地１,,03,501,0286301,,,,,,,2024-11-25,1,,,,,エムエイチホールディングス,0
2263,9462501001018,新規,0,2024-11-25,2024-11-25,株式会社オーレンス総合経営,,株式会社,北海道,標津郡中標津町,東四条北１丁目２番地７井関ビル２Ｆ,,01,692,0861044,,,,,,,2024-11-25,1,,,,,オーレンスソウゴウケイエイ,0
2264,9490001010908,新規,0,2024-11-25,2024-11-25,株式会社Ｂｒｉｇｈｔｕｒｅ,,株式会社,高知県,高知市,桜井町１丁目３番１２号第一桜井マンション１０１,,39,201,7800821,,,,,,,2024-11-25,1,,,,,ブライチュア,0
2269,9700150127951,新規,0,2024-11-25,2024-11-25,Ｙｉｗｕ　Ｍｅｎ’ｓ　ｇａｎｇ　Ｔｒａｄｅ　Ｃｏ．，Ｌｔｄ,,外国会社等,,,,,,,,Ｒｏｏｍ　２０２，Ｕｎｉｔ　２，３９　Ｂｌｄ，Ｈｏｕｚｈａｎｇ　Ｖｉｌｌａｇｅ，Ｊｉａｎｇｄｏｎｇ　Ｓｔｒｅｅｔ，Ｙｉｗｕ　Ｃｉｔｙ，Ｊｉｎｈｕａ　Ｃｉｔｙ，Ｚｈｅｊｉａｎｇ　Ｐｒｏｖｉｎｃｅ　３２２０００　ＣＮ,,,,,,2024-11-25,1,,,,,イウメンズギャングトレードカンパニーリミテッド,0
