sequenceNumber,corporateNumber,process,correct,updateDate,changeDate,name,nameImageId,kind,prefectureName,cityName,streetNumber,addressImageId,prefectureCode,cityCode,postCode,addressOutside,addressOutsideImageId,closeDate,closeCause,successorCorporateNumber,changeCause,assignmentDate,latest,enName,enPrefectureName,enCityName,enAddressOutside,furigana,hihyoji
29,1010401145813,登記記録の閉鎖等,0,2022-07-11,2022-06-23,株式会社ａｎｃｈｏｒ,,株式会社,東京都,港区,南青山２丁目２番１５号,,13,103,1070062,,,2022-06-23,清算の結了等,,,2019-05-29,1,,,,,アンコール,0
42,1010603009188,登記記録の閉鎖等,0,2022-07-11,2022-06-30,合同会社ｕｌｕｏｌｉ,,合同会社,東京都,墨田区,石原４丁目２２番１号,,13,107,1300011,,,2022-06-30,清算の結了等,,,2021-10-07,1,,,,,ウルオリ,0
55,1011101004821,登記記録の閉鎖等,0,2022-07-11,2022-06-30,株式会社加丸屋商事,,株式会社,東京都,新宿区,西新宿７丁目２１番１号,,13,104,1600023,,,2022-06-30,合併による解散等,1011101006289,令和４年６月３０日東京都新宿区西新宿七丁目２１番１号株式会社兼伸商事（1011101006289）に合併し解散,2015-10-05,1,,,,,カマルヤショウジ,0
68,1011602001144,登記記録の閉鎖等,0,2022-07-11,2022-07-06,有限会社岩渕建工,,有限会社,東京都,練馬区,大泉町１丁目４９番３１号,,13,120,1780062,,,2022-07-06,清算の結了等,,,2015-10-05,1,,,,,イワブチケンコウ,0
89,1020001101901,登記記録の閉鎖等,0,2022-07-11,2022-07-04,株式会社ｐａｎａｃｅａ,,株式会社,東京都,荒川区,東尾久２丁目２３番１９号,,13,118,1160012,,,2022-07-04,清算の結了等,,,2015-10-05,1,,,,,パナシア,0
103,1020002046410,登記記録の閉鎖等,0,2022-07-11,2022-07-01,有限会社信城工業,,有限会社,神奈川県,横浜市瀬谷区,阿久和西４丁目２番地２,,14,114,2460025,,,2022-07-01,清算の結了等,,,2015-10-05,1,,,,,シンキコウギョウ,0
125,1030002123877,登記記録の閉鎖等,0,2022-07-11,2022-06-29,有限会社荒井土地,,有限会社,埼玉県,比企郡滑川町,大字羽尾３７１番地２,,11,341,3550811,,,2022-06-29,清算の結了等,,,2016-01-15,1,,,,,アライトチ,0
132,1040001021271,登記記録の閉鎖等,0,2022-07-11,2022-06-30,弥生工機株式会社,,株式会社,千葉県,八千代市,大字村上１１１３番地１．２街区３４棟５０８号,,12,221,2760000,,,2022-06-30,清算の結了等,,,2015-10-05,1,,,,,ヤヨイコウキ,0
133,1040001023730,登記記録の閉鎖等,0,2022-07-11,2022-07-04,株式会社ＰＭ－ＮＥＴ,,株式会社,千葉県,船橋市,田喜野井６丁目１４番２号,,12,204,2740073,,,2022-07-04,清算の結了等,,,2015-10-05,1,,,,,ピーエムネット,0
146,1040002060847,登記記録の閉鎖等,0,2022-07-11,2022-07-04,有限会社清水商店,,有限会社,千葉県,佐倉市,中志津４丁目１番２２号,,12,212,2850843,,,2022-07-04,清算の結了等,,,2015-10-05,1,,,,,,0
147,1040002081224,登記記録の閉鎖等,0,2022-07-11,2022-06-30,有限会社スマイル,,有限会社,千葉県,長生郡長南町,笠森１２６番地,,12,427,2970125,,,2022-06-30,清算の結了等,,,2015-10-05,1,,,,,スマイル,0
219,1140002039815,登記記録の閉鎖等,0,2022-07-11,2022-07-04,有限会社コスメコレクション,,有限会社,兵庫県,尼崎市,神田中通３丁目５８番地の２,,28,202,6600884,,,2022-07-04,清算の結了等,,,2015-10-05,1,,,,,コスメコレクション,0
256,1200002027978,登記記録の閉鎖等,0,2022-07-11,2022-07-06,マサキ電機有限会社,,有限会社,岐阜県,郡上市,八幡町市島１６５１番地,,21,219,5014202,,,2022-07-06,清算の結了等,,,2015-10-05,1,,,,,,0
257,1210001010091,登記記録の閉鎖等,0,2022-07-11,2022-07-01,パル・キョーワ株式会社,,株式会社,福井県,勝山市,元町１丁目１番２０号,,18,206,9110804,,,2022-07-01,清算の結了等,,,2015-10-05,1,,,,,パルキョーワ,0
266,1240001053823,登記記録の閉鎖等,0,2022-07-11,2022-07-04,株式会社ＲＡＩＴＥＮ　Ｊａｐａｎ,,株式会社,広島県,広島市東区,光町２丁目８番３－２０６号,,34,102,7320052,,,2022-07-04,清算の結了等,,,2019-01-18,1,,,,,ライテンジャパン,0
277,1260005003302,登記記録の閉鎖等,0,2022-07-11,2022-07-05,岡山県児島エルピーガス保安事業協同組合,,その他の設立登記法人,岡山県,倉敷市,児島駅前１丁目７６番地,,33,202,7110921,,,2022-07-05,清算の結了等,,,2015-10-05,1,,,,,オカヤマケンコジマエルピーガスホアンジギョウ,0
294,1320001002672,登記記録の閉鎖等,0,2022-07-11,2022-07-01,株式会社ＯＢＳメディアワーク,,株式会社,大分県,大分市,今津留３丁目１番１号,,44,201,8700938,,,2022-07-01,合併による解散等,1320001000718,令和４年７月１日大分市新栄町３番４号株式会社ＯＢＳメディア２１（1320001000718）に合併し解散,2015-10-05,1,,,,,オービーエスメディアワーク,0
308,1360003010117,登記記録の閉鎖等,0,2022-07-11,2022-06-29,合同会社琉鳳,,合同会社,沖縄県,浦添市,宮城１丁目３２番２号,,47,208,9012126,,,2022-06-29,清算の結了等,,,2020-03-05,1,,,,,リュウホウ,0
323,1430002045841,登記記録の閉鎖等,0,2022-07-11,2022-06-28,有限会社手づくりハウス,,有限会社,北海道,江別市,文京台東町１０番地の１４,,01,217,0690834,,,2022-06-28,清算の結了等,,,2022-05-11,1,,,,,テヅクリハウス,0
329,1470001008044,登記記録の閉鎖等,0,2022-07-11,2022-07-01,ダイコクバッグ株式会社,,株式会社,愛媛県,四国中央市,中曽根町１５９３番地,,38,213,7990413,,,2022-07-01,合併による解散等,4500001014696,令和４年７月１日愛媛県四国中央市妻鳥町８４９番地の１大黒美術紙工株式会社（4500001014696）に合併し解散,2015-10-05,1,,,,,ダイコクバッグ,0
330,1470001008861,登記記録の閉鎖等,0,2022-07-11,2022-07-05,株式会社植野甚五郎商店,,株式会社,香川県,坂出市,谷町１丁目１番２８号,,37,203,7620033,,,2022-07-05,清算の結了等,,,2015-10-05,1,,,,,ウエノジンゴロウショウテン,0
332,1470005002134,登記記録の閉鎖等,0,2022-07-11,2022-07-05,三木町雇用管理改善協同組合,,その他の設立登記法人,香川県,木田郡三木町,大字鹿伏２２０番地５,,37,341,7610703,,,2022-07-05,清算の結了等,,,2015-10-05,1,,,,,ミキチョウコヨウカンリカイゼン,0
341,2010001062012,登記記録の閉鎖等,0,2022-07-11,2022-06-29,日本経営コンサルタント株式会社,,株式会社,東京都,中央区,築地６丁目４番５号－８０１号室,,13,102,1040045,,,2022-06-29,合併による解散等,4010001096033,令和４年６月２９日東京都中央区築地６－４－５－８０１商人ねっと株式会社（4010001096033）に合併し解散,2015-10-05,1,,,,,ニホンケイエイコンサルタント,0
345,2010001118920,登記記録の閉鎖等,0,2022-07-11,2022-06-28,東京ウィルファーマ株式会社,,株式会社,東京都,渋谷区,千駄ヶ谷４丁目９番３号,,13,113,1510051,,,2022-06-28,清算の結了等,,,2015-10-05,1,,,,,トウキョウウィルファーマ,0
353,2010001175549,登記記録の閉鎖等,0,2022-07-11,2022-06-30,宮城電力株式会社,,株式会社,宮城県,仙台市青葉区,中央４丁目１０－３仙台キャピタルタワー２Ｆ,,04,101,9800021,,,2022-06-30,清算の結了等,,,2016-05-12,1,,,,,,0
354,2010001198319,登記記録の閉鎖等,0,2022-07-11,2022-06-30,Ｍ＆Ａコンサルティング株式会社,,株式会社,東京都,千代田区,神田須田町２丁目６番地２,,13,101,1010041,,,2022-06-30,清算の結了等,,,2019-02-07,1,,,,,エムアンドエーコンサルティング,0
355,2010001208498,登記記録の閉鎖等,0,2022-07-11,2022-06-30,株式会社最後の研修,,株式会社,東京都,中央区,日本橋本町３丁目３－６ワカ末ビル７階,,13,102,1030023,,,2022-06-30,清算の結了等,,,2020-03-24,1,,,,,サイゴノケンシュウ,0
361,2010003015439,登記記録の閉鎖等,0,2022-07-11,2022-06-30,つばきキャピタル合同会社,,合同会社,東京都,千代田区,内幸町２丁目１番６号,,13,101,1000011,,,2022-06-30,清算の結了等,,,2015-10-05,1,,,,,ツバキキャピタル,0
365,2010005013341,登記記録の閉鎖等,0,2022-07-11,2022-07-01,新創パートナーズ税理士法人,,その他の設立登記法人,東京都,中央区,銀座７丁目１４番１３号,,13,102,1040061,,,2022-07-01,合併による解散等,5010005007415,令和４年７月１日東京都中央区銀座七丁目１４番１３号銀座Ｋ．Ｔ．Ｃ税理士法人（5010005007415）に合併し解散,2015-10-05,1,,,,,シンソウパートナーズ,0
373,2010401143031,登記記録の閉鎖等,0,2022-07-11,2022-06-23,ＴＮＫ－ＲｅｂｉｒＴＨ株式会社,,株式会社,東京都,港区,三田３丁目１番７号,,13,103,1080073,,,2022-06-23,清算の結了等,,,2019-01-10,1,,,,,ティーエヌケーリバース,0
381,2010501038296,登記記録の閉鎖等,0,2022-07-11,2022-07-06,株式会社直裕,,株式会社,東京都,江戸川区,東葛西６丁目２３番１６号ライオンズマンション葛西２０１号,,13,123,1340084,,,2022-07-06,清算の結了等,,,2015-10-05,1,,,,,ナオヒロ,0
385,2010502011962,登記記録の閉鎖等,0,2022-07-11,2022-07-07,有限会社ユニーク・サービス,,有限会社,東京都,台東区,蔵前２丁目１２番８号,,13,106,1110051,,,2022-07-07,清算の結了等,,,2015-10-05,1,,,,,ユニークサービス,0
387,2010601055373,登記記録の閉鎖等,0,2022-07-11,2022-07-01,株式会社カムイ,,株式会社,東京都,墨田区,石原４丁目３６番４－２０２号プティアムス石原,,13,107,1300011,,,2022-07-01,清算の結了等,,,2019-04-22,1,,,,,カムイ,0
403,2011001101239,登記記録の閉鎖等,0,2022-07-11,2022-06-30,ＮＤＰ　Ｍｅｄｉａ株式会社,,株式会社,東京都,中央区,日本橋浜町２丁目５５番７号,,13,102,1030007,,,2022-06-30,清算の結了等,,,2015-10-05,1,,,,,エヌディーピーメディア,0
416,2011201009488,登記記録の閉鎖等,0,2022-07-11,2022-06-30,知人館株式会社,,株式会社,東京都,中野区,江古田１丁目２０番３号,,13,114,1650022,,,2022-06-30,清算の結了等,,,2015-10-05,1,,,,,チジンカン,0
431,2011803003129,登記記録の閉鎖等,0,2022-07-11,2022-07-07,グローネットソリューション合同会社,,合同会社,東京都,足立区,谷中１丁目２１番８－３０４号ハイホーム綾瀬,,13,121,1200006,,,2022-07-07,清算の結了等,,,2017-12-18,1,GlowNet Solution LLC,Tokyo,"No.304, 21-8 Yanaka 1 chome, Adachi ku",,グローネットソリューション,0
450,2021001017566,登記記録の閉鎖等,0,2022-07-11,2022-07-01,株式会社デ・アエルホーム,,株式会社,神奈川県,相模原市中央区,横山台２丁目５番１号門倉センタービル３階,,14,152,2520241,,,2022-07-01,清算の結了等,,,2015-10-05,1,,,,,デアエルホーム,0
467,2030002034958,登記記録の閉鎖等,0,2022-07-11,2022-06-27,有限会社奥田屋,,有限会社,埼玉県,入間市,鍵山３丁目４番５号,,11,225,3580004,,,2022-06-27,清算の結了等,,,2015-10-05,1,,,,,オクダヤ,0
476,2030005005535,登記記録の閉鎖等,0,2022-07-11,2022-06-29,ＮＰＯ法人埼玉よりどころねっと,,その他の設立登記法人,埼玉県,さいたま市西区,大字高木１８５番地２９,,11,101,3310071,,,2022-06-29,清算の結了等,,,2015-10-05,1,,,,,サイタマヨリドコロネット,0
488,2040002037290,登記記録の閉鎖等,0,2022-07-11,2022-07-04,有限会社ワイアンドエフ,,有限会社,千葉県,市川市,真間２丁目２２番５号,,12,203,2720826,,,2022-07-04,清算の結了等,,,2015-10-05,1,,,,,ワイアンドエフ,0
495,2050001020412,登記記録の閉鎖等,0,2022-07-11,2022-06-29,アクツ自動車工業株式会社,,株式会社,茨城県,神栖市,知手２９５０番地３３,,08,232,3140115,,,2022-06-29,清算の結了等,,,2015-10-05,1,,,,,アクツジドウシャコウギョウ,0
498,2060001022738,登記記録の閉鎖等,0,2022-07-11,2022-07-01,株式会社螢の杜しらさぎ,,株式会社,栃木県,河内郡上三川町,しらさぎ１丁目４５番８号,,09,301,3290618,,,2022-07-01,清算の結了等,,,2015-10-05,1,,,,,ホタルノモリシラサギ,0
504,2070005005143,登記記録の閉鎖等,0,2022-07-11,2022-06-28,学校法人常広寺学園,,その他の設立登記法人,群馬県,桐生市,新里町山上２９２番地１,,10,203,3760125,,,2022-06-28,清算の結了等,,,2015-10-05,1,,,,,ジョウコウジガクエン,0
520,2110005001988,登記記録の閉鎖等,0,2022-07-11,2022-07-01,新津酒販協同組合,,その他の設立登記法人,新潟県,新潟市秋葉区,新津本町２丁目１８番３０号,,15,105,9560864,,,2022-07-01,清算の結了等,,,2015-10-05,1,,,,,ニイツシュハン,0
533,2120003014561,登記記録の閉鎖等,0,2022-07-11,2022-07-04,ＰＳＳＮ合同会社,,合同会社,大阪府,大阪市淀川区,西中島３丁目８番１５－６０１号,,27,123,5320011,,,2022-07-04,清算の結了等,,,2018-08-03,1,,,,,ピーエスエスエヌ,0
548,2120903003564,登記記録の閉鎖等,0,2022-07-11,2022-07-06,合同会社ＤＴＡ,,合同会社,大阪府,豊中市,千里園２丁目８番５３号,,27,203,5600046,,,2022-07-06,清算の結了等,,,2021-03-16,1,,,,,ディーティーエー,0
554,2140001001295,登記記録の閉鎖等,0,2022-07-11,2022-07-04,株式会社カミムラ,,株式会社,兵庫県,神戸市東灘区,田中町３丁目１４番８号,,28,101,6580081,,,2022-07-04,清算の結了等,,,2015-10-05,1,,,,,カミムラ,0
575,2150001016788,登記記録の閉鎖等,0,2022-07-11,2022-07-04,株式会社こもりく,,株式会社,奈良県,桜井市,大字初瀬９８９番地の１,,29,206,6330112,,,2022-07-04,清算の結了等,,,2015-10-05,1,,,,,コモリク,0
580,2180001005565,登記記録の閉鎖等,0,2022-07-11,2022-07-01,株式会社トーアミューズ,,株式会社,愛知県,名古屋市昭和区,安田通７丁目１２番地,,23,107,4660857,,,2022-07-01,合併による解散等,1180001102033,令和４年７月１日名古屋市昭和区安田通七丁目１２番地東亜観光株式会社（1180001102033）に合併し解散,2015-10-05,1,,,,,トーアミューズ,0
583,2180001101629,登記記録の閉鎖等,0,2022-07-11,2022-07-04,株式会社トリコ,,株式会社,愛知県,日進市,折戸町梨子ノ木２８番地９５,,23,230,4700115,,,2022-07-04,清算の結了等,,,2015-10-05,1,,,,,トリコ,0
596,2180002071318,登記記録の閉鎖等,0,2022-07-11,2022-07-04,有限会社美久登利,,有限会社,愛知県,小牧市,村中新町１０番地,,23,219,4850083,,,2022-07-04,清算の結了等,,,2015-10-05,1,,,,,ビクトリー,0
603,2190001001555,登記記録の閉鎖等,0,2022-07-11,2022-07-01,ユタカフーズ株式会社,,株式会社,三重県,津市,河芸町影重２８６６番地の１,,24,201,5100307,,,2022-07-01,清算の結了等,,,2015-10-05,1,,,,,ユタカフーズ,0
625,2240002000501,登記記録の閉鎖等,0,2022-07-11,2022-07-05,安芸保温有限会社,,有限会社,広島県,広島市安佐南区,長束３丁目５番１－１０号,,34,105,7310135,,,2022-07-05,清算の結了等,,,2015-10-05,1,,,,,アキホオン,0
628,2260001005433,登記記録の閉鎖等,0,2022-07-11,2022-07-06,株式会社パネルビジネス岡山,,株式会社,岡山県,岡山市北区,富田３４４番地の４,,33,101,7000936,,,2022-07-06,清算の結了等,,,2015-10-05,1,,,,,パネルビジネスオカヤマ,0
639,2290002028001,登記記録の閉鎖等,0,2022-07-11,2022-07-01,敷島テクノ建設有限会社,,有限会社,福岡県,福岡市東区,原田２丁目１７番３５号,,40,131,8120063,,,2022-07-01,清算の結了等,,,2015-10-05,1,,,,,シキシマテクノケンセツ,0
643,2290801013442,登記記録の閉鎖等,0,2022-07-11,2022-07-05,株式会社ハヤテック,,株式会社,福岡県,北九州市八幡西区,浅川２丁目２０番１－２０３号,,40,109,8070872,,,2022-07-05,清算の結了等,,,2015-10-05,1,,,,,ハヤテック,0
665,2340002014598,登記記録の閉鎖等,0,2022-07-11,2022-06-30,大口生コンクリート有限会社,,有限会社,鹿児島県,伊佐市,大口里８４８番地１,,46,224,8952511,,,2022-06-30,合併による解散等,8340001022951,令和４年６月３０日鹿児島県伊佐市大口里８４８番地１株式会社ハヤシエネルギーシステム（8340001022951）に合併し解散,2015-10-05,1,,,,,オオクチナマコンクリート,0
672,2350002000993,登記記録の閉鎖等,0,2022-07-11,2022-07-07,有限会社カイノ商会,,有限会社,宮崎県,宮崎市,大工２丁目１６１番地１,,45,201,8800015,,,2022-07-07,清算の結了等,,,2015-10-05,1,,,,,カイノショウカイ,0
686,2370103000585,登記記録の閉鎖等,0,2022-07-11,2022-06-29,合資会社森庄化粧品店,,合資会社,宮城県,白石市,字本町１０４番地の５,,04,206,9890275,,,2022-06-29,清算の結了等,,,2015-10-05,1,,,,,モリショウケショウヒンテン,0
691,2410002003560,登記記録の閉鎖等,0,2022-07-11,2022-06-30,有限会社マルヤスジュータンクリーニング,,有限会社,秋田県,秋田市,港北新町３番７号,,05,201,0110927,,,2022-06-30,清算の結了等,,,2015-10-05,1,,,,,マルヤスジュータンクリーニング,0
703,3010001046740,登記記録の閉鎖等,0,2022-07-11,2022-06-30,ジーシーアイ・サンパブ株式会社,,株式会社,東京都,中央区,築地７丁目７番８号,,13,102,1040045,,,2022-06-30,清算の結了等,,,2015-10-05,1,,,,,ジーシーアイサンパブ,0
709,3010001128695,登記記録の閉鎖等,0,2022-07-11,2022-07-07,株式会社オウル,,株式会社,東京都,渋谷区,恵比寿西２丁目２番９号,,13,113,1500021,,,2022-07-07,清算の結了等,,,2015-10-05,1,,,,,,0
710,3010001146219,登記記録の閉鎖等,0,2022-07-11,2022-06-29,株式会社ホーム・リプロ,,株式会社,東京都,千代田区,神田錦町３丁目２１,,13,101,1010054,,,2022-06-29,清算の結了等,,,2015-10-05,1,,,,,ホームリプロ,0
749,3011001126433,登記記録の閉鎖等,0,2022-07-11,2022-06-30,株式会社ひまわり,,株式会社,東京都,目黒区,碑文谷２丁目９番１５号,,13,110,1520003,,,2022-06-30,清算の結了等,,,2019-02-06,1,,,,,ヒマワリ,0
758,3011102024916,登記記録の閉鎖等,0,2022-07-11,2022-07-01,有限会社東京スポット,,有限会社,東京都,中野区,東中野５丁目２５番６－１０８号,,13,114,1640003,,,2022-07-01,清算の結了等,,,2015-10-05,1,,,,,,0
795,3020002098458,登記記録の閉鎖等,0,2022-07-11,2022-07-01,有限会社日和製作所,,有限会社,神奈川県,川崎市川崎区,小田５丁目１７番５号,,14,131,2100846,,,2022-07-01,清算の結了等,,,2015-10-05,1,,,,,ニチワセイサクショ,0
804,3030001003871,登記記録の閉鎖等,0,2022-07-11,2022-06-30,新成電設株式会社,,株式会社,埼玉県,さいたま市浦和区,高砂２丁目１４番１７号,,11,107,3300063,,,2022-06-30,清算の結了等,,,2015-10-05,1,,,,,,0
823,3030002053049,登記記録の閉鎖等,0,2022-07-11,2022-06-30,アイ・テックス有限会社,,有限会社,埼玉県,上尾市,大字瓦葺２４３９番地２,,11,219,3620022,,,2022-06-30,清算の結了等,,,2015-10-05,1,,,,,アイテックス,0
826,3030002103547,登記記録の閉鎖等,0,2022-07-11,2022-06-30,有限会社篠崎工務店,,有限会社,埼玉県,川口市,前川４丁目８番６号,,11,203,3330842,,,2022-06-30,清算の結了等,,,2015-10-05,1,,,,,シノザキコウムテン,0
834,3040001009703,登記記録の閉鎖等,0,2022-07-11,2022-06-30,株式会社ミッドリーム,,株式会社,千葉県,千葉市稲毛区,長沼町１７３番地の８４,,12,103,2630005,,,2022-06-30,清算の結了等,,,2015-10-05,1,,,,,ミッドリーム,0
842,3040002078350,登記記録の閉鎖等,0,2022-07-11,2022-06-30,有限会社市東製作所,,有限会社,千葉県,大網白里市,北今泉３４８５番地２,,12,239,2993201,,,2022-06-30,清算の結了等,,,2015-10-05,1,,,,,シトウセイサクジョ,0
854,3060001027199,登記記録の閉鎖等,0,2022-07-11,2022-06-30,株式会社ＡＴライン,,株式会社,栃木県,宇都宮市,下荒針町３４７３番地５３,,09,201,3210346,,,2022-06-30,清算の結了等,,,2015-10-05,1,,,,,,0
859,3070001005179,登記記録の閉鎖等,0,2022-07-11,2022-06-27,株式会社伝次平プロジェクト,,株式会社,群馬県,前橋市,富士見町原之郷１５４３番地,,10,201,3710116,,,2022-06-27,清算の結了等,,,2015-10-05,1,,,,,デンジベイプロジェクト,0
890,3120101004819,登記記録の閉鎖等,0,2022-07-11,2022-07-01,株式会社デジタルシステム,,株式会社,大阪府,堺市堺区,南三国ヶ丘町６丁３番８号２,,27,141,5900023,,,2022-07-01,合併による解散等,1120101027796,令和４年７月１日大阪府堺市堺区南三国ヶ丘町六丁３番８号株式会社ネオシステム（1120101027796）に合併し解散,2015-10-05,1,,,,,デジタルシステム,0
905,3140001063995,登記記録の閉鎖等,0,2022-07-11,2022-07-01,フジテクノ株式会社,,株式会社,兵庫県,姫路市,相野３７４番地３,,28,201,6712232,,,2022-07-01,合併による解散等,1140002051704,令和４年７月１日兵庫県姫路市相野３７４番地３株式会社山栄産業（1140002051704）に合併し解散,2015-10-05,1,,,,,フジテクノ,0
916,3140002002787,登記記録の閉鎖等,0,2022-07-11,2022-06-30,有限会社歩,,有限会社,兵庫県,神戸市灘区,深田町１丁目１番１１－４０３号,,28,102,6570038,,,2022-06-30,清算の結了等,,,2015-10-05,1,,,,,アユミ,0
937,3180002005506,登記記録の閉鎖等,0,2022-07-11,2022-07-05,有限会社山田ネオン工業所,,有限会社,愛知県,名古屋市千種区,春岡２丁目１７番１６号,,23,101,4640848,,,2022-07-05,清算の結了等,,,2015-10-05,1,,,,,ヤマダネオンコウギョウショ,0
973,3290002002500,登記記録の閉鎖等,0,2022-07-11,2022-07-01,有限会社スパジオ建築設計,,有限会社,福岡県,福岡市南区,野多目１丁目８番２－４０５号,,40,134,8111347,,,2022-07-01,清算の結了等,,,2015-10-05,1,,,,,スパジオケンチクセッケイ,0
991,3300002010955,登記記録の閉鎖等,0,2022-07-11,2022-07-01,唐津輸送有限会社,,有限会社,佐賀県,唐津市,海岸通７１８２番地２７４,,41,202,8470873,,,2022-07-01,清算の結了等,,,2015-10-05,1,,,,,カラツユソウ,0
998,3330001007512,登記記録の閉鎖等,0,2022-07-11,2022-07-07,エフ・シー株式会社,,株式会社,熊本県,熊本市北区,麻生田１丁目５番１号,,43,105,8618081,,,2022-07-07,合併による解散等,2330001007034,令和４年７月７日熊本市東区保田窪本町４番５７号株式会社白川リゾート（2330001007034）に合併し解散,2015-10-05,1,,,,,エフシー,0
1039,4010001058801,登記記録の閉鎖等,0,2022-07-11,2022-06-30,株式会社メイツ,,株式会社,東京都,中央区,銀座７丁目１０８番地先所在,,13,102,1040061,,,2022-06-30,清算の結了等,,,2015-10-05,1,,,,,メイツ,0
1048,4010001198473,登記記録の閉鎖等,0,2022-07-11,2022-06-29,ＧＯＬＦ　ＫＩＮＧ株式会社,,株式会社,東京都,中央区,銀座７丁目１５－５共同ビル銀座７丁目地下１０４,,13,102,1040061,,,2022-06-29,清算の結了等,,,2019-02-13,1,,,,,ゴルフキング,0
1069,4010501043864,登記記録の閉鎖等,0,2022-07-11,2022-07-07,展邑株式会社,,株式会社,東京都,台東区,東上野２丁目４番１号,,13,106,1100015,,,2022-07-07,清算の結了等,,,2019-03-20,1,,,,,テンユウ,0
1073,4010701020837,登記記録の閉鎖等,0,2022-07-11,2022-07-01,和光電器株式会社,,株式会社,東京都,品川区,荏原１丁目２１番１０号,,13,109,1420063,,,2022-07-01,清算の結了等,,,2015-10-05,1,,,,,ワコウデンキ,0
1076,4010702003097,登記記録の閉鎖等,0,2022-07-11,2022-07-06,有限会社小林寝具店,,有限会社,東京都,品川区,大井４丁目２５番４１号,,13,109,1400014,,,2022-07-06,清算の結了等,,,2015-10-05,1,,,,,コバヤシシングテン,0
1077,4010801008633,登記記録の閉鎖等,0,2022-07-11,2022-07-01,株式会社ナイス・カンパニー,,株式会社,東京都,大田区,中央８丁目１１番１０号,,13,111,1430024,,,2022-07-01,清算の結了等,,,2015-10-05,1,,,,,ナイスカンパニー,0
1085,4010901029174,登記記録の閉鎖等,0,2022-07-11,2022-06-30,メニースマイル株式会社,,株式会社,東京都,目黒区,東が丘２丁目１１番４号,,13,110,1520021,,,2022-06-30,清算の結了等,,,2015-10-05,1,,,,,メニースマイル,0
1102,4011401002828,登記記録の閉鎖等,0,2022-07-11,2022-07-06,株式会社あさひ信栄堂,,株式会社,東京都,板橋区,大原町３６番１０号,,13,119,1740061,,,2022-07-06,清算の結了等,,,2015-10-05,1,,,,,アサヒシンエイドウ,0
1103,4011403002512,登記記録の閉鎖等,0,2022-07-11,2022-07-04,合同会社リボーン,,合同会社,東京都,墨田区,業平１丁目５－１３－Ｄ号室,,13,107,1300002,,,2022-07-04,清算の結了等,,,2018-10-09,1,,,,,リボーン,0
1106,4011501012776,登記記録の閉鎖等,0,2022-07-11,2022-07-05,株式会社ネクストワン,,株式会社,東京都,北区,東十条５丁目１６番１２号,,13,117,1140001,,,2022-07-05,清算の結了等,,,2015-10-05,1,,,,,ネクストワン,0
1109,4011601004707,登記記録の閉鎖等,0,2022-07-11,2022-07-05,東神機械株式会社,,株式会社,東京都,練馬区,練馬３丁目２番８－４０８号,,13,120,1760001,,,2022-07-05,清算の結了等,,,2015-10-05,1,,,,,トウシンキカイ,0
1138,4020002024116,登記記録の閉鎖等,0,2022-07-11,2022-07-01,有限会社大輝工務店,,有限会社,神奈川県,横浜市保土ケ谷区,仏向町６４４番地２,,14,106,2400044,,,2022-07-01,清算の結了等,,,2015-10-05,1,,,,,ダイキコウムテン,0
1171,4030002094372,登記記録の閉鎖等,0,2022-07-11,2022-06-30,有限会社佐藤プラントサービス,,有限会社,埼玉県,比企郡鳩山町,大字小用１２１２番地１０,,11,348,3500323,,,2022-06-30,清算の結了等,,,2015-10-05,1,,,,,サトウプラントサービス,0
1191,4040002080735,登記記録の閉鎖等,0,2022-07-11,2022-06-30,有限会社アブラヤ,,有限会社,千葉県,茂原市,長尾２６９２番地４,,12,210,2970073,,,2022-06-30,清算の結了等,,,2015-10-05,1,,,,,アブラヤ,0
1199,4050002043798,登記記録の閉鎖等,0,2022-07-11,2022-06-29,有限会社日翔運輸,,有限会社,茨城県,筑西市,関本分中４２４番地の３,,08,227,3080125,,,2022-06-29,清算の結了等,,,2015-10-05,1,,,,,ニッショウウンユ,0
1200,4050003004444,登記記録の閉鎖等,0,2022-07-11,2022-06-28,合同会社フォーチュン,,合同会社,茨城県,筑西市,外塚５９９番地,,08,227,3080053,,,2022-06-28,清算の結了等,,,2018-11-30,1,,,,,フォーチュン,0
1217,4100002012681,登記記録の閉鎖等,0,2022-07-11,2022-07-01,有限会社ヒューマンズ,,有限会社,長野県,小諸市,甲３８２番地３,,20,208,3840801,,,2022-07-01,清算の結了等,,,2015-10-05,1,,,,,ヒューマンズ,0
1229,4120101038816,登記記録の閉鎖等,0,2022-07-11,2022-07-06,マルヨシ鐵工株式会社,,株式会社,大阪府,岸和田市,稲葉町８０６番地の３,,27,202,5960103,,,2022-07-06,清算の結了等,,,2015-10-05,1,,,,,マルヨシテッコウ,0
1239,4122001017734,登記記録の閉鎖等,0,2022-07-11,2022-07-01,株式会社井上製縄所,,株式会社,大阪府,八尾市,東本町４丁目２番１６号,,27,212,5810004,,,2022-07-01,清算の結了等,,,2015-10-05,1,,,,,イノウエセイナワショ,0
1248,4140001089503,登記記録の閉鎖等,0,2022-07-11,2022-07-05,株式会社寛永堂,,株式会社,東京都,豊島区,目白３丁目１４番３号,,13,116,1710031,,,2022-07-05,合併による解散等,8140001049981,令和４年６月３０日兵庫県尼崎市金楽寺町一丁目２番５５号千鳥饅頭製菓株式会社（8140001049981）に合併し解散,2015-10-05,1,,,,,カンエイドウ,0
1264,4150002007520,登記記録の閉鎖等,0,2022-07-11,2022-07-05,有限会社サンヨード,,有限会社,奈良県,橿原市,土橋町２５１番地の５,,29,205,6340844,,,2022-07-05,清算の結了等,,,2015-10-05,1,,,,,サンヨード,0
1277,4180001004937,登記記録の閉鎖等,0,2022-07-11,2022-07-05,株式会社ナゴヤパーキングセンター,,株式会社,愛知県,名古屋市千種区,千種２丁目２４番２号,,23,101,4640858,,,2022-07-05,清算の結了等,,,2015-10-05,1,,,,,ナゴヤパーキングセンター,0
1285,4180001118233,登記記録の閉鎖等,0,2022-07-11,2022-07-05,Ｙシステム株式会社,,株式会社,愛知県,名古屋市中川区,八田町１０６番地１,,23,110,4540877,,,2022-07-05,清算の結了等,,,2015-10-05,1,,,,,ワイシステム,0
1319,4260003003235,登記記録の閉鎖等,0,2022-07-11,2022-07-04,美咲エネルギー合同会社,,合同会社,岡山県,久米郡美咲町,打穴西１６０４番地,,33,666,7093707,,,2022-07-04,清算の結了等,,,2020-06-23,1,,,,,ミサキエネルギー,0
1334,4310002006084,登記記録の閉鎖等,0,2022-07-11,2022-07-05,有限会社リバース,,有限会社,長崎県,長崎市,松が枝町３番１６号,,42,201,8500921,,,2022-07-05,清算の結了等,,,2015-10-05,1,,,,,リバース,0
1347,4350001014968,登記記録の閉鎖等,0,2022-07-11,2022-07-04,株式会社フォレストイン,,株式会社,宮崎県,串間市,大字西方４０９９番地２,,45,207,8880001,,,2022-07-04,清算の結了等,,,2017-10-11,1,,,,,フォレストイン,0
1355,4370201000493,登記記録の閉鎖等,0,2022-07-11,2022-06-30,株式会社ヤマト精機,,株式会社,宮城県,大崎市,古川休塚字郷士田１１６番地の１,,04,215,9896255,,,2022-06-30,清算の結了等,,,2015-10-05,1,,,,,,0
1357,4390002010847,登記記録の閉鎖等,0,2022-07-11,2022-07-01,有限会社斎藤ハウジング,,有限会社,山形県,新庄市,小田島町７番１２号,,06,205,9960071,,,2022-07-01,清算の結了等,,,2015-10-05,1,,,,,サイトウハウジング,0
1387,5010001205237,登記記録の閉鎖等,0,2022-07-11,2022-07-01,株式会社Ｔｅｌｅｓｃｏｐｅ　Ｃｏｎｓｕｌｔｉｎｇ,,株式会社,東京都,新宿区,西新宿１丁目４番１１号全研プラザビルＳＰＡＣＥＳ新宿,,13,104,1600023,,,2022-07-01,合併による解散等,7011101098288,令和４年７月１日東京都新宿区西新宿一丁目４番１１号全研プラザビルＳＰＡＣＥＳ新宿株式会社Ｓｍａｒｔ　Ｐｒｏｃｅｓｓ（7011101098288）に合併し解散,2019-11-14,1,,,,,テレスコープコンサルティング,0
1395,5010003018356,登記記録の閉鎖等,0,2022-07-11,2022-06-30,ＰａＲ　Ｓｙｓｔｅｍｓ合同会社,,合同会社,東京都,千代田区,丸の内１丁目８－３丸の内トラストタワー本館２０階,,13,101,1000005,,,2022-06-30,清算の結了等,,,2015-10-05,1,,,,,ピーエーアールシステムズ,0
1400,5010005026316,登記記録の閉鎖等,0,2022-07-11,2022-07-01,ＪＲＰ１０特定目的会社,,その他の設立登記法人,東京都,千代田区,内幸町２丁目１番６号,,13,101,1000011,,,2022-07-01,清算の結了等,,,2017-01-26,1,,,,,ジェイアールピーテン,0
1417,5010501045422,登記記録の閉鎖等,0,2022-07-11,2022-07-07,株式会社Ｆｉｒｓｔ　Ｃｕｔ,,株式会社,東京都,台東区,上野７丁目３番９号,,13,106,1100005,,,2022-07-07,清算の結了等,,,2020-03-09,1,,,,,ファーストカット,0
1421,5010601044357,登記記録の閉鎖等,0,2022-07-11,2022-07-07,株式会社ウェルクス,,株式会社,東京都,台東区,上野３丁目２４番６号,,13,106,1100005,,,2022-07-07,合併による解散等,9120001182305,令和４年７月１日大阪市北区曽根崎二丁目１２番７号株式会社トライトキャリア（9120001182305）に合併し解散,2015-10-05,1,,,,,ウェルクス,0
1465,5011601012163,登記記録の閉鎖等,0,2022-07-11,2022-07-06,イチダ管理サービス株式会社,,株式会社,東京都,練馬区,豊玉北５丁目１番１４号ゴールドコー卜豊玉２０７号室,,13,120,1760012,,,2022-07-06,清算の結了等,,,2015-10-05,1,,,,,イチダカンリサービス,0
1469,5011802009900,登記記録の閉鎖等,0,2022-07-11,2022-07-07,有限会社茨山組,00057353,有限会社,東京都,足立区,北加平町１５番１１号,,13,121,1210056,,,2022-07-07,清算の結了等,,,2015-10-05,1,,,,,,0
1496,5021001023272,登記記録の閉鎖等,0,2022-07-11,2022-07-01,株式会社シャルレ岩田,,株式会社,神奈川県,秦野市,堀川６２４番地,,14,211,2591305,,,2022-07-01,清算の結了等,,,2015-10-05,1,,,,,シャルレイワタ,0
1498,5021002035341,登記記録の閉鎖等,0,2022-07-11,2022-07-01,有限会社長広工務店,,有限会社,神奈川県,伊勢原市,岡崎７０７５番地,,14,214,2591135,,,2022-07-01,清算の結了等,,,2015-10-05,1,,,,,ナガヒロコウムテン,0
1518,5040001065389,登記記録の閉鎖等,0,2022-07-11,2022-07-01,株式会社かねよし吉田商店,,株式会社,千葉県,柏市,今谷上町３５番地の１６,,12,217,2770074,,,2022-07-01,清算の結了等,,,2015-10-05,1,,,,,カネヨシヨシダショウテン,0
1527,5040002086013,登記記録の閉鎖等,0,2022-07-11,2022-06-30,有限会社丸進深井,,有限会社,千葉県,銚子市,四日市場町９０９番地の３,,12,202,2880841,,,2022-06-30,清算の結了等,,,2015-10-05,1,,,,,マルシンフカイ,0
1538,5060002039984,登記記録の閉鎖等,0,2022-07-11,2022-06-30,株式会社テク・シード,,株式会社,栃木県,佐野市,船越町９１５番地２,,09,204,3270305,,,2022-06-30,清算の結了等,,,2015-10-05,1,,,,,テクシード,0
1548,5080102015231,登記記録の閉鎖等,0,2022-07-11,2022-07-07,有限会社望月新聞店,,有限会社,静岡県,富士市,入山瀬２丁目１番１６号,,22,210,4190204,,,2022-07-07,清算の結了等,,,2015-10-05,1,,,,,モチヅキシンブンテン,0
1552,5080401021772,登記記録の閉鎖等,0,2022-07-11,2022-07-06,浜名レーザー株式会社,,株式会社,静岡県,浜松市西区,呉松町１９５５番地１,,22,133,4311202,,,2022-07-06,合併による解散等,7180002071288,令和４年７月１日愛知県春日井市御幸町一丁目５番地１１ＤＳＩハマレーザー株式会社（7180002071288）に合併し解散,2016-10-12,1,,,,,,0
1574,5120105004516,登記記録の閉鎖等,0,2022-07-11,2022-07-01,特定非営利活動法人大阪名物交通安全おじさん,,その他の設立登記法人,大阪府,堺市南区,高尾３丁２２６番地９,,27,145,5900157,,,2022-07-01,清算の結了等,,,2015-10-05,1,,,,,オオサカメイブツコウツウアンゼンオジサン,0
1592,5130002029540,登記記録の閉鎖等,0,2022-07-11,2022-06-23,光陽観光有限会社,,有限会社,京都府,宇治市,槇島町一ノ坪３９番地の１,,26,204,6110041,,,2022-06-23,合併による解散等,5130001058870,令和４年６月２３日京都府宇治市槇島町一ノ坪３９番地の１Ｐ．Ｓ．Ｕナイス株式会社（5130001058870）に合併し解散,2015-10-05,1,,,,,コウヨウカンコウ,0
1604,5140002059025,登記記録の閉鎖等,0,2022-07-11,2022-07-01,有限会社サーブ,,有限会社,兵庫県,西宮市,高松町７番７号,,28,204,6638204,,,2022-07-01,合併による解散等,3140001126117,令和４年７月１日兵庫県西宮市馬場町６番２０－１００４号株式会社エイビス（3140001126117）に合併し解散,2015-10-05,1,,,,,サーブ,0
1618,5180002001560,登記記録の閉鎖等,0,2022-07-11,2022-07-05,有限会社ミヤタシステムズ,,有限会社,愛知県,名古屋市守山区,天子田２丁目１２１８番地,,23,113,4630037,,,2022-07-05,清算の結了等,,,2015-10-05,1,,,,,ミヤタシステムズ,0
1621,5180002073138,登記記録の閉鎖等,0,2022-07-11,2022-07-04,有限会社田辺,,有限会社,愛知県,尾張旭市,北原山町鳴湫１７２６番地の１,,23,226,4880064,,,2022-07-04,清算の結了等,,,2015-10-05,1,,,,,タナベ,0
1627,5190001010181,登記記録の閉鎖等,0,2022-07-11,2022-06-30,株式会社北出商店,,株式会社,三重県,松阪市,宮町１４１番地の８,,24,204,5150015,,,2022-06-30,清算の結了等,,,2015-10-05,1,,,,,キタデショウテン,0
1629,5190002002244,登記記録の閉鎖等,0,2022-07-11,2022-07-01,有限会社うちやま酒店,,有限会社,三重県,津市,河芸町中瀬２８７番地の１,,24,201,5100308,,,2022-07-01,清算の結了等,,,2015-10-05,1,,,,,ウチヤマサケテン,0
1635,5210001017463,登記記録の閉鎖等,0,2022-07-11,2022-07-01,株式会社知博,,株式会社,福井県,福井市,豊島２丁目１番１号エル・ブラン５０６号室,,18,201,9100857,,,2022-07-01,清算の結了等,,,2019-03-14,1,,,,,チヒロ,0
1652,5290001083705,登記記録の閉鎖等,0,2022-07-11,2022-07-01,株式会社ミヤヒロ,,株式会社,福岡県,太宰府市,大佐野３丁目１４番１号,,40,221,8180134,,,2022-07-01,合併による解散等,5290002040283,令和４年７月１日福岡県太宰府市大佐野三丁目１４番１号株式会社みやはら不動産（5290002040283）に合併し解散,2018-12-20,1,,,,,ミヤヒロ,0
1655,5290002033485,登記記録の閉鎖等,0,2022-07-11,2022-07-01,有限会社エリナー,,有限会社,福岡県,福岡市中央区,薬院２丁目１７番２９号,,40,133,8100022,,,2022-07-01,清算の結了等,,,2015-10-05,1,,,,,エリナー,0
1667,5340001009836,登記記録の閉鎖等,0,2022-07-11,2022-07-06,株式会社Ｓｏｌａｒｅ　Ｔａｎｅｇａｓｈｉｍａ,,株式会社,鹿児島県,西之表市,安城１４０番地２,,46,213,8913432,,,2022-07-06,清算の結了等,,,2015-10-05,1,,,,,ソラーレタネガシマ,0
1686,5420001013821,登記記録の閉鎖等,0,2022-07-11,2022-07-01,株式会社ＧＭＫ,,株式会社,青森県,八戸市,大字鷹匠小路１８番地,,02,203,0310034,,,2022-07-01,合併による解散等,5420001005835,令和４年７月１日青森県八戸市大字鷹匠小路１８番地株式会社金剛（5420001005835）に合併し解散,2015-10-05,1,,,,,ジーエムケー,0
1699,5450002003554,登記記録の閉鎖等,0,2022-07-11,2022-07-08,有限会社谷口,,有限会社,北海道,旭川市,川端町四条８丁目２番１３号,,01,204,0700814,,,2022-07-08,清算の結了等,,,2015-10-05,1,,,,,タニグチ,0
1701,5450002008165,登記記録の閉鎖等,0,2022-07-11,2022-07-06,有限会社Ｆ．Ｔ．Ｃ,,有限会社,北海道,旭川市,豊岡六条４丁目３番１４号,,01,204,0788236,,,2022-07-06,清算の結了等,,,2015-10-05,1,,,,,エフティシー,0
1711,6010001026995,登記記録の閉鎖等,0,2022-07-11,2022-06-30,日立建設株式会社,,株式会社,東京都,千代田区,五番町４番地,,13,101,1020076,,,2022-06-30,清算の結了等,,,2015-10-05,1,,,,,ヒタチケンセツ,0
1719,6010001142867,登記記録の閉鎖等,0,2022-07-11,2022-07-01,フリーワールド株式会社,,株式会社,東京都,中央区,日本橋蛎殻町１丁目２４番４号井川ビル３Ｆ,,13,102,1030014,,,2022-07-01,合併による解散等,3010001107113,令和４年７月１日東京都中央区日本橋蛎殻町一丁目２４番４号井川ビル３Ｆフリーサービス株式会社（3010001107113）に合併し解散,2015-10-05,1,,,,,フリーワールド,0
1735,6010401017693,登記記録の閉鎖等,0,2022-07-11,2022-07-01,株式会社千歳ゴルフ倶楽部,,株式会社,千葉県,鴨川市,広場８３４番地２鴨川グランドタワー２５０８,,12,223,2960044,,,2022-07-01,清算の結了等,,,2015-10-05,1,,,,,チトセゴルフクラブ,0
1746,6010405016147,登記記録の閉鎖等,0,2022-07-11,2022-07-01,三芳町プロパティーズ特定目的会社,,その他の設立登記法人,東京都,千代田区,霞が関３丁目２番５号,,13,101,1000013,,,2022-07-01,清算の結了等,,,2017-10-18,1,,,,,ミヨシマチプロパティーズ,0
1753,6010602013657,登記記録の閉鎖等,0,2022-07-11,2022-06-30,有限会社日神,,有限会社,東京都,墨田区,江東橋２丁目２３番５号,,13,107,1300022,,,2022-06-30,清算の結了等,,,2022-06-16,1,,,,,ニッシン,0
1755,6010603009027,登記記録の閉鎖等,0,2022-07-11,2022-07-04,永晶貿易合同会社,,合同会社,東京都,墨田区,立花５丁目１８－５コンフォリア墨田立花３０８,,13,107,1310043,,,2022-07-04,清算の結了等,,,2021-07-05,1,,,,,エイショウボウエキ,0
1757,6010701013707,登記記録の閉鎖等,0,2022-07-11,2022-07-04,株式会社オリエント,,株式会社,東京都,品川区,東五反田４丁目８番１３号山石ビル２０１号,,13,109,1410022,,,2022-07-04,清算の結了等,,,2015-10-05,1,,,,,オリエント,0
1769,6011001115697,登記記録の閉鎖等,0,2022-07-11,2022-06-30,株式会社スクーアットミー,,株式会社,東京都,渋谷区,鶯谷町２－７,,13,113,1500032,,,2022-06-30,清算の結了等,,,2017-04-07,1,,,,,スクーアットミー,0
1786,6011302003650,登記記録の閉鎖等,0,2022-07-11,2022-07-05,有限会社小島屋,,有限会社,東京都,杉並区,阿佐谷北４丁目７番９－４０２号ＭＳマンション阿佐谷,,13,115,1660001,,,2022-07-05,清算の結了等,,,2015-10-05,1,,,,,コジマヤ,0
1796,6011801006369,登記記録の閉鎖等,0,2022-07-11,2022-07-07,株式会社エス・ピー・エー・小野建,,株式会社,東京都,足立区,神明３丁目３０番２３号,,13,121,1210051,,,2022-07-07,清算の結了等,,,2015-10-05,1,,,,,エスピーエーオノケン,0
1802,6012401004069,登記記録の閉鎖等,0,2022-07-11,2022-06-30,株式会社モランボンフーズ,,株式会社,東京都,国立市,東１丁目１番２６号,,13,215,1860002,,,2022-06-30,清算の結了等,,,2015-10-05,1,,,,,モランボンフーズ,0
1815,6020001072171,登記記録の閉鎖等,0,2022-07-11,2022-07-01,株式会社エコグリーン,,株式会社,神奈川県,川崎市川崎区,四谷上町９番２４－６０１号グランフォルム南川崎,,14,131,2100828,,,2022-07-01,清算の結了等,,,2015-10-05,1,,,,,エコグリーン,0
1836,6021001029954,登記記録の閉鎖等,0,2022-07-11,2022-07-06,株式会社ケアプラザ田園,,株式会社,神奈川県,大和市,林間１丁目２０番１５号,,14,213,2420003,,,2022-07-06,合併による解散等,7080001005414,令和４年７月１日静岡県島田市中河７３７番地株式会社ヤマシタ（7080001005414）に合併し解散,2015-10-05,1,,,,,ケアプラザデンエン,0
1840,6030001063459,登記記録の閉鎖等,0,2022-07-11,2022-06-29,株式会社青木堂,,株式会社,埼玉県,越谷市,流通団地３丁目２番地１越谷総合食品地方卸売市場内,,11,222,3430824,,,2022-06-29,清算の結了等,,,2015-10-05,1,,,,,アオキドウ,0
1847,6030002082664,登記記録の閉鎖等,0,2022-07-11,2022-06-29,有限会社埼玉建築設備,,有限会社,埼玉県,鴻巣市,原馬室３３９６番地２,,11,217,3650043,,,2022-06-29,清算の結了等,,,2015-10-05,1,,,,,サイタマケンチクセツビ,0
1854,6040001098165,登記記録の閉鎖等,0,2022-07-11,2022-07-01,株式会社エムティー企画,,株式会社,千葉県,松戸市,日暮１丁目５番地９グリーンプラザ八柱第三７０４号,,12,207,2702253,,,2022-07-01,清算の結了等,,,2016-12-22,1,,,,,エムティーキカク,0
1862,6040002060520,登記記録の閉鎖等,0,2022-07-11,2022-07-01,有限会社髪屋,,有限会社,千葉県,佐倉市,王子台３丁目１０番地６,,12,212,2850837,,,2022-07-01,清算の結了等,,,2015-10-05,1,,,,,カミヤ,0
1864,6050001014014,登記記録の閉鎖等,0,2022-07-11,2022-06-28,株式会社猪瀬電気商会,00022107,株式会社,茨城県,坂東市,沓掛１５４１番地,,08,228,3060515,,,2022-06-28,清算の結了等,,,2015-10-05,1,,,,,イノセデンキショウカイ,0
1866,6050002025274,登記記録の閉鎖等,0,2022-07-11,2022-06-28,有限会社竹内観光バス,,有限会社,茨城県,猿島郡五霞町,原宿台３丁目２３番地５,,08,542,3060306,,,2022-06-28,清算の結了等,,,2015-10-05,1,,,,,タケウチカンコウバス,0
1869,6060001013634,登記記録の閉鎖等,0,2022-07-11,2022-07-01,株式会社ルピナス,,株式会社,栃木県,大田原市,住吉町２丁目１９番７号浅井第一ビル３階,,09,210,3240057,,,2022-07-01,清算の結了等,,,2015-10-05,1,,,,,ルピナス,0
1886,6100001013902,登記記録の閉鎖等,0,2022-07-11,2022-07-01,株式会社ビーエムイー,,株式会社,長野県,松本市,横田１丁目２番５号,,20,202,3900804,,,2022-07-01,合併による解散等,6100001013316,令和４年７月１日長野県松本市本庄二丁目４番１号株式会社十字屋（6100001013316）に合併し解散,2015-10-05,1,,,,,ビーエムイー,0
1925,6140001087050,登記記録の閉鎖等,0,2022-07-11,2022-07-01,株式会社グッドドゥイング,,株式会社,兵庫県,神戸市北区,南五葉２丁目１番３６号,,28,109,6511132,,,2022-07-01,合併による解散等,9140001021691,令和４年７月１日神戸市北区南五葉二丁目１番３２－１号株式会社グッドプランニング（9140001021691）に合併し解散,2015-10-05,1,,,,,グッドドゥイング,0
1950,6180001148955,登記記録の閉鎖等,0,2022-07-11,2022-07-05,伸宏貿易株式会社,,株式会社,愛知県,名古屋市千種区,丘上町２丁目３４番地の４ハイネスビレッジ４０４号,,23,101,4640837,,,2022-07-05,清算の結了等,,,2021-12-10,1,,,,,ノブヒロボウエキ,0
1959,6180301017851,登記記録の閉鎖等,0,2022-07-11,2022-06-29,株式会社イコマ,,株式会社,愛知県,豊田市,御船町大釜５５番地,,23,211,4700371,,,2022-06-29,清算の結了等,,,2015-10-05,1,,,,,イコマ,0
1963,6180302004543,登記記録の閉鎖等,0,2022-07-11,2022-06-30,阿州コンサルタント有限会社,,有限会社,愛知県,岡崎市,羽根町字鰻池７０番地３－１８０１,,23,202,4440813,,,2022-06-30,清算の結了等,,,2015-10-05,1,,,,,アシュウコンサルタント,0
1964,6190001005131,登記記録の閉鎖等,0,2022-07-11,2022-07-01,スズカ電装株式会社,,株式会社,三重県,鈴鹿市,三日市３丁目４番３号,,24,207,5130807,,,2022-07-01,清算の結了等,,,2015-10-05,1,,,,,スズカデンソウ,0
1969,6200001022703,登記記録の閉鎖等,0,2022-07-11,2022-07-07,株式会社カトウ住設,,株式会社,岐阜県,多治見市,滝呂町１４丁目１５５番地の２１３,,21,204,5070813,,,2022-07-07,清算の結了等,,,2015-10-05,1,,,,,カトウジュウセツ,0
1980,6240002051540,登記記録の閉鎖等,0,2022-07-11,2022-07-05,宮本マリン有限会社,,有限会社,広島県,尾道市,日比崎町１６番３１号,,34,205,7220013,,,2022-07-05,清算の結了等,,,2015-10-05,1,,,,,ミヤモトマリン,0
1985,6250001005372,登記記録の閉鎖等,0,2022-07-11,2022-07-01,ケーディーエンジニアリング株式会社,,株式会社,山口県,下関市,長府安養寺１丁目１５番１３号,,35,201,7520962,,,2022-07-01,合併による解散等,4250001005432,令和４年７月１日山口県下関市長府安養寺一丁目１５番１３号株式会社コプロス（4250001005432）に合併し解散,2015-10-05,1,,,,,ケーディーエンジニアリング,0
1989,6260002013786,登記記録の閉鎖等,0,2022-07-11,2022-07-04,有限会社ひなたぼっこ,,有限会社,岡山県,岡山市北区,吉備津１８９７番地,,33,101,7011341,,,2022-07-04,清算の結了等,,,2015-10-05,1,,,,,ヒナタボッコ,0
2009,6330002003193,登記記録の閉鎖等,0,2022-07-11,2022-07-01,有限会社ジュン・スカイ・コーポレーション,,有限会社,福岡県,福岡市中央区,薬院２丁目１７番２９号,,40,133,8100022,,,2022-07-01,清算の結了等,,,2015-10-05,1,,,,,ジュンスカイコーポレーション,0
2020,6370003000624,登記記録の閉鎖等,0,2022-07-11,2022-06-30,合資会社菅沢自工,,合資会社,宮城県,仙台市宮城野区,福室４丁目１８番３０号,,04,102,9830005,,,2022-06-30,清算の結了等,,,2015-10-05,1,,,,,スガサワジコウ,0
2036,6430001080851,登記記録の閉鎖等,0,2022-07-11,2022-06-28,株式会社村上憲一,,株式会社,北海道,札幌市中央区,北二条西１０丁目２番地７ｗａｌｌ１１０１号,,01,101,0600002,,,2022-06-28,清算の結了等,,,2020-02-07,1,,,,,ムラカミケンイチ,0
2039,6430002007580,登記記録の閉鎖等,0,2022-07-11,2022-06-29,有限会社光揚商事,,有限会社,北海道,札幌市中央区,北三条西２２丁目３９５番地８２,,01,101,0640823,,,2022-06-29,清算の結了等,,,2015-10-05,1,,,,,コウヨウショウジ,0
2048,6500001013102,登記記録の閉鎖等,0,2022-07-11,2022-07-01,株式会社ユニプラ,,株式会社,愛媛県,今治市,喜田村１丁目２番１号,,38,202,7991502,,,2022-07-01,合併による解散等,6500001012178,令和４年７月１日愛媛県今治市喜田村一丁目２番１号株式会社ハラプレックス（6500001012178）に合併し解散,2015-10-05,1,,,,,ユニプラ,0
2051,6500002021847,登記記録の閉鎖等,0,2022-07-11,2022-07-01,株式会社さくら,,株式会社,愛媛県,四国中央市,妻鳥町１７５番地,,38,213,7990113,,,2022-07-01,合併による解散等,4500001014696,令和４年７月１日愛媛県四国中央市妻鳥町８４９番地の１大黒美術紙工株式会社（4500001014696）に合併し解散,2015-10-05,1,,,,,サクラ,0
2062,7010001131092,登記記録の閉鎖等,0,2022-07-11,2022-06-30,ＤＳポバール株式会社,,株式会社,東京都,中央区,日本橋室町２丁目１番１号,,13,102,1030022,,,2022-06-30,清算の結了等,,,2015-10-05,1,,,,,ディーエスポバール,0
2064,7010001152790,登記記録の閉鎖等,0,2022-07-11,2022-06-30,キャピタランド・モール・ジャパン・リース・マネジメント株式会社,,株式会社,東京都,千代田区,丸の内２丁目２番３号丸の内仲通りビル６階,,13,101,1000005,,,2022-06-30,清算の結了等,,,2015-10-05,1,,,,,キャピタランドモールジャパンリースマネジメント,0
2066,7010001186095,登記記録の閉鎖等,0,2022-07-11,2022-06-30,株式会社先端監査技術革新機構,,株式会社,東京都,千代田区,三番町３番地８,,13,101,1020075,,,2022-06-30,清算の結了等,,,2017-09-11,1,,,,,センタンカンサギジュツカクシンキコウ,0
2075,7010003035787,登記記録の閉鎖等,0,2022-07-11,2022-06-30,合同会社所沢山口,,合同会社,東京都,中央区,日本橋１丁目４番１号日本橋一丁目ビルディング,,13,102,1030027,,,2022-06-30,清算の結了等,,,2021-09-13,1,,,,,トコロザワヤマグチ,0
2124,7011803004584,登記記録の閉鎖等,0,2022-07-11,2022-07-07,合同会社まごのて,,合同会社,東京都,足立区,谷中５丁目３番８－４０５号,,13,121,1200006,,,2022-07-07,清算の結了等,,,2021-04-15,1,,,,,マゴノテ,0
2144,7020001070018,登記記録の閉鎖等,0,2022-07-11,2022-07-01,平野技研工業株式会社,,株式会社,神奈川県,川崎市中原区,下小田中２丁目３４番８－２０３号,,14,133,2110041,,,2022-07-01,清算の結了等,,,2015-10-05,1,,,,,ヒラノギケンコウギョウ,0
2181,7040001054480,登記記録の閉鎖等,0,2022-07-11,2022-07-01,平林工業株式会社,,株式会社,千葉県,市原市,岩崎２丁目１９番地１５,,12,219,2900047,,,2022-07-01,清算の結了等,,,2015-10-05,1,,,,,ヒラバヤシコウギョウ,0
2185,7040001080411,登記記録の閉鎖等,0,2022-07-11,2022-07-04,株式会社ソーラーテクノホーム,,株式会社,千葉県,佐倉市,西志津８丁目２０番６号,,12,212,2850845,,,2022-07-04,清算の結了等,,,2015-10-05,1,,,,,ソーラーテクノホーム,0
2208,7060002008995,登記記録の閉鎖等,0,2022-07-11,2022-06-29,有限会社モダンアンドクラシック,,有限会社,栃木県,宇都宮市,東峰町３４４２番地１５９,,09,201,3210944,,,2022-06-29,清算の結了等,,,2015-10-05,1,,,,,モダンアンドクラシック,0
2209,7070001029199,登記記録の閉鎖等,0,2022-07-11,2022-07-04,君臨産業株式会社,,株式会社,埼玉県,加須市,南町９番１４号,,11,210,3470031,,,2022-07-04,清算の結了等,,,2015-10-05,1,,,,,クンリンサンギョウ,0
2217,7100001009065,登記記録の閉鎖等,0,2022-07-11,2022-07-01,ミレニアム観光バス株式会社,,株式会社,長野県,佐久市,中込２３０番地４５,,20,217,3850051,,,2022-07-01,清算の結了等,,,2015-10-05,1,,,,,ミレニアムカンコウバス,0
2224,7120001040340,登記記録の閉鎖等,0,2022-07-11,2022-07-05,山本フランジ株式会社,,株式会社,大阪府,大阪市浪速区,稲荷２丁目７番２１号,,27,111,5560023,,,2022-07-05,清算の結了等,,,2015-10-05,1,,,,,ヤマモトフランジ,0
2238,7120005007922,登記記録の閉鎖等,0,2022-07-11,2022-07-05,特定非営利活動法人大阪日中協会,,その他の設立登記法人,大阪府,大阪市中央区,南本町４丁目６番３号,,27,128,5410054,,,2022-07-05,清算の結了等,,,2015-10-05,1,,,,,オオサカニッチュウキョウカイ,0
2262,7140005018802,登記記録の閉鎖等,0,2022-07-11,2022-07-05,売布神社駅前商業協同組合,,その他の設立登記法人,兵庫県,宝塚市,売布２丁目５番１号１階ピピアめふ１株式会社宝塚べにや内,,28,214,6650852,,,2022-07-05,清算の結了等,,,2015-10-05,1,,,,,メフジンジャエキマエショウギョウ,0
2266,7150001022179,登記記録の閉鎖等,0,2022-07-11,2022-07-04,株式会社エムハウス,,株式会社,奈良県,桜井市,大字西之宮２４１番地の７,,29,206,6330066,,,2022-07-04,清算の結了等,,,2018-03-29,1,,,,,エムハウス,0
2294,7200001021910,登記記録の閉鎖等,0,2022-07-11,2022-07-07,株式会社ハクト,,株式会社,岐阜県,瑞浪市,山田町６３０番地の１,,21,208,5096104,,,2022-07-07,合併による解散等,6180001058840,令和４年７月１日名古屋市中村区名駅三丁目１１番２２号ゴールドエイジ株式会社（6180001058840）に合併し解散,2015-10-05,1,,,,,ハクト,0
2300,7210002003551,登記記録の閉鎖等,0,2022-07-11,2022-07-01,有限会社丸永商事,,有限会社,福井県,福井市,花堂中１丁目８番５号,,18,201,9188014,,,2022-07-01,清算の結了等,,,2015-10-05,1,,,,,マルエイショウジ,0
2308,7240001056325,登記記録の閉鎖等,0,2022-07-11,2022-07-05,株式会社Ｔ’ｓクリエイト,,株式会社,広島県,廿日市市,串戸２丁目２０番１－２０１号,,34,213,7380033,,,2022-07-05,清算の結了等,,,2020-07-03,1,,,,,ティズクリエイト,0
2316,7260001008415,登記記録の閉鎖等,0,2022-07-11,2022-07-01,株式会社ＪＫ,,株式会社,岡山県,岡山市北区,岩田町２番５号,,33,101,7000022,,,2022-07-01,合併による解散等,7260001019032,令和４年７月１日岡山県高梁市伊賀町８番地株式会社ＪＥＩ（7260001019032）に合併し解散,2015-10-05,1,,,,,ジェイケイ,0
2352,7380002024894,登記記録の閉鎖等,0,2022-07-11,2022-07-07,株式会社鈴康,,株式会社,福島県,いわき市,平谷川瀬２丁目１１番地の９,,07,204,9708036,,,2022-07-07,合併による解散等,3380001013373,令和４年７月７日福島県いわき市平谷川瀬二丁目１１番地の９プラドゥ株式会社（3380001013373）に合併し解散,2015-10-05,1,,,,,スズコウ,0
2353,7380002034778,登記記録の閉鎖等,0,2022-07-11,2022-06-22,有限会社蔵前,,有限会社,福島県,喜多方市,字一丁目４６１１番地,,07,208,9660819,,,2022-06-22,清算の結了等,,,2015-10-05,1,,,,,クラマエ,0
2370,7460102001513,登記記録の閉鎖等,0,2022-07-11,2022-07-05,有限会社下津建設,,有限会社,北海道,河東郡音更町,木野西通１１丁目５番地,,01,631,0800302,,,2022-07-05,清算の結了等,,,2015-10-05,1,,,,,シモツケンセツ,0
2373,7500001001477,登記記録の閉鎖等,0,2022-07-11,2022-07-01,クリエイトハラ株式会社,,株式会社,愛媛県,松山市,土居田町３９６番地６,,38,201,7900056,,,2022-07-01,合併による解散等,6500001012178,令和４年７月１日愛媛県今治市喜田村一丁目２番１号株式会社ハラプレックス（6500001012178）に合併し解散,2015-10-05,1,,,,,クリエイトハラ,0
2378,8010001039789,登記記録の閉鎖等,0,2022-07-11,2022-06-29,株式会社オー・エム・アイ,,株式会社,東京都,中央区,八丁堀４丁目５番１１号,,13,102,1040032,,,2022-06-29,清算の結了等,,,2015-10-05,1,,,,,オーエムアイ,0
2407,8010502002667,登記記録の閉鎖等,0,2022-07-11,2022-07-07,有限会社カトレヤ,,有限会社,東京都,台東区,根岸３丁目１０番２号,,13,106,1100003,,,2022-07-07,清算の結了等,,,2015-10-05,1,,,,,カトレヤ,0
2408,8010601007716,登記記録の閉鎖等,0,2022-07-11,2022-07-01,ＬＩＸＩＬグループファイナンス株式会社,,株式会社,東京都,江東区,大島２丁目１番１号,,13,108,1360072,,,2022-07-01,合併による解散等,5010601004914,令和４年７月１日東京都江東区大島二丁目１番１号株式会社ＬＩＸＩＬ（5010601004914）に合併し解散,2015-10-05,1,,,,,リクシルグループファイナンス,0
2432,8011003013014,登記記録の閉鎖等,0,2022-07-11,2022-05-26,合同会社Ｍａｌｅｆｉｃａ,,合同会社,東京都,目黒区,三田１丁目５番地１３号クリオ恵比寿弐番館３０４,,13,110,1530062,,,2022-05-26,清算の結了等,,,2021-07-01,1,,,,,マレフィカ,0
2437,8011201001794,登記記録の閉鎖等,0,2022-07-11,2022-07-01,株式会社コスモテック,,株式会社,東京都,中野区,中野５丁目１３番１号,,13,114,1640001,,,2022-07-01,清算の結了等,,,2015-10-05,1,,,,,コスモテック,0
2445,8011502006633,登記記録の閉鎖等,0,2022-07-11,2022-07-05,有限会社アオキ商会,,有限会社,東京都,荒川区,東日暮里２丁目３４番３号,,13,118,1160014,,,2022-07-05,清算の結了等,,,2015-10-05,1,,,,,アオキショウカイ,0
2507,8040001073117,登記記録の閉鎖等,0,2022-07-11,2022-06-30,株式会社ヨシダシーリング総業,,株式会社,千葉県,松戸市,栄町西３丁目９９３番地の７,,12,207,2710061,,,2022-06-30,清算の結了等,,,2015-10-05,1,,,,,ヨシダシーリングソウギョウ,0
2521,8040002045684,登記記録の閉鎖等,0,2022-07-11,2022-06-30,有限会社五香質店,,有限会社,千葉県,松戸市,常盤平５丁目１１番地１,,12,207,2702261,,,2022-06-30,清算の結了等,,,2015-10-05,1,,,,,ゴコウシチテン,0
2525,8040002072274,登記記録の閉鎖等,0,2022-07-11,2022-07-01,有限会社磯崎商会,00020653,有限会社,千葉県,市原市,八幡石塚２丁目２番地５,,12,219,2900061,,,2022-07-01,清算の結了等,,,2015-10-05,1,,,,,,0
2533,8040005014802,登記記録の閉鎖等,0,2022-07-11,2022-06-28,特定非営利活動法人ライフサポート二川,,その他の設立登記法人,千葉県,野田市,古布内１６８８番地１,,12,208,2700221,,,2022-06-28,清算の結了等,,,2015-10-05,1,,,,,ライフサポートフタカワ,0
2536,8050002028102,登記記録の閉鎖等,0,2022-07-11,2022-06-29,有限会社田島商会,,有限会社,茨城県,神栖市,知手２９５０番地３３,,08,232,3140115,,,2022-06-29,清算の結了等,,,2015-10-05,1,,,,,タジマショウカイ,0
2540,8060005000569,登記記録の閉鎖等,0,2022-07-11,2022-06-30,栃木県鍍金工業組合,,その他の設立登記法人,栃木県,宇都宮市,北一の沢町２番２３号,,09,201,3200048,,,2022-06-30,清算の結了等,,,2015-10-05,1,,,,,トチギケンメッキ,0
2554,8100005009507,登記記録の閉鎖等,0,2022-07-11,2022-06-30,医療法人椎名レディースクリニック,,その他の設立登記法人,長野県,飯田市,小伝馬町１丁目５２番地,,20,205,3950013,,,2022-06-30,清算の結了等,,,2015-10-05,1,,,,,シイナレディースクリニック,0
2559,8120001139207,登記記録の閉鎖等,0,2022-07-11,2022-07-06,株式会社スターティストジャパン,,株式会社,大阪府,大阪市中央区,南船場２丁目１２番１号センショービル４階,,27,128,5420081,,,2022-07-06,合併による解散等,5120101047700,令和４年７月１日大阪府貝塚市西町１３番１６号株式会社塩谷（5120101047700）に合併し解散,2015-10-05,1,,,,,,0
2589,8140001068230,登記記録の閉鎖等,0,2022-07-11,2022-07-01,株式会社岡嶋,,株式会社,兵庫県,西宮市,甲子園五番町５番１１号,,28,204,6638175,,,2022-07-01,清算の結了等,,,2015-10-05,1,,,,,オカジマ,0
2622,8180001133170,登記記録の閉鎖等,0,2022-07-11,2022-07-04,株式会社ＩＺＵＭＩ,,株式会社,愛知県,名古屋市中区,栄５丁目１７番７号（オープンレジデンシア栄ＴＨＥＣＯＵＲＴ５０１号）,,23,106,4600008,,,2022-07-04,清算の結了等,,,2018-07-25,1,,,,,イズミ,0
2630,8180302025174,登記記録の閉鎖等,0,2022-07-11,2022-06-30,有限会社あんしんパートナーズ,,有限会社,愛知県,豊田市,配津町大屋敷１４番地,,23,211,4701204,,,2022-06-30,清算の結了等,,,2015-10-05,1,,,,,アンシンパートナーズ,0
2638,8230001008557,登記記録の閉鎖等,0,2022-07-11,2022-07-05,株式会社仙人,,株式会社,富山県,南砺市,利賀村百瀬川９０番地,,16,210,9392511,,,2022-07-05,清算の結了等,,,2015-10-05,1,,,,,センニン,0
2643,8260002024328,登記記録の閉鎖等,0,2022-07-11,2022-07-06,有限会社ＳＡＫＵＲＡ,,有限会社,岡山県,倉敷市,真備町川辺５４４番地１,,33,202,7101313,,,2022-07-06,清算の結了等,,,2015-10-05,1,,,,,サクラ,0
2654,8290005014694,登記記録の閉鎖等,0,2022-07-11,2022-06-23,一般社団法人クチコミュニティ・マーケティング協会,,その他の設立登記法人,東京都,港区,六本木５丁目１１番２５号,,13,103,1060032,,,2022-06-23,清算の結了等,,,2015-10-05,1,,,,,クチコミュニティマーケティングキョウカイ,0
2674,8350005004598,登記記録の閉鎖等,0,2022-07-11,2022-07-04,特定非営利活動法人エヌピーオーこばやし,,その他の設立登記法人,宮崎県,小林市,細野２６９番地みどり会館内,,45,205,8860004,,,2022-07-04,清算の結了等,,,2015-10-05,1,,,,,エヌピーオーコバヤシ,0
2684,8380005007508,登記記録の閉鎖等,0,2022-07-11,2022-07-01,大熊町商業協同組合,,その他の設立登記法人,福島県,双葉郡大熊町,大字下野上字大野１１９番地,,07,545,9791308,,,2022-07-01,清算の結了等,,,2015-10-05,1,,,,,オオクママチ,0
2716,9010001175550,登記記録の閉鎖等,0,2022-07-11,2022-06-29,東日本電力株式会社,,株式会社,東京都,中央区,日本橋兜町２０－７,,13,102,1030026,,,2022-06-29,清算の結了等,,,2016-05-12,1,,,,,ヒガシニホンデンリョク,0
2728,9010401018227,登記記録の閉鎖等,0,2022-07-11,2022-07-06,株式会社ティーズインターナショナル,,株式会社,東京都,江戸川区,春江町２丁目２６番５号,,13,123,1320003,,,2022-07-06,清算の結了等,,,2015-10-05,1,,,,,ティーズインターナショナル,0
2731,9010401121261,登記記録の閉鎖等,0,2022-07-11,2022-06-23,株式会社麻布倶楽部,,株式会社,東京都,港区,六本木５丁目１０番２５号,,13,103,1060032,,,2022-06-23,清算の結了等,,,2015-10-29,1,,,,,アザブクラブ,0
2755,9010802000378,登記記録の閉鎖等,0,2022-07-11,2022-07-01,有限会社あかしや荘,,有限会社,東京都,大田区,西六郷１丁目３８番４号,,13,111,1440056,,,2022-07-01,清算の結了等,,,2015-10-05,1,,,,,アカシヤソウ,0
2758,9010902003017,登記記録の閉鎖等,0,2022-07-11,2022-07-04,有限会社エル・エル,,有限会社,東京都,世田谷区,若林３丁目１５番１－１０３号,,13,112,1540023,,,2022-07-04,清算の結了等,,,2015-10-05,1,,,,,エルエル,0
2759,9010903002414,登記記録の閉鎖等,0,2022-07-11,2022-07-01,ＳＭＡアセット合同会社,,合同会社,兵庫県,神戸市須磨区,中落合３丁目１番１１－５１１号,,28,107,6540154,,,2022-07-01,合併による解散等,4140003011571,令和４年７月１日神戸市須磨区中落合三丁目１番１１－５１１号合同会社スマレ（4140003011571）に合併し解散,2015-10-05,1,,,,,エスエムエーアセット,0
2761,9011001052946,登記記録の閉鎖等,0,2022-07-11,2022-06-24,株式会社ダイメディア東京,,株式会社,東京都,渋谷区,道玄坂２丁目１８番１１号サンモール道玄坂４０６,,13,113,1500043,,,2022-06-24,清算の結了等,,,2015-10-05,1,,,,,ダイメディアトウキョウ,0
2769,9011005006989,登記記録の閉鎖等,0,2022-07-11,2022-07-07,ｍｍ社会保険労務士法人,,その他の設立登記法人,東京都,渋谷区,恵比寿３丁目３４番１６号ハウスカンキ２０３,,13,113,1500013,,,2022-07-07,清算の結了等,,,2016-11-29,1,,,,,エムエム,0
2779,9011401017838,登記記録の閉鎖等,0,2022-07-11,2022-07-05,株式会社ナノ・ディライト,,株式会社,東京都,板橋区,蓮根３丁目９番１７－４０７号,,13,119,1740046,,,2022-07-05,清算の結了等,,,2015-10-05,1,,,,,ナノディライト,0
2789,9012401019452,登記記録の閉鎖等,0,2022-07-11,2022-07-07,株式会社アスカフーズ,,株式会社,東京都,三鷹市,大沢３丁目３番４号１０２,,13,204,1810015,,,2022-07-07,清算の結了等,,,2015-10-05,1,,,,,,0
2791,9013102006707,登記記録の閉鎖等,0,2022-07-11,2022-07-08,有限会社ブランニュー,,有限会社,東京都,青梅市,師岡町４丁目８番地の３０,,13,205,1980031,,,2022-07-08,清算の結了等,,,2015-10-05,1,,,,,ブランニュー,0
2795,9020001052575,登記記録の閉鎖等,0,2022-07-11,2022-06-28,株式会社アジール・コア,,株式会社,神奈川県,横浜市中区,本牧町１丁目１３９－１,,14,104,2310806,,,2022-06-28,清算の結了等,,,2015-10-05,1,,,,,アジールコア,0
2815,9030001047855,登記記録の閉鎖等,0,2022-07-11,2022-06-30,株式会社ソノグラファーズ,,株式会社,埼玉県,富士見市,鶴瀬西２丁目２３番６号,,11,235,3540026,,,2022-06-30,清算の結了等,,,2015-10-05,1,,,,,ソノグラファーズ,0
2820,9030001097033,登記記録の閉鎖等,0,2022-07-11,2022-06-28,埼玉県南開発株式会社,,株式会社,埼玉県,新座市,畑中１丁目１３番１５号,,11,230,3520012,,,2022-06-28,清算の結了等,,,2015-10-05,1,,,,,サイタマケンナンカイハツ,0
2829,9030002001258,登記記録の閉鎖等,0,2022-07-11,2022-06-29,有限会社インライトメント,,有限会社,埼玉県,さいたま市南区,大字太田窪３２０５番地,,11,108,3360015,,,2022-06-29,清算の結了等,,,2015-10-05,1,,,,,インライトメント,0
2847,9040002035354,登記記録の閉鎖等,0,2022-07-11,2022-07-01,有限会社ティ・ケイビルサービス,,有限会社,千葉県,市川市,菅野６丁目１３番１２号,,12,203,2720824,,,2022-07-01,清算の結了等,,,2015-10-05,1,,,,,ティケイビルサービス,0
2848,9040002046780,登記記録の閉鎖等,0,2022-07-11,2022-06-30,有限会社センバ商事,,有限会社,千葉県,松戸市,小金原４丁目４番地の４,,12,207,2700021,,,2022-06-30,清算の結了等,,,2015-10-05,1,,,,,センバショウジ,0
2860,9070001031979,登記記録の閉鎖等,0,2022-07-11,2022-06-27,株式会社群友企興,,株式会社,群馬県,藤岡市,藤岡６１４番地,,10,209,3750024,,,2022-06-27,清算の結了等,,,2016-03-29,1,,,,,グンユウキコウ,0
2865,9080402001976,登記記録の閉鎖等,0,2022-07-11,2022-07-05,有限会社影山塗装,,有限会社,静岡県,浜松市北区,初生町５１４番地の２,,22,135,4338112,,,2022-07-05,清算の結了等,,,2015-10-05,1,,,,,カゲヤマトソウ,0
2866,9080403004433,登記記録の閉鎖等,0,2022-07-11,2022-07-04,合同会社すまいるかんぱにー,,合同会社,静岡県,浜松市西区,伊左地町２４６０－２,,22,133,4311111,,,2022-07-04,清算の結了等,,,2021-12-22,1,,,,,スマイルカンパニー,0
2886,9120005009685,登記記録の閉鎖等,0,2022-07-11,2022-07-06,特定非営利活動法人大阪湾みなとまち生活文化研究センター,,その他の設立登記法人,大阪府,大阪市西区,新町２丁目４番２号,,27,106,5500013,,,2022-07-06,清算の結了等,,,2015-10-05,1,,,,,オオサカワンミナトマチセイカツブンカケンキュウセンター,0
2901,9140001005629,登記記録の閉鎖等,0,2022-07-11,2022-07-04,玉津建機株式会社,,株式会社,兵庫県,神戸市西区,玉津町高津橋字沢町１４４番地の１,,28,111,6512122,,,2022-07-04,清算の結了等,,,2015-10-05,1,,,,,,0
2925,9180001081633,登記記録の閉鎖等,0,2022-07-11,2022-07-01,株式会社兼松,,株式会社,愛知県,一宮市,緑４丁目１番２号,,23,203,4910862,,,2022-07-01,合併による解散等,2180001083660,令和４年７月１日愛知県一宮市緑四丁目１番２号株式会社平安閣（2180001083660）に合併し解散,2015-10-05,1,,,,,カネマツ,0
2927,9180001114293,登記記録の閉鎖等,0,2022-07-11,2022-07-05,株式会社Ｊｉｏｎ,,株式会社,愛知県,知多市,新知西町１２番地の１４,,23,224,4780066,,,2022-07-05,清算の結了等,,,2015-10-05,1,,,,,ジオン,0
2940,9180302010051,登記記録の閉鎖等,0,2022-07-11,2022-06-29,三河有限会社,,有限会社,愛知県,豊橋市,新本町８０番地,,23,201,4400892,,,2022-06-29,清算の結了等,,,2015-10-05,1,,,,,ミカワ,0
2956,9250002001632,登記記録の閉鎖等,0,2022-07-11,2022-07-01,株式会社山口住宅,,株式会社,山口県,山口市,桜畠５丁目２番５号,,35,203,7530021,,,2022-07-01,合併による解散等,6250002013374,令和４年７月１日山口県萩市大字江向４２５番地の２株式会社ふたば不動産（6250002013374）に合併し解散,2015-10-05,1,,,,,ヤマグチジュウタク,0
2965,9290001072134,登記記録の閉鎖等,0,2022-07-11,2022-06-29,福岡電力株式会社,,株式会社,東京都,中央区,日本橋兜町２０番７号,,13,102,1030026,,,2022-06-29,清算の結了等,,,2015-12-02,1,,,,,フクオカデンリョク,0
2976,9310001012005,登記記録の閉鎖等,0,2022-07-11,2022-07-07,株式会社長崎イケダ科学,,株式会社,長崎県,長崎市,平和町２８番１１号,,42,201,8528116,,,2022-07-07,合併による解散等,4330001000276,令和４年７月１日熊本市東区錦ケ丘１６番７号株式会社イケダ科学（4330001000276）に合併し解散,2015-10-05,1,,,,,ナガサキイケダカガク,0
3006,9420002013750,登記記録の閉鎖等,0,2022-07-11,2022-07-01,有限会社ティーエヌ・カンパニー,,有限会社,青森県,弘前市,大字末広２丁目６番地７,,02,202,0368085,,,2022-07-01,清算の結了等,,,2015-10-05,1,,,,,ティーエヌカンパニー,0
