sequenceNumber,corporateNumber,process,correct,updateDate,changeDate,name,nameImageId,kind,prefectureName,cityName,streetNumber,addressImageId,prefectureCode,cityCode,postCode,addressOutside,addressOutsideImageId,closeDate,closeCause,successorCorporateNumber,changeCause,assignmentDate,latest,enName,enPrefectureName,enCityName,enAddressOutside,furigana,hihyoji
10,1010103002461,新規,0,2024-11-29,2024-11-29,合同会社ｆｌｙｉｎｇｆｒｏｇｓ,,合同会社,東京都,八王子市,長房町１３８番地１Ａ,,13,201,1930824,,,,,,,2024-11-29,1,,,,,,0
16,1010403033909,新規,0,2024-11-29,2024-11-29,合同会社Ｖａｒｉａｔｉｏｎ,,合同会社,東京都,港区,東麻布１丁目２２番２号クレール東麻布１階,,13,103,1060044,,,,,,,2024-11-29,1,,,,,バリアシオン,0
17,1010403033917,新規,0,2024-11-29,2024-11-29,アミーゴエムエルワン合同会社,,合同会社,東京都,港区,六本木１丁目９番１０号アークヒルズ仙石山森タワー４０階,,13,103,1060032,,,,,,,2024-11-29,1,,,,,アミーゴエムエルワン,0
19,1010405023841,新規,0,2024-11-29,2024-11-29,特定非営利活動法人しばうら少年剣友会,,その他の設立登記法人,東京都,港区,三田５丁目２番１８－４３５号,,13,103,1080073,,,,,,,2024-11-29,1,,,,,シバウラショウネンケンユウカイ,0
24,1010701046901,新規,0,2024-11-29,2024-11-29,株式会社セルバ,,株式会社,東京都,品川区,大井１丁目２３番７号,,13,109,1400014,,,,,,,2024-11-29,1,,,,,セルバ,0
26,1010805003146,新規,0,2024-11-29,2024-11-29,一般社団法人ｙｏｕｒ　ｄｏｃｔｏｒ,,その他の設立登記法人,東京都,大田区,大森北１丁目１７番１３号,,13,111,1430016,,,,,,,2024-11-29,1,,,,,ユアドクター,0
35,1011001166118,新規,0,2024-11-29,2024-11-29,知興業株式会社,,株式会社,東京都,目黒区,下目黒１丁目１番１４号コノトラビル７Ｆ,,13,110,1530064,,,,,,,2024-11-29,1,,,,,トモコウギョウ,0
48,1011101109760,新規,0,2024-11-29,2024-11-29,Ｇａｍｆｕｔｕｒｅｓ株式会社,,株式会社,東京都,新宿区,西新宿６丁目５番１号新宿アイランドタワー２階,,13,104,1600023,,,,,,,2024-11-29,1,,,,,ジーエーエムフューチャーズ,0
64,1012301014164,新規,0,2024-11-29,2024-11-29,株式会社ＥＮＸＩ,,株式会社,東京都,町田市,南つくし野２丁目２番７５,,13,209,1940002,,,,,,,2024-11-29,1,,,,,エンクシィ,0
65,1012301014172,新規,0,2024-11-29,2024-11-29,神谷安Ｋａｍｉｙａ　Ａｎ　Ｄｅｓｉｇｎ株式会社,,株式会社,東京都,町田市,小山町３４６８番地７,,13,209,1940212,,,,,,,2024-11-29,1,,,,,カミヤアンデザイン,0
71,1013101009569,新規,0,2024-11-29,2024-11-29,ワンコンサルティング株式会社,,株式会社,東京都,福生市,北田園２丁目１９－２,,13,218,1970005,,,,,,,2024-11-29,1,,,,,ワンコンサルティング,0
77,1013301053441,新規,0,2024-11-29,2024-11-29,ミライズ株式会社,,株式会社,東京都,豊島区,巣鴨１丁目６番１１号アーバンベース５０３号,,13,116,1700002,,,,,,,2024-11-29,1,,,,,ミライズ,0
82,1020001160253,新規,0,2024-11-29,2024-11-29,株式会社日本総合設備,,株式会社,神奈川県,横浜市南区,八幡町４６番地池田マンション２０２,,14,105,2320037,,,,,,,2024-11-29,1,,,,,ニホンソウゴウセツビ,0
83,1020001160352,新規,0,2024-11-29,2024-11-29,ＷＰＣ株式会社,,株式会社,神奈川県,横浜市瀬谷区,南瀬谷１丁目８９番６号,,14,114,2460034,,,,,,,2024-11-29,1,,,,,ダブルピーシー,0
84,1020001160360,新規,0,2024-11-29,2024-11-29,株式会社ＤＹＮＡＳＴＩＸ,,株式会社,神奈川県,横浜市神奈川区,白幡町９番３４号,,14,102,2210076,,,,,,,2024-11-29,1,,,,,ダイナスティクス,0
86,1020003027351,新規,0,2024-11-29,2024-11-29,Ｍ＆Ｍ　ａｓｓｅｔ合同会社,,合同会社,神奈川県,横浜市西区,浅間町１丁目４番３号ウィザードビル４０２,,14,103,2200072,,,,,,,2024-11-29,1,,,,,エムアンドエムアセット,0
87,1020003027376,新規,0,2024-11-29,2024-11-29,合同会社南部市場三河屋,,合同会社,神奈川県,横浜市金沢区,鳥浜町１番地１,,14,108,2360002,,,,,,,2024-11-29,1,,,,,ナンブイチバミカワヤ,0
90,1021003015288,新規,0,2024-11-29,2024-11-29,合同会社和桜,,合同会社,神奈川県,横須賀市,望洋台１６番１２号,,14,201,2380053,,,,,,,2024-11-29,1,,,,,ワサクラ,0
91,1021003015296,新規,0,2024-11-29,2024-11-29,合同会社ＵＮＩＭＯ,,合同会社,神奈川県,相模原市南区,上鶴間本町１丁目３５番２７－１３０３号,,14,153,2520318,,,,,,,2024-11-29,1,,,,,ウニモ,0
101,1030001163676,新規,0,2024-11-29,2024-11-29,株式会社ＺＥＲＯ,,株式会社,埼玉県,草加市,新栄２丁目６番地８,,11,221,3400056,,,,,,,2024-11-29,1,,,,,ゼロ,0
103,1030003025585,新規,0,2024-11-29,2024-11-29,合同会社アドバンス,,合同会社,埼玉県,富士見市,大字水子１９２４番地,,11,235,3540011,,,,,,,2024-11-29,1,,,,,アドバンス,0
104,1030003025593,新規,0,2024-11-29,2024-11-29,合同会社ＭＭ,,合同会社,埼玉県,川越市,大字藤間３３０番地２５,,11,201,3501142,,,,,,,2024-11-29,1,,,,,エムエム,0
108,1040001136350,新規,0,2024-11-29,2024-11-29,株式会社ネオスタート,,株式会社,千葉県,柏市,みどり台３丁目１番５０号,,12,217,2770884,,,,,,,2024-11-29,1,,,,,ネオスタート,0
110,1040003026277,新規,0,2024-11-29,2024-11-29,合同会社総合リフォームＫ,,合同会社,千葉県,市川市,曽谷５丁目４番１６号,,12,203,2720832,,,,,,,2024-11-29,1,,,,,ソウゴウリフォームケー,0
111,1040003026285,新規,0,2024-11-29,2024-11-29,合同会社エムズ・アーク,,合同会社,千葉県,流山市,大字中野久木４４５番地の１１,,12,220,2700116,,,,,,,2024-11-29,1,,,,,エムズアーク,0
113,1050001055797,新規,0,2024-11-29,2024-11-29,ナイームトレーディング株式会社,,株式会社,茨城県,坂東市,岩井字溜台４３５８番地１４,,08,228,3060631,,,,,,,2024-11-29,1,,,,,ナイームトレーディング,0
118,1080001026630,新規,0,2024-11-29,2024-11-29,株式会社三華工業,,株式会社,静岡県,静岡市駿河区,中島１３９５番地の１,,22,102,4228046,,,,,,,2024-11-29,1,,,,,ミハナコウギョウ,0
119,1080003003339,新規,0,2024-11-29,2024-11-29,ＳＨＩＶＡ合同会社,,合同会社,静岡県,榛原郡吉田町,住吉６６８番地の４,,22,424,4210301,,,,,,,2024-11-29,1,,,,,シヴァ,0
139,1120001270587,新規,0,2024-11-29,2024-11-29,ＴＡＢＩ　ＪＡＰＡＮ株式会社,,株式会社,大阪府,大阪市西区,江戸堀１丁目２７番１－３０３号,,27,106,5500002,,,,,,,2024-11-29,1,,,,,タビジャパン,0
140,1120001270629,新規,0,2024-11-29,2024-11-29,新立株式会社,,株式会社,大阪府,大阪市旭区,高殿５丁目４－２４タクショービル３階北,,27,117,5350031,,,,,,,2024-11-29,1,,,,,シンリツ,0
141,1120001270637,新規,0,2024-11-29,2024-11-29,コモレビ株式会社,,株式会社,大阪府,大阪市港区,夕凪１丁目８番２５号２Ｆ,,27,107,5520004,,,,,,,2024-11-29,1,,,,,コモレビ,0
142,1120001270686,新規,0,2024-11-29,2024-11-29,株式会社ＯＭＯＴＥＮＡＳＨ,,株式会社,大阪府,大阪市西淀川区,姫里３丁目１０番２２号,,27,113,5550025,,,,,,,2024-11-29,1,,,,,オモテナシ,0
154,1130001078443,新規,0,2024-11-29,2024-11-29,ｎｅｏｎ株式会社,,株式会社,京都府,京都市下京区,小稲荷町８５番地２Ｇｒａｎｄ－Ｋ京都駅前ビル２０１,,26,106,6008208,,,,,,,2024-11-29,1,,,,,ネオン,0
155,1130003010040,新規,0,2024-11-29,2024-11-29,ＹＯＲＯＺＵ合同会社,,合同会社,京都府,京都市左京区,田中南西浦町８９番地６ハイツなおかつ２０２号室,,26,103,6068216,,,,,,,2024-11-29,1,,,,,ヨロズ,0
159,1140001136563,新規,0,2024-11-29,2024-11-29,株式会社Ｃｏｃｃｏ,,株式会社,兵庫県,神戸市須磨区,離宮前町１丁目８番１４号,,28,107,6540065,,,,,,,2024-11-29,1,,,,,コッコ,0
161,1140003021375,新規,0,2024-11-29,2024-11-29,ＪＡＰＡＮ　ＩＮＴＥＲＮＡＴＩＯＮＡＬ合同会社,,合同会社,兵庫県,三田市,沢谷６４９番地３５,,28,219,6691335,,,,,,,2024-11-29,1,,,,,ジャパンインターナショナル,0
173,1180001164362,新規,0,2024-11-29,2024-11-29,株式会社Ｓａｊｉ,,株式会社,愛知県,名古屋市中区,東桜２丁目１９番１２号,,23,106,4600005,,,,,,,2024-11-29,1,,,,,サジ,0
175,1180003027658,新規,0,2024-11-29,2024-11-29,Ｏｍｎｉ　Ｃｏｎｓｕｌｔａｎｔ合同会社,,合同会社,愛知県,尾張旭市,瀬戸川町２丁目１０５番地５,,23,226,4880023,,,,,,,2024-11-29,1,,,,,オムニコンサルタント,0
176,1180003027674,新規,0,2024-11-29,2024-11-29,合同会社オフィスケージー,,合同会社,愛知県,名古屋市中区,千代田２丁目１９番２０号トーカンマンション鶴舞３０７,,23,106,4600012,,,,,,,2024-11-29,1,,,,,オフィスケージー,0
189,1270001009095,新規,0,2024-11-29,2024-11-29,株式会社Ｖｅｒｔｅｘ,,株式会社,鳥取県,西伯郡日吉津村,大字日吉津１７５２番地１８,,31,384,6893553,,,,,,,2024-11-29,1,,,,,ヴァーテックス,0
193,1290805009784,新規,0,2024-11-29,2024-11-29,一般社団法人おさなめ,,その他の設立登記法人,福岡県,北九州市小倉南区,大字新道寺１２０２番地１,,40,107,8030186,,,,,,,2024-11-29,1,,,,,オサナメ,0
194,1330001032693,新規,0,2024-11-29,2024-11-29,株式会社ＶＥＲＶＥＮ,,株式会社,熊本県,熊本市東区,画図町大字所島３９２番地１１,,43,102,8620946,,,,,,,2024-11-29,1,,,,,フェルフェン,0
195,1330003010664,新規,0,2024-11-29,2024-11-29,合同会社ＤＡＧＯＥ,,合同会社,熊本県,菊池郡菊陽町,新山１丁目１２番５号Ｋハイツ新山１０３,,43,404,8691109,,,,,,,2024-11-29,1,,,,,ダゴエ,0
211,1430001093172,新規,0,2024-11-29,2024-11-29,株式会社ディヴェロップ,,株式会社,北海道,北広島市,新富町西１丁目１番地１２,,01,234,0611127,,,,,,,2024-11-29,1,,,,,ディヴェロップ,0
213,1430003017030,新規,0,2024-11-29,2024-11-29,合同会社Ｂａｎｎｅｒ,,合同会社,北海道,札幌市中央区,南四条西１２丁目１２９６番地３３パレ１－１０３号,,01,101,0640804,,,,,,,2024-11-29,1,,,,,バナー,0
214,1430005015115,新規,0,2024-11-29,2024-11-29,一般社団法人日本の灯りを護る会,,その他の設立登記法人,北海道,札幌市北区,北十一条西２丁目２番１７号セントラル札幌北ビル４階,,01,102,0010011,,,,,,,2024-11-29,1,,,,,ニホンノアカリヲマモルカイ,0
217,1440001009524,新規,0,2024-11-29,2024-11-29,株式会社Ｊｏｉｎ,,株式会社,北海道,奥尻郡奥尻町,字奥尻７８１番地１,,01,367,0431401,,,,,,,2024-11-29,1,,,,,ジョイン,0
220,1460101007632,新規,0,2024-11-29,2024-11-29,株式会社鉾建組,,株式会社,北海道,帯広市,西十二条南１６丁目２番地１,,01,207,0800022,,,,,,,2024-11-29,1,,,,,ホコダテグミ,0
221,1470001020478,新規,0,2024-11-29,2024-11-29,株式会社和栄,,株式会社,香川県,綾歌郡宇多津町,１５７１番地,,37,386,7690210,,,,,,,2024-11-29,1,,,,,ワエイ,0
222,1500001026018,新規,0,2024-11-29,2024-11-29,株式会社たまくう,,株式会社,愛媛県,西条市,飯岡２７０６番地１７,,38,206,7930010,,,,,,,2024-11-29,1,,,,,タマクウ,0
223,1500003003378,新規,0,2024-11-29,2024-11-29,合同会社ＮＥＸＩＳ,,合同会社,愛媛県,新居浜市,船木甲４０７７番２,,38,205,7920856,,,,,,,2024-11-29,1,,,,,ネクシス,0
225,1700150005545,新規,0,2024-11-29,2015-10-09,食品産業中央協議会,,その他,東京都,千代田区,平河町２丁目４－５　ＶＯＲＴ平河町ＩＩ　９Ｆ,00136769,13,101,1020093,,,,,,,2015-10-09,1,,,,,シヨクヒンサンギヨウチユウオウキヨウギカイ,0
227,1700150128024,新規,0,2024-11-29,2024-11-29,ｈａｉｂｏｈａｎｇｚｈｏｕｄｉａｎｚｉｓｈａｎｇｗｕｙｏｕｘｉａｎｇｏｎｇｓｉ,,外国会社等,,,,,,,,ｚｈｅｊｉａｎｇｓｈｅｎｇｈａｎｇｚｈｏｕｓｈｉｂｉｎｊｉａｎｇｑｕｃｈａｎｇｈｅｊｉｅｄａｏｂａｉｙｕｅｘｕａｎ１１１４ｓｈｉ,,,,,,2024-11-29,1,,,,,ハイボハンゾウデンシショウムユウゲンコウシ,0
235,2010003045650,新規,0,2024-11-29,2024-11-29,合同会社ｆｉｖｅ,,合同会社,東京都,千代田区,神田佐久間町３丁目１９東邦沢口ビル１Ｆ,,13,101,1010025,,,,,,,2024-11-29,1,,,,,ファイブ,0
245,2010401186716,新規,0,2024-11-29,2024-11-29,株式会社ドラフト,,株式会社,東京都,港区,虎ノ門３丁目１４番１号,,13,103,1050001,,,,,,,2024-11-29,1,,,,,ドラフト,0
246,2010401186757,新規,0,2024-11-29,2024-11-29,ＬＮＯＲＴＨ株式会社,,株式会社,東京都,港区,新橋６丁目１３番１２号ＶＯＲＴ新橋ＩＩ４Ｆ,00137181,13,103,1050004,,,,,,,2024-11-29,1,,,,,エルノース,0
248,2010403033916,新規,0,2024-11-29,2024-11-29,アミーゴプロパティー合同会社,,合同会社,東京都,港区,六本木１丁目９番１０号アークヒルズ仙石山森タワー４０階,,13,103,1060032,,,,,,,2024-11-29,1,,,,,アミーゴプロパティー,0
252,2010405023849,新規,0,2024-11-29,2024-11-29,一般社団法人ＴＳＭ１６９,,その他の設立登記法人,東京都,港区,元赤坂１丁目１番７号,,13,103,1070051,,,,,,,2024-11-29,1,,,,,ティーエスエムヒャクロクジュウキュウ,0
254,2010501053287,新規,0,2024-11-29,2024-11-29,ＡＮＳＨＩＮ株式会社,,株式会社,東京都,台東区,浅草橋１丁目３４番５号青柳ビル２０３号室,,13,106,1110053,,,,,,,2024-11-29,1,,,,,アンシン,0
264,2010903009523,新規,0,2024-11-29,2024-11-29,合同会社えきふる,,合同会社,東京都,世田谷区,太子堂４丁目１８番１５号マガザン三軒茶屋２－３Ｆ－３,,13,112,1540004,,,,,,,2024-11-29,1,,,,,エキフル,0
275,2011001166091,新規,0,2024-11-29,2024-11-29,Ｙａｓｈｉ株式会社,,株式会社,東京都,渋谷区,富ヶ谷１丁目１４番１４号３Ｆ,,13,113,1510063,,,,,,,2024-11-29,1,,,,,ヤシ,0
276,2011001166166,新規,0,2024-11-29,2024-11-29,株式会社ＭｅｗｅｄＡＩ,,株式会社,東京都,渋谷区,道玄坂１丁目１０番８号渋谷道玄坂東急ビル２Ｆ－Ｃ,,13,113,1500043,,,,,,,2024-11-29,1,,,,,ミュードエーアイ,0
280,2011003020478,新規,0,2024-11-29,2024-11-29,Ｌｕａｎａ　Ｌｉｆｅ　Ｄｅｓｉｇｎ合同会社,,合同会社,東京都,渋谷区,道玄坂１丁目１０番８号渋谷道玄坂東急ビル２Ｆ－Ｃ,,13,113,1500043,,,,,,,2024-11-29,1,,,,,ルアナライフデザイン,0
294,2011301030195,新規,0,2024-11-29,2024-11-29,株式会社ｅｍｉｒｐ,,株式会社,東京都,杉並区,浜田山４丁目１５番６号プラージュ浜田山３０１,,13,115,1680065,,,,,,,2024-11-29,1,,,,,エマープ,0
299,2011701027865,新規,0,2024-11-29,2024-11-29,希佑株式会社,,株式会社,東京都,江戸川区,江戸川６丁目４０番１４－１１５号,,13,123,1340013,,,,,,,2024-11-29,1,,,,,キユウ,0
301,2012301014171,新規,0,2024-11-29,2024-11-29,永安国際株式会社,,株式会社,東京都,町田市,小山町３４６８番地７,,13,209,1940212,,,,,,,2024-11-29,1,,,,,ヨンアンコクサイ,0
302,2012401042519,新規,0,2024-11-29,2024-11-29,株式会社Ｙ’ｎｙ,,株式会社,東京都,三鷹市,深大寺２丁目３６番２１号－２,,13,204,1810016,,,,,,,2024-11-29,1,,,,,ワイニー,0
309,2020001160327,新規,0,2024-11-29,2024-11-29,株式会社ブレインボックス,,株式会社,神奈川県,横浜市港南区,上大岡西１丁目１８番５－３３０９号,,14,111,2330002,,,,,,,2024-11-29,1,,,,,ブレインボックス,0
310,2020001160335,新規,0,2024-11-29,2024-11-29,株式会社Ｐｏｌｄ,,株式会社,神奈川県,川崎市宮前区,馬絹１丁目５番１３号,,14,136,2160035,,,,,,,2024-11-29,1,,,,,ポールド,0
311,2020001160351,新規,0,2024-11-29,2024-11-29,株式会社Ｂｕｚｚ　ａｒｏｕｎｄ,,株式会社,神奈川県,横浜市港北区,新吉田東８丁目３７番１６号,,14,109,2230058,,,,,,,2024-11-29,1,,,,,バズアラウンド,0
314,2020003027334,新規,0,2024-11-29,2024-11-29,ＮＩＪＩ合同会社,,合同会社,神奈川県,横浜市磯子区,杉田１丁目１４番１号,,14,107,2350033,,,,,,,2024-11-29,1,,,,,ニジ,0
317,2021001083864,新規,0,2024-11-29,2024-11-29,株式会社エムズクラフト,,株式会社,神奈川県,横須賀市,根岸町３丁目１４番２２号２０１号室,,14,201,2390807,,,,,,,2024-11-29,1,,,,,エムズクラフト,0
318,2021001083880,新規,0,2024-11-29,2024-11-29,株式会社吉松,,株式会社,神奈川県,藤沢市,本鵠沼３丁目２番１０号,,14,205,2510028,,,,,,,2024-11-29,1,,,,,ヨシマツ,0
326,2030001163667,新規,0,2024-11-29,2024-11-29,株式会社炯眼,,株式会社,埼玉県,吉川市,大字三輪野江字蓮沼２２４９番地１,,11,243,3420027,,,,,,,2024-11-29,1,,,,,ケイガン,0
334,2040001136317,新規,0,2024-11-29,2024-11-29,Ａｒｔｅ　Ｇｒｕｌｌａ株式会社,,株式会社,千葉県,長生郡長南町,長南２４２５番地,,12,427,2970121,,,,,,,2024-11-29,1,,,,,アルテグルージャ,0
337,2040003026210,新規,0,2024-11-29,2024-11-29,合同会社Ｍｅｔｅｏｒ　Ｌｉｎｅ,,合同会社,千葉県,佐倉市,染井野２丁目２９－２,,12,212,2850831,,,,,,,2024-11-29,1,,,,,ミーティアライン,0
338,2040003026284,新規,0,2024-11-29,2024-11-29,ＲＶＳ合同会社,,合同会社,千葉県,富里市,七栄４４６－１４相川ビル１階１０３号,,12,233,2860221,,,,,,,2024-11-29,1,,,,,アールヴイエス,0
347,2050003008843,新規,0,2024-11-29,2024-11-29,合同会社ＰＩＸＩＬ,,合同会社,茨城県,坂東市,岩井２２５０番地４,,08,228,3060631,,,,,,,2024-11-29,1,,,,,ピクシル,0
352,2070001042405,新規,0,2024-11-29,2024-11-29,株式会社美光,,株式会社,群馬県,太田市,飯田町７６４番地,,10,205,3730851,,,,,,,2024-11-29,1,,,,,ビコウ,0
353,2070003005681,新規,0,2024-11-29,2024-11-29,Ｍｉｔａｍａｙａ合同会社,,合同会社,群馬県,太田市,富沢町３０７番地３,,10,205,3730832,,,,,,,2024-11-29,1,,,,,ミタマヤ,0
356,2080003003338,新規,0,2024-11-29,2024-11-29,ＭＺＮコンサルティング合同会社,,合同会社,静岡県,焼津市,焼津５丁目１番２８号ＥＳＯＰ－Ｒ２０２,,22,212,4250026,,,,,,,2024-11-29,1,,,,,ミズノコンサルティング,0
360,2110001038860,新規,0,2024-11-29,2024-11-29,大光水産株式会社,,株式会社,新潟県,佐渡市,豊田２１４８番地１,,15,224,9520317,,,,,,,2024-11-29,1,,,,,ダイコウスイサン,0
370,2120001270479,新規,0,2024-11-29,2024-11-29,株式会社ＣＹＧＮＵＳ,,株式会社,大阪府,大阪市北区,梅田１丁目２番２号大阪駅前第２ビル１２－１２,,27,127,5300001,,,,,,,2024-11-29,1,,,,,シグネス,0
371,2120001270660,新規,0,2024-11-29,2024-11-29,株式会社ソアロン,,株式会社,大阪府,大阪市中央区,大手前１丁目７番３１号,,27,128,5400008,,,,,,,2024-11-29,1,,,,,ソアロン,0
372,2120001270669,新規,0,2024-11-29,2024-11-29,株式会社冨貴,,株式会社,大阪府,大阪市中央区,千日前１丁目８番２０号,,27,128,5420074,,,,,,,2024-11-29,1,,,,,フウキ,0
373,2120001270677,新規,0,2024-11-29,2024-11-29,株式会社ＤＡＩＷＡ　ＩＮＮＯＶＡＴＥ,,株式会社,大阪府,大阪市北区,天神橋２丁目４番１７号千代田第一ビル２階,,27,127,5300041,,,,,,,2024-11-29,1,,,,,ダイワイノベート,0
374,2120001270710,新規,0,2024-11-29,2024-11-29,株式会社しかのこ,,株式会社,大阪府,大阪市浪速区,日本橋３丁目７番７－５０１号,,27,111,5560005,,,,,,,2024-11-29,1,,,,,シカノコ,0
375,2120101070663,新規,0,2024-11-29,2024-11-29,トモニ株式会社,,株式会社,大阪府,岸和田市,土生町２丁目３０－１２泉洋ビル２０５号,,27,202,5960825,,,,,,,2024-11-29,1,,,,,トモニ,0
376,2120901050096,新規,0,2024-11-29,2024-11-29,株式会社ＰＬＵＭ‐ＯＮＥ,,株式会社,大阪府,吹田市,千里山西５丁目２３番５号,,27,205,5650851,,,,,,,2024-11-29,1,,,,,プラムワン,0
379,2140001136570,新規,0,2024-11-29,2024-11-29,株式会社コウエイ,,株式会社,兵庫県,明石市,魚住町金ケ崎１２１５番地の３,,28,203,6740071,,,,,,,2024-11-29,1,,,,,コウエイ,0
399,2180001164353,新規,0,2024-11-29,2024-11-29,日創株式会社,,株式会社,愛知県,大府市,共和町６丁目１０－２,,23,223,4740061,,,,,,,2024-11-29,1,,,,,ニッソウ,0
403,2180003027681,新規,0,2024-11-29,2024-11-29,合同会社あんこ,,合同会社,愛知県,知多郡東浦町,大字石浜字南ヶ丘１９番地の９,,23,442,4702103,,,,,,,2024-11-29,1,,,,,アンコ,0
405,2190001031833,新規,0,2024-11-29,2024-11-29,株式会社Ｋ’ｓ,,株式会社,三重県,四日市市,本町１番１号服部第一ビル２０７号室,,24,202,5100093,,,,,,,2024-11-29,1,,,,,ケィズ,0
406,2200001043190,新規,0,2024-11-29,2024-11-29,株式会社ＥＬ‐ＳＨＡＤＤＯＬＬ,,株式会社,岐阜県,瑞浪市,南小田町４丁目１,,21,208,5096116,,,,,,,2024-11-29,1,,,,,エルシャドール,0
408,2220001026359,新規,0,2024-11-29,2024-11-29,株式会社インプラス,,株式会社,石川県,加賀市,片山津町リ１９番地４,,17,206,9220414,,,,,,,2024-11-29,1,,,,,インプラス,0
419,2290001107986,新規,0,2024-11-29,2024-11-29,Ｖｉｓｉｏｎ　Ｉｎｖｅｓｔ株式会社,,株式会社,福岡県,福岡市中央区,清川３丁目８－２８－１３１０,,40,133,8100005,,,,,,,2024-11-29,1,,,,,ビジョンインベスト,0
421,2290003016129,新規,0,2024-11-29,2024-11-29,ＪＡＩＲＯ合同会社,,合同会社,福岡県,福岡市博多区,吉塚１丁目１０番１号,,40,132,8120041,,,,,,,2024-11-29,1,,,,,ジャイロ,0
429,2320001020830,新規,0,2024-11-29,2024-11-29,アクアリーヴ株式会社,,株式会社,大分県,日田市,大字圧手６４７番地,,44,204,8770000,,,,,,,2024-11-29,1,,,,,アクアリーヴ,0
430,2330001032701,新規,0,2024-11-29,2024-11-29,株式会社大藪孵化場ホールディングス,,株式会社,熊本県,玉名郡南関町,大字細永８０８番地,,43,367,8610831,,,,,,,2024-11-29,1,,,,,オオヤブフカジョウホールディングス,0
436,2370001051986,新規,0,2024-11-29,2024-11-29,株式会社ＨＡＣＨＩＭＡＲＵＳＴＹＬＥ,,株式会社,宮城県,塩竈市,越の浦１丁目１番９号,,04,203,9850083,,,,,,,2024-11-29,1,,,,,ハチマルスタイル,0
437,2370001051994,新規,0,2024-11-29,2024-11-29,株式会社Ｎ＆Ｕ,,株式会社,宮城県,仙台市青葉区,本町１丁目５番２８号６０３号室,,04,101,9800014,,,,,,,2024-11-29,1,,,,,エヌアンドユー,0
445,2420001018939,新規,0,2024-11-29,2024-11-29,株式会社ＥＴＦＡＲＭＩＮＧ,,株式会社,青森県,十和田市,大字深持字塚ノ下５８番地１,,02,206,0340106,,,,,,,2024-11-29,1,,,,,イーティーファーミング,0
446,2430001093171,新規,0,2024-11-29,2024-11-29,株式会社和スマイル,,株式会社,北海道,札幌市白石区,菊水三条２丁目１番１０号,,01,104,0030803,,,,,,,2024-11-29,1,,,,,ワスマイル,0
450,2490001010914,新規,0,2024-11-29,2024-11-29,株式会社ＭｅｄｉｃａＬＩＶＥ．ｌａｂ,,株式会社,高知県,高知市,永国寺町１番１－７０１号,,39,201,7800844,,,,,,,2024-11-29,1,,,,,メディカライブドットラボ,0
453,2500001026017,新規,0,2024-11-29,2024-11-29,株式会社クリーンエナジー天照,,株式会社,愛媛県,東温市,北方３２０９番地１８,,38,215,7910303,,,,,,,2024-11-29,1,,,,,クリーンエナジーテンショウ,0
454,2500003003377,新規,0,2024-11-29,2024-11-29,合同会社西尾弓工房,,合同会社,愛媛県,大洲市,阿蔵甲１５４８番地１,,38,207,7950025,,,,,,,2024-11-29,1,,,,,ニシオユミコウボウ,0
459,2700150128023,新規,0,2024-11-29,2024-11-29,Ｓｈａｎｇｈａｉ　Ｑｉｎｇｓｈａｎ　Ｓｃｉｅｎｃｅ　＆　Ｔｅｃｈｎｏｌｏｇｙ　Ｃｏ．Ｌｔｄ．,,外国会社等,,,,,,,,Ｎｏ．１８５　Ｍｏｙｕ　Ｒｏａｄ，Ａｎｔｉｎｇ　Ｔｏｗｎ，Ｊｉａｄｉｎｇ　Ｄｉｓｔｒｉｃｔ，Ｓｈａｎｇｈａｉ，Ｃｈｉｎａ,,,,,,2024-11-29,1,,,,,シャンハイチンサンサイエンスアンドテクノロジーカンパニーリミテッド,0
466,3010001250284,新規,0,2024-11-29,2024-11-29,株式会社ＴＯＫＹＯ　ＨＯＴＥＬＳ,,株式会社,東京都,中央区,晴海５丁目５番４－９０６号,,13,102,1040053,,,,,,,2024-11-29,1,,,,,トーキョーホテルズ,0
468,3010005039195,新規,0,2024-11-29,2024-11-29,一般社団法人かがやき,,その他の設立登記法人,東京都,千代田区,丸の内１丁目４番１号東京共同会計事務所内,,13,101,1000005,,,,,,,2024-11-29,1,,,,,カガヤキ,0
469,3010005039212,新規,0,2024-11-29,2024-11-29,ＤＣ開発特定目的会社,,その他の設立登記法人,東京都,千代田区,丸の内１丁目４番１号,,13,101,1000005,,,,,,,2024-11-29,1,,,,,ディーシーカイハツ,0
477,3010401186731,新規,0,2024-11-29,2024-11-29,株式会社エンソウ,,株式会社,東京都,港区,芝浦１丁目２番３号,,13,103,1050023,,,,,,,2024-11-29,1,,,,,エンソウ,0
478,3010401186748,新規,0,2024-11-29,2024-11-29,株式会社Ｌａ　ｖｉｅ　ｅｓｔ　ｂｅｌｌｅ,,株式会社,東京都,港区,南青山５丁目４番５１号シャトー青山第一３０２,,13,103,1070062,,,,,,,2024-11-29,1,,,,,ラヴィエベル,0
480,3010405023856,新規,0,2024-11-29,2024-11-29,ＵＩ安八１一般社団法人,,その他の設立登記法人,東京都,港区,六本木１丁目６番１号泉ガーデンタワー,,13,103,1060032,,,,,,,2024-11-29,1,,,,,ユーアイアンパチワン,0
484,3010601066394,新規,0,2024-11-29,2024-11-29,株式会社Ｆａｄｏ,,株式会社,東京都,墨田区,江東橋３丁目５番６号,,13,107,1300022,,,,,,,2024-11-29,1,,,,,ファド,0
486,3010701046916,新規,0,2024-11-29,2024-11-29,パシフィック商事株式会社,,株式会社,東京都,品川区,西品川１丁目２９番１２号ＣＳＲ品川,,13,109,1410033,,,,,,,2024-11-29,1,,,,,パシフィックショウジ,0
489,3010803005183,新規,0,2024-11-29,2024-11-29,合同会社Ｋ,,合同会社,東京都,大田区,鵜の木２丁目３４－７リバーウィンズ２０４,,13,111,1460091,,,,,,,2024-11-29,1,,,,,ケイ,0
502,3011001166082,新規,0,2024-11-29,2024-11-29,株式会社ゴゴゴ,,株式会社,東京都,渋谷区,道玄坂１丁目１０－８渋谷道玄坂東急ビル２Ｆ－Ｃ,,13,113,1500043,,,,,,,2024-11-29,1,,,,,,0
503,3011001166108,新規,0,2024-11-29,2024-11-29,株式会社ディスラプティブイノベーションコンサルティング,,株式会社,東京都,目黒区,下目黒２丁目９番２－５０１号パークホームズ目黒ザレジデンス,,13,110,1530064,,,,,,,2024-11-29,1,,,,,ディスラプティブイノベーションコンサルティング,0
504,3011001166116,新規,0,2024-11-29,2024-11-29,株式会社師,,株式会社,東京都,渋谷区,道玄坂１丁目１６－６二葉ビル８Ｂ,,13,113,1500043,,,,,,,2024-11-29,1,,,,,ミヤコ,0
513,3011101109718,新規,0,2024-11-29,2024-11-29,マッチゲート株式会社,,株式会社,東京都,新宿区,西新宿８丁目１５－３西新宿ローヤルコーポ２Ｆ,,13,104,1600023,,,,,,,2024-11-29,1,,,,,マッチゲート,0
514,3011101109750,新規,0,2024-11-29,2024-11-29,株式会社ｋｉｎｄ,,株式会社,東京都,新宿区,西新宿３丁目３番１３号西新宿水間ビル２Ｆ,,13,104,1600023,,,,,,,2024-11-29,1,,,,,カインド,0
515,3011101109759,新規,0,2024-11-29,2024-11-29,株式会社Ｚｅｎ　Ｏａｓｉｓ,,株式会社,東京都,新宿区,北新宿１丁目１４番３号,,13,104,1690074,,,,,,,2024-11-29,1,,,,,ゼンオアシス,0
522,3011801045246,新規,0,2024-11-29,2024-11-29,ＳＰＥＲＡ　Ｊａｐａｎ株式会社,,株式会社,東京都,葛飾区,西新小岩４丁目２８－８－３０１,,13,122,1240025,,,,,,,2024-11-29,1,,,,,スペラジャパン,0
536,3020001160301,新規,0,2024-11-29,2024-11-29,株式会社ＵＰＰ,,株式会社,神奈川県,横浜市中区,桜木町１丁目１０１番地１クロスゲート７階,,14,104,2310062,,,,,,,2024-11-29,1,,,,,ユーピーピー,0
537,3020001160334,新規,0,2024-11-29,2024-11-29,１０５６企画株式会社,,株式会社,神奈川県,横浜市都筑区,長坂１４番１－２０７号,,14,118,2240063,,,,,,,2024-11-29,1,,,,,イチマルゴロクキカク,0
538,3020003027341,新規,0,2024-11-29,2024-11-29,合同会社ＴＡＪＩ,,合同会社,神奈川県,横浜市港北区,日吉本町３丁目３３番４１号パルテール日吉本町２０１,,14,109,2230062,,,,,,,2024-11-29,1,,,,,タジ,0
553,3021001083863,新規,0,2024-11-29,2024-11-29,株式会社スタイリングプラス,,株式会社,神奈川県,平塚市,唐ケ原１２３番地の２平塚ガーデンホームズ２－５０７,,14,203,2540826,,,,,,,2024-11-29,1,,,,,スタイリングプラス,0
555,3021005013230,新規,0,2024-11-29,2024-11-29,一般財団法人日本先端技術国際インフラ協力機構,,その他の設立登記法人,神奈川県,藤沢市,湘南台４丁目２番地の１１新生ビル２Ａ,,14,205,2520804,,,,,,,2024-11-29,1,,,,,ニホンセンタンギジュツコクサイインフラキョウリョクキコウ,0
565,3030001163682,新規,0,2024-11-29,2024-11-29,株式会社ＴＯＨＡ,,株式会社,埼玉県,さいたま市浦和区,上木崎６丁目２４－３８ベルピア浦和第一２０５号室,,11,107,3300071,,,,,,,2024-11-29,1,,,,,トハ,0
566,3030001163690,新規,0,2024-11-29,2024-11-29,株式会社Ｖｉｅｗ　Ｔｅｃｈ,,株式会社,埼玉県,川口市,大字安行慈林４７４番地の１１,,11,203,3340071,,,,,,,2024-11-29,1,,,,,ビューテック,0
567,3030001163699,新規,0,2024-11-29,2024-11-29,株式会社クーマプランニング,,株式会社,埼玉県,さいたま市南区,文蔵５丁目２３番９号,,11,108,3360025,,,,,,,2024-11-29,1,,,,,クーマプランニング,0
570,3030003025591,新規,0,2024-11-29,2024-11-29,ＭＩＲＡ合同会社,,合同会社,埼玉県,春日部市,不動院野２８４１番１２,,11,214,3440001,,,,,,,2024-11-29,1,,,,,ミラ,0
582,3040003026267,新規,0,2024-11-29,2024-11-29,タティモ合同会社,,合同会社,千葉県,千葉市中央区,要町３－９－１４０３,,12,101,2600017,,,,,,,2024-11-29,1,,,,,タティモ,0
584,3060001037652,新規,0,2024-11-29,2024-11-29,株式会社ライトワーカープロジェクト,,株式会社,栃木県,宇都宮市,吉野２丁目８番１１号,,09,201,3200838,,,,,,,2024-11-29,1,,,,,ライトワーカープロジェクト,0
585,3060001037685,新規,0,2024-11-29,2024-11-29,株式会社ｅｇｇ,,株式会社,栃木県,小山市,城北４丁目６番地２９,,09,208,3230029,,,,,,,2024-11-29,1,,,,,エッグ,0
588,3070001042404,新規,0,2024-11-29,2024-11-29,株式会社食の時間,,株式会社,群馬県,太田市,大原町３６０番地１３,,10,205,3792304,,,,,,,2024-11-29,1,,,,,ショクノジカン,0
589,3080001026629,新規,0,2024-11-29,2024-11-29,株式会社ＰＥＡＣＥ,,株式会社,静岡県,静岡市葵区,御幸町３番地の２１、２１０１号,,22,101,4200857,,,,,,,2024-11-29,1,,,,,ピース,0
605,3120001270602,新規,0,2024-11-29,2024-11-29,株式会社Ｌｏｎｇ　ｓｈｉｎｅ,,株式会社,大阪府,大阪市住吉区,長居東４丁目１２番９号２Ｆ,,27,120,5580004,,,,,,,2024-11-29,1,,,,,ロングシャイン,0
606,3120001270684,新規,0,2024-11-29,2024-11-29,株式会社Ａｌｔｕｓ,,株式会社,大阪府,大阪市中央区,本町４丁目８番１号ＳＤ本町ビル７０２号,,27,128,5410053,,,,,,,2024-11-29,1,,,,,アルタス,0
607,3120101070654,新規,0,2024-11-29,2024-11-29,株式会社はらぺこ,,株式会社,大阪府,堺市中区,福田６６５番地２３,,27,142,5998241,,,,,,,2024-11-29,1,,,,,ハラペコ,0
608,3120101070670,新規,0,2024-11-29,2024-11-29,株式会社Ｒｅ・ｇｒｅｅｎ,,株式会社,大阪府,堺市東区,高松３８４番地１,,27,143,5998121,,,,,,,2024-11-29,1,,,,,リグリーン,0
616,3122001038698,新規,0,2024-11-29,2024-11-29,＿＿株式会社,00137175,株式会社,大阪府,東大阪市,若江西新町４丁目６番１０－２０５号,,27,227,5780944,,,,,,,2024-11-29,1,,,,,トウゲツ,0
617,3122003003048,新規,0,2024-11-29,2024-11-29,恒瀛合同会社,,合同会社,大阪府,東大阪市,三ノ瀬１丁目９番１７号ハイツ富士パートＩＩ１０５号室,00137176,27,227,5770849,,,,,,,2024-11-29,1,,,,,コウエイ,0
628,3140005027278,新規,0,2024-11-29,2024-11-29,一般社団法人西代協議会所,,その他の設立登記法人,兵庫県,神戸市長田区,細田町７丁目１番１５号,,28,106,6530835,,,,,,,2024-11-29,1,,,,,ニシダイキョウギカイショ,0
647,3190001031832,新規,0,2024-11-29,2024-11-29,株式会社岡嶋工業,,株式会社,三重県,名張市,榊町１４２３番地,00137174,24,208,5180724,,,,,,,2024-11-29,1,,,,,オカジマコウギョウ,0
649,3190003004860,新規,0,2024-11-29,2024-11-29,合同会社ディーワイストア,,合同会社,三重県,いなべ市,大安町片樋１９２２番地１ネクストステージＢ棟２０５号,,24,214,5110271,,,,,,,2024-11-29,1,,,,,ディーワイストア,0
654,3210005010169,新規,0,2024-11-29,2024-11-29,行政書士法人協心,,その他の設立登記法人,福井県,福井市,二の宮４丁目１番１０号オフィスＮビル２階,,18,201,9100015,,,,,,,2024-11-29,1,,,,,キョウシン,0
655,3230001020640,新規,0,2024-11-29,2024-11-29,株式会社ＣＨ　ＴＲＡＤＩＮＧ,,株式会社,富山県,射水市,堀岡新明神１７７番地１１,,16,211,9330221,,,,,,,2024-11-29,1,,,,,シーエッチトレーディング,0
674,3290001108141,新規,0,2024-11-29,2024-11-29,株式会社アシストサービス,,株式会社,福岡県,福岡市中央区,薬院２丁目２番１８号大地ビル２階,,40,133,8100022,,,,,,,2024-11-29,1,,,,,アシストサービス,0
675,3290001108158,新規,0,2024-11-29,2024-11-29,株式会社レボラル,,株式会社,福岡県,福岡市博多区,中洲５丁目３－８アクア博多ビル５Ｆ,,40,132,8100801,,,,,,,2024-11-29,1,,,,,レボラル,0
678,3290003016094,新規,0,2024-11-29,2024-11-29,合同会社Ｌｕｃｋ,,合同会社,福岡県,福岡市中央区,今泉１丁目３番１号ＴＹビル今泉２０２号室,,40,133,8100021,,,,,,,2024-11-29,1,,,,,ラック,0
679,3290005019566,新規,0,2024-11-29,2024-11-29,一般社団法人ＨＴＳ・仁,,その他の設立登記法人,福岡県,久留米市,城島町六町原３７３番地２,,40,203,8300206,,,,,,,2024-11-29,1,,,,,エイチティーエスジン,0
684,3300001013991,新規,0,2024-11-29,2024-11-29,株式会社丸健荷役,,株式会社,佐賀県,鹿島市,大字音成乙１５８０番地イ,,41,207,8491323,,,,,,,2024-11-29,1,,,,,マルケンニヤク,0
686,3330001032650,新規,0,2024-11-29,2024-11-29,株式会社弥栄未来,,株式会社,熊本県,菊池郡大津町,大字大津２１９番９号,,43,403,8691233,,,,,,,2024-11-29,1,,,,,イヤサカミライ,0
690,3360003014470,新規,0,2024-11-29,2024-11-29,合同会社ＡＳＡＴＯ　ＨＵＢ,,合同会社,沖縄県,那覇市,字国場６６７番地３南風ハウス３‐Ａ,,47,201,9020075,,,,,,,2024-11-29,1,,,,,アサトハブ,0
691,3360003014487,新規,0,2024-11-29,2024-11-29,合同会社ＮａｃｈｕＲａ,,合同会社,沖縄県,名護市,字仲尾次３７７番地２,,47,209,9051144,,,,,,,2024-11-29,1,,,,,ナチュラ,0
693,3370001051985,新規,0,2024-11-29,2024-11-29,株式会社プラスワンデザイン,,株式会社,宮城県,仙台市青葉区,花京院１丁目２番１５号仙台ソララプラザ３階,,04,101,9800013,,,,,,,2024-11-29,1,,,,,プラスワンデザイン,0
694,3370001051993,新規,0,2024-11-29,2024-11-29,株式会社サンミナール,,株式会社,宮城県,仙台市青葉区,大手町５番３号,,04,101,9800805,,,,,,,2024-11-29,1,,,,,サンミナール,0
699,3410001014005,新規,0,2024-11-29,2024-11-29,株式会社ＫＲＡＷＬ,,株式会社,秋田県,秋田市,新屋南浜町４－１６,,05,201,0101607,,,,,,,2024-11-29,1,,,,,クロール,0
703,3430001093162,新規,0,2024-11-29,2024-11-29,株式会社ＡＦ,,株式会社,北海道,札幌市清田区,美しが丘三条５丁目３番１５号,,01,110,0040813,,,,,,,2024-11-29,1,,,,,エーエフ,0
704,3430001093170,新規,0,2024-11-29,2024-11-29,株式会社ＢＳｋｅｅｐ,,株式会社,北海道,札幌市白石区,菊水三条２丁目１番１０号,,01,104,0030803,,,,,,,2024-11-29,1,,,,,ビーエスキープ,0
708,3470001020468,新規,0,2024-11-29,2024-11-29,株式会社Ｌｕｍｉｎａ,,株式会社,香川県,丸亀市,土器町東８丁目３１５番地５,,37,202,7630082,,,,,,,2024-11-29,1,,,,,ルミナ,0
709,3480001012662,新規,0,2024-11-29,2024-11-29,株式会社自習室クラウド,,株式会社,徳島県,徳島市,北矢三町３丁目２番４１号,,36,201,7700006,,,,,,,2024-11-29,1,,,,,ジシュウシツクラウド,0
712,3500003003376,新規,0,2024-11-29,2024-11-29,るーしー合同会社,,合同会社,愛媛県,松山市,持田町１丁目１番１５号,,38,201,7900855,,,,,,,2024-11-29,1,,,,,ルーシー,0
713,3700150128022,新規,0,2024-11-29,2024-11-29,ＳｈａｎｇｈａｉＴｅｒｕｉＪｉｘｉｅＳｈｅｂｅｉＹａｎｃｈｅｎｇＤａｆｅｎｇ　Ｃｏ．，Ｌｔｄ．,,外国会社等,,,,,,,,ｙａｎｃｈｅｎｇｓｈｉｄａｆｅｎｇｑｕｃｈａｎｇｚｈｏｕｇａｏｘｉｎｑｕｄａｆｅｎｇｇｏｎｇｙｅｙｕａｎｔｕａｎｊｉｅｌｕ７ｈａｏ　ＣＮ,,,,,,2024-11-29,1,,,,,シャンハイテルイジシエシェベイイエンチェンダフェンカンパニーリミテッド,0
721,4010001250242,新規,0,2024-11-29,2024-11-29,株式会社ＧＩＳＡ,,株式会社,東京都,千代田区,神田神保町２丁目１２－３,,13,101,1010051,,,,,,,2024-11-29,1,,,,,ギサ,0
722,4010001250283,新規,0,2024-11-29,2024-11-29,株式会社ＴＯＫＹＯ,,株式会社,東京都,中央区,晴海５丁目５番４－９０６号,,13,102,1040053,,,,,,,2024-11-29,1,,,,,トーキョー,0
723,4010001250309,新規,0,2024-11-29,2024-11-29,エスペラントテクノロジーズ・ジャパン株式会社,,株式会社,東京都,千代田区,霞が関３丁目２番５号霞が関ビルディング３１階,,13,101,1000013,,,,,,,2024-11-29,1,,,,,エスペラントテクノロジーズジャパン,0
724,4010001250325,新規,0,2024-11-29,2024-11-29,クォンタムハイドロジェン株式会社,,株式会社,東京都,中央区,日本橋小網町１番５号,,13,102,1030016,,,,,,,2024-11-29,1,,,,,クォンタムハイドロジェン,0
728,4010003045681,新規,0,2024-11-29,2024-11-29,合同会社ＪＲＥＡＳＴファンド第９号,,合同会社,東京都,千代田区,丸の内１丁目４番１号東京共同会計事務所内,,13,101,1000005,,,,,,,2024-11-29,1,,,,,ジェイアールイーストファンドダイキュウゴウ,0
734,4010401186706,新規,0,2024-11-29,2024-11-29,株式会社インジェクション,,株式会社,東京都,港区,南麻布５丁目１番１１－６０１号,,13,103,1060047,,,,,,,2024-11-29,1,,,,,インジェクション,0
735,4010401186714,新規,0,2024-11-29,2024-11-29,株式会社ＥＸＭＡＴＥ　ＧＬＯＢＡＬ,,株式会社,東京都,港区,赤坂２丁目５番８号,,13,103,1070052,,,,,,,2024-11-29,1,,,,,イーエックスメイトグローバル,0
738,4010403033864,新規,0,2024-11-29,2024-11-29,合同会社ＡＡＳ,,合同会社,東京都,港区,浜松町２丁目２番１５号浜松町ダイヤビル２Ｆ,,13,103,1050013,,,,,,,2024-11-29,1,,,,,アース,0
740,4010405023855,新規,0,2024-11-29,2024-11-29,ＵＩ安八１特定目的会社,,その他の設立登記法人,東京都,港区,六本木１丁目６番１号泉ガーデンタワー,,13,103,1060032,,,,,,,2024-11-29,1,,,,,ユーアイアンパチワン,0
746,4010601066352,新規,0,2024-11-29,2024-11-29,株式会社Ｔｒｕｓｔ　Ｗｉｎｇｓ　Ｔｅｃｈｎｏｌｏｇｉｅｓ,,株式会社,東京都,江東区,大島７丁目３７番１９号,,13,108,1360072,,,,,,,2024-11-29,1,,,,,トラストウィングズテクノロジー,0
747,4010601066377,新規,0,2024-11-29,2024-11-29,株式会社ＴＦＴ,,株式会社,東京都,江東区,豊洲３丁目６番５号,,13,108,1350061,,,,,,,2024-11-29,1,,,,,ティーエフティー,0
752,4010801035628,新規,0,2024-11-29,2024-11-29,株式会社絡縁,,株式会社,東京都,大田区,西蒲田７丁目１２番１号山本ビル２Ｆ号,,13,111,1440051,,,,,,,2024-11-29,1,,,,,ラクエン,0
767,4011001166081,新規,0,2024-11-29,2024-11-29,株式会社Ｖ‐ＴＥＲＭ,,株式会社,東京都,渋谷区,道玄坂１丁目１０－８渋谷道玄坂東急ビル２Ｆ－Ｃ,,13,113,1500043,,,,,,,2024-11-29,1,,,,,ブイターム,0
768,4011001166115,新規,0,2024-11-29,2024-11-29,株式会社ＷｅｂＪａｐａｎ,,株式会社,東京都,渋谷区,道玄坂１丁目１０番８号渋谷道玄坂東急ビル２Ｆ－Ｃ,,13,113,1500043,,,,,,,2024-11-29,1,,,,,ウェブジャパン,0
769,4011001166148,新規,0,2024-11-29,2024-11-29,株式会社なめらかプリン,,株式会社,東京都,渋谷区,渋谷２丁目１９番１５号宮益坂ビルディング６０９,,13,113,1500002,,,,,,,2024-11-29,1,,,,,ナメラカプリン,0
772,4011003020518,新規,0,2024-11-29,2024-11-29,合同会社いぶれお,,合同会社,東京都,目黒区,中目黒１丁目９番７号,,13,110,1530061,,,,,,,2024-11-29,1,,,,,イブレオ,0
777,4011301030177,新規,0,2024-11-29,2024-11-29,株式会社ジョリー,,株式会社,東京都,杉並区,大宮２丁目５番９号,,13,115,1680061,,,,,,,2024-11-29,1,,,,,ジョリー,0
778,4011301030193,新規,0,2024-11-29,2024-11-29,ハーヴェル株式会社,,株式会社,東京都,杉並区,堀ノ内１丁目７番１号,,13,115,1660013,,,,,,,2024-11-29,1,,,,,ハーヴェル,0
780,4011501031413,新規,0,2024-11-29,2024-11-29,株式会社ＮＥＸＴ　ＰＬＵＳ,,株式会社,東京都,荒川区,東尾久４丁目４６番１２号,,13,118,1160012,,,,,,,2024-11-29,1,,,,,ネクストプラス,0
784,4011701027847,新規,0,2024-11-29,2024-11-29,Ｔｅｍｐｏ　Ｒｕｂａｔｏ株式会社,,株式会社,東京都,江戸川区,西小岩２丁目１１番２号,,13,123,1330057,,,,,,,2024-11-29,1,,,,,テンポルバート,0
785,4011701027863,新規,0,2024-11-29,2024-11-29,ＧＩＧＡＳＴＯＮＥ株式会社,,株式会社,東京都,江戸川区,西一之江１丁目３番１３号愛幸ビル２０５,,13,123,1320023,,,,,,,2024-11-29,1,,,,,ギガストーン,0
789,4011801045245,新規,0,2024-11-29,2024-11-29,王氏環球株式会社,,株式会社,東京都,足立区,千住河原町２７－８,,13,121,1200037,,,,,,,2024-11-29,1,,,,,オウシカンキュウ,0
791,4011805003422,新規,0,2024-11-29,2024-11-29,一般社団法人ソルガム未来創造機構,,その他の設立登記法人,東京都,足立区,伊興３丁目２２番５号,,13,121,1210823,,,,,,,2024-11-29,1,,,,,ソルガムミライソウゾウキコウ,0
796,4012401042517,新規,0,2024-11-29,2024-11-29,株式会社優真建設工業,,株式会社,東京都,府中市,押立町５丁目６番地の１８,,13,206,1830012,,,,,,,2024-11-29,1,,,,,ユウシンケンセツコウギョウ,0
810,4020001160250,新規,0,2024-11-29,2024-11-29,株式会社ＫＡＲＵ,,株式会社,神奈川県,横浜市金沢区,大川７番９－５０９号,,14,108,2360043,,,,,,,2024-11-29,1,,,,,カル,0
811,4020001160300,新規,0,2024-11-29,2024-11-29,株式会社ＣＡＥ　Ｔｅｃｈｎｏｌｏｇｉｅｓ,,株式会社,神奈川県,川崎市高津区,蟹ケ谷２４４番地１,,14,134,2130025,,,,,,,2024-11-29,1,,,,,シーイーエーテクノロジーズ,0
812,4020001160325,新規,0,2024-11-29,2024-11-29,株式会社Ｂｏｕｓｓｏｌｅ,,株式会社,神奈川県,横浜市港北区,大倉山２丁目１９番１６号,,14,109,2220037,,,,,,,2024-11-29,1,,,,,ブソル,0
813,4020001160341,新規,0,2024-11-29,2024-11-29,株式会社ＨＡＳｉ・ＭＵＳＫＡＮ,,株式会社,神奈川県,横浜市西区,高島２丁目１１番２号スカイメナー横浜５１９,,14,103,2200011,,,,,,,2024-11-29,1,,,,,ハシムスカン,0
815,4020003027340,新規,0,2024-11-29,2024-11-29,合同会社３Ｓｏｕｌ,,合同会社,神奈川県,横浜市中区,山下町１０６番地１５－５０２号室,,14,104,2310023,,,,,,,2024-11-29,1,,,,,スリーソウル,0
816,4021001083862,新規,0,2024-11-29,2024-11-29,株式会社ＪＩＮＹＡ２４,,株式会社,神奈川県,足柄下郡箱根町,元箱根１６２番地の１５,,14,382,2500522,,,,,,,2024-11-29,1,,,,,ジンヤトゥエンティフォー,0
818,4021003015285,新規,0,2024-11-29,2024-11-29,ａｄａ‐ｌｉｎｅ合同会社,,合同会社,神奈川県,愛甲郡愛川町,半原１４４－２,,14,401,2430307,,,,,,,2024-11-29,1,,,,,アダライン,0
820,4030001163665,新規,0,2024-11-29,2024-11-29,株式会社アウラ,,株式会社,埼玉県,さいたま市南区,南浦和２丁目３９番２号第一大雄ビル７０３号,,11,108,3360017,,,,,,,2024-11-29,1,,,,,アウラ,0
832,4040001136348,新規,0,2024-11-29,2024-11-29,株式会社４Ｐｅａｃｅ,,株式会社,千葉県,千葉市中央区,生実町７１番地１,,12,101,2600813,,,,,,,2024-11-29,1,,,,,フォーピース,0
840,4050001055803,新規,0,2024-11-29,2024-11-29,株式会社ハイライズ,,株式会社,茨城県,水戸市,堀町１１２５番地の２１シティハイムＴＫほりかわ２０１,,08,201,3100903,,,,,,,2024-11-29,1,,,,,ハイライズ,0
846,4080405007694,新規,0,2024-11-29,2024-11-29,特定非営利活動法人まる十すきま時間気賀四ツ角,,その他の設立登記法人,静岡県,浜松市浜名区,細江町気賀１２５番地の２,,22,139,4311305,,,,,,,2024-11-29,1,,,,,マルジュウスキマジカンキガヨツカド,0
860,4120001270667,新規,0,2024-11-29,2024-11-29,株式会社ｉＤｏ,,株式会社,大阪府,大阪市住吉区,万代２丁目５番３６－１０４号,,27,120,5580055,,,,,,,2024-11-29,1,,,,,アイドゥ,0
861,4120001270683,新規,0,2024-11-29,2024-11-29,株式会社ダブルエス,,株式会社,大阪府,大阪市生野区,巽西３丁目１２番３２号関西ハイツ２０１号,00137180,27,116,5440012,,,,,,,2024-11-29,1,,,,,ダブルエス,0
862,4120001270709,新規,0,2024-11-29,2024-11-29,株式会社Ｏｕｒ’ｓ,,株式会社,大阪府,大阪市東成区,中道３丁目８番２号,,27,115,5370025,,,,,,,2024-11-29,1,,,,,アワーズ,0
863,4120001270717,新規,0,2024-11-29,2024-11-29,三品株式会社,,株式会社,大阪府,大阪市生野区,新今里４丁目１３番１９号,,27,116,5440001,,,,,,,2024-11-29,1,,,,,ミシナ,0
864,4120001270725,新規,0,2024-11-29,2024-11-29,株式会社ＪＯＴＯ住まいる,,株式会社,大阪府,大阪市城東区,古市３丁目１３番５号,,27,118,5360001,,,,,,,2024-11-29,1,,,,,ジョートースマイル,0
865,4120003028064,新規,0,2024-11-29,2024-11-29,合同会社ダイキョウ,,合同会社,大阪府,大阪市東住吉区,鷹合３丁目１１番２９号,,27,121,5460014,,,,,,,2024-11-29,1,,,,,ダイキョウ,0
874,4122003003047,新規,0,2024-11-29,2024-11-29,想い結ぶ飛翔出版合同会社,,合同会社,大阪府,八尾市,南久宝寺１丁目６０番地の３チュリス久宝寺２０２号,,27,212,5810076,,,,,,,2024-11-29,1,,,,,オモイムスブヒショウシュッパン,0
876,4130003010038,新規,0,2024-11-29,2024-11-29,合同会社ＴＳＵＢＡＩＰＰＯ,,合同会社,京都府,相楽郡精華町,大字祝園小字長塚１５番地マルコビル２階,00137179,26,366,6190241,,,,,,,2024-11-29,1,,,,,ツバイッポ,0
883,4140001136585,新規,0,2024-11-29,2024-11-29,株式会社ＹＳコーポレーション,,株式会社,兵庫県,尼崎市,南塚口町２丁目１８番１４号,,28,202,6610012,,,,,,,2024-11-29,1,,,,,ワイエスコーポレーション,0
913,4260001039677,新規,0,2024-11-29,2024-11-29,株式会社ＳｏＢａＮｉホールディングス,,株式会社,岡山県,倉敷市,児島下の町９丁目１２番コ２号,,33,202,7110906,,,,,,,2024-11-29,1,,,,,ソバニホールディングス,0
920,4290001108066,新規,0,2024-11-29,2024-11-29,株式会社ＮＡＮＯ　ＪＡＰＡＮ,,株式会社,福岡県,福岡市博多区,半道橋１丁目１８－３７ラシューバ博多駅南２０１,,40,132,8120897,,,,,,,2024-11-29,1,,,,,ナノジャパン,0
926,4320001020837,新規,0,2024-11-29,2024-11-29,株式会社ＯＬＤ・ＲＩＣＨ,,株式会社,大分県,大分市,富士見が丘東４丁目１４番５－１号,,44,201,8701176,,,,,,,2024-11-29,1,,,,,オールドリッチ,0
955,4480005007047,新規,0,2024-11-29,2024-11-29,一般社団法人ＡＷＡＣＲＡＦＴ美馬和傘,,その他の設立登記法人,徳島県,美馬市,脇町大字猪尻字庄７１番地１,,36,207,7793603,,,,,,,2024-11-29,1,,,,,アワクラフトミマワガサ,0
956,4500001026015,新規,0,2024-11-29,2024-11-29,株式会社ＢＩＧ・ＥＡＳＴ,,株式会社,愛媛県,西条市,玉津６２３番地１１,,38,206,7930001,,,,,,,2024-11-29,1,,,,,ビッグイースト,0
958,4500003003375,新規,0,2024-11-29,2024-11-29,合同会社ＫＷ,,合同会社,愛媛県,松山市,宮西３丁目５番３３－２号,,38,201,7900065,,,,,,,2024-11-29,1,,,,,ケイダブル,0
964,5010001250290,新規,0,2024-11-29,2024-11-29,小池アセットマネジメント株式会社,,株式会社,東京都,中央区,銀座１丁目２２番１１号銀座大竹ビジデンス２Ｆ,,13,102,1040061,,,,,,,2024-11-29,1,,,,,コイケアセットマネジメント,0
965,5010001250324,新規,0,2024-11-29,2024-11-29,ＩＥＴＡＳＵＬＩＦＥ株式会社,,株式会社,東京都,中央区,日本橋人形町２丁目１１番８号人形町ＴＯビル３階,,13,102,1030013,,,,,,,2024-11-29,1,,,,,イエタスライフ,0
967,5010003045648,新規,0,2024-11-29,2024-11-29,Ｔｓｕｂａｓａ　Ａｖｉａｔｉｏｎ合同会社,,合同会社,東京都,千代田区,一番町十丁目６番地ＺｅＳＴ一番町ビル７Ｆ,,13,101,1020082,,,,,,,2024-11-29,1,,,,,ツバサアビエーション,0
971,5010005039185,新規,0,2024-11-29,2024-11-29,ＢＰＳ国際社会保険労務士法人,,その他の設立登記法人,東京都,中央区,銀座４丁目１３番８号岩藤ビル５階,,13,102,1040061,,,,,,,2024-11-29,1,,,,,ビーピーエスコクサイ,0
975,5010401186366,新規,0,2024-11-29,2024-11-29,ハロームーン株式会社,,株式会社,東京都,港区,南青山３丁目１番３６号青山丸竹ビル６Ｆ,,13,103,1070062,,,,,,,2024-11-29,1,,,,,ハロームーン,0
976,5010401186564,新規,0,2024-11-29,2024-11-29,ＥｘＲＥＡＬ株式会社,,株式会社,東京都,港区,南青山３丁目１番３６号青山丸竹ビル６Ｆ,,13,103,1070062,,,,,,,2024-11-29,1,,,,,エックスリアル,0
977,5010401186721,新規,0,2024-11-29,2024-11-29,株式会社ＮＥＷ　ＩＮＳＩＧＨＴ,,株式会社,東京都,港区,北青山１丁目３番１号アールキューブ青山３階,,13,103,1070061,,,,,,,2024-11-29,1,,,,,ニューインサイト,0
979,5010403033913,新規,0,2024-11-29,2024-11-29,塩浜合同会社,,合同会社,東京都,港区,元赤坂１丁目１番８号株式会社赤坂国際会計内,,13,103,1070051,,,,,,,2024-11-29,1,,,,,シオハマ,0
1001,5011001166106,新規,0,2024-11-29,2024-11-29,株式会社Ｐｕｒｅｆｕｌ,,株式会社,東京都,渋谷区,恵比寿２丁目１２番１４号泉田ビル２０１,,13,113,1500013,,,,,,,2024-11-29,1,,,,,ピュアフル,0
1006,5011101109757,新規,0,2024-11-29,2024-11-29,株式会社Ｗｅｌｆａｒｅ　ＪＰ,,株式会社,東京都,新宿区,西新宿６丁目５番１号,,13,104,1600023,,,,,,,2024-11-29,1,,,,,ウェルフェアジェーピー,0
1010,5011201025961,新規,0,2024-11-29,2024-11-29,Ｂｒｉｄｇｅｗｏｒｋｓ　Ｊａｐａｎ株式会社,,株式会社,東京都,中野区,弥生町４丁目３５番１０号,,13,114,1640013,,,,,,,2024-11-29,1,,,,,ブリッジワークスジャパン,0
1013,5011601028242,新規,0,2024-11-29,2024-11-29,株式会社ｓｅｌｆｓｔａｇｅ,,株式会社,東京都,練馬区,桜台２丁目３９－１３－１０３,,13,120,1760002,,,,,,,2024-11-29,1,,,,,セルフステージ,0
1018,5011801045236,新規,0,2024-11-29,2024-11-29,ＳＲＮ株式会社,,株式会社,東京都,足立区,島根３丁目１９番１０号,,13,121,1210815,,,,,,,2024-11-29,1,,,,,エスアールエヌ,0
1019,5011801045244,新規,0,2024-11-29,2024-11-29,Ｍ．Ｅコーポレーション株式会社,,株式会社,東京都,足立区,島根３丁目１３番２１号,,13,121,1210815,,,,,,,2024-11-29,1,,,,,,0
1021,5012301014177,新規,0,2024-11-29,2024-11-29,株式会社ジノモノ,,株式会社,東京都,町田市,原町田５丁目１３－３－１３,,13,209,1940013,,,,,,,2024-11-29,1,,,,,ジノモノ,0
1027,5013301053413,新規,0,2024-11-29,2024-11-29,ＲＯＹＡＬ　ＭＹＡＮＭＡＲ株式会社,,株式会社,東京都,豊島区,南池袋１丁目１６－２０ぬかりやビル６Ｆ,,13,116,1710022,,,,,,,2024-11-29,1,,,,,ロイヤルミャンマー,0
1028,5013301053438,新規,0,2024-11-29,2024-11-29,株式会社ＳＵＩＨＯ　ＳＰＡＣＥ　ＩＮＮＯＶＡＴＩＯＮＳ,,株式会社,東京都,豊島区,南池袋１丁目１６－１５ダイヤゲート池袋リージャス池袋ビジネスセンター内,,13,116,1710022,,,,,,,2024-11-29,1,,,,,スイホスペースイノベーションズ,0
1030,5020001160308,新規,0,2024-11-29,2024-11-29,株式会社Ｕ,,株式会社,神奈川県,横浜市都筑区,中川中央１丁目３０番１号,,14,118,2240003,,,,,,,2024-11-29,1,,,,,ユー,0
1031,5020001160381,新規,0,2024-11-29,2024-11-29,株式会社チアリード,,株式会社,神奈川県,横浜市中区,海岸通４丁目２２関内笠原ビル２０２,,14,104,2310002,,,,,,,2024-11-29,1,,,,,チアリード,0
1033,5020003027348,新規,0,2024-11-29,2024-11-29,合同会社アース,,合同会社,神奈川県,横浜市港北区,鳥山町６７２番地の４城郷コート３０４号,,14,109,2220035,,,,,,,2024-11-29,1,,,,,アース,0
1041,5021001083886,新規,0,2024-11-29,2024-11-29,Ｔｉｍｂｅｒ　ＳＩＮＫ株式会社,,株式会社,神奈川県,大和市,つきみ野１丁目６番地９グランアリーナレジデンス１２０１,,14,213,2420002,,,,,,,2024-11-29,1,,,,,ティンバーシンク,0
1049,5030001163689,新規,0,2024-11-29,2024-11-29,株式会社成,,株式会社,埼玉県,川口市,南鳩ヶ谷３丁目１１番５号,,11,203,3340013,,,,,,,2024-11-29,1,,,,,セイ,0
1050,5030001163706,新規,0,2024-11-29,2024-11-29,株式会社首都圏総合保険,,株式会社,埼玉県,南埼玉郡宮代町,本田２丁目７番１６号,,11,442,3450827,,,,,,,2024-11-29,1,,,,,シュトケンソウゴウホケン,0
1053,5030003025598,新規,0,2024-11-29,2024-11-29,合同会社ＰＡＬＭ　ＷＯＲＫＳ,,合同会社,埼玉県,さいたま市大宮区,上小町１１１６番地,,11,103,3300855,,,,,,,2024-11-29,1,,,,,パームワークス,0
1054,5030003025607,新規,0,2024-11-29,2024-11-29,合同会社縁,,合同会社,埼玉県,熊谷市,万平町２丁目３９番地サンハイツ大和第三１３０５,,11,202,3600034,,,,,,,2024-11-29,1,,,,,エン,0
1055,5030005021959,新規,0,2024-11-29,2024-11-29,特定非営利活動法人みんそら,,その他の設立登記法人,埼玉県,川口市,幸町１丁目１番地３１号イーストコート２０２号室,,11,203,3320016,,,,,,,2024-11-29,1,,,,,ミンソラ,0
1066,5040001136347,新規,0,2024-11-29,2024-11-29,株式会社ヴァークスネオ,,株式会社,千葉県,千葉市花見川区,宮野木台１丁目２５番４号,,12,102,2620015,,,,,,,2024-11-29,1,,,,,ヴァークスネオ,0
1067,5040001136363,新規,0,2024-11-29,2024-11-29,株式会社ＧＲＯＷ　ＵＰ　ＷＯＲＫｓ,,株式会社,千葉県,市原市,山木８３番地６,,12,219,2900005,,,,,,,2024-11-29,1,,,,,グローアップワークス,0
1069,5040003026281,新規,0,2024-11-29,2024-11-29,合同会社ＳＨＵＫＡ,,合同会社,千葉県,千葉市中央区,祐光２丁目１０番１０号ＣＡＳＳＩＡ東千葉７０１号,,12,101,2600007,,,,,,,2024-11-29,1,,,,,シュカ,0
1072,5050001055802,新規,0,2024-11-29,2024-11-29,株式会社野澤農機,,株式会社,茨城県,ひたちなか市,はしかべ２丁目１０番６号,,08,221,3120054,,,,,,,2024-11-29,1,,,,,ノザワノウキ,0
1084,5080105006467,新規,0,2024-11-29,2024-11-29,アジア連携推進事業協同組合,,その他の設立登記法人,静岡県,伊東市,瓶山１丁目８番８号瓶山ベイサイドビルヂング１０１号室,,22,208,4140034,,,,,,,2024-11-29,1,,,,,アジアレンケイスイシンジギョウ,0
1086,5080401027596,新規,0,2024-11-29,2024-11-29,株式会社水野化学,,株式会社,静岡県,菊川市,嶺田３８５９番地の２,,22,224,4371522,,,,,,,2024-11-29,1,,,,,ミズノカガク,0
1094,5110003005591,新規,0,2024-11-29,2024-11-29,合同会社会計事務センター,,合同会社,新潟県,三条市,猪子場新田８９番地１６,,15,204,9591151,,,,,,,2024-11-29,1,,,,,カイケイジムセンター,0
1103,5120001270690,新規,0,2024-11-29,2024-11-29,未満堂株式会社,,株式会社,大阪府,大阪市阿倍野区,西田辺町２丁目２番２３号３Ａ,,27,119,5450014,,,,,,,2024-11-29,1,,,,,ミマンドウ,0
1104,5120001270699,新規,0,2024-11-29,2024-11-29,株式会社コスタジオ管理,,株式会社,大阪府,大阪市港区,夕凪１丁目１２番２号,,27,107,5520004,,,,,,,2024-11-29,1,,,,,コスタジオカンリ,0
1112,5122005003795,新規,0,2024-11-29,2024-11-29,一般社団法人千寿の会,,その他の設立登記法人,大阪府,八尾市,西高安町１丁目１番,,27,212,5810852,,,,,,,2024-11-29,1,,,,,センジュノカイ,0
1115,5130001078464,新規,0,2024-11-29,2024-11-29,日本東京ＮＯＺＯＭＩ文化株式会社,,株式会社,京都府,京都市中京区,室町通六角下る鯉山町５２２,,26,104,6048163,,,,,,,2024-11-29,1,,,,,ニホントウキョウノゾミブンカ,0
1121,5150001027709,新規,0,2024-11-29,2024-11-29,日中不動産株式会社,,株式会社,奈良県,奈良市,敷島町１丁目５４７番地の３７,,29,201,6310031,,,,,,,2024-11-29,1,,,,,ニッチュウフドウサン,0
1130,5180003027687,新規,0,2024-11-29,2024-11-29,くらしと合同会社,,合同会社,愛知県,名古屋市中川区,中郷１丁目４０,,23,110,4540921,,,,,,,2024-11-29,1,,,,,クラシト,0
1140,5200001043188,新規,0,2024-11-29,2024-11-29,株式会社Ｈａｌｅ,,株式会社,岐阜県,岐阜市,中西郷４丁目１８０番地,,21,201,5011177,,,,,,,2024-11-29,1,,,,,ハレ,0
1142,5200005013690,新規,0,2024-11-29,2024-11-29,一般社団法人Ｈｅａｌｔｈ　Ｕｐ　Ａｃｔｉｏｎ,,その他の設立登記法人,岐阜県,揖斐郡大野町,大字稲富２２８３番地４,,21,403,5010501,,,,,,,2024-11-29,1,,,,,ヘルスアップアクション,0
1146,5250001020918,新規,0,2024-11-29,2024-11-29,株式会社ＯＡＯ,,株式会社,山口県,長門市,日置上２０９３番地,,35,211,7594401,,,,,,,2024-11-29,1,,,,,オーエーオー,0
1147,5260001039676,新規,0,2024-11-29,2024-11-29,株式会社東野産業,,株式会社,岡山県,高梁市,津川町今津１９１３－１,,33,209,7160002,,,,,,,2024-11-29,1,,,,,ヒガシノサンギョウ,0
1148,5260003004983,新規,0,2024-11-29,2024-11-29,合同会社Ｙ・Ｓ　Ａｄｖａｎｃｅ,,合同会社,岡山県,岡山市中区,倉富１２７番地５,,33,102,7038264,,,,,,,2024-11-29,1,,,,,ワイエスアドバンス,0
1155,5310001019342,新規,0,2024-11-29,2024-11-29,株式会社ＨＡＲＩＳ,,株式会社,長崎県,長崎市,樺島町２－１１長崎造船協同組合ビル１０２－Ａ,,42,201,8500034,,,,,,,2024-11-29,1,,,,,ハリス,0
1157,5320001020836,新規,0,2024-11-29,2024-11-29,Ｇｌｏｃａｌ　Ｗｉｎｇ株式会社,,株式会社,大分県,別府市,大字東山１４７２番地,,44,202,8740000,,,,,,,2024-11-29,1,,,,,グローカールウィング,0
1160,5330003010660,新規,0,2024-11-29,2024-11-29,合同会社ファミリー,,合同会社,熊本県,天草市,中央新町４番１４号,,43,215,8630023,,,,,,,2024-11-29,1,,,,,ファミリー,0
1164,5340001026963,新規,0,2024-11-29,2024-11-29,株式会社ＥＤＡマジック,,株式会社,鹿児島県,鹿児島市,原良５丁目１８－２,,46,201,8900026,,,,,,,2024-11-29,1,,,,,イーディーエーマジック,0
1169,5370001051983,新規,0,2024-11-29,2024-11-29,文珠株式会社,,株式会社,宮城県,富谷市,富谷新町９５番地富谷市まちづくり産業交流プラザとみぷら,,04,216,9813311,,,,,,,2024-11-29,1,,,,,モンジュ,0
1170,5370001051991,新規,0,2024-11-29,2024-11-29,Ｊ‐ＣＲＡＦＴ株式会社,,株式会社,宮城県,仙台市泉区,市名坂字石止９９番地の８プラウド泉市名坂７０５,,04,105,9813117,,,,,,,2024-11-29,1,,,,,ジェイクラフト,0
1173,5410001014003,新規,0,2024-11-29,2024-11-29,株式会社菅わらふぁーむ,,株式会社,秋田県,横手市,十文字町睦合字下谷地２３５番地２,,05,203,0190514,,,,,,,2024-11-29,1,,,,,スガワラファーム,0
1177,5430001093152,新規,0,2024-11-29,2024-11-29,株式会社ＬＡＵＧＨ　ＧＲＯＵＰ,,株式会社,北海道,札幌市中央区,北十一条西２０丁目２番２５号,,01,101,0600011,,,,,,,2024-11-29,1,,,,,ラフグループ,0
1178,5430001093160,新規,0,2024-11-29,2024-11-29,株式会社花岡ＦＲＤファーム,,株式会社,北海道,勇払郡むかわ町,花岡２８４番地３,,01,586,0540013,,,,,,,2024-11-29,1,,,,,ハナオカエフアールディーファーム,0
1197,6010001250265,新規,0,2024-11-29,2024-11-29,株式会社ＦＡＳＴ　ＣＲＥＡＴＩＯＮｓ,,株式会社,東京都,中央区,銀座６丁目６番１号銀座風月堂ビル５階,,13,102,1040061,,,,,,,2024-11-29,1,,,,,ファストクリエイションズ,0
1198,6010001250273,新規,0,2024-11-29,2024-11-29,サンドテック・ジャパン株式会社,,株式会社,東京都,文京区,西片２丁目６番２－１０８号,,13,105,1130024,,,,,,,2024-11-29,1,,,,,サンドテックジャパン,0
1199,6010001250307,新規,0,2024-11-29,2024-11-29,株式会社ＥＳＴＡＴＩＯＮ　ＴＯＫＹＯ,,株式会社,東京都,千代田区,内神田２丁目１１番６号,,13,101,1010047,,,,,,,2024-11-29,1,,,,,エステーショントウキョウ,0
1200,6010001250356,新規,0,2024-11-29,2024-11-29,株式会社トラストアドバイザリー,,株式会社,東京都,中央区,銀座１丁目１２番４号Ｎ＆ＥＢＬＤ．６Ｆ,,13,102,1040061,,,,,,,2024-11-29,1,,,,,トラストアドバイザリー,0
1208,6010003045639,新規,0,2024-11-29,2024-11-29,フィリア合同会社,,合同会社,東京都,千代田区,神田和泉町１番地６の１６ヤマトビル４０５,,13,101,1010024,,,,,,,2024-11-29,1,,,,,フィリア,0
1213,6010401186720,新規,0,2024-11-29,2024-11-29,７ｃＡＲＣ株式会社,,株式会社,東京都,港区,西新橋３丁目５番２号,,13,103,1050003,,,,,,,2024-11-29,1,,,,,セブンシーアーク,0
1214,6010401186729,新規,0,2024-11-29,2024-11-29,株式会社ＹＰＫ,,株式会社,東京都,港区,赤坂３丁目２１－１７ＡＳＫ赤坂６階,,13,103,1070052,,,,,,,2024-11-29,1,,,,,ワイピーケイ,0
1215,6010401186737,新規,0,2024-11-29,2024-11-29,Ｍｄｅｓｉｇｎ株式会社,,株式会社,東京都,港区,南青山３丁目１番３６号青山丸竹ビル６Ｆ,,13,103,1070062,,,,,,,2024-11-29,1,,,,,エムデザイン,0
1216,6010401186753,新規,0,2024-11-29,2024-11-29,ワークオフ株式会社,,株式会社,東京都,港区,南麻布５丁目１５番２３－５号,,13,103,1060047,,,,,,,2024-11-29,1,,,,,ワークオフ,0
1221,6010403033854,新規,0,2024-11-29,2024-11-29,ＰＨ　Ｉｎｔｅｒｎａｔｉｏｎａｌ合同会社,,合同会社,東京都,港区,北青山１丁目３番１号アールキューブ青山３階,,13,103,1070061,,,,,,,2024-11-29,1,,,,,ピーエイチインターナショナル,0
1222,6010403033912,新規,0,2024-11-29,2024-11-29,合同会社ＴＳＭ１６９,,合同会社,東京都,港区,元赤坂１丁目１番７号,,13,103,1070051,,,,,,,2024-11-29,1,,,,,ティーエスエムヒャクロクジュウキュウ,0
1223,6010403033920,新規,0,2024-11-29,2024-11-29,ＥＱＴアールイーホテルオペレーション合同会社,,合同会社,東京都,港区,六本木１丁目９番１０号アークヒルズ仙石山森タワー４０階,,13,103,1060032,,,,,,,2024-11-29,1,,,,,イーキューティーアールイーホテルオペレーション,0
1235,6010601066375,新規,0,2024-11-29,2024-11-29,株式会社ピーチ,,株式会社,東京都,江東区,枝川１丁目１４番７号,,13,108,1350051,,,,,,,2024-11-29,1,,,,,ピーチ,0
1236,6010603011239,新規,0,2024-11-29,2024-11-29,合同会社一里,,合同会社,東京都,江東区,越中島３丁目１番３号ルネ・ベイグランデ４０７,,13,108,1350044,,,,,,,2024-11-29,1,,,,,イチリ,0
1238,6010703007483,新規,0,2024-11-29,2024-11-29,合同会社たつかな,,合同会社,東京都,品川区,東五反田１丁目２番４５－１１０４号,,13,109,1410022,,,,,,,2024-11-29,1,,,,,タツカナ,0
1248,6011001166105,新規,0,2024-11-29,2024-11-29,Ｈｉｍａｒｇｉｎ株式会社,,株式会社,東京都,渋谷区,渋谷２丁目１９－１５宮益坂ビルディング６０９,,13,113,1500002,,,,,,,2024-11-29,1,,,,,ヒマジン,0
1249,6011001166154,新規,0,2024-11-29,2024-11-29,株式会社アセリア,,株式会社,東京都,渋谷区,神泉町１３番１２号,,13,113,1500045,,,,,,,2024-11-29,1,,,,,アセリア,0
1253,6011003020350,新規,0,2024-11-29,2024-11-29,ＦＡＶＯＬＣ合同会社,,合同会社,東京都,目黒区,青葉台１丁目９番６号,,13,110,1530042,,,,,,,2024-11-29,1,,,,,ファボルク,0
1254,6011003020474,新規,0,2024-11-29,2024-11-29,パーソナルグロース合同会社,,合同会社,東京都,目黒区,中目黒３丁目１１番３号リベルテ中目黒１０３,,13,110,1530061,,,,,,,2024-11-29,1,,,,,パーソナルグロース,0
1263,6011101109756,新規,0,2024-11-29,2024-11-29,株式会社ＢＥＳＴ．ＡＩ．ＳＹＳＴＥＭ,,株式会社,東京都,新宿区,歌舞伎町２丁目４６番７号第３平沢ビル９階ＢＣ号室,,13,104,1600021,,,,,,,2024-11-29,1,,,,,ベストエイアイシステム,0
1265,6011103015242,新規,0,2024-11-29,2024-11-29,合同会社サクルアム,,合同会社,東京都,新宿区,西新宿３丁目３番１３号西新宿水間ビル６階,,13,104,1600023,,,,,,,2024-11-29,1,,,,,サクルアム,0
1270,6011301030191,新規,0,2024-11-29,2024-11-29,株式会社パーソナルコネクト,,株式会社,東京都,杉並区,和田２丁目３８番８号６０５号室,,13,115,1660012,,,,,,,2024-11-29,1,,,,,パーソナルコネクト,0
1275,6011601028241,新規,0,2024-11-29,2024-11-29,株式会社ｏｏｅｎ,,株式会社,東京都,練馬区,桜台１丁目３番１－１０２号,,13,120,1760002,,,,,,,2024-11-29,1,,,,,オーエン,0
1278,6011701027861,新規,0,2024-11-29,2024-11-29,株式会社ＳＳＣ,,株式会社,東京都,江戸川区,松島４丁目１４番５号,,13,123,1320031,,,,,,,2024-11-29,1,,,,,エスエスシー,0
1282,6011803006573,新規,0,2024-11-29,2024-11-29,合同会社ｋｉｎａｃｏ,,合同会社,東京都,足立区,西新井１丁目１０番１号銀白ビル２０１号,,13,121,1230841,,,,,,,2024-11-29,1,,,,,キナコ,0
1286,6012801023610,新規,0,2024-11-29,2024-11-29,小池株式会社,,株式会社,東京都,昭島市,宮沢町３丁目５番１５号,,13,207,1960024,,,,,,,2024-11-29,1,,,,,コイケ,0
1294,6020001160298,新規,0,2024-11-29,2024-11-29,株式会社ＹＵｍｅｄｉ,,株式会社,神奈川県,横浜市青葉区,あざみ野１丁目７番地１ゴールドワンあざみ野３階,,14,117,2250011,,,,,,,2024-11-29,1,,,,,ユメディ,0
1295,6020001160307,新規,0,2024-11-29,2024-11-29,ｉｌｌｍｉｑｕｅ株式会社,,株式会社,神奈川県,横浜市神奈川区,金港町５番地１４クアドリフォリオ８階,,14,102,2210056,,,,,,,2024-11-29,1,,,,,イルミーク,0
1296,6020001160348,新規,0,2024-11-29,2024-11-29,株式会社オオシマハウス,,株式会社,神奈川県,横浜市戸塚区,上矢部町１９３１番地１８,,14,110,2450053,,,,,,,2024-11-29,1,,,,,オオシマハウス,0
1311,6030001163671,新規,0,2024-11-29,2024-11-29,株式会社高島電設,,株式会社,埼玉県,越谷市,大字向畑７５６番地５,,11,222,3430007,,,,,,,2024-11-29,1,,,,,タカシマデンセツ,0
1312,6030001163688,新規,0,2024-11-29,2024-11-29,株式会社ＮＳｉｚｍ,,株式会社,埼玉県,越谷市,瓦曽根３丁目６番５０号,,11,222,3430821,,,,,,,2024-11-29,1,,,,,エヌエスイズム,0
1313,6030001163696,新規,0,2024-11-29,2024-11-29,富士商社株式会社,,株式会社,埼玉県,北葛飾郡松伏町,大字松伏２１８６－８,,11,465,3430111,,,,,,,2024-11-29,1,,,,,フジショウシャ,0
1321,6030003025589,新規,0,2024-11-29,2024-11-29,合同会社クオリア防災電工,,合同会社,埼玉県,志木市,上宗岡３丁目１８番１８－１号レ・プリュームＣ号,,11,228,3530001,,,,,,,2024-11-29,1,,,,,クオリアボウサイデンコウ,0
1323,6030005021958,新規,0,2024-11-29,2024-11-29,特定非営利活動法人おごせ芸術文化地域振興会,,その他の設立登記法人,埼玉県,入間郡越生町,越生東５丁目９番地８,,11,327,3500414,,,,,,,2024-11-29,1,,,,,オゴセゲイジュツブンカチイキシンコウカイ,0
1326,6040001136346,新規,0,2024-11-29,2024-11-29,株式会社ＴＲＳ大阪精密機材,,株式会社,千葉県,山武郡横芝光町,宮川１１５６０番地１０,,12,410,2891727,,,,,,,2024-11-29,1,,,,,ティーアールエスオオサカセイミツキザイ,0
1327,6040001136354,新規,0,2024-11-29,2024-11-29,株式会社ＲＥＳ,,株式会社,千葉県,千葉市稲毛区,稲毛１丁目１３－３,,12,103,2630034,,,,,,,2024-11-29,1,,,,,アールイーエス,0
1328,6040001136362,新規,0,2024-11-29,2024-11-29,株式会社ＷＩＮ‐Ｂ,,株式会社,千葉県,富里市,中沢１６９１番地１０,,12,233,2860222,,,,,,,2024-11-29,1,,,,,ウィンビー,0
1331,6040003026223,新規,0,2024-11-29,2024-11-29,ＭＡＨＡＢＩＲ合同会社,,合同会社,千葉県,八千代市,村上１９０２－４３スカイハイツ村上３０２,,12,221,2760028,,,,,,,2024-11-29,1,,,,,マハビール,0
1332,6040003026280,新規,0,2024-11-29,2024-11-29,Ｖ＆Ｓ合同会社,,合同会社,千葉県,船橋市,南本町２２番１１－４号,,12,204,2730004,,,,,,,2024-11-29,1,,,,,ブイアンドエス,0
1354,6120003028070,新規,0,2024-11-29,2024-11-29,３ＰＳコンサルタンツ合同会社,,合同会社,大阪府,大阪市東成区,大今里南１丁目２番１１号Ｏ．Ｔビル２階,,27,115,5370013,,,,,,,2024-11-29,1,,,,,スリーピースコンサルタンツ,0
1358,6120905006660,新規,0,2024-11-29,2024-11-29,社会保険労務士法人ブレーン,,その他の設立登記法人,大阪府,茨木市,山手台４丁目５番２０５号,,27,211,5670009,,,,,,,2024-11-29,1,,,,,ブレーン,0
1369,6130003010028,新規,0,2024-11-29,2024-11-29,合同会社ＧＬＯＷ　ＵＰ,,合同会社,京都府,京都市西京区,大枝塚原町２番地の３４,00137178,26,111,6101105,,,,,,,2024-11-29,1,,,,,グロウアップ,0
1373,6140001136583,新規,0,2024-11-29,2024-11-29,トロンボーン株式会社,,株式会社,兵庫県,神戸市中央区,北長狭通３丁目５－１０北長狭通３丁目ビル,,28,110,6500012,,,,,,,2024-11-29,1,,,,,トロンボーン,0
1374,6140005027291,新規,0,2024-11-29,2024-11-29,特定非営利活動法人ヒトノワサンダ,,その他の設立登記法人,兵庫県,三田市,酒井４７０番地,,28,219,6691405,,,,,,,2024-11-29,1,,,,,ヒトノワサンダ,0
1378,6150001027708,新規,0,2024-11-29,2024-11-29,株式会社桝忠フォレスト,,株式会社,奈良県,五條市,住川町１３０３,,29,207,6370014,,,,,,,2024-11-29,1,,,,,マスチュウフォレスト,0
1392,6180003027678,新規,0,2024-11-29,2024-11-29,ＨＴ合同会社,,合同会社,愛知県,稲沢市,高御堂１丁目１番地１５号マンタイビル,,23,220,4928213,,,,,,,2024-11-29,1,,,,,エイチティ,0
1395,6190001031838,新規,0,2024-11-29,2024-11-29,株式会社ブレークマン,,株式会社,三重県,四日市市,富田栄町６７番地１ローレルコートライオンズ四日市富田８０３号,,24,202,5108025,,,,,,,2024-11-29,1,,,,,ブレークマン,0
1397,6200001043179,新規,0,2024-11-29,2024-11-29,株式会社内田電気,,株式会社,岐阜県,岐阜市,北山３丁目４番７号,,21,201,5013113,,,,,,,2024-11-29,1,,,,,ウチダデンキ,0
1409,6240003006956,新規,0,2024-11-29,2024-11-29,合同会社下川会計,,合同会社,広島県,福山市,御門町２丁目４番７号,,34,207,7200805,,,,,,,2024-11-29,1,,,,,シモカワカイケイ,0
1410,6260003004982,新規,0,2024-11-29,2024-11-29,スール合同会社,,合同会社,岡山県,岡山市北区,春日町７－２１第２春日フォートレス１０１,,33,101,7000905,,,,,,,2024-11-29,1,,,,,スール,0
1420,6290801031077,新規,0,2024-11-29,2024-11-29,株式会社ＤＡＩＥＩアーキテクツ,,株式会社,福岡県,北九州市八幡西区,下上津役４丁目１番３６号,,40,109,8070075,,,,,,,2024-11-29,1,,,,,ダイエイアーキテクツ,0
1430,6370001051999,新規,0,2024-11-29,2024-11-29,株式会社ｐｉｅｃｅ,,株式会社,宮城県,仙台市太白区,長町５丁目２番４３号,,04,104,9820011,,,,,,,2024-11-29,1,,,,,ピース,0
1437,6410001014002,新規,0,2024-11-29,2024-11-29,株式会社ｆｌａｗｔｈ,,株式会社,秋田県,由利本荘市,笹道５９番地,,05,210,0150073,,,,,,,2024-11-29,1,,,,,フロース,0
1441,6420003003027,新規,0,2024-11-29,2024-11-29,合同会社和鳳,,合同会社,青森県,上北郡六戸町,大字下吉田字下吉田８０番１７,,02,405,0392312,,,,,,,2024-11-29,1,,,,,ワホウ,0
1447,6460105002303,新規,0,2024-11-29,2024-11-29,農事組合法人前田農機,,その他の設立登記法人,北海道,帯広市,東六条南１９丁目３－２９ボヌール光南１－Ｄ,,01,207,0800806,,,,,,,2024-11-29,1,,,,,,0
1448,6470001020481,新規,0,2024-11-29,2024-11-29,株式会社ＦｒｅｅＲ　ＶｉｓｉｏＮ,,株式会社,香川県,三豊市,三野町大見甲３２５４番地８,,37,208,7670031,,,,,,,2024-11-29,1,,,,,,0
1450,6500001026013,新規,0,2024-11-29,2024-11-29,株式会社アシスト,,株式会社,愛媛県,松山市,松末２丁目１５番７号,,38,201,7900915,,,,,,,2024-11-29,1,,,,,アシスト,0
1458,7010001250297,新規,0,2024-11-29,2024-11-29,株式会社神谷,,株式会社,東京都,千代田区,有楽町１丁目１番２号東京ミッドタウン日比谷３Ｆ,,13,101,1000006,,,,,,,2024-11-29,1,,,,,カミヤ,0
1459,7010001250306,新規,0,2024-11-29,2024-11-29,株式会社Ｌｅｏｎｅ,,株式会社,東京都,文京区,小石川２丁目１番１３－１１０４号,,13,105,1120002,,,,,,,2024-11-29,1,,,,,レオーネ,0
1462,7010003045646,新規,0,2024-11-29,2024-11-29,エネストジャパン８合同会社,,合同会社,東京都,千代田区,四番町２番地１２,,13,101,1020081,,,,,,,2024-11-29,1,,,,,エネストジャパンハチ,0
1463,7010003045662,新規,0,2024-11-29,2024-11-29,Ｔｅｓｉｓ　Ｊａｐａｎ　Ａｉｒ　Ｃａｒｇｏ　Ａｇｅｎｃｙ合同会社,,合同会社,東京都,千代田区,五番町１２番地７－２－０４３,,13,101,1020076,,,,,,,2024-11-29,1,,,,,テシスジャパンエアカーゴエージェンシー,0
1469,7010401186711,新規,0,2024-11-29,2024-11-29,株式会社アンド・フリーム,,株式会社,東京都,港区,赤坂７丁目５番３４－５２号赤坂リキマンション,,13,103,1070052,,,,,,,2024-11-29,1,,,,,アンドフリーム,0
1470,7010401186728,新規,0,2024-11-29,2024-11-29,株式会社天,,株式会社,東京都,港区,新橋６丁目５番５号新生ビル,,13,103,1050004,,,,,,,2024-11-29,1,,,,,テン,0
1471,7010401186744,新規,0,2024-11-29,2024-11-29,株式会社ローカルビルド,,株式会社,東京都,港区,六本木４丁目８番５号,,13,103,1060032,,,,,,,2024-11-29,1,,,,,ローカルビルド,0
1474,7010403033886,新規,0,2024-11-29,2024-11-29,Ｈ　ｆｕｎｄグローバルマクロファンド合同会社,,合同会社,東京都,港区,虎ノ門２丁目６番１号虎ノ門ヒルズステーションタワー１６階,,13,103,1050001,,,,,,,2024-11-29,1,,,,,エイチファンドグローバルマクロファンド,0
1480,7010701046912,新規,0,2024-11-29,2024-11-29,ＶＬＡＳＴ　ＪＡＰＡＮ株式会社,,株式会社,東京都,品川区,西品川１丁目１番１号住友不動産大崎ガーデンタワー,,13,109,1410033,,,,,,,2024-11-29,1,,,,,ブラストジャパン,0
1482,7010901056414,新規,0,2024-11-29,2024-11-29,ＴｗｉｎＥａｒｔｈ株式会社,,株式会社,東京都,世田谷区,南烏山２丁目１０番６号メゾンアラモード１０２号室,,13,112,1570062,,,,,,,2024-11-29,1,,,,,ツインアース,0
1487,7011001166087,新規,0,2024-11-29,2024-11-29,ブラックモンスター株式会社,,株式会社,東京都,渋谷区,神南１丁目４番９号,,13,113,1500041,,,,,,,2024-11-29,1,,,,,ブラックモンスター,0
1488,7011001166095,新規,0,2024-11-29,2024-11-29,株式会社クスノキ,,株式会社,東京都,目黒区,大橋１丁目２番１０－５０６号,,13,110,1530044,,,,,,,2024-11-29,1,,,,,クスノキ,0
1489,7011001166112,新規,0,2024-11-29,2024-11-29,Ｂ　Ｆａｓｈｉｏｎ株式会社,,株式会社,東京都,渋谷区,円山町５番５号Ｎａｖｉ渋谷Ｖ３階,00137182,13,113,1500044,,,,,,,2024-11-29,1,,,,,ビーファッション,0
1490,7011001166120,新規,0,2024-11-29,2024-11-29,日高馬券サークル株式会社,,株式会社,東京都,渋谷区,千駄ヶ谷３丁目４０番１０号,,13,113,1510051,,,,,,,2024-11-29,1,,,,,ヒダカバケンサークル,0
1491,7011001166129,新規,0,2024-11-29,2024-11-29,株式会社ハニカム２１,,株式会社,東京都,目黒区,碑文谷４丁目２４番１３号,,13,110,1520003,,,,,,,2024-11-29,1,,,,,ハニカムニジュウイチ,0
1492,7011001166186,新規,0,2024-11-29,2024-11-29,ＡＮＱＩディベロップメント株式会社,,株式会社,東京都,渋谷区,千駄ヶ谷３丁目５番１５号,,13,113,1510051,,,,,,,2024-11-29,1,,,,,エイエヌキューアイディベロップメント,0
1494,7011003020449,新規,0,2024-11-29,2024-11-29,合同会社ＨＭ　ＧＬＯＢＡＬ　ＴＲＡＤＩＮＧＳ,,合同会社,東京都,渋谷区,道玄坂１丁目１０－８渋谷道玄坂東急ビル２Ｆ－Ｃ,,13,113,1500043,,,,,,,2024-11-29,1,,,,,エイチエムグローバルトレーディングス,0
1495,7011003020531,新規,0,2024-11-29,2024-11-29,合同会社谷川岳ラズベリー,,合同会社,東京都,渋谷区,代々木１丁目２１‐１６‐４０１,,13,113,1510053,,,,,,,2024-11-29,1,,,,,タニガワダケラズベリー,0
1496,7011005010786,新規,0,2024-11-29,2024-11-29,税理士法人ＧＲＡＮＤＩＲ,,その他の設立登記法人,東京都,渋谷区,道玄坂１丁目１２番１号渋谷マークシティＷ２２Ｆ,,13,113,1500043,,,,,,,2024-11-29,1,,,,,グランディール,0
1498,7011101109730,新規,0,2024-11-29,2024-11-29,株式会社ＤＦａｓｔ,,株式会社,東京都,新宿区,西新宿３丁目３番１３号西新宿水間ビル２Ｆ,,13,104,1600023,,,,,,,2024-11-29,1,,,,,ディーファースト,0
1499,7011101109747,新規,0,2024-11-29,2024-11-29,Ｓｔａｒ　Ｔｅｅｍ株式会社,,株式会社,東京都,新宿区,新宿６丁目１１番９号新宿第二松喜ビル４Ｆ,,13,104,1600022,,,,,,,2024-11-29,1,,,,,スターチーム,0
1500,7011103015167,新規,0,2024-11-29,2024-11-29,合同会社ＰＲＩＭＡＬ,,合同会社,東京都,新宿区,若松町６－１１プライマル新宿若松町４０４,,13,104,1620056,,,,,,,2024-11-29,1,,,,,プライマル,0
1501,7011105011247,新規,0,2024-11-29,2024-11-29,一般社団法人エスケードリーム２,,その他の設立登記法人,東京都,新宿区,四谷２丁目９番地１５東京ユナイテッド綜合事務所内,,13,104,1600004,,,,,,,2024-11-29,1,,,,,エスケードリームツー,0
1510,7011403004563,新規,0,2024-11-29,2024-11-29,合同会社ＳＨＷＥ　Ｃ,,合同会社,東京都,板橋区,板橋３丁目６番１４号サンシティ一番館４０３号室,,13,119,1730004,,,,,,,2024-11-29,1,,,,,シェーシ,0
1511,7011501031419,新規,0,2024-11-29,2024-11-29,奥秘科技株式会社,,株式会社,東京都,荒川区,南千住３丁目２７－２浅草ビル,,13,118,1160003,,,,,,,2024-11-29,1,,,,,オウヒテクノロジー,0
1513,7011601028240,新規,0,2024-11-29,2024-11-29,ＴＫホールディングス株式会社,,株式会社,東京都,練馬区,大泉学園町３丁目８番８号,,13,120,1780061,,,,,,,2024-11-29,1,,,,,ティーケーホールディングス,0
1514,7011603004529,新規,0,2024-11-29,2024-11-29,ＱＥＭ合同会社,,合同会社,東京都,練馬区,関町南１丁目２番６号,,13,120,1770053,,,,,,,2024-11-29,1,,,,,キューイーエム,0
1521,7013101009571,新規,0,2024-11-29,2024-11-29,株式会社ケバブノトリコ,,株式会社,東京都,あきる野市,秋留４丁目８番地３シャトーアラモード１０１,,13,228,1970828,,,,,,,2024-11-29,1,,,,,ケバブノトリコ,0
1524,7013303007415,新規,0,2024-11-29,2024-11-29,アイシンク合同会社,,合同会社,東京都,豊島区,南大塚３丁目４４－１４－９０１,,13,116,1700005,,,,,,,2024-11-29,1,,,,,アイシンク,0
1526,7020001160289,新規,0,2024-11-29,2024-11-29,株式会社ＧＯＥＮ,,株式会社,神奈川県,横浜市神奈川区,片倉１丁目１９番１１－３０６号,,14,102,2210865,,,,,,,2024-11-29,1,,,,,ゴエン,0
1527,7020001160339,新規,0,2024-11-29,2024-11-29,株式会社ＳＩ　Ｈｏｍｅｓ,,株式会社,神奈川県,横浜市旭区,中希望が丘９３番地１３メゾンドエミー３０２,,14,112,2410825,,,,,,,2024-11-29,1,,,,,エスアイホームズ,0
1528,7020001160363,新規,0,2024-11-29,2024-11-29,ＫＩＴＯＫＡＧｒｏｕｐ株式会社,,株式会社,神奈川県,横浜市青葉区,青葉台１丁目１３番地１青葉台郵便局２Ｆスプラス青葉台,,14,117,2270062,,,,,,,2024-11-29,1,,,,,キトカグループ,0
1529,7020001160388,新規,0,2024-11-29,2024-11-29,株式会社ＢｉｚＮｅｓｔ,,株式会社,神奈川県,横浜市港北区,日吉４丁目１０番２３－２号,,14,109,2230061,,,,,,,2024-11-29,1,,,,,ビズネスト,0
1533,7021001083876,新規,0,2024-11-29,2024-11-29,株式会社アルリーシャ,,株式会社,神奈川県,相模原市中央区,清新２丁目１２番１３－３０２号,,14,152,2520216,,,,,,,2024-11-29,1,,,,,アルリーシャ,0
1545,7030003025571,新規,0,2024-11-29,2024-11-29,合同会社Ｄ’ｓ,,合同会社,埼玉県,東松山市,大字松山２３０９番地３,,11,212,3550005,,,,,,,2024-11-29,1,,,,,ディーズ,0
1546,7030003025596,新規,0,2024-11-29,2024-11-29,合同会社スターフィールド,,合同会社,埼玉県,久喜市,緑１丁目１６番４－１号,,11,232,3491106,,,,,,,2024-11-29,1,,,,,スターフィールド,0
1552,7040003026288,新規,0,2024-11-29,2024-11-29,合同会社ｏｎｅ,,合同会社,千葉県,松戸市,松戸１８１８番地ルフォン松戸ザ・レジデンス２０５号,,12,207,2710092,,,,,,,2024-11-29,1,,,,,ワン,0
1556,7050001055809,新規,0,2024-11-29,2024-11-29,株式会社Ａｓｕｍｏａｒｕ,,株式会社,茨城県,水戸市,筑地町４８７番地,,08,201,3190313,,,,,,,2024-11-29,1,,,,,アスモアル,0
1557,7050001055817,新規,0,2024-11-29,2024-11-29,株式会社みちしるべ,,株式会社,茨城県,土浦市,板谷２丁目３３２２番地２,,08,203,3000007,,,,,,,2024-11-29,1,,,,,ミチシルベ,0
1577,7080101025163,新規,0,2024-11-29,2024-11-29,オープントレーディング株式会社,,株式会社,静岡県,富士市,天間１４１０番地の１,,22,210,4190205,,,,,,,2024-11-29,1,,,,,オープントレーディング,0
1582,7080401027594,新規,0,2024-11-29,2024-11-29,マルトロ株式会社,,株式会社,静岡県,浜松市中央区,鍛冶町１００番地の１ザザシティ浜松中央館Ｂ１Ｆ,,22,138,4300933,,,,,,,2024-11-29,1,,,,,マルトロ,0
1586,7100002003678,新規,0,2024-11-29,2024-11-29,有限会社長野パーレック,,有限会社,長野県,長野市,大字南長野新田町１４５８番地メゾンフォンテーヌ３ＦーＣ,,20,201,3800835,,,,,,,2024-11-29,1,,,,,ナガノパーレック,0
1594,7120001270664,新規,0,2024-11-29,2024-11-29,株式会社叶彩,,株式会社,大阪府,大阪市淀川区,加島４丁目１５番１９号ガレリア加島２０９号,,27,123,5320031,,,,,,,2024-11-29,1,,,,,カナイロ,0
1595,7120001270697,新規,0,2024-11-29,2024-11-29,株式会社ｉｓｍ,,株式会社,大阪府,大阪市中央区,淡路町２丁目５番１６号,,27,128,5410047,,,,,,,2024-11-29,1,,,,,イズム,0
1596,7120001270730,新規,0,2024-11-29,2024-11-29,大銘株式会社,,株式会社,大阪府,大阪市東住吉区,矢田４丁目１７番８号,,27,121,5460023,,,,,,,2024-11-29,1,,,,,ダイメイ,0
1597,7120001270739,新規,0,2024-11-29,2024-11-29,株式会社３８,,株式会社,大阪府,大阪市西区,南堀江４丁目２８番３２－９０３号,,27,106,5500015,,,,,,,2024-11-29,1,,,,,サンパチ,0
1599,7120003028078,新規,0,2024-11-29,2024-11-29,Ｈａｐｐｙ合同会社,,合同会社,大阪府,大阪市東淀川区,淡路２丁目４番７号メゾンフラワー２Ｂ号室,,27,114,5330032,,,,,,,2024-11-29,1,,,,,ハッピー,0
1601,7120005024637,新規,0,2024-11-29,2024-11-29,一般社団法人ル・リアン,,その他の設立登記法人,大阪府,大阪市城東区,放出西３丁目６番１号ファーストパレス４１０号,,27,118,5360011,,,,,,,2024-11-29,1,,,,,ルリアン,0
1605,7120101070675,新規,0,2024-11-29,2024-11-29,株式会社Ｒｅａｌ’Ｅｓｔａｔｅ,,株式会社,大阪府,羽曳野市,はびきの２丁目７番３８号,,27,222,5830872,,,,,,,2024-11-29,1,,,,,リアルエステイト,0
1612,7130001078446,新規,0,2024-11-29,2024-11-29,泉庵株式会社,,株式会社,京都府,京都市左京区,一乗寺北大丸町４０番地ストークマンション３０５,,26,103,6068114,,,,,,,2024-11-29,1,,,,,センアン,0
1613,7130001078454,新規,0,2024-11-29,2024-11-29,プラスモアマネジメント株式会社,,株式会社,京都府,綴喜郡井手町,大字多賀小字谷村１７番地の３,,26,343,6100301,,,,,,,2024-11-29,1,,,,,プラスモアマネジメント,0
1622,7140001136558,新規,0,2024-11-29,2024-11-29,株式会社ｙ’ｓサウンド,,株式会社,兵庫県,南あわじ市,志知松本４１６番地,,28,224,6560481,,,,,,,2024-11-29,1,,,,,ワイズサウンド,0
1623,7140001136566,新規,0,2024-11-29,2024-11-29,株式会社イナホセイル,,株式会社,兵庫県,神戸市兵庫区,五宮町２４番８号,,28,105,6520007,,,,,,,2024-11-29,1,,,,,イナホセイル,0
1625,7150001027707,新規,0,2024-11-29,2024-11-29,株式会社ゆうゆう,,株式会社,奈良県,香芝市,磯壁１丁目１１３１番地,,29,210,6390236,,,,,,,2024-11-29,1,,,,,ユウユウ,0
1642,7180301039275,新規,0,2024-11-29,2024-11-29,エイコウグループ株式会社,,株式会社,愛知県,岡崎市,東牧内町字甲田４５番地,,23,202,4440934,,,,,,,2024-11-29,1,,,,,エイコウグループ,0
1644,7190001031837,新規,0,2024-11-29,2024-11-29,長谷ホールディングス株式会社,,株式会社,三重県,伊賀市,丸柱５６９番地,,24,216,5181325,,,,,,,2024-11-29,1,,,,,ナガタニホールディングス,0
1647,7240001064179,新規,0,2024-11-29,2024-11-29,株式会社トランシード,,株式会社,広島県,尾道市,御調町大町３５‐１,,34,205,7220314,,,,,,,2024-11-29,1,,,,,トランシード,0
1661,7290001108146,新規,0,2024-11-29,2024-11-29,株式会社Ｉｎｔｅｇｒｉｔｙ　ｌｉｆｅ,,株式会社,福岡県,春日市,泉３丁目９９番地,,40,218,8160853,,,,,,,2024-11-29,1,,,,,インテグリティライフ,0
1663,7290005019562,新規,0,2024-11-29,2024-11-29,弁護士法人博多中央総合法律事務所,,その他の設立登記法人,福岡県,福岡市博多区,祇園町１番２０号スタービル博多祇園,,40,132,8120038,,,,,,,2024-11-29,1,,,,,ハカタチュウオウソウゴウホウリツジムショ,0
1672,7350005006273,新規,0,2024-11-29,2024-11-29,特定非営利活動法人フードバンクのべおか,,その他の設立登記法人,宮崎県,延岡市,卸本町１２番９号延岡卸商業センター会館１Ｆ,,45,203,8820855,,,,,,,2024-11-29,1,,,,,フードバンクノベオカ,0
1674,7360003014491,新規,0,2024-11-29,2024-11-29,合同会社三共技研,,合同会社,沖縄県,宮古島市,平良字東仲宗根添１７７５番地１,,47,214,9060011,,,,,,,2024-11-29,1,,,,,サンキョウギケン,0
1683,7430001093159,新規,0,2024-11-29,2024-11-29,株式会社ヴィーヴルスタッド,,株式会社,北海道,日高郡新ひだか町,三石富澤５００番地,,01,610,0593101,,,,,,,2024-11-29,1,,,,,ヴィーヴルスタッド,0
1684,7430001093167,新規,0,2024-11-29,2024-11-29,株式会社ランドワークス,,株式会社,北海道,札幌市東区,北四十八条東２丁目１番３８号,,01,103,0070848,,,,,,,2024-11-29,1,,,,,ランドワークス,0
1688,7440001009527,新規,0,2024-11-29,2024-11-29,株式会社カクイシ石黒商店,,株式会社,北海道,茅部郡鹿部町,字本別４８番地１,,01,343,0411404,,,,,,,2024-11-29,1,,,,,カクイシイシグロショウテン,0
1689,7470001020480,新規,0,2024-11-29,2024-11-29,株式会社風,,株式会社,香川県,観音寺市,木之郷町３０番地６,,37,205,7680051,,,,,,,2024-11-29,1,,,,,カゼ,0
1694,7700150128027,新規,0,2024-11-29,2024-11-29,笙科電子股斌有限公司　日本支店,00137117,外国会社等,神奈川県,大和市,つきみ野１丁目６番地９グランアリーナレジデンス３２９,,14,213,2420002,台湾新竹県竹北市台元街１８号１０階の１、の２,,,,,,2024-11-29,1,,,,,シヨウカデンシコブンユウゲンコウシニホンシテン,0
1702,8010001250247,新規,0,2024-11-29,2024-11-29,騰豊国際株式会社,,株式会社,東京都,千代田区,岩本町３丁目１０－７東自機ビル７Ｆ－５１室,,13,101,1010032,,,,,,,2024-11-29,1,,,,,トウホウコクサイ,0
1703,8010001250305,新規,0,2024-11-29,2024-11-29,ＤＡ‐１株式会社,,株式会社,東京都,千代田区,飯田橋１丁目８番９号ニューシティハイツ飯田橋７０７,,13,101,1020072,,,,,,,2024-11-29,1,,,,,ディーエーワン,0
1705,8010003045645,新規,0,2024-11-29,2024-11-29,合同会社ＪＩＥＮ,,合同会社,東京都,中央区,銀座１丁目１２－４Ｎ＆ＥＢＬＤ．７階,,13,102,1040061,,,,,,,2024-11-29,1,,,,,ジェン,0
1708,8010103002463,新規,0,2024-11-29,2024-11-29,雪岳合同会社,,合同会社,東京都,八王子市,子安町１丁目４８番９号２０２号室,,13,201,1920904,,,,,,,2024-11-29,1,,,,,ユキダケ,0
1713,8010401186710,新規,0,2024-11-29,2024-11-29,株式会社ＤＩＢホールディングス,,株式会社,東京都,港区,芝大門１丁目３番１５号,,13,103,1050012,,,,,,,2024-11-29,1,,,,,ディーアイビーホールディングス,0
1716,8010403033919,新規,0,2024-11-29,2024-11-29,アミーゴエムエルスリー合同会社,,合同会社,東京都,港区,六本木１丁目９番１０号アークヒルズ仙石山森タワー４０階,,13,103,1060032,,,,,,,2024-11-29,1,,,,,アミーゴエムエルスリー,0
1722,8010603011237,新規,0,2024-11-29,2024-11-29,Ｉｎｎｏｓｅｎｓｅ合同会社,,合同会社,東京都,墨田区,千歳３丁目１８番８－９０３号,,13,107,1300025,,,,,,,2024-11-29,1,,,,,イノセンス,0
1732,8010903009534,新規,0,2024-11-29,2024-11-29,合同会社ＧＥＮ,,合同会社,東京都,世田谷区,砧４丁目１８番２０号クラリティア世田谷砧３０２,,13,112,1570073,,,,,,,2024-11-29,1,,,,,ゲン,0
1741,8011001166160,新規,0,2024-11-29,2024-11-29,株式会社ＬＩＮＫ‐ＵＰ,,株式会社,東京都,渋谷区,神南１丁目１１－４ＦＰＧリンクス神南５階,,13,113,1500041,,,,,,,2024-11-29,1,,,,,リンクアップ,0
1744,8011003020472,新規,0,2024-11-29,2024-11-29,Ｇｒａｄｉｆｙ合同会社,,合同会社,東京都,渋谷区,渋谷２丁目１９番１５号宮益坂ビルディング６０９,,13,113,1500002,,,,,,,2024-11-29,1,,,,,グラディファイ,0
1745,8011005010769,新規,0,2024-11-29,2024-11-29,一般社団法人まちあそびラボ,,その他の設立登記法人,東京都,目黒区,目黒本町２丁目２５番１０号,,13,110,1520002,,,,,,,2024-11-29,1,,,,,マチアソビラボ,0
1749,8011501031418,新規,0,2024-11-29,2024-11-29,株式会社ＲＥＦ　Ｊａｐａｎ,,株式会社,東京都,北区,堀船１丁目１番２－２４０１号,,13,117,1140004,,,,,,,2024-11-29,1,,,,,レフジャパン,0
1750,8011603004536,新規,0,2024-11-29,2024-11-29,合同会社孝久,,合同会社,東京都,練馬区,三原台３丁目５番９号,,13,120,1770031,,,,,,,2024-11-29,1,,,,,タカヒサ,0
1751,8011701027868,新規,0,2024-11-29,2024-11-29,株式会社サーバーエッセンス,,株式会社,東京都,江戸川区,瑞江２丁目５番３号グレイス瑞江２階,,13,123,1320011,,,,,,,2024-11-29,1,,,,,,0
1754,8011803006571,新規,0,2024-11-29,2024-11-29,合同会社ヴィラコンフォール２,,合同会社,東京都,足立区,青井１丁目６番１号,,13,121,1200012,,,,,,,2024-11-29,1,,,,,ヴィラコンフォールツー,0
1764,8013101009570,新規,0,2024-11-29,2024-11-29,砂川エンジニアサービス株式会社,,株式会社,東京都,福生市,南田園３丁目１７番地５サンモールハイムハセガワ１Ｆ,,13,218,1970004,,,,,,,2024-11-29,1,,,,,スナガワエンジニアサービス,0
1771,8020001160346,新規,0,2024-11-29,2024-11-29,株式会社スペシャルエキシビジョン,,株式会社,神奈川県,横浜市都筑区,茅ケ崎中央２３番１６号,,14,118,2240032,,,,,,,2024-11-29,1,,,,,スペシャルエキシビジョン,0
1774,8020003027337,新規,0,2024-11-29,2024-11-29,合同会社遠山哲夫,,合同会社,神奈川県,横浜市栄区,桂町５番地４２,,14,115,2470005,,,,,,,2024-11-29,1,,,,,トオヤマテツオ,0
1792,8030001163686,新規,0,2024-11-29,2024-11-29,株式会社リンク,,株式会社,埼玉県,川口市,栄町３丁目１２番６号３階,,11,203,3320017,,,,,,,2024-11-29,1,,,,,リンク,0
1793,8030001163703,新規,0,2024-11-29,2024-11-29,株式会社Ｂｒｉｄｇｅ,,株式会社,埼玉県,さいたま市大宮区,宮町２丁目７６番地２,,11,103,3300802,,,,,,,2024-11-29,1,,,,,ブリッジ,0
1800,8030003025554,新規,0,2024-11-29,2024-11-29,合同会社スリーベルコーポレーション,,合同会社,埼玉県,戸田市,笹目南町３１－２２,,11,224,3350035,,,,,,,2024-11-29,1,,,,,スリーベルコーポレーション,0
1805,8040001136352,新規,0,2024-11-29,2024-11-29,株式会社宮野木産業,,株式会社,千葉県,千葉市稲毛区,宮野木町１１０５番地,,12,103,2630054,,,,,,,2024-11-29,1,,,,,ミヤノギサンギョウ,0
1807,8040003026279,新規,0,2024-11-29,2024-11-29,合同会社アイシスソリューションズ,,合同会社,千葉県,千葉市緑区,あすみが丘８丁目３８番地３０,,12,105,2670066,,,,,,,2024-11-29,1,,,,,アイシスソリューションズ,0
1808,8040003026287,新規,0,2024-11-29,2024-11-29,Ｓｔａｒ　Ｔｈｒｏｗ合同会社,,合同会社,千葉県,千葉市中央区,椿森６丁目７－２８セレナハイム千葉椿森７０９,,12,101,2600042,,,,,,,2024-11-29,1,,,,,スタースロー,0
1810,8050001055799,新規,0,2024-11-29,2024-11-29,農業法人三嶺株式会社,,株式会社,茨城県,常総市,大塚戸町４１１７番地,,08,211,3030045,,,,,,,2024-11-29,1,,,,,ノウギョウホウジンミツミネ,0
1811,8050001055816,新規,0,2024-11-29,2024-11-29,株式会社ＡＫＡ,,株式会社,茨城県,日立市,十王町伊師３４５６番地７,,08,202,3191301,,,,,,,2024-11-29,1,,,,,エーケイエー,0
1837,8120001270622,新規,0,2024-11-29,2024-11-29,国土活性化総研株式会社,,株式会社,大阪府,大阪市北区,梅田１丁目１１番４号大阪駅前第４ビル２階,,27,127,5300001,,,,,,,2024-11-29,1,,,,,コクドカッセイカソウケン,0
1838,8120001270630,新規,0,2024-11-29,2024-11-29,和楽株式会社,,株式会社,大阪府,大阪市中央区,安土町２丁目４番１１－４５０４号,,27,128,5410052,,,,,,,2024-11-29,1,,,,,ワラク,0
1839,8120001270688,新規,0,2024-11-29,2024-11-29,Ｏｓａｋａ　Ｍｏｔｏｒｓ　ＪＰ株式会社,,株式会社,大阪府,大阪市淀川区,西中島５丁目８番２９－８０７号,,27,123,5320011,,,,,,,2024-11-29,1,,,,,オオサカモータースジェイピー,0
1840,8120001270696,新規,0,2024-11-29,2024-11-29,睿育国際株式会社,,株式会社,大阪府,大阪市西区,九条１丁目２７番１４－４０３号,,27,106,5500027,,,,,,,2024-11-29,1,,,,,エイイクコクサイ,0
1841,8120001270713,新規,0,2024-11-29,2024-11-29,株式会社おはなさん,,株式会社,大阪府,大阪市淀川区,新高３丁目４番２３－５０５,,27,123,5320033,,,,,,,2024-11-29,1,,,,,オハナサン,0
1843,8120003028069,新規,0,2024-11-29,2024-11-29,合同会社Ｆｕｌｌ　Ｈｏｕｓｅ,,合同会社,大阪府,大阪市中央区,谷町９丁目２番１４中田東海ビル３０２号,,27,128,5420012,,,,,,,2024-11-29,1,,,,,フルハウス,0
1850,8140001136573,新規,0,2024-11-29,2024-11-29,株式会社Ｍａｎｙ　ｓｍｉｌｅ,,株式会社,兵庫県,神戸市西区,美賀多台８丁目１番地の２,,28,111,6512277,,,,,,,2024-11-29,1,,,,,メニースマイル,0
1851,8140001136581,新規,0,2024-11-29,2024-11-29,優新株式会社,,株式会社,兵庫県,西宮市,今津曙町６番９号ダイコービル１０２号室,,28,204,6638214,,,,,,,2024-11-29,1,,,,,ユウシン,0
1853,8140003021377,新規,0,2024-11-29,2024-11-29,Ｔ・Ｍフーズ合同会社,,合同会社,兵庫県,たつの市,新宮町佐野３７７番地７,,28,229,6794325,,,,,,,2024-11-29,1,,,,,ティエムフーズ,0
1854,8150001027706,新規,0,2024-11-29,2024-11-29,株式会社ＣＲＥＡＴＥＲＳＪＡＭ,,株式会社,奈良県,橿原市,内膳町４丁目４番８号林ビル２Ｆ,,29,205,6340804,,,,,,,2024-11-29,1,,,,,クリエイターズジャム,0
1860,8180001164380,新規,0,2024-11-29,2024-11-29,株式会社プライム,,株式会社,愛知県,弥富市,狐地３丁目１－１,,23,235,4980051,,,,,,,2024-11-29,1,,,,,プライム,0
1864,8190001031836,新規,0,2024-11-29,2024-11-29,株式会社Ｋａｔｏｈカンパニー,,株式会社,三重県,鈴鹿市,西条１丁目６番２０号,,24,207,5130809,,,,,,,2024-11-29,1,,,,,カトーカンパニー,0
1867,8200001043185,新規,0,2024-11-29,2024-11-29,株式会社ジラソーレ,,株式会社,岐阜県,羽島郡岐南町,野中６丁目１０３番地１,,21,302,5016004,,,,,,,2024-11-29,1,,,,,ジラソーレ,0
1868,8210001019985,新規,0,2024-11-29,2024-11-29,株式会社ＳＥＣＯＮＤ,,株式会社,福井県,福井市,和田東１丁目７０４番地,,18,201,9188237,,,,,,,2024-11-29,1,,,,,セカンド,0
1872,8240001064178,新規,0,2024-11-29,2024-11-29,株式会社Ｍｙ　ｏｗｎ　ｌｉｆｅ,,株式会社,広島県,広島市東区,光町１丁目２番１１－１１０４号,,34,102,7320052,,,,,,,2024-11-29,1,,,,,マイオウンライフ,0
1883,8290001108161,新規,0,2024-11-29,2024-11-29,吉岡株式会社,,株式会社,福岡県,福岡市南区,長住１丁目４－２９,,40,134,8111362,,,,,,,2024-11-29,1,,,,,ヨシオカ,0
1884,8290003016131,新規,0,2024-11-29,2024-11-29,合同会社九州総合サービス,,合同会社,福岡県,福岡市城南区,神松寺２丁目１６番８号ライオンズマンション神松寺２０４号室,,40,136,8140121,,,,,,,2024-11-29,1,,,,,キュウシュウソウゴウサービス,0
1890,8320001020833,新規,0,2024-11-29,2024-11-29,株式会社ＧＲＯＷＴＨ,,株式会社,大分県,竹田市,大字拝田原４９８番地１,,44,208,8780025,,,,,,,2024-11-29,1,,,,,グロース,0
1898,8330003010658,新規,0,2024-11-29,2024-11-29,合同会社ウォームハート,,合同会社,熊本県,熊本市北区,八景水谷３丁目１０番５６号,,43,105,8618064,,,,,,,2024-11-29,1,,,,,ウォームハート,0
1901,8360003014482,新規,0,2024-11-29,2024-11-29,Ｏｏｒｉｓｉｎｇ合同会社,,合同会社,沖縄県,那覇市,松川２丁目１５番１７号パレスコート６０１,,47,201,9020062,,,,,,,2024-11-29,1,,,,,オーライジング,0
1904,8370001051989,新規,0,2024-11-29,2024-11-29,ＴＩＧＡマシンシステム株式会社,,株式会社,宮城県,仙台市太白区,長町南３丁目３８－８－１０７,,04,104,9820012,,,,,,,2024-11-29,1,,,,,ティガマシンシステム,0
1906,8370003006842,新規,0,2024-11-29,2024-11-29,合同会社Ｌｉａｎ,,合同会社,宮城県,塩竈市,一森山４番２５号,,04,203,9850074,,,,,,,2024-11-29,1,,,,,リアン,0
1912,8420005007932,新規,0,2024-11-29,2024-11-29,一般社団法人Ｓ＆Ｎ,,その他の設立登記法人,青森県,弘前市,大字中野１丁目９番地２,,02,202,0368155,,,,,,,2024-11-29,1,,,,,エスアンドエヌ,0
1917,8430003017032,新規,0,2024-11-29,2024-11-29,合同会社サポスケ,,合同会社,北海道,札幌市清田区,平岡八条１丁目１０－５,,01,110,0040878,,,,,,,2024-11-29,1,,,,,サポスケ,0
1918,8440001009526,新規,0,2024-11-29,2024-11-29,株式会社Ｒｏｏｔｓ,,株式会社,北海道,函館市,石川町３４０―１３,,01,202,0410802,,,,,,,2024-11-29,1,,,,,ルーツ,0
1926,8700150128026,新規,0,2024-11-29,2024-11-29,Ｌ＆Ｔ　ＳＥＭＩＣＯＮＤＵＣＴＯＲ　ＴＥＣＨＮＯＬＯＧＩＥＳ　ＬＩＭＩＴＥＤ,,外国会社等,東京都,千代田区,大手町１丁目３番１号　ＪＡビル１３階,,13,101,1000004,エルアンドティハウス、エヌエムマルグ、バラルドエステイト、ムンバイジーピーオー、ムンバイ、ムンバイ－４００００１、マハラシュトラ州、インド共和国,,,,,,2024-11-29,1,,,,,エルアンドテイセミコンダクターテクノロジーズリミテツド,0
1938,9010001250312,新規,0,2024-11-29,2024-11-29,株式会社ＷＹＴ,,株式会社,東京都,中央区,日本橋室町１丁目１１番１２号日本橋水野ビル７階,,13,102,1030022,,,,,,,2024-11-29,1,,,,,ダブルワイティー,0
1942,9010003045660,新規,0,2024-11-29,2024-11-29,アールデパートメント合同会社,,合同会社,東京都,中央区,日本橋兜町１７－２兜町第６葉山ビル４Ｆ,,13,102,1030026,,,,,,,2024-11-29,1,,,,,アールデパートメント,0
1945,9010103002462,新規,0,2024-11-29,2024-11-29,合同会社セズヴァ,,合同会社,東京都,八王子市,新町２番５号コスモリード八王子１階,,13,201,1920065,,,,,,,2024-11-29,1,,,,,セズヴァ,0
1950,9010401186718,新規,0,2024-11-29,2024-11-29,株式会社不老不死研究所,,株式会社,東京都,港区,虎ノ門４丁目１番１号,,13,103,1050001,,,,,,,2024-11-29,1,,,,,フロウフシケンキュウジョ,0
1951,9010401186726,新規,0,2024-11-29,2024-11-29,株式会社ＳｏＡｉ不動産,,株式会社,東京都,港区,北青山１丁目３番１号アールキューブ青山３階,,13,103,1070061,,,,,,,2024-11-29,1,,,,,ソウアイフドウサン,0
1952,9010401186734,新規,0,2024-11-29,2024-11-29,株式会社ｍｕｓｅ,,株式会社,東京都,港区,南青山３丁目１番３６号青山丸竹ビル６階,,13,103,1070062,,,,,,,2024-11-29,1,,,,,ミューズ,0
1953,9010401186750,新規,0,2024-11-29,2024-11-29,ＧＣＪＧ４４株式会社,,株式会社,東京都,港区,元赤坂１丁目１番８号株式会社赤坂国際会計内,,13,103,1070051,,,,,,,2024-11-29,1,,,,,ジーシージェイジーフォーティーフォー,0
1956,9010403033876,新規,0,2024-11-29,2024-11-29,ＭＡＲＩＮ　ＰＬＡＮＥＴ合同会社,,合同会社,東京都,港区,浜松町２丁目２番１５号浜松町ダイヤビル２Ｆ,,13,103,1050013,,,,,,,2024-11-29,1,,,,,マリンプラネット,0
1957,9010403033918,新規,0,2024-11-29,2024-11-29,アミーゴエムエルツー合同会社,,合同会社,東京都,港区,六本木１丁目９番１０号アークヒルズ仙石山森タワー４０階,,13,103,1060032,,,,,,,2024-11-29,1,,,,,アミーゴエムエルツー,0
1958,9010405023850,新規,0,2024-11-29,2024-11-29,一般社団法人アミーゴ,,その他の設立登記法人,東京都,港区,六本木１丁目９番１０号アークヒルズ仙石山森タワー４０階,,13,103,1060032,,,,,,,2024-11-29,1,,,,,アミーゴ,0
1963,9010603011236,新規,0,2024-11-29,2024-11-29,丸大合同会社,,合同会社,東京都,江東区,東砂１丁目１－１－１３１,,13,108,1360074,,,,,,,2024-11-29,1,,,,,マルダイ,0
1965,9010703007480,新規,0,2024-11-29,2024-11-29,合同会社Ｃ．Ａアルマダ,,合同会社,東京都,品川区,西中延３丁目１５番３号,,13,109,1420054,,,,,,,2024-11-29,1,,,,,シーエーアルマダ,0
1970,9010903009491,新規,0,2024-11-29,2024-11-29,合同会社メディアＣ,,合同会社,東京都,世田谷区,深沢４丁目４番１６号エムライン深沢１０６,,13,112,1580081,,,,,,,2024-11-29,1,,,,,メディアシー,0
1971,9010903009525,新規,0,2024-11-29,2024-11-29,アニューレ合同会社,,合同会社,東京都,世田谷区,経堂３丁目２－９,,13,112,1560052,,,,,,,2024-11-29,1,,,,,アニューレ,0
1985,9011101109745,新規,0,2024-11-29,2024-11-29,株式会社ＲＩＣＯ,,株式会社,東京都,新宿区,愛住町１５番地,,13,104,1600005,,,,,,,2024-11-29,1,,,,,リコ,0
1986,9011101109753,新規,0,2024-11-29,2024-11-29,株式会社オロチワークス,,株式会社,東京都,新宿区,西落合２丁目１０番１１号,,13,104,1610031,,,,,,,2024-11-29,1,,,,,オロチワークス,0
1987,9011101109778,新規,0,2024-11-29,2024-11-29,株式会社ＨＲ,,株式会社,東京都,新宿区,歌舞伎町２丁目４番３－７５２号,,13,104,1600021,,,,,,,2024-11-29,1,,,,,エイチアール,0
1991,9011301030180,新規,0,2024-11-29,2024-11-29,株式会社Ｍｉｌｌｉｏｎ　Ｆｉｅｌｄ,,株式会社,東京都,杉並区,阿佐谷北２丁目２５－１６,,13,115,1660001,,,,,,,2024-11-29,1,,,,,ミリオンフィールド,0
2002,9012301014173,新規,0,2024-11-29,2024-11-29,株式会社ＤＥＣＯＬＡ,,株式会社,東京都,町田市,中町１丁目２９番５号２Ｆ,,13,209,1940021,,,,,,,2024-11-29,1,,,,,デコラ,0
2013,9013301053442,新規,0,2024-11-29,2024-11-29,Ｓｔａｙｈｕｎｇｒｙ株式会社,,株式会社,東京都,豊島区,池袋２丁目３３番１４号－２Ｆ,,13,116,1710014,,,,,,,2024-11-29,1,,,,,ステイハングリー,0
2014,9013303007413,新規,0,2024-11-29,2024-11-29,合同会社いぶてん,,合同会社,東京都,豊島区,高松２丁目１４－７,,13,116,1710042,,,,,,,2024-11-29,1,,,,,イブテン,0
2017,9020001160312,新規,0,2024-11-29,2024-11-29,株式会社アトラストスタジオ,,株式会社,神奈川県,横浜市神奈川区,金港町５－１４クアドリフォリオ８階,,14,102,2210056,,,,,,,2024-11-29,1,,,,,アトラストスタジオ,0
2018,9020001160329,新規,0,2024-11-29,2024-11-29,株式会社ＳＨ,,株式会社,神奈川県,横浜市神奈川区,金港町５－１４クアドリフォリオ８階,,14,102,2210056,,,,,,,2024-11-29,1,,,,,エスエイチ,0
2019,9020001160337,新規,0,2024-11-29,2024-11-29,株式会社リダウトスタジオ,,株式会社,神奈川県,横浜市青葉区,荏田町３５３番地１東急ドエル江田ビレジＢ棟１００３号,,14,117,2250013,,,,,,,2024-11-29,1,,,,,リダウトスタジオ,0
2020,9020001160345,新規,0,2024-11-29,2024-11-29,株式会社計進テクノ,,株式会社,神奈川県,横浜市神奈川区,西寺尾３丁目６番６号,,14,102,2210001,,,,,,,2024-11-29,1,,,,,ケイシンテクノ,0
2021,9020001160353,新規,0,2024-11-29,2024-11-29,株式会社ノンフィクション,,株式会社,神奈川県,横浜市港南区,大久保３丁目２２番２号シャンテ・ルミエール１０２,,14,111,2330007,,,,,,,2024-11-29,1,,,,,ノンフィクション,0
2022,9020001160361,新規,0,2024-11-29,2024-11-29,株式会社ＵＰメンテナンス,,株式会社,神奈川県,横浜市港北区,新横浜３丁目９番５号,,14,109,2220033,,,,,,,2024-11-29,1,,,,,アップメンテナンス,0
2023,9020001160378,新規,0,2024-11-29,2024-11-29,ＴＶＣ株式会社,,株式会社,神奈川県,横浜市青葉区,田奈町３０番地２０,,14,117,2270064,,,,,,,2024-11-29,1,,,,,ティーヴィーシー,0
2024,9020001160394,新規,0,2024-11-29,2024-11-29,株式会社ＳＣネットワーク,,株式会社,神奈川県,横浜市西区,みなとみらい２丁目２番１号横浜ランドマークタワー４２階,,14,103,2200012,,,,,,,2024-11-29,1,,,,,エスシーネットワーク,0
2028,9020005016618,新規,0,2024-11-29,2024-11-29,一般社団法人アルテサロンホールディングス,,その他の設立登記法人,神奈川県,横浜市中区,翁町１丁目４番１号,,14,104,2310028,,,,,,,2024-11-29,1,,,,,アルテサロンホールディングス,0
2031,9021001083866,新規,0,2024-11-29,2024-11-29,株式会社大恵興業,,株式会社,神奈川県,相模原市緑区,上九沢３８５番地１,,14,151,2520136,,,,,,,2024-11-29,1,,,,,ダイケイコウギョウ,0
2032,9021001083874,新規,0,2024-11-29,2024-11-29,株式会社凰桂,,株式会社,神奈川県,相模原市南区,相模台２丁目６番１５号ポルシェ小田急相模原１０１,,14,153,2520321,,,,,,,2024-11-29,1,,,,,オウカ,0
2042,9030001163669,新規,0,2024-11-29,2024-11-29,株式会社クロスオーバー,,株式会社,埼玉県,川口市,大字木曽呂６９２番地の３,,11,203,3330831,,,,,,,2024-11-29,1,,,,,クロスオーバー,0
2043,9030001163685,新規,0,2024-11-29,2024-11-29,ＥＭＩＲ　ＡＵＴＯ株式会社,,株式会社,埼玉県,川口市,青木２丁目４番１７号,,11,203,3320031,,,,,,,2024-11-29,1,,,,,エミルオート,0
2044,9030001163693,新規,0,2024-11-29,2024-11-29,株式会社セイレン,,株式会社,埼玉県,朝霞市,泉水１丁目５番１号,,11,227,3510024,,,,,,,2024-11-29,1,,,,,セイレン,0
2049,9030003025586,新規,0,2024-11-29,2024-11-29,合同会社染谷電気,,合同会社,埼玉県,さいたま市大宮区,大成町１丁目４３６番地,,11,103,3300852,,,,,,,2024-11-29,1,,,,,ソメヤデンキ,0
2050,9030003025594,新規,0,2024-11-29,2024-11-29,合同会社自空間,,合同会社,埼玉県,熊谷市,妻沼１３７２－２,,11,202,3600201,,,,,,,2024-11-29,1,,,,,ジクウカン,0
2065,9040001136351,新規,0,2024-11-29,2024-11-29,株式会社１３８ｓｔａｇｅ,,株式会社,千葉県,長生郡一宮町,一宮３７５５番地２,,12,421,2994301,,,,,,,2024-11-29,1,,,,,イチノミヤステージ,0
2066,9040003026253,新規,0,2024-11-29,2024-11-29,ＥＷＥクリエーション合同会社,,合同会社,千葉県,市川市,南八幡４丁目１１－１２,,12,203,2720023,,,,,,,2024-11-29,1,,,,,イーダブルイークリエーション,0
2067,9040003026286,新規,0,2024-11-29,2024-11-29,合同会社カオコヨ,,合同会社,千葉県,市川市,本北方３丁目１０番２４号,,12,203,2720816,,,,,,,2024-11-29,1,,,,,カオコヨ,0
2074,9070001042407,新規,0,2024-11-29,2024-11-29,株式会社トラストテクノ,,株式会社,群馬県,伊勢崎市,境伊与久１２７１番地１,,10,204,3700105,,,,,,,2024-11-29,1,,,,,トラストテクノ,0
2080,9090001019023,新規,0,2024-11-29,2024-11-29,株式会社再工,,株式会社,山梨県,大月市,猿橋町藤崎９８番地１７,,19,206,4090612,,,,,,,2024-11-29,1,,,,,サイコウ,0
2091,9120001270489,新規,0,2024-11-29,2024-11-29,ｓｅｂｏ株式会社,,株式会社,大阪府,大阪市生野区,巽北１丁目１番１号２Ｆ－Ｇ,00137177,27,116,5440004,,,,,,,2024-11-29,1,,,,,セボ,0
2092,9120001270670,新規,0,2024-11-29,2024-11-29,株式会社大慎,,株式会社,大阪府,大阪市中央区,千日前１丁目６番１０号,,27,128,5420074,,,,,,,2024-11-29,1,,,,,ダイシン,0
2093,9120001270729,新規,0,2024-11-29,2024-11-29,株式会社にじいろ,,株式会社,大阪府,大阪市西成区,玉出西２丁目１番４号,,27,122,5570045,,,,,,,2024-11-29,1,,,,,ニジイロ,0
2094,9120001270737,新規,0,2024-11-29,2024-11-29,澤沐株式会社,,株式会社,大阪府,大阪市住之江区,御崎５丁目１４番２１号,,27,125,5590013,,,,,,,2024-11-29,1,,,,,サワモク,0
2096,9120003028068,新規,0,2024-11-29,2024-11-29,合同会社ＫＹＯコンサルティング,,合同会社,大阪府,大阪市中央区,常盤町２丁目２番５－２６０３号,,27,128,5400028,,,,,,,2024-11-29,1,,,,,ケーワイオーコンサルティング,0
2097,9120003028076,新規,0,2024-11-29,2024-11-29,家具レンタルフィフス合同会社,,合同会社,大阪府,大阪市中央区,北浜３丁目５番２２号オリックス淀屋橋ビル７階,,27,128,5410041,,,,,,,2024-11-29,1,,,,,カグレンタルフィフス,0
2098,9120101070665,新規,0,2024-11-29,2024-11-29,株式会社ツースリー,,株式会社,大阪府,泉大津市,末広町１丁目４番１４号,,27,206,5950002,,,,,,,2024-11-29,1,,,,,ツースリー,0
2102,9130001078460,新規,0,2024-11-29,2024-11-29,株式会社Ｌｏｃａｔｅｌｌ　Ｃａｒｅｅｒ,,株式会社,京都府,福知山市,字堀２５１３,,26,201,6200000,,,,,,,2024-11-29,1,,,,,ロカテルキャリア,0
2103,9130001078477,新規,0,2024-11-29,2024-11-29,柳安株式会社,,株式会社,京都府,京都市南区,東九条宇賀辺町７９番地３、２Ｆ,,26,107,6018021,,,,,,,2024-11-29,1,,,,,リュウアン,0
2108,9140003021368,新規,0,2024-11-29,2024-11-29,合同会社碧,,合同会社,兵庫県,神戸市中央区,海岸通８番,,28,110,6500024,,,,,,,2024-11-29,1,,,,,アオ,0
2116,9180001164371,新規,0,2024-11-29,2024-11-29,株式会社ＡＺＵＲＥ,,株式会社,愛知県,春日井市,如意申町８丁目４番地２１,,23,206,4860918,,,,,,,2024-11-29,1,,,,,アズール,0
2117,9180003027675,新規,0,2024-11-29,2024-11-29,合同会社ＡＲＡＮＣＩＡ,,合同会社,愛知県,名古屋市中区,錦３丁目２番２８号,,23,106,4600003,,,,,,,2024-11-29,1,,,,,アランチャ,0
2119,9180005020851,新規,0,2024-11-29,2024-11-29,一般社団法人壷中の会,,その他の設立登記法人,愛知県,名古屋市東区,葵１丁目３番１５号,,23,102,4610004,,,,,,,2024-11-29,1,,,,,コチュウノカイ,0
2121,9190001031835,新規,0,2024-11-29,2024-11-29,株式会社賢島の里,,株式会社,三重県,志摩市,阿児町神明１１８番地,,24,215,5170502,,,,,,,2024-11-29,1,,,,,カシコノサト,0
2122,9200001043184,新規,0,2024-11-29,2024-11-29,ＡＩＴインターナショナル株式会社,,株式会社,岐阜県,岐阜市,茜部大野２丁目１９２番地２,,21,201,5008261,,,,,,,2024-11-29,1,,,,,エーアイティインターナショナル,0
2125,9200003006602,新規,0,2024-11-29,2024-11-29,合同会社ＣｌｏｕｄＴｒｅｅ,,合同会社,岐阜県,中津川市,付知町１１５６番地３,,21,206,5080351,,,,,,,2024-11-29,1,,,,,クラウドツリー,0
2131,9240001064177,新規,0,2024-11-29,2024-11-29,株式会社３６９発明研究所,,株式会社,広島県,広島市中区,上八丁堀５番２７－１２０１号,,34,101,7300012,,,,,,,2024-11-29,1,,,,,ミロクハツメイケンキュウショ,0
2139,9270005005620,新規,0,2024-11-29,2024-11-29,一般社団法人盛和,,その他の設立登記法人,鳥取県,鳥取市,扇町７５番地２,,31,201,6800846,,,,,,,2024-11-29,1,,,,,セイワ,0
2147,9320005010202,新規,0,2024-11-29,2024-11-29,中山身語正宗津久見教会,,その他の設立登記法人,大分県,津久見市,大字津久見３９９４番地,,44,207,8792421,,,,,,,2024-11-29,1,,,,,ナカヤマシンゴショウツクミキョウカイ,0
2153,9330005010845,新規,0,2024-11-29,2024-11-29,一般社団法人Ｆａｍ　Ｌａｂ８,,その他の設立登記法人,熊本県,八代市,鏡町塩浜１１５番地２,,43,202,8694224,,,,,,,2024-11-29,1,,,,,ファムラボエイト,0
2155,9350005006271,新規,0,2024-11-29,2024-11-29,一般社団法人ＭＳＣ,,その他の設立登記法人,宮崎県,宮崎市,本郷３丁目９番８号,,45,201,8800922,,,,,,,2024-11-29,1,,,,,エムエスシー,0
2158,9370001051988,新規,0,2024-11-29,2024-11-29,株式会社福源,,株式会社,宮城県,仙台市泉区,寺岡４丁目１５－１,,04,105,9813204,,,,,,,2024-11-29,1,,,,,フクゲン,0
2169,9400003003356,新規,0,2024-11-29,2024-11-29,合同会社ハート,,合同会社,岩手県,奥州市,水沢東大通り２丁目２－２,,03,215,0230828,,,,,,,2024-11-29,1,,,,,ハート,0
2173,9430001093165,新規,0,2024-11-29,2024-11-29,株式会社Ｏ．ｄｅ,,株式会社,北海道,札幌市中央区,宮の森一条５丁目１番地６,,01,101,0640951,,,,,,,2024-11-29,1,,,,,オーデ,0
2180,9440001009525,新規,0,2024-11-29,2024-11-29,株式会社ＧＲＤ,,株式会社,北海道,函館市,銭亀町２８３－３,,01,202,0420922,,,,,,,2024-11-29,1,,,,,ジーアールディー,0
2184,9700150056894,新規,0,2024-11-29,2015-10-09,東温市土地改良連絡協議会,,その他,愛媛県,東温市,見奈良５３０番地１,,38,215,7910211,,,,,,,2015-10-09,1,,,,,トウオンシトチカイリヨウレンラクキヨウギカイ,0
2187,9700150128025,新規,0,2024-11-29,2024-11-29,豊田宮上第二土地区画整理組合,,その他,愛知県,豊田市,西町４丁目５番地,,23,211,4710025,,,,,,,2024-11-29,1,,,,,トヨタミヤガミダイニトチクカクセイリクミアイ,0
