sequenceNumber,corporateNumber,process,correct,updateDate,changeDate,name,nameImageId,kind,prefectureName,cityName,streetNumber,addressImageId,prefectureCode,cityCode,postCode,addressOutside,addressOutsideImageId,closeDate,closeCause,successorCorporateNumber,changeCause,assignmentDate,latest,enName,enPrefectureName,enCityName,enAddressOutside,furigana,hihyoji
1,1010001042774,登記記録の閉鎖等,0,2024-07-10,2024-06-28,株式会社研成社,,株式会社,東京都,中央区,日本橋蛎殻町１丁目６番４号,,13,102,1030014,,,2024-06-28,清算の結了等,,,2015-10-05,1,,,,,ケンセイシャ,0
18,1010003031354,登記記録の閉鎖等,0,2024-07-10,2024-06-28,合同会社アリス,,合同会社,東京都,千代田区,丸の内３丁目１番１号東京共同会計事務所内,,13,101,1000005,,,2024-06-28,清算の結了等,,,2019-12-27,1,,,,,アリス,0
34,1010503004603,登記記録の閉鎖等,0,2024-07-10,2024-07-02,ハピネット・ライブエモーション合同会社,,合同会社,東京都,台東区,駒形２丁目４番５号,,13,106,1110043,,,2024-07-02,清算の結了等,,,2016-02-17,1,,,,,ハピネットライブエモーション,0
51,1010901033187,登記記録の閉鎖等,0,2024-07-10,2024-07-04,株式会社オフィスビルディング研究所,,株式会社,東京都,世田谷区,上祖師谷２丁目２番３５－５３７号,,13,112,1570065,,,2024-07-04,清算の結了等,,,2015-10-05,1,,,,,オフィスビルディングケンキュウジョ,0
76,1013302015366,登記記録の閉鎖等,0,2024-07-10,2024-07-01,有限会社ティールート,,有限会社,東京都,豊島区,巣鴨１丁目４１番１８号,,13,116,1700002,,,2024-07-01,清算の結了等,,,2015-10-05,1,,,,,ティールート,0
78,1021001054635,登記記録の閉鎖等,0,2024-07-10,2024-07-05,株式会社心,,株式会社,神奈川県,小田原市,北ノ窪２８５番地の８,,14,206,2500051,,,2024-07-05,清算の結了等,,,2015-10-05,1,,,,,,0
80,1021002017005,登記記録の閉鎖等,0,2024-07-10,2024-07-01,有限会社ベルウッドケアプランセンター,,有限会社,神奈川県,鎌倉市,大船６丁目９番１１号,,14,204,2470056,,,2024-07-01,清算の結了等,,,2015-10-05,1,,,,,ベルウッドケアプランセンター,0
85,1030001008170,登記記録の閉鎖等,0,2024-07-10,2024-07-05,株式会社みどり建設,,株式会社,埼玉県,さいたま市北区,日進町１丁目４９４番地の２４,,11,102,3310823,,,2024-07-05,清算の結了等,,,2015-10-05,1,,,,,ミドリケンセツ,0
94,1030003012765,登記記録の閉鎖等,0,2024-07-10,2024-07-04,合同会社ブリッジ,,合同会社,埼玉県,川越市,宮下町１丁目４番地１,,11,201,3500052,,,2024-07-04,合併による解散等,1030003018671,令和６年７月１日埼玉県川越市野田町二丁目１番地２３合同会社ＳＥＴ（1030003018671）に合併し解散,2018-12-05,1,,,,,ブリッジ,0
95,1030003015223,登記記録の閉鎖等,0,2024-07-10,2024-06-17,エクラス合同会社,,合同会社,埼玉県,さいたま市緑区,大字中尾１８０７番地３,,11,109,3360932,,,2024-06-17,清算の結了等,,,2020-05-27,1,,,,,エクラス,0
123,1070002020055,登記記録の閉鎖等,0,2024-07-10,2024-07-04,有限会社赤堀急送,,有限会社,群馬県,伊勢崎市,下触町８９５番地２,,10,204,3792214,,,2024-07-04,清算の結了等,,,2015-10-05,1,,,,,アカボリキュウソウ,0
128,1100001027469,登記記録の閉鎖等,0,2024-07-10,2024-07-03,琉球やんばるリゾート株式会社,,株式会社,沖縄県,那覇市,久茂地１丁目１番１号－９階,,47,201,9000015,,,2024-07-03,清算の結了等,,,2015-10-05,1,,,,,リュウキュウヤンバルリゾート,0
144,1120103002426,登記記録の閉鎖等,0,2024-07-10,2024-07-05,合同会社ＷＴＥ,,合同会社,大阪府,泉南郡熊取町,つばさが丘西２丁目１５番２号,,27,361,5900443,,,2024-07-05,清算の結了等,,,2016-03-18,1,,,,,ダブリューティーイー,0
146,1120901019456,登記記録の閉鎖等,0,2024-07-10,2024-07-01,株式会社オムテック,,株式会社,大阪府,池田市,空港２丁目１番１１号,,27,204,5630034,,,2024-07-01,合併による解散等,9120901019861,令和６年７月１日大阪府池田市井口堂一丁目９番２１号株式会社阪急阪神エムテック（9120901019861）に合併し解散,2015-10-05,1,,,,,オムテック,0
170,1180002046262,登記記録の閉鎖等,0,2024-07-10,2024-06-28,有限会社アーバン設計,,有限会社,愛知県,名古屋市千種区,春岡１丁目４番８号ＥＳＳＥ池下６０３号,,23,101,4640848,,,2024-06-28,清算の結了等,,,2015-10-05,1,,,,,アーバンセッケイ,0
188,1240001061487,登記記録の閉鎖等,0,2024-07-10,2024-07-01,株式会社胆識,,株式会社,広島県,広島市安佐南区,伴東４丁目１２番５号,,34,105,7313164,,,2024-07-01,清算の結了等,,,2023-05-10,1,,,,,タンシキ,0
199,1290001092180,登記記録の閉鎖等,0,2024-07-10,2024-06-17,株式会社Ｙ・Ｋ,,株式会社,福岡県,那珂川市,片縄７丁目１２番地１,,40,231,8111201,,,2024-06-17,清算の結了等,,,2021-03-04,1,,,,,ワイケー,0
204,1290803003319,登記記録の閉鎖等,0,2024-07-10,2024-06-25,合同会社つばき,,合同会社,福岡県,北九州市八幡西区,熊手１丁目１番４２号よし川ビル３階,,40,109,8060028,,,2024-06-25,清算の結了等,,,2019-04-01,1,,,,,ツバキ,0
205,1300005002753,登記記録の閉鎖等,0,2024-07-10,2024-07-04,医療法人江頭外科内科胃腸科,,その他の設立登記法人,佐賀県,佐賀市,大和町大字尼寺二本松２９０７番地１,,41,201,8400201,,,2024-07-04,清算の結了等,,,2015-10-05,1,,,,,エガシラゲカナイカイチョウカ,0
208,1310001016954,登記記録の閉鎖等,0,2024-07-10,2024-06-28,エムナット株式会社,,株式会社,長崎県,諫早市,小船越町８番地８,,42,204,8540062,,,2024-06-28,清算の結了等,,,2020-11-10,1,,,,,エムナット,0
231,1390002009561,登記記録の閉鎖等,0,2024-07-10,2024-06-25,有限会社辻防水布店,00084936,有限会社,山形県,鶴岡市,三和町１番８号,,06,203,9970818,,,2024-06-25,清算の結了等,,,2015-10-05,1,,,,,ツジボウスイフテン,0
245,1440001006125,登記記録の閉鎖等,0,2024-07-10,2024-07-04,株式会社上杉建設,,株式会社,北海道,二海郡八雲町,熊石平町３２４番地の２１７,,01,346,0430403,,,2024-07-04,清算の結了等,,,2015-10-05,1,,,,,ウエスギケンセツ,0
270,2010401126242,登記記録の閉鎖等,0,2024-07-10,2024-07-01,株式会社サーヴァントライフパートナーズ,,株式会社,東京都,新宿区,新宿７丁目２０番６号大久保マンション１Ｆ,,13,104,1600022,,,2024-07-01,清算の結了等,,,2016-08-03,1,,,,,サーバントライフパートナーズ,0
272,2010401157502,登記記録の閉鎖等,0,2024-07-10,2024-06-26,星野製薬株式会社,,株式会社,東京都,港区,新橋６丁目１２番７号,,13,103,1050004,,,2024-06-26,清算の結了等,,,2021-01-13,1,,,,,ホシノセイヤク,0
273,2010401158772,登記記録の閉鎖等,0,2024-07-10,2024-06-26,松佐製薬株式会社,,株式会社,東京都,港区,新橋６丁目１２番７号,,13,103,1050004,,,2024-06-26,清算の結了等,,,2021-03-15,1,,,,,マツサセイヤク,0
300,2011201023613,登記記録の閉鎖等,0,2024-07-10,2024-07-08,株式会社アルゴナビス,,株式会社,東京都,中野区,中央１丁目３８番１号,,13,114,1640011,,,2024-07-08,合併による解散等,1011201016171,令和６年７月１日東京都中野区中央一丁目３８番１号株式会社ブシロードミュージック（1011201016171）に合併し解散,2022-02-15,1,,,,,アルゴナビス,0
310,2011502012728,登記記録の閉鎖等,0,2024-07-10,2024-07-08,有限会社長嶺製本所,,有限会社,東京都,北区,浮間５丁目１４番２３号,,13,117,1150051,,,2024-07-08,清算の結了等,,,2015-10-05,1,,,,,ナガミネセイホンジョ,0
333,2021001005579,登記記録の閉鎖等,0,2024-07-10,2024-07-02,株式会社シーベルリーフ,,株式会社,神奈川県,藤沢市,片瀬山４丁目２７番３号,,14,205,2510033,,,2024-07-02,清算の結了等,,,2015-10-05,1,,,,,シーベルリーフ,0
345,2030001053793,登記記録の閉鎖等,0,2024-07-10,2024-07-04,株式会社ライズアップ,,株式会社,埼玉県,南埼玉郡宮代町,百間３丁目９番２７号,,11,442,3450801,,,2024-07-04,清算の結了等,,,2015-10-05,1,,,,,ライズアップ,0
346,2030001090630,登記記録の閉鎖等,0,2024-07-10,2024-07-05,株式会社関東ロジテック,,株式会社,埼玉県,日高市,大字高萩６８５番地８,,11,242,3501213,,,2024-07-05,合併による解散等,7010401117955,令和６年７月１日群馬県前橋市下佐鳥町４６８番地の１関東運輸株式会社（7010401117955）に合併し解散,2015-10-05,1,,,,,カントウロジテック,0
372,2080401004664,登記記録の閉鎖等,0,2024-07-10,2024-07-03,株式会社フオルム建築設計室,,株式会社,静岡県,浜松市中央区,佐鳴台２丁目３２番３号,,22,138,4328021,,,2024-07-03,清算の結了等,,,2015-10-05,1,,,,,フオルムケンチクセッケイシツ,0
373,2080402005901,登記記録の閉鎖等,0,2024-07-10,2024-07-04,有限会社西島鉄工所,,有限会社,静岡県,浜松市中央区,大島町４３６番地の２,,22,138,4313112,,,2024-07-04,清算の結了等,,,2015-10-05,1,,,,,ニシジマテッコウショ,0
383,2110005001848,登記記録の閉鎖等,0,2024-07-10,2024-06-25,特定非営利活動法人マザーハート,,その他の設立登記法人,新潟県,新潟市西区,寺尾２０番１７号,,15,107,9502052,,,2024-06-25,清算の結了等,,,2015-10-05,1,,,,,マザーハート,0
384,2110005007936,登記記録の閉鎖等,0,2024-07-10,2024-07-01,來寳院,,その他の設立登記法人,新潟県,岩船郡関川村,大字土沢２１７４番地,,15,581,9593200,,,2024-07-01,清算の結了等,,,2015-10-05,1,,,,,ライホウイン,0
387,2120001025420,登記記録の閉鎖等,0,2024-07-10,2024-07-08,丸善株式会社,,株式会社,大阪府,大阪市天王寺区,上本町８丁目１番５号,,27,109,5430001,,,2024-07-08,清算の結了等,,,2015-10-05,1,,,,,マルゼン,0
404,2120101056456,登記記録の閉鎖等,0,2024-07-10,2024-07-08,株式会社ピーライジング,,株式会社,大阪府,泉南市,樽井４丁目１９１番地,,27,228,5900521,,,2024-07-08,清算の結了等,,,2017-05-08,1,,,,,ピーライジング,0
425,2140002042413,登記記録の閉鎖等,0,2024-07-10,2024-07-03,有限会社文化温泉,,有限会社,兵庫県,尼崎市,東園田町５丁目２６番地の１,,28,202,6610953,,,2024-07-03,清算の結了等,,,2015-10-05,1,,,,,ブンカオンセン,0
428,2150002008396,登記記録の閉鎖等,0,2024-07-10,2024-07-05,有限会社シャロム,,有限会社,奈良県,磯城郡田原本町,大字千代３４６番地の１３,,29,363,6360246,,,2024-07-05,清算の結了等,,,2015-10-05,1,,,,,シャロム,0
441,2180301030569,登記記録の閉鎖等,0,2024-07-10,2024-06-27,株式会社力組,,株式会社,愛知県,豊橋市,老津町字切山８２番地２,,23,201,4413301,,,2024-06-27,清算の結了等,,,2017-07-24,1,,,,,リキグミ,0
444,2190002016957,登記記録の閉鎖等,0,2024-07-10,2024-07-05,有限会社西脇商事,,有限会社,三重県,桑名市,大字東方２８０９番地,,24,205,5110811,,,2024-07-05,清算の結了等,,,2015-10-05,1,,,,,ニシワキショウジ,0
448,2230001013760,登記記録の閉鎖等,0,2024-07-10,2024-07-08,株式会社司,,株式会社,富山県,下新川郡入善町,上野７２３２番地,,16,342,9390642,,,2024-07-08,清算の結了等,,,2015-10-05,1,,,,,ツカサ,0
449,2230002000023,登記記録の閉鎖等,0,2024-07-10,2024-07-08,有限会社スリーステッキ,,有限会社,富山県,富山市,月見町３丁目２９番地,,16,201,9398136,,,2024-07-08,清算の結了等,,,2015-10-05,1,,,,,スリーステッキ,0
467,2290001079598,登記記録の閉鎖等,0,2024-07-10,2024-06-10,株式会社五熱企画,,株式会社,福岡県,筑後市,大字野町６７５番地４,,40,211,8330032,,,2024-06-10,清算の結了等,,,2017-11-07,1,,,,,ゴネツキカク,0
476,2320003002554,登記記録の閉鎖等,0,2024-07-10,2024-07-03,合同会社ＴＫ・ＡＤＶＡＮＣＥ,,合同会社,大分県,大分市,大字千歳１８２９番地の２４,,44,201,8700132,,,2024-07-03,清算の結了等,,,2017-02-23,1,,,,,ティーケイアドバンス,0
487,2350002000515,登記記録の閉鎖等,0,2024-07-10,2024-07-01,有限会社上野旗店,,有限会社,宮崎県,宮崎市,阿波岐原町坂元２０２０番地２,,45,201,8800835,,,2024-07-01,清算の結了等,,,2015-10-05,1,,,,,ウエノハタテン,0
488,2350002018581,登記記録の閉鎖等,0,2024-07-10,2024-07-01,有限会社大平落養鶏場,,有限会社,宮崎県,えびの市,大字原田１３４６番地,,45,209,8894301,,,2024-07-01,清算の結了等,,,2015-10-05,1,,,,,オオデラオトシヨウケイジョウ,0
499,2400002006820,登記記録の閉鎖等,0,2024-07-10,2024-07-01,有限会社金子新聞販売紫波本社,,有限会社,岩手県,紫波郡紫波町,日詰字丸盛２１４番地１,,03,321,0283305,,,2024-07-01,合併による解散等,7400001003855,令和６年７月１日岩手県紫波郡矢巾町大字又兵エ新田第７地割２０３番地３‐１０３株式会社ＩＩＮＡ（7400001003855）に合併し解散,2015-10-05,1,,,,,カネコシンブンハンバイシワホンシャ,0
507,2420002013451,登記記録の閉鎖等,0,2024-07-10,2024-07-05,有限会社シティーガード,,有限会社,青森県,弘前市,大字城東北３丁目５番地１,,02,202,0368092,,,2024-07-05,清算の結了等,,,2015-10-05,1,,,,,シティーガード,0
525,2480003001053,登記記録の閉鎖等,0,2024-07-10,2024-07-04,合同会社ＦＩｏｗｅｒ　ＫＡＺＵ,,合同会社,徳島県,阿南市,羽ノ浦町宮倉羽ノ浦居内９１番地３,,36,204,7791102,,,2024-07-04,清算の結了等,,,2016-10-06,1,,,,,フラワーカズ,0
527,2500005000777,登記記録の閉鎖等,0,2024-07-10,2024-07-02,医療法人福井産婦人科医院,,その他の設立登記法人,愛媛県,松山市,湊町２丁目１番地４,,38,201,7900012,,,2024-07-02,清算の結了等,,,2015-10-05,1,,,,,フクイサンフジンカイイン,0
535,3010003033844,登記記録の閉鎖等,0,2024-07-10,2024-06-28,合同会社ノアガーデン八軒,,合同会社,東京都,中央区,日本橋１丁目４番１号,,13,102,1030027,,,2024-06-28,清算の結了等,,,2020-12-25,1,,,,,ノアガーデンハチケン,0
555,3010601050472,登記記録の閉鎖等,0,2024-07-10,2024-07-05,三日株式会社,,株式会社,東京都,新宿区,赤城下町４５ＫＢＣ－Ｃ－２号,,13,104,1620803,,,2024-07-05,清算の結了等,,,2016-10-07,1,,,,,サンニチ,0
565,3010902011941,登記記録の閉鎖等,0,2024-07-10,2024-07-05,有限会社橋爪眞建築設計事務所,,有限会社,東京都,世田谷区,若林１丁目１９番１０号,,13,112,1540023,,,2024-07-05,清算の結了等,,,2015-10-05,1,,,,,,0
588,3011701017510,登記記録の閉鎖等,0,2024-07-10,2024-07-01,藥玉株式会社,,株式会社,東京都,豊島区,池袋１丁目１番３号,,13,116,1700014,,,2024-07-01,清算の結了等,,,2015-10-05,1,,,,,クスダマ,0
601,3020002025437,登記記録の閉鎖等,0,2024-07-10,2024-06-26,有限会社旭電研,,有限会社,神奈川県,横浜市神奈川区,青木町７番地の６,,14,102,2210057,,,2024-06-26,清算の結了等,,,2015-10-05,1,,,,,,0
609,3021001047174,登記記録の閉鎖等,0,2024-07-10,2024-07-05,株式会社ＳＲＸ,,株式会社,東京都,町田市,忠生１丁目２９番２５号,,13,209,1940035,,,2024-07-05,清算の結了等,,,2015-10-05,1,,,,,エスアールエックス,0
612,3021002062081,登記記録の閉鎖等,0,2024-07-10,2024-07-08,有限会社湘南カンパニー,,有限会社,神奈川県,平塚市,豊原町２９番１６号,,14,203,2540051,,,2024-07-08,清算の結了等,,,2015-10-05,1,,,,,,0
656,3080105005909,登記記録の閉鎖等,0,2024-07-10,2024-07-02,協同組合ふじのくに福祉用具・住環境技術研究所,,その他の設立登記法人,静岡県,沼津市,大岡９０１番地の３,,22,203,4100022,,,2024-07-02,清算の結了等,,,2018-12-28,1,,,,,フジノクニフクシヨウグジュウカンキョウギジュツケンキュウジョ,0
717,3200002022275,登記記録の閉鎖等,0,2024-07-10,2024-07-04,有限会社加藤鉄工所,,有限会社,岐阜県,多治見市,笠原町３２１１番地の１４,,21,204,5070901,,,2024-07-04,清算の結了等,,,2015-10-05,1,,,,,カトウテッコウショ,0
724,3240001054844,登記記録の閉鎖等,0,2024-07-10,2024-07-01,小林ホーム株式会社,,株式会社,広島県,福山市,霞町３丁目３番１号,,34,207,7200812,,,2024-07-01,合併による解散等,3240001031216,令和６年７月１日広島県福山市霞町三丁目３番１号大福ホーム株式会社（3240001031216）に合併し解散,2019-08-28,1,,,,,コバヤシホーム,0
734,3280002000785,登記記録の閉鎖等,0,2024-07-10,2024-07-04,有限会社コーレックス,,有限会社,島根県,松江市,東津田町１２１４番地３,,32,201,6900011,,,2024-07-04,清算の結了等,,,2015-10-05,1,,,,,コーレックス,0
740,3290001082717,登記記録の閉鎖等,0,2024-07-10,2024-06-12,株式会社ＹＥＬＬＯＷ　ＢＡＬＬＯＯＮ　ＪＡＰＡＮ,,株式会社,福岡県,福岡市博多区,博多駅南１丁目１５番２２号,,40,132,8120016,,,2024-06-12,清算の結了等,,,2018-09-12,1,"YELLOW BALLOON JAPAN Co.,Ltd.",Fukuoka,"1-15-22-6F,Hakataeki minami, Hakata ku Fukuoka shi",,イエローバルーンジャパン,0
745,3320001007851,登記記録の閉鎖等,0,2024-07-10,2024-07-01,ホーエイ食品株式会社,,株式会社,大分県,豊後高田市,界２８１番地１,,44,209,8790615,,,2024-07-01,清算の結了等,,,2015-10-05,1,,,,,ホーエイショクヒン,0
746,3320001013437,登記記録の閉鎖等,0,2024-07-10,2024-07-03,株式会社開道,,株式会社,大分県,大分市,大字千歳１８２９番地の５２,,44,201,8700132,,,2024-07-03,清算の結了等,,,2015-10-05,1,,,,,カイドウ,0
805,4010405011182,登記記録の閉鎖等,0,2024-07-10,2024-06-26,一般社団法人日本生活習慣病予防協会,,その他の設立登記法人,東京都,港区,西新橋２丁目８番１１号第７東洋海事ビル８階,,13,103,1050003,,,2024-06-26,清算の結了等,,,2015-10-05,1,,,,,ニホンセイカツシュウカンビョウヨボウキョウカイ,0
810,4010801011380,登記記録の閉鎖等,0,2024-07-10,2024-06-27,丸萬測定株式会社,,株式会社,神奈川県,川崎市幸区,南加瀬２丁目４番１０号,,14,132,2120055,,,2024-06-27,清算の結了等,,,2015-10-05,1,,,,,マルマンソクテイ,0
822,4011001040393,登記記録の閉鎖等,0,2024-07-10,2024-06-24,株式会社西浦事務所,,株式会社,東京都,渋谷区,西原３丁目２６番１３号,,13,113,1510066,,,2024-06-24,清算の結了等,,,2015-10-05,1,,,,,ニシウラジムショ,0
829,4011101038189,登記記録の閉鎖等,0,2024-07-10,2024-07-01,株式会社アーバンビルシステムズ,,株式会社,東京都,新宿区,西新宿７丁目７番２８号,,13,104,1600023,,,2024-07-01,清算の結了等,,,2015-10-05,1,,,,,,0
864,4020001124924,登記記録の閉鎖等,0,2024-07-10,2024-07-04,株式会社Ｔ＆Ｔｍｅｄｉｃａｌ,,株式会社,東京都,江東区,南砂７丁目２番６－４１１号,,13,108,1360076,,,2024-07-04,清算の結了等,,,2018-02-06,1,,,,,ティーアンドティーメディカル,0
865,4021001017044,登記記録の閉鎖等,0,2024-07-10,2024-07-08,高永工業株式会社,00012340,株式会社,神奈川県,相模原市緑区,三井６０５番地２,,14,151,2520151,,,2024-07-08,清算の結了等,,,2015-10-05,1,,,,,,0
867,4021001069928,登記記録の閉鎖等,0,2024-07-10,2024-07-05,中島商事株式会社,,株式会社,神奈川県,平塚市,上吉沢９２３番地の９,,14,203,2591204,,,2024-07-05,清算の結了等,,,2020-05-15,1,,,,,ナカジマショウジ,0
870,4021002059622,登記記録の閉鎖等,0,2024-07-10,2024-07-03,有限会社ホワイトオール,,有限会社,神奈川県,平塚市,立野町３２番１６号,,14,203,2540046,,,2024-07-03,清算の結了等,,,2015-10-05,1,,,,,ホワイトオール,0
883,4030002029568,登記記録の閉鎖等,0,2024-07-10,2024-07-04,有限会社シーエスメタル,,有限会社,埼玉県,所沢市,緑町３丁目２５番１０号,,11,208,3591111,,,2024-07-04,清算の結了等,,,2015-10-05,1,,,,,シーエスメタル,0
911,4060002032156,登記記録の閉鎖等,0,2024-07-10,2024-07-01,有限会社関根工務店,,有限会社,栃木県,栃木市,木野地町２５２番地,,09,203,3280122,,,2024-07-01,清算の結了等,,,2015-10-05,1,,,,,セキネコウムテン,0
912,4070001007059,登記記録の閉鎖等,0,2024-07-10,2024-07-05,株式会社サンパック,,株式会社,群馬県,高崎市,片岡町１丁目６番３号,,10,202,3700862,,,2024-07-05,清算の結了等,,,2015-10-05,1,,,,,,0
971,4150005008391,登記記録の閉鎖等,0,2024-07-10,2024-07-01,一般社団法人日本スピリチュアル医学協会,,その他の設立登記法人,大阪府,摂津市,正雀本町２丁目５番２３号,,27,224,5660024,,,2024-07-01,清算の結了等,,,2015-10-05,1,,,,,ニホンスピリチュアルイガクキョウカイ,0
973,4160005005743,登記記録の閉鎖等,0,2024-07-10,2024-07-03,ＮＰＯ法人預かりものを戻す会,,その他の設立登記法人,滋賀県,彦根市,芹川町１２１２番地（４１６号）,,25,202,5220033,,,2024-07-03,清算の結了等,,,2015-10-05,1,,,,,アズカリモノヲモドスカイ,0
980,4180301031474,登記記録の閉鎖等,0,2024-07-10,2024-07-04,株式会社ＤエレックＳ,,株式会社,愛知県,安城市,和泉町大海古７番地２４,,23,212,4441222,,,2024-07-04,清算の結了等,,,2018-05-09,1,,,,,ディーエレックス,0
988,4210005005135,登記記録の閉鎖等,0,2024-07-10,2024-07-02,特定非営利活動法人ふくい路面電車とまちづくりの会,,その他の設立登記法人,福井県,福井市,種池１丁目１９０５番地の３,,18,201,9188031,,,2024-07-02,清算の結了等,,,2015-10-05,1,,,,,フクイロメンデンシャトマチヅクリノカイ,0
993,4230002006654,登記記録の閉鎖等,0,2024-07-10,2024-07-08,有限会社アバンダンス,,有限会社,富山県,富山市,八尾町新田５１８２番地２,,16,201,9392363,,,2024-07-08,清算の結了等,,,2015-10-05,1,,,,,アバンダンス,0
1002,4290002020476,登記記録の閉鎖等,0,2024-07-10,2024-06-17,有限会社やまかつ,,有限会社,福岡県,福岡市南区,井尻４丁目２番４５号,,40,134,8111302,,,2024-06-17,清算の結了等,,,2015-10-05,1,,,,,ヤマカツ,0
1010,4330002017963,登記記録の閉鎖等,0,2024-07-10,2024-07-01,有限会社松坂屋,,有限会社,熊本県,菊池市,北宮３２３番地１,,43,210,8611305,,,2024-07-01,清算の結了等,,,2015-10-05,1,,,,,マツザカヤ,0
1018,4340002011742,登記記録の閉鎖等,0,2024-07-10,2024-07-01,有限会社大地,,有限会社,鹿児島県,鹿児島市,新屋敷町４番２９号,,46,201,8920838,,,2024-07-01,清算の結了等,,,2015-10-05,1,,,,,ダイチ,0
1040,4410003000927,登記記録の閉鎖等,0,2024-07-10,2024-07-01,合同会社中村工業,,合同会社,秋田県,秋田市,牛島西２丁目４番８－１６号,,05,201,0100063,,,2024-07-01,清算の結了等,,,2015-10-05,1,,,,,ナカムラコウギョウ,0
1041,4410003003079,登記記録の閉鎖等,0,2024-07-10,2024-07-01,合同会社岩佐,,合同会社,秋田県,横手市,条里１丁目１２番４号,,05,203,0130060,,,2024-07-01,清算の結了等,,,2017-04-25,1,,,,,イワサ,0
1051,4430002055739,登記記録の閉鎖等,0,2024-07-10,2024-06-28,有限会社やまに小林水産,,有限会社,北海道,小樽市,祝津３丁目４３５番地,,01,203,0470047,,,2024-06-28,清算の結了等,,,2015-10-05,1,,,,,ヤマニコバヤシスイサン,0
1056,4460002002829,登記記録の閉鎖等,0,2024-07-10,2024-07-08,有限会社マルニ川合建設,,有限会社,北海道,釧路市,武佐２丁目１８番１号,,01,206,0850806,,,2024-07-08,清算の結了等,,,2015-10-05,1,,,,,マルニカワイケンセツ,0
1064,4500002001041,登記記録の閉鎖等,0,2024-07-10,2024-07-02,有限会社いつみサービス,,有限会社,愛媛県,松山市,湊町２丁目６番地２,,38,201,7900012,,,2024-07-02,清算の結了等,,,2015-10-05,1,,,,,イツミサービス,0
1073,5010001093847,登記記録の閉鎖等,0,2024-07-10,2024-07-01,株式会社プロッソ,,株式会社,東京都,新宿区,新宿７丁目１２番１号新宿平和ビル１階,,13,104,1600022,,,2024-07-01,清算の結了等,,,2015-10-05,1,,,,,プロッソ,0
1074,5010001145004,登記記録の閉鎖等,0,2024-07-10,2024-07-01,株式会社ＨＦコンサルティング,,株式会社,東京都,新宿区,大久保２丁目７番１号,,13,104,1690072,,,2024-07-01,清算の結了等,,,2015-10-05,1,,,,,,0
1076,5010001210947,登記記録の閉鎖等,0,2024-07-10,2024-06-28,兆アソシエイツ株式会社,,株式会社,東京都,千代田区,丸の内２丁目２番２号,,13,101,1000005,,,2024-06-28,清算の結了等,,,2020-07-14,1,,,,,キザシアソシエイツ,0
1082,5010005025359,登記記録の閉鎖等,0,2024-07-10,2024-06-28,一般社団法人日本ビジネスアドバイザリー協会,,その他の設立登記法人,東京都,文京区,本郷１丁目２５番５号,,13,105,1130033,,,2024-06-28,清算の結了等,,,2016-05-25,1,,,,,ニホンビジネスアドバイザリーキョウカイ,0
1105,5010502006142,登記記録の閉鎖等,0,2024-07-10,2024-07-02,有限会社清和製作所,,有限会社,東京都,台東区,入谷１丁目２１番６号,,13,106,1100013,,,2024-07-02,清算の結了等,,,2015-10-05,1,,,,,セイワセイサクショ,0
1119,5011001121903,登記記録の閉鎖等,0,2024-07-10,2024-06-24,株式会社アップマガジン,,株式会社,東京都,渋谷区,神宮前１丁目１５－１５,,13,113,1500001,,,2024-06-24,清算の結了等,,,2018-04-27,1,,,,,アップマガジン,0
1124,5011101055654,登記記録の閉鎖等,0,2024-07-10,2024-07-01,株式会社フォレスト,,株式会社,東京都,新宿区,新宿３丁目２７番５号Ｋ３ビル６Ｆ,,13,104,1600022,,,2024-07-01,合併による解散等,2011101006569,令和６年７月１日東京都新宿区新宿三丁目２３番４号株式会社晃商事（2011101006569）に合併し解散,2015-10-05,1,,,,,フォレスト,0
1134,5011601013310,登記記録の閉鎖等,0,2024-07-10,2024-07-08,株式会社Ｓｍｏｏｔｈ　Ｄ,,株式会社,東京都,荒川区,西尾久２丁目２９番２号,,13,118,1160011,,,2024-07-08,清算の結了等,,,2015-10-05,1,,,,,スムースディー,0
1136,5011802001147,登記記録の閉鎖等,0,2024-07-10,2024-07-09,有限会社エヌメディカルプランニング,,有限会社,東京都,足立区,扇１丁目３４番１０号星谷ハイム２番館２０１号,,13,121,1230873,,,2024-07-09,清算の結了等,,,2015-10-05,1,,,,,エスメディカルプランイング,0
1137,5012302005357,登記記録の閉鎖等,0,2024-07-10,2024-07-05,有限会社豊源トレーディング,,有限会社,東京都,町田市,小山町７５０番地１,,13,209,1940212,,,2024-07-05,清算の結了等,,,2015-10-05,1,,,,,ホウゲントレーディング,0
1139,5012401034810,登記記録の閉鎖等,0,2024-07-10,2024-07-08,株式会社サン・ジェルマン,,株式会社,東京都,府中市,緑町３丁目８番地の１,,13,206,1830006,,,2024-07-08,清算の結了等,,,2019-01-07,1,,,,,サンジェルマン,0
1175,5040002060612,登記記録の閉鎖等,0,2024-07-10,2024-06-27,有限会社グロワール,,有限会社,千葉県,佐倉市,山王２丁目４０番地１１,,12,212,2850807,,,2024-06-27,清算の結了等,,,2015-10-05,1,,,,,グロワール,0
1190,5080001019143,登記記録の閉鎖等,0,2024-07-10,2024-06-28,秀和水産株式会社,,株式会社,静岡県,焼津市,小川新町３丁目８番２号,,22,212,4250031,,,2024-06-28,清算の結了等,,,2015-10-05,1,,,,,シュウワスイサン,0
1191,5080101012353,登記記録の閉鎖等,0,2024-07-10,2024-07-08,平成アルミ建材株式会社,,株式会社,静岡県,富士宮市,山宮２０４８番地,,22,207,4180111,,,2024-07-08,合併による解散等,4080001024103,令和６年６月３０日静岡市葵区金座町４番地森田硝子ＥＰ株式会社（4080001024103）に合併し解散,2015-10-05,1,,,,,,0
1193,5080103001354,登記記録の閉鎖等,0,2024-07-10,2024-06-27,合同会社Ｅｑｕａｌ　Ｒｉｇｈｔｓ,,合同会社,静岡県,静岡市葵区,上土１丁目２－１７大昭和ハイツ１０１,,22,101,4200810,,,2024-06-27,清算の結了等,,,2015-10-05,1,,,,,イコールライツ,0
1194,5080401011385,登記記録の閉鎖等,0,2024-07-10,2024-07-03,株式会社ＩＴＳＣ,,株式会社,静岡県,浜松市中央区,布橋２丁目２０番１５号ＯＬＩＶＥ、Ｂ号室,,22,138,4328012,,,2024-07-03,清算の結了等,,,2015-10-05,1,,,,,アイティエスシー,0
1214,5120001141438,登記記録の閉鎖等,0,2024-07-10,2024-07-02,インプランテック・メディカル・サービス株式会社,,株式会社,大阪府,大阪市西区,新町１丁目４番２６号四ツ橋グランドビル５０６号,,27,106,5500013,,,2024-07-02,合併による解散等,4140001057229,令和６年７月１日大阪市西区新町一丁目４番２６号四ツ橋グランドビル５階オルソプロス・メディカル株式会社（4140001057229）に合併し解散,2015-10-05,1,,,,,インプランテックメディカルサービス,0
1234,5122001015613,登記記録の閉鎖等,0,2024-07-10,2024-06-28,株式会社千代製作所,,株式会社,大阪府,大東市,新田北町２番１９号,,27,218,5740052,,,2024-06-28,清算の結了等,,,2015-10-05,1,,,,,センダイセイサクショ,0
1238,5130005008252,登記記録の閉鎖等,0,2024-07-10,2024-07-04,亀岡軽車両管理協同組合,,その他の設立登記法人,京都府,亀岡市,南つつじケ丘桜台２丁目１８番４号,,26,206,6210847,,,2024-07-04,清算の結了等,,,2015-10-05,1,,,,,カメオカケイシャリョウカンリ,0
1258,5200002015269,登記記録の閉鎖等,0,2024-07-10,2024-07-04,有限会社稲富物産,,有限会社,岐阜県,揖斐郡大野町,大字古川２５７番地の８,,21,403,5010502,,,2024-07-04,清算の結了等,,,2015-10-05,1,,,,,,0
1261,5220001009749,登記記録の閉鎖等,0,2024-07-10,2024-07-04,株式会社ほっこくリビング新聞社,,株式会社,石川県,金沢市,南町２番１号,,17,201,9200919,,,2024-07-04,清算の結了等,,,2015-10-05,1,,,,,ホッコクリビングシンブンシャ,0
1283,5310005001081,登記記録の閉鎖等,0,2024-07-10,2024-06-28,学校法人レデンプトール学園,,その他の設立登記法人,長崎県,長崎市,愛宕４丁目３番２号,,42,201,8500822,,,2024-06-28,清算の結了等,,,2015-10-05,1,,,,,レデンプトールガクエン,0
1286,5320002005340,登記記録の閉鎖等,0,2024-07-10,2024-07-02,有限会社ハーネスト,,有限会社,大分県,大分市,新栄町２番６号,,44,201,8700919,,,2024-07-02,清算の結了等,,,2015-10-05,1,,,,,,0
1288,5330002022120,登記記録の閉鎖等,0,2024-07-10,2024-07-01,西島産業有限会社,,有限会社,熊本県,玉名郡長洲町,大字長洲２６４８番地２,,43,368,8690123,,,2024-07-01,清算の結了等,,,2015-10-05,1,,,,,ニシジマサンギョウ,0
1336,5500001013557,登記記録の閉鎖等,0,2024-07-10,2024-07-01,株式会社泰平クリーンサービス,,株式会社,愛媛県,松山市,平和通３丁目１番地１５,,38,201,7900807,,,2024-07-01,合併による解散等,4500001005266,令和６年６月３０日愛媛県松山市平和通三丁目１番地１５株式会社ビジネスホテル泰平（4500001005266）に合併し解散,2015-10-05,1,,,,,タイヘイクリーンサービス,0
1340,6010001056282,登記記録の閉鎖等,0,2024-07-10,2024-07-01,株式会社ブルージュ,,株式会社,東京都,中央区,銀座１丁目７番６号,,13,102,1040061,,,2024-07-01,合併による解散等,4010001041138,令和６年７月１日東京都中央区銀座一丁目７番６号株式会社銀座タニザワ（4010001041138）に合併し解散,2015-10-05,1,,,,,ブルージュ,0
1367,6010405021700,登記記録の閉鎖等,0,2024-07-10,2024-06-26,札幌北３条一般社団法人,,その他の設立登記法人,東京都,港区,元赤坂１丁目１番８号株式会社赤坂国際会計内,,13,103,1070051,,,2024-06-26,清算の結了等,,,2023-01-04,1,,,,,サッポロキタサンジョウ,0
1370,6010601025983,登記記録の閉鎖等,0,2024-07-10,2024-07-04,株式会社アズマ,,株式会社,東京都,墨田区,文花３丁目２１番２１号,,13,107,1310044,,,2024-07-04,清算の結了等,,,2015-10-05,1,,,,,アズマ,0
1373,6010701006652,登記記録の閉鎖等,0,2024-07-10,2024-07-05,東洋クラッチ株式会社,,株式会社,東京都,港区,浜松町１丁目１０番１２号,,13,103,1050013,,,2024-07-05,合併による解散等,1070001015725,令和６年７月１日群馬県桐生市相生町二丁目６７８番地小倉クラッチ株式会社（1070001015725）に合併し解散,2015-10-05,1,,,,,トウヨウクラッチ,0
1389,6011402001579,登記記録の閉鎖等,0,2024-07-10,2024-07-03,有限会社榎本建築,,有限会社,東京都,板橋区,富士見町９番９号,,13,119,1740062,,,2024-07-03,清算の結了等,,,2015-10-05,1,,,,,エノモトケンチク,0
1432,6030003005211,登記記録の閉鎖等,0,2024-07-10,2024-07-03,合同会社ＭＭＧ,,合同会社,埼玉県,川口市,仲町２番３号,,11,203,3320022,,,2024-07-03,清算の結了等,,,2015-10-05,1,,,,,エムエムジー,0
1436,6040001039904,登記記録の閉鎖等,0,2024-07-10,2024-06-26,株式会社九暉商事,00109793,株式会社,千葉県,流山市,駒木台２７６番地の５,,12,220,2700113,,,2024-06-26,清算の結了等,,,2015-10-05,1,,,,,クキショウジ,0
1446,6060002025637,登記記録の閉鎖等,0,2024-07-10,2024-07-01,有限会社益子薬品,,有限会社,栃木県,大田原市,城山２丁目１５番２号,,09,210,3240052,,,2024-07-01,清算の結了等,,,2015-10-05,1,,,,,マシコヤクヒン,0
1453,6080001017294,登記記録の閉鎖等,0,2024-07-10,2024-07-01,日通静岡中部運輸株式会社,,株式会社,静岡県,藤枝市,小石川町３丁目２０番１号,,22,214,4260033,,,2024-07-01,清算の結了等,,,2015-10-05,1,,,,,ニッツウシズオカチュウブウンユ,0
1475,6120001244900,登記記録の閉鎖等,0,2024-07-10,2024-07-02,株式会社ｐａｃｅｂｏｘ,,株式会社,大阪府,大阪市淀川区,西中島５丁目１１番８号,,27,123,5320011,,,2024-07-02,合併による解散等,2140001087145,令和６年７月１日大阪市淀川区西中島五丁目１１番８号株式会社ｉ－ｐｌｕｇ（2140001087145）に合併し解散,2022-04-05,1,,,,,ペースボックス,0
1489,6120102022271,登記記録の閉鎖等,0,2024-07-10,2024-07-03,有限会社ヤマト電設,,有限会社,大阪府,貝塚市,堤３７９番地の２,,27,208,5970054,,,2024-07-03,清算の結了等,,,2015-10-05,1,,,,,ヤマトデンセツ,0
1493,6122005001815,登記記録の閉鎖等,0,2024-07-10,2024-07-05,特定非営利活動法人つどいの広場ぽけっと,,その他の設立登記法人,大阪府,大東市,中垣内２丁目１１番１２号,,27,218,5740013,,,2024-07-05,清算の結了等,,,2015-10-05,1,,,,,ツドイノヒロバポケット,0
1515,6180001103274,登記記録の閉鎖等,0,2024-07-10,2024-06-26,株式会社ドンメーキー,,株式会社,愛知県,一宮市,大赤見字山之子１５９６番地４,,23,203,4910015,,,2024-06-26,清算の結了等,,,2015-10-05,1,,,,,ドンメーキー,0
1516,6180001124551,登記記録の閉鎖等,0,2024-07-10,2024-06-27,ＫＡマネジメント企画株式会社,,株式会社,愛知県,名古屋市天白区,笹原町１８１３番地,,23,116,4680044,,,2024-06-27,清算の結了等,,,2016-08-18,1,,,,,ケーエーマネジメントキカク,0
1526,6240001010506,登記記録の閉鎖等,0,2024-07-10,2024-07-04,株式会社古江クリーニング,,株式会社,広島県,広島市西区,草津東３丁目５番８号,,34,104,7330861,,,2024-07-04,清算の結了等,,,2015-10-05,1,,,,,フルエクリーニング,0
1528,6240005013430,登記記録の閉鎖等,0,2024-07-10,2024-07-03,農事組合法人キララさぎしま,,その他の設立登記法人,広島県,三原市,鷺浦町向田野浦５０７４,,34,204,7230022,,,2024-07-03,清算の結了等,,,2015-10-05,1,,,,,キララサギシマ,0
1537,6290005012931,登記記録の閉鎖等,0,2024-07-10,2024-06-10,特定非営利活動法人大牟田旬鮮組,,その他の設立登記法人,福岡県,大牟田市,大字倉永３９８２番地１,,40,202,8370906,,,2024-06-10,清算の結了等,,,2015-10-05,1,,,,,オオムタシュンセングミ,0
1549,6350003001731,登記記録の閉鎖等,0,2024-07-10,2024-07-01,合資会社吉國商店,,合資会社,宮崎県,串間市,大字奈留５２５０番地,,45,207,8893531,,,2024-07-01,清算の結了等,,,2015-10-05,1,,,,,ヨシクニショウテン,0
1565,6410005004858,登記記録の閉鎖等,0,2024-07-10,2024-06-27,響同設計協同組合,,その他の設立登記法人,秋田県,仙北市,角館町小勝田中川原１３９番地の６,,05,215,0140347,,,2024-06-27,清算の結了等,,,2015-10-05,1,,,,,,0
1570,6470001016703,登記記録の閉鎖等,0,2024-07-10,2024-07-01,株式会社ＡＲＭＳ,,株式会社,香川県,高松市,西内町８番５号ダイアパレス西内町７０２,,37,201,7600022,,,2024-07-01,清算の結了等,,,2018-01-19,1,,,,,アームズ,0
1571,6470001017081,登記記録の閉鎖等,0,2024-07-10,2024-07-01,株式会社ＨＩＬＩＦＥ,,株式会社,香川県,高松市,松島町２丁目８番１５号アルファライフ松島９０２号室,,37,201,7600068,,,2024-07-01,清算の結了等,,,2018-09-20,1,,,,,ハイライフ,0
1601,7010405005215,登記記録の閉鎖等,0,2024-07-10,2024-06-26,一般社団法人デュープレックス・サーティセカンド,,その他の設立登記法人,東京都,港区,赤坂４丁目２番３号,,13,103,1070052,,,2024-06-26,清算の結了等,,,2015-10-05,1,,,,,デュープレックスサーティセカンド,0
1604,7010502008913,登記記録の閉鎖等,0,2024-07-10,2024-07-02,有限会社長谷川商店,,有限会社,東京都,台東区,浅草橋２丁目３番１号,,13,106,1110053,,,2024-07-02,清算の結了等,,,2015-10-05,1,,,,,ハセガワショウテン,0
1613,7010801000034,登記記録の閉鎖等,0,2024-07-10,2024-07-01,株式会社旭製作所,,株式会社,東京都,大田区,中央５丁目９番１３号,,13,111,1430024,,,2024-07-01,清算の結了等,,,2015-10-05,1,,,,,アサヒセイサクショ,0
1622,7011001063796,登記記録の閉鎖等,0,2024-07-10,2024-07-02,株式会社ＭＦＧ,,株式会社,東京都,世田谷区,玉川１丁目１５－２－５０１,,13,112,1580094,,,2024-07-02,清算の結了等,,,2015-10-05,1,,,,,エムエフジー,0
1648,7013101000638,登記記録の閉鎖等,0,2024-07-10,2024-07-08,西都通信株式会社,,株式会社,東京都,福生市,南田園１丁目４番地２３,,13,218,1970004,,,2024-07-08,清算の結了等,,,2015-10-05,1,,,,,,0
1650,7013201014942,登記記録の閉鎖等,0,2024-07-10,2024-06-27,株式会社フロートロン,,株式会社,千葉県,市川市,二俣１丁目５番６号市川ハイマンション９０８号室,,12,203,2720001,,,2024-06-27,清算の結了等,,,2015-10-05,1,,,,,フロートロン,0
1704,7050002042112,登記記録の閉鎖等,0,2024-07-10,2024-07-03,有限会社篠崎管工所,,有限会社,茨城県,筑西市,茂田１１４３番地の１,,08,227,3080811,,,2024-07-03,清算の結了等,,,2015-10-05,1,,,,,シノザキカンコウショ,0
1712,7080001020644,登記記録の閉鎖等,0,2024-07-10,2024-07-01,株式会社美紀ＢＳ,,株式会社,静岡県,静岡市駿河区,谷田１２番７号,,22,102,4228002,,,2024-07-01,清算の結了等,,,2015-12-15,1,,,,,ミキビーエス,0
1725,7120001156608,登記記録の閉鎖等,0,2024-07-10,2024-07-08,株式会社福本サッシ工房,,株式会社,大阪府,守口市,寺内町２丁目５番１９号守口ビル４階,,27,209,5700056,,,2024-07-08,清算の結了等,,,2015-10-05,1,,,,,フクモトサッシコウボウ,0
1728,7120001198071,登記記録の閉鎖等,0,2024-07-10,2024-06-27,ビヨンド株式会社,,株式会社,大阪府,大阪市生野区,小路３丁目１７－１４,,27,116,5440002,,,2024-06-27,清算の結了等,,,2016-05-11,1,,,,,ビヨンド,0
1761,7140005005206,登記記録の閉鎖等,0,2024-07-10,2024-07-05,特定非営利活動法人神戸コミュニティビジネス,,その他の設立登記法人,兵庫県,神戸市須磨区,白川台５丁目７番地の４、５１３号,,28,107,6540103,,,2024-07-05,清算の結了等,,,2015-10-05,1,,,,,コウベコミュニティビジネス,0
1763,7150001014969,登記記録の閉鎖等,0,2024-07-10,2024-07-08,株式会社サプライズ,,株式会社,奈良県,北葛城郡河合町,大字穴闇２３２番地２,,29,427,6360054,,,2024-07-08,合併による解散等,1122001019980,令和６年７月１日大阪府八尾市天王寺屋二丁目６８番地富士開発株式会社（1122001019980）に合併し解散,2015-10-05,1,,,,,サプライズ,0
1783,7190001010865,登記記録の閉鎖等,0,2024-07-10,2024-07-08,ヤマキ産業株式会社,,株式会社,三重県,多気郡明和町,大字平尾４８１番地７,,24,442,5150311,,,2024-07-08,清算の結了等,,,2015-10-05,1,,,,,ヤマキサンギョウ,0
1786,7190002004841,登記記録の閉鎖等,0,2024-07-10,2024-07-08,有限会社双葉電機工業所,,有限会社,三重県,亀山市,みずほ台１４番地の３０１,,24,210,5190105,,,2024-07-08,清算の結了等,,,2015-10-05,1,,,,,フタバデンキコウギョウショ,0
1788,7200002004955,登記記録の閉鎖等,0,2024-07-10,2024-07-05,有限会社ヤマカワ,,有限会社,岐阜県,岐阜市,長良葵町２丁目１５番地,,21,201,5020047,,,2024-07-05,清算の結了等,,,2015-10-05,1,,,,,ヤマカワ,0
1800,7280001006508,登記記録の閉鎖等,0,2024-07-10,2024-07-05,株式会社しまね,,株式会社,島根県,松江市,矢田町１３６番地７,,32,201,6900021,,,2024-07-05,清算の結了等,,,2015-10-05,1,,,,,シマネ,0
1821,7340001000669,登記記録の閉鎖等,0,2024-07-10,2024-07-01,株式会社オーエスティー,,株式会社,鹿児島県,鹿児島市,皇徳寺台３丁目５２番１号,,46,201,8910103,,,2024-07-01,清算の結了等,,,2015-10-05,1,,,,,オーエスティー,0
1822,7340001008563,登記記録の閉鎖等,0,2024-07-10,2024-07-01,株式会社川内建築設計,,株式会社,鹿児島県,薩摩川内市,天辰町２９４５番地,,46,215,8950011,,,2024-07-01,清算の結了等,,,2015-10-05,1,,,,,センダイケンチクセッケイ,0
1823,7350001009404,登記記録の閉鎖等,0,2024-07-10,2024-06-27,株式会社油津ケミカル,,株式会社,宮崎県,日南市,油津４丁目８番２６号,,45,204,8870001,,,2024-06-27,清算の結了等,,,2015-10-05,1,,,,,アブラツケミカル,0
1854,7420002003274,登記記録の閉鎖等,0,2024-07-10,2024-07-03,有限会社北進産業,,有限会社,青森県,東津軽郡外ヶ浜町,字三厩東町１５２番地,00087539,02,307,0301737,,,2024-07-03,清算の結了等,,,2015-10-05,1,,,,,ホクシンサンギョウ,0
1855,7420002006236,登記記録の閉鎖等,0,2024-07-10,2024-07-05,有限会社植木センターしまもり,,有限会社,青森県,八戸市,大字徒士町５番地４,,02,203,0310053,,,2024-07-05,清算の結了等,,,2015-10-05,1,,,,,ウエキセンターシマモリ,0
1869,7430002060892,登記記録の閉鎖等,0,2024-07-10,2024-07-08,株式会社アイ・エス・ウッド,,株式会社,北海道,勇払郡安平町,早来栄町９１番地１０,,01,585,0591505,,,2024-07-08,清算の結了等,,,2015-10-05,1,,,,,アイエスウッド,0
1880,8010001161601,登記記録の閉鎖等,0,2024-07-10,2024-07-04,アイ・アド株式会社,,株式会社,神奈川県,大和市,林間２丁目１９番１７号,,14,213,2420003,,,2024-07-04,合併による解散等,1010001081715,令和６年７月１日東京都町田市金井七丁目１５番７号日本グローバル照明株式会社（1010001081715）に合併し解散,2015-10-05,1,,,,,アイアド,0
1883,8010001219894,登記記録の閉鎖等,0,2024-07-10,2024-06-27,日本漢森生物株式会社,,株式会社,東京都,中央区,東日本橋２丁目２８番５号５０８,,13,102,1030004,,,2024-06-27,清算の結了等,,,2021-07-21,1,,,,,ニホンカンシンセイブツ,0
1886,8010003031570,登記記録の閉鎖等,0,2024-07-10,2024-06-28,合同会社ＳＫＬ,,合同会社,東京都,千代田区,神田神保町１丁目１１番地さくら綜合事務所内,,13,101,1010051,,,2024-06-28,清算の結了等,,,2020-02-06,1,,,,,エスケーエル,0
1888,8010005033598,登記記録の閉鎖等,0,2024-07-10,2024-07-01,ＭＭ５２特定目的会社,,その他の設立登記法人,東京都,千代田区,丸の内３丁目１番１号東京共同会計事務所内,,13,101,1000005,,,2024-07-01,清算の結了等,,,2021-07-08,1,,,,,エムエムゴジュウニ,0
1893,8010102002068,登記記録の閉鎖等,0,2024-07-10,2024-07-08,有限会社北川製作所,,有限会社,東京都,八王子市,弐分方町３６６番地７,,13,201,1930822,,,2024-07-08,清算の結了等,,,2015-10-05,1,,,,,キタガワセイサクショ,0
1897,8010401155211,登記記録の閉鎖等,0,2024-07-10,2024-07-05,ＳＴＳ株式会社,,株式会社,神奈川県,逗子市,小坪３丁目２３番８号,,14,208,2490008,,,2024-07-05,清算の結了等,,,2020-09-14,1,,,,,エスティーエス,0
1907,8010403029256,登記記録の閉鎖等,0,2024-07-10,2024-06-26,札幌北３条合同会社,,合同会社,東京都,港区,元赤坂１丁目１番８号株式会社赤坂国際会計内,,13,103,1070051,,,2024-06-26,清算の結了等,,,2023-01-11,1,,,,,サッポロキタサンジョウ,0
1934,8011001008809,登記記録の閉鎖等,0,2024-07-10,2024-06-24,三桂産業株式会社,,株式会社,東京都,渋谷区,桜丘町２１番１２号,,13,113,1500031,,,2024-06-24,清算の結了等,,,2015-10-05,1,,,,,サンケイサンギョウ,0
1955,8011102018038,登記記録の閉鎖等,0,2024-07-10,2024-07-01,有限会社シティキカクコンサルタント,,有限会社,東京都,新宿区,高田馬場１丁目２３番１４号,,13,104,1690075,,,2024-07-01,清算の結了等,,,2015-10-05,1,,,,,シティキカクコンサルタント,0
1962,8011701016409,登記記録の閉鎖等,0,2024-07-10,2024-07-03,株式会社アルファ・ケア・サービス,,株式会社,東京都,江戸川区,鹿骨５丁目１９－７,,13,123,1330073,,,2024-07-03,清算の結了等,,,2015-10-05,1,,,,,アルファケアサービス,0
1963,8011801006680,登記記録の閉鎖等,0,2024-07-10,2024-07-08,株式会社小国電化,,株式会社,東京都,足立区,関原３丁目１７番１３号,,13,121,1230852,,,2024-07-08,清算の結了等,,,2015-10-05,1,,,,,オグニデンカ,0
1968,8012801004212,登記記録の閉鎖等,0,2024-07-10,2024-07-08,株式会社ティアラ,,株式会社,東京都,立川市,柏町３丁目２８番地の６,,13,202,1900004,,,2024-07-08,清算の結了等,,,2015-10-05,1,,,,,ティアラ,0
1982,8021001070106,登記記録の閉鎖等,0,2024-07-10,2024-07-05,株式会社カガワ,,株式会社,神奈川県,平塚市,紅谷町９番１－１７０４号リーデンスタワー湘南平塚,,14,203,2540043,,,2024-07-05,清算の結了等,,,2020-06-09,1,,,,,カガワ,0
2005,8050002007709,登記記録の閉鎖等,0,2024-07-10,2024-07-08,有限会社クレスト,,有限会社,茨城県,水戸市,見川５丁目２５０番地,,08,201,3100912,,,2024-07-08,清算の結了等,,,2015-10-05,1,,,,,クレスト,0
2007,8060001013731,登記記録の閉鎖等,0,2024-07-10,2024-07-08,キヤノン医療用品株式会社,,株式会社,神奈川県,川崎市中原区,今井上町９番１号,,14,133,2110067,,,2024-07-08,合併による解散等,8060001013525,令和６年７月１日栃木県大田原市下石上１３８５番地キヤノンメディカルシステムズ株式会社（8060001013525）に合併し解散,2015-10-05,1,,,,,キャノンイリョウヨウヒン,0
2008,8060001018185,登記記録の閉鎖等,0,2024-07-10,2024-07-01,株式会社アトムテックス,,株式会社,栃木県,足利市,毛野新町１丁目１６１番地,,09,202,3260016,,,2024-07-01,清算の結了等,,,2015-10-05,1,,,,,アトムテックス,0
2012,8060002000043,登記記録の閉鎖等,0,2024-07-10,2024-07-01,有限会社新成商事,,有限会社,栃木県,宇都宮市,中里町２８６番地２,,09,201,3210414,,,2024-07-01,清算の結了等,,,2015-10-05,1,,,,,シンセイショウジ,0
2013,8060002003005,登記記録の閉鎖等,0,2024-07-10,2024-07-01,有限会社川八商事,,有限会社,栃木県,宇都宮市,岩曽町９４１番地６,,09,201,3210973,,,2024-07-01,清算の結了等,,,2015-10-05,1,,,,,カワハチショウジ,0
2015,8060005009924,登記記録の閉鎖等,0,2024-07-10,2024-07-01,一般社団法人からりこ舎,,その他の設立登記法人,栃木県,足利市,巴町２５３８番地,,09,202,3260805,,,2024-07-01,清算の結了等,,,2021-11-18,1,,,,,カラリコシャ,0
2024,8080103002812,登記記録の閉鎖等,0,2024-07-10,2024-07-05,合同会社伊豆お墓空き家管理サービス,,合同会社,静岡県,下田市,二丁目２‐３１,,22,219,4150022,,,2024-07-05,清算の結了等,,,2023-05-31,1,,,,,イズオハカアキヤカンリサービス,0
2027,8100002029103,登記記録の閉鎖等,0,2024-07-10,2024-06-24,有限会社矢沢企画,,有限会社,長野県,諏訪市,大字中洲２６３４番地１,,20,206,3920015,,,2024-06-24,清算の結了等,,,2015-10-05,1,,,,,ヤザワキカク,0
2029,8110002027485,登記記録の閉鎖等,0,2024-07-10,2024-07-01,有限会社ケー・プランナーズ,,有限会社,新潟県,長岡市,曲新町５９３番地,,15,202,9401103,,,2024-07-01,清算の結了等,,,2015-10-05,1,,,,,ケープランナーズ,0
2044,8120001237811,登記記録の閉鎖等,0,2024-07-10,2024-07-05,株式会社ＢＷ,,株式会社,沖縄県,那覇市,泊２丁目１－１８ｔ＆ｃ泊ビル４Ｆ,,47,201,9000012,,,2024-07-05,清算の結了等,,,2021-05-28,1,,,,,ビーダブリュー,0
2056,8120005011642,登記記録の閉鎖等,0,2024-07-10,2024-07-04,特定非営利活動法人キッズなー,,その他の設立登記法人,大阪府,大阪市東住吉区,北田辺６丁目１６番３－３０２号,,27,121,5460044,,,2024-07-04,清算の結了等,,,2015-10-05,1,,,,,キッズナー,0
2058,8120101049132,登記記録の閉鎖等,0,2024-07-10,2024-07-08,株式会社ピーレオン,,株式会社,大阪府,岸和田市,畑町３８２番地の１,,27,202,5960831,,,2024-07-08,清算の結了等,,,2015-10-05,1,,,,,ピーレオン,0
2069,8130001057069,登記記録の閉鎖等,0,2024-07-10,2024-07-01,株式会社大晃企画,,株式会社,京都府,京都市伏見区,深草西浦町４丁目５１番地１メゾン・ヴィーナス２階,,26,109,6120029,,,2024-07-01,合併による解散等,3130001063963,令和６年７月１日京都市伏見区深草西浦町四丁目５１番地１メゾン・ヴィーナス２階株式会社ザ・ヴィーナス（3130001063963）に合併し解散,2016-03-17,1,,,,,タイコウキカク,0
2073,8140001050774,登記記録の閉鎖等,0,2024-07-10,2024-07-04,蓮池設備工業株式会社,,株式会社,兵庫県,尼崎市,東園田町３丁目４６番地の４,,28,202,6610953,,,2024-07-04,清算の結了等,,,2015-10-05,1,,,,,ハスイケセツビコウギョウ,0
2096,8200001027163,登記記録の閉鎖等,0,2024-07-10,2024-07-04,ビカ・アンフィニ株式会社,,株式会社,岐阜県,岐阜市,川部２丁目１９番地７,,21,201,5011151,,,2024-07-04,清算の結了等,,,2015-10-05,1,,,,,ビカアンフィニ,0
2108,8240002051456,登記記録の閉鎖等,0,2024-07-10,2024-07-04,有限会社マリモ,,有限会社,広島県,尾道市,三軒家町１番１号,,34,205,7220031,,,2024-07-04,清算の結了等,,,2015-10-05,1,,,,,マリモ,0
2112,8250002009503,登記記録の閉鎖等,0,2024-07-10,2024-07-05,下関漬物有限会社,,有限会社,山口県,下関市,中之町８番１０号,,35,201,7500004,,,2024-07-05,清算の結了等,,,2015-10-05,1,,,,,シモノセキツケモノ,0
2133,8290005005421,登記記録の閉鎖等,0,2024-07-10,2024-06-06,医療法人日高耳鼻咽喉科医院,,その他の設立登記法人,福岡県,古賀市,天神５丁目３番２号,,40,223,8113101,,,2024-06-06,清算の結了等,,,2015-10-05,1,,,,,ヒダカジビインコウカイイン,0
2135,8290005008589,登記記録の閉鎖等,0,2024-07-10,2024-06-11,特定非営利活動法人山田筑紫会,,その他の設立登記法人,福岡県,嘉麻市,上山田７１２番地,,40,227,8210012,,,2024-06-11,清算の結了等,,,2015-10-05,1,,,,,ヤマダチクシカイ,0
2152,8360003008518,登記記録の閉鎖等,0,2024-07-10,2024-07-01,合同会社ｓｉｒｏｂａｋｏ,,合同会社,沖縄県,うるま市,みどり町５丁目１１番２０号１階,,47,213,9042215,,,2024-07-01,清算の結了等,,,2017-11-22,1,,,,,シロバコ,0
2154,8360005005983,登記記録の閉鎖等,0,2024-07-10,2024-07-02,一般社団法人ぽっとらっくハート,,その他の設立登記法人,沖縄県,那覇市,字上間５６３番地,,47,201,9020073,,,2024-07-02,清算の結了等,,,2019-03-12,1,,,,,ポットラックハート,0
2195,9010001144274,登記記録の閉鎖等,0,2024-07-10,2024-07-01,株式会社プロッソサーチ,,株式会社,東京都,新宿区,新宿３丁目１２番４号新宿Ｎタウンプラザ３０９号,,13,104,1600022,,,2024-07-01,清算の結了等,,,2015-10-05,1,,,,,プロッソサーチ,0
2204,9010101014534,登記記録の閉鎖等,0,2024-07-10,2024-07-08,株式会社栄和,,株式会社,東京都,八王子市,松木２９－１１第二ノーブルマンション１０３,,13,201,1920362,,,2024-07-08,清算の結了等,,,2021-02-15,1,,,,,エイワ,0
2230,9010701024668,登記記録の閉鎖等,0,2024-07-10,2024-07-03,ＪＭソリューションズ株式会社,,株式会社,埼玉県,さいたま市大宮区,土手町１丁目３８番１号,,11,103,3300801,,,2024-07-03,清算の結了等,,,2015-10-05,1,,,,,,0
2243,9011003015100,登記記録の閉鎖等,0,2024-07-10,2024-06-26,プラスマジック合同会社,,合同会社,東京都,渋谷区,渋谷２丁目１９－１５宮益坂ビルディング６０９,,13,113,1500002,,,2024-06-26,清算の結了等,,,2022-08-24,1,,,,,プラスマジック,0
2245,9011102007312,登記記録の閉鎖等,0,2024-07-10,2024-07-01,有限会社千丸,,有限会社,東京都,新宿区,北新宿４丁目２番１号,,13,104,1690074,,,2024-07-01,清算の結了等,,,2015-10-05,1,,,,,センマル,0
2260,9011801007042,登記記録の閉鎖等,0,2024-07-10,2024-07-08,株式会社苅草学院,,株式会社,東京都,足立区,本木１丁目９番１６号,,13,121,1230853,,,2024-07-08,清算の結了等,,,2015-10-05,1,,,,,カリクサガクイン,0
2270,9013301024625,登記記録の閉鎖等,0,2024-07-10,2024-07-01,株式会社ＴＲプランニング,,株式会社,東京都,豊島区,南大塚３丁目３番４号,,13,116,1700005,,,2024-07-01,清算の結了等,,,2015-10-05,1,,,,,ティーアールプランニング,0
2282,9030001050181,登記記録の閉鎖等,0,2024-07-10,2024-07-02,フリッカーヘルスマネジメント株式会社,,株式会社,東京都,立川市,栄町６丁目１４－４,,13,202,1900003,,,2024-07-02,清算の結了等,,,2015-10-05,1,,,,,フリッカーヘルスマネジメント,0
2286,9030001126650,登記記録の閉鎖等,0,2024-07-10,2024-07-03,株式会社さいたま警備,,株式会社,埼玉県,さいたま市桜区,西堀５丁目８番１号,,11,106,3380832,,,2024-07-03,合併による解散等,9030002018236,令和６年７月１日埼玉県さいたま市桜区西堀五丁目８番１号株式会社さいたま建設（9030002018236）に合併し解散,2018-07-20,1,,,,,サイタマケイビ,0
2299,9030005003136,登記記録の閉鎖等,0,2024-07-10,2024-07-02,コスモ戸田公園ロイヤルフォルム管理組合法人,,その他の設立登記法人,埼玉県,戸田市,本町３丁目１５番１２号コスモ戸田公園ロイヤルフォルム管理事務室,,11,224,3350023,,,2024-07-02,清算の結了等,,,2015-10-05,1,,,,,コスモトダコウエンロイヤルフォルム,0
2300,9040001016487,登記記録の閉鎖等,0,2024-07-10,2024-06-25,株式会社フード・プロデュースＫ,,株式会社,千葉県,千葉市中央区,道場南２丁目６番１５号,,12,101,2600005,,,2024-06-25,清算の結了等,,,2015-10-05,1,,,,,フードプロデュースケイ,0
2301,9040001027716,登記記録の閉鎖等,0,2024-07-10,2024-07-01,株式会社村田製作所,,株式会社,千葉県,市川市,大野町３丁目１９７５番地１,,12,203,2720805,,,2024-07-01,清算の結了等,,,2015-10-05,1,,,,,ムラタセイサクショ,0
2304,9040001067191,登記記録の閉鎖等,0,2024-07-10,2024-07-05,千葉横井醸造株式会社,,株式会社,千葉県,柏市,鷲野谷１０２７番地の１３,,12,217,2701443,,,2024-07-05,合併による解散等,1010601006526,令和６年７月１日東京都江東区新木場四丁目２番１７号横井醸造工業株式会社（1010601006526）に合併し解散,2015-10-05,1,,,,,チバヨコイジョウゾウ,0
2307,9040002082314,登記記録の閉鎖等,0,2024-07-10,2024-06-26,有限会社ＫＤＳ幸甚デンキ,,有限会社,千葉県,茂原市,三ケ谷１９２７番地２,,12,210,2970042,,,2024-06-26,清算の結了等,,,2015-10-05,1,,,,,ケーディエスコウジンデンキ,0
2309,9050001034315,登記記録の閉鎖等,0,2024-07-10,2024-07-05,ミヤシタ住建株式会社,,株式会社,群馬県,前橋市,朝倉町３丁目４８番地６,,10,201,3710811,,,2024-07-05,清算の結了等,,,2015-10-05,1,,,,,ミヤシタジュウケン,0
2314,9060001003847,登記記録の閉鎖等,0,2024-07-10,2024-07-01,株式会社藤野グリーンセンター,,株式会社,栃木県,宇都宮市,雀の宮４丁目５番１２号,,09,201,3210132,,,2024-07-01,清算の結了等,,,2015-10-05,1,,,,,フジノグリーンセンター,0
2325,9070001036598,登記記録の閉鎖等,0,2024-07-10,2024-07-08,株式会社慎成工業,,株式会社,群馬県,前橋市,古市町１３３番地３,,10,201,3710844,,,2024-07-08,清算の結了等,,,2020-02-26,1,,,,,シンセイコウギョウ,0
2352,9120902012246,登記記録の閉鎖等,0,2024-07-10,2024-07-05,有限会社タツミ,,有限会社,大阪府,吹田市,豊津町２１番３７号,,27,205,5640051,,,2024-07-05,清算の結了等,,,2015-10-05,1,,,,,タツミ,0
2362,9150001022350,登記記録の閉鎖等,0,2024-07-10,2024-07-08,株式会社タクミ,,株式会社,奈良県,五條市,田園４丁目１４番の８１,,29,207,6370093,,,2024-07-08,清算の結了等,,,2018-06-27,1,,,,,タクミ,0
2364,9160002009107,登記記録の閉鎖等,0,2024-07-10,2024-07-05,有限会社平林塗装,,有限会社,滋賀県,彦根市,芹川町８３９番地３,,25,202,5220033,,,2024-07-05,清算の結了等,,,2015-10-05,1,,,,,ヒラバヤシトソウ,0
2369,9180001141940,登記記録の閉鎖等,0,2024-07-10,2024-06-25,株式会社イデアル,,株式会社,愛知県,名古屋市千種区,丸山町３丁目８３番地,,23,101,4640843,,,2024-06-25,清算の結了等,,,2020-07-08,1,,,,,イデアル,0
2392,9230002009090,登記記録の閉鎖等,0,2024-07-10,2024-07-04,株式会社ＹＫコーポレーション,,株式会社,富山県,滑川市,中新１２８１番地,,16,206,9360861,,,2024-07-04,清算の結了等,,,2015-10-05,1,,,,,ワイケイコーポレーション,0
2395,9240001054038,登記記録の閉鎖等,0,2024-07-10,2024-07-04,株式会社ＴＡＫｅ設計,,株式会社,広島県,呉市,音戸町波多見６丁目８番９号,,34,202,7371207,,,2024-07-04,清算の結了等,,,2019-03-07,1,,,,,タケセッケイ,0
2418,9290001092181,登記記録の閉鎖等,0,2024-07-10,2024-06-17,株式会社よしうら農園,,株式会社,福岡県,那珂川市,片縄７丁目１２番地１,,40,231,8111201,,,2024-06-17,清算の結了等,,,2021-03-04,1,,,,,ヨシウラノウエン,0
2446,9400002007028,登記記録の閉鎖等,0,2024-07-10,2024-07-01,有限会社アド・サービス,,有限会社,岩手県,紫波郡紫波町,日詰字丸盛２１４番地１,,03,321,0283305,,,2024-07-01,合併による解散等,7400001003855,令和６年７月１日岩手県紫波郡矢巾町大字又兵エ新田第７地割２０３番地３‐１０３株式会社ＩＩＮＡ（7400001003855）に合併し解散,2015-10-05,1,,,,,アドサービス,0
2449,9430001018023,登記記録の閉鎖等,0,2024-07-10,2024-07-04,株式会社ライカ産業,,株式会社,北海道,札幌市中央区,大通東４丁目１番地,,01,101,0600041,,,2024-07-04,清算の結了等,,,2015-10-05,1,,,,,ライカサンギョウ,0
2462,9460301002426,登記記録の閉鎖等,0,2024-07-10,2024-07-08,伊藤組株式会社,,株式会社,北海道,紋別郡湧別町,錦町２７３番地の３,,01,559,0996414,,,2024-07-08,清算の結了等,,,2015-10-05,1,,,,,イトウグミ,0
