sequenceNumber,corporateNumber,process,correct,updateDate,changeDate,name,nameImageId,kind,prefectureName,cityName,streetNumber,addressImageId,prefectureCode,cityCode,postCode,addressOutside,addressOutsideImageId,closeDate,closeCause,successorCorporateNumber,changeCause,assignmentDate,latest,enName,enPrefectureName,enCityName,enAddressOutside,furigana,hihyoji
4,1010001142483,登記記録の閉鎖等,0,2023-07-13,2023-07-10,株式会社ぶどうの樹,,株式会社,東京都,江戸川区,東小岩６丁目１２番５号,,13,123,1330052,,,2023-07-10,合併による解散等,2010001102445,令和５年７月１日東京都千代田区飯田橋三丁目１１番２２号株式会社アートクロス（2010001102445）に合併し解散,2015-10-05,1,,,,,ブドウノキ,0
25,1010405019468,登記記録の閉鎖等,0,2023-07-13,2023-06-27,Ｃｅｍｅｎｔ特定目的会社,,その他の設立登記法人,東京都,港区,虎ノ門５丁目１番４号,,13,103,1050001,,,2023-06-27,清算の結了等,,,2021-02-08,1,,,,,セメント,0
37,1011001063273,登記記録の閉鎖等,0,2023-07-13,2023-07-04,株式会社日本アセットコンサルティング,,株式会社,東京都,渋谷区,桜丘町９番１８－４０４,,13,113,1500031,,,2023-07-04,清算の結了等,,,2015-10-05,1,,,,,ニホンアセットコンサルティング,0
48,1011101090564,登記記録の閉鎖等,0,2023-07-13,2023-07-10,株式会社ワクワクビーム,,株式会社,東京都,新宿区,歌舞伎町２丁目１８番５号プラーズタワー東新宿１３０３号室,,13,104,1600021,,,2023-07-10,清算の結了等,,,2020-03-03,1,,,,,ワクワクビーム,0
61,1011401020394,登記記録の閉鎖等,0,2023-07-13,2023-07-11,株式会社ブルーアシスト,,株式会社,東京都,板橋区,赤塚新町３丁目１番９号マルシェ２０１,,13,119,1750093,,,2023-07-11,清算の結了等,,,2017-07-05,1,,,,,ブルーアシスト,0
64,1011402004900,登記記録の閉鎖等,0,2023-07-13,2023-07-10,有限会社鈴木精工所,,有限会社,東京都,板橋区,徳丸１丁目１３番１２号,,13,119,1750083,,,2023-07-10,清算の結了等,,,2015-10-05,1,,,,,スズキセイコウジョ,0
68,1011802003799,登記記録の閉鎖等,0,2023-07-13,2023-07-11,有限会社清水電気商会,,有限会社,東京都,葛飾区,青戸４丁目２５番１７号,,13,122,1250062,,,2023-07-11,清算の結了等,,,2015-10-05,1,,,,,シミズデンキショウカイ,0
73,1012401029987,登記記録の閉鎖等,0,2023-07-13,2023-07-10,株式会社内山トレーラー,,株式会社,東京都,多摩市,永山４丁目２番地２１－１０５,,13,224,2060025,,,2023-07-10,清算の結了等,,,2015-10-05,1,,,,,,0
76,1012801018631,登記記録の閉鎖等,0,2023-07-13,2023-07-05,株式会社サンワコラボ,,株式会社,東京都,昭島市,昭和町５丁目１１番１２号,,13,207,1960015,,,2023-07-05,清算の結了等,,,2018-03-26,1,,,,,サンワコラボ,0
78,1013201018651,登記記録の閉鎖等,0,2023-07-13,2023-07-11,株式会社メディメイト,,株式会社,東京都,目黒区,東が丘２丁目１番１５号,,13,110,1520021,,,2023-07-11,清算の結了等,,,2015-10-05,1,,,,,メディメイト,0
80,1013303004995,登記記録の閉鎖等,0,2023-07-13,2023-07-10,Ｊｅｅ合同会社,,合同会社,東京都,新宿区,西新宿７丁目７番地２４号,,13,104,1600023,,,2023-07-10,清算の結了等,,,2020-02-25,1,,,,,ジー,0
81,1013401005631,登記記録の閉鎖等,0,2023-07-13,2023-07-05,株式会社地盤技術リサーチ,,株式会社,東京都,日野市,大字川辺堀之内１８８番地の１,,13,212,1910015,,,2023-07-05,清算の結了等,,,2015-10-05,1,,,,,,0
87,1020002076283,登記記録の閉鎖等,0,2023-07-13,2023-07-03,有限会社ＳＩＲＩＵＳ,,有限会社,神奈川県,横浜市中区,太田町３丁目３９番地１,,14,104,2310011,,,2023-07-03,清算の結了等,,,2015-10-05,1,,,,,シリウス,0
89,1021001063256,登記記録の閉鎖等,0,2023-07-13,2023-07-05,株式会社誠建,,株式会社,神奈川県,伊勢原市,岡崎６８６５番地の７,,14,214,2591135,,,2023-07-05,清算の結了等,,,2017-10-05,1,,,,,,0
98,1030002048125,登記記録の閉鎖等,0,2023-07-13,2023-06-26,有限会社渡辺製作所,,有限会社,埼玉県,八潮市,大字八條２７５３番地４２,,11,234,3400801,,,2023-06-26,清算の結了等,,,2015-10-05,1,,,,,,0
113,1050002008226,登記記録の閉鎖等,0,2023-07-13,2023-07-03,有限会社関東商事,,有限会社,茨城県,ひたちなか市,大字馬渡２７３６番地,,08,221,3120012,,,2023-07-03,合併による解散等,9050001007345,令和５年７月１日茨城県ひたちなか市馬渡２７３６番地株式会社平成興業（9050001007345）に合併し解散,2015-10-05,1,,,,,カントウショウジ,0
114,1050002009752,登記記録の閉鎖等,0,2023-07-13,2023-07-03,有限会社ミカワ,,有限会社,茨城県,ひたちなか市,大字馬渡２７３６番地,,08,221,3120012,,,2023-07-03,合併による解散等,9050001007345,令和５年７月１日茨城県ひたちなか市馬渡２７３６番地株式会社平成興業（9050001007345）に合併し解散,2015-10-05,1,,,,,ミカワ,0
129,1090003001003,登記記録の閉鎖等,0,2023-07-13,2023-07-06,合同会社インテリア装備中村,,合同会社,山梨県,山梨市,小原東１０９９番地１,,19,205,4050005,,,2023-07-06,清算の結了等,,,2015-10-05,1,,,,,インテリアソウビナカムラ,0
133,1110002031700,登記記録の閉鎖等,0,2023-07-13,2023-07-03,有限会社武田セット,,有限会社,新潟県,見附市,本町４丁目６番４７号,,15,211,9540053,,,2023-07-03,清算の結了等,,,2015-10-05,1,,,,,タケダセット,0
145,1120002022236,登記記録の閉鎖等,0,2023-07-13,2023-07-11,有限会社聖和建築事務所,,有限会社,大阪府,堺市堺区,御陵通２番２号,,27,141,5900057,,,2023-07-11,清算の結了等,,,2015-10-05,1,,,,,セイワケンチクジムショ,0
174,1160001010774,登記記録の閉鎖等,0,2023-07-13,2023-07-07,株式会社八幡住宅,,株式会社,滋賀県,近江八幡市,西本郷町東１３番地１２,,25,204,5230818,,,2023-07-07,清算の結了等,,,2015-10-05,1,,,,,ハチマンジュウタク,0
225,1350002009433,登記記録の閉鎖等,0,2023-07-13,2023-06-30,有限会社中山青果,,有限会社,宮崎県,西都市,大字三宅２２７５番地,,45,208,8810005,,,2023-06-30,清算の結了等,,,2015-10-05,1,,,,,ナカヤマセイカ,0
240,1420002001696,登記記録の閉鎖等,0,2023-07-13,2023-06-29,有限会社大萬商亊,,有限会社,青森県,青森市,堤町１丁目１２番３号,,02,201,0300812,,,2023-06-29,清算の結了等,,,2015-10-05,1,,,,,ダイマンショウジ,0
249,1470002000017,登記記録の閉鎖等,0,2023-07-13,2023-07-05,有限会社おかりん,,有限会社,香川県,香川郡直島町,４７８２番地１８,,37,364,7613110,,,2023-07-05,清算の結了等,,,2015-10-05,1,,,,,オカリン,0
250,1470002003135,登記記録の閉鎖等,0,2023-07-13,2023-07-04,有限会社石屋ほそかわ,,有限会社,香川県,高松市,牟礼町原５６番地６８,,37,201,7610123,,,2023-07-04,清算の結了等,,,2015-10-05,1,,,,,イシヤホソカワ,0
310,2011101061960,登記記録の閉鎖等,0,2023-07-13,2023-07-04,株式会社データナレッジ,,株式会社,東京都,豊島区,東池袋３丁目１番１号,,13,116,1700013,,,2023-07-04,合併による解散等,8011001017801,令和５年７月１日東京都豊島区東池袋三丁目１番１号株式会社ＮＴＣ（8011001017801）に合併し解散,2015-10-05,1,,,,,データナレッジ,0
315,2011102007599,登記記録の閉鎖等,0,2023-07-13,2023-07-10,有限会社第三書房,,有限会社,東京都,新宿区,山吹町３６３番地野村ビル１階,,13,104,1620801,,,2023-07-10,清算の結了等,,,2015-10-05,1,,,,,ダイサンショボウ,0
322,2011405001200,登記記録の閉鎖等,0,2023-07-13,2023-07-07,特定非営利活動法人暮らしとまちづくり支援機構,,その他の設立登記法人,東京都,新宿区,山吹町３６１誠志堂ビル３階,,13,104,1620801,,,2023-07-07,清算の結了等,,,2015-10-05,1,,,,,クラシトマチヅクリシエンキコウ,0
326,2011502010013,登記記録の閉鎖等,0,2023-07-13,2023-07-07,有限会社東都東販社,,有限会社,東京都,荒川区,東日暮里３丁目３１番７号,,13,118,1160014,,,2023-07-07,清算の結了等,,,2015-10-05,1,,,,,トウトヒガシハンシャ,0
330,2011802028523,登記記録の閉鎖等,0,2023-07-13,2023-07-10,有限会社ケイメイト,,有限会社,東京都,葛飾区,高砂６丁目３番１０号,,13,122,1250054,,,2023-07-10,清算の結了等,,,2015-10-05,1,,,,,,0
335,2012402014723,登記記録の閉鎖等,0,2023-07-13,2023-07-10,有限会社佐々木工業,,有限会社,東京都,小金井市,貫井南町５丁目２１番２２号,,13,210,1840014,,,2023-07-10,清算の結了等,,,2015-10-05,1,,,,,ササキコウギョウ,0
352,2021001022624,登記記録の閉鎖等,0,2023-07-13,2023-07-05,株式会社総合技術開発研究所,,株式会社,神奈川県,秦野市,下大槻６１０番地の１３,,14,211,2570004,,,2023-07-05,清算の結了等,,,2015-10-05,1,,,,,ソウゴウギジュツカイハツケンキュウジョ,0
369,2030003005009,登記記録の閉鎖等,0,2023-07-13,2023-06-26,合同会社丸井玩具製造所,,合同会社,埼玉県,鴻巣市,筑波１丁目８番２３号,,11,217,3690114,,,2023-06-26,清算の結了等,,,2015-10-05,1,,,,,マルイガングセイゾウショ,0
382,2050005012067,登記記録の閉鎖等,0,2023-07-13,2023-07-05,一般社団法人茨城県住宅建設連合会,,その他の設立登記法人,茨城県,水戸市,南町１丁目２番２７号,,08,201,3100021,,,2023-07-05,清算の結了等,,,2017-04-25,1,,,,,イバラキケンジュウタクケンセツレンゴウカイ,0
392,2080101017446,登記記録の閉鎖等,0,2023-07-13,2023-07-10,株式会社プレヴナンス,,株式会社,静岡県,沼津市,上土町５８番地,,22,203,4100802,,,2023-07-10,清算の結了等,,,2015-10-05,1,,,,,プレヴナンス,0
436,2130001027176,登記記録の閉鎖等,0,2023-07-13,2023-06-30,株式会社アトリエＫａｎａｙａ,,株式会社,京都府,京都市下京区,油小路通五条下る中金仏町２１５番地,,26,106,6008332,,,2023-06-30,清算の結了等,,,2015-10-05,1,,,,,アトリエカナヤ,0
450,2140001083854,登記記録の閉鎖等,0,2023-07-13,2023-07-05,エヌテック株式会社,,株式会社,兵庫県,伊丹市,南鈴原１丁目１２１番地の６,,28,207,6640883,,,2023-07-05,清算の結了等,,,2015-10-05,1,,,,,エヌテック,0
476,2180002091175,登記記録の閉鎖等,0,2023-07-13,2023-07-06,有限会社総合保険プランニング,,有限会社,愛知県,海部郡蟹江町,城４丁目４１１番地山田ビル２階,,23,425,4970040,,,2023-07-06,清算の結了等,,,2015-10-05,1,,,,,ソウゴウホケンプランニング,0
480,2180301028472,登記記録の閉鎖等,0,2023-07-13,2023-07-03,株式会社フォレストコーポレーション,,株式会社,愛知県,豊橋市,西松山町３番地レジェンドビル２ＦＤ号室,,23,201,4400876,,,2023-07-03,清算の結了等,,,2015-10-05,1,,,,,フォレストコーポレーション,0
482,2180302005636,登記記録の閉鎖等,0,2023-07-13,2023-06-30,有限会社牧野石材,,有限会社,愛知県,岡崎市,稲熊町字赤松５番地１８,,23,202,4440071,,,2023-06-30,清算の結了等,,,2015-10-05,1,,,,,マキノセキザイ,0
483,2180303004678,登記記録の閉鎖等,0,2023-07-13,2023-07-03,ハッピーコネクト合同会社,,合同会社,愛知県,豊橋市,野依台２丁目３番地の４９,,23,201,4418125,,,2023-07-03,清算の結了等,,,2020-07-08,1,,,,,ハッピーコネクト,0
504,2290001054106,登記記録の閉鎖等,0,2023-07-13,2023-06-30,山本建装工業株式会社,,株式会社,福岡県,大牟田市,大字歴木１８０７番地の４７０,,40,202,8370924,,,2023-06-30,清算の結了等,,,2015-10-05,1,,,,,ヤマモトケンソウコウギョウ,0
520,2300001007879,登記記録の閉鎖等,0,2023-07-13,2023-07-03,株式会社グレース・ナル,,株式会社,佐賀県,佐賀市,天祐２丁目４番３号,,41,201,8400851,,,2023-07-03,清算の結了等,,,2015-10-05,1,,,,,グレースナル,0
528,2340001011233,登記記録の閉鎖等,0,2023-07-13,2023-07-05,龍郷建設株式会社,,株式会社,鹿児島県,大島郡龍郷町,浦４８６番地,,46,527,8940104,,,2023-07-05,清算の結了等,,,2015-10-05,1,,,,,タツゴウケンセツ,0
552,2450002011857,登記記録の閉鎖等,0,2023-07-13,2023-07-05,有限会社新栄ガス圧接工業,,有限会社,北海道,留萌市,南町２丁目７７番地の８,,01,212,0770014,,,2023-07-05,清算の結了等,,,2015-10-05,1,,,,,シンエイガスアッセツコウギョウ,0
578,3010403016366,登記記録の閉鎖等,0,2023-07-13,2023-06-30,株式会社サン・パシフィック,,株式会社,東京都,千代田区,二番町５番地２５,,13,101,1020084,,,2023-06-30,合併による解散等,7010001197019,令和５年６月３０日東京都千代田区二番町５番地２５サン・パシフィック株式会社（7010001197019）に合併し解散,2017-03-31,1,,,,,サンパシフィック,0
583,3010405018402,登記記録の閉鎖等,0,2023-07-13,2023-06-28,ジャパンインフラホールディングス１号一般社団法人,,その他の設立登記法人,東京都,港区,元赤坂１丁目１番７号,,13,103,1070051,,,2023-06-28,清算の結了等,,,2020-01-14,1,,,,,ジャパンインフラホールディングスイチゴウ,0
584,3010501000065,登記記録の閉鎖等,0,2023-07-13,2023-07-11,株式会社浅草長谷川,,株式会社,東京都,台東区,浅草３丁目１１番３号,,13,106,1110032,,,2023-07-11,合併による解散等,5080001001571,令和５年７月１日静岡市葵区沓谷六丁目１１番地の１コロナ工業株式会社（5080001001571）に合併し解散,2015-10-05,1,,,,,アサクサハセガワ,0
595,3010802006240,登記記録の閉鎖等,0,2023-07-13,2023-07-07,有限会社さとう商店,,有限会社,東京都,大田区,南六郷１丁目２番８号,,13,111,1440045,,,2023-07-07,清算の結了等,,,2015-10-05,1,,,,,,0
599,3010901012627,登記記録の閉鎖等,0,2023-07-13,2023-07-07,ライズコーポレーション株式会社,,株式会社,東京都,世田谷区,粕谷３丁目１７番１４号,,13,112,1570063,,,2023-07-07,清算の結了等,,,2015-10-05,1,,,,,ライズコーポレーション,0
600,3010901034935,登記記録の閉鎖等,0,2023-07-13,2023-06-30,株式会社レモンレインＪＡＰＡＮ,,株式会社,東京都,中央区,日本橋本町４丁目６番１１号,,13,102,1030023,,,2023-06-30,清算の結了等,,,2015-10-05,1,,,,,レモンレインジャパン,0
603,3011001116764,登記記録の閉鎖等,0,2023-07-13,2023-07-04,株式会社オープンアンドナチュラル,,株式会社,茨城県,水戸市,泉町３丁目１番２７号,,08,201,3100026,,,2023-07-04,合併による解散等,2050001041887,令和５年７月１日茨城県水戸市泉町三丁目１番２７号株式会社ＢＵＺＺＷＩＴ（2050001041887）に合併し解散,2017-06-14,1,,,,,オープンアンドナチュラル,0
649,3021002031805,登記記録の閉鎖等,0,2023-07-13,2023-07-04,有限会社三湘トップス,,有限会社,神奈川県,厚木市,恩名４丁目１０番１号,,14,212,2430032,,,2023-07-04,清算の結了等,,,2015-10-05,1,,,,,サンショウトップス,0
658,3030002088284,登記記録の閉鎖等,0,2023-07-13,2023-06-23,有限会社モントケミカル,,有限会社,埼玉県,越谷市,弥栄町３丁目４３番地１９３,,11,222,3430046,,,2023-06-23,清算の結了等,,,2015-10-05,1,,,,,モントケミカル,0
665,3040002048171,登記記録の閉鎖等,0,2023-07-13,2023-06-26,有限会社廣石工務店,00020225,有限会社,千葉県,松戸市,松戸新田３３２番地２７,,12,207,2702241,,,2023-06-26,清算の結了等,,,2015-10-05,1,,,,,ヒロイシコウムテン,0
666,3040002062313,登記記録の閉鎖等,0,2023-07-13,2023-06-26,有限会社大日営繕工業,,有限会社,千葉県,四街道市,大日４２６番地の３,,12,228,2840001,,,2023-06-26,清算の結了等,,,2015-10-05,1,,,,,ダイニチエイゼンコウギョウ,0
671,3060002006821,登記記録の閉鎖等,0,2023-07-13,2023-06-30,有限会社長塚左官店,,有限会社,栃木県,宇都宮市,峰２丁目２０番２２号,,09,201,3210942,,,2023-06-30,清算の結了等,,,2015-10-05,1,,,,,ナガツカサカンテン,0
673,3080001002662,登記記録の閉鎖等,0,2023-07-13,2023-07-06,静岡コープサービス株式会社,,株式会社,静岡県,静岡市駿河区,曲金３丁目８番１号,,22,102,4228006,,,2023-07-06,合併による解散等,6080001011710,令和５年７月１日静岡市駿河区曲金三丁目８番１号株式会社静岡ジェイエイサービス（6080001011710）に合併し解散,2015-10-05,1,,,,,シズオカコープサービス,0
683,3090003000110,登記記録の閉鎖等,0,2023-07-13,2023-07-04,合資会社タカワールドエンタープライズ,,合資会社,山梨県,甲斐市,西八幡４３１２番地４,,19,210,4000117,,,2023-07-04,清算の結了等,,,2015-10-05,1,,,,,,0
686,3100005008397,登記記録の閉鎖等,0,2023-07-13,2023-06-30,岡谷スタンプ協同組合,,その他の設立登記法人,長野県,岡谷市,郷田１丁目４番１１号,,20,204,3940021,,,2023-06-30,清算の結了等,,,2015-10-05,1,,,,,オカヤスタンプ,0
713,3140001066651,登記記録の閉鎖等,0,2023-07-13,2023-07-03,菱成株式会社,,株式会社,兵庫県,三田市,布木４０番地の３,,28,219,6691407,,,2023-07-03,合併による解散等,4140001066650,令和５年７月１日兵庫県三田市三輪二丁目６番１号菱電化成株式会社（4140001066650）に合併し解散,2015-10-05,1,,,,,リョウセイ,0
724,3140005013303,登記記録の閉鎖等,0,2023-07-13,2023-06-30,医療法人社団井口皮膚科医院,,その他の設立登記法人,兵庫県,姫路市,田寺２丁目２番２７号,,28,201,6700086,,,2023-06-30,清算の結了等,,,2015-10-05,1,,,,,イグチヒフカイイン,0
734,3180001101842,登記記録の閉鎖等,0,2023-07-13,2023-07-05,メディカルサービス株式会社,,株式会社,愛知県,名古屋市中村区,椿町１４番１３号,,23,105,4530015,,,2023-07-05,清算の結了等,,,2015-10-05,1,,,,,メディカルサービス,0
737,3180001147919,登記記録の閉鎖等,0,2023-07-13,2023-07-05,株式会社ＩＰＰＩＮＹＡ,,株式会社,愛知県,春日井市,藤山台６丁目４番地７,,23,206,4870035,,,2023-07-05,清算の結了等,,,2021-09-24,1,,,,,イッピンヤ,0
740,3180002029546,登記記録の閉鎖等,0,2023-07-13,2023-07-05,アースウイング有限会社,,有限会社,愛知県,知多郡東浦町,大字石浜字藤塚６２番地の１６,,23,442,4702103,,,2023-07-05,清算の結了等,,,2015-10-05,1,,,,,アースウイング,0
745,3180002075846,登記記録の閉鎖等,0,2023-07-13,2023-07-06,有限会社エヌケイ,,有限会社,愛知県,一宮市,浅井町大日比野字清郷７６番地の６,,23,203,4910105,,,2023-07-06,清算の結了等,,,2015-10-05,1,,,,,エヌケイ,0
753,3190003001981,登記記録の閉鎖等,0,2023-07-13,2023-07-03,合同会社Ｅ・Ｓ・Ｓ,,合同会社,三重県,桑名郡木曽岬町,大字見入７２９番地５０,,24,303,4980802,,,2023-07-03,清算の結了等,,,2015-10-05,1,,,,,イーエスエス,0
770,3260001027740,登記記録の閉鎖等,0,2023-07-13,2023-07-06,株式会社美味総社,,株式会社,岡山県,総社市,地頭片山１－４,,33,208,7191163,,,2023-07-06,清算の結了等,,,2015-10-05,1,,,,,ウマソウジャ,0
794,3310002009781,登記記録の閉鎖等,0,2023-07-13,2023-07-05,有限会社久保表具店,,有限会社,長崎県,佐世保市,稲荷町２０番８号,,42,202,8570851,,,2023-07-05,清算の結了等,,,2015-10-05,1,,,,,クボヒョウグテン,0
805,3370002018736,登記記録の閉鎖等,0,2023-07-13,2023-07-05,中込飲食有限会社,,有限会社,宮城県,仙台市青葉区,台原５丁目１０番３２号,,04,101,9810911,,,2023-07-05,清算の結了等,,,2015-10-05,1,,,,,ナカゴメインショク,0
815,3440002003862,登記記録の閉鎖等,0,2023-07-13,2023-07-06,有限会社藤巻商会,,有限会社,北海道,函館市,日吉町１丁目２１番２８号,,01,202,0410841,,,2023-07-06,清算の結了等,,,2015-10-05,1,,,,,フジマキショウカイ,0
816,3450001004852,登記記録の閉鎖等,0,2023-07-13,2023-07-05,株式会社ひまわり観光,,株式会社,北海道,雨竜郡北竜町,字碧水７６番地の１,,01,437,0782503,,,2023-07-05,清算の結了等,,,2015-10-05,1,,,,,ヒマワリカンコウ,0
828,4010001129585,登記記録の閉鎖等,0,2023-07-13,2023-07-03,シー・デザイン株式会社,,株式会社,東京都,中央区,日本橋富沢町１３番３号,,13,102,1030006,,,2023-07-03,合併による解散等,8010001039707,令和５年７月１日東京都中央区日本橋富沢町１３番３号株式会社オリンピア（8010001039707）に合併し解散,2015-10-05,1,,,,,シーデザイン,0
833,4010002021007,登記記録の閉鎖等,0,2023-07-13,2023-07-04,有限会社次郎日本橋店,,有限会社,東京都,中央区,日本橋２丁目４番１号,,13,102,1030027,,,2023-07-04,清算の結了等,,,2015-10-05,1,,,,,,0
841,4010401000081,登記記録の閉鎖等,0,2023-07-13,2023-07-04,朝日トップス株式会社,,株式会社,東京都,港区,新橋２丁目１６番１号,,13,103,1050004,,,2023-07-04,合併による解散等,4010001035065,令和５年７月１日東京都中央区築地五丁目３番２号株式会社ＡＨＳ（4010001035065）に合併し解散,2015-10-05,1,,,,,アサヒトップス,0
843,4010401066453,登記記録の閉鎖等,0,2023-07-13,2023-07-06,株式会社ＳＵＧＡ・システムズ,,株式会社,東京都,八王子市,別所２丁目４６番地４－５０１,,13,201,1920363,,,2023-07-06,清算の結了等,,,2015-10-05,1,,,,,スガシステムズ,0
845,4010401159851,登記記録の閉鎖等,0,2023-07-13,2023-06-27,株式会社Ｈｕｕ,,株式会社,東京都,港区,南青山２丁目２－１５,,13,103,1070062,,,2023-06-27,清算の結了等,,,2021-04-28,1,,,,,フウ,0
847,4010403022124,登記記録の閉鎖等,0,2023-07-13,2023-06-28,ジャパンインフラ１号合同会社,,合同会社,東京都,港区,元赤坂１丁目１番７号,,13,103,1070051,,,2023-06-28,清算の結了等,,,2020-01-14,1,,,,,ジャパンインフライチゴウ,0
855,4010803002997,登記記録の閉鎖等,0,2023-07-13,2023-07-07,社外営業部長合同会社,,合同会社,東京都,大田区,大森北２丁目３番１５号第１５下川ビル４階,,13,111,1430016,,,2023-07-07,清算の結了等,,,2019-05-15,1,,,,,シャガイエイギョウブチョウ,0
856,4010901041732,登記記録の閉鎖等,0,2023-07-13,2023-07-10,株式会社ＣＲＡＺＹ　ＳＴＡＲ,,株式会社,東京都,世田谷区,八幡山３丁目２４－１４,,13,112,1560056,,,2023-07-10,清算の結了等,,,2018-03-19,1,,,,,クレイジースター,0
876,4011401012752,登記記録の閉鎖等,0,2023-07-13,2023-07-10,株式会社昌永,,株式会社,東京都,板橋区,宮本町５３番１５号,,13,119,1740054,,,2023-07-10,清算の結了等,,,2015-10-05,1,,,,,,0
877,4011401022487,登記記録の閉鎖等,0,2023-07-13,2023-07-10,株式会社Ｍａｒｋ－ｏｎ,,株式会社,東京都,板橋区,志村２丁目１６－３３ヴィオスガーデン城山５３０,,13,119,1740056,,,2023-07-10,清算の結了等,,,2020-04-01,1,,,,,,0
883,4011703002591,登記記録の閉鎖等,0,2023-07-13,2023-07-10,合同会社ＥＢＣ,,合同会社,東京都,江戸川区,南小岩７丁目２６番１３号,,13,123,1330056,,,2023-07-10,清算の結了等,,,2020-07-10,1,,,,,イービーシー,0
914,4021002001138,登記記録の閉鎖等,0,2023-07-13,2023-07-04,有限会社オフィス三井,,有限会社,神奈川県,中郡大磯町,大磯９１７番地２ライフレビュー大磯３０１号,,14,341,2550003,,,2023-07-04,清算の結了等,,,2015-10-05,1,,,,,,0
926,4030002050400,登記記録の閉鎖等,0,2023-07-13,2023-06-26,有限会社スリーファイブ,,有限会社,埼玉県,草加市,遊馬町７８０番地２３,,11,221,3400032,,,2023-06-26,清算の結了等,,,2015-10-05,1,,,,,スリーファイブ,0
946,4080002007230,登記記録の閉鎖等,0,2023-07-13,2023-07-05,有限会社ウィルコーポレーション,,有限会社,静岡県,静岡市葵区,駒形通３丁目３番１４号,,22,101,4200042,,,2023-07-05,清算の結了等,,,2015-10-05,1,,,,,ウィルコーポレーション,0
953,4090001006001,登記記録の閉鎖等,0,2023-07-13,2023-07-04,株式会社コースト,,株式会社,山梨県,笛吹市,境川町石橋２０５３番地１,,19,211,4060842,,,2023-07-04,清算の結了等,,,2015-10-05,1,,,,,コースト,0
960,4110001036862,登記記録の閉鎖等,0,2023-07-13,2023-07-03,大澤総業株式会社,,株式会社,新潟県,新潟市東区,猿ケ馬場２丁目４６３番地７,,15,102,9500835,,,2023-07-03,清算の結了等,,,2022-08-04,1,,,,,オオサワソウギョウ,0
976,4120101028073,登記記録の閉鎖等,0,2023-07-13,2023-07-11,株式会社ホケンプラザＯＳＡＫＡ,,株式会社,大阪府,堺市北区,新金岡町１丁７番３－２１０号,,27,146,5918021,,,2023-07-11,清算の結了等,,,2015-10-05,1,,,,,ホケンプラザオオサカ,0
996,4140001018924,登記記録の閉鎖等,0,2023-07-13,2023-07-06,吉野商事株式会社,,株式会社,兵庫県,神戸市中央区,楠町１丁目１１番１１号,,28,110,6500017,,,2023-07-06,清算の結了等,,,2015-10-05,1,,,,,ヨシノショウジ,0
1022,4180002058932,登記記録の閉鎖等,0,2023-07-13,2023-06-30,有限会社Ｕ・Ｓグローバル,,有限会社,愛知県,豊橋市,東森岡１丁目３番地１,,23,201,4411113,,,2023-06-30,清算の結了等,,,2015-10-05,1,,,,,ユーエスグローバル,0
1023,4180002077148,登記記録の閉鎖等,0,2023-07-13,2023-07-07,有限会社日政建築,,有限会社,愛知県,一宮市,向山町１丁目２３番地,,23,203,4910869,,,2023-07-07,清算の結了等,,,2015-10-05,1,,,,,ニッセイケンチク,0
1026,4180301004686,登記記録の閉鎖等,0,2023-07-13,2023-07-04,株式会社夢みらい康生,,株式会社,愛知県,岡崎市,康生通西３丁目１８番地,,23,202,4440059,,,2023-07-04,清算の結了等,,,2015-10-05,1,,,,,ユメミライコウセイ,0
1039,4200001018612,登記記録の閉鎖等,0,2023-07-13,2023-07-10,株式会社ウイングス,,株式会社,岐阜県,可児市,大森１５０１番地６０１,,21,214,5090238,,,2023-07-10,清算の結了等,,,2015-10-05,1,,,,,ウイングス,0
1045,4240001015069,登記記録の閉鎖等,0,2023-07-13,2023-07-10,株式会社クラタコンサル,,株式会社,広島県,広島市西区,草津新町１丁目２１番３５号,,34,104,7330834,,,2023-07-10,合併による解散等,2180001144999,令和５年７月１日名古屋市熱田区神戸町１０１番地株式会社スズケンビジネスアソシエ（2180001144999）に合併し解散,2015-10-05,1,,,,,クラタコンサル,0
1050,4260002025131,登記記録の閉鎖等,0,2023-07-13,2023-07-05,有限会社スカイ設備,,有限会社,岡山県,笠岡市,旭が丘２３０番地,,33,205,7140056,,,2023-07-05,清算の結了等,,,2015-10-05,1,,,,,スカイセツビ,0
1051,4270001002378,登記記録の閉鎖等,0,2023-07-13,2023-07-03,アカデミアシステムズ株式会社,,株式会社,鳥取県,鳥取市,寺町５０番地ＮＴＴ寺町ビル,,31,201,6800053,,,2023-07-03,清算の結了等,,,2015-10-05,1,,,,,アカデミアシステムズ,0
1056,4290002012382,登記記録の閉鎖等,0,2023-07-13,2023-07-03,有限会社パーソナル・ネットワーク,,有限会社,福岡県,福岡市中央区,春吉２丁目１８番６号,,40,133,8100003,,,2023-07-03,合併による解散等,2290002012450,令和５年７月１日福岡市中央区春吉二丁目１８番６号株式会社初音（2290002012450）に合併し解散,2015-10-05,1,,,,,パーソナルネットワーク,0
1059,4290801024339,登記記録の閉鎖等,0,2023-07-13,2023-06-30,株式会社ナーシングホームホールディングス,,株式会社,福岡県,北九州市小倉北区,篠崎２丁目４８番３２号,,40,106,8030861,,,2023-06-30,合併による解散等,9290802007255,令和５年６月３０日北九州市小倉北区篠崎二丁目２０番１７号株式会社ＩＷＡＳＡＫＩ（9290802007255）に合併し解散,2018-02-06,1,,,,,ナーシングホームホールディングス,0
1070,4350002014455,登記記録の閉鎖等,0,2023-07-13,2023-07-03,有限会社大和交易,,有限会社,宮崎県,都城市,西町３５０２番地３,,45,202,8850076,,,2023-07-03,清算の結了等,,,2015-10-05,1,,,,,ダイワコウエキ,0
1077,4390005001067,登記記録の閉鎖等,0,2023-07-13,2023-07-05,医療法人社団清昌会,,その他の設立登記法人,山形県,山形市,城西町５丁目３番５号,,06,201,9900832,,,2023-07-05,清算の結了等,,,2015-10-05,1,,,,,セイショウカイ,0
1104,5010001215590,登記記録の閉鎖等,0,2023-07-13,2023-06-29,ＶＩＳＥＯ　ＮＩＨＯＮ株式会社,,株式会社,東京都,港区,赤坂１丁目１１番４４号赤坂インターシティ５階ＭａｚａｒｓＪａｐａｎ株式会社内,,13,103,1070052,,,2023-06-29,清算の結了等,,,2021-02-04,1,,,,,ビセオニホン,0
1110,5010101012731,登記記録の閉鎖等,0,2023-07-13,2023-07-06,株式会社Ｎｏｙｃｅ,,株式会社,東京都,杉並区,下高井戸４丁目３５番１０号Ｅ－２－１,,13,115,1680073,,,2023-07-06,清算の結了等,,,2017-03-06,1,,,,,ノイス,0
1123,5010405008509,登記記録の閉鎖等,0,2023-07-13,2023-07-11,一般社団法人東京メディカルアンビシャス,,その他の設立登記法人,東京都,新宿区,高田馬場４丁目３番６号,,13,104,1690075,,,2023-07-11,清算の結了等,,,2015-10-05,1,,,,,トウキョウメディカルアンビシャス,0
1126,5010405014390,登記記録の閉鎖等,0,2023-07-13,2023-06-29,一般社団法人日本海洋資源・エネルギー開発協会,,その他の設立登記法人,東京都,港区,虎ノ門１丁目１６－６虎ノ門ＲＡＰＯ－ＴＯビルＵＣＦ７０３,,13,103,1050001,,,2023-06-29,清算の結了等,,,2015-12-03,1,,,,,ニホンカイヨウシゲンエネルギーカイハツキョウカイ,0
1128,5010501029755,登記記録の閉鎖等,0,2023-07-13,2023-07-07,株式会社わけあり本舗,,株式会社,東京都,台東区,浅草１丁目２７番１０号,,13,106,1110032,,,2023-07-07,清算の結了等,,,2015-10-05,1,,,,,ワケアリホンポ,0
1131,5010601008816,登記記録の閉鎖等,0,2023-07-13,2023-07-04,新井産業株式会社,,株式会社,東京都,墨田区,立川２丁目９番８号,,13,107,1300023,,,2023-07-04,清算の結了等,,,2015-10-05,1,,,,,アライサンギョウ,0
1139,5010901033893,登記記録の閉鎖等,0,2023-07-13,2023-07-10,Ｄ＆Ｆアシスト株式会社,,株式会社,東京都,世田谷区,上馬１丁目７番１０号,,13,112,1540011,,,2023-07-10,清算の結了等,,,2015-10-05,1,,,,,ディーアンドエフアシスト,0
1144,5010902020412,登記記録の閉鎖等,0,2023-07-13,2023-07-10,有限会社友翔,,有限会社,東京都,世田谷区,北烏山８丁目２９番１１号,,13,112,1570061,,,2023-07-10,清算の結了等,,,2015-10-05,1,,,,,,0
1157,5011401001614,登記記録の閉鎖等,0,2023-07-13,2023-07-10,株式会社協新管工,,株式会社,東京都,板橋区,板橋１丁目１０番４号,,13,119,1730004,,,2023-07-10,清算の結了等,,,2015-10-05,1,,,,,キョウシンカンコウ,0
1209,5040001107356,登記記録の閉鎖等,0,2023-07-13,2023-06-26,株式会社ＥＬＩＭＳ,,株式会社,千葉県,印西市,東の原２丁目１６番地１０,,12,231,2701336,,,2023-06-26,清算の結了等,,,2018-12-21,1,,,,,エリムス,0
1211,5040001116976,登記記録の閉鎖等,0,2023-07-13,2023-06-26,エスコム株式会社,,株式会社,千葉県,千葉市若葉区,みつわ台２丁目２３番７号,,12,104,2640032,,,2023-06-26,清算の結了等,,,2021-02-02,1,,,,,エスコム,0
1216,5050001012927,登記記録の閉鎖等,0,2023-07-13,2023-07-03,株式会社カタオカエンジニアリング,,株式会社,茨城県,土浦市,小岩田東１丁目９番２３号,,08,203,3000834,,,2023-07-03,合併による解散等,9050001020190,令和５年７月１日茨城県鹿嶋市大字光３番地株式会社鹿島テクノス（9050001020190）に合併し解散,2015-10-05,1,,,,,カタオカエンジニアリング,0
1218,5050001026539,登記記録の閉鎖等,0,2023-07-13,2023-07-05,株式会社たかの,,株式会社,茨城県,常陸太田市,東三町２１６３番地の２,,08,212,3130053,,,2023-07-05,清算の結了等,,,2015-10-05,1,,,,,タカノ,0
1229,5080402017332,登記記録の閉鎖等,0,2023-07-13,2023-07-06,有限会社クリアサービス,,有限会社,静岡県,掛川市,薗ケ谷６３０番地の１２,,22,213,4360083,,,2023-07-06,清算の結了等,,,2015-10-05,1,,,,,クリアサービス,0
1237,5120001011186,登記記録の閉鎖等,0,2023-07-13,2023-07-10,株式会社宮武製作所,,株式会社,大阪府,大阪市東住吉区,桑津１丁目２３番１３号,,27,121,5460041,,,2023-07-10,合併による解散等,6010001217396,令和５年７月１日東京都千代田区内幸町一丁目３番３号内幸町ダイビル株式会社宮武製作所（6010001217396）に合併し解散,2015-10-05,1,,,,,ミヤタケセイサクショ,0
1239,5120001042586,登記記録の閉鎖等,0,2023-07-13,2023-07-06,木村康産業株式会社,,株式会社,大阪府,大阪市西区,阿波座１丁目３番１５号,,27,106,5500011,,,2023-07-06,合併による解散等,8120001046163,令和５年６月３０日大阪市西区阿波座一丁目３番１５号西大阪スペース株式会社（8120001046163）に合併し解散,2015-10-05,1,,,,,キムラヤスサンギョウ,0
1264,5140001036272,登記記録の閉鎖等,0,2023-07-13,2023-07-05,株式会社トーヨーセフティー,,株式会社,兵庫県,三木市,別所町巴２１番１,,28,215,6730443,,,2023-07-05,合併による解散等,8140001036146,令和５年７月１日兵庫県三木市別所町巴２１番１東洋物産工業株式会社（8140001036146）に合併し解散,2015-10-05,1,,,,,トーヨーセフティー,0
1270,5140005014563,登記記録の閉鎖等,0,2023-07-13,2023-06-30,播磨加工事業協同組合,,その他の設立登記法人,兵庫県,神崎郡福崎町,福田３５４－２,,28,443,6792212,,,2023-06-30,清算の結了等,,,2015-10-05,1,,,,,ハリマカコウ,0
1271,5160001012313,登記記録の閉鎖等,0,2023-07-13,2023-07-11,株式会社リンケージファーム高島,,株式会社,滋賀県,米原市,杉澤３１４番地２,,25,214,5210322,,,2023-07-11,清算の結了等,,,2015-10-05,1,,,,,リンケージファームタカシマ,0
1272,5160001015316,登記記録の閉鎖等,0,2023-07-13,2023-07-07,株式会社島田薬品,,株式会社,滋賀県,守山市,今市町２５１番地の１,,25,207,5240011,,,2023-07-07,清算の結了等,,,2015-10-05,1,,,,,シマダヤクヒン,0
1282,5180002000653,登記記録の閉鎖等,0,2023-07-13,2023-07-05,有限会社三友自動車,,有限会社,愛知県,名古屋市守山区,脇田町１９０８番地,,23,113,4630024,,,2023-07-05,清算の結了等,,,2015-10-05,1,,,,,サンユウジドウシャ,0
1285,5180002076611,登記記録の閉鎖等,0,2023-07-13,2023-07-05,有限会社シャルモード,,有限会社,愛知県,一宮市,北方町曽根字村東２６８番地,,23,203,4938002,,,2023-07-05,清算の結了等,,,2015-10-05,1,,,,,シャルモード,0
1294,5200002007530,登記記録の閉鎖等,0,2023-07-13,2023-07-03,有限会社スクラム建築工房,,有限会社,岐阜県,各務原市,那加前洞新町１丁目１９１番地の１,,21,213,5040021,,,2023-07-03,清算の結了等,,,2015-10-05,1,,,,,スクラムケンチクコウボウ,0
1303,5230003001208,登記記録の閉鎖等,0,2023-07-13,2023-07-10,とやま総合相談支援合同会社,,合同会社,富山県,富山市,向新庄町４丁目１４番４８号,,16,201,9300916,,,2023-07-10,清算の結了等,,,2018-05-08,1,,,,,トヤマソウゴウソウダンシエン,0
1325,5290001066957,登記記録の閉鎖等,0,2023-07-13,2023-07-03,株式会社ジーエートラスト,,株式会社,福岡県,福岡市博多区,博多駅南５丁目１５番１８号,,40,132,8120016,,,2023-07-03,合併による解散等,5290001063277,令和５年７月１日福岡市博多区博多駅南五丁目１５番１８号トラストホールディングス株式会社（5290001063277）に合併し解散,2015-10-05,1,,,,,ジーエートラスト,0
1353,5500001002576,登記記録の閉鎖等,0,2023-07-13,2023-07-12,株式会社たかお,,株式会社,愛媛県,松山市,鷹子町８５８番地７,,38,201,7900925,,,2023-07-12,清算の結了等,,,2015-10-05,1,,,,,タカオ,0
1364,6010001175900,登記記録の閉鎖等,0,2023-07-13,2023-06-30,株式会社オーシャニックプロモーション,,株式会社,東京都,中央区,築地６丁目２６番１号,,13,102,1040045,,,2023-06-30,清算の結了等,,,2016-05-26,1,,,,,オーシャニックプロモーション,0
1366,6010001187763,登記記録の閉鎖等,0,2023-07-13,2023-07-03,株式会社銀座日々,,株式会社,東京都,中央区,銀座６丁目６番１号,,13,102,1040061,,,2023-07-03,合併による解散等,2010001041189,令和５年７月１日東京都中央区銀座六丁目６番１号株式会社銀座風月堂（2010001041189）に合併し解散,2017-11-17,1,,,,,ギンザニチニチ,0
1380,6010401141205,登記記録の閉鎖等,0,2023-07-13,2023-07-06,ジャパンギャランティー株式会社,,株式会社,東京都,渋谷区,恵比寿４丁目２０番３号,,13,113,1500013,,,2023-07-06,清算の結了等,,,2018-10-09,1,,,,,ジャパンギャランティー,0
1403,6010901029899,登記記録の閉鎖等,0,2023-07-13,2023-07-10,株式会社リファイアム,,株式会社,東京都,世田谷区,若林５丁目３３番１５号,,13,112,1540023,,,2023-07-10,清算の結了等,,,2015-10-05,1,,,,,リファイアム,0
1408,6011001144358,登記記録の閉鎖等,0,2023-07-13,2023-07-04,株式会社エンターメディアＦＣ,,株式会社,東京都,渋谷区,道玄坂１丁目１４番６号,,13,113,1500043,,,2023-07-04,合併による解散等,1011001059701,令和５年７月１日東京都渋谷区道玄坂一丁目１４番６号株式会社ＳＫＩＹＡＫＩ（1011001059701）に合併し解散,2021-12-09,1,,,,,エンターメディアエフシー,0
1409,6011001146461,登記記録の閉鎖等,0,2023-07-13,2023-07-10,株式会社ＣＡＴＡＬ,,株式会社,東京都,渋谷区,恵比寿４丁目３－１クイズ恵比寿６１１号,,13,113,1500013,,,2023-07-10,清算の結了等,,,2022-03-28,1,,,,,カタル,0
1416,6011101052394,登記記録の閉鎖等,0,2023-07-13,2023-07-10,株式会社構研建築研究所,,株式会社,東京都,江戸川区,鹿骨２丁目３７番１６号,,13,123,1330073,,,2023-07-10,清算の結了等,,,2015-10-05,1,,,,,コウケンケンチクケンキュウジョ,0
1418,6011101096094,登記記録の閉鎖等,0,2023-07-13,2023-07-10,株式会社ＢｕＢｕ,,株式会社,東京都,新宿区,新宿７丁目９番１０号,,13,104,1600022,,,2023-07-10,清算の結了等,,,2021-08-25,1,,,,,ブブ,0
1441,6012702000428,登記記録の閉鎖等,0,2023-07-13,2023-07-11,有限会社大沢工務店,,有限会社,東京都,小平市,大沼町４丁目２１番４号,,13,211,1870001,,,2023-07-11,清算の結了等,,,2015-10-05,1,,,,,オオサワコウムテン,0
1474,6030002020137,登記記録の閉鎖等,0,2023-07-13,2023-06-23,有限会社ルーベンス,,有限会社,埼玉県,さいたま市見沼区,深作２丁目２３番地６エムエム大宮ビル１０１,,11,104,3370003,,,2023-06-23,清算の結了等,,,2015-10-05,1,,,,,ルーベンス,0
1480,6030002069967,登記記録の閉鎖等,0,2023-07-13,2023-06-26,有限会社クリーン・テック,,有限会社,埼玉県,春日部市,米島３６６番地５,,11,214,3440115,,,2023-06-26,清算の結了等,,,2015-10-05,1,,,,,クリーンテック,0
1497,6050002027799,登記記録の閉鎖等,0,2023-07-13,2023-07-10,有限会社東海通商,,有限会社,茨城県,神栖市,柳川３９０３番地,,08,232,3140252,,,2023-07-10,清算の結了等,,,2015-10-05,1,,,,,トウカイツウショウ,0
1515,6090002000645,登記記録の閉鎖等,0,2023-07-13,2023-07-07,有限会社長田重機建材,,有限会社,山梨県,甲府市,山宮町１５７０番地の２,,19,201,4000075,,,2023-07-07,清算の結了等,,,2015-10-05,1,,,,,オサダジュウキケンザイ,0
1521,6120001042379,登記記録の閉鎖等,0,2023-07-13,2023-07-06,川口商事株式会社,,株式会社,大阪府,大阪市西区,阿波座１丁目３番１５号,,27,106,5500011,,,2023-07-06,合併による解散等,8120001046163,令和５年６月３０日大阪市西区阿波座一丁目３番１５号西大阪スペース株式会社（8120001046163）に合併し解散,2015-10-05,1,,,,,カワグチショウジ,0
1570,6160002002238,登記記録の閉鎖等,0,2023-07-13,2023-06-30,アサヒオートグラス有限会社,,有限会社,滋賀県,大津市,穴太１丁目３番２３号,,25,201,5200114,,,2023-06-30,清算の結了等,,,2015-10-05,1,,,,,アサヒオートグラス,0
1584,6180302002019,登記記録の閉鎖等,0,2023-07-13,2023-07-03,有限会社堂前建設,,有限会社,愛知県,岡崎市,堂前町２丁目５番地９,,23,202,4442114,,,2023-07-03,清算の結了等,,,2015-10-05,1,,,,,ドウマエケンセツ,0
1585,6180302021885,登記記録の閉鎖等,0,2023-07-13,2023-06-29,有限会社久米,,有限会社,愛知県,豊田市,四郷町天道４５番地２１２,,23,211,4700373,,,2023-06-29,清算の結了等,,,2015-10-05,1,,,,,クメ,0
1593,6240001002370,登記記録の閉鎖等,0,2023-07-13,2023-07-03,株式会社カワサキ電機,,株式会社,広島県,広島市南区,霞１丁目４番４号,,34,103,7340037,,,2023-07-03,清算の結了等,,,2015-10-05,1,,,,,カワサキデンキ,0
1608,6290001084165,登記記録の閉鎖等,0,2023-07-13,2023-07-03,株式会社モーションズ,,株式会社,福岡県,福岡市東区,和白東１丁目１５番３７号,,40,131,8110214,,,2023-07-03,合併による解散等,8290001043697,令和５年７月１日福岡市中央区天神三丁目１０番３０号株式会社コンプライアンス（8290001043697）に合併し解散,2019-02-06,1,,,,,モーションズ,0
1623,6350001015824,登記記録の閉鎖等,0,2023-07-13,2023-06-30,株式会社ヨッピーファーム,,株式会社,宮崎県,日向市,美々津町１７４２番地１,,45,206,8891111,,,2023-06-30,清算の結了等,,,2019-05-16,1,,,,,ヨッピーファーム,0
1637,6410002010289,登記記録の閉鎖等,0,2023-07-13,2023-07-04,有限会社佐藤住建,,有限会社,秋田県,能代市,常盤字町辺５７番地,,05,202,0182801,,,2023-07-04,清算の結了等,,,2015-10-05,1,,,,,サトウジュウケン,0
1664,7010001184082,登記記録の閉鎖等,0,2023-07-13,2023-07-10,ＳＵ未来プロジェクト株式会社,,株式会社,東京都,葛飾区,東立石４丁目４５番１１号,,13,122,1240013,,,2023-07-10,清算の結了等,,,2017-06-12,1,,,,,エスユーミライプロジェクト,0
1693,7010902024675,登記記録の閉鎖等,0,2023-07-13,2023-07-10,有限会社ウェルシィ,,有限会社,東京都,世田谷区,千歳台６丁目１６番２号,,13,112,1570071,,,2023-07-10,清算の結了等,,,2015-10-05,1,,,,,ウェルシィ,0
1706,7011101096052,登記記録の閉鎖等,0,2023-07-13,2023-07-10,メットグローバル株式会社,,株式会社,東京都,新宿区,大久保１丁目７－１８アサヒニューシティビル４Ｆ,,13,104,1690072,,,2023-07-10,清算の結了等,,,2021-08-24,1,,,,,メットグローバル,0
1710,7011201000434,登記記録の閉鎖等,0,2023-07-13,2023-07-12,環城ジャパン株式会社,,株式会社,東京都,中野区,中野２丁目２８番１号,,13,114,1640001,,,2023-07-12,清算の結了等,,,2015-10-05,1,,,,,カンジョウジャパン,0
1732,7020001042181,登記記録の閉鎖等,0,2023-07-13,2023-07-04,株式会社アイベックス,,株式会社,神奈川県,川崎市幸区,南加瀬５丁目３６番１４号,,14,132,2120055,,,2023-07-04,清算の結了等,,,2015-10-05,1,,,,,アイベックス,0
1736,7020002043451,登記記録の閉鎖等,0,2023-07-13,2023-07-04,有限会社祖楽,,有限会社,神奈川県,横浜市中区,太田町１丁目２０番地,,14,104,2310011,,,2023-07-04,清算の結了等,,,2015-10-05,1,,,,,ソラク,0
1747,7021003011397,登記記録の閉鎖等,0,2023-07-13,2023-07-05,合同会社ギムレット,,合同会社,神奈川県,小田原市,城山２丁目１８番４６号,,14,206,2500045,,,2023-07-05,清算の結了等,,,2022-03-03,1,,,,,ギムレット,0
1752,7030001110251,登記記録の閉鎖等,0,2023-07-13,2023-06-26,株式会社ＴＡＩＳＥＩ　ＰＡＩＮＴ,,株式会社,埼玉県,草加市,遊馬町６８８番地３,,11,221,3400032,,,2023-06-26,清算の結了等,,,2015-10-05,1,,,,,,0
1764,7040001091078,登記記録の閉鎖等,0,2023-07-13,2023-06-26,株式会社煌星観光,,株式会社,千葉県,佐倉市,吉見２５２番地５,,12,212,2850834,,,2023-06-26,清算の結了等,,,2015-10-05,1,,,,,,0
1765,7040001118954,登記記録の閉鎖等,0,2023-07-13,2023-06-26,株式会社丸春,,株式会社,埼玉県,春日部市,梅田２丁目１２番９号アピエ参番館ＩＩ,00126022,11,214,3440052,,,2023-06-26,清算の結了等,,,2021-06-23,1,,,,,マルシュン,0
1773,7050002009549,登記記録の閉鎖等,0,2023-07-13,2023-07-03,有限会社エクシード,,有限会社,茨城県,ひたちなか市,大字馬渡２７３６番地,,08,221,3120012,,,2023-07-03,合併による解散等,9050001007345,令和５年７月１日茨城県ひたちなか市馬渡２７３６番地株式会社平成興業（9050001007345）に合併し解散,2015-10-05,1,,,,,エクシード,0
1782,7080405004929,登記記録の閉鎖等,0,2023-07-13,2023-07-06,内田第一茶農業協同組合,,その他の設立登記法人,静岡県,菊川市,中内田６８１８番地の１,,22,224,4390036,,,2023-07-06,清算の結了等,,,2015-10-05,1,,,,,ウチダダイイチチャ,0
1788,7090002009520,登記記録の閉鎖等,0,2023-07-13,2023-07-06,有限会社村上製作所,,有限会社,山梨県,大月市,七保町下和田３６９番地,,19,206,4090622,,,2023-07-06,清算の結了等,,,2015-10-05,1,,,,,ムラカミセイサクショ,0
1791,7100001031655,登記記録の閉鎖等,0,2023-07-13,2023-07-10,株式会社しきしま開発,,株式会社,長野県,長野市,大字鶴賀上千歳町１１３７番地２３号,,20,201,3800821,,,2023-07-10,合併による解散等,3011001109784,令和５年６月３０日東京都渋谷区恵比寿一丁目８番１８号株式会社はくたか地所（3011001109784）に合併し解散,2018-10-04,1,,,,,シキシマカイハツ,0
1795,7110002024509,登記記録の閉鎖等,0,2023-07-13,2023-07-03,有限会社ＡＳ企画,,有限会社,新潟県,上越市,大潟区下小船津浜６９８番地２,,15,222,9493113,,,2023-07-03,清算の結了等,,,2015-10-05,1,,,,,エーエスキカク,0
1799,7120001092919,登記記録の閉鎖等,0,2023-07-13,2023-07-10,大阪ダイヤビルテック株式会社,,株式会社,大阪府,大阪市福島区,野田６丁目５番２０号,,27,103,5530005,,,2023-07-10,合併による解散等,5140001012050,令和５年７月１日神戸市中央区東川崎町一丁目８番５号神戸ダイヤメンテナンス株式会社（5140001012050）に合併し解散,2015-10-05,1,,,,,オオサカダイヤビルテック,0
1806,7120003019688,登記記録の閉鎖等,0,2023-07-13,2023-07-05,合同会社ハヤブサ倉庫,,合同会社,大阪府,八尾市,恩智南町４丁目１１５番地,,27,212,5810884,,,2023-07-05,清算の結了等,,,2021-06-22,1,,,,,ハヤブサソウコ,0
1849,7180002029360,登記記録の閉鎖等,0,2023-07-13,2023-07-04,有限会社山久,,有限会社,愛知県,名古屋市中村区,名駅南１丁目１１番２４号,,23,105,4500003,,,2023-07-04,清算の結了等,,,2015-10-05,1,,,,,サンキュウ,0
1860,7200001024814,登記記録の閉鎖等,0,2023-07-13,2023-07-04,桑建設株式会社,,株式会社,岐阜県,高山市,天満町４丁目２５番地,,21,203,5060025,,,2023-07-04,清算の結了等,,,2015-10-05,1,,,,,クワケンセツ,0
1868,7210002014326,登記記録の閉鎖等,0,2023-07-13,2023-06-30,有限会社伸和建,,有限会社,福井県,小浜市,遠敷７丁目２０１番地の２,,18,204,9170241,,,2023-06-30,清算の結了等,,,2015-10-05,1,,,,,シンワケン,0
1869,7210005005132,登記記録の閉鎖等,0,2023-07-13,2023-07-05,特定非営利活動法人ＣＯＣＯ森田福祉会,,その他の設立登記法人,福井県,福井市,下森田新町７０８番地,,18,201,9100143,,,2023-07-05,清算の結了等,,,2015-10-05,1,,,,,ココモリタフクシカイ,0
1870,7220001013229,登記記録の閉鎖等,0,2023-07-13,2023-07-03,株式会社正和ベッセル,,株式会社,石川県,加賀市,上河崎町子２９６番地,,17,206,9220013,,,2023-07-03,合併による解散等,2220001013571,令和５年７月１日石川県加賀市山中温泉湯の出町レ２６番地株式会社正和（2220001013571）に合併し解散,2015-10-05,1,,,,,ショウワベッセル,0
1872,7230003000827,登記記録の閉鎖等,0,2023-07-13,2023-07-10,合同会社たかどう鍼灸院,,合同会社,富山県,富山市,久郷３１９番地,,16,201,9300865,,,2023-07-10,清算の結了等,,,2015-10-05,1,,,,,タカドウシンキュウイン,0
1875,7250002002640,登記記録の閉鎖等,0,2023-07-13,2023-06-29,有限会社山口グリーンファーム,,有限会社,山口県,山口市,阿知須３６４２番地の２,,35,203,7541277,,,2023-06-29,清算の結了等,,,2015-10-05,1,,,,,ヤマグチグリーンファーム,0
1877,7260001027027,登記記録の閉鎖等,0,2023-07-13,2023-07-05,杉本建築工房株式会社,,株式会社,岡山県,岡山市東区,東平島１０４２番地１,,33,103,7090631,,,2023-07-05,清算の結了等,,,2015-10-05,1,,,,,スギモトケンチクコウボウ,0
1879,7260002023875,登記記録の閉鎖等,0,2023-07-13,2023-06-30,有限会社常盤新聞販売,,有限会社,岡山県,総社市,溝口２１８番地,,33,208,7191135,,,2023-06-30,清算の結了等,,,2015-10-05,1,,,,,トキワシンブンハンバイ,0
1920,7490001005372,登記記録の閉鎖等,0,2023-07-13,2023-07-04,四国ティッシュ株式会社,,株式会社,高知県,吾川郡いの町,４０６３番地,,39,386,7812110,,,2023-07-04,清算の結了等,,,2015-10-05,1,,,,,シコクティッシュ,0
1947,8010005019374,登記記録の閉鎖等,0,2023-07-13,2023-07-03,一般社団法人住宅保全推進協会,,その他の設立登記法人,東京都,千代田区,富士見１丁目６番１号フジビュータワー飯田橋１００２号,,13,101,1020071,,,2023-07-03,合併による解散等,4010005032901,令和５年６月３０日東京都千代田区丸の内二丁目３番２号郵船ビルディング１階一般財団法人塗装品質機構（4010005032901）に合併し解散,2015-10-05,1,,,,,ジュウタクホゼンスイシンキョウカイ,0
1955,8010401120891,登記記録の閉鎖等,0,2023-07-13,2023-06-27,株式会社ｔｈｅ　ＧＵＥＳＴ,,株式会社,東京都,港区,六本木５丁目１６番５２号インペリアル六本木２号館２０１,,13,103,1060032,,,2023-06-27,清算の結了等,,,2015-10-13,1,,,,,,0
1964,8010501014119,登記記録の閉鎖等,0,2023-07-13,2023-07-11,山形屋産業株式会社,,株式会社,東京都,台東区,上野公園一丁目５９番地,,13,106,1100007,,,2023-07-11,合併による解散等,2010601007936,令和５年７月１日東京都江東区亀戸五丁目２番５号山形屋興業株式会社（2010601007936）に合併し解散,2015-10-05,1,,,,,ヤマガタヤサンギョウ,0
1988,8011501015924,登記記録の閉鎖等,0,2023-07-13,2023-07-03,株式会社トライアイズビジネスサービス,,株式会社,東京都,千代田区,紀尾井町４番１号,,13,101,1020094,,,2023-07-03,合併による解散等,6010001124460,令和５年７月１日東京都千代田区紀尾井町４番１号株式会社トライアイズ（6010001124460）に合併し解散,2015-10-05,1,,,,,トライアイズビジネスサービス,0
1990,8011502011360,登記記録の閉鎖等,0,2023-07-13,2023-07-07,南井軽金属有限会社,,有限会社,東京都,荒川区,町屋６丁目６番５号,,13,118,1160001,,,2023-07-07,清算の結了等,,,2015-10-05,1,,,,,ミナイケイキンゾク,0
2006,8012401022028,登記記録の閉鎖等,0,2023-07-13,2023-07-05,スマートコラボレーション株式会社,,株式会社,東京都,三鷹市,牟礼４丁目１１番１３号,,13,204,1810002,,,2023-07-05,清算の結了等,,,2015-10-05,1,,,,,スマートコラボレーション,0
2013,8013402003108,登記記録の閉鎖等,0,2023-07-13,2023-07-10,有限会社ワイエムエンジニアリング,,有限会社,東京都,多摩市,豊ヶ丘１丁目１２番地１８,,13,224,2060031,,,2023-07-10,清算の結了等,,,2015-10-05,1,,,,,ワイエムエンジニアリング,0
2014,8020001055067,登記記録の閉鎖等,0,2023-07-13,2023-07-03,株式会社ＣＦＭ,,株式会社,神奈川県,横浜市中区,元浜町３丁目２１番地２ヘリオス関内ビル４階,,14,104,2310004,,,2023-07-03,清算の結了等,,,2015-10-05,1,,,,,シーエフエム,0
2017,8020005011066,登記記録の閉鎖等,0,2023-07-13,2023-07-03,特定非営利活動法人とどろき水辺,,その他の設立登記法人,神奈川県,川崎市幸区,小向西町３丁目６４番地,,14,132,2120004,,,2023-07-03,清算の結了等,,,2015-10-05,1,,,,,トドロキミズベ,0
2021,8021002047879,登記記録の閉鎖等,0,2023-07-13,2023-07-05,有限会社ボールパックインペックス,,有限会社,神奈川県,大和市,大和東３丁目９番１号浜屋センタービル５０２号,,14,213,2420017,,,2023-07-05,清算の結了等,,,2015-10-05,1,,,,,ボールパックインペックス,0
2061,8080005005112,登記記録の閉鎖等,0,2023-07-13,2023-07-06,大久保茶農業協同組合,,その他の設立登記法人,静岡県,牧之原市,白井１３５９番地１,,22,226,4210502,,,2023-07-06,清算の結了等,,,2015-10-05,1,,,,,オオクボチャ,0
2074,8110001021927,登記記録の閉鎖等,0,2023-07-13,2023-07-03,株式会社マイライフ,,株式会社,新潟県,柏崎市,柳橋町１０番３６－１０１号,,15,205,9450831,,,2023-07-03,合併による解散等,7110001021928,令和５年７月１日新潟県柏崎市柳橋町１０番３６－１０１号株式会社今井工務店（7110001021928）に合併し解散,2015-10-05,1,,,,,マイライフ,0
2086,8120001227507,登記記録の閉鎖等,0,2023-07-13,2023-07-10,株式会社クオリティダイニング,,株式会社,大阪府,大阪市中央区,日本橋１丁目１７－１７ピカソ日本一ビル６０６,,27,128,5420073,,,2023-07-10,清算の結了等,,,2020-03-03,1,,,,,クオリティダイニング,0
2103,8122001002476,登記記録の閉鎖等,0,2023-07-13,2023-07-03,コーヨー光和株式会社,,株式会社,大阪府,大阪市浪速区,湊町２丁目１番７号,,27,111,5560017,,,2023-07-03,合併による解散等,2290801002874,令和５年７月１日大阪市中央区城見一丁目３番７号ジェイテクトセールス株式会社（2290801002874）に合併し解散,2015-10-05,1,,,,,コーヨーコウワ,0
2122,8140005023842,登記記録の閉鎖等,0,2023-07-13,2023-05-26,特定非営利活動法人ふるさと憩いの家とやま,,その他の設立登記法人,兵庫県,神戸市東灘区,深江南町１丁目１５番３６－４０５号,,28,101,6580022,,,2023-05-26,清算の結了等,,,2017-12-06,1,,,,,フルサトイコイノイエトヤマ,0
2133,8180001100286,登記記録の閉鎖等,0,2023-07-13,2023-07-06,ＬＭＧ株式会社,,株式会社,愛知県,清須市,寺野郷前３７番地,,23,233,4520908,,,2023-07-06,清算の結了等,,,2015-10-05,1,,,,,エルエムジー,0
2136,8180002073779,登記記録の閉鎖等,0,2023-07-13,2023-07-03,有限会社渡辺防水,,有限会社,愛知県,瀬戸市,東山町２丁目４８番地,,23,204,4890988,,,2023-07-03,清算の結了等,,,2015-10-05,1,,,,,ワタナベボウスイ,0
2139,8180302024052,登記記録の閉鎖等,0,2023-07-13,2023-06-29,有限会社カーミン,,有限会社,愛知県,みよし市,三好丘緑５丁目１０番地の１,,23,236,4700205,,,2023-06-29,清算の結了等,,,2015-10-05,1,,,,,カーミン,0
2141,8200002007503,登記記録の閉鎖等,0,2023-07-13,2023-07-06,ＡＭＣ・ロジスティックス有限会社,,有限会社,岐阜県,各務原市,鵜沼西町３丁目９２番地,,21,213,5090132,,,2023-07-06,清算の結了等,,,2015-10-05,1,,,,,エーエムシーロジスティックス,0
2142,8200002013699,登記記録の閉鎖等,0,2023-07-13,2023-07-03,有限会社クリタ企画,,有限会社,岐阜県,不破郡垂井町,栗原１６６４番地,,21,361,5032123,,,2023-07-03,清算の結了等,,,2015-10-05,1,,,,,クリタキカク,0
2178,8350001008925,登記記録の閉鎖等,0,2023-07-13,2023-06-30,株式会社プロテクノ,,株式会社,宮崎県,都城市,高崎町東霧島２９７番地２,,45,202,8894504,,,2023-06-30,清算の結了等,,,2015-10-05,1,,,,,プロテクノ,0
2198,8430005003451,登記記録の閉鎖等,0,2023-07-13,2023-06-28,特定非営利活動法人自立生活センターさっぽろ,,その他の設立登記法人,北海道,札幌市白石区,南郷通１４丁目南２番２号ニュー南郷サンハイツ１階,,01,104,0030022,,,2023-06-28,清算の結了等,,,2015-10-05,1,,,,,ジリツセイカツセンターサッポロ,0
2203,8470001010134,登記記録の閉鎖等,0,2023-07-13,2023-07-10,株式会社横山商店,,株式会社,香川県,観音寺市,観音寺町甲３２０５番地,,37,205,7680060,,,2023-07-10,清算の結了等,,,2015-10-05,1,,,,,ヨコヤマショウテン,0
2210,8500001004520,登記記録の閉鎖等,0,2023-07-13,2023-07-12,株式会社ティーエフ,,株式会社,愛媛県,松山市,鷹子町８５８番地７,,38,201,7900925,,,2023-07-12,清算の結了等,,,2015-10-05,1,,,,,ティーエフ,0
2243,9010405009528,登記記録の閉鎖等,0,2023-07-13,2023-06-28,一般社団法人外国語通訳検定協会,,その他の設立登記法人,東京都,港区,虎ノ門２丁目２番５号共同通信会館４Ｆ（株）インターグループ内,00051068,13,103,1050001,,,2023-06-28,清算の結了等,,,2015-10-05,1,,,,,ガイコクゴツウヤクケンテイキョウカイ,0
2249,9010701019197,登記記録の閉鎖等,0,2023-07-13,2023-07-10,株式会社イチボウ,,株式会社,東京都,品川区,西五反田１丁目２９番１号,,13,109,1410031,,,2023-07-10,合併による解散等,4011301005617,令和５年７月１日東京都杉並区上高井戸一丁目１３番１号ノーミシステム株式会社（4011301005617）に合併し解散,2015-10-05,1,,,,,イチボウ,0
2256,9011001116354,登記記録の閉鎖等,0,2023-07-13,2023-07-06,ヒューマンテクノエンジニアリング株式会社,,株式会社,東京都,渋谷区,代々木２丁目２３番１－６４９号,,13,113,1510053,,,2023-07-06,清算の結了等,,,2017-05-16,1,,,,,ヒューマンテクノエンジニアリング,0
2268,9011401022879,登記記録の閉鎖等,0,2023-07-13,2023-07-10,株式会社ＲＳＰ,,株式会社,東京都,板橋区,小茂根１丁目２４番６－３０２号,,13,119,1730037,,,2023-07-10,清算の結了等,,,2020-10-13,1,,,,,,0
2284,9012403001383,登記記録の閉鎖等,0,2023-07-13,2023-07-05,システムデザイン＆サポート合同会社,,合同会社,東京都,国分寺市,西町２丁目１４番地３,,13,214,1850035,,,2023-07-05,清算の結了等,,,2015-10-05,1,,,,,システムデザインアンドサポート,0
2288,9012801010060,登記記録の閉鎖等,0,2023-07-13,2023-07-10,株式会社東鳳企画,,株式会社,東京都,あきる野市,瀬戸岡１５７番地１,,13,228,1970803,,,2023-07-10,清算の結了等,,,2015-10-05,1,,,,,,0
2289,9013101006006,登記記録の閉鎖等,0,2023-07-13,2023-07-10,株式会社西多摩電建,,株式会社,東京都,あきる野市,瀬戸岡１５７－１第６メゾン麗１０３,,13,228,1970803,,,2023-07-10,清算の結了等,,,2015-10-05,1,,,,,,0
2317,9040001078016,登記記録の閉鎖等,0,2023-07-13,2023-07-10,第一アパレル株式会社,,株式会社,東京都,新宿区,戸山１丁目９番３号,,13,104,1620052,,,2023-07-10,清算の結了等,,,2015-10-05,1,,,,,ダイイチアパレル,0
2336,9080102011714,登記記録の閉鎖等,0,2023-07-13,2023-07-10,有限会社溝渕通信,,有限会社,静岡県,三島市,富士ビレッジ３７番１号,,22,206,4110028,,,2023-07-10,清算の結了等,,,2015-10-05,1,,,,,ミゾブチツウシン,0
2346,9090002004239,登記記録の閉鎖等,0,2023-07-13,2023-07-04,有限会社サックス山口,,有限会社,山梨県,中央市,山之神１１２２番地オギノリバーサイドモール内,,19,214,4093845,,,2023-07-04,清算の結了等,,,2015-10-05,1,,,,,,0
2357,9120001231607,登記記録の閉鎖等,0,2023-07-13,2023-07-10,マスターズホーム株式会社,,株式会社,大阪府,大阪市西区,北堀江１丁目６番２６号橋本ビル１階,,27,106,5500014,,,2023-07-10,清算の結了等,,,2020-09-09,1,,,,,マスターズホーム,0
2381,9130002005100,登記記録の閉鎖等,0,2023-07-13,2023-06-30,有限会社京永興産,,有限会社,京都府,京都市左京区,下鴨泉川町６番地の７２,,26,103,6060807,,,2023-06-30,清算の結了等,,,2015-10-05,1,,,,,キョウエイコウサン,0
2389,9140003007367,登記記録の閉鎖等,0,2023-07-13,2023-07-05,合資会社青翠社,,合資会社,兵庫県,姫路市,中地４７６番地の２,,28,201,6700976,,,2023-07-05,清算の結了等,,,2015-10-05,1,,,,,セイスイシャ,0
2398,9180001045464,登記記録の閉鎖等,0,2023-07-13,2023-07-05,株式会社三眞,,株式会社,愛知県,清須市,土器野２６８番地の１,,23,233,4520914,,,2023-07-05,清算の結了等,,,2015-10-05,1,,,,,サンシン,0
2421,9240002002887,登記記録の閉鎖等,0,2023-07-13,2023-07-03,有限会社ＡＳＡエンジニア,,有限会社,広島県,広島市安佐北区,安佐町久地名原２６８３－８２,,34,106,7391700,,,2023-07-03,清算の結了等,,,2015-10-05,1,,,,,アサエンジニア,0
2471,9440005001271,登記記録の閉鎖等,0,2023-07-13,2023-07-10,特定非営利活動法人ＡＣプリマベーラ,,その他の設立登記法人,北海道,函館市,湯浜町９番２２号,,01,202,0420933,,,2023-07-10,清算の結了等,,,2015-10-05,1,,,,,エーシープリマベーラ,0
