sequenceNumber,corporateNumber,process,correct,updateDate,changeDate,name,nameImageId,kind,prefectureName,cityName,streetNumber,addressImageId,prefectureCode,cityCode,postCode,addressOutside,addressOutsideImageId,closeDate,closeCause,successorCorporateNumber,changeCause,assignmentDate,latest,enName,enPrefectureName,enCityName,enAddressOutside,furigana,hihyoji
18,1010001241467,新規,0,2024-01-17,2024-01-17,エレクトロフューチャーズ株式会社,,株式会社,東京都,千代田区,大手町１丁目４番２号,,13,101,1000004,,,,,,,2024-01-17,1,,,,,エレクトロフューチャーズ,0
19,1010001241483,新規,0,2024-01-17,2024-01-17,株式会社ＯＰＵＬＡ,,株式会社,東京都,中央区,銀座１丁目１５－４,,13,102,1040061,,,,,,,2024-01-17,1,,,,,オプラ,0
27,1010003042657,新規,0,2024-01-17,2024-01-17,合同会社Ｗａｓａｎ,,合同会社,東京都,中央区,銀座１丁目２２番１１号銀座大竹ビジデンス２Ｆ合同会社Ｗａｓａｎ,,13,102,1040061,,,,,,,2024-01-17,1,,,,,ワサン,0
28,1010003042673,新規,0,2024-01-17,2024-01-17,Ｈｙｖｅ合同会社,,合同会社,東京都,千代田区,二番町１番２号,,13,101,1020084,,,,,,,2024-01-17,1,,,,,ハイブ,0
30,1010005037746,新規,0,2024-01-17,2024-01-17,一般社団法人グリーンビルＰＪ２,,その他の設立登記法人,東京都,中央区,日本橋１丁目４番１号,,13,102,1030027,,,,,,,2024-01-17,1,,,,,グリーンビルピージェイツー,0
38,1010401179745,新規,0,2024-01-17,2024-01-17,ＡＰＰＬＥ　ＳＣＩＥＮＣＥ株式会社,,株式会社,東京都,港区,北青山１丁目３－１アールキューブ青山３階,,13,103,1070061,,,,,,,2024-01-17,1,,,,,アップルサイエンス,0
39,1010401179778,新規,0,2024-01-17,2024-01-17,黒田商事株式会社,,株式会社,東京都,港区,浜松町２丁目２番１５号浜松町ダイヤビル２Ｆ,,13,103,1050013,,,,,,,2024-01-17,1,,,,,クロダショウジ,0
40,1010401179803,新規,0,2024-01-17,2024-01-17,サイクライフ・ジャパン株式会社,,株式会社,東京都,港区,虎ノ門１丁目１６番４号アーバン虎ノ門ビル５階,,13,103,1050001,,,,,,,2024-01-17,1,,,,,サイクライフジャパン,0
41,1010403031747,新規,0,2024-01-17,2024-01-17,ピーエスアール合同会社,,合同会社,東京都,港区,元赤坂１丁目２番１７号２８０５,,13,103,1070051,,,,,,,2024-01-17,1,,,,,ピーエスアール,0
42,1010405022835,新規,0,2024-01-17,2024-01-17,ＲＳ＆パートナーズ税理士法人,,その他の設立登記法人,東京都,港区,芝浦４丁目２番２２－９１７号,,13,103,1080023,,,,,,,2024-01-17,1,,,,,アールエスアンドパートナーズ,0
46,1010801034698,新規,0,2024-01-17,2024-01-17,株式会社Ｌｏｎｇ　Ｌｉｆｅ　Ｒｏｓｅ,,株式会社,東京都,大田区,中央６丁目２９番３号,,13,111,1430024,,,,,,,2024-01-17,1,,,,,ロングライフローズ,0
50,1010903008732,新規,0,2024-01-17,2024-01-17,ＳＵＮ　ＲＩＤＤＩＭ合同会社,,合同会社,東京都,世田谷区,太子堂３丁目３２番１１号,,13,112,1540004,,,,,,,2024-01-17,1,,,,,サンリディム,0
51,1010903008740,新規,0,2024-01-17,2024-01-17,合同会社Ｈｗｙｌ,,合同会社,東京都,世田谷区,玉川３丁目３５番３０号リバーフィールド玉川３０２,,13,112,1580094,,,,,,,2024-01-17,1,,,,,ヒュイル,0
54,1011001159360,新規,0,2024-01-17,2024-01-17,株式会社モルク,,株式会社,東京都,渋谷区,道玄坂１丁目１０番８号渋谷道玄坂東急ビル２Ｆ－Ｃ,,13,113,1500043,,,,,,,2024-01-17,1,,,,,モルク,0
55,1011001159385,新規,0,2024-01-17,2024-01-17,株式会社ＫｏｊＹｕ,,株式会社,東京都,渋谷区,恵比寿西２丁目３番１６号,,13,113,1500021,,,,,,,2024-01-17,1,,,,,コージュ,0
56,1011001159427,新規,0,2024-01-17,2024-01-17,株式会社くるみ,,株式会社,東京都,渋谷区,上原２丁目４３番７号モリグチハイツ２０３,,13,113,1510064,,,,,,,2024-01-17,1,,,,,クルミ,0
60,1011003018242,新規,0,2024-01-17,2024-01-17,合同会社Ｖｉｒｔｕａｌ,,合同会社,東京都,目黒区,上目黒４丁目２８番４号Ａｎｅｌａ祐天寺２０１,,13,110,1530051,,,,,,,2024-01-17,1,,,,,バーチャル,0
61,1011003018275,新規,0,2024-01-17,2024-01-17,合同会社未来ＤＯＯＲ,,合同会社,東京都,渋谷区,恵比寿西２丁目８番４号ＥＸ恵比寿西ビル５Ｆ,,13,113,1500021,,,,,,,2024-01-17,1,,,,,ミライドア,0
67,1011101105842,新規,0,2024-01-17,2024-01-17,Ｃａｎｌｉｆｅ　Ｐｅｔｓ　ＪＰ株式会社,,株式会社,東京都,新宿区,高田馬場１丁目１６－１３ＴＲアーバンプレイス高田馬場Ｉ２０７号室,,13,104,1690075,,,,,,,2024-01-17,1,,,,,キャンライフペッツジェイピー,0
68,1011103013977,新規,0,2024-01-17,2024-01-17,合同会社倉部史記オフィス,,合同会社,東京都,新宿区,西新宿３丁目３番１３号西新宿水間ビル６階,,13,104,1600023,,,,,,,2024-01-17,1,,,,,クラベシキオフィス,0
69,1011105010915,新規,0,2024-01-17,2024-01-17,一般社団法人Ｒａｉｏｎ　Ｆｕｎｄ　１Ａ,,その他の設立登記法人,東京都,新宿区,四谷２丁目９番地１５東京ユナイテッド綜合事務所内,,13,104,1600004,,,,,,,2024-01-17,1,,,,,ライオンファンドイチエー,0
76,1011303005023,新規,0,2024-01-17,2024-01-17,合同会社柚子の木,,合同会社,東京都,杉並区,高円寺南３丁目４６－１０ＶＯＲＴ高円寺南３Ｆ,,13,115,1660003,,,,,,,2024-01-17,1,,,,,ユズノキ,0
84,1011803006041,新規,0,2024-01-17,2024-01-17,合同会社ＳＡＷＡ,,合同会社,東京都,足立区,西新井７丁目１０番３号,,13,121,1230841,,,,,,,2024-01-17,1,,,,,サワ,0
85,1012301013736,新規,0,2024-01-17,2024-01-17,株式会社Ｄｉｖｉｎｅ,,株式会社,東京都,町田市,小山ヶ丘４丁目７番地１ルネグランディア８０９号,,13,209,1940215,,,,,,,2024-01-17,1,,,,,ディバイン,0
94,1013301051908,新規,0,2024-01-17,2024-01-17,Ｃｏｎ‐Ｐｒｏｆｅｓｓ株式会社,,株式会社,東京都,豊島区,池袋３丁目３４号７番ビジネスパーク池袋２階,,13,116,1710014,,,,,,,2024-01-17,1,,,,,コンプロフェス,0
98,1013303006959,新規,0,2024-01-17,2024-01-17,合同会社トモユリ,,合同会社,東京都,豊島区,東池袋１丁目３４番５号いちご東池袋ビル６階,,13,116,1700013,,,,,,,2024-01-17,1,,,,,トモユリ,0
124,1021003014026,新規,0,2024-01-17,2024-01-17,合同会社ｍｅｔａｍｏｒｐｈｏｓｅ,,合同会社,神奈川県,鎌倉市,長谷２丁目２０番１９号ゼフィールプラージュ由比ガ浜３０１,,14,204,2480016,,,,,,,2024-01-17,1,,,,,メタモルフォーズ,0
129,1030001158189,新規,0,2024-01-17,2024-01-17,Ｈｉ　ＴｒｕｓｔｅＱ株式会社,,株式会社,埼玉県,川口市,大字安行原１２４３番地の１０,,11,203,3340057,,,,,,,2024-01-17,1,,,,,ハイトラステック,0
138,1030003023424,新規,0,2024-01-17,2024-01-17,ｎａｔｕｒａｌ　ｌｅａｆ合同会社,,合同会社,埼玉県,越谷市,南越谷４丁目１２番地３－１００５,,11,222,3430845,,,,,,,2024-01-17,1,,,,,ナチュラルリーフ,0
144,1040001131731,新規,0,2024-01-17,2024-01-17,株式会社ＪＡＭ,,株式会社,千葉県,浦安市,堀江６丁目４－４４、１Ｆ,,12,227,2790041,,,,,,,2024-01-17,1,,,,,ジャム,0
151,1050001054114,新規,0,2024-01-17,2024-01-17,ＡＣ商事株式会社,,株式会社,茨城県,取手市,井野５６６番地４６,,08,217,3020011,,,,,,,2024-01-17,1,,,,,エーシーショウジ,0
152,1050003008068,新規,0,2024-01-17,2024-01-17,Ｄ＆Ｔ合同会社,,合同会社,茨城県,土浦市,西真鍋町１２番２４号,,08,203,3000054,,,,,,,2024-01-17,1,,,,,ディーアンドティー,0
157,1060003004867,新規,0,2024-01-17,2024-01-17,合同会社ＳＯＬ,,合同会社,栃木県,塩谷郡塩谷町,大字田所５５０－２,,09,384,3292331,,,,,,,2024-01-17,1,,,,,ソル,0
158,1060003004875,新規,0,2024-01-17,2024-01-17,合同会社ことは,,合同会社,栃木県,栃木市,藤岡町藤岡８７１番地１８,,09,203,3231104,,,,,,,2024-01-17,1,,,,,コトハ,0
160,1070001041283,新規,0,2024-01-17,2024-01-17,株式会社リュパン,,株式会社,群馬県,高崎市,新町１６５１番地１０,,10,202,3701301,,,,,,,2024-01-17,1,,,,,リュパン,0
163,1070003005229,新規,0,2024-01-17,2024-01-17,合同会社ＭＡＲＫ,,合同会社,群馬県,高崎市,上中居町１５４番地２,,10,202,3700851,,,,,,,2024-01-17,1,,,,,マーク,0
165,1080001026085,新規,0,2024-01-17,2024-01-17,株式会社長谷川事務所,,株式会社,静岡県,静岡市駿河区,池田１３５７番地の５,,22,102,4228005,,,,,,,2024-01-17,1,,,,,ハセガワジムショ,0
167,1080101024468,新規,0,2024-01-17,2024-01-17,アーシュファクト株式会社,,株式会社,静岡県,富士市,大淵２３１８番４９,,22,210,4170801,,,,,,,2024-01-17,1,,,,,アーシュファクト,0
168,1080101024476,新規,0,2024-01-17,2024-01-17,Ｒｅｆｉｎｅ株式会社,,株式会社,静岡県,御殿場市,茱萸沢６２番地の１０,,22,215,4120041,,,,,,,2024-01-17,1,,,,,リファイン,0
169,1080101024484,新規,0,2024-01-17,2024-01-17,株式会社すべては楽しいから始まる,,株式会社,静岡県,三島市,泉町５番２３号,,22,206,4110037,,,,,,,2024-01-17,1,,,,,スベテハタノシイカラハジマル,0
171,1080401026949,新規,0,2024-01-17,2024-01-17,株式会社ＤＡＩＤＥＮ,,株式会社,静岡県,浜松市中央区,幸１丁目１５番１８号,,22,138,4338123,,,,,,,2024-01-17,1,,,,,ダイデン,0
210,1090001018494,新規,0,2024-01-17,2024-01-17,株式会社想像コミュニティ,,株式会社,山梨県,甲斐市,玉川７０３番地４,,19,210,4000116,,,,,,,2024-01-17,1,,,,,ソウゾウコミュニティ,0
211,1090003002471,新規,0,2024-01-17,2024-01-17,合同会社ＴＲＩＡＮＧＬＥ　ＭＹ‐ＦＩＴ,,合同会社,山梨県,甲府市,美咲１丁目２番２３号,,19,201,4000007,,,,,,,2024-01-17,1,,,,,トライアングルマイフィット,0
212,1100003007361,新規,0,2024-01-17,2024-01-17,Ｔ＆Ｔ　ｔｅｃ合同会社,,合同会社,長野県,上田市,上田３番地６,,20,203,3860001,,,,,,,2024-01-17,1,,,,,ティアンドティテック,0
218,1120001261198,新規,0,2024-01-17,2024-01-17,美力和合株式会社,,株式会社,大阪府,大阪市中央区,南船場２丁目１１番４－３０８号,,27,128,5420081,,,,,,,2024-01-17,1,,,,,ビリョクワゴウ,0
219,1120001261339,新規,0,2024-01-17,2024-01-17,株式会社日貨貿易,,株式会社,大阪府,大阪市中央区,島之内２丁目１２番１５－６０４号,,27,128,5420082,,,,,,,2024-01-17,1,,,,,ニッカボウエキ,0
220,1120001261355,新規,0,2024-01-17,2024-01-17,株式会社三井ハウス,,株式会社,大阪府,寝屋川市,黒原橘町１８番１号,,27,215,5720058,,,,,,,2024-01-17,1,,,,,ミツイハウス,0
221,1120001261371,新規,0,2024-01-17,2024-01-17,株式会社空白,,株式会社,大阪府,大阪市北区,黒崎町１４番４号,,27,127,5300023,,,,,,,2024-01-17,1,,,,,クウハク,0
222,1120001261388,新規,0,2024-01-17,2024-01-17,株式会社オフィスＫｅｙ,,株式会社,大阪府,大阪市天王寺区,筆ケ崎町２番１０－２１０３号,,27,109,5430027,,,,,,,2024-01-17,1,,,,,オフィスキー,0
223,1120001261396,新規,0,2024-01-17,2024-01-17,株式会社ｔｕｎａｇｕ,,株式会社,大阪府,大阪市中央区,南船場４丁目４番１０号辰野心斎橋ビル８Ｆ,,27,128,5420081,,,,,,,2024-01-17,1,,,,,ツナグ,0
227,1120003025675,新規,0,2024-01-17,2024-01-17,合同会社Ｓｎｏｗ　Ａｇｅｎｔ,,合同会社,大阪府,大阪市淀川区,宮原５丁目４－１８－５０７,,27,123,5320003,,,,,,,2024-01-17,1,,,,,スノーエージェント,0
228,1120003025700,新規,0,2024-01-17,2024-01-17,合同会社クリスタ,,合同会社,大阪府,大阪市東淀川区,東中島１丁目２１番２４－３０６号,,27,114,5330033,,,,,,,2024-01-17,1,,,,,クリスタ,0
232,1120103005635,新規,0,2024-01-17,2024-01-17,エルエスフィールド合同会社,,合同会社,大阪府,泉南郡田尻町,吉見９６５―１,,27,362,5980092,,,,,,,2024-01-17,1,,,,,エルエスフィールド,0
234,1120901048637,新規,0,2024-01-17,2024-01-17,株式会社いろどりポスティング,,株式会社,大阪府,箕面市,彩都粟生南４丁目２番１０－９０７号,,27,220,5620028,,,,,,,2024-01-17,1,,,,,イロドリポスティング,0
235,1122001037743,新規,0,2024-01-17,2024-01-17,株式会社さ藤,,株式会社,大阪府,四條畷市,西中野１丁目２－４４－２０７,,27,229,5750055,,,,,,,2024-01-17,1,,,,,サトウ,0
236,1130001076133,新規,0,2024-01-17,2024-01-17,Ｒｉｓｅ株式会社,,株式会社,京都府,京都市山科区,上花山久保町３６番地４,,26,110,6078464,,,,,,,2024-01-17,1,,,,,ライズ,0
237,1130005016952,新規,0,2024-01-17,2024-01-17,労働者協同組合ＴＡＮＧＯ　ＣＲＥＷ’Ｓ,,その他の設立登記法人,京都府,京丹後市,丹後町遠下８０４番地,,26,212,6270239,,,,,,,2024-01-17,1,,,,,タンゴクルーズ,0
242,1140003020055,新規,0,2024-01-17,2024-01-17,合同会社Ａ‐ＦＲＯＧ,,合同会社,兵庫県,尼崎市,立花町４丁目８番２４プリエ１０３号,,28,202,6610025,,,,,,,2024-01-17,1,,,,,エーフロッグ,0
243,1150001027010,新規,0,2024-01-17,2024-01-17,株式会社ＦＬＡＴ‐ＭＡＭＡ,,株式会社,奈良県,橿原市,中曽司町８０番地の５古市工務店本社ビル４階－Ａ,,29,205,6340845,,,,,,,2024-01-17,1,,,,,フラットママ,0
244,1160001025640,新規,0,2024-01-17,2024-01-17,株式会社アールカンパニー,,株式会社,滋賀県,大津市,比叡平１丁目１３番１３号,,25,201,5200016,,,,,,,2024-01-17,1,,,,,アールカンパニー,0
245,1160003003090,新規,0,2024-01-17,2024-01-17,合同会社中川教育研究所,,合同会社,滋賀県,大津市,粟津町１３番１８号平野ビル２階,,25,201,5200832,,,,,,,2024-01-17,1,,,,,ナカガワキョウイクケンキュウショ,0
248,1170001017967,新規,0,2024-01-17,2024-01-17,株式会社ＭＴＫＳＨＯＰ,,株式会社,和歌山県,岩出市,新田広芝９２番地の１４,,30,209,6496212,,,,,,,2024-01-17,1,,,,,エムティケイショップ,0
254,1180001159759,新規,0,2024-01-17,2024-01-17,株式会社Ｐプライムコンサルタンツ,,株式会社,愛知県,名古屋市中区,丸の内２丁目１７番１３号４０２号室,,23,106,4600002,,,,,,,2024-01-17,1,,,,,ピープライムコンサルタンツ,0
255,1180001159767,新規,0,2024-01-17,2024-01-17,株式会社ＳＡＫＩＹＡグローバル,,株式会社,愛知県,名古屋市東区,東大曽根町１６番１５号,,23,102,4610022,,,,,,,2024-01-17,1,,,,,サキヤグローバル,0
257,1180003026164,新規,0,2024-01-17,2024-01-17,錦新盛合同会社,,合同会社,愛知県,名古屋市名東区,上社４丁目５７番地の５（第２フェアモント５０２号）,,23,115,4650025,,,,,,,2024-01-17,1,,,,,ニシキシンセイ,0
258,1180003026247,新規,0,2024-01-17,2024-01-17,ｉｍａｃｏｃｏ合同会社,,合同会社,愛知県,名古屋市中区,栄５丁目２６番３６号ＧＳ栄ＩＩビル７Ｆ,,23,106,4600008,,,,,,,2024-01-17,1,,,,,イマココ,0
259,1180005020495,新規,0,2024-01-17,2024-01-17,一般社団法人ベストパートナーズ,,その他の設立登記法人,愛知県,名古屋市千種区,池下１丁目５番１６号ＴＡＫＥＩＢＬＤＧ．２０２１－３階,,23,101,4640067,,,,,,,2024-01-17,1,,,,,ベストパートナーズ,0
274,1210001019604,新規,0,2024-01-17,2024-01-17,株式会社オールトライズ,,株式会社,福井県,福井市,光陽３丁目６番２１号,,18,201,9100026,,,,,,,2024-01-17,1,,,,,オールトライズ,0
275,1220001025774,新規,0,2024-01-17,2024-01-17,株式会社ＭＩＲＵＳ,,株式会社,石川県,金沢市,福増町南３２８番地１,,17,201,9200376,,,,,,,2024-01-17,1,,,,,ミルス,0
280,1240001062667,新規,0,2024-01-17,2024-01-17,福真工業株式会社,,株式会社,広島県,福山市,新市町新市９０４－６,,34,207,7210000,,,,,,,2024-01-17,1,,,,,フクシンシンコウギョウ,0
285,1260001038665,新規,0,2024-01-17,2024-01-17,株式会社新し屋三木,,株式会社,岡山県,岡山市中区,門田屋敷２丁目３番８号,,33,102,7038275,,,,,,,2024-01-17,1,,,,,アタラシヤミキ,0
314,1290801030224,新規,0,2024-01-17,2024-01-17,井上創建株式会社,,株式会社,福岡県,直方市,大字下境３７６０番地２,,40,204,8220007,,,,,,,2024-01-17,1,,,,,イノウエソウケン,0
328,1330001031654,新規,0,2024-01-17,2024-01-17,株式会社かわはた設備,,株式会社,熊本県,熊本市東区,八反田３丁目１８番１４号,,43,102,8618034,,,,,,,2024-01-17,1,,,,,カワハタセツビ,0
329,1330001031670,新規,0,2024-01-17,2024-01-17,株式会社キカク,,株式会社,熊本県,熊本市東区,東野１丁目６番４号（４０３）,,43,102,8612106,,,,,,,2024-01-17,1,,,,,キカク,0
332,1330003010169,新規,0,2024-01-17,2024-01-17,合同会社ＳＧ３,,合同会社,熊本県,熊本市中央区,草葉町２番３２号２Ａ,,43,101,8600843,,,,,,,2024-01-17,1,,,,,エスジースリー,0
334,1340003004351,新規,0,2024-01-17,2024-01-17,合同会社Ｔｒｏｍｍｅｌ,,合同会社,鹿児島県,鹿児島市,上之園町１８番地１　１階,,46,201,8900052,,,,,,,2024-01-17,1,,,,,トロンメル,0
361,1450001014201,新規,0,2024-01-17,2024-01-17,Ｆｒｅｅ　Ｌｉｆｅ株式会社,,株式会社,北海道,旭川市,南九条通２６丁目５８９番地５６,,01,204,0788339,,,,,,,2024-01-17,1,,,,,フリーライフ,0
366,1500001025416,新規,0,2024-01-17,2024-01-17,協栄サポート株式会社,,株式会社,愛媛県,新居浜市,萩生７０９番地の２７,,38,205,7920050,,,,,,,2024-01-17,1,,,,,キョウエイサポート,0
369,1700150123355,新規,0,2024-01-17,2024-01-17,深セン市英唐智能控制股フン有限公司,,外国会社等,東京都,中野区,中野４丁目１０番２号１６階,,13,114,1640001,中華人民共和国広東省深セン市宝安区新安街道海旺社区宝興路６号海納百川本社ビルＢ座６階７階８階,,,,,,2024-01-17,1,,,,,シンセンシエイトウチノウコウセイグウフンユウゲンコウシ,0
382,2010001241474,新規,0,2024-01-17,2024-01-17,株式会社家光,,株式会社,東京都,中央区,日本橋室町１丁目１１番１２号,,13,102,1030022,,,,,,,2024-01-17,1,,,,,イエミツ,0
383,2010003042648,新規,0,2024-01-17,2024-01-17,フェザーフィールド合同会社,,合同会社,東京都,千代田区,九段南１丁目５番６号りそな九段ビル５ＦＫＳフロア,,13,101,1020074,,,,,,,2024-01-17,1,,,,,フェザーフィールド,0
384,2010003042664,新規,0,2024-01-17,2024-01-17,ＳＰＲＡＳＡＮＮ合同会社,,合同会社,東京都,中央区,日本橋室町１丁目１１番１２号日本橋水野ビル７階,,13,102,1030022,,,,,,,2024-01-17,1,,,,,スプラサン,0
394,2010403031746,新規,0,2024-01-17,2024-01-17,合同会社ｓｔ８ｙ,,合同会社,東京都,港区,浜松町１丁目３－２－２６０３,,13,103,1050013,,,,,,,2024-01-17,1,,,,,ステイ,0
395,2010403031754,新規,0,2024-01-17,2024-01-17,Ｕｎｉ合同会社,,合同会社,東京都,港区,芝浦４丁目１５番１－１５０３号,,13,103,1080023,,,,,,,2024-01-17,1,,,,,ユニ,0
400,2010601064465,新規,0,2024-01-17,2024-01-17,ＥＭＩＴＯ株式会社,,株式会社,東京都,江東区,亀戸５丁目６－２１ＵＩＷ９ＢＬＤＧ２Ｆ、ＢＩＺｃｏｍｆｏｒｔ亀戸,,13,108,1360071,,,,,,,2024-01-17,1,,,,,エミト,0
403,2010701045407,新規,0,2024-01-17,2024-01-17,株式会社愛一朗,,株式会社,東京都,品川区,小山３丁目６番１５号,,13,109,1420062,,,,,,,2024-01-17,1,,,,,アイイチロウ,0
406,2010805003087,新規,0,2024-01-17,2024-01-17,一般社団法人インドネシア文化センター,,その他の設立登記法人,東京都,大田区,中央１丁目１８番６－２０５号,,13,111,1430024,,,,,,,2024-01-17,1,,,,,インドネシアブンカセンター,0
411,2011001159203,新規,0,2024-01-17,2024-01-17,株式会社ＳＵＰＰＬＩＳＥ,,株式会社,東京都,渋谷区,神宮前４丁目９番１７号,,13,113,1500001,,,,,,,2024-01-17,1,,,,,サプライズ,0
412,2011001159384,新規,0,2024-01-17,2024-01-17,株式会社ＭＥＴＲＡＴＴＯＮ,,株式会社,東京都,渋谷区,道玄坂１丁目１０番８号渋谷道玄坂東急ビル２Ｆ－Ｃ,,13,113,1500043,,,,,,,2024-01-17,1,,,,,メトラトン,0
413,2011003018233,新規,0,2024-01-17,2024-01-17,合同会社ＣｏＭａｒｋｅＧｅｎｃｙ,,合同会社,東京都,渋谷区,渋谷２丁目１９－１５宮益坂ビルディング６０９,,13,113,1500002,,,,,,,2024-01-17,1,,,,,コマーケジェンシー,0
417,2011101105759,新規,0,2024-01-17,2024-01-17,日本盛弘株式会社,,株式会社,東京都,新宿区,百人町２丁目１番４５号赤煉瓦２４６,,13,104,1690073,,,,,,,2024-01-17,1,,,,,ニホンモリヒロ,0
418,2011101105791,新規,0,2024-01-17,2024-01-17,株式会社エガリテ,,株式会社,東京都,新宿区,四谷３丁目１３ＳＥＡＢＩＲＤビル２階,,13,104,1600004,,,,,,,2024-01-17,1,,,,,エガリテ,0
419,2011101105817,新規,0,2024-01-17,2024-01-17,株式会社Ｅｎ　Ｉｎｎｏｖａｔｉｏｎ,,株式会社,東京都,新宿区,西新宿７丁目１８番１８号新宿税理士ビル別館４１１,,13,104,1600023,,,,,,,2024-01-17,1,,,,,エンイノベーション,0
422,2011103013968,新規,0,2024-01-17,2024-01-17,合同会社カードマスター,,合同会社,東京都,新宿区,北山伏町２番３号,,13,104,1620853,,,,,,,2024-01-17,1,,,,,カードマスター,0
423,2011105010914,新規,0,2024-01-17,2024-01-17,一般社団法人ダンデライオン２,,その他の設立登記法人,東京都,新宿区,四谷２丁目９番地１５東京ユナイテッド綜合事務所内,,13,104,1600004,,,,,,,2024-01-17,1,,,,,ダンデライオンツー,0
424,2011203004280,新規,0,2024-01-17,2024-01-17,Ａｒｃｓｈａｒ合同会社,,合同会社,東京都,中野区,弥生町１丁目４６番２－３０６号,,13,114,1640013,,,,,,,2024-01-17,1,,,,,アークシャー,0
438,2012301013735,新規,0,2024-01-17,2024-01-17,株式会社ＳＯＡＲ空調設備,,株式会社,東京都,町田市,野津田町１１１０番地６,,13,209,1950063,,,,,,,2024-01-17,1,,,,,ソアークウチョウセツビ,0
441,2012401041421,新規,0,2024-01-17,2024-01-17,ａｐｎａ株式会社,,株式会社,東京都,多摩市,馬引沢１丁目１６番地の１０コーシンパートＩＩＩ２０８,00133374,13,224,2060023,,,,,,,2024-01-17,1,,,,,アプナ,0
442,2012403006364,新規,0,2024-01-17,2024-01-17,ｅｎｃｕｓｔｏｍｉｓｅ合同会社,,合同会社,東京都,多摩市,落合１丁目４６番地１ココリア多摩センター７階ＣｏＣｏプレイス,,13,224,2060033,,,,,,,2024-01-17,1,,,,,エンカスタマイズ,0
460,2020001155319,新規,0,2024-01-17,2024-01-17,株式会社ピーク・ジャパン,,株式会社,神奈川県,横浜市港北区,新横浜２丁目６番３号ＤＳＭ新横浜ビル２階,,14,109,2220033,,,,,,,2024-01-17,1,,,,,ピークジャパン,0
469,2021001081224,新規,0,2024-01-17,2024-01-17,株式会社Ｍ‐ＳＴＹＬＥ,,株式会社,神奈川県,三浦郡葉山町,木古庭３７９番地の４,,14,301,2400114,,,,,,,2024-01-17,1,,,,,エムスタイル,0
470,2021001081232,新規,0,2024-01-17,2024-01-17,株式会社メイクマイデイ,,株式会社,神奈川県,藤沢市,辻堂太平台２丁目３番６～６号,,14,205,2510044,,,,,,,2024-01-17,1,,,,,メイクマイデイ,0
471,2021001081240,新規,0,2024-01-17,2024-01-17,株式会社自遊堂,,株式会社,神奈川県,大和市,中央林間２丁目５番１７－２号,,14,213,2420007,,,,,,,2024-01-17,1,,,,,ジユウドウ,0
476,2021003014025,新規,0,2024-01-17,2024-01-17,合同会社サクラ,,合同会社,神奈川県,平塚市,御殿３丁目４番３５号,,14,203,2540061,,,,,,,2024-01-17,1,,,,,サクラ,0
482,2021005012992,新規,0,2024-01-17,2024-01-17,ＮＰＯ法人帰郷,,その他の設立登記法人,神奈川県,相模原市中央区,陽光台３丁目１９番１６号,,14,152,2520226,,,,,,,2024-01-17,1,,,,,キキョウ,0
488,2030001158097,新規,0,2024-01-17,2024-01-17,株式会社ＣＳスマイル,,株式会社,埼玉県,さいたま市緑区,美園３丁目６番地３６,,11,109,3360967,,,,,,,2024-01-17,1,,,,,シーエススマイル,0
489,2030001158188,新規,0,2024-01-17,2024-01-17,株式会社松工,,株式会社,埼玉県,北本市,中丸６丁目２０４番地,,11,233,3640013,,,,,,,2024-01-17,1,,,,,マツコウ,0
497,2040001131796,新規,0,2024-01-17,2024-01-17,ＹＡＳＩＲＵ　ＡＵＴＯ　ＥＮＴＥＲＰＲＩＳＥＳ株式会社,,株式会社,千葉県,八千代市,島田字大久保３８－１－２,,12,221,2760005,,,,,,,2024-01-17,1,,,,,ヤシルオートエンタープライズ,0
502,2040003024049,新規,0,2024-01-17,2024-01-17,合同会社トクサポ,,合同会社,千葉県,野田市,鶴奉３番地,,12,208,2780003,,,,,,,2024-01-17,1,,,,,トクサポ,0
507,2060001036746,新規,0,2024-01-17,2024-01-17,株式会社ノボル,,株式会社,栃木県,宇都宮市,西川田本町１丁目８番８号,,09,201,3210158,,,,,,,2024-01-17,1,,,,,ノボル,0
509,2070001041282,新規,0,2024-01-17,2024-01-17,株式会社ＤＩ,,株式会社,群馬県,前橋市,五代町３０９番地１,,10,201,3710132,,,,,,,2024-01-17,1,,,,,ディーアイ,0
510,2070001041290,新規,0,2024-01-17,2024-01-17,株式会社カヨイバ,,株式会社,群馬県,高崎市,八島町２６９野口ビル１階,,10,202,3700849,,,,,,,2024-01-17,1,,,,,カヨイバ,0
511,2070003005236,新規,0,2024-01-17,2024-01-17,合同会社ｈａｌｕ,,合同会社,群馬県,吾妻郡嬬恋村,大字田代７５６番地１０,,10,425,3771614,,,,,,,2024-01-17,1,,,,,ハル,0
512,2080001026084,新規,0,2024-01-17,2024-01-17,株式会社ＫＡＧＵＹＡ　Ｇｌｏｂａｌ　Ｓｅｒｖｉｃｅ,,株式会社,静岡県,静岡市葵区,伝馬町９番地の１４Ｆｌｏｓ新静岡２０３,,22,101,4200858,,,,,,,2024-01-17,1,,,,,カグヤグローバルサービス,0
538,2100003007344,新規,0,2024-01-17,2024-01-17,合同会社Ｋｙｅ＆Ｓｍｉｌｅ,,合同会社,長野県,長野市,大字北尾張部５３９－３カーサアクアリオ２０１,,20,201,3810014,,,,,,,2024-01-17,1,,,,,ケイアンドスマイル,0
554,2120001261115,新規,0,2024-01-17,2024-01-17,株式会社ｍｉｃＲｏｂｅ　ｌａｂ,,株式会社,大阪府,大阪市中央区,久太郎町３丁目１－２７船場大西ビル８階,,27,128,5410056,,,,,,,2024-01-17,1,,,,,マイクローブラボ,0
555,2120001261313,新規,0,2024-01-17,2024-01-17,金耀株式会社,,株式会社,大阪府,大阪市東成区,深江北３丁目４番２１号エクラ深江橋２１５Ａ,,27,115,5370001,,,,,,,2024-01-17,1,,,,,キンヨウ,0
556,2120001261362,新規,0,2024-01-17,2024-01-17,芳華株式会社,,株式会社,大阪府,大阪市中央区,北久宝寺町１丁目５番６－１０５号,,27,128,5410057,,,,,,,2024-01-17,1,,,,,ホウカ,0
557,2120001261370,新規,0,2024-01-17,2024-01-17,株式会社Ｘ‐ＡＣＴ,,株式会社,大阪府,大阪市西区,北堀江２丁目２番２４号,,27,106,5500014,,,,,,,2024-01-17,1,,,,,エグザクト,0
558,2120001261437,新規,0,2024-01-17,2024-01-17,ワイヤーアイテック株式会社,,株式会社,大阪府,大阪市北区,梅田１丁目１番３号大阪駅前第３ビル２９階１－１－１号室,,27,127,5300001,,,,,,,2024-01-17,1,,,,,ワイヤーアイテック,0
559,2120001261445,新規,0,2024-01-17,2024-01-17,三木堂株式会社,,株式会社,大阪府,大阪市北区,太融寺町２番２１号ニュープラザビル１１０７号,,27,127,5300051,,,,,,,2024-01-17,1,,,,,ミキドウ,0
560,2120001261453,新規,0,2024-01-17,2024-01-17,株式会社Ｗａｙ　Ｍａｒｋ,,株式会社,大阪府,大阪市福島区,福島５丁目１７番３０号,,27,103,5530003,,,,,,,2024-01-17,1,,,,,ウェイマーク,0
567,2120003025658,新規,0,2024-01-17,2024-01-17,合同会社ＭＫ,,合同会社,大阪府,大阪市北区,梅田１丁目２番２号大阪駅前第２ビル１２－１２,,27,127,5300001,,,,,,,2024-01-17,1,,,,,エムケー,0
568,2120005024096,新規,0,2024-01-17,2024-01-17,医療法人善真会,,その他の設立登記法人,大阪府,大阪市住吉区,帝塚山東１丁目５番６号かね宗ビル１階,,27,120,5580054,,,,,,,2024-01-17,1,,,,,ゼンシンカイ,0
572,2120101068880,新規,0,2024-01-17,2024-01-17,株式会社五香,,株式会社,大阪府,泉南郡熊取町,小垣内２丁目４６番１０号,,27,361,5900432,,,,,,,2024-01-17,1,,,,,ゴコウ,0
573,2120103005634,新規,0,2024-01-17,2024-01-17,合同会社山手ビルメンテ工業,,合同会社,大阪府,堺市美原区,平尾２０１８番地４,,27,147,5870022,,,,,,,2024-01-17,1,,,,,ヤマテビルメンテコウギョウ,0
574,2120901048603,新規,0,2024-01-17,2024-01-17,マルホテクニカ株式会社,,株式会社,大阪府,豊中市,服部豊町２丁目１２番１１号,,27,203,5610859,,,,,,,2024-01-17,1,,,,,マルホテクニカ,0
575,2120901048636,新規,0,2024-01-17,2024-01-17,株式会社グランツリー,,株式会社,大阪府,箕面市,箕面５丁目１２番７１号パークプラザビル箕面４０１号室,,27,220,5620001,,,,,,,2024-01-17,1,,,,,グランツリー,0
576,2122003002777,新規,0,2024-01-17,2024-01-17,合同会社アリビオコム,,合同会社,大阪府,東大阪市,金岡３丁目１番６号,,27,227,5770823,,,,,,,2024-01-17,1,,,,,アリビオコム,0
579,2130001076099,新規,0,2024-01-17,2024-01-17,株式会社カズモリ,,株式会社,京都府,城陽市,市辺小梨間２２番地の１０,,26,207,6100114,,,,,,,2024-01-17,1,,,,,カズモリ,0
580,2130001076132,新規,0,2024-01-17,2024-01-17,Ｃｈａｓｓｅｒ株式会社,,株式会社,京都府,京都市伏見区,竹田向代町５４８,,26,109,6128418,,,,,,,2024-01-17,1,,,,,シャセ,0
581,2130001076140,新規,0,2024-01-17,2024-01-17,株式会社ＬＩＧ,,株式会社,京都府,京都市南区,上鳥羽川端町２６４番地,,26,107,6018171,,,,,,,2024-01-17,1,,,,,エルアイジー,0
582,2130001076165,新規,0,2024-01-17,2024-01-17,株式会社ケイエムシステム,,株式会社,京都府,京都市伏見区,深草フチ町２番地１０２,,26,109,6128438,,,,,,,2024-01-17,1,,,,,ケイエムシステム,0
592,2140001133007,新規,0,2024-01-17,2024-01-17,グラック株式会社,,株式会社,兵庫県,神戸市中央区,下山手通５丁目１番１号,,28,110,6500011,,,,,,,2024-01-17,1,,,,,グラック,0
598,2150005009549,新規,0,2024-01-17,2024-01-17,特定非営利活動法人わのわ会,,その他の設立登記法人,奈良県,橿原市,内膳町２丁目１番８号,,29,205,6340804,,,,,,,2024-01-17,1,,,,,ワノワカイ,0
600,2170001017974,新規,0,2024-01-17,2024-01-17,株式会社ｉｎｎｔｏｒｏ,,株式会社,和歌山県,和歌山市,万町２５番地,,30,201,6408035,,,,,,,2024-01-17,1,,,,,イントロ,0
603,2180001159766,新規,0,2024-01-17,2024-01-17,株式会社ＫＩＤ,,株式会社,愛知県,春日井市,小野町３丁目８６番地,,23,206,4860926,,,,,,,2024-01-17,1,,,,,キッド,0
604,2180001159782,新規,0,2024-01-17,2024-01-17,株式会社長本商会,,株式会社,愛知県,名古屋市中村区,八社１丁目１９７番地,,23,105,4530863,,,,,,,2024-01-17,1,,,,,ナガモトショウカイ,0
605,2180001159790,新規,0,2024-01-17,2024-01-17,株式会社ミライエ,,株式会社,愛知県,名古屋市西区,名駅２丁目３４番１７号セントラル名古屋１１０１号室,,23,104,4510045,,,,,,,2024-01-17,1,,,,,ミライエ,0
613,2180301038232,新規,0,2024-01-17,2024-01-17,株式会社阿麒羅,,株式会社,愛知県,刈谷市,住吉町３丁目７番地,,23,210,4480852,,,,,,,2024-01-17,1,,,,,アキラ,0
618,2190001031032,新規,0,2024-01-17,2024-01-17,株式会社オーブ,,株式会社,三重県,四日市市,桜町５６２番地５,,24,202,5121211,,,,,,,2024-01-17,1,,,,,オーブ,0
619,2190001031040,新規,0,2024-01-17,2024-01-17,みどりファーム鈴鹿株式会社,,株式会社,三重県,津市,藤方１８５４番地３,,24,201,5140815,,,,,,,2024-01-17,1,,,,,ミドリファームスズカ,0
622,2200001042077,新規,0,2024-01-17,2024-01-17,ガーデンクォーツ株式会社,,株式会社,岐阜県,大垣市,林町６丁目８２番地８,,21,202,5030015,,,,,,,2024-01-17,1,,,,,ガーデンクォーツ,0
624,2200003006212,新規,0,2024-01-17,2024-01-17,合同会社ＭＯＤＥＣＯ,,合同会社,岐阜県,岐阜市,本荘西２丁目１１９番地,,21,201,5008361,,,,,,,2024-01-17,1,,,,,モデコ,0
626,2210001019603,新規,0,2024-01-17,2024-01-17,株式会社福丸,,株式会社,福井県,丹生郡越前町,高佐第２０号４番地１,,18,423,9160425,,,,,,,2024-01-17,1,,,,,フクマル,0
633,2240001062674,新規,0,2024-01-17,2024-01-17,株式会社将光,,株式会社,広島県,広島市安佐南区,伴中央５丁目１０番９－２０２号,,34,105,7313165,,,,,,,2024-01-17,1,,,,,ショウコウ,0
643,2260001038664,新規,0,2024-01-17,2024-01-17,アールテクノ株式会社,,株式会社,岡山県,岡山市東区,邑久郷２４８２番地７,,33,103,7048132,,,,,,,2024-01-17,1,,,,,アールテクノ,0
660,2290001104364,新規,0,2024-01-17,2024-01-17,株式会社ＨＡＫＵ,,株式会社,福岡県,福岡市博多区,博多駅前３丁目１６番１０号興産ビル三階,,40,132,8120011,,,,,,,2024-01-17,1,,,,,ハク,0
703,2360001033069,新規,0,2024-01-17,2024-01-17,株式会社ＰＥＡＣＥ　ＨＯＵＳＥ,,株式会社,沖縄県,那覇市,安謝２丁目１２番２７号レオパレス新都心ＡＳＡＫＡ３０２,,47,201,9000003,,,,,,,2024-01-17,1,,,,,ピースハウス,0
705,2370001050807,新規,0,2024-01-17,2024-01-17,株式会社タカモ,,株式会社,宮城県,栗原市,築館字上高森５３番地１,00133373,04,213,9872246,,,,,,,2024-01-17,1,,,,,タカモ,0
719,2410001013701,新規,0,2024-01-17,2024-01-17,ほりいアセット株式会社,,株式会社,秋田県,秋田市,雄和田草川字沖村４２番地,,05,201,0101201,,,,,,,2024-01-17,1,,,,,ホリイアセット,0
730,2430001090862,新規,0,2024-01-17,2024-01-17,ＬＯＬＴ株式会社,,株式会社,北海道,札幌市中央区,南二条西１３丁目３１９番地２４ＨＯＰＥステージ北館２０１,,01,101,0600062,,,,,,,2024-01-17,1,,,,,ロルト,0
732,2450001014200,新規,0,2024-01-17,2024-01-17,株式会社ＩＫＤ,,株式会社,北海道,旭川市,東一条３丁目２番１６号,,01,204,0700021,,,,,,,2024-01-17,1,,,,,アイケーディー,0
745,2700150120855,新規,0,2024-01-17,2024-01-17,ｘｉａｍｅｎｗｅｎｂｅｉｍａｏｙｉｙｏｕｘｉａｎｇｏｎｇｓｉ,,外国会社等,,,,,,,,ｈｕｌｉｑｕｆａｎｇｈｕｂｅｉｅｒｌｕ８８９ｈａｏ６１８ｄａｎｙｕａｎＡ２００，ｘｉａｍｅｎ，ｆｕｊｉａｎ,,,,,,2024-01-17,1,,,,,シャモンブンカイボウエキユウゲンコウシ,0
752,3010001241432,新規,0,2024-01-17,2024-01-17,ＫＹＰパートナーズ株式会社,,株式会社,東京都,千代田区,神田錦町１丁目６番地,,13,101,1010054,,,,,,,2024-01-17,1,,,,,ケーワイピーパートナーズ,0
754,3010003042647,新規,0,2024-01-17,2024-01-17,遥和合同会社,,合同会社,東京都,千代田区,神田神保町２丁目１０番地１４,,13,101,1010051,,,,,,,2024-01-17,1,,,,,ヨウワ,0
755,3010005037686,新規,0,2024-01-17,2024-01-17,一般社団法人ｎａｍｅｋｏ,,その他の設立登記法人,東京都,中央区,日本橋人形町２丁目２６－８－７０２,,13,102,1030013,,,,,,,2024-01-17,1,,,,,ナメコ,0
756,3010005037744,新規,0,2024-01-17,2024-01-17,一般社団法人ＬＥ３,,その他の設立登記法人,東京都,千代田区,丸の内３丁目１番１号東京共同会計事務所内,,13,101,1000005,,,,,,,2024-01-17,1,,,,,エルイースリー,0
757,3010103002294,新規,0,2024-01-17,2024-01-17,合同会社福郎,,合同会社,東京都,八王子市,東中野１８７９番地,,13,201,1920351,,,,,,,2024-01-17,1,,,,,フクロウ,0
766,3010501051629,新規,0,2024-01-17,2024-01-17,株式会社ゼルクカンパニー,,株式会社,東京都,台東区,台東１丁目１２番２号,,13,106,1100016,,,,,,,2024-01-17,1,,,,,ゼルクカンパニー,0
769,3010503007298,新規,0,2024-01-17,2024-01-17,合同会社東京貿易,,合同会社,東京都,台東区,東上野６丁目１８番１８－２０２号ルジェンテ・リベル上野稲荷町,,13,106,1100015,,,,,,,2024-01-17,1,,,,,トウキョウボウエキ,0
775,3010801034696,新規,0,2024-01-17,2024-01-17,株式会社ブライト,,株式会社,東京都,大田区,上池台５丁目４番２号,,13,111,1450064,,,,,,,2024-01-17,1,,,,,ブライト,0
776,3010803004821,新規,0,2024-01-17,2024-01-17,合同会社ＵＫＡＷ,,合同会社,東京都,大田区,大森西６丁目１７－１７,,13,111,1430015,,,,,,,2024-01-17,1,,,,,ウカウ,0
778,3010901054462,新規,0,2024-01-17,2024-01-17,株式会社Ｋａｗａｉｉ　Ｇｒｏｕｐ　Ｊａｐａｎ,,株式会社,東京都,世田谷区,用賀１丁目９番２２号－Ｅ２０２,,13,112,1580097,,,,,,,2024-01-17,1,,,,,カワイイグループジャパン,0
785,3011001159391,新規,0,2024-01-17,2024-01-17,株式会社Ｅｖｅｎｔｙ,,株式会社,東京都,渋谷区,道玄坂１丁目１６番６号二葉ビル８Ｂ,,13,113,1500043,,,,,,,2024-01-17,1,,,,,イベンティ,0
786,3011001159474,新規,0,2024-01-17,2024-01-17,株式会社ツーウィルスポーツ,,株式会社,東京都,渋谷区,道玄坂１丁目１０番８号渋谷道玄坂東急ビル２Ｆ－Ｃ,,13,113,1500043,,,,,,,2024-01-17,1,,,,,ツーウィルスポーツ,0
788,3011003018249,新規,0,2024-01-17,2024-01-17,アビリッジ合同会社,,合同会社,東京都,目黒区,目黒４丁目９番１７号,,13,110,1530063,,,,,,,2024-01-17,1,,,,,アビリッジ,0
789,3011003018273,新規,0,2024-01-17,2024-01-17,合同会社モンテ研究所,,合同会社,東京都,渋谷区,東４丁目７番３号アーバンパレス広尾５０２号,,13,113,1500011,,,,,,,2024-01-17,1,,,,,モンテケンキュウジョ,0
793,3011101105816,新規,0,2024-01-17,2024-01-17,株式会社ＷＣＨ,,株式会社,東京都,新宿区,西新宿５丁目５番１－３５０４号,,13,104,1600023,,,,,,,2024-01-17,1,,,,,ダブリューシーエイチ,0
794,3011101105840,新規,0,2024-01-17,2024-01-17,株式会社Ｅｔｏｉｌｅ,,株式会社,東京都,新宿区,水道町４番５－４０３号,,13,104,1620811,,,,,,,2024-01-17,1,,,,,エトワール,0
795,3011103013975,新規,0,2024-01-17,2024-01-17,Ｒａｉｏｎ　Ｆｕｎｄ　１Ａ合同会社,,合同会社,東京都,新宿区,四谷２丁目９番地１５東京ユナイテッド綜合事務所内,,13,104,1600004,,,,,,,2024-01-17,1,,,,,ライオンファンドイチエー,0
798,3011401025763,新規,0,2024-01-17,2024-01-17,ＭｏｕｎｔａｉｎＦ株式会社,,株式会社,東京都,板橋区,泉町３８番１５号ＰＡＭファミリーＦ棟２０６,,13,119,1740055,,,,,,,2024-01-17,1,,,,,マウンテンエフ,0
800,3011601027460,新規,0,2024-01-17,2024-01-17,新流舎株式会社,,株式会社,東京都,練馬区,東大泉４丁目２７番地１７号,,13,120,1780063,,,,,,,2024-01-17,1,,,,,シンリュウシャ,0
807,3012801022895,新規,0,2024-01-17,2024-01-17,株式会社ＧｏＴｏホールディングス,,株式会社,東京都,国分寺市,日吉町２丁目１３番地１３,,13,214,1850032,,,,,,,2024-01-17,1,,,,,,0
820,3020001155318,新規,0,2024-01-17,2024-01-17,株式会社ＦＵＩＳＥ,,株式会社,神奈川県,横浜市港南区,日限山４丁目４番２９号,,14,111,2330015,,,,,,,2024-01-17,1,,,,,フェイス,0
833,3021001081231,新規,0,2024-01-17,2024-01-17,創空アシスト株式会社,,株式会社,神奈川県,厚木市,温水西１丁目３４番２１号,,14,212,2430039,,,,,,,2024-01-17,1,,,,,ソウクウアシスト,0
836,3021003014024,新規,0,2024-01-17,2024-01-17,ＴＺＸ茅ヶ崎合同会社,,合同会社,神奈川県,茅ヶ崎市,幸町２１番３号６階,,14,207,2530052,,,,,,,2024-01-17,1,,,,,ティーゼットエックスチガサキ,0
837,3021003014032,新規,0,2024-01-17,2024-01-17,Ｔｏｕｂｏ　Ｈｏｌｄｉｎｇｓ　Ｃｏｍｐａｎｙ合同会社,,合同会社,神奈川県,三浦郡葉山町,一色１２２９番地の７,,14,301,2400111,,,,,,,2024-01-17,1,,,,,トゥボホールディングスカンパニー,0
839,3030001158146,新規,0,2024-01-17,2024-01-17,株式会社ヒゲ坊主,,株式会社,埼玉県,川口市,西川口１丁目２９－２,,11,203,3320021,,,,,,,2024-01-17,1,,,,,ヒゲボウズ,0
842,3030005021515,新規,0,2024-01-17,2024-01-17,特定非営利活動法人Ｓｔａｎｄ　ｂｙ,,その他の設立登記法人,埼玉県,川口市,元郷２丁目１３番１号,,11,203,3320011,,,,,,,2024-01-17,1,,,,,スタンドバイ,0
849,3040001131738,新規,0,2024-01-17,2024-01-17,株式会社アコール,,株式会社,千葉県,市川市,真間４丁目１１番,,12,203,2720826,,,,,,,2024-01-17,1,,,,,アコール,0
850,3040001131746,新規,0,2024-01-17,2024-01-17,株式会社コウシン,,株式会社,千葉県,船橋市,駿河台１丁目２０番１３号,,12,204,2730862,,,,,,,2024-01-17,1,,,,,コウシン,0
851,3040001131770,新規,0,2024-01-17,2024-01-17,ウェルネクスト会計株式会社,,株式会社,千葉県,柏市,旭町１丁目２番８号ネモト第三ビル４０１号,,12,217,2770852,,,,,,,2024-01-17,1,,,,,ウェルネクストカイケイ,0
852,3040001131779,新規,0,2024-01-17,2024-01-17,株式会社フジグリーンセンター,,株式会社,千葉県,銚子市,森戸町１７７１番地,,12,202,2880872,,,,,,,2024-01-17,1,,,,,フジグリーンセンター,0
853,3040001131787,新規,0,2024-01-17,2024-01-17,株式会社マイクロニードル,,株式会社,千葉県,千葉市緑区,中西町６０５番地２,,12,105,2660024,,,,,,,2024-01-17,1,,,,,マイクロニードル,0
854,3040001131795,新規,0,2024-01-17,2024-01-17,株式会社ロックピーク,,株式会社,千葉県,千葉市花見川区,犢橋町６１番地７５,,12,102,2620013,,,,,,,2024-01-17,1,,,,,ロックピーク,0
866,3040003024097,新規,0,2024-01-17,2024-01-17,ＫＷＫ合同会社,,合同会社,千葉県,市川市,本行徳２９番８号フレグランス２１－１１２号,,12,203,2720103,,,,,,,2024-01-17,1,,,,,ケーダブケー,0
867,3040003024122,新規,0,2024-01-17,2024-01-17,ＷＥＬＦＡＲＥ合同会社,,合同会社,千葉県,我孫子市,新木野４丁目６番１９号,,12,222,2701114,,,,,,,2024-01-17,1,,,,,ウェルフェア,0
869,3050001054112,新規,0,2024-01-17,2024-01-17,株式会社ｍｉｌｅ,,株式会社,茨城県,守谷市,中央４丁目１７番地２アイビスホーム,,08,224,3020115,,,,,,,2024-01-17,1,,,,,ミレ,0
870,3050001054120,新規,0,2024-01-17,2024-01-17,株式会社Ｏｕｔ　Ｒｅａｃｈ,,株式会社,茨城県,取手市,小文間５４０８番地１,,08,217,3020001,,,,,,,2024-01-17,1,,,,,アウトリーチ,0
875,3060001036745,新規,0,2024-01-17,2024-01-17,株式会社ＫＡＺ,,株式会社,栃木県,宇都宮市,雀の宮１丁目１番７号,,09,201,3210132,,,,,,,2024-01-17,1,,,,,カズ,0
878,3070001041249,新規,0,2024-01-17,2024-01-17,株式会社ＡＰＯ’Ｓ,,株式会社,群馬県,館林市,北成島町１７０６番地の１、４号棟,,10,207,3740057,,,,,,,2024-01-17,1,,,,,,0
881,3070003005227,新規,0,2024-01-17,2024-01-17,合同会社ＲｉＲＥ,,合同会社,群馬県,高崎市,浜川町２２２６番地,,10,202,3700081,,,,,,,2024-01-17,1,,,,,リール,0
884,3080101024474,新規,0,2024-01-17,2024-01-17,フューチャービレッジ株式会社,,株式会社,静岡県,御殿場市,神山平２丁目１２番地の３,,22,215,4120029,,,,,,,2024-01-17,1,,,,,フューチャービレッジ,0
910,3090001018501,新規,0,2024-01-17,2024-01-17,株式会社わかな,,株式会社,山梨県,南都留郡富士河口湖町,船津２８９番地１,,19,430,4010301,,,,,,,2024-01-17,1,,,,,ワカナ,0
913,3110001038109,新規,0,2024-01-17,2024-01-17,株式会社細川建設工業,,株式会社,新潟県,新潟市北区,下早通９９番地７,,15,101,9503371,,,,,,,2024-01-17,1,,,,,ホソカワケンセツコウギョウ,0
924,3120001261329,新規,0,2024-01-17,2024-01-17,株式会社ＴｒｕｅＳｈｉｎｅ,,株式会社,大阪府,大阪市中央区,北浜２丁目６番１８号,,27,128,5410041,,,,,,,2024-01-17,1,,,,,トゥルーシャイン,0
925,3120001261345,新規,0,2024-01-17,2024-01-17,株式会社ＫＴＲ,,株式会社,大阪府,大阪市平野区,喜連西４丁目３番１０号,,27,126,5470026,,,,,,,2024-01-17,1,,,,,ケーティーアール,0
926,3120001261378,新規,0,2024-01-17,2024-01-17,株式会社Ｉｗａｔａｔｅ,,株式会社,大阪府,大阪市鶴見区,横堤１丁目６番４１号,,27,124,5380052,,,,,,,2024-01-17,1,,,,,イワタテ,0
929,3120005024095,新規,0,2024-01-17,2024-01-17,クロスト社会保険労務士法人,,その他の設立登記法人,大阪府,大阪市北区,堂島２丁目１番２７号桜橋千代田ビル９Ｆ,,27,127,5300003,,,,,,,2024-01-17,1,,,,,クロスト,0
931,3120101068896,新規,0,2024-01-17,2024-01-17,株式会社グローバルメッシュ,,株式会社,大阪府,堺市西区,鳳東町６丁６５３番地,,27,144,5938324,,,,,,,2024-01-17,1,,,,,グローバルメッシュ,0
932,3120101068905,新規,0,2024-01-17,2024-01-17,株式会社日正工業,,株式会社,大阪府,松原市,天美西２丁目１番２０－２１１号,,27,217,5800034,,,,,,,2024-01-17,1,,,,,ニッショウコウギョウ,0
935,3120103005633,新規,0,2024-01-17,2024-01-17,セブンズ合同会社,,合同会社,大阪府,泉大津市,若宮町１－１５,,27,206,5950065,,,,,,,2024-01-17,1,,,,,セブンズ,0
936,3120105009806,新規,0,2024-01-17,2024-01-17,一般社団法人円,,その他の設立登記法人,大阪府,泉南郡熊取町,新野田２丁目１８番２号,,27,361,5900454,,,,,,,2024-01-17,1,,,,,マル,0
941,3130001076172,新規,0,2024-01-17,2024-01-17,えい和株式会社,,株式会社,京都府,京都市中京区,小川通二条上る槌屋町６１５－１（株）白木染匠ＢＬ－３Ｆ,,26,104,6040061,,,,,,,2024-01-17,1,,,,,エイワ,0
946,3130003009238,新規,0,2024-01-17,2024-01-17,合同会社アート・ニシダ,,合同会社,京都府,京都市右京区,嵯峨野芝野町７番地１８,,26,108,6168322,,,,,,,2024-01-17,1,,,,,アートニシダ,0
954,3140003020029,新規,0,2024-01-17,2024-01-17,合同会社クリエイト・マイライフ,,合同会社,兵庫県,加古川市,平荘町養老８４７番地の４,,28,210,6751231,,,,,,,2024-01-17,1,,,,,クリエイトマイライフ,0
963,3180001159757,新規,0,2024-01-17,2024-01-17,Ｏａｓｉｓ株式会社,,株式会社,愛知県,名古屋市港区,小碓３丁目２１６番地,,23,111,4550801,,,,,,,2024-01-17,1,,,,,オアシス,0
964,3180001159765,新規,0,2024-01-17,2024-01-17,株式会社Ｗｉｎｄｍｉｌｌ,,株式会社,愛知県,名古屋市中川区,戸田西２丁目１８０２番地,,23,110,4540967,,,,,,,2024-01-17,1,,,,,ウインドミル,0
965,3180003026170,新規,0,2024-01-17,2024-01-17,合同会社ダウンタウン,,合同会社,愛知県,東海市,富木島町貴船５４－６,,23,222,4760011,,,,,,,2024-01-17,1,,,,,ダウンタウン,0
966,3180003026220,新規,0,2024-01-17,2024-01-17,合同会社ＬＩＺ,,合同会社,愛知県,名古屋市中川区,長良町５丁目１番地シズステージ３０３号,,23,110,4540815,,,,,,,2024-01-17,1,,,,,リズ,0
969,3180301038231,新規,0,2024-01-17,2024-01-17,株式会社十亀,,株式会社,愛知県,田原市,神戸町北海道１８８番地７,,23,231,4413415,,,,,,,2024-01-17,1,,,,,トウキ,0
976,3190001031031,新規,0,2024-01-17,2024-01-17,組み紐インフラ株式会社,,株式会社,三重県,四日市市,堀木２丁目１番１号,,24,202,5100076,,,,,,,2024-01-17,1,,,,,クミヒモインフラ,0
981,3210005010128,新規,0,2024-01-17,2024-01-17,一般社団法人シリウス,,その他の設立登記法人,福井県,福井市,御幸３丁目１１番１０号,,18,201,9100854,,,,,,,2024-01-17,1,,,,,シリウス,0
983,3240001062673,新規,0,2024-01-17,2024-01-17,株式会社シン・コーポレーション,,株式会社,広島県,広島市西区,山田新町２丁目１３番８号,,34,104,7330853,,,,,,,2024-01-17,1,,,,,シンコーポレーション,0
988,3260003004548,新規,0,2024-01-17,2024-01-17,合同会社ささ屋,,合同会社,岡山県,玉野市,梶岡７３１番地２,,33,204,7060311,,,,,,,2024-01-17,1,,,,,ササヤ,0
1016,3290003014866,新規,0,2024-01-17,2024-01-17,合同会社パダイン,,合同会社,福岡県,糟屋郡宇美町,大字井野１８３番地１２,,40,341,8112104,,,,,,,2024-01-17,1,,,,,パダイン,0
1028,3300001013595,新規,0,2024-01-17,2024-01-17,株式会社睦美商事,,株式会社,佐賀県,杵島郡白石町,大字横手７１４番地,,41,425,8491116,,,,,,,2024-01-17,1,,,,,アツミショウジ,0
1035,3330003010167,新規,0,2024-01-17,2024-01-17,合同会社ファーマエディタ,,合同会社,熊本県,合志市,須屋３５７４番地,,43,216,8611102,,,,,,,2024-01-17,1,,,,,ファーマエディタ,0
1037,3340001026222,新規,0,2024-01-17,2024-01-17,５ｓｃｅｎｅ株式会社,,株式会社,鹿児島県,鹿児島市,中山町１３２７番地１５,,46,201,8910105,,,,,,,2024-01-17,1,,,,,ファイブシーン,0
1040,3350003004547,新規,0,2024-01-17,2024-01-17,合同会社ＹＩＳ,,合同会社,宮崎県,宮崎市,千草町４番１号２９ビル３階,,45,201,8800006,,,,,,,2024-01-17,1,,,,,ワイズ,0
1041,3360001033027,新規,0,2024-01-17,2024-01-17,株式会社ＧＹＨ,,株式会社,沖縄県,那覇市,前島３丁目１２－１４,,47,201,9000016,,,,,,,2024-01-17,1,,,,,ジーワイエイチ,0
1042,3360001033084,新規,0,2024-01-17,2024-01-17,株式会社Ｎａ‐ｊｕ．,,株式会社,沖縄県,浦添市,城間４丁目４０番２号２Ｆ,,47,208,9012133,,,,,,,2024-01-17,1,,,,,ナージュ,0
1052,3390001017480,新規,0,2024-01-17,2024-01-17,株式会社製麺製粉タカハシ,,株式会社,山形県,北村山郡大石田町,大字大石田乙５２０番地ウイング大石田２０１,,06,341,9994111,,,,,,,2024-01-17,1,,,,,セイメンセイフンタカハシ,0
1064,3450001014199,新規,0,2024-01-17,2024-01-17,八十八農場株式会社,,株式会社,北海道,旭川市,東旭川町旭正４９番地,,01,204,0788368,,,,,,,2024-01-17,1,,,,,ハトヤノウジョウ,0
1069,3700150123361,新規,0,2024-01-17,2024-01-17,北小金駅南口東地区市街地再開発組合,,その他,千葉県,松戸市,小金６０番地の１,,12,207,2700014,,,,,,,2024-01-17,1,,,,,キタコガネエキミナミグチヒガシチクシガイチサイカイハツクミアイ,0
1076,4010001241522,新規,0,2024-01-17,2024-01-17,禹績株式会社,,株式会社,東京都,中央区,月島４丁目２１番６－７０２号,,13,102,1040052,,,,,,,2024-01-17,1,,,,,ウセキ,0
1081,4010003042662,新規,0,2024-01-17,2024-01-17,米原湖東蓄電所合同会社,,合同会社,東京都,千代田区,丸の内３丁目１番１号東京共同会計事務所内,,13,101,1000005,,,,,,,2024-01-17,1,,,,,マイバラコトウチクデンショ,0
1082,4010003042670,新規,0,2024-01-17,2024-01-17,合同会社ＣＴＯ１,,合同会社,東京都,中央区,日本橋茅場町１丁目２番１２号,,13,102,1030025,,,,,,,2024-01-17,1,,,,,シーティーオーワン,0
1087,4010103002293,新規,0,2024-01-17,2024-01-17,フォーホライゾンズ合同会社,,合同会社,東京都,八王子市,七国４丁目６番６号,,13,201,1920919,,,,,,,2024-01-17,1,,,,,フォーホライゾンズ,0
1095,4010403031728,新規,0,2024-01-17,2024-01-17,エクーエナジー案件管理合同会社,,合同会社,東京都,港区,虎ノ門１丁目１０番５号,,13,103,1050001,,,,,,,2024-01-17,1,,,,,エクーエナジーアンケンカンリ,0
1098,4010501051636,新規,0,2024-01-17,2024-01-17,星海財商株式会社,,株式会社,東京都,台東区,上野３丁目１６－２天翔オフィス上野末広町６０４－Ｈ号室,,13,106,1100005,,,,,,,2024-01-17,1,,,,,セイカイザイショウ,0
1100,4010601064488,新規,0,2024-01-17,2024-01-17,株式会社Ｍ’ｓ　Ａｓｓｅｔ　Ｐａｒｔｎｅｒｓ,,株式会社,東京都,江東区,有明１丁目３番１４－２１１４号,,13,108,1350063,,,,,,,2024-01-17,1,,,,,エムズアセットパートナーズ,0
1107,4010803004812,新規,0,2024-01-17,2024-01-17,合同会社ｇｅｍｍｅｄ　Ｃ,,合同会社,東京都,大田区,山王４丁目２７番１号ノートルメゾン山王１,,13,111,1430023,,,,,,,2024-01-17,1,,,,,ジェムドシー,0
1113,4011001158847,新規,0,2024-01-17,2024-01-17,根芽株式会社,,株式会社,東京都,目黒区,平町１丁目１番１５号－７０１,,13,110,1520032,,,,,,,2024-01-17,1,,,,,ネガ,0
1114,4011001159218,新規,0,2024-01-17,2024-01-17,株式会社ＤＺ,,株式会社,東京都,渋谷区,神南１丁目５番１４－１８０２号ラ・トゥール渋谷神南,,13,113,1500041,,,,,,,2024-01-17,1,,,,,ディーゼット,0
1115,4011001159382,新規,0,2024-01-17,2024-01-17,株式会社Ｔｈｅ　Ｏｎｅ　Ｃａｐｉｔａｌ,,株式会社,東京都,渋谷区,東２丁目２１番８号プライムレジデンス渋谷１１０１号室,,13,113,1500011,,,,,,,2024-01-17,1,,,,,ザワンキャピタル,0
1116,4011001159390,新規,0,2024-01-17,2024-01-17,株式会社Ｆｒｅｓｈ　Ｋｉｃｋｓ,,株式会社,東京都,目黒区,上目黒２丁目１４番１号,,13,110,1530051,,,,,,,2024-01-17,1,,,,,フレッシュキックス,0
1119,4011003018280,新規,0,2024-01-17,2024-01-17,大江管財合同会社,,合同会社,東京都,渋谷区,道玄坂２丁目１８番１１号,,13,113,1500043,,,,,,,2024-01-17,1,,,,,オオエカンザイ,0
1127,4011101105815,新規,0,2024-01-17,2024-01-17,株式会社リノカ,,株式会社,東京都,新宿区,西五軒町４番１０号,,13,104,1620812,,,,,,,2024-01-17,1,,,,,リノカ,0
1129,4011103013974,新規,0,2024-01-17,2024-01-17,広島ロジスティクス合同会社,,合同会社,東京都,新宿区,四谷２丁目９番地１５東京ユナイテッド綜合事務所内,,13,104,1600004,,,,,,,2024-01-17,1,,,,,ヒロシマロジスティクス,0
1131,4011301029319,新規,0,2024-01-17,2024-01-17,株式会社契成,,株式会社,東京都,杉並区,成田西２丁目１番１１号Ｃ号棟,,13,115,1660016,,,,,,,2024-01-17,1,,,,,ケイセイ,0
1143,4011805003331,新規,0,2024-01-17,2024-01-17,一般社団法人美麗亜会,,その他の設立登記法人,東京都,葛飾区,亀有３丁目３７番１７号,,13,122,1250061,,,,,,,2024-01-17,1,,,,,ミレアカイ,0
1148,4012801022911,新規,0,2024-01-17,2024-01-17,株式会社ゴールデン東京,,株式会社,東京都,国立市,東３丁目２０番７号東方荘Ｂ－２,,13,215,1860002,,,,,,,2024-01-17,1,,,,,ゴールデントウキョウ,0
1156,4013303006964,新規,0,2024-01-17,2024-01-17,合同会社アスター,,合同会社,東京都,豊島区,駒込４丁目１２番４－４０７号,,13,116,1700003,,,,,,,2024-01-17,1,,,,,アスター,0
1165,4020001155309,新規,0,2024-01-17,2024-01-17,株式会社ライフサポート,,株式会社,神奈川県,横浜市神奈川区,白幡東町１０番５号,,14,102,2210072,,,,,,,2024-01-17,1,,,,,ライフサポート,0
1173,4020003025360,新規,0,2024-01-17,2024-01-17,ＴｏＵ合同会社,,合同会社,神奈川県,横浜市保土ケ谷区,天王町１丁目２５番地４,,14,106,2400003,,,,,,,2024-01-17,1,,,,,トゥーユー,0
1179,4021001081230,新規,0,2024-01-17,2024-01-17,株式会社タウンホームズ,,株式会社,神奈川県,座間市,栗原中央４丁目１１番１１号,,14,216,2520014,,,,,,,2024-01-17,1,,,,,タウンホームズ,0
1203,4040001131729,新規,0,2024-01-17,2024-01-17,株式会社Ｓａｔｉｓｆａｃｔｉｏｎ,,株式会社,千葉県,浦安市,猫実４丁目１９番８号ＴＲＥＥＨＯＵＳＥ５ＦＣ,,12,227,2790004,,,,,,,2024-01-17,1,,,,,サティスファクション,0
1204,4040001131737,新規,0,2024-01-17,2024-01-17,株式会社三ツ喜,,株式会社,千葉県,我孫子市,つくし野７丁目２９番３号,,12,222,2701164,,,,,,,2024-01-17,1,,,,,ミツキ,0
1205,4040001131753,新規,0,2024-01-17,2024-01-17,株式会社ＳｈｅｒＶｅｔｓ,,株式会社,千葉県,市川市,南八幡２丁目１６番１４号,,12,203,2720023,,,,,,,2024-01-17,1,,,,,シャーベッツ,0
1206,4040001131778,新規,0,2024-01-17,2024-01-17,株式会社ＫＧＧａｒｄｅｎ,,株式会社,千葉県,千葉市稲毛区,園生町１７７－Ｃ２０２,,12,103,2630051,,,,,,,2024-01-17,1,,,,,ケイジーガーデン,0
1207,4040001131794,新規,0,2024-01-17,2024-01-17,千葉セキュリティ株式会社,,株式会社,千葉県,市原市,白金町５丁目３３番地,,12,219,2900059,,,,,,,2024-01-17,1,,,,,チバセキュリティ,0
1211,4040003024088,新規,0,2024-01-17,2024-01-17,合同会社ファイブツリー,,合同会社,千葉県,習志野市,本大久保５丁目３－６,,12,216,2750012,,,,,,,2024-01-17,1,,,,,ファイブツリー,0
1212,4040003024096,新規,0,2024-01-17,2024-01-17,合同会社Ｓｕｎｎｉｅｓ,,合同会社,千葉県,流山市,大字平方９－２,,12,220,2700105,,,,,,,2024-01-17,1,,,,,サニーズ,0
1213,4040003024113,新規,0,2024-01-17,2024-01-17,合同会社マイバランス,,合同会社,千葉県,千葉市若葉区,高品町１０５６番地６２,,12,104,2640024,,,,,,,2024-01-17,1,,,,,マイバランス,0
1218,4050001054053,新規,0,2024-01-17,2024-01-17,株式会社ＨＡＤＩ　ＴＲＡＤＩＮＧ,,株式会社,茨城県,古河市,大和田９６５番地１３－Ａ,,08,204,3060111,,,,,,,2024-01-17,1,,,,,ハディトレーデイング,0
1219,4050001054078,新規,0,2024-01-17,2024-01-17,株式会社ｔｏｐａｒｓ,,株式会社,茨城県,取手市,井野３５１８番地３,,08,217,3020011,,,,,,,2024-01-17,1,,,,,トパーズ,0
1224,4060003004872,新規,0,2024-01-17,2024-01-17,合同会社Ｍ・Ｙ　ＴＲＡＤＩＮＧ,,合同会社,栃木県,小山市,大字立木１３６６番地２ツェレ立木Ｂ１０１,,09,208,3230062,,,,,,,2024-01-17,1,,,,,エムワイトレーディング,0
1234,4080101024473,新規,0,2024-01-17,2024-01-17,株式会社ユーケン,,株式会社,静岡県,富士市,増川新町３８番地の２,,22,210,4170816,,,,,,,2024-01-17,1,,,,,ユーケン,0
1235,4080401026954,新規,0,2024-01-17,2024-01-17,スカイクレーン株式会社,,株式会社,静岡県,浜松市中央区,笠井町１６１１番地の２,,22,138,4313107,,,,,,,2024-01-17,1,,,,,スカイクレーン,0
1269,4100001037127,新規,0,2024-01-17,2024-01-17,株式会社和工業,,株式会社,長野県,佐久市,岩村田１９６番地サンコートＡＳＡＭＡ２０３,,20,217,3850022,,,,,,,2024-01-17,1,,,,,ナゴミコウギョウ,0
1285,4120001261352,新規,0,2024-01-17,2024-01-17,株式会社ソンフンテックジャパン,,株式会社,大阪府,大阪市北区,梅田１丁目３番１－４００号,,27,127,5300001,,,,,,,2024-01-17,1,,,,,ソンフンテックジャパン,0
1286,4120001261377,新規,0,2024-01-17,2024-01-17,錫安山株式会社,,株式会社,大阪府,大阪市天王寺区,北河堀町７－２天王寺サンハイツ１１０３,,27,109,5430053,,,,,,,2024-01-17,1,,,,,シアンサン,0
1287,4120001261385,新規,0,2024-01-17,2024-01-17,三堯株式会社,00133376,株式会社,大阪府,大阪市中央区,松屋町９番２０号ローレルステート松屋町７１０Ｂ,,27,128,5420067,,,,,,,2024-01-17,1,,,,,サンキ,0
1288,4120001261402,新規,0,2024-01-17,2024-01-17,株式会社ＡＰ,,株式会社,大阪府,大阪市西区,南堀江２丁目３番２４－５０６号,,27,106,5500015,,,,,,,2024-01-17,1,,,,,エーピー,0
1289,4120001261435,新規,0,2024-01-17,2024-01-17,Ｎａｒｗｈａｌ技術株式会社,,株式会社,大阪府,大阪市西成区,天下茶屋東２丁目１３番１１号,,27,122,5570011,,,,,,,2024-01-17,1,,,,,ナワールギジュツ,0
1290,4120001261484,新規,0,2024-01-17,2024-01-17,株式会社Ｒｉｓｅ　Ｅｓｔａｔｅ,,株式会社,大阪府,大阪市北区,兎我野町五丁目９番梅田ＵＫビル８０１号,,27,127,5300056,,,,,,,2024-01-17,1,,,,,ライズエステート,0
1291,4120003025680,新規,0,2024-01-17,2024-01-17,ＳＨＩ合同会社,,合同会社,大阪府,寝屋川市,東香里園町２１番２５号,,27,215,5720081,,,,,,,2024-01-17,1,,,,,エスエイチアイ,0
1292,4120003025697,新規,0,2024-01-17,2024-01-17,合同会社Ａ．,,合同会社,大阪府,門真市,岸和田３丁目３０番２３号,,27,223,5710002,,,,,,,2024-01-17,1,,,,,エードット,0
1293,4120003025706,新規,0,2024-01-17,2024-01-17,合同会社ｅｎｎ,,合同会社,大阪府,大阪市城東区,野江３丁目２３番９－１０２号,,27,118,5360006,,,,,,,2024-01-17,1,,,,,エン,0
1295,4120101068912,新規,0,2024-01-17,2024-01-17,株式会社ファインエステート,,株式会社,大阪府,泉佐野市,葵町４丁目１－２０,,27,213,5980014,,,,,,,2024-01-17,1,,,,,ファインエステート,0
1299,4130001076147,新規,0,2024-01-17,2024-01-17,株式会社ＯＩＬ,,株式会社,京都府,京都市北区,紫野上石龍町１４番地,,26,101,6038211,,,,,,,2024-01-17,1,,,,,オイル,0
1307,4140003020052,新規,0,2024-01-17,2024-01-17,合同会社Ｒｅｇａｌｏ,,合同会社,兵庫県,神戸市中央区,磯辺通１丁目１番１８号カサベラ国際プラザビル７０７,,28,110,6510084,,,,,,,2024-01-17,1,,,,,レガロ,0
1309,4150001027016,新規,0,2024-01-17,2024-01-17,吉田産業株式会社,,株式会社,奈良県,生駒郡安堵町,大字笠目２０２番地の１,,29,345,6391065,,,,,,,2024-01-17,1,,,,,ヨシダサンギョウ,0
1310,4160001025638,新規,0,2024-01-17,2024-01-17,株式会社サンポジオン,,株式会社,滋賀県,大津市,山上町２－５,,25,201,5200038,,,,,,,2024-01-17,1,,,,,サンポジオン,0
1314,4180001159590,新規,0,2024-01-17,2024-01-17,ダイユー商事ＨＤ株式会社,,株式会社,愛知県,名古屋市北区,大我麻町９５番地,,23,103,4620064,,,,,,,2024-01-17,1,,,,,ダイユーショウジエイチディー,0
1315,4180001159698,新規,0,2024-01-17,2024-01-17,株式会社ＡＫｓ,,株式会社,愛知県,名古屋市中区,新栄１丁目２－２９ウエストビル２Ｆ,,23,106,4600007,,,,,,,2024-01-17,1,,,,,エーケーエス,0
1316,4180001159797,新規,0,2024-01-17,2024-01-17,ぼる株式会社,,株式会社,愛知県,名古屋市守山区,下志段味２丁目３１３番地（アサンテ下志段味ＥＡＳＴ）,,23,113,4630003,,,,,,,2024-01-17,1,,,,,ボル,0
1324,4190001031030,新規,0,2024-01-17,2024-01-17,株式会社Ｓｏｕｋｉ,,株式会社,三重県,津市,江戸橋１丁目１１３ＫＴＧレジデンス江戸橋１Ｆ,,24,201,5140001,,,,,,,2024-01-17,1,,,,,ソウキ,0
1334,4200003006210,新規,0,2024-01-17,2024-01-17,合同会社リライブ,,合同会社,岐阜県,岐阜市,六条大溝３丁目５番地９,,21,201,5008357,,,,,,,2024-01-17,1,,,,,リライブ,0
1340,4240001062672,新規,0,2024-01-17,2024-01-17,株式会社ロジコムキャピタルパートナーズ,,株式会社,広島県,広島市東区,矢賀新町５丁目７番４号,,34,102,7320044,,,,,,,2024-01-17,1,,,,,ロジコムキャピタルパートナーズ,0
1347,4260001038670,新規,0,2024-01-17,2024-01-17,株式会社翔栄,,株式会社,岡山県,倉敷市,福島７０－３,,33,202,7100048,,,,,,,2024-01-17,1,,,,,ショウエイ,0
1365,4290001104387,新規,0,2024-01-17,2024-01-17,アーリークロス不動産株式会社,,株式会社,福岡県,福岡市中央区,天神４丁目３番３０号,,40,133,8100001,,,,,,,2024-01-17,1,,,,,アーリークロスフドウサン,0
1366,4290001104395,新規,0,2024-01-17,2024-01-17,株式会社恩陽,,株式会社,福岡県,福岡市西区,今宿青木１００番地８ハウスユマニテ今宿４０６号,,40,135,8190162,,,,,,,2024-01-17,1,,,,,オンヨウ,0
1383,4290003014816,新規,0,2024-01-17,2024-01-17,Ｌｉｎｋｓ合同会社,,合同会社,福岡県,福岡市博多区,博多駅前１丁目２３番２号ＰａｒｋＦｒｏｎｔ博多駅前１丁目５Ｆ－Ｂ,,40,132,8120011,,,,,,,2024-01-17,1,,,,,リンクス,0
1384,4290003014857,新規,0,2024-01-17,2024-01-17,リージョン・プラネット合同会社,,合同会社,福岡県,福岡市中央区,赤坂１丁目８番２３号,,40,133,8100042,,,,,,,2024-01-17,1,,,,,リージョンプラネット,0
1388,4290801030221,新規,0,2024-01-17,2024-01-17,双華株式会社,,株式会社,福岡県,北九州市小倉北区,紺屋町１３番１号,,40,106,8020081,,,,,,,2024-01-17,1,,,,,ソウカ,0
1392,4300003002067,新規,0,2024-01-17,2024-01-17,合同会社ＡＥＧ,,合同会社,佐賀県,神埼市,神埼町西小津ヶ里５２３番地２０,,41,210,8420005,,,,,,,2024-01-17,1,,,,,エーイージー,0
1393,4310001018808,新規,0,2024-01-17,2024-01-17,株式会社ＴＹコンボ,,株式会社,長崎県,長崎市,扇町２７番６－２０５号,,42,201,8528132,,,,,,,2024-01-17,1,,,,,ティーワイコンボ,0
1400,4330001031651,新規,0,2024-01-17,2024-01-17,株式会社アセットアップパートナーズ,,株式会社,熊本県,熊本市東区,新南部３丁目５番８号,,43,102,8618028,,,,,,,2024-01-17,1,,,,,アセットアップパートナーズ,0
1401,4330003010166,新規,0,2024-01-17,2024-01-17,合同会社おとなりや,,合同会社,熊本県,菊池郡菊陽町,大字津久礼２２１３番地７,,43,404,8691101,,,,,,,2024-01-17,1,,,,,オトナリヤ,0
1402,4350001018754,新規,0,2024-01-17,2024-01-17,ミレック・キャトルサービス株式会社,,株式会社,宮崎県,宮崎市,大字本郷南方３２７５番地,,45,201,8800921,,,,,,,2024-01-17,1,,,,,ミレックキャトルサービス,0
1406,4360003013620,新規,0,2024-01-17,2024-01-17,合同会社ＥＤＤＹ,,合同会社,沖縄県,国頭郡今帰仁村,字仲宗根４２６番地１,,47,306,9050401,,,,,,,2024-01-17,1,,,,,エディー,0
1431,4700150123369,新規,0,2024-01-17,2024-01-17,Ｎａｎｙａｎｇｇｕａｄａｍａｏｙｉｙｏｕｘｉａｎｚｅｒｅｎｇｏｎｇｓｉ,,外国会社等,,,,,,,,Ｈｅｎａｎｓｈｅｎｇ　ｎａｎｙａｎｇｓｈｉ　ｗｏｌｏｎｇｑｕ　ｑｉｌｉｙｕａｎｘｉａｎｇ　ｑｉｌｉｙｕａｎｊｉｅ　ｄｕｓｈｉｙａｎｇｇｕａｎｇｄｏｎｇｄａｎｙｕａｎ　１２０２ｓｈｉ,,,,,,2024-01-17,1,,,,,ナンヤーングワダーマオイーヨウシエンゾーァゥレンゴーンスー,0
1448,5010001241513,新規,0,2024-01-17,2024-01-17,エンピリオンＤＣジャパン株式会社,,株式会社,東京都,千代田区,霞が関３丁目２番６号東京倶楽部ビルディング１１階,,13,101,1000013,,,,,,,2024-01-17,1,,,,,エンピリオンディーシージャパン,0
1451,5010003042653,新規,0,2024-01-17,2024-01-17,ユアギルド合同会社,,合同会社,東京都,千代田区,神田和泉町１番地６－１６ヤマトビル４０５,,13,101,1010024,,,,,,,2024-01-17,1,,,,,ユアギルド,0
1452,5010003042661,新規,0,2024-01-17,2024-01-17,合同会社オルタナ２７,,合同会社,東京都,千代田区,丸の内３丁目１番１号東京共同会計事務所内,,13,101,1000005,,,,,,,2024-01-17,1,,,,,オルタナトゥエンティセブン,0
1453,5010003042686,新規,0,2024-01-17,2024-01-17,エイル合同会社,,合同会社,東京都,中央区,銀座１丁目１５番７号ＭＡＣ銀座ビル３階,,13,102,1040061,,,,,,,2024-01-17,1,,,,,エイル,0
1454,5010005037742,新規,0,2024-01-17,2024-01-17,一般社団法人京都悠洛,,その他の設立登記法人,東京都,千代田区,丸の内３丁目１番１号東京共同会計事務所内,,13,101,1000005,,,,,,,2024-01-17,1,,,,,キョウトユラ,0
1456,5010103002292,新規,0,2024-01-17,2024-01-17,合同会社一期一会,,合同会社,東京都,八王子市,川町１２８番地１３５,,13,201,1930821,,,,,,,2024-01-17,1,,,,,イチゴイチエ,0
1466,5010503007305,新規,0,2024-01-17,2024-01-17,合同会社ナッキニックナック,,合同会社,東京都,台東区,浅草橋１丁目１１番９号ＴＨＥＤＡＹ浅草橋３１１,,13,106,1110053,,,,,,,2024-01-17,1,,,,,ナッキニックナック,0
1468,5010601064479,新規,0,2024-01-17,2024-01-17,株式会社ＢｉｚＡｃｃｏｕｎｔａｎｔ,,株式会社,東京都,墨田区,江東橋３丁目２番２号,,13,107,1300022,,,,,,,2024-01-17,1,,,,,ビズアカウンタント,0
1472,5010901054485,新規,0,2024-01-17,2024-01-17,株式会社ＸＲｉｇｈｔ,,株式会社,東京都,世田谷区,赤堤１丁目３５番３号,,13,112,1560044,,,,,,,2024-01-17,1,,,,,エックスライト,0
1473,5010901054527,新規,0,2024-01-17,2024-01-17,ＣＩＲＦ株式会社,,株式会社,東京都,世田谷区,野沢２丁目２７－５Ｒ＆Ｉ、ＨＯＭＥＳ２０２号室,,13,112,1540003,,,,,,,2024-01-17,1,,,,,サーフ,0
1474,5010901054535,新規,0,2024-01-17,2024-01-17,ＰＡＣＩＦＩＣ　ＭＯＴＩＯＮ　ＰＩＣＴＵＲＥＳ株式会社,,株式会社,東京都,世田谷区,玉川１丁目６番６号ＴＡＭＡＧＡＷＡ１６６－４０３,,13,112,1580094,,,,,,,2024-01-17,1,,,,,パシフィックモーションピクチャーズ,0
1484,5011001159398,新規,0,2024-01-17,2024-01-17,株式会社クロスオーバー,,株式会社,東京都,渋谷区,道玄坂１丁目１０番８号渋谷道玄坂東急ビル２Ｆ－Ｃ,,13,113,1500043,,,,,,,2024-01-17,1,,,,,クロスオーバー,0
1486,5011003018247,新規,0,2024-01-17,2024-01-17,ＳＯＬ合同会社,,合同会社,東京都,渋谷区,恵比寿西２丁目１９番９号フランセスビル,,13,113,1500021,,,,,,,2024-01-17,1,,,,,ソル,0
1487,5011003018263,新規,0,2024-01-17,2024-01-17,合同会社ワンダーストラック,,合同会社,東京都,渋谷区,神宮前６丁目２３番４号桑野ビル２階,,13,113,1500001,,,,,,,2024-01-17,1,,,,,ワンダーストラック,0
1493,5011103013949,新規,0,2024-01-17,2024-01-17,合同会社ＳｅｎｓｅＳｃｅｎｔ,,合同会社,東京都,新宿区,神楽坂３丁目２林ビル４０３号室,,13,104,1620825,,,,,,,2024-01-17,1,,,,,センスセント,0
1494,5011103013973,新規,0,2024-01-17,2024-01-17,ダンデライオン２合同会社,,合同会社,東京都,新宿区,四谷２丁目９番地１５東京ユナイテッド綜合事務所内,,13,104,1600004,,,,,,,2024-01-17,1,,,,,ダンデライオンツー,0
1498,5011401025704,新規,0,2024-01-17,2024-01-17,万松株式会社,,株式会社,東京都,板橋区,弥生町６８－１１ＫＤＸレジデンス中板橋８０２,,13,119,1730021,,,,,,,2024-01-17,1,,,,,マンマツ,0
1501,5011601027459,新規,0,2024-01-17,2024-01-17,株式会社ＣＰＭアセットマネジメント,,株式会社,東京都,練馬区,石神井台７丁目７番１号,,13,120,1770045,,,,,,,2024-01-17,1,,,,,シーピーエムアセットマネジメント,0
1504,5011701026914,新規,0,2024-01-17,2024-01-17,万象株式会社,,株式会社,東京都,江戸川区,本一色３丁目９－１１,,13,123,1330044,,,,,,,2024-01-17,1,,,,,バンショウ,0
1505,5011801043652,新規,0,2024-01-17,2024-01-17,もののふ株式会社,,株式会社,東京都,足立区,梅島２丁目１１－１１,,13,121,1210816,,,,,,,2024-01-17,1,,,,,モノノフ,0
1507,5011805003330,新規,0,2024-01-17,2024-01-17,一般社団法人ＴＨＡＮＫＳａｌｌｉａｎｃｅ,,その他の設立登記法人,東京都,葛飾区,新宿５丁目７番２０号,,13,122,1250051,,,,,,,2024-01-17,1,,,,,サンクスアライアンス,0
1508,5012401041419,新規,0,2024-01-17,2024-01-17,ついたち株式会社,,株式会社,東京都,狛江市,猪方２丁目４－７,,13,219,2010015,,,,,,,2024-01-17,1,,,,,ツイタチ,0
1523,5020001155316,新規,0,2024-01-17,2024-01-17,株式会社ＫＥＹ,,株式会社,神奈川県,川崎市中原区,木月２丁目４番６号,,14,133,2110025,,,,,,,2024-01-17,1,,,,,キー,0
1529,5020003025302,新規,0,2024-01-17,2024-01-17,スマートテクノ合同会社,,合同会社,神奈川県,横浜市中区,花咲町３丁目９７,,14,104,2310063,,,,,,,2024-01-17,1,,,,,スマートテクノ,0
1536,5021001081221,新規,0,2024-01-17,2024-01-17,株式会社ＫＥＹＷＡＮＴＳ,,株式会社,神奈川県,鎌倉市,大船２丁目１８番６号ハラダビル３Ｆ,,14,204,2470056,,,,,,,2024-01-17,1,,,,,キーウォンツ,0
1539,5021003014030,新規,0,2024-01-17,2024-01-17,合同会社わしん,,合同会社,神奈川県,茅ヶ崎市,矢畑１３１９番地４勝沼荘１－Ａ,,14,207,2530085,,,,,,,2024-01-17,1,,,,,ワシン,0
1547,5030003023445,新規,0,2024-01-17,2024-01-17,ＢＵＤＤＩＮ合同会社,,合同会社,埼玉県,比企郡小川町,大字大塚４０９－９,,11,343,3550328,,,,,,,2024-01-17,1,,,,,バディン,0
1552,5040001131604,新規,0,2024-01-17,2024-01-17,株式会社Ｏ’ＬＩＦＩＸ,,株式会社,千葉県,銚子市,八木町４１５８－５,,12,202,2880822,,,,,,,2024-01-17,1,,,,,オリフィックス,0
1553,5040001131752,新規,0,2024-01-17,2024-01-17,イクトス株式会社,,株式会社,千葉県,千葉市中央区,新千葉１丁目７番２号,,12,101,2600031,,,,,,,2024-01-17,1,,,,,イクトス,0
1554,5040001131793,新規,0,2024-01-17,2024-01-17,株式会社ジェイエイチ・グリーンエナジー,,株式会社,千葉県,船橋市,大穴北４丁目１番１９号,,12,204,2740068,,,,,,,2024-01-17,1,,,,,ジェイエイチグリーンエナジー,0
1561,5050001054077,新規,0,2024-01-17,2024-01-17,ユニバーサルアセット株式会社,,株式会社,茨城県,稲敷郡阿見町,中央５丁目３４番１７号,,08,443,3000332,,,,,,,2024-01-17,1,,,,,ユニバーサルアセット,0
1565,5050003008064,新規,0,2024-01-17,2024-01-17,合同会社ｓｋｙｂｉｚ,,合同会社,茨城県,石岡市,行里川２２番２号,,08,205,3150022,,,,,,,2024-01-17,1,,,,,スカイビズ,0
1574,5080105006392,新規,0,2024-01-17,2024-01-17,一般社団法人ラパン・パラディ,,その他の設立登記法人,静岡県,沼津市,大諏訪７９２番地の１ＴＮマンション３０１号,,22,203,4100873,,,,,,,2024-01-17,1,,,,,ラパンパラディ,0
1605,5110003005261,新規,0,2024-01-17,2024-01-17,合同会社Ｙｕｒａｋｕ,,合同会社,新潟県,新潟市江南区,亀田大月２丁目１番３２号２Ｆ,,15,104,9500162,,,,,,,2024-01-17,1,,,,,ユラク,0
1617,5120001261351,新規,0,2024-01-17,2024-01-17,株式会社フラッグワン,,株式会社,大阪府,大阪市生野区,林寺６丁目８番９号,,27,116,5440023,,,,,,,2024-01-17,1,,,,,フラッグワン,0
1618,5120001261442,新規,0,2024-01-17,2024-01-17,日本瀛佳株式会社,,株式会社,大阪府,大阪市淀川区,十三本町２丁目１１番３号クローバーハイツマキノ６Ｆ,,27,123,5320024,,,,,,,2024-01-17,1,,,,,ニホンエイカ,0
1622,5120003025671,新規,0,2024-01-17,2024-01-17,合同会社エバーグリーン,,合同会社,大阪府,大阪市阿倍野区,旭町３丁目３番７号１１１４号室,,27,119,5450051,,,,,,,2024-01-17,1,,,,,エバーグリーン,0
1625,5120101068886,新規,0,2024-01-17,2024-01-17,株式会社サンケア,,株式会社,大阪府,富田林市,向陽台１丁目４番１８号,,27,214,5840082,,,,,,,2024-01-17,1,,,,,サンケア,0
1629,5120903004997,新規,0,2024-01-17,2024-01-17,合同会社ＡｔｈＭｅｄ　Ｐｌｕｓ,,合同会社,大阪府,豊中市,服部豊町１丁目１１番３号,,27,203,5610859,,,,,,,2024-01-17,1,,,,,アスメドプラス,0
1634,5130003009228,新規,0,2024-01-17,2024-01-17,合同会社ＥＥ．Ｅａｒｔｈ　Ｅｘｐｌｏｒｅｒ,,合同会社,京都府,京都市南区,西九条大国町２９番地２シャルム南１０１,,26,107,6018449,,,,,,,2024-01-17,1,,,,,イーイーアースエクスプローラー,0
1635,5130003009244,新規,0,2024-01-17,2024-01-17,ティメディカルマーケティング合同会社,,合同会社,京都府,長岡京市,天神５丁目１７番１７号,,26,209,6170824,,,,,,,2024-01-17,1,,,,,ティメディカルマーケティング,0
1641,5140001132914,新規,0,2024-01-17,2024-01-17,エイチツーユー株式会社,,株式会社,兵庫県,姫路市,神子岡前３丁目６番１３号,,28,201,6700055,,,,,,,2024-01-17,1,,,,,エイチツーユー,0
1642,5140001133012,新規,0,2024-01-17,2024-01-17,株式会社総合建設二,,株式会社,兵庫県,神戸市灘区,楠丘町３丁目１番８２０号,,28,102,6570024,,,,,,,2024-01-17,1,,,,,ソウゴウケンセツトゥー,0
1648,5160001025637,新規,0,2024-01-17,2024-01-17,ＡＫＡＲＩ建設株式会社,,株式会社,滋賀県,彦根市,小泉町９００－６ラヴィール小泉町１０３号室,,25,202,5220043,,,,,,,2024-01-17,1,,,,,アカリケンセツ,0
1652,5170005007060,新規,0,2024-01-17,2024-01-17,医療法人城北の杜,,その他の設立登記法人,和歌山県,和歌山市,万町７番地サピリア石倉ビル３階,,30,201,6408035,,,,,,,2024-01-17,1,,,,,ジョウホクノモリ,0
1660,5180001159755,新規,0,2024-01-17,2024-01-17,株式会社安安ＧＲＯＵＰ,,株式会社,愛知県,名古屋市昭和区,山手通１丁目１７番地の１,,23,107,4660815,,,,,,,2024-01-17,1,,,,,アンアングループ,0
1665,5180301038238,新規,0,2024-01-17,2024-01-17,ジョイライフ株式会社,,株式会社,愛知県,豊橋市,南大清水町字藤ケ谷１３５番地８,,23,201,4418132,,,,,,,2024-01-17,1,,,,,ジョイライフ,0
1674,5200001042090,新規,0,2024-01-17,2024-01-17,株式会社Ｈｕｍａｎ　Ｒｅｂｉｒｔｈ,,株式会社,岐阜県,大垣市,荒尾玉池２丁目２１番地,,21,202,5030035,,,,,,,2024-01-17,1,,,,,ヒューマンリバース,0
1678,5220003003659,新規,0,2024-01-17,2024-01-17,Ｌｉｆｅｗｏｒｋ合同会社,,合同会社,石川県,金沢市,十一屋町１３‐６‐１,,17,201,9218106,,,,,,,2024-01-17,1,,,,,ライフワーク,0
1679,5230001020176,新規,0,2024-01-17,2024-01-17,株式会社マグネット,,株式会社,富山県,高岡市,本丸町４番３５号,,16,202,9330045,,,,,,,2024-01-17,1,,,,,マグネット,0
1689,5250005008892,新規,0,2024-01-17,2024-01-17,一般社団法人子ども支援型ミエールプロジェクト,,その他の設立登記法人,山口県,下関市,吉見新町１丁目２番１４号,,35,201,7596532,,,,,,,2024-01-17,1,,,,,コドモシエンガタミエールプロジェクト,0
1693,5260001038661,新規,0,2024-01-17,2024-01-17,株式会社シグナル,,株式会社,岡山県,赤磐市,桜が丘東６丁目６番地１１,,33,213,7090721,,,,,,,2024-01-17,1,,,,,シグナル,0
1695,5270003001591,新規,0,2024-01-17,2024-01-17,合同会社なむ,,合同会社,鳥取県,米子市,淀江町西原１０２８－６１,,31,202,6893403,,,,,,,2024-01-17,1,,,,,ナム,0
1709,5290001104378,新規,0,2024-01-17,2024-01-17,九州イングリーディエント株式会社,,株式会社,福岡県,朝倉市,秋月８９番地１,,40,228,8380001,,,,,,,2024-01-17,1,,,,,キュウシュウイングリーディエント,0
1710,5290001104394,新規,0,2024-01-17,2024-01-17,Ｌ‐ＣＥＳ株式会社,,株式会社,福岡県,福岡市西区,福重４丁目１３番２０号,,40,135,8190022,,,,,,,2024-01-17,1,,,,,エルセス,0
1711,5290001104403,新規,0,2024-01-17,2024-01-17,ＳＵＮＫＳ株式会社,,株式会社,福岡県,糟屋郡宇美町,光正寺３丁目８番２３号,,40,341,8112123,,,,,,,2024-01-17,1,,,,,サンクス,0
1719,5290003014864,新規,0,2024-01-17,2024-01-17,合同会社ｉｍｐｒｅｓｓ,,合同会社,福岡県,春日市,春日６丁目８３番,,40,218,8160814,,,,,,,2024-01-17,1,,,,,インプレス,0
1733,5330001031650,新規,0,2024-01-17,2024-01-17,柏株式会社,,株式会社,熊本県,熊本市東区,小山町１９３０番地１,,43,102,8618030,,,,,,,2024-01-17,1,,,,,カシワ,0
1735,5330003010165,新規,0,2024-01-17,2024-01-17,合同会社ＦＩＸ,,合同会社,熊本県,熊本市南区,城南町島田１０１１番地１,,43,104,8614236,,,,,,,2024-01-17,1,,,,,フィックス,0
1738,5340005009691,新規,0,2024-01-17,2024-01-17,特定非営利活動法人市民オンブズマン出水,,その他の設立登記法人,鹿児島県,出水市,高尾野町大久保４５３４番地,,46,208,8990401,,,,,,,2024-01-17,1,,,,,シミンオンブズマンイズミ,0
1741,5360001033066,新規,0,2024-01-17,2024-01-17,ＡＳＧＭ株式会社,,株式会社,沖縄県,糸満市,字潮平３１番地の１,,47,210,9010302,,,,,,,2024-01-17,1,,,,,エーエスジーエム,0
1742,5360001033082,新規,0,2024-01-17,2024-01-17,株式会社ＰＡＰＡＺＹＡＮ,,株式会社,沖縄県,那覇市,前島３丁目２５番２号泊ポートビル１Ｆ,,47,201,9000016,,,,,,,2024-01-17,1,,,,,パパジャン,0
1743,5360003013586,新規,0,2024-01-17,2024-01-17,ＭＵＳＣＬＥ　ＦＯＯＤ　ＰＲＯＪＥＣＴ合同会社,,合同会社,沖縄県,豊見城市,字翁長８５４－１（ＭＥＧＡドン・キホーテ内６階）,,47,212,9010223,,,,,,,2024-01-17,1,,,,,マッスルフードプロジェクト,0
1756,5380003005664,新規,0,2024-01-17,2024-01-17,合同会社武修堂,,合同会社,福島県,郡山市,久留米６丁目１５１番地の９,,07,203,9638846,,,,,,,2024-01-17,1,,,,,ブシュウドウ,0
1760,5400001016520,新規,0,2024-01-17,2024-01-17,株式会社阿部徳,,株式会社,岩手県,北上市,新穀町１丁目７番３８号,,03,206,0240092,,,,,,,2024-01-17,1,,,,,アベトク,0
1762,5410003003879,新規,0,2024-01-17,2024-01-17,合同会社みずほ,,合同会社,秋田県,秋田市,山王５丁目１０番１９号,,05,201,0100951,,,,,,,2024-01-17,1,,,,,ミズホ,0
1780,5450003002431,新規,0,2024-01-17,2024-01-17,合同会社アトラクト,,合同会社,北海道,旭川市,西神楽一線八号１４５番地の２１,,01,204,0788381,,,,,,,2024-01-17,1,,,,,アトラクト,0
1781,5460103001588,新規,0,2024-01-17,2024-01-17,合同会社インテリアＨＡＲＵ,,合同会社,北海道,河東郡音更町,すずらん台仲町１丁目５番地５,,01,631,0800362,,,,,,,2024-01-17,1,,,,,インテリアハル,0
1782,5460303000811,新規,0,2024-01-17,2024-01-17,合同会社みんなのて,,合同会社,北海道,北見市,川東６６－３７,,01,208,0900807,,,,,,,2024-01-17,1,,,,,,0
1783,5470001019987,新規,0,2024-01-17,2024-01-17,株式会社プラチナム,,株式会社,香川県,高松市,仏生山町甲８４３－３,,37,201,7618078,,,,,,,2024-01-17,1,,,,,プラチナム,0
1787,5480003002073,新規,0,2024-01-17,2024-01-17,合同会社ｋｕｔｓｕｂｅｌｉｇｈｔ,,合同会社,徳島県,名西郡石井町,石井字白鳥１０１－２０１,,36,341,7793234,,,,,,,2024-01-17,1,,,,,クツベライト,0
1794,5700150123368,新規,0,2024-01-17,2024-01-17,ＦＯＳＨＡＮＳＨＩ　ＨＡＩＰＵＬＵＯＳＩ　ＤＩＡＮＺＩＳＨＡＮＧＷＵ　ＹＯＵＸＩＡＮＧＯＮＧＳＩ,,外国会社等,,,,,,,,ＮＡＮＨＡＩＱＵＪＩＵＪＩＡＮＧＺＨＥＮＳＨＡＴＯＵＮＡＮＪＩＮＫＡＮＧＴＡＩＮＡＮＬＵ，１１１ＨＡＯＳＨＯＵＣＥＮＧ１０１（ＺＨＵＳＵＯＳＨＥＮＢＡＯ）ＦＯＳＨＡＮ，ＧＵＡＮＧＤＯＮＧ,,,,,,2024-01-17,1,,,,,フォーシャンシーハイプゥルオスーディエンズーシャーンウーヨウシエンゴーンスー,0
1802,6010001241462,新規,0,2024-01-17,2024-01-17,株式会社アイティーケィ,,株式会社,東京都,文京区,音羽２丁目１１番１４号,,13,105,1120013,,,,,,,2024-01-17,1,,,,,アイティーケィ,0
1803,6010001241512,新規,0,2024-01-17,2024-01-17,株式会社Ｅｎｒｉｃｈｅｒ,,株式会社,東京都,中央区,日本橋室町１丁目１１番１２号日本橋水野ビル７階,,13,102,1030022,,,,,,,2024-01-17,1,,,,,エンリッチャー,0
1804,6010001241520,新規,0,2024-01-17,2024-01-17,株式会社エムアイティージャパン,,株式会社,東京都,千代田区,外神田３丁目６－６,,13,101,1010021,,,,,,,2024-01-17,1,,,,,エムアイティージャパン,0
1805,6010001241529,新規,0,2024-01-17,2024-01-17,Ｌｉｆｅｌｉｎｅ株式会社,,株式会社,東京都,文京区,本郷１丁目５番１７号,,13,105,1130033,,,,,,,2024-01-17,1,,,,,ライフライン,0
1806,6010001241537,新規,0,2024-01-17,2024-01-17,ＰＴＣＪ‐５ホールディングス株式会社,,株式会社,東京都,千代田区,丸の内１丁目９番１号,,13,101,1000005,,,,,,,2024-01-17,1,,,,,ピーティーシージェイファイブホールディングス,0
1808,6010005037733,新規,0,2024-01-17,2024-01-17,一般社団法人ＯＥＳ湖東ホールディングス,,その他の設立登記法人,東京都,千代田区,丸の内３丁目１番１号東京共同会計事務所内,,13,101,1000005,,,,,,,2024-01-17,1,,,,,オーイーエスコトウホールディングス,0
1819,6010401179749,新規,0,2024-01-17,2024-01-17,株式会社Ｏｐｔｉｈｅａｌｔｈ,,株式会社,東京都,港区,浜松町１丁目３番２号,,13,103,1050013,,,,,,,2024-01-17,1,,,,,オプティヘルス,0
1820,6010401179773,新規,0,2024-01-17,2024-01-17,ＰＬＵＭ株式会社,,株式会社,東京都,港区,南青山２丁目２番１５号ウィン青山９４２,,13,103,1070062,,,,,,,2024-01-17,1,,,,,プラム,0
1825,6010601064478,新規,0,2024-01-17,2024-01-17,ウェルノーラ株式会社,,株式会社,東京都,江東区,古石場１丁目１３番２号コーポヒロミ２０１号室,,13,108,1350045,,,,,,,2024-01-17,1,,,,,ウェルノーラ,0
1830,6010703007021,新規,0,2024-01-17,2024-01-17,合同会社まんぷく,,合同会社,東京都,品川区,東中延２丁目９番１６－３０５号,,13,109,1420052,,,,,,,2024-01-17,1,,,,,マンプク,0
1835,6010903008736,新規,0,2024-01-17,2024-01-17,合同会社ＵＢＳ,,合同会社,東京都,世田谷区,宇奈根１丁目２９番５号こうき荘１０１,,13,112,1570068,,,,,,,2024-01-17,1,,,,,ユービーエス,0
1840,6011001159389,新規,0,2024-01-17,2024-01-17,株式会社ｏｆｆｉｃｅ　Ｗ,,株式会社,東京都,渋谷区,道玄坂１丁目１０番８号渋谷道玄坂東急ビル２Ｆ－Ｃ,,13,113,1500043,,,,,,,2024-01-17,1,,,,,オフィスダブリュー,0
1841,6011001159397,新規,0,2024-01-17,2024-01-17,フロントフィールズ株式会社,,株式会社,東京都,渋谷区,道玄坂１丁目１５番３号,,13,113,1500043,,,,,,,2024-01-17,1,,,,,フロントフィールズ,0
1842,6011001159439,新規,0,2024-01-17,2024-01-17,ＨＥＬＬＯＲＩＮＧ株式会社,,株式会社,東京都,渋谷区,東３丁目１２番１３号ＶＥＲＩＴＡビル３階,,13,113,1500011,,,,,,,2024-01-17,1,,,,,ハローリング,0
1849,6011403004226,新規,0,2024-01-17,2024-01-17,ＡＲＴ合同会社,,合同会社,東京都,板橋区,板橋１丁目５５番１０号２０２,,13,119,1730004,,,,,,,2024-01-17,1,,,,,エイアルティ,0
1855,6011801043651,新規,0,2024-01-17,2024-01-17,株式会社ＬＯＯＴａＤＯＧ　Ｊａｐａｎ,,株式会社,東京都,足立区,東伊興３丁目４－１４－１０２,,13,121,1210801,,,,,,,2024-01-17,1,,,,,ルートアドッグジャパン,0
1856,6012301013723,新規,0,2024-01-17,2024-01-17,株式会社洸貴,,株式会社,東京都,町田市,広袴町６５０番地フェアリータウンＡ－１０２,,13,209,1950052,,,,,,,2024-01-17,1,,,,,コウキ,0
1857,6012401041401,新規,0,2024-01-17,2024-01-17,ＢＣＧ株式会社,,株式会社,東京都,武蔵野市,吉祥寺本町２丁目１４‐６ピア吉祥寺３０３号室,,13,203,1800004,,,,,,,2024-01-17,1,,,,,ブロックチェーンゲーム,0
1858,6012401041418,新規,0,2024-01-17,2024-01-17,株式会社フジ・ブロス,,株式会社,東京都,府中市,紅葉丘２丁目２２番地４,,13,206,1830004,,,,,,,2024-01-17,1,,,,,フジブロス,0
1859,6012405004932,新規,0,2024-01-17,2024-01-17,特定非営利活動法人自立生活サポートセンターとらや,,その他の設立登記法人,東京都,小金井市,梶野町４丁目１１番４－２０２号ビッグローズ２１,,13,210,1840002,,,,,,,2024-01-17,1,,,,,ジリツセイカツサポートセンタートラヤ,0
1879,6020001155315,新規,0,2024-01-17,2024-01-17,株式会社ＡＩＲ　ＢＡＮＫＳ,,株式会社,神奈川県,横浜市西区,浅間町１丁目４番３号ウィザードビル４０２,,14,103,2200072,,,,,,,2024-01-17,1,,,,,エアーバンクス,0
1885,6021001081237,新規,0,2024-01-17,2024-01-17,株式会社ワークス２４,,株式会社,神奈川県,藤沢市,村岡東３丁目２６０番地の３,,14,205,2510012,,,,,,,2024-01-17,1,,,,,ワークスニジュウヨン,0
1890,6021003014021,新規,0,2024-01-17,2024-01-17,エフトアール合同会社,,合同会社,神奈川県,座間市,南栗原５丁目１４－３１,,14,216,2520015,,,,,,,2024-01-17,1,,,,,エフトアール,0
1893,6021005012997,新規,0,2024-01-17,2024-01-17,ＮＰＯ法人おでしえ,,その他の設立登記法人,神奈川県,海老名市,上郷１丁目７番６号,,14,215,2430434,,,,,,,2024-01-17,1,,,,,オデシエ,0
1901,6040001131611,新規,0,2024-01-17,2024-01-17,水代土地株式会社,,株式会社,千葉県,流山市,向小金３丁目１７９番地,,12,220,2700143,,,,,,千葉県流山市向小金三丁目１７９番地株式会社水源土地所有移行会社（5040001040904）及び千葉県流山市向小金三丁目１７９番地株式会社水代ビル土地所有移行会社（2040001040948）並びに千葉県流山市向小金三丁目１７９番地株式会社ＮＮＫ土地所有移行会社（1040001040949）の合併により設立,2024-01-17,1,,,,,ミズシロトチ,0
1902,6040001131751,新規,0,2024-01-17,2024-01-17,株式会社ヤモトホーム,,株式会社,千葉県,柏市,しいの木台４丁目３３番地４５,,12,217,2770945,,,,,,,2024-01-17,1,,,,,ヤモトホーム,0
1903,6040001131792,新規,0,2024-01-17,2024-01-17,株式会社石起,,株式会社,千葉県,千葉市中央区,星久喜町６５２番地２,,12,101,2600808,,,,,,,2024-01-17,1,,,,,イシキ,0
1904,6040001131801,新規,0,2024-01-17,2024-01-17,悠兮株式会社,,株式会社,千葉県,野田市,大殿井８３－１９７,,12,208,2780017,,,,,,,2024-01-17,1,,,,,ユウシ,0
1914,6050001054092,新規,0,2024-01-17,2024-01-17,株式会社箱田製作所,,株式会社,茨城県,笠間市,来栖２６２３番地３,,08,216,3091625,,,,,,,2024-01-17,1,,,,,ハコダセイサクショ,0
1921,6060001036742,新規,0,2024-01-17,2024-01-17,株式会社アドテイル,,株式会社,栃木県,宇都宮市,本町５番地１０ワイドビル２０１号,,09,201,3200033,,,,,,,2024-01-17,1,,,,,アドテイル,0
1924,6080001026080,新規,0,2024-01-17,2024-01-17,ココプラス株式会社,,株式会社,静岡県,静岡市清水区,押切１０４０－３,,22,103,4240008,,,,,,,2024-01-17,1,,,,,ココプラス,0
1925,6080001026089,新規,0,2024-01-17,2024-01-17,株式会社ウイズ,,株式会社,静岡県,静岡市清水区,蜂ヶ谷２１７番地の９,,22,103,4240003,,,,,,,2024-01-17,1,,,,,ウイズ,0
1930,6080401026952,新規,0,2024-01-17,2024-01-17,株式会社ＡＳＡＨＩ　ＭＯＴＯＲＳ,,株式会社,静岡県,浜松市中央区,原島町４５４番地,,22,138,4350047,,,,,,,2024-01-17,1,,,,,アサヒモータース,0
1970,6120001261350,新規,0,2024-01-17,2024-01-17,塔建株式会社,,株式会社,大阪府,大阪市生野区,巽北１丁目２７番１５号,00133385,27,116,5440004,,,,,,,2024-01-17,1,,,,,トウケン,0
1971,6120001261383,新規,0,2024-01-17,2024-01-17,株式会社谷口板金工業,,株式会社,大阪府,守口市,南寺方東通５丁目２３番９号,,27,209,5700043,,,,,,,2024-01-17,1,,,,,タニグチバンキンコウギョウ,0
1972,6120001261391,新規,0,2024-01-17,2024-01-17,アイオライト株式会社,,株式会社,大阪府,大阪市北区,神山町９－２４ジューム神山２０２号,,27,127,5300026,,,,,,,2024-01-17,1,,,,,アイオライト,0
1973,6120001261400,新規,0,2024-01-17,2024-01-17,株式会社Ｘ　ＨＵＮＴ,,株式会社,大阪府,大阪市中央区,北浜２丁目６番１８号,,27,128,5410041,,,,,,,2024-01-17,1,,,,,エックスハント,0
1974,6120001261425,新規,0,2024-01-17,2024-01-17,エックステック株式会社,,株式会社,大阪府,大阪市生野区,田島２丁目１０番３０号,,27,116,5440011,,,,,,,2024-01-17,1,,,,,エックステック,0
1975,6120001261499,新規,0,2024-01-17,2024-01-17,栄鈞株式会社,,株式会社,大阪府,大阪市北区,天満２丁目１－１２天満橋ＳＥビル４Ｆ,,27,127,5300043,,,,,,,2024-01-17,1,,,,,エイキン,0
1976,6120003025679,新規,0,2024-01-17,2024-01-17,カトーテック合同会社,,合同会社,大阪府,大阪市北区,天神橋７丁目１３番１－１１０１号,,27,127,5310041,,,,,,,2024-01-17,1,,,,,カトーテック,0
1977,6120003025687,新規,0,2024-01-17,2024-01-17,合同会社あーつや商店,,合同会社,大阪府,大阪市福島区,福島４丁目３番２３号大阪福島タワー８０３,,27,103,5530003,,,,,,,2024-01-17,1,,,,,アーツヤショウテン,0
1979,6120101068885,新規,0,2024-01-17,2024-01-17,日本振興アグリ株式会社,,株式会社,大阪府,泉佐野市,りんくう往来南２番地の２りんくうエルガビル２Ｆ,,27,213,5980047,,,,,,,2024-01-17,1,,,,,ニホンシンコウアグリ,0
1980,6120905006545,新規,0,2024-01-17,2024-01-17,行政書士法人大神事務所,,その他の設立登記法人,大阪府,高槻市,土室町５番１３－１０２号,,27,207,5691147,,,,,,,2024-01-17,1,,,,,オオガミジムショ,0
1989,6130001076153,新規,0,2024-01-17,2024-01-17,吉田組株式会社,,株式会社,京都府,長岡京市,今里更ノ町６番地２３,,26,209,6170814,,,,,,,2024-01-17,1,,,,,ヨシダグミ,0
1991,6130003009235,新規,0,2024-01-17,2024-01-17,クリニカルラボスリーアール合同会社,,合同会社,京都府,京都市下京区,朱雀正会町１番地１－４０１,,26,106,6008841,,,,,,,2024-01-17,1,,,,,クリニカルラボスリーアール,0
1992,6130005016980,新規,0,2024-01-17,2024-01-17,一般社団法人渡天,,その他の設立登記法人,京都府,京都市伏見区,肥後町３９１番地,,26,109,6128352,,,,,,,2024-01-17,1,,,,,トテン,0
2003,6150001027006,新規,0,2024-01-17,2024-01-17,株式会社松建企画,,株式会社,奈良県,天理市,永原町４５６番地,,29,204,6320061,,,,,,,2024-01-17,1,,,,,ショウケンキカク,0
2004,6150001027014,新規,0,2024-01-17,2024-01-17,株式会社杉田,,株式会社,奈良県,奈良市,二条大路南５丁目６番２１号,,29,201,6308012,,,,,,,2024-01-17,1,,,,,スギタ,0
2020,6180003026192,新規,0,2024-01-17,2024-01-17,合同会社ピーチチルドレン,,合同会社,愛知県,名古屋市中区,錦２丁目７番７号,,23,106,4600003,,,,,,,2024-01-17,1,,,,,ピーチチルドレン,0
2023,6180301038237,新規,0,2024-01-17,2024-01-17,株式会社ＢＦ,,株式会社,愛知県,岡崎市,美合町字生田２７３番地２,,23,202,4440804,,,,,,,2024-01-17,1,,,,,ビーエフ,0
2037,6240001062670,新規,0,2024-01-17,2024-01-17,株式会社ＮＫカンパニー,,株式会社,広島県,広島市中区,立町５番７号２階,,34,101,7300032,,,,,,,2024-01-17,1,,,,,エヌケイカンパニー,0
2039,6240003006493,新規,0,2024-01-17,2024-01-17,合同会社三上,,合同会社,広島県,広島市佐伯区,湯来町大字伏谷１１１９番地８２,,34,108,7380513,,,,,,,2024-01-17,1,,,,,ミカミ,0
2043,6270003001590,新規,0,2024-01-17,2024-01-17,合同会社太田グリーン,,合同会社,鳥取県,西伯郡大山町,高田１５１１番地１,,31,386,6893224,,,,,,,2024-01-17,1,,,,,オオタグリーン,0
2070,6290001104377,新規,0,2024-01-17,2024-01-17,ヤマワケギャランティ株式会社,,株式会社,福岡県,福岡市中央区,天神５丁目７番３号福岡天神北ビル５階,,40,133,8100001,,,,,,,2024-01-17,1,,,,,ヤマワケギャランティ,0
2082,6290003014863,新規,0,2024-01-17,2024-01-17,ＯＡＮＨ　ＣＨＩＮ合同会社,,合同会社,福岡県,福岡市南区,横手南町２番１５号,,40,134,8111312,,,,,,,2024-01-17,1,,,,,オアンチン,0
2096,6300001013592,新規,0,2024-01-17,2024-01-17,株式会社水主蔵,,株式会社,佐賀県,唐津市,浜玉町浜崎１７５８番地３,,41,202,8495131,,,,,,,2024-01-17,1,,,,,カコゾウ,0
2099,6310001018814,新規,0,2024-01-17,2024-01-17,株式会社ＬＩＡＩＳＯＮ　ＤＥＶＥＬＯＰＭＥＮＴ,,株式会社,長崎県,長崎市,上野町２－２トライドリームビル,,42,201,8528113,,,,,,,2024-01-17,1,,,,,リエゾンディベロップメント,0
2104,6330001031658,新規,0,2024-01-17,2024-01-17,株式会社鉄心工業,,株式会社,熊本県,熊本市東区,画図町大字下無田１４３２番地１３,,43,102,8620945,,,,,,,2024-01-17,1,,,,,テッシンコウギョウ,0
2107,6340001026211,新規,0,2024-01-17,2024-01-17,株式会社ラワルモータース,,株式会社,鹿児島県,薩摩川内市,隈之城町１０８０番地,,46,215,8950041,,,,,,,2024-01-17,1,,,,,ラワルモータース,0
2109,6350003004544,新規,0,2024-01-17,2024-01-17,合同会社大淀,,合同会社,宮崎県,宮崎市,吉村町西中甲１３６５番地１０,,45,201,8800841,,,,,,,2024-01-17,1,,,,,オオヨド,0
2113,6360003013619,新規,0,2024-01-17,2024-01-17,合同会社すい巧,,合同会社,沖縄県,沖縄市,池原１丁目２１番９号,,47,211,9042141,,,,,,,2024-01-17,1,,,,,スイコウ,0
2117,6370001050828,新規,0,2024-01-17,2024-01-17,株式会社不動産コンシェルジュ,,株式会社,宮城県,岩沼市,中央１丁目２番２号村上ビル２号室,,04,211,9892432,,,,,,,2024-01-17,1,,,,,フドウサンコンシェルジュ,0
2132,6410005006557,新規,0,2024-01-17,2024-01-17,特定非営利活動法人キズナ,,その他の設立登記法人,秋田県,秋田市,仁井田本町１丁目６番３０号,,05,201,0101421,,,,,,,2024-01-17,1,,,,,キズナ,0
2136,6430001090850,新規,0,2024-01-17,2024-01-17,株式会社レッドゴー,,株式会社,北海道,石狩市,花川南五条５丁目１０番地－１０１号,,01,235,0613205,,,,,,,2024-01-17,1,,,,,レッドゴー,0
2144,6430003015855,新規,0,2024-01-17,2024-01-17,合同会社八幡石材店,,合同会社,北海道,夕張市,末広１丁目９２番地,,01,209,0680411,,,,,,,2024-01-17,1,,,,,ヤハタセキザイテン,0
2145,6460303000810,新規,0,2024-01-17,2024-01-17,合同会社ＭＩＯ　ＴＥＭＰＯ,,合同会社,北海道,北見市,大町６８－１ロイヤルステージ１階,,01,208,0900016,,,,,,,2024-01-17,1,,,,,ミオテンポ,0
2149,6480003002072,新規,0,2024-01-17,2024-01-17,合同会社Ｂｌｏｓｓｏｍ,,合同会社,徳島県,板野郡北島町,太郎八須字西ノ瀬４８番地１,,36,402,7710202,,,,,,,2024-01-17,1,,,,,ブロッサム,0
2151,6480005007004,新規,0,2024-01-17,2024-01-17,一般社団法人とくしま地域おこしネットワークＴＳＵＧＩＴＥ,,その他の設立登記法人,徳島県,海部郡美波町,奥河内字弁財天４５番地６,,36,387,7792305,,,,,,,2024-01-17,1,,,,,トクシマチイキオコシネットワークツギテ,0
2158,6700150123094,新規,0,2024-01-17,2024-01-17,広西泉上泉環境保護技術有限会社,,外国会社等,,,,,,,,中国広西南寧市良慶区凱旋路９号海爾青ヒ東盟聯合広場２号楼１５１０号,00133370,,,,,2024-01-17,1,,,,,コウセイセンジヨウセンカンキヨウホゴギジユツユウゲンガイシヤ,0
2159,6700150123367,新規,0,2024-01-17,2024-01-17,Ｓｈｅｎｚｈｅｎｓｈｉ　ｓｕｉｌｏｎｇｚｈｉｋａｎｇ　ｋｅｊｉｙｏｕｘｉａｎｇｏｎｇｓｉ,,外国会社等,,,,,,,,Ｌｏｎｇｈｕａｑｕ　Ｌｏｎｇｈｕａｊｉｅｄａｏ　Ｆｕｋａｎｇｓｈｅｑｕ　Ｄｏｎｇｈｕａｎｅｒｌｕ　８　Ｈａｏ，Ｚｈｏｎｇｚｈｉｓｈｉｄａｉｇｕａｎｇｃｈａｎｇ　Ｂ　Ｚｕｏ　２０Ｃｅｎｇ　２００８，ＳｈｅｎＺｈｅｎ，ＧｕａｎｇＤｏｎｇ,,,,,,2024-01-17,1,,,,,シェンジェンシースゥイローンジーカーンコーァジーヨウシエンゴーンスー,0
2172,7010005037732,新規,0,2024-01-17,2024-01-17,ＦＳＡ税理士法人,,その他の設立登記法人,東京都,千代田区,有楽町１丁目２番２号東宝日比谷ビル９階,,13,101,1000006,,,,,,,2024-01-17,1,,,,,エフエスエー,0
2173,7010005037740,新規,0,2024-01-17,2024-01-17,神保町インベストメント一般社団法人,,その他の設立登記法人,東京都,千代田区,霞が関３丁目２番５号,,13,101,1000013,,,,,,,2024-01-17,1,,,,,ジンボウチョウインベストメント,0
2176,7010401179780,新規,0,2024-01-17,2024-01-17,株式会社ノイスミント,,株式会社,東京都,港区,東麻布２丁目２２－１０－４０２,,13,103,1060044,,,,,,,2024-01-17,1,,,,,ノイスミント,0
2179,7010403031675,新規,0,2024-01-17,2024-01-17,ＫｔＳ　Ｃｏｎｓｕｌｔｉｎｇ合同会社,,合同会社,東京都,港区,南麻布１丁目７番２７－１００１号,,13,103,1060047,,,,,,,2024-01-17,1,,,,,ケーティーエスコンサルティング,0
2180,7010405022838,新規,0,2024-01-17,2024-01-17,一般社団法人Ｇ２Ｐ‐Ｊａｐａｎ,,その他の設立登記法人,東京都,港区,西麻布３丁目１番１７号,,13,103,1060031,,,,,,,2024-01-17,1,,,,,ジーツーピージャパン,0
2190,7010701045369,新規,0,2024-01-17,2024-01-17,Ｋｉｘ株式会社,,株式会社,東京都,品川区,西品川１丁目１番１号住友不動産大崎ガーデンタワー,,13,109,1410033,,,,,,,2024-01-17,1,,,,,キックス,0
2205,7011001159388,新規,0,2024-01-17,2024-01-17,株式会社Ｓｍｏｏｔｈ　Ｌｉｆｅ　Ｃｏｎｓｕｌｔｉｎｇ,,株式会社,東京都,渋谷区,代々木５丁目５３番３号,,13,113,1510053,,,,,,,2024-01-17,1,,,,,スムースライフコンサルティング,0
2206,7011001159405,新規,0,2024-01-17,2024-01-17,ＳＡＮＴＡホールディングス株式会社,,株式会社,東京都,渋谷区,渋谷３丁目２７番１１号祐真ビル本館８階,,13,113,1500002,,,,,,,2024-01-17,1,,,,,サンタホールディングス,0
2207,7011001159413,新規,0,2024-01-17,2024-01-17,株式会社カイゼン,,株式会社,東京都,渋谷区,渋谷２丁目１９番１５号宮益坂ビルディング６０９,,13,113,1500002,,,,,,,2024-01-17,1,,,,,カイゼン,0
2208,7011001159446,新規,0,2024-01-17,2024-01-17,ポストキネマラボ株式会社,,株式会社,東京都,渋谷区,渋谷２丁目１９－１５宮益坂ビルディング６０９,,13,113,1500002,,,,,,,2024-01-17,1,,,,,ポストキネマラボ,0
2209,7011003018237,新規,0,2024-01-17,2024-01-17,ｎｏｕｔａｎ合同会社,,合同会社,東京都,渋谷区,道玄坂１丁目１０番８号渋谷道玄坂東急ビル２Ｆ－Ｃ,,13,113,1500043,,,,,,,2024-01-17,1,,,,,ノウタン,0
2210,7011003018286,新規,0,2024-01-17,2024-01-17,合同会社クレア,,合同会社,東京都,渋谷区,道玄坂１丁目１０番８号渋谷道玄坂東急ビル２Ｆ－Ｃ,,13,113,1500043,,,,,,,2024-01-17,1,,,,,クレア,0
2211,7011003018303,新規,0,2024-01-17,2024-01-17,大田商事合同会社,,合同会社,東京都,渋谷区,道玄坂１丁目１０番８号渋谷道玄坂東急ビル２Ｆ－Ｃ,,13,113,1500043,,,,,,,2024-01-17,1,,,,,オオタショウジ,0
2223,7011301029308,新規,0,2024-01-17,2024-01-17,株式会社ソトラ,,株式会社,東京都,杉並区,高井戸東３丁目１４番３３号,,13,115,1680072,,,,,,,2024-01-17,1,,,,,ソトラ,0
2227,7011401025751,新規,0,2024-01-17,2024-01-17,株式会社山建築,,株式会社,東京都,板橋区,氷川町４７番９－６０２号,,13,119,1730013,,,,,,,2024-01-17,1,,,,,ヤマケンチク,0
2228,7011401025768,新規,0,2024-01-17,2024-01-17,株式会社アストリア,,株式会社,東京都,板橋区,赤塚２丁目３２番１３号,,13,119,1750092,,,,,,,2024-01-17,1,,,,,アストリア,0
2231,7011601027465,新規,0,2024-01-17,2024-01-17,縁宜株式会社,,株式会社,東京都,練馬区,桜台１丁目７番７－４０３号,,13,120,1760002,,,,,,,2024-01-17,1,,,,,エンギ,0
2239,7011801043634,新規,0,2024-01-17,2024-01-17,株式会社Ｒｅ,,株式会社,東京都,足立区,青井２丁目２番２０－５０８号,,13,121,1200012,,,,,,,2024-01-17,1,,,,,アールイー,0
2240,7011801043650,新規,0,2024-01-17,2024-01-17,東景株式会社,,株式会社,東京都,葛飾区,高砂５丁目４１番３号,,13,122,1250054,,,,,,,2024-01-17,1,,,,,トウケイ,0
2241,7012301013730,新規,0,2024-01-17,2024-01-17,Ｔｒｉｌｌｉｏｎ　Ｔｒａｄｉｎｇ株式会社,,株式会社,東京都,町田市,高ヶ坂６丁目１６番２１号２Ｆ,,13,209,1940014,,,,,,,2024-01-17,1,,,,,トリリオントレーディング,0
2242,7012401041417,新規,0,2024-01-17,2024-01-17,イロドリ三連符株式会社,,株式会社,東京都,稲城市,押立１２８５番地の４,,13,225,2060811,,,,,,,2024-01-17,1,,,,,イロドリサンレンプ,0
2254,7020001155306,新規,0,2024-01-17,2024-01-17,株式会社やまびこパートナーズ,,株式会社,神奈川県,横浜市緑区,長津田町２３３７－１,,14,113,2260026,,,,,,,2024-01-17,1,,,,,ヤマビコパートナーズ,0
2257,7020003025341,新規,0,2024-01-17,2024-01-17,合同会社ＮＭ,,合同会社,神奈川県,横浜市中区,花咲町１丁目５ヨネヤマビル２Ｆ,,14,104,2310063,,,,,,,2024-01-17,1,,,,,エヌエム,0
2258,7020003025358,新規,0,2024-01-17,2024-01-17,合同会社ＳＲソリューション,,合同会社,神奈川県,川崎市多摩区,枡形６丁目２４番２８号,,14,135,2140032,,,,,,,2024-01-17,1,,,,,エスアールソリューション,0
2266,7021001081228,新規,0,2024-01-17,2024-01-17,株式会社Ｏ‐ＦＯＲＥＳＴ,,株式会社,神奈川県,鎌倉市,梶原２丁目３３番８－２０６号,,14,204,2470063,,,,,,,2024-01-17,1,,,,,オーフォレスト,0
2270,7021003014029,新規,0,2024-01-17,2024-01-17,合同会社ゴール,,合同会社,神奈川県,逗子市,沼間１丁目７番３号モンテＳＫ２０１号室,,14,208,2490004,,,,,,,2024-01-17,1,,,,,ゴール,0
2271,7021003014037,新規,0,2024-01-17,2024-01-17,合同会社ＰｏｗｅｒＵｐｐｅｒ,,合同会社,神奈川県,平塚市,寺田縄８６番地の９,,14,203,2591215,,,,,,,2024-01-17,1,,,,,パワーアッパー,0
2273,7021005012988,新規,0,2024-01-17,2024-01-17,一般社団法人小網代ヨットクラブ,,その他の設立登記法人,神奈川県,三浦市,三崎町小網代１３８５－１８,,14,210,2380225,,,,,,,2024-01-17,1,,,,,コアジロヨットクラブ,0
2274,7021005012996,新規,0,2024-01-17,2024-01-17,一般社団法人ＬＵＮＡ,,その他の設立登記法人,神奈川県,藤沢市,辻堂太平台２丁目９番３号,,14,205,2510044,,,,,,,2024-01-17,1,,,,,ルナ,0
2278,7030001158209,新規,0,2024-01-17,2024-01-17,株式会社信頼,,株式会社,埼玉県,熊谷市,万吉５７２番地１６０,,11,202,3600161,,,,,,,2024-01-17,1,,,,,シンライ,0
2285,7030003023427,新規,0,2024-01-17,2024-01-17,合同会社ＢＥＬＬ,,合同会社,埼玉県,狭山市,新狭山２丁目３番４号ライオンズプラザ新狭山４０６,,11,215,3501331,,,,,,,2024-01-17,1,,,,,ベル,0
2295,7040001131734,新規,0,2024-01-17,2024-01-17,株式会社Ｅ‐ｌｉｎｋ,,株式会社,千葉県,四街道市,めいわ５丁目５番７号,,12,228,2840043,,,,,,,2024-01-17,1,,,,,イーリンク,0
2296,7040001131767,新規,0,2024-01-17,2024-01-17,株式会社ＢＩＳＥＩ,,株式会社,千葉県,鴨川市,横渚１６３３番地１,,12,223,2960001,,,,,,,2024-01-17,1,,,,,ビセイ,0
2297,7040001131783,新規,0,2024-01-17,2024-01-17,株式会社Ｌｉｍｙｅ,,株式会社,千葉県,千葉市緑区,おゆみ野南６丁目４７－２１９,,12,105,2660033,,,,,,,2024-01-17,1,,,,,リミエ,0
2303,7050001054117,新規,0,2024-01-17,2024-01-17,筑波不動産株式会社,,株式会社,茨城県,守谷市,久保ケ丘１丁目３番地２,,08,224,3020104,,,,,,,2024-01-17,1,,,,,ツクバフドウサン,0
2304,7050001054125,新規,0,2024-01-17,2024-01-17,コアテクトホールディングス株式会社,,株式会社,茨城県,水戸市,東赤塚２０８９,,08,201,3114142,,,,,,,2024-01-17,1,,,,,コアテクトホールディングス,0
2306,7050003008070,新規,0,2024-01-17,2024-01-17,合同会社ＯＹＡＭＡ　ＩＮＴＥＲＮＡＴＩＯＮＡＬ,,合同会社,茨城県,結城市,大字大木１９１７番地コーポアキタＶ１０３,,08,207,3070031,,,,,,,2024-01-17,1,,,,,オヤマインターナショナル,0
2314,7070001041286,新規,0,2024-01-17,2024-01-17,ＮＡＤＩＡ　ＨＯＭＥ不動産開発株式会社,,株式会社,群馬県,高崎市,西島町８６番地３,,10,202,3700017,,,,,,,2024-01-17,1,,,,,ナディアホームフドウサンカイハツ,0
2319,7080103002961,新規,0,2024-01-17,2024-01-17,いずしば合同会社,,合同会社,静岡県,伊豆市,上船原１１２０番地の３,,22,222,4103216,,,,,,,2024-01-17,1,,,,,イズシバ,0
2322,7080401026951,新規,0,2024-01-17,2024-01-17,株式会社ＭＫオート,,株式会社,静岡県,浜松市中央区,湖東町３０４６番地の２,,22,138,4311103,,,,,,,2024-01-17,1,,,,,エムケイオート,0
2358,7110001038105,新規,0,2024-01-17,2024-01-17,株式会社安心相続,,株式会社,新潟県,村上市,三之町９番３８号,,15,212,9580837,,,,,,,2024-01-17,1,,,,,アンシンソウゾク,0
2364,7120001261333,新規,0,2024-01-17,2024-01-17,株式会社ＮＰＬＵＳ１,,株式会社,大阪府,大阪市中央区,心斎橋筋１丁目８番３号,,27,128,5420085,,,,,,,2024-01-17,1,,,,,エヌプラスワン,0
2365,7120001261366,新規,0,2024-01-17,2024-01-17,株式会社なんぶ,,株式会社,大阪府,大阪市福島区,福島２丁目７－８,,27,103,5530003,,,,,,,2024-01-17,1,,,,,ナンブ,0
2366,7120001261382,新規,0,2024-01-17,2024-01-17,Ｖａｙａ国際旅行株式会社,,株式会社,大阪府,大阪市東住吉区,杭全１丁目１７－１７－２０５号室,,27,121,5460002,,,,,,,2024-01-17,1,,,,,ヴァヤコクサイリョコウ,0
2367,7120001261424,新規,0,2024-01-17,2024-01-17,株式会社ＰＩＴＥ,,株式会社,大阪府,大阪市東成区,玉津３丁目５番７号,,27,115,5370023,,,,,,,2024-01-17,1,,,,,ピテ,0
2368,7120001261432,新規,0,2024-01-17,2024-01-17,株式会社ＴＨＥ　ＦＵＴＵＲＥ,,株式会社,大阪府,大阪市住之江区,粉浜西３丁目１番１１－５０４号,,27,125,5590007,,,,,,,2024-01-17,1,,,,,ザフューチャー,0
2369,7120001261440,新規,0,2024-01-17,2024-01-17,株式会社幸組,,株式会社,大阪府,枚方市,楠葉丘１丁目２番８号,,27,210,5731104,,,,,,,2024-01-17,1,,,,,サチグミ,0
2372,7120003025703,新規,0,2024-01-17,2024-01-17,合同会社ＮＥＷ　ＬＩＦＥ,,合同会社,大阪府,大阪市生野区,中川西２丁目２３－１２エニシダ中川西５０２号,,27,116,5440032,,,,,,,2024-01-17,1,,,,,ニュウライフ,0
2377,7120101068901,新規,0,2024-01-17,2024-01-17,株式会社Ａ・コネクション,,株式会社,大阪府,和泉市,父鬼町３３５番地の１,,27,219,5941132,,,,,,,2024-01-17,1,,,,,エーコネクション,0
2379,7120103005638,新規,0,2024-01-17,2024-01-17,合同会社ａｒｍｏ,,合同会社,大阪府,堺市堺区,七道西町１２番地８サニーハイツ堺６－２０３号,,27,141,5900911,,,,,,,2024-01-17,1,,,,,アルモ,0
2381,7120105009810,新規,0,2024-01-17,2024-01-17,医療法人ぺんぎんキッズクリニック,,その他の設立登記法人,大阪府,大阪狭山市,東茱萸木４丁目１３４５番地の１,,27,231,5890012,,,,,,,2024-01-17,1,,,,,ペンギンキッズクリニック,0
2388,7130001076144,新規,0,2024-01-17,2024-01-17,株式会社ＵＮＩＳＥＥＤ,,株式会社,京都府,京都市伏見区,大阪町５９５－６ＳＡＫＵＲＡＢＵＩＬＤ２Ｆ,,26,109,6128048,,,,,,,2024-01-17,1,,,,,ユニシード,0
2389,7130001076152,新規,0,2024-01-17,2024-01-17,松村株式会社,,株式会社,京都府,京都市上京区,御前通仁和寺街道上る下竪町１７１番地,,26,102,6028372,,,,,,,2024-01-17,1,,,,,マツムラ,0
2397,7140003020058,新規,0,2024-01-17,2024-01-17,パセリ合同会社,,合同会社,兵庫県,西宮市,結善町４番１５－２０３号,,28,204,6620037,,,,,,,2024-01-17,1,,,,,パセリ,0
2399,7150001027005,新規,0,2024-01-17,2024-01-17,株式会社ｃｏｎｎｅｃｔ,,株式会社,奈良県,生駒市,辻町３９６番地１メゾン中畑２０３,00133371,29,209,6300212,,,,,,,2024-01-17,1,,,,,コネクト,0
2400,7150001027013,新規,0,2024-01-17,2024-01-17,アローズセキュリティ株式会社,,株式会社,奈良県,香芝市,逢坂７丁目１４４番地２,00133372,29,210,6390251,,,,,,,2024-01-17,1,,,,,アローズセキュリティ,0
2402,7160003003093,新規,0,2024-01-17,2024-01-17,合同会社クールクラフト,,合同会社,滋賀県,守山市,水保町１２７０西村アパート７号室,,25,207,5240102,,,,,,,2024-01-17,1,,,,,クールクラフト,0
2405,7180001159761,新規,0,2024-01-17,2024-01-17,株式会社ＫＷ建材,,株式会社,愛知県,常滑市,字古社２０番地の７,,23,216,4790043,,,,,,,2024-01-17,1,,,,,ケーダブルケンザイ,0
2419,7220003003657,新規,0,2024-01-17,2024-01-17,合同会社タイムリー北陸,,合同会社,石川県,加賀市,片山津温泉アの５４番地,,17,206,9220412,,,,,,,2024-01-17,1,,,,,タイムリーホクリク,0
2426,7240003006492,新規,0,2024-01-17,2024-01-17,合同会社ＯＫＡデジタル,,合同会社,広島県,福山市,幕山台６丁目１３番３号,,34,207,7210913,,,,,,,2024-01-17,1,,,,,オカデジタル,0
2428,7250001020478,新規,0,2024-01-17,2024-01-17,株式会社ＫＵＷＡＭＵＲＡ工業,,株式会社,山口県,岩国市,通津３３８１番地,,35,208,7400044,,,,,,,2024-01-17,1,,,,,クワムラコウギョウ,0
2443,7290001104384,新規,0,2024-01-17,2024-01-17,株式会社いちいプロジェクト,,株式会社,福岡県,福岡市城南区,金山団地２－１０６,,40,136,8140114,,,,,,,2024-01-17,1,,,,,イチイプロジェクト,0
2454,7290003014854,新規,0,2024-01-17,2024-01-17,合同会社本山エクステリア,,合同会社,福岡県,糟屋郡粕屋町,大字柚須４９－１,,40,349,8112305,,,,,,,2024-01-17,1,,,,,モトヤマエクステリア,0
2455,7290003014862,新規,0,2024-01-17,2024-01-17,シャーラ合同会社,,合同会社,福岡県,福岡市博多区,竹下２丁目４番２９－９０２号,,40,132,8120895,,,,,,,2024-01-17,1,,,,,シャーラ,0
2466,7290801030227,新規,0,2024-01-17,2024-01-17,株式会社マルズ,,株式会社,福岡県,北九州市小倉北区,木町４丁目６番２５号,,40,106,8030851,,,,,,,2024-01-17,1,,,,,マルズ,0
2476,7300001013591,新規,0,2024-01-17,2024-01-17,株式会社神山工業,,株式会社,佐賀県,佐賀市,久保田町大字久保田８０７番地１,,41,201,8490204,,,,,,,2024-01-17,1,,,,,カミヤマコウギョウ,0
2477,7300005007177,新規,0,2024-01-17,2024-01-17,一般社団法人Ｃｏｄｏｍｏ　Ｃｒｅａｔｉｖｅ　Ｃｏｍｐａｎｙ,,その他の設立登記法人,佐賀県,佐賀市,水ヶ江１丁目６番１５号,,41,201,8400054,,,,,,,2024-01-17,1,,,,,コドモクリエイティブカンパニー,0
2489,7330003010163,新規,0,2024-01-17,2024-01-17,ＨＫ合同会社,,合同会社,熊本県,宇城市,松橋町松橋１１２６－１かりん松橋１階,,43,213,8690502,,,,,,,2024-01-17,1,,,,,エイチケー,0
2490,7330003010171,新規,0,2024-01-17,2024-01-17,ルシエルブルー合同会社,,合同会社,熊本県,宇城市,豊野町山崎字豊原２５９―１,,43,213,8614305,,,,,,,2024-01-17,1,,,,,ルシエルブルー,0
2492,7340001026219,新規,0,2024-01-17,2024-01-17,Ｂ‐ＲＩＤＥ株式会社,,株式会社,鹿児島県,鹿児島市,宮之浦町１１４１－１,,46,201,8911305,,,,,,,2024-01-17,1,,,,,ビーライド,0
2497,7350003004543,新規,0,2024-01-17,2024-01-17,合同会社覚,,合同会社,宮崎県,宮崎市,大字恒久６８９６番地,,45,201,8800916,,,,,,,2024-01-17,1,,,,,サトル,0
2501,7360003013618,新規,0,2024-01-17,2024-01-17,合同会社ティダデリジェンス,,合同会社,沖縄県,浦添市,大平１丁目２２番地１号２階,,47,208,9012113,,,,,,,2024-01-17,1,,,,,ティダデリジェンス,0
2502,7360005006974,新規,0,2024-01-17,2024-01-17,特定非営利活動法人ＯＴＴＯＰ,,その他の設立登記法人,沖縄県,那覇市,首里池端町３４－２Ｆ（首里スタジオ内）,,47,201,9030824,,,,,,,2024-01-17,1,,,,,オートップ,0
2505,7370003006447,新規,0,2024-01-17,2024-01-17,合同会社Ｐｌａｎ　Ｓｏｌ,,合同会社,宮城県,仙台市青葉区,木町通１丁目６番１号ザ・パークハウス仙台晩翠通２０１,,04,101,9800801,,,,,,,2024-01-17,1,,,,,プランソル,0
2531,7490003001849,新規,0,2024-01-17,2024-01-17,ＧｏｏｄＰｏｏｐ合同会社,,合同会社,高知県,高岡郡四万十町,新開町２番１７号,,39,412,7860014,,,,,,,2024-01-17,1,,,,,グッドプープ,0
2541,7700150123366,新規,0,2024-01-17,2024-01-17,ｓｈｅｎｚｈｅｎ　ｄｉｐｕａｏ　ｄｉａｎｚｉｓｈａｎｇｗｕ　ｌｔｄ,,外国会社等,,,,,,,,ｌｏｎｇｈｕａｘｉｎｑｕ，ｂｕｌｏｎｇ　ｒｏａｄ，１　ｃｈｉｌｉｎｇｔｏｕ，ｗｅｉｗａｎｇｄａｓｈａ　８０２，ｓｈｅｎｚｈｅｎ，ｇｕａｎｇｄｏｎｇ,,,,,,2024-01-17,1,,,,,シェンジェンディープゥアォディエンズーシャーンウーヨウシエンゴーンスー,0
2546,8010001241460,新規,0,2024-01-17,2024-01-17,株式会社小石川Ｌａｂｏ,,株式会社,東京都,文京区,小石川５丁目６番９号,,13,105,1120002,,,,,,,2024-01-17,1,,,,,コイシカワラボ,0
2547,8010001241493,新規,0,2024-01-17,2024-01-17,株式会社ｅｓｔｉｖｅ,,株式会社,東京都,中央区,日本橋室町１丁目１１番１２号日本橋水野ビル７階,,13,102,1030022,,,,,,,2024-01-17,1,,,,,エスティブ,0
2548,8010003042659,新規,0,2024-01-17,2024-01-17,合同会社ＢＵＭコンサルティング,,合同会社,東京都,中央区,東日本橋２丁目２番９－１４０３号,,13,102,1030004,,,,,,,2024-01-17,1,,,,,ビーユーエムコンサルティング,0
2549,8010003042675,新規,0,2024-01-17,2024-01-17,合同会社ミニマムライフ,,合同会社,東京都,中央区,銀座１丁目１２－４Ｎ＆ＥＢＬＤ．７階,,13,102,1040061,,,,,,,2024-01-17,1,,,,,ミニマムライフ,0
2550,8010005037748,新規,0,2024-01-17,2024-01-17,一般社団法人フリーＢＧＭ協会,,その他の設立登記法人,東京都,千代田区,平河町１丁目６番１５号ＵＳビル８Ｆ,,13,101,1020093,,,,,,,2024-01-17,1,,,,,フリービージーエムキョウカイ,0
2555,8010401179747,新規,0,2024-01-17,2024-01-17,ＬＢＰ　ＦＡＳ株式会社,,株式会社,東京都,港区,麻布台１丁目７番２号,,13,103,1060041,,,,,,,2024-01-17,1,,,,,エルビーピーファズ,0
2556,8010405022837,新規,0,2024-01-17,2024-01-17,行政書士法人スタートライン,,その他の設立登記法人,東京都,港区,三田２丁目１４番５－９０４号,,13,103,1080073,,,,,,,2024-01-17,1,,,,,スタートライン,0
2563,8010503007293,新規,0,2024-01-17,2024-01-17,合同会社ＫＩＲＩ,,合同会社,東京都,台東区,入谷１丁目４－３－２０５,,13,106,1100013,,,,,,,2024-01-17,1,,,,,キリ,0
2572,8010801034700,新規,0,2024-01-17,2024-01-17,株式会社ｉＷＯＲＫＳ,,株式会社,東京都,大田区,大森西７丁目７番２７号,,13,111,1430015,,,,,,,2024-01-17,1,,,,,アイワークス,0
2579,8011001159362,新規,0,2024-01-17,2024-01-17,株式会社エミュ,,株式会社,東京都,渋谷区,恵比寿西２丁目８番４号ＥＸ恵比寿西ビル５階,,13,113,1500021,,,,,,,2024-01-17,1,,,,,エミュ,0
2580,8011001159387,新規,0,2024-01-17,2024-01-17,株式会社ＯＣＥＡＮＳ,,株式会社,東京都,渋谷区,円山町２２－１２－１２０３,,13,113,1500044,,,,,,,2024-01-17,1,,,,,オーシャンズ,0
2581,8011001159404,新規,0,2024-01-17,2024-01-17,株式会社四二八,,株式会社,東京都,渋谷区,渋谷１丁目２２番１号,,13,113,1500002,,,,,,,2024-01-17,1,,,,,ヨンニーハチ,0
2582,8011001159412,新規,0,2024-01-17,2024-01-17,株式会社１８Ｋヴィジョン,,株式会社,東京都,渋谷区,円山町５番５号Ｎａｖｉ渋谷Ｖ３階,00133375,13,113,1500044,,,,,,,2024-01-17,1,,,,,エイティーンケーヴィジョン,0
2584,8011003018277,新規,0,2024-01-17,2024-01-17,合同会社トキア,,合同会社,東京都,渋谷区,神宮前６丁目２３番４号桑野ビル２階,,13,113,1500001,,,,,,,2024-01-17,1,,,,,トキア,0
2585,8011003018285,新規,0,2024-01-17,2024-01-17,合同会社Ｉｎｆ‐ＬｕｃｋＬａｂｓ,,合同会社,東京都,渋谷区,道玄坂１丁目１０番８号渋谷道玄坂東急ビル２Ｆ－Ｃ,,13,113,1500043,,,,,,,2024-01-17,1,,,,,インフラックラボ,0
2589,8011103013970,新規,0,2024-01-17,2024-01-17,合同会社Ｓｔｕｄｉｏ　Ｙｅｊｉ　Ｓｅｉ　Ｌｅｅ,,合同会社,東京都,新宿区,弁天町８７－２クレセントマンション２０１,,13,104,1620851,,,,,,,2024-01-17,1,,,,,スタジオイェジセイリー,0
2594,8011501030196,新規,0,2024-01-17,2024-01-17,株式会社ｈｙｇｅｉａ,,株式会社,東京都,荒川区,西日暮里３丁目１１－５日の出ハイツ２０１,,13,118,1160013,,,,,,,2024-01-17,1,,,,,ハイジーア,0
2595,8011503005923,新規,0,2024-01-17,2024-01-17,合同会社ライフナビ,,合同会社,東京都,北区,豊島７丁目３２番９号,,13,117,1140003,,,,,,,2024-01-17,1,,,,,ライフナビ,0
2596,8011601027456,新規,0,2024-01-17,2024-01-17,ワインミー株式会社,,株式会社,東京都,練馬区,氷川台４丁目２０番１２号,,13,120,1790084,,,,,,,2024-01-17,1,,,,,ワインミー,0
2600,8011803006043,新規,0,2024-01-17,2024-01-17,合同会社ヤマモト,,合同会社,東京都,足立区,青井３丁目２０－１５ＬａＲｏｓａＡｚｕｌＡｏｉ２０１,,13,121,1200012,,,,,,,2024-01-17,1,,,,,ヤマモト,0
2601,8012801022916,新規,0,2024-01-17,2024-01-17,株式会社ＲＯＯＴＳ　ｒｉｓｋ　ａｄｖｉｓｏｒｓ,,株式会社,東京都,立川市,錦町１丁目４番６号,,13,202,1900022,,,,,,,2024-01-17,1,,,,,ルーツリスクアドバイザーズ,0
2618,8020001155321,新規,0,2024-01-17,2024-01-17,ＥＣ研究室株式会社,,株式会社,神奈川県,横浜市中区,太田町１丁目１番地神奈川住空間ビル２０２号室,,14,104,2310011,,,,,,,2024-01-17,1,,,,,イーシーケンキュウシツ,0
2629,8021001081243,新規,0,2024-01-17,2024-01-17,Ｅ‐ＰＡＳ株式会社,,株式会社,神奈川県,平塚市,田村２丁目９番５－１０３号サニーメゾン平塚,,14,203,2540013,,,,,,,2024-01-17,1,,,,,イーパス,0
2630,8021003014028,新規,0,2024-01-17,2024-01-17,合同会社Ｔ．Ｉ．Ａ．,,合同会社,神奈川県,座間市,相模が丘２丁目２９番１号ＮＫビルＮｏ．５・４階,,14,216,2520001,,,,,,,2024-01-17,1,,,,,ティーアイエー,0
2631,8021005012995,新規,0,2024-01-17,2024-01-17,ハイシティ横須賀中央Ｂ館管理組合法人,,その他の設立登記法人,神奈川県,横須賀市,日の出町１丁目１２番地,,14,201,2380006,,,,,,,2024-01-17,1,,,,,ハイシティヨコスカチュウオウビーカンカンリクミアイ,0
2636,8030001157837,新規,0,2024-01-17,2024-01-17,株式会社ＫＭＩ,,株式会社,埼玉県,新座市,大和田１丁目５－１,,11,230,3520004,,,,,,,2024-01-17,1,,,,,ケーエムアイ,0
2637,8030001158190,新規,0,2024-01-17,2024-01-17,株式会社マルタツ,,株式会社,埼玉県,戸田市,笹目７丁目７番地の３６,,11,224,3350034,,,,,,,2024-01-17,1,,,,,マルタツ,0
2648,8040001131709,新規,0,2024-01-17,2024-01-17,広元産業株式会社,,株式会社,千葉県,千葉市中央区,白旗２丁目１１－９,,12,101,2600841,,,,,,,2024-01-17,1,,,,,ヒロモトサンギョウ,0
2649,8040001131766,新規,0,2024-01-17,2024-01-17,株式会社Ｓ‐ＣＬＡＳＳ,,株式会社,千葉県,鴨川市,横渚１６３３番地１,,12,223,2960001,,,,,,,2024-01-17,1,,,,,エスクラス,0
2650,8040001131782,新規,0,2024-01-17,2024-01-17,株式会社ハイテクノホールディングス,,株式会社,千葉県,船橋市,大穴南５丁目１０番１０号,,12,204,2740067,,,,,,,2024-01-17,1,,,,,ハイテクノホールディングス,0
2657,8050001053976,新規,0,2024-01-17,2024-01-17,Ｓｕｒｍｏｕｎｔ株式会社,,株式会社,茨城県,常陸大宮市,上小瀬２０８４－２０６号室,,08,225,3192401,,,,,,,2024-01-17,1,,,,,サーマウント,0
2658,8050001054116,新規,0,2024-01-17,2024-01-17,株式会社ＨＩ　Ｐｒｏｄｕｃｔｉｏｎ,,株式会社,茨城県,つくば市,みどりの１丁目４９番地２,,08,220,3050881,,,,,,,2024-01-17,1,,,,,ハイプロダクション,0
2661,8060003004877,新規,0,2024-01-17,2024-01-17,ＴＨＡＩ　ＢＩＮＨ合同会社,,合同会社,栃木県,宇都宮市,宿郷２丁目６番９号ダイサンビル１０７－４０３号室,,09,201,3210945,,,,,,,2024-01-17,1,,,,,タイビン,0
2666,8070001041269,新規,0,2024-01-17,2024-01-17,株式会社ＺＵＣＣＩ,,株式会社,群馬県,太田市,西矢島町７０５番地３,,10,205,3730823,,,,,,,2024-01-17,1,,,,,ズッチ,0
2667,8070001041285,新規,0,2024-01-17,2024-01-17,株式会社Ｅｎｎｉｃｈｅ,,株式会社,群馬県,高崎市,本町４８番地,,10,202,3700813,,,,,,,2024-01-17,1,,,,,エンニッチ,0
2670,8080001026079,新規,0,2024-01-17,2024-01-17,株式会社Ｗｏｎｄｅｒ　Ｗｏｒｋｓ,,株式会社,静岡県,静岡市葵区,伝馬町１－２,,22,101,4200858,,,,,,,2024-01-17,1,,,,,ワンダーワークス,0
2671,8080001026087,新規,0,2024-01-17,2024-01-17,Ｎａｔｕｒｅ　Ｓｃｉｅｎｃｅ　Ｓｙｓｔｅｍｓ株式会社,,株式会社,静岡県,島田市,ばらの丘１丁目１４－１０,,22,209,4270061,,,,,,,2024-01-17,1,,,,,ネイチャーサイエンスシステムズ,0
2675,8080401026950,新規,0,2024-01-17,2024-01-17,インビルト株式会社,,株式会社,静岡県,浜松市中央区,本郷町５６８番地,,22,138,4300812,,,,,,,2024-01-17,1,,,,,インビルト,0
2703,8090001018505,新規,0,2024-01-17,2024-01-17,株式会社ｗａｔｏｗａ,,株式会社,山梨県,甲斐市,竜王１３３５番地４,,19,210,4000118,,,,,,,2024-01-17,1,,,,,ワトワ,0
2718,8120001261282,新規,0,2024-01-17,2024-01-17,ＭｏＺｏｏ株式会社,,株式会社,大阪府,門真市,岸和田４丁目７番１４－４Ａ号,,27,223,5710002,,,,,,,2024-01-17,1,,,,,モズー,0
2719,8120001261316,新規,0,2024-01-17,2024-01-17,勝漢株式会社,,株式会社,大阪府,大阪市大正区,三軒家西３丁目４番１６号中山ビル１０４９,,27,108,5510001,,,,,,,2024-01-17,1,,,,,ショウカン,0
2720,8120001261332,新規,0,2024-01-17,2024-01-17,株式会社ＨＥＬＥＮ,,株式会社,大阪府,大阪市中央区,心斎橋筋１丁目８番３号,,27,128,5420085,,,,,,,2024-01-17,1,,,,,ヘレン,0
2721,8120001261381,新規,0,2024-01-17,2024-01-17,Ｃｈａｎａｋａｎ美容健康株式会社,,株式会社,大阪府,大阪市東住吉区,杭全１丁目１７－１７－２０４号室,,27,121,5460002,,,,,,,2024-01-17,1,,,,,チャナカンビヨウケンコウ,0
2722,8120001261407,新規,0,2024-01-17,2024-01-17,株式会社ショーズコーポレーション,,株式会社,大阪府,大阪市生野区,中川西２丁目４番１８号,,27,116,5440032,,,,,,,2024-01-17,1,,,,,ショーズコーポレーション,0
2725,8120003025719,新規,0,2024-01-17,2024-01-17,合同会社薬市薬座,,合同会社,大阪府,大阪市都島区,都島北通１丁目４番１５号マンション大和２号館３０２号,,27,102,5340014,,,,,,,2024-01-17,1,,,,,ヤクイチヤクザ,0
2729,8120101068891,新規,0,2024-01-17,2024-01-17,株式会社パール,,株式会社,大阪府,堺市北区,百舌鳥西之町１丁２１５番地,,27,146,5918033,,,,,,,2024-01-17,1,,,,,パール,0
2730,8120101068909,新規,0,2024-01-17,2024-01-17,株式会社ＡＯＳＡＫＵＲＡ,,株式会社,大阪府,堺市南区,宮山台４丁１４番２０号,,27,145,5900101,,,,,,,2024-01-17,1,,,,,アオサクラ,0
2733,8120901048622,新規,0,2024-01-17,2024-01-17,赤城峡株式会社,,株式会社,大阪府,三島郡島本町,広瀬４丁目２３番２－２０２室,,27,301,6180011,,,,,,,2024-01-17,1,,,,,アカギキョウ,0
2740,8130001076151,新規,0,2024-01-17,2024-01-17,株式会社北山テラス,,株式会社,京都府,京都市左京区,松ケ崎木ノ本町６番地６ＰＬＡＮＥＴ１・１階,,26,103,6060952,,,,,,,2024-01-17,1,,,,,キタヤマテラス,0
2742,8130003009241,新規,0,2024-01-17,2024-01-17,合同会社ＥＲＩＰＥＮ,,合同会社,京都府,京都市左京区,下鴨宮崎町１１番地１,,26,103,6060802,,,,,,,2024-01-17,1,,,,,エリペン,0
2744,8130005016979,新規,0,2024-01-17,2024-01-17,一般社団法人未来共創ふるさと評議会,,その他の設立登記法人,京都府,亀岡市,保津町山ノ坊４８番地,,26,206,6210005,,,,,,,2024-01-17,1,,,,,ミライキョウソウフルサトヒョウギカイ,0
2751,8140003019999,新規,0,2024-01-17,2024-01-17,合同会社ＹＧ,,合同会社,兵庫県,神戸市中央区,海岸通４丁目１－７エステムプラザ神戸元町１４０１,,28,110,6500024,,,,,,,2024-01-17,1,,,,,ワイジー,0
2755,8150001027012,新規,0,2024-01-17,2024-01-17,株式会社ななんち,,株式会社,奈良県,奈良市,左京３丁目２１番地の１６,,29,201,6310801,,,,,,,2024-01-17,1,,,,,ナナンチ,0
2756,8150003003168,新規,0,2024-01-17,2024-01-17,合同会社森村桂企画,,合同会社,奈良県,奈良市,朱雀６丁目７番地の１９,,29,201,6310806,,,,,,,2024-01-17,1,,,,,モリムラカツラキカク,0
2757,8160001025642,新規,0,2024-01-17,2024-01-17,株式会社エスポート,,株式会社,滋賀県,大津市,大石中５丁目３番７号,,25,201,5202263,,,,,,,2024-01-17,1,,,,,エスポート,0
2759,8160003003092,新規,0,2024-01-17,2024-01-17,合同会社アンカ,,合同会社,滋賀県,守山市,守山４丁目４０４－１,,25,207,5240022,,,,,,,2024-01-17,1,,,,,アンカ,0
2772,8180001159760,新規,0,2024-01-17,2024-01-17,株式会社リヤンテラス,,株式会社,愛知県,名古屋市中村区,名駅南２丁目２番２４号プレサンス名駅南エディフィス１４０１,,23,105,4500003,,,,,,,2024-01-17,1,,,,,リヤンテラス,0
2773,8180001159769,新規,0,2024-01-17,2024-01-17,ハートホームズ株式会社,,株式会社,愛知県,日進市,岩藤町一ノ廻間９２７番地１１,,23,230,4700104,,,,,,,2024-01-17,1,,,,,ハートホームズ,0
2775,8180003026232,新規,0,2024-01-17,2024-01-17,合同会社Ｄｅａｒ,,合同会社,愛知県,名古屋市中村区,名駅４丁目２４番５号第２森ビル４０１,,23,105,4500002,,,,,,,2024-01-17,1,,,,,ディア,0
2789,8220001025776,新規,0,2024-01-17,2024-01-17,伊崎冷機サービス株式会社,,株式会社,石川県,白山市,日向町ホ８１番地６,,17,210,9202146,,,,,,,2024-01-17,1,,,,,イサキレイキサービス,0
2791,8230003002129,新規,0,2024-01-17,2024-01-17,合同会社ベース,,合同会社,富山県,富山市,婦中町麦島１４番地９,,16,201,9392754,,,,,,,2024-01-17,1,,,,,ベース,0
2799,8260001038667,新規,0,2024-01-17,2024-01-17,株式会社ｗ　ｓｃｅｌｔａ,,株式会社,岡山県,岡山市北区,天瀬南町５番２５号クレストヴェールＩＩ１０２,00133384,33,101,7000834,,,,,,,2024-01-17,1,,,,,ダブルシェルタ,0
2814,8290001104409,新規,0,2024-01-17,2024-01-17,株式会社あおぞら,,株式会社,福岡県,福岡市東区,香椎照葉２丁目１番２－１０１号,,40,131,8130017,,,,,,,2024-01-17,1,,,,,アオゾラ,0
2832,8290801030226,新規,0,2024-01-17,2024-01-17,株式会社ＩＣＨ　ＴＥＣ,,株式会社,福岡県,遠賀郡水巻町,下二西１丁目５番２２号,,40,382,8070052,,,,,,,2024-01-17,1,,,,,イチテック,0
2836,8290803004590,新規,0,2024-01-17,2024-01-17,合同会社ヤマグチ商店,,合同会社,福岡県,遠賀郡遠賀町,大字上別府７３４－１,,40,384,8114332,,,,,,,2024-01-17,1,,,,,ヤマグチショウテン,0
2843,8310003004711,新規,0,2024-01-17,2024-01-17,Ｐｈｏｅｎｉｘ合同会社,,合同会社,長崎県,長崎市,田中町１００２番地谷口アパート１０１号,,42,201,8510134,,,,,,,2024-01-17,1,,,,,フィーネックス,0
2844,8310005008735,新規,0,2024-01-17,2024-01-17,一般社団法人いきいきライフ協会させぼみなと,,その他の設立登記法人,長崎県,佐世保市,大黒町１２番１９号,,42,202,8570843,,,,,,,2024-01-17,1,,,,,イキイキライフキョウカイサセボミナト,0
2855,8360001033071,新規,0,2024-01-17,2024-01-17,株式会社成城プランテック,,株式会社,沖縄県,沖縄市,園田１丁目３番３９号（２０２）,,47,211,9040022,,,,,,,2024-01-17,1,,,,,セイジョウプランテック,0
2858,8360003013617,新規,0,2024-01-17,2024-01-17,Ｓｏｕｔｈｅｒｎ　Ｕｐｓｔａｒｔ　Ｐａｒｔｎｅｒｓ合同会社,,合同会社,沖縄県,那覇市,樋川１丁目９番２１号２階,,47,201,9000022,,,,,,,2024-01-17,1,,,,,サザンアップスタートパートナーズ,0
2860,8370001050826,新規,0,2024-01-17,2024-01-17,株式会社グラファイトＳ．Ｓ,,株式会社,宮城県,黒川郡大郷町,粕川字新砂河原２０９番地の２,,04,422,9813502,,,,,,,2024-01-17,1,,,,,グラファイトエスエス,0
2887,8450001014203,新規,0,2024-01-17,2024-01-17,株式会社木とくらす,,株式会社,北海道,雨竜郡沼田町,字沼田３５１番地,,01,438,0782222,,,,,,,2024-01-17,1,,,,,,0
2889,8450003002429,新規,0,2024-01-17,2024-01-17,合同会社ＡＱＵＡミュージアム・ショップ・オペレーションズ,,合同会社,北海道,旭川市,三条通７丁目４０２番地２第４ヨネザワビル２階,,01,204,0700033,,,,,,,2024-01-17,1,,,,,アクアミュージアムショップオペレーションズ,0
2895,8700150123357,新規,0,2024-01-17,2024-01-17,Ｊｉｕｊｉａｎｇ　Ｔｉｍｂｅｒｌａｎｄ　Ｅ－ｃｏｍｍｅｒｃｅ　Ｃｏ．，ＬＴＤ,,外国会社等,,,,,,,,９－Ｇ１９９，Ｃｒｏｓｓ－ｂｏｒｄｅｒ　Ｅ－ｃｏｍｍｅｒｃｅ　Ｉｎｄｕｓｔｒｉａｌ　Ｐａｒｋ，Ｎｏ．９　Ｓｈｕｎｙｉ　Ｒｏａｄ，Ｊｉｕｊｉａｎｇ　Ｊｉｎｇｋａｉ　Ｄｉｓｔｒｉｃｔ，Ｊｉａｎｇｘｉ　Ｐｒｏｖｉｎｃｅ，Ｃｈｉｎａ,,,,,,2024-01-17,1,,,,,ジユジエンテイムランドエコムメルクコリミテツト,0
2896,8700150123365,新規,0,2024-01-17,2024-01-17,Ｚｈａｎｇ　ｚｈｏｕ　ｓｈｉ　ｊｉｎ　ｃｈａｎ　ｄｉａｎ　ｚｉ　ｙｏｕ　ｘｉａｎ　ｇｏｎｇ　ｓｉ,,外国会社等,,,,,,,,Ｎｏ．１４２２－７，Ｊｉｕｌｏｎｇ　Ａｖｅｎｕｅ，Ｌｏｎｇｗｅｎ　Ｄｉｓｔｒｉｃｔ，Ｚｈａｎｇｚｈｏｕ　Ｃｉｔｙ，Ｆｕｊｉａｎ　Ｐｒｏｖｉｎｃｅ,,,,,,2024-01-17,1,,,,,ジャーンジョウシージンチャンディエンズーヨウシエンゴーンスー,0
2912,9010003042666,新規,0,2024-01-17,2024-01-17,Ｇａｔｅｈｏｕｓｅ　Ｈｏｓｐｉｔａｌｉｔｙ合同会社,,合同会社,東京都,千代田区,霞が関３丁目２番６号東京倶楽部ビルディング１１階,,13,101,1000013,,,,,,,2024-01-17,1,,,,,ゲートハウスホスピタリティ,0
2914,9010005037689,新規,0,2024-01-17,2024-01-17,一般財団法人外谷公益地保存会,,その他の設立登記法人,東京都,千代田区,有楽町１丁目７番１号有楽町電気ビルヂング南館９階９５８区,,13,101,1000006,,,,,,,2024-01-17,1,,,,,ソトヤコウエキチホゾンカイ,0
2926,9010401179688,新規,0,2024-01-17,2024-01-17,ＦＯＣＳ　ＴＯＫＹＯ株式会社,,株式会社,東京都,港区,高輪４丁目２２－１－１Ｆ,,13,103,1080074,,,,,,,2024-01-17,1,,,,,フォクストウキョウ,0
2936,9010601064475,新規,0,2024-01-17,2024-01-17,グッドボウル・ジャパン株式会社,,株式会社,東京都,墨田区,錦糸１丁目２番１号アルカセントラル１４Ｆ,,13,107,1300013,,,,,,,2024-01-17,1,,,,,グッドボウルジャパン,0
2939,9010701045367,新規,0,2024-01-17,2024-01-17,株式会社ＦＨＷ,,株式会社,東京都,品川区,北品川５丁目１１番１号ＴＮ御殿山ビル４階,,13,109,1410001,,,,,,,2024-01-17,1,,,,,エフエイチダブリュー,0
2940,9010701045409,新規,0,2024-01-17,2024-01-17,イースト・ストーン・コンサル株式会社,,株式会社,東京都,品川区,北品川１丁目１８－３ブリリア品川キャナルサイド４０１号室,,13,109,1400001,,,,,,,2024-01-17,1,,,,,イーストストーンコンサル,0
2944,9010901054531,新規,0,2024-01-17,2024-01-17,株式会社ＡｌｇｏＲｉｓｅ,,株式会社,東京都,世田谷区,太子堂３丁目３８－１－４２４,,13,112,1540004,,,,,,,2024-01-17,1,,,,,アルゴライズ,0
2956,9011001159312,新規,0,2024-01-17,2024-01-17,株式会社キャピタルプライム,,株式会社,東京都,渋谷区,恵比寿西１丁目２４番１０号ＡＳＴＩＬＥ代官山００１,,13,113,1500021,,,,,,,2024-01-17,1,,,,,キャピタルプライム,0
2957,9011001159386,新規,0,2024-01-17,2024-01-17,株式会社Ｊ’ｓ　Ｖｅｎｄｏｒ,,株式会社,東京都,渋谷区,神宮前２丁目１８－７フードビル１０２,,13,113,1500001,,,,,,,2024-01-17,1,,,,,ジェーズベンダー,0
2958,9011001159394,新規,0,2024-01-17,2024-01-17,株式会社ＧＡＵＥＮ,,株式会社,東京都,渋谷区,神宮前３丁目６番８号エルズ神宮前３階,,13,113,1500001,,,,,,,2024-01-17,1,,,,,ガウン,0
2959,9011003018268,新規,0,2024-01-17,2024-01-17,合同会社あーつや便利軒,,合同会社,東京都,渋谷区,代々木１丁目５５番１４号セントヒルズ代々木７０２,,13,113,1510053,,,,,,,2024-01-17,1,,,,,アーツヤベンリケン,0
2961,9011005010322,新規,0,2024-01-17,2024-01-17,一般社団法人文化資本研究所,,その他の設立登記法人,東京都,渋谷区,千駄ヶ谷３丁目３８番１４号ＳＴＡＮＴＩＯＮｋｉｔａｓａｎｄｏ５Ｆ,,13,113,1510051,,,,,,,2024-01-17,1,,,,,ブンカシホンケンキュウジョ,0
2967,9011101105819,新規,0,2024-01-17,2024-01-17,株式会社ＴｉｅＴａｌｋ,,株式会社,東京都,新宿区,西新宿８丁目１１番１０号星野ビル３Ｆ,,13,104,1600023,,,,,,,2024-01-17,1,,,,,タイトーク,0
2968,9011101105827,新規,0,2024-01-17,2024-01-17,日本ソディオン・エナジー株式会社,,株式会社,東京都,新宿区,四谷４丁目７番地白川ビル６階,,13,104,1600004,,,,,,,2024-01-17,1,,,,,ニホンソディオンエナジー,0
2970,9011103013953,新規,0,2024-01-17,2024-01-17,Ａ‐Ｐｌｕｓ合同会社,,合同会社,東京都,新宿区,四谷坂町９番９号,,13,104,1600002,,,,,,,2024-01-17,1,,,,,エープラス,0
2972,9011105010916,新規,0,2024-01-17,2024-01-17,広島ロジ一般社団法人,,その他の設立登記法人,東京都,新宿区,四谷２丁目９番地１５東京ユナイテッド綜合事務所内,,13,104,1600004,,,,,,,2024-01-17,1,,,,,ヒロシマロジ,0
2974,9011301029322,新規,0,2024-01-17,2024-01-17,株式会社ＭｉＬＬ　ＦｉＥＬＤ,,株式会社,東京都,杉並区,方南２丁目４番１９号ＦＬＡＴＫ３０５,,13,115,1680062,,,,,,,2024-01-17,1,,,,,ミルフィールド,0
2998,9020003025273,新規,0,2024-01-17,2024-01-17,合同会社ＨＵＢ,,合同会社,神奈川県,横浜市緑区,霧が丘３丁目１番１９号,,14,113,2260016,,,,,,,2024-01-17,1,,,,,ハブ,0
3008,9021001081226,新規,0,2024-01-17,2024-01-17,株式会社経営コネクト研究所,,株式会社,神奈川県,秦野市,鶴巻北２丁目８番２４号,,14,211,2570001,,,,,,,2024-01-17,1,,,,,ケイエイコネクトケンキュウジョ,0
3011,9021003014027,新規,0,2024-01-17,2024-01-17,Ｌａｋｅｓｉｄｅ資産合同会社,,合同会社,神奈川県,相模原市緑区,中野１９５８番地３６３,,14,151,2520157,,,,,,,2024-01-17,1,,,,,レイクサイドシサン,0
3012,9021003014035,新規,0,2024-01-17,2024-01-17,合同会社絆,,合同会社,神奈川県,伊勢原市,串橋６５番地の２コ－ラルハウス１０２号,,14,214,2591136,,,,,,,2024-01-17,1,,,,,キズナ,0
3013,9021005012994,新規,0,2024-01-17,2024-01-17,一般社団法人桶川長和記念芸術財団,,その他の設立登記法人,神奈川県,鎌倉市,大町３丁目４番２５号,,14,204,2480007,,,,,,,2024-01-17,1,,,,,オケガワナガカズキネンゲイジュツザイダン,0
3019,9030001158157,新規,0,2024-01-17,2024-01-17,株式会社ＲＥＱＵＢＥ,,株式会社,埼玉県,さいたま市浦和区,神明２丁目１４番６号３０１,,11,107,3300065,,,,,,,2024-01-17,1,,,,,リキューブ,0
3020,9030001158173,新規,0,2024-01-17,2024-01-17,いとう総研株式会社,,株式会社,埼玉県,坂戸市,大字善能寺９２番地８,,11,239,3500256,,,,,,,2024-01-17,1,,,,,イトウソウケン,0
3021,9030001158280,新規,0,2024-01-17,2024-01-17,株式会社ユニコムロジスティクス,,株式会社,埼玉県,川口市,領家５丁目２番４号,,11,203,3320004,,,,,,,2024-01-17,1,,,,,ユニコムロジスティクス,0
3025,9030003023383,新規,0,2024-01-17,2024-01-17,ＵＴＭコンサルティング合同会社,,合同会社,埼玉県,三郷市,さつき平２丁目４番３－５０５号,,11,237,3410021,,,,,,,2024-01-17,1,,,,,ユーティーエムコンサルティング,0
3027,9030005021526,新規,0,2024-01-17,2024-01-17,一般社団法人やよいクラシックバレエ教室,,その他の設立登記法人,埼玉県,越谷市,新越谷１丁目３３番地４,,11,222,3430857,,,,,,,2024-01-17,1,,,,,ヤヨイクラシックバレエキョウシツ,0
3035,9040001131749,新規,0,2024-01-17,2024-01-17,株式会社Ｔａｃｈｉｂａｎａ,,株式会社,千葉県,木更津市,富士見２丁目２番１８号,,12,206,2920831,,,,,,,2024-01-17,1,,,,,タチバナ,0
3036,9040001131765,新規,0,2024-01-17,2024-01-17,株式会社ＦＥＣＭ,,株式会社,千葉県,松戸市,西馬橋蔵元町１３７番地,,12,207,2710046,,,,,,,2024-01-17,1,,,,,エフイーシーエム,0
3040,9040003024125,新規,0,2024-01-17,2024-01-17,合同会社大丸,,合同会社,千葉県,富津市,望井１４１－１－２,,12,226,2991605,,,,,,,2024-01-17,1,,,,,ダイマル,0
3042,9050001054123,新規,0,2024-01-17,2024-01-17,ＧＦＩ株式会社,,株式会社,茨城県,土浦市,小松１丁目１２番３５号シティパレス明建１１０,,08,203,3000823,,,,,,,2024-01-17,1,,,,,ジーエフアイ,0
3052,9070001041284,新規,0,2024-01-17,2024-01-17,株式会社愛幸興業,,株式会社,群馬県,太田市,矢場新町１３６番地７,,10,205,3730802,,,,,,,2024-01-17,1,,,,,アイコウコウギョウ,0
3054,9080101024469,新規,0,2024-01-17,2024-01-17,株式会社ＡｉｒａＭ,,株式会社,静岡県,沼津市,高島町２１番２６号,,22,203,4100056,,,,,,,2024-01-17,1,,,,,アイラム,0
3093,9120001261208,新規,0,2024-01-17,2024-01-17,株式会社ＳＴＡＹ　ＧＯＬＤ,,株式会社,大阪府,大阪市東成区,東小橋３丁目１４番１０号,,27,115,5370024,,,,,,,2024-01-17,1,,,,,ステイゴールド,0
3094,9120001261380,新規,0,2024-01-17,2024-01-17,株式会社ＫＥＮＮＹａｓｉａ,,株式会社,大阪府,大阪市中央区,千日前１丁目７番２５号,,27,128,5420074,,,,,,,2024-01-17,1,,,,,ケニーアジア,0
3095,9120001261505,新規,0,2024-01-17,2024-01-17,株式会社ＦＩＬＯ,,株式会社,大阪府,大阪市平野区,瓜破４丁目２番１６－２０５号,,27,126,5470024,,,,,,,2024-01-17,1,,,,,フィーロ,0
3099,9120003025684,新規,0,2024-01-17,2024-01-17,合同会社りらまち,,合同会社,大阪府,大阪市中央区,内本町２丁目３番８－６０１号,,27,128,5400026,,,,,,,2024-01-17,1,,,,,リラマチ,0
3100,9120005024098,新規,0,2024-01-17,2024-01-17,医療法人トモミ歯科医院,,その他の設立登記法人,大阪府,大阪市西淀川区,姫里１丁目１６番２１号シャルマンコーポ姫里１０１号室,,27,113,5550025,,,,,,,2024-01-17,1,,,,,トモミシカイイン,0
3102,9120101068890,新規,0,2024-01-17,2024-01-17,大阪不動産流通株式会社,,株式会社,大阪府,富田林市,本町２番１２号,,27,214,5840093,,,,,,,2024-01-17,1,,,,,オオサカフドウサンリュウツウ,0
3103,9120101068908,新規,0,2024-01-17,2024-01-17,株式会社エニーウェア交通,,株式会社,大阪府,堺市北区,南長尾町３丁２番５号,,27,146,5918045,,,,,,,2024-01-17,1,,,,,エニーウェアコウツウ,0
3104,9120103005636,新規,0,2024-01-17,2024-01-17,合同会社ＫＯＫＡＮＡ,,合同会社,大阪府,富田林市,梅の里１丁目１８番９号,,27,214,5840001,,,,,,,2024-01-17,1,,,,,コカナ,0
3105,9120105009809,新規,0,2024-01-17,2024-01-17,医療法人社団キャンバス,,その他の設立登記法人,大阪府,泉大津市,下条町１７番２４号,,27,206,5950027,,,,,,,2024-01-17,1,,,,,キャンバス,0
3106,9122001037728,新規,0,2024-01-17,2024-01-17,株式会社Ｒｅｕｎｉｒ,,株式会社,大阪府,八尾市,黒谷５丁目１６４番地の７,,27,212,5810873,,,,,,,2024-01-17,1,,,,,レウニール,0
3108,9130001076150,新規,0,2024-01-17,2024-01-17,株式会社いっとく,,株式会社,京都府,宇治市,宇治妙楽１０８番地,,26,204,6110021,,,,,,,2024-01-17,1,,,,,イットク,0
3109,9130001076167,新規,0,2024-01-17,2024-01-17,株式会社アクトディライズ,,株式会社,京都府,京都市下京区,四条通小橋西入真町９０番地４,,26,106,6008001,,,,,,,2024-01-17,1,,,,,アクトディライズ,0
3124,9150001027011,新規,0,2024-01-17,2024-01-17,株式会社よしだハウス,,株式会社,奈良県,大和高田市,昭和町８番１４－５０４号,,29,202,6350013,,,,,,,2024-01-17,1,,,,,ヨシダハウス,0
3125,9160001025641,新規,0,2024-01-17,2024-01-17,株式会社ｈａｋａｒｉｙａ,,株式会社,滋賀県,大津市,御陵町５番１６号,,25,201,5200037,,,,,,,2024-01-17,1,,,,,ハカリヤ,0
3127,9160003003091,新規,0,2024-01-17,2024-01-17,かつ江合同会社,,合同会社,滋賀県,大津市,竜が丘６－３８,,25,201,5200803,,,,,,,2024-01-17,1,,,,,カツヱ,0
3128,9170001017968,新規,0,2024-01-17,2024-01-17,株式会社ＩＭＰＲＯＶＥ　ＭＯＴＩＯＮ,,株式会社,和歌山県,紀の川市,西脇５４１番地４,,30,208,6496616,,,,,,,2024-01-17,1,,,,,インプルーヴモーション,0
3137,9180003026223,新規,0,2024-01-17,2024-01-17,合同会社山田会計事務所,,合同会社,愛知県,名古屋市東区,葵２丁目３番６号,,23,102,4610004,,,,,,,2024-01-17,1,,,,,ヤマダカイケイジムショ,0
3151,9190001031042,新規,0,2024-01-17,2024-01-17,株式会社ＪＩＮＷＯＯＤ,,株式会社,三重県,鳥羽市,安楽島町１３１２番地１４９,,24,211,5170021,,,,,,,2024-01-17,1,,,,,ジンウッド,0
3156,9210001019605,新規,0,2024-01-17,2024-01-17,Ｙコンサルティング株式会社,,株式会社,福井県,鯖江市,水落町１丁目１０番２号,,18,207,9160022,,,,,,,2024-01-17,1,,,,,ワイコンサルティング,0
3164,9240001062676,新規,0,2024-01-17,2024-01-17,株式会社Ａｂｄｕｌｌａｈａ・ｉｎｔｅｒｎａｔｉｏｎａｌ,,株式会社,広島県,廿日市市,梅原２丁目２－２８エルディム梅原１－２０２,,34,213,7390442,,,,,,,2024-01-17,1,,,,,アブドラハインターナショナル,0
3181,9290001104408,新規,0,2024-01-17,2024-01-17,株式会社フラッグアドバンス,,株式会社,福岡県,福岡市中央区,梅光園団地４番５０２号,,40,133,8100036,,,,,,,2024-01-17,1,,,,,フラッグアドバンス,0
3213,9330001031655,新規,0,2024-01-17,2024-01-17,株式会社高黍企業,,株式会社,熊本県,熊本市中央区,水道町９番２５号片岡ビル６階,,43,101,8600844,,,,,,,2024-01-17,1,,,,,タカキビキギョウ,0
3215,9340001026225,新規,0,2024-01-17,2024-01-17,株式会社Ｏｒａｎｇｅ　Ｓｉｄｅ,,株式会社,鹿児島県,鹿児島市,坂元町４５番１７－１号クレインＡ１０１号,,46,201,8920862,,,,,,,2024-01-17,1,,,,,オレンジサイド,0
3219,9370001050833,新規,0,2024-01-17,2024-01-17,株式会社秋田工業,,株式会社,宮城県,仙台市青葉区,下愛子字町３番地の２－Ｂ号,,04,101,9893125,,,,,,,2024-01-17,1,,,,,アキタコウギョウ,0
3239,9450003002428,新規,0,2024-01-17,2024-01-17,合同会社Ｓｏｕｒｉｒｅ,,合同会社,北海道,名寄市,字智恵文十二線南１番地,,01,221,0982181,,,,,,,2024-01-17,1,,,,,スーリル,0
3240,9490001010676,新規,0,2024-01-17,2024-01-17,理趣株式会社,,株式会社,高知県,長岡郡本山町,本山１１４番地２,,39,341,7813601,,,,,,,2024-01-17,1,,,,,リシュ,0
