sequenceNumber,corporateNumber,process,correct,updateDate,changeDate,name,nameImageId,kind,prefectureName,cityName,streetNumber,addressImageId,prefectureCode,cityCode,postCode,addressOutside,addressOutsideImageId,closeDate,closeCause,successorCorporateNumber,changeCause,assignmentDate,latest,enName,enPrefectureName,enCityName,enAddressOutside,furigana,hihyoji
4,1010001116801,登記記録の閉鎖等,0,2023-01-12,2023-01-04,Ｉ．Ｔ．Ｐ．株式会社,,株式会社,東京都,千代田区,九段北４丁目３番６－３０１号,,13,101,1020073,,,2023-01-04,清算の結了等,,,2015-10-05,1,,,,,アイティーピー,0
9,1010001200035,登記記録の閉鎖等,0,2023-01-12,2023-01-04,株式会社Ｓ＆Ｈソリューションズ,,株式会社,東京都,千代田区,霞が関３丁目６番１４号三久ビル２０２号,,13,101,1000013,,,2023-01-04,清算の結了等,,,2019-04-17,1,,,,,エスアンドエイチソリューションズ,0
12,1010001212294,登記記録の閉鎖等,0,2023-01-12,2022-12-28,Ｎｉｃｈｉ－Ｍｅｄ株式会社,,株式会社,東京都,中央区,日本橋本町１丁目５番４号,,13,102,1030023,,,2022-12-28,清算の結了等,,,2020-09-17,1,,,,,ニチメッド,0
20,1010401033175,登記記録の閉鎖等,0,2023-01-12,2023-01-11,株式会社ジェス・ワーク,,株式会社,東京都,港区,高輪３丁目２５番２７号,,13,103,1080074,,,2023-01-11,登記官による閉鎖,,,2015-10-05,1,,,,,,0
21,1010401063081,登記記録の閉鎖等,0,2023-01-12,2023-01-11,株式会社シックスセンス,,株式会社,東京都,港区,西麻布２丁目１３番１５号Ｂ１Ｆ,,13,103,1060031,,,2023-01-11,登記官による閉鎖,,,2015-10-05,1,,,,,,0
22,1010401067603,登記記録の閉鎖等,0,2023-01-12,2023-01-11,株式会社ＪＴＲインターナショナル,,株式会社,東京都,港区,虎ノ門４丁目３番１号,,13,103,1050001,,,2023-01-11,登記官による閉鎖,,,2015-10-05,1,,,,,,0
23,1010401073683,登記記録の閉鎖等,0,2023-01-12,2023-01-11,株式会社ビューティーアンドグレイス,,株式会社,東京都,港区,麻布台３丁目３番１５－３０４号,,13,103,1060041,,,2023-01-11,登記官による閉鎖,,,2015-10-05,1,,,,,,0
24,1010401074095,登記記録の閉鎖等,0,2023-01-12,2023-01-11,フロンティインターナショナル株式会社,,株式会社,東京都,港区,南青山２丁目１７番３号－４階,,13,103,1070062,,,2023-01-11,登記官による閉鎖,,,2015-10-05,1,,,,,,0
25,1010401078179,登記記録の閉鎖等,0,2023-01-12,2023-01-11,株式会社ＢＥＬＬＥＺＺＡ,,株式会社,東京都,港区,南青山１丁目１５番２号,,13,103,1070062,,,2023-01-11,登記官による閉鎖,,,2015-10-05,1,,,,,,0
26,1010401080127,登記記録の閉鎖等,0,2023-01-12,2023-01-11,株式会社ＬＫ　ＣＯＲＰＯＲＡＴＩＯＮ,,株式会社,東京都,港区,赤坂２丁目１６番１２号,,13,103,1070052,,,2023-01-11,登記官による閉鎖,,,2015-10-05,1,,,,,,0
27,1010401082016,登記記録の閉鎖等,0,2023-01-12,2023-01-11,株式会社オーバル,,株式会社,東京都,港区,浜松町２丁目１番１３号芝エクセレントビル７階,,13,103,1050013,,,2023-01-11,登記官による閉鎖,,,2015-10-05,1,,,,,,0
28,1010401083732,登記記録の閉鎖等,0,2023-01-12,2023-01-11,株式会社ライズ,,株式会社,東京都,港区,麻布台１丁目６番１３号バーズアイ麻布台４Ｆ,,13,103,1060041,,,2023-01-11,登記官による閉鎖,,,2015-10-05,1,,,,,,0
29,1010401132027,登記記録の閉鎖等,0,2023-01-12,2023-01-11,大七商興株式会社,,株式会社,東京都,港区,新橋１丁目８番６号,,13,103,1050004,,,2023-01-11,登記官による閉鎖,,,2017-06-13,1,,,,,,0
32,1010402012649,登記記録の閉鎖等,0,2023-01-12,2023-01-11,有限会社ミヤケイカンパニー,,有限会社,東京都,港区,白金４丁目１２番１５号,,13,103,1080072,,,2023-01-11,登記官による閉鎖,,,2015-10-05,1,,,,,,0
33,1010402021971,登記記録の閉鎖等,0,2023-01-12,2023-01-11,有限会社ムーンサイドスタジオ,,有限会社,東京都,港区,西麻布１丁目３番１８号,,13,103,1060031,,,2023-01-11,登記官による閉鎖,,,2015-10-05,1,,,,,,0
34,1010403007342,登記記録の閉鎖等,0,2023-01-12,2023-01-11,グリフィス・フィナンシャル合同会社,,合同会社,東京都,港区,赤坂６丁目２－１２サージュ赤坂１Ｆ,,13,103,1070052,,,2023-01-11,登記官による閉鎖,,,2015-10-05,1,,,,,,0
36,1010405003604,登記記録の閉鎖等,0,2023-01-12,2023-01-11,特定非営利活動法人マイヨジョーヌ,,その他の設立登記法人,東京都,港区,麻布十番２丁目１１番５号アクシアフォレスタ麻布３０５,,13,103,1060045,,,2023-01-11,登記官による閉鎖,,,2015-10-05,1,,,,,,0
37,1010405005682,登記記録の閉鎖等,0,2023-01-12,2023-01-11,特定非営利活動法人病院環境管理協会,,その他の設立登記法人,東京都,港区,虎ノ門２丁目７番１６号ビュロー虎ノ門９０１,,13,103,1050001,,,2023-01-11,登記官による閉鎖,,,2015-10-05,1,,,,,,0
47,1010901020870,登記記録の閉鎖等,0,2023-01-12,2023-01-05,株式会社マルハチクリーナー,,株式会社,東京都,世田谷区,上野毛２丁目６番１４号,,13,112,1580093,,,2023-01-05,清算の結了等,,,2015-10-05,1,,,,,マルハチクリーナー,0
49,1010901031406,登記記録の閉鎖等,0,2023-01-12,2023-01-04,ＹＴＣ株式会社,,株式会社,東京都,世田谷区,駒沢５丁目５番１４号,,13,112,1540012,,,2023-01-04,清算の結了等,,,2015-10-05,1,,,,,ワイティーシー,0
72,1011102024372,登記記録の閉鎖等,0,2023-01-12,2022-12-22,株式会社リテイラーズ・スフィア,,株式会社,東京都,港区,南青山５丁目４番３５号,,13,103,1070062,,,2022-12-22,清算の結了等,,,2015-10-05,1,,,,,リテイラーズスフィア,0
92,1011802009508,登記記録の閉鎖等,0,2023-01-12,2023-01-06,有限会社池田製作所,,有限会社,東京都,足立区,西綾瀬２丁目１６番１１号,,13,121,1200014,,,2023-01-06,清算の結了等,,,2015-10-05,1,,,,,,0
101,1012801020331,登記記録の閉鎖等,0,2023-01-12,2022-12-28,徳信株式会社,,株式会社,東京都,東大和市,新堀１丁目１４３２番地の８３ロイヤルコーポ３０１,,13,220,2070012,,,2022-12-28,清算の結了等,,,2020-09-01,1,,,,,トクシン,0
102,1012803001890,登記記録の閉鎖等,0,2023-01-12,2022-12-28,かわせみ環境合同会社,,合同会社,東京都,日野市,大字日野１２４６番地の４,,13,212,1910012,,,2022-12-28,清算の結了等,,,2018-08-27,1,,,,,カワセミカンキョウ,0
121,1030001043283,登記記録の閉鎖等,0,2023-01-12,2023-01-05,ＳＫＣ株式会社,,株式会社,埼玉県,桶川市,大字川田谷７３８２番地１１,,11,231,3630027,,,2023-01-05,合併による解散等,9030001081912,令和５年１月１日埼玉県川口市芝高木一丁目１６番４８号株式会社佐川工務店（9030001081912）に合併し解散,2015-10-05,1,,,,,エスケーシー,0
139,1040002028415,登記記録の閉鎖等,0,2023-01-12,2022-12-26,有限会社亜成工業,,有限会社,千葉県,八千代市,八千代台南３丁目２４番５号,,12,221,2760033,,,2022-12-26,清算の結了等,,,2015-10-05,1,,,,,アセイコウギョウ,0
151,1060001012863,登記記録の閉鎖等,0,2023-01-12,2023-01-04,ティーエヌアイ工業株式会社,,株式会社,栃木県,大田原市,実取７７０番地,,09,210,3240045,,,2023-01-04,合併による解散等,8060001012865,令和５年１月１日栃木県大田原市実取７７０番地株式会社栃木ニコン（8060001012865）に合併し解散,2015-10-05,1,,,,,ティーエヌアイコウギョウ,0
152,1060002017580,登記記録の閉鎖等,0,2023-01-12,2023-01-05,有限会社日野伝本店,,有限会社,栃木県,真岡市,荒町５１６５番地,,09,209,3214305,,,2023-01-05,清算の結了等,,,2015-10-05,1,,,,,ヒノデンホンテン,0
181,1120101047142,登記記録の閉鎖等,0,2023-01-12,2023-01-10,ＴＮ産業株式会社,,株式会社,大阪府,大阪市北区,角田町８－４７阪急グランドビル２０階,,27,127,5300017,,,2023-01-10,合併による解散等,2120001084573,令和５年１月１日大阪市北区角田町８－４７阪急グランドビル２０階株式会社椿館（2120001084573）に合併し解散,2015-10-05,1,,,,,ティーエヌサンギョウ,0
196,1130001043281,登記記録の閉鎖等,0,2023-01-12,2023-01-04,株式会社栄興,,株式会社,京都府,舞鶴市,字北田辺５５番地の３,,26,202,6240855,,,2023-01-04,清算の結了等,,,2015-10-05,1,,,,,エイコウ,0
197,1130001050749,登記記録の閉鎖等,0,2023-01-12,2023-01-04,北畿ファーム株式会社,,株式会社,京都府,京丹後市,網野町木津４１７番地の１,,26,212,6293241,,,2023-01-04,合併による解散等,1130001042911,令和４年１２月３１日京都府京丹後市網野町木津４１７番地の１北畿リゾート株式会社（1130001042911）に合併し解散,2015-10-05,1,,,,,ホッキファーム,0
210,1150001005230,登記記録の閉鎖等,0,2023-01-12,2023-01-04,森本株式会社,,株式会社,奈良県,生駒市,西松ケ丘３番３１号,,29,209,6300246,,,2023-01-04,清算の結了等,,,2015-10-05,1,,,,,モリモト,0
218,1170002010186,登記記録の閉鎖等,0,2023-01-12,2023-01-10,有限会社土谷石油,,有限会社,和歌山県,御坊市,塩屋町南塩屋１５０番地,,30,205,6440024,,,2023-01-10,清算の結了等,,,2015-10-05,1,,,,,ツチタニセキユ,0
222,1180001150585,登記記録の閉鎖等,0,2023-01-12,2023-01-04,株式会社エスエーアイ,,株式会社,愛知県,名古屋市中区,栄２丁目２番地１号広小路伏見中駒ビル２Ｆ－９,,23,106,4600008,,,2023-01-04,清算の結了等,,,2022-03-30,1,,,,,エスエーアイ,0
228,1180002036098,登記記録の閉鎖等,0,2023-01-12,2023-01-05,有限会社真永,,有限会社,愛知県,名古屋市緑区,大清水西２１８番地,,23,114,4580806,,,2023-01-05,清算の結了等,,,2015-10-05,1,,,,,シンエイ,0
246,1230002013298,登記記録の閉鎖等,0,2023-01-12,2023-01-12,有限会社えつこ,,有限会社,富山県,高岡市,京田１９４番地,,16,202,9330874,,,2023-01-12,登記官による閉鎖,,,2015-10-05,1,,,,,,0
248,1230005005788,登記記録の閉鎖等,0,2023-01-12,2023-01-12,特定非営利活動法人おらちゃのたまり場,,その他の設立登記法人,富山県,南砺市,高瀬４１７番地２,,16,210,9320252,,,2023-01-12,登記官による閉鎖,,,2015-10-05,1,,,,,,0
254,1240002013470,登記記録の閉鎖等,0,2023-01-12,2023-01-10,有限会社パンドラ,,有限会社,広島県,広島市中区,加古町７番１号クオリスリバーコート８０１,,34,101,7300812,,,2023-01-10,清算の結了等,,,2015-10-05,1,,,,,パンドラ,0
310,1390003001906,登記記録の閉鎖等,0,2023-01-12,2022-12-28,恒＿合同会社,00125324,合同会社,山形県,天童市,東久野本１丁目３‐１５‐６,,06,210,9940016,,,2022-12-28,清算の結了等,,,2022-01-06,1,,,,,コウモウ,0
350,2010005011460,登記記録の閉鎖等,0,2023-01-12,2022-12-27,特定非営利活動法人大学職員サポートセンター,,その他の設立登記法人,東京都,国分寺市,南町１丁目７番地３４号東京経済大学校友センター内,,13,214,1850021,,,2022-12-27,清算の結了等,,,2015-10-05,1,,,,,ダイガクショクインサポートセンター,0
353,2010401010693,登記記録の閉鎖等,0,2023-01-12,2023-01-11,國際貿易信用株式会社,,株式会社,東京都,港区,赤坂６丁目３番１６号,,13,103,1070052,,,2023-01-11,登記官による閉鎖,,,2015-10-05,1,,,,,,0
354,2010401017359,登記記録の閉鎖等,0,2023-01-12,2023-01-11,株式会社コンソナンス設計,,株式会社,東京都,港区,西麻布１丁目４番３１号,,13,103,1060031,,,2023-01-11,登記官による閉鎖,,,2015-10-05,1,,,,,,0
355,2010401031450,登記記録の閉鎖等,0,2023-01-12,2022-12-23,株式会社陸技研,,株式会社,東京都,港区,赤坂６丁目１３番６号赤坂キャステール４０７号,,13,103,1070052,,,2022-12-23,清算の結了等,,,2015-10-05,1,,,,,クガギケン,0
356,2010401041813,登記記録の閉鎖等,0,2023-01-12,2023-01-11,株式会社サンズ・ケイ,,株式会社,東京都,港区,芝浦３丁目１９番２０号,,13,103,1080023,,,2023-01-11,登記官による閉鎖,,,2015-10-05,1,,,,,,0
357,2010401054567,登記記録の閉鎖等,0,2023-01-12,2023-01-11,株式会社トラフィックジャパン,,株式会社,東京都,港区,赤坂２丁目２１番１２号アローム赤坂,,13,103,1070052,,,2023-01-11,登記官による閉鎖,,,2015-10-05,1,,,,,,0
358,2010401073187,登記記録の閉鎖等,0,2023-01-12,2023-01-11,株式会社インターバル,,株式会社,東京都,港区,新橋３丁目１６番２号,,13,103,1050004,,,2023-01-11,登記官による閉鎖,,,2015-10-05,1,,,,,,0
359,2010401073864,登記記録の閉鎖等,0,2023-01-12,2023-01-11,エイビーシー株式会社,,株式会社,東京都,港区,南青山６丁目１２番４号,,13,103,1070062,,,2023-01-11,登記官による閉鎖,,,2015-10-05,1,,,,,,0
360,2010401087360,登記記録の閉鎖等,0,2023-01-12,2023-01-11,株式会社ＰＯＲＴ　ＬＩＮＫ,,株式会社,東京都,港区,港南４丁目６番４－２５０２号,,13,103,1080075,,,2023-01-11,登記官による閉鎖,,,2015-10-05,1,,,,,,0
361,2010401092022,登記記録の閉鎖等,0,2023-01-12,2023-01-11,株式会社ＯＰＡ,,株式会社,東京都,港区,東新橋２丁目１０番１０号東新橋ビル２Ｆ,,13,103,1050021,,,2023-01-11,登記官による閉鎖,,,2015-10-05,1,,,,,,0
362,2010401092443,登記記録の閉鎖等,0,2023-01-12,2023-01-11,株式会社パシフィックジャパン,,株式会社,東京都,港区,新橋６丁目９番１３号,,13,103,1050004,,,2023-01-11,登記官による閉鎖,,,2015-10-05,1,,,,,,0
363,2010401092708,登記記録の閉鎖等,0,2023-01-12,2023-01-11,株式会社エンジンエンターテインメント,,株式会社,東京都,港区,白金台３丁目１８番１号,,13,103,1080071,,,2023-01-11,登記官による閉鎖,,,2015-10-05,1,,,,,,0
364,2010401094241,登記記録の閉鎖等,0,2023-01-12,2023-01-11,株式会社ウイング,,株式会社,東京都,港区,新橋５丁目２２番３号,,13,103,1050004,,,2023-01-11,登記官による閉鎖,,,2015-10-05,1,,,,,,0
365,2010401096618,登記記録の閉鎖等,0,2023-01-12,2023-01-11,株式会社ｋａｈｕｎａ　ｉｎｔｅｒｎａｔｉｏｎａｌ,,株式会社,東京都,港区,南青山２丁目２番１５号ウィン青山１４０３号,,13,103,1070062,,,2023-01-11,登記官による閉鎖,,,2015-10-05,1,,,,,,0
366,2010401097401,登記記録の閉鎖等,0,2023-01-12,2023-01-11,株式会社ヒルズファクトリー,,株式会社,東京都,港区,六本木６丁目５番２０号,,13,103,1060032,,,2023-01-11,登記官による閉鎖,,,2015-10-05,1,,,,,,0
367,2010401098507,登記記録の閉鎖等,0,2023-01-12,2023-01-11,株式会社ローズビューティーサロン,,株式会社,東京都,港区,南青山５丁目６番９号サウス青山マンション,,13,103,1070062,,,2023-01-11,登記官による閉鎖,,,2015-10-05,1,,,,,,0
371,2010402004018,登記記録の閉鎖等,0,2023-01-12,2023-01-11,有限会社九門社,,有限会社,東京都,港区,赤坂２丁目１５番１８号,,13,103,1070052,,,2023-01-11,登記官による閉鎖,,,2015-10-05,1,,,,,,0
372,2010402009157,登記記録の閉鎖等,0,2023-01-12,2023-01-11,有限会社トナミ製版,,有限会社,東京都,港区,高輪１丁目２番地１６号鈴木ビル,,13,103,1080074,,,2023-01-11,登記官による閉鎖,,,2015-10-05,1,,,,,,0
373,2010402014470,登記記録の閉鎖等,0,2023-01-12,2023-01-11,イーエックスソフトウェア有限会社,,有限会社,東京都,港区,高輪３丁目２番７号朝日シティパリオ高輪台Ａ館６０３号室,,13,103,1080074,,,2023-01-11,登記官による閉鎖,,,2015-10-05,1,,,,,,0
374,2010402021153,登記記録の閉鎖等,0,2023-01-12,2023-01-11,有限会社咲羅茶,,有限会社,東京都,港区,浜松町１丁目２７番８号,,13,103,1050013,,,2023-01-11,登記官による閉鎖,,,2015-10-05,1,,,,,,0
375,2010402035888,登記記録の閉鎖等,0,2023-01-12,2023-01-11,ワンダラー有限会社,,有限会社,東京都,港区,南青山２丁目２番６－１１０１号,,13,103,1070062,,,2023-01-11,登記官による閉鎖,,,2015-10-05,1,,,,,,0
377,2010405001623,登記記録の閉鎖等,0,2023-01-12,2023-01-11,医療法人社団松柏堂医院,,その他の設立登記法人,東京都,港区,西麻布１丁目５番１１号,,13,103,1060031,,,2023-01-11,登記官による閉鎖,,,2015-10-05,1,,,,,,0
378,2010405004072,登記記録の閉鎖等,0,2023-01-12,2023-01-11,特定非営利活動法人グローバルネットワーク,,その他の設立登記法人,東京都,港区,西新橋２丁目３番８号藤井ビル４階,,13,103,1050003,,,2023-01-11,登記官による閉鎖,,,2015-10-05,1,,,,,,0
379,2010405007785,登記記録の閉鎖等,0,2023-01-12,2023-01-11,一般社団法人ｂｉｋａｉ,,その他の設立登記法人,東京都,港区,南青山６丁目８番８号,,13,103,1070062,,,2023-01-11,登記官による閉鎖,,,2015-10-05,1,,,,,,0
408,2011101080944,登記記録の閉鎖等,0,2023-01-12,2022-12-28,Ｎｕｍｅｒｉｕｍ３株式会社,,株式会社,東京都,中央区,日本橋３丁目９番１号日本橋三丁目スクエア１１階,,13,102,1030027,,,2022-12-28,清算の結了等,,,2017-06-29,1,,,,,ニュメリアムスリー,0
412,2011102001354,登記記録の閉鎖等,0,2023-01-12,2023-01-06,有限会社岩澤之家具製作所,,有限会社,東京都,新宿区,天神町７９番地,,13,104,1620808,,,2023-01-06,清算の結了等,,,2015-10-05,1,,,,,イワサワノカグセイサクジョ,0
456,2020001140997,登記記録の閉鎖等,0,2023-01-12,2023-01-04,ネッツトヨタ神奈川株式会社,,株式会社,神奈川県,横浜市中区,山下町３３番地,,14,104,2310023,,,2023-01-04,合併による解散等,4020001140995,令和５年１月１日横浜市中区山下町３３番地ウエインズトヨタ神奈川株式会社（4020001140995）に合併し解散,2021-04-20,1,,,,,ネッツトヨタカナガワ,0
462,2021001015487,登記記録の閉鎖等,0,2023-01-12,2023-01-11,国際土地開発株式会社,,株式会社,東京都,港区,西新橋２丁目９番６号,,13,103,1050003,,,2023-01-11,登記官による閉鎖,,,2015-10-05,1,,,,,,0
512,2120001168525,登記記録の閉鎖等,0,2023-01-12,2023-01-10,株式会社ブリッジ,,株式会社,大阪府,大阪市北区,長柄東２丁目４番１２－７０１号,,27,127,5310063,,,2023-01-10,清算の結了等,,,2015-10-05,1,,,,,ブリッジ,0
529,2120901013747,登記記録の閉鎖等,0,2023-01-12,2023-01-06,株式会社ヤノテック,,株式会社,兵庫県,丹波篠山市,井ノ上４０５番地,,28,221,6692416,,,2023-01-06,合併による解散等,2120001021304,令和５年１月１日大阪市平野区加美北六丁目１５番１４号ハシダ技研工業株式会社（2120001021304）に合併し解散,2015-10-05,1,,,,,ヤノテック,0
537,2130001057231,登記記録の閉鎖等,0,2023-01-12,2023-01-06,株式会社あおば,,株式会社,京都府,京都市中京区,壬生朱雀町２－１３朱雀Ｋ´ｓｂｌｄｇ２階,,26,104,6048871,,,2023-01-06,清算の結了等,,,2016-04-07,1,,,,,アオバ,0
546,2140001089406,登記記録の閉鎖等,0,2023-01-12,2023-01-10,Ｋ．ＣＲＥＡＴＥ株式会社,,株式会社,大阪府,枚方市,東山２丁目３３番地の１（２１８）,,27,210,5731114,,,2023-01-10,清算の結了等,,,2015-10-05,1,,,,,,0
553,2160001001748,登記記録の閉鎖等,0,2023-01-12,2023-01-10,株式会社ブールマルシェ,,株式会社,滋賀県,大津市,見世２丁目１４番４号,,25,201,5200004,,,2023-01-10,清算の結了等,,,2015-10-05,1,,,,,ブールマルシェ,0
561,2180001028137,登記記録の閉鎖等,0,2023-01-12,2023-01-04,サクマ興産株式会社,,株式会社,愛知県,名古屋市緑区,浦里５丁目２５０番地,,23,114,4580847,,,2023-01-04,合併による解散等,1180001028138,令和５年１月１日名古屋市緑区浦里五丁目２５０番地佐久間特殊鋼株式会社（1180001028138）に合併し解散,2015-10-05,1,,,,,サクマコウサン,0
563,2180001140156,登記記録の閉鎖等,0,2023-01-12,2022-12-26,三洋工業株式会社,,株式会社,愛知県,長久手市,打越１９０３番地,,23,238,4801152,,,2022-12-26,清算の結了等,,,2020-02-26,1,,,,,サンヨウコウギョウ,0
575,2200002004613,登記記録の閉鎖等,0,2023-01-12,2023-01-10,有限会社ミズノ,,有限会社,岐阜県,岐阜市,吉津町２丁目２６番地,,21,201,5008187,,,2023-01-10,清算の結了等,,,2015-10-05,1,,,,,ミズノ,0
577,2200002014059,登記記録の閉鎖等,0,2023-01-12,2023-01-10,有限会社光玉朋園,,有限会社,岐阜県,大垣市,上石津町上鍛治屋９７番地の１,,21,202,5031613,,,2023-01-10,清算の結了等,,,2015-10-05,1,,,,,コウギョクホウエン,0
582,2230001005122,登記記録の閉鎖等,0,2023-01-12,2023-01-12,株式会社ＦＯＳ,,株式会社,富山県,富山市,町新１５－１サントピア町新３０２,,16,201,9300923,,,2023-01-12,登記官による閉鎖,,,2015-10-05,1,,,,,,0
584,2230002007043,登記記録の閉鎖等,0,2023-01-12,2023-01-12,有限会社吉村製材所,,有限会社,富山県,富山市,八尾町若宮３４５８番地,,16,201,9390000,,,2023-01-12,登記官による閉鎖,,,2015-10-05,1,,,,,,0
587,2230002008842,登記記録の閉鎖等,0,2023-01-12,2023-01-12,有限会社沖屋商店,,有限会社,富山県,滑川市,瀬羽町１８３０番地,,16,206,9360063,,,2023-01-12,登記官による閉鎖,,,2015-10-05,1,,,,,,0
588,2230002008990,登記記録の閉鎖等,0,2023-01-12,2023-01-12,富山ヘリコプター協会有限会社,,有限会社,富山県,滑川市,上梅沢４８０番地,,16,206,9360853,,,2023-01-12,登記官による閉鎖,,,2015-10-05,1,,,,,,0
589,2230003000402,登記記録の閉鎖等,0,2023-01-12,2023-01-12,松島合名会社,,合名会社,富山県,砺波市,正権寺１０２４番地,,16,208,9391412,,,2023-01-12,登記官による閉鎖,,,2015-10-05,1,,,,,,0
590,2230005000755,登記記録の閉鎖等,0,2023-01-12,2023-01-12,富山建設センター協同組合,,その他の設立登記法人,富山県,富山市,奥田本町３番１２号,,16,201,9300819,,,2023-01-12,登記官による閉鎖,,,2015-10-05,1,,,,,,0
593,2240001039788,登記記録の閉鎖等,0,2023-01-12,2023-01-10,益谷建設株式会社,,株式会社,広島県,三原市,港町３丁目１７番１９号,,34,204,7230017,,,2023-01-10,清算の結了等,,,2015-10-05,1,,,,,マスタニケンセツ,0
602,2240005000556,登記記録の閉鎖等,0,2023-01-12,2023-01-06,広島仏教済世団,,その他の設立登記法人,広島県,広島市南区,翠３丁目１７番２６号,00001796,34,103,7340005,,,2023-01-06,清算の結了等,,,2015-10-05,1,,,,,ヒロシマブッキョウサイセイダン,0
606,2260001032188,登記記録の閉鎖等,0,2023-01-12,2023-01-11,株式会社至誠工務店,,株式会社,岡山県,岡山市北区,田中５８５番地,,33,101,7000951,,,2023-01-11,清算の結了等,,,2018-07-05,1,,,,,シセイコウムテン,0
627,2290801008186,登記記録の閉鎖等,0,2023-01-12,2023-01-06,株式会社森商店,,株式会社,福岡県,北九州市小倉北区,宇佐町１丁目６番４１号,,40,106,8020016,,,2023-01-06,清算の結了等,,,2015-10-05,1,,,,,モリショウテン,0
641,2310005004888,登記記録の閉鎖等,0,2023-01-12,2023-01-10,医療法人後藤産婦人科,,その他の設立登記法人,長崎県,大村市,西大村本町３６４番地,,42,205,8560813,,,2023-01-10,清算の結了等,,,2015-10-05,1,,,,,ゴトウサンフジンカ,0
660,2380002030220,登記記録の閉鎖等,0,2023-01-12,2022-12-28,有限会社塚本工業,,有限会社,福島県,双葉郡富岡町,大字上郡山字清水９３番地,,07,543,9791131,,,2022-12-28,清算の結了等,,,2015-10-05,1,,,,,ツカモトコウギョウ,0
663,2400602000776,登記記録の閉鎖等,0,2023-01-12,2023-01-06,有限会社吉田板金,,有限会社,岩手県,奥州市,水沢姉体町字原ノ下４９番地１,,03,215,0230831,,,2023-01-06,清算の結了等,,,2015-10-05,1,,,,,ヨシダバンキン,0
703,3010401000891,登記記録の閉鎖等,0,2023-01-12,2023-01-11,株式会社青萬,,株式会社,東京都,港区,赤坂７丁目１１番７号,,13,103,1070052,,,2023-01-11,登記官による閉鎖,,,2017-10-04,1,,,,,,0
704,3010401022993,登記記録の閉鎖等,0,2023-01-12,2023-01-11,日本都市建物株式会社,,株式会社,東京都,港区,南青山５丁目９番１５号共同ビル,,13,103,1070062,,,2023-01-11,登記官による閉鎖,,,2015-10-05,1,,,,,,0
705,3010401067304,登記記録の閉鎖等,0,2023-01-12,2023-01-11,株式会社アールヴィエフ,,株式会社,東京都,港区,東新橋２丁目１１番４号汐留プラザビル,,13,103,1050021,,,2023-01-11,登記官による閉鎖,,,2015-10-05,1,,,,,,0
706,3010401078978,登記記録の閉鎖等,0,2023-01-12,2023-01-11,株式会社ＡＴプランニング,,株式会社,東京都,港区,赤坂４丁目１番１号ＳＨＩＭＡ赤坂ビル,,13,103,1070052,,,2023-01-11,登記官による閉鎖,,,2015-10-05,1,,,,,,0
707,3010401079019,登記記録の閉鎖等,0,2023-01-12,2023-01-11,株式会社すだち,,株式会社,東京都,港区,西麻布１丁目１１番１０号ビルマーサ２０５,,13,103,1060031,,,2023-01-11,登記官による閉鎖,,,2015-10-05,1,,,,,,0
708,3010401080637,登記記録の閉鎖等,0,2023-01-12,2023-01-11,株式会社エプリモ,,株式会社,東京都,港区,南青山１丁目２０－２ビジネスコート,,13,103,1070062,,,2023-01-11,登記官による閉鎖,,,2015-10-05,1,,,,,,0
709,3010401088267,登記記録の閉鎖等,0,2023-01-12,2023-01-11,株式会社かみふうせん,,株式会社,東京都,港区,新橋５丁目１３番１３号,,13,103,1050004,,,2023-01-11,登記官による閉鎖,,,2015-10-05,1,,,,,,0
710,3010401089694,登記記録の閉鎖等,0,2023-01-12,2023-01-11,株式会社ジーモール,,株式会社,東京都,港区,六本木３丁目１番２７号,,13,103,1060032,,,2023-01-11,登記官による閉鎖,,,2015-10-05,1,,,,,,0
711,3010401090677,登記記録の閉鎖等,0,2023-01-12,2023-01-11,株式会社ウェルハーブ,,株式会社,東京都,港区,東新橋２丁目１０番１０号東新橋ビル２Ｆ,,13,103,1050021,,,2023-01-11,登記官による閉鎖,,,2015-10-05,1,,,,,,0
715,3010401123998,登記記録の閉鎖等,0,2023-01-12,2023-01-11,山王開発株式会社,,株式会社,東京都,港区,赤坂田町四丁目１３番地松平ビル,,13,103,1050000,,,2023-01-11,登記官による閉鎖,,,2016-04-06,1,,,,,,1
718,3010401147873,登記記録の閉鎖等,0,2023-01-12,2023-01-05,株式会社エコシェアリング,,株式会社,東京都,港区,虎ノ門２丁目２番５号共同通信会館２Ｆ３２,,13,103,1050001,,,2023-01-05,合併による解散等,8140001029562,令和５年１月１日大阪府豊中市豊南町南六丁目８番１４号エコホールディングス株式会社（8140001029562）に合併し解散,2019-09-09,1,,,,,エコシェアリング,0
719,3010401156503,登記記録の閉鎖等,0,2023-01-12,2023-01-06,ＧＣＪＧ１２株式会社,,株式会社,大阪府,大阪市北区,豊崎７丁目２番１５号,,27,127,5310072,,,2023-01-06,合併による解散等,8120901018039,令和５年１月１日大阪市北区豊崎七丁目２番１５号株式会社ブライエンタープライズ（8120901018039）に合併し解散,2020-11-17,1,,,,,ジーシージェイジートゥエルブ,0
722,3010402001798,登記記録の閉鎖等,0,2023-01-12,2023-01-11,有限会社漆野設備工業所,,有限会社,東京都,港区,白金５丁目２番８号白金ハイツ１０３号,,13,103,1080072,,,2023-01-11,登記官による閉鎖,,,2015-10-05,1,,,,,,0
723,3010402002499,登記記録の閉鎖等,0,2023-01-12,2023-01-11,有限会社エムエムシー・コーポレーション,,有限会社,東京都,港区,赤坂２丁目２１番８号,,13,103,1070052,,,2023-01-11,登記官による閉鎖,,,2015-10-05,1,,,,,,0
724,3010402004891,登記記録の閉鎖等,0,2023-01-12,2023-01-11,有限会社光洋舎,,有限会社,東京都,港区,南麻布４丁目１５番１１号,,13,103,1060047,,,2023-01-11,登記官による閉鎖,,,2015-10-05,1,,,,,,0
725,3010402010056,登記記録の閉鎖等,0,2023-01-12,2023-01-11,有限会社野末商事,,有限会社,東京都,港区,北青山２丁目１１番１０号,,13,103,1070061,,,2023-01-11,登記官による閉鎖,,,2015-10-05,1,,,,,,0
726,3010402014759,登記記録の閉鎖等,0,2023-01-12,2023-01-11,有限会社ティーオーシーコミュニティー,,有限会社,東京都,港区,芝２丁目１０番５号８０１,,13,103,1050014,,,2023-01-11,登記官による閉鎖,,,2015-10-05,1,,,,,,0
728,3010405007850,登記記録の閉鎖等,0,2023-01-12,2023-01-11,特定非営利活動法人グリーンペダル,,その他の設立登記法人,東京都,港区,西新橋２丁目１３番６号,,13,103,1050003,,,2023-01-11,登記官による閉鎖,,,2015-10-05,1,,,,,,0
740,3010901009945,登記記録の閉鎖等,0,2023-01-12,2023-01-04,株式会社ピー・エス・シー,,株式会社,東京都,世田谷区,成城２丁目４０番５号,,13,112,1570066,,,2023-01-04,清算の結了等,,,2015-10-05,1,,,,,ピーエスシー,0
744,3010902008129,登記記録の閉鎖等,0,2023-01-12,2023-01-05,株式会社クレオ,,株式会社,東京都,世田谷区,成城８丁目１番９号,,13,112,1570066,,,2023-01-05,清算の結了等,,,2015-10-05,1,,,,,クレオ,0
771,3011201000272,登記記録の閉鎖等,0,2023-01-12,2023-01-04,株式会社あたらしや,,株式会社,東京都,中野区,沼袋４丁目１８番４号,,13,114,1650025,,,2023-01-04,清算の結了等,,,2015-10-05,1,,,,,アタラシヤ,0
777,3011501013528,登記記録の閉鎖等,0,2023-01-12,2022-12-27,株式会社オーシーエムディー,,株式会社,東京都,北区,豊島５丁目２番２０－１２０４号,,13,117,1140003,,,2022-12-27,清算の結了等,,,2015-10-05,1,,,,,オーシーエムディー,0
791,3013101003768,登記記録の閉鎖等,0,2023-01-12,2022-12-22,多摩紡織株式会社,,株式会社,東京都,青梅市,長淵６丁目４１４番地,,13,205,1980052,,,2022-12-22,清算の結了等,,,2015-10-05,1,,,,,タマボウショク,0
796,3020001140996,登記記録の閉鎖等,0,2023-01-12,2023-01-04,トヨタカローラ神奈川株式会社,,株式会社,神奈川県,横浜市中区,山下町３３番地,,14,104,2310023,,,2023-01-04,合併による解散等,4020001140995,令和５年１月１日横浜市中区山下町３３番地ウエインズトヨタ神奈川株式会社（4020001140995）に合併し解散,2021-04-20,1,,,,,トヨタカローラカナガワ,0
852,3120001085265,登記記録の閉鎖等,0,2023-01-12,2023-01-04,東カイ興産株式会社,,株式会社,大阪府,大阪市中央区,（大阪市南区東平二丁目５番７号）,,27,128,5390000,,,2023-01-04,清算の結了等,,,2021-12-22,1,,,,,トウカイコウサン,1
878,3122005002510,登記記録の閉鎖等,0,2023-01-12,2023-01-10,特定非営利活動法人大阪ボランティア教育研究所,,その他の設立登記法人,大阪府,八尾市,山城町１丁目３番２号,,27,212,5810801,,,2023-01-10,清算の結了等,,,2015-10-05,1,,,,,オオサカボランティアキョウイクケンキュウショ,0
879,3130001053568,登記記録の閉鎖等,0,2023-01-12,2023-01-04,株式会社高田商店,00036725,株式会社,京都府,京丹後市,峰山町白銀小字津久田９０６番５,,26,212,6270033,,,2023-01-04,清算の結了等,,,2015-10-05,1,,,,,タカダショウテン,0
884,3140001017555,登記記録の閉鎖等,0,2023-01-12,2022-12-27,志熊株式会社,,株式会社,兵庫県,神戸市須磨区,東白川台２丁目７番地の２,,28,107,6540102,,,2022-12-27,清算の結了等,,,2015-10-05,1,,,,,シグマ,0
904,3180001147992,登記記録の閉鎖等,0,2023-01-12,2023-01-05,株式会社ａｒｅａ－Ａ,,株式会社,愛知県,名古屋市千種区,桜が丘１１９番地,,23,101,4640025,,,2023-01-05,清算の結了等,,,2021-10-05,1,,,,,エリアエー,0
905,3180001148099,登記記録の閉鎖等,0,2023-01-12,2022-12-28,株式会社オフィスＡ,,株式会社,愛知県,名古屋市千種区,朝岡町３丁目８７番地の１,,23,101,4640811,,,2022-12-28,清算の結了等,,,2021-10-06,1,,,,,オフィスエイ,0
906,3180001148108,登記記録の閉鎖等,0,2023-01-12,2022-12-28,株式会社ＹＫＴＯＷＮ,,株式会社,愛知県,名古屋市千種区,朝岡町３丁目８７番地の１,,23,101,4640811,,,2022-12-28,清算の結了等,,,2021-10-05,1,,,,,ワイケイタウン,0
920,3200003003803,登記記録の閉鎖等,0,2023-01-12,2023-01-10,合資会社堀江商店,,合資会社,岐阜県,岐阜市,大福町１０丁目２５番地,,21,201,5020934,,,2023-01-10,清算の結了等,,,2016-06-27,1,,,,,ホリエショウテン,0
923,3230001005889,登記記録の閉鎖等,0,2023-01-12,2023-01-12,株式会社財務管理事務所,,株式会社,富山県,富山市,呉羽町３９１８番地１２４,,16,201,9300138,,,2023-01-12,登記官による閉鎖,,,2015-10-05,1,,,,,,0
924,3230001006020,登記記録の閉鎖等,0,2023-01-12,2023-01-12,株式会社ハートホーム冨山,,株式会社,富山県,富山市,秋吉４３番地４,,16,201,9300953,,,2023-01-12,登記官による閉鎖,,,2015-10-05,1,,,,,,0
925,3230001006978,登記記録の閉鎖等,0,2023-01-12,2023-01-12,石井牛乳株式会社,,株式会社,富山県,魚津市,友道１９９７番地,,16,204,9370806,,,2023-01-12,登記官による閉鎖,,,2015-10-05,1,,,,,,0
927,3230002005475,登記記録の閉鎖等,0,2023-01-12,2023-01-06,有限会社ジニアス,,有限会社,富山県,富山市,新屋１６６番１,,16,201,9300822,,,2023-01-06,清算の結了等,,,2015-10-05,1,,,,,ジニアス,0
928,3230002008734,登記記録の閉鎖等,0,2023-01-12,2023-01-12,有限会社長井造園,,有限会社,富山県,下新川郡朝日町,笹川１０６７番地,,16,343,9390711,,,2023-01-12,登記官による閉鎖,,,2015-10-05,1,,,,,,0
930,3230003000533,登記記録の閉鎖等,0,2023-01-12,2023-01-12,合資会社酒井製油所,,合資会社,富山県,高岡市,中田２１番地,,16,202,9391275,,,2023-01-12,登記官による閉鎖,,,2015-10-05,1,,,,,,0
931,3230005000572,登記記録の閉鎖等,0,2023-01-12,2023-01-12,宝晶家庭薬協同組合,,その他の設立登記法人,富山県,富山市,四方西岩瀬石瀬１７５番地,,16,201,9302241,,,2023-01-12,登記官による閉鎖,,,2015-10-05,1,,,,,,0
938,3240005012063,登記記録の閉鎖等,0,2023-01-12,2023-01-10,医療法人社団平川皮膚泌尿器科医院,,その他の設立登記法人,広島県,三原市,港町３丁目６番３５号,,34,204,7230017,,,2023-01-10,清算の結了等,,,2015-10-05,1,,,,,ヒラカワヒフヒニョウキカイイン,0
970,3310001015277,登記記録の閉鎖等,0,2023-01-12,2023-01-10,株式会社ジーク,,株式会社,長崎県,平戸市,大久保町２０４９番地２５,,42,207,8595102,,,2023-01-10,清算の結了等,,,2017-12-07,1,,,,,ジーク,0
974,3330002013897,登記記録の閉鎖等,0,2023-01-12,2023-01-10,有限会社ミヤテック,,有限会社,熊本県,熊本市東区,新南部３丁目５番６９号,,43,102,8618028,,,2023-01-10,清算の結了等,,,2015-10-05,1,,,,,ミヤテック,0
996,3430001043852,登記記録の閉鎖等,0,2023-01-12,2023-01-05,日興建設株式会社,,株式会社,北海道,千歳市,信濃２丁目２４番８号,,01,224,0660038,,,2023-01-05,清算の結了等,,,2015-10-05,1,,,,,ニッコウケンセツ,0
1004,3440005000717,登記記録の閉鎖等,0,2023-01-12,2022-12-28,協同組合連合会松前木材加工センター,,その他の設立登記法人,北海道,松前郡松前町,字福山１２番地,,01,331,0491512,,,2022-12-28,清算の結了等,,,2022-04-22,1,,,,,マツマエモクザイカコウセンター,0
1005,3450001006304,登記記録の閉鎖等,0,2023-01-12,2023-01-11,丸謙工業株式会社,,株式会社,北海道,上川郡美瑛町,幸町１丁目２番７号,,01,459,0710214,,,2023-01-11,清算の結了等,,,2015-10-05,1,,,,,マルケンコウギョウ,0
1021,4010001205774,登記記録の閉鎖等,0,2023-01-12,2023-01-04,ビジネスサポート株式会社,,株式会社,東京都,中央区,築地１丁目９番１３号,,13,102,1040045,,,2023-01-04,清算の結了等,,,2019-12-03,1,,,,,ビジネスサポート,0
1030,4010401006376,登記記録の閉鎖等,0,2023-01-12,2023-01-11,株式会社オフイストウキヨウ,,株式会社,東京都,港区,北青山１丁目２番１８－３０１号,,13,103,1070061,,,2023-01-11,登記官による閉鎖,,,2015-10-05,1,,,,,,0
1032,4010401018792,登記記録の閉鎖等,0,2023-01-12,2023-01-11,テックプランニング株式会社,,株式会社,東京都,港区,赤坂９丁目２番９号,,13,103,1070052,,,2023-01-11,登記官による閉鎖,,,2015-10-05,1,,,,,,0
1033,4010401027496,登記記録の閉鎖等,0,2023-01-12,2023-01-11,株式会社星野事務所,,株式会社,東京都,港区,赤坂６丁目５番２１－７０４号,,13,103,1070052,,,2023-01-11,登記官による閉鎖,,,2015-10-05,1,,,,,,0
1035,4010401060563,登記記録の閉鎖等,0,2023-01-12,2023-01-11,ブルーライズソフト株式会社,,株式会社,東京都,港区,港南３丁目４番１２号港南第１ビル２０９号室,,13,103,1080075,,,2023-01-11,登記官による閉鎖,,,2015-10-05,1,,,,,,0
1036,4010401069803,登記記録の閉鎖等,0,2023-01-12,2023-01-11,株式会社ワンズ,,株式会社,東京都,港区,海岸２丁目３番３－８０２号,,13,103,1050022,,,2023-01-11,登記官による閉鎖,,,2015-10-05,1,,,,,,0
1037,4010401080628,登記記録の閉鎖等,0,2023-01-12,2023-01-11,株式会社グレイヴ,,株式会社,東京都,港区,六本木６丁目８番１０号,,13,103,1060032,,,2023-01-11,登記官による閉鎖,,,2015-10-05,1,,,,,,0
1038,4010401086229,登記記録の閉鎖等,0,2023-01-12,2023-01-11,株式会社メディカルオフィスサービス,,株式会社,東京都,港区,海岸３丁目６番３２号,,13,103,1080022,,,2023-01-11,登記官による閉鎖,,,2015-10-05,1,,,,,,0
1039,4010401088753,登記記録の閉鎖等,0,2023-01-12,2023-01-11,株式会社日本リーディング,,株式会社,東京都,港区,芝公園２丁目３番８号赤門ビル,,13,103,1050011,,,2023-01-11,登記官による閉鎖,,,2015-10-05,1,,,,,,0
1040,4010401090081,登記記録の閉鎖等,0,2023-01-12,2023-01-11,アーロンラボ株式会社,,株式会社,東京都,港区,南青山２丁目１２番１５号,,13,103,1070062,,,2023-01-11,登記官による閉鎖,,,2015-10-05,1,,,,,,0
1041,4010401093191,登記記録の閉鎖等,0,2023-01-12,2023-01-11,株式会社トランスファーサービス,,株式会社,東京都,港区,新橋６丁目５番４号,,13,103,1050004,,,2023-01-11,登記官による閉鎖,,,2015-10-05,1,,,,,,0
1042,4010401093555,登記記録の閉鎖等,0,2023-01-12,2023-01-11,株式会社ハルジョウジャパン,,株式会社,東京都,港区,新橋６丁目１１番１３号,,13,103,1050004,,,2023-01-11,登記官による閉鎖,,,2015-10-05,1,,,,,,0
1043,4010401094561,登記記録の閉鎖等,0,2023-01-12,2023-01-11,株式会社ｅ－まちづくり研究所,,株式会社,東京都,港区,浜松町２丁目６番２号,,13,103,1050013,,,2023-01-11,登記官による閉鎖,,,2015-10-05,1,,,,,,0
1044,4010401095048,登記記録の閉鎖等,0,2023-01-12,2023-01-11,株式会社ディークリー,,株式会社,東京都,港区,芝公園１丁目７番１５号,,13,103,1050011,,,2023-01-11,登記官による閉鎖,,,2015-10-05,1,,,,,,0
1049,4010401146957,登記記録の閉鎖等,0,2023-01-12,2022-12-23,ＧｉｉＧ株式会社,,株式会社,東京都,港区,白金６丁目６番６号ドリーム白金２０２,,13,103,1080072,,,2022-12-23,清算の結了等,,,2019-07-29,1,,,,,ギーグ,0
1052,4010402010179,登記記録の閉鎖等,0,2023-01-12,2022-12-23,有限会社ヒロ・クオリティー,,有限会社,東京都,港区,芝浦３丁目１０番６－８０６号,,13,103,1080023,,,2022-12-23,清算の結了等,,,2015-10-05,1,,,,,ヒロクオリティー,0
1053,4010402014312,登記記録の閉鎖等,0,2023-01-12,2023-01-11,有限会社パインウェルエンタープライズ,,有限会社,東京都,港区,新橋４丁目５番１号,,13,103,1050004,,,2023-01-11,登記官による閉鎖,,,2015-10-05,1,,,,,,0
1054,4010402031852,登記記録の閉鎖等,0,2023-01-12,2023-01-11,有限会社エフツーコーポレーション,,有限会社,東京都,港区,六本木３丁目６番１８号,,13,103,1060032,,,2023-01-11,登記官による閉鎖,,,2015-10-05,1,,,,,,0
1055,4010403007959,登記記録の閉鎖等,0,2023-01-12,2023-01-11,合同会社Ｃ・Ｓ・Ｃ,,合同会社,東京都,港区,西新橋１丁目２番９号,,13,103,1050003,,,2023-01-11,登記官による閉鎖,,,2015-10-05,1,,,,,,0
1056,4010405000425,登記記録の閉鎖等,0,2023-01-12,2023-01-11,社団法人全国遊漁船業協会,,その他の設立登記法人,東京都,港区,港南４丁目７番８号,,13,103,1080075,,,2023-01-11,登記官による閉鎖,,,2015-10-05,1,,,,,,0
1057,4010405004731,登記記録の閉鎖等,0,2023-01-12,2023-01-11,特定非営利活動法人ＢＯＬＤ,,その他の設立登記法人,東京都,港区,虎ノ門２丁目５番６号,,13,103,1050001,,,2023-01-11,登記官による閉鎖,,,2015-10-05,1,,,,,,0
1058,4010405007759,登記記録の閉鎖等,0,2023-01-12,2023-01-11,パシフィック監査法人,,その他の設立登記法人,東京都,港区,赤坂３丁目２１番１５号,,13,103,1070052,,,2023-01-11,登記官による閉鎖,,,2015-10-05,1,,,,,,0
1059,4010405015233,登記記録の閉鎖等,0,2023-01-12,2023-01-04,一般社団法人ＲＵＳＩ　Ｊａｐａｎ,,その他の設立登記法人,東京都,世田谷区,成城４丁目１１番１号,,13,112,1570066,,,2023-01-04,清算の結了等,,,2016-11-02,1,,,,,ルーシージャパン,0
1066,4010805002748,登記記録の閉鎖等,0,2023-01-12,2022-12-27,一般社団法人にじのふね,,その他の設立登記法人,東京都,大田区,矢口２丁目４番１７号,,13,111,1460093,,,2022-12-27,清算の結了等,,,2020-05-22,1,,,,,ニジノフネ,0
1085,4011201000957,登記記録の閉鎖等,0,2023-01-12,2023-01-04,株式会社及川光学,,株式会社,東京都,中野区,弥生町１丁目２９番１２号,,13,114,1640013,,,2023-01-04,清算の結了等,,,2015-10-05,1,,,,,オイカワコウガク,0
1087,4011305002065,登記記録の閉鎖等,0,2023-01-12,2022-12-28,一般社団法人ＤＭＳグローバル教育センター,,その他の設立登記法人,東京都,杉並区,堀ノ内１丁目５番１３号,,13,115,1660013,,,2022-12-28,清算の結了等,,,2015-10-05,1,,,,,ディーエムエスグローバルキョウイクセンター,0
1091,4011601018384,登記記録の閉鎖等,0,2023-01-12,2023-01-04,井坂設備工業株式会社,,株式会社,東京都,練馬区,高松１丁目３番１８号,,13,120,1790075,,,2023-01-04,清算の結了等,,,2015-10-05,1,,,,,イサカセツビコウギョウ,0
1096,4011802015932,登記記録の閉鎖等,0,2023-01-12,2023-01-05,有限会社ティーシーエスサンクス,,有限会社,東京都,足立区,大谷田２丁目３番３５号,,13,121,1200001,,,2023-01-05,清算の結了等,,,2015-10-05,1,,,,,ティーシーエスサンクス,0
1119,4020005001649,登記記録の閉鎖等,0,2023-01-12,2023-01-05,医療法人社団福島医院,,その他の設立登記法人,神奈川県,横浜市中区,本郷町２丁目４５番地,,14,104,2310843,,,2023-01-05,清算の結了等,,,2015-10-05,1,,,,,フクシマイイン,0
1179,4120001212405,登記記録の閉鎖等,0,2023-01-12,2023-01-10,アラオ・サプライ株式会社,,株式会社,大阪府,大阪市天王寺区,国分町３番３号,,27,109,5430044,,,2023-01-10,清算の結了等,,,2018-04-06,1,,,,,アラオサプライ,0
1242,4180001008310,登記記録の閉鎖等,0,2023-01-12,2023-01-04,サン・アクト株式会社,,株式会社,愛知県,名古屋市守山区,瀬古３丁目１２６番地,,23,113,4630068,,,2023-01-04,合併による解散等,1180002080988,令和５年１月１日名古屋市守山区瀬古三丁目１２８番地株式会社テクノアンカー（1180002080988）に合併し解散,2015-10-05,1,,,,,サンアクト,0
1263,4230001014006,登記記録の閉鎖等,0,2023-01-12,2023-01-04,株式会社南砺いっぷく市,,株式会社,富山県,南砺市,中ノ江２１番地,,16,210,9391625,,,2023-01-04,合併による解散等,6230001008716,令和５年１月１日富山県南砺市中ノ江２１番地道の駅福光株式会社（6230001008716）に合併し解散,2015-10-05,1,,,,,ナントイップクイチ,0
1266,4230002006233,登記記録の閉鎖等,0,2023-01-12,2023-01-12,有限会社とみやま,,有限会社,富山県,富山市,婦中町羽根１２５３番地の４,,16,201,9392603,,,2023-01-12,登記官による閉鎖,,,2015-10-05,1,,,,,,0
1267,4230002014673,登記記録の閉鎖等,0,2023-01-12,2023-01-12,有限会社鈴木石油,,有限会社,富山県,高岡市,姫野字小円坊２８６番地,,16,202,9340093,,,2023-01-12,登記官による閉鎖,,,2017-03-23,1,,,,,,0
1268,4230005000571,登記記録の閉鎖等,0,2023-01-12,2023-01-12,協同組合北信越フルーツ名店会,,その他の設立登記法人,富山県,富山市,砂町３番３号,,16,201,9300045,,,2023-01-12,登記官による閉鎖,,,2015-10-05,1,,,,,,0
1275,4240002012750,登記記録の閉鎖等,0,2023-01-12,2023-01-11,有限会社原田商事,,有限会社,広島県,広島市中区,大手町１丁目５番１１号,,34,101,7300051,,,2023-01-11,清算の結了等,,,2015-10-05,1,,,,,ハラダショウジ,0
1289,4290801017012,登記記録の閉鎖等,0,2023-01-12,2023-01-10,株式会社メディカルレオンクレア,,株式会社,福岡県,田川市,大字奈良１８５３番地,,40,206,8260043,,,2023-01-10,清算の結了等,,,2015-10-05,1,,,,,メディカルレオンクレア,0
1314,4380002008363,登記記録の閉鎖等,0,2023-01-12,2023-01-10,有限会社大竹屋菓子店,,有限会社,福島県,郡山市,大槻町字上町６４番地,,07,203,9630201,,,2023-01-10,清算の結了等,,,2015-10-05,1,,,,,,0
1315,4380002032363,登記記録の閉鎖等,0,2023-01-12,2023-01-10,有限会社高橋鈑金塗装,00084164,有限会社,福島県,会津若松市,町北町大字始字下荒久田２８番地１,,07,202,9650052,,,2023-01-10,清算の結了等,,,2015-10-05,1,,,,,タカハシバンキントソウ,0
1333,4460002001665,登記記録の閉鎖等,0,2023-01-12,2023-01-06,リブラスベネフィット有限会社,,有限会社,北海道,釧路市,愛国西２丁目１番５号,,01,206,0850057,,,2023-01-06,合併による解散等,2460101004034,令和５年１月１日北海道帯広市大通南十二丁目２０番地リブラス株式会社（2460101004034）に合併し解散,2015-10-05,1,,,,,,0
1334,4470001005798,登記記録の閉鎖等,0,2023-01-12,2023-01-04,株式会社アイコー印刷,,株式会社,香川県,高松市,林町１３１８番地１,,37,201,7610301,,,2023-01-04,合併による解散等,7470001002768,令和４年１２月３１日香川県高松市成合町７４２番地１株式会社中央印刷所（7470001002768）に合併し解散,2015-10-05,1,,,,,アイコーインサツ,0
1336,4470001014766,登記記録の閉鎖等,0,2023-01-12,2023-01-06,有田酵素製菓株式会社,,株式会社,香川県,高松市,古新町１０番地１,,37,201,7600025,,,2023-01-06,合併による解散等,8140001022939,令和４年１２月２６日神戸市東灘区岡本二丁目７番１号株式会社ファンクレール（8140001022939）に合併し解散,2015-10-05,1,,,,,,0
1338,4470002016365,登記記録の閉鎖等,0,2023-01-12,2023-01-10,有限会社白川自工,,有限会社,香川県,観音寺市,大野原町中姫７６４番地１,,37,205,7691612,,,2023-01-10,清算の結了等,,,2015-10-05,1,,,,,,0
1343,4480002009194,登記記録の閉鎖等,0,2023-01-12,2023-01-06,椙原商事有限会社,,有限会社,徳島県,吉野川市,山川町町４６番地の１,,36,205,7793401,,,2023-01-06,清算の結了等,,,2015-10-05,1,,,,,スギハラショウジ,0
1349,5010001110924,登記記録の閉鎖等,0,2023-01-12,2023-01-11,潔情報管理センター株式会社,,株式会社,東京都,港区,高輪３丁目２５番２７号５０５号室,,13,103,1080074,,,2023-01-11,登記官による閉鎖,,,2015-10-05,1,,,,,,0
1360,5010003019040,登記記録の閉鎖等,0,2023-01-12,2023-01-10,Ｚｉｎｏｓインベストメント株式会社,,株式会社,東京都,台東区,浅草５丁目３４番１０号,,13,106,1110032,,,2023-01-10,清算の結了等,,,2015-10-05,1,,,,,ジノスインベストメント,0
1369,5010401002507,登記記録の閉鎖等,0,2023-01-12,2023-01-11,イータムラ株式会社,,株式会社,東京都,港区,南青山６丁目３番１４号,,13,103,1070062,,,2023-01-11,登記官による閉鎖,,,2015-10-05,1,,,,,,0
1373,5010401077689,登記記録の閉鎖等,0,2023-01-12,2023-01-11,株式会社アリイ,,株式会社,東京都,港区,高輪３丁目１４番４０号,,13,103,1080074,,,2023-01-11,登記官による閉鎖,,,2015-10-05,1,,,,,,0
1374,5010401078984,登記記録の閉鎖等,0,2023-01-12,2023-01-11,株式会社ＭＦＡ,,株式会社,東京都,港区,港南２丁目１５番１号品川インターシティＡ棟２８階,,13,103,1080075,,,2023-01-11,登記官による閉鎖,,,2015-10-05,1,,,,,,0
1375,5010401079017,登記記録の閉鎖等,0,2023-01-12,2023-01-11,株式会社モエールパブリッシング,,株式会社,東京都,港区,三田２丁目７番２３号,,13,103,1080073,,,2023-01-11,登記官による閉鎖,,,2015-10-05,1,,,,,,0
1376,5010401087580,登記記録の閉鎖等,0,2023-01-12,2023-01-11,株式会社エンパス,,株式会社,東京都,港区,芝浦３丁目１５番５－８１１号,,13,103,1080023,,,2023-01-11,登記官による閉鎖,,,2015-10-05,1,,,,,,0
1377,5010401095807,登記記録の閉鎖等,0,2023-01-12,2023-01-11,白寿ＢＩＯ医研株式会社,,株式会社,東京都,港区,南青山１丁目２６番１６号,,13,103,1070062,,,2023-01-11,登記官による閉鎖,,,2015-10-05,1,,,,,,0
1378,5010401097200,登記記録の閉鎖等,0,2023-01-12,2023-01-11,株式会社アドマック,,株式会社,東京都,港区,赤坂２丁目２３番１号アークヒルズフロントタワーＲｏｐ,,13,103,1070052,,,2023-01-11,登記官による閉鎖,,,2015-10-05,1,,,,,,0
1379,5010401098883,登記記録の閉鎖等,0,2023-01-12,2023-01-11,株式会社バリ・リゾート,,株式会社,東京都,港区,麻布台１丁目６番１３号,,13,103,1060041,,,2023-01-11,登記官による閉鎖,,,2015-10-05,1,,,,,,0
1382,5010401161484,登記記録の閉鎖等,0,2023-01-12,2022-12-23,ＩＴｂｏｏｋフリーワーク株式会社,,株式会社,東京都,港区,虎ノ門２丁目３番１７号,,13,103,1050001,,,2022-12-23,清算の結了等,,,2021-07-14,1,,,,,アイティブックフリーワーク,0
1383,5010402022999,登記記録の閉鎖等,0,2023-01-12,2023-01-11,有限会社クラクラ,,有限会社,東京都,港区,麻布十番２丁目２１番１０号,,13,103,1060045,,,2023-01-11,登記官による閉鎖,,,2015-10-05,1,,,,,,0
1384,5010402026604,登記記録の閉鎖等,0,2023-01-12,2023-01-11,有限会社Ｅ２,,有限会社,東京都,港区,赤坂８丁目５番２８－１３０５号,,13,103,1070052,,,2023-01-11,登記官による閉鎖,,,2015-10-05,1,,,,,,0
1388,5010405001967,登記記録の閉鎖等,0,2023-01-12,2023-01-11,相互サービス協同組合,,その他の設立登記法人,東京都,港区,赤坂３丁目６番１０号,,13,103,1070052,,,2023-01-11,登記官による閉鎖,,,2015-10-05,1,,,,,,0
1389,5010405001991,登記記録の閉鎖等,0,2023-01-12,2023-01-11,在日韓国人料飲協同組合,,その他の設立登記法人,東京都,港区,赤坂２丁目２１番８号,,13,103,1070052,,,2023-01-11,登記官による閉鎖,,,2015-10-05,1,,,,,,0
1390,5010405003328,登記記録の閉鎖等,0,2023-01-12,2023-01-11,税理士法人ナレッジ会計事務所,,その他の設立登記法人,東京都,港区,西新橋１丁目１５番５号,,13,103,1050003,,,2023-01-11,登記官による閉鎖,,,2015-10-05,1,,,,,,0
1391,5010405003815,登記記録の閉鎖等,0,2023-01-12,2023-01-11,特定非営利活動法人日本バイオ経営士協会,,その他の設立登記法人,東京都,港区,赤坂２丁目１０番８号,,13,103,1070052,,,2023-01-11,登記官による閉鎖,,,2015-10-05,1,,,,,,0
1392,5010405004334,登記記録の閉鎖等,0,2023-01-12,2023-01-11,特定非営利活動法人日墨文化交流協会,,その他の設立登記法人,東京都,港区,西新橋３丁目４番５号関ビル２階株式会社カント内,,13,103,1050003,,,2023-01-11,登記官による閉鎖,,,2015-10-05,1,,,,,,0
1393,5010405004771,登記記録の閉鎖等,0,2023-01-12,2023-01-11,特定非営利活動法人日本の病院をよくする会,,その他の設立登記法人,東京都,港区,高輪３丁目１４番２６－９０１号,,13,103,1080074,,,2023-01-11,登記官による閉鎖,,,2015-10-05,1,,,,,,0
1410,5010901002007,登記記録の閉鎖等,0,2023-01-12,2022-12-28,株式会社エムアールディ,,株式会社,東京都,世田谷区,代沢５丁目１９番１２号,,13,112,1550032,,,2022-12-28,清算の結了等,,,2015-10-05,1,,,,,エムアールディ,0
1435,5011501026362,登記記録の閉鎖等,0,2023-01-12,2023-01-05,株式会社佳林,,株式会社,東京都,葛飾区,新小岩２丁目１０－１５－３０２,,13,122,1240024,,,2023-01-05,清算の結了等,,,2020-11-12,1,,,,,カリン,0
1436,5011501028202,登記記録の閉鎖等,0,2023-01-12,2022-12-27,ｗｉｎｗｉｎ　ｓｅｍｉ株式会社,,株式会社,東京都,荒川区,町屋３丁目２番１号Ｂ１Ｆ,,13,118,1160001,,,2022-12-27,清算の結了等,,,2022-06-29,1,,,,,ウインウインセミ,0
1438,5011505002153,登記記録の閉鎖等,0,2023-01-12,2022-12-27,特定非営利活動法人太陽の舘,,その他の設立登記法人,東京都,北区,上中里３丁目１番１８号光建荘２Ｆ－３Ａ,,13,117,1140016,,,2022-12-27,清算の結了等,,,2018-05-21,1,,,,,タイヨウノヤカタ,0
1440,5011701000365,登記記録の閉鎖等,0,2023-01-12,2023-01-10,アポロリネンサプライ株式会社,,株式会社,東京都,江戸川区,松江７丁目３番７号,,13,123,1320025,,,2023-01-10,清算の結了等,,,2015-10-05,1,,,,,アポロリネンサプライ,0
1457,5020001001486,登記記録の閉鎖等,0,2023-01-12,2023-01-11,株式会社マインマート,,株式会社,東京都,港区,高輪２丁目１６番２９号,,13,103,1080074,,,2023-01-11,登記官による閉鎖,,,2015-10-05,1,,,,,,0
1459,5020001014265,登記記録の閉鎖等,0,2023-01-12,2023-01-04,株式会社イー・エス・シー,,株式会社,神奈川県,横浜市西区,平沼１丁目８番５号,,14,103,2200023,,,2023-01-04,合併による解散等,2020001014367,令和５年１月１日横浜市西区平沼一丁目８番５号株式会社エスコ（2020001014367）に合併し解散,2015-10-05,1,,,,,イーエスシー,0
1514,5100002025410,登記記録の閉鎖等,0,2023-01-12,2023-01-06,有限会社山喜設計,,有限会社,長野県,塩尻市,大字北小野２６９１番地１,,20,215,3990651,,,2023-01-06,清算の結了等,,,2015-10-05,1,,,,,ヤマキセッケイ,0
1536,5120002012869,登記記録の閉鎖等,0,2023-01-12,2023-01-04,有限会社ケイ・エスオペレーションセンター,,有限会社,大阪府,大阪市天王寺区,六万体町４番１０号,,27,109,5430074,,,2023-01-04,清算の結了等,,,2015-10-05,1,,,,,ケイエスオペレーションセンター,0
1586,5180302012621,登記記録の閉鎖等,0,2023-01-12,2023-01-10,有限会社アドテックセンシングリサーチ,,有限会社,愛知県,豊橋市,中郷町１１６番地５（４０７）,,23,201,4418031,,,2023-01-10,清算の結了等,,,2015-10-05,1,,,,,アドテックセンシングリサーチ,0
1599,5230001011547,登記記録の閉鎖等,0,2023-01-12,2023-01-12,株式会社呉西アスコン,,株式会社,富山県,氷見市,上田子１１８番地,,16,205,9350035,,,2023-01-12,登記官による閉鎖,,,2015-10-05,1,,,,,,0
1601,5230002003221,登記記録の閉鎖等,0,2023-01-12,2023-01-12,有限会社ホームズ,,有限会社,富山県,富山市,住吉町１丁目２番１０号,,16,201,9300031,,,2023-01-12,登記官による閉鎖,,,2015-10-05,1,,,,,,0
1605,5230002013492,登記記録の閉鎖等,0,2023-01-12,2023-01-12,有限会社ａｌｍａ,,有限会社,富山県,高岡市,二塚１０３３番地,,16,202,9330816,,,2023-01-12,登記官による閉鎖,,,2015-10-05,1,,,,,,0
1610,5240001003337,登記記録の閉鎖等,0,2023-01-12,2023-01-04,株式会社ゴードーエンタープライズ,,株式会社,広島県,広島市中区,本川町２丁目１番１２号,,34,101,7300802,,,2023-01-04,合併による解散等,6240001003336,令和４年１２月３１日広島市中区本川町二丁目１番１２号株式会社ゴードープロダクツ（6240001003336）に合併し解散,2015-10-05,1,,,,,ゴードーエンタープライズ,0
1654,5360003005600,登記記録の閉鎖等,0,2023-01-12,2023-01-04,株式会社東洋探査,,株式会社,沖縄県,中頭郡西原町,上原２丁目３０番地の２１,,47,329,9030125,,,2023-01-04,清算の結了等,,,2015-10-05,1,,,,,,0
1683,5440001008118,登記記録の閉鎖等,0,2023-01-12,2023-01-04,株式会社函館風味工房,,株式会社,北海道,函館市,昭和４丁目９番１１－１０１号,,01,202,0410812,,,2023-01-04,清算の結了等,,,2017-06-09,1,,,,,ハコダテフウミコウボウ,0
1692,5470002007941,登記記録の閉鎖等,0,2023-01-12,2023-01-10,有限会社ワイズ・アルファ,,有限会社,香川県,高松市,郷東町４５９番地６,,37,201,7618031,,,2023-01-10,清算の結了等,,,2015-10-05,1,,,,,ワイズアルファ,0
1711,6010002044583,登記記録の閉鎖等,0,2023-01-12,2023-01-04,株式会社エヌケイグローバル,,株式会社,東京都,港区,芝浦３丁目１番１号,,13,103,1080023,,,2023-01-04,合併による解散等,4010401013769,令和５年１月１日東京都港区芝浦三丁目１番１号昭光通商株式会社（4010401013769）に合併し解散,2015-10-05,1,,,,,エヌケイグローバル,0
1716,6010401006358,登記記録の閉鎖等,0,2023-01-12,2023-01-11,株式会社オフィスアイ・エヌ・ジー,,株式会社,東京都,港区,南青山２丁目４番１６号,,13,103,1070062,,,2023-01-11,登記官による閉鎖,,,2015-10-05,1,,,,,,0
1719,6010401028864,登記記録の閉鎖等,0,2023-01-12,2023-01-11,株式会社ミユウ,,株式会社,東京都,港区,元麻布３丁目４番４１号,,13,103,1060046,,,2023-01-11,登記官による閉鎖,,,2015-10-05,1,,,,,,0
1722,6010401062954,登記記録の閉鎖等,0,2023-01-12,2023-01-11,株式会社ＡＯＹＡＭＡ・ＭＵＳＩＣ・ＡＳＳＯＣＩＡＴＥＳ,,株式会社,東京都,港区,六本木５丁目１８番２１号,,13,103,1060032,,,2023-01-11,登記官による閉鎖,,,2015-10-05,1,,,,,,0
1723,6010401068191,登記記録の閉鎖等,0,2023-01-12,2023-01-11,グローバルスタッフ株式会社,,株式会社,東京都,港区,新橋１丁目１６番９号,,13,103,1050004,,,2023-01-11,登記官による閉鎖,,,2015-10-05,1,,,,,,0
1724,6010401069306,登記記録の閉鎖等,0,2023-01-12,2023-01-11,株式会社ジャパン・スタッフ・サービス,,株式会社,東京都,港区,台場２丁目２番２－３０１０号,,13,103,1350091,,,2023-01-11,登記官による閉鎖,,,2015-10-05,1,,,,,,0
1725,6010401078249,登記記録の閉鎖等,0,2023-01-12,2023-01-11,ＩＩＣサービス株式会社,,株式会社,東京都,港区,南青山４丁目１５番５号,,13,103,1070062,,,2023-01-11,登記官による閉鎖,,,2015-10-05,1,,,,,,0
1726,6010401082143,登記記録の閉鎖等,0,2023-01-12,2023-01-11,トラント株式会社,,株式会社,東京都,港区,南麻布５丁目１０番２４号,,13,103,1060047,,,2023-01-11,登記官による閉鎖,,,2015-10-05,1,,,,,,0
1727,6010401082267,登記記録の閉鎖等,0,2023-01-12,2023-01-11,テイクワン株式会社,,株式会社,東京都,港区,六本木３丁目１５番２５号善隣会館６０２,,13,103,1060032,,,2023-01-11,登記官による閉鎖,,,2015-10-05,1,,,,,,0
1728,6010401083629,登記記録の閉鎖等,0,2023-01-12,2023-01-11,オネスティ株式会社,,株式会社,東京都,港区,東麻布１丁目２５番５号,,13,103,1060044,,,2023-01-11,登記官による閉鎖,,,2015-10-05,1,,,,,,0
1729,6010401090823,登記記録の閉鎖等,0,2023-01-12,2023-01-11,フォートメディカル株式会社,,株式会社,東京都,港区,南青山４丁目２２番１号王子ホームズ青山２０３,,13,103,1070062,,,2023-01-11,登記官による閉鎖,,,2015-10-05,1,,,,,,0
1734,6010402007867,登記記録の閉鎖等,0,2023-01-12,2023-01-11,有限会社ダイヤモンド興産,,有限会社,東京都,港区,三田４丁目１３番２１号,,13,103,1080073,,,2023-01-11,登記官による閉鎖,,,2015-10-05,1,,,,,,0
1735,6010402013758,登記記録の閉鎖等,0,2023-01-12,2023-01-11,有限会社和作,,有限会社,東京都,港区,新橋２丁目２０番１５号,,13,103,1050004,,,2023-01-11,登記官による閉鎖,,,2015-10-05,1,,,,,,0
1736,6010402027650,登記記録の閉鎖等,0,2023-01-12,2023-01-11,有限会社ワンダー,,有限会社,東京都,港区,虎ノ門３丁目３番３号,,13,103,1050001,,,2023-01-11,登記官による閉鎖,,,2015-10-05,1,,,,,,0
1737,6010402030324,登記記録の閉鎖等,0,2023-01-12,2023-01-11,有限会社トラフィックジャパンコミュニケーションズ,,有限会社,東京都,港区,赤坂２丁目２１番１２号,,13,103,1070052,,,2023-01-11,登記官による閉鎖,,,2015-10-05,1,,,,,,0
1739,6010402036676,登記記録の閉鎖等,0,2023-01-12,2023-01-11,有限会社雅商事,,有限会社,東京都,港区,新橋３丁目２６番４号,,13,103,1050004,,,2023-01-11,登記官による閉鎖,,,2015-10-05,1,,,,,,0
1740,6010403008773,登記記録の閉鎖等,0,2023-01-12,2023-01-11,合同会社アトラス,,合同会社,東京都,港区,南青山２丁目２番１５号,,13,103,1070062,,,2023-01-11,登記官による閉鎖,,,2015-10-05,1,,,,,,0
1744,6010405006759,登記記録の閉鎖等,0,2023-01-12,2023-01-11,特定非営利活動法人ゆうゆうパラダイス,,その他の設立登記法人,東京都,港区,高輪４丁目２１番９号（有）メイストン商会品川事務所,,13,103,1080074,,,2023-01-11,登記官による閉鎖,,,2015-10-05,1,,,,,,0
1748,6010601028937,登記記録の閉鎖等,0,2023-01-12,2023-01-04,株式会社アップス,,株式会社,千葉県,山武市,木原１４６７番地１,,12,237,2891212,,,2023-01-04,清算の結了等,,,2015-10-05,1,,,,,アップス,0
1764,6010903006789,登記記録の閉鎖等,0,2023-01-12,2022-12-28,ｎｕ合同会社,,合同会社,東京都,世田谷区,深沢７丁目２５番１０号,,13,112,1580081,,,2022-12-28,清算の結了等,,,2021-09-09,1,,,,,ヌー,0
1780,6011101065058,登記記録の閉鎖等,0,2023-01-12,2023-01-05,株式会社リテール・マーケティング,,株式会社,東京都,豊島区,千早２丁目３０番１０号,,13,116,1710044,,,2023-01-05,清算の結了等,,,2015-10-05,1,,,,,リテールマーケティング,0
1804,6011802024931,登記記録の閉鎖等,0,2023-01-12,2023-01-05,有限会社デューティーコーポレーション,,有限会社,東京都,葛飾区,立石８丁目１４番５号,,13,122,1240012,,,2023-01-05,清算の結了等,,,2015-10-05,1,,,,,デューティーコーポレーション,0
1821,6020001124922,登記記録の閉鎖等,0,2023-01-12,2023-01-05,株式会社アステージ横浜,,株式会社,神奈川県,横浜市金沢区,寺前２丁目６番１３号,,14,108,2360014,,,2023-01-05,合併による解散等,9020001119639,令和５年１月１日横浜市金沢区寺前二丁目６番１３号株式会社アーバンホーム横浜（9020001119639）に合併し解散,2018-02-06,1,,,,,アステージヨコハマ,0
1836,6021002003611,登記記録の閉鎖等,0,2023-01-12,2022-12-27,有限会社ドミール湘南,,有限会社,神奈川県,藤沢市,藤沢５４８番地の１クラッシィハウス湘南藤沢１４０６号室,,14,205,2510052,,,2022-12-27,清算の結了等,,,2015-10-05,1,,,,,ドミールショウナン,0
1842,6030001112901,登記記録の閉鎖等,0,2023-01-12,2023-01-06,指圧ジャパン株式会社,,株式会社,埼玉県,熊谷市,拾六間１６番地２,,11,202,3600846,,,2023-01-06,清算の結了等,,,2016-02-17,1,,,,,シアツジャパン,0
1863,6040003009161,登記記録の閉鎖等,0,2023-01-12,2023-01-06,合同会社介護タクシーあいりす,,合同会社,千葉県,茂原市,千町１００３番地９,,12,210,2970002,,,2023-01-06,清算の結了等,,,2016-10-11,1,,,,,カイゴタクシーアイリス,0
1878,6090001009638,登記記録の閉鎖等,0,2023-01-12,2022-12-26,柏木石油株式会社,,株式会社,山梨県,富士吉田市,大明見５丁目１６番３８号,,19,202,4030003,,,2022-12-26,清算の結了等,,,2015-10-05,1,,,,,,0
1886,6110003003207,登記記録の閉鎖等,0,2023-01-12,2023-01-06,合同会社嶺希知,,合同会社,新潟県,新潟市北区,木崎２８３１番地６３,,15,101,9503304,,,2023-01-06,清算の結了等,,,2015-10-28,1,,,,,ミネキチ,0
1889,6120001009923,登記記録の閉鎖等,0,2023-01-12,2023-01-06,阪本運送株式会社,,株式会社,大阪府,大阪市東住吉区,桑津１丁目６番１５号,,27,121,5460041,,,2023-01-06,清算の結了等,,,2015-10-05,1,,,,,サカモトウンソウ,0
1922,6122003001123,登記記録の閉鎖等,0,2023-01-12,2023-01-06,合同会社なんちゃん家,,合同会社,大阪府,八尾市,水越１丁目６９,,27,212,5810856,,,2023-01-06,清算の結了等,,,2015-10-08,1,,,,,ナンチャンチ,0
1926,6130001036702,登記記録の閉鎖等,0,2023-01-12,2022-12-28,公成商事株式会社,,株式会社,京都府,木津川市,山城町平尾三所塚７７番地２,,26,214,6190202,,,2022-12-28,合併による解散等,3130002029939,令和４年１２月２８日京都府木津川市山城町平尾城垣内１番地株式会社コーケン（3130002029939）に合併し解散,2015-10-05,1,,,,,コウセイショウジ,0
1928,6130002007611,登記記録の閉鎖等,0,2023-01-12,2023-01-06,有限会社西陣うえだ,,有限会社,京都府,京都市上京区,浄福寺通寺之内下る大黒町７１２番地,,26,102,6028482,,,2023-01-06,清算の結了等,,,2015-10-05,1,,,,,ニシジンウエダ,0
1948,6180001052406,登記記録の閉鎖等,0,2023-01-12,2023-01-05,名果商事株式会社,,株式会社,愛知県,西春日井郡豊山町,大字豊場字八反１０７番地,,23,342,4800202,,,2023-01-05,合併による解散等,1180001052385,令和５年１月１日愛知県西春日井郡豊山町大字豊場字八反１０７番地セントライ青果株式会社（1180001052385）に合併し解散,2015-10-05,1,,,,,メイカショウジ,0
1961,6180302011614,登記記録の閉鎖等,0,2023-01-12,2022-12-09,ソーワローズ有限会社,,有限会社,愛知県,田原市,日出町東瀬古８０９番地,,23,231,4413623,,,2022-12-09,清算の結了等,,,2015-10-05,1,,,,,,0
1971,6230001003667,登記記録の閉鎖等,0,2023-01-12,2023-01-12,株式会社ヘリオス,,株式会社,富山県,富山市,田刈屋３２１番地,,16,201,9300897,,,2023-01-12,登記官による閉鎖,,,2015-10-05,1,,,,,,0
1972,6230001004608,登記記録の閉鎖等,0,2023-01-12,2023-01-12,株式会社ヤマサ技研,,株式会社,富山県,富山市,堀川小泉町１丁目３－８－４０４号,,16,201,9398081,,,2023-01-12,登記官による閉鎖,,,2015-10-05,1,,,,,,0
1973,6230001006810,登記記録の閉鎖等,0,2023-01-12,2023-01-12,株式会社ビックス,,株式会社,富山県,富山市,中田３丁目５番２２号,,16,201,9318453,,,2023-01-12,登記官による閉鎖,,,2015-10-05,1,,,,,,0
1975,6230001014367,登記記録の閉鎖等,0,2023-01-12,2023-01-12,株式会社大原,,株式会社,富山県,砺波市,秋元６１１番地３,,16,208,9391304,,,2023-01-12,登記官による閉鎖,,,2015-10-05,1,,,,,,0
1977,6230005004389,登記記録の閉鎖等,0,2023-01-12,2023-01-12,滑川市木材協同組合,,その他の設立登記法人,富山県,滑川市,大門７番地,,16,206,9360856,,,2023-01-12,登記官による閉鎖,,,2015-10-05,1,,,,,,0
1981,6240001027525,登記記録の閉鎖等,0,2023-01-12,2023-01-06,浜幸海運株式会社,,株式会社,広島県,呉市,音戸町畑３丁目４番１２号,,34,202,7371211,,,2023-01-06,清算の結了等,,,2015-10-05,1,,,,,ハマコウカイウン,0
1985,6240002009349,登記記録の閉鎖等,0,2023-01-12,2023-01-11,有限会社大翔産業,,有限会社,広島県,広島市安佐南区,伴東４丁目１７番９号,,34,105,7313164,,,2023-01-11,清算の結了等,,,2015-10-05,1,,,,,ダイショウサンギョウ,0
1990,6250001009794,登記記録の閉鎖等,0,2023-01-12,2023-01-04,株式会社トクヤマ情報サービス,,株式会社,山口県,周南市,新宿通１丁目７番地,,35,215,7450056,,,2023-01-04,合併による解散等,1250001009080,令和５年１月１日山口県周南市御影町１番１号株式会社トクヤマ（1250001009080）に合併し解散,2015-10-05,1,,,,,トクヤマジョウホウサービス,0
1995,6260002015329,登記記録の閉鎖等,0,2023-01-12,2023-01-10,有限会社エムアンドティー,,有限会社,岡山県,岡山市東区,一日市１６０番地１,,33,103,7090602,,,2023-01-10,清算の結了等,,,2015-10-05,1,,,,,エムアンドティー,0
2006,6290001069546,登記記録の閉鎖等,0,2023-01-12,2023-01-04,株式会社ＪＴＲ,,株式会社,福岡県,福岡市中央区,大手門３丁目８番１６号,,40,133,8100074,,,2023-01-04,合併による解散等,3290001058155,令和５年１月１日福岡市中央区大手門三丁目８番１６号株式会社アパックスホーム（3290001058155）に合併し解散,2015-10-05,1,,,,,,0
2045,6380002001812,登記記録の閉鎖等,0,2023-01-12,2023-01-05,有限会社齋藤ビジネス会計,,有限会社,福島県,福島市,桜木町７番１８号,,07,201,9608133,,,2023-01-05,清算の結了等,,,2015-10-05,1,,,,,サイトウビジネスカイケイ,0
2065,6450001004742,登記記録の閉鎖等,0,2023-01-12,2023-01-04,深川砂利工業株式会社,,株式会社,北海道,深川市,音江町字広里５５７番１,,01,228,0741271,,,2023-01-04,合併による解散等,5450001004693,令和５年１月１日北海道深川市音江町字広里１２９番地３ホッコン建設工業株式会社（5450001004693）に合併し解散,2015-10-05,1,,,,,フカガワジャリコウギョウ,0
2066,6460302003228,登記記録の閉鎖等,0,2023-01-12,2023-01-06,有限会社木村鉄工機械,,有限会社,北海道,紋別郡湧別町,中湧別南町７１９番地,,01,559,0996328,,,2023-01-06,清算の結了等,,,2015-10-05,1,,,,,,0
2082,7010002044608,登記記録の閉鎖等,0,2023-01-12,2023-01-04,有限会社サムウッドファ－ム,,有限会社,東京都,千代田区,神田多町２丁目２番地,,13,101,1010046,,,2023-01-04,清算の結了等,,,2015-10-05,1,,,,,サムウッドファーム,0
2087,7010401009228,登記記録の閉鎖等,0,2023-01-12,2023-01-11,株式会社ケイ通信社,,株式会社,東京都,港区,白金台５丁目２２番１１号,,13,103,1080071,,,2023-01-11,登記官による閉鎖,,,2015-10-05,1,,,,,,0
2088,7010401010549,登記記録の閉鎖等,0,2023-01-12,2023-01-11,株式会社小山,,株式会社,東京都,港区,赤坂７丁目１１番１０号,,13,103,1070052,,,2023-01-11,登記官による閉鎖,,,2015-10-05,1,,,,,,0
2090,7010401038805,登記記録の閉鎖等,0,2023-01-12,2023-01-11,株式会社インターベスト,,株式会社,東京都,港区,芝大門１丁目１６番６新雅ビル４Ｆ,,13,103,1050012,,,2023-01-11,登記官による閉鎖,,,2015-10-05,1,,,,,,0
2091,7010401075369,登記記録の閉鎖等,0,2023-01-12,2023-01-11,株式会社木村家物産,,株式会社,東京都,港区,赤坂８丁目１１番３８号,,13,103,1070052,,,2023-01-11,登記官による閉鎖,,,2015-10-05,1,,,,,,0
2092,7010401084865,登記記録の閉鎖等,0,2023-01-12,2023-01-11,株式会社トータル・アイ,,株式会社,東京都,港区,虎ノ門３丁目１４番地１－１５０６号,,13,103,1050001,,,2023-01-11,登記官による閉鎖,,,2015-10-05,1,,,,,,0
2093,7010401085285,登記記録の閉鎖等,0,2023-01-12,2023-01-11,株式会社高虎,,株式会社,東京都,港区,六本木４丁目１２番１１号竹岡ビル１階,,13,103,1060032,,,2023-01-11,登記官による閉鎖,,,2015-10-05,1,,,,,,0
2094,7010401085517,登記記録の閉鎖等,0,2023-01-12,2023-01-11,ソフィアエフピー株式会社,,株式会社,東京都,港区,東新橋１丁目１０番１号,,13,103,1050021,,,2023-01-11,登記官による閉鎖,,,2015-10-05,1,,,,,,0
2095,7010401089443,登記記録の閉鎖等,0,2023-01-12,2023-01-11,株式会社バロックス,,株式会社,東京都,港区,芝公園２丁目３番９－８０１号,,13,103,1050011,,,2023-01-11,登記官による閉鎖,,,2015-10-05,1,,,,,,0
2096,7010401091325,登記記録の閉鎖等,0,2023-01-12,2023-01-11,ＪＰアセット株式会社,,株式会社,東京都,港区,新橋４丁目３１番３号新橋オーシャンビル９Ｆ,,13,103,1050004,,,2023-01-11,登記官による閉鎖,,,2015-10-05,1,,,,,,0
2097,7010401092843,登記記録の閉鎖等,0,2023-01-12,2023-01-11,株式会社フィールド,,株式会社,東京都,港区,西新橋２丁目８番２号,,13,103,1050003,,,2023-01-11,登記官による閉鎖,,,2015-10-05,1,,,,,,0
2098,7010401098568,登記記録の閉鎖等,0,2023-01-12,2023-01-11,アイピーマネジメント株式会社,,株式会社,東京都,港区,麻布十番３丁目５番７号,,13,103,1060045,,,2023-01-11,登記官による閉鎖,,,2015-10-05,1,,,,,,0
2099,7010401127319,登記記録の閉鎖等,0,2023-01-12,2022-12-28,株式会社アドバンスサンライズ,,株式会社,東京都,千代田区,神田佐久間町３丁目３８番地第５東ビル５Ｆ,,13,101,1010025,,,2022-12-28,清算の結了等,,,2016-10-04,1,,,,,アドバンスサンライズ,0
2102,7010402012206,登記記録の閉鎖等,0,2023-01-12,2023-01-11,有限会社ビューズ,,有限会社,東京都,港区,六本木７丁目３番８号永谷ヒルプラザ２０１号,,13,103,1060032,,,2023-01-11,登記官による閉鎖,,,2015-10-05,1,,,,,,0
2103,7010402015712,登記記録の閉鎖等,0,2023-01-12,2023-01-11,有限会社京都太秦ホテル,,有限会社,東京都,港区,虎ノ門１丁目２４番１０号,,13,103,1050001,,,2023-01-11,登記官による閉鎖,,,2015-10-05,1,,,,,,0
2104,7010402036048,登記記録の閉鎖等,0,2023-01-12,2023-01-11,有限会社オリエントグリーンサービス,,有限会社,東京都,港区,赤坂３丁目１１番１４号,,13,103,1070052,,,2023-01-11,登記官による閉鎖,,,2015-10-05,1,,,,,,0
2106,7010405003029,登記記録の閉鎖等,0,2023-01-12,2023-01-11,特定非営利活動法人神宮前ドットオルグ,,その他の設立登記法人,東京都,港区,赤坂２丁目１２番２５－７０１号,,13,103,1070052,,,2023-01-11,登記官による閉鎖,,,2015-10-05,1,,,,,,0
2107,7010405003268,登記記録の閉鎖等,0,2023-01-12,2023-01-11,中小企業育成事業協同組合,,その他の設立登記法人,東京都,港区,麻布十番２丁目５番１２号アザブビルディングＮｏ．３,,13,103,1060045,,,2023-01-11,登記官による閉鎖,,,2015-10-05,1,,,,,,0
2108,7010405003648,登記記録の閉鎖等,0,2023-01-12,2023-01-11,特定非営利活動法人アスリート・キャリア・サポート,,その他の設立登記法人,東京都,港区,北青山２丁目１１－１０－Ｂ１,,13,103,1070061,,,2023-01-11,登記官による閉鎖,,,2015-10-05,1,,,,,,0
2109,7010405009042,登記記録の閉鎖等,0,2023-01-12,2023-01-11,社会保険労務士法人トラスト労務管理事務所,,その他の設立登記法人,東京都,港区,高輪４丁目２１番２４号アンセストラル高輪２０４,,13,103,1080074,,,2023-01-11,登記官による閉鎖,,,2015-10-05,1,,,,,,0
2114,7010601056004,登記記録の閉鎖等,0,2023-01-12,2023-01-05,ジョブライト株式会社,,株式会社,東京都,新宿区,西新宿８丁目１７番１号,,13,104,1600023,,,2023-01-05,合併による解散等,1010601027539,令和５年１月１日東京都新宿区西新宿八丁目１７番１号ＳＢＳスタッフ株式会社（1010601027539）に合併し解散,2019-08-23,1,,,,,ジョブライト,0
2116,7010702009678,登記記録の閉鎖等,0,2023-01-12,2023-01-05,有限会社イスパンカーゴ,,有限会社,東京都,品川区,大崎３丁目６番２１号,,13,109,1410032,,,2023-01-05,清算の結了等,,,2015-10-05,1,,,,,イスパンカーゴ,0
2121,7011001066535,登記記録の閉鎖等,0,2023-01-12,2023-01-04,株式会社フリージョン,,株式会社,東京都,渋谷区,道玄坂１丁目１７番９号,,13,113,1500043,,,2023-01-04,合併による解散等,1011101066250,令和５年１月１日東京都渋谷区道玄坂一丁目１７番９号株式会社シアーズ（1011101066250）に合併し解散,2015-10-05,1,,,,,フリージョン,0
2131,7011101016919,登記記録の閉鎖等,0,2023-01-12,2023-01-04,ネイチャー・ジャパン株式会社,,株式会社,東京都,港区,虎ノ門４丁目３番１号城山トラストタワー,,13,103,1050001,,,2023-01-04,合併による解散等,6010001003854,令和５年１月１日東京都港区虎ノ門四丁目３番１号城山トラストタワーシュプリンガーネイチャー・ジャパン株式会社（6010001003854）に合併し解散,2015-10-05,1,,,,,ネイチャージャパン,0
2143,7011701004604,登記記録の閉鎖等,0,2023-01-12,2023-01-10,大一物産株式会社,,株式会社,東京都,江戸川区,北小岩３丁目５番４号,,13,123,1330051,,,2023-01-10,清算の結了等,,,2015-10-05,1,,,,,ダイイチブッサン,0
2163,7020001029757,登記記録の閉鎖等,0,2023-01-12,2023-01-05,ディー・ディー・アイジャパン株式会社,,株式会社,神奈川県,横浜市中区,山下町２８番地２ライオンズプラザ山下公園４０３号,,14,104,2310023,,,2023-01-05,清算の結了等,,,2015-10-05,1,,,,,ディーディーアイジャパン,0
2164,7020001050143,登記記録の閉鎖等,0,2023-01-12,2023-01-04,株式会社いいじゃん,,株式会社,神奈川県,横浜市中区,長者町５丁目６８番地１,,14,104,2310033,,,2023-01-04,清算の結了等,,,2015-10-05,1,,,,,イイジャン,0
2179,7020002045150,登記記録の閉鎖等,0,2023-01-12,2023-01-05,有限会社町田板金工事,,有限会社,神奈川県,横浜市中区,本牧満坂１７１番地,,14,104,2310833,,,2023-01-05,清算の結了等,,,2015-10-05,1,,,,,マチダバンキンコウジ,0
2180,7020002047394,登記記録の閉鎖等,0,2023-01-12,2023-01-04,有限会社ダン美容院,,有限会社,神奈川県,横浜市磯子区,洋光台６丁目１番１号,,14,107,2350045,,,2023-01-04,清算の結了等,,,2015-10-05,1,,,,,,0
2181,7020002082524,登記記録の閉鎖等,0,2023-01-12,2023-01-05,有限会社青柳,00011429,有限会社,神奈川県,川崎市中原区,木月１丁目２１番５号,,14,133,2110025,,,2023-01-05,清算の結了等,,,2015-10-05,1,,,,,アオヤギ,0
2189,7021005011461,登記記録の閉鎖等,0,2023-01-12,2023-01-04,一般社団法人環境問題適正処理協議会,,その他の設立登記法人,神奈川県,相模原市南区,上鶴間７丁目８番１－２０４号,,14,153,2520302,,,2023-01-04,清算の結了等,,,2018-12-06,1,,,,,カンキョウモンダイテキセイショリキョウギカイ,0
2190,7030001011466,登記記録の閉鎖等,0,2023-01-12,2022-12-27,サンクスコ株式会社,,株式会社,埼玉県,さいたま市大宮区,上小町４８１番地,,11,103,3300855,,,2022-12-27,清算の結了等,,,2015-10-05,1,,,,,サンクスコ,0
2202,7030002005178,登記記録の閉鎖等,0,2023-01-12,2023-01-06,有限会社小島建設工業所,00015972,有限会社,埼玉県,さいたま市見沼区,大字染谷１４１８番地－１,,11,104,3370026,,,2023-01-06,清算の結了等,,,2015-10-05,1,,,,,コジマケンセツコウギョウショ,0
2205,7040001007983,登記記録の閉鎖等,0,2023-01-12,2023-01-10,株式会社ルート１４,,株式会社,千葉県,千葉市中央区,富士見１丁目１５番８号ＲＣ千葉ビル８Ｆ,,12,101,2600015,,,2023-01-10,合併による解散等,5011101018727,令和５年１月１日東京都新宿区四谷四丁目３４番１号株式会社ＳＩＣテック（5011101018727）に合併し解散,2015-10-05,1,,,,,ルートジュウヨン,0
2222,7060001016693,登記記録の閉鎖等,0,2023-01-12,2022-12-13,株式会社ラ・スール,,株式会社,栃木県,栃木市,川原田町１６５０番地５６,,09,203,3280123,,,2022-12-13,清算の結了等,,,2015-10-05,1,,,,,ラスール,0
2230,7080402019681,登記記録の閉鎖等,0,2023-01-12,2023-01-10,有限会社鈴木設備,,有限会社,静岡県,磐田市,見付１０３８番地の１６,,22,211,4380086,,,2023-01-10,清算の結了等,,,2015-10-05,1,,,,,スズキセツビ,0
2231,7090001002716,登記記録の閉鎖等,0,2023-01-12,2023-01-05,ホームズ株式会社,,株式会社,山梨県,甲斐市,西八幡３５３７番地３,,19,210,4000117,,,2023-01-05,清算の結了等,,,2015-10-05,1,,,,,ホームズ,0
2257,7120003018046,登記記録の閉鎖等,0,2023-01-12,2023-01-10,笑っていいこと合同会社,,合同会社,大阪府,守口市,大日町４丁目２４番１４－３０１号,,27,209,5700003,,,2023-01-10,清算の結了等,,,2020-09-07,1,,,,,ワラッテイイコト,0
2271,7120901002885,登記記録の閉鎖等,0,2023-01-12,2023-01-06,テクニカエンジニアリング株式会社,,株式会社,大阪府,吹田市,藤白台４丁目３１番５号,,27,205,5650873,,,2023-01-06,清算の結了等,,,2015-10-05,1,,,,,テクニカエンジニアリング,0
2281,7130005006279,登記記録の閉鎖等,0,2023-01-12,2022-12-28,特定非営利活動法人京都蘇州友好交流協会,,その他の設立登記法人,京都府,京都市伏見区,桃山水野左近西町３１番地２,,26,109,6120059,,,2022-12-28,清算の結了等,,,2015-10-05,1,,,,,キョウトソシュウユウコウコウリュウキョウカイ,0
2285,7140001043143,登記記録の閉鎖等,0,2023-01-12,2023-01-04,滝川メインテナンス株式会社,,株式会社,兵庫県,加古川市,平岡町中野２１１番地の１,,28,210,6750113,,,2023-01-04,合併による解散等,6140001043144,令和５年１月１日兵庫県加古川市平岡町中野２１１番地の１瀧川工業株式会社（6140001043144）に合併し解散,2015-10-05,1,,,,,タキガワメインテナンス,0
2295,7140002011545,登記記録の閉鎖等,0,2023-01-12,2023-01-04,有限会社セイエー,,有限会社,兵庫県,神戸市兵庫区,下沢通２丁目２番１２号,,28,105,6520047,,,2023-01-04,清算の結了等,,,2015-10-05,1,,,,,セイエー,0
2317,7190002023775,登記記録の閉鎖等,0,2023-01-12,2023-01-06,有限会社ソフィア学院,,有限会社,三重県,三重郡菰野町,大字菰野１１１３番地の１,,24,341,5101233,,,2023-01-06,清算の結了等,,,2015-10-05,1,,,,,ソフィアガクイン,0
2320,7190005000160,登記記録の閉鎖等,0,2023-01-12,2023-01-10,医療法人三宅医院,,その他の設立登記法人,三重県,津市,大門１９番１７号,,24,201,5140027,,,2023-01-10,清算の結了等,,,2015-10-05,1,,,,,ミヤケイイン,0
2321,7200001027882,登記記録の閉鎖等,0,2023-01-12,2023-01-11,株式会社あんしんケアセンター,,株式会社,岐阜県,下呂市,金山町金山２１３６番地１,,21,220,5091622,,,2023-01-11,清算の結了等,,,2015-10-05,1,,,,,アンシンケアセンター,0
2325,7220002007667,登記記録の閉鎖等,0,2023-01-12,2023-01-05,有限会社エイ・アイ,,有限会社,石川県,金沢市,米泉町３丁目５６番地３,,17,201,9218044,,,2023-01-05,清算の結了等,,,2015-10-05,1,,,,,エイアイ,0
2327,7230002004457,登記記録の閉鎖等,0,2023-01-12,2023-01-12,すみれ技研有限会社,,有限会社,富山県,富山市,粟島町２丁目６番１２号,,16,201,9318314,,,2023-01-12,登記官による閉鎖,,,2017-04-13,1,,,,,,0
2328,7230002014241,登記記録の閉鎖等,0,2023-01-12,2023-01-12,有限会社アルファ,,有限会社,富山県,射水市,上条１０８番地の４,,16,211,9390255,,,2023-01-12,登記官による閉鎖,,,2015-10-05,1,,,,,,0
2329,7230005000718,登記記録の閉鎖等,0,2023-01-12,2023-01-12,富山道路建設協同組合,,その他の設立登記法人,富山県,富山市,小中７３３番地の２,,16,201,9398183,,,2023-01-12,登記官による閉鎖,,,2015-10-05,1,,,,,,0
2330,7230005002136,登記記録の閉鎖等,0,2023-01-12,2023-01-12,峰友企業組合,,その他の設立登記法人,富山県,富山市,町村１４６番地２,,16,201,9300952,,,2023-01-12,登記官による閉鎖,,,2015-10-05,1,,,,,,0
2331,7230005007399,登記記録の閉鎖等,0,2023-01-12,2023-01-12,富山県食鳥加工協同組合,,その他の設立登記法人,富山県,射水市,西高木１０４６番地,,16,211,9390303,,,2023-01-12,登記官による閉鎖,,,2015-10-05,1,,,,,,0
2341,7250001008291,登記記録の閉鎖等,0,2023-01-12,2022-12-27,株式会社白木屋グランドホテル,,株式会社,山口県,長門市,深川湯本２２４５番地,,35,211,7594103,,,2022-12-27,清算の結了等,,,2015-10-05,1,,,,,,0
2347,7260003003273,登記記録の閉鎖等,0,2023-01-12,2023-01-05,合同会社ｓｅｃｏｎｄ,,合同会社,大阪府,大阪市東住吉区,駒川５丁目５－１８,,27,121,5460043,,,2023-01-05,合併による解散等,4260003002402,令和５年１月１日岡山市北区奉還町３－７－７合同会社ｏｎｅ’ｓ（4260003002402）に合併し解散,2020-07-29,1,,,,,セカンド,0
2373,7340005003123,登記記録の閉鎖等,0,2023-01-12,2023-01-06,医療法人水田会,,その他の設立登記法人,鹿児島県,姶良市,加治木町木田４１０番１,,46,225,8995241,,,2023-01-06,清算の結了等,,,2015-10-05,1,,,,,ミズタカイ,0
2379,7370001042849,登記記録の閉鎖等,0,2023-01-12,2023-01-06,株式会社ＭＡＳＡＫＩ　ＷＯＲＫＳ,,株式会社,宮城県,遠田郡美里町,北浦字遠門３２番地１,,04,505,9870005,,,2023-01-06,清算の結了等,,,2018-04-05,1,,,,,マサキワークス,0
2391,7400005001013,登記記録の閉鎖等,0,2023-01-12,2023-01-10,特定非営利活動法人ＳＴＳアクティブイングリッシュセンター,,その他の設立登記法人,岩手県,盛岡市,上田３丁目１３番３４号,,03,201,0200066,,,2023-01-10,清算の結了等,,,2015-10-05,1,,,,,エスティエスアクティブイングリッシュセンター,0
2407,7470001000508,登記記録の閉鎖等,0,2023-01-12,2023-01-05,株式会社イケダコーポレーション,,株式会社,香川県,高松市,宮脇町１丁目２番３１号,,37,201,7600005,,,2023-01-05,合併による解散等,7470001001927,令和５年１月１日香川県高松市宮脇町一丁目２番３１号四国寺岡オートドア株式会社（7470001001927）に合併し解散,2015-10-05,1,,,,,イケダコーポレーション,0
2441,8010401004921,登記記録の閉鎖等,0,2023-01-12,2023-01-11,株式会社グ・グ販売エイコプロジェクト,,株式会社,東京都,港区,虎ノ門１丁目２４番１０号,,13,103,1050001,,,2023-01-11,登記官による閉鎖,,,2015-10-05,1,,,,,,0
2442,8010401010127,登記記録の閉鎖等,0,2023-01-12,2023-01-11,児島産業株式会社,,株式会社,東京都,港区,南青山５丁目９番１５号新青山共同ビル,,13,103,1070062,,,2023-01-11,登記官による閉鎖,,,2015-10-05,1,,,,,,0
2443,8010401012965,登記記録の閉鎖等,0,2023-01-12,2023-01-11,新光商事株式会社,,株式会社,東京都,港区,南麻布１丁目５番１４－４０５号,,13,103,1060047,,,2023-01-11,登記官による閉鎖,,,2015-10-05,1,,,,,,0
2444,8010401015118,登記記録の閉鎖等,0,2023-01-12,2023-01-11,株式会社スノッブ・ミュージック,,株式会社,東京都,港区,六本木１丁目９番３９号六本木ファーストプラザ５２５,,13,103,1060032,,,2023-01-11,登記官による閉鎖,,,2015-10-05,1,,,,,,0
2445,8010401032757,登記記録の閉鎖等,0,2023-01-12,2023-01-11,株式会社アークインターナショナル,,株式会社,東京都,港区,麻布十番１丁目５番１０号,,13,103,1060045,,,2023-01-11,登記官による閉鎖,,,2015-10-05,1,,,,,,0
2446,8010401040842,登記記録の閉鎖等,0,2023-01-12,2023-01-11,日本シンキング・マシンズ株式会社,,株式会社,東京都,港区,浜松町２丁目１番１６号ＳＶＡＸ浜松町ＩＩビル,00050696,13,103,1050013,,,2023-01-11,登記官による閉鎖,,,2015-10-05,1,,,,,,0
2447,8010401044406,登記記録の閉鎖等,0,2023-01-12,2023-01-11,株式会社ニュー・スミ企画,,株式会社,東京都,港区,浜松町１丁目２８番１３号,,13,103,1050013,,,2023-01-11,登記官による閉鎖,,,2015-10-05,1,,,,,,0
2448,8010401067605,登記記録の閉鎖等,0,2023-01-12,2023-01-11,株式会社ＪＴＲたばこサービス,,株式会社,東京都,港区,虎ノ門４丁目３番１号,,13,103,1050001,,,2023-01-11,登記官による閉鎖,,,2015-10-05,1,,,,,,0
2449,8010401078668,登記記録の閉鎖等,0,2023-01-12,2023-01-11,株式会社ＯＦＦＩＣＥ　ＢＥＬＬＥＺＺＡ,,株式会社,東京都,港区,南青山１丁目１５番２号,,13,103,1070062,,,2023-01-11,登記官による閉鎖,,,2015-10-05,1,,,,,,0
2453,8010401089343,登記記録の閉鎖等,0,2023-01-12,2023-01-11,株式会社ＢｙＦｌｏｗ,,株式会社,東京都,港区,白金台５丁目２番５号,,13,103,1080071,,,2023-01-11,登記官による閉鎖,,,2015-10-05,1,,,,,,0
2455,8010401094921,登記記録の閉鎖等,0,2023-01-12,2023-01-11,株式会社セルン,,株式会社,東京都,港区,赤坂８丁目５番２８号アクシア青山１１０２,,13,103,1070052,,,2023-01-11,登記官による閉鎖,,,2015-10-05,1,,,,,,0
2456,8010401095903,登記記録の閉鎖等,0,2023-01-12,2023-01-11,株式会社サンライズカンパニー,,株式会社,東京都,港区,高輪２丁目１５番２４号,,13,103,1080074,,,2023-01-11,登記官による閉鎖,,,2015-10-05,1,,,,,,0
2457,8010401097024,登記記録の閉鎖等,0,2023-01-12,2023-01-11,株式会社ＥＡＥ,,株式会社,東京都,港区,赤坂２丁目１２番２号,,13,103,1070052,,,2023-01-11,登記官による閉鎖,,,2015-10-05,1,,,,,,0
2460,8010401100943,登記記録の閉鎖等,0,2023-01-12,2023-01-11,Ｌｅａｄ　Ｉｄｅａ　Ｃｏｎｓｕｌｔｉｎｇ株式会社,,株式会社,東京都,港区,赤坂９丁目６番２６号フォンテ六本木５０５,,13,103,1070052,,,2023-01-11,登記官による閉鎖,,,2015-10-05,1,,,,,,0
2466,8010402000498,登記記録の閉鎖等,0,2023-01-12,2023-01-11,有限会社アサナ,,有限会社,東京都,港区,西麻布３丁目２番１６号,,13,103,1060031,,,2023-01-11,登記官による閉鎖,,,2015-10-05,1,,,,,,0
2467,8010402012576,登記記録の閉鎖等,0,2023-01-12,2023-01-11,有限会社美濃屋商店,,有限会社,東京都,港区,東麻布２丁目１０番５号,,13,103,1060044,,,2023-01-11,登記官による閉鎖,,,2015-10-05,1,,,,,,0
2468,8010402016734,登記記録の閉鎖等,0,2023-01-12,2023-01-11,有限会社ウエステック・ジャパン,,有限会社,東京都,港区,赤坂８丁目５番９－３０５号,,13,103,1070052,,,2023-01-11,登記官による閉鎖,,,2015-10-05,1,,,,,,0
2469,8010402022559,登記記録の閉鎖等,0,2023-01-12,2023-01-11,有限会社シーワークスコミュニケーションズ,,有限会社,東京都,港区,六本木７丁目１７番２２号秀和六本木レジデンス４０９号室,,13,103,1060032,,,2023-01-11,登記官による閉鎖,,,2015-10-05,1,,,,,,0
2470,8010402024472,登記記録の閉鎖等,0,2023-01-12,2023-01-11,有限会社カステララスエステート,,有限会社,東京都,港区,東麻布２丁目９番４号,,13,103,1060044,,,2023-01-11,登記官による閉鎖,,,2015-10-05,1,,,,,,0
2472,8010405004439,登記記録の閉鎖等,0,2023-01-12,2023-01-11,一般社団法人ハーレーファミリー共済,,その他の設立登記法人,東京都,港区,麻布台１丁目８番５号,,13,103,1060041,,,2023-01-11,登記官による閉鎖,,,2015-10-05,1,,,,,,0
2473,8010405004546,登記記録の閉鎖等,0,2023-01-12,2023-01-11,建築都市景観デザイン協同組合,,その他の設立登記法人,東京都,港区,西新橋２丁目１３番１６号,,13,103,1050003,,,2023-01-11,登記官による閉鎖,,,2015-10-05,1,,,,,,0
2474,8010405004744,登記記録の閉鎖等,0,2023-01-12,2023-01-11,企業組合プロフェッショナル協同機構,,その他の設立登記法人,東京都,港区,麻布十番１丁目１０番１０号,,13,103,1060045,,,2023-01-11,登記官による閉鎖,,,2015-10-05,1,,,,,,0
2482,8010701034263,登記記録の閉鎖等,0,2023-01-12,2023-01-05,出来事株式会社,,株式会社,東京都,品川区,東品川２丁目６番１０号,,13,109,1400002,,,2023-01-05,清算の結了等,,,2017-06-06,1,,,,,デキゴト,0
2504,8011101016538,登記記録の閉鎖等,0,2023-01-12,2023-01-04,日本チェーンアンカー株式会社,,株式会社,東京都,新宿区,新宿１丁目８番１号大橋御苑駅ビル,,13,104,1600022,,,2023-01-04,合併による解散等,7011101067846,令和５年１月１日東京都新宿区新宿一丁目８番１号株式会社広島メタル＆マシナリー（7011101067846）に合併し解散,2015-10-05,1,,,,,ニホンチェーンアンカー,0
2527,8011803003949,登記記録の閉鎖等,0,2023-01-12,2023-01-05,Ｌａｎｄｓｃａｐｅ　Ｐｌａｎｎｉｎｇ　Ｃｏｎｓｕｌｔｉｎｇ合同会社,,合同会社,東京都,葛飾区,新小岩２丁目２番２２号エフワン新小岩３０２,,13,122,1240024,,,2023-01-05,清算の結了等,,,2020-01-08,1,,,,,ランドスケーププランニングコンサルティング,0
2542,8020001121810,登記記録の閉鎖等,0,2023-01-12,2023-01-05,株式会社小俣工業,,株式会社,神奈川県,横浜市鶴見区,栄町通１丁目６番地２０,,14,101,2300038,,,2023-01-05,清算の結了等,,,2017-06-14,1,,,,,オマタコウギョウ,0
2569,8030002109218,登記記録の閉鎖等,0,2023-01-12,2023-01-06,有限会社無限大,,有限会社,埼玉県,川口市,南前川２丁目１１番２５号,,11,203,3330846,,,2023-01-06,清算の結了等,,,2015-10-05,1,,,,,ムゲンダイ,0
2583,8060002035618,登記記録の閉鎖等,0,2023-01-12,2022-12-28,有限会社エル・コーポレーション,,有限会社,栃木県,足利市,上渋垂町３６９番地１,,09,202,3260335,,,2022-12-28,清算の結了等,,,2015-10-05,1,,,,,エルコーポレーション,0
2587,8080101015477,登記記録の閉鎖等,0,2023-01-12,2023-01-10,株式会社バッカーズ,,株式会社,静岡県,富士市,五貫島１６８番地１,,22,210,4160946,,,2023-01-10,清算の結了等,,,2015-10-05,1,,,,,バッカーズ,0
2598,8120001051857,登記記録の閉鎖等,0,2023-01-12,2023-01-11,三協電気工事株式会社,,株式会社,大阪府,大阪市東淀川区,淡路４丁目３４番３号,,27,114,5330032,,,2023-01-11,清算の結了等,,,2015-10-05,1,,,,,サンキョウデンキコウジ,0
2603,8120001164923,登記記録の閉鎖等,0,2023-01-12,2023-01-10,株式会社豊麗,,株式会社,大阪府,寝屋川市,松屋町１３番１－４０８号,,27,215,5720086,,,2023-01-10,清算の結了等,,,2015-10-05,1,,,,,ホウレイ,0
2630,8130001029423,登記記録の閉鎖等,0,2023-01-12,2023-01-10,ジーバ株式会社,,株式会社,香川県,東かがわ市,西山１９４番地７,,37,207,7692712,,,2023-01-10,清算の結了等,,,2015-10-05,1,,,,,ジーバ,0
2640,8140001090333,登記記録の閉鎖等,0,2023-01-12,2023-01-06,株式会社ハイム,,株式会社,兵庫県,川辺郡猪名川町,白金１丁目１０６番地６,,28,301,6660257,,,2023-01-06,清算の結了等,,,2015-10-05,1,,,,,ハイム,0
2641,8140001116237,登記記録の閉鎖等,0,2023-01-12,2023-01-04,Ｂｅｔｔｅｒ　Ｄａｙｓ株式会社,,株式会社,兵庫県,宍粟市,山崎町山崎４８５番地１,,28,227,6712577,,,2023-01-04,清算の結了等,,,2020-01-24,1,,,,,ベターデイズ,0
2653,8180001076378,登記記録の閉鎖等,0,2023-01-12,2023-01-04,東精機株式会社,,株式会社,愛知県,小牧市,小木１丁目４５番地,,23,219,4850058,,,2023-01-04,合併による解散等,9180001076377,令和５年１月１日愛知県小牧市小木一丁目４５番地株式会社東プラスチック・エンジニアリング（9180001076377）に合併し解散,2015-10-05,1,,,,,ヒガシセイキ,0
2667,8180303003369,登記記録の閉鎖等,0,2023-01-12,2023-01-04,Ｊｅｔｔｙ合同会社,,合同会社,愛知県,名古屋市名東区,一社１丁目７９番地,,23,115,4650093,,,2023-01-04,合併による解散等,9180003015218,令和５年１月１日名古屋市名東区一社一丁目７９第６名昭ビルＮＫプロパティ合同会社（9180003015218）に合併し解散,2015-10-05,1,,,,,ジェティー,0
2675,8230002010330,登記記録の閉鎖等,0,2023-01-12,2023-01-12,日本貿易有限会社,,有限会社,富山県,南砺市,高宮７５２番地,,16,210,9391741,,,2023-01-12,登記官による閉鎖,,,2015-10-05,1,,,,,,0
2676,8230005003125,登記記録の閉鎖等,0,2023-01-12,2023-01-12,企業組合富山県生活環境整備機構,,その他の設立登記法人,富山県,富山市,星井町１丁目７番１号,,16,201,9300065,,,2023-01-12,登記官による閉鎖,,,2015-10-05,1,,,,,,0
2678,8240001012731,登記記録の閉鎖等,0,2023-01-12,2023-01-10,株式会社インターソフト,,株式会社,広島県,広島市中区,猫屋町３番１０号,,34,101,7300852,,,2023-01-10,清算の結了等,,,2015-10-05,1,,,,,インターソフト,0
2679,8240001021146,登記記録の閉鎖等,0,2023-01-12,2023-01-10,ＢＵＳＩＮＥＳＳ　ＬＩＮＫ株式会社,,株式会社,広島県,広島市中区,広瀬北町３－１１和光広瀬ビル２Ｆ,,34,101,7300803,,,2023-01-10,清算の結了等,,,2015-10-05,1,,,,,ビジネスリンク,0
2683,8240001055210,登記記録の閉鎖等,0,2023-01-12,2023-01-10,株式会社アサケン,,株式会社,岡山県,笠岡市,大井南４１番地３,,33,205,7140013,,,2023-01-10,清算の結了等,,,2019-11-08,1,,,,,アサケン,0
2695,8270001000691,登記記録の閉鎖等,0,2023-01-12,2023-01-06,株式会社ブランクス,,株式会社,鳥取県,鳥取市,大杙２３１番地９,,31,201,6800851,,,2023-01-06,清算の結了等,,,2015-10-05,1,,,,,ブランクス,0
2736,8380001016272,登記記録の閉鎖等,0,2023-01-12,2023-01-04,株式会社東日本テクノサービス,,株式会社,福島県,南相馬市,原町区東町１丁目８９番地,,07,212,9750002,,,2023-01-04,清算の結了等,,,2015-10-05,1,,,,,ヒガシニホンテクノサービス,0
2757,9010001116595,登記記録の閉鎖等,0,2023-01-12,2023-01-04,伸越ゴム株式会社,,株式会社,東京都,中央区,日本橋箱崎町２７番２号,,13,102,1030015,,,2023-01-04,合併による解散等,2010001116734,令和４年１２月３１日東京都中央区日本橋箱崎町２７番２号伸栄商事株式会社（2010001116734）に合併し解散,2015-10-05,1,,,,,,0
2774,9010401007452,登記記録の閉鎖等,0,2023-01-12,2023-01-11,関東光学工業株式会社,,株式会社,東京都,港区,虎ノ門１丁目２４番５号,,13,103,1050001,,,2023-01-11,登記官による閉鎖,,,2015-10-05,1,,,,,,0
2777,9010401027921,登記記録の閉鎖等,0,2023-01-12,2023-01-11,株式会社真樹プロダクシヨン,,株式会社,東京都,港区,西麻布１丁目４番４０号,,13,103,1060031,,,2023-01-11,登記官による閉鎖,,,2015-10-05,1,,,,,,0
2778,9010401036253,登記記録の閉鎖等,0,2023-01-12,2023-01-11,株式会社ゲインフル,,株式会社,東京都,港区,東新橋１丁目１０－１東京ツインパークスＬ３２１３,,13,103,1050021,,,2023-01-11,登記官による閉鎖,,,2015-10-05,1,,,,,,0
2779,9010401053141,登記記録の閉鎖等,0,2023-01-12,2023-01-11,Ｙ＆Ｓ　Ｈｏｌｄｉｎｇｓ株式会社,,株式会社,東京都,港区,六本木６丁目１０番１号六本木ヒルズ森タワー２３階,,13,103,1060032,,,2023-01-11,登記官による閉鎖,,,2015-10-05,1,,,,,,0
2780,9010401067604,登記記録の閉鎖等,0,2023-01-12,2023-01-11,株式会社ＪＴＲ,,株式会社,東京都,港区,虎ノ門４丁目３番１号,,13,103,1050001,,,2023-01-11,登記官による閉鎖,,,2015-10-05,1,,,,,,0
2781,9010401072629,登記記録の閉鎖等,0,2023-01-12,2023-01-11,サットンホールディングス株式会社,,株式会社,東京都,港区,麻布十番２丁目１６番８号,,13,103,1060045,,,2023-01-11,登記官による閉鎖,,,2015-10-05,1,,,,,,0
2782,9010401076175,登記記録の閉鎖等,0,2023-01-12,2023-01-11,株式会社プラネックス,,株式会社,東京都,港区,赤坂２丁目１３番２１号,,13,103,1070052,,,2023-01-11,登記官による閉鎖,,,2015-10-05,1,,,,,,0
2783,9010401077685,登記記録の閉鎖等,0,2023-01-12,2023-01-11,ライツアセットマネジメント株式会社,,株式会社,東京都,港区,赤坂１丁目１２番３２号アーク森ビル,,13,103,1070052,,,2023-01-11,登記官による閉鎖,,,2015-10-05,1,,,,,,0
2784,9010401084161,登記記録の閉鎖等,0,2023-01-12,2023-01-11,ロクド株式会社,,株式会社,東京都,港区,元赤坂１丁目６番２号,,13,103,1070051,,,2023-01-11,登記官による閉鎖,,,2015-10-05,1,,,,,,0
2786,9010401095357,登記記録の閉鎖等,0,2023-01-12,2023-01-11,株式会社Ｌａｂｏｏ,,株式会社,東京都,港区,六本木５丁目１８番１９号,,13,103,1060032,,,2023-01-11,登記官による閉鎖,,,2015-10-05,1,,,,,,0
2797,9010402018011,登記記録の閉鎖等,0,2023-01-12,2023-01-11,有限会社エーワイ,,有限会社,東京都,港区,虎ノ門１丁目２４番１０号,,13,103,1050001,,,2023-01-11,登記官による閉鎖,,,2015-10-05,1,,,,,,0
2798,9010403007871,登記記録の閉鎖等,0,2023-01-12,2023-01-11,エムアール合同会社,,合同会社,東京都,港区,芝浦４丁目２１番１－２３０７号,,13,103,1080023,,,2023-01-11,登記官による閉鎖,,,2015-10-05,1,,,,,,0
2799,9010403008853,登記記録の閉鎖等,0,2023-01-12,2023-01-11,合同会社アイウォッシュ,,合同会社,東京都,港区,赤坂１丁目４番１４号ダイヤモンドビル赤坂５階,,13,103,1070052,,,2023-01-11,登記官による閉鎖,,,2015-10-05,1,,,,,,0
2802,9010405007382,登記記録の閉鎖等,0,2023-01-12,2023-01-11,特定非営利活動法人ワイルドワイズ・ジャパン,,その他の設立登記法人,東京都,港区,南青山２丁目２番１５号ウィン青山１１３５号,,13,103,1070062,,,2023-01-11,登記官による閉鎖,,,2015-10-05,1,,,,,,0
2803,9010405008546,登記記録の閉鎖等,0,2023-01-12,2023-01-11,ヨコハマメモリアル墓苑開発特定目的会社,,その他の設立登記法人,東京都,港区,北青山３丁目５番１４号青山鈴木硝子ビル７階ルース総合会計事務所内,,13,103,1070061,,,2023-01-11,登記官による閉鎖,,,2015-10-05,1,,,,,,0
2804,9010405010238,登記記録の閉鎖等,0,2023-01-12,2023-01-11,ティ・オー・ビー税理士法人,,その他の設立登記法人,東京都,港区,北青山３丁目６番７号青山パラシオタワー１１階,,13,103,1070061,,,2023-01-11,登記官による閉鎖,,,2015-10-05,1,,,,,,0
2805,9010405012985,登記記録の閉鎖等,0,2023-01-12,2022-12-23,アンバサダー麻布管理組合法人,,その他の設立登記法人,東京都,港区,元麻布２丁目８番６号,,13,103,1060046,,,2022-12-23,清算の結了等,,,2015-10-05,1,,,,,アンバサダーアザブ,0
2819,9010701014925,登記記録の閉鎖等,0,2023-01-12,2023-01-04,ＹＡＭＡＧＡＴＡ　ＩＮＴＥＣＨ株式会社,,株式会社,神奈川県,横浜市西区,高島２丁目６番３４号,,14,103,2200011,,,2023-01-04,合併による解散等,8020001016184,令和５年１月１日横浜市西区高島二丁目６番３４号ＹＡＭＡＧＡＴＡ株式会社（8020001016184）に合併し解散,2015-10-05,1,,,,,ヤマガタインテック,0
2829,9011001073604,登記記録の閉鎖等,0,2023-01-12,2023-01-04,株式会社アクサム・サウンド・ブランディング,,株式会社,東京都,渋谷区,代々木４丁目４４番１号,,13,113,1510053,,,2023-01-04,清算の結了等,,,2015-10-05,1,,,,,アクサムサウンドブランディング,0
2879,9030001084642,登記記録の閉鎖等,0,2023-01-12,2023-01-04,株式会社クマガヤガス住設,,株式会社,埼玉県,熊谷市,鎌倉町７３番地,,11,202,3600046,,,2023-01-04,清算の結了等,,,2015-10-05,1,,,,,クマガヤガスジュウセツ,0
2921,9100003006298,登記記録の閉鎖等,0,2023-01-12,2023-01-05,ホシノマチテック合同会社,,合同会社,長野県,佐久市,下越２１６－１ホシノマチ団地Ｂ棟２０５,,20,217,3840414,,,2023-01-05,清算の結了等,,,2021-11-29,1,,,,,ホシノマチテック,0
2925,9110001028806,登記記録の閉鎖等,0,2023-01-12,2023-01-05,株式会社ハートマルシェ,,株式会社,新潟県,新潟市中央区,西湊町通３ノ町３３０５番地９,,15,103,9518026,,,2023-01-05,清算の結了等,,,2015-10-05,1,,,,,ハートマルシェ,0
2926,9110001036899,登記記録の閉鎖等,0,2023-01-12,2022-12-27,株式会社黒須鑑定,,株式会社,新潟県,新潟市中央区,上所１丁目９番２１号,,15,103,9500994,,,2022-12-27,清算の結了等,,,2022-08-17,1,,,,,クロスカンテイ,0
2929,9120001014631,登記記録の閉鎖等,0,2023-01-12,2023-01-10,北村興産株式会社,,株式会社,大阪府,大阪市鶴見区,今津北２丁目４番４８号,,27,124,5380041,,,2023-01-10,清算の結了等,,,2015-10-05,1,,,,,キタムラコウサン,0
2948,9122001002178,登記記録の閉鎖等,0,2023-01-12,2023-01-10,株式会社鴻池テイコク薬局,,株式会社,大阪府,東大阪市,鴻池元町８番９号,,27,227,5780974,,,2023-01-10,清算の結了等,,,2015-10-05,1,,,,,コウノイケテイコクヤッキョク,0
2955,9130005015749,登記記録の閉鎖等,0,2023-01-12,2022-12-28,税理士法人つむぎ,,その他の設立登記法人,京都府,城陽市,寺田袋尻１４－１,,26,207,6100121,,,2022-12-28,清算の結了等,,,2019-11-12,1,,,,,ツムギ,0
2958,9140001121673,登記記録の閉鎖等,0,2023-01-12,2023-01-05,ＧＥＮＲＩ株式会社,,株式会社,兵庫県,神戸市中央区,磯上通８丁目１番２９号カサベラビルＣ＆Ｍ４０３号室,,28,110,6510086,,,2023-01-05,清算の結了等,,,2021-05-21,1,,,,,ゲンリ,0
2966,9180001089841,登記記録の閉鎖等,0,2023-01-12,2022-12-21,株式会社三林,,株式会社,愛知県,名古屋市千種区,香流橋１丁目２番５２号,,23,101,4640002,,,2022-12-21,合併による解散等,7180001135176,令和４年１２月１２日愛知県春日井市中野町二丁目１５番地７株式会社サンライン（7180001135176）に合併し解散,2015-10-05,1,,,,,サンリン,0
2976,9180002089667,登記記録の閉鎖等,0,2023-01-12,2023-01-06,名岐三商事有限会社,,有限会社,愛知県,津島市,莪原町字郷西２２番地,,23,208,4960011,,,2023-01-06,清算の結了等,,,2015-10-05,1,,,,,ナギサショウジ,0
2986,9180302012898,登記記録の閉鎖等,0,2023-01-12,2023-01-10,有限会社大谷建具店,,有限会社,愛知県,豊川市,御油町五反１番地の５,,23,207,4410211,,,2023-01-10,清算の結了等,,,2015-10-05,1,,,,,オオタニタテグテン,0
2990,9190001003917,登記記録の閉鎖等,0,2023-01-12,2023-01-10,株式会社ちゅらさん,,株式会社,三重県,津市,久居東鷹跡町２５５番地２,,24,201,5141136,,,2023-01-10,清算の結了等,,,2015-10-05,1,,,,,チュラサン,0
2991,9190001007991,登記記録の閉鎖等,0,2023-01-12,2023-01-06,小林商運株式会社,,株式会社,三重県,志摩市,阿児町鵜方２３０番地２,,24,215,5170501,,,2023-01-06,清算の結了等,,,2015-10-05,1,,,,,コバヤシショウウン,0
3004,9220001007344,登記記録の閉鎖等,0,2023-01-12,2023-01-06,株式会社ユニオントゥラスト,,株式会社,石川県,金沢市,神田１丁目２３番６号,,17,201,9218027,,,2023-01-06,清算の結了等,,,2015-10-05,1,,,,,ユニオントゥラスト,0
3005,9230001008614,登記記録の閉鎖等,0,2023-01-12,2023-01-12,山田産業株式会社,,株式会社,富山県,南砺市,北川７７番地,,16,210,9320226,,,2023-01-12,登記官による閉鎖,,,2017-05-26,1,,,,,,0
3006,9230002007895,登記記録の閉鎖等,0,2023-01-12,2023-01-12,有限会社柳下工業,,有限会社,富山県,魚津市,江口９１８番地,,16,204,9370017,,,2023-01-12,登記官による閉鎖,,,2015-10-05,1,,,,,,0
3007,9230002010131,登記記録の閉鎖等,0,2023-01-12,2023-01-12,有限会社フアーストパンチング,,有限会社,富山県,小矢部市,西中野１６２番地の９,,16,209,9320035,,,2023-01-12,登記官による閉鎖,,,2015-10-05,1,,,,,,0
3009,9230005000732,登記記録の閉鎖等,0,2023-01-12,2023-01-12,富山県エスディーエス事業協同組合,,その他の設立登記法人,富山県,富山市,山室荒屋１５６番地の２,,16,201,9398022,,,2023-01-12,登記官による閉鎖,,,2015-10-05,1,,,,,,0
3017,9240005015242,登記記録の閉鎖等,0,2023-01-12,2023-01-10,Ａ・Ｉ税理士法人,,その他の設立登記法人,広島県,広島市中区,上八丁堀４番２８号松田ハイツ２０４号,,34,101,7300012,,,2023-01-10,清算の結了等,,,2021-07-19,1,,,,,アイ,0
3051,9350005005042,登記記録の閉鎖等,0,2023-01-12,2023-01-06,農事組合法人かねみの郷,,その他の設立登記法人,宮崎県,都城市,安久町４２１番地７,,45,202,8850044,,,2023-01-06,清算の結了等,,,2015-10-05,1,,,,,カネミノサト,0
3061,9370101001406,登記記録の閉鎖等,0,2023-01-12,2023-01-05,宮城マッカラー白石株式会社,,株式会社,宮城県,白石市,福岡長袋字高畑２１番地の４,,04,206,9890232,,,2023-01-05,清算の結了等,,,2015-10-05,1,,,,,ミヤギマッカラーシロイシ,0
3076,9470002001370,登記記録の閉鎖等,0,2023-01-12,2023-01-06,有限会社アーム・アイ,,有限会社,香川県,高松市,木太町４４１番地１１,,37,201,7600080,,,2023-01-06,合併による解散等,6470001000269,令和４年１２月３１日香川県高松市木太町４４１番地１１株式会社アオキ（6470001000269）に合併し解散,2015-10-05,1,,,,,アームアイ,0
3078,9480005005525,登記記録の閉鎖等,0,2023-01-12,2023-01-05,三好液化石油ガス保安調査事業協同組合,,その他の設立登記法人,徳島県,三好郡東みよし町,加茂１８０６－６,,36,489,7794701,,,2023-01-05,清算の結了等,,,2015-10-05,1,,,,,ミヨシエキカセキユガスホアンチョウサ,0
