sequenceNumber,corporateNumber,process,correct,updateDate,changeDate,name,nameImageId,kind,prefectureName,cityName,streetNumber,addressImageId,prefectureCode,cityCode,postCode,addressOutside,addressOutsideImageId,closeDate,closeCause,successorCorporateNumber,changeCause,assignmentDate,latest,enName,enPrefectureName,enCityName,enAddressOutside,furigana,hihyoji
3,1010001218003,登記記録の閉鎖等,0,2024-10-01,2024-09-17,ＳＥホールディングス株式会社,,株式会社,東京都,千代田区,平河町２丁目１６番１号平河町森タワー１０階,,13,101,1020093,,,2024-09-17,清算の結了等,,,2021-05-13,1,,,,,エスイーホールディングス,0
6,1010001229891,登記記録の閉鎖等,0,2024-10-01,2024-09-24,株式会社ＳＩＧＮＥＴ,,株式会社,東京都,千代田区,麹町５丁目３番地麹町秋山ビルディング７階,,13,101,1020083,,,2024-09-24,合併による解散等,9010402030890,令和６年９月１日東京都港区南青山三丁目１０番３０号株式会社ＳＩＧＮＥＴ（9010402030890）に合併し解散,2022-10-05,1,,,,,シグネット,0
7,1010001235337,登記記録の閉鎖等,0,2024-10-01,2024-09-17,株式会社ナースタイム,,株式会社,東京都,中央区,日本橋茅場町２丁目８－１ＢＲＩＣＫＧＡＴＥ茅場町８階,,13,102,1030025,,,2024-09-17,清算の結了等,,,2023-05-17,1,,,,,ナースタイム,0
20,1010601050020,登記記録の閉鎖等,0,2024-10-01,2024-09-27,株式会社カピエ,,株式会社,神奈川県,逗子市,小坪４丁目２０番１号,,14,208,2490008,,,2024-09-27,清算の結了等,,,2016-07-12,1,,,,,カピエ,0
46,1011401020857,登記記録の閉鎖等,0,2024-10-01,2024-09-24,株式会社ＭＯＳＱＩＩＩＴ,,株式会社,東京都,豊島区,東池袋３丁目１１番９号,,13,116,1700013,,,2024-09-24,清算の結了等,,,2018-03-06,1,,,,,モスキート,0
54,1012401007233,登記記録の閉鎖等,0,2024-10-01,2024-09-26,アドヴァンスコーポレーション株式会社,,株式会社,東京都,調布市,上石原２丁目３１番地１,,13,208,1820035,,,2024-09-26,合併による解散等,6030001066965,令和６年９月１日埼玉県北葛飾郡松伏町築比地７９５番地１株式会社ウィーズ（6030001066965）に合併し解散,2015-10-05,1,,,,,アドヴァンスコーポレーション,0
57,1012702006306,登記記録の閉鎖等,0,2024-10-01,2024-09-19,有限会社海老沢鉄工,,有限会社,東京都,東久留米市,南沢３丁目１２番３５号,,13,222,2030023,,,2024-09-19,清算の結了等,,,2015-10-05,1,,,,,エビサワテッコウ,0
58,1012702009597,登記記録の閉鎖等,0,2024-10-01,2024-09-20,有限会社東石,,有限会社,東京都,東久留米市,学園町１丁目７番１５号,,13,222,2030021,,,2024-09-20,清算の結了等,,,2015-10-05,1,,,,,トウセキ,0
60,1013301049761,登記記録の閉鎖等,0,2024-10-01,2024-09-19,株式会社３００,,株式会社,東京都,豊島区,池袋２丁目１７番８号天翔池袋西口ＡＮＮＥＸビル２０３－Ａ,,13,116,1710014,,,2024-09-19,清算の結了等,,,2022-10-05,1,,,,,サンビャク,0
63,1013302015960,登記記録の閉鎖等,0,2024-10-01,2024-09-24,有限会社エコ・クリーン,,有限会社,東京都,豊島区,東池袋２丁目６３番１号,,13,116,1700013,,,2024-09-24,清算の結了等,,,2015-10-05,1,,,,,,0
66,1020001063869,登記記録の閉鎖等,0,2024-10-01,2024-09-12,株式会社エステー技研,,株式会社,神奈川県,川崎市多摩区,宿河原３丁目１７番１号,,14,135,2140021,,,2024-09-12,清算の結了等,,,2015-10-05,1,,,,,エステーギケン,0
84,1030002060369,登記記録の閉鎖等,0,2024-10-01,2024-09-24,有限会社三丸屋,,有限会社,埼玉県,志木市,柏町３丁目７番１１号,,11,228,3530007,,,2024-09-24,清算の結了等,,,2015-10-05,1,,,,,ミマルヤ,0
91,1030002075870,登記記録の閉鎖等,0,2024-10-01,2024-09-24,有限会社共和解体,,有限会社,埼玉県,入間郡三芳町,大字上富１２０４番地２,,11,324,3540045,,,2024-09-24,清算の結了等,,,2015-10-05,1,,,,,キョウワカイタイ,0
121,1080102002976,登記記録の閉鎖等,0,2024-10-01,2024-09-26,有限会社ピービーグループ,,有限会社,静岡県,沼津市,東椎路２８１番地の２,,22,203,4100302,,,2024-09-26,清算の結了等,,,2015-10-05,1,,,,,ピービーグループ,0
122,1080102018403,登記記録の閉鎖等,0,2024-10-01,2024-09-25,有限会社チバ綜合消毒,,有限会社,静岡県,熱海市,上多賀１０５２番地の６４,,22,205,4130101,,,2024-09-25,清算の結了等,,,2015-10-05,1,,,,,チバソウゴウショウドク,0
131,1100002023871,登記記録の閉鎖等,0,2024-10-01,2024-09-19,有限会社内匠,,有限会社,長野県,松本市,市場４番４号,,20,202,3990004,,,2024-09-19,清算の結了等,,,2015-10-05,1,,,,,ナイショウ,0
161,1130003008753,登記記録の閉鎖等,0,2024-10-01,2024-09-30,Ｆｒａｇｍｅｎｔｓｈｉｐ合同会社,,合同会社,京都府,京都市下京区,朱雀宝蔵町４４番地協栄ビル２階京都朱雀スタジオ,,26,106,6008846,,,2024-09-30,清算の結了等,,,2023-05-24,1,,,,,フラグメントシップ,0
175,1180002032353,登記記録の閉鎖等,0,2024-10-01,2024-09-18,有限会社野村商事,,有限会社,愛知県,名古屋市中区,松原２丁目２０番６号プリンスハイツ松原８０１号,,23,106,4600017,,,2024-09-18,清算の結了等,,,2015-10-05,1,,,,,ノムラショウジ,0
180,1180005018564,登記記録の閉鎖等,0,2024-10-01,2024-09-26,特定非営利活動法人リンネル日進,,その他の設立登記法人,愛知県,日進市,東山７丁目１５０３番地,,23,230,4700116,,,2024-09-26,清算の結了等,,,2019-12-10,1,,,,,リンネルニッシン,0
191,1190001000995,登記記録の閉鎖等,0,2024-10-01,2024-09-27,松澤精工株式会社,,株式会社,三重県,津市,高茶屋６丁目８番１９号,,24,201,5140819,,,2024-09-27,清算の結了等,,,2015-10-05,1,,,,,マツザワセイコウ,0
206,1270001000475,登記記録の閉鎖等,0,2024-10-01,2024-09-27,株式会社東燃,,株式会社,鳥取県,鳥取市,吉方２０８番地,,31,201,6800842,,,2024-09-27,清算の結了等,,,2015-10-05,1,,,,,トウネン,0
220,1320003001730,登記記録の閉鎖等,0,2024-10-01,2024-09-24,合同会社Ｏｇｏｓｓｏ国東,,合同会社,大分県,国東市,安岐町油留木３５８６番地,,44,214,8730207,,,2024-09-24,清算の結了等,,,2015-10-05,1,,,,,,0
221,1330002022388,登記記録の閉鎖等,0,2024-10-01,2024-09-24,有限会社岱北農園,,有限会社,熊本県,玉名郡南関町,大字下坂下４０２５番地,,43,367,8610821,,,2024-09-24,清算の結了等,,,2015-10-05,1,,,,,タイホクノウエン,0
224,1340002017809,登記記録の閉鎖等,0,2024-10-01,2024-09-27,共栄水産有限会社,,有限会社,鹿児島県,いちき串木野市,本浜町２０９番地,,46,219,8960042,,,2024-09-27,清算の結了等,,,2015-10-05,1,,,,,,0
226,1350002017758,登記記録の閉鎖等,0,2024-10-01,2024-09-25,有限会社貸本ひかり,,有限会社,宮崎県,小林市,北西方７１８５番地１,,45,205,8860006,,,2024-09-25,清算の結了等,,,2015-10-05,1,,,,,カシホンヒカリ,0
227,1350003000011,登記記録の閉鎖等,0,2024-10-01,2024-09-24,合名会社井上商会,,合名会社,宮崎県,宮崎市,大字熊野３５９番地１,,45,201,8892151,,,2024-09-24,清算の結了等,,,2015-10-05,1,,,,,イノウエショウカイ,0
228,1360002019225,登記記録の閉鎖等,0,2024-10-01,2024-09-26,有限会社沖縄高等学院,,有限会社,沖縄県,宜野湾市,嘉数１丁目１０番８号,,47,205,9012226,,,2024-09-26,清算の結了等,,,2015-10-05,1,,,,,オキナワコウトウガクイン,0
245,1500001013908,登記記録の閉鎖等,0,2024-10-01,2024-09-27,ジャストフィールド株式会社,,株式会社,愛媛県,松山市,天山１丁目１４番２８号リビエール天山２０３,,38,201,7900951,,,2024-09-27,清算の結了等,,,2015-10-05,1,,,,,ジャストフィールド,0
257,2010401168648,登記記録の閉鎖等,0,2024-10-01,2024-09-04,株式会社ｒｅｗａｒｄ,,株式会社,東京都,港区,新橋５丁目３３番８号,,13,103,1050004,,,2024-09-04,清算の結了等,,,2022-07-20,1,,,,,リワード,0
264,2010403024808,登記記録の閉鎖等,0,2024-10-01,2024-09-03,合同会社エムエル・ツルヤチョウ,,合同会社,東京都,港区,赤坂２丁目１０番５号税理士法人赤坂国際会計事務所内,,13,103,1070052,,,2024-09-03,清算の結了等,,,2021-03-04,1,,,,,エムエルツルヤチョウ,0
272,2010901027790,登記記録の閉鎖等,0,2024-10-01,2024-09-27,株式会社ルフト,,株式会社,東京都,世田谷区,新町３丁目２８番１１号,,13,112,1540014,,,2024-09-27,合併による解散等,1011001067852,令和６年９月１日東京都渋谷区神宮前六丁目３５番３号コープオリンピア５１９株式会社第二建材社（1011001067852）に合併し解散,2015-10-05,1,,,,,ルフト,0
286,2011003017631,登記記録の閉鎖等,0,2024-10-01,2024-09-04,合同会社ｒｅｊｏｙｃｅ,,合同会社,東京都,渋谷区,神泉町１０番１５号アネックス神泉３０１,,13,113,1500045,,,2024-09-04,清算の結了等,,,2023-10-02,1,,,,,リジョイス,0
289,2011005010023,登記記録の閉鎖等,0,2024-10-01,2024-09-04,一般社団法人ゲーム・アニメ・イラストレーション協会,,その他の設立登記法人,東京都,渋谷区,幡ヶ谷２丁目９番１１号幡ヶ谷ＤＫビル２Ｆ,,13,113,1510072,,,2024-09-04,清算の結了等,,,2023-04-11,1,,,,,ゲームアニメイラストレーションキョウカイ,0
291,2011101005323,登記記録の閉鎖等,0,2024-10-01,2024-09-20,キャンシステム株式会社,,株式会社,東京都,品川区,上大崎３丁目１番１号,,13,109,1410021,,,2024-09-20,合併による解散等,8010401132177,令和６年９月１日東京都品川区上大崎三丁目１番１号株式会社ＵＳＥＮ（8010401132177）に合併し解散,2015-10-05,1,,,,,キャンシステム,0
302,2011801000301,登記記録の閉鎖等,0,2024-10-01,2024-09-24,株式会社飯塚商店,00056892,株式会社,東京都,葛飾区,堀切４丁目６１番１０号,,13,122,1240006,,,2024-09-24,清算の結了等,,,2015-10-05,1,,,,,イイヅカショウテン,0
321,2030001056004,登記記録の閉鎖等,0,2024-10-01,2024-09-20,株式会社ビーエフエム,,株式会社,埼玉県,上尾市,大字地頭方字東谷５９１番地３,,11,219,3620051,,,2024-09-20,清算の結了等,,,2015-10-05,1,,,,,ビーエフエム,0
329,2030003018984,登記記録の閉鎖等,0,2024-10-01,2024-09-25,合同会社Ｋ＆Ｓコンサルティング,,合同会社,埼玉県,熊谷市,河原町１丁目２６プラスコート熊谷２０６号室,,11,202,3600035,,,2024-09-25,清算の結了等,,,2022-03-07,1,,,,,ケイアンドエスコンサルティング,0
334,2040001071142,登記記録の閉鎖等,0,2024-10-01,2024-09-25,株式会社かなぐや,,株式会社,千葉県,野田市,岩名２丁目１６番地の２０,,12,208,2780055,,,2024-09-25,清算の結了等,,,2015-10-05,1,,,,,カナグヤ,0
341,2040002060144,登記記録の閉鎖等,0,2024-10-01,2024-09-25,有限会社伸康ダイヤモンド工業,,有限会社,千葉県,成田市,本三里塚６９番地,,12,211,2860118,,,2024-09-25,清算の結了等,,,2015-10-05,1,,,,,シンコウダイヤモンドコウギョウ,0
348,2070001001253,登記記録の閉鎖等,0,2024-10-01,2024-09-27,小鮒建設株式会社,,株式会社,群馬県,前橋市,文京町３丁目３５番１２号,,10,201,3710801,,,2024-09-27,清算の結了等,,,2015-10-05,1,,,,,コブナケンセツ,0
349,2070001038849,登記記録の閉鎖等,0,2024-10-01,2024-09-26,ＧＫＢ株式会社,,株式会社,群馬県,高崎市,倉賀野町３２５０番地１２,,10,202,3701201,,,2024-09-26,清算の結了等,,,2022-01-17,1,,,,,ジーケービー,0
354,2080002011531,登記記録の閉鎖等,0,2024-10-01,2024-09-20,有限会社ヤスダヤ,,有限会社,静岡県,静岡市清水区,旭町３番２７号,,22,103,4240822,,,2024-09-20,清算の結了等,,,2015-10-05,1,,,,,ヤスダヤ,0
356,2080102021513,登記記録の閉鎖等,0,2024-10-01,2024-09-25,有限会社藤原材木店,,有限会社,静岡県,賀茂郡南伊豆町,青市９１９番地,,22,304,4150151,,,2024-09-25,清算の結了等,,,2015-10-05,1,,,,,フジワラザイモクテン,0
361,2080405000503,登記記録の閉鎖等,0,2024-10-01,2024-09-20,浜松キャドサービス協同組合,,その他の設立登記法人,静岡県,浜松市中央区,曳馬５丁目２３番４０号,,22,138,4300901,,,2024-09-20,清算の結了等,,,2015-10-05,1,,,,,ハママツキャドサービス,0
365,2100002024225,登記記録の閉鎖等,0,2024-10-01,2024-09-19,有限会社わたべ,,有限会社,長野県,安曇野市,穂高４３６１番地,,20,220,3998303,,,2024-09-19,清算の結了等,,,2015-10-05,1,,,,,ワタベ,0
379,2120002005421,登記記録の閉鎖等,0,2024-10-01,2024-09-27,有限会社小林商店,,有限会社,大阪府,大阪市東住吉区,今林２丁目２８番２６,,27,121,5460001,,,2024-09-27,清算の結了等,,,2015-10-05,1,,,,,コバヤシショウテン,0
383,2120002079580,登記記録の閉鎖等,0,2024-10-01,2024-09-20,有限会社協和工芸,,有限会社,大阪府,門真市,四宮４丁目５番１号,,27,223,5710017,,,2024-09-20,清算の結了等,,,2015-10-05,1,,,,,キョウワコウゲイ,0
385,2120003021715,登記記録の閉鎖等,0,2024-10-01,2024-09-19,Ｎｅｔｗｏｒｋ　Ｅｄｕｃａｔｉｏｎｓ合同会社,,合同会社,大阪府,守口市,佐太中町２丁目７－２７－９１０,,27,209,5700002,,,2024-09-19,清算の結了等,,,2022-05-23,1,,,,,ネットワークエディケーションズ,0
403,2140001034295,登記記録の閉鎖等,0,2024-10-01,2024-09-24,エレガントライフ株式会社,,株式会社,兵庫県,神戸市西区,井吹台西町５丁目６番地の５,,28,111,6512243,,,2024-09-24,清算の結了等,,,2015-10-05,1,,,,,エレガントライフ,0
422,2180301003905,登記記録の閉鎖等,0,2024-10-01,2024-09-24,株式会社ｏｌｉｖｅ,,株式会社,愛知県,岡崎市,鴨田町字広元１７２番地１,,23,202,4442121,,,2024-09-24,清算の結了等,,,2015-10-05,1,,,,,オリーブ,0
424,2180302007987,登記記録の閉鎖等,0,2024-10-01,2024-09-25,有限会社杉原測量設計,,有限会社,愛知県,豊橋市,飯村北４丁目１１番地の８,,23,201,4400834,,,2024-09-25,清算の結了等,,,2015-10-05,1,,,,,スギハラソクリョウセッケイ,0
425,2190002018516,登記記録の閉鎖等,0,2024-10-01,2024-09-27,有限会社センジュフィナンシャル,,有限会社,三重県,桑名市,多度町平古５５番地,,24,205,5110111,,,2024-09-27,清算の結了等,,,2015-10-05,1,,,,,センジュフィナンシャル,0
443,2290803003012,登記記録の閉鎖等,0,2024-10-01,2024-09-11,合名会社恵,,合名会社,福岡県,行橋市,泉中央１丁目１４番１５号,,40,213,8240034,,,2024-09-11,合併による解散等,6290803003132,令和６年９月１日福岡県行橋市泉中央一丁目１４番１５号合名会社和（6290803003132）に合併し解散,2017-10-30,1,,,,,メグミ,0
451,2320005007502,登記記録の閉鎖等,0,2024-10-01,2024-09-26,農事組合法人わいわい元気村,,その他の設立登記法人,大分県,玖珠郡玖珠町,大字戸畑字山中３４７２番地,,44,462,8794331,,,2024-09-26,清算の結了等,,,2015-10-05,1,,,,,ワイワイゲンキムラ,0
471,2390002009775,登記記録の閉鎖等,0,2024-10-01,2024-09-19,丸栄工務有限会社,,有限会社,山形県,鶴岡市,中京田乙５６番地,,06,203,9970009,,,2024-09-19,清算の結了等,,,2015-10-05,1,,,,,マルエイコウム,0
501,3010402021813,登記記録の閉鎖等,0,2024-10-01,2024-09-05,有限会社テクノリエゾン,,有限会社,東京都,港区,芝３丁目２１番１０－３０３号,,13,103,1050014,,,2024-09-05,清算の結了等,,,2015-10-05,1,,,,,テクノリエゾン,0
541,3011701021636,登記記録の閉鎖等,0,2024-10-01,2024-09-24,日越リンク株式会社,,株式会社,東京都,豊島区,北大塚２丁目８番１２号オリエンタル大塚コーポラス４０１号,,13,116,1700004,,,2024-09-24,清算の結了等,,,2018-03-28,1,,,,,ニチエツリンク,0
550,3012702004118,登記記録の閉鎖等,0,2024-10-01,2024-09-20,有限会社機工メルテック,,有限会社,東京都,西東京市,東伏見４丁目１番１号,,13,229,2020021,,,2024-09-20,清算の結了等,,,2015-10-05,1,,,,,キコウメルテック,0
561,3020001146721,登記記録の閉鎖等,0,2024-10-01,2024-09-12,株式会社ＬａＶｉｅＥｎＲｏｓｅ,,株式会社,神奈川県,横浜市神奈川区,神大寺３丁目４番７－３０３号,,14,102,2210801,,,2024-09-12,清算の結了等,,,2022-06-03,1,,,,,ラヴィアンローズ,0
568,3030001028134,登記記録の閉鎖等,0,2024-10-01,2024-09-20,株式会社ビクタス,,株式会社,埼玉県,入間市,大字上藤沢２６２番地１,,11,225,3580013,,,2024-09-20,清算の結了等,,,2015-10-05,1,,,,,ビクタス,0
598,3080102006505,登記記録の閉鎖等,0,2024-10-01,2024-09-26,有限会社太陽リネンシステム,,有限会社,静岡県,沼津市,大平２０９８番地の１５,,22,203,4100821,,,2024-09-26,清算の結了等,,,2015-10-05,1,,,,,タイヨウリネンシステム,0
605,3110003004117,登記記録の閉鎖等,0,2024-10-01,2024-09-20,ＫＡＮＧ　ＣＯＲＰＯＲＡＴＩＯＮ合同会社,,合同会社,新潟県,燕市,小高６５２－４,,15,213,9591241,,,2024-09-20,清算の結了等,,,2020-03-04,1,,,,,カンコーポレーション,0
621,3130001019395,登記記録の閉鎖等,0,2024-10-01,2024-09-30,京都魚類特別消費株式会社,,株式会社,京都府,京都市下京区,朱雀分木町８０番地京都市中央卸売市場第一市場内鮮魚部４９号,,26,106,6008847,,,2024-09-30,清算の結了等,,,2015-10-05,1,,,,,キョウトギョルイトクベツショウヒ,0
622,3130001031607,登記記録の閉鎖等,0,2024-10-01,2024-09-27,株式会社フューチャー,,株式会社,京都府,京都市北区,紫野下御輿町２８番地１創彩ビル３Ｆ,,26,101,6038235,,,2024-09-27,清算の結了等,,,2015-10-05,1,,,,,,0
623,3130001049863,登記記録の閉鎖等,0,2024-10-01,2024-09-30,株式会社ＬＡＢＯＬＵＴＩＯＮ,,株式会社,京都府,向日市,森本町下森本４７番地の１１０,,26,208,6170003,,,2024-09-30,清算の結了等,,,2015-10-05,1,,,,,,0
624,3130001059425,登記記録の閉鎖等,0,2024-10-01,2024-09-30,株式会社松任工業,,株式会社,京都府,八幡市,八幡小松１６番地の３２,,26,210,6148035,,,2024-09-30,清算の結了等,,,2017-03-16,1,,,,,,0
634,3160002005755,登記記録の閉鎖等,0,2024-10-01,2024-09-27,有限会社大裕急送,,有限会社,滋賀県,甲賀市,土山町北土山９３３番地４２,,25,209,5280211,,,2024-09-27,清算の結了等,,,2015-10-05,1,,,,,ダイユウキュウソウ,0
635,3170001000285,登記記録の閉鎖等,0,2024-10-01,2024-09-30,株式会社岩橋設計,,株式会社,和歌山県,和歌山市,中之島１６７２番地,,30,201,6408392,,,2024-09-30,清算の結了等,,,2015-10-05,1,,,,,イワハシセッケイ,0
652,3200001009232,登記記録の閉鎖等,0,2024-10-01,2024-09-30,株式会社ヒューマンネット,,株式会社,岐阜県,瑞穂市,生津外宮東町１丁目４８番地,,21,216,5010214,,,2024-09-30,清算の結了等,,,2015-10-05,1,,,,,ヒューマンネット,0
655,3200001030254,登記記録の閉鎖等,0,2024-10-01,2024-09-30,株式会社エム興業,,株式会社,岐阜県,高山市,下之切町１３９番地２０,,21,203,5060046,,,2024-09-30,清算の結了等,,,2015-10-05,1,,,,,エムコウギョウ,0
656,3210001011848,登記記録の閉鎖等,0,2024-10-01,2024-09-13,株式会社日栄建設,,株式会社,福井県,越前市,今宿町第２７号３番地の２,,18,209,9150861,,,2024-09-13,清算の結了等,,,2023-04-06,1,,,,,ニチエイケンセツ,0
657,3230001007159,登記記録の閉鎖等,0,2024-10-01,2024-09-27,新川建興株式会社,,株式会社,富山県,魚津市,東山３８９番地１,,16,204,9370015,,,2024-09-27,清算の結了等,,,2015-10-05,1,,,,,ニイカワケンコウ,0
658,3230001011680,登記記録の閉鎖等,0,2024-10-01,2024-09-26,株式会社藤岡建設,,株式会社,富山県,氷見市,窪２１２１番地,,16,205,9350024,,,2024-09-26,清算の結了等,,,2015-10-05,1,,,,,フジオカケンセツ,0
659,3230003001374,登記記録の閉鎖等,0,2024-10-01,2024-09-27,合同会社コレナノ,,合同会社,富山県,富山市,安野屋町１丁目２番１３号,,16,201,9300087,,,2024-09-27,清算の結了等,,,2019-10-03,1,,,,,コレナノ,0
663,3250002001010,登記記録の閉鎖等,0,2024-10-01,2024-09-24,有限会社ツーエイチプランニング,,有限会社,山口県,山口市,熊野町３番１－１２号,,35,203,7530077,,,2024-09-24,清算の結了等,,,2015-10-05,1,,,,,ツーエイチプランニング,0
680,3310001008181,登記記録の閉鎖等,0,2024-10-01,2024-09-30,株式会社村川蒲鉾,,株式会社,長崎県,諫早市,有喜町２４８番地,,42,204,8540121,,,2024-09-30,清算の結了等,,,2015-10-05,1,,,,,ムラカワカマボコ,0
696,3370001005875,登記記録の閉鎖等,0,2024-10-01,2024-09-17,花本商研株式会社,,株式会社,宮城県,仙台市宮城野区,安養寺１丁目９番１０号,,04,102,9830832,,,2024-09-17,清算の結了等,,,2015-10-05,1,,,,,ハナモトショウケン,0
697,3370001049880,登記記録の閉鎖等,0,2024-10-01,2024-09-13,株式会社ＴＭＫ,,株式会社,宮城県,仙台市宮城野区,原町５丁目１２－１７Ｔ‘ｓハウスＩＶ１０２号,00130566,04,102,9830841,,,2024-09-13,清算の結了等,,,2023-04-25,1,,,,,ティーエムケイ,0
700,3380001022647,登記記録の閉鎖等,0,2024-10-01,2024-09-13,株式会社エムズメディカル,,株式会社,福島県,いわき市,常磐関船町１丁目１０番地の２,,07,204,9728318,,,2024-09-13,清算の結了等,,,2015-10-05,1,,,,,エムズメディカル,0
709,3460401001218,登記記録の閉鎖等,0,2024-10-01,2024-09-27,ペケレ株式会社,,株式会社,北海道,根室市,花咲港２４０番地７,,01,223,0870032,,,2024-09-27,清算の結了等,,,2021-02-09,1,,,,,ペケレ,0
714,3500002002420,登記記録の閉鎖等,0,2024-10-01,2024-09-26,有限会社窪田冨建設,,有限会社,愛媛県,松山市,恵原町甲６５２番地,,38,201,7911134,,,2024-09-26,清算の結了等,,,2015-10-05,1,,,,,クボタトミケンセツ,0
715,3500003003161,登記記録の閉鎖等,0,2024-10-01,2024-09-04,ベクターエネルギー久万高原バイオマス合同会社,,合同会社,東京都,港区,芝公園３丁目４番３０号,,13,103,1050011,,,2024-09-04,清算の結了等,,,2023-12-25,1,,,,,ベクターエネルギークマコウゲンバイオマス,0
723,4010003021484,登記記録の閉鎖等,0,2024-10-01,2024-09-13,ＳＳＪメガソーラー８８合同会社,,合同会社,東京都,千代田区,神田三崎町２丁目４番１号ＴＵＧ－Ｉビル９Ｆ,,13,101,1010061,,,2024-09-13,清算の結了等,,,2015-10-05,1,,,,,エスエスジェイメガソーラーハチジュウハチ,0
726,4010401122132,登記記録の閉鎖等,0,2024-10-01,2024-09-04,株式会社Ｃｒｏｗｄ　Ｃａｐｉｔａｌ,,株式会社,東京都,港区,東新橋２丁目９番７号ＹＡＨＡＴＡ汐留ビル３Ｆ,,13,103,1050021,,,2024-09-04,清算の結了等,,,2015-12-18,1,,,,,,0
729,4010401144011,登記記録の閉鎖等,0,2024-10-01,2024-09-03,プレストン株式会社,,株式会社,東京都,港区,新橋４丁目３０番６号京急中はらビル５階,,13,103,1050004,,,2024-09-03,清算の結了等,,,2019-02-27,1,,,,,プレストン,0
731,4010401153672,登記記録の閉鎖等,0,2024-10-01,2024-09-04,株式会社インフォメーションテクノロジー,,株式会社,東京都,港区,北青山３丁目１１番７号ＡＯビル８階,,13,103,1070061,,,2024-09-04,清算の結了等,,,2020-07-02,1,,,,,インフォメーションテクノロジー,0
733,4010401174264,登記記録の閉鎖等,0,2024-10-01,2024-09-04,ＩＥＮＡ　ＪＡＰＡＮ株式会社,,株式会社,東京都,港区,南青山４丁目１６番１１号,,13,103,1070062,,,2024-09-04,清算の結了等,,,2023-05-10,1,,,,,イエナジャパン,0
760,4011101080447,登記記録の閉鎖等,0,2024-10-01,2024-09-18,ＮＧＣ株式会社,,株式会社,東京都,新宿区,新宿２丁目２番７号,,13,104,1600022,,,2024-09-18,清算の結了等,,,2017-05-09,1,,,,,エヌジーシー,0
764,4011105003908,登記記録の閉鎖等,0,2024-10-01,2024-09-25,特定非営利活動法人エコツーリズム・ネットワーク・ジャパン,,その他の設立登記法人,埼玉県,さいたま市見沼区,深作３丁目３６番地１９,,11,104,3370003,,,2024-09-25,清算の結了等,,,2015-10-05,1,,,,,エコツーリズムネットワークジャパン,0
768,4011601002314,登記記録の閉鎖等,0,2024-10-01,2024-09-24,株式会社近藤モータース,,株式会社,東京都,練馬区,石神井町２丁目１３番２１号,,13,120,1770041,,,2024-09-24,清算の結了等,,,2015-10-05,1,,,,,コンドウモータース,0
769,4011601011901,登記記録の閉鎖等,0,2024-10-01,2024-09-26,株式会社メディカルパーク,,株式会社,大阪府,大東市,赤井２丁目１番２１号,,27,218,5740046,,,2024-09-26,合併による解散等,6030001066965,令和６年９月１日埼玉県北葛飾郡松伏町築比地７９５番地１株式会社ウィーズ（6030001066965）に合併し解散,2015-10-05,1,,,,,メディカルパーク,0
797,4030002029155,登記記録の閉鎖等,0,2024-10-01,2024-09-17,有限会社コーザイ,,有限会社,埼玉県,所沢市,大字南永井１０１７番地,,11,208,3590011,,,2024-09-17,清算の結了等,,,2015-10-05,1,,,,,コーザイ,0
815,4070002021678,登記記録の閉鎖等,0,2024-10-01,2024-09-26,有限会社武昌,,有限会社,群馬県,伊勢崎市,新栄町４０７３番地１２,,10,204,3720038,,,2024-09-26,清算の結了等,,,2015-10-05,1,,,,,タケマサ,0
817,4070005005934,登記記録の閉鎖等,0,2024-10-01,2024-09-25,群馬県酪農業協同組合連合会,,その他の設立登記法人,群馬県,太田市,新田市野井町７４１番地１,,10,205,3700314,,,2024-09-25,清算の結了等,,,2015-10-05,1,,,,,グンマケンラク,0
819,4080002017238,登記記録の閉鎖等,0,2024-10-01,2024-09-20,有限会社秋山製作所,,有限会社,静岡県,藤枝市,田中２丁目３番７号,,22,214,4260012,,,2024-09-20,清算の結了等,,,2015-10-05,1,,,,,アキヤマセイサクショ,0
854,4130001059944,登記記録の閉鎖等,0,2024-10-01,2024-09-27,株式会社ＦＫＡＩＲ,,株式会社,徳島県,阿南市,黒津地町山下５番地１,,36,204,7740006,,,2024-09-27,清算の結了等,,,2017-06-09,1,,,,,エフケアー,0
860,4130005011538,登記記録の閉鎖等,0,2024-10-01,2024-09-24,舞鶴ドライクリーニング協同組合,,その他の設立登記法人,京都府,舞鶴市,南浜町９番地の１２,,26,202,6250057,,,2024-09-24,清算の結了等,,,2015-10-05,1,,,,,マイヅルドライクリーニング,0
862,4140001107826,登記記録の閉鎖等,0,2024-10-01,2024-09-25,株式会社Ｈｕｂｅｓｔ　Ｉｎｔｅｒｎａｔｉｏｎａｌ,,株式会社,兵庫県,川西市,萩原台西１丁目７０,,28,217,6660006,,,2024-09-25,清算の結了等,,,2017-10-16,1,,,,,ハベストインターナショナル,0
866,4170002004771,登記記録の閉鎖等,0,2024-10-01,2024-09-30,有限会社プロビデンスアート,,有限会社,和歌山県,和歌山市,六十谷１０４０番地の１６,,30,201,6408482,,,2024-09-30,清算の結了等,,,2015-10-05,1,,,,,プロビデンスアート,0
869,4180001069377,登記記録の閉鎖等,0,2024-10-01,2024-09-18,千曲工業株式会社,,株式会社,愛知県,豊明市,前後町鎗ケ名１８８３番地の８,,23,229,4701151,,,2024-09-18,清算の結了等,,,2015-10-05,1,,,,,チクマコウギョウ,0
875,4180002063610,登記記録の閉鎖等,0,2024-10-01,2024-09-17,有限会社山野カンパニー,,有限会社,愛知県,長久手市,片平１丁目１８０５番地緑陰小舎Ａ棟Ａ－３,,23,238,4801146,,,2024-09-17,清算の結了等,,,2015-10-05,1,,,,,ヤマノカンパニー,0
876,4180002075746,登記記録の閉鎖等,0,2024-10-01,2024-09-17,有限会社一方社一宮販売所,00073391,有限会社,愛知県,一宮市,八幡１丁目３番１号,,23,203,4910903,,,2024-09-17,清算の結了等,,,2015-10-05,1,,,,,イッポウシャイチノミヤハンバイジョ,0
892,4270001007113,登記記録の閉鎖等,0,2024-10-01,2024-09-26,三鷹投資株式会社,,株式会社,鳥取県,鳥取市,鹿野町今市２番地６,,31,201,6890425,,,2024-09-26,清算の結了等,,,2016-12-08,1,,,,,ミタカトウシ,0
900,4290802002657,登記記録の閉鎖等,0,2024-10-01,2024-09-30,有限会社更新,,有限会社,福岡県,北九州市小倉北区,上富野３丁目６番２０号,,40,106,8020022,,,2024-09-30,清算の結了等,,,2015-10-05,1,,,,,サラシン,0
912,4330003000794,登記記録の閉鎖等,0,2024-10-01,2024-09-24,合資会社本田米穀店,,合資会社,熊本県,熊本市中央区,新市街１３番２０号,,43,101,8600803,,,2024-09-24,清算の結了等,,,2015-10-05,1,,,,,ホンダベイコクテン,0
917,4400002001142,登記記録の閉鎖等,0,2024-10-01,2024-09-17,株式会社ヒガラ,,株式会社,東京都,千代田区,丸の内３丁目４番１号,,13,101,1000005,,,2024-09-17,清算の結了等,,,2015-10-05,1,,,,,ヒガラ,0
919,4460001001963,登記記録の閉鎖等,0,2024-10-01,2024-09-30,株式会社リバティ,,株式会社,北海道,釧路市,新富士町４丁目４番２号,,01,206,0840904,,,2024-09-30,清算の結了等,,,2015-10-05,1,,,,,リバティ,0
923,4480003001877,登記記録の閉鎖等,0,2024-10-01,2024-09-27,合同会社ＧＹＭ,,合同会社,徳島県,徳島市,富田橋１丁目３２－１松村ビル５０１,,36,201,7700937,,,2024-09-27,清算の結了等,,,2022-09-30,1,,,,,ジム,0
926,4490002012602,登記記録の閉鎖等,0,2024-10-01,2024-09-27,有限会社十市パークステーション管理組合,,有限会社,高知県,南国市,十市３５３５番地,,39,204,7830085,,,2024-09-27,清算の結了等,,,2015-10-05,1,,,,,トオチパークステーションカンリクミアイ,0
949,5010405011207,登記記録の閉鎖等,0,2024-10-01,2024-09-04,一般社団法人せとうち管財,,その他の設立登記法人,東京都,港区,港南２丁目１５番３号,,13,103,1080075,,,2024-09-04,清算の結了等,,,2015-10-05,1,,,,,セトウチカンザイ,0
950,5010602027303,登記記録の閉鎖等,0,2024-10-01,2024-09-30,有限会社丸井工芸社,,有限会社,東京都,墨田区,業平４丁目５番５号,,13,107,1300002,,,2024-09-30,清算の結了等,,,2015-10-05,1,,,,,マルイコウゲイシャ,0
963,5011101078300,登記記録の閉鎖等,0,2024-10-01,2024-09-18,株式会社テント,,株式会社,東京都,新宿区,早稲田南町９番地２１,,13,104,1620043,,,2024-09-18,清算の結了等,,,2016-09-27,1,,,,,テント,0
970,5011601006685,登記記録の閉鎖等,0,2024-10-01,2024-09-25,三富タイル株式会社,,株式会社,東京都,練馬区,豊玉上２丁目２６番１号,,13,120,1760011,,,2024-09-25,清算の結了等,,,2015-10-05,1,,,,,ミツトミタイル,0
977,5012302003625,登記記録の閉鎖等,0,2024-10-01,2024-09-26,有限会社肉の丸勝,,有限会社,東京都,町田市,鶴川４丁目１０番地１１,,13,209,1950061,,,2024-09-26,清算の結了等,,,2015-10-05,1,,,,,ニクノマルショウ,0
1002,5030001126456,登記記録の閉鎖等,0,2024-10-01,2024-09-20,株式会社トーケン・インベストメント,,株式会社,埼玉県,南埼玉郡宮代町,学園台１丁目５番３号,,11,442,3450826,,,2024-09-20,清算の結了等,,,2018-07-05,1,,,,,トーケンインベストメント,0
1018,5040003017495,登記記録の閉鎖等,0,2024-10-01,2024-09-24,カークルーズ合同会社,,合同会社,千葉県,松戸市,二十世紀が丘梨元町５２－１,,12,207,2710083,,,2024-09-24,清算の結了等,,,2021-04-12,1,,,,,カークルーズ,0
1022,5050001050217,登記記録の閉鎖等,0,2024-10-01,2024-09-19,株式会社メイト,,株式会社,茨城県,水戸市,見和３丁目１３２０番地の４,,08,201,3100911,,,2024-09-19,清算の結了等,,,2021-12-01,1,,,,,メイト,0
1037,5110001034510,登記記録の閉鎖等,0,2024-10-01,2024-09-20,株式会社ＨＯＫＫＥＮ,,株式会社,新潟県,新潟市中央区,京王１丁目１番１５号,,15,103,9500921,,,2024-09-20,清算の結了等,,,2019-12-27,1,,,,,ホッケン,0
1053,5120002058508,登記記録の閉鎖等,0,2024-10-01,2024-09-30,有限会社ＫＩＴＡＮＡＫＡ企画,,有限会社,大阪府,大阪市浪速区,幸町２丁目４番１２号,,27,111,5560021,,,2024-09-30,清算の結了等,,,2015-10-05,1,,,,,キタナカキカク,0
1061,5120103002059,登記記録の閉鎖等,0,2024-10-01,2024-09-27,合同会社ＧＨＣ,,合同会社,大阪府,大阪狭山市,東茱萸木２丁目８９７番地の２,00046987,27,231,5890012,,,2024-09-27,清算の結了等,,,2015-10-05,1,,,,,ジーエイチシー,0
1063,5130001010939,登記記録の閉鎖等,0,2024-10-01,2024-09-27,株式会社スプルト,,株式会社,京都府,京都市南区,東九条西河辺町４１番地３（野村京都南７１５）,,26,107,6018037,,,2024-09-27,清算の結了等,,,2015-10-05,1,,,,,スプルト,0
1079,5140005022574,登記記録の閉鎖等,0,2024-10-01,2024-09-27,特定非営利活動法人関西アジア親善協会,,その他の設立登記法人,兵庫県,芦屋市,西山町４番１０号,,28,206,6590083,,,2024-09-27,清算の結了等,,,2015-10-05,1,,,,,カンサイアジアシンゼンキョウカイ,0
1080,5140005025123,登記記録の閉鎖等,0,2024-10-01,2024-09-26,特定非営利活動法人Ｃａｔｓ共存会もふもふ,,その他の設立登記法人,兵庫県,宝塚市,野上５丁目１番２７号,,28,214,6650022,,,2024-09-26,清算の結了等,,,2020-04-20,1,,,,,キャツキョウゾンカイモフモフ,0
1089,5180003016665,登記記録の閉鎖等,0,2024-10-01,2024-09-17,合同会社Ｔプランニング,,合同会社,愛知県,名古屋市東区,明倫町２番４１号,,23,102,4610031,,,2024-09-17,清算の結了等,,,2015-10-30,1,,,,,ティープランニング,0
1093,5180005002283,登記記録の閉鎖等,0,2024-10-01,2024-09-25,学校法人法誓学園,,その他の設立登記法人,愛知県,名古屋市中川区,愛知町３１番１２号,,23,110,4540807,,,2024-09-25,清算の結了等,,,2015-10-05,1,,,,,ホウセイガクエン,0
1106,5200002004362,登記記録の閉鎖等,0,2024-10-01,2024-09-26,有限会社松森屋,,有限会社,岐阜県,岐阜市,金園町６丁目８番地,,21,201,5008113,,,2024-09-26,清算の結了等,,,2015-10-05,1,,,,,マツモリヤ,0
1107,5200002016688,登記記録の閉鎖等,0,2024-10-01,2024-09-30,有限会社吉田工業,,有限会社,岐阜県,加茂郡坂祝町,黒岩１４６６番地の１０５,,21,501,5050071,,,2024-09-30,清算の結了等,,,2015-10-05,1,,,,,ヨシダコウギョウ,0
1145,5340002027861,登記記録の閉鎖等,0,2024-10-01,2024-09-24,有限会社アクアグローブ,,有限会社,鹿児島県,志布志市,志布志町帖５９０８番地１,,46,221,8997102,,,2024-09-24,清算の結了等,,,2015-10-05,1,,,,,アクアグローブ,0
1154,5370002012902,登記記録の閉鎖等,0,2024-10-01,2024-09-13,有限会社針生駐車場,,有限会社,宮城県,仙台市青葉区,錦町１丁目１３番２３号,,04,101,9800012,,,2024-09-13,清算の結了等,,,2015-10-05,1,,,,,,0
1155,5370003004816,登記記録の閉鎖等,0,2024-10-01,2024-07-29,ＡｒｃＥＳＢ　Ｉｎｔｅｒｎａｔｉｏｎａｌ　Ｊａｐａｎ合同会社,,合同会社,宮城県,仙台市青葉区,中央１丁目６番２７号,,04,101,9800021,,,2024-07-29,清算の結了等,,,2020-05-19,1,,,,,アークイーエスビーインターナショナルジャパン,0
1166,5500001023036,登記記録の閉鎖等,0,2024-10-01,2024-09-26,株式会社階,,株式会社,愛媛県,今治市,別名３６４番地アンシャンテ１０３号,,38,202,7940065,,,2024-09-26,清算の結了等,,,2020-11-26,1,,,,,キザハシ,0
1168,5500005008207,登記記録の閉鎖等,0,2024-10-01,2024-09-26,一般社団法人マルホ技研,,その他の設立登記法人,愛媛県,松山市,道後北代９番５３号,,38,201,7900846,,,2024-09-26,清算の結了等,,,2020-07-22,1,,,,,マルホギケン,0
1178,6010401004510,登記記録の閉鎖等,0,2024-10-01,2024-09-03,エスアンドティーコンサルティング株式会社,,株式会社,東京都,港区,港南１丁目９番３６号アレア品川１３階,,13,103,1080075,,,2024-09-03,清算の結了等,,,2015-10-05,1,,,,,エスアンドティーコンサルティング,0
1183,6010401132179,登記記録の閉鎖等,0,2024-10-01,2024-09-20,株式会社ＵＳＥＮ　Ｍｅｄｉａ,,株式会社,東京都,品川区,上大崎３丁目１番１号,,13,109,1410021,,,2024-09-20,合併による解散等,8010401132177,令和６年９月１日東京都品川区上大崎三丁目１番１号株式会社ＵＳＥＮ（8010401132177）に合併し解散,2017-06-23,1,,,,,ユウセンメディア,0
1188,6010402010763,登記記録の閉鎖等,0,2024-10-01,2024-09-03,有限会社平井設計室,,有限会社,東京都,港区,三田４丁目１７番２５号,,13,103,1080073,,,2024-09-03,清算の結了等,,,2015-10-05,1,,,,,ヒライセッケイシツ,0
1191,6010405019455,登記記録の閉鎖等,0,2024-10-01,2024-09-03,一般社団法人エムエル・ツルヤチョウ,,その他の設立登記法人,東京都,港区,赤坂２丁目１０番５号税理士法人赤坂国際会計事務所内,,13,103,1070052,,,2024-09-03,清算の結了等,,,2021-02-03,1,,,,,エムエルツルヤチョウ,0
1205,6011003004873,登記記録の閉鎖等,0,2024-10-01,2024-09-04,クールクローズ・ネオ合同会社,,合同会社,東京都,渋谷区,代官山町２０番９号,,13,113,1500034,,,2024-09-04,清算の結了等,,,2015-10-05,1,,,,,クールクローズネオ,0
1216,6011301008808,登記記録の閉鎖等,0,2024-10-01,2024-09-04,株式会社エー・アンド・ビー・コンピュータ,,株式会社,東京都,港区,北青山３丁目１１番７号ＡＯビル８階,,13,103,1070061,,,2024-09-04,清算の結了等,,,2015-10-05,1,,,,,,0
1222,6011301018740,登記記録の閉鎖等,0,2024-10-01,2024-09-04,株式会社グローバルネットワーク,,株式会社,東京都,港区,北青山３丁目１１番７号ＡＯビル８階,,13,103,1070061,,,2024-09-04,清算の結了等,,,2015-10-05,1,,,,,グローバルネットワーク,0
1235,6012301013855,登記記録の閉鎖等,0,2024-10-01,2024-09-30,ティアンドティ・クリエイティブ株式会社,,株式会社,東京都,町田市,金井ヶ丘１丁目３８番９号,,13,209,1950076,,,2024-09-30,合併による解散等,6010401154974,令和６年９月１日東京都港区六本木四丁目１番４号ＳＯＬＰＡＣ　Ｇｒｏｕｐ株式会社（6010401154974）に合併し解散,2024-04-09,1,,,,,ティアンドティクリエイティブ,0
1238,6012801021498,登記記録の閉鎖等,0,2024-10-01,2024-09-24,株式会社リヴェリテ,,株式会社,東京都,国立市,東１丁目１５番地の１１、４４８ビル３Ｆ,,13,215,1860002,,,2024-09-24,清算の結了等,,,2022-04-06,1,,,,,リヴェリテ,0
1242,6013301033612,登記記録の閉鎖等,0,2024-10-01,2024-09-25,株式会社Ｋ２ｉｎｎｏｖａｔｉｏｎ,,株式会社,東京都,豊島区,高田３丁目５番３号,,13,116,1710033,,,2024-09-25,清算の結了等,,,2015-10-05,1,,,,,ケーツーイノベーション,0
1268,6030002032660,登記記録の閉鎖等,0,2024-10-01,2024-09-24,モテキ有限会社,,有限会社,埼玉県,所沢市,和ケ原１丁目３０３１番地８１,,11,208,3591162,,,2024-09-24,清算の結了等,,,2015-10-05,1,,,,,モテキ,0
1280,6040002008247,登記記録の閉鎖等,0,2024-10-01,2024-09-25,有限会社東洋メンテナンス,,有限会社,千葉県,千葉市花見川区,犢橋町１６１２番地の５８,,12,102,2620013,,,2024-09-25,清算の結了等,,,2015-10-05,1,,,,,トウヨウメンテナンス,0
1296,6080402004081,登記記録の閉鎖等,0,2024-10-01,2024-09-20,有限会社すしの大網,,有限会社,静岡県,浜松市中央区,平田町６８番地の１,,22,138,4328031,,,2024-09-20,清算の結了等,,,2015-10-05,1,,,,,スシノオオアミ,0
1299,6110002023791,登記記録の閉鎖等,0,2024-10-01,2024-09-24,有限会社惣塚新聞店,,有限会社,新潟県,上越市,頸城区西福島２２８番地２０,,15,222,9420147,,,2024-09-24,清算の結了等,,,2015-10-05,1,,,,,ソウヅカシンブンテン,0
1317,6130001048425,登記記録の閉鎖等,0,2024-10-01,2024-09-27,株式会社プラスアイ,,株式会社,京都府,京都市伏見区,竹田真幡木町１４９番地ジュネスコート１０２号,,26,109,6128427,,,2024-09-27,清算の結了等,,,2015-10-05,1,,,,,プラスアイ,0
1329,6140002014821,登記記録の閉鎖等,0,2024-10-01,2024-09-25,有限会社武本家具,,有限会社,兵庫県,神戸市中央区,八雲通２丁目２番３号,,28,110,6510078,,,2024-09-25,清算の結了等,,,2015-10-05,1,,,,,タケモトカグ,0
1337,6170001012410,登記記録の閉鎖等,0,2024-10-01,2024-09-26,株式会社エイチアイ,,株式会社,和歌山県,田辺市,あけぼの２９番１４号,,30,206,6460021,,,2024-09-26,清算の結了等,,,2015-10-05,1,,,,,エイチアイ,0
1359,6220002001506,登記記録の閉鎖等,0,2024-10-01,2024-09-20,有限会社エム・オー・ティー,,有限会社,石川県,金沢市,玉鉾３丁目２２２番地,,17,201,9218002,,,2024-09-20,清算の結了等,,,2015-10-05,1,,,,,エムオーティー,0
1365,6290001026852,登記記録の閉鎖等,0,2024-10-01,2024-09-25,シーウェル株式会社,,株式会社,福岡県,福岡市城南区,樋井川２丁目１番６２号,,40,136,8140153,,,2024-09-25,合併による解散等,9310001003508,令和６年９月１日長崎県西彼杵郡時津町日並郷３４５０番地１１株式会社ビーアイシーアジア（9310001003508）に合併し解散,2015-10-05,1,,,,,シーウェル,0
1389,6340001012112,登記記録の閉鎖等,0,2024-10-01,2024-09-30,いぶすき菜の花株式会社,,株式会社,鹿児島県,指宿市,湊２丁目１番３７号,,46,210,8910405,,,2024-09-30,清算の結了等,,,2015-10-05,1,,,,,イブスキナノハナ,0
1399,6380002008254,登記記録の閉鎖等,0,2024-10-01,2024-09-25,有限会社エム・ケイ・コーポレーション,,有限会社,福島県,郡山市,清水台１丁目８番１３号,,07,203,9638005,,,2024-09-25,清算の結了等,,,2015-10-05,1,,,,,,0
1400,6380002022354,登記記録の閉鎖等,0,2024-10-01,2024-09-25,有限会社イトウ,,有限会社,福島県,いわき市,中央台鹿島１丁目１６番地の１０,,07,204,9708043,,,2024-09-25,清算の結了等,,,2015-10-05,1,,,,,イトウ,0
1414,7010001188117,登記記録の閉鎖等,0,2024-10-01,2024-09-20,株式会社ＵＳＥＮ　ＷＯＲＫＩＮＧ,,株式会社,東京都,品川区,上大崎３丁目１番１号,,13,109,1410021,,,2024-09-20,合併による解散等,7010401049050,令和６年９月１日東京都品川区上大崎三丁目１番１号株式会社ＵＳＥＮ　ＷＯＲＫＩＮＧ（7010401049050）に合併し解散,2017-12-07,1,,,,,ユウセンワーキング,0
1426,7010101001781,登記記録の閉鎖等,0,2024-10-01,2024-09-25,株式会社秀和,,株式会社,東京都,八王子市,みつい台２丁目４番４号,,13,201,1920014,,,2024-09-25,清算の結了等,,,2015-10-05,1,,,,,シュウワ,0
1432,7010401121453,登記記録の閉鎖等,0,2024-10-01,2024-09-04,株式会社四葉,,株式会社,東京都,港区,南麻布３丁目２０番１号,,13,103,1060047,,,2024-09-04,清算の結了等,,,2015-11-11,1,,,,,シヨウ,0
1443,7010601046888,登記記録の閉鎖等,0,2024-10-01,2024-09-27,フィフナージャパン株式会社,,株式会社,東京都,江東区,亀戸１丁目１番６号,,13,108,1360071,,,2024-09-27,清算の結了等,,,2015-10-05,1,,,,,フィフナージャパン,0
1459,7011101057120,登記記録の閉鎖等,0,2024-10-01,2024-09-19,株式会社よしもとプロダクツ,,株式会社,東京都,新宿区,新宿５丁目１８番２１号,,13,104,1600022,,,2024-09-19,清算の結了等,,,2015-10-05,1,,,,,ヨシモトプロダクツ,0
1473,7012702000245,登記記録の閉鎖等,0,2024-10-01,2024-09-24,有限会社インテックス,,有限会社,東京都,小平市,小川町１丁目３４１番地,,13,211,1870032,,,2024-09-24,清算の結了等,,,2015-10-05,1,,,,,インテックス,0
1474,7012702013362,登記記録の閉鎖等,0,2024-10-01,2024-09-20,有限会社エヌエスサービス,,有限会社,東京都,小平市,上水南町３丁目１４番１６号,,13,211,1870021,,,2024-09-20,清算の結了等,,,2015-10-05,1,,,,,エヌエスサービス,0
1478,7020001088670,登記記録の閉鎖等,0,2024-10-01,2024-09-30,株式会社レプ・ユニット,,株式会社,東京都,調布市,深大寺北町６丁目１０番１号,,13,208,1820011,,,2024-09-30,清算の結了等,,,2015-10-05,1,,,,,レプユニット,0
1494,7030002111034,登記記録の閉鎖等,0,2024-10-01,2024-09-24,有限会社彩色堂,,有限会社,埼玉県,川口市,南鳩ヶ谷４丁目９番３号,,11,203,3340013,,,2024-09-24,清算の結了等,,,2015-10-05,1,,,,,サイショクドウ,0
1548,7150003002121,登記記録の閉鎖等,0,2024-10-01,2024-09-25,合同会社ＲＡＨＡ,,合同会社,奈良県,生駒市,軽井沢町１３番５号,,29,209,6300265,,,2024-09-25,清算の結了等,,,2020-03-31,1,,,,,ラハ,0
1555,7180302000921,登記記録の閉鎖等,0,2024-10-01,2024-09-25,有限会社河智電気設備,,有限会社,愛知県,岡崎市,赤渋町字蔵西６番地１２,,23,202,4440241,,,2024-09-25,清算の結了等,,,2015-10-05,1,,,,,カワチデンキセツビ,0
1581,7310001005480,登記記録の閉鎖等,0,2024-10-01,2024-09-30,株式会社相模原医療薬品,,株式会社,長崎県,佐世保市,天神町１８２４番地５,,42,202,8571175,,,2024-09-30,清算の結了等,,,2015-10-05,1,,,,,サガミハライリョウヤクヒン,0
1592,7350001006905,登記記録の閉鎖等,0,2024-10-01,2024-09-24,株式会社二幸建設,,株式会社,宮崎県,延岡市,宇和田町９８６番地,,45,203,8820084,,,2024-09-24,清算の結了等,,,2015-10-05,1,,,,,ニコウケンセツ,0
1595,7370001040035,登記記録の閉鎖等,0,2024-10-01,2024-09-20,株式会社大日本貿易,,株式会社,大阪府,大阪市淀川区,西中島６丁目３番２４号Ｔ４２２,,27,123,5320011,,,2024-09-20,清算の結了等,,,2016-07-28,1,,,,,ダイニホンボウエキ,0
1597,7370101001201,登記記録の閉鎖等,0,2024-10-01,2024-09-13,七ヶ宿観光開発株式会社,,株式会社,宮城県,刈田郡七ヶ宿町,字上野８番地１,,04,302,9890537,,,2024-09-13,清算の結了等,,,2015-10-05,1,,,,,シチカシュクカンコウカイハツ,0
1610,7470001007049,登記記録の閉鎖等,0,2024-10-01,2024-09-24,株式会社安田土建,,株式会社,香川県,木田郡三木町,大字平木１０９９番地３２,,37,341,7610702,,,2024-09-24,清算の結了等,,,2015-10-05,1,,,,,ヤスダドケン,0
1612,7470001011208,登記記録の閉鎖等,0,2024-10-01,2024-09-26,株式会社庵治石材商事,,株式会社,香川県,さぬき市,志度２６０１番地１,,37,206,7692101,,,2024-09-26,清算の結了等,,,2015-10-05,1,,,,,アジセキザイショウジ,0
1614,7480002016023,登記記録の閉鎖等,0,2024-10-01,2024-09-27,有限会社元木商事,,有限会社,徳島県,三好郡東みよし町,西庄字末石９８番地,,36,489,7794702,,,2024-09-27,清算の結了等,,,2015-10-05,1,,,,,モトキショウジ,0
1642,8010401180721,登記記録の閉鎖等,0,2024-10-01,2024-09-24,株式会社ＡＰ８０,,株式会社,東京都,港区,虎ノ門４丁目１番２８号虎ノ門タワーズオフィス１７階,,13,103,1050001,,,2024-09-24,清算の結了等,,,2024-02-29,1,,,,,エーピーハチジュウ,0
1655,8010803004420,登記記録の閉鎖等,0,2024-10-01,2024-09-25,合同会社ｗｅｄｘ,,合同会社,東京都,大田区,南馬込４丁目４０－１２,,13,111,1430025,,,2024-09-25,清算の結了等,,,2023-01-10,1,,,,,ウェディクス,0
1674,8011401002007,登記記録の閉鎖等,0,2024-10-01,2024-09-19,光食株式会社,,株式会社,東京都,板橋区,新河岸２丁目５番３号,,13,119,1750081,,,2024-09-19,合併による解散等,1011401005379,令和６年９月１９日東京都板橋区高島平九丁目３番１１号光グループ株式会社（1011401005379）に合併し解散,2015-10-05,1,,,,,ヒカリショク,0
1681,8011802009880,登記記録の閉鎖等,0,2024-10-01,2024-09-24,有限会社稲葉電気工事,,有限会社,東京都,足立区,梅田４丁目９番１８号,,13,121,1230851,,,2024-09-24,清算の結了等,,,2015-10-05,1,,,,,イナバデンキコウジ,0
1686,8012803002247,登記記録の閉鎖等,0,2024-10-01,2024-09-24,Ｔｈｉｓ　Ｗｏｒｌｄ合同会社,,合同会社,東京都,豊島区,東池袋３丁目１－１サンシャイン６０－４５階,,13,116,1700013,,,2024-09-24,清算の結了等,,,2020-03-30,1,,,,,ディスワールド,0
1690,8013303002927,登記記録の閉鎖等,0,2024-10-01,2024-09-19,合同会社源氏メディカル,,合同会社,東京都,豊島区,南長崎３丁目９番１号聖アン落合南長崎１０１,,13,116,1710052,,,2024-09-19,清算の結了等,,,2015-10-05,1,,,,,ゲンジメディカル,0
1696,8021005009827,登記記録の閉鎖等,0,2024-10-01,2024-09-20,特定非営利活動法人わがまち１００,,その他の設立登記法人,神奈川県,藤沢市,亀井野３丁目１５番地の２０,,14,205,2520813,,,2024-09-20,清算の結了等,,,2015-10-05,1,,,,,ワガマチヒャク,0
1703,8030002105571,登記記録の閉鎖等,0,2024-10-01,2024-09-20,有限会社中澤モータース,,有限会社,埼玉県,川口市,領家１丁目１１番３号,,11,203,3320004,,,2024-09-20,清算の結了等,,,2015-10-05,1,,,,,ナカザワモータース,0
1728,8100002004205,登記記録の閉鎖等,0,2024-10-01,2024-09-20,有限会社樋口商事,,有限会社,長野県,長野市,大字下駒沢２４０番地４,,20,201,3810008,,,2024-09-20,清算の結了等,,,2015-10-05,1,,,,,ヒグチショウジ,0
1754,8120902021289,登記記録の閉鎖等,0,2024-10-01,2024-09-25,有限会社豐中インスペクタ,,有限会社,大阪府,豊中市,南桜塚３丁目３番１２号,,27,203,5610882,,,2024-09-25,清算の結了等,,,2015-10-05,1,,,,,トヨナカインスペクタ,0
1778,8180001061529,登記記録の閉鎖等,0,2024-10-01,2024-09-17,株式会社サンシューズ,,株式会社,愛知県,名古屋市西区,則武新町１丁目２６番６号,,23,104,4510051,,,2024-09-17,清算の結了等,,,2015-10-05,1,,,,,サンシューズ,0
1795,8180301024185,登記記録の閉鎖等,0,2024-10-01,2024-09-25,スギヤマ電業株式会社,,株式会社,愛知県,北設楽郡東栄町,大字中設楽字的場１９番地１,,23,562,4490211,,,2024-09-25,清算の結了等,,,2015-10-05,1,,,,,スギヤマデンギョウ,0
1803,8210001007619,登記記録の閉鎖等,0,2024-10-01,2024-09-26,株式会社林田家具センター,,株式会社,福井県,坂井市,丸岡町東陽２丁目１９号１番地,,18,210,9100233,,,2024-09-26,清算の結了等,,,2015-10-05,1,,,,,ハヤシダカグセンター,0
1805,8210001019011,登記記録の閉鎖等,0,2024-10-01,2024-09-27,株式会社アオザイ,,株式会社,福井県,福井市,宝永２丁目１１番２１号山屋マンション３０１号室,,18,201,9100004,,,2024-09-27,清算の結了等,,,2022-07-22,1,,,,,アオザイ,0
1843,8400002004637,登記記録の閉鎖等,0,2024-10-01,2024-09-17,有限会社チバケン,,有限会社,岩手県,滝沢市,鵜飼細谷地７６番地５,,03,216,0200651,,,2024-09-17,清算の結了等,,,2015-10-05,1,,,,,チバケン,0
1854,8480002015800,登記記録の閉鎖等,0,2024-10-01,2024-09-27,有限会社藤本鉄工所,,有限会社,徳島県,三好市,池田町大利下大田３８番地の１,,36,208,7795164,,,2024-09-27,清算の結了等,,,2015-10-05,1,,,,,フジモトテッコウショ,0
1872,9010001193222,登記記録の閉鎖等,0,2024-10-01,2024-09-17,株式会社善方,,株式会社,東京都,中央区,新富１丁目１７番６－４０１号,,13,102,1040041,,,2024-09-17,清算の結了等,,,2018-07-12,1,,,,,ヨシヘ,0
1874,9010001231873,登記記録の閉鎖等,0,2024-10-01,2024-09-13,ＰＯＩＮＴ　ＤＥ　ＶＵＥ　ＤＩＧＴＡＬ株式会社,,株式会社,神奈川県,川崎市宮前区,宮崎５丁目５番地４９,,14,136,2160033,,,2024-09-13,清算の結了等,,,2022-12-27,1,,,,,ポアンドヴュデジタル,0
1884,9010102005540,登記記録の閉鎖等,0,2024-10-01,2024-09-24,有限会社八興商事,,有限会社,東京都,八王子市,川町８４３－１,,13,201,1930821,,,2024-09-24,清算の結了等,,,2015-10-05,1,,,,,ハチコウショウジ,0
1895,9010405006450,登記記録の閉鎖等,0,2024-10-01,2024-09-04,特定非営利活動法人みなと授業錬成アカデミー,,その他の設立登記法人,東京都,港区,赤坂４丁目２番３－３０５号,,13,103,1070052,,,2024-09-04,清算の結了等,,,2015-10-05,1,,,,,,0
1900,9010801006797,登記記録の閉鎖等,0,2024-10-01,2024-09-26,大松建設工業株式会社,,株式会社,東京都,大田区,北糀谷１丁目２２番１８号,,13,111,1440032,,,2024-09-26,清算の結了等,,,2015-10-05,1,,,,,ダイマツケンセツコウギョウ,0
1901,9010801017745,登記記録の閉鎖等,0,2024-10-01,2024-09-26,株式会社ＮＡＰ　ＪＡＰＡＮ,,株式会社,神奈川県,高座郡寒川町,倉見４６９番地１,,14,321,2530101,,,2024-09-26,清算の結了等,,,2015-10-05,1,,,,,ナップジャパン,0
1920,9011101025785,登記記録の閉鎖等,0,2024-10-01,2024-09-18,セミコンエクスプレス株式会社,,株式会社,東京都,新宿区,新宿１丁目２５番１４号,,13,104,1600022,,,2024-09-18,清算の結了等,,,2015-10-05,1,,,,,セミコンエクスプレス,0
1935,9011302003111,登記記録の閉鎖等,0,2024-10-01,2024-09-24,有限会社クロス,,有限会社,東京都,杉並区,善福寺１丁目９番３５号,,13,115,1670041,,,2024-09-24,清算の結了等,,,2015-10-05,1,,,,,クロス,0
1936,9011401002550,登記記録の閉鎖等,0,2024-10-01,2024-09-24,佐々木工具株式会社,,株式会社,東京都,板橋区,中丸町４８番５号,,13,119,1730026,,,2024-09-24,清算の結了等,,,2015-10-05,1,,,,,ササキコウグ,0
1937,9011401003846,登記記録の閉鎖等,0,2024-10-01,2024-09-20,大洋パッケージ株式会社,,株式会社,東京都,板橋区,赤塚６丁目３１番１１号,00065560,13,119,1750092,,,2024-09-20,清算の結了等,,,2015-10-05,1,,,,,タイヨウパッケージ,0
1939,9011402016962,登記記録の閉鎖等,0,2024-10-01,2024-09-20,有限会社大澤商店,,有限会社,東京都,板橋区,坂下２丁目１３番２０号,,13,119,1740043,,,2024-09-20,清算の結了等,,,2015-10-05,1,,,,,,0
1965,9030001023410,登記記録の閉鎖等,0,2024-10-01,2024-09-03,株式会社麺大,,株式会社,埼玉県,三郷市,早稲田３丁目２３番地２号棟３０４号,,11,237,3410018,,,2024-09-03,清算の結了等,,,2015-10-05,1,,,,,メンダイ,0
1974,9030002120636,登記記録の閉鎖等,0,2024-10-01,2024-09-24,有限会社新田新聞店,,有限会社,埼玉県,日高市,大字原宿１５４番地８,,11,242,3501205,,,2024-09-24,清算の結了等,,,2015-10-05,1,,,,,ニッタシンブンテン,0
1982,9050001013475,登記記録の閉鎖等,0,2024-10-01,2024-09-20,株式会社恒運産業,,株式会社,茨城県,結城郡八千代町,大字若１２７６番地５,,08,521,3003544,,,2024-09-20,清算の結了等,,,2015-10-05,1,,,,,コウウンサンギョウ,0
1986,9060001012690,登記記録の閉鎖等,0,2024-10-01,2024-09-24,株式会社ゆーあい,,株式会社,栃木県,那須塩原市,あたご町１番１４号,,09,213,3292725,,,2024-09-24,清算の結了等,,,2015-10-05,1,,,,,ユーアイ,0
1988,9060003003498,登記記録の閉鎖等,0,2024-10-01,2024-09-24,合同会社リリクス,,合同会社,栃木県,足利市,葉鹿町１５３５番地,,09,202,3260143,,,2024-09-24,清算の結了等,,,2020-10-16,1,,,,,リリクス,0
1996,9080403004169,登記記録の閉鎖等,0,2024-10-01,2024-09-19,合同会社メモリ,,合同会社,静岡県,磐田市,中泉４丁目９番地１,,22,211,4380078,,,2024-09-19,清算の結了等,,,2020-12-08,1,,,,,メモリ,0
1998,9100001005789,登記記録の閉鎖等,0,2024-10-01,2024-09-24,小布施食品株式会社,,株式会社,長野県,上高井郡小布施町,大字小布施１８８４番地１,,20,541,3810201,,,2024-09-24,清算の結了等,,,2015-10-05,1,,,,,オブセショクヒン,0
1999,9110001022998,登記記録の閉鎖等,0,2024-10-01,2024-09-24,株式会社長岡建興,,株式会社,新潟県,長岡市,大島本町５丁目１１６番地２５,,15,202,9402112,,,2024-09-24,清算の結了等,,,2015-10-05,1,,,,,ナガオカケンコウ,0
2001,9110002003163,登記記録の閉鎖等,0,2024-10-01,2024-09-24,有限会社親睦,,有限会社,新潟県,新潟市西区,五十嵐２の町８８３０番地,,15,107,9502102,,,2024-09-24,清算の結了等,,,2015-10-05,1,,,,,シンボク,0
2012,9120001221855,登記記録の閉鎖等,0,2024-10-01,2024-09-30,ＭＧＣパークパートナーズ株式会社,,株式会社,大阪府,大阪市北区,茶屋町１７番１号,,27,127,5300013,,,2024-09-30,清算の結了等,,,2019-06-19,1,,,,,エムジーシーパークパートナーズ,0
2051,9170002009650,登記記録の閉鎖等,0,2024-10-01,2024-09-30,有限会社山本豆腐店,,有限会社,和歌山県,西牟婁郡白浜町,１４１７番地の１５,,30,401,6492211,,,2024-09-30,清算の結了等,,,2015-10-05,1,,,,,ヤマモトトウフテン,0
2052,9180001052790,登記記録の閉鎖等,0,2024-10-01,2024-09-18,株式会社インターペック,,株式会社,愛知県,名古屋市中川区,四女子町２丁目６番地,,23,110,4540822,,,2024-09-18,清算の結了等,,,2015-10-05,1,,,,,インターペック,0
2058,9180301012593,登記記録の閉鎖等,0,2024-10-01,2024-09-26,株式会社アンシン企画八八,,株式会社,愛知県,安城市,東町屋敷９０番地６,,23,212,4441153,,,2024-09-26,清算の結了等,,,2015-10-05,1,,,,,アンシンキカクハチジュウハチ,0
2069,9200001034613,登記記録の閉鎖等,0,2024-10-01,2024-09-27,株式会社センワ,,株式会社,岐阜県,揖斐郡大野町,大字黒野１２番地,,21,403,5010521,,,2024-09-27,清算の結了等,,,2017-11-14,1,,,,,センワ,0
2075,9250002000634,登記記録の閉鎖等,0,2024-10-01,2024-09-27,有限会社坂田洋品店,,有限会社,山口県,山口市,金古曽町２番３号,,35,203,7530024,,,2024-09-27,清算の結了等,,,2015-10-05,1,,,,,サカタヨウヒンテン,0
2081,9270003001407,登記記録の閉鎖等,0,2024-10-01,2024-09-17,合同会社Ｓｋｙ,,合同会社,鳥取県,米子市,東福原４丁目２１番５号,,31,202,6830802,,,2024-09-17,清算の結了等,,,2022-06-08,1,,,,,スカイ,0
2098,9310005000666,登記記録の閉鎖等,0,2024-10-01,2024-09-24,一般社団法人長崎県調理師協会,,その他の設立登記法人,長崎県,長崎市,桜馬場１丁目１２番６号,,42,201,8500015,,,2024-09-24,清算の結了等,,,2015-10-05,1,,,,,ナガサキケンチョウリシキョウカイ,0
2105,9340005007782,登記記録の閉鎖等,0,2024-10-01,2024-09-20,一般社団法人指宿マンゴーブランド協会,,その他の設立登記法人,鹿児島県,指宿市,山川大山８６０番地２,,46,210,8910514,,,2024-09-20,清算の結了等,,,2015-10-05,1,,,,,イブスキマンゴーブランドキョウカイ,0
2106,9350001009559,登記記録の閉鎖等,0,2024-10-01,2024-09-24,株式会社ダーバン宮崎ソーイング,,株式会社,宮崎県,日南市,北郷町郷之原字南上床乙３６６３番地,,45,204,8892402,,,2024-09-24,清算の結了等,,,2015-10-05,1,,,,,ダーバンミヤザキソーイング,0
2109,9350005000646,登記記録の閉鎖等,0,2024-10-01,2024-09-20,橘通一丁目商店街振興組合,,その他の設立登記法人,宮崎県,宮崎市,橘通西１丁目２番２３号,,45,201,8800001,,,2024-09-20,清算の結了等,,,2015-10-05,1,,,,,タチバナドオリイッチョウメ,0
2113,9390001012006,登記記録の閉鎖等,0,2024-10-01,2024-09-19,後藤総業株式会社,,株式会社,山形県,西村山郡河北町,谷地字月山堂１１３４番地２,,06,321,9993511,,,2024-09-19,清算の結了等,,,2015-10-05,1,,,,,ゴトウソウギョウ,0
2124,9480001007987,登記記録の閉鎖等,0,2024-10-01,2024-09-30,株式会社ワンダフルエイト,,株式会社,徳島県,鳴門市,大津町矢倉字西の越２番地５２,,36,202,7720035,,,2024-09-30,清算の結了等,,,2015-10-05,1,,,,,ワンダフルエイト,0
