sequenceNumber,corporateNumber,process,correct,updateDate,changeDate,name,nameImageId,kind,prefectureName,cityName,streetNumber,addressImageId,prefectureCode,cityCode,postCode,addressOutside,addressOutsideImageId,closeDate,closeCause,successorCorporateNumber,changeCause,assignmentDate,latest,enName,enPrefectureName,enCityName,enAddressOutside,furigana,hihyoji
32,1010601035830,登記記録の閉鎖等,0,2022-06-07,2022-05-31,株式会社マツヨシ紙工,,株式会社,千葉県,八千代市,大和田新田７４４番地１６,,12,221,2760046,,,2022-05-31,合併による解散等,6040001007142,令和４年５月３１日千葉市花見川区幕張町二丁目７６９８番地の１丸金印刷株式会社（6040001007142）に合併し解散,2015-10-05,1,,,,,マツヨシシコウ,0
33,1010601036184,登記記録の閉鎖等,0,2022-06-07,2022-06-06,山田商事株式会社,,株式会社,東京都,台東区,台東４丁目１９番８号中山ビル３階,,13,106,1100016,,,2022-06-06,清算の結了等,,,2015-10-05,1,,,,,,0
37,1010701023207,登記記録の閉鎖等,0,2022-06-07,2022-05-23,株式会社Ｇ－Ｐｏｗｅｒ,,株式会社,東京都,港区,南青山３丁目８番１４号,,13,103,1070062,,,2022-05-23,清算の結了等,,,2015-10-05,1,,,,,ジーパワー,0
38,1010701035664,登記記録の閉鎖等,0,2022-06-07,2022-05-31,株式会社キョウジ,,株式会社,東京都,品川区,北品川１丁目９番７号トップルーム品川１０１５号,,13,109,1400001,,,2022-05-31,清算の結了等,,,2018-04-18,1,,,,,キョウジ,0
57,1011402006467,登記記録の閉鎖等,0,2022-06-07,2022-06-01,有限会社冨澤洋服店,,有限会社,東京都,板橋区,板橋３丁目４４番１号,,13,119,1730004,,,2022-06-01,清算の結了等,,,2015-10-05,1,,,,,,0
64,1011803002726,登記記録の閉鎖等,0,2022-06-07,2022-05-31,茨城牛久２合同会社,,合同会社,東京都,港区,芝公園１丁目３番１号留園ビル６階,,13,103,1050011,,,2022-05-31,合併による解散等,6010403024779,令和４年５月２４日東京都港区芝公園一丁目３番１号留園ビル６階ＳＳ光２７合同会社（6010403024779）に合併し解散,2017-01-10,1,,,,,イバラキウシクニ,0
65,1011805002419,登記記録の閉鎖等,0,2022-06-07,2022-05-31,特定非営利活動法人世界のみんなが仲良くなれますように,,その他の設立登記法人,東京都,葛飾区,東新小岩１丁目１８番１０－２１６号デュオシティ・イースト,,13,122,1240023,,,2022-05-31,清算の結了等,,,2015-10-05,1,,,,,セカイノミンナガナカヨクナレマスヨウニ,0
72,1013102000642,登記記録の閉鎖等,0,2022-06-07,2022-06-06,有限会社日本抗菌材料,,有限会社,東京都,あきる野市,秋留１丁目９番７号日神パレステージあきる野公園４０１号室,,13,228,1970828,,,2022-06-06,清算の結了等,,,2015-10-05,1,,,,,ニホンコウキンザイリョウ,0
82,1020001128226,登記記録の閉鎖等,0,2022-06-07,2022-06-01,株式会社オウモリフーズ,,株式会社,神奈川県,横浜市西区,伊勢町２丁目１０１ＯＭＯＲＩビル１Ｆ,,14,103,2200045,,,2022-06-01,清算の結了等,,,2018-10-04,1,,,,,オウモリフーズ,0
86,1020002058876,登記記録の閉鎖等,0,2022-06-07,2022-06-02,有限会社モンブリオ,,有限会社,神奈川県,横浜市磯子区,丸山２丁目１０番１５号,,14,107,2350011,,,2022-06-02,清算の結了等,,,2015-10-05,1,,,,,モンブリオ,0
91,1020003016759,登記記録の閉鎖等,0,2022-06-07,2022-06-01,合同会社ｏｓａｃｏｉ,,合同会社,神奈川県,川崎市高津区,溝口３丁目７番１号３Ｆ,,14,134,2130001,,,2022-06-01,清算の結了等,,,2019-10-07,1,,,,,オサコイ,0
103,1030001147225,登記記録の閉鎖等,0,2022-06-07,2022-06-01,山王ホールディングス株式会社,,株式会社,埼玉県,和光市,中央２丁目３番７号,,11,229,3510113,,,2022-06-01,合併による解散等,2030001046698,令和４年６月１日埼玉県和光市中央二丁目３番７号山王テック株式会社（2030001046698）に合併し解散,2022-03-11,1,,,,,サンノウホールディングス,0
108,1040001056012,登記記録の閉鎖等,0,2022-06-07,2022-06-01,ＳＥＮＤＡＮ－ＹＡ　ＷＥＥＫＬＹ株式会社,,株式会社,千葉県,市原市,諏訪２丁目４番地５,,12,219,2900026,,,2022-06-01,清算の結了等,,,2015-10-05,1,,,,,,0
145,1120101023069,登記記録の閉鎖等,0,2022-06-07,2022-06-03,株式会社ビッグバード,,株式会社,大阪府,堺市南区,高倉台２丁１６番１０号,,27,145,5900117,,,2022-06-03,清算の結了等,,,2015-10-05,1,,,,,ビッグバード,0
154,1130001013549,登記記録の閉鎖等,0,2022-06-07,2022-05-18,株式会社リソース,,株式会社,京都府,京都市山科区,音羽初田町１１番地の２,,26,110,6078078,,,2022-05-18,清算の結了等,,,2015-10-05,1,,,,,リソース,0
164,1170001003711,登記記録の閉鎖等,0,2022-06-07,2022-06-06,和歌山化工機株式会社,,株式会社,和歌山県,和歌山市,西高松１丁目３番７号,,30,201,6410051,,,2022-06-06,清算の結了等,,,2015-10-05,1,,,,,ワカヤマカコウキ,0
169,1180001132476,登記記録の閉鎖等,0,2022-06-07,2022-06-01,Ｊｒｉｏｕｓ株式会社,,株式会社,愛知県,名古屋市中区,栄３丁目２番３号名古屋日興證券ビル４階,,23,106,4600008,,,2022-06-01,合併による解散等,6180001130707,令和４年６月１日名古屋市中区栄三丁目２番３号名古屋日興證券ビル４階Ｍｒｉｏｕｓ株式会社（6180001130707）に合併し解散,2018-05-31,1,,,,,ジリアス,0
180,1200003002666,登記記録の閉鎖等,0,2022-06-07,2022-06-06,合資会社大和館,,合資会社,岐阜県,高山市,奥飛騨温泉郷平湯６００番地,00081141,21,203,5061433,,,2022-06-06,清算の結了等,,,2015-10-05,1,,,,,,0
205,1290802016809,登記記録の閉鎖等,0,2022-06-07,2022-06-03,有限会社遠賀タイヤ工業所,,有限会社,福岡県,遠賀郡遠賀町,大字老良３６４番地の３,,40,384,8114311,,,2022-06-03,清算の結了等,,,2015-10-05,1,,,,,,0
229,1370001020190,登記記録の閉鎖等,0,2022-06-07,2022-06-01,株式会社身の丈イノベーション,,株式会社,宮城県,仙台市青葉区,本町１丁目１１番２号,,04,101,9800014,,,2022-06-01,合併による解散等,4370001043692,令和４年６月１日仙台市青葉区本町一丁目１１番２号エドワード・グループ・ホールディングス株式会社（4370001043692）に合併し解散,2015-10-05,1,,,,,ミノタケイノベーション,0
234,1380001018440,登記記録の閉鎖等,0,2022-06-07,2022-06-01,タキヤコンクリート工業株式会社,,株式会社,福島県,大沼郡三島町,大字宮下字宮下１７７番地,,07,444,9697511,,,2022-06-01,清算の結了等,,,2015-10-05,1,,,,,タキヤコンクリートコウギョウ,0
254,1430001064792,登記記録の閉鎖等,0,2022-06-07,2022-06-01,株式会社ヘルスケアフーズ,,株式会社,北海道,札幌市豊平区,月寒中央通７丁目６番２０号,,01,105,0620020,,,2022-06-01,合併による解散等,9430001086219,令和４年６月１日札幌市豊平区月寒中央通七丁目６番２０号株式会社ヘルスケアコープ（9430001086219）に合併し解散,2015-10-05,1,,,,,ヘルスケアフーズ,0
279,2010003029240,登記記録の閉鎖等,0,2022-06-07,2022-05-30,ＥＳＲ２１合同会社,,合同会社,東京都,中央区,日本橋１丁目４番１号日本橋一丁目ビルディング,,13,102,1030027,,,2022-05-30,清算の結了等,,,2019-02-08,1,,,,,イーエスアールトゥエンティワン,0
297,2010601005824,登記記録の閉鎖等,0,2022-06-07,2022-05-31,株式会社ヒロカワ,,株式会社,東京都,江東区,枝川１丁目１１番１５号,,13,108,1350051,,,2022-05-31,清算の結了等,,,2015-10-05,1,,,,,ヒロカワ,0
312,2010902022056,登記記録の閉鎖等,0,2022-06-07,2022-06-01,有限会社東京堂,,有限会社,東京都,世田谷区,豪徳寺１丁目２２番４号,,13,112,1540021,,,2022-06-01,清算の結了等,,,2015-10-05,1,,,,,トウキョウドウ,0
313,2010903002759,登記記録の閉鎖等,0,2022-06-07,2022-06-01,スタジオ・コクウ合同会社,,合同会社,東京都,世田谷区,鎌田３丁目７番１２－４０７号,,13,112,1570077,,,2022-06-01,清算の結了等,,,2015-10-05,1,,,,,スタジオコクウ,0
323,2011002016493,登記記録の閉鎖等,0,2022-06-07,2022-05-30,有限会社ＳＲＮ　Ｓｏｌｕｔｉｏｎｓ　Ｊａｐａｎ,,有限会社,埼玉県,川口市,中青木４丁目５番２２号,,11,203,3320032,,,2022-05-30,清算の結了等,,,2015-10-05,1,,,,,エスアールエヌソリューションズジャパン,0
330,2011401011938,登記記録の閉鎖等,0,2022-06-07,2022-06-02,株式会社エクスプリマ,,株式会社,東京都,板橋区,氷川町１２番７,,13,119,1730013,,,2022-06-02,清算の結了等,,,2015-10-05,1,,,,,エクスプリマ,0
338,2011801007593,登記記録の閉鎖等,0,2022-06-07,2022-05-31,光北工業株式会社,,株式会社,東京都,足立区,六月３丁目１９番３号,,13,121,1210814,,,2022-05-31,清算の結了等,,,2015-10-05,1,,,,,コウホクコウギョウ,0
364,2020002030297,登記記録の閉鎖等,0,2022-06-07,2022-06-02,有限会社島村建設,,有限会社,神奈川県,横浜市南区,新川町２丁目３番地の１０ダイアパレス吉野町２０５号,,14,105,2320027,,,2022-06-02,清算の結了等,,,2015-10-05,1,,,,,シマムラケンセツ,0
365,2020002060922,登記記録の閉鎖等,0,2022-06-07,2022-06-02,有限会社奥田商事ザ・ウイング,,有限会社,神奈川県,横浜市中区,池袋３４番地２０１号室,,14,104,2310834,,,2022-06-02,清算の結了等,,,2015-10-05,1,,,,,オクダショウジザウイング,0
366,2020002073957,登記記録の閉鎖等,0,2022-06-07,2022-06-02,有限会社やまぐち,,有限会社,神奈川県,横浜市港南区,港南台６丁目１番４－４０４号,,14,111,2340054,,,2022-06-02,清算の結了等,,,2015-10-05,1,,,,,ヤマグチ,0
399,2040002057677,登記記録の閉鎖等,0,2022-06-07,2022-06-01,有限会社中元土木,,有限会社,千葉県,印西市,小林２９４番地１６ジュエリーＣ棟１０３号室,,12,231,2701318,,,2022-06-01,清算の結了等,,,2015-10-05,1,,,,,ナカモトドボク,0
406,2060001028727,登記記録の閉鎖等,0,2022-06-07,2022-05-31,株式会社グリーンスタッフ,,株式会社,栃木県,足利市,通４丁目３４８５番地１,,09,202,3260814,,,2022-05-31,合併による解散等,1060002038404,令和４年５月３１日栃木県足利市通四丁目３４８５番地１株式会社トーリフォー（1060002038404）に合併し解散,2016-10-19,1,,,,,グリーンスタッフ,0
412,2080001015343,登記記録の閉鎖等,0,2022-06-07,2022-06-02,株式会社ヤマニ商店,,株式会社,静岡県,焼津市,浜当目２丁目５番２５号,,22,212,4250012,,,2022-06-02,清算の結了等,,,2015-10-05,1,,,,,,0
458,2120901034462,登記記録の閉鎖等,0,2022-06-07,2022-06-01,ジィエス株式会社,,株式会社,大阪府,豊中市,庄本町３丁目１１番８号３階,,27,203,5610835,,,2022-06-01,清算の結了等,,,2015-10-05,1,,,,,ジィエス,0
481,2140002000172,登記記録の閉鎖等,0,2022-06-07,2022-06-02,有限会社エコフレンズ,,有限会社,兵庫県,芦屋市,岩園町５番１７号,,28,206,6590013,,,2022-06-02,清算の結了等,,,2015-10-05,1,,,,,エコフレンズ,0
515,2240001019724,登記記録の閉鎖等,0,2022-06-07,2022-06-03,株式会社ターンアラウンド広島,,株式会社,広島県,広島市中区,八丁堀６番１１号,,34,101,7300013,,,2022-06-03,清算の結了等,,,2015-10-05,1,,,,,ターンアラウンドヒロシマ,0
551,2320001014436,登記記録の閉鎖等,0,2022-06-07,2022-05-31,高原建設株式会社,,株式会社,大分県,大分市,大字木上２４９番地の１,,44,201,8701161,,,2022-05-31,合併による解散等,7320002015107,令和４年５月３１日大分市大字木上２４９番地１株式会社大石土木（7320002015107）に合併し解散,2015-10-05,1,,,,,タカハラケンセツ,0
552,2330001003082,登記記録の閉鎖等,0,2022-06-07,2022-06-01,ティ・シー・ケイ株式会社,,株式会社,熊本県,熊本市北区,武蔵ケ丘１丁目５番３５号,,43,105,8618001,,,2022-06-01,合併による解散等,7330001028827,令和４年６月１日熊本市北区武蔵ケ丘一丁目５番３５号ティ・シー・ケイ株式会社（7330001028827）に合併し解散,2015-10-05,1,,,,,ティシーケイ,0
553,2330001028443,登記記録の閉鎖等,0,2022-06-07,2022-06-01,明治アニマルヘルス株式会社熊本,,株式会社,熊本県,熊本市北区,大窪１丁目６番１号,,43,105,8600083,,,2022-06-01,合併による解散等,7330001029593,令和４年６月１日熊本市北区大窪一丁目６番１号明治アニマルヘルス株式会社（7330001029593）に合併し解散,2021-04-05,1,,,,,メイジアニマルヘルスクマモト,0
569,2370002013655,登記記録の閉鎖等,0,2022-06-07,2022-06-01,有限会社ミカミハウス,,有限会社,宮城県,仙台市青葉区,立町２０番６号,,04,101,9800822,,,2022-06-01,合併による解散等,5370001010493,令和４年６月１日仙台市青葉区立町２０番１１号株式会社三上（5370001010493）に合併し解散,2015-10-05,1,,,,,ミカミハウス,0
595,2470002009908,登記記録の閉鎖等,0,2022-06-07,2022-06-02,有限会社ソフトクリエイト,,有限会社,香川県,高松市,屋島西町１１８３番地１３,,37,201,7610113,,,2022-06-02,清算の結了等,,,2015-10-05,1,,,,,ソフトクリエイト,0
600,2500002017122,登記記録の閉鎖等,0,2022-06-07,2022-06-02,有限会社松永商店,,有限会社,愛媛県,新居浜市,喜光地町２丁目８番２５号,,38,205,7920826,,,2022-06-02,清算の結了等,,,2015-10-05,1,,,,,マツナガショウテン,0
603,3010001049768,登記記録の閉鎖等,0,2022-06-07,2022-05-31,タイセイ・エンジニアリング株式会社,,株式会社,東京都,中央区,日本橋小伝馬町９番１０号,,13,102,1030001,,,2022-05-31,清算の結了等,,,2015-10-05,1,,,,,タイセイエンジニアリング,0
617,3010003024876,登記記録の閉鎖等,0,2022-06-07,2022-05-31,ＫＣＭ３合同会社,,合同会社,東京都,千代田区,永田町２丁目１３番１０号,,13,101,1000014,,,2022-05-31,清算の結了等,,,2017-02-22,1,,,,,ケイシーエムサン,0
630,3010405013279,登記記録の閉鎖等,0,2022-06-07,2022-05-23,Ａｄｒｉａ一般社団法人,,その他の設立登記法人,東京都,港区,虎ノ門３丁目２２番１０－２０１号,,13,103,1050001,,,2022-05-23,清算の結了等,,,2015-10-05,1,,,,,アドリア,0
631,3010501021417,登記記録の閉鎖等,0,2022-06-07,2022-06-03,株式会社コスモ・アセット,,株式会社,東京都,品川区,東五反田５丁目２２番３７号,,13,109,1410022,,,2022-06-03,清算の結了等,,,2015-10-05,1,,,,,コスモアセット,0
647,3010802011265,登記記録の閉鎖等,0,2022-06-07,2022-05-31,有限会社野口ビジネスセンター,,有限会社,東京都,大田区,久が原２丁目１８番１６号,,13,111,1460085,,,2022-05-31,清算の結了等,,,2015-10-05,1,,,,,ノグチビジネスセンター,0
651,3010901033887,登記記録の閉鎖等,0,2022-06-07,2022-06-01,株式会社ＹＯＳＨＩＮＯ,,株式会社,千葉県,市原市,西広６丁目１５番地３,,12,219,2900022,,,2022-06-01,清算の結了等,,,2015-10-05,1,,,,,ヨシノ,0
690,3012401024152,登記記録の閉鎖等,0,2022-06-07,2022-06-01,株式会社タクティクス・コーポレーション,,株式会社,東京都,三鷹市,下連雀４丁目１７番１２号シャルマン三鷹８０２号,,13,204,1810013,,,2022-06-01,清算の結了等,,,2015-10-05,1,,,,,タクティクスコーポレーション,0
693,3012701003715,登記記録の閉鎖等,0,2022-06-07,2022-06-03,東信企画株式会社,,株式会社,東京都,東久留米市,下里３丁目６番６号,,13,222,2030043,,,2022-06-03,清算の結了等,,,2015-10-05,1,,,,,トウシンキカク,0
696,3013301039785,登記記録の閉鎖等,0,2022-06-07,2022-05-24,東亜住宅管理サービス株式会社,,株式会社,東京都,渋谷区,神宮前１丁目１５番１号１階,,13,113,1500001,,,2022-05-24,清算の結了等,,,2016-12-06,1,,,,,トウアジュウタクカンリサービス,0
717,3021002026342,登記記録の閉鎖等,0,2022-06-07,2022-06-02,有限会社パワーコード,,有限会社,神奈川県,相模原市緑区,橋本１丁目２番４号,,14,151,2520143,,,2022-06-02,清算の結了等,,,2015-10-05,1,,,,,パワーコード,0
741,3050001010817,登記記録の閉鎖等,0,2022-06-07,2022-05-30,株式会社大国屋,,株式会社,茨城県,土浦市,板谷７丁目６２６番地２４,,08,203,3000007,,,2022-05-30,清算の結了等,,,2015-10-05,1,,,,,ダイコクヤ,0
749,3070001020161,登記記録の閉鎖等,0,2022-06-07,2022-05-31,町田商会株式会社,,株式会社,群馬県,太田市,龍舞町５５９４番地,,10,205,3730806,,,2022-05-31,合併による解散等,6070001034720,令和４年４月２５日群馬県太田市龍舞町５５９４番地ヴェルデサポート株式会社（6070001034720）に合併し解散,2015-10-05,1,,,,,マチダショウカイ,0
757,3080401014712,登記記録の閉鎖等,0,2022-06-07,2022-06-01,大須賀アルミ株式会社,,株式会社,静岡県,掛川市,大渕１４５６番地の１２００,,22,213,4371302,,,2022-06-01,合併による解散等,9080401014657,令和４年６月１日静岡県掛川市大渕１４５６番地の１２００美幸工業株式会社（9080401014657）に合併し解散,2015-10-05,1,,,,,オオスカアルミ,0
763,3100001025578,登記記録の閉鎖等,0,2022-06-07,2022-06-01,株式会社エーアイエム,,株式会社,長野県,長野市,大字稲葉中千田２０２５番地,,20,201,3800916,,,2022-06-01,合併による解散等,2100001002710,令和４年６月１日長野市大字南長野妻科９６２番地株式会社ＮＩＫＫＯホールディングス（2100001002710）に合併し解散,2015-10-05,1,,,,,エーアイエム,0
771,3120001026673,登記記録の閉鎖等,0,2022-06-07,2022-06-02,ＡｃｔｉｖｅＴｏｗｎ株式会社,,株式会社,大阪府,大阪市北区,大淀中４丁目１４番２５号,,27,127,5310076,,,2022-06-02,合併による解散等,5120001026515,令和４年６月１日大阪市北区大深町３番１号ダイヤトレンド株式会社（5120001026515）に合併し解散,2015-10-05,1,,,,,アクティブタウン,0
779,3120001152825,登記記録の閉鎖等,0,2022-06-07,2022-06-03,リアライズ・マーケティング株式会社,,株式会社,大阪府,枚方市,岡東町１２番１－４０４号,,27,210,5730032,,,2022-06-03,清算の結了等,,,2015-10-05,1,,,,,,0
813,3150001009709,登記記録の閉鎖等,0,2022-06-07,2022-05-30,植田造園緑化株式会社,,株式会社,奈良県,宇陀市,大宇陀下竹８４番地の３,,29,212,6332113,,,2022-05-30,清算の結了等,,,2015-10-05,1,,,,,ウエダゾウエンリョッカ,0
820,3180001019309,登記記録の閉鎖等,0,2022-06-07,2022-06-01,京楽観光株式会社,,株式会社,愛知県,名古屋市瑞穂区,妙音通３丁目３３番地,,23,108,4670842,,,2022-06-01,合併による解散等,9180001019815,令和４年６月１日名古屋市瑞穂区妙音通三丁目３３番地京楽観光株式会社（9180001019815）に合併し解散,2015-10-05,1,,,,,キョウラクカンコウ,0
822,3180001133448,登記記録の閉鎖等,0,2022-06-07,2022-06-02,Ｂｌｕｅ　Ｏｃｅａｎ株式会社,,株式会社,愛知県,北名古屋市,鹿田流６２番地の１,,23,234,4810004,,,2022-06-02,清算の結了等,,,2018-08-20,1,,,,,ブルーオーシャン,0
824,3180002037821,登記記録の閉鎖等,0,2022-06-07,2022-06-03,有限会社当り屋,,有限会社,愛知県,名古屋市中川区,十番町４丁目７番地,,23,110,4540055,,,2022-06-03,清算の結了等,,,2015-10-05,1,,,,,アタリヤ,0
825,3180002053422,登記記録の閉鎖等,0,2022-06-07,2022-06-02,インダクター有限会社,,有限会社,愛知県,名古屋市天白区,久方２丁目４１番地の３,,23,116,4680034,,,2022-06-02,清算の結了等,,,2015-10-05,1,,,,,インダクター,0
831,3200001003945,登記記録の閉鎖等,0,2022-06-07,2022-06-03,成田工業株式会社,,株式会社,岐阜県,大垣市,花園町７丁目１番地,,21,202,5030825,,,2022-06-03,清算の結了等,,,2015-10-05,1,,,,,ナリタコウギョウ,0
834,3200003003555,登記記録の閉鎖等,0,2022-06-07,2022-06-06,心桜合同会社,,合同会社,岐阜県,各務原市,那加巾下町６３番地１,,21,213,5040839,,,2022-06-06,清算の結了等,,,2015-10-05,1,,,,,,0
841,3240001010590,登記記録の閉鎖等,0,2022-06-07,2022-06-02,フルタ工業株式会社,,株式会社,広島県,広島市安佐南区,相田７丁目４７番４号,,34,105,7310141,,,2022-06-02,清算の結了等,,,2015-10-05,1,,,,,フルタコウギョウ,0
848,3240002007272,登記記録の閉鎖等,0,2022-06-07,2022-06-02,有限会社シーエス,,有限会社,広島県,広島市東区,福田８丁目１４番３９号,,34,102,7320029,,,2022-06-02,清算の結了等,,,2015-10-05,1,,,,,シーエス,0
872,3320001012455,登記記録の閉鎖等,0,2022-06-07,2022-06-03,はぐく美保険サービス株式会社,,株式会社,大分県,大分市,大字下郡４９６番地の３８,,44,201,8700951,,,2022-06-03,清算の結了等,,,2015-10-05,1,,,,,ハグクミホケンサービス,0
873,3330002016553,登記記録の閉鎖等,0,2022-06-07,2022-06-01,有限会社渡辺建設,,有限会社,熊本県,菊池郡菊陽町,新山１丁目１１番３２号,,43,404,8691109,,,2022-06-01,清算の結了等,,,2015-10-05,1,,,,,ワタナベケンセツ,0
874,3340001008427,登記記録の閉鎖等,0,2022-06-07,2022-05-31,株式会社ノームラン,,株式会社,鹿児島県,鹿児島市,中央町９番地１０,,46,201,8900053,,,2022-05-31,清算の結了等,,,2015-10-05,1,,,,,ノームラン,0
883,3360002009835,登記記録の閉鎖等,0,2022-06-07,2022-05-26,有限会社沖縄ゼネラルテクノロジ,,有限会社,沖縄県,豊見城市,字根差部３４８番地の６,,47,212,9010205,,,2022-05-26,清算の結了等,,,2015-10-05,1,,,,,オキナワゼネラルテクノロジ,0
886,3370101001849,登記記録の閉鎖等,0,2022-06-07,2022-05-31,株式会社センナンエネルギー,,株式会社,宮城県,柴田郡大河原町,字東原町１３番地１,,04,321,9891236,,,2022-05-31,清算の結了等,,,2015-10-05,1,,,,,,0
891,3400001007835,登記記録の閉鎖等,0,2022-06-07,2022-06-03,株式会社横井内建設,,株式会社,岩手県,九戸郡軽米町,大字上舘第１９地割９３番地,,03,501,0286301,,,2022-06-03,清算の結了等,,,2015-10-05,1,,,,,ヨコイナイケンセツ,0
908,3470003002084,登記記録の閉鎖等,0,2022-06-07,2022-06-02,四国情報通信システム合同会社,,合同会社,香川県,高松市,林町５７番地７プライムアセット宮西Ａ棟,,37,201,7610301,,,2022-06-02,清算の結了等,,,2021-12-02,1,,,,,シコクジョウホウツウシンシステム,0
923,4010003022615,登記記録の閉鎖等,0,2022-06-07,2022-05-30,合同会社ａｂｌｅ・ｔｈｒｅｅ,,合同会社,東京都,千代田区,丸の内３丁目１番１号東京共同会計事務所内,,13,101,1000005,,,2022-05-30,清算の結了等,,,2015-11-04,1,,,,,エイブルスリー,0
932,4010401128451,登記記録の閉鎖等,0,2022-06-07,2022-05-31,株式会社アカクラホールディングス,,株式会社,東京都,千代田区,平河町２丁目１６番１号平河町森タワー１０階,,13,101,1020093,,,2022-05-31,清算の結了等,,,2016-12-01,1,,,,,アカクラホールディングス,0
957,4011001040204,登記記録の閉鎖等,0,2022-06-07,2022-05-23,株式会社オープンロード,,株式会社,東京都,渋谷区,円山町５番２号,,13,113,1500044,,,2022-05-23,清算の結了等,,,2015-10-05,1,,,,,オープンロード,0
965,4011101061645,登記記録の閉鎖等,0,2022-06-07,2022-05-30,株式会社未来基盤情報センター,,株式会社,東京都,千代田区,鍛冶町１丁目９番１６号,,13,101,1010044,,,2022-05-30,清算の結了等,,,2015-10-05,1,,,,,ミライキバンジョウホウセンター,0
974,4011501026157,登記記録の閉鎖等,0,2022-06-07,2022-06-01,スターム株式会社,,株式会社,東京都,荒川区,南千住３丁目１番１３－４０２号,,13,118,1160003,,,2022-06-01,清算の結了等,,,2020-09-04,1,,,,,スターム,0
1025,4030001129328,登記記録の閉鎖等,0,2022-06-07,2022-06-01,株式会社ワークビジネス,,株式会社,埼玉県,深谷市,西大沼３３９番地５,,11,218,3660829,,,2022-06-01,清算の結了等,,,2019-02-01,1,,,,,ワークビジネス,0
1048,4050002011086,登記記録の閉鎖等,0,2022-06-07,2022-05-30,有限会社ウチヤマ工業,,有限会社,茨城県,土浦市,真鍋６丁目２８番３６号,,08,203,3000051,,,2022-05-30,清算の結了等,,,2015-10-05,1,,,,,ウチヤマコウギョウ,0
1051,4060002002241,登記記録の閉鎖等,0,2022-06-07,2022-05-31,有限会社大島左官工業,,有限会社,栃木県,宇都宮市,双葉１丁目１１番１２号,,09,201,3210164,,,2022-05-31,清算の結了等,,,2015-10-05,1,,,,,オオシマサカンコウギョウ,0
1063,4110001010652,登記記録の閉鎖等,0,2022-06-07,2022-06-02,株式会社本間建設工業,,株式会社,新潟県,新潟市秋葉区,下新字侭の内２１１番地１,,15,105,9560825,,,2022-06-02,清算の結了等,,,2015-10-05,1,,,,,ホンマケンセツコウギョウ,0
1065,4120001005783,登記記録の閉鎖等,0,2022-06-07,2022-06-01,大長木材株式会社,,株式会社,大阪府,大阪市阿倍野区,王子町２丁目３番６号,,27,119,5450023,,,2022-06-01,合併による解散等,7120001005780,令和４年６月１日大阪市阿倍野区王子町二丁目３番６号大長ハウス株式会社（7120001005780）に合併し解散,2015-10-05,1,,,,,ダイチョウモクザイ,0
1066,4120001035582,登記記録の閉鎖等,0,2022-06-07,2022-06-03,大和ビジネスフォーム株式会社,,株式会社,大阪府,大阪市福島区,吉野４丁目２０番１２号,,27,103,5530006,,,2022-06-03,清算の結了等,,,2015-10-05,1,,,,,,0
1082,4130001029963,登記記録の閉鎖等,0,2022-06-07,2022-06-03,かじ平サツシ工業株式会社,,株式会社,京都府,長岡京市,今里更ノ町６番地の１０,,26,209,6170814,,,2022-06-03,清算の結了等,,,2015-10-05,1,,,,,,0
1111,4180002036137,登記記録の閉鎖等,0,2022-06-07,2022-06-01,有限会社イー・エイチ・エフ,,有限会社,愛知県,名古屋市東区,百人町５６番地,,23,102,4610037,,,2022-06-01,清算の結了等,,,2015-10-05,1,,,,,イーエイチエフ,0
1126,4200001039121,登記記録の閉鎖等,0,2022-06-07,2022-05-27,林田産業株式会社,,株式会社,岐阜県,安八郡安八町,森部２４６９番地,,21,383,5030114,,,2022-05-27,清算の結了等,,,2021-09-15,1,,,,,ハヤシダサンギョウ,0
1145,4240005001420,登記記録の閉鎖等,0,2022-06-07,2022-06-03,医療法人宝耳会,,その他の設立登記法人,広島県,広島市南区,宇品西５丁目１２番４５号,,34,103,7340014,,,2022-06-03,清算の結了等,,,2015-10-05,1,,,,,ホウジカイ,0
1165,4310001001524,登記記録の閉鎖等,0,2022-06-07,2022-06-03,長崎薬品株式会社,,株式会社,長崎県,長崎市,竹の久保町１０番８号,,42,201,8528014,,,2022-06-03,合併による解散等,3290801002064,令和４年６月１日北九州市小倉南区石田南二丁目１番１号西部沢井薬品株式会社（3290801002064）に合併し解散,2015-10-05,1,,,,,ナガサキヤクヒン,0
1201,4480002012339,登記記録の閉鎖等,0,2022-06-07,2022-06-02,アチ・ピコ有限会社,,有限会社,徳島県,板野郡藍住町,奥野字猪熊７９番地１０,,36,403,7711202,,,2022-06-02,清算の結了等,,,2015-10-05,1,,,,,アチピコ,0
1243,5010601058786,登記記録の閉鎖等,0,2022-06-07,2022-05-31,株式会社ベストバージョンプラス,,株式会社,東京都,江東区,東陽５丁目３番１号,,13,108,1350016,,,2022-05-31,清算の結了等,,,2021-02-12,1,,,,,ベストバージョンプラス,0
1251,5010903005899,登記記録の閉鎖等,0,2022-06-07,2022-06-01,合同会社鈴平商会,,合同会社,東京都,世田谷区,尾山台２丁目７番１５号,,13,112,1580086,,,2022-06-01,清算の結了等,,,2020-08-21,1,,,,,スズヒラショウカイ,0
1266,5011101094660,登記記録の閉鎖等,0,2022-06-07,2022-06-06,ＲＥＸＴ株式会社,,株式会社,東京都,新宿区,北新宿２丁目２１番１号,,13,104,1690074,,,2022-06-06,合併による解散等,1050001016270,令和４年５月２７日茨城県つくば市小野崎２９４番地１株式会社ワンダーコーポレーション（1050001016270）に合併し解散,2021-04-08,1,,,,,レクスト,0
1271,5011503003260,登記記録の閉鎖等,0,2022-06-07,2022-05-31,マキタ・ホールディングス合同会社,,合同会社,東京都,千代田区,大手町１丁目５番１号大手町ファーストスクエアイーストタワー４階,,13,101,1000004,,,2022-05-31,清算の結了等,,,2017-05-02,1,,,,,マキタホールディングス,0
1273,5011701012187,登記記録の閉鎖等,0,2022-06-07,2022-05-31,株式会社サマーシード,,株式会社,東京都,葛飾区,新小岩３丁目２８番３号,,13,122,1240024,,,2022-05-31,清算の結了等,,,2015-10-05,1,,,,,サマーシード,0
1283,5012401001579,登記記録の閉鎖等,0,2022-06-07,2022-06-02,株式会社マイクロサーキットラボ,,株式会社,東京都,府中市,小柳町４丁目３９番地の１３,,13,206,1830013,,,2022-06-02,清算の結了等,,,2015-10-05,1,,,,,マイクロサーキットラボ,0
1284,5012402004944,登記記録の閉鎖等,0,2022-06-07,2022-06-02,有限会社小萩堂,,有限会社,東京都,小金井市,梶野町２丁目１１番２６号,,13,210,1840002,,,2022-06-02,清算の結了等,,,2015-10-05,1,,,,,,0
1311,5021003008214,登記記録の閉鎖等,0,2022-06-07,2022-06-02,湘南ファンド第２号合同会社,,合同会社,神奈川県,藤沢市,藤沢２２３番地の２,,14,205,2510052,,,2022-06-02,清算の結了等,,,2019-03-07,1,,,,,ショウナンファンドダイニゴウ,0
1347,5080402003010,登記記録の閉鎖等,0,2022-06-07,2022-06-01,有限会社コバヤシ,,有限会社,静岡県,浜松市中区,富塚町３４８番地の１３,00079884,22,131,4328002,,,2022-06-01,清算の結了等,,,2015-10-05,1,,,,,コバヤシ,0
1367,5120002023916,登記記録の閉鎖等,0,2022-06-07,2022-06-03,有限会社シュエイ工業,,有限会社,大阪府,大阪市西淀川区,歌島２丁目２番２号,,27,113,5550021,,,2022-06-03,清算の結了等,,,2015-10-05,1,,,,,シュエイコウギョウ,0
1370,5120005006752,登記記録の閉鎖等,0,2022-06-07,2022-06-06,大阪薬業卸協同組合,,その他の設立登記法人,大阪府,大阪市中央区,平野町１丁目４番１号ハイネス北浜１０２,,27,128,5410046,,,2022-06-06,清算の結了等,,,2015-10-05,1,,,,,オオサカヤクギョウオロシ,0
1385,5130002013569,登記記録の閉鎖等,0,2022-06-07,2022-06-03,有限会社カヤタニ・サービス,,有限会社,京都府,京都市伏見区,桃山町遠山２８番地の５,,26,109,6128012,,,2022-06-03,清算の結了等,,,2015-10-05,1,,,,,,0
1386,5130003004716,登記記録の閉鎖等,0,2022-06-07,2022-06-03,合同会社メイ,,合同会社,京都府,京都市中京区,御幸町通御池上る亀屋町３７９番地１コンフォール御幸町御池フェルテ２０４号,,26,104,6040941,,,2022-06-03,清算の結了等,,,2016-07-20,1,,,,,メイ,0
1429,5190002015741,登記記録の閉鎖等,0,2022-06-07,2022-06-02,有限会社三瀬谷農産物流,,有限会社,三重県,多気郡大台町,長ケ１０４８番地の３,,24,443,5192401,,,2022-06-02,清算の結了等,,,2015-10-05,1,,,,,ミセダニノウサンブツリュウ,0
1432,5210001011581,登記記録の閉鎖等,0,2022-06-07,2022-06-01,株式会社桜や,,株式会社,福井県,越前市,新町第７号８番地,,18,209,9150883,,,2022-06-01,清算の結了等,,,2015-10-05,1,,,,,サクラヤ,0
1459,5280002009016,登記記録の閉鎖等,0,2022-06-07,2022-06-02,有限会社アシスト,,有限会社,島根県,浜田市,高田町２７番地４,,32,202,6970054,,,2022-06-02,清算の結了等,,,2015-10-05,1,,,,,アシスト,0
1468,5290005016198,登記記録の閉鎖等,0,2022-06-07,2022-06-03,ＮＰＯ法人本と人と地域をつなぐハッピーフェイス,,その他の設立登記法人,福岡県,太宰府市,梅香苑２丁目１５番７号,,40,221,8180124,,,2022-06-03,清算の結了等,,,2016-12-13,1,,,,,ホントヒトトチイキヲツナグハッピーフェイス,0
1478,5330001025157,登記記録の閉鎖等,0,2022-06-07,2022-06-02,株式会社三機工,,株式会社,熊本県,宇土市,新開町５４６番地１,,43,211,8690403,,,2022-06-02,清算の結了等,,,2018-03-29,1,,,,,サンキコウ,0
1497,5390001006804,登記記録の閉鎖等,0,2022-06-07,2022-06-01,株式会社大塚商事,,株式会社,山形県,東田川郡庄内町,余目字月屋敷２３６番地の１,,06,428,9997781,,,2022-06-01,清算の結了等,,,2015-10-05,1,,,,,オオツカショウジ,0
1530,5500005008165,登記記録の閉鎖等,0,2022-06-07,2022-06-03,ＮＰＯ法人ＹＯＵＮＧ　ＣＯＮＥＸＩＯＮ,,その他の設立登記法人,愛媛県,松山市,山越１丁目１５番３３号,,38,201,7918013,,,2022-06-03,清算の結了等,,,2020-03-04,1,,,,,ヤングコネクション,0
1539,6010001156446,登記記録の閉鎖等,0,2022-06-07,2022-05-31,株式会社テイエムソリューション,,株式会社,東京都,千代田区,神田淡路町１丁目１３番２－５,,13,101,1010063,,,2022-05-31,清算の結了等,,,2015-10-05,1,,,,,テイエムソリューション,0
1558,6010405013623,登記記録の閉鎖等,0,2022-06-07,2022-05-23,シラハマ一般社団法人,,その他の設立登記法人,東京都,港区,赤坂２丁目１０番５号税理士法人赤坂国際会計事務所内,,13,103,1070052,,,2022-05-23,清算の結了等,,,2015-10-05,1,,,,,シラハマ,0
1564,6010601013609,登記記録の閉鎖等,0,2022-06-07,2022-06-01,東神商事株式会社,,株式会社,東京都,墨田区,江東橋２丁目２番１４号,,13,107,1300022,,,2022-06-01,清算の結了等,,,2015-10-05,1,,,,,トウシンショウジ,0
1571,6010901043231,登記記録の閉鎖等,0,2022-06-07,2022-06-02,プリヴィレージュ株式会社,,株式会社,奈良県,葛城市,西辻２４６番３,00117571,29,211,6392125,,,2022-06-02,清算の結了等,,,2018-12-10,1,,,,,,0
1618,6020002066362,登記記録の閉鎖等,0,2022-06-07,2022-06-02,有限会社谷田工業,,有限会社,神奈川県,横浜市神奈川区,神大寺２丁目２８番１３－２０２号,,14,102,2210801,,,2022-06-02,清算の結了等,,,2015-10-05,1,,,,,タニダコウギョウ,0
1619,6020002072195,登記記録の閉鎖等,0,2022-06-07,2022-06-02,有限会社正治製作所,,有限会社,神奈川県,横浜市都筑区,大熊町１０４番地,,14,118,2240042,,,2022-06-02,清算の結了等,,,2015-10-05,1,,,,,ショウジセイサクショ,0
1625,6030001005568,登記記録の閉鎖等,0,2022-06-07,2022-05-31,株式会社ディーワンロジスティクス,,株式会社,埼玉県,さいたま市桜区,田島９丁目１４番８号,,11,106,3380837,,,2022-05-31,清算の結了等,,,2015-10-05,1,,,,,ディーワンロジスティクス,0
1680,6120001147921,登記記録の閉鎖等,0,2022-06-07,2022-06-03,株式会社三栄製作所,,株式会社,大阪府,寝屋川市,点野４丁目１番４５号,,27,215,5720077,,,2022-06-03,清算の結了等,,,2015-10-05,1,,,,,,0
1722,6180001053932,登記記録の閉鎖等,0,2022-06-07,2022-06-02,株式会社名北総合警備,,株式会社,愛知県,北名古屋市,中之郷四辻２５番地,00072171,23,234,4810045,,,2022-06-02,清算の結了等,,,2015-10-05,1,,,,,メイホクソウゴウケイビ,0
1736,6200001011417,登記記録の閉鎖等,0,2022-06-07,2022-06-06,株式会社番住宅,,株式会社,岐阜県,羽島市,堀津町須賀南２丁目２番地,,21,209,5016335,,,2022-06-06,清算の結了等,,,2015-10-05,1,,,,,バンジュウタク,0
1754,6260001020230,登記記録の閉鎖等,0,2022-06-07,2022-06-01,マサト運輸株式会社,,株式会社,岡山県,津山市,加茂町塔中５７番地３,,33,203,7093905,,,2022-06-01,清算の結了等,,,2015-10-05,1,,,,,マサトウンユ,0
1784,6380001020929,登記記録の閉鎖等,0,2022-06-07,2022-06-01,株式会社ビルド・タック,,株式会社,福島県,いわき市,平字菱川町２番地の８,,07,204,9708026,,,2022-06-01,清算の結了等,,,2015-10-05,1,,,,,ビルドタック,0
1790,6410002008259,登記記録の閉鎖等,0,2022-06-07,2022-06-01,有限会社大館換地測量設計事務所,,有限会社,秋田県,大館市,有浦１丁目４番２３号,,05,204,0170043,,,2022-06-01,清算の結了等,,,2015-10-05,1,,,,,オオダテカンチソクリョウセッケイジムショ,0
1805,6700150048580,削除,,2022-06-07,,,,,,,,,,,,,,,,,,,,,,,,,
1836,7010101014073,登記記録の閉鎖等,0,2022-06-07,2022-06-06,株式会社松建,,株式会社,東京都,八王子市,中野町３０３５番地１６,,13,201,1920015,,,2022-06-06,清算の結了等,,,2020-02-25,1,,,,,マツケン,0
1908,7013302021631,登記記録の閉鎖等,0,2022-06-07,2022-06-02,有限会社ドープスタッフ,,有限会社,東京都,豊島区,池袋本町１丁目８番１０号,,13,116,1700011,,,2022-06-02,清算の結了等,,,2015-10-05,1,,,,,ドープスタッフ,0
1941,7040001056072,登記記録の閉鎖等,0,2022-06-07,2022-05-31,株式会社アンビシャス,,株式会社,千葉県,市原市,姉崎３２２０番地１ダイアパレス千葉青葉台ノースアベニュー４号棟４３号,,12,219,2990111,,,2022-05-31,清算の結了等,,,2015-10-05,1,,,,,アンビシャス,0
1973,7100001015749,登記記録の閉鎖等,0,2022-06-07,2022-06-02,株式会社パストラル,,株式会社,長野県,塩尻市,大字広丘原新田２１５番地１２,,20,215,3990706,,,2022-06-02,清算の結了等,,,2015-10-05,1,,,,,パストラル,0
1979,7110001005856,登記記録の閉鎖等,0,2022-06-07,2022-06-01,株式会社ニイガタスタイル,,株式会社,新潟県,新潟市中央区,古町通２番町５３０番地,,15,103,9518063,,,2022-06-01,合併による解散等,6110001018743,令和４年６月１日新潟市中央区古町通二番町５３０番地株式会社ニイガタスタイル（6110001018743）に合併し解散,2015-10-05,1,,,,,ニイガタスタイル,0
1988,7120001155576,登記記録の閉鎖等,0,2022-06-07,2022-06-03,北大産業株式会社,,株式会社,大阪府,守口市,八雲中町３丁目１３番５８号,,27,209,5700005,,,2022-06-03,清算の結了等,,,2015-10-05,1,,,,,ホクダイサンギョウ,0
1997,7120002064652,登記記録の閉鎖等,0,2022-06-07,2022-06-02,有限会社エクセルホーム,,有限会社,大阪府,大阪市都島区,御幸町１丁目６番１３－６００号,,27,102,5340012,,,2022-06-02,清算の結了等,,,2015-10-05,1,,,,,エクセルホーム,0
1999,7120005012971,登記記録の閉鎖等,0,2022-06-07,2022-06-02,護法山本淨寺,,その他の設立登記法人,大阪府,寝屋川市,桜木町８番２１号,,27,215,5720041,,,2022-06-02,清算の結了等,,,2015-10-05,1,,,,,ゴホウザンホンジョウジ,0
2001,7120101035736,登記記録の閉鎖等,0,2022-06-07,2022-06-06,進栄産業株式会社,,株式会社,大阪府,大阪市平野区,加美東１丁目１３番４４号,,27,126,5470002,,,2022-06-06,清算の結了等,,,2015-10-05,1,,,,,シンエイサンギョウ,0
2017,7140002021684,登記記録の閉鎖等,0,2022-06-07,2022-06-01,有限会社松本商店,,有限会社,兵庫県,神戸市中央区,三宮町２丁目１１番１－１４２号センタープラザ西館１Ｆ,,28,110,6500021,,,2022-06-01,清算の結了等,,,2015-10-05,1,,,,,マツモトショウテン,0
2025,7170001013275,登記記録の閉鎖等,0,2022-06-07,2022-05-31,株式会社ＲＩＳ工房,,株式会社,和歌山県,橋本市,三石台３丁目１７番地の７,,30,203,6480094,,,2022-05-31,清算の結了等,,,2015-10-05,1,,,,,アールアイエスコウボウ,0
2026,7170002003432,登記記録の閉鎖等,0,2022-06-07,2022-06-06,有限会社前田果実,,有限会社,和歌山県,和歌山市,西浜１６６０番地の４０１,,30,201,6410036,,,2022-06-06,清算の結了等,,,2015-10-05,1,,,,,マエダカジツ,0
2031,7180002019551,登記記録の閉鎖等,0,2022-06-07,2022-06-01,有限会社ムラセ,,有限会社,愛知県,名古屋市中川区,尾頭橋３丁目１番２号,,23,110,4540012,,,2022-06-01,清算の結了等,,,2015-10-05,1,,,,,ムラセ,0
2066,7240002033117,登記記録の閉鎖等,0,2022-06-07,2022-06-01,有限会社鈴木家具製作所,,有限会社,広島県,呉市,西辰川２丁目９番４３号,,34,202,7370809,,,2022-06-01,清算の結了等,,,2015-10-05,1,,,,,スズキカグセイサクショ,0
2072,7250002006922,登記記録の閉鎖等,0,2022-06-07,2022-06-01,有限会社則貞塗装,,有限会社,山口県,宇部市,則貞１丁目５番２－３０４号,,35,202,7550003,,,2022-06-01,清算の結了等,,,2015-10-05,1,,,,,ノリサダトソウ,0
2120,7390002008120,登記記録の閉鎖等,0,2022-06-07,2022-05-31,有限会社麗人荘,,有限会社,山形県,酒田市,船場町１丁目６番４号,,06,204,9980036,,,2022-05-31,清算の結了等,,,2015-10-05,1,,,,,レイジンソウ,0
2123,7430001058574,登記記録の閉鎖等,0,2022-06-07,2022-05-20,株式会社ＢＯＷ,,株式会社,北海道,札幌市豊平区,水車町７丁目５番１８－１０１号,,01,105,0620912,,,2022-05-20,清算の結了等,,,2015-10-05,1,,,,,ボウ,0
2140,7500001022597,登記記録の閉鎖等,0,2022-06-07,2022-06-02,株式会社Ｌｕｍｉｎｏｕｓ,,株式会社,愛媛県,松山市,二番町２丁目１番地２コロネット二番町ビル,,38,201,7900002,,,2022-06-02,清算の結了等,,,2020-03-25,1,,,,,ルミナス,0
2145,8010001055596,登記記録の閉鎖等,0,2022-06-07,2022-05-31,株式会社藤川商店,,株式会社,東京都,中央区,日本橋本町４丁目１５番５号,,13,102,1030023,,,2022-05-31,清算の結了等,,,2015-10-05,1,,,,,フジカワショウテン,0
2217,8011305000222,登記記録の閉鎖等,0,2022-06-07,2022-06-03,杉並たばこ商業協同組合,,その他の設立登記法人,東京都,杉並区,荻窪４丁目２５番７号,,13,115,1670051,,,2022-06-03,清算の結了等,,,2015-10-05,1,,,,,スギナミタバコショウギョウ,0
2225,8011701017555,登記記録の閉鎖等,0,2022-06-07,2022-06-03,株式会社宗栄,,株式会社,東京都,江戸川区,宇喜田町１３８０番地,,13,123,1340082,,,2022-06-03,清算の結了等,,,2015-10-05,1,,,,,ソウエイ,0
2236,8013301011797,登記記録の閉鎖等,0,2022-06-07,2022-05-31,株式会社ガリレオ・コーポレーション,,株式会社,栃木県,足利市,田所町１１３１番地２,,09,202,3260066,,,2022-05-31,清算の結了等,,,2015-10-05,1,,,,,ガリレオコーポレーション,0
2246,8020003005516,登記記録の閉鎖等,0,2022-06-07,2022-06-01,合資会社渡辺質店,,合資会社,神奈川県,川崎市川崎区,貝塚２丁目４番９号,,14,131,2100014,,,2022-06-01,清算の結了等,,,2015-10-05,1,,,,,ワタナベシチテン,0
2249,8020003017437,登記記録の閉鎖等,0,2022-06-07,2022-05-30,ＰＡＲＴＮＥＲ．合同会社,,合同会社,神奈川県,横浜市青葉区,あざみ野３丁目１３番地１６,,14,117,2250011,,,2022-05-30,清算の結了等,,,2020-02-26,1,,,,,パートナー,0
2286,8060001000647,登記記録の閉鎖等,0,2022-06-07,2022-06-01,宇都宮自動車整備株式会社,,株式会社,栃木県,宇都宮市,越戸２丁目１番２９号,,09,201,3210951,,,2022-06-01,合併による解散等,7060002007626,令和４年６月１日栃木県宇都宮市下平出町１９８番地１株式会社平出自動車（7060002007626）に合併し解散,2015-10-05,1,,,,,ウツノミヤジドウシャセイビ,0
2322,8120901045553,登記記録の閉鎖等,0,2022-06-07,2022-06-03,閂工房株式会社,,株式会社,大阪府,茨木市,野々宮２丁目１２番１８号１０４,,27,211,5670847,,,2022-06-03,清算の結了等,,,2022-02-04,1,,,,,カンヌキコウボウ,0
2333,8160002012136,登記記録の閉鎖等,0,2022-06-07,2022-06-02,有限会社芝原工務店,,有限会社,滋賀県,草津市,渋川１丁目５番８号,,25,206,5250026,,,2022-06-02,清算の結了等,,,2015-10-05,1,,,,,シバハラコウムテン,0
2334,8180001003068,登記記録の閉鎖等,0,2022-06-07,2022-06-02,株式会社名豊,,株式会社,愛知県,名古屋市名東区,山の手３丁目１０９番地,,23,115,4650011,,,2022-06-02,清算の結了等,,,2015-10-05,1,,,,,メイホウ,0
2359,8220002012336,登記記録の閉鎖等,0,2022-06-07,2022-06-02,有限会社黒木書店,,有限会社,石川県,加賀市,大聖寺京町３５番地,,17,206,9220055,,,2022-06-02,清算の結了等,,,2015-10-05,1,,,,,クロキショテン,0
2393,8290802020713,登記記録の閉鎖等,0,2022-06-07,2022-06-03,有限会社和光,,有限会社,福岡県,直方市,殿町９番２７号,,40,204,8220017,,,2022-06-03,清算の結了等,,,2015-10-05,1,,,,,ワコウ,0
2403,8360003004351,登記記録の閉鎖等,0,2022-06-07,2022-05-30,合同会社カフーエステート,,合同会社,沖縄県,宜野湾市,字宇地泊６５４－７０３,,47,205,9012227,,,2022-05-30,清算の結了等,,,2015-10-05,1,,,,,,0
2415,8400001005479,登記記録の閉鎖等,0,2022-06-07,2022-06-06,株式会社花巻青果物市場,,株式会社,岩手県,花巻市,鍛治町３番６号,,03,205,0250086,,,2022-06-06,清算の結了等,,,2015-10-05,1,,,,,ハナマキセイカブツシジョウ,0
2432,8460302004471,登記記録の閉鎖等,0,2022-06-07,2022-06-01,有限会社ヒサダ観光,,有限会社,北海道,網走市,新町２丁目４番２７号,,01,211,0930046,,,2022-06-01,清算の結了等,,,2015-10-05,1,,,,,ヒサダカンコウ,0
2442,9010001055868,登記記録の閉鎖等,0,2022-06-07,2022-05-31,株式会社ファビュラス,,株式会社,東京都,中央区,東日本橋３丁目７番１０号,,13,102,1030004,,,2022-05-31,清算の結了等,,,2015-10-05,1,,,,,ファビュラス,0
2450,9010001137749,登記記録の閉鎖等,0,2022-06-07,2022-05-31,株式会社バリュークリエイト,,株式会社,東京都,中央区,銀座８丁目１５番１０号,,13,102,1040061,,,2022-05-31,清算の結了等,,,2015-10-05,1,,,,,バリュークリエイト,0
2455,9010001208566,登記記録の閉鎖等,0,2022-06-07,2022-05-31,グリーンテック株式会社,,株式会社,東京都,千代田区,一ツ橋２丁目５番５号岩波書店一ツ橋ビル９階,,13,101,1010003,,,2022-05-31,合併による解散等,1010001184658,令和４年５月３１日東京都千代田区一ツ橋二丁目５番５号グリーンホールディングス株式会社（1010001184658）に合併し解散,2020-03-27,1,,,,,グリーンテック,0
2483,9010603008793,登記記録の閉鎖等,0,2022-06-07,2022-05-24,合同会社東京訪問ケアサービス,,合同会社,東京都,目黒区,目黒２丁目５番８号,,13,110,1530063,,,2022-05-24,清算の結了等,,,2021-03-01,1,,,,,トウキョウホウモンケアサービス,0
2505,9011301015891,登記記録の閉鎖等,0,2022-06-07,2022-06-01,株式会社グリンゲイト,,株式会社,東京都,杉並区,高円寺南４丁目８番６号,,13,115,1660003,,,2022-06-01,清算の結了等,,,2015-10-05,1,,,,,グリンゲイト,0
2512,9011402007326,登記記録の閉鎖等,0,2022-06-07,2022-06-02,有限会社原田工務店,,有限会社,東京都,板橋区,志村１丁目２９番１１号,,13,119,1740056,,,2022-06-02,清算の結了等,,,2015-10-05,1,,,,,ハラダコウムテン,0
2513,9011501027423,登記記録の閉鎖等,0,2022-06-07,2022-05-30,株式会社のぞみ,,株式会社,東京都,北区,赤羽南１丁目１５番３－４０７号モア・クレスト赤羽公園,,13,117,1150044,,,2022-05-30,清算の結了等,,,2021-10-26,1,,,,,ノゾミ,0
2518,9011702009047,登記記録の閉鎖等,0,2022-06-07,2022-05-31,有限会社野田食品,,有限会社,東京都,中央区,新川２丁目２５番１号,,13,102,1040033,,,2022-05-31,清算の結了等,,,2015-10-05,1,,,,,ノダショクヒン,0
2531,9013301032025,登記記録の閉鎖等,0,2022-06-07,2022-05-24,株式会社リアルニクス,,株式会社,東京都,渋谷区,神宮前１丁目１５番１号,,13,113,1500001,,,2022-05-24,清算の結了等,,,2015-10-05,1,,,,,リアルニクス,0
2553,9030001049538,登記記録の閉鎖等,0,2022-06-07,2022-05-31,山下工務店株式会社,,株式会社,埼玉県,ふじみ野市,ふじみ野４丁目３番２５号,,11,245,3560050,,,2022-05-31,清算の結了等,,,2015-10-05,1,,,,,ヤマシタコウムテン,0
2564,9030002061921,登記記録の閉鎖等,0,2022-06-07,2022-06-01,有限会社東光建材,,有限会社,埼玉県,新座市,畑中２丁目１０番４号,,11,230,3520012,,,2022-06-01,清算の結了等,,,2015-10-05,1,,,,,トウコウケンザイ,0
2567,9030003018796,登記記録の閉鎖等,0,2022-06-07,2022-06-01,合同会社アイディールケア,,合同会社,埼玉県,比企郡川島町,大字上大屋敷２７８番地１,,11,346,3500142,,,2022-06-01,清算の結了等,,,2022-02-03,1,,,,,アイディールケア,0
2585,9060001025081,登記記録の閉鎖等,0,2022-06-07,2022-06-01,株式会社ＹＴホールディングス,,株式会社,栃木県,大田原市,加治屋９４番地１６,,09,210,3240046,,,2022-06-01,合併による解散等,6021001037461,令和４年６月１日栃木県大田原市加治屋９４番地１６株式会社横浜テクニカ（6021001037461）に合併し解散,2015-10-05,1,,,,,ワイティーホールディングス,0
2589,9080001014982,登記記録の閉鎖等,0,2022-06-07,2022-06-01,株式会社大長鉄工,,株式会社,静岡県,藤枝市,宮原２３０番地,,22,214,4260133,,,2022-06-01,合併による解散等,8080001003128,令和４年６月１日静岡市駿河区丸子四丁目２番７５号株式会社大長（8080001003128）に合併し解散,2015-10-05,1,,,,,ダイチョウテッコウ,0
2623,9130001048892,登記記録の閉鎖等,0,2022-06-07,2022-06-03,株式会社ケイ・コーポレーション,,株式会社,京都府,京都市伏見区,向島津田町７０番地７８,,26,109,6128154,,,2022-06-03,清算の結了等,,,2015-10-05,1,,,,,ケイコーポレーション,0
2628,9140001013318,登記記録の閉鎖等,0,2022-06-07,2022-06-01,株式会社瑞興,,株式会社,兵庫県,神戸市兵庫区,東柳原町１番１５号,,28,105,6520892,,,2022-06-01,合併による解散等,5140002025340,令和４年６月１日神戸市中央区三宮町一丁目８番１－１０１号株式会社ケージーエス（5140002025340）に合併し解散,2015-10-05,1,,,,,ズイコウ,0
2647,9160002006839,登記記録の閉鎖等,0,2022-06-07,2022-06-02,有限会社丹生仏壇店,,有限会社,滋賀県,米原市,下丹生２２８番地の４８,,25,214,5210034,,,2022-06-02,清算の結了等,,,2015-10-05,1,,,,,ニュウブツダンテン,0
2648,9180001007167,登記記録の閉鎖等,0,2022-06-07,2022-05-25,日本エスピー工業株式会社,,株式会社,愛知県,名古屋市港区,小賀須３丁目１６２６番地,,23,111,4550882,,,2022-05-25,清算の結了等,,,2015-10-05,1,,,,,ニホンエスピーコウギョウ,0
2650,9180001021192,登記記録の閉鎖等,0,2022-06-07,2022-06-01,株式会社山口,,株式会社,愛知県,名古屋市瑞穂区,妙音通３丁目３３番地,,23,108,4670842,,,2022-06-01,合併による解散等,9180001019815,令和４年６月１日名古屋市瑞穂区妙音通三丁目３３番地京楽観光株式会社（9180001019815）に合併し解散,2015-10-05,1,,,,,ヤマグチ,0
2660,9180002020053,登記記録の閉鎖等,0,2022-06-07,2022-06-03,ウサ美有限会社,,有限会社,愛知県,名古屋市中川区,十番町４丁目７番地,,23,110,4540055,,,2022-06-03,清算の結了等,,,2015-10-05,1,,,,,ウサミ,0
2662,9180005016619,登記記録の閉鎖等,0,2022-06-07,2022-06-02,一般社団法人花の国あいちガーデニング協会,,その他の設立登記法人,愛知県,一宮市,栄３丁目８番６号,,23,203,4910858,,,2022-06-02,清算の結了等,,,2016-01-28,1,,,,,ハナノクニアイチガーデニングキョウカイ,0
2674,9230002007532,登記記録の閉鎖等,0,2022-06-07,2022-06-02,有限会社カネタケ水産食品,,有限会社,富山県,魚津市,火の宮町２０番３号,,16,204,9370058,,,2022-06-02,清算の結了等,,,2015-10-05,1,,,,,カネタケスイサンショクヒン,0
2712,9350002012867,登記記録の閉鎖等,0,2022-06-07,2022-06-02,有限会社ルーフヤナギタ,,有限会社,宮崎県,延岡市,小峯町７１７８番地１,,45,203,8820000,,,2022-06-02,清算の結了等,,,2015-10-05,1,,,,,ルーフヤナギタ,0
2727,9400602001041,登記記録の閉鎖等,0,2022-06-07,2022-06-03,有限会社ニューサンキョウ,,有限会社,岩手県,奥州市,江刺西大通り９番１０号,,03,215,0231103,,,2022-06-03,清算の結了等,,,2015-10-05,1,,,,,ニューサンキョウ,0
2751,9500002004238,登記記録の閉鎖等,0,2022-06-07,2022-06-03,有限会社高橋本店,,有限会社,愛媛県,松山市,萱町３丁目３番地３,,38,201,7900813,,,2022-06-03,清算の結了等,,,2015-10-05,1,,,,,タカハシホンテン,0
