sequenceNumber,corporateNumber,process,correct,updateDate,changeDate,name,nameImageId,kind,prefectureName,cityName,streetNumber,addressImageId,prefectureCode,cityCode,postCode,addressOutside,addressOutsideImageId,closeDate,closeCause,successorCorporateNumber,changeCause,assignmentDate,latest,enName,enPrefectureName,enCityName,enAddressOutside,furigana,hihyoji
2,1010001049349,登記記録の閉鎖等,0,2022-07-20,2022-07-04,株式会社田村商店,,株式会社,東京都,中央区,八重洲２丁目１１番２号,,13,102,1040028,,,2022-07-04,清算の結了等,,,2015-10-05,1,,,,,タムラショウテン,0
24,1010901026884,登記記録の閉鎖等,0,2022-07-20,2022-07-06,株式会社ホームシティ,,株式会社,東京都,中野区,中央５丁目８番６号杉山方３階,,13,114,1640011,,,2022-07-06,清算の結了等,,,2015-10-05,1,,,,,ホームシティ,0
44,1011601006193,登記記録の閉鎖等,0,2022-07-20,2022-07-14,株式会社ペトル,,株式会社,東京都,練馬区,中村北４丁目１０番１０号,,13,120,1760023,,,2022-07-14,清算の結了等,,,2015-10-05,1,,,,,ペトル,0
50,1013101000486,登記記録の閉鎖等,0,2022-07-20,2022-07-14,和泉工業株式会社,,株式会社,東京都,羽村市,緑ヶ丘２丁目１７番地２９,,13,227,2050003,,,2022-07-14,清算の結了等,,,2015-10-05,1,,,,,イズミコウギョウ,0
62,1020003013467,登記記録の閉鎖等,0,2022-07-20,2022-07-07,ＦｕＢｉｚ合同会社,,合同会社,神奈川県,横浜市港北区,下田町３丁目６番２１－６号,,14,109,2230064,,,2022-07-07,清算の結了等,,,2017-10-27,1,,,,,フビズ,0
67,1021003011171,登記記録の閉鎖等,0,2022-07-20,2022-07-12,リベラルアーツ合同会社,,合同会社,神奈川県,相模原市南区,相模大野２丁目５番８号フォーシーズン２０２,,14,153,2520303,,,2022-07-12,清算の結了等,,,2021-12-10,1,,,,,リベラルアーツ,0
82,1050001048140,登記記録の閉鎖等,0,2022-07-20,2022-07-05,М　ｆоｒ　ｗｉｎ株式会社,,株式会社,茨城県,つくばみらい市,板橋１８１２番地１６,,08,235,3002307,,,2022-07-05,清算の結了等,,,2020-10-09,1,,,,,エムフォーウィン,0
94,1080105005951,登記記録の閉鎖等,0,2022-07-20,2022-07-15,一般社団法人柿田川大楽,,その他の設立登記法人,静岡県,駿東郡清水町,伏見３１１番地の７,,22,341,4110907,,,2022-07-15,清算の結了等,,,2019-06-10,1,,,,,カキタガワダイガク,0
99,1100002017114,登記記録の閉鎖等,0,2022-07-20,2022-07-08,有限会社コバヤシ,,有限会社,長野県,飯山市,大字瑞穂４７０９番地,,20,213,3892322,,,2022-07-08,清算の結了等,,,2015-10-05,1,,,,,コバヤシ,0
102,1110005001601,登記記録の閉鎖等,0,2022-07-20,2022-07-12,亀田地区鉄工協同組合,,その他の設立登記法人,新潟県,新潟市江南区,亀田新明町２丁目２番３０号,,15,104,9500125,,,2022-07-12,清算の結了等,,,2015-10-05,1,,,,,カメダチクテッコウ,0
103,1110005004629,登記記録の閉鎖等,0,2022-07-20,2022-07-12,新発田第三主食販売企業組合,,その他の設立登記法人,新潟県,新発田市,御幸町１丁目３番１８号,,15,206,9570057,,,2022-07-12,清算の結了等,,,2015-10-05,1,,,,,,0
115,1120002010901,登記記録の閉鎖等,0,2022-07-20,2022-07-14,有限会社かつらぎ,,有限会社,大阪府,大阪市平野区,西脇４丁目６番２号グランドムール平野２０３号,,27,126,5470035,,,2022-07-14,清算の結了等,,,2015-10-05,1,,,,,カツラギ,0
118,1120105005427,登記記録の閉鎖等,0,2022-07-20,2022-07-12,御嶽教長野教会,,その他の設立登記法人,大阪府,河内長野市,西代町１０番１号,,27,216,5860016,,,2022-07-12,清算の結了等,,,2015-10-05,1,,,,,オンタケキョウナガノキョウカイ,0
126,1140001011898,登記記録の閉鎖等,0,2022-07-20,2022-07-14,株式会社神戸インターネット,,株式会社,兵庫県,神戸市中央区,山本通１丁目１番２号,,28,110,6500003,,,2022-07-14,清算の結了等,,,2015-10-05,1,,,,,コウベインターネット,0
128,1140001022169,登記記録の閉鎖等,0,2022-07-20,2022-07-07,株式会社材料・環境研究所,,株式会社,兵庫県,神戸市東灘区,魚崎北町４丁目１５番１４－４０５号,,28,101,6580082,,,2022-07-07,清算の結了等,,,2015-10-05,1,,,,,ザイリョウカンキョウケンキュウジョ,0
148,1180001022990,登記記録の閉鎖等,0,2022-07-20,2022-07-14,株式会社モナミ,,株式会社,愛知県,名古屋市中村区,大正町５丁目６７番地の１,,23,105,4530806,,,2022-07-14,清算の結了等,,,2015-10-05,1,,,,,モナミ,0
150,1180001079008,登記記録の閉鎖等,0,2022-07-20,2022-07-14,株式会社高橋金属,00072321,株式会社,愛知県,瀬戸市,水無瀬町１１６番地の１,,23,204,4890872,,,2022-07-14,清算の結了等,,,2015-10-05,1,,,,,タカハシキンゾク,0
164,1220001011824,登記記録の閉鎖等,0,2022-07-20,2022-07-11,株式会社カワショウスポーツ,,株式会社,石川県,小松市,土居原町４９３番地,,17,203,9230921,,,2022-07-11,清算の結了等,,,2015-10-05,1,,,,,カワショウスポーツ,0
175,1240002009634,登記記録の閉鎖等,0,2022-07-20,2022-07-13,タカスカ椅子有限会社,,有限会社,広島県,広島市西区,商工センター８丁目２番１２号,,34,104,7330833,,,2022-07-13,清算の結了等,,,2015-10-05,1,,,,,タカスカイス,0
212,1400001004421,登記記録の閉鎖等,0,2022-07-20,2022-07-19,株式会社サン・サーベイック,,株式会社,岩手県,盛岡市,仙北１丁目３番１３号,,03,201,0200861,,,2022-07-19,清算の結了等,,,2015-10-05,1,,,,,,0
215,1420001008008,登記記録の閉鎖等,0,2022-07-20,2022-07-12,株式会社後藤タイル,,株式会社,青森県,五所川原市,大字太刀打字常盤１０４番地２,,02,205,0370091,,,2022-07-12,清算の結了等,,,2015-10-05,1,,,,,ゴトウタイル,0
236,2010401025980,登記記録の閉鎖等,0,2022-07-20,2022-06-30,藤井化成株式会社,,株式会社,東京都,港区,六本木３丁目３番６号,,13,103,1060032,,,2022-06-30,清算の結了等,,,2022-02-18,1,,,,,フジイカセイ,0
253,2010603006787,登記記録の閉鎖等,0,2022-07-20,2022-07-06,ＥＣＭＴ合同会社,,合同会社,東京都,江東区,東陽２丁目３番５－５０５号,,13,108,1350016,,,2022-07-06,清算の結了等,,,2017-06-13,1,,,,,イシエムティ,0
254,2010603008395,登記記録の閉鎖等,0,2022-07-20,2022-07-11,合同会社ゼロナイン,,合同会社,東京都,江東区,東陽２丁目２番１４－１０２１号,,13,108,1350016,,,2022-07-11,清算の結了等,,,2020-06-22,1,,,,,ゼロナイン,0
258,2010901020250,登記記録の閉鎖等,0,2022-07-20,2022-07-13,株式会社コーチアップル,,株式会社,東京都,世田谷区,深沢７丁目１６番２２号,,13,112,1580081,,,2022-07-13,清算の結了等,,,2015-10-05,1,,,,,,0
280,2011401022373,登記記録の閉鎖等,0,2022-07-20,2022-07-14,サニーコンサルティング株式会社,,株式会社,東京都,板橋区,坂下１丁目３２－１,,13,119,1740043,,,2022-07-14,清算の結了等,,,2020-02-06,1,,,,,サニーコンサルティング,0
297,2013301041560,登記記録の閉鎖等,0,2022-07-20,2022-07-05,株式会社及時雨,,株式会社,東京都,立川市,曙町３丁目７番１４号曙マンション１００４号,,13,202,1900012,,,2022-07-05,清算の結了等,,,2017-12-25,1,,,,,ジシュ,0
309,2020002029967,登記記録の閉鎖等,0,2022-07-20,2022-07-07,有限会社斉藤牛肉店,,有限会社,神奈川県,横浜市南区,井土ケ谷上町１４番１号,,14,105,2320051,,,2022-07-07,清算の結了等,,,2015-10-05,1,,,,,サイトウギュウニクテン,0
324,2021002049658,登記記録の閉鎖等,0,2022-07-20,2022-07-13,有限会社山崎電機,00013552,有限会社,神奈川県,厚木市,恩名２丁目１４番２３－３０８号,,14,212,2430032,,,2022-07-13,清算の結了等,,,2015-10-05,1,,,,,ヤマザキデンキ,0
326,2030001028102,登記記録の閉鎖等,0,2022-07-20,2022-07-06,株式会社中川塗装工業,,株式会社,埼玉県,所沢市,東狭山ケ丘２丁目２９１３番地の１７,,11,208,3591106,,,2022-07-06,清算の結了等,,,2015-10-05,1,,,,,ナカガワトソウコウギョウ,0
337,2040002075035,登記記録の閉鎖等,0,2022-07-20,2022-07-14,有限会社ベル・ファーマシー,,有限会社,千葉県,市原市,玉前７２番地１,,12,219,2900041,,,2022-07-14,合併による解散等,8120001082605,令和４年７月１日横浜市港北区新横浜三丁目１７番６号株式会社ココカラファインヘルスケア（8120001082605）に合併し解散,2015-10-05,1,,,,,ベルファーマシー,0
345,2060002041175,登記記録の閉鎖等,0,2022-07-20,2022-07-07,有限会社コバヤシ,,有限会社,栃木県,小山市,神鳥谷５丁目３番２６号,,09,208,3230034,,,2022-07-07,清算の結了等,,,2022-07-06,1,,,,,コバヤシ,0
348,2080002001243,登記記録の閉鎖等,0,2022-07-20,2022-07-15,有限会社オカムラ工業,,有限会社,静岡県,静岡市駿河区,丸子４丁目２番３２号,,22,102,4210103,,,2022-07-15,清算の結了等,,,2015-10-05,1,,,,,オカムラコウギョウ,0
371,2130001019371,登記記録の閉鎖等,0,2022-07-20,2022-07-04,株式会社京都駅観光デパート,,株式会社,京都府,京都市南区,東九条上殿田町５２番地ＫＫＤビル,,26,107,6018002,,,2022-07-04,合併による解散等,5130001019443,令和４年７月１日京都市下京区烏丸通塩小路下る東塩小路町９０２番地京都ステーシヨンセンター株式会社（5130001019443）に合併し解散,2015-10-05,1,,,,,キョウトエキカンコウデパート,0
378,2140001103926,登記記録の閉鎖等,0,2022-07-20,2022-07-07,株式会社産業工学エンジニアリング,,株式会社,兵庫県,姫路市,安富町長野１７７番地１,,28,201,6712421,,,2022-07-07,清算の結了等,,,2016-11-07,1,,,,,サンギョウコウガクエンジニアリング,0
385,2140002005469,登記記録の閉鎖等,0,2022-07-20,2022-07-14,株式会社リバティ,,株式会社,兵庫県,神戸市西区,池上２丁目２１番地の５,,28,111,6512111,,,2022-07-14,合併による解散等,8120001082605,令和４年７月１日横浜市港北区新横浜三丁目１７番６号株式会社ココカラファインヘルスケア（8120001082605）に合併し解散,2015-10-05,1,,,,,リバティ,0
389,2140003011805,登記記録の閉鎖等,0,2022-07-20,2022-07-12,合同会社ぼて本家,,合同会社,兵庫県,神戸市灘区,桜口町４丁目１番１号ウェルブ六甲道４番街２号館,,28,102,6570036,,,2022-07-12,清算の結了等,,,2016-12-26,1,,,,,ボテホンケ,0
390,2140003014048,登記記録の閉鎖等,0,2022-07-20,2022-07-15,合同会社清風堂８８,,合同会社,兵庫県,芦屋市,茶屋之町８番１３号,,28,206,6590067,,,2022-07-15,清算の結了等,,,2019-06-26,1,,,,,セイフウドウハチジュウハチ,0
393,2140005005433,登記記録の閉鎖等,0,2022-07-20,2022-07-08,明石青果商業協同組合,,その他の設立登記法人,兵庫県,明石市,藤江字三ツ池２０２９番地の１,,28,203,6730044,,,2022-07-08,清算の結了等,,,2015-10-05,1,,,,,アカシセイカショウギョウ,0
400,2160003001473,登記記録の閉鎖等,0,2022-07-20,2022-07-11,ｂｏｎｄ合同会社,,合同会社,滋賀県,近江八幡市,上田町２１０番地１（２０２号）,,25,204,5230015,,,2022-07-11,清算の結了等,,,2017-03-08,1,,,,,ボンド,0
405,2180001134661,登記記録の閉鎖等,0,2022-07-20,2022-07-14,株式会社ＢＣＭ,,株式会社,愛知県,名古屋市中区,栄５丁目５番５号,,23,106,4600008,,,2022-07-14,清算の結了等,,,2018-12-06,1,,,,,ビーシーエム,0
416,2200002019207,登記記録の閉鎖等,0,2022-07-20,2022-07-15,美濃発條有限会社,,有限会社,岐阜県,美濃市,２５１２番地,,21,207,5013701,,,2022-07-15,清算の結了等,,,2015-10-05,1,,,,,ミノハツジョウ,0
440,2310002018825,登記記録の閉鎖等,0,2022-07-20,2022-07-15,恵祥海運有限会社,,有限会社,長崎県,壱岐市,石田町久喜触２７番地,,42,210,8115223,,,2022-07-15,清算の結了等,,,2015-10-05,1,,,,,ケイショウカイウン,0
452,2380002005305,登記記録の閉鎖等,0,2022-07-20,2022-07-07,有限会社渡辺電工,,有限会社,福島県,伊達郡桑折町,字北町１１３番地,,07,301,9691601,,,2022-07-07,清算の結了等,,,2015-10-05,1,,,,,ワタナベデンコウ,0
466,2410001007967,登記記録の閉鎖等,0,2022-07-20,2022-07-11,株式会社サポート,,株式会社,秋田県,大仙市,大曲金谷町１３番２３号,,05,212,0140054,,,2022-07-11,清算の結了等,,,2015-10-05,1,,,,,サポート,0
467,2410003001902,登記記録の閉鎖等,0,2022-07-20,2022-07-07,サワキコントロールシステム合同会社,,合同会社,秋田県,男鹿市,船川港船川字親道１８６番地１７,,05,206,0100511,,,2022-07-07,清算の結了等,,,2015-10-05,1,,,,,サワキコントロールシステム,0
473,2430001061285,登記記録の閉鎖等,0,2022-07-20,2022-07-04,株式会社ＧＳＹ,,株式会社,北海道,札幌市中央区,南五条東３丁目３番地１,,01,101,0600055,,,2022-07-04,清算の結了等,,,2015-10-05,1,,,,,ジーエスワイ,0
486,3010001028978,登記記録の閉鎖等,0,2022-07-20,2022-07-05,北海計量器株式会社,,株式会社,東京都,文京区,本郷３丁目１３番３号,,13,105,1130033,,,2022-07-05,清算の結了等,,,2015-10-05,1,,,,,,0
494,3010001148545,登記記録の閉鎖等,0,2022-07-20,2022-07-05,株式会社ＦＩＳ,,株式会社,東京都,中央区,銀座１丁目６番１６号,,13,102,1040061,,,2022-07-05,清算の結了等,,,2015-10-05,1,,,,,エフアイエス,0
513,3010405001102,登記記録の閉鎖等,0,2022-07-20,2022-07-15,一般社団法人日本デザイン保護協会,,その他の設立登記法人,東京都,港区,虎ノ門２丁目４番１号虎ノ門ピアザビル,,13,103,1050001,,,2022-07-15,合併による解散等,3010605002131,令和４年７月１日東京都江東区東陽四丁目１番７号一般財団法人日本特許情報機構（3010605002131）に合併し解散,2015-10-05,1,,,,,ニホンデザインホゴキョウカイ,0
531,3011001104736,登記記録の閉鎖等,0,2022-07-20,2022-07-05,株式会社からすみ,,株式会社,東京都,渋谷区,恵比寿４丁目４番６号ＭＡＲＩＸ恵比寿ビル４階,,13,113,1500013,,,2022-07-05,清算の結了等,,,2015-10-05,1,,,,,カラスミ,0
540,3011202002318,登記記録の閉鎖等,0,2022-07-20,2022-07-07,有限会社小林清建築,,有限会社,東京都,中野区,弥生町５丁目９番２号,,13,114,1640013,,,2022-07-07,清算の結了等,,,2015-10-05,1,,,,,コバヤシキヨシケンチク,0
541,3011202002549,登記記録の閉鎖等,0,2022-07-20,2022-07-07,有限会社三信電気製作所,,有限会社,東京都,中野区,本町６丁目２番４号,,13,114,1640012,,,2022-07-07,清算の結了等,,,2015-10-05,1,,,,,サンシンデンキセイサクジョ,0
543,3011202012052,登記記録の閉鎖等,0,2022-07-20,2022-07-07,有限会社トウハチ,,有限会社,東京都,中野区,弥生町５丁目８番１号,,13,114,1640013,,,2022-07-07,清算の結了等,,,2015-10-05,1,,,,,,0
564,3020001035552,登記記録の閉鎖等,0,2022-07-20,2022-07-08,株式会社リプレイコーポレイション,,株式会社,神奈川県,横浜市中区,上野町１丁目３４番地１,,14,104,2310842,,,2022-07-08,清算の結了等,,,2015-10-05,1,,,,,リプレイコーポレイション,0
567,3020001125353,登記記録の閉鎖等,0,2022-07-20,2022-07-13,株式会社ＳＡＭＳ,,株式会社,東京都,世田谷区,玉川３丁目２０番２号マノア玉川第三ビル５０１号室,,13,112,1580094,,,2022-07-13,清算の結了等,,,2018-03-08,1,,,,,サムス,0
587,3030002038297,登記記録の閉鎖等,0,2022-07-20,2022-07-07,有限会社泊船,,有限会社,埼玉県,久喜市,野久喜７３５番地の１５,,11,232,3460002,,,2022-07-07,清算の結了等,,,2015-10-05,1,,,,,,0
614,3110001021279,登記記録の閉鎖等,0,2022-07-20,2022-07-13,株式会社みずさわ,,株式会社,新潟県,十日町市,馬場丁１６６６番地,,15,210,9498551,,,2022-07-13,清算の結了等,,,2015-10-05,1,,,,,ミズサワ,0
617,3110002027143,登記記録の閉鎖等,0,2022-07-20,2022-07-05,有限会社おがわ企画,,有限会社,新潟県,長岡市,愛宕３丁目８番１４号,,15,202,9400036,,,2022-07-05,清算の結了等,,,2015-10-05,1,,,,,オガワキカク,0
627,3120902000330,登記記録の閉鎖等,0,2022-07-20,2022-07-13,有限会社エフケイ建築設計事務所,,有限会社,大阪府,茨木市,玉櫛２丁目２４番２３号,,27,211,5670895,,,2022-07-13,清算の結了等,,,2015-10-05,1,,,,,エフケイケンチクセッケイジムショ,0
633,3130002006517,登記記録の閉鎖等,0,2022-07-20,2022-07-06,有限会社京都鳳塾,,有限会社,京都府,京都市左京区,岩倉中町１７２番地２,,26,103,6060025,,,2022-07-06,清算の結了等,,,2015-10-05,1,,,,,キョウトオオトリジュク,0
647,3140003013131,登記記録の閉鎖等,0,2022-07-20,2022-07-12,合同会社ｂｒｉｃｋ,,合同会社,兵庫県,宝塚市,湯本町４－８,,28,214,6650003,,,2022-07-12,清算の結了等,,,2018-07-04,1,,,,,ブリック,0
669,3180005009578,登記記録の閉鎖等,0,2022-07-20,2022-07-11,一宮小商業協同組合,,その他の設立登記法人,愛知県,一宮市,三条字山１５番地１エクセルナカゼン４０１号,,23,203,4940003,,,2022-07-11,清算の結了等,,,2015-10-05,1,,,,,イチノミヤショウショウギョウ,0
673,3180302017283,登記記録の閉鎖等,0,2022-07-20,2022-07-07,有限会社三河サービス,,有限会社,愛知県,安城市,東明町１４番地５,,23,212,4460027,,,2022-07-07,清算の結了等,,,2015-10-05,1,,,,,ミカワサービス,0
675,3190002000118,登記記録の閉鎖等,0,2022-07-20,2022-07-14,有限会社イー・ウェル,,有限会社,三重県,津市,長岡町３００８番地の１１,,24,201,5140064,,,2022-07-14,合併による解散等,8120001082605,令和４年７月１日横浜市港北区新横浜三丁目１７番６号株式会社ココカラファインヘルスケア（8120001082605）に合併し解散,2015-10-05,1,,,,,イーウェル,0
677,3200001032341,登記記録の閉鎖等,0,2022-07-20,2022-07-19,岐阜理美容株式会社,,株式会社,岐阜県,各務原市,那加前洞新町４丁目１８４番地,,21,213,5040021,,,2022-07-19,清算の結了等,,,2015-12-04,1,,,,,,0
695,3260002029397,登記記録の閉鎖等,0,2022-07-20,2022-07-15,有限会社マキノデンタルスタジオ,,有限会社,岡山県,津山市,小田中８番地の１２,,33,203,7080006,,,2022-07-15,清算の結了等,,,2015-10-05,1,,,,,マキノデンタルスタジオ,0
696,3270002000167,登記記録の閉鎖等,0,2022-07-20,2022-07-12,有限会社今井商会,,有限会社,鳥取県,鳥取市,商栄町４０３番地２,,31,201,6800912,,,2022-07-12,清算の結了等,,,2015-10-05,1,,,,,イマイショウカイ,0
697,3280003000974,登記記録の閉鎖等,0,2022-07-20,2022-07-14,合同会社じべ,,合同会社,島根県,益田市,元町１番２１号,,32,204,6980033,,,2022-07-14,清算の結了等,,,2015-10-05,1,,,,,ジベ,0
715,3320005009027,登記記録の閉鎖等,0,2022-07-20,2022-07-11,特定非営利活動法人ＯＫＹさわやかスポーツクラブ,,その他の設立登記法人,大分県,杵築市,山香町大字野原７００番５,,44,210,8791307,,,2022-07-11,清算の結了等,,,2015-10-05,1,,,,,オーケーワイサワヤカスポーツクラブ,0
726,3350002016907,登記記録の閉鎖等,0,2022-07-20,2022-07-14,美和商事有限会社,,有限会社,宮崎県,日南市,岩崎２丁目１番９号,,45,204,8870014,,,2022-07-14,清算の結了等,,,2015-10-05,1,,,,,ミワショウジ,0
728,3360001023713,登記記録の閉鎖等,0,2022-07-20,2022-07-05,玉海株式会社,,株式会社,沖縄県,石垣市,字大浜２３２番地１,,47,207,9070001,,,2022-07-05,清算の結了等,,,2018-03-26,1,,,,,タマウミ,0
754,3500001021009,登記記録の閉鎖等,0,2022-07-20,2022-07-11,株式会社エージーワイ,,株式会社,愛媛県,今治市,八町西３丁目６番３０号,,38,202,7940832,,,2022-07-11,合併による解散等,2500001012603,令和４年７月１日愛媛県今治市八町西三丁目６番３０号株式会社ありがとうサービス（2500001012603）に合併し解散,2017-11-22,1,,,,,エージーワイ,0
755,3500002006297,登記記録の閉鎖等,0,2022-07-20,2022-07-15,有限会社増田水道,,有限会社,愛媛県,松山市,太山寺町２３１３番地１４,,38,201,7992662,,,2022-07-15,清算の結了等,,,2015-10-05,1,,,,,マスダスイドウ,0
790,4010603006678,登記記録の閉鎖等,0,2022-07-20,2022-07-01,合同会社ＫＭヴィジョン,,合同会社,東京都,江東区,豊洲３丁目６番８－２８０９号,,13,108,1350061,,,2022-07-01,合併による解散等,4010603007156,令和４年７月１日東京都江東区豊洲三丁目６番８－２８０９号合同会社アセンショナリーワークス（4010603007156）に合併し解散,2017-03-15,1,,,,,ケーエムビジョン,0
808,4011101087277,登記記録の閉鎖等,0,2022-07-20,2022-07-12,株式会社Ｊ＆Ｇ,,株式会社,兵庫県,神戸市須磨区,須磨浦通３丁目１番１７号－２０６号室,,28,107,6540055,,,2022-07-12,清算の結了等,,,2019-04-02,1,,,,,ジェイアンドジー,0
819,4011701001001,登記記録の閉鎖等,0,2022-07-20,2022-07-13,株式会社ウエスタンコーポレーション,,株式会社,東京都,江戸川区,東葛西４丁目１８番１９号,,13,123,1340084,,,2022-07-13,清算の結了等,,,2015-10-05,1,,,,,ウエスタンコーポレーション,0
824,4013302012781,登記記録の閉鎖等,0,2022-07-20,2022-07-12,有限会社目白ビル,,有限会社,東京都,豊島区,目白３丁目５番１５号,,13,116,1710031,,,2022-07-12,清算の結了等,,,2015-10-05,1,,,,,メジロビル,0
837,4030001052018,登記記録の閉鎖等,0,2022-07-20,2022-07-07,株式会社システム・アド,,株式会社,埼玉県,春日部市,薄谷１０８番地８,,11,214,3440034,,,2022-07-07,清算の結了等,,,2015-10-05,1,,,,,システムアド,0
844,4040001062783,登記記録の閉鎖等,0,2022-07-20,2022-07-07,株式会社ヒラヤマ塗装,,株式会社,千葉県,匝瑳市,松山１０５５番地１,,12,235,2892152,,,2022-07-07,清算の結了等,,,2015-10-05,1,,,,,ヒラヤマトソウ,0
858,4060002004023,登記記録の閉鎖等,0,2022-07-20,2022-07-07,有限会社サン・オート・サービス,,有限会社,栃木県,宇都宮市,松原２丁目８番６号,,09,201,3200041,,,2022-07-07,清算の結了等,,,2015-10-05,1,,,,,サンオートサービス,0
863,4080105003738,登記記録の閉鎖等,0,2022-07-20,2022-07-15,特定非営利活動法人そら,,その他の設立登記法人,静岡県,富士宮市,野中８９６番地の２,,22,207,4180039,,,2022-07-15,清算の結了等,,,2015-10-05,1,,,,,ソラ,0
886,4120101024725,登記記録の閉鎖等,0,2022-07-20,2022-07-13,株式会社あすなろ保険企画,,株式会社,大阪府,堺市西区,北条町１丁３２番２０号,,27,144,5938302,,,2022-07-13,清算の結了等,,,2015-10-05,1,,,,,アスナロホケンキカク,0
916,4170002000960,登記記録の閉鎖等,0,2022-07-20,2022-07-19,川崎食品有限会社,,有限会社,和歌山県,和歌山市,北島２４番地の３,,30,201,6408403,,,2022-07-19,清算の結了等,,,2015-10-05,1,,,,,,0
932,4190002002682,登記記録の閉鎖等,0,2022-07-20,2022-07-14,有限会社ウェル・サポート,,有限会社,三重県,津市,乙部５番３号,,24,201,5140016,,,2022-07-14,合併による解散等,8120001082605,令和４年７月１日横浜市港北区新横浜三丁目１７番６号株式会社ココカラファインヘルスケア（8120001082605）に合併し解散,2015-10-05,1,,,,,ウェルサポート,0
933,4200001004100,登記記録の閉鎖等,0,2022-07-20,2022-07-19,丹羽商石油株式会社,,株式会社,岐阜県,岐阜市,福光西１丁目１２番２１号,,21,201,5020814,,,2022-07-19,清算の結了等,,,2015-10-05,1,,,,,ニワショウセキユ,0
955,4290001037406,登記記録の閉鎖等,0,2022-07-20,2022-07-07,株式会社ヒカリ,,株式会社,福岡県,宗像市,池田１０３８番地３,,40,220,8113515,,,2022-07-07,清算の結了等,,,2015-10-05,1,,,,,ヒカリ,0
962,4290803002912,登記記録の閉鎖等,0,2022-07-20,2022-07-13,合同会社ネコドリーム,,合同会社,福岡県,北九州市小倉南区,下石田１丁目２０番５８号,,40,107,8020832,,,2022-07-13,清算の結了等,,,2017-03-29,1,,,,,ネコドリーム,0
979,4370102002424,登記記録の閉鎖等,0,2022-07-20,2022-07-01,有限会社島貫住設,,有限会社,宮城県,白石市,字白石沖６番地の１,,04,206,9890226,,,2022-07-01,清算の結了等,,,2015-10-05,1,,,,,シマヌキジュウセツ,0
1006,5010002051325,登記記録の閉鎖等,0,2022-07-20,2022-07-04,有限会社エターナルシステム開発,,有限会社,東京都,中央区,晴海３丁目１３番２－５１３号,,13,102,1040053,,,2022-07-04,清算の結了等,,,2015-10-05,1,,,,,エターナルシステムカイハツ,0
1007,5010003017449,登記記録の閉鎖等,0,2022-07-20,2022-07-05,株式会社アンビシャス,,株式会社,東京都,中央区,日本橋浜町１丁目１１番３－４０８,,13,102,1030007,,,2022-07-05,清算の結了等,,,2015-10-05,1,,,,,アンビシャス,0
1009,5010005026910,登記記録の閉鎖等,0,2022-07-20,2022-07-08,一般社団法人ファンドドゥ,,その他の設立登記法人,東京都,千代田区,霞が関３丁目２番５号,,13,101,1000013,,,2022-07-08,清算の結了等,,,2017-05-30,1,,,,,ファンドドゥ,0
1010,5010101009232,登記記録の閉鎖等,0,2022-07-20,2022-07-05,株式会社ゆうか,,株式会社,東京都,八王子市,南大沢５丁目７番地２,,13,201,1920364,,,2022-07-05,清算の結了等,,,2015-10-05,1,,,,,ユウカ,0
1011,5010401079173,登記記録の閉鎖等,0,2022-07-20,2022-07-05,アエッフェ・ジャパン株式会社,,株式会社,東京都,千代田区,永田町２丁目１１番１号山王パークタワー４階,,13,101,1000014,,,2022-07-05,清算の結了等,,,2015-10-05,1,,,,,アエッフェジャパン,0
1082,5030005005937,登記記録の閉鎖等,0,2022-07-20,2022-07-07,特定非営利活動法人みんなのまち草の根ネットの会,,その他の設立登記法人,埼玉県,草加市,手代１丁目２４番２９号,,11,221,3400021,,,2022-07-07,清算の結了等,,,2015-10-05,1,,,,,ミンナノマチクサノネネットノカイ,0
1091,5050003000871,登記記録の閉鎖等,0,2022-07-20,2022-07-06,合資会社セレモニー匠,,合資会社,茨城県,小美玉市,下馬場５５１番の１,,08,236,3113426,,,2022-07-06,清算の結了等,,,2015-10-05,1,,,,,セレモニータクミ,0
1130,5130003003123,登記記録の閉鎖等,0,2022-07-20,2022-07-06,合同会社カリスプロモーション,,合同会社,京都府,京都市東山区,大和大路通三条下る３丁目弁財天町１２番地ぎおんシャトービル地下１階,,26,105,6050086,,,2022-07-06,清算の結了等,,,2015-10-05,1,,,,,カリスプロモーション,0
1132,5140001045199,登記記録の閉鎖等,0,2022-07-20,2022-07-14,株式会社中川調剤薬局,,株式会社,兵庫県,加古川市,加古川町平野５３７番地の２,,28,210,6750063,,,2022-07-14,合併による解散等,8120001082605,令和４年７月１日横浜市港北区新横浜三丁目１７番６号株式会社ココカラファインヘルスケア（8120001082605）に合併し解散,2015-10-05,1,,,,,ナカガワチョウザイヤッキョク,0
1133,5140001061997,登記記録の閉鎖等,0,2022-07-20,2022-07-11,株式会社ヤギシン,,株式会社,兵庫県,姫路市,南畝町１丁目３４番地,,28,201,6700961,,,2022-07-11,清算の結了等,,,2015-10-05,1,,,,,ヤギシン,0
1146,5160005005313,登記記録の閉鎖等,0,2022-07-20,2022-07-14,宗金寺,,その他の設立登記法人,滋賀県,犬上郡多賀町,大字霊仙２３７番地,,25,443,5220306,,,2022-07-14,清算の結了等,,,2015-10-05,1,,,,,ソウキンジ,0
1174,5230001005524,登記記録の閉鎖等,0,2022-07-20,2022-07-14,株式会社ＴＳＵＢＡＳＡ,,株式会社,富山県,富山市,南新町４番３号,,16,201,9300054,,,2022-07-14,合併による解散等,3030001136663,令和４年６月１日埼玉県鶴ヶ島市大字中新田３７９番地１株式会社ＩＣＡＰ（3030001136663）に合併し解散,2015-10-05,1,,,,,ツバサ,0
1200,5300005000365,登記記録の閉鎖等,0,2022-07-20,2022-07-07,医療法人たじり内科・小児科,,その他の設立登記法人,佐賀県,佐賀市,金立町大字千布２１４５番地１,,41,201,8490905,,,2022-07-07,清算の結了等,,,2015-10-05,1,,,,,タジリナイカショウニカ,0
1235,5430002035368,登記記録の閉鎖等,0,2022-07-20,2022-07-05,有限会社乾設備工業,,有限会社,北海道,札幌市手稲区,曙四条２丁目４番７号,00089405,01,109,0060834,,,2022-07-05,清算の結了等,,,2015-10-05,1,,,,,,0
1238,5450001010931,登記記録の閉鎖等,0,2022-07-20,2022-07-15,株式会社Ｓｋｙ,,株式会社,北海道,名寄市,字徳田２６０番地１１,,01,221,0960071,,,2022-07-15,清算の結了等,,,2015-10-05,1,,,,,スカイ,0
1242,5480001009954,登記記録の閉鎖等,0,2022-07-20,2022-07-19,株式会社成樹会,,株式会社,徳島県,徳島市,助任橋１丁目２３番地８助任橋ハマグチビル,,36,201,7700815,,,2022-07-19,清算の結了等,,,2017-03-23,1,,,,,セイジュカイ,0
1281,6010903004297,登記記録の閉鎖等,0,2022-07-20,2022-07-13,合同会社ｎ－ｔａｉｌ,,合同会社,東京都,世田谷区,経堂４丁目８番１７号,,13,112,1560052,,,2022-07-13,清算の結了等,,,2018-05-11,1,,,,,エヌテイル,0
1302,6012402001767,登記記録の閉鎖等,0,2022-07-20,2022-07-15,有限会社塚越レヂン工営,00058064,有限会社,東京都,府中市,押立町４丁目１７番地の１６,,13,206,1830012,,,2022-07-15,清算の結了等,,,2015-10-05,1,,,,,,0
1327,6021002060891,登記記録の閉鎖等,0,2022-07-20,2022-07-12,有限会社西山商店,,有限会社,神奈川県,中郡二宮町,二宮１３０９番地,,14,342,2590123,,,2022-07-12,清算の結了等,,,2015-10-05,1,,,,,ニシヤマショウテン,0
1334,6030002028873,登記記録の閉鎖等,0,2022-07-20,2022-07-07,有限会社カルパ,,有限会社,埼玉県,所沢市,上新井３丁目６１番１９号,,11,208,3591142,,,2022-07-07,清算の結了等,,,2015-10-05,1,,,,,カルパ,0
1348,6050002015671,登記記録の閉鎖等,0,2022-07-20,2022-07-05,有限会社トムスプランニング,,有限会社,茨城県,石岡市,旭台３丁目１２番１１号,,08,205,3150038,,,2022-07-05,清算の結了等,,,2015-10-05,1,,,,,トムスプランニング,0
1349,6050002018055,登記記録の閉鎖等,0,2022-07-20,2022-07-07,有限会社中山鋼業,,有限会社,茨城県,結城郡八千代町,大字平塚３７９０番地の４,,08,521,3003561,,,2022-07-07,清算の結了等,,,2015-10-05,1,,,,,,0
1353,6050002044811,登記記録の閉鎖等,0,2022-07-20,2022-07-05,有限会社東邦酪農機製作所,,有限会社,茨城県,結城市,中央町１丁目１２番地９,,08,207,3070052,,,2022-07-05,清算の結了等,,,2015-10-05,1,,,,,トウホウラクノウキセイサクジョ,0
1359,6080403003371,登記記録の閉鎖等,0,2022-07-20,2022-07-19,株式会社ＴＲＵＳＴ．ＷＡＴＥＲＰＲＯＯＦ,,株式会社,静岡県,浜松市東区,天王町１３６６番地の１,,22,132,4350052,,,2022-07-19,清算の結了等,,,2016-12-06,1,,,,,トラストウォータープルーフ,0
1360,6090002015321,登記記録の閉鎖等,0,2022-07-20,2022-07-14,有限会社後藤工業,,有限会社,山梨県,南巨摩郡南部町,南部４７９５番地４,,19,366,4092212,,,2022-07-14,清算の結了等,,,2015-10-05,1,,,,,ゴトウコウギョウ,0
1374,6120101033600,登記記録の閉鎖等,0,2022-07-20,2022-07-13,株式会社北浦染工場,,株式会社,大阪府,河内長野市,三日市町１０７２番地,,27,216,5860048,,,2022-07-13,清算の結了等,,,2015-10-05,1,,,,,キタウラセンコウジョウ,0
1375,6120103004112,登記記録の閉鎖等,0,2022-07-20,2022-07-05,トヨトミ合同会社,,合同会社,大阪府,泉南市,信達市場１３３４,,27,228,5900504,,,2022-07-05,清算の結了等,,,2021-03-31,1,,,,,トヨトミ,0
1378,6120903002760,登記記録の閉鎖等,0,2022-07-20,2022-07-15,エンディール合同会社,,合同会社,大阪府,箕面市,小野原東５丁目２２番３３号,,27,220,5620031,,,2022-07-15,清算の結了等,,,2019-03-04,1,,,,,エンディール,0
1381,6130001037873,登記記録の閉鎖等,0,2022-07-20,2022-07-01,綿久リネン株式会社,,株式会社,京都府,綴喜郡井手町,大字多賀小字茶臼塚１２番地２,,26,343,6100301,,,2022-07-01,合併による解散等,7130001037872,令和４年７月１日京都府綴喜郡井手町大字多賀小字茶臼塚１２番地の２ワタキューセイモア株式会社（7130001037872）に合併し解散,2015-10-05,1,,,,,ワタキュウリネン,0
1383,6130001069999,登記記録の閉鎖等,0,2022-07-20,2022-07-15,京田辺環境機材株式会社,,株式会社,京都府,京田辺市,大住大峯７番地の１,,26,211,6100343,,,2022-07-15,清算の結了等,,,2021-08-31,1,,,,,キョウタナベカンキョウキザイ,0
1421,6200002007059,登記記録の閉鎖等,0,2022-07-20,2022-07-19,有限会社遠藤金型,,有限会社,岐阜県,各務原市,那加山後町３丁目１４９番地,,21,213,5040042,,,2022-07-19,清算の結了等,,,2015-10-05,1,,,,,エンドウカナガタ,0
1426,6200002022792,登記記録の閉鎖等,0,2022-07-20,2022-07-19,有限会社ダイケンストーン,,有限会社,岐阜県,多治見市,笠原町４０２４番地の５８８,,21,204,5070901,,,2022-07-19,清算の結了等,,,2015-10-05,1,,,,,,0
1428,6210001000798,登記記録の閉鎖等,0,2022-07-20,2022-07-07,株式会社オーセレクト,,株式会社,福井県,吉田郡永平寺町,志比第２４号３５番地,,18,322,9101228,,,2022-07-07,清算の結了等,,,2015-10-05,1,,,,,オーセレクト,0
1434,6230002003724,登記記録の閉鎖等,0,2022-07-20,2022-07-13,有限会社山下運輸,,有限会社,富山県,富山市,藤木１８１４番地の８,,16,201,9300936,,,2022-07-13,清算の結了等,,,2015-10-05,1,,,,,ヤマシタウンユ,0
1457,6340002002888,登記記録の閉鎖等,0,2022-07-20,2022-07-14,有限会社鹿児島スパイラル,,有限会社,鹿児島県,鹿児島市,東開町字東開４番１０,,46,201,8910115,,,2022-07-14,合併による解散等,8030001076970,令和４年７月１日埼玉県川口市西青木二丁目９番５号株式会社フカガワ（8030001076970）に合併し解散,2015-10-05,1,,,,,カゴシマスパイラル,0
1459,6360001027819,登記記録の閉鎖等,0,2022-07-20,2022-07-01,株式会社琉２加勢ロジ,,株式会社,沖縄県,那覇市,樋川２丁目１０番１４号,,47,201,9000022,,,2022-07-01,清算の結了等,,,2020-10-26,1,,,,,リュウツウカセイロジ,0
1475,6400002013202,登記記録の閉鎖等,0,2022-07-20,2022-07-08,有限会社栄勇工務店,,有限会社,千葉県,鴨川市,花房９９２番地２,,12,223,2960032,,,2022-07-08,清算の結了等,,,2015-10-05,1,,,,,エイユウコウムテン,0
1493,7010001179124,登記記録の閉鎖等,0,2022-07-20,2022-07-05,ｄｏ株式会社,,株式会社,東京都,千代田区,内神田２丁目４番６号ＷＴＣ内神田ビル,,13,101,1010047,,,2022-07-05,清算の結了等,,,2016-10-24,1,,,,,ドゥ,0
1499,7010002018941,登記記録の閉鎖等,0,2022-07-20,2022-07-11,共栄社有限会社,,有限会社,神奈川県,茅ヶ崎市,元町５番２８号,,14,207,2530043,,,2022-07-11,清算の結了等,,,2015-10-05,1,,,,,キョウエイシャ,0
1516,7010403024679,登記記録の閉鎖等,0,2022-07-20,2022-06-30,ＳＣ　Ｊ－ＲＥＩＴ　Ｉｎｖｅｓｔｍｅｎｔｓ合同会社,,合同会社,東京都,港区,虎ノ門３丁目２２番１０－２０１号,,13,103,1050001,,,2022-06-30,清算の結了等,,,2021-02-15,1,,,,,エスシージェイリートインベストメンツ,0
1551,7011201022412,登記記録の閉鎖等,0,2022-07-20,2022-07-07,株式会社ひまわり,,株式会社,東京都,中野区,本町５丁目３番７号アーバヒルズ中野新橋２０３,,13,114,1640012,,,2022-07-07,清算の結了等,,,2020-09-18,1,,,,,ヒマワリ,0
1563,7011605002225,登記記録の閉鎖等,0,2022-07-20,2022-07-14,一般社団法人全国森の鑑定団,,その他の設立登記法人,東京都,練馬区,富士見台２丁目１７番１６号,,13,120,1770034,,,2022-07-14,清算の結了等,,,2019-02-20,1,,,,,ゼンコクモリノカンテイダン,0
1564,7011701016970,登記記録の閉鎖等,0,2022-07-20,2022-07-14,株式会社マカナライン,,株式会社,東京都,江戸川区,江戸川３丁目１９番地２０,,13,123,1320013,,,2022-07-14,清算の結了等,,,2015-10-05,1,,,,,マカナライン,0
1589,7021003001241,登記記録の閉鎖等,0,2022-07-20,2022-07-12,合資会社丸藤商店,,合資会社,神奈川県,相模原市中央区,淵野辺１丁目１０番１０号,,14,152,2520206,,,2022-07-12,清算の結了等,,,2015-10-05,1,,,,,マルフジショウテン,0
1636,7120001242531,登記記録の閉鎖等,0,2022-07-20,2022-07-11,株式会社ａｚｕｒｅ,,株式会社,大阪府,大阪市西区,本田２丁目２番８－７０１号,,27,106,5500022,,,2022-07-11,清算の結了等,,,2021-12-16,1,,,,,アジャー,0
1639,7120101054562,登記記録の閉鎖等,0,2022-07-20,2022-07-12,株式会社スマイルファクトリー,,株式会社,大阪府,堺市堺区,大浜中町１丁２番２０－７０８号,,27,141,5900975,,,2022-07-12,清算の結了等,,,2016-04-07,1,,,,,スマイルファクトリー,0
1643,7120901005525,登記記録の閉鎖等,0,2022-07-20,2022-07-15,上田鈑金工業株式会社,,株式会社,大阪府,吹田市,原町１丁目３６番６号,,27,205,5640004,,,2022-07-15,清算の結了等,,,2015-10-05,1,,,,,ウエダバンキンコウギョウ,0
1651,7130002007214,登記記録の閉鎖等,0,2022-07-20,2022-07-06,有限会社塩谷クリーニング店,,有限会社,京都府,京都市下京区,黒門通五条下る柿本町５９７番地,,26,106,6008357,,,2022-07-06,清算の結了等,,,2015-10-05,1,,,,,シオタニクリーニングテン,0
1654,7140001012445,登記記録の閉鎖等,0,2022-07-20,2022-07-07,株式会社アクスト,,株式会社,兵庫県,神戸市兵庫区,御崎本町１丁目１番５４号,,28,105,6520852,,,2022-07-07,合併による解散等,4140001014106,令和４年７月１日神戸市兵庫区御崎本町一丁目１番５４号ヘイシントラスト株式会社（4140001014106）に合併し解散,2015-10-05,1,,,,,アクスト,0
1655,7140001018038,登記記録の閉鎖等,0,2022-07-20,2022-07-08,株式会社ユニセ,,株式会社,兵庫県,神戸市須磨区,月見山本町１丁目９番２３号,,28,107,6540051,,,2022-07-08,清算の結了等,,,2015-10-05,1,,,,,ユニセ,0
1669,7140002062035,登記記録の閉鎖等,0,2022-07-20,2022-07-11,有限会社増岡瓦産業,,有限会社,兵庫県,西脇市,水尾町２１番地,,28,213,6770066,,,2022-07-11,清算の結了等,,,2015-10-05,1,,,,,マスオカカワラサンギョウ,0
1673,7160002004654,登記記録の閉鎖等,0,2022-07-20,2022-07-13,有限会社エレンジ,,有限会社,滋賀県,大津市,月輪１丁目１３番４号,,25,201,5202152,,,2022-07-13,清算の結了等,,,2015-10-05,1,,,,,エレンジ,0
1675,7180001065373,登記記録の閉鎖等,0,2022-07-20,2022-07-14,株式会社トム建設工房,,株式会社,愛知県,名古屋市緑区,鳴丘２丁目１５０３番地,,23,114,4580005,,,2022-07-14,清算の結了等,,,2015-10-05,1,,,,,トムケンセツコウボウ,0
1676,7180001103034,登記記録の閉鎖等,0,2022-07-20,2022-07-15,印刷会館株式会社,,株式会社,愛知県,名古屋市東区,泉１丁目２０番１２号,,23,102,4610001,,,2022-07-15,清算の結了等,,,2015-10-05,1,,,,,インサツカイカン,0
1678,7180001129987,登記記録の閉鎖等,0,2022-07-20,2022-07-15,株式会社ブリッジ,,株式会社,愛知県,名古屋市南区,明治１丁目４番２０号,,23,112,4570861,,,2022-07-15,清算の結了等,,,2017-11-02,1,,,,,ブリッジ,0
1681,7180002035813,登記記録の閉鎖等,0,2022-07-20,2022-07-14,有限会社戸笠土地,,有限会社,愛知県,名古屋市緑区,相川３丁目１０４番地,,23,114,4580011,,,2022-07-14,清算の結了等,,,2015-10-05,1,,,,,トガサトチ,0
1723,7290001095343,登記記録の閉鎖等,0,2022-07-20,2022-07-07,株式会社ハローズアーク,,株式会社,福岡県,春日市,星見ヶ丘３丁目１８５番地,,40,218,8160849,,,2022-07-07,清算の結了等,,,2021-11-10,1,,,,,ハローズアーク,0
1734,7320002012681,登記記録の閉鎖等,0,2022-07-20,2022-07-14,有限会社山内工業,,有限会社,大分県,別府市,大字南石垣１５８８番地の１１３,,44,202,8740000,,,2022-07-14,清算の結了等,,,2015-10-05,1,,,,,ヤマウチコウギョウ,0
1736,7330001018860,登記記録の閉鎖等,0,2022-07-20,2022-07-13,株式会社ラックプランＴＣＦ,,株式会社,佐賀県,佐賀市,本庄町大字本庄２５３番地３,,41,201,8400027,,,2022-07-13,合併による解散等,4330001017262,令和４年７月１日熊本県合志市幾久富１７５８番地７６６株式会社ラックプラン（4330001017262）に合併し解散,2015-10-05,1,,,,,ラックプランティーシーエフ,0
1744,7340001019453,登記記録の閉鎖等,0,2022-07-20,2022-07-15,鹿児島屋株式会社,,株式会社,鹿児島県,鹿児島市,山下町９番５号,,46,201,8920816,,,2022-07-15,清算の結了等,,,2016-06-30,1,,,,,カゴシマヤ,0
1762,7380001015011,登記記録の閉鎖等,0,2022-07-20,2022-07-06,株式会社福洋商事,,株式会社,福島県,いわき市,平字三町目３３番地,,07,204,9708026,,,2022-07-06,清算の結了等,,,2015-10-05,1,,,,,フクヨウショウジ,0
1765,7380002024226,登記記録の閉鎖等,0,2022-07-20,2022-07-06,有限会社猪狩,,有限会社,福島県,いわき市,常磐上湯長谷町五反田９１番地,,07,204,9728322,,,2022-07-06,清算の結了等,,,2015-10-05,1,,,,,イガリ,0
1787,8010001148631,登記記録の閉鎖等,0,2022-07-20,2022-07-05,株式会社ヒューマンインテリジェンスサービス,,株式会社,東京都,中央区,銀座１丁目６番１６号,,13,102,1040061,,,2022-07-05,清算の結了等,,,2015-10-05,1,,,,,ヒューマンインテリジェンスサービス,0
1795,8010101008603,登記記録の閉鎖等,0,2022-07-20,2022-07-05,株式会社小山商事,,株式会社,東京都,八王子市,川町２７９番地４,,13,201,1930821,,,2022-07-05,清算の結了等,,,2015-10-05,1,,,,,コヤマショウジ,0
1805,8010601014844,登記記録の閉鎖等,0,2022-07-20,2022-07-07,ハシー工業株式会社,,株式会社,東京都,墨田区,東向島６丁目５５番１３号,,13,107,1310032,,,2022-07-07,合併による解散等,8010601014869,令和４年７月１日東京都墨田区東向島六丁目５５番１３号株式会社ハシモト（8010601014869）に合併し解散,2015-10-05,1,,,,,,0
1829,8011201004434,登記記録の閉鎖等,0,2022-07-20,2022-07-11,株式会社バンドウ,,株式会社,東京都,中野区,南台２丁目２４番１３号,,13,114,1640014,,,2022-07-11,清算の結了等,,,2015-10-05,1,,,,,バンドウ,0
1850,8013303001771,登記記録の閉鎖等,0,2022-07-20,2022-07-14,人事総合研究所合同会社,,合同会社,東京都,豊島区,北大塚２丁目４番５号,,13,116,1700004,,,2022-07-14,清算の結了等,,,2015-10-05,1,,,,,ジンジソウゴウケンキュウショ,0
1869,8030001034516,登記記録の閉鎖等,0,2022-07-20,2022-07-07,株式会社メトロサービス,,株式会社,埼玉県,久喜市,菖蒲町新堀１８９９－１,,11,232,3460105,,,2022-07-07,清算の結了等,,,2015-10-05,1,,,,,メトロサービス,0
1873,8030001072870,登記記録の閉鎖等,0,2022-07-20,2022-07-07,株式会社柏光社,,株式会社,埼玉県,草加市,高砂２丁目７番１号,,11,221,3400015,,,2022-07-07,清算の結了等,,,2015-10-05,1,,,,,ハッコウシャ,0
1884,8040001071112,登記記録の閉鎖等,0,2022-07-20,2022-07-07,エレクトロデザイン株式会社,,株式会社,千葉県,流山市,大字西深井６２８番地の３,,12,220,2700107,,,2022-07-07,清算の結了等,,,2015-10-05,1,,,,,エレクトロデザイン,0
1888,8040002050908,登記記録の閉鎖等,0,2022-07-20,2022-07-07,有限会社藍川輪業,,有限会社,千葉県,流山市,前ケ崎５２１番地,,12,220,2700144,,,2022-07-07,清算の結了等,,,2015-10-05,1,,,,,アイカワリンギョウ,0
1898,8110005002072,登記記録の閉鎖等,0,2022-07-20,2022-07-11,エヌ・ピー・オーミニバスケットボールネットワーク,,その他の設立登記法人,新潟県,新潟市秋葉区,こがね町４番２０号,,15,105,9560016,,,2022-07-11,清算の結了等,,,2015-10-05,1,,,,,エヌピーオーミニバスケットボールネットワーク,0
1902,8120001174699,登記記録の閉鎖等,0,2022-07-20,2022-07-11,ＴＭＨ株式会社,,株式会社,東京都,大田区,蒲田５丁目２１－１３ペガサスステイションプラザ蒲田５０１号,,13,111,1440052,,,2022-07-11,清算の結了等,,,2015-10-05,1,,,,,,0
1903,8120001226450,登記記録の閉鎖等,0,2022-07-20,2022-07-13,堀尾株式会社,,株式会社,大阪府,大阪市中央区,瓦屋町１丁目８番２２－３０２号,,27,128,5420066,,,2022-07-13,清算の結了等,,,2020-01-14,1,,,,,ホリオ,0
1940,8140002040106,登記記録の閉鎖等,0,2022-07-20,2022-07-11,エービーサプライ有限会社,,有限会社,兵庫県,尼崎市,大庄西町１丁目２０番１０号,,28,202,6600077,,,2022-07-11,清算の結了等,,,2015-10-05,1,,,,,エービーサプライ,0
1955,8180303004482,登記記録の閉鎖等,0,2022-07-20,2022-07-06,ＮＫＤ　Ｇｒｏｕｐ合同会社,,合同会社,愛知県,刈谷市,新栄町６丁目４０１番地５,,23,210,4480843,,,2022-07-06,清算の結了等,,,2019-12-05,1,,,,,エヌケイディーグループ,0
1974,8300005000800,登記記録の閉鎖等,0,2022-07-20,2022-07-11,唐人町大師堂,,その他の設立登記法人,佐賀県,佐賀市,唐人町８０番地１,,41,201,8490000,,,2022-07-11,清算の結了等,,,2015-10-05,1,,,,,トウジンマチタイシドウ,0
1987,8370001002703,登記記録の閉鎖等,0,2022-07-20,2022-07-06,遠藤畳工業株式会社,,株式会社,宮城県,仙台市若林区,木ノ下２丁目６番５号,,04,103,9840047,,,2022-07-06,清算の結了等,,,2015-10-05,1,,,,,エンドウタタミコウギョウ,0
1988,8370001022313,登記記録の閉鎖等,0,2022-07-20,2022-07-05,株式会社エーアンドワイ,,株式会社,宮城県,仙台市青葉区,柏木２丁目２番７号,,04,101,9810933,,,2022-07-05,清算の結了等,,,2015-10-05,1,,,,,エーアンドワイ,0
2006,8390002007022,登記記録の閉鎖等,0,2022-07-20,2022-07-08,有限会社池田コンクリート工業所,,有限会社,山形県,酒田市,中央東町１番５２号,,06,204,9980033,,,2022-07-08,清算の結了等,,,2015-10-05,1,,,,,イケダコンクリートコウギョウショ,0
2008,8420002001797,登記記録の閉鎖等,0,2022-07-20,2022-07-11,有限会社ダイチ,,有限会社,青森県,青森市,大字新城字平岡１７５番地１３,,02,201,0380042,,,2022-07-11,清算の結了等,,,2015-10-05,1,,,,,ダイチ,0
2009,8420002009650,登記記録の閉鎖等,0,2022-07-20,2022-07-12,有限会社タイセイ商事,,有限会社,青森県,三戸郡五戸町,大字豊間内字地蔵平１番地１０２２,,02,442,0391524,,,2022-07-12,清算の結了等,,,2015-10-05,1,,,,,タイセイショウジ,0
2022,8450003000606,登記記録の閉鎖等,0,2022-07-20,2022-07-15,合資会社米澤製麺所,,合資会社,北海道,名寄市,風連町南町５２番地,,01,221,0980505,,,2022-07-15,清算の結了等,,,2015-10-05,1,,,,,ヨネザワセイメンジョ,0
2023,8460101001901,登記記録の閉鎖等,0,2022-07-20,2022-07-14,山勇建設株式会社,,株式会社,北海道,帯広市,自由が丘３丁目１０番地,,01,207,0802476,,,2022-07-14,清算の結了等,,,2015-10-05,1,,,,,ヤマユウケンセツ,0
2027,8480001002270,登記記録の閉鎖等,0,2022-07-20,2022-07-19,株式会社松島経営経済研究所,,株式会社,徳島県,徳島市,福島１丁目６番５６号,,36,201,7700868,,,2022-07-19,清算の結了等,,,2015-10-05,1,,,,,マツシマケイエイケイザイケンキュウショ,0
2030,8500001005758,登記記録の閉鎖等,0,2022-07-20,2022-07-19,株式会社トラッシュサポート,,株式会社,愛媛県,松山市,南吉田町２５１０番地１,,38,201,7918042,,,2022-07-19,清算の結了等,,,2015-10-05,1,,,,,トラッシュサポート,0
2033,8500002023098,登記記録の閉鎖等,0,2022-07-20,2022-07-15,有限会社ホリグチ,,有限会社,愛媛県,宇和島市,中央町１丁目３番１４号,,38,203,7980040,,,2022-07-15,清算の結了等,,,2015-10-05,1,,,,,ホリグチ,0
2034,8500003000955,登記記録の閉鎖等,0,2022-07-20,2022-07-15,合資会社中山栄三商店,,合資会社,愛媛県,宇和島市,並松２丁目３番２２号,,38,203,7980074,,,2022-07-15,清算の結了等,,,2015-10-05,1,,,,,ナカヤマエイゾウショウテン,0
2049,9010401014878,登記記録の閉鎖等,0,2022-07-20,2022-07-05,株式会社モスキーノ・ジャパン,,株式会社,東京都,千代田区,永田町２丁目１１番１号山王パークタワー４階,,13,101,1000014,,,2022-07-05,清算の結了等,,,2015-10-05,1,,,,,モスキーノジャパン,0
2058,9010501043348,登記記録の閉鎖等,0,2022-07-20,2022-07-01,パーソナルエージェントソリューションズ株式会社,,株式会社,東京都,渋谷区,道玄坂１丁目１６番６号二葉ビル５階,,13,113,1500043,,,2022-07-01,合併による解散等,7010501043283,令和４年７月１日東京都渋谷区道玄坂一丁目１６番６号二葉ビル５階パーソナルエージェントホールディングス株式会社（7010501043283）に合併し解散,2018-11-20,1,,,,,パーソナルエージェントソリューションズ,0
2062,9010601040674,登記記録の閉鎖等,0,2022-07-20,2022-07-07,平安株式会社,,株式会社,埼玉県,蕨市,南町３丁目１４番７号コートＭＳ２０１号,,11,223,3350003,,,2022-07-07,清算の結了等,,,2015-10-05,1,,,,,ヘイアン,0
2100,9013301016102,登記記録の閉鎖等,0,2022-07-20,2022-07-15,株式会社ＮＴＴぷらら,,株式会社,東京都,豊島区,東池袋３丁目１番１号,,13,116,1700013,,,2022-07-15,合併による解散等,1010001067912,令和４年７月１日東京都千代田区永田町二丁目１１番１号株式会社ＮＴＴドコモ（1010001067912）に合併し解散,2015-10-05,1,,,,,,0
2105,9020001065833,登記記録の閉鎖等,0,2022-07-20,2022-07-06,株式会社イリソエンジニアリング,,株式会社,神奈川県,川崎市高津区,北見方２丁目３５番８号,,14,134,2130005,,,2022-07-06,清算の結了等,,,2015-10-05,1,,,,,イリソエンジニアリング,0
2110,9021001004558,登記記録の閉鎖等,0,2022-07-20,2022-07-05,辰不動産株式会社,,株式会社,東京都,八王子市,七国４丁目４５番５号,,13,201,1920919,,,2022-07-05,清算の結了等,,,2015-10-05,1,,,,,タツフドウサン,0
2125,9040001097057,登記記録の閉鎖等,0,2022-07-20,2022-07-11,株式会社ＫＥＮフードカンパニー,,株式会社,千葉県,流山市,南流山１丁目１０番地の４,,12,220,2700163,,,2022-07-11,清算の結了等,,,2016-09-28,1,,,,,,0
2138,9060001024208,登記記録の閉鎖等,0,2022-07-20,2022-07-07,株式会社ＡＭＳ,,株式会社,栃木県,那須烏山市,小倉１１６８番地２,,09,215,3210528,,,2022-07-07,清算の結了等,,,2015-10-05,1,,,,,,0
2162,9120003011924,登記記録の閉鎖等,0,2022-07-20,2022-07-13,合同会社大阪リーガルトランスレーションズ,,合同会社,大阪府,大阪市中央区,安堂寺町２丁目２番１３号,,27,128,5420061,,,2022-07-13,清算の結了等,,,2016-08-17,1,,,,,オオサカリーガルトランスレーションズ,0
2164,9120901018194,登記記録の閉鎖等,0,2022-07-20,2022-07-19,東京スナック株式会社,,株式会社,大阪府,茨木市,見付山１丁目１１番１２号,,27,211,5670035,,,2022-07-19,清算の結了等,,,2015-10-05,1,,,,,トウキョウスナック,0
2180,9140001119420,登記記録の閉鎖等,0,2022-07-20,2022-07-11,株式会社神戸電気,,株式会社,兵庫県,神戸市兵庫区,松原通１丁目１番３９－１号,,28,105,6520881,,,2022-07-11,清算の結了等,,,2020-11-16,1,,,,,コウベデンキ,0
2190,9170001003101,登記記録の閉鎖等,0,2022-07-20,2022-07-19,株式会社丸上運送,,株式会社,和歌山県,和歌山市,岡山丁３０番地,,30,201,6408145,,,2022-07-19,清算の結了等,,,2015-10-05,1,,,,,マルガミウンソウ,0
2195,9180003019680,登記記録の閉鎖等,0,2022-07-20,2022-07-14,合同会社フローライト,,合同会社,愛知県,名古屋市瑞穂区,船原町６丁目２番地,,23,108,4670878,,,2022-07-14,清算の結了等,,,2019-02-12,1,,,,,フローライト,0
2200,9190001008791,登記記録の閉鎖等,0,2022-07-20,2022-07-06,いがほくぶビジネスサービス株式会社,,株式会社,三重県,伊賀市,平野西町１番１,,24,216,5180820,,,2022-07-06,清算の結了等,,,2015-10-05,1,,,,,イガホクブビジネスサービス,0
2202,9190002015424,登記記録の閉鎖等,0,2022-07-20,2022-07-14,有限会社メディカル・サポート,,有限会社,三重県,松阪市,下村町字樋口９９７番地３,00076035,24,204,5150043,,,2022-07-14,合併による解散等,8120001082605,令和４年７月１日横浜市港北区新横浜三丁目１７番６号株式会社ココカラファインヘルスケア（8120001082605）に合併し解散,2015-10-05,1,,,,,メディカルサポート,0
2205,9210002011800,登記記録の閉鎖等,0,2022-07-20,2022-07-06,有限会社ティ・エイ・ケイ,,有限会社,福井県,越前市,平出１丁目１２番３５号,,18,209,9150803,,,2022-07-06,清算の結了等,,,2015-10-05,1,,,,,ティエイケイ,0
2211,9230005002415,登記記録の閉鎖等,0,2022-07-20,2022-07-11,浄惠寺,00079260,その他の設立登記法人,富山県,中新川郡舟橋村,舟橋１０６８番地,,16,321,9300281,,,2022-07-11,清算の結了等,,,2015-10-05,1,,,,,ジョウエジ,0
2217,9250001002565,登記記録の閉鎖等,0,2022-07-20,2022-07-13,株式会社アイサポート,,株式会社,山口県,防府市,桑山１丁目７番３３号,,35,206,7470808,,,2022-07-13,清算の結了等,,,2015-10-05,1,,,,,アイサポート,0
2236,9290801002298,登記記録の閉鎖等,0,2022-07-20,2022-07-15,大興不動産株式会社,,株式会社,福岡県,北九州市小倉北区,須賀町１１番４１号,,40,106,8020034,,,2022-07-15,清算の結了等,,,2015-10-05,1,,,,,タイコウフドウサン,0
2241,9320002001113,登記記録の閉鎖等,0,2022-07-20,2022-07-12,株式会社ウエダ,,株式会社,大分県,大分市,松原町３丁目１番１１号大分鐵鋼ビルディング４１２号,,44,201,8700913,,,2022-07-12,合併による解散等,3010001025934,令和４年７月１日東京都中央区日本橋堀留町二丁目４番３号株式会社ニッコクトラスト（3010001025934）に合併し解散,2015-10-05,1,,,,,ウエダ,0
2249,9360005002501,登記記録の閉鎖等,0,2022-07-20,2022-07-15,医療法人瞳会,,その他の設立登記法人,沖縄県,浦添市,安波茶１丁目４６番２０号,,47,208,9012114,,,2022-07-15,清算の結了等,,,2015-10-05,1,,,,,ヒトミカイ,0
2252,9370003000753,登記記録の閉鎖等,0,2022-07-20,2022-07-05,合資会社平工務店,,合資会社,宮城県,仙台市若林区,木ノ下２丁目１１番２１号,,04,103,9840047,,,2022-07-05,清算の結了等,,,2015-10-05,1,,,,,タイラコウムテン,0
2254,9380001025909,登記記録の閉鎖等,0,2022-07-20,2022-07-06,株式会社生涯就労支援センター,,株式会社,福島県,いわき市,平字一町目１番地グラン・ディ・セーラムＴ１－１００７,,07,204,9708026,,,2022-07-06,清算の結了等,,,2015-10-05,1,,,,,ショウガイシュウロウシエンセンター,0
2264,9430001079263,登記記録の閉鎖等,0,2022-07-20,2022-07-04,株式会社ＮＥＸＴ　ＳＩＭＯＶＡＴＩＯＮ,,株式会社,北海道,札幌市中央区,南五条西４丁目１番地,,01,101,0640805,,,2022-07-04,清算の結了等,,,2019-06-28,1,,,,,ネクストシモベーション,0
2274,9470001015719,登記記録の閉鎖等,0,2022-07-20,2022-07-15,株式会社東秀テック,,株式会社,香川県,善通寺市,下吉田町５３番地５,,37,204,7650021,,,2022-07-15,清算の結了等,,,2016-05-12,1,,,,,,0
2276,9470002008119,登記記録の閉鎖等,0,2022-07-20,2022-07-14,有限会社ネオ・プラン,,有限会社,香川県,高松市,林町９６５番地３,,37,201,7610301,,,2022-07-14,清算の結了等,,,2015-10-05,1,,,,,ネオプラン,0
2279,9490005002091,登記記録の閉鎖等,0,2022-07-20,2022-07-04,企業組合ユニフィカ,,その他の設立登記法人,高知県,土佐清水市,汐見町２番１６号,,39,209,7870332,,,2022-07-04,清算の結了等,,,2015-10-05,1,,,,,ユニフィカ,0
2280,9500002012232,登記記録の閉鎖等,0,2022-07-20,2022-07-15,冨永建設有限会社,,有限会社,愛媛県,大洲市,肱川町山鳥坂９１６番地,,38,207,7971504,,,2022-07-15,清算の結了等,,,2015-10-05,1,,,,,トミナガケンセツ,0
