sequenceNumber,corporateNumber,process,correct,updateDate,changeDate,name,nameImageId,kind,prefectureName,cityName,streetNumber,addressImageId,prefectureCode,cityCode,postCode,addressOutside,addressOutsideImageId,closeDate,closeCause,successorCorporateNumber,changeCause,assignmentDate,latest,enName,enPrefectureName,enCityName,enAddressOutside,furigana,hihyoji
15,1010003035611,新規,0,2021-08-16,2021-08-16,日光Ｐｌｕｓ２０合同会社５,,合同会社,東京都,千代田区,丸の内３丁目１番１号東京共同会計事務所内,,13,101,1000005,,,,,,,2021-08-16,1,,,,,ニッコウプラストゥエンティゴ,0
29,1010401162131,新規,0,2021-08-16,2021-08-16,Ａ　Ｂｅｔｔｅｒ　Ｃｏｍｐａｎｙ株式会社,,株式会社,東京都,港区,芝２丁目１６番５号芝パークスクエア６階,,13,103,1050014,,,,,,,2021-08-16,1,,,,,エイベターカンパニー,0
31,1010403025922,新規,0,2021-08-16,2021-08-16,合同会社ＳＡ　ＰＲＯＰＥＲＴＹ５,,合同会社,東京都,港区,虎ノ門５丁目１番４号,,13,103,1050001,,,,,,,2021-08-16,1,,,,,エスエープロパティファイブ,0
39,1010601059730,新規,0,2021-08-16,2021-08-16,株式会社アデカット,,株式会社,東京都,墨田区,錦糸１丁目２番１号アルカセントラル１４Ｆ,,13,107,1300013,,,,,,,2021-08-16,1,,,,,アデカット,0
46,1010903006728,新規,0,2021-08-16,2021-08-16,合同会社プランツブリス,,合同会社,東京都,世田谷区,八幡山３丁目２１番２号,,13,112,1560056,,,,,,,2021-08-16,1,,,,,プランツブリス,0
47,1010905004184,新規,0,2021-08-16,2021-08-16,特定非営利活動法人輸出入手続サポートファーム,,その他の設立登記法人,東京都,世田谷区,野沢２丁目２３番１７号,,13,112,1540003,,,,,,,2021-08-16,1,,,,,ユシュツニュウテツヅキサポートファーム,0
51,1011001142390,新規,0,2021-08-16,2021-08-16,株式会社ｔｕｉ　ｂｅａｕｔｙ,,株式会社,東京都,渋谷区,神宮前５丁目４６番１号,,13,113,1500001,,,,,,,2021-08-16,1,,,,,ツイビューティ,0
52,1011001142408,新規,0,2021-08-16,2021-08-16,株式会社ウィルウェイＴＡＧＧ,,株式会社,東京都,目黒区,東が丘１丁目５番１６号,,13,110,1520021,,,,,,,2021-08-16,1,,,,,ウィルウェイタッグ,0
54,1011003013219,新規,0,2021-08-16,2021-08-16,合同会社ｗｈｅｅｅ,,合同会社,東京都,渋谷区,神山町４２番９号,,13,113,1500047,,,,,,,2021-08-16,1,,,,,ウィー,0
61,1011201023184,新規,0,2021-08-16,2021-08-16,入政・エンタープライズ株式会社,,株式会社,東京都,中野区,南台３丁目７番９号,,13,114,1640014,,,,,,,2021-08-16,1,,,,,イリショウエンタープライズ,0
66,1011401023604,新規,0,2021-08-16,2021-08-16,株式会社ＫＮ,,株式会社,東京都,板橋区,成増２丁目３２番１５－３２４号パークスクエア成増,,13,119,1750094,,,,,,,2021-08-16,1,,,,,ケーエヌ,0
81,1013301047864,新規,0,2021-08-16,2021-08-16,株式会社スイープ,,株式会社,東京都,豊島区,南池袋３丁目１３番７号ＭＡＳＨＩＴＡ５ビル５階,,13,116,1710022,,,,,,,2021-08-16,1,,,,,スイープ,0
88,1020001142598,新規,0,2021-08-16,2021-08-16,株式会社タケウチプロトタイプ研究所,,株式会社,神奈川県,横浜市都筑区,佐江戸町１７１０番地１,,14,118,2240054,,,,,,,2021-08-16,1,,,,,タケウチプロトタイプケンキュウジョ,0
89,1020001142623,新規,0,2021-08-16,2021-08-16,株式会社クレストアール,,株式会社,神奈川県,川崎市宮前区,菅生６丁目１５番１２号,,14,136,2160015,,,,,,,2021-08-16,1,,,,,クレストアール,0
99,1021003010801,新規,0,2021-08-16,2021-08-16,ひかり合同会社,,合同会社,神奈川県,相模原市中央区,上溝６０７番地８,,14,152,2520243,,,,,,,2021-08-16,1,,,,,ヒカリ,0
110,1030003017772,新規,0,2021-08-16,2021-08-16,カリステニクス合同会社,,合同会社,埼玉県,上尾市,大字上６番地３,,11,219,3620001,,,,,,,2021-08-16,1,,,,,カリステニクス,0
116,1040003018340,新規,0,2021-08-16,2021-08-16,ａｉｒｅｒａ１５合同会社,,合同会社,千葉県,市川市,市川南３丁目１４番２５－１０９号,,12,203,2720033,,,,,,,2021-08-16,1,,,,,エアエラフィフティーン,0
119,1060001033942,新規,0,2021-08-16,2021-08-16,株式会社那須ファーム,,株式会社,栃木県,那須塩原市,関谷字日の出１６５２,,09,213,3292801,,,,,,,2021-08-16,1,,,,,ナスファーム,0
129,1110001035974,新規,0,2021-08-16,2021-08-16,株式会社鉄建工業,,株式会社,新潟県,三条市,桜木町１５番３２号ラフィネＢ－２０２,,15,204,9550844,,,,,,,2021-08-16,1,,,,,テッケンコウギョウ,0
158,1130001069938,新規,0,2021-08-16,2021-08-16,株式会社ＫＯＳＵＧＡ,,株式会社,京都府,京都市西京区,大枝西長町３番地４３,,26,111,6101151,,,,,,,2021-08-16,1,,,,,コスガ,0
173,1180001147425,新規,0,2021-08-16,2021-08-16,株式会社トクイテン,,株式会社,愛知県,名古屋市中村区,井深町１番１号,,23,105,4530012,,,,,,,2021-08-16,1,,,,,トクイテン,0
174,1180001147458,新規,0,2021-08-16,2021-08-16,ＢＩＧＬＩＧＨＴ株式会社,,株式会社,愛知県,名古屋市西区,大野木４丁目５３９番地第１２平松ビル２Ｃ,,23,104,4520803,,,,,,,2021-08-16,1,,,,,ビッグライト,0
177,1180003022857,新規,0,2021-08-16,2021-08-16,合同会社ＮＯＲＴＨ　ＵＰ,,合同会社,愛知県,あま市,坂牧向江１３番地１,,23,237,4901115,,,,,,,2021-08-16,1,,,,,ノースアップ,0
182,1180301035271,新規,0,2021-08-16,2021-08-16,株式会社ＨＹサービス,,株式会社,愛知県,岡崎市,上佐々木町字梅ノ木５８番地１,,23,202,4440936,,,,,,,2021-08-16,1,,,,,エイチワイサービス,0
188,1200001039017,新規,0,2021-08-16,2021-08-16,中経堂株式会社,,株式会社,岐阜県,郡上市,八幡町城南町小ノ田２３２番地１４号,,21,219,5014224,,,,,,,2021-08-16,1,,,,,チュウケイドウ,0
190,1210005009980,新規,0,2021-08-16,2021-08-16,一般社団法人ありのままに生きる学校,,その他の設立登記法人,福井県,坂井市,春江町井向第１４号５５番地,,18,210,9190403,,,,,,,2021-08-16,1,,,,,アリノママニイキルガッコウ,0
191,1220005008585,新規,0,2021-08-16,2021-08-16,協同組合ＥＰＲ,,その他の設立登記法人,石川県,かほく市,高松ケ１３番地２０,,17,209,9291215,,,,,,,2021-08-16,1,,,,,イピーアール,0
197,1240001058450,新規,0,2021-08-16,2021-08-16,株式会社Ｔｈｅ　Ｗｏｒｌｄ,,株式会社,広島県,広島市佐伯区,海老園１丁目２番１０号,,34,108,7315135,,,,,,,2021-08-16,1,,,,,ザワールド,0
203,1260003003650,新規,0,2021-08-16,2021-08-16,合同会社高梁グリーンエナジー,,合同会社,岡山県,高梁市,松原町神原２２８１番地４,,33,209,7160068,,,,,,,2021-08-16,1,,,,,タカハシグリーンエナジー,0
204,1270001008337,新規,0,2021-08-16,2021-08-16,株式会社ＬＤＧ,,株式会社,鳥取県,米子市,旗ヶ崎５丁目４番１８号,,31,202,6830845,,,,,,,2021-08-16,1,,,,,エルディージー,0
207,1290001094144,新規,0,2021-08-16,2021-08-16,株式会社アイプラス,,株式会社,福岡県,久留米市,藤山町１７９７番地１１,,40,203,8300053,,,,,,,2021-08-16,1,,,,,アイプラス,0
208,1290001094177,新規,0,2021-08-16,2021-08-16,株式会社Ｆｕｒ　ｂａｂｙ,,株式会社,福岡県,大牟田市,新勝立町１丁目４８番地１・３階,,40,202,8360895,,,,,,,2021-08-16,1,,,,,ファーベイビー,0
209,1290001094210,新規,0,2021-08-16,2021-08-16,株式会社サクセサー,,株式会社,福岡県,福岡市中央区,大手門３丁目１番３０号,,40,133,8100074,,,,,,,2021-08-16,1,,,,,サクセサー,0
210,1290001094219,新規,0,2021-08-16,2021-08-16,Ｄ．ＷＥＬＬ株式会社,,株式会社,福岡県,福岡市博多区,博多駅南６丁目８番３０トピトック博多１０２４,,40,132,8120016,,,,,,,2021-08-16,1,,,,,,0
213,1290003011502,新規,0,2021-08-16,2021-08-16,合同会社ｎｏｚｎｏ’ｓ,,合同会社,福岡県,福岡市南区,柳瀬１丁目９番１１号,,40,134,8111321,,,,,,,2021-08-16,1,,,,,ノズノズ,0
214,1290801027708,新規,0,2021-08-16,2021-08-16,株式会社バリーバード,,株式会社,福岡県,北九州市小倉北区,浅野３丁目８番１号,,40,106,8020001,,,,,,,2021-08-16,1,,,,,バリーバード,0
215,1290803003905,新規,0,2021-08-16,2021-08-16,合同会社さくらパートナーズ,,合同会社,福岡県,北九州市小倉北区,大田町１４番２９号,,40,106,8020015,,,,,,,2021-08-16,1,,,,,サクラパートナーズ,0
217,1320001018545,新規,0,2021-08-16,2021-08-16,株式会社シンワ,,株式会社,大分県,大分市,大字里２２９８番地の４,,44,201,8700303,,,,,,,2021-08-16,1,,,,,シンワ,0
219,1320005009912,新規,0,2021-08-16,2021-08-16,一般社団法人大分県スポーツＩＴ協会,,その他の設立登記法人,大分県,大分市,高江北２丁目７番地の１０,,44,201,8701119,,,,,,,2021-08-16,1,,,,,オオイタケンスポーツアイティーキョウカイ,0
221,1330001028907,新規,0,2021-08-16,2021-08-16,株式会社ＳＩＳＵ,,株式会社,熊本県,熊本市中央区,桜町３番３０－１３０７号,,43,101,8600805,,,,,,,2021-08-16,1,,,,,シス,0
230,1350001017263,新規,0,2021-08-16,2021-08-16,株式会社恵進グループ,,株式会社,宮崎県,都城市,上東町１０－１２,,45,202,8850053,,,,,,,2021-08-16,1,,,,,ケイシングループ,0
236,1360003011370,新規,0,2021-08-16,2021-08-16,合同会社ナイサンド,,合同会社,沖縄県,浦添市,字城間３０１９番地座波建設ビル５０６,,47,208,9012133,,,,,,,2021-08-16,1,,,,,ナイサンド,0
237,1360005006492,新規,0,2021-08-16,2021-08-16,一般社団法人琉球Ｇｕａｒｄｉａｎ　Ｌｉｏｎｓ,,その他の設立登記法人,沖縄県,中頭郡北谷町,字砂辺３４３番地,,47,326,9040111,,,,,,,2021-08-16,1,,,,,リュウキュウガーディアンライオンズ,0
238,1370001047498,新規,0,2021-08-16,2021-08-16,株式会社和屋,,株式会社,宮城県,東松島市,大曲字貝田４８番地２,,04,214,9810502,,,,,,,2021-08-16,1,,,,,,0
252,1430003013046,新規,0,2021-08-16,2021-08-16,合同会社Ａｂｉｒａ　Ｒｅａｌ　Ｅｓｔａｔｅ,,合同会社,北海道,勇払郡安平町,早来栄町９０番地１０,,01,585,0591505,,,,,,,2021-08-16,1,,,,,アビラリアルエステート,0
253,1450001013442,新規,0,2021-08-16,2021-08-16,株式会社藤枝サッシ工業,,株式会社,北海道,旭川市,忠和七条５丁目４番１３号,,01,204,0708047,,,,,,,2021-08-16,1,,,,,フジエダサッシコウギョウ,0
257,1480003001707,新規,0,2021-08-16,2021-08-16,合同会社百財,,合同会社,徳島県,板野郡板野町,川端字金泉寺東２０番地２,,36,404,7790102,,,,,,,2021-08-16,1,,,,,ヒャクザイ,0
270,2010001220395,新規,0,2021-08-16,2021-08-16,株式会社イノイチテクノロジーズ,,株式会社,東京都,千代田区,九段南１丁目５番６号りそな九段ビル５階,,13,101,1020074,,,,,,,2021-08-16,1,,,,,イノイチテクノロジーズ,0
271,2010001220412,新規,0,2021-08-16,2021-08-16,株式会社ＥＭＣＰコーポレーション,,株式会社,東京都,中央区,佃１丁目１１番７号スカイライトタワー３５０３号,,13,102,1040051,,,,,,,2021-08-16,1,,,,,イーエムシーピーコーポレーション,0
272,2010001220437,新規,0,2021-08-16,2021-08-16,ヘルスケアグロースジャパン株式会社,,株式会社,東京都,中央区,勝どき１丁目３番１－２４０３号,,13,102,1040054,,,,,,,2021-08-16,1,,,,,ヘルスケアグロースジャパン,0
277,2010003035610,新規,0,2021-08-16,2021-08-16,日光Ｐｌｕｓ２０合同会社４,,合同会社,東京都,千代田区,丸の内３丁目１番１号東京共同会計事務所内,,13,101,1000005,,,,,,,2021-08-16,1,,,,,ニッコウプラストゥエンティヨン,0
288,2010401162114,新規,0,2021-08-16,2021-08-16,株式会社Ｓｐｏｔｌｉｇｈｔ２号,,株式会社,東京都,港区,東新橋１丁目６番１号,,13,103,1050021,,,,,,,2021-08-16,1,,,,,スポットライトニゴウ,0
296,2010503006350,新規,0,2021-08-16,2021-08-16,合同会社Ｖ１,,合同会社,東京都,台東区,東上野１丁目２０番２号,,13,106,1100015,,,,,,,2021-08-16,1,,,,,ブイワン,0
297,2010505003255,新規,0,2021-08-16,2021-08-16,一般社団法人日本ＶＥＧＡＮ　ＣＡＭＰ協会,,その他の設立登記法人,東京都,台東区,千束３丁目８番１１－５０３号ルクシェール浅草,,13,106,1110031,,,,,,,2021-08-16,1,,,,,ニホンヴィーガンキャンプキョウカイ,0
314,2011001142282,新規,0,2021-08-16,2021-08-16,株式会社ＳＨＯＹＵ,,株式会社,東京都,渋谷区,神宮前６丁目２３番４号桑野ビル２階,,13,113,1500001,,,,,,,2021-08-16,1,,,,,ショウユ,0
315,2011001142349,新規,0,2021-08-16,2021-08-16,株式会社デジタルライツコンサルティング,,株式会社,東京都,渋谷区,千駄ヶ谷２丁目３番５号リリーハイツ２０１,,13,113,1510051,,,,,,,2021-08-16,1,,,,,デジタルライツコンサルティング,0
326,2011101096016,新規,0,2021-08-16,2021-08-16,シュンカ株式会社,,株式会社,東京都,新宿区,大久保２丁目１１番２４号フォンテーヌ新宿３０３,,13,104,1690072,,,,,,,2021-08-16,1,,,,,シュンカ,0
327,2011103010932,新規,0,2021-08-16,2021-08-16,合同会社テンプス,,合同会社,東京都,新宿区,四谷坂町４番１号サンウィング四谷２０２,,13,104,1600002,,,,,,,2021-08-16,1,,,,,テンプス,0
330,2011201023183,新規,0,2021-08-16,2021-08-16,株式会社ｔｏｎｔｏｎ,,株式会社,東京都,中野区,沼袋１丁目１３－４,,13,114,1650025,,,,,,,2021-08-16,1,,,,,トントン,0
331,2011403003413,新規,0,2021-08-16,2021-08-16,Ｕｍ　ｆｉｅｌｄ合同会社,,合同会社,東京都,板橋区,小茂根５丁目４－４０,,13,119,1730037,,,,,,,2021-08-16,1,,,,,ウムフィールド,0
332,2011501027215,新規,0,2021-08-16,2021-08-16,ナタサ株式会社,,株式会社,東京都,荒川区,東日暮里３丁目１４番１８－６０５号,,13,118,1160014,,,,,,,2021-08-16,1,,,,,ナタサ,0
336,2011601025317,新規,0,2021-08-16,2021-08-16,株式会社ノアの箱舟,,株式会社,東京都,練馬区,旭丘２丁目４１番２－２１７号,,13,120,1760005,,,,,,,2021-08-16,1,,,,,ノアノハコブネ,0
348,2012401038194,新規,0,2021-08-16,2021-08-16,株式会社ＳＡＭ,,株式会社,東京都,小金井市,緑町３丁目１２番３４号（３２）,,13,210,1840003,,,,,,,2021-08-16,1,,,,,エスエイエム,0
349,2012403004987,新規,0,2021-08-16,2021-08-16,ａｋａｌａ合同会社,,合同会社,東京都,武蔵野市,吉祥寺南町５丁目２－１,,13,203,1800003,,,,,,,2021-08-16,1,,,,,アカラ,0
350,2012405004630,新規,0,2021-08-16,2021-08-16,一般社団法人エシカルウェディング協会,,その他の設立登記法人,東京都,三鷹市,井の頭２丁目１４番２－２０３号,,13,204,1810001,,,,,,,2021-08-16,1,,,,,エシカルウェディングキョウカイ,0
352,2012805003042,新規,0,2021-08-16,2021-08-16,一般社団法人発達共働会,,その他の設立登記法人,東京都,国立市,富士見台４丁目２番地の３,,13,215,1860003,,,,,,,2021-08-16,1,,,,,ハッタツキョウドウカイ,0
355,2013303005786,新規,0,2021-08-16,2021-08-16,合同会社ＳＲ,,合同会社,東京都,豊島区,東池袋１丁目１４番３号,,13,116,1700013,,,,,,,2021-08-16,1,,,,,エスアール,0
369,2020003020339,新規,0,2021-08-16,2021-08-16,合同会社ＳＳＲ,,合同会社,神奈川県,横浜市旭区,さちが丘１８３番地２０,,14,112,2410822,,,,,,,2021-08-16,1,,,,,エスエスアール,0
385,2030001143529,新規,0,2021-08-16,2021-08-16,株式会社ＦＵＮ－ＫＥＹ　ＦＡＣＴＯＲＹ,,株式会社,埼玉県,草加市,神明１丁目６番１８号,,11,221,3400012,,,,,,,2021-08-16,1,,,,,ファンキーファクトリー,0
386,2030001143743,新規,0,2021-08-16,2021-08-16,Ｓｔａｎｂｙｙ株式会社,,株式会社,埼玉県,川口市,幸町３丁目８番１０－５０１号,,11,203,3320016,,,,,,,2021-08-16,1,,,,,スタンビー,0
387,2030001143818,新規,0,2021-08-16,2021-08-16,株式会社ツヤヤカ,,株式会社,埼玉県,さいたま市見沼区,大字南中野１２１０番地１レジデンスＫ１０３,,11,104,3370042,,,,,,,2021-08-16,1,,,,,ツヤヤカ,0
388,2030001143834,新規,0,2021-08-16,2021-08-16,ハヤブサ建設株式会社,,株式会社,埼玉県,川口市,芝樋ノ爪１丁目１番７号,00123937,11,203,3330852,,,,,,,2021-08-16,1,,,,,ハヤブサケンセツ,0
389,2030001143850,新規,0,2021-08-16,2021-08-16,株式会社ＡＦｉＬ,,株式会社,埼玉県,さいたま市浦和区,常盤９丁目１６番５‐７０３号,,11,107,3300061,,,,,,,2021-08-16,1,,,,,アフィル,0
393,2030003017771,新規,0,2021-08-16,2021-08-16,合同会社峰不動産,,合同会社,埼玉県,川口市,西青木３丁目５番３０号パールハイツ２０３号,,11,203,3320035,,,,,,,2021-08-16,1,,,,,ミネフドウサン,0
412,2070001038353,新規,0,2021-08-16,2021-08-16,株式会社アイビーＧＯＯＤ,,株式会社,群馬県,前橋市,富士見町小暮２４２４番地１,,10,201,3710103,,,,,,,2021-08-16,1,,,,,アイビーグッド,0
415,2080001024385,新規,0,2021-08-16,2021-08-16,カネヒチ産業株式会社,,株式会社,静岡県,静岡市清水区,駒越南町１１番４４号,,22,103,4240903,,,,,,,2021-08-16,1,,,,,カネヒチサンギョウ,0
438,2120003020031,新規,0,2021-08-16,2021-08-16,美美角合同会社,,合同会社,大阪府,大阪市福島区,鷺洲５丁目１２番２１－１００６号,,27,103,5530002,,,,,,,2021-08-16,1,,,,,ミミカク,0
439,2120005022447,新規,0,2021-08-16,2021-08-16,ＮＰＯ法人アジア青年協会,,その他の設立登記法人,大阪府,大阪市淀川区,宮原１丁目８番１１号ＧＳハイム新大阪９０７,,27,123,5320003,,,,,,,2021-08-16,1,,,,,アジアセイネンキョウカイ,0
444,2120901044759,新規,0,2021-08-16,2021-08-16,株式会社エイトナイン,,株式会社,大阪府,吹田市,垂水町３丁目２９番３３－１１０５号,,27,205,5640062,,,,,,,2021-08-16,1,,,,,エイトナイン,0
445,2120901044767,新規,0,2021-08-16,2021-08-16,株式会社都和,,株式会社,大阪府,高槻市,芝生町２丁目５７番１号,,27,207,5690823,,,,,,,2021-08-16,1,,,,,トワ,0
446,2120901044775,新規,0,2021-08-16,2021-08-16,株式会社クレアホールディングス,,株式会社,大阪府,吹田市,広芝町２０－１６－５０３,,27,205,5640052,,,,,,,2021-08-16,1,,,,,クレアホールディングス,0
452,2130001069929,新規,0,2021-08-16,2021-08-16,株式会社コクリエ,,株式会社,京都府,宇治市,五ケ庄新開１４番地の６３コート黄檗Ｔ１０２,,26,204,6110011,,,,,,,2021-08-16,1,,,,,コクリエ,0
454,2130003007424,新規,0,2021-08-16,2021-08-16,合同会社ＬｅｄＬｅｉｔｈ,,合同会社,京都府,京都市南区,東九条南烏丸町３２,,26,107,6018041,,,,,,,2021-08-16,1,,,,,レッドリース,0
457,2130005016241,新規,0,2021-08-16,2021-08-16,一般社団法人ウエルネス・エイト協会,,その他の設立登記法人,京都府,京都市中京区,一之船入町５３７－２３ミレニアム御池５階,,26,104,6040924,,,,,,,2021-08-16,1,,,,,ウエルネスエイトキョウカイ,0
464,2140001122686,新規,0,2021-08-16,2021-08-16,株式会社ＮＩＮＯＳ,,株式会社,兵庫県,姫路市,広畑区吾妻町３丁目１７番地,,28,201,6711154,,,,,,,2021-08-16,1,,,,,ニノス,0
479,2180001147432,新規,0,2021-08-16,2021-08-16,株式会社ｆｙｓｉｋａ,,株式会社,愛知県,名古屋市中村区,黄金通２丁目６０の２,,23,105,4530804,,,,,,,2021-08-16,1,,,,,フィシカ,0
480,2180001147440,新規,0,2021-08-16,2021-08-16,株式会社グラムスキー,,株式会社,愛知県,名古屋市東区,山口町１６番１６号高木ビル１階,00123938,23,102,4610024,,,,,,,2021-08-16,1,,,,,グラムスキー,0
481,2180001147457,新規,0,2021-08-16,2021-08-16,株式会社タクミ商会,,株式会社,愛知県,東海市,加木屋町山之脇６０番地の２ライフプラザ加木屋弐番館（Ｎ－１３）,,23,222,4770032,,,,,,,2021-08-16,1,,,,,タクミショウカイ,0
482,2180001147465,新規,0,2021-08-16,2021-08-16,株式会社名立,,株式会社,愛知県,瀬戸市,南山町２丁目３８番地の２,,23,204,4890986,,,,,,,2021-08-16,1,,,,,メイリツ,0
490,2200001039016,新規,0,2021-08-16,2021-08-16,株式会社ラララ,,株式会社,岐阜県,養老郡養老町,江月字新白９９３番地３,,21,341,5031306,,,,,,,2021-08-16,1,,,,,ラララ,0
498,2220005008584,新規,0,2021-08-16,2021-08-16,一般社団法人石川県認定こども園協会,,その他の設立登記法人,石川県,鳳珠郡穴水町,字川島タの２番地,,17,461,9270027,,,,,,,2021-08-16,1,,,,,イシカワケンニンテイコドモエンキョウカイ,0
507,2250003002883,新規,0,2021-08-16,2021-08-16,合同会社みなた,,合同会社,山口県,下関市,豊田町大字宇内６８４番地,,35,201,7500411,,,,,,,2021-08-16,1,,,,,ミナタ,0
515,2290001094176,新規,0,2021-08-16,2021-08-16,株式会社福岡工芸,,株式会社,福岡県,筑紫野市,大字筑紫１１６－１－３,,40,217,8180025,,,,,,,2021-08-16,1,,,,,フクオカコウゲイ,0
516,2290001094201,新規,0,2021-08-16,2021-08-16,株式会社ＹＳＣ,,株式会社,福岡県,糟屋郡志免町,別府２丁目１３番１２号ブランメゾン１階－Ｃ号,,40,343,8112205,,,,,,,2021-08-16,1,,,,,ワイセスシー,0
517,2290001094242,新規,0,2021-08-16,2021-08-16,ＣＢエステート株式会社,,株式会社,福岡県,福岡市博多区,石城町１２番５－４０１号,,40,132,8120032,,,,,,,2021-08-16,1,,,,,シービーエステート,0
518,2290003011468,新規,0,2021-08-16,2021-08-16,合同会社ゴールドアセットマネジメント,,合同会社,福岡県,福岡市中央区,薬院１丁目１番１号４Ｆ,,40,133,8100022,,,,,,,2021-08-16,1,,,,,ゴールドアセットマネジメント,0
519,2290003011492,新規,0,2021-08-16,2021-08-16,合同会社ＹＭＰＴ,,合同会社,福岡県,福岡市東区,西戸崎２丁目１番３０－５１８号モントーレブルー・ラ・メール福岡キャビン棟,,40,131,8110321,,,,,,,2021-08-16,1,,,,,ワイエムピーティ,0
520,2290003011501,新規,0,2021-08-16,2021-08-16,合同会社ＫＡＣＨＩＫＯＫＯＲＯ,,合同会社,福岡県,飯塚市,芳雄町１番１４号サニーロイヤル新飯塚南７０１号,,40,205,8200018,,,,,,,2021-08-16,1,,,,,カチココロ,0
523,2290801027707,新規,0,2021-08-16,2021-08-16,株式会社Ｌｕｍｉｎｏｕｓ,,株式会社,福岡県,北九州市小倉北区,紺屋町２番１７号坂井ビル４Ｆ左側号,,40,106,8020081,,,,,,,2021-08-16,1,,,,,ルミナス,0
532,2310003004139,新規,0,2021-08-16,2021-08-16,ＳＭＫ　Ｔｒａｄｉｎｇ合同会社,,合同会社,長崎県,長崎市,三原１丁目１２番６－５０３号,,42,201,8528123,,,,,,,2021-08-16,1,,,,,エスエムケートレーディング,0
535,2330001028906,新規,0,2021-08-16,2021-08-16,大草農園株式会社,,株式会社,熊本県,玉名市,青野１１１８番地,,43,206,8650035,,,,,,,2021-08-16,1,,,,,オオクサノウエン,0
539,2340005009323,新規,0,2021-08-16,2021-08-16,行政書士法人グローバルコンテンツジャパン,,その他の設立登記法人,鹿児島県,鹿児島市,下荒田１丁目３５番２０号ランブリッジ下荒田１階,,46,201,8900056,,,,,,,2021-08-16,1,,,,,グローバルコンテンツジャパン,0
541,2350001017262,新規,0,2021-08-16,2021-08-16,株式会社グランド・コア,,株式会社,宮崎県,小林市,堤３６４０番地２２,,45,205,8860003,,,,,,,2021-08-16,1,,,,,グランドコア,0
545,2360003011361,新規,0,2021-08-16,2021-08-16,合同会社イゾラリッカ,,合同会社,沖縄県,石垣市,字新川２４６０番地３２トゥモール石川３０５,,47,207,9070024,,,,,,,2021-08-16,1,,,,,イゾラリッカ,0
546,2360005006491,新規,0,2021-08-16,2021-08-16,沖縄県中央砂利採取事業協同組合,,その他の設立登記法人,沖縄県,南城市,知念字知名６４８番地,,47,215,9011503,,,,,,,2021-08-16,1,,,,,オキナワケンチュウオウジャリサイシュ,0
551,2370001047489,新規,0,2021-08-16,2021-08-16,株式会社ブライトアセットマネジメント,,株式会社,宮城県,仙台市若林区,大和町１丁目１９番１５号,,04,103,9840042,,,,,,,2021-08-16,1,,,,,ブライトアセットマネジメント,0
573,2430001084757,新規,0,2021-08-16,2021-08-16,ＨＩＬＯ株式会社,,株式会社,北海道,札幌市北区,北二十一条西１２丁目２,,01,102,0010021,,,,,,,2021-08-16,1,,,,,ヒーロー,0
580,2470003002011,新規,0,2021-08-16,2021-08-16,合同会社かねしま,,合同会社,香川県,高松市,川部町１０８４,,37,201,7618046,,,,,,,2021-08-16,1,,,,,カネシマ,0
587,2700150104065,新規,0,2021-08-16,2021-07-09,伊敷台校区夢の里まちづくり協議会,,その他,鹿児島県,鹿児島市,伊敷台４丁目２０番１号,,46,201,8900007,,,,,,,2021-07-09,1,,,,,イシキダイコウクユメノサトマチヅクリキヨウギカイ,0
599,3010001220394,新規,0,2021-08-16,2021-08-16,株式会社防滑サポート,,株式会社,東京都,千代田区,岩本町１丁目７番４号,,13,101,1010032,,,,,,,2021-08-16,1,,,,,ボウカツサポート,0
604,3010003035618,新規,0,2021-08-16,2021-08-16,日光Ｐｌｕｓ２０合同会社１２,,合同会社,東京都,千代田区,丸の内３丁目１番１号東京共同会計事務所内,,13,101,1000005,,,,,,,2021-08-16,1,,,,,ニッコウプラストゥエンティイチニー,0
619,3010403025912,新規,0,2021-08-16,2021-08-16,ＬＭＡ合同会社,,合同会社,東京都,港区,麻布十番１丁目２番７－１１０５号,,13,103,1060045,,,,,,,2021-08-16,1,,,,,エルエムエー,0
623,3010405020085,新規,0,2021-08-16,2021-08-16,税理士法人ｏｎｅ,,その他の設立登記法人,東京都,港区,元赤坂１丁目４番２１号赤坂パレスビル３階,,13,103,1070051,,,,,,,2021-08-16,1,,,,,ワン,0
628,3010601059786,新規,0,2021-08-16,2021-08-16,株式会社Ｃｏｚｙ,,株式会社,東京都,墨田区,江東橋２丁目１０番７号ＬＥＥビル３Ｆ,,13,107,1300022,,,,,,,2021-08-16,1,,,,,コジー,0
629,3010601059811,新規,0,2021-08-16,2021-08-16,株式会社ＱＬＥＡ,,株式会社,東京都,墨田区,東駒形２丁目１４番１号,,13,107,1300005,,,,,,,2021-08-16,1,,,,,クリア,0
630,3010603009079,新規,0,2021-08-16,2021-08-16,合同会社ＧｉｖｅＬａｂ,,合同会社,東京都,墨田区,石原３丁目１９－６,,13,107,1300011,,,,,,,2021-08-16,1,,,,,ギブラボ,0
639,3010901049272,新規,0,2021-08-16,2021-08-16,ランドハウス・コンサルティング株式会社,,株式会社,東京都,世田谷区,砧３丁目２番２号,,13,112,1570073,,,,,,,2021-08-16,1,,,,,ランドハウスコンサルティング,0
647,3011001142232,新規,0,2021-08-16,2021-08-16,株式会社ＹＡＺ　Ｇｒｏｕｐ,,株式会社,東京都,渋谷区,渋谷２丁目７番５号,,13,113,1500002,,,,,,,2021-08-16,1,,,,,ヤジュグループ,0
648,3011001142307,新規,0,2021-08-16,2021-08-16,株式会社スタジオ温故知新,,株式会社,東京都,渋谷区,神宮前５丁目２８番２－２０６号,,13,113,1500001,,,,,,,2021-08-16,1,,,,,スタジオオンコチシン,0
652,3011403003412,新規,0,2021-08-16,2021-08-16,Ｗｏｒｔｈ　Ｒｅｌａｔｉｏｎ合同会社,,合同会社,東京都,板橋区,弥生町２０－９プリマ中板橋壱番館２０１,,13,119,1730021,,,,,,,2021-08-16,1,,,,,ワースリレーション,0
655,3011601025324,新規,0,2021-08-16,2021-08-16,株式会社ハロプロ,,株式会社,東京都,練馬区,旭丘１丁目５７番５－５０１号,,13,120,1760005,,,,,,,2021-08-16,1,,,,,ハロプロ,0
661,3011805003092,新規,0,2021-08-16,2021-08-16,一般社団法人ゆずなの郷,,その他の設立登記法人,東京都,足立区,西伊興２丁目２番１１号,,13,121,1210824,,,,,,,2021-08-16,1,,,,,ユズナノサト,0
664,3012401038193,新規,0,2021-08-16,2021-08-16,Ｒ＆Ｃコンサルタント株式会社,,株式会社,東京都,調布市,菊野台１丁目４６番地３リーブスコート２０２号,,13,208,1820007,,,,,,,2021-08-16,1,,,,,アールアンドシーコンサルタント,0
665,3012401038202,新規,0,2021-08-16,2021-08-16,アロース株式会社,,株式会社,東京都,三鷹市,上連雀１丁目１７番２８号,,13,204,1810012,,,,,,,2021-08-16,1,,,,,アロース,0
666,3012403004986,新規,0,2021-08-16,2021-08-16,合同会社ぬくみ,,合同会社,東京都,調布市,緑ケ丘２丁目４９番３５号,,13,208,1820001,,,,,,,2021-08-16,1,,,,,ヌクミ,0
674,3013301047862,新規,0,2021-08-16,2021-08-16,寶迷株式会社,,株式会社,東京都,豊島区,池袋４丁目２４番１号金山ビル３階,,13,116,1710014,,,,,,,2021-08-16,1,,,,,ホウメイ,0
675,3013301047870,新規,0,2021-08-16,2021-08-16,株式会社ｅｅｅａｔｓ,,株式会社,東京都,豊島区,東池袋３丁目１番１号,,13,116,1700013,,,,,,,2021-08-16,1,,,,,イーツ,0
678,3013303005785,新規,0,2021-08-16,2021-08-16,合同会社さとう,,合同会社,東京都,豊島区,南大塚２丁目２１番７－８０１号,,13,116,1700005,,,,,,,2021-08-16,1,,,,,サトウ,0
689,3021001073682,新規,0,2021-08-16,2021-08-16,光総合株式会社,,株式会社,神奈川県,伊勢原市,下糟屋３０２６番地１６ＭＫⅡ２０３,00123944,14,214,2591143,,,,,,,2021-08-16,1,,,,,ヒカリソウゴウ,0
698,3021005012273,新規,0,2021-08-16,2021-08-16,特定非営利活動法人仂,,その他の設立登記法人,神奈川県,足柄上郡松田町,寄４６３９番地,,14,363,2580001,,,,,,,2021-08-16,1,,,,,ロク,0
700,3030001143817,新規,0,2021-08-16,2021-08-16,株式会社ヒットビット,,株式会社,埼玉県,さいたま市南区,別所３丁目５－１２ＷＡＤＡ１９－２０１,,11,108,3360021,,,,,,,2021-08-16,1,,,,,ヒットビット,0
701,3030001143866,新規,0,2021-08-16,2021-08-16,ゑちごや株式会社,,株式会社,埼玉県,富士見市,渡戸１丁目６番６号,,11,235,3540032,,,,,,,2021-08-16,1,,,,,エチゴヤ,0
703,3030003017770,新規,0,2021-08-16,2021-08-16,合同会社シグマ,,合同会社,埼玉県,さいたま市浦和区,常盤１０丁目２番４号３０２,,11,107,3300061,,,,,,,2021-08-16,1,,,,,シグマ,0
722,3080001024384,新規,0,2021-08-16,2021-08-16,株式会社エツナ,,株式会社,静岡県,牧之原市,松本４２６番地２,,22,226,4210513,,,,,,,2021-08-16,1,,,,,エツナ,0
726,3100001034513,新規,0,2021-08-16,2021-08-16,株式会社ＰＬＯＴ　ＳＴＡＮＤＡＲＤ,,株式会社,長野県,東御市,本海野８４５,,20,219,3890518,,,,,,,2021-08-16,1,,,,,プロットスタンダード,0
745,3120001239787,新規,0,2021-08-16,2021-08-16,ＡＮＲＩ株式会社,,株式会社,大阪府,大阪市中央区,南船場３丁目６番２５号ＩＢＣ心斎橋ｅａｓｔ８階１００６号室,,27,128,5420081,,,,,,,2021-08-16,1,,,,,アンリ,0
747,3120003020030,新規,0,2021-08-16,2021-08-16,合同会社Ｍａ　ｖｉｅ,,合同会社,大阪府,寝屋川市,田井西町３４番３号,,27,215,5720020,,,,,,,2021-08-16,1,,,,,マヴィ,0
748,3120003020039,新規,0,2021-08-16,2021-08-16,ＥＩＴＥＮ－ＦＩＬＭ合同会社,,合同会社,大阪府,大阪市西区,京町堀１丁目１１番７号京旺ビル４階Ｂ号室,,27,106,5500003,,,,,,,2021-08-16,1,,,,,エイテンフィルム,0
749,3120101064152,新規,0,2021-08-16,2021-08-16,秦産業株式会社,,株式会社,大阪府,泉佐野市,新安松１丁目４－２３,,27,213,5980032,,,,,,,2021-08-16,1,,,,,シンサンギョウ,0
751,3120103004296,新規,0,2021-08-16,2021-08-16,スカイユニオンジャパン合同会社,,合同会社,大阪府,泉南市,信達岡中９７３番地の５０,,27,228,5900523,,,,,,,2021-08-16,1,,,,,スカイユニオンジャパン,0
753,3120901044766,新規,0,2021-08-16,2021-08-16,株式会社たてやま総合鑑定,,株式会社,大阪府,茨木市,中穂積１丁目１番５２号アメニティ夢Ⅲ２０５号,00123939,27,211,5670034,,,,,,,2021-08-16,1,,,,,タテヤマソウゴウカンテイ,0
762,3130003007423,新規,0,2021-08-16,2021-08-16,半夏生合同会社,,合同会社,京都府,京都市上京区,裏門通出水上る白銀町２４５－５,,26,102,6028178,,,,,,,2021-08-16,1,,,,,ハンゲショウ,0
764,3130005016249,新規,0,2021-08-16,2021-08-16,一般社団法人４ＤＡＳ協会,,その他の設立登記法人,京都府,京都市左京区,下鴨南野々神町１番地の１５、フォースビル４階,,26,103,6060847,,,,,,,2021-08-16,1,,,,,フォーダスキョウカイ,0
769,3140005025785,新規,0,2021-08-16,2021-08-16,特定非営利活動法人でんでん,,その他の設立登記法人,兵庫県,姫路市,綿町１０４番地スクエアビル２Ｆ,,28,201,6700921,,,,,,,2021-08-16,1,,,,,デンデン,0
778,3180001147431,新規,0,2021-08-16,2021-08-16,株式会社ｆｅｌｍｏ,,株式会社,愛知県,名古屋市瑞穂区,瑞穂通８丁目１７番地の２－７０５,,23,108,4670806,,,,,,,2021-08-16,1,,,,,フェルモ,0
779,3180001147456,新規,0,2021-08-16,2021-08-16,株式会社ユミディーテ,,株式会社,愛知県,江南市,中奈良町本郷東１２５番地,,23,217,4838256,,,,,,,2021-08-16,1,,,,,ユミディーテ,0
780,3180001147464,新規,0,2021-08-16,2021-08-16,株式会社パペット・フィルム・パートナーズ,,株式会社,愛知県,名古屋市守山区,森孝東２丁目３０１番地,,23,113,4630033,,,,,,,2021-08-16,1,,,,,パペットフィルムパートナーズ,0
791,3180303005080,新規,0,2021-08-16,2021-08-16,合同会社Ｆｕｔｕｒｅ　Ｍａｋｅｒ,,合同会社,愛知県,西尾市,伊藤４丁目１４番地２０ソレイユつるしろ２０２,,23,213,4450807,,,,,,,2021-08-16,1,,,,,フューチャーメイカー,0
792,3190001028606,新規,0,2021-08-16,2021-08-16,株式会社暁,,株式会社,三重県,桑名市,赤尾台６丁目２４番地２０,,24,205,5110935,,,,,,,2021-08-16,1,,,,,アカツキ,0
793,3200001039015,新規,0,2021-08-16,2021-08-16,株式会社清水大工,,株式会社,岐阜県,高山市,赤保木町７４４番地２,,21,203,5060045,,,,,,,2021-08-16,1,,,,,シミズダイク,0
800,3240001058449,新規,0,2021-08-16,2021-08-16,株式会社Ａｚｕｒ　ｈａｉｒ,,株式会社,広島県,広島市中区,大手町２丁目７番６号,,34,101,7300051,,,,,,,2021-08-16,1,,,,,アジュヘアー,0
806,3260003003649,新規,0,2021-08-16,2021-08-16,合同会社修養,,合同会社,岡山県,岡山市北区,野田３丁目１３番３７号アソシエビル２０２,,33,101,7000971,,,,,,,2021-08-16,1,,,,,シュウヨウ,0
812,3290001094142,新規,0,2021-08-16,2021-08-16,株式会社原翔グループ,,株式会社,福岡県,那珂川市,片縄西４丁目３番１７号,,40,231,8111202,,,,,,,2021-08-16,1,,,,,ハラショウグループ,0
813,3290001094150,新規,0,2021-08-16,2021-08-16,上田工務店株式会社,,株式会社,福岡県,宗像市,日の里２丁目６番地６,,40,220,8113425,,,,,,,2021-08-16,1,,,,,ウエダコウムテン,0
814,3290001094175,新規,0,2021-08-16,2021-08-16,株式会社シュン,,株式会社,福岡県,筑紫野市,針摺西１丁目６番１号,,40,217,8180084,,,,,,,2021-08-16,1,,,,,シュン,0
815,3290001094191,新規,0,2021-08-16,2021-08-16,リカー・シー株式会社,,株式会社,福岡県,久留米市,田主丸町以真恵２６４番地３,,40,203,8391223,,,,,,,2021-08-16,1,,,,,リカーシー,0
816,3290001094217,新規,0,2021-08-16,2021-08-16,株式会社和みの家,,株式会社,福岡県,福岡市東区,松島３丁目５番１２－１０２号,,40,131,8130062,,,,,,,2021-08-16,1,,,,,ナゴミノイエ,0
820,3290801027697,新規,0,2021-08-16,2021-08-16,株式会社ＴＥＲＵＳＵＳＨＩ　ＩＮＴＥＲＮＡＴＩＯＮＡＬ,,株式会社,福岡県,北九州市戸畑区,菅原３丁目１番７号,,40,105,8040044,,,,,,,2021-08-16,1,,,,,テルスシインターナショナル,0
825,3320003003601,新規,0,2021-08-16,2021-08-16,創家祥建合同会社,,合同会社,大分県,別府市,朝見２丁目７番１１号,,44,202,8740812,,,,,,,2021-08-16,1,,,,,ツクリヤショウケン,0
835,3350001017261,新規,0,2021-08-16,2021-08-16,マサミツテクノロジー株式会社,,株式会社,宮崎県,都城市,志比田町５１７８番地６,,45,202,8850093,,,,,,,2021-08-16,1,,,,,マサミツテクノロジー,0
842,3370001047488,新規,0,2021-08-16,2021-08-16,株式会社ＢＲＯＳ,,株式会社,宮城県,岩沼市,大手町５番１７号,,04,211,9892442,,,,,,,2021-08-16,1,,,,,ブロス,0
843,3370001047496,新規,0,2021-08-16,2021-08-16,株式会社ＥＬ電工,,株式会社,宮城県,仙台市太白区,桜木町２６番１５－１０１号,,04,104,9820835,,,,,,,2021-08-16,1,,,,,,0
844,3370003005353,新規,0,2021-08-16,2021-08-16,合同会社Ｖａｌ－Ｈａｌｌａ,,合同会社,宮城県,仙台市青葉区,国分町２丁目７番５号,,04,101,9800803,,,,,,,2021-08-16,1,,,,,ヴァルハラ,0
855,3410001012925,新規,0,2021-08-16,2021-08-16,株式会社ライフクラフト,,株式会社,秋田県,大館市,字相染沢中岱１３番地１６,,05,204,0170806,,,,,,,2021-08-16,1,,,,,ライフクラフト,0
857,3420001017551,新規,0,2021-08-16,2021-08-16,株式会社新規,,株式会社,青森県,上北郡七戸町,字舘野１７番地１２,,02,402,0392516,,,,,,,2021-08-16,1,,,,,シンキ,0
865,3430003013028,新規,0,2021-08-16,2021-08-16,合同会社リーガルサーチ,,合同会社,北海道,札幌市中央区,大通西２１丁目３－１－３０１,,01,101,0640820,,,,,,,2021-08-16,1,,,,,リーガルサーチ,0
866,3430003013044,新規,0,2021-08-16,2021-08-16,合同会社齊藤,,合同会社,北海道,江別市,錦町２番地の１７ハイツイワオカ２０３,,01,217,0690811,,,,,,,2021-08-16,1,,,,,サイトウ,0
867,3460003000857,新規,0,2021-08-16,2021-08-16,合同会社ヤミーフーズ,,合同会社,北海道,釧路市,大楽毛二線１７０番地の１１１,,01,206,0840917,,,,,,,2021-08-16,1,,,,,ヤミーフーズ,0
869,3470001018660,新規,0,2021-08-16,2021-08-16,株式会社ビア,,株式会社,香川県,高松市,今新町８－６ＩＭＡＧＩＮＢＬＤＧ４階,,37,201,7600043,,,,,,,2021-08-16,1,,,,,ビア,0
885,4010001220468,新規,0,2021-08-16,2021-08-16,株式会社アストランティア,,株式会社,東京都,千代田区,大手町１丁目６－１大手町ビル１階ＳＰＡＣＥＳ大手町,,13,101,1000004,,,,,,,2021-08-16,1,,,,,アストランティア,0
886,4010003035609,新規,0,2021-08-16,2021-08-16,日光Ｐｌｕｓ２０合同会社３,,合同会社,東京都,千代田区,丸の内３丁目１番１号東京共同会計事務所内,,13,101,1000005,,,,,,,2021-08-16,1,,,,,ニッコウプラストゥエンティサン,0
887,4010003035617,新規,0,2021-08-16,2021-08-16,日光Ｐｌｕｓ２０合同会社１１,,合同会社,東京都,千代田区,丸の内３丁目１番１号東京共同会計事務所内,,13,101,1000005,,,,,,,2021-08-16,1,,,,,ニッコウプラストゥエンティイチイチ,0
894,4010401162161,新規,0,2021-08-16,2021-08-16,Ｒａｙ　Ｐｒｏｐｅｒｔｉｅｓ株式会社,,株式会社,東京都,港区,芝浦４丁目２０番２－４５１０号,,13,103,1080023,,,,,,,2021-08-16,1,,,,,レイプロパティーズ,0
900,4010405020092,新規,0,2021-08-16,2021-08-16,社会保険労務士法人ｏｎｅ,,その他の設立登記法人,東京都,港区,元赤坂１丁目４番２１号赤坂パレスビル３階,,13,103,1070051,,,,,,,2021-08-16,1,,,,,ワン,0
904,4010603009094,新規,0,2021-08-16,2021-08-16,ＨＡ－Ｊａｐａｎ合同会社,,合同会社,東京都,江東区,塩浜２丁目２９番１６号,,13,108,1350043,,,,,,,2021-08-16,1,,,,,エイチエージャパン,0
915,4011001142330,新規,0,2021-08-16,2021-08-16,株式会社ＴＡＬＭＯＯＤ,,株式会社,東京都,渋谷区,千駄ヶ谷３丁目２１－１０ハイツ千駄ヶ谷２１２,,13,113,1510051,,,,,,,2021-08-16,1,,,,,タルムード,0
926,4011101095998,新規,0,2021-08-16,2021-08-16,ＳＫＦ株式会社,,株式会社,東京都,新宿区,北新宿１丁目８番１０－３０４号,,13,104,1690074,,,,,,,2021-08-16,1,,,,,エスケーエフ,0
927,4011101096022,新規,0,2021-08-16,2021-08-16,株式会社Ｌａｔｔｅ,,株式会社,東京都,新宿区,歌舞伎町２丁目２７－１２Ｌｅｅ２ビル６階,,13,104,1600021,,,,,,,2021-08-16,1,,,,,ラテ,0
928,4011401023601,新規,0,2021-08-16,2021-08-16,株式会社ウィルアドバンス,,株式会社,東京都,板橋区,常盤台３丁目８番１０号,,13,119,1740071,,,,,,,2021-08-16,1,,,,,ウィルアドバンス,0
929,4011601025331,新規,0,2021-08-16,2021-08-16,ｔｏｍｉ株式会社,,株式会社,東京都,練馬区,東大泉６丁目５０－３レオパレスシャルメ３０２,,13,120,1780063,,,,,,,2021-08-16,1,,,,,トミ,0
940,4012701016617,新規,0,2021-08-16,2021-08-16,Ｍ＆Ｎ株式会社,,株式会社,東京都,小平市,天神町４丁目３１番２１号,,13,211,1870004,,,,,,,2021-08-16,1,,,,,エムアンドエヌ,0
949,4013301047878,新規,0,2021-08-16,2021-08-16,株式会社Ｖライン,,株式会社,東京都,豊島区,雑司が谷１丁目４１番６号コーポラスＲ．Ｉ．Ｏ．１０１号,,13,116,1710032,,,,,,,2021-08-16,1,,,,,ブイライン,0
950,4013303005784,新規,0,2021-08-16,2021-08-16,ＳＵＮＮＹＥＭＡ合同会社,,合同会社,東京都,豊島区,目白５丁目６－１リビオ目白グレイスヒルズ６０１,,13,116,1710031,,,,,,,2021-08-16,1,,,,,サニーエマ,0
956,4020001142587,新規,0,2021-08-16,2021-08-16,株式会社ｔ．ｙ．ｙコーポレーション,,株式会社,神奈川県,横浜市中区,相生町２丁目３４番２号梅原ビル２Ｆ,,14,104,2310012,,,,,,,2021-08-16,1,,,,,ティワイワイコーポレーション,0
957,4020001142604,新規,0,2021-08-16,2021-08-16,株式会社カリコ,,株式会社,神奈川県,横浜市鶴見区,鶴見中央４丁目１番３号矢上屋ビル７０１,,14,101,2300051,,,,,,,2021-08-16,1,,,,,カリコ,0
962,4020003020287,新規,0,2021-08-16,2021-08-16,合同会社駒井組,,合同会社,神奈川県,横浜市中区,桜木町１丁目１０１番地１クロスゲート７階,,14,104,2310062,,,,,,,2021-08-16,1,,,,,コマイグミ,0
974,4030001143865,新規,0,2021-08-16,2021-08-16,インクレド株式会社,,株式会社,埼玉県,さいたま市南区,大字太田窪２８３２－１－３０６,,11,108,3360015,,,,,,,2021-08-16,1,,,,,インクレド,0
979,4030003017778,新規,0,2021-08-16,2021-08-16,合同会社Ｔｅａｍ　Ａｃｃｅｌｅｒａｔｅ,,合同会社,埼玉県,川口市,戸塚東１丁目２－２８,,11,203,3330802,,,,,,,2021-08-16,1,,,,,チームアクセラレート,0
994,4080001024383,新規,0,2021-08-16,2021-08-16,株式会社ＳＫホールディングス,,株式会社,静岡県,焼津市,駅北３丁目２２番９号,,22,212,4250028,,,,,,,2021-08-16,1,,,,,エスケイホールディングス,0
998,4080403004347,新規,0,2021-08-16,2021-08-16,ＮＡＢＡＳＥ合同会社,,合同会社,静岡県,浜松市東区,中郡町９８５番地の１,,22,132,4313111,,,,,,,2021-08-16,1,,,,,エヌエーベース,0
1013,4120103004295,新規,0,2021-08-16,2021-08-16,合同会社ＮＫマネジメント,,合同会社,大阪府,河内長野市,高向５１７番地の１,,27,216,5860036,,,,,,,2021-08-16,1,,,,,エヌケイマネジメント,0
1025,4130001069927,新規,0,2021-08-16,2021-08-16,株式会社Ｐｉｎｋ　Ｉｃｅ,,株式会社,京都府,京都市下京区,糸屋町２１５－１ブローディエア仏光寺２０１,,26,106,6008432,,,,,,,2021-08-16,1,,,,,ピンクアイス,0
1026,4130001069935,新規,0,2021-08-16,2021-08-16,日彰工業株式会社,,株式会社,京都府,久世郡久御山町,森村東２３８番地４,,26,322,6130024,,,,,,,2021-08-16,1,,,,,ニッショウコウギョウ,0
1038,4180001147372,新規,0,2021-08-16,2021-08-16,株式会社あんじん,,株式会社,愛知県,名古屋市西区,牛島町６番地１号名古屋ルーセントタワー４０階,,23,104,4510046,,,,,,,2021-08-16,1,,,,,アンジン,0
1044,4190001028605,新規,0,2021-08-16,2021-08-16,株式会社喜大工業,,株式会社,三重県,鈴鹿市,岸岡町２７０７番地の８２,,24,207,5100226,,,,,,,2021-08-16,1,,,,,キダイコウギョウ,0
1045,4190003003746,新規,0,2021-08-16,2021-08-16,合同会社友,,合同会社,三重県,員弁郡東員町,笹尾東４丁目２０番８,,24,324,5110232,,,,,,,2021-08-16,1,,,,,トモ,0
1047,4200001039014,新規,0,2021-08-16,2021-08-16,株式会社煌星,,株式会社,岐阜県,羽島郡岐南町,野中１丁目３２番地の７,,21,302,5016004,,,,,,,2021-08-16,1,,,,,コウセイ,0
1054,4240001058448,新規,0,2021-08-16,2021-08-16,彩希運送株式会社,,株式会社,広島県,廿日市市,宮内工業団地１番９号,,34,213,7380039,,,,,,,2021-08-16,1,,,,,アヤキウンソウ,0
1055,4240001058456,新規,0,2021-08-16,2021-08-16,株式会社ｉｓ,,株式会社,広島県,広島市中区,本川町３丁目１－１８,,34,101,7300802,,,,,,,2021-08-16,1,,,,,イズ,0
1060,4250001019069,新規,0,2021-08-16,2021-08-16,株式会社エミシアコンサルタント,,株式会社,山口県,山口市,大内千坊５丁目１番５号,,35,203,7530251,,,,,,,2021-08-16,1,,,,,エミシアコンサルタント,0
1062,4250003002881,新規,0,2021-08-16,2021-08-16,合同会社万福,,合同会社,山口県,宇部市,大字際波３０４番地５,,35,202,7590207,,,,,,,2021-08-16,1,,,,,マンップク,0
1065,4270003001337,新規,0,2021-08-16,2021-08-16,合同会社ＲＥＩＮ,,合同会社,鳥取県,鳥取市,秋里８１８,,31,201,6800902,,,,,,,2021-08-16,1,,,,,レイン,0
1075,4290001094190,新規,0,2021-08-16,2021-08-16,株式会社豊嶋建設,,株式会社,福岡県,福岡市早良区,内野７丁目２４番４号,,40,137,8111123,,,,,,,2021-08-16,1,,,,,トヨシマケンセツ,0
1082,4320003003600,新規,0,2021-08-16,2021-08-16,ＳＵＮＲＩＳＥ合同会社,,合同会社,大分県,大分市,大字横尾３５２１番地の６,,44,201,8700126,,,,,,,2021-08-16,1,,,,,サンライズ,0
1086,4340001024019,新規,0,2021-08-16,2021-08-16,株式会社ウイング,,株式会社,鹿児島県,鹿児島市,中央町１９番地４０ザ・パークハウス鹿児島中央タワー１１０９号室,,46,201,8900053,,,,,,,2021-08-16,1,,,,,ウイング,0
1087,4340001024027,新規,0,2021-08-16,2021-08-16,さくらプランニング株式会社,,株式会社,鹿児島県,姶良市,池島町２８番地１８,,46,225,8995653,,,,,,,2021-08-16,1,,,,,サクラプランニング,0
1088,4340003003524,新規,0,2021-08-16,2021-08-16,合同会社惠宝拓友,,合同会社,鹿児島県,鹿児島市,坂之上４丁目１５番２５号,,46,201,8910150,,,,,,,2021-08-16,1,,,,,エイホウタクユウ,0
1093,4360003011343,新規,0,2021-08-16,2021-08-16,泓心合同会社,,合同会社,沖縄県,那覇市,赤嶺１丁目４－２０フェニックス赤嶺２階,,47,201,9010154,,,,,,,2021-08-16,1,,,,,,0
1094,4360005006498,新規,0,2021-08-16,2021-08-16,一般社団法人つむぐ,,その他の設立登記法人,沖縄県,豊見城市,字渡嘉敷２８２番１,,47,212,9010215,,,,,,,2021-08-16,1,,,,,ツムグ,0
1096,4370003005352,新規,0,2021-08-16,2021-08-16,合同会社ｇｒｉＦＦｉｃｅ,,合同会社,宮城県,仙台市青葉区,五橋１丁目６番地８遠藤ビル３階,,04,101,9800022,,,,,,,2021-08-16,1,,,,,,0
1097,4370003005360,新規,0,2021-08-16,2021-08-16,工務店コンサルティング合同会社,,合同会社,宮城県,仙台市若林区,南小泉字八軒小路１７番地の１南陽コーポ３０５,,04,103,9840827,,,,,,,2021-08-16,1,,,,,,0
1098,4370005010326,新規,0,2021-08-16,2021-08-16,特定非営利活動法人うみとそら,,その他の設立登記法人,宮城県,仙台市若林区,霞目２丁目１９番１号,,04,103,9840035,,,,,,,2021-08-16,1,,,,,,0
1102,4390001016564,新規,0,2021-08-16,2021-08-16,株式会社ＰＡＲＴＮＥＲ,,株式会社,山形県,鶴岡市,文下字沼田６９番地１,,06,203,9970003,,,,,,,2021-08-16,1,,,,,パートナー,0
1105,4420001017550,新規,0,2021-08-16,2021-08-16,株式会社古林木工所,,株式会社,青森県,上北郡野辺地町,字有戸鳥井平１８４番地２,,02,401,0393105,,,,,,,2021-08-16,1,,,,,フルバヤシモッコウジョ,0
1110,4430001084722,新規,0,2021-08-16,2021-08-16,株式会社ＴＲＥＥ,,株式会社,北海道,札幌市南区,真駒内緑町１丁目５番１－１００３号,,01,106,0050013,,,,,,,2021-08-16,1,,,,,ツリー,0
1114,4430003013035,新規,0,2021-08-16,2021-08-16,合同会社彩美工芸,,合同会社,北海道,札幌市西区,宮の沢四条５丁目１０番１２号,,01,107,0630054,,,,,,,2021-08-16,1,,,,,サイビコウゲイ,0
1115,4430003013043,新規,0,2021-08-16,2021-08-16,合同会社リハビリフォーム,,合同会社,北海道,石狩市,花川南一条３丁目１２６,,01,235,0613201,,,,,,,2021-08-16,1,,,,,リハビリフォーム,0
1117,4430005014254,新規,0,2021-08-16,2021-08-16,一般社団法人北海道健康倶楽部,,その他の設立登記法人,北海道,札幌市白石区,菊水元町六条４丁目２番８号,,01,104,0030826,,,,,,,2021-08-16,1,,,,,ホッカイドウケンコウクラブ,0
1145,5010003035608,新規,0,2021-08-16,2021-08-16,日光Ｐｌｕｓ２０合同会社２,,合同会社,東京都,千代田区,丸の内３丁目１番１号東京共同会計事務所内,,13,101,1000005,,,,,,,2021-08-16,1,,,,,ニッコウプラストゥエンティニ,0
1146,5010003035616,新規,0,2021-08-16,2021-08-16,日光Ｐｌｕｓ２０合同会社１０,,合同会社,東京都,千代田区,丸の内３丁目１番１号東京共同会計事務所内,,13,101,1000005,,,,,,,2021-08-16,1,,,,,ニッコウプラストゥエンティイチゼロ,0
1148,5010103001749,新規,0,2021-08-16,2021-08-16,合同会社Ｎｏａｈ　Ｐｒｏｊｅｃｔ,,合同会社,東京都,八王子市,長沼町７３９番地５,,13,201,1920907,,,,,,,2021-08-16,1,,,,,ノアプロジェクト,0
1168,5010501047674,新規,0,2021-08-16,2021-08-16,株式会社ＶＡＮＥＳ,,株式会社,東京都,台東区,浅草橋２丁目４－６竹節ビル２Ｆ,,13,106,1110053,,,,,,,2021-08-16,1,,,,,ヴェインズ,0
1171,5010601059784,新規,0,2021-08-16,2021-08-16,株式会社Ｒｙｕｔｅｒ’ｚ,,株式会社,東京都,墨田区,両国２丁目５番５－９０３号,,13,107,1300026,,,,,,,2021-08-16,1,,,,,リュウターズ,0
1173,5010603009093,新規,0,2021-08-16,2021-08-16,ミックス合同会社,,合同会社,東京都,墨田区,江東橋４丁目１８番８号小西ビル１ｄ,,13,107,1300022,,,,,,,2021-08-16,1,,,,,ミックス,0
1174,5010603009102,新規,0,2021-08-16,2021-08-16,合同会社ｍａｒｕ,,合同会社,東京都,江東区,北砂６丁目１２番６号,,13,108,1360073,,,,,,,2021-08-16,1,,,,,マル,0
1176,5010605003986,新規,0,2021-08-16,2021-08-16,一般社団法人日本カナビス産業協会,,その他の設立登記法人,東京都,江東区,有明３丁目７番２６号有明フロンティアビルＢ棟９階,,13,108,1350063,,,,,,,2021-08-16,1,,,,,ニホンカナビスサンギョウキョウカイ,0
1183,5010803003854,新規,0,2021-08-16,2021-08-16,合同会社コンチェルト・ワークス,,合同会社,東京都,大田区,北馬込１丁目１３－３ルーミィ北馬込２０４,,13,111,1430021,,,,,,,2021-08-16,1,,,,,コンチェルトワークス,0
1184,5010901049262,新規,0,2021-08-16,2021-08-16,ＳＯＣＩＯ株式会社,,株式会社,東京都,世田谷区,羽根木２丁目３３番１２号,,13,112,1560042,,,,,,,2021-08-16,1,,,,,ソシオ,0
1185,5010901049270,新規,0,2021-08-16,2021-08-16,株式会社ＴＲＩＡＮＧＬＥ,,株式会社,東京都,世田谷区,代沢５丁目３３番６号,,13,112,1550032,,,,,,,2021-08-16,1,,,,,トライアングル,0
1192,5011001142247,新規,0,2021-08-16,2021-08-16,Ｌｉｂｅｒｔｙ株式会社,,株式会社,東京都,渋谷区,神宮前６丁目２３番４号桑野ビル２階,,13,113,1500001,,,,,,,2021-08-16,1,,,,,リバティー,0
1193,5011003013215,新規,0,2021-08-16,2021-08-16,合同会社Ｃｏｌｏｒｅ,,合同会社,東京都,目黒区,下目黒１丁目４－１８,,13,110,1530064,,,,,,,2021-08-16,1,,,,,コローレ,0
1203,5011401023591,新規,0,2021-08-16,2021-08-16,株式会社レスタウロノート,,株式会社,東京都,板橋区,大山町４０番６号,,13,119,1730023,,,,,,,2021-08-16,1,,,,,レスタウロノート,0
1204,5011401023600,新規,0,2021-08-16,2021-08-16,株式会社Ｔ３Ｍ,,株式会社,東京都,板橋区,板橋３丁目６４番５,,13,119,1730004,,,,,,,2021-08-16,1,,,,,ティースリーエム,0
1210,5011601025322,新規,0,2021-08-16,2021-08-16,株式会社ワンオーワントウキョウ,,株式会社,東京都,練馬区,中村南３丁目１９番１号－６０１,,13,120,1760025,,,,,,,2021-08-16,1,,,,,ワンオーワントウキョウ,0
1214,5012401038191,新規,0,2021-08-16,2021-08-16,ＤＵＮＧＭＯＲＩ　ＪＡＰＡＮ株式会社,,株式会社,東京都,府中市,朝日町２丁目１３番地の４,,13,206,1830003,,,,,,,2021-08-16,1,,,,,ズンモリジャパン,0
1215,5012401038200,新規,0,2021-08-16,2021-08-16,株式会社イツキ,,株式会社,東京都,稲城市,若葉台２丁目１２番地Ｂ－６０７,,13,225,2060824,,,,,,,2021-08-16,1,,,,,イツキ,0
1217,5013105001782,新規,0,2021-08-16,2021-08-16,住友電子金属労働組合,,その他の設立登記法人,東京都,青梅市,末広町１丁目６番地１号住友金属鉱山株式会社青梅事業所内,,13,205,1980025,,,,,,,2021-08-16,1,,,,,スミトモデンシキンゾク,0
1222,5020001142603,新規,0,2021-08-16,2021-08-16,株式会社じぎょうけいかく,,株式会社,神奈川県,川崎市高津区,坂戸１丁目１７－２クリオ溝の口１０２,,14,134,2130012,,,,,,,2021-08-16,1,,,,,ジギョウケイカク,0
1239,5030001143641,新規,0,2021-08-16,2021-08-16,株式会社ＦＪＩ工業,,株式会社,埼玉県,川口市,栄町３丁目９番１１号リーヴァビル３０７,,11,203,3320017,,,,,,,2021-08-16,1,,,,,エフジェイアイコウギョウ,0
1240,5030001143732,新規,0,2021-08-16,2021-08-16,プライムメディカホールディングス株式会社,,株式会社,埼玉県,川口市,本町４丁目７番２１号,,11,203,3320012,,,,,,,2021-08-16,1,,,,,プライムメディカホールディングス,0
1241,5030001143848,新規,0,2021-08-16,2021-08-16,株式会社１４,,株式会社,埼玉県,さいたま市桜区,田島２丁目５番１３－４０１号,,11,106,3380837,,,,,,,2021-08-16,1,,,,,イチヨン,0
1242,5030001143856,新規,0,2021-08-16,2021-08-16,株式会社ｏｖｅｒ　ｆｌｏｗ,,株式会社,埼玉県,戸田市,本町５丁目６番５号,,11,224,3350023,,,,,,,2021-08-16,1,,,,,オーバーフロー,0
1243,5030001143864,新規,0,2021-08-16,2021-08-16,株式会社オズアンドシー,,株式会社,埼玉県,川口市,南鳩ヶ谷４丁目１３番１１号,,11,203,3340013,,,,,,,2021-08-16,1,,,,,オズアンドシー,0
1246,5030003017769,新規,0,2021-08-16,2021-08-16,合同会社Ｂｉｓｈａｗａ　ｃｏｒｐｏｒａｔｉｏｎ,,合同会社,埼玉県,川越市,霞ケ関東１丁目１０－１６－１０１,,11,201,3501103,,,,,,,2021-08-16,1,,,,,ビシャワコーポレーション,0
1247,5030003017777,新規,0,2021-08-16,2021-08-16,合同会社ウィズラン,,合同会社,埼玉県,越谷市,赤山町２丁目１４６番２号,,11,222,3430807,,,,,,,2021-08-16,1,,,,,ウィズラン,0
1258,5040005021314,新規,0,2021-08-16,2021-08-16,一般社団法人こもれびの和,,その他の設立登記法人,千葉県,柏市,名戸ケ谷１丁目６番１９号,,12,217,2770032,,,,,,,2021-08-16,1,,,,,コモレビノワ,0
1265,5060001033988,新規,0,2021-08-16,2021-08-16,ＵＭＳシステムズ株式会社,,株式会社,栃木県,宇都宮市,元今泉４丁目２番１０－２０８号,,09,201,3210954,,,,,,,2021-08-16,1,,,,,ユーエムエスシステムズ,0
1270,5080101022716,新規,0,2021-08-16,2021-08-16,グラノバリオ株式会社,,株式会社,静岡県,沼津市,岡一色４８８番地の３,,22,203,4100012,,,,,,,2021-08-16,1,,,,,グラノバリオ,0
1285,5120101064150,新規,0,2021-08-16,2021-08-16,株式会社心輪,,株式会社,大阪府,岸和田市,紙屋町３番９号,,27,202,5960064,,,,,,,2021-08-16,1,,,,,ココワ,0
1288,5120901044772,新規,0,2021-08-16,2021-08-16,株式会社唐崎過書の浜ファーム,,株式会社,大阪府,高槻市,唐崎北２丁目１０番１１号,,27,207,5690831,,,,,,,2021-08-16,1,,,,,カラサキカショノハマファーム,0
1293,5122005003580,新規,0,2021-08-16,2021-08-16,コンサー協同組合,,その他の設立登記法人,大阪府,東大阪市,四条町１０番２１号,,27,227,5798053,,,,,,,2021-08-16,1,,,,,コンサー,0
1295,5130001069926,新規,0,2021-08-16,2021-08-16,株式会社ＹＪコンサルティング,,株式会社,京都府,京都市伏見区,下鳥羽芹川町４９番地４６,,26,109,6128391,,,,,,,2021-08-16,1,,,,,ワイジェイコンサルティング,0
1297,5130005016247,新規,0,2021-08-16,2021-08-16,一般社団法人サン・イルミナーレ,,その他の設立登記法人,京都府,城陽市,寺田林ノ口２２－６－１４０３,,26,207,6100121,,,,,,,2021-08-16,1,,,,,サンイルミナーレ,0
1313,5160001023558,新規,0,2021-08-16,2021-08-16,株式会社ゴールド,,株式会社,滋賀県,野洲市,北野１丁目１３番２０号,,25,210,5202361,,,,,,,2021-08-16,1,,,,,,0
1321,5180003022754,新規,0,2021-08-16,2021-08-16,合同会社Ｓａｎｄａｉ．Ｐａｒｔｎｅｒ,,合同会社,愛知県,名古屋市中区,丸の内１丁目１４番２９号,,23,106,4600002,,,,,,,2021-08-16,1,,,,,サンダイパートナー,0
1328,5190005011614,新規,0,2021-08-16,2021-08-16,一般社団法人Ｊｕｍｐ　Ｆｅｓｔｉｖａｌ,,その他の設立登記法人,三重県,鈴鹿市,南旭が丘３丁目２番１０号,,24,207,5100213,,,,,,,2021-08-16,1,,,,,ジャンプフェスティバル,0
1331,5200003005285,新規,0,2021-08-16,2021-08-16,ＧＩＡＨＵＮＧ合同会社,,合同会社,岐阜県,安八郡神戸町,大字神戸字高塚７７番地２,,21,381,5032305,,,,,,,2021-08-16,1,,,,,ジャフン,0
1336,5250001019068,新規,0,2021-08-16,2021-08-16,株式会社ＭＪ,,株式会社,山口県,下関市,長府三島町１２番７号,,35,201,7520965,,,,,,,2021-08-16,1,,,,,エムジェイ,0
1344,5290001094198,新規,0,2021-08-16,2021-08-16,株式会社ＡＬＯＨＡＮＡ,,株式会社,福岡県,福岡市早良区,西新１丁目１２番１５号,,40,137,8140002,,,,,,,2021-08-16,1,,,,,アロハナ,0
1345,5290001094231,新規,0,2021-08-16,2021-08-16,株式会社ＣＣ　ＰＲＯＪＥＣＴ,,株式会社,福岡県,福岡市南区,大楠２丁目１７番２９号パークサイドビル１Ｆ,,40,134,8150082,,,,,,,2021-08-16,1,,,,,シーシープロジェクト,0
1347,5330001028911,新規,0,2021-08-16,2021-08-16,ａｎｄ　ＭＡＮＡ株式会社,,株式会社,熊本県,熊本市中央区,出水３丁目４番２７号１０３,,43,101,8620941,,,,,,,2021-08-16,1,,,,,アンドマナ,0
1355,5360003011367,新規,0,2021-08-16,2021-08-16,合同会社リゾートプラス,,合同会社,沖縄県,中頭郡読谷村,字喜名２２７９番地１４,,47,324,9040302,,,,,,,2021-08-16,1,,,,,リゾートプラス,0
1370,5410001012923,新規,0,2021-08-16,2021-08-16,株式会社一歩輝,,株式会社,秋田県,秋田市,寺内油田３丁目１４番２６号,,05,201,0110903,,,,,,,2021-08-16,1,,,,,イブキ,0
1371,5410003003557,新規,0,2021-08-16,2021-08-16,みちのくｒｅＭａｋｅｒｓ合同会社,,合同会社,秋田県,湯沢市,大工町５－４８,,05,207,0120814,,,,,,,2021-08-16,1,,,,,ミチノクリメーカーズ,0
1373,5420003002368,新規,0,2021-08-16,2021-08-16,合同会社ふるさと津軽ファーム,,合同会社,青森県,北津軽郡板柳町,大字長野字南村元６番地６,,02,381,0383643,,,,,,,2021-08-16,1,,,,,フルサトツガルファーム,0
1378,5430003013034,新規,0,2021-08-16,2021-08-16,合同会社ＭＩＤ,,合同会社,北海道,北広島市,中の沢１３６番１,,01,234,0611101,,,,,,,2021-08-16,1,,,,,エムアイディ,0
1382,5470001018659,新規,0,2021-08-16,2021-08-16,株式会社タイムズヘブン,,株式会社,香川県,丸亀市,飯野町東二甲１０６５番地１,,37,202,7630084,,,,,,,2021-08-16,1,,,,,タイムズヘブン,0
1386,5700150104392,新規,0,2021-08-16,2021-08-16,向原第二住宅団地マンション建替組合,,その他,東京都,板橋区,小茂根１丁目１番,,13,119,1730037,,,,,,,2021-08-16,1,,,,,ムカイハラダイニジユウタクダンチマンシヨンタテカエクミアイ,0
1400,6010003035607,新規,0,2021-08-16,2021-08-16,日光Ｐｌｕｓ２０合同会社１,,合同会社,東京都,千代田区,丸の内３丁目１番１号東京共同会計事務所内,,13,101,1000005,,,,,,,2021-08-16,1,,,,,ニッコウプラストゥエンティイチ,0
1401,6010003035615,新規,0,2021-08-16,2021-08-16,日光Ｐｌｕｓ２０合同会社９,,合同会社,東京都,千代田区,丸の内３丁目１番１号東京共同会計事務所内,,13,101,1000005,,,,,,,2021-08-16,1,,,,,ニッコウプラストゥエンティキュー,0
1408,6010401162119,新規,0,2021-08-16,2021-08-16,株式会社Ｆｏｕｒ　Ｄ,,株式会社,東京都,港区,新橋４丁目１５番８号,,13,103,1050004,,,,,,,2021-08-16,1,,,,,フォーディー,0
1409,6010401162135,新規,0,2021-08-16,2021-08-16,ＹＳパートナーズ株式会社,,株式会社,東京都,港区,六本木３丁目６番９号,,13,103,1060032,,,,,,,2021-08-16,1,,,,,ワイエスパートナーズ,0
1410,6010401162151,新規,0,2021-08-16,2021-08-16,Ｋ２　Ｓｔａｆｆｉｎｇ　Ｓｏｌｕｔｉｏｎｓ株式会社,,株式会社,東京都,港区,赤坂５丁目２番２０号赤坂パークビル,,13,103,1070052,,,,,,,2021-08-16,1,,,,,ケイツースタッフィングソリューションズ,0
1421,6010405020082,新規,0,2021-08-16,2021-08-16,ＳＣＧ５７一般社団法人,,その他の設立登記法人,東京都,港区,虎ノ門４丁目１番２８号,,13,103,1050001,,,,,,,2021-08-16,1,,,,,エスシージーフィフティセブン,0
1422,6010405020124,新規,0,2021-08-16,2021-08-16,一般社団法人ＳＡ　ＰＲＯＰＥＲＴＹ５,,その他の設立登記法人,東京都,港区,虎ノ門５丁目１番４号,,13,103,1050001,,,,,,,2021-08-16,1,,,,,エスエープロパティファイブ,0
1424,6010501047698,新規,0,2021-08-16,2021-08-16,株式会社ＡＵＲＯＲＡ,,株式会社,東京都,台東区,台東３丁目９番１号,,13,106,1100016,,,,,,,2021-08-16,1,,,,,アウロラ,0
1426,6010601059783,新規,0,2021-08-16,2021-08-16,株式会社マツカツ,,株式会社,東京都,墨田区,八広４丁目１９番６号,,13,107,1310041,,,,,,,2021-08-16,1,,,,,マツカツ,0
1427,6010701041393,新規,0,2021-08-16,2021-08-16,株式会社ｍａｎｏ　ｍａｎｏ,,株式会社,東京都,品川区,西五反田７丁目２２番１７号,,13,109,1410031,,,,,,,2021-08-16,1,,,,,マノマノ,0
1430,6011001142337,新規,0,2021-08-16,2021-08-16,サッカロン株式会社,,株式会社,東京都,渋谷区,渋谷３丁目６－２,,13,113,1500002,,,,,,,2021-08-16,1,,,,,サッカロン,0
1431,6011003013230,新規,0,2021-08-16,2021-08-16,ユアサイト合同会社,,合同会社,東京都,渋谷区,渋谷２丁目１９－１５宮益坂ビルディング６０９,,13,113,1500002,,,,,,,2021-08-16,1,,,,,ユアサイト,0
1437,6011103010929,新規,0,2021-08-16,2021-08-16,Ｍｅｔａｖｅｒｓｅ　Ｔｅｃｈｎｏｌｏｇｉｅｓ合同会社,,合同会社,東京都,新宿区,若葉１丁目２０マ・メゾン四谷２０１,,13,104,1600011,,,,,,,2021-08-16,1,,,,,メタバーステクノロジーズ,0
1438,6011205002444,新規,0,2021-08-16,2021-08-16,日本自動車交通労働組合,,その他の設立登記法人,東京都,中野区,大和町１丁目６８番７号,,13,114,1650034,,,,,,,2021-08-16,1,,,,,ニホンジドウシャコウツウ,0
1439,6011301027097,新規,0,2021-08-16,2021-08-16,株式会社ＳＩＬＨＯＵＥＴＴＥＳ,,株式会社,東京都,杉並区,下高井戸４丁目４番２号ＡＸＡＳ桜上水アジールコート７０３,,13,115,1680073,,,,,,,2021-08-16,1,,,,,シルエット,0
1440,6011401023599,新規,0,2021-08-16,2021-08-16,株式会社ＳＩＫ,,株式会社,東京都,板橋区,前野町２丁目３７番１２号,,13,119,1740063,,,,,,,2021-08-16,1,,,,,シック,0
1450,6011703002920,新規,0,2021-08-16,2021-08-16,ホッグスヘッド合同会社,,合同会社,東京都,江戸川区,春江町５丁目１７番地１６８,,13,123,1340003,,,,,,,2021-08-16,1,,,,,ホッグスヘッド,0
1462,6013301047876,新規,0,2021-08-16,2021-08-16,Ｂｅ　Ｃｏｎｎｅｃｔ株式会社,,株式会社,東京都,豊島区,要町１丁目４２－９,,13,116,1710043,,,,,,,2021-08-16,1,,,,,ビーコネクト,0
1481,6021003010796,新規,0,2021-08-16,2021-08-16,合同会社Ｔｏｍｏｒｒｏｗ　Ｓｍｉｌｅ,,合同会社,神奈川県,大和市,林間２丁目１０番１２号,,14,213,2420003,,,,,,,2021-08-16,1,,,,,トゥモロースマイル,0
1484,6030001143863,新規,0,2021-08-16,2021-08-16,株式会社旭組,,株式会社,埼玉県,三郷市,戸ケ崎４丁目２１７番地７,,11,237,3410044,,,,,,,2021-08-16,1,,,,,アサヒグミ,0
1508,6080101022715,新規,0,2021-08-16,2021-08-16,株式会社朝霧高原城田牧場,,株式会社,静岡県,富士宮市,根原２４４番地,,22,207,4180101,,,,,,,2021-08-16,1,,,,,アサギリコウゲンシロタボクジョウ,0
1530,6120003020028,新規,0,2021-08-16,2021-08-16,合同会社ＳＴＣグループ,,合同会社,大阪府,枚方市,長尾北町１丁目１７９３番地の２,,27,210,5730161,,,,,,,2021-08-16,1,,,,,エスティシーグループ,0
1535,6120103004302,新規,0,2021-08-16,2021-08-16,ＡＲＩＮＮＡ合同会社,,合同会社,大阪府,堺市西区,浜寺諏訪森町中３丁２７７番地９,,27,144,5928348,,,,,,,2021-08-16,1,,,,,アリンナ,0
1538,6120901044771,新規,0,2021-08-16,2021-08-16,株式会社Ｔ・ＷＥＳＴ,,株式会社,大阪府,摂津市,別府２丁目２３番２２－７０１号,,27,224,5660046,,,,,,,2021-08-16,1,,,,,ティーウエスト,0
1541,6120903003783,新規,0,2021-08-16,2021-08-16,ＹМＳ合同会社,,合同会社,大阪府,吹田市,千里丘北１番２８号,,27,205,5650815,,,,,,,2021-08-16,1,,,,,ワイエムエス,0
1542,6122001035081,新規,0,2021-08-16,2021-08-16,楽道株式会社,,株式会社,大阪府,東大阪市,花園東町２丁目３番１７号フォーレスト１－３０７号室,,27,227,5780931,,,,,,,2021-08-16,1,,,,,ガクドウ,0
1547,6130001069933,新規,0,2021-08-16,2021-08-16,株式会社仰宴舎,,株式会社,京都府,京都市右京区,西院西淳和院町２－２,,26,108,6150016,,,,,,,2021-08-16,1,,,,,オオエンシャ,0
1548,6130001069941,新規,0,2021-08-16,2021-08-16,株式会社Ｌｅｅ,,株式会社,京都府,京都市山科区,勧修寺平田町１２９番地,,26,110,6078214,,,,,,,2021-08-16,1,,,,,リー,0
1560,6160001023557,新規,0,2021-08-16,2021-08-16,株式会社マイウィンズ,,株式会社,滋賀県,米原市,多和田１０４１番地,,25,214,5210081,,,,,,,2021-08-16,1,,,,,マイウィンズ,0
1573,6180301035275,新規,0,2021-08-16,2021-08-16,Ｏ．Ｎ．Ｉ株式会社,,株式会社,愛知県,安城市,三河安城南町１丁目１５番地８サンテラス三河安城６階,,23,212,4460058,,,,,,,2021-08-16,1,,,,,オーエヌアイ,0
1576,6190001028603,新規,0,2021-08-16,2021-08-16,株式会社ＴＥＣＭＯ　ＷＯＲＫＳ,,株式会社,三重県,桑名市,大字福島９６９番地１,,24,205,5110002,,,,,,,2021-08-16,1,,,,,テクモワークス,0
1577,6190005011613,新規,0,2021-08-16,2021-08-16,一般社団法人ヘルスサポート,,その他の設立登記法人,三重県,伊勢市,藤里町１番地２６１,,24,203,5160043,,,,,,,2021-08-16,1,,,,,ヘルスサポート,0
1581,6200003005284,新規,0,2021-08-16,2021-08-16,ウェブタイズ合同会社,,合同会社,岐阜県,岐阜市,鹿島町１丁目５鹿島スクエアビル６階－２,,21,201,5008323,,,,,,,2021-08-16,1,,,,,ウェブタイズ,0
1584,6210001018568,新規,0,2021-08-16,2021-08-16,株式会社アジサイ,,株式会社,福井県,福井市,開発４丁目１０７番地１,,18,201,9100842,,,,,,,2021-08-16,1,,,,,アジサイ,0
1585,6210003001398,新規,0,2021-08-16,2021-08-16,ニワトリワークス合同会社,,合同会社,福井県,福井市,大宮町３１－３６,,18,201,9102334,,,,,,,2021-08-16,1,,,,,ニワトリワークス,0
1591,6240001058454,新規,0,2021-08-16,2021-08-16,株式会社時計塔フーズ,,株式会社,広島県,尾道市,向東町７８７番地,,34,205,7220062,,,,,,,2021-08-16,1,,,,,トケイトウフーズ,0
1592,6250001019067,新規,0,2021-08-16,2021-08-16,株式会社ＳＡＫＯＹＡＭＡ,,株式会社,山口県,宇部市,大字東岐波４８４７番地１０,,35,202,7550241,,,,,,,2021-08-16,1,,,,,サコヤマ,0
1602,6290001094148,新規,0,2021-08-16,2021-08-16,株式会社ＢＬＥＳＳ,,株式会社,福岡県,筑紫野市,二日市中央６丁目３番１７号プレジールビル４Ｆ,,40,217,8180072,,,,,,,2021-08-16,1,,,,,ブレス,0
1603,6290001094172,新規,0,2021-08-16,2021-08-16,ＷａｒＰ株式会社,,株式会社,福岡県,朝倉市,杷木林田４７２番地１,,40,228,8381506,,,,,,,2021-08-16,1,,,,,ワープ,0
1604,6290001094189,新規,0,2021-08-16,2021-08-16,株式会社正大,,株式会社,福岡県,糟屋郡久山町,大字久原３４２４番地２１,,40,348,8112501,,,,,,,2021-08-16,1,,,,,ショウダイ,0
1610,6310003004135,新規,0,2021-08-16,2021-08-16,合同会社Ｓｐａｒｋｌｅ　Ｌｉｆｅ,,合同会社,長崎県,長崎市,田中町９６５番地１１,,42,201,8510134,,,,,,,2021-08-16,1,,,,,スパークルライフ,0
1613,6320001018540,新規,0,2021-08-16,2021-08-16,株式会社Ｙｏｕ　Ｌｉｎｋ,,株式会社,大分県,大分市,碩田町３丁目１番３５号,,44,201,8700048,,,,,,,2021-08-16,1,,,,,ユーリンク,0
1616,6330003009009,新規,0,2021-08-16,2021-08-16,合同会社ＲｉｔｔｅｒＯｒｄｅｎＫｕｍａｍｏｔｏ,,合同会社,熊本県,合志市,幾久富１９０９番地５６９ちとせ循環器内科,,43,216,8611112,,,,,,,2021-08-16,1,,,,,リッターオルデンクマモト,0
1630,6370001047485,新規,0,2021-08-16,2021-08-16,株式会社グロー,,株式会社,宮城県,亘理郡亘理町,長瀞字柴西９８番地１,00123936,04,361,9892341,,,,,,,2021-08-16,1,,,,,グロー,0
1631,6370001047493,新規,0,2021-08-16,2021-08-16,Ｎｏ　Ｌｉｍｉｔ株式会社,,株式会社,宮城県,仙台市青葉区,花京院１丁目４番４７号ＡＬＬＥＬＬ花京院５Ｆ,,04,101,9800013,,,,,,,2021-08-16,1,,,,,ノーリミット,0
1641,6420003002367,新規,0,2021-08-16,2021-08-16,一盛社中合同会社,,合同会社,青森県,むつ市,新町一丁目２３番新町ビル２Ｆ,,02,208,0350051,,,,,,,2021-08-16,1,,,,,イチジョウシャチュウ,0
1646,6430001084729,新規,0,2021-08-16,2021-08-16,株式会社Ｒｅｎｏ・Ｌａｂｏ,,株式会社,北海道,札幌市東区,北二十条東１丁目２番２５号ルーブル北２０,,01,103,0650020,,,,,,,2021-08-16,1,,,,,リノラボ,0
1647,6430001084753,新規,0,2021-08-16,2021-08-16,北海道フードインポート株式会社,,株式会社,北海道,札幌市東区,伏古四条４丁目２番１５号,,01,103,0070864,,,,,,,2021-08-16,1,,,,,ホッカイドウフードインポート,0
1648,6430003013025,新規,0,2021-08-16,2021-08-16,合同会社スマイルール,,合同会社,北海道,岩見沢市,南町四条２丁目２－８,,01,210,0680804,,,,,,,2021-08-16,1,,,,,スマイルール,0
1649,6430003013041,新規,0,2021-08-16,2021-08-16,合同会社Ｋ－ＳＴＡＧＥ,,合同会社,北海道,札幌市東区,北丘珠四条１丁目９番１１号,,01,103,0070884,,,,,,,2021-08-16,1,,,,,ケーステージ,0
1650,6430005014252,新規,0,2021-08-16,2021-08-16,一般社団法人北海道共創デザイン機構,,その他の設立登記法人,北海道,札幌市西区,福井２丁目１番７号,,01,107,0630012,,,,,,,2021-08-16,1,,,,,ホッカイドウキョウソウデザインキコウ,0
1654,6700150104391,新規,0,2021-08-16,2021-08-16,ＡＬＬ　ＲＡＨＩＭ　ＭＡＮＰＯＷＥＲ　ＰＶＴ．ＬＴＤ,,外国会社等,愛知県,豊田市,小坂本町１丁目５番地５ＹＡＭＡＴＯ・ＢＬＤＧ２階,,23,211,4710034,ネパール国カトマンズ郡チャンドル４,,,,,,2021-08-16,1,,,,,アルラヒムマンパワープライベートリミテツド,0
1670,7010003035614,新規,0,2021-08-16,2021-08-16,日光Ｐｌｕｓ２０合同会社８,,合同会社,東京都,千代田区,丸の内３丁目１番１号東京共同会計事務所内,,13,101,1000005,,,,,,,2021-08-16,1,,,,,ニッコウプラストゥエンティハチ,0
1685,7010401162142,新規,0,2021-08-16,2021-08-16,株式会社都心開発,,株式会社,東京都,港区,南青山３丁目１４番１０号カシェート南青山,,13,103,1070062,,,,,,,2021-08-16,1,,,,,トシンカイハツ,0
1688,7010403025900,新規,0,2021-08-16,2021-08-16,ロードマップ・ホールディングス合同会社,,合同会社,東京都,港区,六本木６丁目１０番１号六本木ヒルズ森タワー,,13,103,1060032,,,,,,,2021-08-16,1,,,,,ロードマップホールディングス,0
1699,7010501047697,新規,0,2021-08-16,2021-08-16,株式会社ＳＴＯＲＥ,,株式会社,東京都,台東区,上野１丁目９番３号１Ｆ,,13,106,1100005,,,,,,,2021-08-16,1,,,,,ストアー,0
1700,7010603009091,新規,0,2021-08-16,2021-08-16,ビットグラフ合同会社,,合同会社,東京都,江東区,有明３丁目７番２６号,,13,108,1350063,,,,,,,2021-08-16,1,,,,,ビットグラフ,0
1702,7010701041392,新規,0,2021-08-16,2021-08-16,株式会社スタイルラボ,,株式会社,東京都,品川区,大井３丁目１８番１５号ジェントリーハウス品川大井８０９,,13,109,1400014,,,,,,,2021-08-16,1,,,,,スタイルラボ,0
1704,7010703005899,新規,0,2021-08-16,2021-08-16,Ｂａｎａ－Ｈａｎａ合同会社,,合同会社,東京都,品川区,大井４丁目１８－９グレイスコートＪ２０２,,13,109,1400014,,,,,,,2021-08-16,1,,,,,バナハナ,0
1706,7010801032242,新規,0,2021-08-16,2021-08-16,株式会社政文寿,,株式会社,東京都,大田区,大森南１丁目２０番１４－４０３号,,13,111,1430013,,,,,,,2021-08-16,1,,,,,マサフミトシ,0
1714,7010901049277,新規,0,2021-08-16,2021-08-16,株式会社敦盛,,株式会社,東京都,世田谷区,下馬３丁目５番１７－４１０号,,13,112,1540002,,,,,,,2021-08-16,1,,,,,アツモリ,0
1719,7011001141874,新規,0,2021-08-16,2021-08-16,ＧＭＯランシステム株式会社,,株式会社,東京都,渋谷区,桜丘町２６番１号,,13,113,1500031,,,,,,,2021-08-16,1,,,,,ジーエムオーランシステム,0
1746,7013301047867,新規,0,2021-08-16,2021-08-16,三禾国際投資株式会社,,株式会社,東京都,豊島区,南池袋１丁目９番１８号３４５号室,,13,116,1710022,,,,,,,2021-08-16,1,,,,,ミッカコクサイトウシ,0
1757,7020001142642,新規,0,2021-08-16,2021-08-16,向日葵工房株式会社,,株式会社,神奈川県,川崎市高津区,溝口１丁目１６番１１号エランドールカスタム５０１号,,14,134,2130001,,,,,,,2021-08-16,1,,,,,ヒマワリコウボウ,0
1762,7020003020268,新規,0,2021-08-16,2021-08-16,ＤＡＮＫＸ合同会社,,合同会社,神奈川県,横浜市西区,平沼１丁目４０番１１－５１７号,,14,103,2200023,,,,,,,2021-08-16,1,,,,,ダンクス,0
1763,7020003020334,新規,0,2021-08-16,2021-08-16,合同会社かいり,,合同会社,神奈川県,横浜市旭区,中希望が丘４９番地９,,14,112,2410825,,,,,,,2021-08-16,1,,,,,カイリ,0
1769,7021001073662,新規,0,2021-08-16,2021-08-16,株式会社Ｓｏｙ,,株式会社,神奈川県,茅ヶ崎市,東海岸南１丁目５番２２号,,14,207,2530054,,,,,,,2021-08-16,1,,,,,ソイ,0
1770,7021001073670,新規,0,2021-08-16,2021-08-16,ＭＡＮＤＩＲ株式会社,,株式会社,神奈川県,藤沢市,藤沢３丁目１－２６マツモトアパート１０２,,14,205,2510052,,,,,,,2021-08-16,1,,,,,マンディール,0
1771,7021001073695,新規,0,2021-08-16,2021-08-16,株式会社ジェイ・ソリューション,,株式会社,神奈川県,茅ヶ崎市,幸町２番１１号コンフォール茅ヶ崎６０５,,14,207,2530052,,,,,,,2021-08-16,1,,,,,ジェイソリューション,0
1773,7030001143805,新規,0,2021-08-16,2021-08-16,株式会社木村製作所,,株式会社,埼玉県,越谷市,大成町７丁目１６０７番地,,11,222,3430825,,,,,,,2021-08-16,1,,,,,キムラセイサクショ,0
1774,7030001143846,新規,0,2021-08-16,2021-08-16,株式会社ＭＲＧＡＲＡＧＥ,,株式会社,埼玉県,秩父市,品沢１５３２番地,,11,207,3680064,,,,,,,2021-08-16,1,,,,,エムアールガレージ,0
1775,7030001143862,新規,0,2021-08-16,2021-08-16,株式会社桂建,,株式会社,埼玉県,越谷市,御殿町４－５３メゾンドミキ１０５,,11,222,3430811,,,,,,,2021-08-16,1,,,,,カツケン,0
1779,7030003017775,新規,0,2021-08-16,2021-08-16,合同会社アンダーステア,,合同会社,埼玉県,富士見市,ふじみ野東２丁目７番地１シティヴェールふじみ野三番館８１１,,11,235,3540036,,,,,,,2021-08-16,1,,,,,アンダーステア,0
1786,7060001033994,新規,0,2021-08-16,2021-08-16,Ｇｅｎｅｒａｌ　Ｒｅｃｙｃｌｅ株式会社,,株式会社,栃木県,小山市,大字中久喜４７６番地１１,,09,208,3230806,,,,,,,2021-08-16,1,,,,,ジェネラルリサイクル,0
1790,7080101022714,新規,0,2021-08-16,2021-08-16,株式会社ヤマグチ建設,,株式会社,静岡県,御殿場市,新橋１８２１番地の１１,,22,215,4120043,,,,,,,2021-08-16,1,,,,,ヤマグチケンセツ,0
1792,7080401025268,新規,0,2021-08-16,2021-08-16,株式会社ＮＯＲ,,株式会社,静岡県,浜松市東区,植松町２５４番地の１２,,22,132,4300803,,,,,,,2021-08-16,1,,,,,ノア,0
1795,7090001017152,新規,0,2021-08-16,2021-08-16,ＫＡＩ　ＫＡＤＥＮ　ＳＥＲＶＩＣＥ株式会社,,株式会社,山梨県,甲斐市,玉川１５４９番地１ウッドナチュラル望月Ａ棟,,19,210,4000116,,,,,,,2021-08-16,1,,,,,,0
1813,7120001239692,新規,0,2021-08-16,2021-08-16,株式会社シュプルング,,株式会社,大阪府,大阪市北区,曾根崎新地１丁目１３番２２号,,27,127,5300002,,,,,,,2021-08-16,1,,,,,シュプルング,0
1814,7120001239775,新規,0,2021-08-16,2021-08-16,株式会社Ａｉｍ,,株式会社,大阪府,枚方市,津田東町３丁目６番２７号,,27,210,5730122,,,,,,,2021-08-16,1,,,,,エイム,0
1817,7120003020027,新規,0,2021-08-16,2021-08-16,泰夢合同会社,,合同会社,大阪府,枚方市,大字穂谷５５５番地,,27,210,5730114,,,,,,,2021-08-16,1,,,,,タイム,0
1820,7120101064157,新規,0,2021-08-16,2021-08-16,株式会社イブニング,,株式会社,大阪府,羽曳野市,野４３６番地の１１,,27,222,5830884,,,,,,,2021-08-16,1,,,,,イブニング,0
1823,7120901044762,新規,0,2021-08-16,2021-08-16,株式会社アプローズ不動産,,株式会社,大阪府,豊中市,上野東１丁目１４番１１号,,27,203,5600013,,,,,,,2021-08-16,1,,,,,アプローズフドウサン,0
1824,7120903003782,新規,0,2021-08-16,2021-08-16,合同会社高木商会,,合同会社,大阪府,茨木市,畑田町１４－３,,27,211,5670028,,,,,,,2021-08-16,1,,,,,タカギショウカイ,0
1825,7122003002153,新規,0,2021-08-16,2021-08-16,合同会社Ｓａｈａｒａ,,合同会社,大阪府,八尾市,植松町８丁目１番２２号,,27,212,5810084,,,,,,,2021-08-16,1,,,,,サハラ,0
1829,7130001069940,新規,0,2021-08-16,2021-08-16,株式会社きづた事務所,,株式会社,京都府,京都市左京区,粟田口鳥居町２１番地２２,,26,103,6068436,,,,,,,2021-08-16,1,,,,,キヅタジムショ,0
1839,7160005010971,新規,0,2021-08-16,2021-08-16,一般財団法人甲賀高分子育英奨学財団,,その他の設立登記法人,滋賀県,湖南市,石部北１丁目４番２６号,,25,211,5203113,,,,,,,2021-08-16,1,,,,,コウガコウブンシイクエイショウガクザイダン,0
1850,7180001147452,新規,0,2021-08-16,2021-08-16,アクア管工株式会社,,株式会社,愛知県,江南市,後飛保町新開１７９番地,,23,217,4838387,,,,,,,2021-08-16,1,,,,,アクアカンコウ,0
1854,7190001028602,新規,0,2021-08-16,2021-08-16,株式会社ミライステージ,,株式会社,三重県,桑名市,東鍋屋町６３番地１,,24,205,5110053,,,,,,,2021-08-16,1,,,,,ミライステージ,0
1855,7190003003743,新規,0,2021-08-16,2021-08-16,合同会社Ａｋ　日本モータース,,合同会社,三重県,鈴鹿市,東旭が丘１丁目２番４０号サンライズヒルズ１０１号,,24,207,5100211,,,,,,,2021-08-16,1,,,,,エイケイニホンモータース,0
1858,7200003005283,新規,0,2021-08-16,2021-08-16,合同会社Ｔｓｕｋａｄａ　Ｍｏｔｏｒｓ,,合同会社,岐阜県,可児市,今渡１５９５番地２２５,,21,214,5090207,,,,,,,2021-08-16,1,,,,,ツカダモータース,0
1867,7250001019066,新規,0,2021-08-16,2021-08-16,下関アグリフードサービス株式会社,,株式会社,山口県,下関市,一の宮住吉３丁目２番１号,,35,201,7510805,,,,,,,2021-08-16,1,,,,,シモノセキアグリフードサービス,0
1870,7290001094171,新規,0,2021-08-16,2021-08-16,株式会社佐瀬電気,,株式会社,福岡県,宗像市,自由ヶ丘８丁目２番地７,,40,220,8114163,,,,,,,2021-08-16,1,,,,,サセデンキ,0
1871,7290001094205,新規,0,2021-08-16,2021-08-16,株式会社Ｇｒｅｅｎ’ｓ,,株式会社,福岡県,久留米市,北野町陣屋２５９番地１,,40,203,8301112,,,,,,,2021-08-16,1,,,,,グリーンズ,0
1873,7290003011496,新規,0,2021-08-16,2021-08-16,ライフサポート合同会社,,合同会社,福岡県,福岡市中央区,薬院４丁目１８番２６号サンビューハイツ浄水２０４号室,,40,133,8100022,,,,,,,2021-08-16,1,,,,,ライフサポート,0
1874,7290003011505,新規,0,2021-08-16,2021-08-16,合同会社Ｌｉｆｅ　Ｓｈｉｆｔ　Ｉｎｎｏｖａｔｉｏｎ,,合同会社,福岡県,福岡市中央区,天神１丁目１番１号,,40,133,8100001,,,,,,,2021-08-16,1,,,,,ライフシフトイノベーション,0
1875,7290003011513,新規,0,2021-08-16,2021-08-16,合同会社ＴＲＵＯＮＧ　ＰＨＡＴ,,合同会社,福岡県,八女市,本町１－３－４,,40,210,8340031,,,,,,,2021-08-16,1,,,,,チュオンファット,0
1881,7330003009008,新規,0,2021-08-16,2021-08-16,合同会社ＡＭＩＣＩ,,合同会社,熊本県,熊本市北区,武蔵ケ丘４丁目１６番２８号坂本ビル１Ｆ,,43,105,8618001,,,,,,,2021-08-16,1,,,,,アミーチ,0
1888,7340003003521,新規,0,2021-08-16,2021-08-16,合同会社オトナキ,,合同会社,鹿児島県,大島郡和泊町,大字国頭２２３２,,46,533,8919101,,,,,,,2021-08-16,1,,,,,オトナキ,0
1889,7350001017266,新規,0,2021-08-16,2021-08-16,株式会社いきるちから,,株式会社,宮崎県,延岡市,平原町３丁目２６０９番地９,,45,203,8820866,,,,,,,2021-08-16,1,,,,,イキルチカラ,0
1894,7360001029211,新規,0,2021-08-16,2021-08-16,株式会社和工務店,,株式会社,沖縄県,那覇市,松川３丁目１８番２３号,,47,201,9020062,,,,,,,2021-08-16,1,,,,,,0
1896,7360003011365,新規,0,2021-08-16,2021-08-16,合同会社ＳＪＺジャパン,,合同会社,沖縄県,那覇市,辻１丁目１６－９サングリーンビル１階,,47,201,9000037,,,,,,,2021-08-16,1,,,,,エスジェージージャパン,0
1897,7370003005358,新規,0,2021-08-16,2021-08-16,アミテア合同会社,,合同会社,宮城県,仙台市若林区,新寺１丁目６－８,,04,103,9840051,,,,,,,2021-08-16,1,,,,,アミテア,0
1908,7430001084703,新規,0,2021-08-16,2021-08-16,株式会社えべおつＷｅｉｎ,,株式会社,北海道,滝川市,江部乙町東１２丁目１４５４番地３９,,01,225,0790463,,,,,,,2021-08-16,1,,,,,エベオツヴァイン,0
1917,7430003013040,新規,0,2021-08-16,2021-08-16,合同会社森林公園不動産,,合同会社,北海道,札幌市厚別区,厚別東五条８丁目４番３－７０１号,,01,108,0040005,,,,,,,2021-08-16,1,,,,,シンリンコウエンフドウサン,0
1918,7430003013065,新規,0,2021-08-16,2021-08-16,合同会社ｆｕｎ　ｆｕｎ　ｆｕｎ,,合同会社,北海道,札幌市手稲区,稲穂一条６丁目２３番８号,,01,109,0060031,,,,,,,2021-08-16,1,,,,,ファンファンファン,0
1947,8010001220415,新規,0,2021-08-16,2021-08-16,株式会社ＦＵＬＬＦＡＣＴ,,株式会社,東京都,中央区,銀座１丁目２２－１１銀座大竹ビジデンス２Ｆ,,13,102,1040061,,,,,,,2021-08-16,1,,,,,フルファクト,0
1953,8010003035605,新規,0,2021-08-16,2021-08-16,合同会社Ｅｎｄｓ　ｗｅｌｌ,,合同会社,東京都,中央区,月島１丁目２２－１－１４０９,,13,102,1040052,,,,,,,2021-08-16,1,,,,,エンズウェル,0
1954,8010003035613,新規,0,2021-08-16,2021-08-16,日光Ｐｌｕｓ２０合同会社７,,合同会社,東京都,千代田区,丸の内３丁目１番１号東京共同会計事務所内,,13,101,1000005,,,,,,,2021-08-16,1,,,,,ニッコウプラストゥエンティナナ,0
1967,8010403025908,新規,0,2021-08-16,2021-08-16,合同会社ＵｗＵ,,合同会社,東京都,港区,南青山２丁目２番１５号,,13,103,1070062,,,,,,,2021-08-16,1,,,,,ユーダブリュウユー,0
1972,8010603009090,新規,0,2021-08-16,2021-08-16,合同会社ソニックジャパン,,合同会社,東京都,墨田区,菊川１丁目８番８－８０３号ＳＹＦＯＲＭＥＭＯＲＩＳＨＩＴＡ,,13,107,1300024,,,,,,,2021-08-16,1,,,,,ソニックジャパン,0
1981,8010901049268,新規,0,2021-08-16,2021-08-16,株式会社ｔｈｒｅｉｇｈｔ,,株式会社,東京都,世田谷区,等々力２丁目３２番９号Ｔ－アクトⅡ３０３,00123940,13,112,1580082,,,,,,,2021-08-16,1,,,,,スリエイト,0
1982,8010901049276,新規,0,2021-08-16,2021-08-16,株式会社５ｚｅｎ,,株式会社,東京都,世田谷区,南烏山３丁目１０番７号グレース４０５,,13,112,1570062,,,,,,,2021-08-16,1,,,,,ゴゼン,0
1986,8011001142228,新規,0,2021-08-16,2021-08-16,株式会社ル・スポール,,株式会社,東京都,目黒区,上目黒２丁目１－３中目黒ＧＴテラス４０２,,13,110,1530051,,,,,,,2021-08-16,1,,,,,ルスポール,0
1987,8011001142293,新規,0,2021-08-16,2021-08-16,株式会社Ｆａｍｉｌｙ,,株式会社,東京都,渋谷区,道玄坂１丁目１５－３プリメーラ道玄坂８０７,,13,113,1500043,,,,,,,2021-08-16,1,,,,,ファミリー,0
1989,8011003013195,新規,0,2021-08-16,2021-08-16,合同会社ｐｉｅｎｉ,,合同会社,東京都,目黒区,上目黒３丁目１番８号Ｂｏｕｒｒｅｅ－３０５,,13,110,1530051,,,,,,,2021-08-16,1,,,,,ピエニ,0
1994,8011301027095,新規,0,2021-08-16,2021-08-16,創株式会社,,株式会社,東京都,杉並区,上井草２丁目２９－２０,,13,115,1670023,,,,,,,2021-08-16,1,,,,,ソウ,0
2009,8011801039581,新規,0,2021-08-16,2021-08-16,株式会社アンクル,,株式会社,東京都,葛飾区,金町２丁目５番７－７０１号ＫＶＩＬＬＡＧＥケイヴィラージュ,,13,122,1250042,,,,,,,2021-08-16,1,,,,,アンクル,0
2013,8012801021018,新規,0,2021-08-16,2021-08-16,ＦＵＪＩ株式会社,,株式会社,東京都,国立市,富士見台２丁目１番地の３０,,13,215,1860003,,,,,,,2021-08-16,1,,,,,フジ,0
2027,8020001142617,新規,0,2021-08-16,2021-08-16,日貿良品株式会社,,株式会社,神奈川県,川崎市麻生区,千代ケ丘４丁目２２番地９４,,14,137,2150005,,,,,,,2021-08-16,1,,,,,ニチボウリョウヒン,0
2030,8020003020333,新規,0,2021-08-16,2021-08-16,合同会社地球遊園地,,合同会社,神奈川県,横浜市港北区,樽町１丁目２２番１５号,,14,109,2220001,,,,,,,2021-08-16,1,,,,,チキュウユウエンチ,0
2038,8021003010794,新規,0,2021-08-16,2021-08-16,イデア合同会社,,合同会社,神奈川県,小田原市,本町３丁目５番２２号,,14,206,2500012,,,,,,,2021-08-16,1,,,,,イデア,0
2040,8021005012269,新規,0,2021-08-16,2021-08-16,一般社団法人厚木市電気設備工業協会,,その他の設立登記法人,神奈川県,厚木市,愛甲東２丁目６番１９号,,14,212,2430027,,,,,,,2021-08-16,1,,,,,アツギシデンキセツビコウギョウキョウカイ,0
2041,8030001143820,新規,0,2021-08-16,2021-08-16,株式会社サイントレーディング,,株式会社,埼玉県,深谷市,上柴町西２丁目６番地９,,11,218,3660052,,,,,,,2021-08-16,1,,,,,サイントレーディング,0
2042,8030001143845,新規,0,2021-08-16,2021-08-16,株式会社Ｃ．Ｅ,,株式会社,埼玉県,さいたま市大宮区,宮町４丁目８６番地１－５０５,,11,103,3300802,,,,,,,2021-08-16,1,,,,,シーイー,0
2043,8030001143861,新規,0,2021-08-16,2021-08-16,株式会社ムラタ塗装,,株式会社,埼玉県,志木市,上宗岡１丁目４番４－１０４号,,11,228,3530001,,,,,,,2021-08-16,1,,,,,ムラタトソウ,0
2050,8030003017766,新規,0,2021-08-16,2021-08-16,合同会社ＳＹＮＣＡ合同会計事務所,,合同会社,埼玉県,越谷市,蒲生西町２丁目１４－３６,,11,222,3430835,,,,,,,2021-08-16,1,,,,,シンカゴウドウカイケイジムショ,0
2051,8030003017782,新規,0,2021-08-16,2021-08-16,合同会社彩,,合同会社,埼玉県,三郷市,新和４丁目４６３番地,,11,237,3410034,,,,,,,2021-08-16,1,,,,,イロドリ,0
2060,8050001049702,新規,0,2021-08-16,2021-08-16,株式会社ＳＥＶＥＮ　ＨＥＡＲＴＳ,,株式会社,茨城県,取手市,寺田４７８４番地５,,08,217,3020021,,,,,,,2021-08-16,1,,,,,セブンハーツ,0
2073,8090001017151,新規,0,2021-08-16,2021-08-16,１株式会社,,株式会社,山梨県,上野原市,上野原４５６５番地２,,19,212,4090112,,,,,,,2021-08-16,1,,,,,ファースト,0
2086,8120001239799,新規,0,2021-08-16,2021-08-16,Ｒｅコンサルティング株式会社,,株式会社,大阪府,大阪市浪速区,難波中３丁目６番３号７Ｆ,,27,111,5560011,,,,,,,2021-08-16,1,,,,,アールイーコンサルティング,0
2089,8120003020026,新規,0,2021-08-16,2021-08-16,愿星合同会社,,合同会社,大阪府,枚方市,大字尊延寺７２０番地,,27,210,5730112,,,,,,,2021-08-16,1,,,,,ゲンセイ,0
2092,8120101064156,新規,0,2021-08-16,2021-08-16,青雲株式会社,,株式会社,大阪府,堺市南区,茶山台３丁４０番２号,,27,145,5900115,,,,,,,2021-08-16,1,,,,,セイウン,0
2094,8120901044778,新規,0,2021-08-16,2021-08-16,エフコーポレーション株式会社,,株式会社,大阪府,吹田市,広芝町５番４号,,27,205,5640052,,,,,,,2021-08-16,1,,,,,エフコーポレーション,0
2095,8120903003781,新規,0,2021-08-16,2021-08-16,合同会社ノートス,,合同会社,大阪府,豊中市,新千里北町３丁目１－１１,,27,203,5600081,,,,,,,2021-08-16,1,,,,,ノートス,0
2099,8122003002152,新規,0,2021-08-16,2021-08-16,合同会社虹貝,,合同会社,大阪府,東大阪市,新家西町６番８－３０２号,,27,227,5770028,,,,,,,2021-08-16,1,,,,,ニジヲミタカイ,0
2103,8130001069931,新規,0,2021-08-16,2021-08-16,藤原タイル工業株式会社,,株式会社,京都府,向日市,物集女町北ノ口５１番地の２８,,26,208,6170001,,,,,,,2021-08-16,1,,,,,フジワラタイルコウギョウ,0
2111,8140001122689,新規,0,2021-08-16,2021-08-16,ナワズトレーディング株式会社,,株式会社,兵庫県,神戸市長田区,雲雀ケ丘３丁目６－１ヴィラナリー雲雀ヶ丘１号棟２０４号,,28,106,6530879,,,,,,,2021-08-16,1,,,,,ナワズトレーディング,0
2125,8180301035273,新規,0,2021-08-16,2021-08-16,株式会社アテンダントサービス,,株式会社,愛知県,みよし市,三好町上２０５番地４,,23,236,4700224,,,,,,,2021-08-16,1,,,,,アテンダントサービス,0
2130,8230001018944,新規,0,2021-08-16,2021-08-16,大林コーポレーション株式会社,,株式会社,富山県,高岡市,戸出光明寺３８１番地３,,16,202,9391121,,,,,,,2021-08-16,1,,,,,オオバヤシコーポレーション,0
2143,8290001094146,新規,0,2021-08-16,2021-08-16,株式会社Ｃｒｅａ　ｌａ　Ｌｕｃｅ,,株式会社,福岡県,福岡市博多区,東比恵３丁目１９番１０号,,40,132,8120007,,,,,,,2021-08-16,1,,,,,クレアラルーチェ,0
2144,8290001094162,新規,0,2021-08-16,2021-08-16,株式会社モリガンリアルエステート,,株式会社,福岡県,小郡市,小郡１５４３番地３,,40,216,8380141,,,,,,,2021-08-16,1,,,,,モリガンリアルエステート,0
2145,8290001094170,新規,0,2021-08-16,2021-08-16,株式会社Ｍｅ,,株式会社,福岡県,福岡市中央区,天神１丁目１番１号,,40,133,8100001,,,,,,,2021-08-16,1,,,,,ミー,0
2146,8290001094204,新規,0,2021-08-16,2021-08-16,株式会社Ｄｅｆ．ｐｒｏ,,株式会社,福岡県,福岡市中央区,平尾１丁目１３番２５－２０５号,,40,133,8100014,,,,,,,2021-08-16,1,,,,,デフプロ,0
2147,8290001094220,新規,0,2021-08-16,2021-08-16,株式会社ＡＲＲＯＷＳ,,株式会社,福岡県,福岡市南区,市崎２丁目１２番２６号,,40,134,8150084,,,,,,,2021-08-16,1,,,,,アローズ,0
2150,8290003011504,新規,0,2021-08-16,2021-08-16,メイハート合同会社,,合同会社,福岡県,福岡市南区,長住２丁目２２番２０号,,40,134,8111362,,,,,,,2021-08-16,1,,,,,メイハート,0
2151,8290003011512,新規,0,2021-08-16,2021-08-16,合同会社マサゴン,,合同会社,福岡県,福岡市東区,香椎駅前１丁目１３番２３号ＴＯＵＫＯＵビル１階守衛室,,40,131,8130013,,,,,,,2021-08-16,1,,,,,マサゴン,0
2155,8290805009464,新規,0,2021-08-16,2021-08-16,ＮＰＯ法人きせき,,その他の設立登記法人,福岡県,北九州市小倉南区,大字新道寺５８８番地の１,,40,107,8030186,,,,,,,2021-08-16,1,,,,,キセキ,0
2160,8330001028909,新規,0,2021-08-16,2021-08-16,株式会社ＴＩ,,株式会社,熊本県,熊本市東区,保田窪本町３番７０号,,43,102,8620925,,,,,,,2021-08-16,1,,,,,ティーアイ,0
2165,8350003003908,新規,0,2021-08-16,2021-08-16,合同会社１０７ｗｏｒｋｓ,,合同会社,宮崎県,宮崎市,大字恒久５３５５番地１０１,,45,201,8800916,,,,,,,2021-08-16,1,,,,,ヒャクナナワークス,0
2168,8360001029210,新規,0,2021-08-16,2021-08-16,株式会社オーガニックリビング,,株式会社,沖縄県,国頭郡金武町,字屋嘉２７４０番地７０２号,,47,314,9041203,,,,,,,2021-08-16,1,,,,,,0
2170,8360005006494,新規,0,2021-08-16,2021-08-16,一般社団法人黙擁会,,その他の設立登記法人,沖縄県,島尻郡南風原町,字神里１４５番地Ｂ棟１０１,,47,350,9011114,,,,,,,2021-08-16,1,,,,,モクヨウカイ,0
2173,8370003005357,新規,0,2021-08-16,2021-08-16,合同会社ギフト,,合同会社,宮城県,仙台市若林区,土樋２９４番地,,04,103,9840065,,,,,,,2021-08-16,1,,,,,ギフト,0
2186,8430001084743,新規,0,2021-08-16,2021-08-16,ありがとうの夢株式会社,,株式会社,北海道,札幌市中央区,北十条西１４丁目１番２号,,01,101,0600010,,,,,,,2021-08-16,1,,,,,アリガトウノユメ,0
2189,8430003013048,新規,0,2021-08-16,2021-08-16,ＭＩＲＥＹ　Ｊａｐａｎ合同会社,,合同会社,北海道,札幌市中央区,宮ケ丘３丁目３番１号フラット宮ケ丘２０５号,,01,101,0640959,,,,,,,2021-08-16,1,,,,,ミレイジャパン,0
2190,8430005014242,新規,0,2021-08-16,2021-08-16,一般社団法人ねこの守り人,,その他の設立登記法人,北海道,札幌市中央区,南四条西７丁目５番地１,,01,101,0640804,,,,,,,2021-08-16,1,,,,,ネコノモリビト,0
2191,8460101007048,新規,0,2021-08-16,2021-08-16,株式会社ＦＫタカイチ,,株式会社,北海道,帯広市,西二十条北２丁目２３番地１２,,01,207,0802460,,,,,,,2021-08-16,1,,,,,エフケイタカイチ,0
2192,8460303000734,新規,0,2021-08-16,2021-08-16,合同会社ＷＯＯＤ－ＳＭＩＬＥ,,合同会社,北海道,網走市,能取港町２丁目２番４号,,01,211,0930131,,,,,,,2021-08-16,1,,,,,ウッドスマイル,0
2193,8462505000280,新規,0,2021-08-16,2021-08-16,特定非営利活動法人野付・エコ・ネットワーク,,その他の設立登記法人,北海道,標津郡標津町,字茶志骨１６９番地,,01,693,0861622,,,,,,,2021-08-16,1,,,,,ノツケエコネットワーク,0
2195,8470001018664,新規,0,2021-08-16,2021-08-16,高松電気設備工事株式会社,,株式会社,香川県,高松市,仏生山町乙１４７番地４,,37,201,7618079,,,,,,,2021-08-16,1,,,,,タカマツデンキセツビコウジ,0
2196,8490003001575,新規,0,2021-08-16,2021-08-16,合同会社ＤＸ高知,,合同会社,高知県,高知市,旭天神町２８８番地５,,39,201,7800955,,,,,,,2021-08-16,1,,,,,ディーエックスコウチ,0
2206,9010003035604,新規,0,2021-08-16,2021-08-16,自然エネルギーＳＩＰＰ６合同会社,,合同会社,東京都,文京区,本郷５丁目３３番１０号,,13,105,1130033,,,,,,,2021-08-16,1,,,,,シゼンエネルギーエスアイピーピーロク,0
2207,9010003035612,新規,0,2021-08-16,2021-08-16,日光Ｐｌｕｓ２０合同会社６,,合同会社,東京都,千代田区,丸の内３丁目１番１号東京共同会計事務所内,,13,101,1000005,,,,,,,2021-08-16,1,,,,,ニッコウプラストゥエンティロク,0
2217,9010401162082,新規,0,2021-08-16,2021-08-16,エー・ビー株式会社,,株式会社,東京都,港区,虎ノ門３丁目７番１０号ランディック虎ノ門ビル９階,,13,103,1050001,,,,,,,2021-08-16,1,,,,,エービー,0
2218,9010401162140,新規,0,2021-08-16,2021-08-16,株式会社デジマケ,,株式会社,東京都,港区,浜松町２丁目２番１５号,,13,103,1050013,,,,,,,2021-08-16,1,,,,,デジマケ,0
2219,9010401162149,新規,0,2021-08-16,2021-08-16,ＤＫＳＨマーケットエクスパンションサービスジャパン株式会社,,株式会社,東京都,港区,三田３丁目４番１９号,,13,103,1080073,,,,,,,2021-08-16,1,,,,,ディーケーエスエィチマーケットエクスパンションサービスジャパン,0
2228,9010801032174,新規,0,2021-08-16,2021-08-16,株式会社クアドラプラス,,株式会社,東京都,大田区,西蒲田５丁目２７番１号,,13,111,1440051,,,,,,,2021-08-16,1,,,,,クアドラプラス,0
2232,9010903006729,新規,0,2021-08-16,2021-08-16,鑫淼合同会社,00123941,合同会社,東京都,世田谷区,駒沢１丁目１７番１５号アルコ駒沢ビル３０１,,13,112,1540012,,,,,,,2021-08-16,1,,,,,シンミョウ,0
2235,9011001142202,新規,0,2021-08-16,2021-08-16,株式会社Ｍａｇｉｃ　Ｔｉｍｅ,,株式会社,東京都,渋谷区,神宮前６丁目２３番４号２階,,13,113,1500001,,,,,,,2021-08-16,1,,,,,マジックタイム,0
2236,9011001142292,新規,0,2021-08-16,2021-08-16,株式会社ランダムボンド,,株式会社,東京都,渋谷区,桜丘町２２－６,,13,113,1500031,,,,,,,2021-08-16,1,,,,,ランダムボンド,0
2237,9011001142301,新規,0,2021-08-16,2021-08-16,ＮＹハピネス株式会社,,株式会社,東京都,渋谷区,恵比寿西２丁目１９番３号,,13,113,1500021,,,,,,,2021-08-16,1,,,,,エヌワイハピネス,0
2238,9011001142417,新規,0,2021-08-16,2021-08-16,株式会社ｇｉｎｉ,,株式会社,東京都,渋谷区,円山町５番５号Ｎａｖｉ渋谷Ⅴ３階,00123945,13,113,1500044,,,,,,,2021-08-16,1,,,,,ジニ,0
2251,9011401023605,新規,0,2021-08-16,2021-08-16,株式会社ＤｒｅａｍＬｅａｐ,,株式会社,東京都,板橋区,板橋１丁目４７番１３－３０３号,,13,119,1730004,,,,,,,2021-08-16,1,,,,,ドリームリープ,0
2256,9011801039580,新規,0,2021-08-16,2021-08-16,株式会社Ｔｒｉｍ,,株式会社,東京都,足立区,北加平町９番１８－２０２号,,13,121,1210056,,,,,,,2021-08-16,1,,,,,トリム,0
2258,9012305001969,新規,0,2021-08-16,2021-08-16,一般社団法人オカマルト,,その他の設立登記法人,東京都,町田市,三輪緑山３丁目２１１２番地１２藤和ライブタウン緑山２－３０９,,13,209,1950055,,,,,,,2021-08-16,1,,,,,オカマルト,0
2260,9013101008695,新規,0,2021-08-16,2021-08-16,株式会社縁,,株式会社,東京都,西多摩郡瑞穂町,大字箱根ケ崎１６番地の１,,13,303,1901221,,,,,,,2021-08-16,1,,,,,エニシ,0
2273,9020001142599,新規,0,2021-08-16,2021-08-16,株式会社Ｅｄｅｎ,,株式会社,神奈川県,横浜市中区,本牧原１９番１－７１５号,,14,104,2310821,,,,,,,2021-08-16,1,,,,,エデン,0
2278,9020003020324,新規,0,2021-08-16,2021-08-16,合同会社Ｒｕｂｉａ,,合同会社,神奈川県,横浜市戸塚区,品濃町８８０番地５ザ・パークハウス東戸塚レジデンス８１８,,14,110,2440801,,,,,,,2021-08-16,1,,,,,ルビア,0
2290,9021005012276,新規,0,2021-08-16,2021-08-16,一般社団法人相模原市南区地域障がい福祉連絡協議会,,その他の設立登記法人,神奈川県,相模原市南区,東林間６丁目１５番８号１Ｆ,,14,153,2520311,,,,,,,2021-08-16,1,,,,,サガミハラシミナミクチイキショウガイフクシレンラクキョウギカイ,0
2300,9030001143811,新規,0,2021-08-16,2021-08-16,ワイズ・メディック株式会社,,株式会社,埼玉県,上尾市,大字原市７６６番地１,,11,219,3620021,,,,,,,2021-08-16,1,,,,,ワイズメディック,0
2301,9030001143828,新規,0,2021-08-16,2021-08-16,株式会社ひまわり,,株式会社,埼玉県,熊谷市,久保島６７５番地１,,11,202,3600831,,,,,,,2021-08-16,1,,,,,ヒマワリ,0
2302,9030003017732,新規,0,2021-08-16,2021-08-16,合同会社オーブサポート,,合同会社,埼玉県,新座市,野寺４丁目４番４３号,,11,230,3520034,,,,,,,2021-08-16,1,,,,,オーブサポート,0
2303,9030003017773,新規,0,2021-08-16,2021-08-16,ＩＳＨＩＭＡＨ合同会社,,合同会社,埼玉県,所沢市,若狭３丁目２５５３－４－１０２,,11,208,3591151,,,,,,,2021-08-16,1,,,,,イシマ,0
2310,9060001033992,新規,0,2021-08-16,2021-08-16,株式会社ＥＢ．Ｃｒｅｗ,,株式会社,栃木県,宇都宮市,大和３丁目１２番２号,,09,201,3200836,,,,,,,2021-08-16,1,,,,,イービークルー,0
2311,9060003003779,新規,0,2021-08-16,2021-08-16,合同会社ｍａｒｍｏｕｎｔ,,合同会社,栃木県,小山市,大字下国府塚６３７番地１,,09,208,3230065,,,,,,,2021-08-16,1,,,,,マーマウント,0
2314,9070001038347,新規,0,2021-08-16,2021-08-16,株式会社ＭＳＩＸ,,株式会社,群馬県,前橋市,荒牧町２丁目３３番地５,,10,201,3710044,,,,,,,2021-08-16,1,,,,,エムシックス,0
2317,9080401025266,新規,0,2021-08-16,2021-08-16,中越工業株式会社,,株式会社,静岡県,袋井市,浅羽２２８１番地の２１,,22,216,4371101,,,,,,,2021-08-16,1,,,,,ナカゴシコウギョウ,0
2320,9110001035975,新規,0,2021-08-16,2021-08-16,株式会社ＤＭＰ,,株式会社,新潟県,新潟市東区,藤見町１丁目１５番２－２６号,,15,102,9500025,,,,,,,2021-08-16,1,,,,,ディーエムピー,0
2334,9120001239773,新規,0,2021-08-16,2021-08-16,ＲＥＡＬ　ＬＩＦＥ株式会社,,株式会社,大阪府,大阪市中央区,難波４丁目１番１５号,,27,128,5420076,,,,,,,2021-08-16,1,,,,,リアルライフ,0
2335,9120001239798,新規,0,2021-08-16,2021-08-16,株式会社ＫＤ２,,株式会社,大阪府,大阪市住吉区,帝塚山東２丁目４番１４号,,27,120,5580054,,,,,,,2021-08-16,1,,,,,ケーディツー,0
2337,9120003020017,新規,0,2021-08-16,2021-08-16,合同会社ＴＥＲＡＳ－Ｕ,,合同会社,大阪府,大阪市西区,南堀江３丁目１２番１９号ＡＸＩＳ西長堀１００５号,,27,106,5500015,,,,,,,2021-08-16,1,,,,,テラス,0
2340,9120101064155,新規,0,2021-08-16,2021-08-16,Ｄａｉｋｉ株式会社,,株式会社,大阪府,富田林市,西板持町７丁目１０番１３号,,27,214,5840048,,,,,,,2021-08-16,1,,,,,ダイキ,0
2341,9120101064163,新規,0,2021-08-16,2021-08-16,株式会社アートレックス,,株式会社,大阪府,堺市西区,鳳中町９丁２９１番地８モンタージュ２０１号,,27,144,5938327,,,,,,,2021-08-16,1,,,,,アートレックス,0
2345,9120903003780,新規,0,2021-08-16,2021-08-16,合同会社ＳＬＮ,,合同会社,大阪府,茨木市,駅前１丁目２番１３－１２０３号,,27,211,5670888,,,,,,,2021-08-16,1,,,,,エスエルエヌ,0
2346,9122001035079,新規,0,2021-08-16,2021-08-16,株式会社Ｅａｓｔ,,株式会社,大阪府,八尾市,春日町３丁目２番１０号,,27,212,5810061,,,,,,,2021-08-16,1,,,,,イースト,0
2347,9122001035087,新規,0,2021-08-16,2021-08-16,全日本輸入サポート株式会社,,株式会社,大阪府,東大阪市,高井田元町２丁目８番５号,,27,227,5770054,,,,,,,2021-08-16,1,,,,,ゼンニホンユニュウサポート,0
2352,9130001069930,新規,0,2021-08-16,2021-08-16,九曜株式会社,,株式会社,京都府,宇治市,南陵町１丁目１番地の１９９,,26,204,6110028,,,,,,,2021-08-16,1,,,,,クヨウ,0
2370,9180003022858,新規,0,2021-08-16,2021-08-16,ファーストピット合同会社,,合同会社,愛知県,名古屋市名東区,上社４丁目１０４－１ひじりハウス１階,,23,115,4650025,,,,,,,2021-08-16,1,,,,,ファーストピット,0
2372,9180005019398,新規,0,2021-08-16,2021-08-16,一般社団法人ｔａｋｅ　ｓｔｅｐ,,その他の設立登記法人,愛知県,名古屋市守山区,東山町１３番２７号グラン・コート瓢箪山４０２号,,23,113,4630061,,,,,,,2021-08-16,1,,,,,テイクステップ,0
2375,9180303005075,新規,0,2021-08-16,2021-08-16,合同会社アンテケッロ,,合同会社,愛知県,知立市,谷田町西２丁目６番地２２,,23,225,4720014,,,,,,,2021-08-16,1,,,,,アンテケッロ,0
2378,9200001039026,新規,0,2021-08-16,2021-08-16,株式会社エイチ・スタイル,,株式会社,岐阜県,羽島市,正木町不破一色２２８番地２,,21,209,5016228,,,,,,,2021-08-16,1,,,,,エイチスタイル,0
2381,9210001018573,新規,0,2021-08-16,2021-08-16,株式会社ＴｒｉｃｋＰｏｔ,,株式会社,福井県,福井市,足羽１丁目２７－１５,,18,201,9188007,,,,,,,2021-08-16,1,,,,,トリックポット,0
2383,9220001024372,新規,0,2021-08-16,2021-08-16,株式会社池田意匠建築,,株式会社,石川県,白山市,鶴来知守町ヌ６７番地３,,17,210,9202122,,,,,,,2021-08-16,1,,,,,イケダイショウケンチク,0
2387,9230001018943,新規,0,2021-08-16,2021-08-16,株式会社ディブエナジー,,株式会社,富山県,富山市,石金１丁目１１番１５号,,16,201,9300966,,,,,,,2021-08-16,1,,,,,ディブエナジー,0
2388,9240001058451,新規,0,2021-08-16,2021-08-16,株式会社Ｒｉｃｈｅ,,株式会社,広島県,安芸郡府中町,大須３丁目４番３－４０２号,,34,302,7350021,,,,,,,2021-08-16,1,,,,,リッシュ,0
2390,9240003005245,新規,0,2021-08-16,2021-08-16,合同会社テンバガー,,合同会社,広島県,広島市南区,段原３丁目３番２７号段原メディカルビル３階,,34,103,7320811,,,,,,,2021-08-16,1,,,,,テンバガー,0
2397,9270001008338,新規,0,2021-08-16,2021-08-16,株式会社パルサポートとっとり,,株式会社,鳥取県,鳥取市,布勢２４２番地１６,,31,201,6800944,,,,,,,2021-08-16,1,,,,,パルサポートトットリ,0
2403,9290001094211,新規,0,2021-08-16,2021-08-16,株式会社ヴァンガルド,,株式会社,福岡県,福岡市博多区,対馬小路１１番１５号２０２号,,40,132,8120020,,,,,,,2021-08-16,1,,,,,ヴァンガルド,0
2406,9290003011494,新規,0,2021-08-16,2021-08-16,合同会社Ｌｅａｆ　ｓｔｏｎｅ,,合同会社,福岡県,大牟田市,大字歴木１５８８番地３,,40,202,8370924,,,,,,,2021-08-16,1,,,,,リーフストーン,0
2407,9290803003906,新規,0,2021-08-16,2021-08-16,３ＷＩＮ合同会社,,合同会社,福岡県,北九州市戸畑区,銀座２丁目３番１７号,,40,105,8040076,,,,,,,2021-08-16,1,,,,,スリーウィン,0
2409,9330001028908,新規,0,2021-08-16,2021-08-16,株式会社藍乃屋,,株式会社,熊本県,熊本市中央区,南熊本５丁目１０番４０号南熊本ＴＲビル１Ｆ,,43,101,8600812,,,,,,,2021-08-16,1,,,,,アイノヤ,0
2416,9340005009325,新規,0,2021-08-16,2021-08-16,一般社団法人詩の郷,,その他の設立登記法人,鹿児島県,姶良市,西姶良４丁目１７番１９号,,46,225,8995656,,,,,,,2021-08-16,1,,,,,ウタノサト,0
2423,9360001029218,新規,0,2021-08-16,2021-08-16,株式会社ＭＯＦＭＯＲＥ,,株式会社,沖縄県,宜野湾市,大謝名１丁目１２－１２,,47,205,9012225,,,,,,,2021-08-16,1,,,,,モフモア,0
2426,9370001047490,新規,0,2021-08-16,2021-08-16,ヤマショー株式会社,,株式会社,宮城県,仙台市若林区,大和町１丁目６番２－１０１号,,04,103,9840042,,,,,,,2021-08-16,1,,,,,ヤマショー,0
2433,9380005012465,新規,0,2021-08-16,2021-08-16,一般社団法人Ｉｓｓｉ同仁グループ,,その他の設立登記法人,福島県,白河市,郭内１５１番地９６,,07,205,9610074,,,,,,,2021-08-16,1,,,,,イッシドウジングループ,0
2436,9400001015568,新規,0,2021-08-16,2021-08-16,江刺家産業株式会社,,株式会社,岩手県,奥州市,江刺梁川字下芦沢１３１番地１,00123943,03,215,0231341,,,,,,,2021-08-16,1,,,,,エサシカサンギョウ,0
2440,9420001017554,新規,0,2021-08-16,2021-08-16,Ａｉ　ａｎｄ　Ｆｏｒｅｓｔｒｙ株式会社,,株式会社,青森県,十和田市,元町西２丁目３番１２号,,02,206,0340002,,,,,,,2021-08-16,1,,,,,アイアンドフフォレストリー,0
2442,9430001084734,新規,0,2021-08-16,2021-08-16,株式会社ブレイク,,株式会社,北海道,恵庭市,柏木町４丁目２番１９－２０１号,,01,231,0611423,,,,,,,2021-08-16,1,,,,,ブレイク,0
2443,9430001084742,新規,0,2021-08-16,2021-08-16,ウインホーム株式会社,,株式会社,北海道,札幌市白石区,菊水上町三条３丁目５２番地１８みゆきビル１階,,01,104,0030813,,,,,,,2021-08-16,1,,,,,ウインホーム,0
2444,9430001084750,新規,0,2021-08-16,2021-08-16,株式会社悠賀,,株式会社,北海道,札幌市中央区,南十一条西７丁目２－２１タカラビル４Ｆ,,01,101,0640811,,,,,,,2021-08-16,1,,,,,ユウガ,0
2445,9430001084759,新規,0,2021-08-16,2021-08-16,株式会社アプリュス,,株式会社,北海道,札幌市南区,藤野一条８丁目１４番２２号,,01,106,0612281,,,,,,,2021-08-16,1,,,,,アプリュス,0
2446,9430001084767,新規,0,2021-08-16,2021-08-16,株式会社クールスター,,株式会社,北海道,札幌市豊平区,美園四条３丁目１番２８－３０５号,,01,105,0620004,,,,,,,2021-08-16,1,,,,,クールスター,0
2448,9430003013014,新規,0,2021-08-16,2021-08-16,ラソＧ－グループ合同会社,,合同会社,北海道,岩見沢市,八条西１４丁目２番地４サーム８条西参番館４０１号,,01,210,0680028,,,,,,,2021-08-16,1,,,,,ラソジーグループ,0
2449,9430003013030,新規,0,2021-08-16,2021-08-16,合同会社ＭＰＢ,,合同会社,北海道,札幌市中央区,南五条西８丁目５番地１,,01,101,0640805,,,,,,,2021-08-16,1,,,,,エムピービー,0
2450,9430003013039,新規,0,2021-08-16,2021-08-16,ＪＣＵ合同会社,,合同会社,北海道,札幌市中央区,南五条西５丁目２１番地１第２旭観光ビル５階２号室,,01,101,0640805,,,,,,,2021-08-16,1,,,,,ジェーシーユー,0
2451,9430003013047,新規,0,2021-08-16,2021-08-16,合同会社ＧＬＡＤ,,合同会社,北海道,北広島市,大曲並木３丁目２０番地８,,01,234,0611279,,,,,,,2021-08-16,1,,,,,グラッド,0
2452,9450003002114,新規,0,2021-08-16,2021-08-16,合同会社スプリングバレー,,合同会社,北海道,上川郡東神楽町,ひじり野南三条１丁目１１番２号,,01,453,0711525,,,,,,,2021-08-16,1,,,,,スプリングバレー,0
2456,9470001018663,新規,0,2021-08-16,2021-08-16,株式会社ヤハタサービス,,株式会社,香川県,高松市,勅使町１３１番地３,,37,201,7618058,,,,,,,2021-08-16,1,,,,,ヤハタサービス,0
2458,9470003002013,新規,0,2021-08-16,2021-08-16,合同会社サスケブレイン,,合同会社,香川県,三豊市,仁尾町仁尾甲１３６２番地１,,37,208,7691408,,,,,,,2021-08-16,1,,,,,サスケブレイン,0
