sequenceNumber,corporateNumber,process,correct,updateDate,changeDate,name,nameImageId,kind,prefectureName,cityName,streetNumber,addressImageId,prefectureCode,cityCode,postCode,addressOutside,addressOutsideImageId,closeDate,closeCause,successorCorporateNumber,changeCause,assignmentDate,latest,enName,enPrefectureName,enCityName,enAddressOutside,furigana,hihyoji
3,1010001084016,登記記録の閉鎖等,0,2021-11-04,2021-11-01,ジャパンティーヴィー株式会社,,株式会社,東京都,千代田区,神田神保町１丁目１４番地,,13,101,1010051,,,2021-11-01,合併による解散等,6190001014859,令和３年１０月１日三重県四日市市栄町１番１１号サイバー・ネット・コミュニケーションズ株式会社（6190001014859）に合併し解散,2015-10-05,1,,,,,ジャパンティーヴィー,0
39,1010403016434,登記記録の閉鎖等,0,2021-11-04,2021-10-22,Ｂｉｚ合同会社,,合同会社,東京都,港区,南青山２丁目２－１５ＷｉｎＡｏｙａｍａＵＣＦ－９Ｆ,,13,103,1070062,,,2021-10-22,清算の結了等,,,2017-04-25,1,,,,,ビズ,0
48,1010601026912,登記記録の閉鎖等,0,2021-11-04,2021-10-22,株式会社シンワテクニカ,,株式会社,東京都,墨田区,東向島６丁目２５番１９号,,13,107,1310032,,,2021-10-22,清算の結了等,,,2015-10-05,1,,,,,シンワテクニカ,0
100,1011802000524,登記記録の閉鎖等,0,2021-11-04,2021-11-02,有限会社池田ガス圧接工業,,有限会社,東京都,葛飾区,細田３丁目１１番６号,,13,122,1240021,,,2021-11-02,清算の結了等,,,2015-10-05,1,,,,,イケダガスアッセツコウギョウ,0
118,1020001024549,登記記録の閉鎖等,0,2021-11-04,2021-10-29,三ツ澤電設株式会社,,株式会社,神奈川県,横浜市神奈川区,三ツ沢下町１０番１４号,,14,102,2210852,,,2021-10-29,清算の結了等,,,2018-03-05,1,,,,,ミツザワデンセツ,0
129,1020002092248,登記記録の閉鎖等,0,2021-11-04,2021-10-27,有限会社サムタイム,,有限会社,神奈川県,川崎市多摩区,三田３丁目２番地３－５０７,,14,135,2140034,,,2021-10-27,清算の結了等,,,2015-10-05,1,,,,,サムタイム,0
140,1030001014862,登記記録の閉鎖等,0,2021-11-04,2021-10-21,株式会社ワイズトレーディング,,株式会社,埼玉県,さいたま市見沼区,大字小深作４８５番地３,,11,104,3370005,,,2021-10-21,清算の結了等,,,2015-10-05,1,,,,,,0
141,1030001035454,登記記録の閉鎖等,0,2021-11-04,2021-10-29,株式会社ハーフテキスタイル,,株式会社,埼玉県,草加市,旭町２丁目２番３３号,,11,221,3400053,,,2021-10-29,清算の結了等,,,2015-10-05,1,,,,,ハーフテキスタイル,0
179,1080001013661,登記記録の閉鎖等,0,2021-11-04,2021-11-01,静央ハウス株式会社,,株式会社,静岡県,牧之原市,大江１２５０番地の１,,22,226,4210512,,,2021-11-01,清算の結了等,,,2015-10-05,1,,,,,セイオウハウス,0
196,1110002027483,登記記録の閉鎖等,0,2021-11-04,2021-10-29,有限会社ケイ・トータルプランニング,,有限会社,新潟県,長岡市,下山３丁目５番地５,,15,202,9402115,,,2021-10-29,清算の結了等,,,2015-10-05,1,,,,,ケイトータルプランニング,0
225,1120101004309,登記記録の閉鎖等,0,2021-11-04,2021-11-01,ハウス住建株式会社,,株式会社,大阪府,堺市堺区,協和町１丁５０番地,,27,141,5900822,,,2021-11-01,清算の結了等,,,2015-10-05,1,,,,,ハウスジュウケン,0
250,1150001011732,登記記録の閉鎖等,0,2021-11-04,2021-11-01,株式会社中川住環境研究所,,株式会社,奈良県,橿原市,久米町７１７番地,,29,205,6340063,,,2021-11-01,清算の結了等,,,2015-10-05,1,,,,,ナカガワジュウカンキョウケンキュウショ,0
258,1180001025787,登記記録の閉鎖等,0,2021-11-04,2021-10-27,株式会社昭和製作所,,株式会社,愛知県,名古屋市西区,山木２丁目５６番地,,23,104,4520833,,,2021-10-27,清算の結了等,,,2015-10-05,1,,,,,ショウワセイサクショ,0
266,1180001083827,登記記録の閉鎖等,0,2021-11-04,2021-10-18,株式会社国際危機管理センター,,株式会社,愛知県,名古屋市中区,丸の内３丁目２１番２１号丸の内東桜ビル３０３号,,23,106,4600002,,,2021-10-18,清算の結了等,,,2015-10-05,1,,,,,コクサイキキカンリセンター,0
288,1180302016898,登記記録の閉鎖等,0,2021-11-04,2021-10-21,有限会社ダイワコーヒー三河,,有限会社,愛知県,安城市,今池町１丁目７番９号,,23,212,4460071,,,2021-10-21,清算の結了等,,,2015-10-05,1,,,,,ダイワコーヒーミカワ,0
351,1320002008909,登記記録の閉鎖等,0,2021-11-04,2021-11-01,有限会社緑桃,,有限会社,大分県,大分市,大字上戸次５６０７番地の１,,44,201,8797764,,,2021-11-01,清算の結了等,,,2015-10-05,1,,,,,リョクトウ,0
381,1420001000765,登記記録の閉鎖等,0,2021-11-04,2021-10-28,株式会社キノシタ,,株式会社,青森県,青森市,栄町２丁目６番３１号,,02,201,0300903,,,2021-10-28,清算の結了等,,,2017-07-24,1,,,,,キノシタ,0
411,1500002015928,登記記録の閉鎖等,0,2021-11-04,2021-11-01,有限会社泉川レンタカー,,有限会社,愛媛県,新居浜市,下泉町１丁目７番５０号,,38,205,7920813,,,2021-11-01,清算の結了等,,,2015-10-05,1,,,,,イズミガワレンタカー,0
452,2010501020873,登記記録の閉鎖等,0,2021-11-04,2021-11-01,株式会社ユウシュウ・インターナショナル,,株式会社,東京都,立川市,錦町１丁目１番２３号５階,,13,202,1900022,,,2021-11-01,清算の結了等,,,2015-10-05,1,,,,,,0
460,2010703004476,登記記録の閉鎖等,0,2021-11-04,2021-11-01,合同会社Ｈｉｔｏ　ａｎｄ　Ｍｏｎｏ,,合同会社,東京都,品川区,戸越１丁目１９番３号１４号室,,13,109,1420041,,,2021-11-01,清算の結了等,,,2018-10-02,1,,,,,ヒトアンドモノ,0
480,2011101034545,登記記録の閉鎖等,0,2021-11-04,2021-10-22,Ｃ－ＭＡＰ　Ｊａｐａｎ株式会社,,株式会社,東京都,江東区,有明３丁目７番２６号,,13,108,1350063,,,2021-10-22,清算の結了等,,,2015-10-05,1,,,,,シーマップジャパン,0
504,2012802002567,登記記録の閉鎖等,0,2021-11-04,2021-11-01,有限会社レン高野,,有限会社,東京都,立川市,砂川町４丁目５番地の９,,13,202,1900031,,,2021-11-01,清算の結了等,,,2015-10-05,1,,,,,レンタカノ,0
516,2020001046600,登記記録の閉鎖等,0,2021-11-04,2021-11-01,株式会社鈴木製作所,,株式会社,神奈川県,横浜市港南区,最戸１丁目１１番５号,,14,111,2330008,,,2021-11-01,清算の結了等,,,2015-10-05,1,,,,,スズキセイサクショ,0
541,2030001041690,登記記録の閉鎖等,0,2021-11-04,2021-10-29,丸建自動車株式会社,,株式会社,埼玉県,上尾市,二ツ宮１０６９番地,,11,219,3620017,,,2021-10-29,清算の結了等,,,2015-10-05,1,,,,,マルケンジドウシャ,0
580,2050002016046,登記記録の閉鎖等,0,2021-11-04,2021-11-01,有限会社みのり,,有限会社,茨城県,水戸市,大工町１丁目２番２－６０７号,,08,201,3100031,,,2021-11-01,清算の結了等,,,2015-10-05,1,,,,,ミノリ,0
598,2080102016777,登記記録の閉鎖等,0,2021-11-04,2021-10-27,有限会社サンキュー,,有限会社,静岡県,富士宮市,舟久保町１６番地の１９,,22,207,4180017,,,2021-10-27,清算の結了等,,,2015-10-05,1,,,,,サンキュー,0
619,2120001230243,登記記録の閉鎖等,0,2021-11-04,2021-10-29,株式会社ヒラノ,,株式会社,大阪府,大阪市住之江区,新北島６丁目１番５号,,27,125,5590024,,,2021-10-29,清算の結了等,,,2020-07-09,1,,,,,ヒラノ,0
630,2120005018585,登記記録の閉鎖等,0,2021-11-04,2021-11-01,一般社団法人カタギ食品厚生会,,その他の設立登記法人,大阪府,寝屋川市,石津元町１２番８号,,27,215,5720025,,,2021-11-01,清算の結了等,,,2016-04-01,1,,,,,カタギショクヒンコウセイカイ,0
637,2120901028992,登記記録の閉鎖等,0,2021-11-04,2021-11-01,レインボープランズ株式会社,,株式会社,兵庫県,宝塚市,山本台２丁目３番１９号,,28,214,6650885,,,2021-11-01,清算の結了等,,,2015-10-05,1,,,,,レインボープランズ,0
644,2120902009793,登記記録の閉鎖等,0,2021-11-04,2021-10-29,有限会社大阪プリントセンター,,有限会社,京都府,木津川市,相楽台２丁目１３番地５,,26,214,6190223,,,2021-10-29,清算の結了等,,,2015-10-05,1,,,,,オオサカプリントセンター,0
652,2130001028174,登記記録の閉鎖等,0,2021-11-04,2021-11-01,谷電気設備株式会社,,株式会社,京都府,京都市西京区,牛ケ瀬林ノ本町７０番地,,26,111,6158031,,,2021-11-01,清算の結了等,,,2015-10-05,1,,,,,タニデンキセツビ,0
657,2130002000909,登記記録の閉鎖等,0,2021-11-04,2021-11-01,有限会社瀬戸商店,,有限会社,京都府,京都市右京区,梅津堤上町３４番地の２,,26,108,6150904,,,2021-11-01,清算の結了等,,,2015-10-05,1,,,,,セトショウテン,0
680,2180001016455,登記記録の閉鎖等,0,2021-11-04,2021-11-01,株式会社喜久屋,,株式会社,愛知県,名古屋市東区,新出来１丁目１番３２号,,23,102,4610038,,,2021-11-01,清算の結了等,,,2015-10-05,1,,,,,キクヤ,0
711,2180305006508,登記記録の閉鎖等,0,2021-11-04,2021-10-20,高岡村農業會,00075515,その他の設立登記法人,愛知県,豊田市,若林東町上り戸２番地,,23,211,4730914,,,2021-10-20,清算の結了等,,,2015-10-05,1,,,,,タカオカムラノウギョウカイ,0
724,2220001008753,登記記録の閉鎖等,0,2021-11-04,2021-11-01,株式会社アマン,,株式会社,石川県,能美郡川北町,字土室ほ１番地１,,17,324,9231261,,,2021-11-01,清算の結了等,,,2015-10-05,1,,,,,アマン,0
732,2240005007799,登記記録の閉鎖等,0,2021-11-04,2021-10-21,一般財団法人福山市母子寡婦福祉連合会,,その他の設立登記法人,広島県,福山市,御門町２丁目１番１号,,34,207,7200805,,,2021-10-21,清算の結了等,,,2015-10-05,1,,,,,,0
739,2260002012916,登記記録の閉鎖等,0,2021-11-04,2021-11-02,オンリー・ワン・インシュアランス有限会社,,有限会社,岡山県,岡山市中区,国富３丁目１番１６－３号,,33,102,7038236,,,2021-11-02,清算の結了等,,,2015-10-05,1,,,,,オンリーワンインシュアランス,0
773,2370601003197,登記記録の閉鎖等,0,2021-11-04,2021-10-28,株式会社トリニティ,,株式会社,宮城県,多賀城市,高橋５丁目２８番９号,,04,209,9850853,,,2021-10-28,清算の結了等,,,2015-10-05,1,,,,,トリニティ,0
775,2380001026054,登記記録の閉鎖等,0,2021-11-04,2021-11-01,株式会社伊東採石工業,,株式会社,福島県,相馬市,小泉字山田３２３番地の４,,07,209,9760013,,,2021-11-01,清算の結了等,,,2015-10-21,1,,,,,イトウサイセキコウギョウ,0
803,3010001069659,登記記録の閉鎖等,0,2021-11-04,2021-11-01,株式会社ＮＯＡＲＴＥＣ,,株式会社,東京都,新宿区,弁天町１５０番地牛込中央マンション１０３,,13,104,1620851,,,2021-11-01,清算の結了等,,,2015-10-05,1,,,,,エヌオーエーアールティイーシー,0
820,3010401022622,登記記録の閉鎖等,0,2021-11-04,2021-10-27,株式会社日本クリエイティブ,,株式会社,東京都,大田区,池上７丁目８番１９号,,13,111,1460082,,,2021-10-27,清算の結了等,,,2015-10-05,1,,,,,ニホンクリエイティブ,0
835,3010502013999,登記記録の閉鎖等,0,2021-11-04,2021-11-01,有限会社辻井電機,00051343,有限会社,東京都,台東区,谷中１丁目７番２５号,,13,106,1100001,,,2021-11-01,清算の結了等,,,2015-10-05,1,,,,,ツジイデンキ,0
841,3010705002584,登記記録の閉鎖等,0,2021-11-04,2021-10-22,一般社団法人次世代デザイン・ラボ,,その他の設立登記法人,東京都,品川区,北品川５丁目３番１－１８０２号,,13,109,1410001,,,2021-10-22,清算の結了等,,,2017-03-24,1,,,,,,0
881,3011302015863,登記記録の閉鎖等,0,2021-11-04,2021-11-02,有限会社サポートセンターゆう・あい,,有限会社,東京都,杉並区,永福４丁目２番９号,,13,115,1680064,,,2021-11-02,清算の結了等,,,2015-10-05,1,,,,,サポートセンターユウアイ,0
886,3011505000745,登記記録の閉鎖等,0,2021-11-04,2021-10-28,梶原銀座商店街振興組合,,その他の設立登記法人,東京都,北区,堀船３丁目２７番１２号,,13,117,1140004,,,2021-10-28,清算の結了等,,,2015-10-05,1,,,,,カジワラギンザ,0
891,3011801034678,登記記録の閉鎖等,0,2021-11-04,2021-11-01,株式会社ＮＥＸＴ,,株式会社,東京都,足立区,東保木間２丁目２８番６号,,13,121,1210063,,,2021-11-01,清算の結了等,,,2018-05-09,1,,,,,ネクスト,0
910,3020002009241,登記記録の閉鎖等,0,2021-11-04,2021-11-01,有限会社梁山泊,,有限会社,神奈川県,横浜市金沢区,能見台通４番１３号,,14,108,2360053,,,2021-11-01,清算の結了等,,,2015-10-05,1,,,,,,0
917,3020005009189,登記記録の閉鎖等,0,2021-11-04,2021-10-29,医療法人社団真正会,,その他の設立登記法人,神奈川県,横浜市港北区,新羽町１６８６番地１ユーム・ニューウィングＩＩＩ３階３０２号室,00012132,14,109,2230057,,,2021-10-29,清算の結了等,,,2015-10-05,1,,,,,シンセイカイ,0
946,3030002082799,登記記録の閉鎖等,0,2021-11-04,2021-10-28,有限会社栃木コーポレーション,,有限会社,埼玉県,鴻巣市,人形２丁目２番８７号,,11,217,3650037,,,2021-10-28,清算の結了等,,,2015-10-05,1,,,,,トチギコーポレーション,0
964,3050001034312,登記記録の閉鎖等,0,2021-11-04,2021-11-01,株式会社ＹＣみらい平,,株式会社,茨城県,つくばみらい市,伊奈東３４番地２０５,,08,235,3002308,,,2021-11-01,清算の結了等,,,2015-10-05,1,,,,,,0
973,3070002001219,登記記録の閉鎖等,0,2021-11-04,2021-11-01,小野燃料有限会社,,有限会社,群馬県,前橋市,天川原町１丁目４３番地７,,10,201,3710803,,,2021-11-01,清算の結了等,,,2015-10-05,1,,,,,オノネンリョウ,0
992,3100002033308,登記記録の閉鎖等,0,2021-11-04,2021-11-01,有限会社丸山瓦店,,有限会社,長野県,伊那市,高遠町上山田５７番地,,20,209,3960217,,,2021-11-01,清算の結了等,,,2015-10-05,1,,,,,マルヤマカワラテン,0
1048,3140001021714,登記記録の閉鎖等,0,2021-11-04,2021-11-01,株式会社シグマカード,,株式会社,兵庫県,神戸市中央区,元町通２丁目９番１号元町プラザビル,,28,110,6500022,,,2021-11-01,清算の結了等,,,2015-10-05,1,,,,,シグマカード,0
1060,3160001010153,登記記録の閉鎖等,0,2021-11-04,2021-11-02,株式会社パピヨン・エル,,株式会社,滋賀県,東近江市,垣見町１４９番地１０,,25,213,5211221,,,2021-11-02,清算の結了等,,,2015-10-05,1,,,,,パピヨンエル,0
1068,3180001052144,登記記録の閉鎖等,0,2021-11-04,2021-10-29,双葉航空株式会社,,株式会社,愛知県,北名古屋市,六ツ師５４９番地,,23,234,4810001,,,2021-10-29,清算の結了等,,,2015-10-05,1,,,,,フタバコウクウ,0
1071,3180001070749,登記記録の閉鎖等,0,2021-11-04,2021-11-01,株式会社Ａ＆Ｙ,,株式会社,愛知県,名古屋市南区,豊田４丁目５番３０号,,23,112,4570841,,,2021-11-01,清算の結了等,,,2015-10-05,1,,,,,エーアンドワイ,0
1073,3180001083445,登記記録の閉鎖等,0,2021-11-04,2021-10-18,株式会社ハヤシ美建,,株式会社,愛知県,一宮市,大毛字光田１５番地,,23,203,4910132,,,2021-10-18,清算の結了等,,,2015-10-05,1,,,,,ハヤシビケン,0
1077,3180001118903,登記記録の閉鎖等,0,2021-11-04,2021-11-01,株式会社水谷新聞店,,株式会社,愛知県,愛西市,西保町六十坪４０番地１,,23,232,4960911,,,2021-11-01,清算の結了等,,,2015-10-05,1,,,,,ミズタニシンブンテン,0
1081,3180001122789,登記記録の閉鎖等,0,2021-11-04,2021-11-01,木曽駒高原ホテル株式会社,,株式会社,愛知県,名古屋市南区,大同町４丁目７番地,,23,112,4570811,,,2021-11-01,合併による解散等,1180001014798,令和３年１１月１日名古屋市南区大同町四丁目７番地株式会社大同ライフサービス（1180001014798）に合併し解散,2016-04-07,1,,,,,キソコマコウゲンホテル,0
1117,3230001008867,登記記録の閉鎖等,0,2021-11-04,2021-10-28,城端アルミニウム工業株式会社,,株式会社,富山県,南砺市,蓑谷７１０番地,,16,210,9391812,,,2021-10-28,清算の結了等,,,2015-10-05,1,,,,,ジョウハナアルミニウムコウギョウ,0
1119,3230003001358,登記記録の閉鎖等,0,2021-11-04,2021-10-29,合同会社オーエイト,,合同会社,富山県,高岡市,福岡町大野１９４番地１３,,16,202,9390118,,,2021-10-29,清算の結了等,,,2019-09-03,1,,,,,オーエイト,0
1166,3330002007577,登記記録の閉鎖等,0,2021-11-04,2021-11-01,有限会社ナカノ・カープラザ,,有限会社,熊本県,熊本市北区,弓削５丁目５番２５号,,43,105,8618002,,,2021-11-01,清算の結了等,,,2015-10-05,1,,,,,ナカノカープラザ,0
1169,3330002027749,登記記録の閉鎖等,0,2021-11-04,2021-10-29,有限会社共栄商事,,有限会社,熊本県,水俣市,桜井町１丁目３番７号,,43,205,8670045,,,2021-10-29,清算の結了等,,,2015-10-05,1,,,,,キョウエイショウジ,0
1172,3340001014383,登記記録の閉鎖等,0,2021-11-04,2021-11-01,株式会社大隅総合サービス,,株式会社,鹿児島県,鹿屋市,王子町４６６２番地,,46,203,8930012,,,2021-11-01,清算の結了等,,,2015-10-05,1,,,,,オオスミソウゴウサービス,0
1175,3340005001155,登記記録の閉鎖等,0,2021-11-04,2021-11-01,医療法人秀和会,,その他の設立登記法人,鹿児島県,鹿児島市,真砂町７３番２０号,,46,201,8900066,,,2021-11-01,清算の結了等,,,2015-10-05,1,,,,,シュウワカイ,0
1192,3390002007464,登記記録の閉鎖等,0,2021-11-04,2021-10-29,有限会社庄内パック,,有限会社,山形県,酒田市,富士見町３丁目２番地の１２,,06,204,9980861,,,2021-10-29,清算の結了等,,,2015-10-05,1,,,,,ショウナイパック,0
1194,3420002008756,登記記録の閉鎖等,0,2021-11-04,2021-11-01,有限会社本町ガレージ,,有限会社,青森県,八戸市,大字湊町字本町５２番地,,02,203,0310812,,,2021-11-01,清算の結了等,,,2015-10-05,1,,,,,ホンチョウガレージ,0
1198,3430001047969,登記記録の閉鎖等,0,2021-11-04,2021-11-01,中央創建株式会社,,株式会社,北海道,岩見沢市,九条西１丁目１０番地１,,01,210,0680029,,,2021-11-01,合併による解散等,9430001046420,令和３年１０月３１日北海道岩見沢市九条西一丁目１０番地１株式会社カツイ（9430001046420）に合併し解散,2015-10-05,1,,,,,チュウオウソウケン,0
1220,4010001012080,登記記録の閉鎖等,0,2021-11-04,2021-11-01,エステートジヤパン株式会社,,株式会社,東京都,千代田区,富士見２丁目１１番１２号,,13,101,1020071,,,2021-11-01,清算の結了等,,,2015-10-05,1,,,,,エステートジャパン,0
1224,4010001030272,登記記録の閉鎖等,0,2021-11-04,2021-11-01,宮島産業株式会社,,株式会社,東京都,千代田区,岩本町２丁目２番１２号,,13,101,1010032,,,2021-11-01,清算の結了等,,,2015-10-05,1,,,,,ミヤジマサンギョウ,0
1225,4010001030330,登記記録の閉鎖等,0,2021-11-04,2021-10-29,株式会社みすゞ,,株式会社,東京都,千代田区,神田和泉町１番地７４,,13,101,1010024,,,2021-10-29,清算の結了等,,,2015-10-05,1,,,,,ミスズ,0
1254,4010401135035,登記記録の閉鎖等,0,2021-11-04,2021-10-22,ＱＥ　Ｔｒａｄｉｎｇ株式会社,,株式会社,東京都,港区,南麻布３丁目２０番１号ダイワ麻布テラス５階,,13,103,1060047,,,2021-10-22,清算の結了等,,,2017-11-16,1,,,,,キューイートレーディング,0
1259,4010403009690,登記記録の閉鎖等,0,2021-11-04,2021-10-21,ＨＡＹＡＢＵＳＡ　Ｉｎｔｅｒｎａｔｉｏｎａｌ合同会社,,合同会社,東京都,港区,北青山２丁目７番２８号,,13,103,1070061,,,2021-10-21,清算の結了等,,,2015-10-05,1,,,,,ハヤブサインターナショナル,0
1280,4010801000152,登記記録の閉鎖等,0,2021-11-04,2021-10-27,相川金属工業株式会社,,株式会社,東京都,大田区,矢口１丁目１２番１－３０１号,,13,111,1460093,,,2021-10-27,清算の結了等,,,2015-10-05,1,,,,,アイカワキンゾクコウギョウ,0
1283,4010802014201,登記記録の閉鎖等,0,2021-11-04,2021-10-27,みのや塗装有限会社,,有限会社,東京都,大田区,中央７丁目１番１１号,,13,111,1430024,,,2021-10-27,清算の結了等,,,2015-10-05,1,,,,,ミノヤトソウ,0
1291,4011301000709,登記記録の閉鎖等,0,2021-11-04,2021-11-01,株式会社イヅツヤ,,株式会社,東京都,杉並区,高円寺南４丁目２５番２号,,13,115,1660003,,,2021-11-01,清算の結了等,,,2015-10-05,1,,,,,イヅツヤ,0
1292,4011301001698,登記記録の閉鎖等,0,2021-11-04,2021-11-02,株式会社亀有印刷所,,株式会社,東京都,杉並区,西荻北３丁目１４番９号,,13,115,1670042,,,2021-11-02,清算の結了等,,,2015-10-05,1,,,,,カメアリインサツジョ,0
1295,4011401016043,登記記録の閉鎖等,0,2021-11-04,2021-10-28,株式会社アースライズ,,株式会社,埼玉県,川口市,大字木曽呂４６６番地の１０,,11,203,3330831,,,2021-10-28,清算の結了等,,,2015-10-05,1,,,,,アースライズ,0
1324,4020001124536,登記記録の閉鎖等,0,2021-11-04,2021-11-01,ライジングスター株式会社,,株式会社,神奈川県,横浜市鶴見区,北寺尾４丁目１番８号,,14,101,2300074,,,2021-11-01,清算の結了等,,,2018-01-15,1,,,,,ライジングスター,0
1334,4020002001610,登記記録の閉鎖等,0,2021-11-04,2021-11-01,有限会社大庫電設,,有限会社,神奈川県,横浜市瀬谷区,阿久和西２丁目４９番地１９,,14,114,2460025,,,2021-11-01,清算の結了等,,,2015-10-05,1,,,,,オオクラデンセツ,0
1335,4020002001924,登記記録の閉鎖等,0,2021-11-04,2021-11-01,有限会社福田組,,有限会社,神奈川県,横浜市瀬谷区,本郷１丁目２３番地４,,14,114,2460015,,,2021-11-01,清算の結了等,,,2015-10-05,1,,,,,,0
1393,4070002022899,登記記録の閉鎖等,0,2021-11-04,2021-10-29,有限会社大澤熔接工業,,有限会社,群馬県,桐生市,相生町５丁目６３４番地の５,,10,203,3760011,,,2021-10-29,清算の結了等,,,2015-10-05,1,,,,,オオサワヨウセツコウギョウ,0
1424,4120002024114,登記記録の閉鎖等,0,2021-11-04,2021-11-01,有限会社七星電業商会,,有限会社,大阪府,大阪市西淀川区,歌島１丁目２３番３２号,,27,113,5550021,,,2021-11-01,清算の結了等,,,2015-10-05,1,,,,,ナナホシデンギョウショウカイ,0
1445,4140002000071,登記記録の閉鎖等,0,2021-11-04,2021-11-01,有限会社芦屋不動産税務研究所,,有限会社,兵庫県,芦屋市,公光町９番４－２０４号,,28,206,6590065,,,2021-11-01,清算の結了等,,,2015-10-05,1,,,,,アシヤフドウサンゼイムケンキュウショ,0
1452,4160001000335,登記記録の閉鎖等,0,2021-11-04,2021-11-01,岡本エンジニアリング株式会社,,株式会社,滋賀県,大津市,粟津町１番２０号,,25,201,5200832,,,2021-11-01,合併による解散等,1160001002276,令和３年１１月１日滋賀県大津市粟津町１番２０号岡本エンジニアリング株式会社（1160001002276）に合併し解散,2015-10-05,1,,,,,オカモトエンジニアリング,0
1481,4200001018694,登記記録の閉鎖等,0,2021-11-04,2021-10-29,株式会社フジモトヤ,,株式会社,岐阜県,加茂郡白川町,黒川１８１６番地３,,21,506,5091431,,,2021-10-29,清算の結了等,,,2015-10-05,1,,,,,フジモトヤ,0
1486,4220001016671,登記記録の閉鎖等,0,2021-11-04,2021-11-01,宝成工建株式会社,,株式会社,石川県,鳳珠郡能登町,字宮犬１１字２番地２,,17,463,9270615,,,2021-11-01,清算の結了等,,,2015-10-05,1,,,,,ホウセイコウケン,0
1489,4230002013758,登記記録の閉鎖等,0,2021-11-04,2021-10-29,有限会社タカヤマ,,有限会社,富山県,射水市,八幡町２丁目９番４５号,,16,211,9340025,,,2021-10-29,清算の結了等,,,2015-10-05,1,,,,,タカヤマ,0
1493,4240001052038,登記記録の閉鎖等,0,2021-11-04,2021-10-29,サトーアソシエイツ株式会社,,株式会社,広島県,広島市中区,中町７番４１号,,34,101,7300037,,,2021-10-29,清算の結了等,,,2017-12-05,1,,,,,サトーアソシエイツ,0
1497,4240002042310,登記記録の閉鎖等,0,2021-11-04,2021-11-01,有限会社祭遊館,,有限会社,広島県,福山市,三吉町３丁目７番２５号,,34,207,7200031,,,2021-11-01,清算の結了等,,,2015-10-05,1,,,,,サイユウカン,0
1520,4290002004727,登記記録の閉鎖等,0,2021-11-04,2021-11-01,有限会社桑波田電気商会,,有限会社,福岡県,福岡市東区,高美台４丁目１４番２６号,,40,131,8110215,,,2021-11-01,清算の結了等,,,2015-10-05,1,,,,,クワハタデンキショウカイ,0
1546,4350002011576,登記記録の閉鎖等,0,2021-11-04,2021-11-01,有限会社ブリューエント,,有限会社,宮崎県,日向市,大字塩見１３４６９番地,,45,206,8830033,,,2021-11-01,合併による解散等,8350002011283,令和３年１１月１日宮崎県日向市東郷町山陰己６５５番地株式会社南九建設（8350002011283）に合併し解散,2015-10-05,1,,,,,ブリューエント,0
1557,4380002013149,登記記録の閉鎖等,0,2021-11-04,2021-11-01,有限会社わたなべ,,有限会社,福島県,郡山市,緑ケ丘東２丁目１７番地の５,,07,203,9630702,,,2021-11-01,清算の結了等,,,2015-10-05,1,,,,,,0
1568,4430001050988,登記記録の閉鎖等,0,2021-11-04,2021-11-01,株式会社グリーンホリデー,,株式会社,北海道,積丹郡積丹町,大字婦美町字婦美５３５番地,,01,405,0460202,,,2021-11-01,清算の結了等,,,2015-10-05,1,,,,,グリーンホリデー,0
1592,5010001071902,登記記録の閉鎖等,0,2021-11-04,2021-10-22,キューエヌエックス・ソフトウェアー・システムズ株式会社,,株式会社,東京都,港区,赤坂１丁目１１番３０号赤坂一丁目センタービル１４階,,13,103,1070052,,,2021-10-22,清算の結了等,,,2015-10-05,1,,,,,キューエヌエックスソフトウェアーシステムズ,0
1595,5010001173616,登記記録の閉鎖等,0,2021-11-04,2021-11-01,ＭＡＴ株式会社,,株式会社,静岡県,静岡市駿河区,用宗１丁目２９番１号,,22,102,4210122,,,2021-11-01,清算の結了等,,,2016-02-18,1,,,,,エムエーティー,0
1628,5010701002413,登記記録の閉鎖等,0,2021-11-04,2021-11-02,株式会社鏑木商会,,株式会社,東京都,品川区,北品川５丁目９番４２号１１２,,13,109,1410001,,,2021-11-02,清算の結了等,,,2015-10-05,1,,,,,カブラギショウカイ,0
1633,5010901034289,登記記録の閉鎖等,0,2021-11-04,2021-11-01,Ｔ－ＳＱＵＡＲＥ株式会社,,株式会社,東京都,世田谷区,船橋５丁目１９番３号,,13,112,1560055,,,2021-11-01,清算の結了等,,,2015-10-05,1,,,,,ティースクエア,0
1638,5011001106623,登記記録の閉鎖等,0,2021-11-04,2021-10-19,株式会社マルチチャネルラボ,,株式会社,東京都,目黒区,東が丘１丁目９番１９号,,13,110,1520021,,,2021-10-19,清算の結了等,,,2015-10-05,1,,,,,マルチチャネルラボ,0
1659,5011601012444,登記記録の閉鎖等,0,2021-11-04,2021-10-29,株式会社アット・ワン,,株式会社,埼玉県,朝霞市,仲町１丁目８番５号,,11,227,3510006,,,2021-10-29,清算の結了等,,,2015-10-05,1,,,,,アットワン,0
1674,5013301026212,登記記録の閉鎖等,0,2021-11-04,2021-10-27,ワイザー・コンサルタンツ株式会社,,株式会社,東京都,豊島区,巣鴨４丁目１３番１９号,,13,116,1700002,,,2021-10-27,清算の結了等,,,2015-10-05,1,,,,,,0
1705,5030002021978,登記記録の閉鎖等,0,2021-11-04,2021-10-28,有限会社リボイス,,有限会社,埼玉県,さいたま市岩槻区,並木２丁目５番２－１２１３号,,11,110,3390068,,,2021-10-28,清算の結了等,,,2015-10-05,1,,,,,リボイス,0
1723,5050001049291,登記記録の閉鎖等,0,2021-11-04,2021-10-28,梶山土木工業株式会社,,株式会社,茨城県,水戸市,東大野１番地,,08,201,3100823,,,2021-10-28,清算の結了等,,,2021-06-04,1,,,,,,0
1729,5080001009004,登記記録の閉鎖等,0,2021-11-04,2021-11-01,富士設備工業株式会社,,株式会社,静岡県,静岡市清水区,向田町８番２９号,,22,103,4240936,,,2021-11-01,清算の結了等,,,2015-10-05,1,,,,,フジセツビコウギョウ,0
1732,5080001017188,登記記録の閉鎖等,0,2021-11-04,2021-10-29,株式会社アートスタンプ,,株式会社,福岡県,大野城市,御笠川６丁目５番２５号,,40,219,8160912,,,2021-10-29,清算の結了等,,,2015-10-05,1,,,,,アートスタンプ,0
1742,5080102018498,登記記録の閉鎖等,0,2021-11-04,2021-10-25,有限会社西川美装,,有限会社,静岡県,熱海市,相の原町２１番１５号,,22,205,4130039,,,2021-10-25,清算の結了等,,,2015-10-05,1,,,,,ニシカワビソウ,0
1746,5080401015980,登記記録の閉鎖等,0,2021-11-04,2021-11-01,富士三工業株式会社,,株式会社,静岡県,磐田市,中泉２４５２番地,,22,211,4380078,,,2021-11-01,清算の結了等,,,2015-10-05,1,,,,,フジミコウギョウ,0
1805,5130003006084,登記記録の閉鎖等,0,2021-11-04,2021-11-01,ＳＨＩＮＪＩ　ＷＯＲＬＤ合同会社,,合同会社,京都府,京都市上京区,新烏丸通下切通シ上る新烏丸頭町１９０番地イストワール御所東２０１号,,26,102,6020861,,,2021-11-01,清算の結了等,,,2019-07-03,1,,,,,シンジワールド,0
1825,5180001052919,登記記録の閉鎖等,0,2021-11-04,2021-10-18,株式会社康糧,,株式会社,愛知県,名古屋市中区,丸の内３丁目２１番２１号丸の内東桜ビル３０３号,,23,106,4600002,,,2021-10-18,清算の結了等,,,2015-10-05,1,,,,,コウリョウ,0
1828,5180001064022,登記記録の閉鎖等,0,2021-11-04,2021-10-29,株式会社モンキービジネス,,株式会社,愛知県,名古屋市名東区,貴船１丁目４０番地三幸ビル３０２号室,,23,115,4650058,,,2021-10-29,清算の結了等,,,2015-10-05,1,,,,,モンキービジネス,0
1841,5180002079936,登記記録の閉鎖等,0,2021-11-04,2021-11-01,有限会社エフピープランニング,,有限会社,岐阜県,岐阜市,茶屋新田１丁目７番地２,,21,201,5016135,,,2021-11-01,清算の結了等,,,2015-10-05,1,,,,,エフピープランニング,0
1850,5180302012076,登記記録の閉鎖等,0,2021-11-04,2021-10-29,有限会社藤設計舎,,有限会社,愛知県,豊橋市,東森岡１丁目１番地８,,23,201,4411113,,,2021-10-29,清算の結了等,,,2015-10-05,1,,,,,フジセッケイシャ,0
1853,5190002016244,登記記録の閉鎖等,0,2021-11-04,2021-11-01,有限会社あさかわ,,有限会社,三重県,員弁郡東員町,大字鳥取１５８番地,,24,324,5110241,,,2021-11-01,清算の結了等,,,2015-10-05,1,,,,,アサカワ,0
1860,5200002010765,登記記録の閉鎖等,0,2021-11-04,2021-11-01,有限会社シバタインヴェストメントビジネス,,有限会社,岐阜県,羽島市,福寿町浅平３丁目１２番地,,21,209,5016255,,,2021-11-01,合併による解散等,6200001011094,令和３年１１月１日岐阜県羽島市福寿町浅平三丁目１２番地株式会社シバタ（6200001011094）に合併し解散,2015-10-05,1,,,,,シバタインヴェストメントビジネス,0
1863,5240001028904,登記記録の閉鎖等,0,2021-11-04,2021-10-29,みやこや株式会社,,株式会社,広島県,廿日市市,本町１２番１２－１０１号,,34,213,7380015,,,2021-10-29,清算の結了等,,,2015-10-05,1,,,,,ミヤコヤ,0
1903,5320002013608,登記記録の閉鎖等,0,2021-11-04,2021-11-01,有限会社四郎丸興産,,有限会社,大分県,別府市,石垣東４丁目４番１４号,,44,202,8740919,,,2021-11-01,清算の結了等,,,2015-10-05,1,,,,,シロウマルコウサン,0
1913,5360001026037,登記記録の閉鎖等,0,2021-11-04,2021-10-29,株式会社築,,株式会社,沖縄県,那覇市,久茂地２丁目１６番７号ボヌール３０１,,47,201,9000015,,,2021-10-29,清算の結了等,,,2019-08-06,1,,,,,キヅク,0
1920,5370302002165,登記記録の閉鎖等,0,2021-11-04,2021-10-27,有限会社マルセ秋山商店,,有限会社,宮城県,石巻市,万石町８番２号,,04,202,9862115,,,2021-10-27,清算の結了等,,,2015-10-05,1,,,,,,0
1924,5390005006172,登記記録の閉鎖等,0,2021-11-04,2021-10-28,医療法人齋藤内科医院,,その他の設立登記法人,山形県,米沢市,桜木町１番７０号,,06,202,9920017,,,2021-10-28,清算の結了等,,,2015-10-05,1,,,,,サイトウナイカイイン,0
1928,5430001014323,登記記録の閉鎖等,0,2021-11-04,2021-11-01,福士不動産株式会社,,株式会社,北海道,札幌市白石区,栄通１９丁目６番８号,,01,104,0030021,,,2021-11-01,清算の結了等,,,2015-10-05,1,,,,,フクシフドウサン,0
1943,5480001005400,登記記録の閉鎖等,0,2021-11-04,2021-11-01,岡田企画株式会社,,株式会社,徳島県,板野郡藍住町,奥野字乾５番地７,,36,403,7711201,,,2021-11-01,合併による解散等,3480001000378,令和３年１１月１日徳島市一番町三丁目１６番地の３岡田企画株式会社（3480001000378）に合併し解散,2015-10-05,1,,,,,オカダキカク,0
1944,5480001006803,登記記録の閉鎖等,0,2021-11-04,2021-11-01,株式会社二十一わじき,,株式会社,徳島県,那賀郡那賀町,和食郷字田野６２番地,,36,368,7715203,,,2021-11-01,清算の結了等,,,2015-10-05,1,,,,,ニジュウイチワジキ,0
1956,5500002010025,登記記録の閉鎖等,0,2021-11-04,2021-11-02,有限会社竹岡工務,,有限会社,愛媛県,松山市,空港通３丁目８番２４号,,38,201,7910054,,,2021-11-02,清算の結了等,,,2015-10-05,1,,,,,タケオカコウム,0
2000,6010702002023,登記記録の閉鎖等,0,2021-11-04,2021-11-01,有限会社カットインプラザ,,有限会社,東京都,品川区,平塚２丁目１８番８号,,13,109,1420051,,,2021-11-01,清算の結了等,,,2015-10-05,1,,,,,カットインプラザ,0
2024,6011301005391,登記記録の閉鎖等,0,2021-11-04,2021-11-02,日本データーシステム株式会社,,株式会社,東京都,杉並区,西荻北３丁目１４番９号,,13,115,1670042,,,2021-11-02,清算の結了等,,,2015-10-05,1,,,,,ニホンデーターシステム,0
2050,6020001051877,登記記録の閉鎖等,0,2021-11-04,2021-10-29,エスアンドエスエデュケーション株式会社,,株式会社,神奈川県,横浜市保土ケ谷区,帷子町２丁目７９番地,,14,106,2400013,,,2021-10-29,清算の結了等,,,2015-10-05,1,,,,,エスアンドエスエデュケーション,0
2052,6020001091403,登記記録の閉鎖等,0,2021-11-04,2021-11-01,株式会社シージャス,,株式会社,神奈川県,横浜市戸塚区,小雀町１３３１番地２,,14,110,2440004,,,2021-11-01,清算の結了等,,,2015-10-05,1,,,,,シージャス,0
2106,6060001024986,登記記録の閉鎖等,0,2021-11-04,2021-10-27,株式会社飯山組,,株式会社,栃木県,真岡市,さくら１丁目７番地２,,09,209,3214523,,,2021-10-27,清算の結了等,,,2015-10-05,1,,,,,,0
2125,6080402015566,登記記録の閉鎖等,0,2021-11-04,2021-11-01,有限会社松下精機,,有限会社,静岡県,浜松市浜北区,西美薗１２５７番地の２,,22,136,4340033,,,2021-11-01,清算の結了等,,,2015-10-05,1,,,,,マツシタセイキ,0
2131,6100002028271,登記記録の閉鎖等,0,2021-11-04,2021-11-01,有限会社柴自動車,,有限会社,長野県,諏訪郡下諏訪町,３番地３,,20,361,3930000,,,2021-11-01,清算の結了等,,,2015-10-05,1,,,,,シバジドウシャ,0
2206,6150002007832,登記記録の閉鎖等,0,2021-11-04,2021-11-01,有限会社ラーセン,,有限会社,奈良県,橿原市,大久保町４５８番地,,29,205,6340061,,,2021-11-01,清算の結了等,,,2015-10-05,1,,,,,ラーセン,0
2212,6170005003562,登記記録の閉鎖等,0,2021-11-04,2021-11-02,田辺市卸商協業化協同組合,,その他の設立登記法人,和歌山県,田辺市,宝来町１８番７号,,30,206,6460026,,,2021-11-02,清算の結了等,,,2015-10-05,1,,,,,タナベシオロシショウキョウギョウカ,0
2213,6180001036961,登記記録の閉鎖等,0,2021-11-04,2021-11-01,株式会社尚栄社,,株式会社,愛知県,名古屋市中区,伊勢山２丁目７番１８号,,23,106,4600026,,,2021-11-01,清算の結了等,,,2015-10-05,1,,,,,ショウエイシャ,0
2236,6180302001441,登記記録の閉鎖等,0,2021-11-04,2021-11-02,ＣＡＴＶサービススズキ有限会社,,有限会社,愛知県,岡崎市,竜泉寺町字山綱谷戸６番地,,23,202,4443524,,,2021-11-02,清算の結了等,,,2015-10-05,1,,,,,シーエーティーヴイサービススズキ,0
2259,6230001017221,登記記録の閉鎖等,0,2021-11-04,2021-11-01,株式会社スギムラ,,株式会社,富山県,高岡市,赤祖父６００番地,,16,202,9330806,,,2021-11-01,清算の結了等,,,2017-12-06,1,,,,,スギムラ,0
2272,6260005009716,登記記録の閉鎖等,0,2021-11-04,2021-11-02,特定非営利活動法人国際看護支援協会,,その他の設立登記法人,岡山県,岡山市北区,北長瀬本町２０番１２号,,33,101,7000961,,,2021-11-02,清算の結了等,,,2015-10-05,1,,,,,コクサイカンゴシエンキョウカイ,0
2283,6290801027827,登記記録の閉鎖等,0,2021-11-04,2021-10-27,株式会社ドラッグコクラ,,株式会社,福岡県,北九州市小倉北区,魚町４丁目２番２２号,,40,106,8020006,,,2021-10-27,清算の結了等,,,2021-09-28,1,,,,,ドラッグコクラ,0
2296,6330005004222,登記記録の閉鎖等,0,2021-11-04,2021-10-28,荒尾酪農業協同組合,,その他の設立登記法人,熊本県,荒尾市,府本１１８４番地,,43,204,8640166,,,2021-10-28,清算の結了等,,,2015-10-05,1,,,,,アラオラク,0
2345,6450002002118,登記記録の閉鎖等,0,2021-11-04,2021-11-02,有限会社光和,,有限会社,北海道,旭川市,五条通３丁目１６１６番地の２,,01,204,0700035,,,2021-11-02,清算の結了等,,,2015-10-05,1,,,,,コウワ,0
2350,6470001004699,登記記録の閉鎖等,0,2021-11-04,2021-10-25,西友開発株式会社,,株式会社,香川県,高松市,屋島西町１９４９番地７,,37,201,7610113,,,2021-10-25,清算の結了等,,,2015-10-05,1,,,,,,0
2386,7010005017932,商号の登記の抹消,0,2021-11-04,2021-10-26,公益財団法人日本パラスポーツ協会,,その他の設立登記法人,東京都,中央区,日本橋蛎殻町２丁目１３番６号,,13,102,1030014,,,,,,,2015-10-05,0,,,,,ニホンパラスポーツキョウカイ,0
2389,7010005030910,登記記録の閉鎖等,0,2021-11-04,2021-10-29,一般社団法人東京レジデンシャル１,,その他の設立登記法人,東京都,中央区,日本橋１丁目４番１号,,13,102,1030027,,,2021-10-29,清算の結了等,,,2019-10-18,1,,,,,トウキョウレジデンシャルワン,0
2411,7010702000959,登記記録の閉鎖等,0,2021-11-04,2021-11-01,有限会社岩城陶器店,,有限会社,東京都,品川区,戸越５丁目６番８号,,13,109,1420041,,,2021-11-01,清算の結了等,,,2015-10-05,1,,,,,イワキトウキテン,0
2461,7013202001642,登記記録の閉鎖等,0,2021-11-04,2021-10-18,有限会社オフィスツチヤ,,有限会社,東京都,目黒区,上目黒３丁目３３番１８号,,13,110,1530051,,,2021-10-18,清算の結了等,,,2015-10-05,1,,,,,オフィスツチヤ,0
2466,7020001004256,登記記録の閉鎖等,0,2021-11-04,2021-11-01,東豊産業株式会社,,株式会社,神奈川県,横浜市港南区,上永谷１丁目１５番５０号,,14,111,2330012,,,2021-11-01,清算の結了等,,,2015-10-05,1,,,,,トウホウサンギョウ,0
2470,7020001091939,登記記録の閉鎖等,0,2021-11-04,2021-11-01,株式会社オートリンク横浜,,株式会社,神奈川県,横浜市都筑区,富士見が丘１７番５号,,14,118,2240051,,,2021-11-01,清算の結了等,,,2015-10-05,1,,,,,オートリンクヨコハマ,0
2481,7020002057220,登記記録の閉鎖等,0,2021-11-04,2021-11-01,有限会社ツヅキ保険,,有限会社,神奈川県,横浜市都筑区,仲町台３丁目１２番３号,,14,118,2240041,,,2021-11-01,清算の結了等,,,2015-10-05,1,,,,,ツヅキホケン,0
2513,7040002098304,登記記録の閉鎖等,0,2021-11-04,2021-10-27,有限会社スター警備保障,,有限会社,千葉県,野田市,親野井１４８番地１７,,12,208,2700227,,,2021-10-27,清算の結了等,,,2015-10-05,1,,,,,スターケイビホショウ,0
2527,7070001033382,登記記録の閉鎖等,0,2021-11-04,2021-10-29,株式会社鳶河内組,,株式会社,群馬県,太田市,新田村田町２０５１番地１,,10,205,3700312,,,2021-10-29,清算の結了等,,,2017-04-11,1,,,,,トビカワウチグミ,0
2536,7100001006896,登記記録の閉鎖等,0,2021-11-04,2021-11-01,深澤商事株式会社,,株式会社,長野県,長野市,篠ノ井塩崎５２８０番地,,20,201,3888014,,,2021-11-01,合併による解散等,6100001003028,令和３年１１月１日長野市篠ノ井塩崎５２８０番地深沢産業株式会社（6100001003028）に合併し解散,2015-10-05,1,,,,,フカサワショウジ,0
2539,7100005009945,登記記録の閉鎖等,0,2021-11-04,2021-10-27,特定非営利活動法人くらりｎｅｔ,,その他の設立登記法人,長野県,飯田市,松尾町４丁目８番地２,,20,205,3950042,,,2021-10-27,清算の結了等,,,2015-10-05,1,,,,,クラリネット,0
2546,7110002021142,登記記録の閉鎖等,0,2021-11-04,2021-10-29,有限会社ユウコンタクト,,有限会社,新潟県,柏崎市,扇町２番３号,,15,205,9450044,,,2021-10-29,清算の結了等,,,2015-10-05,1,,,,,ユウコンタクト,0
2550,7120001119548,登記記録の閉鎖等,0,2021-11-04,2021-11-01,田中工務店株式会社,,株式会社,大阪府,大阪市港区,市岡２丁目９番１０号,,27,107,5520012,,,2021-11-01,清算の結了等,,,2015-10-05,1,,,,,タナカコウムテン,0
2564,7120001236095,登記記録の閉鎖等,0,2021-11-04,2021-10-27,住友興産株式会社,,株式会社,大阪府,大阪市東淀川区,西淡路町一丁目２１３番地,,27,114,5330000,,,2021-10-27,清算の結了等,,,2021-03-24,1,,,,,,0
2579,7120901001912,登記記録の閉鎖等,0,2021-11-04,2021-11-01,ベストホーム株式会社,,株式会社,大阪府,茨木市,総持寺駅前町１２番１８号,,27,211,5670802,,,2021-11-01,清算の結了等,,,2015-10-05,1,,,,,ベストホーム,0
2603,7130001058596,登記記録の閉鎖等,0,2021-11-04,2021-11-01,ゴルトベルグ－クラウス商會株式会社,,株式会社,京都府,京都市左京区,丸太町通川端東入東丸太町１５番地１,,26,103,6068395,,,2021-11-01,清算の結了等,,,2016-11-04,1,,,,,ゴルトベルグークラウスショウカイ,0
2626,7140002069955,登記記録の閉鎖等,0,2021-11-04,2021-11-01,有限会社森田機械,,有限会社,兵庫県,南あわじ市,賀集八幡１４９番地の１,,28,224,6560511,,,2021-11-01,清算の結了等,,,2015-10-05,1,,,,,,0
2632,7160002009521,登記記録の閉鎖等,0,2021-11-04,2021-11-01,有限会社コマチ,,有限会社,滋賀県,東近江市,八日市町１０番１７号,,25,213,5270029,,,2021-11-01,清算の結了等,,,2015-10-05,1,,,,,コマチ,0
2635,7180001095932,登記記録の閉鎖等,0,2021-11-04,2021-11-01,株式会社アイチロジス,,株式会社,愛知県,常滑市,多屋町１丁目４５番地の２,,23,216,4790839,,,2021-11-01,清算の結了等,,,2015-10-05,1,,,,,アイチロジス,0
2642,7180002081106,登記記録の閉鎖等,0,2021-11-04,2021-10-29,有限会社阪中緑化資材愛知,,有限会社,愛知県,稲沢市,西溝口町北郷４１番地,,23,220,4928452,,,2021-10-29,清算の結了等,,,2015-10-05,1,,,,,サカナカリョッカシザイアイチ,0
2648,7180301027718,登記記録の閉鎖等,0,2021-11-04,2021-11-01,スピルリナブルー株式会社,,株式会社,愛知県,豊田市,梅坪町９丁目３０番地３,,23,211,4710064,,,2021-11-01,合併による解散等,1140001050005,令和３年１１月１日愛知県豊田市梅坪町九丁目３０番地３ビューテック株式会社（1140001050005）に合併し解散,2015-10-05,1,,,,,スピルリナブルー,0
2658,7200002018765,登記記録の閉鎖等,0,2021-11-04,2021-11-02,有限会社親和電機製作所,,有限会社,岐阜県,関市,上白金８９２番地の４,,21,205,5013947,,,2021-11-02,清算の結了等,,,2015-10-05,1,,,,,シンワデンキセイサクショ,0
2667,7230002010273,登記記録の閉鎖等,0,2021-11-04,2021-10-28,有限会社ライル,,有限会社,富山県,南砺市,野田１９５番地の３,,16,210,9391842,,,2021-10-28,清算の結了等,,,2015-10-05,1,,,,,ライル,0
2671,7240002008572,登記記録の閉鎖等,0,2021-11-04,2021-10-29,有限会社住屋,,有限会社,広島県,広島市東区,矢賀４丁目１２番２３号,,34,102,7320042,,,2021-10-29,清算の結了等,,,2015-10-05,1,,,,,スミヤ,0
2693,7320002019677,登記記録の閉鎖等,0,2021-11-04,2021-11-01,有限会社西部企画,,有限会社,大分県,日田市,大字北豆田１５８３番地１１,,44,204,8770000,,,2021-11-01,清算の結了等,,,2015-10-05,1,,,,,セイブキカク,0
2696,7330002012441,登記記録の閉鎖等,0,2021-11-04,2021-10-29,有限会社保険サービスニコー,,有限会社,熊本県,熊本市東区,長嶺南８丁目４番７号,,43,102,8618039,,,2021-10-29,清算の結了等,,,2015-10-05,1,,,,,ホケンサービスニコー,0
2722,7390005000074,登記記録の閉鎖等,0,2021-11-04,2021-10-29,最上寺,,その他の設立登記法人,山形県,山形市,若葉町２５番地１最上寺,,06,201,9902495,,,2021-10-29,清算の結了等,,,2015-10-05,1,,,,,サイジョウジ,0
2786,8010602013044,登記記録の閉鎖等,0,2021-11-04,2021-10-25,有限会社大和商店,,有限会社,東京都,墨田区,江東橋２丁目６番１０号,,13,107,1300022,,,2021-10-25,清算の結了等,,,2015-10-05,1,,,,,ダイワショウテン,0
2789,8010702001568,登記記録の閉鎖等,0,2021-11-04,2021-11-01,有限会社大石動力工業所,,有限会社,東京都,品川区,中延２丁目３番４－１３０１号,,13,109,1420053,,,2021-11-01,清算の結了等,,,2015-10-05,1,,,,,オオイシドウリョクコウギョウショ,0
2791,8010801029329,登記記録の閉鎖等,0,2021-11-04,2021-10-18,株式会社千座管財,,株式会社,東京都,渋谷区,鶯谷町１５番１０号,,13,113,1500032,,,2021-10-18,清算の結了等,,,2018-11-05,1,,,,,チクラカンザイ,0
2798,8011001132864,登記記録の閉鎖等,0,2021-11-04,2021-10-19,ＬＵＳＨＥＬＡ株式会社,,株式会社,東京都,渋谷区,代々木５丁目３８番７号オリーブビル代々木３階,,13,113,1510053,,,2021-10-19,清算の結了等,,,2020-03-12,1,,,,,ルシェラ,0
2807,8011301014374,登記記録の閉鎖等,0,2021-11-04,2021-11-02,株式会社中小企業財務研究所,,株式会社,東京都,杉並区,西荻北３丁目１４番９号,,13,115,1670042,,,2021-11-02,清算の結了等,,,2015-10-05,1,,,,,チュウショウキギョウザイムケンキュウジョ,0
2818,8011803002331,登記記録の閉鎖等,0,2021-11-04,2021-11-02,合同会社はやぶさ合力,,合同会社,東京都,葛飾区,柴又６丁目３５番１８号,,13,122,1250052,,,2021-11-02,清算の結了等,,,2016-01-13,1,,,,,ハヤブサゴウリョク,0
2850,8021002062614,登記記録の閉鎖等,0,2021-11-04,2021-11-01,有限会社荒谷工業所,,有限会社,神奈川県,横須賀市,上町１丁目３７番地,,14,201,2380017,,,2021-11-01,清算の結了等,,,2015-10-05,1,,,,,アラタニコウギョウショ,0
2854,8030001001169,登記記録の閉鎖等,0,2021-11-04,2021-10-28,株式会社エム・テック,,株式会社,埼玉県,さいたま市浦和区,高砂３丁目７番２号,,11,107,3300063,,,2021-10-28,清算の結了等,,,2015-10-05,1,,,,,エムテック,0
2858,8030001058267,登記記録の閉鎖等,0,2021-11-04,2021-10-28,株式会社ノート,,株式会社,埼玉県,川越市,大字大袋新田７９２番地５,,11,201,3501167,,,2021-10-28,清算の結了等,,,2015-10-05,1,,,,,ノート,0
2868,8040001086928,登記記録の閉鎖等,0,2021-11-04,2021-10-27,天成株式会社,,株式会社,千葉県,浦安市,当代島１丁目２番２４－５０２号,,12,227,2790001,,,2021-10-27,清算の結了等,,,2015-10-05,1,,,,,テンセイ,0
2869,8040001096654,登記記録の閉鎖等,0,2021-11-04,2021-10-28,株式会社シモテック,,株式会社,千葉県,千葉市花見川区,柏井１丁目２２番７号,,12,102,2620048,,,2021-10-28,清算の結了等,,,2016-08-24,1,,,,,シモテック,0
2880,8050002006347,登記記録の閉鎖等,0,2021-11-04,2021-11-01,有限会社光輝,,有限会社,茨城県,東茨城郡茨城町,大字長岡７５８番地,,08,302,3113116,,,2021-11-01,清算の結了等,,,2015-10-05,1,,,,,,0
2941,8140002052679,登記記録の閉鎖等,0,2021-11-04,2021-11-01,有限会社エムユー,,有限会社,兵庫県,姫路市,西駅前町４３番地,,28,201,6700913,,,2021-11-01,合併による解散等,3140001057725,令和３年１１月１日兵庫県姫路市西駅前町４３番地株式会社池田屋（3140001057725）に合併し解散,2015-10-05,1,,,,,エムユー,0
2951,8180001069357,登記記録の閉鎖等,0,2021-11-04,2021-10-29,株式会社セントラルツール,,株式会社,愛知県,豊田市,東新町３丁目３５番地１５,,23,211,4710045,,,2021-10-29,清算の結了等,,,2015-10-05,1,,,,,セントラルツール,0
2953,8180001096327,登記記録の閉鎖等,0,2021-11-04,2021-11-01,株式会社旭商店,,株式会社,愛知県,津島市,神尾町字江西７６番地,,23,208,4960013,,,2021-11-01,清算の結了等,,,2015-10-05,1,,,,,アサヒショウテン,0
2975,8180302008047,登記記録の閉鎖等,0,2021-11-04,2021-10-29,有限会社スズキリビング,,有限会社,愛知県,豊橋市,中岩田５丁目９番地の６,,23,201,4400832,,,2021-10-29,清算の結了等,,,2015-10-05,1,,,,,スズキリビング,0
3039,8320002019008,登記記録の閉鎖等,0,2021-11-04,2021-11-01,有限会社美建クリーン,,有限会社,大分県,日田市,大字北豆田１５８３番地１１,,44,204,8770000,,,2021-11-01,清算の結了等,,,2015-10-05,1,,,,,ビケンクリーン,0
3048,8330002007614,登記記録の閉鎖等,0,2021-11-04,2021-10-29,有限会社永松,,有限会社,熊本県,熊本市東区,尾ノ上４丁目２番５号,,43,102,8620913,,,2021-10-29,清算の結了等,,,2015-10-05,1,,,,,ナガマツ,0
3077,8420002010402,登記記録の閉鎖等,0,2021-11-04,2021-11-01,有限会社ライジングＫ,,有限会社,青森県,八戸市,城下４丁目１３番１９号,,02,203,0310072,,,2021-11-01,清算の結了等,,,2015-10-05,1,,,,,ライジングケー,0
3078,8420002020079,登記記録の閉鎖等,0,2021-11-04,2021-11-01,有限会社ヤマチョウ佐藤,,有限会社,青森県,むつ市,大畑町釣屋浜５番地,,02,208,0394401,,,2021-11-01,清算の結了等,,,2015-10-05,1,,,,,ヤマチョウサトウ,0
3080,8430001006747,登記記録の閉鎖等,0,2021-11-04,2021-10-28,札銀ファイナンス株式会社,,株式会社,北海道,札幌市中央区,南四条西３丁目９番地,,01,101,0640804,,,2021-10-28,清算の結了等,,,2021-07-27,1,,,,,サツギンファイナンス,0
3095,8470002009828,登記記録の閉鎖等,0,2021-11-04,2021-11-01,有限会社アイディーエス,,有限会社,香川県,高松市,香川町川東下１１４４番地３,,37,201,7611705,,,2021-11-01,清算の結了等,,,2015-10-05,1,,,,,アイディーエス,0
3133,9010602027134,登記記録の閉鎖等,0,2021-11-04,2021-10-21,有限会社ショクジン,,有限会社,東京都,江東区,富岡１丁目２４番６号,,13,108,1350047,,,2021-10-21,清算の結了等,,,2015-10-05,1,,,,,ショクジン,0
3148,9011001091861,登記記録の閉鎖等,0,2021-11-04,2021-11-01,株式会社アサノオフィス,,株式会社,東京都,世田谷区,上馬４丁目３６番１３号,,13,112,1540011,,,2021-11-01,清算の結了等,,,2015-10-05,1,,,,,アサノオフィス,0
3158,9011101075161,登記記録の閉鎖等,0,2021-11-04,2021-11-01,株式会社ヒロ・コーポレーション,,株式会社,東京都,新宿区,西新宿１丁目３番１３号,,13,104,1600023,,,2021-11-01,清算の結了等,,,2015-11-17,1,,,,,ヒロコーポレーション,0
3176,9011601015451,登記記録の閉鎖等,0,2021-11-04,2021-11-02,株式会社太田機械設計事務所,00056150,株式会社,東京都,練馬区,東大泉５丁目４３番１－１２０３号,,13,120,1780063,,,2021-11-02,清算の結了等,,,2015-10-05,1,,,,,オオタキカイセッケイジムショ,0
3198,9013301034806,登記記録の閉鎖等,0,2021-11-04,2021-10-28,株式会社プライマリーフュージョン,,株式会社,東京都,豊島区,東池袋１丁目７番１０号,,13,116,1700013,,,2021-10-28,清算の結了等,,,2015-10-05,1,,,,,プライマリーフュージョン,0
3210,9020001107387,登記記録の閉鎖等,0,2021-11-04,2021-10-28,株式会社ビバリーヒルズモーター,,株式会社,神奈川県,川崎市川崎区,田町２丁目２番１２号１階,,14,131,2100822,,,2021-10-28,清算の結了等,,,2015-10-05,1,,,,,ビバリーヒルズモーター,0
3240,9030002096430,登記記録の閉鎖等,0,2021-11-04,2021-10-28,大和機械設備有限会社,,有限会社,埼玉県,東松山市,松山町１丁目１３番５号,,11,212,3550018,,,2021-10-28,清算の結了等,,,2015-10-05,1,,,,,,0
3281,9080102012951,登記記録の閉鎖等,0,2021-11-04,2021-10-22,有限会社ＦＵＮ,,有限会社,静岡県,駿東郡清水町,湯川１０番地の４０,,22,341,4110918,,,2021-10-22,清算の結了等,,,2015-10-05,1,,,,,ファン,0
3285,9100001020656,登記記録の閉鎖等,0,2021-11-04,2021-11-01,株式会社ＯＧ,,株式会社,長野県,伊那市,西春近２４７１番地,,20,209,3994431,,,2021-11-01,清算の結了等,,,2015-10-05,1,,,,,オージー,0
3287,9100002032535,登記記録の閉鎖等,0,2021-11-04,2021-11-01,伊那丸中青果有限会社,,有限会社,長野県,伊那市,中央４９３９番地１,,20,209,3960015,,,2021-11-01,清算の結了等,,,2015-10-05,1,,,,,イナマルナカセイカ,0
3306,9120001223513,登記記録の閉鎖等,0,2021-11-04,2021-11-01,株式会社北郷,,株式会社,大阪府,大阪市中央区,谷町１丁目３番１号,,27,128,5400012,,,2021-11-01,清算の結了等,,,2019-09-05,1,,,,,キタザト,0
3331,9130001022022,登記記録の閉鎖等,0,2021-11-04,2021-10-18,日栄技研株式会社,,株式会社,愛知県,一宮市,大毛字光田１５番地,,23,203,4910132,,,2021-10-18,清算の結了等,,,2015-10-05,1,,,,,ニチエイギケン,0
3337,9130002006148,登記記録の閉鎖等,0,2021-11-04,2021-11-01,有限会社牧製作所,,有限会社,京都府,京都市左京区,聖護院東町１５番地,,26,103,6068325,,,2021-11-01,清算の結了等,,,2015-10-05,1,,,,,マキセイサクショ,0
3354,9170002010930,登記記録の閉鎖等,0,2021-11-04,2021-11-01,有限会社ＳＨＩＯＫＡＷＡ,,有限会社,和歌山県,橋本市,高野口町伏原１２４１番地の７,,30,203,6497202,,,2021-11-01,清算の結了等,,,2015-10-05,1,,,,,シオカワ,0
3362,9180001086145,登記記録の閉鎖等,0,2021-11-04,2021-10-29,株式会社尾張商会,,株式会社,愛知県,稲沢市,日下部中町４丁目８３番地,,23,220,4928182,,,2021-10-29,清算の結了等,,,2015-10-05,1,,,,,オワリショウカイ,0
3375,9180002085550,登記記録の閉鎖等,0,2021-11-04,2021-10-25,有限会社森商店,,有限会社,愛知県,知多郡東浦町,大字緒川字大草１番地の２３,,23,442,4702102,,,2021-10-25,清算の結了等,,,2015-10-05,1,,,,,モリショウテン,0
3448,9360001008147,登記記録の閉鎖等,0,2021-11-04,2021-10-29,株式会社球陽興産,,株式会社,沖縄県,浦添市,字小湾４４７番地,,47,208,9012124,,,2021-10-29,清算の結了等,,,2015-10-05,1,,,,,キュウヨウコウサン,0
3454,9360005004209,登記記録の閉鎖等,0,2021-11-04,2021-10-28,一般社団法人沖縄県墓地管理協会,,その他の設立登記法人,沖縄県,那覇市,字宇栄原９８４番地４,,47,201,9010153,,,2021-10-28,清算の結了等,,,2015-10-05,1,,,,,オキナワケンボチカンリキョウカイ,0
3458,9370001007726,登記記録の閉鎖等,0,2021-11-04,2021-10-28,喜多禄産業株式会社,,株式会社,宮城県,仙台市青葉区,上杉５丁目８番８０号,,04,101,9800011,,,2021-10-28,清算の結了等,,,2015-10-05,1,,,,,キタロクサンギョウ,0
3474,9430001048219,登記記録の閉鎖等,0,2021-11-04,2021-10-29,株式会社鴨野商店,,株式会社,北海道,樺戸郡新十津川町,字吉野７２番地,,01,432,0731322,,,2021-10-29,清算の結了等,,,2015-10-05,1,,,,,カモノショウテン,0
