sequenceNumber,corporateNumber,process,correct,updateDate,changeDate,name,nameImageId,kind,prefectureName,cityName,streetNumber,addressImageId,prefectureCode,cityCode,postCode,addressOutside,addressOutsideImageId,closeDate,closeCause,successorCorporateNumber,changeCause,assignmentDate,latest,enName,enPrefectureName,enCityName,enAddressOutside,furigana,hihyoji
4,1010001075881,登記記録の閉鎖等,0,2023-04-17,2023-04-06,アドー・ジャパン株式会社,,株式会社,東京都,中央区,日本橋小舟町８番６号,,13,102,1030024,,,2023-04-06,清算の結了等,,,2015-10-05,1,,,,,アドージャパン,0
34,1010402008762,登記記録の閉鎖等,0,2023-04-17,2023-04-03,有限会社テンカウント,,有限会社,東京都,港区,赤坂９丁目１番７号,,13,103,1070052,,,2023-04-03,清算の結了等,,,2015-10-05,1,,,,,,0
35,1010402036466,登記記録の閉鎖等,0,2023-04-17,2023-04-03,有限会社エイル免疫研究所,,有限会社,東京都,港区,新橋３丁目１１－１マルイト新橋ビル７階,,13,103,1050004,,,2023-04-03,清算の結了等,,,2015-10-05,1,,,,,エイルメンエキケンキュウジョ,0
42,1010601048469,登記記録の閉鎖等,0,2023-04-17,2023-04-13,株式会社ＡＯＺＯＲＡ,,株式会社,東京都,墨田区,太平４丁目１番１号,,13,107,1300012,,,2023-04-13,合併による解散等,9040001074469,令和５年３月３１日千葉県南房総市千倉町久保３２９番地の１株式会社フィーダ（9040001074469）に合併し解散,2015-10-05,1,,,,,,0
60,1011001017691,登記記録の閉鎖等,0,2023-04-17,2023-04-11,ニップン商事九州株式会社,,株式会社,福岡県,福岡市博多区,那珂３丁目２３番１号,,40,132,8120893,,,2023-04-11,合併による解散等,7140001019597,令和５年４月１日大阪市中央区淡路町四丁目３番１０号ニップン商事株式会社（7140001019597）に合併し解散,2015-10-05,1,,,,,ニップンショウジキュウシュウ,0
75,1011101080730,登記記録の閉鎖等,0,2023-04-17,2023-04-10,株式会社ＬＶＲ,,株式会社,東京都,新宿区,大久保２丁目７番１号,,13,104,1690072,,,2023-04-10,清算の結了等,,,2017-06-09,1,,,,,エルブイアール,0
89,1011401012061,登記記録の閉鎖等,0,2023-04-17,2023-04-11,株式会社モータースポーツインポート,,株式会社,神奈川県,足柄上郡松田町,神山１５４番地１１,,14,363,2580002,,,2023-04-11,清算の結了等,,,2015-10-05,1,,,,,モータースポーツインポート,0
112,1012402019509,登記記録の閉鎖等,0,2023-04-17,2023-04-12,有限会社原田工務店,,有限会社,東京都,三鷹市,深大寺３丁目８番３号,,13,204,1810016,,,2023-04-12,清算の結了等,,,2015-10-05,1,,,,,ハラダコウムテン,0
115,1012702012568,登記記録の閉鎖等,0,2023-04-17,2023-04-13,有限会社浅井オフイスワン,,有限会社,東京都,東村山市,久米川町４丁目３１番地４４,,13,213,1890003,,,2023-04-13,清算の結了等,,,2015-10-05,1,,,,,アサイオフイスワン,0
137,1021002064740,登記記録の閉鎖等,0,2023-04-17,2023-04-11,有限会社篠原美容院,,有限会社,神奈川県,横須賀市,坂本町４丁目１番地,,14,201,2380043,,,2023-04-11,清算の結了等,,,2015-10-05,1,,,,,シノハラビヨウイン,0
141,1030001065014,登記記録の閉鎖等,0,2023-04-17,2023-04-04,株式会社わかば,,株式会社,埼玉県,越谷市,瓦曽根３丁目６番４６号,,11,222,3430821,,,2023-04-04,清算の結了等,,,2015-10-05,1,,,,,ワカバ,0
162,1040005021160,登記記録の閉鎖等,0,2023-04-17,2023-04-05,税理士法人中央税務センター,,その他の設立登記法人,千葉県,木更津市,東中央３丁目６番６号,,12,206,2920057,,,2023-04-05,清算の結了等,,,2021-04-07,1,,,,,チュウオウゼイムセンター,0
171,1080001016912,登記記録の閉鎖等,0,2023-04-17,2023-04-17,株式会社小長谷工業,,株式会社,静岡県,藤枝市,岡部町三輪９８５番地の５,,22,214,4211132,,,2023-04-17,清算の結了等,,,2015-10-05,1,,,,,コナガヤコウギョウ,0
174,1080102017891,登記記録の閉鎖等,0,2023-04-17,2023-04-11,有限会社晶栄機工,,有限会社,静岡県,富士宮市,羽鮒４０６番地,,22,207,4190316,,,2023-04-11,清算の結了等,,,2015-10-05,1,,,,,ショウエイキコウ,0
179,1100003000515,登記記録の閉鎖等,0,2023-04-17,2023-04-10,合名会社上野屋薬局,,合名会社,長野県,千曲市,大字稲荷山８５９番地,,20,218,3870021,,,2023-04-10,清算の結了等,,,2015-10-05,1,,,,,コウズケヤヤッキョク,0
223,1130001010125,登記記録の閉鎖等,0,2023-04-17,2023-04-10,株式会社エフ・ピー・シー・ニシノ,,株式会社,京都府,京都市南区,上鳥羽塔ノ森東向町４番地の８,,26,107,6018151,,,2023-04-10,清算の結了等,,,2015-10-05,1,,,,,エフピーシーニシノ,0
225,1130001025263,登記記録の閉鎖等,0,2023-04-17,2023-04-11,株式会社ｍａｔｅｒｉａｌｉｓｍ,,株式会社,京都府,京都市上京区,新町通上立売上る安楽小路町４１８番地の１,,26,102,6020064,,,2023-04-11,清算の結了等,,,2015-10-05,1,,,,,マテリアリズム,0
227,1130001036517,登記記録の閉鎖等,0,2023-04-17,2023-04-11,株式会社コスモス東京サン・ムーン,,株式会社,京都府,京都市上京区,新町通上立売上る安楽小路町４１８番地の１,,26,102,6020064,,,2023-04-11,清算の結了等,,,2015-10-05,1,,,,,コスモストウキョウサンムーン,0
246,1140001107317,登記記録の閉鎖等,0,2023-04-17,2023-04-13,Ｔｕｒｂｏ　Ｓｕｐｐｌｙ　Ｃｈａｉｎ　Ｊａｐａｎ株式会社,,株式会社,兵庫県,神戸市灘区,摩耶埠頭１番地１,,28,102,6570854,,,2023-04-13,清算の結了等,,,2017-08-23,1,,,,,ターボサプライチェーンジャパン,0
258,1180001059232,登記記録の閉鎖等,0,2023-04-17,2023-04-07,株式会社東海精工,,株式会社,愛知県,名古屋市港区,津金２丁目１１番３５号,,23,111,4550004,,,2023-04-07,清算の結了等,,,2015-10-05,1,,,,,トウカイセイコウ,0
260,1180001128870,登記記録の閉鎖等,0,2023-04-17,2023-04-07,株式会社リビングカルチャー,,株式会社,愛知県,名古屋市中区,新栄１丁目６番１５号,,23,106,4600007,,,2023-04-07,清算の結了等,,,2017-08-03,1,,,,,リビングカルチャー,0
264,1180002069726,登記記録の閉鎖等,0,2023-04-17,2023-04-05,有限会社ハートホーム,,有限会社,愛知県,小牧市,高根３丁目４２４番地,,23,219,4850803,,,2023-04-05,清算の結了等,,,2015-10-05,1,,,,,ハートホーム,0
277,1200005004025,登記記録の閉鎖等,0,2023-04-17,2023-04-11,特定非営利活動法人清流の里,,その他の設立登記法人,岐阜県,羽島郡岐南町,八剣２丁目４５番地,,21,302,5016012,,,2023-04-11,清算の結了等,,,2015-10-05,1,,,,,セイリュウノサト,0
281,1220001006139,登記記録の閉鎖等,0,2023-04-17,2023-04-10,株式会社ホンダ四輪販売北陸,,株式会社,石川県,金沢市,法光寺町２１０番地,,17,201,9203132,,,2023-04-10,合併による解散等,3180001068099,令和５年４月１日名古屋市中区千代田一丁目７番２号株式会社ホンダモビリティ中部（3180001068099）に合併し解散,2015-10-05,1,,,,,ホンダヨンリンハンバイホクリク,0
292,1240001039450,登記記録の閉鎖等,0,2023-04-17,2023-04-03,株式会社瀬戸内通信鋼業ホールディング,,株式会社,広島県,尾道市,高須町５７２８番地,,34,205,7290141,,,2023-04-03,合併による解散等,2240001060331,令和５年４月１日広島県尾道市高須町５７２８番地株式会社ＨＩＦ‐Ｆ（2240001060331）に合併し解散,2015-10-05,1,,,,,セトウチツウシンコウギョウホールディング,0
334,1370102001577,登記記録の閉鎖等,0,2023-04-17,2023-04-07,有限会社大成,,有限会社,宮城県,柴田郡川崎町,大字今宿字古関２５番地,,04,324,9891502,,,2023-04-07,清算の結了等,,,2015-10-05,1,,,,,タイセイ,0
352,1430001076656,登記記録の閉鎖等,0,2023-04-17,2023-04-04,株式会社アグロ萱野,,株式会社,北海道,三笠市,萱野１５８番地１,,01,222,0682166,,,2023-04-04,清算の結了等,,,2018-05-30,1,,,,,アグロカヤノ,0
353,1430002010531,登記記録の閉鎖等,0,2023-04-17,2023-04-03,有限会社スズキ工業所,,有限会社,北海道,札幌市手稲区,西宮の沢二条１丁目４番１８号,,01,109,0060002,,,2023-04-03,合併による解散等,8430001033147,令和５年４月１日北海道石狩市新港南三丁目７０３番地２７株式会社ＹＭスチールスズキ（8430001033147）に合併し解散,2015-10-05,1,,,,,スズキコウギョウショ,0
357,1440003000241,登記記録の閉鎖等,0,2023-04-17,2023-04-10,合名会社丸田佐藤商店,,合名会社,北海道,函館市,東川町２２番１４号,,01,202,0400042,,,2023-04-10,清算の結了等,,,2015-10-05,1,,,,,マルタサトウショウテン,0
362,1500001010186,登記記録の閉鎖等,0,2023-04-17,2023-04-13,株式会社西日本イーピー,,株式会社,愛媛県,新居浜市,黒島１丁目５番１３号,,38,205,7920892,,,2023-04-13,清算の結了等,,,2015-10-05,1,,,,,,0
377,2010001216815,登記記録の閉鎖等,0,2023-04-17,2023-04-05,ウェーブロック・アセットマネジメント株式会社,,株式会社,東京都,中央区,明石町８番１号,,13,102,1040044,,,2023-04-05,合併による解散等,3010001131831,令和５年４月１日東京都中央区明石町８番１号株式会社ウェーブロック・アドバンスト・テクノロジー（3010001131831）に合併し解散,2021-03-26,1,,,,,ウェーブロックアセットマネジメント,0
382,2010002053415,登記記録の閉鎖等,0,2023-04-17,2023-04-07,有限会社スタンディングオベーション,,有限会社,東京都,千代田区,九段南１丁目５番６号りそな九段ビル,,13,101,1020074,,,2023-04-07,清算の結了等,,,2015-10-05,1,,,,,スタンディングオベレーション,0
405,2010501043420,登記記録の閉鎖等,0,2023-04-17,2023-04-12,株式会社Ａ－ＰＬＵＳ,,株式会社,東京都,台東区,東上野１丁目２４番４号,,13,106,1100015,,,2023-04-12,合併による解散等,1012401000709,令和５年３月３１日東京都府中市分梅町三丁目４５番８号株式会社システム・コミュニケート（1012401000709）に合併し解散,2018-12-12,1,,,,,エイプラス,0
437,2011102007995,登記記録の閉鎖等,0,2023-04-17,2023-04-12,有限会社タサカ企画,,有限会社,東京都,新宿区,大久保２丁目２８番１１号,,13,104,1690072,,,2023-04-12,清算の結了等,,,2015-10-05,1,,,,,タサカキカク,0
441,2011301021806,登記記録の閉鎖等,0,2023-04-17,2023-04-12,株式会社アンテク,,株式会社,埼玉県,朝霞市,浜崎１丁目４番１２号保第二ビル２０５,,11,227,3510033,,,2023-04-12,合併による解散等,9011301012468,令和５年４月１日東京都新宿区西新宿一丁目１８番２号晴花ビル４Ｆ株式会社スタジオ・アルカナ（9011301012468）に合併し解散,2015-11-18,1,,,,,アンテク,0
448,2011802003419,登記記録の閉鎖等,0,2023-04-17,2023-04-11,有限会社サンペイ,,有限会社,東京都,葛飾区,亀有５丁目４番１０号,,13,122,1250061,,,2023-04-11,清算の結了等,,,2015-10-05,1,,,,,,0
461,2013103001085,登記記録の閉鎖等,0,2023-04-17,2023-04-10,合同会社ＦＦＦ,,合同会社,東京都,西多摩郡奥多摩町,棚沢８２８－２,,13,308,1980000,,,2023-04-10,清算の結了等,,,2021-11-02,1,,,,,エフエフエフ,0
479,2021003005461,登記記録の閉鎖等,0,2023-04-17,2023-04-10,合同会社ＴＳＳＫ,,合同会社,神奈川県,平塚市,黒部丘２番５２号,,14,203,2540821,,,2023-04-10,清算の結了等,,,2015-10-05,1,,,,,ティーエスエスケー,0
519,2100003002007,登記記録の閉鎖等,0,2023-04-17,2023-04-07,合名会社高木商店,,合名会社,長野県,安曇野市,豊科２５１９番地８,,20,220,3998205,,,2023-04-07,清算の結了等,,,2015-10-05,1,,,,,タカギショウテン,0
530,2110003003094,登記記録の閉鎖等,0,2023-04-17,2023-04-10,合同会社ミナミ,,合同会社,新潟県,長岡市,新保３丁目１３番７号,,15,202,9400875,,,2023-04-10,清算の結了等,,,2015-10-05,1,,,,,ミナミ,0
544,2120001236174,登記記録の閉鎖等,0,2023-04-17,2023-04-07,株式会社Ｒｉｃｈｅｓｓｅ,,株式会社,大阪府,大阪市北区,東天満２丁目９番２号ＡＸＩＳ南森町ビル別館９階,,27,127,5300044,,,2023-04-07,清算の結了等,,,2021-03-26,1,,,,,リシェス,0
554,2120005019476,登記記録の閉鎖等,0,2023-04-17,2023-04-14,一般社団法人日本美骨改革アカデミー協会,,その他の設立登記法人,大阪府,大阪市福島区,玉川１丁目５番４－１２０６号,,27,103,5530004,,,2023-04-14,清算の結了等,,,2017-05-17,1,,,,,ニホンビコツカイカクアカデミーキョウカイ,0
566,2120905002985,登記記録の閉鎖等,0,2023-04-17,2023-04-12,一般社団法人北大阪測量業協会,,その他の設立登記法人,大阪府,高槻市,南平台５丁目３３番２６号,,27,207,5691042,,,2023-04-12,清算の結了等,,,2015-10-05,1,,,,,キタオオサカソクリョウギョウキョウカイ,0
572,2130002002830,登記記録の閉鎖等,0,2023-04-17,2023-04-11,有限会社雛屋,,有限会社,京都府,京都市上京区,新町通上立売上る安楽小路町４１８番地の１,,26,102,6020064,,,2023-04-11,清算の結了等,,,2015-10-05,1,,,,,ヒナヤ,0
573,2140001027373,登記記録の閉鎖等,0,2023-04-17,2023-04-12,ハーブ株式会社,,株式会社,兵庫県,神戸市中央区,磯上通３丁目１番２９号,,28,110,6510086,,,2023-04-12,清算の結了等,,,2015-10-05,1,,,,,ハーブ,0
594,2180001105407,登記記録の閉鎖等,0,2023-04-17,2023-04-10,株式会社アジワッチ,,株式会社,愛知県,尾張旭市,南栄町１丁目１番地,,23,226,4880045,,,2023-04-10,清算の結了等,,,2015-10-05,1,,,,,アジワッチ,0
598,2180001129232,登記記録の閉鎖等,0,2023-04-17,2023-04-07,株式会社三土,,株式会社,愛知県,名古屋市中区,新栄１丁目２５番３０号ＭＹビル３階,,23,106,4600007,,,2023-04-07,清算の結了等,,,2017-09-26,1,,,,,ミツチ,0
599,2180001139719,登記記録の閉鎖等,0,2023-04-17,2023-04-07,株式会社ＴＲＩＧコーポレーション,,株式会社,愛知県,北名古屋市,九之坪長堀１７番地,,23,234,4810041,,,2023-04-07,清算の結了等,,,2020-01-23,1,,,,,トゥリグコーポレーション,0
646,2250005003054,登記記録の閉鎖等,0,2023-04-17,2023-04-03,特定非営利活動法人うべ未来１００プロジェクト,,その他の設立登記法人,山口県,宇部市,新天町１丁目３－５,,35,202,7550029,,,2023-04-03,清算の結了等,,,2015-10-05,1,,,,,ウベミライヒャクプロジェクト,0
647,2250005008631,登記記録の閉鎖等,0,2023-04-17,2023-04-03,ＳＲリラクゼーションセラピスト協同組合,,その他の設立登記法人,山口県,山口市,阿知須３２５７番地１２,,35,203,7541277,,,2023-04-03,清算の結了等,,,2020-12-17,1,,,,,エスアールリラクゼーションセラピスト,0
651,2260003001802,登記記録の閉鎖等,0,2023-04-17,2023-04-11,合同会社三都商会,,合同会社,岡山県,倉敷市,老松町３丁目１４番３３－８０６号,,33,202,7100826,,,2023-04-11,清算の結了等,,,2015-10-05,1,,,,,サントショウカイ,0
656,2290002010058,登記記録の閉鎖等,0,2023-04-17,2023-04-06,有限会社大山工場,,有限会社,福岡県,福岡市中央区,薬院３丁目１６番１号,,40,133,8100022,,,2023-04-06,清算の結了等,,,2015-10-05,1,,,,,オオヤマコウジョウ,0
672,2330002028707,登記記録の閉鎖等,0,2023-04-17,2023-04-11,大洋高圧コンクリート工業有限会社,00097997,有限会社,熊本県,天草市,栄町６番１７号,,43,215,8630022,,,2023-04-11,清算の結了等,,,2015-10-05,1,,,,,タイヨウコウアツコンクリートコウギョウ,0
689,2390003000031,登記記録の閉鎖等,0,2023-04-17,2023-04-06,合資会社大仁堂印刷所,,合資会社,山形県,山形市,旅篭町２丁目１番３３号,,06,201,9900047,,,2023-04-06,清算の結了等,,,2015-10-05,1,,,,,ダイニンドウインサツジョ,0
690,2400001005393,登記記録の閉鎖等,0,2023-04-17,2023-04-10,東北シャノン株式会社,,株式会社,岩手県,花巻市,北湯口第１地割４６番地１,,03,205,0250301,,,2023-04-10,合併による解散等,9010401014135,令和５年４月１日東京都中央区日本橋馬喰町二丁目７番８号株式会社エクセルシャノン（9010401014135）に合併し解散,2015-10-05,1,,,,,トウホクシャノン,0
692,2400003002158,登記記録の閉鎖等,0,2023-04-17,2023-04-06,ハッピーライフ合同会社,,合同会社,岩手県,盛岡市,津志田中央３丁目２１番１号,,03,201,0200838,,,2023-04-06,清算の結了等,,,2017-02-20,1,,,,,,0
696,2430001011422,登記記録の閉鎖等,0,2023-04-17,2023-04-07,株式会社道新プロセス,,株式会社,北海道,札幌市中央区,大通西３丁目６番地,,01,101,0600042,,,2023-04-07,合併による解散等,4430001011420,令和５年４月１日札幌市中央区大通西三丁目６番地株式会社道新アクセス（4430001011420）に合併し解散,2015-10-05,1,,,,,ドウシンプロセス,0
703,2440002006222,登記記録の閉鎖等,0,2023-04-17,2023-04-12,有限会社マリンフィールド,,有限会社,北海道,函館市,谷地頭町３４番２号,,01,202,0400046,,,2023-04-12,清算の結了等,,,2015-10-05,1,,,,,マリンフィールド,0
724,3010001231854,登記記録の閉鎖等,0,2023-04-17,2023-04-10,ブルーム株式会社,,株式会社,東京都,千代田区,丸の内１丁目６番５号丸の内北口ビルディング,,13,101,1000005,,,2023-04-10,清算の結了等,,,2022-12-28,1,,,,,ブルーム,0
741,3010401027150,登記記録の閉鎖等,0,2023-04-17,2023-03-31,株式会社ベルエタージュ,,株式会社,東京都,港区,六本木５丁目１７番１号アクシスビル３Ｆ－３３５号,,13,103,1060032,,,2023-03-31,清算の結了等,,,2015-10-05,1,,,,,ベルエタージュ,0
742,3010401047520,登記記録の閉鎖等,0,2023-04-17,2023-04-06,株式会社アドフロンテ,,株式会社,東京都,中央区,銀座５丁目１３番１６号,,13,102,1040061,,,2023-04-06,合併による解散等,3010001071061,令和５年４月１日東京都中央区銀座五丁目１３番１６号株式会社ビー・アンド・ディー（3010001071061）に合併し解散,2015-10-05,1,,,,,アドフロンテ,0
747,3010401143030,登記記録の閉鎖等,0,2023-04-17,2023-03-31,株式会社バリューバケーション,,株式会社,東京都,港区,赤坂２丁目１７番６０号ＣＲＥＡ赤坂ビル１Ｆ,,13,103,1070052,,,2023-03-31,合併による解散等,7010403018235,令和５年３月３１日東京都港区赤坂二丁目１７番６０号ＣＲＥＡ赤坂ビル１ＦＫ＆Ｔ合同会社（7010403018235）に合併し解散,2019-01-10,1,,,,,バリューバケーション,0
748,3010401149003,登記記録の閉鎖等,0,2023-04-17,2023-04-03,株式会社ＮＢ－ＶＶ,,株式会社,東京都,港区,愛宕２丁目５番１号愛宕グリーンヒルズＭＯＲＩタワー,,13,103,1050002,,,2023-04-03,合併による解散等,4010401149002,令和５年４月１日東京都港区西新橋一丁目１５番４号銀泉西新橋ビル８階株式会社日本ナーシング＆ホスピスケア（4010401149002）に合併し解散,2019-11-05,1,,,,,エヌビーブイブイ,0
760,3010701023733,登記記録の閉鎖等,0,2023-04-17,2023-04-04,株式会社Ｋ＆Ｊ,,株式会社,東京都,品川区,中延１丁目２番４－２０４号,,13,109,1420053,,,2023-04-04,清算の結了等,,,2015-10-05,1,,,,,ケイアンドジェイ,0
816,3012303000425,登記記録の閉鎖等,0,2023-04-17,2023-04-06,合資会社小川総研,,合資会社,東京都,町田市,南つくし野４丁目１１番３８号,,13,209,1940002,,,2023-04-06,清算の結了等,,,2015-10-05,1,,,,,オガワソウケン,0
820,3012701007963,登記記録の閉鎖等,0,2023-04-17,2023-04-12,アモン医薬総合株式会社,,株式会社,東京都,東久留米市,中央町３丁目２番８号,,13,222,2030054,,,2023-04-12,清算の結了等,,,2015-10-05,1,,,,,アモンイヤクソウゴウ,0
824,3020001005828,登記記録の閉鎖等,0,2023-04-17,2023-04-06,株式会社アサミック,,株式会社,神奈川県,横浜市金沢区,福浦２丁目４番地５,,14,108,2360004,,,2023-04-06,清算の結了等,,,2015-10-05,1,,,,,アサミック,0
831,3020002048000,登記記録の閉鎖等,0,2023-04-17,2023-04-11,有限会社Ｋ２カンパニー,,有限会社,神奈川県,横浜市中区,山下町３７番８－１９０２号,,14,104,2310023,,,2023-04-11,合併による解散等,5021001017209,令和５年４月１日仙台市青葉区本町二丁目１７番２９号株式会社ボディライトニング（5021001017209）に合併し解散,2015-10-05,1,,,,,ケイツーカンパニー,0
863,3050001026573,登記記録の閉鎖等,0,2023-04-17,2023-04-03,常陸観光バス株式会社,,株式会社,東京都,港区,赤坂３丁目２番１２号赤坂ノアビル８階,,13,103,1070052,,,2023-04-03,清算の結了等,,,2015-10-05,1,,,,,ヒタチカンコウバス,0
881,3090001008733,登記記録の閉鎖等,0,2023-04-17,2023-04-06,株式会社モリヤ企画,,株式会社,山梨県,南都留郡西桂町,小沼２４６番地１,,19,423,4030022,,,2023-04-06,清算の結了等,,,2015-10-05,1,,,,,,0
914,3120905005418,登記記録の閉鎖等,0,2023-04-17,2023-04-10,ＮＰＯ法人コミュニティ安威川,,その他の設立登記法人,大阪府,茨木市,大字生保５３番５号,,27,211,5680092,,,2023-04-10,清算の結了等,,,2016-07-12,1,,,,,コミュニティアイガワ,0
931,3140002018973,登記記録の閉鎖等,0,2023-04-17,2023-04-13,株式会社豊洋海運,,株式会社,兵庫県,神戸市中央区,京町６７番地,,28,110,6500034,,,2023-04-13,清算の結了等,,,2015-10-05,1,,,,,,0
964,3180302010263,登記記録の閉鎖等,0,2023-04-17,2023-04-03,有限会社山内クリーニング,,有限会社,愛知県,豊橋市,上野町字上野２番地の４,,23,201,4418157,,,2023-04-03,清算の結了等,,,2015-10-05,1,,,,,ヤマウチクリーニング,0
966,3190002006676,登記記録の閉鎖等,0,2023-04-17,2023-04-06,有限会社伊達土地建物,,有限会社,三重県,鈴鹿市,白子駅前１番１８号,,24,207,5100241,,,2023-04-06,清算の結了等,,,2015-10-05,1,,,,,ダテトチタテモノ,0
972,3200002005817,登記記録の閉鎖等,0,2023-04-17,2023-04-06,アール有限会社,,有限会社,岐阜県,岐阜市,福住町１丁目５番地１ノイエクラッセ岐阜１５０２,,21,201,5008858,,,2023-04-06,清算の結了等,,,2015-10-05,1,,,,,アール,0
997,3260001011224,登記記録の閉鎖等,0,2023-04-17,2023-04-10,株式会社河合商店,,株式会社,岡山県,岡山市北区,舟橋町９番３３号,,33,101,7000841,,,2023-04-10,清算の結了等,,,2015-10-05,1,,,,,カワイショウテン,0
1011,3290001077329,登記記録の閉鎖等,0,2023-04-17,2023-04-06,株式会社ＮＡＸＴ九州,,株式会社,福岡県,福岡市西区,姪浜駅南４丁目１２番１２号,,40,135,8190006,,,2023-04-06,清算の結了等,,,2017-04-11,1,,,,,ナクストキュウシュウ,0
1029,3300002001806,登記記録の閉鎖等,0,2023-04-17,2023-04-07,有限会社アイエムディ,,有限会社,佐賀県,佐賀市,川副町大字犬井道１３２８番地の２,,41,201,8402212,,,2023-04-07,清算の結了等,,,2015-10-05,1,,,,,アイエムディ,0
1068,3400001007901,登記記録の閉鎖等,0,2023-04-17,2023-04-05,笑満観光株式会社,,株式会社,岩手県,二戸市,福田字十二役１４番地１０,,03,213,0286722,,,2023-04-05,清算の結了等,,,2015-10-05,1,,,,,ショウマンカンコウ,0
1089,3500001016611,登記記録の閉鎖等,0,2023-04-17,2023-04-14,株式会社ＴＲＵＥ　Ｃｏｒｐｏｒａｔｉｏｎ,,株式会社,愛媛県,松山市,三番町１丁目１４番地１第２大西ビル３０５号,,38,201,7900003,,,2023-04-14,清算の結了等,,,2015-10-05,1,,,,,トゥルーコーポレーション,0
1095,4010001161480,登記記録の閉鎖等,0,2023-04-17,2023-04-10,株式会社カンタナジャパン,,株式会社,東京都,文京区,本郷３丁目２８番１２号,,13,105,1130033,,,2023-04-10,清算の結了等,,,2015-10-05,1,,,,,カンタナジャパン,0
1108,4010003022350,登記記録の閉鎖等,0,2023-04-17,2023-04-06,合同会社プラムイースト,,合同会社,東京都,千代田区,丸の内３丁目１番１号東京共同会計事務所内,,13,101,1000005,,,2023-04-06,清算の結了等,,,2015-10-05,1,,,,,プラムイースト,0
1112,4010003039254,登記記録の閉鎖等,0,2023-04-17,2023-04-04,Ｃｌｅａｒ　Ａｓｓｅｔ　Ｐａｒｔｎｅｒｓ合同会社,,合同会社,東京都,中央区,銀座１丁目１２番４号Ｎ＆ＥＢＬＤ．６階,,13,102,1040061,,,2023-04-04,清算の結了等,,,2022-12-16,1,,,,,クリアアセットパートナーズ,0
1121,4010101010620,登記記録の閉鎖等,0,2023-04-17,2023-04-11,株式会社東和ハウジング,,株式会社,東京都,八王子市,子安町１丁目９番４号,,13,201,1920904,,,2023-04-11,清算の結了等,,,2015-10-05,1,,,,,トウワハウジング,0
1122,4010401011582,登記記録の閉鎖等,0,2023-04-17,2023-03-31,株式会社サボア・ヴィーブル,,株式会社,東京都,港区,六本木５丁目１７番１号アクシスビル３３３号,,13,103,1060032,,,2023-03-31,清算の結了等,,,2015-10-05,1,,,,,サボアヴィーブル,0
1147,4010701035728,登記記録の閉鎖等,0,2023-04-17,2023-04-06,株式会社ＧａｍｅｒＣｏａｃｈ,,株式会社,福岡県,福岡市博多区,祇園町８番１２－１０２５号,,40,132,8120038,,,2023-04-06,清算の結了等,,,2018-04-27,1,,,,,ゲーマーコーチ,0
1152,4010901039181,登記記録の閉鎖等,0,2023-04-17,2023-04-10,株式会社Ｇ－ｒｉｓｅ,,株式会社,東京都,世田谷区,尾山台３丁目１０番８号,,13,112,1580086,,,2023-04-10,清算の結了等,,,2016-12-07,1,,,,,ジーライズ,0
1161,4011002025526,登記記録の閉鎖等,0,2023-04-17,2023-04-12,大島興産株式会社,,株式会社,福島県,郡山市,安積北井１丁目１４９番地,,07,203,9630118,,,2023-04-12,清算の結了等,,,2015-10-05,1,,,,,オオシマコウサン,0
1173,4011102006095,登記記録の閉鎖等,0,2023-04-17,2023-04-12,有限会社新都心工業,,有限会社,東京都,新宿区,高田馬場１丁目３番１０号,,13,104,1690075,,,2023-04-12,清算の結了等,,,2015-10-05,1,,,,,シントシンコウギョウ,0
1201,4013102007288,登記記録の閉鎖等,0,2023-04-17,2023-04-10,株式会社ヨウコーフォレスト河辺,,株式会社,東京都,板橋区,板橋１丁目１０番１４号,,13,119,1730004,,,2023-04-10,合併による解散等,2021001007947,令和５年４月１日東京都板橋区板橋一丁目１０番１４号株式会社ヨウコーフォレスト湘南（2021001007947）に合併し解散,2015-10-05,1,,,,,ヨウコーフォレストカベ,0
1202,4013201004310,登記記録の閉鎖等,0,2023-04-17,2023-04-13,株式会社中川薬局,,株式会社,東京都,目黒区,五本木１丁目３１番１号,,13,110,1530053,,,2023-04-13,合併による解散等,5011801012574,令和５年４月１日東京都豊島区南池袋二丁目２５番５号みよの台薬局株式会社（5011801012574）に合併し解散,2015-10-05,1,,,,,ナカガワヤッキョク,0
1206,4020001038819,登記記録の閉鎖等,0,2023-04-17,2023-04-03,千代田テクノエース株式会社,,株式会社,神奈川県,横浜市神奈川区,守屋町３丁目１３番地,,14,102,2210022,,,2023-04-03,合併による解散等,5020001018027,令和５年４月１日横浜市神奈川区守屋町三丁目１３番地千代田工商株式会社（5020001018027）に合併し解散,2015-10-05,1,,,,,チヨダテクノエース,0
1217,4021001061711,登記記録の閉鎖等,0,2023-04-17,2023-04-11,協栄環境株式会社,,株式会社,長野県,長野市,大字稲葉２０４７－５,,20,201,3800911,,,2023-04-11,合併による解散等,4021001059169,令和５年３月３１日千葉県佐倉市王子台３－２９－１６レジデンス岡野ＩＩ１０３号株式会社協和（4021001059169）に合併し解散,2017-03-27,1,,,,,キョウエイカンキョウ,0
1228,4030002017960,登記記録の閉鎖等,0,2023-04-17,2023-04-05,有限会社ハイパーメデイアウイル,,有限会社,埼玉県,さいたま市桜区,西堀７丁目８－３３,,11,106,3380832,,,2023-04-05,清算の結了等,,,2015-10-05,1,,,,,ハイパーメデイアウイル,0
1232,4040001006823,登記記録の閉鎖等,0,2023-04-17,2023-04-03,株式会社ペリエビルサービス,,株式会社,千葉県,千葉市中央区,弁天１丁目１５番１号,,12,101,2600045,,,2023-04-03,合併による解散等,8040001008246,令和５年４月１日千葉市中央区新千葉一丁目７番地２株式会社千葉ステーションビル（8040001008246）に合併し解散,2015-10-05,1,,,,,ペリエビルサービス,0
1252,4050001026572,登記記録の閉鎖等,0,2023-04-17,2023-04-03,株式会社常陸観光,,株式会社,東京都,港区,赤坂３丁目２番１２号赤坂ノアビル８階,,13,103,1070052,,,2023-04-03,清算の結了等,,,2015-10-05,1,,,,,ヒタチカンコウ,0
1253,4050001026770,登記記録の閉鎖等,0,2023-04-17,2023-04-10,株式会社三和建材,,株式会社,茨城県,常陸大宮市,若林１９４４番地の１,,08,225,3192222,,,2023-04-10,合併による解散等,8050001006777,令和５年４月１日茨城県ひたちなか市武田９９９番地三和ファインパーツ株式会社（8050001006777）に合併し解散,2015-10-05,1,,,,,サンワケンザイ,0
1255,4050002039227,登記記録の閉鎖等,0,2023-04-17,2023-04-12,有限会社アクティブ,,有限会社,茨城県,取手市,新町２丁目５番７号,,08,217,3020024,,,2023-04-12,合併による解散等,5060001023031,令和５年４月１日東京都中央区日本橋三丁目５番１２号日本橋ＭＭビル８階株式会社エスエープランニング（5060001023031）に合併し解散,2015-10-05,1,,,,,,0
1269,4100001028893,登記記録の閉鎖等,0,2023-04-17,2023-04-05,株式会社蓼科ファーム,,株式会社,長野県,佐久市,協和８５２４番地２３８,,20,217,3842204,,,2023-04-05,清算の結了等,,,2015-12-08,1,,,,,タテシナファーム,0
1315,4140001103131,登記記録の閉鎖等,0,2023-04-17,2023-04-12,ＡｎｏｔｈｅｒＧＲＯＵＰ株式会社,,株式会社,兵庫県,神戸市須磨区,平田町１丁目２番８号,,28,107,6540021,,,2023-04-12,清算の結了等,,,2016-08-17,1,,,,,,0
1345,4180002052051,登記記録の閉鎖等,0,2023-04-17,2023-04-05,有限会社フーズサプライ小道世,,有限会社,愛知県,北名古屋市,井瀬木高畑６９番地,,23,234,4810014,,,2023-04-05,清算の結了等,,,2015-10-05,1,,,,,フーズサプライ,0
1352,4180003018514,登記記録の閉鎖等,0,2023-04-17,2023-03-31,合同会社世界ジェニック,,合同会社,愛知県,東海市,養父町釈迦御堂２４,00112126,23,222,4770034,,,2023-03-31,清算の結了等,,,2017-12-25,1,,,,,セカイジェニック,0
1354,4180005003258,登記記録の閉鎖等,0,2023-04-17,2023-04-06,味鋺天神通商店街振興組合,,その他の設立登記法人,愛知県,名古屋市北区,楠味鋺４丁目１５２番地,,23,103,4620014,,,2023-04-06,清算の結了等,,,2015-10-05,1,,,,,アジマテンジンドオリ,0
1365,4190001013607,登記記録の閉鎖等,0,2023-04-17,2023-04-06,株式会社渡建,,株式会社,三重県,桑名市,寿町１丁目１５番地,,24,205,5110061,,,2023-04-06,清算の結了等,,,2015-10-05,1,,,,,ワタケン,0
1376,4240001000319,登記記録の閉鎖等,0,2023-04-17,2023-04-11,株式会社アクティ,,株式会社,広島県,広島市安芸区,船越南４丁目１１番１１号,,34,107,7360082,,,2023-04-11,合併による解散等,5220001006845,令和５年４月１日石川県金沢市玉川町１番５号三谷産業株式会社（5220001006845）に合併し解散,2015-10-05,1,,,,,アクティ,0
1404,4300002000154,登記記録の閉鎖等,0,2023-04-17,2023-04-10,有限会社浦プロパン,,有限会社,佐賀県,佐賀市,材木２丁目３番７号,,41,201,8400055,,,2023-04-10,清算の結了等,,,2015-10-05,1,,,,,ウラプロパン,0
1414,4320202000431,登記記録の閉鎖等,0,2023-04-17,2023-04-14,堀塗装有限会社,,有限会社,大分県,臼杵市,大字野田５３番地の３４,,44,206,8750062,,,2023-04-14,清算の結了等,,,2015-10-05,1,,,,,,0
1431,4370202005021,登記記録の閉鎖等,0,2023-04-17,2023-04-06,有限会社松田建材,,有限会社,宮城県,栗原市,瀬峰長者原４９番地の１８,,04,213,9894516,,,2023-04-06,清算の結了等,,,2015-10-05,1,,,,,マツダケンザイ,0
1434,4380002006615,登記記録の閉鎖等,0,2023-04-17,2023-04-11,有限会社萩原モーター,,有限会社,福島県,伊達市,梁川町字赤五輪２４番地の１,,07,213,9600725,,,2023-04-11,清算の結了等,,,2015-10-05,1,,,,,ハギハラモーター,0
1438,4400002009400,登記記録の閉鎖等,0,2023-04-17,2023-04-07,有限会社松苑,,有限会社,岩手県,北上市,上江釣子７地割８７番地４,,03,206,0240071,,,2023-04-07,清算の結了等,,,2015-10-05,1,,,,,ショウエン,0
1439,4400002012263,登記記録の閉鎖等,0,2023-04-17,2023-04-05,有限会社九戸自動車整備工場,,有限会社,岩手県,九戸郡九戸村,大字伊保内第２３地割字五の八景５３番地の１,,03,506,0286502,,,2023-04-05,清算の結了等,,,2015-10-05,1,,,,,クノヘジドウシャセイビコウジョウ,0
1441,4410001006513,登記記録の閉鎖等,0,2023-04-17,2023-04-05,鉛山鉱業株式会社,,株式会社,秋田県,鹿角郡小坂町,十和田湖字鉛山無番地,,05,303,0185511,,,2023-04-05,清算の結了等,,,2015-10-05,1,,,,,ナマリヤマコウギョウ,0
1447,4430001022450,登記記録の閉鎖等,0,2023-04-17,2023-04-03,北海道不動産株式会社,,株式会社,北海道,札幌市中央区,南一条西６丁目１１番地,,01,101,0600061,,,2023-04-03,合併による解散等,1430001002430,令和５年４月１日札幌市中央区南一条西六丁目１１番地エス・テー・ビー興発株式会社（1430001002430）に合併し解散,2015-10-05,1,,,,,ホッカイドウフドウサン,0
1460,4470002004799,登記記録の閉鎖等,0,2023-04-17,2023-04-06,テル企画有限会社,,有限会社,香川県,高松市,藤塚町１丁目１２番１９号,,37,201,7600071,,,2023-04-06,清算の結了等,,,2015-10-05,1,,,,,テルキカク,0
1473,5010001035023,登記記録の閉鎖等,0,2023-04-17,2023-04-04,株式会社朝日アドテック,,株式会社,東京都,中央区,築地５丁目３番２号,,13,102,1040045,,,2023-04-04,合併による解散等,7010001068525,令和５年４月１日東京都中央区築地五丁目３番２号株式会社朝日新聞メディアプロダクション（7010001068525）に合併し解散,2015-10-05,1,,,,,アサヒアドテック,0
1482,5010001220905,登記記録の閉鎖等,0,2023-04-17,2023-04-04,株式会社アートオブ・クリーン,,株式会社,東京都,千代田区,神田錦町３丁目１５名鉄不動産竹橋ビル７階,,13,101,1010054,,,2023-04-04,清算の結了等,,,2021-09-07,1,,,,,アートオブクリーン,0
1489,5010003022721,登記記録の閉鎖等,0,2023-04-17,2023-04-05,Ｓｏｖｅｒｅｉｇｎ　Ｍａｒｑｕｅ合同会社,,合同会社,東京都,千代田区,丸の内１丁目８番３号丸の内トラストタワー本館２６階,,13,101,1000005,,,2023-04-05,清算の結了等,,,2015-11-26,1,,,,,ソブリンマーク,0
1528,5010801004680,登記記録の閉鎖等,0,2023-04-17,2023-04-05,株式会社佐藤事務所,,株式会社,東京都,大田区,羽田４丁目４番２５号,,13,111,1440043,,,2023-04-05,清算の結了等,,,2015-10-05,1,,,,,サトウジムショ,0
1550,5011101061495,登記記録の閉鎖等,0,2023-04-17,2023-04-12,ＴＫＣ金融保証株式会社,,株式会社,東京都,新宿区,揚場町１番２１号飯田橋升本ビル,,13,104,1620824,,,2023-04-12,合併による解散等,5060001002844,令和５年４月１日栃木県宇都宮市鶴田町１７５８番地株式会社ＴＫＣ（5060001002844）に合併し解散,2015-10-05,1,,,,,テイケイシイキンユウホショウ,0
1568,5011601001918,登記記録の閉鎖等,0,2023-04-17,2023-04-10,株式会社グループタコ,,株式会社,東京都,練馬区,東大泉５丁目１３番１３号,,13,120,1780063,,,2023-04-10,清算の結了等,,,2015-10-05,1,,,,,グループタコ,0
1576,5012401022690,登記記録の閉鎖等,0,2023-04-17,2023-04-12,ネクスト・アジャイル株式会社,,株式会社,東京都,府中市,美好町３丁目３９番地,,13,206,1830045,,,2023-04-12,清算の結了等,,,2015-10-05,1,,,,,,0
1578,5012402019595,登記記録の閉鎖等,0,2023-04-17,2023-04-12,有限会社富士興栄,,有限会社,東京都,三鷹市,深大寺３丁目８番３号,,13,204,1810016,,,2023-04-12,清算の結了等,,,2015-10-05,1,,,,,フジコウエイ,0
1611,5040001024147,登記記録の閉鎖等,0,2023-04-17,2023-04-03,株式会社モリシタ,,株式会社,千葉県,八千代市,米本２２０７番地８,,12,221,2760015,,,2023-04-03,合併による解散等,2040001008854,令和５年４月１日千葉市中央区問屋町３番地の５株式会社カワグチ（2040001008854）に合併し解散,2015-10-05,1,,,,,モリシタ,0
1613,5040001061933,登記記録の閉鎖等,0,2023-04-17,2023-04-03,株式会社ダッツノ,,株式会社,千葉県,旭市,萬歳１９７１番地,,12,215,2890505,,,2023-04-03,合併による解散等,2040001008854,令和５年４月１日千葉市中央区問屋町３番地の５株式会社カワグチ（2040001008854）に合併し解散,2015-10-05,1,,,,,ダッツノ,0
1636,5050001047221,登記記録の閉鎖等,0,2023-04-17,2023-04-10,太洋技研株式会社,,株式会社,茨城県,日立市,森山町５丁目８番８号,,08,202,3160025,,,2023-04-10,合併による解散等,6050001047220,令和５年４月１日茨城県日立市森山町五丁目８番８号太洋工業株式会社（6050001047220）に合併し解散,2020-03-03,1,,,,,タイヨウギケン,0
1640,5060001009600,登記記録の閉鎖等,0,2023-04-17,2023-04-05,株式会社ナカヤマコーポレーションリミテッド,,株式会社,栃木県,芳賀郡益子町,大字塙３３５５番地１,,09,342,3214216,,,2023-04-05,清算の結了等,,,2015-10-05,1,,,,,ナカヤマコーポレーションリミテッド,0
1642,5060002009013,登記記録の閉鎖等,0,2023-04-17,2023-04-06,有限会社盛岡,,有限会社,栃木県,宇都宮市,馬場通り３丁目３番３号,,09,201,3200026,,,2023-04-06,清算の結了等,,,2015-10-05,1,,,,,モリオカ,0
1648,5080001000986,登記記録の閉鎖等,0,2023-04-17,2023-04-14,葵メディカル株式会社,,株式会社,静岡県,静岡市葵区,横内町２番地の１,,22,101,4200832,,,2023-04-14,清算の結了等,,,2015-10-05,1,,,,,アオイメディカル,0
1655,5100001006832,登記記録の閉鎖等,0,2023-04-17,2023-04-05,株式会社アプリコット,,株式会社,長野県,千曲市,大字若宮１３０５番地８３,,20,218,3890813,,,2023-04-05,清算の結了等,,,2015-10-05,1,,,,,アプリコット,0
1679,5120003018956,登記記録の閉鎖等,0,2023-04-17,2023-04-07,アーキボックス合同会社,,合同会社,大阪府,大阪市城東区,今福西６丁目２番２－６１９,,27,118,5360004,,,2023-04-07,清算の結了等,,,2021-02-25,1,,,,,アーキボックス,0
1699,5130001014460,登記記録の閉鎖等,0,2023-04-17,2023-04-10,株式会社小西エンジニアリング,,株式会社,京都府,京都市伏見区,深草鞍ケ谷１３番地の１２９,,26,109,6120822,,,2023-04-10,清算の結了等,,,2015-10-05,1,,,,,コニシエンジニアリング,0
1701,5130001017612,登記記録の閉鎖等,0,2023-04-17,2023-04-11,株式会社照栄,,株式会社,京都府,京都市中京区,六角通麩屋町東入八百屋町１１１番地,,26,104,6048072,,,2023-04-11,清算の結了等,,,2015-10-05,1,,,,,ショウエイ,0
1704,5130001062427,登記記録の閉鎖等,0,2023-04-17,2023-04-10,株式会社ＣＡＮＶＡＳ,,株式会社,京都府,京都市西京区,桂徳大寺町３１２番地ルーミナス桂２０２,,26,111,6158018,,,2023-04-10,清算の結了等,,,2018-06-28,1,,,,,キャンバス,0
1706,5140001015499,登記記録の閉鎖等,0,2023-04-17,2023-04-14,株式会社メディカルサポート,,株式会社,兵庫県,神戸市長田区,御蔵通２丁目１３番地１－１１０５号,,28,106,6530014,,,2023-04-14,清算の結了等,,,2015-10-05,1,,,,,メディカルサポート,0
1709,5140001039564,登記記録の閉鎖等,0,2023-04-17,2023-04-12,株式会社岩井堂,,株式会社,兵庫県,佐用郡佐用町,三日月１１６３番地,,28,501,6795133,,,2023-04-12,清算の結了等,,,2015-10-05,1,,,,,イワイドウ,0
1714,5140001075535,登記記録の閉鎖等,0,2023-04-17,2023-04-13,小南富士株式会社,,株式会社,兵庫県,西脇市,住吉町７０５番地,,28,213,6770031,,,2023-04-13,清算の結了等,,,2015-10-05,1,,,,,コミナミフジ,0
1727,5140003007486,登記記録の閉鎖等,0,2023-04-17,2023-04-12,エネシス神戸合資会社,,合資会社,兵庫県,三田市,ゆりのき台３丁目２２番１５号,,28,219,6691324,,,2023-04-12,清算の結了等,,,2015-10-05,1,,,,,,0
1743,5180001134832,登記記録の閉鎖等,0,2023-04-17,2023-04-10,株式会社はじめ,,株式会社,愛知県,名古屋市中川区,打中２丁目７２番地,,23,110,4540927,,,2023-04-10,清算の結了等,,,2018-12-19,1,,,,,ハジメ,0
1773,5260001016650,登記記録の閉鎖等,0,2023-04-17,2023-04-11,テンマヤ縫製株式会社,,株式会社,岡山県,総社市,井手１１６０番地５,,33,208,7191125,,,2023-04-11,清算の結了等,,,2015-10-05,1,,,,,テンマヤホウセイ,0
1783,5290002049440,登記記録の閉鎖等,0,2023-04-17,2023-04-06,立石興産有限会社,,有限会社,福岡県,久留米市,南薫西町２０２２番地の７,,40,203,8300006,,,2023-04-06,清算の結了等,,,2015-10-05,1,,,,,タテイシコウサン,0
1791,5300001005608,登記記録の閉鎖等,0,2023-04-17,2023-04-07,西九州電建工業株式会社,,株式会社,佐賀県,佐賀市,日の出１丁目１５番１１号,,41,201,8490923,,,2023-04-07,合併による解散等,3310001002432,令和５年４月１日長崎市北陽町９３４番地６株式会社ＤＥＮＫＥＮ（3310001002432）に合併し解散,2015-10-05,1,,,,,ニシキュウシュウデンケンコウギョウ,0
1795,5310001005631,登記記録の閉鎖等,0,2023-04-17,2023-04-03,朝日Ｉ＆Ｒ建設株式会社,,株式会社,佐賀県,武雄市,武雄町大字昭和９２番地,,41,206,8430023,,,2023-04-03,合併による解散等,7300001011117,令和５年４月１日佐賀県武雄市朝日町大字甘久３５８９番地２朝日Ｉ＆Ｒビルディズ株式会社（7300001011117）に合併し解散,2015-10-05,1,,,,,アサヒアイアンドアールケンセツ,0
1804,5330003007426,登記記録の閉鎖等,0,2023-04-17,2023-04-07,合同会社テイラープロダクション,,合同会社,熊本県,熊本市中央区,中央街７番２号ギンザスカイビル５Ｆ,,43,101,8600802,,,2023-04-07,清算の結了等,,,2018-03-14,1,,,,,テイラープロダクション,0
1823,5400001007775,登記記録の閉鎖等,0,2023-04-17,2023-04-07,株式会社白清舎,,株式会社,岩手県,二戸市,福岡字橋場９番地イ号,,03,213,0286101,,,2023-04-07,清算の結了等,,,2015-10-05,1,,,,,ハクセイシャ,0
1849,6010001031038,登記記録の閉鎖等,0,2023-04-17,2023-04-03,山野井株式会社,,株式会社,東京都,千代田区,岩本町２丁目１０番５号,,13,101,1010032,,,2023-04-03,清算の結了等,,,2015-10-05,1,,,,,ヤマノイ,0
1854,6010001087187,登記記録の閉鎖等,0,2023-04-17,2023-04-03,株式会社ニチレイ・ロジスティクス関東,,株式会社,東京都,千代田区,神田三崎町３丁目３番２３号,,13,101,1010061,,,2023-04-03,合併による解散等,1010001108591,令和５年４月１日東京都千代田区神田三崎町三丁目３番２３号株式会社ロジスティクス・ネットワーク（1010001108591）に合併し解散,2015-10-05,1,,,,,ニチレイロジスティクスカントウ,0
1872,6010005025622,登記記録の閉鎖等,0,2023-04-17,2023-04-11,一般社団法人アクアマリーンホールディングス,,その他の設立登記法人,東京都,千代田区,丸の内３丁目１番１号東京共同会計事務所内,,13,101,1000005,,,2023-04-11,清算の結了等,,,2016-08-05,1,,,,,アクアマリーンホールディングス,0
1879,6010401052229,登記記録の閉鎖等,0,2023-04-17,2023-03-31,株式会社レスト,,株式会社,東京都,港区,麻布十番２丁目１番１１号,,13,103,1060045,,,2023-03-31,清算の結了等,,,2015-10-05,1,,,,,レスト,0
1881,6010401091714,登記記録の閉鎖等,0,2023-04-17,2023-04-07,株式会社グローリーハーツ,,株式会社,東京都,杉並区,永福２丁目２２番１７号,,13,115,1680064,,,2023-04-07,清算の結了等,,,2015-10-05,1,,,,,グローリーハーツ,0
1890,6010405017871,登記記録の閉鎖等,0,2023-04-17,2023-04-11,一般社団法人国際介護人財組合,,その他の設立登記法人,東京都,港区,西麻布１丁目１４－１井門西麻布ビル３階,,13,103,1060031,,,2023-04-11,合併による解散等,5040005019829,令和５年３月１日千葉県市川市八幡五丁目１５番１４号一般社団法人外国人介護職員支援センター（5040005019829）に合併し解散,2019-07-29,1,,,,,コクサイカイゴジンザイクミアイ,0
1957,6013301023679,登記記録の閉鎖等,0,2023-04-17,2023-04-12,株式会社グッドライフパートナーズ,,株式会社,東京都,豊島区,南池袋２丁目３４番５号,,13,116,1710022,,,2023-04-12,合併による解散等,6010001139938,令和５年４月１日東京都中央区日本橋人形町三丁目３番３号株式会社グッドライフパートナーズ（6010001139938）に合併し解散,2015-10-05,1,,,,,グッドライフパートナーズ,0
1959,6020001018026,登記記録の閉鎖等,0,2023-04-17,2023-04-03,千代田システムテクノロジーズ株式会社,,株式会社,神奈川県,横浜市神奈川区,新浦島町１丁目１番２５号テクノウェイブ１００ビル,,14,102,2210031,,,2023-04-03,合併による解散等,5020001018027,令和５年４月１日横浜市神奈川区守屋町三丁目１３番地千代田工商株式会社（5020001018027）に合併し解散,2015-10-05,1,,,,,チヨダシステムテクノロジーズ,0
1960,6020001033719,登記記録の閉鎖等,0,2023-04-17,2023-03-31,東央サービス株式会社,,株式会社,神奈川県,横浜市港北区,新羽町２３４７番地１,,14,109,2230057,,,2023-03-31,合併による解散等,4020001033720,令和５年３月３１日横浜市港北区新羽町２３４７番地１東央株式会社（4020001033720）に合併し解散,2015-10-05,1,,,,,トウオウサービス,0
1961,6020001061389,登記記録の閉鎖等,0,2023-04-17,2023-04-06,株式会社スタイルデザイナー,,株式会社,神奈川県,横浜市中区,翁町１丁目４番１号,,14,104,2310028,,,2023-04-06,合併による解散等,1020001033236,令和５年４月１日横浜市中区翁町一丁目４番１号株式会社アルテサロンホールディングス（1020001033236）に合併し解散,2015-10-05,1,,,,,スタイルデザイナー,0
1966,6021001034418,登記記録の閉鎖等,0,2023-04-17,2023-04-11,大野木材株式会社,,株式会社,神奈川県,足柄上郡中井町,田中字大光寺２０９番地,,14,361,2590145,,,2023-04-11,清算の結了等,,,2015-10-05,1,,,,,オオノモクザイ,0
1968,6021003002323,登記記録の閉鎖等,0,2023-04-17,2023-04-11,合資会社広輝,,合資会社,神奈川県,小田原市,荻窪３６２番地の２,,14,206,2500042,,,2023-04-11,清算の結了等,,,2015-10-05,1,,,,,コウキ,0
1976,6030001056974,登記記録の閉鎖等,0,2023-04-17,2023-04-11,関東ヘキサケミカル株式会社,,株式会社,埼玉県,川越市,芳野台１丁目１０３番地６,,11,201,3500833,,,2023-04-11,合併による解散等,7122001006511,令和５年４月１日大阪府東大阪市横枕西１０番３０号株式会社ヘキサケミカル（7122001006511）に合併し解散,2015-10-05,1,,,,,カントウヘキサケミカル,0
1977,6030001093381,登記記録の閉鎖等,0,2023-04-17,2023-04-04,株式会社カリタス＆ベリタス,,株式会社,埼玉県,朝霞市,溝沼４丁目４番５号,,11,227,3510023,,,2023-04-04,清算の結了等,,,2015-10-05,1,,,,,カリタスアンドベリタス,0
1981,6030003010649,登記記録の閉鎖等,0,2023-04-17,2023-04-12,合同会社ストラーダ,,合同会社,埼玉県,戸田市,本町４丁目４番６号,,11,224,3350023,,,2023-04-12,合併による解散等,4010403019310,令和５年４月１日東京都港区芝五丁目２７番３号ＭＢＣ合同会社シバレジデンス（4010403019310）に合併し解散,2017-08-23,1,,,,,ストラーダ,0
1997,6040003021471,登記記録の閉鎖等,0,2023-04-17,2023-04-06,ＴＥＲＡＪＩＭＡ．ＥＮＧＩＮＥＥＲＩＮＧ合同会社,,合同会社,千葉県,白井市,桜台２丁目４－１４プロムナード桜台１０５号,,12,232,2701412,,,2023-04-06,清算の結了等,,,2022-12-13,1,,,,,テラジマエンジニアリング,0
2007,6060001035208,登記記録の閉鎖等,0,2023-04-17,2023-04-03,新もてぎ電力株式会社,,株式会社,栃木県,芳賀郡茂木町,大字茂木１０９０番地１,,09,343,3213531,,,2023-04-03,清算の結了等,,,2022-08-25,1,,,,,シンモテギデンリョク,0
2028,6100003004809,登記記録の閉鎖等,0,2023-04-17,2023-04-10,オフィス・軽井沢ヴィラ合同会社,,合同会社,長野県,北佐久郡軽井沢町,大字長倉３８６３番地５７,,20,321,3890111,,,2023-04-10,清算の結了等,,,2017-10-27,1,,,,,オフィスカルイザワヴィラ,0
2038,6120001133855,登記記録の閉鎖等,0,2023-04-17,2023-04-13,株式会社イチネンパーキング,,株式会社,大阪府,大阪市淀川区,西中島４丁目１０番６号,,27,123,5320011,,,2023-04-13,合併による解散等,8120001076573,令和５年４月１日東京都港区芝浦四丁目２番８号株式会社イチネンパーキング（8120001076573）に合併し解散,2015-10-05,1,,,,,イチネンパーキング,0
2065,6120905006009,登記記録の閉鎖等,0,2023-04-17,2023-04-11,特定非営利活動法人よろこびアラウンド,,その他の設立登記法人,大阪府,高槻市,津之江北町１８番１４号,,27,207,5690821,,,2023-04-11,清算の結了等,,,2020-04-21,1,,,,,ヨロコビアラウンド,0
2080,6140001047913,登記記録の閉鎖等,0,2023-04-17,2023-04-12,株式会社恵奈美商会,,株式会社,兵庫県,尼崎市,食満６丁目１４番１－３０５号,,28,202,6610982,,,2023-04-12,清算の結了等,,,2015-10-05,1,,,,,,0
2082,6140001075600,登記記録の閉鎖等,0,2023-04-17,2023-04-13,株式会社昌公商事,,株式会社,兵庫県,西脇市,八坂町１９０番地の９,,28,213,6770064,,,2023-04-13,清算の結了等,,,2015-10-05,1,,,,,ショウコウショウジ,0
2092,6140002040000,登記記録の閉鎖等,0,2023-04-17,2023-04-12,猪名川産業有限会社,00041025,有限会社,兵庫県,尼崎市,御園３丁目１８番１６号,,28,202,6610984,,,2023-04-12,清算の結了等,,,2015-10-05,1,,,,,イナガワサンギョウ,0
2102,6140005016559,登記記録の閉鎖等,0,2023-04-17,2023-04-12,一般社団法人神風本伊勢講,,その他の設立登記法人,兵庫県,西宮市,山口町下山口３丁目８番１７号,,28,204,6511412,,,2023-04-12,清算の結了等,,,2015-10-05,1,,,,,,0
2118,6180002028231,登記記録の閉鎖等,0,2023-04-17,2023-04-07,有限会社太伸設備工業,,有限会社,愛知県,名古屋市中村区,長筬町６丁目２７番地,,23,105,4530839,,,2023-04-07,清算の結了等,,,2015-10-05,1,,,,,タイシンセツビコウギョウ,0
2128,6190001018133,登記記録の閉鎖等,0,2023-04-17,2023-04-06,株式会社サントレー,,株式会社,三重県,四日市市,新町２番８号,,24,202,5100092,,,2023-04-06,清算の結了等,,,2015-10-05,1,,,,,サントレー,0
2131,6200001037197,登記記録の閉鎖等,0,2023-04-17,2023-04-05,株式会社ペイオフ,,株式会社,岐阜県,岐阜市,野一色３丁目３番２３号,,21,201,5008226,,,2023-04-05,清算の結了等,,,2020-03-06,1,,,,,ペイオフ,0
2142,6280001005865,登記記録の閉鎖等,0,2023-04-17,2023-04-10,株式会社喜久市,,株式会社,島根県,益田市,中吉田町１０７８番地４,,32,204,6980042,,,2023-04-10,清算の結了等,,,2015-10-05,1,,,,,キクイチ,0
2148,6290001029112,登記記録の閉鎖等,0,2023-04-17,2023-04-06,株式会社ｙｏｕ,,株式会社,福岡県,福岡市早良区,有田４丁目２５番１号,,40,137,8140033,,,2023-04-06,清算の結了等,,,2015-10-05,1,,,,,ユウ,0
2168,6360001010618,登記記録の閉鎖等,0,2023-04-17,2023-04-12,株式会社郷,,株式会社,沖縄県,浦添市,城間４丁目６番９号,,47,208,9012133,,,2023-04-12,清算の結了等,,,2015-10-05,1,,,,,ゴウ,0
2187,6420005003594,登記記録の閉鎖等,0,2023-04-17,2023-04-07,前田野目生産森林組合,,その他の設立登記法人,青森県,五所川原市,大字前田野目字長峰２８番地２,,02,205,0370631,,,2023-04-07,清算の結了等,,,2015-10-05,1,,,,,マエダノメ,0
2202,6470002019291,登記記録の閉鎖等,0,2023-04-17,2023-04-07,有限会社笠井水産,,有限会社,香川県,小豆郡小豆島町,苗羽甲１４５７番地,,37,324,7614421,,,2023-04-07,清算の結了等,,,2015-10-05,1,,,,,カサイスイサン,0
2240,7010401127070,登記記録の閉鎖等,0,2023-04-17,2023-04-03,株式会社ｗａｎｔｅｄ,,株式会社,東京都,港区,六本木６丁目８番１０号ＳＴＥＰ六本木ビルＷＥＳＴ１階ビュレックスラボ六本木２４号室,,13,103,1060032,,,2023-04-03,清算の結了等,,,2016-09-20,1,,,,,ウォンティッド,0
2242,7010401144768,登記記録の閉鎖等,0,2023-04-17,2023-04-03,株式会社来人コンサルティング,,株式会社,東京都,港区,赤坂３丁目１６番１１号東海赤坂ビル５階,,13,103,1070052,,,2023-04-03,合併による解散等,3010401069647,令和５年４月１日東京都港区赤坂三丁目１６番１１号東海赤坂ビル５階株式会社ハイウェル（3010401069647）に合併し解散,2019-04-05,1,,,,,ライトコンサルティング,0
2273,7010902009651,登記記録の閉鎖等,0,2023-04-17,2023-04-07,有限会社玉澤工務店,,有限会社,東京都,世田谷区,粕谷３丁目２４番１３号,,13,112,1570063,,,2023-04-07,清算の結了等,,,2015-10-05,1,,,,,,0
2291,7011005008384,登記記録の閉鎖等,0,2023-04-17,2023-04-07,一般社団法人日本チャットボット協会,,その他の設立登記法人,東京都,世田谷区,深沢６丁目２２番４号ヴェールテラス深沢ＷＥＳＴ棟Ａ号,,13,112,1580081,,,2023-04-07,清算の結了等,,,2019-12-03,1,,,,,ニホンチャットボットキョウカイ,0
2305,7011801019436,登記記録の閉鎖等,0,2023-04-17,2023-04-06,株式会社エターナルアミューズメント,,株式会社,東京都,千代田区,岩本町３丁目３番５号,,13,101,1010032,,,2023-04-06,清算の結了等,,,2015-10-05,1,,,,,エターナルアミューズメント,0
2315,7020001023108,登記記録の閉鎖等,0,2023-04-17,2023-04-12,株式会社コム管理サービス,,株式会社,神奈川県,横浜市神奈川区,松本町４丁目２８番２号,,14,102,2210841,,,2023-04-12,合併による解散等,7012401009240,令和５年４月１日東京都狛江市東和泉二丁目４番８号株式会社東都（7012401009240）に合併し解散,2015-10-05,1,,,,,コムカンリサービス,0
2324,7021001001581,登記記録の閉鎖等,0,2023-04-17,2023-04-11,株式会社ナガセ,,株式会社,神奈川県,藤沢市,辻堂元町４丁目１番１９号,,14,205,2510043,,,2023-04-11,清算の結了等,,,2015-10-05,1,,,,,ナガセ,0
2328,7021002046205,登記記録の閉鎖等,0,2023-04-17,2023-04-11,有限会社共和精工,,有限会社,神奈川県,綾瀬市,吉岡東１丁目８番１６号,,14,218,2521125,,,2023-04-11,清算の結了等,,,2015-10-05,1,,,,,キョウワセイコウ,0
2329,7021002058836,登記記録の閉鎖等,0,2023-04-17,2023-04-07,有限会社剱製作所,00013766,有限会社,神奈川県,平塚市,田村１丁目１０番１０号,,14,203,2540013,,,2023-04-07,清算の結了等,,,2015-10-05,1,,,,,ツルギセイサクショ,0
2338,7030001137352,登記記録の閉鎖等,0,2023-04-17,2023-04-03,株式会社Ｎ．ｆｌａｐｐ,,株式会社,埼玉県,草加市,瀬崎１丁目９番１－２２１６号,,11,221,3400022,,,2023-04-03,合併による解散等,2030001109364,令和５年４月１日埼玉県草加市瀬崎一丁目９番１－２２０７号株式会社ＡＲＡＴＡ（2030001109364）に合併し解散,2020-07-16,1,,,,,エヌフラップ,0
2345,7040001090848,登記記録の閉鎖等,0,2023-04-17,2023-04-05,株式会社ＧＧプランニング,,株式会社,千葉県,山武市,松尾町猿尾５０４番地２,,12,237,2891513,,,2023-04-05,清算の結了等,,,2015-10-05,1,,,,,ジージープランニング,0
2365,7070001031741,登記記録の閉鎖等,0,2023-04-17,2023-04-05,サンノーバ株式会社,,株式会社,群馬県,太田市,世良田町３０３８番地２,,10,205,3700426,,,2023-04-05,合併による解散等,2120001077346,令和５年４月１日大阪市中央区石町二丁目２番９号アルフレッサファーマ株式会社（2120001077346）に合併し解散,2016-01-07,1,,,,,サンノーバ,0
2369,7070003001494,登記記録の閉鎖等,0,2023-04-17,2023-04-10,合資会社かねぶん商店,,合資会社,群馬県,吾妻郡中之条町,大字中之条町８９９番地,,10,421,3770424,,,2023-04-10,清算の結了等,,,2015-10-05,1,,,,,,0
2378,7100001016994,登記記録の閉鎖等,0,2023-04-17,2023-04-05,株式会社ミヤシタ,,株式会社,長野県,安曇野市,明科七貴４６８７番地２,,20,220,3997104,,,2023-04-05,清算の結了等,,,2015-10-05,1,,,,,ミヤシタ,0
2379,7100001017893,登記記録の閉鎖等,0,2023-04-17,2023-04-06,株式会社エステム長野,,株式会社,長野県,木曽郡木曽町,福島５２２３番地１,,20,432,3970001,,,2023-04-06,合併による解散等,9180001014155,令和５年４月１日名古屋市南区弥次ヱ町二丁目１９番地の１株式会社エステム（9180001014155）に合併し解散,2015-10-05,1,,,,,エステムナガノ,0
2386,7120001006886,登記記録の閉鎖等,0,2023-04-17,2023-04-11,株式会社アラキ,,株式会社,大阪府,大阪市都島区,御幸町１丁目５番２号,,27,102,5340012,,,2023-04-11,清算の結了等,,,2015-10-05,1,,,,,アラキ,0
2390,7120001054638,登記記録の閉鎖等,0,2023-04-17,2023-04-12,関西オリオン株式会社,,株式会社,大阪府,大阪市淀川区,西中島４丁目１０番１号,,27,123,5320011,,,2023-04-12,合併による解散等,4100001005488,令和５年４月１日長野県須坂市大字幸高２４６番地オリオン機械株式会社（4100001005488）に合併し解散,2015-10-05,1,,,,,カンサイオリオン,0
2417,7122003001262,登記記録の閉鎖等,0,2023-04-17,2023-04-10,オーマル合同会社,,合同会社,大阪府,大阪市北区,同心２丁目１５番１０－４０１号,,27,127,5300035,,,2023-04-10,清算の結了等,,,2016-10-06,1,,,,,オーマル,0
2421,7130001068059,登記記録の閉鎖等,0,2023-04-17,2023-04-10,株式会社アイサアート,,株式会社,京都府,八幡市,八幡御幸谷４３番地１８,,26,210,6148044,,,2023-04-10,清算の結了等,,,2020-11-20,1,,,,,アイサアート,0
2444,7150001025974,登記記録の閉鎖等,0,2023-04-17,2023-04-06,春香金属興業株式会社,,株式会社,奈良県,葛城市,中戸２９７－１,,29,211,6392146,,,2023-04-06,清算の結了等,,,2022-11-29,1,,,,,シュンコウキンゾクコウギョウ,0
2451,7180001114188,登記記録の閉鎖等,0,2023-04-17,2023-04-12,株式会社ヒューマンリーグ,,株式会社,愛知県,名古屋市中川区,長良町３丁目２３番地３,,23,110,4540815,,,2023-04-12,清算の結了等,,,2015-10-05,1,,,,,ヒューマンリーグ,0
2468,7180301033212,登記記録の閉鎖等,0,2023-04-17,2023-04-03,株式会社文殊の知恵,,株式会社,愛知県,西尾市,東幡豆町深田５８番地,,23,213,4440701,,,2023-04-03,合併による解散等,4180301023851,令和５年４月１日愛知県西尾市東幡豆町深田５８番地株式会社働きごこち研究所（4180301023851）に合併し解散,2019-12-06,1,,,,,モンジュノチエ,0
2472,7180305007336,登記記録の閉鎖等,0,2023-04-17,2023-04-04,幡豆商店街協同組合,,その他の設立登記法人,愛知県,西尾市,西幡豆町中央台１８番地,,23,213,4440703,,,2023-04-04,清算の結了等,,,2015-10-05,1,,,,,ハズショウテンガイ,0
2474,7200001016794,登記記録の閉鎖等,0,2023-04-17,2023-04-03,株式会社Ｊ・Ｂトレーディング,,株式会社,岐阜県,不破郡垂井町,１４３５番地の６,,21,361,5032121,,,2023-04-03,清算の結了等,,,2015-10-05,1,,,,,ジェービートレーディング,0
2475,7200002011638,登記記録の閉鎖等,0,2023-04-17,2023-04-05,有限会社マック・エアーサービス,,有限会社,岐阜県,岐阜市,上川手２３３番地１,,21,201,5008245,,,2023-04-05,清算の結了等,,,2015-10-05,1,,,,,マックエアーサービス,0
2477,7210005005504,登記記録の閉鎖等,0,2023-04-17,2023-04-10,大野市商店街振興組合連合会,,その他の設立登記法人,福井県,大野市,明倫町３番３７号,,18,205,9120083,,,2023-04-10,清算の結了等,,,2015-10-05,1,,,,,オオノシショウテンガイ,0
2509,7300002006339,登記記録の閉鎖等,0,2023-04-17,2023-04-06,有限会社諸石鐵工,,有限会社,佐賀県,嬉野市,嬉野町大字不動山丙３８７４番地,,41,209,8430305,,,2023-04-06,清算の結了等,,,2015-10-05,1,,,,,モロイシテッコウ,0
2513,7310001015629,登記記録の閉鎖等,0,2023-04-17,2023-04-11,順栄海運株式会社,,株式会社,長崎県,壱岐市,石田町久喜触３５９番地,,42,210,8115223,,,2023-04-11,清算の結了等,,,2018-07-05,1,,,,,ジュンエイカイウン,0
2514,7320001013788,登記記録の閉鎖等,0,2023-04-17,2023-04-03,株式会社かがやき,,株式会社,大分県,宇佐市,大字四日市８５１番地の１,,44,211,8790471,,,2023-04-03,合併による解散等,4320001007917,令和５年４月１日大分県宇佐市大字南宇佐２４１６番地株式会社アクト・ケア（4320001007917）に合併し解散,2015-10-05,1,,,,,カガヤキ,0
2526,7370001015796,登記記録の閉鎖等,0,2023-04-17,2023-04-04,株式会社運転管理研修企画,,株式会社,宮城県,仙台市太白区,鹿野本町２－５－１３０３号,,04,104,9820022,,,2023-04-04,清算の結了等,,,2015-10-05,1,,,,,ウンテンカンリケンシュウキカク,0
2535,7420003002358,登記記録の閉鎖等,0,2023-04-17,2023-04-07,合同会社Ｐｒｏｓｐｅｒａｒ,,合同会社,青森県,八戸市,根城７丁目１５番５号,,02,203,0391166,,,2023-04-07,清算の結了等,,,2021-07-26,1,,,,,プロスペラール,0
2545,7490002011436,登記記録の閉鎖等,0,2023-04-17,2023-04-12,有限会社ローゼ,,有限会社,高知県,香美市,土佐山田町旭町２丁目３３番４号,,39,212,7820033,,,2023-04-12,清算の結了等,,,2015-10-05,1,,,,,ローゼ,0
2547,7500001008828,登記記録の閉鎖等,0,2023-04-17,2023-04-13,株式会社ウイッシュフル,,株式会社,愛媛県,松山市,歩行町１丁目１３番３の２２,,38,201,7900801,,,2023-04-13,清算の結了等,,,2015-10-05,1,,,,,ウイッシュフル,0
2576,8010401036477,登記記録の閉鎖等,0,2023-04-17,2023-04-03,株式会社ＯＫＩプロアシスト,,株式会社,東京都,港区,芝浦４丁目１０番１６号,,13,103,1080023,,,2023-04-03,合併による解散等,7010401084171,令和５年４月１日東京都港区芝浦四丁目１０番１６号株式会社ＯＫＩプロサーブ（7010401084171）に合併し解散,2015-10-05,1,,,,,オキプロアシスト,0
2578,8010401086051,登記記録の閉鎖等,0,2023-04-17,2023-04-03,株式会社センターコア,,株式会社,東京都,港区,東麻布１丁目５番２号,,13,103,1060044,,,2023-04-03,合併による解散等,1010401070854,令和５年４月１日東京都港区東麻布一丁目５番２号株式会社ズノー（1010401070854）に合併し解散,2015-10-05,1,,,,,センターコア,0
2580,8010401130833,登記記録の閉鎖等,0,2023-04-17,2023-04-03,日本アルマス工業株式会社,,株式会社,東京都,港区,西新橋１丁目１９番８号虎ノ門ＳＥビル７階,,13,103,1050003,,,2023-04-03,清算の結了等,,,2017-04-18,1,,,,,ニホンアルマスコウギョウ,0
2605,8010901037140,登記記録の閉鎖等,0,2023-04-17,2023-04-06,Ｃｏｎｎｅｃｔｅｄ　Ｄｅｓｉｇｎ株式会社,,株式会社,東京都,渋谷区,南平台町５番６号,,13,113,1500036,,,2023-04-06,合併による解散等,7011001016597,令和５年４月１日東京都渋谷区南平台町５番６号イッツ・コミュニケーションズ株式会社（7011001016597）に合併し解散,2015-11-27,1,,,,,コネクティッドデザイン,0
2607,8011001098189,登記記録の閉鎖等,0,2023-04-17,2023-04-10,株式会社０１,,株式会社,東京都,江東区,白河３丁目４番３－２３０９号,,13,108,1350021,,,2023-04-10,清算の結了等,,,2015-10-05,1,,,,,ゼロワン,0
2636,8012302008828,登記記録の閉鎖等,0,2023-04-17,2023-04-10,有限会社新東興業,,有限会社,東京都,町田市,南町田３丁目３６番２４号,,13,209,1940005,,,2023-04-10,清算の結了等,,,2015-10-05,1,,,,,シントウコウギョウ,0
2641,8013301022308,登記記録の閉鎖等,0,2023-04-17,2023-04-13,応用ジオテクニカルサービス株式会社,,株式会社,東京都,豊島区,池袋２丁目５４番５号,,13,116,1710014,,,2023-04-13,合併による解散等,3030001074203,令和５年４月１日埼玉県川口市本蓮一丁目１１番２１号応用計測サービス株式会社（3030001074203）に合併し解散,2015-10-05,1,,,,,オウヨウジオテクニカルサービス,0
2656,8021001044076,登記記録の閉鎖等,0,2023-04-17,2023-04-11,株式会社ＮＳ設備,,株式会社,神奈川県,三浦市,南下浦町松輪１５２６番地,,14,210,2380104,,,2023-04-11,清算の結了等,,,2015-10-05,1,,,,,エヌエスセツビ,0
2657,8021001045215,登記記録の閉鎖等,0,2023-04-17,2023-04-10,株式会社ｅｃｏｐｒｏ湘南,,株式会社,神奈川県,茅ヶ崎市,赤松町４番３１号,,14,207,2530013,,,2023-04-10,清算の結了等,,,2015-10-05,1,,,,,エコプロショウナン,0
2666,8030001146328,登記記録の閉鎖等,0,2023-04-17,2023-04-04,株式会社ｉｎｆｉｎｉｔｙ,,株式会社,埼玉県,羽生市,大字北袋５７０番地サンシティイズミＩＩ２０３,00125372,11,216,3480028,,,2023-04-04,清算の結了等,,,2022-01-12,1,,,,,インフィニティ,0
2689,8050001050255,登記記録の閉鎖等,0,2023-04-17,2023-04-03,株式会社サカモト,,株式会社,茨城県,結城市,大字結城１２６８１番地,,08,207,3070001,,,2023-04-03,清算の結了等,,,2021-12-06,1,,,,,サカモト,0
2714,8110001005137,登記記録の閉鎖等,0,2023-04-17,2023-04-10,株式会社ホンダ四輪販売関東中央,,株式会社,群馬県,伊勢崎市,田中島町１４０３番１４,,10,204,3720802,,,2023-04-10,合併による解散等,4050001003299,令和５年４月１日栃木県宇都宮市鶴田三丁目１３番１０号株式会社ホンダモビリティ北関東（4050001003299）に合併し解散,2015-10-05,1,,,,,ホンダヨンリンハンバイカントウチュウオウ,0
2717,8110001032206,登記記録の閉鎖等,0,2023-04-17,2023-04-10,株式会社サンシャイントレーディング,,株式会社,新潟県,新潟市西区,鳥原１６７３番地,,15,107,9501115,,,2023-04-10,清算の結了等,,,2017-03-06,1,,,,,サンシャイントレーディング,0
2736,8120001245764,登記記録の閉鎖等,0,2023-04-17,2023-04-11,アンドロメダ製薬株式会社,,株式会社,大阪府,八尾市,山本町南１丁目３番１４号カメリアビル２０１号,,27,212,5810013,,,2023-04-11,清算の結了等,,,2022-05-16,1,,,,,アンドロメダセイヤク,0
2765,8140001029562,登記記録の閉鎖等,0,2023-04-17,2023-04-12,エコホールディングス株式会社,,株式会社,大阪府,豊中市,豊南町南６丁目８番１４号,,27,203,5610815,,,2023-04-12,合併による解散等,3010001230906,令和５年４月１日東京都千代田区丸の内三丁目１番１号ソーラーフロンティアエンジニアリング株式会社（3010001230906）に合併し解散,2015-10-05,1,,,,,エコホールディングス,0
2767,8140001068313,登記記録の閉鎖等,0,2023-04-17,2023-04-12,関西ミニメイドサービス株式会社,,株式会社,大阪府,豊能郡豊能町,光風台４丁目１番１２号,,27,321,5630104,,,2023-04-12,清算の結了等,,,2015-10-05,1,,,,,カンサイミニメイドサービス,0
2783,8140005004124,登記記録の閉鎖等,0,2023-04-17,2023-04-10,特定非営利活動法人関西アジア太平洋共生機構,,その他の設立登記法人,兵庫県,神戸市中央区,再度筋町３番８号,,28,110,6500005,,,2023-04-10,清算の結了等,,,2015-10-05,1,,,,,カンサイアジアタイヘイヨウキョウセイキコウ,0
2801,8180002084611,登記記録の閉鎖等,0,2023-04-17,2023-04-07,有限会社アイドル浦志摩,,有限会社,愛知県,半田市,雁宿町２丁目９４番地の１,,23,205,4750918,,,2023-04-07,清算の結了等,,,2015-10-05,1,,,,,アイドルウラシマ,0
2805,8180301000153,登記記録の閉鎖等,0,2023-04-17,2023-04-05,株式会社浅岡工務店,,株式会社,愛知県,岡崎市,明大寺町字池下２９番地,,23,202,4440864,,,2023-04-05,清算の結了等,,,2015-10-05,1,,,,,アサオカコウムテン,0
2806,8180301007033,登記記録の閉鎖等,0,2023-04-17,2023-04-03,豊鉄観光バス株式会社,,株式会社,愛知県,豊橋市,磯辺下地町字東坪５１番地,,23,201,4418144,,,2023-04-03,合併による解散等,6180301008850,令和５年４月１日愛知県豊橋市植田町字新津田３８番地豊鉄バス株式会社（6180301008850）に合併し解散,2015-10-05,1,,,,,トヨテツカンコウバス,0
2832,8290003012832,登記記録の閉鎖等,0,2023-04-17,2023-04-07,合同会社ＴＮ,,合同会社,福岡県,福岡市城南区,樋井川４丁目３２番２２－４０３号,,40,136,8140153,,,2023-04-07,清算の結了等,,,2022-08-12,1,,,,,ティーエヌ,0
2834,8290801007967,登記記録の閉鎖等,0,2023-04-17,2023-04-14,株式会社岡野電気商会,,株式会社,福岡県,北九州市門司区,老松町４番１８号,,40,101,8010864,,,2023-04-14,清算の結了等,,,2015-10-05,1,,,,,オカノデンキショウカイ,0
2843,8330001011633,登記記録の閉鎖等,0,2023-04-17,2023-04-12,昭和火工株式会社,,株式会社,熊本県,荒尾市,増永２６２０番地,,43,204,8640032,,,2023-04-12,清算の結了等,,,2015-10-05,1,,,,,ショウワカコウ,0
2865,8420002016399,登記記録の閉鎖等,0,2023-04-17,2023-04-07,有限会社アイベスト,,有限会社,青森県,十和田市,東二十二番町３番２０号,,02,206,0340015,,,2023-04-07,清算の結了等,,,2015-10-05,1,,,,,アイベスト,0
2871,8430001067905,登記記録の閉鎖等,0,2023-04-17,2023-04-04,サッポロスタッド株式会社,,株式会社,北海道,恵庭市,中島町６丁目４番地２３,,01,231,0611435,,,2023-04-04,清算の結了等,,,2015-10-05,1,,,,,サッポロスタッド,0
2899,9010002004007,登記記録の閉鎖等,0,2023-04-17,2023-04-05,有限会社ディスカウントショップオリエンタル,,有限会社,東京都,文京区,千駄木３丁目４０番１６号,,13,105,1130022,,,2023-04-05,清算の結了等,,,2015-10-05,1,,,,,ディスカウントショップオリエンタル,0
2901,9010003025803,登記記録の閉鎖等,0,2023-04-17,2023-04-05,ＴＦＪ　ＭＬ１合同会社,,合同会社,東京都,千代田区,内神田２丁目２番６号５階あすな会計事務所内,,13,101,1010047,,,2023-04-05,清算の結了等,,,2017-08-08,1,,,,,ティエフジェイエムエルワン,0
2921,9010501022467,登記記録の閉鎖等,0,2023-04-17,2023-04-13,ＰＨＣメディコム株式会社,,株式会社,東京都,台東区,上野１丁目４番８号,,13,106,1100005,,,2023-04-13,合併による解散等,5011001151479,令和５年４月１日東京都渋谷区渋谷三丁目２５番１８号ウィーメックス株式会社（5011001151479）に合併し解散,2015-10-05,1,,,,,ピーエイチシーメディコム,0
2923,9010601028678,登記記録の閉鎖等,0,2023-04-17,2023-04-06,株式会社東新アクア,,株式会社,東京都,墨田区,亀沢１丁目５番８号,,13,107,1300014,,,2023-04-06,合併による解散等,6010601013600,令和５年４月６日東京都墨田区亀沢一丁目５番８号東新運輸株式会社（6010601013600）に合併し解散,2015-10-05,1,,,,,トウシンアクア,0
2940,9010901023206,登記記録の閉鎖等,0,2023-04-17,2023-04-05,株式会社エフ・チューン,,株式会社,東京都,世田谷区,赤堤２丁目３２番１７号,,13,112,1560044,,,2023-04-05,清算の結了等,,,2015-10-05,1,,,,,エフチューン,0
2954,9011001134001,登記記録の閉鎖等,0,2023-04-17,2023-04-03,Ｄｅｌｉｖｅｒｙ　Ｈｅｒｏ　Ｊａｐａｎ株式会社,,株式会社,東京都,港区,六本木７丁目７番７号トライセブンロッポンギ８階,,13,103,1060032,,,2023-04-03,清算の結了等,,,2020-05-26,1,,,,,デリバリーヒーロージャパン,0
2982,9012301010197,登記記録の閉鎖等,0,2023-04-17,2023-04-10,株式会社ｎｉｎｆａ,,株式会社,東京都,町田市,山崎町２４４番地１,,13,209,1950074,,,2023-04-10,清算の結了等,,,2015-10-05,1,,,,,ニンファ,0
2986,9012402021572,登記記録の閉鎖等,0,2023-04-17,2023-04-10,株式会社ヨウコーキャッスル三鷹,,株式会社,東京都,板橋区,板橋１丁目１０番１４号,,13,119,1730004,,,2023-04-10,合併による解散等,1011802023599,令和５年４月１日東京都板橋区板橋一丁目１０番１４号株式会社ヨウコーフォレスト竹の塚（1011802023599）に合併し解散,2015-10-05,1,,,,,ヨウコーキャッスルミタカ,0
2987,9012701002892,登記記録の閉鎖等,0,2023-04-17,2023-04-13,鈴木管工事株式会社,,株式会社,東京都,西東京市,泉町１丁目１７番４号,,13,229,2020011,,,2023-04-13,清算の結了等,,,2015-10-05,1,,,,,スズキカンコウジ,0
2997,9013405000794,登記記録の閉鎖等,0,2023-04-17,2023-04-04,特定非営利活動法人稲城・なごみの家,,その他の設立登記法人,東京都,稲城市,東長沼６１７番地１,,13,225,2060802,,,2023-04-04,清算の結了等,,,2015-10-05,1,,,,,イナギナゴミノイエ,0
3013,9021002013624,登記記録の閉鎖等,0,2023-04-17,2023-04-10,有限会社湘南建材,,有限会社,神奈川県,茅ヶ崎市,松が丘１丁目９番１８号,,14,207,2530025,,,2023-04-10,清算の結了等,,,2015-10-05,1,,,,,ショウナンケンザイ,0
3016,9030001131915,登記記録の閉鎖等,0,2023-04-17,2023-04-03,株式会社Ｌｉｚｚ．,,株式会社,埼玉県,草加市,瀬崎１丁目９番１－２２１６号,,11,221,3400022,,,2023-04-03,合併による解散等,2030001109364,令和５年４月１日埼玉県草加市瀬崎一丁目９番１－２２０７号株式会社ＡＲＡＴＡ（2030001109364）に合併し解散,2019-07-10,1,,,,,リズ,0
3029,9040001004574,登記記録の閉鎖等,0,2023-04-17,2023-04-03,株式会社千葉幸文堂,,株式会社,千葉県,千葉市中央区,問屋町１５番３号,,12,101,2600025,,,2023-04-03,清算の結了等,,,2015-10-05,1,,,,,,0
3048,9050001028317,登記記録の閉鎖等,0,2023-04-17,2023-04-11,株式会社オリエンタル商事,,株式会社,茨城県,つくばみらい市,伊奈東３４番地５２２,,08,235,3002308,,,2023-04-11,合併による解散等,9010001136651,令和５年４月１日東京都新宿区西新宿八丁目１７番１号サントリービバレッジソリューション株式会社（9010001136651）に合併し解散,2015-10-05,1,,,,,オリエンタルショウジ,0
3055,9070001001197,登記記録の閉鎖等,0,2023-04-17,2023-04-10,株式会社リクルート北関東マーケティング,,株式会社,群馬県,高崎市,栄町１４番１号高崎イーストセンタービル６Ｆ,,10,202,3700841,,,2023-04-10,合併による解散等,5010001149426,令和５年４月１日東京都千代田区丸の内一丁目９番２号株式会社リクルート（5010001149426）に合併し解散,2015-10-05,1,,,,,リクルートキタカントウマーケティング,0
3057,9070002028561,登記記録の閉鎖等,0,2023-04-17,2023-04-11,有限会社尾高建設,,有限会社,群馬県,太田市,堀口町２５４番地の１,,10,205,3700414,,,2023-04-11,清算の結了等,,,2015-10-05,1,,,,,オダカケンセツ,0
3066,9100001015838,登記記録の閉鎖等,0,2023-04-17,2023-04-05,株式会社塩尻アンタレス,,株式会社,長野県,塩尻市,大字塩尻町１００番地,,20,215,3990712,,,2023-04-05,清算の結了等,,,2023-03-16,1,,,,,シオジリアンタレス,0
3091,9120101048174,登記記録の閉鎖等,0,2023-04-17,2023-04-12,株式会社双和販売,,株式会社,大阪府,富田林市,若松町東３丁目７番２６号,,27,214,5840023,,,2023-04-12,清算の結了等,,,2015-10-05,1,,,,,ソウワハンバイ,0
3097,9120102000159,登記記録の閉鎖等,0,2023-04-17,2023-04-10,有限会社アイエスティー,,有限会社,大阪府,堺市堺区,出島海岸通１丁１１番５－３０１号,,27,141,5900833,,,2023-04-10,清算の結了等,,,2015-10-05,1,,,,,アイエスティー,0
3099,9120102006750,登記記録の閉鎖等,0,2023-04-17,2023-04-13,有限会社エイアンドイ,,有限会社,大阪府,堺市東区,北野田１１８番地の１５,,27,143,5998123,,,2023-04-13,清算の結了等,,,2015-10-05,1,,,,,エイアンドイ,0
3114,9130001002957,登記記録の閉鎖等,0,2023-04-17,2023-04-11,株式会社コスモスジャパン,,株式会社,京都府,京都市上京区,新町通上立売上る安楽小路町４１８番地の１,,26,102,6020064,,,2023-04-11,清算の結了等,,,2015-10-05,1,,,,,コスモスジャパン,0
3116,9130001058173,登記記録の閉鎖等,0,2023-04-17,2023-04-05,トキオ・プロパティ・ジャパン株式会社,,株式会社,京都府,八幡市,八幡三本橋４４番地の１,,26,210,6148093,,,2023-04-05,清算の結了等,,,2016-08-30,1,,,,,トキオプロパティジャパン,0
3143,9140005023404,登記記録の閉鎖等,0,2023-04-17,2023-04-11,地域医療連携推進法人はりま姫路総合医療センター整備推進機構,,その他の設立登記法人,兵庫県,神戸市中央区,下山手通５丁目１０番１号,,28,110,6500011,,,2023-04-11,清算の結了等,,,2017-02-27,1,,,,,ハリマヒメジソウゴウイリョウセンターセイビスイシンキコウ,0
3145,9150002006294,登記記録の閉鎖等,0,2023-04-17,2023-04-12,有限会社信和,,有限会社,奈良県,生駒郡三郷町,勢野北４丁目１３番１号,,29,343,6360815,,,2023-04-12,合併による解散等,7120001049282,令和５年４月１日大阪市北区中津三丁目１１番２－２０８号株式会社ハートランド（7120001049282）に合併し解散,2015-10-05,1,,,,,シンワ,0
3146,9160001009999,登記記録の閉鎖等,0,2023-04-17,2023-04-10,谷口酸素工業株式会社,,株式会社,滋賀県,東近江市,中野町７２７番地,,25,213,5270015,,,2023-04-10,合併による解散等,6120001111687,令和５年４月１日大阪市港区波除一丁目１番２５号西日本イワタニガス株式会社（6120001111687）に合併し解散,2015-10-05,1,,,,,タニグチサンソコウギョウ,0
3147,9160001014669,登記記録の閉鎖等,0,2023-04-17,2023-04-13,株式会社ジェイ・フロント,,株式会社,滋賀県,草津市,野村３丁目１０番３号,,25,206,5250027,,,2023-04-13,清算の結了等,,,2015-10-05,1,,,,,ジェイフロント,0
3152,9180001028493,登記記録の閉鎖等,0,2023-04-17,2023-04-06,株式会社筒井プラスチック,,株式会社,愛知県,名古屋市緑区,姥子山４丁目１３５番地,,23,114,4580830,,,2023-04-06,清算の結了等,,,2015-10-05,1,,,,,ツツイプラスチック,0
3153,9180001042057,登記記録の閉鎖等,0,2023-04-17,2023-04-10,株式会社若葉ツーリスト,,株式会社,愛知県,名古屋市瑞穂区,田辺通１丁目２２番地１１,,23,108,4670027,,,2023-04-10,清算の結了等,,,2015-10-05,1,,,,,ワカバツーリスト,0
3182,9190003000887,登記記録の閉鎖等,0,2023-04-17,2023-04-07,合名会社貴舟,,合名会社,三重県,度会郡玉城町,中楽４０１番地１,,24,461,5190412,,,2023-04-07,清算の結了等,,,2015-10-05,1,,,,,キフネ,0
3183,9200001035743,登記記録の閉鎖等,0,2023-04-17,2023-04-06,株式会社Ｓｗｅｅｔｓ　Ｅｓｓｅｎｃｅ,,株式会社,岐阜県,岐阜市,琴塚２丁目７番９号,,21,201,5008222,,,2023-04-06,清算の結了等,,,2018-11-27,1,,,,,スイーツエッセンス,0
3192,9240001038206,登記記録の閉鎖等,0,2023-04-17,2023-04-03,瀬戸内通信鋼業株式会社,,株式会社,広島県,尾道市,高須町５７２８番地,,34,205,7290141,,,2023-04-03,合併による解散等,2240001060331,令和５年４月１日広島県尾道市高須町５７２８番地株式会社ＨＩＦ‐Ｆ（2240001060331）に合併し解散,2015-10-05,1,,,,,セトウチツウシンコウギョウ,0
3199,9250002010229,登記記録の閉鎖等,0,2023-04-17,2023-04-05,有限会社吉岡経営会計センター,,有限会社,山口県,下関市,稗田町７番１号,00002669,35,201,7510858,,,2023-04-05,清算の結了等,,,2015-10-05,1,,,,,ヨシオカケイエイカイケイセンター,0
3205,9260002004997,登記記録の閉鎖等,0,2023-04-17,2023-04-10,有限会社章,,有限会社,岡山県,岡山市北区,表町２丁目５番４号,,33,101,7000822,,,2023-04-10,清算の結了等,,,2015-10-05,1,,,,,ショウ,0
3206,9260002024822,登記記録の閉鎖等,0,2023-04-17,2023-04-07,インテリアかきぎ有限会社,,有限会社,岡山県,浅口市,鴨方町六条院中２３０１番地の８,,33,216,7190252,,,2023-04-07,清算の結了等,,,2015-10-05,1,,,,,インテリアカキギ,0
3208,9290001009524,登記記録の閉鎖等,0,2023-04-17,2023-04-06,西鉄電設工業株式会社,,株式会社,福岡県,福岡市博多区,三筑２丁目２０番６号,,40,132,8120887,,,2023-04-06,合併による解散等,6290001009527,令和５年４月１日福岡市中央区今泉一丁目１２番２３号西鉄ビルマネージメント株式会社（6290001009527）に合併し解散,2015-10-05,1,,,,,ニシテツデンセツコウギョウ,0
3218,9310001007129,登記記録の閉鎖等,0,2023-04-17,2023-04-10,オオシマ農産株式会社,,株式会社,長崎県,西海市,大島町１３２４番地５,,42,212,8572427,,,2023-04-10,清算の結了等,,,2015-10-05,1,,,,,オオシマノウサン,0
3220,9320001013233,登記記録の閉鎖等,0,2023-04-17,2023-04-06,株式会社エスパ,,株式会社,大分県,大分市,東春日町６番６－８０５号（アスティオン春日）,,44,201,8700037,,,2023-04-06,清算の結了等,,,2015-10-05,1,,,,,エスパ,0
3221,9320002009973,登記記録の閉鎖等,0,2023-04-17,2023-04-10,有限会社エムエステート,,有限会社,大分県,大分市,今津留２丁目１０番１３号,,44,201,8700938,,,2023-04-10,清算の結了等,,,2015-10-05,1,,,,,,0
3231,9360001011943,登記記録の閉鎖等,0,2023-04-17,2023-04-11,株式会社アイランドホーム,,株式会社,沖縄県,うるま市,字宮里６１９番地１０,,47,213,9042243,,,2023-04-11,清算の結了等,,,2015-10-05,1,,,,,アイランドホーム,0
3236,9360003003600,登記記録の閉鎖等,0,2023-04-17,2023-04-03,合資会社北谷交通,,合資会社,沖縄県,中頭郡北谷町,字桑江４８７番地６,,47,326,9040103,,,2023-04-03,合併による解散等,3360003002995,令和５年４月１日沖縄県沖縄市古謝二丁目１番３０号東島タクシー合名会社（3360003002995）に合併し解散,2015-10-05,1,,,,,チャタンコウツウ,0
3238,9360005006171,登記記録の閉鎖等,0,2023-04-17,2023-04-03,一般社団法人全国高等学校ｅスポーツ連盟沖縄,,その他の設立登記法人,沖縄県,那覇市,字天久１１３１番地１１,,47,201,9000005,,,2023-04-03,清算の結了等,,,2020-03-12,1,,,,,ゼンコクコウトウガッコウイースポーツレンメイオキナワ,0
3247,9430001060355,登記記録の閉鎖等,0,2023-04-17,2023-04-07,株式会社道新デジタルメディア,,株式会社,北海道,札幌市中央区,大通西３丁目６番地,,01,101,0600042,,,2023-04-07,合併による解散等,4430001011420,令和５年４月１日札幌市中央区大通西三丁目６番地株式会社道新アクセス（4430001011420）に合併し解散,2015-10-05,1,,,,,ドウシンデジタルメディア,0
