sequenceNumber,corporateNumber,process,correct,updateDate,changeDate,name,nameImageId,kind,prefectureName,cityName,streetNumber,addressImageId,prefectureCode,cityCode,postCode,addressOutside,addressOutsideImageId,closeDate,closeCause,successorCorporateNumber,changeCause,assignmentDate,latest,enName,enPrefectureName,enCityName,enAddressOutside,furigana,hihyoji
2,1010001079718,登記記録の閉鎖等,0,2025-12-11,2025-11-25,サンアルファディベロプメント株式会社,,株式会社,東京都,千代田区,内神田２丁目６番８号,,13,101,1010047,,,2025-11-25,清算の結了等,,,2015-10-05,1,,,,,サンアルファディベロプメント,0
13,1010002032238,登記記録の閉鎖等,0,2025-12-11,2025-12-08,有限会社長山事務所,,有限会社,東京都,小金井市,桜町２丁目１２番２６号,,13,210,1840005,,,2025-12-08,清算の結了等,,,2015-10-05,1,,,,,ナガヤマジムショ,0
20,1010401100487,登記記録の閉鎖等,0,2025-12-11,2025-11-19,株式会社大手町通商,,株式会社,東京都,千代田区,大手町１丁目６番１号大手町ビル３階,,13,101,1000004,,,2025-11-19,清算の結了等,,,2015-10-05,1,,,,,オオテマチツウショウ,0
25,1010405020129,登記記録の閉鎖等,0,2025-12-11,2025-11-19,虎ノ門ワン特定目的会社,,その他の設立登記法人,東京都,港区,虎ノ門３丁目２２番１０－２０１号,,13,103,1050001,,,2025-11-19,清算の結了等,,,2021-08-20,1,,,,,トラノモンワン,0
39,1011001103797,登記記録の閉鎖等,0,2025-12-11,2025-11-17,株式会社アルコイーリス・クリエイション,,株式会社,東京都,目黒区,目黒１丁目６番１３号,,13,110,1530063,,,2025-11-17,清算の結了等,,,2015-10-05,1,,,,,アルコイーリスクリエイション,0
41,1011001155351,登記記録の閉鎖等,0,2025-12-11,2025-11-17,株式会社ｃｏｍ‐ｔｅｘｔ,,株式会社,東京都,渋谷区,幡ヶ谷１丁目２－２京王幡ヶ谷ビル４Ｆ,,13,113,1510072,,,2025-11-17,清算の結了等,,,2023-06-30,1,,,,,コンテキスト,0
68,1020001023690,登記記録の閉鎖等,0,2025-12-11,2025-12-08,田畑ラヂエーター株式会社,,株式会社,神奈川県,横浜市西区,平沼２丁目７番２３－３０３号,,14,103,2200023,,,2025-12-08,清算の結了等,,,2015-10-05,1,,,,,タバタラヂエーター,0
70,1020001038482,登記記録の閉鎖等,0,2025-12-11,2025-12-05,メイホー株式会社,,株式会社,神奈川県,横浜市青葉区,美しが丘５丁目７番地５２,,14,117,2250002,,,2025-12-05,清算の結了等,,,2015-10-05,1,,,,,メイホー,0
75,1020002016256,登記記録の閉鎖等,0,2025-12-11,2025-11-19,有限会社小川製材所,,有限会社,神奈川県,横浜市西区,浅間町１丁目２０番地の８,,14,103,2200072,,,2025-11-19,合併による解散等,3020001014440,令和７年１１月１８日横浜市西区浅間町一丁目２０番地の８小川建設株式会社（3020001014440）に合併し解散,2015-10-05,1,,,,,オガワセイザイショ,0
77,1020002083461,登記記録の閉鎖等,0,2025-12-11,2025-12-05,有限会社オクト都市設計室,,有限会社,神奈川県,川崎市中原区,新城５丁目１番４号,,14,133,2110044,,,2025-12-05,清算の結了等,,,2015-10-05,1,,,,,,0
82,1021001068783,登記記録の閉鎖等,0,2025-12-11,2025-11-25,株式会社ＳＨＩＭＩＺＵ　ＡＲＣＨＩＴＥＣＴ,,株式会社,神奈川県,座間市,相模が丘１丁目３４番２７号,,14,216,2520001,,,2025-11-25,清算の結了等,,,2019-12-06,1,,,,,シミズアーキテクト,0
83,1021001081002,登記記録の閉鎖等,0,2025-12-11,2025-11-25,西建株式会社,,株式会社,神奈川県,小田原市,田島３７番地の１３,,14,206,2560811,,,2025-11-25,清算の結了等,,,2023-12-19,1,,,,,,0
86,1021003013424,登記記録の閉鎖等,0,2025-12-11,2025-11-25,ＲＡＭＩＡ合同会社,,合同会社,神奈川県,藤沢市,辻堂元町５丁目１６番２７号マロード湘南２０２,,14,205,2510043,,,2025-11-25,清算の結了等,,,2023-08-10,1,,,,,ラーミア,0
87,1021005006574,登記記録の閉鎖等,0,2025-12-11,2025-10-06,特定非営利活動法人ゆいの会,,その他の設立登記法人,神奈川県,小田原市,成田７１０番地の１０,,14,206,2500862,,,2025-10-06,清算の結了等,,,2015-10-05,1,,,,,ユイノカイ,0
88,1030001013848,登記記録の閉鎖等,0,2025-12-11,2025-12-05,株式会社ＫＴＹ商会,,株式会社,埼玉県,さいたま市緑区,大字下山口新田１４番地,,11,109,3360925,,,2025-12-05,清算の結了等,,,2015-10-05,1,,,,,ケイティーワイショウカイ,0
106,1050001011453,登記記録の閉鎖等,0,2025-12-11,2025-12-03,関東地質調査株式会社,,株式会社,茨城県,石岡市,柿岡１０９番地の３,,08,205,3150116,,,2025-12-03,清算の結了等,,,2015-10-05,1,,,,,カントウチシツチョウサ,0
113,1080401016132,登記記録の閉鎖等,0,2025-12-11,2025-12-01,株式会社静岡情報ビジネス,,株式会社,静岡県,磐田市,海老島５２５番地,,22,211,4380212,,,2025-12-01,清算の結了等,,,2015-10-05,1,,,,,シズオカジョウホウビジネス,0
114,1080401019564,登記記録の閉鎖等,0,2025-12-11,2025-12-01,株式会社アロック,,株式会社,静岡県,浜松市浜名区,平口５３９３番地,,22,139,4340041,,,2025-12-01,清算の結了等,,,2015-10-05,1,,,,,アロック,0
118,1080405000099,登記記録の閉鎖等,0,2025-12-11,2025-12-01,浜松わた協業組合,,その他の設立登記法人,静岡県,浜松市中央区,高丘西３丁目２３番３５号,,22,138,4338118,,,2025-12-01,清算の結了等,,,2015-10-05,1,,,,,ハママツワタ,0
126,1120001037747,登記記録の閉鎖等,0,2025-12-11,2025-12-08,株式会社河野商店,,株式会社,大阪府,大阪市浪速区,敷津西２丁目８番２１号,,27,111,5560015,,,2025-12-08,清算の結了等,,,2015-10-05,1,,,,,コウノショウテン,0
133,1120001270926,登記記録の閉鎖等,0,2025-12-11,2025-12-09,株式会社赤松,,株式会社,大阪府,大阪市生野区,巽北１丁目１番１号３Ｆ－Ｇ,00137303,27,116,5440004,,,2025-12-09,清算の結了等,,,2024-12-11,1,,,,,アカマツ,0
145,1122001025590,登記記録の閉鎖等,0,2025-12-11,2025-12-01,株式会社創寿工芸,,株式会社,大阪府,八尾市,竹渕西１丁目７番地,,27,212,5810051,,,2025-12-01,清算の結了等,,,2015-10-05,1,,,,,ソウジュコウゲイ,0
164,1180001133482,登記記録の閉鎖等,0,2025-12-11,2025-12-05,株式会社ＥＮＴＬＩＦＥ,,株式会社,愛知県,名古屋市中区,丸の内２丁目１７番３０号,,23,106,4600002,,,2025-12-05,清算の結了等,,,2018-08-20,1,,,,,エントライフ,0
167,1180001144752,登記記録の閉鎖等,0,2025-12-11,2025-12-03,飛田設備株式会社,,株式会社,愛知県,名古屋市中川区,中島新町１丁目３０６番地,,23,110,4540932,,,2025-12-03,清算の結了等,,,2021-02-12,1,,,,,,0
169,1180001166482,登記記録の閉鎖等,0,2025-12-11,2025-12-05,五幸商事株式会社,,株式会社,愛知県,名古屋市中区,栄２丁目８番８号松本ビル内,,23,106,4600008,,,2025-12-05,清算の結了等,,,2025-05-19,1,,,,,ゴコウショウジ,0
182,1190002017964,登記記録の閉鎖等,0,2025-12-11,2025-12-04,有限会社川添工業所,,有限会社,三重県,いなべ市,大安町丹生川上１０９４番地の１,,24,214,5110261,,,2025-12-04,清算の結了等,,,2015-10-05,1,,,,,カワゾエコウギョウショ,0
186,1230001001130,登記記録の閉鎖等,0,2025-12-11,2025-12-08,株式会社ジェイテック,,株式会社,富山県,富山市,布瀬町南１丁目４－１１,,16,201,9398208,,,2025-12-08,清算の結了等,,,2015-10-05,1,,,,,ジェイテック,0
188,1230001005701,登記記録の閉鎖等,0,2025-12-11,2025-12-08,株式会社ＡＩコンサルティング,,株式会社,富山県,富山市,白銀町６番３号,,16,201,9300048,,,2025-12-08,清算の結了等,,,2015-10-05,1,,,,,エイアイコンサルティング,0
189,1240001040367,登記記録の閉鎖等,0,2025-12-11,2025-12-04,株式会社アクシアクリエーション,,株式会社,広島県,広島市東区,牛田中１丁目１番１１号,,34,102,7320065,,,2025-12-04,清算の結了等,,,2015-10-05,1,,,,,アクシアクリエーション,0
195,1250001006607,登記記録の閉鎖等,0,2025-12-11,2025-12-10,和田電機株式会社,,株式会社,山口県,下関市,彦島福浦町２丁目２０番１１号,,35,201,7500087,,,2025-12-10,清算の結了等,,,2015-10-05,1,,,,,ワダデンキ,0
203,1290001068767,登記記録の閉鎖等,0,2025-12-11,2025-11-21,株式会社九州トータルプランニング,,株式会社,福岡県,春日市,大和町２丁目９番地１－５０１号,,40,218,8160874,,,2025-11-21,清算の結了等,,,2015-10-05,1,,,,,キュウシュウトータルプランニング,0
205,1290001085267,登記記録の閉鎖等,0,2025-12-11,2025-12-01,株式会社デジタル・ＡＩ,,株式会社,福岡県,福岡市博多区,博多駅中央街５番１１号,,40,132,8120012,,,2025-12-01,合併による解散等,5290001028577,令和７年１２月１日福岡市早良区百道浜三丁目８番３３－６０５株式会社デジタル・アイ（5290001028577）に合併し解散,2019-05-22,1,,,,,デジタルエーアイ,0
220,1370001008079,登記記録の閉鎖等,0,2025-12-11,2025-12-04,株式会社創新,,株式会社,宮城県,仙台市青葉区,台原３丁目１５番２号,,04,101,9810911,,,2025-12-04,清算の結了等,,,2015-10-05,1,,,,,ソウシン,0
234,1500001002687,登記記録の閉鎖等,0,2025-12-11,2025-12-10,株式会社チェリーホームサービス,,株式会社,愛媛県,松山市,大手町１丁目１３番地１２,,38,201,7900067,,,2025-12-10,清算の結了等,,,2015-10-05,1,,,,,チェリーホームサービス,0
251,2010001172348,登記記録の閉鎖等,0,2025-12-11,2025-11-26,グローバル・エデュケーション・キャピタル株式会社,,株式会社,東京都,中央区,日本橋室町１丁目１０番１１号ｂｅｌｌｅ日本橋,,13,102,1030022,,,2025-11-26,清算の結了等,,,2015-12-17,1,,,,,グローバルエデュケーションキャピタル,0
268,2010401173210,登記記録の閉鎖等,0,2025-12-11,2025-11-18,ＯＲＥＧＮＡ株式会社,,株式会社,東京都,港区,六本木４丁目１０番３号第Ｖ大栄ビル５Ｆ,00129850,13,103,1060032,,,2025-11-18,清算の結了等,,,2023-03-24,1,,,,,オレジナ,0
284,2010901014302,登記記録の閉鎖等,0,2025-12-11,2025-11-21,株式会社誠香,,株式会社,東京都,世田谷区,尾山台１丁目１６番８号,,13,112,1580086,,,2025-11-21,合併による解散等,3010901016165,令和７年１１月２１日東京都世田谷区尾山台一丁目１６番８号誠香インベストメント株式会社（3010901016165）に合併し解散,2015-10-05,1,,,,,セイカ,0
290,2011001124289,登記記録の閉鎖等,0,2025-12-11,2025-11-17,株式会社Ｇｌｏｒｉａ,,株式会社,東京都,目黒区,東山３丁目１番４号ニューリバー東山１階,,13,110,1530043,,,2025-11-17,清算の結了等,,,2018-09-20,1,,,,,グローリア,0
299,2011101007542,登記記録の閉鎖等,0,2025-12-11,2025-11-19,株式会社栄プロダクション,,株式会社,東京都,新宿区,四谷３丁目１３番１１号,,13,104,1600004,,,2025-11-19,清算の結了等,,,2015-10-05,1,,,,,サカエプロダクション,0
308,2011401002193,登記記録の閉鎖等,0,2025-12-11,2025-12-05,株式会社コスモ電工,,株式会社,東京都,板橋区,板橋１丁目４３番６号,,13,119,1730004,,,2025-12-05,清算の結了等,,,2015-10-05,1,,,,,コスモデンコウ,0
312,2011501025359,登記記録の閉鎖等,0,2025-12-11,2025-11-17,株式会社Ｈｅｌｌｏ　Ｎａｔｕｒｅ,,株式会社,東京都,渋谷区,道玄坂１丁目１０番８号渋谷道玄坂東急ビル２Ｆ－Ｃ,,13,113,1500043,,,2025-11-17,清算の結了等,,,2019-11-27,1,,,,,ハローネイチャー,0
315,2011701015052,登記記録の閉鎖等,0,2025-12-11,2025-12-03,株式会社ジャパンエクスプレス,,株式会社,東京都,江戸川区,西小岩３丁目１７－７ＨａｌｅＭｏａｎａｅｌｕａ１,,13,123,1330057,,,2025-12-03,清算の結了等,,,2015-10-05,1,,,,,ジャパンエクスプレス,0
317,2011801004129,登記記録の閉鎖等,0,2025-12-11,2025-12-09,株式会社フジケン工務店,,株式会社,東京都,葛飾区,細田３丁目１８番１１号,,13,122,1240021,,,2025-12-09,清算の結了等,,,2015-10-05,1,,,,,フジケンコウムテン,0
321,2013301030522,登記記録の閉鎖等,0,2025-12-11,2025-12-01,マーレベーアジャパン株式会社,,株式会社,東京都,豊島区,北大塚１丁目９番１２号,,13,116,1700004,,,2025-12-01,合併による解散等,8013301007523,令和７年１２月１日東京都豊島区北大塚一丁目９番１２号マーレジャパン株式会社（8013301007523）に合併し解散,2015-10-05,1,,,,,マーレベーアジャパン,0
325,2020001098600,登記記録の閉鎖等,0,2025-12-11,2025-12-09,株式会社ブラスト,,株式会社,神奈川県,横浜市西区,南幸２丁目１２番１０号,,14,103,2200005,,,2025-12-09,清算の結了等,,,2015-10-05,1,,,,,ブラスト,0
328,2020001120693,登記記録の閉鎖等,0,2025-12-11,2025-12-08,株式会社リープライズ,,株式会社,神奈川県,横浜市中区,常盤町３丁目３６番地関内ＳＳビル７階,,14,104,2310014,,,2025-12-08,清算の結了等,,,2017-04-13,1,,,,,リープライズ,0
335,2020002032319,登記記録の閉鎖等,0,2025-12-11,2025-12-01,有限会社秋元屋,,有限会社,神奈川県,横浜市港北区,大倉山７丁目１５番５号,,14,109,2220037,,,2025-12-01,清算の結了等,,,2015-10-05,1,,,,,アキモトヤ,0
353,2030002073015,登記記録の閉鎖等,0,2025-12-11,2025-12-03,有限会社木村屋,,有限会社,埼玉県,川越市,新宿町５丁目１６番地７,,11,201,3501124,,,2025-12-03,清算の結了等,,,2015-10-05,1,,,,,キムラヤ,0
359,2040001136564,登記記録の閉鎖等,0,2025-12-11,2025-11-19,株式会社ＱＣＦ,,株式会社,千葉県,浦安市,高洲５丁目１番Ｆ－１０６号レジアスフォート新浦安,,12,227,2790023,,,2025-11-19,清算の結了等,,,2024-12-16,1,,,,,キュウシーエフ,0
368,2070001010989,登記記録の閉鎖等,0,2025-12-11,2025-12-05,和田建設工業株式会社,,株式会社,群馬県,高崎市,倉賀野町２４５６番地１２,,10,202,3701201,,,2025-12-05,清算の結了等,,,2015-10-05,1,,,,,ワダケンセツコウギョウ,0
373,2080005007196,登記記録の閉鎖等,0,2025-12-11,2025-12-02,一般社団法人川根バイクランド,,その他の設立登記法人,静岡県,榛原郡川根本町,地名３６４番地の１,,22,429,4280305,,,2025-12-02,清算の結了等,,,2019-07-04,1,,,,,カワネバイクランド,0
376,2080402015545,登記記録の閉鎖等,0,2025-12-11,2025-12-01,有限会社福和電話工業所,,有限会社,静岡県,浜松市浜名区,於呂２８３０番地の３６,,22,139,4340015,,,2025-12-01,清算の結了等,,,2015-10-05,1,,,,,フクワデンワコウギョウショ,0
377,2100002007948,登記記録の閉鎖等,0,2025-12-11,2025-12-09,有限会社起永,,有限会社,長野県,長野市,大字上駒沢３４６番地９,,20,201,3810082,,,2025-12-09,清算の結了等,,,2015-10-05,1,,,,,キエイ,0
393,2120002011808,登記記録の閉鎖等,0,2025-12-11,2025-12-09,有限会社ハシモト縫製,,有限会社,大阪府,大阪市平野区,長吉六反３丁目１６番１０号,,27,126,5470012,,,2025-12-09,清算の結了等,,,2015-10-05,1,,,,,ハシモトホウセイ,0
406,2122001014832,登記記録の閉鎖等,0,2025-12-11,2025-12-10,ワコー株式会社,,株式会社,大阪府,東大阪市,若江東町３丁目３番４３号,,27,227,5780935,,,2025-12-10,清算の結了等,,,2015-10-05,1,,,,,ワコー,0
409,2130001005140,登記記録の閉鎖等,0,2025-12-11,2025-12-08,株式会社ディレクション,,株式会社,京都府,京都市北区,大宮玄琢北東町３番地４７,,26,101,6038461,,,2025-12-08,清算の結了等,,,2015-10-05,1,,,,,ディレクション,0
412,2130001036945,登記記録の閉鎖等,0,2025-12-11,2025-12-08,株式会社森西鉄工所,,株式会社,京都府,相楽郡精華町,大字植田小字川佐２３番地３,,26,366,6190236,,,2025-12-08,清算の結了等,,,2015-10-05,1,,,,,モリニシテッコウショ,0
415,2130002025831,登記記録の閉鎖等,0,2025-12-11,2025-12-01,株式会社匠南建設,,株式会社,京都府,京都市西京区,大原野上里南ノ町１１７－１,,26,111,6101123,,,2025-12-01,合併による解散等,8130002011396,令和７年１２月１日京都市西京区大原野上里南ノ町１１７－１株式会社匠南建設（8130002011396）に合併し解散,2015-10-05,1,,,,,ショウナンケンセツ,0
422,2180001046015,登記記録の閉鎖等,0,2025-12-11,2025-12-05,丸一水道株式会社,,株式会社,愛知県,北名古屋市,宇福寺天神６６番地,,23,234,4810035,,,2025-12-05,清算の結了等,,,2015-10-05,1,,,,,マルイチスイドウ,0
423,2180001097900,登記記録の閉鎖等,0,2025-12-11,2025-12-05,株式会社真榮製作所,,株式会社,愛知県,あま市,森１丁目２番地１４,,23,237,4901107,,,2025-12-05,清算の結了等,,,2015-10-05,1,,,,,シンエイセイサクショ,0
424,2180001102692,登記記録の閉鎖等,0,2025-12-11,2025-12-05,株式会社ＦＴＧインシュランス,,株式会社,愛知県,名古屋市西区,秩父通２丁目７８番地の２,,23,104,4510024,,,2025-12-05,清算の結了等,,,2015-10-05,1,,,,,エフティージーインシュランス,0
431,2180002004517,登記記録の閉鎖等,0,2025-12-11,2025-12-08,有限会社精光堂,,有限会社,愛知県,名古屋市千種区,城木町３丁目８番地の８,,23,101,4640846,,,2025-12-08,清算の結了等,,,2015-10-05,1,,,,,セイコウドウ,0
432,2180002017551,登記記録の閉鎖等,0,2025-12-11,2025-12-05,有限会社恵夢,,有限会社,愛知県,名古屋市中村区,烏森町６丁目４１番地,,23,105,4530855,,,2025-12-05,清算の結了等,,,2015-10-05,1,,,,,エム,0
439,2190001008393,登記記録の閉鎖等,0,2025-12-11,2025-12-03,上野運送株式会社,,株式会社,大阪府,大阪市都島区,東野田町４丁目１番１７号,,27,102,5340024,,,2025-12-03,合併による解散等,5120001014726,令和７年１２月２日大阪市都島区東野田町四丁目１番１７号株式会社日本ロジックス（5120001014726）に合併し解散,2015-10-05,1,,,,,ウエノウンソウ,0
440,2190002022451,登記記録の閉鎖等,0,2025-12-11,2025-12-08,有限会社矢田九郎兵衛佛壇店,,有限会社,三重県,四日市市,諏訪町１０番６号,,24,202,5100085,,,2025-12-08,清算の結了等,,,2015-10-05,1,,,,,ヤダクロベイブツダンテン,0
458,2250005004829,登記記録の閉鎖等,0,2025-12-11,2025-12-08,医療法人齋藤医院,,その他の設立登記法人,山口県,阿武郡阿武町,大字奈古２８６０番地１,,35,502,7593622,,,2025-12-08,清算の結了等,,,2015-10-05,1,,,,,サイトウイイン,0
459,2250005006445,登記記録の閉鎖等,0,2025-12-11,2025-12-08,光明寺,,その他の設立登記法人,山口県,岩国市,本郷町本谷１４９番地,,35,208,7400601,,,2025-12-08,清算の結了等,,,2015-10-05,1,,,,,コウミョウジ,0
478,2340002005003,登記記録の閉鎖等,0,2025-12-11,2025-12-04,照明電工有限会社,,有限会社,鹿児島県,鹿児島市,甲突町１１番２７号,,46,201,8920837,,,2025-12-04,清算の結了等,,,2015-10-05,1,,,,,ショウメイデンコウ,0
480,2340002012164,登記記録の閉鎖等,0,2025-12-11,2025-12-01,株式会社デザイア,,株式会社,鹿児島県,鹿児島市,伊敷６丁目１２番３２号,,46,201,8900008,,,2025-12-01,合併による解散等,8340001004173,令和７年１２月１日鹿児島市伊敷六丁目１２番３２号株式会社三竹工業（8340001004173）に合併し解散,2015-10-05,1,,,,,デザイア,0
490,2380002008753,登記記録の閉鎖等,0,2025-12-11,2025-12-01,有限会社川嶋,,有限会社,福島県,郡山市,熱海町熱海３丁目１１５番地,,07,203,9631309,,,2025-12-01,清算の結了等,,,2015-10-05,1,,,,,カワシマ,0
495,2430001000111,登記記録の閉鎖等,0,2025-12-11,2025-12-03,株式会社アイ・ジー・エル,,株式会社,北海道,札幌市中央区,円山西町９丁目４番３－４０９号,,01,101,0640944,,,2025-12-03,清算の結了等,,,2015-10-05,1,,,,,アイジーエル,0
496,2430001003857,登記記録の閉鎖等,0,2025-12-11,2025-12-05,カネキン伊藤商亊株式会社,,株式会社,北海道,札幌市厚別区,大谷地東７丁目６番４－２０８号,,01,108,0040041,,,2025-12-05,清算の結了等,,,2015-10-05,1,,,,,カネキンイトウショウジ,0
500,2430001090607,登記記録の閉鎖等,0,2025-12-11,2025-12-03,龍株式会社,,株式会社,北海道,札幌市中央区,北一条西９丁目３番地１南大通ビルＮ１　６階,,01,101,0600001,,,2025-12-03,清算の結了等,,,2023-12-07,1,,,,,タツ,0
541,3010701006911,登記記録の閉鎖等,0,2025-12-11,2025-12-05,東峰軽金属工業株式会社,,株式会社,東京都,品川区,西品川１丁目４番８号,,13,109,1410033,,,2025-12-05,清算の結了等,,,2015-10-05,1,,,,,トウホウケイキンゾクコウギョウ,0
542,3010703004780,登記記録の閉鎖等,0,2025-12-11,2025-11-14,ＮｉＣｏＣｏ合同会社,,合同会社,東京都,新宿区,西新宿３丁目５番１２号トーカン新宿第２キャステール１０２,,13,104,1600023,,,2025-11-14,清算の結了等,,,2019-05-10,1,,,,,ニココ,0
549,3010901052739,登記記録の閉鎖等,0,2025-12-11,2025-11-14,ボールド株式会社,,株式会社,東京都,渋谷区,道玄坂１丁目１０番８号渋谷道玄坂東急ビル２Ｆ－Ｃ,,13,113,1500043,,,2025-11-14,清算の結了等,,,2023-03-20,1,,,,,ボールド,0
555,3011001006189,登記記録の閉鎖等,0,2025-12-11,2025-11-17,株式会社教育春秋社,,株式会社,東京都,渋谷区,笹塚２丁目１８番３号,,13,113,1510073,,,2025-11-17,清算の結了等,,,2015-10-05,1,,,,,キョウイクシュンジュウシャ,0
556,3011001011899,登記記録の閉鎖等,0,2025-12-11,2025-11-17,株式会社スタジオ・ビー,,株式会社,東京都,渋谷区,千駄ヶ谷３丁目１４－３ワイズテラス１００１,,13,113,1510051,,,2025-11-17,清算の結了等,,,2015-10-05,1,,,,,スタジオビー,0
557,3011001016733,登記記録の閉鎖等,0,2025-12-11,2025-11-04,株式会社ナガサカ,,株式会社,東京都,渋谷区,神南１丁目１１番５号ダイネス壱番館５０５号室,,13,113,1500041,,,2025-11-04,清算の結了等,,,2015-10-05,1,,,,,ナガサカ,0
562,3011001144088,登記記録の閉鎖等,0,2025-12-11,2025-11-17,株式会社アルコ＆ＦＯＯＤ,,株式会社,東京都,目黒区,目黒１丁目６番１３号１階,,13,110,1530063,,,2025-11-17,清算の結了等,,,2021-11-25,1,,,,,アルコアンドフード,0
578,3011501016910,登記記録の閉鎖等,0,2025-12-11,2025-12-05,株式会社リブート,,株式会社,東京都,豊島区,西池袋３丁目２１番４号,,13,116,1710021,,,2025-12-05,清算の結了等,,,2015-10-05,1,,,,,リブート,0
585,3012401008337,登記記録の閉鎖等,0,2025-12-11,2025-12-10,株式会社ナカ企画建設,,株式会社,東京都,調布市,深大寺東町６丁目３６番地１９,,13,208,1820012,,,2025-12-10,清算の結了等,,,2015-10-05,1,,,,,ナカキカクケンセツ,0
586,3012401010813,登記記録の閉鎖等,0,2025-12-11,2025-12-08,イエス株式会社,,株式会社,東京都,調布市,柴崎２丁目１７番地１、１０３,,13,208,1820014,,,2025-12-08,清算の結了等,,,2015-10-05,1,,,,,イエス,0
592,3013102001234,登記記録の閉鎖等,0,2025-12-11,2025-12-09,有限会社杉田屋酒店,,有限会社,東京都,羽村市,羽東２丁目１番８号,,13,227,2050014,,,2025-12-09,清算の結了等,,,2015-10-05,1,,,,,スギタヤサケテン,0
596,3013202002090,登記記録の閉鎖等,0,2025-12-11,2025-11-17,有限会社喜楽湯,,有限会社,東京都,目黒区,碑文谷１丁目３番１７号,,13,110,1520003,,,2025-11-17,清算の結了等,,,2015-10-05,1,,,,,キラクユ,0
601,3020001061516,登記記録の閉鎖等,0,2025-12-11,2025-12-05,株式会社すたぁ薬局,,株式会社,神奈川県,横浜市港南区,大久保１丁目２０番５７号,,14,111,2330007,,,2025-12-05,清算の結了等,,,2015-10-05,1,,,,,スタァヤッキョク,0
614,3020002039957,登記記録の閉鎖等,0,2025-12-11,2025-12-08,有限会社藤原洋品店,,有限会社,神奈川県,横浜市鶴見区,矢向４丁目６番６号,,14,101,2300001,,,2025-12-08,清算の結了等,,,2015-10-05,1,,,,,フジワラヨウヒンテン,0
615,3020002044494,登記記録の閉鎖等,0,2025-12-11,2025-12-03,有限会社花竹商店,,有限会社,神奈川県,横浜市中区,曙町２丁目２９番地,00010932,14,104,2310057,,,2025-12-03,清算の結了等,,,2015-10-05,1,,,,,ハナタケショウテン,0
617,3020003001759,登記記録の閉鎖等,0,2025-12-11,2025-12-03,合資会社横浜洋洗社,,合資会社,神奈川県,横浜市南区,宿町１丁目１８番地,,14,105,2320017,,,2025-12-03,清算の結了等,,,2015-10-05,1,,,,,ヨコハマヨウセンシャ,0
618,3020003028967,登記記録の閉鎖等,0,2025-12-11,2025-12-03,ＱＹＴ合同会社,,合同会社,神奈川県,横浜市西区,北幸２丁目１０番４８号むつみビル３階,,14,103,2200004,,,2025-12-03,清算の結了等,,,2025-07-16,1,,,,,キューワイティー,0
644,3040002016062,登記記録の閉鎖等,0,2025-12-11,2025-11-21,ピーエスコーポレーション株式会社,,株式会社,東京都,中央区,日本橋横山町７番１８号,,13,102,1030003,,,2025-11-21,清算の結了等,,,2015-10-05,1,,,,,ピーエスコーポレーション,0
652,3070002014014,登記記録の閉鎖等,0,2025-12-11,2025-12-09,有限会社妙見茶屋,,有限会社,群馬県,高崎市,引間町１５９番地の１,,10,202,3703517,,,2025-12-09,清算の結了等,,,2015-10-05,1,,,,,ミョウケンチャヤ,0
678,3120903003638,登記記録の閉鎖等,0,2025-12-11,2025-12-04,合同会社前田,,合同会社,大阪府,豊中市,北条町４丁目１０番１－１０９号,,27,203,5610812,,,2025-12-04,清算の結了等,,,2021-05-13,1,,,,,マエダ,0
694,3140001131298,登記記録の閉鎖等,0,2025-12-11,2025-12-02,ノアフェリス株式会社,,株式会社,兵庫県,姫路市,東山５２４番地,,28,201,6728014,,,2025-12-02,合併による解散等,3140001060613,令和７年１２月１日兵庫県姫路市東山５２４番地ノアインドアステージ株式会社（3140001060613）に合併し解散,2023-08-18,1,,,,,ノアフェリス,0
706,3170001003676,登記記録の閉鎖等,0,2025-12-11,2025-12-10,株式会社ワテツテクノ,,株式会社,和歌山県,和歌山市,芝ノ丁２６番地,,30,201,6408267,,,2025-12-10,清算の結了等,,,2015-10-05,1,,,,,ワテツテクノ,0
708,3180001000210,登記記録の閉鎖等,0,2025-12-11,2025-12-08,大島地所株式会社,,株式会社,愛知県,名古屋市守山区,茶臼前１番２５号,,23,113,4630012,,,2025-12-08,清算の結了等,,,2015-10-05,1,,,,,オオシマジショ,0
721,3190002018886,登記記録の閉鎖等,0,2025-12-11,2025-12-09,有限会社Ｎプラン設計,,有限会社,三重県,桑名市,大山田８丁目７番地１１８,,24,205,5110903,,,2025-12-09,清算の結了等,,,2015-10-05,1,,,,,エヌプランセッケイ,0
722,3200001039881,登記記録の閉鎖等,0,2025-12-11,2025-12-08,株式会社アイワメディカルギフ,,株式会社,岐阜県,岐阜市,北一色１０丁目１１番１２号,,21,201,5008227,,,2025-12-08,合併による解散等,5200001033429,令和７年１２月８日岐阜市日野南三丁目１１番３号株式会社ＡＩＷＡホールディングス（5200001033429）に合併し解散,2022-03-23,1,,,,,アイワメディカルギフ,0
727,3230002002555,登記記録の閉鎖等,0,2025-12-11,2025-12-05,有限会社中坪自動車工業,,有限会社,富山県,富山市,黒瀬４４８番地１,,16,201,9398213,,,2025-12-05,清算の結了等,,,2015-10-05,1,,,,,ナカツボジドウシャコウギョウ,0
731,3240002025150,登記記録の閉鎖等,0,2025-12-11,2025-12-05,株式会社ループ,,株式会社,広島県,広島市東区,福田２丁目５３０番地１７,,34,102,7320029,,,2025-12-05,清算の結了等,,,2015-10-05,1,,,,,ループ,0
734,3260001031602,登記記録の閉鎖等,0,2025-12-11,2025-12-05,日本銘青技術株式会社,,株式会社,岡山県,津山市,国分寺７３番地４,,33,203,7080843,,,2025-12-05,清算の結了等,,,2018-01-12,1,,,,,ニホンメイセイギジュツ,0
741,3290001061349,登記記録の閉鎖等,0,2025-12-11,2025-12-01,株式会社ＴＡＷＡＲＡホールディングス,,株式会社,福岡県,福岡市東区,香住ケ丘６丁目３７番４０号,,40,131,8130003,,,2025-12-01,合併による解散等,8290003008715,令和７年１２月１日福岡市東区香住ヶ丘六丁目３７番４０号合同会社ＴＡＷＡＲＡ（8290003008715）に合併し解散,2015-10-05,1,,,,,タワラホールディングス,0
760,3330001018633,登記記録の閉鎖等,0,2025-12-11,2025-12-04,株式会社バイオ・ソリューション研究所,,株式会社,熊本県,熊本市北区,高平２丁目１４番３２号,,43,105,8600085,,,2025-12-04,清算の結了等,,,2015-10-05,1,,,,,バイオソリューションケンキュウジョ,0
764,3340002001629,登記記録の閉鎖等,0,2025-12-11,2025-12-03,有限会社うちだ,,有限会社,鹿児島県,鹿児島市,下荒田３丁目４０番４号,,46,201,8900056,,,2025-12-03,清算の結了等,,,2015-10-05,1,,,,,ウチダ,0
765,3340002012709,登記記録の閉鎖等,0,2025-12-11,2025-12-04,有限会社大田商店,,有限会社,鹿児島県,日置市,吹上町永吉１４１９２番地,,46,216,8993221,,,2025-12-04,清算の結了等,,,2015-10-05,1,,,,,オオタショウテン,0
767,3350001004383,登記記録の閉鎖等,0,2025-12-11,2025-12-01,株式会社ニシダ・ホールディングス,,株式会社,宮崎県,延岡市,中町１丁目４番地１１,,45,203,8820823,,,2025-12-01,合併による解散等,3350002008672,令和７年１２月１日宮崎市新別府町前浜１４０１番地１０８株式会社ニシメソ（3350002008672）に合併し解散,2015-10-05,1,,,,,ニシダホールディングス,0
774,3420001012916,登記記録の閉鎖等,0,2025-12-11,2025-12-03,株式会社タカノスソーイング,,株式会社,青森県,弘前市,大字南大町２丁目８番地８,,02,202,0368006,,,2025-12-03,清算の結了等,,,2015-10-05,1,,,,,タカノスソーイング,0
775,3420001018764,登記記録の閉鎖等,0,2025-12-11,2025-12-03,白神ツーリズム株式会社,,株式会社,青森県,西津軽郡鰺ヶ沢町,大字一ツ森町字上禿８８－２,,02,321,0382723,,,2025-12-03,清算の結了等,,,2024-07-10,1,,,,,シラカミツーリズム,0
778,3430001055278,登記記録の閉鎖等,0,2025-12-11,2025-12-05,株式会社竹内電気商会,,株式会社,北海道,日高郡新ひだか町,静内本町２丁目３番２２号,,01,610,0560016,,,2025-12-05,清算の結了等,,,2015-10-05,1,,,,,タケウチデンキショウカイ,0
783,3440001006123,登記記録の閉鎖等,0,2025-12-11,2025-12-09,相沼産業株式会社,,株式会社,北海道,二海郡八雲町,熊石相沼町３９４番地３,,01,346,0430332,,,2025-12-09,清算の結了等,,,2015-10-05,1,,,,,アイヌマサンギョウ,0
794,4010001105958,登記記録の閉鎖等,0,2025-12-11,2025-12-01,株式会社Ｄｉｎｉｎｇ　Ａｄｖａｎｃｅｓ　Ｄｅｖｅｌｏｐｍｅｎｔ,,株式会社,東京都,中央区,日本橋人形町１丁目６番４号日本橋桂ビル３階,,13,102,1030013,,,2025-12-01,合併による解散等,8010001036373,令和７年１２月１日東京都中央区日本橋人形町一丁目６番４号株式会社安西建物（8010001036373）に合併し解散,2015-10-05,1,,,,,ダイニングアドバンスディベロップメント,0
795,4010001107806,登記記録の閉鎖等,0,2025-12-11,2025-12-05,ブライトラストＰＥジャパン株式会社,,株式会社,東京都,練馬区,石神井町７丁目９番３３号,,13,120,1770041,,,2025-12-05,清算の結了等,,,2015-10-05,1,,,,,ブライトラストピーイージャパン,0
827,4010401161898,登記記録の閉鎖等,0,2025-12-11,2025-12-01,株式会社Ｂｉｚ　Ｆｏｒｗａｒｄ,,株式会社,東京都,港区,芝浦３丁目１番２１号ｍｓｂＴａｍａｃｈｉ田町ステーションタワーＳ２１階,,13,103,1080023,,,2025-12-01,合併による解散等,3010001182296,令和７年１２月１日東京都港区芝浦三丁目１番２１号ｍｓｂＴａｍａｃｈｉ田町ステーションタワーＳ２１階マネーフォワードケッサイ株式会社（3010001182296）に合併し解散,2021-08-04,1,,,,,ビズフォワード,0
835,4010403031208,登記記録の閉鎖等,0,2025-12-11,2025-11-20,ルビーエナジー合同会社,,合同会社,東京都,港区,西新橋２丁目２０番１号４階,,13,103,1050003,,,2025-11-20,清算の結了等,,,2023-10-23,1,,,,,ルビーエナジー,0
842,4010701004138,登記記録の閉鎖等,0,2025-12-11,2025-12-05,ジー・アール・ピー株式会社,,株式会社,東京都,品川区,西五反田５丁目４番５－２０５号,,13,109,1410031,,,2025-12-05,清算の結了等,,,2015-10-05,1,,,,,ジーアールピー,0
875,4011701011520,登記記録の閉鎖等,0,2025-12-11,2025-12-08,東京イチダ株式会社,,株式会社,東京都,江戸川区,東瑞江１丁目２０番３号,,13,123,1320014,,,2025-12-08,合併による解散等,9030001003544,令和７年１２月１日埼玉県さいたま市大宮区桜木町一丁目１１番地５株式会社サイサン（9030001003544）に合併し解散,2015-10-05,1,,,,,トウキョウイチダ,0
879,4012401019366,登記記録の閉鎖等,0,2025-12-11,2025-12-08,株式会社オフィスマエダ,,株式会社,東京都,小金井市,桜町１丁目７番４号,,13,210,1840005,,,2025-12-08,清算の結了等,,,2015-10-05,1,,,,,オフィスマエダ,0
899,4020001113687,登記記録の閉鎖等,0,2025-12-11,2025-12-05,ＱＭインターナショナル株式会社,,株式会社,神奈川県,横浜市戸塚区,吉田町１３７１番地３０,,14,110,2440817,,,2025-12-05,清算の結了等,,,2015-11-25,1,,,,,キューエムインターナショナル,0
903,4020002001981,登記記録の閉鎖等,0,2025-12-11,2025-12-08,有限会社丸信土木,,有限会社,神奈川県,横浜市瀬谷区,阿久和南１丁目２５番地１０,,14,114,2460026,,,2025-12-08,清算の結了等,,,2015-10-05,1,,,,,マルシンドボク,0
924,4040001016566,登記記録の閉鎖等,0,2025-12-11,2025-11-14,株式会社アクツ,,株式会社,千葉県,船橋市,前原西１丁目４番３－２０１号,,12,204,2740825,,,2025-11-14,清算の結了等,,,2015-10-05,1,,,,,アクツ,0
932,4040002038304,登記記録の閉鎖等,0,2025-12-11,2025-11-19,有限会社日新無線,,有限会社,千葉県,鎌ケ谷市,西道野辺４番１０号,,12,224,2730117,,,2025-11-19,清算の結了等,,,2015-10-05,1,,,,,ニッシンムセン,0
944,4070002003528,登記記録の閉鎖等,0,2025-12-11,2025-12-09,有限会社田村総合保険,,有限会社,群馬県,前橋市,鼻毛石町２００番地４３,,10,201,3710244,,,2025-12-09,清算の結了等,,,2015-10-05,1,,,,,タムラソウゴウホケン,0
969,4120005004393,登記記録の閉鎖等,0,2025-12-11,2025-12-08,新大阪コーポラス・八光ビル管理組合法人,,その他の設立登記法人,大阪府,大阪市淀川区,西宮原１丁目８番１４号,,27,123,5320004,,,2025-12-08,清算の結了等,,,2015-10-05,1,,,,,シンオオサカコーポラスハッコウビル,0
990,4140005026667,登記記録の閉鎖等,0,2025-12-11,2025-12-09,高尾台ハイツ管理組合法人,,その他の設立登記法人,兵庫県,神戸市垂水区,塩屋町６丁目１番８号,,28,108,6550872,,,2025-12-09,清算の結了等,,,2023-06-23,1,,,,,タカオダイハイツ,0
1003,4190002021963,登記記録の閉鎖等,0,2025-12-11,2025-12-10,有限会社マエダモータース,,有限会社,三重県,四日市市,ときわ３丁目７番２４号,,24,202,5100834,,,2025-12-10,清算の結了等,,,2015-10-05,1,,,,,マエダモータース,0
1005,4190005006235,登記記録の閉鎖等,0,2025-12-11,2025-12-09,上本町商店街振興組合,,その他の設立登記法人,三重県,名張市,上本町７番地,,24,208,5180716,,,2025-12-09,清算の結了等,,,2015-10-05,1,,,,,ウエホンマチ,0
1016,4250002013335,登記記録の閉鎖等,0,2025-12-11,2025-12-08,有限会社波多野指月窯,,有限会社,山口県,萩市,大字堀内２４７番地の５,,35,204,7580057,,,2025-12-08,清算の結了等,,,2015-10-05,1,,,,,ハダノシゲツガマ,0
1026,4290002001708,登記記録の閉鎖等,0,2025-12-11,2025-12-01,有限会社おざき写真館,,有限会社,福岡県,福岡市南区,大橋４丁目１３番３４号,,40,134,8150033,,,2025-12-01,清算の結了等,,,2015-10-05,1,,,,,オザキシャシンカン,0
1038,4350003001527,登記記録の閉鎖等,0,2025-12-11,2025-12-05,サングリーンジャパン株式会社,,株式会社,宮崎県,都城市,安久町４７４２番地１,,45,202,8850044,,,2025-12-05,清算の結了等,,,2015-10-05,1,,,,,サングリーンジャパン,0
1056,4462502000642,登記記録の閉鎖等,0,2025-12-11,2025-12-09,有限会社双葉,,有限会社,北海道,野付郡別海町,別海緑町２５番地,,01,691,0860214,,,2025-12-09,清算の結了等,,,2015-10-05,1,,,,,フタバ,0
1057,4470001005550,登記記録の閉鎖等,0,2025-12-11,2025-12-04,株式会社ロゼレーヌ,,株式会社,香川県,高松市,室新町１０５３番地７フォルテＩビル,00005064,37,201,7618062,,,2025-12-04,清算の結了等,,,2015-10-05,1,,,,,ロゼレーヌ,0
1066,5010001146753,登記記録の閉鎖等,0,2025-12-11,2025-11-12,アスリード株式会社,,株式会社,東京都,千代田区,内幸町１丁目５番２号内幸町平和ビル１９階,,13,101,1000011,,,2025-11-12,合併による解散等,8010001136248,令和７年１１月２日東京都千代田区内幸町一丁目５番２号株式会社Ｎｏ．１（8010001136248）に合併し解散,2015-10-05,1,,,,,アスリード,0
1077,5010002009042,登記記録の閉鎖等,0,2025-12-11,2025-12-01,有限会社梶間商会,,有限会社,東京都,千代田区,神田和泉町１番地１,,13,101,1010024,,,2025-12-01,合併による解散等,4010001017732,令和７年１２月１日東京都千代田区神田東松下町２５番地サンタックス株式会社（4010001017732）に合併し解散,2015-10-05,1,,,,,カジマショウカイ,0
1081,5010005040647,登記記録の閉鎖等,0,2025-12-11,2025-12-05,一般社団法人日蒙共創ソーラー水素フロンティア推進協議会定款,,その他の設立登記法人,東京都,中央区,日本橋兜町１３番１号,,13,102,1030026,,,2025-12-05,清算の結了等,,,2025-09-09,1,,,,,ニチモウキョウソウソーラースイソフロンティアスイシンキョウギカイテイカン,0
1093,5010505001636,登記記録の閉鎖等,0,2025-12-11,2025-12-04,特定非営利活動法人Ｓ．Ｓ．Ｈ．,,その他の設立登記法人,東京都,台東区,東上野３丁目３６番８号２階,,13,106,1100015,,,2025-12-04,清算の結了等,,,2015-10-05,1,,,,,エスエスエイチ,0
1110,5011101092243,登記記録の閉鎖等,0,2025-12-11,2025-11-14,株式会社ＹＥＳ　ＭＡＲＴ,,株式会社,東京都,新宿区,大久保１丁目１番１１号,,13,104,1690072,,,2025-11-14,清算の結了等,,,2020-08-20,1,,,,,イエスマート,0
1120,5012402021246,登記記録の閉鎖等,0,2025-12-11,2025-12-09,有限会社Ｅ．Ｋ．ＳＵＮ　ＬＩＭＩＴＥＤ,,有限会社,東京都,三鷹市,井の頭２丁目２５番１７号,,13,204,1810001,,,2025-12-09,清算の結了等,,,2015-10-05,1,,,,,イーケイサンリミテッド,0
1122,5012801021937,登記記録の閉鎖等,0,2025-12-11,2025-12-05,株式会社森企画,,株式会社,東京都,立川市,一番町２丁目１４番地の４１,,13,202,1900033,,,2025-12-05,清算の結了等,,,2022-11-16,1,,,,,モリキカク,0
1133,5020002021500,登記記録の閉鎖等,0,2025-12-11,2025-12-10,有限会社清水自動車塗装,,有限会社,神奈川県,横浜市旭区,三反田町１４０番地,,14,112,2410013,,,2025-12-10,清算の結了等,,,2015-10-05,1,,,,,シミズジドウシャトソウ,0
1136,5020002103298,登記記録の閉鎖等,0,2025-12-11,2025-12-08,有限会社三色圧送,,有限会社,神奈川県,川崎市川崎区,池上新町２丁目９番１０号,,14,131,2100832,,,2025-12-08,清算の結了等,,,2015-10-05,1,,,,,サンショクアッソウ,0
1164,5070001033913,登記記録の閉鎖等,0,2025-12-11,2025-12-09,株式会社ＣＯＣＯ・ＧＲＯＷ,,株式会社,群馬県,太田市,小舞木町１４番地１若旅ビル２階２０５,,10,205,3730818,,,2025-12-09,清算の結了等,,,2017-09-06,1,,,,,ココグロー,0
1169,5100001030270,登記記録の閉鎖等,0,2025-12-11,2025-12-08,株式会社ＤｉＢ,,株式会社,長野県,松本市,大字松原７９番地２,,20,202,3990022,,,2025-12-08,清算の結了等,,,2017-05-09,1,,,,,ディアイビー,0
1174,5120001027331,登記記録の閉鎖等,0,2025-12-11,2025-12-08,株式会社木本商店,,株式会社,大阪府,大阪市大正区,小林西２丁目３番２号,,27,108,5510013,,,2025-12-08,清算の結了等,,,2015-10-05,1,,,,,キモトショウテン,0
1181,5120001195062,登記記録の閉鎖等,0,2025-12-11,2025-12-08,＿金縁株式会社,00105251,株式会社,大阪府,大阪市中央区,谷町２丁目３番７号,,27,128,5400012,,,2025-12-08,清算の結了等,,,2015-12-14,1,,,,,,0
1189,5120002070735,登記記録の閉鎖等,0,2025-12-11,2025-12-04,有限会社ケーアールシー,,有限会社,東京都,中央区,日本橋２丁目１番１７号丹生ビル７Ｆ,,13,102,1030027,,,2025-12-04,合併による解散等,9120001078453,令和７年１２月１日大阪市中央区平野町二丁目１番２号株式会社クラコ（9120001078453）に合併し解散,2015-10-05,1,,,,,ケーアールシー,0
1212,5140003021784,登記記録の閉鎖等,0,2025-12-11,2025-12-03,ＢＥ　ｃｕｌｔｉｖａｔｅ合同会社,,合同会社,兵庫県,神戸市須磨区,永楽町２丁目２番１１号シャーメゾン須磨永楽町１０１,,28,107,6540004,,,2025-12-03,清算の結了等,,,2025-03-14,1,,,,,ビーカルティベイト,0
1220,5180001105841,登記記録の閉鎖等,0,2025-12-11,2025-12-08,株式会社森由コンプレーション,,株式会社,愛知県,名古屋市守山区,天子田１丁目１０１６番地スタジオ２６・２０７号室,,23,113,4630037,,,2025-12-08,清算の結了等,,,2015-10-05,1,,,,,モリヨシコンプレーション,0
1221,5180001107771,登記記録の閉鎖等,0,2025-12-11,2025-12-03,株式会社ＡＲＴ,,株式会社,愛知県,一宮市,多加木４丁目３０番２８号,,23,203,4910837,,,2025-12-03,清算の結了等,,,2015-10-05,1,,,,,エーアールティ,0
1224,5180002046531,登記記録の閉鎖等,0,2025-12-11,2025-12-08,有限会社屋根屋,,有限会社,愛知県,名古屋市緑区,黒沢台４丁目９０４番地,,23,114,4580003,,,2025-12-08,清算の結了等,,,2015-10-05,1,,,,,ヤネヤ,0
1234,5180005020698,登記記録の閉鎖等,0,2025-12-11,2025-12-08,一般社団法人日本広告士協会,,その他の設立登記法人,愛知県,名古屋市中村区,名駅３丁目４－１０アルティメイト名駅１ｓｔ２階,,23,105,4500002,,,2025-12-08,清算の結了等,,,2024-07-17,1,,,,,ニホンコウコクシキョウカイ,0
1250,5290001096855,登記記録の閉鎖等,0,2025-12-11,2025-11-28,株式会社草香江不動産,,株式会社,福岡県,福岡市中央区,草香江２丁目６番１４号,,40,133,8100045,,,2025-11-28,清算の結了等,,,2022-03-17,1,,,,,クサガエフドウサン,0
1252,5290002006375,登記記録の閉鎖等,0,2025-12-11,2025-11-28,有限会社朝日パワー,,有限会社,福岡県,福岡市南区,老司５丁目１３番１８号,,40,134,8111346,,,2025-11-28,清算の結了等,,,2015-10-05,1,,,,,アサヒパワー,0
1260,5290801022993,登記記録の閉鎖等,0,2025-12-11,2025-12-04,株式会社エル・コンシェル,,株式会社,福岡県,行橋市,大字真菰１９８４番地,,40,213,8240017,,,2025-12-04,清算の結了等,,,2016-10-28,1,,,,,エルコンシェル,0
1268,5310002020282,登記記録の閉鎖等,0,2025-12-11,2025-12-09,有限会社坂田総合設備,,有限会社,長崎県,対馬市,上対馬町浜久須４３２番地１,,42,209,8171713,,,2025-12-09,清算の結了等,,,2015-10-05,1,,,,,サカタソウゴウセツビ,0
1270,5330001019761,登記記録の閉鎖等,0,2025-12-11,2025-12-04,株式会社工房カズ,,株式会社,熊本県,合志市,御代志１８７２番地２０,,43,216,8611104,,,2025-12-04,清算の結了等,,,2015-10-05,1,,,,,コウボウカズ,0
1277,5370002003851,登記記録の閉鎖等,0,2025-12-11,2025-12-08,有限会社細川建具製作所,00081833,有限会社,宮城県,仙台市太白区,人来田２丁目８番１３号,,04,104,9820222,,,2025-12-08,清算の結了等,,,2015-10-05,1,,,,,ホソカワタテグセイサクショ,0
1280,5380001001302,登記記録の閉鎖等,0,2025-12-11,2025-12-04,フクセイ・ベンダーサービス株式会社,,株式会社,福島県,福島市,北矢野目字八幡内４５番地,,07,201,9600113,,,2025-12-04,清算の結了等,,,2015-10-05,1,,,,,フクセイベンダーサービス,0
1283,5380002017727,登記記録の閉鎖等,0,2025-12-11,2025-12-05,有限会社国井工務店,,有限会社,福島県,白河市,大信増見字天狗塚５３番地,00083720,07,205,9690308,,,2025-12-05,清算の結了等,,,2015-10-05,1,,,,,クニイコウムテン,0
1306,6010001163211,登記記録の閉鎖等,0,2025-12-11,2025-12-08,株式会社オーピタス,,株式会社,東京都,中央区,日本橋本町３丁目３番６号ワカ末ビル７階,,13,102,1030023,,,2025-12-08,清算の結了等,,,2015-10-05,1,,,,,,0
1308,6010001222388,登記記録の閉鎖等,0,2025-12-11,2025-12-04,株式会社経営加速基盤,,株式会社,東京都,中央区,日本橋２丁目１番１７号丹生ビル７Ｆ,,13,102,1030027,,,2025-12-04,合併による解散等,9120001078453,令和７年１２月１日大阪市中央区平野町二丁目１番２号株式会社クラコ（9120001078453）に合併し解散,2021-11-09,1,,,,,ケイエイカソクキバン,0
1317,6010002006377,登記記録の閉鎖等,0,2025-12-11,2025-12-01,有限会社洋光企画,,有限会社,東京都,文京区,大塚５丁目１８番１９号,,13,105,1120012,,,2025-12-01,合併による解散等,9010001081575,令和７年１１月３０日東京都文京区大塚五丁目１８番１９号株式会社マチダ印刷（9010001081575）に合併し解散,2015-10-05,1,,,,,ヨウコウキカク,0
1334,6010501001481,登記記録の閉鎖等,0,2025-12-11,2025-12-01,エフ・オージャパン株式会社,,株式会社,東京都,台東区,東浅草２丁目２２番５号,,13,106,1110025,,,2025-12-01,合併による解散等,5010501010888,令和７年１２月１日東京都台東区東浅草二丁目２２番５号パイロットシューズ株式会社（5010501010888）に合併し解散,2015-10-05,1,,,,,エフオージャパン,0
1340,6010703004126,登記記録の閉鎖等,0,2025-12-11,2025-12-05,合同会社ＳＫプランニング,,合同会社,東京都,品川区,上大崎２丁目１３－３２,,13,109,1410021,,,2025-12-05,清算の結了等,,,2018-02-26,1,,,,,エスケープランニング,0
1341,6010901002336,登記記録の閉鎖等,0,2025-12-11,2025-12-09,株式会社大山工務店,,株式会社,東京都,世田谷区,北烏山１丁目５２番１９号,,13,112,1570061,,,2025-12-09,清算の結了等,,,2015-10-05,1,,,,,オオヤマコウムテン,0
1370,6011702011914,登記記録の閉鎖等,0,2025-12-11,2025-12-04,有限会社山久増田米店,,有限会社,東京都,江戸川区,江戸川３丁目５４番地８,,13,123,1320013,,,2025-12-04,清算の結了等,,,2015-10-05,1,,,,,ヤマキュウマスダコメテン,0
1383,6013205001260,登記記録の閉鎖等,0,2025-12-11,2025-12-08,医療法人社団松原会,,その他の設立登記法人,東京都,新宿区,左門町２０番地四谷メディカルビル２階,,13,104,1600017,,,2025-12-08,合併による解散等,3050005009938,令和７年１２月１日茨城県筑西市野殿１１３１番地医療法人社団平仁会（3050005009938）に合併し解散,2015-10-05,1,,,,,マツバラカイ,0
1384,6013301015313,登記記録の閉鎖等,0,2025-12-11,2025-12-01,株式会社ビソー,,株式会社,東京都,豊島区,巣鴨３丁目３８番６号,,13,116,1700002,,,2025-12-01,清算の結了等,,,2015-10-05,1,,,,,ビソー,0
1386,6013301050335,登記記録の閉鎖等,0,2025-12-11,2025-12-01,株式会社Ｂｌｏｏｍ　ｓｋｙ,,株式会社,東京都,豊島区,東池袋１丁目１７番１１号パークハイツ池袋１１０５号,,13,116,1700013,,,2025-12-01,清算の結了等,,,2023-02-15,1,,,,,ブルームスカイ,0
1393,6020001098464,登記記録の閉鎖等,0,2025-12-11,2025-12-05,株式会社ワイズマネジメント,,株式会社,神奈川県,横浜市瀬谷区,東野１４４番地６,,14,114,2460012,,,2025-12-05,清算の結了等,,,2015-10-05,1,,,,,ワイズマネジメント,0
1394,6020001118263,登記記録の閉鎖等,0,2025-12-11,2025-12-08,株式会社ファイナライズ,,株式会社,神奈川県,川崎市宮前区,菅生６丁目３７番３号,,14,136,2160015,,,2025-12-08,清算の結了等,,,2016-10-19,1,,,,,ファイナライズ,0
1396,6020001134921,登記記録の閉鎖等,0,2025-12-11,2025-12-08,株式会社Ｖｉａ．Ｎｏｖａ．Ｊａｐａｎ,,株式会社,神奈川県,横浜市西区,みなとみらい３丁目７－１オーシャンゲートみなとみらい８階,,14,103,2200012,,,2025-12-08,清算の結了等,,,2020-02-13,1,,,,,ヴィアノヴァジャパン,0
1410,6021002042659,登記記録の閉鎖等,0,2025-12-11,2025-11-18,有限会社望月工務店,,有限会社,神奈川県,大和市,上和田９４７番地の５,,14,213,2420014,,,2025-11-18,清算の結了等,,,2015-10-05,1,,,,,モチヅキコウムテン,0
1424,6040002003743,登記記録の閉鎖等,0,2025-12-11,2025-11-18,有限会社ケー・エムシステム,,有限会社,千葉県,船橋市,前原西７丁目１７－２０新京成前原駅前ビル３Ｆ,,12,204,2740825,,,2025-11-18,清算の結了等,,,2015-10-05,1,,,,,ケーエムシステム,0
1426,6040002046263,登記記録の閉鎖等,0,2025-12-11,2025-11-18,有限会社かがやき堂,,有限会社,千葉県,松戸市,六高台４丁目１９９番地２０２号室,,12,207,2702203,,,2025-11-18,清算の結了等,,,2015-10-05,1,,,,,カガヤキドウ,0
1427,6040002046362,登記記録の閉鎖等,0,2025-12-11,2025-11-19,有限会社シンヤ,,有限会社,千葉県,松戸市,古ケ崎２３３５番地,,12,207,2710068,,,2025-11-19,清算の結了等,,,2015-10-05,1,,,,,シンヤ,0
1433,6060002031750,登記記録の閉鎖等,0,2025-12-11,2025-12-09,有限会社大阿久鉄工所,,有限会社,栃木県,栃木市,柳橋町２２番２９号,,09,203,3280051,,,2025-12-09,清算の結了等,,,2015-10-05,1,,,,,オオアクテッコウジョ,0
1441,6100002004826,登記記録の閉鎖等,0,2025-12-11,2025-12-08,有限会社丸幸東鳳商事,,有限会社,長野県,長野市,大字南長野南県町１０４１番地,,20,201,3800836,,,2025-12-08,清算の結了等,,,2015-10-05,1,,,,,マルコウトウホウショウジ,0
1443,6110002024682,登記記録の閉鎖等,0,2025-12-11,2025-12-04,有限会社山岸商店,,有限会社,新潟県,上越市,板倉区吉増１３２番地,,15,222,9440137,,,2025-12-04,清算の結了等,,,2025-11-27,1,,,,,ヤマギシショウテン,0
1444,6110005016207,登記記録の閉鎖等,0,2025-12-11,2025-12-03,一般社団法人うぃんぐ,,その他の設立登記法人,新潟県,新潟市西区,坂井１０２７番地１カルティエＩＩＢ－１０２号,00133765,15,107,9502042,,,2025-12-03,清算の結了等,,,2018-01-25,1,,,,,ウィング,0
1461,6130001012364,登記記録の閉鎖等,0,2025-12-11,2025-12-09,株式会社岩崎管工,,株式会社,京都府,京都市山科区,西野今屋敷町４１番地の１,,26,110,6078341,,,2025-12-09,清算の結了等,,,2015-10-05,1,,,,,イワサキカンコウ,0
1464,6130001069355,登記記録の閉鎖等,0,2025-12-11,2025-12-08,株式会社ＷＡＬ,,株式会社,京都府,京都市下京区,四条通室町東入函谷鉾町１０１番地アーバンネット四条烏丸ビル６Ｆ,,26,106,6008009,,,2025-12-08,清算の結了等,,,2021-05-24,1,,,,,ダブルエイエル,0
1467,6130002026974,登記記録の閉鎖等,0,2025-12-11,2025-12-08,有限会社み彌け,,有限会社,京都府,宇治市,小倉町堀池２３番地の２０,,26,204,6110042,,,2025-12-08,清算の結了等,,,2015-10-05,1,,,,,,0
1473,6140002060766,登記記録の閉鎖等,0,2025-12-11,2025-12-05,有限会社西日本出版倶楽部,,有限会社,兵庫県,伊丹市,中野西１丁目７６番地４１,,28,207,6640023,,,2025-12-05,清算の結了等,,,2015-10-05,1,,,,,ニシニホンシュッパンクラブ,0
1482,6180003027447,登記記録の閉鎖等,0,2025-12-11,2025-12-05,合同会社１号,,合同会社,愛知県,稲沢市,祖父江町桜方笹原６１番地２,,23,220,4950015,,,2025-12-05,清算の結了等,,,2024-10-18,1,,,,,イチゴウ,0
1483,6180005020549,登記記録の閉鎖等,0,2025-12-11,2025-12-08,一般社団法人日本ペットコンシェルジュ協会,,その他の設立登記法人,愛知県,半田市,白山町１丁目１０番地,,23,205,4750912,,,2025-12-08,清算の結了等,,,2024-03-27,1,,,,,ニホンペットコンシェルジュキョウカイ,0
1500,6290001096854,登記記録の閉鎖等,0,2025-12-11,2025-11-27,株式会社エステート六本松,,株式会社,福岡県,福岡市中央区,草香江２丁目６番１４号,,40,133,8100045,,,2025-11-27,清算の結了等,,,2022-03-17,1,,,,,エステートロッポンマツ,0
1505,6290003004633,登記記録の閉鎖等,0,2025-12-11,2025-12-01,合同会社アールティークリエイト,,合同会社,福岡県,福岡市博多区,博多駅前１丁目２３番２号ＰａｒｋＦｒｏｎｔ博多駅前１丁目５Ｆ－Ｂ,,40,132,8120011,,,2025-12-01,清算の結了等,,,2015-10-05,1,,,,,アールテイークリエイト,0
1513,6360001033404,登記記録の閉鎖等,0,2025-12-11,2025-12-04,株式会社ＴＯＲＩＴＴＹ,,株式会社,沖縄県,宜野湾市,伊佐２丁目５番１７号３Ｆ,,47,205,9012221,,,2025-12-04,清算の結了等,,,2024-03-28,1,,,,,トリティー,0
1520,6380002018022,登記記録の閉鎖等,0,2025-12-11,2025-11-28,有限会社須釜商店,,有限会社,福島県,西白河郡矢吹町,中町１７７番地,,07,466,9690221,,,2025-11-28,清算の結了等,,,2015-10-05,1,,,,,スガマショウテン,0
1524,6430001055754,登記記録の閉鎖等,0,2025-12-11,2025-12-05,株式会社三和日成,,株式会社,北海道,沙流郡平取町,本町１５７番地１５,,01,602,0550107,,,2025-12-05,清算の結了等,,,2015-10-05,1,,,,,サンワニッセイ,0
1533,6460101003841,登記記録の閉鎖等,0,2025-12-11,2025-12-05,株式会社スカイアーク,,株式会社,東京都,千代田区,丸の内３丁目２番２号丸の内二重橋ビル,,13,101,1000005,,,2025-12-05,合併による解散等,3130001023678,令和７年１２月１日京都市下京区中堂寺粟田町９１番地京都リサーチパーク株式会社フューチャースピリッツ（3130001023678）に合併し解散,2015-10-05,1,,,,,スカイアーク,0
1569,7010002028247,登記記録の閉鎖等,0,2025-12-11,2025-11-25,有限会社エム．ワイ．デザイン,,有限会社,東京都,千代田区,神田神保町１丁目４２番地,,13,101,1010051,,,2025-11-25,清算の結了等,,,2015-10-05,1,,,,,エムワイデザイン,0
1570,7010002030896,登記記録の閉鎖等,0,2025-12-11,2025-11-07,有限会社つよし商事,,有限会社,東京都,千代田区,東神田２丁目６番９号,,13,101,1010031,,,2025-11-07,清算の結了等,,,2015-10-05,1,,,,,,0
1571,7010003017075,登記記録の閉鎖等,0,2025-12-11,2025-11-18,合同会社Ｒｉｃｏ,,合同会社,千葉県,船橋市,新高根６丁目３８番１９号,,12,204,2740814,,,2025-11-18,清算の結了等,,,2015-10-05,1,,,,,リコ,0
1577,7010102006994,登記記録の閉鎖等,0,2025-12-11,2025-12-09,有限会社山豊化成,,有限会社,東京都,八王子市,石川町２９７５番地の１９,,13,201,1920032,,,2025-12-09,清算の結了等,,,2015-10-05,1,,,,,ヤマホウカセイ,0
1590,7010403011314,登記記録の閉鎖等,0,2025-12-11,2025-12-08,合同会社西海江島沖洋上風力,,合同会社,長崎県,西海市,西海町川内郷字濱１１３８番地２,,42,212,8513502,,,2025-12-08,清算の結了等,,,2015-10-05,1,,,,,サイカイエノシマオキヨウジョウフウリョク,0
1598,7010901009363,登記記録の閉鎖等,0,2025-12-11,2025-12-08,株式会社日包共栄,,株式会社,東京都,世田谷区,鎌田１丁目１５番１９号,,13,112,1570077,,,2025-12-08,清算の結了等,,,2015-10-05,1,,,,,ニッポウキョウエイ,0
1604,7011001091392,登記記録の閉鎖等,0,2025-12-11,2025-11-17,デジタルシンセシスラボラトリ株式会社,,株式会社,東京都,渋谷区,代官山町２０番２３号,,13,113,1500034,,,2025-11-17,清算の結了等,,,2015-10-05,1,,,,,デジタルシンセシスラボラトリ,0
1619,7011101021035,登記記録の閉鎖等,0,2025-12-11,2025-12-01,株式会社メディア・デゥー・トウキョウ,,株式会社,東京都,世田谷区,八幡山１丁目１５番５号栗岡方,,13,112,1560056,,,2025-12-01,合併による解散等,1011101042342,令和７年１２月１日東京都世田谷区八幡山一丁目１５番５号栗岡方株式会社大栄広告社（1011101042342）に合併し解散,2015-10-05,1,,,,,メディアデゥートウキョウ,0
1628,7012401002179,登記記録の閉鎖等,0,2025-12-11,2025-12-05,株式会社三豊航作所,,株式会社,東京都,国分寺市,東恋ヶ窪５丁目２番地１０,,13,214,1850014,,,2025-12-05,清算の結了等,,,2015-10-05,1,,,,,サンポウコウサクショ,0
1636,7020001142114,登記記録の閉鎖等,0,2025-12-11,2025-12-08,株式会社Ｖｉａ．Ｎｏｖａ．Ｓａｌｏｎ,,株式会社,神奈川県,横浜市西区,みなとみらい３丁目７－１オーシャンゲートみなとみらい８階,,14,103,2200012,,,2025-12-08,清算の結了等,,,2021-07-09,1,,,,,ヴィアノヴァサロン,0
1640,7020002015921,登記記録の閉鎖等,0,2025-12-11,2025-12-05,相澤保険サービス有限会社,,有限会社,神奈川県,横浜市西区,浅間町３丁目１６５番地の４,,14,103,2200072,,,2025-12-05,清算の結了等,,,2015-10-05,1,,,,,アイザワホケンサービス,0
1669,7080402007447,登記記録の閉鎖等,0,2025-12-11,2025-12-01,有限会社マサモト,,有限会社,静岡県,浜松市中央区,萩丘３丁目１２番８号,,22,138,4338121,,,2025-12-01,清算の結了等,,,2015-10-05,1,,,,,マサモト,0
1675,7120001216956,登記記録の閉鎖等,0,2025-12-11,2025-12-08,株式会社ジェイテクトマグネティックベアリング,,株式会社,大阪府,寝屋川市,本町６－１７,,27,215,5720832,,,2025-12-08,清算の結了等,,,2018-11-05,1,,,,,ジェイテクトマグネティックベアリング,0
1684,7120002071698,登記記録の閉鎖等,0,2025-12-11,2025-12-09,有限会社遠矢工業,,有限会社,大阪府,交野市,星田北４丁目５番５号,,27,230,5760017,,,2025-12-09,清算の結了等,,,2015-10-05,1,,,,,トオヤコウギョウ,0
1690,7120902012223,登記記録の閉鎖等,0,2025-12-11,2025-12-03,有限会社ニトー,,有限会社,大阪府,吹田市,千里山東２丁目２２－１４,,27,205,5650842,,,2025-12-03,清算の結了等,,,2015-10-05,1,,,,,ニトー,0
1691,7120903002594,登記記録の閉鎖等,0,2025-12-11,2025-12-03,合同会社トライエステート,,合同会社,大阪府,豊中市,上野東１丁目１４番３３号,,27,203,5600013,,,2025-12-03,清算の結了等,,,2018-09-07,1,,,,,トライエステート,0
1704,7140001017089,登記記録の閉鎖等,0,2025-12-11,2025-12-10,株式会社リアル,,株式会社,兵庫県,神戸市長田区,名倉町１丁目１番２０号,,28,106,6530883,,,2025-12-10,清算の結了等,,,2015-10-05,1,,,,,リアル,0
1705,7140001020729,登記記録の閉鎖等,0,2025-12-11,2025-12-08,ワールド物産株式会社,,株式会社,兵庫県,神戸市東灘区,御影本町８丁目１番９号,,28,101,6580046,,,2025-12-08,清算の結了等,,,2015-10-05,1,,,,,ワールドブッサン,0
1708,7140001092108,登記記録の閉鎖等,0,2025-12-11,2025-12-10,株式会社イワミ産業,,株式会社,兵庫県,姫路市,香寺町相坂８９５番地,,28,201,6792154,,,2025-12-10,清算の結了等,,,2015-10-05,1,,,,,,0
1710,7140001102097,登記記録の閉鎖等,0,2025-12-11,2025-12-02,ノアファシリティーズ株式会社,,株式会社,兵庫県,姫路市,東山５２４番地,,28,201,6728014,,,2025-12-02,合併による解散等,4140001125134,令和７年１２月１日兵庫県姫路市東山５２４番地ノアグループホールディングス株式会社（4140001125134）に合併し解散,2016-05-19,1,,,,,ノアファシリティーズ,0
1723,7180001138988,登記記録の閉鎖等,0,2025-12-11,2025-12-05,株式会社ハートラクト,,株式会社,愛知県,名古屋市中区,丸の内２丁目１７番３０号,,23,106,4600002,,,2025-12-05,清算の結了等,,,2019-11-25,1,,,,,ハートラクト,0
1726,7180002083382,登記記録の閉鎖等,0,2025-12-11,2025-12-08,コウワ商事有限会社,,有限会社,愛知県,半田市,住吉町３丁目１５８番地の２,,23,205,4750862,,,2025-12-08,清算の結了等,,,2015-10-05,1,,,,,コウワショウジ,0
1736,7240001033704,登記記録の閉鎖等,0,2025-12-11,2025-12-02,株式会社寺岡範夫商店,,株式会社,広島県,福山市,新市町大字新市５６９番地の２,,34,207,7293103,,,2025-12-02,清算の結了等,,,2015-10-05,1,,,,,テラオカノリオショウテン,0
1751,7310003003268,登記記録の閉鎖等,0,2025-12-11,2025-12-09,合同会社ＥＡ‐Ｊ．ｗｅｓｔ,,合同会社,長崎県,長崎市,古川町３番１１号,,42,201,8500851,,,2025-12-09,清算の結了等,,,2017-03-22,1,,,,,イーエージェイウエスト,0
1765,7370001017504,登記記録の閉鎖等,0,2025-12-11,2025-12-08,サンケーヘルス株式会社,,株式会社,宮城県,黒川郡大郷町,粕川字山中４０番地,,04,422,9813502,,,2025-12-08,清算の結了等,,,2015-10-05,1,,,,,サンケーヘルス,0
1770,7380001017791,登記記録の閉鎖等,0,2025-12-11,2025-12-04,富士産業株式会社,,株式会社,福島県,大沼郡会津美里町,字高田道上２８７７番地,,07,447,9696261,,,2025-12-04,清算の結了等,,,2015-10-05,1,,,,,,0
1774,7410001006758,登記記録の閉鎖等,0,2025-12-11,2025-12-10,株式会社ももこハウス,,株式会社,秋田県,鹿角市,花輪字扇ノ間１２１番地,,05,209,0185201,,,2025-12-10,清算の結了等,,,2015-10-05,1,,,,,モモコハウス,0
1785,7460002005449,登記記録の閉鎖等,0,2025-12-11,2025-12-09,そば処マルヨシくしろ庵有限会社,,有限会社,北海道,釧路市,昭和中央３丁目２１番１６号,,01,206,0840910,,,2025-12-09,清算の結了等,,,2015-10-05,1,,,,,,0
1787,7490002005710,登記記録の閉鎖等,0,2025-12-11,2025-12-08,有限会社和田自動車塗装,,有限会社,高知県,高知市,丸池町７番２３号,,39,201,7810802,,,2025-12-08,清算の結了等,,,2015-10-05,1,,,,,ワダジドウシャトソウ,0
1809,8010001251427,登記記録の閉鎖等,0,2025-12-11,2025-11-19,ＭｅｄＣｏｎｓ．株式会社,,株式会社,東京都,中央区,銀座１丁目１２－４Ｎ＆ＥＢＬＤ．６Ｆ,,13,102,1040061,,,2025-11-19,清算の結了等,,,2025-01-31,1,,,,,メドコンス,0
1837,8010402036055,登記記録の閉鎖等,0,2025-12-11,2025-12-08,有限会社シムスデザイン,,有限会社,神奈川県,横浜市神奈川区,台町９－１４－１０１号,,14,102,2210834,,,2025-12-08,清算の結了等,,,2015-10-05,1,,,,,シムスデザイン,0
1842,8010405021450,登記記録の閉鎖等,0,2025-12-11,2025-11-19,虎ノ門フォー特定目的会社,,その他の設立登記法人,東京都,港区,虎ノ門３丁目２２番１０－２０１号,,13,103,1050001,,,2025-11-19,清算の結了等,,,2022-10-05,1,,,,,トラノモンフォー,0
1852,8010901012300,登記記録の閉鎖等,0,2025-12-11,2025-12-09,株式会社ヤマト住設,,株式会社,東京都,世田谷区,世田谷１丁目１４番１８号,,13,112,1540017,,,2025-12-09,清算の結了等,,,2015-10-05,1,,,,,ヤマトジュウセツ,0
1871,8011101028632,登記記録の閉鎖等,0,2025-12-11,2025-12-05,株式会社メックス,,株式会社,神奈川県,横浜市都筑区,川和町８６７－１０２号室,,14,118,2240057,,,2025-12-05,清算の結了等,,,2015-10-05,1,,,,,メックス,0
1874,8011101099558,登記記録の閉鎖等,0,2025-12-11,2025-11-13,株式会社Ｌａ　Ｋｅｙ,,株式会社,東京都,新宿区,百人町２丁目２６番１６－３１０号,,13,104,1690073,,,2025-11-13,清算の結了等,,,2022-07-14,1,,,,,ラキー,0
1879,8011301016593,登記記録の閉鎖等,0,2025-12-11,2025-12-08,株式会社ヒカリ技建,,株式会社,東京都,杉並区,和泉４丁目１８番５号リバーサイドハイツ８号棟３０３,,13,115,1680063,,,2025-12-08,清算の結了等,,,2015-10-05,1,,,,,ヒカリギケン,0
1881,8011501021963,登記記録の閉鎖等,0,2025-12-11,2025-11-25,アカツキコレクション株式会社,,株式会社,東京都,中央区,勝どき４丁目６―１―２４０１,,13,102,1040054,,,2025-11-25,清算の結了等,,,2016-09-23,1,,,,,アカツキコレクション,0
1902,8013303005954,登記記録の閉鎖等,0,2025-12-11,2025-11-25,合同会社レアジュール,,合同会社,東京都,豊島区,池袋３丁目３４番７号ビジネスパーク池袋２階,,13,116,1710014,,,2025-11-25,清算の結了等,,,2021-12-24,1,,,,,レアジュール,0
1918,8021001022825,登記記録の閉鎖等,0,2025-12-11,2025-11-25,株式会社サワホーム,,株式会社,神奈川県,秦野市,堀山下４０６番地の２,,14,211,2591304,,,2025-11-25,清算の結了等,,,2015-10-05,1,,,,,サワホーム,0
1922,8021001079403,登記記録の閉鎖等,0,2025-12-11,2025-11-18,ジーニアス株式会社,,株式会社,神奈川県,厚木市,中町２丁目１１－７－３０５,,14,212,2430018,,,2025-11-18,清算の結了等,,,2023-06-23,1,,,,,ジーニアス,0
1928,8030001090724,登記記録の閉鎖等,0,2025-12-11,2025-12-04,国進建設株式会社,,株式会社,埼玉県,秩父市,別所３３９番地,,11,207,3680054,,,2025-12-04,清算の結了等,,,2015-10-05,1,,,,,コクシンケンセツ,0
1956,8120001156136,登記記録の閉鎖等,0,2025-12-11,2025-12-08,株式会社大繊,,株式会社,大阪府,守口市,八雲西町１丁目４５番１４号,,27,209,5700006,,,2025-12-08,清算の結了等,,,2015-10-05,1,,,,,ダイセン,0
1960,8120002025026,登記記録の閉鎖等,0,2025-12-11,2025-12-09,有限会社薩南,,有限会社,大阪府,大阪市東淀川区,豊里１丁目１１番３５号,,27,114,5330013,,,2025-12-09,清算の結了等,,,2015-10-05,1,,,,,サツナン,0
1965,8120901033863,登記記録の閉鎖等,0,2025-12-11,2025-12-02,株式会社ウエダ朝日新聞豊中販売,,株式会社,大阪府,豊中市,中桜塚３丁目１３番３号,,27,203,5610881,,,2025-12-02,清算の結了等,,,2015-10-05,1,,,,,ウエダアサヒシンブントヨナカハンバイ,0
1977,8130002030727,登記記録の閉鎖等,0,2025-12-11,2025-12-08,有限会社杉山鈑金工業所,,有限会社,京都府,城陽市,寺田高田３８番地,,26,207,6100121,,,2025-12-08,清算の結了等,,,2015-10-05,1,,,,,スギヤマバンキンコウギョウショ,0
1989,8140003013507,登記記録の閉鎖等,0,2025-12-11,2025-12-09,合同会社ＬＯＮＧ,,合同会社,兵庫県,神戸市長田区,神楽町６丁目４－１－５１０号,,28,106,6530836,,,2025-12-09,清算の結了等,,,2018-12-05,1,,,,,ローン,0
1992,8170005006191,登記記録の閉鎖等,0,2025-12-11,2025-12-10,特定非営利活動法人高田,,その他の設立登記法人,和歌山県,新宮市,高田大野尻１９８１番地,,30,207,6471101,,,2025-12-10,清算の結了等,,,2015-10-05,1,,,,,タカタ,0
1993,8180001006293,登記記録の閉鎖等,0,2025-12-11,2025-12-05,鬼頭製菓株式会社,,株式会社,愛知県,名古屋市港区,小碓１丁目３７７番地,,23,111,4550801,,,2025-12-05,清算の結了等,,,2015-10-05,1,,,,,キトウセイカ,0
1996,8180001050688,登記記録の閉鎖等,0,2025-12-11,2025-12-08,ＫＴＩ出版株式会社,,株式会社,愛知県,名古屋市瑞穂区,東栄町６丁目９番地の３,,23,108,4670017,,,2025-12-08,清算の結了等,,,2015-10-05,1,,,,,ケーティーアイシュッパン,0
2004,8180302027699,登記記録の閉鎖等,0,2025-12-11,2025-12-04,有限会社鈴木屋,,有限会社,愛知県,新城市,字町並３０４番地,,23,221,4411374,,,2025-12-04,清算の結了等,,,2015-10-05,1,,,,,スズキヤ,0
2005,8190002022842,登記記録の閉鎖等,0,2025-12-11,2025-12-08,有限会社保坂印刷機械販売,,有限会社,三重県,四日市市,桜花台２丁目３５番地の７,,24,202,5121216,,,2025-12-08,清算の結了等,,,2015-10-05,1,,,,,ホサカインサツキカイハンバイ,0
2016,8250002012077,登記記録の閉鎖等,0,2025-12-11,2025-12-10,有限会社ふく晴,,有限会社,山口県,下関市,彦島西山町５丁目５番１号,,35,201,7500093,,,2025-12-10,清算の結了等,,,2015-10-05,1,,,,,,0
2018,8260001036480,登記記録の閉鎖等,0,2025-12-11,2025-12-08,株式会社ｈａｌｍ,,株式会社,岡山県,岡山市北区,田中６０５番地２,,33,101,7000951,,,2025-12-08,清算の結了等,,,2022-02-03,1,,,,,ハルム,0
2025,8290002052020,登記記録の閉鎖等,0,2025-12-11,2025-11-28,有限会社ミルクランドきたの,,有限会社,福岡県,久留米市,北野町中２９２０番地の１,,40,203,8301113,,,2025-11-28,清算の結了等,,,2015-10-05,1,,,,,ミルクランドキタノ,0
2027,8290802016117,登記記録の閉鎖等,0,2025-12-11,2025-12-01,有限会社田鍋創研,,有限会社,福岡県,北九州市八幡西区,陣原５丁目７番６－６０５号,,40,109,8070821,,,2025-12-01,清算の結了等,,,2015-10-05,1,,,,,,0
2040,8370001002892,登記記録の閉鎖等,0,2025-12-11,2025-12-04,株式会社木村商店,,株式会社,宮城県,仙台市青葉区,錦ケ丘３丁目３番地の５,,04,101,9893123,,,2025-12-04,清算の結了等,,,2015-10-05,1,,,,,キムラショウテン,0
2041,8370202004333,登記記録の閉鎖等,0,2025-12-11,2025-12-08,有限会社熱海産業,,有限会社,宮城県,栗原市,築館新田１番２１号,,04,213,9872263,,,2025-12-08,清算の結了等,,,2015-10-05,1,,,,,アツミサンギョウ,0
2045,8390001001942,登記記録の閉鎖等,0,2025-12-11,2025-12-03,株式会社山形ドルフインクラブ,,株式会社,山形県,山形市,城西町１丁目５番１７号,,06,201,9900832,,,2025-12-03,清算の結了等,,,2015-10-05,1,,,,,ヤマガタドルフィンクラブ,0
2047,8430001026745,登記記録の閉鎖等,0,2025-12-11,2025-12-05,株式会社ブレーン・ニュース・ネットワーク,,株式会社,北海道,札幌市中央区,北一条西２丁目１番地,,01,101,0600001,,,2025-12-05,清算の結了等,,,2015-10-05,1,,,,,ブレーンニュースネットワーク,0
2048,8430001050976,登記記録の閉鎖等,0,2025-12-11,2025-12-05,木田建設株式会社,,株式会社,北海道,余市郡仁木町,北町３丁目１１１番地,,01,407,0482405,,,2025-12-05,清算の結了等,,,2015-10-05,1,,,,,キダケンセツ,0
2049,8430001062476,登記記録の閉鎖等,0,2025-12-11,2025-12-04,株式会社太成,,株式会社,北海道,札幌市北区,北七条西４丁目３番地,,01,102,0600807,,,2025-12-04,清算の結了等,,,2015-10-05,1,,,,,タイセイ,0
2054,8470002018960,登記記録の閉鎖等,0,2025-12-11,2025-12-01,有限会社ジャパレン小豆島,,有限会社,香川県,小豆郡土庄町,甲５１６５番地２４６,,37,322,7614101,,,2025-12-01,清算の結了等,,,2015-10-05,1,,,,,ジャパレンショウドシマ,0
2057,8490003002029,登記記録の閉鎖等,0,2025-12-11,2025-12-09,合同会社稲穂,,合同会社,高知県,高知市,針木北１丁目７－２０－６,,39,201,7808087,,,2025-12-09,清算の結了等,,,2025-06-27,1,,,,,イナホ,0
2060,8500002016309,登記記録の閉鎖等,0,2025-12-11,2025-12-05,有限会社近藤ストアー,,有限会社,愛媛県,新居浜市,東雲町１丁目４番４３号,,38,205,7920864,,,2025-12-05,清算の結了等,,,2015-10-05,1,,,,,コンドウストアー,0
2075,9010001177976,登記記録の閉鎖等,0,2025-12-11,2025-11-25,株式会社廣川鉄男事務所,,株式会社,東京都,文京区,弥生２丁目２番３号,,13,105,1130032,,,2025-11-25,清算の結了等,,,2016-08-30,1,,,,,ヒロカワテツオジムショ,0
2098,9010405018000,登記記録の閉鎖等,0,2025-12-11,2025-11-19,ナガヤマ特定目的会社,,その他の設立登記法人,東京都,港区,赤坂２丁目１０番５号デロイトトーマツ赤坂インターナショナル株式会社内,,13,103,1070052,,,2025-11-19,清算の結了等,,,2019-08-22,1,,,,,ナガヤマ,0
2100,9010501018795,登記記録の閉鎖等,0,2025-12-11,2025-12-04,株式会社リフレ,,株式会社,東京都,台東区,台東１丁目９番２号,,13,106,1100016,,,2025-12-04,清算の結了等,,,2015-10-05,1,,,,,リフレ,0
2106,9011001058638,登記記録の閉鎖等,0,2025-12-11,2025-11-17,株式会社ＳＨＩＮ,,株式会社,東京都,渋谷区,道玄坂１丁目１０番８号渋谷道玄坂東急ビル２Ｆ－Ｃ,,13,113,1500043,,,2025-11-17,清算の結了等,,,2015-10-05,1,,,,,シン,0
2116,9011003004177,登記記録の閉鎖等,0,2025-12-11,2025-11-17,Ｄ．Ｄ．ＤＩＮＯ合同会社,,合同会社,東京都,渋谷区,東２丁目９番１８号,,13,113,1500011,,,2025-11-17,清算の結了等,,,2015-10-05,1,,,,,ディディディーノ,0
2117,9011003006553,登記記録の閉鎖等,0,2025-12-11,2025-12-08,菊栄合同会社,,合同会社,東京都,目黒区,三田２丁目１０番７号,,13,110,1530062,,,2025-12-08,合併による解散等,1130001060046,令和７年１２月１日京都市左京区下鴨宮崎町１６８番地２株式会社菊榮知（1130001060046）に合併し解散,2016-02-04,1,,,,,,0
2127,9011601022258,登記記録の閉鎖等,0,2025-12-11,2025-12-04,株式会社ＧＲＥＥＮ,,株式会社,東京都,練馬区,早宮２丁目１７番４７号平和台ＳＴビル１階,,13,120,1790085,,,2025-12-04,清算の結了等,,,2017-12-13,1,,,,,グリーン,0
2133,9011802030175,登記記録の閉鎖等,0,2025-12-11,2025-12-08,有限会社小沢洋服店,,有限会社,東京都,葛飾区,柴又５丁目１番５号,,13,122,1250052,,,2025-12-08,清算の結了等,,,2015-10-05,1,,,,,オザワヨウフクテン,0
2139,9012802007353,登記記録の閉鎖等,0,2025-12-11,2025-12-05,有限会社エクステリアコジマ,,有限会社,東京都,武蔵村山市,大南２丁目１５０番地の３,,13,223,2080013,,,2025-12-05,清算の結了等,,,2015-10-05,1,,,,,,0
2140,9013102007085,登記記録の閉鎖等,0,2025-12-11,2025-12-10,原島製菓有限会社,,有限会社,東京都,西多摩郡奥多摩町,小丹波３４番地,,13,308,1980105,,,2025-12-10,清算の結了等,,,2015-10-05,1,,,,,,0
2144,9013303003692,登記記録の閉鎖等,0,2025-12-11,2025-12-01,合同会社ＭＩ３,,合同会社,東京都,豊島区,池袋３丁目４６番５号,,13,116,1710014,,,2025-12-01,合併による解散等,6013303003662,令和７年１１月３０日東京都豊島区池袋三丁目４６番５号合同会社ＭＩ２（6013303003662）に合併し解散,2017-05-12,1,,,,,エムアイスリー,0
2145,9013405000118,登記記録の閉鎖等,0,2025-12-11,2025-12-08,医療法人社団高佑会,,その他の設立登記法人,東京都,多摩市,落合１丁目２４番地１ルミエール１階,,13,224,2060033,,,2025-12-08,清算の結了等,,,2015-10-05,1,,,,,コウユウカイ,0
2165,9030001148728,登記記録の閉鎖等,0,2025-12-11,2025-12-08,株式会社カライドスコープ,,株式会社,東京都,足立区,千住仲町２番３号ハマノ第１ビル５階,,13,121,1200036,,,2025-12-08,清算の結了等,,,2022-06-15,1,,,,,カライドスコープ,0
2169,9030002064651,登記記録の閉鎖等,0,2025-12-11,2025-12-03,有限会社三友ホーム,,有限会社,埼玉県,新座市,野寺４丁目１０番１９号１０５,,11,230,3520034,,,2025-12-03,清算の結了等,,,2015-10-05,1,,,,,サンユウホーム,0
2171,9030002072613,登記記録の閉鎖等,0,2025-12-11,2025-12-04,有限会社大見工務店,,有限会社,埼玉県,川越市,大字下広谷１０３５番地１,,11,201,3500804,,,2025-12-04,清算の結了等,,,2015-10-05,1,,,,,オオミコウムテン,0
2172,9030002080657,登記記録の閉鎖等,0,2025-12-11,2025-12-04,有限会社さいかち,,有限会社,埼玉県,本庄市,けや木１丁目１４番１６号,,11,211,3670042,,,2025-12-04,清算の結了等,,,2015-10-05,1,,,,,サイカチ,0
2178,9040001032484,登記記録の閉鎖等,0,2025-12-11,2025-11-19,株式会社菜々花,,株式会社,千葉県,浦安市,美浜１丁目４番１４０８号,,12,227,2790011,,,2025-11-19,清算の結了等,,,2015-10-05,1,,,,,ナナハナ,0
2201,9070001024487,登記記録の閉鎖等,0,2025-12-11,2025-12-05,ビオファジャパン株式会社,,株式会社,群馬県,前橋市,堀越町２５１番地１,,10,201,3710231,,,2025-12-05,清算の結了等,,,2015-10-05,1,,,,,ビオファジャパン,0
2204,9070001034800,登記記録の閉鎖等,0,2025-12-11,2025-12-08,株式会社本島設計,,株式会社,群馬県,高崎市,上並榎町７５２番地８,,10,202,3700801,,,2025-12-08,清算の結了等,,,2018-06-11,1,,,,,モトジマセッケイ,0
2205,9070001041177,登記記録の閉鎖等,0,2025-12-11,2025-12-09,株式会社ｔｒｉｐＵＮＩＴＥ,,株式会社,群馬県,高崎市,新町３１２３番地１,,10,202,3701301,,,2025-12-09,清算の結了等,,,2023-12-13,1,,,,,トリップユナイト,0
2207,9070005009435,登記記録の閉鎖等,0,2025-12-11,2025-12-08,一般社団法人日本ミニチュアシュガー協会,,その他の設立登記法人,群馬県,伊勢崎市,境４７６番地３,,10,204,3700124,,,2025-12-08,清算の結了等,,,2018-02-07,1,,,,,ニホンミニチュアシュガーキョウカイ,0
2208,9090001016565,登記記録の閉鎖等,0,2025-12-11,2025-12-08,株式会社ディー・プラン,,株式会社,山梨県,甲斐市,玉川３７番地１,,19,210,4000116,,,2025-12-08,合併による解散等,7010001095222,令和７年１２月１日東京都千代田区丸の内一丁目８番１号丸の内トラストタワーＮ館Ａｐａｍａｎ　Ｐｒｏｐｅｒｔｙ株式会社（7010001095222）に合併し解散,2020-07-07,1,,,,,ディープラン,0
2213,9100002019326,登記記録の閉鎖等,0,2025-12-11,2025-12-05,有限会社エイケイ赤羽建築店,,有限会社,長野県,松本市,大字岡田松岡５１０番地２,,20,202,3900312,,,2025-12-05,清算の結了等,,,2015-10-05,1,,,,,エイケイアカハネケンチクテン,0
2214,9100002029432,登記記録の閉鎖等,0,2025-12-11,2025-12-08,壓地製材有限会社,,有限会社,長野県,諏訪郡富士見町,富士見１４番地,,20,362,3990211,,,2025-12-08,清算の結了等,,,2015-10-05,1,,,,,アツチセイザイ,0
2217,9120001101140,登記記録の閉鎖等,0,2025-12-11,2025-12-04,株式会社東京総合研究所,,株式会社,大阪府,大阪市淀川区,西中島５丁目８番２９号,,27,123,5320011,,,2025-12-04,清算の結了等,,,2015-10-05,1,,,,,トウキョウソウゴウケンキュウショ,0
2227,9120001157455,登記記録の閉鎖等,0,2025-12-11,2025-12-09,株式会社ＭＳ,,株式会社,大阪府,門真市,脇田町３２番２２号,,27,223,5710011,,,2025-12-09,清算の結了等,,,2015-10-05,1,,,,,エムエス,0
2235,9120101065616,登記記録の閉鎖等,0,2025-12-11,2025-12-02,株式会社勝希代,,株式会社,大阪府,堺市東区,日置荘西町３丁５番６号,,27,143,5998114,,,2025-12-02,清算の結了等,,,2022-05-23,1,,,,,カツキヨ,0
2257,9140001102153,登記記録の閉鎖等,0,2025-12-11,2025-12-10,株式会社ｋｏｋｏｉｑｕｅ,,株式会社,兵庫県,神戸市東灘区,御影本町８丁目１１番１８号,,28,101,6580046,,,2025-12-10,清算の結了等,,,2016-05-27,1,,,,,,0
2261,9140005017851,登記記録の閉鎖等,0,2025-12-11,2025-12-08,一般社団法人日本芝刈機規格工業会,,その他の設立登記法人,兵庫県,小野市,本町１０番地,,28,218,6751372,,,2025-12-08,清算の結了等,,,2015-10-05,1,,,,,ニホンシバカリキキカクコウギョウカイ,0
2264,9170001005907,登記記録の閉鎖等,0,2025-12-11,2025-12-09,株式会社日本精膏社,,株式会社,和歌山県,海南市,下津町小南１２６－４,,30,202,6490141,,,2025-12-09,合併による解散等,6030001066965,令和７年１１月１日大阪府茨木市西駅前町１３番２５号株式会社ウィーズ（6030001066965）に合併し解散,2015-10-05,1,,,,,ニホンセイコウシャ,0
2272,9180002009542,登記記録の閉鎖等,0,2025-12-11,2025-12-05,有限会社西遊記,,有限会社,愛知県,名古屋市緑区,滝ノ水１丁目２６１５番地の１アズーリィビル２階南側,,23,114,4580021,,,2025-12-05,清算の結了等,,,2015-10-05,1,,,,,サイユウキ,0
2279,9200002022303,登記記録の閉鎖等,0,2025-12-11,2025-12-04,有限会社酒井住設機器,,有限会社,岐阜県,多治見市,笠原町９６２番地,,21,204,5070901,,,2025-12-04,清算の結了等,,,2015-10-05,1,,,,,サカイジュウセツキキ,0
2283,9230001013787,登記記録の閉鎖等,0,2025-12-11,2025-12-08,大成食品株式会社,,株式会社,富山県,富山市,水橋畠等２９７番地,,16,201,9393521,,,2025-12-08,清算の結了等,,,2015-10-05,1,,,,,タイセイショクヒン,0
2286,9240001061934,登記記録の閉鎖等,0,2025-12-11,2025-12-01,ジェイマックス株式会社,,株式会社,広島県,広島市西区,横川町２丁目１２番１７－１４０２号,,34,104,7330011,,,2025-12-01,清算の結了等,,,2023-08-08,1,,,,,ジェイマックス,0
2290,9250001013042,登記記録の閉鎖等,0,2025-12-11,2025-12-08,株式会社山縣組,,株式会社,山口県,柳井市,神代４８０６番地１,,35,212,7490101,,,2025-12-08,合併による解散等,4250001012791,令和７年１１月３０日山口県大島郡周防大島町大字久賀５０５８番地１１藤川建設株式会社（4250001012791）に合併し解散,2015-10-05,1,,,,,ヤマガタグミ,0
2291,9250002006086,登記記録の閉鎖等,0,2025-12-11,2025-12-10,有限会社木村測量,,有限会社,山口県,山陽小野田市,高千帆１丁目２６番１３号,,35,216,7560060,,,2025-12-10,清算の結了等,,,2015-10-05,1,,,,,キムラソクリョウ,0
2293,9260002032073,登記記録の閉鎖等,0,2025-12-11,2025-12-05,有限会社宗兼建築,,有限会社,岡山県,備前市,蕃山７９４番地の１,,33,211,7050031,,,2025-12-05,清算の結了等,,,2015-10-05,1,,,,,ムネカネケンチク,0
2315,9330003007736,登記記録の閉鎖等,0,2025-12-11,2025-12-04,合同会社ＭＫマネジメント,,合同会社,熊本県,阿蘇郡小国町,大字下城４２２３番地,,43,424,8692503,,,2025-12-04,清算の結了等,,,2018-12-18,1,,,,,エムケイマネジメント,0
2317,9360002013014,登記記録の閉鎖等,0,2025-12-11,2025-12-04,有限会社サン測量設計,,有限会社,沖縄県,うるま市,勝連南風原４０５５番地,,47,213,9042311,,,2025-12-04,清算の結了等,,,2015-10-05,1,,,,,サンソクリョウセッケイ,0
2326,9390001015248,登記記録の閉鎖等,0,2025-12-11,2025-12-09,株式会社アイスクリエイト,,株式会社,山形県,酒田市,亀ケ崎２丁目１１番４３号,,06,204,9980842,,,2025-12-09,清算の結了等,,,2018-03-29,1,,,,,アイスクリエイト,0
2329,9410003003215,登記記録の閉鎖等,0,2025-12-11,2025-12-10,合同会社ＳＩＮ,,合同会社,秋田県,秋田市,新屋元町２番１８号,,05,201,0101631,,,2025-12-10,清算の結了等,,,2018-12-05,1,,,,,エスアイエヌ,0
2330,9420002007232,登記記録の閉鎖等,0,2025-12-11,2025-12-02,有限会社下舘ホンダ,,有限会社,青森県,八戸市,大字田面木字上田面木５３番地,,02,203,0391104,,,2025-12-02,清算の結了等,,,2015-10-05,1,,,,,シモダテホンダ,0
2336,9470001011899,登記記録の閉鎖等,0,2025-12-11,2025-12-08,株式会社えんぴつはうす,,株式会社,香川県,高松市,鬼無町是竹１３１番地２,,37,201,7618021,,,2025-12-08,清算の結了等,,,2015-10-05,1,,,,,,0
2338,9470005006094,登記記録の閉鎖等,0,2025-12-11,2025-11-28,ＥＣサービス協同組合,,その他の設立登記法人,香川県,高松市,宮脇町１丁目２０番６号,,37,201,7600005,,,2025-11-28,清算の結了等,,,2018-04-17,1,,,,,イーシーサービス,0
