sequenceNumber,corporateNumber,process,correct,updateDate,changeDate,name,nameImageId,kind,prefectureName,cityName,streetNumber,addressImageId,prefectureCode,cityCode,postCode,addressOutside,addressOutsideImageId,closeDate,closeCause,successorCorporateNumber,changeCause,assignmentDate,latest,enName,enPrefectureName,enCityName,enAddressOutside,furigana,hihyoji
2,1010001247803,新規,0,2024-09-06,2024-09-06,株式会社善,,株式会社,東京都,中央区,銀座４丁目１２－２０銀座アポロ昭和館３階,,13,102,1040061,,,,,,,2024-09-06,1,,,,,ゼン,0
3,1010001248041,新規,0,2024-09-06,2024-09-06,株式会社ギャンビットホールディングス,,株式会社,東京都,中央区,築地１丁目９番５号,,13,102,1040045,,,,,,,2024-09-06,1,,,,,ギャンビットホールディングス,0
4,1010003044793,新規,0,2024-09-06,2024-09-06,クローエッジコンサルティング合同会社,,合同会社,東京都,中央区,京橋１丁目１－９千疋屋ビル７Ｂ,,13,102,1040031,,,,,,,2024-09-06,1,,,,,クローエッジコンサルティング,0
5,1010003044810,新規,0,2024-09-06,2024-09-06,ＷＯＯＤ‐ＳＫＹ合同会社,,合同会社,東京都,中央区,日本橋室町１丁目１１番１２号日本橋水野ビル７階,,13,102,1030022,,,,,,,2024-09-06,1,,,,,ウッドスカイ,0
6,1010003044819,新規,0,2024-09-06,2024-09-06,合同会社東栄,,合同会社,東京都,千代田区,二番町１番地２・番町ハイム９０４号室,,13,101,1020084,,,,,,,2024-09-06,1,,,,,トウエイ,0
13,1010401184902,新規,0,2024-09-06,2024-09-06,株式会社ハウステック,,株式会社,東京都,港区,西新橋３丁目８番２号ウエストビル５・４階,,13,103,1050003,,,,,,,2024-09-06,1,,,,,ハウステック,0
14,1010401184910,新規,0,2024-09-06,2024-09-06,ドルフベルク株式会社,,株式会社,東京都,港区,高輪３丁目２１番７号レガロ高輪４０３,,13,103,1080074,,,,,,,2024-09-06,1,,,,,ドルフベルク,0
15,1010401184927,新規,0,2024-09-06,2024-09-06,株式会社クレド,,株式会社,東京都,港区,芝大門１丁目１０番１１号芝大門センタービル１０階,,13,103,1050012,,,,,,,2024-09-06,1,,,,,クレド,0
16,1010401184943,新規,0,2024-09-06,2024-09-06,オリビア・ノア株式会社,,株式会社,東京都,港区,元麻布２丁目１１番２１号,,13,103,1060046,,,,,,,2024-09-06,1,,,,,オリビアノア,0
17,1010401184976,新規,0,2024-09-06,2024-09-06,株式会社フルビオ,,株式会社,東京都,港区,浜松町２丁目２番１５号浜松町ダイヤビル２Ｆ,,13,103,1050013,,,,,,,2024-09-06,1,,,,,フルビオ,0
18,1010401185000,新規,0,2024-09-06,2024-09-06,Ｖｉｎｃｅｎｔ株式会社,,株式会社,東京都,港区,南青山３丁目１番３号スプライン青山東急ビル３階,,13,103,1070062,,,,,,,2024-09-06,1,,,,,ヴィンセント,0
21,1010403033355,新規,0,2024-09-06,2024-09-06,合同会社レッドブリックキャピタル１号,,合同会社,東京都,港区,新橋３丁目８番８号,,13,103,1050004,,,,,,,2024-09-06,1,,,,,レッドブリックキャピタルイチゴウ,0
27,1010703007331,新規,0,2024-09-06,2024-09-06,合同会社松浦会計事務所,,合同会社,東京都,品川区,南大井１丁目９番９号,,13,109,1400013,,,,,,,2024-09-06,1,,,,,マツウラカイケイジムショ,0
29,1010801035366,新規,0,2024-09-06,2024-09-06,株式会社ＩＴＷホールディングス,,株式会社,東京都,大田区,西嶺町１８番９号,,13,111,1450075,,,,,,,2024-09-06,1,,,,,アイティーダブリューホールディングス,0
32,1010901055925,新規,0,2024-09-06,2024-09-06,ＦＬＡＲＥＳＴＯＮＥ株式会社,,株式会社,東京都,世田谷区,瀬田１丁目２８番２４号,,13,112,1580095,,,,,,,2024-09-06,1,,,,,フレアストーン,0
36,1011001164484,新規,0,2024-09-06,2024-09-06,株式会社Ｃｏｌｏｒｆｕｌ　Ｍａｒｃｈ,,株式会社,東京都,渋谷区,恵比寿南３丁目２番４号ランドヒル恵比寿２０２号,,13,113,1500022,,,,,,,2024-09-06,1,,,,,カラフルマーチ,0
37,1011001164518,新規,0,2024-09-06,2024-09-06,株式会社リンポム,,株式会社,東京都,渋谷区,神宮前６丁目２３番４号桑野ビル２階,,13,113,1500001,,,,,,,2024-09-06,1,,,,,リンポム,0
41,1011003019967,新規,0,2024-09-06,2024-09-06,ナミスマート合同会社,,合同会社,東京都,渋谷区,神泉町１０番１５号アネックス神泉３０１,,13,113,1500045,,,,,,,2024-09-06,1,,,,,ナミスマート,0
43,1011105011145,新規,0,2024-09-06,2024-09-06,一般社団法人世界伝統文化芸術振興協会,,その他の設立登記法人,東京都,新宿区,大久保１丁目２番１８－４０５号,,13,104,1690072,,,,,,,2024-09-06,1,,,,,セカイデントウブンカゲイジュツシンコウキョウカイ,0
47,1011403004494,新規,0,2024-09-06,2024-09-06,合同会社アパ・ルーム,,合同会社,東京都,板橋区,板橋３丁目３２番１号,,13,119,1730004,,,,,,,2024-09-06,1,,,,,アパルーム,0
50,1011701027610,新規,0,2024-09-06,2024-09-06,株式会社ＩＮＤＩＧＯ　ＣＯＦＦＥＥ　ＷＯＲＫＳ,,株式会社,東京都,江戸川区,西小岩１丁目２８番１８号ケイエスビル１Ｆ,,13,123,1330057,,,,,,,2024-09-06,1,,,,,インディゴコーヒーワークス,0
54,1011801044803,新規,0,2024-09-06,2024-09-06,ＳＥＴホールディングス株式会社,,株式会社,東京都,葛飾区,奥戸３丁目１０番６号,,13,122,1240022,,,,,,,2024-09-06,1,,,,,セットホールディングス,0
56,1012401042255,新規,0,2024-09-06,2024-09-06,株式会社Ｆｌｅｘ　Ｌｉｆｅ　Ｓｔｙｌｅ,,株式会社,東京都,調布市,飛田給１丁目１２番地３ＲＳハイツ１階,,13,208,1820036,,,,,,,2024-09-06,1,,,,,フレックスライフスタイル,0
58,1012705002418,新規,0,2024-09-06,2024-09-06,医療法人社団倫和会,,その他の設立登記法人,東京都,小平市,花小金井３丁目２番５号ドミール黒沢１階,,13,211,1870002,,,,,,,2024-09-06,1,,,,,リンワカイ,0
60,1012801023425,新規,0,2024-09-06,2024-09-06,慈菴株式会社,00136216,株式会社,東京都,昭島市,中神町１１７０番地１,,13,207,1960022,,,,,,,2024-09-06,1,,,,,ジアン,0
61,1012801023441,新規,0,2024-09-06,2024-09-06,株式会社ｏｔｏｒｉｂａ,,株式会社,東京都,国立市,北２丁目２２番地の８,,13,215,1860001,,,,,,,2024-09-06,1,,,,,オトリバ,0
62,1012805003290,新規,0,2024-09-06,2024-09-06,医療法人社団ＨＩＬＯ,,その他の設立登記法人,東京都,国立市,富士見台３丁目２２番地の２５,,13,215,1860003,,,,,,,2024-09-06,1,,,,,ヒロ,0
64,1013303007288,新規,0,2024-09-06,2024-09-06,合同会社サンライズ商事,,合同会社,東京都,豊島区,南大塚３丁目２４番１０号,,13,116,1700005,,,,,,,2024-09-06,1,,,,,サンライズショウジ,0
65,1013305003640,新規,0,2024-09-06,2024-09-06,一般社団法人日中ライブアイドル交流協会,,その他の設立登記法人,東京都,豊島区,高田３丁目４－１０－３階,,13,116,1710033,,,,,,,2024-09-06,1,,,,,ニッチュウライブアイドルコウリュウキョウカイ,0
74,1020001158891,新規,0,2024-09-06,2024-09-06,株式会社愛笑,,株式会社,神奈川県,川崎市川崎区,殿町３丁目６番１号カサグランデ２０２,,14,131,2100821,,,,,,,2024-09-06,1,,,,,アイショウ,0
75,1020001158990,新規,0,2024-09-06,2024-09-06,株式会社彩ＴｏｔａｌＨｏｍｅＳｔａｔｉｏｎ,,株式会社,神奈川県,横浜市中区,桜木町１丁目１０１番地１クロスゲート７階,,14,104,2310062,,,,,,,2024-09-06,1,,,,,サイトータルホームステーション,0
76,1020001159015,新規,0,2024-09-06,2024-09-06,株式会社ＳＡＫＵＲＡ　ＣＯＲＰＯＲＡＴＩＯＮ,,株式会社,神奈川県,横浜市戸塚区,戸塚町１４１番地２田中ビル２階,,14,110,2440003,,,,,,,2024-09-06,1,,,,,サクラコーポレーション,0
77,1020001159031,新規,0,2024-09-06,2024-09-06,株式会社ＳＦＩＤＡ,,株式会社,神奈川県,川崎市宮前区,菅生１丁目８番４５号グランシャリオ２０５,,14,136,2160015,,,,,,,2024-09-06,1,,,,,スフィーダ,0
78,1020001159072,新規,0,2024-09-06,2024-09-06,株式会社Ｓｕｐｐｏｒｔ,,株式会社,神奈川県,横浜市保土ケ谷区,桜ケ丘１丁目３８番３６号,,14,106,2400011,,,,,,,2024-09-06,1,,,,,サポート,0
79,1020003026799,新規,0,2024-09-06,2024-09-06,合同会社Ｃｉｒｃｌｅｓｔ,,合同会社,神奈川県,川崎市多摩区,菅馬場３丁目１－２６,,14,135,2140004,,,,,,,2024-09-06,1,,,,,サークレスト,0
80,1020003026849,新規,0,2024-09-06,2024-09-06,ａｐｐｕｉ　Ｉｎｔｅｒｎａｔｉｏｎａｌ合同会社,,合同会社,神奈川県,川崎市中原区,新丸子町９１１－２１サンビーム小杉２０２号室,,14,133,2110005,,,,,,,2024-09-06,1,,,,,アピュイインターナショナル,0
82,1021003014967,新規,0,2024-09-06,2024-09-06,合同会社Ｎ．ｍｐ４,,合同会社,神奈川県,相模原市中央区,千代田５丁目２番地４号,,14,152,2520237,,,,,,,2024-09-06,1,,,,,エヌドットエムピーフォー,0
89,1030001162281,新規,0,2024-09-06,2024-09-06,株式会社わたなべさん,,株式会社,埼玉県,さいたま市南区,鹿手袋２丁目７番７－２０８号,,11,108,3360031,,,,,,,2024-09-06,1,,,,,ワタナベサン,0
90,1030001162331,新規,0,2024-09-06,2024-09-06,株式会社花井企画,,株式会社,埼玉県,ふじみ野市,上福岡１丁目６番３２号,,11,245,3560004,,,,,,,2024-09-06,1,,,,,ハナイキカク,0
91,1030001162348,新規,0,2024-09-06,2024-09-06,株式会社Ｃｏｎｔｒｏｕｄｉｔ　ＡＩ,,株式会社,埼玉県,さいたま市岩槻区,美園東１丁目２６番地１７,,11,110,3390028,,,,,,,2024-09-06,1,,,,,コントロウディットエーアイ,0
94,1030003025040,新規,0,2024-09-06,2024-09-06,合同会社ＮＥＳＴ,,合同会社,埼玉県,さいたま市大宮区,大門町２丁目２０番地１シャトレトミナガＡ１０１,,11,103,3300846,,,,,,,2024-09-06,1,,,,,ネスト,0
104,1040001135245,新規,0,2024-09-06,2024-09-06,ユタクラ株式会社,,株式会社,千葉県,船橋市,旭町２丁目５番２５号,,12,204,2730041,,,,,,,2024-09-06,1,,,,,ユタクラ,0
105,1040001135253,新規,0,2024-09-06,2024-09-06,リアレスハウス株式会社,,株式会社,千葉県,松戸市,東松戸１丁目２番地の１６ＫａｌｍｉａＥａｓｔ５０２号,,12,207,2702225,,,,,,,2024-09-06,1,,,,,リアレスハウス,0
113,1050003008654,新規,0,2024-09-06,2024-09-06,ＲＭＲ　ＴＲＡＤＩＮＧ合同会社,,合同会社,茨城県,坂東市,大馬新田１７番地１,,08,228,3060601,,,,,,,2024-09-06,1,,,,,アールエムアールトレーディング,0
116,1070001042166,新規,0,2024-09-06,2024-09-06,ＩＳＥホールディングス株式会社,,株式会社,群馬県,伊勢崎市,三室町５２２９番地１,,10,204,3792235,,,,,,,2024-09-06,1,,,,,アイエスイーホールディングス,0
123,1080105006454,新規,0,2024-09-06,2024-09-06,一般社団法人印野緑営社,,その他の設立登記法人,静岡県,御殿場市,印野１８３１番地の１,,22,215,4120008,,,,,,,2024-09-06,1,,,,,インノリョクエイシャ,0
124,1080401027427,新規,0,2024-09-06,2024-09-06,あん株式会社,,株式会社,静岡県,浜松市浜名区,中条１５３７番地の３,,22,139,4340043,,,,,,,2024-09-06,1,,,,,アン,0
127,1080403005091,新規,0,2024-09-06,2024-09-06,合同会社ＵＫオート,,合同会社,静岡県,浜松市中央区,上石田町２５２,,22,138,4350001,,,,,,,2024-09-06,1,,,,,ユーケーオート,0
146,1120001268318,新規,0,2024-09-06,2024-09-06,株式会社エール４Ｕ,,株式会社,大阪府,大阪市北区,梅田３丁目２番１２３号イノゲート大阪９階,,27,127,5300001,,,,,,,2024-09-06,1,,,,,エールフォーユー,0
147,1120001268334,新規,0,2024-09-06,2024-09-06,株式会社幸川,,株式会社,大阪府,大阪市福島区,野田５丁目３番１５号,,27,103,5530005,,,,,,,2024-09-06,1,,,,,サチカワ,0
148,1120001268350,新規,0,2024-09-06,2024-09-06,株式会社中村設備,,株式会社,大阪府,大阪市東住吉区,照ケ丘矢田２丁目１２－１１クリエオーレＩＩ３０２,00136215,27,121,5460021,,,,,,,2024-09-06,1,,,,,ナカムラセツビ,0
149,1120001268375,新規,0,2024-09-06,2024-09-06,株式会社ファイブルーツリテール,,株式会社,大阪府,大阪市北区,天神橋２丁目５番２５号,,27,127,5300041,,,,,,,2024-09-06,1,,,,,ファイブルーツリテール,0
150,1120001268391,新規,0,2024-09-06,2024-09-06,株式会社利他,,株式会社,大阪府,大阪市中央区,久太郎町１丁目９－１７フクダ不動産堺筋本町ビル８０１号室,,27,128,5410056,,,,,,,2024-09-06,1,,,,,リタ,0
151,1120001268400,新規,0,2024-09-06,2024-09-06,聚隆株式会社,,株式会社,大阪府,大阪市中央区,南久宝寺町１丁目４番１５号,,27,128,5410058,,,,,,,2024-09-06,1,,,,,ジュリュウ,0
155,1120003027473,新規,0,2024-09-06,2024-09-06,合同会社ＣＣＴ,,合同会社,大阪府,大阪市北区,紅梅町４－２４リップル南森町７０５,,27,127,5300038,,,,,,,2024-09-06,1,,,,,シーシーティー,0
156,1120003027481,新規,0,2024-09-06,2024-09-06,宮古島ファンド合同会社,,合同会社,大阪府,大阪市中央区,東心斎橋１丁目５番２－３０２号,,27,128,5420083,,,,,,,2024-09-06,1,,,,,ミヤコジマファンド,0
157,1120901049726,新規,0,2024-09-06,2024-09-06,株式会社ＤＯＩＴ,,株式会社,大阪府,箕面市,如意谷１丁目６番１－３０２号,,27,220,5620011,,,,,,,2024-09-06,1,,,,,ドゥーイット,0
158,1120901049742,新規,0,2024-09-06,2024-09-06,株式会社ＩＭＡＩ,,株式会社,大阪府,豊中市,千成町１丁目１番２号,,27,203,5610829,,,,,,,2024-09-06,1,,,,,イマイ,0
174,1140001135706,新規,0,2024-09-06,2024-09-06,ひかり建装株式会社,,株式会社,兵庫県,神戸市北区,東有野台３丁目１０－１,,28,109,6511322,,,,,,,2024-09-06,1,,,,,ヒカリケンソウ,0
175,1140001135722,新規,0,2024-09-06,2024-09-06,友和電設株式会社,,株式会社,兵庫県,姫路市,南新在家８番６号,,28,201,6700093,,,,,,,2024-09-06,1,,,,,ユウワデンセツ,0
176,1140001135730,新規,0,2024-09-06,2024-09-06,ウエストプランニング株式会社,,株式会社,兵庫県,尼崎市,杭瀬本町２丁目１６番１７号,,28,202,6600814,,,,,,,2024-09-06,1,,,,,ウエストプランニング,0
197,1180001163026,新規,0,2024-09-06,2024-09-06,株式会社カクエン,,株式会社,愛知県,名古屋市中川区,春田３丁目１６１番地の２牧野ハイツ３０１号,,23,110,4540985,,,,,,,2024-09-06,1,,,,,,0
198,1180001163125,新規,0,2024-09-06,2024-09-06,ＩＴエンジニアリング株式会社,,株式会社,愛知県,名古屋市中村区,名駅３丁目２２番８号大東海ビル８１４Ｂ号室,,23,105,4500002,,,,,,,2024-09-06,1,,,,,アイティーエンジニアリング,0
199,1180001163166,新規,0,2024-09-06,2024-09-06,株式会社シバケン,,株式会社,愛知県,瀬戸市,窯町５４８番地の１５,,23,204,4801219,,,,,,,2024-09-06,1,,,,,シバケン,0
200,1180001163190,新規,0,2024-09-06,2024-09-06,株式会社フードガイドサービス,,株式会社,愛知県,一宮市,花池２丁目１６－１２－４０２号メゾン花池４０３号,,23,203,4910914,,,,,,,2024-09-06,1,,,,,フードガイドサービス,0
207,1200001042887,新規,0,2024-09-06,2024-09-06,株式会社ブルーメイト,,株式会社,岐阜県,岐阜市,柳津町流通センター１丁目１４番地の１,,21,201,5016123,,,,,,,2024-09-06,1,,,,,ブルーメイト,0
208,1210001019901,新規,0,2024-09-06,2024-09-06,株式会社グルート,,株式会社,福井県,敦賀市,鉄輪町１丁目３番１３号,,18,202,9140055,,,,,,,2024-09-06,1,,,,,グルート,0
216,1240003006845,新規,0,2024-09-06,2024-09-06,赤木合同会社,,合同会社,広島県,広島市中区,基町１２－１５あなぶき広島紙屋町ビル７階,,34,101,7300011,,,,,,,2024-09-06,1,,,,,アカギ,0
217,1250001020797,新規,0,2024-09-06,2024-09-06,株式会社サキハ,,株式会社,山口県,下関市,みもすそ川町２２番２号,,35,201,7510813,,,,,,,2024-09-06,1,,,,,サキハ,0
219,1260001039432,新規,0,2024-09-06,2024-09-06,株式会社ＢＬＡＮＣＨＥ,,株式会社,岡山県,岡山市北区,下石井２丁目１０番３０号２９０１,,33,101,7000907,,,,,,,2024-09-06,1,,,,,ブランシュ,0
229,1290001107137,新規,0,2024-09-06,2024-09-06,株式会社Ｈ２Ｏ,,株式会社,福岡県,福岡市博多区,中洲１丁目３番１５号オンリーワンビル２Ｆ,,40,132,8100801,,,,,,,2024-09-06,1,,,,,エイチツーオー,0
230,1290001107153,新規,0,2024-09-06,2024-09-06,アイプロジェクト株式会社,,株式会社,福岡県,福岡市中央区,渡辺通５丁目７番２２－４１１号,,40,133,8100004,,,,,,,2024-09-06,1,,,,,アイプロジェクト,0
231,1290001107161,新規,0,2024-09-06,2024-09-06,株式会社ユアハピネス,,株式会社,福岡県,太宰府市,三条１丁目５番１６号,,40,221,8180111,,,,,,,2024-09-06,1,,,,,ユアハピネス,0
237,1310003004858,新規,0,2024-09-06,2024-09-06,合同会社壱岐地図,,合同会社,長崎県,壱岐市,郷ノ浦町郷ノ浦３８,,42,210,8115135,,,,,,,2024-09-06,1,,,,,,0
239,1330001032413,新規,0,2024-09-06,2024-09-06,Ｌｉｎｋ株式会社,,株式会社,熊本県,阿蘇郡小国町,大字宮原１９０２番地の１,,43,424,8692501,,,,,,,2024-09-06,1,,,,,リンク,0
240,1330003010532,新規,0,2024-09-06,2024-09-06,合同会社マクリモント,,合同会社,熊本県,球磨郡あさぎり町,深田東１８７３－１,,43,514,8680442,,,,,,,2024-09-06,1,,,,,マクリモント,0
258,1380001034776,新規,0,2024-09-06,2024-09-06,株式会社共栄,,株式会社,福島県,南会津郡只見町,大字只見字沖１４５５番地,,07,367,9680421,,,,,,,2024-09-06,1,,,,,キョウエイ,0
278,1700150127042,新規,0,2024-09-06,2024-09-04,あぶくま原木しいたけ生産組合,,その他,福島県,石川郡石川町,字鹿ノ坂２８６番地,,07,501,9637862,,,,,,,2024-09-04,1,,,,,アブクマゲンボクシイタケセイサンクミアイ,0
281,2010001248008,新規,0,2024-09-06,2024-09-06,株式会社ＳＭＬ,,株式会社,東京都,中央区,銀座１丁目２２番１１号銀座大竹ビジデンス２階,,13,102,1040061,,,,,,,2024-09-06,1,,,,,エスエムエル,0
282,2010001248049,新規,0,2024-09-06,2024-09-06,ＧＫＲ株式会社,,株式会社,東京都,中央区,日本橋３丁目２番１４号新槇町ビル別館第一１階,,13,102,1030027,,,,,,,2024-09-06,1,,,,,ジーケーアール,0
283,2010001248098,新規,0,2024-09-06,2024-09-06,株式会社デートリテイリング,,株式会社,東京都,中央区,銀座７丁目１７－１８－４０５,,13,102,1040061,,,,,,,2024-09-06,1,,,,,デートリテイリング,0
284,2010001248123,新規,0,2024-09-06,2024-09-06,Ｇｒｏｖｅ　ｆｉｅｌｄ税務コンサルティング株式会社,,株式会社,東京都,中央区,銀座８丁目１０番７号東成ビル２階,,13,102,1040061,,,,,,,2024-09-06,1,,,,,グローブフィールドゼイムコンサルティング,0
285,2010001248131,新規,0,2024-09-06,2024-09-06,株式会社中野不動産,,株式会社,東京都,千代田区,神田小川町３丁目２６番８号神田小川町三丁目ビル６階,,13,101,1010052,,,,,,,2024-09-06,1,,,,,ナカノフドウサン,0
293,2010401184876,新規,0,2024-09-06,2024-09-06,Ｓｏｆｔ　Ｓｐａｃｅ株式会社,,株式会社,東京都,港区,赤坂２丁目２３番１号アークヒルズ・フロントタワーＩｎＣｏｎｔｒｏｌ内,,13,103,1070052,,,,,,,2024-09-06,1,,,,,ソフトスペース,0
294,2010401184918,新規,0,2024-09-06,2024-09-06,株式会社ケイキプラス,,株式会社,東京都,港区,元赤坂１丁目２番７号,,13,103,1070051,,,,,,,2024-09-06,1,,,,,ケイキプラス,0
295,2010401184926,新規,0,2024-09-06,2024-09-06,株式会社Ｓｔｅｃｈ＆Ｃｏ．,,株式会社,東京都,港区,麻布十番１丁目５番１０号,,13,103,1060045,,,,,,,2024-09-06,1,,,,,ステックアンドカンパニー,0
296,2010401184950,新規,0,2024-09-06,2024-09-06,Ｊｏｕｒｎｅｙ　Ｓｏｆｔｗａｒｅ株式会社,,株式会社,東京都,港区,六本木３丁目３－２７スハラ六本木３階,,13,103,1060032,,,,,,,2024-09-06,1,,,,,ジャーニーソフトウェア,0
297,2010401184959,新規,0,2024-09-06,2024-09-06,Ａｎｙａ＆Ｃｏｍｐａｎｙ株式会社,,株式会社,東京都,港区,赤坂７丁目５番１６－２０７号,,13,103,1070052,,,,,,,2024-09-06,1,,,,,アニヤアンドカンパニー,0
304,2010801035373,新規,0,2024-09-06,2024-09-06,株式会社２ｎｄｓｔａｒｔ,,株式会社,東京都,大田区,山王２丁目５－１３大森北口ビル５Ｆ,,13,111,1430023,,,,,,,2024-09-06,1,,,,,セカンドスタート,0
306,2010803005093,新規,0,2024-09-06,2024-09-06,ＳａｍｓｏｎＣｒｅｗ合同会社,,合同会社,東京都,大田区,蒲田３丁目１９番４－１１０３号,,13,111,1440052,,,,,,,2024-09-06,1,,,,,サムソンクルー,0
307,2010901055940,新規,0,2024-09-06,2024-09-06,株式会社ＢＯＤＥＮ,,株式会社,東京都,世田谷区,瀬田１丁目１６番１０－２０３号,,13,112,1580095,,,,,,,2024-09-06,1,,,,,ボーデン,0
311,2011001164335,新規,0,2024-09-06,2024-09-06,株式会社ｓｈａｒｉｎｇ　ｏｆ　ｔａｌｅｎｔｓ,,株式会社,東京都,渋谷区,千駄ヶ谷３丁目４０番４号,,13,113,1510051,,,,,,,2024-09-06,1,,,,,シェアリングオブタレンツ,0
312,2011001164558,新規,0,2024-09-06,2024-09-06,株式会社Ｅｒｉｃｉｕｓ,,株式会社,東京都,渋谷区,道玄坂１丁目１０番８号渋谷道玄坂東急ビル２Ｆ－Ｃ,,13,113,1500043,,,,,,,2024-09-06,1,,,,,エリシウス,0
313,2011005010675,新規,0,2024-09-06,2024-09-06,医療法人社団ＫＯＮＯ,,その他の設立登記法人,東京都,渋谷区,代官山町２０番２０号モンシェリー代官山２階Ｂ区画,,13,113,1500034,,,,,,,2024-09-06,1,,,,,コウノ,0
326,2011701027601,新規,0,2024-09-06,2024-09-06,株式会社ファンズビー,,株式会社,東京都,江戸川区,松島３丁目１５番１３号,,13,123,1320031,,,,,,,2024-09-06,1,,,,,ファンズビー,0
328,2011801044810,新規,0,2024-09-06,2024-09-06,株式会社ＧＯＤＨＡＮＤサービス,,株式会社,東京都,足立区,千住２丁目４４番地１,,13,121,1200034,,,,,,,2024-09-06,1,,,,,ゴッドハンドサービス,0
333,2012801023440,新規,0,2024-09-06,2024-09-06,株式会社Ｌａｕｇｈ　Ｔａｌｅ,,株式会社,東京都,東大和市,湖畔１丁目１００２番地８２,,13,220,2070002,,,,,,,2024-09-06,1,,,,,ラフテル,0
339,2013303007287,新規,0,2024-09-06,2024-09-06,合同会社エーミーズ,,合同会社,東京都,豊島区,上池袋３丁目１番２９号,,13,116,1700012,,,,,,,2024-09-06,1,,,,,エーミーズ,0
347,2020001158965,新規,0,2024-09-06,2024-09-06,株式会社ＤＫホーム,,株式会社,神奈川県,川崎市川崎区,渡田東町１８番８号,,14,131,2100842,,,,,,,2024-09-06,1,,,,,ディーケーホーム,0
348,2020001159030,新規,0,2024-09-06,2024-09-06,株式会社ロイヤルホーム,,株式会社,神奈川県,横浜市緑区,三保町２４１０番地,,14,113,2260015,,,,,,,2024-09-06,1,,,,,ロイヤルホーム,0
353,2020003026798,新規,0,2024-09-06,2024-09-06,樹楽金沢八景合同会社,,合同会社,神奈川県,横浜市金沢区,六浦２丁目３－１７,,14,108,2360031,,,,,,,2024-09-06,1,,,,,キラクカナザワ,0
354,2020003026872,新規,0,2024-09-06,2024-09-06,合同会社ＧＯＳＨＩＥＮ,,合同会社,神奈川県,横浜市青葉区,荏田町２３４番地３,,14,117,2250013,,,,,,,2024-09-06,1,,,,,ゴシエン,0
355,2020005016525,新規,0,2024-09-06,2024-09-06,一般社団法人未来創造連携機構,,その他の設立登記法人,神奈川県,川崎市高津区,溝口１丁目９番７号長谷川ビル５階,,14,134,2130001,,,,,,,2024-09-06,1,,,,,ミライソウゾウレンケイキコウ,0
363,2021003014982,新規,0,2024-09-06,2024-09-06,ＤＮ　ＡＵＴＯ　ＬＡＮＫＡ合同会社,,合同会社,神奈川県,愛甲郡清川村,煤ヶ谷３２７８番地１－２０２号,,14,402,2430112,,,,,,,2024-09-06,1,,,,,ディーエヌオートランカ,0
369,2030001162289,新規,0,2024-09-06,2024-09-06,株式会社ＳＳＳＵ,,株式会社,埼玉県,行田市,持田３丁目２７番１９－２０１号室,,11,206,3610056,,,,,,,2024-09-06,1,,,,,スリーエスユー,0
370,2030001162297,新規,0,2024-09-06,2024-09-06,株式会社シルバーバンク,,株式会社,埼玉県,さいたま市大宮区,桜木町１丁目３７８番地,,11,103,3300854,,,,,,,2024-09-06,1,,,,,シルバーバンク,0
371,2030001162306,新規,0,2024-09-06,2024-09-06,株式会社ライト,,株式会社,埼玉県,さいたま市西区,西大宮３丁目５５番１７号,,11,101,3310078,,,,,,,2024-09-06,1,,,,,ライト,0
372,2030001162355,新規,0,2024-09-06,2024-09-06,株式会社ＫＡＯＨＡＲＥ,,株式会社,埼玉県,桶川市,坂田東１丁目３２番地の２９,,11,231,3630009,,,,,,,2024-09-06,1,,,,,カオハレ,0
375,2030003024982,新規,0,2024-09-06,2024-09-06,合同会社ｓｗａｎ,,合同会社,埼玉県,川越市,大字砂１０５４番地４,,11,201,3501133,,,,,,,2024-09-06,1,,,,,スワン,0
376,2030003025048,新規,0,2024-09-06,2024-09-06,合同会社Ｋ．Ｊ,,合同会社,埼玉県,八潮市,大字古新田１１３４番５号,,11,234,3400823,,,,,,,2024-09-06,1,,,,,ケイジェイ,0
385,2040001135244,新規,0,2024-09-06,2024-09-06,株式会社ＴＯＫＩＴＡ,,株式会社,千葉県,流山市,加３丁目８番地の１１,,12,220,2700176,,,,,,,2024-09-06,1,,,,,,0
386,2040001135260,新規,0,2024-09-06,2024-09-06,株式会社ＡＲＵＫＯＵ,,株式会社,千葉県,船橋市,湊町２丁目１２番２４号湊町日本橋ビル６Ｆ,,12,204,2730011,,,,,,,2024-09-06,1,,,,,アルコウ,0
387,2040001135269,新規,0,2024-09-06,2024-09-06,株式会社Ｐｏｓｉｔｉｓｔ,,株式会社,千葉県,船橋市,本町１丁目１２番２２号,,12,204,2730005,,,,,,,2024-09-06,1,,,,,ポジティスト,0
388,2040001135285,新規,0,2024-09-06,2024-09-06,ケーシリグループ株式会社,,株式会社,千葉県,印西市,荒野８５１番地１,,12,231,2702326,,,,,,,2024-09-06,1,,,,,ケーシリグループ,0
389,2040001135293,新規,0,2024-09-06,2024-09-06,ＤＯＴ　ＡＮＤ　ＳＯＭＥＴＨＩＮＧ株式会社,,株式会社,千葉県,浦安市,日の出４丁目２番１２－４０２号パティーク新浦安,,12,227,2790013,,,,,,,2024-09-06,1,,,,,ドットアンドサムシング,0
390,2040001135302,新規,0,2024-09-06,2024-09-06,株式会社ＧＲＡＮＵＰ販売,,株式会社,千葉県,松戸市,松戸１３０７番地の１松戸ビル６階,,12,207,2710092,,,,,,,2024-09-06,1,,,,,グラナップハンバイ,0
395,2060005010243,新規,0,2024-09-06,2024-09-06,税理士法人皐月,,その他の設立登記法人,栃木県,鹿沼市,上野町２９７番地１,,09,205,3220021,,,,,,,2024-09-06,1,,,,,サツキ,0
405,2110001038679,新規,0,2024-09-06,2024-09-06,株式会社友愛ｉｎｔ．Ｂ．ＪＰ,,株式会社,新潟県,三条市,大野畑１１番１５号,,15,204,9550833,,,,,,,2024-09-06,1,,,,,ユウアイインターナショナルビューティージャパン,0
406,2110001038687,新規,0,2024-09-06,2024-09-06,株式会社たくみ工房,,株式会社,新潟県,加茂市,新栄町５番６号,,15,209,9591381,,,,,,,2024-09-06,1,,,,,タクミコウボウ,0
414,2120001268309,新規,0,2024-09-06,2024-09-06,株式会社ＲＥＳＨＩＺＥＫ,,株式会社,大阪府,大阪市北区,梅田１丁目２番２号大阪駅前第２ビル１２－１２,,27,127,5300001,,,,,,,2024-09-06,1,,,,,レシゼ,0
415,2120001268366,新規,0,2024-09-06,2024-09-06,株式会社ひとつホールディングス,,株式会社,大阪府,大阪市浪速区,戎本町１丁目４番１６号トゥリオーニＥＢＩＳＵ５０１号室,,27,111,5560013,,,,,,,2024-09-06,1,,,,,ヒトツホールディングス,0
416,2120001268390,新規,0,2024-09-06,2024-09-06,クラレサーマル株式会社,,株式会社,大阪府,大阪市阿倍野区,阪南町１丁目４８番７号,,27,119,5450021,,,,,,,2024-09-06,1,,,,,クラレサーマル,0
417,2120001268399,新規,0,2024-09-06,2024-09-06,株式会社スペック,,株式会社,大阪府,大阪市住之江区,南港東４丁目１１番２１号関西カーゴトランス倉庫２階,,27,125,5590031,,,,,,,2024-09-06,1,,,,,スペック,0
423,2120901049725,新規,0,2024-09-06,2024-09-06,株式会社ＭＩＳＥＮ,,株式会社,大阪府,吹田市,広芝町１４番２２号,,27,205,5640052,,,,,,,2024-09-06,1,,,,,ミセン,0
424,2120901049733,新規,0,2024-09-06,2024-09-06,株式会社ｗｏｏｄｗｏｒｋｉｎｇ　ＺＥＲＯ,,株式会社,大阪府,茨木市,南安威２丁目５番２７号２０１号,,27,211,5670007,,,,,,,2024-09-06,1,,,,,ウッドワーキングゼロ,0
425,2120901049741,新規,0,2024-09-06,2024-09-06,株式会社ハイマン,,株式会社,大阪府,吹田市,千里山西１丁目３５番１８号,,27,205,5650851,,,,,,,2024-09-06,1,,,,,ハイマン,0
428,2130001077873,新規,0,2024-09-06,2024-09-06,ＥＨＶ・エコストア・ファクトリー株式会社,,株式会社,京都府,福知山市,字堀２５９３番地,,26,201,6200000,,,,,,,2024-09-06,1,,,,,イーエッチブイエコストアファクトリー,0
429,2130001077881,新規,0,2024-09-06,2024-09-06,株式会社ウェーブ,,株式会社,京都府,京都市左京区,下鴨北園町９５番地７,,26,103,6060831,,,,,,,2024-09-06,1,,,,,ウェーブ,0
433,2130003009841,新規,0,2024-09-06,2024-09-06,ＩＳＳＥＩ合同会社,,合同会社,京都府,乙訓郡大山崎町,字大山崎小字岩崎２８番地４,,26,303,6180071,,,,,,,2024-09-06,1,,,,,イッセイ,0
437,2140001135696,新規,0,2024-09-06,2024-09-06,株式会社ＹＳ,,株式会社,兵庫県,姫路市,林田町下構１１７番地－１Ｆ,,28,201,6794202,,,,,,,2024-09-06,1,,,,,ワイス,0
447,2150001027554,新規,0,2024-09-06,2024-09-06,株式会社ｍａｔｕｒｅ,,株式会社,奈良県,磯城郡田原本町,大字新木１８５番地の７,,29,363,6360347,,,,,,,2024-09-06,1,,,,,マチュア,0
450,2160001026200,新規,0,2024-09-06,2024-09-06,株式会社柏鶴リゾート,,株式会社,滋賀県,長浜市,大宮町１０番３号,,25,203,5260054,,,,,,,2024-09-06,1,,,,,カシワツルリゾート,0
457,2170005007105,新規,0,2024-09-06,2024-09-06,医療法人敬得会,,その他の設立登記法人,和歌山県,和歌山市,新大工町７,,30,201,6408372,,,,,,,2024-09-06,1,,,,,ケイトクカイ,0
463,2180001163108,新規,0,2024-09-06,2024-09-06,株式会社ＭＥＤＩＣＡＬ　ＡＧＥＮＴ,,株式会社,愛知県,名古屋市瑞穂区,佐渡町５丁目３７番地レジデンスエクレール１０１号,,23,108,4670016,,,,,,,2024-09-06,1,,,,,メディカルエージェント,0
464,2180001163140,新規,0,2024-09-06,2024-09-06,株式会社日比野商店,,株式会社,愛知県,名古屋市千種区,今池１丁目１５番６号大成ビル１Ｆ,,23,101,4640850,,,,,,,2024-09-06,1,,,,,ヒビノショウテン,0
465,2180001163157,新規,0,2024-09-06,2024-09-06,株式会社ミライ企画,,株式会社,愛知県,北名古屋市,鹿田１８６１番地１１,,23,234,4810004,,,,,,,2024-09-06,1,,,,,ミライキカク,0
473,2200001042903,新規,0,2024-09-06,2024-09-06,株式会社Ｕ‐ＣＲＥＡＴＥ,,株式会社,岐阜県,岐阜市,加納桜田町２丁目５‐２,,21,201,5008468,,,,,,,2024-09-06,1,,,,,ユークリエイト,0
474,2200003006492,新規,0,2024-09-06,2024-09-06,合同会社Ｔｒｉｃｋｓｔｅｒ,,合同会社,岐阜県,各務原市,鵜沼古市場町４丁目３１番地１クレスト２１Ｓ棟１０１,,21,213,5090133,,,,,,,2024-09-06,1,,,,,トリックスター,0
488,2240001063788,新規,0,2024-09-06,2024-09-06,株式会社フラッグ・プロダクション,,株式会社,広島県,広島市西区,高須３丁目４番２－５０２号,,34,104,7330871,,,,,,,2024-09-06,1,,,,,フラッグプロダクション,0
493,2250005008945,新規,0,2024-09-06,2024-09-06,ＳＯＧＯ社会保険労務士法人,,その他の設立登記法人,山口県,山口市,小郡下郷２１９３番地２,,35,203,7540002,,,,,,,2024-09-06,1,,,,,ソウゴウ,0
500,2290001107136,新規,0,2024-09-06,2024-09-06,株式会社ＫＩＣＫ,,株式会社,福岡県,福岡市博多区,中洲１丁目３番１５号オンリーワンビル２Ｆ,,40,132,8100801,,,,,,,2024-09-06,1,,,,,キック,0
501,2290001107152,新規,0,2024-09-06,2024-09-06,ＳｉＡＮＡＳ株式会社,,株式会社,福岡県,古賀市,駅東５丁目７－１－１０１,,40,223,8113102,,,,,,,2024-09-06,1,,,,,シアナス,0
502,2290001107169,新規,0,2024-09-06,2024-09-06,岳冠科技株式会社,,株式会社,福岡県,福岡市博多区,上牟田１丁目１６番７号,,40,132,8120006,,,,,,,2024-09-06,1,,,,,クラウンテック,0
503,2290001107210,新規,0,2024-09-06,2024-09-06,ＥＬＦ株式会社,,株式会社,福岡県,福岡市中央区,天神４丁目６番２８号天神ファーストビル７階,,40,133,8100001,,,,,,,2024-09-06,1,,,,,イーエルエフ,0
506,2290801030842,新規,0,2024-09-06,2024-09-06,株式会社ｅｉｇｈｔ,,株式会社,福岡県,北九州市小倉北区,熊本２丁目３番３号,,40,106,8020044,,,,,,,2024-09-06,1,,,,,エイト,0
511,2330001032412,新規,0,2024-09-06,2024-09-06,日本穀物ドリンク株式会社,,株式会社,熊本県,熊本市中央区,新町３丁目４－６,,43,101,8600004,,,,,,,2024-09-06,1,,,,,ニホンコクモツドリンク,0
523,2360001034141,新規,0,2024-09-06,2024-09-06,株式会社丸新製パン工場,,株式会社,沖縄県,糸満市,西崎町４丁目１６番地の１２,,47,210,9010306,,,,,,,2024-09-06,1,,,,,マルシンセイパンコウジョウ,0
528,2360003014281,新規,0,2024-09-06,2024-09-06,合同会社オフィスヒート,,合同会社,沖縄県,浦添市,前田１丁目１４番１５号２階,,47,208,9012102,,,,,,,2024-09-06,1,,,,,オフィスヒート,0
530,2370001051697,新規,0,2024-09-06,2024-09-06,株式会社しろいしグロウパーク,,株式会社,宮城県,白石市,東町４丁目４番１２号,,04,206,9890225,,,,,,,2024-09-06,1,,,,,シロイシグロウパーク,0
555,3010001248048,新規,0,2024-09-06,2024-09-06,株式会社メリクオ,,株式会社,東京都,中央区,銀座７丁目１３番２０号銀座ＴＨビル９階,,13,102,1040061,,,,,,,2024-09-06,1,,,,,メリクオ,0
556,3010001248106,新規,0,2024-09-06,2024-09-06,株式会社Ｃｕｌｔｉｖｅｒ,,株式会社,東京都,文京区,本郷４丁目１０番６－１０２号,,13,105,1130033,,,,,,,2024-09-06,1,,,,,キュルティベ,0
559,3010003044759,新規,0,2024-09-06,2024-09-06,ＢｌｉｓｓＷａｖｅ合同会社,,合同会社,東京都,中央区,銀座７丁目１５番１８号銀ビル３Ｆ,,13,102,1040061,,,,,,,2024-09-06,1,,,,,ブリスウェーブ,0
560,3010003044783,新規,0,2024-09-06,2024-09-06,合同会社ＳＴ銀座,,合同会社,東京都,千代田区,霞が関３丁目２番５号,,13,101,1000013,,,,,,,2024-09-06,1,,,,,エスティギンザ,0
561,3010003044809,新規,0,2024-09-06,2024-09-06,熱海合同会社,,合同会社,東京都,中央区,日本橋３丁目９番１号日本橋三丁目スクエア１１階,,13,102,1030027,,,,,,,2024-09-06,1,,,,,アタミ,0
564,3010005038775,新規,0,2024-09-06,2024-09-06,一般社団法人ファンドドゥ２０号,,その他の設立登記法人,東京都,千代田区,霞が関３丁目２番５号,,13,101,1000013,,,,,,,2024-09-06,1,,,,,ファンドドゥニジュウゴウ,0
576,3010401184909,新規,0,2024-09-06,2024-09-06,株式会社不二心ＪＡＰＡＮ,,株式会社,東京都,港区,芝浦４丁目１０番１号キャピタルマークタワー４５０７,,13,103,1080023,,,,,,,2024-09-06,1,,,,,フジシンジャパン,0
577,3010401184982,新規,0,2024-09-06,2024-09-06,株式会社７１２,,株式会社,東京都,港区,虎ノ門１丁目１番１２号－８０２,,13,103,1050001,,,,,,,2024-09-06,1,,,,,ナナイチニ,0
580,3010403033386,新規,0,2024-09-06,2024-09-06,合同会社京都ホテル管理,,合同会社,東京都,港区,虎ノ門５丁目１番４号,,13,103,1050001,,,,,,,2024-09-06,1,,,,,キョウトホテルカンリ,0
582,3010405023559,新規,0,2024-09-06,2024-09-06,一般社団法人京都ホテル管理,,その他の設立登記法人,東京都,港区,虎ノ門５丁目１番４号,,13,103,1050001,,,,,,,2024-09-06,1,,,,,キョウトホテルカンリ,0
592,3011001164350,新規,0,2024-09-06,2024-09-06,株式会社ｉｉｇｏ,,株式会社,東京都,渋谷区,恵比寿２丁目４番８号ウィンド恵比寿ビル８Ｆ,,13,113,1500013,,,,,,,2024-09-06,1,,,,,イーゴ,0
593,3011001164367,新規,0,2024-09-06,2024-09-06,ＷＡＮ株式会社,,株式会社,東京都,渋谷区,猿楽町２９番１８号,,13,113,1500033,,,,,,,2024-09-06,1,,,,,ワン,0
594,3011001164474,新規,0,2024-09-06,2024-09-06,株式会社ウィズマイメディカル,,株式会社,東京都,渋谷区,桜丘町１番２号,,13,113,1500031,,,,,,,2024-09-06,1,,,,,ウィズマイメディカル,0
595,3011003019899,新規,0,2024-09-06,2024-09-06,ｅｓｐｅｒａｎｃｅ合同会社,,合同会社,東京都,渋谷区,代々木２丁目２３－１ニューステイトメナー６４３,,13,113,1510053,,,,,,,2024-09-06,1,,,,,エスペランス,0
596,3011003019908,新規,0,2024-09-06,2024-09-06,合同会社ＮｅｘｕｓＣｏｄｅ,,合同会社,東京都,渋谷区,渋谷２丁目１９－１５宮益坂ビルディング６０９,,13,113,1500002,,,,,,,2024-09-06,1,,,,,ネクサスコード,0
603,3011101108711,新規,0,2024-09-06,2024-09-06,株式会社ジェリー,,株式会社,東京都,新宿区,喜久井町４６－９－１０１,,13,104,1620044,,,,,,,2024-09-06,1,,,,,ジェリー,0
604,3011103014882,新規,0,2024-09-06,2024-09-06,合同会社ｔｒｕｓｔ　ｏｒｉｇｉｎａｌ,,合同会社,東京都,新宿区,若葉１丁目１０番地１１,,13,104,1600011,,,,,,,2024-09-06,1,,,,,トラストオリジナル,0
605,3011103014890,新規,0,2024-09-06,2024-09-06,ＥｖｅｒＧｒｅｅｎ合同会社,,合同会社,東京都,新宿区,新宿１丁目３６－２新宿第７葉山ビル３Ｆ,,13,104,1600022,,,,,,,2024-09-06,1,,,,,エバーグリーン,0
606,3011103014899,新規,0,2024-09-06,2024-09-06,合同会社Ｉｃｈｉｇｏ,,合同会社,東京都,新宿区,西新宿８丁目８－１６ＬＩＢＲＧＲＡＮＴ西新宿ＥＡＳＴ８０１,,13,104,1600023,,,,,,,2024-09-06,1,,,,,イチゴ,0
610,3011703003962,新規,0,2024-09-06,2024-09-06,合同会社ＴＹ．Ｌｉｎｋｓ,,合同会社,東京都,江戸川区,平井４丁目２４－２２,,13,123,1320035,,,,,,,2024-09-06,1,,,,,ティワイリンクス,0
614,3012301014071,新規,0,2024-09-06,2024-09-06,株式会社ＤｒａｇｏｎＳｔａｒ,,株式会社,東京都,町田市,本町田２３６３番地５,,13,209,1940032,,,,,,,2024-09-06,1,,,,,,0
622,3013301053068,新規,0,2024-09-06,2024-09-06,株式会社スリースクエア,,株式会社,東京都,豊島区,池袋２丁目６５番１号８０８号室,,13,116,1710014,,,,,,,2024-09-06,1,,,,,スリースクエア,0
624,3013305003639,新規,0,2024-09-06,2024-09-06,一般社団法人ネットワークパケット分析協会,,その他の設立登記法人,東京都,豊島区,東池袋１丁目３４番５号いちご東池袋ビル６階,,13,116,1700013,,,,,,,2024-09-06,1,,,,,ネットワークパケットブンセキキョウカイ,0
625,3020001158964,新規,0,2024-09-06,2024-09-06,タマヒロ商会株式会社,,株式会社,神奈川県,横浜市中区,宮川町３丁目８４番地２,,14,104,2310065,,,,,,,2024-09-06,1,,,,,タマヒロショウカイ,0
626,3020001158989,新規,0,2024-09-06,2024-09-06,株式会社蒼炎,,株式会社,神奈川県,横浜市西区,浅間町１丁目４番３号ウィザードビル４０２,,14,103,2200072,,,,,,,2024-09-06,1,,,,,ソウエン,0
627,3020001159054,新規,0,2024-09-06,2024-09-06,株式会社テイクヒルズアセットマネジメント,,株式会社,神奈川県,横浜市西区,みなとみらい２丁目２番１号横浜ランドマークタワー３０階,,14,103,2200012,,,,,,,2024-09-06,1,,,,,テイクヒルズアセットマネジメント,0
629,3020003026839,新規,0,2024-09-06,2024-09-06,ＰＨＵＯＮＧ　ＬＩＮＨ合同会社,,合同会社,神奈川県,横浜市南区,永田北３丁目２５番５－２０４号,,14,105,2320071,,,,,,,2024-09-06,1,,,,,フォンリン,0
630,3020003026847,新規,0,2024-09-06,2024-09-06,合同会社アカネット,,合同会社,神奈川県,横浜市西区,北幸２丁目１０番４８号むつみビル３階,,14,103,2200004,,,,,,,2024-09-06,1,,,,,アカネット,0
631,3020005016524,新規,0,2024-09-06,2024-09-06,一般社団法人のこのこの会,,その他の設立登記法人,神奈川県,横浜市旭区,若葉台３丁目２番若葉台連合自治会館内,,14,112,2410801,,,,,,,2024-09-06,1,,,,,ノコノコノカイ,0
636,3021003014981,新規,0,2024-09-06,2024-09-06,ＧＬＯＢＡＬ　ＦＯＵＮＤＡＴＩＯＮ合同会社,,合同会社,神奈川県,相模原市中央区,高根２丁目２番２２号－２０１号室,,14,152,2520221,,,,,,,2024-09-06,1,,,,,グローバルファンデーション,0
640,3030001162271,新規,0,2024-09-06,2024-09-06,株式会社松屋不動産,,株式会社,埼玉県,さいたま市大宮区,天沼町２丁目７３３番地３,,11,103,3300834,,,,,,,2024-09-06,1,,,,,マツヤフドウサン,0
641,3030001162296,新規,0,2024-09-06,2024-09-06,株式会社タスクマネジメント,,株式会社,埼玉県,坂戸市,日の出町３４番地６－１０７,,11,239,3500225,,,,,,,2024-09-06,1,,,,,タスクマネジメント,0
642,3030001162313,新規,0,2024-09-06,2024-09-06,株式会社不動産の木村屋,,株式会社,埼玉県,さいたま市大宮区,宮町１丁目８６－１大宮イーストビル６１２,,11,103,3300802,,,,,,,2024-09-06,1,,,,,フドウサンノキムラヤ,0
646,3030003024998,新規,0,2024-09-06,2024-09-06,合同会社ケーアールサービス,,合同会社,埼玉県,越谷市,蒲生西町２丁目３番２号レピュート・ハルミ２の２０１号,,11,222,3430835,,,,,,,2024-09-06,1,,,,,ケーアールサービス,0
647,3030003025055,新規,0,2024-09-06,2024-09-06,合同会社アイティラボ,,合同会社,埼玉県,新座市,東２丁目３１番３号ロイヤル花野２０２号室,,11,230,3520002,,,,,,,2024-09-06,1,,,,,アイティラボ,0
648,3030003025063,新規,0,2024-09-06,2024-09-06,合同会社ＰＲＯＳＩＴ,,合同会社,埼玉県,所沢市,西狭山ケ丘２丁目２０９４番地の５,,11,208,3591163,,,,,,,2024-09-06,1,,,,,プロジット,0
650,3040001135243,新規,0,2024-09-06,2024-09-06,株式会社Ｈ．Ａｐｅｉｒｏｎ,,株式会社,千葉県,野田市,花井１丁目１５番地の４８,,12,208,2780026,,,,,,,2024-09-06,1,,,,,エイチアペイロン,0
651,3040001135268,新規,0,2024-09-06,2024-09-06,株式会社ｓａｃ,,株式会社,千葉県,千葉市中央区,登戸１丁目２２番２５号,,12,101,2600032,,,,,,,2024-09-06,1,,,,,エスエーシー,0
652,3040001135276,新規,0,2024-09-06,2024-09-06,株式会社Ｓ‐ｖｉｓｉｏｎ,,株式会社,千葉県,我孫子市,高野山７６番地の３,,12,222,2701145,,,,,,,2024-09-06,1,,,,,エスビジョン,0
653,3040001135292,新規,0,2024-09-06,2024-09-06,錦源科技株式会社,,株式会社,千葉県,千葉市中央区,新宿２丁目２－５藤ビル６階,,12,101,2600021,,,,,,,2024-09-06,1,,,,,ギンゲンカギ,0
655,3040003025756,新規,0,2024-09-06,2024-09-06,合同会社ＹＲＳＦ,,合同会社,千葉県,富里市,七栄４２４－２７,,12,233,2860221,,,,,,,2024-09-06,1,,,,,ワイアールエスエフ,0
657,3050001055358,新規,0,2024-09-06,2024-09-06,株式会社Ａｃｈｉｅｖｅ,,株式会社,茨城県,鹿嶋市,大字荒野１５７３番地３５３,,08,222,3112221,,,,,,,2024-09-06,1,,,,,アチーブ,0
658,3050001055366,新規,0,2024-09-06,2024-09-06,株式会社神貴,,株式会社,茨城県,神栖市,深芝南１丁目２７番地１カーサスプリングス１０２,,08,232,3140142,,,,,,,2024-09-06,1,,,,,コウキ,0
659,3050003008660,新規,0,2024-09-06,2024-09-06,飯山電気合同会社,,合同会社,茨城県,古河市,久能３０５番地１,,08,204,3060212,,,,,,,2024-09-06,1,,,,,イイヤマデンキ,0
661,3060001037470,新規,0,2024-09-06,2024-09-06,ＨＡＬソリューション株式会社,,株式会社,栃木県,佐野市,君田町３０６番地,,09,204,3270043,,,,,,,2024-09-06,1,,,,,ハルソリューション,0
667,3080005007641,新規,0,2024-09-06,2024-09-06,行政書士法人ＫＡＯＲＵ事務所,,その他の設立登記法人,静岡県,静岡市葵区,竜南２丁目１１番４３号アクトオムビル３Ｆ,,22,101,4200804,,,,,,,2024-09-06,1,,,,,カオルジムショ,0
677,3100001037706,新規,0,2024-09-06,2024-09-06,ポラリスグローバル株式会社,,株式会社,長野県,飯田市,東栄町３１４４番２,,20,205,3950024,,,,,,,2024-09-06,1,,,,,ポラリスグローバル,0
693,3120001268332,新規,0,2024-09-06,2024-09-06,株式会社Ｆｅｎｒｉｒ経営センター,,株式会社,大阪府,大阪市西成区,萩之茶屋２丁目８－３ハイツニューコンパ８０２,,27,122,5570004,,,,,,,2024-09-06,1,,,,,フェンリルケイエイセンター,0
694,3120001268349,新規,0,2024-09-06,2024-09-06,＿猗株式会社,00136211,株式会社,大阪府,大阪市東淀川区,瑞光１丁目５－１８－４０１号室,,27,114,5330005,,,,,,,2024-09-06,1,,,,,ルイ,0
697,3120003027447,新規,0,2024-09-06,2024-09-06,合同会社ラーテル,,合同会社,大阪府,枚方市,香里ケ丘１丁目４番地の６２,,27,210,5730084,,,,,,,2024-09-06,1,,,,,ラーテル,0
704,3120901049732,新規,0,2024-09-06,2024-09-06,株式会社大成,,株式会社,大阪府,吹田市,山田西２丁目４番８号,,27,205,5650824,,,,,,,2024-09-06,1,,,,,タイセイ,0
705,3120901049740,新規,0,2024-09-06,2024-09-06,株式会社ｏｎ　Ｙｏｕｒ　ｓｉｄｅ,,株式会社,大阪府,池田市,鉢塚３丁目７番１６－Ａ号,,27,204,5630024,,,,,,,2024-09-06,1,,,,,オンユアサイド,0
706,3120903005320,新規,0,2024-09-06,2024-09-06,合同会社Ｖｏｉｃｅ　Ｂｏｘ,,合同会社,大阪府,豊中市,東泉丘４丁目１番５－６０４号,,27,203,5610861,,,,,,,2024-09-06,1,,,,,ボイスボックス,0
709,3130001077872,新規,0,2024-09-06,2024-09-06,ＨＶ・エコストア・ファクトリー株式会社,,株式会社,京都府,福知山市,字堀２５９３番地,,26,201,6200000,,,,,,,2024-09-06,1,,,,,エッチブイエコストアファクトリー,0
710,3130001077880,新規,0,2024-09-06,2024-09-06,株式会社ＢＰ＆ＣＯ．,,株式会社,京都府,京都市北区,紫野宮東町１０番地３ルモン紫野９０３号室,,26,101,6038157,,,,,,,2024-09-06,1,,,,,ビーピーアンドカンパニー,0
717,3140001135720,新規,0,2024-09-06,2024-09-06,株式会社スタジオキューブ,,株式会社,兵庫県,尼崎市,次屋３丁目６－４８,,28,202,6610965,,,,,,,2024-09-06,1,,,,,スタジオキューブ,0
720,3140003021051,新規,0,2024-09-06,2024-09-06,合同会社Ｇｏｌｄｃｒａｆｔ　Ｍｙａｎｍａｒ,,合同会社,兵庫県,神戸市中央区,元町通２丁目９番１号元町プラザビル９１６－９２４,,28,110,6500022,,,,,,,2024-09-06,1,,,,,ゴールドクラフトミャンマー,0
732,3170005007104,新規,0,2024-09-06,2024-09-06,社会保険労務士法人Ｏｆｆｉｃｅやまな,,その他の設立登記法人,和歌山県,海南市,日方１２９４番地１８,,30,202,6420002,,,,,,,2024-09-06,1,,,,,オフィスヤマナ,0
741,3180001163164,新規,0,2024-09-06,2024-09-06,株式会社Ａｍ’ｓ,,株式会社,愛知県,名古屋市中村区,名駅４丁目２４番５号第２森ビル４０１,,23,105,4500002,,,,,,,2024-09-06,1,,,,,エイムズ,0
742,3180001163172,新規,0,2024-09-06,2024-09-06,株式会社フードシステム,,株式会社,愛知県,名古屋市名東区,亀の井３丁目１９９番地,,23,115,4650094,,,,,,,2024-09-06,1,,,,,フードシステム,0
743,3180001163189,新規,0,2024-09-06,2024-09-06,株式会社あいちえすわん,,株式会社,愛知県,犬山市,大字羽黒字中深田１番地７,,23,215,4840894,,,,,,,2024-09-06,1,,,,,アイチエスワン,0
746,3180003027318,新規,0,2024-09-06,2024-09-06,合同会社Ｔ＆Ｒ,,合同会社,愛知県,春日井市,高蔵寺町北１丁目３８番地,,23,206,4870016,,,,,,,2024-09-06,1,,,,,ティアンドアール,0
749,3180005020758,新規,0,2024-09-06,2024-09-06,一般社団法人つなぐ想い,,その他の設立登記法人,愛知県,江南市,今市場町秋津１５７番地,,23,217,4838181,,,,,,,2024-09-06,1,,,,,ツナグオモイ,0
755,3190003004786,新規,0,2024-09-06,2024-09-06,合同会社ＢＪＷ,,合同会社,三重県,三重郡菰野町,大字潤田６５０番地１４７,,24,341,5101253,,,,,,,2024-09-06,1,,,,,ビージェイダブリュー,0
757,3200001042885,新規,0,2024-09-06,2024-09-06,株式会社Ｆａｍｏｕｓ,,株式会社,岐阜県,岐阜市,若宮町８丁目３番地１ＮＪビル２０１,,21,201,5008828,,,,,,,2024-09-06,1,,,,,フェイマス,0
768,3240001063787,新規,0,2024-09-06,2024-09-06,株式会社メディ配サポート,,株式会社,広島県,福山市,藤江町７１８番地１,,34,207,7200543,,,,,,,2024-09-06,1,,,,,メディハイサポート,0
773,3260001039430,新規,0,2024-09-06,2024-09-06,株式会社ＫＯＮＩＳＨＩ,,株式会社,岡山県,岡山市東区,古都南方１８５０番地１,,33,103,7038215,,,,,,,2024-09-06,1,,,,,コニシ,0
782,3290001107135,新規,0,2024-09-06,2024-09-06,株式会社柳縁,,株式会社,福岡県,柳川市,城隅町２２番地４,,40,207,8320068,,,,,,,2024-09-06,1,,,,,リュウエン,0
783,3290001107151,新規,0,2024-09-06,2024-09-06,株式会社Ｎａｎｏｔｅｃ　Ｒ‐ｌｉｎｅ,,株式会社,福岡県,太宰府市,五条１丁目８番６－１０１号,,40,221,8180125,,,,,,,2024-09-06,1,,,,,ナノテックアールライン,0
784,3290001107192,新規,0,2024-09-06,2024-09-06,株式会社ＴＯＢＵＫＵＲＵ,,株式会社,福岡県,福岡市南区,花畑２丁目２２番２０号,,40,134,8111356,,,,,,,2024-09-06,1,,,,,トブクル,0
789,3290003015757,新規,0,2024-09-06,2024-09-06,合同会社ｒｅｒｉｓｅ,,合同会社,福岡県,福岡市博多区,中洲５丁目１－２２博多人形会館松月堂ビル４階,,40,132,8100801,,,,,,,2024-09-06,1,,,,,リライズ,0
790,3290003015773,新規,0,2024-09-06,2024-09-06,合同会社ＳＯＬＩＶＥ．ＣＯＭ,,合同会社,福岡県,那珂川市,松木１丁目１８８－１－２０２,,40,231,8111251,,,,,,,2024-09-06,1,,,,,ソリーブドットコム,0
791,3290003015781,新規,0,2024-09-06,2024-09-06,合同会社オフィスｍ．ａ．ｒ．ｓ,,合同会社,福岡県,福岡市東区,香椎照葉６丁目２番５１－３７０１号アイランドシティオーシャン＆フォレストタワーレジデンスＥＡＳＴ棟,,40,131,8130017,,,,,,,2024-09-06,1,,,,,オフィスマーズ,0
794,3310005008797,新規,0,2024-09-06,2024-09-06,一般社団法人うつわ,,その他の設立登記法人,長崎県,佐世保市,谷郷町５番１９号ハイツ谷郷２階事務所２,,42,202,8570027,,,,,,,2024-09-06,1,,,,,ウツワ,0
801,3340003004597,新規,0,2024-09-06,2024-09-06,合同会社ビスタベースボールクラブ,,合同会社,鹿児島県,鹿児島市,千年１丁目３８－２,,46,201,8900001,,,,,,,2024-09-06,1,,,,,ビスタベースボールクラブ,0
810,3360003014272,新規,0,2024-09-06,2024-09-06,Ａｐｅｘｏｔｉｃ合同会社,,合同会社,沖縄県,中頭郡西原町,上原２丁目２９番地の１１スリークロック２－Ｃ号室,,47,329,9030125,,,,,,,2024-09-06,1,,,,,アペゾチック,0
813,3370001051696,新規,0,2024-09-06,2024-09-06,株式会社クリエイション,,株式会社,宮城県,仙台市泉区,南光台２丁目１５番３７号２Ｆ,,04,105,9818003,,,,,,,2024-09-06,1,,,,,クリエイション,0
821,3430001092635,新規,0,2024-09-06,2024-09-06,株式会社きれいにしましょ,,株式会社,北海道,札幌市厚別区,厚別北二条５丁目２番６－１０４号,,01,108,0040072,,,,,,,2024-09-06,1,,,,,キレイニシマショ,0
823,3430003016765,新規,0,2024-09-06,2024-09-06,ＴＯＰおまかせレンタル合同会社,,合同会社,北海道,虻田郡倶知安町,ニセコひらふ一条３丁目６－２４,,01,400,0440080,,,,,,,2024-09-06,1,,,,,トップオマカセレンタル,0
827,3470001020369,新規,0,2024-09-06,2024-09-06,株式会社矢野建創,,株式会社,香川県,高松市,牟礼町大町１４５７番地,,37,201,7610122,,,,,,,2024-09-06,1,,,,,ヤノケンソウ,0
833,3700150127065,新規,0,2024-09-06,2024-09-06,ウエスト・ストリート・ＲＥＯＰ　ＥＥ　ＨＫ・リミテッド,,外国会社等,東京都,港区,六本木６丁目１０番１号六本木ヒルズ森タワー,,13,103,1060032,中華人民共和国香港特別行政区コーズウェイベイ、３３ハイサンアベニュー、リーガーデンワン１９階１９０１,,,,,,2024-09-06,1,,,,,ウエストストリートアールイーオーピーイーイーエイチケーリミテツド,0
840,4010001248071,新規,0,2024-09-06,2024-09-06,ミッケテクノロジーズ株式会社,,株式会社,東京都,千代田区,九段北１丁目２番１２号,,13,101,1020073,,,,,,,2024-09-06,1,,,,,ミッケテクノロジーズ,0
843,4010003044824,新規,0,2024-09-06,2024-09-06,ＢＭＮ　Ｍｇｍｔ合同会社,,合同会社,東京都,中央区,八重洲２丁目１番１号ＹＡＮＭＡＲ・ＴＯＫＹＯ・１２階,,13,102,1040028,,,,,,,2024-09-06,1,,,,,ビーエムエヌエムジーエムティー,0
844,4010003044832,新規,0,2024-09-06,2024-09-06,ＺｅｒｏＮｏｒｔｈ　Ｊａｐａｎ合同会社,,合同会社,東京都,千代田区,丸の内１丁目１１番１号パシフィックセンチュリープレイス丸の内８階,,13,101,1000005,,,,,,,2024-09-06,1,,,,,ゼロノースジャパン,0
846,4010005038766,新規,0,2024-09-06,2024-09-06,一般社団法人Ｒ．ＫＡＹ,,その他の設立登記法人,東京都,中央区,銀座２丁目４番８号ＧＩＮＺＡＹＵＫＩＢＬＤＧ６階,,13,102,1040061,,,,,,,2024-09-06,1,,,,,アールケイ,0
850,4010401184734,新規,0,2024-09-06,2024-09-06,株式会社青山経営支援事務所,,株式会社,東京都,港区,南青山２丁目２番１５号,,13,103,1070062,,,,,,,2024-09-06,1,,,,,アオヤマケイエイシエンジムショ,0
851,4010401184899,新規,0,2024-09-06,2024-09-06,グッドアンドゴールド株式会社,,株式会社,東京都,港区,北青山１丁目３番１号アールキューブ青山３階,,13,103,1070061,,,,,,,2024-09-06,1,,,,,グッドアンドゴールド,0
852,4010401184924,新規,0,2024-09-06,2024-09-06,ＥＱアドミン準備株式会社,,株式会社,東京都,港区,赤坂９丁目７番１号,,13,103,1070052,,,,,,,2024-09-06,1,,,,,イーキューアドミンジュンビ,0
853,4010401184932,新規,0,2024-09-06,2024-09-06,株式会社ゴルマチ,,株式会社,東京都,港区,南青山３丁目１番３６号青山丸竹ビル６Ｆ,,13,103,1070062,,,,,,,2024-09-06,1,,,,,ゴルマチ,0
854,4010401184940,新規,0,2024-09-06,2024-09-06,ＭｉＬｉｎｅ株式会社,,株式会社,東京都,港区,赤坂８丁目４番１４号青山タワープレイス８階,,13,103,1070052,,,,,,,2024-09-06,1,,,,,ミライン,0
855,4010401184949,新規,0,2024-09-06,2024-09-06,株式会社イレーションズ,,株式会社,東京都,港区,北青山２丁目７番１３号,,13,103,1070061,,,,,,,2024-09-06,1,,,,,イレーションズ,0
857,4010403033360,新規,0,2024-09-06,2024-09-06,合同会社Ｒａｄ　Ｏｕｔｌｉｅｒ,,合同会社,東京都,港区,南麻布２丁目６番２２－３０１号,,13,103,1060047,,,,,,,2024-09-06,1,,,,,ラッドアウトライヤー,0
858,4010403033385,新規,0,2024-09-06,2024-09-06,宇部土地合同会社,,合同会社,東京都,港区,六本木３丁目２番１号六本木グランドタワー,,13,103,1060032,,,,,,,2024-09-06,1,,,,,ウベトチ,0
868,4010901055922,新規,0,2024-09-06,2024-09-06,株式会社ＣＡＬＬＩＮＧ,,株式会社,東京都,世田谷区,池尻３丁目１６番１３号,,13,112,1540001,,,,,,,2024-09-06,1,,,,,コーリング,0
876,4011003019873,新規,0,2024-09-06,2024-09-06,茅野第５共同蓄電所合同会社,,合同会社,東京都,渋谷区,広尾１丁目１５－６ヒーロービル７階,,13,113,1500012,,,,,,,2024-09-06,1,,,,,,0
877,4011003019898,新規,0,2024-09-06,2024-09-06,合同会社イルカ企画,,合同会社,東京都,渋谷区,円山町５番５号Ｎａｖｉ渋谷Ｖ３階,,13,113,1500044,,,,,,,2024-09-06,1,,,,,イルカキカク,0
881,4011101108636,新規,0,2024-09-06,2024-09-06,株式会社ブランクエスト・パブリッシング,,株式会社,東京都,新宿区,新宿１丁目１０番５号,,13,104,1600022,,,,,,,2024-09-06,1,,,,,ブランクエストパブリッシング,0
882,4011101108669,新規,0,2024-09-06,2024-09-06,株式会社Ｌｅｓ　Ａｉｌｅｓ,,株式会社,東京都,新宿区,大久保２丁目３２番２１号,,13,104,1690072,,,,,,,2024-09-06,1,,,,,レゼール,0
883,4011101108685,新規,0,2024-09-06,2024-09-06,株式会社ＷｅＢｒｉｄｇｅ,,株式会社,東京都,新宿区,西新宿１丁目２５－１新宿センタービル４９階＋ＯＵＲＳ新宿内,,13,104,1600023,,,,,,,2024-09-06,1,,,,,ウェブリッジ,0
884,4011101108710,新規,0,2024-09-06,2024-09-06,株式会社Ｃｙａｎ　Ｓｔａｒ,,株式会社,東京都,新宿区,西新宿３丁目３番１３号西新宿水間ビル６階,,13,104,1600023,,,,,,,2024-09-06,1,,,,,シアンスター,0
887,4011103014898,新規,0,2024-09-06,2024-09-06,合同会社ＦＭＡ,,合同会社,東京都,新宿区,高田馬場４丁目２８番１５－４０５号,,13,104,1690075,,,,,,,2024-09-06,1,,,,,エフエムエー,0
888,4011105011142,新規,0,2024-09-06,2024-09-06,一般社団法人日中音楽教育協会,,その他の設立登記法人,東京都,新宿区,住吉町８番６号野村ビルディング曙橋３Ｆ,,13,104,1620065,,,,,,,2024-09-06,1,,,,,ニッチュウオンガクキョウイクキョウカイ,0
897,4011703003961,新規,0,2024-09-06,2024-09-06,合同会社ＨＡＭ　ＳＴＵＤＩＯ,,合同会社,東京都,江戸川区,江戸川２丁目３８－１９,,13,123,1320013,,,,,,,2024-09-06,1,,,,,ハムスタジオ,0
898,4011801044809,新規,0,2024-09-06,2024-09-06,株式会社関口商店,,株式会社,東京都,葛飾区,東四つ木４丁目１７番１１号,,13,122,1240014,,,,,,,2024-09-06,1,,,,,セキグチショウテン,0
899,4011803006443,新規,0,2024-09-06,2024-09-06,合同会社Ｅａｓｙ　Ｔｒａｄｉｎｇ,,合同会社,東京都,葛飾区,堀切３丁目３３番１６号,,13,122,1240006,,,,,,,2024-09-06,1,,,,,イージートレーディング,0
900,4012301014070,新規,0,2024-09-06,2024-09-06,株式会社ＭＯＮＮＵ,,株式会社,東京都,町田市,玉川学園８丁目２３－３,,13,209,1940041,,,,,,,2024-09-06,1,,,,,モッヌ,0
905,4012703003084,新規,0,2024-09-06,2024-09-06,合同会社アバロン,,合同会社,東京都,西東京市,富士町２丁目７番１９号メゾン富士２０２号,,13,229,2020014,,,,,,,2024-09-06,1,,,,,アバロン,0
906,4012801023439,新規,0,2024-09-06,2024-09-06,株式会社荒井工業,,株式会社,東京都,武蔵村山市,残堀１丁目１２番地の９Ｓｏｌｅａｄｏ１２０２号,,13,223,2080034,,,,,,,2024-09-06,1,,,,,アライコウギョウ,0
907,4013301053075,新規,0,2024-09-06,2024-09-06,株式会社イクザ,,株式会社,東京都,豊島区,東池袋１丁目３４－５,,13,116,1700013,,,,,,,2024-09-06,1,,,,,イクザ,0
914,4020001158897,新規,0,2024-09-06,2024-09-06,株式会社バンブーアカウンティング,,株式会社,神奈川県,横浜市西区,北幸２丁目１０番４８号むつみビル３階,,14,103,2200004,,,,,,,2024-09-06,1,,,,,バンブーアカウンティング,0
915,4020001159012,新規,0,2024-09-06,2024-09-06,株式会社ＮＡ企画,,株式会社,神奈川県,横浜市西区,北幸１丁目１１番１号水信ビル７階,,14,103,2200004,,,,,,,2024-09-06,1,,,,,エヌエーキカク,0
916,4020003026755,新規,0,2024-09-06,2024-09-06,Ｈａｎａ合同会社,,合同会社,神奈川県,横浜市神奈川区,金港町５―１４クアドリフォリオ８階,,14,102,2210056,,,,,,,2024-09-06,1,,,,,ハナ,0
917,4020003026796,新規,0,2024-09-06,2024-09-06,合同会社ＲＡＤＩＵＳ,,合同会社,神奈川県,川崎市宮前区,鷺沼１丁目２番地１,,14,136,2160004,,,,,,,2024-09-06,1,,,,,ラディウス,0
935,4030001162287,新規,0,2024-09-06,2024-09-06,株式会社都建装,,株式会社,埼玉県,草加市,青柳６丁目２１番１７号,,11,221,3400002,,,,,,,2024-09-06,1,,,,,ミヤコケンソウ,0
936,4030001162304,新規,0,2024-09-06,2024-09-06,Ｇｒｅｅｎ　ｓａｌａｄ　ｆａｃｔｏｒｙ株式会社,,株式会社,埼玉県,和光市,下新倉４丁目１５番７４号,,11,229,3510111,,,,,,,2024-09-06,1,,,,,グリーンサラダファクトリー,0
937,4030001162329,新規,0,2024-09-06,2024-09-06,株式会社若那,,株式会社,埼玉県,さいたま市岩槻区,大字黒谷１７８７番地１,,11,110,3390033,,,,,,,2024-09-06,1,,,,,ワカナ,0
948,4040001135226,新規,0,2024-09-06,2024-09-06,株式会社タマホールディングス,,株式会社,千葉県,茂原市,早野１０７１番地１,,12,210,2970037,,,,,,,2024-09-06,1,,,,,タマホールディングス,0
949,4040001135234,新規,0,2024-09-06,2024-09-06,パンプロップ株式会社,,株式会社,千葉県,八千代市,緑が丘西８丁目５番地７,,12,221,2760040,,,,,,,2024-09-06,1,,,,,パンプロップ,0
950,4040001135250,新規,0,2024-09-06,2024-09-06,株式会社尾川内装工業,,株式会社,千葉県,白井市,木６４７番地の１２,,12,232,2701437,,,,,,,2024-09-06,1,,,,,オガワナイソウコウギョウ,0
951,4040001135300,新規,0,2024-09-06,2024-09-06,Ｅｕｈｏｍｙ株式会社,,株式会社,千葉県,佐倉市,上志津原２７０－１,,12,212,2850844,,,,,,,2024-09-06,1,,,,,ユーホミー,0
956,4040003025755,新規,0,2024-09-06,2024-09-06,合同会社ネクストドア,,合同会社,千葉県,木更津市,真里谷３５７８番地,,12,206,2920201,,,,,,,2024-09-06,1,,,,,ネクストドア,0
960,4070001042147,新規,0,2024-09-06,2024-09-06,株式会社高桑通信,,株式会社,群馬県,高崎市,中尾町１０２８番地,,10,202,3700001,,,,,,,2024-09-06,1,,,,,タカクワツウシン,0
975,4080401027432,新規,0,2024-09-06,2024-09-06,株式会社ＭＡ,,株式会社,静岡県,磐田市,中泉１１９９番地１,,22,211,4380078,,,,,,,2024-09-06,1,,,,,エムエー,0
987,4120001268240,新規,0,2024-09-06,2024-09-06,株式会社リベルハーツ,,株式会社,大阪府,大阪市阿倍野区,阪南町５丁目１７－２７ルミナス西田辺４階,,27,119,5450021,,,,,,,2024-09-06,1,,,,,リベルハーツ,0
988,4120001268265,新規,0,2024-09-06,2024-09-06,リネッサ株式会社,,株式会社,大阪府,大阪市住之江区,御崎６丁目４番２号,,27,125,5590013,,,,,,,2024-09-06,1,,,,,リネッサ,0
990,4120001268348,新規,0,2024-09-06,2024-09-06,株式会社ＴＮＣ‐Ｓ,,株式会社,大阪府,大阪市浪速区,久保吉１丁目２番２１号,,27,111,5560028,,,,,,,2024-09-06,1,,,,,ティーエヌシーエス,0
991,4120001268364,新規,0,2024-09-06,2024-09-06,スタミナウォーク株式会社,,株式会社,大阪府,大阪市西区,本田３丁目１番１９－６０３号,,27,106,5500022,,,,,,,2024-09-06,1,,,,,スタミナウォーク,0
992,4120001268389,新規,0,2024-09-06,2024-09-06,株式会社ＳＫ,,株式会社,大阪府,大阪市北区,鶴野町３番９－１５０３号,,27,127,5300014,,,,,,,2024-09-06,1,,,,,エスケー,0
993,4120001268397,新規,0,2024-09-06,2024-09-06,株式会社トモクルーズ,,株式会社,大阪府,大阪市港区,波除４丁目２番２７号３Ｆ,,27,107,5520001,,,,,,,2024-09-06,1,,,,,トモクルーズ,0
998,4120003027454,新規,0,2024-09-06,2024-09-06,合同会社ｇｒａｂ,,合同会社,大阪府,大阪市中央区,南船場３丁目２番２２号おおきに南船場ビル２０５,,27,128,5420081,,,,,,,2024-09-06,1,,,,,グラブ,0
1004,4120103006044,新規,0,2024-09-06,2024-09-06,合同会社ＪＩＮ,,合同会社,大阪府,和泉市,弥生町２丁目１８番９号,,27,219,5940061,,,,,,,2024-09-06,1,,,,,ジン,0
1007,4120903005328,新規,0,2024-09-06,2024-09-06,合同会社ＷｉｍｐＣａｔ,,合同会社,大阪府,高槻市,岡本町６７―１７,,27,207,5691137,,,,,,,2024-09-06,1,,,,,ウィンプキャット,0
1021,4160001026198,新規,0,2024-09-06,2024-09-06,株式会社リージョンプロダクツ,,株式会社,滋賀県,大津市,横木２丁目２３－３,,25,201,5200063,,,,,,,2024-09-06,1,,,,,リージョンプロダクツ,0
1029,4180001163097,新規,0,2024-09-06,2024-09-06,情電株式会社,,株式会社,愛知県,北名古屋市,沖村沖浦２３番地,,23,234,4810043,,,,,,,2024-09-06,1,,,,,ジョウデン,0
1030,4180001163106,新規,0,2024-09-06,2024-09-06,株式会社リバイブ,,株式会社,愛知県,名古屋市緑区,浦里１丁目１６０番地グランドハイツ浦里１０３号,,23,114,4580847,,,,,,,2024-09-06,1,,,,,リバイブ,0
1031,4180001163114,新規,0,2024-09-06,2024-09-06,プライム損害調査株式会社,,株式会社,愛知県,名古屋市西区,市場木町２５４番地１,,23,104,4520805,,,,,,,2024-09-06,1,,,,,プライムソンガイチョウサ,0
1032,4180001163122,新規,0,2024-09-06,2024-09-06,株式会社トータルプロデュース,,株式会社,愛知県,名古屋市中川区,高杉町１８５番地の４,,23,110,4540936,,,,,,,2024-09-06,1,,,,,トータルプロデュース,0
1037,4180301039022,新規,0,2024-09-06,2024-09-06,株式会社ＴＲＥＳ‐Ｅ,,株式会社,愛知県,豊橋市,西山町４３４番地,,23,201,4413121,,,,,,,2024-09-06,1,,,,,トレースイー,0
1038,4180303006251,新規,0,2024-09-06,2024-09-06,合同会社Ｈａｐｐｙ　Ｖｉｌｌａｇｅ,,合同会社,愛知県,刈谷市,相生町２丁目１０番地１,,23,210,4480027,,,,,,,2024-09-06,1,,,,,ハッピービレッジ,0
1050,4200003006490,新規,0,2024-09-06,2024-09-06,合同会社Ｎｅｘｍｅｎｔ,,合同会社,岐阜県,岐阜市,長良３丁目７番地,,21,201,5020081,,,,,,,2024-09-06,1,,,,,ネクスメント,0
1055,4240001063786,新規,0,2024-09-06,2024-09-06,株式会社Ｔ３,,株式会社,広島県,広島市中区,小町９番３９－４０４号,,34,101,7300041,,,,,,,2024-09-06,1,,,,,ティースリー,0
1064,4260003004885,新規,0,2024-09-06,2024-09-06,ヒトノコトファーム合同会社,,合同会社,岡山県,岡山市中区,門田文化町３丁目５番４０号,,33,102,7038273,,,,,,,2024-09-06,1,,,,,ヒトノコトファーム,0
1072,4290001107159,新規,0,2024-09-06,2024-09-06,株式会社エルイーディーープランニング,,株式会社,福岡県,福岡市南区,横手南町９－９Ａ２０３,,40,134,8111312,,,,,,,2024-09-06,1,,,,,エルイーディープランニング,0
1073,4290001107183,新規,0,2024-09-06,2024-09-06,株式会社ＥＮＹＡ,,株式会社,福岡県,福岡市中央区,大名１丁目１２番３８号１Ｆ,,40,133,8100041,,,,,,,2024-09-06,1,,,,,エンヤ,0
1074,4290001107191,新規,0,2024-09-06,2024-09-06,株式会社ＭＡＳＴ‐ＹＯＵ,,株式会社,福岡県,福岡市中央区,荒戸１丁目３番２０号,,40,133,8100062,,,,,,,2024-09-06,1,,,,,マストユー,0
1075,4290001107209,新規,0,2024-09-06,2024-09-06,株式会社ヒノデアバント,,株式会社,福岡県,糟屋郡粕屋町,大字仲原２８３１番地２,,40,349,8112304,,,,,,,2024-09-06,1,,,,,ヒノデアバント,0
1092,4350003004744,新規,0,2024-09-06,2024-09-06,合同会社フォトスフィア,,合同会社,宮崎県,小林市,真方８０９番地１２,,45,205,8860007,,,,,,,2024-09-06,1,,,,,フォトスフィア,0
1093,4360001034164,新規,0,2024-09-06,2024-09-06,株式会社ＯＬＤ　ＳＴＡＮＤＡＲＤ,,株式会社,沖縄県,中頭郡読谷村,字大木２８５番地２,,47,324,9040316,,,,,,,2024-09-06,1,,,,,オールドスタンダード,0
1094,4360003014271,新規,0,2024-09-06,2024-09-06,莎＿合同会社,00136222,合同会社,沖縄県,中頭郡西原町,上原２丁目２９番地の１１スリークロック４－Ｃ号室,,47,329,9030125,,,,,,,2024-09-06,1,,,,,サシン,0
1095,4370001051695,新規,0,2024-09-06,2024-09-06,早川建築株式会社,,株式会社,宮城県,大崎市,岩出山上野目字西天王寺１６番地１,,04,215,9896403,,,,,,,2024-09-06,1,,,,,ハヤカワケンチク,0
1101,4400001016777,新規,0,2024-09-06,2024-09-06,株式会社不動組,,株式会社,岩手県,一関市,赤荻字雲南１６２番地２,,03,209,0210041,,,,,,,2024-09-06,1,,,,,フドウグミ,0
1102,4410001013930,新規,0,2024-09-06,2024-09-06,株式会社ＮＥＸＴ　ＳＯＬＵＴＩＯＮ,,株式会社,秋田県,横手市,下境字八気１４３番地,,05,203,0130824,,,,,,,2024-09-06,1,,,,,ネクストソリューション,0
1114,4460303000837,新規,0,2024-09-06,2024-09-06,合同会社クレスト,,合同会社,北海道,網走市,桂町５丁目４番４号,,01,211,0930041,,,,,,,2024-09-06,1,,,,,クレスト,0
1115,4470001020368,新規,0,2024-09-06,2024-09-06,インテリアｃｕｂ３株式会社,,株式会社,香川県,仲多度郡琴平町,榎井２９２番地６,,37,403,7660004,,,,,,,2024-09-06,1,,,,,インテリアカブサン,0
1118,4700150127064,新規,0,2024-09-06,2024-09-06,信超實業股斌有限公司,00136201,外国会社等,,,,,,,,台北市中正区仁愛路一段４号２階之３,,,,,,2024-09-06,1,,,,,シンチヨウジツギヨウコフンユウゲンコウシ,0
1127,5010001248038,新規,0,2024-09-06,2024-09-06,株式会社Ｓｉｒｔｕｒｅ,,株式会社,東京都,中央区,銀座１丁目１２番４号Ｎ＆Ｅ・ＢＬＤ．７階,,13,102,1040061,,,,,,,2024-09-06,1,,,,,サーチュア,0
1128,5010001248095,新規,0,2024-09-06,2024-09-06,コンフォセリ株式会社,,株式会社,東京都,中央区,銀座１丁目１２番４号Ｎ＆ＥＢＬＤ．６Ｆ,,13,102,1040061,,,,,,,2024-09-06,1,,,,,コンフォセリ,0
1129,5010003044815,新規,0,2024-09-06,2024-09-06,合同会社濃青インベストメント,,合同会社,東京都,千代田区,平河町１丁目６番１５号シルスフィア会計事務所内,,13,101,1020093,,,,,,,2024-09-06,1,,,,,ノウセイインベストメント,0
1130,5010003044823,新規,0,2024-09-06,2024-09-06,ｘＧＥＡＲ合同会社,,合同会社,東京都,中央区,銀座１丁目２２番１１号,,13,102,1040061,,,,,,,2024-09-06,1,,,,,クロスギア,0
1132,5010005038757,新規,0,2024-09-06,2024-09-06,医療法人社団千郁会,,その他の設立登記法人,東京都,千代田区,神田佐久間町２丁目１８番地５アークビル９階,,13,101,1010025,,,,,,,2024-09-06,1,,,,,センイクカイ,0
1140,5010401184907,新規,0,2024-09-06,2024-09-06,株式会社ドロップス,,株式会社,東京都,港区,白金台５丁目６番１７－１０２号,,13,103,1080071,,,,,,,2024-09-06,1,,,,,ドロップス,0
1141,5010401184923,新規,0,2024-09-06,2024-09-06,ＥＱオペレーション準備株式会社,,株式会社,東京都,港区,赤坂９丁目７番１号,,13,103,1070052,,,,,,,2024-09-06,1,,,,,イーキューオペレーションジュンビ,0
1142,5010401184931,新規,0,2024-09-06,2024-09-06,山村ビル株式会社,,株式会社,東京都,港区,六本木３丁目７－１－２１０８,,13,103,1060032,,,,,,,2024-09-06,1,,,,,ヤマムラビル,0
1143,5010401184948,新規,0,2024-09-06,2024-09-06,株式会社ＫＯＵＺＥＩ,,株式会社,東京都,港区,赤坂４丁目１４パークコート赤坂ザ・タワー４３０２,,13,103,1070052,,,,,,,2024-09-06,1,,,,,コウゼイ,0
1144,5010401184956,新規,0,2024-09-06,2024-09-06,株式会社ＦｉｒｓｔＳｈｉｆｔ,,株式会社,東京都,港区,北青山１丁目３番１号アールキューブ青山３階,,13,103,1070061,,,,,,,2024-09-06,1,,,,,ファーストシフト,0
1147,5010501052815,新規,0,2024-09-06,2024-09-06,デイジー株式会社,,株式会社,東京都,台東区,入谷２丁目５番６号リビオレゾン上野入谷ザ・テラス８０５号室,,13,106,1100013,,,,,,,2024-09-06,1,,,,,デイジー,0
1148,5010605004381,新規,0,2024-09-06,2024-09-06,医療法人社団たち内科小児科クリニック,,その他の設立登記法人,東京都,江東区,北砂５丁目２０番８号１階Ｂ号室,,13,108,1360073,,,,,,,2024-09-06,1,,,,,,0
1149,5010701046484,新規,0,2024-09-06,2024-09-06,株式会社ＵＳＥＮ　ＷＯＲＫ　ＷＥＬＬ,,株式会社,東京都,品川区,上大崎３丁目１番１号,,13,109,1410021,,,,,,,2024-09-06,1,,,,,ユウセンワークウェル,0
1150,5010703007336,新規,0,2024-09-06,2024-09-06,エスカケーナ合同会社,,合同会社,東京都,品川区,豊町２丁目１３番５号２０１号室,,13,109,1420042,,,,,,,2024-09-06,1,,,,,エスカケーナ,0
1155,5010905004668,新規,0,2024-09-06,2024-09-06,一般社団法人ゆりもも,,その他の設立登記法人,東京都,世田谷区,上馬３丁目２番１７号,,13,112,1540011,,,,,,,2024-09-06,1,,,,,ユリモモ,0
1164,5011003019872,新規,0,2024-09-06,2024-09-06,茅野第３共同蓄電所合同会社,,合同会社,東京都,渋谷区,広尾１丁目１５－６ヒーロービル７階,,13,113,1500012,,,,,,,2024-09-06,1,,,,,,0
1165,5011005010656,新規,0,2024-09-06,2024-09-06,一般社団法人経営共創支援協会,,その他の設立登記法人,東京都,目黒区,五本木１丁目１５番１１－１０３号,,13,110,1530053,,,,,,,2024-09-06,1,,,,,ケイエイキョウソウシエンキョウカイ,0
1169,5011101108651,新規,0,2024-09-06,2024-09-06,日進共栄株式会社,,株式会社,東京都,新宿区,百人町１丁目３番１７号２Ｆ,,13,104,1690073,,,,,,,2024-09-06,1,,,,,ニッシンキョウエイ,0
1170,5011101108668,新規,0,2024-09-06,2024-09-06,株式会社ジーエスディーエヌ,,株式会社,東京都,新宿区,西新宿７丁目２１－９天翔西新宿ビル１０２,,13,104,1600023,,,,,,,2024-09-06,1,,,,,ジーエスディーエヌ,0
1171,5011103014897,新規,0,2024-09-06,2024-09-06,合同会社Ｒｅｂｏｏｔ,,合同会社,東京都,新宿区,西新宿３丁目３番１３号西新宿水間ビル２Ｆ,,13,104,1600023,,,,,,,2024-09-06,1,,,,,リブート,0
1172,5011103014906,新規,0,2024-09-06,2024-09-06,Ｇｏｏ　ｔｏｕｃｈ合同会社,,合同会社,東京都,新宿区,西新宿７丁目１９－２２ダイカンプラザシティ１－７０８,,13,104,1600023,,,,,,,2024-09-06,1,,,,,グータッチ,0
1174,5011303005275,新規,0,2024-09-06,2024-09-06,ＮＩＰ情報サービス合同会社,,合同会社,東京都,杉並区,西荻南２丁目１５番１８号,,13,115,1670053,,,,,,,2024-09-06,1,,,,,エヌアイピージョウホウサービス,0
1178,5011501031115,新規,0,2024-09-06,2024-09-06,株式会社ＰＱ,,株式会社,東京都,北区,王子４丁目２６－４クリオ王子神谷弐番館９０２,,13,117,1140002,,,,,,,2024-09-06,1,,,,,ピーキュー,0
1179,5011503006206,新規,0,2024-09-06,2024-09-06,ＳＡＮＤＥＳＨ合同会社,,合同会社,東京都,北区,豊島１丁目３９番１５－２０１号,,13,117,1140003,,,,,,,2024-09-06,1,,,,,サンデス,0
1187,5012801023438,新規,0,2024-09-06,2024-09-06,株式会社玄信興業,,株式会社,東京都,日野市,大字日野１１１１番地の１,,13,212,1910012,,,,,,,2024-09-06,1,,,,,ゲンシンコウギョウ,0
1195,5020001158376,新規,0,2024-09-06,2024-09-06,株式会社のんちゃんワールド,,株式会社,神奈川県,横浜市青葉区,みたけ台９番地１フェリエ藤が丘２１３,,14,117,2270047,,,,,,,2024-09-06,1,,,,,ノンチャンワールド,0
1196,5020001159003,新規,0,2024-09-06,2024-09-06,株式会社ブル・マーケティング,,株式会社,神奈川県,川崎市中原区,井田杉山町１５番９－２号,,14,133,2110036,,,,,,,2024-09-06,1,,,,,ブルマーケティング,0
1197,5020001159028,新規,0,2024-09-06,2024-09-06,株式会社成,,株式会社,神奈川県,横浜市都筑区,荏田南４丁目２４番１０号シャロン・エダ１０３,,14,118,2240007,,,,,,,2024-09-06,1,,,,,ナル,0
1198,5020001159060,新規,0,2024-09-06,2024-09-06,株式会社のちほど,,株式会社,神奈川県,川崎市中原区,新丸子東１丁目８４１番地ロワジールサトウ１０１,,14,133,2110004,,,,,,,2024-09-06,1,,,,,ノチホド,0
1204,5020003026779,新規,0,2024-09-06,2024-09-06,リアルエステートコンサルティング合同会社,,合同会社,神奈川県,横浜市中区,北仲通５丁目５７番地２・２０１３号室,,14,104,2310003,,,,,,,2024-09-06,1,,,,,リアルエステートコンサルティング,0
1205,5020003026861,新規,0,2024-09-06,2024-09-06,合同会社ＣＵＲＬＹ,,合同会社,神奈川県,横浜市神奈川区,新子安１丁目１４番５号,,14,102,2210013,,,,,,,2024-09-06,1,,,,,カーリー,0
1207,5021001083168,新規,0,2024-09-06,2024-09-06,株式会社トオル美装,,株式会社,神奈川県,大和市,深見西１丁目２番４－２０２号,,14,213,2420018,,,,,,,2024-09-06,1,,,,,トオルビソウ,0
1216,5030001162286,新規,0,2024-09-06,2024-09-06,ヒロード株式会社,,株式会社,埼玉県,深谷市,武蔵野３６０９番地８,,11,218,3691241,,,,,,,2024-09-06,1,,,,,ヒロード,0
1217,5030001162328,新規,0,2024-09-06,2024-09-06,株式会社藤建,,株式会社,埼玉県,さいたま市岩槻区,大字岩槻６７０４番地,,11,110,3390061,,,,,,,2024-09-06,1,,,,,,0
1218,5030001162336,新規,0,2024-09-06,2024-09-06,株式会社泰寿,,株式会社,埼玉県,蕨市,錦町３丁目８番１１号,,11,223,3350005,,,,,,,2024-09-06,1,,,,,タイジュ,0
1219,5030001162369,新規,0,2024-09-06,2024-09-06,株式会社ＳＨ,,株式会社,埼玉県,草加市,氷川町２１２７番地１３ケイユービル５階Ｃ,,11,221,3400034,,,,,,,2024-09-06,1,,,,,エスエイチ,0
1222,5030003025053,新規,0,2024-09-06,2024-09-06,合同会社しょうじ工房,,合同会社,埼玉県,行田市,門井町２丁目２番地２９,,11,206,3610044,,,,,,,2024-09-06,1,,,,,ショウジコウボウ,0
1227,5040001135258,新規,0,2024-09-06,2024-09-06,株式会社ＭＫ,,株式会社,千葉県,市川市,北方町４丁目１９００番地１４,,12,203,2720811,,,,,,,2024-09-06,1,,,,,エムケー,0
1228,5040001135290,新規,0,2024-09-06,2024-09-06,株式会社渡邉管財,,株式会社,千葉県,市原市,泉台１丁目６番地１,,12,219,2990114,,,,,,,2024-09-06,1,,,,,ワタナベカンザイ,0
1230,5040003025721,新規,0,2024-09-06,2024-09-06,合同会社出雲,,合同会社,千葉県,市川市,幸１丁目１３番１５号,,12,203,2720123,,,,,,,2024-09-06,1,,,,,イズモ,0
1233,5050001055364,新規,0,2024-09-06,2024-09-06,株式会社ヒトプロデュースＬａｂ,,株式会社,茨城県,つくば市,吾妻２丁目５番地１つくば市産業振興センター,,08,220,3050031,,,,,,,2024-09-06,1,,,,,ヒトプロデュースラボ,0
1234,5060001037469,新規,0,2024-09-06,2024-09-06,株式会社ケーテック,,株式会社,栃木県,佐野市,並木町１７番地１０,,09,204,3270002,,,,,,,2024-09-06,1,,,,,ケーテック,0
1237,5070003005571,新規,0,2024-09-06,2024-09-06,合同会社Ｎｅｘｔ　Ｖａｌｕｅ,,合同会社,群馬県,高崎市,片岡町１丁目２番１－２号,,10,202,3700862,,,,,,,2024-09-06,1,,,,,ネクストバリュー,0
1243,5080403005088,新規,0,2024-09-06,2024-09-06,合同会社ソフクラ,,合同会社,静岡県,浜松市中央区,木戸町１３―８,,22,138,4300806,,,,,,,2024-09-06,1,,,,,ソフクラ,0
1245,5090003002633,新規,0,2024-09-06,2024-09-06,合同会社いっこめ,,合同会社,山梨県,甲府市,丸の内２丁目２番１号ＣＲＯＳＳ５００、１Ｆ,,19,201,4000031,,,,,,,2024-09-06,1,,,,,イッコメ,0
1246,5100001037828,新規,0,2024-09-06,2024-09-06,メディスタ株式会社,,株式会社,長野県,長野市,大字南長野西後町１５９７番地１長野表参道ビル４階,,20,201,3800845,,,,,,,2024-09-06,1,,,,,メディスタ,0
1249,5110001038692,新規,0,2024-09-06,2024-09-06,株式会社くるみスタッフ,,株式会社,新潟県,新潟市中央区,東大通２丁目４－１０日本生命新潟ビル９階,,15,103,9500087,,,,,,,2024-09-06,1,,,,,クルミスタッフ,0
1260,5120001268322,新規,0,2024-09-06,2024-09-06,株式会社ガヨウシ,,株式会社,大阪府,大阪市旭区,赤川３丁目１番１９号,,27,117,5350005,,,,,,,2024-09-06,1,,,,,ガヨウシ,0
1261,5120001268330,新規,0,2024-09-06,2024-09-06,株式会社嘉和,,株式会社,大阪府,大阪市西成区,梅南１丁目６－２９,,27,122,5570033,,,,,,,2024-09-06,1,,,,,ヨシカズ,0
1263,5120003027461,新規,0,2024-09-06,2024-09-06,Ｇｌｏｂａｌ　Ｓｕｎ合同会社,,合同会社,大阪府,大阪市西成区,天下茶屋北１丁目２－１６－１００号,,27,122,5570003,,,,,,,2024-09-06,1,,,,,グローバルサン,0
1264,5120003027486,新規,0,2024-09-06,2024-09-06,合同会社なみはや,,合同会社,大阪府,守口市,八雲東町２丁目４１番４号,,27,209,5700021,,,,,,,2024-09-06,1,,,,,ナミハヤ,0
1266,5120101070231,新規,0,2024-09-06,2024-09-06,株式会社Ｙ’ｓ積算,,株式会社,大阪府,岸和田市,西大路町１９０番地の１４ラフォーレ西大路２０３,,27,202,5960802,,,,,,,2024-09-06,1,,,,,ワイズセキサン,0
1267,5120101070248,新規,0,2024-09-06,2024-09-06,合一福株式会社,,株式会社,大阪府,堺市堺区,竜神橋町２丁３番１－８０４号,,27,141,5900972,,,,,,,2024-09-06,1,,,,,ホイフ,0
1268,5120103006043,新規,0,2024-09-06,2024-09-06,合同会社光,,合同会社,大阪府,松原市,天美南２丁目１８８番地,,27,217,5800033,,,,,,,2024-09-06,1,,,,,コウ,0
1269,5120901049722,新規,0,2024-09-06,2024-09-06,株式会社パシフィック,,株式会社,大阪府,豊中市,小曽根１丁目８番７号,,27,203,5610813,,,,,,,2024-09-06,1,,,,,パシフィック,0
1275,5130001077862,新規,0,2024-09-06,2024-09-06,株式会社仁志神具製作所,,株式会社,京都府,京都市伏見区,深草僧坊山町５６番地１,,26,109,6120819,,,,,,,2024-09-06,1,,,,,ニシシングセイサクショ,0
1276,5130001077895,新規,0,2024-09-06,2024-09-06,誠和国際株式会社,,株式会社,京都府,京都市中京区,西ノ京星池町８－３１コーポエトワール３０２号室,,26,104,6048416,,,,,,,2024-09-06,1,,,,,セイワコクサイ,0
1277,5130003009830,新規,0,2024-09-06,2024-09-06,合同会社ＷＰＸ,,合同会社,京都府,京都市西京区,桂木ノ下町１６番地５４フェリス桂東１０２,,26,111,6158072,,,,,,,2024-09-06,1,,,,,ダブルピーエックス,0
1282,5140001135685,新規,0,2024-09-06,2024-09-06,株式会社Ｏｎｅｓｉｇｈｔ　Ｔｅｃｈｎｏｌｏｇｙ,,株式会社,兵庫県,神戸市中央区,磯上通４丁目１番１４号三宮スカイビル７階,,28,110,6510086,,,,,,,2024-09-06,1,,,,,ワンサイトテクノロジー,0
1283,5140001135719,新規,0,2024-09-06,2024-09-06,株式会社堀田技建工業,,株式会社,兵庫県,加古川市,尾上町口里４７９－１－１２０１,,28,210,6750022,,,,,,,2024-09-06,1,,,,,ホッタギケンコウギョウ,0
1304,5180001163105,新規,0,2024-09-06,2024-09-06,株式会社ＳＩＡ,,株式会社,愛知県,名古屋市中村区,名駅４丁目２４番５号,,23,105,4500002,,,,,,,2024-09-06,1,,,,,エスアイエー,0
1305,5180001163121,新規,0,2024-09-06,2024-09-06,株式会社ｆｉｎｅｃｏｄｅ,,株式会社,愛知県,稲沢市,下津小井戸１丁目３番６号シェアワークラウンジ稲沢５,,23,220,4928093,,,,,,,2024-09-06,1,,,,,ファインコード,0
1306,5180001163138,新規,0,2024-09-06,2024-09-06,株式会社Ａｃｔｉｖａｔｅ　Ｄａｔａ,,株式会社,愛知県,名古屋市瑞穂区,駒場町２丁目７番地（デルフィーノｄｕｅ桜山４０１号）,,23,108,4670807,,,,,,,2024-09-06,1,,,,,アクティベートデータ,0
1307,5180001163154,新規,0,2024-09-06,2024-09-06,ＫＭ　ＢＯＯＴＨ株式会社,,株式会社,愛知県,名古屋市天白区,久方３丁目２５番地の１（ザ・パークハウス相生山２２０号）,,23,116,4680034,,,,,,,2024-09-06,1,,,,,ケイエムブース,0
1309,5180003027316,新規,0,2024-09-06,2024-09-06,合同会社Ｇｒｅｅｎ　Ｄｉａｒｙ,,合同会社,愛知県,名古屋市千種区,富士見台２丁目８番地,,23,101,4640015,,,,,,,2024-09-06,1,,,,,グリーンダイアリー,0
1310,5180005020756,新規,0,2024-09-06,2024-09-06,一般社団法人３Ｇ‐Ｂｏｒｄｅｒｌｅｓｓ,,その他の設立登記法人,愛知県,名古屋市名東区,一社４丁目９１番地一社司ビル１－Ｃ,,23,115,4650093,,,,,,,2024-09-06,1,,,,,スリージーボーダレス,0
1313,5190001031616,新規,0,2024-09-06,2024-09-06,日本仕天株式会社,,株式会社,三重県,四日市市,諏訪栄町４番１０号アピカビル３階,,24,202,5100086,,,,,,,2024-09-06,1,,,,,ニホンシテン,0
1314,5200001042900,新規,0,2024-09-06,2024-09-06,株式会社熊澤建築設計事務所,,株式会社,岐阜県,可児市,川合２１２９番地２,,21,214,5090201,,,,,,,2024-09-06,1,,,,,クマザワケンチクセッケイジムショ,0
1317,5220003003832,新規,0,2024-09-06,2024-09-06,３１０パン合同会社,,合同会社,石川県,鳳珠郡能登町,字上町イ字４６番地９,,17,463,9280312,,,,,,,2024-09-06,1,,,,,サトパン,0
1319,5230001020515,新規,0,2024-09-06,2024-09-06,株式会社一心,,株式会社,富山県,富山市,桜町１丁目１番３６号,,16,201,9300003,,,,,,,2024-09-06,1,,,,,イッシン,0
1330,5240001063785,新規,0,2024-09-06,2024-09-06,株式会社喜納工業,,株式会社,広島県,呉市,阿賀中央１丁目７－２,,34,202,7370003,,,,,,,2024-09-06,1,,,,,キナコウギョウ,0
1344,5290001107001,新規,0,2024-09-06,2024-09-06,株式会社Ａｎｉｍａｌ　Ｄｅｓｔｉｎａｔｉｏｎ,,株式会社,福岡県,福岡市早良区,西新４丁目７番１０号西川ビル３０１号室,,40,137,8140002,,,,,,,2024-09-06,1,,,,,アニマルデスティネイション,0
1345,5290001107117,新規,0,2024-09-06,2024-09-06,株式会社Ａ＆ＫＴ,,株式会社,福岡県,福岡市中央区,警固１丁目１０番３－１０２号,,40,133,8100023,,,,,,,2024-09-06,1,,,,,エーアンドケイティー,0
1346,5290001107158,新規,0,2024-09-06,2024-09-06,株式会社ＫＯＦＣ,,株式会社,福岡県,福岡市中央区,長浜１丁目４番２６－４０４号,,40,133,8100072,,,,,,,2024-09-06,1,,,,,ケーオーエフシー,0
1347,5290001107174,新規,0,2024-09-06,2024-09-06,株式会社インテグラル,,株式会社,福岡県,筑紫野市,二日市中央４丁目９番７号Ａ号室,,40,217,8180072,,,,,,,2024-09-06,1,,,,,インテグラル,0
1348,5290001107182,新規,0,2024-09-06,2024-09-06,株式会社松井設備,,株式会社,福岡県,大野城市,下大利２丁目１番１－７０３号,,40,219,8160952,,,,,,,2024-09-06,1,,,,,マツイセツビ,0
1349,5290001107190,新規,0,2024-09-06,2024-09-06,株式会社ｔａｉｒａｉ,,株式会社,福岡県,福岡市中央区,清川１丁目１１番１５号,,40,133,8100005,,,,,,,2024-09-06,1,,,,,タイライ,0
1350,5290001107199,新規,0,2024-09-06,2024-09-06,株式会社ＰｉｘＯｎｅ,,株式会社,福岡県,福岡市博多区,神屋町１０番１１－１３０３号ピュアドームグランテージ博多,,40,132,8120022,,,,,,,2024-09-06,1,,,,,ピクスワン,0
1351,5320003004465,新規,0,2024-09-06,2024-09-06,合同会社さんごや,,合同会社,大分県,別府市,亀川浜田町６番１０号,,44,202,8740014,,,,,,,2024-09-06,1,,,,,サンゴヤ,0
1359,5360001034139,新規,0,2024-09-06,2024-09-06,株式会社Ｙａｓｕｋｅ　Ｄｅｓｔｉｎｙ　Ｅｎｔｅｒｐｒｉｓｅ,,株式会社,沖縄県,沖縄市,中央３丁目１４番２号,,47,211,9040004,,,,,,,2024-09-06,1,,,,,ヤスケデスティニーエンタープライズ,0
1368,5380001034772,新規,0,2024-09-06,2024-09-06,株式会社東北不動産管理,,株式会社,福島県,相馬市,百槻字篠竹８１番地１,,07,209,9760031,,,,,,,2024-09-06,1,,,,,トウホクフドウサンカンリ,0
1376,5420001018853,新規,0,2024-09-06,2024-09-06,株式会社沼畑組,,株式会社,青森県,三戸郡南部町,大字相内字荒屋敷５０番地,,02,445,0390106,,,,,,,2024-09-06,1,,,,,ヌマハタグミ,0
1377,5420001018861,新規,0,2024-09-06,2024-09-06,エイトプラン株式会社,,株式会社,青森県,弘前市,大字茂森新町４丁目７－３,,02,202,0368261,,,,,,,2024-09-06,1,,,,,エイトプラン,0
1400,5700150127063,新規,0,2024-09-06,2024-09-06,Ｏｐｅｎ　Ｆｏｒｅｓｔ　Ａｓｓｅｔ　Ｍａｎａｇｅｍｅｎｔ，ＬＬＣ日本駐在員事務所,,外国会社等,東京都,渋谷区,代々木１丁目３０－１５天翔代々木ビル　６階　Ｓ６１１号室,,13,113,1510053,１６１９２　Ｃｏａｓｔａｌ　Ｈｉｇｈｗａｙ，Ｌｅｗｅｓ，Ｄｅｌａｗａｒｅ，ＵＳＡ,,,,,,2024-09-06,1,,,,,オープンフオーレストアセツトマネジメントエルエルシーニホンチユウザイインジムシヨ,0
1412,6010001248012,新規,0,2024-09-06,2024-09-06,株式会社ＡＴＯＭ　ＣＡＰＩＴＡＬ,,株式会社,東京都,中央区,日本橋兜町７番１号９Ｆ,,13,102,1030026,,,,,,,2024-09-06,1,,,,,アトムキャピタル,0
1413,6010001248053,新規,0,2024-09-06,2024-09-06,株式会社ＦＥＬＩＸＩＯＮＳ,,株式会社,東京都,千代田区,神田和泉町１番地６－１６ヤマトビル４０５,,13,101,1010024,,,,,,,2024-09-06,1,,,,,フェリクシオンズ,0
1416,6010003044814,新規,0,2024-09-06,2024-09-06,ＦｒｏｎｔＭｉｎｄ合同会社,,合同会社,東京都,中央区,銀座１丁目１２－４Ｎ＆ＥＢＬＤ．７階,,13,102,1040061,,,,,,,2024-09-06,1,,,,,フロントマインド,0
1417,6010003044830,新規,0,2024-09-06,2024-09-06,７８合同会社,,合同会社,東京都,中央区,銀座１丁目２２番１１号銀座大竹ビジデンス２Ｆ,,13,102,1040061,,,,,,,2024-09-06,1,,,,,ナナハチ,0
1418,6010005038764,新規,0,2024-09-06,2024-09-06,トーメイ特定目的会社,,その他の設立登記法人,東京都,千代田区,丸の内１丁目４番１号東京共同会計事務所内,,13,101,1000005,,,,,,,2024-09-06,1,,,,,トーメイ,0
1419,6010101016310,新規,0,2024-09-06,2024-09-06,ＦＩＴＢＡＳＥ株式会社,,株式会社,東京都,八王子市,椚田町５５６番地１４クリザンテーム石部Ｉ,00136212,13,201,1930942,,,,,,,2024-09-06,1,,,,,フィットベース,0
1424,6010401184914,新規,0,2024-09-06,2024-09-06,株式会社Ｋｅｎｓｉｎｇｔｏｎ,,株式会社,東京都,港区,南麻布５丁目１５番１４号南麻布レジデンス５０２,,13,103,1060047,,,,,,,2024-09-06,1,,,,,ケンジントン,0
1425,6010401184939,新規,0,2024-09-06,2024-09-06,株式会社ＦＲＵＯＲ,,株式会社,東京都,港区,南青山２丁目２番１５号,,13,103,1070062,,,,,,,2024-09-06,1,,,,,フルオール,0
1426,6010401184947,新規,0,2024-09-06,2024-09-06,株式会社ＫＵＪＩＲＡ,,株式会社,東京都,港区,赤坂４丁目７番８－３０１号,,13,103,1070052,,,,,,,2024-09-06,1,,,,,クジラ,0
1428,6010403033359,新規,0,2024-09-06,2024-09-06,合同会社Ｋｉｎａｃｏｃｏ,,合同会社,東京都,港区,南青山３丁目１番３６号,,13,103,1070062,,,,,,,2024-09-06,1,,,,,キナココ,0
1441,6010801035378,新規,0,2024-09-06,2024-09-06,株式会社ＩＮＧ,,株式会社,東京都,大田区,下丸子２丁目１３番４号東京サーハウスコモンハウス,,13,111,1460092,,,,,,,2024-09-06,1,,,,,イング,0
1446,6010905004667,新規,0,2024-09-06,2024-09-06,労働者協同組合ワーカーズ・コレクティブ和,,その他の設立登記法人,東京都,世田谷区,宮坂３丁目１３番１３号生活クラブ館１Ｆ,,13,112,1560051,,,,,,,2024-09-06,1,,,,,ワーカーズコレクティブヤワラギ,0
1450,6011001164348,新規,0,2024-09-06,2024-09-06,株式会社シルクレーヌ,,株式会社,東京都,渋谷区,宇田川町１番１２－６１６号パークコート渋谷ザタワー,,13,113,1500042,,,,,,,2024-09-06,1,,,,,シルクレーヌ,0
1451,6011001164356,新規,0,2024-09-06,2024-09-06,リーンアドバタイジング株式会社,,株式会社,東京都,渋谷区,神宮前６丁目２３－４桑野ビル２Ｆ,,13,113,1500001,,,,,,,2024-09-06,1,,,,,リーンアドバタイジング,0
1453,6011003019871,新規,0,2024-09-06,2024-09-06,茅野第１共同蓄電所合同会社,,合同会社,東京都,渋谷区,広尾１丁目１５－６ヒーロービル７階,,13,113,1500012,,,,,,,2024-09-06,1,,,,,,0
1454,6011005010655,新規,0,2024-09-06,2024-09-06,一般社団法人組織共創パートナー協会,,その他の設立登記法人,東京都,渋谷区,渋谷２丁目１９－４,,13,113,1500002,,,,,,,2024-09-06,1,,,,,ソシキキョウソウパートナーキョウカイ,0
1462,6011101108675,新規,0,2024-09-06,2024-09-06,株式会社みらいライフ,,株式会社,東京都,新宿区,西新宿８丁目１１－１０星野ビル３Ｆ,,13,104,1600023,,,,,,,2024-09-06,1,,,,,ミライライフ,0
1463,6011101108683,新規,0,2024-09-06,2024-09-06,株式会社ＢｏｎｉｙＴｅｃｈ,,株式会社,東京都,新宿区,西新宿３丁目３番１３号西新宿水間ビル２Ｆ,,13,104,1600023,,,,,,,2024-09-06,1,,,,,ボニーテック,0
1464,6011101108709,新規,0,2024-09-06,2024-09-06,株式会社ＳＨＩＭＡＧＵＮＩ,,株式会社,東京都,新宿区,新宿２丁目１２番１３号新宿アントレサロンビル２階,,13,104,1600022,,,,,,,2024-09-06,1,,,,,シマグニ,0
1471,6011601028035,新規,0,2024-09-06,2024-09-06,ＯＶＥＲ　ＣＯＦＦＥＥ株式会社,,株式会社,東京都,練馬区,関町東２丁目１４番１０－２０１号,,13,120,1770052,,,,,,,2024-09-06,1,,,,,オーバーコーヒー,0
1472,6011603004447,新規,0,2024-09-06,2024-09-06,合同会社藤魂,,合同会社,東京都,練馬区,南大泉６丁目４番２３号,,13,120,1780064,,,,,,,2024-09-06,1,,,,,トウコン,0
1474,6011701027606,新規,0,2024-09-06,2024-09-06,セキュアハーモニー株式会社,,株式会社,東京都,江戸川区,篠崎町７丁目４番２０号,,13,123,1330061,,,,,,,2024-09-06,1,,,,,セキュアハーモニー,0
1478,6012403006740,新規,0,2024-09-06,2024-09-06,ミライズ合同会社,,合同会社,東京都,多摩市,豊ヶ丘１丁目５６番地の３Ｃ’ｓ３３ＴＡＭＡＣＥＮＴＥＲ１１１,,13,224,2060031,,,,,,,2024-09-06,1,,,,,ミライズ,0
1479,6012705002421,新規,0,2024-09-06,2024-09-06,医療法人社団こみち会,,その他の設立登記法人,東京都,西東京市,田無町３丁目３番２号グランドソレイユＴＡＮＡＳＨＩ６０１号室,,13,229,1880011,,,,,,,2024-09-06,1,,,,,コミチカイ,0
1480,6012801023445,新規,0,2024-09-06,2024-09-06,株式会社小川商事,,株式会社,東京都,日野市,三沢３丁目７番地の２,,13,212,1910032,,,,,,,2024-09-06,1,,,,,オガワショウジ,0
1492,6020001158986,新規,0,2024-09-06,2024-09-06,株式会社Ｃａｖｉｇａｔｅ,,株式会社,神奈川県,横浜市保土ケ谷区,新井町５５９番地２ウィルビレッジＢ３０４号,,14,106,2400053,,,,,,,2024-09-06,1,,,,,キャビゲート,0
1493,6020001159035,新規,0,2024-09-06,2024-09-06,ＫＳホールディングス株式会社,,株式会社,神奈川県,横浜市西区,中央２丁目４７番５号,,14,103,2200051,,,,,,,2024-09-06,1,,,,,ケイエスホールディングス,0
1494,6020001159051,新規,0,2024-09-06,2024-09-06,株式会社アイランド,,株式会社,神奈川県,横浜市青葉区,恩田町１０５３番地,,14,117,2270065,,,,,,,2024-09-06,1,,,,,アイランド,0
1499,6021001083183,新規,0,2024-09-06,2024-09-06,株式会社テラコ,,株式会社,神奈川県,横須賀市,根岸町５丁目７番２８号,,14,201,2390807,,,,,,,2024-09-06,1,,,,,テラコ,0
1501,6021003014987,新規,0,2024-09-06,2024-09-06,折川アセットマネジメント合同会社,,合同会社,神奈川県,藤沢市,西富２丁目９番６号,,14,205,2510001,,,,,,,2024-09-06,1,,,,,オリカワアセットマネジメント,0
1503,6030001162277,新規,0,2024-09-06,2024-09-06,株式会社Ｔ　ＳＴＡＲ,,株式会社,埼玉県,さいたま市南区,大字円正寺２０５番地２,,11,108,3360043,,,,,,,2024-09-06,1,,,,,ティスター,0
1504,6030001162285,新規,0,2024-09-06,2024-09-06,株式会社ｎｏｓｗｅａｔ,,株式会社,埼玉県,戸田市,本町１丁目２０番１６－５０２号,,11,224,3350023,,,,,,,2024-09-06,1,,,,,ノースウェット,0
1505,6030001162302,新規,0,2024-09-06,2024-09-06,ビジネスホテルマネジメント株式会社,,株式会社,埼玉県,本庄市,小島６丁目１番,,11,211,3670061,,,,,,,2024-09-06,1,,,,,ビジネスホテルマネジメント,0
1506,6030001162310,新規,0,2024-09-06,2024-09-06,フィールドストーン株式会社,,株式会社,埼玉県,さいたま市見沼区,大字風渡野２９１番地の４,,11,104,3370017,,,,,,,2024-09-06,1,,,,,フィールドストーン,0
1507,6030001162335,新規,0,2024-09-06,2024-09-06,株式会社ハセサン不動産,,株式会社,埼玉県,蓮田市,馬込１丁目８２番地シティハイム寿１０５号,,11,238,3490114,,,,,,,2024-09-06,1,,,,,ハセサンフドウサン,0
1513,6040001135232,新規,0,2024-09-06,2024-09-06,株式会社エムクラフト,,株式会社,千葉県,市川市,東菅野２丁目１３番１４号シエル・ブルー３０１号室,,12,203,2720823,,,,,,,2024-09-06,1,,,,,エムクラフト,0
1514,6040001135265,新規,0,2024-09-06,2024-09-06,株式会社リアン山中,,株式会社,千葉県,印西市,若萩３丁目２１番地１０,,12,231,2701609,,,,,,,2024-09-06,1,,,,,リアンヤマナカ,0
1515,6040001135298,新規,0,2024-09-06,2024-09-06,株式会社ダイエイ,,株式会社,千葉県,市川市,市川３丁目３３番２号,,12,203,2720034,,,,,,,2024-09-06,1,,,,,ダイエイ,0
1516,6040003025745,新規,0,2024-09-06,2024-09-06,合同会社虹春,,合同会社,千葉県,千葉市稲毛区,天台５丁目１５番６号,,12,103,2630016,,,,,,,2024-09-06,1,,,,,コハル,0
1517,6040003025753,新規,0,2024-09-06,2024-09-06,合同会社ＲＩＮＧ,,合同会社,千葉県,佐倉市,大蛇町２５２番地グランファミリアＩ‐２０１,00136226,12,212,2850043,,,,,,,2024-09-06,1,,,,,リング,0
1520,6050001055363,新規,0,2024-09-06,2024-09-06,吉峰テクノロジー株式会社,,株式会社,茨城県,常総市,水海道山田町１０７６番地２－１０１,,08,211,3030031,,,,,,,2024-09-06,1,,,,,キチホウテクノロジー,0
1533,6110001038691,新規,0,2024-09-06,2024-09-06,株式会社ｗｅｌｌ‐ｂｅｉｎｇ,,株式会社,新潟県,長岡市,藤沢２丁目１番１９号,,15,202,9402011,,,,,,,2024-09-06,1,,,,,ウェルビーイング,0
1541,6120001268065,新規,0,2024-09-06,2024-09-06,華桜株式会社,,株式会社,大阪府,大阪市淀川区,東三国２丁目１８－３０ストロング第３新大阪５０３室,,27,123,5320002,,,,,,,2024-09-06,1,,,,,カオウ,0
1542,6120001268346,新規,0,2024-09-06,2024-09-06,株式会社ダイナー,,株式会社,大阪府,枚方市,春日西町１丁目５０番１号,,27,210,5730136,,,,,,,2024-09-06,1,,,,,ダイナー,0
1543,6120001268370,新規,0,2024-09-06,2024-09-06,株式会社ＣＲＥＡＭ,,株式会社,大阪府,大阪市天王寺区,生玉町１１生玉小谷ビル２０１,,27,109,5430071,,,,,,,2024-09-06,1,,,,,クリーム,0
1544,6120001268379,新規,0,2024-09-06,2024-09-06,ＫＥＮＴＥＬＹ株式会社,,株式会社,大阪府,大阪市北区,天満４丁目１２番１９号,,27,127,5300043,,,,,,,2024-09-06,1,,,,,ケントエリー,0
1545,6120001268395,新規,0,2024-09-06,2024-09-06,ＬＡＯＮ株式会社,,株式会社,大阪府,大阪市西区,阿波座２丁目２－２０オフィスポート本町ＷＥＳＴ５階Ｃ号,,27,106,5500011,,,,,,,2024-09-06,1,,,,,ラオン,0
1552,6120105009902,新規,0,2024-09-06,2024-09-06,特定非営利活動法人リバースフットボールクラブ,,その他の設立登記法人,大阪府,南河内郡河南町,大宝４丁目１４番１１号,,27,382,5850005,,,,,,,2024-09-06,1,,,,,リバースフットボールクラブ,0
1562,6130003009838,新規,0,2024-09-06,2024-09-06,ＰＡＲＫ　ＣＡＰＩＴＡＬ合同会社,,合同会社,京都府,京都市中京区,西ノ京池ノ内町２４番地２６,,26,104,6048375,,,,,,,2024-09-06,1,,,,,パークキャピタル,0
1569,6140003021049,新規,0,2024-09-06,2024-09-06,トレード・ヴィスタ合同会社,,合同会社,兵庫県,神戸市中央区,北野町３丁目９番１３号２０１,,28,110,6500002,,,,,,,2024-09-06,1,,,,,トレードヴィスタ,0
1576,6180001163079,新規,0,2024-09-06,2024-09-06,株式会社延寿,,株式会社,愛知県,名古屋市西区,上小田井２丁目１１８番地ラ・コンフォート３０３号室,,23,104,4520821,,,,,,,2024-09-06,1,,,,,エンジュ,0
1577,6180001163104,新規,0,2024-09-06,2024-09-06,株式会社Ｌｏｏｏｘ,,株式会社,愛知県,名古屋市中区,丸の内３丁目１０番８号,,23,106,4600002,,,,,,,2024-09-06,1,,,,,ルークス,0
1578,6180001163120,新規,0,2024-09-06,2024-09-06,株式会社Ｓｅｃｏｎｄ,,株式会社,愛知県,名古屋市瑞穂区,北原町１丁目９番地の１Ａ棟,,23,108,4670811,,,,,,,2024-09-06,1,,,,,セコンド,0
1579,6180001163178,新規,0,2024-09-06,2024-09-06,株式会社３３十,,株式会社,愛知県,小牧市,大字小牧原新田１２５５番地１,,23,219,4850012,,,,,,,2024-09-06,1,,,,,サンサンジュウ,0
1584,6180003027307,新規,0,2024-09-06,2024-09-06,合同会社ブランシュ,,合同会社,愛知県,名古屋市中村区,名駅４丁目２４番５号第２森ビル４０１,,23,105,4500002,,,,,,,2024-09-06,1,,,,,ブランシュ,0
1585,6180003027315,新規,0,2024-09-06,2024-09-06,合同会社ＨＩＭＡＷＡＲＩ,,合同会社,愛知県,半田市,栄町１丁目４５番地,,23,205,4750846,,,,,,,2024-09-06,1,,,,,ヒマワリ,0
1587,6180005020755,新規,0,2024-09-06,2024-09-06,一般社団法人国際ジェニタルケア,,その他の設立登記法人,愛知県,名古屋市中区,錦２丁目９番２１号ＩＥ伏見５０１号,,23,106,4600003,,,,,,,2024-09-06,1,,,,,コクサイジェニタルケア,0
1588,6180005020763,新規,0,2024-09-06,2024-09-06,一般社団法人青山スポーツクラブ,,その他の設立登記法人,愛知県,半田市,青山５丁目６番地の１,,23,205,4750836,,,,,,,2024-09-06,1,,,,,アオヤマスポーツクラブ,0
1592,6180301039029,新規,0,2024-09-06,2024-09-06,ＴＮプロモーション株式会社,,株式会社,愛知県,刈谷市,泉田町宮下５７番地１,,23,210,4480004,,,,,,,2024-09-06,1,,,,,ティーエヌプロモーション,0
1593,6180303006258,新規,0,2024-09-06,2024-09-06,合同会社ｗｉｌｌｏｗ,,合同会社,愛知県,岡崎市,中園町字六反１３番地１Ｇｒｅｅｎａｇｅ１１３,,23,202,4440942,,,,,,,2024-09-06,1,,,,,ウィロー,0
1602,6220003003823,新規,0,2024-09-06,2024-09-06,ＣＨＩＴＯＳＥ合同会社,,合同会社,石川県,野々市市,太平寺２丁目２１３‐３,,17,212,9218845,,,,,,,2024-09-06,1,,,,,チトセ,0
1603,6220005008878,新規,0,2024-09-06,2024-09-06,一般社団法人のと復耕ラボ,,その他の設立登記法人,石川県,輪島市,三井町長沢６字１３２番地２,,17,204,9292379,,,,,,,2024-09-06,1,,,,,ノトフッコウラボ,0
1604,6230003002287,新規,0,2024-09-06,2024-09-06,合同会社ヒカリ,,合同会社,富山県,富山市,手屋３丁目１１番４１号,,16,201,9300901,,,,,,,2024-09-06,1,,,,,ヒカリ,0
1608,6240001063776,新規,0,2024-09-06,2024-09-06,株式会社ＤｉｖｅｒＣｉｔｙ,,株式会社,広島県,広島市南区,宇品御幸３丁目４番１５－１０２号,,34,103,7340015,,,,,,,2024-09-06,1,,,,,ダイバーシティ,0
1618,6290001107157,新規,0,2024-09-06,2024-09-06,Ｒ＆Ｈ株式会社,,株式会社,福岡県,福岡市早良区,賀茂３丁目２２番１７－１０４号,,40,137,8140164,,,,,,,2024-09-06,1,,,,,アールアンドエイチ,0
1619,6290001107181,新規,0,2024-09-06,2024-09-06,カズラン株式会社,,株式会社,福岡県,太宰府市,坂本３丁目１７番１０号,,40,221,8180133,,,,,,,2024-09-06,1,,,,,カズラン,0
1620,6290001107207,新規,0,2024-09-06,2024-09-06,株式会社Ｍｉｓｆｉｔｓ,,株式会社,福岡県,福岡市中央区,清川２丁目１７番２０―２０２号,,40,133,8100005,,,,,,,2024-09-06,1,,,,,ミスフィッツ,0
1621,6290001107215,新規,0,2024-09-06,2024-09-06,株式会社経理の田中さん,,株式会社,福岡県,福岡市中央区,天神４丁目４番３０号,,40,133,8100001,,,,,,,2024-09-06,1,,,,,ケイリノタナカサン,0
1626,6290003015770,新規,0,2024-09-06,2024-09-06,合同会社新世界,,合同会社,福岡県,福岡市中央区,天神２丁目２－１２Ｔ＆Ｊビルディング７Ｆ,,40,133,8100001,,,,,,,2024-09-06,1,,,,,シンセカイ,0
1627,6290003015779,新規,0,2024-09-06,2024-09-06,ＭＵＺＵ　ＰＲＯＪＥＣＴ合同会社,,合同会社,福岡県,福岡市中央区,天神２丁目２番１２号Ｔ＆Ｊビルディング７Ｆ,,40,133,8100001,,,,,,,2024-09-06,1,,,,,,0
1634,6320001020703,新規,0,2024-09-06,2024-09-06,株式会社幸輝,,株式会社,大分県,宇佐市,大字四日市１０１６番地の１,,44,211,8790471,,,,,,,2024-09-06,1,,,,,コウキ,0
1644,6340001026772,新規,0,2024-09-06,2024-09-06,エグチ興産イノベーション株式会社,,株式会社,鹿児島県,出水市,大野原町９９１番地８,,46,208,8990216,,,,,,,2024-09-06,1,,,,,エグチコウサンイノベーション,0
1647,6350001019172,新規,0,2024-09-06,2024-09-06,株式会社イニーファーム,,株式会社,宮崎県,西都市,大字南方４８８６番地１,,45,208,8810027,,,,,,,2024-09-06,1,,,,,イニーファーム,0
1648,6350003004742,新規,0,2024-09-06,2024-09-06,みやざきアロエ合同会社,,合同会社,宮崎県,宮崎市,橘通東１丁目５番８号宮崎マンゴーホテル２０４号,,45,201,8800805,,,,,,,2024-09-06,1,,,,,ミヤザキアロエ,0
1654,6410003003977,新規,0,2024-09-06,2024-09-06,合同会社ＳＨＩＮＥ,,合同会社,秋田県,にかほ市,金浦字下谷地４６番地１,,05,214,0180311,,,,,,,2024-09-06,1,,,,,シャイン,0
1660,6430001092632,新規,0,2024-09-06,2024-09-06,株式会社札幌中央不動産販売,,株式会社,北海道,札幌市北区,新琴似二条１丁目１番４９号,,01,102,0010902,,,,,,,2024-09-06,1,,,,,サッポロチュウオウフドウサンハンバイ,0
1668,6450003002538,新規,0,2024-09-06,2024-09-06,合同会社タカラファーム,,合同会社,北海道,士別市,大通東１７丁目３１４３番地２２,,01,220,0950019,,,,,,,2024-09-06,1,,,,,タカラファーム,0
1677,6700150127062,新規,0,2024-09-06,2024-09-06,Ｔｈｅｒｍｏ　Ｆｉｓｈｅｒ　Ｓｃｉｅｎｔｉｆｉｃ　Ｐｔｅ．Ｌｔｄ,,外国会社等,東京都,港区,芝浦４丁目２番８号住友不動産三田ツインビル東館　サーモフィッシャーサイエンティフィック株式会社内,,13,103,1080023,Ｂｌｋ３３，Ｍａｒｓｉｌｉｎｇ　Ｉｎｄｕｓｔｒｉａｌ　Ｅｓｔａｔｅ　Ｒｄ３，＃０７－０６，Ｓｉｎｇａｐｏｒｅ，７３９２５６,,,,,,2024-09-06,1,,,,,サーモフイツシヤーサイエンテイフイツク,0
1685,7010001248077,新規,0,2024-09-06,2024-09-06,株式会社スプラウト,,株式会社,東京都,中央区,銀座１丁目２２番１１号銀座大竹ビジデンス２階,,13,102,1040061,,,,,,,2024-09-06,1,,,,,スプラウト,0
1686,7010001248093,新規,0,2024-09-06,2024-09-06,Ｏ　ｆ　Ａｌｌ株式会社,,株式会社,東京都,千代田区,神田小川町２丁目４番地１４号ファーストクレストビル８階,,13,101,1010052,,,,,,,2024-09-06,1,,,,,オブオール,0
1687,7010003044838,新規,0,2024-09-06,2024-09-06,合同会社フロントテック,,合同会社,東京都,文京区,白山１丁目１７番１５号,,13,105,1130001,,,,,,,2024-09-06,1,,,,,フロントテック,0
1704,7010401184938,新規,0,2024-09-06,2024-09-06,株式会社ＵＲＶＡＮＣＥ,,株式会社,東京都,港区,芝浦３丁目１５番７号田町グリーンハイツ６０２,,13,103,1080023,,,,,,,2024-09-06,1,,,,,アーヴァンス,0
1705,7010403033358,新規,0,2024-09-06,2024-09-06,ＥＤＩＴＩＯＮ合同会社,,合同会社,東京都,港区,南麻布１丁目１０番８号,,13,103,1060047,,,,,,,2024-09-06,1,,,,,エディション,0
1706,7010403033390,新規,0,2024-09-06,2024-09-06,笛吹蓄電所合同会社,,合同会社,東京都,港区,元赤坂１丁目１番８号赤坂コミュニティビル４階,,13,103,1070051,,,,,,,2024-09-06,1,,,,,フエフキチクデンジョ,0
1710,7010501052862,新規,0,2024-09-06,2024-09-06,株式会社Ｌ．Ｍ　ｃｏｍｐａｎｙ,,株式会社,東京都,台東区,浅草３丁目２１番９号トーラス浅草２０９号室,,13,106,1110032,,,,,,,2024-09-06,1,,,,,エルエムカンパニー,0
1711,7010501052870,新規,0,2024-09-06,2024-09-06,錦成株式会社,,株式会社,東京都,台東区,下谷２丁目２３－８リベール上野５０１,,13,106,1100004,,,,,,,2024-09-06,1,,,,,キンセイ,0
1715,7010801035377,新規,0,2024-09-06,2024-09-06,株式会社ｃ６０Ｔｏｋｙｏ,,株式会社,東京都,大田区,久が原６丁目１７番１１号,,13,111,1460085,,,,,,,2024-09-06,1,,,,,シーシックスティトウキョウ,0
1718,7010901055936,新規,0,2024-09-06,2024-09-06,株式会社ＴＨｉＲＤ　ＥＹＥ,,株式会社,東京都,世田谷区,代田５丁目３１番１６号,,13,112,1550033,,,,,,,2024-09-06,1,,,,,サードアイ,0
1725,7011001164355,新規,0,2024-09-06,2024-09-06,レボルシオン株式会社,,株式会社,東京都,目黒区,下目黒３丁目１－２２谷本ビル３Ｃ,,13,110,1530064,,,,,,,2024-09-06,1,,,,,レボルシオン,0
1726,7011001164421,新規,0,2024-09-06,2024-09-06,株式会社ＴｅｓｔｏＷｅｌｌＢｅ,,株式会社,東京都,渋谷区,渋谷２丁目１９－１５宮益坂ビルディング６０９,,13,113,1500002,,,,,,,2024-09-06,1,,,,,テストウェルビー,0
1728,7011003019912,新規,0,2024-09-06,2024-09-06,合同会社ＩＷＡＫＯＳＨＩ,,合同会社,東京都,渋谷区,代々木４丁目１１番８号茶花ハイツ１０３,,13,113,1510053,,,,,,,2024-09-06,1,,,,,イワコシ,0
1729,7011003019920,新規,0,2024-09-06,2024-09-06,合同会社ｅｍ　ｐｌｅｎａ,,合同会社,東京都,渋谷区,渋谷２丁目１９－１５宮益坂ビルディング６０９,,13,113,1500002,,,,,,,2024-09-06,1,,,,,エンプレナ,0
1733,7011101108682,新規,0,2024-09-06,2024-09-06,株式会社東真リベラティー,,株式会社,東京都,新宿区,四谷４丁目１４番地,,13,104,1600004,,,,,,,2024-09-06,1,,,,,トウシンリベラティー,0
1734,7011101108699,新規,0,2024-09-06,2024-09-06,華盛貴金属株式会社,,株式会社,東京都,新宿区,百人町１丁目１８－８大久保カドビル２Ｆ－ＬｉｎｋＳｐａｃｅＣ０５,,13,104,1690073,,,,,,,2024-09-06,1,,,,,カセイキキンゾク,0
1735,7011103014879,新規,0,2024-09-06,2024-09-06,Ｇｏｌｄｅｎ　Ｇａｔｅ合同会社,,合同会社,東京都,新宿区,高田馬場１丁目３１番８号,,13,104,1690075,,,,,,,2024-09-06,1,,,,,ゴールデンゲイト,0
1738,7011601028034,新規,0,2024-09-06,2024-09-06,桐弦株式会社,,株式会社,東京都,練馬区,南田中５丁目１５－１１－１０４,,13,120,1770035,,,,,,,2024-09-06,1,,,,,キリツル,0
1739,7011601028042,新規,0,2024-09-06,2024-09-06,株式会社スタディオゼウス,,株式会社,東京都,練馬区,大泉学園町６丁目２５番９号,,13,120,1780061,,,,,,,2024-09-06,1,,,,,スタディオゼウス,0
1741,7011701027605,新規,0,2024-09-06,2024-09-06,株式会社ＩＳＭ,,株式会社,東京都,江戸川区,東葛西１丁目２９－６,,13,123,1340084,,,,,,,2024-09-06,1,,,,,アイエスエム,0
1744,7011801044806,新規,0,2024-09-06,2024-09-06,株式会社Ｊｏｉｅ　Ｃｏｅｕｒ,,株式会社,東京都,足立区,綾瀬３丁目１７番２５号,,13,121,1200005,,,,,,,2024-09-06,1,,,,,ジョワクール,0
1745,7011803006432,新規,0,2024-09-06,2024-09-06,合同会社サイバーエージェント,,合同会社,東京都,葛飾区,宝町２丁目５番１０－４０６号堀切菖蒲園ダイヤモンドマンション,,13,122,1240005,,,,,,,2024-09-06,1,,,,,サイバーエージェント,0
1752,7012403006731,新規,0,2024-09-06,2024-09-06,クロノフリージア合同会社,,合同会社,東京都,調布市,深大寺東町８丁目３３番地３イーストヒルズ２０４,,13,208,1820012,,,,,,,2024-09-06,1,,,,,クロノフリージア,0
1753,7012701018437,新規,0,2024-09-06,2024-09-06,株式会社ＫＯＴＯｃｒａｆｔ,,株式会社,東京都,東村山市,栄町１丁目３０番地７,,13,213,1890013,,,,,,,2024-09-06,1,,,,,コトクラフト,0
1754,7012705002420,新規,0,2024-09-06,2024-09-06,医療法人社団田無循環器会,,その他の設立登記法人,東京都,西東京市,南町５丁目１番８号田無クリニックモール１階,,13,229,1880012,,,,,,,2024-09-06,1,,,,,タナシジュンカンキカイ,0
1755,7012801023444,新規,0,2024-09-06,2024-09-06,山下株式会社,,株式会社,東京都,立川市,曙町２丁目３２番７Ｂｉｇ武蔵野立川３０２号室,00136224,13,202,1900012,,,,,,,2024-09-06,1,,,,,,0
1765,7020001158853,新規,0,2024-09-06,2024-09-06,ハウスリゾート株式会社,,株式会社,神奈川県,川崎市川崎区,駅前本町１１番地２川崎フロンティアビル４階,,14,131,2100007,,,,,,,2024-09-06,1,,,,,ハウスリゾート,0
1766,7020001158911,新規,0,2024-09-06,2024-09-06,株式会社じゅんらぼ,,株式会社,神奈川県,横浜市神奈川区,金港町５－１４クアドリフォリオ８階,,14,102,2210056,,,,,,,2024-09-06,1,,,,,ジュンラボ,0
1767,7020001158985,新規,0,2024-09-06,2024-09-06,株式会社Ｗｅａｔｈｅｒｈｅｌｍ,,株式会社,神奈川県,横浜市中区,桜木町１丁目１０１番地１クロスゲート７階,,14,104,2310062,,,,,,,2024-09-06,1,,,,,ウェザーヘルム,0
1775,7020005016520,新規,0,2024-09-06,2024-09-06,一般社団法人ソレデイイノダ,,その他の設立登記法人,神奈川県,横浜市旭区,東希望が丘２３６番地１５ルミエールコートＩ１０３,00136217,14,112,2410826,,,,,,,2024-09-06,1,,,,,ソレデイイノダ,0
1787,7030001162276,新規,0,2024-09-06,2024-09-06,株式会社ＢＥＡＶＥＲ　ＡＳＳＩＳＴ,,株式会社,埼玉県,所沢市,旭町２５番１９号サンライズ,,11,208,3590036,,,,,,,2024-09-06,1,,,,,ビーバーアシスト,0
1788,7030001162284,新規,0,2024-09-06,2024-09-06,株式会社トーサイホールディングス,,株式会社,埼玉県,三郷市,三郷３丁目１６番地２,,11,237,3410024,,,,,,,2024-09-06,1,,,,,トーサイホールディングス,0
1789,7030001162301,新規,0,2024-09-06,2024-09-06,株式会社Ｒ,,株式会社,埼玉県,春日部市,緑町２丁目８－４４,,11,214,3440063,,,,,,,2024-09-06,1,,,,,アール,0
1790,7030001162326,新規,0,2024-09-06,2024-09-06,株式会社Ｃｌｏｕｄ,,株式会社,埼玉県,蓮田市,大字閏戸４１２２番地４９,,11,238,3490133,,,,,,,2024-09-06,1,,,,,クラウド,0
1791,7030001162350,新規,0,2024-09-06,2024-09-06,株式会社七建工業,,株式会社,埼玉県,さいたま市北区,宮原町２丁目５２番地９,,11,102,3310812,,,,,,,2024-09-06,1,,,,,,0
1800,7030003025043,新規,0,2024-09-06,2024-09-06,合同会社ＦＨＴ,,合同会社,埼玉県,和光市,白子２丁目１４番５３号,,11,229,3510101,,,,,,,2024-09-06,1,,,,,エフエイチティー,0
1802,7030005021833,新規,0,2024-09-06,2024-09-06,特定非営利活動法人スローライフ,,その他の設立登記法人,埼玉県,さいたま市大宮区,大門町３丁目１９７番地星野第二ビル５０４,,11,103,3300846,,,,,,,2024-09-06,1,,,,,スローライフ,0
1808,7040001135248,新規,0,2024-09-06,2024-09-06,株式会社Ｌａｂ　Ｓｏｌｕｔｉｏｎ,,株式会社,千葉県,八千代市,上高野２０６９番地７,,12,221,2760022,,,,,,,2024-09-06,1,,,,,ラボソリューション,0
1812,7040003025744,新規,0,2024-09-06,2024-09-06,森建設合同会社,,合同会社,千葉県,八千代市,大和田新田３６４番地１ＶｉｌｌａｇｅＨｏｕｓｅ八千代２９６Ｂ棟２０１号,,12,221,2760046,,,,,,,2024-09-06,1,,,,,モリケンセツ,0
1813,7040003025752,新規,0,2024-09-06,2024-09-06,合同会社ＬＵＫＥ,,合同会社,千葉県,佐倉市,大蛇町２５２番地グランファミリアＩ‐２０３号,00136225,12,212,2850043,,,,,,,2024-09-06,1,,,,,ルーク,0
1823,7090001018885,新規,0,2024-09-06,2024-09-06,ＩＤＥＡＬ株式会社,,株式会社,山梨県,南アルプス市,鏡中條９１１番地,,19,208,4000332,,,,,,,2024-09-06,1,,,,,アイディール,0
1827,7100005013220,新規,0,2024-09-06,2024-09-06,一般社団法人ｔｓｕｒｕｂａｍｉ,,その他の設立登記法人,長野県,茅野市,豊平１４６４－１,,20,214,3910213,,,,,,,2024-09-06,1,,,,,ツルバミ,0
1833,7120001268246,新規,0,2024-09-06,2024-09-06,株式会社タイセーメンテナンス,,株式会社,大阪府,枚方市,長尾家具町１丁目５番６号,,27,210,5730102,,,,,,,2024-09-06,1,,,,,タイセーメンテナンス,0
1834,7120001268337,新規,0,2024-09-06,2024-09-06,なごり生物科学株式会社,,株式会社,大阪府,大阪市天王寺区,生玉前町５－３１アンビジョン三和ＩＩ４０５号,00136210,27,109,5430072,,,,,,,2024-09-06,1,,,,,ナゴリセイブツカガク,0
1835,7120001268386,新規,0,2024-09-06,2024-09-06,株式会社花,,株式会社,大阪府,大阪市天王寺区,大道３丁目８番１８号北野ビル３Ｆ,,27,109,5430052,,,,,,,2024-09-06,1,,,,,ハナ,0
1836,7120001268394,新規,0,2024-09-06,2024-09-06,株式会社華豊プランニング,,株式会社,大阪府,大阪市中央区,島之内１丁目２１番２４号ファーストＫビル７Ｆ,,27,128,5420082,,,,,,,2024-09-06,1,,,,,カホウプランニング,0
1838,7120003027476,新規,0,2024-09-06,2024-09-06,房合同会社,,合同会社,大阪府,大阪市中央区,久太郎町１丁目７番１１－１００２号,,27,128,5410056,,,,,,,2024-09-06,1,,,,,ボウ,0
1839,7120003027484,新規,0,2024-09-06,2024-09-06,合同会社ＲＯＺＡ,,合同会社,大阪府,大阪市生野区,新今里３丁目１１番７－４０７号,,27,116,5440001,,,,,,,2024-09-06,1,,,,,ロサ,0
1844,7120901049729,新規,0,2024-09-06,2024-09-06,株式会社イースリーコンサルティング,,株式会社,大阪府,吹田市,千里山星が丘１３番１－６１０号,,27,205,5650845,,,,,,,2024-09-06,1,,,,,イースリーコンサルティング,0
1845,7120903005317,新規,0,2024-09-06,2024-09-06,合同会社ＴＫＭ,,合同会社,大阪府,豊中市,春日町２丁目１－６,,27,203,5600052,,,,,,,2024-09-06,1,,,,,ティーケーエム,0
1849,7130001077860,新規,0,2024-09-06,2024-09-06,株式会社Ｇｌａｓｓ　Ｓｔｕｄｉｏ　Ｃａｌｏｒｅ,,株式会社,京都府,亀岡市,保津町上大年４９番地１,,26,206,6210005,,,,,,,2024-09-06,1,,,,,グラススタジオカローレ,0
1850,7130001077877,新規,0,2024-09-06,2024-09-06,ＸＬＶ　ＳＯＣＩＥＴＹ株式会社,,株式会社,京都府,京都市左京区,上高野東山９－１０,,26,103,6060067,,,,,,,2024-09-06,1,,,,,エックスエルブイソサエティ,0
1859,7140001135717,新規,0,2024-09-06,2024-09-06,株式会社コンパニオン,,株式会社,兵庫県,神戸市兵庫区,西橘通１丁目２番１１号,,28,105,6520034,,,,,,,2024-09-06,1,,,,,コンパニオン,0
1864,7150003003359,新規,0,2024-09-06,2024-09-06,メルクマル合同会社,,合同会社,奈良県,生駒市,小明町４５６番地５,,29,209,6300201,,,,,,,2024-09-06,1,,,,,メルクマル,0
1865,7160001026195,新規,0,2024-09-06,2024-09-06,株式会社ｋｉｉｔｏｓ,,株式会社,滋賀県,東近江市,小脇町２３３４番地,,25,213,5270091,,,,,,,2024-09-06,1,,,,,キートス,0
1871,7180001163111,新規,0,2024-09-06,2024-09-06,株式会社ＯｎｅＲａｉｓｅ,,株式会社,愛知県,名古屋市天白区,高坂町２５９番地,,23,116,4680025,,,,,,,2024-09-06,1,,,,,ワンレイズ,0
1872,7180001163128,新規,0,2024-09-06,2024-09-06,株式会社プログレッシブ,,株式会社,愛知県,名古屋市熱田区,川並町２番２２号,,23,109,4560072,,,,,,,2024-09-06,1,,,,,プログレッシブ,0
1873,7180001163152,新規,0,2024-09-06,2024-09-06,株式会社藍巧舎,,株式会社,愛知県,弥富市,楠１丁目５８番地,,23,235,4980066,,,,,,,2024-09-06,1,,,,,アイコウシャ,0
1874,7180001163169,新規,0,2024-09-06,2024-09-06,株式会社ＡＬＩＶＥ　ＡＭＡ,,株式会社,愛知県,あま市,坂牧大塚９１番地１,,23,237,4901115,,,,,,,2024-09-06,1,,,,,アライブアマ,0
1875,7180001163177,新規,0,2024-09-06,2024-09-06,株式会社カセケン,,株式会社,愛知県,春日井市,篠木町７丁目３４番地１０,,23,206,4860851,,,,,,,2024-09-06,1,,,,,カセケン,0
1877,7180003027306,新規,0,2024-09-06,2024-09-06,合同会社フリークス,,合同会社,愛知県,春日井市,白山町６丁目３番地１０,,23,206,4870034,,,,,,,2024-09-06,1,,,,,フリークス,0
1881,7200001042907,新規,0,2024-09-06,2024-09-06,株式会社ＰＭ‐Ｃｒｅａｔｅ,,株式会社,岐阜県,可児市,皐ケ丘９丁目２０番地,,21,214,5090236,,,,,,,2024-09-06,1,,,,,ピーエムクリエイト,0
1883,7210001019904,新規,0,2024-09-06,2024-09-06,株式会社ｔｒｅｅ‐ｔｒｅｅ,,株式会社,福井県,福井市,羽水１丁目５０２番地,,18,201,9188114,,,,,,,2024-09-06,1,,,,,ツリーツリー,0
1884,7220001026197,新規,0,2024-09-06,2024-09-06,減災復興株式会社,,株式会社,石川県,輪島市,三井町長沢６の１２番地,,17,204,9292379,,,,,,,2024-09-06,1,,,,,ゲンサイフッコウ,0
1888,7240001063783,新規,0,2024-09-06,2024-09-06,株式会社フリースタイルカンパニー,,株式会社,広島県,広島市安佐南区,古市３丁目３番１号,,34,105,7310123,,,,,,,2024-09-06,1,,,,,フリースタイルカンパニー,0
1903,7290001107065,新規,0,2024-09-06,2024-09-06,株式会社トライアングル,,株式会社,福岡県,大野城市,仲畑２丁目８番１２号シャトーポルターダ２号室,,40,219,8160921,,,,,,,2024-09-06,1,,,,,トライアングル,0
1904,7290001107156,新規,0,2024-09-06,2024-09-06,Ｑ＆Ｋホールディングス株式会社,,株式会社,福岡県,福岡市博多区,山王１丁目６番１８号,,40,132,8120015,,,,,,,2024-09-06,1,,,,,キューアンドケーホールディングス,0
1905,7290001107172,新規,0,2024-09-06,2024-09-06,ＷＢコーポレーション株式会社,,株式会社,福岡県,大牟田市,大字草木１０３３番地２,,40,202,8370917,,,,,,,2024-09-06,1,,,,,ダブリュービーコーポレーション,0
1906,7290001107180,新規,0,2024-09-06,2024-09-06,三基トレード株式会社,,株式会社,福岡県,嘉麻市,漆生１１１１－１０,,40,227,8200201,,,,,,,2024-09-06,1,,,,,サンキトレード,0
1911,7290801030862,新規,0,2024-09-06,2024-09-06,株式会社メゾンウエスト,,株式会社,福岡県,北九州市八幡西区,星ケ丘７丁目４番１１号,,40,109,8071264,,,,,,,2024-09-06,1,,,,,メゾンウエスト,0
1913,7310001019200,新規,0,2024-09-06,2024-09-06,株式会社ｍａｍａｇｏｔｏｐｒｏｊｅｃｔ,,株式会社,長崎県,雲仙市,吾妻町大木場名１０９、２階,,42,213,8591106,,,,,,,2024-09-06,1,,,,,ママゴトプロジェクト,0
1921,7330001032449,新規,0,2024-09-06,2024-09-06,株式会社ＡＷＳＭ,,株式会社,熊本県,熊本市東区,新生１丁目１－２２－２Ｆ,,43,102,8620908,,,,,,,2024-09-06,1,,,,,オーサム,0
1929,7370003006736,新規,0,2024-09-06,2024-09-06,ルティーｉ合同会社,,合同会社,宮城県,名取市,相互台２丁目１２番地の９,,04,207,9811246,,,,,,,2024-09-06,1,,,,,ルティーアイ,0
1937,7410001013928,新規,0,2024-09-06,2024-09-06,株式会社ＭＡＴＳＵＭＯＴＯ,,株式会社,秋田県,由利本荘市,谷地町１２３番地第５リッチビル,,05,210,0150078,,,,,,,2024-09-06,1,,,,,マツモト,0
1947,7440001009493,新規,0,2024-09-06,2024-09-06,ＩＲＯＮ　ＢＡＳＥ株式会社,,株式会社,北海道,函館市,金堀町２番１６号,,01,202,0420944,,,,,,,2024-09-06,1,,,,,アイアンベース,0
1948,7450001014393,新規,0,2024-09-06,2024-09-06,なよろ建設工業株式会社,,株式会社,北海道,名寄市,東三条南７丁目１番地１,,01,221,0960003,,,,,,,2024-09-06,1,,,,,ナヨロケンセツコウギョウ,0
1949,7450001014402,新規,0,2024-09-06,2024-09-06,夢夏株式会社,,株式会社,北海道,旭川市,緑が丘東四条３丁目６番１２号,,01,204,0788804,,,,,,,2024-09-06,1,,,,,ムカ,0
1953,7480001012584,新規,0,2024-09-06,2024-09-06,株式会社ケーズ,,株式会社,徳島県,徳島市,国府町中５５５番地の１２,,36,201,7793124,,,,,,,2024-09-06,1,,,,,ケーズ,0
1958,7700150127061,新規,0,2024-09-06,2024-09-06,Ａｄｖａｎｃｅｄ　Ｌｉｆｅ　Ｉｎｓｕｒａｎｃｅ　Ｓｔｒａｔｅｇｉｅｓ，Ｉｎｃ．日本駐在員事務所,,外国会社等,東京都,港区,赤坂２丁目２１－４天翔赤坂ＡＮＮＥＸビル２階２０６－Ｂ号室,,13,103,1070052,７０７　ＲＩＣＨＡＲＤ　ＳＴ　ＳＴＥ　７１１　ＨＯＮＯＬＵＬＵ，Ｈａｗａｉｉ　９６８１３,,,,,,2024-09-06,1,,,,,アドバンストライフインシユアランスストラテジーズインクニホンチユウザイインジムシヨ,0
1962,8010001248043,新規,0,2024-09-06,2024-09-06,株式会社さわい工房,,株式会社,東京都,中央区,晴海３丁目１３番１号（ドゥ・トゥールイースト棟３０４号）,,13,102,1040053,,,,,,,2024-09-06,1,,,,,サワイコウボウ,0
1963,8010003044812,新規,0,2024-09-06,2024-09-06,ヴェルデ合同会社,,合同会社,東京都,千代田区,九段北４丁目１番３号,,13,101,1020073,,,,,,,2024-09-06,1,,,,,ヴェルデ,0
1974,8010401184895,新規,0,2024-09-06,2024-09-06,ＨＡＫＫＥ株式会社,,株式会社,東京都,港区,北青山１丁目３番１号,,13,103,1070061,,,,,,,2024-09-06,1,,,,,ハッケ,0
1975,8010401184904,新規,0,2024-09-06,2024-09-06,株式会社ｆｌｅｗ,,株式会社,東京都,港区,南青山３丁目１番３６号青山丸竹ビル６Ｆ,,13,103,1070062,,,,,,,2024-09-06,1,,,,,フリュー,0
1976,8010401184912,新規,0,2024-09-06,2024-09-06,株式会社シナジア,,株式会社,東京都,港区,浜松町２丁目２番１５号浜松町ダイヤビル２Ｆ,,13,103,1050013,,,,,,,2024-09-06,1,,,,,シナジア,0
1977,8010401184920,新規,0,2024-09-06,2024-09-06,株式会社インディノ,,株式会社,東京都,港区,西麻布２丁目２１番１０号,,13,103,1060031,,,,,,,2024-09-06,1,,,,,インディノ,0
1978,8010401184937,新規,0,2024-09-06,2024-09-06,スリーオーシャンキャピタル株式会社,,株式会社,東京都,港区,赤坂１丁目１４番５号アークヒルズエグゼクティブタワーＳ５０３,,13,103,1070052,,,,,,,2024-09-06,1,,,,,スリーオーシャンキャピタル,0
1979,8010401184953,新規,0,2024-09-06,2024-09-06,ＲＡＫ株式会社,,株式会社,東京都,港区,高輪４丁目８番２３号,,13,103,1080074,,,,,,,2024-09-06,1,,,,,アールエイケイ,0
1981,8010403033365,新規,0,2024-09-06,2024-09-06,合同会社ワタリＥＳＳ,,合同会社,東京都,港区,芝公園１丁目１番１２号芝公園電気ビルディング７Ｆ,,13,103,1050011,,,,,,,2024-09-06,1,,,,,ワタリイーエスエス,0
1982,8010403033381,新規,0,2024-09-06,2024-09-06,合同会社ＹＢ,,合同会社,東京都,港区,北青山１丁目３番１号アールキューブ青山３階,,13,103,1070061,,,,,,,2024-09-06,1,,,,,ワイビー,0
1983,8010501052853,新規,0,2024-09-06,2024-09-06,株式会社グロウス,,株式会社,東京都,台東区,東上野３丁目３６番１０－９０１号佳家ヒルズ東上野,,13,106,1100015,,,,,,,2024-09-06,1,,,,,グロウス,0
1986,8010701046481,新規,0,2024-09-06,2024-09-06,株式会社Ｐｒｏｓｐｅｒ　Ｅｓｔａｔｅ,,株式会社,東京都,品川区,大崎２丁目９番１号,,13,109,1410032,,,,,,,2024-09-06,1,,,,,プロスパーエステート,0
1987,8010703007333,新規,0,2024-09-06,2024-09-06,中山葬儀社合同会社,,合同会社,東京都,品川区,北品川１丁目２９番１１号,,13,109,1400001,,,,,,,2024-09-06,1,,,,,ナカヤマソウギシャ,0
1989,8010801035343,新規,0,2024-09-06,2024-09-06,株式会社プラスアミーゴ,,株式会社,東京都,大田区,北馬込１丁目１番５号朝日プラザ旗の台１０４号室,,13,111,1430021,,,,,,,2024-09-06,1,,,,,プラスアミーゴ,0
1990,8010801035368,新規,0,2024-09-06,2024-09-06,益豊商事株式会社,,株式会社,東京都,大田区,鵜の木２丁目４６番１８－５０５号,,13,111,1460091,,,,,,,2024-09-06,1,,,,,エキホウショウジ,0
1995,8010905004665,新規,0,2024-09-06,2024-09-06,医療法人社団すずかけ会,,その他の設立登記法人,東京都,世田谷区,経堂２丁目１４番１０号Ｋ・ＳＫＹＯＤＯＢＵＩＬＤＩＮＧ２階,,13,112,1560052,,,,,,,2024-09-06,1,,,,,スズカケカイ,0
2000,8011001164486,新規,0,2024-09-06,2024-09-06,テイクオンアルファ株式会社,,株式会社,東京都,渋谷区,道玄坂１丁目１６番６号二葉ビル８ｂ,,13,113,1500043,,,,,,,2024-09-06,1,,,,,テイクオンアルファ,0
2008,8011101108657,新規,0,2024-09-06,2024-09-06,株式会社スケールエーアイ,,株式会社,東京都,新宿区,西新宿２丁目６－１新宿住友ビル４２階,,13,104,1600023,,,,,,,2024-09-06,1,,,,,スケールエーアイ,0
2009,8011101108698,新規,0,2024-09-06,2024-09-06,株式会社まきりょうまスピリットサポート,,株式会社,東京都,新宿区,新宿２丁目１２番１３号新宿アントレサロンビル２階,,13,104,1600022,,,,,,,2024-09-06,1,,,,,マキリョウマスピリットサポート,0
2010,8011101108707,新規,0,2024-09-06,2024-09-06,株式会社ＡＤＳ　ＡＧＥＮＴ,,株式会社,東京都,新宿区,西新宿１丁目３番３号品川ステーションビル新宿６０３,,13,104,1600023,,,,,,,2024-09-06,1,,,,,エーディーエスエージェント,0
2011,8011101108731,新規,0,2024-09-06,2024-09-06,株式会社ヘイブン,,株式会社,東京都,新宿区,新宿１丁目３６番２号新宿第七葉山ビル３Ｆ,,13,104,1600022,,,,,,,2024-09-06,1,,,,,ヘイブン,0
2012,8011103014903,新規,0,2024-09-06,2024-09-06,アシスト合同会社,,合同会社,東京都,新宿区,西新宿３丁目３番１３号西新宿水間ビル６階,,13,104,1600023,,,,,,,2024-09-06,1,,,,,アシスト,0
2016,8011601028033,新規,0,2024-09-06,2024-09-06,株式会社Ｐｏｉｎｔ,,株式会社,東京都,練馬区,田柄２丁目７番２号１０１,,13,120,1790073,,,,,,,2024-09-06,1,,,,,ポイント,0
2019,8011801044813,新規,0,2024-09-06,2024-09-06,Ｆｏｕｒ　Ｓｅａｓｏｎｓ株式会社,,株式会社,東京都,足立区,新田１丁目８番６－７１０号,,13,121,1230865,,,,,,,2024-09-06,1,,,,,フォーシーズンズ,0
2023,8012401042265,新規,0,2024-09-06,2024-09-06,株式会社Ｄｒｕｕｕｍ,,株式会社,東京都,三鷹市,井口１丁目８番２５号メゾンシールス２０１,,13,204,1810011,,,,,,,2024-09-06,1,,,,,ドラム,0
2024,8012803003501,新規,0,2024-09-06,2024-09-06,バシレイア合同会社,,合同会社,東京都,日野市,大坂上４丁目２０番地の１０５,,13,212,1910061,,,,,,,2024-09-06,1,,,,,バシレイア,0
2025,8013103001369,新規,0,2024-09-06,2024-09-06,ＣＫ　ＩＮＴＥＲＮＡＴＩＯＮＡＬ合同会社,,合同会社,東京都,羽村市,羽東２丁目１５－２羽東店舗２階１号室,,13,227,2050014,,,,,,,2024-09-06,1,,,,,,0
2033,8020001159009,新規,0,2024-09-06,2024-09-06,株式会社中島企画,,株式会社,神奈川県,横浜市青葉区,美しが丘１丁目８番地１ドレッセＷＩＳＥたまプラーザＢ７１３,,14,117,2250002,,,,,,,2024-09-06,1,,,,,ナカジマキカク,0
2034,8020001159025,新規,0,2024-09-06,2024-09-06,株式会社ブロード,,株式会社,神奈川県,横浜市戸塚区,吉田町１２８２番地１パームココスＮＯ５,,14,110,2440817,,,,,,,2024-09-06,1,,,,,ブロード,0
2036,8020003026850,新規,0,2024-09-06,2024-09-06,合同会社三原製作所,,合同会社,神奈川県,横浜市旭区,白根２丁目３９番２５号,,14,112,2410005,,,,,,,2024-09-06,1,,,,,ミハラセイサクジョ,0
2040,8021001083181,新規,0,2024-09-06,2024-09-06,ＪＳコンサルタント株式会社,,株式会社,神奈川県,鎌倉市,手広１丁目１１番１６号,,14,204,2480036,,,,,,,2024-09-06,1,,,,,ジェーエスコンサルタント,0
2049,8030001162309,新規,0,2024-09-06,2024-09-06,株式会社繋,,株式会社,埼玉県,熊谷市,筑波１丁目１９４番,,11,202,3600037,,,,,,,2024-09-06,1,,,,,ツナグ,0
2050,8030001162317,新規,0,2024-09-06,2024-09-06,株式会社アオイロジスティクス,,株式会社,埼玉県,越谷市,大字野島３２０番地１,,11,222,3430801,,,,,,,2024-09-06,1,,,,,アオイロジスティクス,0
2051,8030001162325,新規,0,2024-09-06,2024-09-06,株式会社Ｍ．ＧＲＩＴ,,株式会社,埼玉県,川口市,柳崎５丁目１６番３号アークレント柳崎２Ｆ,,11,203,3330861,,,,,,,2024-09-06,1,,,,,エムドットグリット,0
2052,8030001162333,新規,0,2024-09-06,2024-09-06,株式会社ＴＯＯ,,株式会社,埼玉県,新座市,栄４丁目６番１９号,,11,230,3520014,,,,,,,2024-09-06,1,,,,,ティーオーオー,0
2055,8030003024993,新規,0,2024-09-06,2024-09-06,合同会社ＮｏｒｔｈＰａｔｈ,,合同会社,埼玉県,新座市,新座３丁目６番１３－５１０号,,11,230,3520006,,,,,,,2024-09-06,1,,,,,ノースパス,0
2064,8040001135057,新規,0,2024-09-06,2024-09-06,Ｍ’ｓアセットコンサル株式会社,,株式会社,千葉県,市川市,新井３丁目２０番２３号,,12,203,2720144,,,,,,,2024-09-06,1,,,,,エムズアセットコンサル,0
2065,8040001135197,新規,0,2024-09-06,2024-09-06,アジア環境衛生株式会社,,株式会社,千葉県,長生郡一宮町,一宮２７５２番地１,,12,421,2994301,,,,,,,2024-09-06,1,,,,,アジアカンキョウエイセイ,0
2066,8040001135263,新規,0,2024-09-06,2024-09-06,イトウ工業株式会社,,株式会社,千葉県,八千代市,保品２１８番地３,,12,221,2760013,,,,,,,2024-09-06,1,,,,,イトウコウギョウ,0
2067,8040001135288,新規,0,2024-09-06,2024-09-06,株式会社大桜,,株式会社,千葉県,市原市,うるいど南３丁目１６番地８,,12,219,2900170,,,,,,,2024-09-06,1,,,,,ダイオウ,0
2070,8040003025743,新規,0,2024-09-06,2024-09-06,合同会社日行,,合同会社,千葉県,市川市,妙典３丁目１番５号,,12,203,2720111,,,,,,,2024-09-06,1,,,,,ニチギョウ,0
2071,8050001055361,新規,0,2024-09-06,2024-09-06,株式会社ＫＡＴＡＮＡ　Ａｄｖｅｎｔｕｒｅ,,株式会社,茨城県,ひたちなか市,外野１丁目２３番２２号,,08,221,3120053,,,,,,,2024-09-06,1,,,,,カタナアドベンチャー,0
2076,8080401027429,新規,0,2024-09-06,2024-09-06,Ｒｅｂｉｒｔｈ　Ｌｉｎｋ株式会社,,株式会社,静岡県,浜松市中央区,十軒町５５１番地の２,,22,138,4350055,,,,,,,2024-09-06,1,,,,,リバースリンク,0
2083,8100001037809,新規,0,2024-09-06,2024-09-06,株式会社ＨＡＫＵＢＡ　ＢＲＩＤＥ,,株式会社,長野県,北安曇郡白馬村,大字神城２５５９２番地５,,20,485,3999211,,,,,,,2024-09-06,1,,,,,ハクバブライド,0
2084,8100001037833,新規,0,2024-09-06,2024-09-06,Ｎ・Ｆｏｒｃｅ株式会社,,株式会社,長野県,松本市,野溝西１丁目６番２９号のみぞビル２階,,20,202,3990006,,,,,,,2024-09-06,1,,,,,エヌフォース,0
2097,8120001268369,新規,0,2024-09-06,2024-09-06,住友健康株式会社,,株式会社,大阪府,大阪市浪速区,敷津西１丁目９番１７－１１０号,,27,111,5560015,,,,,,,2024-09-06,1,,,,,スミトモケンコウ,0
2098,8120001268377,新規,0,2024-09-06,2024-09-06,ＡＤＰ浩達株式会社,,株式会社,大阪府,大阪市浪速区,恵美須東２丁目６番１５－２０１号,,27,111,5560002,,,,,,,2024-09-06,1,,,,,エーディーピーコウタツ,0
2099,8120001268393,新規,0,2024-09-06,2024-09-06,株式会社ＳｎｏｗＳｐａｒｋ,,株式会社,大阪府,大阪市北区,梅田１丁目２番２号大阪駅前第２ビル１２－１２,,27,127,5300001,,,,,,,2024-09-06,1,,,,,スノースパーク,0
2102,8120003027401,新規,0,2024-09-06,2024-09-06,合同会社Ｌｉｔｏ,,合同会社,大阪府,寝屋川市,河北西町３０－２０,,27,215,5720817,,,,,,,2024-09-06,1,,,,,リト,0
2103,8120003027475,新規,0,2024-09-06,2024-09-06,合同会社大嘴,,合同会社,大阪府,大阪市天王寺区,生玉前町５番２８－９０３号,,27,109,5430072,,,,,,,2024-09-06,1,,,,,オーハシ,0
2105,8120901049728,新規,0,2024-09-06,2024-09-06,株式会社ＩＫＩＮＡ　ＧＲＯＵＰ,,株式会社,大阪府,豊中市,西緑丘３丁目１３番１号シンミ西緑丘ビルＢ１,,27,203,5600005,,,,,,,2024-09-06,1,,,,,イキナグループ,0
2106,8120901049736,新規,0,2024-09-06,2024-09-06,株式会社中惣,,株式会社,大阪府,豊中市,大島町２丁目１１番１５号,,27,203,5610824,,,,,,,2024-09-06,1,,,,,ナカソウ,0
2108,8120903005324,新規,0,2024-09-06,2024-09-06,合同会社ＴＡＭＭＹ　ＣＯＲＰＯＲＡＴＩＯＮ,,合同会社,大阪府,茨木市,東中条町１番５号西川ビル４０５号,,27,211,5670885,,,,,,,2024-09-06,1,,,,,タミーコーポレーション,0
2115,8130001077851,新規,0,2024-09-06,2024-09-06,トレスＦ＆Ｂ株式会社,,株式会社,京都府,京都市下京区,大宮通七条下る御器屋町６７番地,,26,106,6008267,,,,,,,2024-09-06,1,,,,,トレスエフアンドビー,0
2116,8130001077868,新規,0,2024-09-06,2024-09-06,＿然株式会社,00136213,株式会社,京都府,京都市中京区,蛸薬師通烏丸東入一蓮社町３００番地３階,,26,104,6048146,,,,,,,2024-09-06,1,,,,,ギョクゼン,0
2127,8140001135724,新規,0,2024-09-06,2024-09-06,株式会社七福神,,株式会社,兵庫県,尼崎市,潮江１丁目１５番２－４０３号,,28,202,6610976,,,,,,,2024-09-06,1,,,,,シチフクジン,0
2128,8140001135732,新規,0,2024-09-06,2024-09-06,株式会社テラダインテリア,,株式会社,兵庫県,丹波市,氷上町石生１１７４番地２,,28,223,6693464,,,,,,,2024-09-06,1,,,,,テラダインテリア,0
2132,8140003021055,新規,0,2024-09-06,2024-09-06,合同会社ＡＲＩＧＡＴＯ,,合同会社,兵庫県,尼崎市,稲葉荘２丁目２１番２２号３０２号,,28,202,6600064,,,,,,,2024-09-06,1,,,,,アリガト,0
2135,8150003003358,新規,0,2024-09-06,2024-09-06,合同会社丸山,,合同会社,奈良県,天理市,平等坊町２５３番地１２,,29,204,6320077,,,,,,,2024-09-06,1,,,,,マルヤマ,0
2139,8160001026203,新規,0,2024-09-06,2024-09-06,インノック・ジャパン株式会社,,株式会社,滋賀県,栗東市,小柿９丁目７番３５号１０１室,,25,208,5203024,,,,,,,2024-09-06,1,,,,,インノックジャパン,0
2148,8180001163119,新規,0,2024-09-06,2024-09-06,株式会社牧野工業,,株式会社,愛知県,あま市,七宝町沖之島五反田２４番地,,23,237,4970001,,,,,,,2024-09-06,1,,,,,マキノコウギョウ,0
2149,8180001163176,新規,0,2024-09-06,2024-09-06,ＡＳＢサポート＆コンサルタンツ株式会社,,株式会社,愛知県,名古屋市昭和区,阿由知通４丁目９－２サンハイツ喜多村２０１,,23,107,4660027,,,,,,,2024-09-06,1,,,,,エーエスビーサポートアンドコンサルタンツ,0
2150,8180001163192,新規,0,2024-09-06,2024-09-06,ＭＥＩＫＯＵ　ＮＡＧＯＹＡ株式会社,,株式会社,愛知県,一宮市,小信中島字新田前４２番地３,,23,203,4940007,,,,,,,2024-09-06,1,,,,,メイコウナゴヤ,0
2151,8180003027305,新規,0,2024-09-06,2024-09-06,合同会社ＥＤＶＳ,,合同会社,愛知県,一宮市,多加木１丁目６番３号,,23,203,4910837,,,,,,,2024-09-06,1,,,,,エドヴィス,0
2152,8180003027321,新規,0,2024-09-06,2024-09-06,エイタン・インターナショナル合同会社,,合同会社,愛知県,名古屋市中村区,椿町１３番１６号サン・オフィス名駅新幹線口６０７号,,23,105,4530015,,,,,,,2024-09-06,1,,,,,エイタンインターナショナル,0
2155,8180301039027,新規,0,2024-09-06,2024-09-06,株式会社近藤工業,,株式会社,愛知県,豊橋市,東岩田４丁目１番地１７メルヴェーユＶ２０２,,23,201,4400033,,,,,,,2024-09-06,1,,,,,コンドウコウギョウ,0
2156,8180303006256,新規,0,2024-09-06,2024-09-06,合同会社ロコマイカイ,,合同会社,愛知県,蒲郡市,大塚町丸山４４番地５,,23,214,4430013,,,,,,,2024-09-06,1,,,,,ロコマイカイ,0
2157,8190001031621,新規,0,2024-09-06,2024-09-06,株式会社Ｔｒｕｓｔ,,株式会社,三重県,多気郡大台町,佐原４８９－８,,24,443,5192404,,,,,,,2024-09-06,1,,,,,トラスト,0
2163,8200003006495,新規,0,2024-09-06,2024-09-06,合同会社夢・Ｄｒｅａｍ,,合同会社,岐阜県,本巣市,七五三１０２１番地,,21,218,5010418,,,,,,,2024-09-06,1,,,,,ユメドリーム,0
2164,8200005013663,新規,0,2024-09-06,2024-09-06,特定非営利活動法人ＬＥＴＵＳ,,その他の設立登記法人,岐阜県,瑞浪市,寺河戸町１１２４番地,,21,208,5096121,,,,,,,2024-09-06,1,,,,,レタス,0
2174,8240001063774,新規,0,2024-09-06,2024-09-06,株式会社ＫＭＧ,,株式会社,広島県,呉市,広多賀谷１丁目８番２１号,,34,202,7370134,,,,,,,2024-09-06,1,,,,,ケーエムジー,0
2175,8240003006839,新規,0,2024-09-06,2024-09-06,合同会社ＡＩ,,合同会社,広島県,広島市東区,尾長東３丁目１４番２７－１０１号,,34,102,7320046,,,,,,,2024-09-06,1,,,,,アイ,0
2178,8290001107080,新規,0,2024-09-06,2024-09-06,光和建設工業株式会社,,株式会社,福岡県,八女市,宅間田５９１番地３,,40,210,8340001,,,,,,,2024-09-06,1,,,,,コウワケンセツコウギョウ,0
2179,8290001107122,新規,0,2024-09-06,2024-09-06,エクステリアＫＡＴＳＵＫＩ株式会社,,株式会社,福岡県,糟屋郡志免町,田富３丁目１番２２号,,40,343,8112204,,,,,,,2024-09-06,1,,,,,エクステリアカツキ,0
2180,8290001107139,新規,0,2024-09-06,2024-09-06,株式会社森山工務店,,株式会社,福岡県,筑後市,大字前津１５７９番地３,,40,211,8330002,,,,,,,2024-09-06,1,,,,,モリヤマコウムテン,0
2182,8290801030853,新規,0,2024-09-06,2024-09-06,株式会社ＴＲＥＶＥ,,株式会社,福岡県,中間市,蓮花寺１丁目３番１号,00136214,40,215,8090014,,,,,,,2024-09-06,1,,,,,トレーヴ,0
2189,8350001019170,新規,0,2024-09-06,2024-09-06,あまるＦＡＲＭ．株式会社,,株式会社,宮崎県,北諸県郡三股町,大字宮村３００６番地１,,45,341,8891912,,,,,,,2024-09-06,1,,,,,アマルファーム,0
2190,8350003004740,新規,0,2024-09-06,2024-09-06,合同会社サンテク,,合同会社,宮崎県,延岡市,川島町３８５０番地１,,45,203,8820017,,,,,,,2024-09-06,1,,,,,サンテク,0
2193,8370005010834,新規,0,2024-09-06,2024-09-06,一般社団法人スポーツ・ラボ仙台,,その他の設立登記法人,宮城県,仙台市太白区,あすと長町１丁目４番１０号,,04,104,9820007,,,,,,,2024-09-06,1,,,,,スポーツラボセンダイ,0
2204,8380003005851,新規,0,2024-09-06,2024-09-06,合同会社Ｃｒｅｉｄ,,合同会社,福島県,本宮市,岩根字みずきが丘１番地６０,,07,214,9691106,,,,,,,2024-09-06,1,,,,,クリイド,0
2208,8420001018859,新規,0,2024-09-06,2024-09-06,バックドロップ株式会社,,株式会社,青森県,青森市,蛍沢４丁目６番２５号,,02,201,0300957,,,,,,,2024-09-06,1,,,,,バックドロップ,0
2209,8420003002984,新規,0,2024-09-06,2024-09-06,合同会社ＹＵＫ,,合同会社,青森県,弘前市,大字安原３丁目９番地１０,,02,202,0368162,,,,,,,2024-09-06,1,,,,,ワイユーケー,0
2214,8430001092564,新規,0,2024-09-06,2024-09-06,株式会社３６０ＪＡＰＡＮ,,株式会社,北海道,虻田郡ニセコ町,字曽我７５６番地７８,,01,395,0481522,,,,,,,2024-09-06,1,,,,,サンロクマルジャパン,0
2215,8430001092622,新規,0,2024-09-06,2024-09-06,日高国際株式会社,,株式会社,北海道,沙流郡日高町,栄町東１丁目３０５－１２号,,01,601,0552303,,,,,,,2024-09-06,1,,,,,ヒダカコクサイ,0
2216,8430001092639,新規,0,2024-09-06,2024-09-06,株式会社ｕｐ　ｒｏｏｔ　ｐｅａｋ,,株式会社,北海道,札幌市豊平区,豊平八条９丁目１番４７号,,01,105,0620908,,,,,,,2024-09-06,1,,,,,,0
2219,8440003001621,新規,0,2024-09-06,2024-09-06,合同会社ひかり,,合同会社,北海道,茅部郡森町,字新川町１０４番地１,,01,345,0492304,,,,,,,2024-09-06,1,,,,,ヒカリ,0
2220,8450001014401,新規,0,2024-09-06,2024-09-06,エーイージャパンランカ株式会社,,株式会社,北海道,空知郡上富良野町,本町１丁目６番１号,,01,460,0710551,,,,,,,2024-09-06,1,,,,,エーイージャパンランカ,0
2227,8700150127060,新規,0,2024-09-06,2024-09-06,ＡＵＣＴＵＳ　ＡＤＶＩＳＯＲＳ　ＰＲＩＶＡＴＥ　ＬＩＭＩＴＥＤ,,外国会社等,,,,,,,,２０４，ＡＮＫＵＲ　ＣＯ－ＯＰ．ＨＯＵＳＩＮＧ　ＳＯＣＩＥＴＹ　Ｋ．Ｇ．ＭＡＲＧ，ＰＲＡＢＨＡＤＥＶＩ，ＭＵＭＢＡＩ，Ｍａｈａｒａｓｈｔｒａ，Ｉｎｄｉａ，４０００２５,,,,,,2024-09-06,1,,,,,オークタスアドバイザーズプライベートリミテツド,0
2235,9010001247804,新規,0,2024-09-06,2024-09-06,株式会社縁,,株式会社,東京都,中央区,銀座４丁目１２－２０銀座アポロ昭和館３階,,13,102,1040061,,,,,,,2024-09-06,1,,,,,エン,0
2236,9010001248050,新規,0,2024-09-06,2024-09-06,Ｋｉｎｇ　Ｇｒｏｕｐ株式会社,,株式会社,東京都,千代田区,神田三崎町２丁目１０－１１（Ｐｅｇビル）６Ａ－４号室,,13,101,1010061,,,,,,,2024-09-06,1,,,,,キンググループ,0
2237,9010001248075,新規,0,2024-09-06,2024-09-06,株式会社インサイトシーク,,株式会社,東京都,中央区,銀座７丁目１５－１８銀ビル３Ｆ,,13,102,1040061,,,,,,,2024-09-06,1,,,,,インサイトシーク,0
2238,9010001248091,新規,0,2024-09-06,2024-09-06,株式会社Ｊ　Ｐｒｏｊｅｃｔ,,株式会社,東京都,中央区,晴海２丁目２番４２－３００６号パークタワー晴海,,13,102,1040053,,,,,,,2024-09-06,1,,,,,ジェイプロジェクト,0
2242,9010003044844,新規,0,2024-09-06,2024-09-06,ＳＴエナジー合同会社,,合同会社,東京都,中央区,日本橋１丁目４番１号,,13,102,1030027,,,,,,,2024-09-06,1,,,,,エスティーエナジー,0
2253,9010401184894,新規,0,2024-09-06,2024-09-06,ツナガルＡＩ株式会社,,株式会社,東京都,港区,麻布十番２丁目２０番７号,,13,103,1060045,,,,,,,2024-09-06,1,,,,,ツナガルエーアイ,0
2254,9010401184936,新規,0,2024-09-06,2024-09-06,株式会社ホワイトベース,,株式会社,東京都,港区,南青山３丁目１番３６号青山丸竹ビル６Ｆ,,13,103,1070062,,,,,,,2024-09-06,1,,,,,ホワイトベース,0
2255,9010401184977,新規,0,2024-09-06,2024-09-06,伊麻宮玉株式会社,,株式会社,東京都,港区,芝５丁目１９－７－３０８,,13,103,1080014,,,,,,,2024-09-06,1,,,,,イマクタマ,0
2256,9010403033356,新規,0,2024-09-06,2024-09-06,合同会社ＭＨＲＣ,,合同会社,東京都,港区,浜松町２丁目２番１５号浜松町ダイヤビル２Ｆ,,13,103,1050013,,,,,,,2024-09-06,1,,,,,エムエイチアールシー,0
2257,9010403033364,新規,0,2024-09-06,2024-09-06,合同会社Ｄｏｓ,,合同会社,東京都,港区,芝５丁目２番４号ラグジュアリーアパートメント三田慶大前６０１号,,13,103,1080014,,,,,,,2024-09-06,1,,,,,ドス,0
2258,9010403033372,新規,0,2024-09-06,2024-09-06,合同会社エピックベンチャーズ,,合同会社,東京都,港区,南青山３丁目１番３６号青山丸竹ビル６Ｆ,,13,103,1070062,,,,,,,2024-09-06,1,,,,,エピックベンチャーズ,0
2259,9010501052852,新規,0,2024-09-06,2024-09-06,株式会社シゲル,,株式会社,東京都,台東区,東上野４丁目１６番８号,,13,106,1100015,,,,,,,2024-09-06,1,,,,,シゲル,0
2263,9010701046489,新規,0,2024-09-06,2024-09-06,新平方株式会社,,株式会社,東京都,品川区,西五反田２丁目２２番６号アトラスタワー五反田２００１,,13,109,1410031,,,,,,,2024-09-06,1,,,,,シンヘイホウ,0
2264,9010703007332,新規,0,2024-09-06,2024-09-06,合同会社レンズレンズ,,合同会社,東京都,品川区,南大井２丁目１１番４－６０７号,,13,109,1400013,,,,,,,2024-09-06,1,,,,,レンズレンズ,0
2267,9010705003676,新規,0,2024-09-06,2024-09-06,医療法人社団七福寶会,,その他の設立登記法人,東京都,品川区,北品川２丁目８番６号七福ビル１階,,13,109,1400001,,,,,,,2024-09-06,1,,,,,シチフクタカラカイ,0
2269,9010801035375,新規,0,2024-09-06,2024-09-06,七禾株式会社,,株式会社,東京都,大田区,東海３丁目７番３号東海ビル,,13,111,1430001,,,,,,,2024-09-06,1,,,,,シチカ,0
2270,9010901055918,新規,0,2024-09-06,2024-09-06,株式会社ｄａｎ,,株式会社,東京都,世田谷区,玉川３丁目２０番２号,,13,112,1580094,,,,,,,2024-09-06,1,,,,,ダン,0
2281,9011001164147,新規,0,2024-09-06,2024-09-06,旅と街と音楽と株式会社,,株式会社,東京都,渋谷区,渋谷１丁目２０番２１号パセオ青山７０２号室,,13,113,1500002,,,,,,,2024-09-06,1,,,,,タビトマチトオンガクト,0
2282,9011001164337,新規,0,2024-09-06,2024-09-06,株式会社ＳＯＷ,,株式会社,東京都,目黒区,碑文谷５丁目２５番９－５０３メゾン柿の木坂,,13,110,1520003,,,,,,,2024-09-06,1,,,,,ソウ,0
2283,9011001164353,新規,0,2024-09-06,2024-09-06,株式会社ＳＡＭＵＲＡＩ,,株式会社,東京都,渋谷区,道玄坂１丁目１０番８号渋谷道玄坂東急ビル２Ｆ－Ｃ,,13,113,1500043,,,,,,,2024-09-06,1,,,,,サムライ,0
2284,9011001164477,新規,0,2024-09-06,2024-09-06,株式会社Ｍｅｔａｇｒａｍ,,株式会社,東京都,渋谷区,渋谷２丁目１９－１５宮益坂ビルディング６０９,,13,113,1500002,,,,,,,2024-09-06,1,,,,,メタグラム,0
2285,9011001164485,新規,0,2024-09-06,2024-09-06,株式会社リビングアーツ,,株式会社,東京都,目黒区,中目黒５丁目２番１１号,,13,110,1530061,,,,,,,2024-09-06,1,,,,,リビングアーツ,0
2286,9011001164510,新規,0,2024-09-06,2024-09-06,ファンドキー株式会社,,株式会社,東京都,渋谷区,神宮前６丁目２３番４号桑野ビル２階,,13,113,1500001,,,,,,,2024-09-06,1,,,,,ファンドキー,0
2291,9011101108656,新規,0,2024-09-06,2024-09-06,株式会社祐成,,株式会社,東京都,新宿区,市谷薬王寺町５番２２－６０６号,,13,104,1620063,,,,,,,2024-09-06,1,,,,,ユウセイ,0
2292,9011103014885,新規,0,2024-09-06,2024-09-06,合同会社ＯＭＥＧＡ,,合同会社,東京都,新宿区,新宿５丁目１８番１０－６０７号,,13,104,1600022,,,,,,,2024-09-06,1,,,,,オメガ,0
2293,9011103014902,新規,0,2024-09-06,2024-09-06,ＡＬＩＡ合同会社,,合同会社,東京都,新宿区,南榎町２３番地８,,13,104,1620852,,,,,,,2024-09-06,1,,,,,アリア,0
2294,9011103014910,新規,0,2024-09-06,2024-09-06,合同会社ｅｊｐ,,合同会社,東京都,新宿区,西新宿３丁目３番１３号西新宿水間ビル６階,,13,104,1600023,,,,,,,2024-09-06,1,,,,,イージェーピー,0
2296,9011203004480,新規,0,2024-09-06,2024-09-06,合同会社ｍｏｎｐｏｃｈｅ,,合同会社,東京都,中野区,野方２丁目４番２９号,,13,114,1650027,,,,,,,2024-09-06,1,,,,,モンポッシュ,0
2309,9011801044812,新規,0,2024-09-06,2024-09-06,株式会社ＥｎＭｅｄｉａ,,株式会社,東京都,葛飾区,新小岩１丁目５１－１７,,13,122,1240024,,,,,,,2024-09-06,1,,,,,エンメディア,0
2313,9012705002419,新規,0,2024-09-06,2024-09-06,医療法人社団万朶会,,その他の設立登記法人,東京都,小平市,花小金井２丁目９番６号２階,,13,211,1870002,,,,,,,2024-09-06,1,,,,,バンダカイ,0
2314,9012801023442,新規,0,2024-09-06,2024-09-06,株式会社Ｒｅｉ　Ｌａｂｏ,,株式会社,東京都,日野市,神明２丁目１４番地の１グリーンコープ日野３－３０８,,13,212,1910016,,,,,,,2024-09-06,1,,,,,レイラボ,0
2316,9013301053070,新規,0,2024-09-06,2024-09-06,ＯｐｔＱＣ株式会社,,株式会社,東京都,豊島区,南池袋１丁目１６－１５ダイヤゲート池袋４階・５階,,13,116,1710022,,,,,,,2024-09-06,1,,,,,オプトキューシー,0
2325,9020001158991,新規,0,2024-09-06,2024-09-06,株式会社山下住設,,株式会社,神奈川県,横浜市旭区,上川井町１７８番地４グレイスＩＩ１０３,00136227,14,112,2410802,,,,,,,2024-09-06,1,,,,,ヤマシタジュウセツ,0
2330,9020003026841,新規,0,2024-09-06,2024-09-06,ＡＳＳＯ合同会社,,合同会社,神奈川県,横浜市青葉区,市ケ尾町４２２番地１ヴェルデ市ケ尾Ｂ－１０１,,14,117,2250024,,,,,,,2024-09-06,1,,,,,アッソ,0
2341,9021003014984,新規,0,2024-09-06,2024-09-06,合同会社Ｋａｚｕ　ｏｎｅ,,合同会社,神奈川県,横須賀市,安浦町３丁目３１番地,,14,201,2380012,,,,,,,2024-09-06,1,,,,,カズワン,0
2343,9030001162299,新規,0,2024-09-06,2024-09-06,見沼土地家屋株式会社,,株式会社,埼玉県,さいたま市見沼区,大字蓮沼１０８５番地３０,,11,104,3370015,,,,,,,2024-09-06,1,,,,,ミヌマトチカオク,0
2344,9030001162308,新規,0,2024-09-06,2024-09-06,ナーシングケア・コンサルティング株式会社,,株式会社,埼玉県,さいたま市大宮区,桜木町１丁目３７８番地,,11,103,3300854,,,,,,,2024-09-06,1,,,,,ナーシングケアコンサルティング,0
2345,9030001162316,新規,0,2024-09-06,2024-09-06,株式会社アセアン人材サポート,,株式会社,埼玉県,さいたま市岩槻区,本町４丁目１０－８佐藤ビル３０１号室,,11,110,3390057,,,,,,,2024-09-06,1,,,,,アセアンジンザイサポート,0
2352,9030003025058,新規,0,2024-09-06,2024-09-06,ワイズカンパニー合同会社,,合同会社,埼玉県,さいたま市大宮区,桜木町２丁目大宮マルイ７階,,11,103,3300854,,,,,,,2024-09-06,1,,,,,ワイズカンパニー,0
2358,9040001135246,新規,0,2024-09-06,2024-09-06,ＯＤＣ株式会社,,株式会社,千葉県,松戸市,古ケ崎３丁目３３５１番地の１６,,12,207,2710068,,,,,,,2024-09-06,1,,,,,オーディーシー,0
2359,9040001135270,新規,0,2024-09-06,2024-09-06,株式会社アール土木,,株式会社,千葉県,東金市,極楽寺６１７番地６,,12,213,2830835,,,,,,,2024-09-06,1,,,,,アールドボク,0
2360,9040001135304,新規,0,2024-09-06,2024-09-06,株式会社Ｇｏｌｄ　Ｗｉｎｇｓ,,株式会社,千葉県,野田市,柏寺４７７－１,,12,208,2700214,,,,,,,2024-09-06,1,,,,,ゴールドウィング,0
2366,9040003025726,新規,0,2024-09-06,2024-09-06,合同会社ＭＩ　Ｉｎｖｅｎｔｉｏｎ,,合同会社,千葉県,流山市,大字東深井４５０－２７,,12,220,2700101,,,,,,,2024-09-06,1,,,,,エムアイインベンション,0
2375,9080401027428,新規,0,2024-09-06,2024-09-06,株式会社ＫＵＳＨＩＴＡＮＩ　ＢＲＯＴＨＥＲＳ,,株式会社,静岡県,浜松市中央区,三島町２３１番地,,22,138,4300853,,,,,,,2024-09-06,1,,,,,クシタニブラザース,0
2378,9090001018891,新規,0,2024-09-06,2024-09-06,吉祥株式会社,,株式会社,山梨県,南アルプス市,飯野３６５８番地２,,19,208,4000222,,,,,,,2024-09-06,1,,,,,キッショウ,0
2393,9120001268137,新規,0,2024-09-06,2024-09-06,友聯株式会社,,株式会社,大阪府,大阪市淀川区,瑞光四丁目２番２１号プレアール瑞光４０５,,27,123,5320000,,,,,,,2024-09-06,1,,,,,ユウレン,0
2398,9120101070203,新規,0,2024-09-06,2024-09-06,ｍａｍｍａ株式会社,,株式会社,大阪府,堺市堺区,戎島町２丁６２番１－１１０１号室,,27,141,5900985,,,,,,,2024-09-06,1,,,,,マンマ,0
2405,9130001077875,新規,0,2024-09-06,2024-09-06,株式会社ＫＥＹ　ＰＩＥＣＥ,,株式会社,京都府,京都市下京区,朱雀正会町１番地１ＫＹＯＣＡ２１０２,,26,106,6008841,,,,,,,2024-09-06,1,,,,,キーピース,0
2408,9130003009827,新規,0,2024-09-06,2024-09-06,合同会社Ｍ’ｓ花山,,合同会社,京都府,京都市山科区,上花山坂尻１０６番地花山シティホール３Ｆ,,26,110,6078465,,,,,,,2024-09-06,1,,,,,エムズカサン,0
2413,9140001135649,新規,0,2024-09-06,2024-09-06,なかの農場株式会社,,株式会社,兵庫県,丹波市,山南町北和田１０３３番地１,,28,223,6693152,,,,,,,2024-09-06,1,,,,,ナカノノウジョウ,0
2414,9140001135723,新規,0,2024-09-06,2024-09-06,株式会社アライブ,,株式会社,兵庫県,加東市,南山３丁目２番地１４,,28,228,6731341,,,,,,,2024-09-06,1,,,,,アライブ,0
2417,9140003021054,新規,0,2024-09-06,2024-09-06,ナビゲーションプラス合同会社,,合同会社,兵庫県,神戸市東灘区,御影山手４丁目１３番３９号,,28,101,6580065,,,,,,,2024-09-06,1,,,,,ナビゲーションプラス,0
2421,9160001026202,新規,0,2024-09-06,2024-09-06,株式会社Ｚｅｐｉａ,,株式会社,滋賀県,大津市,神領２丁目３２番４１号,,25,201,5202132,,,,,,,2024-09-06,1,,,,,ゼピア,0
2422,9160003003281,新規,0,2024-09-06,2024-09-06,合同会社デジタルケア,,合同会社,滋賀県,高島市,今津町今津２１０７－１１,,25,212,5201621,,,,,,,2024-09-06,1,,,,,デジタルケア,0
2428,9180001163118,新規,0,2024-09-06,2024-09-06,Ｒｅ　Ｌｉｆｅ　ｕｐ株式会社,,株式会社,愛知県,名古屋市西区,市場木町２５４番地１,,23,104,4520805,,,,,,,2024-09-06,1,,,,,リライフアップ,0
2429,9180001163142,新規,0,2024-09-06,2024-09-06,株式会社プルーナー,,株式会社,愛知県,名古屋市中川区,上高畑１丁目２９番地の１,,23,110,4540873,,,,,,,2024-09-06,1,,,,,プルーナー,0
2430,9180001163159,新規,0,2024-09-06,2024-09-06,サンワエステート株式会社,,株式会社,愛知県,名古屋市港区,丸池町２丁目１１番地２,,23,111,4550078,,,,,,,2024-09-06,1,,,,,サンワエステート,0
2431,9180001163191,新規,0,2024-09-06,2024-09-06,Ｂ．Ｉ．Ｎ　ＢＥＡＵＴＹ株式会社,,株式会社,愛知県,名古屋市中区,上前津１丁目１４番１１号サンコート上前津１００２号室,,23,106,4600013,,,,,,,2024-09-06,1,,,,,ビーアイエヌビューティー,0
2437,9180301039018,新規,0,2024-09-06,2024-09-06,株式会社ＴＵＲＮＳＯＬ,,株式会社,愛知県,豊田市,駒新町坂上２３１番地,,23,211,4730926,,,,,,,2024-09-06,1,,,,,ターンソル,0
2451,9240005015820,新規,0,2024-09-06,2024-09-06,医療法人ＲＳ,,その他の設立登記法人,広島県,広島市西区,観音本町１丁目１６番２１号,,34,104,7330033,,,,,,,2024-09-06,1,,,,,アールエス,0
2454,9250003003561,新規,0,2024-09-06,2024-09-06,合同会社東雲,,合同会社,山口県,玖珂郡和木町,和木２丁目７－２３－２,,35,321,7400061,,,,,,,2024-09-06,1,,,,,トウウン,0
2457,9260001039433,新規,0,2024-09-06,2024-09-06,株式会社ＹＭＧ,,株式会社,岡山県,岡山市南区,福富東２丁目２０番６号,,33,104,7028033,,,,,,,2024-09-06,1,,,,,ワイエムジー,0
2463,9290001107204,新規,0,2024-09-06,2024-09-06,株式会社ｊｉｎ‐ｎｅｅ,,株式会社,福岡県,筑紫野市,美しが丘北２丁目１番地１,,40,217,8180035,,,,,,,2024-09-06,1,,,,,ジンニー,0
2467,9290003015784,新規,0,2024-09-06,2024-09-06,合同会社環境計画,,合同会社,福岡県,久留米市,梅満町１６２４－１,,40,203,8300048,,,,,,,2024-09-06,1,,,,,カンキョウケイカク,0
2469,9290801030852,新規,0,2024-09-06,2024-09-06,株式会社Ｍｉｒａｒｃｈ,,株式会社,福岡県,北九州市小倉北区,堺町１丁目９番１０号４－Ｇ号,,40,106,8020005,,,,,,,2024-09-06,1,,,,,ミラーチ,0
2472,9310001019198,新規,0,2024-09-06,2024-09-06,株式会社アスラインシステム,,株式会社,長崎県,佐世保市,大野町６１番地１８,,42,202,8570131,,,,,,,2024-09-06,1,,,,,アスラインシステム,0
2486,9360001034143,新規,0,2024-09-06,2024-09-06,株式会社エッジ・ファクトリー,,株式会社,沖縄県,名護市,字我部祖河３２１番地,,47,209,9051155,,,,,,,2024-09-06,1,,,,,エッジファクトリー,0
2487,9360001034168,新規,0,2024-09-06,2024-09-06,株式会社ＣＵＢＥ,,株式会社,沖縄県,宜野湾市,大山７丁目１０番４１－４０７号プレサンスロジェ宜野湾大山ヴォール,,47,205,9012223,,,,,,,2024-09-06,1,,,,,キューブ,0
2489,9370001051699,新規,0,2024-09-06,2024-09-06,株式会社ラヴィスター,,株式会社,宮城県,仙台市青葉区,上杉４丁目２番３７号,,04,101,9800011,,,,,,,2024-09-06,1,,,,,ラヴィスター,0
2490,9370003006742,新規,0,2024-09-06,2024-09-06,令和０１合同会社,,合同会社,宮城県,仙台市青葉区,台原３丁目８番２２号台原ハイム１０２,,04,101,9810911,,,,,,,2024-09-06,1,,,,,レイワゼロワン,0
2493,9380001034769,新規,0,2024-09-06,2024-09-06,株式会社ロロクロス,,株式会社,福島県,いわき市,平字旧城跡１２－６８,,07,204,9708026,,,,,,,2024-09-06,1,,,,,ロロクロス,0
2494,9380001034777,新規,0,2024-09-06,2024-09-06,株式会社村田や,,株式会社,福島県,田村郡三春町,大字斎藤字場上田２４２番地の１,,07,521,9637723,,,,,,,2024-09-06,1,,,,,ムラタヤ,0
2495,9390001017731,新規,0,2024-09-06,2024-09-06,株式会社ＦＬＹ　ＨＩＧＨ,,株式会社,山形県,山形市,鈴川町２丁目１番１４号,,06,201,9900062,,,,,,,2024-09-06,1,,,,,フライハイ,0
2499,9420001018858,新規,0,2024-09-06,2024-09-06,株式会社ＢＯＯＳＴＡＲ,,株式会社,青森県,青森市,大字三内字稲元５８番地１０,,02,201,0380031,,,,,,,2024-09-06,1,,,,,ブースター,0
2508,9440001009491,新規,0,2024-09-06,2024-09-06,株式会社ドウナンセーフティー,,株式会社,北海道,函館市,東山町１１９番地１３４,,01,202,0410834,,,,,,,2024-09-06,1,,,,,ドウナンセーフティー,0
2509,9450001014400,新規,0,2024-09-06,2024-09-06,夢翔株式会社,,株式会社,北海道,旭川市,西神楽北一条２丁目２３０番地の９８,,01,204,0710173,,,,,,,2024-09-06,1,,,,,ムショウ,0
