sequenceNumber,corporateNumber,process,correct,updateDate,changeDate,name,nameImageId,kind,prefectureName,cityName,streetNumber,addressImageId,prefectureCode,cityCode,postCode,addressOutside,addressOutsideImageId,closeDate,closeCause,successorCorporateNumber,changeCause,assignmentDate,latest,enName,enPrefectureName,enCityName,enAddressOutside,furigana,hihyoji
8,1010001228349,新規,0,2022-07-28,2022-07-28,株式会社Ｈａｎａｖｉｅ,,株式会社,東京都,文京区,白山４丁目３７番２５号白山ヒルズ１０１,,13,105,1120001,,,,,,,2022-07-28,1,,,,,ハナビー,0
9,1010001228423,新規,0,2022-07-28,2022-07-28,奇跡株式会社,,株式会社,東京都,文京区,湯島１丁目１１番８号マンション岡６０４号室,,13,105,1130034,,,,,,,2022-07-28,1,,,,,キセキ,0
11,1010003038275,新規,0,2022-07-28,2022-07-28,合同会社スロージャパン,,合同会社,東京都,中央区,日本橋富沢町１０番１３号,,13,102,1030006,,,,,,,2022-07-28,1,,,,,スロージャパン,0
12,1010003038283,新規,0,2022-07-28,2022-07-28,Ｍｏｎｍｉ　Ｊａｐａｎ合同会社,,合同会社,東京都,千代田区,神田佐久間町３丁目３８第５東ビル５Ｆ,,13,101,1010025,,,,,,,2022-07-28,1,,,,,モンミジャパン,0
18,1010101015259,新規,0,2022-07-28,2022-07-28,株式会社ＧｒａｎｄＲｅｖｅ,,株式会社,東京都,八王子市,大塚５５－３アーバンキャッスル多摩センター３０１,,13,201,1920352,,,,,,,2022-07-28,1,,,,,グランレーヴ,0
19,1010101015267,新規,0,2022-07-28,2022-07-28,小谷野不動産株式会社,,株式会社,東京都,八王子市,千人町４丁目７番２８号,,13,201,1930835,,,,,,,2022-07-28,1,,,,,コヤノフドウサン,0
27,1010601061554,新規,0,2022-07-28,2022-07-28,株式会社８Ｍｉｌｅ,,株式会社,東京都,墨田区,向島５丁目４９番１１号,,13,107,1310033,,,,,,,2022-07-28,1,,,,,エイトマイル,0
28,1010601061562,新規,0,2022-07-28,2022-07-28,株式会社ＴＳＧＣ,,株式会社,東京都,江東区,扇橋１丁目３番５号,,13,108,1350011,,,,,,,2022-07-28,1,,,,,ティーエスジーシー,0
29,1010603009650,新規,0,2022-07-28,2022-07-28,合同会社ひびまる,,合同会社,東京都,江東区,東陽４丁目１２番２０－１３１４号,,13,108,1350016,,,,,,,2022-07-28,1,,,,,ヒビマル,0
33,1010703006333,新規,0,2022-07-28,2022-07-28,ケイマス合同会社,,合同会社,東京都,品川区,旗の台４丁目４番１９号,,13,109,1420064,,,,,,,2022-07-28,1,,,,,ケイマス,0
36,1010802009633,新規,0,2022-07-28,2022-07-28,有限会社テーエム化成工業所,,有限会社,東京都,大田区,南馬込６丁目３０番１号,,13,111,1430025,,,,,,,2022-07-28,1,,,,,テーエムカセイコウギョウショ,0
41,1010903007544,新規,0,2022-07-28,2022-07-28,シン・ライド６６合同会社,,合同会社,東京都,世田谷区,奥沢２丁目１２番２号原ビル３０１,,13,112,1580083,,,,,,,2022-07-28,1,,,,,シンライドロクジュウロク,0
47,1011001148867,新規,0,2022-07-28,2022-07-28,株式会社ＵＭＥ,,株式会社,東京都,渋谷区,大山町３８番２２号,,13,113,1510065,,,,,,,2022-07-28,1,,,,,ウメ,0
50,1011003015009,新規,0,2022-07-28,2022-07-28,ＳＨＡ合同会社,,合同会社,東京都,渋谷区,恵比寿南３丁目３番１１号,,13,113,1500022,,,,,,,2022-07-28,1,,,,,シャ,0
53,1011101099655,新規,0,2022-07-28,2022-07-28,株式会社マコトヤ,,株式会社,東京都,新宿区,歌舞伎町１丁目１番１５－８０３号,,13,104,1600021,,,,,,,2022-07-28,1,,,,,マコトヤ,0
54,1011101099663,新規,0,2022-07-28,2022-07-28,株式会社メンテナンスＮｏ．１,,株式会社,東京都,新宿区,弁天町８７番地クレセントマンション５０３,,13,104,1620851,,,,,,,2022-07-28,1,,,,,メンテナンスナンバーワン,0
58,1011503005236,新規,0,2022-07-28,2022-07-28,合同会社Ｗａｎｄｅｒｉｎｇ　Ｍｉｎｄｓ,,合同会社,東京都,北区,志茂２丁目２７－２リシェス赤羽１０１,,13,117,1150042,,,,,,,2022-07-28,1,,,,,ワンダリングマインズ,0
62,1011703003205,新規,0,2022-07-28,2022-07-28,合同会社ｉｎ　ｔｈｅ　ｇａｒａｇｅ,,合同会社,東京都,江戸川区,松江５丁目３番１２号ラパス船堀５０１,,13,123,1320025,,,,,,,2022-07-28,1,,,,,インザガレージ,0
64,1011801041073,新規,0,2022-07-28,2022-07-28,シンテックジ株式会社,,株式会社,東京都,葛飾区,新宿６丁目２番１－６１０号シティタワー金町レジデンス棟,,13,122,1250051,,,,,,,2022-07-28,1,,,,,シンテックジ,0
66,1011803005200,新規,0,2022-07-28,2022-07-28,合同会社ベル・エポック,,合同会社,東京都,足立区,東伊興３丁目１７－４Ｄｕｏｇｒａｎｄｅ竹ノ塚１０４号室,,13,121,1210801,,,,,,,2022-07-28,1,,,,,ベルエポック,0
75,1013301049407,新規,0,2022-07-28,2022-07-28,株式会社セラフィク,,株式会社,東京都,豊島区,南池袋３丁目１３－９－５０４,,13,116,1710022,,,,,,,2022-07-28,1,,,,,セラフィク,0
80,1020001147440,新規,0,2022-07-28,2022-07-28,株式会社笑輪,,株式会社,神奈川県,横浜市中区,日ノ出町１丁目９２番地,,14,104,2310066,,,,,,,2022-07-28,1,,,,,ミワ,0
81,1020001147465,新規,0,2022-07-28,2022-07-28,オーケービー株式会社,,株式会社,神奈川県,横浜市旭区,中希望が丘８５－３,,14,112,2410825,,,,,,,2022-07-28,1,,,,,オーケービー,0
85,1020003022146,新規,0,2022-07-28,2022-07-28,ＶＡＸＯＳＯＭＥ合同会社,,合同会社,神奈川県,横浜市磯子区,洋光台３丁目２９番１８号,,14,107,2350045,,,,,,,2022-07-28,1,,,,,バクソゾーム,0
86,1020003022170,新規,0,2022-07-28,2022-07-28,合同会社ミーターズ,,合同会社,神奈川県,横浜市港北区,新吉田東５丁目２８番１８号,,14,109,2230058,,,,,,,2022-07-28,1,,,,,ミーターズ,0
88,1021001076596,新規,0,2022-07-28,2022-07-28,株式会社無限,,株式会社,神奈川県,相模原市緑区,田名２２６９番地２１,,14,151,2520124,,,,,,,2022-07-28,1,,,,,ムゲン,0
89,1021001076605,新規,0,2022-07-28,2022-07-28,株式会社うずも,,株式会社,神奈川県,愛甲郡愛川町,半原２６５４番地の４,,14,401,2430307,,,,,,,2022-07-28,1,,,,,ウズモ,0
91,1021003011980,新規,0,2022-07-28,2022-07-28,合同会社クリーンハウス,,合同会社,神奈川県,相模原市緑区,下九沢２５００番地５,,14,151,2520134,,,,,,,2022-07-28,1,,,,,,0
96,1030003019868,新規,0,2022-07-28,2022-07-28,合同会社ブルーロータス,,合同会社,埼玉県,川口市,南前川２丁目２６番５号,,11,203,3330846,,,,,,,2022-07-28,1,,,,,ブルーロータス,0
99,1030005020948,新規,0,2022-07-28,2022-07-28,社会福祉法人きらり彩愛会,,その他の設立登記法人,埼玉県,幸手市,南１丁目３４３０番地１,,11,240,3400156,,,,,,,2022-07-28,1,,,,,キラリサイアイカイ,0
104,1040001124462,新規,0,2022-07-28,2022-07-28,ＳＡＳＩＮＤＵ　ＭＯＴＯＲ　ＩＮＴＥＲＮＡＴＩＯＮＡＬ株式会社,,株式会社,千葉県,富里市,根木名８６７,,12,233,2860205,,,,,,,2022-07-28,1,,,,,サシンドゥモーターインターナショナル,0
116,1070001039484,新規,0,2022-07-28,2022-07-28,株式会社天使,,株式会社,群馬県,邑楽郡大泉町,坂田５丁目１９番１５号,,10,524,3700532,,,,,,,2022-07-28,1,,,,,テンシ,0
128,1100001035554,新規,0,2022-07-28,2022-07-28,株式会社今溝鉄筋,00127353,株式会社,長野県,岡谷市,長地梨久保２丁目１２番４６号,,20,204,3940088,,,,,,,2022-07-28,1,,,,,イマミゾテッキン,0
143,1120001247676,新規,0,2022-07-28,2022-07-28,株式会社Ａ．Ｌ．Ｉ,,株式会社,大阪府,大阪市西成区,北津守４丁目７番１４号,,27,122,5570061,,,,,,,2022-07-28,1,,,,,エーエルアイ,0
144,1120001247701,新規,0,2022-07-28,2022-07-28,株式会社ＩＭＰ,,株式会社,大阪府,大阪市浪速区,木津川１丁目４番１０－１０７号,,27,111,5560027,,,,,,,2022-07-28,1,,,,,アイエムピー,0
145,1120001247734,新規,0,2022-07-28,2022-07-28,株式会社ＯＵＭＡ,,株式会社,大阪府,大阪市中央区,内久宝寺町４丁目１番７－３６０１号,,27,128,5400013,,,,,,,2022-07-28,1,,,,,オウマ,0
149,1120901046302,新規,0,2022-07-28,2022-07-28,株式会社ＭＯＤｓ,,株式会社,大阪府,吹田市,竹見台１丁目１番１０１－１２１０号,,27,205,5650863,,,,,,,2022-07-28,1,,,,,モッズ,0
162,1130005016523,新規,0,2022-07-28,2022-07-28,一般社団法人京都オーガニックアクション,,その他の設立登記法人,京都府,京都市中京区,河原町通御池下る下丸屋町３９０番地２ＱＵＥＳＴＩＯＮ内,,26,104,6048006,,,,,,,2022-07-28,1,,,,,キョウトオーガニックアクション,0
168,1140001126861,新規,0,2022-07-28,2022-07-28,株式会社岡田商店,,株式会社,兵庫県,豊岡市,今森２７５番７,,28,209,6680851,,,,,,,2022-07-28,1,,,,,オカダショウテン,0
169,1140001126903,新規,0,2022-07-28,2022-07-28,株式会社ドルフィン,,株式会社,兵庫県,西宮市,甲東園１丁目２番３６号マテリアル甲東園１０５号,,28,204,6620812,,,,,,,2022-07-28,1,,,,,ドルフィン,0
171,1160001024403,新規,0,2022-07-28,2022-07-28,株式会社元気,,株式会社,滋賀県,大津市,今堅田２丁目４０番２５号,,25,201,5200241,,,,,,,2022-07-28,1,,,,,ゲンキ,0
178,1180001152086,新規,0,2022-07-28,2022-07-28,株式会社ＳＵＰＥＲＮＯＶＡ　ＨＯＬＤＩＮＧＳ,,株式会社,愛知県,東海市,富貴ノ台６丁目１８５番地の２,,23,222,4760014,,,,,,,2022-07-28,1,,,,,スーパーノヴァホールディングス,0
179,1180001152342,新規,0,2022-07-28,2022-07-28,ＧＥＡＲＨＯＬＩＣ株式会社,,株式会社,愛知県,名古屋市中区,千代田５丁目１１番３３号ＳＴプラザ鶴舞本館４Ａ,,23,106,4600012,,,,,,,2022-07-28,1,,,,,ギアホリック,0
180,1180001152350,新規,0,2022-07-28,2022-07-28,ＬＩＮＫ　ＪＡＰＡＮ株式会社,,株式会社,愛知県,名古屋市港区,金城ふ頭１丁目１番地,,23,111,4550848,,,,,,,2022-07-28,1,,,,,リンクジャパン,0
181,1180001152359,新規,0,2022-07-28,2022-07-28,株式会社Ｔ・Ｆ,,株式会社,愛知県,名古屋市東区,白壁４丁目５１番地,,23,102,4610011,,,,,,,2022-07-28,1,,,,,ティーエフ,0
186,1180003024085,新規,0,2022-07-28,2022-07-28,オフィスＡＹ合同会社,,合同会社,愛知県,愛知郡東郷町,和合ケ丘２丁目２２番地２０,,23,302,4700154,,,,,,,2022-07-28,1,,,,,オフィスエイワイ,0
203,1290001098376,新規,0,2022-07-28,2022-07-28,株式会社ＦＩＶＥＳＴＡＲ,,株式会社,福岡県,福岡市東区,香椎３丁目４１番６６－Ｂ２０１号,,40,131,8130011,,,,,,,2022-07-28,1,,,,,ファイブスター,0
204,1290001098384,新規,0,2022-07-28,2022-07-28,植木林業株式会社,,株式会社,福岡県,柳川市,西浜武１００７番地,,40,207,8320081,,,,,,,2022-07-28,1,,,,,ウエキリンギョウ,0
206,1290801028755,新規,0,2022-07-28,2022-07-28,株式会社ＴＫライン,,株式会社,福岡県,直方市,大字上境字大木３７０番地の１,,40,204,8220006,,,,,,,2022-07-28,1,,,,,ティーケーライン,0
212,1330001029946,新規,0,2022-07-28,2022-07-28,株式会社ファンズ,,株式会社,熊本県,菊池市,泗水町吉富３００番地３７,,43,210,8611201,,,,,,,2022-07-28,1,,,,,ファンズ,0
218,1360001030736,新規,0,2022-07-28,2022-07-28,株式会社ＬＣＧ,,株式会社,沖縄県,那覇市,字小禄１８７番地,,47,201,9010152,,,,,,,2022-07-28,1,,,,,,0
220,1370001048835,新規,0,2022-07-28,2022-07-28,株式会社芭蕉の辻ホールディングス,,株式会社,宮城県,仙台市青葉区,八幡１丁目９番１４号,,04,101,9800871,,,,,,,2022-07-28,1,,,,,バショウノツジホールディングス,0
222,1370005010510,新規,0,2022-07-28,2022-07-28,一般社団法人アソビプラス,,その他の設立登記法人,宮城県,仙台市青葉区,台原２丁目７番８号,,04,101,9810911,,,,,,,2022-07-28,1,,,,,アソビプラス,0
232,1400001015955,新規,0,2022-07-28,2022-07-28,株式会社Ｔｒｕｍｐ　Ｉｗａｔｅ,,株式会社,岩手県,盛岡市,菜園２丁目１番９号ｇ－ｐｌｕｓビルＢ号,,03,201,0200024,,,,,,,2022-07-28,1,,,,,トランプイワテ,0
246,1480005006910,新規,0,2022-07-28,2022-07-28,一般社団法人子ども未来サポートもぐ,,その他の設立登記法人,徳島県,板野郡藍住町,矢上字西１０６番地８,,36,403,7711251,,,,,,,2022-07-28,1,,,,,,0
247,1490001010238,新規,0,2022-07-28,2022-07-28,株式会社ＧＥＮＩ　ＭＡＫＫＯＴＯ,,株式会社,高知県,高知市,南久万４８－７,,39,201,7800985,,,,,,,2022-07-28,1,,,,,,0
248,1700150110857,新規,0,2022-07-28,2022-07-11,あかしあ台小学校区まちづくり連絡協議会,,その他,兵庫県,三田市,あかしあ台１丁目５０－３,,28,219,6691323,,,,,,,2022-07-11,1,,,,,アカシアダイシヨウガツコウクマチヅクリレンラクキヨウギカイ,0
255,2010001228331,新規,0,2022-07-28,2022-07-28,株式会社レキシ,,株式会社,東京都,中央区,銀座１丁目２２番１１号,,13,102,1040061,,,,,,,2022-07-28,1,,,,,レキシ,0
256,2010001228348,新規,0,2022-07-28,2022-07-28,富士機械ＨＤ株式会社,,株式会社,東京都,千代田区,九段南１丁目５番６号りそな九段ビル５Ｆ,,13,101,1020074,,,,,,,2022-07-28,1,,,,,フジキカイホールディングス,0
257,2010001228356,新規,0,2022-07-28,2022-07-28,株式会社ブリリアントプラス,,株式会社,東京都,中央区,新川２丁目１５－７,,13,102,1040033,,,,,,,2022-07-28,1,,,,,ブリリアントプラス,0
258,2010001228364,新規,0,2022-07-28,2022-07-28,ＳＫＧ株式会社,,株式会社,東京都,中央区,銀座１丁目２２番１１号銀座大竹ビジデンス２階,,13,102,1040061,,,,,,,2022-07-28,1,,,,,エスケージー,0
259,2010001228389,新規,0,2022-07-28,2022-07-28,ＺＡＲＦ株式会社,,株式会社,東京都,千代田区,神田多町２丁目２番２２号千代田ビル４Ｆ,,13,101,1010046,,,,,,,2022-07-28,1,,,,,ザルフ,0
260,2010001228397,新規,0,2022-07-28,2022-07-28,小星商事株式会社,,株式会社,東京都,文京区,大塚５丁目７番１１－７１４号,,13,105,1120012,,,,,,,2022-07-28,1,,,,,コボシショウジ,0
266,2010101015266,新規,0,2022-07-28,2022-07-28,株式会社Ｓｍｉｌｅ　Ｖｉｌｌａｇｅ,,株式会社,東京都,八王子市,散田町３丁目８番１９号,,13,201,1930832,,,,,,,2022-07-28,1,,,,,スマイルビレッジ,0
280,2010401168730,新規,0,2022-07-28,2022-07-28,株式会社グランドセル,,株式会社,東京都,港区,浜松町２丁目２番１５号浜松町ダイヤハイツ２階,,13,103,1050013,,,,,,,2022-07-28,1,,,,,グランドセル,0
286,2010601061553,新規,0,2022-07-28,2022-07-28,株式会社Ｅ‐ｓｕｐｐｏｒｔ,,株式会社,東京都,江東区,青海２丁目７番４号ＴＨＥＳＯＨＯ１２１５,,13,108,1350064,,,,,,,2022-07-28,1,,,,,イーサポート,0
297,2011001148817,新規,0,2022-07-28,2022-07-28,株式会社ポノ,,株式会社,東京都,渋谷区,道玄坂２丁目１４番１７号１Ｆ,,13,113,1500043,,,,,,,2022-07-28,1,,,,,ポノ,0
298,2011001148866,新規,0,2022-07-28,2022-07-28,株式会社ＳＡＫＵＲＡ,,株式会社,東京都,渋谷区,大山町３８番２２号,,13,113,1510065,,,,,,,2022-07-28,1,,,,,サクラ,0
299,2011001148916,新規,0,2022-07-28,2022-07-28,オクノヤエンターテインメント株式会社,,株式会社,東京都,渋谷区,神宮前３丁目３１番２０号,,13,113,1500001,,,,,,,2022-07-28,1,,,,,オクノヤエンターテインメント,0
304,2011101099662,新規,0,2022-07-28,2022-07-28,エフ・ユーアセッツ株式会社,,株式会社,東京都,新宿区,新宿３丁目３５番１７号,,13,104,1600022,,,,,,,2022-07-28,1,,,,,エフユーアセッツ,0
305,2011101099670,新規,0,2022-07-28,2022-07-28,株式会社自任堂,,株式会社,東京都,新宿区,大久保１丁目１番９－６０１号,,13,104,1690072,,,,,,,2022-07-28,1,,,,,ジニンドウ,0
306,2011103011988,新規,0,2022-07-28,2022-07-28,合同会社北大塚,,合同会社,東京都,新宿区,若宮町１７番地,,13,104,1620827,,,,,,,2022-07-28,1,,,,,キタオオツカ,0
307,2011103012012,新規,0,2022-07-28,2022-07-28,チェリースマイル合同会社,,合同会社,東京都,新宿区,西新宿３丁目３番１３号西新宿水間ビル６階,,13,104,1600023,,,,,,,2022-07-28,1,,,,,,0
309,2011105010336,新規,0,2022-07-28,2022-07-28,一般社団法人在日本韓国人連合会,,その他の設立登記法人,東京都,新宿区,大久保２丁目１－８プラザ新大樹ビル本棟４０８,,13,104,1690072,,,,,,,2022-07-28,1,,,,,ザイニホンカンコクジンレンゴウカイ,0
317,2011203003885,新規,0,2022-07-28,2022-07-28,ディーセント・ライフ合同会社,,合同会社,東京都,中野区,中野３丁目３６番１２号,,13,114,1640001,,,,,,,2022-07-28,1,,,,,デイーセントライフ,0
326,2011801041072,新規,0,2022-07-28,2022-07-28,遠孚国際株式会社,,株式会社,東京都,足立区,西新井本町３丁目７－６ＬＰ大師前,,13,121,1230845,,,,,,,2022-07-28,1,,,,,エンフコクサイ,0
347,2020001147456,新規,0,2022-07-28,2022-07-28,伊藤屋株式会社,,株式会社,神奈川県,横浜市緑区,上山２丁目１８番５号,,14,113,2260012,,,,,,,2022-07-28,1,,,,,イトウヤ,0
352,2021001076595,新規,0,2022-07-28,2022-07-28,大将貿易株式会社,,株式会社,神奈川県,厚木市,鳶尾５丁目２５番６号,,14,212,2430204,,,,,,,2022-07-28,1,,,,,タイショウボウエキ,0
353,2021001076604,新規,0,2022-07-28,2022-07-28,株式会社Ｅｖｅｒｇｒｅｅｎ,,株式会社,神奈川県,茅ヶ崎市,ひばりが丘２番１号シェルボ茅ヶ崎１０５,,14,207,2530027,,,,,,,2022-07-28,1,,,,,エバーグリーン,0
354,2021001076612,新規,0,2022-07-28,2022-07-28,株式会社Ａｎｎｉｖｅｒｓａｒｙ　Ｐｌａｎｎｉｎｇ,,株式会社,神奈川県,小田原市,酒匂１丁目４番１号カドヤビル２階,,14,206,2560816,,,,,,,2022-07-28,1,,,,,アニバーサリープランニング,0
355,2021003011955,新規,0,2022-07-28,2022-07-28,ＷＥＥＫＥＮＤ　ＰＬＡＮＮＩＮＧ合同会社,,合同会社,神奈川県,逗子市,新宿４丁目４―２２,,14,208,2490007,,,,,,,2022-07-28,1,,,,,ウィークエンドプランニング,0
370,2030001149328,新規,0,2022-07-28,2022-07-28,通利貿易株式会社,,株式会社,埼玉県,川口市,西川口１丁目３０番２０号Ｔ・Ｂ・Ｓ企画ビル４０８,,11,203,3320021,,,,,,,2022-07-28,1,,,,,ツウリボウエキ,0
378,2040001124412,新規,0,2022-07-28,2022-07-28,株式会社ＦＦコンサルティング,,株式会社,千葉県,市川市,中山１丁目２番８号,,12,203,2720813,,,,,,,2022-07-28,1,,,,,エフエフコンサルティング,0
391,2070001039483,新規,0,2022-07-28,2022-07-28,株式会社コバヤシ,,株式会社,群馬県,沼田市,下沼田町２１番地２２,,10,206,3780063,,,,,,,2022-07-28,1,,,,,コバヤシ,0
408,2120003022168,新規,0,2022-07-28,2022-07-28,合同会社ＡＨＢ　Ｐｒｏｄｕｃｔｉｏｎ,,合同会社,大阪府,大阪市港区,弁天４丁目１２番６－１０１号,,27,107,5520007,,,,,,,2022-07-28,1,,,,,エーエイチビープロダクション,0
411,2120101065969,新規,0,2022-07-28,2022-07-28,奕海ジャパン株式会社,,株式会社,大阪府,泉大津市,穴田７６－１１ユウパレス穴田４Ｄ号室,,27,206,5950032,,,,,,,2022-07-28,1,,,,,エキカイジャパン,0
415,2120901046292,新規,0,2022-07-28,2022-07-28,ＡＴＩＧＩＸ株式会社,,株式会社,大阪府,吹田市,豊津町１番１８号エクラート江坂ビル３Ｆ,,27,205,5640051,,,,,,,2022-07-28,1,,,,,アティジックス,0
419,2130001072288,新規,0,2022-07-28,2022-07-28,関白株式会社,,株式会社,京都府,京都市東山区,泉涌寺東林町３番地,,26,105,6050976,,,,,,,2022-07-28,1,,,,,カンパク,0
420,2130003008083,新規,0,2022-07-28,2022-07-28,合同会社タイトライト,,合同会社,京都府,京都市伏見区,深草西伊達町８７－９２,,26,109,6120876,,,,,,,2022-07-28,1,,,,,タイトライト,0
422,2130005016539,新規,0,2022-07-28,2022-07-28,一般社団法人ＣＥＮＯＴＥ,,その他の設立登記法人,京都府,京都市中京区,東洞院竹屋町下る三本木五丁目４７０番地竹屋町法曹ビル５０１号,,26,104,6040000,,,,,,,2022-07-28,1,,,,,セノーテ,0
424,2140001126902,新規,0,2022-07-28,2022-07-28,株式会社ｆｉｎｇｅｒｔｉｐ’ｓ　ｗｏｒｌｄ　ｃｏｒｐｏｒａｔｉｏｎ,,株式会社,兵庫県,西宮市,甲子園洲鳥町３－２７－５０３号,,28,204,6638151,,,,,,,2022-07-28,1,,,,,フィンガーティップスワールドコーポレーション,0
427,2140003017959,新規,0,2022-07-28,2022-07-28,合同会社５フォワード,,合同会社,兵庫県,伊丹市,伊丹４丁目５番３０－７０５号,,28,207,6640846,,,,,,,2022-07-28,1,,,,,ファイブフォワード,0
433,2170001017207,新規,0,2022-07-28,2022-07-28,Ａｃｅ株式会社,,株式会社,和歌山県,岩出市,山田５０番地の８,,30,209,6496217,,,,,,,2022-07-28,1,,,,,エース,0
434,2170005006965,新規,0,2022-07-28,2022-07-28,一般社団法人ＩＲＤｓ,,その他の設立登記法人,和歌山県,西牟婁郡白浜町,堅田２４３４番地の１,,30,401,6492201,,,,,,,2022-07-28,1,,,,,アイアールディーズ,0
437,2180003024084,新規,0,2022-07-28,2022-07-28,合同会社ＭＩＲＡＩＳＭ,,合同会社,愛知県,名古屋市名東区,梅森坂西２丁目６３７番地,,23,115,4650066,,,,,,,2022-07-28,1,,,,,ミライズム,0
449,2220003003331,新規,0,2022-07-28,2022-07-28,合同会社金明竹,,合同会社,石川県,河北郡内灘町,白帆台２丁目１０５番地,,17,365,9200269,,,,,,,2022-07-28,1,,,,,キンメイチク,0
462,2290001098375,新規,0,2022-07-28,2022-07-28,株式会社龍園西中洲,,株式会社,福岡県,福岡市中央区,西中洲４－３ＡＴＥ西中洲１Ｆ,,40,133,8100002,,,,,,,2022-07-28,1,,,,,リュウエンニシナカス,0
464,2290801028754,新規,0,2022-07-28,2022-07-28,株式会社プロフェッショナル・ナイン,,株式会社,福岡県,北九州市戸畑区,菅原３丁目２番８号,,40,105,8040044,,,,,,,2022-07-28,1,,,,,プロフェッショナルナイン,0
465,2290801028762,新規,0,2022-07-28,2022-07-28,株式会社孫のて,,株式会社,福岡県,行橋市,東泉４丁目２５番地,,40,213,8240035,,,,,,,2022-07-28,1,,,,,マゴノテ,0
470,2330005010538,新規,0,2022-07-28,2022-07-28,ＮＰＯ法人ＫＯＫＯＫＡＲＡ,,その他の設立登記法人,熊本県,菊池市,野間口５２４番地２３,,43,210,8611324,,,,,,,2022-07-28,1,,,,,ココカラ,0
471,2350001017873,新規,0,2022-07-28,2022-07-28,株式会社原田畜産,,株式会社,宮崎県,西諸県郡高原町,大字広原６０８５番地１２７,,45,361,8894411,,,,,,,2022-07-28,1,,,,,ハラダチクサン,0
476,2370001048850,新規,0,2022-07-28,2022-07-28,株式会社ＧＬＡＮＺ,,株式会社,宮城県,白石市,白鳥２丁目１７番２号,,04,206,9890734,,,,,,,2022-07-28,1,,,,,グランツ,0
477,2370001048859,新規,0,2022-07-28,2022-07-28,株式会社東日本プラントサービス,,株式会社,宮城県,岩沼市,長岡字北原山２２番地の１０,,04,211,9892461,,,,,,,2022-07-28,1,,,,,ヒガシニホンプラントサービス,0
484,2380001033018,新規,0,2022-07-28,2022-07-28,株式会社阿部ホールディングス,,株式会社,福島県,南相馬市,原町区国見町３丁目６０番地の７,,07,212,9750015,,,,,,,2022-07-28,1,,,,,アベホールディングス,0
492,2420003002552,新規,0,2022-07-28,2022-07-28,合同会社トイヘアー,,合同会社,青森県,青森市,大字奥内字川合３４番地,,02,201,0380054,,,,,,,2022-07-28,1,,,,,トイヘアー,0
504,2500003002866,新規,0,2022-07-28,2022-07-28,合同会社ＤＥＣＯＴＯＭ,,合同会社,愛媛県,松山市,三番町７丁目３－２０メゾン宮内１Ｆ,,38,201,7900003,,,,,,,2022-07-28,1,,,,,,0
517,3010001228248,新規,0,2022-07-28,2022-07-28,ｅｍｂｒｉｉ株式会社,,株式会社,東京都,千代田区,神田須田町１丁目２６－６オーキッドプレイス７０１,,13,101,1010041,,,,,,,2022-07-28,1,,,,,エンブリィ,0
518,3010001228322,新規,0,2022-07-28,2022-07-28,株式会社ＦＭＺ,,株式会社,東京都,中央区,晴海５丁目１番１７－１９０３号,,13,102,1040053,,,,,,,2022-07-28,1,,,,,エフエムズイー,0
519,3010001228396,新規,0,2022-07-28,2022-07-28,東亜コーポレーション株式会社,,株式会社,東京都,千代田区,大手町１丁目９番２号フィナンシャルシティグランキューブ１８階,,13,101,1000004,,,,,,,2022-07-28,1,,,,,トウアコーポレーション,0
525,3010003038249,新規,0,2022-07-28,2022-07-28,合同会社雷鳥,,合同会社,東京都,中央区,銀座１丁目２２番１１号銀座大竹ビジデンス,,13,102,1040061,,,,,,,2022-07-28,1,,,,,ライチョウ,0
526,3010003038273,新規,0,2022-07-28,2022-07-28,合同会社Ｇｒｏｗｔｈプラス,,合同会社,東京都,中央区,新川１丁目３番２１号ＢＩＺＳＭＡＲＴ茅場町４階,,13,102,1040033,,,,,,,2022-07-28,1,,,,,グロースプラス,0
527,3010005035293,新規,0,2022-07-28,2022-07-28,一般社団法人いそがばまわれ,,その他の設立登記法人,東京都,文京区,水道２丁目１７番１０－７Ｆ,,13,105,1120005,,,,,,,2022-07-28,1,,,,,イソガバマワレ,0
528,3010005035310,新規,0,2022-07-28,2022-07-28,一般社団法人伊東管財,,その他の設立登記法人,東京都,千代田区,二番町１番地２・番町ハイム９０４号室,,13,101,1020084,,,,,,,2022-07-28,1,,,,,イトウカンザイ,0
544,3010403028139,新規,0,2022-07-28,2022-07-28,合同会社イノヴェス,,合同会社,東京都,港区,六本木３丁目７番１－２９０９号,,13,103,1060032,,,,,,,2022-07-28,1,,,,,イノヴェス,0
553,3010801033153,新規,0,2022-07-28,2022-07-28,株式会社ＬＡホールディングス,,株式会社,東京都,大田区,西蒲田７丁目２９番５号ニューカマタビル５０２号,,13,111,1440051,,,,,,,2022-07-28,1,,,,,エルエイホールディングス,0
555,3010803004227,新規,0,2022-07-28,2022-07-28,合同会社ピースフルワールドデザイン,,合同会社,東京都,大田区,東雪谷５丁目２４番１３号,,13,111,1450065,,,,,,,2022-07-28,1,,,,,ピースフルワールドデザイン,0
569,3011005009667,新規,0,2022-07-28,2022-07-28,弁護士法人みやび坂総合法律事務所,,その他の設立登記法人,東京都,渋谷区,千駄ヶ谷５丁目２７－５リンクスクエア新宿１６階,,13,113,1510051,,,,,,,2022-07-28,1,,,,,,0
571,3011101099645,新規,0,2022-07-28,2022-07-28,株式会社パラプリュイ,,株式会社,東京都,新宿区,西新宿３丁目３番１３号西新宿水間ビル６階,,13,104,1600023,,,,,,,2022-07-28,1,,,,,パラプリュイ,0
572,3011101099678,新規,0,2022-07-28,2022-07-28,株式会社シュピール,,株式会社,東京都,新宿区,高田馬場２丁目１４番８号竹内ビルＢ１,,13,104,1690075,,,,,,,2022-07-28,1,,,,,シュピール,0
597,3020001147430,新規,0,2022-07-28,2022-07-28,株式会社フェリガ,,株式会社,神奈川県,横浜市青葉区,市ケ尾町１０７１番地２１,,14,117,2250024,,,,,,,2022-07-28,1,,,,,フェリガ,0
602,3021001076603,新規,0,2022-07-28,2022-07-28,株式会社コスモス工業,,株式会社,神奈川県,茅ヶ崎市,香川１丁目６番２４－３号,,14,207,2530082,,,,,,,2022-07-28,1,,,,,コスモスコウギョウ,0
608,3021003011970,新規,0,2022-07-28,2022-07-28,合同会社ニューライフ,,合同会社,神奈川県,小田原市,田島１４５－７カーサヴェルデ１０１,,14,206,2560811,,,,,,,2022-07-28,1,,,,,ニューライフ,0
616,3030001149327,新規,0,2022-07-28,2022-07-28,勇泰貿易株式会社,,株式会社,埼玉県,川口市,並木３丁目１３番４号ダイトービル弐番館７１２,,11,203,3320034,,,,,,,2022-07-28,1,,,,,ユウタイボウエキ,0
617,3030003019791,新規,0,2022-07-28,2022-07-28,合同会社トイアイデア,,合同会社,埼玉県,北本市,中丸６丁目６６番地６,,11,233,3640013,,,,,,,2022-07-28,1,,,,,トイアイデア,0
625,3050001051464,新規,0,2022-07-28,2022-07-28,株式会社Ｐｒｏｓｓｉｍｏ,,株式会社,茨城県,稲敷市,江戸崎甲２８５２番地,,08,229,3000504,,,,,,,2022-07-28,1,,,,,プロッシモ,0
635,3070003004575,新規,0,2022-07-28,2022-07-28,Ｒ・ＪＰ・Ｉｎｔｅｒｎａｔｉｏｎａｌ合同会社,,合同会社,群馬県,富岡市,下高瀬２３５番地９,,10,210,3702332,,,,,,,2022-07-28,1,,,,,アールジェイピーインターナショナル,0
637,3080003002842,新規,0,2022-07-28,2022-07-28,合同会社ヤマモッチ,,合同会社,静岡県,静岡市葵区,上足洗１丁目４番３７号,,22,101,4200841,,,,,,,2022-07-28,1,,,,,ヤマモッチ,0
638,3080401025973,新規,0,2022-07-28,2022-07-28,株式会社アマクラス,,株式会社,静岡県,周智郡森町,飯田２８５番地１,,22,461,4370222,,,,,,,2022-07-28,1,,,,,アマクラス,0
650,3120001247674,新規,0,2022-07-28,2022-07-28,メイト株式会社,,株式会社,大阪府,大阪市此花区,四貫島１丁目２番２－３０５号,,27,104,5540014,,,,,,,2022-07-28,1,,,,,メイト,0
651,3120001247690,新規,0,2022-07-28,2022-07-28,株式会社九林,,株式会社,大阪府,大阪市港区,市岡元町２丁目６番１１－１０３号,,27,107,5520002,,,,,,,2022-07-28,1,,,,,キュウリン,0
652,3120001247708,新規,0,2022-07-28,2022-07-28,株式会社二吉,,株式会社,大阪府,大阪市都島区,都島北通２丁目１０番２１号,,27,102,5340014,,,,,,,2022-07-28,1,,,,,ニヨシ,0
653,3120001247740,新規,0,2022-07-28,2022-07-28,株式会社Ｍ３６９,,株式会社,大阪府,大阪市北区,中崎３丁目３番２号,,27,127,5300016,,,,,,,2022-07-28,1,,,,,エムサンロクキュウ,0
655,3120003022142,新規,0,2022-07-28,2022-07-28,合同会社メルティーポット,,合同会社,大阪府,大阪市西成区,松３丁目８番３０号,,27,122,5570034,,,,,,,2022-07-28,1,,,,,メルティーポット,0
656,3120005023114,新規,0,2022-07-28,2022-07-28,医療法人坂田会,,その他の設立登記法人,大阪府,枚方市,津田西町１丁目２４番８号,,27,210,5730126,,,,,,,2022-07-28,1,,,,,サカタカイ,0
661,3122005003632,新規,0,2022-07-28,2022-07-28,医療法人三つ葉会,,その他の設立登記法人,大阪府,大東市,氷野３丁目２番１０号,,27,218,5740062,,,,,,,2022-07-28,1,,,,,ミツバカイ,0
669,3130001072279,新規,0,2022-07-28,2022-07-28,株式会社旭建設,,株式会社,京都府,京都市伏見区,醍醐構口町２８番地１ルネス・ピース醍醐３１４号,,26,109,6011354,,,,,,,2022-07-28,1,,,,,アサヒケンセツ,0
676,3140001126868,新規,0,2022-07-28,2022-07-28,株式会社保育士紹介サービス,,株式会社,兵庫県,尼崎市,塚口町１丁目１３番７号,,28,202,6610002,,,,,,,2022-07-28,1,,,,,ホイクシショウカイサービス,0
677,3140001126892,新規,0,2022-07-28,2022-07-28,フリーフロー株式会社,,株式会社,兵庫県,芦屋市,奥山１２番地５０４号,,28,206,6590002,,,,,,,2022-07-28,1,,,,,フリーフロー,0
700,3180001152340,新規,0,2022-07-28,2022-07-28,肉球アカデミー株式会社,,株式会社,愛知県,名古屋市中区,大須４丁目１１番５号Ｚ’ｓビル８Ｆ,,23,106,4600011,,,,,,,2022-07-28,1,,,,,ニクキュウアカデミー,0
709,3220003003330,新規,0,2022-07-28,2022-07-28,合同会社興栄,,合同会社,石川県,金沢市,粟崎町ほ８番地サンパレスベイＩＩＩ１１１,00127343,17,201,9200226,,,,,,,2022-07-28,1,,,,,キョウエイ,0
715,3250003003121,新規,0,2022-07-28,2022-07-28,大南ジャパン合同会社,,合同会社,山口県,下関市,東大和町１丁目４番３８－６０１号富士ビル,,35,201,7500066,,,,,,,2022-07-28,1,,,,,オオナミジャパン,0
717,3260001037087,新規,0,2022-07-28,2022-07-28,株式会社なないろ,,株式会社,岡山県,岡山市南区,浦安南町１３９－３,,33,104,7028024,,,,,,,2022-07-28,1,,,,,ナナイロ,0
728,3290001098374,新規,0,2022-07-28,2022-07-28,西村鈑金株式会社,,株式会社,福岡県,春日市,昇町７丁目９６番地,,40,218,8160851,,,,,,,2022-07-28,1,,,,,ニシムラバンキン,0
729,3290001098382,新規,0,2022-07-28,2022-07-28,株式会社グローイング,,株式会社,福岡県,福岡市中央区,天神１丁目１５番３２号,,40,133,8100001,,,,,,,2022-07-28,1,,,,,グローイング,0
732,3290003012779,新規,0,2022-07-28,2022-07-28,合同会社エスポワール,,合同会社,福岡県,福津市,中央６丁目２０－１３－４０８,,40,224,8113217,,,,,,,2022-07-28,1,,,,,エスポワール,0
735,3290801028761,新規,0,2022-07-28,2022-07-28,株式会社ＳＴＫ,,株式会社,福岡県,北九州市戸畑区,千防３丁目５番１０号,,40,105,8040081,,,,,,,2022-07-28,1,,,,,エスティーケー,0
740,3300003001870,新規,0,2022-07-28,2022-07-28,合同会社アムセ,,合同会社,佐賀県,佐賀市,高木瀬東２丁目２番３７号,,41,201,8490922,,,,,,,2022-07-28,1,,,,,アムセ,0
744,3340003003871,新規,0,2022-07-28,2022-07-28,合同会社ぐ・らんちぇ,,合同会社,鹿児島県,日置市,東市来町長里６４番地１１,,46,216,8992202,,,,,,,2022-07-28,1,,,,,グランチェ,0
758,3380003005237,新規,0,2022-07-28,2022-07-28,ピコルア合同会社,,合同会社,福島県,会津若松市,天寧寺町７－３８,,07,202,9650805,,,,,,,2022-07-28,1,,,,,,0
770,3700150110632,新規,0,2022-07-28,2022-06-30,やまがたＡＩ部運営コンソーシアム,,その他,山形県,山形市,元木１丁目１３番２５号,,06,201,9902447,,,,,,,2022-06-30,1,,,,,ヤマガタエーアイブウンエイコンソーシアム,0
777,4010001228305,新規,0,2022-07-28,2022-07-28,フラワー不動産株式会社,,株式会社,東京都,中央区,月島３丁目９番９号,,13,102,1040052,,,,,,,2022-07-28,1,,,,,フラワーフドウサン,0
778,4010001228346,新規,0,2022-07-28,2022-07-28,インラボテックジャパン株式会社,,株式会社,東京都,文京区,湯島４丁目６番１１号湯島ハイタウンＡ２０５,,13,105,1130034,,,,,,,2022-07-28,1,,,,,インラボテックジャパン,0
779,4010001228370,新規,0,2022-07-28,2022-07-28,株式会社トラストルーペ,,株式会社,東京都,中央区,日本橋兜町１７－２第６葉山ビル４階,,13,102,1030026,,,,,,,2022-07-28,1,,,,,トラストルーペ,0
780,4010001228404,新規,0,2022-07-28,2022-07-28,トラスト株式会社,,株式会社,東京都,中央区,銀座１丁目２７番８号セントラルビル７０３号,,13,102,1040061,,,,,,,2022-07-28,1,,,,,トラスト,0
781,4010001228412,新規,0,2022-07-28,2022-07-28,株式会社サーチイレブン,,株式会社,東京都,中央区,月島４丁目２番１７－３０８号,,13,102,1040052,,,,,,,2022-07-28,1,,,,,サーチイレブン,0
783,4010003038256,新規,0,2022-07-28,2022-07-28,合同会社ＢＣＰ,,合同会社,東京都,中央区,銀座１丁目２２－１１銀座大竹ビジデンス２Ｆ,,13,102,1040061,,,,,,,2022-07-28,1,,,,,ビーシーピー,0
784,4010003038264,新規,0,2022-07-28,2022-07-28,合同会社リナンドミナ,,合同会社,東京都,中央区,銀座１丁目２２番１１号,,13,102,1040061,,,,,,,2022-07-28,1,,,,,リナンドミナ,0
785,4010003038272,新規,0,2022-07-28,2022-07-28,合同会社ＰＲＩＳＭ,,合同会社,東京都,文京区,小日向４丁目２番１３－８０４号,,13,105,1120006,,,,,,,2022-07-28,1,,,,,プリズム,0
789,4010005035268,新規,0,2022-07-28,2022-07-28,一般社団法人シニアと家族のみらいサポート,,その他の設立登記法人,東京都,文京区,本郷３丁目２４番１号伊藤ビル２Ｆ,,13,105,1130033,,,,,,,2022-07-28,1,,,,,シニアトカゾクノミライサポート,0
797,4010401168737,新規,0,2022-07-28,2022-07-28,株式会社ＭＹスイッチ,,株式会社,東京都,港区,浜松町２丁目２番１５号,,13,103,1050013,,,,,,,2022-07-28,1,,,,,エムワイスイッチ,0
799,4010403028138,新規,0,2022-07-28,2022-07-28,ＰＯＤカルチャー合同会社,,合同会社,東京都,港区,六本木１丁目４番５号アークヒルズサウスタワー１６階,,13,103,1060032,,,,,,,2022-07-28,1,,,,,ピーオーディーカルチャー,0
802,4010601061485,新規,0,2022-07-28,2022-07-28,Ｇｉｖｅ　Ｃｏｎｆｉｄｅｎｃｅ株式会社,,株式会社,東京都,墨田区,文花１丁目１８番１３号,,13,107,1310044,,,,,,,2022-07-28,1,,,,,ギブコンフィデンス,0
806,4010801033152,新規,0,2022-07-28,2022-07-28,フォーカスメディアジャパン株式会社,,株式会社,東京都,大田区,西蒲田２丁目４番２０号,,13,111,1440051,,,,,,,2022-07-28,1,,,,,フォーカスメディアジャパン,0
814,4010901051310,新規,0,2022-07-28,2022-07-28,株式会社オフィス菊地,,株式会社,東京都,世田谷区,弦巻３丁目２２－２１－６０４,,13,112,1540016,,,,,,,2022-07-28,1,,,,,オフィスキクチ,0
815,4010905004347,新規,0,2022-07-28,2022-07-28,一般社団法人データセンター・ＤＸ不動産事業支援機構,,その他の設立登記法人,東京都,世田谷区,若林３丁目２５番７号,,13,112,1540023,,,,,,,2022-07-28,1,,,,,データセンターディーエックスフドウサンジギョウシエンキコウ,0
820,4011001148864,新規,0,2022-07-28,2022-07-28,株式会社ＳＣＵＤＥＴＴＯ,,株式会社,東京都,渋谷区,代々木４丁目２２番１号ニュー代々木マンション１０１,,13,113,1510053,,,,,,,2022-07-28,1,,,,,スクデット,0
822,4011003015096,新規,0,2022-07-28,2022-07-28,合同会社キャナル,,合同会社,東京都,渋谷区,渋谷３丁目２６－１６第五叶ビル５Ｆ,,13,113,1500002,,,,,,,2022-07-28,1,,,,,キャナル,0
826,4011101099652,新規,0,2022-07-28,2022-07-28,株式会社Ｃａｓａ　Ｉｎｎｏｖａｔｉｏｎｓ,,株式会社,東京都,新宿区,神楽坂６丁目６７番地,,13,104,1620825,,,,,,,2022-07-28,1,,,,,カーサイノベーションズ,0
827,4011103012010,新規,0,2022-07-28,2022-07-28,合同会社Ｏｎｅ　Ｅａｒｔｈ　Ｍｏｎｇｏｌｉａ,,合同会社,東京都,新宿区,西新宿６丁目５番１号,,13,104,1600023,,,,,,,2022-07-28,1,,,,,ワンアースモンゴリア,0
828,4011105010334,新規,0,2022-07-28,2022-07-28,一般社団法人日本プラネタリーヘルス協会,,その他の設立登記法人,東京都,新宿区,神楽坂２丁目１６番５号松田ビル２０２号,,13,104,1620825,,,,,,,2022-07-28,1,,,,,ニホンプラネタリーヘルスキョウカイ,0
830,4011201023990,新規,0,2022-07-28,2022-07-28,Ｂｙｓｉｄｅ株式会社,,株式会社,東京都,中野区,中央３丁目４０番２号,,13,114,1640011,,,,,,,2022-07-28,1,,,,,バイサイド,0
831,4011301002903,新規,0,2022-07-28,2022-07-28,三邦印刷株式会社,,株式会社,東京都,杉並区,西荻南１丁目１３番１５号,,13,115,1670053,,,,,,,2022-07-28,1,,,,,サンポウインサツ,0
833,4011301027990,新規,0,2022-07-28,2022-07-28,株式会社ＥＤＥＲＡ,,株式会社,東京都,杉並区,上井草２丁目１９番１２号,,13,115,1670023,,,,,,,2022-07-28,1,,,,,エデラ,0
835,4011501028319,新規,0,2022-07-28,2022-07-28,株式会社フェルシュ,,株式会社,東京都,北区,志茂２丁目２番７号岡部ハウス２０１,,13,117,1150042,,,,,,,2022-07-28,1,,,,,フェルシュ,0
841,4011801041013,新規,0,2022-07-28,2022-07-28,株式会社ｇｒｏｗ,,株式会社,東京都,葛飾区,亀有３丁目３番５号,,13,122,1250061,,,,,,,2022-07-28,1,,,,,グロウ,0
854,4020001147487,新規,0,2022-07-28,2022-07-28,松石貿易株式会社,,株式会社,神奈川県,横浜市南区,真金町２丁目１８番２２号２Ｆ,,14,105,2320021,,,,,,,2022-07-28,1,,,,,ショウセキボウエキ,0
855,4020001147512,新規,0,2022-07-28,2022-07-28,アビリティージャパン株式会社,,株式会社,神奈川県,横浜市神奈川区,三ツ沢西町１３番１２号,,14,102,2210855,,,,,,,2022-07-28,1,,,,,アビリティージャパン,0
856,4020001147545,新規,0,2022-07-28,2022-07-28,株式会社ＭＩＹＡＫＵＢＯ,,株式会社,神奈川県,横浜市戸塚区,下倉田町１２３５番地,,14,110,2440815,,,,,,,2022-07-28,1,,,,,ミヤクボ,0
874,4030003019857,新規,0,2022-07-28,2022-07-28,合同会社Ｇ‐ｇｒｏｕｎｄ,,合同会社,埼玉県,富士見市,東みずほ台４丁目３番地１４－Ｏｒｉｅｎｓ２０１,,11,235,3540015,,,,,,,2022-07-28,1,,,,,ジーグラウンド,0
882,4040001124402,新規,0,2022-07-28,2022-07-28,株式会社ＴＡＯ,,株式会社,千葉県,習志野市,花咲１丁目３番２２号,,12,216,2750013,,,,,,,2022-07-28,1,,,,,ティーエーオー,0
883,4040001124435,新規,0,2022-07-28,2022-07-28,株式会社福祉機構月明会,,株式会社,千葉県,市川市,市川１丁目２３番８－７０１号,,12,203,2720034,,,,,,,2022-07-28,1,,,,,フクシキコウゲツメイカイ,0
886,4040003020509,新規,0,2022-07-28,2022-07-28,タパブラザーズ合同会社,,合同会社,千葉県,千葉市美浜区,高浜１丁目２番２棟１０４号,,12,106,2610003,,,,,,,2022-07-28,1,,,,,タパブラザーズ,0
903,4100003006641,新規,0,2022-07-28,2022-07-28,合同会社櫻井,,合同会社,長野県,中野市,大字竹原２４３番地４,,20,211,3830007,,,,,,,2022-07-28,1,,,,,サクライ,0
905,4110005016836,新規,0,2022-07-28,2022-07-28,エホバの証人の新潟県新潟市岩室会衆,,その他の設立登記法人,新潟県,新潟市西蒲区,鷲ノ木２０９５－５,,15,108,9530072,,,,,,,2022-07-28,1,,,,,エホバノショウニンノニイガタケンニイガタシイワムロカイシュウ,0
927,4120001247673,新規,0,2022-07-28,2022-07-28,株式会社ライフアシスト,,株式会社,大阪府,大阪市中央区,日本橋１丁目１７番１７号ピカソ日本一ビル６０４号室,,27,128,5420073,,,,,,,2022-07-28,1,,,,,ライフアシスト,0
928,4120001247731,新規,0,2022-07-28,2022-07-28,浪花リフォーム株式会社,,株式会社,大阪府,大阪市西淀川区,花川２丁目７番１９号,,27,113,5550023,,,,,,,2022-07-28,1,,,,,ナニワリフォーム,0
932,4120003022166,新規,0,2022-07-28,2022-07-28,合同会社カーテックトクノ,,合同会社,大阪府,寝屋川市,音羽町１９番１４号,,27,215,5720023,,,,,,,2022-07-28,1,,,,,カーテックトクノ,0
939,4120101065975,新規,0,2022-07-28,2022-07-28,ネクサス保険サービス株式会社,,株式会社,大阪府,松原市,立部１丁目１８５番地の４,,27,217,5800012,,,,,,,2022-07-28,1,,,,,ネクサスホケンサービス,0
940,4120103004799,新規,0,2022-07-28,2022-07-28,まつい菓夢店合同会社,,合同会社,大阪府,岸和田市,下松町４丁目５番４１号朝日プラザ１階７号室,,27,202,5960823,,,,,,,2022-07-28,1,,,,,マツイコウムテン,0
949,4130001072187,新規,0,2022-07-28,2022-07-28,Ｍａｔｔａｎ　Ｆｏｏｄ株式会社,,株式会社,京都府,京都市東山区,祇園町北側２７９番地３,,26,105,6050073,,,,,,,2022-07-28,1,,,,,マッタンフード,0
950,4130001072286,新規,0,2022-07-28,2022-07-28,Ｂｏｏｔ株式会社,,株式会社,京都府,京都市中京区,小結棚町４３６,,26,104,6048223,,,,,,,2022-07-28,1,,,,,ブート,0
959,4140005026254,新規,0,2022-07-28,2022-07-28,一般社団法人食べる健康プラットフォーム,,その他の設立登記法人,兵庫県,神戸市灘区,中郷町５丁目１大和公園南側,,28,102,6570032,,,,,,,2022-07-28,1,,,,,,0
960,4140005026262,新規,0,2022-07-28,2022-07-28,特定非営利活動法人ぷれいふる,,その他の設立登記法人,兵庫県,神戸市灘区,鶴甲２丁目８－５,,28,102,6570011,,,,,,,2022-07-28,1,,,,,プレイフル,0
966,4170001010639,新規,0,2022-07-28,2022-07-28,高野林業株式会社,00127306,株式会社,和歌山県,伊都郡九度山町,大字入郷６６０番地の７,,30,343,6480161,,,,,,,2022-07-28,1,,,,,,0
973,4180001152315,新規,0,2022-07-28,2022-07-28,株式会社誠明工業,,株式会社,愛知県,東海市,加木屋町東大堀３２番地の３６（８棟４０２号）,,23,222,4770032,,,,,,,2022-07-28,1,,,,,セイメイコウギョウ,0
974,4180001152356,新規,0,2022-07-28,2022-07-28,エイト株式会社,,株式会社,愛知県,一宮市,奥町字蘇東６４番地４,,23,203,4910201,,,,,,,2022-07-28,1,,,,,エイト,0
977,4180003024082,新規,0,2022-07-28,2022-07-28,サウスＡＩシステムズ合同会社,,合同会社,愛知県,春日井市,岩成台１丁目１４－２,,23,206,4870033,,,,,,,2022-07-28,1,,,,,サウスエアイシステムズ,0
978,4180003024090,新規,0,2022-07-28,2022-07-28,合同会社ブリッジ,,合同会社,愛知県,春日井市,高蔵寺町北４丁目１番１５,,23,206,4870016,,,,,,,2022-07-28,1,,,,,ブリッジ,0
982,4190003004042,新規,0,2022-07-28,2022-07-28,合同会社Ｈ．ＰＬＵＳ,,合同会社,三重県,桑名市,大字下深谷部３４５番地３６,,24,205,5110808,,,,,,,2022-07-28,1,,,,,エイチプラス,0
1006,4260001037086,新規,0,2022-07-28,2022-07-28,株式会社ＰＨＵＯＮＧ　ＤＯＮＧ,,株式会社,岡山県,岡山市中区,神下７３番地６,,33,102,7038225,,,,,,,2022-07-28,1,,,,,フォンドン,0
1017,4320001019243,新規,0,2022-07-28,2022-07-28,大進株式会社,,株式会社,大分県,大分市,今津留１丁目３番１４－９Ｂ号,,44,201,8700938,,,,,,,2022-07-28,1,,,,,ダイシン,0
1018,4330001029951,新規,0,2022-07-28,2022-07-28,株式会社ＹＵＫＩＥＮＴ,,株式会社,熊本県,人吉市,下原田町字瓜生田６６０番地,,43,203,8680086,,,,,,,2022-07-28,1,,,,,ユキエント,0
1019,4330001029968,新規,0,2022-07-28,2022-07-28,株式会社Ｆｕｎ　Ｐｌｕｓ,,株式会社,熊本県,熊本市中央区,水前寺６丁目５番２３号フォーチュンパレス水前寺２Ｆ,,43,101,8620950,,,,,,,2022-07-28,1,,,,,ファンプラス,0
1032,4400001015952,新規,0,2022-07-28,2022-07-28,株式会社ＯＦＦＣＯ,,株式会社,岩手県,盛岡市,館向町２－２２,,03,201,0200115,,,,,,,2022-07-28,1,,,,,オフコ,0
1043,4430003014132,新規,0,2022-07-28,2022-07-28,合同会社ＣＲＡＮＥ‐ＷＩＳＨ,,合同会社,北海道,札幌市豊平区,福住二条１０丁目１２番１号,,01,105,0620042,,,,,,,2022-07-28,1,,,,,クレーンウィッシュ,0
1047,4440001009125,新規,0,2022-07-28,2022-07-28,株式会社土方・啄木浪漫舘,,株式会社,北海道,函館市,日乃出町２５番４号,,01,202,0400022,,,,,,,2022-07-28,1,,,,,ヒジカタタクボクロマンカン,0
1054,4700150109302,新規,0,2022-07-28,2022-06-08,弘前能楽体感座,,その他,青森県,弘前市,大字笹森町３５,,02,202,0368342,,,,,,,2022-06-08,1,,,,,ヒロサキノウガクタイカンザ,0
1063,5010001228287,新規,0,2022-07-28,2022-07-28,鎧橋株式会社,,株式会社,東京都,中央区,日本橋兜町１７番１号,,13,102,1030026,,,,,,,2022-07-28,1,,,,,ヨロイバシ,0
1064,5010001228353,新規,0,2022-07-28,2022-07-28,８５アドバイザリー株式会社,,株式会社,東京都,中央区,銀座１丁目１２番４号Ｎ＆ＥＢＬＤ．６Ｆ,,13,102,1040061,,,,,,,2022-07-28,1,,,,,ハチゴアドバイザリー,0
1065,5010001228444,新規,0,2022-07-28,2022-07-28,Ｓｐｌｕｓ株式会社,,株式会社,東京都,千代田区,鍛冶町１丁目１０番６号ＢＩＺＳＭＡＲＴ神田,,13,101,1010044,,,,,,,2022-07-28,1,,,,,エスプラス,0
1069,5010003038247,新規,0,2022-07-28,2022-07-28,合同会社ＳＫＦ,,合同会社,東京都,文京区,湯島３丁目２２番９号,,13,105,1130034,,,,,,,2022-07-28,1,,,,,エスケーエフ,0
1070,5010003038263,新規,0,2022-07-28,2022-07-28,ＡＹＲ２合同会社,,合同会社,東京都,中央区,日本橋１丁目４番１号,,13,102,1030027,,,,,,,2022-07-28,1,,,,,エーワイアールツー,0
1071,5010005035309,新規,0,2022-07-28,2022-07-28,一般社団法人国際マナー協会,,その他の設立登記法人,東京都,千代田区,麹町２丁目１０番地３,,13,101,1020083,,,,,,,2022-07-28,1,,,,,コクサイマナーキョウカイ,0
1085,5010601061550,新規,0,2022-07-28,2022-07-28,トップビュー株式会社,,株式会社,東京都,墨田区,文花１丁目３４番１１－２１０号,,13,107,1310044,,,,,,,2022-07-28,1,,,,,トップビュー,0
1087,5010801033143,新規,0,2022-07-28,2022-07-28,ミレすまいる株式会社,,株式会社,東京都,大田区,久が原５丁目６番１３号,,13,111,1460085,,,,,,,2022-07-28,1,,,,,ミレスマイル,0
1107,5011101099651,新規,0,2022-07-28,2022-07-28,唐融投資株式会社,,株式会社,東京都,新宿区,赤城下町４５番地,,13,104,1620803,,,,,,,2022-07-28,1,,,,,タンロントウシ,0
1108,5011103012018,新規,0,2022-07-28,2022-07-28,ＳＯＲＡ合同会社,,合同会社,東京都,新宿区,大久保３丁目１０番１号,,13,104,1690072,,,,,,,2022-07-28,1,,,,,ソラ,0
1132,5020001147437,新規,0,2022-07-28,2022-07-28,株式会社ミリオンペイメント,,株式会社,神奈川県,川崎市麻生区,王禅寺西１丁目３番５号,,14,137,2150017,,,,,,,2022-07-28,1,,,,,ミリオンペイメント,0
1137,5020003022142,新規,0,2022-07-28,2022-07-28,合同会社スピカ,,合同会社,神奈川県,横浜市神奈川区,三ツ沢下町１２番１７号,,14,102,2210852,,,,,,,2022-07-28,1,,,,,スピカ,0
1138,5020003022150,新規,0,2022-07-28,2022-07-28,合同会社ＳＴＧ,,合同会社,神奈川県,横浜市保土ケ谷区,星川１丁目２１番２３－３０２号,,14,106,2400006,,,,,,,2022-07-28,1,,,,,エスティージー,0
1146,5021003011985,新規,0,2022-07-28,2022-07-28,合同会社ＳＡＫＵＲＡＺＥＮＳＥＮ,,合同会社,神奈川県,小田原市,荻窪７３４番地の１３,,14,206,2500042,,,,,,,2022-07-28,1,,,,,サクラゼンセン,0
1149,5021005012577,新規,0,2022-07-28,2022-07-28,プリンスハイム湯河原管理組合法人,,その他の設立登記法人,神奈川県,足柄下郡湯河原町,宮上７４１番地の１,,14,384,2590314,,,,,,,2022-07-28,1,,,,,プリンスハイムユガワラ,0
1154,5030001149424,新規,0,2022-07-28,2022-07-28,株式会社マインドライン,,株式会社,埼玉県,入間市,東藤沢２丁目３番２５－６０８号,,11,225,3580012,,,,,,,2022-07-28,1,,,,,マインドライン,0
1157,5030003019872,新規,0,2022-07-28,2022-07-28,１０Ｗ合同会社,,合同会社,埼玉県,新座市,畑中１丁目１０番５７－２１５号,,11,230,3520012,,,,,,,2022-07-28,1,,,,,テンダブー,0
1158,5030005020944,新規,0,2022-07-28,2022-07-28,一般社団法人Ａｍａｒｅ有文化倶楽部,,その他の設立登記法人,埼玉県,川口市,大字安行慈林８４１番地８,,11,203,3340071,,,,,,,2022-07-28,1,,,,,アマレユウブンカクラブ,0
1170,5050001051462,新規,0,2022-07-28,2022-07-28,Ｆｒｅｅｄｏｍ　Ｆａｒｍ株式会社,,株式会社,茨城県,桜川市,真壁町飯塚５２２番地３,00127354,08,231,3004417,,,,,,,2022-07-28,1,,,,,フリーダムファーム,0
1173,5070001039472,新規,0,2022-07-28,2022-07-28,株式会社ビーディーカンパニー,,株式会社,群馬県,高崎市,菅谷町７７番地１６１－１階,,10,202,3703522,,,,,,,2022-07-28,1,,,,,ビーディーカンパニー,0
1198,5120001247689,新規,0,2022-07-28,2022-07-28,吉小満株式会社,,株式会社,大阪府,大阪市港区,市岡元町２丁目６番１１－４０５号,,27,107,5520002,,,,,,,2022-07-28,1,,,,,ヨシショウマン,0
1199,5120001247706,新規,0,2022-07-28,2022-07-28,Ｉｎｔｅｃｔ株式会社,,株式会社,大阪府,枚方市,出口４丁目２２番１１－１号,,27,210,5730065,,,,,,,2022-07-28,1,,,,,インテクト,0
1204,5120003022149,新規,0,2022-07-28,2022-07-28,合同会社トゥルウァ,,合同会社,大阪府,大阪市西区,西本町２丁目５番１０－５０１号,,27,106,5500005,,,,,,,2022-07-28,1,,,,,トゥルウァ,0
1205,5120003022165,新規,0,2022-07-28,2022-07-28,合同会社ＤｉＤ,,合同会社,大阪府,大阪市平野区,加美東５丁目８番２３－３０３号,,27,126,5470002,,,,,,,2022-07-28,1,,,,,ディーアイディー,0
1206,5120005023112,新規,0,2022-07-28,2022-07-28,豊明協同組合,,その他の設立登記法人,大阪府,大阪市中央区,南本町３丁目３－２２－３０６,,27,128,5410054,,,,,,,2022-07-28,1,,,,,ホウメイ,0
1210,5120105009606,新規,0,2022-07-28,2022-07-28,医療法人敬愛会,,その他の設立登記法人,大阪府,堺市西区,鳳東町１丁７番３０号２階,,27,144,5938324,,,,,,,2022-07-28,1,,,,,ケイアイカイ,0
1215,5130001072269,新規,0,2022-07-28,2022-07-28,にしかわ商事株式会社,,株式会社,京都府,京都市東山区,下河原通八坂鳥居前下る下河原町４７３番地,,26,105,6050825,,,,,,,2022-07-28,1,,,,,ニシカワショウジ,0
1216,5130001072327,新規,0,2022-07-28,2022-07-28,株式会社ＮａｋａｉＡｓｓｅｔ＆Ｉｎｖｅｓｔｍｅｎｔ,,株式会社,京都府,京都市上京区,河原町通今出川下る西入大宮町３３２番地,,26,102,6020847,,,,,,,2022-07-28,1,,,,,ナカイアセットアンドインベストメント,0
1222,5140001126858,新規,0,2022-07-28,2022-07-28,ライフチャンネル株式会社,,株式会社,兵庫県,加古川市,加古川町中津５１５番地の２８,,28,210,6750068,,,,,,,2022-07-28,1,,,,,ライフチャンネル,0
1235,5180001152347,新規,0,2022-07-28,2022-07-28,エルフォワード株式会社,,株式会社,愛知県,名古屋市緑区,鳴海町字中汐田１５７番地の１,,23,114,4580801,,,,,,,2022-07-28,1,,,,,エルフォワード,0
1236,5180001152355,新規,0,2022-07-28,2022-07-28,株式会社クラソム不動産,,株式会社,愛知県,半田市,桐ケ丘３丁目１４番地の２１,,23,205,4750928,,,,,,,2022-07-28,1,,,,,クラソムフドウサン,0
1237,5180001152363,新規,0,2022-07-28,2022-07-28,長興株式会社,,株式会社,愛知県,名古屋市昭和区,阿由知通５丁目１２番地西里御器所ビル１階,,23,107,4660027,,,,,,,2022-07-28,1,,,,,ナガオキ,0
1248,5230001019466,新規,0,2022-07-28,2022-07-28,Ｏｆｆｉｃｅ　Ｂａｎａｎａ株式会社,,株式会社,富山県,高岡市,あわら町９番１号,,16,202,9330911,,,,,,,2022-07-28,1,,,,,オフィスバナナ,0
1261,5270003001427,新規,0,2022-07-28,2022-07-28,合同会社ジェネシスプロダクション,,合同会社,鳥取県,米子市,夜見町１８３５番地５,,31,202,6830851,,,,,,,2022-07-28,1,,,,,,0
1262,5290003012777,新規,0,2022-07-28,2022-07-28,合同会社Ｋｕｒａｓｈｉ＆Ｈｙｇｇｅ,,合同会社,福岡県,福岡市中央区,荒戸２丁目４番２０－７０１号,,40,133,8100062,,,,,,,2022-07-28,1,,,,,クラシアンドヒュッゲ,0
1273,5340001024926,新規,0,2022-07-28,2022-07-28,株式会社ＳＴ工業,,株式会社,鹿児島県,鹿児島市,坂之上６丁目５番５４号,,46,201,8910150,,,,,,,2022-07-28,1,,,,,エスティーコウギョウ,0
1277,5360001030641,新規,0,2022-07-28,2022-07-28,株式会社若狭,,株式会社,沖縄県,那覇市,若狭１丁目３番地１２,,47,201,9000031,,,,,,,2022-07-28,1,,,,,ワカサ,0
1281,5370001048856,新規,0,2022-07-28,2022-07-28,新東不動産株式会社,,株式会社,宮城県,石巻市,大街道北３丁目７番２７号,,04,202,9860854,,,,,,,2022-07-28,1,,,,,シントウフドウサン,0
1286,5370003005789,新規,0,2022-07-28,2022-07-28,合同会社Ｗａｖｅ,,合同会社,宮城県,仙台市若林区,沖野２丁目２３番４０号,,04,103,9840831,,,,,,,2022-07-28,1,,,,,ウェーブ,0
1288,5380001033015,新規,0,2022-07-28,2022-07-28,株式会社紫電工業,,株式会社,福島県,会津若松市,幕内南町７番１５号,,07,202,9650849,,,,,,,2022-07-28,1,,,,,シデンコウギョウ,0
1292,5420001017954,新規,0,2022-07-28,2022-07-28,株式会社ＴＲＵＳＴ　ＩＮＦ,,株式会社,青森県,八戸市,大字新井田字古館１１番地２５,,02,203,0310813,,,,,,,2022-07-28,1,,,,,トラストインフ,0
1303,5430001087138,新規,0,2022-07-28,2022-07-28,株式会社ＡＩＦコーポレーション,,株式会社,北海道,余市郡余市町,山田町５９９番地,,01,408,0460012,,,,,,,2022-07-28,1,,,,,エイアイエフコーポレーション,0
1304,5430001087220,新規,0,2022-07-28,2022-07-28,株式会社ＡＲＥＡ２９６,,株式会社,北海道,北広島市,大曲並木２丁目９番地９,,01,234,0611279,,,,,,,2022-07-28,1,,,,,エリアニキュウロク,0
1308,5460101007224,新規,0,2022-07-28,2022-07-28,株式会社みしな,,株式会社,北海道,上川郡清水町,字御影南１線５５番地３３,,01,636,0890357,,,,,,,2022-07-28,1,,,,,ミシナ,0
1310,5700150109573,新規,0,2022-07-28,2022-06-14,Ｒａｕｍ！ｔ,,その他,奈良県,香芝市,五位堂６丁目１７７,,29,210,6390226,,,,,,,2022-06-14,1,,,,,ラオミツト,0
1311,5700150110795,新規,0,2022-07-28,2022-07-07,近畿児童自立支援施設協議会,,その他,滋賀県,甲賀市,土山町大野２８３－２０,,25,209,5280235,,,,,,,2022-07-07,1,,,,,キンキジドウジリツシエンシセツキヨウギカイ,0
1319,6010001227981,新規,0,2022-07-28,2022-07-28,株式会社ＷＡＫＵ,,株式会社,東京都,千代田区,内神田１丁目８番９号福田ビル２階,,13,101,1010047,,,,,,,2022-07-28,1,,,,,ワク,0
1320,6010001228328,新規,0,2022-07-28,2022-07-28,株式会社ＰｒｏＦａｂ,,株式会社,東京都,中央区,東日本橋２丁目２８－４日本ＣＥＴビル,,13,102,1030004,,,,,,,2022-07-28,1,,,,,プロファブ,0
1321,6010001228369,新規,0,2022-07-28,2022-07-28,株式会社フィル事業承継・地域活性化プロジェクト,,株式会社,東京都,千代田区,富士見２丁目１２番１３号,,13,101,1020071,,,,,,,2022-07-28,1,,,,,フィルジギョウショウケイチイキカッセイカプロジェクト,0
1324,6010003038254,新規,0,2022-07-28,2022-07-28,Ｅ．Ｍコーポレーション合同会社,,合同会社,東京都,中央区,銀座７丁目１８番１３号クオリア銀座４０２,,13,102,1040061,,,,,,,2022-07-28,1,,,,,イーエムコーポレーション,0
1325,6010005035316,新規,0,2022-07-28,2022-07-28,一般社団法人生活クラブエネルギー事業連合,,その他の設立登記法人,東京都,中央区,日本橋人形町１丁目６番９号,,13,102,1030013,,,,,,,2022-07-28,1,,,,,セイカツクラブエネルギージギョウレンゴウ,0
1336,6010601061558,新規,0,2022-07-28,2022-07-28,株式会社Ｎｅｕｔｒａｌ,,株式会社,東京都,江東区,亀戸５丁目２１番１号,,13,108,1360071,,,,,,,2022-07-28,1,,,,,ニュートラル,0
1337,6010603009654,新規,0,2022-07-28,2022-07-28,ＭＭインベストメント合同会社,,合同会社,東京都,江東区,白河４丁目９番２５－３３０４号,,13,108,1350021,,,,,,,2022-07-28,1,,,,,エムエムインベストメント,0
1339,6010701043010,新規,0,2022-07-28,2022-07-28,株式会社アングネム,,株式会社,東京都,品川区,戸越６丁目１８－１４ｒｏｏｍ－ｋ２０１,,13,109,1420041,,,,,,,2022-07-28,1,,,,,アングネム,0
1347,6010901051317,新規,0,2022-07-28,2022-07-28,念えと株式会社,,株式会社,東京都,世田谷区,桜上水１丁目２４番２２号ソネット経堂２０６号室,,13,112,1560045,,,,,,,2022-07-28,1,,,,,ネンエト,0
1349,6011001148788,新規,0,2022-07-28,2022-07-28,ｈｙｐｈｅｎａｔｅ株式会社,,株式会社,東京都,渋谷区,千駄ヶ谷３丁目１８番７号,,13,113,1510051,,,,,,,2022-07-28,1,,,,,ハイフネイト,0
1351,6011101099659,新規,0,2022-07-28,2022-07-28,株式会社コネクト,,株式会社,東京都,新宿区,西新宿８丁目１１番１号,,13,104,1600023,,,,,,,2022-07-28,1,,,,,コネクト,0
1352,6011101099667,新規,0,2022-07-28,2022-07-28,拓源株式会社,,株式会社,東京都,新宿区,高田馬場４丁目８番９号ＮＹ企画ビル３階,,13,104,1690075,,,,,,,2022-07-28,1,,,,,タクゲン,0
1353,6011103012017,新規,0,2022-07-28,2022-07-28,合同会社ＴＡＶＵＳ,,合同会社,東京都,新宿区,西新宿３丁目７番２６号ハイネスロワイヤル５０５,,13,104,1600023,,,,,,,2022-07-28,1,,,,,タブス,0
1359,6011401024432,新規,0,2022-07-28,2022-07-28,株式会社シンクライス,,株式会社,東京都,板橋区,前野町２丁目４５番１０－２０７号,,13,119,1740063,,,,,,,2022-07-28,1,,,,,シンクライス,0
1360,6011501028317,新規,0,2022-07-28,2022-07-28,嘉裕株式会社,,株式会社,東京都,北区,浮間１丁目１番１４号リムジンビル３１０,,13,117,1150051,,,,,,,2022-07-28,1,,,,,カユウ,0
1365,6011803005195,新規,0,2022-07-28,2022-07-28,合同会社ＹＨＯ,,合同会社,東京都,足立区,中央本町４丁目２４番８号,,13,121,1210011,,,,,,,2022-07-28,1,,,,,ワイエイチオー,0
1376,6020001147469,新規,0,2022-07-28,2022-07-28,株式会社ベタベタ,,株式会社,神奈川県,横浜市緑区,台村町１８６番,,14,113,2260014,,,,,,,2022-07-28,1,,,,,ベタベタ,0
1377,6020001147519,新規,0,2022-07-28,2022-07-28,株式会社ＳＵＮＤＥＲ　ＯＶＥＲＳＥＡＳ,,株式会社,神奈川県,横浜市栄区,中野町１１１０番地５,,14,115,2470015,,,,,,,2022-07-28,1,,,,,スンダルオーバーシーズ,0
1379,6020003022141,新規,0,2022-07-28,2022-07-28,合同会社めいめいクリエイト,,合同会社,神奈川県,川崎市中原区,上丸子天神町４７番地ニュー玉川マンション５０４,,14,133,2110007,,,,,,,2022-07-28,1,,,,,メイメイクリエイト,0
1385,6021001076600,新規,0,2022-07-28,2022-07-28,株式会社ＭＩＬＯ,,株式会社,神奈川県,厚木市,旭町１丁目２９番１２号,,14,212,2430014,,,,,,,2022-07-28,1,,,,,ミロ,0
1386,6021001076609,新規,0,2022-07-28,2022-07-28,株式会社Ｌａｚｃｏｒｅ,,株式会社,神奈川県,平塚市,南原３丁目２番３０号,,14,203,2540065,,,,,,,2022-07-28,1,,,,,ラズコア,0
1388,6021003011976,新規,0,2022-07-28,2022-07-28,合同会社Ｓ,,合同会社,神奈川県,茅ヶ崎市,柳島１８７１番地ブリアンジェルメ１０１,,14,207,2530064,,,,,,,2022-07-28,1,,,,,エス,0
1398,6040001124359,新規,0,2022-07-28,2022-07-28,株式会社ＧＲＯＷＴＨ,,株式会社,千葉県,浦安市,高洲４丁目３番１号プラウド新浦安１１２９,,12,227,2790023,,,,,,,2022-07-28,1,,,,,グロース,0
1402,6040003020498,新規,0,2022-07-28,2022-07-28,田岡合同会社,,合同会社,千葉県,千葉市花見川区,幕張本郷６丁目８番８号,,12,102,2620033,,,,,,,2022-07-28,1,,,,,タオカ,0
1405,6050002001036,新規,0,2022-07-28,2022-07-28,ケイ・アンド・アール企画有限会社,,有限会社,茨城県,水戸市,元吉田町１４８６番地の５,,08,201,3100836,,,,,,,2022-07-28,1,,,,,,0
1411,6070003004572,新規,0,2022-07-28,2022-07-28,合同会社ＴＡＹＡＢＡインターナショナル,,合同会社,群馬県,伊勢崎市,波志江町１５５３番地７横堀ハイツ２０２,,10,204,3720001,,,,,,,2022-07-28,1,,,,,タヤバインターナショナル,0
1413,6080101023449,新規,0,2022-07-28,2022-07-28,株式会社リフォルド,,株式会社,静岡県,伊東市,東松原町１２番１５号パティオモア伊東５０２号,,22,208,4140022,,,,,,,2022-07-28,1,,,,,リフォルド,0
1415,6090001017698,新規,0,2022-07-28,2022-07-28,株式会社ＳＥＥＥＤ,,株式会社,山梨県,南都留郡忍野村,内野４７７８番地,,19,424,4010512,,,,,,,2022-07-28,1,,,,,シード,0
1429,6120001247639,新規,0,2022-07-28,2022-07-28,株式会社ＲＥＮＧＹＯ,,株式会社,大阪府,大阪市鶴見区,鶴見５丁目５番３８号,,27,124,5380053,,,,,,,2022-07-28,1,,,,,レンギョウ,0
1430,6120001247705,新規,0,2022-07-28,2022-07-28,株式会社健鈴,,株式会社,大阪府,守口市,東郷通１丁目２番１６号,,27,209,5700041,,,,,,,2022-07-28,1,,,,,ケンレイ,0
1432,6120003022156,新規,0,2022-07-28,2022-07-28,ＣＢ合同会社,,合同会社,大阪府,大阪市都島区,都島本通４丁目１３番１０号,,27,102,5340021,,,,,,,2022-07-28,1,,,,,シービー,0
1451,6130001072276,新規,0,2022-07-28,2022-07-28,株式会社ＬＩＶＥ　ＳＴＡＦＦ,,株式会社,京都府,宇治市,小倉町老ノ木４３番地の２４,,26,204,6110042,,,,,,,2022-07-28,1,,,,,ライブスタッフ,0
1462,6140001126857,新規,0,2022-07-28,2022-07-28,スターエージェンシー株式会社,,株式会社,兵庫県,神戸市灘区,永手町４丁目２番１号,,28,102,6570027,,,,,,,2022-07-28,1,,,,,スターエージェンシー,0
1464,6150003002741,新規,0,2022-07-28,2022-07-28,合同会社プルメリア,,合同会社,奈良県,橿原市,北妙法寺町１８番地４４,,29,205,6340843,,,,,,,2022-07-28,1,,,,,プルメリア,0
1469,6160001024398,新規,0,2022-07-28,2022-07-28,株式会社ラポルタ,,株式会社,滋賀県,彦根市,平田町１３４番地１タウンビル１Ｄ,,25,202,5220041,,,,,,,2022-07-28,1,,,,,ラポルタ,0
1472,6170001017211,新規,0,2022-07-28,2022-07-28,株式会社ＴＯＤＡＹ,,株式会社,和歌山県,田辺市,東陽１４番Ｃ－１３０３号,,30,206,6460029,,,,,,,2022-07-28,1,,,,,トゥデイ,0
1477,6180001152338,新規,0,2022-07-28,2022-07-28,株式会社ネクストワン,,株式会社,愛知県,一宮市,千秋町町屋字西野１５番地４,,23,203,4910813,,,,,,,2022-07-28,1,,,,,ネクストワン,0
1478,6180001152354,新規,0,2022-07-28,2022-07-28,株式会社デザインウォール設計事務所,,株式会社,愛知県,名古屋市守山区,森孝東１丁目１０４番地・２Ｆ,,23,113,4630033,,,,,,,2022-07-28,1,,,,,デザインウォールセッケイジムショ,0
1486,6200001040317,新規,0,2022-07-28,2022-07-28,株式会社Ｍｏｎｔｅｅ,,株式会社,岐阜県,瑞穂市,祖父江１１７,,21,216,5010225,,,,,,,2022-07-28,1,,,,,ムーティー,0
1506,6260001037092,新規,0,2022-07-28,2022-07-28,株式会社ＮＥＸＴ　ＩＮＮＯＶＡＴＩＯＮ,,株式会社,岡山県,岡山市北区,西長瀬１２０３番地１１サーパス西長瀬グランテラス６０６,,33,101,7000965,,,,,,,2022-07-28,1,,,,,ネクストイノベーション,0
1507,6270003001426,新規,0,2022-07-28,2022-07-28,合同会社ＲＡＫＵ,,合同会社,鳥取県,米子市,河崎３４６２番地３,,31,202,6830852,,,,,,,2022-07-28,1,,,,,ラク,0
1515,6290805009573,新規,0,2022-07-28,2022-07-28,ＮＰＯ法人チャイルドガーディアンズ北九州,,その他の設立登記法人,福岡県,北九州市八幡西区,御開５丁目２番１８号,,40,109,8070806,,,,,,,2022-07-28,1,,,,,チャイルドガーディアンズキタキュウシュウ,0
1523,6370001048839,新規,0,2022-07-28,2022-07-28,東北資源エネルギー開発株式会社,,株式会社,宮城県,仙台市青葉区,宮町２丁目１番３７号宮町リトル・ヒルズテナント１０１,,04,101,9800004,,,,,,,2022-07-28,1,,,,,トウホクシゲンエネルギーカイハツ,0
1524,6370001048847,新規,0,2022-07-28,2022-07-28,株式会社フリースタイル,,株式会社,宮城県,黒川郡大和町,吉岡字古館２２番地の１グランシャリオ２０２,,04,421,9813621,,,,,,,2022-07-28,1,,,,,フリースタイル,0
1525,6370001048855,新規,0,2022-07-28,2022-07-28,株式会社スタートライン,,株式会社,宮城県,仙台市泉区,友愛町１７４－３－４０６,,04,105,9813114,,,,,,,2022-07-28,1,,,,,スタートライン,0
1538,6430005014517,新規,0,2022-07-28,2022-07-28,一般社団法人まんだらビンゴ協会,,その他の設立登記法人,北海道,札幌市西区,八軒七条西１０丁目１番６０－１３１０号,,01,107,0630847,,,,,,,2022-07-28,1,,,,,マンダラビンゴキョウカイ,0
1543,6700150110027,新規,0,2022-07-28,2022-06-17,ｍｕｓｉｃ　ｐｏｉｎｔ　ＳＫＹ,,その他,愛知県,名古屋市東区,東大曽根町２５－２１－１０２,,23,102,4610022,,,,,,,2022-06-17,1,,,,,ミユージツクポイントスカイ,0
1554,7010001228319,新規,0,2022-07-28,2022-07-28,株式会社ＳＴＡＣＴｓ,,株式会社,東京都,千代田区,平河町１丁目３－６ＢＩＺＭＡＲＫＳ麹町５Ｆ,,13,101,1020093,,,,,,,2022-07-28,1,,,,,スタクツ,0
1555,7010001228368,新規,0,2022-07-28,2022-07-28,株式会社ＡＣＥ,,株式会社,東京都,中央区,銀座８丁目１８番３号加藤ビル３Ｆ,,13,102,1040061,,,,,,,2022-07-28,1,,,,,エース,0
1556,7010001228401,新規,0,2022-07-28,2022-07-28,株式会社一慶,,株式会社,東京都,千代田区,内神田３丁目７番８号地下１階,,13,101,1010047,,,,,,,2022-07-28,1,,,,,イチケイ,0
1558,7010003038229,新規,0,2022-07-28,2022-07-28,東日本エネルギー開発５号合同会社,,合同会社,東京都,千代田区,永田町２丁目１０番１号,,13,101,1000014,,,,,,,2022-07-28,1,,,,,ヒガシニホンエネルギーカイハツウゴゴウ,0
1559,7010003038294,新規,0,2022-07-28,2022-07-28,合同会社ジーライフ,,合同会社,東京都,中央区,銀座１丁目１６番７号銀座大栄ビル５階,,13,102,1040061,,,,,,,2022-07-28,1,,,,,ジーライフ,0
1564,7010401168338,新規,0,2022-07-28,2022-07-28,株式会社Ｎｅｘｕｓ　Ｓｏｌｕｔｉｏｎｓ,,株式会社,東京都,港区,浜松町２丁目７番１４号,,13,103,1050013,,,,,,,2022-07-28,1,,,,,ネクサスソリューションズ,0
1566,7010405021187,新規,0,2022-07-28,2022-07-28,司法書士法人ホワイトリーガル,,その他の設立登記法人,東京都,港区,赤坂１丁目１番１７号,,13,103,1070052,,,,,,,2022-07-28,1,,,,,ホワイトリーガル,0
1573,7010603009653,新規,0,2022-07-28,2022-07-28,Ｄｅｖｅｌｏｐ合同会社,,合同会社,東京都,墨田区,八広６丁目１番４－６０１号オープンブルームスミダヤヒロ,,13,107,1310041,,,,,,,2022-07-28,1,,,,,デベロップ,0
1580,7011001148820,新規,0,2022-07-28,2022-07-28,株式会社フューチャーオリエンテッド,,株式会社,東京都,渋谷区,渋谷２丁目１９番１５－６０９号宮益坂ビルディング,,13,113,1500002,,,,,,,2022-07-28,1,,,,,フューチャーオリエンテッド,0
1581,7011003015069,新規,0,2022-07-28,2022-07-28,合同会社ｂａ,,合同会社,東京都,渋谷区,代々木４丁目２番６－２１０号,,13,113,1510053,,,,,,,2022-07-28,1,,,,,バ,0
1583,7011101099666,新規,0,2022-07-28,2022-07-28,株式会社ＵＲＮＥＳＳ,,株式会社,東京都,新宿区,西新宿３丁目３番１３号西新宿水間ビル６階,,13,104,1600023,,,,,,,2022-07-28,1,,,,,ユアネス,0
1594,7011501028324,新規,0,2022-07-28,2022-07-28,株式会社Ｕｎｉｖｅｒｓａｌ　Ｌｉｎｋ,,株式会社,東京都,北区,十条仲原２丁目１３番４号,,13,117,1140031,,,,,,,2022-07-28,1,,,,,,0
1597,7011603003662,新規,0,2022-07-28,2022-07-28,合同会社ＴＴＣテンテンコンサルティング,,合同会社,東京都,練馬区,中村南３丁目２番１５号,,13,120,1760025,,,,,,,2022-07-28,1,,,,,ティティシーテンテンコンサルティング,0
1612,7012701017166,新規,0,2022-07-28,2022-07-28,株式会社ＴＷＧ,,株式会社,東京都,東村山市,栄町３丁目２番地５,,13,213,1890013,,,,,,,2022-07-28,1,,,,,ティーダブルジー,0
1624,7020001147476,新規,0,2022-07-28,2022-07-28,Ｄｅｅ‐ｓｔｙｌｅ株式会社,,株式会社,神奈川県,川崎市多摩区,中野島５丁目４－３８ユナイトＫ’ｓ中野島１０２,,14,135,2140012,,,,,,,2022-07-28,1,,,,,ディスタイル,0
1625,7020001147518,新規,0,2022-07-28,2022-07-28,株式会社Ｒｅａｌｉｖａｔｅ,,株式会社,神奈川県,横浜市南区,六ツ川１丁目６８５番地,,14,105,2320066,,,,,,,2022-07-28,1,,,,,リアリベート,0
1626,7020001147526,新規,0,2022-07-28,2022-07-28,株式会社Ｋ．Ｄ．Ｍ,,株式会社,神奈川県,横浜市南区,山王町３丁目２３番地２エンゼルハイム吉野町１０４号室,,14,105,2320013,,,,,,,2022-07-28,1,,,,,ケーディーエム,0
1629,7020003022149,新規,0,2022-07-28,2022-07-28,ロビンプランニング合同会社,,合同会社,神奈川県,横浜市神奈川区,栄町１０－３５ザ・ヨコハマタワーズＥ１１０１,,14,102,2210052,,,,,,,2022-07-28,1,,,,,ロビンプランニング,0
1634,7021001076574,新規,0,2022-07-28,2022-07-28,株式会社ＣＡＲＡＶＥＬ,,株式会社,神奈川県,小田原市,田島７９番地リバティ２０６,,14,206,2560811,,,,,,,2022-07-28,1,,,,,キャラヴェル,0
1635,7021001076599,新規,0,2022-07-28,2022-07-28,株式会社ファインプラス,,株式会社,神奈川県,茅ヶ崎市,新栄町２番３０号茅ヶ崎ショッピングセンター１０１,,14,207,2530044,,,,,,,2022-07-28,1,,,,,ファインプラス,0
1636,7021003011983,新規,0,2022-07-28,2022-07-28,合同会社エージェンシー,,合同会社,神奈川県,相模原市緑区,西橋本５丁目２番１３－１０５号,,14,151,2520131,,,,,,,2022-07-28,1,,,,,エージェンシー,0
1648,7040001124408,新規,0,2022-07-28,2022-07-28,株式会社ＮＳＫ,,株式会社,千葉県,茂原市,高師町２丁目１０番地４－２Ｆ,,12,210,2970021,,,,,,,2022-07-28,1,,,,,エヌエスケー,0
1649,7040001124416,新規,0,2022-07-28,2022-07-28,株式会社ＦＱｕＬｉ,,株式会社,千葉県,柏市,今谷上町７番地２３,,12,217,2770074,,,,,,,2022-07-28,1,,,,,フクリ,0
1650,7040001124449,新規,0,2022-07-28,2022-07-28,伊藤技研工業株式会社,,株式会社,千葉県,我孫子市,中峠台３８－５－１０３,,12,222,2701128,,,,,,,2022-07-28,1,,,,,イトウギケンコウギョウ,0
1659,7050003006727,新規,0,2022-07-28,2022-07-28,ｉｓｃ合同会社,,合同会社,茨城県,守谷市,百合ケ丘２丁目２７４３番地,,08,224,3020110,,,,,,,2022-07-28,1,,,,,アイエスシー,0
1660,7060005009999,新規,0,2022-07-28,2022-07-28,特定非営利活動法人ＴＯＷＮ　ＦＲＩＥＮＤ,,その他の設立登記法人,栃木県,那須郡那須町,大字豊原甲４９５７番地２９,,09,407,3293211,,,,,,,2022-07-28,1,,,,,タウンフレンド,0
1662,7070001039487,新規,0,2022-07-28,2022-07-28,株式会社ＬＡ．ＴＲＡＣＥ,,株式会社,群馬県,桐生市,境野町６丁目５４３番地２,,10,203,3760002,,,,,,,2022-07-28,1,,,,,ラトラース,0
1664,7080101023448,新規,0,2022-07-28,2022-07-28,株式会社ゼロリフォーム,,株式会社,静岡県,沼津市,大岡２７３７番地の１,,22,203,4100022,,,,,,,2022-07-28,1,,,,,ゼロリフォーム,0
1671,7100003006639,新規,0,2022-07-28,2022-07-28,合同会社Ｓｏｎａｅ防災,,合同会社,長野県,長野市,青木島町大塚１５６７－４７,,20,201,3812205,,,,,,,2022-07-28,1,,,,,ソナエボウサイ,0
1680,7120001247662,新規,0,2022-07-28,2022-07-28,盛森株式会社,,株式会社,大阪府,大阪市西区,立売堀４丁目７番１５号奥内立売堀ビル６０５号室,,27,106,5500012,,,,,,,2022-07-28,1,,,,,モリモリ,0
1683,7120101065972,新規,0,2022-07-28,2022-07-28,Ｋ＆Ｎ　Ｃｒｅｅｒ株式会社,,株式会社,大阪府,泉大津市,千原町２丁目１４番８号,,27,206,5950004,,,,,,,2022-07-28,1,,,,,ケーアンドエヌクリエ,0
1686,7120901046296,新規,0,2022-07-28,2022-07-28,株式会社イノベーションネクスト,,株式会社,大阪府,吹田市,古江台２丁目５番１０号,,27,205,5650874,,,,,,,2022-07-28,1,,,,,イノベーションネクスト,0
1688,7120903004252,新規,0,2022-07-28,2022-07-28,合資会社シトランタス,,合資会社,大阪府,吹田市,山田東４丁目２６番１４号,,27,205,5650821,,,,,,,2022-07-28,1,,,,,シトランタス,0
1698,7130001072283,新規,0,2022-07-28,2022-07-28,株式会社ヒフナビ,,株式会社,京都府,京都市下京区,朱雀宝蔵町４４協栄ビル２階京都朱雀スタジオ,,26,106,6008846,,,,,,,2022-07-28,1,,,,,ヒフナビ,0
1701,7140001126864,新規,0,2022-07-28,2022-07-28,神戸フード株式会社,,株式会社,兵庫県,神戸市灘区,稗原町１丁目３番１８号,,28,102,6570054,,,,,,,2022-07-28,1,,,,,コウベフード,0
1702,7140001126880,新規,0,2022-07-28,2022-07-28,ライズトラスト株式会社,,株式会社,兵庫県,尼崎市,塚口町２丁目２番５号メゾン塚口１３号,,28,202,6610002,,,,,,,2022-07-28,1,,,,,ライズトラスト,0
1705,7140003017970,新規,0,2022-07-28,2022-07-28,合同会社ケイズプロダクツ,,合同会社,兵庫県,神戸市東灘区,御影本町８丁目１番１８号,,28,101,6580046,,,,,,,2022-07-28,1,,,,,ケイズプロダクツ,0
1712,7180001152353,新規,0,2022-07-28,2022-07-28,バリュースタイル株式会社,,株式会社,愛知県,日進市,岩崎町新ラ田８５番地６,,23,230,4700131,,,,,,,2022-07-28,1,,,,,バリュースタイル,0
1725,7200003005630,新規,0,2022-07-28,2022-07-28,シュパース合同会社,,合同会社,岐阜県,大垣市,南若森町金折６３２番地６,,21,202,5030976,,,,,,,2022-07-28,1,,,,,シュパース,0
1737,7260001037091,新規,0,2022-07-28,2022-07-28,株式会社すずコーポレーション,,株式会社,岡山県,岡山市北区,表町３丁目１６番３８号アルファステイツ表町１５０５号,,33,101,7000822,,,,,,,2022-07-28,1,,,,,スズコーポレーション,0
1742,7290001098387,新規,0,2022-07-28,2022-07-28,株式会社Ｈａｓ,,株式会社,福岡県,福岡市中央区,薬院２丁目３番５号エコール薬院５０３号,,40,133,8100022,,,,,,,2022-07-28,1,,,,,ハズ,0
1752,7330003009461,新規,0,2022-07-28,2022-07-28,合同会社シェル企画,,合同会社,熊本県,熊本市中央区,水前寺１丁目１番２８号３階,,43,101,8620950,,,,,,,2022-07-28,1,,,,,シェルキカク,0
1763,7370003005787,新規,0,2022-07-28,2022-07-28,合同会社ＮＡＳＡ,,合同会社,宮城県,仙台市青葉区,一番町１丁目１１番７号２階,,04,101,9800811,,,,,,,2022-07-28,1,,,,,ナサ,0
1787,7430001087152,新規,0,2022-07-28,2022-07-28,株式会社ＰＲＩＮＣＥ　Ｅｎｔｅｒｐｒｉｓｅ札幌,,株式会社,北海道,札幌市中央区,南六条西２丁目５番地３９アドヴァンスヒルズ２階,,01,101,0640806,,,,,,,2022-07-28,1,,,,,プリンスエンタープライズサッポロ,0
1795,7700150106692,新規,0,2022-07-28,2022-01-18,日本ソーシャル・イノベーション学会,,その他,京都府,京都市上京区,烏丸通上立売上る相国寺門前町６４７－２０同志社大学志高館２５９,,26,102,6020898,,,,,,,2022-01-18,1,,,,,ニホンソーシヤルイノベーシヨンガツカイ,0
1796,7700150110125,新規,0,2022-07-28,2022-06-20,ｉＢｒａｓｓ,,その他,埼玉県,新座市,新堀３丁目１１－４８－５０３,,11,230,3520032,,,,,,,2022-06-20,1,,,,,アイブラス,0
1805,8010001228326,新規,0,2022-07-28,2022-07-28,東京セミコン産業株式会社,,株式会社,東京都,千代田区,大手町１丁目７番２号東京サンケイビル２７階,,13,101,1000004,,,,,,,2022-07-28,1,,,,,トウキョウセミコンサンギョウ,0
1806,8010001228367,新規,0,2022-07-28,2022-07-28,サンショウ商事株式会社,,株式会社,東京都,中央区,勝どき１丁目８番１－３１０２号,,13,102,1040054,,,,,,,2022-07-28,1,,,,,サンショウショウジ,0
1807,8010001228400,新規,0,2022-07-28,2022-07-28,ＷＡＴＡＲＵブリッジ株式会社,,株式会社,東京都,千代田区,麹町４丁目５番地２０ＫＳビル８階,,13,101,1020083,,,,,,,2022-07-28,1,,,,,ワタルブリッジ,0
1811,8010003038137,新規,0,2022-07-28,2022-07-28,合同会社むすびめ,,合同会社,東京都,中央区,銀座１丁目２２－１１銀座大竹ビジデンス２Ｆ,,13,102,1040061,,,,,,,2022-07-28,1,,,,,ムスビメ,0
1812,8010003038203,新規,0,2022-07-28,2022-07-28,ジャパン・ドミトリー１合同会社,,合同会社,東京都,千代田区,丸の内３丁目１番１号東京共同会計事務所内,,13,101,1000005,,,,,,,2022-07-28,1,,,,,ジャパンドミトリーワン,0
1813,8010003038269,新規,0,2022-07-28,2022-07-28,合同会社富士見ヶ丘ソリューション,,合同会社,東京都,中央区,八丁堀４丁目２番１０号ＡＯＪ税理士法人内,,13,102,1040032,,,,,,,2022-07-28,1,,,,,フジミガオカソリューション,0
1814,8010003038277,新規,0,2022-07-28,2022-07-28,合同会社Ｆｕｋｕ‐ｙａ,,合同会社,東京都,中央区,銀座１丁目２８番１４号小張ビル１階,,13,102,1040061,,,,,,,2022-07-28,1,,,,,フクヤ,0
1815,8010005035355,新規,0,2022-07-28,2022-07-28,一般社団法人百道浜プロパティ,,その他の設立登記法人,東京都,中央区,日本橋１丁目４番１号,,13,102,1030027,,,,,,,2022-07-28,1,,,,,モモチハマプロパティ,0
1817,8010103001960,新規,0,2022-07-28,2022-07-28,合同会社ＬＥＡＰＲＯＭＯＴＥ,,合同会社,東京都,八王子市,長沼町１２０２番地３０４,,13,201,1920907,,,,,,,2022-07-28,1,,,,,リープロモート,0
1820,8010401168345,新規,0,2022-07-28,2022-07-28,三井物産シーフーズ株式会社,,株式会社,東京都,港区,芝公園２丁目４番１号,,13,103,1050011,,,,,,,2022-07-28,1,,,,,ミツイブッサンシーフーズ,0
1823,8010403028167,新規,0,2022-07-28,2022-07-28,芝公園合同会社,,合同会社,東京都,港区,元赤坂１丁目１番８号株式会社赤坂国際会計内,,13,103,1070051,,,,,,,2022-07-28,1,,,,,シバコウエン,0
1832,8010601061564,新規,0,2022-07-28,2022-07-28,ＭＯＲＥＳＰＯＯＮ株式会社,,株式会社,東京都,江東区,東雲１丁目９番１１号,,13,108,1350062,,,,,,,2022-07-28,1,,,,,モアスプーン,0
1837,8010703006335,新規,0,2022-07-28,2022-07-28,ルシード合同会社,,合同会社,東京都,品川区,戸越６丁目１８－１４ｒｏｏｍ－ｋ２０１,,13,109,1420041,,,,,,,2022-07-28,1,,,,,ルシード,0
1844,8011001148803,新規,0,2022-07-28,2022-07-28,株式会社ＺＲＩ,,株式会社,東京都,渋谷区,渋谷２丁目１９－１５宮益坂ビルディング６０９,,13,113,1500002,,,,,,,2022-07-28,1,,,,,ゼットアールアイ,0
1845,8011001148828,新規,0,2022-07-28,2022-07-28,株式会社マーケティングアプリケーションズ,,株式会社,東京都,渋谷区,千駄ヶ谷５丁目２７番５号,,13,113,1510051,,,,,,,2022-07-28,1,,,,,,0
1846,8011001148844,新規,0,2022-07-28,2022-07-28,株式会社ＴＦネクスト,,株式会社,東京都,渋谷区,鉢山町７番８－２０２号,,13,113,1500035,,,,,,,2022-07-28,1,,,,,ティーエフネクスト,0
1847,8011001148869,新規,0,2022-07-28,2022-07-28,株式会社ＳＵＭＯＭＯ,,株式会社,東京都,渋谷区,大山町３８番２２号,,13,113,1510065,,,,,,,2022-07-28,1,,,,,スモモ,0
1848,8011001148885,新規,0,2022-07-28,2022-07-28,ドットミューラ株式会社,,株式会社,東京都,渋谷区,神宮前６丁目２３番４号桑野ビル２階,,13,113,1500001,,,,,,,2022-07-28,1,,,,,ドットミューラ,0
1851,8011101099649,新規,0,2022-07-28,2022-07-28,達弘ホールディングス株式会社,,株式会社,東京都,新宿区,西新宿３丁目３番１３号西新宿水間ビル６階,,13,104,1600023,,,,,,,2022-07-28,1,,,,,タツグホールディングス,0
1852,8011101099657,新規,0,2022-07-28,2022-07-28,大禾健康産業発展株式会社,,株式会社,東京都,新宿区,西新宿３丁目３番－１３号西新宿水間ビル６階,,13,104,1600023,,,,,,,2022-07-28,1,,,,,ダイカケンコウサンギョウハッテン,0
1853,8011101099665,新規,0,2022-07-28,2022-07-28,株式会社Ｌａｓｔｉｎｇ,,株式会社,東京都,新宿区,西新宿６丁目５－１新宿アイランドタワー２０Ｆ,,13,104,1600023,,,,,,,2022-07-28,1,,,,,ラスティング,0
1854,8011103012015,新規,0,2022-07-28,2022-07-28,ＦＯＯＤＦＵＮ合同会社,,合同会社,東京都,新宿区,新宿１丁目１８番７号プラティーノ新宿御苑１階,,13,104,1600022,,,,,,,2022-07-28,1,,,,,フードファン,0
1862,8011501028323,新規,0,2022-07-28,2022-07-28,株式会社＿玲,00127346,株式会社,東京都,荒川区,町屋３丁目１－１３－３０５,,13,118,1160001,,,,,,,2022-07-28,1,,,,,シンリン,0
1868,8011701025491,新規,0,2022-07-28,2022-07-28,株式会社Ｌｕｐｉｎ　Ａｒｃｈｉｔｅｃｔ,,株式会社,東京都,江戸川区,西小岩４丁目５番６－４０４号,,13,123,1330057,,,,,,,2022-07-28,1,,,,,ルパンアーキテクト,0
1870,8011703003207,新規,0,2022-07-28,2022-07-28,ｆｕｓｅｆｕｌ合同会社,,合同会社,東京都,江戸川区,中葛西５丁目１６－２デュアルスイート葛西４０２号室,,13,123,1340083,,,,,,,2022-07-28,1,,,,,ファスフル,0
1871,8011801041059,新規,0,2022-07-28,2022-07-28,楽田株式会社,,株式会社,東京都,葛飾区,東新小岩７丁目１１番３号スカイピア新小岩ＩＩ１０３号室,00127344,13,122,1240023,,,,,,,2022-07-28,1,,,,,ラクデン,0
1883,8020001147509,新規,0,2022-07-28,2022-07-28,株式会社和ールド,,株式会社,神奈川県,横浜市磯子区,磯子８丁目４番１０１号,,14,107,2350016,,,,,,,2022-07-28,1,,,,,ワールド,0
1884,8020001147525,新規,0,2022-07-28,2022-07-28,株式会社ＤＡＩＴＯ,,株式会社,神奈川県,川崎市川崎区,浅田３丁目１６番１５号,,14,131,2100847,,,,,,,2022-07-28,1,,,,,ダイトウ,0
1893,8021003011982,新規,0,2022-07-28,2022-07-28,久合同会社,,合同会社,神奈川県,相模原市中央区,上溝１丁目７番９号,,14,152,2520243,,,,,,,2022-07-28,1,,,,,キュウ,0
1898,8030001149405,新規,0,2022-07-28,2022-07-28,株式会社ＤＩ　Ｊａｐａｎ,,株式会社,埼玉県,川口市,芝新町２－１１－２Ｆ,,11,203,3330851,,,,,,,2022-07-28,1,,,,,ディアイジャパン,0
1899,8030001149413,新規,0,2022-07-28,2022-07-28,株式会社Ｎａｕｃｈ,,株式会社,埼玉県,和光市,新倉１丁目３４番３０号志幸３１アンノン１０２号,,11,229,3510115,,,,,,,2022-07-28,1,,,,,ノーチ,0
1900,8030001149438,新規,0,2022-07-28,2022-07-28,株式会社リライズ,,株式会社,埼玉県,さいたま市見沼区,大字蓮沼８６６番地４,,11,104,3370015,,,,,,,2022-07-28,1,,,,,リライズ,0
1905,8040001124448,新規,0,2022-07-28,2022-07-28,株式会社リメックス,,株式会社,千葉県,船橋市,東船橋２丁目２番４号,,12,204,2730002,,,,,,,2022-07-28,1,,,,,リメックス,0
1908,8040003020496,新規,0,2022-07-28,2022-07-28,合同会社両総ファーム,,合同会社,千葉県,千葉市若葉区,上泉町２６７番地,,12,104,2650045,,,,,,,2022-07-28,1,,,,,リョウソウファーム,0
1909,8040003020513,新規,0,2022-07-28,2022-07-28,Ａｌｉｙｏｕ’ｓ　Ｔｒａｄｉｎｇ　Ｅｎｔｅｒｐｒｉｓｅ合同会社,,合同会社,千葉県,野田市,木間ケ瀬７２９番地１,,12,208,2700222,,,,,,,2022-07-28,1,,,,,アリヨウズトレーディングエンタープライズ,0
1915,8050003006726,新規,0,2022-07-28,2022-07-28,合同会社ＩＺＵ,,合同会社,茨城県,鹿嶋市,大字和７８９番地１３,,08,222,3112215,,,,,,,2022-07-28,1,,,,,イズ,0
1917,8060001035123,新規,0,2022-07-28,2022-07-28,ＱＡＲＩ　ＴＲＡＤＩＮＧ株式会社,,株式会社,栃木県,小山市,神鳥谷２丁目１３番２号いずみコーポ１０３号室,,09,208,3230034,,,,,,,2022-07-28,1,,,,,カリートレーディング,0
1919,8060003004167,新規,0,2022-07-28,2022-07-28,合同会社ＬＵＳＲ,,合同会社,栃木県,宇都宮市,陽東２丁目８番２０号サンイーストコーポＥ棟２０１号室,,09,201,3210904,,,,,,,2022-07-28,1,,,,,エルユーエスアール,0
1932,8100001035556,新規,0,2022-07-28,2022-07-28,株式会社インテリア・デンダ,,株式会社,長野県,長野市,大字長野横沢町７７１番地,,20,201,3800861,,,,,,,2022-07-28,1,,,,,インテリアデンダ,0
1945,8120001247546,新規,0,2022-07-28,2022-07-28,株式会社Ｙ＆Ｌ,,株式会社,大阪府,大阪市西成区,萩之茶屋１丁目７番３－６０２号,,27,122,5570004,,,,,,,2022-07-28,1,,,,,ワイアンドエル,0
1955,8120101065963,新規,0,2022-07-28,2022-07-28,株式會社中川工務店,,株式会社,大阪府,羽曳野市,白鳥１丁目３番１号２Ｂ,,27,222,5830856,,,,,,,2022-07-28,1,,,,,ナカガワコウムテン,0
1956,8120101065971,新規,0,2022-07-28,2022-07-28,広晋株式会社,,株式会社,大阪府,堺市中区,土塔町２１１７番地１０,,27,142,5998234,,,,,,,2022-07-28,1,,,,,コウシン,0
1964,8130001072282,新規,0,2022-07-28,2022-07-28,株式会社途途,,株式会社,京都府,京都市伏見区,深草極楽寺町７２番地１０,,26,109,6120886,,,,,,,2022-07-28,1,,,,,トト,0
1970,8140001126806,新規,0,2022-07-28,2022-07-28,オーサンテツク株式会社,,株式会社,兵庫県,西宮市,相生町１２番１６号,,28,204,6620063,,,,,,,2022-07-28,1,,,,,オーサンテツク,0
1971,8140001126855,新規,0,2022-07-28,2022-07-28,株式会社ＫＮＨ,,株式会社,兵庫県,宝塚市,山本丸橋１丁目１２番６号,,28,214,6650815,,,,,,,2022-07-28,1,,,,,ケーエヌエイチ,0
1972,8140001126863,新規,0,2022-07-28,2022-07-28,Ｍｓ’Ｓｕｐｐｏｒｔ株式会社,,株式会社,兵庫県,神戸市北区,道場町日下部１８２７番地グランディオーズ１０２号,,28,109,6511505,,,,,,,2022-07-28,1,,,,,エムズサポート,0
1973,8140001126888,新規,0,2022-07-28,2022-07-28,株式会社蔵野商事,,株式会社,兵庫県,伊丹市,昆陽３丁目２４８番地１,,28,207,6640881,,,,,,,2022-07-28,1,,,,,クラノショウジ,0
1976,8140003017953,新規,0,2022-07-28,2022-07-28,合同会社つながり,,合同会社,兵庫県,尼崎市,西立花町４丁目８番７号,,28,202,6600054,,,,,,,2022-07-28,1,,,,,ツナガリ,0
1981,8160001024405,新規,0,2022-07-28,2022-07-28,株式会社ＭＹＳコンサルティング,,株式会社,滋賀県,草津市,西矢倉３丁目１番６３－４０３号,,25,206,5250052,,,,,,,2022-07-28,1,,,,,エムワイエスコンサルティング,0
1986,8180001152328,新規,0,2022-07-28,2022-07-28,株式会社Ｋａｏｒｉ　Ｓｈｏｐｐｅ,,株式会社,愛知県,名古屋市港区,西福田３丁目８０４番地,,23,111,4550874,,,,,,,2022-07-28,1,,,,,カオリショッペ,0
1987,8180001152344,新規,0,2022-07-28,2022-07-28,Ｔ’ｓホーム株式会社,,株式会社,愛知県,あま市,下萱津末広２０番地１,,23,237,4901114,,,,,,,2022-07-28,1,,,,,ティーズホーム,0
2000,8190001029649,新規,0,2022-07-28,2022-07-28,ＳＵＬＴＡＮ　ＴＲＡＤＥＲＳ株式会社,,株式会社,三重県,桑名郡木曽岬町,大字富田子３１６－７,,24,303,4980813,,,,,,,2022-07-28,1,,,,,ソルタントレーダーズ,0
2002,8190005011727,新規,0,2022-07-28,2022-07-28,一般社団法人日本藍文化研究所,,その他の設立登記法人,三重県,いなべ市,大安町大井田２７１８番地１０,,24,214,5110274,,,,,,,2022-07-28,1,,,,,ニホンアイブンカケンキュウショ,0
2022,8260001037090,新規,0,2022-07-28,2022-07-28,株式会社トラシード,,株式会社,岡山県,総社市,金井戸４１５番地１,,33,208,7191114,,,,,,,2022-07-28,1,,,,,トラシード,0
2027,8290001098394,新規,0,2022-07-28,2022-07-28,株式会社エグゼクティブマクトー,,株式会社,福岡県,福岡市早良区,梅林７丁目１７番２号,,40,137,8140172,,,,,,,2022-07-28,1,,,,,エグゼクティブマクトー,0
2030,8290003012782,新規,0,2022-07-28,2022-07-28,合同会社ラムサビタ,,合同会社,福岡県,小郡市,祇園１丁目３番地２２レオパレスグランドールＩＩ２０３号,00127347,40,216,8380144,,,,,,,2022-07-28,1,,,,,ラムサビタ,0
2040,8360001030738,新規,0,2022-07-28,2022-07-28,株式会社沖縄リーフィングカンパニー,,株式会社,沖縄県,中頭郡北谷町,字吉原６９７番地９コンフォート北谷桃原パークサイド５０２,,47,326,9040105,,,,,,,2022-07-28,1,,,,,オキナワリーフィングカンパニー,0
2055,8420001017951,新規,0,2022-07-28,2022-07-28,株式会社プレコム,,株式会社,青森県,青森市,大字浜田字玉川１６１番地１ライブタウン浜田Ａ－３０１,,02,201,0300843,,,,,,,2022-07-28,1,,,,,プレコム,0
2056,8420003002547,新規,0,2022-07-28,2022-07-28,グローシード合同会社,,合同会社,青森県,弘前市,大字向外瀬３丁目１４番地９,,02,202,0368066,,,,,,,2022-07-28,1,,,,,グローシード,0
2061,8430001087143,新規,0,2022-07-28,2022-07-28,株式会社藤心工業,,株式会社,北海道,石狩市,花川南一条５丁目３６番地,,01,235,0613201,,,,,,,2022-07-28,1,,,,,トウシンコウギョウ,0
2082,9010001228309,新規,0,2022-07-28,2022-07-28,ＲＩＯ　ＳＵＺＵＳＡＷＡ株式会社,,株式会社,東京都,中央区,銀座３丁目７－１６ＮＳビル２Ｆ,,13,102,1040061,,,,,,,2022-07-28,1,,,,,リオスズサワ,0
2083,9010001228374,新規,0,2022-07-28,2022-07-28,ａｌｃｈｅｍｉ株式会社,,株式会社,東京都,千代田区,麹町５丁目３番地,,13,101,1020083,,,,,,,2022-07-28,1,,,,,アルケミ,0
2084,9010001228390,新規,0,2022-07-28,2022-07-28,株式会社ＣＯＮＣＥＮＴＲＩＣ,,株式会社,東京都,中央区,銀座３丁目１４番１３号５Ｆ,,13,102,1040061,,,,,,,2022-07-28,1,,,,,コンセントリック,0
2093,9010003038243,新規,0,2022-07-28,2022-07-28,合同会社ＴＡＫＡＫＯ,,合同会社,東京都,中央区,銀座１丁目２２－１１銀座大竹ビジデンス２階,,13,102,1040061,,,,,,,2022-07-28,1,,,,,タカコ,0
2094,9010003038284,新規,0,2022-07-28,2022-07-28,合同会社ＫＲＦ１００,,合同会社,東京都,千代田区,内幸町２丁目１番６号,,13,101,1000011,,,,,,,2022-07-28,1,,,,,ケイアールエフヒャク,0
2098,9010403028166,新規,0,2022-07-28,2022-07-28,淡路サステナブルソーラー合同会社,,合同会社,東京都,港区,元赤坂１丁目１番７号,,13,103,1070051,,,,,,,2022-07-28,1,,,,,アワジサステナブルソーラー,0
2100,9010405021185,新規,0,2022-07-28,2022-07-28,一般社団法人Ｈｕｍｍｉｎｇ　ｆｏｒ　ＰＥＡＣＥ,,その他の設立登記法人,東京都,港区,南青山５丁目１番１０－８０７号,,13,103,1070062,,,,,,,2022-07-28,1,,,,,ハミングフォーピース,0
2104,9010605004106,新規,0,2022-07-28,2022-07-28,一般社団法人ＤＸ界,,その他の設立登記法人,東京都,墨田区,太平２丁目３番１３号廣瀬ビル２Ｆ,,13,107,1300012,,,,,,,2022-07-28,1,,,,,ディーエックスカイ,0
2110,9010703006334,新規,0,2022-07-28,2022-07-28,ウィルゴ合同会社,,合同会社,東京都,品川区,上大崎２丁目１８番２５号,,13,109,1410021,,,,,,,2022-07-28,1,,,,,ウィルゴ,0
2112,9010801033156,新規,0,2022-07-28,2022-07-28,株式会社ＡＰＳ,,株式会社,東京都,大田区,南雪谷２丁目１９番３号２階,,13,111,1450066,,,,,,,2022-07-28,1,,,,,エーピーエス,0
2114,9010901051306,新規,0,2022-07-28,2022-07-28,株式会社ＳＯ,,株式会社,東京都,世田谷区,上馬４丁目１８番１８号,,13,112,1540011,,,,,,,2022-07-28,1,,,,,エスオー,0
2116,9011001148835,新規,0,2022-07-28,2022-07-28,インフィニティ株式会社,,株式会社,東京都,渋谷区,円山町５番５号Ｎａｖｉ渋谷ｖ３階,,13,113,1500044,,,,,,,2022-07-28,1,,,,,インフィニティ,0
2117,9011001148868,新規,0,2022-07-28,2022-07-28,株式会社ＭＯＭＯ,,株式会社,東京都,渋谷区,大山町３８番２２号,,13,113,1510065,,,,,,,2022-07-28,1,,,,,モモ,0
2120,9011005009661,新規,0,2022-07-28,2022-07-28,一般社団法人諒陽会,,その他の設立登記法人,東京都,渋谷区,広尾５丁目４番１６号ＥＡＴＰＬＡＹＷＯＲＫＳ３階,,13,113,1500012,,,,,,,2022-07-28,1,,,,,リョウヨウカイ,0
2126,9011101099648,新規,0,2022-07-28,2022-07-28,株式会社アンダーレイズ,,株式会社,東京都,新宿区,西新宿３丁目３番１３号西新宿水間ビル６階,,13,104,1600023,,,,,,,2022-07-28,1,,,,,アンダーレイズ,0
2127,9011101099656,新規,0,2022-07-28,2022-07-28,済慈健康産業発展株式会社,,株式会社,東京都,新宿区,西新宿３丁目３番－１３号西新宿水間ビル６階,,13,104,1600023,,,,,,,2022-07-28,1,,,,,サイジケンコウサンギョウハッテン,0
2128,9011101099689,新規,0,2022-07-28,2022-07-28,株式会社ＭＡＳＴ,,株式会社,東京都,新宿区,新宿１丁目３６番２号新宿第七葉山ビル３階,,13,104,1600022,,,,,,,2022-07-28,1,,,,,マスト,0
2132,9011401024438,新規,0,2022-07-28,2022-07-28,株式会社ＡＭＢＥＲ,,株式会社,東京都,板橋区,常盤台１丁目１番１号,,13,119,1740071,,,,,,,2022-07-28,1,,,,,アンバー,0
2133,9011601026135,新規,0,2022-07-28,2022-07-28,株式会社ＶＥＬＡＯＥ,,株式会社,東京都,練馬区,栄町１番２号,,13,120,1760006,,,,,,,2022-07-28,1,,,,,ヴェラオエ,0
2134,9011603003660,新規,0,2022-07-28,2022-07-28,合同会社Ｒｅｖｅｌｉｚｅ,,合同会社,東京都,練馬区,平和台１丁目２９番２号,,13,120,1790083,,,,,,,2022-07-28,1,,,,,レヴライズ,0
2137,9011703003206,新規,0,2022-07-28,2022-07-28,合同会社Ｙｏｒｏｚｕｙａ神楽月,,合同会社,東京都,江戸川区,西葛西６丁目９番１０号,,13,123,1340088,,,,,,,2022-07-28,1,,,,,ヨロズヤカグラズキ,0
2153,9020001147524,新規,0,2022-07-28,2022-07-28,ユネットジャパン株式会社,,株式会社,神奈川県,横浜市旭区,鶴ケ峰本町２丁目２番１号青木ビル１０２号室,,14,112,2410021,,,,,,,2022-07-28,1,,,,,ユネットジャパン,0
2157,9020003022163,新規,0,2022-07-28,2022-07-28,合同会社とまゆ,,合同会社,神奈川県,横浜市中区,山下町１５８番地１パークホームズ横濱山下町１０１３,,14,104,2310023,,,,,,,2022-07-28,1,,,,,トマユ,0
2163,9021003011981,新規,0,2022-07-28,2022-07-28,ＡＲＴ商事合同会社,,合同会社,神奈川県,座間市,立野台２丁目２０番２０－３号,,14,216,2520023,,,,,,,2022-07-28,1,,,,,,0
2181,9030003019869,新規,0,2022-07-28,2022-07-28,合同会社カリフォルニアＴシャツ,,合同会社,埼玉県,羽生市,南７丁目１２番３号,,11,216,3480053,,,,,,,2022-07-28,1,,,,,カリフォルニアティシャツ,0
2188,9040001124447,新規,0,2022-07-28,2022-07-28,ＢＡＳＥＥＲ　ＴＲＡＤＩＮＧ　ＣＯＭＰＡＮＹ株式会社,,株式会社,千葉県,野田市,関宿江戸町１１９番地,,12,208,2700205,,,,,,,2022-07-28,1,,,,,バスィルトレーディングカンパニー,0
2189,9040001124463,新規,0,2022-07-28,2022-07-28,株式会社ビニビニ,,株式会社,千葉県,船橋市,本町４丁目３７番１９－４０３号,,12,204,2730005,,,,,,,2022-07-28,1,,,,,ビニビニ,0
2192,9050001051467,新規,0,2022-07-28,2022-07-28,株式会社ＢＨＩＭＳＥＮ,,株式会社,茨城県,水戸市,元吉田町１３９７番地の２,,08,201,3100836,,,,,,,2022-07-28,1,,,,,ビムセン,0
2195,9060001035122,新規,0,2022-07-28,2022-07-28,Ｗｅｌｆｓ株式会社,,株式会社,栃木県,那須塩原市,沓掛６９０番地３号しらかばハイツ１０１号室,,09,213,3293133,,,,,,,2022-07-28,1,,,,,ウェルフス,0
2199,9070001039485,新規,0,2022-07-28,2022-07-28,ロスティ株式会社,,株式会社,群馬県,甘楽郡甘楽町,大字秋畑１４４７番地,,10,384,3702204,,,,,,,2022-07-28,1,,,,,ロスティ,0
2202,9100001035555,新規,0,2022-07-28,2022-07-28,株式会社Ｍ・Ｉ・Ｏ,,株式会社,長野県,松本市,大字中山１１７８番地６,,20,202,3900823,,,,,,,2022-07-28,1,,,,,エムアイオー,0
2203,9110001036833,新規,0,2022-07-28,2022-07-28,一林林業株式会社,,株式会社,新潟県,村上市,小俣３２６番地２,,15,212,9593914,,,,,,,2022-07-28,1,,,,,,0
2214,9120003022153,新規,0,2022-07-28,2022-07-28,合同会社ｔｏ　ｂｅ　Ｙｕ‐ｓｅｆｕｌ,,合同会社,大阪府,寝屋川市,太秦東が丘３４－２１,,27,215,5720841,,,,,,,2022-07-28,1,,,,,トゥビーユージフル,0
2215,9120003022161,新規,0,2022-07-28,2022-07-28,ｆｕｔｕｒｅ　ｓｙｓｔｅｍｓ合同会社,,合同会社,大阪府,大阪市中央区,日本橋１丁目１７番１７号ピカソ日本一ビル６０４号室,,27,128,5420073,,,,,,,2022-07-28,1,,,,,フューチャーシステムズ,0
2222,9130001072281,新規,0,2022-07-28,2022-07-28,株式会社快適住設,,株式会社,京都府,宇治市,神明宮西３４－６,,26,204,6110025,,,,,,,2022-07-28,1,,,,,カイテキジュウセツ,0
2226,9140001126862,新規,0,2022-07-28,2022-07-28,株式会社ＹＯＬＯ,,株式会社,兵庫県,伊丹市,宮ノ前１丁目２番１０－９０１号,,28,207,6640895,,,,,,,2022-07-28,1,,,,,ヨロ,0
2227,9140001126895,新規,0,2022-07-28,2022-07-28,株式会社ｗｉｔｈｅｅ,,株式会社,兵庫県,神戸市中央区,北長狭通６丁目２番１５号１０５号室,,28,110,6500012,,,,,,,2022-07-28,1,,,,,ウィズィー,0
2228,9140001126904,新規,0,2022-07-28,2022-07-28,日豊株式会社,,株式会社,兵庫県,神戸市灘区,摩耶海岸通１丁目１番４－１０５号,,28,102,6570855,,,,,,,2022-07-28,1,,,,,ニッホウ,0
2240,9170001017209,新規,0,2022-07-28,2022-07-28,株式会社Ｃ．Ｐ．Ｅ,,株式会社,和歌山県,和歌山市,吹屋町２丁目２０番地２,,30,201,6408324,,,,,,,2022-07-28,1,,,,,シーピーイー,0
2242,9180003024086,新規,0,2022-07-28,2022-07-28,合同会社ＮＡＷＯＳＡ,,合同会社,愛知県,名古屋市中村区,名駅南３丁目１２番３５号山中ハイツ３Ａ,,23,105,4500003,,,,,,,2022-07-28,1,,,,,ナオサ,0
2243,9180005019869,新規,0,2022-07-28,2022-07-28,一般社団法人あいぼう,,その他の設立登記法人,愛知県,春日井市,大留町１丁目１６番地１,,23,206,4870024,,,,,,,2022-07-28,1,,,,,アイボウ,0
2258,9240001060119,新規,0,2022-07-28,2022-07-28,株式会社一昇工業,,株式会社,広島県,広島市佐伯区,皆賀１丁目９番４８号,,34,108,7315124,,,,,,,2022-07-28,1,,,,,イッショウコウギョウ,0
2268,9290003012773,新規,0,2022-07-28,2022-07-28,合同会社ＷＨ＆Ｆ．,,合同会社,福岡県,福岡市中央区,天神４丁目６番２８号天神ファーストビル７階,,40,133,8100001,,,,,,,2022-07-28,1,,,,,ダブリューエイチアンドエフ,0
2295,9430003014128,新規,0,2022-07-28,2022-07-28,合同会社ぴりかちゅぷる,,合同会社,北海道,札幌市厚別区,厚別西二条４丁目２番１８号,,01,108,0040062,,,,,,,2022-07-28,1,,,,,ピリカチュプル,0
2298,9470001019174,新規,0,2022-07-28,2022-07-28,香川宮地電機株式会社,,株式会社,香川県,高松市,木太町２３８０番地,,37,201,7600080,,,,,,,2022-07-28,1,,,,,カガワミヤジデンキ,0
2305,9700150110627,新規,0,2022-07-28,2022-06-30,ゆるリラらんど実行委員会,,その他,兵庫県,神戸市西区,櫨谷町池谷７２２－１,,28,111,6512234,,,,,,,2022-06-30,1,,,,,ユルリラランドジツコウイインカイ,0
