sequenceNumber,corporateNumber,process,correct,updateDate,changeDate,name,nameImageId,kind,prefectureName,cityName,streetNumber,addressImageId,prefectureCode,cityCode,postCode,addressOutside,addressOutsideImageId,closeDate,closeCause,successorCorporateNumber,changeCause,assignmentDate,latest,enName,enPrefectureName,enCityName,enAddressOutside,furigana,hihyoji
5,1010001243067,新規,0,2024-03-18,2024-03-18,株式会社ＪＲＥ,,株式会社,東京都,中央区,明石町５番２７号,,13,102,1040044,,,,,,,2024-03-18,1,,,,,ジェイアールイー,0
6,1010001243075,新規,0,2024-03-18,2024-03-18,福田商事株式会社,,株式会社,東京都,千代田区,飯田橋１丁目９番６号,,13,101,1020072,,,,,,,2024-03-18,1,,,,,フクダショウジ,0
7,1010001243083,新規,0,2024-03-18,2024-03-18,株式会社ワットクラウドジャパン,,株式会社,東京都,千代田区,平河町１丁目６番１５号ＵＳビル８階,,13,101,1020093,,,,,,,2024-03-18,1,,,,,ワットクラウドジャパン,0
8,1010001243117,新規,0,2024-03-18,2024-03-18,株式会社Ｇ．ｃｏｍ　Ｒ＆Ｍ,,株式会社,東京都,千代田区,内神田２丁目７番１３号山手ビル３号館３階,,13,101,1010047,,,,,,,2024-03-18,1,,,,,ジードットコムアールアンドエム,0
9,1010001243133,新規,0,2024-03-18,2024-03-18,株式会社ＲＥＶＥＲ,,株式会社,東京都,中央区,銀座１丁目２２番１１号銀座大竹ビジデンス２Ｆ,,13,102,1040061,,,,,,,2024-03-18,1,,,,,リヴェル,0
12,1010003043218,新規,0,2024-03-18,2024-03-18,合同会社Ｗｅｌｌ‐ｂｅｉｎｇ　Ａｓｓｅｔ,,合同会社,東京都,千代田区,岩本町１丁目１２番１２号グランパレ４０１,,13,101,1010032,,,,,,,2024-03-18,1,,,,,ウェルビーイングアセット,0
14,1010005038042,新規,0,2024-03-18,2024-03-18,一般社団法人ＬＥＡＰ,,その他の設立登記法人,東京都,文京区,関口３丁目６番５号,,13,105,1120014,,,,,,,2024-03-18,1,,,,,リープ,0
15,1010005038059,新規,0,2024-03-18,2024-03-18,流山１１ロジスティック特定目的会社,,その他の設立登記法人,東京都,中央区,八重洲２丁目２番１号,,13,102,1040028,,,,,,,2024-03-18,1,,,,,ナガレヤマイレブンロジスティック,0
21,1010401181032,新規,0,2024-03-18,2024-03-18,サンバンダ株式会社,,株式会社,東京都,港区,浜松町２丁目２番１５号浜松町ダイヤビル２Ｆ,,13,103,1050013,,,,,,,2024-03-18,1,,,,,サンバンダ,0
22,1010401181057,新規,0,2024-03-18,2024-03-18,株式会社ＭＫ２号,,株式会社,東京都,港区,元麻布３丁目７番５号３１４,,13,103,1060046,,,,,,,2024-03-18,1,,,,,エムケイニゴウ,0
23,1010401181065,新規,0,2024-03-18,2024-03-18,株式会社モルテン・ソルト・スチール,,株式会社,東京都,港区,赤坂９丁目２－９－４０９,,13,103,1070052,,,,,,,2024-03-18,1,,,,,モルテンソルトスチール,0
25,1010403032183,新規,0,2024-03-18,2024-03-18,合同会社ガオケレナ,,合同会社,東京都,港区,南青山２丁目２番１５号,,13,103,1070062,,,,,,,2024-03-18,1,,,,,ガオケレナ,0
26,1010501051936,新規,0,2024-03-18,2024-03-18,株式会社ＳＳコミュニケーション,,株式会社,東京都,台東区,上野６丁目１番６号,,13,106,1100005,,,,,,,2024-03-18,1,,,,,エスエスコミュニケーション,0
27,1010501051944,新規,0,2024-03-18,2024-03-18,株式会社Ｈｉｋｏｕｓｅｎ,,株式会社,東京都,台東区,清川１丁目２１－５ＷＡＬＬａｐａｒｔｍｅｎｔ５階大区画号室,,13,106,1110022,,,,,,,2024-03-18,1,,,,,ヒコウセン,0
28,1010501051952,新規,0,2024-03-18,2024-03-18,らくらく暮らし株式会社,,株式会社,東京都,台東区,東上野５丁目１０番２号東上野共同ビル２０１,,13,106,1100015,,,,,,,2024-03-18,1,,,,,ラクラククラシ,0
32,1010701045696,新規,0,2024-03-18,2024-03-18,株式会社ｖｉａｌｕｔｅ,,株式会社,東京都,品川区,東品川４丁目１２番９－１７１２,,13,109,1400002,,,,,,,2024-03-18,1,,,,,ヴィアルテ,0
33,1010703007091,新規,0,2024-03-18,2024-03-18,合同会社あんしん住まい,,合同会社,東京都,品川区,東品川３丁目１１番１７－２１８号,,13,109,1400002,,,,,,,2024-03-18,1,,,,,アンシンスマイ,0
35,1010901054877,新規,0,2024-03-18,2024-03-18,株式会社ノイエス,,株式会社,東京都,世田谷区,三軒茶屋１丁目６番４号,,13,112,1540024,,,,,,,2024-03-18,1,,,,,ノイエス,0
36,1010903008880,新規,0,2024-03-18,2024-03-18,合同会社Ｎｕｍｂｅｒ９,,合同会社,東京都,世田谷区,松原６丁目１－１５ファインクレスト５０１,,13,112,1560043,,,,,,,2024-03-18,1,,,,,ナンバーナイン,0
39,1011001160632,新規,0,2024-03-18,2024-03-18,株式会社ＣＯＣＯ,,株式会社,東京都,渋谷区,道玄坂１丁目１０番８号渋谷道玄坂東急ビル２Ｆ－Ｃ,,13,113,1500043,,,,,,,2024-03-18,1,,,,,ココ,0
40,1011001160665,新規,0,2024-03-18,2024-03-18,株式会社Ｌｅｓｓ,,株式会社,東京都,渋谷区,渋谷２丁目１９－１５宮益坂ビルディング６０９,,13,113,1500002,,,,,,,2024-03-18,1,,,,,レス,0
43,1011003018663,新規,0,2024-03-18,2024-03-18,ＲｉＴｉ合同会社,,合同会社,東京都,渋谷区,円山町５－５Ｎａｖｉ渋谷Ｖ３階,,13,113,1500044,,,,,,,2024-03-18,1,,,,,リティ,0
48,1011301029511,新規,0,2024-03-18,2024-03-18,株式会社観濤舎,,株式会社,東京都,杉並区,上荻２丁目３９番１３号,,13,115,1670043,,,,,,,2024-03-18,1,,,,,カントウシャ,0
49,1011303005089,新規,0,2024-03-18,2024-03-18,ＴＵＭＯ合同会社,,合同会社,東京都,杉並区,高円寺南２丁目１番１５号ＣｕｂｉｋＯｆｆｉｃｅ東高円寺１０８,,13,115,1660003,,,,,,,2024-03-18,1,,,,,ツモ,0
56,1011603004278,新規,0,2024-03-18,2024-03-18,プラス・シー合同会社,,合同会社,東京都,練馬区,西大泉１丁目３７―２６,,13,120,1780065,,,,,,,2024-03-18,1,,,,,プラスシー,0
58,1011801043929,新規,0,2024-03-18,2024-03-18,弘運株式会社,,株式会社,東京都,葛飾区,堀切５丁目５０番１８号,,13,122,1240006,,,,,,,2024-03-18,1,,,,,コウウン,0
61,1012403006456,新規,0,2024-03-18,2024-03-18,合同会社バッキーストック,,合同会社,東京都,小金井市,中町３丁目１番４号,,13,210,1840012,,,,,,,2024-03-18,1,,,,,バッキーストック,0
63,1012801023037,新規,0,2024-03-18,2024-03-18,株式会社ＥＲＵＳＨＥＥ,,株式会社,東京都,立川市,柴崎町２丁目６番３号,,13,202,1900023,,,,,,,2024-03-18,1,,,,,エルシー,0
66,1013303007049,新規,0,2024-03-18,2024-03-18,合同会社ＫＪダイニング,,合同会社,東京都,豊島区,池袋２丁目５６番１号トップ１１０１号室,,13,116,1710014,,,,,,,2024-03-18,1,,,,,ケイジェイダイニング,0
67,1013305003582,新規,0,2024-03-18,2024-03-18,医療法人社団Ｐａｉｎｌｅｓｓ　Ｄｅｎｔｉｓｔ,,その他の設立登記法人,東京都,豊島区,東池袋１丁目３６番１号第２Ｙ・Ｈビル４階,,13,116,1700013,,,,,,,2024-03-18,1,,,,,ペインレスデンティスト,0
72,1020001156268,新規,0,2024-03-18,2024-03-18,株式会社Ｕｎｉｔｅ　Ｋｎｏｔ,,株式会社,神奈川県,川崎市幸区,戸手本町１丁目７番地２,,14,132,2120023,,,,,,,2024-03-18,1,,,,,ユナイトノット,0
73,1020001156350,新規,0,2024-03-18,2024-03-18,株式会社サンクリエイト,,株式会社,神奈川県,川崎市宮前区,野川本町１丁目８番３３－６０７号エスペランサ野川,,14,136,2160041,,,,,,,2024-03-18,1,,,,,サンクリエイト,0
77,1020003025743,新規,0,2024-03-18,2024-03-18,合同会社Ｔ＆Ｊ,,合同会社,神奈川県,川崎市宮前区,西野川３丁目２番３５号,,14,136,2160044,,,,,,,2024-03-18,1,,,,,ティーアンドジェイ,0
79,1020005016303,新規,0,2024-03-18,2024-03-18,医療法人輝,,その他の設立登記法人,神奈川県,横浜市戸塚区,戸塚町６００５番地１フローリッシュテラス１階,,14,110,2440003,,,,,,,2024-03-18,1,,,,,カガヤキ,0
82,1021001081712,新規,0,2024-03-18,2024-03-18,株式会社ｅｘｃｙａ,,株式会社,神奈川県,横須賀市,大滝町１丁目９番地大滝町ビル６Ｆ,,14,201,2380008,,,,,,,2024-03-18,1,,,,,エクシア,0
83,1021001081720,新規,0,2024-03-18,2024-03-18,株式会社アイデアル,,株式会社,神奈川県,相模原市中央区,清新１丁目１－１７アラキビル２Ｆ,,14,152,2520216,,,,,,,2024-03-18,1,,,,,アイデアル,0
85,1021003014265,新規,0,2024-03-18,2024-03-18,合同会社Ｉｎｃｉｔｅ,,合同会社,神奈川県,三浦郡葉山町,堀内９３８番地の１４,,14,301,2400112,,,,,,,2024-03-18,1,,,,,インサイト,0
86,1021005013042,新規,0,2024-03-18,2024-03-18,医療法人Ｆ．Ｄ．Ｃ,,その他の設立登記法人,神奈川県,相模原市南区,相模大野８丁目６番６号ラ‐コルヌイエ相模大野２階,,14,153,2520303,,,,,,,2024-03-18,1,,,,,エフディーシー,0
89,1030001159245,新規,0,2024-03-18,2024-03-18,Ａ’ｓ株式会社,,株式会社,埼玉県,上尾市,大字領家９５番地３５,,11,219,3620066,,,,,,,2024-03-18,1,,,,,エース,0
90,1030001159261,新規,0,2024-03-18,2024-03-18,株式会社みな食品,,株式会社,埼玉県,八潮市,大字浮塚４７３―２,,11,234,3400835,,,,,,,2024-03-18,1,,,,,ミナショクヒン,0
92,1030003023829,新規,0,2024-03-18,2024-03-18,ふく福合同会社,,合同会社,埼玉県,蕨市,中央１丁目２９番５号マキヤビル１Ｆ,,11,223,3350004,,,,,,,2024-03-18,1,,,,,フクフク,0
100,1040001132622,新規,0,2024-03-18,2024-03-18,株式会社スモールラボ,,株式会社,千葉県,千葉市若葉区,御成台２丁目１１番地５,,12,104,2650077,,,,,,,2024-03-18,1,,,,,スモールラボ,0
101,1040001132647,新規,0,2024-03-18,2024-03-18,大晃ホールディングス株式会社,,株式会社,千葉県,印西市,鎌苅６７６番地７,,12,231,2701613,,,,,,,2024-03-18,1,,,,,ダイコウホールディングス,0
102,1040001132655,新規,0,2024-03-18,2024-03-18,款東西株式会社,,株式会社,千葉県,印西市,原３丁目２番地１１９,,12,231,2701335,,,,,,,2024-03-18,1,,,,,カントウザイ,0
103,1040001132713,新規,0,2024-03-18,2024-03-18,Ｒａｙｔｈ株式会社,,株式会社,千葉県,市原市,市原２２４－７,,12,219,2900015,,,,,,,2024-03-18,1,,,,,レイス,0
108,1040003024545,新規,0,2024-03-18,2024-03-18,合同会社Ｍ＆Ｉ,,合同会社,千葉県,市原市,ちはら台東６丁目１番地１５５,,12,219,2900141,,,,,,,2024-03-18,1,,,,,エムアンドアイ,0
109,1040003024561,新規,0,2024-03-18,2024-03-18,合同会社愛ふれーる,,合同会社,千葉県,柏市,豊四季１２６－７根本ハイツ２０１,,12,217,2770863,,,,,,,2024-03-18,1,,,,,アイフレール,0
113,1050005013405,新規,0,2024-03-18,2024-03-18,一般社団法人わん・にゃん天国,,その他の設立登記法人,茨城県,土浦市,東崎町４番２５号,,08,203,3000031,,,,,,,2024-03-18,1,,,,,ワンニャンテンゴク,0
116,1060001036920,新規,0,2024-03-18,2024-03-18,株式会社ＳＬＳ,,株式会社,栃木県,宇都宮市,塙田３丁目１番１６号,,09,201,3200027,,,,,,,2024-03-18,1,,,,,エスエルエス,0
118,1060003004966,新規,0,2024-03-18,2024-03-18,合同会社ＣＨＯＫＯＳＯＲＡ,,合同会社,栃木県,佐野市,越名町２０５５番地２,,09,204,3270822,,,,,,,2024-03-18,1,,,,,チョコソラ,0
124,1080001026176,新規,0,2024-03-18,2024-03-18,ＹＣＨＤ株式会社,,株式会社,静岡県,静岡市駿河区,小鹿２丁目２４番１号,,22,102,4228021,,,,,,,2024-03-18,1,,,,,ワイシーエイチディー,0
128,1080401027063,新規,0,2024-03-18,2024-03-18,株式会社ＬＩＣＯＬＡＳ,,株式会社,静岡県,浜松市中央区,山下町２番地の１,,22,138,4300941,,,,,,,2024-03-18,1,,,,,リコラス,0
129,1080403004969,新規,0,2024-03-18,2024-03-18,ＯＮＮＥＬＡ合同会社,,合同会社,静岡県,菊川市,西方５３７１番地の６,,22,224,4390037,,,,,,,2024-03-18,1,,,,,オンネラ,0
133,1100005013143,新規,0,2024-03-18,2024-03-18,一般社団法人長野県小児在宅医療支援センターエムテラス,,その他の設立登記法人,長野県,松本市,旭３丁目１番１号信州大学医学部内,,20,202,3900802,,,,,,,2024-03-18,1,,,,,ナガノケンショウニザイダクイリョウシエンセンターエムテラス,0
134,1110001038259,新規,0,2024-03-18,2024-03-18,株式会社プレイワーク,,株式会社,新潟県,新潟市中央区,山二ツ５３４番地１,,15,103,9500922,,,,,,,2024-03-18,1,,,,,プレイワーク,0
140,1120001263161,新規,0,2024-03-18,2024-03-18,株式会社ＲＡＩＢＯＯ,,株式会社,大阪府,大阪市城東区,成育１丁目６番１号,,27,118,5360007,,,,,,,2024-03-18,1,,,,,ライボー,0
141,1120001263186,新規,0,2024-03-18,2024-03-18,株式会社ルエルコーポレーション,,株式会社,大阪府,大阪市中央区,北久宝寺町２丁目５番１１号ＭＩＺＵＹＡビル１Ｆ,,27,128,5410057,,,,,,,2024-03-18,1,,,,,ルエルコーポレーション,0
142,1120001263194,新規,0,2024-03-18,2024-03-18,東吉株式会社,,株式会社,大阪府,大阪市淀川区,木川西４丁目２番１６－６０８,,27,123,5320013,,,,,,,2024-03-18,1,,,,,トウキチ,0
143,1120001263211,新規,0,2024-03-18,2024-03-18,株式会社民泊マネジメント,,株式会社,大阪府,大阪市浪速区,幸町１丁目２番９号ＲＥ－００５．３０１号室,,27,111,5560021,,,,,,,2024-03-18,1,,,,,ミンパクマネジメント,0
152,1120101069244,新規,0,2024-03-18,2024-03-18,株式会社ＮＯＬＦＣ,,株式会社,大阪府,羽曳野市,白鳥３丁目６番１２号,,27,222,5830856,,,,,,,2024-03-18,1,,,,,ノルフィック,0
153,1120101069260,新規,0,2024-03-18,2024-03-18,株式会社リノアス不動産,,株式会社,大阪府,堺市南区,富蔵３５８,,27,145,5900127,,,,,,,2024-03-18,1,,,,,リノアスフドウサン,0
155,1120103005718,新規,0,2024-03-18,2024-03-18,合同会社ｉＳｐｒｏｕｔ,,合同会社,大阪府,堺市西区,津久野町１丁７番４０号ヴェリテ津久野ａｃｔ１２０３号,,27,144,5938322,,,,,,,2024-03-18,1,,,,,アイスプラウト,0
156,1120103005734,新規,0,2024-03-18,2024-03-18,合同会社ＨＥＡＲＴＢＥＡＴ,,合同会社,大阪府,堺市北区,新金岡町５丁３番５２４号,,27,146,5918021,,,,,,,2024-03-18,1,,,,,ハートビート,0
159,1120903005082,新規,0,2024-03-18,2024-03-18,ＯＡｓｉｓ合同会社,,合同会社,大阪府,吹田市,青葉丘北７番２号,,27,205,5650801,,,,,,,2024-03-18,1,,,,,オアシス,0
163,1130001076538,新規,0,2024-03-18,2024-03-18,株式会社一雷,,株式会社,京都府,京都市東山区,祇園町北側３４７番地３６オリエンタル会館１０２,00134090,26,105,6050073,,,,,,,2024-03-18,1,,,,,イチライ,0
171,1140001133684,新規,0,2024-03-18,2024-03-18,ＯＰＴ株式会社,,株式会社,兵庫県,神戸市中央区,山本通１丁目６番１３号,,28,110,6500003,,,,,,,2024-03-18,1,,,,,オーピーティー,0
172,1140001133692,新規,0,2024-03-18,2024-03-18,株式会社カルデック,,株式会社,兵庫県,神戸市垂水区,星陵台５丁目２番１０号,,28,108,6550038,,,,,,,2024-03-18,1,,,,,カルデック,0
173,1140001133701,新規,0,2024-03-18,2024-03-18,株式会社ＵＤ,,株式会社,兵庫県,姫路市,飾磨区城南町２丁目１番地５０１,,28,201,6728083,,,,,,,2024-03-18,1,,,,,ユーディー,0
174,1140001133800,新規,0,2024-03-18,2024-03-18,ＲＳＳ．株式会社,,株式会社,兵庫県,神戸市西区,玉津町今津５５４番７号,,28,111,6512128,,,,,,,2024-03-18,1,,,,,アールエスエス,0
179,1150001027142,新規,0,2024-03-18,2024-03-18,株式会社ＦａｎＴａＳｙ,,株式会社,奈良県,橿原市,新賀町１７４－１３,,29,205,6340006,,,,,,,2024-03-18,1,,,,,ファンタジー,0
180,1160001025748,新規,0,2024-03-18,2024-03-18,Ｃｏｕｒａｇｅ株式会社,,株式会社,滋賀県,大津市,大石中４丁目２番２号,,25,201,5202263,,,,,,,2024-03-18,1,,,,,クラージュ,0
195,1180001160527,新規,0,2024-03-18,2024-03-18,Ａ・Ａ　Ｉｎｔｅｒｎａｔｉｏｎａｌ株式会社,,株式会社,愛知県,名古屋市中川区,春田４丁目２４（シーズンコート春田３０５）,,23,110,4540985,,,,,,,2024-03-18,1,,,,,エイエイインターナショナル,0
196,1180001160568,新規,0,2024-03-18,2024-03-18,株式会社勝建工業,,株式会社,愛知県,海部郡大治町,大字西條字大辻４４番地の１,00134088,23,424,4901144,,,,,,,2024-03-18,1,,,,,ショウケンコウギョウ,0
205,1180005020545,新規,0,2024-03-18,2024-03-18,医療法人樹林,,その他の設立登記法人,愛知県,弥富市,鯏浦町車東４１番地１,,23,235,4980021,,,,,,,2024-03-18,1,,,,,キリン,0
213,1200001042276,新規,0,2024-03-18,2024-03-18,株式会社ＧＡＲＯ,,株式会社,岐阜県,不破郡垂井町,綾戸１６２番地の３,,21,361,5032112,,,,,,,2024-03-18,1,,,,,ガロ,0
214,1200001042284,新規,0,2024-03-18,2024-03-18,株式会社Ｙ‐Ｂｅａｕｔｙ,,株式会社,岐阜県,高山市,花岡町３丁目８０番地８番,,21,203,5060009,,,,,,,2024-03-18,1,,,,,ワイビューティー,0
218,1200003006270,新規,0,2024-03-18,2024-03-18,合同会社純菜,,合同会社,岐阜県,美濃市,大矢田２０１２番地３,,21,207,5013771,,,,,,,2024-03-18,1,,,,,ジュンナ,0
219,1200005013579,新規,0,2024-03-18,2024-03-18,一般社団法人ぎふの田舎へいこう推進協議会,,その他の設立登記法人,岐阜県,郡上市,明宝二間手６０６番地１,,21,219,5014307,,,,,,,2024-03-18,1,,,,,ギフノイナカヘイコウスイシンキョウギカイ,0
220,1210003001766,新規,0,2024-03-18,2024-03-18,合同会社ＹＡＷＮＹＡＷＮ,,合同会社,福井県,越前市,国府１丁目１番５号,,18,209,9150076,,,,,,,2024-03-18,1,,,,,ヨーンヨーン,0
221,1210005010138,新規,0,2024-03-18,2024-03-18,一般社団法人アグリサポート白山,,その他の設立登記法人,福井県,越前市,堀町第１１号１４番地,,18,209,9151211,,,,,,,2024-03-18,1,,,,,アグリサポートシラヤマ,0
224,1220005008817,新規,0,2024-03-18,2024-03-18,いしかわ園芸商協同組合,,その他の設立登記法人,石川県,金沢市,弥生１丁目３３番２０号,,17,201,9218036,,,,,,,2024-03-18,1,,,,,イシカワエンゲイショウ,0
225,1240001062923,新規,0,2024-03-18,2024-03-18,株式会社ＴＹＬＩＢＥＲ,,株式会社,広島県,福山市,加茂町大字下加茂５００番地１６,,34,207,7202412,,,,,,,2024-03-18,1,,,,,ティリバー,0
226,1240001062931,新規,0,2024-03-18,2024-03-18,株式会社クラリス,,株式会社,広島県,広島市東区,中山東１丁目３番１５－９０５号,,34,102,7320023,,,,,,,2024-03-18,1,,,,,クラリス,0
227,1240001062964,新規,0,2024-03-18,2024-03-18,株式会社ｚｅｐｌｕｓ,,株式会社,広島県,三次市,十日市中１丁目４番１号,,34,209,7280012,,,,,,,2024-03-18,1,,,,,ゼプラス,0
229,1250003003453,新規,0,2024-03-18,2024-03-18,合同会社マニク,,合同会社,山口県,美祢市,美東町大田５４３９番地１サィサィみとう店内,,35,213,7540211,,,,,,,2024-03-18,1,,,,,マニク,0
231,1260003004608,新規,0,2024-03-18,2024-03-18,ＦＡＹＳ合同会社,,合同会社,岡山県,岡山市中区,江崎８２－１,,33,102,7028005,,,,,,,2024-03-18,1,,,,,フェイズ,0
232,1260003004616,新規,0,2024-03-18,2024-03-18,合同会社シャンバラ,,合同会社,岡山県,岡山市東区,西大寺中２丁目２１番５号,,33,103,7048116,,,,,,,2024-03-18,1,,,,,シャンバラ,0
235,1290001105066,新規,0,2024-03-18,2024-03-18,拓海株式会社,,株式会社,福岡県,福岡市西区,福重４丁目１６番１０号ハイム福重２０２号,,40,135,8190022,,,,,,,2024-03-18,1,,,,,タクミ,0
236,1290001105074,新規,0,2024-03-18,2024-03-18,ブルー・マーブル株式会社,,株式会社,福岡県,福岡市中央区,福浜２丁目５番１０－１０３２号,,40,133,8100066,,,,,,,2024-03-18,1,,,,,ブルーマーブル,0
238,1290003015057,新規,0,2024-03-18,2024-03-18,合同会社豊国園芸,,合同会社,福岡県,福岡市中央区,天神４丁目６番２８号天神ファーストビル７階,,40,133,8100001,,,,,,,2024-03-18,1,,,,,トヨクニエンゲイ,0
239,1290003015065,新規,0,2024-03-18,2024-03-18,合同会社ＳＹＫＴＳＲ,,合同会社,福岡県,福岡市中央区,大名１丁目１１番２７号,,40,133,8100041,,,,,,,2024-03-18,1,,,,,サイクテスラ,0
242,1300001013647,新規,0,2024-03-18,2024-03-18,株式会社ＦｉｖｅＫｉｎｄ,,株式会社,佐賀県,小城市,三日月町織島２８３０,,41,208,8450023,,,,,,,2024-03-18,1,,,,,ファイブカインド,0
245,1310003004750,新規,0,2024-03-18,2024-03-18,合同会社エスプラン,,合同会社,長崎県,西彼杵郡時津町,野田郷１６８－１－２０１,,42,308,8512104,,,,,,,2024-03-18,1,,,,,エスプラン,0
248,1340001026372,新規,0,2024-03-18,2024-03-18,さんななさん‐ツクル‐株式会社,,株式会社,鹿児島県,薩摩川内市,東郷町斧渕９８２番地,,46,215,8951106,,,,,,,2024-03-18,1,,,,,サンナナサンツクル,0
251,1360003013805,新規,0,2024-03-18,2024-03-18,合同会社ケアサポート大成,,合同会社,沖縄県,浦添市,屋富祖２丁目２９番２６－３０５号,,47,208,9012127,,,,,,,2024-03-18,1,,,,,ケアサポートタイセイ,0
252,1370001051038,新規,0,2024-03-18,2024-03-18,株式会社オーガスタ,,株式会社,宮城県,仙台市泉区,南光台南３丁目３２番３号,,04,105,9818002,,,,,,,2024-03-18,1,,,,,オーガスタ,0
253,1370001051046,新規,0,2024-03-18,2024-03-18,株式会社農誠舎,,株式会社,宮城県,栗原市,金成小迫後山４１番地,,04,213,9895184,,,,,,,2024-03-18,1,,,,,ノウセイシャ,0
254,1370001051062,新規,0,2024-03-18,2024-03-18,株式会社ＳＵＮエイチ不動産,,株式会社,宮城県,仙台市青葉区,北目町２番３９号東北中心ビル８階,,04,101,9800023,,,,,,,2024-03-18,1,,,,,サンエイチフドウサン,0
255,1370003006519,新規,0,2024-03-18,2024-03-18,合同会社辰昇,,合同会社,宮城県,柴田郡柴田町,大字入間田字畑中１０,,04,323,9891745,,,,,,,2024-03-18,1,,,,,タツショウ,0
265,1420003002891,新規,0,2024-03-18,2024-03-18,合同会社エスアイケイ,,合同会社,青森県,弘前市,大字城東中央４丁目３番地２１,,02,202,0368093,,,,,,,2024-03-18,1,,,,,エスアイケイ,0
268,1430001091291,新規,0,2024-03-18,2024-03-18,株式会社松栄,,株式会社,北海道,札幌市中央区,南五条西１４丁目１番２２－１３０１号,,01,101,0640805,,,,,,,2024-03-18,1,,,,,ショウエイ,0
269,1430001091300,新規,0,2024-03-18,2024-03-18,株式会社ブイファーム,,株式会社,北海道,札幌市西区,西野三条９丁目６番１０号,,01,107,0630033,,,,,,,2024-03-18,1,,,,,ブイファーム,0
270,1430001091317,新規,0,2024-03-18,2024-03-18,株式会社ｍａｒｉｋａ,,株式会社,北海道,札幌市中央区,北六条西１８丁目１１－１,,01,101,0600006,,,,,,,2024-03-18,1,,,,,マリカ,0
271,1430003016057,新規,0,2024-03-18,2024-03-18,合同会社れじりあ,,合同会社,北海道,札幌市中央区,南二条西３丁目１２－５,,01,101,0600062,,,,,,,2024-03-18,1,,,,,レジリア,0
272,1430003016073,新規,0,2024-03-18,2024-03-18,合同会社えす,,合同会社,北海道,札幌市中央区,北一条西２５丁目１番１６号３０５,,01,101,0640821,,,,,,,2024-03-18,1,,,,,エス,0
275,1430005014926,新規,0,2024-03-18,2024-03-18,農事組合法人ＹＮＳサポート,,その他の設立登記法人,北海道,札幌市南区,澄川五条１２丁目６－２３コート澄川Ａ１０２,,01,106,0050005,,,,,,,2024-03-18,1,,,,,ワイエヌエスサポート,0
276,1440001009400,新規,0,2024-03-18,2024-03-18,株式会社平野グリーンサービス,,株式会社,北海道,二海郡八雲町,立岩２２７番地,,01,346,0493123,,,,,,,2024-03-18,1,,,,,ヒラノグリーンサービス,0
280,1450001014259,新規,0,2024-03-18,2024-03-18,株式会社ハグルマ,,株式会社,北海道,旭川市,豊岡二条８丁目１０番１９号,,01,204,0788232,,,,,,,2024-03-18,1,,,,,ハグルマ,0
281,1450003002451,新規,0,2024-03-18,2024-03-18,青空合同会社,,合同会社,北海道,旭川市,旭町二条１４丁目２９７番地の４８,,01,204,0700832,,,,,,,2024-03-18,1,,,,,アオゾラ,0
285,1490001010725,新規,0,2024-03-18,2024-03-18,Ｓｈｉｎａｈａｒａ建築工房株式会社,,株式会社,高知県,高知市,薊野西町１丁目２９番１２－８号,,39,201,7810015,,,,,,,2024-03-18,1,,,,,シナハラケンチクコウボウ,0
287,1500001025515,新規,0,2024-03-18,2024-03-18,株式会社ブルーノ,,株式会社,愛媛県,松山市,湊町４丁目９番地１１,,38,201,7900012,,,,,,,2024-03-18,1,,,,,ブルーノ,0
288,1500003003205,新規,0,2024-03-18,2024-03-18,合同会社女性と子ども専門整体サロンまこも,,合同会社,愛媛県,北宇和郡鬼北町,大字奈良３０３３番地２,,38,488,7981351,,,,,,,2024-03-18,1,,,,,ジョセイトコドモセンモンセイタイサロンマコモ,0
299,2010001243066,新規,0,2024-03-18,2024-03-18,工場管理サービス株式会社,,株式会社,東京都,中央区,銀座３丁目９番１１号紙パルプ会館１０階,,13,102,1040061,,,,,,,2024-03-18,1,,,,,コウジョウカンリサービス,0
300,2010001243082,新規,0,2024-03-18,2024-03-18,パワー＆アソシエイツ株式会社,,株式会社,東京都,中央区,日本橋本町４丁目６番１０号ソフィエ日本橋５Ｆ,,13,102,1030023,,,,,,,2024-03-18,1,,,,,パワーアンドアソシエイツ,0
301,2010001243099,新規,0,2024-03-18,2024-03-18,Ｓｉｌｖｅｒ‐Ｃｕｂｅ株式会社,,株式会社,東京都,中央区,八重洲１丁目５番１０号八重洲井坂ビル,,13,102,1030028,,,,,,,2024-03-18,1,,,,,シルバーキューブ,0
302,2010001243116,新規,0,2024-03-18,2024-03-18,マジカル株式会社,,株式会社,東京都,中央区,銀座７丁目１３番２０号銀座ＴＨビル９階,,13,102,1040061,,,,,,,2024-03-18,1,,,,,マジカル,0
303,2010001243140,新規,0,2024-03-18,2024-03-18,株式会社トラテナ,,株式会社,東京都,千代田区,内神田１丁目１０番２号,,13,101,1010047,,,,,,,2024-03-18,1,,,,,トラテナ,0
307,2010003043209,新規,0,2024-03-18,2024-03-18,中野１丁目プロジェクト合同会社,,合同会社,東京都,千代田区,丸の内２丁目３番２号,,13,101,1000005,,,,,,,2024-03-18,1,,,,,ナカノイッチョウメプロジェクト,0
308,2010003043241,新規,0,2024-03-18,2024-03-18,トークン・スリー合同会社,,合同会社,東京都,千代田区,霞が関３丁目２番５号,,13,101,1000013,,,,,,,2024-03-18,1,,,,,トークンスリー,0
309,2010003043282,新規,0,2024-03-18,2024-03-18,ビズリアアカウンティング合同会社,,合同会社,東京都,千代田区,神田三崎町３丁目１０－２１宝栄三崎町ビル７０３,,13,101,1010061,,,,,,,2024-03-18,1,,,,,ビズリアアカウンティング,0
312,2010005038041,新規,0,2024-03-18,2024-03-18,医療法人社団ＡＳＡＣ,,その他の設立登記法人,東京都,千代田区,神田神保町３丁目１０番地１０大行ビル４階,,13,101,1010051,,,,,,,2024-03-18,1,,,,,アサック,0
313,2010005038058,新規,0,2024-03-18,2024-03-18,流山１０ロジスティック特定目的会社,,その他の設立登記法人,東京都,中央区,八重洲２丁目２番１号,,13,102,1040028,,,,,,,2024-03-18,1,,,,,ナガレヤマテンロジスティック,0
322,2010401181056,新規,0,2024-03-18,2024-03-18,株式会社ステージング・ナガサキ,,株式会社,東京都,港区,高輪２丁目２１番４１号高輪第一ビル３階,,13,103,1080074,,,,,,,2024-03-18,1,,,,,ステージングナガサキ,0
323,2010401181064,新規,0,2024-03-18,2024-03-18,株式会社レイリクルート,,株式会社,東京都,港区,新橋１丁目１１番３号,,13,103,1050004,,,,,,,2024-03-18,1,,,,,レイリクルート,0
324,2010403032174,新規,0,2024-03-18,2024-03-18,合同会社ＰＲＩＭＡ,,合同会社,東京都,港区,赤坂３丁目１６番５号赤坂ユタカ産業ビル２階,,13,103,1070052,,,,,,,2024-03-18,1,,,,,プリマ,0
325,2010405023064,新規,0,2024-03-18,2024-03-18,一般社団法人手技医療振興共済会,,その他の設立登記法人,東京都,港区,高輪２丁目１６番４５号,,13,103,1080074,,,,,,,2024-03-18,1,,,,,シュギイリョウシンコウキョウサイカイ,0
333,2010701045704,新規,0,2024-03-18,2024-03-18,株式会社エクスプローラー,,株式会社,東京都,品川区,東大井５丁目２６番２４号シティテラス大井仙台坂,,13,109,1400011,,,,,,,2024-03-18,1,,,,,エクスプローラー,0
339,2010903008888,新規,0,2024-03-18,2024-03-18,シークアッド合同会社,,合同会社,東京都,世田谷区,等々力８丁目２０番２１号タウンシップ等々力２０５,,13,112,1580082,,,,,,,2024-03-18,1,,,,,シークアッド,0
340,2010905004588,新規,0,2024-03-18,2024-03-18,一般社団法人Ｆ‐ＲＵＮ,,その他の設立登記法人,東京都,世田谷区,等々力５丁目４番２号,,13,112,1580082,,,,,,,2024-03-18,1,,,,,エフラン,0
345,2011001160623,新規,0,2024-03-18,2024-03-18,株式会社セリ,,株式会社,東京都,目黒区,碑文谷４丁目１５番１８－４０４号,,13,110,1520003,,,,,,,2024-03-18,1,,,,,セリ,0
346,2011001160648,新規,0,2024-03-18,2024-03-18,Ｅｔｈｏ　Ａｎａｌｙｔｉｃｓ株式会社,,株式会社,東京都,目黒区,目黒２丁目１１番３号ＩｍｐａｃｔＨＵＢＴｏｋｙｏ,,13,110,1530063,,,,,,,2024-03-18,1,,,,,エトアナリティクス,0
347,2011003018695,新規,0,2024-03-18,2024-03-18,合同会社オムニマル,,合同会社,東京都,渋谷区,渋谷２丁目１９－１５宮益坂ビルディング６０９,,13,113,1500002,,,,,,,2024-03-18,1,,,,,オムニマル,0
348,2011003018704,新規,0,2024-03-18,2024-03-18,Ｗａｔｅｒ　Ｆｒｏｎｔ合同会社,,合同会社,東京都,渋谷区,神泉町１０番１５号,,13,113,1500045,,,,,,,2024-03-18,1,,,,,ウォーターフロント,0
349,2011003018712,新規,0,2024-03-18,2024-03-18,合同会社Ｇａｍａｇｅｓ,,合同会社,東京都,目黒区,下目黒２丁目１４番２５号クードシャンスイースト３０５,,13,110,1530064,,,,,,,2024-03-18,1,,,,,ガマジス,0
354,2011101106591,新規,0,2024-03-18,2024-03-18,株式会社アルテ,,株式会社,東京都,新宿区,大京町２８番地１プラウド新宿御苑エンパイア５０４,,13,104,1600015,,,,,,,2024-03-18,1,,,,,アルテ,0
355,2011101106600,新規,0,2024-03-18,2024-03-18,株式会社ＳｉｎｃｅｒｅＢｅａｕｔｙ,,株式会社,東京都,新宿区,北新宿４丁目３番１０－７０６号,,13,104,1690074,,,,,,,2024-03-18,1,,,,,シンシアビューティー,0
356,2011105010971,新規,0,2024-03-18,2024-03-18,スペラビ行政書士法人,,その他の設立登記法人,東京都,新宿区,市谷砂土原町１丁目２番２９号ウイング市ヶ谷２階,,13,104,1620842,,,,,,,2024-03-18,1,,,,,スペラビ,0
357,2011201025329,新規,0,2024-03-18,2024-03-18,株式会社リズ,,株式会社,東京都,中野区,本町１丁目２５番９号,,13,114,1640012,,,,,,,2024-03-18,1,,,,,リズ,0
364,2011705001825,新規,0,2024-03-18,2024-03-18,医療法人社団楽雲会,,その他の設立登記法人,東京都,江戸川区,西葛西３丁目１５番１３号第一江の本ビル３階,,13,123,1340088,,,,,,,2024-03-18,1,,,,,ラクウンカイ,0
366,2011801043936,新規,0,2024-03-18,2024-03-18,株式会社喜楽,,株式会社,東京都,足立区,竹の塚１丁目３０－２２,,13,121,1210813,,,,,,,2024-03-18,1,,,,,キラク,0
368,2012303001960,新規,0,2024-03-18,2024-03-18,合同会社ｓｅｎｔｏｉｒｏ,,合同会社,東京都,町田市,成瀬２丁目２５番地８,,13,209,1940044,,,,,,,2024-03-18,1,,,,,セントイロ,0
370,2012701018136,新規,0,2024-03-18,2024-03-18,マナキ株式会社,,株式会社,東京都,西東京市,南町４丁目２番１５号グレイスコート田無３０１,,13,229,1880012,,,,,,,2024-03-18,1,,,,,マナキ,0
384,2020003025734,新規,0,2024-03-18,2024-03-18,合同会社ヴァンキッシュ,,合同会社,神奈川県,横浜市中区,扇町３丁目８－１ベイサイド関内ビル２階,,14,104,2310027,,,,,,,2024-03-18,1,,,,,ヴァンキッシュ,0
385,2020003025775,新規,0,2024-03-18,2024-03-18,Ｒｅｍｉｘｅｌ合同会社,,合同会社,神奈川県,横浜市金沢区,富岡西７丁目８番７号,,14,108,2360052,,,,,,,2024-03-18,1,,,,,レミクセル,0
386,2021001081728,新規,0,2024-03-18,2024-03-18,株式会社ＣＲＯＳＳ　ＭＥＭＢＥＲ,,株式会社,神奈川県,足柄上郡大井町,大井中央４６番地,,14,362,2580010,,,,,,,2024-03-18,1,,,,,クロスメンバー,0
389,2021003014248,新規,0,2024-03-18,2024-03-18,合同会社湘南写真社,,合同会社,神奈川県,茅ヶ崎市,赤松町四丁目２８番,,14,207,2530013,,,,,,,2024-03-18,1,,,,,ショウナンシャシンシャ,0
390,2021003014264,新規,0,2024-03-18,2024-03-18,合同会社介護ネットワーク,,合同会社,神奈川県,相模原市南区,南台５丁目５番７号,,14,153,2520314,,,,,,,2024-03-18,1,,,,,カイゴネットワーク,0
400,2030001159277,新規,0,2024-03-18,2024-03-18,株式会社Ｈｉ‐ＢＥＡＲＳ,,株式会社,埼玉県,川越市,寿町１丁目２２６３番地５,,11,201,3501116,,,,,,,2024-03-18,1,,,,,ハイベアーズ,0
404,2030003023836,新規,0,2024-03-18,2024-03-18,合同会社ＴＺ　ＷＯＲＫＳ,,合同会社,埼玉県,富士見市,東みずほ台１丁目４番地１サニークレストみずほ台６０３,,11,235,3540015,,,,,,,2024-03-18,1,,,,,ティーゼットワークス,0
411,2040001132646,新規,0,2024-03-18,2024-03-18,ツイテル株式会社,,株式会社,千葉県,浦安市,美浜４丁目８番１３号,,12,227,2790011,,,,,,,2024-03-18,1,,,,,ツイテル,0
412,2040001132745,新規,0,2024-03-18,2024-03-18,株式会社リドア,,株式会社,千葉県,八千代市,島田台７９０－１９,,12,221,2760004,,,,,,,2024-03-18,1,,,,,リドア,0
424,2050001054245,新規,0,2024-03-18,2024-03-18,株式会社Ｎｅｘｇｅｎ　Ｃｒｅａｔｉｖｅ　Ｌｉｎｋｓ,,株式会社,茨城県,取手市,白山２丁目１９番２号,,08,217,3020023,,,,,,,2024-03-18,1,,,,,ネクスジェンクリエイティブリンクス,0
426,2050003008190,新規,0,2024-03-18,2024-03-18,ＩＫＯＫＡ　Ｔ＆Ｔ合同会社,,合同会社,茨城県,つくば市,松代５丁目１５番地１０３,,08,220,3050035,,,,,,,2024-03-18,1,,,,,イコカティーアンドティー,0
427,2050003008199,新規,0,2024-03-18,2024-03-18,Ａｄｉｌ　Ｔｒａｄｉｎｇ合同会社,,合同会社,茨城県,古河市,静町７番３号,,08,204,3060001,,,,,,,2024-03-18,1,,,,,アディルトレーディング,0
428,2050005013404,新規,0,2024-03-18,2024-03-18,医療法人社団ＴＩＢＣ,,その他の設立登記法人,茨城県,つくば市,吾妻２丁目８番地８つくばシティアビル２階,,08,220,3050031,,,,,,,2024-03-18,1,,,,,ティーアイビーシー,0
437,2080001026175,新規,0,2024-03-18,2024-03-18,株式会社ふぁみけあ,,株式会社,静岡県,静岡市駿河区,曲金２丁目７番６７号メゾン・ラ・ポムＩＩ１０１号,00134082,22,102,4228006,,,,,,,2024-03-18,1,,,,,ファミケア,0
438,2080001026183,新規,0,2024-03-18,2024-03-18,株式会社ＫＥＩＡＩ,,株式会社,静岡県,静岡市葵区,常磐町１丁目２番地の７冨井ビル３階,,22,101,4200034,,,,,,,2024-03-18,1,,,,,ケイアイ,0
441,2080101024590,新規,0,2024-03-18,2024-03-18,株式会社Ｒスマイル,,株式会社,静岡県,田方郡函南町,間宮７６８番地の４,,22,325,4190123,,,,,,,2024-03-18,1,,,,,アールスマイル,0
445,2080401027046,新規,0,2024-03-18,2024-03-18,Ｍ．ＹＴＲＡＤＩＮＧ株式会社,,株式会社,静岡県,磐田市,一言４６１番地,,22,211,4380811,,,,,,,2024-03-18,1,,,,,エムワイトレイディング,0
450,2090001018601,新規,0,2024-03-18,2024-03-18,株式会社ｓｙｎｃ　ｔｅｃｈ,,株式会社,山梨県,中巨摩郡昭和町,飯喰１５５４番地２,,19,384,4093852,,,,,,,2024-03-18,1,,,,,シンクテック,0
451,2090003002520,新規,0,2024-03-18,2024-03-18,合同会社Ｒａｓｕｎｅｋｏ,,合同会社,山梨県,甲斐市,境４８４番地,,19,210,4000122,,,,,,,2024-03-18,1,,,,,ラスネコ,0
455,2110003005330,新規,0,2024-03-18,2024-03-18,合同会社ＨａｃｋＴｒｉｃｋ,,合同会社,新潟県,新潟市中央区,東大畑通１番町４９０,,15,103,9518106,,,,,,,2024-03-18,1,,,,,ハックトリック,0
467,2120001263169,新規,0,2024-03-18,2024-03-18,百合株式会社,,株式会社,大阪府,大阪市住之江区,中加賀屋２丁目９番２３－１００３号,,27,125,5590017,,,,,,,2024-03-18,1,,,,,ユリ,0
468,2120001263193,新規,0,2024-03-18,2024-03-18,Ｆｒｅｅ　Ｌｉｆｅ＆Ｃｏ株式会社,,株式会社,大阪府,大阪市北区,梅田１丁目２番２号大阪駅前第２ビル１２－１２,,27,127,5300001,,,,,,,2024-03-18,1,,,,,フリーライフアンドコー,0
469,2120001263210,新規,0,2024-03-18,2024-03-18,聚炎升株式会社,,株式会社,大阪府,大阪市淀川区,三津屋南２丁目５番１５号,,27,123,5320035,,,,,,,2024-03-18,1,,,,,シュウエンショウ,0
471,2120003026086,新規,0,2024-03-18,2024-03-18,ＨＤＣ貿易合同会社,,合同会社,大阪府,大阪市西成区,天下茶屋１丁目２２－２２－１０１号,,27,122,5570014,,,,,,,2024-03-18,1,,,,,エイチディーシー,0
476,2120101069227,新規,0,2024-03-18,2024-03-18,株式会社ＨＯＲＡＫＥＮ,,株式会社,大阪府,大阪狭山市,山本南４１,,27,231,5890033,,,,,,,2024-03-18,1,,,,,ホラケン,0
477,2120101069243,新規,0,2024-03-18,2024-03-18,株式会社ＩＫＩｐｕｒｏ,,株式会社,大阪府,堺市美原区,大饗５３番地１－１０１号,,27,147,5870063,,,,,,,2024-03-18,1,,,,,イキプロ,0
478,2120101069251,新規,0,2024-03-18,2024-03-18,株式会社オクテック,,株式会社,大阪府,羽曳野市,羽曳が丘西２丁目２番２４号,,27,222,5830865,,,,,,,2024-03-18,1,,,,,オクテック,0
479,2120103005725,新規,0,2024-03-18,2024-03-18,合同会社Ｃｏｍｕｃｏｒｎ,,合同会社,大阪府,和泉市,箕形町３丁目６番４０－３０６号,,27,219,5940042,,,,,,,2024-03-18,1,,,,,コミュコーン,0
485,2122001037924,新規,0,2024-03-18,2024-03-18,株式会社ａｌｉｏｔ,,株式会社,大阪府,八尾市,東本町１丁目１番５２号,,27,212,5810004,,,,,,,2024-03-18,1,,,,,アリオット,0
492,2130003009387,新規,0,2024-03-18,2024-03-18,合同会社北斗星,,合同会社,京都府,京都市南区,西九条藤ノ木町６２－１－１０３,,26,107,6018421,,,,,,,2024-03-18,1,,,,,ホクトセイ,0
498,2140001133411,新規,0,2024-03-18,2024-03-18,株式会社ユニエンタープライズ,,株式会社,兵庫県,神戸市兵庫区,川口町三丁目３番３号,,28,105,6520000,,,,,,,2024-03-18,1,,,,,ユニエンタープライズ,0
499,2140001133510,新規,0,2024-03-18,2024-03-18,株式会社Ｌｕｓ　ｄｅ　ｅｓｐｅｒａｎｚａ,,株式会社,兵庫県,西宮市,上ケ原七番町３番３１－１５号,,28,204,6620881,,,,,,,2024-03-18,1,,,,,,0
500,2140001133675,新規,0,2024-03-18,2024-03-18,株式会社ｓｉａ,,株式会社,兵庫県,神戸市垂水区,天ノ下町１番１－３１２号,,28,108,6550029,,,,,,,2024-03-18,1,,,,,シア,0
501,2140001133683,新規,0,2024-03-18,2024-03-18,木語株式会社,,株式会社,兵庫県,神戸市北区,有野町唐櫃４０２９番３－３１２,,28,109,6511331,,,,,,,2024-03-18,1,,,,,モクゴ,0
502,2140001133691,新規,0,2024-03-18,2024-03-18,株式会社青山荘,,株式会社,兵庫県,明石市,大久保町大窪１４７５番地の１５,,28,203,6740051,,,,,,,2024-03-18,1,,,,,セイザンソウ,0
503,2140001133700,新規,0,2024-03-18,2024-03-18,Ｆｕｎｓｈｉｐ　ｃｏｍｍｕｎｉｃａｔｉｏｎ株式会社,,株式会社,兵庫県,西宮市,花園町７－５,,28,204,6638187,,,,,,,2024-03-18,1,,,,,ファンシップコミュニケーション,0
504,2140001133725,新規,0,2024-03-18,2024-03-18,株式会社エチカ,,株式会社,兵庫県,神戸市東灘区,御影山手２丁目２番１２号,,28,101,6580065,,,,,,,2024-03-18,1,,,,,エチカ,0
507,2140005026974,新規,0,2024-03-18,2024-03-18,一般社団法人日本ネイルマシン技術協会,,その他の設立登記法人,兵庫県,神戸市中央区,琴ノ緒町５丁目２番２号三信ビル９０６,,28,110,6510094,,,,,,,2024-03-18,1,,,,,ニホンネイルマシンギジュツキョウカイ,0
509,2150001027141,新規,0,2024-03-18,2024-03-18,株式会社有吉建設,,株式会社,奈良県,北葛城郡河合町,泉台３丁目１８番４号,,29,427,6360091,,,,,,,2024-03-18,1,,,,,アリヨシケンセツ,0
513,2160001025755,新規,0,2024-03-18,2024-03-18,株式会社セレンディピティ,,株式会社,滋賀県,守山市,川田町４１９番地３,,25,207,5240001,,,,,,,2024-03-18,1,,,,,セレンディピティ,0
514,2160001025763,新規,0,2024-03-18,2024-03-18,株式会社中川木工芸,,株式会社,滋賀県,大津市,八屋戸４１９,,25,201,5200515,,,,,,,2024-03-18,1,,,,,ナカガワモッコウゲイ,0
526,2180003026469,新規,0,2024-03-18,2024-03-18,ＡＬＡ　ＴＲＡＤＥＲＳ合同会社,,合同会社,愛知県,岩倉市,下本町燈明庵１５９－１マンション千代１０２,,23,228,4820005,,,,,,,2024-03-18,1,,,,,アラトレダー,0
527,2180003026502,新規,0,2024-03-18,2024-03-18,合同会社Ｓａｒｏｎ,,合同会社,愛知県,名古屋市千種区,春岡１丁目１１番３号２階,,23,101,4640848,,,,,,,2024-03-18,1,,,,,サロン,0
530,2180005020544,新規,0,2024-03-18,2024-03-18,特定非営利活動法人西尾張ハンドボールスクール,,その他の設立登記法人,愛知県,あま市,七宝町秋竹柏田９１２番地たちばなファミリー宮東１０３号,,23,237,4970003,,,,,,,2024-03-18,1,,,,,ニシオワリハンドボールスクール,0
531,2180005020552,新規,0,2024-03-18,2024-03-18,一般社団法人クオリティークリエイト,,その他の設立登記法人,愛知県,名古屋市東区,泉２丁目１番２８号Ｖｉａｒｅ　ｓｔｏｒｉａ６０３号,,23,102,4610001,,,,,,,2024-03-18,1,,,,,クオリティークリエイト,0
532,2180301038414,新規,0,2024-03-18,2024-03-18,株式会社河合信尚保守工事,,株式会社,愛知県,豊川市,東曙町２６３番地の２,,23,207,4420011,,,,,,,2024-03-18,1,,,,,カワイノブヒサホシュコウジ,0
533,2180301038422,新規,0,2024-03-18,2024-03-18,株式会社聖博商会,,株式会社,愛知県,豊田市,山之手１丁目１番地波多野店舗１号,,23,211,4710833,,,,,,,2024-03-18,1,,,,,セイハクショウカイ,0
538,2200001042259,新規,0,2024-03-18,2024-03-18,株式会社天工人,,株式会社,岐阜県,岐阜市,粟野西７丁目２８９番地,,21,201,5020006,,,,,,,2024-03-18,1,,,,,テクト,0
539,2200001042267,新規,0,2024-03-18,2024-03-18,株式会社ａｏ,,株式会社,岐阜県,岐阜市,日光町３丁目５１番地４,,21,201,5020933,,,,,,,2024-03-18,1,,,,,アオ,0
540,2200001042275,新規,0,2024-03-18,2024-03-18,ＳＤＫ株式会社,,株式会社,岐阜県,安八郡神戸町,大字神戸１５５０番地の１,,21,381,5032305,,,,,,,2024-03-18,1,,,,,エスディーケー,0
543,2220001025864,新規,0,2024-03-18,2024-03-18,Ｉ＆Ｔ株式会社,,株式会社,石川県,野々市市,三納３丁目１５９番地,,17,212,9218825,,,,,,,2024-03-18,1,,,,,アイアンドティ,0
547,2240001062947,新規,0,2024-03-18,2024-03-18,秋山工業株式会社,,株式会社,広島県,広島市東区,中山中町１１番８－３０５号,,34,102,7320026,,,,,,,2024-03-18,1,,,,,アキヤマコウギョウ,0
548,2240001062955,新規,0,2024-03-18,2024-03-18,株式会社はじめ建築工房,,株式会社,広島県,広島市安佐北区,安佐町久地９７６番地１,,34,106,7391700,,,,,,,2024-03-18,1,,,,,ハジメケンチクコウボウ,0
549,2240001062971,新規,0,2024-03-18,2024-03-18,秦左官工芸株式会社,,株式会社,広島県,広島市東区,中山鏡が丘６番１１号,,34,102,7320022,,,,,,,2024-03-18,1,,,,,ハタサカンコウゲイ,0
554,2240003006571,新規,0,2024-03-18,2024-03-18,広島保証事業合同会社,,合同会社,広島県,広島市中区,上八丁堀４番１号,,34,101,7300012,,,,,,,2024-03-18,1,,,,,ヒロシマホショウジギョウ,0
555,2260001038796,新規,0,2024-03-18,2024-03-18,株式会社Ｈｅｌｆｅｎ,,株式会社,岡山県,岡山市北区,上中野２丁目２２番１号アルファステイツ岡山上中野３０６号,,33,101,7000972,,,,,,,2024-03-18,1,,,,,ヘルフェン,0
556,2260001038846,新規,0,2024-03-18,2024-03-18,株式会社ＩＴ　Ｂａｓｅ,,株式会社,岡山県,岡山市北区,津島新野１丁目１番７号,,33,101,7000083,,,,,,,2024-03-18,1,,,,,アイティベース,0
557,2260001038854,新規,0,2024-03-18,2024-03-18,株式会社ｃｏｃｏｋａｒａ,,株式会社,岡山県,岡山市東区,中尾１－１３１,,33,103,7090626,,,,,,,2024-03-18,1,,,,,ココカラ,0
558,2260003004615,新規,0,2024-03-18,2024-03-18,合同会社ＰＲＯＣＥＳＳ　ＣＯＬＯＲ,,合同会社,岡山県,岡山市東区,松新町１６０番地１８,,33,103,7048174,,,,,,,2024-03-18,1,,,,,プロセスカラー,0
564,2290001105065,新規,0,2024-03-18,2024-03-18,株式会社ｅｐｏｃｈＬａｂ,,株式会社,福岡県,福岡市中央区,天神２丁目２番１２号Ｔ＆Ｊビルディング７Ｆ,,40,133,8100001,,,,,,,2024-03-18,1,,,,,エポックラボ,0
565,2290001105073,新規,0,2024-03-18,2024-03-18,株式会社保瀬商会,,株式会社,福岡県,福津市,津屋崎５丁目６番１号,,40,224,8113304,,,,,,,2024-03-18,1,,,,,ホセショウカイ,0
567,2290003015072,新規,0,2024-03-18,2024-03-18,合同会社宇宙同盟,,合同会社,福岡県,福岡市南区,筑紫丘２丁目６番１４号パークハウス筑紫丘６０１,,40,134,8150036,,,,,,,2024-03-18,1,,,,,ウチュウドウメイ,0
570,2300005007181,新規,0,2024-03-18,2024-03-18,労働者協同組合法人あんそれいゆ陽葵,,その他の設立登記法人,佐賀県,佐賀市,白山２丁目２－７ＫＩＴＡＪＩＭＡビル１階,,41,201,8400826,,,,,,,2024-03-18,1,,,,,アンソレイユヒマリ,0
573,2320001020351,新規,0,2024-03-18,2024-03-18,株式会社北原商事,,株式会社,大分県,大分市,大字森１１７８番地,,44,201,8700128,,,,,,,2024-03-18,1,,,,,キタバルショウジ,0
577,2340001026363,新規,0,2024-03-18,2024-03-18,株式会社入佐工務店,,株式会社,鹿児島県,肝属郡南大隅町,根占川南３５８４番地,,46,491,8932502,,,,,,,2024-03-18,1,,,,,イリサコウムテン,0
578,2340003004400,新規,0,2024-03-18,2024-03-18,合同会社ａｒｏｍａ　Ｅｓｅｎｃｉａ,,合同会社,鹿児島県,鹿児島市,冷水町３４番１２号,,46,201,8920855,,,,,,,2024-03-18,1,,,,,アロマエセンシア,0
579,2350001018847,新規,0,2024-03-18,2024-03-18,株式会社Ａｒｉｓｔｏ,,株式会社,宮崎県,東諸県郡国富町,大字田尻５１１番地,,45,382,8801104,,,,,,,2024-03-18,1,,,,,アリスト,0
581,2360001033325,新規,0,2024-03-18,2024-03-18,富工業株式会社,,株式会社,沖縄県,那覇市,識名２丁目３番３号,,47,201,9020078,,,,,,,2024-03-18,1,,,,,トミコウギョウ,0
582,2360001033333,新規,0,2024-03-18,2024-03-18,株式会社沖新総業,,株式会社,沖縄県,那覇市,西２丁目１３番１７号,,47,201,9000036,,,,,,,2024-03-18,1,,,,,オキシンソウギョウ,0
583,2360003013804,新規,0,2024-03-18,2024-03-18,合同会社ＷＡＳＹＯ,,合同会社,沖縄県,糸満市,字潮平６３６番地の２・２０１号,,47,210,9010302,,,,,,,2024-03-18,1,,,,,ワショー,0
584,2360005007003,新規,0,2024-03-18,2024-03-18,特定非営利活動法人磁気探査ＤＸ推進機構,,その他の設立登記法人,沖縄県,豊見城市,字豊崎３番５９号トヨプラ４階,,47,212,9010225,,,,,,,2024-03-18,1,,,,,ジキタンサディエックススイシンキコウ,0
585,2370001051045,新規,0,2024-03-18,2024-03-18,Ｈ＆Ａ株式会社,,株式会社,宮城県,仙台市太白区,西中田５丁目７番６号,,04,104,9811105,,,,,,,2024-03-18,1,,,,,エイチアンドエー,0
595,2420001018633,新規,0,2024-03-18,2024-03-18,株式会社ＬＤＨ,,株式会社,青森県,青森市,本町１丁目６番１７号,,02,201,0300802,,,,,,,2024-03-18,1,,,,,エルディーエイチ,0
598,2430001091299,新規,0,2024-03-18,2024-03-18,株式会社クリーンコーポレーションホテルオペレーションズ,,株式会社,北海道,札幌市中央区,南二十二条西６丁目２番２５号エムズ南２２条第３ビル４階,,01,101,0640922,,,,,,,2024-03-18,1,,,,,クリーンコーポレーションホテルオペレーションズ,0
599,2430001091308,新規,0,2024-03-18,2024-03-18,ＮｏｒｔｈＴＥＣ株式会社,,株式会社,北海道,札幌市北区,屯田二条１丁目７番５０号,,01,102,0020852,,,,,,,2024-03-18,1,,,,,ノーステック,0
600,2430001091316,新規,0,2024-03-18,2024-03-18,株式会社Ｋｃｏｍｐａｎｙ,,株式会社,北海道,札幌市中央区,南十四条西８丁目２番１８－２０１号,,01,101,0640914,,,,,,,2024-03-18,1,,,,,ケーカンパニー,0
601,2430001091340,新規,0,2024-03-18,2024-03-18,株式会社ファブ・ワン,,株式会社,北海道,札幌市豊平区,美園五条２丁目１番２０号,,01,105,0620005,,,,,,,2024-03-18,1,,,,,ファブワン,0
605,2430003016072,新規,0,2024-03-18,2024-03-18,合同会社ＲＥＷＲＩＴＥ,,合同会社,北海道,千歳市,自由ケ丘１丁目２番１号,,01,224,0660072,,,,,,,2024-03-18,1,,,,,リライト,0
606,2430005014917,新規,0,2024-03-18,2024-03-18,医療法人いなほ会,,その他の設立登記法人,北海道,札幌市中央区,南二十一条西１４丁目３番９号,,01,101,0640921,,,,,,,2024-03-18,1,,,,,イナホカイ,0
607,2430005014925,新規,0,2024-03-18,2024-03-18,農事組合法人ベストパートナーズ,,その他の設立登記法人,北海道,札幌市南区,澄川五条１２丁目６－２３コート澄川Ａ１０２,,01,106,0050005,,,,,,,2024-03-18,1,,,,,ベストパートナーズ,0
608,2430005014933,新規,0,2024-03-18,2024-03-18,一般社団法人フダアカデミージャパン,,その他の設立登記法人,北海道,札幌市北区,北十四条西１丁目２番６号,,01,102,0010014,,,,,,,2024-03-18,1,,,,,フダアカデミージャパン,0
609,2440001009399,新規,0,2024-03-18,2024-03-18,株式会社エージェイ電工,,株式会社,北海道,函館市,亀田本町１６番１５－１号,,01,202,0410813,,,,,,,2024-03-18,1,,,,,エージェイデンコウ,0
610,2450001014258,新規,0,2024-03-18,2024-03-18,株式会社イノヴィス,,株式会社,北海道,旭川市,末広二条９丁目１番１９号,,01,204,0718132,,,,,,,2024-03-18,1,,,,,イノヴィス,0
611,2462501000983,新規,0,2024-03-18,2024-03-18,株式会社エッグボーン,,株式会社,北海道,標津郡中標津町,西十二条南１０丁目１番地１２,,01,692,0861112,,,,,,,2024-03-18,1,,,,,エッグボーン,0
612,2480001012416,新規,0,2024-03-18,2024-03-18,株式会社きちや,,株式会社,徳島県,鳴門市,撫養町弁財天字派名３４番地２７,,36,202,7720014,,,,,,,2024-03-18,1,,,,,キチヤ,0
614,2500001025514,新規,0,2024-03-18,2024-03-18,株式会社小野総業,,株式会社,愛媛県,松山市,居相６丁目７番１０号,,38,201,7900934,,,,,,,2024-03-18,1,,,,,オノソウギョウ,0
616,2700150011451,新規,0,2024-03-18,2015-10-09,国分寺市国際協会,,その他,東京都,国分寺市,光町１丁目４６－８ひかりプラザ１階,,13,214,1850034,,,,,,,2015-10-09,1,,,,,コクブンジシコクサイキヨウカイ,0
626,3010001243049,新規,0,2024-03-18,2024-03-18,株式会社ＫＳＴ１０,,株式会社,東京都,千代田区,内幸町２丁目１番６号,,13,101,1000011,,,,,,,2024-03-18,1,,,,,ケイエスティーテン,0
627,3010001243073,新規,0,2024-03-18,2024-03-18,ＲＡＸ　Ａｎｉｍａｔｉｏｎ　Ｓｔｕｄｉｏ株式会社,,株式会社,東京都,千代田区,神田神保町２丁目１０番地４ＰＭＯ神保町１１階,,13,101,1010051,,,,,,,2024-03-18,1,,,,,ラックスアニメーションスタジオ,0
628,3010001243115,新規,0,2024-03-18,2024-03-18,泰平ホールディングス株式会社,,株式会社,東京都,中央区,八丁堀１丁目７番７号,,13,102,1040032,,,,,,,2024-03-18,1,,,,,タイヘイホールディングス,0
629,3010001243123,新規,0,2024-03-18,2024-03-18,株式会社ＰＯＲＴ,,株式会社,東京都,中央区,新富１丁目４番１号,,13,102,1040041,,,,,,,2024-03-18,1,,,,,ポート,0
630,3010001243148,新規,0,2024-03-18,2024-03-18,株式会社心満杯,,株式会社,東京都,文京区,本駒込２丁目２８番１－Ａ１４０７号,,13,105,1130021,,,,,,,2024-03-18,1,,,,,シンマンハイ,0
631,3010001243180,新規,0,2024-03-18,2024-03-18,株式会社ミカナギ,,株式会社,東京都,千代田区,神田和泉町１番地６－１６ヤマトビル４０５,,13,101,1010024,,,,,,,2024-03-18,1,,,,,ミカナギ,0
634,3010003043199,新規,0,2024-03-18,2024-03-18,自然エネルギーＳＩＰＰ１３合同会社,,合同会社,東京都,中央区,日本橋本町２丁目４番７号,,13,102,1030023,,,,,,,2024-03-18,1,,,,,シゼンエネルギーエスアイピーピージュウサン,0
635,3010003043208,新規,0,2024-03-18,2024-03-18,合同会社ＧＬＡＭＤＡＹ　ＳＴＹＬＥ　ＨＯＴＥＬ　ＳＵＩＴＥ,,合同会社,東京都,千代田区,六番町２番地８番町Ｍビル３Ｆ,,13,101,1020085,,,,,,,2024-03-18,1,,,,,グランディスタイルホテルスイート,0
637,3010005038057,新規,0,2024-03-18,2024-03-18,流山９ロジスティック特定目的会社,,その他の設立登記法人,東京都,中央区,八重洲２丁目２番１号,,13,102,1040028,,,,,,,2024-03-18,1,,,,,ナガレヤマナインロジスティック,0
644,3010401181055,新規,0,2024-03-18,2024-03-18,株式会社ハラ＆ペコ．,,株式会社,東京都,港区,芝大門２丁目９番４号,,13,103,1050012,,,,,,,2024-03-18,1,,,,,ハラアンドペコドット,0
645,3010401181063,新規,0,2024-03-18,2024-03-18,株式会社Ｎ　Ｖｅｃ,,株式会社,東京都,港区,六本木３丁目３番２７号,,13,103,1060032,,,,,,,2024-03-18,1,,,,,エヌベック,0
646,3010405023063,新規,0,2024-03-18,2024-03-18,ＮＰＯ法人パラベンチャーズ,,その他の設立登記法人,東京都,港区,南青山５丁目１１番２４号グレイセス２Ｆ,,13,103,1070062,,,,,,,2024-03-18,1,,,,,パラベンチャーズ,0
649,3010501051959,新規,0,2024-03-18,2024-03-18,Ｚ＆Ｄ株式会社,,株式会社,東京都,台東区,松が谷２丁目１５番８号浅草Ｋ２ビル４０５号室,,13,106,1110036,,,,,,,2024-03-18,1,,,,,ズィーアンドディー,0
650,3010503007380,新規,0,2024-03-18,2024-03-18,ＩＴリソース合同会社,,合同会社,東京都,台東区,下谷１丁目５番地１１号サニーコート上野１１０１号室,,13,106,1100004,,,,,,,2024-03-18,1,,,,,アイティリソース,0
655,3010803004879,新規,0,2024-03-18,2024-03-18,草間商事合同会社,,合同会社,東京都,大田区,南六郷２丁目２番１－１１０号,,13,111,1440045,,,,,,,2024-03-18,1,,,,,クサマショウジ,0
656,3010803004887,新規,0,2024-03-18,2024-03-18,ＲＩＫＩＬＡＮＤ合同会社,,合同会社,東京都,大田区,西六郷３丁目１－７－１５０８号,,13,111,1440056,,,,,,,2024-03-18,1,,,,,リキランド,0
657,3010903008887,新規,0,2024-03-18,2024-03-18,合同会社松尾商事,,合同会社,東京都,世田谷区,弦巻５丁目１１番２－３０１号,,13,112,1540016,,,,,,,2024-03-18,1,,,,,マツオショウジ,0
664,3011001160531,新規,0,2024-03-18,2024-03-18,株式会社Ｗｅｌｌ２Ｌａｂ,,株式会社,東京都,目黒区,下目黒１丁目４－７グリーンハイツ行人坂２１６号,,13,110,1530064,,,,,,,2024-03-18,1,,,,,ウェルツーラボ,0
665,3011001160639,新規,0,2024-03-18,2024-03-18,株式会社ザグレース,,株式会社,東京都,渋谷区,本町１丁目１８番１０号,,13,113,1510071,,,,,,,2024-03-18,1,,,,,ザグレース,0
666,3011001160647,新規,0,2024-03-18,2024-03-18,株式会社志緑,,株式会社,東京都,目黒区,中根１丁目１８番２号シャトレー中根１階,,13,110,1520031,,,,,,,2024-03-18,1,,,,,シロク,0
669,3011003018694,新規,0,2024-03-18,2024-03-18,ＬＯＯＰＳ　ＤＥＳＩＧＮ合同会社,,合同会社,東京都,渋谷区,渋谷２丁目１９－１５宮益坂ビルディング６０９,,13,113,1500002,,,,,,,2024-03-18,1,,,,,ループスデザイン,0
670,3011003018703,新規,0,2024-03-18,2024-03-18,合同会社Ｓａｍａ　Ｓａｍａ,,合同会社,東京都,渋谷区,神泉町１０番１５号,,13,113,1500045,,,,,,,2024-03-18,1,,,,,サマサマ,0
671,3011003018711,新規,0,2024-03-18,2024-03-18,ロブル合同会社,,合同会社,東京都,渋谷区,上原２丁目１３番１２号,,13,113,1510064,,,,,,,2024-03-18,1,,,,,ロブル,0
674,3011101106525,新規,0,2024-03-18,2024-03-18,Ｊａｃｋｓｏｎ　ａｎｄ　Ｈａｒｕｋａ株式会社,,株式会社,東京都,新宿区,四谷坂町４番１２号コーポ北海２０５号室,,13,104,1600002,,,,,,,2024-03-18,1,,,,,ジャクソンアンドハルカ,0
675,3011101106582,新規,0,2024-03-18,2024-03-18,ＴＣ‐ＥＶＥＮＴ株式会社,,株式会社,東京都,新宿区,西新宿３丁目３－１３西新宿水間ビル２Ｆ,,13,104,1600023,,,,,,,2024-03-18,1,,,,,ティーシーイベント,0
677,3011103014206,新規,0,2024-03-18,2024-03-18,ＡｒｔｌｙＣｏｆｆｅｅＩｎｃ．合同会社,,合同会社,東京都,新宿区,新宿３丁目１５－１５新宿ピカデリー地下１階,,13,104,1600022,,,,,,,2024-03-18,1,,,,,アートリーコーヒーインク,0
679,3011303005087,新規,0,2024-03-18,2024-03-18,Ｐｈｏｔｏ　Ｅｎｃｏｕｎｔｅｒ　Ｓｔｕｄｉｏ合同会社,,合同会社,東京都,杉並区,和田２丁目４７番２７号ライフピアエスプリ２０６号室,,13,115,1660012,,,,,,,2024-03-18,1,,,,,フォトエンカウンタースタジオ,0
680,3011401025929,新規,0,2024-03-18,2024-03-18,株式会社エムエクセレント,,株式会社,東京都,板橋区,高島平９丁目１番５－７０１号,,13,119,1750082,,,,,,,2024-03-18,1,,,,,エムエクセレント,0
683,3011503005993,新規,0,2024-03-18,2024-03-18,合同会社サバービア・ラボ,,合同会社,東京都,北区,滝野川３丁目５番１５号ハウス・エマ３階,,13,117,1140023,,,,,,,2024-03-18,1,,,,,サバービアラボ,0
685,3011605002575,新規,0,2024-03-18,2024-03-18,一般社団法人和魂スポーツクラブ,,その他の設立登記法人,東京都,練馬区,石神井町３丁目２０番１９－３０２号,,13,120,1770041,,,,,,,2024-03-18,1,,,,,ワコンスポーツクラブ,0
686,3011701027121,新規,0,2024-03-18,2024-03-18,株式会社イワイチ企画,,株式会社,東京都,江戸川区,東小岩４丁目１３番７号,,13,123,1330052,,,,,,,2024-03-18,1,,,,,イワイチキカク,0
687,3012401041635,新規,0,2024-03-18,2024-03-18,株式会社異次元,,株式会社,東京都,三鷹市,下連雀６丁目１７番３４号２Ｆ,,13,204,1810013,,,,,,,2024-03-18,1,,,,,イジゲン,0
690,3012803003340,新規,0,2024-03-18,2024-03-18,合同会社ＫＭＳ,,合同会社,東京都,立川市,富士見町７丁目２６番４号,,13,202,1900013,,,,,,,2024-03-18,1,,,,,ケーエムエス,0
695,3013301052219,新規,0,2024-03-18,2024-03-18,株式会社ＮＩＫＯ,,株式会社,東京都,豊島区,池袋２丁目１２番１４号第８前島ビル１０１,,13,116,1710014,,,,,,,2024-03-18,1,,,,,ニコ,0
704,3020001156241,新規,0,2024-03-18,2024-03-18,株式会社フローラリッチ,,株式会社,神奈川県,横浜市金沢区,釜利谷南２丁目５６番２２号,,14,108,2360045,,,,,,,2024-03-18,1,,,,,フローラリッチ,0
705,3020001156258,新規,0,2024-03-18,2024-03-18,株式会社むさこ商事,,株式会社,神奈川県,川崎市中原区,新丸子東３丁目９２４松宮ビル２０１,,14,133,2110004,,,,,,,2024-03-18,1,,,,,ムサコショウジ,0
710,3020003025758,新規,0,2024-03-18,2024-03-18,合同会社撚,,合同会社,神奈川県,横浜市港北区,大倉山４丁目５番１ー６１１号,,14,109,2220037,,,,,,,2024-03-18,1,,,,,ヨル,0
711,3020003025774,新規,0,2024-03-18,2024-03-18,合同会社ＬＥＡＬＥ,,合同会社,神奈川県,川崎市中原区,中丸子２４６番地１ハーモニーレジデンス武蔵小杉４１７,,14,133,2110012,,,,,,,2024-03-18,1,,,,,レアーレ,0
712,3020003025790,新規,0,2024-03-18,2024-03-18,合同会社あおば,,合同会社,神奈川県,川崎市川崎区,本町２丁目５番地５号ライオンズマンション川崎多摩川９０１,,14,131,2100001,,,,,,,2024-03-18,1,,,,,アオバ,0
716,3021001081710,新規,0,2024-03-18,2024-03-18,株式会社剛金属リサイクル,,株式会社,神奈川県,相模原市中央区,中央５丁目５番２１－３号,,14,152,2520239,,,,,,,2024-03-18,1,,,,,ゴウキンゾクリサイクル,0
717,3021003014271,新規,0,2024-03-18,2024-03-18,合同会社パルティテック,,合同会社,神奈川県,南足柄市,壗下４４３番地３,,14,217,2500103,,,,,,,2024-03-18,1,,,,,パルティテック,0
719,3030001159235,新規,0,2024-03-18,2024-03-18,株式会社Ｎ＆Ａホールディングス,,株式会社,埼玉県,久喜市,栗原２丁目１番地１５,,11,232,3460012,,,,,,,2024-03-18,1,,,,,エヌアンドエーホールディングス,0
720,3030001159243,新規,0,2024-03-18,2024-03-18,コスモスタジオ株式会社,,株式会社,埼玉県,新座市,東北２丁目２４番１４－１０５号,,11,230,3520001,,,,,,,2024-03-18,1,,,,,コスモスタジオ,0
726,3040001132620,新規,0,2024-03-18,2024-03-18,ＲＢ株式会社,,株式会社,千葉県,千葉市中央区,仁戸名町５４４番地１ヴィクトワール仁戸名１０１号,,12,101,2600801,,,,,,,2024-03-18,1,,,,,アールビー,0
727,3040001132653,新規,0,2024-03-18,2024-03-18,株式会社フォルティス,,株式会社,千葉県,柏市,豊四季４８６番地４５,,12,217,2770863,,,,,,,2024-03-18,1,,,,,フォルティス,0
728,3040001132678,新規,0,2024-03-18,2024-03-18,株式会社拓実工業,,株式会社,千葉県,千葉市若葉区,桜木３丁目１１番１３号ジュネス桜木１０６号,,12,104,2640028,,,,,,,2024-03-18,1,,,,,タクミコウギョウ,0
732,3040005022322,新規,0,2024-03-18,2024-03-18,農事組合法人助崎ファーム,,その他の設立登記法人,千葉県,成田市,名古屋６６４番地,,12,211,2890116,,,,,,,2024-03-18,1,,,,,スケサキファーム,0
738,3050003008198,新規,0,2024-03-18,2024-03-18,合同会社ヒトノワ,,合同会社,茨城県,龍ケ崎市,久保台１丁目９番地１０,,08,208,3010001,,,,,,,2024-03-18,1,,,,,ヒトノワ,0
744,3060001036919,新規,0,2024-03-18,2024-03-18,株式会社フィスト,,株式会社,栃木県,宇都宮市,駒生町８５４番地２,,09,201,3200065,,,,,,,2024-03-18,1,,,,,フィスト,0
746,3060003004964,新規,0,2024-03-18,2024-03-18,ＴＦＰ合同会社,,合同会社,栃木県,鹿沼市,千渡８７６番地３,,09,205,3220002,,,,,,,2024-03-18,1,,,,,ティーエフピー,0
748,3070001041488,新規,0,2024-03-18,2024-03-18,ＡＫ　Ｍｏｖｅｒｓ＆Ｔｒａｄｅｒｓ株式会社,,株式会社,群馬県,太田市,粕川町２７７番地８,,10,205,3700421,,,,,,,2024-03-18,1,,,,,エーケームーバーズアンドトレーダーズ,0
749,3070001041496,新規,0,2024-03-18,2024-03-18,株式会社クリエイションマネジメント,,株式会社,群馬県,邑楽郡大泉町,仙石４丁目４０番３４号,,10,524,3700533,,,,,,,2024-03-18,1,,,,,クリエイションマネジメント,0
752,3080101024581,新規,0,2024-03-18,2024-03-18,株式会社リフォレスター,,株式会社,静岡県,富士宮市,東町６番１７号,,22,207,4180077,,,,,,,2024-03-18,1,,,,,リフォレスター,0
754,3080103003006,新規,0,2024-03-18,2024-03-18,合同会社米澤不動産事務所,,合同会社,静岡県,駿東郡長泉町,下土狩３７７番地の３,,22,342,4110943,,,,,,,2024-03-18,1,,,,,ヨネザワフドウサンジムショ,0
759,3090001018600,新規,0,2024-03-18,2024-03-18,株式会社ＷＨＩＴＥ　ＥＡＲＴＨ,,株式会社,山梨県,南都留郡富士河口湖町,大石２１２３番地２５,,19,430,4010305,,,,,,,2024-03-18,1,,,,,ホワイトアース,0
763,3100005013141,新規,0,2024-03-18,2024-03-18,医療法人樹の里,,その他の設立登記法人,長野県,北佐久郡軽井沢町,大字長倉４４２８番地１,,20,321,3890111,,,,,,,2024-03-18,1,,,,,キノサト,0
766,3110001038257,新規,0,2024-03-18,2024-03-18,株式会社ＫＵＳＡ　ＬＡＢ,,株式会社,新潟県,佐渡市,平清水５３５番地１,,15,224,9521213,,,,,,,2024-03-18,1,,,,,クサラボ,0
778,3120001263168,新規,0,2024-03-18,2024-03-18,翔株式会社,,株式会社,大阪府,大阪市中央区,博労町４丁目７番１号,,27,128,5410059,,,,,,,2024-03-18,1,,,,,ショウ,0
779,3120001263218,新規,0,2024-03-18,2024-03-18,株式会社ＷＡＶＥ,,株式会社,大阪府,大阪市此花区,西九条３丁目４－３４－３１１,,27,104,5540012,,,,,,,2024-03-18,1,,,,,ウェーブ,0
783,3120003026168,新規,0,2024-03-18,2024-03-18,ＭＹ合同会社,,合同会社,大阪府,大阪市西区,本田４丁目９番２２－４０７号,,27,106,5500022,,,,,,,2024-03-18,1,,,,,エムワイ,0
786,3120101069218,新規,0,2024-03-18,2024-03-18,株式会社エムリアライズ,,株式会社,大阪府,堺市西区,浜寺石津町中２丁５番１６号,,27,144,5928334,,,,,,,2024-03-18,1,,,,,エムリアライズ,0
787,3120101069242,新規,0,2024-03-18,2024-03-18,株式会社キーテフレール,,株式会社,大阪府,河内長野市,長野町５－１－１０３ノバティながの南館,,27,216,5860014,,,,,,,2024-03-18,1,,,,,キーテフレール,0
788,3120101069250,新規,0,2024-03-18,2024-03-18,ネオサイコー株式会社,,株式会社,大阪府,堺市北区,百舌鳥赤畑町２丁５３－１,,27,146,5918037,,,,,,,2024-03-18,1,,,,,ネオサイコー,0
793,3120901048890,新規,0,2024-03-18,2024-03-18,株式会社Ｉｎｔｅｒｅｖｅ,,株式会社,大阪府,茨木市,中穂積１丁目２番５１号シャトー春日第３ビル２階,,27,211,5670034,,,,,,,2024-03-18,1,,,,,インテレーヴ,0
795,3122001037907,新規,0,2024-03-18,2024-03-18,株式会社Ｒｅｌｉｅｆ,,株式会社,大阪府,八尾市,楠根町３丁目３５番地の２,,27,212,5810814,,,,,,,2024-03-18,1,,,,,リリーフ,0
798,3130001076569,新規,0,2024-03-18,2024-03-18,京蘭アセットマネージメント株式会社,,株式会社,京都府,京都市下京区,高倉通花屋町下る若松町４３３番地１,,26,106,6008198,,,,,,,2024-03-18,1,,,,,キョウランアセットマネージメント,0
802,3130003009378,新規,0,2024-03-18,2024-03-18,合同会社レクソル,,合同会社,京都府,京都市上京区,上の下立売通御前通西入大宮町４９１－１,,26,102,6028363,,,,,,,2024-03-18,1,,,,,レクソル,0
807,3140001133674,新規,0,2024-03-18,2024-03-18,株式会社ＤＡＩＴＥＣ,,株式会社,兵庫県,明石市,鷹匠町６番１１号,,28,203,6730848,,,,,,,2024-03-18,1,,,,,ダイテック,0
808,3140003020284,新規,0,2024-03-18,2024-03-18,合同会社山萬,,合同会社,兵庫県,美方郡香美町,香住区一日市４３７番地の７,,28,585,6696542,,,,,,,2024-03-18,1,,,,,ヤママン,0
811,3160001025746,新規,0,2024-03-18,2024-03-18,株式会社ＹＵサービス,,株式会社,滋賀県,大津市,新免１丁目３番１７号,,25,201,5202115,,,,,,,2024-03-18,1,,,,,ユウサービス,0
812,3160001025762,新規,0,2024-03-18,2024-03-18,株式会社ニンジャドローン,,株式会社,滋賀県,野洲市,小篠原２１１３番７,,25,210,5202331,,,,,,,2024-03-18,1,,,,,ニンジャドローン,0
813,3160003003139,新規,0,2024-03-18,2024-03-18,合同会社後修,,合同会社,滋賀県,湖南市,石部中央２丁目１番２０号,,25,211,5203106,,,,,,,2024-03-18,1,,,,,ゴシュウ,0
816,3170001018055,新規,0,2024-03-18,2024-03-18,森山工業株式会社,,株式会社,和歌山県,和歌山市,田屋１６３番地３８,,30,201,6496337,,,,,,,2024-03-18,1,,,,,モリヤマコウギョウ,0
827,3180003026501,新規,0,2024-03-18,2024-03-18,合同会社Ｃ．Ｇ．Ｓ,,合同会社,愛知県,名古屋市中区,錦３丁目１９－２１ロックビル２Ｆ,,23,106,4600003,,,,,,,2024-03-18,1,,,,,シージーエス,0
833,3190001031188,新規,0,2024-03-18,2024-03-18,株式会社ＲＥＩＴ,,株式会社,三重県,津市,芸濃町椋本５０２２番地５,,24,201,5142211,,,,,,,2024-03-18,1,,,,,リート,0
835,3200001042258,新規,0,2024-03-18,2024-03-18,株式会社わくわくキングダム,,株式会社,岐阜県,岐阜市,日ノ出町２丁目２０番地ＣＩＮＥＸ４階,,21,201,5008876,,,,,,,2024-03-18,1,,,,,ワクワクキングダム,0
836,3200001042274,新規,0,2024-03-18,2024-03-18,株式会社アドオン,,株式会社,岐阜県,本巣市,三橋４丁目７番地２,,21,218,5010406,,,,,,,2024-03-18,1,,,,,アドオン,0
846,3250001020572,新規,0,2024-03-18,2024-03-18,桑嶋工業株式会社,,株式会社,山口県,周南市,大字大河内２０９番地の４,,35,215,7450651,,,,,,,2024-03-18,1,,,,,クワジマコウギョウ,0
847,3250003003451,新規,0,2024-03-18,2024-03-18,合同会社ハレ,,合同会社,山口県,下関市,東観音町２２番８号シーズン東観音１０２,,35,201,7520906,,,,,,,2024-03-18,1,,,,,ハレ,0
848,3260001038829,新規,0,2024-03-18,2024-03-18,株式会社水元工業,,株式会社,岡山県,津山市,国分寺８０１番地４,,33,203,7080843,,,,,,,2024-03-18,1,,,,,ミズモトコウギョウ,0
853,3290001105056,新規,0,2024-03-18,2024-03-18,株式会社ＨＥＴＳ,,株式会社,福岡県,糟屋郡篠栗町,大字尾仲５４５番地４,,40,342,8112413,,,,,,,2024-03-18,1,,,,,エイチイーティーエス,0
854,3290001105106,新規,0,2024-03-18,2024-03-18,ＰＨＯＥＮＩＸ・ＨＡＬ株式会社,,株式会社,福岡県,福岡市中央区,平尾１丁目１０番１５号,,40,133,8100014,,,,,,,2024-03-18,1,,,,,フェニックスハル,0
857,3290003015055,新規,0,2024-03-18,2024-03-18,合同会社Ｃｏｌｏｒ　Ｏｎｅ,,合同会社,福岡県,福岡市中央区,鳥飼３丁目１４番２６－２０１号ルミエール大濠,,40,133,8100053,,,,,,,2024-03-18,1,,,,,カラーワン,0
858,3290003015063,新規,0,2024-03-18,2024-03-18,ライフプルーフケア合同会社,,合同会社,福岡県,筑紫野市,二日市南２丁目１２番３５号Ｄ１０２,,40,217,8180057,,,,,,,2024-03-18,1,,,,,ライフプルーフケア,0
859,3290005019319,新規,0,2024-03-18,2024-03-18,一般社団法人九州メディカル・パートナーズ,,その他の設立登記法人,福岡県,福岡市中央区,天神２丁目２番１２号Ｔ＆Ｊビルディング７Ｆ,,40,133,8100001,,,,,,,2024-03-18,1,,,,,キュウシュウメディカルパートナーズ,0
861,3300001013645,新規,0,2024-03-18,2024-03-18,ＩＮ　ＴＨＥ　ＭＩＤＷＩＮＴＥＲ株式会社,,株式会社,佐賀県,唐津市,浜玉町浜崎１１８４番地２,,41,202,8495131,,,,,,,2024-03-18,1,,,,,インザミッドウィンター,0
862,3320001020359,新規,0,2024-03-18,2024-03-18,ＲＡＰＴｏＲ株式会社,,株式会社,大分県,大分市,金池町２丁目４－６九州電力大分支社別館１Ｆ,,44,201,8700026,,,,,,,2024-03-18,1,,,,,ラプトル,0
863,3330001031859,新規,0,2024-03-18,2024-03-18,株式会社彩色ファーム,,株式会社,熊本県,熊本市南区,八分字町２６６４番地,,43,104,8615253,,,,,,,2024-03-18,1,,,,,サイシキファーム,0
866,3340001026362,新規,0,2024-03-18,2024-03-18,Ｎマネジメント株式会社,,株式会社,鹿児島県,鹿児島市,中央町１９番４０ザ・パークハウス鹿児島中央タワー１６０８,,46,201,8900053,,,,,,,2024-03-18,1,,,,,エヌマネジメント,0
867,3340001026379,新規,0,2024-03-18,2024-03-18,株式会社ユリイカベースラボ,,株式会社,鹿児島県,鹿児島市,城西２丁目２番２４号エムディア城西ヒルズサイド５１７号,,46,201,8900041,,,,,,,2024-03-18,1,,,,,ユリイカベースラボ,0
868,3340003004408,新規,0,2024-03-18,2024-03-18,合同会社星月,,合同会社,鹿児島県,鹿児島市,堀江町５－１,,46,201,8920824,,,,,,,2024-03-18,1,,,,,アカリ,0
872,3360001033290,新規,0,2024-03-18,2024-03-18,株式会社エルアールリンケージ,,株式会社,沖縄県,沖縄市,大里２丁目２８番５０号,,47,211,9042163,,,,,,,2024-03-18,1,,,,,エルアールリンケージ,0
873,3360001033308,新規,0,2024-03-18,2024-03-18,株式会社日和ハウス,,株式会社,沖縄県,沖縄市,与儀１丁目１番３６号,,47,211,9042174,,,,,,,2024-03-18,1,,,,,ヒヨリハウス,0
874,3360001033332,新規,0,2024-03-18,2024-03-18,株式会社ＬＪ建設,,株式会社,沖縄県,沖縄市,中央３丁目８番１７号シティビューマンション５０３,,47,211,9040004,,,,,,,2024-03-18,1,,,,,エルジェイケンセツ,0
875,3360001033340,新規,0,2024-03-18,2024-03-18,株式会社アンドワークス,,株式会社,沖縄県,島尻郡南風原町,字兼城２００ヨシロビル１Ｆ,,47,350,9011111,,,,,,,2024-03-18,1,,,,,アンドワークス,0
879,3360003013794,新規,0,2024-03-18,2024-03-18,合同会社Ｗｉｎｇｕ　Ｔｒａｖｅｌ,,合同会社,沖縄県,石垣市,字新川２４４５番地１コーラルベイ石垣島８０５,,47,207,9070024,,,,,,,2024-03-18,1,,,,,ウィングトラベル,0
880,3360003013803,新規,0,2024-03-18,2024-03-18,なかラボ合同会社,,合同会社,沖縄県,那覇市,字国場１４１番地,,47,201,9020075,,,,,,,2024-03-18,1,,,,,ナカラボ,0
881,3360003013811,新規,0,2024-03-18,2024-03-18,合同会社Ａｔｈｉｍａｒｉｃｕｍ,,合同会社,沖縄県,那覇市,字識名１２５３番地９・１階,,47,201,9020078,,,,,,,2024-03-18,1,,,,,アチマリカム,0
884,3370003006517,新規,0,2024-03-18,2024-03-18,合同会社よつばぺんぎん,,合同会社,宮城県,仙台市若林区,六丁の目南町１１番１８号,,04,103,9840013,,,,,,,2024-03-18,1,,,,,ヨツバペンギン,0
888,3390001017555,新規,0,2024-03-18,2024-03-18,フジエイト株式会社,,株式会社,山形県,天童市,大字高擶金谷１８６２,,06,210,9940068,,,,,,,2024-03-18,1,,,,,フジエイト,0
889,3390003002209,新規,0,2024-03-18,2024-03-18,合同会社マルタ,,合同会社,山形県,長井市,本町２丁目２番１５号,,06,209,9930007,,,,,,,2024-03-18,1,,,,,マルタ,0
890,3390003002217,新規,0,2024-03-18,2024-03-18,ＳＴＡＲＴ‐ＵＰ合同会社,,合同会社,山形県,寒河江市,大字高屋３３３番地,,06,206,9910042,,,,,,,2024-03-18,1,,,,,スタートアップ,0
896,3400001016588,新規,0,2024-03-18,2024-03-18,株式会社Ｄｅｃｏｐｉｎ,,株式会社,岩手県,奥州市,水沢上姉体１丁目７番地２１,,03,215,0230833,,,,,,,2024-03-18,1,,,,,デコピン,0
897,3400005008400,新規,0,2024-03-18,2024-03-18,くのへ村づくり事業協同組合,,その他の設立登記法人,岩手県,九戸郡九戸村,大字伊保内第１０地割１１番地６,,03,506,0286502,,,,,,,2024-03-18,1,,,,,クノヘムラヅクリ,0
906,3420001018632,新規,0,2024-03-18,2024-03-18,株式会社東海,,株式会社,青森県,八戸市,大字鮫町字小舟渡平１０番地７４,,02,203,0310841,,,,,,,2024-03-18,1,,,,,トウカイ,0
911,3430001091265,新規,0,2024-03-18,2024-03-18,そうべつ・アグリフーズ株式会社,,株式会社,北海道,有珠郡壮瞥町,字南久保内１４２番地１,,01,575,0520116,,,,,,,2024-03-18,1,,,,,ソウベツアグリフーズ,0
912,3430001091307,新規,0,2024-03-18,2024-03-18,株式会社ｗａｋａ,,株式会社,北海道,札幌市西区,西野一条２丁目８番３０号,,01,107,0630031,,,,,,,2024-03-18,1,,,,,ワカ,0
915,3430003016113,新規,0,2024-03-18,2024-03-18,合同会社Ｅライフライン,,合同会社,北海道,札幌市東区,北二十三条東５丁目１番１２号,,01,103,0650023,,,,,,,2024-03-18,1,,,,,イーライフライン,0
916,3430005014924,新規,0,2024-03-18,2024-03-18,医療法人社団平岸外科整形外科医院,,その他の設立登記法人,北海道,札幌市豊平区,平岸二条１７丁目２番１１号,,01,105,0620932,,,,,,,2024-03-18,1,,,,,ヒラギシゲカセイケイゲカイイン,0
919,3450001014257,新規,0,2024-03-18,2024-03-18,株式会社デザインオフィス・ヒラキ,,株式会社,北海道,旭川市,永山二条４丁目３番５号,,01,204,0798412,,,,,,,2024-03-18,1,,,,,デザインオフィスヒラキ,0
922,3490001010723,新規,0,2024-03-18,2024-03-18,株式会社ＫＯＭＡＫＥＮ,,株式会社,高知県,南国市,緑ケ丘３丁目１００８番地,,39,204,7830086,,,,,,,2024-03-18,1,,,,,コマケン,0
926,3500001025513,新規,0,2024-03-18,2024-03-18,株式会社松久工業,,株式会社,愛媛県,松山市,和泉南３丁目１０番３５－３号,,38,201,7900941,,,,,,,2024-03-18,1,,,,,マツヒサコウギョウ,0
934,4010001243031,新規,0,2024-03-18,2024-03-18,株式会社コネクトソル,,株式会社,東京都,千代田区,内神田２丁目３番１－１３０３号,,13,101,1010047,,,,,,,2024-03-18,1,,,,,コネクトソル,0
935,4010001243080,新規,0,2024-03-18,2024-03-18,株式会社ＡＪＮ,,株式会社,東京都,中央区,日本橋室町１丁目１１番１２号日本橋水野ビル７階,,13,102,1030022,,,,,,,2024-03-18,1,,,,,エイジェイエヌ,0
936,4010001243097,新規,0,2024-03-18,2024-03-18,Ｉ．Ｎ．ＳＥＣＴ　ＤＥＳＩＧＮ株式会社,,株式会社,東京都,中央区,東日本橋３丁目１０番１１－６０３号,,13,102,1030004,,,,,,,2024-03-18,1,,,,,インセクトデザイン,0
937,4010001243122,新規,0,2024-03-18,2024-03-18,Ａｚｕｒｅ　Ｔｅｃｈｎｏｌｏｇｉｅｓ株式会社,,株式会社,東京都,千代田区,麹町２丁目１０番地３,,13,101,1020083,,,,,,,2024-03-18,1,,,,,アズールテクノロジーズ,0
938,4010001243130,新規,0,2024-03-18,2024-03-18,株式会社ナラティビティ総研,,株式会社,東京都,千代田区,九段南１丁目５番６号りそな九段ビル５ＦＫＳフロア,,13,101,1020074,,,,,,,2024-03-18,1,,,,,ナラティビティソウケン,0
939,4010001243163,新規,0,2024-03-18,2024-03-18,株式会社藤屋,,株式会社,東京都,千代田区,富士見２丁目７番１－２６０５号,,13,101,1020071,,,,,,,2024-03-18,1,,,,,フジヤ,0
940,4010001243246,新規,0,2024-03-18,2024-03-18,ＴＣ４１株式会社,,株式会社,東京都,千代田区,丸の内３丁目１番１号国際ビル,,13,101,1000005,,,,,,,2024-03-18,1,,,,,ティーシーヨンジュウイチ,0
944,4010003043215,新規,0,2024-03-18,2024-03-18,フォレストリーム合同会社,,合同会社,東京都,文京区,本郷６丁目２３番地１０号フォレストリーム本郷３０１号,,13,105,1130033,,,,,,,2024-03-18,1,,,,,フォレストリーム,0
945,4010003043223,新規,0,2024-03-18,2024-03-18,プロジェクトエクラン合同会社,,合同会社,東京都,中央区,日本橋室町１丁目１１番１２号日本橋水野ビル７階,,13,102,1030022,,,,,,,2024-03-18,1,,,,,プロジェクトエクラン,0
957,4010401181054,新規,0,2024-03-18,2024-03-18,株式会社リヴクライム・トータルオフィス,,株式会社,東京都,港区,新橋３丁目９番１０号,,13,103,1050004,,,,,,,2024-03-18,1,,,,,リヴクライムトータルオフィス,0
958,4010401181112,新規,0,2024-03-18,2024-03-18,株式会社Ｐ‐ｂｏｎｄ,,株式会社,東京都,港区,北青山１丁目３番１号アールキューブ青山３階,,13,103,1070061,,,,,,,2024-03-18,1,,,,,ピーボンド,0
959,4010403032172,新規,0,2024-03-18,2024-03-18,合同会社ＣＣＭコンサルティング,,合同会社,東京都,港区,北青山１丁目３番１号アールキューブ青山３階,,13,103,1070061,,,,,,,2024-03-18,1,,,,,シーシーエムコンサルティング,0
960,4010403032180,新規,0,2024-03-18,2024-03-18,ＯＰＥＮ　ＣＬＢ合同会社,,合同会社,東京都,港区,南青山２丁目２番１５号,,13,103,1070062,,,,,,,2024-03-18,1,,,,,オープンクライム,0
962,4010501051958,新規,0,2024-03-18,2024-03-18,旭昇株式会社,,株式会社,東京都,台東区,上野５丁目２３番１１号スグルビル１Ｆ,,13,106,1100005,,,,,,,2024-03-18,1,,,,,キョクショウ,0
963,4010503007371,新規,0,2024-03-18,2024-03-18,ＶＮＤ合同会社,,合同会社,東京都,台東区,東上野４丁目１－１,,13,106,1100015,,,,,,,2024-03-18,1,,,,,ヴィーエンヌデー,0
965,4010701045660,新規,0,2024-03-18,2024-03-18,株式会社ＫＫＲ,,株式会社,東京都,品川区,上大崎３丁目５番８―１８０３号,,13,109,1410021,,,,,,,2024-03-18,1,,,,,ケーケーアール,0
967,4010801034860,新規,0,2024-03-18,2024-03-18,ズッキーズ株式会社,,株式会社,東京都,大田区,南馬込４丁目１８番２１号,,13,111,1430025,,,,,,,2024-03-18,1,,,,,ズッキーズ,0
968,4010903008903,新規,0,2024-03-18,2024-03-18,Ｂｒｅｅｚｅ＆Ｉ合同会社,,合同会社,東京都,世田谷区,上馬３丁目１４番１６,,13,112,1540011,,,,,,,2024-03-18,1,,,,,ブリーズアンドアイ,0
971,4011001160638,新規,0,2024-03-18,2024-03-18,株式会社Ｐ＆Ｋ,,株式会社,東京都,渋谷区,神宮前３丁目４２番２号,,13,113,1500001,,,,,,,2024-03-18,1,,,,,ピーアンドケー,0
972,4011001160646,新規,0,2024-03-18,2024-03-18,株式会社ファースト,,株式会社,東京都,渋谷区,千駄ヶ谷５丁目１４番地１４号,,13,113,1510051,,,,,,,2024-03-18,1,,,,,ファースト,0
973,4011001160654,新規,0,2024-03-18,2024-03-18,株式会社ＧＬＯＢＡＬ　ＡＰＰＬＩＥＤ,,株式会社,東京都,渋谷区,松濤１丁目１９番１０号シクセー松涛２０４,,13,113,1500046,,,,,,,2024-03-18,1,,,,,グローバルアプライド,0
974,4011001160670,新規,0,2024-03-18,2024-03-18,株式会社ＰｏＣａｓｋ　Ｅ＆Ｍ　ＪＡＰＡＮ,,株式会社,東京都,渋谷区,道玄坂１丁目１２番１号,,13,113,1500043,,,,,,,2024-03-18,1,,,,,ポーキャスクイーアンドエムジャパン,0
975,4011003018702,新規,0,2024-03-18,2024-03-18,合同会社Ｓｕｎ　Ｓｈｉｎｅ,,合同会社,東京都,渋谷区,神泉町１０番１５号,,13,113,1500045,,,,,,,2024-03-18,1,,,,,サンシャイン,0
976,4011005010401,新規,0,2024-03-18,2024-03-18,一般社団法人学芸会,,その他の設立登記法人,東京都,目黒区,鷹番２丁目１３番９号,,13,110,1520004,,,,,,,2024-03-18,1,,,,,ガクゲイカイ,0
981,4011103014221,新規,0,2024-03-18,2024-03-18,合同会社ＡＬＬＩＮ,,合同会社,東京都,新宿区,西新宿３丁目５－１２,,13,104,1600023,,,,,,,2024-03-18,1,,,,,オールイン,0
985,4011301029491,新規,0,2024-03-18,2024-03-18,株式会社ＫＪ,,株式会社,東京都,杉並区,成田西２丁目２３番１０号,,13,115,1660016,,,,,,,2024-03-18,1,,,,,ケイジェイ,0
986,4011301029509,新規,0,2024-03-18,2024-03-18,株式会社ＭＴハウジング,,株式会社,東京都,杉並区,宮前５丁目７－６,,13,115,1680081,,,,,,,2024-03-18,1,,,,,エムティーハウジング,0
988,4011401025928,新規,0,2024-03-18,2024-03-18,株式会社ざくや,,株式会社,東京都,板橋区,蓮沼町２３番７号,,13,119,1740052,,,,,,,2024-03-18,1,,,,,ザクヤ,0
989,4011403004302,新規,0,2024-03-18,2024-03-18,合同会社Ｒａｉｎｂｏｗ　Ｖａｎｉｌｌａ,,合同会社,東京都,板橋区,大谷口北町４８番３号,,13,119,1730031,,,,,,,2024-03-18,1,,,,,レインボーバニラ,0
990,4011501030431,新規,0,2024-03-18,2024-03-18,株式会社Ｒｏｓｅｍｅｎｅ,,株式会社,東京都,北区,神谷１丁目３－３－１４０９,,13,117,1150043,,,,,,,2024-03-18,1,,,,,,0
991,4011501030448,新規,0,2024-03-18,2024-03-18,株式会社ＢＥＬＸ,,株式会社,東京都,北区,志茂４丁目４８番４－６０１号,,13,117,1150042,,,,,,,2024-03-18,1,,,,,ヴェルクス,0
995,4012303001959,新規,0,2024-03-18,2024-03-18,合同会社ブライトオークリッチ,,合同会社,東京都,町田市,広袴３丁目１番地２４,,13,209,1950056,,,,,,,2024-03-18,1,,,,,ブライトオークリッチ,0
1000,4012801023034,新規,0,2024-03-18,2024-03-18,株式会社トシニティ,,株式会社,東京都,日野市,大字川辺堀之内５３４番地の１（１３街区１６－６）,,13,212,1910015,,,,,,,2024-03-18,1,,,,,トシニティ,0
1006,4020001156249,新規,0,2024-03-18,2024-03-18,Ｓａｎｋｏ　Ｐｌｕｓ株式会社,,株式会社,神奈川県,横浜市瀬谷区,本郷１丁目９番地６,,14,114,2460015,,,,,,,2024-03-18,1,,,,,サンコープラス,0
1007,4020001156257,新規,0,2024-03-18,2024-03-18,ブルーメン株式会社,,株式会社,神奈川県,横浜市神奈川区,青木町４番地４ディームス横濱青木町３０２号,,14,102,2210057,,,,,,,2024-03-18,1,,,,,ブルーメン,0
1008,4020001156348,新規,0,2024-03-18,2024-03-18,株式会社ラナンシステム,,株式会社,神奈川県,川崎市川崎区,駅前本町１１番地２川崎フロンティアビル４階,,14,131,2100007,,,,,,,2024-03-18,1,,,,,ラナンシステム,0
1014,4020005016309,新規,0,2024-03-18,2024-03-18,医療法人ＯＯＴＯＲＩ,,その他の設立登記法人,神奈川県,横浜市青葉区,桂台２丁目１番地２－２階,,14,117,2270034,,,,,,,2024-03-18,1,,,,,オオトリ,0
1024,4030001159226,新規,0,2024-03-18,2024-03-18,株式会社ＬＩＶＦＲＥＥ,,株式会社,埼玉県,ふじみ野市,北野１丁目５番１５号,,11,245,3560007,,,,,,,2024-03-18,1,,,,,リブフリー,0
1028,4030005021588,新規,0,2024-03-18,2024-03-18,医療法人社団明星会,,その他の設立登記法人,埼玉県,戸田市,大字新曽２２３５番地ライフコート２Ｆ,,11,224,3350021,,,,,,,2024-03-18,1,,,,,メイセイカイ,0
1039,4040001132685,新規,0,2024-03-18,2024-03-18,アルカンシエル株式会社,,株式会社,千葉県,浦安市,明海４丁目２番１１－２７０２号,,12,227,2790014,,,,,,,2024-03-18,1,,,,,アルカンシエル,0
1040,4040001132710,新規,0,2024-03-18,2024-03-18,株式会社ライトアイミッション,,株式会社,千葉県,千葉市中央区,中央２丁目５番１号千葉中央ツインビル２号館７階,,12,101,2600013,,,,,,,2024-03-18,1,,,,,ライトアイミッション,0
1044,4040003024567,新規,0,2024-03-18,2024-03-18,エッセンシャル合同会社,,合同会社,千葉県,市川市,若宮２丁目１６番１号,,12,203,2720812,,,,,,,2024-03-18,1,,,,,エッセンシャル,0
1045,4040005022321,新規,0,2024-03-18,2024-03-18,Ｈ　ＬＩＮＥ協同組合,,その他の設立登記法人,千葉県,千葉市中央区,花輪町１２番地１２,,12,101,2600803,,,,,,,2024-03-18,1,,,,,エイチライン,0
1047,4050003008197,新規,0,2024-03-18,2024-03-18,合同会社笑ｂｏｋｕ,,合同会社,茨城県,水戸市,酒門町３２９２番地の３８,,08,201,3100841,,,,,,,2024-03-18,1,,,,,ショウボク,0
1055,4060001036918,新規,0,2024-03-18,2024-03-18,株式会社ＨＩ,,株式会社,栃木県,足利市,朝倉町３丁目４番地１ノース２０３,,09,202,3260823,,,,,,,2024-03-18,1,,,,,エイチアイ,0
1059,4070001041495,新規,0,2024-03-18,2024-03-18,満月の世界株式会社,,株式会社,群馬県,富岡市,富岡８３８番地３ａ．ｐ．ｂｅｌｌｗｏｏｄ３号,,10,210,3702316,,,,,,,2024-03-18,1,,,,,,0
1064,4080401027052,新規,0,2024-03-18,2024-03-18,ＤＺ株式会社,,株式会社,静岡県,浜松市中央区,坪井町４０８３番地,,22,138,4310202,,,,,,,2024-03-18,1,,,,,ディーゼット,0
1068,4090001018599,新規,0,2024-03-18,2024-03-18,株式会社Ｆａｎｔａｓｉｓｔａ,,株式会社,山梨県,笛吹市,石和町東油川２９１番地１,,19,211,4060046,,,,,,,2024-03-18,1,,,,,ファンタジスタ,0
1070,4090003002519,新規,0,2024-03-18,2024-03-18,合同会社ｗｈａｌｅｃｌｏｕｄ,,合同会社,山梨県,韮崎市,清哲町青木２６５３番地２２,,19,207,4070055,,,,,,,2024-03-18,1,,,,,ホエールクラウド,0
1073,4110003005329,新規,0,2024-03-18,2024-03-18,合同会社しらたま,,合同会社,新潟県,柏崎市,栄町３－３０,,15,205,9450061,,,,,,,2024-03-18,1,,,,,シラタマ,0
1084,4120001263101,新規,0,2024-03-18,2024-03-18,株式会社ＨＹＵ,,株式会社,大阪府,大阪市旭区,高殿２丁目１８番１３－１０１１号,,27,117,5350031,,,,,,,2024-03-18,1,,,,,エイチワイユー,0
1085,4120001263159,新規,0,2024-03-18,2024-03-18,リンクアイール株式会社,,株式会社,大阪府,大阪市中央区,安堂寺町２丁目３番５号,,27,128,5420061,,,,,,,2024-03-18,1,,,,,リンクアイール,0
1086,4120001263167,新規,0,2024-03-18,2024-03-18,株式会社ＯＮＹＯ,,株式会社,大阪府,大阪市天王寺区,松ケ鼻町１０番１６号,,27,109,5430034,,,,,,,2024-03-18,1,,,,,オンヨ,0
1087,4120001263175,新規,0,2024-03-18,2024-03-18,友達株式会社,,株式会社,大阪府,大阪市城東区,永田４丁目６番３号新深江橋ハイツ５０４号室,,27,118,5360022,,,,,,,2024-03-18,1,,,,,トモダチ,0
1088,4120001263183,新規,0,2024-03-18,2024-03-18,昊坤株式会社,,株式会社,大阪府,大阪市浪速区,日本橋東３丁目１５番３号ハイツクシノ５０Ｄ,,27,111,5560006,,,,,,,2024-03-18,1,,,,,コウコン,0
1089,4120001263191,新規,0,2024-03-18,2024-03-18,捌玖零株式会社,,株式会社,大阪府,大阪市西成区,長橋３丁目６番１９号,,27,122,5570025,,,,,,,2024-03-18,1,,,,,バーキューレイ,0
1090,4120001263282,新規,0,2024-03-18,2024-03-18,朝井ハウジング株式会社,,株式会社,大阪府,大阪市西区,新町４丁目１９番３号１Ｆ,,27,106,5500013,,,,,,,2024-03-18,1,,,,,アサイハウジング,0
1093,4120003026126,新規,0,2024-03-18,2024-03-18,合同会社大阪ヤンゴン会計事務所日本法人,,合同会社,大阪府,大阪市北区,豊崎３丁目２０－９－７０５,,27,127,5310072,,,,,,,2024-03-18,1,,,,,オオサカヤンゴンカイケイジムショニホンホウジン,0
1094,4120003026150,新規,0,2024-03-18,2024-03-18,シタ合同会社,,合同会社,大阪府,大阪市都島区,友渕町１丁目３番１２－１１１号,,27,102,5340016,,,,,,,2024-03-18,1,,,,,シタ,0
1095,4120003026159,新規,0,2024-03-18,2024-03-18,合同会社清栄鉄筋,,合同会社,大阪府,大阪市鶴見区,浜４丁目１４番８－１２０１号,,27,124,5380035,,,,,,,2024-03-18,1,,,,,キヨエイテッキン,0
1098,4120101069217,新規,0,2024-03-18,2024-03-18,株式会社宮建,,株式会社,大阪府,堺市中区,八田北町１０１２番地１,,27,142,5998262,,,,,,,2024-03-18,1,,,,,ミヤケン,0
1099,4120103005723,新規,0,2024-03-18,2024-03-18,Ｏｚｏｎｅ合同会社,,合同会社,大阪府,松原市,天美我堂６丁目５番３２号,,27,217,5800026,,,,,,,2024-03-18,1,,,,,オゾン,0
1100,4120103005731,新規,0,2024-03-18,2024-03-18,合同会社フルフォード,,合同会社,大阪府,堺市南区,茶山台２丁１番２２－２０７号,,27,145,5900115,,,,,,,2024-03-18,1,,,,,フルフォード,0
1106,4122001037906,新規,0,2024-03-18,2024-03-18,株式会社Ｍ’ｓエンジニア,,株式会社,大阪府,柏原市,平野２丁目９番３３－１０３号,,27,221,5820019,,,,,,,2024-03-18,1,,,,,エムズエンジニア,0
1111,4140001133673,新規,0,2024-03-18,2024-03-18,株式会社ＷＬＣ,,株式会社,兵庫県,神戸市西区,見津が丘１丁目３番地４,,28,111,6512228,,,,,,,2024-03-18,1,,,,,ダブルエルシー,0
1112,4140001133731,新規,0,2024-03-18,2024-03-18,株式会社ＲＥ,,株式会社,兵庫県,西宮市,苦楽園二番町１９－４９,,28,204,6620082,,,,,,,2024-03-18,1,,,,,アールイー,0
1113,4140001133756,新規,0,2024-03-18,2024-03-18,株式会社グルック,,株式会社,兵庫県,明石市,北王子町２番８－１号,,28,203,6730021,,,,,,,2024-03-18,1,,,,,グルック,0
1117,4150001027148,新規,0,2024-03-18,2024-03-18,株式会社慶住設,,株式会社,奈良県,奈良市,大安寺３丁目１０番３１号,,29,201,6308133,,,,,,,2024-03-18,1,,,,,キョンジュウセツ,0
1120,4160001025745,新規,0,2024-03-18,2024-03-18,近美商事株式会社,,株式会社,滋賀県,彦根市,中藪町６７５番地２３－１０５,,25,202,5220051,,,,,,,2024-03-18,1,,,,,オウミショウジ,0
1136,4180005020550,新規,0,2024-03-18,2024-03-18,一般社団法人日本クリエイティブデザインプロセス研究所,,その他の設立登記法人,愛知県,名古屋市中村区,名駅南４丁目１番７号ＣＡＳＡ＋α名駅南２０２号室,,23,105,4500003,,,,,,,2024-03-18,1,,,,,ニホンクリエイティブデザインプロセスケンキュウジョ,0
1139,4190001031187,新規,0,2024-03-18,2024-03-18,株式会社ラシックホーム,,株式会社,三重県,松阪市,船江町１１９番地２,,24,204,5150812,,,,,,,2024-03-18,1,,,,,ラシックホーム,0
1141,4190003004612,新規,0,2024-03-18,2024-03-18,おこしカンパニー合同会社,,合同会社,三重県,鈴鹿市,白子駅前２４‐８,,24,207,5100241,,,,,,,2024-03-18,1,,,,,オコシカンパニー,0
1142,4190005011920,新規,0,2024-03-18,2024-03-18,一般社団法人津太陽光発電所,,その他の設立登記法人,三重県,四日市市,日永東３丁目２番３９号,,24,202,5100886,,,,,,,2024-03-18,1,,,,,ツタイヨウコウハツデンショ,0
1143,4200001042257,新規,0,2024-03-18,2024-03-18,株式会社ＣＯＣＯＲＯ　ＦＩＯＣＣＯ,,株式会社,岐阜県,美濃加茂市,太田本町２丁目２番地１今枝ビル１階,,21,211,5050042,,,,,,,2024-03-18,1,,,,,ココロフィオッコ,0
1144,4200001042265,新規,0,2024-03-18,2024-03-18,株式会社サンオー,,株式会社,岐阜県,大野郡白川村,大字保木脇２１１番地の６,,21,604,5015501,,,,,,,2024-03-18,1,,,,,サンオー,0
1145,4200001042273,新規,0,2024-03-18,2024-03-18,Ｋ’ｓ　ｃｒｅａｔｅ株式会社,,株式会社,岐阜県,可児市,川合２０８番地１（サンシャイン渡辺３Ｂ）,,21,214,5090201,,,,,,,2024-03-18,1,,,,,ケーズクリエイト,0
1147,4220001025862,新規,0,2024-03-18,2024-03-18,株式会社ＬＯＯＫ　ＡＧＥ,,株式会社,石川県,野々市市,若松町１０番２２号,,17,212,9218816,,,,,,,2024-03-18,1,,,,,ルックエージ,0
1151,4240001062929,新規,0,2024-03-18,2024-03-18,株式会社三矢,,株式会社,広島県,広島市西区,中広町２丁目２４番５－４０６号,,34,104,7330012,,,,,,,2024-03-18,1,,,,,ミツヤ,0
1161,4260001038836,新規,0,2024-03-18,2024-03-18,株式会社スタームーン,,株式会社,岡山県,岡山市北区,下石井１丁目１番１７号,,33,101,7000907,,,,,,,2024-03-18,1,,,,,スタームーン,0
1162,4260001038844,新規,0,2024-03-18,2024-03-18,米農大脇株式会社,00134084,株式会社,岡山県,瀬戸内市,邑久町下山田１４１９番地,,33,212,7014216,,,,,,,2024-03-18,1,,,,,コメノウオオワキ,0
1163,4260001038852,新規,0,2024-03-18,2024-03-18,株式会社ＷＡＮ　ＶＯＹＡＧＥ,,株式会社,岡山県,岡山市中区,円山７８番１,,33,102,7038271,,,,,,,2024-03-18,1,,,,,ワンボヤージュ,0
1164,4260001038860,新規,0,2024-03-18,2024-03-18,株式会社スマイルライフ,,株式会社,岡山県,倉敷市,児島上の町４丁目２２番７６号,,33,202,7110907,,,,,,,2024-03-18,1,,,,,スマイルライフ,0
1165,4260003004613,新規,0,2024-03-18,2024-03-18,オクトパスコンサルティング合同会社,,合同会社,岡山県,岡山市北区,北長瀬表町２丁目１７番８０号ＢＲＡＮＣＨ岡山北長瀬ハッシュタグ,,33,101,7000962,,,,,,,2024-03-18,1,,,,,オクトパスコンサルティング,0
1173,4290001105039,新規,0,2024-03-18,2024-03-18,株式会社Ｐｕｒｒｎｏｖａｔｅ,,株式会社,福岡県,太宰府市,水城４丁目１４番１１号,,40,221,8180131,,,,,,,2024-03-18,1,,,,,パーノベート,0
1174,4290001105047,新規,0,2024-03-18,2024-03-18,サンライズアンドブロッサムズ株式会社,,株式会社,福岡県,福岡市博多区,博多駅前１丁目２３番２号ＰａｒｋＦｒｏｎｔ博多駅前１丁目５Ｆ－Ｂ,,40,132,8120011,,,,,,,2024-03-18,1,,,,,サンライズアンドブロッサムズ,0
1175,4290001105063,新規,0,2024-03-18,2024-03-18,株式会社アーチ,,株式会社,福岡県,福岡市城南区,長尾４丁目１０番２５号,,40,136,8140123,,,,,,,2024-03-18,1,,,,,アーチ,0
1178,4290003015062,新規,0,2024-03-18,2024-03-18,合同会社よしいずみ,,合同会社,福岡県,八女市,黒木町本分８９９番地１,,40,210,8341213,,,,,,,2024-03-18,1,,,,,ヨシイズミ,0
1179,4290003015070,新規,0,2024-03-18,2024-03-18,ライフ・コンサル合同会社,,合同会社,福岡県,福岡市早良区,野芥６丁目２２番７号,,40,137,8140171,,,,,,,2024-03-18,1,,,,,ライフコンサル,0
1184,4300001013652,新規,0,2024-03-18,2024-03-18,株式会社大原新生,,株式会社,佐賀県,唐津市,神田２３５７番地１サンパルジュＣ－１０１号,,41,202,8470824,,,,,,,2024-03-18,1,,,,,,0
1187,4300003002091,新規,0,2024-03-18,2024-03-18,合同会社ａｒｓ,,合同会社,佐賀県,佐賀市,兵庫北３丁目１２－２０,,41,201,8490919,,,,,,,2024-03-18,1,,,,,アース,0
1194,4340001026378,新規,0,2024-03-18,2024-03-18,株式会社タカソウ,,株式会社,鹿児島県,鹿児島市,郡元町３０番７号,,46,201,8900084,,,,,,,2024-03-18,1,,,,,タカソウ,0
1195,4340003004407,新規,0,2024-03-18,2024-03-18,合同会社ツーエス,,合同会社,鹿児島県,霧島市,隼人町姫城１７８７－１０,,46,218,8995111,,,,,,,2024-03-18,1,,,,,,0
1197,4360001033315,新規,0,2024-03-18,2024-03-18,株式会社ちゅらメニ,,株式会社,沖縄県,中頭郡中城村,字南上原１０２０番地１ボヌール１０１号,,47,328,9012424,,,,,,,2024-03-18,1,,,,,チュラメニ,0
1198,4360001033331,新規,0,2024-03-18,2024-03-18,株式会社ＬＪ興産,,株式会社,沖縄県,沖縄市,園田３丁目１１番４８号１Ｆ,,47,211,9040022,,,,,,,2024-03-18,1,,,,,エルジェイコウサン,0
1199,4360001033356,新規,0,2024-03-18,2024-03-18,株式会社山内工業,,株式会社,沖縄県,那覇市,松川２丁目７番２７号仲尾アパート１０３,,47,201,9020062,,,,,,,2024-03-18,1,,,,,ヤマウチコウギョウ,0
1200,4360003013802,新規,0,2024-03-18,2024-03-18,合同会社てるけん,,合同会社,沖縄県,中頭郡嘉手納町,字嘉手納２番地,,47,325,9040203,,,,,,,2024-03-18,1,,,,,テルケン,0
1201,4370001051043,新規,0,2024-03-18,2024-03-18,株式会社スターダムフィリア,,株式会社,宮城県,仙台市青葉区,荒巻字青葉４６８番地の１マテリアル・イノベーション・センター４階スターダムフロウ株式会社内,,04,101,9800845,,,,,,,2024-03-18,1,,,,,スターダムフィリア,0
1205,4380003005715,新規,0,2024-03-18,2024-03-18,合同会社ＲＡＲＥ,,合同会社,福島県,会津若松市,西年貢１丁目４番３０号,,07,202,9650830,,,,,,,2024-03-18,1,,,,,レア,0
1209,4390003002216,新規,0,2024-03-18,2024-03-18,合同会社ヒュゲリ,,合同会社,山形県,山形市,長町４丁目７番１０号,,06,201,9900811,,,,,,,2024-03-18,1,,,,,ヒュゲリ,0
1210,4400001016587,新規,0,2024-03-18,2024-03-18,株式会社ＮＥＸＴＬＩＦＥ,,株式会社,岩手県,盛岡市,西見前１１地割１０７番地１,,03,201,0200833,,,,,,,2024-03-18,1,,,,,ネクストライフ,0
1214,4410003003905,新規,0,2024-03-18,2024-03-18,スペリアポーク合同会社,,合同会社,秋田県,能代市,二ツ井町切石字山根５８番１,,05,202,0183124,,,,,,,2024-03-18,1,,,,,スペリアポーク,0
1217,4430001091297,新規,0,2024-03-18,2024-03-18,株式会社ＫＯＤＡＭＡ,,株式会社,北海道,札幌市東区,北四十一条東２丁目１番１５－２０５号,,01,103,0070841,,,,,,,2024-03-18,1,,,,,コダマ,0
1218,4430001091306,新規,0,2024-03-18,2024-03-18,株式会社ブレイクス,,株式会社,北海道,札幌市白石区,栄通６丁目１６番２４号,,01,104,0030021,,,,,,,2024-03-18,1,,,,,ブレイクス,0
1219,4430001091314,新規,0,2024-03-18,2024-03-18,株式会社クレイジーアバウト,,株式会社,北海道,札幌市中央区,北五条西２丁目５番地ＪＲタワーオフィスプラザさっぽろ１７階,,01,101,0600005,,,,,,,2024-03-18,1,,,,,クレイジーアバウト,0
1227,4500001025512,新規,0,2024-03-18,2024-03-18,株式会社ＳＥＩＥＩ,,株式会社,愛媛県,松山市,堀江町甲１８３２番地の４,,38,201,7992651,,,,,,,2024-03-18,1,,,,,セイエイ,0
1228,4500001025520,新規,0,2024-03-18,2024-03-18,株式会社三ライン,,株式会社,愛媛県,東温市,則之内甲７１４－１,,38,215,7910311,,,,,,,2024-03-18,1,,,,,サンライン,0
1236,5010001243113,新規,0,2024-03-18,2024-03-18,株式会社小川調剤,,株式会社,東京都,文京区,大塚６丁目３番３号,,13,105,1120012,,,,,,,2024-03-18,1,,,,,オガワチョウザイ,0
1238,5010003043214,新規,0,2024-03-18,2024-03-18,合同会社ＴＧ,,合同会社,東京都,千代田区,丸の内２丁目５番２号三菱ビル３階,,13,101,1000005,,,,,,,2024-03-18,1,,,,,ティージー,0
1240,5010103002318,新規,0,2024-03-18,2024-03-18,ＳＹ帝国合同会社,,合同会社,東京都,八王子市,元本郷町３丁目５番１２号,,13,201,1920051,,,,,,,2024-03-18,1,,,,,エスワイテイコク,0
1243,5010401181012,新規,0,2024-03-18,2024-03-18,フリークアウト・リテールテクノロジーズ株式会社,,株式会社,東京都,港区,六本木６丁目３番１号,,13,103,1060032,,,,,,,2024-03-18,1,,,,,フリークアウトリテールテクノロジーズ,0
1244,5010401181045,新規,0,2024-03-18,2024-03-18,株式会社千寿,,株式会社,東京都,港区,北青山１丁目３番１号アールキューブ青山３階,,13,103,1070061,,,,,,,2024-03-18,1,,,,,センジュ,0
1245,5010401181086,新規,0,2024-03-18,2024-03-18,株式会社ジェネラティブエージェンツ,,株式会社,東京都,港区,芝浦４丁目９－３５芝浦スクエアハイツ２００６,,13,103,1080023,,,,,,,2024-03-18,1,,,,,ジェネラティブエージェンツ,0
1246,5010401181128,新規,0,2024-03-18,2024-03-18,株式会社ＢＬＵＥＪＥＡＮ,,株式会社,東京都,港区,芝３丁目３２番１２－４０１号,,13,103,1050014,,,,,,,2024-03-18,1,,,,,ブルージーン,0
1247,5010401181144,新規,0,2024-03-18,2024-03-18,Ｓｔｅｌｌａ株式会社,,株式会社,東京都,港区,北青山１丁目３－１アールキューブ青山３階Ｓｔｅｌｌａ株式会社,,13,103,1070061,,,,,,,2024-03-18,1,,,,,ステラ,0
1252,5010403032171,新規,0,2024-03-18,2024-03-18,不動インベストメンツ合同会社,,合同会社,東京都,港区,六本木１丁目６番１号泉ガーデンタワー,,13,103,1060032,,,,,,,2024-03-18,1,,,,,,0
1259,5010803004885,新規,0,2024-03-18,2024-03-18,ＹＯＺＯ合同会社,,合同会社,東京都,大田区,池上４丁目２０－６－２０４,,13,111,1460082,,,,,,,2024-03-18,1,,,,,ヨウゾウ,0
1269,5011001160637,新規,0,2024-03-18,2024-03-18,Ｃａｎｕｙ株式会社,,株式会社,東京都,渋谷区,渋谷１丁目１番５号,,13,113,1500002,,,,,,,2024-03-18,1,,,,,キャニー,0
1270,5011001160653,新規,0,2024-03-18,2024-03-18,株式会社Ｓａｌａ,,株式会社,東京都,渋谷区,代々木３丁目４６番１６号小野木ビル４０５号,,13,113,1510053,,,,,,,2024-03-18,1,,,,,サラ,0
1271,5011001160686,新規,0,2024-03-18,2024-03-18,Ｏｃｋｈａｍ　Ｇａｍｅｓ株式会社,,株式会社,東京都,渋谷区,道玄坂１丁目１０番８号渋谷道玄坂東急ビル２Ｆ－Ｃ,,13,113,1500043,,,,,,,2024-03-18,1,,,,,オッカムゲームズ,0
1273,5011003018701,新規,0,2024-03-18,2024-03-18,合同会社Ｗａｌｌｓ,,合同会社,東京都,渋谷区,神泉町１０番１５号,,13,113,1500045,,,,,,,2024-03-18,1,,,,,ウォールズ,0
1278,5011101106580,新規,0,2024-03-18,2024-03-18,株式会社ＭＹ,,株式会社,東京都,新宿区,歌舞伎町２丁目１０番５号Ｇ１ビル４階,,13,104,1600021,,,,,,,2024-03-18,1,,,,,エムワイ,0
1279,5011103014220,新規,0,2024-03-18,2024-03-18,合同会社ＯＭＡＲＣＨＥＰＬＵＳ,,合同会社,東京都,新宿区,新宿２丁目１５－８,,13,104,1600022,,,,,,,2024-03-18,1,,,,,オーマルシェプラス,0
1280,5011201025318,新規,0,2024-03-18,2024-03-18,株式会社ＡＫＩＭＯ,,株式会社,東京都,中野区,大和町１丁目１番１－２０２号,,13,114,1650034,,,,,,,2024-03-18,1,,,,,アキモ,0
1281,5011303005085,新規,0,2024-03-18,2024-03-18,ナチュラルエフェクト合同会社,,合同会社,東京都,杉並区,井草２丁目１８番６号スペランツァ杉並３階,,13,115,1670021,,,,,,,2024-03-18,1,,,,,ナチュラルエフェクト,0
1282,5011403004301,新規,0,2024-03-18,2024-03-18,合同会社スカイアップ,,合同会社,東京都,板橋区,常盤台１丁目６７番５－７０３号,,13,119,1740071,,,,,,,2024-03-18,1,,,,,スカイアップ,0
1283,5011501030447,新規,0,2024-03-18,2024-03-18,ＳＩＬＩＮ株式会社,,株式会社,東京都,荒川区,南千住１丁目１５－５,,13,118,1160003,,,,,,,2024-03-18,1,,,,,シリン,0
1284,5011703003779,新規,0,2024-03-18,2024-03-18,ＧＯライフファースト合同会社,,合同会社,東京都,江戸川区,中葛西６丁目１８番１０－７０３号,,13,123,1340083,,,,,,,2024-03-18,1,,,,,ゴーライフファースト,0
1287,5011801043925,新規,0,2024-03-18,2024-03-18,株式会社ステッチアーキテクツ,,株式会社,東京都,足立区,谷中４丁目１４－１３,,13,121,1200006,,,,,,,2024-03-18,1,,,,,ステッチアーキテクツ,0
1290,5012401041641,新規,0,2024-03-18,2024-03-18,株式会社千葉集団,,株式会社,東京都,多摩市,一ノ宮４丁目４０番地３聖蹟桜ヶ丘ガーデンハウス２０４,,13,224,2060002,,,,,,,2024-03-18,1,,,,,チバシュウダン,0
1293,5012703002928,新規,0,2024-03-18,2024-03-18,六和合同会社,,合同会社,東京都,小平市,小川町１丁目３９０,,13,211,1870032,,,,,,,2024-03-18,1,,,,,ロクワ,0
1306,5020001156248,新規,0,2024-03-18,2024-03-18,株式会社ファミリア,,株式会社,神奈川県,横浜市瀬谷区,本郷４丁目５番地２グレイスサイトＡ１０３,,14,114,2460015,,,,,,,2024-03-18,1,,,,,ファミリア,0
1307,5020001156264,新規,0,2024-03-18,2024-03-18,株式会社ハリス,,株式会社,神奈川県,横浜市磯子区,洋光台１丁目１８番３２号,,14,107,2350045,,,,,,,2024-03-18,1,,,,,ハリス,0
1311,5020003025748,新規,0,2024-03-18,2024-03-18,合同会社ｐａｒｒｏｔ,,合同会社,神奈川県,横浜市保土ケ谷区,東川島町８７サンコートガーデンＢ２０４,,14,106,2400041,,,,,,,2024-03-18,1,,,,,パロット,0
1319,5030001159233,新規,0,2024-03-18,2024-03-18,株式会社ＹＵＨＩ　ＦＡＲＭ,,株式会社,埼玉県,北足立郡伊奈町,大字小室７６０番地８,,11,301,3620806,,,,,,,2024-03-18,1,,,,,ユウヒファーム,0
1320,5030001159241,新規,0,2024-03-18,2024-03-18,ＳＳＳ株式会社,,株式会社,埼玉県,川越市,大字南大塚１８７６番地１－１Ｆ,,11,201,3501162,,,,,,,2024-03-18,1,,,,,エスエスエス,0
1321,5030001159258,新規,0,2024-03-18,2024-03-18,信永創建株式会社,,株式会社,埼玉県,川口市,青木４丁目２番２３号,,11,203,3320031,,,,,,,2024-03-18,1,,,,,シンエイソウケン,0
1322,5030003023791,新規,0,2024-03-18,2024-03-18,合同会社ライズテック,,合同会社,埼玉県,新座市,栄３丁目６‐３４グリーンハイツ４０２号室,,11,230,3520014,,,,,,,2024-03-18,1,,,,,ライズテック,0
1323,5030003023825,新規,0,2024-03-18,2024-03-18,合同会社アルジェ,,合同会社,埼玉県,熊谷市,中西１丁目７－１５,,11,202,3600013,,,,,,,2024-03-18,1,,,,,アルジェ,0
1328,5040001132552,新規,0,2024-03-18,2024-03-18,株式会社石山生産獣医科,,株式会社,千葉県,松戸市,新松戸５丁目５９番地の２,,12,207,2700034,,,,,,,2024-03-18,1,,,,,イシヤマセイサンジュウイカ,0
1329,5040001132635,新規,0,2024-03-18,2024-03-18,四和空調株式会社,,株式会社,千葉県,四街道市,大日１０５番地２３,,12,228,2840001,,,,,,,2024-03-18,1,,,,,ヨツワクウチョウ,0
1330,5040001132643,新規,0,2024-03-18,2024-03-18,株式会社ＲＥＥＫＡ,,株式会社,千葉県,流山市,美原３丁目８９番地の３,,12,220,2700103,,,,,,,2024-03-18,1,,,,,レエカ,0
1331,5040001132676,新規,0,2024-03-18,2024-03-18,株式会社Ｓｈａｎｒｉ,,株式会社,千葉県,千葉市美浜区,浜田１丁目３番地－８５４号,,12,106,2610025,,,,,,,2024-03-18,1,,,,,シャンリ,0
1332,5040001132684,新規,0,2024-03-18,2024-03-18,アクセル産業株式会社,,株式会社,千葉県,浦安市,美浜１丁目６番５０８号,,12,227,2790011,,,,,,,2024-03-18,1,,,,,アクセルサンギョウ,0
1348,5080101024596,新規,0,2024-03-18,2024-03-18,株式会社ケアフルハンズ,,株式会社,静岡県,富士市,沼田新田２６番地,,22,210,4170833,,,,,,,2024-03-18,1,,,,,ケアフルハンズ,0
1349,5080401027068,新規,0,2024-03-18,2024-03-18,株式会社天龍川,,株式会社,静岡県,浜松市中央区,植松町２５６－９,,22,138,4300803,,,,,,,2024-03-18,1,,,,,テンリュウカワ,0
1351,5090003002518,新規,0,2024-03-18,2024-03-18,合同会社タカティル,,合同会社,山梨県,甲斐市,竜王２１６６－１,,19,210,4000118,,,,,,,2024-03-18,1,,,,,タカティル,0
1352,5090003002526,新規,0,2024-03-18,2024-03-18,トルク合同会社,,合同会社,山梨県,南都留郡山中湖村,山中２５１番地１８,,19,425,4010501,,,,,,,2024-03-18,1,,,,,トルク,0
1354,5110001038247,新規,0,2024-03-18,2024-03-18,株式会社大稜ホールディングス,,株式会社,新潟県,長岡市,寺泊磯町９７６４番地１３,,15,202,9402502,,,,,,,2024-03-18,1,,,,,タイリョウホールディングス,0
1355,5110001038255,新規,0,2024-03-18,2024-03-18,株式会社デリユス,,株式会社,新潟県,燕市,吉田神明町２－４４,,15,213,9590254,,,,,,,2024-03-18,1,,,,,デリユス,0
1359,5110003005328,新規,0,2024-03-18,2024-03-18,合同会社インセンティブ・ラボ,,合同会社,新潟県,上越市,石橋２丁目１２番７号,,15,222,9420074,,,,,,,2024-03-18,1,,,,,インセンティブラボ,0
1373,5120001263125,新規,0,2024-03-18,2024-03-18,サンリアルティ株式会社,,株式会社,大阪府,大阪市中央区,北浜２丁目１番１７号,,27,128,5410041,,,,,,,2024-03-18,1,,,,,サンリアルティ,0
1374,5120001263166,新規,0,2024-03-18,2024-03-18,株式会社宮もと,,株式会社,大阪府,大阪市福島区,福島２丁目９番１８号,,27,103,5530003,,,,,,,2024-03-18,1,,,,,ミヤモト,0
1375,5120001263199,新規,0,2024-03-18,2024-03-18,新九洲株式会社,,株式会社,大阪府,大阪市中央区,瓦屋町２丁目１０番１４号第３天偉ビル,,27,128,5420066,,,,,,,2024-03-18,1,,,,,シンキュウシュウ,0
1376,5120001263240,新規,0,2024-03-18,2024-03-18,株式会社エスアイテック,,株式会社,大阪府,大阪市北区,梅田１丁目１－３大阪駅前第３ビル２９階１－１－１号室,,27,127,5300001,,,,,,,2024-03-18,1,,,,,エスアイテック,0
1379,5120003026158,新規,0,2024-03-18,2024-03-18,合同会社ＫＡＭＩＴＳＵ,,合同会社,大阪府,大阪市淀川区,木川西１丁目８番２３号５０２号室,,27,123,5320013,,,,,,,2024-03-18,1,,,,,カミツ,0
1380,5120005024192,新規,0,2024-03-18,2024-03-18,ＮＰＯ法人韓国庭園の会,,その他の設立登記法人,大阪府,大阪市浪速区,日本橋５丁目５番２４号,,27,111,5560005,,,,,,,2024-03-18,1,,,,,カンコクテイエンノカイ,0
1381,5120101069240,新規,0,2024-03-18,2024-03-18,株式会社ささ,,株式会社,大阪府,岸和田市,春木南浜町１３－１９,,27,202,5960036,,,,,,,2024-03-18,1,,,,,ササ,0
1382,5120101069249,新規,0,2024-03-18,2024-03-18,株式会社在宅看護Ｌ＆Ｃ,,株式会社,大阪府,河内長野市,楠ケ丘２番１３号,,27,216,5860039,,,,,,,2024-03-18,1,,,,,ザイタクカンゴエルアンドシー,0
1383,5120101069257,新規,0,2024-03-18,2024-03-18,株式会社プロスパーゲート２４,,株式会社,大阪府,堺市西区,鳳西町１丁８９－１５,,27,144,5938326,,,,,,,2024-03-18,1,,,,,プロスパーゲートニジュウヨン,0
1387,5120103005714,新規,0,2024-03-18,2024-03-18,チピチピチャパチャパ合同会社,,合同会社,大阪府,岸和田市,中井町２丁目６番９号,,27,202,5960003,,,,,,,2024-03-18,1,,,,,チピチピチャパチャパ,0
1388,5120103005722,新規,0,2024-03-18,2024-03-18,合同会社ＫＭ,,合同会社,大阪府,堺市中区,深井水池町２８２７番地２,,27,142,5998237,,,,,,,2024-03-18,1,,,,,ケイエム,0
1389,5120103005730,新規,0,2024-03-18,2024-03-18,合同会社トランスサタニアン,,合同会社,大阪府,堺市中区,深井水池町３４０２,,27,142,5998237,,,,,,,2024-03-18,1,,,,,トランスサタニアン,0
1391,5120905006579,新規,0,2024-03-18,2024-03-18,一般社団法人ｗｏｒｋｓｈｏｐ　ｓｐａｃｅ　Ａｐｐｒｅｎｄｒｅ,,その他の設立登記法人,大阪府,豊中市,向丘２丁目５番５号,,27,203,5600053,,,,,,,2024-03-18,1,,,,,ワークショップスペースアプロンドル,0
1392,5122003002832,新規,0,2024-03-18,2024-03-18,合同会社アンドウ,,合同会社,大阪府,八尾市,南本町６丁目６番３２号,,27,212,5810081,,,,,,,2024-03-18,1,,,,,アンドウ,0
1395,5130001076575,新規,0,2024-03-18,2024-03-18,株式会社京都玉の湯,,株式会社,京都府,京都市中京区,押小路通御幸町西入亀屋町４０１,,26,104,6040941,,,,,,,2024-03-18,1,,,,,キョウトタマノユ,0
1396,5130001076583,新規,0,2024-03-18,2024-03-18,株式会社ＴＥＮ,,株式会社,京都府,八幡市,男山吉井１０番地２６,,26,210,6148363,,,,,,,2024-03-18,1,,,,,テン,0
1397,5130001076591,新規,0,2024-03-18,2024-03-18,京都不動産投資株式会社,,株式会社,京都府,長岡京市,馬場１丁目１番４号,,26,209,6170828,,,,,,,2024-03-18,1,,,,,キョウトフドウサントウシ,0
1405,5140001133672,新規,0,2024-03-18,2024-03-18,株式会社アークワークス,,株式会社,兵庫県,神戸市灘区,岩屋中町４丁目４番３０号,,28,102,6570845,,,,,,,2024-03-18,1,,,,,アークワークス,0
1406,5140001133680,新規,0,2024-03-18,2024-03-18,株式会社ＩＣＨＩＲＯ　ＷＥＬＤＩＮＧ,,株式会社,兵庫県,明石市,立石２丁目２番１－７０３号,,28,203,6730032,,,,,,,2024-03-18,1,,,,,イチローウェルディング,0
1407,5140001133689,新規,0,2024-03-18,2024-03-18,広瀬ホールディングス株式会社,,株式会社,兵庫県,神戸市中央区,港島中町２丁目２番２号,,28,110,6500046,,,,,,,2024-03-18,1,,,,,ヒロセホールディングス,0
1408,5140001133722,新規,0,2024-03-18,2024-03-18,株式会社ＳＩ．Ｅ,,株式会社,兵庫県,神戸市中央区,磯辺通１丁目１番１８号カサベラ国際プラザビル７０７号室,,28,110,6510084,,,,,,,2024-03-18,1,,,,,エスアイイー,0
1409,5140001133730,新規,0,2024-03-18,2024-03-18,株式会社三興,,株式会社,兵庫県,神戸市灘区,水道筋５丁目３番２号,,28,102,6570831,,,,,,,2024-03-18,1,,,,,サンコウ,0
1410,5140001133755,新規,0,2024-03-18,2024-03-18,リオアンドカンパニー株式会社,,株式会社,兵庫県,神戸市須磨区,若木町３丁目６番２５号,,28,107,6540014,,,,,,,2024-03-18,1,,,,,リオアンドカンパニー,0
1416,5140003020282,新規,0,2024-03-18,2024-03-18,Ｗ．Ｂ合同会社,,合同会社,兵庫県,神戸市兵庫区,新開地３丁目３－１１－４０７,,28,105,6520811,,,,,,,2024-03-18,1,,,,,ダブルビー,0
1418,5150003003204,新規,0,2024-03-18,2024-03-18,合同会社はみんぐばあど,,合同会社,奈良県,橿原市,法花寺町５９番地の１朝日プラザ八木東３０６,,29,205,6340028,,,,,,,2024-03-18,1,,,,,ハミングバアド,0
1419,5160001025752,新規,0,2024-03-18,2024-03-18,株式会社大和創建,,株式会社,滋賀県,彦根市,平田町５８８番地１Ｎａｓｕ３２・１０１号,,25,202,5220041,,,,,,,2024-03-18,1,,,,,ダイワソウケン,0
1420,5160001025760,新規,0,2024-03-18,2024-03-18,若林工業株式会社,,株式会社,滋賀県,犬上郡甲良町,大字池寺１１６４番地１,,25,442,5220254,,,,,,,2024-03-18,1,,,,,ワカバヤシコウギョウ,0
1421,5170001018053,新規,0,2024-03-18,2024-03-18,ミネ住建株式会社,,株式会社,和歌山県,和歌山市,大垣内１５３番地４,,30,201,6496272,,,,,,,2024-03-18,1,,,,,ミネジュウケン,0
1428,5180001160564,新規,0,2024-03-18,2024-03-18,株式会社百町トラクター,,株式会社,愛知県,津島市,百町字中住吉２７番地,,23,208,4960017,,,,,,,2024-03-18,1,,,,,ヒャクチョウトラクター,0
1436,5190001031186,新規,0,2024-03-18,2024-03-18,リアライズコーポレーション株式会社,,株式会社,三重県,津市,安濃町曽根１１２３番地２,,24,201,5142306,,,,,,,2024-03-18,1,,,,,リアライズコーポレーション,0
1437,5200001042256,新規,0,2024-03-18,2024-03-18,Ｐ．Ｌ．ｆａｍｉｌｙ株式会社,,株式会社,岐阜県,羽島市,小熊町島新道７６,,21,209,5016253,,,,,,,2024-03-18,1,,,,,ピーエルファミリー,0
1438,5200001042264,新規,0,2024-03-18,2024-03-18,今瀬工業株式会社,,株式会社,岐阜県,関市,竪切南２１番地５,,21,205,5013223,,,,,,,2024-03-18,1,,,,,イマセコウギョウ,0
1439,5200001042272,新規,0,2024-03-18,2024-03-18,Ｃｏｃｏ‐Ｄｅｓｉｇｎ株式会社,,株式会社,岐阜県,美濃加茂市,加茂野町今泉１５５０番地４２,,21,211,5050052,,,,,,,2024-03-18,1,,,,,ココデザイン,0
1441,5200003006267,新規,0,2024-03-18,2024-03-18,合同会社ＲａＦＵ,,合同会社,岐阜県,大垣市,林町１０丁目９０番地２,,21,202,5030015,,,,,,,2024-03-18,1,,,,,ラフ,0
1447,5240001062936,新規,0,2024-03-18,2024-03-18,株式会社アサヒコーポレーション,,株式会社,広島県,広島市中区,立町４番４号Ｄｏｌｃｅ立町１階,,34,101,7300032,,,,,,,2024-03-18,1,,,,,アサヒコーポレーション,0
1448,5240003006577,新規,0,2024-03-18,2024-03-18,合同会社まつり,,合同会社,広島県,福山市,高西町４丁目４－３,,34,207,7290106,,,,,,,2024-03-18,1,,,,,マツリ,0
1449,5250001020570,新規,0,2024-03-18,2024-03-18,株式会社ＳＥＮＴＥ,,株式会社,山口県,山口市,鋳銭司２７０２番地５,,35,203,7471221,,,,,,,2024-03-18,1,,,,,センテ,0
1452,5260001038835,新規,0,2024-03-18,2024-03-18,株式会社Ｚｅｒｏ　Ｃｒｅａｔｅ,,株式会社,岡山県,倉敷市,連島３丁目２番５号,,33,202,7128012,,,,,,,2024-03-18,1,,,,,ゼロクリエイト,0
1456,5260003004612,新規,0,2024-03-18,2024-03-18,ＯＫＡＧＥＳＡＭＡＤＥ合同会社,,合同会社,岡山県,岡山市北区,佐山２２０７－１０,,33,101,7011205,,,,,,,2024-03-18,1,,,,,オカゲサマデ,0
1457,5270001008944,新規,0,2024-03-18,2024-03-18,株式会社中島サイディング,,株式会社,鳥取県,鳥取市,吉成２丁目１５番２０号,,31,201,6800864,,,,,,,2024-03-18,1,,,,,ナカシマサイディング,0
1464,5290001105038,新規,0,2024-03-18,2024-03-18,株式会社ヒロイックデザイン,,株式会社,福岡県,久留米市,国分町１４３０－１２中野第２ビル,,40,203,8390863,,,,,,,2024-03-18,1,,,,,ヒロイックデザイン,0
1465,5290001105070,新規,0,2024-03-18,2024-03-18,サンドバー投資株式会社,,株式会社,福岡県,福岡市博多区,博多駅前４丁目２４番１号シティハウス博多３０３号,,40,132,8120011,,,,,,,2024-03-18,1,,,,,サンドバートウシ,0
1466,5290001105079,新規,0,2024-03-18,2024-03-18,キップ株式会社,,株式会社,福岡県,福岡市中央区,天神２丁目２番１２号Ｔ＆Ｊビルディング７Ｆ,,40,133,8100001,,,,,,,2024-03-18,1,,,,,キップ,0
1467,5290001105178,新規,0,2024-03-18,2024-03-18,株式会社ＭＡＴＥ．ＪＰ,,株式会社,福岡県,福岡市西区,石丸２丁目７番３号,,40,135,8190025,,,,,,,2024-03-18,1,,,,,メイトドットジェイピー,0
1468,5290003015020,新規,0,2024-03-18,2024-03-18,合同会社ｓｎｉｐｐｅ．Ｔｏ,,合同会社,福岡県,福岡市博多区,豊１丁目３番８号,,40,132,8120042,,,,,,,2024-03-18,1,,,,,スニペット,0
1469,5290003015061,新規,0,2024-03-18,2024-03-18,合同会社ＬｉｎｋｓＥｎｔｅｒｔａｉｎｍｅｎｔ,,合同会社,福岡県,福岡市中央区,薬院３丁目７‐６コンダクトヴィレッジ薬院３０５,,40,133,8100022,,,,,,,2024-03-18,1,,,,,リンクスエンターテイメント,0
1470,5290003015086,新規,0,2024-03-18,2024-03-18,合同会社スタジオエラン,,合同会社,福岡県,糟屋郡志免町,大字吉原１３４－３グランディアソラーレ博多の杜４３１,,40,343,8112208,,,,,,,2024-03-18,1,,,,,スタジオエラン,0
1472,5300001013651,新規,0,2024-03-18,2024-03-18,株式会社ＳＨＩＫＩエステート,,株式会社,佐賀県,小城市,小城町松尾４０８７番地１,,41,208,8450004,,,,,,,2024-03-18,1,,,,,シキエステート,0
1474,5300003002090,新規,0,2024-03-18,2024-03-18,合同会社かなえびと,,合同会社,佐賀県,小城市,三日月町樋口１０２９番地２２,00134105,41,208,8450033,,,,,,,2024-03-18,1,,,,,カナエビト,0
1476,5320003004309,新規,0,2024-03-18,2024-03-18,合同会社ＹＳサービス,,合同会社,大分県,宇佐市,大字尾永井９５５番地,,44,211,8790304,,,,,,,2024-03-18,1,,,,,ワイエスサービス,0
1479,5330003010264,新規,0,2024-03-18,2024-03-18,合同会社スマイルハピネス,,合同会社,熊本県,熊本市北区,清水東町１２番７８号マグノリアＤ棟１０７,,43,105,8618065,,,,,,,2024-03-18,1,,,,,スマイルハピネス,0
1480,5340003004406,新規,0,2024-03-18,2024-03-18,鹿児島ＨＡＴＵＲＩ合同会社,,合同会社,鹿児島県,鹿児島市,岡之原町１９７５番地１,,46,201,8911201,,,,,,,2024-03-18,1,,,,,カゴシマハツリ,0
1483,5360001033330,新規,0,2024-03-18,2024-03-18,株式会社ＫＩ建設,,株式会社,沖縄県,沖縄市,園田３丁目１１番４８号１Ｆ,,47,211,9040022,,,,,,,2024-03-18,1,,,,,ケイアイケンセツ,0
1484,5360001033339,新規,0,2024-03-18,2024-03-18,株式会社うえはら,,株式会社,沖縄県,宜野湾市,宜野湾３丁目１番１１－１４０２号ミルコマンション宜野湾長田クルーセ,,47,205,9012211,,,,,,,2024-03-18,1,,,,,ウエハラ,0
1485,5360001033347,新規,0,2024-03-18,2024-03-18,アクシュバンク株式会社,,株式会社,沖縄県,浦添市,仲西３丁目１５番５号財全ＧＲＯＵＰ・ＢＬＤ,,47,208,9012125,,,,,,,2024-03-18,1,,,,,アクシュバンク,0
1486,5360001033355,新規,0,2024-03-18,2024-03-18,株式会社ＵＬＵ,,株式会社,沖縄県,那覇市,泊１丁目２４番７号,,47,201,9000012,,,,,,,2024-03-18,1,,,,,ウル,0
1489,5370001051042,新規,0,2024-03-18,2024-03-18,株式会社スターダムファーム,,株式会社,宮城県,仙台市青葉区,荒巻字青葉４６８番地の１マテリアル・イノベーション・センター４階スターダムフロウ株式会社内,,04,101,9800845,,,,,,,2024-03-18,1,,,,,スターダムファーム,0
1498,5400001016586,新規,0,2024-03-18,2024-03-18,株式会社エムズ,,株式会社,岩手県,滝沢市,鵜飼向新田７番地３２４,,03,216,0200667,,,,,,,2024-03-18,1,,,,,エムズ,0
1502,5410001013756,新規,0,2024-03-18,2024-03-18,株式会社予祝,,株式会社,秋田県,鹿角市,十和田毛馬内字横道３２番地１６,,05,209,0185334,,,,,,,2024-03-18,1,,,,,ヨシュク,0
1503,5410003003904,新規,0,2024-03-18,2024-03-18,合同会社ＳＵＧＡＹＵ,,合同会社,秋田県,湯沢市,柳町１丁目３番８号コーポセゾン１号,,05,207,0120826,,,,,,,2024-03-18,1,,,,,,0
1507,5430001091313,新規,0,2024-03-18,2024-03-18,善和株式会社,,株式会社,北海道,札幌市豊平区,中の島一条９丁目４番１４－１０３号,,01,105,0620921,,,,,,,2024-03-18,1,,,,,ゼンワ,0
1512,5430003016053,新規,0,2024-03-18,2024-03-18,合同会社ＫＵＰ,,合同会社,北海道,小樽市,桜２丁目１１番２９号アメニティ桜ＩＩ３０１号室,00134083,01,203,0470156,,,,,,,2024-03-18,1,,,,,ケイユーピー,0
1515,5430005014922,新規,0,2024-03-18,2024-03-18,一般社団法人バトン,,その他の設立登記法人,北海道,札幌市中央区,南一条西１６丁目１番地３２３春野ビル３Ｆ,,01,101,0600061,,,,,,,2024-03-18,1,,,,,バトン,0
1516,5440001002995,新規,0,2024-03-18,2024-03-18,株式会社テーケートランスポート,,株式会社,北海道,北斗市,大工川１丁目８番１４号,,01,236,0490153,,,,,,,2024-03-18,1,,,,,,0
1517,5450001014255,新規,0,2024-03-18,2024-03-18,株式会社堀塗装,,株式会社,北海道,旭川市,神居六条１６丁目４番１５号,,01,204,0708016,,,,,,,2024-03-18,1,,,,,ホリトソウ,0
1520,5450005004401,新規,0,2024-03-18,2024-03-18,一般社団法人移住のススメ,,その他の設立登記法人,北海道,上川郡下川町,旭町２６３番地,,01,468,0981201,,,,,,,2024-03-18,1,,,,,,0
1521,5460101007513,新規,0,2024-03-18,2024-03-18,ＳＴＧｌａｂｏ株式会社,,株式会社,北海道,河東郡士幌町,字士幌西２線１５８番地８,,01,632,0801219,,,,,,,2024-03-18,1,,,,,エスティージーラボ,0
1522,5470001020078,新規,0,2024-03-18,2024-03-18,株式会社Ｌｅｏ　ｃｏｎｃｅｒｔｏ．,,株式会社,香川県,木田郡三木町,大字井上４０８６番地,,37,341,7610705,,,,,,,2024-03-18,1,,,,,レオコンチェルト,0
1523,5470001020086,新規,0,2024-03-18,2024-03-18,ＤＯ・ＣＨＡＮＧＥ株式会社,,株式会社,香川県,善通寺市,原田町１４５４番地,,37,204,7650032,,,,,,,2024-03-18,1,,,,,ドゥチェンジ,0
1526,5490001010721,新規,0,2024-03-18,2024-03-18,株式会社Ｃｒｅａｔｅ　ｅｒａ,,株式会社,高知県,香南市,夜須町手結山１７１４番地６,,39,211,7815622,,,,,,,2024-03-18,1,,,,,クリエイトエラ,0
1528,5500001025511,新規,0,2024-03-18,2024-03-18,株式会社ＥＩＧＨＴ　ＯＮＥ８１,,株式会社,愛媛県,松山市,北藤原町３番地１アルファステイツ市駅西１３０７号,,38,201,7900033,,,,,,,2024-03-18,1,,,,,エイトワン,0
1529,5700150121883,新規,0,2024-03-18,2023-11-07,ジェイテクトギヤシステム労働組合,,その他,愛知県,瀬戸市,暁町３－４５,,23,204,4890071,,,,,,,2023-11-07,1,,,,,ジエイテクトギヤシステムロウドウクミアイ,0
1543,6010001243005,新規,0,2024-03-18,2024-03-18,同路アセットマネジメント株式会社,,株式会社,東京都,文京区,白山１丁目５番１０号大西倉庫ビル１０２,,13,105,1130001,,,,,,,2024-03-18,1,,,,,ドウロアセットマネジメント,0
1544,6010001243038,新規,0,2024-03-18,2024-03-18,株式会社スターレイズ,,株式会社,東京都,千代田区,丸の内２丁目３番２号丸の内郵船ビルディング１Ｆ,,13,101,1000005,,,,,,,2024-03-18,1,,,,,スターレイズ,0
1545,6010001243070,新規,0,2024-03-18,2024-03-18,輝伝心株式会社,,株式会社,東京都,中央区,銀座１丁目２２番１１号銀座大竹ビジデンス２Ｆ,,13,102,1040061,,,,,,,2024-03-18,1,,,,,キデンシン,0
1546,6010001243120,新規,0,2024-03-18,2024-03-18,ＲＰ１株式会社,,株式会社,東京都,千代田区,神田多町２丁目８番２０号５０５室,,13,101,1010046,,,,,,,2024-03-18,1,,,,,アールピーワン,0
1547,6010001243145,新規,0,2024-03-18,2024-03-18,株式会社白水フィナンシャルパートナーズ,,株式会社,東京都,千代田区,有楽町１丁目５－２東宝日比谷プロムナード,,13,101,1000006,,,,,,,2024-03-18,1,,,,,シラミズフィナンシャルパートナーズ,0
1551,6010003043221,新規,0,2024-03-18,2024-03-18,合同会社ココロ,,合同会社,東京都,中央区,日本橋室町１丁目１１番１２号,,13,102,1030022,,,,,,,2024-03-18,1,,,,,ココロ,0
1552,6010003043246,新規,0,2024-03-18,2024-03-18,合同会社ジョイスト,,合同会社,東京都,中央区,日本橋室町１丁目１１番１２号日本橋水野ビル７階,,13,102,1030022,,,,,,,2024-03-18,1,,,,,ジョイスト,0
1553,6010005038054,新規,0,2024-03-18,2024-03-18,一般社団法人リキッドアイス,,その他の設立登記法人,東京都,千代田区,丸の内３丁目１番１号東京共同会計事務所内,,13,101,1000005,,,,,,,2024-03-18,1,,,,,リキッドアイス,0
1564,6010401181093,新規,0,2024-03-18,2024-03-18,株式会社ＦＵＴＵＲＩＺＥＲ,,株式会社,東京都,港区,南青山３丁目１番３６号青山丸竹ビル６Ｆ,,13,103,1070062,,,,,,,2024-03-18,1,,,,,フューチャーライザー,0
1565,6010403032170,新規,0,2024-03-18,2024-03-18,合同会社ＧＭ１,,合同会社,東京都,港区,海岸３丁目９番１０－１００５号,,13,103,1080022,,,,,,,2024-03-18,1,,,,,ジーエムワン,0
1566,6010403032187,新規,0,2024-03-18,2024-03-18,合同会社ＡＬＭＡ,,合同会社,東京都,港区,南青山２丁目２番１５号,,13,103,1070062,,,,,,,2024-03-18,1,,,,,アルマ,0
1570,6010503007378,新規,0,2024-03-18,2024-03-18,合同会社ユニバースドア,,合同会社,東京都,台東区,上野６丁目１３番８号,,13,106,1100005,,,,,,,2024-03-18,1,,,,,ユニバースドア,0
1574,6010601064800,新規,0,2024-03-18,2024-03-18,株式会社エベレスト,,株式会社,東京都,江東区,大島１丁目３４番１４号シンセイビル６０１,,13,108,1360072,,,,,,,2024-03-18,1,,,,,エベレスト,0
1575,6010601064825,新規,0,2024-03-18,2024-03-18,株式会社第三龍賀丸,,株式会社,東京都,江東区,東砂７丁目１７番１６号高坂ビル２０１号室,,13,108,1360074,,,,,,,2024-03-18,1,,,,,ダイサンリュウガマル,0
1577,6010701045683,新規,0,2024-03-18,2024-03-18,株式会社ＣｒｅａｔｅＡｒｋ,,株式会社,東京都,品川区,西品川１丁目１－１住友不動産大崎ガーデンタワー９階,,13,109,1410033,,,,,,,2024-03-18,1,,,,,クリエイトアーク,0
1580,6010801034859,新規,0,2024-03-18,2024-03-18,易療科技株式会社,,株式会社,東京都,大田区,東海３丁目７番３号東海ビル,,13,111,1430001,,,,,,,2024-03-18,1,,,,,イリョウカギ,0
1581,6010901054872,新規,0,2024-03-18,2024-03-18,ａｉ　ｃｒｅｗ株式会社,,株式会社,東京都,世田谷区,野沢３丁目５番１９号,,13,112,1540003,,,,,,,2024-03-18,1,,,,,エーアイクルー,0
1582,6010901054880,新規,0,2024-03-18,2024-03-18,株式会社バアチイ,,株式会社,東京都,世田谷区,太子堂２丁目１番１－１１０１号,,13,112,1540004,,,,,,,2024-03-18,1,,,,,バアチイ,0
1586,6011001160685,新規,0,2024-03-18,2024-03-18,株式会社ＡＩ　Ｎｅｓｔ,,株式会社,東京都,渋谷区,渋谷２丁目１９－１５宮益坂ビルディング６０９,,13,113,1500002,,,,,,,2024-03-18,1,,,,,エーアイネスト,0
1587,6011003018642,新規,0,2024-03-18,2024-03-18,合同会社確実,,合同会社,東京都,目黒区,自由が丘２丁目９－６Ｌｕｚ自由が丘１階,,13,110,1520035,,,,,,,2024-03-18,1,,,,,カクジツ,0
1588,6011003018691,新規,0,2024-03-18,2024-03-18,Ｅｌａｉｎｅ合同会社,,合同会社,東京都,渋谷区,道玄坂１丁目１０番８号渋谷道玄坂東急ビル２階Ｃ,,13,113,1500043,,,,,,,2024-03-18,1,,,,,エレイン,0
1590,6011005010408,新規,0,2024-03-18,2024-03-18,医療法人社団Ｈ．Ｓ．Ｍ,,その他の設立登記法人,東京都,目黒区,中目黒５丁目２８番３号１階,,13,110,1530061,,,,,,,2024-03-18,1,,,,,エイチエスエム,0
1596,6011101106571,新規,0,2024-03-18,2024-03-18,株式会社ＹＥＥＬＥ　ＮＥＴＷＯＲＫ,,株式会社,東京都,新宿区,百人町２丁目２０番２２号スカイコート新宿ＩＩ１０８－Ｄ,00134104,13,104,1690073,,,,,,,2024-03-18,1,,,,,イエレネットワーク,0
1597,6011103014211,新規,0,2024-03-18,2024-03-18,合同会社ＴＭＣＣ,,合同会社,東京都,新宿区,新宿１丁目３６番２号３階,,13,104,1600022,,,,,,,2024-03-18,1,,,,,ティーエムシーシー,0
1598,6011103014236,新規,0,2024-03-18,2024-03-18,合同会社ＯＨＤＡＮＧＯ,,合同会社,東京都,新宿区,新宿５丁目１１－３０新宿第五葉山ビル３Ｆ,,13,104,1600022,,,,,,,2024-03-18,1,,,,,オーダンゴ,0
1600,6011203004327,新規,0,2024-03-18,2024-03-18,ＢｅｓｔＨａｂｉｔ合同会社,,合同会社,東京都,中野区,上高田４丁目４０番６号,,13,114,1640002,,,,,,,2024-03-18,1,,,,,ベストハビット,0
1601,6011303005092,新規,0,2024-03-18,2024-03-18,ＭＯＲＥ　ＳＭＩＬＥ．合同会社,,合同会社,東京都,杉並区,西荻北２丁目２０番９号,,13,115,1670042,,,,,,,2024-03-18,1,,,,,モアスマイル,0
1603,6011601027631,新規,0,2024-03-18,2024-03-18,株式会社Ｏｎｅ　Ｄｅｃｉｓｉｏｎ　Ａｗａｙ,,株式会社,東京都,練馬区,土支田２丁目２９－２０ヴィラハーベスト２０３,,13,120,1790076,,,,,,,2024-03-18,1,,,,,ワンディシジョンアウェイ,0
1605,6011703003778,新規,0,2024-03-18,2024-03-18,合同会社藤,,合同会社,東京都,江戸川区,一之江７丁目７４番５－２０１号シャルマンクレスト,,13,123,1320024,,,,,,,2024-03-18,1,,,,,フジ,0
1606,6012301013830,新規,0,2024-03-18,2024-03-18,株式会社ヴェルデ,,株式会社,東京都,町田市,成瀬が丘３丁目５番地１４,,13,209,1940011,,,,,,,2024-03-18,1,,,,,ヴェルデ,0
1607,6012405004957,新規,0,2024-03-18,2024-03-18,一般社団法人地域活動スペース四季の風,,その他の設立登記法人,東京都,府中市,天神町１丁目１０番地の４,,13,206,1830053,,,,,,,2024-03-18,1,,,,,チイキカツドウスペースシキノカゼ,0
1609,6012801023032,新規,0,2024-03-18,2024-03-18,株式会社ＢｒｉｄｇｅＬｉｎｋ　Ｊａｐａｎ,,株式会社,東京都,立川市,栄町４丁目３番地の３,,13,202,1900003,,,,,,,2024-03-18,1,,,,,ブリッジリンクジャパン,0
1610,6012803003338,新規,0,2024-03-18,2024-03-18,合同会社スターピース,,合同会社,東京都,日野市,高幡５６６番地の４３,,13,212,1910031,,,,,,,2024-03-18,1,,,,,スターピース,0
1621,6020001156230,新規,0,2024-03-18,2024-03-18,株式会社ロマックス,,株式会社,神奈川県,川崎市川崎区,砂子２丁目１番１２号ＴＣ第１９ビル,,14,131,2100006,,,,,,,2024-03-18,1,,,,,ロマックス,0
1622,6020001156239,新規,0,2024-03-18,2024-03-18,株式会社Ｇｚ　ｅｓｔａｔｅ,,株式会社,神奈川県,横浜市西区,みなとみらい４丁目４番２号横浜ブルーアベニュー１２Ｆ,,14,103,2200012,,,,,,,2024-03-18,1,,,,,ジーズエステート,0
1623,6020001156247,新規,0,2024-03-18,2024-03-18,株式会社日商,,株式会社,神奈川県,横浜市西区,東ケ丘１３番地２６,,14,103,2200033,,,,,,,2024-03-18,1,,,,,ニッショウ,0
1626,6020005016307,新規,0,2024-03-18,2024-03-18,土地家屋調査士法人Ｆｕｎ　Ｂｅ,,その他の設立登記法人,神奈川県,横浜市港北区,新横浜２丁目１４番地４シルバービル７Ｆ,,14,109,2220033,,,,,,,2024-03-18,1,,,,,ファンビー,0
1627,6021001081708,新規,0,2024-03-18,2024-03-18,株式会社ちぼりキャピタル,,株式会社,神奈川県,足柄下郡湯河原町,土肥１丁目１５番地の４,,14,384,2590303,,,,,,,2024-03-18,1,,,,,チボリキャピタル,0
1628,6021001081716,新規,0,2024-03-18,2024-03-18,ａｌｌｅｚ‐ｙ株式会社,,株式会社,神奈川県,藤沢市,片瀬海岸２丁目１６－１ハイラーク江の島１０４号室,,14,205,2510035,,,,,,,2024-03-18,1,,,,,アレジー,0
1629,6021001081724,新規,0,2024-03-18,2024-03-18,株式会社ＡＮＤＥＳＴ,,株式会社,神奈川県,海老名市,河原口２丁目２９－１ファーストクラス厚木３１０,,14,215,2430433,,,,,,,2024-03-18,1,,,,,アンデスト,0
1638,6030001159240,新規,0,2024-03-18,2024-03-18,安信企画販売株式会社,,株式会社,埼玉県,八潮市,大字大曽根５５０番地,,11,234,3400834,,,,,,,2024-03-18,1,,,,,アンシンキカクハンバイ,0
1639,6030001159265,新規,0,2024-03-18,2024-03-18,株式会社ラピスラボ,,株式会社,埼玉県,北足立郡伊奈町,内宿台５丁目７５番地１,,11,301,3620812,,,,,,,2024-03-18,1,,,,,ラピスラボ,0
1643,6030003023832,新規,0,2024-03-18,2024-03-18,合同会社サマノス,,合同会社,埼玉県,所沢市,西新井町４番１７号,,11,208,3590035,,,,,,,2024-03-18,1,,,,,サマノス,0
1644,6030003023840,新規,0,2024-03-18,2024-03-18,エスケイ配送企画合同会社,,合同会社,埼玉県,朝霞市,田島１丁目１４－３６,,11,227,3510032,,,,,,,2024-03-18,1,,,,,エスケイハイソウキカク,0
1647,6040001132683,新規,0,2024-03-18,2024-03-18,株式会社スカイ工業,,株式会社,千葉県,船橋市,飯山満町１丁目１３３５番地１２,,12,204,2740822,,,,,,,2024-03-18,1,,,,,スカイコウギョウ,0
1648,6040001132709,新規,0,2024-03-18,2024-03-18,株式会社ＲＯＵＴＥ‐ＢＡＳＥＤ,,株式会社,千葉県,市川市,本北方１丁目４８番地４号,,12,203,2720816,,,,,,,2024-03-18,1,,,,,ルートベース,0
1651,6040003024549,新規,0,2024-03-18,2024-03-18,ゆめかな合同会社,,合同会社,千葉県,鎌ケ谷市,東中沢３丁目６番２９号,,12,224,2730112,,,,,,,2024-03-18,1,,,,,ユメカナ,0
1652,6040003024581,新規,0,2024-03-18,2024-03-18,合同会社ＭＩ　Ｃａｐｉｔａｌ,,合同会社,千葉県,流山市,野々下４丁目８５２番地の６３,,12,220,2700135,,,,,,,2024-03-18,1,,,,,エムアイキャピタル,0
1656,6050001054448,新規,0,2024-03-18,2024-03-18,株式会社トライカ,,株式会社,茨城県,水戸市,千波町１６４番地の５,,08,201,3100851,,,,,,,2024-03-18,1,,,,,トライカ,0
1661,6060001036916,新規,0,2024-03-18,2024-03-18,Ｐｒｏｄｕｃｅ　ＪＡＰＡＮ株式会社,,株式会社,栃木県,足利市,大橋町１丁目１８２８番地２１,,09,202,3260051,,,,,,,2024-03-18,1,,,,,プロデュースジャパン,0
1664,6070001041502,新規,0,2024-03-18,2024-03-18,株式会社いち花,,株式会社,群馬県,前橋市,亀泉町４７４番地１,,10,201,3710004,,,,,,,2024-03-18,1,,,,,イチカ,0
1667,6080003003152,新規,0,2024-03-18,2024-03-18,合同会社ティー・エヌ・プランニング,,合同会社,静岡県,静岡市駿河区,中田本町２４番２０号,,22,102,4228043,,,,,,,2024-03-18,1,,,,,ティーエヌプランニング,0
1670,6080401027067,新規,0,2024-03-18,2024-03-18,株式会社森島工業所,,株式会社,静岡県,浜松市浜名区,宮口３５０５番地の４,,22,139,4340004,,,,,,,2024-03-18,1,,,,,モリシマコウギョウショ,0
1673,6080403004972,新規,0,2024-03-18,2024-03-18,合同会社Ｈｅｌｌｏ　ｍｅ,,合同会社,静岡県,浜松市天竜区,横山町２０７－６,,22,140,4313764,,,,,,,2024-03-18,1,,,,,ハローミー,0
1674,6090001018597,新規,0,2024-03-18,2024-03-18,株式会社水川興業,,株式会社,山梨県,韮崎市,本町２丁目１２番９号,,19,207,4070024,,,,,,,2024-03-18,1,,,,,ミズカワコウギョウ,0
1675,6090003002517,新規,0,2024-03-18,2024-03-18,富士山生地加工合同会社,,合同会社,山梨県,富士吉田市,下吉田６丁目２－１６,,19,202,4030004,,,,,,,2024-03-18,1,,,,,フジサンキジカコウ,0
1676,6090003002525,新規,0,2024-03-18,2024-03-18,合同会社太陽のにわ,,合同会社,山梨県,韮崎市,藤井町北下條１４２７番地,,19,207,4070003,,,,,,,2024-03-18,1,,,,,タイヨウノニワ,0
1679,6110001038246,新規,0,2024-03-18,2024-03-18,株式会社ｃｒｕｔｃｈ,,株式会社,新潟県,新潟市西区,小針２丁目３４－１３,,15,107,9502022,,,,,,,2024-03-18,1,,,,,クラッチ,0
1685,6120001263149,新規,0,2024-03-18,2024-03-18,株式会社ＦＪＣ,,株式会社,大阪府,大阪市淀川区,木川東３丁目１番１６号,,27,123,5320012,,,,,,,2024-03-18,1,,,,,エフジェイシー,0
1686,6120001263198,新規,0,2024-03-18,2024-03-18,株式会社結彩,,株式会社,大阪府,大阪市北区,梅田１丁目２番２号大阪駅前第二ビル１２－１２,,27,127,5300001,,,,,,,2024-03-18,1,,,,,ユイロ,0
1687,6120001263223,新規,0,2024-03-18,2024-03-18,株式会社Ｂｅ　ｒｉｇｈｔ,,株式会社,大阪府,大阪市淀川区,西宮原２丁目７番４８－３０８号,,27,123,5320004,,,,,,,2024-03-18,1,,,,,ビライト,0
1688,6120001263355,新規,0,2024-03-18,2024-03-18,開久株式会社,,株式会社,大阪府,大阪市港区,市岡１丁目１９－１７－２０１,,27,107,5520012,,,,,,,2024-03-18,1,,,,,カイキュウ,0
1692,6120101069231,新規,0,2024-03-18,2024-03-18,泉進地所株式会社,,株式会社,大阪府,高石市,綾園６丁目１１番１５号,,27,225,5920014,,,,,,,2024-03-18,1,,,,,センシンチショ,0
1693,6120101069248,新規,0,2024-03-18,2024-03-18,株式会社ヘルスチェックいづみ,,株式会社,大阪府,泉大津市,千原町１丁目６－１９,,27,206,5950004,,,,,,,2024-03-18,1,,,,,ヘルスチェックイヅミ,0
1695,6120103005721,新規,0,2024-03-18,2024-03-18,アップアイ合同会社,,合同会社,大阪府,阪南市,尾崎町８丁目１１番９－６号,,27,232,5990201,,,,,,,2024-03-18,1,,,,,アップアイ,0
1703,6130001076574,新規,0,2024-03-18,2024-03-18,株式会社ＴＯＤＡ,,株式会社,京都府,京都市伏見区,淀下津町１１番地ルナソーレ淀１０１号,,26,109,6130905,,,,,,,2024-03-18,1,,,,,トダ,0
1704,6130001076582,新規,0,2024-03-18,2024-03-18,シンフォニックホールディングス株式会社,,株式会社,京都府,京都市下京区,七条通油小路東入大黒町２２７番地４０２,,26,106,6008223,,,,,,,2024-03-18,1,,,,,シンフォニックホールディングス,0
1706,6130003009383,新規,0,2024-03-18,2024-03-18,合同会社８ｂｏｔ,,合同会社,京都府,八幡市,橋本意足２０番地９,,26,210,6148331,,,,,,,2024-03-18,1,,,,,エイトボット,0
1714,6140001133655,新規,0,2024-03-18,2024-03-18,ＹＳ株式会社,,株式会社,兵庫県,神戸市中央区,浜辺通６丁目１－１－１１１９号,,28,110,6510083,,,,,,,2024-03-18,1,,,,,,0
1715,6140001133688,新規,0,2024-03-18,2024-03-18,株式会社ＣＯＲＯＬＥ,,株式会社,兵庫県,神戸市長田区,片山町５丁目１１－３プリオーレ神戸山ノ手４０６,,28,106,6530805,,,,,,,2024-03-18,1,,,,,コロール,0
1716,6140001133762,新規,0,2024-03-18,2024-03-18,株式会社笑顔の源カンパニー,,株式会社,兵庫県,姫路市,飾磨区下野田２丁目４８０－２０,,28,201,6728044,,,,,,,2024-03-18,1,,,,,エガオノミナモトカンパニー,0
1717,6140001133787,新規,0,2024-03-18,2024-03-18,株式会社ＶＥＬＯ　ＫＯＢＥ,,株式会社,兵庫県,神戸市兵庫区,羽坂通３丁目１番１５号,,28,105,6520805,,,,,,,2024-03-18,1,,,,,ベロコーベ,0
1723,6140003020281,新規,0,2024-03-18,2024-03-18,合同会社ＡＪ,,合同会社,兵庫県,神戸市西区,櫨谷町福谷７１０,,28,111,6512233,,,,,,,2024-03-18,1,,,,,エージェイ,0
1728,6170001018052,新規,0,2024-03-18,2024-03-18,株式会社けんちくの学校,,株式会社,和歌山県,和歌山市,神前３９５番地３,,30,201,6408314,,,,,,,2024-03-18,1,,,,,ケンチクノガッコウ,0
1729,6170003002005,新規,0,2024-03-18,2024-03-18,ＹＡＥＣＡ合同会社,,合同会社,和歌山県,紀の川市,竹房７８０番,,30,208,6496413,,,,,,,2024-03-18,1,,,,,ヤヱカ,0
1747,6190001031185,新規,0,2024-03-18,2024-03-18,株式会社のぼやん,,株式会社,三重県,松阪市,大津町６４７番地３,,24,204,5150031,,,,,,,2024-03-18,1,,,,,ノボヤン,0
1748,6190003004610,新規,0,2024-03-18,2024-03-18,Ｌ３Ａ　ＦＡＭＩＬＹ合同会社,,合同会社,三重県,鈴鹿市,道伯３丁目５番１５号,,24,207,5130823,,,,,,,2024-03-18,1,,,,,エルスリーエーファミリー,0
1749,6190005011919,新規,0,2024-03-18,2024-03-18,一般社団法人四日市太陽光発電所,,その他の設立登記法人,三重県,四日市市,日永東３丁目２番３９号,,24,202,5100886,,,,,,,2024-03-18,1,,,,,ヨッカイチタイヨウコウハツデンショ,0
1751,6200001042263,新規,0,2024-03-18,2024-03-18,株式会社デジテクプロデュース,,株式会社,岐阜県,岐阜市,金町６丁目２１番地岐阜ステーションビル３０４,,21,201,5008842,,,,,,,2024-03-18,1,,,,,デジテクプロデュース,0
1752,6200001042271,新規,0,2024-03-18,2024-03-18,Ｂｌｅｓｓｅｄ　ｍａｔｅｒｉａｌ株式会社,,株式会社,岐阜県,岐阜市,金町６丁目２１番地・岐阜ステーションビル３０４,,21,201,5008842,,,,,,,2024-03-18,1,,,,,ブラッスマテリアル,0
1753,6200001042288,新規,0,2024-03-18,2024-03-18,Ｔｗｉｎｋｌｅ株式会社,,株式会社,岐阜県,可児市,川合北１丁目８０番地１,,21,214,5090208,,,,,,,2024-03-18,1,,,,,トゥインクル,0
1754,6210001019673,新規,0,2024-03-18,2024-03-18,宇野電機工業株式会社,,株式会社,福井県,大野市,下丁第１５号２０番地３,,18,205,9120095,,,,,,,2024-03-18,1,,,,,ウノデンキコウギョウ,0
1755,6220001025869,新規,0,2024-03-18,2024-03-18,株式会社ｏｍＩｋｅＮ,,株式会社,石川県,野々市市,押野５丁目３３４番地,,17,212,9218802,,,,,,,2024-03-18,1,,,,,オミケン,0
1757,6220003003699,新規,0,2024-03-18,2024-03-18,Ｓｍｉｌｅプロ合同会社,,合同会社,石川県,金沢市,泉本町２丁目８９番地２,,17,201,9218042,,,,,,,2024-03-18,1,,,,,スマイルプロ,0
1770,6260001038834,新規,0,2024-03-18,2024-03-18,株式会社ウエストテイルズ,,株式会社,岡山県,岡山市北区,中山下１丁目１１番１５号新田第一ビル４０２号,,33,101,7000821,,,,,,,2024-03-18,1,,,,,ウエストテイルズ,0
1771,6260001038850,新規,0,2024-03-18,2024-03-18,株式会社ベネラボ,,株式会社,岡山県,岡山市南区,藤田２２１３番地２,,33,104,7010221,,,,,,,2024-03-18,1,,,,,ベネラボ,0
1772,6260001038859,新規,0,2024-03-18,2024-03-18,寳商事株式会社,,株式会社,岡山県,倉敷市,白楽町１７１番地３,,33,202,7100824,,,,,,,2024-03-18,1,,,,,タカラショウジ,0
1773,6260003004611,新規,0,2024-03-18,2024-03-18,合同会社藤井設計事務所,,合同会社,岡山県,岡山市北区,辰巳１番地１０４,,33,101,7000976,,,,,,,2024-03-18,1,,,,,フジイセッケイジムショ,0
1785,6290001105045,新規,0,2024-03-18,2024-03-18,株式会社コレク,,株式会社,福岡県,福岡市南区,平和２丁目６番２４－３０８号,,40,134,8150071,,,,,,,2024-03-18,1,,,,,コレク,0
1786,6290001105061,新規,0,2024-03-18,2024-03-18,株式会社オリツギ,,株式会社,福岡県,福岡市中央区,天神２丁目２番１２号Ｔ＆Ｊビルディング７Ｆ,,40,133,8100001,,,,,,,2024-03-18,1,,,,,オリツギ,0
1787,6290001105078,新規,0,2024-03-18,2024-03-18,株式会社ＦＵＪＩ,,株式会社,福岡県,福岡市博多区,中洲１丁目３番１５号オンリーワンビル２Ｆ,,40,132,8100801,,,,,,,2024-03-18,1,,,,,フジ,0
1788,6290001105103,新規,0,2024-03-18,2024-03-18,株式会社Ｓｔｅｐトータルリフォーム,,株式会社,福岡県,飯塚市,柳橋５６番地１ディアコートハイツＥ－２０１,,40,205,8200063,,,,,,,2024-03-18,1,,,,,ステップトータルリフォーム,0
1790,6290003015052,新規,0,2024-03-18,2024-03-18,ＳｔａｒｒｙＢａｓｅ合同会社,,合同会社,福岡県,福岡市博多区,博多駅前１丁目２３番２号ＰａｒｋＦｒｏｎｔ博多駅前１丁目５Ｆ－Ｂ,,40,132,8120011,,,,,,,2024-03-18,1,,,,,スターリーベース,0
1792,6290803004650,新規,0,2024-03-18,2024-03-18,合同会社雅ＭＩＹＡＢＩ,,合同会社,福岡県,遠賀郡水巻町,頃末北２丁目１０番１号,,40,382,8070022,,,,,,,2024-03-18,1,,,,,ミヤビ,0
1793,6300001013650,新規,0,2024-03-18,2024-03-18,フラットシップ株式会社,,株式会社,佐賀県,神埼郡吉野ヶ里町,松隈１６３番地,,41,327,8420101,,,,,,,2024-03-18,1,,,,,フラットシップ,0
1798,6320001020356,新規,0,2024-03-18,2024-03-18,株式会社ＡＰ,,株式会社,大分県,中津市,耶馬溪町大字大島１３０－１,,44,203,8710431,,,,,,,2024-03-18,1,,,,,エーピー,0
1799,6330001031864,新規,0,2024-03-18,2024-03-18,株式会社Ｔ‐Ｓｔａｒｋ,,株式会社,熊本県,熊本市中央区,帯山２丁目６－２２サンフェスタ帯山３０１,,43,101,8620924,,,,,,,2024-03-18,1,,,,,スターク,0
1803,6340001026368,新規,0,2024-03-18,2024-03-18,株式会社日南堂,,株式会社,鹿児島県,鹿児島市,西佐多町３９５番地２６,,46,201,8911301,,,,,,,2024-03-18,1,,,,,ニチナンドウ,0
1805,6340003004405,新規,0,2024-03-18,2024-03-18,ＣＯＭＩＲＡＩ．ＬＡＢ合同会社,,合同会社,鹿児島県,肝属郡東串良町,川東７７４番地３,,46,482,8931615,,,,,,,2024-03-18,1,,,,,コミライラボ,0
1806,6350003004593,新規,0,2024-03-18,2024-03-18,合同会社縁,,合同会社,宮崎県,都城市,志比田町５７４６番地１０,,45,202,8850093,,,,,,,2024-03-18,1,,,,,エニシ,0
1811,6360001033321,新規,0,2024-03-18,2024-03-18,株式会社ソラニワ,,株式会社,沖縄県,宮古島市,伊良部字伊良部７２１番地１,,47,214,9060503,,,,,,,2024-03-18,1,,,,,ソラニワ,0
1812,6360001033338,新規,0,2024-03-18,2024-03-18,株式会社縁,,株式会社,沖縄県,名護市,字幸喜１１３７番地１,,47,209,9050025,,,,,,,2024-03-18,1,,,,,エン,0
1822,6400001016585,新規,0,2024-03-18,2024-03-18,株式会社弁天,,株式会社,岩手県,和賀郡西和賀町,沢内字太田２地割１６４番地１,,03,366,0295614,,,,,,,2024-03-18,1,,,,,ベンテン,0
1824,6410003003903,新規,0,2024-03-18,2024-03-18,合同会社若葉,,合同会社,秋田県,由利本荘市,一番堰３０番地５,,05,210,0150852,,,,,,,2024-03-18,1,,,,,ワカバ,0
1827,6430001091295,新規,0,2024-03-18,2024-03-18,株式会社Ｆ,,株式会社,北海道,札幌市東区,北二十六条東８丁目２－１－５０６,,01,103,0650026,,,,,,,2024-03-18,1,,,,,エフ,0
1828,6430001091304,新規,0,2024-03-18,2024-03-18,株式会社ＦＫ,,株式会社,北海道,苫小牧市,澄川町５丁目２６番２２号,,01,213,0591271,,,,,,,2024-03-18,1,,,,,エフケー,0
1829,6430001091312,新規,0,2024-03-18,2024-03-18,株式会社ＣＯＣＯサポート,,株式会社,北海道,札幌市手稲区,富丘三条４丁目１２－４,,01,109,0060013,,,,,,,2024-03-18,1,,,,,ココサポート,0
1831,6430003016044,新規,0,2024-03-18,2024-03-18,合同会社介護グループてんと,,合同会社,北海道,札幌市東区,北十条東１３丁目１－１２広楽マンション１階０２号室,,01,103,0650010,,,,,,,2024-03-18,1,,,,,カイゴグループテント,0
1832,6430003016077,新規,0,2024-03-18,2024-03-18,合同会社ｎ　ａｎｄ　ｓ企画,,合同会社,北海道,札幌市豊平区,平岸一条１４丁目７番５号,,01,105,0620931,,,,,,,2024-03-18,1,,,,,エヌアンドエスキカク,0
1834,6450001014254,新規,0,2024-03-18,2024-03-18,株式会社エフ・ラボラトリー,,株式会社,北海道,旭川市,緑が丘五条４丁目４番地の３６,,01,204,0788305,,,,,,,2024-03-18,1,,,,,エフラボラトリー,0
1835,6470001020085,新規,0,2024-03-18,2024-03-18,株式会社ジムプランナーズ,,株式会社,香川県,東かがわ市,川東１４９番地２,,37,207,7692602,,,,,,,2024-03-18,1,,,,,ジムプランナーズ,0
1837,6490001010720,新規,0,2024-03-18,2024-03-18,シグナルエンジニアリング株式会社,,株式会社,高知県,高知市,介良乙１３３７番地６,,39,201,7815106,,,,,,,2024-03-18,1,,,,,シグナルエンジニアリング,0
1840,6500001025510,新規,0,2024-03-18,2024-03-18,株式会社ＮＥＵＢＡＵ,,株式会社,愛媛県,松山市,古三津１丁目２９番２６－３号,,38,201,7918067,,,,,,,2024-03-18,1,,,,,ノイバウ,0
1841,6500001025519,新規,0,2024-03-18,2024-03-18,株式会社ＡＧＯＲＡ,,株式会社,愛媛県,今治市,松本町１丁目３番地９,,38,202,7940041,,,,,,,2024-03-18,1,,,,,アゴラ,0
1845,7010001243037,新規,0,2024-03-18,2024-03-18,株式会社ヘルスケアビジネス総合研究所,,株式会社,東京都,中央区,日本橋室町１丁目１１番１２号日本橋水野ビル７階,,13,102,1030022,,,,,,,2024-03-18,1,,,,,ヘルスケアビジネスソウゴウケンキュウジョ,0
1846,7010001243061,新規,0,2024-03-18,2024-03-18,株式会社ＴＣＫ,,株式会社,東京都,千代田区,神田小川町１丁目１０番地２,,13,101,1010052,,,,,,,2024-03-18,1,,,,,ティーシーケー,0
1847,7010001243078,新規,0,2024-03-18,2024-03-18,株式会社グローバルコーポレーション,,株式会社,東京都,中央区,日本橋兜町９番５号,,13,102,1030026,,,,,,,2024-03-18,1,,,,,グローバルコーポレーション,0
1848,7010001243136,新規,0,2024-03-18,2024-03-18,株式会社ＭＩＲＡＳＩＳＯＮＥ,,株式会社,東京都,文京区,小日向３丁目１番８号ヴィラホワイト２Ｆ,,13,105,1120006,,,,,,,2024-03-18,1,,,,,ミラシスワン,0
1852,7010003043088,新規,0,2024-03-18,2024-03-18,ＭＪアソシエイツ合同会社,,合同会社,東京都,中央区,日本橋中洲８－３,,13,102,1030008,,,,,,,2024-03-18,1,,,,,エムジェイアソシエイツ,0
1853,7010003043212,新規,0,2024-03-18,2024-03-18,新町２丁目プロジェクト合同会社,,合同会社,東京都,千代田区,丸の内２丁目３番２号,,13,101,1000005,,,,,,,2024-03-18,1,,,,,シンマチニチョウメプロジェクト,0
1854,7010003043237,新規,0,2024-03-18,2024-03-18,合同会社首都圏レジ開発プロジェクト,,合同会社,東京都,千代田区,平河町１丁目６番１５号シルスフィア会計事務所内,,13,101,1020093,,,,,,,2024-03-18,1,,,,,シュトケンレジカイハツプロジェクト,0
1855,7010003043245,新規,0,2024-03-18,2024-03-18,合同会社ＷＨＩＳＫＥＲ　ＷＯＲＫＳ,,合同会社,東京都,中央区,銀座１丁目１２番４号Ｎ＆ＥＢＬＤ．６Ｆ,,13,102,1040061,,,,,,,2024-03-18,1,,,,,ウィスカーワークス,0
1856,7010005038045,新規,0,2024-03-18,2024-03-18,一般社団法人首都圏レジ開発,,その他の設立登記法人,東京都,千代田区,平河町１丁目６番１５号シルスフィア会計事務所内,,13,101,1020093,,,,,,,2024-03-18,1,,,,,シュトケンレジカイハツ,0
1861,7010401181043,新規,0,2024-03-18,2024-03-18,ＧＯＫＥＩ　ＨＯＬＤＩＮＧＳ株式会社,,株式会社,東京都,港区,新橋５丁目７番１２号,,13,103,1050004,,,,,,,2024-03-18,1,,,,,ゴケイホールディングス,0
1862,7010401181051,新規,0,2024-03-18,2024-03-18,株式会社Ｙ．ｃｏｃｏ,,株式会社,東京都,港区,芝浦１丁目６番４１号,,13,103,1050023,,,,,,,2024-03-18,1,,,,,ワイココ,0
1863,7010401181068,新規,0,2024-03-18,2024-03-18,株式会社Ｕ　Ｃａｒｅｅｒ,,株式会社,東京都,港区,虎ノ門１丁目１１番１３号,,13,103,1050001,,,,,,,2024-03-18,1,,,,,ユーキャリア,0
1864,7010401181092,新規,0,2024-03-18,2024-03-18,株式会社Ｗｅａｖｅ　Ｃｒｅａｔｉｖｅ,,株式会社,東京都,港区,六本木７丁目１２番２号,,13,103,1060032,,,,,,,2024-03-18,1,,,,,ウィーブクリエイティブ,0
1866,7010403032186,新規,0,2024-03-18,2024-03-18,合同会社ａｔＳＰＥＹＳＩＤＥ,,合同会社,東京都,港区,六本木４丁目２番２０号,,13,103,1060032,,,,,,,2024-03-18,1,,,,,アットスペイサイド,0
1868,7010405023068,新規,0,2024-03-18,2024-03-18,不動インベストメンツ一般社団法人,,その他の設立登記法人,東京都,港区,六本木１丁目６番１号泉ガーデンタワー,,13,103,1060032,,,,,,,2024-03-18,1,,,,,,0
1873,7010601064824,新規,0,2024-03-18,2024-03-18,株式会社スケッチ,,株式会社,東京都,墨田区,菊川１丁目９番３号,,13,107,1300024,,,,,,,2024-03-18,1,,,,,スケッチ,0
1876,7010703007086,新規,0,2024-03-18,2024-03-18,ゆかりホールディングス合同会社,,合同会社,東京都,品川区,西五反田２丁目２７番３号Ａ－ＰＬＡＣＥ五反田８Ｆ,,13,109,1410031,,,,,,,2024-03-18,1,,,,,ユカリホールディングス,0
1880,7010901054888,新規,0,2024-03-18,2024-03-18,株式会社ＢＡＮＡＮＡ　ＰＯＳＥ　ＣＬＵＢ,,株式会社,東京都,世田谷区,代沢４丁目２８番６号下北沢パークホームズ３０４,,13,112,1550032,,,,,,,2024-03-18,1,,,,,バナナポーズクラブ,0
1891,7011003018682,新規,0,2024-03-18,2024-03-18,合同会社ＵｎｉＳｔｏｒｙ,,合同会社,東京都,渋谷区,広尾１丁目１３番３号プライムアーバン恵比寿ＩＩ３０３号室,00134081,13,113,1500012,,,,,,,2024-03-18,1,,,,,ユニストーリー,0
1894,7011101106546,新規,0,2024-03-18,2024-03-18,株式会社ｍｏｎａ,,株式会社,東京都,新宿区,富久町１６番１０－６０６号,,13,104,1620067,,,,,,,2024-03-18,1,,,,,モナ,0
1895,7011101106562,新規,0,2024-03-18,2024-03-18,株式会社Ｙｕ,,株式会社,東京都,新宿区,北新宿２丁目２１番２－５１５号,,13,104,1690074,,,,,,,2024-03-18,1,,,,,ユウ,0
1896,7011101106595,新規,0,2024-03-18,2024-03-18,Ｃｕｌｔｕｒｅ　ｐｒｉｎｔｉｎｇ株式会社,,株式会社,東京都,新宿区,新宿１丁目３０－４佐藤荘２Ｆ,,13,104,1600022,,,,,,,2024-03-18,1,,,,,カルチャープリンティング,0
1897,7011103014219,新規,0,2024-03-18,2024-03-18,エクォム合同会社,,合同会社,東京都,新宿区,西新宿３丁目３－１３西新宿水間ビル２Ｆ,,13,104,1600023,,,,,,,2024-03-18,1,,,,,エクォム,0
1898,7011205002591,新規,0,2024-03-18,2024-03-18,一般社団法人探求あそび場づくりの輪,,その他の設立登記法人,東京都,中野区,沼袋１丁目３６番５号ＨＳビル５Ｆ,,13,114,1650025,,,,,,,2024-03-18,1,,,,,タンキュウアソビバヅクリノワ,0
1900,7011303005091,新規,0,2024-03-18,2024-03-18,合同会社ＳＹ　Ａｓｓｅｔ　Ｍａｎａｇｅｍｅｎｔ,,合同会社,東京都,杉並区,荻窪４丁目２番５号,,13,115,1670051,,,,,,,2024-03-18,1,,,,,エスワイアセットマネジメント,0
1915,7011803006135,新規,0,2024-03-18,2024-03-18,合同会社ＫＲ,,合同会社,東京都,足立区,千住旭町３番１３号,,13,121,1200026,,,,,,,2024-03-18,1,,,,,ケイアール,0
1919,7012403006459,新規,0,2024-03-18,2024-03-18,良宅提供合同会社,,合同会社,東京都,小金井市,前原町１丁目１７番６号,,13,210,1840013,,,,,,,2024-03-18,1,,,,,リョウタクテイキョウ,0
1923,7012801023031,新規,0,2024-03-18,2024-03-18,エム・スポット株式会社,,株式会社,東京都,日野市,万願寺３丁目５１番地の１５,,13,212,1910024,,,,,,,2024-03-18,1,,,,,エムスポット,0
1930,7020001156246,新規,0,2024-03-18,2024-03-18,株式会社Ｂｒｅａｋｔｈｒｏｕｇｈ,,株式会社,神奈川県,川崎市川崎区,大島５丁目２９番８号,,14,131,2100834,,,,,,,2024-03-18,1,,,,,ブレイクスルー,0
1931,7020001156345,新規,0,2024-03-18,2024-03-18,株式会社新新,,株式会社,神奈川県,横浜市戸塚区,下倉田町１２３３番地,,14,110,2440815,,,,,,,2024-03-18,1,,,,,シンシン,0
1935,7020003025762,新規,0,2024-03-18,2024-03-18,合同会社ｃｏｌｏｒｓ,,合同会社,神奈川県,川崎市中原区,上小田中１丁目１３番２７号,,14,133,2110053,,,,,,,2024-03-18,1,,,,,カラーズ,0
1936,7020005016306,新規,0,2024-03-18,2024-03-18,医療法人プライマル,,その他の設立登記法人,神奈川県,横浜市保土ケ谷区,常盤台２２番７号ライズモール常盤台Ａ棟２階,,14,106,2400067,,,,,,,2024-03-18,1,,,,,プライマル,0
1938,7021001081723,新規,0,2024-03-18,2024-03-18,株式会社Ｍｉｎｏ　Ｌｉｎｏ１８３,,株式会社,神奈川県,横須賀市,大滝町２丁目１１番地,,14,201,2380008,,,,,,,2024-03-18,1,,,,,ミノリノイチハチサン,0
1940,7021005013045,新規,0,2024-03-18,2024-03-18,医療法人社団ＫＩＮＤ,,その他の設立登記法人,神奈川県,相模原市南区,相模大野８丁目６番６号３階,,14,153,2520303,,,,,,,2024-03-18,1,,,,,カインド,0
1951,7030001159280,新規,0,2024-03-18,2024-03-18,株式会社養生社,,株式会社,埼玉県,さいたま市中央区,新中里５丁目４番２７－２号,,11,105,3380011,,,,,,,2024-03-18,1,,,,,ヨウジョウシャ,0
1959,7040001132674,新規,0,2024-03-18,2024-03-18,株式会社金御興業,,株式会社,千葉県,千葉市花見川区,大日町１３４９番地１,,12,102,2620004,,,,,,,2024-03-18,1,,,,,キンゴコウギョウ,0
1960,7040001132749,新規,0,2024-03-18,2024-03-18,株式会社チバツーＳＥＣ,,株式会社,千葉県,香取市,木内１１９７番地７,,12,236,2890337,,,,,,,2024-03-18,1,,,,,チバツーエスイーシー,0
1965,7050001054439,新規,0,2024-03-18,2024-03-18,株式会社ＦＡＺＡＬ　ＴＲＡＤＩＮＧ,,株式会社,茨城県,坂東市,矢作１２１２番地９,,08,228,3060624,,,,,,,2024-03-18,1,,,,,ファザルトレーディング,0
1966,7050001054455,新規,0,2024-03-18,2024-03-18,創成株式会社,,株式会社,茨城県,稲敷郡阿見町,南平台１丁目８番地４,,08,443,3000312,,,,,,,2024-03-18,1,,,,,ソウセイ,0
1970,7080001026187,新規,0,2024-03-18,2024-03-18,ＴＮネットワークス株式会社,,株式会社,静岡県,静岡市清水区,能島３４番地ヒルヴィレッジＡ１０３号,,22,103,4240063,,,,,,,2024-03-18,1,,,,,ティーエヌネットワークス,0
1971,7080003003151,新規,0,2024-03-18,2024-03-18,合同会社ＷＳＮＡＫ,,合同会社,静岡県,藤枝市,下藪田２７４－４９,,22,214,4260201,,,,,,,2024-03-18,1,,,,,ダブルエスナック,0
1972,7080103003010,新規,0,2024-03-18,2024-03-18,ＴＥｌｌＡＳＵ合同会社,,合同会社,静岡県,沼津市,新町４,,22,203,4100895,,,,,,,2024-03-18,1,,,,,テラス,0
1975,7080401027058,新規,0,2024-03-18,2024-03-18,株式会社夢幸紡,,株式会社,静岡県,浜松市中央区,幸２丁目４５番１０号ヒルズ幸２０３,,22,138,4338123,,,,,,,2024-03-18,1,,,,,ユメコウボウ,0
1977,7080403004971,新規,0,2024-03-18,2024-03-18,ＲＯＡＲ合同会社,,合同会社,静岡県,浜松市中央区,東若林町６６６番地,,22,138,4328052,,,,,,,2024-03-18,1,,,,,ロアー,0
1982,7090001018596,新規,0,2024-03-18,2024-03-18,株式会社ＭＩＮＡＭＯ,,株式会社,山梨県,甲斐市,篠原６１番地２,,19,210,4000115,,,,,,,2024-03-18,1,,,,,ミナモ,0
1983,7090001018605,新規,0,2024-03-18,2024-03-18,株式会社Ｌｅｆｓｕｒｅｌｙ,,株式会社,山梨県,富士吉田市,下吉田２丁目２７番１５号,,19,202,4030004,,,,,,,2024-03-18,1,,,,,リフジュアリー,0
1984,7090003002524,新規,0,2024-03-18,2024-03-18,合同会社Ｒ６１ＰＲＯＪＥＣＴ,,合同会社,山梨県,上野原市,上野原１４４７,,19,212,4090112,,,,,,,2024-03-18,1,,,,,アールロクイチプロジェクト,0
1986,7110001038253,新規,0,2024-03-18,2024-03-18,株式会社ＦＳ,,株式会社,新潟県,新潟市西区,五十嵐２の町８６０８番地７ハイツリバーヒルズＡ２０２,,15,107,9502102,,,,,,,2024-03-18,1,,,,,エフエス,0
1987,7110001038261,新規,0,2024-03-18,2024-03-18,株式会社ＵＮＩＶＥＲＳＥ,,株式会社,新潟県,新潟市秋葉区,新津東町１丁目３－３１－１０,,15,105,9560816,,,,,,,2024-03-18,1,,,,,ユニバース,0
1997,7120001263065,新規,0,2024-03-18,2024-03-18,紀亜ファイン株式会社,,株式会社,大阪府,大阪市浪速区,敷津東３丁目６番９号７Ｆ,,27,111,5560012,,,,,,,2024-03-18,1,,,,,キアファイン,0
1998,7120001263172,新規,0,2024-03-18,2024-03-18,株式会社ｉＴｗｉｎｋｌｅ,,株式会社,大阪府,大阪市北区,天満４丁目９番１６号３階,,27,127,5300043,,,,,,,2024-03-18,1,,,,,アイトゥインクル,0
1999,7120001263189,新規,0,2024-03-18,2024-03-18,株式会社Ｐｏｉｎｔ　ｅ　Ｐｏｉｎｔ,,株式会社,大阪府,大阪市阿倍野区,北畠３丁目３番４３号,,27,119,5450035,,,,,,,2024-03-18,1,,,,,ポワンテポワン,0
2000,7120001263255,新規,0,2024-03-18,2024-03-18,株式会社Ｇｒａｎｄ　Ｒｏｏｔｓ　Ｂｒｏｔｈｅｒｓ,,株式会社,大阪府,大阪市北区,東天満２丁目９番３号,,27,127,5300044,,,,,,,2024-03-18,1,,,,,グランルーツブラザーズ,0
2002,7120003026164,新規,0,2024-03-18,2024-03-18,照＿国際合同会社,00134089,合同会社,大阪府,大阪市生野区,生野東２丁目９番１８－１０５号,,27,116,5440025,,,,,,,2024-03-18,1,,,,,ショウキンコクサイ,0
2003,7120003026172,新規,0,2024-03-18,2024-03-18,イチプロ合同会社,,合同会社,大阪府,大阪市北区,梅田１丁目１‐３大阪駅前第３ビル２９階１‐１‐１号室,,27,127,5300001,,,,,,,2024-03-18,1,,,,,イチプロ,0
2004,7120003026180,新規,0,2024-03-18,2024-03-18,合同会社こころとからだの健康支援室,,合同会社,大阪府,大阪市北区,梅田１丁目１１番４号大阪駅前第４ビル９階９２３－１６９５号,,27,127,5300001,,,,,,,2024-03-18,1,,,,,ココロトカラダノケンコウシエンシツ,0
2007,7120101069230,新規,0,2024-03-18,2024-03-18,株式会社大阪給食,,株式会社,大阪府,松原市,岡２丁目３番１４号仲内ハイツ１階南角,,27,217,5800014,,,,,,,2024-03-18,1,,,,,オオサカキュウショク,0
2008,7120101069255,新規,0,2024-03-18,2024-03-18,株式会社ＫＩＲ,,株式会社,大阪府,堺市西区,浜寺船尾町西２丁１８４番地,,27,144,5928342,,,,,,,2024-03-18,1,,,,,ケーアイアール,0
2009,7120105009835,新規,0,2024-03-18,2024-03-18,特定非営利活動法人泉大津フットボールクラブ,,その他の設立登記法人,大阪府,和泉市,弥生町２丁目９番１６号,,27,219,5940061,,,,,,,2024-03-18,1,,,,,イズミオオツフットボールクラブ,0
2013,7122003002830,新規,0,2024-03-18,2024-03-18,合同会社ＯＷＬ,,合同会社,大阪府,四條畷市,美田町１４番１５号,,27,229,5750033,,,,,,,2024-03-18,1,,,,,オウル,0
2018,7130001076573,新規,0,2024-03-18,2024-03-18,株式会社Ｈａｍａｎｏ　Ｄｅｓｉｇｎ,,株式会社,京都府,木津川市,南加茂台１５丁目５番地１,,26,214,6191127,,,,,,,2024-03-18,1,,,,,ハマノデザイン,0
2024,7140001133670,新規,0,2024-03-18,2024-03-18,株式会社Ｋ‐ｔｅｃｈｎｏ,,株式会社,兵庫県,加古川市,神野町西条９９７番地の１,,28,210,6750009,,,,,,,2024-03-18,1,,,,,ケーテクノ,0
2025,7140001133687,新規,0,2024-03-18,2024-03-18,株式会社エステクノス,,株式会社,兵庫県,豊岡市,江本４４９－２,,28,209,6680852,,,,,,,2024-03-18,1,,,,,エステクノス,0
2026,7140001133695,新規,0,2024-03-18,2024-03-18,株式会社ＫＳＬ,,株式会社,兵庫県,神戸市西区,井吹台東町５丁目７３番地の１３,,28,111,6512242,,,,,,,2024-03-18,1,,,,,ケーエスエル,0
2027,7140001133704,新規,0,2024-03-18,2024-03-18,株式会社ＤＡＹＳ,,株式会社,兵庫県,神戸市西区,天が岡１８－７,,28,111,6512141,,,,,,,2024-03-18,1,,,,,デイズ,0
2028,7140003020280,新規,0,2024-03-18,2024-03-18,合同会社ひなた動物クリニック,,合同会社,兵庫県,姫路市,広畑区高浜町１丁目８８番地,,28,201,6711153,,,,,,,2024-03-18,1,,,,,ヒナタドウブツクリニック,0
2029,7150001027153,新規,0,2024-03-18,2024-03-18,株式会社Ｃａｒｒｙ　Ｍｏｒｅ,,株式会社,奈良県,生駒市,山崎町４番２０号大都ビル１Ｆ,,29,209,6300252,,,,,,,2024-03-18,1,,,,,キャリーモア,0
2030,7150005009569,新規,0,2024-03-18,2024-03-18,一般社団法人ＲＡＫＪＥＳ,,その他の設立登記法人,奈良県,奈良市,紀寺町９０７番地２,,29,201,6308306,,,,,,,2024-03-18,1,,,,,ラクジェス,0
2033,7160001025750,新規,0,2024-03-18,2024-03-18,株式会社日日堂,,株式会社,滋賀県,東近江市,蛇溝町１６７６番地１５,,25,213,5270073,,,,,,,2024-03-18,1,,,,,ニチニチドウ,0
2034,7160001025759,新規,0,2024-03-18,2024-03-18,株式会社ＳＫＴマネジメント,,株式会社,滋賀県,高島市,安曇川町横江浜１９２番地,,25,212,5201235,,,,,,,2024-03-18,1,,,,,エスケイティーマネジメント,0
2036,7170001018043,新規,0,2024-03-18,2024-03-18,株式会社Ｓ．Ｄ．Ｓ,,株式会社,和歌山県,田辺市,高雄１丁目１番３３号,,30,206,6460028,,,,,,,2024-03-18,1,,,,,エスディーエス,0
2038,7170003002004,新規,0,2024-03-18,2024-03-18,合同会社司ファーム,,合同会社,和歌山県,和歌山市,湊４丁目２番３１号,,30,201,6408404,,,,,,,2024-03-18,1,,,,,ツカサファーム,0
2053,7180305009555,新規,0,2024-03-18,2024-03-18,一般社団法人ＰＭＳクリニック,,その他の設立登記法人,愛知県,西尾市,錦城町２３５－２４,,23,213,4450864,,,,,,,2024-03-18,1,,,,,ピーエムエスクリニック,0
2057,7200003006265,新規,0,2024-03-18,2024-03-18,合同会社奥美濃ジビエやまと,,合同会社,岐阜県,郡上市,大和町島２０５３番地４,,21,219,5014610,,,,,,,2024-03-18,1,,,,,オクミノジビエヤマト,0
2059,7220001025868,新規,0,2024-03-18,2024-03-18,株式会社高嶋頌介建築設計事務所,00134091,株式会社,石川県,金沢市,芳斉１丁目７番２０号,,17,201,9200862,,,,,,,2024-03-18,1,,,,,タカシマヨウスケケンチクセッケイジムショ,0
2063,7240001062934,新規,0,2024-03-18,2024-03-18,株式会社きぼう,,株式会社,広島県,安芸郡府中町,鹿籠２丁目７番１８－１５０１号,,34,302,7350025,,,,,,,2024-03-18,1,,,,,キボウ,0
2064,7240001062950,新規,0,2024-03-18,2024-03-18,株式会社ＰＲＩＮＣＥＳＳ,,株式会社,広島県,三原市,館町１丁目４番４－８０２号,,34,204,7230004,,,,,,,2024-03-18,1,,,,,プリンセス,0
2066,7240003006575,新規,0,2024-03-18,2024-03-18,合同会社Ｘｏｎｅ,,合同会社,広島県,福山市,延広町２番７号２Ｆ,,34,207,7200064,,,,,,,2024-03-18,1,,,,,エックスワン,0
2067,7240005015748,新規,0,2024-03-18,2024-03-18,医療法人英厚会,,その他の設立登記法人,広島県,安芸郡海田町,栄町５番３２号,,34,304,7360043,,,,,,,2024-03-18,1,,,,,エイコウカイ,0
2068,7260001038841,新規,0,2024-03-18,2024-03-18,株式会社ＴＨＲＥＥ,,株式会社,岡山県,岡山市南区,中畦２７１番地１４,,33,104,7010213,,,,,,,2024-03-18,1,,,,,スリー,0
2069,7260001038866,新規,0,2024-03-18,2024-03-18,株式会社ＲＹＵＧＩ,,株式会社,岡山県,岡山市南区,泉田１丁目８番１８号,,33,104,7000944,,,,,,,2024-03-18,1,,,,,リュウギ,0
2070,7260003004610,新規,0,2024-03-18,2024-03-18,合同会社Ｏｖｅｒｄｒｉｖｅ　Ｐｌｕｓ,,合同会社,岡山県,岡山市南区,泉田４１３－１８,,33,104,7000944,,,,,,,2024-03-18,1,,,,,オーバードライブプラス,0
2076,7290001105036,新規,0,2024-03-18,2024-03-18,株式会社秀美苑,,株式会社,福岡県,宗像市,自由ヶ丘南１丁目２４番地１３,,40,220,8114156,,,,,,,2024-03-18,1,,,,,シュウビエン,0
2077,7290001105044,新規,0,2024-03-18,2024-03-18,株式会社オフィス・アナン,,株式会社,福岡県,那珂川市,中原２丁目１２０博多南駅前ビル２Ｆ,,40,231,8111213,,,,,,,2024-03-18,1,,,,,オフィスアナン,0
2078,7290001105060,新規,0,2024-03-18,2024-03-18,株式会社ナカハラ,,株式会社,福岡県,福岡市早良区,祖原２９－１９－２０２,,40,137,8140005,,,,,,,2024-03-18,1,,,,,ナカハラ,0
2079,7290001105077,新規,0,2024-03-18,2024-03-18,株式会社ＥＩＴＡ,,株式会社,福岡県,福岡市博多区,中洲１丁目３番１５号オンリ－ワンビル２Ｆ,,40,132,8100801,,,,,,,2024-03-18,1,,,,,エイタ,0
2083,7310005008752,新規,0,2024-03-18,2024-03-18,一般社団法人プレポながさき交流会,,その他の設立登記法人,長崎県,長崎市,下西山町１番５号,,42,201,8500004,,,,,,,2024-03-18,1,,,,,プレポナガサキコウリュウカイ,0
2085,7320001020355,新規,0,2024-03-18,2024-03-18,株式会社ガリバー,,株式会社,大分県,大分市,末広町２丁目３－１５スカイハイツ末広６０４号室,,44,201,8700027,,,,,,,2024-03-18,1,,,,,,0
2088,7330001031855,新規,0,2024-03-18,2024-03-18,株式会社ココタナ,,株式会社,熊本県,合志市,須屋１７６番地６,,43,216,8611102,,,,,,,2024-03-18,1,,,,,ココタナ,0
2089,7330003010262,新規,0,2024-03-18,2024-03-18,合同会社カノン,,合同会社,熊本県,菊池郡菊陽町,大字原水１１４番地２,,43,404,8691102,,,,,,,2024-03-18,1,,,,,,0
2093,7340001026375,新規,0,2024-03-18,2024-03-18,ＳＫＲ株式会社,,株式会社,鹿児島県,姶良市,永池町１６番地１５,,46,225,8995654,,,,,,,2024-03-18,1,,,,,エスケーアール,0
2094,7340001026383,新規,0,2024-03-18,2024-03-18,Ｃｄｅｓｉｇｎ株式会社,,株式会社,鹿児島県,鹿児島市,薬師２丁目３８番３０号,,46,201,8900042,,,,,,,2024-03-18,1,,,,,シーデザイン,0
2095,7340003004404,新規,0,2024-03-18,2024-03-18,合同会社ｏｄｅｕｒ　ｐｌａｎ,,合同会社,鹿児島県,鹿児島市,吉野町５３８９番地８,,46,201,8920871,,,,,,,2024-03-18,1,,,,,オドゥールプラン,0
2097,7350001018834,新規,0,2024-03-18,2024-03-18,株式会社宮崎興産,,株式会社,宮崎県,宮崎市,吉村町北中甲１２２５番地ピーチフローレＩＩ３０２号,00134087,45,201,8800841,,,,,,,2024-03-18,1,,,,,ミヤザキコウサン,0
2102,7360001033337,新規,0,2024-03-18,2024-03-18,株式会社琉球テクノスサービス,,株式会社,沖縄県,名護市,大南２丁目１番３６－５号,,47,209,9050015,,,,,,,2024-03-18,1,,,,,リュウキュウテクノスサービス,0
2103,7360003013799,新規,0,2024-03-18,2024-03-18,西崎マリンレジャー合同会社,,合同会社,沖縄県,那覇市,若狭１丁目６番１０号ビーチサイドビル,,47,201,9000031,,,,,,,2024-03-18,1,,,,,ニシザキマリンレジャー,0
2109,7400003003226,新規,0,2024-03-18,2024-03-18,合同会社ｌｉｅｎ,,合同会社,岩手県,盛岡市,緑が丘１丁目１番７号,,03,201,0200117,,,,,,,2024-03-18,1,,,,,リアン,0
2119,7430001091294,新規,0,2024-03-18,2024-03-18,株式会社ショコラテ,,株式会社,北海道,札幌市中央区,南十四条西７丁目３番２号ステージ行啓１Ｆ,,01,101,0640914,,,,,,,2024-03-18,1,,,,,ショコラテ,0
2120,7430001091311,新規,0,2024-03-18,2024-03-18,ひまわり商事株式会社,,株式会社,北海道,札幌市白石区,菊水上町二条２丁目５２番地１１９,,01,104,0030812,,,,,,,2024-03-18,1,,,,,ヒマワリショウジ,0
2124,7430003016068,新規,0,2024-03-18,2024-03-18,合同会社ｅｉｔ　ＰＲＥＭＩＵＭ,,合同会社,北海道,札幌市中央区,南八条西６丁目２８９－１９５カブトビル１２５－５０３号室,,01,101,0640808,,,,,,,2024-03-18,1,,,,,エイトプレミアム,0
2125,7430003016076,新規,0,2024-03-18,2024-03-18,合同会社Ｋ‐ＰＬＵＳ,,合同会社,北海道,札幌市白石区,北郷三条４丁目３番１４号北郷ビル１階,,01,104,0030833,,,,,,,2024-03-18,1,,,,,ケープラス,0
2126,7430003016084,新規,0,2024-03-18,2024-03-18,合同会社福来,,合同会社,北海道,札幌市西区,福井６丁目１番１２号,,01,107,0630012,,,,,,,2024-03-18,1,,,,,フクラ,0
2127,7430005014929,新規,0,2024-03-18,2024-03-18,医療法人たまき矯正歯科,,その他の設立登記法人,北海道,札幌市北区,北六条西１丁目３番　３８山京ビル７階,,01,102,0600806,,,,,,,2024-03-18,1,,,,,タマキキョウセイシカ,0
2130,7450001014253,新規,0,2024-03-18,2024-03-18,株式会社Ａｒｒｉｖｅ,,株式会社,北海道,旭川市,七条西３丁目１番５号,,01,204,0700057,,,,,,,2024-03-18,1,,,,,,0
2131,7450001014261,新規,0,2024-03-18,2024-03-18,株式会社藤林商店,,株式会社,北海道,富良野市,北の峰町２２番１号ピッツタール１０３,,01,229,0760034,,,,,,,2024-03-18,1,,,,,,0
2132,7450003002454,新規,0,2024-03-18,2024-03-18,合同会社ＶＡＮＤＲ,,合同会社,北海道,上川郡鷹栖町,北野東三条１丁目７番１２号,,01,452,0711223,,,,,,,2024-03-18,1,,,,,,0
2135,7490001010728,新規,0,2024-03-18,2024-03-18,株式会社Ｐｒａｃｔｉｃｅ,,株式会社,高知県,高知市,はりまや町１丁目２番１２号１階,,39,201,7800822,,,,,,,2024-03-18,1,,,,,プラクティス,0
2138,7500001025518,新規,0,2024-03-18,2024-03-18,株式会社ｅ‐ｄａｔａｂａｎｋ,,株式会社,愛媛県,松山市,千舟町４丁目３番７号青野ビル１階,,38,201,7900011,,,,,,,2024-03-18,1,,,,,イーデータバンク,0
2151,8010001243036,新規,0,2024-03-18,2024-03-18,新源株式会社,,株式会社,東京都,中央区,佃２丁目２番１０－１９０３号,,13,102,1040051,,,,,,,2024-03-18,1,,,,,シンゲン,0
2155,8010005038060,新規,0,2024-03-18,2024-03-18,流山１２ロジスティック特定目的会社,,その他の設立登記法人,東京都,中央区,八重洲２丁目２番１号,,13,102,1040028,,,,,,,2024-03-18,1,,,,,ナガレヤマトゥエルブロジスティック,0
2165,8010401181018,新規,0,2024-03-18,2024-03-18,Ｃ＆Ｇ株式会社,,株式会社,東京都,港区,白金１丁目２－１－Ｅ３４０７,,13,103,1080072,,,,,,,2024-03-18,1,,,,,シーアンドジー,0
2166,8010401181042,新規,0,2024-03-18,2024-03-18,マグフィクス・テクノロジーズ株式会社,,株式会社,東京都,港区,南青山５丁目３番２２号,,13,103,1070062,,,,,,,2024-03-18,1,,,,,マグフィクステクノロジーズ,0
2167,8010405023067,新規,0,2024-03-18,2024-03-18,不動インベストメンツ特定目的会社,,その他の設立登記法人,東京都,港区,六本木１丁目６番１号泉ガーデンタワー,,13,103,1060032,,,,,,,2024-03-18,1,,,,,,0
2170,8010501051946,新規,0,2024-03-18,2024-03-18,株式会社星銀パートナーズ,,株式会社,東京都,台東区,東上野３丁目２４番９号ＭＩＴＡビル５Ｆ,,13,106,1100015,,,,,,,2024-03-18,1,,,,,セイギンパートナーズ,0
2172,8010601064823,新規,0,2024-03-18,2024-03-18,ＬＣＭｅｒｃｏｌｅｔｈ株式会社,,株式会社,東京都,江東区,亀戸２丁目６番２－５２５号,,13,108,1360071,,,,,,,2024-03-18,1,,,,,エルシーメルコレス,0
2173,8010601064831,新規,0,2024-03-18,2024-03-18,株式会社ガナドール,,株式会社,東京都,江東区,亀戸２丁目２７番１０号,,13,108,1360071,,,,,,,2024-03-18,1,,,,,ガナドール,0
2175,8010701045707,新規,0,2024-03-18,2024-03-18,Ｙホールディングス株式会社,,株式会社,東京都,品川区,北品川５丁目１７番１７号,,13,109,1410001,,,,,,,2024-03-18,1,,,,,ワイホールディングス,0
2177,8010703007085,新規,0,2024-03-18,2024-03-18,ＰｕｎｊａｂＰｏｗｅｒ合同会社,,合同会社,東京都,品川区,西五反田４丁目１５番１０号,,13,109,1410031,,,,,,,2024-03-18,1,,,,,パンジャブパワー,0
2193,8011001160667,新規,0,2024-03-18,2024-03-18,株式会社ニューロードシステム,,株式会社,東京都,渋谷区,渋谷２丁目１９－１５宮益坂ビルディング６０９,,13,113,1500002,,,,,,,2024-03-18,1,,,,,ニューロードシステム,0
2196,8011003018707,新規,0,2024-03-18,2024-03-18,ワイズメディカルサービス合同会社,,合同会社,東京都,渋谷区,渋谷２丁目１９－１５宮益坂ビルディング６０９,,13,113,1500002,,,,,,,2024-03-18,1,,,,,ワイズメディカルサービス,0
2197,8011005010422,新規,0,2024-03-18,2024-03-18,一般財団法人谷育英財団,,その他の設立登記法人,東京都,渋谷区,幡ヶ谷３丁目５１番２号,,13,113,1510072,,,,,,,2024-03-18,1,,,,,タニイクエイザイダン,0
2200,8011101106545,新規,0,2024-03-18,2024-03-18,株式会社Ｐｅａｃｈ,,株式会社,東京都,新宿区,富久町１６番１０－６０６号,,13,104,1620067,,,,,,,2024-03-18,1,,,,,ピーチ,0
2201,8011101106553,新規,0,2024-03-18,2024-03-18,株式会社ゆうないパートナーズ,,株式会社,東京都,新宿区,西新宿６丁目２５番８号アトラスタワー西新宿１２０７,,13,104,1600023,,,,,,,2024-03-18,1,,,,,ユウナイパートナーズ,0
2202,8011101106586,新規,0,2024-03-18,2024-03-18,株式会社ＣＯＣＯＲＡＩＳＥ,,株式会社,東京都,新宿区,高田馬場３丁目１番５号サンパティオ高田馬場３０９号室,,13,104,1690075,,,,,,,2024-03-18,1,,,,,ココライズ,0
2203,8011101106594,新規,0,2024-03-18,2024-03-18,株式会社ＴｅｃｈＧｒｏｗｔｈ,,株式会社,東京都,新宿区,西新宿３丁目３番１３号西新宿水間ビル６階,,13,104,1600023,,,,,,,2024-03-18,1,,,,,テックグロース,0
2209,8011403004307,新規,0,2024-03-18,2024-03-18,合同会社村上空間,,合同会社,東京都,板橋区,小豆沢２丁目４番８－４０７号,,13,119,1740051,,,,,,,2024-03-18,1,,,,,ムラカミクウカン,0
2211,8011501030452,新規,0,2024-03-18,2024-03-18,株式会社ＯＮＯ,,株式会社,東京都,北区,上十条１丁目１６番７号,,13,117,1140034,,,,,,,2024-03-18,1,,,,,オノ,0
2214,8011701027117,新規,0,2024-03-18,2024-03-18,大海株式会社,,株式会社,東京都,江戸川区,西葛西５丁目７番６号ＤＡＯＳＰＡＣＥ西葛西３階３０２号室,,13,123,1340088,,,,,,,2024-03-18,1,,,,,タイカイ,0
2217,8011803006126,新規,0,2024-03-18,2024-03-18,ＴＹＣ合同会社,,合同会社,東京都,足立区,千住柳町７番４号,,13,121,1200032,,,,,,,2024-03-18,1,,,,,ティーワイシー,0
2218,8011803006134,新規,0,2024-03-18,2024-03-18,合同会社Ｙ‐ｓｔｙｌｅ,,合同会社,東京都,葛飾区,西亀有１丁目１９番１９号,,13,122,1240002,,,,,,,2024-03-18,1,,,,,,0
2222,8012401041639,新規,0,2024-03-18,2024-03-18,株式会社エヌツー,,株式会社,東京都,稲城市,百村２２１番地の４,,13,225,2060804,,,,,,,2024-03-18,1,,,,,エヌツー,0
2223,8012701018139,新規,0,2024-03-18,2024-03-18,株式会社成木屋,,株式会社,東京都,小平市,天神町４丁目３４番１０号,,13,211,1870004,,,,,,,2024-03-18,1,,,,,ナリキヤ,0
2225,8012803003336,新規,0,2024-03-18,2024-03-18,合同会社Ｅ＆Ｙカンパニー,,合同会社,東京都,日野市,東豊田２丁目３４番地の３２,,13,212,1910052,,,,,,,2024-03-18,1,,,,,イーアンドワイカンパニー,0
2229,8013303007050,新規,0,2024-03-18,2024-03-18,Ｋｏａ‐ＲｅａｌＥｓｔａｔｅ合同会社,,合同会社,東京都,豊島区,駒込１丁目３番５号,,13,116,1700003,,,,,,,2024-03-18,1,,,,,コアリアルエステート,0
2231,8020001156237,新規,0,2024-03-18,2024-03-18,株式会社ｅｔｈｉｃａｌ　ｂｅａｕｔｙ＆ｆｏｏｄ,,株式会社,神奈川県,横浜市中区,元町１丁目１８番地５レフィナード元町３Ｆ,,14,104,2310861,,,,,,,2024-03-18,1,,,,,エシカルビューティーアンドフード,0
2232,8020001156245,新規,0,2024-03-18,2024-03-18,株式会社Ｓｉｍｐｌｅ,,株式会社,神奈川県,川崎市高津区,諏訪３丁目１８番６－３０５号,,14,134,2130004,,,,,,,2024-03-18,1,,,,,シンプル,0
2233,8020001156253,新規,0,2024-03-18,2024-03-18,横浜ステラ株式会社,,株式会社,神奈川県,横浜市西区,戸部町７丁目２４５番地１フェリース横浜２０１,,14,103,2200042,,,,,,,2024-03-18,1,,,,,ヨコハマステラ,0
2234,8020001156261,新規,0,2024-03-18,2024-03-18,株式会社ＭＣ,,株式会社,神奈川県,川崎市麻生区,百合丘３丁目２３番地７,,14,137,2150011,,,,,,,2024-03-18,1,,,,,エムシー,0
2235,8020001156286,新規,0,2024-03-18,2024-03-18,株式会社Ｂｒｉｄｇｅｓ　ｔｏ　Ｉｎｃｌｕｓｉｏｎ,,株式会社,神奈川県,川崎市中原区,市ノ坪６７１番地２０,,14,133,2110016,,,,,,,2024-03-18,1,,,,,ブリッジズトゥーインクルージョン,0
2238,8020003025737,新規,0,2024-03-18,2024-03-18,合同会社ＭＫサポート,,合同会社,神奈川県,横浜市泉区,中田南５丁目６０－２１,,14,116,2450014,,,,,,,2024-03-18,1,,,,,エムケーサポート,0
2241,8020005016305,新規,0,2024-03-18,2024-03-18,医療法人Ｆｅｎｗａｙ,,その他の設立登記法人,神奈川県,川崎市中原区,上小田中６丁目２６番３号２Ｆ－２,,14,133,2110053,,,,,,,2024-03-18,1,,,,,フェンウェイ,0
2245,8021001081706,新規,0,2024-03-18,2024-03-18,１００Ｍｉｌｌｉｏｎ‐Ｃｅｌｌ株式会社,,株式会社,神奈川県,藤沢市,朝日町１０番地の５森ビル４階,,14,205,2510054,,,,,,,2024-03-18,1,,,,,ワンハンドレッドミリオンセル,0
2246,8021001081714,新規,0,2024-03-18,2024-03-18,株式会社Ｒａｉｓｅｈｏｏｄ,,株式会社,神奈川県,横須賀市,追浜本町１丁目４８番地１,,14,201,2370068,,,,,,,2024-03-18,1,,,,,レイズフッド,0
2247,8021001081722,新規,0,2024-03-18,2024-03-18,株式会社ミクマリ工業,,株式会社,神奈川県,平塚市,片岡６８８番地の４,,14,203,2591213,,,,,,,2024-03-18,1,,,,,ミクマリコウギョウ,0
2248,8021001081730,新規,0,2024-03-18,2024-03-18,ＥＰＩＣ　ＳＯＵＬ　ＩＮＮＯＶＡＴＩＯＮＳ株式会社,,株式会社,神奈川県,鎌倉市,浄明寺２丁目１番９号,,14,204,2480003,,,,,,,2024-03-18,1,,,,,エピックソウルイノベイションズ,0
2252,8021005013044,新規,0,2024-03-18,2024-03-18,医療法人社団健侑会,,その他の設立登記法人,神奈川県,鎌倉市,大船２丁目１８番９号１階,,14,204,2470056,,,,,,,2024-03-18,1,,,,,ケンユウカイ,0
2258,8030001159222,新規,0,2024-03-18,2024-03-18,スタッフワン株式会社,,株式会社,埼玉県,坂戸市,芦山町７－９芦山ハイツ３０５,,11,239,3500273,,,,,,,2024-03-18,1,,,,,スタッフワン,0
2259,8030001159247,新規,0,2024-03-18,2024-03-18,株式会社ＡＲＩ,,株式会社,埼玉県,戸田市,上戸田３丁目８番１０号,,11,224,3350022,,,,,,,2024-03-18,1,,,,,エーアールアイ,0
2260,8030001159255,新規,0,2024-03-18,2024-03-18,株式会社ＴＡＩＬ,,株式会社,埼玉県,坂戸市,鶴舞４丁目６番６号,,11,239,3500241,,,,,,,2024-03-18,1,,,,,テイル,0
2269,8030003023830,新規,0,2024-03-18,2024-03-18,ＮａｎＣｏｒｅｓ合同会社,,合同会社,埼玉県,草加市,高砂２丁目１８番２１－１００４号,,11,221,3400015,,,,,,,2024-03-18,1,,,,,ナンコアーズ,0
2270,8030005021592,新規,0,2024-03-18,2024-03-18,医療法人社団たにあい内科医院,,その他の設立登記法人,埼玉県,富士見市,大字上南畑２４０番地１,,11,235,3540002,,,,,,,2024-03-18,1,,,,,タニアイナイカイイン,0
2279,8040001132649,新規,0,2024-03-18,2024-03-18,株式会社石井重機,,株式会社,千葉県,船橋市,新高根２丁目１３番４号,,12,204,2740814,,,,,,,2024-03-18,1,,,,,イシイジュウキ,0
2280,8040001132681,新規,0,2024-03-18,2024-03-18,ティーワイディーグローバル株式会社,,株式会社,千葉県,千葉市花見川区,さつきが丘２丁目１０番２２棟２０３号,,12,102,2620014,,,,,,,2024-03-18,1,,,,,ティーワイディーグローバル,0
2284,8040003024547,新規,0,2024-03-18,2024-03-18,合同会社メディカラー,,合同会社,千葉県,八千代市,ゆりのき台３丁目３番４号パールシティ八千代１０５,,12,221,2760042,,,,,,,2024-03-18,1,,,,,メディカラー,0
2285,8040003024563,新規,0,2024-03-18,2024-03-18,合同会社エムアンドケーライフ,,合同会社,千葉県,佐倉市,ユーカリが丘５丁目６－５－１０６,,12,212,2850858,,,,,,,2024-03-18,1,,,,,エムアンドケーライフ,0
2292,8070001041491,新規,0,2024-03-18,2024-03-18,株式会社がじゅまる,,株式会社,群馬県,太田市,市場町１１３９番地１７,,10,205,3730013,,,,,,,2024-03-18,1,,,,,ガジュマル,0
2297,8080401027057,新規,0,2024-03-18,2024-03-18,株式会社Ｂｒｉｎｅｎｔ,,株式会社,静岡県,浜松市中央区,元浜町３４番地の１５,,22,138,4300942,,,,,,,2024-03-18,1,,,,,ブライネント,0
2300,8080403004970,新規,0,2024-03-18,2024-03-18,合同会社ニッパチ,,合同会社,静岡県,浜松市中央区,海老塚２丁目２５番２１号シティハイツ浜松４０１号,,22,138,4328033,,,,,,,2024-03-18,1,,,,,ニッパチ,0
2305,8090003002515,新規,0,2024-03-18,2024-03-18,合同会社八ヶ岳わんこフォトスタジオ,,合同会社,山梨県,北杜市,大泉町谷戸８５８２番地４サンライズ泉１０２,,19,209,4091502,,,,,,,2024-03-18,1,,,,,ヤツガタケワンコフォトスタジオ,0
2314,8120001263163,新規,0,2024-03-18,2024-03-18,株式会社ＦＡＭ,,株式会社,大阪府,大阪市東住吉区,北田辺３丁目４番１０号,,27,121,5460044,,,,,,,2024-03-18,1,,,,,エフエーエム,0
2315,8120001263238,新規,0,2024-03-18,2024-03-18,株式会社ＥＥ　ＬＩＦＥ,,株式会社,大阪府,大阪市港区,波除１丁目２番９－７０１号,,27,107,5520001,,,,,,,2024-03-18,1,,,,,エーライフ,0
2316,8120001263295,新規,0,2024-03-18,2024-03-18,株式会社エフプリ,,株式会社,大阪府,大阪市中央区,本町２丁目３番４号アソルティ本町４階,,27,128,5410053,,,,,,,2024-03-18,1,,,,,エフプリ,0
2318,8120003026163,新規,0,2024-03-18,2024-03-18,ＴＳＧ合同会社,,合同会社,大阪府,大阪市都島区,毛馬町２丁目８番１３号,,27,102,5340001,,,,,,,2024-03-18,1,,,,,ティーエスジー,0
2319,8120003026188,新規,0,2024-03-18,2024-03-18,うえまちクリニック合同会社,,合同会社,大阪府,大阪市中央区,上町Ｃ－８,,27,128,5400005,,,,,,,2024-03-18,1,,,,,ウエマチクリニック,0
2324,8120101069213,新規,0,2024-03-18,2024-03-18,株式会社ＪＵＮＯ,,株式会社,大阪府,泉南郡熊取町,青葉台１丁目１番３号,,27,361,5900407,,,,,,,2024-03-18,1,,,,,ジュノ,0
2325,8120101069221,新規,0,2024-03-18,2024-03-18,株式会社蒼起,,株式会社,大阪府,岸和田市,吉井町２丁目１８番９号,,27,202,5960002,,,,,,,2024-03-18,1,,,,,ソウキ,0
2327,8120103005728,新規,0,2024-03-18,2024-03-18,合同会社ＫＯＭＩＫＩ,,合同会社,大阪府,堺市南区,美木多上２６２６番地１,,27,145,5900136,,,,,,,2024-03-18,1,,,,,コミキ,0
2328,8120901048894,新規,0,2024-03-18,2024-03-18,株式会社テクニカル,,株式会社,大阪府,箕面市,如意谷５丁目１番１－１５０８号,,27,220,5620011,,,,,,,2024-03-18,1,,,,,テクニカル,0
2331,8122001037910,新規,0,2024-03-18,2024-03-18,株式会社マプロ,,株式会社,大阪府,柏原市,玉手町２２番５号,,27,221,5820028,,,,,,,2024-03-18,1,,,,,マプロ,0
2347,8140001133686,新規,0,2024-03-18,2024-03-18,株式会社ＬＯＶＥＬＥ,,株式会社,兵庫県,明石市,朝霧南町２丁目８番２２号,,28,203,6730870,,,,,,,2024-03-18,1,,,,,ラブル,0
2351,8140003020271,新規,0,2024-03-18,2024-03-18,ｗｅｅｋｓ合同会社,,合同会社,兵庫県,尼崎市,南武庫之荘７丁目６－２０,,28,202,6610033,,,,,,,2024-03-18,1,,,,,ウィークス,0
2352,8140003020288,新規,0,2024-03-18,2024-03-18,ブリスライズ合同会社,,合同会社,兵庫県,姫路市,辻井５丁目１６－２,,28,201,6700083,,,,,,,2024-03-18,1,,,,,ブリスライズ,0
2356,8150001027152,新規,0,2024-03-18,2024-03-18,株式会社ワンベスト,,株式会社,奈良県,橿原市,北八木町１丁目１番１７号,,29,205,6340005,,,,,,,2024-03-18,1,,,,,ワンベスト,0
2360,8170001018059,新規,0,2024-03-18,2024-03-18,株式会社ｉＤｉｓｃｏｖｅｒｙ,,株式会社,和歌山県,日高郡みなべ町,芝１０－３２,,30,391,6450002,,,,,,,2024-03-18,1,,,,,アイディスカバリー,0
2361,8170003002003,新規,0,2024-03-18,2024-03-18,ブハハコンサルティング合同会社,,合同会社,和歌山県,和歌山市,西庄３７８―７,,30,201,6400112,,,,,,,2024-03-18,1,,,,,ブハハコンサルティング,0
2371,8180001160652,新規,0,2024-03-18,2024-03-18,アビココ株式会社,,株式会社,愛知県,名古屋市中区,丸の内３丁目１９－１ライオンビル４階,,23,106,4600002,,,,,,,2024-03-18,1,,,,,アビココ,0
2376,8180003026496,新規,0,2024-03-18,2024-03-18,合同会社ＰＯＦ,,合同会社,愛知県,名古屋市瑞穂区,市丘町２丁目４０番地,,23,108,4670063,,,,,,,2024-03-18,1,,,,,ピーオーエフ,0
2379,8180005020547,新規,0,2024-03-18,2024-03-18,行政書士法人ＭｅｄｉＢＡＴＯ,,その他の設立登記法人,愛知県,名古屋市中村区,則武２丁目３番２号,,23,105,4530014,,,,,,,2024-03-18,1,,,,,メディバト,0
2388,8210001019671,新規,0,2024-03-18,2024-03-18,株式会社健康経営パートナーズ,,株式会社,福井県,福井市,長本町２１３番地,,18,201,9100844,,,,,,,2024-03-18,1,,,,,ケンコウケイエイパートナーズ,0
2389,8220001025867,新規,0,2024-03-18,2024-03-18,株式会社ＡＲＣＯ,,株式会社,石川県,河北郡内灘町,字千鳥台３丁目２８番地,,17,365,9200277,,,,,,,2024-03-18,1,,,,,アルコ,0
2390,8220001025875,新規,0,2024-03-18,2024-03-18,株式会社インテグラル販売,,株式会社,石川県,金沢市,二口町ハ１５番地８,,17,201,9200051,,,,,,,2024-03-18,1,,,,,インテグラルハンバイ,0
2396,8240005015747,新規,0,2024-03-18,2024-03-18,医療法人縁空仁科,,その他の設立登記法人,広島県,呉市,焼山桜ヶ丘１丁目３番６号,,34,202,7370933,,,,,,,2024-03-18,1,,,,,エンクウニカ,0
2397,8250001020568,新規,0,2024-03-18,2024-03-18,株式会社ＦＡＲＭ　ＴＯ,,株式会社,山口県,山口市,宮野上４８６番地１,,35,203,7530001,,,,,,,2024-03-18,1,,,,,ファームトゥ,0
2398,8250003003455,新規,0,2024-03-18,2024-03-18,合同会社ゆめの心々,,合同会社,山口県,山口市,下小鯖２５０７－１,,35,203,7530212,,,,,,,2024-03-18,1,,,,,ユメノココ,0
2399,8260001038840,新規,0,2024-03-18,2024-03-18,Ｙ．Ｓホールディングス株式会社,,株式会社,岡山県,玉野市,築港５丁目７番３号,,33,204,7060002,,,,,,,2024-03-18,1,,,,,ワイエスホールディングス,0
2400,8260001038849,新規,0,2024-03-18,2024-03-18,株式会社ＮＫ‐ＦＯＯＤＳ,,株式会社,岡山県,岡山市中区,四御神２６２番地１３,,33,102,7038201,,,,,,,2024-03-18,1,,,,,エヌケーフーズ,0
2401,8260001038857,新規,0,2024-03-18,2024-03-18,株式会社バトリクス,,株式会社,岡山県,岡山市南区,福成３丁目６番２２号,,33,104,7028022,,,,,,,2024-03-18,1,,,,,バトリクス,0
2403,8270001008941,新規,0,2024-03-18,2024-03-18,株式会社ワイズＨＤ,,株式会社,鳥取県,鳥取市,川端４丁目２１３番地,,31,201,6800036,,,,,,,2024-03-18,1,,,,,ワイズホールディングス,0
2409,8290001105035,新規,0,2024-03-18,2024-03-18,株式会社オプト・アーキ,,株式会社,福岡県,福岡市博多区,竹丘町２丁目４－２５みはしビル２Ｆ,,40,132,8120878,,,,,,,2024-03-18,1,,,,,オプトアーキ,0
2410,8290001105068,新規,0,2024-03-18,2024-03-18,株式会社香月,,株式会社,福岡県,筑紫野市,大字筑紫２３－１,,40,217,8180025,,,,,,,2024-03-18,1,,,,,カツキ,0
2411,8290003015059,新規,0,2024-03-18,2024-03-18,合同会社ＯＮＥ　ＵＰｒｏａｄ,,合同会社,福岡県,福岡市中央区,清川３丁目１２－１福岡リバーキャッスル２１０,,40,133,8100005,,,,,,,2024-03-18,1,,,,,ワンアップロード,0
2412,8290805009720,新規,0,2024-03-18,2024-03-18,一般社団法人遊育ひろば,,その他の設立登記法人,福岡県,北九州市門司区,高田２丁目７番３号,,40,101,8000031,,,,,,,2024-03-18,1,,,,,ユウイクヒロバ,0
2413,8300001013649,新規,0,2024-03-18,2024-03-18,ＡＺ　ＯＮＥ株式会社,,株式会社,佐賀県,佐賀市,駅前中央２丁目１－１北口ビル７－Ｃ,,41,201,8400801,,,,,,,2024-03-18,1,,,,,アズワン,0
2418,8320001020338,新規,0,2024-03-18,2024-03-18,ＹＵＧＡ株式会社,,株式会社,大分県,大分市,府内町３丁目４番２０号大分恒和ビル４階,,44,201,8700021,,,,,,,2024-03-18,1,,,,,,0
2423,8340001026374,新規,0,2024-03-18,2024-03-18,ａｂａｌｏｎａ株式会社,,株式会社,鹿児島県,鹿児島市,山之口町９番２６号和光ビル３Ｆ,,46,201,8920844,,,,,,,2024-03-18,1,,,,,アバロナ,0
2428,8350001018833,新規,0,2024-03-18,2024-03-18,株式会社健勝丸,,株式会社,宮崎県,延岡市,北浦町市振１３７５番地１,,45,203,8890302,,,,,,,2024-03-18,1,,,,,ケンショウマル,0
2429,8350001018841,新規,0,2024-03-18,2024-03-18,株式会社東和地建,,株式会社,宮崎県,延岡市,土々呂町１丁目２番地５７,,45,203,8890513,,,,,,,2024-03-18,1,,,,,トウワチケン,0
2430,8350003004591,新規,0,2024-03-18,2024-03-18,合同会社ことり,,合同会社,宮崎県,宮崎市,清武町池田台北２９番地１５５,,45,201,8891608,,,,,,,2024-03-18,1,,,,,コトリ,0
2439,8400001016583,新規,0,2024-03-18,2024-03-18,株式会社Ｍ・Ｓ・Ｔ,,株式会社,岩手県,北上市,和賀町藤根１８地割１４番地,,03,206,0240334,,,,,,,2024-03-18,1,,,,,エムエスティー,0
2440,8400003003225,新規,0,2024-03-18,2024-03-18,合同会社Ｂｒａｆｕｌ　Ｍｏｒｅ,,合同会社,岩手県,花巻市,本館３丁目１９番１１号,,03,205,0250061,,,,,,,2024-03-18,1,,,,,ブレイフルモア,0
2441,8410001013753,新規,0,2024-03-18,2024-03-18,秋印青果トレーニングファーム株式会社,,株式会社,秋田県,秋田市,外旭川字待合２８番地,,05,201,0100802,,,,,,,2024-03-18,1,,,,,アキジルシセイカトレーニングファーム,0
2444,8420003002893,新規,0,2024-03-18,2024-03-18,合同会社ＥＴＥＲＮＡ,,合同会社,青森県,八戸市,大字朔日町５９番地東北興業ビル３Ｆ,,02,203,0310087,,,,,,,2024-03-18,1,,,,,エテルナ,0
2446,8430001091293,新規,0,2024-03-18,2024-03-18,株式会社Ｆｏｒｅｓｔ．Ｂ,,株式会社,北海道,札幌市東区,北二十四条東１４丁目３番２１号元町パークヴィラ１０３,,01,103,0650024,,,,,,,2024-03-18,1,,,,,フォレストドットビー,0
2447,8430001091302,新規,0,2024-03-18,2024-03-18,株式会社秋雪,,株式会社,北海道,札幌市中央区,南四条西４丁目２番地４－２階,,01,101,0640804,,,,,,,2024-03-18,1,,,,,シュウセツ,0
2448,8430001091310,新規,0,2024-03-18,2024-03-18,株式会社良和建設,,株式会社,北海道,札幌市清田区,清田十条４丁目５番１２号,,01,110,0040840,,,,,,,2024-03-18,1,,,,,リョウワケンセツ,0
2449,8430003016067,新規,0,2024-03-18,2024-03-18,合同会社Ｔｈｉｒｄ　Ａｎｓｗｅｒ,,合同会社,北海道,札幌市中央区,宮の森三条５丁目１番１号ラスタ宮の森３０５号,,01,101,0640953,,,,,,,2024-03-18,1,,,,,サードアンサー,0
2451,8480001012419,新規,0,2024-03-18,2024-03-18,株式会社まごころ,,株式会社,徳島県,板野郡藍住町,勝瑞字幸島１１７番地４,,36,403,7711271,,,,,,,2024-03-18,1,,,,,マゴコロ,0
2453,8490001010719,新規,0,2024-03-18,2024-03-18,株式会社アンジュ,,株式会社,高知県,南国市,大＿甲９８８番地,00134086,39,204,7830004,,,,,,,2024-03-18,1,,,,,アンジュ,0
2454,8490001010727,新規,0,2024-03-18,2024-03-18,株式会社ＨＡＮＡ,,株式会社,高知県,香南市,野市町上岡２５９２番地１,,39,211,7815234,,,,,,,2024-03-18,1,,,,,ハナ,0
2456,8500001025509,新規,0,2024-03-18,2024-03-18,青徳メンテナンス株式会社,,株式会社,愛媛県,新居浜市,上泉町７番２７号スカイ・ガーデンＩＩ２０２号,00134085,38,205,7920824,,,,,,,2024-03-18,1,,,,,セイトクメンテナンス,0
2457,8500001025517,新規,0,2024-03-18,2024-03-18,株式会社リライト,,株式会社,愛媛県,伊予市,尾崎６３番地１,,38,210,7993127,,,,,,,2024-03-18,1,,,,,リライト,0
2458,8500001025525,新規,0,2024-03-18,2024-03-18,株式会社ｉｎｋｓ,,株式会社,愛媛県,今治市,五十嵐甲９９番地１２,,38,202,7940861,,,,,,,2024-03-18,1,,,,,インクス,0
2466,9010001243076,新規,0,2024-03-18,2024-03-18,ＧＧＰ株式会社,,株式会社,東京都,中央区,銀座７丁目１２番４号友野本社ビル６階,,13,102,1040061,,,,,,,2024-03-18,1,,,,,ジージーピー,0
2467,9010001243092,新規,0,2024-03-18,2024-03-18,Ｇ．Ｇ．Ｅｎｅｒｇｙ株式会社,,株式会社,東京都,中央区,京橋３丁目１２番２号,,13,102,1040031,,,,,,,2024-03-18,1,,,,,ジージーエナジー,0
2468,9010001243101,新規,0,2024-03-18,2024-03-18,株式会社ＩＴＮＳ,,株式会社,東京都,千代田区,岩本町１丁目１３番５号ＴＲＵＳＴＶＡＬＵＥ岩本町２階,,13,101,1010032,,,,,,,2024-03-18,1,,,,,アイティエヌエス,0
2471,9010003043202,新規,0,2024-03-18,2024-03-18,ＲＯＹＡＬ合同会社,,合同会社,東京都,文京区,湯島３丁目４２－６,,13,105,1130034,,,,,,,2024-03-18,1,,,,,ローヤル,0
2472,9010003043219,新規,0,2024-03-18,2024-03-18,合同会社ＦＭＳ１,,合同会社,東京都,千代田区,二番町１番地２,,13,101,1020084,,,,,,,2024-03-18,1,,,,,エフエムエスワン,0
2473,9010003043235,新規,0,2024-03-18,2024-03-18,ＱｕＴｅｃｈ合同会社,,合同会社,東京都,中央区,銀座１丁目１２番４号Ｎ＆ＥＢＬＤ．６Ｆ,,13,102,1040061,,,,,,,2024-03-18,1,,,,,キューテック,0
2474,9010005038051,新規,0,2024-03-18,2024-03-18,一般社団法人トークン・スリー,,その他の設立登記法人,東京都,千代田区,霞が関３丁目２番５号,,13,101,1000013,,,,,,,2024-03-18,1,,,,,トークンスリー,0
2482,9010401181033,新規,0,2024-03-18,2024-03-18,フェニックス株式会社,,株式会社,東京都,港区,六本木１丁目９番１０号アークヒルズ仙石山森タワー２８階ベーカー＆マッケンジー法律事務所（外国法共同事業）内,,13,103,1060032,,,,,,,2024-03-18,1,,,,,フェニックス,0
2483,9010401181041,新規,0,2024-03-18,2024-03-18,株式会社ローレ東京,,株式会社,東京都,港区,六本木７丁目１９番１－１０２号,,13,103,1060032,,,,,,,2024-03-18,1,,,,,ローレトウキョウ,0
2484,9010401181058,新規,0,2024-03-18,2024-03-18,ＥＮＮＤ　ＰＡＲＴＮＥＲＳ株式会社,,株式会社,東京都,港区,赤坂５丁目３番１号,,13,103,1070052,,,,,,,2024-03-18,1,,,,,エンドパートナーズ,0
2485,9010401181074,新規,0,2024-03-18,2024-03-18,株式会社Ｐｕｂｌｉｃ　Ｓｈａｐｅｒ　Ｎｅｔｗｏｒｋｓ,,株式会社,東京都,港区,白金１丁目２番２－Ｗ１５１５号,,13,103,1080072,,,,,,,2024-03-18,1,,,,,パブリックシェイパーネットワークス,0
2488,9010403032176,新規,0,2024-03-18,2024-03-18,合同会社ＫＫＳ,,合同会社,東京都,港区,麻布狸穴町５１－１－３１５,,13,103,1060042,,,,,,,2024-03-18,1,,,,,ケーケーエス,0
2489,9010403032184,新規,0,2024-03-18,2024-03-18,ＣＲＯＳＳ　ＳＰＨＥＲＥ合同会社,,合同会社,東京都,港区,西麻布４丁目１５－２レジディア西麻布８０６,,13,103,1060031,,,,,,,2024-03-18,1,,,,,クロススフィア,0
2490,9010403032218,新規,0,2024-03-18,2024-03-18,合同会社ＵｐＳｐｉｒｅ,,合同会社,東京都,港区,南青山２丁目２番１５号,,13,103,1070062,,,,,,,2024-03-18,1,,,,,アップスパイア,0
2502,9011001160633,新規,0,2024-03-18,2024-03-18,ＴＰホールディングス株式会社,,株式会社,東京都,渋谷区,恵比寿４丁目３番１４号,,13,113,1500013,,,,,,,2024-03-18,1,,,,,ティーピーホールディングス,0
2503,9011001160666,新規,0,2024-03-18,2024-03-18,Ｔａｋａｒａ　Ｔｅｃｈ　Ｉｎｔｅｒａｃｔｉｖｅ株式会社,,株式会社,東京都,渋谷区,恵比寿４丁目３番５号７０４号室アークアウトソーシング株式会社内,,13,113,1500013,,,,,,,2024-03-18,1,,,,,タカラテックインタラクティブ,0
2504,9011003018664,新規,0,2024-03-18,2024-03-18,シードエムジャパン合同会社,,合同会社,東京都,渋谷区,神宮前２丁目１９－１２原宿ＯＨＫＩビル,,13,113,1500001,,,,,,,2024-03-18,1,,,,,シードエムジャパン,0
2505,9011003018697,新規,0,2024-03-18,2024-03-18,リブ＆カンパニー合同会社,,合同会社,東京都,渋谷区,上原２丁目３５番５－２０１号,,13,113,1510064,,,,,,,2024-03-18,1,,,,,リブアンドカンパニー,0
2506,9011003018714,新規,0,2024-03-18,2024-03-18,合同会社ｉａｉａＬ,,合同会社,東京都,渋谷区,道玄坂１丁目１０番８号渋谷道玄坂東急ビル２Ｆ－Ｃ,,13,113,1500043,,,,,,,2024-03-18,1,,,,,イアイアル,0
2507,9011005010421,新規,0,2024-03-18,2024-03-18,医療法人社団真環会,,その他の設立登記法人,東京都,渋谷区,代々木２丁目１１番１７号ラウンドクロス新宿７階,,13,113,1510053,,,,,,,2024-03-18,1,,,,,シンワカイ,0
2514,9011101106569,新規,0,2024-03-18,2024-03-18,ＡＬＯ株式会社,,株式会社,東京都,新宿区,大久保２丁目２番１２号ＶＯＲＴ東新宿１００４,,13,104,1690072,,,,,,,2024-03-18,1,,,,,アロー,0
2517,9011103014209,新規,0,2024-03-18,2024-03-18,合同会社宮誠月,,合同会社,東京都,新宿区,新宿１丁目３６－２新宿第七葉山ビル３Ｆ,,13,104,1600022,,,,,,,2024-03-18,1,,,,,グウセイゲツ,0
2519,9011201025330,新規,0,2024-03-18,2024-03-18,サンノウ設備株式会社,,株式会社,東京都,中野区,東中野１丁目３２番５号ケイズコート山手６０２,,13,114,1640003,,,,,,,2024-03-18,1,,,,,サンノウセツビ,0
2521,9011305002969,新規,0,2024-03-18,2024-03-18,一般社団法人ハートランド,,その他の設立登記法人,東京都,杉並区,高円寺南３丁目２３番１６号,,13,115,1660003,,,,,,,2024-03-18,1,,,,,ハートランド,0
2524,9011703003775,新規,0,2024-03-18,2024-03-18,合同会社ＡＴＧ‐Ｊａｐａｎ,,合同会社,東京都,江戸川区,中葛西５丁目４１－１０ＢＰＲプレイス葛西６階,,13,123,1340083,,,,,,,2024-03-18,1,,,,,エーティージージャパン,0
2525,9011801043921,新規,0,2024-03-18,2024-03-18,株式会社中本,,株式会社,東京都,足立区,綾瀬１丁目４番７号,,13,121,1200005,,,,,,,2024-03-18,1,,,,,ナカモト,0
2526,9011801043938,新規,0,2024-03-18,2024-03-18,株式会社テイオーフォース,,株式会社,東京都,足立区,伊興２丁目１０番９号シャレー伊興Ａ－６,,13,121,1210823,,,,,,,2024-03-18,1,,,,,テイオーフォース,0
2534,9012801023038,新規,0,2024-03-18,2024-03-18,株式会社ＡＬＬ　ＩＮ,,株式会社,東京都,立川市,曙町３丁目７番１４号曙マンション１００６号,,13,202,1900012,,,,,,,2024-03-18,1,,,,,オールイン,0
2535,9013103001319,新規,0,2024-03-18,2024-03-18,リーデントガーデン合同会社,,合同会社,東京都,西多摩郡檜原村,１５２７,,13,307,1900200,,,,,,,2024-03-18,1,,,,,,0
2541,9020001156236,新規,0,2024-03-18,2024-03-18,明解教育株式会社,,株式会社,神奈川県,川崎市川崎区,日進町２７番地１８朝日サンライズ川崎４１３,,14,131,2100024,,,,,,,2024-03-18,1,,,,,メイカイキョウイク,0
2542,9020001156252,新規,0,2024-03-18,2024-03-18,日信ホールディングス株式会社,,株式会社,神奈川県,川崎市川崎区,大師河原１丁目３番５号,,14,131,2100811,,,,,,,2024-03-18,1,,,,,ニッシンホールディングス,0
2546,9020003025728,新規,0,2024-03-18,2024-03-18,合同会社朝比奈緑化,,合同会社,神奈川県,横浜市緑区,台村町１８６,,14,113,2260014,,,,,,,2024-03-18,1,,,,,アサヒナリョッカ,0
2547,9020003025736,新規,0,2024-03-18,2024-03-18,合同会社ＭＤＹ,,合同会社,神奈川県,横浜市神奈川区,羽沢町１８０３番地,,14,102,2210863,,,,,,,2024-03-18,1,,,,,エムディーワイ,0
2550,9021001081713,新規,0,2024-03-18,2024-03-18,株式会社グロース,,株式会社,神奈川県,厚木市,温水西１丁目５番１５号エテルノ１０１,,14,212,2430039,,,,,,,2024-03-18,1,,,,,グロース,0
2551,9021001081721,新規,0,2024-03-18,2024-03-18,株式会社たむたむ,,株式会社,神奈川県,相模原市中央区,矢部３丁目１７番１５号グウィンディ２０１,,14,152,2520232,,,,,,,2024-03-18,1,,,,,タムタム,0
2552,9021003014258,新規,0,2024-03-18,2024-03-18,Ｅｌｙｓｉｕｍ　Ｌｕｘｅ　Ｃａｐｉｔａｌ合同会社,,合同会社,神奈川県,南足柄市,関本３０８番地１,,14,217,2500105,,,,,,,2024-03-18,1,,,,,エリシウムリュクスキャピタル,0
2553,9021003014266,新規,0,2024-03-18,2024-03-18,合同会社慈誠会湘南,,合同会社,神奈川県,平塚市,宮松町１２番１８－３３６号ローレルスクエア湘南平塚,,14,203,2540036,,,,,,,2024-03-18,1,,,,,ジセイカイショウナン,0
2554,9021005013043,新規,0,2024-03-18,2024-03-18,医療法人あだち内科クリニック,,その他の設立登記法人,神奈川県,相模原市中央区,淵野辺本町２丁目５番１５号１階,,14,152,2520202,,,,,,,2024-03-18,1,,,,,アダチナイカクリニック,0
2564,9030001159238,新規,0,2024-03-18,2024-03-18,株式会社ＺＫホールディングス,,株式会社,埼玉県,さいたま市大宮区,桜木町２丁目３３７番地１,,11,103,3300854,,,,,,,2024-03-18,1,,,,,ゼンコーホールディングス,0
2574,9040001132648,新規,0,2024-03-18,2024-03-18,株式会社ＡＱＵＡクラフト,,株式会社,千葉県,印旛郡栄町,安食台４丁目３３番７号,,12,329,2701515,,,,,,,2024-03-18,1,,,,,アクアクラフト,0
2575,9040001132664,新規,0,2024-03-18,2024-03-18,照商事株式会社,,株式会社,千葉県,市川市,南八幡１丁目２１番１７号,,12,203,2720023,,,,,,,2024-03-18,1,,,,,テルショウジ,0
2576,9040001132706,新規,0,2024-03-18,2024-03-18,株式会社長栄,,株式会社,千葉県,八千代市,神久保７０番地１,,12,221,2760008,,,,,,,2024-03-18,1,,,,,チョウエイ,0
2583,9040005022317,新規,0,2024-03-18,2024-03-18,一般社団法人Ｖｏｉｄ,,その他の設立登記法人,千葉県,市川市,南八幡１丁目２２番３号ＴＹビル２階,,12,203,2720023,,,,,,,2024-03-18,1,,,,,ヴォイド,0
2588,9050001054453,新規,0,2024-03-18,2024-03-18,株式会社ベスト・スマイル,,株式会社,茨城県,筑西市,上平塚５９３番地１,,08,227,3080067,,,,,,,2024-03-18,1,,,,,ベストスマイル,0
2591,9060001036921,新規,0,2024-03-18,2024-03-18,株式会社Ｓａｋｕｒａｉ　Ｊａｐａｎ,,株式会社,栃木県,足利市,福居町１９７０番地１４,,09,202,3260338,,,,,,,2024-03-18,1,,,,,サクライジャパン,0
2593,9060003004959,新規,0,2024-03-18,2024-03-18,合同会社正合,,合同会社,栃木県,日光市,本町７番３５号,,09,206,3211434,,,,,,,2024-03-18,1,,,,,ショウゴウ,0
2594,9070001041490,新規,0,2024-03-18,2024-03-18,ＡＳＬＡＭ　ＴＲＡＤＩＮＧ株式会社,,株式会社,群馬県,太田市,飯田町１９１番地２大沢荘１１号,,10,205,3730851,,,,,,,2024-03-18,1,,,,,アスラムトレーディング,0
2602,9080401027056,新規,0,2024-03-18,2024-03-18,株式会社ＮＯＧＡ　Ｗｉｎｄｏｗｓ　Ｐａｒｔｎｅｒ,,株式会社,静岡県,浜松市中央区,有玉南町２２０５番地の１,,22,138,4313122,,,,,,,2024-03-18,1,,,,,ノガウインドウズパートナー,0
2603,9080401027064,新規,0,2024-03-18,2024-03-18,株式会社ｂｒｆ,,株式会社,静岡県,磐田市,見付２９１８番地１,,22,211,4380086,,,,,,,2024-03-18,1,,,,,ビーアールエフ,0
2604,9090001018603,新規,0,2024-03-18,2024-03-18,シム株式会社,,株式会社,山梨県,甲府市,千塚５丁目１４－１８－２号,00134103,19,201,4000074,,,,,,,2024-03-18,1,,,,,シム,0
2608,9110003005324,新規,0,2024-03-18,2024-03-18,ＵＵ紺合同会社,,合同会社,新潟県,上越市,大字稲荷９６１番地１,,15,222,9430874,,,,,,,2024-03-18,1,,,,,ユニコーン,0
2622,9120001263170,新規,0,2024-03-18,2024-03-18,株式会社エスプロ,,株式会社,大阪府,大阪市北区,中崎３丁目４番２２－１００５号,,27,127,5300016,,,,,,,2024-03-18,1,,,,,エスプロ,0
2623,9120001263179,新規,0,2024-03-18,2024-03-18,Ｗａｔｔ株式会社,,株式会社,大阪府,大阪市西区,立売堀１丁目４番１２号立売堀スクエア７階,,27,106,5500012,,,,,,,2024-03-18,1,,,,,ワット,0
2624,9120001263229,新規,0,2024-03-18,2024-03-18,ＪＳＥ株式会社,,株式会社,大阪府,守口市,南寺方東通４丁目１１番１２号,,27,209,5700043,,,,,,,2024-03-18,1,,,,,ジェイエスイー,0
2625,9120001263237,新規,0,2024-03-18,2024-03-18,株式会社リコレ,,株式会社,大阪府,大阪市北区,天神西町５番１７号,,27,127,5300045,,,,,,,2024-03-18,1,,,,,オオサカケミカル,0
2626,9120001263336,新規,0,2024-03-18,2024-03-18,株式会社ティー・プラス,,株式会社,大阪府,大阪市中央区,南船場４丁目１０番５号,,27,128,5420081,,,,,,,2024-03-18,1,,,,,ティープラス,0
2627,9120003026146,新規,0,2024-03-18,2024-03-18,ハイステークス合同会社,,合同会社,大阪府,大阪市天王寺区,大道３丁目５番１５‐２０４号,,27,109,5430052,,,,,,,2024-03-18,1,,,,,ハイステークス,0
2628,9120003026162,新規,0,2024-03-18,2024-03-18,合同会社シャーク,,合同会社,大阪府,大阪市西区,新町１丁目１０番９－８０５号,,27,106,5500013,,,,,,,2024-03-18,1,,,,,シャーク,0
2630,9120101069220,新規,0,2024-03-18,2024-03-18,株式会社優和住宅,,株式会社,大阪府,堺市中区,東八田１１２番地４,,27,142,5998275,,,,,,,2024-03-18,1,,,,,ユウワジュウタク,0
2631,9120101069237,新規,0,2024-03-18,2024-03-18,グリーンテックホーム株式会社,,株式会社,大阪府,富田林市,富田林町９番８号,,27,214,5840033,,,,,,,2024-03-18,1,,,,,グリーンテックホーム,0
2632,9120101069253,新規,0,2024-03-18,2024-03-18,株式会社エスポアガーデン,,株式会社,大阪府,岸和田市,摩湯町１１４１番地の３,,27,202,5960806,,,,,,,2024-03-18,1,,,,,エスポアガーデン,0
2633,9120103005735,新規,0,2024-03-18,2024-03-18,合同会社Ａｌｂａｔｒｏｓｓ,,合同会社,大阪府,堺市北区,大豆塚町２丁１０２番地７,,27,146,5918042,,,,,,,2024-03-18,1,,,,,アルバトロス,0
2637,9120901048893,新規,0,2024-03-18,2024-03-18,株式会社ＨＭＤ,,株式会社,大阪府,摂津市,浜町１１番１５号,,27,224,5660047,,,,,,,2024-03-18,1,,,,,エイチエムディー,0
2638,9120901048902,新規,0,2024-03-18,2024-03-18,Ｊパートナー株式会社,,株式会社,大阪府,高槻市,東天川１丁目５番１号,,27,207,5690012,,,,,,,2024-03-18,1,,,,,ジェイパートナー,0
2647,9130001076555,新規,0,2024-03-18,2024-03-18,株式会社Ｃｒａｄｌｅ,,株式会社,京都府,京都市中京区,本能寺町１１１イツキビル３０１,,26,104,6048243,,,,,,,2024-03-18,1,,,,,クレイドル,0
2648,9130001076571,新規,0,2024-03-18,2024-03-18,株式会社Ｄ．Ｙ．Ｃ．,,株式会社,京都府,京都市中京区,壬生高樋町６０番地８０,,26,104,6048824,,,,,,,2024-03-18,1,,,,,ディーワイシー,0
2651,9140001133677,新規,0,2024-03-18,2024-03-18,株式会社Ｆｏｏｄ　ＡＩ　Ｌａｂ,,株式会社,兵庫県,神戸市北区,藤原台北町５丁目２番１０－１２０２号,,28,109,6511301,,,,,,,2024-03-18,1,,,,,フードエーアイラボ,0
2652,9140001133685,新規,0,2024-03-18,2024-03-18,ＹＮ　Ｇｌａｓｓ株式会社,,株式会社,兵庫県,神戸市須磨区,磯馴町２丁目３番１７号,,28,107,6540047,,,,,,,2024-03-18,1,,,,,ワイエヌガラス,0
2653,9140001133693,新規,0,2024-03-18,2024-03-18,株式会社ｉｍａｔｏａ,,株式会社,兵庫県,尼崎市,武庫之荘７丁目３１番４号,,28,202,6610035,,,,,,,2024-03-18,1,,,,,イマトア,0
2654,9140001133702,新規,0,2024-03-18,2024-03-18,株式会社別館,,株式会社,兵庫県,神戸市灘区,水道筋６丁目１番３号,,28,102,6570831,,,,,,,2024-03-18,1,,,,,ベッカン,0
2656,9140003020304,新規,0,2024-03-18,2024-03-18,合同会社ＳＥＧ,,合同会社,兵庫県,宝塚市,逆瀬台１丁目８番Ｃ－３０１号,,28,214,6650024,,,,,,,2024-03-18,1,,,,,エスイージー,0
2657,9140005026976,新規,0,2024-03-18,2024-03-18,特定非営利活動法人就労準備支援協会,,その他の設立登記法人,兵庫県,豊岡市,泉町２０番３号,,28,209,6680021,,,,,,,2024-03-18,1,,,,,シュウロウジュンビシエンキョウカイ,0
2660,9160001025757,新規,0,2024-03-18,2024-03-18,株式会社オフィスＮ・Ｋ,,株式会社,滋賀県,大津市,山上町２０番１－２１１号,,25,201,5200038,,,,,,,2024-03-18,1,,,,,オフィスエヌケイ,0
2662,9170001018058,新規,0,2024-03-18,2024-03-18,株式会社イーノベース,,株式会社,和歌山県,和歌山市,吹屋町２丁目２２番地,,30,201,6408324,,,,,,,2024-03-18,1,,,,,イーノベース,0
2675,9180005020546,新規,0,2024-03-18,2024-03-18,医療法人優路会,,その他の設立登記法人,愛知県,名古屋市名東区,藤見が丘２５番地２Ｂ＆Ｄ藤が丘メディカルステーション３階,,23,115,4650048,,,,,,,2024-03-18,1,,,,,ユウロカイ,0
2680,9200001042252,新規,0,2024-03-18,2024-03-18,株式会社あららぎ,,株式会社,岐阜県,土岐市,妻木町１０８０番地の３,,21,212,5095301,,,,,,,2024-03-18,1,,,,,アララギ,0
2681,9200001042260,新規,0,2024-03-18,2024-03-18,株式会社ちとせリアルティコンサルティング,,株式会社,岐阜県,本巣郡北方町,栄町１丁目１番地,,21,421,5010427,,,,,,,2024-03-18,1,,,,,チトセリアルティコンサルティング,0
2682,9200001042269,新規,0,2024-03-18,2024-03-18,株式会社クラッシィエステート,,株式会社,岐阜県,瑞穂市,穂積１４６９番地５,,21,216,5010223,,,,,,,2024-03-18,1,,,,,クラッシィエステート,0
2683,9200001042277,新規,0,2024-03-18,2024-03-18,株式会社ＳＴＡＹＧＯＬＤ,,株式会社,岐阜県,多治見市,笠原町２４５５番地の７１７,,21,204,5070901,,,,,,,2024-03-18,1,,,,,ステイゴールド,0
2684,9200001042285,新規,0,2024-03-18,2024-03-18,ＫＭＳ株式会社,,株式会社,岐阜県,揖斐郡揖斐川町,谷汲徳積１７６２番地１,,21,401,5011311,,,,,,,2024-03-18,1,,,,,ケイエムエス,0
2686,9200003006263,新規,0,2024-03-18,2024-03-18,合同会社ｍｕ．,,合同会社,岐阜県,岐阜市,金町６丁目２１岐阜ステーションビル３０４,,21,201,5008842,,,,,,,2024-03-18,1,,,,,ミュードット,0
2690,9210003001767,新規,0,2024-03-18,2024-03-18,つぬがじびえ合同会社,,合同会社,福井県,敦賀市,古田刈６９号８１５番地グリーンコート２０１号,,18,202,9140045,,,,,,,2024-03-18,1,,,,,ツヌガジビエ,0
2691,9210005010139,新規,0,2024-03-18,2024-03-18,一般社団法人福インクル,,その他の設立登記法人,福井県,あわら市,中浜一丁目１番地,,18,208,9104144,,,,,,,2024-03-18,1,,,,,フクインクル,0
2692,9220001025866,新規,0,2024-03-18,2024-03-18,エクシード株式会社,,株式会社,石川県,金沢市,金石北４丁目６番３号,,17,201,9200338,,,,,,,2024-03-18,1,,,,,エクシード,0
2696,9230005009369,新規,0,2024-03-18,2024-03-18,一般社団法人はんどくさん,,その他の設立登記法人,富山県,南砺市,山斐１５０番地,,16,210,9320212,,,,,,,2024-03-18,1,,,,,ハンドクサン,0
2700,9240001062924,新規,0,2024-03-18,2024-03-18,広川商事株式会社,,株式会社,広島県,安芸高田市,向原町戸島１０３８５番地,,34,214,7391202,,,,,,,2024-03-18,1,,,,,ヒロカワショウジ,0
2703,9240005015746,新規,0,2024-03-18,2024-03-18,一般社団法人総合電力保安協会,,その他の設立登記法人,広島県,広島市東区,馬木３丁目７－１１,,34,102,7320031,,,,,,,2024-03-18,1,,,,,ソウゴウデンリョクホアンキョウカイ,0
2704,9250001020559,新規,0,2024-03-18,2024-03-18,株式会社碧,,株式会社,山口県,山口市,湯田温泉１丁目１１番３３号,,35,203,7530056,,,,,,,2024-03-18,1,,,,,アオ,0
2706,9260001038831,新規,0,2024-03-18,2024-03-18,株式会社かえで,,株式会社,岡山県,津山市,院庄８８２番地,,33,203,7080014,,,,,,,2024-03-18,1,,,,,カエデ,0
2707,9260001038848,新規,0,2024-03-18,2024-03-18,株式会社豊力,,株式会社,岡山県,倉敷市,連島中央４丁目１０番２１号,,33,202,7128014,,,,,,,2024-03-18,1,,,,,ホウリキ,0
2708,9260001038856,新規,0,2024-03-18,2024-03-18,おうち家ファーム株式会社,,株式会社,岡山県,加賀郡吉備中央町,吉川７５２２番地７０,,33,681,7161241,,,,,,,2024-03-18,1,,,,,オウチヤファーム,0
2709,9260001038864,新規,0,2024-03-18,2024-03-18,株式会社エスクリエイションズ,,株式会社,岡山県,岡山市東区,西大寺射越３３９番地１フェコラ１０１号,,33,103,7048121,,,,,,,2024-03-18,1,,,,,エスクリエイションズ,0
2713,9290001104977,新規,0,2024-03-18,2024-03-18,株式会社ｓｅａ,,株式会社,福岡県,飯塚市,若菜５２番地１,,40,205,8200082,,,,,,,2024-03-18,1,,,,,シー,0
2714,9290001105067,新規,0,2024-03-18,2024-03-18,テイクス株式会社,,株式会社,福岡県,福岡市博多区,中呉服町５番８号,,40,132,8120035,,,,,,,2024-03-18,1,,,,,テイクス,0
2715,9290001105075,新規,0,2024-03-18,2024-03-18,Ｂｅａｕｔｉｆｕｌ　Ｎｏｗ株式会社,,株式会社,福岡県,福岡市中央区,白金２丁目４番２８号,,40,133,8100012,,,,,,,2024-03-18,1,,,,,ビューティフルナウ,0
2717,9290003015058,新規,0,2024-03-18,2024-03-18,合同会社Ｓｋｙ,,合同会社,福岡県,福岡市城南区,長尾１丁目１６番２０号長尾ビル２０８号,,40,136,8140123,,,,,,,2024-03-18,1,,,,,スカイ,0
2718,9290005019321,新規,0,2024-03-18,2024-03-18,一般社団法人手技医療共済会,,その他の設立登記法人,福岡県,福岡市博多区,博多駅南４丁目３番３号,,40,132,8120016,,,,,,,2024-03-18,1,,,,,シュギイリョウキョウサイカイ,0
2722,9290803004648,新規,0,2024-03-18,2024-03-18,合同会社浜町商事,,合同会社,福岡県,北九州市八幡西区,永犬丸西町３丁目１－２Ａ－３０１,,40,109,8070852,,,,,,,2024-03-18,1,,,,,ハママチショウジ,0
2723,9300001013648,新規,0,2024-03-18,2024-03-18,水崎ホームデザイン株式会社,00134092,株式会社,佐賀県,佐賀市,嘉瀬町大字十五７２８番地,,41,201,8400863,,,,,,,2024-03-18,1,,,,,ミズサキホームデザイン,0
2727,9320003004313,新規,0,2024-03-18,2024-03-18,合同会社繋ぐ,,合同会社,大分県,由布市,挾間町向原１１９４番地３,,44,213,8795502,,,,,,,2024-03-18,1,,,,,ツナグ,0
2732,9340001026365,新規,0,2024-03-18,2024-03-18,株式会社トラスト,,株式会社,鹿児島県,鹿児島市,新屋敷町１２番３号,,46,201,8920838,,,,,,,2024-03-18,1,,,,,トラスト,0
2733,9340001026381,新規,0,2024-03-18,2024-03-18,Ｇｒｏｗ　Ｌｅａｆ株式会社,,株式会社,鹿児島県,鹿児島市,吉野町４１０５番地１,,46,201,8920871,,,,,,,2024-03-18,1,,,,,グロウリーフ,0
2734,9340003004402,新規,0,2024-03-18,2024-03-18,合同会社Ｋｕｒｕｍｉｒａｉ,,合同会社,鹿児島県,鹿児島郡三島村,大字竹島２番地,,46,303,8900903,,,,,,,2024-03-18,1,,,,,クルミライ,0
2737,9360005006989,新規,0,2024-03-18,2024-03-18,一般社団法人ｍｉｎｐｉ,,その他の設立登記法人,沖縄県,糸満市,字兼城４８３番地,,47,210,9010303,,,,,,,2024-03-18,1,,,,,ミンピ,0
2751,9400001016590,新規,0,2024-03-18,2024-03-18,株式会社ＡＬＬ‐ＩＮ,,株式会社,岩手県,久慈市,新中の橋第４地割１５番地１,,03,207,0280023,,,,,,,2024-03-18,1,,,,,オールイン,0
2752,9400003003224,新規,0,2024-03-18,2024-03-18,合同会社ノーブル,,合同会社,岩手県,盛岡市,青山１丁目６番２号,,03,201,0200133,,,,,,,2024-03-18,1,,,,,ノーブル,0
2756,9430001091292,新規,0,2024-03-18,2024-03-18,株式会社ライフクリエイト,,株式会社,北海道,札幌市中央区,北二条西１３丁目１－１０札幌第一会計ビル,,01,101,0600002,,,,,,,2024-03-18,1,,,,,ライフクリエイト,0
2757,9430001091301,新規,0,2024-03-18,2024-03-18,株式会社Ｓｙｕ　Ｏｎｅ,,株式会社,北海道,札幌市中央区,南四条西４丁目２番地４－２階,,01,101,0640804,,,,,,,2024-03-18,1,,,,,シュワン,0
2759,9430003016066,新規,0,2024-03-18,2024-03-18,合同会社イーソル,,合同会社,北海道,恵庭市,恵み野西４丁目１２番１号,,01,231,0611373,,,,,,,2024-03-18,1,,,,,イーソル,0
2760,9430003016074,新規,0,2024-03-18,2024-03-18,合同会社デジテック,,合同会社,北海道,札幌市白石区,北郷五条１０丁目６番１３号,,01,104,0030835,,,,,,,2024-03-18,1,,,,,デジテック,0
2764,9450003002452,新規,0,2024-03-18,2024-03-18,合同会社エクセルシオール,,合同会社,北海道,旭川市,一条通１４丁目３４９番地,,01,204,0700031,,,,,,,2024-03-18,1,,,,,エクセルシオール,0
2767,9480001012418,新規,0,2024-03-18,2024-03-18,株式会社ＫＵＲＯＮＥＫＯ　Ｐｒｏ,,株式会社,徳島県,小松島市,新居見町字高内１２番地,,36,203,7730011,,,,,,,2024-03-18,1,,,,,クロネコプロ,0
