sequenceNumber,corporateNumber,process,correct,updateDate,changeDate,name,nameImageId,kind,prefectureName,cityName,streetNumber,addressImageId,prefectureCode,cityCode,postCode,addressOutside,addressOutsideImageId,closeDate,closeCause,successorCorporateNumber,changeCause,assignmentDate,latest,enName,enPrefectureName,enCityName,enAddressOutside,furigana,hihyoji
5,1010001097629,登記記録の閉鎖等,0,2021-07-29,2021-07-16,株式会社アンティークモール銀座,,株式会社,東京都,中央区,銀座１丁目１５番１３－１１０４号,,13,102,1040061,,,2021-07-16,清算の結了等,,,2015-10-05,1,,,,,アンティークモールギンザ,0
33,1010701004693,登記記録の閉鎖等,0,2021-07-29,2021-07-20,株式会社ショー・コーポレーション,,株式会社,東京都,品川区,東大井５丁目２６番２２号,,13,109,1400011,,,2021-07-20,清算の結了等,,,2015-10-05,1,,,,,ショーコーポレーション,0
48,1010901047625,登記記録の閉鎖等,0,2021-07-29,2021-07-27,株式会社オレンジアンドカンパニー,,株式会社,東京都,世田谷区,奥沢８丁目９番３号,,13,112,1580083,,,2021-07-27,合併による解散等,2010001003387,令和３年７月１日東京都文京区湯島三丁目３１番３号株式会社ジェイメック（2010001003387）に合併し解散,2020-12-16,1,,,,,オレンジアンドカンパニー,0
61,1011101011272,登記記録の閉鎖等,0,2021-07-29,2021-07-14,ゼネラル・コミユニケーション・サービス株式会社,,株式会社,東京都,新宿区,新宿３丁目１２番４号新宿永谷タウンプラザ,,13,104,1600022,,,2021-07-14,清算の結了等,,,2015-10-05,1,,,,,,0
78,1012401012737,登記記録の閉鎖等,0,2021-07-29,2021-07-20,株式会社ダフィニージャパン,,株式会社,東京都,三鷹市,下連雀１丁目２０番１３号,,13,204,1810013,,,2021-07-20,清算の結了等,,,2015-10-05,1,,,,,ダフィニージャパン,0
88,1013302004658,登記記録の閉鎖等,0,2021-07-29,2021-07-20,有限会社シンセイビル管理,,有限会社,東京都,豊島区,池袋本町１丁目４５番９号,,13,116,1700011,,,2021-07-20,清算の結了等,,,2015-10-05,1,,,,,シンセイビルカンリ,0
95,1020001044167,登記記録の閉鎖等,0,2021-07-29,2021-07-15,三光興業株式会社,,株式会社,神奈川県,横浜市南区,井土ケ谷下町４１番地１０,,14,105,2320053,,,2021-07-15,清算の結了等,,,2015-10-05,1,,,,,サンコウコウギョウ,0
104,1020002021116,登記記録の閉鎖等,0,2021-07-29,2021-07-15,有限会社黒崎技研工業,,有限会社,神奈川県,横浜市旭区,今宿南町１８６３番地,,14,112,2410034,,,2021-07-15,清算の結了等,,,2015-10-05,1,,,,,クロサキギケンコウギョウ,0
128,1070002025129,登記記録の閉鎖等,0,2021-07-29,2021-07-26,有限会社ワイストン商工,,有限会社,群馬県,桐生市,境野町２丁目６８４番地２,,10,203,3760002,,,2021-07-26,清算の結了等,,,2015-10-05,1,,,,,ワイストンショウコウ,0
130,1070005002694,登記記録の閉鎖等,0,2021-07-29,2021-07-26,医療法人小児科ひまわりクリニック,,その他の設立登記法人,群馬県,高崎市,南大類町９５５番地２,,10,202,3700036,,,2021-07-26,清算の結了等,,,2015-10-05,1,,,,,ショウニカヒマワリクリニック,0
141,1100002003007,登記記録の閉鎖等,0,2021-07-29,2021-07-26,有限会社田尻フレッシュ青果,,有限会社,長野県,長野市,若穂綿内８６９１番地２,,20,201,3810101,,,2021-07-26,清算の結了等,,,2015-10-05,1,,,,,タジリフレッシュセイカ,0
198,1170001014097,登記記録の閉鎖等,0,2021-07-29,2021-07-27,株式会社Ｍ＆Ｓ保険事務所,,株式会社,和歌山県,和歌山市,木枕１８０番地３,,30,201,6400301,,,2021-07-27,清算の結了等,,,2016-01-14,1,,,,,エムアンドエスホケンジムショ,0
203,1180001141196,登記記録の閉鎖等,0,2021-07-29,2021-07-21,株式会社シン・ワークス,,株式会社,愛知県,東海市,中央町６丁目１３１番地コーポ番水２０１号,,23,222,4760013,,,2021-07-21,清算の結了等,,,2020-05-19,1,,,,,シンワークス,0
206,1180003015183,登記記録の閉鎖等,0,2021-07-29,2021-07-20,合同会社グッドサイクルファーマシー,,合同会社,愛知県,名古屋市中村区,中村町５丁目４５番地の４,,23,105,4530053,,,2021-07-20,清算の結了等,,,2015-10-05,1,,,,,グッドサイクルファーマシー,0
207,1180003020019,登記記録の閉鎖等,0,2021-07-29,2021-07-26,合同会社ｚｏｏ,,合同会社,愛知県,名古屋市天白区,原１丁目１２０９番地,,23,116,4680015,,,2021-07-26,清算の結了等,,,2019-05-27,1,,,,,ズー,0
211,1180302013318,登記記録の閉鎖等,0,2021-07-29,2021-07-26,大真建設有限会社,,有限会社,愛知県,豊川市,金塚町１丁目５６番地,,23,207,4420872,,,2021-07-26,清算の結了等,,,2015-10-05,1,,,,,ダイシンケンセツ,0
212,1180302025156,登記記録の閉鎖等,0,2021-07-29,2021-07-27,有限会社イツ・ヴィーナス,,有限会社,愛知県,豊田市,上原町西山６５２番地１２,,23,211,4700341,,,2021-07-27,清算の結了等,,,2015-10-05,1,,,,,イツヴィーナス,0
214,1190001025183,登記記録の閉鎖等,0,2021-07-29,2021-07-26,株式会社シーゴッド,,株式会社,三重県,名張市,桔梗が丘５番町２街区１番地,,24,208,5180625,,,2021-07-26,清算の結了等,,,2017-12-22,1,,,,,シーゴッド,0
218,1200002008945,登記記録の閉鎖等,0,2021-07-29,2021-07-27,有限会社浦也組,,有限会社,岐阜県,羽島市,上中町沖１９８７番地,,21,209,5016318,,,2021-07-27,清算の結了等,,,2015-10-05,1,,,,,,0
226,1240001044161,登記記録の閉鎖等,0,2021-07-29,2021-07-12,株式会社カービューティサロン,,株式会社,広島県,広島市安佐北区,安佐町大字小河内７２４番地,,34,106,7311171,,,2021-07-12,清算の結了等,,,2015-10-05,1,,,,,カービューティサロン,0
262,1370402001467,登記記録の閉鎖等,0,2021-07-29,2021-07-12,有限会社岩渕建材,,有限会社,宮城県,登米市,石越町南郷字鬼の目７番地の２,,04,212,9894703,,,2021-07-12,清算の結了等,,,2015-10-05,1,,,,,イワブチケンザイ,0
263,1370403000138,登記記録の閉鎖等,0,2021-07-29,2021-07-07,合同会社グリーンエステート,,合同会社,宮城県,登米市,中田町浅水字新田５６番地１,,04,212,9870611,,,2021-07-07,清算の結了等,,,2015-10-05,1,,,,,グリーンエステート,0
272,1380005010369,登記記録の閉鎖等,0,2021-07-29,2021-07-16,公益財団法人岩山育英会,,その他の設立登記法人,福島県,郡山市,駅前２丁目１０番１３号,,07,203,9638002,,,2021-07-16,清算の結了等,,,2015-10-05,1,,,,,,0
282,1410005003591,登記記録の閉鎖等,0,2021-07-29,2021-07-16,特定非営利活動法人ひととくらしとまち大館ネットワーク,,その他の設立登記法人,秋田県,大館市,御成町２丁目１５番２２号,,05,204,0170044,,,2021-07-16,清算の結了等,,,2015-10-05,1,,,,,ヒトトクラシトマチオオダテネットワーク,0
285,1430001037765,登記記録の閉鎖等,0,2021-07-29,2021-07-13,鈴木塗装店株式会社,,株式会社,北海道,北広島市,西の里東３丁目４番地４,,01,234,0611105,,,2021-07-13,清算の結了等,,,2015-10-05,1,,,,,スズキトソウテン,0
292,1440002007989,登記記録の閉鎖等,0,2021-07-29,2021-07-21,有限会社マナーハウス,,有限会社,北海道,北斗市,本町４５番地２,,01,236,0411201,,,2021-07-21,清算の結了等,,,2015-10-05,1,,,,,マナーハウス,0
360,2011502004691,登記記録の閉鎖等,0,2021-07-29,2021-07-26,有限会社はせがわ,,有限会社,東京都,北区,王子３丁目２番１２号,,13,117,1140002,,,2021-07-26,清算の結了等,,,2015-10-05,1,,,,,,0
365,2012402000244,登記記録の閉鎖等,0,2021-07-29,2021-07-21,有限会社石井商店菊の園,,有限会社,東京都,府中市,栄町２丁目２３番地１,,13,206,1830051,,,2021-07-21,清算の結了等,,,2015-10-05,1,,,,,イシイショウテンキクノエン,0
399,2040001032359,登記記録の閉鎖等,0,2021-07-29,2021-07-16,株式会社エス・クー,,株式会社,千葉県,市川市,曽谷４丁目７番１号,,12,203,2720832,,,2021-07-16,清算の結了等,,,2015-10-05,1,,,,,エスクー,0
405,2040002011386,登記記録の閉鎖等,0,2021-07-29,2021-07-19,有限会社三穂工業,,有限会社,千葉県,千葉市若葉区,桜木北２丁目４番１号,,12,104,2640029,,,2021-07-19,清算の結了等,,,2015-10-05,1,,,,,ミホコウギョウ,0
430,2080402018746,登記記録の閉鎖等,0,2021-07-29,2021-07-27,有限会社プリコ,,有限会社,静岡県,菊川市,下内田３４１８番地の１,,22,224,4390034,,,2021-07-27,清算の結了等,,,2015-10-05,1,,,,,プリコ,0
431,2080403003499,登記記録の閉鎖等,0,2021-07-29,2021-07-26,合同会社スイート＆グレイス,,合同会社,静岡県,掛川市,長谷１丁目３１番地の２Ｗｏｎｄｅｒ－Ｓｉｔｅ１０１,,22,213,4360047,,,2021-07-26,清算の結了等,,,2017-08-07,1,,,,,スイートアンドグレイス,0
432,2080403003557,登記記録の閉鎖等,0,2021-07-29,2021-07-26,合同会社ユウキ,,合同会社,静岡県,磐田市,豊浜中野３１０番地３,,22,211,4371201,,,2021-07-26,清算の結了等,,,2017-11-09,1,,,,,ユウキ,0
486,2140001110955,登記記録の閉鎖等,0,2021-07-29,2021-07-19,株式会社ＴＳＥ,,株式会社,兵庫県,相生市,旭２丁目５番４号,,28,208,6780031,,,2021-07-19,清算の結了等,,,2018-08-10,1,,,,,ティーエスイー,0
491,2140003008280,登記記録の閉鎖等,0,2021-07-29,2021-07-20,合名会社Ｍ・Ｉ・Ｔ,,合名会社,兵庫県,宝塚市,谷口町１番５－４０５号,,28,214,6650076,,,2021-07-20,清算の結了等,,,2015-10-05,1,,,,,エムアイティ,0
492,2140003015500,登記記録の閉鎖等,0,2021-07-29,2021-07-15,合同会社Ｋｅｉ,,合同会社,兵庫県,姫路市,町坪南町１番地サンエクレール２０１号,,28,201,6700989,,,2021-07-15,清算の結了等,,,2020-10-14,1,,,,,ケイ,0
507,2180301005950,登記記録の閉鎖等,0,2021-07-29,2021-07-28,株式会社スズシン,,株式会社,愛知県,豊橋市,飯村南１丁目１０番地の６,,23,201,4400835,,,2021-07-28,清算の結了等,,,2015-10-05,1,,,,,スズシン,0
509,2180301010934,登記記録の閉鎖等,0,2021-07-29,2021-07-21,がましんビジネスサービス株式会社,,株式会社,愛知県,蒲郡市,神明町４番２５号,,23,214,4430056,,,2021-07-21,清算の結了等,,,2015-10-05,1,,,,,,0
511,2190001014078,登記記録の閉鎖等,0,2021-07-29,2021-07-27,株式会社フレスコ,,株式会社,三重県,伊勢市,御薗町上條１１７１番地２１,,24,203,5160806,,,2021-07-27,清算の結了等,,,2015-10-05,1,,,,,フレスコ,0
524,2210002002764,登記記録の閉鎖等,0,2021-07-29,2021-07-15,有限会社野村企画,,有限会社,福井県,福井市,北四ツ居１丁目１０番２３号,,18,201,9188205,,,2021-07-15,清算の結了等,,,2015-10-05,1,,,,,ノムラキカク,0
532,2250005002618,登記記録の閉鎖等,0,2021-07-29,2021-07-21,医療法人社団富士消化器内科クリニック,,その他の設立登記法人,山口県,宇部市,草江２丁目１番４５号,,35,202,7550004,,,2021-07-21,清算の結了等,,,2015-10-05,1,,,,,フジショウカキナイカクリニック,0
536,2260002019390,登記記録の閉鎖等,0,2021-07-29,2021-07-27,有限会社多賀商店,,有限会社,岡山県,倉敷市,酒津２７１８番地の５,,33,202,7100801,,,2021-07-27,清算の結了等,,,2015-10-05,1,,,,,タガショウテン,0
538,2280001000399,登記記録の閉鎖等,0,2021-07-29,2021-07-26,株式会社ジョイ,,株式会社,島根県,松江市,東本町５丁目１２番地１,,32,201,6900842,,,2021-07-26,清算の結了等,,,2015-10-05,1,,,,,ジョイ,0
554,2330002015300,登記記録の閉鎖等,0,2021-07-29,2021-07-16,有限会社外村商店,,有限会社,熊本県,熊本市西区,城山半田２丁目９番４０号,,43,103,8600064,,,2021-07-16,清算の結了等,,,2015-10-05,1,,,,,ホカムラショウテン,0
557,2340001009624,登記記録の閉鎖等,0,2021-07-29,2021-07-08,株式会社夢環境,,株式会社,鹿児島県,鹿児島市,郡山町４７７番地１０,,46,201,8911105,,,2021-07-08,清算の結了等,,,2015-10-05,1,,,,,ユメカンキョウ,0
579,2420002013212,登記記録の閉鎖等,0,2021-07-29,2021-07-16,有限会社孝仁堂,,有限会社,青森県,弘前市,大字松森町１４２番地１,,02,202,0368184,,,2021-07-16,清算の結了等,,,2015-10-05,1,,,,,コウジンドウ,0
597,2500005004555,登記記録の閉鎖等,0,2021-07-29,2021-07-26,黒住教金子教会所,,その他の設立登記法人,愛媛県,新居浜市,久保田町２丁目１１番１０号,,38,205,7920026,,,2021-07-26,清算の結了等,,,2015-10-05,1,,,,,クロズミキョウカネコキョウカイショ,0
601,3010001088452,登記記録の閉鎖等,0,2021-07-29,2021-07-19,株式会社朝日中央出版社,,株式会社,東京都,千代田区,霞が関３丁目２番５号霞が関ビル３６階,,13,101,1000013,,,2021-07-19,清算の結了等,,,2015-10-05,1,,,,,アサヒチュウオウシュッパンシャ,0
603,3010001101611,登記記録の閉鎖等,0,2021-07-29,2021-07-20,株式会社ガリバー旅行,,株式会社,東京都,豊島区,池袋３丁目２４番２号ＹＡＷＡＲＡＰＡＲＴ１－３０１号室,,13,116,1710014,,,2021-07-20,清算の結了等,,,2015-10-05,1,,,,,ガリバーリョコウ,0
653,3011101062066,登記記録の閉鎖等,0,2021-07-29,2021-06-30,Ｔ２パートナーズコーポレーション株式会社,,株式会社,東京都,渋谷区,笹塚１丁目５８番９－３０６号,,13,113,1510073,,,2021-06-30,清算の結了等,,,2015-10-05,1,,,,,ティーツーパートナーズコーポレーション,0
669,3011702002536,登記記録の閉鎖等,0,2021-07-29,2021-07-21,有限会社乙女屋油店,,有限会社,東京都,江戸川区,船堀３丁目１３番１０号,,13,123,1340091,,,2021-07-21,清算の結了等,,,2015-10-05,1,,,,,オトメヤアブラテン,0
708,3050001025105,登記記録の閉鎖等,0,2021-07-29,2021-07-16,株式会社秀成,,株式会社,茨城県,水戸市,東台２丁目２番１９号,,08,201,3100818,,,2021-07-16,清算の結了等,,,2015-10-05,1,,,,,シュウセイ,0
769,3140001107728,登記記録の閉鎖等,0,2021-07-29,2021-07-19,岩国商店株式会社,,株式会社,兵庫県,三田市,三輪１１２９番地２,,28,219,6691513,,,2021-07-19,清算の結了等,,,2017-10-05,1,,,,,,0
799,3180001080566,登記記録の閉鎖等,0,2021-07-29,2021-07-19,株式会社ミクニ,,株式会社,愛知県,瀬戸市,広之田町５０９番地,,23,204,4801203,,,2021-07-19,清算の結了等,,,2015-10-05,1,,,,,ミクニ,0
805,3180002060006,登記記録の閉鎖等,0,2021-07-29,2021-07-16,有限会社スピーネ,,有限会社,愛知県,名古屋市中区,千代田５丁目１１番３４号,,23,106,4600012,,,2021-07-16,清算の結了等,,,2015-10-05,1,,,,,スピーネ,0
806,3180002073783,登記記録の閉鎖等,0,2021-07-29,2021-07-21,Ｋ，Ｌ，Ｒ，Ｒ調査有限会社,,有限会社,愛知県,尾張旭市,桜ケ丘町３丁目１０８番地サンハウスあさひの７Ｅ,,23,226,4880859,,,2021-07-21,清算の結了等,,,2015-10-05,1,,,,,ケイエルアールアールチョウサ,0
817,3190001005902,登記記録の閉鎖等,0,2021-07-29,2021-07-27,株式会社サクセスライン,,株式会社,三重県,鈴鹿市,野町西３丁目２番７号,,24,207,5100218,,,2021-07-27,清算の結了等,,,2015-10-05,1,,,,,サクセスライン,0
865,3380002029666,登記記録の閉鎖等,0,2021-07-29,2021-07-15,有限会社若里プレス,,有限会社,福島県,相馬郡飯舘村,飯樋字町２２１番地,00084111,07,564,9601721,,,2021-07-15,清算の結了等,,,2015-10-05,1,,,,,ワカサトプレス,0
880,3420002017443,登記記録の閉鎖等,0,2021-07-29,2021-07-19,有限会社堀川商店,,有限会社,青森県,上北郡おいらせ町,新田１番地の１,,02,412,0392211,,,2021-07-19,清算の結了等,,,2015-10-05,1,,,,,ホリカワショウテン,0
907,4010001056037,登記記録の閉鎖等,0,2021-07-29,2021-07-16,株式会社フジヰ画廊,,株式会社,東京都,中央区,銀座２丁目８番５号銀座石川ビル３階,,13,102,1040061,,,2021-07-16,清算の結了等,,,2015-10-05,1,,,,,フジイガロウ,0
942,4010502019070,登記記録の閉鎖等,0,2021-07-29,2021-07-21,有限会社オフサイド,,有限会社,東京都,台東区,台東１丁目２番７－２０１号,,13,106,1100016,,,2021-07-21,清算の結了等,,,2015-10-05,1,,,,,オフサイド,0
943,4010601042469,登記記録の閉鎖等,0,2021-07-29,2021-07-13,日通旅行株式会社,,株式会社,東京都,港区,新橋１丁目５番２号,,13,103,1050004,,,2021-07-13,清算の結了等,,,2015-10-05,1,,,,,ニッツウリョコウ,0
968,4011101085438,登記記録の閉鎖等,0,2021-07-29,2021-07-21,株式会社アクシアーク,,株式会社,東京都,豊島区,東池袋３丁目１０番１号第２竹下ビルＢ１Ｆ,,13,116,1700013,,,2021-07-21,清算の結了等,,,2018-09-20,1,,,,,アクシアーク,0
987,4011603003005,登記記録の閉鎖等,0,2021-07-29,2021-07-27,合同会社グロースグラス,,合同会社,東京都,練馬区,南大泉５丁目２５番５号サンハウス大泉２０１,,13,120,1780064,,,2021-07-27,清算の結了等,,,2020-07-28,1,,,,,グロースグラス,0
1010,4020003018067,登記記録の閉鎖等,0,2021-07-29,2021-07-15,ピース・バイ・ピース・ジャパン合同会社,,合同会社,神奈川県,横浜市中区,桜木町１丁目１０１番地１クロスゲート７Ｆ,,14,104,2310062,,,2021-07-15,清算の結了等,,,2020-06-24,1,,,,,ピースバイピースジャパン,0
1028,4040001017977,登記記録の閉鎖等,0,2021-07-29,2021-07-16,株式会社玉川,,株式会社,千葉県,船橋市,湊町２丁目６番２５号,,12,204,2730011,,,2021-07-16,清算の結了等,,,2015-10-05,1,,,,,タマガワ,0
1039,4040005007768,登記記録の閉鎖等,0,2021-07-29,2021-07-19,医療法人社団千陽会,,その他の設立登記法人,千葉県,四街道市,大日５９３番地１,,12,228,2840001,,,2021-07-19,清算の結了等,,,2015-10-05,1,,,,,センヨウカイ,0
1044,4050002027727,登記記録の閉鎖等,0,2021-07-29,2021-07-16,有限会社ショウコーサービス,,有限会社,茨城県,神栖市,柳川１２３４番地,,08,232,3140252,,,2021-07-16,清算の結了等,,,2015-10-05,1,,,,,ショウコーサービス,0
1048,4070002004550,登記記録の閉鎖等,0,2021-07-29,2021-07-27,有限会社フキ群馬,,有限会社,群馬県,前橋市,石倉町２丁目１番地７,,10,201,3710841,,,2021-07-27,清算の結了等,,,2015-10-05,1,,,,,フキグンマ,0
1078,4120902021334,登記記録の閉鎖等,0,2021-07-29,2021-07-26,有限会社クリエイト,,有限会社,大阪府,豊中市,西緑丘１丁目６番３３－６０１号,,27,203,5600005,,,2021-07-26,清算の結了等,,,2015-10-05,1,,,,,クリエイト,0
1087,4140001089750,登記記録の閉鎖等,0,2021-07-29,2021-07-19,株式会社グロウワークス,,株式会社,兵庫県,神戸市兵庫区,兵庫町１丁目３番３０号,,28,105,6520813,,,2021-07-19,清算の結了等,,,2015-10-05,1,,,,,グロウワークス,0
1103,4180001073718,登記記録の閉鎖等,0,2021-07-29,2021-07-21,株式会社井上,,株式会社,愛知県,春日井市,高蔵寺町３丁目１番地の１,,23,206,4870013,,,2021-07-21,清算の結了等,,,2015-10-05,1,,,,,イノウエ,0
1117,4200001016764,登記記録の閉鎖等,0,2021-07-29,2021-07-26,ライフデザイン株式会社,,株式会社,岐阜県,大垣市,古知丸４丁目２１番地１,,21,202,5030036,,,2021-07-26,清算の結了等,,,2015-10-05,1,,,,,ライフデザイン,0
1123,4220002012513,登記記録の閉鎖等,0,2021-07-29,2021-07-19,有限会社相互旅行社,,有限会社,石川県,加賀市,片山津町ハ２０番地１,,17,206,9220414,,,2021-07-19,清算の結了等,,,2015-10-05,1,,,,,ソウゴリョコウシャ,0
1124,4220003001366,登記記録の閉鎖等,0,2021-07-29,2021-07-15,合同会社ゆずりは,,合同会社,石川県,河北郡内灘町,字鶴ケ丘１丁目３６０番地,,17,365,9200271,,,2021-07-15,清算の結了等,,,2015-10-05,1,,,,,ユズリハ,0
1132,4260002029487,登記記録の閉鎖等,0,2021-07-29,2021-07-21,美作園芸有限会社,,有限会社,岡山県,津山市,西吉田６４３番地の１,,33,203,7080856,,,2021-07-21,清算の結了等,,,2015-10-05,1,,,,,,0
1142,4310001000831,登記記録の閉鎖等,0,2021-07-29,2021-07-28,十八ビジネスサービス株式会社,,株式会社,長崎県,長崎市,銅座町１番１１号,,42,201,8500841,,,2021-07-28,清算の結了等,,,2015-10-05,1,,,,,ジュウハチビジネスサービス,0
1173,4400001014979,登記記録の閉鎖等,0,2021-07-29,2021-07-21,ＫＴＭ株式会社,,株式会社,岩手県,奥州市,水沢字吉小路２５番地１４,,03,215,0230054,,,2021-07-21,清算の結了等,,,2020-04-13,1,,,,,ケーティーエム,0
1181,4430002047406,登記記録の閉鎖等,0,2021-07-29,2021-07-13,有限会社かじうち商店,,有限会社,北海道,恵庭市,大町３丁目３番１号,,01,231,0611424,,,2021-07-13,清算の結了等,,,2015-10-05,1,,,,,カジウチショウテン,0
1191,4450002007853,登記記録の閉鎖等,0,2021-07-29,2021-07-28,有限会社ワークス,,有限会社,北海道,旭川市,中常盤町１丁目２４３４番地１,,01,204,0700042,,,2021-07-28,清算の結了等,,,2015-10-05,1,,,,,ワークス,0
1206,5010001138115,登記記録の閉鎖等,0,2021-07-29,2021-07-16,株式会社ｉリース,,株式会社,神奈川県,茅ヶ崎市,矢畑７８２番地３－２－１３１０号ライオンズ茅ヶ崎ザ・アイランズ,,14,207,2530085,,,2021-07-16,清算の結了等,,,2015-10-05,1,,,,,,0
1244,5010601003536,登記記録の閉鎖等,0,2021-07-29,2021-07-09,株式会社クラウン製作所,,株式会社,東京都,江東区,大島６丁目３番１２号,,13,108,1360072,,,2021-07-09,清算の結了等,,,2015-10-05,1,,,,,クラウンセイサクショ,0
1248,5010701026511,登記記録の閉鎖等,0,2021-07-29,2021-07-20,株式会社創造交流,,株式会社,東京都,品川区,北品川３丁目６番３８－５０７号,,13,109,1400001,,,2021-07-20,清算の結了等,,,2015-10-05,1,,,,,,0
1264,5011003007217,登記記録の閉鎖等,0,2021-07-29,2021-07-07,富士ジャパン合同会社,,合同会社,東京都,渋谷区,渋谷１丁目３番１８号ビラ・モデルナＡ－７０７,,13,113,1500002,,,2021-07-07,清算の結了等,,,2016-11-15,1,,,,,フジジャパン,0
1274,5011302014335,登記記録の閉鎖等,0,2021-07-29,2021-07-27,有限会社フューチャーズコミュニケーション,,有限会社,東京都,西東京市,泉町６丁目６番１６号,,13,229,2020011,,,2021-07-27,清算の結了等,,,2015-10-05,1,,,,,フューチャーズコミュニケーション,0
1284,5011701000431,登記記録の閉鎖等,0,2021-07-29,2021-07-14,株式会社イーグル興業,,株式会社,東京都,新宿区,上落合２丁目３番５号二葉ビル３０２,,13,104,1610034,,,2021-07-14,清算の結了等,,,2015-10-05,1,,,,,,0
1290,5012701009355,登記記録の閉鎖等,0,2021-07-29,2021-07-27,九幸興業株式会社,,株式会社,東京都,東久留米市,浅間町３丁目２４番１６号,,13,222,2030012,,,2021-07-27,清算の結了等,,,2015-10-05,1,,,,,キュウコウコウギョウ,0
1291,5012702006392,登記記録の閉鎖等,0,2021-07-29,2021-07-28,有限会社和アンカーセット工業,,有限会社,東京都,東久留米市,大門町２丁目５番１８号,,13,222,2030011,,,2021-07-28,清算の結了等,,,2015-10-05,1,,,,,カズアンカーセットコウギョウ,0
1340,5030002078044,登記記録の閉鎖等,0,2021-07-29,2021-07-12,有限会社山乃コーポレーション,,有限会社,埼玉県,川越市,西小仙波町２丁目１７番地２６,,11,201,3500035,,,2021-07-12,清算の結了等,,,2015-10-05,1,,,,,ヤマノコーポレーション,0
1343,5040001022308,登記記録の閉鎖等,0,2021-07-29,2021-07-16,株式会社ＥＦＫ,,株式会社,千葉県,八千代市,ゆりのき台４丁目２２番地２,,12,221,2760042,,,2021-07-16,清算の結了等,,,2015-10-05,1,,,,,イーエフケー,0
1356,5040002085106,登記記録の閉鎖等,0,2021-07-29,2021-07-15,有限会社宮川瓦建材店,,有限会社,千葉県,旭市,イの１９３９番地,,12,215,2892511,,,2021-07-15,清算の結了等,,,2015-10-05,1,,,,,ミヤカワカワラケンザイテン,0
1376,5100001008597,登記記録の閉鎖等,0,2021-07-29,2021-07-26,株式会社フリーラインズ,,株式会社,長野県,小諸市,大字大久保２３５５番地６９イトーピア小諸４ー２,,20,208,3840071,,,2021-07-26,清算の結了等,,,2015-10-05,1,,,,,フリーラインズ,0
1386,5120001125309,登記記録の閉鎖等,0,2021-07-29,2021-07-09,わん太郎株式会社,,株式会社,大阪府,大阪市西区,江之子島１丁目７番３号奥内阿波座駅前ビル１１０６号,,27,106,5500006,,,2021-07-09,合併による解散等,7010001199948,令和３年７月１日大阪市西区南堀江三丁目７番２２号株式会社ＷＯＬＶＥＳ　Ｈａｎｄ（7010001199948）に合併し解散,2015-10-05,1,,,,,ワンタロウ,0
1428,5150001000079,登記記録の閉鎖等,0,2021-07-29,2021-07-20,株式会社アラナラ商店,,株式会社,奈良県,奈良市,餅飯殿町３９番地,00042546,29,201,6308222,,,2021-07-20,清算の結了等,,,2015-10-05,1,,,,,アラナラショウテン,0
1437,5180001102319,登記記録の閉鎖等,0,2021-07-29,2021-07-16,１９６４ＤＥＳＩＧＮ株式会社,,株式会社,神奈川県,三浦郡葉山町,堀内２１８番地,,14,301,2400112,,,2021-07-16,清算の結了等,,,2015-10-05,1,,,,,イチキュウロクヨンデザイン,0
1458,5200005008906,登記記録の閉鎖等,0,2021-07-29,2021-07-26,恵北建設業協同組合,,その他の設立登記法人,岐阜県,中津川市,下野深笹２９２番地の５,,21,206,5080202,,,2021-07-26,清算の結了等,,,2015-10-05,1,,,,,ケイホクケンセツギョウ,0
1482,5290802001567,登記記録の閉鎖等,0,2021-07-29,2021-07-07,有限会社菊陽建設,,有限会社,福岡県,北九州市小倉南区,長行西３丁目３番５号,,40,107,8030272,,,2021-07-07,清算の結了等,,,2015-10-05,1,,,,,キクヨウケンセツ,0
1484,5290805008048,登記記録の閉鎖等,0,2021-07-29,2021-07-06,農事組合法人ジャパンファーム,,その他の設立登記法人,福岡県,田川郡川崎町,大字田原字大行事１９０６－１,,40,605,8270004,,,2021-07-06,清算の結了等,,,2015-10-05,1,,,,,ジャパンファーム,0
1491,5360001020329,登記記録の閉鎖等,0,2021-07-29,2021-07-16,ｃｅｎｔｒａｌｋｉｔｃｈｅｎｗｏｒｌｄ沖縄株式会社,,株式会社,沖縄県,糸満市,西崎町５丁目１２番１３号,,47,210,9010306,,,2021-07-16,清算の結了等,,,2016-01-15,1,,,,,,0
1504,5380002025928,登記記録の閉鎖等,0,2021-07-29,2021-07-16,有限会社防風林,,有限会社,福島県,いわき市,平下神谷字釜ノ台２７番地,,07,204,9700101,,,2021-07-16,清算の結了等,,,2015-10-05,1,,,,,ボウフウリン,0
1508,5390001011069,登記記録の閉鎖等,0,2021-07-29,2021-07-14,佐藤興業株式会社,,株式会社,山形県,長井市,勧進代１１６７番地,,06,209,9930064,,,2021-07-14,清算の結了等,,,2015-10-05,1,,,,,,0
1524,5430001074318,登記記録の閉鎖等,0,2021-07-29,2021-07-14,株式会社岡村鋼業,,株式会社,北海道,札幌市北区,南あいの里７丁目６番２３号,,01,102,0028091,,,2021-07-14,清算の結了等,,,2017-06-13,1,,,,,オカムラコウギョウ,0
1545,6010001030907,登記記録の閉鎖等,0,2021-07-29,2021-07-09,株式会社モティベア,,株式会社,東京都,千代田区,外神田２丁目２番１７号,,13,101,1010021,,,2021-07-09,清算の結了等,,,2015-10-05,1,,,,,モティベア,0
1573,6010405017046,登記記録の閉鎖等,0,2021-07-29,2021-07-13,クッキーホールディング２一般社団法人,,その他の設立登記法人,東京都,港区,虎ノ門３丁目２２番１０－２０１号,,13,103,1050001,,,2021-07-13,清算の結了等,,,2018-08-31,1,,,,,クッキーホールディングツー,0
1583,6010602002206,登記記録の閉鎖等,0,2021-07-29,2021-07-08,有限会社五之橋道具店,,有限会社,東京都,江東区,亀戸６丁目２番１号,,13,108,1360071,,,2021-07-08,清算の結了等,,,2015-10-05,1,,,,,ゴノハシドウグテン,0
1584,6010701030826,登記記録の閉鎖等,0,2021-07-29,2021-07-19,ＳＭＫ－ＬＯＧＯＭＯＴＩＯＮ株式会社,,株式会社,東京都,品川区,戸越５丁目１７番１４号,,13,109,1420041,,,2021-07-19,清算の結了等,,,2015-10-05,1,,,,,エスエムケイロゴモーション,0
1592,6011001012432,登記記録の閉鎖等,0,2021-07-29,2021-07-01,株式会社セディショナリーズ,,株式会社,東京都,渋谷区,千駄ヶ谷３丁目１２番６号,,13,113,1510051,,,2021-07-01,合併による解散等,5011001005016,令和３年７月１日東京都渋谷区千駄ケ谷三丁目１２番６号株式会社オゾンコミュニティ（5011001005016）に合併し解散,2015-10-05,1,,,,,セディショナリーズ,0
1619,6011401000664,登記記録の閉鎖等,0,2021-07-29,2021-07-26,株式会社今井製作所,,株式会社,東京都,板橋区,前野町１丁目３３番１５号,,13,119,1740063,,,2021-07-26,清算の結了等,,,2015-10-05,1,,,,,イマイセイサクジョ,0
1621,6011402003385,登記記録の閉鎖等,0,2021-07-29,2021-07-26,有限会社五車堂書房,,有限会社,東京都,板橋区,板橋４丁目３１番１４号,,13,119,1730004,,,2021-07-26,清算の結了等,,,2015-10-05,1,,,,,ゴシャドウショボウ,0
1622,6011502006478,登記記録の閉鎖等,0,2021-07-29,2021-07-26,有限会社ロイヤルレンタルレヂデンス,,有限会社,東京都,北区,豊島１丁目４番８号,,13,117,1140003,,,2021-07-26,清算の結了等,,,2015-10-05,1,,,,,ロイヤルレンタルレヂデンス,0
1631,6012401016031,登記記録の閉鎖等,0,2021-07-29,2021-07-21,株式会社西村組,,株式会社,東京都,三鷹市,新川５丁目８番７号,,13,204,1810004,,,2021-07-21,清算の結了等,,,2015-10-05,1,,,,,,0
1632,6012403002483,登記記録の閉鎖等,0,2021-07-29,2021-07-27,合同会社ＫＣＲ,,合同会社,東京都,武蔵野市,吉祥寺本町１丁目１８番１１号アマンビル１階,,13,203,1800004,,,2021-07-27,清算の結了等,,,2015-10-05,1,,,,,ケイシーアール,0
1684,6060003000614,登記記録の閉鎖等,0,2021-07-29,2021-07-14,生活福祉研究所合資会社,,合資会社,栃木県,那須郡那須町,大字高久甲５１６９－１２,,09,407,3250001,,,2021-07-14,清算の結了等,,,2015-10-05,1,,,,,セイカツフクシケンキュウショ,0
1730,6120902014237,登記記録の閉鎖等,0,2021-07-29,2021-07-14,有限会社千里住宅サービス,,有限会社,大阪府,茨木市,真砂１丁目２４番６号,,27,211,5670851,,,2021-07-14,清算の結了等,,,2015-10-05,1,,,,,センリジュウタクサービス,0
1756,6150001013071,登記記録の閉鎖等,0,2021-07-29,2021-07-19,辻本樹脂株式会社,00042993,株式会社,奈良県,大和高田市,大字松塚９３７番地の２,,29,202,6350001,,,2021-07-19,清算の結了等,,,2015-10-05,1,,,,,ツジモトジュシ,0
1815,6300002002099,登記記録の閉鎖等,0,2021-07-29,2021-07-16,有限会社アルファ設計,,有限会社,佐賀県,佐賀市,光１丁目４番９号,,41,201,8400033,,,2021-07-16,清算の結了等,,,2015-10-05,1,,,,,アルファセッケイ,0
1822,6330001019331,登記記録の閉鎖等,0,2021-07-29,2021-07-15,株式会社ホームベース,,株式会社,熊本県,上益城郡山都町,成君１２２１番,,43,447,8613783,,,2021-07-15,清算の結了等,,,2015-10-05,1,,,,,ホームベース,0
1834,6380001004270,登記記録の閉鎖等,0,2021-07-29,2021-07-16,東翔株式会社,,株式会社,福島県,伊達市,月舘町御代田字東４０番地６,,07,213,9600906,,,2021-07-16,清算の結了等,,,2015-10-05,1,,,,,トウショウ,0
1835,6390005004134,登記記録の閉鎖等,0,2021-07-29,2021-07-13,一霞生産森林組合,,その他の設立登記法人,山形県,鶴岡市,一霞８５番地,,06,203,9997203,,,2021-07-13,清算の結了等,,,2015-10-05,1,,,,,ヒトカスミ,0
1837,6420002017572,登記記録の閉鎖等,0,2021-07-29,2021-07-16,有限会社アキハバラ電器,,有限会社,青森県,三沢市,幸町１丁目９番５号,,02,207,0330011,,,2021-07-16,清算の結了等,,,2015-10-05,1,,,,,アキハバラデンキ,0
1839,6420002019271,登記記録の閉鎖等,0,2021-07-29,2021-07-20,有限会社大間三光,,有限会社,青森県,下北郡大間町,大字大間字上野１８番地１,,02,423,0394601,,,2021-07-20,清算の結了等,,,2015-10-05,1,,,,,オオマサンコウ,0
1849,6450002007777,登記記録の閉鎖等,0,2021-07-29,2021-07-26,有限会社共穂ワークシステム,,有限会社,北海道,雨竜郡沼田町,字共成９１番地,,01,438,0782213,,,2021-07-26,清算の結了等,,,2015-10-05,1,,,,,キョウホワークシステム,0
1859,7010001145803,登記記録の閉鎖等,0,2021-07-29,2021-07-16,株式会社お茶の水義肢装具,,株式会社,東京都,千代田区,神田駿河台４丁目１番地２,,13,101,1010062,,,2021-07-16,清算の結了等,,,2015-10-05,1,,,,,オチャノミズギシソウグ,0
1870,7010401047137,登記記録の閉鎖等,0,2021-07-29,2021-07-16,カンポテックスジャパン株式会社,,株式会社,東京都,千代田区,内幸町１丁目１番１号帝国ホテルタワー１４階,,13,101,1000011,,,2021-07-16,清算の結了等,,,2015-10-05,1,,,,,カンポテックスジャパン,0
1874,7010401139198,登記記録の閉鎖等,0,2021-07-29,2021-07-13,ＥＳＭ株式会社,,株式会社,東京都,港区,芝大門１丁目１２番１５号,,13,103,1050012,,,2021-07-13,合併による解散等,2010401002451,令和３年７月１日東京都港区芝大門一丁目１２番１５号イーグル工業株式会社（2010401002451）に合併し解散,2018-06-26,1,,,,,イーエスエム,0
1903,7010802004100,登記記録の閉鎖等,0,2021-07-29,2021-07-19,有限会社菊池電気鍜造製作所,,有限会社,東京都,大田区,千鳥２丁目７番１４号,,13,111,1460083,,,2021-07-19,清算の結了等,,,2015-10-05,1,,,,,,0
1912,7011101052732,登記記録の閉鎖等,0,2021-07-29,2021-07-14,ゼネラルコミュニケーション株式会社,,株式会社,東京都,新宿区,新宿３丁目１２番４号新宿永谷タウンプラザ,,13,104,1600022,,,2021-07-14,清算の結了等,,,2015-10-05,1,,,,,,0
1929,7011702005221,登記記録の閉鎖等,0,2021-07-29,2021-07-21,有限会社シーヴィ,,有限会社,東京都,江戸川区,西葛西３丁目９番９号,,13,123,1340088,,,2021-07-21,清算の結了等,,,2015-10-05,1,,,,,シーヴィ,0
1947,7020001123205,登記記録の閉鎖等,0,2021-07-29,2021-07-15,株式会社Ｆｏｎｓ,,株式会社,神奈川県,川崎市幸区,南加瀬４丁目７番６－３０３号,,14,132,2120055,,,2021-07-15,清算の結了等,,,2017-09-29,1,,,,,フォンズ,0
1990,7050001037237,登記記録の閉鎖等,0,2021-07-29,2021-07-16,Ｇｅｔ　ｉｔ　ｂｅａｕｔｙ株式会社,,株式会社,茨城県,水戸市,五軒町３丁目２番２２号,,08,201,3100063,,,2021-07-16,清算の結了等,,,2015-10-05,1,,,,,ゲットイットビューティー,0
1991,7050001043672,登記記録の閉鎖等,0,2021-07-29,2021-07-16,空間建築工房株式会社,,株式会社,茨城県,鉾田市,大竹３６番地,,08,234,3111513,,,2021-07-16,清算の結了等,,,2017-11-21,1,,,,,,0
2006,7080101020585,登記記録の閉鎖等,0,2021-07-29,2021-07-21,株式会社アドパス,,株式会社,静岡県,沼津市,吉田町２６番２０号,,22,203,4100836,,,2021-07-21,清算の結了等,,,2018-07-04,1,,,,,アドパス,0
2013,7120001006044,登記記録の閉鎖等,0,2021-07-29,2021-07-16,中村株式会社,,株式会社,大阪府,大阪市阿倍野区,旭町３丁目１番３６号,,27,119,5450051,,,2021-07-16,清算の結了等,,,2015-10-05,1,,,,,ナカムラ,0
2050,7180001069077,登記記録の閉鎖等,0,2021-07-29,2021-07-20,株式会社サントレックスジャパン,,株式会社,愛知県,豊明市,三崎町井ノ花１７番地５,,23,229,4701124,,,2021-07-20,清算の結了等,,,2015-10-05,1,,,,,サントレックスジャパン,0
2054,7180002024551,登記記録の閉鎖等,0,2021-07-29,2021-07-19,平和建物有限会社,,有限会社,愛知県,名古屋市西区,枇杷島５丁目２３番６号,,23,104,4510053,,,2021-07-19,清算の結了等,,,2015-10-05,1,,,,,ヘイワタテモノ,0
2057,7180301016539,登記記録の閉鎖等,0,2021-07-29,2021-07-28,株式会社エムジェーケイ,,株式会社,愛知県,高浜市,二池町６丁目１番地７３,,23,227,4441322,,,2021-07-28,清算の結了等,,,2015-10-05,1,,,,,エムジェーケイ,0
2060,7190001019816,登記記録の閉鎖等,0,2021-07-29,2021-07-27,株式会社改住活サポート,,株式会社,三重県,津市,江戸橋２丁目５９番地１５,,24,201,5140001,,,2021-07-27,清算の結了等,,,2015-10-05,1,,,,,カイジュウカツサポート,0
2074,7240001037754,登記記録の閉鎖等,0,2021-07-29,2021-07-08,朝日産業株式会社,,株式会社,広島県,尾道市,山波町７０８番地の３,,34,205,7220052,,,2021-07-08,合併による解散等,7240001037762,令和３年７月１日広島県尾道市山波町１００８番地の１あさひエンジニアリング株式会社（7240001037762）に合併し解散,2015-10-05,1,,,,,アサヒサンギョウ,0
2082,7280002007884,登記記録の閉鎖等,0,2021-07-29,2021-07-26,有限会社藤間要二郎本店,,有限会社,島根県,大田市,仁摩町宅野１６５番地,,32,205,6992302,,,2021-07-26,清算の結了等,,,2015-10-05,1,,,,,トウマヨウジロウホンテン,0
2094,7310001008806,登記記録の閉鎖等,0,2021-07-29,2021-07-19,第一商事株式会社,,株式会社,長崎県,大村市,協和町６２８番地４６,,42,205,8560820,,,2021-07-19,清算の結了等,,,2015-10-05,1,,,,,ダイイチショウジ,0
2145,8010002024294,登記記録の閉鎖等,0,2021-07-29,2021-07-16,有限会社藤井興産,,有限会社,東京都,中央区,銀座２丁目８番５号銀座石川ビル３階,,13,102,1040061,,,2021-07-16,清算の結了等,,,2015-10-05,1,,,,,フジイコウサン,0
2159,8010402009705,登記記録の閉鎖等,0,2021-07-29,2021-07-13,有限会社中村無線電気商会,,有限会社,東京都,港区,三田３丁目３番９号,,13,103,1080073,,,2021-07-13,清算の結了等,,,2015-10-05,1,,,,,ナカムラムセンデンキショウカイ,0
2162,8010405002715,登記記録の閉鎖等,0,2021-07-29,2021-07-13,特定非営利活動法人環境住宅研究会,,その他の設立登記法人,埼玉県,さいたま市緑区,美園１丁目１３番地５,,11,109,3360967,,,2021-07-13,清算の結了等,,,2015-10-05,1,,,,,カンキョウジュウタクケンキュウカイ,0
2165,8010405016905,登記記録の閉鎖等,0,2021-07-29,2021-07-13,クッキーホールディング１一般社団法人,,その他の設立登記法人,東京都,港区,虎ノ門３丁目２２番１０－２０１号,,13,103,1050001,,,2021-07-13,清算の結了等,,,2018-07-24,1,,,,,クッキーホールディングワン,0
2170,8010602032515,登記記録の閉鎖等,0,2021-07-29,2021-07-09,有限会社田辺たばこ店,,有限会社,東京都,墨田区,向島５丁目２８番１５号,,13,107,1310033,,,2021-07-09,清算の結了等,,,2015-10-05,1,,,,,タナベタバコテン,0
2174,8010702011286,登記記録の閉鎖等,0,2021-07-29,2021-07-16,有限会社エム・シー・シー・インターナショナル,,有限会社,東京都,中央区,日本橋人形町２丁目２１番９号－１２０４号,,13,102,1030013,,,2021-07-16,清算の結了等,,,2015-10-05,1,,,,,エムシーシーインターナショナル,0
2185,8011001035613,登記記録の閉鎖等,0,2021-07-29,2021-07-01,株式会社エイチジーエス,,株式会社,東京都,渋谷区,千駄ヶ谷３丁目１２番６号,,13,113,1510051,,,2021-07-01,合併による解散等,5011001005016,令和３年７月１日東京都渋谷区千駄ケ谷三丁目１２番６号株式会社オゾンコミュニティ（5011001005016）に合併し解散,2015-10-05,1,,,,,エイチジーエス,0
2214,8012301000884,登記記録の閉鎖等,0,2021-07-29,2021-07-12,広興リース株式会社,,株式会社,東京都,町田市,金井ヶ丘４丁目３５番２６号,,13,209,1950076,,,2021-07-12,清算の結了等,,,2015-10-05,1,,,,,ヒロコウリース,0
2222,8013303002423,登記記録の閉鎖等,0,2021-07-29,2021-07-12,合同会社キャンディボトル,,合同会社,埼玉県,入間市,鍵山１丁目１０番１５号鍵山ハウス２階,,11,225,3580004,,,2021-07-12,清算の結了等,,,2015-10-05,1,,,,,キャンディボトル,0
2224,8013401001921,登記記録の閉鎖等,0,2021-07-29,2021-07-20,セーフアンドエコライフ株式会社,,株式会社,東京都,稲城市,平尾２丁目８４番地の８,,13,225,2060823,,,2021-07-20,清算の結了等,,,2015-10-05,1,,,,,セーフアンドエコライフ,0
2237,8020002094171,登記記録の閉鎖等,0,2021-07-29,2021-07-16,有限会社風と太陽,,有限会社,神奈川県,川崎市麻生区,金程１丁目３７番１７号,,14,137,2150006,,,2021-07-16,清算の結了等,,,2015-10-05,1,,,,,カゼトタイヨウ,0
2240,8021002030141,登記記録の閉鎖等,0,2021-07-29,2021-07-16,有限会社白石建築工房,,有限会社,神奈川県,相模原市南区,鵜野森１丁目２８番１０号Ｄ１－３０１,,14,153,2520301,,,2021-07-16,清算の結了等,,,2015-10-05,1,,,,,シライシケンチクコウボウ,0
2241,8021003001629,登記記録の閉鎖等,0,2021-07-29,2021-07-16,合資会社すずき,,合資会社,神奈川県,厚木市,元町６番１０号,,14,212,2430002,,,2021-07-16,清算の結了等,,,2015-10-05,1,,,,,スズキ,0
2254,8040005018687,登記記録の閉鎖等,0,2021-07-29,2021-07-28,一般社団法人ペット鍼灸セラピー協会,,その他の設立登記法人,東京都,港区,南青山２丁目２番１５号,,13,103,1070062,,,2021-07-28,清算の結了等,,,2015-10-05,1,,,,,ペットシンキュウセラピーキョウカイ,0
2267,8080002014198,登記記録の閉鎖等,0,2021-07-29,2021-07-26,有限会社大石ポンプ店,,有限会社,静岡県,島田市,川根町家山８７１番地,,22,209,4280104,,,2021-07-26,清算の結了等,,,2015-10-05,1,,,,,オオイシポンプテン,0
2268,8080101011922,登記記録の閉鎖等,0,2021-07-29,2021-07-26,株式会社ワタヤ,,株式会社,静岡県,富士宮市,西町１６番１５号,,22,207,4180056,,,2021-07-26,清算の結了等,,,2015-10-05,1,,,,,ワタヤ,0
2277,8120001101414,登記記録の閉鎖等,0,2021-07-29,2021-07-19,株式会社オーケーエス,,株式会社,大阪府,大阪市浪速区,敷津西２丁目１番１２号,,27,111,5560015,,,2021-07-19,清算の結了等,,,2015-10-05,1,,,,,オーケーエス,0
2291,8120005013234,登記記録の閉鎖等,0,2021-07-29,2021-07-26,特定非営利活動法人日本住環境研究所,,その他の設立登記法人,大阪府,寝屋川市,秦町１番３号,,27,215,5720848,,,2021-07-26,清算の結了等,,,2015-10-05,1,,,,,ニホンジュウカンキョウケンキュウショ,0
2311,8140002029339,登記記録の閉鎖等,0,2021-07-29,2021-07-21,中嶋電気有限会社,,有限会社,兵庫県,明石市,大久保町谷八木７１７番地の３５,,28,203,6740062,,,2021-07-21,清算の結了等,,,2015-10-05,1,,,,,ナカジマデンキ,0
2343,8200002009887,登記記録の閉鎖等,0,2021-07-29,2021-07-26,有限会社和光ビルサービス,,有限会社,岐阜県,瑞穂市,只越９７６番地,,21,216,5010221,,,2021-07-26,清算の結了等,,,2015-10-05,1,,,,,ワコウビルサービス,0
2359,8260002008289,登記記録の閉鎖等,0,2021-07-29,2021-07-27,有限会社日室商店,,有限会社,岡山県,岡山市中区,倉益８２番地,,33,102,7038263,,,2021-07-27,清算の結了等,,,2015-10-05,1,,,,,ヒムロショウテン,0
2360,8260002015277,登記記録の閉鎖等,0,2021-07-29,2021-07-27,有限会社クロスタニン岡山,,有限会社,岡山県,赤磐市,桜が丘西１０丁目９番１５号,,33,213,7090802,,,2021-07-27,清算の結了等,,,2015-10-05,1,,,,,クロスタニンオカヤマ,0
2363,8280001003264,登記記録の閉鎖等,0,2021-07-29,2021-07-26,玉屋商事株式会社,,株式会社,島根県,出雲市,天神町８８１番地,,32,203,6930005,,,2021-07-26,清算の結了等,,,2015-10-05,1,,,,,タマヤショウジ,0
2391,8380002031411,登記記録の閉鎖等,0,2021-07-29,2021-07-16,有限会社小野寺漆器店,,有限会社,福島県,会津若松市,大町２丁目１番５号,,07,202,9650042,,,2021-07-16,清算の結了等,,,2015-10-05,1,,,,,,0
2414,8450003001579,登記記録の閉鎖等,0,2021-07-29,2021-07-27,合同会社コネクト,,合同会社,北海道,留萌市,見晴町６丁目２１５番地の１６,,01,212,0770033,,,2021-07-27,清算の結了等,,,2016-11-24,1,,,,,コネクト,0
2431,9010001073837,登記記録の閉鎖等,0,2021-07-29,2021-07-16,株式会社パビリオ,,株式会社,東京都,中央区,銀座１丁目１３番１号,,13,102,1040061,,,2021-07-16,清算の結了等,,,2015-10-05,1,,,,,パビリオ,0
2454,9010401092924,登記記録の閉鎖等,0,2021-07-29,2021-07-13,株式会社ＤＡ　Ｍｕｓｉｃ　Ｐｕｂｌｉｓｈｉｎｇ,,株式会社,東京都,港区,六本木３丁目２番１号,,13,103,1060032,,,2021-07-13,清算の結了等,,,2015-10-05,1,,,,,ディーエーミュージックパブリシング,0
2521,9013301046966,登記記録の閉鎖等,0,2021-07-29,2021-07-20,株式会社ベンディングジャーナル社,,株式会社,東京都,豊島区,南池袋３丁目１６番４－３０１号ハイツタケノ,,13,116,1710022,,,2021-07-20,清算の結了等,,,2021-02-15,1,,,,,ベンディングジャーナルシャ,0
2536,9020002029960,登記記録の閉鎖等,0,2021-07-29,2021-07-16,有限会社佐伯政吉商店,,有限会社,神奈川県,横浜市南区,日枝町３丁目９３番地,,14,105,2320011,,,2021-07-16,清算の結了等,,,2015-10-05,1,,,,,サエキマサキチショウテン,0
2571,9080102017760,登記記録の閉鎖等,0,2021-07-29,2021-07-26,有限会社わかちあい,,有限会社,静岡県,富士宮市,山宮９１０番地の１２,,22,207,4180111,,,2021-07-26,清算の結了等,,,2015-10-05,1,,,,,,0
2583,9120001173106,登記記録の閉鎖等,0,2021-07-29,2021-07-27,株式会社クラウドナイン,,株式会社,大阪府,堺市西区,菱木１丁２５９４番地１,,27,144,5938315,,,2021-07-27,清算の結了等,,,2015-10-05,1,,,,,クラウドナイン,0
2619,9140005022620,登記記録の閉鎖等,0,2021-07-29,2021-07-27,一般社団法人ダイエット経営,,その他の設立登記法人,兵庫県,神戸市中央区,多聞通４丁目４番１３号歩１１番館３０５号,,28,110,6500015,,,2021-07-27,清算の結了等,,,2015-11-06,1,,,,,ダイエットケイエイ,0
2624,9160001001122,登記記録の閉鎖等,0,2021-07-29,2021-07-21,株式会社瀬田マイクロフイルム,,株式会社,滋賀県,大津市,月輪５丁目１６番５号,,25,201,5202152,,,2021-07-21,清算の結了等,,,2015-10-05,1,,,,,セタマイクロフイルム,0
2647,9190002020102,登記記録の閉鎖等,0,2021-07-29,2021-07-26,有限会社高阪企画,00076111,有限会社,三重県,四日市市,桜花台１丁目３４番地の６,,24,202,5121216,,,2021-07-26,清算の結了等,,,2015-10-05,1,,,,,コウサカキカク,0
2672,9280003001125,登記記録の閉鎖等,0,2021-07-29,2021-07-26,長喜商店合同会社,,合同会社,島根県,浜田市,三隅町河内１１４３番地,,32,202,6993213,,,2021-07-26,清算の結了等,,,2016-12-13,1,,,,,ナガキショウテン,0
2687,9330003003033,登記記録の閉鎖等,0,2021-07-29,2021-07-15,合資会社親和不動産,,合資会社,熊本県,宇城市,三角町三角浦１１６０番地の８４,,43,213,8693207,,,2021-07-15,清算の結了等,,,2015-10-05,1,,,,,,0
2701,9400001006658,登記記録の閉鎖等,0,2021-07-29,2021-07-14,定信工業株式会社,,株式会社,岩手県,遠野市,青笹町糠前５地割３５番地１,,03,208,0280501,,,2021-07-14,清算の結了等,,,2016-01-06,1,,,,,,0
2702,9400001008076,登記記録の閉鎖等,0,2021-07-29,2021-07-20,株式会社石倉建設,,株式会社,岩手県,九戸郡洋野町,種市第２３地割４０番地,,03,507,0287914,,,2021-07-20,清算の結了等,,,2015-10-05,1,,,,,イシクラケンセツ,0
2704,9420001007349,登記記録の閉鎖等,0,2021-07-29,2021-07-16,江帆物流株式会社,,株式会社,青森県,八戸市,南郷区大字島守字合戦場３４番地１,,02,203,0310000,,,2021-07-16,清算の結了等,,,2015-10-05,1,,,,,コウハンブツリュウ,1
