sequenceNumber,corporateNumber,process,correct,updateDate,changeDate,name,nameImageId,kind,prefectureName,cityName,streetNumber,addressImageId,prefectureCode,cityCode,postCode,addressOutside,addressOutsideImageId,closeDate,closeCause,successorCorporateNumber,changeCause,assignmentDate,latest,enName,enPrefectureName,enCityName,enAddressOutside,furigana,hihyoji
13,1010101016587,新規,0,2025-04-01,2025-04-01,ＨＺＹ照明株式会社,,株式会社,東京都,八王子市,打越町１０６９番１号ロイヤルステージキタノ７０２号,,13,201,1920911,,,,,,,2025-04-01,1,,,,,エイチゼットワイショウメイ,0
19,1010403034733,新規,0,2025-04-01,2025-04-01,合同会社クオンタムハウス,,合同会社,東京都,港区,赤坂８丁目１２番２７号,,13,103,1070052,,,,,,,2025-04-01,1,,,,,クオンタムハウス,0
20,1010403034741,新規,0,2025-04-01,2025-04-01,合同会社Ｅｑｕｉｔｙ　Ｅｍｐｉｒｅ,,合同会社,東京都,港区,虎ノ門５丁目１番５号,,13,103,1050001,,,,,,,2025-04-01,1,,,,,エクイティエンパイア,0
22,1010701047486,新規,0,2025-04-01,2025-04-01,株式会社頂,,株式会社,東京都,品川区,西五反田５丁目２３－３ＢＬＯＣＫＳＯＦＦＩＣＥ２０３,,13,109,1410031,,,,,,,2025-04-01,1,,,,,イタダキ,0
24,1010703007645,新規,0,2025-04-01,2025-04-01,ＪＹＫ合同会社,,合同会社,東京都,品川区,北品川５丁目７番３号グランデバンセ御殿山ザ・レジデンス６０２,,13,109,1410001,,,,,,,2025-04-01,1,,,,,ジェーワイケー,0
25,1010803005334,新規,0,2025-04-01,2025-04-01,合同会社ＷｅｂＲｅｈａ,,合同会社,東京都,大田区,田園調布２丁目５６－１０,,13,111,1450071,,,,,,,2025-04-01,1,,,,,ウェブリハ,0
34,1011003021238,新規,0,2025-04-01,2025-04-01,合同会社ネオンライト,,合同会社,東京都,渋谷区,渋谷２丁目１９－１５宮益坂ビルディング６０９,,13,113,1500002,,,,,,,2025-04-01,1,,,,,ネオンライト,0
42,1011201026212,新規,0,2025-04-01,2025-04-01,株式会社ＫＲＶ,,株式会社,東京都,中野区,本町３丁目５番７号,,13,114,1640012,,,,,,,2025-04-01,1,,,,,ケーアールブイ,0
49,1011703004178,新規,0,2025-04-01,2025-04-01,映日合同会社,,合同会社,東京都,江戸川区,平井５丁目４４番６－４０２号,,13,123,1320035,,,,,,,2025-04-01,1,,,,,エイジツ,0
54,1012801023838,新規,0,2025-04-01,2025-04-01,株式会社Ｌｕｍｉｎｏｕｓ　Ｂｅａｕｔｙ,,株式会社,東京都,立川市,曙町２丁目１４番１９号シュールビル３Ｆ,00138523,13,202,1900012,,,,,,,2025-04-01,1,,,,,ルミナスビューティー,0
67,1021001084806,新規,0,2025-04-01,2025-04-01,ＤＡＩ　ＬＯＩ　Ｇｒｏｕｐ株式会社,,株式会社,神奈川県,横須賀市,望洋台１７番１６号,,14,201,2380053,,,,,,,2025-04-01,1,,,,,ダイロイグループ,0
68,1021001084814,新規,0,2025-04-01,2025-04-01,株式会社ＵＰ‐ＳＥＬＬ,,株式会社,神奈川県,相模原市緑区,橋本２丁目１８番１４号ＤＲＡＧＯＮ橋本六番館３０５号,,14,151,2520143,,,,,,,2025-04-01,1,,,,,アップセル,0
69,1021001084822,新規,0,2025-04-01,2025-04-01,株式会社ＰｌｕｓＡ,,株式会社,神奈川県,平塚市,寺田縄４４番地の５,,14,203,2591215,,,,,,,2025-04-01,1,,,,,プラスエー,0
70,1021001084839,新規,0,2025-04-01,2025-04-01,３８ｗｏｒｋｓ株式会社,,株式会社,神奈川県,平塚市,入野９３番地の６,,14,203,2591216,,,,,,,2025-04-01,1,,,,,サンハチワークス,0
71,1021003015791,新規,0,2025-04-01,2025-04-01,合同会社Ｈｏｔａｒｕｂｉ　Ｄｅｓｉｇｎ　Ｓｔｕｄｉｏ,,合同会社,神奈川県,大和市,代官２丁目１２番２４号,,14,213,2420025,,,,,,,2025-04-01,1,,,,,ホタルビデザインスタジオ,0
72,1021003015809,新規,0,2025-04-01,2025-04-01,合同会社Ｍ＆Ｄコンサルタント,,合同会社,神奈川県,平塚市,紅谷町１４－２４松ビル３階,,14,203,2540043,,,,,,,2025-04-01,1,,,,,エムアンドディーコンサルタント,0
76,1030001165615,新規,0,2025-04-01,2025-04-01,株式会社中山設備,,株式会社,埼玉県,川口市,中青木４丁目８番１８号,,11,203,3320032,,,,,,,2025-04-01,1,,,,,ナカヤマセツビ,0
81,1040001138000,新規,0,2025-04-01,2025-04-01,株式会社サーモニックＥＮＧ,,株式会社,千葉県,習志野市,東習志野８丁目３１番１６号,,12,216,2750001,,,,,,,2025-04-01,1,,,,,サーモニックイーエヌジー,0
82,1040001138058,新規,0,2025-04-01,2025-04-01,株式会社ｏｓｏ．Ｂ,,株式会社,千葉県,南房総市,和田町小向１３２番地２,,12,234,2992724,,,,,,,2025-04-01,1,,,,,オーソービー,0
85,1050001056424,新規,0,2025-04-01,2025-04-01,株式会社ビートワン,,株式会社,茨城県,龍ケ崎市,南が丘６丁目２６番地６,,08,208,3010022,,,,,,,2025-04-01,1,,,,,ビートワン,0
88,1080005007676,新規,0,2025-04-01,2025-04-01,医療法人社団祥文会,,その他の設立登記法人,静岡県,静岡市葵区,城北９４番地,,22,101,4200805,,,,,,,2025-04-01,1,,,,,ショウブンカイ,0
99,1120001274076,新規,0,2025-04-01,2025-04-01,株式会社ｋｉｎｄ,,株式会社,大阪府,大阪市平野区,長吉長原４丁目６番２７号,,27,126,5470016,,,,,,,2025-04-01,1,,,,,カインド,0
100,1120001274142,新規,0,2025-04-01,2025-04-01,広宇テクノロジー株式会社,,株式会社,大阪府,大阪市都島区,高倉町３丁目１２－２４－１Ｆ,,27,102,5340011,,,,,,,2025-04-01,1,,,,,ヒロウテクノロジー,0
101,1120001274150,新規,0,2025-04-01,2025-04-01,ＳＲ工業株式会社,,株式会社,大阪府,大阪市福島区,海老江５丁目５番１６－４０１号,,27,103,5530001,,,,,,,2025-04-01,1,,,,,エスアールコウギョウ,0
103,1120103006352,新規,0,2025-04-01,2025-04-01,合同会社ＭＡＭＯＲＵ,,合同会社,大阪府,岸和田市,上野町東８－３－３０３,,27,202,5960047,,,,,,,2025-04-01,1,,,,,マモル,0
106,1120901050642,新規,0,2025-04-01,2025-04-01,日熙株式会社,,株式会社,大阪府,箕面市,小野原西４丁目３番３号１Ｆ,,27,220,5620032,,,,,,,2025-04-01,1,,,,,リキ,0
115,1130005017323,新規,0,2025-04-01,2025-04-01,特定非営利活動法人オールフォーワン京都,,その他の設立登記法人,京都府,京都市中京区,壬生朱雀町２７－１朱雀ハイツ３Ｇ,,26,104,6048871,,,,,,,2025-04-01,1,,,,,オールフォーワンキョウト,0
124,1180001166086,新規,0,2025-04-01,2025-04-01,株式会社Ｇｏｌｄｐｌｕｓ,,株式会社,愛知県,瀬戸市,北みずの坂３丁目２番地の１９,,23,204,4890910,,,,,,,2025-04-01,1,,,,,ゴールドプラス,0
125,1180001166111,新規,0,2025-04-01,2025-04-01,株式会社ＡＡ,,株式会社,愛知県,名古屋市港区,惟信町３丁目２５番地の１,,23,111,4550823,,,,,,,2025-04-01,1,,,,,ダブルエー,0
126,1180001166128,新規,0,2025-04-01,2025-04-01,株式会社共立,,株式会社,愛知県,東海市,名和町吹付１１番地３,,23,222,4760002,,,,,,,2025-04-01,1,,,,,キョウリツ,0
142,1240001064721,新規,0,2025-04-01,2025-04-01,株式会社ベリー堂,,株式会社,広島県,広島市佐伯区,楽々園４丁目１番２０号,,34,108,7315136,,,,,,,2025-04-01,1,,,,,ベリードウ,0
155,1290001109463,新規,0,2025-04-01,2025-04-01,株式会社手と心,,株式会社,福岡県,福津市,津屋崎５丁目１７番９号,,40,224,8113304,,,,,,,2025-04-01,1,,,,,テトココロ,0
156,1290001109496,新規,0,2025-04-01,2025-04-01,Ｙ・Ｇ株式会社,,株式会社,福岡県,福岡市東区,名島２丁目５番４号,,40,131,8130043,,,,,,,2025-04-01,1,,,,,ワイジー,0
162,1290801031387,新規,0,2025-04-01,2025-04-01,株式会社ＵＳＨＩホールディングス,,株式会社,福岡県,北九州市八幡東区,高見２丁目１０番２－１４０３号,,40,108,8050016,,,,,,,2025-04-01,1,,,,,ウシホールディングス,0
167,1330001033015,新規,0,2025-04-01,2025-04-01,株式会社ｌａ　Ｎｕｉ．,,株式会社,熊本県,宇城市,不知火町大見１０３５番地５,,43,213,8693473,,,,,,,2025-04-01,1,,,,,ラヌイ,0
170,1360003014811,新規,0,2025-04-01,2025-04-01,合同会社Ｂｌａｎｃｏ,,合同会社,沖縄県,沖縄市,中央２丁目５－１９ラルミエール８０２,,47,211,9040004,,,,,,,2025-04-01,1,,,,,ブランコ,0
176,1370003007005,新規,0,2025-04-01,2025-04-01,合同会社心晴電設,,合同会社,宮城県,仙台市宮城野区,平成１丁目１８番２８号グリーンコート宮城野３０２,,04,102,9830037,,,,,,,2025-04-01,1,,,,,コハルデンセツ,0
179,1380005012943,新規,0,2025-04-01,2025-04-01,特定非営利活動法人Ｒｅｉ　ｓｐａｃｅ,,その他の設立登記法人,福島県,白河市,泉田七々入１５番地,,07,205,9610003,,,,,,,2025-04-01,1,,,,,レイスペース,0
186,1430001094039,新規,0,2025-04-01,2025-04-01,株式会社ａｃｏｒ,,株式会社,北海道,札幌市豊平区,豊平四条９丁目３番１号,,01,105,0620904,,,,,,,2025-04-01,1,,,,,アコア,0
197,1500001026216,新規,0,2025-04-01,2025-04-01,株式会社トータル福祉サポートサービスかるがも,,株式会社,愛媛県,松山市,堀江町甲７６６番地２６,,38,201,7992651,,,,,,,2025-04-01,1,,,,,トータルフクシサポートサービスカルガモ,0
200,1700150129781,新規,0,2025-04-01,2025-04-01,Ｙｉ　ｗｕ　ｔａｎ　ｙｕｎ　ｄｉａｎ　ｚｉ　ｓｈａｎｇ　ｗｕ　ｙｏｕ　ｘｉａｎ　ｇｏｎｇ　ｓｉ,,外国会社等,,,,,,,,Ｒｏｏｍ　４０１，Ｂｕｉｌｄｉｎｇ　７，Ｎｏ．２５１，Ｓｈｅｎｚｈｏｕ　Ｒｏａｄ　Ｈｏｕｚｈａｉ　ｓｔｒｅｅｔ　ｙｉｗｕ　ｚｈｅｊｉａｎｇ　ＣＮ,,,,,,2025-04-01,1,,,,,イウタンユンデンシショウムユウゲンコウシ,0
203,2010001253528,新規,0,2025-04-01,2025-04-01,東雲コンサルティング株式会社,,株式会社,東京都,中央区,日本橋本石町３丁目３番１６号,,13,102,1030021,,,,,,,2025-04-01,1,,,,,シノノメコンサルティング,0
205,2010003046574,新規,0,2025-04-01,2025-04-01,カンバダ合同会社,,合同会社,東京都,中央区,新川１丁目７番１号天翔日本橋茅場町ビル８０８,,13,102,1040033,,,,,,,2025-04-01,1,,,,,カンバダ,0
206,2010101016586,新規,0,2025-04-01,2025-04-01,株式会社ｐｏｎｏ,,株式会社,東京都,八王子市,大和田町６丁目１４番５－４２２号,,13,201,1920045,,,,,,,2025-04-01,1,,,,,ポノ,0
209,2010401189074,新規,0,2025-04-01,2025-04-01,株式会社ＬｅａｄＭａｔｅ,,株式会社,東京都,港区,北青山２丁目７番１３号プラセオ青山ビル３Ｆ,,13,103,1070061,,,,,,,2025-04-01,1,,,,,リードメイト,0
210,2010401189231,新規,0,2025-04-01,2025-04-01,ｆｌａｓｈ　ｐｒｏｄｕｃｔ株式会社,,株式会社,東京都,港区,北青山１丁目３番１号アールキューブ青山３階,,13,103,1070061,,,,,,,2025-04-01,1,,,,,フラッシュプロダクト,0
212,2010403034716,新規,0,2025-04-01,2025-04-01,合同会社ｍｅ,,合同会社,東京都,港区,南青山２丁目２番１５号ＷｉｎＡｏｙａｍａビルＵＣＦ６３５,,13,103,1070062,,,,,,,2025-04-01,1,,,,,ミー,0
213,2010403034732,新規,0,2025-04-01,2025-04-01,合同会社ｍｏｔｈｅｒＳ,,合同会社,東京都,港区,新橋４丁目１４番１新橋ＡＵＮＢＬＤＧ４階,,13,103,1050004,,,,,,,2025-04-01,1,,,,,マザーズ,0
216,2010701047485,新規,0,2025-04-01,2025-04-01,株式会社ＴｉｄｅＱｕｅｓｔ,,株式会社,東京都,品川区,西品川１丁目１番１号住友不動産大崎ガーデンタワー９Ｆ、ＴＵＮＮＥＬＴＯＫＹＯ,,13,109,1410033,,,,,,,2025-04-01,1,,,,,タイドクエスト,0
223,2011001168550,新規,0,2025-04-01,2025-04-01,株式会社Ｅｎｄｏｅｒ,,株式会社,東京都,渋谷区,渋谷２丁目１９－１５宮益坂ビルディング６０９,,13,113,1500002,,,,,,,2025-04-01,1,,,,,エンドア,0
226,2011303005484,新規,0,2025-04-01,2025-04-01,合同会社ドュエコルデ,,合同会社,東京都,杉並区,和田１丁目１３番１９－４０６号,,13,115,1660012,,,,,,,2025-04-01,1,,,,,ドュエコルデ,0
228,2011401026936,新規,0,2025-04-01,2025-04-01,錦源株式会社,,株式会社,東京都,板橋区,徳丸１丁目５０－１７,,13,119,1750083,,,,,,,2025-04-01,1,,,,,キンゲン,0
233,2011801045874,新規,0,2025-04-01,2025-04-01,株式会社コンチネンタルジャパン,,株式会社,東京都,足立区,梅田５丁目９番１６－３０６号,,13,121,1230851,,,,,,,2025-04-01,1,,,,,コンチネンタルジャパン,0
237,2012801023837,新規,0,2025-04-01,2025-04-01,株式会社Ｔ．Ｅ．Ｎ,,株式会社,東京都,立川市,富士見町２丁目７－２１パールハイツ３０６,,13,202,1900013,,,,,,,2025-04-01,1,,,,,ティーイーエヌ,0
238,2012803003671,新規,0,2025-04-01,2025-04-01,合同会社ＦｕｊｉＴＡＸ,,合同会社,東京都,国立市,中１丁目８番５８号国立サンハイツ２０１,,13,215,1860004,,,,,,,2025-04-01,1,,,,,フジタックス,0
239,2013303007592,新規,0,2025-04-01,2025-04-01,合同会社ＤＯＮＵＴ,,合同会社,東京都,豊島区,南池袋１丁目１１番１９－２４１１号,,13,116,1710022,,,,,,,2025-04-01,1,,,,,ドーナツ,0
242,2020001162059,新規,0,2025-04-01,2025-04-01,株式会社祭花,,株式会社,神奈川県,横浜市都筑区,茅ケ崎中央１０番７号２階,,14,118,2240032,,,,,,,2025-04-01,1,,,,,マツリカ,0
257,2030001165622,新規,0,2025-04-01,2025-04-01,株式会社ＲＡＶＥＮＴ,,株式会社,埼玉県,越谷市,南越谷３丁目２７番３６号,,11,222,3430845,,,,,,,2025-04-01,1,,,,,レイヴェント,0
258,2030001165630,新規,0,2025-04-01,2025-04-01,株式会社ｓｃｒｅｗ,,株式会社,埼玉県,所沢市,西所沢１丁目２５番３－１０２号,,11,208,3591144,,,,,,,2025-04-01,1,,,,,スクリュー,0
259,2030001165655,新規,0,2025-04-01,2025-04-01,株式会社Ｍ’Ｓ　ＣＲＥＡＴＥ,,株式会社,埼玉県,川口市,差間１丁目８番３号,,11,203,3330816,,,,,,,2025-04-01,1,,,,,エムズクリエイト,0
261,2030003026459,新規,0,2025-04-01,2025-04-01,合同会社梢工藝,,合同会社,埼玉県,さいたま市岩槻区,上里２丁目５－１０６,,11,110,3390006,,,,,,,2025-04-01,1,,,,,コズエコウゲイ,0
264,2040003027126,新規,0,2025-04-01,2025-04-01,合同会社マネーリリー,,合同会社,千葉県,八街市,文違３０１番地２３５１,,12,230,2891104,,,,,,,2025-04-01,1,,,,,マネーリリー,0
268,2060001038057,新規,0,2025-04-01,2025-04-01,株式会社ＣＲＥＷＺ,,株式会社,栃木県,栃木市,藤岡町藤岡１４７１番地２,,09,203,3231104,,,,,,,2025-04-01,1,,,,,クルーズ,0
273,2090003002792,新規,0,2025-04-01,2025-04-01,ＡＳＩＡＮ　ＳＨＯＫＡＩ合同会社,,合同会社,山梨県,富士吉田市,下吉田３丁目３７番１７－２０６号室,,19,202,4030004,,,,,,,2025-04-01,1,,,,,エイシアンショウカイ,0
274,2100003008061,新規,0,2025-04-01,2025-04-01,合同会社あかうか,,合同会社,長野県,南佐久郡南牧村,大字海ノ口字西手原２２３９－２７海の口自然郷Ｋ－４１１,,20,305,3841302,,,,,,,2025-04-01,1,,,,,アカウカ,0
276,2110001039149,新規,0,2025-04-01,2025-04-01,株式会社新潟みちしるべ,,株式会社,新潟県,上越市,大島区嶺２２６６番地,,15,222,9421101,,,,,,,2025-04-01,1,,,,,ニイガタミチシルベ,0
280,2120001274091,新規,0,2025-04-01,2025-04-01,Ｔｅｂｉｚ株式会社,,株式会社,大阪府,大阪市中央区,島之内１丁目３番２０号６０２号室,,27,128,5420082,,,,,,,2025-04-01,1,,,,,テビズ,0
281,2120001274141,新規,0,2025-04-01,2025-04-01,ＩＷＡコーポレーション株式会社,,株式会社,大阪府,大阪市中央区,久太郎町２丁目４番１１号クラボウアネックスビル１３階,,27,128,5410056,,,,,,,2025-04-01,1,,,,,アイダブルエーコーポレーション,0
290,2122001039012,新規,0,2025-04-01,2025-04-01,株式会社マルチクラフトコーポレーション,,株式会社,大阪府,四條畷市,岡山２丁目５－２,,27,229,5750002,,,,,,,2025-04-01,1,,,,,マルチクラフトコーポレーション,0
291,2122001039029,新規,0,2025-04-01,2025-04-01,株式会社クリアテック,,株式会社,大阪府,東大阪市,長田東２丁目３番２２号長田東條ビル４Ｆ,,27,227,5770012,,,,,,,2025-04-01,1,,,,,クリアテック,0
299,2140001137916,新規,0,2025-04-01,2025-04-01,ＦＯＲＴＲＥＳＳ株式会社,,株式会社,兵庫県,神戸市中央区,御幸通８丁目１番６号,,28,110,6510087,,,,,,,2025-04-01,1,,,,,フォートレス,0
300,2140003021845,新規,0,2025-04-01,2025-04-01,合同会社バイアンドセル,,合同会社,兵庫県,尼崎市,西長洲町２丁目１３番５号３０２号室,,28,202,6600805,,,,,,,2025-04-01,1,,,,,バイアンドセル,0
302,2150003003537,新規,0,2025-04-01,2025-04-01,合同会社全国美容レベル向上協会,,合同会社,奈良県,奈良市,富雄元町４丁目４番２３－５号,,29,201,6310078,,,,,,,2025-04-01,1,,,,,ゼンコクビヨウレベルコウジョウキョウカイ,0
309,2180001166093,新規,0,2025-04-01,2025-04-01,株式会社Ｃｏｒｎｉｅｒ,,株式会社,愛知県,一宮市,明地字江口５２－２,,23,203,4940012,,,,,,,2025-04-01,1,,,,,コルニエ,0
313,2220001026565,新規,0,2025-04-01,2025-04-01,神明町鷹株式会社,,株式会社,石川県,七尾市,神明町イ部１２番地,,17,202,9260046,,,,,,,2025-04-01,1,,,,,シンメイチョウタカ,0
314,2220003003983,新規,0,2025-04-01,2025-04-01,久遠合同会社,,合同会社,石川県,加賀市,大聖寺三ツ町錦城ケ丘４１番地１０,,17,206,9220851,,,,,,,2025-04-01,1,,,,,クオン,0
318,2240003007132,新規,0,2025-04-01,2025-04-01,合同会社ＫＯＹＯＲＩ,,合同会社,広島県,東広島市,八本松町原１０６１３番地３６,,34,212,7390151,,,,,,,2025-04-01,1,,,,,コヨリ,0
327,2290001109487,新規,0,2025-04-01,2025-04-01,株式会社Ｇｌｏｂａｌ　Ｌｉｆｅ　Ｓｕｐｐｏｒｔ　ＡｌｏｈａＳｐｉｒｉｔ一緒,,株式会社,福岡県,大川市,大字下牟田口４７４番地５,,40,212,8310023,,,,,,,2025-04-01,1,,,,,グローバルライフサポートアロハスピリットイッショ,0
330,2290003016608,新規,0,2025-04-01,2025-04-01,合同会社橋本市下兵庫バッテリープレイス,,合同会社,福岡県,福岡市南区,大楠１丁目４番２２号,,40,134,8150082,,,,,,,2025-04-01,1,,,,,ハシモトシシモヒョウゴバッテリープレイス,0
347,2380001035195,新規,0,2025-04-01,2025-04-01,株式会社やまいわ農園,,株式会社,福島県,耶麻郡猪苗代町,大字壺楊字壺下２５番地,,07,408,9692274,,,,,,,2025-04-01,1,,,,,ヤマイワノウエン,0
348,2380003006005,新規,0,2025-04-01,2025-04-01,合同会社ＴＲＩＢＥ,,合同会社,福島県,郡山市,大槻町字花輪前１０番地の１１,,07,203,9630201,,,,,,,2025-04-01,1,,,,,トライブ,0
352,2430001094038,新規,0,2025-04-01,2025-04-01,株式会社ＳＢＯ,,株式会社,北海道,札幌市豊平区,月寒東四条１７丁目１０番２０号,,01,105,0620054,,,,,,,2025-04-01,1,,,,,エスビーオー,0
357,2460103001698,新規,0,2025-04-01,2025-04-01,合同会社３５ｓｍｉｌｅ,,合同会社,北海道,中川郡幕別町,札内北栄町１９番地７,,01,643,0890537,,,,,,,2025-04-01,1,,,,,サンゴスマイル,0
360,2500001026215,新規,0,2025-04-01,2025-04-01,株式会社ＫＬＨ,,株式会社,愛媛県,松山市,松前町５丁目５番地４,,38,201,7900812,,,,,,,2025-04-01,1,,,,,ケイエルエイチ,0
363,2700150129780,新規,0,2025-04-01,2025-04-01,Ｙｕｎｓｈａｎｇ　Ｑｉｎｇｃｈｕａｎ（Ｘｉａｍｅｎ）Ｅ－ｃｏｍｍｅｒｃｅ　Ｃｏ．，Ｌｔｄ,,外国会社等,,,,,,,,Ｏｎｅ　ｏｆ　Ｒｏｏｍ　２０２，Ｎｏ．３８４，Ｈｅｎｇｔｉａｎ　Ｒｏａｄ，Ｊｉｍｅｉ　Ｄｉｓｔｒｉｃｔ，Ｘｉａｍｅｎ　Ｃｉｔｙ,,,,,,2025-04-01,1,,,,,ユンシャンチンツァンシャメンイーコマースカンパニーリミテッド,0
371,3010001253659,新規,0,2025-04-01,2025-04-01,ＮａｎｏＨｕｍａｎ株式会社,,株式会社,東京都,中央区,晴海５丁目３－２－９２４,,13,102,1040053,,,,,,,2025-04-01,1,,,,,ナノヒューマン,0
372,3010001253675,新規,0,2025-04-01,2025-04-01,株式会社聖流床研究所,,株式会社,東京都,中央区,銀座６丁目９番－１４号方圓ビル２Ｆ,,13,102,1040061,,,,,,,2025-04-01,1,,,,,セイリュウショウケンキュウジョ,0
379,3010401189230,新規,0,2025-04-01,2025-04-01,株式会社トビーフィルム,,株式会社,東京都,港区,芝５丁目３６－４－９階,,13,103,1080014,,,,,,,2025-04-01,1,,,,,トビーフィルム,0
380,3010401189247,新規,0,2025-04-01,2025-04-01,株式会社ＳＹＫ　Ｂｒｉｄｇｅ,,株式会社,東京都,港区,西麻布４丁目１番１０号,,13,103,1060031,,,,,,,2025-04-01,1,,,,,シークブリッジ,0
381,3010401189271,新規,0,2025-04-01,2025-04-01,株式会社ＺＯＮＥ,,株式会社,東京都,港区,南青山１丁目１６番３号,,13,103,1070062,,,,,,,2025-04-01,1,,,,,ゾーン,0
382,3010403034715,新規,0,2025-04-01,2025-04-01,ｓｐｅｃ合同会社,,合同会社,東京都,港区,南青山３丁目１番３６号青山丸竹ビル６Ｆ,,13,103,1070062,,,,,,,2025-04-01,1,,,,,スペック,0
388,3010801035975,新規,0,2025-04-01,2025-04-01,Ｆ株式会社,,株式会社,東京都,大田区,西六郷３丁目１７番１２号ＷＥＳＴＳＩＸ２０５,,13,111,1440056,,,,,,,2025-04-01,1,,,,,エフ,0
393,3011003021236,新規,0,2025-04-01,2025-04-01,合同会社Ｒ‐Ｌａｂ,,合同会社,東京都,渋谷区,道玄坂１丁目１０番８号渋谷道玄坂東急ビル２Ｆ－Ｃ,,13,113,1500043,,,,,,,2025-04-01,1,,,,,アールラボ,0
397,3011301030467,新規,0,2025-04-01,2025-04-01,豊天株式会社,,株式会社,東京都,杉並区,高井戸東４丁目２２番１２号サンライズヴィラ浜田山１０２,,13,115,1680072,,,,,,,2025-04-01,1,,,,,トヨテン,0
398,3011603004648,新規,0,2025-04-01,2025-04-01,醫事洋行合同会社,,合同会社,東京都,練馬区,東大泉５丁目３６番６号,,13,120,1780063,,,,,,,2025-04-01,1,,,,,イジヨウコウ,0
401,3011803006766,新規,0,2025-04-01,2025-04-01,合同会社Ｐａｔｒｉｃｋ　Ｒｅａｌ　Ｅｓｔａｔｅ,,合同会社,東京都,葛飾区,宝町１丁目１番１６号,,13,122,1240005,,,,,,,2025-04-01,1,,,,,パトリックリアルエステート,0
404,3012803003679,新規,0,2025-04-01,2025-04-01,合同会社ＱＺ　Ｃｏｍｐａｎｙ,,合同会社,東京都,国立市,西２丁目８番地の６４,,13,215,1860005,,,,,,,2025-04-01,1,,,,,キューゼットカンパニー,0
408,3021001084770,新規,0,2025-04-01,2025-04-01,タクシーチャンネル不動産株式会社,,株式会社,神奈川県,藤沢市,辻堂神台１丁目１－３－３９オザワビル５階５０１－１２,,14,205,2510041,,,,,,,2025-04-01,1,,,,,タクシーチャンネルフドウサン,0
415,3030001165646,新規,0,2025-04-01,2025-04-01,ＴＢＧ　ｊａｐａｎ株式会社,,株式会社,埼玉県,川口市,本蓮２丁目２３番８号,00138516,11,203,3340076,,,,,,,2025-04-01,1,,,,,ティービージージャパン,0
425,3040001138007,新規,0,2025-04-01,2025-04-01,株式会社Ｒｅｃｌｅａｎ,,株式会社,千葉県,千葉市稲毛区,長沼原町７０９番地４ニューハイム７０９－１０１号,,12,103,2630001,,,,,,,2025-04-01,1,,,,,リクリーン,0
431,3070001042783,新規,0,2025-04-01,2025-04-01,小竹工芸所株式会社,,株式会社,群馬県,前橋市,東片貝町４６６番地３,,10,201,3710012,,,,,,,2025-04-01,1,,,,,コタケコウゲイショ,0
435,3070003005846,新規,0,2025-04-01,2025-04-01,ＶＩＲＫ　ＴＲＡＤＩＮＧ合同会社,,合同会社,群馬県,伊勢崎市,連取本町１１４－１,,10,204,3720817,,,,,,,2025-04-01,1,,,,,ヴィルクトレーディング,0
437,3080103003286,新規,0,2025-04-01,2025-04-01,ＡＹＯ合同会社,,合同会社,静岡県,富士市,中之郷３１１３番地の３,,22,210,4213306,,,,,,,2025-04-01,1,,,,,エーワイオー,0
440,3100001038332,新規,0,2025-04-01,2025-04-01,貴石サイエンス松本株式会社,,株式会社,長野県,松本市,中央１丁目２０－１ＭＹビル１階,,20,202,3900811,,,,,,,2025-04-01,1,,,,,キセキサイエンスマツモト,0
451,3120001274058,新規,0,2025-04-01,2025-04-01,Ｍａｒｔｉｎ株式会社,,株式会社,大阪府,大阪市中央区,高津３丁目１４番３２－１０９号,,27,128,5420072,,,,,,,2025-04-01,1,,,,,マーティン,0
452,3120001274066,新規,0,2025-04-01,2025-04-01,錦業国際株式会社,,株式会社,大阪府,大阪市東成区,大今里３丁目４番４号,,27,115,5370012,,,,,,,2025-04-01,1,,,,,キンギョウコクサイ,0
454,3120003028882,新規,0,2025-04-01,2025-04-01,合同会社ＴＯＴＯＮＯＴＴＥ,,合同会社,大阪府,大阪市大正区,千島１丁目２３－８５,,27,108,5510003,,,,,,,2025-04-01,1,,,,,トトノッテ,0
455,3120003028998,新規,0,2025-04-01,2025-04-01,合同会社おたすけたろう,,合同会社,大阪府,大阪市住吉区,万代５丁目１３番６－１２０３号,,27,120,5580055,,,,,,,2025-04-01,1,,,,,オタスケタロウ,0
465,3130001079258,新規,0,2025-04-01,2025-04-01,株式会社京極,,株式会社,京都府,京都市下京区,七条通油小路東入大黒町２２７番地第２キョートビル４０２,,26,106,6008223,,,,,,,2025-04-01,1,,,,,キョウゴク,0
466,3130001079282,新規,0,2025-04-01,2025-04-01,潤元株式会社,,株式会社,京都府,京都市伏見区,深草向川原町４４番地５５、２０１号室,,26,109,6128404,,,,,,,2025-04-01,1,,,,,ウルモト,0
471,3140001137865,新規,0,2025-04-01,2025-04-01,株式会社ＰＲＯＳＰＥＣＴ,,株式会社,兵庫県,多可郡多可町,八千代区中野間１０６２－１,,28,365,6770121,,,,,,,2025-04-01,1,,,,,プロスペクト,0
472,3140001137923,新規,0,2025-04-01,2025-04-01,株式会社トップランＳＴ,,株式会社,兵庫県,加古川市,平岡町一色９３番地,,28,210,6750115,,,,,,,2025-04-01,1,,,,,トップランエスティー,0
473,3140001137956,新規,0,2025-04-01,2025-04-01,株式会社ｄｅ　ｌｉａｉｓｏｎ,,株式会社,兵庫県,姫路市,大塩町１８８－１,,28,201,6710101,,,,,,,2025-04-01,1,,,,,ドゥリエゾン,0
475,3140003021860,新規,0,2025-04-01,2025-04-01,エムツーディー合同会社,,合同会社,兵庫県,西宮市,瓦林町２４－２－５０５,,28,204,6638107,,,,,,,2025-04-01,1,,,,,エムツーディー,0
476,3140005027402,新規,0,2025-04-01,2025-04-01,一般社団法人キャタリストジャパン,,その他の設立登記法人,兵庫県,姫路市,飾磨区英賀清水町２丁目９番地４,,28,201,6728084,,,,,,,2025-04-01,1,,,,,キャタリストジャパン,0
484,3180001166035,新規,0,2025-04-01,2025-04-01,株式会社ＢｉｚＡｉｄ,,株式会社,愛知県,名古屋市中村区,横前町１１０番地,,23,105,4530864,,,,,,,2025-04-01,1,,,,,ビズエイド,0
485,3180001166084,新規,0,2025-04-01,2025-04-01,株式会社Ｌ＆Ｐ,,株式会社,愛知県,名古屋市中区,新栄２丁目４０番６号グランルクレ新栄ウエスト９０３号,,23,106,4600007,,,,,,,2025-04-01,1,,,,,エルアンドピー,0
486,3180001166126,新規,0,2025-04-01,2025-04-01,乗り物研究所株式会社,,株式会社,愛知県,豊明市,阿野町明定４３番地,,23,229,4701141,,,,,,,2025-04-01,1,,,,,ノリモノケンキュウジョ,0
487,3180001166134,新規,0,2025-04-01,2025-04-01,株式会社ＯＵＫＡＮＵＴＳ,,株式会社,愛知県,名古屋市西区,城町１５４番地の２,,23,104,4520842,,,,,,,2025-04-01,1,,,,,オウカナッツ,0
492,3180301039667,新規,0,2025-04-01,2025-04-01,ｔａｒｅｍｅ株式会社,,株式会社,愛知県,豊橋市,牛川町字洗島１９番地の６,,23,201,4400016,,,,,,,2025-04-01,1,,,,,タレメ,0
495,3200001043578,新規,0,2025-04-01,2025-04-01,株式会社ジーウェーブグループ,,株式会社,岐阜県,大垣市,今宿６丁目５２番地１６ドリームコア５０３,,21,202,5030807,,,,,,,2025-04-01,1,,,,,ジーウェーブグループ,0
499,3220001026580,新規,0,2025-04-01,2025-04-01,株式会社ＬＯＧＩＣ,,株式会社,石川県,金沢市,泉が丘１丁目３番１０号,,17,201,9218035,,,,,,,2025-04-01,1,,,,,ロジック,0
511,3290001109478,新規,0,2025-04-01,2025-04-01,株式会社Ｓｈａｎｔｉ３３,,株式会社,福岡県,福岡市中央区,警固１丁目１番１０－１１０３号エステート・モア警固本通り,,40,133,8100023,,,,,,,2025-04-01,1,,,,,シャンティサンジュウサン,0
512,3290001109486,新規,0,2025-04-01,2025-04-01,株式会社波乗り三太,,株式会社,福岡県,福岡市西区,大字西浦２８５－Ｃ,,40,135,8190202,,,,,,,2025-04-01,1,,,,,ナミノリサンタ,0
517,3290003016615,新規,0,2025-04-01,2025-04-01,合同会社エスケープ,,合同会社,福岡県,福岡市南区,大橋１丁目２０－１０－１１０９,,40,134,8150033,,,,,,,2025-04-01,1,,,,,エスケープ,0
519,3330001032997,新規,0,2025-04-01,2025-04-01,株式会社Ｒｏｓｅ,,株式会社,熊本県,熊本市中央区,中央街１０－１４,,43,101,8600802,,,,,,,2025-04-01,1,,,,,ローズ,0
529,3360001034974,新規,0,2025-04-01,2025-04-01,株式会社添ｓｏｅｒｕ,,株式会社,沖縄県,宜野湾市,字我如古４１６番地２信和ビル１０２号室,,47,205,9012214,,,,,,,2025-04-01,1,,,,,ソエル,0
533,3370001052397,新規,0,2025-04-01,2025-04-01,ナウテック株式会社,,株式会社,宮城県,柴田郡大河原町,大谷字見城前１８番地５,,04,321,9891201,,,,,,,2025-04-01,1,,,,,ナウテック,0
534,3370003007003,新規,0,2025-04-01,2025-04-01,フジワラ電気合同会社,,合同会社,宮城県,登米市,迫町佐沼字錦２０６番地２,,04,212,9870511,,,,,,,2025-04-01,1,,,,,フジワラデンキ,0
537,3380001035194,新規,0,2025-04-01,2025-04-01,株式会社エフェクト,,株式会社,福島県,双葉郡広野町,大字下浅見川字築地４７－６,,07,541,9790403,,,,,,,2025-04-01,1,,,,,エフェクト,0
543,3480003002249,新規,0,2025-04-01,2025-04-01,合同会社縁,,合同会社,徳島県,板野郡板野町,大寺字岡山路８－４７５,,36,404,7790105,,,,,,,2025-04-01,1,,,,,エニシ,0
555,4010001253534,新規,0,2025-04-01,2025-04-01,株式会社ディープストーン・パートナーズ,,株式会社,東京都,千代田区,丸の内１丁目８番３号丸の内トラストタワー本館２０階,,13,101,1000005,,,,,,,2025-04-01,1,,,,,ディープストーンパートナーズ,0
556,4010001253625,新規,0,2025-04-01,2025-04-01,ＡＹ株式会社,,株式会社,東京都,中央区,銀座１丁目１２番４号Ｎ＆Ｅビル６Ｆ,,13,102,1040061,,,,,,,2025-04-01,1,,,,,エーワイ,0
557,4010001253641,新規,0,2025-04-01,2025-04-01,ＦＣＦ株式会社,,株式会社,東京都,千代田区,丸の内３丁目２番２号２階４５号室,,13,101,1000005,,,,,,,2025-04-01,1,,,,,エフシーエフ,0
558,4010001253674,新規,0,2025-04-01,2025-04-01,株式会社エグゼラ,,株式会社,東京都,千代田区,九段南１丁目５番６号りそな九段ビル５ＦＫＳフロア,,13,101,1020074,,,,,,,2025-04-01,1,,,,,エグゼラ,0
562,4010003046894,新規,0,2025-04-01,2025-04-01,焔綾邸合同会社,,合同会社,東京都,千代田区,神田須田町１丁目７－８ＶＯＲＴ秋葉原ＩＶ２Ｆ,00138514,13,101,1010041,,,,,,,2025-04-01,1,,,,,ホムラアヤヤシキ,0
563,4010005039806,新規,0,2025-04-01,2025-04-01,一般社団法人地方創生デジタルマーケティング協会,,その他の設立登記法人,東京都,文京区,向丘１丁目７番１５号－２０１号室,,13,105,1130023,,,,,,,2025-04-01,1,,,,,チホウソウセイデジタルマーケティングキョウカイ,0
571,4010401189246,新規,0,2025-04-01,2025-04-01,株式会社ＶＩＥＷＳ,,株式会社,東京都,港区,東麻布１丁目９番１１号Ｗ－２６,,13,103,1060044,,,,,,,2025-04-01,1,,,,,ビューズ,0
572,4010401189270,新規,0,2025-04-01,2025-04-01,株式会社ＳｔａｒＸ,,株式会社,東京都,港区,芝浦３丁目１２番２号やまとビル４階,,13,103,1080023,,,,,,,2025-04-01,1,,,,,スタークス,0
573,4010401189287,新規,0,2025-04-01,2025-04-01,日本賽功株式会社,,株式会社,東京都,港区,東麻布２丁目２２番５号ＡＺＡＢＵ・ＥＡＳＴ・ＣＯＵＲＴ１階１０６Ｃ,,13,103,1060044,,,,,,,2025-04-01,1,,,,,ニホンサイコウ,0
574,4010403034747,新規,0,2025-04-01,2025-04-01,低圧セカンダリー太陽光合同会社,,合同会社,東京都,港区,西新橋１丁目１８番地１７明産西新橋ビル３Ｆ,,13,103,1050003,,,,,,,2025-04-01,1,,,,,テイアツセカンダリータイヨウコウ,0
575,4010405024259,新規,0,2025-04-01,2025-04-01,新世界ホールディング２一般社団法人,,その他の設立登記法人,東京都,港区,虎ノ門３丁目２２番１０－２０１号,,13,103,1050001,,,,,,,2025-04-01,1,,,,,シンセカイホールディングツー,0
589,4011001168474,新規,0,2025-04-01,2025-04-01,株式会社ＳａｌｅｓＴａｉｌｏｒ,,株式会社,東京都,渋谷区,神南１丁目１１－４ＦＰＧリンクス神南５階,,13,113,1500041,,,,,,,2025-04-01,1,,,,,セールステイラー,0
590,4011001168656,新規,0,2025-04-01,2025-04-01,株式会社ＴｉｖｉＴｉ,,株式会社,東京都,渋谷区,神南１丁目２０－１３－３Ｆ．ａｎｄｗｏｒｋ渋谷内,,13,113,1500041,,,,,,,2025-04-01,1,,,,,ティビティ,0
591,4011003021227,新規,0,2025-04-01,2025-04-01,合同会社ＳＡＴＡＮＡＭＡ,,合同会社,東京都,渋谷区,鶯谷町１－２－３Ｆ,,13,113,1500032,,,,,,,2025-04-01,1,,,,,サタナマ,0
592,4011003021326,新規,0,2025-04-01,2025-04-01,ＯＮＥ　ＷＡＶＥ合同会社,,合同会社,東京都,渋谷区,道玄坂１丁目１０番８号渋谷道玄坂東急ビル２Ｆ‐Ｃ,,13,113,1500043,,,,,,,2025-04-01,1,,,,,ワンウェーブ,0
600,4011401026967,新規,0,2025-04-01,2025-04-01,株式会社ＳＣＡＬＥ,,株式会社,東京都,板橋区,常盤台４丁目２９番１５号,,13,119,1740071,,,,,,,2025-04-01,1,,,,,スカーレ,0
602,4011603004647,新規,0,2025-04-01,2025-04-01,合同会社アドバンスショップ,,合同会社,東京都,練馬区,田柄２丁目３２番２６号,,13,120,1790073,,,,,,,2025-04-01,1,,,,,アドバンスショップ,0
604,4011701028201,新規,0,2025-04-01,2025-04-01,株式会社Ｇｒｏｕｎｄｉｎｇ,,株式会社,東京都,江戸川区,西瑞江４丁目１４－６３サンシティ１階,,13,123,1340015,,,,,,,2025-04-01,1,,,,,グラウンディング,0
608,4011803006773,新規,0,2025-04-01,2025-04-01,合同会社Ｚａｉｍｌｙ,,合同会社,東京都,足立区,千住関屋町１０番１４―２０１号,,13,121,1200024,,,,,,,2025-04-01,1,,,,,ザイムリー,0
609,4012801023851,新規,0,2025-04-01,2025-04-01,ＴＯＲＡＮＥ株式会社,,株式会社,東京都,国分寺市,南町２丁目１１番８－２０６号,,13,214,1850021,,,,,,,2025-04-01,1,,,,,トラネ,0
612,4021001084828,新規,0,2025-04-01,2025-04-01,和み組合株式会社,,株式会社,神奈川県,相模原市南区,上鶴間本町７丁目１１番２－３０５号,,14,153,2520318,,,,,,,2025-04-01,1,,,,,ナゴミクミアイ,0
614,4021003015780,新規,0,2025-04-01,2025-04-01,合同会社幸心創,,合同会社,神奈川県,相模原市中央区,淵野辺２丁目３番１１号,,14,152,2520206,,,,,,,2025-04-01,1,,,,,ココソネ,0
615,4021005013312,新規,0,2025-04-01,2025-04-01,一般社団法人ハビリスデザイン,,その他の設立登記法人,神奈川県,藤沢市,石川２丁目２６－１４,,14,205,2520815,,,,,,,2025-04-01,1,,,,,ハビリスデザイン,0
620,4030001165637,新規,0,2025-04-01,2025-04-01,株式会社Ｍ’ｓ工房,,株式会社,埼玉県,川口市,大字赤山２番地の１５,,11,203,3330825,,,,,,,2025-04-01,1,,,,,エムズコウボウ,0
623,4030003026449,新規,0,2025-04-01,2025-04-01,合同会社ＭＭ,,合同会社,埼玉県,ふじみ野市,上福岡１丁目５－２３－１０１,,11,245,3560004,,,,,,,2025-04-01,1,,,,,エムエム,0
629,4040001138063,新規,0,2025-04-01,2025-04-01,Ｎｅｗ　Ｈｉｓｔｏｒｙ株式会社,,株式会社,千葉県,松戸市,本町１７－１１芹澤ビル６Ｆ,,12,207,2710091,,,,,,,2025-04-01,1,,,,,ニューヒストリー,0
631,4050001004594,新規,0,2025-04-01,2025-04-01,セレクトア建設株式会社,,株式会社,茨城県,那珂郡那珂町,菅谷３０２３番地の４,,08,342,3110100,,,,,,,2025-04-01,1,,,,,セレクトアケンセツ,0
632,4050001056421,新規,0,2025-04-01,2025-04-01,茨城ボーサイサービスホールディングス株式会社,,株式会社,茨城県,ひたちなか市,大字高場１８１１番地２３,,08,221,3120062,,,,,,,2025-04-01,1,,,,,イバラキボーサイサービスホールディングス,0
634,4070003005845,新規,0,2025-04-01,2025-04-01,アースワン合同会社,,合同会社,群馬県,伊勢崎市,東小保方町３９７９番地１１,,10,204,3792234,,,,,,,2025-04-01,1,,,,,アースワン,0
642,4120001274073,新規,0,2025-04-01,2025-04-01,株式会社ウィングス,,株式会社,大阪府,大阪市中央区,島之内１丁目１番１４号三和ビル３階３０８号,,27,128,5420082,,,,,,,2025-04-01,1,,,,,ウィングス,0
643,4120003028964,新規,0,2025-04-01,2025-04-01,日本夢合同会社,,合同会社,大阪府,大阪市阿倍野区,昭和町４丁目２番９号ルンルン昭和町３０２号室,,27,119,5450011,,,,,,,2025-04-01,1,,,,,ニホンユメ,0
644,4120003028997,新規,0,2025-04-01,2025-04-01,合同会社すずめハウス,,合同会社,大阪府,枚方市,東香里新町１番７号,,27,210,5730077,,,,,,,2025-04-01,1,,,,,スズメハウス,0
645,4120003029005,新規,0,2025-04-01,2025-04-01,ＰＡＤＤＬＥ合同会社,,合同会社,大阪府,大阪市此花区,春日出北１丁目１番４号スグリビル２０１,,27,104,5540021,,,,,,,2025-04-01,1,,,,,パドル,0
646,4120003029013,新規,0,2025-04-01,2025-04-01,合同会社ペラリス,,合同会社,大阪府,大阪市住吉区,我孫子３丁目８－７,,27,120,5580014,,,,,,,2025-04-01,1,,,,,ペラリス,0
652,4122001039035,新規,0,2025-04-01,2025-04-01,株式会社ＵｐＳｈｉｐ,,株式会社,大阪府,柏原市,平野１丁目８番３７号,,27,221,5820019,,,,,,,2025-04-01,1,,,,,アップシップ,0
653,4122003003154,新規,0,2025-04-01,2025-04-01,なないろ合同会社,,合同会社,大阪府,八尾市,南木の本４丁目１番地の１０,,27,212,5810042,,,,,,,2025-04-01,1,,,,,ナナイロ,0
666,4140001137939,新規,0,2025-04-01,2025-04-01,株式会社御崎圧送,,株式会社,兵庫県,赤穂市,朝日町５番地１８,,28,212,6780214,,,,,,,2025-04-01,1,,,,,ミサキアッソウ,0
667,4140001137947,新規,0,2025-04-01,2025-04-01,株式会社Ｃａｓａｎｅｌ,,株式会社,兵庫県,神戸市西区,学園西町４丁目２０番地の１０,,28,111,6512103,,,,,,,2025-04-01,1,,,,,カサネル,0
668,4140001137963,新規,0,2025-04-01,2025-04-01,株式会社ｔｅｋｋａｂａ,,株式会社,兵庫県,神戸市中央区,中山手通２丁目１０番２号,,28,110,6500004,,,,,,,2025-04-01,1,,,,,テッカバ,0
672,4140003021843,新規,0,2025-04-01,2025-04-01,ＫＫＳ合同会社,,合同会社,兵庫県,神戸市中央区,楠町６丁目１２番２０－１０１号,,28,110,6500017,,,,,,,2025-04-01,1,,,,,ケイケイエス,0
673,4160001026636,新規,0,2025-04-01,2025-04-01,株式会社眞誠,,株式会社,滋賀県,犬上郡甲良町,大字尼子４８１番地３,,25,442,5220242,,,,,,,2025-04-01,1,,,,,シンセイ,0
679,4180001166100,新規,0,2025-04-01,2025-04-01,Ｋ．ＣＯＮＮＥＣＴ株式会社,,株式会社,愛知県,名古屋市緑区,大高町字本銭瓶１３番地１５,,23,114,4598001,,,,,,,2025-04-01,1,,,,,ケイコネクト,0
680,4180001166117,新規,0,2025-04-01,2025-04-01,株式会社ＧＬＯＢＡＬ　ＥＸＰＯＲＴ,,株式会社,愛知県,名古屋市港区,宝神３丁目３０５ガーデンヒルズ宝神２０６,,23,111,4550832,,,,,,,2025-04-01,1,,,,,グローバルエクスポート,0
684,4180003028232,新規,0,2025-04-01,2025-04-01,ＶＩＳＰＯ合同会社,,合同会社,愛知県,北名古屋市,九之坪菰口７０番地エターナル１Ｃ号,,23,234,4810041,,,,,,,2025-04-01,1,,,,,ヴィスポ,0
687,4210001020113,新規,0,2025-04-01,2025-04-01,株式会社平岡急送,,株式会社,福井県,敦賀市,山泉７３号８１３番地,,18,202,9140035,,,,,,,2025-04-01,1,,,,,ヒラオカキュウソウ,0
688,4220003003981,新規,0,2025-04-01,2025-04-01,合同会社Ｒｉｃｈｅ,,合同会社,石川県,金沢市,材木町６番９号,,17,201,9200921,,,,,,,2025-04-01,1,,,,,リッシュ,0
697,4260001040049,新規,0,2025-04-01,2025-04-01,小満株式会社,,株式会社,岡山県,岡山市北区,野田２丁目６番２号,,33,101,7000971,,,,,,,2025-04-01,1,,,,,ショウマン,0
698,4260001040057,新規,0,2025-04-01,2025-04-01,株式会社ＤＥＴＡＩＬＡＲＴＩＳＴ,,株式会社,岡山県,岡山市南区,浜野４丁目３番１８号,,33,104,7000845,,,,,,,2025-04-01,1,,,,,ディテールアーティスト,0
699,4270003001725,新規,0,2025-04-01,2025-04-01,大東工務店合同会社,,合同会社,鳥取県,米子市,葭津１３３０,,31,202,6830105,,,,,,,2025-04-01,1,,,,,ダイトウコウムテン,0
701,4290001109469,新規,0,2025-04-01,2025-04-01,株式会社スマイルリンク・ソリューションズ,,株式会社,福岡県,朝倉市,杷木林田８１３番地１,,40,228,8381506,,,,,,,2025-04-01,1,,,,,スマイルリンクソリューションズ,0
702,4290001109477,新規,0,2025-04-01,2025-04-01,ティーワイ企画株式会社,,株式会社,福岡県,飯塚市,綱分６８９番地２６,,40,205,8200101,,,,,,,2025-04-01,1,,,,,ティーワイキカク,0
704,4290003016548,新規,0,2025-04-01,2025-04-01,合同会社Ａ＆Ｋ,,合同会社,福岡県,福岡市博多区,那珂１丁目３番１２号,00138521,40,132,8120893,,,,,,,2025-04-01,1,,,,,エーアンドケー,0
705,4290805009815,新規,0,2025-04-01,2025-04-01,一般社団法人ティーエムメディカル,,その他の設立登記法人,福岡県,北九州市小倉北区,船場町三丁目５番地ファッションビル船場１階,,40,106,8020007,,,,,,,2025-04-01,1,,,,,ティーエムメディカル,0
710,4360003014809,新規,0,2025-04-01,2025-04-01,合同会社コバルトブルー,,合同会社,沖縄県,那覇市,牧志１丁目１２－１９リバーズパークサイドＩＩ３０２,00138515,47,201,9000013,,,,,,,2025-04-01,1,,,,,コバルトブルー,0
714,4380001035193,新規,0,2025-04-01,2025-04-01,株式会社吉田工業,,株式会社,福島県,いわき市,小名浜野田字田中１５７番地の６,,07,204,9718126,,,,,,,2025-04-01,1,,,,,ヨシダコウギョウ,0
715,4390003002364,新規,0,2025-04-01,2025-04-01,合同会社ＧＵＣ,,合同会社,山形県,最上郡最上町,大字法田３６３番地,,06,362,9996213,,,,,,,2025-04-01,1,,,,,ジーユーシー,0
718,4410001014103,新規,0,2025-04-01,2025-04-01,株式会社森のいぶき,,株式会社,秋田県,大館市,釈迦内字稲荷山下１３１番地１,00138520,05,204,0170012,,,,,,,2025-04-01,1,,,,,モリノイブキ,0
721,4420001019068,新規,0,2025-04-01,2025-04-01,株式会社奈良芸能,,株式会社,青森県,青森市,大字浜田字玉川２４７番地５,,02,201,0300843,,,,,,,2025-04-01,1,,,,,ナラゲイノウ,0
725,4430001094036,新規,0,2025-04-01,2025-04-01,株式会社三城運輸,,株式会社,北海道,小樽市,手宮１丁目５番１０号,,01,203,0470041,,,,,,,2025-04-01,1,,,,,サンジョウウンユ,0
727,4430003017457,新規,0,2025-04-01,2025-04-01,合同会社Ｔｈｉｎｋ　ａｎｄ　ＧＲＩＴ,,合同会社,北海道,札幌市厚別区,厚別北五条４丁目５番２０号,,01,108,0040075,,,,,,,2025-04-01,1,,,,,シンクアンドグリット,0
736,4700150129779,新規,0,2025-04-01,2025-04-01,Ｍｅｉｚｈｏｕ　Ｑｉｄｉａｎ　Ｔｒａｄｉｎｇ　Ｃｏ．，Ｌｔｄ,,外国会社等,,,,,,,,Ｗｕｈｕａｘｉａｎｓｈｕｉｚｈａｉｚｈｅｎｊｉｎｃｈｅｎｇｄａｄａｏｐａｎｇｋｕａｊｉｎｇｓｈｕｏａｏｍｅｎｗｅｉｌａｉｚｈｏｎｇｘｉｎ　ｗｕｈｕａ（ｙｕｅｄｏｎｇ）ｚｏｎｇｂｕｃｈａｎｙｅｙｕａｎ２ｈａｏｌｏｕ５０１ｓｈｉ　ｍｅｉｚｈｏｕｓｈｉ,,,,,,2025-04-01,1,,,,,メイゾウチデェントゥレイディングカンパニーリミテッド,0
748,5010001253608,新規,0,2025-04-01,2025-04-01,樋口ゴルフ株式会社,,株式会社,東京都,文京区,千駄木５丁目３８番１６－２０５号,,13,105,1130022,,,,,,,2025-04-01,1,,,,,ヒグチゴルフ,0
749,5010001253640,新規,0,2025-04-01,2025-04-01,アイワホールディングス株式会社,,株式会社,東京都,千代田区,大手町１丁目５番１号大手町ファーストスクエアイーストタワー４階,,13,101,1000004,,,,,,,2025-04-01,1,,,,,アイワホールディングス,0
750,5010003046919,新規,0,2025-04-01,2025-04-01,スカイフォレスト合同会社,,合同会社,東京都,中央区,銀座１丁目１２番４号Ｎ＆Ｅ－ＢＬＤ．７階,,13,102,1040061,,,,,,,2025-04-01,1,,,,,スカイフォレスト,0
751,5010005039838,新規,0,2025-04-01,2025-04-01,一般社団法人ＮＤＳＴ１,,その他の設立登記法人,東京都,千代田区,丸の内１丁目４番１号東京共同会計事務所内,,13,101,1000005,,,,,,,2025-04-01,1,,,,,ノダセトワン,0
756,5010401189195,新規,0,2025-04-01,2025-04-01,ＮＢＣ株式会社,,株式会社,東京都,港区,北青山１丁目３番１号アールキューブ青山３階,,13,103,1070061,,,,,,,2025-04-01,1,,,,,エヌビーシー,0
757,5010403034705,新規,0,2025-04-01,2025-04-01,和継合同会社,,合同会社,東京都,港区,芝浦３丁目１７番１１号天翔田町ビル２０９,,13,103,1080023,,,,,,,2025-04-01,1,,,,,ワツギ,0
760,5010405024258,新規,0,2025-04-01,2025-04-01,新世界ホールディング１一般社団法人,,その他の設立登記法人,東京都,港区,虎ノ門３丁目２２番１０－２０１号,,13,103,1050001,,,,,,,2025-04-01,1,,,,,シンセカイホールディングワン,0
774,5011001168580,新規,0,2025-04-01,2025-04-01,株式会社Ｔｈｅ　Ｓｏｒｃｅｒｅｒ,,株式会社,東京都,渋谷区,恵比寿南２丁目２５－１マートルコート恵比寿南２、４０４,,13,113,1500022,,,,,,,2025-04-01,1,,,,,ザソーサラー,0
775,5011001168787,新規,0,2025-04-01,2025-04-01,株式会社ＩＧＳＪ,,株式会社,東京都,渋谷区,千駄ヶ谷５丁目２６番５号代々木シティーホームズ４０１,,13,113,1510051,,,,,,,2025-04-01,1,,,,,アイジーエスジェー,0
776,5011303005473,新規,0,2025-04-01,2025-04-01,合同会社Ｎｅｗ　Ｓｔｅｐ,,合同会社,東京都,杉並区,高円寺北４丁目９番１号フェリスバロン１０５,,13,115,1660002,,,,,,,2025-04-01,1,,,,,ニューステップ,0
778,5011601028531,新規,0,2025-04-01,2025-04-01,株式会社Ｇｒｉｔ,,株式会社,東京都,練馬区,春日町４丁目２５番２３号,,13,120,1790074,,,,,,,2025-04-01,1,,,,,グリット,0
783,5011801045863,新規,0,2025-04-01,2025-04-01,金山メディカル株式会社,,株式会社,東京都,葛飾区,堀切７丁目２７－７名橋ビル２０６号室,,13,122,1240006,,,,,,,2025-04-01,1,,,,,カナヤマメディカル,0
784,5011801045871,新規,0,2025-04-01,2025-04-01,株式会社アズビルド,,株式会社,東京都,足立区,加平３丁目１２番１号,,13,121,1210055,,,,,,,2025-04-01,1,,,,,アズビルド,0
800,5020003028148,新規,0,2025-04-01,2025-04-01,合同会社たまのこ,,合同会社,神奈川県,横浜市保土ケ谷区,岩間町１丁目１番地３,,14,106,2400004,,,,,,,2025-04-01,1,,,,,タマノコ,0
801,5020003028164,新規,0,2025-04-01,2025-04-01,ＥＧＬ　Ｗｏｒｋｓ合同会社,,合同会社,神奈川県,横浜市西区,浅間町１丁目４番３号ウィザードビル４０２,,14,103,2200072,,,,,,,2025-04-01,1,,,,,イージーエルワークス,0
803,5021001084819,新規,0,2025-04-01,2025-04-01,株式会社ＳＨＤ,,株式会社,神奈川県,平塚市,寺田縄２３５番地,,14,203,2591215,,,,,,,2025-04-01,1,,,,,エスエイチディー,0
804,5021001084827,新規,0,2025-04-01,2025-04-01,株式会社アール・アシスト,,株式会社,神奈川県,相模原市緑区,二本松１丁目３６番４号,,14,151,2520137,,,,,,,2025-04-01,1,,,,,アールアシスト,0
806,5021003015805,新規,0,2025-04-01,2025-04-01,ＭＨＭ合同会社,,合同会社,神奈川県,茅ヶ崎市,小和田２丁目１１番６９－４０１号セルアージュ湘南ヴァリエ,,14,207,2530012,,,,,,,2025-04-01,1,,,,,エムエイチエム,0
820,5040003027255,新規,0,2025-04-01,2025-04-01,Ｔａｃｋ合同会社,,合同会社,千葉県,富里市,七栄７０３番地２６,,12,233,2860221,,,,,,,2025-04-01,1,,,,,タック,0
822,5050001056370,新規,0,2025-04-01,2025-04-01,ティーアンドエス株式会社,,株式会社,茨城県,下妻市,小島１４２番地４,,08,210,3040051,,,,,,,2025-04-01,1,,,,,ティーアンドエス,0
826,5070002030934,新規,0,2025-04-01,2025-04-01,有限会社ホワイト急便館林,,有限会社,群馬県,邑楽郡邑楽町,大字篠塚２７７３番地の３,,10,525,3700615,,,,,,,2025-04-01,1,,,,,ホワイトキュウビンタテバヤシ,0
827,5070003005844,新規,0,2025-04-01,2025-04-01,アスター合同会社,,合同会社,群馬県,高崎市,双葉町９番５－１号,,10,202,3700843,,,,,,,2025-04-01,1,,,,,アスター,0
830,5080103003284,新規,0,2025-04-01,2025-04-01,Ｉｓｌａｎｄ　Ｉｎｓｉｇｈｔｓ合同会社,,合同会社,静岡県,下田市,吉佐美６９２番地の１,,22,219,4150028,,,,,,,2025-04-01,1,,,,,アイランドインサイツ,0
833,5110001008274,新規,0,2025-04-01,2025-04-01,株式会社第一産業,,株式会社,新潟県,新潟市西蒲区,赤鏥１３０７番地１,,15,108,9530042,,,,,,,2025-04-01,1,,,,,ダイイチサンギョウ,0
851,5120003028996,新規,0,2025-04-01,2025-04-01,コクー合同会社,,合同会社,大阪府,大阪市北区,梅田１丁目１－３大阪駅前第３ビル２９階１－１－１号室,,27,127,5300001,,,,,,,2025-04-01,1,,,,,コクー,0
852,5120003029012,新規,0,2025-04-01,2025-04-01,合同会社ＡかＩ,,合同会社,大阪府,大阪市北区,梅田１丁目１－３大阪駅前第３ビル２９階１－１－１号室,,27,127,5300001,,,,,,,2025-04-01,1,,,,,アカイ,0
860,5120903005599,新規,0,2025-04-01,2025-04-01,永遠に合同会社,,合同会社,大阪府,豊中市,長興寺北２丁目８番８号ハイツ曽根６０４号,,27,203,5610875,,,,,,,2025-04-01,1,,,,,トワニ,0
862,5122001039001,新規,0,2025-04-01,2025-04-01,エアテクノ株式会社,,株式会社,大阪府,八尾市,沼２丁目８８番地,,27,212,5810036,,,,,,,2025-04-01,1,,,,,エアテクノ,0
864,5130001079297,新規,0,2025-04-01,2025-04-01,株式会社ル・クシ,,株式会社,京都府,京都市南区,吉祥院新田弐ノ段町３３番地,,26,107,6018317,,,,,,,2025-04-01,1,,,,,ルクシ,0
868,5140001137780,新規,0,2025-04-01,2025-04-01,株式会社ワイズグルマン,,株式会社,兵庫県,神戸市中央区,伊藤町１１０－２,,28,110,6500032,,,,,,,2025-04-01,1,,,,,ワイズグルマン,0
869,5140001137938,新規,0,2025-04-01,2025-04-01,株式会社ｔｒｕｓｔ　ｇｒｏｕｐ,,株式会社,兵庫県,神戸市灘区,森後町１丁目３番１７－１００１号,,28,102,6570028,,,,,,,2025-04-01,1,,,,,トラストグループ,0
873,5140005027425,新規,0,2025-04-01,2025-04-01,医療法人社団まつお会,,その他の設立登記法人,兵庫県,神戸市灘区,八幡町１丁目７番１２号アークヒル六甲１階,,28,102,6570051,,,,,,,2025-04-01,1,,,,,マツオカイ,0
883,5180001165968,新規,0,2025-04-01,2025-04-01,株式会社ジェイエーＯ＆Ｍ,,株式会社,愛知県,名古屋市東区,葵２丁目３－１５ふぁみ～ゆ葵ビル４０４号,,23,102,4610004,,,,,,,2025-04-01,1,,,,,ジェイエーオーアンドエム,0
884,5180001166090,新規,0,2025-04-01,2025-04-01,株式会社嘉祥,,株式会社,愛知県,名古屋市南区,鶴見通５丁目３番地,,23,112,4570807,,,,,,,2025-04-01,1,,,,,カショウ,0
885,5180001166108,新規,0,2025-04-01,2025-04-01,株式会社ＷＡＤＥＮ,,株式会社,愛知県,春日井市,八田町３丁目４番地１８,,23,206,4860849,,,,,,,2025-04-01,1,,,,,ワデン,0
886,5180001166132,新規,0,2025-04-01,2025-04-01,トレステラ不動産株式会社,,株式会社,愛知県,名古屋市千種区,新池町１丁目２１番地の２,,23,101,4640027,,,,,,,2025-04-01,1,,,,,トレステラフドウサン,0
889,5180003028223,新規,0,2025-04-01,2025-04-01,コスタブランカアート合同会社,,合同会社,愛知県,名古屋市中区,富士見町１４番１５号ライオンズガーデン東別院８０４号,,23,106,4600014,,,,,,,2025-04-01,1,,,,,コスタブランカアート,0
893,5200003006746,新規,0,2025-04-01,2025-04-01,合同会社Ｂｏｒｄｅｒ,,合同会社,岐阜県,大垣市,大井４丁目２２番地３,,21,202,5030836,,,,,,,2025-04-01,1,,,,,ボーター,0
894,5210001020112,新規,0,2025-04-01,2025-04-01,株式会社うすい農園,,株式会社,福井県,南条郡南越前町,鯖波第２３号２０番地,00138518,18,404,9190212,,,,,,,2025-04-01,1,,,,,ウスイノウエン,0
895,5220001026562,新規,0,2025-04-01,2025-04-01,株式会社キャリワープ,,株式会社,石川県,金沢市,城南２丁目６番２２号,,17,201,9200966,,,,,,,2025-04-01,1,,,,,キャリワープ,0
896,5220001026570,新規,0,2025-04-01,2025-04-01,ＣＭＴ株式会社,,株式会社,石川県,鳳珠郡能登町,字崎山３丁目１９９番地,,17,463,9270434,,,,,,,2025-04-01,1,,,,,シイエムティ,0
897,5220001026579,新規,0,2025-04-01,2025-04-01,株式会社ＧＯＯＤＮＡ不動産,,株式会社,石川県,金沢市,古府町南３０３番地１,,17,201,9200363,,,,,,,2025-04-01,1,,,,,グッドナフドウサン,0
898,5220003003980,新規,0,2025-04-01,2025-04-01,ＪＡＰＡＮ　ＴＲＡＤＩＮＧ合同会社,,合同会社,石川県,かほく市,高松ノ８番地１,,17,209,9291215,,,,,,,2025-04-01,1,,,,,ジャパントレーディング,0
903,5260001040048,新規,0,2025-04-01,2025-04-01,株式会社オフィス・マルト,,株式会社,岡山県,岡山市中区,浜６０４番３トラストビル,,33,102,7038256,,,,,,,2025-04-01,1,,,,,オフィスマルト,0
910,5290001109501,新規,0,2025-04-01,2025-04-01,株式会社あおいいえ,,株式会社,福岡県,福岡市南区,柏原４丁目２０番２５－２０７号,,40,134,8111353,,,,,,,2025-04-01,1,,,,,アオイイエ,0
911,5290003016613,新規,0,2025-04-01,2025-04-01,合同会社矢次整体室,,合同会社,福岡県,久留米市,野中町３３０－１－４０４号,,40,203,8390862,,,,,,,2025-04-01,1,,,,,ヤツギセイタイシツ,0
912,5290003016621,新規,0,2025-04-01,2025-04-01,合同会社Ｑ　Ｅｎｔｅｒｐｒｉｓｅ,,合同会社,福岡県,大野城市,白木原３丁目１－１－１０３,,40,219,8160943,,,,,,,2025-04-01,1,,,,,キューエンタープライズ,0
917,5300003002256,新規,0,2025-04-01,2025-04-01,合同会社与和不動産,,合同会社,佐賀県,唐津市,神田９６５番地１４２,,41,202,8470824,,,,,,,2025-04-01,1,,,,,ヨカフドウサン,0
925,5360003014808,新規,0,2025-04-01,2025-04-01,合同会社Ｍ＆Ｃ,,合同会社,沖縄県,沖縄市,泡瀬６丁目７－３３－２Ｆ,,47,211,9042172,,,,,,,2025-04-01,1,,,,,エムアンドシー,0
927,5370001052395,新規,0,2025-04-01,2025-04-01,株式会社ＦＩ東北,,株式会社,宮城県,石巻市,蛇田字下谷地１９番地１０ニューレジデンス・クロスＭ棟,,04,202,9860861,,,,,,,2025-04-01,1,,,,,エフアイトウホク,0
932,5390003002363,新規,0,2025-04-01,2025-04-01,合同会社ＡｔｅＬｏｏｐ,,合同会社,山形県,山形市,七日町２丁目３－３０コーポ工藤１０２号,,06,201,9900042,,,,,,,2025-04-01,1,,,,,エイトループ,0
933,5400003003418,新規,0,2025-04-01,2025-04-01,合同会社Ｕｎｍａ,,合同会社,岩手県,奥州市,水沢佐倉河字惣前町５２番地１,,03,215,0230003,,,,,,,2025-04-01,1,,,,,ウンマー,0
939,5430001094035,新規,0,2025-04-01,2025-04-01,東渡国際旅行株式会社,,株式会社,北海道,恵庭市,漁町２番地,,01,231,0611414,,,,,,,2025-04-01,1,,,,,トウトコクサイリョコウ,0
943,5470001020648,新規,0,2025-04-01,2025-04-01,株式会社向井,,株式会社,香川県,高松市,塩上町１丁目４番２５号,,37,201,7600062,,,,,,,2025-04-01,1,,,,,ムカイ,0
944,5470003002850,新規,0,2025-04-01,2025-04-01,合同会社サンライズ,,合同会社,香川県,さぬき市,志度２１４９番地１,,37,206,7692101,,,,,,,2025-04-01,1,,,,,サンライズ,0
949,5500003003465,新規,0,2025-04-01,2025-04-01,Ｔ＆Ｉ合同会社,,合同会社,愛媛県,松山市,下伊台町１３６４番地３,,38,201,7910112,,,,,,,2025-04-01,1,,,,,ティーアンドアイ,0
950,5500005008776,新規,0,2025-04-01,2025-04-01,ＮＰＯ法人ＫＩＨＯＫＵ　ＲＥＧＩＯＮＡＬ　ＡＣＴ,,その他の設立登記法人,愛媛県,北宇和郡鬼北町,大字近永１０７３番地,,38,488,7981300,,,,,,,2025-04-01,1,,,,,キホクリージョナルアクト,0
951,5700150129778,新規,0,2025-04-01,2025-04-01,ＳＣＯＵＴＬＩＴＥ　ＵＳＡ，ＩＮＣ．,,外国会社等,,,,,,,,２９９０　ＩＮＬＡＮＤ　ＥＭＰＩＲＥ　ＢＬＶＤ，ＳＵＩＴＥ　１０２，ＯＮＴＡＲＩＯ，ＣＡ　９１７６４,,,,,,2025-04-01,1,,,,,スカウトライトユーエスエーインコーポレイテッド,0
962,6010001253631,新規,0,2025-04-01,2025-04-01,株式会社Ａｎｄｉｒｉｃｈ,,株式会社,東京都,中央区,銀座１丁目１２－４Ｎ＆ＥＢＬＤ．７階,,13,102,1040061,,,,,,,2025-04-01,1,,,,,アンディリッチ,0
969,6010005039829,新規,0,2025-04-01,2025-04-01,Ｔｏｋｙｏ２５特定目的会社,,その他の設立登記法人,東京都,千代田区,丸の内１丁目８番２号鉄鋼ビルディング４階,,13,101,1000005,,,,,,,2025-04-01,1,,,,,トウキョウトゥエンティファイブ,0
974,6010401189194,新規,0,2025-04-01,2025-04-01,ＮＭ株式会社,,株式会社,東京都,港区,西麻布１丁目４番１７号,,13,103,1060031,,,,,,,2025-04-01,1,,,,,エヌエム,0
975,6010401189269,新規,0,2025-04-01,2025-04-01,株式会社ＶＡＭＯＳ　ＴＥＣＨ,,株式会社,東京都,港区,赤坂９丁目６番１２号イワキビル３階,,13,103,1070052,,,,,,,2025-04-01,1,,,,,ヴァーモステック,0
977,6010403034704,新規,0,2025-04-01,2025-04-01,合同会社Ｉ　ｌｉｋｅ,,合同会社,東京都,港区,北青山１丁目３－３三橋ビル３階,,13,103,1070061,,,,,,,2025-04-01,1,,,,,アイライク,0
978,6010403034720,新規,0,2025-04-01,2025-04-01,ｓｙｎＣ合同会社,,合同会社,東京都,港区,北青山１丁目３番１号アールキューブ青山３階,,13,103,1070061,,,,,,,2025-04-01,1,,,,,シンク,0
991,6011001168720,新規,0,2025-04-01,2025-04-01,株式会社ゴールデンサークル,,株式会社,東京都,渋谷区,幡ヶ谷２丁目８番５号近藤ビル１０２号,,13,113,1510072,,,,,,,2025-04-01,1,,,,,ゴールデンサークル,0
993,6011101111150,新規,0,2025-04-01,2025-04-01,宅東サービス株式会社,,株式会社,東京都,新宿区,四谷三栄町１１番１６号,,13,104,1600008,,,,,,,2025-04-01,1,,,,,タクトウサービス,0
996,6011303005480,新規,0,2025-04-01,2025-04-01,合同会社みやびコンサルティング,,合同会社,東京都,杉並区,久我山１丁目５番２１号,,13,115,1680082,,,,,,,2025-04-01,1,,,,,ミヤビコンサルティング,0
997,6011401026957,新規,0,2025-04-01,2025-04-01,健和堂株式会社,,株式会社,東京都,板橋区,仲宿６３番地７号,,13,119,1730005,,,,,,,2025-04-01,1,,,,,ケンワドウ,0
998,6011405002384,新規,0,2025-04-01,2025-04-01,一般社団法人悠仁会,,その他の設立登記法人,東京都,板橋区,徳丸２丁目３番１０号久美ビル１階,,13,119,1750083,,,,,,,2025-04-01,1,,,,,ユウジンカイ,0
999,6011501031865,新規,0,2025-04-01,2025-04-01,株式会社井上アートオフィス,,株式会社,東京都,北区,中里２丁目２８番－１５－３０６号旭泉マンション,,13,117,1140015,,,,,,,2025-04-01,1,,,,,イノウエアートオフィス,0
1000,6011503001412,新規,0,2025-04-01,2025-04-01,双見黒板合資会社,,合資会社,東京都,荒川区,西尾久４丁目１１番１１号,,13,118,1160011,,,,,,,2025-04-01,1,,,,,,0
1002,6011601028530,新規,0,2025-04-01,2025-04-01,ゲット・ワークス株式会社,,株式会社,東京都,練馬区,大泉学園町８丁目３５番７号,,13,120,1780061,,,,,,,2025-04-01,1,,,,,ゲットワークス,0
1003,6011701028190,新規,0,2025-04-01,2025-04-01,株式会社ジャストチール,,株式会社,東京都,江戸川区,中葛西３丁目３３番６－２０５号マルカハイツ葛西,,13,123,1340083,,,,,,,2025-04-01,1,,,,,ジャストチール,0
1004,6011701028199,新規,0,2025-04-01,2025-04-01,大石青海湖塩産業株式会社,,株式会社,東京都,江戸川区,中葛西６丁目１３－６プレサ・М４０７,,13,123,1340083,,,,,,,2025-04-01,1,,,,,オオイシアオウミコエンサンギョウ,0
1006,6012701018776,新規,0,2025-04-01,2025-04-01,株式会社雷光,,株式会社,東京都,東久留米市,南沢１丁目６－２５ヒルズ大野Ｂ１０１,,13,222,2030023,,,,,,,2025-04-01,1,,,,,ライコウ,0
1008,6012801023841,新規,0,2025-04-01,2025-04-01,株式会社サニー,,株式会社,東京都,立川市,高松町２丁目１２－１４－２Ｆ,,13,202,1900011,,,,,,,2025-04-01,1,,,,,サニー,0
1013,6013305003702,新規,0,2025-04-01,2025-04-01,一般社団法人くるりと,,その他の設立登記法人,東京都,豊島区,千早４丁目１８番５号,,13,116,1710044,,,,,,,2025-04-01,1,,,,,クルリト,0
1022,6021001084834,新規,0,2025-04-01,2025-04-01,株式会社オセアニック・バイオメディカルサイエンス,,株式会社,神奈川県,逗子市,桜山８丁目３－２１,,14,208,2490005,,,,,,,2025-04-01,1,,,,,オセアニックバイオメディカルサイエンス,0
1025,6021003015812,新規,0,2025-04-01,2025-04-01,合同会社春海エンタープライズ,,合同会社,神奈川県,茅ヶ崎市,赤羽根４５６番地１ベルジャヤコートＡ号室,,14,207,2530001,,,,,,,2025-04-01,1,,,,,ハルミエンタープライズ,0
1029,6030003026455,新規,0,2025-04-01,2025-04-01,復建Ｊａｐａｎ合同会社,,合同会社,埼玉県,川越市,霞ケ関東３丁目１３番地２,,11,201,3501103,,,,,,,2025-04-01,1,,,,,フッケンジャパン,0
1030,6030005022097,新規,0,2025-04-01,2025-04-01,医療法人社団美歯会,,その他の設立登記法人,埼玉県,所沢市,元町２８番９号フォーラスタワー所沢１階,,11,208,3591121,,,,,,,2025-04-01,1,,,,,ビバカイ,0
1038,6070001042780,新規,0,2025-04-01,2025-04-01,株式会社エル・ロイ,,株式会社,群馬県,邑楽郡大泉町,大字坂田２４８番地,,10,524,3700532,,,,,,,2025-04-01,1,,,,,エルロイ,0
1041,6100001038429,新規,0,2025-04-01,2025-04-01,株式会社問い読,,株式会社,長野県,北佐久郡御代田町,大字馬瀬口４７５番地１,,20,323,3890207,,,,,,,2025-04-01,1,,,,,トイドク,0
1058,6120901050646,新規,0,2025-04-01,2025-04-01,株式会社ＬＣライフサポート,,株式会社,大阪府,茨木市,西駅前町５番１０号茨木大同生命ビル６階,,27,211,5670032,,,,,,,2025-04-01,1,,,,,エルシーライフサポート,0
1063,6130005017319,新規,0,2025-04-01,2025-04-01,一般社団法人みんなの救急車,,その他の設立登記法人,京都府,相楽郡精華町,大字下狛小字明法寺２６番地,,26,366,6190245,,,,,,,2025-04-01,1,,,,,ミンナノキュウキュウシャ,0
1069,6140001137937,新規,0,2025-04-01,2025-04-01,株式会社あん,,株式会社,兵庫県,尼崎市,大庄川田町７３番地の１ジークレフ浜田４１８号,,28,202,6600072,,,,,,,2025-04-01,1,,,,,アン,0
1070,6140001137945,新規,0,2025-04-01,2025-04-01,株式会社Ｍｙ,,株式会社,兵庫県,尼崎市,道意町６丁目９番地の５ネオコーポ東武庫川１０３号,,28,202,6600083,,,,,,,2025-04-01,1,,,,,マイ,0
1071,6140001137978,新規,0,2025-04-01,2025-04-01,スマイリンク株式会社,,株式会社,兵庫県,尼崎市,武庫之荘３丁目１７－１,,28,202,6610035,,,,,,,2025-04-01,1,,,,,スマイリンク,0
1074,6140003021858,新規,0,2025-04-01,2025-04-01,Ｓ＆Ｓ合同会社,,合同会社,兵庫県,神戸市長田区,上池田３丁目６－１２－１,,28,106,6530827,,,,,,,2025-04-01,1,,,,,エスアンドエス,0
1076,6150005009677,新規,0,2025-04-01,2025-04-01,一般社団法人奈良県ボッチャ協会,,その他の設立登記法人,奈良県,奈良市,中登美ヶ丘３丁目１５番１号（奈良学園大学橋本雅至研究室内）,,29,201,6310003,,,,,,,2025-04-01,1,,,,,ナラケンボッチャキョウカイ,0
1086,6180001166098,新規,0,2025-04-01,2025-04-01,あおいホールディングス株式会社,,株式会社,愛知県,名古屋市中区,丸の内２丁目２番５号丸の内ヒビノ・オフィスラインズ５Ｆ,,23,106,4600002,,,,,,,2025-04-01,1,,,,,アオイホールディングス,0
1088,6180303006514,新規,0,2025-04-01,2025-04-01,合同会社Ｌｕｍｏｓ,,合同会社,愛知県,岡崎市,滝町字松谷７３－２,,23,202,4443173,,,,,,,2025-04-01,1,,,,,ルーモス,0
1090,6220001026578,新規,0,2025-04-01,2025-04-01,光パックス石川ＨＰＩ株式会社,,株式会社,石川県,加賀市,南郷町弐６番地６,,17,206,9220821,,,,,,,2025-04-01,1,,,,,ヒカリパックスイシカワエイチピーアイ,0
1095,6240001064725,新規,0,2025-04-01,2025-04-01,株式会社Ｗｉｊｉｎ,,株式会社,広島県,広島市中区,大手町１丁目１－２０相生橋ビル７階Ａ号室,,34,101,7300051,,,,,,,2025-04-01,1,,,,,ウイジン,0
1101,6260003005114,新規,0,2025-04-01,2025-04-01,合同会社さち,,合同会社,岡山県,真庭市,岡７６番地,,33,214,7170015,,,,,,,2025-04-01,1,,,,,サチ,0
1108,6290001109483,新規,0,2025-04-01,2025-04-01,株式会社ｓｏａｒｌｏｃ,,株式会社,福岡県,福岡市中央区,大名２丁目６－１１ＦｕｋｕｏｋａＧｒｏｗｔｈＮｅｘｔ,,40,133,8100041,,,,,,,2025-04-01,1,,,,,ソアロック,0
1126,6330005010889,新規,0,2025-04-01,2025-04-01,一般社団法人ウェブサポート協会,,その他の設立登記法人,熊本県,熊本市北区,龍田陳内２丁目１番７７号,,43,105,8618005,,,,,,,2025-04-01,1,,,,,ウェブサポートキョウカイ,0
1138,6400003003417,新規,0,2025-04-01,2025-04-01,合同会社かまがみ,,合同会社,岩手県,奥州市,水沢佐倉河字竈神１１番地１,,03,215,0230003,,,,,,,2025-04-01,1,,,,,カマガミ,0
1145,6430001094042,新規,0,2025-04-01,2025-04-01,Ｂｉｇ　Ｍｏｕｎｔａｉｎ株式会社,,株式会社,北海道,札幌市西区,西野四条１０丁目１１番１０号,,01,107,0630034,,,,,,,2025-04-01,1,,,,,ビックマウンテン,0
1152,6470001020647,新規,0,2025-04-01,2025-04-01,株式会社秀栄水産,,株式会社,香川県,東かがわ市,帰来８９６番地,,37,207,7692704,,,,,,,2025-04-01,1,,,,,シュウエイスイサン,0
1153,6480001012791,新規,0,2025-04-01,2025-04-01,Ｚａｍ　Ｚａｍ　Ｔｒａｄｉｎｇ株式会社,,株式会社,徳島県,阿波市,吉野町五条字市ノ本７５５－３,,36,206,7711403,,,,,,,2025-04-01,1,,,,,ザムザムトレーディング,0
1157,6700150129777,新規,0,2025-04-01,2025-04-01,Ｎｉｎｇｂｏ　Ｓｈｅｅｒ　Ｅｌｅｃｔｒｏｎｉｃ　Ｔｅｃｈｎｏｌｏｇｙ　Ｃｏ．，Ｌｔｄ,,外国会社等,,,,,,,,Ｚｈｅｊｉａｎｇ　Ｎｉｎｇｂｏ　ｊｉａｎｇｂｅｉｑｕ　ｚｈｅｎｇｄａ　ｒｏａｄ　Ｎｏ．１１８　４－２５,,,,,,2025-04-01,1,,,,,ニンボーシーアーエレクトロニックテクノロジーカンパニーリミテッド,0
1165,7010001253639,新規,0,2025-04-01,2025-04-01,株式会社ＳＨＯＲＥ,,株式会社,東京都,中央区,銀座６丁目１０番１号ＧＩＮＺＡＳＩＸ８階,,13,102,1040061,,,,,,,2025-04-01,1,,,,,ショア,0
1166,7010005039828,新規,0,2025-04-01,2025-04-01,特定目的会社Ｓｔａｒ　Ｄｒａｃａｅｎａ,,その他の設立登記法人,東京都,千代田区,丸の内１丁目８番２号鉄鋼ビルディング４階,,13,101,1000005,,,,,,,2025-04-01,1,,,,,スタードラセナ,0
1168,7010401189185,新規,0,2025-04-01,2025-04-01,ＣＨＡＧＥＥ　ＪＡＰＡＮ株式会社,,株式会社,東京都,港区,赤坂１丁目１１番４４号赤坂インターシティ５階Ｆｏｒｖｉｓ・Ｍａｚａｒｓ・Ｊａｐａｎ株式会社内,,13,103,1070052,,,,,,,2025-04-01,1,,,,,チャジージャパン,0
1169,7010401189219,新規,0,2025-04-01,2025-04-01,株式会社ＧＡＬ’Ａ,,株式会社,東京都,港区,南青山３丁目１２－１２ｍｉｎａｍｉａｏｙａｍａ３１２ビル７０１,,13,103,1070062,,,,,,,2025-04-01,1,,,,,ガラ,0
1170,7010401189227,新規,0,2025-04-01,2025-04-01,株式会社ハマーズ,,株式会社,東京都,港区,南青山７丁目１番２７－５１３号,,13,103,1070062,,,,,,,2025-04-01,1,,,,,ハマーズ,0
1171,7010401189251,新規,0,2025-04-01,2025-04-01,ＴＤＣ　Ｇｌｏｂａｌ株式会社,,株式会社,東京都,港区,元麻布３丁目１番６号,,13,103,1060046,,,,,,,2025-04-01,1,,,,,ティディシグローバル,0
1177,7010601067026,新規,0,2025-04-01,2025-04-01,ＨＩＭＡＷＡＲＩ株式会社,,株式会社,東京都,江東区,東陽１丁目３２番１０号１０１号室,,13,108,1350016,,,,,,,2025-04-01,1,,,,,ヒマワリ,0
1178,7010701047480,新規,0,2025-04-01,2025-04-01,Ｙｅｅｚｙ　Ｊａｐａｎ株式会社,,株式会社,東京都,品川区,八潮３丁目２番２２号,,13,109,1400003,,,,,,,2025-04-01,1,,,,,イィーズィージャパン,0
1181,7010903009799,新規,0,2025-04-01,2025-04-01,合同会社ＤＯＥＲＳ,,合同会社,東京都,世田谷区,上用賀６丁目７番９号グランフェリシア２０３,,13,112,1580098,,,,,,,2025-04-01,1,,,,,ドゥアーズ,0
1187,7011001168059,新規,0,2025-04-01,2025-04-01,ブロッコリー株式会社,,株式会社,東京都,渋谷区,渋谷２丁目１９－１５宮益坂ビルディング６０９,,13,113,1500002,,,,,,,2025-04-01,1,,,,,,0
1188,7011001168521,新規,0,2025-04-01,2025-04-01,Ｓｔｒａｔａ　Ｓｔｕｄｉｏ株式会社,,株式会社,東京都,目黒区,上目黒３丁目２１番２－２０２号ディアナコート上目黒,,13,110,1530051,,,,,,,2025-04-01,1,,,,,ストラタスタジオ,0
1189,7011005010927,新規,0,2025-04-01,2025-04-01,一般社団法人Ｃｕｌｔｕｒａｌ　Ｄｉｖｅｒｓｉｔｙ推進協会,,その他の設立登記法人,東京都,渋谷区,神南１丁目１１－４ＦＰＧリンクス神南５階,,13,113,1500041,,,,,,,2025-04-01,1,,,,,カルチュアルダイバーシティースイシンキョウカイ,0
1202,7011803006762,新規,0,2025-04-01,2025-04-01,合同会社暁,,合同会社,東京都,葛飾区,細田５丁目２３番地３号,,13,122,1240021,,,,,,,2025-04-01,1,,,,,アカツキ,0
1205,7012805003327,新規,0,2025-04-01,2025-04-01,医療法人社団桜月会,,その他の設立登記法人,東京都,国分寺市,本多３丁目７番２５号,,13,214,1850011,,,,,,,2025-04-01,1,,,,,オウゲツカイ,0
1218,7021003015745,新規,0,2025-04-01,2025-04-01,合同会社ＷＡＬＬＳ,,合同会社,神奈川県,相模原市緑区,中野１９３０番地３,,14,151,2520157,,,,,,,2025-04-01,1,,,,,ウォールズ,0
1219,7021003015794,新規,0,2025-04-01,2025-04-01,合同会社まちの太陽光循環事業,,合同会社,神奈川県,横須賀市,秋谷４３２１,,14,201,2400105,,,,,,,2025-04-01,1,,,,,マチノタイヨウコウジュンカンジギョウ,0
1220,7021003015803,新規,0,2025-04-01,2025-04-01,合同会社サクラキャピタル,,合同会社,神奈川県,大和市,つきみ野４丁目８番地１７パインベアーつきみ野１０３,,14,213,2420002,,,,,,,2025-04-01,1,,,,,サクラキャピタル,0
1225,7030001165543,新規,0,2025-04-01,2025-04-01,新世界株式会社,,株式会社,埼玉県,川口市,本蓮３丁目６－２－１０１号室,,11,203,3340076,,,,,,,2025-04-01,1,,,,,シンセカイ,0
1226,7030001165650,新規,0,2025-04-01,2025-04-01,株式会社Ｍａｉｓｏｎ　Ｏｎｅ　Ｐｅｒｃｅｎｔ,,株式会社,埼玉県,さいたま市桜区,西堀６丁目１４番１２号,,11,106,3380832,,,,,,,2025-04-01,1,,,,,メゾンワンパーセント,0
1228,7030003026438,新規,0,2025-04-01,2025-04-01,合同会社ヨミモーネ,,合同会社,埼玉県,志木市,柏町３丁目５－１４,,11,228,3530007,,,,,,,2025-04-01,1,,,,,ヨミモーネ,0
1243,7070001042771,新規,0,2025-04-01,2025-04-01,株式会社茂木建機サービス,,株式会社,群馬県,吾妻郡東吾妻町,大字植栗１６５２番地２,,10,429,3770805,,,,,,,2025-04-01,1,,,,,モテギケンキサービス,0
1244,7080401027818,新規,0,2025-04-01,2025-04-01,株式会社エクシムティーシージー,,株式会社,静岡県,磐田市,二之宮６５８番地２アヴェンティーノ１０５,,22,211,4380074,,,,,,,2025-04-01,1,,,,,エクシムティーシージー,0
1254,7120001274095,新規,0,2025-04-01,2025-04-01,ワラワラ実業株式会社,,株式会社,大阪府,大阪市住吉区,駒川二丁目２－２５駒川マンション２０１号室,,27,120,5580000,,,,,,,2025-04-01,1,,,,,ワラワラジツギョウ,0
1255,7120003028994,新規,0,2025-04-01,2025-04-01,合同会社エイチツー,,合同会社,大阪府,大阪市北区,中之島６丁目１番３８－４７１２号,,27,127,5300005,,,,,,,2025-04-01,1,,,,,エイチツー,0
1258,7120901050645,新規,0,2025-04-01,2025-04-01,Ｒｓ．株式会社,,株式会社,大阪府,豊中市,東豊中町６丁目１番３３号（２号室）,,27,203,5600003,,,,,,,2025-04-01,1,,,,,アールエス,0
1260,7130001079295,新規,0,2025-04-01,2025-04-01,株式会社Ｇｒｅｅｎ　Ｆａｃｔｏｒｙ　ＴＦＫ,,株式会社,京都府,木津川市,木津川台９丁目５番地５,,26,214,6190225,,,,,,,2025-04-01,1,,,,,グリーンファクトリーティーエフケー,0
1262,7130003010324,新規,0,2025-04-01,2025-04-01,合同会社Ｎｅｘｔ　Ｉｎｎｏｖａｔｉｏｎ,,合同会社,京都府,長岡京市,開田２丁目９番１２号ファミール長岡京グランデュール１階,,26,209,6170826,,,,,,,2025-04-01,1,,,,,ネクストイノベーション,0
1267,7140001137952,新規,0,2025-04-01,2025-04-01,株式会社電工房エレオ,,株式会社,兵庫県,明石市,大久保町茜１丁目７番５号,,28,203,6740059,,,,,,,2025-04-01,1,,,,,デンコウボウ,0
1268,7140003021725,新規,0,2025-04-01,2025-04-01,ＥＴＷ合同会社,,合同会社,兵庫県,伊丹市,中央５丁目１番１８－５０１号,,28,207,6640851,,,,,,,2025-04-01,1,,,,,イーティーダブリュウ,0
1269,7140005027423,新規,0,2025-04-01,2025-04-01,医療法人樹春会,,その他の設立登記法人,兵庫県,神戸市東灘区,御影本町４丁目１０番１号ＶＩＥＲＲＡ御影３階,,28,101,6580046,,,,,,,2025-04-01,1,,,,,ジュシュンカイ,0
1282,7220001026569,新規,0,2025-04-01,2025-04-01,ＡＣＥサービス株式会社,,株式会社,石川県,野々市市,太平寺４丁目６５－１シャルマン小川２０５,,17,212,9218845,,,,,,,2025-04-01,1,,,,,エーシーイーサービス,0
1283,7220001026577,新規,0,2025-04-01,2025-04-01,株式会社ｓａｎｃｔｕａｒｙ,,株式会社,石川県,金沢市,高尾台２丁目６５番地,,17,201,9218155,,,,,,,2025-04-01,1,,,,,サンクチュアリ,0
1289,7250001021063,新規,0,2025-04-01,2025-04-01,株式会社Ｐａｉｎ,,株式会社,山口県,周南市,若草町６番４３号,,35,215,7450841,,,,,,,2025-04-01,1,,,,,ペイン,0
1290,7260001040054,新規,0,2025-04-01,2025-04-01,株式会社アスワク,,株式会社,岡山県,岡山市北区,下中野１２００番４号,,33,101,7000973,,,,,,,2025-04-01,1,,,,,アスワク,0
1291,7260003005113,新規,0,2025-04-01,2025-04-01,合同会社ＣＬＥＡＮ,,合同会社,岡山県,倉敷市,連島町鶴新田２１４９番地１セジュールＦパッケージ２０２,,33,202,7128006,,,,,,,2025-04-01,1,,,,,クリーン,0
1316,7290003016611,新規,0,2025-04-01,2025-04-01,合同会社ｔｕｔｕ　ｃａｔ,,合同会社,福岡県,福岡市南区,寺塚２丁目１７番２８号,,40,134,8150074,,,,,,,2025-04-01,1,,,,,チュチュキャット,0
1318,7300001014128,新規,0,2025-04-01,2025-04-01,日本豊光株式会社,,株式会社,佐賀県,西松浦郡有田町,北ノ川内丙３５２－８,,41,401,8494166,,,,,,,2025-04-01,1,,,,,ニホンホウコウ,0
1319,7310003004976,新規,0,2025-04-01,2025-04-01,合同会社Ｒｅｆｉｎｅ,,合同会社,長崎県,諫早市,真崎町１８８８番地２階,,42,204,8540084,,,,,,,2025-04-01,1,,,,,リファイン,0
1322,7360001034987,新規,0,2025-04-01,2025-04-01,ラグナエステート株式会社,,株式会社,沖縄県,那覇市,宮城１丁目１５番８号ＬａＬａＴｅｒｒａｃｅ２０１号室,,47,201,9010147,,,,,,,2025-04-01,1,,,,,ラグナエステート,0
1323,7360003014806,新規,0,2025-04-01,2025-04-01,合同会社住まい相談所,,合同会社,沖縄県,那覇市,牧志２丁目１７番２７号４０１,,47,201,9000013,,,,,,,2025-04-01,1,,,,,スマイソウダンジョ,0
1324,7370001052402,新規,0,2025-04-01,2025-04-01,株式会社月陽,,株式会社,宮城県,仙台市若林区,沖野３丁目２１番３号,,04,103,9840831,,,,,,,2025-04-01,1,,,,,ツキヒ,0
1340,7430003017446,新規,0,2025-04-01,2025-04-01,合同会社エミシス,,合同会社,北海道,札幌市西区,西野六条１０丁目２４番２２号２Ｆ－Ｂ,,01,107,0630036,,,,,,,2025-04-01,1,,,,,エミシス,0
1341,7430003017454,新規,0,2025-04-01,2025-04-01,Ｍｍｅｎｓａｌ合同会社,,合同会社,北海道,札幌市中央区,南二条西５丁目３１－１ＲＭＢｌｄ．７０１,,01,101,0600062,,,,,,,2025-04-01,1,,,,,エムメンサル,0
1342,7450001014575,新規,0,2025-04-01,2025-04-01,株式会社智朱未来,,株式会社,北海道,留萌市,五十嵐町３丁目２番３号,,01,212,0770023,,,,,,,2025-04-01,1,,,,,チシュミライ,0
1343,7460101007684,新規,0,2025-04-01,2025-04-01,うらほろエネルギー株式会社,,株式会社,北海道,十勝郡浦幌町,字寿町４番地１,,01,649,0895611,,,,,,,2025-04-01,1,,,,,,0
1344,7470003002849,新規,0,2025-04-01,2025-04-01,合同会社ａｖｅｎｉｒ　ａｍｕｓｅｒ,,合同会社,香川県,木田郡三木町,大字池戸２９８０番地１２,,37,341,7610701,,,,,,,2025-04-01,1,,,,,アヴニールアミュゼ,0
1348,7700150129776,新規,0,2025-04-01,2025-04-01,ＴＡＫＡＹＵＫＩ友の会,,その他,神奈川県,小田原市,扇町５丁目７－１０,,14,206,2500001,,,,,,,2025-04-01,1,,,,,タカユキトモノカイ,0
1358,8010001253530,新規,0,2025-04-01,2025-04-01,株式会社あおむし,,株式会社,東京都,千代田区,紀尾井町３番２９－６００２号,,13,101,1020094,,,,,,,2025-04-01,1,,,,,アオムシ,0
1365,8010005039827,新規,0,2025-04-01,2025-04-01,Ｄｅｃｏ特定目的会社,,その他の設立登記法人,東京都,千代田区,丸の内１丁目８番２号鉄鋼ビルディング４階,,13,101,1000005,,,,,,,2025-04-01,1,,,,,デコ,0
1366,8010005039835,新規,0,2025-04-01,2025-04-01,Ｋｙｏｔｏ　Ｃｏｌｌｅｃｔｉｏｎ　Ｈｏｔｅｌ　Ｉｎｖｅｓｔｍｅｎｔｓ特定目的会社,,その他の設立登記法人,東京都,千代田区,丸の内１丁目４番１号東京共同会計事務所内,,13,101,1000005,,,,,,,2025-04-01,1,,,,,キョウトコレクションホテルインベストメンツ,0
1367,8010103002546,新規,0,2025-04-01,2025-04-01,合同会社アウローラ,,合同会社,東京都,八王子市,石川町２１６－３,,13,201,1920032,,,,,,,2025-04-01,1,,,,,アウローラ,0
1378,8010401189085,新規,0,2025-04-01,2025-04-01,株式会社サインタ,,株式会社,東京都,港区,三田１丁目３番４０号天翔オフィス麻布十番６階６０６号室,,13,103,1080073,,,,,,,2025-04-01,1,,,,,サインタ,0
1379,8010401189242,新規,0,2025-04-01,2025-04-01,株式会社Ｐｌａｎｋ,,株式会社,東京都,港区,元麻布２丁目１－１７,,13,103,1060046,,,,,,,2025-04-01,1,,,,,プランク,0
1381,8010503007780,新規,0,2025-04-01,2025-04-01,ＪＪＪ合同会社,,合同会社,東京都,台東区,松が谷２丁目２２番５－８０４号ＺＯＯＭ浅草ＷＥＳＴ,,13,106,1110036,,,,,,,2025-04-01,1,,,,,ジジジ,0
1385,8010703007647,新規,0,2025-04-01,2025-04-01,合同会社エーケーワークス,,合同会社,東京都,品川区,上大崎１丁目１９－３,,13,109,1410021,,,,,,,2025-04-01,1,,,,,エーケーワークス,0
1386,8010801035970,新規,0,2025-04-01,2025-04-01,株式会社ヒラメント,,株式会社,東京都,大田区,大森北１丁目１０番１４号ｌｕｚ大森２階,,13,111,1430016,,,,,,,2025-04-01,1,,,,,ヒラメント,0
1396,8011003021223,新規,0,2025-04-01,2025-04-01,合同会社ケイマース,,合同会社,東京都,目黒区,東山２丁目７－１２－１０１,,13,110,1530043,,,,,,,2025-04-01,1,,,,,ケイマース,0
1397,8011003021280,新規,0,2025-04-01,2025-04-01,ｒｅｎｃｏｎｔｒｅ合同会社,,合同会社,東京都,渋谷区,神南１丁目１１番４号ＦＰＧリンクス神南５階,,13,113,1500041,,,,,,,2025-04-01,1,,,,,ランコントル,0
1398,8011101111149,新規,0,2025-04-01,2025-04-01,エイケイ株式会社,,株式会社,東京都,新宿区,山吹町３３７－５都住創山吹町ビル６０４Ｐ,,13,104,1620801,,,,,,,2025-04-01,1,,,,,エイケイ,0
1399,8011101111157,新規,0,2025-04-01,2025-04-01,株式会社Ｅｓｐｏｉｒ,,株式会社,東京都,新宿区,原町１丁目２２番地,,13,104,1620053,,,,,,,2025-04-01,1,,,,,エスポワール,0
1404,8011201026214,新規,0,2025-04-01,2025-04-01,株式会社Ｅｍｕｌｓｉｏｎ,,株式会社,東京都,中野区,本町１丁目１４番１４号Ｋ’ｓハートランド８０２,,13,114,1640012,,,,,,,2025-04-01,1,,,,,エマルジョン,0
1421,8012301014315,新規,0,2025-04-01,2025-04-01,株式会社Ｓｉｎｃｅ　Ｅｎｃｏｒｅ,,株式会社,東京都,町田市,原町田２丁目１番１４号,,13,209,1940013,,,,,,,2025-04-01,1,,,,,シンスアンコール,0
1424,8012803003674,新規,0,2025-04-01,2025-04-01,合同会社ＹＥＬＬ　ＯＮＥ,,合同会社,東京都,立川市,西砂町３丁目５６－１９,,13,202,1900034,,,,,,,2025-04-01,1,,,,,エールワン,0
1428,8013303007604,新規,0,2025-04-01,2025-04-01,合同会社新日本テック,,合同会社,東京都,豊島区,東池袋１丁目３４－５いちご東池袋ビル６Ｆ,,13,116,1700013,,,,,,,2025-04-01,1,,,,,シンニホンテック,0
1436,8020003028161,新規,0,2025-04-01,2025-04-01,合同会社アート＆プリマ,,合同会社,神奈川県,横浜市西区,北幸１丁目１－８エキニア横浜５０３,,14,103,2200004,,,,,,,2025-04-01,1,,,,,アートアンドプリマ,0
1437,8021001084824,新規,0,2025-04-01,2025-04-01,株式会社ＬＥＧＡＬ　ＢＡＳＥ,,株式会社,神奈川県,藤沢市,藤沢９７１－３パール湘南５Ｆ,,14,205,2510052,,,,,,,2025-04-01,1,,,,,リーガルベース,0
1438,8021001084832,新規,0,2025-04-01,2025-04-01,株式会社大樹,,株式会社,神奈川県,秦野市,鶴巻南４丁目１４番１６号ＰＬＡＮＥＴ・Ｆ２０２,,14,211,2570002,,,,,,,2025-04-01,1,,,,,タイジュ,0
1439,8021001084840,新規,0,2025-04-01,2025-04-01,株式会社ぱんとべじ,,株式会社,神奈川県,横須賀市,船越町６丁目４０番地マートル館Ｄ－１０４,,14,201,2370076,,,,,,,2025-04-01,1,,,,,パントベジ,0
1442,8030001165609,新規,0,2025-04-01,2025-04-01,世理株式会社,,株式会社,埼玉県,所沢市,東町１２番１０－１２０４号ブランズタワー所沢,,11,208,3591116,,,,,,,2025-04-01,1,,,,,セリ,0
1452,8070001042770,新規,0,2025-04-01,2025-04-01,株式会社カトファーム,,株式会社,群馬県,北群馬郡榛東村,大字広馬場１５３３番地１０,,10,344,3703504,,,,,,,2025-04-01,1,,,,,カトファーム,0
1456,8090003002787,新規,0,2025-04-01,2025-04-01,合同会社Ｅｌｅｖａｔｅ,,合同会社,山梨県,山梨市,牧丘町室伏１７１番地,,19,205,4040012,,,,,,,2025-04-01,1,,,,,エレベイト,0
1458,8110001039143,新規,0,2025-04-01,2025-04-01,株式会社Ａパーク,,株式会社,新潟県,長岡市,天下島２丁目８番６号,,15,202,9400232,,,,,,,2025-04-01,1,,,,,エーパーク,0
1466,8120001274136,新規,0,2025-04-01,2025-04-01,萬屋株式会社,,株式会社,大阪府,大阪市淀川区,三津屋南３丁目１番３４号,,27,123,5320035,,,,,,,2025-04-01,1,,,,,ヨロズヤ,0
1467,8120001274144,新規,0,2025-04-01,2025-04-01,株式会社ｎａｎａｌａ,,株式会社,大阪府,大阪市淀川区,加島３丁目１３番２９－３２号,,27,123,5320031,,,,,,,2025-04-01,1,,,,,ナナラ,0
1469,8120003029001,新規,0,2025-04-01,2025-04-01,ＩＮＧ合同会社,,合同会社,大阪府,門真市,大池町２０－１９,,27,223,5710076,,,,,,,2025-04-01,1,,,,,イング,0
1474,8120901050652,新規,0,2025-04-01,2025-04-01,ＨＩＲＯ　ＨＡＲＭＯＮＹ　ＨＯＭＥＳ株式会社,,株式会社,大阪府,吹田市,千里丘上３６番８－３０３号,,27,205,5650811,,,,,,,2025-04-01,1,,,,,ヒロハーモニーホームズ,0
1483,8140001137951,新規,0,2025-04-01,2025-04-01,ＳＡＲＵ貿易株式会社,,株式会社,兵庫県,神戸市西区,押部谷町和田４９８－２１,,28,111,6512206,,,,,,,2025-04-01,1,,,,,サルボウエキ,0
1484,8140003021856,新規,0,2025-04-01,2025-04-01,合同会社ＭＬＴバルセロナ,,合同会社,兵庫県,西宮市,名次町４番２２号パラシオ夙川名次１０７号室,,28,204,6620024,,,,,,,2025-04-01,1,,,,,エムエルティーバルセロナ,0
1485,8140003021864,新規,0,2025-04-01,2025-04-01,合同会社ＧＬＯＢＡＬ　ＡＲＴＩＳＴＳ　ＮＥＴＷＯＲＫ,,合同会社,兵庫県,宝塚市,中筋山手２丁目１０番１２号,,28,214,6650875,,,,,,,2025-04-01,1,,,,,グローバルアーティスツネットワーク,0
1500,8220001026576,新規,0,2025-04-01,2025-04-01,株式会社ＴＨＥ　ＣＨＡＬＬＥＮＧＥＲ,,株式会社,石川県,金沢市,旭町１丁目１７番４４号,,17,201,9200941,,,,,,,2025-04-01,1,,,,,ザチャレンジャー,0
1505,8250003003678,新規,0,2025-04-01,2025-04-01,合同会社Ｆｏｕｒ　Ｃｏ．,,合同会社,山口県,宇部市,錦町５番３号パールマンション錦町１００５号室,,35,202,7550018,,,,,,,2025-04-01,1,,,,,フォーカンパニー,0
1512,8290003016619,新規,0,2025-04-01,2025-04-01,ＮＹＤ貿易合同会社,,合同会社,福岡県,大野城市,つつじケ丘３丁目９番１５号,,40,219,8160962,,,,,,,2025-04-01,1,,,,,エヌワイディボウエキ,0
1515,8300001014127,新規,0,2025-04-01,2025-04-01,株式会社さと,,株式会社,佐賀県,伊万里市,二里町八谷搦１１８９,,41,205,8480031,,,,,,,2025-04-01,1,,,,,サト,0
1520,8330001033009,新規,0,2025-04-01,2025-04-01,株式会社ＴＮ貿易,,株式会社,熊本県,熊本市北区,麻生田３丁目１０番１５号,,43,105,8618081,,,,,,,2025-04-01,1,,,,,ティーエヌボウエキ,0
1521,8340005009838,新規,0,2025-04-01,2025-04-01,特定非営利活動法人体験たるみず,,その他の設立登記法人,鹿児島県,垂水市,新御堂１０７５番地,,46,214,8912111,,,,,,,2025-04-01,1,,,,,タイケンタルミズ,0
1523,8350005006297,新規,0,2025-04-01,2025-04-01,特定非営利活動法人明日がもっと良くなりますように,,その他の設立登記法人,宮崎県,日南市,大字萩之嶺１３７９番地３,,45,204,8893153,,,,,,,2025-04-01,1,,,,,アスガモットヨクナリマスヨウニ,0
1527,8360003014805,新規,0,2025-04-01,2025-04-01,合同会社Ｂｌｕｅ・Ｄｒｅａｍ,,合同会社,沖縄県,島尻郡与那原町,字与那原９２４トーマス与那原２－７０６,,47,348,9011303,,,,,,,2025-04-01,1,,,,,ブルードリーム,0
1550,8450005004448,新規,0,2025-04-01,2025-04-01,一般社団法人だからこそ,,その他の設立登記法人,北海道,旭川市,西御料四条１丁目３番５号,,01,204,0788824,,,,,,,2025-04-01,1,,,,,ダカラコソ,0
1551,8470003002848,新規,0,2025-04-01,2025-04-01,合同会社Ｋ,,合同会社,香川県,高松市,高松町８７１番地１２４,,37,201,7610104,,,,,,,2025-04-01,1,,,,,ケイ,0
1552,8480005007076,新規,0,2025-04-01,2025-04-01,特定非営利活動法人鳴門ねこの会,,その他の設立登記法人,徳島県,鳴門市,鳴門町高島字浜中７６番地,,36,202,7720051,,,,,,,2025-04-01,1,,,,,ナルトネコノカイ,0
1556,8700150129775,新規,0,2025-04-01,2025-04-01,ＮＩＩＴ　ＬＩＭＩＴＥＤ,,外国会社等,東京都,港区,六本木６丁目１番２０号六本木電気ビル５階・６階・７階,,13,103,1060032,英国、ロンドン、ビショップスゲート２８０、カンパニー・セクレタリアル・デパートメント気付,,,,,,2025-04-01,1,,,,,エヌアイアイテイーリミテツド,0
1571,9010101016588,新規,0,2025-04-01,2025-04-01,華星株式会社,,株式会社,東京都,八王子市,絹ケ丘１丁目４４番２－１０２号,,13,201,1920912,,,,,,,2025-04-01,1,,,,,カセイ,0
1576,9010401189043,新規,0,2025-04-01,2025-04-01,株式会社シシまるＲｅｓｏｒｔ,,株式会社,東京都,港区,台場２丁目２－２－２９０６,,13,103,1350091,,,,,,,2025-04-01,1,,,,,シシマルリゾート,0
1577,9010401189142,新規,0,2025-04-01,2025-04-01,株式会社レオＡＬＰＨＡ自動車,,株式会社,東京都,港区,六本木７丁目３－８永谷ヒルプラザ６１１,,13,103,1060032,,,,,,,2025-04-01,1,,,,,レオアルファジドウシャ,0
1578,9010401189258,新規,0,2025-04-01,2025-04-01,フードツリー株式会社,,株式会社,東京都,港区,西麻布３丁目１６－５,,13,103,1060031,,,,,,,2025-04-01,1,,,,,フードツリー,0
1579,9010403034759,新規,0,2025-04-01,2025-04-01,合同会社ｃｏｄｏｒｙ,,合同会社,東京都,港区,北青山１丁目３－３三橋ビル３階,,13,103,1070061,,,,,,,2025-04-01,1,,,,,コドリー,0
1581,9010405024262,新規,0,2025-04-01,2025-04-01,低圧セカンダリー太陽光一般社団法人,,その他の設立登記法人,東京都,港区,西新橋１丁目１８番地１７明産西新橋ビル３Ｆ,,13,103,1050003,,,,,,,2025-04-01,1,,,,,テイアツセカンダリータイヨウコウ,0
1590,9010801035953,新規,0,2025-04-01,2025-04-01,ＢａｋｅＢｏｗｌ株式会社,,株式会社,東京都,大田区,東糀谷５丁目２２番９号プレミアス東糀谷３０２,,13,111,1440033,,,,,,,2025-04-01,1,,,,,,0
1596,9011001168750,新規,0,2025-04-01,2025-04-01,株式会社エフォーラ,,株式会社,東京都,渋谷区,道玄坂１丁目１２番１号,,13,113,1500043,,,,,,,2025-04-01,1,,,,,エフォーラ,0
1604,9011101111123,新規,0,2025-04-01,2025-04-01,ロアネクス株式会社,,株式会社,東京都,新宿区,西新宿３丁目３番１３号西新宿水間ビル６階,,13,104,1600023,,,,,,,2025-04-01,1,,,,,ロアネクス,0
1605,9011101111148,新規,0,2025-04-01,2025-04-01,熾錦株式会社,,株式会社,東京都,新宿区,四谷三栄町１１－１６－２Ｆ,,13,104,1600008,,,,,,,2025-04-01,1,,,,,シキン,0
1608,9011103015710,新規,0,2025-04-01,2025-04-01,合同会社グッドシューズ,,合同会社,東京都,新宿区,西新宿３丁目３番１３号西新宿水間ビル２Ｆ,,13,104,1600023,,,,,,,2025-04-01,1,,,,,グッドシューズ,0
1609,9011201026213,新規,0,2025-04-01,2025-04-01,株式会社Ｒｅｂｏｏｔ．Ｌａｂ,,株式会社,東京都,中野区,中野２丁目２４番９号中野ステーションレジデンス１９０３,,13,114,1640001,,,,,,,2025-04-01,1,,,,,リブートラボ,0
1612,9011401026946,新規,0,2025-04-01,2025-04-01,太初株式会社,,株式会社,東京都,板橋区,赤塚３丁目２９－９アジュール成増３０２室,,13,119,1750092,,,,,,,2025-04-01,1,,,,,タイショ,0
1613,9011403004652,新規,0,2025-04-01,2025-04-01,合同会社ＫＩＢＡＲＡＳＨＩ,,合同会社,東京都,板橋区,小茂根２丁目２０番１２号ダイアパレス小竹向原５０１,,13,119,1730037,,,,,,,2025-04-01,1,,,,,キバラシ,0
1615,9011601028536,新規,0,2025-04-01,2025-04-01,株式会社ｏａｔｌａｂｏ,,株式会社,東京都,練馬区,下石神井３丁目１７番３号,,13,120,1770042,,,,,,,2025-04-01,1,,,,,オーエーティーラボ,0
1616,9011603004650,新規,0,2025-04-01,2025-04-01,合同会社ラクーズ,,合同会社,東京都,練馬区,豊玉北２丁目７番６－１１３号,,13,120,1760012,,,,,,,2025-04-01,1,,,,,ラクーズ,0
1617,9011701028205,新規,0,2025-04-01,2025-04-01,株式会社Ｃｒｅａｔｉｆ．,,株式会社,東京都,江戸川区,中葛西５丁目４１番１０号ＢＰＲプレイス葛西７Ｆ－２６,,13,123,1340083,,,,,,,2025-04-01,1,,,,,クリエイティフ,0
1618,9011703004179,新規,0,2025-04-01,2025-04-01,Ｆｕｔｕｒｅ　ＷＩＮＧＳ合同会社,,合同会社,東京都,江戸川区,北小岩８丁目１９番２６号,,13,123,1330051,,,,,,,2025-04-01,1,,,,,フューチャーウィングス,0
1621,9011801045876,新規,0,2025-04-01,2025-04-01,ロジスティクス４株式会社,,株式会社,東京都,足立区,柳原２丁目５３番３号,,13,121,1200022,,,,,,,2025-04-01,1,,,,,ロジスティクスフォー,0
1630,9021001084815,新規,0,2025-04-01,2025-04-01,株式会社ＡＬＢＥＲＴＯ,,株式会社,神奈川県,藤沢市,鵠沼橘１丁目１７番４号第一興産２８号館３階３０１号室,00138522,14,205,2510024,,,,,,,2025-04-01,1,,,,,アルベルト,0
1631,9021001084823,新規,0,2025-04-01,2025-04-01,株式会社ふじホールディングス,,株式会社,神奈川県,平塚市,西真土１丁目９番４５号,,14,203,2540019,,,,,,,2025-04-01,1,,,,,フジホールディングス,0
1632,9021001084831,新規,0,2025-04-01,2025-04-01,ＡＭＯ　ＴＲＡＤＩＮＧ株式会社,,株式会社,神奈川県,藤沢市,葛原２５３４番地の２,,14,205,2520822,,,,,,,2025-04-01,1,,,,,エーモトレーディング,0
1637,9030001165640,新規,0,2025-04-01,2025-04-01,株式会社結和,,株式会社,埼玉県,川口市,大字赤芝新田２９２番地の５,,11,203,3330824,,,,,,,2025-04-01,1,,,,,ユウワ,0
1641,9040001138059,新規,0,2025-04-01,2025-04-01,株式会社ＡＹコンサルティング,,株式会社,千葉県,松戸市,新松戸東１０番地の２東急ドエルアルス新松戸３０６号,,12,207,2700033,,,,,,,2025-04-01,1,,,,,エーワイコンサルティング,0
1643,9040003027219,新規,0,2025-04-01,2025-04-01,Ｋｍａｒｔ合同会社,,合同会社,千葉県,船橋市,本中山２丁目２３－１３,,12,204,2730035,,,,,,,2025-04-01,1,,,,,ケイマート,0
1644,9040003027235,新規,0,2025-04-01,2025-04-01,合同会社ワーセナーエクスポート,,合同会社,千葉県,山武市,松尾町山室字宮小路２３２番６,,12,237,2891501,,,,,,,2025-04-01,1,,,,,ワーセナーエクスポート,0
1649,9060001038059,新規,0,2025-04-01,2025-04-01,ＪＡＳＳＩ　ＴＲＡＤＩＮＧ株式会社,,株式会社,栃木県,栃木市,岩舟町新里１３０４番地５号室,,09,203,3294316,,,,,,,2025-04-01,1,,,,,ジャッシトレーディング,0
1655,9100001038450,新規,0,2025-04-01,2025-04-01,エムエム株式会社,,株式会社,長野県,上田市,中央５丁目４番２０号,,20,203,3860012,,,,,,,2025-04-01,1,,,,,エムエム,0
1668,9120001273962,新規,0,2025-04-01,2025-04-01,Ｓｅｅ　Ｙｏｕ株式会社,,株式会社,大阪府,大阪市西淀川区,大和田３丁目７－１１－２Ｆ,,27,113,5550032,,,,,,,2025-04-01,1,,,,,シーユー,0
1669,9120001274069,新規,0,2025-04-01,2025-04-01,株式会社ＷＥＢＳＵＰ,,株式会社,大阪府,大阪市西区,京町堀２丁目４番１－２７０４号,,27,106,5500003,,,,,,,2025-04-01,1,,,,,ウェブサップ,0
1670,9120001274143,新規,0,2025-04-01,2025-04-01,株式会社シンシア,,株式会社,大阪府,大阪市生野区,小路東１丁目３番８号,,27,116,5440003,,,,,,,2025-04-01,1,,,,,シンシア,0
1676,9120903005604,新規,0,2025-04-01,2025-04-01,ＡＢＩＨＡ　ＴＲＡＤＩＮＧ合同会社,,合同会社,大阪府,茨木市,西駅前町８－４－Ａ－２号室,,27,211,5670032,,,,,,,2025-04-01,1,,,,,アビハトレーディング,0
1687,9140003021855,新規,0,2025-04-01,2025-04-01,合同会社ＴｅＴｅ,,合同会社,兵庫県,神戸市須磨区,桜の社一丁目８番１－５０８号,,28,107,6540000,,,,,,,2025-04-01,1,,,,,,0
1691,9150001027977,新規,0,2025-04-01,2025-04-01,大和穂福株式会社,,株式会社,奈良県,葛城市,兵家３番地１,,29,211,6392154,,,,,,,2025-04-01,1,,,,,ヤマトホノフク,0
1692,9150003003539,新規,0,2025-04-01,2025-04-01,合同会社ことの実,,合同会社,奈良県,宇陀市,榛原萩原２６６６,,29,212,6330253,,,,,,,2025-04-01,1,,,,,コトノミ,0
1699,9180301039661,新規,0,2025-04-01,2025-04-01,Ｋ＆Ｎコンサルティング株式会社,,株式会社,愛知県,岡崎市,若松東２丁目２４番地１３,,23,202,4440822,,,,,,,2025-04-01,1,,,,,ケイアンドエヌコンサルティング,0
1702,9200003006718,新規,0,2025-04-01,2025-04-01,Ｋ＆Ａ合同会社,,合同会社,岐阜県,大垣市,池尻町１６０８－１,,21,202,5032204,,,,,,,2025-04-01,1,,,,,ケイアンドエー,0
1703,9200003006750,新規,0,2025-04-01,2025-04-01,東海さくら合同会社,,合同会社,岐阜県,本巣市,三橋１０９６番地１１新日本ビル１０１号室,,21,218,5010406,,,,,,,2025-04-01,1,,,,,トウカイサクラ,0
1704,9220001026575,新規,0,2025-04-01,2025-04-01,株式会社ＮＥＸＴ　ＬＩＮＫ,,株式会社,石川県,金沢市,藤江南１丁目１２８番地５（Ｄ－ｒｅｓｉｄｅｎｃｅ藤江Ｉ・３０１号）,00138517,17,201,9200346,,,,,,,2025-04-01,1,,,,,ネクストリンク,0
1711,9260001040052,新規,0,2025-04-01,2025-04-01,株式会社カーネーション,,株式会社,岡山県,倉敷市,藤戸町天城２１２２－６,,33,202,7100132,,,,,,,2025-04-01,1,,,,,カーネーション,0
1712,9260003005111,新規,0,2025-04-01,2025-04-01,合同会社スカイプロパティ,,合同会社,岡山県,倉敷市,日ノ出町１丁目６番３２－６号ＳＯＵＹＯ１０１号室,,33,202,7100063,,,,,,,2025-04-01,1,,,,,スカイプロパティ,0
1714,9290001109472,新規,0,2025-04-01,2025-04-01,Ｍｅｒｉｔｏ株式会社,,株式会社,福岡県,福岡市中央区,天神３丁目１６番１７号,,40,133,8100001,,,,,,,2025-04-01,1,,,,,メリト,0
1715,9290003016601,新規,0,2025-04-01,2025-04-01,合同会社ＲｉｚｅＣｏｒｅ,,合同会社,福岡県,福岡市博多区,博多駅前１丁目２３番２号ＰａｒｋＦｒｏｎｔ博多駅前１丁目５Ｆ－Ｂ,,40,132,8120011,,,,,,,2025-04-01,1,,,,,ライズコア,0
1723,9360001034960,新規,0,2025-04-01,2025-04-01,株式会社ＭＫカンパニー,,株式会社,沖縄県,宜野湾市,大山７丁目１０番４１－８０４号,,47,205,9012223,,,,,,,2025-04-01,1,,,,,エムケイカンパニー,0
1731,9380003006007,新規,0,2025-04-01,2025-04-01,合同会社カルエム,,合同会社,福島県,いわき市,勿来町酒井酒井原５１番地の６,,07,204,9790142,,,,,,,2025-04-01,1,,,,,カルエム,0
1741,9450003002626,新規,0,2025-04-01,2025-04-01,ミズベリング旭川合同会社,,合同会社,北海道,旭川市,神居四条２１丁目６０番地の６９,,01,204,0708014,,,,,,,2025-04-01,1,,,,,ミズベリングアサヒカワ,0
1742,9460103001700,新規,0,2025-04-01,2025-04-01,合同会社ＫＪＫ,,合同会社,北海道,帯広市,緑ケ丘一条通６丁目２２番地,,01,207,0800841,,,,,,,2025-04-01,1,,,,,ケイジェイケイ,0
1744,9480005007075,新規,0,2025-04-01,2025-04-01,医療法人光の都,,その他の設立登記法人,徳島県,板野郡藍住町,東中富字龍池傍示５４番地３,,36,403,7711220,,,,,,,2025-04-01,1,,,,,ヒカリノミヤコ,0
1750,9700150129270,新規,0,2025-04-01,2025-03-17,小野まつり実行委員会,,その他,兵庫県,小野市,中島町７２,,28,218,6751366,,,,,,,2025-03-17,1,,,,,オノマツリジッコウイインカイ,0
