sequenceNumber,corporateNumber,process,correct,updateDate,changeDate,name,nameImageId,kind,prefectureName,cityName,streetNumber,addressImageId,prefectureCode,cityCode,postCode,addressOutside,addressOutsideImageId,closeDate,closeCause,successorCorporateNumber,changeCause,assignmentDate,latest,enName,enPrefectureName,enCityName,enAddressOutside,furigana,hihyoji
1,1010001131263,登記記録の閉鎖等,0,2024-07-31,2024-07-17,奥山工業株式会社,,株式会社,東京都,八丈島八丈町,三根３５５番地,,13,401,1001511,,,2024-07-17,清算の結了等,,,2015-10-05,1,,,,,オクヤマコウギョウ,0
4,1010003016974,登記記録の閉鎖等,0,2024-07-31,2024-07-18,合同会社あじさいプロパティ,,合同会社,東京都,千代田区,九段北４丁目１番３号,,13,101,1020073,,,2024-07-18,清算の結了等,,,2015-10-05,1,,,,,アジサイプロパティ,0
8,1010401158699,登記記録の閉鎖等,0,2024-07-31,2024-07-09,株式会社ディアーズ・ブレインホールディングス,,株式会社,東京都,港区,芝公園２丁目６番３号,,13,103,1050011,,,2024-07-09,合併による解散等,3010401098497,令和６年７月１日東京都港区芝公園二丁目６番３号株式会社ディアーズ・ブレイン（3010401098497）に合併し解散,2021-03-11,1,,,,,ディアーズブレインホールディングス,0
14,1010405003471,登記記録の閉鎖等,0,2024-07-31,2024-07-10,ＩＴマネジメント・サポート協同組合,,その他の設立登記法人,東京都,渋谷区,代々木２丁目３０番４号,,13,113,1510053,,,2024-07-10,清算の結了等,,,2015-10-05,1,,,,,,0
23,1010801022587,登記記録の閉鎖等,0,2024-07-31,2024-07-18,株式会社小林電機製作所,,株式会社,東京都,大田区,田園調布本町２９番５号,,13,111,1450072,,,2024-07-18,清算の結了等,,,2015-10-05,1,,,,,コバヤシデンキセイサクショ,0
27,1011001015365,登記記録の閉鎖等,0,2024-07-31,2024-07-09,東新社宅株式会社,,株式会社,東京都,港区,芝２丁目２７番１３号,,13,103,1050014,,,2024-07-09,清算の結了等,,,2015-10-05,1,,,,,トウシンシャタク,0
73,1013301045463,登記記録の閉鎖等,0,2024-07-31,2024-07-24,株式会社ゼウスリード,,株式会社,東京都,豊島区,長崎２丁目８番１０号,,13,116,1710051,,,2024-07-24,清算の結了等,,,2020-04-08,1,,,,,ゼウスリード,0
87,1021002058032,登記記録の閉鎖等,0,2024-07-31,2024-07-29,有限会社湘南アベニュー,,有限会社,神奈川県,平塚市,南原１丁目１８番１７号,,14,203,2540065,,,2024-07-29,清算の結了等,,,2015-10-05,1,,,,,ショウナンアベニュー,0
90,1030001062886,登記記録の閉鎖等,0,2024-07-31,2024-07-25,株式会社フジパートナー,,株式会社,埼玉県,北足立郡伊奈町,内宿台２丁目１１３番,,11,301,3620812,,,2024-07-25,清算の結了等,,,2015-10-05,1,,,,,フジパートナー,0
114,1070002010741,登記記録の閉鎖等,0,2024-07-31,2024-07-30,有限会社高崎ハイクリーナー,00025564,有限会社,群馬県,高崎市,下横町１４番地１１,,10,202,3700837,,,2024-07-30,清算の結了等,,,2015-10-05,1,,,,,タカサキハイクリーナー,0
118,1080102002464,登記記録の閉鎖等,0,2024-07-31,2024-07-29,有限会社藤久,,有限会社,静岡県,沼津市,旭町１０３番地,,22,203,4100852,,,2024-07-29,清算の結了等,,,2015-10-05,1,,,,,トウキュウ,0
120,1080402009069,登記記録の閉鎖等,0,2024-07-31,2024-07-24,有限会社レディースキヨ,,有限会社,静岡県,浜松市中央区,篠原町１００７０番地の３,,22,138,4310201,,,2024-07-24,清算の結了等,,,2015-10-05,1,,,,,レディースキヨ,0
121,1090003001903,登記記録の閉鎖等,0,2024-07-31,2024-07-24,合同会社富士,,合同会社,山梨県,南都留郡忍野村,内野３３２番地４７７,,19,424,4010512,,,2024-07-24,清算の結了等,,,2021-07-13,1,,,,,フジ,0
127,1120001006529,登記記録の閉鎖等,0,2024-07-31,2024-07-30,株式会社三田屋,,株式会社,大阪府,大阪市阿倍野区,阪南町３丁目６番１８号,,27,119,5450021,,,2024-07-30,清算の結了等,,,2015-10-05,1,,,,,サンダヤ,0
141,1120005011888,登記記録の閉鎖等,0,2024-07-31,2024-07-26,特定非営利活動法人　Ｆｏｏｄ　Ｈｅｒｉｔａｇｅ　Ｊａｐａｎ,,その他の設立登記法人,大阪府,大阪市中央区,安土町２丁目３番１３号,,27,128,5410052,,,2024-07-26,清算の結了等,,,2015-10-05,1,,,,,フードヘリテイジジャパン,0
171,1180001118252,登記記録の閉鎖等,0,2024-07-31,2024-07-16,サン株式会社,,株式会社,愛知県,一宮市,大毛字小松寺東２７番地１,,23,203,4910132,,,2024-07-16,清算の結了等,,,2015-10-05,1,,,,,サン,0
172,1180001134299,登記記録の閉鎖等,0,2024-07-31,2024-07-16,株式会社エフェクト,,株式会社,愛知県,名古屋市名東区,上社２丁目２０７番地福善ビル１Ａ,,23,115,4650025,,,2024-07-16,清算の結了等,,,2018-11-05,1,,,,,エフェクト,0
174,1180001157713,登記記録の閉鎖等,0,2024-07-31,2024-07-17,株式会社ＴＥＡ＆ＰＲＩＤＥ,,株式会社,愛知県,名古屋市天白区,植田東２丁目１６１６番地,,23,116,4680006,,,2024-07-17,清算の結了等,,,2023-08-21,1,,,,,ティーアンドプライド,0
191,1200002010991,登記記録の閉鎖等,0,2024-07-31,2024-07-25,有限会社東洋電気,,有限会社,岐阜県,岐阜市,上川手３２０番地２,,21,201,5008245,,,2024-07-25,清算の結了等,,,2015-10-05,1,,,,,トウヨウデンキ,0
196,1230003002003,登記記録の閉鎖等,0,2024-07-31,2024-07-29,カモミール合同会社,,合同会社,富山県,氷見市,朝日丘７番１５号,,16,205,9350023,,,2024-07-29,清算の結了等,,,2023-04-17,1,,,,,カモミール,0
203,1240002013512,登記記録の閉鎖等,0,2024-07-31,2024-07-29,有限会社花本鉄工所,,有限会社,広島県,広島市南区,元宇品町４０番４号,,34,103,7340012,,,2024-07-29,清算の結了等,,,2015-10-05,1,,,,,ハナモトテッコウショ,0
225,1290801001935,登記記録の閉鎖等,0,2024-07-31,2024-07-18,株式会社じゅらく,,株式会社,福岡県,北九州市戸畑区,中原西１丁目１１番１５号,,40,105,8040011,,,2024-07-18,清算の結了等,,,2015-10-05,1,,,,,ジュラク,0
226,1290801017873,登記記録の閉鎖等,0,2024-07-31,2024-07-19,メディカルケイズ株式会社,,株式会社,福岡県,北九州市小倉南区,南方５丁目６番３６号,,40,107,8020976,,,2024-07-19,清算の結了等,,,2015-10-05,1,,,,,メディカルケイズ,0
233,1330001012968,登記記録の閉鎖等,0,2024-07-31,2024-07-19,株式会社プレシード・ジェム,,株式会社,熊本県,宇城市,松橋町萩尾２２１３番地１,,43,213,8690513,,,2024-07-19,清算の結了等,,,2015-10-05,1,,,,,プレシードジェム,0
239,1350005005933,登記記録の閉鎖等,0,2024-07-31,2024-07-12,特定非営利活動法人日本化粧療法レクレーション協会,,その他の設立登記法人,宮崎県,日向市,江良町４丁目８１番地柏田テナント１階北側号室,,45,206,8830012,,,2024-07-12,清算の結了等,,,2020-06-12,1,,,,,ニホンケショウリョウホウレクレーションキョウカイ,0
249,1380001017954,登記記録の閉鎖等,0,2024-07-31,2024-07-17,株式会社吉田ストア,,株式会社,福島県,会津若松市,川原町１番９号,,07,202,9650865,,,2024-07-17,清算の結了等,,,2015-10-05,1,,,,,ヨシダストア,0
254,1390002016021,登記記録の閉鎖等,0,2024-07-31,2024-07-12,有限会社谷地男,,有限会社,山形県,西村山郡河北町,谷地中央４丁目７番地の７,,06,321,9993512,,,2024-07-12,清算の結了等,,,2015-10-05,1,,,,,ヤチオトコ,0
261,1410005005373,登記記録の閉鎖等,0,2024-07-31,2024-07-17,特定非営利活動法人スポーツコミュニケーション,,その他の設立登記法人,秋田県,秋田市,御野場８丁目７番１号,,05,201,0101424,,,2024-07-17,清算の結了等,,,2015-10-05,1,,,,,スポーツコミュニケーション,0
264,1420001007538,登記記録の閉鎖等,0,2024-07-31,2024-07-19,センサ工業株式会社,,株式会社,青森県,八戸市,大字新井田字出口平２１番地１,,02,203,0310813,,,2024-07-19,合併による解散等,1030001027575,令和６年７月１日東京都中央区日本橋二丁目３番４号株式会社大泉製作所（1030001027575）に合併し解散,2015-10-05,1,,,,,,0
270,1450002005298,登記記録の閉鎖等,0,2024-07-31,2024-07-29,有限会社丸仙,,有限会社,北海道,旭川市,流通団地一条２丁目旭一内,,01,204,0798441,,,2024-07-29,清算の結了等,,,2015-10-05,1,,,,,,0
272,1470001012756,登記記録の閉鎖等,0,2024-07-31,2024-07-23,株式会社アヘッド,,株式会社,香川県,丸亀市,今津町３７７番地３,,37,202,7630051,,,2024-07-23,清算の結了等,,,2015-10-05,1,,,,,,0
286,2010001209513,登記記録の閉鎖等,0,2024-07-31,2024-07-17,コグリープ株式会社,,株式会社,東京都,中央区,銀座１丁目１６番７号銀座大栄ビル５階,,13,102,1040061,,,2024-07-17,清算の結了等,,,2020-05-14,1,,,,,コグリープ,0
295,2010401128437,登記記録の閉鎖等,0,2024-07-31,2024-07-08,山水事業株式会社,,株式会社,東京都,港区,三田１丁目２番１８号ＴＴＤビル,,13,103,1080073,,,2024-07-08,清算の結了等,,,2016-11-30,1,,,,,,0
304,2010403028619,登記記録の閉鎖等,0,2024-07-31,2024-07-09,Ｏｃｅａｎ　ａｎｄ　Ｂｒｉｎｅ　Ｍａｒｉｎｅ　Ｓｐａｒｅｓ合同会社,,合同会社,東京都,港区,赤坂２丁目１４番５号Ｄａｉｗａ赤坂ビル４階,,13,103,1070052,,,2024-07-09,清算の結了等,,,2022-10-05,1,,,,,オーシャンアンドブラインマリーンスペアズ,0
306,2010501048865,登記記録の閉鎖等,0,2024-07-31,2024-07-25,株式会社Ｈａｌｃｙｏｎ,,株式会社,東京都,台東区,根岸２丁目１８－８－６０５号,,13,106,1100003,,,2024-07-25,清算の結了等,,,2022-06-01,1,,,,,ハルシオン,0
307,2010502018982,登記記録の閉鎖等,0,2024-07-31,2024-07-24,株式会社ハーティハート,,株式会社,東京都,台東区,浅草橋５丁目２０番８号ＣＳタワー９階,,13,106,1110053,,,2024-07-24,清算の結了等,,,2015-10-05,1,,,,,ハーティハート,0
311,2010601063054,登記記録の閉鎖等,0,2024-07-31,2024-07-29,ＳｔａｒｔＡＩ株式会社,,株式会社,東京都,江東区,有明３丁目７－２６有明フロンティアビルＢ棟９階,,13,108,1350063,,,2024-07-29,清算の結了等,,,2023-05-08,1,,,,,スタートエーアイ,0
312,2010603009014,登記記録の閉鎖等,0,2024-07-31,2024-07-29,ＲｅＦＩＮｅＤ合同会社,,合同会社,東京都,墨田区,江東橋３丁目５番２号サーストンビル８階（８０１号室）,,13,107,1300022,,,2024-07-29,清算の結了等,,,2021-06-30,1,,,,,リファインド,0
321,2010901026826,登記記録の閉鎖等,0,2024-07-31,2024-07-25,株式会社フードサービスささ木,,株式会社,東京都,世田谷区,砧１丁目１６番１３号,,13,112,1570073,,,2024-07-25,清算の結了等,,,2015-10-05,1,,,,,フードサービスササキ,0
338,2011405001902,登記記録の閉鎖等,0,2024-07-31,2024-07-23,一般社団法人城北相続支援ネットワーク,,その他の設立登記法人,東京都,板橋区,東坂下１丁目１７番２０号,,13,119,1740042,,,2024-07-23,清算の結了等,,,2017-04-10,1,,,,,ジョウホクソウゾクシエンネットワーク,0
344,2011802012238,登記記録の閉鎖等,0,2024-07-31,2024-07-25,有限会社京浜小型モータース,,有限会社,東京都,足立区,保木間５丁目３３番４号,,13,121,1210064,,,2024-07-25,清算の結了等,,,2015-10-05,1,,,,,,0
350,2012701009861,登記記録の閉鎖等,0,2024-07-31,2024-07-23,株式会社ワクボン,,株式会社,東京都,西東京市,ひばりが丘３丁目２番５３－２０８号,,13,229,2020001,,,2024-07-23,清算の結了等,,,2015-10-05,1,,,,,ワクボン,0
355,2020002011339,登記記録の閉鎖等,0,2024-07-31,2024-07-09,有限会社エヌビーエム商事,,有限会社,神奈川県,横浜市戸塚区,汲沢５丁目４番２２号,00010263,14,110,2450061,,,2024-07-09,清算の結了等,,,2015-10-05,1,,,,,エヌビーエムショウジ,0
357,2020002083543,登記記録の閉鎖等,0,2024-07-31,2024-07-09,有限会社小島精米店,,有限会社,神奈川県,川崎市中原区,新城４丁目２番１号,,14,133,2110044,,,2024-07-09,清算の結了等,,,2015-10-05,1,,,,,コジマセイマイテン,0
369,2021005006623,登記記録の閉鎖等,0,2024-07-31,2024-07-19,ＮＰＯ法人相模原アレルギーの会,,その他の設立登記法人,神奈川県,相模原市南区,相模大野３丁目３番２号ｂｏｎｏ相模大野サウスモール３階ユニコムプラザさがみはらシェアードオフィス,,14,153,2520303,,,2024-07-19,清算の結了等,,,2015-10-05,1,,,,,サガミハラアレルギーノカイ,0
375,2030005016920,登記記録の閉鎖等,0,2024-07-31,2024-07-25,ＮＰＯ法人大道・屋敷林の会,,その他の設立登記法人,埼玉県,越谷市,大字大道２４８番地２１,,11,222,3430035,,,2024-07-25,清算の結了等,,,2015-10-05,1,,,,,オオミチヤシキリンノカイ,0
381,2050002026334,登記記録の閉鎖等,0,2024-07-31,2024-07-23,有限会社鹿住企画,,有限会社,茨城県,鹿嶋市,宮中５丁目１３番１１号,,08,222,3140031,,,2024-07-23,清算の結了等,,,2015-10-05,1,,,,,カスミキカク,0
422,2120901007393,登記記録の閉鎖等,0,2024-07-31,2024-07-22,太陽シンクス株式会社,,株式会社,大阪府,吹田市,出口町３２番５号,,27,205,5640072,,,2024-07-22,清算の結了等,,,2015-10-05,1,,,,,タイヨウシンクス,0
426,2130001020288,登記記録の閉鎖等,0,2024-07-31,2024-07-25,加藤興産株式会社,,株式会社,京都府,京都市南区,東九条南烏丸町３２番地の４,,26,107,6018041,,,2024-07-25,清算の結了等,,,2015-10-05,1,,,,,カトウコウサン,0
444,2180001027205,登記記録の閉鎖等,0,2024-07-31,2024-07-16,株式会社丸大,,株式会社,愛知県,名古屋市中区,丸の内１丁目１０番２９号白川第八ビル６階,,23,106,4600002,,,2024-07-16,清算の結了等,,,2015-10-05,1,,,,,マルダイ,0
457,2180301021527,登記記録の閉鎖等,0,2024-07-31,2024-07-12,クーレヨン株式会社,,株式会社,愛知県,一宮市,奥町字郷浦９９番地,,23,203,4910201,,,2024-07-12,清算の結了等,,,2015-10-05,1,,,,,クーレヨン,0
467,2200001033340,登記記録の閉鎖等,0,2024-07-31,2024-07-16,ＣＭＫ株式会社,,株式会社,愛知県,一宮市,大宮１丁目３番２４号,,23,203,4910044,,,2024-07-16,清算の結了等,,,2016-10-13,1,,,,,シーエムケー,0
484,2250001016737,登記記録の閉鎖等,0,2024-07-31,2024-07-26,松岡工建株式会社,,株式会社,山口県,岩国市,角７６番地７,,35,208,7400327,,,2024-07-26,清算の結了等,,,2017-08-04,1,,,,,マツオカコウケン,0
493,2270005004686,登記記録の閉鎖等,0,2024-07-31,2024-07-29,特定非営利活動法人ラドン温泉医療による健康日本推進三朝会議,,その他の設立登記法人,鳥取県,東伯郡三朝町,大字大瀬６４０番地１,,31,364,6820121,,,2024-07-29,清算の結了等,,,2015-10-05,1,,,,,ラドンオンセンイリョウニヨルケンコウニホンスイシンミササカイギ,0
515,2340002015448,登記記録の閉鎖等,0,2024-07-31,2024-07-26,連峰警備保障有限会社,,有限会社,鹿児島県,霧島市,溝辺町麓２８３番地１４,,46,218,8996404,,,2024-07-26,清算の結了等,,,2015-10-05,1,,,,,レンポウケイビホショウ,0
526,2370602000664,登記記録の閉鎖等,0,2024-07-31,2024-07-10,有限会社今野建業,,有限会社,宮城県,本吉郡南三陸町,志津川字竹川原１２番地４,,04,606,9860776,,,2024-07-10,清算の結了等,,,2015-10-05,1,,,,,コンノケンギョウ,0
530,2420001008584,登記記録の閉鎖等,0,2024-07-31,2024-07-24,株式会社つるたカイハツ生コン,,株式会社,青森県,北津軽郡鶴田町,大字廻堰字稲川３番地４,,02,384,0383542,,,2024-07-24,清算の結了等,,,2015-10-05,1,,,,,ツルタカイハツナマコン,0
535,2430002052481,登記記録の閉鎖等,0,2024-07-31,2024-07-25,有限会社谷岡組,,有限会社,北海道,滝川市,江部乙町７３５番地８,,01,225,0790461,,,2024-07-25,清算の結了等,,,2015-10-05,1,,,,,タニオカグミ,0
574,3010602022371,登記記録の閉鎖等,0,2024-07-31,2024-07-30,有限会社ワイ・エム・エイ科学,,有限会社,東京都,江東区,東砂４丁目２４番３－６２５号,,13,108,1360074,,,2024-07-30,清算の結了等,,,2015-10-05,1,,,,,,0
579,3010801011373,登記記録の閉鎖等,0,2024-07-31,2024-07-22,株式会社丸八屋,,株式会社,東京都,大田区,山王１丁目２３番２１号,,13,111,1430023,,,2024-07-22,清算の結了等,,,2015-10-05,1,,,,,マルハチヤ,0
586,3011101037381,登記記録の閉鎖等,0,2024-07-31,2024-07-16,ダイヤモンドライフ株式会社,,株式会社,東京都,新宿区,西新宿３丁目９番１２号,,13,104,1600023,,,2024-07-16,清算の結了等,,,2015-10-05,1,,,,,ダイヤモンドライフ,0
604,3011602004153,登記記録の閉鎖等,0,2024-07-31,2024-07-24,有限会社さん・あっぷる,,有限会社,東京都,練馬区,豊玉南２丁目７番２号,,13,120,1760014,,,2024-07-24,清算の結了等,,,2015-10-05,1,,,,,サンアップル,0
622,3020001102823,登記記録の閉鎖等,0,2024-07-31,2024-07-09,株式会社ジーグラントクリエイティブ,,株式会社,東京都,港区,浜松町２丁目２番１５号浜松町ダイヤビル２Ｆ,,13,103,1050013,,,2024-07-09,清算の結了等,,,2015-10-05,1,,,,,ジーグラントクリエイティブ,0
624,3021001032457,登記記録の閉鎖等,0,2024-07-31,2024-07-30,大野興業株式会社,,株式会社,神奈川県,小田原市,寿町３丁目４番２６号,,14,206,2500002,,,2024-07-30,清算の結了等,,,2015-10-05,1,,,,,オオノコウギョウ,0
642,3030001110189,登記記録の閉鎖等,0,2024-07-31,2024-07-22,株式会社アスラ,,株式会社,埼玉県,さいたま市緑区,宮本２丁目２４番地１５,,11,109,3360916,,,2024-07-22,清算の結了等,,,2015-10-05,1,,,,,アスラ,0
648,3040001016253,登記記録の閉鎖等,0,2024-07-31,2024-07-12,株式会社優良住宅販売,,株式会社,千葉県,白井市,冨士１１４番地の７冨士ハイム１０４号室のＡ,,12,232,2701432,,,2024-07-12,清算の結了等,,,2015-10-05,1,,,,,ユウリョウジュウタクハンバイ,0
655,3050002015451,登記記録の閉鎖等,0,2024-07-31,2024-07-22,有限会社関商事,,有限会社,茨城県,石岡市,東石岡５丁目２番３５号,,08,205,3150037,,,2024-07-22,清算の結了等,,,2015-10-05,1,,,,,セキショウジ,0
661,3080001010698,登記記録の閉鎖等,0,2024-07-31,2024-07-19,株式会社静岡機電,,株式会社,静岡県,静岡市葵区,奈良間２５３番地,,22,101,4211312,,,2024-07-19,清算の結了等,,,2015-10-05,1,,,,,シズオカキデン,0
668,3080401024026,登記記録の閉鎖等,0,2024-07-31,2024-07-24,ＴＭパートナーズ株式会社,,株式会社,静岡県,浜松市中央区,笠井町２６５番地の１,,22,138,4313107,,,2024-07-24,清算の結了等,,,2019-12-09,1,,,,,ティーエムパートナーズ,0
671,3100001004945,登記記録の閉鎖等,0,2024-07-31,2024-07-11,アイコス株式会社,,株式会社,長野県,長野市,大字高田２４１０番地３６,,20,201,3810034,,,2024-07-11,清算の結了等,,,2015-10-05,1,,,,,アイコス,0
707,3140001106572,登記記録の閉鎖等,0,2024-07-31,2024-07-26,ペプコムファーマ株式会社,,株式会社,兵庫県,宝塚市,川面６丁目２１番５０号,,28,214,6650842,,,2024-07-26,清算の結了等,,,2017-06-15,1,,,,,ペプコムファーマ,0
715,3150001008314,登記記録の閉鎖等,0,2024-07-31,2024-07-29,株式会社吉村樹脂,,株式会社,奈良県,生駒郡平群町,大字若井２９６番地,,29,342,6360916,,,2024-07-29,清算の結了等,,,2015-10-05,1,,,,,ヨシムラジュシ,0
721,3180001021231,登記記録の閉鎖等,0,2024-07-31,2024-07-12,株式会社ヤマト食品,,株式会社,愛知県,名古屋市中川区,花塚町４丁目１８番地,00080460,23,110,4540052,,,2024-07-12,清算の結了等,,,2015-10-05,1,,,,,ヤマトショクヒン,0
729,3180302002590,登記記録の閉鎖等,0,2024-07-31,2024-07-24,有限会社古田住工,,有限会社,愛知県,岡崎市,若宮町１丁目７番地,,23,202,4440014,,,2024-07-24,清算の結了等,,,2015-10-05,1,,,,,フルタジュウコウ,0
730,3180302007152,登記記録の閉鎖等,0,2024-07-31,2024-07-23,有限会社吉長,,有限会社,愛知県,豊橋市,中原町字東山６９番地の２３,,23,201,4413106,,,2024-07-23,清算の結了等,,,2015-10-05,1,,,,,キッチョウ,0
739,3210005009310,登記記録の閉鎖等,0,2024-07-31,2024-07-25,特定非営利活動法人心の健康相談室こだちのもり,,その他の設立登記法人,福井県,福井市,光陽３丁目９番１５号,,18,201,9100026,,,2024-07-25,清算の結了等,,,2015-10-05,1,,,,,ココロノケンコウソウダンシツコダチノモリ,0
744,3240001017553,登記記録の閉鎖等,0,2024-07-31,2024-07-25,株式会社優希,,株式会社,広島県,広島市安佐北区,白木町大字三田１４１０番地,,34,106,7391521,,,2024-07-25,合併による解散等,2240002029912,令和６年７月１１日広島市安佐北区上深川町２８３番地１石見商事株式会社（2240002029912）に合併し解散,2015-10-05,1,,,,,ユウキ,0
750,3240002001663,登記記録の閉鎖等,0,2024-07-31,2024-07-25,有限会社石見,,有限会社,広島県,広島市安佐北区,上深川町２８３番地の１,,34,106,7391752,,,2024-07-25,合併による解散等,2240002029912,令和６年７月１１日広島市安佐北区上深川町２８３番地１石見商事株式会社（2240002029912）に合併し解散,2015-10-05,1,,,,,イワミ,0
758,3260005002921,登記記録の閉鎖等,0,2024-07-31,2024-07-18,特定非営利活動法人ころばぬ先,,その他の設立登記法人,岡山県,岡山市東区,西大寺中２丁目１６番３３号,,33,103,7048116,,,2024-07-18,清算の結了等,,,2015-10-05,1,,,,,コロバヌサキ,0
762,3290001007995,登記記録の閉鎖等,0,2024-07-31,2024-07-22,株式会社システムビィー・アルファ,,株式会社,福岡県,福岡市博多区,博多駅前１丁目３番３号,,40,132,8120011,,,2024-07-22,合併による解散等,7010001087640,令和６年７月１日東京都千代田区神田美土代町７番地メディカル・データ・ビジョン株式会社（7010001087640）に合併し解散,2015-10-05,1,,,,,システムビィーアルファ,0
765,3290003011649,登記記録の閉鎖等,0,2024-07-31,2024-06-28,合同会社フィールドデザイン,,合同会社,福岡県,福津市,福間駅東３丁目１３番１２号,,40,224,8113208,,,2024-06-28,清算の結了等,,,2021-09-27,1,,,,,フィールドデザイン,0
769,3290801018928,登記記録の閉鎖等,0,2024-07-31,2024-07-19,株式会社九州オズ,,株式会社,福岡県,北九州市若松区,小敷ひびきの２丁目２番１０号,,40,103,8080139,,,2024-07-19,清算の結了等,,,2015-10-05,1,,,,,キュウシュウオズ,0
779,3330002026899,登記記録の閉鎖等,0,2024-07-31,2024-07-22,有限会社八竜工業,,有限会社,熊本県,八代市,坂本町西部ろ１５１６番地,,43,202,8696101,,,2024-07-22,清算の結了等,,,2015-10-05,1,,,,,ハチリュウコウギョウ,0
793,3390002000064,登記記録の閉鎖等,0,2024-07-31,2024-07-12,有限会社アキバ園,,有限会社,山形県,山形市,やよい２丁目４番５号,,06,201,9900835,,,2024-07-12,清算の結了等,,,2015-10-05,1,,,,,アキバエン,0
803,3430002024430,登記記録の閉鎖等,0,2024-07-31,2024-07-19,有限会社北海道コノエ,,有限会社,北海道,札幌市北区,北十八条西３丁目２番２６号,,01,102,0010018,,,2024-07-19,清算の結了等,,,2015-10-05,1,,,,,ホッカイドウコノエ,0
814,3700150106408,削除,,2024-07-31,,,,,,,,,,,,,,,,,,,,,,,,,
859,4011001003350,登記記録の閉鎖等,0,2024-07-31,2024-07-24,エイシンテクノ株式会社,,株式会社,埼玉県,川越市,芳野台２丁目８番３８号,,11,201,3500833,,,2024-07-24,清算の結了等,,,2015-10-05,1,,,,,エイシンテクノ,0
892,4011802029172,登記記録の閉鎖等,0,2024-07-31,2024-07-24,有限会社ＣＳトラスト,,有限会社,東京都,葛飾区,亀有３丁目３１番３号,,13,122,1250061,,,2024-07-24,合併による解散等,6011802003547,令和６年３月１日東京都葛飾区亀有三丁目３１番３号株式会社ＦＵＤＯホールディングス（6011802003547）に合併し解散,2015-10-05,1,,,,,シーエストラスト,0
903,4020001126111,登記記録の閉鎖等,0,2024-07-31,2024-07-09,株式会社アクアクララ横浜,,株式会社,神奈川県,横浜市戸塚区,名瀬町１２７番地１,,14,110,2450051,,,2024-07-09,清算の結了等,,,2018-04-27,1,,,,,アクアクララヨコハマ,0
904,4020001127258,登記記録の閉鎖等,0,2024-07-31,2024-07-08,株式会社ＲＥＦＯＲＵＳ,,株式会社,神奈川県,横浜市港南区,芹が谷３丁目３番９号１階,,14,111,2330006,,,2024-07-08,清算の結了等,,,2018-07-25,1,,,,,リフォラス,0
913,4030002068285,登記記録の閉鎖等,0,2024-07-31,2024-07-25,有限会社小林ビルサービス,,有限会社,埼玉県,春日部市,中央３丁目５番５号エンブレム春日部Ｉ－１０８,00016988,11,214,3440067,,,2024-07-25,清算の結了等,,,2015-10-05,1,,,,,コバヤシビルサービス,0
916,4040001042579,登記記録の閉鎖等,0,2024-07-31,2024-07-12,株式会社エフ・ジー・エス,,株式会社,千葉県,千葉市若葉区,若松町２１００番地５,,12,104,2640021,,,2024-07-12,清算の結了等,,,2015-10-05,1,,,,,エフジーエス,0
927,4050002036546,登記記録の閉鎖等,0,2024-07-31,2024-07-12,有限会社トキワ,,有限会社,茨城県,取手市,本郷２丁目１２番６号,,08,217,3020022,,,2024-07-12,清算の結了等,,,2015-10-05,1,,,,,トキワ,0
946,4110002010032,登記記録の閉鎖等,0,2024-07-31,2024-07-23,有限会社イバラ重機,,有限会社,新潟県,新潟市南区,茨曽根３６０１番地,00070718,15,106,9501456,,,2024-07-23,清算の結了等,,,2015-10-05,1,,,,,イバラジュウキ,0
947,4120001036498,登記記録の閉鎖等,0,2024-07-31,2024-07-29,丸井自動車工業株式会社,,株式会社,大阪府,大阪市福島区,福島３丁目７番３７号,,27,103,5530003,,,2024-07-29,清算の結了等,,,2015-10-05,1,,,,,マルイジドウシャコウギョウ,0
952,4120001130177,登記記録の閉鎖等,0,2024-07-31,2024-07-29,株式会社Ｆｉｌｌ,,株式会社,大阪府,大阪市東淀川区,小松５丁目６番４１号,,27,114,5330004,,,2024-07-29,清算の結了等,,,2015-10-05,1,,,,,フィル,0
953,4120001171394,登記記録の閉鎖等,0,2024-07-31,2024-07-29,株式会社スリーフィールド,,株式会社,大阪府,大阪市北区,浪花町６－５－２０１,,27,127,5300022,,,2024-07-29,清算の結了等,,,2015-10-05,1,,,,,スリーフィールド,0
954,4120001187143,登記記録の閉鎖等,0,2024-07-31,2024-07-29,株式会社Ｓｔａｒｔｒａｃｅ,,株式会社,大阪府,大阪市平野区,背戸口５丁目３－１０宝生ビル３階・４階,,27,126,5470034,,,2024-07-29,清算の結了等,,,2015-10-05,1,,,,,スタートレース,0
969,4120102013578,登記記録の閉鎖等,0,2024-07-31,2024-07-25,有限会社ライフサポートみどり,,有限会社,大阪府,堺市中区,陶器北１８６０番地１,,27,142,5998242,,,2024-07-25,清算の結了等,,,2015-10-05,1,,,,,ライフサポートミドリ,0
990,4140002068951,登記記録の閉鎖等,0,2024-07-31,2024-07-26,有限会社トムキンス,,有限会社,兵庫県,洲本市,小路谷１２８０番地の４４,,28,205,6560023,,,2024-07-26,清算の結了等,,,2015-10-05,1,,,,,トムキンス,0
1032,4210002002985,登記記録の閉鎖等,0,2024-07-31,2024-07-23,有限会社ヒラタプラン,,有限会社,福井県,福井市,石盛２丁目１１０４番地,,18,201,9100125,,,2024-07-23,清算の結了等,,,2015-10-05,1,,,,,ヒラタプラン,0
1039,4240002023021,登記記録の閉鎖等,0,2024-07-31,2024-07-25,有限会社アックス,,有限会社,広島県,広島市安佐北区,白木町大字三田４２７番地３,,34,106,7391521,,,2024-07-25,合併による解散等,2240002029912,令和６年７月１１日広島市安佐北区上深川町２８３番地１石見商事株式会社（2240002029912）に合併し解散,2015-10-05,1,,,,,アックス,0
1060,4330003002923,登記記録の閉鎖等,0,2024-07-31,2024-07-18,合資会社新産業建設,,合資会社,熊本県,熊本市南区,城南町隈庄１０５４番地,,43,104,8614203,,,2024-07-18,清算の結了等,,,2015-10-05,1,,,,,シンサンギョウケンセツ,0
1067,4340003003722,登記記録の閉鎖等,0,2024-07-31,2024-07-30,ＮＵＴＳＡＤＶＡＮＴＡＧＥ合同会社,,合同会社,鹿児島県,鹿児島市,西千石町１１番２１号５階,,46,201,8920847,,,2024-07-30,清算の結了等,,,2022-02-28,1,,,,,ナッツアドバンテージ,0
1068,4350001009704,登記記録の閉鎖等,0,2024-07-31,2024-07-23,十八建設株式会社,,株式会社,宮崎県,日南市,吾田東９丁目５番２５号,,45,204,8892541,,,2024-07-23,清算の結了等,,,2015-10-05,1,,,,,ジュウハチケンセツ,0
1083,4390002015210,登記記録の閉鎖等,0,2024-07-31,2024-07-12,有限会社迎田商店,,有限会社,山形県,西置賜郡白鷹町,大字鮎貝１０４１番地,,06,402,9920771,,,2024-07-12,清算の結了等,,,2015-10-05,1,,,,,ムカエダショウテン,0
1093,4430002066042,登記記録の閉鎖等,0,2024-07-31,2024-07-25,有限会社ビッグジャパン,,有限会社,北海道,室蘭市,宮の森町４丁目１４番４号,,01,205,0500073,,,2024-07-25,清算の結了等,,,2015-10-05,1,,,,,ビッグジャパン,0
1102,4470002016506,登記記録の閉鎖等,0,2024-07-31,2024-07-25,有限会社次田機工,,有限会社,香川県,三豊市,高瀬町上麻１８７９番地１,,37,208,7670014,,,2024-07-25,清算の結了等,,,2015-10-05,1,,,,,ツギタキコウ,0
1104,4480005006809,登記記録の閉鎖等,0,2024-07-31,2024-07-29,一般社団法人大学アドミッション専門職協会,,その他の設立登記法人,徳島県,徳島市,新蔵町２丁目２４番地徳島大学日亜会館２Ｆ,,36,201,7700855,,,2024-07-29,清算の結了等,,,2020-12-28,1,,,,,ダイガクアドミッションセンモンショクキョウカイ,0
1115,5010003025063,登記記録の閉鎖等,0,2024-07-31,2024-07-16,ロータスセント合同会社,,合同会社,東京都,文京区,大塚２丁目１４番１号,,13,105,1120012,,,2024-07-16,清算の結了等,,,2017-03-23,1,,,,,ロータスセント,0
1122,5010402007703,登記記録の閉鎖等,0,2024-07-31,2024-07-09,有限会社大皓,,有限会社,東京都,港区,南麻布２丁目１番５号,,13,103,1060047,,,2024-07-09,清算の結了等,,,2015-10-05,1,,,,,タイコウ,0
1153,5011103008817,登記記録の閉鎖等,0,2024-07-31,2024-07-12,合同会社ＤＨＫ,,合同会社,東京都,新宿区,新宿２丁目４番２号,,13,104,1600022,,,2024-07-12,清算の結了等,,,2019-05-28,1,,,,,ディーエイチケイ,0
1159,5011501016512,登記記録の閉鎖等,0,2024-07-31,2024-07-17,発明株式会社,,株式会社,東京都,千代田区,神田須田町２丁目２５－１６日宝秋葉原ビル１２階,,13,101,1010041,,,2024-07-17,清算の結了等,,,2015-10-05,1,,,,,ハツメイ,0
1163,5011702009620,登記記録の閉鎖等,0,2024-07-31,2024-07-24,有限会社ヒラオカ洋服店,,有限会社,東京都,江戸川区,南小岩６丁目２９番１２号,,13,123,1330056,,,2024-07-24,清算の結了等,,,2015-10-05,1,,,,,ヒラオカヨウフクテン,0
1166,5012401005076,登記記録の閉鎖等,0,2024-07-31,2024-07-29,株式会社ミタカ,,株式会社,東京都,調布市,入間町３丁目５－３３,,13,208,1820004,,,2024-07-29,清算の結了等,,,2015-10-05,1,,,,,ミタカ,0
1186,5021001028651,登記記録の閉鎖等,0,2024-07-31,2024-07-29,株式会社ハルカ総合建設,,株式会社,神奈川県,大和市,鶴間１丁目１番９号,,14,213,2420004,,,2024-07-29,清算の結了等,,,2015-10-05,1,,,,,,0
1192,5021003010541,登記記録の閉鎖等,0,2024-07-31,2024-07-09,Ｃａｍｏｕｆｌａｊ　Ｈｏｌｄｉｎｇｓ合同会社,,合同会社,東京都,港区,虎ノ門１丁目１７番１号虎ノ門ヒルズビジネスタワー,,13,103,1050001,,,2024-07-09,清算の結了等,,,2021-06-11,1,,,,,カモフラージュホールディングス,0
1196,5030001061744,登記記録の閉鎖等,0,2024-07-31,2024-07-25,株式会社サンエス,,株式会社,埼玉県,鴻巣市,赤見台３丁目２３番１２号,,11,217,3650064,,,2024-07-25,清算の結了等,,,2015-10-05,1,,,,,サンエス,0
1198,5030001151149,登記記録の閉鎖等,0,2024-07-31,2024-07-24,株式会社モノむすび,,株式会社,埼玉県,加須市,花崎北２丁目１６－１ライオンズガーデン花崎Ｇ－２０５,,11,210,3470016,,,2024-07-24,清算の結了等,,,2022-11-21,1,,,,,モノムスビ,0
1212,5040001115581,登記記録の閉鎖等,0,2024-07-31,2024-07-11,株式会社ＫＯＫＵＡ　ＪＡＰＡＮ,,株式会社,千葉県,野田市,目吹１５３９番地１,,12,208,2780001,,,2024-07-11,清算の結了等,,,2020-10-29,1,,,,,コクアジャパン,0
1215,5040002041686,登記記録の閉鎖等,0,2024-07-31,2024-07-16,有限会社ボンボン,,有限会社,千葉県,浦安市,猫実４丁目２０番１１号,,12,227,2790004,,,2024-07-16,清算の結了等,,,2015-10-05,1,,,,,ボンボン,0
1221,5050002026785,登記記録の閉鎖等,0,2024-07-31,2024-07-23,有限会社日立住販,,有限会社,茨城県,鹿嶋市,宮中５丁目１３番１１号,,08,222,3140031,,,2024-07-23,清算の結了等,,,2015-10-05,1,,,,,ヒタチジュウハン,0
1226,5070001035827,登記記録の閉鎖等,0,2024-07-31,2024-07-30,株式会社やまと,,株式会社,群馬県,高崎市,飯塚町１７１１番地ファイン飯玉１０３,,10,202,3700069,,,2024-07-30,清算の結了等,,,2019-06-12,1,,,,,ヤマト,0
1235,5080102015124,登記記録の閉鎖等,0,2024-07-31,2024-07-29,有限会社丸廣,00068032,有限会社,静岡県,富士市,鷹岡本町３番５号,,22,210,4190203,,,2024-07-29,清算の結了等,,,2015-10-05,1,,,,,,0
1270,5120005013311,登記記録の閉鎖等,0,2024-07-31,2024-07-30,エコ・スマイルひらかた,,その他の設立登記法人,大阪府,枚方市,北中振１丁目１８番１５号,,27,210,5730064,,,2024-07-30,清算の結了等,,,2015-10-05,1,,,,,エコスマイルヒラカタ,0
1275,5120102005368,登記記録の閉鎖等,0,2024-07-31,2024-07-25,有限会社大田真珠,,有限会社,大阪府,高石市,取石４丁目４番８号,,27,225,5920013,,,2024-07-25,清算の結了等,,,2015-10-05,1,,,,,オオタシンジュ,0
1288,5140001093322,登記記録の閉鎖等,0,2024-07-31,2024-07-29,株式会社スリーカラーズ,,株式会社,兵庫県,神戸市灘区,泉通５丁目４番１３－４０３号,,28,102,6570834,,,2024-07-29,清算の結了等,,,2015-10-05,1,,,,,スリーカラーズ,0
1320,5180301010683,登記記録の閉鎖等,0,2024-07-31,2024-07-22,株式会社利創庫,,株式会社,愛知県,豊川市,伊奈町佐脇原５００番地１５４,,23,207,4410105,,,2024-07-22,清算の結了等,,,2015-10-05,1,,,,,リソウコ,0
1323,5180305002487,登記記録の閉鎖等,0,2024-07-31,2024-07-23,農事組合法人野田南部養豚組合,,その他の設立登記法人,愛知県,田原市,野田町北瀬古６７番地,,23,231,4413432,,,2024-07-23,清算の結了等,,,2015-10-05,1,,,,,ノダナンブヨウトンクミアイ,0
1334,5240001032121,登記記録の閉鎖等,0,2024-07-31,2024-07-26,株式会社前田材木店,,株式会社,広島県,福山市,金江町藁江９７番地,,34,207,7200542,,,2024-07-26,清算の結了等,,,2015-10-05,1,,,,,マエダザイモクテン,0
1350,5290002014733,登記記録の閉鎖等,0,2024-07-31,2024-07-12,有限会社鹿島本館,,有限会社,福岡県,福岡市博多区,冷泉町３番１１号,,40,132,8120039,,,2024-07-12,清算の結了等,,,2015-10-05,1,,,,,カシマホンカン,0
1355,5290803003505,登記記録の閉鎖等,0,2024-07-31,2024-07-22,合同会社Ｏｆｆｉｃｅヒカリエ,,合同会社,福岡県,宮若市,金丸７８２－４,,40,226,8220111,,,2024-07-22,清算の結了等,,,2020-03-09,1,,,,,オフィスヒカリエ,0
1367,5370002020079,登記記録の閉鎖等,0,2024-07-31,2024-07-11,有限会社サンヒル,,有限会社,宮城県,富谷市,三ノ関坂ノ下１１７番地の１,,04,216,9813302,,,2024-07-11,清算の結了等,,,2015-10-05,1,,,,,サンヒル,0
1370,5380001030813,登記記録の閉鎖等,0,2024-07-31,2024-07-26,ＬＡＳ株式会社,,株式会社,福島県,郡山市,富田町字下西田４５番地の２１,,07,203,9638041,,,2024-07-26,清算の結了等,,,2020-04-13,1,,,,,エルエーエス,0
1374,5400002002354,登記記録の閉鎖等,0,2024-07-31,2024-07-25,有限会社内藤企画,,有限会社,岩手県,盛岡市,三ツ割５丁目１６番１号,,03,201,0200011,,,2024-07-25,合併による解散等,4010401015187,令和６年７月１日東京都港区芝浦一丁目２番３号シーバンスＳ館７階スポーツメディア株式会社（4010401015187）に合併し解散,2015-10-05,1,,,,,ナイトウキカク,0
1381,5420005003364,登記記録の閉鎖等,0,2024-07-31,2024-07-03,特定非営利活動法人青森県福祉サポート協会,,その他の設立登記法人,青森県,八戸市,桜ケ丘２丁目３０番１号,,02,203,0310834,,,2024-07-03,清算の結了等,,,2015-10-05,1,,,,,アオモリケンフクシサポートキョウカイ,0
1387,5430002046183,登記記録の閉鎖等,0,2024-07-31,2024-07-26,有限会社三浦技研工業,,有限会社,北海道,江別市,野幌屯田町１６番地の２２,,01,217,0690803,,,2024-07-26,清算の結了等,,,2015-10-05,1,,,,,,0
1388,5430003010709,登記記録の閉鎖等,0,2024-07-31,2024-07-24,合同会社百笑一家,,合同会社,北海道,夕張市,沼ノ沢３５番地あ・りーさだの杜,,01,209,0680751,,,2024-07-24,清算の結了等,,,2019-08-06,1,,,,,ヒャクショウイッカ,0
1390,5450002009205,登記記録の閉鎖等,0,2024-07-31,2024-07-26,有限会社越中屋,,有限会社,北海道,富良野市,本町２番１号,,01,229,0760031,,,2024-07-26,清算の結了等,,,2015-10-05,1,,,,,エッチュウヤ,0
1391,5450002012456,登記記録の閉鎖等,0,2024-07-31,2024-07-24,有限会社チュウエイ,,有限会社,北海道,留萌市,開運町２丁目４番２５号,,01,212,0770042,,,2024-07-24,清算の結了等,,,2015-10-05,1,,,,,チュウエイ,0
1392,5450003000492,登記記録の閉鎖等,0,2024-07-31,2024-07-25,合資会社リトルファーム,,合資会社,北海道,旭川市,東旭川町共栄２４４番地,,01,204,0788340,,,2024-07-25,清算の結了等,,,2015-10-05,1,,,,,リトルファーム,0
1433,6011003008107,登記記録の閉鎖等,0,2024-07-31,2024-07-22,ピークス合同会社,,合同会社,東京都,品川区,旗の台３丁目１５番１号,,13,109,1420064,,,2024-07-22,清算の結了等,,,2017-10-11,1,,,,,ピークス,0
1447,6011701007533,登記記録の閉鎖等,0,2024-07-31,2024-07-25,マルモ資材株式会社,,株式会社,東京都,江戸川区,新堀２丁目２４番１７号,,13,123,1320001,,,2024-07-25,清算の結了等,,,2015-10-05,1,,,,,マルモシザイ,0
1455,6011801022044,登記記録の閉鎖等,0,2024-07-31,2024-07-29,株式会社大昭建設工業,,株式会社,東京都,足立区,六月３丁目１番１１号,,13,121,1210814,,,2024-07-29,合併による解散等,3011801025776,令和６年７月２９日東京都足立区六月三丁目１番１１号株式会社澤目解体工業（3011801025776）に合併し解散,2015-10-05,1,,,,,ダイショウケンセツコウギョウ,0
1469,6013201018977,登記記録の閉鎖等,0,2024-07-31,2024-07-22,株式会社メディオ,,株式会社,東京都,大田区,田園調布１丁目６２番１４号,,13,111,1450071,,,2024-07-22,清算の結了等,,,2015-10-05,1,,,,,メディオ,0
1474,6020003016795,登記記録の閉鎖等,0,2024-07-31,2024-07-08,合同会社キャロット,,合同会社,神奈川県,川崎市川崎区,藤崎４丁目１０番１－９１１号,,14,131,2100804,,,2024-07-08,清算の結了等,,,2019-10-16,1,,,,,キャロット,0
1477,6021001052295,登記記録の閉鎖等,0,2024-07-31,2024-07-29,株式会社ギャラリー眞庭,,株式会社,神奈川県,相模原市南区,上鶴間本町１丁目２９番７号,,14,153,2520318,,,2024-07-29,清算の結了等,,,2015-10-05,1,,,,,ギャラリーマニワ,0
1485,6030003015920,登記記録の閉鎖等,0,2024-07-31,2024-07-25,合同会社オフィス・オカダ,,合同会社,埼玉県,朝霞市,宮戸３丁目９番２９号,,11,227,3510031,,,2024-07-25,清算の結了等,,,2020-09-29,1,,,,,オフィスオカダ,0
1488,6040001070834,登記記録の閉鎖等,0,2024-07-31,2024-07-25,株式会社ｇｒａｓｐ,,株式会社,東京都,目黒区,中目黒５丁目１５番８号,,13,110,1530061,,,2024-07-25,清算の結了等,,,2015-10-05,1,,,,,グラスプ,0
1496,6060002014937,登記記録の閉鎖等,0,2024-07-31,2024-07-17,有限会社斎藤工務所,,有限会社,栃木県,日光市,瀬川２３１番地の４,,09,206,3211263,,,2024-07-17,清算の結了等,,,2015-10-05,1,,,,,サイトウコウムショ,0
1502,6070002022856,登記記録の閉鎖等,0,2024-07-31,2024-07-30,有限会社大内刺繍所,00025727,有限会社,群馬県,桐生市,菱町３丁目２１５０番地,,10,203,3760001,,,2024-07-30,清算の結了等,,,2015-10-05,1,,,,,オオウチシシュウジョ,0
1509,6120001094651,登記記録の閉鎖等,0,2024-07-31,2024-07-31,株式会社コネクション,,株式会社,大阪府,大阪市浪速区,幸町２丁目２番４７－５０５号,,27,111,5560021,,,2024-07-31,清算の結了等,,,2015-10-05,1,,,,,コネクション,0
1537,6120103002925,登記記録の閉鎖等,0,2024-07-31,2024-07-24,ノンディス合同会社,,合同会社,東京都,豊島区,南池袋１丁目９番１８－３３１号,,13,116,1710022,,,2024-07-24,清算の結了等,,,2018-01-15,1,,,,,ノンディス,0
1566,6180001115195,登記記録の閉鎖等,0,2024-07-31,2024-07-16,株式会社アップローズ,,株式会社,愛知県,名古屋市緑区,有松１０２１番地第二福岡ビル３Ｂ,,23,114,4580924,,,2024-07-16,清算の結了等,,,2015-10-05,1,,,,,アップローズ,0
1576,6180002022325,登記記録の閉鎖等,0,2024-07-31,2024-07-17,有限会社名岐電工,,有限会社,愛知県,名古屋市天白区,池場２丁目１６０６番地,,23,116,4680055,,,2024-07-17,清算の結了等,,,2015-10-05,1,,,,,メイギデンコウ,0
1584,6190001024981,登記記録の閉鎖等,0,2024-07-31,2024-07-29,株式会社八吉工業,,株式会社,三重県,四日市市,天カ須賀５丁目１番４７号,,24,202,5108001,,,2024-07-29,清算の結了等,,,2017-10-03,1,,,,,ハチヨシコウギョウ,0
1587,6200002010343,登記記録の閉鎖等,0,2024-07-31,2024-07-26,アコウ有限会社,,有限会社,岐阜県,羽島市,竹鼻町丸の内５丁目８４番地,,21,209,5016244,,,2024-07-26,清算の結了等,,,2015-10-05,1,,,,,アコウ,0
1593,6220002005060,登記記録の閉鎖等,0,2024-07-31,2024-07-23,有限会社舟木屋,,有限会社,石川県,金沢市,金石通町２番１３号,,17,201,9200316,,,2024-07-23,清算の結了等,,,2015-10-05,1,,,,,フナキヤ,0
1598,6240001002197,登記記録の閉鎖等,0,2024-07-31,2024-07-26,梶川自動車工業株式会社,,株式会社,広島県,広島市南区,仁保新町１丁目２番３号,,34,103,7340024,,,2024-07-26,清算の結了等,,,2015-10-05,1,,,,,カジカワジドウシャコウギョウ,0
1609,6260005001540,登記記録の閉鎖等,0,2024-07-31,2024-07-10,医療法人五島眼科クリニック,,その他の設立登記法人,岡山県,岡山市北区,津高７０８番地の１,,33,101,7011152,,,2024-07-10,清算の結了等,,,2015-10-05,1,,,,,ゴトウガンカクリニック,0
1611,6290001092465,登記記録の閉鎖等,0,2024-07-31,2024-07-03,株式会社ｆｒｏｍＫｅｉ,,株式会社,福岡県,福岡市中央区,浄水通２番１４号,,40,133,8100028,,,2024-07-03,合併による解散等,2290001088079,令和６年６月３０日福岡市中央区薬院四丁目１３番６２号株式会社Ｍｏｎｏｆｏｒｍ　Ａ（2290001088079）に合併し解散,2021-04-02,1,,,,,フロムケイ,0
1634,6340005003735,登記記録の閉鎖等,0,2024-07-31,2024-07-26,市来たばこ販売協同組合,,その他の設立登記法人,鹿児島県,いちき串木野市,湊町１丁目１２５番地,,46,219,8992101,,,2024-07-26,清算の結了等,,,2015-10-05,1,,,,,イチキタバコハンバイ,0
1653,6370802000782,登記記録の閉鎖等,0,2024-07-31,2024-07-09,有限会社岩佐工業,,有限会社,宮城県,岩沼市,栄町１丁目１番１５－２０２号,,04,211,9892473,,,2024-07-09,清算の結了等,,,2015-10-05,1,,,,,イワサコウギョウ,0
1661,6420002017639,登記記録の閉鎖等,0,2024-07-31,2024-07-25,有限会社オレンジコースト,,有限会社,青森県,三沢市,塩釜４丁目４７番地１８号,,02,207,0330103,,,2024-07-25,清算の結了等,,,2015-10-05,1,,,,,オレンジコースト,0
1662,6430001041028,登記記録の閉鎖等,0,2024-07-31,2024-07-30,Ｒ＆Ｋ株式会社,,株式会社,北海道,札幌市豊平区,月寒東五条１９丁目１番４５号,,01,105,0620055,,,2024-07-30,清算の結了等,,,2015-10-05,1,,,,,アールアンドケー,0
1666,6430002033833,登記記録の閉鎖等,0,2024-07-31,2024-07-26,有限会社丸信新興建設,,有限会社,北海道,札幌市北区,新川五条１６丁目２番３号,,01,102,0010925,,,2024-07-26,清算の結了等,,,2015-10-05,1,,,,,マルシンシンコウケンセツ,0
1667,6430002063228,登記記録の閉鎖等,0,2024-07-31,2024-07-25,有限会社きしもと,,有限会社,北海道,伊達市,竹原町１９番地１２２,,01,233,0520011,,,2024-07-25,清算の結了等,,,2015-10-05,1,,,,,キシモト,0
1671,6440001009180,登記記録の閉鎖等,0,2024-07-31,2024-07-26,株式会社Ｂｌｉｓｓ’ｎ’Ｆｌａｉｒ,,株式会社,北海道,函館市,船見町８番１８号,,01,202,0400055,,,2024-07-26,清算の結了等,,,2022-11-07,1,,,,,ブリスンフレア,0
1696,7010502011594,登記記録の閉鎖等,0,2024-07-31,2024-07-23,有限会社山田屋文具店,,有限会社,東京都,台東区,谷中１丁目２番１２号,,13,106,1100001,,,2024-07-23,清算の結了等,,,2015-10-05,1,,,,,ヤマダヤブングテン,0
1706,7010801018183,登記記録の閉鎖等,0,2024-07-31,2024-07-18,テクノファーム・アクセス株式会社,,株式会社,東京都,大田区,城南島２丁目５番７号,,13,111,1430002,,,2024-07-18,清算の結了等,,,2015-10-05,1,,,,,テクノファームアクセス,0
1712,7011101082325,登記記録の閉鎖等,0,2024-07-31,2024-07-12,タピオカ明月株式会社,,株式会社,東京都,新宿区,新宿１丁目１５番５号カテリーナ新宿御苑駅前８０４室,,13,104,1600022,,,2024-07-12,清算の結了等,,,2017-11-16,1,,,,,タピオカメイゲツ,0
1726,7012403005493,登記記録の閉鎖等,0,2024-07-31,2024-07-31,チキバン合同会社,,合同会社,東京都,狛江市,元和泉１丁目１－２イトーピア狛江エコルマ２、２階,,13,219,2010013,,,2024-07-31,清算の結了等,,,2022-07-21,1,,,,,チキバン,0
1729,7012702006580,登記記録の閉鎖等,0,2024-07-31,2024-07-23,有限会社寿商事,,有限会社,東京都,東久留米市,八幡町２丁目４番２９号,,13,222,2030042,,,2024-07-23,清算の結了等,,,2015-10-05,1,,,,,コトブキショウジ,0
1731,7013401004537,登記記録の閉鎖等,0,2024-07-31,2024-07-30,株式会社共栄建材,,株式会社,東京都,多摩市,豊ヶ丘２丁目１１番地８－２,,13,224,2060031,,,2024-07-30,清算の結了等,,,2015-10-05,1,,,,,キョウエイケンザイ,0
1740,7020003019459,登記記録の閉鎖等,0,2024-07-31,2024-07-29,合同会社ＴＡＳＫ,,合同会社,神奈川県,平塚市,大神６丁目９番８－２０３号レオパレスジュネス,,14,203,2540012,,,2024-07-29,清算の結了等,,,2021-03-23,1,,,,,タスク,0
1746,7021005001553,登記記録の閉鎖等,0,2024-07-31,2024-07-29,茅ヶ崎海岸開発協同組合,,その他の設立登記法人,神奈川県,茅ヶ崎市,共恵１丁目７番３１号,,14,207,2530056,,,2024-07-29,清算の結了等,,,2015-10-05,1,,,,,チガサキカイガンカイハツ,0
1755,7050001006712,登記記録の閉鎖等,0,2024-07-31,2024-07-25,株式会社北島商事,,株式会社,茨城県,ひたちなか市,釈迦町１３番１４号,00021932,08,221,3111225,,,2024-07-25,清算の結了等,,,2015-10-05,1,,,,,キタジマショウジ,0
1759,7070001036600,登記記録の閉鎖等,0,2024-07-31,2024-07-29,株式会社富士山,,株式会社,群馬県,太田市,東長岡町４１５番地１３,,10,205,3730812,,,2024-07-29,清算の結了等,,,2020-02-26,1,,,,,フジサン,0
1760,7070003001783,登記記録の閉鎖等,0,2024-07-31,2024-07-29,エデュクリエイト合同会社,,合同会社,群馬県,太田市,新田小金井町９５９番地２０,,10,205,3700303,,,2024-07-29,清算の結了等,,,2015-10-05,1,,,,,エデュクリエイト,0
1771,7110002024707,登記記録の閉鎖等,0,2024-07-31,2024-07-23,有限会社東世舗道,,有限会社,新潟県,上越市,大字上千原４３８９番地１,,15,222,9420035,,,2024-07-23,清算の結了等,,,2015-10-05,1,,,,,トウセイホドウ,0
1775,7120001176184,登記記録の閉鎖等,0,2024-07-31,2024-07-25,株式会社ラウンドケアーサービス,,株式会社,大阪府,藤井寺市,林２丁目６番２１号,,27,226,5830007,,,2024-07-25,清算の結了等,,,2015-10-05,1,,,,,ラウンドケアーサービス,0
1795,7120902016827,登記記録の閉鎖等,0,2024-07-31,2024-07-26,有限会社ＡＣＴ進学センター,,有限会社,大阪府,豊能郡豊能町,新光風台１丁目２番４号,,27,321,5630105,,,2024-07-26,清算の結了等,,,2015-10-05,1,,,,,アクトシンガクセンター,0
1822,7180001137775,登記記録の閉鎖等,0,2024-07-31,2024-07-16,アサーティエンス株式会社,,株式会社,愛知県,名古屋市千種区,猪高町大字猪子石字猪々道１４７番地の２（ヴェルディーク茶屋ヶ坂７０１号）,,23,101,4640012,,,2024-07-16,清算の結了等,,,2019-08-15,1,,,,,アサーティエンス,0
1843,7210005000199,登記記録の閉鎖等,0,2024-07-31,2024-07-23,医療法人ふくはら小児科,,その他の設立登記法人,福井県,福井市,大町２丁目６０１番地,,18,201,9188116,,,2024-07-23,清算の結了等,,,2015-10-05,1,,,,,フクハラショウニカ,0
1844,7220001000086,登記記録の閉鎖等,0,2024-07-31,2024-07-23,株式会社大石組,,株式会社,石川県,白山市,富光寺町１５６番地,,17,210,9202165,,,2024-07-23,清算の結了等,,,2015-10-05,1,,,,,オオイシグミ,0
1877,7340003004197,登記記録の閉鎖等,0,2024-07-31,2024-07-26,合同会社想楽,,合同会社,鹿児島県,南九州市,頴娃町別府７３４９番地,,46,223,8910704,,,2024-07-26,清算の結了等,,,2023-08-09,1,,,,,ソラ,0
1881,7350005005341,登記記録の閉鎖等,0,2024-07-31,2024-07-25,医療法人社団優里会,,その他の設立登記法人,宮崎県,日南市,吾田西３丁目７番４８号,,45,204,8892536,,,2024-07-25,清算の結了等,,,2015-10-05,1,,,,,ユウリカイ,0
1884,7370002009491,登記記録の閉鎖等,0,2024-07-31,2024-07-11,有限会社アフロス,,有限会社,宮城県,仙台市泉区,上谷刈字赤坂６番地の１０２ギャラリー杜の音四季彩館６１９,,04,105,9813121,,,2024-07-11,清算の結了等,,,2015-10-05,1,,,,,アフロス,0
1895,7410001009835,登記記録の閉鎖等,0,2024-07-31,2024-07-19,株式会社みらい企画,,株式会社,秋田県,湯沢市,佐竹町５番１０号,,05,207,0120824,,,2024-07-19,清算の結了等,,,2015-10-05,1,,,,,ミライキカク,0
1909,7470002004739,登記記録の閉鎖等,0,2024-07-31,2024-07-25,有限会社ティ・ポイント,,有限会社,香川県,高松市,瓦町２丁目１番２５号,,37,201,7600052,,,2024-07-25,清算の結了等,,,2015-10-05,1,,,,,ティポイント,0
1910,7480001001298,登記記録の閉鎖等,0,2024-07-31,2024-07-29,太子不動産鑑定株式会社,,株式会社,徳島県,徳島市,一番町１丁目２０番地３,,36,201,7700833,,,2024-07-29,清算の結了等,,,2015-10-05,1,,,,,タイシフドウサンカンテイ,0
1921,8010001130903,登記記録の閉鎖等,0,2024-07-31,2024-07-17,株式会社アゼスト,,株式会社,東京都,千代田区,神田佐久間町１丁目８－４アルテール秋葉原７０８,,13,101,1010025,,,2024-07-17,清算の結了等,,,2015-10-05,1,,,,,アゼスト,0
1924,8010001197091,登記記録の閉鎖等,0,2024-07-31,2024-07-10,アルコニックス・東北化工株式会社,,株式会社,東京都,千代田区,永田町２丁目１１番１号,,13,101,1000014,,,2024-07-10,合併による解散等,5010001173244,令和６年７月２日東京都千代田区永田町二丁目１１番１号アルコニックス・エムティ株式会社（5010001173244）に合併し解散,2018-12-12,1,,,,,アルコニックストウホクカコウ,0
1938,8010401173816,登記記録の閉鎖等,0,2024-07-31,2024-07-09,株式会社Ｂｒｉｓｔｏｌ,,株式会社,東京都,港区,赤坂４丁目８番１９号赤坂フロントタウン３階,,13,103,1070052,,,2024-07-09,清算の結了等,,,2023-04-18,1,,,,,ブリストル,0
1947,8010602023448,登記記録の閉鎖等,0,2024-07-31,2024-07-29,有限会社林商会,,有限会社,東京都,江東区,千石１丁目１４番２７－３１６号,,13,108,1350015,,,2024-07-29,清算の結了等,,,2015-10-05,1,,,,,ハヤシショウカイ,0
1953,8010802010667,登記記録の閉鎖等,0,2024-07-31,2024-07-18,有限会社中谷工務店,,有限会社,東京都,大田区,田園調布１丁目６０番１１号デクネス田園調布１０１,,13,111,1450071,,,2024-07-18,清算の結了等,,,2015-10-05,1,,,,,,0
1961,8011001134381,登記記録の閉鎖等,0,2024-07-31,2024-07-10,株式会社ナインチェ,,株式会社,東京都,渋谷区,神宮前６丁目２３番４号桑野ビル２階,,13,113,1500001,,,2024-07-10,清算の結了等,,,2020-06-18,1,,,,,ナインチェ,0
1987,8011802000501,登記記録の閉鎖等,0,2024-07-31,2024-07-26,有限会社飯塚研磨工業所,,有限会社,東京都,葛飾区,東金町３丁目１２番５号,,13,122,1250041,,,2024-07-26,清算の結了等,,,2015-10-05,1,,,,,イイヅカケンマコウギョウショ,0
1990,8012305000369,登記記録の閉鎖等,0,2024-07-31,2024-07-25,特定非営利活動法人鶴川にケアセンターを作ろう会,,その他の設立登記法人,東京都,町田市,能ヶ谷７丁目４１番９号,,13,209,1950053,,,2024-07-25,清算の結了等,,,2015-10-05,1,,,,,ツルカワニケアセンターヲツクロウカイ,0
1993,8012402019618,登記記録の閉鎖等,0,2024-07-31,2024-07-24,有限会社不動工業,,有限会社,東京都,三鷹市,牟礼５丁目３番１０号,,13,204,1810002,,,2024-07-24,清算の結了等,,,2015-10-05,1,,,,,フドウコウギョウ,0
2001,8020002077325,登記記録の閉鎖等,0,2024-07-31,2024-07-08,有限会社Ｂａｓｅ,,有限会社,神奈川県,横浜市青葉区,千草台４７番地３４,,14,117,2270051,,,2024-07-08,清算の結了等,,,2015-10-05,1,,,,,ベイス,0
2014,8021002063190,登記記録の閉鎖等,0,2024-07-31,2024-07-29,有限会社エム・エス・ビル,,有限会社,神奈川県,横須賀市,三春町３丁目３０番地,,14,201,2380014,,,2024-07-29,清算の結了等,,,2015-10-05,1,,,,,エムエスビル,0
2029,8070001010950,登記記録の閉鎖等,0,2024-07-31,2024-07-29,株式会社西部建装,,株式会社,群馬県,高崎市,金井淵町３番地５,,10,202,3700882,,,2024-07-29,清算の結了等,,,2015-10-05,1,,,,,セイブケンソウ,0
2037,8110001034144,登記記録の閉鎖等,0,2024-07-31,2024-07-23,株式会社櫻井,,株式会社,新潟県,南魚沼市,門前３０６番地,,15,226,9497223,,,2024-07-23,清算の結了等,,,2019-07-05,1,,,,,サクライ,0
2040,8120001080848,登記記録の閉鎖等,0,2024-07-31,2024-07-29,株式会社ジェイケイシレス,,株式会社,大阪府,大阪市中央区,瓦町１丁目４番８号,,27,128,5410048,,,2024-07-29,清算の結了等,,,2015-10-05,1,,,,,ジェイケイシレス,0
2056,8120101027419,登記記録の閉鎖等,0,2024-07-31,2024-07-23,マグネットトレード株式会社,,株式会社,大阪府,松原市,三宅東４丁目１６７５番地の５,,27,217,5800041,,,2024-07-23,清算の結了等,,,2015-10-05,1,,,,,マグネットトレード,0
2073,8140002001561,登記記録の閉鎖等,0,2024-07-31,2024-07-29,寿運送有限会社,,有限会社,兵庫県,神戸市東灘区,魚崎浜町２７番地３５号,,28,101,6580024,,,2024-07-29,清算の結了等,,,2015-10-05,1,,,,,コトブキウンソウ,0
2084,8180001005642,登記記録の閉鎖等,0,2024-07-31,2024-07-17,株式会社名宣社,,株式会社,愛知県,名古屋市千種区,千種３丁目２０番２１号,,23,101,4640858,,,2024-07-17,清算の結了等,,,2015-10-05,1,,,,,メイセンシャ,0
2085,8180001028676,登記記録の閉鎖等,0,2024-07-31,2024-07-16,株式会社日型,,株式会社,愛知県,名古屋市緑区,大高町字川添８８番地,,23,114,4598001,,,2024-07-16,清算の結了等,,,2015-10-05,1,,,,,ニッケイ,0
2115,8240001052546,登記記録の閉鎖等,0,2024-07-31,2024-07-26,株式会社オオタ,,株式会社,広島県,広島市西区,井口２丁目６番５号,,34,104,7330842,,,2024-07-26,清算の結了等,,,2018-03-23,1,,,,,オオタ,0
2131,8290001026891,登記記録の閉鎖等,0,2024-07-31,2024-07-01,ｎｉｓｓａ　ｌｉｎｅ株式会社,,株式会社,福岡県,福岡市中央区,小笹２丁目２番６３号,,40,133,8100033,,,2024-07-01,合併による解散等,3290001027044,令和６年７月１日福岡市博多区博多駅南一丁目８番１２号株式会社ｎｉｓｓａ（3290001027044）に合併し解散,2015-10-05,1,,,,,ニッサライン,0
2160,8370002009879,登記記録の閉鎖等,0,2024-07-31,2024-07-10,有限会社エース経営センター,,有限会社,宮城県,仙台市太白区,富沢１丁目５番１８－２０１号,,04,104,9820032,,,2024-07-10,清算の結了等,,,2015-10-05,1,,,,,エースケイエイセンター,0
2186,8480002013432,登記記録の閉鎖等,0,2024-07-31,2024-07-29,中西産業有限会社,,有限会社,徳島県,阿南市,柳島町中川原３０番地１０,,36,204,7740043,,,2024-07-29,清算の結了等,,,2015-10-05,1,,,,,ナカニシサンギョウ,0
2207,9010401160185,登記記録の閉鎖等,0,2024-07-31,2024-07-04,株式会社ＣＯＬＤＢＲＥＷ,,株式会社,東京都,港区,麻布十番１丁目８番１１号タカデンビル３階,,13,103,1060045,,,2024-07-04,清算の結了等,,,2021-05-19,1,,,,,コールドブリュー,0
2208,9010401175613,登記記録の閉鎖等,0,2024-07-31,2024-07-09,株式会社デラックス,,株式会社,東京都,港区,北青山１丁目３番１号アールキューブ青山３階,,13,103,1070061,,,2024-07-09,清算の結了等,,,2023-07-12,1,,,,,デラックス,0
2214,9010601008481,登記記録の閉鎖等,0,2024-07-31,2024-07-29,青葉革漉工業株式会社,,株式会社,東京都,墨田区,東墨田２丁目２番２１号,,13,107,1310042,,,2024-07-29,清算の結了等,,,2015-10-05,1,,,,,アオバカワスキコウギョウ,0
2240,9011601017423,登記記録の閉鎖等,0,2024-07-31,2024-07-29,株式会社インクレア,,株式会社,東京都,練馬区,富士見台４丁目３６番２６号,,13,120,1770034,,,2024-07-29,清算の結了等,,,2015-10-05,1,,,,,インクレア,0
2241,9011601023198,登記記録の閉鎖等,0,2024-07-31,2024-07-25,車硝株式会社,,株式会社,東京都,練馬区,平和台２丁目２８番５号,,13,120,1790083,,,2024-07-25,清算の結了等,,,2019-03-15,1,,,,,シャショウ,0
2256,9013301045464,登記記録の閉鎖等,0,2024-07-31,2024-07-24,株式会社ウェーブアップ,,株式会社,東京都,豊島区,長崎２丁目８番１０号,,13,116,1710051,,,2024-07-24,清算の結了等,,,2020-04-08,1,,,,,ウェーブアップ,0
2260,9020001024649,登記記録の閉鎖等,0,2024-07-31,2024-07-08,株式会社森山工業,,株式会社,神奈川県,横浜市神奈川区,神之木台３４番２５号,,14,102,2210011,,,2024-07-08,清算の結了等,,,2015-10-05,1,,,,,,0
2263,9020001102363,登記記録の閉鎖等,0,2024-07-31,2024-07-09,株式会社ＪＨＣ＆ＷＯＲＬＤ,,株式会社,神奈川県,横浜市瀬谷区,五貫目町１０番地１マークスプリングス・メゾンＢ１１０号,,14,114,2460008,,,2024-07-09,清算の結了等,,,2015-10-05,1,,,,,ジェーエッチシーアンドワールド,0
2264,9020001130711,登記記録の閉鎖等,0,2024-07-31,2024-07-09,ワンズスマート株式会社,,株式会社,神奈川県,横浜市鶴見区,馬場６丁目８番１０号,,14,101,2300076,,,2024-07-09,清算の結了等,,,2019-04-12,1,,,,,ワンズスマート,0
2276,9021002066011,登記記録の閉鎖等,0,2024-07-31,2024-07-29,有限会社鳴瀬商店,00013906,有限会社,神奈川県,横須賀市,根岸町３丁目３番地９,,14,201,2390807,,,2024-07-29,清算の結了等,,,2015-10-05,1,,,,,ナルセショウテン,0
2285,9030002052607,登記記録の閉鎖等,0,2024-07-31,2024-07-24,有限会社トーハリ,,有限会社,埼玉県,三郷市,高州２丁目７７番,,11,237,3410037,,,2024-07-24,清算の結了等,,,2015-10-05,1,,,,,トーハリ,0
2296,9040002082553,登記記録の閉鎖等,0,2024-07-31,2024-07-12,有限会社緑川商事,,有限会社,千葉県,長生郡一宮町,綱田４４５番地８,,12,421,2994304,,,2024-07-12,清算の結了等,,,2015-10-05,1,,,,,ミドリカワショウジ,0
2301,9050002001157,登記記録の閉鎖等,0,2024-07-31,2024-07-25,有限会社久保コンピュータサービス,,有限会社,茨城県,水戸市,白梅１丁目５番２７号,,08,201,3100804,,,2024-07-25,清算の結了等,,,2015-10-05,1,,,,,クボコンピュータサービス,0
2318,9080102013586,登記記録の閉鎖等,0,2024-07-31,2024-07-29,有限会社岡村工業所,,有限会社,静岡県,富士市,大渕４４５４番地,,22,210,4170000,,,2024-07-29,清算の結了等,,,2015-10-05,1,,,,,オカムラコウギョウショ,0
2325,9120001061095,登記記録の閉鎖等,0,2024-07-31,2024-07-31,株式会社梅津三陽堂,,株式会社,大阪府,大阪市北区,天満３丁目９番４号,,27,127,5300043,,,2024-07-31,清算の結了等,,,2015-10-05,1,,,,,ウメズサンヨゥドウ,0
2365,9140002024388,登記記録の閉鎖等,0,2024-07-31,2024-07-29,有限会社グルービースタイル,,有限会社,兵庫県,神戸市灘区,徳井町４丁目３番２４－３０２号,,28,102,6570033,,,2024-07-29,清算の結了等,,,2015-10-05,1,,,,,グルービースタイル,0
2366,9140002068492,登記記録の閉鎖等,0,2024-07-31,2024-07-29,有限会社エクセルライン,,有限会社,兵庫県,伊丹市,北伊丹２丁目３３番地１,,28,207,6640831,,,2024-07-29,清算の結了等,,,2015-10-05,1,,,,,エクセルライン,0
2369,9150001021550,登記記録の閉鎖等,0,2024-07-31,2024-07-30,株式会社寧楽,,株式会社,奈良県,奈良市,左京３丁目２１番地の１６,,29,201,6310801,,,2024-07-30,清算の結了等,,,2017-05-31,1,,,,,ナラ,0
2387,9180005017063,登記記録の閉鎖等,0,2024-07-31,2024-07-16,特定非営利活動法人看護の広場,,その他の設立登記法人,愛知県,名古屋市昭和区,福江２丁目９番３３号,,23,107,4660059,,,2024-07-16,清算の結了等,,,2016-12-14,1,,,,,カンゴノヒロバ,0
2390,9180302026683,登記記録の閉鎖等,0,2024-07-31,2024-07-24,有限会社かねげん,,有限会社,愛知県,西尾市,吉良町富好新田中川並４９番地,,23,213,4440515,,,2024-07-24,清算の結了等,,,2015-10-05,1,,,,,,0
2398,9240001000776,登記記録の閉鎖等,0,2024-07-31,2024-07-25,株式会社石見,,株式会社,広島県,広島市佐伯区,八幡４丁目７番２５号,,34,108,7315116,,,2024-07-25,合併による解散等,2240002029912,令和６年７月１１日広島市安佐北区上深川町２８３番地１石見商事株式会社（2240002029912）に合併し解散,2015-10-05,1,,,,,イワミ,0
2399,9240001059648,登記記録の閉鎖等,0,2024-07-31,2024-07-26,株式会社Ｐｌｕｍｅｒｉａ,,株式会社,広島県,竹原市,下野町３３９８－４,,34,203,7250012,,,2024-07-26,清算の結了等,,,2022-04-27,1,,,,,プルメリア,0
2402,9240002031622,登記記録の閉鎖等,0,2024-07-31,2024-07-25,源産業有限会社,,有限会社,広島県,庄原市,上原町４９７番地の２,,34,210,7270022,,,2024-07-25,合併による解散等,2240002029912,令和６年７月１１日広島市安佐北区上深川町２８３番地１石見商事株式会社（2240002029912）に合併し解散,2015-10-05,1,,,,,ミナモトサンギョウ,0
2406,9250001016862,登記記録の閉鎖等,0,2024-07-31,2024-07-25,アセント工業株式会社,,株式会社,山口県,防府市,大字下右田４５８番地の１,,35,206,7470063,,,2024-07-25,清算の結了等,,,2017-11-06,1,,,,,,0
2413,9270005002741,登記記録の閉鎖等,0,2024-07-31,2024-07-29,特定非営利活動法人タチカワプラザ,,その他の設立登記法人,鳥取県,鳥取市,立川町５丁目２５６番地１,,31,201,6800061,,,2024-07-29,清算の結了等,,,2015-10-05,1,,,,,タチカワプラザ,0
2418,9290002039850,登記記録の閉鎖等,0,2024-07-31,2024-06-28,有限会社ニューライフ急送,,有限会社,福岡県,大野城市,仲畑２丁目９番４５号,,40,219,8160921,,,2024-06-28,清算の結了等,,,2015-10-05,1,,,,,ニューライフキュウソウ,0
2420,9290801019433,登記記録の閉鎖等,0,2024-07-31,2024-07-19,ナナ・サン・テック株式会社,,株式会社,福岡県,中間市,大字上底井野１７６番地１０５,,40,215,8090003,,,2024-07-19,清算の結了等,,,2015-10-05,1,,,,,ナナサンテック,0
2426,9310005008321,登記記録の閉鎖等,0,2024-07-31,2024-07-22,一般社団法人日本ドローン・スポーツ協会,,その他の設立登記法人,長崎県,大村市,諏訪２丁目１６１番地３,,42,205,8560024,,,2024-07-22,清算の結了等,,,2019-06-20,1,,,,,ニホンドローンスポーツキョウカイ,0
2427,9310005008437,登記記録の閉鎖等,0,2024-07-31,2024-07-22,一般社団法人全日本ドローン産業機構,,その他の設立登記法人,長崎県,大村市,諏訪２丁目１６１番地３,,42,205,8560024,,,2024-07-22,清算の結了等,,,2020-07-20,1,,,,,ゼンニホンドローンサンギョウキコウ,0
2447,9420001011185,登記記録の閉鎖等,0,2024-07-31,2024-07-19,八甲田電子株式会社,,株式会社,青森県,十和田市,大字三本木字千歳森２３７番地１８,,02,206,0340001,,,2024-07-19,合併による解散等,1030001027575,令和６年７月１日東京都中央区日本橋二丁目３番４号株式会社大泉製作所（1030001027575）に合併し解散,2015-10-05,1,,,,,ハッコウダデンシ,0
2452,9430002032477,登記記録の閉鎖等,0,2024-07-31,2024-07-25,有限会社オフィス並木,,有限会社,北海道,札幌市清田区,平岡一条２丁目９番３号,,01,110,0040871,,,2024-07-25,清算の結了等,,,2015-10-05,1,,,,,オフィスナミキ,0
2454,9430003012965,登記記録の閉鎖等,0,2024-07-31,2024-07-08,合同会社ＮＥＸＴ,,合同会社,東京都,港区,南青山２丁目２番１５号ＷＩＮ青山５３１,,13,103,1070062,,,2024-07-08,清算の結了等,,,2021-07-27,1,,,,,ネクスト,0
