sequenceNumber,corporateNumber,process,correct,updateDate,changeDate,name,nameImageId,kind,prefectureName,cityName,streetNumber,addressImageId,prefectureCode,cityCode,postCode,addressOutside,addressOutsideImageId,closeDate,closeCause,successorCorporateNumber,changeCause,assignmentDate,latest,enName,enPrefectureName,enCityName,enAddressOutside,furigana,hihyoji
9,1010001224091,新規,0,2022-02-02,2022-02-02,株式会社小泉愼事務所,,株式会社,東京都,文京区,根津２丁目３７番１－９０３号,,13,105,1130031,,,,,,,2022-02-02,1,,,,,コイズミシンジムショ,0
10,1010001224158,新規,0,2022-02-02,2022-02-02,ＳＭＩＴＨ＆ＭＡＲＩＮＥ株式会社,,株式会社,東京都,文京区,本郷４丁目１－１菊花ビル７０１,,13,105,1130033,,,,,,,2022-02-02,1,,,,,スミスアンドマリン,0
11,1010001224249,新規,0,2022-02-02,2022-02-02,株式会社Ｃｌｏｕｄｉｖｅ,,株式会社,東京都,中央区,銀座１丁目２２番１１号銀座大竹ビジデンス２Ｆ,,13,102,1040061,,,,,,,2022-02-02,1,,,,,クラウディブ,0
13,1010003036898,新規,0,2022-02-02,2022-02-02,ジェイコアレジ５合同会社１３,,合同会社,東京都,千代田区,丸の内３丁目１番１号東京共同会計事務所内,,13,101,1000005,,,,,,,2022-02-02,1,,,,,ジェイコアレジファイブイチサン,0
14,1010003036907,新規,0,2022-02-02,2022-02-02,合同会社見顕屋,,合同会社,東京都,中央区,銀座１丁目２２番１１号銀座大竹ビジデンス２階,,13,102,1040061,,,,,,,2022-02-02,1,,,,,ミアラワシヤ,0
22,1010401165274,新規,0,2022-02-02,2022-02-02,株式会社住友ｅｖｅｒ,,株式会社,東京都,港区,北青山３丁目６番７号青山パラシオタワー１１階,,13,103,1070061,,,,,,,2022-02-02,1,,,,,スミトモエバー,0
23,1010401165316,新規,0,2022-02-02,2022-02-02,株式会社ＨＭコンサルティング,,株式会社,東京都,港区,三田５丁目２番２２号１６０８,,13,103,1080073,,,,,,,2022-02-02,1,,,,,エイチエムコンサルティング,0
24,1010401165324,新規,0,2022-02-02,2022-02-02,株式会社Ｆｅｓｔａｌ,,株式会社,東京都,港区,三田５丁目２番１８号,,13,103,1080073,,,,,,,2022-02-02,1,,,,,フェスタル,0
26,1010403027010,新規,0,2022-02-02,2022-02-02,ＢＡＥ　Ｓｙｓｔｅｍｓ　Ｊａｐａｎ合同会社,,合同会社,東京都,港区,赤坂１丁目１２番３２号アーク森ビル,,13,103,1070052,,,,,,,2022-02-02,1,,,,,ビーエーイーシステムズジャパン,0
31,1010603009378,新規,0,2022-02-02,2022-02-02,合同会社日向,,合同会社,東京都,江東区,富岡１丁目１３番８号Ｓビル４階,,13,108,1350047,,,,,,,2022-02-02,1,,,,,ヒムカ,0
36,1011001145377,新規,0,2022-02-02,2022-02-02,株式会社ネルプ,,株式会社,東京都,目黒区,下目黒１丁目８－１アルコタワー７階,,13,110,1530064,,,,,,,2022-02-02,1,,,,,ネルプ,0
38,1011101097675,新規,0,2022-02-02,2022-02-02,株式会社ＪＢコマース,,株式会社,東京都,新宿区,新宿２丁目４番２号,,13,104,1600022,,,,,,,2022-02-02,1,,,,,ジェイビーコマース,0
39,1011101097691,新規,0,2022-02-02,2022-02-02,東アジア貿易株式会社,,株式会社,東京都,新宿区,西新宿３丁目３番１３号西新宿水間ビル６階,,13,104,1600023,,,,,,,2022-02-02,1,,,,,ヒガシアジアボウエキ,0
42,1011103011444,新規,0,2022-02-02,2022-02-02,ＨＩＰＳ合同会社,,合同会社,東京都,新宿区,西新宿８丁目１番２号ＰＭＯ西新宿５階,,13,104,1600023,,,,,,,2022-02-02,1,,,,,エイチアイピーエス,0
65,1020001145072,新規,0,2022-02-02,2022-02-02,セブンドワーフス株式会社,,株式会社,神奈川県,横浜市青葉区,千草台４８－４３－３０１,,14,117,2270051,,,,,,,2022-02-02,1,,,,,セブンドワーフス,0
71,1020003021230,新規,0,2022-02-02,2022-02-02,合同会社クレール,,合同会社,神奈川県,横浜市港北区,樽町３丁目７番７０－４０９号,,14,109,2220001,,,,,,,2022-02-02,1,,,,,クレール,0
72,1020003021239,新規,0,2022-02-02,2022-02-02,ラバボ合同会社,,合同会社,神奈川県,横浜市瀬谷区,下瀬谷２丁目２１番地２１,,14,114,2460035,,,,,,,2022-02-02,1,,,,,ラバボ,0
85,1030001146598,新規,0,2022-02-02,2022-02-02,全管協北関東株式会社,,株式会社,埼玉県,さいたま市大宮区,大成町２丁目２７３番地１,,11,103,3300852,,,,,,,2022-02-02,1,,,,,ゼンカンキョウキタカントウ,0
86,1030001146648,新規,0,2022-02-02,2022-02-02,株式会社アシストサービス,,株式会社,埼玉県,所沢市,小手指南４丁目７番地の１,,11,208,3591146,,,,,,,2022-02-02,1,,,,,アシストサービス,0
87,1030001146656,新規,0,2022-02-02,2022-02-02,株式会社ＯＬＧＥＮ,,株式会社,埼玉県,越谷市,新越谷１丁目５０番地５,,11,222,3430857,,,,,,,2022-02-02,1,,,,,オルゲン,0
91,1030003018770,新規,0,2022-02-02,2022-02-02,ＪＯＺＥＮ　ＧＬＯＢＡＬ合同会社,,合同会社,埼玉県,久喜市,本町１丁目７番２３号,,11,232,3460005,,,,,,,2022-02-02,1,,,,,ジョウゼングローバル,0
92,1030005020709,新規,0,2022-02-02,2022-02-02,一般社団法人中皮腫治療推進基金,,その他の設立登記法人,埼玉県,児玉郡上里町,大字大御堂４８２番地,,11,385,3690315,,,,,,,2022-02-02,1,,,,,チュウヒシュチリョウスイシンキキン,0
98,1040001122020,新規,0,2022-02-02,2022-02-02,ＪＬ　Ｊａｐａｎ株式会社,,株式会社,千葉県,君津市,人見１０５５番地６,,12,225,2991147,,,,,,,2022-02-02,1,,,,,ジェイエルジャパン,0
99,1040003019421,新規,0,2022-02-02,2022-02-02,ＡＳＨＩＲＯ　ＭＯＴＯＲＳ合同会社,,合同会社,千葉県,八街市,八街に１２０番地６１フレンドハイツ２０３,,12,230,2891103,,,,,,,2022-02-02,1,,,,,アシロモータース,0
101,1050001050559,新規,0,2022-02-02,2022-02-02,株式会社ウィーヴ,,株式会社,茨城県,牛久市,田宮町１８９番地１４,,08,219,3001236,,,,,,,2022-02-02,1,,,,,ウィーヴ,0
104,1070001038899,新規,0,2022-02-02,2022-02-02,ニッポンオート株式会社,,株式会社,群馬県,太田市,脇屋町１６９番地５,,10,205,3730031,,,,,,,2022-02-02,1,,,,,ニッポンオート,0
106,1080001024725,新規,0,2022-02-02,2022-02-02,株式会社ＲＥＩＷＡ,,株式会社,静岡県,静岡市駿河区,馬渕２丁目４番２９号,,22,102,4228063,,,,,,,2022-02-02,1,,,,,レイワ,0
113,1080401025604,新規,0,2022-02-02,2022-02-02,株式会社きぶね動物病院,,株式会社,静岡県,浜松市浜北区,貴布祢２７７番地の２,,22,136,4340038,,,,,,,2022-02-02,1,,,,,キブネドウブツビョウイン,0
116,1110001036403,新規,0,2022-02-02,2022-02-02,株式会社ヒグチ地研,,株式会社,新潟県,上越市,大字上雲寺８番地１,,15,222,9430124,,,,,,,2022-02-02,1,,,,,ヒグチチケン,0
117,1110001036411,新規,0,2022-02-02,2022-02-02,リフォームぷらす株式会社,,株式会社,新潟県,新潟市中央区,出来島１丁目１４番２６号,,15,103,9500962,,,,,,,2022-02-02,1,,,,,リフォームプラス,0
130,1120001243584,新規,0,2022-02-02,2022-02-02,株式会社ＮＫ,,株式会社,大阪府,大阪市中央区,博労町４丁目２番１５号,,27,128,5410059,,,,,,,2022-02-02,1,,,,,エヌケイ,0
140,1130003007730,新規,0,2022-02-02,2022-02-02,合同会社スコーピオ,,合同会社,京都府,京都市伏見区,竹田中川原町５０番１,,26,109,6128412,,,,,,,2022-02-02,1,,,,,スコーピオ,0
144,1140003017241,新規,0,2022-02-02,2022-02-02,合同会社Ｌｅｉ,,合同会社,兵庫県,神戸市須磨区,行幸町１丁目５－１５－８０３,,28,107,6540052,,,,,,,2022-02-02,1,,,,,レイ,0
145,1140003017299,新規,0,2022-02-02,2022-02-02,合同会社ジェベナ,,合同会社,兵庫県,神戸市灘区,烏帽子町３丁目１番１６号,,28,102,6570042,,,,,,,2022-02-02,1,,,,,ジェベナ,0
146,1140003017308,新規,0,2022-02-02,2022-02-02,合同会社五宮ベース,,合同会社,兵庫県,神戸市兵庫区,五宮町１８番７号,,28,105,6520007,,,,,,,2022-02-02,1,,,,,ゴノミヤベース,0
148,1160001023982,新規,0,2022-02-02,2022-02-02,北川商店株式会社,,株式会社,滋賀県,長浜市,宮部町２５１１番地２,,25,203,5290112,,,,,,,2022-02-02,1,,,,,キタガワショウテン,0
151,1170005006941,新規,0,2022-02-02,2022-02-02,一般社団法人全国医師厚生会,,その他の設立登記法人,和歌山県,和歌山市,吹上１丁目２番４号,,30,201,6408137,,,,,,,2022-02-02,1,,,,,ゼンコクイシコウセイカイ,0
155,1180001149751,新規,0,2022-02-02,2022-02-02,株式会社ＯＺ,,株式会社,愛知県,名古屋市中川区,好本町２丁目４９番地の１,,23,110,4540825,,,,,,,2022-02-02,1,,,,,オズ,0
156,1180001149867,新規,0,2022-02-02,2022-02-02,株式会社ｓｐｒｅａｄ,,株式会社,愛知県,常滑市,大谷朝陽ケ丘２丁目１番地,,23,216,4790810,,,,,,,2022-02-02,1,,,,,スプレッド,0
157,1180003023418,新規,0,2022-02-02,2022-02-02,合同会社まつひろ,,合同会社,愛知県,名古屋市名東区,引山１丁目１００５番地,,23,115,4650002,,,,,,,2022-02-02,1,,,,,マツヒロ,0
158,1180005019629,新規,0,2022-02-02,2022-02-02,一般社団法人中部任意売却支援協会,,その他の設立登記法人,愛知県,名古屋市中区,栄３丁目７番１号,,23,106,4600008,,,,,,,2022-02-02,1,,,,,チュウブニンイバイキャクシエンキョウカイ,0
160,1190001029077,新規,0,2022-02-02,2022-02-02,株式会社優,,株式会社,三重県,亀山市,関町木崎７６９番地１,,24,210,5191107,,,,,,,2022-02-02,1,,,,,ユウ,0
163,1200003005421,新規,0,2022-02-02,2022-02-02,合資会社森下農場,,合資会社,岐阜県,飛騨市,神岡町丸山３１２番地,,21,217,5061142,,,,,,,2022-02-02,1,,,,,モリシタノウジョウ,0
181,1260001036479,新規,0,2022-02-02,2022-02-02,株式会社大月工業,,株式会社,岡山県,岡山市中区,倉益９３番地１２,,33,102,7038263,,,,,,,2022-02-02,1,,,,,オオツキコウギョウ,0
184,1260003003782,新規,0,2022-02-02,2022-02-02,合同会社ソラリエ,,合同会社,岡山県,総社市,門田４１７－１,,33,208,7191156,,,,,,,2022-02-02,1,,,,,ソラリエ,0
187,1290003012095,新規,0,2022-02-02,2022-02-02,レボクック合同会社,,合同会社,福岡県,三井郡大刀洗町,大字高樋１０５３－１,,40,503,8301221,,,,,,,2022-02-02,1,,,,,レボクック,0
188,1290005018553,新規,0,2022-02-02,2022-02-02,Ｎ．Ｉ．パートナーズ税理士法人,,その他の設立登記法人,福岡県,福岡市早良区,西新３丁目５番１０号,,40,137,8140002,,,,,,,2022-02-02,1,,,,,エヌアイパートナーズ,0
194,1310003004271,新規,0,2022-02-02,2022-02-02,合同会社Ｐａｙ　Ｉｔ　Ｆｏｒｗａｒｄ,,合同会社,長崎県,大村市,原口町８３８番地４号,,42,205,8560811,,,,,,,2022-02-02,1,,,,,ペイフォワード,0
198,1320001018875,新規,0,2022-02-02,2022-02-02,株式会社ホールド,,株式会社,大分県,大分市,大字城原６５７番地の２,,44,201,8700267,,,,,,,2022-02-02,1,,,,,ホールド,0
201,1340001024467,新規,0,2022-02-02,2022-02-02,株式会社Ｂ‐ｂａｌａｎｃｅ,,株式会社,鹿児島県,鹿児島市,坂之上１丁目４５番３６号,,46,201,8910150,,,,,,,2022-02-02,1,,,,,ビーバランス,0
205,1350001017560,新規,0,2022-02-02,2022-02-02,株式会社恒盛,,株式会社,宮崎県,宮崎市,大字恒久４４４６番地１ＴＳグランデ恒久中央２０３号,,45,201,8800916,,,,,,,2022-02-02,1,,,,,ツネモリ,0
207,1350003004020,新規,0,2022-02-02,2022-02-02,合同会社ＫＥＮＳＡＮ,,合同会社,宮崎県,宮崎市,佐土原町下那珂１９２９番地９,,45,201,8800212,,,,,,,2022-02-02,1,,,,,ケンサン,0
209,1350005006048,新規,0,2022-02-02,2022-02-02,医療法人喜島クリニック,,その他の設立登記法人,宮崎県,宮崎市,江平西１丁目４番１９号,,45,201,8800051,,,,,,,2022-02-02,1,,,,,キジマクリニック,0
212,1360001029968,新規,0,2022-02-02,2022-02-02,株式会社Ｄｅｌ　Ｑｕｉ,,株式会社,沖縄県,石垣市,字新川１５８５－３５コーラルベイ石垣島迎賓館１０１号室,,47,207,9070024,,,,,,,2022-02-02,1,,,,,,0
216,1370005010436,新規,0,2022-02-02,2022-02-02,一般社団法人東北スポ少空手道,,その他の設立登記法人,宮城県,石巻市,桃生町永井字糠塚５０番地２,,04,202,9860303,,,,,,,2022-02-02,1,,,,,トウホクスポショウカラテドウ,0
218,1390003001922,新規,0,2022-02-02,2022-02-02,一片工業合同会社,,合同会社,山形県,鶴岡市,羽黒町細谷字北田１２７番地１７,,06,203,9970162,,,,,,,2022-02-02,1,,,,,ヒトヒラコウギョウ,0
230,1420003002446,新規,0,2022-02-02,2022-02-02,合同会社秀,,合同会社,青森県,三戸郡三戸町,大字川守田字落合４３番地６,,02,441,0390141,,,,,,,2022-02-02,1,,,,,シュウ,0
244,1460303000749,新規,0,2022-02-02,2022-02-02,合同会社池田ファーム,,合同会社,北海道,網走郡津別町,字恩根４２１番地１７,,01,544,0920355,,,,,,,2022-02-02,1,,,,,イケダファーム,0
253,1500001023980,新規,0,2022-02-02,2022-02-02,株式会社ファイブスターズカンパニー,,株式会社,愛媛県,松山市,千舟町６丁目３番地２アルファステイツ千舟町通り３０５号,,38,201,7900011,,,,,,,2022-02-02,1,,,,,ファイブスターズカンパニー,0
267,2010001224231,新規,0,2022-02-02,2022-02-02,株式会社パインアップ,,株式会社,東京都,千代田区,内神田２丁目３番１－１１０２号,,13,101,1010047,,,,,,,2022-02-02,1,,,,,パインアップ,0
268,2010001224322,新規,0,2022-02-02,2022-02-02,株式会社ＳＣＲＩＢＥ,,株式会社,東京都,中央区,銀座６丁目１３－１６銀座ＷａｌｌビルＵＣＦ５階,,13,102,1040061,,,,,,,2022-02-02,1,,,,,スクライブ,0
269,2010003036897,新規,0,2022-02-02,2022-02-02,ジェイコアレジ５合同会社１７,,合同会社,東京都,千代田区,丸の内３丁目１番１号東京共同会計事務所内,,13,101,1000005,,,,,,,2022-02-02,1,,,,,ジェイコアレジファイブイチナナ,0
279,2010401165315,新規,0,2022-02-02,2022-02-02,株式会社ＺＥＲＯＩＣＨＩ,,株式会社,東京都,港区,西麻布４丁目１番１５号秋山ビル３階,,13,103,1060031,,,,,,,2022-02-02,1,,,,,ゼロイチ,0
281,2010403027018,新規,0,2022-02-02,2022-02-02,Ｓｙｎｃｈｒｏｎｉｃｉｔｙ合同会社,,合同会社,東京都,港区,六本木４丁目８番７号,,13,103,1060032,,,,,,,2022-02-02,1,,,,,シンクロニシティ,0
285,2010901050280,新規,0,2022-02-02,2022-02-02,株式会社ＲＥＦＩＮＹＡ,,株式会社,東京都,世田谷区,上野毛４丁目１番１９号公孫樹邸２０３,,13,112,1580093,,,,,,,2022-02-02,1,,,,,リフィニア,0
292,2011001145418,新規,0,2022-02-02,2022-02-02,株式会社アイリーライフ,,株式会社,東京都,渋谷区,千駄ヶ谷５丁目１７番２１号芝山ビル１Ｆ,,13,113,1510051,,,,,,,2022-02-02,1,,,,,アイリーライフ,0
293,2011001145459,新規,0,2022-02-02,2022-02-02,株式会社ＥＸＣＩＡ,,株式会社,東京都,渋谷区,広尾５丁目４番２０号,,13,113,1500012,,,,,,,2022-02-02,1,,,,,エクシア,0
294,2011001145467,新規,0,2022-02-02,2022-02-02,株式会社ＢＴ３,,株式会社,東京都,渋谷区,神宮前６丁目２３番４号２Ｆ,,13,113,1500001,,,,,,,2022-02-02,1,,,,,ビーティースリー,0
296,2011005009412,新規,0,2022-02-02,2022-02-02,ファストコムプラス行政書士法人,,その他の設立登記法人,東京都,渋谷区,代々木２丁目５番１号羽田ビル７０５,,13,113,1510053,,,,,,,2022-02-02,1,,,,,ファストコムプラス,0
298,2011101097682,新規,0,2022-02-02,2022-02-02,ＫＩＲＩＮＺＩ株式会社,,株式会社,東京都,新宿区,市谷田町３丁目８番,,13,104,1620843,,,,,,,2022-02-02,1,,,,,キリンジ,0
301,2011103011402,新規,0,2022-02-02,2022-02-02,キズナジャパン合同会社,,合同会社,東京都,新宿区,下宮比町２番１８号,,13,104,1620822,,,,,,,2022-02-02,1,,,,,キズナジャパン,0
302,2011103011427,新規,0,2022-02-02,2022-02-02,合同会社スタートアップ,,合同会社,東京都,新宿区,百人町２丁目２６番９ＮＣスクエア新宿ビル３Ｆ,,13,104,1690073,,,,,,,2022-02-02,1,,,,,スタートアップ,0
305,2011403003553,新規,0,2022-02-02,2022-02-02,ＮＹ合同会社,,合同会社,東京都,板橋区,富士見町３１番２号クロープ富士２０２,,13,119,1740062,,,,,,,2022-02-02,1,,,,,エヌワイ,0
308,2011701025019,新規,0,2022-02-02,2022-02-02,株式会社アベニール,,株式会社,東京都,江戸川区,谷河内２丁目５番１２－６０１号グレースタウン８３,,13,123,1330002,,,,,,,2022-02-02,1,,,,,アベニール,0
314,2013301048614,新規,0,2022-02-02,2022-02-02,株式会社ＲＯＯＴＳ,,株式会社,東京都,豊島区,池袋２丁目５０番４号９１０,,13,116,1710014,,,,,,,2022-02-02,1,,,,,ルーツ,0
318,2020001145039,新規,0,2022-02-02,2022-02-02,株式会社サニーサイドデザイン,,株式会社,神奈川県,横浜市中区,太田町３丁目３５番地３－９０２号,,14,104,2310011,,,,,,,2022-02-02,1,,,,,サニーサイドデザイン,0
320,2020003021205,新規,0,2022-02-02,2022-02-02,合同会社じゅーしゐ戸塚,,合同会社,神奈川県,横浜市戸塚区,戸塚町１６－１２,,14,110,2440003,,,,,,,2022-02-02,1,,,,,ジューシートツカ,0
321,2020003021238,新規,0,2022-02-02,2022-02-02,小泉オフィス合同会社,,合同会社,神奈川県,横浜市西区,浅間町３丁目１７７番地１２ライオンズマンション横浜駅西第２－１０１号,,14,103,2200072,,,,,,,2022-02-02,1,,,,,コイズミオフィス,0
326,2021001075085,新規,0,2022-02-02,2022-02-02,株式会社創日,,株式会社,神奈川県,相模原市緑区,鳥屋８６９番地４ー２Ｆ,,14,151,2520155,,,,,,,2022-02-02,1,,,,,ソウニチ,0
327,2021001075093,新規,0,2022-02-02,2022-02-02,株式会社Ａｍａｖ　ｍｏｎｄｏ,,株式会社,神奈川県,秦野市,鶴巻１４０２番地の１６,,14,211,2570007,,,,,,,2022-02-02,1,,,,,アメイブモンド,0
337,2030001146647,新規,0,2022-02-02,2022-02-02,佐々木工業株式会社,,株式会社,埼玉県,川口市,大字石神２７９番地の１４,,11,203,3330823,,,,,,,2022-02-02,1,,,,,ササキコウギョウ,0
340,2030003018720,新規,0,2022-02-02,2022-02-02,合同会社ぬっく,,合同会社,埼玉県,所沢市,中新井２丁目２８１番地４,,11,208,3590041,,,,,,,2022-02-02,1,,,,,ヌック,0
341,2030003018753,新規,0,2022-02-02,2022-02-02,合同会社Ｓｋｙ　Ｉｍｐｏｒｔｓ,,合同会社,埼玉県,川口市,上青木１丁目２２－１０,,11,203,3330844,,,,,,,2022-02-02,1,,,,,スカイインポート,0
344,2030005020708,新規,0,2022-02-02,2022-02-02,一般財団法人ＡＳＪ財団,,その他の設立登記法人,埼玉県,川口市,栄町３丁目２番１６号,,11,203,3320017,,,,,,,2022-02-02,1,,,,,エイエスジェイザイダン,0
350,2040001121970,新規,0,2022-02-02,2022-02-02,ＣＯＷＲＩＴＥ株式会社,,株式会社,千葉県,大網白里市,ながた野２丁目７番地８キンダーテラッセＩＩＩ１０３号,00125598,12,239,2993232,,,,,,,2022-02-02,1,,,,,コライト,0
351,2040001121979,新規,0,2022-02-02,2022-02-02,ファーム根本株式会社,,株式会社,千葉県,松戸市,幸田２丁目１４２番地,,12,207,2700001,,,,,,,2022-02-02,1,,,,,ファームネモト,0
352,2040001122011,新規,0,2022-02-02,2022-02-02,メディカルアーチホールディングス株式会社,,株式会社,千葉県,市川市,八幡５丁目７番２２号,,12,203,2720021,,,,,,,2022-02-02,1,,,,,メディカルアーチホールディングス,0
353,2040001122036,新規,0,2022-02-02,2022-02-02,株式会社菊地社寺,,株式会社,千葉県,茂原市,道表６番地１－２Ｂ,,12,210,2970028,,,,,,,2022-02-02,1,,,,,キクチシャジ,0
355,2040003019395,新規,0,2022-02-02,2022-02-02,合同会社ハス,,合同会社,千葉県,松戸市,新松戸６丁目３３５番地アルタソーナ２０３号,,12,207,2700034,,,,,,,2022-02-02,1,,,,,ハス,0
356,2040003019420,新規,0,2022-02-02,2022-02-02,合同会社Ｎｉｎｏｄｅｎｔ,,合同会社,千葉県,佐倉市,宮前３丁目２１番地６,,12,212,2850005,,,,,,,2022-02-02,1,,,,,ニノデント,0
367,2070001038898,新規,0,2022-02-02,2022-02-02,Ｋａｚｕｈｉｒｏ　Ｉｋｕｍｉ　Ｍｅｄｉｃａｌ　Ｉｎｓｔｉｔｕｔｅ株式会社,,株式会社,群馬県,高崎市,江木町４０８の２番地,,10,202,3700046,,,,,,,2022-02-02,1,,,,,カズヒロイクミメディカルインスティチュート,0
372,2080105006214,新規,0,2022-02-02,2022-02-02,特定非営利活動法人さんらいず,,その他の設立登記法人,静岡県,沼津市,大岡２１３６番地の４、２階西,,22,203,4100022,,,,,,,2022-02-02,1,,,,,サンライズ,0
373,2080401025603,新規,0,2022-02-02,2022-02-02,株式会社ＯＯＢ,,株式会社,静岡県,浜松市中区,鴨江２丁目１３番３７号,,22,131,4328023,,,,,,,2022-02-02,1,,,,,オーブ,0
374,2090001017388,新規,0,2022-02-02,2022-02-02,株式会社ファーストハウス,,株式会社,山梨県,甲府市,向町７１３番地４カロリータウン７、２０２号,,19,201,4000813,,,,,,,2022-02-02,1,,,,,ファーストハウス,0
391,2120001243575,新規,0,2022-02-02,2022-02-02,株式会社エス,,株式会社,大阪府,大阪市北区,梅田２丁目５番１３号,,27,127,5300001,,,,,,,2022-02-02,1,,,,,エス,0
395,2120003021021,新規,0,2022-02-02,2022-02-02,ＡＥＪＰ合同会社,,合同会社,大阪府,大阪市生野区,生野西１丁目１０番２９号２Ｆ,,27,116,5440024,,,,,,,2022-02-02,1,,,,,エーイージェイピー,0
396,2120003021038,新規,0,2022-02-02,2022-02-02,合同会社ＺＥＲＯ,,合同会社,大阪府,大阪市淀川区,西中島６丁目３番２４号Ｋ４０６,,27,123,5320011,,,,,,,2022-02-02,1,,,,,ゼロ,0
397,2120003021046,新規,0,2022-02-02,2022-02-02,合同会社ＳＯＮＡＥＲＵ,,合同会社,大阪府,大阪市中央区,平野町２丁目５番１４号６０２Ｂ,,27,128,5410046,,,,,,,2022-02-02,1,,,,,ソナエル,0
398,2120003021062,新規,0,2022-02-02,2022-02-02,合同会社Ａ＆Ｑ,,合同会社,大阪府,大阪市中央区,内淡路町１丁目４番７号１３０２,,27,128,5400038,,,,,,,2022-02-02,1,,,,,エーアンドキュー,0
399,2120005022760,新規,0,2022-02-02,2022-02-02,ＮＰＯ法人Ｃｏｒｅ　ａｎｄ　Ｂａｓｉｃｓ,,その他の設立登記法人,大阪府,大阪市北区,芝田１丁目１－４阪急ターミナルビル１６階Ｒｅｇｕｓ会議室１６３４,,27,127,5300012,,,,,,,2022-02-02,1,,,,,コアアンドベーシクス,0
401,2120103004553,新規,0,2022-02-02,2022-02-02,田所合同会社,,合同会社,大阪府,松原市,上田３丁目６番２０－８０８号,,27,217,5800016,,,,,,,2022-02-02,1,,,,,タドコロ,0
402,2120103004561,新規,0,2022-02-02,2022-02-02,上園合同会社,,合同会社,大阪府,松原市,上田３丁目６番２０－８０８号,,27,217,5800016,,,,,,,2022-02-02,1,,,,,ウエゾノ,0
403,2120105009518,新規,0,2022-02-02,2022-02-02,医療法人爽人会,,その他の設立登記法人,大阪府,堺市堺区,車之町東１丁２番２８号,,27,141,5900943,,,,,,,2022-02-02,1,,,,,ソウジンカイ,0
406,2120901045542,新規,0,2022-02-02,2022-02-02,クランドエステート株式会社,,株式会社,大阪府,豊中市,服部南町１丁目３番２２号,,27,203,5610853,,,,,,,2022-02-02,1,,,,,クランドエステート,0
409,2122001035548,新規,0,2022-02-02,2022-02-02,株式会社ペイ・フォワード,,株式会社,大阪府,大東市,野崎１丁目６番２３号,,27,218,5740015,,,,,,,2022-02-02,1,,,,,ペイフォワード,0
412,2130001071042,新規,0,2022-02-02,2022-02-02,株式会社ケイプラス,,株式会社,京都府,京都市伏見区,大阪町６１２番地,,26,109,6128048,,,,,,,2022-02-02,1,,,,,ケイプラス,0
413,2130001071050,新規,0,2022-02-02,2022-02-02,株式会社スリーエスシステム,,株式会社,京都府,城陽市,寺田大川原２２番地の２４,,26,207,6100121,,,,,,,2022-02-02,1,,,,,スリーエスシステム,0
423,2150001025302,新規,0,2022-02-02,2022-02-02,株式会社かわむら建設,,株式会社,奈良県,御所市,大字櫛羅８３６番地の１,,29,208,6392312,,,,,,,2022-02-02,1,,,,,カワムラケンセツ,0
424,2150003002613,新規,0,2022-02-02,2022-02-02,合同会社ＣｏｚｙＬｉｆｅ,,合同会社,奈良県,奈良市,富雄北２丁目９番９－３号,,29,201,6310076,,,,,,,2022-02-02,1,,,,,コージーライフ,0
425,2160001023981,新規,0,2022-02-02,2022-02-02,株式会社Ｍ．Ｄ　ｗｏｒｋｓ,,株式会社,滋賀県,草津市,南笠東３丁目１７番２４号,,25,206,5250071,,,,,,,2022-02-02,1,,,,,エムディーワークス,0
426,2160003002488,新規,0,2022-02-02,2022-02-02,合同会社８３１,,合同会社,滋賀県,東近江市,宮川町６６７－３５,,25,213,5291551,,,,,,,2022-02-02,1,,,,,ハチサンイチ,0
432,2180001149783,新規,0,2022-02-02,2022-02-02,Ｌｅ　ｍｅｉｌｌａｒｃ株式会社,,株式会社,愛知県,名古屋市中区,錦３丁目１４番４号シャインα錦ビル３０１号,,23,106,4600003,,,,,,,2022-02-02,1,,,,,ルミアーク,0
433,2180001149809,新規,0,2022-02-02,2022-02-02,ｈａｌｍ株式会社,,株式会社,愛知県,名古屋市中川区,本前田町２１７番地,,23,110,4540914,,,,,,,2022-02-02,1,,,,,ハルム,0
441,2200001039718,新規,0,2022-02-02,2022-02-02,エヌアイエス株式会社,,株式会社,岐阜県,本巣市,下真桑３５７番地１０,,21,218,5010466,,,,,,,2022-02-02,1,,,,,エヌアイエス,0
442,2200003005445,新規,0,2022-02-02,2022-02-02,合同会社ライズ,,合同会社,岐阜県,岐阜市,江口２丁目３番１９号,,21,201,5020915,,,,,,,2022-02-02,1,,,,,ライズ,0
452,2240003005482,新規,0,2022-02-02,2022-02-02,合同会社箱崎建設,00125595,合同会社,広島県,東広島市,黒瀬町国近１０２２５番地１,,34,212,7392502,,,,,,,2022-02-02,1,,,,,ハコザキケンセツ,0
454,2250001019392,新規,0,2022-02-02,2022-02-02,株式会社村尾,,株式会社,山口県,周南市,毛利町３丁目１４番地,,35,215,7450004,,,,,,,2022-02-02,1,,,,,ムラオ,0
458,2270002008129,新規,0,2022-02-02,2022-02-02,有限会社櫛田建設,00125549,有限会社,鳥取県,西伯郡伯耆町,大殿１５６９番地１２,,31,390,6894121,,,,,,,2022-02-02,1,,,,,クシダケンセツ,0
460,2280003001577,新規,0,2022-02-02,2022-02-02,合同会社ナカムラ会計,,合同会社,島根県,松江市,古志原４丁目１５番２０号,,32,201,6900012,,,,,,,2022-02-02,1,,,,,ナカムラカイケイ,0
461,2280005007465,新規,0,2022-02-02,2022-02-02,一般社団法人ｉｎｅ,,その他の設立登記法人,島根県,雲南市,木次町木次２９,,32,209,6991332,,,,,,,2022-02-02,1,,,,,,0
465,2290001096288,新規,0,2022-02-02,2022-02-02,株式会社アドバンスト,,株式会社,福岡県,福岡市中央区,天神２丁目３番１０号天神パインクレスト７１９号,,40,133,8100001,,,,,,,2022-02-02,1,,,,,アドバンスト,0
466,2290001096305,新規,0,2022-02-02,2022-02-02,株式会社ハウステリア,,株式会社,福岡県,筑紫野市,大字永岡９７９番地１,,40,217,8180066,,,,,,,2022-02-02,1,,,,,ハウステリア,0
468,2290005018552,新規,0,2022-02-02,2022-02-02,税理士法人伊東・大津留事務所,,その他の設立登記法人,福岡県,福岡市中央区,高砂２丁目２５番３４号淡青ビル１１階,,40,133,8100011,,,,,,,2022-02-02,1,,,,,イトウオオツルジムショ,0
469,2310001017695,新規,0,2022-02-02,2022-02-02,株式会社巴施工,,株式会社,長崎県,西彼杵郡時津町,左底郷１２７８番地５－１０１,,42,308,8512106,,,,,,,2022-02-02,1,,,,,トモエセコウ,0
486,2350005006047,新規,0,2022-02-02,2022-02-02,医療法人まつだ耳鼻咽喉科宮崎サージクリニック,,その他の設立登記法人,宮崎県,宮崎市,村角町折口３５５番地３,,45,201,8800837,,,,,,,2022-02-02,1,,,,,マツダジビインコウカミヤザキサージクリニック,0
487,2360001029959,新規,0,2022-02-02,2022-02-02,株式会社恵,,株式会社,沖縄県,沖縄市,明道１丁目１０番７号,,47,211,9042152,,,,,,,2022-02-02,1,,,,,メグミ,0
490,2360003011774,新規,0,2022-02-02,2022-02-02,合同会社オオヤド,,合同会社,沖縄県,那覇市,宮城１丁目２－６,,47,201,9010147,,,,,,,2022-02-02,1,,,,,オオヤド,0
494,2380001032548,新規,0,2022-02-02,2022-02-02,株式会社せいわ創建,,株式会社,福島県,郡山市,喜久田町堀之内字下殿田４２番地の３,,07,203,9630541,,,,,,,2022-02-02,1,,,,,セイワソウケン,0
498,2400001015764,新規,0,2022-02-02,2022-02-02,水神キャンバス株式会社,,株式会社,岩手県,北上市,和賀町岩崎新田２地割４８番地２２,,03,206,0240322,,,,,,,2022-02-02,1,,,,,ミズカミキャンバス,0
506,2450001013607,新規,0,2022-02-02,2022-02-02,株式会社ＳＰＧパーソナル,,株式会社,北海道,旭川市,緑が丘一条３丁目３番地の２１,,01,204,0788301,,,,,,,2022-02-02,1,,,,,エスピージーパーソナル,0
514,3010001224222,新規,0,2022-02-02,2022-02-02,ヘルスケアジャパンパートナーズ株式会社,,株式会社,東京都,千代田区,大手町１丁目７番２号東京サンケイビル２７Ｆ,,13,101,1000004,,,,,,,2022-02-02,1,,,,,ヘルスケアジャパンパートナーズ,0
515,3010001224247,新規,0,2022-02-02,2022-02-02,株式会社Ｄ．ＲＯＣＫ　ＪＡＰＡＮ,,株式会社,東京都,中央区,入船１丁目４番９号,,13,102,1040042,,,,,,,2022-02-02,1,,,,,ディーロックジャパン,0
516,3010001224321,新規,0,2022-02-02,2022-02-02,ＮＥＯＲＩＡＳ株式会社,,株式会社,東京都,中央区,日本橋人形町２丁目２９－９－４階,,13,102,1030013,,,,,,,2022-02-02,1,,,,,ネオリアス,0
522,3010003036896,新規,0,2022-02-02,2022-02-02,ジェイコアレジ５合同会社１１,,合同会社,東京都,千代田区,丸の内３丁目１番１号東京共同会計事務所内,,13,101,1000005,,,,,,,2022-02-02,1,,,,,ジェイコアレジファイブイチイチ,0
525,3010005034502,新規,0,2022-02-02,2022-02-02,一般社団法人ロボットデリバリー協会,,その他の設立登記法人,東京都,千代田区,隼町３番１９号,,13,101,1020092,,,,,,,2022-02-02,1,,,,,ロボットデリバリーキョウカイ,0
534,3010401165306,新規,0,2022-02-02,2022-02-02,Ｇｙｏｓｅｋｉ株式会社,,株式会社,東京都,港区,赤坂７丁目５番２７号,,13,103,1070052,,,,,,,2022-02-02,1,,,,,ギョウセキ,0
535,3010401165314,新規,0,2022-02-02,2022-02-02,Ｔｈｅ　ｓｅｃｏｎｄ　ｖｅｌｏｃｉｔｙ　ｓｔａｒｔｕｐ　ｓｔｕｄｉｏ株式会社,,株式会社,東京都,港区,南青山２丁目２番１５号ウィン青山９４２,,13,103,1070062,,,,,,,2022-02-02,1,,,,,ザセカンドベロシティスタートアップスタジオ,0
536,3010401165322,新規,0,2022-02-02,2022-02-02,ＣＯＭＦＯＲＥＸ株式会社,,株式会社,東京都,港区,高輪３丁目１０番２号グラスプラス高輪,,13,103,1080074,,,,,,,2022-02-02,1,,,,,コンフォレックス,0
537,3010403027009,新規,0,2022-02-02,2022-02-02,合同会社エール,,合同会社,東京都,港区,東新橋２丁目７－３昭和アステック１号館,,13,103,1050021,,,,,,,2022-02-02,1,,,,,エール,0
547,3010601060587,新規,0,2022-02-02,2022-02-02,株式会社ヒューマンコネクト,,株式会社,東京都,江東区,白河３丁目１３番３号,,13,108,1350021,,,,,,,2022-02-02,1,,,,,ヒューマンコネクト,0
549,3010603009368,新規,0,2022-02-02,2022-02-02,ＣｒｅａｔｉｖｅＴａｃｔ合同会社,,合同会社,東京都,江東区,豊洲４丁目１１番２０－１７２５号,,13,108,1350061,,,,,,,2022-02-02,1,,,,,クリエイティブタクト,0
552,3010701042163,新規,0,2022-02-02,2022-02-02,株式会社栄昇総業,,株式会社,東京都,品川区,大井２丁目１８番５号,,13,109,1400014,,,,,,,2022-02-02,1,,,,,エイショウソウギョウ,0
554,3010801032700,新規,0,2022-02-02,2022-02-02,株式会社ＲＥＩＮＯ　ＩＮＤＥＸ,,株式会社,東京都,大田区,千鳥３丁目１７－８,,13,111,1460083,,,,,,,2022-02-02,1,,,,,レイノインデックス,0
555,3010803004045,新規,0,2022-02-02,2022-02-02,合同会社ＫＭＳ,,合同会社,東京都,大田区,蒲田１丁目１２番３４－２０６号,,13,111,1440052,,,,,,,2022-02-02,1,,,,,ケイエムエス,0
557,3011001145152,新規,0,2022-02-02,2022-02-02,株式会社ＰＵＮＥＬ,,株式会社,東京都,渋谷区,神宮前４丁目２７－１ギャラリードジム２Ｆ,,13,113,1500001,,,,,,,2022-02-02,1,,,,,プネル,0
559,3011003014099,新規,0,2022-02-02,2022-02-02,合同会社プラン・プラン,,合同会社,東京都,渋谷区,道玄坂１丁目１０番８号渋谷道玄坂東急ビル２Ｆ－Ｃ,,13,113,1500043,,,,,,,2022-02-02,1,,,,,プランプラン,0
563,3011101097698,新規,0,2022-02-02,2022-02-02,ドットループ株式会社,,株式会社,東京都,新宿区,西新宿５丁目５番１号,,13,104,1600023,,,,,,,2022-02-02,1,,,,,ドットループ,0
572,3011401023998,新規,0,2022-02-02,2022-02-02,株式会社Ｇａｌａｏｎ　ｉｎｃ．,,株式会社,東京都,板橋区,高島平２丁目９番１２－１０２号,,13,119,1750082,,,,,,,2022-02-02,1,,,,,ガラオン,0
575,3011501027718,新規,0,2022-02-02,2022-02-02,日本メインハードウェアインターナショナル株式会社,,株式会社,東京都,荒川区,西日暮里６丁目３７番１号,,13,118,1160013,,,,,,,2022-02-02,1,,,,,ニホンメインハードウェアインターナショナル,0
589,3020001144980,新規,0,2022-02-02,2022-02-02,株式会社ハツエ,,株式会社,神奈川県,横浜市神奈川区,片倉町一丁目９番３号まるあビル１階,,14,102,2210861,,,,,,,2022-02-02,1,,,,,ハツエ,0
590,3020001145062,新規,0,2022-02-02,2022-02-02,株式会社ＴＬＰ,,株式会社,神奈川県,横浜市金沢区,六浦南２丁目１番１３号,,14,108,2360038,,,,,,,2022-02-02,1,,,,,ティーエルピー,0
591,3020001145070,新規,0,2022-02-02,2022-02-02,株式会社Ｌｉｆｅｃａｒｅ,,株式会社,神奈川県,川崎市宮前区,菅生４丁目１５番３号ラヴィベール２０４,,14,136,2160015,,,,,,,2022-02-02,1,,,,,ライフケア,0
595,3020003021237,新規,0,2022-02-02,2022-02-02,合同会社伊藤工業,,合同会社,神奈川県,横浜市南区,永田東２丁目３０番２９号,,14,105,2320072,,,,,,,2022-02-02,1,,,,,イトウコウギョウ,0
604,3021003011351,新規,0,2022-02-02,2022-02-02,合同会社フェイス,,合同会社,神奈川県,平塚市,徳延３９９番地の６,,14,203,2540902,,,,,,,2022-02-02,1,,,,,フェイス,0
610,3030001146605,新規,0,2022-02-02,2022-02-02,株式会社スマートライフプランニング,,株式会社,埼玉県,さいたま市浦和区,本太３丁目２０番２１－３０１号,,11,107,3300052,,,,,,,2022-02-02,1,,,,,スマートライフプランニング,0
611,3030001146646,新規,0,2022-02-02,2022-02-02,株式会社竹昇,,株式会社,埼玉県,さいたま市緑区,大字中尾３２６番地１ヴェルテマレ２０１,,11,109,3360932,,,,,,,2022-02-02,1,,,,,タケショウ,0
612,3030001146654,新規,0,2022-02-02,2022-02-02,きよら株式会社,,株式会社,埼玉県,所沢市,東住吉１８－２５－２０３,,11,208,3591124,,,,,,,2022-02-02,1,,,,,キヨラ,0
624,3040001122002,新規,0,2022-02-02,2022-02-02,株式会社高広,00125591,株式会社,千葉県,千葉市美浜区,稲毛海岸１丁目２番５棟４０６号,,12,106,2610005,,,,,,,2022-02-02,1,,,,,タカヒロ,0
625,3040001122043,新規,0,2022-02-02,2022-02-02,株式会社こどもの家,,株式会社,千葉県,茂原市,大芝３丁目２０－１２,,12,210,2970033,,,,,,,2022-02-02,1,,,,,コドモノイエ,0
627,3040005021506,新規,0,2022-02-02,2022-02-02,医療法人社団ゆきやなぎ,,その他の設立登記法人,千葉県,浦安市,当代島１丁目４番１号第一西脇ビル２０２号室,,12,227,2790001,,,,,,,2022-02-02,1,,,,,ユキヤナギ,0
628,3050001050524,新規,0,2022-02-02,2022-02-02,株式会社ＫＨＡＮＺ　ＪＡＰＡＮ　ＥＮＴＥＲＰＲＩＳＥＳ,,株式会社,茨城県,下妻市,大字下妻字西町乙７６番地の２,,08,210,,,,,,,,2022-02-02,1,,,,,カーンズジャパンエンタープライズ,0
629,3050001050549,新規,0,2022-02-02,2022-02-02,やまもと農園株式会社,,株式会社,茨城県,稲敷市,戌渡８４番地,,08,229,3001414,,,,,,,2022-02-02,1,,,,,ヤマモトノウエン,0
630,3050003006342,新規,0,2022-02-02,2022-02-02,ＭＲＹ合同会社,,合同会社,茨城県,常総市,豊岡字砂原乙３８５番地,,08,211,3030000,,,,,,,2022-02-02,1,,,,,エムアールワイ,0
631,3060001034534,新規,0,2022-02-02,2022-02-02,株式会社コミュニティケアさの,,株式会社,栃木県,佐野市,堀米町１６６８番地,,09,204,3270843,,,,,,,2022-02-02,1,,,,,コミュニティケアサノ,0
634,3070001038880,新規,0,2022-02-02,2022-02-02,株式会社美装,,株式会社,群馬県,藤岡市,西平井１８２９番地１,,10,209,3750044,,,,,,,2022-02-02,1,,,,,ビソウ,0
635,3070001038897,新規,0,2022-02-02,2022-02-02,株式会社ｈｅｄ＆ｓ,,株式会社,群馬県,佐波郡玉村町,大字板井８６７番地８,,10,464,3701135,,,,,,,2022-02-02,1,,,,,エイチイーディーアンドエス,0
636,3070001038906,新規,0,2022-02-02,2022-02-02,株式会社サトミ紙巧,,株式会社,群馬県,高崎市,江木町１５８６番地,,10,202,3700046,,,,,,,2022-02-02,1,,,,,サトミシコウ,0
641,3080401025602,新規,0,2022-02-02,2022-02-02,株式会社魚ひな,,株式会社,静岡県,浜松市中区,富塚町３３２９番地の２,,22,131,4328002,,,,,,,2022-02-02,1,,,,,ウオヒナ,0
642,3080403004463,新規,0,2022-02-02,2022-02-02,合同会社ＭＹ　ＬＩＢＥＲＴＹ,,合同会社,静岡県,浜松市中区,八幡町９６番地の５メイクスＩ八幡４０２,00125605,22,131,4300918,,,,,,,2022-02-02,1,,,,,マイリバティ,0
670,3120001243566,新規,0,2022-02-02,2022-02-02,Ｅｓｃｒｏｗ　Ｊａｐａｎ株式会社,,株式会社,大阪府,大阪市中央区,松屋町９番２０号ローレルステート松屋町１１０３Ｂ,,27,128,5420067,,,,,,,2022-02-02,1,,,,,エスクロージャパン,0
673,3120003021053,新規,0,2022-02-02,2022-02-02,合同会社和興,,合同会社,大阪府,大阪市西成区,千本北２丁目１２番１０号,,27,122,5570053,,,,,,,2022-02-02,1,,,,,ワコウ,0
681,3122001035547,新規,0,2022-02-02,2022-02-02,株式会社佳和,,株式会社,大阪府,柏原市,国分本町２丁目６番５号,,27,221,5820021,,,,,,,2022-02-02,1,,,,,ケイワ,0
683,3130001071025,新規,0,2022-02-02,2022-02-02,株式会社ｃ９Ａｒｋｓ,,株式会社,京都府,京都市下京区,寺町通綾小路下る中之町５６０番地,,26,106,6008032,,,,,,,2022-02-02,1,,,,,シーキューアークス,0
689,3140001124789,新規,0,2022-02-02,2022-02-02,ワールドプロダクツ株式会社,,株式会社,兵庫県,西宮市,下葭原町２番２７－３２５号,,28,204,6620956,,,,,,,2022-02-02,1,,,,,ワールドプロダクツ,0
692,3140003017297,新規,0,2022-02-02,2022-02-02,８Ｃｏｎｓｕｌｔｉｎｇ合同会社,,合同会社,兵庫県,神戸市長田区,久保町５丁目１－１アスタ三番館１００１号,,28,106,6530041,,,,,,,2022-02-02,1,,,,,エイトコンサルティング,0
693,3140005026024,新規,0,2022-02-02,2022-02-02,司法書士法人新生パートナーズ,,その他の設立登記法人,兵庫県,神戸市中央区,三宮町１丁目１番１号新神戸ビル５階,,28,110,6500021,,,,,,,2022-02-02,1,,,,,シンセイパートナーズ,0
694,3150001025301,新規,0,2022-02-02,2022-02-02,株式会社西亮建設,,株式会社,奈良県,葛城市,八川１２１番地２３,,29,211,6392163,,,,,,,2022-02-02,1,,,,,セイリョウケンセツ,0
695,3170001016967,新規,0,2022-02-02,2022-02-02,株式会社パワフル,,株式会社,和歌山県,和歌山市,本町１丁目４３番地京橋ビル６階－Ａ,,30,201,6408033,,,,,,,2022-02-02,1,,,,,パワフル,0
699,3180001149774,新規,0,2022-02-02,2022-02-02,株式会社叶,,株式会社,愛知県,稲沢市,平和町須ケ脇２５番地１,,23,220,4901323,,,,,,,2022-02-02,1,,,,,カナウ,0
700,3180001149790,新規,0,2022-02-02,2022-02-02,ＳＩＹＯＧＩＬＡＮＫＡ株式会社,,株式会社,愛知県,名古屋市天白区,高坂町２８９番地の１,,23,116,4680025,,,,,,,2022-02-02,1,,,,,シヨギランカ,0
712,3200001039717,新規,0,2022-02-02,2022-02-02,樋口デジタルソリューションズ株式会社,00125593,株式会社,岐阜県,各務原市,金属団地４４番地,,21,213,5040957,,,,,,,2022-02-02,1,,,,,ヒグチデジタルソリューションズ,0
713,3200003005444,新規,0,2022-02-02,2022-02-02,合同会社ＤＯＮＯＲ,,合同会社,岐阜県,大垣市,今宿６丁目５２番地１６,,21,202,5030807,,,,,,,2022-02-02,1,,,,,ドナー,0
718,3230001019220,新規,0,2022-02-02,2022-02-02,株式会社インフィニティ,,株式会社,富山県,富山市,本町９番１５号第５マツモトビル１－Ｃ,,16,201,9300029,,,,,,,2022-02-02,1,,,,,インフィニティ,0
721,3240001059273,新規,0,2022-02-02,2022-02-02,株式会社ワイエスエンジニア,,株式会社,広島県,広島市佐伯区,五日市中央５丁目１４番３－６号,,34,108,7315128,,,,,,,2022-02-02,1,,,,,ワイエスエンジニア,0
726,3250001019391,新規,0,2022-02-02,2022-02-02,株式会社ＳＡＨＩＭＥ,,株式会社,山口県,山口市,下市町７番１０号,,35,203,7530058,,,,,,,2022-02-02,1,,,,,サヒメ,0
727,3250003002998,新規,0,2022-02-02,2022-02-02,ユニバーサルリンク合同会社,,合同会社,山口県,岩国市,立石町４丁目２番３－１０１号,,35,208,7400011,,,,,,,2022-02-02,1,,,,,ユニバーサルリンク,0
743,3290001096312,新規,0,2022-02-02,2022-02-02,エフ・ジェイロジ株式会社,,株式会社,福岡県,福岡市博多区,住吉１丁目２番２５号,,40,132,8120018,,,,,,,2022-02-02,1,,,,,エフジェイロジ,0
744,3290003012110,新規,0,2022-02-02,2022-02-02,ブラックブル・パートナーズ合同会社,,合同会社,福岡県,福岡市中央区,薬院４丁目６番２２－１００１号,,40,133,8100022,,,,,,,2022-02-02,1,,,,,ブラックブルパートナーズ,0
763,3340001024481,新規,0,2022-02-02,2022-02-02,株式会社ＹＡＭＡＳＨＩＴＡ,,株式会社,鹿児島県,大島郡与論町,大字茶花２３８番地（１Ｆ）,,46,535,8919301,,,,,,,2022-02-02,1,,,,,ヤマシタ,0
764,3360003011773,新規,0,2022-02-02,2022-02-02,合同会社ＪＯＵＲＮＡＬ　ＨＯＭＥ,,合同会社,沖縄県,豊見城市,字豊崎１番地１１９８プレミスト豊崎１００６号,,47,212,9010225,,,,,,,2022-02-02,1,,,,,ジャーナルホーム,0
772,3390003001920,新規,0,2022-02-02,2022-02-02,エスピージェイ合同会社,,合同会社,山形県,東置賜郡高畠町,大字上和田１９０６－２,,06,381,9920261,,,,,,,2022-02-02,1,,,,,エスピージェイ,0
780,3430001085911,新規,0,2022-02-02,2022-02-02,株式会社徳達,,株式会社,北海道,札幌市東区,北二十五条東７丁目３番１５号,,01,103,0650025,,,,,,,2022-02-02,1,,,,,トクタツ,0
781,3430001085928,新規,0,2022-02-02,2022-02-02,ライフ．プロジェクト．カンパニー株式会社,,株式会社,北海道,札幌市手稲区,富丘五条５丁目１番２２号,,01,109,0060015,,,,,,,2022-02-02,1,,,,,ライフプロジェクトカンパニー,0
782,3430003013589,新規,0,2022-02-02,2022-02-02,合同会社ＢｏＴＥ,,合同会社,北海道,札幌市手稲区,前田一条１０丁目３－６ＫＯＫＯＭＯ手稲１０１,,01,109,0060811,,,,,,,2022-02-02,1,,,,,ボーテ,0
783,3430005014379,新規,0,2022-02-02,2022-02-02,特定非営利活動法人道産子ヒーロープロジェクト,,その他の設立登記法人,北海道,札幌市南区,南沢三条２丁目８番１４号,,01,106,0050823,,,,,,,2022-02-02,1,,,,,ドサンコヒーロープロジェクト,0
802,4010001224089,新規,0,2022-02-02,2022-02-02,株式会社マカロンクラブ,,株式会社,東京都,中央区,月島１丁目１番８号ＣＨＩＴＴＡビル７０１号室,,13,102,1040052,,,,,,,2022-02-02,1,,,,,マカロンクラブ,0
803,4010001224122,新規,0,2022-02-02,2022-02-02,株式会社ｈｏｌｌｙ,,株式会社,東京都,中央区,日本橋人形町２丁目３５番１１号ダイヤモンドプラネット人形町５０１号,,13,102,1030013,,,,,,,2022-02-02,1,,,,,ホーリー,0
804,4010001224188,新規,0,2022-02-02,2022-02-02,ＥＮｗｏｒｋ　Ｊａｐａｎ株式会社,,株式会社,東京都,文京区,湯島３丁目３５番１４号林ビル２Ｆ,,13,105,1130034,,,,,,,2022-02-02,1,,,,,エンワークジャパン,0
805,4010001224246,新規,0,2022-02-02,2022-02-02,ＴＢＴファンド株式会社,,株式会社,東京都,千代田区,九段北１丁目１４番１６号,,13,101,1020073,,,,,,,2022-02-02,1,,,,,ティビーティファンド,0
806,4010001224279,新規,0,2022-02-02,2022-02-02,ＫＳ　ＢＲＡＮＤ株式会社,,株式会社,東京都,中央区,日本橋３丁目１３番６号,,13,102,1030027,,,,,,,2022-02-02,1,,,,,ケーエスブランド,0
810,4010003036895,新規,0,2022-02-02,2022-02-02,ジェイコアレジ５合同会社１０,,合同会社,東京都,千代田区,丸の内３丁目１番１号東京共同会計事務所内,,13,101,1000005,,,,,,,2022-02-02,1,,,,,ジェイコアレジファイブイチゼロ,0
811,4010003036920,新規,0,2022-02-02,2022-02-02,合同会社Ｓｅｋａｋｅｎ,,合同会社,東京都,中央区,銀座１丁目１２番地４Ｎ＆Ｅ．ＢＬＤ．７階,,13,102,1040061,,,,,,,2022-02-02,1,,,,,セカケン,0
812,4010003036937,新規,0,2022-02-02,2022-02-02,ジェイコアレジ５ホールディング合同会社,,合同会社,東京都,千代田区,丸の内３丁目１番１号東京共同会計事務所内,,13,101,1000005,,,,,,,2022-02-02,1,,,,,ジェイコアレジファイブホールディング,0
813,4010005034501,新規,0,2022-02-02,2022-02-02,一般社団法人日本金融教育推進協会,,その他の設立登記法人,東京都,中央区,日本橋浜町２丁目２９番１号,,13,102,1030007,,,,,,,2022-02-02,1,,,,,ニホンキンユウキョウイクスイシンキョウカイ,0
819,4010403026975,新規,0,2022-02-02,2022-02-02,合同会社デジタル・ソリューション・ラボ,,合同会社,東京都,港区,芝４丁目１６番２カテリーナ三田Ｅ１４０３号,,13,103,1080014,,,,,,,2022-02-02,1,,,,,デジタルソリューションラボ,0
820,4010403027008,新規,0,2022-02-02,2022-02-02,Ｎｊａｒｏ合同会社,,合同会社,東京都,港区,南青山２丁目２番１５号,,13,103,1070062,,,,,,,2022-02-02,1,,,,,ンジャロ,0
824,4010501048401,新規,0,2022-02-02,2022-02-02,株式会社妙妙,,株式会社,東京都,台東区,台東３丁目１７－９ビアン御徒町８０５,,13,106,1100016,,,,,,,2022-02-02,1,,,,,ミャオミャオ,0
826,4010601060594,新規,0,2022-02-02,2022-02-02,Ｔａｕｒｕｓ株式会社,,株式会社,東京都,江東区,東雲１丁目９番４３号,,13,108,1350062,,,,,,,2022-02-02,1,,,,,トーラス,0
828,4010603009359,新規,0,2022-02-02,2022-02-02,パーフェクトフラワーボンド合同会社,,合同会社,東京都,江東区,福住１丁目８番８号,,13,108,1350032,,,,,,,2022-02-02,1,,,,,パーフェクトフラワーボンド,0
830,4010805002913,新規,0,2022-02-02,2022-02-02,ＮＰＯ法人美しい星地球を守る会,,その他の設立登記法人,東京都,大田区,大森北６丁目３０番１６号大森スカイレジデンス６０２,,13,111,1430016,,,,,,,2022-02-02,1,,,,,ウツクシイホシチキュウヲマモルカイ,0
831,4010903007104,新規,0,2022-02-02,2022-02-02,合同会社サシデ企画,,合同会社,東京都,世田谷区,中町３丁目２２－１３,,13,112,1580091,,,,,,,2022-02-02,1,,,,,サシデキカク,0
836,4011001145408,新規,0,2022-02-02,2022-02-02,ｃｒｅｅｒｔ株式会社,,株式会社,東京都,目黒区,南２丁目１１番８号２０１,,13,110,1520013,,,,,,,2022-02-02,1,,,,,クレト,0
837,4011001145416,新規,0,2022-02-02,2022-02-02,株式会社リライト,,株式会社,東京都,渋谷区,千駄ヶ谷５丁目１７番２１号芝山ビル１階,,13,113,1510051,,,,,,,2022-02-02,1,,,,,リライト,0
838,4011001145424,新規,0,2022-02-02,2022-02-02,株式会社Ｆａｎｃｙ　Ｓｏｕｎｄ,,株式会社,東京都,渋谷区,渋谷２丁目１９番１５号宮益坂ビルディング６０９,,13,113,1500002,,,,,,,2022-02-02,1,,,,,ファンシーサウンド,0
839,4011001145440,新規,0,2022-02-02,2022-02-02,株式会社Ｔ＆Ｍ,,株式会社,東京都,目黒区,上目黒３丁目３１番１２号,,13,110,1530051,,,,,,,2022-02-02,1,,,,,ティーアンドエム,0
845,4011101097689,新規,0,2022-02-02,2022-02-02,ナカシマ株式会社,,株式会社,東京都,新宿区,岩戸町１７番地文英堂ビル８階,,13,104,1620832,,,,,,,2022-02-02,1,,,,,ナカシマ,0
846,4011201023586,新規,0,2022-02-02,2022-02-02,コネクトエッジ株式会社,,株式会社,東京都,中野区,中央３丁目４４番３号,,13,114,1640011,,,,,,,2022-02-02,1,,,,,コネクトエッジ,0
847,4011401023997,新規,0,2022-02-02,2022-02-02,株式会社Ｍｉｉ,,株式会社,東京都,板橋区,成増５丁目２番１２号,,13,119,1750094,,,,,,,2022-02-02,1,,,,,エムアイアイ,0
849,4011403003551,新規,0,2022-02-02,2022-02-02,アポロン合同会社,,合同会社,東京都,板橋区,大谷口１丁目３０番５号,,13,119,1730035,,,,,,,2022-02-02,1,,,,,アポロン,0
862,4011801040279,新規,0,2022-02-02,2022-02-02,株式会社一二實フーズ,,株式会社,東京都,足立区,青井１丁目１番９－５０５号郷中青井マンション,,13,121,1200012,,,,,,,2022-02-02,1,,,,,ヒフミフーズ,0
878,4020003021236,新規,0,2022-02-02,2022-02-02,らくらくＥＣ合同会社,,合同会社,神奈川県,川崎市多摩区,中野島５丁目６番地１５－１０９号,,14,135,2140012,,,,,,,2022-02-02,1,,,,,ラクラクイーシー,0
883,4021001075067,新規,0,2022-02-02,2022-02-02,株式会社ゼウスコーポレーション,,株式会社,神奈川県,相模原市南区,磯部１４６６番１号,,14,153,2520327,,,,,,,2022-02-02,1,,,,,ゼウスコーポレーション,0
885,4030001002245,新規,0,2022-02-02,2022-02-02,協成鋼管工業株式会社,,株式会社,埼玉県,さいたま市北区,植竹町１丁目５４２番地,,11,102,3310813,,,,,,,2022-02-02,1,,,,,キョウセイコウカンコウギョウ,0
893,4030001146653,新規,0,2022-02-02,2022-02-02,株式会社ＥＧＫ,,株式会社,埼玉県,川越市,大字下松原８４番地１,,11,201,3501153,,,,,,,2022-02-02,1,,,,,イージーケー,0
895,4030003018710,新規,0,2022-02-02,2022-02-02,ＵＭＩ　ＩＮＴＥＲＮＡＴＩＯＮＡＬ合同会社,,合同会社,埼玉県,ふじみ野市,上福岡５丁目３番２２号,,11,245,3560004,,,,,,,2022-02-02,1,,,,,ウミインターナショナル,0
898,4040001121911,新規,0,2022-02-02,2022-02-02,株式会社ＣＬＵＮ　ＣＥＮＴＲＩＯ,,株式会社,千葉県,八千代市,大和田新田３１２－１０５,,12,221,2760046,,,,,,,2022-02-02,1,,,,,クランセントリオ,0
899,4040001121969,新規,0,2022-02-02,2022-02-02,株式会社カケン商事,,株式会社,千葉県,市原市,八幡北町１丁目４番地５,,12,219,2900069,,,,,,,2022-02-02,1,,,,,カケンショウジ,0
905,4050001050564,新規,0,2022-02-02,2022-02-02,株式会社ＨＯＳＨＩＮＯ,,株式会社,茨城県,行方市,手賀１０９番地３,,08,233,3113513,,,,,,,2022-02-02,1,,,,,ホシノ,0
910,4080001024730,新規,0,2022-02-02,2022-02-02,株式会社ヤマショウ水産,,株式会社,静岡県,榛原郡吉田町,住吉５４３６番地の５８,,22,424,4210301,,,,,,,2022-02-02,1,,,,,ヤマショウスイサン,0
914,4080401025601,新規,0,2022-02-02,2022-02-02,ＥＲＣ株式会社,,株式会社,静岡県,磐田市,豊浜中野６０５番地６,,22,211,4371201,,,,,,,2022-02-02,1,,,,,イーアールシー,0
924,4120001243540,新規,0,2022-02-02,2022-02-02,群青株式会社,,株式会社,大阪府,大阪市中央区,大手前１丁目７番３１号ＯＭＭビル１６階,,27,128,5400008,,,,,,,2022-02-02,1,,,,,グンジョウ,0
925,4120001243557,新規,0,2022-02-02,2022-02-02,株式会社Ｏｎｅ－Ｈｕｎｄｒｅｄ,,株式会社,大阪府,大阪市中央区,久太郎町１丁目７番１１号プレサンスレジェンド堺筋本町タワー１４０３号室,,27,128,5410056,,,,,,,2022-02-02,1,,,,,ワンハンドレッド,0
931,4120003021060,新規,0,2022-02-02,2022-02-02,合同会社京阪石油,,合同会社,大阪府,寝屋川市,小路北町７番３号,,27,215,5720865,,,,,,,2022-02-02,1,,,,,ケイハンセキユ,0
932,4120005022775,新規,0,2022-02-02,2022-02-02,一般財団法人サンライズ財団,,その他の設立登記法人,大阪府,大阪市中央区,安土町２丁目５番６号,,27,128,5410052,,,,,,,2022-02-02,1,,,,,サンライズザイダン,0
933,4120101041282,新規,0,2022-02-02,2022-02-02,株式会社大鹿,,株式会社,大阪府,和泉市,伏屋町３丁目７番９号,,27,219,5940031,,,,,,,2022-02-02,1,,,,,オオカ,0
934,4120101065026,新規,0,2022-02-02,2022-02-02,株式会社Ｍｏａｔ,,株式会社,大阪府,堺市中区,土塔町３１１８番地５,,27,142,5998234,,,,,,,2022-02-02,1,,,,,モート,0
935,4120903004024,新規,0,2022-02-02,2022-02-02,合同会社ＮＫＴＡ,,合同会社,大阪府,三島郡島本町,広瀬１丁目１１－２６,,27,301,6180011,,,,,,,2022-02-02,1,,,,,,0
936,4122001035546,新規,0,2022-02-02,2022-02-02,株式会社ＲＡＮＧＥ,,株式会社,大阪府,八尾市,渋川町４丁目１０番２号,,27,212,5810075,,,,,,,2022-02-02,1,,,,,レンジ,0
940,4130001071049,新規,0,2022-02-02,2022-02-02,株式会社ＣＡＮＥ,,株式会社,京都府,宇治市,槇島町本屋敷１５９番地の９,,26,204,6110041,,,,,,,2022-02-02,1,,,,,カーネ,0
945,4140003017305,新規,0,2022-02-02,2022-02-02,合同会社陽まわり,,合同会社,兵庫県,三田市,すずかけ台３丁目４番地２、１番館５１１号,,28,219,6691322,,,,,,,2022-02-02,1,,,,,ヒマワリ,0
948,4160003002486,新規,0,2022-02-02,2022-02-02,合同会社はやた,,合同会社,滋賀県,大津市,下阪本６丁目３０番１６号,,25,201,5200105,,,,,,,2022-02-02,1,,,,,,0
952,4170001016966,新規,0,2022-02-02,2022-02-02,大真エンジニアリング株式会社,,株式会社,和歌山県,和歌山市,有田屋町南ノ丁４０番地,,30,201,6408245,,,,,,,2022-02-02,1,,,,,ダイシンエンジニアリング,0
957,4180001149807,新規,0,2022-02-02,2022-02-02,アイ福祉用具株式会社,,株式会社,愛知県,東海市,加木屋町鎌吉良根３３番地３５９,,23,222,4770032,,,,,,,2022-02-02,1,,,,,アイフクシヨウグ,0
958,4180001149815,新規,0,2022-02-02,2022-02-02,株式会社大建設,,株式会社,愛知県,名古屋市中川区,伏屋３丁目１０８番地の２,,23,110,4540996,,,,,,,2022-02-02,1,,,,,ダイケンセツ,0
962,4180003023456,新規,0,2022-02-02,2022-02-02,合同会社シーグリーン,,合同会社,愛知県,名古屋市東区,東桜２丁目１３番１,,23,102,4610005,,,,,,,2022-02-02,1,,,,,シーグリーン,0
963,4180005019626,新規,0,2022-02-02,2022-02-02,税理士法人日比会計,,その他の設立登記法人,愛知県,名古屋市中区,栄３丁目３２番２４号,,23,106,4600008,,,,,,,2022-02-02,1,,,,,ヒビカイケイ,0
970,4200003005435,新規,0,2022-02-02,2022-02-02,合名会社斉藤組,,合名会社,岐阜県,多治見市,（可児郡池田村池田町屋８４９番地）,,21,204,5070000,,,,,,,2022-02-02,1,,,,,サイトウグミ,0
971,4200003005443,新規,0,2022-02-02,2022-02-02,合同会社ｈｅｒｈｉｍ,,合同会社,岐阜県,岐阜市,神田町６丁目２２番地ユリヤビル２Ｆ,,21,201,5008833,,,,,,,2022-02-02,1,,,,,ハーヒム,0
972,4200005013304,新規,0,2022-02-02,2022-02-02,一般財団法人かかみがはら未来文化財団,,その他の設立登記法人,岐阜県,各務原市,那加桜町２丁目１８６番地,,21,213,5040912,,,,,,,2022-02-02,1,,,,,カカミガハラミライブンカザイダン,0
974,4210001018801,新規,0,2022-02-02,2022-02-02,中央砕石工業株式会社,,株式会社,福井県,福井市,篠尾町３３字出口１５０番地１,,18,201,9102148,,,,,,,2022-02-02,1,,,,,チュウオウサイセキコウギョウ,0
976,4220001024674,新規,0,2022-02-02,2022-02-02,株式会社ソーツクリアー,,株式会社,石川県,金沢市,金石西４丁目７‐１２,,17,201,9200337,,,,,,,2022-02-02,1,,,,,ソーツクリアー,0
982,4250003002997,新規,0,2022-02-02,2022-02-02,合同会社花葉,,合同会社,山口県,岩国市,今津町２丁目７番３５－７号,,35,208,7400017,,,,,,,2022-02-02,1,,,,,ハナハ,0
984,4260001036484,新規,0,2022-02-02,2022-02-02,株式会社ＹＡＭＡ,,株式会社,岡山県,倉敷市,平田７１４番地５,,33,202,7100003,,,,,,,2022-02-02,1,,,,,ヤマ,0
997,4300001012794,新規,0,2022-02-02,2022-02-02,株式会社クリーンズ・ガーデン,,株式会社,佐賀県,神埼市,神埼町神埼２６８番地１０,,41,210,8420001,,,,,,,2022-02-02,1,,,,,クリーンズガーデン,0
1007,4330001029423,新規,0,2022-02-02,2022-02-02,株式会社Ｔ‐ＦＩＧ,,株式会社,熊本県,人吉市,中青井町３２１,,43,203,8680008,,,,,,,2022-02-02,1,,,,,ティーフィグ,0
1009,4330003009225,新規,0,2022-02-02,2022-02-02,合同会社ライジング・ドラゴン２,,合同会社,熊本県,熊本市中央区,新屋敷３丁目１６番７－１４０１号,,43,101,8620975,,,,,,,2022-02-02,1,,,,,ライジングドラゴンツー,0
1013,4340001024464,新規,0,2022-02-02,2022-02-02,Ｃｈａｍｏｍｉｌｅ株式会社,,株式会社,鹿児島県,霧島市,霧島田口２５９４番地１０７,,46,218,8994201,,,,,,,2022-02-02,1,,,,,カモミール,0
1017,4360001029965,新規,0,2022-02-02,2022-02-02,ブレイクセコンド株式会社,,株式会社,沖縄県,浦添市,伊祖２丁目２７番１４号,,47,208,9012132,,,,,,,2022-02-02,1,,,,,,0
1020,4360003011772,新規,0,2022-02-02,2022-02-02,合同会社Ｗａｌｋｅｒｓ　Ｂａｓｅ,,合同会社,沖縄県,浦添市,宮城４丁目２０番６号,,47,208,9012126,,,,,,,2022-02-02,1,,,,,ウォーカーズベース,0
1023,4370003005575,新規,0,2022-02-02,2022-02-02,訪問歯科ネットワーク仙台合同会社,,合同会社,宮城県,仙台市泉区,桂２丁目４－６,,04,105,9813134,,,,,,,2022-02-02,1,,,,,ホウモンシカネットワークセンダイ,0
1028,4380001032546,新規,0,2022-02-02,2022-02-02,株式会社アビイ犬猫病院,,株式会社,福島県,福島市,春日町９番７号,,07,201,9608116,,,,,,,2022-02-02,1,,,,,アビイイヌネコビョウイン,0
1032,4400001015754,新規,0,2022-02-02,2022-02-02,株式会社Ｉｃｈｉｍｕｒａ２０３０,,株式会社,岩手県,西磐井郡平泉町,平泉字善阿弥１６３番地２,,03,402,0294102,,,,,,,2022-02-02,1,,,,,イチムラニセンサンジュウ,0
1033,4410001013096,新規,0,2022-02-02,2022-02-02,株式会社ＯｎＯ,,株式会社,秋田県,雄勝郡羽後町,新町字野町９９番地,,05,463,0121102,,,,,,,2022-02-02,1,,,,,オノ,0
1034,4410005006451,新規,0,2022-02-02,2022-02-02,農事組合法人矢坂グリーンファーム,,その他の設立登記法人,秋田県,山本郡藤里町,矢坂字坂本２３番地１,,05,346,0183204,,,,,,,2022-02-02,1,,,,,,0
1040,4430001085919,新規,0,2022-02-02,2022-02-02,株式会社さくらみらい,,株式会社,北海道,札幌市白石区,平和通５丁目北１０番１４号,,01,104,0030029,,,,,,,2022-02-02,1,,,,,サクラミライ,0
1044,4430003013588,新規,0,2022-02-02,2022-02-02,合同会社ＩＫＡＷＡＹＡ,,合同会社,北海道,札幌市東区,北二十七条東１３丁目２番１号ヴィラルミエールＡ１０２号,,01,103,0650027,,,,,,,2022-02-02,1,,,,,イカワヤ,0
1051,4480001005252,新規,0,2022-02-02,2022-02-02,株式会社川田組,,株式会社,徳島県,板野郡松茂町,笹木野字山下１００番地１,,36,401,7710219,,,,,,,2022-02-02,1,,,,,カワダクミ,0
1052,4490001010111,新規,0,2022-02-02,2022-02-02,株式会社ＹＡＮＡＨＡＲＡ,,株式会社,高知県,南国市,緑ケ丘１丁目３０２－２,,39,204,7830086,,,,,,,2022-02-02,1,,,,,ヤナハラ,0
1055,4500001023978,新規,0,2022-02-02,2022-02-02,株式会社ＳＨＩＭＡ－ＡＣ,,株式会社,愛媛県,松山市,谷町甲６７番地,,38,201,7918002,,,,,,,2022-02-02,1,,,,,シマエーシー,0
1068,5010001224237,新規,0,2022-02-02,2022-02-02,Ｔｈｅ　ＫＩＬＯＮＯＶＡ　ｈｏｌｄｉｎｇｓ株式会社,,株式会社,東京都,千代田区,神田三崎町２丁目４－１３,,13,101,1010061,,,,,,,2022-02-02,1,,,,,ザキロノヴァホールディングス,0
1069,5010001224245,新規,0,2022-02-02,2022-02-02,Ｏｗｌ　Ｐｌｕｓ　Ｐａｒｔｎｅｒｓ株式会社,,株式会社,東京都,中央区,京橋２丁目２番１号京橋エドグラン２６Ｆ,,13,102,1040031,,,,,,,2022-02-02,1,,,,,オウルプラスパートナーズ,0
1070,5010001224294,新規,0,2022-02-02,2022-02-02,株式会社ＣＯＣＯＴＥＣＨ,,株式会社,東京都,千代田区,飯田橋２丁目１番４号九段セントラルビル５０３号室,,13,101,1020072,,,,,,,2022-02-02,1,,,,,ココテック,0
1072,5010003036853,新規,0,2022-02-02,2022-02-02,合同会社ナミアシ,,合同会社,東京都,中央区,銀座１丁目１２番４号Ｎ＆ＥＢＬＤ．７階,,13,102,1040061,,,,,,,2022-02-02,1,,,,,ナミアシ,0
1073,5010003036894,新規,0,2022-02-02,2022-02-02,ジェイコアレジ５合同会社１２,,合同会社,東京都,千代田区,丸の内３丁目１番１号東京共同会計事務所内,,13,101,1000005,,,,,,,2022-02-02,1,,,,,ジェイコアレジファイブイチニー,0
1074,5010003036911,新規,0,2022-02-02,2022-02-02,合同会社赤羽志茂プロパティー,,合同会社,東京都,千代田区,丸の内３丁目１番１号東京共同会計事務所内,,13,101,1000005,,,,,,,2022-02-02,1,,,,,アカバネシモプロパティー,0
1075,5010003036928,新規,0,2022-02-02,2022-02-02,合同会社天飛,,合同会社,東京都,中央区,銀座７丁目１３番６号サガミビル２階,,13,102,1040061,,,,,,,2022-02-02,1,,,,,テンショウ,0
1076,5010003036936,新規,0,2022-02-02,2022-02-02,Ｍａｒｂｌｅ合同会社,,合同会社,東京都,千代田区,丸の内３丁目１番１号東京共同会計事務所内,,13,101,1000005,,,,,,,2022-02-02,1,,,,,マーブル,0
1083,5010401165270,新規,0,2022-02-02,2022-02-02,株式会社ＦＲＥＸ,,株式会社,東京都,港区,南青山３丁目１７番１４号,,13,103,1070062,,,,,,,2022-02-02,1,,,,,フレックス,0
1084,5010401165337,新規,0,2022-02-02,2022-02-02,株式会社スペースブック,,株式会社,東京都,港区,南青山２丁目２番１５号,,13,103,1070062,,,,,,,2022-02-02,1,,,,,スペースブック,0
1085,5010401165345,新規,0,2022-02-02,2022-02-02,ポケトーク株式会社,,株式会社,東京都,港区,東新橋１丁目５番２号,,13,103,1050021,,,,,,,2022-02-02,1,,,,,ポケトーク,0
1089,5010403026900,新規,0,2022-02-02,2022-02-02,合同会社ＳＵＭ,,合同会社,東京都,港区,赤坂２丁目１７―５０―７０８,,13,103,1070052,,,,,,,2022-02-02,1,,,,,サム,0
1090,5010403027007,新規,0,2022-02-02,2022-02-02,サードウェーブ石垣合同会社,,合同会社,東京都,港区,南青山２丁目２番８号,,13,103,1070062,,,,,,,2022-02-02,1,,,,,サードウェーブイシガキ,0
1091,5010403027015,新規,0,2022-02-02,2022-02-02,ライトキャピタル合同会社,,合同会社,東京都,港区,元麻布３丁目８番５０号アッパーハウス５０３,,13,103,1060046,,,,,,,2022-02-02,1,,,,,ライトキャピタル,0
1098,5010801032698,新規,0,2022-02-02,2022-02-02,株式会社岩本ＳＨＮ,,株式会社,東京都,大田区,西蒲田１丁目２０番３号,,13,111,1440051,,,,,,,2022-02-02,1,,,,,イワモトエスエイチエヌ,0
1099,5010805002912,新規,0,2022-02-02,2022-02-02,ＮＰＯ法人エゴノキクラブ,,その他の設立登記法人,東京都,大田区,中央８丁目４４番４号,,13,111,1430024,,,,,,,2022-02-02,1,,,,,エゴノキクラブ,0
1101,5010905004255,新規,0,2022-02-02,2022-02-02,一般社団法人京葉美容医療協会,,その他の設立登記法人,東京都,世田谷区,野沢３丁目１０番８号,,13,112,1540003,,,,,,,2022-02-02,1,,,,,ケイヨウビヨウイリョウキョウカイ,0
1102,5011001145324,新規,0,2022-02-02,2022-02-02,キャリアトラック株式会社,,株式会社,東京都,渋谷区,道玄坂１丁目１０番８号渋谷道玄坂東急ビル２Ｆ－Ｃ,,13,113,1500043,,,,,,,2022-02-02,1,,,,,キャリアトラック,0
1103,5011001145415,新規,0,2022-02-02,2022-02-02,株式会社テックテック,,株式会社,東京都,渋谷区,道玄坂１丁目１０番８号渋谷道玄坂東急ビル,,13,113,1500043,,,,,,,2022-02-02,1,,,,,テックテック,0
1104,5011001145431,新規,0,2022-02-02,2022-02-02,株式会社キース,,株式会社,東京都,渋谷区,初台２丁目２７番１０－１１０４号ザ・パークハビオ代々木初台,,13,113,1510061,,,,,,,2022-02-02,1,,,,,キース,0
1107,5011003014080,新規,0,2022-02-02,2022-02-02,エモーシオン合同会社,,合同会社,東京都,渋谷区,松濤１丁目２８－２,,13,113,1500046,,,,,,,2022-02-02,1,,,,,エモーシオン,0
1108,5011003014106,新規,0,2022-02-02,2022-02-02,スリーツーエイト合同会社,,合同会社,東京都,渋谷区,神宮前２丁目３番２５－５０２号,,13,113,1500001,,,,,,,2022-02-02,1,,,,,スリーツーエイト,0
1110,5011101097647,新規,0,2022-02-02,2022-02-02,株式会社創育エデュケーション,,株式会社,東京都,新宿区,西新宿３丁目３番１３号西新宿水間ビル６階,,13,104,1600023,,,,,,,2022-02-02,1,,,,,,0
1111,5011101097705,新規,0,2022-02-02,2022-02-02,株式会社ＮＥＷ　ＷＯＲＬＤ,,株式会社,東京都,新宿区,百人町１丁目１８番９号,,13,104,1690073,,,,,,,2022-02-02,1,,,,,ニューワールド,0
1115,5011801040278,新規,0,2022-02-02,2022-02-02,株式会社ＭＫＯ,,株式会社,東京都,足立区,花畑３丁目１７番５－１０２号,,13,121,1210061,,,,,,,2022-02-02,1,,,,,エムケイオー,0
1116,5011803004958,新規,0,2022-02-02,2022-02-02,合同会社ＧＭ,,合同会社,東京都,足立区,保木間１丁目３７番３号,,13,121,1210064,,,,,,,2022-02-02,1,,,,,ジーエム,0
1117,5011805003140,新規,0,2022-02-02,2022-02-02,一般社団法人にっしん子どもひろば,,その他の設立登記法人,東京都,葛飾区,西新小岩４丁目８番５号,,13,122,1240025,,,,,,,2022-02-02,1,,,,,ニッシンコドモヒロバ,0
1123,5012701016913,新規,0,2022-02-02,2022-02-02,Ｊｅｗｅｌ　Ｃａｓｅ株式会社,,株式会社,東京都,西東京市,富士町２丁目４－１４ヴァンヴェール２－２０２,,13,229,2020014,,,,,,,2022-02-02,1,,,,,ジュエルケース,0
1132,5020001145069,新規,0,2022-02-02,2022-02-02,株式会社岩澤工務店,,株式会社,神奈川県,横浜市戸塚区,小雀町２７０番地,,14,110,2440004,,,,,,,2022-02-02,1,,,,,イワサワコウムテン,0
1134,5020003021202,新規,0,2022-02-02,2022-02-02,合同会社ＣＨＡＭ,,合同会社,神奈川県,横浜市旭区,西川島町９７番地２２,,14,112,2410012,,,,,,,2022-02-02,1,,,,,チャム,0
1135,5020003021227,新規,0,2022-02-02,2022-02-02,ＧＢ　ａｓｓｅｔ合同会社,,合同会社,神奈川県,川崎市川崎区,鋼管通１丁目１９番９,,14,131,2100852,,,,,,,2022-02-02,1,,,,,ジービーアセット,0
1139,5021001075082,新規,0,2022-02-02,2022-02-02,ＢＴＦ株式会社,,株式会社,神奈川県,座間市,南栗原１丁目１０番１号シャトーソレイユ,,14,216,2520015,,,,,,,2022-02-02,1,,,,,ビーティーエフ,0
1146,5030001146520,新規,0,2022-02-02,2022-02-02,株式会社Ｓａｙａ　Ｊａｐａｎ,,株式会社,埼玉県,越谷市,レイクタウン８丁目６番地１－９０３号,,11,222,3430828,,,,,,,2022-02-02,1,,,,,,0
1150,5030003018767,新規,0,2022-02-02,2022-02-02,合同会社スパイス,,合同会社,埼玉県,三郷市,新和１丁目１４５番地,,11,237,3410034,,,,,,,2022-02-02,1,,,,,スパイス,0
1151,5030003018791,新規,0,2022-02-02,2022-02-02,合同会社レクリ,,合同会社,埼玉県,さいたま市見沼区,島町１７３番地６,,11,104,3370006,,,,,,,2022-02-02,1,,,,,レクリ,0
1158,5040001122000,新規,0,2022-02-02,2022-02-02,株式会社Ｄｅｎｔａｌ　Ｖｏｉｃｅ,,株式会社,千葉県,柏市,中央町７番２３－９０１号,,12,217,2770021,,,,,,,2022-02-02,1,,,,,デンタルボイス,0
1163,5050001050539,新規,0,2022-02-02,2022-02-02,株式会社Ｋ＆Ｃｏｍｐａｎｙ,,株式会社,茨城県,つくばみらい市,陽光台２丁目４番地１２,,08,235,3002358,,,,,,,2022-02-02,1,,,,,ケイアンドカンパニー,0
1171,5070001038904,新規,0,2022-02-02,2022-02-02,株式会社光陽,,株式会社,群馬県,吾妻郡中之条町,大字四万８４０番地５,,10,421,3770601,,,,,,,2022-02-02,1,,,,,コウヨウ,0
1176,5080401025609,新規,0,2022-02-02,2022-02-02,株式会社ａｓｃ,,株式会社,静岡県,浜松市中区,千歳町９５番地の１６,,22,131,4300934,,,,,,,2022-02-02,1,,,,,エーエスシー,0
1180,5100001035022,新規,0,2022-02-02,2022-02-02,株式会社Ｌｉｎｋｓ,,株式会社,長野県,伊那市,西春近５４８８番地１,,20,209,3994431,,,,,,,2022-02-02,1,,,,,リンクス,0
1182,5110001036408,新規,0,2022-02-02,2022-02-02,株式会社ＲＥＣＸＩ,,株式会社,新潟県,新潟市中央区,上大川前通５番町６３番地２３－１５０１,,15,103,9518068,,,,,,,2022-02-02,1,,,,,レクシィ,0
1192,5120001243572,新規,0,2022-02-02,2022-02-02,山吹建装株式会社,,株式会社,大阪府,大阪市西区,江之子島２丁目１番２１－１９１０号,,27,106,5500006,,,,,,,2022-02-02,1,,,,,ヤマブキケンソウ,0
1197,5120101065017,新規,0,2022-02-02,2022-02-02,太陽管理株式会社,,株式会社,大阪府,岸和田市,南上町１丁目１９番１５号,,27,202,5960078,,,,,,,2022-02-02,1,,,,,タイヨウカンリ,0
1202,5120903004023,新規,0,2022-02-02,2022-02-02,ＬａｎｄＬａｋｅ合同会社,,合同会社,大阪府,茨木市,総持寺駅前町５番３０３号,,27,211,5670802,,,,,,,2022-02-02,1,,,,,ランドレイク,0
1204,5122001035545,新規,0,2022-02-02,2022-02-02,株式会社５８１ｄｅｓｉｇｎ　ｗｏｒｋｓ,,株式会社,大阪府,八尾市,山本町３丁目３番６号,,27,212,5810867,,,,,,,2022-02-02,1,,,,,ゴーハチイチデザインワークス,0
1205,5122005003606,新規,0,2022-02-02,2022-02-02,特定非営利活動法人新田グループ,,その他の設立登記法人,大阪府,大東市,新田本町１３番３６号,,27,218,5740055,,,,,,,2022-02-02,1,,,,,シンデングループ,0
1207,5130001071023,新規,0,2022-02-02,2022-02-02,株式会社松寿,,株式会社,京都府,相楽郡精華町,桜が丘４丁目１７番地５,,26,366,6190232,,,,,,,2022-02-02,1,,,,,ショウジュ,0
1208,5130001071048,新規,0,2022-02-02,2022-02-02,株式会社ＧＭＢ,,株式会社,京都府,京都市左京区,岩倉南河原町１２６番地,,26,103,6060019,,,,,,,2022-02-02,1,,,,,ジーエムビー,0
1218,5150001025308,新規,0,2022-02-02,2022-02-02,岡本コーポレーション株式会社,,株式会社,奈良県,橿原市,新賀町２３８番地の１アトリアーナ八木７１７号,,29,205,6340006,,,,,,,2022-02-02,1,,,,,オカモトコーポレーション,0
1219,5150003002610,新規,0,2022-02-02,2022-02-02,合同会社ｂｅｌｌ,,合同会社,奈良県,橿原市,光陽町１００番地１８,,29,205,6340827,,,,,,,2022-02-02,1,,,,,ベル,0
1224,5180001149764,新規,0,2022-02-02,2022-02-02,ＶＡＬＵＥ株式会社,,株式会社,愛知県,名古屋市天白区,植田３丁目１５０７番地レスカールＫ,,23,116,4680051,,,,,,,2022-02-02,1,,,,,バリュー,0
1225,5180001149814,新規,0,2022-02-02,2022-02-02,株式会社Ｄｅｆｉｒｏ,,株式会社,愛知県,名古屋市守山区,小幡南３丁目３番地の８,,23,113,4630048,,,,,,,2022-02-02,1,,,,,デフィーロ,0
1226,5180001149822,新規,0,2022-02-02,2022-02-02,ホープブリッジ株式会社,,株式会社,愛知県,名古屋市守山区,今尻町２００３番地,,23,113,4630023,,,,,,,2022-02-02,1,,,,,ホープブリッジ,0
1228,5190001029081,新規,0,2022-02-02,2022-02-02,株式会社三創テック,,株式会社,三重県,津市,白山町三ヶ野６９１番地,,24,201,5152601,,,,,,,2022-02-02,1,,,,,サンソウテック,0
1230,5190003003893,新規,0,2022-02-02,2022-02-02,合同会社福祉の三重義肢,,合同会社,三重県,多気郡明和町,大字有爾中１４３６番地３,,24,442,5150316,,,,,,,2022-02-02,1,,,,,フクシノミエギシ,0
1234,5210003001457,新規,0,2022-02-02,2022-02-02,合同会社マルイチ,,合同会社,福井県,福井市,新田塚１丁目７０番３１号,,18,201,9100067,,,,,,,2022-02-02,1,,,,,マルイチ,0
1245,5260001036483,新規,0,2022-02-02,2022-02-02,株式会社タークス不動産,,株式会社,岡山県,岡山市中区,湊３９番地８,,33,102,7038266,,,,,,,2022-02-02,1,,,,,タークスフドウサン,0
1246,5260001036491,新規,0,2022-02-02,2022-02-02,真和工業株式会社,,株式会社,岡山県,美作市,入田３６１番地２２,,33,215,7070004,,,,,,,2022-02-02,1,,,,,シンワコウギョウ,0
1264,5290001096319,新規,0,2022-02-02,2022-02-02,株式会社アイエイト,,株式会社,福岡県,福岡市東区,多の津１丁目９番６号,,40,131,8130034,,,,,,,2022-02-02,1,,,,,アイエイト,0
1271,5330001029414,新規,0,2022-02-02,2022-02-02,株式会社アルソーレ,,株式会社,熊本県,熊本市東区,画図町大字下無田１６８６番地４,,43,102,8620945,,,,,,,2022-02-02,1,,,,,アルソーレ,0
1273,5330003009224,新規,0,2022-02-02,2022-02-02,合同会社井企画,,合同会社,熊本県,阿蘇郡南阿蘇村,大字立野１５５４番地２,,43,433,8691401,,,,,,,2022-02-02,1,,,,,イキカク,0
1275,5340001024463,新規,0,2022-02-02,2022-02-02,株式会社ＫＡＩＮＯｉｎｔｅｒｎａｔｉｏｎａｌ鹿児島,,株式会社,鹿児島県,鹿児島市,千日町１番２８号,,46,201,8920843,,,,,,,2022-02-02,1,,,,,カイノインターナショナルカゴシマ,0
1280,5370001048146,新規,0,2022-02-02,2022-02-02,株式会社ショーグローバル,,株式会社,宮城県,石巻市,蛇田字東道下１５８－２,,04,202,9860861,,,,,,,2022-02-02,1,,,,,ショーグローバル,0
1283,5370003005574,新規,0,2022-02-02,2022-02-02,合同会社ＴＡ,,合同会社,宮城県,仙台市青葉区,本町２丁目９番２号本町エンドウビル５１０号,,04,101,9800014,,,,,,,2022-02-02,1,,,,,ティーエー,0
1289,5410001013095,新規,0,2022-02-02,2022-02-02,アスエステート株式会社,,株式会社,秋田県,秋田市,八橋イサノ２丁目６番４４号,,05,201,0100961,,,,,,,2022-02-02,1,,,,,アスエステート,0
1292,5430005014385,新規,0,2022-02-02,2022-02-02,一般社団法人北海道プロ野球独立リーグ,,その他の設立登記法人,北海道,美唄市,茶志内町本町,,01,215,0790266,,,,,,,2022-02-02,1,,,,,ホッカイドウプロヤキュウドクリツリーグ,0
1299,5500001023977,新規,0,2022-02-02,2022-02-02,株式会社成松メタル工業,,株式会社,愛媛県,松山市,北条辻４５２番地２,00125597,38,201,7992430,,,,,,,2022-02-02,1,,,,,ナリマツメタルコウギョウ,0
1306,6010001224194,新規,0,2022-02-02,2022-02-02,株式会社ＳｍｉｌｅＷｏｒｄｓ,,株式会社,東京都,中央区,日本橋室町１丁目１０番１０号,,13,102,1030022,,,,,,,2022-02-02,1,,,,,スマイルワーズ,0
1307,6010001224236,新規,0,2022-02-02,2022-02-02,株式会社ＴＥＣＨ　ＣＡＶＥ,,株式会社,東京都,中央区,日本橋富沢町１０番１３号＆ＷＯＲＫＮＩＨＯＮＢＡＳＨＩ１０１,,13,102,1030006,,,,,,,2022-02-02,1,,,,,テックケイブ,0
1308,6010001224277,新規,0,2022-02-02,2022-02-02,国際子育て人材エージェンシー株式会社,,株式会社,東京都,千代田区,神田平河町１番地第３東ビル５階,,13,101,1010027,,,,,,,2022-02-02,1,,,,,コクサイコソダテジンザイエージェンシー,0
1312,6010003036646,新規,0,2022-02-02,2022-02-02,合同会社ＣＩＮＥＭＡ　ＥＹＥＳ,,合同会社,東京都,中央区,銀座１丁目１２―４Ｎ＆ＥＢＬＤ．７階,,13,102,1040061,,,,,,,2022-02-02,1,,,,,シネマアイズ,0
1313,6010003036885,新規,0,2022-02-02,2022-02-02,合同会社ＣＲＥＦＦ１,,合同会社,東京都,千代田区,丸の内３丁目１番１号東京共同会計事務所内,,13,101,1000005,,,,,,,2022-02-02,1,,,,,シーアールイーエフエフワン,0
1314,6010003036893,新規,0,2022-02-02,2022-02-02,ジェイコアレジ５合同会社８,,合同会社,東京都,千代田区,丸の内３丁目１番１号東京共同会計事務所内,,13,101,1000005,,,,,,,2022-02-02,1,,,,,ジェイコアレジファイブハチ,0
1315,6010003036902,新規,0,2022-02-02,2022-02-02,ジェイコアレジ５合同会社１,,合同会社,東京都,千代田区,丸の内３丁目１番１号東京共同会計事務所内,,13,101,1000005,,,,,,,2022-02-02,1,,,,,ジェイコアレジファイブイチ,0
1316,6010003036927,新規,0,2022-02-02,2022-02-02,ＵＮＩＴＩＮＧ合同会社,,合同会社,東京都,文京区,湯島３丁目１６番１１－１４０３号,,13,105,1130034,,,,,,,2022-02-02,1,,,,,ユナイティング,0
1324,6010401165237,新規,0,2022-02-02,2022-02-02,株式会社Ｕ　ｍｅｌｌｏｗ,,株式会社,東京都,港区,浜松町２丁目２番１５号,,13,103,1050013,,,,,,,2022-02-02,1,,,,,ユウメロウ,0
1325,6010401165328,新規,0,2022-02-02,2022-02-02,株式会社マリン・プロフーズ,,株式会社,東京都,港区,西新橋２丁目１番１号,,13,103,1050003,,,,,,,2022-02-02,1,,,,,マリンプロフーズ,0
1326,6010401165336,新規,0,2022-02-02,2022-02-02,株式会社阿部圭史政策研究所,,株式会社,東京都,港区,北青山２丁目７番１３号プラセオ青山ビル３階,,13,103,1070061,,,,,,,2022-02-02,1,,,,,アベケイシセイサクケンキュウジョ,0
1327,6010401165344,新規,0,2022-02-02,2022-02-02,株式会社ＫＡＭＩ,,株式会社,東京都,港区,赤坂６丁目８－１４ガーラヒルズ赤坂９０２,,13,103,1070052,,,,,,,2022-02-02,1,,,,,カミ,0
1328,6010405020644,新規,0,2022-02-02,2022-02-02,ＨＳＪＰＮ４特定目的会社,,その他の設立登記法人,東京都,港区,虎ノ門３丁目２２番１０－２０１号,,13,103,1050001,,,,,,,2022-02-02,1,,,,,エイチエスジェイピーエヌフォー,0
1329,6010405020652,新規,0,2022-02-02,2022-02-02,一般社団法人保育園みらいファンド３,,その他の設立登記法人,東京都,港区,元赤坂１丁目１番８号赤坂コミュニティビル４階,,13,103,1070051,,,,,,,2022-02-02,1,,,,,ホイクエンミライファンドスリー,0
1334,6010601060576,新規,0,2022-02-02,2022-02-02,Ｃｏｎｔａｂｏ　Ｊａｐａｎ株式会社,,株式会社,東京都,江東区,有明３丁目７番２６号有明フロンティアビルＢ棟９階,,13,108,1350063,,,,,,,2022-02-02,1,,,,,コンタボジャパン,0
1335,6010603009373,新規,0,2022-02-02,2022-02-02,合同会社ＢＩＧ　ＨＡＧＩ,,合同会社,東京都,墨田区,緑３丁目７番１４号,,13,107,1300021,,,,,,,2022-02-02,1,,,,,ビッグハギ,0
1339,6010701042169,新規,0,2022-02-02,2022-02-02,株式会社ｔｒｉ　ｔｅａｍ,,株式会社,東京都,品川区,大崎４丁目４－２５クリスター大崎３０２,,13,109,1410032,,,,,,,2022-02-02,1,,,,,トライチーム,0
1340,6010701042177,新規,0,2022-02-02,2022-02-02,株式会社ｃｙｃｌｅ,,株式会社,東京都,品川区,西五反田２丁目１４番地１３号２階,,13,109,1410031,,,,,,,2022-02-02,1,,,,,サイクル,0
1342,6010703006089,新規,0,2022-02-02,2022-02-02,Ｓｋｙ　ｓｗｉｍ合同会社,,合同会社,東京都,品川区,西五反田６丁目３－５エミネンス五反田３０５,,13,109,1410031,,,,,,,2022-02-02,1,,,,,スカイスイム,0
1344,6010801032697,新規,0,2022-02-02,2022-02-02,ＶＥＬＯＣＥ株式会社,,株式会社,東京都,大田区,西六郷３丁目４番地１１号,,13,111,1440056,,,,,,,2022-02-02,1,,,,,ヴェローチェ,0
1345,6010803004050,新規,0,2022-02-02,2022-02-02,合同会社高橋,00125600,合同会社,東京都,大田区,大森中２丁目１５番５号ダイヤモンドビル大森中２０４,,13,111,1430014,,,,,,,2022-02-02,1,,,,,タカハシ,0
1348,6011001145414,新規,0,2022-02-02,2022-02-02,株式会社ＡＭＭｙ,,株式会社,東京都,渋谷区,道玄坂１丁目１０番８号渋谷道玄坂東急ビル２Ｆ－Ｃ,,13,113,1500043,,,,,,,2022-02-02,1,,,,,アーミー,0
1350,6011003014105,新規,0,2022-02-02,2022-02-02,ポラリス渋谷合同会社,,合同会社,東京都,渋谷区,上原２丁目３５－５ライオンズマンション代々木上原ガーデン３０９,,13,113,1510064,,,,,,,2022-02-02,1,,,,,ポラリスシブヤ,0
1353,6011101097695,新規,0,2022-02-02,2022-02-02,株式会社ＫＩＣＫ　ＩＴ,,株式会社,東京都,新宿区,西新宿８丁目８番１６－２０１号,,13,104,1600023,,,,,,,2022-02-02,1,,,,,キックイット,0
1354,6011101097704,新規,0,2022-02-02,2022-02-02,株式会社ＧＴ,,株式会社,東京都,新宿区,歌舞伎町２丁目１０番７号,,13,104,1600021,,,,,,,2022-02-02,1,,,,,ジーティ,0
1366,6011801040285,新規,0,2022-02-02,2022-02-02,株式会社アクトミライ,,株式会社,東京都,葛飾区,青戸３丁目２７番１３,,13,122,1250062,,,,,,,2022-02-02,1,,,,,アクトミライ,0
1368,6012403005197,新規,0,2022-02-02,2022-02-02,合同会社Ｎａｔｕｌａｌｉｓ,,合同会社,東京都,調布市,仙川町２丁目１１番地グローリーデイズ仙川１０３号室,,13,208,1820002,,,,,,,2022-02-02,1,,,,,ナチュラリス,0
1369,6012701016912,新規,0,2022-02-02,2022-02-02,ＪＵＮＩＰＥＲ株式会社,,株式会社,東京都,東村山市,青葉町３丁目１０－３０メゾンマキ１０２号,,13,213,1890002,,,,,,,2022-02-02,1,,,,,ジュニパー,0
1381,6020001145051,新規,0,2022-02-02,2022-02-02,株式会社西鷹塗装,,株式会社,神奈川県,横浜市旭区,白根５丁目３０－１,,14,112,2410005,,,,,,,2022-02-02,1,,,,,セイオウトソウ,0
1386,6020003021234,新規,0,2022-02-02,2022-02-02,Ａｒｇｅｎｔｏ合同会社,,合同会社,神奈川県,川崎市中原区,丸子通２丁目６８２番地９東急ドエルアルス新丸子６０５,,14,133,2110006,,,,,,,2022-02-02,1,,,,,アルジェント,0
1389,6021001075073,新規,0,2022-02-02,2022-02-02,ローカルビジョン株式会社,,株式会社,神奈川県,横須賀市,若松町２丁目１番地３川島ビル４Ｆ,,14,201,2380007,,,,,,,2022-02-02,1,,,,,ローカルビジョン,0
1390,6021001075107,新規,0,2022-02-02,2022-02-02,株式会社旭昇建設,,株式会社,神奈川県,平塚市,入野４４５番地,,14,203,2591216,,,,,,,2022-02-02,1,,,,,キョクショウケンセツ,0
1401,6030001146593,新規,0,2022-02-02,2022-02-02,株式会社Ｍａｒｖｅｌｏｕｓ,,株式会社,埼玉県,坂戸市,関間４丁目１２番１２－９１３号ファーストレジデンス若葉,,11,239,3500215,,,,,,,2022-02-02,1,,,,,マーベラス,0
1402,6030001146602,新規,0,2022-02-02,2022-02-02,ＨｉｇｈＦｉｅｌｄｓ株式会社,,株式会社,埼玉県,さいたま市見沼区,東大宮７丁目５番地１,,11,104,3370051,,,,,,,2022-02-02,1,,,,,ハイフィールズ,0
1403,6030001146610,新規,0,2022-02-02,2022-02-02,おまかせオークション株式会社,,株式会社,埼玉県,戸田市,大字新曽２０７８－３,,11,224,3350021,,,,,,,2022-02-02,1,,,,,オマカセオークション,0
1404,6030001146651,新規,0,2022-02-02,2022-02-02,株式会社ＫＭＴプランニング,,株式会社,埼玉県,桶川市,下日出谷西１丁目２１番地の３３,,11,231,3630028,,,,,,,2022-02-02,1,,,,,ケイエムティープランニング,0
1409,6030003018766,新規,0,2022-02-02,2022-02-02,ランクアップ合同会社,,合同会社,埼玉県,行田市,門井町２丁目１３―４,,11,206,3610044,,,,,,,2022-02-02,1,,,,,ランクアップ,0
1410,6030003018774,新規,0,2022-02-02,2022-02-02,ＬＭフードサービス合同会社,,合同会社,埼玉県,川口市,川口１丁目３番２１号ＴＯＰ川口第２－１０２号,,11,203,3320015,,,,,,,2022-02-02,1,,,,,エルエムフードサービス,0
1411,6030003018782,新規,0,2022-02-02,2022-02-02,合同会社マイルス,,合同会社,埼玉県,志木市,柏町２丁目１８番１１号,,11,228,3530007,,,,,,,2022-02-02,1,,,,,マイルス,0
1423,6040001122057,新規,0,2022-02-02,2022-02-02,株式会社ＣＲＥＳＴ,,株式会社,千葉県,千葉市花見川区,幕張町６丁目２８３番地１０,,12,102,2620032,,,,,,,2022-02-02,1,,,,,クレスト,0
1427,6050001050554,新規,0,2022-02-02,2022-02-02,株式会社アロマアプローズ,,株式会社,茨城県,水戸市,泉町３丁目７番３０－２０４号ラ・フォンテーヌ,,08,201,3100026,,,,,,,2022-02-02,1,,,,,アロマアプローズ,0
1428,6050005013004,新規,0,2022-02-02,2022-02-02,特定非営利活動法人ＴＡＫＥＩ福祉サポートセンター,,その他の設立登記法人,茨城県,笠間市,鯉淵６２２２番地９,,08,216,3091703,,,,,,,2022-02-02,1,,,,,タケイフクシサポートセンター,0
1433,6070001038903,新規,0,2022-02-02,2022-02-02,株式会社エアコン引越センター,,株式会社,群馬県,伊勢崎市,東上之宮町７０６番地３,,10,204,3720815,,,,,,,2022-02-02,1,,,,,エアコンヒッコシセンター,0
1434,6070001038911,新規,0,2022-02-02,2022-02-02,株式会社Ｔ．ガレージ,,株式会社,群馬県,高崎市,箕郷町矢原１８２７番地１,,10,202,3703107,,,,,,,2022-02-02,1,,,,,ティガレージ,0
1436,6070003004374,新規,0,2022-02-02,2022-02-02,合同会社ｕｒａｎｕＳｕ,,合同会社,群馬県,前橋市,西善町１０５０番地１,,10,201,3792131,,,,,,,2022-02-02,1,,,,,ウラヌス,0
1438,6080001024729,新規,0,2022-02-02,2022-02-02,スズキ工業株式会社,,株式会社,静岡県,静岡市葵区,東千代田１丁目１５番１２号,,22,101,4200801,,,,,,,2022-02-02,1,,,,,スズキコウギョウ,0
1439,6080101023077,新規,0,2022-02-02,2022-02-02,株式会社Ｋｏｋｕａ．Ｎ,,株式会社,静岡県,富士市,日乃出町５６－１,,22,210,4170056,,,,,,,2022-02-02,1,,,,,コクアドットエヌ,0
1443,6080401025608,新規,0,2022-02-02,2022-02-02,株式会社こまつ,,株式会社,静岡県,浜松市南区,楊子町１５１番地,,22,134,4300855,,,,,,,2022-02-02,1,,,,,コマツ,0
1444,6080403004460,新規,0,2022-02-02,2022-02-02,合同会社らいふサポート＆クリエイト,,合同会社,静岡県,掛川市,大池２７１６１番地の１,,22,213,4360043,,,,,,,2022-02-02,1,,,,,ライフサポートアンドクリエイト,0
1446,6100001035021,新規,0,2022-02-02,2022-02-02,ＭＩ　Ａｎａｌｙｓｉｓ株式会社,,株式会社,長野県,上伊那郡箕輪町,大字中箕輪１２３１５番地１５,,20,383,3994601,,,,,,,2022-02-02,1,,,,,エムアイアナリシス,0
1448,6110001036415,新規,0,2022-02-02,2022-02-02,株式会社ロカデザイン,,株式会社,新潟県,新潟市西区,平島３丁目１番地１２丸三ビジネスビル１号室,,15,107,9502004,,,,,,,2022-02-02,1,,,,,ロカデザイン,0
1449,6110003004691,新規,0,2022-02-02,2022-02-02,合同会社Ａｒｕｍａｔ,,合同会社,新潟県,上越市,東本町４丁目１番２０号,,15,222,9430825,,,,,,,2022-02-02,1,,,,,アルマト,0
1454,6120003021050,新規,0,2022-02-02,2022-02-02,共同電子技研合同会社,,合同会社,大阪府,大阪市東住吉区,湯里２丁目８番１８号リブ・ミラージュ４０２号,,27,121,5460013,,,,,,,2022-02-02,1,,,,,キョウドウデンシギケン,0
1455,6120003021059,新規,0,2022-02-02,2022-02-02,ＢＡＮＤグループ合同会社,,合同会社,大阪府,大阪市城東区,蒲生１丁目８番３２号千寿シーク２－４０２号室,,27,118,5360016,,,,,,,2022-02-02,1,,,,,バンドグループ,0
1457,6120005022757,新規,0,2022-02-02,2022-02-02,一般社団法人ｓｏｗａｋａ,,その他の設立登記法人,大阪府,大阪市生野区,勝山北４丁目９番３４号,,27,116,5440033,,,,,,,2022-02-02,1,,,,,ソワカ,0
1464,6120101065024,新規,0,2022-02-02,2022-02-02,ｅｆｕ株式会社,,株式会社,大阪府,泉大津市,助松町１丁目１０番３９号,,27,206,5950071,,,,,,,2022-02-02,1,,,,,エフ,0
1470,6122001035552,新規,0,2022-02-02,2022-02-02,株式会社エスプラマ,,株式会社,大阪府,東大阪市,西堤本通東２丁目３番１８号,,27,227,5770045,,,,,,,2022-02-02,1,,,,,エスプラマ,0
1472,6122003002261,新規,0,2022-02-02,2022-02-02,ＡＭＩＣＩＴＩＡ合同会社,,合同会社,大阪府,八尾市,高砂町５丁目１８番地の７,,27,212,5810822,,,,,,,2022-02-02,1,,,,,アミキティア,0
1476,6122005003605,新規,0,2022-02-02,2022-02-02,医療法人あさいクリニック,,その他の設立登記法人,大阪府,八尾市,若林町１丁目７６番地３ステーションプラザ八尾南Ｂ１Ｆ－Ａ,,27,212,5810038,,,,,,,2022-02-02,1,,,,,アサイクリニック,0
1479,6130001071047,新規,0,2022-02-02,2022-02-02,ＡｔｏＭ株式会社,,株式会社,京都府,京都市東山区,三条通大橋東二町目４８番地３,,26,105,6050001,,,,,,,2022-02-02,1,,,,,アトム,0
1480,6130003007692,新規,0,2022-02-02,2022-02-02,ＭｏｄｅｒｎＲ合同会社,,合同会社,京都府,京都市左京区,北白川伊織町３０,,26,103,6068256,,,,,,,2022-02-02,1,,,,,モダナー,0
1481,6130003007726,新規,0,2022-02-02,2022-02-02,フライハイト合同会社,,合同会社,京都府,京田辺市,田辺中央３丁目３番地９シークビル３階,,26,211,6100334,,,,,,,2022-02-02,1,,,,,フライハイト,0
1491,6140001124786,新規,0,2022-02-02,2022-02-02,株式会社福井板金工業,,株式会社,兵庫県,高砂市,米田町米田新２４７番地の２４,,28,216,6760801,,,,,,,2022-02-02,1,,,,,フクイバンキンコウギョウ,0
1498,6160001023978,新規,0,2022-02-02,2022-02-02,株式会社ヨシカワロジスティックス,,株式会社,滋賀県,大津市,黒津３丁目１３番４７号,,25,201,5202279,,,,,,,2022-02-02,1,,,,,ヨシカワロジスティックス,0
1504,6180001149771,新規,0,2022-02-02,2022-02-02,株式会社ドリームアートスクール,,株式会社,愛知県,名古屋市熱田区,二番１丁目１１－５中日グループ会館３階,,23,109,4560052,,,,,,,2022-02-02,1,,,,,ドリームアートスクール,0
1507,6180003023470,新規,0,2022-02-02,2022-02-02,合同会社愛誠,,合同会社,愛知県,稲沢市,駅前１丁目５番地１６,,23,220,4928143,,,,,,,2022-02-02,1,,,,,アイセイ,0
1513,6180301035886,新規,0,2022-02-02,2022-02-02,株式会社Ｊｅｉｐｅｅ＆Ｃｏ．,,株式会社,愛知県,豊川市,為当町新屋川原１７番地の１,,23,207,4420845,,,,,,,2022-02-02,1,,,,,ジェイピーアンドコー,0
1515,6180303005243,新規,0,2022-02-02,2022-02-02,合同会社ＫＵＫＵＲＵ,,合同会社,愛知県,岡崎市,緑丘２丁目１２番地５アルドールＩＩ１０２号室,00125594,23,202,4440806,,,,,,,2022-02-02,1,,,,,ククル,0
1516,6190001029080,新規,0,2022-02-02,2022-02-02,株式会社後藤組,,株式会社,三重県,津市,柳山津興１６５１番地,,24,201,5140803,,,,,,,2022-02-02,1,,,,,ゴトウグミ,0
1517,6190001029089,新規,0,2022-02-02,2022-02-02,株式会社健康支援ＢｏｎＡｐｐｅｔｉｔ,,株式会社,三重県,鈴鹿市,石薬師町１４３１番地,,24,207,5130012,,,,,,,2022-02-02,1,,,,,ケンコウシエンボナペティ,0
1518,6190001029097,新規,0,2022-02-02,2022-02-02,株式会社アズマ,,株式会社,三重県,伊勢市,船江３丁目１３番１号,,24,203,5160008,,,,,,,2022-02-02,1,,,,,アズマ,0
1519,6190003003892,新規,0,2022-02-02,2022-02-02,合同会社アビリテラス,,合同会社,三重県,鈴鹿市,白子３丁目５番５号ＴＨビル２Ａ,,24,207,5100243,,,,,,,2022-02-02,1,,,,,アビリテラス,0
1524,6210003001456,新規,0,2022-02-02,2022-02-02,池田合同会社,,合同会社,福井県,坂井市,春江町本堂第２２号１番地５,,18,210,9190473,,,,,,,2022-02-02,1,,,,,イケダ,0
1529,6240001059270,新規,0,2022-02-02,2022-02-02,株式会社わいわいきっちん,,株式会社,広島県,広島市中区,光南２丁目１０番２号,,34,101,7300825,,,,,,,2022-02-02,1,,,,,ワイワイキッチン,0
1538,6260001036499,新規,0,2022-02-02,2022-02-02,株式会社兼成,,株式会社,岡山県,瀬戸内市,邑久町大窪３５０番地５,,33,212,7014231,,,,,,,2022-02-02,1,,,,,ケンセイ,0
1539,6260003003794,新規,0,2022-02-02,2022-02-02,合同会社まつしめ,,合同会社,岡山県,総社市,原１７２９－３,,33,208,7191324,,,,,,,2022-02-02,1,,,,,マツシメ,0
1540,6260005011028,新規,0,2022-02-02,2022-02-02,医療法人社団高知歯科医院,00125592,その他の設立登記法人,岡山県,岡山市南区,福浜町５番地１２号,,33,104,7028035,,,,,,,2022-02-02,1,,,,,コウチシカイイン,0
1549,6290001096284,新規,0,2022-02-02,2022-02-02,株式会社ピンクフラワー,,株式会社,福岡県,福岡市城南区,友丘２丁目１０番３号,,40,136,8140112,,,,,,,2022-02-02,1,,,,,ピンクフラワー,0
1550,6290001096301,新規,0,2022-02-02,2022-02-02,株式会社プランドリュウ,,株式会社,福岡県,福岡市城南区,長尾２丁目２１番５－７０５号,,40,136,8140123,,,,,,,2022-02-02,1,,,,,プランドリュウ,0
1551,6290003012108,新規,0,2022-02-02,2022-02-02,ＢＲＯＩＬ　ＫＩＮＧ　ＪＡＰＡＮ合同会社,,合同会社,福岡県,八女郡広川町,大字一條７７６番地１,,40,544,8340122,,,,,,,2022-02-02,1,,,,,ブロイルキングジャパン,0
1552,6290003012116,新規,0,2022-02-02,2022-02-02,合同会社ＰａＬ,,合同会社,福岡県,春日市,宝町２丁目２０番７号パンシオン宝町２０２,,40,218,8160807,,,,,,,2022-02-02,1,,,,,パル,0
1556,6300001012792,新規,0,2022-02-02,2022-02-02,株式会社トシノ,,株式会社,佐賀県,唐津市,北波多岸山３７３番地３７,,41,202,8471211,,,,,,,2022-02-02,1,,,,,トシノ,0
1557,6310001017700,新規,0,2022-02-02,2022-02-02,株式会社コバヤシ住設,,株式会社,長崎県,雲仙市,吾妻町本村名３９６番地,,42,213,8591101,,,,,,,2022-02-02,1,,,,,,0
1563,6330003009223,新規,0,2022-02-02,2022-02-02,合同会社Ｍ．Ａ．Ｍ’Ｓ,,合同会社,熊本県,熊本市南区,城南町沈目１７８５番地４,,43,104,8614215,,,,,,,2022-02-02,1,,,,,マムズ,0
1568,6340001024479,新規,0,2022-02-02,2022-02-02,株式会社まくらざき犬猫病院,,株式会社,鹿児島県,枕崎市,住吉町１２３番地１,,46,204,8980017,,,,,,,2022-02-02,1,,,,,マクラザキイヌネコビョウイン,0
1570,6340005009402,新規,0,2022-02-02,2022-02-02,一般社団法人テンラボ,,その他の設立登記法人,鹿児島県,鹿児島市,船津町１番１１号３階,,46,201,8920831,,,,,,,2022-02-02,1,,,,,テンラボ,0
1583,6390001016785,新規,0,2022-02-02,2022-02-02,株式会社花ふぁーむ,,株式会社,山形県,鶴岡市,下川字松葉５５番地,,06,203,9971117,,,,,,,2022-02-02,1,,,,,ハナファーム,0
1595,6430001085941,新規,0,2022-02-02,2022-02-02,株式会社ＳＴノース,,株式会社,北海道,虻田郡ニセコ町,字ニセコ４１４番地１７,,01,395,0481511,,,,,,,2022-02-02,1,,,,,エスティーノース,0
1607,7010003036892,新規,0,2022-02-02,2022-02-02,ジェイコアレジ５合同会社７,,合同会社,東京都,千代田区,丸の内３丁目１番１号東京共同会計事務所内,,13,101,1000005,,,,,,,2022-02-02,1,,,,,ジェイコアレジファイブナナ,0
1608,7010003036901,新規,0,2022-02-02,2022-02-02,ジェイコアレジ５合同会社１６,,合同会社,東京都,千代田区,丸の内３丁目１番１号東京共同会計事務所内,,13,101,1000005,,,,,,,2022-02-02,1,,,,,ジェイコアレジファイブイチロク,0
1609,7010003036926,新規,0,2022-02-02,2022-02-02,ＨＭトレーディング合同会社,,合同会社,東京都,文京区,本駒込１丁目２８番１５－１００３号,,13,105,1130021,,,,,,,2022-02-02,1,,,,,エイチエムトレーディング,0
1612,7010005034548,新規,0,2022-02-02,2022-02-02,一般社団法人日本美容医療研究協会,,その他の設立登記法人,東京都,中央区,新富１丁目７番１１号マルイビル３階,,13,102,1040041,,,,,,,2022-02-02,1,,,,,ニホンビヨウイリョウケンキュウキョウカイ,0
1613,7010101015055,新規,0,2022-02-02,2022-02-02,ＡＮＬＡＮ　Ｔｏｋｙｏ株式会社,,株式会社,東京都,八王子市,東浅川町５３９番地２,,13,201,1930834,,,,,,,2022-02-02,1,,,,,アンラントウキョウ,0
1614,7010103001854,新規,0,2022-02-02,2022-02-02,Ｕｐｔｏｉｔ合同会社,,合同会社,東京都,八王子市,東浅川町５３０－２,,13,201,1930834,,,,,,,2022-02-02,1,,,,,,0
1619,7010401165277,新規,0,2022-02-02,2022-02-02,株式会社Ｍｉｓｓ,,株式会社,東京都,港区,南青山２丁目２番１５号,,13,103,1070062,,,,,,,2022-02-02,1,,,,,ミス,0
1620,7010401165310,新規,0,2022-02-02,2022-02-02,ＭＥＣＣＡＮＩＳＭＯ・ＬＡＢ株式会社,,株式会社,東京都,港区,浜松町２丁目２番１５号浜松町ダイヤビル２Ｆ,,13,103,1050013,,,,,,,2022-02-02,1,,,,,メカニシモラボ,0
1621,7010401165343,新規,0,2022-02-02,2022-02-02,Ｈｏｎｓｈｉｔｓｕ　Ｃｏｎｓｕｌｔｉｎｇ株式会社,,株式会社,東京都,港区,虎ノ門１丁目１０番５号ＫＤＸ虎ノ門一丁目ビル１１Ｆ,,13,103,1050001,,,,,,,2022-02-02,1,,,,,ホンシツコンサルティング,0
1650,7011001145297,新規,0,2022-02-02,2022-02-02,株式会社Ｅｉｇｈｔ,,株式会社,東京都,渋谷区,神宮前６丁目１６番５号,,13,113,1500001,,,,,,,2022-02-02,1,,,,,エイト,0
1651,7011001145322,新規,0,2022-02-02,2022-02-02,株式会社ＨＥＲＯ,,株式会社,東京都,目黒区,目黒２丁目８番８号,,13,110,1530063,,,,,,,2022-02-02,1,,,,,ヒーロー,0
1652,7011001145413,新規,0,2022-02-02,2022-02-02,株式会社アンド・パーク,,株式会社,東京都,目黒区,中根２丁目５番１３‐６０３号デュエット都立大,,13,110,1520031,,,,,,,2022-02-02,1,,,,,アンドパーク,0
1653,7011001145421,新規,0,2022-02-02,2022-02-02,株式会社ＶＡＬＳ,,株式会社,東京都,渋谷区,宇田川町１７番１号シブヤブラザービル,,13,113,1500042,,,,,,,2022-02-02,1,,,,,バルズ,0
1656,7011003014046,新規,0,2022-02-02,2022-02-02,パレードプロダクション合同会社,,合同会社,東京都,目黒区,下目黒２丁目８－２，９０５,,13,110,1530064,,,,,,,2022-02-02,1,,,,,パレードプロダクション,0
1657,7011003014095,新規,0,2022-02-02,2022-02-02,合同会社ＨＡＩＰＵＬＥＯ,,合同会社,東京都,渋谷区,笹塚２丁目２９－４－１０１,,13,113,1510073,,,,,,,2022-02-02,1,,,,,ハイプレオ,0
1658,7011003014104,新規,0,2022-02-02,2022-02-02,合同会社ドラゴンアソシエイツ,,合同会社,東京都,目黒区,柿の木坂３丁目１番３号,,13,110,1520022,,,,,,,2022-02-02,1,,,,,ドラゴンアソシエイツ,0
1661,7011103011414,新規,0,2022-02-02,2022-02-02,合同会社ネク,,合同会社,東京都,新宿区,西新宿７丁目２２番３１号柏木ＭＵＲＡ１００２,,13,104,1600023,,,,,,,2022-02-02,1,,,,,ネク,0
1669,7011801040292,新規,0,2022-02-02,2022-02-02,自然町研究所株式会社,,株式会社,東京都,葛飾区,水元２丁目１０番７号２Ｆ,,13,122,1250032,,,,,,,2022-02-02,1,,,,,シゼンマチケンキュウショ,0
1671,7012301012864,新規,0,2022-02-02,2022-02-02,ディーエル建設株式会社,,株式会社,東京都,町田市,木曽東４丁目１７番６号,,13,209,1940036,,,,,,,2022-02-02,1,,,,,ディーエルケンセツ,0
1673,7012701016911,新規,0,2022-02-02,2022-02-02,株式会社ＳＡＮＤＥＳ,,株式会社,東京都,小平市,小川西町３丁目１８番１０号,,13,211,1870035,,,,,,,2022-02-02,1,,,,,サンデス,0
1675,7013101008838,新規,0,2022-02-02,2022-02-02,株式会社マジックハウス,,株式会社,東京都,福生市,加美平４丁目１番加美平団地２１号棟３０７号室,,13,218,1970012,,,,,,,2022-02-02,1,,,,,マジックハウス,0
1680,7013301048618,新規,0,2022-02-02,2022-02-02,株式会社日本通,,株式会社,東京都,豊島区,南大塚１丁目３０番２１号コーポ山口３０１号,,13,116,1700005,,,,,,,2022-02-02,1,,,,,ニホンツウ,0
1685,7020001145050,新規,0,2022-02-02,2022-02-02,イェマットジャパン株式会社,,株式会社,神奈川県,川崎市宮前区,平５丁目５番２７号,,14,136,2160022,,,,,,,2022-02-02,1,,,,,イェマットジャパン,0
1686,7020001145083,新規,0,2022-02-02,2022-02-02,株式会社セイントヨーロッパ,,株式会社,神奈川県,横浜市中区,北仲通２丁目３０グッドビル北仲通１階,,14,104,2310003,,,,,,,2022-02-02,1,,,,,セイントヨーロッパ,0
1689,7020003021233,新規,0,2022-02-02,2022-02-02,合同会社ｍｉｃｈｉ－ｂｉｋｉ,,合同会社,神奈川県,横浜市青葉区,大場町２１６番地３６,,14,117,2250023,,,,,,,2022-02-02,1,,,,,ミチビキ,0
1696,7030001146626,新規,0,2022-02-02,2022-02-02,株式会社増木工務店,,株式会社,埼玉県,新座市,野火止３丁目１０番５号,,11,230,3520011,,,,,,,2022-02-02,1,,,,,マスキコウムテン,0
1697,7030001146650,新規,0,2022-02-02,2022-02-02,株式会社ルメルシエ,,株式会社,埼玉県,朝霞市,泉水３丁目７番１９－８０３号,,11,227,3510024,,,,,,,2022-02-02,1,,,,,ルメルシエ,0
1704,7030003018757,新規,0,2022-02-02,2022-02-02,合同会社ＥＣＤＡＯ,,合同会社,埼玉県,三郷市,東町３５７番地２－１０１号,,11,237,3410036,,,,,,,2022-02-02,1,,,,,イーシーダオ,0
1705,7030003018773,新規,0,2022-02-02,2022-02-02,合同会社ＭＣ,,合同会社,埼玉県,狭山市,新狭山３丁目９番２０号,,11,215,3501331,,,,,,,2022-02-02,1,,,,,エムシー,0
1709,7040001122007,新規,0,2022-02-02,2022-02-02,株式会社ヒサミツ,,株式会社,千葉県,流山市,駒木台３４０番地の３２,,12,220,2700113,,,,,,,2022-02-02,1,,,,,ヒサミツ,0
1714,7060003003938,新規,0,2022-02-02,2022-02-02,合同会社ＭＩＤＯ　ＬＡＢ,,合同会社,栃木県,栃木市,境町２１番１号ポレスターステーションシティ栃木１２０４号,,09,203,3280043,,,,,,,2022-02-02,1,,,,,ミドウラボ,0
1717,7080001024728,新規,0,2022-02-02,2022-02-02,株式会社トゥー・ワンホールディングス,,株式会社,静岡県,静岡市駿河区,稲川３丁目１番２４号内山ビル４Ｆ,,22,102,4228062,,,,,,,2022-02-02,1,,,,,トゥーワンホールディングス,0
1720,7080401025607,新規,0,2022-02-02,2022-02-02,株式会社ホの字,,株式会社,静岡県,袋井市,新屋３丁目８番地の１、２階,,22,216,4370013,,,,,,,2022-02-02,1,,,,,ホノジ,0
1724,7090005007463,新規,0,2022-02-02,2022-02-02,一般社団法人Ｒｅｐｌｕｓ　ａｃｔ　ａｓｓｏｃｉａｔｉｏｎ,,その他の設立登記法人,山梨県,甲府市,千塚５丁目９番３０号,,19,201,4000074,,,,,,,2022-02-02,1,,,,,アールイープラスアクトアソシエーション,0
1740,7120001243579,新規,0,2022-02-02,2022-02-02,株式会社ＫＡ,,株式会社,大阪府,大阪市平野区,喜連西４丁目６番５９－４０８号,,27,126,5470026,,,,,,,2022-02-02,1,,,,,ケイエー,0
1743,7120003021066,新規,0,2022-02-02,2022-02-02,合同会社瑞希,,合同会社,大阪府,大阪市東住吉区,鷹合４丁目１３番２２号鷹合マンション２０２号室,,27,121,5460014,,,,,,,2022-02-02,1,,,,,ミズキ,0
1746,7120101065015,新規,0,2022-02-02,2022-02-02,株式会社ＮＥＸＲＥＡＭ,,株式会社,大阪府,富田林市,宮甲田町１５－３０,,27,214,5840037,,,,,,,2022-02-02,1,,,,,ネクリム,0
1747,7120901045554,新規,0,2022-02-02,2022-02-02,ビルド・ジャパン株式会社,,株式会社,大阪府,豊中市,北条町３丁目１３－１６,,27,203,5610812,,,,,,,2022-02-02,1,,,,,ビルドジャパン,0
1755,7130001071046,新規,0,2022-02-02,2022-02-02,株式会社環球会,,株式会社,京都府,京都市左京区,鹿ケ谷上宮ノ前町２５番２メゾン白川６０３,,26,103,6068447,,,,,,,2022-02-02,1,,,,,カンキュウカイ,0
1762,7140001124760,新規,0,2022-02-02,2022-02-02,株式会社空,,株式会社,兵庫県,神戸市中央区,相生町５丁目１３番１－１５０３号,,28,110,6500025,,,,,,,2022-02-02,1,,,,,クウ,0
1766,7140003017302,新規,0,2022-02-02,2022-02-02,宿の窓口宿窓合同会社,,合同会社,兵庫県,赤穂市,加里屋９８－１７,,28,212,6780239,,,,,,,2022-02-02,1,,,,,ヤドノマドグチヤドマド,0
1767,7140005026029,新規,0,2022-02-02,2022-02-02,農事組合法人うすきの里営農組合,,その他の設立登記法人,兵庫県,姫路市,網干区津市場５６９番地,,28,201,6711224,,,,,,,2022-02-02,1,,,,,ウスキノサトエイノウクミアイ,0
1773,7160001023969,新規,0,2022-02-02,2022-02-02,株式会社バイオジップコード,,株式会社,滋賀県,大津市,瀬田月輪町滋賀医科大学バイオメディカル・イノベーション施設,,25,201,5202121,,,,,,,2022-02-02,1,,,,,バイオジップコード,0
1774,7160001023977,新規,0,2022-02-02,2022-02-02,株式会社桜コンクエスト,,株式会社,滋賀県,大津市,桜野町１丁目１９番８号,,25,201,5200026,,,,,,,2022-02-02,1,,,,,サクラコンクエスト,0
1781,7180001149754,新規,0,2022-02-02,2022-02-02,株式会社Ｉｎｆｌｕｅｎｃｅ,,株式会社,愛知県,名古屋市昭和区,小坂町３丁目５番地の２（Ｂｒａｎｃｈｅ吹上３０２号）,,23,107,4660021,,,,,,,2022-02-02,1,,,,,インフルエンス,0
1782,7180001149787,新規,0,2022-02-02,2022-02-02,株式会社達磨,,株式会社,愛知県,知多郡東浦町,大字緒川字寿久茂１１番地の７,,23,442,4702102,,,,,,,2022-02-02,1,,,,,ダルマ,0
1783,7180001149804,新規,0,2022-02-02,2022-02-02,株式会社清水商会,,株式会社,愛知県,豊明市,新田町中ノ割１５番地１,,23,229,4701112,,,,,,,2022-02-02,1,,,,,シミズショウカイ,0
1794,7190001029088,新規,0,2022-02-02,2022-02-02,株式会社テンキーホーム,,株式会社,三重県,いなべ市,員弁町大泉新田４３１番地１,,24,214,5110217,,,,,,,2022-02-02,1,,,,,テンキーホーム,0
1804,7240001059278,新規,0,2022-02-02,2022-02-02,株式会社ＦＲＩＧＧ,,株式会社,広島県,広島市西区,観音本町１丁目１７番１８号,,34,104,7330033,,,,,,,2022-02-02,1,,,,,フリッグ,0
1805,7240001059286,新規,0,2022-02-02,2022-02-02,株式会社めぐる,,株式会社,広島県,広島市佐伯区,海老園３丁目２３番１－１号,,34,108,7315135,,,,,,,2022-02-02,1,,,,,メグル,0
1819,7290001096300,新規,0,2022-02-02,2022-02-02,株式会社ＫＡＺＵ,,株式会社,福岡県,福岡市博多区,奈良屋町１０番２号,,40,132,8120023,,,,,,,2022-02-02,1,,,,,カズ,0
1820,7290001096309,新規,0,2022-02-02,2022-02-02,株式会社ヒート,,株式会社,福岡県,福岡市南区,野間３丁目８番２１号２Ｆ,,40,134,8150041,,,,,,,2022-02-02,1,,,,,ヒート,0
1821,7290001096317,新規,0,2022-02-02,2022-02-02,株式会社えんむすび,,株式会社,福岡県,福岡市博多区,浦田１丁目１１番１０号,,40,132,8120861,,,,,,,2022-02-02,1,,,,,エンムスビ,0
1826,7310001005662,新規,0,2022-02-02,2022-02-02,大平建設株式会社,,株式会社,長崎県,佐世保市,大岳台町４番５号,,42,202,8571163,,,,,,,2022-02-02,1,,,,,タイヘイケンセツ,0
1827,7310001017699,新規,0,2022-02-02,2022-02-02,株式会社和匠建,,株式会社,長崎県,南島原市,西有家町須川７３３番地,,42,214,8592212,,,,,,,2022-02-02,1,,,,,ワショウケン,0
1830,7320001018878,新規,0,2022-02-02,2022-02-02,ベティ株式会社,,株式会社,大分県,大分市,三川新町２丁目１番５５号,,44,201,8700141,,,,,,,2022-02-02,1,,,,,ベティ,0
1837,7330005010459,新規,0,2022-02-02,2022-02-02,一般社団法人オリジン,,その他の設立登記法人,熊本県,熊本市中央区,水前寺６丁目６番４５号,,43,101,8620950,,,,,,,2022-02-02,1,,,,,オリジン,0
1838,7340001024478,新規,0,2022-02-02,2022-02-02,ＬＩＧホーム株式会社,,株式会社,鹿児島県,鹿児島市,魚見町１０８番地７,,46,201,8910112,,,,,,,2022-02-02,1,,,,,リグホーム,0
1842,7370001048160,新規,0,2022-02-02,2022-02-02,株式会社創建プランニング,,株式会社,宮城県,仙台市青葉区,中山吉成１丁目１７番３０号,,04,101,9893203,,,,,,,2022-02-02,1,,,,,ソウケンプランニング,0
1849,7380001032551,新規,0,2022-02-02,2022-02-02,株式会社土屋造園,,株式会社,福島県,伊達郡桑折町,大字万正寺字堰上７番地の１９,,07,301,9691651,,,,,,,2022-02-02,1,,,,,ツチヤゾウエン,0
1853,7390001016784,新規,0,2022-02-02,2022-02-02,株式会社ＷＨＯＬＥＨＥＡＲＴ,,株式会社,山形県,山形市,清住町３丁目７番２号,,06,201,9900834,,,,,,,2022-02-02,1,,,,,ホールハート,0
1856,7400003002888,新規,0,2022-02-02,2022-02-02,Ｂｒａｎｄ　Ｎｅｗ合同会社,,合同会社,岩手県,大船渡市,盛町字木町１３―１４,,03,203,0220003,,,,,,,2022-02-02,1,,,,,ブランドニュー,0
1858,7410001013093,新規,0,2022-02-02,2022-02-02,秋田ストーンハウス株式会社,,株式会社,秋田県,秋田市,保戸野中町７番３号,,05,201,0100905,,,,,,,2022-02-02,1,,,,,アキタストーンハウス,0
1864,7430003013569,新規,0,2022-02-02,2022-02-02,合同会社リライアブル,,合同会社,北海道,札幌市手稲区,星置南３丁目３―３９―１０６,,01,109,0060050,,,,,,,2022-02-02,1,,,,,リライアブル,0
1865,7430003013585,新規,0,2022-02-02,2022-02-02,合同会社ＬＡＲＭＥ,,合同会社,北海道,札幌市豊平区,水車町２丁目４－２４Ｒｅｖｏ水車町４０３号,,01,105,0620912,,,,,,,2022-02-02,1,,,,,ラルム,0
1866,7430003013593,新規,0,2022-02-02,2022-02-02,合同会社Ｌｉｎｋ,,合同会社,北海道,岩見沢市,四条西３丁目１番地であえーる２Ｆ,,01,210,0680024,,,,,,,2022-02-02,1,,,,,リンク,0
1872,7470005006410,新規,0,2022-02-02,2022-02-02,香川県ダンプ事業協同組合,,その他の設立登記法人,香川県,高松市,三谷町２６５０番地２,,37,201,7610450,,,,,,,2022-02-02,1,,,,,カガワケンダンプ,0
1875,7500001023975,新規,0,2022-02-02,2022-02-02,クラージュ株式会社,,株式会社,愛媛県,松山市,山越１丁目１５番２２号,,38,201,7918013,,,,,,,2022-02-02,1,,,,,クラージュ,0
1876,7500001023983,新規,0,2022-02-02,2022-02-02,株式会社ＢＵＩＬＤ　ＰＬＵＳ,,株式会社,愛媛県,松山市,南斎院町１２２０番地６,,38,201,7918032,,,,,,,2022-02-02,1,,,,,ビルドプラス,0
1884,8010001224184,新規,0,2022-02-02,2022-02-02,セレンディピティー株式会社,,株式会社,東京都,文京区,大塚５丁目８番１２－３０１号,,13,105,1120012,,,,,,,2022-02-02,1,,,,,セレンディピティー,0
1887,8010003036900,新規,0,2022-02-02,2022-02-02,ジェイコアレジ５合同会社１５,,合同会社,東京都,千代田区,丸の内３丁目１番１号東京共同会計事務所内,,13,101,1000005,,,,,,,2022-02-02,1,,,,,ジェイコアレジファイブイチゴー,0
1888,8010003036909,新規,0,2022-02-02,2022-02-02,ＡＬＪ　Ｏｆｆｉｃｅ　Ｋｏｄｅｎｍａ合同会社,,合同会社,東京都,千代田区,神田神保町１丁目１１番地さくら綜合事務所内,,13,101,1010051,,,,,,,2022-02-02,1,,,,,エーエルジェーオフィスコデンマ,0
1889,8010003036917,新規,0,2022-02-02,2022-02-02,合同会社緑地開発ソーラー発電所,,合同会社,東京都,中央区,築地１丁目１２番１３号,,13,102,1040045,,,,,,,2022-02-02,1,,,,,リョクチカイハツソーラーハツデンショ,0
1898,8010401165276,新規,0,2022-02-02,2022-02-02,株式会社ラフター,,株式会社,東京都,港区,浜松町２丁目２番１５号浜松町ダイヤビル２Ｆ,,13,103,1050013,,,,,,,2022-02-02,1,,,,,ラフター,0
1899,8010401165292,新規,0,2022-02-02,2022-02-02,東峰Ｉｎｖｅｓｔｍｅｎｔ＆Ｃｏｎｓｕｌｔｉｎｇ株式会社,,株式会社,東京都,港区,南青山２丁目２番１５号,,13,103,1070062,,,,,,,2022-02-02,1,,,,,トウホウインベストメントアンドコンサルティング,0
1900,8010401165318,新規,0,2022-02-02,2022-02-02,株式会社ＦｉｒｓＰｅｎ,,株式会社,東京都,港区,浜松町２丁目２番１５号浜松町ダイヤビル２Ｆ,,13,103,1050013,,,,,,,2022-02-02,1,,,,,ファスペン,0
1905,8010405020634,新規,0,2022-02-02,2022-02-02,一般社団法人ソラノエキ,,その他の設立登記法人,東京都,港区,海岸３丁目１３番１２－１４０４号,,13,103,1080022,,,,,,,2022-02-02,1,,,,,ソラノエキ,0
1915,8010701042167,新規,0,2022-02-02,2022-02-02,株式会社Ｆｕｔｕｒｅ　Ｆｏｏｄ　Ｌａｂ,,株式会社,東京都,品川区,大崎１丁目１１番２号,,13,109,1410032,,,,,,,2022-02-02,1,,,,,フューチャーフードラボ,0
1917,8010803004049,新規,0,2022-02-02,2022-02-02,京浜総研合同会社,,合同会社,東京都,大田区,仲池上１丁目３３－１５,,13,111,1460081,,,,,,,2022-02-02,1,,,,,ケイヒンソウケン,0
1920,8011001145387,新規,0,2022-02-02,2022-02-02,株式会社Ｓｃｒｕｓｈ,,株式会社,東京都,渋谷区,渋谷２丁目１９－１５宮益坂ビルディング６０９,,13,113,1500002,,,,,,,2022-02-02,1,,,,,スクラッシュ,0
1921,8011001145420,新規,0,2022-02-02,2022-02-02,雲海株式会社,,株式会社,東京都,渋谷区,宇田川町３４番５号サイトービルＩＩＩ,00125599,13,113,1500042,,,,,,,2022-02-02,1,,,,,ウンカイ,0
1922,8011001145486,新規,0,2022-02-02,2022-02-02,株式会社ｗｈｉｔｅ　ｆｒｏｍ　ｇｒｅｅｎ,,株式会社,東京都,目黒区,碑文谷５丁目２番５号,,13,110,1520003,,,,,,,2022-02-02,1,,,,,ホワイトフロムグリーン,0
1924,8011003014128,新規,0,2022-02-02,2022-02-02,アン‐ヤル合同会社,,合同会社,東京都,渋谷区,道玄坂１丁目１０番８号渋谷道玄坂東急ビル２Ｆ－Ｃ,,13,113,1500043,,,,,,,2022-02-02,1,,,,,アンヤル,0
1925,8011101097693,新規,0,2022-02-02,2022-02-02,株式会社ＢＥＬＬＡ,,株式会社,東京都,新宿区,新宿２丁目６番１１－４０２号,,13,104,1600022,,,,,,,2022-02-02,1,,,,,ベラ,0
1936,8011801040283,新規,0,2022-02-02,2022-02-02,株式会社シンド,,株式会社,東京都,葛飾区,小菅４丁目６番１４号,,13,122,1240001,,,,,,,2022-02-02,1,,,,,シンド,0
1938,8011803004955,新規,0,2022-02-02,2022-02-02,ＭＯＡ合同会社,,合同会社,東京都,葛飾区,東四つ木４丁目３４番５号,,13,122,1240014,,,,,,,2022-02-02,1,,,,,モア,0
1939,8011805003138,新規,0,2022-02-02,2022-02-02,一般社団法人東京遺品整理組合,,その他の設立登記法人,東京都,足立区,扇２丁目２６番４１号,,13,121,1230873,,,,,,,2022-02-02,1,,,,,トウキョウイヒンセイリクミアイ,0
1940,8012301012871,新規,0,2022-02-02,2022-02-02,株式会社ＴＫゴルフクラブ,,株式会社,東京都,町田市,原町田１丁目２番２４号Ｂ１,,13,209,1940013,,,,,,,2022-02-02,1,,,,,ティーケーゴルフクラブ,0
1956,8020001145066,新規,0,2022-02-02,2022-02-02,株式会社ＴＯＦＵ,,株式会社,神奈川県,横浜市青葉区,しらとり台３番地１５,,14,117,2270054,,,,,,,2022-02-02,1,,,,,トーフ,0
1957,8020001145082,新規,0,2022-02-02,2022-02-02,株式会社さくらぎさくら,,株式会社,神奈川県,川崎市幸区,中幸町３丁目３１番地２,,14,132,2120012,,,,,,,2022-02-02,1,,,,,サクラギサクラ,0
1962,8020003021232,新規,0,2022-02-02,2022-02-02,ジェイカンパニー合同会社,,合同会社,神奈川県,横浜市港北区,綱島上町１番地１グリーンサラウンドシティ４番街１１３号,,14,109,2230055,,,,,,,2022-02-02,1,,,,,ジェイカンパニー,0
1974,8021002073933,新規,0,2022-02-02,2022-02-02,有限会社島守工務店,,有限会社,神奈川県,横須賀市,大矢部３丁目１４番１０号,,14,201,2380024,,,,,,,2022-02-02,1,,,,,,0
1975,8021005012426,新規,0,2022-02-02,2022-02-02,一般社団法人Ｓｏｃｉｅｔｙ　Ｗｉｔｈ　Ｄｒｅａｍｓ,,その他の設立登記法人,神奈川県,海老名市,中央１丁目６番３１号Ａ＆ＮＩビル１Ｆ,,14,215,2430432,,,,,,,2022-02-02,1,,,,,ソサエティウィズドリーム,0
1979,8030001146609,新規,0,2022-02-02,2022-02-02,株式会社エスコン,,株式会社,埼玉県,志木市,本町６丁目２９番３９号,,11,228,3530004,,,,,,,2022-02-02,1,,,,,エスコン,0
1980,8030001146625,新規,0,2022-02-02,2022-02-02,株式会社増木,,株式会社,埼玉県,新座市,野火止３丁目１０番５号,,11,230,3520011,,,,,,,2022-02-02,1,,,,,マスキ,0
1981,8030001146658,新規,0,2022-02-02,2022-02-02,株式会社ミライノヒカリ,,株式会社,埼玉県,入間市,小谷田１丁目１番１３号７,,11,225,3580026,,,,,,,2022-02-02,1,,,,,ミライノヒカリ,0
1984,8030002093528,新規,0,2022-02-02,2022-02-02,有限会社長谷川製作所,,有限会社,埼玉県,鶴ヶ島市,富士見２丁目１２番６号,,11,241,3502201,,,,,,,2022-02-02,1,,,,,ハセガワセイサクショ,0
1988,8030003018772,新規,0,2022-02-02,2022-02-02,合同会社ユエンゼ,,合同会社,埼玉県,朝霞市,膝折町２丁目１３－２７,,11,227,3510014,,,,,,,2022-02-02,1,,,,,ユエンゼ,0
1989,8030005020710,新規,0,2022-02-02,2022-02-02,一般社団法人個人事業主・フリーランサー情報交換協議会,,その他の設立登記法人,埼玉県,熊谷市,宮前町２丁目２０－１－５０２号室,,11,202,3600045,,,,,,,2022-02-02,1,,,,,コジンジギョウヌシフリーランサージョウホウコウカンキョウギカイ,0
1999,8040001122006,新規,0,2022-02-02,2022-02-02,株式会社ファイファー,,株式会社,千葉県,柏市,宿連寺２６１番地４０,,12,217,2770826,,,,,,,2022-02-02,1,,,,,ファイファー,0
2000,8040001122047,新規,0,2022-02-02,2022-02-02,株式会社ＭＡＸライン,,株式会社,千葉県,八千代市,高津４３９番地１０,,12,221,2760036,,,,,,,2022-02-02,1,,,,,マックスライン,0
2004,8040003019233,新規,0,2022-02-02,2022-02-02,合同会社ＷＯＯＤＳ工房,,合同会社,千葉県,千葉市美浜区,稲毛海岸５丁目２１番１－２１０号,,12,106,2610005,,,,,,,2022-02-02,1,,,,,ウッズコウボウ,0
2011,8080001024727,新規,0,2022-02-02,2022-02-02,株式会社アナン,,株式会社,静岡県,静岡市清水区,西高町１３番９号,,22,103,4240844,,,,,,,2022-02-02,1,,,,,アナン,0
2013,8080105006217,新規,0,2022-02-02,2022-02-02,一般社団法人統合型リゾート開発推進協議会,,その他の設立登記法人,静岡県,熱海市,昭和町１５番３号,,22,205,4130022,,,,,,,2022-02-02,1,,,,,トウゴウガタリゾートカイハツスイシンキョウギカイ,0
2025,8120001243561,新規,0,2022-02-02,2022-02-02,株式会社ＨＩＣ,,株式会社,大阪府,大阪市天王寺区,上本町５丁目５番１５号東海ビル上本町７０１,,27,109,5430001,,,,,,,2022-02-02,1,,,,,エイチアイシー,0
2028,8120003021040,新規,0,2022-02-02,2022-02-02,合同会社磯村,,合同会社,大阪府,大阪市中央区,内本町２丁目１番１９号,,27,128,5400026,,,,,,,2022-02-02,1,,,,,イソムラ,0
2029,8120003021057,新規,0,2022-02-02,2022-02-02,ＭＰ合同会社,,合同会社,大阪府,大阪市生野区,新今里３丁目３番７号４Ａ,,27,116,5440001,,,,,,,2022-02-02,1,,,,,エムピー,0
2030,8120005022771,新規,0,2022-02-02,2022-02-02,よどがわ税理士法人,,その他の設立登記法人,大阪府,大阪市淀川区,宮原５丁目１番３号,,27,123,5320003,,,,,,,2022-02-02,1,,,,,ヨドガワ,0
2035,8120901045545,新規,0,2022-02-02,2022-02-02,株式会社桜花工業,,株式会社,大阪府,豊中市,宝山町１５番１号アドバンス宝山３階,,27,203,5610893,,,,,,,2022-02-02,1,,,,,オウカコウギョウ,0
2037,8120905006270,新規,0,2022-02-02,2022-02-02,医療法人ベルフィーヌ,,その他の設立登記法人,大阪府,茨木市,双葉町１６番２７号ボンメゾンフタバ１階,,27,211,5670829,,,,,,,2022-02-02,1,,,,,ベルフィーヌ,0
2039,8122001035550,新規,0,2022-02-02,2022-02-02,株式会社ワールドケア,,株式会社,大阪府,東大阪市,中小阪５丁目３番５号,,27,227,5770804,,,,,,,2022-02-02,1,,,,,ワールドケア,0
2049,8140005026003,新規,0,2022-02-02,2022-02-02,特定非営利活動法人日本中医薬人材育成協会,,その他の設立登記法人,兵庫県,神戸市中央区,元町通３丁目４番１０号,,28,110,6500022,,,,,,,2022-02-02,1,,,,,ニホンチュウイヤクジンザイイクセイキョウカイ,0
2061,8180001149753,新規,0,2022-02-02,2022-02-02,鳥羽組工業株式会社,,株式会社,愛知県,名古屋市南区,天白町１丁目２９番地の６,,23,112,4570803,,,,,,,2022-02-02,1,,,,,トバグミコウギョウ,0
2062,8180001149778,新規,0,2022-02-02,2022-02-02,呉貿易株式会社,,株式会社,愛知県,名古屋市中区,栄１丁目１６－１６－９１４,,23,106,4600008,,,,,,,2022-02-02,1,,,,,クレボウエキ,0
2067,8180003023460,新規,0,2022-02-02,2022-02-02,ＮＴＡ合同会社,,合同会社,愛知県,稲沢市,高御堂１丁目１番１５号,,23,220,4928213,,,,,,,2022-02-02,1,,,,,エヌティエー,0
2069,8180301035884,新規,0,2022-02-02,2022-02-02,株式会社加藤建築,,株式会社,愛知県,刈谷市,松栄町２丁目１５番地４２,,23,210,4480806,,,,,,,2022-02-02,1,,,,,カトウケンチク,0
2073,8190001029095,新規,0,2022-02-02,2022-02-02,株式会社倉田塗装工業,,株式会社,三重県,津市,安濃町南神山６２番地１,,24,201,5142316,,,,,,,2022-02-02,1,,,,,クラタトソウコウギョウ,0
2084,8240001059269,新規,0,2022-02-02,2022-02-02,ヒロキタＨＤ株式会社,,株式会社,広島県,広島市安佐北区,亀山９丁目３６番１０号,,34,106,7310231,,,,,,,2022-02-02,1,,,,,ヒロキタホールディングス,0
2087,8260001036497,新規,0,2022-02-02,2022-02-02,ライフプランＲ株式会社,,株式会社,岡山県,岡山市北区,駅元町９－２６,,33,101,7000024,,,,,,,2022-02-02,1,,,,,ライフプランアール,0
2089,8260003003792,新規,0,2022-02-02,2022-02-02,合同会社フルールミタモ,,合同会社,岡山県,岡山市北区,幸町５－１２,,33,101,7000903,,,,,,,2022-02-02,1,,,,,フルールミタモ,0
2095,8290001096101,新規,0,2022-02-02,2022-02-02,株式会社ゆるねば,,株式会社,福岡県,福岡市博多区,千代２丁目２２－８,,40,132,8120044,,,,,,,2022-02-02,1,,,,,ユルネバ,0
2096,8290001096308,新規,0,2022-02-02,2022-02-02,株式会社クリエイト,,株式会社,福岡県,福岡市東区,箱崎ふ頭３丁目９番１３号,,40,131,8120051,,,,,,,2022-02-02,1,,,,,クリエイト,0
2097,8290001096316,新規,0,2022-02-02,2022-02-02,株式会社ａ＆ａ鑑定事務所,,株式会社,福岡県,福岡市東区,多の津４丁目７番１４号,,40,131,8130034,,,,,,,2022-02-02,1,,,,,エーアンドエーカンテイジムショ,0
2098,8290005018547,新規,0,2022-02-02,2022-02-02,一般社団法人Ｏｍｎｉｃｅｎｔ,,その他の設立登記法人,福岡県,うきは市,吉井町富永２２４２番地,,40,225,8391333,,,,,,,2022-02-02,1,,,,,オムニセント,0
2109,8330001029403,新規,0,2022-02-02,2022-02-02,株式会社ルームサポート,,株式会社,熊本県,熊本市中央区,渡鹿７丁目８番５３号,,43,101,8620970,,,,,,,2022-02-02,1,,,,,ルームサポート,0
2114,8340001024477,新規,0,2022-02-02,2022-02-02,株式会社ＥｎＴｏ,,株式会社,鹿児島県,大島郡大和村,大字戸円１８８２番地４,,46,523,8943211,,,,,,,2022-02-02,1,,,,,エント,0
2115,8340003003693,新規,0,2022-02-02,2022-02-02,大隅農産合同会社,,合同会社,鹿児島県,鹿屋市,打馬２丁目３番２４－１号,,46,203,8930011,,,,,,,2022-02-02,1,,,,,オオスミノウサン,0
2117,8350003004022,新規,0,2022-02-02,2022-02-02,合同会社ＭＡＨＡＮＡ,,合同会社,宮崎県,東諸県郡綾町,大字入野１１８９番地４,,45,383,8801301,,,,,,,2022-02-02,1,,,,,マハナ,0
2124,8400001015767,新規,0,2022-02-02,2022-02-02,株式会社エムズペット,,株式会社,岩手県,盛岡市,上堂３丁目３番２０号,,03,201,0200125,,,,,,,2022-02-02,1,,,,,エムズペット,0
2128,8410001013092,新規,0,2022-02-02,2022-02-02,株式会社八代内装防水工事,,株式会社,秋田県,秋田市,牛島東３丁目１番２４号,,05,201,0100062,,,,,,,2022-02-02,1,,,,,ヤシロナイソウボウスイコウジ,0
2141,8490001010108,新規,0,2022-02-02,2022-02-02,株式会社市場寿し,,株式会社,高知県,高知市,廿代町５番１号１Ｆ,,39,201,7800843,,,,,,,2022-02-02,1,,,,,イチバズシ,0
2149,9010001224159,新規,0,2022-02-02,2022-02-02,ＲＥＮＡＴＵＳ　ＲＯＢＯＴＩＣＳ株式会社,,株式会社,東京都,文京区,本郷４丁目１－１菊花ビル７０１,,13,105,1130033,,,,,,,2022-02-02,1,,,,,レナトスロボティクス,0
2150,9010001224308,新規,0,2022-02-02,2022-02-02,カワダ貿易株式会社,,株式会社,東京都,中央区,銀座１丁目２２－１１－２Ｆ,,13,102,1040061,,,,,,,2022-02-02,1,,,,,カワダボウエキ,0
2151,9010003036825,新規,0,2022-02-02,2022-02-02,Ｎｅｗ　Ｐｏｗｅｒ合同会社,,合同会社,東京都,中央区,佃２丁目１番１－３１１４号,,13,102,1040051,,,,,,,2022-02-02,1,,,,,ニューパワー,0
2152,9010003036899,新規,0,2022-02-02,2022-02-02,ジェイコアレジ５合同会社１４,,合同会社,東京都,千代田区,丸の内３丁目１番１号東京共同会計事務所内,,13,101,1000005,,,,,,,2022-02-02,1,,,,,ジェイコアレジファイブイチヨン,0
2153,9010003036916,新規,0,2022-02-02,2022-02-02,プエンテス合同会社,,合同会社,東京都,中央区,日本橋堀留町１丁目３番１６号ＪＳＢレジデンス＆オフィス日本橋３１８号室,,13,102,1030012,,,,,,,2022-02-02,1,,,,,プエンテス,0
2155,9010005034546,新規,0,2022-02-02,2022-02-02,サンエナジーホールディングス一般社団法人,,その他の設立登記法人,東京都,中央区,八丁堀４丁目２番１０号ＡＯＪ税理士法人内,,13,102,1040032,,,,,,,2022-02-02,1,,,,,サンエナジーホールディングス,0
2168,9010401165275,新規,0,2022-02-02,2022-02-02,ＭＣＰ５株式会社,,株式会社,東京都,港区,元赤坂１丁目１番８号株式会社赤坂国際会計内,,13,103,1070051,,,,,,,2022-02-02,1,,,,,エムシーピーファイブ,0
2169,9010401165300,新規,0,2022-02-02,2022-02-02,ＭＥＴＡＬＩＡ株式会社,,株式会社,東京都,港区,麻布台１丁目７－３ＶＯＲＴ神谷町５Ｆ,,13,103,1060041,,,,,,,2022-02-02,1,,,,,メタリア,0
2170,9010401165325,新規,0,2022-02-02,2022-02-02,株式会社ユビキタス・メディカルズ,,株式会社,東京都,港区,南麻布２丁目１２番３号サイオスビル,,13,103,1060047,,,,,,,2022-02-02,1,,,,,ユビキタスメディカルズ,0
2171,9010403027011,新規,0,2022-02-02,2022-02-02,合同会社Ａ　ｚａｂｕ１０,,合同会社,東京都,港区,麻布十番３丁目７番５号,,13,103,1060045,,,,,,,2022-02-02,1,,,,,アザブテン,0
2173,9010405020633,新規,0,2022-02-02,2022-02-02,霧島山一般社団法人,,その他の設立登記法人,東京都,港区,北青山１丁目２番３号,,13,103,1070061,,,,,,,2022-02-02,1,,,,,キリシマヤマ,0
2174,9010405020641,新規,0,2022-02-02,2022-02-02,一般社団法人ＰＦＪ,,その他の設立登記法人,東京都,港区,新橋２丁目１３番８号新橋東和ビル５階,,13,103,1050004,,,,,,,2022-02-02,1,,,,,ピーエフジェイ,0
2180,9010701042166,新規,0,2022-02-02,2022-02-02,株式会社りらくす,,株式会社,東京都,品川区,大崎１丁目１１番２号,,13,109,1410032,,,,,,,2022-02-02,1,,,,,リラクス,0
2181,9010703006094,新規,0,2022-02-02,2022-02-02,アルディート合同会社,,合同会社,東京都,品川区,西五反田１丁目４番２号秀和五反田駅前レジデンス１０１号,,13,109,1410031,,,,,,,2022-02-02,1,,,,,アルディート,0
2182,9010801032694,新規,0,2022-02-02,2022-02-02,株式会社金城総建,,株式会社,東京都,大田区,西糀谷４丁目２１番１９号ハイネストライ２Ｆ,,13,111,1440034,,,,,,,2022-02-02,1,,,,,カネシロソウケン,0
2184,9010903007116,新規,0,2022-02-02,2022-02-02,合同会社ＫＩＬＳＨ,,合同会社,東京都,世田谷区,奥沢５丁目３１－１７アルボス２Ｂ,,13,112,1580083,,,,,,,2022-02-02,1,,,,,キルシュ,0
2198,9011001145411,新規,0,2022-02-02,2022-02-02,株式会社エムズプライム,,株式会社,東京都,渋谷区,恵比寿２丁目３８番３号,,13,113,1500013,,,,,,,2022-02-02,1,,,,,エムズプライム,0
2199,9011001145436,新規,0,2022-02-02,2022-02-02,Ｂｒｉｇｈｔ　Ｓｋｉｅｓ株式会社,,株式会社,東京都,渋谷区,恵比寿４丁目２０番３号恵比寿ガーデンプレイスタワー１８階,,13,113,1500013,,,,,,,2022-02-02,1,,,,,ブライトスカイズ,0
2205,9011501027720,新規,0,2022-02-02,2022-02-02,株式会社ＰＬＡＮＥＴＥＳ,,株式会社,東京都,荒川区,東日暮里４丁目５番１７－４０４号,,13,118,1160014,,,,,,,2022-02-02,1,,,,,プラネテス,0
2212,9011801040290,新規,0,2022-02-02,2022-02-02,株式会社金山商事,,株式会社,東京都,葛飾区,南水元２丁目２６番７号,,13,122,1250035,,,,,,,2022-02-02,1,,,,,カネヤマショウジ,0
2214,9011803004954,新規,0,2022-02-02,2022-02-02,合同会社ＴＡＺ,,合同会社,東京都,足立区,千住柳町１９番６号,,13,121,1200032,,,,,,,2022-02-02,1,,,,,タズ,0
2217,9012703002395,新規,0,2022-02-02,2022-02-02,Ｌｉｂｅｒｔｙ－Ｘ合同会社,,合同会社,東京都,東村山市,萩山町１丁目２３－７０,,13,213,1890012,,,,,,,2022-02-02,1,,,,,リバティエックス,0
2225,9020001145057,新規,0,2022-02-02,2022-02-02,株式会社濱鶴,,株式会社,神奈川県,横浜市戸塚区,下倉田町１６１９－５,,14,110,2440815,,,,,,,2022-02-02,1,,,,,ハマツル,0
2226,9020001145073,新規,0,2022-02-02,2022-02-02,株式会社Ｃ．Ｄ．Ｔビルド,,株式会社,神奈川県,横浜市鶴見区,東寺尾１丁目１０－３１,,14,101,2300077,,,,,,,2022-02-02,1,,,,,シーディーティービルド,0
2230,9020003021231,新規,0,2022-02-02,2022-02-02,合同会社コスモプランニング,,合同会社,神奈川県,横浜市中区,曙町１丁目３番地藤和伊勢佐木町ハイタウン１０１７,,14,104,2310057,,,,,,,2022-02-02,1,,,,,コスモプランニング,0
2231,9020005015371,新規,0,2022-02-02,2022-02-02,医療法人慶和会,,その他の設立登記法人,神奈川県,横浜市旭区,二俣川２丁目５０番地１４コプレ二俣川オフィス棟７階,,14,112,2410821,,,,,,,2022-02-02,1,,,,,ケイワカイ,0
2234,9021001075070,新規,0,2022-02-02,2022-02-02,株式会社Ｒｅａｌｉｚｅ,,株式会社,神奈川県,海老名市,扇町１２番２７号ワグテールビル２０２号,,14,215,2430436,,,,,,,2022-02-02,1,,,,,リアライズ,0
2235,9021001075087,新規,0,2022-02-02,2022-02-02,株式会社石昭,,株式会社,神奈川県,鎌倉市,大船５丁目９番１９号,,14,204,2470056,,,,,,,2022-02-02,1,,,,,イシショウ,0
2240,9030001146599,新規,0,2022-02-02,2022-02-02,株式会社ＫＹ‐Ｔｒｕｓｔ,,株式会社,埼玉県,南埼玉郡宮代町,宮代台３丁目１９番１６号,,11,442,3450835,,,,,,,2022-02-02,1,,,,,ケーワイトラスト,0
2241,9030001146608,新規,0,2022-02-02,2022-02-02,株式会社ジラフキックスタジオ,,株式会社,埼玉県,朝霞市,浜崎４丁目１２－３６,,11,227,3510033,,,,,,,2022-02-02,1,,,,,ジラフキックスタジオ,0
2242,9030001146649,新規,0,2022-02-02,2022-02-02,日昇株式会社,,株式会社,埼玉県,川口市,川口４丁目６－１０パレス川口１０３,,11,203,3320015,,,,,,,2022-02-02,1,,,,,ニッショウ,0
2246,9030003018755,新規,0,2022-02-02,2022-02-02,Ｍ’ｓ　ｓｔｙｌｅ合同会社,,合同会社,埼玉県,富士見市,大字水子４９９９番地の１,,11,235,3540011,,,,,,,2022-02-02,1,,,,,エムズスタイル,0
2247,9030003018788,新規,0,2022-02-02,2022-02-02,合同会社マイカ,,合同会社,埼玉県,川口市,大字榛松６９２番地セレナヴィラ２０２号,,11,203,3340062,,,,,,,2022-02-02,1,,,,,マイカ,0
2251,9040001121857,新規,0,2022-02-02,2022-02-02,株式会社Ｈａｎｄ　Ａｉｄ,,株式会社,千葉県,我孫子市,白山１丁目１番５号,,12,222,2701154,,,,,,,2022-02-02,1,,,,,ハンドエイド,0
2252,9040001122021,新規,0,2022-02-02,2022-02-02,千葉ＮＴ中央駅前ＰＦＩ株式会社,,株式会社,千葉県,印西市,木下１３８６番地６,,12,231,2701326,,,,,,,2022-02-02,1,,,,,チバエヌティチュウオウエキマエピーエフアイ,0
2253,9040001122046,新規,0,2022-02-02,2022-02-02,マックス商事株式会社,,株式会社,千葉県,八千代市,高津４３９番地１０,,12,221,2760036,,,,,,,2022-02-02,1,,,,,マックスショウジ,0
2254,9040003019397,新規,0,2022-02-02,2022-02-02,ウイングベル合同会社,,合同会社,千葉県,船橋市,本町５丁目２－１６ハイムあさひ２０２号室,,12,204,2730005,,,,,,,2022-02-02,1,,,,,ウイングベル,0
2257,9060001034537,新規,0,2022-02-02,2022-02-02,株式会社雄,,株式会社,栃木県,真岡市,物井１６６番地１,,09,209,3214502,,,,,,,2022-02-02,1,,,,,ユウ,0
2260,9080105006216,新規,0,2022-02-02,2022-02-02,一般社団法人ＹＯＭＩＧＡＥＲＩプロジェクト,,その他の設立登記法人,静岡県,沼津市,大岡９８９番地の６,,22,203,4100022,,,,,,,2022-02-02,1,,,,,ヨミガエリプロジェクト,0
2274,9120001243503,新規,0,2022-02-02,2022-02-02,ＳＳＵ　Ｆａｓｈｉｏｎ　Ｊａｐａｎ株式会社,,株式会社,大阪府,大阪市中央区,東心斎橋１丁目１６番１５号,,27,128,5420083,,,,,,,2022-02-02,1,,,,,エスエスユファションジャパン,0
2275,9120001243544,新規,0,2022-02-02,2022-02-02,ケーツーオートサービス株式会社,,株式会社,大阪府,大阪市西区,靱本町１丁目７番２５号,,27,106,5500004,,,,,,,2022-02-02,1,,,,,ケーツーオートサービス,0
2276,9120001243569,新規,0,2022-02-02,2022-02-02,ＨＪＮ株式会社,,株式会社,大阪府,大阪市旭区,千林２丁目１番１５号ハイツ雅５号館１階,,27,117,5350012,,,,,,,2022-02-02,1,,,,,エイチジェイエヌ,0
2277,9120001243577,新規,0,2022-02-02,2022-02-02,株式会社ＣＳＴ,,株式会社,大阪府,大阪市港区,弁天４丁目１０番２６号,,27,107,5520007,,,,,,,2022-02-02,1,,,,,シーエスティー,0
2278,9120001243585,新規,0,2022-02-02,2022-02-02,株式会社ＮＳ,,株式会社,大阪府,大阪市中央区,博労町４丁目２番１５号,,27,128,5410059,,,,,,,2022-02-02,1,,,,,エヌエス,0
2283,9120101065013,新規,0,2022-02-02,2022-02-02,ウイングホールディングス株式会社,,株式会社,大阪府,泉佐野市,りんくう往来北５番地の４,,27,213,5980048,,,,,,,2022-02-02,1,,,,,ウイングホールディングス,0
2285,9120103004555,新規,0,2022-02-02,2022-02-02,園田合同会社,,合同会社,大阪府,松原市,上田３丁目６番２０－８０８号,,27,217,5800016,,,,,,,2022-02-02,1,,,,,ソノダ,0
2292,9130001071044,新規,0,2022-02-02,2022-02-02,株式会社Ｍａｒｕ　ＣＣ,,株式会社,京都府,京都市左京区,新間之町通二条下る頭町３４６番地１山和小路２０４,,26,103,6068354,,,,,,,2022-02-02,1,,,,,マルシーシー,0
2293,9130001071052,新規,0,2022-02-02,2022-02-02,株式会社サンキャリア,,株式会社,京都府,京都市中京区,錦小路通室町西入天神山町２８０石勘ビル４Ｆ,,26,104,6048221,,,,,,,2022-02-02,1,,,,,サンキャリア,0
2299,9140001124676,新規,0,2022-02-02,2022-02-02,株式会社ｇｌｏｒｙ　ｌｉｆｅ,,株式会社,兵庫県,明石市,旭が丘２番５号サンヒルズ旭が丘１０４号,,28,203,6730002,,,,,,,2022-02-02,1,,,,,グローリーライフ,0
2305,9150005009369,新規,0,2022-02-02,2022-02-02,一般社団法人森人ネット,,その他の設立登記法人,奈良県,宇陀市,大宇陀下出口２２４７番地の１,,29,212,6332177,,,,,,,2022-02-02,1,,,,,モリヒトネット,0
2306,9170001016961,新規,0,2022-02-02,2022-02-02,株式会社ピットスペース,,株式会社,和歌山県,和歌山市,東鍛冶屋町４５番地ル・ペーレビル２Ｆ,,30,201,6408036,,,,,,,2022-02-02,1,,,,,ピットスペース,0
2308,9170005006942,新規,0,2022-02-02,2022-02-02,一般社団法人レジリエンスケア協会,,その他の設立登記法人,和歌山県,和歌山市,西河岸町８０番地,,30,201,6408297,,,,,,,2022-02-02,1,,,,,レジリエンスケアキョウカイ,0
2321,9180001149777,新規,0,2022-02-02,2022-02-02,株式会社ＣＹＯＳ,,株式会社,愛知県,名古屋市昭和区,陶生町１丁目２番地の１,,23,107,4660026,,,,,,,2022-02-02,1,,,,,シーワイオーエス,0
2322,9180001149785,新規,0,2022-02-02,2022-02-02,株式会社ＹＯＳＨＩＤＡ,,株式会社,愛知県,北名古屋市,熊之庄石原８３番地１,,23,234,4810006,,,,,,,2022-02-02,1,,,,,ヨシダ,0
2329,9180301035883,新規,0,2022-02-02,2022-02-02,株式会社アリス不動産,,株式会社,愛知県,西尾市,桜木町３丁目５１番地３,,23,213,4450853,,,,,,,2022-02-02,1,,,,,アリスフドウサン,0
2339,9210001018805,新規,0,2022-02-02,2022-02-02,ジータスコーポレーション株式会社,,株式会社,福井県,福井市,丸山３丁目４０３番地,,18,201,9100834,,,,,,,2022-02-02,1,,,,,ジータスコーポレーション,0
2343,9230003001798,新規,0,2022-02-02,2022-02-02,八十八農産合同会社,,合同会社,富山県,射水市,久々湊３７１番地２,,16,211,9340039,,,,,,,2022-02-02,1,,,,,ヤトヤノウサン,0
2348,9240003005484,新規,0,2022-02-02,2022-02-02,合同会社Ｙ＆Ｋ,,合同会社,広島県,広島市安芸区,矢野西１丁目６番６号,,34,107,7360085,,,,,,,2022-02-02,1,,,,,ワイアンドケイ,0
2350,9250001019394,新規,0,2022-02-02,2022-02-02,株式会社ＡＫＮシステム,,株式会社,山口県,下関市,豊浦町大字川棚６８４２－３－２０２,,35,201,7596301,,,,,,,2022-02-02,1,,,,,エーケーエヌシステム,0
2353,9260001036488,新規,0,2022-02-02,2022-02-02,株式会社Ｆ＆Ｋ,,株式会社,岡山県,岡山市北区,奥田南町１番５２－３号,,33,101,7000934,,,,,,,2022-02-02,1,,,,,エフアンドケイ,0
2355,9260003003791,新規,0,2022-02-02,2022-02-02,合同会社Ｔｏｈｉｔｏ,,合同会社,岡山県,瀬戸内市,牛窓町牛窓５６３９番地１,,33,212,7014302,,,,,,,2022-02-02,1,,,,,トヒト,0
2363,9290001096265,新規,0,2022-02-02,2022-02-02,株式会社Ｗｏｏｄ　Ｌｉｆｅ,,株式会社,福岡県,春日市,白水ヶ丘１丁目４７番地６,,40,218,8160845,,,,,,,2022-02-02,1,,,,,ウッドライフ,0
2364,9290001096298,新規,0,2022-02-02,2022-02-02,株式会社ＦＵＫＵＶＥＧＥ,,株式会社,福岡県,福岡市西区,下山門１丁目２４－３４－１０３,,40,135,8190052,,,,,,,2022-02-02,1,,,,,フクベジ,0
2365,9290001096307,新規,0,2022-02-02,2022-02-02,リボン商事株式会社,,株式会社,福岡県,福岡市博多区,博多駅南１丁目９‐３３０‐ＫＵＲＡビル１Ｆ,,40,132,8120016,,,,,,,2022-02-02,1,,,,,リボンショウジ,0
2366,9290001096323,新規,0,2022-02-02,2022-02-02,株式会社ヨンダブルディー,,株式会社,福岡県,古賀市,天神１丁目８番６号,,40,223,8113101,,,,,,,2022-02-02,1,,,,,ヨンダブルディー,0
2370,9290005018546,新規,0,2022-02-02,2022-02-02,一般社団法人ウォークス,,その他の設立登記法人,福岡県,久留米市,西町１５０７番地７,,40,203,8300038,,,,,,,2022-02-02,1,,,,,ウォークス,0
2372,9310001003094,新規,0,2022-02-02,2022-02-02,山崎産業株式会社,,株式会社,長崎県,長崎市,新地町８番２２号,,42,201,8500842,,,,,,,2022-02-02,1,,,,,ヤマサキサンギョウ,0
2378,9320005009962,新規,0,2022-02-02,2022-02-02,社会保険労務士法人カノン,,その他の設立登記法人,大分県,大分市,生石５丁目７番１号ＢＢＦビル外階段２Ｆ,,44,201,8700003,,,,,,,2022-02-02,1,,,,,カノン,0
2383,9330001029402,新規,0,2022-02-02,2022-02-02,株式会社Ｌｉｚ　Ｈｏｕｓｅ,,株式会社,熊本県,合志市,須屋２９７番地１９,,43,216,8611102,,,,,,,2022-02-02,1,,,,,リズハウス,0
2384,9330001029410,新規,0,2022-02-02,2022-02-02,株式会社コーチ＆メンタージャパン,,株式会社,熊本県,熊本市中央区,下通１丁目３番８号ＮＳビル６階,,43,101,8600807,,,,,,,2022-02-02,1,,,,,コーチアンドメンタージャパン,0
2388,9340001024468,新規,0,2022-02-02,2022-02-02,株式会社ジョイントプラス,,株式会社,鹿児島県,鹿児島市,桜ヶ丘１丁目２２番地４,,46,201,8910175,,,,,,,2022-02-02,1,,,,,ジョイントプラス,0
2402,9430001085906,新規,0,2022-02-02,2022-02-02,株式会社佐々木重機工業,,株式会社,北海道,美唄市,東三条北６丁目４番１５号,,01,215,0720004,,,,,,,2022-02-02,1,,,,,ササキジュウキコウギョウ,0
2403,9430001085914,新規,0,2022-02-02,2022-02-02,株式会社柴建,,株式会社,北海道,千歳市,大和４丁目８番２号,,01,224,0660066,,,,,,,2022-02-02,1,,,,,シバケン,0
2406,9430003013591,新規,0,2022-02-02,2022-02-02,合同会社ＫＡ・ＧＲＯＵＰ,,合同会社,北海道,札幌市北区,北二十六条西２丁目１－１３クチュールＮ２６　２０５号室,,01,102,0010026,,,,,,,2022-02-02,1,,,,,ケーエーグループ,0
2411,9480005006878,新規,0,2022-02-02,2022-02-02,一般社団法人しじゅうはちがん,,その他の設立登記法人,徳島県,板野郡藍住町,徳命字前須西１７２番地,,36,403,7711212,,,,,,,2022-02-02,1,,,,,シジュウハチガン,0
2412,9500001023973,新規,0,2022-02-02,2022-02-02,株式会社今治ミシン館,,株式会社,愛媛県,今治市,松本町１丁目１番地９,,38,202,7940041,,,,,,,2022-02-02,1,,,,,イマバリミシンカン,0
2413,9500001023981,新規,0,2022-02-02,2022-02-02,株式会社プレミアムクラブ,,株式会社,愛媛県,八幡浜市,郷３番耕地７１８番地３０,,38,204,7968020,,,,,,,2022-02-02,1,,,,,プレミアムクラブ,0
