sequenceNumber,corporateNumber,process,correct,updateDate,changeDate,name,nameImageId,kind,prefectureName,cityName,streetNumber,addressImageId,prefectureCode,cityCode,postCode,addressOutside,addressOutsideImageId,closeDate,closeCause,successorCorporateNumber,changeCause,assignmentDate,latest,enName,enPrefectureName,enCityName,enAddressOutside,furigana,hihyoji
16,1010001219918,新規,0,2021-08-04,2021-08-04,株式会社クラウドナイン,,株式会社,東京都,中央区,日本橋兜町１７番１号日本橋ロイヤルプラザ７０６,,13,102,1030026,,,,,,,2021-08-04,1,,,,,クラウドナイン,0
19,1010003035520,新規,0,2021-08-04,2021-08-04,合同会社豊福,,合同会社,東京都,文京区,本駒込３丁目５番７－９０２号,,13,105,1130021,,,,,,,2021-08-04,1,,,,,トヨフク,0
31,1010401161810,新規,0,2021-08-04,2021-08-04,株式会社ＰＥＴＳＰＯＴ,,株式会社,東京都,港区,元赤坂１丁目２番７号赤坂ＫＴＯＷＥＲ４階,,13,103,1070051,,,,,,,2021-08-04,1,,,,,ペットスポット,0
32,1010401161827,新規,0,2021-08-04,2021-08-04,株式会社ＡＫＵ,,株式会社,東京都,港区,虎ノ門１丁目１７番１号,,13,103,1050001,,,,,,,2021-08-04,1,,,,,エーケーユー,0
33,1010401161868,新規,0,2021-08-04,2021-08-04,エクシア・フィナンシャル株式会社,,株式会社,東京都,港区,六本木３丁目２番１号住友不動産六本木グランドタワー１５階,,13,103,1060032,,,,,,,2021-08-04,1,,,,,エクシアフィナンシャル,0
34,1010401161901,新規,0,2021-08-04,2021-08-04,株式会社表参道パートナーズ・ルーナ,,株式会社,東京都,港区,北青山３丁目５番１４号７Ｆ,,13,103,1070061,,,,,,,2021-08-04,1,,,,,オモテサンドウパートナーズルーナ,0
36,1010403025848,新規,0,2021-08-04,2021-08-04,合同会社Ｃｏ１,,合同会社,東京都,港区,北青山３丁目５番１４号６階,,13,103,1070061,,,,,,,2021-08-04,1,,,,,シーオーワン,0
40,1010405020038,新規,0,2021-08-04,2021-08-04,一般財団法人日本芸術音楽協会,,その他の設立登記法人,東京都,港区,六本木７丁目３番８号,,13,103,1060032,,,,,,,2021-08-04,1,,,,,ニホンゲイジュツオンガクキョウカイ,0
41,1010601059747,新規,0,2021-08-04,2021-08-04,株式会社Ｔｗｅｎｔｙ　Ｓｅｖｅｎ,,株式会社,東京都,江東区,有明３丁目７番１１号有明パークビル２０Ｆ,,13,108,1350063,,,,,,,2021-08-04,1,,,,,トウェンティセブン,0
42,1010603009072,新規,0,2021-08-04,2021-08-04,エフティヒア合同会社,,合同会社,東京都,江東区,辰巳１丁目６－１０ブリリア辰巳キャナルテラス１１０３,,13,108,1350053,,,,,,,2021-08-04,1,,,,,エフティヒア,0
46,1010801032198,新規,0,2021-08-04,2021-08-04,株式会社インヴェスタ,,株式会社,東京都,大田区,大森東５丁目１０番１３号,,13,111,1430012,,,,,,,2021-08-04,1,,,,,インヴェスタ,0
53,1010901049191,新規,0,2021-08-04,2021-08-04,株式会社はるプロ,,株式会社,東京都,世田谷区,弦巻４丁目２８番４号,,13,112,1540016,,,,,,,2021-08-04,1,,,,,ハルプロ,0
55,1010903006711,新規,0,2021-08-04,2021-08-04,合同会社ＢｅＭｙＢｒａｉｎ,,合同会社,東京都,世田谷区,船橋１丁目２８番１３－１０１号,,13,112,1560055,,,,,,,2021-08-04,1,,,,,ビーマイブレイン,0
63,1011001142011,新規,0,2021-08-04,2021-08-04,株式会社Ａｔｔｒａ,,株式会社,東京都,渋谷区,広尾４丁目１－１１,,13,113,1500012,,,,,,,2021-08-04,1,,,,,アトラ,0
64,1011001142069,新規,0,2021-08-04,2021-08-04,ジリデザイン株式会社,,株式会社,東京都,目黒区,下目黒２丁目２１番２７－９０１号カーサ目黒,,13,110,1530064,,,,,,,2021-08-04,1,,,,,ジリデザイン,0
65,1011001142077,新規,0,2021-08-04,2021-08-04,株式会社ランアップ,,株式会社,東京都,目黒区,青葉台１丁目２８番１－５０１号,,13,110,1530042,,,,,,,2021-08-04,1,,,,,ランアップ,0
67,1011003013152,新規,0,2021-08-04,2021-08-04,東京ブルーゲートウェイ合同会社,,合同会社,東京都,渋谷区,神宮前６丁目２３番４号桑野ビル２階,,13,113,1500001,,,,,,,2021-08-04,1,,,,,トウキョウブルーゲートウェイ,0
73,1011301027069,新規,0,2021-08-04,2021-08-04,株式会社ｆｏｕｒ－ｓ,,株式会社,東京都,杉並区,上井草２丁目１４番３号,,13,115,1670023,,,,,,,2021-08-04,1,,,,,フォース,0
74,1011303004116,新規,0,2021-08-04,2021-08-04,合同会社リガージェ,,合同会社,東京都,杉並区,高円寺南３丁目５８番１７号ハウスポート高円寺ビル３Ｆ,,13,115,1660003,,,,,,,2021-08-04,1,,,,,リガージェ,0
83,1011801039522,新規,0,2021-08-04,2021-08-04,株式会社ｂａｕｍｂｏｘ,,株式会社,東京都,足立区,東綾瀬２丁目３番１４－６０１号,,13,121,1200004,,,,,,,2021-08-04,1,,,,,バウムボックス,0
84,1011801039530,新規,0,2021-08-04,2021-08-04,株式会社ハイチーズ,,株式会社,東京都,葛飾区,堀切２丁目３３番１９号,,13,122,1240006,,,,,,,2021-08-04,1,,,,,,0
97,1013303005770,新規,0,2021-08-04,2021-08-04,合同会社Ｔｒａｄｉｎｇ　Ｈｕｂ,,合同会社,東京都,豊島区,上池袋３丁目１５－１６,,13,116,1700012,,,,,,,2021-08-04,1,,,,,トレーディングハブ,0
110,1020003020273,新規,0,2021-08-04,2021-08-04,西久保コーポレーション合同会社,,合同会社,神奈川県,横浜市戸塚区,矢部町１３８４番,,14,110,2440002,,,,,,,2021-08-04,1,,,,,ニシクボコーポレーション,0
115,1021001073569,新規,0,2021-08-04,2021-08-04,英輝総業株式会社,,株式会社,神奈川県,小田原市,小竹７３５番地の４９,,14,206,2560802,,,,,,,2021-08-04,1,,,,,エイコウソウギョウ,0
118,1021003010751,新規,0,2021-08-04,2021-08-04,ｍｉｒａｋａｎ合同会社,,合同会社,神奈川県,中郡二宮町,山西１１３番地の１７,,14,342,2590124,,,,,,,2021-08-04,1,,,,,ミラカン,0
119,1021003010768,新規,0,2021-08-04,2021-08-04,合同会社ＲＥＧＩＮＡ,,合同会社,神奈川県,厚木市,三田南２丁目１５番１８号,,14,212,2430217,,,,,,,2021-08-04,1,,,,,レジーナ,0
129,1030001143653,新規,0,2021-08-04,2021-08-04,株式会社Ｈｕｂさいたま,,株式会社,埼玉県,さいたま市大宮区,桜木町４丁目１４７番地３,,11,103,3300854,,,,,,,2021-08-04,1,,,,,ハブサイタマ,0
130,1030001143661,新規,0,2021-08-04,2021-08-04,株式会社ヤマト,,株式会社,埼玉県,熊谷市,江南中央３丁目７番地４,,11,202,3600114,,,,,,,2021-08-04,1,,,,,ヤマト,0
133,1030003017715,新規,0,2021-08-04,2021-08-04,ＫＵＲＩ　ＳＴＹＬＥ合同会社,,合同会社,埼玉県,さいたま市大宮区,桜木町２丁目４６７番地パシフィック１０３,,11,103,3300854,,,,,,,2021-08-04,1,,,,,クリスタイル,0
139,1040001119578,新規,0,2021-08-04,2021-08-04,株式会社行徳庭園緑花,,株式会社,千葉県,市川市,湊６番１４号マンション博１０２,,12,203,2720131,,,,,,,2021-08-04,1,,,,,ギョウトクテイエンリョクカ,0
140,1040001119603,新規,0,2021-08-04,2021-08-04,株式会社ＳＵＮＲＩＳＥ,,株式会社,千葉県,千葉市中央区,登戸２丁目４番２０号ＭＡＪＥＳＴＩＣ２０２号,,12,101,2600032,,,,,,,2021-08-04,1,,,,,サンライズ,0
141,1040001119693,新規,0,2021-08-04,2021-08-04,株式会社笑楽,,株式会社,千葉県,八千代市,八千代台西８丁目２３番２号,,12,221,2760034,,,,,,,2021-08-04,1,,,,,ショウラク,0
144,1040003018258,新規,0,2021-08-04,2021-08-04,合同会社Ｓｍａｒｔｙ　Ｐａｎｔｓ　Ｆａｃｔｏｒｙ　Ｊａｐａｎ,,合同会社,千葉県,千葉市緑区,誉田町２丁目２３番地１６９,,12,105,2660005,,,,,,,2021-08-04,1,,,,,スマーティーパンツファクトリージャパン,0
145,1040003018266,新規,0,2021-08-04,2021-08-04,市川アセットマネジメント合同会社,,合同会社,千葉県,市川市,行徳駅前１丁目１７番７－４０１号（コスモビル）,,12,203,2720133,,,,,,,2021-08-04,1,,,,,イチカワアセットマネジメント,0
146,1040003018282,新規,0,2021-08-04,2021-08-04,合同会社事業革新,,合同会社,千葉県,船橋市,湊町２丁目１－１８勝山ビル２Ｆ,,12,204,2730011,,,,,,,2021-08-04,1,,,,,ジギョウカクシン,0
148,1050001049642,新規,0,2021-08-04,2021-08-04,ＮＵＷＡＮ’Ｓ　ＳＰＡＲＫ株式会社,,株式会社,茨城県,稲敷郡美浦村,大字土屋１９７２番地１８９,,08,442,3000426,,,,,,,2021-08-04,1,,,,,ヌワンズスパーク,0
149,1050001049667,新規,0,2021-08-04,2021-08-04,株式会社ソーラーマネジメント,,株式会社,茨城県,東茨城郡大洗町,磯浜町１８８番地,,08,309,3111301,,,,,,,2021-08-04,1,,,,,ソーラーマネジメント,0
161,1080105006157,新規,0,2021-08-04,2021-08-04,一般社団法人フレンドリープレース,,その他の設立登記法人,静岡県,沼津市,西間門２８番地の３,,22,203,4100871,,,,,,,2021-08-04,1,,,,,フレンドリープレース,0
162,1080401025232,新規,0,2021-08-04,2021-08-04,株式会社うちのファーム,,株式会社,静岡県,磐田市,豊浜５１番地,,22,211,4371202,,,,,,,2021-08-04,1,,,,,ウチノファーム,0
163,1080401025240,新規,0,2021-08-04,2021-08-04,株式会社ＤＥＬＳＯＬ,,株式会社,静岡県,浜松市東区,常光町２２５番地の２,,22,132,4313103,,,,,,,2021-08-04,1,,,,,デルソル,0
171,1100003006198,新規,0,2021-08-04,2021-08-04,センスオブワンダー合同会社,,合同会社,長野県,松本市,村井町北１丁目９番４１号,,20,202,3990035,,,,,,,2021-08-04,1,,,,,センスオブワンダー,0
173,1110001035941,新規,0,2021-08-04,2021-08-04,株式会社喜志興業,,株式会社,新潟県,糸魚川市,上刈４丁目１２番２７号,,15,216,9410064,,,,,,,2021-08-04,1,,,,,キシコウギョウ,0
174,1110001035958,新規,0,2021-08-04,2021-08-04,Ｔ．Ｉ．Ｊ株式会社,,株式会社,新潟県,新潟市東区,紫竹２丁目６番１２号,,15,102,9500864,,,,,,,2021-08-04,1,,,,,ティーアイジェイ,0
181,1120001239483,新規,0,2021-08-04,2021-08-04,株式会社スピカアルファ,,株式会社,大阪府,大阪市浪速区,恵美須東３丁目２－４,,27,111,5560002,,,,,,,2021-08-04,1,,,,,スピカアルファ,0
192,1122001035045,新規,0,2021-08-04,2021-08-04,株式会社Ｒｅｌｕｍｅ,,株式会社,大阪府,八尾市,南植松町２丁目１番地の１グレイスゲート八尾１１１３号,,27,212,5810091,,,,,,,2021-08-04,1,,,,,レリューム,0
194,1130001069822,新規,0,2021-08-04,2021-08-04,株式会社つなぐ,,株式会社,京都府,京都市左京区,田中関田町２３－４エルマーナ出町柳１０５号室,,26,103,6068203,,,,,,,2021-08-04,1,,,,,ツナグ,0
195,1130001069863,新規,0,2021-08-04,2021-08-04,株式会社京都三千舎,,株式会社,京都府,京都市北区,小山中溝町３１アーバン紫園３０２号,,26,101,6038156,,,,,,,2021-08-04,1,,,,,キョウトサンゼンシャ,0
196,1130003007400,新規,0,2021-08-04,2021-08-04,ＭＡＮＨＮＧＡ合同会社,,合同会社,京都府,京都市下京区,七条通間之町東入材木町４６８番地１０６号,,26,106,6008146,,,,,,,2021-08-04,1,,,,,マンガ,0
197,1130005016242,新規,0,2021-08-04,2021-08-04,一般財団法人笠置育英会,,その他の設立登記法人,京都府,相楽郡笠置町,大字笠置小字笠置山２９番地,,26,364,6191303,,,,,,,2021-08-04,1,,,,,カサギイクエイカイ,0
207,1160003002349,新規,0,2021-08-04,2021-08-04,合同会社官兵衛,,合同会社,滋賀県,東近江市,ひばり丘町２番４－３０１号,,25,213,5270035,,,,,,,2021-08-04,1,,,,,カンベエ,0
215,1180001147177,新規,0,2021-08-04,2021-08-04,株式会社ファインドファシリティ,,株式会社,愛知県,名古屋市西区,則武新町４丁目４－２１－８０６号,,23,104,4510051,,,,,,,2021-08-04,1,,,,,ファインドファシリティ,0
216,1180001147251,新規,0,2021-08-04,2021-08-04,株式会社ユニオンサービス,,株式会社,愛知県,春日井市,八田町１丁目４番地１６,,23,206,4860849,,,,,,,2021-08-04,1,,,,,ユニオンサービス,0
217,1180001147284,新規,0,2021-08-04,2021-08-04,末原電機株式会社,,株式会社,愛知県,名古屋市緑区,太子１丁目３１８番地の１,,23,114,4580823,,,,,,,2021-08-04,1,,,,,スエハラデンキ,0
228,1180003022824,新規,0,2021-08-04,2021-08-04,合同会社正屋,,合同会社,愛知県,名古屋市南区,柴田町５丁目１１番地の２,,23,112,4570815,,,,,,,2021-08-04,1,,,,,マサヤ,0
230,1180301035230,新規,0,2021-08-04,2021-08-04,株式会社高村電気商会,00123834,株式会社,愛知県,安城市,川島町上屋敷２６番地,,23,212,4441152,,,,,,,2021-08-04,1,,,,,タカムラデンキショウカイ,0
231,1180301035247,新規,0,2021-08-04,2021-08-04,オトゥフ工業株式会社,,株式会社,愛知県,西尾市,丁田町中ノ切２９番地フラットサプレス市川Ａ棟２０号室,,23,213,4450062,,,,,,,2021-08-04,1,,,,,オトゥフコウギョウ,0
237,1190001028566,新規,0,2021-08-04,2021-08-04,株式会社竜吟虎嘯,,株式会社,三重県,多気郡多気町,ヴィソン６７２番地１マルシェ１５,,24,441,5192170,,,,,,,2021-08-04,1,,,,,リョウギンコショウ,0
238,1190001028590,新規,0,2021-08-04,2021-08-04,株式会社三重金型,,株式会社,三重県,桑名市,東正和台７丁目１４番地１,,24,205,5110932,,,,,,,2021-08-04,1,,,,,ミエカナガタ,0
240,1190003003740,新規,0,2021-08-04,2021-08-04,Ｂｏｍｂｙｘ　Ｍｏｒｉ　Ｉｎｄｕｓｔｒｙ４．５合同会社,,合同会社,三重県,松阪市,嬉野上小川町１８８８番地,,24,204,5152404,,,,,,,2021-08-04,1,,,,,ボンビックスモリインダストリーヨンテンゴ,0
244,1200001038976,新規,0,2021-08-04,2021-08-04,株式会社エステクノ,,株式会社,岐阜県,土岐市,下石町２９２番地,,21,212,5095202,,,,,,,2021-08-04,1,,,,,エステクノ,0
247,1210001018556,新規,0,2021-08-04,2021-08-04,株式会社ＭＩＮＯＲＵ建装,,株式会社,福井県,福井市,渕３丁目２６０１番地２,,18,201,9188026,,,,,,,2021-08-04,1,,,,,ミノルケンソウ,0
258,1240001058392,新規,0,2021-08-04,2021-08-04,Ｐａｄｍａ株式会社,,株式会社,広島県,呉市,三条２丁目３－１８－６０１,,34,202,7370821,,,,,,,2021-08-04,1,,,,,パドマ,0
263,1240003005228,新規,0,2021-08-04,2021-08-04,徳丸縫製合同会社,,合同会社,広島県,福山市,新市町大字新市９６３番地４,,34,207,7293103,,,,,,,2021-08-04,1,,,,,トクマルホウセイ,0
275,1260001035836,新規,0,2021-08-04,2021-08-04,株式会社マサト工業,,株式会社,岡山県,倉敷市,林２０５０番地７,,33,202,7100142,,,,,,,2021-08-04,1,,,,,マサトコウギョウ,0
276,1260001035852,新規,0,2021-08-04,2021-08-04,株式会社匠,,株式会社,岡山県,倉敷市,中島２１５７－１,,33,202,7100803,,,,,,,2021-08-04,1,,,,,タクミ,0
284,1290001094078,新規,0,2021-08-04,2021-08-04,株式会社ｗｅｂＬｉｎｘ,,株式会社,福岡県,福岡市中央区,天神１丁目１番１号ｆａｂｂｉｔ－Ｇｌｏｂａｌ－Ｇａｔｅｗａｙ－ＡＣＲＯＳ－Ｆｕｋｕｏｋａ,,40,133,8100001,,,,,,,2021-08-04,1,,,,,ウェブリンクス,0
285,1290003011469,新規,0,2021-08-04,2021-08-04,ＭＳ正山合同会社,,合同会社,福岡県,大牟田市,正山町１４８番地１,,40,202,8360845,,,,,,,2021-08-04,1,,,,,エムエスショウザン,0
289,1290803003896,新規,0,2021-08-04,2021-08-04,合同会社ＴＨＩＭＫ,,合同会社,福岡県,北九州市小倉北区,魚町２丁目１番７号ＡＣＴ松永ビル２階Ｂ号,,40,106,8020006,,,,,,,2021-08-04,1,,,,,シンク,0
290,1300001012574,新規,0,2021-08-04,2021-08-04,株式会社スマイルパートナー,,株式会社,佐賀県,神埼市,神埼町永歌１０３９番地２５,,41,210,8420004,,,,,,,2021-08-04,1,,,,,スマイルパートナー,0
292,1320001018529,新規,0,2021-08-04,2021-08-04,株式会社Ｒｉｓｉｎｇ,,株式会社,大分県,別府市,石垣東７丁目１番１９－１２０５号,,44,202,8740919,,,,,,,2021-08-04,1,,,,,ライジング,0
297,1330001028873,新規,0,2021-08-04,2021-08-04,株式会社トキタ建設,,株式会社,熊本県,上天草市,松島町阿村４２９５番地３,,43,212,8616101,,,,,,,2021-08-04,1,,,,,トキタケンセツ,0
298,1330001028881,新規,0,2021-08-04,2021-08-04,株式会社えり菜ヤノファーム,,株式会社,熊本県,菊池郡菊陽町,大字津久礼７８２番地５,,43,404,8691101,,,,,,,2021-08-04,1,,,,,エリナヤノファーム,0
301,1330003008997,新規,0,2021-08-04,2021-08-04,合同会社ブルームエバー,,合同会社,熊本県,熊本市南区,十禅寺２丁目１６番１８号,,43,104,8600824,,,,,,,2021-08-04,1,,,,,ブルームエバー,0
302,1330003009005,新規,0,2021-08-04,2021-08-04,合同会社楡木通商,,合同会社,熊本県,熊本市北区,楡木３丁目１番２３号,,43,105,8618083,,,,,,,2021-08-04,1,,,,,,0
307,1360003011338,新規,0,2021-08-04,2021-08-04,合同会社カーショップサンデーナゴ,,合同会社,沖縄県,中頭郡中城村,字新垣１８３１番地１,,47,328,9012422,,,,,,,2021-08-04,1,,,,,カーショップサンデーナゴ,0
309,1370001047424,新規,0,2021-08-04,2021-08-04,株式会社オリーブ,,株式会社,宮城県,仙台市青葉区,八幡２丁目１番２０号,,04,101,9800871,,,,,,,2021-08-04,1,,,,,オリーブ,0
310,1370001047440,新規,0,2021-08-04,2021-08-04,アポクレ株式会社,,株式会社,宮城県,仙台市泉区,南光台４丁目１１－３１,,04,105,9818003,,,,,,,2021-08-04,1,,,,,アポクレ,0
312,1370003005339,新規,0,2021-08-04,2021-08-04,ＹＯＩ－ＤＡＲＵＭＡ合同会社,,合同会社,宮城県,仙台市若林区,中倉３丁目９－２０－３０２,,04,103,9840821,,,,,,,2021-08-04,1,,,,,ヨイダルマ,0
321,1400001015550,新規,0,2021-08-04,2021-08-04,株式会社繁の森,,株式会社,岩手県,盛岡市,西見前１８地割３４番地１沼仁ビル２０６,,03,201,0200833,,,,,,,2021-08-04,1,,,,,シゲノモリ,0
322,1420001017537,新規,0,2021-08-04,2021-08-04,曽我バイオマス発電株式会社,,株式会社,青森県,三戸郡南部町,大字椛木字陣場３０番地,,02,445,0390812,,,,,,,2021-08-04,1,,,,,ソガバイオマスハツデン,0
332,1450001013434,新規,0,2021-08-04,2021-08-04,株式会社歩夢,,株式会社,北海道,旭川市,東旭川町下兵村５００番地の３,,01,204,0788208,,,,,,,2021-08-04,1,,,,,アユム,0
334,1460001005579,新規,0,2021-08-04,2021-08-04,株式会社フランス料理楡金,,株式会社,北海道,釧路市,文苑１丁目１５番３号,,01,206,0850063,,,,,,,2021-08-04,1,,,,,フランスリョウリニレガネ,0
336,1480001011451,新規,0,2021-08-04,2021-08-04,中川機工株式会社,,株式会社,徳島県,小松島市,金磯町１０番１０号,,36,203,7730007,,,,,,,2021-08-04,1,,,,,ナカガワキコウ,0
338,1500003002677,新規,0,2021-08-04,2021-08-04,合同会社さんど,,合同会社,愛媛県,今治市,大三島町宮浦５５１９,,38,202,7941304,,,,,,,2021-08-04,1,,,,,サンド,0
350,2010001220164,新規,0,2021-08-04,2021-08-04,株式会社日本インドネシア投資＆マネジメント,,株式会社,東京都,文京区,小石川３丁目２５番１１－４０７号,,13,105,1120002,,,,,,,2021-08-04,1,,,,,ニホンインドネシアトウシアンドマネジメント,0
351,2010001220206,新規,0,2021-08-04,2021-08-04,ぐっどぴーす株式会社,,株式会社,東京都,千代田区,神田佐久間町１丁目８番４号アルテール秋葉原７０８,,13,101,1010025,,,,,,,2021-08-04,1,,,,,グッドピース,0
362,2010401161727,新規,0,2021-08-04,2021-08-04,株式会社バッドアイディア,,株式会社,東京都,港区,南青山２丁目１３番７号,,13,103,1070062,,,,,,,2021-08-04,1,,,,,バッドアイディア,0
363,2010401161850,新規,0,2021-08-04,2021-08-04,株式会社デルムーン,,株式会社,東京都,港区,北青山２丁目７番２０号猪瀬ビル２Ｆ,,13,103,1070061,,,,,,,2021-08-04,1,,,,,デルムーン,0
364,2010401161859,新規,0,2021-08-04,2021-08-04,株式会社Ｌｉｙｄ,,株式会社,東京都,港区,高輪３丁目１１－８ザ・ヒルトップタワー,,13,103,1080074,,,,,,,2021-08-04,1,,,,,リード,0
365,2010401161917,新規,0,2021-08-04,2021-08-04,株式会社グランテック,,株式会社,東京都,港区,北青山２丁目７番９号,,13,103,1070061,,,,,,,2021-08-04,1,,,,,グランテック,0
372,2010403025839,新規,0,2021-08-04,2021-08-04,合同会社伊原脳機,,合同会社,東京都,港区,虎ノ門５丁目１番４号東都ビル２階,,13,103,1050001,,,,,,,2021-08-04,1,,,,,イハラノウキ,0
373,2010403025847,新規,0,2021-08-04,2021-08-04,合同会社ＴＳＭ１５９,,合同会社,東京都,港区,元赤坂１丁目１番７号,,13,103,1070051,,,,,,,2021-08-04,1,,,,,ティーエスエムヒャクゴジュウキュウ,0
377,2010601059721,新規,0,2021-08-04,2021-08-04,株式会社ｄＰｏｔ,,株式会社,東京都,墨田区,江東橋４丁目１６番３号,,13,107,1300022,,,,,,,2021-08-04,1,,,,,ディーポット,0
378,2010601059746,新規,0,2021-08-04,2021-08-04,株式会社Ｃｏｃｏｎ　ｄｅ　ｌｕｍｉｅｒｅ．,,株式会社,東京都,墨田区,横川２丁目９番４－３０２号,,13,107,1300003,,,,,,,2021-08-04,1,,,,,ココンドルミエール,0
379,2010603009006,新規,0,2021-08-04,2021-08-04,ｊａｐａｎ　ｓｈｏｐ　ｙａｍａｓｈｉｔａ合同会社,,合同会社,東京都,江東区,千田１６－１１小林ビル５０１,,13,108,1350013,,,,,,,2021-08-04,1,,,,,ジャパンショップヤマシタ,0
380,2010603009071,新規,0,2021-08-04,2021-08-04,合同会社華誠,,合同会社,東京都,墨田区,太平１丁目１５番３－８０３号,,13,107,1300012,,,,,,,2021-08-04,1,,,,,カセイ,0
382,2010801032197,新規,0,2021-08-04,2021-08-04,株式会社アラジン,,株式会社,東京都,大田区,仲六郷２丁目１１番６号,,13,111,1440055,,,,,,,2021-08-04,1,,,,,アラジン,0
384,2010901049224,新規,0,2021-08-04,2021-08-04,株式会社Ｓａｌｎｉｃｏ,,株式会社,東京都,世田谷区,池尻２丁目２１－８アートオブパークサイド３０１,,13,112,1540001,,,,,,,2021-08-04,1,,,,,サルニコ,0
385,2010903006702,新規,0,2021-08-04,2021-08-04,東門社合同会社,,合同会社,東京都,世田谷区,三軒茶屋１丁目４０番２号ハイシティ三軒茶屋第２－３０５,,13,112,1540024,,,,,,,2021-08-04,1,,,,,トウモンシャ,0
392,2011001142010,新規,0,2021-08-04,2021-08-04,株式会社ノール,,株式会社,東京都,渋谷区,神宮前１丁目１０番３２号,,13,113,1500001,,,,,,,2021-08-04,1,,,,,ノール,0
393,2011001142068,新規,0,2021-08-04,2021-08-04,株式会社円谷美装,,株式会社,東京都,目黒区,下目黒２丁目２２番１７号,,13,110,1530064,,,,,,,2021-08-04,1,,,,,ツブラヤビソウ,0
394,2011001142076,新規,0,2021-08-04,2021-08-04,株式会社サウナホリック,,株式会社,東京都,渋谷区,南平台町１７番１－２０６号,,13,113,1500036,,,,,,,2021-08-04,1,,,,,サウナホリック,0
405,2011303004115,新規,0,2021-08-04,2021-08-04,合同会社オーライ,,合同会社,東京都,杉並区,成田東５丁目２４番２号,,13,115,1660015,,,,,,,2021-08-04,1,,,,,オーライ,0
424,2020001142416,新規,0,2021-08-04,2021-08-04,オールマイト株式会社,,株式会社,神奈川県,川崎市多摩区,菅２丁目１５番３号,,14,135,2140001,,,,,,,2021-08-04,1,,,,,オールマイト,0
425,2020001142498,新規,0,2021-08-04,2021-08-04,株式会社ｃｌｏｃｈｅ,,株式会社,神奈川県,横浜市港南区,上永谷１丁目３５番４７－４０２号,,14,111,2330012,,,,,,,2021-08-04,1,,,,,クロッシュ,0
429,2020003020272,新規,0,2021-08-04,2021-08-04,合同会社渡辺商店,,合同会社,神奈川県,川崎市麻生区,王禅寺東５丁目４番２０号,,14,137,2150018,,,,,,,2021-08-04,1,,,,,ワタナベショウテン,0
435,2021003010767,新規,0,2021-08-04,2021-08-04,合同会社はまかぜ介護相談室三浦,,合同会社,神奈川県,三浦市,南下浦町金田１０２５ソレイユヒシヌマ２０３号,,14,210,2380103,,,,,,,2021-08-04,1,,,,,ハマカゼカイゴソウダンシツミウラ,0
437,2021005012266,新規,0,2021-08-04,2021-08-04,一般社団法人ＦｕＲｅＲｕ,,その他の設立登記法人,神奈川県,横須賀市,久里浜４丁目１３番１５号帝国堂ビル３階,,14,201,2390831,,,,,,,2021-08-04,1,,,,,フレル,0
442,2030001143719,新規,0,2021-08-04,2021-08-04,Ｇｌｏｂａｌ　Ｒｅｃｒｕｉｔｍｅｎｔ　Ｉｎｔｅｌｌｉｇｅｎｃｅ株式会社,,株式会社,埼玉県,川口市,元郷１丁目３番２号,,11,203,3320011,,,,,,,2021-08-04,1,,,,,グローバルリクルートメントインテリジェンス,0
450,2040001119643,新規,0,2021-08-04,2021-08-04,株式会社光源興業,,株式会社,千葉県,市川市,本北方３丁目１９番１０号,,12,203,2720816,,,,,,,2021-08-04,1,,,,,コウゲンコウギョウ,0
451,2040001119651,新規,0,2021-08-04,2021-08-04,株式会社ｗａｚｅｓｔ,,株式会社,千葉県,鎌ケ谷市,新鎌ケ谷３丁目６番７２－１号室,,12,224,2730107,,,,,,,2021-08-04,1,,,,,ウェイゼスト,0
456,2040003018265,新規,0,2021-08-04,2021-08-04,クレール合同会社,,合同会社,千葉県,夷隅郡大多喜町,小田代１１００番地,,12,441,2980265,,,,,,,2021-08-04,1,,,,,クレール,0
457,2040003018281,新規,0,2021-08-04,2021-08-04,合同会社ＮＯＮ,,合同会社,千葉県,東金市,台方１４１０番地３アトムビル２０２,,12,213,2830811,,,,,,,2021-08-04,1,,,,,エヌオーエヌ,0
460,2040005021300,新規,0,2021-08-04,2021-08-04,きょうの行政書士法人,,その他の設立登記法人,千葉県,白井市,冨士５５番地の３８,,12,232,2701432,,,,,,,2021-08-04,1,,,,,キョウノ,0
461,2050001049625,新規,0,2021-08-04,2021-08-04,株式会社セラドンライズ,,株式会社,茨城県,石岡市,柿岡４６６１番地５,,08,205,3150116,,,,,,,2021-08-04,1,,,,,セラドンライズ,0
462,2050001049641,新規,0,2021-08-04,2021-08-04,株式会社キッチニスタ,,株式会社,茨城県,筑西市,森添島１２４５番地,,08,227,3080861,,,,,,,2021-08-04,1,,,,,キッチニスタ,0
463,2050001049658,新規,0,2021-08-04,2021-08-04,茨城特工サービス株式会社,,株式会社,茨城県,ひたちなか市,大字足崎１２９２番地６,,08,221,3120003,,,,,,,2021-08-04,1,,,,,イバラキトッコウサービス,0
464,2050001049666,新規,0,2021-08-04,2021-08-04,ＳＡＫＵＲＡ　ＴＲＡＤＩＮＧ株式会社,,株式会社,茨城県,古河市,大山９５９番地７,,08,204,3060052,,,,,,,2021-08-04,1,,,,,サクラトレーディング,0
471,2060001033958,新規,0,2021-08-04,2021-08-04,株式会社ＫＮＹ　ＢＬＯＣＫ,,株式会社,栃木県,足利市,大沼田町１０６０番地２,,09,202,3260011,,,,,,,2021-08-04,1,,,,,ケーエヌワイブロック,0
472,2060001033966,新規,0,2021-08-04,2021-08-04,株式会社ベストサービス,,株式会社,栃木県,宇都宮市,中岡本町２９１９番地２１１,,09,201,3291105,,,,,,,2021-08-04,1,,,,,ベストサービス,0
478,2070001038329,新規,0,2021-08-04,2021-08-04,Ｍａｍａ　Ｓａｉｄ株式会社,,株式会社,群馬県,吾妻郡東吾妻町,大字原町４０５番地,,10,429,3770801,,,,,,,2021-08-04,1,,,,,,0
482,2080001024360,新規,0,2021-08-04,2021-08-04,株式会社アスタリスト,,株式会社,静岡県,島田市,元島田２８９番地の３,,22,209,4270057,,,,,,,2021-08-04,1,,,,,アスタリスト,0
483,2080001024369,新規,0,2021-08-04,2021-08-04,株式会社榮信塗装,,株式会社,静岡県,静岡市清水区,伊佐布３７６番地の６,,22,103,4240112,,,,,,,2021-08-04,1,,,,,エイシントソウ,0
484,2080101022702,新規,0,2021-08-04,2021-08-04,株式会社沼津通信,,株式会社,静岡県,沼津市,高島町２８－１５,,22,203,4100056,,,,,,,2021-08-04,1,,,,,ヌマヅツウシン,0
487,2090001017132,新規,0,2021-08-04,2021-08-04,株式会社リノアル,,株式会社,山梨県,甲府市,白井町１０４４番地１２,,19,201,4001502,,,,,,,2021-08-04,1,,,,,リノアル,0
490,2100001034464,新規,0,2021-08-04,2021-08-04,株式会社Ｏｆｆｉｃｅ　Ａｓａｎｏ,,株式会社,長野県,北佐久郡軽井沢町,大字長倉１７７７番１７号,,20,321,3890111,,,,,,,2021-08-04,1,,,,,オフィスアサノ,0
491,2100003006189,新規,0,2021-08-04,2021-08-04,合同会社芙和,,合同会社,長野県,松本市,大字和田８０００番地５５２,,20,202,3901242,,,,,,,2021-08-04,1,,,,,フワ,0
493,2110001035949,新規,0,2021-08-04,2021-08-04,越乃エステート株式会社,,株式会社,新潟県,上越市,大潟区上小船津浜１６８番地３,,15,222,9493114,,,,,,,2021-08-04,1,,,,,コシノエステート,0
507,2120001239516,新規,0,2021-08-04,2021-08-04,株式会社高田商店,00123831,株式会社,大阪府,大阪市生野区,新今里７丁目１０番２６号,,27,116,5440001,,,,,,,2021-08-04,1,,,,,タカダショウテン,0
508,2120001239549,新規,0,2021-08-04,2021-08-04,株式会社Ｊ－Ｍｏｒｅｓ,,株式会社,大阪府,大阪市中央区,瓦町４丁目３－１４御堂アーバンライフ４１２,,27,128,5410048,,,,,,,2021-08-04,1,,,,,ジェイモアーズ,0
509,2120001239573,新規,0,2021-08-04,2021-08-04,株式会社イマイル,,株式会社,大阪府,大阪市住之江区,北加賀谷２－１－２２,,27,125,5590000,,,,,,,2021-08-04,1,,,,,イマイル,0
520,2120101064079,新規,0,2021-08-04,2021-08-04,應治出版株式会社,,株式会社,大阪府,富田林市,喜志新家町２丁目８番２３号,,27,214,5840003,,,,,,,2021-08-04,1,,,,,オウジシュッパン,0
528,2130001069838,新規,0,2021-08-04,2021-08-04,株式会社サンタフェ,,株式会社,京都府,京都市中京区,東洞院竹屋町下る三本木五丁目４７０番地竹屋町法曹ビル２０３号,,26,104,6040000,,,,,,,2021-08-04,1,,,,,サンタフェ,0
529,2130001069846,新規,0,2021-08-04,2021-08-04,株式会社刀祢機設,,株式会社,京都府,京都市下京区,黒門通五条下る柿本町５９５番地１２９,,26,106,6008357,,,,,,,2021-08-04,1,,,,,トネキセツ,0
530,2130001069854,新規,0,2021-08-04,2021-08-04,株式会社花背計画,,株式会社,京都府,京都市左京区,花脊別所町２３７番地,,26,103,6011105,,,,,,,2021-08-04,1,,,,,ハナセケイカク,0
531,2130001069879,新規,0,2021-08-04,2021-08-04,株式会社宮﨑ボイラ工業所,00123830,株式会社,京都府,京都市山科区,勧修寺東栗栖野町４番地２５,,26,110,6078211,,,,,,,2021-08-04,1,,,,,ミヤザキボイラ,0
532,2130001069887,新規,0,2021-08-04,2021-08-04,株式会社ルクリエ,,株式会社,京都府,京都市東山区,祇園町北側３２２番地２ミキ会館２階,,26,105,6050073,,,,,,,2021-08-04,1,,,,,ルクリエ,0
533,2130003007399,新規,0,2021-08-04,2021-08-04,ＴＩＮ合同会社,,合同会社,京都府,京都市東山区,白川筋三条下る二丁目梅宮町４７４－１９,,26,105,6050000,,,,,,,2021-08-04,1,,,,,ティーアイエヌ,0
534,2130003007408,新規,0,2021-08-04,2021-08-04,制御ソフト本舗合同会社,,合同会社,京都府,宇治市,槇島町南落合６３番地の７,,26,204,6110041,,,,,,,2021-08-04,1,,,,,セイギョソフトホンポ,0
539,2140001122513,新規,0,2021-08-04,2021-08-04,株式会社Ｓｅｎｓ,,株式会社,兵庫県,神戸市中央区,加納町４丁目９番１４－５０２号,,28,110,6500001,,,,,,,2021-08-04,1,,,,,センズ,0
541,2140003016597,新規,0,2021-08-04,2021-08-04,国際美薬膳堂合同会社,,合同会社,兵庫県,南あわじ市,津井２０１１番地,,28,224,6560341,,,,,,,2021-08-04,1,,,,,コクサイビヤクゼンドウ,0
546,2160001023528,新規,0,2021-08-04,2021-08-04,株式会社ＤＲＯＰ,,株式会社,滋賀県,大津市,本堅田６丁目１５番２号,,25,201,5200242,,,,,,,2021-08-04,1,,,,,ドロップ,0
547,2160003002348,新規,0,2021-08-04,2021-08-04,合同会社ＵＢｏｏ,,合同会社,滋賀県,大津市,大江４丁目２９番８号,,25,201,5202141,,,,,,,2021-08-04,1,,,,,ウブー,0
548,2170001016704,新規,0,2021-08-04,2021-08-04,タケナカ機工株式会社,,株式会社,和歌山県,西牟婁郡上富田町,生馬１０１６番地３,,30,404,6492103,,,,,,,2021-08-04,1,,,,,タケナカキコウ,0
549,2170001016712,新規,0,2021-08-04,2021-08-04,株式会社優心,,株式会社,和歌山県,和歌山市,大谷４０２番地１,,30,201,6408472,,,,,,,2021-08-04,1,,,,,ユウシン,0
559,2180001147250,新規,0,2021-08-04,2021-08-04,株式会社ＡＮＤＥＡ,,株式会社,愛知県,名古屋市南区,鶴里町３丁目７１番地の１,,23,112,4570021,,,,,,,2021-08-04,1,,,,,アンディア,0
560,2180001147267,新規,0,2021-08-04,2021-08-04,ゆうびホーム株式会社,,株式会社,愛知県,稲沢市,祖父江町大牧明田８３９番地７,,23,220,4950014,,,,,,,2021-08-04,1,,,,,ユウビホーム,0
561,2180001147291,新規,0,2021-08-04,2021-08-04,株式会社玉垣工務店,,株式会社,愛知県,あま市,篠田棚田１番地３１,,23,237,4901211,,,,,,,2021-08-04,1,,,,,タマガキコウムテン,0
562,2180001147341,新規,0,2021-08-04,2021-08-04,東海オークション株式会社,,株式会社,愛知県,名古屋市中区,金山１丁目１１番１０号,,23,106,4600022,,,,,,,2021-08-04,1,,,,,トウカイオークション,0
568,2180003022749,新規,0,2021-08-04,2021-08-04,合同会社アルゲンテウス,,合同会社,愛知県,岩倉市,東町東市場屋敷７７番地,,23,228,4820041,,,,,,,2021-08-04,1,,,,,アルゲンテウス,0
569,2180003022798,新規,0,2021-08-04,2021-08-04,合同会社ｃｏｃｏｎｅｎｅ,,合同会社,愛知県,名古屋市名東区,猪高台１丁目１０２７番地,,23,115,4650028,,,,,,,2021-08-04,1,,,,,ココネネ,0
570,2180003022815,新規,0,2021-08-04,2021-08-04,合同会社ＫＳＰ,,合同会社,愛知県,名古屋市名東区,大針２丁目１３８番地,,23,115,4650064,,,,,,,2021-08-04,1,,,,,ケーエスピー,0
571,2180005019396,新規,0,2021-08-04,2021-08-04,司法書士法人ひまわり,,その他の設立登記法人,愛知県,名古屋市中区,栄２丁目２番２３号アーク白川公園ビルディング本館０７０１,,23,106,4600008,,,,,,,2021-08-04,1,,,,,ヒマワリ,0
577,2190001028565,新規,0,2021-08-04,2021-08-04,グロウエール株式会社,,株式会社,三重県,四日市市,生桑町１８２８番地１４,,24,202,5120911,,,,,,,2021-08-04,1,,,,,グロウエール,0
578,2190001028581,新規,0,2021-08-04,2021-08-04,株式会社ｃａｒ　ｓｈｏｐ　ＣＲＥＷ,,株式会社,三重県,南牟婁郡紀宝町,鵜殿１４７０番地５７,,24,562,5195701,,,,,,,2021-08-04,1,,,,,カーショップクルー,0
582,2190005011609,新規,0,2021-08-04,2021-08-04,医療法人貴明会,,その他の設立登記法人,三重県,伊賀市,東条７５番地１,,24,216,5180013,,,,,,,2021-08-04,1,,,,,キメイカイ,0
587,2200001038959,新規,0,2021-08-04,2021-08-04,Ｄｅｎｇｉｎｅ株式会社,,株式会社,岐阜県,関市,小屋名１１５２番地３,,21,205,5013941,,,,,,,2021-08-04,1,,,,,デンジン,0
588,2200001038975,新規,0,2021-08-04,2021-08-04,美濃利株式会社,,株式会社,岐阜県,岐阜市,打越６３番地５１,,21,201,5020802,,,,,,,2021-08-04,1,,,,,ミノリ,0
589,2200001038983,新規,0,2021-08-04,2021-08-04,株式会社ジーエス,,株式会社,岐阜県,岐阜市,細畑３丁目１４番２号,,21,201,5008238,,,,,,,2021-08-04,1,,,,,ジーエス,0
592,2210001018555,新規,0,2021-08-04,2021-08-04,セプテンバー・ナイン株式会社,,株式会社,福井県,福井市,灯明寺３丁目４５２４番地,,18,201,9100063,,,,,,,2021-08-04,1,,,,,セプテンバーナイン,0
593,2210001018563,新規,0,2021-08-04,2021-08-04,株式会社ＢＵＮ・ＴＡＴＵ,,株式会社,福井県,福井市,丸山１丁目１２１６番地３,,18,201,9100834,,,,,,,2021-08-04,1,,,,,ブンタツ,0
597,2240001058375,新規,0,2021-08-04,2021-08-04,株式会社友蘭,,株式会社,広島県,広島市東区,福田５丁目１８６８番地１６,,34,102,7320029,,,,,,,2021-08-04,1,,,,,ユウラン,0
598,2240001058383,新規,0,2021-08-04,2021-08-04,株式会社ハイジ６０,,株式会社,広島県,広島市安佐南区,相田１丁目６－２ナカハマビル２Ｆ,,34,105,7310141,,,,,,,2021-08-04,1,,,,,ハイジロクジュウ,0
599,2240001058400,新規,0,2021-08-04,2021-08-04,都市不動産開発株式会社,,株式会社,広島県,福山市,南蔵王町３丁目１４番２９号,,34,207,7210973,,,,,,,2021-08-04,1,,,,,トシフドウサンカイハツ,0
600,2240003005227,新規,0,2021-08-04,2021-08-04,合同会社Ｋｅ,,合同会社,広島県,三次市,三次町２０１４－４番,,34,209,7280021,,,,,,,2021-08-04,1,,,,,,0
605,2260001035843,新規,0,2021-08-04,2021-08-04,株式会社ＭＥＣ,,株式会社,岡山県,加賀郡吉備中央町,富永２３４番地,,33,681,7092553,,,,,,,2021-08-04,1,,,,,エムイーシー,0
606,2260001035851,新規,0,2021-08-04,2021-08-04,株式会社ガルボ,,株式会社,岡山県,岡山市北区,今７丁目１７番１９号,,33,101,7000975,,,,,,,2021-08-04,1,,,,,ガルボ,0
641,2330001028864,新規,0,2021-08-04,2021-08-04,株式会社Ｃｒｕｔｏ,,株式会社,熊本県,熊本市東区,下江津５丁目１０番２２号,,43,102,8620960,,,,,,,2021-08-04,1,,,,,クルト,0
642,2330001028889,新規,0,2021-08-04,2021-08-04,株式会社Ｔ．Ｎ．Ｋホールディングス,,株式会社,熊本県,熊本市北区,籠田七丁目３７番１３号,,43,105,8610000,,,,,,,2021-08-04,1,,,,,ティーエヌケーホールディングス,0
644,2330003008996,新規,0,2021-08-04,2021-08-04,合同会社クラフトラボ,,合同会社,熊本県,玉名市,立願寺１４３３番地２,,43,206,8650061,,,,,,,2021-08-04,1,,,,,クラフトラボ,0
645,2330003009004,新規,0,2021-08-04,2021-08-04,大本商店合同会社,,合同会社,熊本県,玉名郡長洲町,字新港３３３１番５,,43,368,8690100,,,,,,,2021-08-04,1,,,,,,0
653,2370001047423,新規,0,2021-08-04,2021-08-04,株式会社Ａｓｐｉｒａｔｉｏｎ,,株式会社,宮城県,名取市,愛の杜２丁目２８番地の２２,,04,207,9811230,,,,,,,2021-08-04,1,,,,,アスピレーション,0
655,2380003004990,新規,0,2021-08-04,2021-08-04,合同会社つなわたり,,合同会社,福島県,会津若松市,滝沢町５番４０号,,07,202,9650022,,,,,,,2021-08-04,1,,,,,,0
656,2390003001855,新規,0,2021-08-04,2021-08-04,合同会社ＫＡＯ,,合同会社,山形県,山形市,松山３丁目１２番２９－３０１号シンフォニア,,06,201,9902412,,,,,,,2021-08-04,1,,,,,ケイエイオー,0
658,2420001017536,新規,0,2021-08-04,2021-08-04,株式会社Ｎ．Ｇ．Ｎ　Ｃｏｒｐ．,,株式会社,青森県,八戸市,大字石手洗字駒ケ沢５番地１－Ｆ－２,,02,203,0310013,,,,,,,2021-08-04,1,,,,,エヌジーエヌコープ,0
664,2430003012988,新規,0,2021-08-04,2021-08-04,ロージー合同会社,,合同会社,北海道,札幌市北区,北三十八条西６丁目１－６－２０１,,01,102,0010038,,,,,,,2021-08-04,1,,,,,ロージー,0
666,2460001005578,新規,0,2021-08-04,2021-08-04,株式会社トビタ設備,,株式会社,北海道,釧路郡釧路町,新開４丁目７０番地１,,01,661,0880624,,,,,,,2021-08-04,1,,,,,トビタセツビ,0
678,2500001023600,新規,0,2021-08-04,2021-08-04,ＡＣＴＯＢＩＲＡ株式会社,,株式会社,愛媛県,松山市,久米窪田町３３７番地１テクノプラザ愛媛,,38,201,7911101,,,,,,,2021-08-04,1,,,,,アクトビラ,0
679,2500001023609,新規,0,2021-08-04,2021-08-04,株式会社グレス,,株式会社,愛媛県,新居浜市,久保田町３丁目８番３４号,,38,205,7920026,,,,,,,2021-08-04,1,,,,,グレス,0
699,3010001220163,新規,0,2021-08-04,2021-08-04,株式会社ＯＫＩ,,株式会社,東京都,中央区,銀座８丁目６番１８号奥村プラッツビル４階,,13,102,1040061,,,,,,,2021-08-04,1,,,,,オーケーアイ,0
704,3010003035485,新規,0,2021-08-04,2021-08-04,合同会社ご縁,,合同会社,東京都,千代田区,東神田２丁目７番２－１２０５号,,13,101,1010031,,,,,,,2021-08-04,1,,,,,ゴエン,0
705,3010003035493,新規,0,2021-08-04,2021-08-04,日本ＢＰＭシステム合同会社,,合同会社,東京都,文京区,湯島３丁目１６番１１－１００２号,,13,105,1130034,,,,,,,2021-08-04,1,,,,,ニホンビーピーエムシステム,0
710,3010401161874,新規,0,2021-08-04,2021-08-04,株式会社イフペック,,株式会社,東京都,港区,白金３丁目１番１３号日恵ビル２階,,13,103,1080072,,,,,,,2021-08-04,1,,,,,イフペック,0
714,3010403025838,新規,0,2021-08-04,2021-08-04,ｋｙｏｐａｌａｂ合同会社,,合同会社,東京都,港区,港南３丁目７番１６－２５０８号,,13,103,1080075,,,,,,,2021-08-04,1,,,,,キョパラボ,0
715,3010405020093,新規,0,2021-08-04,2021-08-04,ＰＪＭＦ　Ｉｎｖｅｓｔｍｅｎｔｓ特定目的会社,,その他の設立登記法人,東京都,港区,元赤坂１丁目１番７－１００６号,,13,103,1070051,,,,,,,2021-08-04,1,,,,,ピージェーエムエフインベストメンツ,0
721,3010803003848,新規,0,2021-08-04,2021-08-04,合同会社恒和,,合同会社,東京都,大田区,北嶺町２２番５号,,13,111,1450073,,,,,,,2021-08-04,1,,,,,コウワ,0
724,3010901049215,新規,0,2021-08-04,2021-08-04,株式会社ｂｒａｃｋｅｔｓ,,株式会社,東京都,世田谷区,北沢１丁目１４－７,,13,112,1550031,,,,,,,2021-08-04,1,,,,,ブラケッツ,0
733,3011001142026,新規,0,2021-08-04,2021-08-04,リデザイン・パートナーズ株式会社,,株式会社,東京都,渋谷区,元代々木町４９番１７号,,13,113,1510062,,,,,,,2021-08-04,1,,,,,リデザインパートナーズ,0
734,3011001142034,新規,0,2021-08-04,2021-08-04,株式会社Ｍａｍ４３,,株式会社,東京都,渋谷区,神宮前３丁目３７番１－９１２号,,13,113,1500001,,,,,,,2021-08-04,1,,,,,マムヨンジュウサン,0
735,3011001142059,新規,0,2021-08-04,2021-08-04,株式会社ＤＩＧＩＴＡＬ　ＳＱＵＡＤ,,株式会社,東京都,渋谷区,渋谷２丁目１９番１５－６０９号宮益坂ビルディング,,13,113,1500002,,,,,,,2021-08-04,1,,,,,デジタルスクワッド,0
736,3011001142067,新規,0,2021-08-04,2021-08-04,株式会社ＴＲＹＰＯＤ,,株式会社,東京都,目黒区,駒場１丁目５番２－４０１号,,13,110,1530041,,,,,,,2021-08-04,1,,,,,トライポッド,0
737,3011001142075,新規,0,2021-08-04,2021-08-04,株式会社ＥＧＭＯＮＴ,,株式会社,東京都,目黒区,三田１丁目４番３－１５０６号恵比寿ガーデンテラス壱番館,,13,110,1530062,,,,,,,2021-08-04,1,,,,,エグモント,0
738,3011001142100,新規,0,2021-08-04,2021-08-04,株式会社ＣＬＥＡＲ,,株式会社,東京都,渋谷区,東２丁目５番３８号,,13,113,1500011,,,,,,,2021-08-04,1,,,,,クリアー,0
744,3011105009897,新規,0,2021-08-04,2021-08-04,一般社団法人日中教育促進会,,その他の設立登記法人,東京都,新宿区,大久保２丁目１９番４号いせ市ビル５階,,13,104,1690072,,,,,,,2021-08-04,1,,,,,ニッチュウキョウイクソクシンカイ,0
750,3011501027189,新規,0,2021-08-04,2021-08-04,株式会社Ｐｉｏｎｎｉｅｒ,,株式会社,東京都,北区,赤羽南１丁目２２番７号奥村コーポ２０２号,,13,117,1150044,,,,,,,2021-08-04,1,,,,,ピオニエ,0
752,3011801039529,新規,0,2021-08-04,2021-08-04,アトラップ株式会社,,株式会社,東京都,足立区,中川３丁目２０番１５号ツエルマット１０７号室,,13,121,1200002,,,,,,,2021-08-04,1,,,,,,0
753,3011801039537,新規,0,2021-08-04,2021-08-04,株式会社介護サポートマネジメントサービス,,株式会社,東京都,葛飾区,青戸１丁目９番２３号ジュネパレス葛飾第１－２Ｆ,,13,122,1250062,,,,,,,2021-08-04,1,,,,,カイゴサポートマネジメントサービス,0
754,3011801039545,新規,0,2021-08-04,2021-08-04,株式会社梶田建設,,株式会社,東京都,足立区,中央本町３丁目１６番２２号サイジョウビル２０１,,13,121,1210011,,,,,,,2021-08-04,1,,,,,カジタケンセツ,0
757,3012805003041,新規,0,2021-08-04,2021-08-04,一般社団法人ソーシャル・キャピタル共創機構,,その他の設立登記法人,東京都,日野市,多摩平２丁目５番地１多摩平の森産業連携センターＰｌａｎＴ,,13,212,1910062,,,,,,,2021-08-04,1,,,,,ソーシャルキャピタルキョウソウキコウ,0
762,3013301047813,新規,0,2021-08-04,2021-08-04,株式会社メディルート,,株式会社,東京都,豊島区,池袋３丁目３４番７号ビジネスパーク池袋２階,,13,116,1710014,,,,,,,2021-08-04,1,,,,,メディルート,0
763,3013303005769,新規,0,2021-08-04,2021-08-04,合同会社ＫＰパートナーズ,,合同会社,東京都,豊島区,西池袋３丁目２１番１３－３０４号,,13,116,1710021,,,,,,,2021-08-04,1,,,,,ケイピイパートナーズ,0
772,3020001142464,新規,0,2021-08-04,2021-08-04,ＩＴＳＪ－Ｇ株式会社,,株式会社,神奈川県,横浜市中区,南仲通４丁目３９番２号箕田関内ビル,,14,104,2310006,,,,,,,2021-08-04,1,,,,,アイティーエスジェイジー,0
777,3020003020263,新規,0,2021-08-04,2021-08-04,ワイ・ティマネジメント合同会社,,合同会社,神奈川県,横浜市戸塚区,品濃町５６２番地４プレミスト東戸塚３１０号,,14,110,2440801,,,,,,,2021-08-04,1,,,,,ワイティマネジメント,0
779,3021001073600,新規,0,2021-08-04,2021-08-04,株式会社クロネコ解析,,株式会社,神奈川県,座間市,ひばりが丘２丁目３８番７号,,14,216,2520003,,,,,,,2021-08-04,1,,,,,クロネコカイセキ,0
788,3030001143619,新規,0,2021-08-04,2021-08-04,株式会社Ｔ．ＦＡＣＴＯＲＹ,,株式会社,埼玉県,加須市,鴻茎１６番地４,,11,210,3470111,,,,,,,2021-08-04,1,,,,,ティーファクトリー,0
789,3030001143718,新規,0,2021-08-04,2021-08-04,株式会社ＮＥＸＴＲＹＺ,,株式会社,埼玉県,羽生市,南羽生４丁目１番５号,,11,216,3480071,,,,,,,2021-08-04,1,,,,,ネクストライズ,0
794,3030005020459,新規,0,2021-08-04,2021-08-04,一般社団法人ＡＮＳＡＲＵＤＤＥＥＮ,,その他の設立登記法人,埼玉県,ふじみ野市,大井１丁目３番２２号,,11,245,3560053,,,,,,,2021-08-04,1,,,,,アンサルディーン,0
803,3040001119618,新規,0,2021-08-04,2021-08-04,株式会社ＳＲＴ,,株式会社,千葉県,袖ケ浦市,横田９９２番地１,,12,229,2990236,,,,,,,2021-08-04,1,,,,,エスアールティー,0
804,3040001119626,新規,0,2021-08-04,2021-08-04,株式会社ＹＭＤ工房,,株式会社,千葉県,千葉市稲毛区,長沼町３０番地２１アンビション長沼Ａ２０２号,,12,103,2630005,,,,,,,2021-08-04,1,,,,,ワイエムディコウボウ,0
805,3040001119683,新規,0,2021-08-04,2021-08-04,ＴＯＬＥ株式会社,,株式会社,千葉県,野田市,尾崎７９３番地の４４,,12,208,2700235,,,,,,,2021-08-04,1,,,,,トゥーレ,0
807,3040003018223,新規,0,2021-08-04,2021-08-04,ＭＥＮＬＯ　ＰＡＲＫ　ＣＡＰＩＴＡＬ合同会社,,合同会社,千葉県,市川市,湊１番１８－２０１号,,12,203,2720131,,,,,,,2021-08-04,1,,,,,メンロパークキャピタル,0
808,3040003018280,新規,0,2021-08-04,2021-08-04,合同会社あんばい,,合同会社,千葉県,印西市,木下１３８６番地印西ビジネスセンター２階８号室,,12,231,2701326,,,,,,,2021-08-04,1,,,,,アンバイ,0
813,3050001049640,新規,0,2021-08-04,2021-08-04,隼ライン株式会社,,株式会社,茨城県,古河市,大山１７２７番地２,,08,204,3060052,,,,,,,2021-08-04,1,,,,,ハヤブサライン,0
814,3050001049665,新規,0,2021-08-04,2021-08-04,株式会社アトム,,株式会社,茨城県,牛久市,上柏田４丁目７番地７７,,08,219,3001232,,,,,,,2021-08-04,1,,,,,アトム,0
817,3050003006012,新規,0,2021-08-04,2021-08-04,合同会社アートマン,,合同会社,茨城県,日立市,多賀町３丁目３番９号,,08,202,3160003,,,,,,,2021-08-04,1,,,,,アートマン,0
819,3060001033957,新規,0,2021-08-04,2021-08-04,株式会社剛鉄筋工業,,株式会社,栃木県,さくら市,松島５５９番地１３,,09,214,3291331,,,,,,,2021-08-04,1,,,,,ゴウテッキンコウギョウ,0
820,3060001033965,新規,0,2021-08-04,2021-08-04,株式会社ＷＡＧＵ,,株式会社,栃木県,宇都宮市,中戸祭１丁目１１番１４号ロイヤルハイツ高木Ａ２０２,,09,201,3200057,,,,,,,2021-08-04,1,,,,,ワグ,0
827,3080001024368,新規,0,2021-08-04,2021-08-04,株式会社あそびば,,株式会社,静岡県,静岡市駿河区,向敷地２５３番地の７,,22,102,4210101,,,,,,,2021-08-04,1,,,,,アソビバ,0
831,3080401025239,新規,0,2021-08-04,2021-08-04,株式会社ＧＡＲＡＧＥ　ＰＥＲＦＯＲＭＡＮＣＥ,,株式会社,静岡県,浜松市浜北区,宮口４４７１番地の１,,22,136,4340004,,,,,,,2021-08-04,1,,,,,ガレージパフォーマンス,0
832,3080401025247,新規,0,2021-08-04,2021-08-04,丸八加藤商店株式会社,,株式会社,静岡県,磐田市,豊浜中野９７２番地７,,22,211,4371201,,,,,,,2021-08-04,1,,,,,マルハチカトウショウテン,0
836,3100003006196,新規,0,2021-08-04,2021-08-04,合同会社ＳＡＫＵＲＡＩＲＯ,,合同会社,長野県,諏訪郡下諏訪町,４７７０番地１８,,20,361,3930000,,,,,,,2021-08-04,1,,,,,サクライロ,0
850,3120001239564,新規,0,2021-08-04,2021-08-04,株式会社堀総合不動産,,株式会社,大阪府,大阪市中央区,北浜２丁目１番２号,,27,128,5410041,,,,,,,2021-08-04,1,,,,,ホリソウゴウフドウサン,0
858,3120101064078,新規,0,2021-08-04,2021-08-04,株式会社らん藥,,株式会社,大阪府,堺市堺区,南田出井町３丁３－２２,,27,141,5900015,,,,,,,2021-08-04,1,,,,,ランヤク,0
859,3120101064103,新規,0,2021-08-04,2021-08-04,株式会社ベストサポート,,株式会社,大阪府,堺市西区,北条町１丁８番１６号,,27,144,5938302,,,,,,,2021-08-04,1,,,,,ベストサポート,0
862,3120105009434,新規,0,2021-08-04,2021-08-04,八田西キリスト教会,,その他の設立登記法人,大阪府,堺市中区,八田西町２丁１５番３号,,27,142,5998265,,,,,,,2021-08-04,1,,,,,ハッタニシキリストキョウカイ,0
867,3130001069837,新規,0,2021-08-04,2021-08-04,ＳＴＯＲＩＥＤ株式会社,,株式会社,京都府,京都市下京区,石不動之町６８２－６,,26,106,6008047,,,,,,,2021-08-04,1,,,,,ストリド,0
868,3130001069845,新規,0,2021-08-04,2021-08-04,株式会社Ｍ．Ｍ．Ｂ,,株式会社,京都府,亀岡市,篠町広田２丁目３１番７号,,26,206,6210834,,,,,,,2021-08-04,1,,,,,エムエムビー,0
869,3130001069853,新規,0,2021-08-04,2021-08-04,株式会社ＤＡＦＦＹ,,株式会社,京都府,京都市左京区,下鴨南野々神町２－６ＫＩＴＡＹＡＭＡＣＲＯＳＳＰＯＩＮＴ４０１,,26,103,6060847,,,,,,,2021-08-04,1,,,,,ダフィ,0
870,3130003007407,新規,0,2021-08-04,2021-08-04,井口庖丁本店合同会社,,合同会社,京都府,京都市下京区,朱雀宝蔵町６２,,26,106,6008846,,,,,,,2021-08-04,1,,,,,イグチホウチョウホンテン,0
880,3140001122512,新規,0,2021-08-04,2021-08-04,株式会社Ｐｒｏｆｅｓｓｉｏｎａｌ,,株式会社,兵庫県,尼崎市,武庫之荘９丁目２９番１号レトア武庫之荘Ｂ棟１０２号,,28,202,6610035,,,,,,,2021-08-04,1,,,,,プロフェッショナル,0
881,3140001122561,新規,0,2021-08-04,2021-08-04,株式会社光優建設,,株式会社,兵庫県,三田市,南が丘２丁目２番７号,,28,219,6691535,,,,,,,2021-08-04,1,,,,,コウユウケンセツ,0
884,3140003016596,新規,0,2021-08-04,2021-08-04,合同会社ＨＯＫＯＨＯＫＯ,,合同会社,兵庫県,伊丹市,安堂寺町４丁目１１３番地,,28,207,6640864,,,,,,,2021-08-04,1,,,,,ホコホコ,0
886,3160003002347,新規,0,2021-08-04,2021-08-04,通販エクスプレス合同会社,,合同会社,滋賀県,草津市,平井１丁目７番１４号,,25,206,5250023,,,,,,,2021-08-04,1,,,,,ツウハンエクスプレス,0
888,3170001016703,新規,0,2021-08-04,2021-08-04,株式会社西岡オートサービス,,株式会社,和歌山県,伊都郡かつらぎ町,大字高田６３７番地の４,,30,341,6497166,,,,,,,2021-08-04,1,,,,,ニシオカオートサービス,0
889,3170003001612,新規,0,2021-08-04,2021-08-04,合同会社ＳＧＮ,,合同会社,和歌山県,和歌山市,井辺２０２番地２,,30,201,6408302,,,,,,,2021-08-04,1,,,,,エスジーエヌ,0
902,3180001147332,新規,0,2021-08-04,2021-08-04,株式会社うな幸,,株式会社,愛知県,長久手市,前熊溝下８０番地６,,23,238,4801102,,,,,,,2021-08-04,1,,,,,ウナコウ,0
908,3180005019395,新規,0,2021-08-04,2021-08-04,ブリッジング協同組合,,その他の設立登記法人,愛知県,小牧市,大字西之島２１２１番地３,,23,219,4850077,,,,,,,2021-08-04,1,,,,,ブリッジング,0
912,3180303005072,新規,0,2021-08-04,2021-08-04,ｅｔｅｒｎａｌ合同会社,,合同会社,愛知県,豊橋市,岩崎町字森９番地の３,,23,201,4400022,,,,,,,2021-08-04,1,,,,,エターナル,0
914,3190001028564,新規,0,2021-08-04,2021-08-04,株式会社松永商店,,株式会社,三重県,亀山市,東御幸町２２２番地,,24,210,5190124,,,,,,,2021-08-04,1,,,,,マツナガショウテン,0
915,3190001028589,新規,0,2021-08-04,2021-08-04,株式会社結,,株式会社,三重県,津市,雲出本郷町１５３７番地１１,,24,201,5140304,,,,,,,2021-08-04,1,,,,,ムスビ,0
917,3190003003739,新規,0,2021-08-04,2021-08-04,合同会社サンホウ稲葉,,合同会社,三重県,松阪市,久保田町１１４番地４,,24,204,5150814,,,,,,,2021-08-04,1,,,,,サンホウイナバ,0
921,3200001038990,新規,0,2021-08-04,2021-08-04,株式会社雅,,株式会社,岐阜県,山県市,梅原２２６７番地２７,,21,215,5012115,,,,,,,2021-08-04,1,,,,,ミヤビ,0
935,3240001058366,新規,0,2021-08-04,2021-08-04,株式会社ユニティスクエア,,株式会社,広島県,広島市中区,吉島町５番２１－５１０号,,34,101,7300821,,,,,,,2021-08-04,1,,,,,ユニティスクエア,0
936,3240001058382,新規,0,2021-08-04,2021-08-04,株式会社ＰＬＡＮＴ　ＥＮＧＩＮＥＥＲＩＮＧ,,株式会社,広島県,広島市東区,矢賀新町５丁目９番１２－３０１号,,34,102,7320044,,,,,,,2021-08-04,1,,,,,プラントエンジニアリング,0
938,3240003005218,新規,0,2021-08-04,2021-08-04,合同会社翠パートナーズ,,合同会社,広島県,東広島市,志和町別府７４９番地１６,,34,212,7390267,,,,,,,2021-08-04,1,,,,,ミドリパートナーズ,0
947,3260001035801,新規,0,2021-08-04,2021-08-04,株式会社しいたけ,,株式会社,岡山県,倉敷市,宮前５１２番地カンパーニャ・ワン２０２,,33,202,7100065,,,,,,,2021-08-04,1,,,,,シイタケ,0
948,3260001035834,新規,0,2021-08-04,2021-08-04,株式会社ケイアイ工業,,株式会社,岡山県,岡山市中区,浜１丁目４番２３号,,33,102,7038256,,,,,,,2021-08-04,1,,,,,ケイアイコウギョウ,0
949,3260001035842,新規,0,2021-08-04,2021-08-04,株式会社赤塚コンタクト,00123838,株式会社,岡山県,倉敷市,笹沖１３２８番地１,,33,202,7100834,,,,,,,2021-08-04,1,,,,,アカツカコンタクト,0
950,3260001035850,新規,0,2021-08-04,2021-08-04,ゆず株式会社,,株式会社,岡山県,津山市,野村３０３番地１,,33,203,7081116,,,,,,,2021-08-04,1,,,,,ユズ,0
956,3280001008490,新規,0,2021-08-04,2021-08-04,株式会社オバラダクト,,株式会社,島根県,松江市,東津田町８０９番地１,,32,201,6900011,,,,,,,2021-08-04,1,,,,,オバラダクト,0
962,3290001094101,新規,0,2021-08-04,2021-08-04,株式会社ＯＤＡＰＬ,,株式会社,福岡県,福岡市中央区,警固２丁目１７番３０号,,40,133,8100023,,,,,,,2021-08-04,1,,,,,オーディーエーピーエル,0
966,3290005018312,新規,0,2021-08-04,2021-08-04,ルピナス税理士法人,,その他の設立登記法人,福岡県,福岡市中央区,大名２丁目１１番１３号大名偕成ビル８階,,40,133,8100041,,,,,,,2021-08-04,1,,,,,ルピナス,0
970,3290803003894,新規,0,2021-08-04,2021-08-04,合同会社エイト,,合同会社,福岡県,北九州市八幡西区,泉ケ浦２丁目２２番６号,,40,109,8070854,,,,,,,2021-08-04,1,,,,,エイト,0
975,3300003001706,新規,0,2021-08-04,2021-08-04,合同会社ななほし,,合同会社,佐賀県,佐賀市,大和町大字東山田１６０６番地２,,41,201,8400211,,,,,,,2021-08-04,1,,,,,ナナホシ,0
976,3310001017406,新規,0,2021-08-04,2021-08-04,スライブ電気株式会社,,株式会社,長崎県,大村市,須田ノ木町７６３番地４,,42,205,8560047,,,,,,,2021-08-04,1,,,,,スライブデンキ,0
980,3320001018510,新規,0,2021-08-04,2021-08-04,株式会社スマートキャスター,,株式会社,大分県,別府市,弓ケ浜町１番２６号弓ケ浜コーポＣ－３号,,44,202,8740927,,,,,,,2021-08-04,1,,,,,スマートキャスター,0
981,3320001018527,新規,0,2021-08-04,2021-08-04,ＭＹＮワーカー株式会社,,株式会社,大分県,由布市,挾間町東院１７５３番地１３,,44,213,8795510,,,,,,,2021-08-04,1,,,,,マインワーカー,0
983,3320003003592,新規,0,2021-08-04,2021-08-04,合同会社ナウアルカ,,合同会社,大分県,豊後高田市,来縄２１０番地５,,44,209,8790614,,,,,,,2021-08-04,1,,,,,ナウアルカ,0
985,3330001028855,新規,0,2021-08-04,2021-08-04,株式会社りんどう薬局,,株式会社,熊本県,八代市,永碇町１２４５番地２,,43,202,8660885,,,,,,,2021-08-04,1,,,,,リンドウヤッキョク,0
986,3330001028871,新規,0,2021-08-04,2021-08-04,株式会社ＷＯＯＳＵＮＧ　ＦＯＯＤ,,株式会社,熊本県,熊本市中央区,上通町１１番１号ＴＭＧビル１階,,43,101,8600845,,,,,,,2021-08-04,1,,,,,ウソンフード,0
987,3330001028888,新規,0,2021-08-04,2021-08-04,ＳＤＧ株式会社,,株式会社,熊本県,熊本市東区,長嶺東３丁目３番６１号,,43,102,8618038,,,,,,,2021-08-04,1,,,,,エスディージー,0
990,3330003009003,新規,0,2021-08-04,2021-08-04,合同会社Ｔ・ＰＬＡＮ,,合同会社,熊本県,熊本市東区,戸島１丁目１８番３１－２０５号,,43,102,8618041,,,,,,,2021-08-04,1,,,,,ティープラン,0
991,3340001023995,新規,0,2021-08-04,2021-08-04,株式会社ＧｉＶＥＲ,,株式会社,鹿児島県,伊佐市,大口小木原８８７番地１２,,46,224,8952631,,,,,,,2021-08-04,1,,,,,ギバー,0
997,3380001032084,新規,0,2021-08-04,2021-08-04,ボデーショップナラハ株式会社,,株式会社,福島県,双葉郡楢葉町,大字上繁岡字二枚橋１１５番地の５,,07,542,9790606,,,,,,,2021-08-04,1,,,,,ボデーショップナラハカ,0
998,3380001032101,新規,0,2021-08-04,2021-08-04,株式会社Ｒｅ．Ｌｉｇｈｔ,,株式会社,福島県,郡山市,富田町字中亀田３５番５号,,07,203,9638041,,,,,,,2021-08-04,1,,,,,,0
1008,3400001015549,新規,0,2021-08-04,2021-08-04,小野寺木材株式会社,,株式会社,岩手県,九戸郡軽米町,大字晴山第７地割８８番地１,,03,501,0286221,,,,,,,2021-08-04,1,,,,,オノデラモクザイ,0
1009,3400001015557,新規,0,2021-08-04,2021-08-04,株式会社ファンドポート,,株式会社,岩手県,八幡平市,大更２５－１１３起業家支援センター１Ｆ,,03,214,0287111,,,,,,,2021-08-04,1,,,,,ファンドポート,0
1010,3400003002818,新規,0,2021-08-04,2021-08-04,合同会社くるまやさん,,合同会社,岩手県,花巻市,東宮野目第１０地割７８番３号,,03,205,0250003,,,,,,,2021-08-04,1,,,,,クルマヤサン,0
1013,3420001017535,新規,0,2021-08-04,2021-08-04,ＭＩＳＡＫＩコーポレーション株式会社,,株式会社,青森県,青森市,長島２丁目１３番地１号,,02,201,0300861,,,,,,,2021-08-04,1,,,,,ミサキコーポレーション,0
1023,3460001005577,新規,0,2021-08-04,2021-08-04,株式会社Ａ・ＬＡＴＯ,,株式会社,北海道,厚岸郡浜中町,茶内西１０線１２４番地,,01,663,0881369,,,,,,,2021-08-04,1,,,,,アラート,0
1026,3460103001391,新規,0,2021-08-04,2021-08-04,ＭＡＫＩＡ合同会社,,合同会社,北海道,帯広市,西九条南１８丁目５番地１,,01,207,0800019,,,,,,,2021-08-04,1,,,,,マキア,0
1031,3470001018652,新規,0,2021-08-04,2021-08-04,株式会社エスヒノマル,,株式会社,香川県,小豆郡小豆島町,馬木甲９２３番地,,37,324,7614426,,,,,,,2021-08-04,1,,,,,エスヒノマル,0
1039,3490001009955,新規,0,2021-08-04,2021-08-04,株式会社三英重設,,株式会社,高知県,高知市,薊野東町３番５号,,39,201,7810012,,,,,,,2021-08-04,1,,,,,サンエイジュウセツ,0
1045,3500001023608,新規,0,2021-08-04,2021-08-04,株式会社Ｒａｓｔａ　Ｃｏｎｓｕｌｔａｎｔ,,株式会社,愛媛県,松山市,一番町１丁目５番地１４八束ビル２０３,,38,201,7900001,,,,,,,2021-08-04,1,,,,,ラスタコンサルタント,0
1047,3500003002675,新規,0,2021-08-04,2021-08-04,合同会社英都企画,,合同会社,愛媛県,八幡浜市,五反田１番耕地４８６番地１,,38,204,7968010,,,,,,,2021-08-04,1,,,,,エイトキカク,0
1060,4010003035484,新規,0,2021-08-04,2021-08-04,合同会社Ｎｏｖｉｃｅ,,合同会社,東京都,千代田区,東神田２丁目７番２－１２０５号,,13,101,1010031,,,,,,,2021-08-04,1,,,,,ノバイス,0
1061,4010003035492,新規,0,2021-08-04,2021-08-04,ＧＰＤさくら合同会社,,合同会社,東京都,千代田区,一ツ橋２丁目５番５号,,13,101,1010003,,,,,,,2021-08-04,1,,,,,ジーピーディーサクラ,0
1071,4010401161758,新規,0,2021-08-04,2021-08-04,プロティア・ソフトウェアサービス株式会社,,株式会社,東京都,港区,虎ノ門４丁目１番１３号プライムテラス神谷町７階,,13,103,1050001,,,,,,,2021-08-04,1,,,,,プロティアソフトウェアサービス,0
1072,4010401161799,新規,0,2021-08-04,2021-08-04,株式会社ＡＲＴＴＯＤＡＹ,,株式会社,東京都,港区,南青山１丁目２４番３号,,13,103,1070062,,,,,,,2021-08-04,1,,,,,アートトゥデイ,0
1073,4010401161832,新規,0,2021-08-04,2021-08-04,ＣＬ　Ｓｐｅｃｉａｌｔｙ株式会社,,株式会社,東京都,港区,赤坂９丁目１番７－２７０号,,13,103,1070052,,,,,,,2021-08-04,1,,,,,シーエルスペシャルティ,0
1074,4010401161849,新規,0,2021-08-04,2021-08-04,株式会社Ｙ＆Ｙ,,株式会社,東京都,港区,東新橋２丁目１０－１０東新橋ビル５１５室,,13,103,1050021,,,,,,,2021-08-04,1,,,,,ワイアンドワイ,0
1075,4010401161865,新規,0,2021-08-04,2021-08-04,プレソフィア株式会社,,株式会社,東京都,港区,南青山２丁目２番１５号,,13,103,1070062,,,,,,,2021-08-04,1,,,,,プレソフィア,0
1076,4010401161873,新規,0,2021-08-04,2021-08-04,株式会社ルテラサポート,,株式会社,東京都,港区,赤坂６丁目８番２号ホライズンプレイス赤坂１７０１号,,13,103,1070052,,,,,,,2021-08-04,1,,,,,ルテラサポート,0
1077,4010401161881,新規,0,2021-08-04,2021-08-04,株式会社キャピタルイノベーション,,株式会社,東京都,港区,赤坂１丁目９番１３号,,13,103,1070052,,,,,,,2021-08-04,1,,,,,キャピタルイノベーション,0
1078,4010401161898,新規,0,2021-08-04,2021-08-04,株式会社Ｂｉｚ　Ｆｏｒｗａｒｄ,,株式会社,東京都,港区,芝浦３丁目１番２１号ｍｓｂＴａｍａｃｈｉ田町ステーションタワーＳ２１階,,13,103,1080023,,,,,,,2021-08-04,1,,,,,ビズフォワード,0
1079,4010403025829,新規,0,2021-08-04,2021-08-04,ワーキーバジャパン合同会社,,合同会社,東京都,港区,元麻布３丁目１番６号,,13,103,1060046,,,,,,,2021-08-04,1,,,,,ワーキーバジャパン,0
1080,4010403025837,新規,0,2021-08-04,2021-08-04,合同会社ピンクアンドベージュコミュニケーションズ,,合同会社,東京都,港区,六本木３丁目４番５号コープ野村六本木２＃２０４,,13,103,1060032,,,,,,,2021-08-04,1,,,,,ピンクアンドベージュコミュニケーションズ,0
1083,4010701041354,新規,0,2021-08-04,2021-08-04,株式会社レジリエンスラボ,,株式会社,東京都,品川区,大崎２丁目１－１ＴｈｉｎｋＰａｒｋＴｏｗｅｒ,,13,109,1410032,,,,,,,2021-08-04,1,,,,,レジリエンスラボ,0
1084,4010801032204,新規,0,2021-08-04,2021-08-04,株式会社Ｉ．Ｓ．Ａ,,株式会社,東京都,大田区,中央８丁目３１番８号三栄コーポ２０１,,13,111,1430024,,,,,,,2021-08-04,1,,,,,アイエスエイ,0
1088,4010901049214,新規,0,2021-08-04,2021-08-04,株式会社レミュ,,株式会社,東京都,世田谷区,松原２丁目３９番１８号シャルム明大前１０２,,13,112,1560043,,,,,,,2021-08-04,1,,,,,レミュ,0
1092,4011001142033,新規,0,2021-08-04,2021-08-04,株式会社Ｍａｍ４２,,株式会社,東京都,渋谷区,神宮前３丁目３７番１－９１２号,,13,113,1500001,,,,,,,2021-08-04,1,,,,,マムヨンジュウニ,0
1093,4011001142041,新規,0,2021-08-04,2021-08-04,みんなのサポート株式会社,,株式会社,東京都,目黒区,鷹番２丁目１６番１４号ラディアスＲビル３Ｂ,,13,110,1520004,,,,,,,2021-08-04,1,,,,,ミンナノサポート,0
1105,4011501027188,新規,0,2021-08-04,2021-08-04,家コミュニケーションズ株式会社,,株式会社,東京都,北区,滝野川５丁目４１番３号,,13,117,1140023,,,,,,,2021-08-04,1,,,,,イエコミュニケーションズ,0
1106,4011503004846,新規,0,2021-08-04,2021-08-04,合同会社方圓国際,,合同会社,東京都,北区,浮間１丁目７－２３兆豊浮間ビル１０１号室,,13,117,1150051,,,,,,,2021-08-04,1,,,,,ホウエンコクサイ,0
1107,4011801039536,新規,0,2021-08-04,2021-08-04,Ｇｒｏｏｖｉｔ　ｐａｒｔｎｅｒ株式会社,,株式会社,東京都,足立区,千住３丁目６番地ツォード千住壱番館１００３号,,13,121,1200034,,,,,,,2021-08-04,1,,,,,グルービットパートナー,0
1108,4011801039544,新規,0,2021-08-04,2021-08-04,株式会社サカモト商事,,株式会社,東京都,足立区,加平３丁目１１番１３－１０１号,,13,121,1210055,,,,,,,2021-08-04,1,,,,,サカモトショウジ,0
1114,4012401038176,新規,0,2021-08-04,2021-08-04,東芝ブレイブルーパス東京株式会社,,株式会社,東京都,府中市,東芝町１,,13,206,1830043,,,,,,,2021-08-04,1,,,,,トウシバブレイブルーパストウキョウ,0
1116,4012703002276,新規,0,2021-08-04,2021-08-04,合同会社楽々会計,,合同会社,東京都,西東京市,泉町４丁目５番１７号,,13,229,2020011,,,,,,,2021-08-04,1,,,,,ラクラクカイケイ,0
1118,4012805003040,新規,0,2021-08-04,2021-08-04,一般社団法人Ａｖａｎｃｅ　Ｊｕｄｏ　Ａｃａｄｅｍｙ,,その他の設立登記法人,東京都,日野市,程久保８丁目２１番地の１ライオンズマンション多摩動物公園６０１,,13,212,1910042,,,,,,,2021-08-04,1,,,,,アヴァンスジュウドウアカデミー,0
1121,4013301047820,新規,0,2021-08-04,2021-08-04,ビジサポ株式会社,,株式会社,東京都,豊島区,東池袋２丁目１番７号ＯＳビル２０１,,13,116,1700013,,,,,,,2021-08-04,1,,,,,ビジサポ,0
1126,4013303005768,新規,0,2021-08-04,2021-08-04,ｙａｍａｂｅｅ合同会社,,合同会社,東京都,豊島区,南大塚３丁目５３番３号万葉ビル４０１号室,,13,116,1700005,,,,,,,2021-08-04,1,,,,,ヤマビー,0
1133,4020001142463,新規,0,2021-08-04,2021-08-04,株式会社ＳｋｙＳｕｎｆｌｏｗｅｒＨｏｌｄｉｎｇｓ,,株式会社,神奈川県,横浜市西区,みなとみらい５丁目３番１－Ｏ－２５０１号,,14,103,2200012,,,,,,,2021-08-04,1,,,,,スカイサンフラワーホールディングス,0
1143,4021003010765,新規,0,2021-08-04,2021-08-04,合同会社ＮＯＡＨ－Ｐｒｅｓｓｏ,,合同会社,神奈川県,平塚市,北金目２丁目１－３２シェローナ４０４,,14,203,2591207,,,,,,,2021-08-04,1,,,,,ノアプレッソ,0
1144,4021005012256,新規,0,2021-08-04,2021-08-04,一般社団法人古民家再生の会,,その他の設立登記法人,神奈川県,藤沢市,遠藤７０１番地の６滝ノ沢ストアー１０７,,14,205,2520816,,,,,,,2021-08-04,1,,,,,コミンカサイセイノカイ,0
1145,4021005012264,新規,0,2021-08-04,2021-08-04,一般財団法人シャンティハウス,,その他の設立登記法人,神奈川県,鎌倉市,小町２丁目５番１７号,,14,204,2480006,,,,,,,2021-08-04,1,,,,,シャンティハウス,0
1151,4030001143618,新規,0,2021-08-04,2021-08-04,株式会社マルタカ,,株式会社,埼玉県,朝霞市,根岸台５丁目７番１５号,,11,227,3510005,,,,,,,2021-08-04,1,,,,,マルタカ,0
1152,4030001143659,新規,0,2021-08-04,2021-08-04,株式会社岡元型枠,,株式会社,埼玉県,上尾市,大字大谷本郷８０９番地１７,,11,219,3620044,,,,,,,2021-08-04,1,,,,,オカモトカタワク,0
1155,4030003017712,新規,0,2021-08-04,2021-08-04,合同会社あたサポート,,合同会社,埼玉県,川越市,西小仙波町２丁目２７番地１,,11,201,3500035,,,,,,,2021-08-04,1,,,,,アタサポート,0
1163,4040001119583,新規,0,2021-08-04,2021-08-04,オーシャンフロント株式会社,,株式会社,千葉県,館山市,八幡８２１番地１,,12,205,2940047,,,,,,,2021-08-04,1,,,,,オーシャンフロント,0
1164,4040001119625,新規,0,2021-08-04,2021-08-04,株式会社くるま本舗,,株式会社,千葉県,市原市,青柳１１７４番地４,,12,219,2990102,,,,,,,2021-08-04,1,,,,,クルマホンポ,0
1165,4040001119682,新規,0,2021-08-04,2021-08-04,株式会社夜桜,,株式会社,千葉県,千葉市中央区,矢作町８８７番地ビューテラス２０１号,,12,101,2600851,,,,,,,2021-08-04,1,,,,,ヤザクラ,0
1168,4040003018263,新規,0,2021-08-04,2021-08-04,合同会社ＬｏｃｕｓＴｅｃｈｓ,,合同会社,千葉県,船橋市,湊町２丁目１５番２２－６０２号,,12,204,2730011,,,,,,,2021-08-04,1,,,,,ロクステクス,0
1169,4040003018271,新規,0,2021-08-04,2021-08-04,合同会社フリーマイライフ,,合同会社,千葉県,市川市,鬼越２丁目１７番１－１００１号（ビューパレー市川）,,12,203,2720022,,,,,,,2021-08-04,1,,,,,フリーマイライフ,0
1173,4050001049631,新規,0,2021-08-04,2021-08-04,株式会社アートワークスイノベーション,,株式会社,茨城県,ひたちなか市,大字高場１９４６－６,,08,221,3120062,,,,,,,2021-08-04,1,,,,,アートワークスイノベーション,0
1174,4050001049648,新規,0,2021-08-04,2021-08-04,ＳＤ建設株式会社,,株式会社,茨城県,土浦市,大岩田２０７９番地,,08,203,3000835,,,,,,,2021-08-04,1,,,,,エスディーケンセツ,0
1176,4050003006011,新規,0,2021-08-04,2021-08-04,ｚｅｒｏ　ｐｌｕｓ合同会社,,合同会社,茨城県,鉾田市,大竹３６番地,,08,234,3111513,,,,,,,2021-08-04,1,,,,,ゼロプラス,0
1181,4060001033964,新規,0,2021-08-04,2021-08-04,株式会社はた,,株式会社,栃木県,宇都宮市,インターパーク４丁目１番地２ペットフォレスト内,,09,201,3210118,,,,,,,2021-08-04,1,,,,,ハタ,0
1186,4070001038319,新規,0,2021-08-04,2021-08-04,株式会社ＳＵＮ　ＢＲＥＥＤ,,株式会社,群馬県,太田市,新井町５０１番地２,,10,205,3730852,,,,,,,2021-08-04,1,,,,,サンブリード,0
1189,4080001024359,新規,0,2021-08-04,2021-08-04,株式会社ｓａｌｏｎ　ｄｅ　Ｕ－ＣＨＡＮ,,株式会社,静岡県,静岡市葵区,沓谷６丁目１２番１号スプリングフィールドＤ２０１,,22,101,4200816,,,,,,,2021-08-04,1,,,,,サロンドユーチャン,0
1197,4080401025238,新規,0,2021-08-04,2021-08-04,株式会社Ｒｎｎ,,株式会社,静岡県,袋井市,下山梨２１０４番地の３ユニキューブＢ,,22,216,4370123,,,,,,,2021-08-04,1,,,,,アールエヌエヌ,0
1198,4080401025246,新規,0,2021-08-04,2021-08-04,株式会社ＡｒＱ　Ｒｅｐａｉｎｔ,,株式会社,静岡県,浜松市中区,佐鳴台２丁目１９番３０号五平ハイツＤ２０１,,22,131,4328021,,,,,,,2021-08-04,1,,,,,アークリペイント,0
1201,4100001034504,新規,0,2021-08-04,2021-08-04,ｂａｍｂｏｏｇｒｏｗｔｈ株式会社,,株式会社,長野県,長野市,大字高田２４１０番地１０１,,20,201,3810034,,,,,,,2021-08-04,1,,,,,バンブーグロウス,0
1203,4110001035947,新規,0,2021-08-04,2021-08-04,株式会社恒河技術,,株式会社,新潟県,長岡市,大手通２丁目２番地６,,15,202,9400062,,,,,,,2021-08-04,1,,,,,コウガギジュツ,0
1223,4120001239464,新規,0,2021-08-04,2021-08-04,株式会社アプライアンス,,株式会社,大阪府,大阪市浪速区,日本橋５丁目１２番４号,,27,111,5560005,,,,,,,2021-08-04,1,,,,,アプライアンス,0
1224,4120001239506,新規,0,2021-08-04,2021-08-04,株式会社Ｌｉｅｎ,,株式会社,大阪府,大阪市淀川区,東三国４丁目１４－１６－１０３,,27,123,5320002,,,,,,,2021-08-04,1,,,,,リヤン,0
1225,4120001239547,新規,0,2021-08-04,2021-08-04,株式会社リーガルシンク,,株式会社,大阪府,大阪市中央区,南新町１丁目４番９号,,27,128,5400024,,,,,,,2021-08-04,1,,,,,リーガルシンク,0
1226,4120001239563,新規,0,2021-08-04,2021-08-04,株式会社Ｅｄｇｅ,,株式会社,大阪府,大阪市淀川区,木川西２丁目１４番８号３０３,,27,123,5320013,,,,,,,2021-08-04,1,,,,,エッジ,0
1228,4120003019963,新規,0,2021-08-04,2021-08-04,合同会社ｅｔｅｒｎａｌ　ｆｏｒｅｓｔ,,合同会社,大阪府,大阪市天王寺区,玉造元町１９番９号,,27,109,5430014,,,,,,,2021-08-04,1,,,,,エターナルフォレスト,0
1233,4120101064069,新規,0,2021-08-04,2021-08-04,株式会社リクラス,,株式会社,大阪府,阪南市,下出３４６番地の７,,27,232,5990202,,,,,,,2021-08-04,1,,,,,リクラス,0
1234,4120101064085,新規,0,2021-08-04,2021-08-04,株式会社Ｋ－ｓｔｙｌｅ,,株式会社,大阪府,泉佐野市,西本町１６番１３号,,27,213,5980042,,,,,,,2021-08-04,1,,,,,ケースタイル,0
1235,4120101064110,新規,0,2021-08-04,2021-08-04,アートエンジ株式会社,,株式会社,大阪府,堺市堺区,二条通２番１４号,,27,141,5900047,,,,,,,2021-08-04,1,,,,,アートエンジ,0
1236,4120101064119,新規,0,2021-08-04,2021-08-04,株式会社東新,,株式会社,大阪府,羽曳野市,向野２丁目１番９号,,27,222,5830883,,,,,,,2021-08-04,1,,,,,トウシン,0
1240,4122001035050,新規,0,2021-08-04,2021-08-04,株式会社ＷＭＳ,,株式会社,大阪府,東大阪市,西堤楠町３丁目３番３３号ブランフルーレ２０２,,27,227,5770047,,,,,,,2021-08-04,1,,,,,ダブリュエムエス,0
1248,4140001122321,新規,0,2021-08-04,2021-08-04,株式会社ＡＭＩＫＡ,,株式会社,兵庫県,尼崎市,東園田町３丁目４１番地の１,,28,202,6610953,,,,,,,2021-08-04,1,,,,,アミカ,0
1252,4140003016595,新規,0,2021-08-04,2021-08-04,ソルマーレ合同会社,,合同会社,兵庫県,神戸市中央区,北野町１丁目５－２１ケーシーコート３０２号,,28,110,6500002,,,,,,,2021-08-04,1,,,,,ソルマーレ,0
1261,4170005006922,新規,0,2021-08-04,2021-08-04,一般社団法人クリスタルＷａｖｅ,,その他の設立登記法人,和歌山県,和歌山市,大谷１６－７,,30,201,6408472,,,,,,,2021-08-04,1,,,,,クリスタルウェーブ,0
1272,4180001147133,新規,0,2021-08-04,2021-08-04,株式会社Ｗｉｓｄｏｍ,,株式会社,愛知県,海部郡蟹江町,今西２丁目４５番地,,23,425,4970037,,,,,,,2021-08-04,1,,,,,ウィズダム,0
1273,4180001147257,新規,0,2021-08-04,2021-08-04,未来ソリューションズ株式会社,,株式会社,愛知県,半田市,雁宿町２丁目１２番地,,23,205,4750918,,,,,,,2021-08-04,1,,,,,ミライソリューションズ,0
1274,4180001147265,新規,0,2021-08-04,2021-08-04,株式会社ＧＯＳＡＲＵ,,株式会社,愛知県,名古屋市中区,大須１丁目７番１４号パークＩＭビル２Ｆ,,23,106,4600011,,,,,,,2021-08-04,1,,,,,ゴサル,0
1275,4180001147281,新規,0,2021-08-04,2021-08-04,スカイサプライ株式会社,,株式会社,愛知県,春日井市,中野町２丁目１０番地２３,,23,206,4860957,,,,,,,2021-08-04,1,,,,,スカイサプライ,0
1276,4180001147315,新規,0,2021-08-04,2021-08-04,株式会社ＹＴグループ,,株式会社,愛知県,名古屋市中区,大井町１番２４号ヴィークタワー名古屋東別院２１０６号,,23,106,4600015,,,,,,,2021-08-04,1,,,,,ワイティーグループ,0
1277,4180001147323,新規,0,2021-08-04,2021-08-04,株式会社外壁コーポレーション,,株式会社,愛知県,名古屋市港区,小碓２丁目５番地,,23,111,4550801,,,,,,,2021-08-04,1,,,,,ガイヘキコーポレーション,0
1284,4180003022821,新規,0,2021-08-04,2021-08-04,合同会社ｈａｎａｉｗａ,,合同会社,愛知県,稲沢市,平和町平六１７５番地,,23,220,4901323,,,,,,,2021-08-04,1,,,,,ハナイワ,0
1286,4180301035244,新規,0,2021-08-04,2021-08-04,株式会社ソニューズ,,株式会社,愛知県,刈谷市,一ツ木町鵜島１番地２４１,,23,210,4480003,,,,,,,2021-08-04,1,,,,,ソニューズ,0
1292,4190001028563,新規,0,2021-08-04,2021-08-04,Ｔ－サイト株式会社,,株式会社,三重県,四日市市,鵜の森１丁目１番１９号太平洋鵜の森ビル４階,,24,202,5100074,,,,,,,2021-08-04,1,,,,,ティーサイト,0
1293,4190001028588,新規,0,2021-08-04,2021-08-04,株式会社吉田新聞,00123840,株式会社,三重県,津市,久居野村町８６６番地２,,24,201,5141113,,,,,,,2021-08-04,1,,,,,ヨシダシンブン,0
1295,4190003003738,新規,0,2021-08-04,2021-08-04,合同会社番頭舎,,合同会社,三重県,松阪市,下村町２５８３番地５,,24,204,5150043,,,,,,,2021-08-04,1,,,,,バントウシャ,0
1297,4190005011607,新規,0,2021-08-04,2021-08-04,医療法人勢風会,,その他の設立登記法人,三重県,津市,久居野村町６００番地２,,24,201,5141113,,,,,,,2021-08-04,1,,,,,セイフウカイ,0
1302,4200001038973,新規,0,2021-08-04,2021-08-04,株式会社Ｄ．ＥＩＧＨＴ,,株式会社,岐阜県,瑞穂市,古橋１５６０番地６,,21,216,5010322,,,,,,,2021-08-04,1,,,,,ディーエイト,0
1305,4220001024336,新規,0,2021-08-04,2021-08-04,株式会社ＳＴＥＡＭ　ＲＭＴ,,株式会社,石川県,能美市,湯谷町乙１１０番地,,17,211,9231104,,,,,,,2021-08-04,1,,,,,スチームアールエムティ,0
1311,4240001058365,新規,0,2021-08-04,2021-08-04,株式会社ユニティワン,,株式会社,広島県,広島市中区,東白島町１９番６２－１２０７号,,34,101,7300004,,,,,,,2021-08-04,1,,,,,ユニティワン,0
1312,4240001058381,新規,0,2021-08-04,2021-08-04,株式会社Ｃａｒｒｙ　ｈｏｍｅｓ,,株式会社,広島県,広島市西区,大芝１丁目１９番１１－７０２号,,34,104,7330001,,,,,,,2021-08-04,1,,,,,キャリーホームズ,0
1313,4240005015247,新規,0,2021-08-04,2021-08-04,一般社団法人Ｂ．Ａ．Ｌ．Ｌ,,その他の設立登記法人,広島県,広島市西区,大宮１丁目９番５号,,34,104,7330007,,,,,,,2021-08-04,1,,,,,バル,0
1314,4260001035809,新規,0,2021-08-04,2021-08-04,株式会社津山,,株式会社,岡山県,津山市,大田８４番地９,,33,203,7080806,,,,,,,2021-08-04,1,,,,,ツヤマ,0
1315,4260001035817,新規,0,2021-08-04,2021-08-04,株式会社イノウエホールディングス,,株式会社,岡山県,倉敷市,二日市５１１番地１,,33,202,7100042,,,,,,,2021-08-04,1,,,,,イノウエホールディングス,0
1316,4260001035825,新規,0,2021-08-04,2021-08-04,Ｓｋｉｐ株式会社,,株式会社,岡山県,倉敷市,新田３１８７番地１３,,33,202,7100038,,,,,,,2021-08-04,1,,,,,スキップ,0
1317,4260001035833,新規,0,2021-08-04,2021-08-04,株式会社三栄,,株式会社,岡山県,赤磐市,桜が丘東４丁目４番地１５１,,33,213,7090721,,,,,,,2021-08-04,1,,,,,サンエイ,0
1318,4260001035841,新規,0,2021-08-04,2021-08-04,ステップワン株式会社,,株式会社,岡山県,津山市,船頭町１９,,33,203,7080034,,,,,,,2021-08-04,1,,,,,ステップワン,0
1320,4260005010948,新規,0,2021-08-04,2021-08-04,ＮＰＯ法人めぐりあい,,その他の設立登記法人,岡山県,倉敷市,亀島２丁目１１番１０号,,33,202,7128013,,,,,,,2021-08-04,1,,,,,メグリアイ,0
1324,4280003001518,新規,0,2021-08-04,2021-08-04,河野乾魚店合同会社,,合同会社,島根県,浜田市,長浜町１４１２番地甲,,32,202,6970063,,,,,,,2021-08-04,1,,,,,コウノカンギョテン,0
1328,4290001094042,新規,0,2021-08-04,2021-08-04,ＮＥＸＴ　ＳＴＡＧＥ株式会社,,株式会社,福岡県,福岡市中央区,地行浜２丁目２番４－１９０２号,,40,133,8100065,,,,,,,2021-08-04,1,,,,,ネクストステージ,0
1331,4290003011474,新規,0,2021-08-04,2021-08-04,合同会社ＨＲマネジメント,,合同会社,福岡県,福岡市西区,今宿１丁目１２－１４,,40,135,8190167,,,,,,,2021-08-04,1,,,,,エイチアールマネジメント,0
1337,4310001017405,新規,0,2021-08-04,2021-08-04,ＳＫＹＷＡＬＫＥＲ株式会社,,株式会社,長崎県,長崎市,金屋町１番１７号,,42,201,8500037,,,,,,,2021-08-04,1,,,,,スカイウォーカー,0
1339,4320001018526,新規,0,2021-08-04,2021-08-04,株式会社太田技建,,株式会社,大分県,大分市,徳島２丁目１４番２６号,,44,201,8700109,,,,,,,2021-08-04,1,,,,,オオタギケン,0
1340,4320001018534,新規,0,2021-08-04,2021-08-04,株式会社Ｉ‐ｐｒａｎｎｉｎｇ,,株式会社,大分県,大分市,南春日町６番４５－４１２号（アドバンス２１ブレスティア南春日）,,44,201,8700815,,,,,,,2021-08-04,1,,,,,アイプランニング,0
1346,4330001028862,新規,0,2021-08-04,2021-08-04,株式会社倉本鈑金,,株式会社,熊本県,玉名市,伊倉北方３０４７番地１,,43,206,8650041,,,,,,,2021-08-04,1,,,,,クラモトバンキン,0
1347,4330001028879,新規,0,2021-08-04,2021-08-04,かき道楽株式会社,,株式会社,熊本県,熊本市南区,城南町坂野２７１番地,,43,104,8614201,,,,,,,2021-08-04,1,,,,,カキドウラク,0
1348,4330001028887,新規,0,2021-08-04,2021-08-04,株式会社御幸設備,,株式会社,熊本県,熊本市南区,御幸笛田６丁目１番２９号,,43,104,8614172,,,,,,,2021-08-04,1,,,,,ミユキセツビ,0
1357,4350001017252,新規,0,2021-08-04,2021-08-04,株式会社Ｍ　ＲＨＳ　ＦＡＲＭ,,株式会社,宮崎県,宮崎市,大字郡司分甲４８８４番地２８,,45,201,8800924,,,,,,,2021-08-04,1,,,,,エムアールエイチエスファーム,0
1358,4350003003903,新規,0,2021-08-04,2021-08-04,合同会社ｅｎＢＡＮＫ,,合同会社,宮崎県,宮崎市,橘通西３丁目１０－３２宮崎ナナイロ東館８階,,45,201,8800001,,,,,,,2021-08-04,1,,,,,エンバンク,0
1362,4370001047421,新規,0,2021-08-04,2021-08-04,株式会社スリーエス,,株式会社,宮城県,仙台市宮城野区,新田３丁目１１番７－４０１号,,04,102,9830038,,,,,,,2021-08-04,1,,,,,スリーエス,0
1368,4380001032083,新規,0,2021-08-04,2021-08-04,株式会社ケイシン,,株式会社,福島県,会津若松市,栄町４番４３号,,07,202,9650871,,,,,,,2021-08-04,1,,,,,ケイシン,0
1371,4400001015556,新規,0,2021-08-04,2021-08-04,工藤鈑金株式会社,,株式会社,岩手県,八幡平市,平笠第１９地割１１６番地,,03,214,0287113,,,,,,,2021-08-04,1,,,,,クドウバンキン,0
1377,4430003012994,新規,0,2021-08-04,2021-08-04,Ｌｏｙａｌ合同会社,,合同会社,北海道,札幌市中央区,南二条東２丁目１６番地,,01,101,0600052,,,,,,,2021-08-04,1,,,,,ロイヤル,0
1379,4450003002110,新規,0,2021-08-04,2021-08-04,アンダリィ合同会社,,合同会社,北海道,上川郡美瑛町,東町３丁目８番１－２０２号,,01,459,0710213,,,,,,,2021-08-04,1,,,,,アンダリィ,0
1382,4460103001390,新規,0,2021-08-04,2021-08-04,合同会社ＨＡＩＲ　ＡＮＤ　ＬＩＦＥ,,合同会社,北海道,広尾郡大樹町,西本通９８番地,,01,641,0892152,,,,,,,2021-08-04,1,,,,,ヘアアンドライフ,0
1383,4470001018643,新規,0,2021-08-04,2021-08-04,ゲノムリード株式会社,,株式会社,香川県,高松市,常磐町２丁目３番地３５,,37,201,7600054,,,,,,,2021-08-04,1,,,,,ゲノムリード,0
1384,4470001018651,新規,0,2021-08-04,2021-08-04,株式会社テンプル建設,,株式会社,香川県,高松市,屋島東町５１５番地３２１,,37,201,7610111,,,,,,,2021-08-04,1,,,,,テンプルケンセツ,0
1385,4470005006371,新規,0,2021-08-04,2021-08-04,一般社団法人ソーイングマイスター協会,,その他の設立登記法人,香川県,高松市,塩屋町１４番地５,,37,201,7600047,,,,,,,2021-08-04,1,,,,,ソーイングマイスターキョウカイ,0
1390,4500001023598,新規,0,2021-08-04,2021-08-04,株式会社シュプリーム,,株式会社,愛媛県,四国中央市,金生町山田井１８３番地,,38,213,7990112,,,,,,,2021-08-04,1,,,,,シュプリーム,0
1391,4500001023607,新規,0,2021-08-04,2021-08-04,株式会社Ｃｏｎｑｕｅｓｔｅｒ,,株式会社,愛媛県,松山市,二番町１丁目４番８号Ｆ・ＣＩＴＹビル３Ｆ,,38,201,7900002,,,,,,,2021-08-04,1,,,,,コンクエスタ,0
1392,4500003002674,新規,0,2021-08-04,2021-08-04,合同会社マツエ,,合同会社,愛媛県,八幡浜市,大黒町３丁目１５２６番地１３０,,38,204,7960083,,,,,,,2021-08-04,1,,,,,マツエ,0
1400,5010001220161,新規,0,2021-08-04,2021-08-04,株式会社ＴＡＳＡＫＩサービス,,株式会社,東京都,中央区,銀座５丁目７番５号,,13,102,1040061,,,,,,,2021-08-04,1,,,,,タサキサービス,0
1401,5010001220228,新規,0,2021-08-04,2021-08-04,ＲＥＥオートモーティブ・ジャパン株式会社,,株式会社,東京都,千代田区,丸の内２丁目１番１号明治生命館７階ディーエルエイ・パイパー東京パートナーシップ外国法共同事業法律事務所内,,13,101,1000005,,,,,,,2021-08-04,1,,,,,リーオートモーティブジャパン,0
1408,5010003035450,新規,0,2021-08-04,2021-08-04,合同会社住宅循環支援機構,,合同会社,東京都,千代田区,平河町１丁目７番２０号平河町辻田ビル５階,00123829,13,101,1020093,,,,,,,2021-08-04,1,,,,,ジュウタクジュンカンシエンキコウ,0
1409,5010003035483,新規,0,2021-08-04,2021-08-04,合同会社未来会計,,合同会社,東京都,千代田区,東神田２丁目７番２－１２０５号,,13,101,1010031,,,,,,,2021-08-04,1,,,,,ミライカイケイ,0
1410,5010101014802,新規,0,2021-08-04,2021-08-04,日本電動株式会社,,株式会社,東京都,八王子市,東町７番６号,,13,201,1920082,,,,,,,2021-08-04,1,,,,,ニホンデンドウ,0
1419,5010401161732,新規,0,2021-08-04,2021-08-04,株式会社Ｌｅａｆｌｏｗ,,株式会社,東京都,港区,南麻布２丁目９番２１号プライム麻布２０１,,13,103,1060047,,,,,,,2021-08-04,1,,,,,リーフロー,0
1420,5010401161872,新規,0,2021-08-04,2021-08-04,株式会社カウボーイズ,,株式会社,東京都,港区,浜松町２丁目２－１５浜松町ダイヤビル２Ｆ,,13,103,1050013,,,,,,,2021-08-04,1,,,,,カウボーイズ,0
1421,5010401161880,新規,0,2021-08-04,2021-08-04,ＨＡＰＰ．株式会社,,株式会社,東京都,港区,六本木３丁目７－１－１００６,,13,103,1060032,,,,,,,2021-08-04,1,,,,,ハップ,0
1424,5010403025828,新規,0,2021-08-04,2021-08-04,ＫＴＲ合同会社,,合同会社,東京都,港区,赤坂６丁目１９番３３－２０６号,,13,103,1070052,,,,,,,2021-08-04,1,,,,,ケーティーアール,0
1425,5010403025836,新規,0,2021-08-04,2021-08-04,合同会社Ｋｅｙａｋｉ,,合同会社,東京都,港区,芝浦２丁目８－８坂本ビル２０２,,13,103,1080023,,,,,,,2021-08-04,1,,,,,ケヤキ,0
1426,5010403025869,新規,0,2021-08-04,2021-08-04,合同会社ＩＮＴＥＬＬＡＸ,,合同会社,東京都,港区,南青山２丁目２番１５号ウィン青山１２１４号,,13,103,1070062,,,,,,,2021-08-04,1,,,,,インテラクス,0
1427,5010405020042,新規,0,2021-08-04,2021-08-04,一般社団法人地域デジタル化推進協議会,,その他の設立登記法人,東京都,港区,六本木６丁目１０番１号,,13,103,1060032,,,,,,,2021-08-04,1,,,,,チイキデジタルカスイシンキョウギカイ,0
1428,5010405020083,新規,0,2021-08-04,2021-08-04,一般社団法人ＴＳＭ１５９,,その他の設立登記法人,東京都,港区,元赤坂１丁目１番７号,,13,103,1070051,,,,,,,2021-08-04,1,,,,,ティーエスエムヒャクゴジュウキュウ,0
1433,5010601059727,新規,0,2021-08-04,2021-08-04,株式会社明祥デジタル,,株式会社,東京都,江東区,新大橋１丁目１２番１３号,,13,108,1350007,,,,,,,2021-08-04,1,,,,,メイショウデジタル,0
1434,5010601059743,新規,0,2021-08-04,2021-08-04,大咖商事株式会社,00123827,株式会社,東京都,墨田区,墨田４丁目３６番２号,,13,107,1310031,,,,,,,2021-08-04,1,,,,,タイガショウジ,0
1443,5010901049213,新規,0,2021-08-04,2021-08-04,株式会社アイランカ,,株式会社,東京都,世田谷区,奥沢１丁目３７番９号ブルーム奥沢２０１,,13,112,1580083,,,,,,,2021-08-04,1,,,,,アイランカ,0
1444,5010903006708,新規,0,2021-08-04,2021-08-04,衣笠直樹事務所合同会社,,合同会社,東京都,世田谷区,桜１丁目２０番１０号,,13,112,1560053,,,,,,,2021-08-04,1,,,,,キヌガサナオキジムショ,0
1452,5011001142057,新規,0,2021-08-04,2021-08-04,株式会社ｗｏｎｄｅｒｌａｎｄ　ｇｒｏｕｐ,,株式会社,東京都,渋谷区,広尾５丁目４番１２号大成鋼機ビル５階５１３号室,,13,113,1500012,,,,,,,2021-08-04,1,,,,,ワンダーランドグループ,0
1453,5011001142065,新規,0,2021-08-04,2021-08-04,株式会社ＳＴＲＥＡＭ,,株式会社,東京都,渋谷区,渋谷３丁目２６番１６号第五叶ビル５Ｆ,,13,113,1500002,,,,,,,2021-08-04,1,,,,,ストリーム,0
1454,5011001142098,新規,0,2021-08-04,2021-08-04,株式会社ユナイテッドテクノロジーズ,,株式会社,東京都,目黒区,中目黒３丁目５番５号ＮＦビル８階,,13,110,1530061,,,,,,,2021-08-04,1,,,,,ユナイテッドテクノロジーズ,0
1458,5011003013149,新規,0,2021-08-04,2021-08-04,合同会社ＮＳエンジニアリング,,合同会社,東京都,渋谷区,渋谷２丁目１９番１５－６０９号宮益坂ビルディング,,13,113,1500002,,,,,,,2021-08-04,1,,,,,エヌエスエンジニアリング,0
1459,5011003013165,新規,0,2021-08-04,2021-08-04,合同会社８２,,合同会社,東京都,渋谷区,本町６丁目９番１３号,,13,113,1510071,,,,,,,2021-08-04,1,,,,,エイトツー,0
1465,5011101095881,新規,0,2021-08-04,2021-08-04,アドネス株式会社,,株式会社,東京都,新宿区,富久町８番２５号５Ｆ,,13,104,1620067,,,,,,,2021-08-04,1,,,,,アドネス,0
1466,5011101095915,新規,0,2021-08-04,2021-08-04,ｎｉｖｅｌ株式会社,,株式会社,東京都,新宿区,新宿１丁目３６番２号新宿第七葉山ビル３階,,13,104,1600022,,,,,,,2021-08-04,1,,,,,ニベル,0
1471,5011501027187,新規,0,2021-08-04,2021-08-04,株式会社ワンナイト,,株式会社,東京都,北区,赤羽２丁目５２番６号,,13,117,1150045,,,,,,,2021-08-04,1,,,,,ワンナイト,0
1473,5011601025306,新規,0,2021-08-04,2021-08-04,株式会社ルート・ワン・オフィス,,株式会社,東京都,練馬区,小竹町２丁目１番１－１０５号,,13,120,1760004,,,,,,,2021-08-04,1,,,,,ルートワンオフィス,0
1478,5011801039502,新規,0,2021-08-04,2021-08-04,株式会社ｍａｒｃｈ,,株式会社,東京都,足立区,西竹の塚１丁目１５番１１号ヒルズ西竹ノ塚１０１,,13,121,1210822,,,,,,,2021-08-04,1,,,,,マーチ,0
1479,5011801039519,新規,0,2021-08-04,2021-08-04,株式会社奥戸モータース,,株式会社,東京都,葛飾区,東四つ木２丁目４番１６号,,13,122,1240014,,,,,,,2021-08-04,1,,,,,オクドモータース,0
1480,5011801039535,新規,0,2021-08-04,2021-08-04,Ｇｒｏｏｖｉｔ　ｐｌｕｓ株式会社,,株式会社,東京都,足立区,千住３丁目６番地ツォード千住壱番館１００３号,,13,121,1200034,,,,,,,2021-08-04,1,,,,,グルービットプラス,0
1481,5011803004727,新規,0,2021-08-04,2021-08-04,Ｒ・Ｊ・ＨＯＭＥ合同会社,,合同会社,東京都,葛飾区,東堀切２丁目１５番１２号,,13,122,1240004,,,,,,,2021-08-04,1,,,,,アールジェイホーム,0
1485,5012701016608,新規,0,2021-08-04,2021-08-04,ｉｄｅａ株式会社,,株式会社,東京都,小平市,花小金井南町３丁目３７番１８－１号,,13,211,1870003,,,,,,,2021-08-04,1,,,,,アイディア,0
1486,5012703002275,新規,0,2021-08-04,2021-08-04,合同会社田中商事,,合同会社,東京都,小平市,上水本町１丁目１０番２１－１号,,13,211,1870022,,,,,,,2021-08-04,1,,,,,タナカショウジ,0
1487,5013101008690,新規,0,2021-08-04,2021-08-04,株式会社ＢＡＧＵＳ,,株式会社,東京都,福生市,武蔵野台２丁目１０番地１０,,13,218,1970013,,,,,,,2021-08-04,1,,,,,バグース,0
1497,5020001142462,新規,0,2021-08-04,2021-08-04,Ｏｐｅｘ青果株式会社,,株式会社,神奈川県,川崎市宮前区,水沢１丁目１番１号川崎中央卸売市場北部市場内,,14,136,2160012,,,,,,,2021-08-04,1,,,,,オペックスセイカ,0
1498,5020001142529,新規,0,2021-08-04,2021-08-04,株式会社ＳＬＡＳＨ,,株式会社,神奈川県,川崎市中原区,上小田中１丁目９番１－３号,,14,133,2110053,,,,,,,2021-08-04,1,,,,,スラッシュ,0
1500,5020003020294,新規,0,2021-08-04,2021-08-04,ＣＲＯＳＳ　ＡＲＲＯＷＳ合同会社,,合同会社,神奈川県,横浜市中区,桜木町１丁目１０１番地１クロスゲート７階,,14,104,2310062,,,,,,,2021-08-04,1,,,,,クロスアローズ,0
1501,5020005015152,新規,0,2021-08-04,2021-08-04,一般社団法人ＭＮＣリレーションズ,,その他の設立登記法人,神奈川県,横浜市瀬谷区,本郷３丁目８番地８,,14,114,2460015,,,,,,,2021-08-04,1,,,,,エムエヌシーリレーションズ,0
1502,5021001073615,新規,0,2021-08-04,2021-08-04,株式会社三創緑園,,株式会社,神奈川県,相模原市緑区,西橋本１丁目８番１３－１号,,14,151,2520131,,,,,,,2021-08-04,1,,,,,サンソウリョクエン,0
1511,5030001143617,新規,0,2021-08-04,2021-08-04,株式会社くりパワージェネレーション,,株式会社,埼玉県,草加市,谷塚１丁目２番４５－３０８号,,11,221,3400028,,,,,,,2021-08-04,1,,,,,クリパワージェネレーション,0
1512,5030001143674,新規,0,2021-08-04,2021-08-04,株式会社トラスト住設工房,,株式会社,埼玉県,さいたま市緑区,松木２丁目２３番地１９,,11,109,3360918,,,,,,,2021-08-04,1,,,,,トラストジュウセツコウボウ,0
1517,5030003017711,新規,0,2021-08-04,2021-08-04,合同会社ＹＤＫ,,合同会社,埼玉県,深谷市,小前田１９７３－７,,11,218,3691246,,,,,,,2021-08-04,1,,,,,ワイディーケイ,0
1518,5030003017736,新規,0,2021-08-04,2021-08-04,合同会社Ｍ２Ａｄｍｉｎｉｓｔｒａｔｉｏｎ,,合同会社,埼玉県,川越市,菅原町５番地１パークホームズ川越ザレジデンス１３０２号室,,11,201,3500046,,,,,,,2021-08-04,1,,,,,エムツーアドミニストレーション,0
1528,5040001119590,新規,0,2021-08-04,2021-08-04,Ｕｎｉｔｅｄ　Ｐｌａｙｅｒｓ株式会社,,株式会社,千葉県,浦安市,北栄２丁目１９番１７－３０２号,,12,227,2790002,,,,,,,2021-08-04,1,,,,,ユナイテッドプレイヤーズ,0
1529,5040001119624,新規,0,2021-08-04,2021-08-04,Ｋｚ企画株式会社,,株式会社,千葉県,千葉市緑区,あすみが丘８丁目４４番地８,,12,105,2670066,,,,,,,2021-08-04,1,,,,,カズキカク,0
1530,5040001119681,新規,0,2021-08-04,2021-08-04,株式会社ナバック,,株式会社,千葉県,香取市,佐原イ７００番地,,12,236,2870003,,,,,,,2021-08-04,1,,,,,ナバック,0
1532,5040003018262,新規,0,2021-08-04,2021-08-04,合同会社ピジョン,,合同会社,千葉県,富津市,西大和田５３７番地６,,12,226,2930035,,,,,,,2021-08-04,1,,,,,ピジョン,0
1535,5050001049647,新規,0,2021-08-04,2021-08-04,株式会社Ｕライト,,株式会社,茨城県,鉾田市,安房１９６３番地１０３,,08,234,3111504,,,,,,,2021-08-04,1,,,,,ユーライト,0
1536,5050001049671,新規,0,2021-08-04,2021-08-04,ＭａｘＷｅｌｌ株式会社,,株式会社,茨城県,水戸市,新荘１丁目５－２７,,08,201,3100036,,,,,,,2021-08-04,1,,,,,マクスウェル,0
1538,5050003006010,新規,0,2021-08-04,2021-08-04,合同会社ＳｍｉｌｅＹ　ＰＲＯＪＥＣＴ,,合同会社,茨城県,取手市,戸頭１丁目１０番２０号リーベスト取手６０２号,,08,217,3020034,,,,,,,2021-08-04,1,,,,,スマイリープロジェクト,0
1541,5060001033963,新規,0,2021-08-04,2021-08-04,株式会社ＤＰＨ　Ｂａｓｅ,,株式会社,栃木県,佐野市,戸室町３２２番地,,09,204,3270306,,,,,,,2021-08-04,1,,,,,ディーピーエイチベース,0
1542,5060001033971,新規,0,2021-08-04,2021-08-04,株式会社ＳＵＮ＆ＣＯＭＰＡＳＳ,,株式会社,栃木県,塩谷郡高根沢町,光陽台１丁目９番地４グリーンモールＢ－２,,09,386,3291232,,,,,,,2021-08-04,1,,,,,サンアンドコンパス,0
1544,5060003003766,新規,0,2021-08-04,2021-08-04,合同会社Ｌａｕｇｈｍｅｎｓ,,合同会社,栃木県,真岡市,台町４２７１－４,,09,209,3214306,,,,,,,2021-08-04,1,,,,,ラフメンズ,0
1546,5070001038326,新規,0,2021-08-04,2021-08-04,株式会社Ｒｅ’れぼ,,株式会社,群馬県,伊勢崎市,鹿島町１７６－５,,10,204,3720015,,,,,,,2021-08-04,1,,,,,,0
1548,5070003004193,新規,0,2021-08-04,2021-08-04,大善堂漢方合同会社,,合同会社,群馬県,藤岡市,下栗須１９９番地３,,10,209,3750014,,,,,,,2021-08-04,1,,,,,ダイゼンドウカンポウ,0
1551,5080001024366,新規,0,2021-08-04,2021-08-04,株式会社ニジキャリア,,株式会社,静岡県,静岡市駿河区,敷地２丁目１番４１号３０２,,22,102,4228036,,,,,,,2021-08-04,1,,,,,ニジキャリア,0
1554,5080401025245,新規,0,2021-08-04,2021-08-04,株式会社鴻池設備,,株式会社,静岡県,袋井市,久能２２９６番地の１の１の１,,22,216,4370061,,,,,,,2021-08-04,1,,,,,コウノイケセツビ,0
1559,5100003006194,新規,0,2021-08-04,2021-08-04,ＬＡＲＣＥＬ合同会社,,合同会社,長野県,松本市,野溝西１丁目６－２９のみぞビル,,20,202,3990006,,,,,,,2021-08-04,1,,,,,ラーセル,0
1562,5110001035946,新規,0,2021-08-04,2021-08-04,金澤設計株式会社,,株式会社,新潟県,上越市,大字土橋１４４１番地１６,,15,222,9430821,,,,,,,2021-08-04,1,,,,,カナザワセッケイ,0
1567,5120001239463,新規,0,2021-08-04,2021-08-04,Ａｉｒａｆｕ株式会社,,株式会社,大阪府,大阪市浪速区,日本橋３丁目８番２５号光ムセンたまらんどビル３Ｆ,,27,111,5560005,,,,,,,2021-08-04,1,,,,,アイラフ,0
1570,5120003019946,新規,0,2021-08-04,2021-08-04,Ｊｕｎｅ　Ｓｔｙｌｅ合同会社,,合同会社,大阪府,大阪市西区,北堀江１丁目１－３四ツ橋日生ビル別館５ＣＤ号,,27,106,5500014,,,,,,,2021-08-04,1,,,,,ジューンスタイル,0
1571,5120003019954,新規,0,2021-08-04,2021-08-04,Ｔｈｒｉｖｅ合同会社,,合同会社,大阪府,大阪市淀川区,西中島５丁目７番１７号ビジネスヴィップ第２新大阪４０６号室,,27,123,5320011,,,,,,,2021-08-04,1,,,,,スライヴ,0
1572,5120003019962,新規,0,2021-08-04,2021-08-04,ｐｈｉＧ合同会社,,合同会社,大阪府,枚方市,香里園山之手町２６番２９号,,27,210,5730087,,,,,,,2021-08-04,1,,,,,ファイジー,0
1575,5120005022428,新規,0,2021-08-04,2021-08-04,医療法人嘉祥会,,その他の設立登記法人,大阪府,大阪市福島区,鷺洲１丁目７番２９号,,27,103,5530002,,,,,,,2021-08-04,1,,,,,カショウカイ,0
1581,5120101064076,新規,0,2021-08-04,2021-08-04,株式会社プリティ,,株式会社,大阪府,堺市中区,深井東町３４９番地１１,,27,142,5998235,,,,,,,2021-08-04,1,,,,,プリティ,0
1585,5130001069835,新規,0,2021-08-04,2021-08-04,ＧｒｏｗＨｕｂ　Ｊａｐａｎ株式会社,,株式会社,京都府,京都市上京区,甲斐守町９７西陣産業創造會舘２階・３階,,26,102,6028061,,,,,,,2021-08-04,1,,,,,グロウハブジャパン,0
1586,5130001069843,新規,0,2021-08-04,2021-08-04,株式会社松原,,株式会社,京都府,京都市西京区,御陵大枝山町４丁目１５番地２,,26,111,6101102,,,,,,,2021-08-04,1,,,,,マツバラ,0
1587,5130001069851,新規,0,2021-08-04,2021-08-04,株式会社源,,株式会社,京都府,京都市右京区,西京極畑田町４７番地２３,,26,108,6150824,,,,,,,2021-08-04,1,,,,,ミナモト,0
1588,5130001069884,新規,0,2021-08-04,2021-08-04,マイデンタル株式会社,,株式会社,京都府,京都市北区,上賀茂本山３７９番地２,,26,101,6038047,,,,,,,2021-08-04,1,,,,,マイデンタル,0
1590,5140001122510,新規,0,2021-08-04,2021-08-04,ＧＥＮＥＳＩＳ株式会社,,株式会社,兵庫県,三木市,志染町青山４丁目１１番地の１０,,28,215,6730521,,,,,,,2021-08-04,1,,,,,ジェネシス,0
1598,5160001023525,新規,0,2021-08-04,2021-08-04,株式会社Ｔ＆Ｔ,,株式会社,滋賀県,草津市,追分南６丁目２番７号プランドールかがやきＡ号室,,25,206,5250048,,,,,,,2021-08-04,1,,,,,ティアンドティ,0
1600,5160005010965,新規,0,2021-08-04,2021-08-04,ＮＰＯ法人ＪＵＭＰ,,その他の設立登記法人,滋賀県,草津市,青地町３４３番地１－１０２シャトー青地Ａ棟,,25,206,5250041,,,,,,,2021-08-04,1,,,,,ジャンプ,0
1612,5180001147264,新規,0,2021-08-04,2021-08-04,株式会社Ｓｋｙ,,株式会社,愛知県,名古屋市中区,丸の内２丁目１５番１２号－２ザテラス丸の内２０１号,,23,106,4600002,,,,,,,2021-08-04,1,,,,,エスケイワイ,0
1613,5180001147289,新規,0,2021-08-04,2021-08-04,株式会社ＥＲＧＯ,,株式会社,愛知県,名古屋市昭和区,阿由知通２丁目１７番地の２,,23,107,4660027,,,,,,,2021-08-04,1,,,,,エルゴ,0
1614,5180001147322,新規,0,2021-08-04,2021-08-04,株式会社Ｋ－ｓｔｙｌｅ,,株式会社,愛知県,名古屋市中区,錦３丁目７番１号,,23,106,4600003,,,,,,,2021-08-04,1,,,,,ケースタイル,0
1620,5180003022812,新規,0,2021-08-04,2021-08-04,アクティブ・テクノロジーズ合同会社,,合同会社,愛知県,名古屋市北区,楠味鋺１丁目４１９番地（コンフォール光和Ｂ棟１０３号）,,23,103,4620014,,,,,,,2021-08-04,1,,,,,アクティブテクノロジーズ,0
1621,5180005019393,新規,0,2021-08-04,2021-08-04,ＡＳＥＡＮリソース協同組合,,その他の設立登記法人,愛知県,知多郡東浦町,大字緒川字塩田３５番地の２,,23,442,4702102,,,,,,,2021-08-04,1,,,,,アセアンリソース,0
1623,5180301035227,新規,0,2021-08-04,2021-08-04,株式会社ｖｉｖｉｄ,,株式会社,愛知県,岡崎市,南明大寺町５番地５、１階２号室,,23,202,4440852,,,,,,,2021-08-04,1,,,,,ビビッド,0
1624,5180301035235,新規,0,2021-08-04,2021-08-04,株式会社和田商会,,株式会社,愛知県,蒲郡市,竹島町２６番４号,,23,214,4430031,,,,,,,2021-08-04,1,,,,,ワダショウカイ,0
1625,5180301035243,新規,0,2021-08-04,2021-08-04,株式会社シンワ,,株式会社,愛知県,西尾市,米津町野寺道４１番地１,,23,213,4450802,,,,,,,2021-08-04,1,,,,,シンワ,0
1626,5180303005070,新規,0,2021-08-04,2021-08-04,合同会社テイコク不動産,,合同会社,愛知県,刈谷市,松坂町４丁目１１０番地,,23,210,4480822,,,,,,,2021-08-04,1,,,,,テイコクフドウサン,0
1631,5190003003737,新規,0,2021-08-04,2021-08-04,ひみつビール合同会社,,合同会社,三重県,伊勢市,二見町西８２９－１,,24,203,5190607,,,,,,,2021-08-04,1,,,,,ヒミツビール,0
1632,5190005011606,新規,0,2021-08-04,2021-08-04,一般社団法人魚々錦会,,その他の設立登記法人,三重県,度会郡大紀町,錦８９１番地１,,24,471,5192911,,,,,,,2021-08-04,1,,,,,トトキンカイ,0
1635,5200001038964,新規,0,2021-08-04,2021-08-04,株式会社ナガテツ,,株式会社,岐阜県,大垣市,榎戸町１丁目３５７番地,,21,202,5032222,,,,,,,2021-08-04,1,,,,,ナガテツ,0
1639,5210001018560,新規,0,2021-08-04,2021-08-04,株式会社七福源,,株式会社,福井県,坂井市,春江町江留下屋敷６番地,,18,210,9190414,,,,,,,2021-08-04,1,,,,,シチフクゲン,0
1644,5220001024335,新規,0,2021-08-04,2021-08-04,アールイーワークス株式会社,,株式会社,石川県,野々市市,本町３丁目２番２７号ＳＵＮ８・２０５号室,,17,212,9218815,,,,,,,2021-08-04,1,,,,,アールイーワークス,0
1647,5230001018922,新規,0,2021-08-04,2021-08-04,株式会社ＨａｎｄＢ,,株式会社,富山県,魚津市,上村木１丁目１１番８号,,16,204,9370046,,,,,,,2021-08-04,1,,,,,エイチアンドビー,0
1653,5240001058364,新規,0,2021-08-04,2021-08-04,株式会社マスモリ建築設計,,株式会社,広島県,広島市佐伯区,千同２丁目９番１７号,,34,108,7315141,,,,,,,2021-08-04,1,,,,,マスモリケンチクセッケイ,0
1654,5240001058372,新規,0,2021-08-04,2021-08-04,株式会社Ｓｋｙ　Ｔｅｃ　Ｃｏｍ,,株式会社,広島県,広島市安佐北区,深川１丁目１１番１７号,,34,106,7391751,,,,,,,2021-08-04,1,,,,,スカイテックコミュニケーション,0
1655,5240001058389,新規,0,2021-08-04,2021-08-04,西寅工業株式会社,,株式会社,広島県,三次市,山家町５７０番地２,,34,209,7280001,,,,,,,2021-08-04,1,,,,,ニシトラコウギョウ,0
1656,5240001058406,新規,0,2021-08-04,2021-08-04,ヤマモトサービス株式会社,,株式会社,広島県,廿日市市,阿品台５丁目８番１７号,,34,213,7380053,,,,,,,2021-08-04,1,,,,,ヤマモトサービス,0
1660,5240003005224,新規,0,2021-08-04,2021-08-04,合同会社ネオクリエイト,,合同会社,広島県,神石郡神石高原町,牧４１５－１１,,34,545,7293513,,,,,,,2021-08-04,1,,,,,ネオクリエイト,0
1661,5240003005232,新規,0,2021-08-04,2021-08-04,合同会社ＰＯＩＥＳＩＳ,,合同会社,広島県,広島市中区,千田町１丁目１２番５－２０２号,,34,101,7300052,,,,,,,2021-08-04,1,,,,,ポイエーシス,0
1662,5240005015246,新規,0,2021-08-04,2021-08-04,ニューライフ広島管理組合法人,,その他の設立登記法人,広島県,広島市南区,的場町１丁目７番１０号,,34,103,7320824,,,,,,,2021-08-04,1,,,,,ニューライフヒロシマカンリクミアイホウジン,0
1667,5260001035816,新規,0,2021-08-04,2021-08-04,リトルハート株式会社,,株式会社,岡山県,岡山市北区,伊島町２丁目２０－２６エクセレント津島２Ｆ,,33,101,7000016,,,,,,,2021-08-04,1,,,,,リトルハート,0
1668,5260001035824,新規,0,2021-08-04,2021-08-04,株式会社ＴＨＲＥＥ,,株式会社,岡山県,岡山市北区,奥田２丁目６番３２－１０３号,,33,101,7000933,,,,,,,2021-08-04,1,,,,,スリー,0
1669,5260001035832,新規,0,2021-08-04,2021-08-04,株式会社Ａｃｃｏｍｐａｎｉｍｅｎｔ,,株式会社,岡山県,笠岡市,七番町１番地４７,,33,205,7140094,,,,,,,2021-08-04,1,,,,,アカンパニメント,0
1670,5260001035840,新規,0,2021-08-04,2021-08-04,株式会社Ｓ・Ｎ・Ｅクリエイトサービス,,株式会社,岡山県,玉野市,北方１５１５番地,,33,204,7060301,,,,,,,2021-08-04,1,,,,,エスエヌイークリエイトサービス,0
1671,5260001035849,新規,0,2021-08-04,2021-08-04,株式会社ＮＯＷＡ,,株式会社,岡山県,岡山市北区,平和町３‐５,,33,101,7000827,,,,,,,2021-08-04,1,,,,,ノワ,0
1681,5290001094041,新規,0,2021-08-04,2021-08-04,株式会社ｅｍｍａ．,,株式会社,福岡県,福岡市西区,今宿駅前１丁目１１番地４号４０５,,40,135,8190168,,,,,,,2021-08-04,1,,,,,エマ,0
1682,5290001094090,新規,0,2021-08-04,2021-08-04,ＥＭＳ　ＰＲＯ株式会社,,株式会社,福岡県,福岡市南区,皿山１丁目２番４８号,,40,134,8111365,,,,,,,2021-08-04,1,,,,,エムズプロ,0
1683,5290003011440,新規,0,2021-08-04,2021-08-04,ＬＹＴ　Ｔｅｃｈ合同会社,,合同会社,福岡県,福岡市中央区,大名２丁目６番１１号Ｆｕｋｕｏｋａ　Ｇｒｏｗｔｈ　Ｎｅｘｔ,,40,133,8100041,,,,,,,2021-08-04,1,,,,,エルワイティーテック,0
1684,5290003011473,新規,0,2021-08-04,2021-08-04,合同会社ランドクリップ,,合同会社,福岡県,福岡市東区,和白東３丁目１３番１号,,40,131,8110214,,,,,,,2021-08-04,1,,,,,ランドグリップ,0
1687,5320001018525,新規,0,2021-08-04,2021-08-04,株式会社オノテック,,株式会社,大分県,大分市,京が丘南２丁目１１番１０号,,44,201,8700129,,,,,,,2021-08-04,1,,,,,オノテック,0
1688,5330001028886,新規,0,2021-08-04,2021-08-04,株式会社三栄電子,,株式会社,熊本県,山鹿市,中３２４番地５,,43,208,8610531,,,,,,,2021-08-04,1,,,,,サンエイデンシ,0
1691,5330003009001,新規,0,2021-08-04,2021-08-04,ハサウェイ合同会社,,合同会社,熊本県,宇土市,三拾町２９５番地２０,,43,211,8690406,,,,,,,2021-08-04,1,,,,,ハサウェイ,0
1694,5340001023977,新規,0,2021-08-04,2021-08-04,株式会社安田エンタープライズ,,株式会社,鹿児島県,姶良市,東餅田２４６９番地５,,46,225,8995421,,,,,,,2021-08-04,1,,,,,ヤスダエンタープライズ,0
1695,5340001023985,新規,0,2021-08-04,2021-08-04,株式会社ヒロケン,,株式会社,鹿児島県,鹿児島市,紫原７丁目１１番１８号,,46,201,8900082,,,,,,,2021-08-04,1,,,,,ヒロケン,0
1696,5340001023993,新規,0,2021-08-04,2021-08-04,株式会社堀脇電設,,株式会社,鹿児島県,鹿児島市,喜入瀬々串町１４番地３,,46,201,8910201,,,,,,,2021-08-04,1,,,,,ホリワキデンセツ,0
1700,5360001029155,新規,0,2021-08-04,2021-08-04,株式会社ＯＣＥＡＮＳ１１,,株式会社,沖縄県,石垣市,字真栄里８７３番地１,,47,207,9070002,,,,,,,2021-08-04,1,,,,,オーシャンズイレブン,0
1701,5360001029171,新規,0,2021-08-04,2021-08-04,株式会社ＴＯＵ　Ｇｒｏｕｐ,,株式会社,沖縄県,那覇市,銘苅２丁目６番１３－３０９号サントピア那覇新都心第３,,47,201,9000004,,,,,,,2021-08-04,1,,,,,ティーオーユーグループ,0
1704,5370001047420,新規,0,2021-08-04,2021-08-04,株式会社シュシュメイト,,株式会社,宮城県,仙台市若林区,穀町２２番地の３,,04,103,9840807,,,,,,,2021-08-04,1,,,,,シュシュメイト,0
1705,5370003005335,新規,0,2021-08-04,2021-08-04,合同会社Ｇａｒａｇｅ,,合同会社,宮城県,仙台市青葉区,本町１丁目５番２８号カーニープレイス仙台駅前通６０３号室,,04,101,9800014,,,,,,,2021-08-04,1,,,,,,0
1712,5380001032082,新規,0,2021-08-04,2021-08-04,株式会社エースリンク,,株式会社,福島県,本宮市,高木字金瀬２１番地１メゾン・クレール１０５号室,,07,214,9691101,,,,,,,2021-08-04,1,,,,,エースリンク,0
1719,5400001015547,新規,0,2021-08-04,2021-08-04,株式会社鈴鹿郷,,株式会社,岩手県,滝沢市,大釜風林４１４番地２５,,03,216,0200757,,,,,,,2021-08-04,1,,,,,スズカゴウ,0
1720,5400001015555,新規,0,2021-08-04,2021-08-04,株式会社ＨＡＮＡＭＡＫＩナポリ,,株式会社,岩手県,花巻市,松園町１丁目１番４０号,,03,205,0250066,,,,,,,2021-08-04,1,,,,,ハナマキナポリ,0
1728,5430001084671,新規,0,2021-08-04,2021-08-04,株式会社ＴＯＭＭＹ不動産,,株式会社,北海道,札幌市豊平区,平岸三条１丁目３番１７号,,01,105,0620933,,,,,,,2021-08-04,1,,,,,トミーフドウサン,0
1729,5430001084721,新規,0,2021-08-04,2021-08-04,株式会社和泉,,株式会社,北海道,余市郡余市町,大川町１１丁目７１番地３,,01,408,0460004,,,,,,,2021-08-04,1,,,,,ワイズミ,0
1731,5450001013430,新規,0,2021-08-04,2021-08-04,株式会社イシヤマファーマシー,,株式会社,北海道,旭川市,末広東一条２丁目２番４号,,01,204,0718121,,,,,,,2021-08-04,1,,,,,イシヤマファーマシー,0
1732,5460101007042,新規,0,2021-08-04,2021-08-04,ＳＢＭ株式会社,,株式会社,北海道,帯広市,大通南２７丁目２０番地３,,01,207,0800010,,,,,,,2021-08-04,1,,,,,エスビーエム,0
1737,5470001018642,新規,0,2021-08-04,2021-08-04,古川牧場株式会社,,株式会社,香川県,高松市,川島東町１５１７番地１,,37,201,7610443,,,,,,,2021-08-04,1,,,,,フルカワボクジョウ,0
1738,5470001018650,新規,0,2021-08-04,2021-08-04,ディーアンドアイ株式会社,,株式会社,香川県,高松市,一宮町７１０番地１ＯＫビル３階,,37,201,7618084,,,,,,,2021-08-04,1,,,,,ディーアンドアイ,0
1739,5480001011448,新規,0,2021-08-04,2021-08-04,四国ＳＥＣＵＲＩＴＹ　ＳＥＲＶＩＣＥ株式会社,,株式会社,徳島県,徳島市,論田町和太開１３８番地６,,36,201,7708011,,,,,,,2021-08-04,1,,,,,シコクセキュリティサービス,0
1740,5490001009953,新規,0,2021-08-04,2021-08-04,株式会社岡田塗装,,株式会社,高知県,高知市,瀬戸東町３丁目５１９番地２５,,39,201,7810252,,,,,,,2021-08-04,1,,,,,オカダトソウ,0
1745,5500001023597,新規,0,2021-08-04,2021-08-04,株式会社エバーアップ,,株式会社,愛媛県,伊予市,下吾川６１７番地１５,,38,210,7993111,,,,,,,2021-08-04,1,,,,,エバーアップ,0
1746,5500001023606,新規,0,2021-08-04,2021-08-04,株式会社ワイエスケイ,,株式会社,愛媛県,松山市,北井門３丁目５番３号,,38,201,7911105,,,,,,,2021-08-04,1,,,,,ワイエスケイ,0
1753,6010001220235,新規,0,2021-08-04,2021-08-04,株式会社ポケットペット,,株式会社,東京都,千代田区,丸の内１丁目６－５丸の内北口ビルディング９階,,13,101,1000005,,,,,,,2021-08-04,1,,,,,ポケットペット,0
1756,6010005033724,新規,0,2021-08-04,2021-08-04,日光Ｐｌｕｓ１９ホールディング特定目的会社,,その他の設立登記法人,東京都,千代田区,丸の内３丁目１番１号東京共同会計事務所内,,13,101,1000005,,,,,,,2021-08-04,1,,,,,ニッコウプラスナインティーンホールディング,0
1757,6010101014801,新規,0,2021-08-04,2021-08-04,服部内装工業株式会社,,株式会社,東京都,八王子市,諏訪町１３１番地７,,13,201,1930812,,,,,,,2021-08-04,1,,,,,,0
1763,6010401161822,新規,0,2021-08-04,2021-08-04,株式会社４２０Ｓｕｐｐｌｙ,,株式会社,東京都,港区,浜松町２丁目２番１５号浜松町ダイヤビル２Ｆ,,13,103,1050013,,,,,,,2021-08-04,1,,,,,ヨンニーゼロサプライ,0
1764,6010401161871,新規,0,2021-08-04,2021-08-04,株式会社ディア企画,,株式会社,東京都,港区,南青山２丁目２番１５号ウィン青山９４２,,13,103,1070062,,,,,,,2021-08-04,1,,,,,ディアキカク,0
1766,6010403025802,新規,0,2021-08-04,2021-08-04,栃木共栄観光合同会社,,合同会社,東京都,港区,西新橋１丁目２番９号ＥＰコンサルティングサービス内,,13,103,1050003,,,,,,,2021-08-04,1,,,,,トチギキョウエイカンコウ,0
1767,6010405020090,新規,0,2021-08-04,2021-08-04,Ｌｏｇｉ５一般社団法人,,その他の設立登記法人,東京都,港区,虎ノ門３丁目２２番１０－２０１号,,13,103,1050001,,,,,,,2021-08-04,1,,,,,ロジファイブ,0
1770,6010501047616,新規,0,2021-08-04,2021-08-04,ＧＬＯＣＡＬ株式会社,,株式会社,東京都,台東区,北上野１丁目８－５ビリーフ上野７Ｆ,,13,106,1100014,,,,,,,2021-08-04,1,,,,,グローカル,0
1773,6010601059750,新規,0,2021-08-04,2021-08-04,リアルエステート・Ｍ＆Ａワークス株式会社,,株式会社,東京都,墨田区,太平２丁目６番１号キムラハイツ１０１,,13,107,1300012,,,,,,,2021-08-04,1,,,,,リアルエステートエムアンドエーワークス,0
1777,6010803003845,新規,0,2021-08-04,2021-08-04,合同会社ツータッチカンパニー,,合同会社,東京都,大田区,東馬込２丁目１８番１２号テラスハウスヴィラリーフＢ号,,13,111,1430022,,,,,,,2021-08-04,1,,,,,ツータッチカンパニー,0
1781,6010901049204,新規,0,2021-08-04,2021-08-04,株式会社ハルミナ,,株式会社,東京都,世田谷区,桜２丁目１１－２８,,13,112,1560053,,,,,,,2021-08-04,1,,,,,ハルミナ,0
1783,6010903006707,新規,0,2021-08-04,2021-08-04,合同会社Ａ．Ｃｏ－ｔｉｏｎ,,合同会社,東京都,世田谷区,松原４丁目１９番１２号,,13,112,1560043,,,,,,,2021-08-04,1,,,,,エイコーション,0
1787,6011001142031,新規,0,2021-08-04,2021-08-04,株式会社ＩＫＫＡＮ,,株式会社,東京都,渋谷区,神南１丁目７－９北谷マンション５０２,,13,113,1500041,,,,,,,2021-08-04,1,,,,,イッカン,0
1788,6011001142064,新規,0,2021-08-04,2021-08-04,リバースエイジング株式会社,,株式会社,東京都,渋谷区,広尾５丁目４番１６号ＧＥＭＳ広尾クロス内６階６１号室,,13,113,1500012,,,,,,,2021-08-04,1,,,,,リバースエイジング,0
1789,6011001142080,新規,0,2021-08-04,2021-08-04,株式会社ＷＩＳＴＥＲＩＡ,,株式会社,東京都,渋谷区,宇田川町１６番８号渋谷センタービル３階,,13,113,1500042,,,,,,,2021-08-04,1,,,,,ウィステリア,0
1790,6011003013123,新規,0,2021-08-04,2021-08-04,Ｕｍｅｋｉ　Ｍｅｄｉｃａｌ　Ｔｅｃｈｎｏｌｏｇｉｅｓ合同会社,,合同会社,東京都,渋谷区,富ヶ谷１丁目１４番地１４号スタンフォードアネックスビル３階,,13,113,1510063,,,,,,,2021-08-04,1,,,,,ウメキメディカルテクノロジーズ,0
1792,6011105009894,新規,0,2021-08-04,2021-08-04,一般社団法人Ｇ＆Ｔ笑顔の会,,その他の設立登記法人,東京都,新宿区,西新宿７丁目１番７号新宿ダイカンプラザＡ１０１８,,13,104,1600023,,,,,,,2021-08-04,1,,,,,ジーアンドティーエガオノカイ,0
1801,6011601025305,新規,0,2021-08-04,2021-08-04,株式会社ｍｉｃｋｓ,,株式会社,東京都,練馬区,桜台４丁目２番６号細野ビル３０２,,13,120,1760002,,,,,,,2021-08-04,1,,,,,ミックス,0
1805,6011801039534,新規,0,2021-08-04,2021-08-04,Ｌｅａ　Ｒｅｖｅ株式会社,,株式会社,東京都,足立区,栗原２丁目２６番１１号,,13,121,1230842,,,,,,,2021-08-04,1,,,,,レアレーヴ,0
1807,6011803004726,新規,0,2021-08-04,2021-08-04,合同会社ケレス５５,,合同会社,東京都,足立区,保木間３丁目３０番１１号,,13,121,1210064,,,,,,,2021-08-04,1,,,,,ケレスゴーゴー,0
1810,6012801021003,新規,0,2021-08-04,2021-08-04,ジャパンライズトレーディング株式会社,,株式会社,東京都,立川市,一番町４丁目１４番地の１一番町パレス２０６号,,13,202,1900033,,,,,,,2021-08-04,1,,,,,ジャパンライズトレーディング,0
1814,6013105001781,新規,0,2021-08-04,2021-08-04,一般社団法人アナドロマス,,その他の設立登記法人,東京都,西多摩郡檜原村,３０３番地,,13,307,1900200,,,,,,,2021-08-04,1,,,,,,0
1817,6013301047819,新規,0,2021-08-04,2021-08-04,株式会社プロメ,,株式会社,東京都,豊島区,上池袋４丁目１０番８号,,13,116,1700012,,,,,,,2021-08-04,1,,,,,プロメ,0
1826,6020001142412,新規,0,2021-08-04,2021-08-04,株式会社ＫＳＮＹビジネスコンサルティング,,株式会社,神奈川県,横浜市旭区,金が谷２丁目１９番６号,,14,112,2410812,,,,,,,2021-08-04,1,,,,,ケーエスエヌワイビジネスコンサルティング,0
1827,6020001142453,新規,0,2021-08-04,2021-08-04,株式会社アズマ,,株式会社,神奈川県,横浜市保土ケ谷区,藤塚町２５番１１－２０２号,,14,106,2400031,,,,,,,2021-08-04,1,,,,,アズマ,0
1832,6020003020269,新規,0,2021-08-04,2021-08-04,ＭＹＤ　Ｌｅａｄｅｒｓｈｉｐ合同会社,,合同会社,神奈川県,横浜市青葉区,荏田北１丁目４番地３４,,14,117,2250015,,,,,,,2021-08-04,1,,,,,エムワイディーリーダーシップ,0
1833,6020003020277,新規,0,2021-08-04,2021-08-04,ＳＴＯＲＹ合同会社,,合同会社,神奈川県,横浜市鶴見区,潮田町１丁目８３番地池山方,,14,101,2300041,,,,,,,2021-08-04,1,,,,,ストーリー,0
1838,6021001073556,新規,0,2021-08-04,2021-08-04,株式会社オルトロス,,株式会社,神奈川県,平塚市,四之宮１丁目４番１３号,,14,203,2540014,,,,,,,2021-08-04,1,,,,,オルトロス,0
1839,6021001073589,新規,0,2021-08-04,2021-08-04,株式会社近二舎一級建築士事務所,,株式会社,神奈川県,茅ヶ崎市,東海岸北１丁目６番４９号,,14,207,2530053,,,,,,,2021-08-04,1,,,,,キンジシャイッキュウケンチクシジムショ,0
1850,6030001143608,新規,0,2021-08-04,2021-08-04,株式会社Ｓｕｎｎｙ　ＤａＹ,,株式会社,埼玉県,草加市,氷川町２１４番地７,,11,221,3400034,,,,,,,2021-08-04,1,,,,,サニーデイ,0
1851,6030001143640,新規,0,2021-08-04,2021-08-04,株式会社エンドーテック,,株式会社,埼玉県,上尾市,大字平方７７４番地,,11,219,3620059,,,,,,,2021-08-04,1,,,,,エンドーテック,0
1852,6030001143665,新規,0,2021-08-04,2021-08-04,株式会社晴健コーポレーション,,株式会社,埼玉県,さいたま市岩槻区,大字浮谷１９９８番地１０,,11,110,3390037,,,,,,,2021-08-04,1,,,,,ハルケンコーポレーション,0
1853,6030001143673,新規,0,2021-08-04,2021-08-04,株式会社ＵＬＵ,,株式会社,埼玉県,川口市,東川口４丁目１番１号,,11,203,3330801,,,,,,,2021-08-04,1,,,,,ウル,0
1854,6030001143723,新規,0,2021-08-04,2021-08-04,株式会社ＡＲＩＹＡ,,株式会社,埼玉県,さいたま市岩槻区,大字釣上新田３００番地１,,11,110,3390025,,,,,,,2021-08-04,1,,,,,アリヤ,0
1859,6030003017594,新規,0,2021-08-04,2021-08-04,合同会社ＨＩＴＯＭＹＯＮ,,合同会社,埼玉県,さいたま市北区,奈良町１１１－４３,,11,102,3310822,,,,,,,2021-08-04,1,,,,,ヒトミョン,0
1860,6030003017735,新規,0,2021-08-04,2021-08-04,ケイ・コミュニケーションズ合同会社,,合同会社,埼玉県,さいたま市浦和区,大東２丁目１７番３２号,,11,107,3300043,,,,,,,2021-08-04,1,,,,,ケイコミュニケーションズ,0
1865,6040001119598,新規,0,2021-08-04,2021-08-04,株式会社クリエーション,,株式会社,千葉県,千葉市若葉区,若松町５４３番地７６,,12,104,2640021,,,,,,,2021-08-04,1,,,,,クリエーション,0
1866,6040001119607,新規,0,2021-08-04,2021-08-04,株式会社ＷＩＮＧ,,株式会社,千葉県,君津市,杢師１丁目１３番６号,,12,225,2991163,,,,,,,2021-08-04,1,,,,,ウィング,0
1867,6040001119680,新規,0,2021-08-04,2021-08-04,江戸川ギンゴ株式会社,,株式会社,千葉県,市川市,北方２丁目３３番１６号クレスト市川１０３号,,12,203,2720815,,,,,,,2021-08-04,1,,,,,エドガワギンゴ,0
1868,6040001119697,新規,0,2021-08-04,2021-08-04,株式会社やまあ水産,,株式会社,千葉県,銚子市,新生町１丁目５５番地の５,,12,202,2880056,,,,,,,2021-08-04,1,,,,,,0
1877,6050001049638,新規,0,2021-08-04,2021-08-04,株式会社菊池,,株式会社,茨城県,水戸市,千波町２８６７番地の８１マイハウス１・１０３号,,08,201,3100851,,,,,,,2021-08-04,1,,,,,キクチ,0
1878,6050001049662,新規,0,2021-08-04,2021-08-04,株式会社ＳＬＯＷ　ＪＡＭ,,株式会社,茨城県,水戸市,城東１丁目１０番２８号,,08,201,3100012,,,,,,,2021-08-04,1,,,,,スロージャム,0
1881,6060001033954,新規,0,2021-08-04,2021-08-04,株式会社ＳＨＯＲＥ総合企画,,株式会社,栃木県,佐野市,高萩町１３３６番地４３,,09,204,3270821,,,,,,,2021-08-04,1,,,,,,0
1882,6060001033962,新規,0,2021-08-04,2021-08-04,株式会社松本,,株式会社,栃木県,小山市,乙女２丁目１５番９号,,09,208,3290214,,,,,,,2021-08-04,1,,,,,マツモト,0
1883,6060001033970,新規,0,2021-08-04,2021-08-04,株式会社山匠工業,,株式会社,栃木県,宇都宮市,川田町１１０番地１,,09,201,3210111,,,,,,,2021-08-04,1,,,,,ヤマショウコウギョウ,0
1888,6060003003765,新規,0,2021-08-04,2021-08-04,合同会社７１,,合同会社,栃木県,佐野市,大橋町３１７９番地１８,,09,204,3270003,,,,,,,2021-08-04,1,,,,,セブンティワン,0
1891,6070001038325,新規,0,2021-08-04,2021-08-04,株式会社ＡＳＭＹ,,株式会社,群馬県,北群馬郡吉岡町,大字上野田１４８番地２,,10,345,3703606,,,,,,,2021-08-04,1,,,,,アスミー,0
1892,6070001038333,新規,0,2021-08-04,2021-08-04,株式会社ハッスル,,株式会社,群馬県,高崎市,江木町４３７番地１,,10,202,3700046,,,,,,,2021-08-04,1,,,,,ハッスル,0
1895,6070003004192,新規,0,2021-08-04,2021-08-04,ｍ＆ｈ　ｃｒｅａｔｉｖｅ合同会社,,合同会社,群馬県,渋川市,金井７３５番地８,,10,208,3770027,,,,,,,2021-08-04,1,,,,,エムアンドエイチクリエイティブ,0
1903,6080001024357,新規,0,2021-08-04,2021-08-04,株式会社ＭＯＭＯテクノ,,株式会社,静岡県,牧之原市,切山２７１２番地１２,,22,226,4210401,,,,,,,2021-08-04,1,,,,,モモテクノ,0
1904,6080001024373,新規,0,2021-08-04,2021-08-04,株式会社ウインドスペース,,株式会社,静岡県,静岡市駿河区,中田本町６２番６号,,22,102,4228043,,,,,,,2021-08-04,1,,,,,ウインドスペース,0
1910,6090001017137,新規,0,2021-08-04,2021-08-04,株式会社真和建業,,株式会社,山梨県,笛吹市,石和町松本４９２番地１,,19,211,4060021,,,,,,,2021-08-04,1,,,,,シンワケンギョウ,0
1915,6100001034502,新規,0,2021-08-04,2021-08-04,株式会社ＭＡＵＮＡ,,株式会社,長野県,諏訪市,沖田町３丁目１９番地,,20,206,3920013,,,,,,,2021-08-04,1,,,,,マウナ,0
1916,6110003004543,新規,0,2021-08-04,2021-08-04,合同会社ｙｕｕｋｉ,,合同会社,新潟県,十日町市,稲荷町１丁目２０７番地６庭野ビル４０１,,15,210,9480073,,,,,,,2021-08-04,1,,,,,ユウキ,0
1933,6120001239495,新規,0,2021-08-04,2021-08-04,株式会社フィールド,,株式会社,大阪府,大阪市東淀川区,瑞光１丁目２番１４号,,27,114,5330005,,,,,,,2021-08-04,1,,,,,フィールド,0
1934,6120001239504,新規,0,2021-08-04,2021-08-04,株式会社れいわ,,株式会社,大阪府,大阪市住之江区,西住之江１丁目４番３－１３０３号,,27,125,5590005,,,,,,,2021-08-04,1,,,,,レイワ,0
1938,6120005022427,新規,0,2021-08-04,2021-08-04,医療法人夢はいつか会,,その他の設立登記法人,大阪府,大阪市中央区,瓦町３丁目４番８号アサヒビル３Ｆ,,27,128,5410048,,,,,,,2021-08-04,1,,,,,ユメハイツカカイ,0
1941,6120101064091,新規,0,2021-08-04,2021-08-04,株式会社ｂｕｆｆｗｏｏｄ,,株式会社,大阪府,泉南郡熊取町,小谷南４丁目２０６６番地,,27,361,5900435,,,,,,,2021-08-04,1,,,,,バフウッド,0
1944,6120903003767,新規,0,2021-08-04,2021-08-04,イプシロン合同会社,,合同会社,大阪府,茨木市,北春日丘３丁目６番１２号,,27,211,5670048,,,,,,,2021-08-04,1,,,,,イプシロン,0
1950,6122001035049,新規,0,2021-08-04,2021-08-04,株式会社夢と希望,,株式会社,大阪府,東大阪市,俊徳町１丁目３番２４号,,27,227,5770831,,,,,,,2021-08-04,1,,,,,ユメトキボウ,0
1953,6130001069826,新規,0,2021-08-04,2021-08-04,株式会社ＦＡＣＴｏｒＹ,,株式会社,京都府,京都市下京区,中堂寺坊城町２８番地７,,26,106,6008811,,,,,,,2021-08-04,1,,,,,ファクトオアワイ,0
1954,6130001069834,新規,0,2021-08-04,2021-08-04,Ｆｕｎｄ　Ｊａｐａｎ株式会社,,株式会社,京都府,京都市上京区,甲斐守町９７西陣産業創造會舘２階・３階,,26,102,6028061,,,,,,,2021-08-04,1,,,,,ファンドジャパン,0
1955,6130001069850,新規,0,2021-08-04,2021-08-04,株式会社ＺＥＲＯ,,株式会社,京都府,亀岡市,篠町篠八幡裏４０番地６,,26,206,6210826,,,,,,,2021-08-04,1,,,,,ゼロ,0
1956,6130001069867,新規,0,2021-08-04,2021-08-04,株式会社ｏｒｕｔｅｎｓｉａ,,株式会社,京都府,京都市南区,唐橋井園町４５番地７,,26,107,6018462,,,,,,,2021-08-04,1,,,,,オルテンシア,0
1958,6130005016246,新規,0,2021-08-04,2021-08-04,税理士法人Ｆ＆Ｐａｒｔｎｅｒｓ,,その他の設立登記法人,京都府,京都市中京区,烏丸通六角下る七観音町６２３番地,,26,104,6048162,,,,,,,2021-08-04,1,,,,,エフアンドパートナーズ,0
1966,6140001122542,新規,0,2021-08-04,2021-08-04,株式会社ＴＡＮＡＶＥＬ,,株式会社,兵庫県,神戸市兵庫区,福原町２７番６号４階,,28,105,6520036,,,,,,,2021-08-04,1,,,,,タナベル,0
1971,6150001024837,新規,0,2021-08-04,2021-08-04,株式会社彩都建築設計,,株式会社,奈良県,香芝市,五位堂６丁目７９番地９,,29,210,6390226,,,,,,,2021-08-04,1,,,,,サイトケンチクセッケイ,0
1976,6160001023524,新規,0,2021-08-04,2021-08-04,株式会社ユニット開発,,株式会社,滋賀県,東近江市,布引台１丁目１０番地,,25,213,5270072,,,,,,,2021-08-04,1,,,,,ユニットカイハツ,0
1980,6170001016709,新規,0,2021-08-04,2021-08-04,株式会社原造園,,株式会社,和歌山県,紀の川市,遠方３４４番地,,30,208,6496562,,,,,,,2021-08-04,1,,,,,ハラゾウエン,0
1987,6180001147239,新規,0,2021-08-04,2021-08-04,株式会社Ｌｉｍｅ　ｌａｂｏ,,株式会社,愛知県,名古屋市瑞穂区,豊岡通３丁目５６番地ドリャエ・デ・アカホシ１Ｆ,,23,108,4670012,,,,,,,2021-08-04,1,,,,,ライムラボ,0
1988,6180001147247,新規,0,2021-08-04,2021-08-04,株式会社ミンシア,,株式会社,愛知県,名古屋市中区,新栄１丁目１番２６号オアシスビル１Ｆ,,23,106,4600007,,,,,,,2021-08-04,1,,,,,ミンシア,0
1989,6180001147255,新規,0,2021-08-04,2021-08-04,株式会社ＰＲＯＲＩＳＭＯＳ,,株式会社,愛知県,名古屋市中区,錦１丁目１４－５,,23,106,4600003,,,,,,,2021-08-04,1,,,,,プロリスモス,0
1990,6180001147263,新規,0,2021-08-04,2021-08-04,株式会社吉池コンサルティング,,株式会社,愛知県,名古屋市中川区,荒子１丁目２５番地,,23,110,4540869,,,,,,,2021-08-04,1,,,,,ヨシイケコンサルティング,0
1991,6180001147271,新規,0,2021-08-04,2021-08-04,株式会社Ｍｉｒａｃｌｅ,,株式会社,愛知県,北名古屋市,宇福寺中杁１０８番地３,,23,234,4810035,,,,,,,2021-08-04,1,,,,,ミラクル,0
1992,6180001147305,新規,0,2021-08-04,2021-08-04,ちょこっと株式会社,,株式会社,愛知県,名古屋市緑区,大高町字石ノ戸４番地の２,,23,114,4598001,,,,,,,2021-08-04,1,,,,,チョコット,0
1993,6180001147346,新規,0,2021-08-04,2021-08-04,株式会社ＧＲＯＷＴＨ,,株式会社,愛知県,名古屋市緑区,大高町字子ノ年９番地の５,,23,114,4598001,,,,,,,2021-08-04,1,,,,,グロース,0
1994,6180001147370,新規,0,2021-08-04,2021-08-04,株式会社Ｂｅｏ,,株式会社,愛知県,あま市,二ツ寺鬼田４３番地１６,,23,237,4901207,,,,,,,2021-08-04,1,,,,,ベオ,0
2014,6190001028578,新規,0,2021-08-04,2021-08-04,株式会社ＲＳＹ,,株式会社,三重県,津市,安濃町安濃２７０３番地８,,24,201,5142302,,,,,,,2021-08-04,1,,,,,アールエスワイ,0
2020,6200001038955,新規,0,2021-08-04,2021-08-04,株式会社飯沼設備,,株式会社,岐阜県,関市,明生町１丁目６３番地１,,21,205,5013904,,,,,,,2021-08-04,1,,,,,イイヌマセツビ,0
2021,6200001038963,新規,0,2021-08-04,2021-08-04,株式会社ｍａｒｌ,,株式会社,岐阜県,関市,向山町３丁目３番４号,,21,205,5013933,,,,,,,2021-08-04,1,,,,,マール,0
2022,6200001038988,新規,0,2021-08-04,2021-08-04,株式会社あけぼの,,株式会社,岐阜県,各務原市,那加住吉町１丁目１９番地,,21,213,5040907,,,,,,,2021-08-04,1,,,,,アケボノ,0
2029,6220003003096,新規,0,2021-08-04,2021-08-04,合同会社ＦＯＳＳ,,合同会社,石川県,金沢市,西金沢新町１９５番地,,17,201,9218055,,,,,,,2021-08-04,1,,,,,フォス,0
2033,6230001018921,新規,0,2021-08-04,2021-08-04,株式会社喜こころ,,株式会社,富山県,南砺市,松木１４７番地１,,16,210,9391623,,,,,,,2021-08-04,1,,,,,キココロ,0
2034,6230005009157,新規,0,2021-08-04,2021-08-04,一般財団法人下村財団,,その他の設立登記法人,富山県,富山市,婦中町萩島３６９７番地８,,16,201,9392723,,,,,,,2021-08-04,1,,,,,シモムラザイダン,0
2041,6240001058363,新規,0,2021-08-04,2021-08-04,株式会社優工業,,株式会社,広島県,広島市南区,東雲２丁目１６番３３－１００３号,,34,103,7340022,,,,,,,2021-08-04,1,,,,,ユウコウギョウ,0
2042,6240001058371,新規,0,2021-08-04,2021-08-04,株式会社エムテック,,株式会社,広島県,三原市,沼田東町本市１６１番地５,,34,204,7230147,,,,,,,2021-08-04,1,,,,,エムテック,0
2043,6240001058388,新規,0,2021-08-04,2021-08-04,株式会社ヒサト,,株式会社,広島県,東広島市,八本松東２丁目１５番１３－１８号,,34,212,7390142,,,,,,,2021-08-04,1,,,,,ヒサト,0
2044,6240003005215,新規,0,2021-08-04,2021-08-04,合同会社山根運送,,合同会社,広島県,三次市,十日市東２丁目３番５号２０２号室,,34,209,7280013,,,,,,,2021-08-04,1,,,,,ヤマネウンソウ,0
2045,6240003005223,新規,0,2021-08-04,2021-08-04,合同会社上土井,,合同会社,広島県,広島市安佐北区,亀山７丁目６番１７号,,34,106,7310231,,,,,,,2021-08-04,1,,,,,ウエドイ,0
2046,6240003005231,新規,0,2021-08-04,2021-08-04,合同会社アークリンクス,,合同会社,広島県,広島市安佐南区,東原３丁目２３－１８－１０１,,34,105,7310112,,,,,,,2021-08-04,1,,,,,アークリンクス,0
2048,6260001035807,新規,0,2021-08-04,2021-08-04,株式会社芳建,,株式会社,岡山県,岡山市北区,足守３０３番地１７,,33,101,7011463,,,,,,,2021-08-04,1,,,,,ヨシケン,0
2049,6260001035815,新規,0,2021-08-04,2021-08-04,株式会社てのひら,,株式会社,岡山県,倉敷市,黒崎５６４番地５,,33,202,7100014,,,,,,,2021-08-04,1,,,,,テノヒラ,0
2050,6260001035848,新規,0,2021-08-04,2021-08-04,株式会社ジール,,株式会社,岡山県,岡山市南区,泉田３丁目２‐３１,,33,104,7000944,,,,,,,2021-08-04,1,,,,,ジール,0
2054,6280001008488,新規,0,2021-08-04,2021-08-04,株式会社たけざきヘルスプロモーション,,株式会社,島根県,出雲市,平田町１８２５番地８,,32,203,6910001,,,,,,,2021-08-04,1,,,,,タケザキヘルスプロモーション,0
2060,6290005018301,新規,0,2021-08-04,2021-08-04,一般社団法人九州厚生会,,その他の設立登記法人,福岡県,福岡市中央区,天神１丁目２番１２号,,40,133,8100001,,,,,,,2021-08-04,1,,,,,キュウシュウコウセイカイ,0
2063,6310001017403,新規,0,2021-08-04,2021-08-04,株式会社深堀電気,,株式会社,長崎県,長崎市,三原２丁目３１番５号,,42,201,8528123,,,,,,,2021-08-04,1,,,,,フカホリデンキ,0
2069,6330003009000,新規,0,2021-08-04,2021-08-04,合同会社バランスライフ,,合同会社,熊本県,熊本市北区,高平１丁目２０番５号,,43,105,8600085,,,,,,,2021-08-04,1,,,,,バランスライフ,0
2072,6350001017234,新規,0,2021-08-04,2021-08-04,エヌシステム株式会社,,株式会社,宮崎県,宮崎市,花ケ島町笹原２２４１番地６,,45,201,8800036,,,,,,,2021-08-04,1,,,,,エヌシステム,0
2073,6350001017242,新規,0,2021-08-04,2021-08-04,株式会社つのＢＡＳＥ,,株式会社,宮崎県,児湯郡都農町,大字川北４８２２番地１,,45,406,8891201,,,,,,,2021-08-04,1,,,,,ツノベース,0
2074,6350001017250,新規,0,2021-08-04,2021-08-04,ブルーオーシャン経営コンサルティング株式会社,,株式会社,宮崎県,都城市,安久町１８８８番地１５,,45,202,8850044,,,,,,,2021-08-04,1,,,,,ブルーオーシャンケイエイコンサルティング,0
2079,6360003011333,新規,0,2021-08-04,2021-08-04,合同会社琉休,,合同会社,沖縄県,沖縄市,与儀１丁目７番７号ミルコマンション沖縄市与儀グランパーク１１０３,,47,211,9042174,,,,,,,2021-08-04,1,,,,,リュウキュウ,0
2081,6370001047444,新規,0,2021-08-04,2021-08-04,いずみエステート株式会社,,株式会社,宮城県,仙台市泉区,山の寺２丁目２８番１３号エスポワール１０３号室,,04,105,9813103,,,,,,,2021-08-04,1,,,,,,0
2082,6370001047452,新規,0,2021-08-04,2021-08-04,株式会社ピクセルアセット,,株式会社,宮城県,仙台市青葉区,花京院１丁目４－８,,04,101,9800013,,,,,,,2021-08-04,1,,,,,,0
2087,6400001015546,新規,0,2021-08-04,2021-08-04,株式会社ＰＥＡＮＵＴＳ,,株式会社,岩手県,花巻市,実相寺２１６番地５,,03,205,0250035,,,,,,,2021-08-04,1,,,,,ピーナッツ,0
2088,6400001015554,新規,0,2021-08-04,2021-08-04,株式会社ナナ動物病院,,株式会社,岩手県,宮古市,宮町４丁目３番１４号,,03,202,0270052,,,,,,,2021-08-04,1,,,,,ナナドウブツビョウイン,0
2093,6410005006417,新規,0,2021-08-04,2021-08-04,協同組合ニカホノサキ,,その他の設立登記法人,秋田県,にかほ市,大竹字下後２６番地,,05,214,0180322,,,,,,,2021-08-04,1,,,,,,0
2108,6460003000854,新規,0,2021-08-04,2021-08-04,タクト合同会社,,合同会社,北海道,釧路市,星が浦大通１丁目３番４号,,01,206,0840912,,,,,,,2021-08-04,1,,,,,タクト,0
2110,6460101007041,新規,0,2021-08-04,2021-08-04,株式会社十勝屋ホテルズ,,株式会社,北海道,帯広市,西二条南１１丁目１６番地,,01,207,0800012,,,,,,,2021-08-04,1,,,,,トカチヤホテルズ,0
2115,6470003002008,新規,0,2021-08-04,2021-08-04,瀬戸内パウダーラボ合同会社,,合同会社,香川県,高松市,屋島中町７２８南棟,,37,201,7610112,,,,,,,2021-08-04,1,,,,,セトウチパウダーラボ,0
2125,7010001220176,新規,0,2021-08-04,2021-08-04,株式会社Ｎａｏコーポレーション,,株式会社,東京都,中央区,晴海３丁目１３番１－４２０８号,,13,102,1040053,,,,,,,2021-08-04,1,,,,,エヌエーオーコーポレーション,0
2127,7010003035531,新規,0,2021-08-04,2021-08-04,合同会社Ｍａｉｓｏｎ　ｄｅ　Ｍｏｕ,,合同会社,東京都,中央区,勝どき５丁目５－１４－７１５,,13,102,1040054,,,,,,,2021-08-04,1,,,,,メゾンドムー,0
2138,7010401161904,新規,0,2021-08-04,2021-08-04,ラリゴ株式会社,,株式会社,東京都,港区,海岸１丁目７番１号東京ポートシティ竹芝オフィスタワー８Ｆ,,13,103,1050022,,,,,,,2021-08-04,1,,,,,ラリゴ,0
2139,7010403025842,新規,0,2021-08-04,2021-08-04,合同会社Ａ．Ｐ．１８,,合同会社,東京都,港区,元赤坂１丁目１番８号赤坂コミュニティビル４階,,13,103,1070051,,,,,,,2021-08-04,1,,,,,エーピーエイティーン,0
2147,7010603009067,新規,0,2021-08-04,2021-08-04,合同会社ファジオン,,合同会社,東京都,墨田区,文花１丁目１８番１３号,,13,107,1310044,,,,,,,2021-08-04,1,,,,,ファジオン,0
2148,7010603009075,新規,0,2021-08-04,2021-08-04,ｂａｒＤ合同会社,,合同会社,東京都,江東区,大島５丁目９番１０号,,13,108,1360072,,,,,,,2021-08-04,1,,,,,バード,0
2155,7010801032201,新規,0,2021-08-04,2021-08-04,株式会社トワリィ,,株式会社,東京都,大田区,東馬込１丁目４２番５号,,13,111,1430022,,,,,,,2021-08-04,1,,,,,トワリィ,0
2162,7010901049211,新規,0,2021-08-04,2021-08-04,株式会社ＨａｌｅＣｌｅａｎ,,株式会社,東京都,世田谷区,成城７丁目２９番３２号アリスティオ１０１,,13,112,1570066,,,,,,,2021-08-04,1,,,,,ハレクリーン,0
2165,7011001142030,新規,0,2021-08-04,2021-08-04,株式会社インザハウス,,株式会社,東京都,渋谷区,神南１丁目６－５,,13,113,1500041,,,,,,,2021-08-04,1,,,,,インザハウス,0
2166,7011001142055,新規,0,2021-08-04,2021-08-04,株式会社ｌｉｔｔｌｅ　ｆｌａｍｉｎｇｏ,,株式会社,東京都,渋谷区,恵比寿１丁目１５－９シルク恵比寿４０３,,13,113,1500013,,,,,,,2021-08-04,1,,,,,リトルフラミンゴ,0
2169,7011003013122,新規,0,2021-08-04,2021-08-04,ＳｂＹＥ合同会社,,合同会社,東京都,渋谷区,鉢山町６番１５号シャトレ城山１０２,,13,113,1500035,,,,,,,2021-08-04,1,,,,,エスビーワイイー,0
2170,7011003013155,新規,0,2021-08-04,2021-08-04,合同会社ＦｕｎｓＣｏｄｅ,,合同会社,東京都,渋谷区,神宮前６丁目２３番４号桑野ビル２階,,13,113,1500001,,,,,,,2021-08-04,1,,,,,ファンズコード,0
2177,7011105009902,新規,0,2021-08-04,2021-08-04,一般社団法人日本道路興運,,その他の設立登記法人,東京都,新宿区,西新宿６丁目６番３号,,13,104,1600023,,,,,,,2021-08-04,1,,,,,ニホンドウロコウウン,0
2182,7011501027169,新規,0,2021-08-04,2021-08-04,株式会社ＬｉｂｅＬｉ－ｉｏ,,株式会社,東京都,北区,田端５丁目２－１３久正コーポ３０１号,,13,117,1140014,,,,,,,2021-08-04,1,,,,,リベリオ,0
2183,7011503004851,新規,0,2021-08-04,2021-08-04,合同会社ベルハープ,,合同会社,東京都,北区,赤羽北３丁目２６番１－８０１号,,13,117,1150052,,,,,,,2021-08-04,1,,,,,ベルハープ,0
2184,7011601025304,新規,0,2021-08-04,2021-08-04,株式会社Ｂｒｅｅｚｅ,,株式会社,東京都,練馬区,高松３丁目１０番５号レーベンハイム光が丘弐番館３０２,,13,120,1790075,,,,,,,2021-08-04,1,,,,,ブリーズ,0
2185,7011801039517,新規,0,2021-08-04,2021-08-04,株式会社ｃｏｃｏｒｏｋｋａ,,株式会社,東京都,葛飾区,亀有３丁目１４番７号,,13,122,1250061,,,,,,,2021-08-04,1,,,,,ココロッカ,0
2186,7011801039533,新規,0,2021-08-04,2021-08-04,株式会社ライフステップ,,株式会社,東京都,足立区,梅島３丁目６番１２号,,13,121,1210816,,,,,,,2021-08-04,1,,,,,ライフステップ,0
2193,7012703002281,新規,0,2021-08-04,2021-08-04,合同会社ＤＲ商会,,合同会社,東京都,西東京市,柳沢６丁目１番２号,,13,229,2020022,,,,,,,2021-08-04,1,,,,,ディーアールショウカイ,0
2199,7020001142485,新規,0,2021-08-04,2021-08-04,株式会社エヌアセットホーム,,株式会社,神奈川県,川崎市中原区,井田杉山町７番３号,,14,133,2110036,,,,,,,2021-08-04,1,,,,,エヌアセットホーム,0
2207,7021001073621,新規,0,2021-08-04,2021-08-04,Ｙａｍａｋｅｎ．Ｈｏｍｅ株式会社,,株式会社,神奈川県,藤沢市,城南４丁目８番５号,,14,205,2510057,,,,,,,2021-08-04,1,,,,,ヤマケンホーム,0
2217,7030001143648,新規,0,2021-08-04,2021-08-04,株式会社ＴＲＩ,,株式会社,埼玉県,上尾市,今泉１丁目４０番地２０オリーブ２０１,,11,219,3620047,,,,,,,2021-08-04,1,,,,,ティーアールアイ,0
2218,7030001143722,新規,0,2021-08-04,2021-08-04,ＡＧＧ株式会社,,株式会社,埼玉県,川口市,西川口１丁目３０番２０Ｔ・Ｂ・Ｓ企画ビル４１１,,11,203,3320021,,,,,,,2021-08-04,1,,,,,エイジージー,0
2222,7030003017643,新規,0,2021-08-04,2021-08-04,合同会社ぼくやる,,合同会社,埼玉県,鴻巣市,上谷２４０７番地２２,,11,217,3650027,,,,,,,2021-08-04,1,,,,,ボクヤル,0
2223,7030003017718,新規,0,2021-08-04,2021-08-04,合同会社Ｍｂ,,合同会社,埼玉県,さいたま市西区,大字宝来１６８７番地２,,11,101,3310074,,,,,,,2021-08-04,1,,,,,エムビー,0
2224,7030003017726,新規,0,2021-08-04,2021-08-04,合同会社Ｒａｙ,,合同会社,埼玉県,鴻巣市,袋１７４９番地９,,11,217,3690131,,,,,,,2021-08-04,1,,,,,レイ,0
2229,7040001119597,新規,0,2021-08-04,2021-08-04,株式会社美詔総業,,株式会社,千葉県,柏市,豊四季３９０番地２７,,12,217,2770863,,,,,,,2021-08-04,1,,,,,ビショウソウギョウ,0
2230,7040001119639,新規,0,2021-08-04,2021-08-04,株式会社ＫＯＫＯＮ,,株式会社,千葉県,千葉市美浜区,高洲３丁目１０番１号,,12,106,2610004,,,,,,,2021-08-04,1,,,,,ココン,0
2231,7040001119663,新規,0,2021-08-04,2021-08-04,株式会社シノケンＨＯＭＥ,,株式会社,千葉県,千葉市中央区,末広２丁目１１番２２号サンシティ末広２０４,,12,101,2600843,,,,,,,2021-08-04,1,,,,,シノケンホーム,0
2233,7040003018269,新規,0,2021-08-04,2021-08-04,合同会社ＳＥＥＫコミュニケーションズ,,合同会社,千葉県,松戸市,河原塚３１３番地の１１シャルム東松戸３０４号,,12,207,2702254,,,,,,,2021-08-04,1,,,,,シークコミュニケーションズ,0
2234,7040003018285,新規,0,2021-08-04,2021-08-04,合同会社ちあふる,,合同会社,千葉県,山武郡九十九里町,粟生７０７番地５,,12,403,2830105,,,,,,,2021-08-04,1,,,,,チアフル,0
2242,7050001049612,新規,0,2021-08-04,2021-08-04,株式会社ＧＫｃｒｅａｔｅ,,株式会社,茨城県,つくば市,東新井２６番地４プルミエールつくば１０６号,,08,220,3050033,,,,,,,2021-08-04,1,,,,,ジーケークリエイト,0
2243,7050001049637,新規,0,2021-08-04,2021-08-04,リズミック株式会社,,株式会社,茨城県,土浦市,並木４丁目１１番３７号,,08,203,3000061,,,,,,,2021-08-04,1,,,,,リズミック,0
2249,7060003003764,新規,0,2021-08-04,2021-08-04,合同会社Ｓｍｉｌｅ,,合同会社,栃木県,宇都宮市,高砂町１５－１４,,09,201,3210134,,,,,,,2021-08-04,1,,,,,スマイル,0
2250,7060005009891,新規,0,2021-08-04,2021-08-04,特定非営利活動法人なごやかさろん,,その他の設立登記法人,栃木県,那須郡那須町,大字高久丙４４０６番地１４,,09,407,3250302,,,,,,,2021-08-04,1,,,,,,0
2255,7070001038324,新規,0,2021-08-04,2021-08-04,株式会社ＧＯＯＤＨＡＮＧＳ　ＩＮＣ．,,株式会社,群馬県,前橋市,天川町１６６７番地２ＷＥＳＴ,,10,201,3710802,,,,,,,2021-08-04,1,,,,,グッドハングスインク,0
2256,7070001038332,新規,0,2021-08-04,2021-08-04,株式会社高澤ファーム,00123833,株式会社,群馬県,藤岡市,下栗須５３０番地,,10,209,3750014,,,,,,,2021-08-04,1,,,,,タカザワファーム,0
2261,7080101022697,新規,0,2021-08-04,2021-08-04,株式会社ゼロワンテクノ,,株式会社,静岡県,御殿場市,二枚橋４９９－１,,22,215,4120021,,,,,,,2021-08-04,1,,,,,ゼロワンテクノ,0
2274,7110003004542,新規,0,2021-08-04,2021-08-04,合同会社良き,,合同会社,新潟県,南魚沼市,二日町５８番地,,15,226,9496772,,,,,,,2021-08-04,1,,,,,ヨキ,0
2276,7110005016684,新規,0,2021-08-04,2021-08-04,ＮＰＯ法人適正育成ラボ,,その他の設立登記法人,新潟県,阿賀野市,中島町１２番１２号,,15,223,9592024,,,,,,,2021-08-04,1,,,,,テキセイイクセイラボ,0
2283,7120003019845,新規,0,2021-08-04,2021-08-04,源生合同会社,,合同会社,大阪府,大阪市西成区,天下茶屋１丁目２２番２２－２０１号,,27,122,5570014,,,,,,,2021-08-04,1,,,,,ゲンセイ,0
2286,7120101064108,新規,0,2021-08-04,2021-08-04,株式会社フアリ,,株式会社,大阪府,堺市南区,赤坂台６丁１４番１－２０４号,,27,145,5900144,,,,,,,2021-08-04,1,,,,,フアリ,0
2287,7120101064116,新規,0,2021-08-04,2021-08-04,株式会社貴美研磨,,株式会社,大阪府,堺市南区,豊田９４３番地２,,27,145,5900106,,,,,,,2021-08-04,1,,,,,タカミケンマ,0
2288,7120103004284,新規,0,2021-08-04,2021-08-04,Ｊ＆Ｃ合同会社,,合同会社,大阪府,泉南市,樽井４丁目４１番３号,,27,228,5900521,,,,,,,2021-08-04,1,,,,,ジェイアンドシー,0
2295,7120905006214,新規,0,2021-08-04,2021-08-04,一般社団法人日本健康サポート協会,,その他の設立登記法人,大阪府,箕面市,西小路３丁目１７番２４号,,27,220,5620003,,,,,,,2021-08-04,1,,,,,ニホンケンコウサポートキョウカイ,0
2302,7130001069825,新規,0,2021-08-04,2021-08-04,パーソナルワークス株式会社,,株式会社,京都府,京都市下京区,中堂寺坊城町２８番地７,,26,106,6008811,,,,,,,2021-08-04,1,,,,,パーソナルワークス,0
2303,7130001069833,新規,0,2021-08-04,2021-08-04,株式会社佑心,,株式会社,京都府,京都市山科区,北花山中道町７４－４，１階,,26,110,6078481,,,,,,,2021-08-04,1,,,,,ユウシン,0
2304,7130001069866,新規,0,2021-08-04,2021-08-04,株式会社とうしかく,,株式会社,京都府,向日市,寺戸町岸ノ下２５番地の１０２,,26,208,6170002,,,,,,,2021-08-04,1,,,,,トウシカク,0
2305,7130003007411,新規,0,2021-08-04,2021-08-04,ＮＥＸＵＳ合同会社,,合同会社,京都府,京都市中京区,烏帽子屋町４８６番地１,,26,104,6048165,,,,,,,2021-08-04,1,,,,,ネクサス,0
2314,7140001122541,新規,0,2021-08-04,2021-08-04,株式会社みのり,,株式会社,兵庫県,神戸市長田区,大丸町３丁目１３番１１号,,28,106,6530806,,,,,,,2021-08-04,1,,,,,ミノリ,0
2315,7140005025773,新規,0,2021-08-04,2021-08-04,一般社団法人ＳＫＹＭ,,その他の設立登記法人,兵庫県,明石市,魚住町西岡６２７番地の１,,28,203,6740084,,,,,,,2021-08-04,1,,,,,スカイム,0
2331,7180001147213,新規,0,2021-08-04,2021-08-04,株式会社はな,,株式会社,愛知県,一宮市,起字東茜屋８１番地１,,23,203,4940006,,,,,,,2021-08-04,1,,,,,ハナ,0
2332,7180001147238,新規,0,2021-08-04,2021-08-04,株式会社Ｍｏｕｌｉｎ,,株式会社,愛知県,名古屋市中区,丸の内３丁目１３番１９号,,23,106,4600002,,,,,,,2021-08-04,1,,,,,ムーラン,0
2333,7180001147262,新規,0,2021-08-04,2021-08-04,株式会社ティーグローリー,,株式会社,愛知県,名古屋市港区,正保町７丁目１番地３０３号室,,23,111,4550074,,,,,,,2021-08-04,1,,,,,ティーグローリー,0
2334,7180001147270,新規,0,2021-08-04,2021-08-04,株式会社わき田,,株式会社,愛知県,名古屋市千種区,内山２丁目１番５号アカネマンション加納１Ｆ,,23,101,4640075,,,,,,,2021-08-04,1,,,,,ワキデン,0
2335,7180001147304,新規,0,2021-08-04,2021-08-04,株式会社山田製作所,,株式会社,愛知県,瀬戸市,上本町６２５番地の５,,23,204,4890061,,,,,,,2021-08-04,1,,,,,ヤマダセイサクジョ,0
2336,7180001147337,新規,0,2021-08-04,2021-08-04,株式会社エイチ・アイ・ティー,,株式会社,愛知県,名古屋市緑区,若田１丁目１１０番地,,23,114,4580034,,,,,,,2021-08-04,1,,,,,エイチアイティー,0
2337,7180001147345,新規,0,2021-08-04,2021-08-04,株式会社吉田鐵工所,00123826,株式会社,愛知県,弥富市,鳥ケ地３丁目１５０２番地１９,,23,235,4901403,,,,,,,2021-08-04,1,,,,,ヨシダテッコウショ,0
2338,7180001147361,新規,0,2021-08-04,2021-08-04,株式会社アドストーリー,,株式会社,愛知県,名古屋市北区,清水３丁目２１番２３号,,23,103,4620844,,,,,,,2021-08-04,1,,,,,アドストーリー,0
2347,7180301035217,新規,0,2021-08-04,2021-08-04,エム’ズハート株式会社,,株式会社,愛知県,豊田市,秋葉町７丁目１０番地２６,,23,211,4710873,,,,,,,2021-08-04,1,,,,,エムズハート,0
2350,7190001028560,新規,0,2021-08-04,2021-08-04,株式会社ＭＨホールディングス,,株式会社,三重県,伊勢市,上地町１０４０番地,,24,203,5160051,,,,,,,2021-08-04,1,,,,,エムエイチホールディングス,0
2351,7190001028569,新規,0,2021-08-04,2021-08-04,株式会社ｍｉｍｉ,,株式会社,三重県,松阪市,下村町１９６５番地２０,,24,204,5150043,,,,,,,2021-08-04,1,,,,,ミミ,0
2352,7190001028585,新規,0,2021-08-04,2021-08-04,ＮＡＣ株式会社,,株式会社,三重県,四日市市,波木が丘町２９番地７,,24,202,5100962,,,,,,,2021-08-04,1,,,,,エヌエイシー,0
2356,7200001038970,新規,0,2021-08-04,2021-08-04,株式会社ビューエンコス,,株式会社,岐阜県,岐阜市,柳津町東塚３丁目２６番地,,21,201,5016102,,,,,,,2021-08-04,1,,,,,ビューエンコス,0
2357,7200001038979,新規,0,2021-08-04,2021-08-04,株式会社Ａ－ＰＬＡＮＴＳ,,株式会社,岐阜県,海津市,海津町日原２００番地,,21,221,5030615,,,,,,,2021-08-04,1,,,,,エープランツ,0
2362,7210001018559,新規,0,2021-08-04,2021-08-04,株式会社Ｒｏｂｂｉｔｓ,,株式会社,福井県,坂井市,丸岡町熊堂第３号７番地１－１６,,18,210,9100347,,,,,,,2021-08-04,1,,,,,ロビッツ,0
2367,7230001018920,新規,0,2021-08-04,2021-08-04,ＴＵＭＵＧＵ不動産株式会社,,株式会社,富山県,富山市,館出町１丁目５番１１号,,16,201,9300014,,,,,,,2021-08-04,1,,,,,ツムグフドウサン,0
2372,7240001058362,新規,0,2021-08-04,2021-08-04,株式会社ＴＢＦ,,株式会社,広島県,広島市東区,福田１丁目２５７７番地１６,,34,102,7320029,,,,,,,2021-08-04,1,,,,,ティービーエフ,0
2373,7240001058395,新規,0,2021-08-04,2021-08-04,冨田電気興業株式会社,,株式会社,広島県,福山市,松浜町３丁目７番１３号,,34,207,7200802,,,,,,,2021-08-04,1,,,,,,0
2374,7240003005222,新規,0,2021-08-04,2021-08-04,合同会社ＡｒｃｈｉＷｏｒｋｓ,,合同会社,広島県,東広島市,河内町入野１３２９番地１,,34,212,7392208,,,,,,,2021-08-04,1,,,,,アルキワークス,0
2375,7250001019033,新規,0,2021-08-04,2021-08-04,株式会社樹,,株式会社,山口県,山口市,徳地堀２４６８番地１,,35,203,7470231,,,,,,,2021-08-04,1,,,,,イツキ,0
2377,7260001035839,新規,0,2021-08-04,2021-08-04,株式会社Ｗａｋｕ２Ｋｉｔｃｈｅｎ,,株式会社,岡山県,新見市,哲多町宮河内１１１３番地１,,33,210,7180301,,,,,,,2021-08-04,1,,,,,ワクワクキッチン,0
2379,7260005010945,新規,0,2021-08-04,2021-08-04,特定非営利活動法人ＣＡＰプロジェクトおかやま,,その他の設立登記法人,岡山県,岡山市北区,広瀬町２番１１号,,33,101,7000806,,,,,,,2021-08-04,1,,,,,キャッププロジェクトオカヤマ,0
2381,7280001008487,新規,0,2021-08-04,2021-08-04,株式会社ＮＡＡＫＯ　ＤＥＮＫＯ,,株式会社,島根県,大田市,大田町大田ハ１６５番地６,,32,205,6940064,,,,,,,2021-08-04,1,,,,,ナアコデンコウ,0
2386,7290001094080,新規,0,2021-08-04,2021-08-04,株式会社久八企画,,株式会社,福岡県,福岡市中央区,小笹２丁目２番５３－１０２号,,40,133,8100033,,,,,,,2021-08-04,1,,,,,キュウハチキカク,0
2388,7290003011463,新規,0,2021-08-04,2021-08-04,ねんど企画合同会社,,合同会社,福岡県,福岡市中央区,薬院３丁目１１番１０－５０７号,,40,133,8100022,,,,,,,2021-08-04,1,,,,,ネンドキカク,0
2390,7290805009457,新規,0,2021-08-04,2021-08-04,一般社団法人北九州スポーツ青少年育成会,,その他の設立登記法人,福岡県,北九州市小倉南区,湯川３丁目６番５６号,,40,107,8000257,,,,,,,2021-08-04,1,,,,,キタキュウシュウスポーツセイショウネンイクセイカイ,0
2394,7320001018523,新規,0,2021-08-04,2021-08-04,行努真株式会社,,株式会社,大分県,大分市,大字宮崎１１９６番地の１０９,,44,201,8701133,,,,,,,2021-08-04,1,,,,,コウドシン,0
2395,7320001018531,新規,0,2021-08-04,2021-08-04,株式会社ＭＳプラン,,株式会社,大分県,大分市,中島東２丁目２番２７号,,44,201,8700043,,,,,,,2021-08-04,1,,,,,エムエスプラン,0
2402,7330001028884,新規,0,2021-08-04,2021-08-04,新幸建設株式会社,,株式会社,熊本県,八代市,平山新町４９１６番地１,,43,202,8660074,,,,,,,2021-08-04,1,,,,,シンコウケンセツ,0
2408,7350001017233,新規,0,2021-08-04,2021-08-04,株式会社ユジファーム,,株式会社,宮崎県,宮崎市,清武町木原４６２２番地１,,45,201,8891601,,,,,,,2021-08-04,1,,,,,ユジファーム,0
2409,7350003003900,新規,0,2021-08-04,2021-08-04,エアーヴィレッジＭ合同会社,,合同会社,宮崎県,宮崎市,江平東町１１番地６号フラワーマンション江平８０３号,,45,201,8800817,,,,,,,2021-08-04,1,,,,,エアーヴィレッジエム,0
2413,7370001047419,新規,0,2021-08-04,2021-08-04,株式会社ヴァイスベルグ,,株式会社,宮城県,仙台市若林区,伊在１丁目８番地の５,,04,103,9840038,,,,,,,2021-08-04,1,,,,,ヴァイスベルグ,0
2414,7370001047443,新規,0,2021-08-04,2021-08-04,株式会社幸昇,,株式会社,宮城県,仙台市宮城野区,栄３丁目６－１１,,04,102,9830011,,,,,,,2021-08-04,1,,,,,,0
2415,7370003005341,新規,0,2021-08-04,2021-08-04,合同会社心・愛,,合同会社,宮城県,宮城郡松島町,高城字愛宕一２９番地の１７,,04,401,9810215,,,,,,,2021-08-04,1,,,,,ココア,0
2420,7400001015545,新規,0,2021-08-04,2021-08-04,株式会社藤企画,,株式会社,岩手県,花巻市,太田第４６地割９０番地,,03,205,0250037,,,,,,,2021-08-04,1,,,,,フジキカク,0
2421,7400001015553,新規,0,2021-08-04,2021-08-04,株式会社Ｈ．Ａ．Ｅｄｕｃａｔｉｏｎ　Ｊａｐａｎ,,株式会社,岩手県,八幡平市,安比高原１１７番地１７,,03,214,0287306,,,,,,,2021-08-04,1,,,,,エイチエーエデュケーションジャパン,0
2422,7400003002814,新規,0,2021-08-04,2021-08-04,合同会社カーサ・コンプリメント,,合同会社,岩手県,紫波郡矢巾町,大字又兵エ新田第８地割１３４番地フェリオコズカタＡ棟１０２号室,,03,322,0283614,,,,,,,2021-08-04,1,,,,,カーサコンプリメント,0
2424,7410001012921,新規,0,2021-08-04,2021-08-04,株式会社太田情報システム,,株式会社,秋田県,大仙市,太田町太田字太田４８,,05,212,0191613,,,,,,,2021-08-04,1,,,,,オオタジョウホウシステム,0
2432,7430001084736,新規,0,2021-08-04,2021-08-04,ｈｏｉ株式会社,,株式会社,北海道,札幌市中央区,南一条西９丁目５番地１,,01,101,0600061,,,,,,,2021-08-04,1,,,,,ホイ,0
2433,7430003012991,新規,0,2021-08-04,2021-08-04,合同会社五月会,,合同会社,北海道,札幌市東区,北二十四条東１６丁目３番３０号,,01,103,0650024,,,,,,,2021-08-04,1,,,,,サツキカイ,0
2444,7470001018640,新規,0,2021-08-04,2021-08-04,株式会社アップワード,,株式会社,香川県,綾歌郡宇多津町,浜七番丁１０６番地５,,37,386,7690207,,,,,,,2021-08-04,1,,,,,アップワード,0
2449,7470003002007,新規,0,2021-08-04,2021-08-04,合同会社Ｉｎｔｅｒｅｓｔｉｎｇ　ｉｄｅａ,,合同会社,香川県,高松市,桜町１丁目６番１８号,,37,201,7600074,,,,,,,2021-08-04,1,,,,,インタレスティングアイデア,0
2453,7500001023604,新規,0,2021-08-04,2021-08-04,山内石油株式会社,,株式会社,愛媛県,西条市,周布３３６番地１,,38,206,7991371,,,,,,,2021-08-04,1,,,,,ヤマウチセキユ,0
2454,7500003002671,新規,0,2021-08-04,2021-08-04,合同会社二鳳,,合同会社,愛媛県,松山市,居相２丁目４番２３号,,38,201,7900934,,,,,,,2021-08-04,1,,,,,ニホウ,0
2465,8010001220258,新規,0,2021-08-04,2021-08-04,株式会社ｓｍｏｏｔｈ,,株式会社,東京都,中央区,晴海２丁目２番４２号,,13,102,1040053,,,,,,,2021-08-04,1,,,,,スムーズ,0
2479,8010403025841,新規,0,2021-08-04,2021-08-04,ファンズ・オペレーション合同会社,,合同会社,東京都,港区,西麻布３丁目２番地１号,,13,103,1060031,,,,,,,2021-08-04,1,,,,,ファンズオペレーション,0
2481,8010405020089,新規,0,2021-08-04,2021-08-04,ジー・ジェイ・レジデンス・ファイブ一般社団法人,,その他の設立登記法人,東京都,港区,虎ノ門４丁目３番１号城山トラストタワー２７階ＳａｎｎｅＧｒｏｕｐＪａｐａｎ株式会社内,,13,103,1050001,,,,,,,2021-08-04,1,,,,,ジージェイレジデンスファイブ,0
2486,8010703005881,新規,0,2021-08-04,2021-08-04,合同会社ｋａｎａｐ,,合同会社,東京都,品川区,西中延２丁目１１－５,,13,109,1420054,,,,,,,2021-08-04,1,,,,,カナップ,0
2487,8010801032191,新規,0,2021-08-04,2021-08-04,株式会社トーキョーキャラクターメーカーズ,,株式会社,東京都,大田区,大森本町１丁目６番１号,,13,111,1430011,,,,,,,2021-08-04,1,,,,,トーキョーキャラクターメーカーズ,0
2488,8010801032200,新規,0,2021-08-04,2021-08-04,株式会社パレット,,株式会社,東京都,大田区,南馬込４丁目１番２３号,,13,111,1430025,,,,,,,2021-08-04,1,,,,,パレット,0
2495,8011001141997,新規,0,2021-08-04,2021-08-04,株式会社ストロボファクトリー,,株式会社,東京都,渋谷区,道玄坂１丁目１２－１渋谷マークシティＷ２２階,,13,113,1500043,,,,,,,2021-08-04,1,,,,,ストロボファクトリー,0
2496,8011001142038,新規,0,2021-08-04,2021-08-04,株式会社Ｈ２,,株式会社,東京都,渋谷区,広尾５丁目１７番４号,,13,113,1500012,,,,,,,2021-08-04,1,,,,,エイチツー,0
2497,8011001142054,新規,0,2021-08-04,2021-08-04,株式会社Ｔｈｉｎｋ　Ｔｈｅ　Ｗｅｌｌｎｅｓｓ,,株式会社,東京都,渋谷区,神南１丁目１２番１０号,,13,113,1500041,,,,,,,2021-08-04,1,,,,,シンクザウェルネス,0
2498,8011001142120,新規,0,2021-08-04,2021-08-04,株式会社プライムキューブ,,株式会社,東京都,渋谷区,笹塚２丁目４２番１６号,,13,113,1510073,,,,,,,2021-08-04,1,,,,,プライムキューブ,0
2508,8011401023580,新規,0,2021-08-04,2021-08-04,株式会社Ｙ’ｓ,,株式会社,東京都,板橋区,板橋２丁目６５番８号ＭＳビル,,13,119,1730004,,,,,,,2021-08-04,1,,,,,ワイズ,0
2518,8011801039516,新規,0,2021-08-04,2021-08-04,株式会社由乃和,,株式会社,東京都,葛飾区,お花茶屋２丁目１７番１０号,,13,122,1240003,,,,,,,2021-08-04,1,,,,,ユノワ,0
2519,8011801039524,新規,0,2021-08-04,2021-08-04,株式会社ハウスキーパー,,株式会社,東京都,葛飾区,西新小岩５丁目１５番２０号,,13,122,1240025,,,,,,,2021-08-04,1,,,,,ハウスキーパー,0
2521,8013101008688,新規,0,2021-08-04,2021-08-04,株式会社大志造園,,株式会社,東京都,あきる野市,二宮東３丁目１０番地１,,13,228,1970815,,,,,,,2021-08-04,1,,,,,タイシゾウエン,0
2530,8013301047817,新規,0,2021-08-04,2021-08-04,株式会社ＡｔｏＺ．ｅｎｔｅｒｔａｉｎｍｅｎｔ,,株式会社,東京都,豊島区,池袋２丁目６０番６号,,13,116,1710014,,,,,,,2021-08-04,1,,,,,エートゥーゼットエンターテインメント,0
2532,8020001142451,新規,0,2021-08-04,2021-08-04,株式会社アウィン,,株式会社,神奈川県,横浜市戸塚区,戸塚町１２０番地,,14,110,2440003,,,,,,,2021-08-04,1,,,,,アウィン,0
2536,8020003020267,新規,0,2021-08-04,2021-08-04,Ｄｒｅａｍ　Ｐａｎｄａ　Ｗｏｒｋｓ合同会社,,合同会社,神奈川県,川崎市多摩区,登戸２４３２－１,,14,135,2140014,,,,,,,2021-08-04,1,,,,,ドリームパンダワークス,0
2546,8030001143614,新規,0,2021-08-04,2021-08-04,株式会社翔華,,株式会社,埼玉県,上尾市,大字瓦葺２３８９番地５,,11,219,3620022,,,,,,,2021-08-04,1,,,,,ショウカ,0
2547,8030001143663,新規,0,2021-08-04,2021-08-04,笑楽快堂株式会社,,株式会社,埼玉県,狭山市,大字北入曽１５０８番地の５５フラワーヒル７５－７,,11,215,3501315,,,,,,,2021-08-04,1,,,,,ワラカイドウ,0
2555,8040001119638,新規,0,2021-08-04,2021-08-04,ｅ－ｏｎｅ・コンストラクション株式会社,,株式会社,千葉県,長生郡一宮町,一宮２２６１番地１の６,,12,421,2994301,,,,,,,2021-08-04,1,,,,,イーワンコンストラクション,0
2561,8050001049628,新規,0,2021-08-04,2021-08-04,株式会社代栄,,株式会社,茨城県,龍ケ崎市,白羽３丁目５番地１,,08,208,3010841,,,,,,,2021-08-04,1,,,,,ダイエイ,0
2564,8050003006008,新規,0,2021-08-04,2021-08-04,合同会社ＳＴＡＲ　ＬＩＮＥ,,合同会社,茨城県,取手市,谷中１３０番地１,,08,217,3001532,,,,,,,2021-08-04,1,,,,,スターライン,0
2567,8060001033969,新規,0,2021-08-04,2021-08-04,株式会社那須アルパカファーム,,株式会社,栃木県,那須郡那須町,大字大島１３８９番地２,,09,407,3293223,,,,,,,2021-08-04,1,,,,,ナスアルパカファーム,0
2572,8070001038323,新規,0,2021-08-04,2021-08-04,株式会社コレクトサポート,,株式会社,群馬県,高崎市,金古町１３８１番地１代政荘５号,,10,202,3703511,,,,,,,2021-08-04,1,,,,,コレクトサポート,0
2573,8070001038331,新規,0,2021-08-04,2021-08-04,株式会社玉昇,,株式会社,群馬県,佐波郡玉村町,大字上之手１７００番地８,,10,464,3701127,,,,,,,2021-08-04,1,,,,,ギョクショウ,0
2576,8080001024363,新規,0,2021-08-04,2021-08-04,株式会社森田工業,,株式会社,静岡県,島田市,岸町８４５番地の４,,22,209,4270005,,,,,,,2021-08-04,1,,,,,モリタコウギョウ,0
2577,8080001024371,新規,0,2021-08-04,2021-08-04,株式会社丸幸ガラス建材,,株式会社,静岡県,静岡市駿河区,中島９０６－１,,22,102,4228046,,,,,,,2021-08-04,1,,,,,マルコウガラスケンザイ,0
2580,8080401025259,新規,0,2021-08-04,2021-08-04,株式会社トヨオカ鈴木土建,,株式会社,静岡県,磐田市,合代島８６７番地３,,22,211,4380114,,,,,,,2021-08-04,1,,,,,トヨオカスズキドケン,0
2582,8080403004343,新規,0,2021-08-04,2021-08-04,リトリートプラン合同会社,,合同会社,静岡県,磐田市,家田３７８番地,,22,211,4380105,,,,,,,2021-08-04,1,,,,,リトリートプラン,0
2583,8090001017143,新規,0,2021-08-04,2021-08-04,Ｃ２Ｃ　Ｇｌｏｂａｌ　Ｅｄｕｃａｔｉｏｎ　Ｊａｐａｎ　Ｈｏｌｄｉｎｇｓ株式会社,,株式会社,山梨県,甲府市,酒折２丁目４番５号,,19,201,4000805,,,,,,,2021-08-04,1,,,,,シートゥーシーグローバルエデュケーションジャパンホールディングス,0
2586,8100001034483,新規,0,2021-08-04,2021-08-04,株式会社スターチム,,株式会社,長野県,須坂市,墨坂南１丁目２０番１０号,,20,207,3820098,,,,,,,2021-08-04,1,,,,,スターチム,0
2589,8110001035943,新規,0,2021-08-04,2021-08-04,妙高グリーンエナジー株式会社,,株式会社,新潟県,妙高市,中川３番２０号,,15,217,9440005,,,,,,,2021-08-04,1,,,,,ミョウコウグリーンエナジー,0
2590,8110003004541,新規,0,2021-08-04,2021-08-04,リビングプロモート合同会社,,合同会社,新潟県,新潟市西区,五十嵐２の町８６８０番地１１,,15,107,9502102,,,,,,,2021-08-04,1,,,,,リビングプロモート,0
2598,8120001239493,新規,0,2021-08-04,2021-08-04,株式会社シンキヤ,,株式会社,大阪府,大阪市城東区,関目４丁目１０番１－２１４号,,27,118,5360008,,,,,,,2021-08-04,1,,,,,シンキヤ,0
2599,8120001239543,新規,0,2021-08-04,2021-08-04,株式会社アンブル,,株式会社,大阪府,大阪市城東区,新喜多東１丁目６番２８号,,27,118,5360017,,,,,,,2021-08-04,1,,,,,アンブル,0
2600,8120003019943,新規,0,2021-08-04,2021-08-04,合同会社スカイ・クリエイト,,合同会社,大阪府,大阪市中央区,東心斎橋１丁目３番２７－１５０１号,,27,128,5420083,,,,,,,2021-08-04,1,,,,,スカイクリエイト,0
2601,8120003019968,新規,0,2021-08-04,2021-08-04,合同会社ＴＳＵＧＵＭＩ,,合同会社,大阪府,大阪市北区,同心１丁目８－１３シエリア大阪同心２０２,,27,127,5300035,,,,,,,2021-08-04,1,,,,,ツグミ,0
2605,8120005022425,新規,0,2021-08-04,2021-08-04,一般社団法人Ｒｅｓｕｌｔ,,その他の設立登記法人,大阪府,大阪市西成区,南津守４丁目１番７０－８２号,,27,122,5570063,,,,,,,2021-08-04,1,,,,,リザルト,0
2609,8120101064081,新規,0,2021-08-04,2021-08-04,中野車輌工業株式会社,,株式会社,大阪府,泉南郡熊取町,つばさが丘東２丁目１４番５号,,27,361,5900442,,,,,,,2021-08-04,1,,,,,ナカノシャリョウコウギョウ,0
2610,8120101064098,新規,0,2021-08-04,2021-08-04,株式会社ハッピービジョン,,株式会社,大阪府,堺市中区,深井中町１４１５番地６,,27,142,5998272,,,,,,,2021-08-04,1,,,,,ハッピービジョン,0
2611,8120101064123,新規,0,2021-08-04,2021-08-04,株式会社オザキコウムテン,,株式会社,大阪府,堺市南区,高尾１丁３４６番地３６,,27,145,5900157,,,,,,,2021-08-04,1,,,,,オザキコウムテン,0
2613,8120103004275,新規,0,2021-08-04,2021-08-04,ＥＬＭＡＭＯＵＮ　ＴＲＡＤＩＮＧ合同会社,,合同会社,大阪府,岸和田市,内畑町６１０－１,,27,202,5960105,,,,,,,2021-08-04,1,,,,,エルマモウントレーディング,0
2615,8120901044720,新規,0,2021-08-04,2021-08-04,株式会社つなぐカンパニー,,株式会社,大阪府,茨木市,白川３丁目２番５－７０６号,,27,211,5670832,,,,,,,2021-08-04,1,,,,,ツナグカンパニー,0
2625,8130001069824,新規,0,2021-08-04,2021-08-04,株式会社スマイル,,株式会社,京都府,京都市伏見区,納所町１４２－１,,26,109,6128275,,,,,,,2021-08-04,1,,,,,スマイル,0
2626,8130001069857,新規,0,2021-08-04,2021-08-04,株式会社ｙ２ｇａｒａｇｅ,,株式会社,京都府,京都市南区,吉祥院嶋野間詰町２７番地,,26,107,6018363,,,,,,,2021-08-04,1,,,,,ワイツーガレージ,0
2627,8130001069865,新規,0,2021-08-04,2021-08-04,株式会社ＢＴＳ．ｌｉｎｋ,,株式会社,京都府,京都市伏見区,深草鈴塚町１番地２８,00123832,26,109,6120011,,,,,,,2021-08-04,1,,,,,ビーティーエスリンク,0
2628,8130001069873,新規,0,2021-08-04,2021-08-04,株式会社Ｋｌｅｅ,,株式会社,京都府,京田辺市,三山木野神１０７番地３１７,,26,211,6100313,,,,,,,2021-08-04,1,,,,,クレー,0
2629,8130003007410,新規,0,2021-08-04,2021-08-04,合同会社ＴＯＹＯＤＥＮ,,合同会社,京都府,京都市右京区,梅津北町４４－１５－１０２,,26,108,6150911,,,,,,,2021-08-04,1,,,,,トヨデン,0
2637,8140005025772,新規,0,2021-08-04,2021-08-04,特定非営利活動法人ＭｉｘＲａｉｎｂｏｗ,,その他の設立登記法人,兵庫県,尼崎市,南塚口町２丁目１９番２号コワーキングスタジオ若松ビル３０２号室,,28,202,6610012,,,,,,,2021-08-04,1,,,,,ミックスレインボー,0
2640,8160001023539,新規,0,2021-08-04,2021-08-04,株式会社ループワン,,株式会社,滋賀県,彦根市,鳥居本町１８４８,,25,202,5220004,,,,,,,2021-08-04,1,,,,,,0
2641,8170001016698,新規,0,2021-08-04,2021-08-04,株式会社リジェロ,,株式会社,和歌山県,和歌山市,山口西９番地６,,30,201,6496317,,,,,,,2021-08-04,1,,,,,リジェロ,0
2642,8170001016707,新規,0,2021-08-04,2021-08-04,光永建設工業株式会社,,株式会社,和歌山県,和歌山市,湊５丁目１３－５,,30,201,6408404,,,,,,,2021-08-04,1,,,,,コウエイケンセツコウギョウ,0
2651,8180001147212,新規,0,2021-08-04,2021-08-04,株式会社Ｔｏｍ,,株式会社,愛知県,名古屋市西区,名駅２丁目２９番３号プリマヴェール名駅シュール５０２,,23,104,4510045,,,,,,,2021-08-04,1,,,,,トム,0
2652,8180001147303,新規,0,2021-08-04,2021-08-04,株式会社マーブル,,株式会社,愛知県,春日井市,下市場町３丁目１番地７,,23,206,4860852,,,,,,,2021-08-04,1,,,,,マーブル,0
2653,8180001147328,新規,0,2021-08-04,2021-08-04,株式会社セルカン,,株式会社,愛知県,名古屋市天白区,梅が丘５丁目４０６番地の２,,23,116,4680004,,,,,,,2021-08-04,1,,,,,セルカン,0
2654,8180001147344,新規,0,2021-08-04,2021-08-04,紬建築株式会社,,株式会社,愛知県,名古屋市緑区,大高町字釜野１９番地の３,,23,114,4598001,,,,,,,2021-08-04,1,,,,,ツムギケンチク,0
2655,8180001147360,新規,0,2021-08-04,2021-08-04,株式会社ＯＲＡＮＧＥ　ＰＯＰＣＯＲＮ,,株式会社,愛知県,名古屋市中区,栄５丁目５番２８号,,23,106,4600008,,,,,,,2021-08-04,1,,,,,オレンジポップコーン,0
2660,8180003022826,新規,0,2021-08-04,2021-08-04,合同会社エヌエーワン,,合同会社,愛知県,岩倉市,本町前田７９番地２（ティアラ鶴見２Ｂ）,,23,228,4820043,,,,,,,2021-08-04,1,,,,,エヌエーワン,0
2661,8180005019390,新規,0,2021-08-04,2021-08-04,一般社団法人レインボー,,その他の設立登記法人,愛知県,名古屋市瑞穂区,鍵田町２丁目３２番地,,23,108,4670833,,,,,,,2021-08-04,1,,,,,レインボー,0
2668,8180301035232,新規,0,2021-08-04,2021-08-04,株式会社レイスツアーズ,,株式会社,愛知県,豊田市,越戸町梅盛３８番地,,23,211,4700332,,,,,,,2021-08-04,1,,,,,レイスツアーズ,0
2676,8190001028568,新規,0,2021-08-04,2021-08-04,株式会社宮﨑組,00123839,株式会社,三重県,鈴鹿市,住吉１丁目２７番１３号,,24,207,5130826,,,,,,,2021-08-04,1,,,,,ミヤザキグミ,0
2677,8190001028584,新規,0,2021-08-04,2021-08-04,株式会社アクリポイント,,株式会社,三重県,四日市市,北小松町１７６７,,24,202,5100955,,,,,,,2021-08-04,1,,,,,アクリポイント,0
2680,8200001038961,新規,0,2021-08-04,2021-08-04,株式会社百と蔵,,株式会社,岐阜県,羽島市,舟橋町６３６番地１０,,21,209,5016302,,,,,,,2021-08-04,1,,,,,サトクラ,0
2682,8200003005274,新規,0,2021-08-04,2021-08-04,合同会社イノベーションフーズ,,合同会社,岐阜県,高山市,江名子町２１７３番地１,,21,203,5060818,,,,,,,2021-08-04,1,,,,,イノベーションフーズ,0
2695,8240001058403,新規,0,2021-08-04,2021-08-04,株式会社コウエイプロデュース,,株式会社,広島県,広島市中区,宝町１番７号,,34,101,7300044,,,,,,,2021-08-04,1,,,,,コウエイプロデュース,0
2697,8240003005221,新規,0,2021-08-04,2021-08-04,合同会社Ｒｉｓｉｎｇ　Ｊａｐａｎ,,合同会社,広島県,広島市安佐北区,可部１丁目６－４４ｐｒｉｏｌ　Ｃｒｅｃｉａ２０３,,34,106,7310221,,,,,,,2021-08-04,1,,,,,ライジングジャパン,0
2698,8260001035805,新規,0,2021-08-04,2021-08-04,Ｕａｌｅ株式会社,,株式会社,岡山県,岡山市北区,厚生町２丁目１－８－９０５,,33,101,7000985,,,,,,,2021-08-04,1,,,,,ユーエール,0
2699,8260001035813,新規,0,2021-08-04,2021-08-04,株式会社スカイ,,株式会社,岡山県,笠岡市,富岡５９０番地８,,33,205,7140092,,,,,,,2021-08-04,1,,,,,スカイ,0
2700,8260001035821,新規,0,2021-08-04,2021-08-04,株式会社セラ,,株式会社,岡山県,都窪郡早島町,早島４５９８番地１０,,33,423,7010304,,,,,,,2021-08-04,1,,,,,セラ,0
2701,8260001035854,新規,0,2021-08-04,2021-08-04,株式会社住まいるエージェント,,株式会社,岡山県,倉敷市,林２１１４－３,,33,202,7100142,,,,,,,2021-08-04,1,,,,,スマイルエージェント,0
2703,8260003003644,新規,0,2021-08-04,2021-08-04,合同会社ｉＤ,,合同会社,岡山県,岡山市南区,西市８１０番地８アビタシオン京殿２０１,,33,104,7000953,,,,,,,2021-08-04,1,,,,,アイディー,0
2704,8260005010952,新規,0,2021-08-04,2021-08-04,司法書士法人ＳＯＲＡ,,その他の設立登記法人,岡山県,岡山市北区,問屋町１１番地１０６ＢＯＯＴＨＢＬＤ３０１号,,33,101,7000977,,,,,,,2021-08-04,1,,,,,ソラ,0
2708,8280001008486,新規,0,2021-08-04,2021-08-04,株式会社Ｅ－ＴＡＮＧＥ,,株式会社,島根県,出雲市,大社町中荒木７５７番地１,,32,203,6990741,,,,,,,2021-08-04,1,,,,,イータンジェ,0
2714,8290001094063,新規,0,2021-08-04,2021-08-04,ふくおかクリエイト株式会社,,株式会社,福岡県,福岡市中央区,港３丁目３番１４号,,40,133,8100075,,,,,,,2021-08-04,1,,,,,フクオカクリエイト,0
2719,8320001018530,新規,0,2021-08-04,2021-08-04,ＦＵＺＺ９株式会社,,株式会社,大分県,大分市,高松東１丁目１番３号高松センタービル１０１,,44,201,8700916,,,,,,,2021-08-04,1,,,,,ファズナイン,0
2722,8320003003588,新規,0,2021-08-04,2021-08-04,合同会社シードディスカバリー,,合同会社,大分県,由布市,湯布院町川上３５３０番地１アルカンシェル１０１,,44,213,8795102,,,,,,,2021-08-04,1,,,,,シードディスカバリー,0
2724,8330001028875,新規,0,2021-08-04,2021-08-04,株式会社ＫＴ　ｅｎｇｉｎｅｅｒｉｎｇ　ｗｏｒｋｓ,,株式会社,熊本県,八代市,西宮町１１１４番地１,,43,202,8660804,,,,,,,2021-08-04,1,,,,,ケイティエンジニアリングワークス,0
2730,8330003008999,新規,0,2021-08-04,2021-08-04,合同会社グリーン総合企画,,合同会社,熊本県,阿蘇郡西原村,大字布田９４２－１,,43,432,8612403,,,,,,,2021-08-04,1,,,,,グリーンソウゴウキカク,0
2732,8340001023982,新規,0,2021-08-04,2021-08-04,株式会社大工屋工房,,株式会社,鹿児島県,指宿市,東方２０５番地,,46,210,8910404,,,,,,,2021-08-04,1,,,,,ダイクヤコウボウ,0
2733,8340001023990,新規,0,2021-08-04,2021-08-04,株式会社ＵＣＨＩＤＡ　ｆｍ,,株式会社,鹿児島県,南九州市,川辺町平山３５５８番地１,,46,223,8970215,,,,,,,2021-08-04,1,,,,,ウチダエフエム,0
2736,8350001017249,新規,0,2021-08-04,2021-08-04,株式会社壹岐農園,,株式会社,宮崎県,西都市,大字南方３９４７番地,,45,208,8810027,,,,,,,2021-08-04,1,,,,,イキノウエン,0
2745,8380001032071,新規,0,2021-08-04,2021-08-04,株式会社つむぎ,,株式会社,福島県,南相馬市,小高区本町１丁目５３,,07,212,9792124,,,,,,,2021-08-04,1,,,,,ツムギ,0
2746,8380001032105,新規,0,2021-08-04,2021-08-04,株式会社ジャーセン,,株式会社,福島県,福島市,東浜町１０番９号ネスタＨＭ２０２,,07,201,9608132,,,,,,,2021-08-04,1,,,,,,0
2754,8400001015544,新規,0,2021-08-04,2021-08-04,株式会社ＫＯＵＹＡ,,株式会社,岩手県,宮古市,千徳町４番１２号,,03,202,0270043,,,,,,,2021-08-04,1,,,,,コウヤ,0
2755,8400001015552,新規,0,2021-08-04,2021-08-04,株式会社ＩＫＮＹ,,株式会社,岩手県,盛岡市,黒石野１丁目２６番１３号２０１,,03,201,0200111,,,,,,,2021-08-04,1,,,,,アイケーエヌワイ,0
2756,8400003002813,新規,0,2021-08-04,2021-08-04,Ｐｕｅｒｔｏ合同会社,,合同会社,岩手県,二戸市,下斗米字十文字５０番地１２,,03,213,0286102,,,,,,,2021-08-04,1,,,,,プエルト,0
2758,8410001012920,新規,0,2021-08-04,2021-08-04,株式会社ナカチュー,,株式会社,秋田県,秋田市,土崎港中央６丁目９番７号,,05,201,0110946,,,,,,,2021-08-04,1,,,,,ナカチュー,0
2770,8430001084652,新規,0,2021-08-04,2021-08-04,株式会社Ｎｅｍｏｒｉ内装店,,株式会社,北海道,札幌市豊平区,中の島二条７丁目３番１７号,,01,105,0620922,,,,,,,2021-08-04,1,,,,,ネモリナイソウテン,0
2774,8430003012990,新規,0,2021-08-04,2021-08-04,合同会社砂川遊学舎,,合同会社,北海道,砂川市,西一条北１２丁目１－２２,,01,226,0730161,,,,,,,2021-08-04,1,,,,,スナガワユウガクシャ,0
2776,8450001013436,新規,0,2021-08-04,2021-08-04,株式会社ＤＯＴｓ,,株式会社,北海道,旭川市,旭神二条３丁目６－２５　１Ｆ左ぽっかぽか内,,01,204,0788372,,,,,,,2021-08-04,1,,,,,ドッツ,0
2780,8470001018648,新規,0,2021-08-04,2021-08-04,株式会社河野企画,,株式会社,香川県,高松市,丸亀町６番地１,,37,201,7600029,,,,,,,2021-08-04,1,,,,,コウノキカク,0
2783,8470003002006,新規,0,2021-08-04,2021-08-04,合同会社あすほこ,,合同会社,香川県,高松市,木太町２７７４番地９,,37,201,7600080,,,,,,,2021-08-04,1,,,,,アスホコ,0
2788,8490001009950,新規,0,2021-08-04,2021-08-04,トラスト警備株式会社,,株式会社,高知県,高知市,桟橋通１丁目１３－１６,,39,201,7818010,,,,,,,2021-08-04,1,,,,,トラストケイビ,0
2793,8500001023611,新規,0,2021-08-04,2021-08-04,株式会社アブレ,,株式会社,愛媛県,新居浜市,松木町１番２３号,,38,205,7920829,,,,,,,2021-08-04,1,,,,,アブレ,0
2805,9010001220158,新規,0,2021-08-04,2021-08-04,株式会社スタティック,,株式会社,東京都,中央区,日本橋２丁目１番１７号丹生ビル２階,,13,102,1030027,,,,,,,2021-08-04,1,,,,,スタティック,0
2807,9010003035505,新規,0,2021-08-04,2021-08-04,合同会社アラマキ,,合同会社,東京都,千代田区,紀尾井町３番１０号２１０１号室,,13,101,1020094,,,,,,,2021-08-04,1,,,,,アラマキ,0
2816,9010401161860,新規,0,2021-08-04,2021-08-04,株式会社ライフイズオニク,,株式会社,東京都,港区,六本木３丁目４－２コープ野村六本木１－３０５号室,,13,103,1060032,,,,,,,2021-08-04,1,,,,,ライフイズオニク,0
2817,9010401161877,新規,0,2021-08-04,2021-08-04,株式会社ｐｌｕｓ　Ｊ,,株式会社,東京都,港区,赤坂１丁目１４番５号アークヒルズエグゼクティブタワーＮ８１２,,13,103,1070052,,,,,,,2021-08-04,1,,,,,プラスジェイ,0
2818,9010405020039,新規,0,2021-08-04,2021-08-04,一般財団法人優財団,,その他の設立登記法人,東京都,港区,西新橋１丁目５番１１号第１１東洋海事ビル９階,,13,103,1050003,,,,,,,2021-08-04,1,,,,,マサルザイダン,0
2827,9010801032208,新規,0,2021-08-04,2021-08-04,株式会社Ｍｉｌｌｉｏｎ　Ｖｏｉｃｅｓ,,株式会社,東京都,大田区,東糀谷３丁目９番２号,,13,111,1440033,,,,,,,2021-08-04,1,,,,,ミリオンヴォイス,0
2832,9010903006704,新規,0,2021-08-04,2021-08-04,ＵＮＯＮＯ合同会社,,合同会社,東京都,世田谷区,池尻２丁目３６番５号,,13,112,1540001,,,,,,,2021-08-04,1,,,,,ウノノ,0
2836,9011001141617,新規,0,2021-08-04,2021-08-04,株式会社モンスターラボ,,株式会社,東京都,渋谷区,広尾１丁目１番３９号恵比寿プライムスクエアタワー４Ｆ,,13,113,1500012,,,,,,,2021-08-04,1,,,,,モンスターラボ,0
2837,9011001142029,新規,0,2021-08-04,2021-08-04,株式会社ＭＫプランニング・オフィス,,株式会社,東京都,渋谷区,代々木５丁目６３番８号,,13,113,1510053,,,,,,,2021-08-04,1,,,,,エムケープランニングオフィス,0
2838,9011001142037,新規,0,2021-08-04,2021-08-04,株式会社キリコマ,,株式会社,東京都,目黒区,中目黒３丁目１５番５号,,13,110,1530061,,,,,,,2021-08-04,1,,,,,キリコマ,0
2839,9011001142053,新規,0,2021-08-04,2021-08-04,株式会社ｎｙｅｇｅ　ｎｙｅｇｅ,,株式会社,東京都,目黒区,碑文谷３丁目９番２２－２０８号,,13,110,1520003,,,,,,,2021-08-04,1,,,,,ネゲネゲ,0
2840,9011001142111,新規,0,2021-08-04,2021-08-04,無茶株式会社,,株式会社,東京都,目黒区,中目黒３丁目２２番１号,,13,110,1530061,,,,,,,2021-08-04,1,,,,,ムチャ,0
2841,9011003013153,新規,0,2021-08-04,2021-08-04,合同会社テンソン,,合同会社,東京都,目黒区,目黒２丁目１５番１２－４１２号朝日中目黒マンション,,13,110,1530063,,,,,,,2021-08-04,1,,,,,テンソン,0
2849,9011305002762,新規,0,2021-08-04,2021-08-04,一般社団法人東京佼成ウインドオーケストラ,,その他の設立登記法人,東京都,杉並区,方南２丁目２９番２５号地下１階,,13,115,1680062,,,,,,,2021-08-04,1,,,,,,0
2850,9011401023588,新規,0,2021-08-04,2021-08-04,株式会社ＫＩＴＥカンパニー,,株式会社,東京都,板橋区,西台１丁目３３番４号,,13,119,1740045,,,,,,,2021-08-04,1,,,,,カイトカンパニー,0
2851,9011403003398,新規,0,2021-08-04,2021-08-04,合同会社スパイラルビート,,合同会社,東京都,板橋区,坂下１丁目１７番７号,,13,119,1740043,,,,,,,2021-08-04,1,,,,,スパイラルビート,0
2853,9011601025302,新規,0,2021-08-04,2021-08-04,株式会社ＴＢＯＰＰ,,株式会社,東京都,練馬区,練馬１丁目３７番１号,,13,120,1760001,,,,,,,2021-08-04,1,,,,,ティービーオーピーピー,0
2856,9011801039507,新規,0,2021-08-04,2021-08-04,株式会社ＣＥＤＡＲ,,株式会社,東京都,足立区,東綾瀬２丁目１７番２０号,,13,121,1200004,,,,,,,2021-08-04,1,,,,,シーダー,0
2865,9013303005771,新規,0,2021-08-04,2021-08-04,合同会社お餅大好き,,合同会社,東京都,豊島区,南大塚２丁目１１－１０ミモザビル３階,,13,116,1700005,,,,,,,2021-08-04,1,,,,,オモチダイスキ,0
2869,9020001142351,新規,0,2021-08-04,2021-08-04,ＤＯＲＦＬＩ株式会社,,株式会社,神奈川県,横浜市金沢区,寺前１丁目１７番８号,,14,108,2360014,,,,,,,2021-08-04,1,,,,,ドルフリ,0
2874,9020003020266,新規,0,2021-08-04,2021-08-04,合同会社ロッカクテックシステムズ,,合同会社,神奈川県,川崎市中原区,小杉町３丁目６００番ＭＩＤＰＯＩＮＴ武蔵小杉２－３３,,14,133,2110063,,,,,,,2021-08-04,1,,,,,ロッカクテックシステムズ,0
2875,9021001073586,新規,0,2021-08-04,2021-08-04,株式会社マイ・アッシュ,,株式会社,神奈川県,茅ヶ崎市,堤２０番地１３,,14,207,2530006,,,,,,,2021-08-04,1,,,,,マイアッシュ,0
2876,9021001073594,新規,0,2021-08-04,2021-08-04,株式会社湘南スペース,,株式会社,神奈川県,足柄上郡大井町,金子１４９２番地１,,14,362,2580019,,,,,,,2021-08-04,1,,,,,ショウナンスペース,0
2880,9030001143646,新規,0,2021-08-04,2021-08-04,株式会社ナカガマ設備,,株式会社,埼玉県,さいたま市大宮区,三橋１丁目３６１番地１８,,11,103,3300856,,,,,,,2021-08-04,1,,,,,ナカガマセツビ,0
2881,9030001143670,新規,0,2021-08-04,2021-08-04,ひより建築株式会社,,株式会社,埼玉県,さいたま市浦和区,北浦和３丁目１３番１２号,,11,107,3300074,,,,,,,2021-08-04,1,,,,,ヒヨリケンチク,0
2889,9040001119587,新規,0,2021-08-04,2021-08-04,株式会社ライト,,株式会社,千葉県,千葉市稲毛区,小中台町５９６番地第５稲毛ハイツ９０４号,,12,103,2630044,,,,,,,2021-08-04,1,,,,,ライト,0
2890,9040001119645,新規,0,2021-08-04,2021-08-04,株式会社ゼロポイントＦ,,株式会社,千葉県,船橋市,咲が丘３丁目１１番３２号,,12,204,2740807,,,,,,,2021-08-04,1,,,,,ゼロポイントエフ,0
2891,9040001119694,新規,0,2021-08-04,2021-08-04,株式会社ＢＨＳ,,株式会社,千葉県,千葉市美浜区,中瀬１丁目３番地幕張テクノガーデンＣＢ棟３階ＭＢＰ,,12,106,2610023,,,,,,,2021-08-04,1,,,,,ビーエイチエス,0
2895,9040003018259,新規,0,2021-08-04,2021-08-04,ひので合同会社,,合同会社,千葉県,浦安市,日の出５丁目６番１－１０７号,,12,227,2790013,,,,,,,2021-08-04,1,,,,,ヒノデ,0
2896,9040003018291,新規,0,2021-08-04,2021-08-04,合同会社ＴＤＮ,,合同会社,千葉県,船橋市,前原西２丁目３０番１７号ウエストヒルズ１０１号,,12,204,2740825,,,,,,,2021-08-04,1,,,,,ティーディーエヌ,0
2897,9040005021293,新規,0,2021-08-04,2021-08-04,千葉幸町東住宅管理組合法人,,その他の設立登記法人,千葉県,千葉市美浜区,幸町２丁目１０番２０号,,12,106,2610001,,,,,,,2021-08-04,1,,,,,チバサイワイチョウヒガシジュウタク,0
2898,9050001049643,新規,0,2021-08-04,2021-08-04,株式会社進和,,株式会社,茨城県,水戸市,渡里町２５１１番地４シャトレロキシアンＢ棟１０１号,,08,201,3100902,,,,,,,2021-08-04,1,,,,,シンワ,0
2899,9050001049651,新規,0,2021-08-04,2021-08-04,株式会社春友工業,,株式会社,茨城県,水戸市,笠原町１２４５番地３４,,08,201,3100852,,,,,,,2021-08-04,1,,,,,ハルトモコウギョウ,0
2909,9060001033943,新規,0,2021-08-04,2021-08-04,株式会社碧南開発,,株式会社,栃木県,佐野市,寺中町２３５５番地８,,09,204,3270836,,,,,,,2021-08-04,1,,,,,ヘキナンカイハツ,0
2910,9060001033968,新規,0,2021-08-04,2021-08-04,株式会社ｎｏｎａｍｅ,,株式会社,栃木県,宇都宮市,中今泉２丁目７番１９号,,09,201,3210968,,,,,,,2021-08-04,1,,,,,ノーネーム,0
2915,9070001038322,新規,0,2021-08-04,2021-08-04,株式会社ＢＬＵＥ　ＢＡＵＭ,,株式会社,群馬県,前橋市,川原町２丁目２９番地９,,10,201,3710046,,,,,,,2021-08-04,1,,,,,ブルーバウム,0
2916,9070001038330,新規,0,2021-08-04,2021-08-04,株式会社栗八ファーム,,株式会社,群馬県,高崎市,上中居町７１３番地３,,10,202,3700851,,,,,,,2021-08-04,1,,,,,クリハチファーム,0
2920,9080001024354,新規,0,2021-08-04,2021-08-04,株式会社おれっぷ大久保,,株式会社,静岡県,藤枝市,瀬戸ノ谷１１０２１番地,,22,214,4260131,,,,,,,2021-08-04,1,,,,,オレップオオクボ,0
2921,9080001024362,新規,0,2021-08-04,2021-08-04,ｂｏｎｄｓ株式会社,,株式会社,静岡県,静岡市清水区,馬走１０番６号,,22,103,4240875,,,,,,,2021-08-04,1,,,,,ボンズ,0
2922,9080001024370,新規,0,2021-08-04,2021-08-04,ボンズ不動産株式会社,,株式会社,静岡県,静岡市葵区,幸町５７番地の１０,,22,101,4200067,,,,,,,2021-08-04,1,,,,,ボンズフドウサン,0
2927,9080103002398,新規,0,2021-08-04,2021-08-04,合同会社エスアール,,合同会社,静岡県,沼津市,高尾台１３－２３,,22,203,4100017,,,,,,,2021-08-04,1,,,,,エスアール,0
2930,9080403004342,新規,0,2021-08-04,2021-08-04,ａｍｐｅｒｓａｎｄ合同会社,,合同会社,静岡県,浜松市中区,向宿２丁目３２－２３プチメゾン１０２号,,22,131,4300851,,,,,,,2021-08-04,1,,,,,アンパサンド,0
2931,9090001017142,新規,0,2021-08-04,2021-08-04,株式会社ＴＯＰ　ＳＫＹ,,株式会社,山梨県,甲斐市,宇津谷４４５番地,,19,210,4000108,,,,,,,2021-08-04,1,,,,,,0
2934,9100001034490,新規,0,2021-08-04,2021-08-04,株式会社エイチエス,,株式会社,長野県,長野市,青木島町青木島乙８２９番地４、３０２号室,,20,201,3812241,,,,,,,2021-08-04,1,,,,,エイチエス,0
2935,9100003006190,新規,0,2021-08-04,2021-08-04,合同会社とよさと農場,,合同会社,長野県,安曇野市,穂高有明８０３１番地４,,20,220,3998301,,,,,,,2021-08-04,1,,,,,トヨサトノウジョウ,0
2943,9120001239542,新規,0,2021-08-04,2021-08-04,株式会社井上技研,,株式会社,大阪府,大阪市城東区,蒲生１丁目１０番１１－７０７号,,27,118,5360016,,,,,,,2021-08-04,1,,,,,イノウエギケン,0
2953,9130001069848,新規,0,2021-08-04,2021-08-04,株式会社Ｄｉｒｅｔｔｏｒｅ,,株式会社,京都府,京都市西京区,嵐山朝月町５０－９,,26,111,6160022,,,,,,,2021-08-04,1,,,,,ディレットーレ,0
2955,9130003007401,新規,0,2021-08-04,2021-08-04,合同会社コクア,,合同会社,京都府,舞鶴市,倉梯町１７番地４,,26,202,6250056,,,,,,,2021-08-04,1,,,,,コクア,0
2959,9140003016582,新規,0,2021-08-04,2021-08-04,合同会社みもざ,,合同会社,兵庫県,尼崎市,西立花町３丁目７番１号,,28,202,6600054,,,,,,,2021-08-04,1,,,,,ミモザ,0
2960,9140005025771,新規,0,2021-08-04,2021-08-04,一般社団法人ＪＳＰＳ,,その他の設立登記法人,兵庫県,神戸市須磨区,白川台５丁目７番地の４,,28,107,6540103,,,,,,,2021-08-04,1,,,,,ジェイエスピーエス,0
2963,9170001016706,新規,0,2021-08-04,2021-08-04,株式会社Ｒｏｏｍ,,株式会社,和歌山県,新宮市,徐福１丁目６番７号,,30,207,6470020,,,,,,,2021-08-04,1,,,,,ルーム,0
2978,9180001147228,新規,0,2021-08-04,2021-08-04,株式会社唐福,,株式会社,愛知県,春日井市,大手町３丁目９番地１２,,23,206,4860807,,,,,,,2021-08-04,1,,,,,カラフク,0
2979,9180001147260,新規,0,2021-08-04,2021-08-04,ＫーＳＴＹＬＥ株式会社,,株式会社,愛知県,春日井市,出川町５丁目６番地２,,23,206,4870025,,,,,,,2021-08-04,1,,,,,ケースタイル,0
2980,9180001147269,新規,0,2021-08-04,2021-08-04,祥建株式会社,,株式会社,愛知県,半田市,寺町５０番地の１２,,23,205,4750844,,,,,,,2021-08-04,1,,,,,ショウケン,0
2981,9180001147277,新規,0,2021-08-04,2021-08-04,ＤＣプロモーションズ株式会社,,株式会社,愛知県,名古屋市緑区,徳重３丁目１０１番地,,23,114,4580815,,,,,,,2021-08-04,1,,,,,ディーシープロモーションズ,0
2982,9180001147285,新規,0,2021-08-04,2021-08-04,マーンブレインネクスト株式会社,,株式会社,愛知県,小牧市,篠岡１丁目１５番地６,,23,219,4850815,,,,,,,2021-08-04,1,,,,,マーンブレインネクスト,0
2983,9180001147351,新規,0,2021-08-04,2021-08-04,株式会社ヒロテック,,株式会社,愛知県,名古屋市守山区,大字下志段味字吉田２２６３番地の５,,23,113,4630003,,,,,,,2021-08-04,1,,,,,ヒロテック,0
2984,9180001147368,新規,0,2021-08-04,2021-08-04,株式会社ＭＡＳ,,株式会社,愛知県,春日井市,岩野町１丁目１７１番地,,23,206,4860805,,,,,,,2021-08-04,1,,,,,エムエイエス,0
2989,9180003022833,新規,0,2021-08-04,2021-08-04,合同会社ＭＨ,,合同会社,愛知県,名古屋市守山区,太田井２番２６号,,23,113,4630044,,,,,,,2021-08-04,1,,,,,エムエイチ,0
2995,9190001028567,新規,0,2021-08-04,2021-08-04,株式会社ｓｏｅｒｕ,,株式会社,三重県,松阪市,立野町５００番地３,,24,204,5150054,,,,,,,2021-08-04,1,,,,,ソエル,0
2996,9190001028575,新規,0,2021-08-04,2021-08-04,株式会社タカセ住建,,株式会社,三重県,伊勢市,御薗町長屋４２５番地１,,24,203,5160804,,,,,,,2021-08-04,1,,,,,タカセジュウケン,0
3000,9200001038985,新規,0,2021-08-04,2021-08-04,株式会社ＧＨＳ,,株式会社,岐阜県,可児市,大森２５３９番地４,,21,214,5090238,,,,,,,2021-08-04,1,,,,,ジーエッチエス,0
3006,9220003003093,新規,0,2021-08-04,2021-08-04,映像ワークショップ合同会社,,合同会社,石川県,加賀市,大聖寺中新道４番地３,,17,206,9220804,,,,,,,2021-08-04,1,,,,,エイゾウワークショップ,0
3008,9230001018919,新規,0,2021-08-04,2021-08-04,株式会社ライジング,,株式会社,富山県,富山市,針原中町５１６番地７,,16,201,9318431,,,,,,,2021-08-04,1,,,,,ライジング,0
3011,9240001058352,新規,0,2021-08-04,2021-08-04,株式会社Ｍｉｗａ龍,,株式会社,広島県,福山市,西桜町１丁目１０番１６－３０１号,,34,207,7200818,,,,,,,2021-08-04,1,,,,,ミワリュウ,0
3012,9240001058360,新規,0,2021-08-04,2021-08-04,株式会社ユーアンドアイ,,株式会社,広島県,安芸郡海田町,上市７番２８号,,34,304,7360061,,,,,,,2021-08-04,1,,,,,ユーアンドアイ,0
3013,9240001058369,新規,0,2021-08-04,2021-08-04,株式会社アイ・クレセール,,株式会社,広島県,廿日市市,前空２丁目１番７号,,34,213,7390424,,,,,,,2021-08-04,1,,,,,アイクレセール,0
3014,9240001058385,新規,0,2021-08-04,2021-08-04,株式会社長井ハウジング,,株式会社,広島県,広島市安佐南区,長束西１丁目２８－９－１１,,34,105,7310136,,,,,,,2021-08-04,1,,,,,ナガイハウジング,0
3017,9240003005229,新規,0,2021-08-04,2021-08-04,合同会社ＴＫＲ,,合同会社,広島県,広島市南区,仁保新町２丁目１０番２号,,34,103,7340024,,,,,,,2021-08-04,1,,,,,ティケイアール,0
3019,9250001019031,新規,0,2021-08-04,2021-08-04,株式会社食サポ,,株式会社,山口県,下関市,武久西原台７番２２号,,35,201,7510819,,,,,,,2021-08-04,1,,,,,ショクサポ,0
3020,9260001035812,新規,0,2021-08-04,2021-08-04,株式会社ＳＡ,,株式会社,岡山県,倉敷市,阿知３丁目４番１号プリーマビル５階,,33,202,7100055,,,,,,,2021-08-04,1,,,,,エスエイ,0
3021,9260001035837,新規,0,2021-08-04,2021-08-04,株式会社戸田畳店,,株式会社,岡山県,倉敷市,玉島乙島５７０８番地,,33,202,7138103,,,,,,,2021-08-04,1,,,,,トダタタミテン,0
3026,9260005010951,新規,0,2021-08-04,2021-08-04,特定非営利活動法人すこやかクラブ,,その他の設立登記法人,岡山県,岡山市南区,福富東１丁目７番３７号ホワイトピア武田２０１号,,33,104,7028033,,,,,,,2021-08-04,1,,,,,スコヤカクラブ,0
3035,9290001094038,新規,0,2021-08-04,2021-08-04,株式会社八龍,,株式会社,福岡県,福岡市城南区,片江１丁目１７番１３－２０１号,,40,136,8140142,,,,,,,2021-08-04,1,,,,,ハチリュウ,0
3036,9290001094087,新規,0,2021-08-04,2021-08-04,株式会社城創,,株式会社,福岡県,大野城市,乙金台２丁目８番２－４０１号,,40,219,8160903,,,,,,,2021-08-04,1,,,,,ジョウソウ,0
3046,9330001028866,新規,0,2021-08-04,2021-08-04,株式会社三津山電気,,株式会社,熊本県,球磨郡多良木町,大字多良木６５６番地８,,43,505,8680501,,,,,,,2021-08-04,1,,,,,ミツヤマデンキ,0
3047,9330001028874,新規,0,2021-08-04,2021-08-04,株式会社富野建装,,株式会社,熊本県,熊本市南区,平田１丁目１４番１９号草野ビル２０５,,43,104,8600826,,,,,,,2021-08-04,1,,,,,トミノケンソウ,0
3048,9340001023981,新規,0,2021-08-04,2021-08-04,株式会社Ｔо　ＬＥＡＰ,,株式会社,鹿児島県,曽於市,末吉町諏訪方８３５８番地３,,46,217,8998604,,,,,,,2021-08-04,1,,,,,トゥーリープ,0
3049,9340003003511,新規,0,2021-08-04,2021-08-04,城の下物産館合同会社,,合同会社,鹿児島県,日置市,日吉町日置２８６５番地７,,46,216,8993101,,,,,,,2021-08-04,1,,,,,ジョーノシタブッサンカン,0
3050,9350001017248,新規,0,2021-08-04,2021-08-04,ＵＮＬＩＭＩＴＥＤ株式会社,,株式会社,宮崎県,宮崎市,中央通２－１０みらいビル１Ｆ,,45,201,8800002,,,,,,,2021-08-04,1,,,,,アンリミテッド,0
3052,9370001047425,新規,0,2021-08-04,2021-08-04,株式会社仙台プロモ,,株式会社,宮城県,仙台市青葉区,本町１丁目９番５号,,04,101,9800014,,,,,,,2021-08-04,1,,,,,センダイプロモ,0
3053,9370001047441,新規,0,2021-08-04,2021-08-04,株式会社ＡｔｅｌｉｅｒＩＣＨＩＭＡＲＵ,,株式会社,宮城県,仙台市青葉区,春日町１１－３３ライオンズマンション春日町第２、１０２号室,,04,101,9800821,,,,,,,2021-08-04,1,,,,,アトリエイチマル,0
3064,9450001013427,新規,0,2021-08-04,2021-08-04,株式会社興栄ホールディングス,,株式会社,北海道,紋別郡西興部村,字奥興部４７９番地の１,,01,562,0981424,,,,,,,2021-08-04,1,,,,,コウエイホールディングス,0
3071,9470001018647,新規,0,2021-08-04,2021-08-04,株式会社香川抗菌,,株式会社,香川県,高松市,上福岡町７５８番地１,,37,201,7600077,,,,,,,2021-08-04,1,,,,,カガワコウキン,0
3073,9480001011452,新規,0,2021-08-04,2021-08-04,大磯モータース株式会社,,株式会社,徳島県,名西郡石井町,藍畑字高畑１０６８番地１,,36,341,7793213,,,,,,,2021-08-04,1,,,,,オオイソモータース,0
3078,9500001023602,新規,0,2021-08-04,2021-08-04,株式会社ＣｏｃｏＭ,,株式会社,愛媛県,松山市,白水台４丁目１２番地１,,38,201,7910113,,,,,,,2021-08-04,1,,,,,ココマ,0
3079,9500001023610,新規,0,2021-08-04,2021-08-04,ナチュリーホーム株式会社,,株式会社,愛媛県,新居浜市,垣生３丁目９番２０号,,38,205,7920872,,,,,,,2021-08-04,1,,,,,ナチュリーホーム,0
3082,9500003002678,新規,0,2021-08-04,2021-08-04,合同会社ジオ,,合同会社,愛媛県,東温市,野田１丁目４番地１,,38,215,7910216,,,,,,,2021-08-04,1,,,,,ジオ,0
