sequenceNumber,corporateNumber,process,correct,updateDate,changeDate,name,nameImageId,kind,prefectureName,cityName,streetNumber,addressImageId,prefectureCode,cityCode,postCode,addressOutside,addressOutsideImageId,closeDate,closeCause,successorCorporateNumber,changeCause,assignmentDate,latest,enName,enPrefectureName,enCityName,enAddressOutside,furigana,hihyoji
6,1010001159949,登記記録の閉鎖等,0,2025-01-21,2024-12-27,アイシートレーディング株式会社,,株式会社,東京都,中央区,勝どき５丁目１２番４－４０２号,,13,102,1040054,,,2024-12-27,清算の結了等,,,2015-10-05,1,,,,,アイシートレーディング,0
8,1010001227193,登記記録の閉鎖等,0,2025-01-21,2025-01-06,株式会社ＣＡＲＩＮＧ,,株式会社,東京都,千代田区,西神田２丁目５－８共和壱五番館ビル２Ｆ,,13,101,1010065,,,2025-01-06,清算の結了等,,,2022-06-08,1,,,,,ケアリング,0
22,1010601023612,登記記録の閉鎖等,0,2025-01-21,2025-01-09,株式会社ホワイトソーイング,,株式会社,東京都,江東区,新大橋２丁目８番８号,,13,108,1350007,,,2025-01-09,合併による解散等,4010601007620,令和７年１月１日東京都江東区新大橋二丁目８番８号ウインスロップ株式会社（4010601007620）に合併し解散,2015-10-05,1,,,,,ホワイトソーイング,0
25,1010701004149,登記記録の閉鎖等,0,2025-01-21,2025-01-06,株式会社ジェー・エス・シー永生,,株式会社,東京都,品川区,南大井５丁目２６番１２号,,13,109,1400013,,,2025-01-06,清算の結了等,,,2015-10-05,1,,,,,ジェーエスシーエイセイ,0
52,1011003014828,登記記録の閉鎖等,0,2025-01-21,2025-01-06,合同会社ＴＢエネルギー１,,合同会社,東京都,品川区,上大崎３丁目１番１号,,13,109,1410021,,,2025-01-06,清算の結了等,,,2022-06-09,1,,,,,ティービーエネルギーイチ,0
54,1011101060278,登記記録の閉鎖等,0,2025-01-21,2025-01-08,ウィズリード株式会社,,株式会社,東京都,新宿区,新宿１丁目１８番１３号,,13,104,1600022,,,2025-01-08,清算の結了等,,,2015-10-05,1,,,,,ウィズリード,0
68,1011501016838,登記記録の閉鎖等,0,2025-01-21,2025-01-20,株式会社ＹＵＮＯ,,株式会社,東京都,北区,滝野川７丁目４３番１号,,13,117,1140023,,,2025-01-20,登記官による閉鎖,,,2015-10-05,1,,,,,,0
69,1011502005014,登記記録の閉鎖等,0,2025-01-21,2025-01-20,有限会社富士機材,,有限会社,東京都,北区,上十条２丁目１１番１６号,,13,117,1140034,,,2025-01-20,登記官による閉鎖,,,2015-10-05,1,,,,,,0
71,1011505001225,登記記録の閉鎖等,0,2025-01-21,2025-01-20,特定非営利活動法人アジア文化・教育支援協会,,その他の設立登記法人,東京都,荒川区,東日暮里５丁目５０番９号もみじばしビル２０１,,13,118,1160014,,,2025-01-20,登記官による閉鎖,,,2015-10-05,1,,,,,,0
72,1011505001258,登記記録の閉鎖等,0,2025-01-21,2025-01-20,特定非営利活動法人Ｔ．Ｈ．Ｇ機構,,その他の設立登記法人,東京都,荒川区,荒川３丁目７４番６号,,13,118,1160002,,,2025-01-20,登記官による閉鎖,,,2015-10-05,1,,,,,,0
88,1013301049968,登記記録の閉鎖等,0,2025-01-21,2025-01-10,株式会社兆麗,,株式会社,東京都,豊島区,巣鴨１丁目１７番３号子野ビル４０４号室,,13,116,1700002,,,2025-01-10,清算の結了等,,,2022-12-01,1,,,,,チョウレイ,0
98,1021001046582,登記記録の閉鎖等,0,2025-01-21,2025-01-17,株式会社ふじさわびと,,株式会社,神奈川県,藤沢市,本藤沢５丁目１３番１５号,,14,205,2510875,,,2025-01-17,清算の結了等,,,2015-10-05,1,,,,,フジサワビト,0
100,1021001047688,登記記録の閉鎖等,0,2025-01-21,2025-01-20,株式会社フラット,,株式会社,神奈川県,伊勢原市,上粕屋２５１０番地の１,,14,214,2591141,,,2025-01-20,清算の結了等,,,2015-10-05,1,,,,,,0
114,1030005016525,登記記録の閉鎖等,0,2025-01-21,2024-12-25,一般社団法人パワージュエルセラピー協会,,その他の設立登記法人,埼玉県,川越市,大字古谷上６０８３番地８Ａ１－１０９,,11,201,3500001,,,2024-12-25,清算の結了等,,,2015-10-05,1,,,,,パワージュエルセラピーキョウカイ,0
116,1040001073065,登記記録の閉鎖等,0,2025-01-21,2025-01-10,株式会社マレア,,株式会社,千葉県,柏市,加賀２丁目２４番４号,,12,217,2770051,,,2025-01-10,清算の結了等,,,2015-10-05,1,,,,,マレア,0
131,1080103001630,登記記録の閉鎖等,0,2025-01-21,2025-01-16,パワー合同会社,,合同会社,静岡県,富士市,横割５丁目２番２２号,,22,210,4160944,,,2025-01-16,清算の結了等,,,2017-01-13,1,,,,,パワー,0
134,1090001002408,登記記録の閉鎖等,0,2025-01-21,2025-01-08,株式会社裕起,,株式会社,山梨県,甲府市,幸町１６番２４号,,19,201,4000857,,,2025-01-08,登記官による閉鎖,,,2015-10-05,1,,,,,,0
135,1090001008140,登記記録の閉鎖等,0,2025-01-21,2025-01-08,株式会社テクノワールド,,株式会社,山梨県,上野原市,上野原８１５４番地の２３１,,19,212,4090112,,,2025-01-08,登記官による閉鎖,,,2015-10-05,1,,,,,,0
136,1090001011243,登記記録の閉鎖等,0,2025-01-21,2025-01-08,株式会社浅川肥料店,,株式会社,山梨県,北杜市,長坂町長坂上条２４９３番地１,,19,209,4080021,,,2025-01-08,登記官による閉鎖,,,2015-10-05,1,,,,,,0
137,1090002000807,登記記録の閉鎖等,0,2025-01-21,2025-01-08,有限会社北新工営,,有限会社,山梨県,甲府市,北新２丁目１３番１５号,,19,201,4000005,,,2025-01-08,登記官による閉鎖,,,2015-10-05,1,,,,,,0
138,1090002006457,登記記録の閉鎖等,0,2025-01-21,2025-01-08,有限会社双立,,有限会社,山梨県,甲府市,下鍛冶屋町１５０番地１,,19,201,4000835,,,2025-01-08,登記官による閉鎖,,,2015-10-05,1,,,,,,0
139,1090002009682,登記記録の閉鎖等,0,2025-01-21,2025-01-08,有限会社昭和土木,,有限会社,山梨県,上野原市,野田尻３２４番地２,,19,212,4090125,,,2025-01-08,登記官による閉鎖,,,2015-10-05,1,,,,,,0
178,1130001005380,登記記録の閉鎖等,0,2025-01-21,2025-01-20,株式会社サンセット・レッド・プロダクション,,株式会社,東京都,北区,赤羽西３丁目２８番２２号,,13,117,1150055,,,2025-01-20,登記官による閉鎖,,,2015-10-05,1,,,,,,0
184,1140001011295,登記記録の閉鎖等,0,2025-01-21,2025-01-16,メディアシステム株式会社,,株式会社,兵庫県,神戸市中央区,磯上通８丁目１番５号,,28,110,6510086,,,2025-01-16,清算の結了等,,,2015-10-05,1,,,,,,0
185,1140001044790,登記記録の閉鎖等,0,2025-01-21,2025-01-15,株式会社エイティブ設計,,株式会社,兵庫県,加古郡稲美町,森安２４０番地,,28,381,6751124,,,2025-01-15,清算の結了等,,,2015-10-05,1,,,,,エイティブセッケイ,0
198,1170002010509,登記記録の閉鎖等,0,2025-01-21,2025-01-17,有限会社北村運送,,有限会社,和歌山県,日高郡由良町,大字里８番地,,30,383,6491111,,,2025-01-17,清算の結了等,,,2015-10-05,1,,,,,キタムラウンソウ,0
206,1180001107908,登記記録の閉鎖等,0,2025-01-21,2025-01-08,株式会社年中夢求,,株式会社,愛知県,清須市,西枇杷島町芳野３丁目１５番地２,,23,233,4520065,,,2025-01-08,清算の結了等,,,2015-10-05,1,,,,,ネンジュウムキュウ,0
221,1180301034059,登記記録の閉鎖等,0,2025-01-21,2025-01-07,ＬＥ．ＶＥＲＴ　ＡＳＳＯＣＩＡＴＥ　ＪＡＰＡＮ株式会社,,株式会社,愛知県,西尾市,花ノ木町２丁目１０番地３０１,,23,213,4450852,,,2025-01-07,清算の結了等,,,2020-09-07,1,,,,,ラヴェールアソシエイトジャパン,0
223,1180305008587,登記記録の閉鎖等,0,2025-01-21,2025-01-14,行政書士法人クロヤナギ事務所,,その他の設立登記法人,愛知県,岡崎市,明大寺町字銭堤２０番地５,,23,202,4440864,,,2025-01-14,清算の結了等,,,2016-12-09,1,,,,,クロヤナギジムショ,0
240,1260005010752,登記記録の閉鎖等,0,2025-01-21,2025-01-20,一般社団法人青ぞら教室,,その他の設立登記法人,岡山県,倉敷市,連島町西之浦５８３７－１パルネットエポック１０１,,33,202,7128001,,,2025-01-20,清算の結了等,,,2020-04-20,1,,,,,アオゾラキョウシツ,0
245,1290003011683,登記記録の閉鎖等,0,2025-01-21,2024-12-23,合同会社すすきに月,,合同会社,福岡県,福津市,津屋崎１丁目１０番１０－１号,,40,224,8113304,,,2024-12-23,清算の結了等,,,2021-10-06,1,,,,,ススキニツキ,0
252,1310002016219,登記記録の閉鎖等,0,2025-01-21,2025-01-20,有限会社西九州電子,,有限会社,長崎県,諫早市,多良見町化屋４８２－１,,42,204,8590401,,,2025-01-20,清算の結了等,,,2015-10-05,1,,,,,ニシキュウシュウデンシ,0
253,1310003003595,登記記録の閉鎖等,0,2025-01-21,2025-01-16,株式会社リベルケア九州,,株式会社,長崎県,長崎市,緑が丘町１番４号２,,42,201,8528033,,,2025-01-16,合併による解散等,5180301030087,令和７年１月１日名古屋市中村区名駅三丁目２８番１２号株式会社リベルケア（5180301030087）に合併し解散,2018-12-26,1,,,,,リベルケアキュウシュウ,0
260,1350001014657,登記記録の閉鎖等,0,2025-01-21,2025-01-15,株式会社蘭,,株式会社,宮崎県,延岡市,川原崎町１９２番地２,,45,203,8820033,,,2025-01-15,清算の結了等,,,2017-05-12,1,,,,,ラン,0
261,1360001027872,登記記録の閉鎖等,0,2025-01-21,2025-01-17,沖縄民間ピーシーアール検査機構株式会社,,株式会社,沖縄県,那覇市,字鏡水４０３番地,,47,201,9010142,,,2025-01-17,清算の結了等,,,2020-11-06,1,,,,,オキナワミンカンピーシーアールケンサキコウ,0
270,1380002036359,登記記録の閉鎖等,0,2025-01-21,2025-01-10,叶屋織物有限会社,,有限会社,福島県,福島市,飯野町字向舘２４番地,,07,201,9601301,,,2025-01-10,清算の結了等,,,2024-11-05,1,,,,,カノウヤオリモノ,0
280,1470001000166,登記記録の閉鎖等,0,2025-01-21,2025-01-17,株式会社屋島コンクリート工業,,株式会社,香川県,高松市,牟礼町大町４５９番地２１,,37,201,7610122,,,2025-01-17,登記官による閉鎖,,,2015-10-05,1,,,,,,0
281,1470001008250,登記記録の閉鎖等,0,2025-01-21,2025-01-17,株式会社高橋製材所,,株式会社,香川県,仲多度郡まんのう町,吉野下２２２番地３,,37,406,7660022,,,2025-01-17,登記官による閉鎖,,,2015-10-05,1,,,,,,0
283,1470002002426,登記記録の閉鎖等,0,2025-01-21,2025-01-17,有限会社くしだ,,有限会社,香川県,高松市,大工町１番地１４,,37,201,7600042,,,2025-01-17,登記官による閉鎖,,,2015-10-05,1,,,,,,0
284,1470002009090,登記記録の閉鎖等,0,2025-01-21,2025-01-17,有限会社ＳＭＺ総合設備,,有限会社,香川県,高松市,木太町１４３４番地２７,,37,201,7600080,,,2025-01-17,登記官による閉鎖,,,2015-10-05,1,,,,,,0
286,1470005004774,登記記録の閉鎖等,0,2025-01-21,2025-01-17,特定非営利活動法人空海,,その他の設立登記法人,香川県,善通寺市,与北町８１１番地１,,37,204,7650040,,,2025-01-17,登記官による閉鎖,,,2015-10-05,1,,,,,,0
287,1480005006877,登記記録の閉鎖等,0,2025-01-21,2025-01-17,特定非営利活動法人二と八,,その他の設立登記法人,徳島県,美馬市,穴吹町穴吹字藤原１１番地１,,36,207,7770005,,,2025-01-17,清算の結了等,,,2022-02-04,1,,,,,ニトハ,0
297,2010003040899,登記記録の閉鎖等,0,2025-01-21,2025-01-06,ベストパートナーズ合同会社,,合同会社,東京都,中央区,銀座１丁目１２番４号Ｎ＆Ｅ・ＢＬＤ．７階,,13,102,1040061,,,2025-01-06,清算の結了等,,,2023-06-27,1,,,,,ベストパートナーズ,0
303,2010401020833,登記記録の閉鎖等,0,2025-01-21,2025-01-09,東京日商株式会社,,株式会社,千葉県,市川市,大洲２丁目４番３号,,12,203,2720032,,,2025-01-09,清算の結了等,,,2015-10-05,1,,,,,トウキョウニッショウ,0
304,2010401115641,登記記録の閉鎖等,0,2025-01-21,2025-01-14,株式会社スマートリンク,,株式会社,東京都,港区,六本木６丁目１０番１号六本木ヒルズ森タワー１５階,,13,103,1060032,,,2025-01-14,合併による解散等,6030001144894,令和７年１月１日埼玉県熊谷市石原１０２３番地５株式会社ＭＲカンパニーリミテッド（6030001144894）に合併し解散,2015-10-05,1,,,,,スマートリンク,0
316,2010901005020,登記記録の閉鎖等,0,2025-01-21,2025-01-10,株式会社澤田プロモーション,,株式会社,東京都,世田谷区,代田４丁目２番１８号,,13,112,1550033,,,2025-01-10,清算の結了等,,,2015-10-05,1,,,,,サワダプロモーション,0
333,2011101098441,登記記録の閉鎖等,0,2025-01-21,2025-01-06,株式会社ＲａｙＡｒｃ　Ａｓｔｒｏｌａｂｅ,,株式会社,東京都,新宿区,西新宿３丁目８番３号,,13,104,1600023,,,2025-01-06,合併による解散等,1011101029050,令和７年１月１日東京都新宿区西新宿三丁目８番３号株式会社ＲａｙＡｒｃ（1011101029050）に合併し解散,2022-04-06,1,,,,,レイアークアストロラーベ,0
338,2011501007464,登記記録の閉鎖等,0,2025-01-21,2025-01-20,株式会社高橋商店,00055649,株式会社,東京都,荒川区,南千住６丁目６４番１６号,,13,118,1160003,,,2025-01-20,登記官による閉鎖,,,2015-10-05,1,,,,,タカハシショウテン,0
341,2011502015243,登記記録の閉鎖等,0,2025-01-21,2025-01-20,有限会社ゆーとぴあ,,有限会社,東京都,北区,浮間１丁目７番４号,,13,117,1150051,,,2025-01-20,登記官による閉鎖,,,2015-10-05,1,,,,,,0
343,2011701000987,登記記録の閉鎖等,0,2025-01-21,2025-01-15,株式会社植草商会,,株式会社,東京都,江戸川区,篠崎町５丁目７番７号,,13,123,1330061,,,2025-01-15,清算の結了等,,,2015-10-05,1,,,,,ウエクサショウカイ,0
344,2011701009252,登記記録の閉鎖等,0,2025-01-21,2025-01-16,株式会社ミシナ,,株式会社,東京都,江戸川区,船堀５丁目１２番４号,,13,123,1340091,,,2025-01-16,清算の結了等,,,2015-10-05,1,,,,,ミシナ,0
354,2013302010424,登記記録の閉鎖等,0,2025-01-21,2025-01-10,有限会社山芳,,有限会社,東京都,豊島区,要町３丁目１１番２号,,13,116,1710043,,,2025-01-10,清算の結了等,,,2015-10-05,1,,,,,ヤマヨシ,0
361,2020002097015,登記記録の閉鎖等,0,2025-01-21,2025-01-06,有限会社三義総業,,有限会社,神奈川県,川崎市川崎区,小田栄１丁目３番７号,,14,131,2100843,,,2025-01-06,清算の結了等,,,2015-10-05,1,,,,,ミツヨシソウギョウ,0
366,2021001000555,登記記録の閉鎖等,0,2025-01-21,2025-01-20,株式会社いづき,,株式会社,神奈川県,藤沢市,亀井野２丁目２１番地の９,,14,205,2520813,,,2025-01-20,清算の結了等,,,2015-10-05,1,,,,,,0
379,2040001079945,登記記録の閉鎖等,0,2025-01-21,2025-01-20,株式会社ｓｏｒａｕｄ,,株式会社,東京都,江東区,三好１丁目８番３号２Ｆ,,13,108,1350022,,,2025-01-20,清算の結了等,,,2015-10-05,1,,,,,ソラウド,0
382,2040001129007,登記記録の閉鎖等,0,2025-01-21,2025-01-09,株式会社ＢＨＣ,,株式会社,千葉県,我孫子市,柴崎台５丁目１番２‐１０６グリーンヒルズ天王台,,12,222,2701176,,,2025-01-09,清算の結了等,,,2023-06-30,1,,,,,ビーエイチシー,0
389,2040002050921,登記記録の閉鎖等,0,2025-01-21,2025-01-09,有限会社アイ・ム印刷,,有限会社,千葉県,流山市,向小金１丁目２７３番地の３４,,12,220,2700143,,,2025-01-09,清算の結了等,,,2015-10-05,1,,,,,アイムインサツ,0
391,2040003013836,登記記録の閉鎖等,0,2025-01-21,2025-01-10,ＭＩＺＵＭＡＲＵ合同会社,,合同会社,千葉県,市川市,宮久保３丁目３４－８Ａ１０３,,12,203,2720822,,,2025-01-10,清算の結了等,,,2019-08-06,1,,,,,ミズマル,0
395,2050002045945,登記記録の閉鎖等,0,2025-01-21,2025-01-14,有限会社飯沼薬局,,有限会社,茨城県,結城市,大字結城１７９番地,,08,207,3070001,,,2025-01-14,清算の結了等,,,2024-11-26,1,,,,,イイヌマヤッキョク,0
401,2090001008800,登記記録の閉鎖等,0,2025-01-21,2025-01-08,株式会社シンエイ,,株式会社,山梨県,大月市,笹子町吉久保５７２番地,,19,206,4010024,,,2025-01-08,登記官による閉鎖,,,2015-10-05,1,,,,,,0
402,2090001011911,登記記録の閉鎖等,0,2025-01-21,2025-01-08,株式会社伊藤工務所,,株式会社,山梨県,西八代郡市川三郷町,岩間２２２９番地,,19,346,4093244,,,2025-01-08,登記官による閉鎖,,,2015-10-05,1,,,,,,0
403,2090001012645,登記記録の閉鎖等,0,2025-01-21,2025-01-08,株式会社ちょうほう,,株式会社,山梨県,甲府市,住吉１丁目８番２３号,,19,201,4000851,,,2025-01-08,登記官による閉鎖,,,2015-10-05,1,,,,,,0
405,2090002002224,登記記録の閉鎖等,0,2025-01-21,2025-01-17,有限会社中沢道路,,有限会社,山梨県,甲府市,塚原町６６２番地,,19,201,4000003,,,2025-01-17,清算の結了等,,,2015-10-05,1,,,,,ナカザワドウロ,0
406,2090002004096,登記記録の閉鎖等,0,2025-01-21,2025-01-08,有限会社スギタ,,有限会社,山梨県,甲斐市,中下条１４８４番地の３,,19,210,4000124,,,2025-01-08,登記官による閉鎖,,,2015-10-05,1,,,,,,0
407,2090002011448,登記記録の閉鎖等,0,2025-01-21,2025-01-08,有限会社緑土開発,,有限会社,山梨県,甲州市,塩山赤尾５４３番地２,,19,213,4040033,,,2025-01-08,登記官による閉鎖,,,2015-10-05,1,,,,,,0
408,2090002013576,登記記録の閉鎖等,0,2025-01-21,2025-01-08,有限会社清里ホーム,,有限会社,山梨県,北杜市,高根町清里３５４５番地２６１９,,19,209,4070301,,,2025-01-08,登記官による閉鎖,,,2015-10-05,1,,,,,,0
409,2090005000539,登記記録の閉鎖等,0,2025-01-21,2025-01-08,山梨県時計宝飾眼鏡商業協同組合,,その他の設立登記法人,山梨県,甲府市,中央１丁目１２番４２号,,19,201,4000032,,,2025-01-08,登記官による閉鎖,,,2015-10-05,1,,,,,,0
419,2120001050708,登記記録の閉鎖等,0,2025-01-21,2025-01-10,溝下金属株式会社,,株式会社,大阪府,大阪市西淀川区,大野１丁目６番２０号,,27,113,5550043,,,2025-01-10,清算の結了等,,,2015-10-05,1,,,,,,0
420,2120001053371,登記記録の閉鎖等,0,2025-01-21,2025-01-14,大阪貼合株式会社,,株式会社,大阪府,大阪市東淀川区,瑞光３丁目４番１２号,,27,114,5330005,,,2025-01-14,清算の結了等,,,2015-10-05,1,,,,,,0
438,2120003026004,登記記録の閉鎖等,0,2025-01-21,2025-01-14,合同会社Ｈａｎｃｏｃｋ,,合同会社,大阪府,大阪市淀川区,西三国１丁目３１－６－４０１,,27,123,5320006,,,2025-01-14,清算の結了等,,,2024-02-29,1,,,,,ハンコック,0
457,2140002059465,登記記録の閉鎖等,0,2025-01-21,2025-01-15,有限会社セレス,,有限会社,兵庫県,芦屋市,川西町７番３－５０７号,,28,206,6590072,,,2025-01-15,清算の結了等,,,2015-10-05,1,,,,,セレス,0
461,2160001009196,登記記録の閉鎖等,0,2025-01-21,2025-01-06,シガソーラーアメニティ株式会社,,株式会社,滋賀県,彦根市,開出今町１４７５番地,,25,202,5220056,,,2025-01-06,清算の結了等,,,2015-10-05,1,,,,,シガソーラーアメニティ,0
468,2180001119695,登記記録の閉鎖等,0,2025-01-21,2025-01-08,ＣｓＴ企画株式会社,,株式会社,愛知県,名古屋市中区,大須１丁目７番１４号,,23,106,4600011,,,2025-01-08,清算の結了等,,,2015-10-05,1,,,,,シーエスティーキカク,0
472,2180002007288,登記記録の閉鎖等,0,2025-01-21,2025-01-07,有限会社名南無線,,有限会社,愛知県,名古屋市港区,高木町２丁目２５番地,,23,111,4550821,,,2025-01-07,清算の結了等,,,2015-10-05,1,,,,,メイナンムセン,0
475,2180002028136,登記記録の閉鎖等,0,2025-01-21,2025-01-08,太閤被服有限会社,,有限会社,愛知県,名古屋市中村区,東宿町２丁目７番地,,23,105,4530063,,,2025-01-08,清算の結了等,,,2015-10-05,1,,,,,タイコウヒフク,0
479,2180002089954,登記記録の閉鎖等,0,2025-01-21,2025-01-09,有限会社増田システム,,有限会社,愛知県,海部郡蟹江町,平安２丁目３６番地,,23,425,4970053,,,2025-01-09,清算の結了等,,,2015-10-05,1,,,,,マスダシステム,0
494,2250002003172,登記記録の閉鎖等,0,2025-01-21,2025-01-17,タカオ商事有限会社,,有限会社,山口県,防府市,天神２丁目６番３号,,35,206,7470034,,,2025-01-17,清算の結了等,,,2015-10-05,1,,,,,タカオショウジ,0
496,2250003003386,登記記録の閉鎖等,0,2025-01-21,2025-01-17,合同会社山和フード,,合同会社,山口県,宇部市,大字際波４１３番地４,,35,202,7590207,,,2025-01-17,清算の結了等,,,2023-11-22,1,,,,,サンワフード,0
521,2350001006273,登記記録の閉鎖等,0,2025-01-21,2025-01-17,株式会社日之出工業,,株式会社,宮崎県,日向市,大字財光寺１３９１番地,,45,206,8830021,,,2025-01-17,清算の結了等,,,2015-10-05,1,,,,,ヒノデコウギョウ,0
530,2370002019652,登記記録の閉鎖等,0,2025-01-21,2025-01-10,有限会社三恵,,有限会社,宮城県,仙台市泉区,永和台２４番１号,,04,105,9813104,,,2025-01-10,清算の結了等,,,2015-10-05,1,,,,,サンケイ,0
532,2380001022854,登記記録の閉鎖等,0,2025-01-21,2025-01-09,株式会社Ｂ・Ｂ,,株式会社,福島県,福島市,伏拝字大杉１番地の４,,07,201,9608154,,,2025-01-09,清算の結了等,,,2015-10-05,1,,,,,,0
534,2400602001353,登記記録の閉鎖等,0,2025-01-21,2025-01-08,有限会社永進堂,,有限会社,岩手県,奥州市,前沢字長檀７８番地１,,03,215,0294204,,,2025-01-08,清算の結了等,,,2015-10-05,1,,,,,エイシンドウ,0
544,2470001004678,登記記録の閉鎖等,0,2025-01-21,2025-01-17,株式会社ウィングス,,株式会社,香川県,高松市,木太町１９４７番地４,,37,201,7600080,,,2025-01-17,登記官による閉鎖,,,2015-10-05,1,,,,,,0
545,2470001005049,登記記録の閉鎖等,0,2025-01-21,2025-01-17,株式会社大丸ハウス,,株式会社,香川県,高松市,花ノ宮町１丁目８番２３号,,37,201,7618063,,,2025-01-17,登記官による閉鎖,,,2015-10-05,1,,,,,ダイマルハウス,0
546,2470001010734,登記記録の閉鎖等,0,2025-01-21,2025-01-17,株式会社三豊スレート,,株式会社,香川県,三豊市,高瀬町上高瀬１９５５番地３,,37,208,7670001,,,2025-01-17,登記官による閉鎖,,,2015-10-05,1,,,,,,0
547,2470001011088,登記記録の閉鎖等,0,2025-01-21,2025-01-17,株式会社志度土地建物相談センター,,株式会社,香川県,さぬき市,志度５１９番地３,,37,206,7692101,,,2025-01-17,登記官による閉鎖,,,2015-10-05,1,,,,,,0
548,2470002002210,登記記録の閉鎖等,0,2025-01-21,2025-01-17,有限会社キングファニチャオオヒラ,,有限会社,香川県,高松市,寺井町８６３番地２,,37,201,7618085,,,2025-01-17,登記官による閉鎖,,,2015-10-05,1,,,,,,0
549,2470002006335,登記記録の閉鎖等,0,2025-01-21,2025-01-17,有限会社松浦海運,,有限会社,香川県,高松市,香西本町６５０番地２,,37,201,7618012,,,2025-01-17,登記官による閉鎖,,,2015-10-05,1,,,,,,0
550,2470002007184,登記記録の閉鎖等,0,2025-01-21,2025-01-17,大和冷蔵有限会社,,有限会社,香川県,高松市,花ノ宮町１丁目１２番１５号,,37,201,7618063,,,2025-01-17,登記官による閉鎖,,,2015-10-05,1,,,,,,0
551,2470002012630,登記記録の閉鎖等,0,2025-01-21,2025-01-17,有限会社島商店,,有限会社,香川県,仲多度郡多度津町,本通３丁目２番３５－５号,,37,404,7640014,,,2025-01-17,登記官による閉鎖,,,2015-10-05,1,,,,,,0
553,2470002018355,登記記録の閉鎖等,0,2025-01-21,2025-01-17,開洋水産有限会社,,有限会社,香川県,東かがわ市,引田２７６７番地の２,,37,207,7692901,,,2025-01-17,登記官による閉鎖,,,2015-10-05,1,,,,,,0
554,2480002002259,登記記録の閉鎖等,0,2025-01-21,2025-01-20,有限会社住協,,有限会社,徳島県,徳島市,津田海岸町５番３３号,,36,201,7708001,,,2025-01-20,清算の結了等,,,2015-10-05,1,,,,,スミキョウ,0
568,3010002025900,登記記録の閉鎖等,0,2025-01-21,2025-01-06,有限会社山田商店,,有限会社,東京都,中央区,日本橋浜町１丁目１０番４号,,13,102,1030007,,,2025-01-06,清算の結了等,,,2015-10-05,1,,,,,ヤマダショウテン,0
571,3010101006504,登記記録の閉鎖等,0,2025-01-21,2025-01-06,株式会社アヅマエネルギー,,株式会社,東京都,八王子市,中野山王２丁目３番２８号,,13,201,1920042,,,2025-01-06,合併による解散等,7010101012754,令和７年１月１日東京都八王子市中野山王二丁目３番２８号株式会社アヅマホールディングス（7010101012754）に合併し解散,2015-10-05,1,,,,,アヅマエネルギー,0
575,3010401144549,登記記録の閉鎖等,0,2025-01-21,2024-12-24,ＭＣ株式会社,,株式会社,東京都,港区,六本木１丁目６番１号,,13,103,1060032,,,2024-12-24,清算の結了等,,,2019-03-20,1,,,,,エムシー,0
576,3010402036431,登記記録の閉鎖等,0,2025-01-21,2024-12-20,ＳＫＫＹ　ＩＮＮＯＶＡＴＩＯＮＳ有限会社,,有限会社,東京都,港区,南青山２丁目２－６,,13,103,1070062,,,2024-12-20,清算の結了等,,,2015-10-05,1,,,,,,0
581,3010405021406,登記記録の閉鎖等,0,2025-01-21,2024-12-24,ＥＳＲ３５特定目的会社,,その他の設立登記法人,東京都,港区,浜松町１丁目２０番１０号ライオネス浜松町５０６号室,,13,103,1050013,,,2024-12-24,清算の結了等,,,2022-09-22,1,,,,,イーエスアールサンジュウゴ,0
590,3010901006307,登記記録の閉鎖等,0,2025-01-21,2025-01-14,株式会社正鵠社,00052641,株式会社,東京都,世田谷区,宮坂３丁目７番６－４０４号,,13,112,1560051,,,2025-01-14,清算の結了等,,,2015-10-05,1,,,,,セイコクシャ,0
612,3011502001498,登記記録の閉鎖等,0,2025-01-21,2025-01-20,有限会社レオ・オオスミ,,有限会社,東京都,北区,浮間２丁目１１番４号,,13,117,1150051,,,2025-01-20,登記官による閉鎖,,,2015-10-05,1,,,,,,0
613,3011502002281,登記記録の閉鎖等,0,2025-01-21,2025-01-20,有限会社小見山園,,有限会社,東京都,北区,東十条３丁目１５番７号,,13,117,1140001,,,2025-01-20,登記官による閉鎖,,,2015-10-05,1,,,,,,0
614,3011502003890,登記記録の閉鎖等,0,2025-01-21,2025-01-20,有限会社土屋酒店,,有限会社,東京都,北区,昭和町１丁目２番２３号,,13,117,1140011,,,2025-01-20,登記官による閉鎖,,,2015-10-05,1,,,,,,0
615,3011502007314,登記記録の閉鎖等,0,2025-01-21,2025-01-20,有限会社エスアンドエス,,有限会社,東京都,荒川区,西尾久３丁目２５番９－３０１号,,13,118,1160011,,,2025-01-20,登記官による閉鎖,,,2015-10-05,1,,,,,,0
616,3011505000027,登記記録の閉鎖等,0,2025-01-21,2025-01-20,東京都桐たんす工業協同組合,,その他の設立登記法人,東京都,荒川区,東日暮里６丁目１３番１５号,,13,118,1160014,,,2025-01-20,登記官による閉鎖,,,2015-10-05,1,,,,,,0
617,3011505000398,登記記録の閉鎖等,0,2025-01-21,2025-01-20,財団法人長澤科学育英財団,,その他の設立登記法人,東京都,北区,中里３丁目２２番３－２０１号,,13,117,1140015,,,2025-01-20,登記官による閉鎖,,,2015-10-05,1,,,,,,0
627,3012701013730,登記記録の閉鎖等,0,2025-01-21,2025-01-07,株式会社鷹匠,,株式会社,東京都,東久留米市,神宝町２丁目１４番２３号,,13,222,2030002,,,2025-01-07,清算の結了等,,,2016-05-23,1,,,,,タカジョウ,0
660,3030002080209,登記記録の閉鎖等,0,2025-01-21,2025-01-17,有限会社ヒカル,,有限会社,埼玉県,川越市,大字上戸２９０番地３０（ユートピア矢島３０１号室）,,11,201,3500816,,,2025-01-17,合併による解散等,7011001070396,令和７年１月１日東京都豊島区南池袋３－１３－５ＫＪ南池袋ビル５Ｆキャリアアカデミー株式会社（7011001070396）に合併し解散,2015-10-05,1,,,,,ヒカル,0
663,3030003024263,登記記録の閉鎖等,0,2025-01-21,2025-01-16,合同会社Ｍ＆Ｋ,,合同会社,埼玉県,川口市,朝日６丁目１６－２－４０６,,11,203,3320001,,,2025-01-16,清算の結了等,,,2024-05-09,1,,,,,エムアンドケー,0
666,3040001109494,登記記録の閉鎖等,0,2025-01-21,2024-12-27,株式会社カーアース,,株式会社,千葉県,市川市,曽谷１丁目８番１０号,,12,203,2720832,,,2024-12-27,清算の結了等,,,2019-06-07,1,,,,,カーアース,0
670,3040002066149,登記記録の閉鎖等,0,2025-01-21,2025-01-10,有限会社エスケービル,,有限会社,千葉県,木更津市,清見台２丁目１９番７号,,12,206,2920045,,,2025-01-10,清算の結了等,,,2015-10-05,1,,,,,エスケービル,0
679,3050002031944,登記記録の閉鎖等,0,2025-01-21,2025-01-14,有限会社エスティデンタル,,有限会社,茨城県,日立市,十王町友部東１丁目６番地１,,08,202,3191303,,,2025-01-14,清算の結了等,,,2015-10-05,1,,,,,エスティデンタル,0
687,3080002017899,登記記録の閉鎖等,0,2025-01-21,2025-01-14,有限会社ピュアクリーン,,有限会社,静岡県,藤枝市,花倉７９９番地の１,,22,214,4260205,,,2025-01-14,清算の結了等,,,2015-10-05,1,,,,,,0
688,3080005006833,登記記録の閉鎖等,0,2025-01-21,2025-01-16,一般社団法人向日葵,,その他の設立登記法人,静岡県,藤枝市,下藪田６９番地の１,,22,214,4260201,,,2025-01-16,清算の結了等,,,2015-12-11,1,,,,,ヒマワリ,0
690,3090001000640,登記記録の閉鎖等,0,2025-01-21,2025-01-08,甲府グリーンパーク株式会社,,株式会社,山梨県,甲府市,増坪町８９３番地,,19,201,4000832,,,2025-01-08,登記官による閉鎖,,,2015-10-05,1,,,,,,0
691,3090001001135,登記記録の閉鎖等,0,2025-01-21,2025-01-08,首都圏管財株式会社,,株式会社,山梨県,甲府市,緑が丘１丁目４番１６号,,19,201,4000008,,,2025-01-08,登記官による閉鎖,,,2015-10-05,1,,,,,,0
692,3090001002728,登記記録の閉鎖等,0,2025-01-21,2025-01-08,株式会社ミダイ開発,,株式会社,山梨県,甲斐市,竜王１３９９番地２,,19,210,4000118,,,2025-01-08,登記官による閉鎖,,,2015-10-05,1,,,,,,0
693,3090001011126,登記記録の閉鎖等,0,2025-01-21,2025-01-08,株式会社田中建設,,株式会社,山梨県,北杜市,白州町上教来石６１０番地,,19,209,4080318,,,2025-01-08,登記官による閉鎖,,,2015-10-05,1,,,,,,0
695,3090001013642,登記記録の閉鎖等,0,2025-01-21,2025-01-08,ＵＳパートナー株式会社,,株式会社,山梨県,都留市,川棚６５８番地３,,19,204,4020055,,,2025-01-08,登記官による閉鎖,,,2015-10-05,1,,,,,,0
697,3090002001019,登記記録の閉鎖等,0,2025-01-21,2025-01-08,有限会社甲府デコラ,,有限会社,山梨県,甲府市,伊勢４丁目２２番１５号,,19,201,4000856,,,2025-01-08,登記官による閉鎖,,,2015-10-05,1,,,,,,0
698,3090002002215,登記記録の閉鎖等,0,2025-01-21,2025-01-08,有限会社ナガオカ,,有限会社,山梨県,甲府市,宝２丁目１９番３号,,19,201,4000034,,,2025-01-08,登記官による閉鎖,,,2015-10-05,1,,,,,,0
700,3090003000647,登記記録の閉鎖等,0,2025-01-21,2025-01-08,ユニオン合同会社,,合同会社,山梨県,韮崎市,中島１丁目９番８号レジデンス中島１０５,,19,207,4070013,,,2025-01-08,登記官による閉鎖,,,2015-10-05,1,,,,,,0
701,3090005006056,登記記録の閉鎖等,0,2025-01-21,2025-01-08,一般社団法人地域政策経営プロジェクト,,その他の設立登記法人,山梨県,笛吹市,御坂町大野寺１７０８番地,,19,211,4060817,,,2025-01-08,登記官による閉鎖,,,2015-10-05,1,,,,,,0
708,3100005012928,登記記録の閉鎖等,0,2025-01-21,2025-01-08,特定非営利活動法人ランテラス,,その他の設立登記法人,長野県,大町市,平２５９８番地４,,20,212,3980001,,,2025-01-08,清算の結了等,,,2022-10-18,1,,,,,ランテラス,0
718,3120001191476,登記記録の閉鎖等,0,2025-01-21,2025-01-17,株式会社魚竹,,株式会社,大阪府,大阪市平野区,平野本町４丁目６番１号,,27,126,5470044,,,2025-01-17,清算の結了等,,,2015-10-05,1,,,,,ウオタケ,0
719,3120001219500,登記記録の閉鎖等,0,2025-01-21,2025-01-16,株式会社ＢＯＢＳ,,株式会社,大阪府,大阪市中央区,谷町６丁目１１番１１－３０１号,,27,128,5420012,,,2025-01-16,合併による解散等,4120001209863,令和６年１２月２５日大阪市中央区今橋一丁目１番３号ＩＭＡＢＡＳＨＩＧＡＴＥＰＬＡＣＥ９階株式会社Ｋａｉｈａｎ　Ｍｅｄｉｃａｌ（4120001209863）に合併し解散,2019-03-08,1,,,,,ボブス,0
755,3150002004080,登記記録の閉鎖等,0,2025-01-21,2025-01-17,ジェイケイユニオン有限会社,,有限会社,奈良県,生駒市,北新町２番６－９０３号,,29,209,6300245,,,2025-01-17,清算の結了等,,,2015-10-05,1,,,,,ジェイケイユニオン,0
759,3160002014293,登記記録の閉鎖等,0,2025-01-21,2025-01-06,有限会社竹一,,有限会社,滋賀県,野洲市,南櫻１７９３番地の６,,25,210,5202322,,,2025-01-06,清算の結了等,,,2015-10-05,1,,,,,タケイチ,0
761,3180001003394,登記記録の閉鎖等,0,2025-01-21,2025-01-09,株式会社イング,,株式会社,愛知県,名古屋市千種区,春岡１丁目２３番１１号,,23,101,4640848,,,2025-01-09,清算の結了等,,,2015-10-05,1,,,,,イング,0
763,3180001120735,登記記録の閉鎖等,0,2025-01-21,2025-01-17,株式会社ｃｕｒｒｅｎｔ,,株式会社,東京都,渋谷区,恵比寿西１丁目１４番４号,,13,113,1500021,,,2025-01-17,合併による解散等,1180001060792,令和６年１２月１日名古屋市瑞穂区彌富町字円山４８番地２株式会社ＷＩＳＴＥＲＩＡ　ＰＬＵＳ（1180001060792）に合併し解散,2015-10-27,1,,,,,カレント,0
776,3180302002954,登記記録の閉鎖等,0,2025-01-21,2025-01-16,有限会社三島住宅,,有限会社,愛知県,岡崎市,上六名２丁目５番地１５,,23,202,4440858,,,2025-01-16,清算の結了等,,,2015-10-05,1,,,,,ミシマジュウタク,0
793,3290001073996,登記記録の閉鎖等,0,2025-01-21,2024-12-25,株式会社プラスワン,,株式会社,福岡県,福岡市中央区,今川１丁目２５番２６号,,40,133,8100054,,,2024-12-25,清算の結了等,,,2016-05-19,1,,,,,プラスワン,0
799,3310001002432,登記記録の閉鎖等,0,2025-01-21,2025-01-15,株式会社ＤＥＮＫＥＮ,,株式会社,長崎県,長崎市,北陽町９３４番地６,,42,201,8528064,,,2025-01-15,合併による解散等,3290001024396,令和７年１月１日福岡市南区玉川町７番８号株式会社ＤＥＮＫＥＮ（3290001024396）に合併し解散,2015-10-05,1,,,,,デンケン,0
802,3310002012414,登記記録の閉鎖等,0,2025-01-21,2025-01-15,有限会社高茂電業,00096036,有限会社,長崎県,東彼杵郡波佐見町,金屋郷２０３番地,,42,323,8593714,,,2025-01-15,清算の結了等,,,2015-10-05,1,,,,,タカシゲデンギョウ,0
805,3330002013294,登記記録の閉鎖等,0,2025-01-21,2025-01-14,有限会社セコンド,,有限会社,熊本県,熊本市中央区,東子飼町８番５２－１４０５号,,43,101,8600854,,,2025-01-14,清算の結了等,,,2015-10-05,1,,,,,セコンド,0
819,3390002002077,登記記録の閉鎖等,0,2025-01-21,2025-01-15,有限会社ニツコウ開発,,有限会社,山形県,山形市,薬師町１丁目１５番５号,,06,201,9900053,,,2025-01-15,清算の結了等,,,2015-10-05,1,,,,,ニツコウカイハツ,0
822,3420001011190,登記記録の閉鎖等,0,2025-01-21,2025-01-16,株式会社東日本ツーリスト,,株式会社,青森県,十和田市,穂並町１番５６号,,02,206,0340037,,,2025-01-16,清算の結了等,,,2015-10-05,1,,,,,ヒガシニホンツーリスト,0
830,3470001010989,登記記録の閉鎖等,0,2025-01-21,2025-01-17,株式会社田村商店,,株式会社,香川県,さぬき市,昭和２６２３番地,,37,206,7692304,,,2025-01-17,登記官による閉鎖,,,2015-10-05,1,,,,,,0
832,3470002003587,登記記録の閉鎖等,0,2025-01-21,2025-01-17,有限会社柴野商店,,有限会社,香川県,高松市,錦町２丁目９番３５号,,37,201,7600020,,,2025-01-17,登記官による閉鎖,,,2015-10-05,1,,,,,,0
833,3470002006292,登記記録の閉鎖等,0,2025-01-21,2025-01-17,有限会社真砂箸店,00005334,有限会社,香川県,高松市,福岡町３丁目３２番１２号,,37,201,7600066,,,2025-01-17,登記官による閉鎖,,,2015-10-05,1,,,,,,0
834,3470002008990,登記記録の閉鎖等,0,2025-01-21,2025-01-17,有限会社林工務店,,有限会社,香川県,高松市,一宮町６５８番地の４,,37,201,7618084,,,2025-01-17,登記官による閉鎖,,,2015-10-05,1,,,,,,0
835,3470002012778,登記記録の閉鎖等,0,2025-01-21,2025-01-17,有限会社入江電気商会,,有限会社,香川県,善通寺市,善通寺町２丁目４番２２号,,37,204,7650003,,,2025-01-17,登記官による閉鎖,,,2015-10-05,1,,,,,,0
838,3490002005020,登記記録の閉鎖等,0,2025-01-21,2025-01-17,有限会社みどりや服飾,,有限会社,高知県,高知市,帯屋町２丁目１番３７号,,39,201,7800841,,,2025-01-17,清算の結了等,,,2015-10-05,1,,,,,ミドリヤフクショク,0
844,4010001140666,登記記録の閉鎖等,0,2025-01-21,2024-12-27,アール・ビー・エス株式会社,,株式会社,東京都,中央区,勝どき５丁目１２番４－４０２号,,13,102,1040054,,,2024-12-27,清算の結了等,,,2015-10-05,1,,,,,アールビーエス,0
854,4010003032622,登記記録の閉鎖等,0,2025-01-21,2025-01-06,ワタシル合同会社,,合同会社,東京都,中央区,銀座７丁目１３番６号サガミビル２階,,13,102,1040061,,,2025-01-06,清算の結了等,,,2020-07-20,1,,,,,ワタシル,0
891,4011501000384,登記記録の閉鎖等,0,2025-01-21,2025-01-20,株式会社石原製作所,,株式会社,東京都,北区,王子３丁目５番２３号,,13,117,1140002,,,2025-01-20,登記官による閉鎖,,,2015-10-05,1,,,,,,0
892,4011501001069,登記記録の閉鎖等,0,2025-01-21,2025-01-20,川下工業株式会社,,株式会社,東京都,北区,志茂３丁目３番１６号,,13,117,1150042,,,2025-01-20,登記官による閉鎖,,,2015-10-05,1,,,,,,0
893,4011501006852,登記記録の閉鎖等,0,2025-01-21,2025-01-20,株式会社システムエンジニアリング,,株式会社,東京都,荒川区,東日暮里４丁目１０番２号,,13,118,1160014,,,2025-01-20,登記官による閉鎖,,,2015-10-05,1,,,,,,0
894,4011501009145,登記記録の閉鎖等,0,2025-01-21,2025-01-20,山根建設株式会社,,株式会社,東京都,荒川区,西日暮里６丁目６６番１号,,13,118,1160013,,,2025-01-20,登記官による閉鎖,,,2015-10-05,1,,,,,,0
895,4011501018237,登記記録の閉鎖等,0,2025-01-21,2025-01-20,株式会社フォーエバー,,株式会社,東京都,北区,上十条１丁目８番１０号文化ハイツ１０６号,,13,117,1140034,,,2025-01-20,登記官による閉鎖,,,2015-10-05,1,,,,,,0
897,4011502002611,登記記録の閉鎖等,0,2025-01-21,2025-01-20,有限会社サンボード,,有限会社,東京都,北区,豊島８丁目２７番２－５０６号,,13,117,1140003,,,2025-01-20,登記官による閉鎖,,,2015-10-05,1,,,,,,0
898,4011502009557,登記記録の閉鎖等,0,2025-01-21,2025-01-20,有限会社竹内食品産業,,有限会社,東京都,荒川区,東尾久３丁目１８番９号,,13,118,1160012,,,2025-01-20,登記官による閉鎖,,,2015-10-05,1,,,,,,0
900,4011503001777,登記記録の閉鎖等,0,2025-01-21,2025-01-20,合資会社イペレス,,合資会社,東京都,荒川区,西日暮里２丁目３２番１０号,,13,118,1160013,,,2025-01-20,登記官による閉鎖,,,2015-10-05,1,,,,,,0
901,4011503002024,登記記録の閉鎖等,0,2025-01-21,2025-01-20,合同会社ワイエスディトレード,,合同会社,東京都,荒川区,東日暮里３丁目９番４号,,13,118,1160014,,,2025-01-20,登記官による閉鎖,,,2019-03-08,1,,,,,ワイエスディトレード,0
902,4011602020686,登記記録の閉鎖等,0,2025-01-21,2025-01-07,有限会社カズカンパニー,,有限会社,東京都,練馬区,羽沢２丁目１７番１－５０１号,,13,120,1760003,,,2025-01-07,清算の結了等,,,2015-10-05,1,,,,,カズカンパニー,0
910,4012805002546,登記記録の閉鎖等,0,2025-01-21,2025-01-07,一般社団法人Ａ．ｆｕｔｕｒｅ　ｃｒｅａｔｉｏｎ,,その他の設立登記法人,東京都,東大和市,南街３丁目５１番地の２,,13,220,2070014,,,2025-01-07,清算の結了等,,,2016-02-18,1,,,,,エイフューチャークリエイション,0
911,4013102003650,登記記録の閉鎖等,0,2025-01-21,2025-01-17,有限会社国際交流センター,,有限会社,東京都,羽村市,小作台５丁目２６番地１６,,13,227,2050001,,,2025-01-17,清算の結了等,,,2015-10-05,1,,,,,コクサイコウリュウセンター,0
922,4020002076710,登記記録の閉鎖等,0,2025-01-21,2025-01-06,有限会社ＴＭＫ,,有限会社,神奈川県,横浜市旭区,今宿１丁目６３番１６号,,14,112,2410817,,,2025-01-06,清算の結了等,,,2015-10-05,1,,,,,ティエムケイ,0
926,4021001059326,登記記録の閉鎖等,0,2025-01-21,2025-01-20,株式会社未来堂,,株式会社,神奈川県,逗子市,小坪２丁目９番２４号,,14,208,2490008,,,2025-01-20,清算の結了等,,,2016-05-23,1,,,,,,0
935,4030003005312,登記記録の閉鎖等,0,2025-01-21,2025-01-20,合同会社ネクスト,,合同会社,東京都,北区,滝野川６丁目６１番１６号,,13,117,1140023,,,2025-01-20,登記官による閉鎖,,,2015-10-05,1,,,,,,0
940,4040001040418,登記記録の閉鎖等,0,2025-01-21,2025-01-14,株式会社ＰＳＧ,,株式会社,千葉県,松戸市,新松戸３丁目２４９番地１０,,12,207,2700034,,,2025-01-14,清算の結了等,,,2015-10-05,1,,,,,ピーエスジー,0
941,4040001099181,登記記録の閉鎖等,0,2025-01-21,2025-01-14,株式会社ジュピターカンパニー,,株式会社,千葉県,千葉市稲毛区,長沼原町３４２番地３,,12,103,2630001,,,2025-01-14,合併による解散等,6030001098884,令和７年１月１日埼玉県川口市大字安行領根岸２１２番６号ディア・ダイヤモンド株式会社（6030001098884）に合併し解散,2017-03-08,1,,,,,ジュピターカンパニー,0
958,4080001025084,登記記録の閉鎖等,0,2025-01-21,2025-01-06,株式会社キャンポート,,株式会社,静岡県,静岡市駿河区,中島８３３－４,,22,102,4228046,,,2025-01-06,清算の結了等,,,2022-07-13,1,,,,,キャンポート,0
961,4090001010036,登記記録の閉鎖等,0,2025-01-21,2025-01-08,株式会社富士吉田織物準備センター,,株式会社,山梨県,富士吉田市,下吉田７２５４番地,,19,202,4030004,,,2025-01-08,登記官による閉鎖,,,2015-10-05,1,,,,,,0
962,4090001012016,登記記録の閉鎖等,0,2025-01-21,2025-01-08,株式会社角倉,00068792,株式会社,山梨県,南巨摩郡富士川町,青柳町６２２番地,,19,368,4000501,,,2025-01-08,登記官による閉鎖,,,2015-10-05,1,,,,,,0
966,4090002002222,登記記録の閉鎖等,0,2025-01-21,2025-01-08,有限会社中製作所,,有限会社,山梨県,甲府市,湯田１丁目１１番４号,,19,201,4000864,,,2025-01-08,登記官による閉鎖,,,2015-10-05,1,,,,,,0
967,4090002005514,登記記録の閉鎖等,0,2025-01-21,2025-01-08,有限会社トム,,有限会社,山梨県,甲府市,伊勢２丁目１１番１８号,,19,201,4000856,,,2025-01-08,登記官による閉鎖,,,2015-10-05,1,,,,,,0
968,4090002009754,登記記録の閉鎖等,0,2025-01-21,2025-01-08,有限会社富士美プリーツ,,有限会社,山梨県,上野原市,上野原１９３８番地の９,,19,212,4090112,,,2025-01-08,登記官による閉鎖,,,2015-10-05,1,,,,,,0
969,4090002013780,登記記録の閉鎖等,0,2025-01-21,2025-01-08,有限会社ナトリ食品,,有限会社,山梨県,北杜市,白州町大武川２８９番地,,19,209,4080319,,,2025-01-08,登記官による閉鎖,,,2015-10-05,1,,,,,,0
970,4090002015133,登記記録の閉鎖等,0,2025-01-21,2025-01-08,有限会社山梨義塾,,有限会社,山梨県,西八代郡市川三郷町,市川大門７２番地１,,19,346,4093601,,,2025-01-08,登記官による閉鎖,,,2015-10-05,1,,,,,,0
971,4090002015414,登記記録の閉鎖等,0,2025-01-21,2025-01-08,有限会社丸喜,,有限会社,山梨県,南巨摩郡南部町,万沢３４７７番地の１３,,19,366,4092103,,,2025-01-08,登記官による閉鎖,,,2015-10-05,1,,,,,,0
980,4120001211191,登記記録の閉鎖等,0,2025-01-21,2025-01-10,株式会社ＴＡＬＡＲＩＡ,,株式会社,大阪府,寝屋川市,香里北之町２番６号ＴＥＬＥ＋１１３号室,,27,215,5720080,,,2025-01-10,清算の結了等,,,2018-02-06,1,,,,,タラリア,0
1027,4180001134321,登記記録の閉鎖等,0,2025-01-21,2025-01-09,株式会社クランプ,,株式会社,愛知県,春日井市,神屋町１４２３番地９２,,23,206,4800304,,,2025-01-09,清算の結了等,,,2018-11-06,1,,,,,クランプ,0
1046,4200001018562,登記記録の閉鎖等,0,2025-01-21,2025-01-17,株式会社ライトワーク,,株式会社,岐阜県,美濃加茂市,森山町３丁目１番２５号,,21,211,5050021,,,2025-01-17,清算の結了等,,,2015-10-05,1,,,,,ライトワーク,0
1048,4200002021573,登記記録の閉鎖等,0,2025-01-21,2025-01-17,有限会社豊成建設,,有限会社,岐阜県,土岐市,鶴里町細野１３６２番地の８,,21,212,5095311,,,2025-01-17,清算の結了等,,,2015-10-05,1,,,,,ホウセイケンセツ,0
1050,4210001013257,登記記録の閉鎖等,0,2025-01-21,2025-01-06,株式会社ホプニック研究所,,株式会社,福井県,鯖江市,下野田町２７字４６番地,,18,207,9160073,,,2025-01-06,合併による解散等,5210001019575,令和７年１月１日福井県鯖江市下野田町２７字４６番地株式会社ＨＰホールディングス（5210001019575）に合併し解散,2015-10-05,1,,,,,ホプニックケンキュウショ,0
1070,4310002002100,登記記録の閉鎖等,0,2025-01-21,2025-01-16,有限会社貞松建設,,有限会社,長崎県,長崎市,三京町８１５番地１１９,,42,201,8512206,,,2025-01-16,清算の結了等,,,2015-10-05,1,,,,,サダマツケンセツ,0
1078,4340002008714,登記記録の閉鎖等,0,2025-01-21,2025-01-15,有限会社ホワイト理容センター,,有限会社,鹿児島県,鹿児島市,新屋敷町１６番１２０－Ａ号,,46,201,8920838,,,2025-01-15,清算の結了等,,,2015-10-05,1,,,,,ホワイトリヨウセンター,0
1090,4400001007792,登記記録の閉鎖等,0,2025-01-21,2025-01-08,松田電気株式会社,,株式会社,岩手県,二戸市,金田一字馬場４４番地１,,03,213,0285711,,,2025-01-08,清算の結了等,,,2015-10-05,1,,,,,マツダデンキ,0
1100,4470001008958,登記記録の閉鎖等,0,2025-01-21,2025-01-17,坂出タクシー株式会社,,株式会社,香川県,坂出市,川津町３５０３番地２,,37,203,7620025,,,2025-01-17,登記官による閉鎖,,,2015-10-05,1,,,,,,0
1101,4470001009452,登記記録の閉鎖等,0,2025-01-21,2025-01-17,株式会社クラフト叶,,株式会社,香川県,丸亀市,綾歌町富熊２１７６番地８,,37,202,7612407,,,2025-01-17,登記官による閉鎖,,,2015-10-05,1,,,,,,0
1102,4470001009626,登記記録の閉鎖等,0,2025-01-21,2025-01-17,株式会社センタービレッジ,,株式会社,香川県,仲多度郡多度津町,大字葛原１２８４番地７,,37,404,7640028,,,2025-01-17,登記官による閉鎖,,,2015-10-05,1,,,,,,0
1103,4470001013644,登記記録の閉鎖等,0,2025-01-21,2025-01-17,株式会社コニシ保険サービス,,株式会社,香川県,高松市,庵治町１０９３番地,,37,201,7610130,,,2025-01-17,登記官による閉鎖,,,2015-10-05,1,,,,,,0
1104,4470002001318,登記記録の閉鎖等,0,2025-01-21,2025-01-17,有限会社エクステリア森工業,,有限会社,香川県,高松市,新田町甲４７０番地９,,37,201,7610102,,,2025-01-17,登記官による閉鎖,,,2015-10-05,1,,,,,,0
1105,4470002008981,登記記録の閉鎖等,0,2025-01-21,2025-01-17,有限会社住まいのデザインただ,,有限会社,香川県,高松市,木太町２０６７番地,,37,201,7600080,,,2025-01-17,登記官による閉鎖,,,2015-10-05,1,,,,,,0
1106,4470002018519,登記記録の閉鎖等,0,2025-01-21,2025-01-17,有限会社茶の友本舗,,有限会社,香川県,東かがわ市,引田２４４９番地の８,,37,207,7692901,,,2025-01-17,登記官による閉鎖,,,2015-10-05,1,,,,,,0
1107,4470003000500,登記記録の閉鎖等,0,2025-01-21,2025-01-17,合資会社伴時計店,,合資会社,香川県,小豆郡土庄町,甲３３５番地の１,,37,322,7614101,,,2025-01-17,登記官による閉鎖,,,2015-10-05,1,,,,,,0
1108,4470005005043,登記記録の閉鎖等,0,2025-01-21,2025-01-17,農事組合法人てしまむら,,その他の設立登記法人,香川県,小豆郡土庄町,豊島家浦６４３番地,,37,322,7614661,,,2025-01-17,登記官による閉鎖,,,2015-10-05,1,,,,,,0
1133,5010501023196,登記記録の閉鎖等,0,2025-01-21,2025-01-06,株式会社河原商店,,株式会社,東京都,台東区,花川戸１丁目１１番１号,,13,106,1110033,,,2025-01-06,合併による解散等,2010501013357,令和７年１月１日東京都台東区浅草六丁目４番１２号丸喜株式会社（2010501013357）に合併し解散,2015-10-05,1,,,,,カワハラショウテン,0
1138,5010701012172,登記記録の閉鎖等,0,2025-01-21,2025-01-06,株式会社サンシー,,株式会社,東京都,品川区,西大井２丁目１７番１８号,,13,109,1400015,,,2025-01-06,清算の結了等,,,2015-10-05,1,,,,,サンシー,0
1143,5010802012014,登記記録の閉鎖等,0,2025-01-21,2025-01-17,有限会社ヒデメディカル,,有限会社,東京都,大田区,大森中２丁目２０番４号,,13,111,1430014,,,2025-01-17,合併による解散等,2430001002710,令和７年１月１日札幌市北区北八条西三丁目２８番株式会社メディプラン（2430001002710）に合併し解散,2015-10-05,1,,,,,ヒデメディカル,0
1153,5011001118544,登記記録の閉鎖等,0,2025-01-21,2024-12-17,株式会社ＤＥＭＡＩＮ,,株式会社,東京都,渋谷区,広尾４丁目１番２８－５０１号,,13,113,1500012,,,2024-12-17,清算の結了等,,,2017-09-29,1,,,,,ドゥマン,0
1155,5011001150844,登記記録の閉鎖等,0,2025-01-21,2024-12-17,株式会社ＨＡＫＵＢＩ,,株式会社,東京都,渋谷区,神宮前６丁目２３番４号桑野ビル２階,,13,113,1500001,,,2024-12-17,清算の結了等,,,2022-11-15,1,,,,,ハクビ,0
1159,5011003004354,登記記録の閉鎖等,0,2025-01-21,2024-12-16,合同会社アルジュナ,,合同会社,東京都,目黒区,自由が丘１丁目１９番８号,,13,110,1520035,,,2024-12-16,清算の結了等,,,2015-10-05,1,,,,,アルジュナ,0
1167,5011501005309,登記記録の閉鎖等,0,2025-01-21,2025-01-20,株式会社アドニス,,株式会社,東京都,荒川区,西日暮里５丁目１４番９号,,13,118,1160013,,,2025-01-20,登記官による閉鎖,,,2015-10-05,1,,,,,アドニス,0
1168,5011501011711,登記記録の閉鎖等,0,2025-01-21,2025-01-20,株式会社ＮＯＫＳＳ,,株式会社,東京都,荒川区,西日暮里１丁目４６番１１号コンフォート西日暮里２Ｆ,,13,118,1160013,,,2025-01-20,登記官による閉鎖,,,2015-10-05,1,,,,,ノックス,0
1169,5011501016041,登記記録の閉鎖等,0,2025-01-21,2025-01-20,株式会社ムーンボー,,株式会社,東京都,荒川区,荒川１丁目３７番１号,,13,118,1160002,,,2025-01-20,登記官による閉鎖,,,2015-10-05,1,,,,,,0
1170,5011501017956,登記記録の閉鎖等,0,2025-01-21,2025-01-20,株式会社フロンティア,,株式会社,東京都,荒川区,東日暮里４丁目２０番１号コスモガーデン日暮里６０２,,13,118,1160014,,,2025-01-20,登記官による閉鎖,,,2015-10-05,1,,,,,,0
1171,5011502003716,登記記録の閉鎖等,0,2025-01-21,2025-01-20,有限会社寳田企画,,有限会社,東京都,北区,豊島３丁目２番５号,,13,117,1140003,,,2025-01-20,登記官による閉鎖,,,2015-10-05,1,,,,,,0
1172,5011502013558,登記記録の閉鎖等,0,2025-01-21,2025-01-20,有限会社新井タイル工業所,,有限会社,東京都,北区,西ケ原１丁目４６番１８－４０２号,,13,117,1140024,,,2025-01-20,登記官による閉鎖,,,2015-10-05,1,,,,,,0
1174,5011502016222,登記記録の閉鎖等,0,2025-01-21,2025-01-20,有限会社信和商会,,有限会社,東京都,北区,赤羽２丁目２４番１号,,13,117,1150045,,,2025-01-20,登記官による閉鎖,,,2015-10-05,1,,,,,シンワショウカイ,0
1179,5012301007809,登記記録の閉鎖等,0,2025-01-21,2025-01-15,株式会社アスク,,株式会社,東京都,町田市,金井８丁目１９番２０号,,13,209,1950072,,,2025-01-15,清算の結了等,,,2015-10-05,1,,,,,アスク,0
1186,5020001084382,登記記録の閉鎖等,0,2025-01-21,2025-01-20,株式会社アポロクリエイト,,株式会社,東京都,江東区,有明３丁目５番７号,,13,108,1350063,,,2025-01-20,清算の結了等,,,2015-10-05,1,,,,,アポロクリエイト,0
1197,5021001078127,登記記録の閉鎖等,0,2025-01-21,2025-01-17,株式会社トイセル,,株式会社,神奈川県,横須賀市,夏島町２番地１５,,14,201,2370061,,,2025-01-17,清算の結了等,,,2023-02-02,1,,,,,トイセル,0
1201,5021003012769,登記記録の閉鎖等,0,2025-01-21,2025-01-20,合同会社ＫＥＳ,,合同会社,神奈川県,茅ヶ崎市,新栄町７－５ＣＨＩＧＡＳＡＫＩＢｉｚ－Ｎａｚ３階－２５,,14,207,2530044,,,2025-01-20,清算の結了等,,,2023-02-17,1,,,,,,0
1219,5040001073821,登記記録の閉鎖等,0,2025-01-21,2025-01-06,靜和興業株式会社,,株式会社,東京都,中央区,銀座７丁目５番５号,,13,102,1040061,,,2025-01-06,清算の結了等,,,2015-10-05,1,,,,,セイワコウギョウ,0
1237,5090001002172,登記記録の閉鎖等,0,2025-01-21,2025-01-08,株式会社望月商店,,株式会社,山梨県,甲府市,宝２丁目２７番３号,,19,201,4000034,,,2025-01-08,登記官による閉鎖,,,2015-10-05,1,,,,,,0
1238,5090001004929,登記記録の閉鎖等,0,2025-01-21,2025-01-08,株式会社清水,,株式会社,山梨県,南アルプス市,六科１４３９番地,,19,208,4000206,,,2025-01-08,登記官による閉鎖,,,2015-10-05,1,,,,,,0
1240,5090001011347,登記記録の閉鎖等,0,2025-01-21,2025-01-08,株式会社フアーネスエンジニアリング,,株式会社,山梨県,北杜市,小淵沢町７７８２番地２,,19,209,4080044,,,2025-01-08,登記官による閉鎖,,,2015-10-05,1,,,,,,0
1241,5090001012601,登記記録の閉鎖等,0,2025-01-21,2025-01-08,株式会社セイワ,,株式会社,山梨県,山梨市,大野２５８番地,,19,205,4050016,,,2025-01-08,登記官による閉鎖,,,2015-10-05,1,,,,,セイワ,0
1242,5090001013491,登記記録の閉鎖等,0,2025-01-21,2025-01-08,株式会社シャカール出版,,株式会社,山梨県,甲斐市,玉川５２７番地３,,19,210,4000116,,,2025-01-08,登記官による閉鎖,,,2015-10-05,1,,,,,,0
1243,5090002002675,登記記録の閉鎖等,0,2025-01-21,2025-01-08,有限会社藤こし,,有限会社,山梨県,甲府市,湯田２丁目１９番７号,,19,201,4000864,,,2025-01-08,登記官による閉鎖,,,2015-10-05,1,,,,,,0
1244,5090002008862,登記記録の閉鎖等,0,2025-01-21,2025-01-08,有限会社アキシマ,,有限会社,山梨県,笛吹市,境川町寺尾３４４２番地の１,,19,211,4060854,,,2025-01-08,登記官による閉鎖,,,2015-10-05,1,,,,,,0
1245,5090002009670,登記記録の閉鎖等,0,2025-01-21,2025-01-08,有限会社志村製作所,,有限会社,山梨県,上野原市,鶴川２４番地,,19,212,4090132,,,2025-01-08,登記官による閉鎖,,,2015-10-05,1,,,,,,0
1246,5090002015025,登記記録の閉鎖等,0,2025-01-21,2025-01-08,有限会社美豊園,,有限会社,山梨県,南巨摩郡富士川町,青柳町６４６番地の１,,19,368,4000501,,,2025-01-08,登記官による閉鎖,,,2015-10-05,1,,,,,,0
1247,5090003000439,登記記録の閉鎖等,0,2025-01-21,2025-01-08,合同会社支那そば成屋,,合同会社,山梨県,大月市,大月町花咲６４番地３,,19,206,4010015,,,2025-01-08,登記官による閉鎖,,,2015-10-05,1,,,,,,0
1252,5100002021772,登記記録の閉鎖等,0,2025-01-21,2025-01-14,有限会社みはらや,,有限会社,長野県,松本市,清水２丁目６番３０号,,20,202,3900805,,,2025-01-14,清算の結了等,,,2015-10-05,1,,,,,ミハラヤ,0
1253,5110001026581,登記記録の閉鎖等,0,2025-01-21,2025-01-16,株式会社大和工務店,,株式会社,新潟県,南魚沼市,浦佐２７７番地１,,15,226,9497302,,,2025-01-16,清算の結了等,,,2015-10-05,1,,,,,ヤマトコウムテン,0
1259,5120001092375,登記記録の閉鎖等,0,2025-01-21,2025-01-17,ログイン株式会社,,株式会社,大阪府,大阪市中央区,本町４丁目６番２０号,,27,128,5410053,,,2025-01-17,合併による解散等,7011101011259,令和７年１月１日東京都新宿区西新宿六丁目５番１号株式会社ゼネテック（7011101011259）に合併し解散,2015-10-05,1,,,,,ログイン,0
1260,5120001093101,登記記録の閉鎖等,0,2025-01-21,2025-01-14,日本コミュニティー株式会社,,株式会社,大阪府,大阪市西区,江戸堀１丁目８番２２号,,27,106,5500002,,,2025-01-14,合併による解散等,8012301000810,令和７年１月１日東京都港区東新橋二丁目１４番１号株式会社ワールドライフパートナー（8012301000810）に合併し解散,2015-10-05,1,,,,,ニッポンコミュニティー,0
1282,5122001003403,登記記録の閉鎖等,0,2025-01-21,2025-01-14,柴田運輸株式会社,,株式会社,大阪府,門真市,桑才新町３０番５号,,27,223,5710043,,,2025-01-14,清算の結了等,,,2015-10-05,1,,,,,シバタウンユ,0
1304,5180001068782,登記記録の閉鎖等,0,2025-01-21,2025-01-08,株式会社プラスシステム,,株式会社,愛知県,名古屋市熱田区,波寄町２２番１２号サニーストン金山８０３,,23,109,4560003,,,2025-01-08,清算の結了等,,,2015-10-05,1,,,,,プラスシステム,0
1305,5180001101725,登記記録の閉鎖等,0,2025-01-21,2025-01-08,株式会社谷口装飾,,株式会社,愛知県,名古屋市南区,観音町８丁目５６番地,,23,112,4570845,,,2025-01-08,清算の結了等,,,2015-10-05,1,,,,,タニグチソウショク,0
1317,5190005001202,登記記録の閉鎖等,0,2025-01-21,2025-01-17,三重県農業機械商業協同組合,,その他の設立登記法人,三重県,津市,垂水４９９番地,,24,201,5140821,,,2025-01-17,清算の結了等,,,2015-10-05,1,,,,,ミエケンノウギョウキカイショウギョウ,0
1318,5200001018479,登記記録の閉鎖等,0,2025-01-21,2025-01-17,株式会社ライトスタッフ,,株式会社,岐阜県,美濃加茂市,森山町３丁目１番２５号,,21,211,5050021,,,2025-01-17,清算の結了等,,,2015-10-05,1,,,,,ライトスタッフ,0
1324,5210002010351,登記記録の閉鎖等,0,2025-01-21,2025-01-16,有限会社寿盛,,有限会社,福井県,敦賀市,櫛林１７号１０番地,00077897,18,202,9140138,,,2025-01-16,清算の結了等,,,2015-10-05,1,,,,,ジュセイ,0
1325,5240001025744,登記記録の閉鎖等,0,2025-01-21,2025-01-20,株式会社呉水道工業所,,株式会社,広島県,呉市,両城２丁目１２番７号,,34,202,7370826,,,2025-01-20,清算の結了等,,,2015-10-05,1,,,,,クレスイドウコウギョウショ,0
1326,5240001050932,登記記録の閉鎖等,0,2025-01-21,2025-01-20,株式会社Ｌｉｅｎ　Ｇｒｏｕｐ,,株式会社,広島県,広島市中区,流川町８番６号,,34,101,7300028,,,2025-01-20,清算の結了等,,,2017-04-17,1,,,,,リアングループ,0
1330,5240002035651,登記記録の閉鎖等,0,2025-01-21,2025-01-17,有限会社坂本組,,有限会社,広島県,広島市南区,皆実町５丁目３番１５号,,34,103,7340007,,,2025-01-17,清算の結了等,,,2015-10-05,1,,,,,サカモトグミ,0
1338,5270003001451,登記記録の閉鎖等,0,2025-01-21,2024-12-09,合同会社ボイジャープロパティマネジメント,,合同会社,鳥取県,倉吉市,幸町５２３－１,,31,203,6820807,,,2024-12-09,清算の結了等,,,2022-10-26,1,,,,,ボイジャープロパティマネジメント,0
1343,5290005016561,登記記録の閉鎖等,0,2025-01-21,2025-01-07,一般社団法人九州スマートエネルギー協会,,その他の設立登記法人,福岡県,福岡市博多区,東比恵３丁目３２番１５号,,40,132,8120007,,,2025-01-07,清算の結了等,,,2017-09-13,1,,,,,キュウシュウスマートエネルギーキョウカイ,0
1356,5360001008134,登記記録の閉鎖等,0,2025-01-21,2025-01-16,株式会社ペットメディカルセンター・エイル,,株式会社,沖縄県,沖縄市,比屋根２丁目２番１号,,47,211,9042173,,,2025-01-16,合併による解散等,7010001199948,令和７年１月１日大阪市西区南堀江三丁目７番２２号株式会社ＷＯＬＶＥＳ　ＨＡＮＤ（7010001199948）に合併し解散,2015-10-05,1,,,,,ペットメディカルセンターエイル,0
1366,5400002003443,登記記録の閉鎖等,0,2025-01-21,2025-01-08,有限会社森商店,,有限会社,岩手県,盛岡市,南大通２丁目８番１１号,,03,201,0200874,,,2025-01-08,清算の結了等,,,2015-10-05,1,,,,,モリショウテン,0
1367,5410001009498,登記記録の閉鎖等,0,2025-01-21,2025-01-16,株式会社潟工房,,株式会社,秋田県,南秋田郡大潟村,字西５丁目１６番地２,,05,368,0100445,,,2025-01-16,清算の結了等,,,2015-10-05,1,,,,,カタコウボウ,0
1385,5430002027415,登記記録の閉鎖等,0,2025-01-21,2025-01-15,有限会社プレゴ・サッポロ,,有限会社,北海道,札幌市中央区,北一条西２丁目２番地,,01,101,0600001,,,2025-01-15,清算の結了等,,,2015-10-05,1,,,,,プレゴサッポロ,0
1387,5460002005302,登記記録の閉鎖等,0,2025-01-21,2025-01-17,株式会社はなしのぶ,,株式会社,北海道,釧路郡釧路町,別保９丁目２８番地,,01,661,0880604,,,2025-01-17,清算の結了等,,,2015-10-05,1,,,,,ハナシノブ,0
1388,5470001007843,登記記録の閉鎖等,0,2025-01-21,2025-01-17,株式会社旭材木店,,株式会社,香川県,仲多度郡多度津町,元町３番３０号,,37,404,7640003,,,2025-01-17,登記官による閉鎖,,,2015-10-05,1,,,,,,0
1389,5470001012546,登記記録の閉鎖等,0,2025-01-21,2025-01-17,あすなろ株式会社,,株式会社,香川県,三豊市,詫間町詫間２１１２番地５０,,37,208,7691101,,,2025-01-17,登記官による閉鎖,,,2015-10-05,1,,,,,,0
1390,5470001017504,登記記録の閉鎖等,0,2025-01-21,2025-01-17,香川観光開発株式会社,,株式会社,香川県,高松市,築地町９番地１,,37,201,7600061,,,2025-01-17,登記官による閉鎖,,,2019-06-25,1,,,,,カガワカンコウカイハツ,0
1392,5470002006605,登記記録の閉鎖等,0,2025-01-21,2025-01-17,有限会社マルワコーポレーション,,有限会社,香川県,高松市,花ノ宮町１丁目１２番１５号,,37,201,7618063,,,2025-01-17,登記官による閉鎖,,,2015-10-05,1,,,,,,0
1393,5470002019144,登記記録の閉鎖等,0,2025-01-21,2025-01-17,有限会社山脇水産,,有限会社,香川県,小豆郡土庄町,甲２２５番地１,,37,322,7614101,,,2025-01-17,登記官による閉鎖,,,2015-10-05,1,,,,,,0
1394,5470003000813,登記記録の閉鎖等,0,2025-01-21,2025-01-17,塩山合同会社,,合同会社,香川県,三豊市,仁尾町仁尾辛３９番地１１,,37,208,7691406,,,2025-01-17,登記官による閉鎖,,,2015-10-05,1,,,,,,0
1414,6010401007505,登記記録の閉鎖等,0,2025-01-21,2024-12-24,株式会社キアラ,,株式会社,東京都,港区,芝３丁目８番２号３４０６,,13,103,1050014,,,2024-12-24,清算の結了等,,,2015-10-05,1,,,,,キアラ,0
1425,6010403023640,登記記録の閉鎖等,0,2025-01-21,2024-12-20,Ｈｉｎｅｓ　Ｎａｇｏｙａ　Ｙａｔｏｍｉ　Ｌｏｇｉｓｔｉｃｓ合同会社,,合同会社,東京都,港区,六本木１丁目９番１０号アークヒルズ仙石山森タワー４０階,,13,103,1060032,,,2024-12-20,清算の結了等,,,2020-09-07,1,,,,,ハインツナゴヤヤトミロジスティクス,0
1426,6010403025232,登記記録の閉鎖等,0,2025-01-21,2024-12-25,ビーエムシー合同会社,,合同会社,東京都,港区,六本木７丁目１７番１０－４１８号,,13,103,1060032,,,2024-12-25,清算の結了等,,,2021-04-30,1,,,,,ビーエムシー,0
1431,6010601055007,登記記録の閉鎖等,0,2025-01-21,2025-01-20,トゥライズ東京株式会社,,株式会社,東京都,江東区,亀戸３丁目６１番１２号,,13,108,1360071,,,2025-01-20,清算の結了等,,,2019-02-06,1,,,,,トゥライズトウキョウ,0
1444,6011001116679,登記記録の閉鎖等,0,2025-01-21,2025-01-16,サイバープロセスマインド株式会社,,株式会社,愛知県,名古屋市中区,栄３丁目２番３号名古屋日興證券ビル４階,,23,106,4600008,,,2025-01-16,合併による解散等,7180301035729,令和７年１月１日愛知県岡崎市福岡町字下荒追２８番地グローカルビジネスソリューションズ株式会社（7180301035729）に合併し解散,2017-06-06,1,,,,,サイバープロセスマインド,0
1454,6011501004573,登記記録の閉鎖等,0,2025-01-21,2025-01-20,三嘉興業株式会社,,株式会社,東京都,北区,田端６丁目７番６号,,13,117,1140014,,,2025-01-20,登記官による閉鎖,,,2015-10-05,1,,,,,,0
1455,6011501004821,登記記録の閉鎖等,0,2025-01-21,2025-01-20,山本冨士服装株式会社,,株式会社,東京都,北区,西ケ原１丁目６０番１２号,,13,117,1140024,,,2025-01-20,登記官による閉鎖,,,2015-10-05,1,,,,,,0
1456,6011501019142,登記記録の閉鎖等,0,2025-01-21,2025-01-20,株式会社メウス,,株式会社,東京都,北区,滝野川１丁目６９番８号ダブルキュービック３０１号室,,13,117,1140023,,,2025-01-20,登記官による閉鎖,,,2015-10-05,1,,,,,,0
1458,6011502006585,登記記録の閉鎖等,0,2025-01-21,2025-01-20,有限会社ワタル,,有限会社,東京都,北区,志茂３丁目３番３号,,13,117,1150042,,,2025-01-20,登記官による閉鎖,,,2015-10-05,1,,,,,,0
1459,6011502014092,登記記録の閉鎖等,0,2025-01-21,2025-01-20,有限会社グローバルフレートサービス,,有限会社,東京都,北区,東十条３丁目１番３－５０１号瀬田ビル,,13,117,1140001,,,2025-01-20,登記官による閉鎖,,,2015-10-05,1,,,,,,0
1460,6011502016205,登記記録の閉鎖等,0,2025-01-21,2025-01-20,有限会社マリーナ,,有限会社,東京都,荒川区,南千住５丁目３３番１３号,,13,118,1160003,,,2025-01-20,登記官による閉鎖,,,2015-10-05,1,,,,,マリーナ,0
1461,6011503002311,登記記録の閉鎖等,0,2025-01-21,2025-01-20,合同会社癒しの樹,,合同会社,東京都,荒川区,西日暮里１丁目３番３－２０２号,,13,118,1160013,,,2025-01-20,登記官による閉鎖,,,2015-10-05,1,,,,,,0
1462,6011505001303,登記記録の閉鎖等,0,2025-01-21,2025-01-20,特定非営利活動法人東京地震防災センター,,その他の設立登記法人,東京都,北区,堀船３丁目２８番６号,,13,117,1140004,,,2025-01-20,登記官による閉鎖,,,2015-10-05,1,,,,,,0
1464,6011701005867,登記記録の閉鎖等,0,2025-01-21,2025-01-15,中川電器株式会社,,株式会社,東京都,江戸川区,西葛西１丁目１２番１５号,,13,123,1340088,,,2025-01-15,清算の結了等,,,2015-10-05,1,,,,,ナカガワデンキ,0
1469,6012402013746,登記記録の閉鎖等,0,2025-01-21,2025-01-17,有限会社ポケット,,有限会社,東京都,狛江市,中和泉２丁目１０番１号,,13,219,2010012,,,2025-01-17,清算の結了等,,,2015-10-05,1,,,,,ポケット,0
1474,6012702014188,登記記録の閉鎖等,0,2025-01-21,2025-01-08,有限会社経営問題研究會,,有限会社,東京都,小平市,美園町１丁目１７番５号,,13,211,1870041,,,2025-01-08,清算の結了等,,,2015-10-05,1,,,,,ケイエイモンダイケンキュウカイ,0
1477,6013201005174,登記記録の閉鎖等,0,2025-01-21,2024-12-13,プリンス商事株式会社,,株式会社,東京都,目黒区,中目黒１丁目３番５－５０３,,13,110,1530061,,,2024-12-13,清算の結了等,,,2015-10-05,1,,,,,プリンスショウジ,0
1482,6013305003108,登記記録の閉鎖等,0,2025-01-21,2025-01-14,一般社団法人生きづらさインクルーシブデザイン工房,,その他の設立登記法人,東京都,豊島区,北大塚１丁目３０番４号大橋方,,13,116,1700004,,,2025-01-14,清算の結了等,,,2020-07-21,1,,,,,イキヅラサインクルーシブデザインコウボウ,0
1483,6020001083937,登記記録の閉鎖等,0,2025-01-21,2025-01-06,すずかけ台ＰＦＩサービス株式会社,,株式会社,神奈川県,横浜市中区,吉田町６５番地,,14,104,2310041,,,2025-01-06,清算の結了等,,,2015-10-05,1,,,,,スズカケダイピーエフアイサービス,0
1514,6040002094312,登記記録の閉鎖等,0,2025-01-21,2025-01-14,有限会社産立工業,,有限会社,千葉県,我孫子市,中峠３０８０番地の２０,,12,222,2701121,,,2025-01-14,清算の結了等,,,2015-10-05,1,,,,,サンリツコウギョウ,0
1527,6080405006199,登記記録の閉鎖等,0,2025-01-21,2025-01-15,医療法人社団神崎外科クリニック,00068661,その他の設立登記法人,静岡県,浜松市中央区,領家３丁目１３番７－１０８号,,22,138,4300852,,,2025-01-15,清算の結了等,,,2015-10-05,1,,,,,カンザキゲカクリニック,0
1529,6090002008184,登記記録の閉鎖等,0,2025-01-21,2025-01-08,有限会社ウォッシュファクトリー,,有限会社,山梨県,笛吹市,石和町市部３０５番地,,19,211,4060031,,,2025-01-08,登記官による閉鎖,,,2015-10-05,1,,,,,,0
1531,6100001021517,登記記録の閉鎖等,0,2025-01-21,2025-01-17,株式会社キョウデン,,株式会社,長野県,上伊那郡箕輪町,大字三日町４８２番地１,,20,383,3994603,,,2025-01-17,合併による解散等,5010401109153,令和７年１月１日東京都品川区西五反田八丁目１番５号株式会社クラフト（5010401109153）に合併し解散,2015-10-05,1,,,,,キョウデン,0
1533,6100002032315,登記記録の閉鎖等,0,2025-01-21,2025-01-10,有限会社宅幼老所とみさと,,有限会社,長野県,諏訪郡原村,８１３２番地１,,20,363,3910100,,,2025-01-10,清算の結了等,,,2015-10-05,1,,,,,タクヨウロウショトミサト,0
1535,6100005011695,登記記録の閉鎖等,0,2025-01-21,2025-01-10,一般社団法人森林風致計画研究所,,その他の設立登記法人,長野県,松本市,蟻ケ崎５丁目２番５９号,,20,202,3900861,,,2025-01-10,清算の結了等,,,2015-10-05,1,,,,,シンリンフウチケイカクケンキュウショ,0
1540,6120001169783,登記記録の閉鎖等,0,2025-01-21,2025-01-20,アイズファクトリー株式会社,,株式会社,大阪府,大阪市中央区,上町Ｂ番８号,,27,128,5400005,,,2025-01-20,清算の結了等,,,2015-10-05,1,,,,,アイズファクトリー,0
1541,6120001245659,登記記録の閉鎖等,0,2025-01-21,2025-01-17,Ｉ．Ｓ．Ｃ．株式会社,,株式会社,大阪府,枚方市,船橋本町１丁目７１１－１０,,27,210,5731116,,,2025-01-17,清算の結了等,,,2022-05-09,1,,,,,アイエスシー,0
1552,6120002009113,登記記録の閉鎖等,0,2025-01-21,2025-01-21,有限会社生嶋紙工所,,有限会社,大阪府,大阪市生野区,巽南２丁目４番１０号,00030159,27,116,5440015,,,2025-01-21,清算の結了等,,,2015-10-05,1,,,,,イクシマシコウショ,0
1556,6120101043153,登記記録の閉鎖等,0,2025-01-21,2025-01-16,株式会社パザパ,,株式会社,大阪府,泉大津市,板原町３丁目６番２０号,,27,206,5950033,,,2025-01-16,清算の結了等,,,2015-10-05,1,,,,,パザパ,0
1570,6130002007446,登記記録の閉鎖等,0,2025-01-21,2025-01-17,有限会社谷正商店,,有限会社,京都府,京都市下京区,東洞院通四条下る元悪王子町４６番地,,26,106,6008091,,,2025-01-17,清算の結了等,,,2015-10-05,1,,,,,タニマサショウテン,0
1575,6140001108319,登記記録の閉鎖等,0,2025-01-21,2025-01-16,広為物産株式会社,,株式会社,大阪府,枚方市,星丘２丁目４番４５号,,27,210,5730013,,,2025-01-16,清算の結了等,,,2017-11-28,1,,,,,コウイブッサン,0
1577,6140001126304,登記記録の閉鎖等,0,2025-01-21,2025-01-16,株式会社ＡＬＢｒｉｄｇｅ,,株式会社,兵庫県,尼崎市,長洲中通１丁目１番４１号梅花住宅２階２号,,28,202,6600802,,,2025-01-16,清算の結了等,,,2022-06-08,1,,,,,アルブリッジ,0
1588,6180001076280,登記記録の閉鎖等,0,2025-01-21,2025-01-06,株式会社アペックスＰＶ,,株式会社,愛知県,小牧市,小木１丁目１００番地,,23,219,4850058,,,2025-01-06,合併による解散等,1180001092373,令和７年１月１日愛知県大府市柊山町二丁目４１８番地株式会社アペックス（1180001092373）に合併し解散,2015-10-05,1,,,,,アペックスピーブイ,0
1594,6180003026572,登記記録の閉鎖等,0,2025-01-21,2025-01-09,合同会社エスワイエーエー,,合同会社,愛知県,名古屋市西区,名駅２丁目３４番１７号セントラル名古屋１１０１号,,23,104,4510045,,,2025-01-09,清算の結了等,,,2024-04-08,1,,,,,エスワイエーエー,0
1596,6180005009501,登記記録の閉鎖等,0,2025-01-21,2025-01-15,医療法人大嶋皮膚科,,その他の設立登記法人,愛知県,一宮市,花池４丁目１３番３号,,23,203,4910914,,,2025-01-15,清算の結了等,,,2015-10-05,1,,,,,オオシマヒフカ,0
1617,6260001030386,登記記録の閉鎖等,0,2025-01-21,2025-01-16,ヒバリハウス株式会社,,株式会社,岡山県,岡山市北区,表町２丁目７番１５号,,33,101,7000822,,,2025-01-16,合併による解散等,7260001028487,令和７年１月１日大阪市北区豊崎三丁目１８番３号ザ・ファインタワー梅田豊崎２４０２トイボックス株式会社（7260001028487）に合併し解散,2017-01-18,1,,,,,ヒバリハウス,0
1625,6270002010725,登記記録の閉鎖等,0,2025-01-21,2025-01-16,旭出版有限会社,,有限会社,鳥取県,東伯郡三朝町,大字本泉３５８番地１０,,31,364,6820152,,,2025-01-16,清算の結了等,,,2015-10-05,1,,,,,,0
1626,6270005005391,登記記録の閉鎖等,0,2025-01-21,2025-01-20,一般社団法人ビッグボーンパフォーマンスバンク協会,,その他の設立登記法人,鳥取県,鳥取市,秋里９３４番地７,,31,201,6800902,,,2025-01-20,清算の結了等,,,2019-10-03,1,,,,,ビッグボーンパフォーマンスバンクキョウカイ,0
1632,6290001075453,登記記録の閉鎖等,0,2025-01-21,2024-12-27,株式会社大丸酒店,,株式会社,福岡県,久留米市,諏訪野町２１５７番地２,,40,203,8300037,,,2024-12-27,清算の結了等,,,2016-10-12,1,,,,,ダイマルサケテン,0
1634,6290802000725,登記記録の閉鎖等,0,2025-01-21,2025-01-09,有限会社上田運送,,有限会社,福岡県,北九州市小倉南区,大字合馬１６１１番地の１,,40,107,8030261,,,2025-01-09,清算の結了等,,,2015-10-05,1,,,,,ウエダウンソウ,0
1636,6290803003999,登記記録の閉鎖等,0,2025-01-21,2025-01-09,合同会社４Ｓｔａｇｅｓ,,合同会社,福岡県,北九州市八幡西区,森下町９番１号,,40,109,8060046,,,2025-01-09,清算の結了等,,,2021-12-06,1,,,,,フォーステージズ,0
1646,6330002029973,登記記録の閉鎖等,0,2025-01-21,2025-01-14,有限会社岩下工務店,,有限会社,熊本県,球磨郡相良村,大字川辺６８３番地の５２,,43,510,8680093,,,2025-01-14,清算の結了等,,,2015-10-05,1,,,,,イワシタコウムテン,0
1650,6340002026433,登記記録の閉鎖等,0,2025-01-21,2025-01-16,有限会社丸善薬局,,有限会社,鹿児島県,垂水市,本町１７番地,,46,214,8912123,,,2025-01-16,清算の結了等,,,2015-10-05,1,,,,,マルゼンヤッキョク,0
1664,6410001008004,登記記録の閉鎖等,0,2025-01-21,2025-01-16,大正ブロック工業株式会社,,株式会社,秋田県,大仙市,東川字佐戸３９番地,,05,212,0140032,,,2025-01-16,清算の結了等,,,2015-10-05,1,,,,,タイショウブロックコウギョウ,0
1671,6470001010961,登記記録の閉鎖等,0,2025-01-21,2025-01-17,有友工業株式会社,,株式会社,香川県,さぬき市,長尾名４４２番地２,,37,206,7692303,,,2025-01-17,登記官による閉鎖,,,2015-10-05,1,,,,,,0
1672,6470001012735,登記記録の閉鎖等,0,2025-01-21,2025-01-17,株式会社ワタナベ,,株式会社,香川県,高松市,楠上町２丁目３番７号－７１４,,37,201,7600075,,,2025-01-17,登記官による閉鎖,,,2015-10-05,1,,,,,,0
1673,6470002005812,登記記録の閉鎖等,0,2025-01-21,2025-01-17,有限会社福本住設,,有限会社,香川県,高松市,太田上町８２９番地６,,37,201,7618074,,,2025-01-17,登記官による閉鎖,,,2015-10-05,1,,,,,,0
1674,6470002009747,登記記録の閉鎖等,0,2025-01-21,2025-01-17,有限会社つるりん工房,,有限会社,香川県,高松市,伏石町９２９番地１,,37,201,7618071,,,2025-01-17,登記官による閉鎖,,,2015-10-05,1,,,,,,0
1675,6470002010770,登記記録の閉鎖等,0,2025-01-21,2025-01-17,有限会社山下商店,,有限会社,香川県,木田郡三木町,大字池戸１３８３番地１,,37,341,7610701,,,2025-01-17,登記官による閉鎖,,,2015-10-05,1,,,,,ヤマシタショウテン,0
1676,6470002011315,登記記録の閉鎖等,0,2025-01-21,2025-01-17,有限会社いづみ洋服店,,有限会社,香川県,丸亀市,富屋町３４番地,,37,202,7630021,,,2025-01-17,登記官による閉鎖,,,2015-10-05,1,,,,,,0
1677,6470002015695,登記記録の閉鎖等,0,2025-01-21,2025-01-17,アイシー企画有限会社,,有限会社,香川県,坂出市,川津町３４８５番地１,,37,203,7620025,,,2025-01-17,登記官による閉鎖,,,2015-10-05,1,,,,,,0
1678,6470005001362,登記記録の閉鎖等,0,2025-01-21,2025-01-17,御大典記念財団法人香川県教育振興会,,その他の設立登記法人,香川県,高松市,内町９６番地,,37,201,7600034,,,2025-01-17,登記官による閉鎖,,,2015-10-05,1,,,,,,0
1679,6470005003400,登記記録の閉鎖等,0,2025-01-21,2025-01-17,社団法人香川県資源研究所,,その他の設立登記法人,香川県,坂出市,江尻町１６４７番地６５,,37,203,7620011,,,2025-01-17,登記官による閉鎖,,,2015-10-05,1,,,,,,0
1683,6480005006897,登記記録の閉鎖等,0,2025-01-21,2025-01-09,一般社団法人徳島アジア協会,,その他の設立登記法人,徳島県,徳島市,一番町３丁目１６番３号,,36,201,7700833,,,2025-01-09,清算の結了等,,,2022-04-07,1,,,,,トクシマアジアキョウカイ,0
1684,6490001001926,登記記録の閉鎖等,0,2025-01-21,2025-01-15,株式会社里共,,株式会社,高知県,高知市,瀬戸１丁目６番２９号,,39,201,7810250,,,2025-01-15,清算の結了等,,,2015-10-05,1,,,,,リキョウ,0
1700,7010001223757,登記記録の閉鎖等,0,2025-01-21,2025-01-06,ジェイマッチ株式会社,,株式会社,東京都,千代田区,岩本町３丁目８番地８中和秋葉原ビルビズコンフォート秋葉原岩本町,,13,101,1010032,,,2025-01-06,清算の結了等,,,2022-01-17,1,,,,,ジェイマッチ,0
1715,7010401082869,登記記録の閉鎖等,0,2025-01-21,2025-01-06,フォルクスワーゲンジャパン販売株式会社,,株式会社,東京都,世田谷区,尾山台３丁目５番２号,,13,112,1580086,,,2025-01-06,合併による解散等,1010901014856,令和７年１月１日東京都世田谷区尾山台二丁目３０番８号アウディジャパン販売株式会社（1010901014856）に合併し解散,2015-10-05,1,,,,,フォルクスワーゲンジャパンハンバイ,0
1716,7010401116098,登記記録の閉鎖等,0,2025-01-21,2024-12-19,株式会社Ｖｉｃｏｍｔｅ　Ａ．Ｊａｐａｎ,,株式会社,東京都,港区,東麻布１丁目２３番５号,,13,103,1060044,,,2024-12-19,清算の結了等,,,2015-10-05,1,,,,,ヴィコントエージャパン,0
1717,7010401173387,登記記録の閉鎖等,0,2025-01-21,2024-12-20,Ｉｎｖｅｓｔｍｅｎｔ　Ｊａｐａｎ株式会社,,株式会社,東京都,港区,南青山２丁目２番１５号,,13,103,1070062,,,2024-12-20,清算の結了等,,,2023-03-31,1,,,,,インベストメントジャパン,0
1731,7010902006368,登記記録の閉鎖等,0,2025-01-21,2025-01-08,有限会社三巧商亊,,有限会社,東京都,世田谷区,豪徳寺１丁目４２番４号,,13,112,1540021,,,2025-01-08,清算の結了等,,,2015-10-05,1,,,,,,0
1733,7011001161055,登記記録の閉鎖等,0,2025-01-21,2024-12-16,ＵＭＡＩ　ＢＯＸ株式会社,,株式会社,東京都,目黒区,三田１丁目１１番１号ＹＴタナカビルディング３Ｆ,,13,110,1530062,,,2024-12-16,清算の結了等,,,2024-04-04,1,,,,,ウマイボックス,0
1739,7011003010202,登記記録の閉鎖等,0,2025-01-21,2024-12-16,合同会社Ｆｉｎｄ　Ｍｏｒｅ　Ｊａｐａｎ,,合同会社,東京都,渋谷区,代々木１丁目３０－１５天翔代々木ビルＳ１０４,,13,113,1510053,,,2024-12-16,清算の結了等,,,2019-08-01,1,,,,,ファインドモアジャパン,0
1743,7011501001743,登記記録の閉鎖等,0,2025-01-21,2025-01-20,株式会社三光美術,,株式会社,東京都,北区,東田端１丁目１２番１号,,13,117,1140013,,,2025-01-20,登記官による閉鎖,,,2015-10-05,1,,,,,,0
1744,7011501001801,登記記録の閉鎖等,0,2025-01-21,2025-01-20,三瑞工業株式会社,,株式会社,東京都,北区,浮間４丁目１２番１１号,,13,117,1150051,,,2025-01-20,登記官による閉鎖,,,2015-10-05,1,,,,,,0
1745,7011501006560,登記記録の閉鎖等,0,2025-01-21,2025-01-20,株式会社堺ソウイング,,株式会社,東京都,荒川区,東日暮里４丁目１４番９号,,13,118,1160014,,,2025-01-20,登記官による閉鎖,,,2015-10-05,1,,,,,,0
1746,7011501016774,登記記録の閉鎖等,0,2025-01-21,2025-01-20,未来プルーヴ株式会社,,株式会社,東京都,北区,志茂１丁目２４番２号,,13,117,1150042,,,2025-01-20,登記官による閉鎖,,,2015-10-05,1,,,,,,0
1747,7011502007062,登記記録の閉鎖等,0,2025-01-21,2025-01-20,有限会社いつき電気,,有限会社,東京都,荒川区,荒川２丁目２１番１２号,,13,118,1160002,,,2025-01-20,登記官による閉鎖,,,2015-10-05,1,,,,,,0
1748,7011502012319,登記記録の閉鎖等,0,2025-01-21,2025-01-20,有限会社藤真リニューアル,,有限会社,東京都,北区,赤羽１丁目１９番７号葵ビル３０１号,,13,117,1150045,,,2025-01-20,登記官による閉鎖,,,2015-10-05,1,,,,,,0
1766,7013301036399,登記記録の閉鎖等,0,2025-01-21,2025-01-17,株式会社桑木エレクトロニクス,,株式会社,東京都,豊島区,西池袋３丁目１番１３号,,13,116,1710021,,,2025-01-17,清算の結了等,,,2015-10-05,1,,,,,クワキエレクトロニクス,0
1770,7020001025194,登記記録の閉鎖等,0,2025-01-21,2025-01-06,株式会社安達ビル,,株式会社,神奈川県,横浜市中区,福富町西通り３の８,,14,104,2310042,,,2025-01-06,清算の結了等,,,2015-10-05,1,,,,,アダチビル,0
1782,7021001046684,登記記録の閉鎖等,0,2025-01-21,2025-01-20,株式会社つな男,,株式会社,神奈川県,三浦市,三崎５丁目１９番２４号３階,,14,210,2380243,,,2025-01-20,清算の結了等,,,2015-10-05,1,,,,,,0
1789,7030001015814,登記記録の閉鎖等,0,2025-01-21,2025-01-16,東電通アクセス株式会社,,株式会社,千葉県,流山市,駒木５９０番地,,12,220,2700132,,,2025-01-16,合併による解散等,5060001020508,令和７年１月１日栃木県佐野市越名町２０４１番地７株式会社ミライト・ワン・ネクスト（5060001020508）に合併し解散,2015-10-05,1,,,,,トウデンツウアクセス,0
1804,7050001046345,登記記録の閉鎖等,0,2025-01-21,2025-01-10,株式会社Ｔ．Ｋメディカル,,株式会社,茨城県,つくば市,竹園３丁目５番地１デュオヒルズつくば竹園６０２号,,08,220,3050032,,,2025-01-10,清算の結了等,,,2019-08-01,1,,,,,ティーケイメディカル,0
1815,7080403004823,登記記録の閉鎖等,0,2025-01-21,2025-01-14,合同会社アイエス,,合同会社,静岡県,浜松市中央区,南浅田１丁目１０番８号,,22,138,4328044,,,2025-01-14,清算の結了等,,,2023-07-10,1,,,,,アイエス,0
1817,7090001008333,登記記録の閉鎖等,0,2025-01-21,2025-01-08,株式会社カツラ,,株式会社,山梨県,都留市,法能４４９番地１,,19,204,4020025,,,2025-01-08,登記官による閉鎖,,,2015-10-05,1,,,,,,0
1818,7090002009966,登記記録の閉鎖等,0,2025-01-21,2025-01-08,有限会社ＳＴコンサルタント,,有限会社,山梨県,大月市,猿橋町藤崎５３４番地の６,,19,206,4090612,,,2025-01-08,登記官による閉鎖,,,2015-10-05,1,,,,,,0
1819,7090002014132,登記記録の閉鎖等,0,2025-01-21,2025-01-08,有限会社齋藤家具商会,,有限会社,山梨県,北杜市,高根町清里字念場原３５４５番地の３０６５,,19,209,4070301,,,2025-01-08,登記官による閉鎖,,,2015-10-05,1,,,,,,0
1820,7090003000437,登記記録の閉鎖等,0,2025-01-21,2025-01-08,合同会社トラスト丹波山,,合同会社,山梨県,北都留郡丹波山村,８８４番地４号,,19,443,4090300,,,2025-01-08,登記官による閉鎖,,,2015-10-05,1,,,,,,0
1823,7110002031538,登記記録の閉鎖等,0,2025-01-21,2025-01-17,有限会社笠井熔接工業,,有限会社,新潟県,見附市,今町２丁目４番１８号,,15,211,9540111,,,2025-01-17,清算の結了等,,,2015-10-05,1,,,,,カサイヨウセツコウギョウ,0
1826,7120001103816,登記記録の閉鎖等,0,2025-01-21,2025-01-14,ナノフォトン株式会社,,株式会社,大阪府,箕面市,船場西３丁目１番７号,,27,220,5620036,,,2025-01-14,合併による解散等,8020001059836,令和７年１月１日横浜市神奈川区守屋町三丁目９番地ブルカージャパン株式会社（8020001059836）に合併し解散,2015-10-05,1,,,,,ナノフォトン,0
1837,7120002029993,登記記録の閉鎖等,0,2025-01-21,2025-01-10,有限会社カリバー,,有限会社,大阪府,大阪市北区,本庄西１丁目９番１２号,,27,127,5310073,,,2025-01-10,清算の結了等,,,2015-10-05,1,,,,,カリバー,0
1844,7120101002901,登記記録の閉鎖等,0,2025-01-21,2025-01-16,株式会社新未来都交通,,株式会社,大阪府,堺市堺区,海山町１丁３番地,,27,141,5900982,,,2025-01-16,合併による解散等,2120001159689,令和６年１２月３１日大阪府門真市殿島町１１番６号株式会社未来都（2120001159689）に合併し解散,2015-10-05,1,,,,,シンミライトコウツウ,0
1851,7120901039911,登記記録の閉鎖等,0,2025-01-21,2025-01-14,株式会社ＵＫ－ＷＯＲＫＳ,,株式会社,大阪府,枚方市,長尾家具町３丁目５番２号,,27,210,5730102,,,2025-01-14,清算の結了等,,,2018-05-14,1,,,,,ユーケーワークス,0
1860,7130001061765,登記記録の閉鎖等,0,2025-01-21,2025-01-16,株式会社ＨＧＫ２,,株式会社,京都府,京都市南区,東九条明田町７番地,,26,107,6018044,,,2025-01-16,清算の結了等,,,2018-03-26,1,,,,,エイチジイケイツウ,0
1863,7140001016917,登記記録の閉鎖等,0,2025-01-21,2025-01-14,株式会社三倉,,株式会社,兵庫県,神戸市長田区,菅原通７丁目１６番５号,,28,106,6530015,,,2025-01-14,合併による解散等,8140001093187,令和７年１月１１日神戸市長田区御蔵通七丁目４２番地３０１号室株式会社セーフウェイ（8140001093187）に合併し解散,2015-10-05,1,,,,,ミクラ,0
1871,7140002033952,登記記録の閉鎖等,0,2025-01-21,2025-01-15,有限会社梅田建材店,,有限会社,兵庫県,赤穂郡上郡町,尾長谷２６番地の４,,28,481,6781203,,,2025-01-15,清算の結了等,,,2015-10-05,1,,,,,ウメダケンザイテン,0
1876,7170002011311,登記記録の閉鎖等,0,2025-01-21,2025-01-17,有限会社福尾商店,,有限会社,和歌山県,新宮市,徐福１丁目５番２４号,,30,207,6470020,,,2025-01-17,清算の結了等,,,2015-10-05,1,,,,,フクオショウテン,0
1908,7290001003371,登記記録の閉鎖等,0,2025-01-21,2025-01-16,株式会社千榮,,株式会社,福岡県,福岡市東区,和白６丁目６番１０号,,40,131,8110202,,,2025-01-16,合併による解散等,9140001050402,令和７年１月１日兵庫県尼崎市塚口本町六丁目８番１８号中谷機工株式会社（9140001050402）に合併し解散,2015-10-05,1,,,,,センエイ,0
1933,7390002012130,登記記録の閉鎖等,0,2025-01-21,2025-01-14,有限会社奥山配管工業,,有限会社,山形県,東根市,温泉町１丁目１３番１９号,,06,211,9993702,,,2025-01-14,清算の結了等,,,2015-10-05,1,,,,,オクヤマハイカンコウギョウ,0
1934,7400505000654,登記記録の閉鎖等,0,2025-01-21,2024-12-11,社会福祉法人七星会,,その他の設立登記法人,岩手県,一関市,真柴字矢ノ目沢６４番地１７３－２階,,03,209,0210901,,,2024-12-11,清算の結了等,,,2015-10-05,1,,,,,シチセイカイ,0
1936,7420002003786,登記記録の閉鎖等,0,2025-01-21,2025-01-17,有限会社メイドサービス,,有限会社,青森県,青森市,本町１丁目３番１２号,,02,201,0300802,,,2025-01-17,清算の結了等,,,2015-10-05,1,,,,,メイドサービス,0
1938,7420002015088,登記記録の閉鎖等,0,2025-01-21,2025-01-16,有限会社フジセー,,有限会社,青森県,黒石市,松葉町１０９番地８,,02,204,0360313,,,2025-01-16,清算の結了等,,,2015-10-05,1,,,,,フジセー,0
1943,7470001003015,登記記録の閉鎖等,0,2025-01-21,2025-01-17,株式会社トーヨーアナース,,株式会社,香川県,高松市,錦町２丁目８番１３号,,37,201,7600020,,,2025-01-17,登記官による閉鎖,,,2015-10-05,1,,,,,,0
1944,7470001011942,登記記録の閉鎖等,0,2025-01-21,2025-01-17,真輝建装株式会社,,株式会社,香川県,仲多度郡多度津町,本通１丁目９番１９号,,37,404,7640014,,,2025-01-17,登記官による閉鎖,,,2015-10-05,1,,,,,,0
1945,7470002004821,登記記録の閉鎖等,0,2025-01-21,2025-01-17,有限会社東海エージェンシー,,有限会社,香川県,高松市,太田下町２４４４番地５,,37,201,7618073,,,2025-01-17,登記官による閉鎖,,,2015-10-05,1,,,,,,0
1946,7470002009993,登記記録の閉鎖等,0,2025-01-21,2025-01-17,有限会社すみ,,有限会社,香川県,高松市,国分寺町新居３３４６番地３,,37,201,7690101,,,2025-01-17,登記官による閉鎖,,,2015-10-05,1,,,,,,0
1948,7470002014688,登記記録の閉鎖等,0,2025-01-21,2025-01-17,エスワイ緊結機有限会社,,有限会社,香川県,坂出市,本町３丁目５番９号,,37,203,7620044,,,2025-01-17,登記官による閉鎖,,,2015-10-05,1,,,,,,0
1949,7470002016833,登記記録の閉鎖等,0,2025-01-21,2025-01-17,有限会社小原機械,,有限会社,香川県,三豊市,仁尾町仁尾辛３２番地８,,37,208,7691406,,,2025-01-17,登記官による閉鎖,,,2015-10-05,1,,,,,,0
1950,7470002018169,登記記録の閉鎖等,0,2025-01-21,2025-01-17,有限会社システム職人,,有限会社,香川県,さぬき市,鴨庄２６２番地,,37,206,7692102,,,2025-01-17,登記官による閉鎖,,,2015-10-05,1,,,,,,0
1951,7470005003481,登記記録の閉鎖等,0,2025-01-21,2025-01-17,特定非営利活動法人Ｇｒｏｕｐ　ＴＥＲＡ　オメガ,,その他の設立登記法人,香川県,坂出市,府中町甲１４１１番地８,,37,203,7620024,,,2025-01-17,登記官による閉鎖,,,2015-10-05,1,,,,,,0
1956,8010001053947,登記記録の閉鎖等,0,2025-01-21,2025-01-06,株式会社ネスト,,株式会社,東京都,中央区,銀座１丁目１５番７号,,13,102,1040061,,,2025-01-06,清算の結了等,,,2015-10-05,1,,,,,ネスト,0
1962,8010001200532,登記記録の閉鎖等,0,2025-01-21,2025-01-06,ミャンマーアセットマネジメント株式会社,,株式会社,東京都,千代田区,霞が関３丁目２番１号,,13,101,1000013,,,2025-01-06,清算の結了等,,,2019-05-07,1,,,,,ミャンマーアセットマネジメント,0
1970,8010002039664,登記記録の閉鎖等,0,2025-01-21,2025-01-06,有限会社甲州屋本家日本料理調理士紹介所,,有限会社,東京都,中央区,築地３丁目７番８号メゾンド平和田２０１,,13,102,1040045,,,2025-01-06,清算の結了等,,,2015-10-05,1,,,,,コウシュウヤホンケニホンリョウリチョウリシショウカイジョ,0
1982,8010401173386,登記記録の閉鎖等,0,2025-01-21,2024-12-20,株式会社Ｅｄｕｃａｔｉｏｎ　Ｃａｍｐ,,株式会社,東京都,港区,南青山２丁目２番１５号,,13,103,1070062,,,2024-12-20,清算の結了等,,,2023-03-31,1,,,,,エデュケーションキャンプ,0
1990,8010403020537,登記記録の閉鎖等,0,2025-01-21,2024-12-24,合同会社ＱＯＬ・ブリッジ２,,合同会社,東京都,港区,赤坂７丁目６番１５号,,13,103,1070052,,,2024-12-24,清算の結了等,,,2019-04-23,1,,,,,キューオーエルブリッジツー,0
1995,8010601023614,登記記録の閉鎖等,0,2025-01-21,2025-01-09,株式会社オリーブコーポレーション,,株式会社,東京都,江東区,新大橋２丁目８番８号,,13,108,1350007,,,2025-01-09,合併による解散等,4010601007620,令和７年１月１日東京都江東区新大橋二丁目８番８号ウインスロップ株式会社（4010601007620）に合併し解散,2015-10-05,1,,,,,オリーブコーポレーション,0
1996,8010601037242,登記記録の閉鎖等,0,2025-01-21,2025-01-17,株式会社佐々木エンタープライズ,,株式会社,東京都,江戸川区,西瑞江３丁目１１番地９０,,13,123,1320015,,,2025-01-17,清算の結了等,,,2015-10-05,1,,,,,ササキエンタープライズ,0
2033,8011501008853,登記記録の閉鎖等,0,2025-01-21,2025-01-20,丸平清水株式会社,,株式会社,東京都,荒川区,東日暮里１丁目２１番２号,,13,118,1160014,,,2025-01-20,登記官による閉鎖,,,2015-10-05,1,,,,,,0
2034,8011501009348,登記記録の閉鎖等,0,2025-01-21,2025-01-20,株式会社和興,,株式会社,東京都,荒川区,東尾久４丁目４９番１３号,,13,118,1160012,,,2025-01-20,登記官による閉鎖,,,2015-10-05,1,,,,,,0
2035,8011501010900,登記記録の閉鎖等,0,2025-01-21,2025-01-20,株式会社バルト,,株式会社,東京都,北区,赤羽西１丁目２４番２５号,,13,117,1150055,,,2025-01-20,登記官による閉鎖,,,2015-10-05,1,,,,,,0
2036,8011501014265,登記記録の閉鎖等,0,2025-01-21,2025-01-20,株式会社ラボインフォメーションジャパン,,株式会社,東京都,荒川区,西日暮里４丁目１番６号,,13,118,1160013,,,2025-01-20,登記官による閉鎖,,,2015-10-05,1,,,,,,0
2037,8011501019727,登記記録の閉鎖等,0,2025-01-21,2025-01-20,株式会社グッドテック,,株式会社,東京都,荒川区,東日暮里６丁目４５番３号,,13,118,1160014,,,2025-01-20,登記官による閉鎖,,,2015-10-05,1,,,,,,0
2038,8011502015064,登記記録の閉鎖等,0,2025-01-21,2025-01-20,有限会社Ｍ＆Ｊ,,有限会社,東京都,北区,東十条４丁目１３番１１号,,13,117,1140001,,,2025-01-20,登記官による閉鎖,,,2015-10-05,1,,,,,,0
2039,8011503002061,登記記録の閉鎖等,0,2025-01-21,2025-01-20,合同会社クラール,,合同会社,東京都,北区,東十条４丁目６番２号児林ビル１０１号,,13,117,1140001,,,2025-01-20,登記官による閉鎖,,,2015-10-05,1,,,,,,0
2040,8011505001004,登記記録の閉鎖等,0,2025-01-21,2025-01-20,特定非営利活動法人ハドソン国際交流協会,,その他の設立登記法人,東京都,北区,西ケ原４丁目９番１号,,13,117,1140024,,,2025-01-20,登記官による閉鎖,,,2015-10-05,1,,,,,,0
2049,8013101008036,登記記録の閉鎖等,0,2025-01-21,2025-01-17,株式会社Ｎｅｘｔ　Ｈｏｌｄｉｎｇｓ,,株式会社,東京都,あきる野市,渕上２１４番地８,,13,228,1970833,,,2025-01-17,清算の結了等,,,2019-03-05,1,,,,,ネクストホールディングス,0
2051,8013301043287,登記記録の閉鎖等,0,2025-01-21,2025-01-16,株式会社ＡＯ,,株式会社,東京都,豊島区,東池袋１丁目４２番１５号,,13,116,1700013,,,2025-01-16,合併による解散等,1011101087701,令和７年１月８日栃木県小山市東城南四丁目３１－１サニープレイス３・３０４号株式会社Ｓｔａｇｅ（1011101087701）に合併し解散,2019-01-09,1,,,,,エーオー,0
2065,8021001013493,登記記録の閉鎖等,0,2025-01-21,2025-01-16,日本メンテナンス株式会社,,株式会社,神奈川県,相模原市中央区,田名３４９５番地２,,14,152,2520244,,,2025-01-16,合併による解散等,6010001034494,令和７年１月１日東京都中央区日本橋三丁目１２番２号株式会社アクティオ（6010001034494）に合併し解散,2015-10-05,1,,,,,ニホンメンテナンス,0
2069,8030001069215,登記記録の閉鎖等,0,2025-01-21,2025-01-15,株式会社リョウワマシナリー,,株式会社,埼玉県,鶴ヶ島市,大字藤金８０３番地６０,,11,241,3502206,,,2025-01-15,清算の結了等,,,2015-10-05,1,,,,,リョウワマシナリー,0
2071,8030002096142,登記記録の閉鎖等,0,2025-01-21,2025-01-16,ニットー鋲工有限会社,,有限会社,埼玉県,東松山市,御茶山町５番地１,,11,212,3550022,,,2025-01-16,清算の結了等,,,2015-10-05,1,,,,,ニットービョウコウ,0
2079,8080002017309,登記記録の閉鎖等,0,2025-01-21,2025-01-15,有限会社池田製茶場,,有限会社,静岡県,藤枝市,北方５３６番地の５,,22,214,4260212,,,2025-01-15,清算の結了等,,,2015-10-05,1,,,,,イケダセイチャジョウ,0
2084,8090001000248,登記記録の閉鎖等,0,2025-01-21,2025-01-08,株式会社エース,,株式会社,山梨県,甲府市,大里町１２４６番地３,,19,201,4000053,,,2025-01-08,登記官による閉鎖,,,2015-10-05,1,,,,,,0
2085,8090001001056,登記記録の閉鎖等,0,2025-01-21,2025-01-08,株式会社フレンズ,,株式会社,山梨県,甲府市,和戸町７１３番地８,,19,201,4000812,,,2025-01-08,登記官による閉鎖,,,2015-10-05,1,,,,,,0
2087,8090002006871,登記記録の閉鎖等,0,2025-01-21,2025-01-08,有限会社フィオレンテ,,有限会社,山梨県,甲府市,湯村３丁目４番２９号,,19,201,4000073,,,2025-01-08,登記官による閉鎖,,,2015-10-05,1,,,,,,0
2088,8090002010452,登記記録の閉鎖等,0,2025-01-21,2025-01-08,有限会社フローリッシュ,00068911,有限会社,山梨県,都留市,井倉４２４番地,,19,204,4020011,,,2025-01-08,登記官による閉鎖,,,2015-10-05,1,,,,,,0
2097,8100002023923,登記記録の閉鎖等,0,2025-01-21,2025-01-14,有限会社ハラ,,有限会社,長野県,安曇野市,穂高柏原３２８７番地５５,,20,220,3998304,,,2025-01-14,清算の結了等,,,2015-10-05,1,,,,,ハラ,0
2101,8120001003817,登記記録の閉鎖等,0,2025-01-21,2025-01-20,株式会社辻芳,00027010,株式会社,大阪府,大阪市西成区,千本北１丁目１２番２０号,,27,122,5570053,,,2025-01-20,清算の結了等,,,2015-10-05,1,,,,,ツジヨシ,0
2102,8120001029028,登記記録の閉鎖等,0,2025-01-21,2025-01-17,三徳船舶株式会社,,株式会社,大阪府,大阪市港区,磯路３丁目２６番９号,,27,107,5520003,,,2025-01-17,合併による解散等,6010401143416,令和７年１月１日東京都港区浜松町二丁目４番１号三徳船舶株式会社（6010401143416）に合併し解散,2015-10-05,1,,,,,サントクセンパク,0
2104,8120001072390,登記記録の閉鎖等,0,2025-01-21,2025-01-14,株式会社ワタナベ,,株式会社,大阪府,大阪市北区,豊崎５丁目２－１藤井ビル３０２号,,27,127,5310072,,,2025-01-14,清算の結了等,,,2015-10-05,1,,,,,ワタナベ,0
2129,8122001014810,登記記録の閉鎖等,0,2025-01-21,2025-01-06,株式会社ＵＮＩＴＹ,,株式会社,大阪府,東大阪市,小阪本町１丁目６番２０号,,27,227,5770802,,,2025-01-06,合併による解散等,5122001024060,令和７年１月１日大阪府東大阪市小阪本町一丁目６番２０号株式会社モトックスプラニング（5122001024060）に合併し解散,2015-10-05,1,,,,,ユニティ,0
2144,8140003009174,登記記録の閉鎖等,0,2025-01-21,2025-01-14,エールサポート合同会社,,合同会社,兵庫県,明石市,大蔵谷奥１５番１５号,,28,203,6730867,,,2025-01-14,清算の結了等,,,2015-10-05,1,,,,,エールサポート,0
2152,8170001008539,登記記録の閉鎖等,0,2025-01-21,2025-01-20,株式会社五十和,,株式会社,和歌山県,田辺市,上芳養３１０８番地,,30,206,6460101,,,2025-01-20,清算の結了等,,,2015-10-05,1,,,,,イソワ,0
2154,8180001060159,登記記録の閉鎖等,0,2025-01-21,2025-01-06,株式会社ダンウェーブ,,株式会社,愛知県,名古屋市南区,呼続３丁目２１番５号,,23,112,4570014,,,2025-01-06,清算の結了等,,,2015-10-05,1,,,,,ダンウェーブ,0
2161,8180003023956,登記記録の閉鎖等,0,2025-01-21,2025-01-06,合同会社ユー・コーポレーション,,合同会社,愛知県,名古屋市西区,中小田井２丁目５８番地の１グラン・コート中小田井７０３号,,23,104,4520822,,,2025-01-06,清算の結了等,,,2022-06-20,1,,,,,ユーコーポレーション,0
2170,8240002014371,登記記録の閉鎖等,0,2025-01-21,2025-01-17,有限会社ふくみ,,有限会社,広島県,広島市中区,袋町９番６号,,34,101,7300036,,,2025-01-17,清算の結了等,,,2015-10-05,1,,,,,フクミ,0
2171,8260001011038,登記記録の閉鎖等,0,2025-01-21,2025-01-16,株式会社みゆき,,株式会社,岡山県,岡山市南区,浦安本町８２番地６２,,33,104,7028026,,,2025-01-16,清算の結了等,,,2015-10-05,1,,,,,ミユキ,0
2197,8360002010482,登記記録の閉鎖等,0,2025-01-21,2025-01-17,有限会社さくら技研,,有限会社,沖縄県,島尻郡南風原町,字津嘉山１１２９番地１,,47,350,9011117,,,2025-01-17,清算の結了等,,,2015-10-05,1,,,,,サクラギケン,0
2199,8370102000564,登記記録の閉鎖等,0,2025-01-21,2025-01-14,有限会社丸孝商事,,有限会社,宮城県,柴田郡村田町,大字沼辺字日向１４０番地,,04,322,9891321,,,2025-01-14,清算の結了等,,,2015-10-05,1,,,,,,0
2202,8380002019217,登記記録の閉鎖等,0,2025-01-21,2025-01-10,有限会社本多農機,,有限会社,福島県,東白川郡塙町,大字塙字材木町４７番地の１,,07,483,9635405,,,2025-01-10,清算の結了等,,,2015-10-05,1,,,,,ホンダノウキ,0
2212,8470001001372,登記記録の閉鎖等,0,2025-01-21,2025-01-17,株式会社クリヤ,,株式会社,香川県,高松市,丸亀町７番地の５,,37,201,7600029,,,2025-01-17,登記官による閉鎖,,,2015-10-05,1,,,,,,0
2213,8470001005010,登記記録の閉鎖等,0,2025-01-21,2025-01-17,株式会社トミーコーポレーション,,株式会社,香川県,さぬき市,長尾西１１２５番地２,,37,206,7692302,,,2025-01-17,登記官による閉鎖,,,2015-10-05,1,,,,,,0
2214,8470001005828,登記記録の閉鎖等,0,2025-01-21,2025-01-17,真田建設株式会社,,株式会社,香川県,高松市,林町９１番地,,37,201,7610301,,,2025-01-17,登記官による閉鎖,,,2015-10-05,1,,,,,,0
2215,8470001008979,登記記録の閉鎖等,0,2025-01-21,2025-01-17,株式会社坂井印刷,,株式会社,香川県,坂出市,元町４丁目２番１２号,,37,203,7620045,,,2025-01-17,登記官による閉鎖,,,2015-10-05,1,,,,,,0
2216,8470001013830,登記記録の閉鎖等,0,2025-01-21,2025-01-17,株式会社Ｒｉｓｉｎｇ,,株式会社,香川県,高松市,木太町２４５１番地１,,37,201,7600080,,,2025-01-17,登記官による閉鎖,,,2015-10-05,1,,,,,,0
2218,8470002000324,登記記録の閉鎖等,0,2025-01-21,2025-01-17,有限会社四国珍味食販,,有限会社,香川県,高松市,牟礼町牟礼３７２０番地２３４,,37,201,7610121,,,2025-01-17,登記官による閉鎖,,,2015-10-05,1,,,,,,0
2219,8470002008334,登記記録の閉鎖等,0,2025-01-21,2025-01-17,有限会社真鍋エステート,,有限会社,香川県,高松市,多肥下町１５０６番地７,,37,201,7618075,,,2025-01-17,登記官による閉鎖,,,2015-10-05,1,,,,,,0
2221,8470002019158,登記記録の閉鎖等,0,2025-01-21,2025-01-17,与九郎水産有限会社,,有限会社,香川県,小豆郡土庄町,長浜甲２００７番地の１,,37,322,7614133,,,2025-01-17,登記官による閉鎖,,,2015-10-05,1,,,,,,0
2222,8470003000835,登記記録の閉鎖等,0,2025-01-21,2025-01-17,ＳＫＭ合同会社,,合同会社,香川県,さぬき市,寒川町石田東甲４０８番地,,37,206,7692321,,,2025-01-17,登記官による閉鎖,,,2015-10-05,1,,,,,,0
2225,8490001007442,登記記録の閉鎖等,0,2025-01-21,2025-01-17,原田商事株式会社,,株式会社,香川県,丸亀市,中津町１２２６番地１,,37,202,7630054,,,2025-01-17,登記官による閉鎖,,,2015-10-05,1,,,,,,0
2239,9010401011396,登記記録の閉鎖等,0,2025-01-21,2025-01-09,株式会社サンソルト,,株式会社,東京都,港区,南青山３丁目１８番７号,,13,103,1070062,,,2025-01-09,合併による解散等,6010401022669,令和７年１月１日東京都港区南青山三丁目１８番７号日本塩回送株式会社（6010401022669）に合併し解散,2015-10-05,1,,,,,サンソルト,0
2247,9010401173385,登記記録の閉鎖等,0,2025-01-21,2024-12-20,投資教育出版株式会社,,株式会社,東京都,港区,南青山２丁目２番１５号,,13,103,1070062,,,2024-12-20,清算の結了等,,,2023-03-31,1,,,,,トウシキョウイクシュッパン,0
2252,9010403030329,登記記録の閉鎖等,0,2025-01-21,2024-12-20,合同会社クリスティーン,,合同会社,東京都,港区,浜松町２丁目２番１５号,,13,103,1050013,,,2024-12-20,清算の結了等,,,2023-06-14,1,,,,,クリスティーン,0
2253,9010601023613,登記記録の閉鎖等,0,2025-01-21,2025-01-09,株式会社グリーンクレスト,,株式会社,東京都,江東区,新大橋２丁目８番８号,,13,108,1350007,,,2025-01-09,合併による解散等,4010601007620,令和７年１月１日東京都江東区新大橋二丁目８番８号ウインスロップ株式会社（4010601007620）に合併し解散,2015-10-05,1,,,,,グリーンクレスト,0
2279,9011003013863,登記記録の閉鎖等,0,2025-01-21,2025-01-06,合同会社トラストバンク菊川,,合同会社,東京都,品川区,上大崎３丁目１番１号,,13,109,1410021,,,2025-01-06,清算の結了等,,,2021-12-14,1,,,,,トラストバンクキクカワ,0
2280,9011003014829,登記記録の閉鎖等,0,2025-01-21,2025-01-06,合同会社ＴＢエネルギー２,,合同会社,東京都,品川区,上大崎３丁目１番１号,,13,109,1410021,,,2025-01-06,清算の結了等,,,2022-06-09,1,,,,,ティービーエネルギーニ,0
2287,9011101092834,登記記録の閉鎖等,0,2025-01-21,2025-01-10,株式会社エクステアーズ,,株式会社,千葉県,船橋市,薬円台５丁目１４番１５号－２０５号,,12,204,2740077,,,2025-01-10,清算の結了等,,,2020-10-14,1,,,,,エクステアーズ,0
2288,9011101093642,登記記録の閉鎖等,0,2025-01-21,2025-01-06,マフォロバ株式会社,,株式会社,東京都,中央区,日本橋２丁目５番１号,,13,102,1030027,,,2025-01-06,清算の結了等,,,2021-01-08,1,,,,,マフォロバ,0
2297,9011501003028,登記記録の閉鎖等,0,2025-01-21,2025-01-20,株式会社デューク,,株式会社,東京都,北区,豊島３丁目２番５号,,13,117,1140003,,,2025-01-20,登記官による閉鎖,,,2015-10-05,1,,,,,,0
2298,9011501010817,登記記録の閉鎖等,0,2025-01-21,2025-01-20,エイチ・シー・エー・ジャパン株式会社,,株式会社,東京都,北区,浮間５丁目３番３３号,,13,117,1150051,,,2025-01-20,登記官による閉鎖,,,2015-10-05,1,,,,,,0
2299,9011501013530,登記記録の閉鎖等,0,2025-01-21,2025-01-20,株式会社トヨオカ,,株式会社,東京都,荒川区,東尾久１丁目３０番７号,,13,118,1160012,,,2025-01-20,登記官による閉鎖,,,2015-10-05,1,,,,,,0
2300,9011501014082,登記記録の閉鎖等,0,2025-01-21,2025-01-20,株式会社小松商会,,株式会社,東京都,北区,西ケ原１丁目２番５号,,13,117,1140024,,,2025-01-20,登記官による閉鎖,,,2015-10-05,1,,,,,,0
2301,9011501015642,登記記録の閉鎖等,0,2025-01-21,2025-01-20,株式会社ポパイ,,株式会社,東京都,荒川区,西尾久８丁目１２番９－９０３号,,13,118,1160011,,,2025-01-20,登記官による閉鎖,,,2015-10-05,1,,,,,,0
2302,9011502001575,登記記録の閉鎖等,0,2025-01-21,2025-01-20,有限会社川島電気,,有限会社,東京都,北区,中十条２丁目１９番１４号,,13,117,1140032,,,2025-01-20,登記官による閉鎖,,,2015-10-05,1,,,,,カワシマデンキ,0
2303,9011502007795,登記記録の閉鎖等,0,2025-01-21,2025-01-20,有限会社金子電器製作所,,有限会社,東京都,荒川区,荒川２丁目５８番１４号,,13,118,1160002,,,2025-01-20,登記官による閉鎖,,,2015-10-05,1,,,,,,0
2304,9011502010997,登記記録の閉鎖等,0,2025-01-21,2025-01-20,穂苅運送有限会社,00055952,有限会社,東京都,荒川区,荒川５丁目３７番１１号,,13,118,1160002,,,2025-01-20,登記官による閉鎖,,,2015-10-05,1,,,,,,0
2305,9011502014321,登記記録の閉鎖等,0,2025-01-21,2025-01-20,有限会社トップロード,,有限会社,東京都,荒川区,東日暮里５丁目５１番１４号,,13,118,1160014,,,2025-01-20,登記官による閉鎖,,,2015-10-05,1,,,,,,0
2306,9011503002291,登記記録の閉鎖等,0,2025-01-21,2025-01-20,合同会社ｓｅｎｃｅ,,合同会社,東京都,北区,滝野川６丁目３２番１３号,,13,117,1140023,,,2025-01-20,登記官による閉鎖,,,2015-10-05,1,,,,,,0
2307,9011505001060,登記記録の閉鎖等,0,2025-01-21,2025-01-20,特定非営利活動法人消費者関連倫理機構,,その他の設立登記法人,東京都,北区,東十条３丁目３番１－９０５号,,13,117,1140001,,,2025-01-20,登記官による閉鎖,,,2015-10-05,1,,,,,,0
2318,9012802010852,登記記録の閉鎖等,0,2025-01-21,2025-01-14,有限会社ＯＳシステム工房,,有限会社,東京都,昭島市,美堀町１丁目２２番９号,,13,207,1960001,,,2025-01-14,清算の結了等,,,2015-10-05,1,,,,,オーエスシステムコウボウ,0
2349,9040001065872,登記記録の閉鎖等,0,2025-01-21,2025-01-10,株式会社創建エンジニアリング,,株式会社,千葉県,柏市,篠籠田１４０１番地９,,12,217,2770862,,,2025-01-10,清算の結了等,,,2015-10-05,1,,,,,ソウケンエンジニアリング,0
2352,9040002081968,登記記録の閉鎖等,0,2025-01-21,2025-01-08,有限会社計画システム,,有限会社,山梨県,南アルプス市,寺部１８５２番地６,,19,208,4000337,,,2025-01-08,登記官による閉鎖,,,2015-10-05,1,,,,,,0
2369,9090001003142,登記記録の閉鎖等,0,2025-01-21,2025-01-08,株式会社名執組,,株式会社,山梨県,中巨摩郡昭和町,飯喰９８６番地,,19,384,4093852,,,2025-01-08,登記官による閉鎖,,,2015-10-05,1,,,,,,0
2370,9090001009040,登記記録の閉鎖等,0,2025-01-21,2025-01-08,株式会社ＳＷＩＮ,,株式会社,山梨県,山梨市,万力１２５番地３,,19,205,4050031,,,2025-01-08,登記官による閉鎖,,,2015-10-05,1,,,,,,0
2372,9090002007159,登記記録の閉鎖等,0,2025-01-21,2025-01-08,有限会社エムアイカラーストーン,,有限会社,山梨県,南アルプス市,上市之瀬１２２１番地,,19,208,4000317,,,2025-01-08,登記官による閉鎖,,,2015-10-05,1,,,,,,0
2373,9090002007794,登記記録の閉鎖等,0,2025-01-21,2025-01-08,有限会社保坂呉服店,,有限会社,山梨県,南アルプス市,西野２８８１番地,,19,208,4000213,,,2025-01-08,登記官による閉鎖,,,2015-10-05,1,,,,,,0
2374,9090002009510,登記記録の閉鎖等,0,2025-01-21,2025-01-08,有限会社マサキ,,有限会社,山梨県,大月市,大月町真木１７７４番地,,19,206,4010016,,,2025-01-08,登記官による閉鎖,,,2015-10-05,1,,,,,,0
2375,9090002012035,登記記録の閉鎖等,0,2025-01-21,2025-01-08,有限会社佐楽美容院,,有限会社,山梨県,富士吉田市,下吉田３丁目２０番３１号,,19,202,4030004,,,2025-01-08,登記官による閉鎖,,,2015-10-05,1,,,,,,0
2376,9090002014683,登記記録の閉鎖等,0,2025-01-21,2025-01-08,有限会社ペットクリニック三田村,,有限会社,山梨県,北杜市,大泉町西井出２４５５番地１,,19,209,4091501,,,2025-01-08,登記官による閉鎖,,,2015-10-05,1,,,,,,0
2377,9090003000393,登記記録の閉鎖等,0,2025-01-21,2025-01-08,タイシン総研合同会社,,合同会社,山梨県,甲斐市,大下条１０８４番２号,,19,210,4000126,,,2025-01-08,登記官による閉鎖,,,2015-10-05,1,,,,,,0
2380,9100001021910,登記記録の閉鎖等,0,2025-01-21,2025-01-15,株式会社マルコポーロ,,株式会社,長野県,伊那市,山寺２７６番地,,20,209,3960023,,,2025-01-15,合併による解散等,8100001021911,令和７年１月１日茨城県坂東市長谷字島原口９９１番地１株式会社ネクスト（8100001021911）に合併し解散,2015-10-05,1,,,,,マルコポーロ,0
2386,9120001083271,登記記録の閉鎖等,0,2025-01-21,2025-01-10,大一洋品株式会社,,株式会社,大阪府,大阪市中央区,船場中央２丁目２番５－Ｂ１３０,,27,128,5410055,,,2025-01-10,清算の結了等,,,2015-10-05,1,,,,,,0
2387,9120001174847,登記記録の閉鎖等,0,2025-01-21,2025-01-20,株式会社蒼映社,,株式会社,大阪府,大阪市東住吉区,南田辺３丁目２番２９号,,27,121,5460033,,,2025-01-20,清算の結了等,,,2015-10-05,1,,,,,ソウエイシャ,0
2418,9122005002463,登記記録の閉鎖等,0,2025-01-21,2025-01-10,医療法人大系会,,その他の設立登記法人,大阪府,八尾市,山本町２丁目１番２２号,,27,212,5810867,,,2025-01-10,清算の結了等,,,2015-10-05,1,,,,,ダイケイカイ,0
2420,9130001047226,登記記録の閉鎖等,0,2025-01-21,2025-01-20,関西興発株式会社,,株式会社,大阪府,大阪市中央区,本町２丁目１番６号堺筋本町センタービル２階,,27,128,5410053,,,2025-01-20,清算の結了等,,,2015-10-05,1,,,,,カンサイコウハツ,0
2456,9250005001794,登記記録の閉鎖等,0,2025-01-21,2025-01-17,医療法人内平皮膚科,,その他の設立登記法人,山口県,防府市,天神２丁目６番３号,,35,206,7470034,,,2025-01-17,清算の結了等,,,2015-10-05,1,,,,,ウチヒラヒフカ,0
2458,9260002014732,登記記録の閉鎖等,0,2025-01-21,2025-01-16,株式会社アルテ工業,,株式会社,岡山県,岡山市北区,平野７６５番地１８,,33,101,7010151,,,2025-01-16,合併による解散等,5010001132299,令和７年１月１日千葉県君津市東粟倉４２１番地５長竹技研株式会社（5010001132299）に合併し解散,2015-10-05,1,,,,,アルテコウギョウ,0
2468,9290801012834,登記記録の閉鎖等,0,2025-01-21,2025-01-07,株式会社ジャパンソーラーコーポレーション,,株式会社,福岡県,北九州市八幡西区,吉祥寺町２４番１１号,,40,109,8071114,,,2025-01-07,清算の結了等,,,2015-10-05,1,,,,,ジャパンソーラーコーポレーション,0
2472,9310001016402,登記記録の閉鎖等,0,2025-01-21,2025-01-16,オーカワラテック株式会社,,株式会社,長崎県,諫早市,久山町２０１４番地３９,,42,204,8540066,,,2025-01-16,合併による解散等,6080001013921,令和７年１月１日静岡県榛原郡吉田町神戸１２３５番地株式会社大川原製作所（6080001013921）に合併し解散,2019-11-13,1,,,,,オーカワラテック,0
2474,9310002006609,登記記録の閉鎖等,0,2025-01-21,2025-01-17,有限会社カトラスコーポレーション,,有限会社,長崎県,長崎市,京泊３丁目６番７号,,42,201,8512211,,,2025-01-17,清算の結了等,,,2015-10-05,1,,,,,カトラスコーポレーション,0
2494,9380001001182,登記記録の閉鎖等,0,2025-01-21,2025-01-07,株式会社パコア,,株式会社,福島県,福島市,泉字下谷地１０番地の１３,,07,201,9608253,,,2025-01-07,清算の結了等,,,2015-10-05,1,,,,,,0
2497,9400002001039,登記記録の閉鎖等,0,2025-01-21,2025-01-08,有限会社楓企画,,有限会社,岩手県,盛岡市,茶畑１丁目１２番５号ベル・ド・ジュール２０１号,,03,201,0200822,,,2025-01-08,清算の結了等,,,2015-10-05,1,,,,,カエデキカク,0
2508,9470001003351,登記記録の閉鎖等,0,2025-01-21,2025-01-17,白雲開発株式会社,,株式会社,香川県,高松市,築地町１６番地１６,,37,201,7600061,,,2025-01-17,登記官による閉鎖,,,2019-12-20,1,,,,,ハクウンカイハツ,0
2509,9470001004317,登記記録の閉鎖等,0,2025-01-21,2025-01-17,株式会社連,,株式会社,香川県,高松市,新田町甲９１１番地４,,37,201,7610102,,,2025-01-17,登記官による閉鎖,,,2015-10-05,1,,,,,,0
2510,9470001007864,登記記録の閉鎖等,0,2025-01-21,2025-01-17,株式会社葛石建築設計事務所,,株式会社,香川県,仲多度郡多度津町,桜川１丁目１１番１１号,,37,404,7640012,,,2025-01-17,登記官による閉鎖,,,2015-10-05,1,,,,,,0
2511,9470001012897,登記記録の閉鎖等,0,2025-01-21,2025-01-17,かみ家麺業株式会社,,株式会社,香川県,綾歌郡宇多津町,浜六番丁８４－１,,37,386,7690206,,,2025-01-17,登記官による閉鎖,,,2015-10-05,1,,,,,,0
2512,9470001013177,登記記録の閉鎖等,0,2025-01-21,2025-01-17,株式会社エクシード・アドヴァイザーズ,,株式会社,香川県,高松市,宮脇町１丁目５番１４号,,37,201,7600005,,,2025-01-17,登記官による閉鎖,,,2015-10-05,1,,,,,,0
2513,9470002005636,登記記録の閉鎖等,0,2025-01-21,2025-01-17,有限会社久本衣料,,有限会社,香川県,高松市,円座町５３２番地２,,37,201,7618044,,,2025-01-17,登記官による閉鎖,,,2015-10-05,1,,,,,,0
2523,9700150099134,登記記録の閉鎖等,0,2025-01-21,2024-01-25,ＰＳＩ　Ｓｅｒｖｉｃｅｓ　ＬＬＣ,,外国会社等,,,,,,,,６１１　Ｎ．Ｂｒａｎｄ　Ｂｌｖｄ，１０ｔｈ　Ｆｌｏｏｒ，Ｇｌｅｎｄａｌｅ，ＣＡ　９１２０３　ＵＳＡ,,2024-01-25,その他の清算の結了等,,,2020-05-27,1,,,,,ピーエスアイサービシスエルエルシー,0
