sequenceNumber,corporateNumber,process,correct,updateDate,changeDate,name,nameImageId,kind,prefectureName,cityName,streetNumber,addressImageId,prefectureCode,cityCode,postCode,addressOutside,addressOutsideImageId,closeDate,closeCause,successorCorporateNumber,changeCause,assignmentDate,latest,enName,enPrefectureName,enCityName,enAddressOutside,furigana,hihyoji
12,1010001254023,新規,0,2025-04-17,2025-04-17,株式会社日向未来,,株式会社,東京都,中央区,銀座１丁目１２番４号Ｎ＆ＥＢＬＤ．７階,,13,102,1040061,,,,,,,2025-04-17,1,,,,,ヒナタミライ,0
13,1010001254262,新規,0,2025-04-17,2025-04-17,ｌａｓｎａｏｌｏ株式会社,,株式会社,東京都,文京区,本郷５丁目１番１１号ＫＩＩＨＯＵＳＥ２０２号室,,13,105,1130033,,,,,,,2025-04-17,1,,,,,ラスナオロ,0
17,1010005039899,新規,0,2025-04-17,2025-04-17,一般社団法人皇統を守る会,,その他の設立登記法人,東京都,中央区,日本橋茅場町２丁目２番１３号信光ビル,,13,102,1030025,,,,,,,2025-04-17,1,,,,,コウトウヲマモルカイ,0
22,1010401189546,新規,0,2025-04-17,2025-04-17,ＫＡＳＳＯＹＡ　ＪＤＭ株式会社,,株式会社,東京都,港区,三田１丁目２番１８号ＴＴＤビル,,13,103,1080073,,,,,,,2025-04-17,1,,,,,カッソウヤジェイディエム,0
23,1010401189711,新規,0,2025-04-17,2025-04-17,Ａｘｐｏ　Ｓｏｌｕｔｉｏｎｓ　Ｊａｐａｎ株式会社,,株式会社,東京都,港区,元麻布３丁目１番６号,,13,103,1060046,,,,,,,2025-04-17,1,,,,,アクスポソリューションズジャパン,0
25,1010403034840,新規,0,2025-04-17,2025-04-17,浅野合同会社,,合同会社,東京都,港区,南麻布３丁目１９番１８号コンシェリア南麻布ＴＯＫＹＯＰＲＥＭＩＵＭＥＡＳＴ９０１号室,,13,103,1060047,,,,,,,2025-04-17,1,,,,,アサノ,0
26,1010403034898,新規,0,2025-04-17,2025-04-17,Ｍａｒｅ　ｃｏｎｓｕｌｔｉｎｇ合同会社,,合同会社,東京都,港区,赤坂４丁目８番１９号赤坂フロントタウン３階,,13,103,1070052,,,,,,,2025-04-17,1,,,,,マーレコンサルティング,0
27,1010403034907,新規,0,2025-04-17,2025-04-17,アンプルジャパン合同会社,,合同会社,東京都,港区,元麻布３丁目１番６号,,13,103,1060046,,,,,,,2025-04-17,1,,,,,アンプルジャパン,0
29,1010405024328,新規,0,2025-04-17,2025-04-17,一般社団法人シルバーブロッサム,,その他の設立登記法人,東京都,港区,虎ノ門３丁目２２番１０－２０１号,,13,103,1050001,,,,,,,2025-04-17,1,,,,,シルバーブロッサム,0
33,1010601067106,新規,0,2025-04-17,2025-04-17,株式会社タクシャ,,株式会社,東京都,墨田区,本所３丁目１３番３号,,13,107,1300004,,,,,,,2025-04-17,1,,,,,タクシャ,0
41,1011001169038,新規,0,2025-04-17,2025-04-17,株式会社Ｉｎｆｌｅｃｔｉｏｎ,,株式会社,東京都,渋谷区,神宮前２丁目３１－１,,13,113,1500001,,,,,,,2025-04-17,1,,,,,インフレクション,0
42,1011001169054,新規,0,2025-04-17,2025-04-17,株式会社ＡＮＳＷＥＲ,,株式会社,東京都,渋谷区,神宮前６丁目１８番１１号,,13,113,1500001,,,,,,,2025-04-17,1,,,,,アンサー,0
43,1011001169285,新規,0,2025-04-17,2025-04-17,ｐｌａｃｅｈｏｌｄｅｒ株式会社,,株式会社,東京都,渋谷区,円山町５番３号ＭＩＥＵＸ渋谷ビル８階,,13,113,1500044,,,,,,,2025-04-17,1,,,,,プレースホルダー,0
50,1011101111287,新規,0,2025-04-17,2025-04-17,株式会社リロプロモーションズ,,株式会社,東京都,新宿区,新宿４丁目２番１８号,,13,104,1600022,,,,,,,2025-04-17,1,,,,,リロプロモーションズ,0
52,1011401027027,新規,0,2025-04-17,2025-04-17,株式会社ｆｒ,,株式会社,東京都,板橋区,向原２丁目１８－５,,13,119,1730036,,,,,,,2025-04-17,1,,,,,エフアール,0
53,1011501031944,新規,0,2025-04-17,2025-04-17,Ａ．Ｐ．Ｔ株式会社,,株式会社,東京都,北区,上十条２丁目２７番１－１１０６号,,13,117,1140034,,,,,,,2025-04-17,1,,,,,エーピーティー,0
54,1011601028584,新規,0,2025-04-17,2025-04-17,株式会社モストプルーフ,,株式会社,東京都,練馬区,下石神井４丁目６番１６－１０２号,,13,120,1770042,,,,,,,2025-04-17,1,,,,,モストプルーフ,0
55,1011603004666,新規,0,2025-04-17,2025-04-17,シズトップ合同会社,,合同会社,東京都,練馬区,下石神井２丁目３３番３９号,,13,120,1770042,,,,,,,2025-04-17,1,,,,,シズトップ,0
58,1011703004203,新規,0,2025-04-17,2025-04-17,合同会社マミオランド,,合同会社,東京都,江戸川区,中葛西６丁目１４番５号,,13,123,1340083,,,,,,,2025-04-17,1,,,,,マミオランド,0
59,1011703004211,新規,0,2025-04-17,2025-04-17,ＵＩＮＭＩ合同会社,,合同会社,東京都,江戸川区,船堀３丁目８番１－１１０６号,,13,123,1340091,,,,,,,2025-04-17,1,,,,,ウィンミ,0
60,1011801045982,新規,0,2025-04-17,2025-04-17,ペイシャンストレーディング株式会社,,株式会社,東京都,足立区,中央本町４丁目１１番３７号メゾン中央２階,,13,121,1210011,,,,,,,2025-04-17,1,,,,,ペイシャンストレーディング,0
63,1013101009676,新規,0,2025-04-17,2025-04-17,株式会社サンスターホーム,,株式会社,東京都,羽村市,五ノ神４丁目７番２１号第一ミハラビル１階,,13,227,2050011,,,,,,,2025-04-17,1,,,,,サンスターホーム,0
67,1020001162365,新規,0,2025-04-17,2025-04-17,株式会社ハート,,株式会社,神奈川県,川崎市麻生区,白鳥１丁目１３番１４号－１０２,,14,137,2150024,,,,,,,2025-04-17,1,,,,,ハート,0
69,1020003028317,新規,0,2025-04-17,2025-04-17,合同会社ｎａｇｏｍ　ｌｉｆｅ,,合同会社,神奈川県,横浜市港北区,大倉山４丁目５番２,,14,109,2220037,,,,,,,2025-04-17,1,,,,,ナゴムライフ,0
70,1020005016807,新規,0,2025-04-17,2025-04-17,一般社団法人かながわヘリテージ,,その他の設立登記法人,神奈川県,横浜市中区,吉田町１０番地都南ビル４０１,,14,104,2310041,,,,,,,2025-04-17,1,,,,,カナガワヘリテージ,0
74,1021001084970,新規,0,2025-04-17,2025-04-17,ＣＲＥＳＴＷＯＲＫＳ株式会社,,株式会社,神奈川県,厚木市,鳶尾２丁目２４番１－１０２号,,14,212,2430204,,,,,,,2025-04-17,1,,,,,クレストワークス,0
76,1021003015874,新規,0,2025-04-17,2025-04-17,ルヌトーロ合同会社,,合同会社,神奈川県,藤沢市,遠藤４４８９番地の１０５－２０７号室,,14,205,2520816,,,,,,,2025-04-17,1,,,,,ルヌトーロ,0
77,1021005013331,新規,0,2025-04-17,2025-04-17,一般社団法人ライフサポーター湘南,,その他の設立登記法人,神奈川県,藤沢市,高倉４８０番地の１７,,14,205,2520802,,,,,,,2025-04-17,1,,,,,ライフサポーターショウナン,0
79,1030001165920,新規,0,2025-04-17,2025-04-17,合生株式会社,,株式会社,埼玉県,越谷市,東越谷１丁目１番１－２０５号,,11,222,3430023,,,,,,,2025-04-17,1,,,,,ゴウセイ,0
80,1030001166002,新規,0,2025-04-17,2025-04-17,博信株式会社,,株式会社,埼玉県,さいたま市桜区,大字上大久保９０４番地１０（Ａ－８０５）,,11,106,3380824,,,,,,,2025-04-17,1,,,,,ハクシン,0
81,1030001166027,新規,0,2025-04-17,2025-04-17,株式会社Ｆａｍｉｌｉａ,,株式会社,埼玉県,越谷市,花田３丁目１１番地１７ミリオーネＢ２０１,,11,222,3430015,,,,,,,2025-04-17,1,,,,,ファミリア,0
82,1030001166043,新規,0,2025-04-17,2025-04-17,株式会社アドバンスライン,,株式会社,埼玉県,川越市,大字的場５４８番地１（インテリジェンス川越西２０２号室）,,11,201,3501101,,,,,,,2025-04-17,1,,,,,アドバンスライン,0
88,1030003026583,新規,0,2025-04-17,2025-04-17,合同会社Ｓｏｆｔｉａ,,合同会社,埼玉県,川越市,大字的場２４１８番地１０（ＲＯ川越１０２－Ｎ）,,11,201,3501101,,,,,,,2025-04-17,1,,,,,ソフティア,0
89,1030003026591,新規,0,2025-04-17,2025-04-17,ＢＡＲＡ　ＳＡＫＩ合同会社,,合同会社,埼玉県,飯能市,本町１９番２号ＫＩＶ－Ｗｅｌｆａｒｅ会館飯能９号室,,11,209,3570032,,,,,,,2025-04-17,1,,,,,バラサキ,0
91,1040003027333,新規,0,2025-04-17,2025-04-17,ＧＯＬＤＦＩＳＨＩＮＧ合同会社,,合同会社,千葉県,千葉市中央区,村田町５９３－２１,,12,101,2600825,,,,,,,2025-04-17,1,,,,,ゴールドフィッシング,0
92,1040003027341,新規,0,2025-04-17,2025-04-17,ウエストコースト合同会社,,合同会社,千葉県,船橋市,栄町１丁目１番２０－４０１,,12,204,2730018,,,,,,,2025-04-17,1,,,,,ウエストコースト,0
95,1050001056473,新規,0,2025-04-17,2025-04-17,大翔工業株式会社,,株式会社,茨城県,つくば市,国松１２１０番地１,,08,220,3004354,,,,,,,2025-04-17,1,,,,,ヒロトコウギョウ,0
96,1050001056507,新規,0,2025-04-17,2025-04-17,株式会社日本石材流通センター,,株式会社,茨城県,桜川市,高久２１４８－２,,08,231,3091243,,,,,,,2025-04-17,1,,,,,ニホンセキザイリュウツウセンター,0
97,1060001038108,新規,0,2025-04-17,2025-04-17,株式会社アーベスト関東,,株式会社,栃木県,小山市,大字横倉新田１７２番地２８,,09,208,3230819,,,,,,,2025-04-17,1,,,,,アーベストカントウ,0
99,1060003005510,新規,0,2025-04-17,2025-04-17,合同会社ＩＲＩＳＡＷＡ　ＪＡＰＡＮ,,合同会社,栃木県,佐野市,堀米町３９２３番地２,,09,204,3270843,,,,,,,2025-04-17,1,,,,,イリサワジャパン,0
106,1090003002802,新規,0,2025-04-17,2025-04-17,フィンコム１２００合同会社,,合同会社,山梨県,北杜市,大泉町西井出８２４０番地４３５９,,19,209,4091501,,,,,,,2025-04-17,1,,,,,フィンコムセンニヒャク,0
109,1110005017218,新規,0,2025-04-17,2025-04-17,税理士法人ブライトパートナーズ,,その他の設立登記法人,新潟県,南魚沼市,六日町１８１８番地２六日町第四ビル２ＦテナントＣ,,15,226,9496680,,,,,,,2025-04-17,1,,,,,ブライトパートナーズ,0
114,1120001274621,新規,0,2025-04-17,2025-04-17,株式会社Ｂｒｉｄｇｅ　Ｏｎｅ,,株式会社,大阪府,大阪市中央区,平野町１丁目８番１３号平野町八千代ビル１０階,,27,128,5410046,,,,,,,2025-04-17,1,,,,,ブリッジワン,0
115,1120001274638,新規,0,2025-04-17,2025-04-17,株式会社あかつきコンサルティング,,株式会社,大阪府,大阪市福島区,福島５丁目６番１６号ラグザ大阪２階,,27,103,5530003,,,,,,,2025-04-17,1,,,,,アカツキコンサルティング,0
116,1120001274654,新規,0,2025-04-17,2025-04-17,ＰＬＵＳＫ不動産株式会社,,株式会社,大阪府,大阪市北区,豊崎５丁目２番１９号サンドエル豊崎１０１号,,27,127,5310072,,,,,,,2025-04-17,1,,,,,プラスクフドウサン,0
117,1120001274670,新規,0,2025-04-17,2025-04-17,森田産業株式会社,,株式会社,大阪府,大阪市西成区,旭３丁目４番２７号,,27,122,5570032,,,,,,,2025-04-17,1,,,,,モリタサンギョウ,0
120,1120003029107,新規,0,2025-04-17,2025-04-17,海之家合同会社,,合同会社,大阪府,大阪市東住吉区,矢田２丁目２０番９号ＰＡＮＳＨＯＮＣＬＥＡＲ２０９号,,27,121,5460023,,,,,,,2025-04-17,1,,,,,ウミノイエ,0
121,1120003029230,新規,0,2025-04-17,2025-04-17,Ｗａｋｕｂｕｙ合同会社,,合同会社,大阪府,大阪市中央区,南船場３丁目１１‐１０心斎橋大陽ビルＢ１Ｆ,,27,128,5420081,,,,,,,2025-04-17,1,,,,,ワクバイ,0
127,1122001039104,新規,0,2025-04-17,2025-04-17,株式会社トラベラーズバス,,株式会社,大阪府,八尾市,東山本新町９丁目１２番２５－２０３号,,27,212,5810866,,,,,,,2025-04-17,1,,,,,トラベラーズバス,0
132,1130001079375,新規,0,2025-04-17,2025-04-17,株式会社中弘クリエイト,,株式会社,京都府,京都市西京区,牛ケ瀬南ノ口町１番地ベルシャトウ桂川６０３,,26,111,6158045,,,,,,,2025-04-17,1,,,,,ナカヒロクリエイト,0
142,1140001138205,新規,0,2025-04-17,2025-04-17,株式会社後藤クリエイト,,株式会社,兵庫県,宝塚市,高松町１－７２,,28,214,6650043,,,,,,,2025-04-17,1,,,,,,0
143,1140003021953,新規,0,2025-04-17,2025-04-17,合同会社ディーエム,,合同会社,兵庫県,神戸市中央区,磯辺通１丁目１番１８号カサベラ国際プラザビル７０７号室,,28,110,6510084,,,,,,,2025-04-17,1,,,,,ディーエム,0
152,1180001166433,新規,0,2025-04-17,2025-04-17,ピナルークス株式会社,,株式会社,愛知県,名古屋市昭和区,長池町３丁目２４番地の３,,23,107,4660847,,,,,,,2025-04-17,1,,,,,ピナルークス,0
153,1180001166441,新規,0,2025-04-17,2025-04-17,株式会社ＫＳＫ,,株式会社,愛知県,名古屋市中区,新栄２丁目３９番２６号,,23,106,4600007,,,,,,,2025-04-17,1,,,,,ケーエスケー,0
154,1180003028334,新規,0,2025-04-17,2025-04-17,合同会社ＳｋｙＬｅａｐ,,合同会社,愛知県,名古屋市中村区,新富町４丁目１番１３号シャルマン・ロジェ３Ａ号,,23,105,4530031,,,,,,,2025-04-17,1,,,,,スカイリープ,0
156,1190001032171,新規,0,2025-04-17,2025-04-17,株式会社ＡＭ,,株式会社,三重県,三重郡菰野町,大字杉谷２３２８番地２９５,,24,341,5101326,,,,,,,2025-04-17,1,,,,,エーエム,0
159,1220001026624,新規,0,2025-04-17,2025-04-17,株式会社ＰＬＵＳ　ＷＡＶＥ,,株式会社,石川県,金沢市,大浦町ハ１９番地１,,17,201,9200205,,,,,,,2025-04-17,1,,,,,プラスウェーブ,0
165,1240001064812,新規,0,2025-04-17,2025-04-17,株式会社Ｂｅｅｔｅｃｈ　Ｍｅｔａｌ,,株式会社,広島県,福山市,神辺町大字川北１５０４番地３,,34,207,7202123,,,,,,,2025-04-17,1,,,,,ビーテックメタル,0
169,1270003001736,新規,0,2025-04-17,2025-04-17,Ｓ．ＨＡＣＫ合同会社,,合同会社,鳥取県,境港市,財ノ木町６５番１号,,31,204,6840054,,,,,,,2025-04-17,1,,,,,エスハック,0
177,1290001109653,新規,0,2025-04-17,2025-04-17,株式会社ＺＰ　Ｃａｐｉｔａｌ,,株式会社,福岡県,福岡市博多区,博多駅南１丁目２番２号,,40,132,8120016,,,,,,,2025-04-17,1,,,,,ゼットピーキャピタル,0
182,1290801031453,新規,0,2025-04-17,2025-04-17,株式会社ＬＯＧＩＬＩＮＥ,,株式会社,福岡県,北九州市若松区,本町１丁目５番１１号,,40,103,8080034,,,,,,,2025-04-17,1,,,,,ロジライン,0
183,1290801031461,新規,0,2025-04-17,2025-04-17,株式会社晴和,,株式会社,福岡県,北九州市八幡西区,光明１丁目１０番３号,,40,109,8070824,,,,,,,2025-04-17,1,,,,,ハルワ,0
187,1320001021029,新規,0,2025-04-17,2025-04-17,栗原建設株式会社,,株式会社,大分県,別府市,大字鶴見２１８３番地の１,,44,202,8740840,,,,,,,2025-04-17,1,,,,,クリハラケンセツ,0
199,1360001035074,新規,0,2025-04-17,2025-04-17,コーライフリゾート株式会社,,株式会社,沖縄県,豊見城市,字豊崎１番地８７７ＲｅｍａＳＯＣＩＡ・ＫＩＩＣ－２,00138817,47,212,9010225,,,,,,,2025-04-17,1,,,,,コーライフリゾート,0
201,1370003007054,新規,0,2025-04-17,2025-04-17,Ｙｕｍｍｙ’ｓ　Ｓｈａｒｅ合同会社,,合同会社,宮城県,仙台市宮城野区,新田２丁目１１番１号ハイツヴューＡ棟２０２,,04,102,9830038,,,,,,,2025-04-17,1,,,,,ヤミーズシェア,0
207,1430003017518,新規,0,2025-04-17,2025-04-17,熊屋合同会社,,合同会社,北海道,小樽市,奥沢３丁目８２－４３,,01,203,0470013,,,,,,,2025-04-17,1,,,,,クマヤ,0
219,1700150129988,新規,0,2025-04-17,2025-04-17,Ｋ．Ｔ．Ｒ．ＭＯＴＯＲＳ,,外国会社等,千葉県,山武市,木原１４００番地オフィス２Ａ,,12,237,2891212,スリランカ民主社会主義共和国、キャンディ、アクラナ、テルンブガハワッタ、Ｎｏ．２０７／Ａ,,,,,,2025-04-17,1,,,,,ケーテイアールモータース,0
231,2010005039881,新規,0,2025-04-17,2025-04-17,一般社団法人グローバルスマイルヘルス協会,,その他の設立登記法人,東京都,文京区,湯島１丁目８－４御茶ノ水山川ビル６０２号,,13,105,1130034,,,,,,,2025-04-17,1,,,,,グローバルスマイルヘルスキョウカイ,0
236,2010401189314,新規,0,2025-04-17,2025-04-17,株式会社おざきの経産牛,,株式会社,東京都,港区,白金台３丁目１９番６号白金台ビル４階アイアルマーズ株式会社内,,13,103,1080071,,,,,,,2025-04-17,1,,,,,オザキノケイサンギュウ,0
237,2010401189388,新規,0,2025-04-17,2025-04-17,エヴォリア・ホールディングス株式会社,,株式会社,東京都,港区,赤坂６丁目１０番４号,,13,103,1070052,,,,,,,2025-04-17,1,,,,,エヴォリアホールディングス,0
238,2010401189495,新規,0,2025-04-17,2025-04-17,ＤＤＤｅｅｐ　Ｊａｐａｎ株式会社,,株式会社,東京都,港区,北青山１丁目３－３三橋ビル３階,,13,103,1070061,,,,,,,2025-04-17,1,,,,,ディディディープジャパン,0
239,2010401189504,新規,0,2025-04-17,2025-04-17,株式会社Ｐｉｌａｔｉｑｕｅ,,株式会社,東京都,港区,北青山１丁目３－３三橋ビル３階,,13,103,1070061,,,,,,,2025-04-17,1,,,,,ピラティーク,0
240,2010401189529,新規,0,2025-04-17,2025-04-17,株式会社雪地牧場Ｓｎｏｗ　Ｌｉｆｅ,,株式会社,東京都,港区,芝２丁目２８－１１－５１１,,13,103,1050014,,,,,,,2025-04-17,1,,,,,ユキチボクジョウスノーライフ,0
241,2010401189586,新規,0,2025-04-17,2025-04-17,ＭＫ　Ｓｏｌｕｔｉｏｎ株式会社,,株式会社,東京都,港区,東新橋１丁目１番２１号,,13,103,1050021,,,,,,,2025-04-17,1,,,,,エムケイソリューション,0
247,2010601067146,新規,0,2025-04-17,2025-04-17,株式会社ＣＳＪ,,株式会社,東京都,江東区,富岡２丁目１番１０号４０１室,,13,108,1350047,,,,,,,2025-04-17,1,,,,,シーエスジェイ,0
249,2010603011523,新規,0,2025-04-17,2025-04-17,合同会社稲光社,,合同会社,東京都,江東区,三好２丁目９―９ブルーウッド三好１０１,,13,108,1350022,,,,,,,2025-04-17,1,,,,,イナビカリシャ,0
253,2010703007644,新規,0,2025-04-17,2025-04-17,Ｒｉｇｈｔ　Ｏｒｄｅｒ合同会社,,合同会社,東京都,品川区,二葉２丁目５－１４,,13,109,1420043,,,,,,,2025-04-17,1,,,,,ライトオーダー,0
258,2010901057193,新規,0,2025-04-17,2025-04-17,株式会社ＡｎｄＴ,,株式会社,東京都,世田谷区,上野毛４丁目３０番１－５０１号,,13,112,1580093,,,,,,,2025-04-17,1,,,,,アンドティー,0
259,2010903009853,新規,0,2025-04-17,2025-04-17,合同会社緑一創,,合同会社,東京都,世田谷区,成城３丁目９－９,,13,112,1570066,,,,,,,2025-04-17,1,,,,,リュウイーソウ,0
265,2011001169029,新規,0,2025-04-17,2025-04-17,株式会社ともえぎ,,株式会社,東京都,渋谷区,道玄坂１丁目１６－６二葉ビル８ｂ,,13,113,1500043,,,,,,,2025-04-17,1,,,,,トモエギ,0
266,2011001169144,新規,0,2025-04-17,2025-04-17,Ｅｎｔｒｕｓｔ　Ｈｏｍｅｓ株式会社,,株式会社,東京都,渋谷区,道玄坂１丁目１６‐６二葉ビル８ｂ,,13,113,1500043,,,,,,,2025-04-17,1,,,,,エントラストホームズ,0
273,2011403004675,新規,0,2025-04-17,2025-04-17,ユナホ合同会社,,合同会社,東京都,板橋区,小豆沢４丁目５番地１８号２０３号室,,13,119,1740051,,,,,,,2025-04-17,1,,,,,ユナホ,0
276,2011501031935,新規,0,2025-04-17,2025-04-17,山本福株式会社,,株式会社,東京都,荒川区,西日暮里１丁目６２－５－３０１,,13,118,1160013,,,,,,,2025-04-17,1,,,,,ヤマモトフク,0
277,2011501031951,新規,0,2025-04-17,2025-04-17,ラフ・メイカー株式会社,,株式会社,東京都,荒川区,南千住４丁目７番３－２７０５号,,13,118,1160003,,,,,,,2025-04-17,1,,,,,ラフメイカー,0
278,2011601028542,新規,0,2025-04-17,2025-04-17,株式会社大運産業,,株式会社,東京都,練馬区,西大泉４丁目２８番４号,,13,120,1780065,,,,,,,2025-04-17,1,,,,,ダイウンサンギョウ,0
279,2011603004673,新規,0,2025-04-17,2025-04-17,合同会社ファーストクラス,,合同会社,東京都,練馬区,練馬４丁目２４番１１号ＨａｌｅＬａｕｌｅ’ａ１０２,,13,120,1760001,,,,,,,2025-04-17,1,,,,,ファーストクラス,0
280,2011701028269,新規,0,2025-04-17,2025-04-17,Ｃｌｉｏ株式会社,,株式会社,東京都,江戸川区,東葛西６丁目２―１１エステート吉田２０１,,13,123,1340084,,,,,,,2025-04-17,1,,,,,クリオ,0
282,2011801045949,新規,0,2025-04-17,2025-04-17,Ｓｏｌｕｔｉｏ株式会社,,株式会社,東京都,足立区,舎人５丁目１３－２３－８０４,,13,121,1210831,,,,,,,2025-04-17,1,,,,,ソルティオ,0
284,2011803006809,新規,0,2025-04-17,2025-04-17,ＺＥＰＨＹＲ合同会社,,合同会社,東京都,葛飾区,堀切５丁目６番１－３０３号,,13,122,1240006,,,,,,,2025-04-17,1,,,,,ゼファー,0
287,2012701018813,新規,0,2025-04-17,2025-04-17,株式会社ＮＡＮＯ楽機,,株式会社,東京都,清瀬市,旭が丘２丁目１０－２旭ヶ丘ハイツ店舗１,,13,221,2040002,,,,,,,2025-04-17,1,,,,,ナノラッキ,0
288,2013101009675,新規,0,2025-04-17,2025-04-17,ＮＤＧ株式会社,,株式会社,東京都,羽村市,神明台２丁目４番地の１サンマンション羽村７０４,,13,227,2050023,,,,,,,2025-04-17,1,,,,,エヌディージー,0
290,2013303007626,新規,0,2025-04-17,2025-04-17,合同会社テクノグラウンド,,合同会社,東京都,豊島区,東池袋２丁目６２番８号ＢＩＧオフィスプラザ池袋１２０６,,13,116,1700013,,,,,,,2025-04-17,1,,,,,テクノグラウンド,0
295,2020001162075,新規,0,2025-04-17,2025-04-17,株式会社Ｔａｋｕｍｉ,,株式会社,神奈川県,横浜市中区,常盤町３丁目２２番地１リバティービル４Ｆ－Ｄ,,14,104,2310014,,,,,,,2025-04-17,1,,,,,タクミ,0
296,2020001162380,新規,0,2025-04-17,2025-04-17,株式会社アールエッジ,,株式会社,神奈川県,川崎市幸区,中幸町３丁目３１番２号ＤＡＩＫＹＯＫＥＮＫＩＫＡＷＡＳＡＫＩＢＬＤＧ．７－１５,,14,132,2120012,,,,,,,2025-04-17,1,,,,,アールエッジ,0
297,2020001162447,新規,0,2025-04-17,2025-04-17,株式会社スマートライフユニバーシティー,,株式会社,神奈川県,横浜市西区,高島１丁目２番５号,,14,103,2200011,,,,,,,2025-04-17,1,,,,,スマートライフユニバーシティー,0
301,2020005016806,新規,0,2025-04-17,2025-04-17,特定非営利活動法人コアラちとせ,,その他の設立登記法人,神奈川県,川崎市高津区,千年２３１番地１６,,14,134,2130022,,,,,,,2025-04-17,1,,,,,コアラチトセ,0
304,2021003015873,新規,0,2025-04-17,2025-04-17,合同会社金鳳人財育成,,合同会社,神奈川県,鎌倉市,浄明寺２丁目２番２６号,,14,204,2480003,,,,,,,2025-04-17,1,,,,,キンホウジンザイイクセイ,0
312,2030003026608,新規,0,2025-04-17,2025-04-17,ＭＩＺＵＨＯデジタルサポート合同会社,,合同会社,埼玉県,川口市,大字安行慈林９５７番地の１４,,11,203,3340071,,,,,,,2025-04-17,1,,,,,ミズホデジタルサポート,0
314,2040003027332,新規,0,2025-04-17,2025-04-17,合同会社Ｓｕｇａｒ　Ｈｏｕｓｅ　Ｃｏｎｓｕｌｔｉｎｇ,,合同会社,千葉県,印西市,美瀬１丁目２４－８,,12,231,2701607,,,,,,,2025-04-17,1,,,,,シュガーハウスコンサルティング,0
315,2040005022728,新規,0,2025-04-17,2025-04-17,外国人育成協同組合,,その他の設立登記法人,千葉県,市川市,八幡２丁目９番１５号ブラッサムフォーラム市川,,12,203,2720021,,,,,,,2025-04-17,1,,,,,,0
333,2100001038515,新規,0,2025-04-17,2025-04-17,株式会社ＭＯＴＴＡＩＮＡＩ,,株式会社,長野県,長野市,大字柳原１８６８－３,,20,201,3810012,,,,,,,2025-04-17,1,,,,,モッタイナイ,0
334,2100001038523,新規,0,2025-04-17,2025-04-17,株式会社ＴＭ　ｃｏｍｐａｎｙ,,株式会社,長野県,須坂市,旭ケ丘１番地２２,,20,207,3820003,,,,,,,2025-04-17,1,,,,,ティエムカンパニー,0
337,2110005017209,新規,0,2025-04-17,2025-04-17,新潟にしかん商工会,,その他の設立登記法人,新潟県,新潟市西蒲区,巻甲２５７６番地３,,15,108,9530041,,,,,,新潟県新潟市西蒲区巻甲２５７６番地３巻商工会（6110005002842）と新潟市西蒲区曽根１６８番地１３西川商工会（3110005002498）と新潟市西蒲区西中８８９番地１岩室商工会（5110005002496）と新潟市西蒲区中之口６８８番地１中之口商工会（4110005002497）と新潟市西蒲区三方２４番地潟東商工会（2110005002499）の合併により設立,2025-04-17,1,,,,,ニイガタニシカン,0
344,2120001274505,新規,0,2025-04-17,2025-04-17,株式会社プラウデストグループホールディングス,,株式会社,大阪府,大阪市北区,曾根崎新地２丁目１番２３号ＪＰＲ堂島ビル,,27,127,5300002,,,,,,,2025-04-17,1,,,,,プラウデストグループホールディングス,0
345,2120001274637,新規,0,2025-04-17,2025-04-17,株式会社ＨＣリビングサポート,,株式会社,大阪府,大阪市城東区,関目６丁目１３番１８号ＨＣビルディング関目３０１,,27,118,5360008,,,,,,,2025-04-17,1,,,,,エイチシーリビングサポート,0
346,2120001274653,新規,0,2025-04-17,2025-04-17,株式会社エンブレス,,株式会社,大阪府,大阪市東住吉区,西今川２丁目９－２０,,27,121,5460042,,,,,,,2025-04-17,1,,,,,エンブレス,0
347,2120001274661,新規,0,2025-04-17,2025-04-17,株式会社オー・ジー・アイ,,株式会社,大阪府,大阪市西区,立売堀１丁目５番２号,,27,106,5500012,,,,,,,2025-04-17,1,,,,,オージーアイ,0
348,2120001274678,新規,0,2025-04-17,2025-04-17,播磨塗装株式会社,,株式会社,大阪府,大阪市住吉区,我孫子西２丁目４－１５東和ハイツ１Ｄ号室,,27,120,5580015,,,,,,,2025-04-17,1,,,,,ハリマトソウ,0
354,2120101071471,新規,0,2025-04-17,2025-04-17,＿埼株式会社,00138820,株式会社,大阪府,堺市堺区,南旅篭町東４－５－１５－２０１,,27,141,5900000,,,,,,,2025-04-17,1,,,,,ニサイ,0
355,2120103006392,新規,0,2025-04-17,2025-04-17,１９９９合同会社,,合同会社,大阪府,和泉市,室堂町２８８－６－１０２号,,27,219,5941101,,,,,,,2025-04-17,1,,,,,イチキュキュキュ,0
356,2120901050658,新規,0,2025-04-17,2025-04-17,クリエイト研究会株式会社,,株式会社,大阪府,茨木市,別院町４番２０号中村ビル,,27,211,5670817,,,,,,,2025-04-17,1,,,,,クリエイトケンキュウカイ,0
367,2140003021952,新規,0,2025-04-17,2025-04-17,合同会社Ｈリンクス,,合同会社,兵庫県,神戸市兵庫区,荒田町４丁目１９番１１号,,28,105,6520032,,,,,,,2025-04-17,1,,,,,エイチリンクス,0
370,2140005027477,新規,0,2025-04-17,2025-04-17,特定非営利活動法人結居,,その他の設立登記法人,兵庫県,明石市,北朝霧丘１丁目１６２９番地４６号フレグランスエスパＡ・ＢＢ１０５,,28,203,6730857,,,,,,,2025-04-17,1,,,,,ユイ,0
371,2150001028049,新規,0,2025-04-17,2025-04-17,株式会社松本構造設計事務所,,株式会社,奈良県,奈良市,千代ヶ丘２丁目７番地の３９,,29,201,6310045,,,,,,,2025-04-17,1,,,,,マツモトコウゾウセッケイジムショ,0
375,2180001166416,新規,0,2025-04-17,2025-04-17,株式会社ＭＫサポート,,株式会社,愛知県,あま市,花長川内３７番地２,,23,237,4901204,,,,,,,2025-04-17,1,,,,,エムケイサポート,0
378,2180003028267,新規,0,2025-04-17,2025-04-17,合同会社ＳＵＮＲＩＳＥ,,合同会社,愛知県,一宮市,大江１丁目１２番１５号,,23,203,4910851,,,,,,,2025-04-17,1,,,,,サンライズ,0
382,2180303006534,新規,0,2025-04-17,2025-04-17,ＥＳＡＶＯ合同会社,,合同会社,愛知県,新城市,牛倉字梛５６番地,00138811,23,221,4411303,,,,,,,2025-04-17,1,,,,,エスアボ,0
385,2200003006773,新規,0,2025-04-17,2025-04-17,合同会社つむぐ工芸舎,,合同会社,岐阜県,各務原市,那加桜町２丁目１４番地,,21,213,5040912,,,,,,,2025-04-17,1,,,,,ツムグコウゲイシャ,0
389,2220001026623,新規,0,2025-04-17,2025-04-17,株式会社高木工務店,,株式会社,石川県,金沢市,出雲町イ１４１番地２,,17,201,9200056,,,,,,,2025-04-17,1,,,,,タカギコウムテン,0
391,2220005008948,新規,0,2025-04-17,2025-04-17,医療法人みんま会,,その他の設立登記法人,石川県,金沢市,窪７丁目２５８番地,,17,201,9218151,,,,,,,2025-04-17,1,,,,,ミンマカイ,0
399,2260005011469,新規,0,2025-04-17,2025-04-17,一般社団法人倉敷新医療開発基盤,,その他の設立登記法人,岡山県,倉敷市,幸町３番２３号友田マンション２０６号室,,33,202,7100051,,,,,,,2025-04-17,1,,,,,クラシキシンイリョウカイハツキバン,0
400,2270001009185,新規,0,2025-04-17,2025-04-17,リライアブルワークス株式会社,,株式会社,鳥取県,米子市,米原４丁目１番２２号,,31,202,6830804,,,,,,,2025-04-17,1,,,,,リライアブルワークス,0
401,2270003001735,新規,0,2025-04-17,2025-04-17,合同会社ＳＡＮＤ,,合同会社,鳥取県,八頭郡八頭町,日田５６５,,31,329,6800603,,,,,,,2025-04-17,1,,,,,サンド,0
412,2290003016731,新規,0,2025-04-17,2025-04-17,ＦＲＥＡＫＹ合同会社,,合同会社,福岡県,福岡市南区,柏原６丁目６２番４ー２０４号デュオ柏原４号棟,,40,134,8111353,,,,,,,2025-04-17,1,,,,,フリーキー,0
421,2330005010901,新規,0,2025-04-17,2025-04-17,一般社団法人熊本県パルクール協会,,その他の設立登記法人,熊本県,熊本市東区,御領６丁目２番１９号,,43,102,8618035,,,,,,,2025-04-17,1,,,,,,0
426,2350003004911,新規,0,2025-04-17,2025-04-17,合同会社啓明会,,合同会社,宮崎県,都城市,若葉町７３－３－６,,45,202,8850054,,,,,,,2025-04-17,1,,,,,ケイメイカイ,0
429,2360001035024,新規,0,2025-04-17,2025-04-17,株式会社宮古島ピース,,株式会社,沖縄県,宮古島市,平良字西里１８８２番地８,,47,214,9060012,,,,,,,2025-04-17,1,,,,,ミヤコジマピース,0
431,2370003007037,新規,0,2025-04-17,2025-04-17,糸己合同会社,,合同会社,宮城県,仙台市宮城野区,鶴ケ谷東２丁目５番２４号,,04,102,9830826,,,,,,,2025-04-17,1,,,,,イトミ,0
432,2370005010947,新規,0,2025-04-17,2025-04-17,一般社団法人ガイドの力で日本の観光を盛り上げるプロジェクト,,その他の設立登記法人,宮城県,仙台市宮城野区,宮千代２丁目１番２号アイランドビル３階,,04,102,9830044,,,,,,,2025-04-17,1,,,,,ガイドノチカラデニホンノカンコウヲモリアゲルプロジェクト,0
448,2430001094153,新規,0,2025-04-17,2025-04-17,株式会社ＲＥ．,,株式会社,北海道,札幌市西区,二十四軒三条２丁目６－１９,,01,107,0630803,,,,,,,2025-04-17,1,,,,,アールイー,0
450,2430003017517,新規,0,2025-04-17,2025-04-17,ＳＫＹ　ＭＡＮＡＧＥＭＥＮＴ　ＣＯＮＳＵＬ　ＪＡＰＡＮ合同会社,,合同会社,北海道,千歳市,高台６丁目４番３号,,01,224,0660035,,,,,,,2025-04-17,1,,,,,スカイマネジメントコンサルジャパン,0
456,2470001020675,新規,0,2025-04-17,2025-04-17,株式会社ＨＡＲＵ,,株式会社,香川県,高松市,多肥上町１８４５番地２０,,37,201,7618076,,,,,,,2025-04-17,1,,,,,ハル,0
457,2480005007081,新規,0,2025-04-17,2025-04-17,一般社団法人まちづくりＫＯＫＵＦＵ,,その他の設立登記法人,徳島県,徳島市,国府町府中６３７番地の１,,36,201,7793122,,,,,,,2025-04-17,1,,,,,マチヅクリコクフ,0
459,2700150129987,新規,0,2025-04-17,2025-04-17,Ｂ．Ｍ．ＭＯＴＯＲＳ,,外国会社等,茨城県,日立市,金沢町４丁目６０オフィス４Ａ,,08,202,3160015,スリランカ民主社会主義共和国、キャンディ、マハイヤワ、Ｎｏ．４３２,,,,,,2025-04-17,1,,,,,ビーエムモータース,0
466,3010001253907,新規,0,2025-04-17,2025-04-17,株式会社Ｙｏｂｏｕ,,株式会社,東京都,文京区,本郷６丁目２５番１４号,,13,105,1130033,,,,,,,2025-04-17,1,,,,,ヨボウ,0
467,3010003047092,新規,0,2025-04-17,2025-04-17,Ｄｏｕｂｌｅ　Ｒ　Ｃｏｍｐａｎｙ合同会社,,合同会社,東京都,中央区,日本橋横山町３番１号,,13,102,1030003,,,,,,,2025-04-17,1,,,,,ダブルアールカンパニー,0
474,3010401189701,新規,0,2025-04-17,2025-04-17,株式会社シオアリトルデザイン,,株式会社,東京都,港区,新橋４丁目１４－１新橋ＡＵＮＢＬＤＧ４階,,13,103,1050004,,,,,,,2025-04-17,1,,,,,シオアリトルデザイン,0
475,3010401189791,新規,0,2025-04-17,2025-04-17,株式会社ＲＩＣ　ＭＥＤＩＡ,,株式会社,東京都,港区,六本木５丁目２番１号ほうらいやビル８階,,13,103,1060032,,,,,,,2025-04-17,1,,,,,リックメディア,0
477,3010403034797,新規,0,2025-04-17,2025-04-17,合同会社防災関係サービス,,合同会社,東京都,港区,六本木６丁目３－１六本木ヒルズクロスポイント９０３,,13,103,1060032,,,,,,,2025-04-17,1,,,,,ボウサイカンケイサービス,0
478,3010403034888,新規,0,2025-04-17,2025-04-17,合同会社シルバーブロッサム,,合同会社,東京都,港区,虎ノ門３丁目２２番１０－２０１号,,13,103,1050001,,,,,,,2025-04-17,1,,,,,シルバーブロッサム,0
479,3010403034896,新規,0,2025-04-17,2025-04-17,合同会社Ｅ‐ＯＮＥ　Ａｓｓｅｔ　Ｍａｎａｇｅｍｅｎｔ,,合同会社,東京都,港区,六本木６丁目１０番１号六本木ヒルズ森タワー１６階,,13,103,1060032,,,,,,,2025-04-17,1,,,,,イーワンアセットマネジメント,0
480,3010403034905,新規,0,2025-04-17,2025-04-17,合同会社Ｍａｇｎａ　Ｇｒｅｃｉａ,,合同会社,東京都,港区,南青山２丁目１０番８号ＭＤＡｏｙａｍａ４階,,13,103,1070062,,,,,,,2025-04-17,1,,,,,マグナグレシア,0
485,3010603011522,新規,0,2025-04-17,2025-04-17,合同会社Ｌｏｎｇ　Ｖａｃａｔｉｏｎ,,合同会社,東京都,江東区,大島５丁目１２－１７－１０１,,13,108,1360072,,,,,,,2025-04-17,1,,,,,ロングバケーション,0
486,3010701047550,新規,0,2025-04-17,2025-04-17,株式会社Ｉｓｌａｎｄ,,株式会社,東京都,品川区,豊町１丁目１４番９号ｄｕｌｃｅ２０３,,13,109,1420042,,,,,,,2025-04-17,1,,,,,アイランド,0
492,3010901057184,新規,0,2025-04-17,2025-04-17,株式会社ＭＯＲＥ　ＧＲＥＥＮ,,株式会社,東京都,世田谷区,弦巻３丁目２４番地１２－２０９号,,13,112,1540016,,,,,,,2025-04-17,1,,,,,モアグリーン,0
493,3010901057192,新規,0,2025-04-17,2025-04-17,株式会社ＨＡＲＵ,,株式会社,東京都,世田谷区,八幡山１丁目１７番１７号,,13,112,1560056,,,,,,,2025-04-17,1,,,,,ハル,0
494,3010903009852,新規,0,2025-04-17,2025-04-17,合同会社Ｙｕ,,合同会社,東京都,世田谷区,等々力５丁目２３番２０号－２,,13,112,1580082,,,,,,,2025-04-17,1,,,,,ユウ,0
502,3011003021368,新規,0,2025-04-17,2025-04-17,ＳＡＳＳＯ　Ｆｉｌｍ合同会社,,合同会社,東京都,目黒区,緑が丘１丁目３番２２号,,13,110,1520034,,,,,,,2025-04-17,1,,,,,サッソフィルム,0
503,3011101111475,新規,0,2025-04-17,2025-04-17,ＡＧＯ　ＭＡＲＫＥＴＩＮＧ株式会社,,株式会社,東京都,新宿区,西新宿３丁目３番１３号西新宿水間ビル２Ｆ,,13,104,1600023,,,,,,,2025-04-17,1,,,,,エージーオーマーケティング,0
506,3011103015781,新規,0,2025-04-17,2025-04-17,合同会社ＷＡＴＡ,,合同会社,東京都,新宿区,西新宿３丁目３番１３号西新宿水間ビル６階,,13,104,1600023,,,,,,,2025-04-17,1,,,,,ワタ,0
516,3011603004672,新規,0,2025-04-17,2025-04-17,合同会社ｓｈｉｏｓａｉ,,合同会社,東京都,練馬区,平和台１丁目１４番１６号,,13,120,1790083,,,,,,,2025-04-17,1,,,,,シオサイ,0
520,3011801045948,新規,0,2025-04-17,2025-04-17,東成株式会社,,株式会社,東京都,足立区,佐野２丁目２３－１９,,13,121,1210053,,,,,,,2025-04-17,1,,,,,トウセイ,0
521,3011803006808,新規,0,2025-04-17,2025-04-17,諏訪山企画合同会社,,合同会社,東京都,足立区,保木間５丁目１３番５号ヴェルデ２０３,,13,121,1210064,,,,,,,2025-04-17,1,,,,,スワヤマキカク,0
523,3012803003704,新規,0,2025-04-17,2025-04-17,ＹＯＵＲＷＯＬ合同会社,,合同会社,東京都,立川市,錦町１丁目４－４サニービル２ＦＣＳ－２３６,,13,202,1900022,,,,,,,2025-04-17,1,,,,,ユアウォル,0
524,3013301053910,新規,0,2025-04-17,2025-04-17,株式会社義建,,株式会社,東京都,豊島区,池袋３丁目４４番３号ヴァローレクオリタ池袋３０１号,,13,116,1710014,,,,,,,2025-04-17,1,,,,,ギケン,0
526,3013303007625,新規,0,2025-04-17,2025-04-17,和歌山紀の川蓄電池発電所合同会社,,合同会社,東京都,豊島区,北大塚２丁目１２番８号,,13,116,1700004,,,,,,,2025-04-17,1,,,,,ワカヤマキノカワチクデンチハツデンショ,0
537,3020005016805,新規,0,2025-04-17,2025-04-17,一般社団法人ジョガスポーツカレッジ,,その他の設立登記法人,神奈川県,横浜市青葉区,たちばな台１丁目１１番地９カームステージ青葉台３２４,,14,117,2270046,,,,,,,2025-04-17,1,,,,,ジョガスポーツカレッジ,0
538,3021001085001,新規,0,2025-04-17,2025-04-17,株式会社ＦＯＲＴＨ,,株式会社,神奈川県,藤沢市,片瀬海岸１丁目２番２６号,,14,205,2510035,,,,,,,2025-04-17,1,,,,,フォース,0
548,3030001165984,新規,0,2025-04-17,2025-04-17,株式会社ＳＨＯＢＩ,,株式会社,埼玉県,川口市,青木５丁目２３番１９号２Ｆ,,11,203,3320031,,,,,,,2025-04-17,1,,,,,ショウビ,0
549,3030001166025,新規,0,2025-04-17,2025-04-17,ＧＢ株式会社,,株式会社,埼玉県,越谷市,神明町１丁目１９７番地１０,,11,222,3430805,,,,,,,2025-04-17,1,,,,,ジービー,0
556,3030003026607,新規,0,2025-04-17,2025-04-17,プリサイス合同会社,,合同会社,埼玉県,さいたま市大宮区,桜木町２丁目３番地大宮マルイ７階,,11,103,3300854,,,,,,,2025-04-17,1,,,,,プリサイス,0
561,3060001038106,新規,0,2025-04-17,2025-04-17,なないろ企画株式会社,,株式会社,栃木県,下都賀郡野木町,大字友沼１８番地２,,09,364,3290101,,,,,,,2025-04-17,1,,,,,ナナイロキカク,0
562,3070005010381,新規,0,2025-04-17,2025-04-17,ＮＰＯ法人Ｆｌａｔ‐ふらっとー,,その他の設立登記法人,群馬県,みどり市,笠懸町西鹿田１６番地５,,10,212,3792314,,,,,,,2025-04-17,1,,,,,,0
564,3080101025448,新規,0,2025-04-17,2025-04-17,株式会社縁心,,株式会社,静岡県,富士市,今泉３３９１番地の７,,22,210,4170001,,,,,,,2025-04-17,1,,,,,エニシ,0
570,3080403005247,新規,0,2025-04-17,2025-04-17,合同会社ｓＩｎ,,合同会社,静岡県,浜松市浜名区,引佐町金指１１７５番地の１,,22,139,4312213,,,,,,,2025-04-17,1,,,,,シン,0
580,3120001274371,新規,0,2025-04-17,2025-04-17,株式会社アイフリー,,株式会社,大阪府,大阪市住吉区,我孫子３丁目５番２０号プラザ志ビル４Ｆ,,27,120,5580014,,,,,,,2025-04-17,1,,,,,アイフリー,0
581,3120001274413,新規,0,2025-04-17,2025-04-17,株式会社メディカルマッスルイノベーション,,株式会社,大阪府,大阪市阿倍野区,松崎町４丁目１０番６号隅田政ビル４０１号,,27,119,5450053,,,,,,,2025-04-17,1,,,,,メディカルマッスルイノベーション,0
582,3120001274628,新規,0,2025-04-17,2025-04-17,美清株式会社,,株式会社,大阪府,門真市,打越町１２番９号,,27,223,5710029,,,,,,,2025-04-17,1,,,,,ビセイ,0
583,3120001274636,新規,0,2025-04-17,2025-04-17,株式会社ＣＹ,,株式会社,大阪府,大阪市生野区,鶴橋５丁目１９番４号,,27,116,5440031,,,,,,,2025-04-17,1,,,,,シーワイ,0
584,3120001274652,新規,0,2025-04-17,2025-04-17,株式会社フリーファンクション,,株式会社,大阪府,大阪市北区,梅田１丁目２番２号大阪駅前第２ビル１２－１２,,27,127,5300001,,,,,,,2025-04-17,1,,,,,フリーファンクション,0
585,3120001274669,新規,0,2025-04-17,2025-04-17,株式会社カイザ,,株式会社,大阪府,大阪市中央区,南久宝寺町３丁目２番１１号スワン大阪第３ビル８Ｆ,,27,128,5410058,,,,,,,2025-04-17,1,,,,,カイザ,0
588,3120003029138,新規,0,2025-04-17,2025-04-17,合同会社桜の街の広告社,,合同会社,大阪府,大阪市阿倍野区,昭和町５丁目１０－２４西田辺駅前ビル２０６,,27,119,5450011,,,,,,,2025-04-17,1,,,,,サクラノマチノコウコクシャ,0
591,3120101071479,新規,0,2025-04-17,2025-04-17,株式会社ななつのにじ,,株式会社,大阪府,堺市西区,浜寺石津町西４丁２５－２１,,27,144,5928333,,,,,,,2025-04-17,1,,,,,ナナツノニジ,0
596,3122001039085,新規,0,2025-04-17,2025-04-17,株式会社コヤナギ,,株式会社,大阪府,八尾市,青山町３丁目７番５号フローラ青山１０２,,27,212,5810018,,,,,,,2025-04-17,1,,,,,コヤナギ,0
597,3122003003171,新規,0,2025-04-17,2025-04-17,合同会社ＲＯＣ,,合同会社,大阪府,大東市,北条７丁目１１－６グリーンマンション１０５,,27,218,5740011,,,,,,,2025-04-17,1,,,,,アールオーシー,0
603,3130001079448,新規,0,2025-04-17,2025-04-17,株式会社ＧｌｏｂｅＮｅｘｕｓ,,株式会社,京都府,京都市上京区,室町通下立売上る勘解由小路町１５２番地プランドール御所西３０２,,26,102,6028014,,,,,,,2025-04-17,1,,,,,グローブネクサス,0
610,3140001138203,新規,0,2025-04-17,2025-04-17,株式会社サンハーツ,,株式会社,兵庫県,加古川市,尾上町池田１８４２－４,,28,210,6750023,,,,,,,2025-04-17,1,,,,,サンハーツ,0
613,3140003021935,新規,0,2025-04-17,2025-04-17,マクソン合同会社,,合同会社,兵庫県,神戸市中央区,大日通６丁目１番８号,,28,110,6510064,,,,,,,2025-04-17,1,,,,,マクソン,0
614,3140003021943,新規,0,2025-04-17,2025-04-17,合同会社和久田書房,,合同会社,兵庫県,神戸市垂水区,塩屋町３丁目１－３,,28,108,6550872,,,,,,,2025-04-17,1,,,,,ワクダショボウ,0
617,3140005027476,新規,0,2025-04-17,2025-04-17,特定非営利活動法人つくも,,その他の設立登記法人,兵庫県,尼崎市,南塚口町３丁目１０番３号１Ａ,,28,202,6610012,,,,,,,2025-04-17,1,,,,,ツクモ,0
622,3180001166357,新規,0,2025-04-17,2025-04-17,ランドメイト株式会社,,株式会社,愛知県,名古屋市緑区,大高町字寅新田８０－２,00138813,23,114,4598001,,,,,,,2025-04-17,1,,,,,ランドメイト,0
623,3180001166423,新規,0,2025-04-17,2025-04-17,ブリック株式会社,,株式会社,愛知県,一宮市,若竹３丁目４番１２号,,23,203,4910832,,,,,,,2025-04-17,1,,,,,ブリック,0
625,3180005021062,新規,0,2025-04-17,2025-04-17,一般社団法人ＡＣＥ　ＦＡＲＭ,,その他の設立登記法人,愛知県,春日井市,松本町２丁目３番地７,,23,206,4870027,,,,,,,2025-04-17,1,,,,,エースファーム,0
626,3180303006533,新規,0,2025-04-17,2025-04-17,ＣＥＢＡＬＲＡＩ合同会社,,合同会社,愛知県,豊川市,豊川町止通２８番地の３,,23,207,4420033,,,,,,,2025-04-17,1,,,,,ケバルライ,0
633,3210001020139,新規,0,2025-04-17,2025-04-17,株式会社Ｒｅｖｉｖａｌ,,株式会社,福井県,坂井市,春江町藤鷲塚３７号１５番地の２,,18,210,9190411,,,,,,,2025-04-17,1,,,,,リバイバル,0
637,3220005008947,新規,0,2025-04-17,2025-04-17,一般社団法人瓦バンク,,その他の設立登記法人,石川県,小松市,園町ハ９６番地１,,17,203,9230801,,,,,,,2025-04-17,1,,,,,カワラバンク,0
640,3240001064819,新規,0,2025-04-17,2025-04-17,ＭＩＮＯＲＩ　Ｇｒｏｕｐ　Ｈｏｌｄｉｎｇｓ株式会社,,株式会社,広島県,広島市南区,仁保３丁目４２番６号,,34,103,7340026,,,,,,,2025-04-17,1,,,,,ミノリグループホールディングス,0
642,3250003003699,新規,0,2025-04-17,2025-04-17,合同会社ａｒａｔａ,,合同会社,山口県,山口市,小郡令和１丁目１番１号ＫＤＤＩ維新ホール１階産業交流スペースＭｅｇｒｉｂａ内,,35,203,7540041,,,,,,,2025-04-17,1,,,,,アラタ,0
655,3290003016730,新規,0,2025-04-17,2025-04-17,合同会社インファクト,,合同会社,福岡県,福岡市博多区,博多駅前１丁目２３番２号５Ｆ‐Ｂ,,40,132,8120011,,,,,,,2025-04-17,1,,,,,インファクト,0
656,3290801031451,新規,0,2025-04-17,2025-04-17,株式会社クラフト,,株式会社,福岡県,北九州市小倉南区,曽根北町７番４６号,,40,107,8000229,,,,,,,2025-04-17,1,,,,,クラフト,0
669,3360001035048,新規,0,2025-04-17,2025-04-17,株式会社サンリーフ琉球,,株式会社,沖縄県,中頭郡中城村,字南上原６７８－１華御殿邸宅南上原６０２号,,47,328,9012424,,,,,,,2025-04-17,1,,,,,サンリーフリュウキュウ,0
671,3380001035244,新規,0,2025-04-17,2025-04-17,株式会社杉也,,株式会社,福島県,西白河郡西郷村,大字小田倉字原中６１番地９,,07,461,9618061,,,,,,,2025-04-17,1,,,,,スギナリ,0
675,3380005012958,新規,0,2025-04-17,2025-04-17,特定非営利活動法人ＲＩＮ・ＲＩＮみらい,,その他の設立登記法人,福島県,いわき市,鹿島町久保字穂町１５番地の１,,07,204,9718144,,,,,,,2025-04-17,1,,,,,リンリンミライ,0
683,3430005015212,新規,0,2025-04-17,2025-04-17,特定非営利活動法人さっぽろ円山動物園サポートクラブ,,その他の設立登記法人,北海道,札幌市北区,北八条西３丁目札幌エルプラザ２階札幌市市民活動サポートセンター内事務ブースＮｏ．１９,,01,102,0600808,,,,,,,2025-04-17,1,,,,,サッポロマルヤマドウブツエンサポートクラブ,0
687,3462505000293,新規,0,2025-04-17,2025-04-17,一般社団法人すこっぷ,,その他の設立登記法人,北海道,野付郡別海町,別海旭町４３１番地９,,01,691,0860202,,,,,,,2025-04-17,1,,,,,スコップ,0
688,3470003002869,新規,0,2025-04-17,2025-04-17,合同会社にこいち,,合同会社,香川県,善通寺市,上吉田町８丁目５番地８,,37,204,7650011,,,,,,,2025-04-17,1,,,,,ニコイチ,0
691,3480001012794,新規,0,2025-04-17,2025-04-17,株式会社ＴＭＳＦ,,株式会社,徳島県,板野郡上板町,高瀬１０２８番地１,,36,405,7711347,,,,,,,2025-04-17,1,,,,,ティーエムエスエフ,0
693,3700150129986,新規,0,2025-04-17,2025-04-17,ＮＥＸＩＳ　ＭＯＴＯＲ　ＩＮＴＥＲＮＡＴＩＯＮＡＬ,,外国会社等,千葉県,大網白里市,細草１４１２番地１１Ａ,,12,239,2993211,スリランカ民主社会主義共和国、ミーリガマ、ネリガマ、アルスワッタ、Ｎｏ．５０,,,,,,2025-04-17,1,,,,,ネクシスモーターインターナシヨナル,0
706,4010003047109,新規,0,2025-04-17,2025-04-17,プハントン・ドゥ・グラシエ・ジャパン合同会社,,合同会社,東京都,中央区,銀座１丁目１２番４号Ｎ＆ＥＢＬＤ．６Ｆ,,13,102,1040061,,,,,,,2025-04-17,1,,,,,プハントンドゥグラシエジャパン,0
712,4010005039896,新規,0,2025-04-17,2025-04-17,弁護士法人アルファパートナーズ法律事務所,,その他の設立登記法人,東京都,千代田区,有楽町１丁目７番１号有楽町電気ビルヂング北館１２０１,,13,101,1000006,,,,,,,2025-04-17,1,,,,,アルファパートナーズホウリツジムショ,0
722,4010401189485,新規,0,2025-04-17,2025-04-17,株式会社Ｃｌｉｎｏｖａｔｅ,,株式会社,東京都,港区,高輪１丁目２３－２３－１９０９,,13,103,1080074,,,,,,,2025-04-17,1,,,,,クリノベート,0
723,4010401189535,新規,0,2025-04-17,2025-04-17,ブーストコンサルティング株式会社,,株式会社,東京都,港区,虎ノ門５丁目９番１号,,13,103,1050001,,,,,,,2025-04-17,1,,,,,ブーストコンサルティング,0
724,4010401189774,新規,0,2025-04-17,2025-04-17,株式会社ＴＯＫＩＭＥＫＩ,,株式会社,東京都,港区,南青山１丁目１５番９号,,13,103,1070062,,,,,,,2025-04-17,1,,,,,トキメキ,0
729,4010403034854,新規,0,2025-04-17,2025-04-17,合同会社ＬＩＢ,,合同会社,東京都,港区,南青山３丁目１番３６号青山丸竹ビル６Ｆ,,13,103,1070062,,,,,,,2025-04-17,1,,,,,リブ,0
730,4010403034870,新規,0,2025-04-17,2025-04-17,Ｃｏｎｓｔｒａｉｎｔ合同会社,,合同会社,東京都,港区,南青山２丁目２－１５,,13,103,1070062,,,,,,,2025-04-17,1,,,,,コンストレイト,0
731,4010403034895,新規,0,2025-04-17,2025-04-17,合同会社Ｍ‐ＴＥＣＨ,,合同会社,東京都,港区,六本木６丁目１０番１号六本木ヒルズ森タワー１６階,,13,103,1060032,,,,,,,2025-04-17,1,,,,,エムテック,0
732,4010403034904,新規,0,2025-04-17,2025-04-17,合同会社ＪＡＮＳ,,合同会社,東京都,港区,南青山３丁目１５番４号カーサ青山２０１,,13,103,1070062,,,,,,,2025-04-17,1,,,,,ジャンズ,0
735,4010603011505,新規,0,2025-04-17,2025-04-17,合同会社森,,合同会社,東京都,墨田区,江東橋４丁目１８番８号小西ビル２階,,13,107,1300022,,,,,,,2025-04-17,1,,,,,,0
736,4010603011521,新規,0,2025-04-17,2025-04-17,合同会社ｐｙｚｙｘ,,合同会社,東京都,江東区,白河４丁目９番２５パークハウス清澄白河タワー２７０７号,,13,108,1350021,,,,,,,2025-04-17,1,,,,,フィジックス,0
742,4010901057183,新規,0,2025-04-17,2025-04-17,Ａｒｔｉｓｔ株式会社,,株式会社,東京都,世田谷区,鎌田３丁目１８－６シャルマン玉川１０２,,13,112,1570077,,,,,,,2025-04-17,1,,,,,アーティスト,0
745,4010905004768,新規,0,2025-04-17,2025-04-17,一般社団法人日本医科歯科連携推進協会,,その他の設立登記法人,東京都,世田谷区,上北沢３丁目６番２０号ＡＫハウス１０２,,13,112,1560057,,,,,,,2025-04-17,1,,,,,ニホンイカシカレンケイスイシンキョウカイ,0
755,4011003021350,新規,0,2025-04-17,2025-04-17,合同会社ユーリ,,合同会社,東京都,目黒区,下目黒１丁目１番１４号コノトラビル７Ｆ,,13,110,1530064,,,,,,,2025-04-17,1,,,,,ユーリ,0
756,4011003021490,新規,0,2025-04-17,2025-04-17,合同会社Ｄｅｎｇ　Ｃａｐｉｔａｌ,,合同会社,東京都,渋谷区,道玄坂１丁目１０番８号渋谷道玄坂東急ビル２Ｆ‐Ｃ,,13,113,1500043,,,,,,,2025-04-17,1,,,,,デンキャピタル,0
758,4011101111334,新規,0,2025-04-17,2025-04-17,株式会社Ｖｉｘｅｌ,,株式会社,東京都,新宿区,新宿２丁目１２番１３号新宿アントレサロンビル２階,,13,104,1600022,,,,,,,2025-04-17,1,,,,,ヴィクセル,0
759,4011101111342,新規,0,2025-04-17,2025-04-17,暖満興産株式会社,,株式会社,東京都,新宿区,西新宿６丁目１２番１６号天空ＭＵＲＡ４階４０６号室,,13,104,1600023,,,,,,,2025-04-17,1,,,,,ダンミツコウサン,0
762,4011401027024,新規,0,2025-04-17,2025-04-17,和風株式会社,,株式会社,東京都,板橋区,赤塚５丁目７番４号ハイムつちや２０６号室,,13,119,1750092,,,,,,,2025-04-17,1,,,,,ワフウ,0
764,4011403004673,新規,0,2025-04-17,2025-04-17,合同会社ジギー,,合同会社,東京都,板橋区,徳丸１丁目５６番１４号パークハウス２０１,,13,119,1750083,,,,,,,2025-04-17,1,,,,,ジギー,0
765,4011501031958,新規,0,2025-04-17,2025-04-17,株式会社麻喜商事,,株式会社,東京都,北区,赤羽１丁目７番９号,,13,117,1150045,,,,,,,2025-04-17,1,,,,,アサキショウジ,0
768,4011603004671,新規,0,2025-04-17,2025-04-17,合同会社ＴＯＰ,,合同会社,東京都,練馬区,田柄２丁目４２番１２号,,13,120,1790073,,,,,,,2025-04-17,1,,,,,トップ,0
770,4011801045971,新規,0,2025-04-17,2025-04-17,ＦＣ住興株式会社,,株式会社,東京都,足立区,入谷３丁目１０番１６号Ｂ号室,,13,121,1210836,,,,,,,2025-04-17,1,,,,,エフシージュウコウ,0
773,4011803006807,新規,0,2025-04-17,2025-04-17,エイケーセレクト合同会社,,合同会社,東京都,足立区,梅田８丁目１２番１０－８０１号,,13,121,1230851,,,,,,,2025-04-17,1,,,,,エイケーセレクト,0
774,4012701018803,新規,0,2025-04-17,2025-04-17,株式会社ＲＨＫＴ,,株式会社,東京都,西東京市,谷戸町３丁目２５番２号岩崎ビル２階,,13,229,1880001,,,,,,,2025-04-17,1,,,,,アールエイチケーティー,0
778,4013301054107,新規,0,2025-04-17,2025-04-17,株式会社ＳＵＮ＆Ｈｉ,,株式会社,東京都,豊島区,高田２丁目７番２号,,13,116,1710033,,,,,,,2025-04-17,1,,,,,サンアンドハイ,0
779,4013303007624,新規,0,2025-04-17,2025-04-17,滋賀東近江市蓄電池発電所合同会社,,合同会社,東京都,豊島区,北大塚２丁目１２番８号,,13,116,1700004,,,,,,,2025-04-17,1,,,,,シガヒガシオウミシチクデンチハツデンショ,0
789,4020003028248,新規,0,2025-04-17,2025-04-17,合同会社ドリコ,,合同会社,神奈川県,横浜市都筑区,北山田３丁目３番１１号,,14,118,2240021,,,,,,,2025-04-17,1,,,,,ドリコ,0
791,4020005016820,新規,0,2025-04-17,2025-04-17,司法書士法人ことら事務所,,その他の設立登記法人,神奈川県,横浜市磯子区,杉田３丁目２７番２９号,,14,107,2350033,,,,,,,2025-04-17,1,,,,,コトラジムショ,0
796,4021001084992,新規,0,2025-04-17,2025-04-17,株式会社プロテクトワンセルフ,,株式会社,神奈川県,伊勢原市,坪ノ内３９６番地の２,,14,214,2591104,,,,,,,2025-04-17,1,,,,,プロテクトワンセルフ,0
803,4030001166008,新規,0,2025-04-17,2025-04-17,株式会社都興業,,株式会社,埼玉県,川口市,大字石神８６４番地の１,,11,203,3330823,,,,,,,2025-04-17,1,,,,,ミヤココウギョウ,0
804,4030001166065,新規,0,2025-04-17,2025-04-17,株式会社ｒｅｆｅｔｓ,,株式会社,埼玉県,草加市,両新田西町１７０番地２,,11,221,3400027,,,,,,,2025-04-17,1,,,,,リフェッツ,0
812,4040001138229,新規,0,2025-04-17,2025-04-17,株式会社クリアエステート,,株式会社,千葉県,船橋市,湊町１丁目１－１,,12,204,2730011,,,,,,,2025-04-17,1,,,,,クリアエステート,0
815,4040003027280,新規,0,2025-04-17,2025-04-17,マルミツ合同会社,,合同会社,千葉県,旭市,足川１７９０番地,,12,215,2892522,,,,,,,2025-04-17,1,,,,,マルミツ,0
816,4040003027330,新規,0,2025-04-17,2025-04-17,合同会社虹雉,,合同会社,千葉県,松戸市,牧の原２丁目１番地３０１,,12,207,2702267,,,,,,,2025-04-17,1,,,,,ニジキジ,0
821,4080101025447,新規,0,2025-04-17,2025-04-17,幸地創建株式会社,,株式会社,静岡県,富士市,青葉町５４２番地１０２号室,,22,210,4160952,,,,,,,2025-04-17,1,,,,,コウチソウケン,0
823,4090005007689,新規,0,2025-04-17,2025-04-17,特定非営利活動法人夢舎・紬,,その他の設立登記法人,山梨県,甲府市,国母８丁目２４番７号,,19,201,4000043,,,,,,,2025-04-17,1,,,,,ユメヤツムギ,0
840,4120001274619,新規,0,2025-04-17,2025-04-17,株式会社イオ,,株式会社,大阪府,大阪市浪速区,元町１丁目１４番６号,,27,111,5560016,,,,,,,2025-04-17,1,,,,,イオ,0
841,4120001274627,新規,0,2025-04-17,2025-04-17,株式会社ＬｕＭｉｎａｔｏ,,株式会社,大阪府,大阪市北区,天神橋２丁目北２番２１－７０１号,,27,127,5300041,,,,,,,2025-04-17,1,,,,,ルミナト,0
842,4120001274643,新規,0,2025-04-17,2025-04-17,峰商事株式会社,,株式会社,大阪府,大阪市西区,土佐堀１丁目１番３２号日宝リバービル３０２,,27,106,5500001,,,,,,,2025-04-17,1,,,,,ミネショウジ,0
843,4120001274668,新規,0,2025-04-17,2025-04-17,岩田株式会社,,株式会社,大阪府,大阪市阿倍野区,松虫通１丁目３番３４号,,27,119,5450043,,,,,,,2025-04-17,1,,,,,イワタ,0
844,4120001274684,新規,0,2025-04-17,2025-04-17,旺辰商事株式会社,,株式会社,大阪府,大阪市生野区,新今里２丁目１３－２２－２０２号室,,27,116,5440001,,,,,,,2025-04-17,1,,,,,オウシンショウジ,0
845,4120001275006,新規,0,2025-04-17,2025-04-17,株式会社大晃小林,,株式会社,大阪府,大阪市福島区,野田１丁目１番８６号大阪市中央卸売市場市場東棟１階南２１,,27,103,5530005,,,,,,,2025-04-17,1,,,,,ダイコウコバヤシ,0
848,4120003029145,新規,0,2025-04-17,2025-04-17,合同会社ｓｙｎａｐｓｅ,,合同会社,大阪府,大阪市西区,北堀江１丁目１１－５ＲＥ－０１８－７階,,27,106,5500014,,,,,,,2025-04-17,1,,,,,シナプス,0
867,4140003021942,新規,0,2025-04-17,2025-04-17,合同会社河野計算センター,,合同会社,兵庫県,尼崎市,宮内町３丁目１３４番地の２,,28,202,6600877,,,,,,,2025-04-17,1,,,,,コウノケイサンセンター,0
869,4150001028047,新規,0,2025-04-17,2025-04-17,ワークスリンク株式会社,,株式会社,奈良県,香芝市,下田東３丁目２８番地１,,29,210,6390232,,,,,,,2025-04-17,1,,,,,ワークスリンク,0
870,4150003003568,新規,0,2025-04-17,2025-04-17,美ＴＲＵＳＴ合同会社,,合同会社,奈良県,大和高田市,大字出２－１,,29,202,6350043,,,,,,,2025-04-17,1,,,,,ビトラスト,0
875,4180001166422,新規,0,2025-04-17,2025-04-17,株式会社ｄｃ　ｆｏｒｗａｒｄ,,株式会社,愛知県,名古屋市中区,松原３丁目１２番５号,,23,106,4600017,,,,,,,2025-04-17,1,,,,,ディーシーフォワード,0
877,4180003028323,新規,0,2025-04-17,2025-04-17,合同会社ＪＩＣ,,合同会社,愛知県,名古屋市名東区,文教台２丁目８０５ＳＴＡＴＥＳ文教台４Ａ,,23,115,4650012,,,,,,,2025-04-17,1,,,,,ジェイアイシー,0
880,4180303006532,新規,0,2025-04-17,2025-04-17,合同会社三和通信工業,,合同会社,愛知県,岡崎市,伊賀町字７丁目１１１番地２シャンポール富士６０１,,23,202,4440075,,,,,,,2025-04-17,1,,,,,サンワツウシンコウギョウ,0
895,4240001064818,新規,0,2025-04-17,2025-04-17,株式会社ＤｉｇｉＮｅｓｔ,,株式会社,広島県,広島市中区,白島北町１０番１１号,,34,101,7300001,,,,,,,2025-04-17,1,,,,,デジネスト,0
898,4250001021099,新規,0,2025-04-17,2025-04-17,中森農産阿東株式会社,,株式会社,山口県,山口市,阿東篠目１００７番地１,,35,203,7591232,,,,,,,2025-04-17,1,,,,,ナカモリノウサンアトウ,0
899,4260001040123,新規,0,2025-04-17,2025-04-17,株式会社コムアンドハック,,株式会社,岡山県,岡山市中区,中井１丁目２番５号,,33,102,7038205,,,,,,,2025-04-17,1,,,,,コムアンドハック,0
913,4340003004828,新規,0,2025-04-17,2025-04-17,合同会社Ｈｅａｒｔ＆Ｐｉｅｃｅ,,合同会社,鹿児島県,薩摩川内市,永利町４１３４番地１６８,,46,215,8950005,,,,,,,2025-04-17,1,,,,,ハートアンドピース,0
914,4350001019488,新規,0,2025-04-17,2025-04-17,ＳｕｎＡＩ株式会社,,株式会社,宮崎県,宮崎市,源藤町８７２番地４アプリーリア３０６号,,45,201,8800927,,,,,,,2025-04-17,1,,,,,サンエイアイ,0
916,4400005008481,新規,0,2025-04-17,2025-04-17,一般社団法人岩手ｅスポーツ協会,,その他の設立登記法人,岩手県,盛岡市,中央通２丁目１－７岩手開連ビル３０１,,03,201,0200021,,,,,,,2025-04-17,1,,,,,イワテイースポーツキョウカイ,0
922,4470003002868,新規,0,2025-04-17,2025-04-17,合同会社ＬＩＢＥＲＴＹ,,合同会社,香川県,高松市,御厩町９２３番地６,,37,201,7618042,,,,,,,2025-04-17,1,,,,,,0
924,4490005006989,新規,0,2025-04-17,2025-04-17,一般社団法人Ｃｏｎｅｘｔｕｒｅ,,その他の設立登記法人,高知県,高知市,新本町２丁目４番地３,,39,201,7800062,,,,,,,2025-04-17,1,,,,,コネクチャー,0
926,4700150129993,新規,0,2025-04-17,2025-04-17,宏堯有限公司,,外国会社等,,,,,,,,Ｒｏｏｍ　Ａ，２１／Ｆ．，Ｇａｙｌｏｒｄ　Ｃｏｍｍｅｒｃｉａｌ　Ｂｕｉｌｄｉｎｇ，１１４－１１８　Ｌｏｃｋｈａｒｔ　Ｒｏａｄ，Ｗａｎｃｈａｉ，Ｈｏｎｇ　Ｋｏｎｇ,,,,,,2025-04-17,1,,,,,コウギヨウユウゲンコウシ,0
934,5010001254176,新規,0,2025-04-17,2025-04-17,株式会社Ｕ‐ｃｏｎｎｅｃｔ,,株式会社,東京都,千代田区,神田須田町１丁目７番８号ＶＯＲＴ秋葉原ＩＶ２Ｆ,00138818,13,101,1010041,,,,,,,2025-04-17,1,,,,,ユーコネクト,0
935,5010001254184,新規,0,2025-04-17,2025-04-17,株式会社アルコンジャパン,,株式会社,東京都,中央区,銀座６丁目１３番１６号銀座ＷａｌｌビルＵＣＦ５０１,,13,102,1040061,,,,,,,2025-04-17,1,,,,,アルコンジャパン,0
941,5010401189534,新規,0,2025-04-17,2025-04-17,株式会社六本木管理１４号,,株式会社,東京都,港区,六本木３丁目２番１号,,13,103,1060032,,,,,,,2025-04-17,1,,,,,ロッポンギカンリジュウヨンゴウ,0
942,5010401189658,新規,0,2025-04-17,2025-04-17,ｓｕｎｓｈｉｎｅ株式会社,,株式会社,東京都,港区,西新橋３丁目１４－５エラスムス虎ノ門３Ｆ,,13,103,1050003,,,,,,,2025-04-17,1,,,,,サンシャイン,0
943,5010401189699,新規,0,2025-04-17,2025-04-17,株式会社ＬａｕｎｄｒｙＲｉｃｅ,,株式会社,東京都,港区,高輪１丁目２６番１５号シャンぺトール高輪１０２号,,13,103,1080074,,,,,,,2025-04-17,1,,,,,ランドリーライス,0
944,5010401189716,新規,0,2025-04-17,2025-04-17,佳恩投資株式会社,,株式会社,東京都,港区,赤坂２丁目８番１４－４０７号,,13,103,1070052,,,,,,,2025-04-17,1,,,,,カオントウシ,0
945,5010401189724,新規,0,2025-04-17,2025-04-17,株式会社ＫＯＲＡＺＯＮ,,株式会社,東京都,港区,南青山２丁目２番１５号,,13,103,1070062,,,,,,,2025-04-17,1,,,,,コラゾン,0
946,5010401189798,新規,0,2025-04-17,2025-04-17,株式会社Ｐａｒｔ　Ｘ,,株式会社,東京都,港区,南青山３丁目１番３６号青山丸竹ビル６Ｆ,,13,103,1070062,,,,,,,2025-04-17,1,,,,,パートエックス,0
953,5010701009268,新規,0,2025-04-17,2025-04-17,マツダ電業株式会社,,株式会社,東京都,品川区,荏原６丁目１４番２０号,,13,109,1420063,,,,,,,2025-04-17,1,,,,,マツダデンギョウ,0
965,5011001168977,新規,0,2025-04-17,2025-04-17,株式会社ＳＮＹＰＥ　ＭＡＮＡＧＥＭＥＮＴ,,株式会社,東京都,渋谷区,道玄坂１丁目１２番１号渋谷マークシティＷ２２階,,13,113,1500043,,,,,,,2025-04-17,1,,,,,スナイプマネジメント,0
970,5011101111366,新規,0,2025-04-17,2025-04-17,茂洋株式会社,,株式会社,東京都,新宿区,大久保２丁目２５番１１号エレガンス新宿２０２号室,,13,104,1690072,,,,,,,2025-04-17,1,,,,,モヨウ,0
971,5011101111382,新規,0,2025-04-17,2025-04-17,株式会社Ｎｅｘｕｓ　Ｓｐｈｅｒｅ　Ｍａｎａｇｅｍｅｎｔ,,株式会社,東京都,新宿区,須賀町１０－８－２０５号,,13,104,1600018,,,,,,,2025-04-17,1,,,,,ネクサススフィアマネジメント,0
975,5011401026974,新規,0,2025-04-17,2025-04-17,ＢＳ株式会社,,株式会社,東京都,板橋区,志村１丁目２５番１８号プラザ・ドゥ・ジェロンド１０１,,13,119,1740056,,,,,,,2025-04-17,1,,,,,ビーエス,0
979,5011603004670,新規,0,2025-04-17,2025-04-17,合同会社ステイゴールド,,合同会社,東京都,練馬区,豊玉南３丁目１３番１５－２１２号,,13,120,1760014,,,,,,,2025-04-17,1,,,,,ステイゴールド,0
980,5011605002648,新規,0,2025-04-17,2025-04-17,一般社団法人ふたば相続・空き家相談センター,,その他の設立登記法人,東京都,練馬区,氷川台４丁目５４番２４号カーサマドレ１階,,13,120,1790084,,,,,,,2025-04-17,1,,,,,フタバソウゾクアキヤソウダンセンター,0
987,5012401042994,新規,0,2025-04-17,2025-04-17,株式会社Ｒ＆Ｔコーポレーション,,株式会社,東京都,小金井市,緑町５丁目２番１８－４０８号コート武蔵小金井マンション,,13,210,1840003,,,,,,,2025-04-17,1,,,,,アールアンドティーコーポレーション,0
994,5013301054097,新規,0,2025-04-17,2025-04-17,株式会社ＭＡＫ,,株式会社,東京都,豊島区,南大塚２丁目３２番８号,,13,116,1700005,,,,,,,2025-04-17,1,,,,,エムエーケー,0
995,5013303007623,新規,0,2025-04-17,2025-04-17,合同会社ＡＮＯＢＩ,,合同会社,東京都,豊島区,東池袋２丁目６２番８号ＢＩＧオフィスプラザ池袋１２０６,,13,116,1700013,,,,,,,2025-04-17,1,,,,,アノビ,0
999,5020001162287,新規,0,2025-04-17,2025-04-17,株式会社ライフイノベーション,,株式会社,神奈川県,横浜市港北区,日吉本町２丁目５７番１９号,,14,109,2230062,,,,,,,2025-04-17,1,,,,,ライフイノベーション,0
1000,5020001162337,新規,0,2025-04-17,2025-04-17,株式会社ＡｅｒｏＲｅｌｉａｎｃｅ,,株式会社,神奈川県,横浜市鶴見区,下野谷町４丁目１７５番地４０１,,14,101,2300047,,,,,,,2025-04-17,1,,,,,エアロリライアンス,0
1005,5020003028206,新規,0,2025-04-17,2025-04-17,Ｃｏｃｏａ　Ｃｏｌｌｅｃｔｉｏｎ合同会社,,合同会社,神奈川県,横浜市保土ケ谷区,西久保町４１－２,,14,106,2400022,,,,,,,2025-04-17,1,,,,,ココアコレクション,0
1006,5020003028288,新規,0,2025-04-17,2025-04-17,合同会社Ａｒｉｅｓ,,合同会社,神奈川県,横浜市磯子区,栗木２丁目１２番６号シャトルプリモディーネ２０３号,,14,107,2350041,,,,,,,2025-04-17,1,,,,,アリエス,0
1009,5021001084975,新規,0,2025-04-17,2025-04-17,株式会社ＤＬＸ,,株式会社,神奈川県,平塚市,札場町６番６－２号,,14,203,2540802,,,,,,,2025-04-17,1,,,,,ディーエルエックス,0
1010,5021001084991,新規,0,2025-04-17,2025-04-17,株式会社ピービーアイ,,株式会社,神奈川県,海老名市,東柏ケ谷４丁目８番３号,,14,215,2430401,,,,,,,2025-04-17,1,,,,,ピービーアイ,0
1019,5030001165990,新規,0,2025-04-17,2025-04-17,株式会社Ｄｉｖｅｒｓｉｔｙ,,株式会社,埼玉県,さいたま市見沼区,東大宮１丁目６番地９,,11,104,3370051,,,,,,,2025-04-17,1,,,,,ダイバーシティ,0
1020,5030001166015,新規,0,2025-04-17,2025-04-17,株式会社ソプデト,,株式会社,埼玉県,比企郡小川町,大字大塚４７６番地９,,11,343,3550328,,,,,,,2025-04-17,1,,,,,ソプデト,0
1021,5030001166048,新規,0,2025-04-17,2025-04-17,株式会社Ｍ’ｚ　ＣＯＮＮＥＣＴ,,株式会社,埼玉県,草加市,八幡町１２５番地５メゾン浅井Ｃ－１０１号,,11,221,3400006,,,,,,,2025-04-17,1,,,,,エムズコネクト,0
1027,5030003026588,新規,0,2025-04-17,2025-04-17,ＮＧＵＹＥＮ　ＶＵ合同会社,,合同会社,埼玉県,草加市,弁天６丁目８番４号,,11,221,3400004,,,,,,,2025-04-17,1,,,,,グエンヴ,0
1029,5040001138392,新規,0,2025-04-17,2025-04-17,ＥＡＳＴ株式会社,,株式会社,千葉県,千葉市稲毛区,六方町１０８番地４,,12,103,2630004,,,,,,,2025-04-17,1,,,,,イースト,0
1030,5040003027362,新規,0,2025-04-17,2025-04-17,合同会社Ａｌｉｚｅ,,合同会社,千葉県,千葉市美浜区,中瀬１丁目３番地,,12,106,2610023,,,,,,,2025-04-17,1,,,,,アリゼ,0
1033,5050003009194,新規,0,2025-04-17,2025-04-17,ＫＡＮＴＯ　ＨＯＬＤＩＮＧＳ合同会社,,合同会社,茨城県,石岡市,下林２０９２番地２６,,08,205,3150131,,,,,,,2025-04-17,1,,,,,カントウホールディングス,0
1035,5060001038112,新規,0,2025-04-17,2025-04-17,株式会社Ｍ’ｓ　ｗｏｒｋ,,株式会社,栃木県,那須塩原市,東栄２丁目６番３１号,,09,213,3250016,,,,,,,2025-04-17,1,,,,,エムズワーク,0
1040,5080003003442,新規,0,2025-04-17,2025-04-17,合同会社タビ,,合同会社,静岡県,静岡市葵区,春日２丁目６番５０４号,,22,101,4200823,,,,,,,2025-04-17,1,,,,,タビ,0
1042,5110005017206,新規,0,2025-04-17,2025-04-17,しばた商工会,,その他の設立登記法人,新潟県,新発田市,乙次４７５番地３,,15,206,9592323,,,,,,新潟県新発田市乙次４７５番地３豊浦商工会（1110005004637）と新潟県新発田市住田５１０番地加治川商工会（5110005004633）と新潟県新発田市稲荷岡２３７１番地紫雲寺商工会（3110005004635）の合併により設立,2025-04-17,1,,,,,シバタ,0
1048,5120001274601,新規,0,2025-04-17,2025-04-17,ライティング株式会社,,株式会社,大阪府,大阪市生野区,中川４丁目２番４－３０４号,,27,116,5440005,,,,,,,2025-04-17,1,,,,,ライティング,0
1049,5120001274650,新規,0,2025-04-17,2025-04-17,株式会社Ｔｒｅｅ．Ｂｅｌｌ,,株式会社,大阪府,大阪市中央区,谷町３丁目２番１４号,,27,128,5400012,,,,,,,2025-04-17,1,,,,,ツリードットベル,0
1050,5120001274659,新規,0,2025-04-17,2025-04-17,株式会社みのりエステート,,株式会社,大阪府,大阪市生野区,勝山北２丁目１２番１号,,27,116,5440033,,,,,,,2025-04-17,1,,,,,ミノリエステート,0
1051,5120001274675,新規,0,2025-04-17,2025-04-17,迅和株式会社,,株式会社,大阪府,大阪市生野区,鶴橋４丁目１２番１７号ポニーマンション２０２号,,27,116,5440031,,,,,,,2025-04-17,1,,,,,ジンワ,0
1054,5120003029144,新規,0,2025-04-17,2025-04-17,合同会社ｃｃｙａｍａｍｏｔｏ,,合同会社,大阪府,大阪市北区,天神橋２丁目４番２３号ハイツいちまつ６０２号室,,27,127,5300041,,,,,,,2025-04-17,1,,,,,シーシーヤマモト,0
1058,5120901050738,新規,0,2025-04-17,2025-04-17,Ａｉｌｌ　Ｃｏｎｓｕｌｔｉｎｇ株式会社,,株式会社,大阪府,豊中市,曽根東町２丁目１１―１―２２０,,27,203,5610802,,,,,,,2025-04-17,1,,,,,アイルコンサルティング,0
1062,5130003010342,新規,0,2025-04-17,2025-04-17,合同会社Ｂｔａｇ,,合同会社,京都府,京都市西京区,大枝西長町９－６グレースヒル大枝１０５号室,,26,111,6101151,,,,,,,2025-04-17,1,,,,,ビータッグ,0
1065,5130005017344,新規,0,2025-04-17,2025-04-17,特定非営利活動法人舞鶴の未来を創る会,,その他の設立登記法人,京都府,舞鶴市,字引土２９６番地,,26,202,6240841,,,,,,,2025-04-17,1,,,,,マイヅルノミライヲツクルカイ,0
1070,5140005027474,新規,0,2025-04-17,2025-04-17,一般社団法人ちいきと,,その他の設立登記法人,兵庫県,神戸市中央区,坂口通４丁目１番５号,,28,110,6510062,,,,,,,2025-04-17,1,,,,,チイキト,0
1071,5150001028046,新規,0,2025-04-17,2025-04-17,株式会社ｖｉｖｉｄｏｔ,,株式会社,奈良県,桜井市,大字慈恩寺２９６番地,,29,206,6330017,,,,,,,2025-04-17,1,,,,,ビビドット,0
1078,5180001166413,新規,0,2025-04-17,2025-04-17,株式会社ソロモン,,株式会社,愛知県,春日井市,東神明町３５３番地,,23,206,4870021,,,,,,,2025-04-17,1,,,,,ソロモン,0
1079,5180001166421,新規,0,2025-04-17,2025-04-17,株式会社ＫＯＫＫＩ,,株式会社,愛知県,名古屋市中川区,尾頭橋４丁目１３番７号ｎａｂｉ金山５０５Ｃ,,23,110,4540012,,,,,,,2025-04-17,1,,,,,コッキ,0
1084,5200001043667,新規,0,2025-04-17,2025-04-17,株式会社ＷＩＬＬＰＡＴＨ,,株式会社,岐阜県,大垣市,木戸町２丁目３７番地,,21,202,5030973,,,,,,,2025-04-17,1,,,,,ウィルパス,0
1090,5240001064800,新規,0,2025-04-17,2025-04-17,尚輝工業株式会社,,株式会社,広島県,東広島市,西条町御薗宇６７１３番地５,,34,212,7390024,,,,,,,2025-04-17,1,,,,,ナオキコウギョウ,0
1091,5240001064809,新規,0,2025-04-17,2025-04-17,なちゅらむ株式会社,,株式会社,広島県,東広島市,西条町寺家３６１５番地２,,34,212,7390041,,,,,,,2025-04-17,1,,,,,ナチュラム,0
1092,5240001064817,新規,0,2025-04-17,2025-04-17,株式会社タカヤ工業,,株式会社,広島県,尾道市,美ノ郷町三成１１７１番地１,,34,205,7220215,,,,,,,2025-04-17,1,,,,,タカヤコウギョウ,0
1101,5290003016687,新規,0,2025-04-17,2025-04-17,合同会社リビオン,,合同会社,福岡県,大野城市,南ケ丘３丁目１２番２１号,,40,219,8160964,,,,,,,2025-04-17,1,,,,,リビオン,0
1103,5290801031458,新規,0,2025-04-17,2025-04-17,株式会社ＡＳＴＲＡ,,株式会社,福岡県,北九州市小倉南区,長行東２丁目１５－１,,40,107,8030273,,,,,,,2025-04-17,1,,,,,アストラ,0
1108,5340001027276,新規,0,2025-04-17,2025-04-17,株式会社フロンティア,,株式会社,鹿児島県,日置市,東市来町長里５１１１番地１,,46,216,8992202,,,,,,,2025-04-17,1,,,,,フロンティア,0
1110,5340003004819,新規,0,2025-04-17,2025-04-17,ＡＲＳコンサル合同会社,,合同会社,鹿児島県,指宿市,十二町４３２０,,46,210,8910403,,,,,,,2025-04-17,1,,,,,エーアールエスコンサル,0
1111,5350003004909,新規,0,2025-04-17,2025-04-17,ハウス・ラボ合同会社,,合同会社,宮崎県,延岡市,平原町５丁目１４８４番地２,,45,203,8820866,,,,,,,2025-04-17,1,,,,,ハウスラボ,0
1115,5370001052486,新規,0,2025-04-17,2025-04-17,株式会社シトリン,,株式会社,宮城県,仙台市青葉区,上杉２丁目３番２３－１１０４号,,04,101,9800011,,,,,,,2025-04-17,1,,,,,シトリン,0
1116,5370003007050,新規,0,2025-04-17,2025-04-17,合同会社おいしい空気製作所,,合同会社,宮城県,仙台市太白区,鈎取４丁目４番５０号－３０２,,04,104,9820804,,,,,,,2025-04-17,1,,,,,オイシイクウキセイサクショ,0
1119,5380001035250,新規,0,2025-04-17,2025-04-17,暖航株式会社,,株式会社,福島県,郡山市,久留米４丁目２３番地の１,,07,203,9638846,,,,,,,2025-04-17,1,,,,,ダンコウ,0
1127,5420001019100,新規,0,2025-04-17,2025-04-17,株式会社青森ねぶた薬局,,株式会社,青森県,東津軽郡外ヶ浜町,字下蟹田５６番地３,,02,307,0301308,,,,,,,2025-04-17,1,,,,,アオモリネブタヤッキョク,0
1155,6010005039944,新規,0,2025-04-17,2025-04-17,印西ワンＤＣＳ一般社団法人,,その他の設立登記法人,東京都,千代田区,丸の内１丁目４番１号東京共同会計事務所内,,13,101,1000005,,,,,,,2025-04-17,1,,,,,インザイワンディーシーエス,0
1163,6010401189401,新規,0,2025-04-17,2025-04-17,東通アセットマネジメント株式会社,,株式会社,東京都,港区,新橋６丁目２０番２号,,13,103,1050004,,,,,,,2025-04-17,1,,,,,トウツウアセットマネジメント,0
1164,6010401189491,新規,0,2025-04-17,2025-04-17,株式会社さきはな,,株式会社,東京都,港区,北青山１丁目３番３号三橋ビル３階,,13,103,1070061,,,,,,,2025-04-17,1,,,,,サキハナ,0
1165,6010401189533,新規,0,2025-04-17,2025-04-17,株式会社六本木管理１３号,,株式会社,東京都,港区,六本木３丁目２番１号,,13,103,1060032,,,,,,,2025-04-17,1,,,,,ロッポンギカンリジュウサンゴウ,0
1169,6010501053928,新規,0,2025-04-17,2025-04-17,株式会社ＩｎｎＳｐｉｒｅ,,株式会社,東京都,台東区,西浅草３丁目２６－１６雅順浅草１Ｆ,,13,106,1110035,,,,,,,2025-04-17,1,,,,,インスパイア,0
1171,6010601067118,新規,0,2025-04-17,2025-04-17,コバルトキャピタル株式会社,,株式会社,東京都,江東区,亀戸４丁目４６番１４号,,13,108,1360071,,,,,,,2025-04-17,1,,,,,コバルトキャピタル,0
1172,6010601067142,新規,0,2025-04-17,2025-04-17,株式会社クリケニー,,株式会社,東京都,江東区,新大橋２丁目６番８－６０１号,,13,108,1350007,,,,,,,2025-04-17,1,,,,,クリケニー,0
1189,6011103015779,新規,0,2025-04-17,2025-04-17,合同会社ＬｅｔＩｔＦｌｏｗ,,合同会社,東京都,新宿区,西新宿３丁目５－１２トーカン新宿第２キャステール２０９号室,,13,104,1600023,,,,,,,2025-04-17,1,,,,,レットイットフロー,0
1192,6011201026281,新規,0,2025-04-17,2025-04-17,Ｊａｐａｎ　Ｌｉｆｅ株式会社,,株式会社,東京都,中野区,沼袋４丁目３０番１５－４０１号,,13,114,1650025,,,,,,,2025-04-17,1,,,,,ジャパンライフ,0
1193,6011203004673,新規,0,2025-04-17,2025-04-17,ＦＵＤＯ　Ｓｔａｙ＆Ｒｅｎｔ合同会社,,合同会社,東京都,中野区,野方３丁目６番２号,,13,114,1650027,,,,,,,2025-04-17,1,,,,,フドウステイアンドレント,0
1197,6011601028563,新規,0,2025-04-17,2025-04-17,株式会社ＥＳＴＯＲＥＸ,,株式会社,東京都,練馬区,上石神井４丁目１４番６号,,13,120,1770044,,,,,,,2025-04-17,1,,,,,エストレック,0
1200,6011701028257,新規,0,2025-04-17,2025-04-17,ＩＮＩＴＢＹＴＥ株式会社,,株式会社,東京都,江戸川区,西小岩５丁目１３番地１３小出マンション１０３号室,,13,123,1330057,,,,,,,2025-04-17,1,,,,,イニットバイト,0
1201,6011801045986,新規,0,2025-04-17,2025-04-17,株式会社ＥＶｒｙ,,株式会社,東京都,足立区,西新井本町３丁目１－２４,,13,121,1230845,,,,,,,2025-04-17,1,,,,,エブリー,0
1202,6011801045994,新規,0,2025-04-17,2025-04-17,ＳＥＡ株式会社,,株式会社,東京都,葛飾区,新宿１丁目１２－１６,,13,122,1250051,,,,,,,2025-04-17,1,,,,,シー,0
1203,6012401042969,新規,0,2025-04-17,2025-04-17,株式会社点群ラボ,,株式会社,東京都,調布市,調布ケ丘１丁目５番地１,,13,208,1820021,,,,,,,2025-04-17,1,,,,,テングンラボ,0
1210,6013301054096,新規,0,2025-04-17,2025-04-17,株式会社Ｋ８５７,,株式会社,東京都,豊島区,西池袋１丁目４番１０号,,13,116,1710021,,,,,,,2025-04-17,1,,,,,ケーハチゴーナナ,0
1219,6020005016802,新規,0,2025-04-17,2025-04-17,ＮＰＯ法人ｃｏｎｎｅｃｔ,,その他の設立登記法人,神奈川県,川崎市高津区,下作延６丁目１５番２３－１号,,14,134,2130033,,,,,,,2025-04-17,1,,,,,コネクト,0
1227,6021001084990,新規,0,2025-04-17,2025-04-17,伸和工業ホールディングス株式会社,,株式会社,神奈川県,綾瀬市,上土棚北５丁目１１番３７号,,14,218,2521111,,,,,,,2025-04-17,1,,,,,シンワコウギョウホールディングス,0
1237,6030003026579,新規,0,2025-04-17,2025-04-17,合同会社ＳＵＨＡＮＡ,,合同会社,埼玉県,鴻巣市,本町３丁目２番１９号,,11,217,3650038,,,,,,,2025-04-17,1,,,,,スハナ,0
1238,6030003026587,新規,0,2025-04-17,2025-04-17,Ｐｏｐ‐Ｕｐ合同会社,,合同会社,埼玉県,富士見市,大字鶴馬２６２３番地２ソルティブラン鶴瀬１０２,,11,235,3540021,,,,,,,2025-04-17,1,,,,,ポップアップ,0
1239,6040003027337,新規,0,2025-04-17,2025-04-17,合同会社アールイー,,合同会社,千葉県,松戸市,八ケ崎２丁目３４番地６６,,12,207,2700023,,,,,,,2025-04-17,1,,,,,アールイー,0
1243,6050003009193,新規,0,2025-04-17,2025-04-17,シサーラ・コーショ合同会社,,合同会社,茨城県,稲敷郡美浦村,大字花見塚６７５番地２,,08,442,3000418,,,,,,,2025-04-17,1,,,,,シサーラコーショ,0
1247,6080101025453,新規,0,2025-04-17,2025-04-17,株式会社ＢＡＮＮＯ,,株式会社,静岡県,沼津市,高島本町２－５,,22,203,4100055,,,,,,,2025-04-17,1,,,,,バンノー,0
1248,6080103003300,新規,0,2025-04-17,2025-04-17,合同会社ＳＥＡ　ＤＥＬＩＧＨＴ,,合同会社,静岡県,御殿場市,東田中６５８番地の１の１ラ・ルーチェウノ２０１,,22,215,4120026,,,,,,,2025-04-17,1,,,,,シーデライト,0
1254,6110005017205,新規,0,2025-04-17,2025-04-17,南魚沼商工会,,その他の設立登記法人,新潟県,南魚沼市,六日町７６番地４,,15,226,9496680,,,,,,新潟県南魚沼市六日町７６番地４六日町商工会（3110005013140）、新潟県南魚沼市塩沢１１１２番地３２塩沢商工会（5110005013139）及び新潟県南魚沼市浦佐４７８番地５大和商工会（2110005013141）の合併により設立,2025-04-17,1,,,,,ミナミウオヌマ,0
1260,6120001274567,新規,0,2025-04-17,2025-04-17,株式会社Ｌｏｃａｌ　Ｓｔａｎｄａｒｄ,,株式会社,大阪府,大阪市北区,梅田１丁目２番２号大阪駅前第２ビル１２－１２,,27,127,5300001,,,,,,,2025-04-17,1,,,,,ローカルスタンダード,0
1261,6120001274633,新規,0,2025-04-17,2025-04-17,株式会社令明整備,,株式会社,大阪府,大阪市中央区,瓦町３丁目４番１０号日宝御堂ビル６Ｆ－９号,,27,128,5410048,,,,,,,2025-04-17,1,,,,,レイメイセイビ,0
1262,6120001274658,新規,0,2025-04-17,2025-04-17,和正株式会社,,株式会社,大阪府,大阪市住之江区,粉浜１丁目８番２６号１階,,27,125,5590001,,,,,,,2025-04-17,1,,,,,ワセイ,0
1263,6120001274674,新規,0,2025-04-17,2025-04-17,ＡＵＴＯＢＩＴ株式会社,,株式会社,大阪府,大阪市中央区,南船場３丁目２番２２号おおきに南船場ビル２０５,,27,128,5420081,,,,,,,2025-04-17,1,,,,,オートビット,0
1264,6120001274773,新規,0,2025-04-17,2025-04-17,株式会社屋島工業,,株式会社,大阪府,寝屋川市,高宮新町３番１号,,27,215,5720847,,,,,,,2025-04-17,1,,,,,ヤシマコウギョウ,0
1266,6120003029151,新規,0,2025-04-17,2025-04-17,ＷＯＷ合同会社,,合同会社,大阪府,大阪市北区,梅田１丁目１番３号大阪駅前第３ビル２９階１－１－１号室,,27,127,5300001,,,,,,,2025-04-17,1,,,,,ワオ,0
1267,6120103006389,新規,0,2025-04-17,2025-04-17,合同会社ＮＶＴ,,合同会社,大阪府,和泉市,室堂町２８８－６－１０３号,,27,219,5941101,,,,,,,2025-04-17,1,,,,,エヌヴィティ,0
1268,6120103006406,新規,0,2025-04-17,2025-04-17,ＨＭＫ　ＧＲＯＵＰ合同会社,,合同会社,大阪府,和泉市,室堂町２８８－６－２０１号,,27,219,5941101,,,,,,,2025-04-17,1,,,,,エイチエムケイグループ,0
1276,6130001079453,新規,0,2025-04-17,2025-04-17,株式会社レジリエンス,,株式会社,京都府,乙訓郡大山崎町,字下植野小字二階下１０－２－１０６号室,,26,303,6180081,,,,,,,2025-04-17,1,,,,,レジリエンス,0
1277,6130005017343,新規,0,2025-04-17,2025-04-17,医療法人彩都美会,,その他の設立登記法人,京都府,相楽郡精華町,大字山田小字心蓮寺１０番地１,,26,366,6190231,,,,,,,2025-04-17,1,,,,,サトミカイ,0
1283,6140005027465,新規,0,2025-04-17,2025-04-17,一般社団法人シミンズシーズ総合研究所,,その他の設立登記法人,兵庫県,加古川市,加古川町寺家町３６３－４かわのまちビルディング２階,,28,210,6750066,,,,,,,2025-04-17,1,,,,,シミンズシーズソウゴウケンキュウショ,0
1294,6180001166429,新規,0,2025-04-17,2025-04-17,株式会社Ｎｉｊｉ,,株式会社,愛知県,名古屋市中村区,名駅３丁目４番１０号アルティメイト名駅１ｓｔ２階,,23,105,4500002,,,,,,,2025-04-17,1,,,,,ニジ,0
1302,6200001043658,新規,0,2025-04-17,2025-04-17,株式会社デザインラボアーネスト,,株式会社,岐阜県,岐阜市,薮田南４丁目５番１３号,,21,201,5008384,,,,,,,2025-04-17,1,,,,,デザインラボアーネスト,0
1305,6220003004004,新規,0,2025-04-17,2025-04-17,合同会社Ｐｌａｎｔｓ　ｓｉｌｉｃａ　ｌａｂ,,合同会社,石川県,野々市市,中林４丁目５７番地５,,17,212,9218834,,,,,,,2025-04-17,1,,,,,プランツシリカラボ,0
1307,6240001064799,新規,0,2025-04-17,2025-04-17,鳳凰不動産株式会社,,株式会社,広島県,東広島市,西条中央８丁目１６番１０ー２０３号パークサイド中央,,34,212,7390025,,,,,,,2025-04-17,1,,,,,ホウオウフドウサン,0
1308,6240001064808,新規,0,2025-04-17,2025-04-17,株式会社デラシネ,,株式会社,広島県,広島市中区,本川町２丁目３番２７－４０３号,,34,101,7300802,,,,,,,2025-04-17,1,,,,,デラシネ,0
1309,6240001064816,新規,0,2025-04-17,2025-04-17,株式会社ＣＯＭＰＡＴＨ,,株式会社,広島県,福山市,加茂町大字下加茂１２５１番地１,,34,207,7202412,,,,,,,2025-04-17,1,,,,,コンパス,0
1317,6280001009412,新規,0,2025-04-17,2025-04-17,株式会社しまぎん地域事業投資,,株式会社,島根県,松江市,朝日町４８４番地１９,,32,201,6900003,,,,,,,2025-04-17,1,,,,,シマギンチイキジギョウトウシ,0
1319,6290801031449,新規,0,2025-04-17,2025-04-17,株式会社ｓａｋｕ‐ｒｉｄｏ,,株式会社,福岡県,北九州市八幡西区,黒崎４丁目６番１号グリーンパーク三共１０３,,40,109,8060021,,,,,,,2025-04-17,1,,,,,サクリド,0
1325,6340001027275,新規,0,2025-04-17,2025-04-17,株式会社灯,,株式会社,鹿児島県,姶良市,宮島町４５番地１１,,46,225,8995432,,,,,,,2025-04-17,1,,,,,トモシビ,0
1326,6340003004826,新規,0,2025-04-17,2025-04-17,合同会社ＰＥＡＣＥ,,合同会社,鹿児島県,鹿児島市,中山町２４番地１ライス・フィールドＩ・１０２号,00138816,46,201,8910105,,,,,,,2025-04-17,1,,,,,ピース,0
1335,6400001017006,新規,0,2025-04-17,2025-04-17,株式会社ＨＡＩＫ,,株式会社,岩手県,奥州市,水沢佐倉河字根岸７０－１,,03,215,0230003,,,,,,,2025-04-17,1,,,,,ハイク,0
1337,6410003004083,新規,0,2025-04-17,2025-04-17,合同会社Ｌｉｐｌｅ,,合同会社,秋田県,横手市,八幡字八幡１５４番地１,,05,203,0130071,,,,,,,2025-04-17,1,,,,,リップル,0
1349,6430005015218,新規,0,2025-04-17,2025-04-17,一般社団法人北海道創生支援協会,,その他の設立登記法人,北海道,札幌市豊平区,月寒西一条９丁目１０番８０－２１０号,,01,105,0620021,,,,,,,2025-04-17,1,,,,,ホッカイドウソウセイシエンキョウカイ,0
1362,6480001012809,新規,0,2025-04-17,2025-04-17,株式会社ベルカバロ,,株式会社,徳島県,板野郡北島町,中村字福神１７番地１,,36,402,7710203,,,,,,,2025-04-17,1,,,,,ベルカバロ,0
1378,7010001253845,新規,0,2025-04-17,2025-04-17,株式会社アシスト,,株式会社,東京都,中央区,銀座８丁目１０番８号銀座八丁目１０番ビル３階Ｂ,,13,102,1040061,,,,,,,2025-04-17,1,,,,,アシスト,0
1379,7010001254232,新規,0,2025-04-17,2025-04-17,雲海緑風株式会社,00138814,株式会社,東京都,中央区,日本橋小伝馬町１６－９ａＬＡＴＯ日本橋小伝馬町７階,,13,102,1030001,,,,,,,2025-04-17,1,,,,,ウンカイリョクフウ,0
1380,7010001254265,新規,0,2025-04-17,2025-04-17,安住創和株式会社,,株式会社,東京都,中央区,日本橋蛎殻町２丁目１１番２号,,13,102,1030014,,,,,,,2025-04-17,1,,,,,アンジュウソウワ,0
1381,7010003047080,新規,0,2025-04-17,2025-04-17,ＺｅｎＡｘｉｓ合同会社,,合同会社,東京都,中央区,銀座１丁目１２－４Ｎ＆ＥＢＬＤ．７階,,13,102,1040061,,,,,,,2025-04-17,1,,,,,ゼンアクシス,0
1382,7010005039910,新規,0,2025-04-17,2025-04-17,Ｐｒｏｓｐｅｒｉｔｙ‐ＩＩ特定目的会社,,その他の設立登記法人,東京都,中央区,銀座１丁目６番１１号土志田ビルディング３Ｆ,,13,102,1040061,,,,,,,2025-04-17,1,,,,,プロスペリティツー,0
1383,7010005039943,新規,0,2025-04-17,2025-04-17,印西ワンインベストメント一般社団法人,,その他の設立登記法人,東京都,千代田区,丸の内１丁目４番１号東京共同会計事務所内,,13,101,1000005,,,,,,,2025-04-17,1,,,,,インザイワンインベストメント,0
1389,7010401189367,新規,0,2025-04-17,2025-04-17,株式会社ＴＯＩＬＥＴ　ＳＥＡＲＣＨ,,株式会社,東京都,港区,新橋６丁目４番３号,,13,103,1050004,,,,,,,2025-04-17,1,,,,,トイレサーチ,0
1390,7010401189490,新規,0,2025-04-17,2025-04-17,般渡株式会社,,株式会社,東京都,港区,赤坂２丁目１７番５５号プライム赤坂５１１号,,13,103,1070052,,,,,,,2025-04-17,1,,,,,ハンド,0
1391,7010401189755,新規,0,2025-04-17,2025-04-17,株式会社ＭｅｄＭｕｓｅ,,株式会社,東京都,港区,北青山１丁目３番１号アールキューブ３階,,13,103,1070061,,,,,,,2025-04-17,1,,,,,メドミューズ,0
1392,7010403034901,新規,0,2025-04-17,2025-04-17,プラットピットパートナーズ合同会社,,合同会社,東京都,港区,六本木７丁目７番７号,,13,103,1060032,,,,,,,2025-04-17,1,,,,,プラットピットパートナーズ,0
1393,7010405024173,新規,0,2025-04-17,2025-04-17,特定非営利活動法人未来会議,,その他の設立登記法人,東京都,港区,西麻布１丁目１２番３号,,13,103,1060031,,,,,,,2025-04-17,1,,,,,,0
1394,7010405024339,新規,0,2025-04-17,2025-04-17,一般社団法人Ｐｈａｒｅ,,その他の設立登記法人,東京都,港区,芝５丁目２６番２４号田町スクエア２階,,13,103,1080014,,,,,,,2025-04-17,1,,,,,ファール,0
1397,7010603011477,新規,0,2025-04-17,2025-04-17,合同会社オオサワテクニカ,,合同会社,東京都,江東区,大島６丁目１９番６号,,13,108,1360072,,,,,,,2025-04-17,1,,,,,オオサワテクニカ,0
1404,7010903009832,新規,0,2025-04-17,2025-04-17,合同会社アオイモリ,,合同会社,東京都,世田谷区,喜多見９丁目１９番７号,,13,112,1570067,,,,,,,2025-04-17,1,,,,,アオイモリ,0
1405,7010903009849,新規,0,2025-04-17,2025-04-17,Ｂｅｙｏｎｄ　Ｆｏｏｄ　Ｓｏｌｕｔｉｏｎｓ合同会社,,合同会社,東京都,世田谷区,駒沢５丁目２４番８号,,13,112,1540012,,,,,,,2025-04-17,1,,,,,ビヨンドフードソリューションズ,0
1411,7011001168851,新規,0,2025-04-17,2025-04-17,株式会社ＤＩＲＥＣＴＯＲＳ,,株式会社,東京都,渋谷区,恵比寿西２丁目４番８号ウィンド恵比寿ビル８Ｆ,,13,113,1500021,,,,,,,2025-04-17,1,,,,,ディレクターズ,0
1417,7011101111240,新規,0,2025-04-17,2025-04-17,株式会社Ｈｉｎｏｄｅ　Ｔｅｃｈｎｏｌｏｇｉｅｓ,,株式会社,東京都,新宿区,西新宿４丁目３４番７号,,13,104,1600023,,,,,,,2025-04-17,1,,,,,ヒノデテクノロジーズ,0
1424,7011501031947,新規,0,2025-04-17,2025-04-17,晟大株式会社,,株式会社,東京都,北区,浮間４丁目８番１２号さくら・浮間１０２号,,13,117,1150051,,,,,,,2025-04-17,1,,,,,,0
1426,7011603004669,新規,0,2025-04-17,2025-04-17,エーアンドピー合同会社,,合同会社,東京都,練馬区,貫井１丁目２番１号中村橋サンパレス２階,,13,120,1760021,,,,,,,2025-04-17,1,,,,,エーアンドピー,0
1427,7011605002646,新規,0,2025-04-17,2025-04-17,一般社団法人ＡＳＩＡ飲食業発展促進会,,その他の設立登記法人,東京都,練馬区,北町３丁目２０番６号サンテックビル３０２号室,,13,120,1790081,,,,,,,2025-04-17,1,,,,,アジアインショクギョウハッテンソクシンカイ,0
1430,7011801045985,新規,0,2025-04-17,2025-04-17,株式会社Ｍ＆Ｋ,,株式会社,東京都,葛飾区,西水元２丁目３番１３号,,13,122,1250031,,,,,,,2025-04-17,1,,,,,エムアンドケー,0
1434,7012405005104,新規,0,2025-04-17,2025-04-17,一般社団法人絆,,その他の設立登記法人,東京都,調布市,佐須町５丁目２３番地６,,13,208,1820016,,,,,,,2025-04-17,1,,,,,キズナ,0
1437,7013301054062,新規,0,2025-04-17,2025-04-17,株式会社ダイニングフォワード,,株式会社,東京都,豊島区,東池袋１丁目３４番５号,,13,116,1700013,,,,,,,2025-04-17,1,,,,,ダイニングフォワード,0
1438,7013301054095,新規,0,2025-04-17,2025-04-17,永新株式会社,,株式会社,東京都,豊島区,要町１丁目４５－９ｅｍｉｏ２０２号,,13,116,1710043,,,,,,,2025-04-17,1,,,,,エイシン,0
1443,7020001162418,新規,0,2025-04-17,2025-04-17,株式会社ＯＲＩＺＵＲＵ,,株式会社,神奈川県,横浜市神奈川区,金港町５－１４クアドリフォリオ８階,,14,102,2210056,,,,,,,2025-04-17,1,,,,,オリズル,0
1447,7020003028245,新規,0,2025-04-17,2025-04-17,Ｃｅｍ工業合同会社,,合同会社,神奈川県,横浜市旭区,左近山４４８－３左近山団地９街区１０－３０１,,14,112,2410831,,,,,,,2025-04-17,1,,,,,ジェムコウギョウ,0
1448,7020003028303,新規,0,2025-04-17,2025-04-17,Ｄａｗｇｓ　Ｃｒｅａｔｉｖｅ合同会社,,合同会社,神奈川県,横浜市緑区,新治町４９９番地ＬＥＸＩＡ中山１０３,,14,113,2260017,,,,,,,2025-04-17,1,,,,,ドーグスクリエイティブ,0
1449,7021001084998,新規,0,2025-04-17,2025-04-17,福原商事株式会社,,株式会社,神奈川県,秦野市,曽屋５７７６－１０,,14,211,2570031,,,,,,,2025-04-17,1,,,,,フクハラショウジ,0
1451,7021003015877,新規,0,2025-04-17,2025-04-17,スマイルリボーン合同会社,,合同会社,神奈川県,大和市,下鶴間６３３番地５,,14,213,2420001,,,,,,,2025-04-17,1,,,,,スマイルリボーン,0
1459,7030001165980,新規,0,2025-04-17,2025-04-17,ケイ株式会社,,株式会社,埼玉県,蕨市,塚越７丁目３７番２号４０４室,,11,223,3350002,,,,,,,2025-04-17,1,,,,,ケイ,0
1460,7030001166013,新規,0,2025-04-17,2025-04-17,ＧＩＶＥ　ａｎｄ　ＧＩＶＥ株式会社,,株式会社,埼玉県,川口市,青木１丁目８番１３号,,11,203,3320031,,,,,,,2025-04-17,1,,,,,ギブアンドギブ,0
1461,7030001166054,新規,0,2025-04-17,2025-04-17,株式会社山猫出版,,株式会社,埼玉県,さいたま市大宮区,桜木町２丁目３番地大宮マルイ７階,,11,103,3300854,,,,,,,2025-04-17,1,,,,,ヤマネコシュッパン,0
1463,7030003026594,新規,0,2025-04-17,2025-04-17,合同会社Ａｒｋ,,合同会社,埼玉県,さいたま市南区,大字太田窪３５１８番地２５,,11,108,3360015,,,,,,,2025-04-17,1,,,,,アーク,0
1466,7040001138358,新規,0,2025-04-17,2025-04-17,ＨＡＪＵ株式会社,,株式会社,千葉県,野田市,尾崎８１１番地の５コンフォース川間１０３,,12,208,2700235,,,,,,,2025-04-17,1,,,,,ハジュ,0
1473,7060003005505,新規,0,2025-04-17,2025-04-17,果樹園カナン合同会社,,合同会社,栃木県,河内郡上三川町,大字五分一６０６番地,,09,301,3290614,,,,,,,2025-04-17,1,,,,,カジュエンカナン,0
1480,7080401027867,新規,0,2025-04-17,2025-04-17,株式会社音の葉,,株式会社,静岡県,浜松市中央区,北寺島町１２２番地の３,,22,138,4300923,,,,,,,2025-04-17,1,,,,,オトノハ,0
1496,7120001274442,新規,0,2025-04-17,2025-04-17,大阪ＨＮ株式会社,,株式会社,大阪府,大阪市浪速区,恵美須東２丁目６番１５－４０５号,,27,111,5560002,,,,,,,2025-04-17,1,,,,,オオサカエイチエヌ,0
1497,7120001274616,新規,0,2025-04-17,2025-04-17,株式会社つぼルー,,株式会社,大阪府,大阪市中央区,心斎橋筋２丁目２番１号,,27,128,5420085,,,,,,,2025-04-17,1,,,,,ツボルー,0
1498,7120001274624,新規,0,2025-04-17,2025-04-17,Ｒｅｂ株式会社,,株式会社,大阪府,大阪市東淀川区,大道南３丁目７番２８号,,27,114,5330012,,,,,,,2025-04-17,1,,,,,レブ,0
1499,7120001274665,新規,0,2025-04-17,2025-04-17,日辺株式会社,,株式会社,大阪府,大阪市都島区,毛馬町１丁目６番３号,,27,102,5340001,,,,,,,2025-04-17,1,,,,,ニチベ,0
1500,7120001274715,新規,0,2025-04-17,2025-04-17,株式会社東山学館,,株式会社,大阪府,大阪市北区,堂山町１８番３号,,27,127,5300027,,,,,,,2025-04-17,1,,,,,ヒガシヤマガッカン,0
1501,7120001274938,新規,0,2025-04-17,2025-04-17,株式会社バンチス,,株式会社,大阪府,大阪市浪速区,幸町２丁目２番２０号（清光ビル）,,27,111,5560021,,,,,,,2025-04-17,1,,,,,バンチス,0
1503,7120103006405,新規,0,2025-04-17,2025-04-17,合同会社Ｍｉｔｌｅｂｅｎ,,合同会社,大阪府,堺市西区,草部６４５番地２,,27,144,5938312,,,,,,,2025-04-17,1,,,,,ミットレーベン,0
1507,7122003003176,新規,0,2025-04-17,2025-04-17,合同会社Ｓｉｒｉｕｓ　Ｌｉｎｅ,,合同会社,大阪府,東大阪市,俊徳町１丁目４番３号２階,,27,227,5770831,,,,,,,2025-04-17,1,,,,,シリウスライン,0
1508,7130001079452,新規,0,2025-04-17,2025-04-17,株式会社ＳＭＩＬＥ,,株式会社,京都府,京都市下京区,河原町通四条下る稲荷町３２８番地プラネスーペリア四条河原町４０１,,26,106,6008022,,,,,,,2025-04-17,1,,,,,スマイル,0
1509,7130001079469,新規,0,2025-04-17,2025-04-17,株式会社トラクション,,株式会社,京都府,京都市下京区,寺町通五条上る西橋詰町７５９番地ＳＡＫＩＺＯ河原町五条ビル４階,,26,106,6008029,,,,,,,2025-04-17,1,,,,,トラクション,0
1511,7140001138083,新規,0,2025-04-17,2025-04-17,株式会社アドホーム,,株式会社,兵庫県,神戸市東灘区,向洋町中６丁目９番地,,28,101,6580032,,,,,,,2025-04-17,1,,,,,アドホーム,0
1513,7140003021923,新規,0,2025-04-17,2025-04-17,Ｈａｎａ＆Ｍｉｋａ合同会社,,合同会社,兵庫県,川西市,鼓が滝３丁目５２番,,28,217,6660123,,,,,,,2025-04-17,1,,,,,ハナアンドミカ,0
1519,7170003002193,新規,0,2025-04-17,2025-04-17,合同会社ＫＡＣ古座川アドベンチャー倶楽部,,合同会社,和歌山県,東牟婁郡古座川町,月野瀬９８９番地６,,30,424,6494106,,,,,,,2025-04-17,1,,,,,ケイエーシーコザガワアドベンチャークラブ,0
1524,7180001166428,新規,0,2025-04-17,2025-04-17,ｉｎｏテック株式会社,,株式会社,愛知県,名古屋市港区,港陽３丁目５－６,,23,111,4550013,,,,,,,2025-04-17,1,,,,,イノテック,0
1525,7180001166436,新規,0,2025-04-17,2025-04-17,株式会社ＨＲＬ,,株式会社,愛知県,江南市,上奈良町郷３０８番地,,23,217,4838258,,,,,,,2025-04-17,1,,,,,エイチアールエル,0
1526,7180001166444,新規,0,2025-04-17,2025-04-17,株式会社ＰｉｏｎｅｅｒＷｏｒｋｓ,,株式会社,愛知県,瀬戸市,東横山町６２番地の５エムズシティ新瀬戸５１０,,23,204,4890066,,,,,,,2025-04-17,1,,,,,パイオニアワークス,0
1536,7190003005005,新規,0,2025-04-17,2025-04-17,合同会社ＨＡＴＡ,,合同会社,三重県,伊勢市,神社港５１０―１,,24,203,5160004,,,,,,,2025-04-17,1,,,,,ハタ,0
1541,7220003004011,新規,0,2025-04-17,2025-04-17,ＫｅｒｏＬｉｎｋ合同会社,,合同会社,石川県,七尾市,新保町カ部３３番地２,,17,202,9260845,,,,,,,2025-04-17,1,,,,,ケロリンク,0
1547,7240001064823,新規,0,2025-04-17,2025-04-17,株式会社ＷＨＩＴＥ,,株式会社,広島県,広島市中区,東千田町１丁目１－５５－１２０６,,34,101,7300053,,,,,,,2025-04-17,1,,,,,ホワイト,0
1555,7270005005639,新規,0,2025-04-17,2025-04-17,一般財団法人とっとりコミュニティ財団,,その他の設立登記法人,鳥取県,鳥取市,栄町６２７番地,,31,201,6800831,,,,,,,2025-04-17,1,,,,,トットリコミュニティザイダン,0
1565,7290801031456,新規,0,2025-04-17,2025-04-17,日本探偵士会株式会社,,株式会社,福岡県,北九州市八幡西区,熊手３丁目３番１０－５０１号,,40,109,8060028,,,,,,,2025-04-17,1,,,,,ニホンタンテイシカイ,0
1566,7300001014152,新規,0,2025-04-17,2025-04-17,株式会社ジョビコ,,株式会社,佐賀県,佐賀市,鍋島３丁目１２番５号,,41,201,8490937,,,,,,,2025-04-17,1,,,,,ジョビコ,0
1567,7300003002270,新規,0,2025-04-17,2025-04-17,合同会社Ｕｓｈｉ＆Ｕｓｈｉ,,合同会社,佐賀県,鳥栖市,布津原町１１番地１９,,41,203,8410053,,,,,,,2025-04-17,1,,,,,ウシウシ,0
1568,7310001019555,新規,0,2025-04-17,2025-04-17,株式会社ミヒータ,,株式会社,長崎県,佐世保市,筒井町１０４２,,42,202,8570111,,,,,,,2025-04-17,1,,,,,ミヒータ,0
1574,7340001027274,新規,0,2025-04-17,2025-04-17,株式会社ホープ,,株式会社,鹿児島県,南九州市,知覧町郡５４１４番地１,,46,223,8970302,,,,,,,2025-04-17,1,,,,,ホープ,0
1577,7340003004825,新規,0,2025-04-17,2025-04-17,オフィス相馬合同会社,,合同会社,鹿児島県,鹿児島市,桜ヶ丘７丁目１９番地１６,,46,201,8900075,,,,,,,2025-04-17,1,,,,,オフィスソウマ,0
1583,7370001052435,新規,0,2025-04-17,2025-04-17,高速シーリング株式会社,,株式会社,宮城県,仙台市宮城野区,扇町７丁目４番２０号,,04,102,9830034,,,,,,,2025-04-17,1,,,,,コウソクシーリング,0
1584,7370003007049,新規,0,2025-04-17,2025-04-17,合同会社ＭＷＧ,,合同会社,宮城県,仙台市青葉区,米ケ袋２丁目２番２３－３０５号,,04,101,9800813,,,,,,,2025-04-17,1,,,,,エムダブリュージー,0
1585,7370005010950,新規,0,2025-04-17,2025-04-17,一般社団法人むすぶ相続サポートみやぎ,,その他の設立登記法人,宮城県,仙台市泉区,南光台４丁目５番１７号,,04,105,9818003,,,,,,,2025-04-17,1,,,,,ムスブソウゾクサポートミヤギ,0
1591,7380001035249,新規,0,2025-04-17,2025-04-17,ＮＥＸＴ株式会社,,株式会社,福島県,郡山市,富田町字音路１番地の１０９,,07,203,9638041,,,,,,,2025-04-17,1,,,,,ネクスト,0
1593,7390005009116,新規,0,2025-04-17,2025-04-17,社会福祉法人幸春会,,その他の設立登記法人,山形県,米沢市,徳町２１０番地１,,06,202,9920047,,,,,,,2025-04-17,1,,,,,コウシュンカイ,0
1604,7470001020670,新規,0,2025-04-17,2025-04-17,Ｊａｐａｎ　Ｓｅｒｅｎｉｔｙ株式会社,,株式会社,香川県,丸亀市,綾歌町栗熊東４３２番地１,,37,202,7612406,,,,,,,2025-04-17,1,,,,,ジャパンセレニティ,0
1605,7470003002865,新規,0,2025-04-17,2025-04-17,合同会社ｕｍｏｒｅ‐ｇｉ,,合同会社,香川県,三豊市,高瀬町新名１０４６番地６,,37,208,7670002,,,,,,,2025-04-17,1,,,,,,0
1609,7490003002005,新規,0,2025-04-17,2025-04-17,合同会社ＯＲＩＡＳ,,合同会社,高知県,高知市,堺町１３番１１号パラダイスビル・Ｂ１,,39,201,7800834,,,,,,,2025-04-17,1,,,,,オリアス,0
1610,7700150129990,新規,0,2025-04-17,2025-04-17,Ａ．Ｔ．Ｍ．ＴＲＡＤＩＮＧ,,外国会社等,千葉県,山武市,木原１４００番地オフィス３Ａ,,12,237,2891212,スリランカ民主社会主義共和国、キャンディ、アンバテンナ、カサワッタ、Ｎｏ．５１／６,,,,,,2025-04-17,1,,,,,エーテイーエムトレーデイング,0
1627,8010401189795,新規,0,2025-04-17,2025-04-17,株式会社ＦＵＲＡ　ＪＡＰＡＮ,,株式会社,東京都,港区,西麻布３丁目８－４－７０３,,13,103,1060031,,,,,,,2025-04-17,1,,,,,フーラージャパン,0
1635,8010503007806,新規,0,2025-04-17,2025-04-17,ｔｈｅ　ｓｕｎ＆ｍｏｏｎ合同会社,,合同会社,東京都,台東区,三筋１丁目１７－１１－７０１,,13,106,1110055,,,,,,,2025-04-17,1,,,,,ザサンアンドムーン,0
1637,8010603011484,新規,0,2025-04-17,2025-04-17,ギボンズ合同会社,,合同会社,東京都,墨田区,押上１丁目４３－４,,13,107,1310045,,,,,,,2025-04-17,1,,,,,ギボンズ,0
1640,8010701047538,新規,0,2025-04-17,2025-04-17,株式会社エニーフラッグ,,株式会社,東京都,品川区,西五反田７丁目１３－５ＤＫ五反田ビル４Ｆ,,13,109,1410031,,,,,,,2025-04-17,1,,,,,エニーフラッグ,0
1646,8010903009848,新規,0,2025-04-17,2025-04-17,ＭｉｃＭｅｅ合同会社,,合同会社,東京都,世田谷区,給田２丁目１２－１－２０３,,13,112,1570064,,,,,,,2025-04-17,1,,,,,ミックミー,0
1653,8011001169097,新規,0,2025-04-17,2025-04-17,株式会社ノリ,,株式会社,東京都,渋谷区,猿楽町９番５－７０８号,,13,113,1500033,,,,,,,2025-04-17,1,,,,,ノリ,0
1661,8011501031938,新規,0,2025-04-17,2025-04-17,三木商事株式会社,,株式会社,東京都,北区,神谷１丁目２３－１３,,13,117,1150043,,,,,,,2025-04-17,1,,,,,ミキショウジ,0
1662,8011501031946,新規,0,2025-04-17,2025-04-17,株式会社ねこの手生活,,株式会社,東京都,荒川区,町屋６丁目１５番５－４０１号,,13,118,1160001,,,,,,,2025-04-17,1,,,,,ネコノテセイカツ,0
1663,8011601028545,新規,0,2025-04-17,2025-04-17,天元軟件株式会社,,株式会社,東京都,練馬区,旭町光が丘三丁目９番２－６２２号,,13,120,1760000,,,,,,,2025-04-17,1,,,,,テンゲンナンケン,0
1664,8011603004676,新規,0,2025-04-17,2025-04-17,合同会社すかいびーんず,,合同会社,東京都,練馬区,北町３丁目９番３－２０５,,13,120,1790081,,,,,,,2025-04-17,1,,,,,スカイビーンズ,0
1665,8011801045976,新規,0,2025-04-17,2025-04-17,接点株式会社,,株式会社,東京都,足立区,古千谷本町３丁目５番４号,,13,121,1210832,,,,,,,2025-04-17,1,,,,,セッテン,0
1667,8011803006811,新規,0,2025-04-17,2025-04-17,合同会社アルカリアル,,合同会社,東京都,足立区,南花畑１丁目１３番３２号ルミエールＢ,,13,121,1210062,,,,,,,2025-04-17,1,,,,,アルカリアル,0
1669,8012401042967,新規,0,2025-04-17,2025-04-17,株式会社にゃんてっく,,株式会社,東京都,狛江市,駒井町１丁目２６番６号,,13,219,2010016,,,,,,,2025-04-17,1,,,,,ニャンテック,0
1670,8012401042991,新規,0,2025-04-17,2025-04-17,株式会社オレンジ,,株式会社,東京都,調布市,飛田給２丁目４３番地１０秀和コーポ２０２号室,,13,208,1820036,,,,,,,2025-04-17,1,,,,,オレンジ,0
1673,8013101009678,新規,0,2025-04-17,2025-04-17,株式会社金子薬局,,株式会社,東京都,あきる野市,入野１５３番地１１,,13,228,1900161,,,,,,,2025-04-17,1,,,,,カネコヤッキョク,0
1674,8013103001435,新規,0,2025-04-17,2025-04-17,ＡＮＩＭＩ合同会社,,合同会社,東京都,福生市,大字熊川６３１番地１３コーポ福の井１０３号室,,13,218,1970003,,,,,,,2025-04-17,1,,,,,アニミ,0
1675,8013105001870,新規,0,2025-04-17,2025-04-17,檜原村労働者協同組合,,その他の設立登記法人,東京都,西多摩郡檜原村,７９０番地２,,13,307,1900200,,,,,,,2025-04-17,1,,,,,ヒノハラムラ,0
1677,8013301054094,新規,0,2025-04-17,2025-04-17,株式会社フォーエスコンサルティング,,株式会社,東京都,豊島区,池袋２丁目４０番１３号,,13,116,1710014,,,,,,,2025-04-17,1,,,,,フォーエスコンサルティング,0
1678,8013301054103,新規,0,2025-04-17,2025-04-17,ネイチャーエステティクス株式会社,,株式会社,東京都,豊島区,西池袋３丁目２５番１１号ＣＩＣ池袋ビル７階,,13,116,1710021,,,,,,,2025-04-17,1,,,,,ネイチャーエステティクス,0
1682,8020005016809,新規,0,2025-04-17,2025-04-17,一般社団法人ＲＯＯＴＳ,,その他の設立登記法人,神奈川県,横浜市神奈川区,鶴屋町３丁目２９番４号ＣＲＡＮＥＣＯＲＮＥＲ１階,,14,102,2210835,,,,,,,2025-04-17,1,,,,,ルーツ,0
1684,8021001084972,新規,0,2025-04-17,2025-04-17,株式会社バンダライズジャパン,,株式会社,神奈川県,座間市,四ツ谷９１１番地の５,,14,216,2520025,,,,,,,2025-04-17,1,,,,,バンダライズジャパン,0
1686,8021003015876,新規,0,2025-04-17,2025-04-17,合同会社ＨＳ管理,,合同会社,神奈川県,大和市,福田１５７１番地１３,,14,213,2420024,,,,,,,2025-04-17,1,,,,,エイチエスカンリ,0
1693,8030001166012,新規,0,2025-04-17,2025-04-17,株式会社ブレスドオート,,株式会社,埼玉県,東松山市,美原町２丁目２番地２,,11,212,3550010,,,,,,,2025-04-17,1,,,,,ブレスドオート,0
1694,8030001166053,新規,0,2025-04-17,2025-04-17,ＳＹＣＴ株式会社,,株式会社,埼玉県,川口市,西川口１丁目３０番２０－６０６号,,11,203,3320021,,,,,,,2025-04-17,1,,,,,エスワイシーティー,0
1695,8030001166061,新規,0,2025-04-17,2025-04-17,株式会社ＯＯＮＯ,,株式会社,埼玉県,本庄市,若泉２丁目７番４６号,,11,211,3670055,,,,,,,2025-04-17,1,,,,,オオノ,0
1696,8030003026560,新規,0,2025-04-17,2025-04-17,竜輝工務店合同会社,,合同会社,埼玉県,さいたま市緑区,大字大間木７８６番地ボンヌール２０３,,11,109,3360923,,,,,,,2025-04-17,1,,,,,リュウキコウムテン,0
1697,8030003026577,新規,0,2025-04-17,2025-04-17,ＶＩＶＡ　ＧＲＯＵＰ合同会社,,合同会社,埼玉県,川口市,大字芝３９０１番地１サンハウス１０２号,,11,203,3330866,,,,,,,2025-04-17,1,,,,,ヴィヴァグループ,0
1703,8040005022730,新規,0,2025-04-17,2025-04-17,一般社団法人国際スポーツコーチング協会,,その他の設立登記法人,千葉県,印西市,草深２５３０番地６０,,12,231,2701337,,,,,,,2025-04-17,1,,,,,コクサイスポーツコーチングキョウカイ,0
1706,8050001056509,新規,0,2025-04-17,2025-04-17,株式会社Ｇ＆Ｙコーポレーション,,株式会社,茨城県,ひたちなか市,勝田中央４－２オータニビル１階,,08,221,3120045,,,,,,,2025-04-17,1,,,,,ジーアンドワイコーポレーション,0
1712,8080101025451,新規,0,2025-04-17,2025-04-17,株式会社ＨＣ　ＴＲＡＤＩＮＧ,,株式会社,静岡県,富士市,江尾南２６１番地,,22,210,4170817,,,,,,,2025-04-17,1,,,,,エイチシートレーディング,0
1723,8110005017211,新規,0,2025-04-17,2025-04-17,長岡北商工会,,その他の設立登記法人,新潟県,長岡市,与板町与板甲１３４番地２,,15,202,9402402,,,,,,新潟県長岡市与板町与板甲１３４番地２与板町商工会（6110005011380）と新潟県長岡市小島谷３４３４番地４和島村商工会（5110005011381）の合併により設立,2025-04-17,1,,,,,ナガオカキタ,0
1733,8120001274607,新規,0,2025-04-17,2025-04-17,ＷＯＲＬＤ　ＩＬＬＵＭＩＮＡＴＥ株式会社,,株式会社,大阪府,大阪市天王寺区,上之宮町６番３号,,27,109,5430037,,,,,,,2025-04-17,1,,,,,ワールドイルミネイト,0
1734,8120001274623,新規,0,2025-04-17,2025-04-17,株式会社ＭＣ,,株式会社,大阪府,大阪市中央区,南船場３丁目２番２２号おおきに南船場ビル２０５,,27,128,5420081,,,,,,,2025-04-17,1,,,,,エムシー,0
1735,8120001274648,新規,0,2025-04-17,2025-04-17,営業人財育成コンサルティング株式会社,,株式会社,大阪府,大阪市鶴見区,諸口６丁目１５番８０－１１８号,,27,124,5380051,,,,,,,2025-04-17,1,,,,,エイギョウジンザイイクセイコンサルティング,0
1736,8120001274689,新規,0,2025-04-17,2025-04-17,株式会社メディグラシア,,株式会社,大阪府,大阪市北区,梅田１丁目１‐３大阪駅前第３ビル２９階１‐１‐１号室,,27,127,5300001,,,,,,,2025-04-17,1,,,,,メディグラシア,0
1738,8120003029125,新規,0,2025-04-17,2025-04-17,合同会社福西商店,,合同会社,大阪府,守口市,菊水通４丁目６番１２－５０２号,,27,209,5700032,,,,,,,2025-04-17,1,,,,,フクニシショウテン,0
1739,8120003029166,新規,0,2025-04-17,2025-04-17,合同会社Ｔｒｕｓｔ　Ｗａｖｅ　Ｓｏｌｕｔｉｏｎｓ,,合同会社,大阪府,大阪市中央区,南本町４丁目５－７東亜ビル５Ｆ,,27,128,5410054,,,,,,,2025-04-17,1,,,,,トラストウェーブソリューションズ,0
1740,8120005024900,新規,0,2025-04-17,2025-04-17,弁護士法人大阪鶴見法律事務所,,その他の設立登記法人,大阪府,大阪市鶴見区,横堤１丁目１１番４８号セイキ横堤ビル６階,,27,124,5380052,,,,,,,2025-04-17,1,,,,,オオサカツルミホウリツジムショ,0
1742,8120103006395,新規,0,2025-04-17,2025-04-17,猶建築設計合同会社,,合同会社,大阪府,泉佐野市,鶴原４丁目１２番１８号,,27,213,5980071,,,,,,,2025-04-17,1,,,,,ユウケンチクセッケイ,0
1748,8130001079451,新規,0,2025-04-17,2025-04-17,株式会社ｔｈｒｉｖｅ,,株式会社,京都府,京都市下京区,室町新町の間五条上る小田原町２３２番地３,,26,106,6008430,,,,,,,2025-04-17,1,,,,,スライヴ,0
1756,8140001138181,新規,0,2025-04-17,2025-04-17,株式会社坂本電設,,株式会社,兵庫県,伊丹市,荻野２丁目４６番地５,,28,207,6640002,,,,,,,2025-04-17,1,,,,,サカモトデンセツ,0
1761,8150001028051,新規,0,2025-04-17,2025-04-17,株式会社ＴＭカンパニー,,株式会社,奈良県,桜井市,大字阿部１０２０番地１,,29,206,6330054,,,,,,,2025-04-17,1,,,,,ティエムカンパニー,0
1764,8170001018579,新規,0,2025-04-17,2025-04-17,株式会社ＲｅＤｉａ,,株式会社,和歌山県,和歌山市,小雑賀７１４－１クローバービル１階,,30,201,6410007,,,,,,,2025-04-17,1,,,,,リディア,0
1771,8180001166427,新規,0,2025-04-17,2025-04-17,株式会社ＣＯＬＯＲＳ　ＧＲＯＵＰ,,株式会社,愛知県,名古屋市中川区,大畑町１丁目１３３番地ベルハイム大畑１階,,23,110,4540843,,,,,,,2025-04-17,1,,,,,カラーズグループ,0
1773,8180003028344,新規,0,2025-04-17,2025-04-17,合同会社グランドリンク,,合同会社,愛知県,名古屋市西区,名駅２丁目２９－３プリマヴェール名駅２０２号室,,23,104,4510045,,,,,,,2025-04-17,1,,,,,グランドリンク,0
1774,8190001032165,新規,0,2025-04-17,2025-04-17,Ｓｅａ　Ｖｏｉｃｅ株式会社,,株式会社,三重県,四日市市,三滝台２丁目２３番地５,,24,202,5120933,,,,,,,2025-04-17,1,,,,,シーボイス,0
1778,8200005013754,新規,0,2025-04-17,2025-04-17,特定非営利活動法人スマイル幸福寿,,その他の設立登記法人,岐阜県,岐阜市,大菅南７番１５号,,21,201,5010119,,,,,,,2025-04-17,1,,,,,スマイルコウフクジュ,0
1783,8230001020850,新規,0,2025-04-17,2025-04-17,株式会社ヤブタ板金,,株式会社,富山県,高岡市,野村２７０番地３３,,16,202,9330014,,,,,,,2025-04-17,1,,,,,ヤブタバンキン,0
1795,8290001109713,新規,0,2025-04-17,2025-04-17,ケイブロス株式会社,,株式会社,福岡県,福岡市中央区,薬院２丁目７番１号,,40,133,8100022,,,,,,,2025-04-17,1,,,,,ケイブロス,0
1797,8290801031455,新規,0,2025-04-17,2025-04-17,株式会社天商,,株式会社,福岡県,北九州市小倉北区,中津口１丁目２番３－４１２号,,40,106,8020018,,,,,,,2025-04-17,1,,,,,テンショウ,0
1798,8300001014151,新規,0,2025-04-17,2025-04-17,ａｄａｍｓ株式会社,,株式会社,佐賀県,唐津市,二タ子３丁目４番２５号,,41,202,8470861,,,,,,,2025-04-17,1,,,,,アダムス,0
1799,8310001019554,新規,0,2025-04-17,2025-04-17,株式会社櫻,,株式会社,長崎県,長崎市,伊良林１丁目９－３,,42,201,8500802,,,,,,,2025-04-17,1,,,,,,0
1802,8330001033099,新規,0,2025-04-17,2025-04-17,株式会社ガレージジャマイカッ,,株式会社,熊本県,熊本市南区,野口２丁目１－１３,,43,104,8614137,,,,,,,2025-04-17,1,,,,,ガレージジャマイカッ,0
1810,8370001052491,新規,0,2025-04-17,2025-04-17,株式会社チバテクノサービス,,株式会社,宮城県,仙台市宮城野区,岩切字昭和北１８番地の２,,04,102,9830821,,,,,,,2025-04-17,1,,,,,チバテクノサービス,0
1839,9010003047104,新規,0,2025-04-17,2025-04-17,印西ワンＤＣ合同会社,,合同会社,東京都,千代田区,丸の内１丁目４番１号東京共同会計事務所内,,13,101,1000005,,,,,,,2025-04-17,1,,,,,インザイワンディーシー,0
1844,9010401189605,新規,0,2025-04-17,2025-04-17,株式会社ＢＵＺＺ　ＭＵＳＩＣ,,株式会社,東京都,港区,赤坂２丁目１３番１号ルーセント赤坂７階,,13,103,1070052,,,,,,,2025-04-17,1,,,,,バズミュージック,0
1848,9010403034890,新規,0,2025-04-17,2025-04-17,合同会社Ｙ２ＢＬＡＮＣ,,合同会社,東京都,港区,北青山１丁目３番１号アールキューブ青山３階,,13,103,1070061,,,,,,,2025-04-17,1,,,,,ワイツーブラン,0
1849,9010403034899,新規,0,2025-04-17,2025-04-17,ＪＳＨ　Ｈｏｌｄｉｎｇｓ第２号合同会社,,合同会社,東京都,港区,港南２丁目１６番７－２５１２号,,13,103,1080075,,,,,,,2025-04-17,1,,,,,ジェーエスエイチホールディングスダイニゴウ,0
1850,9010405024287,新規,0,2025-04-17,2025-04-17,一般社団法人Ｐｌａｎｅｔａｒｙ　Ｐｌａｔｆｏｒｍｅｒｓ　Ｉｎｉｔｉａｔｉｖｅ,,その他の設立登記法人,東京都,港区,赤坂５丁目３番１号,,13,103,1070052,,,,,,,2025-04-17,1,,,,,プラネタリープラットフォーマーズイニシアティブ,0
1855,9010501053900,新規,0,2025-04-17,2025-04-17,盛興不動産株式会社,,株式会社,東京都,台東区,上野３丁目１７番４号尾上貿易上野ビル３Ｆ,,13,106,1100005,,,,,,,2025-04-17,1,,,,,セイコウフドウサン,0
1858,9010901057195,新規,0,2025-04-17,2025-04-17,株式会社ｄｉｍＱｕｅ,,株式会社,東京都,世田谷区,太子堂４丁目１８番１５号３Ｆ－３,,13,112,1540004,,,,,,,2025-04-17,1,,,,,ディンク,0
1869,9011001169187,新規,0,2025-04-17,2025-04-17,株式会社Ｓｎａｖｉ,,株式会社,東京都,渋谷区,円山町５番３号ＭＩＥＵＸ渋谷ビル８階,,13,113,1500044,,,,,,,2025-04-17,1,,,,,スナビー,0
1870,9011001169286,新規,0,2025-04-17,2025-04-17,株式会社ＶｉａＬｉｎｋ,,株式会社,東京都,渋谷区,円山町５番３号ＭＩＥＵＸ渋谷ビル８階,,13,113,1500044,,,,,,,2025-04-17,1,,,,,ビアリンク,0
1873,9011101111387,新規,0,2025-04-17,2025-04-17,Ｗｉｎ‐Ｗｉｎマッチング株式会社,,株式会社,東京都,新宿区,新宿２丁目１２番１３号新宿アントレサロンビル２階,,13,104,1600022,,,,,,,2025-04-17,1,,,,,ウィンウィンマッチング,0
1875,9011303005511,新規,0,2025-04-17,2025-04-17,ＫＤＸ合同会社,,合同会社,東京都,杉並区,成田西２丁目２４番３１号,,13,115,1660016,,,,,,,2025-04-17,1,,,,,ケイディエックス,0
1878,9011601028577,新規,0,2025-04-17,2025-04-17,れんげケア株式会社,,株式会社,東京都,練馬区,石神井町２丁目１５番１２号グリーンフォレスト１階,,13,120,1770041,,,,,,,2025-04-17,1,,,,,レンゲケア,0
1879,9011605002644,新規,0,2025-04-17,2025-04-17,行政書士法人岡部事務所,,その他の設立登記法人,東京都,練馬区,桜台４丁目２番７号西武桜台ハイム２０１,,13,120,1760002,,,,,,,2025-04-17,1,,,,,オカベジムショ,0
1880,9011701028188,新規,0,2025-04-17,2025-04-17,株式会社ＮＧＵカンパニー,,株式会社,東京都,江戸川区,船堀３丁目５－１９カーサ・シーダ地下１階,,13,123,1340091,,,,,,,2025-04-17,1,,,,,エヌジーユーカンパニー,0
1881,9011801045934,新規,0,2025-04-17,2025-04-17,Ｎ’Ｓ‐ＷＯＲＸ株式会社,,株式会社,東京都,葛飾区,金町６丁目７番１１－５０２号ライオンズステーションプラザ金町,,13,122,1250042,,,,,,,2025-04-17,1,,,,,エヌエスワークス,0
1882,9011801045983,新規,0,2025-04-17,2025-04-17,株式会社いち恵,,株式会社,東京都,足立区,西新井５丁目１９番１－１０２号,,13,121,1230841,,,,,,,2025-04-17,1,,,,,イチエ,0
1884,9012803003698,新規,0,2025-04-17,2025-04-17,合同会社内野企画,,合同会社,東京都,立川市,柴崎町１丁目１４番２８号,,13,202,1900023,,,,,,,2025-04-17,1,,,,,ウチノキカク,0
1885,9013301054093,新規,0,2025-04-17,2025-04-17,株式会社スモールグルーヴ池袋,,株式会社,東京都,豊島区,北大塚１丁目１５番１号プライムメゾン大塚１８０７,,13,116,1700004,,,,,,,2025-04-17,1,,,,,スモールグルーヴイケブクロ,0
1888,9013303007628,新規,0,2025-04-17,2025-04-17,康惠合同会社,,合同会社,東京都,豊島区,西巣鴨３丁目２２番７号ハイツ西巣鴨９０３,,13,116,1700001,,,,,,,2025-04-17,1,,,,,コウケイ,0
1893,9020001162366,新規,0,2025-04-17,2025-04-17,株式会社マグマ,,株式会社,神奈川県,川崎市麻生区,白鳥１丁目１３番１４号－１０２,,14,137,2150024,,,,,,,2025-04-17,1,,,,,マグマ,0
1896,9020003028301,新規,0,2025-04-17,2025-04-17,愛心合同会社,,合同会社,神奈川県,川崎市川崎区,本町２丁目１３番地１１号９０７,,14,131,2100001,,,,,,,2025-04-17,1,,,,,アイシン,0
1897,9020005016808,新規,0,2025-04-17,2025-04-17,特定非営利活動法人ウクライナ横浜基金,,その他の設立登記法人,神奈川県,横浜市中区,北仲通５丁目５７番地２ザ・タワー横浜北仲２６０７号室,,14,104,2310003,,,,,,,2025-04-17,1,,,,,ウクライナヨコハマキキン,0
1900,9021001084971,新規,0,2025-04-17,2025-04-17,小倉工業株式会社,,株式会社,神奈川県,大和市,下鶴間２９５４番地９,,14,213,2420001,,,,,,,2025-04-17,1,,,,,オグラコウギョウ,0
1902,9021005013316,新規,0,2025-04-17,2025-04-17,一般社団法人さがみはら子どもの福祉連絡協議会,,その他の設立登記法人,神奈川県,相模原市中央区,鹿沼台２丁目２４番１２号藤ビル３階,,14,152,2520233,,,,,,,2025-04-17,1,,,,,サガミハラコドモノフクシレンラクキョウギカイ,0
1917,9030001166028,新規,0,2025-04-17,2025-04-17,中島興業株式会社,,株式会社,埼玉県,羽生市,南６丁目１１番地１６,,11,216,3480053,,,,,,,2025-04-17,1,,,,,ナカジマコウギョウ,0
1918,9030001166036,新規,0,2025-04-17,2025-04-17,株式会社Ｔｙｐｆｅｅｔｓ　ｆａｒｍ,,株式会社,埼玉県,さいたま市浦和区,大字三崎１２４番地,,11,107,3300041,,,,,,,2025-04-17,1,,,,,タイプフィーズファーム,0
1920,9030003026584,新規,0,2025-04-17,2025-04-17,合同会社ＰＥＲＦＥＲ,,合同会社,埼玉県,春日部市,中央１丁目１４番地８エターナル春日部４０２,,11,214,3440067,,,,,,,2025-04-17,1,,,,,パーファー,0
1921,9030003026592,新規,0,2025-04-17,2025-04-17,合同会社森田,,合同会社,埼玉県,入間郡三芳町,大字北永井６２０番地２,,11,324,3540044,,,,,,,2025-04-17,1,,,,,モリタ,0
1926,9040001138356,新規,0,2025-04-17,2025-04-17,株式会社Ｅ．ｃｏｍｐａｎｙ,,株式会社,千葉県,市原市,瀬又９４３番地１１,,12,219,2900151,,,,,,,2025-04-17,1,,,,,イーカンパニー,0
1941,9080101025450,新規,0,2025-04-17,2025-04-17,株式会社山下,,株式会社,静岡県,裾野市,茶畑１６５０番地の２０,,22,220,4101121,,,,,,,2025-04-17,1,,,,,ヤマシタ,0
1946,9080401027865,新規,0,2025-04-17,2025-04-17,ハレル株式会社,,株式会社,静岡県,浜松市中央区,板屋町１０２番地の１５,,22,138,4300928,,,,,,,2025-04-17,1,,,,,ハレル,0
1952,9100003008096,新規,0,2025-04-17,2025-04-17,合同会社３８４ｔａ,,合同会社,長野県,長野市,篠ノ井横田８４８,,20,201,3888005,,,,,,,2025-04-17,1,,,,,ミヤシタ,0
1963,9120001274473,新規,0,2025-04-17,2025-04-17,株式会社ＯＮＥｘｉ,,株式会社,大阪府,大阪市大正区,千島３丁目２２番１４号,,27,108,5510003,,,,,,,2025-04-17,1,,,,,ワンクシー,0
1964,9120001274606,新規,0,2025-04-17,2025-04-17,株式会社Ｌｏｏｓｅｒ’Ｓ　ｐｏｓｉｔｉｖｅ＆ａｃｔｉｖｅ,,株式会社,大阪府,大阪市住吉区,我孫子３丁目１１番２６号,,27,120,5580014,,,,,,,2025-04-17,1,,,,,ルーザーズポジティブアンドアクティブ,0
1965,9120001274639,新規,0,2025-04-17,2025-04-17,ＩＮＳＵＬＡＭ株式会社,,株式会社,大阪府,大阪市城東区,野江３丁目２７番８号野江ＩＩ番館４０５号室,00138815,27,118,5360006,,,,,,,2025-04-17,1,,,,,インスラム,0
1966,9120001274663,新規,0,2025-04-17,2025-04-17,東菱株式会社,,株式会社,大阪府,大阪市旭区,大宮１丁目１２番６号ＪＰアパートメント旭３０５号室,,27,117,5350002,,,,,,,2025-04-17,1,,,,,トウリョウ,0
1967,9120001274671,新規,0,2025-04-17,2025-04-17,＿晟株式会社,00138824,株式会社,大阪府,大阪市住吉区,殿辻１丁目２－２６シーズコート住吉２０２－Ｂ,,27,120,5580042,,,,,,,2025-04-17,1,,,,,キンセイ,0
1968,9120001274787,新規,0,2025-04-17,2025-04-17,株式会社Ｆｏｒｐｅａｋ,,株式会社,大阪府,大阪市北区,西天満５丁目９番３号アールビル本館,,27,127,5300047,,,,,,,2025-04-17,1,,,,,フォーピーク,0
1971,9120005024899,新規,0,2025-04-17,2025-04-17,一般社団法人日本貿易協会,,その他の設立登記法人,大阪府,大阪市淀川区,十三本町３丁目５番８－１１０３号,,27,123,5320024,,,,,,,2025-04-17,1,,,,,ニホンボウエキキョウカイ,0
1978,9130001079450,新規,0,2025-04-17,2025-04-17,株式会社ＢＵＬＬ,,株式会社,京都府,城陽市,長池里開２８番地１,,26,207,6100112,,,,,,,2025-04-17,1,,,,,ブル,0
1986,9140001138206,新規,0,2025-04-17,2025-04-17,株式会社キーメドテック,,株式会社,兵庫県,神戸市東灘区,渦森台３丁目４番３号,,28,101,6580066,,,,,,,2025-04-17,1,,,,,キーメドテック,0
1987,9140001138214,新規,0,2025-04-17,2025-04-17,株式会社昭栄地所,,株式会社,兵庫県,姫路市,東雲町３丁目６番地東雲ロイヤルハイツビル４０１,,28,201,6700046,,,,,,,2025-04-17,1,,,,,ショウエイチショ,0
1991,9140003021905,新規,0,2025-04-17,2025-04-17,ＴＡＢＵ　ＴＥＣ合同会社,,合同会社,兵庫県,赤穂市,元町７番地８,,28,212,6780203,,,,,,,2025-04-17,1,,,,,タブテック,0
1998,9180001166327,新規,0,2025-04-17,2025-04-17,株式会社ＴｕｌｅＷｏｏｄ,,株式会社,愛知県,名古屋市中区,大須３丁目３６番２０号スクエア・アパートメント１１０４号,,23,106,4600011,,,,,,,2025-04-17,1,,,,,トゥーレウッド,0
1999,9180001166392,新規,0,2025-04-17,2025-04-17,株式会社ポンプアップ,,株式会社,愛知県,海部郡大治町,大字花常字東屋敷９１番地,,23,424,4901136,,,,,,,2025-04-17,1,,,,,ポンプアップ,0
2000,9180001166418,新規,0,2025-04-17,2025-04-17,株式会社杉原建設工業,,株式会社,愛知県,稲沢市,大矢町村内上９８番地,,23,220,4928412,,,,,,,2025-04-17,1,,,,,スギハラケンセツコウギョウ,0
2001,9180001166442,新規,0,2025-04-17,2025-04-17,株式会社松岡造園,,株式会社,愛知県,常滑市,栄町５丁目７１番地ＦＲＵＯＲＴＯＫＯＮＡＭＥ,,23,216,4790836,,,,,,,2025-04-17,1,,,,,マツオカゾウエン,0
2010,9190001032164,新規,0,2025-04-17,2025-04-17,ＳＬＡＹ株式会社,,株式会社,三重県,伊勢市,前山町９６８番地１,,24,203,5160044,,,,,,,2025-04-17,1,,,,,スレイ,0
2011,9190001032172,新規,0,2025-04-17,2025-04-17,株式会社和,,株式会社,三重県,四日市市,小杉町１６７番地１,,24,202,5120902,,,,,,,2025-04-17,1,,,,,ナゴミ,0
2036,9290801031454,新規,0,2025-04-17,2025-04-17,株式会社アースフル,,株式会社,福岡県,田川郡福智町,伊方１０７７番地１,,40,610,8221211,,,,,,,2025-04-17,1,,,,,アースフル,0
2037,9290803005027,新規,0,2025-04-17,2025-04-17,合同会社タイガー＆ドラゴン,,合同会社,福岡県,北九州市八幡東区,中央２丁目１３番７号,,40,108,8050019,,,,,,,2025-04-17,1,,,,,タイガーアンドドラゴン,0
2040,9310003004990,新規,0,2025-04-17,2025-04-17,レブロンベック合同会社,,合同会社,長崎県,長崎市,大黒町１０番１０号ＫｏＫｏＲｏビル６１６４号室,,42,201,8500057,,,,,,,2025-04-17,1,,,,,レブロンベック,0
2045,9350001019491,新規,0,2025-04-17,2025-04-17,株式会社梶原建設,,株式会社,宮崎県,宮崎市,村角町萩崎２７６４番地３,,45,201,8800837,,,,,,,2025-04-17,1,,,,,カジハラケンセツ,0
2047,9360003014829,新規,0,2025-04-17,2025-04-17,合同会社結設備,,合同会社,沖縄県,島尻郡与那原町,字板良敷５７０番地の１,,47,348,9011301,,,,,,,2025-04-17,1,,,,,ユイセツビ,0
2050,9370003007047,新規,0,2025-04-17,2025-04-17,リフレーミング合同会社,,合同会社,宮城県,仙台市泉区,市名坂字石止１２番地の２・２０３号室,,04,105,9813117,,,,,,,2025-04-17,1,,,,,リフレーミング,0
2054,9420001019096,新規,0,2025-04-17,2025-04-17,株式会社アオモリホープ,,株式会社,青森県,青森市,大字浜田字豊田１５０番地１４,,02,201,0300843,,,,,,,2025-04-17,1,,,,,アオモリホープ,0
2058,9500001026225,新規,0,2025-04-17,2025-04-17,株式会社ルーフシェードプロダクツ,,株式会社,愛媛県,四国中央市,妻鳥町２９３５番地４,,38,213,7990113,,,,,,,2025-04-17,1,,,,,ルーフシェード,0
2061,9700150129989,新規,0,2025-04-17,2025-04-17,ＳＭＡＲＴ　ＭＯＴＯＲ　ＴＥＣＨ,,外国会社等,千葉県,大網白里市,細草１４１２番地１０Ａ,,12,239,2993211,スリランカ民主社会主義共和国、ガンポラ、ナワラピティヤロード、Ｎｏ．７８,,,,,,2025-04-17,1,,,,,スマートモーターテツク,0
