sequenceNumber,corporateNumber,process,correct,updateDate,changeDate,name,nameImageId,kind,prefectureName,cityName,streetNumber,addressImageId,prefectureCode,cityCode,postCode,addressOutside,addressOutsideImageId,closeDate,closeCause,successorCorporateNumber,changeCause,assignmentDate,latest,enName,enPrefectureName,enCityName,enAddressOutside,furigana,hihyoji
7,1010001240576,新規,0,2023-12-07,2023-12-07,株式会社ＳＫＹコーポレーション,,株式会社,東京都,千代田区,鍛冶町１丁目５番４号神田ＮＡビル７Ｆ,,13,101,1010044,,,,,,,2023-12-07,1,,,,,エスケイワイコーポレーション,0
12,1010005037614,新規,0,2023-12-07,2023-12-07,一般社団法人ＭＰＨＷ,,その他の設立登記法人,東京都,千代田区,内神田１丁目３番７号４０１あすな会計事務所内,,13,101,1010047,,,,,,,2023-12-07,1,,,,,エムピーエイチダブリュー,0
23,1010401178912,新規,0,2023-12-07,2023-12-07,プライム・パフォーマンス・ジャパン株式会社,,株式会社,東京都,港区,芝浦４丁目２１番１－４２１１号,,13,103,1080023,,,,,,,2023-12-07,1,,,,,プライムパフォーマンスジャパン,0
24,1010401178961,新規,0,2023-12-07,2023-12-07,株式会社ＢＦ‐２,,株式会社,東京都,港区,東新橋１丁目９番２号汐留住友ビル１６階,,13,103,1050021,,,,,,,2023-12-07,1,,,,,ビーエフツー,0
26,1010403031508,新規,0,2023-12-07,2023-12-07,ｋｈｒａ．ｃｏｍ合同会社,,合同会社,東京都,港区,港南４丁目６番８－３７０２号,,13,103,1080075,,,,,,,2023-12-07,1,,,,,ケーエイチアールエードットコム,0
30,1010405022752,新規,0,2023-12-07,2023-12-07,一般社団法人日本水煙草協会,,その他の設立登記法人,東京都,港区,六本木７丁目１８－８,,13,103,1060032,,,,,,,2023-12-07,1,,,,,ニホンミズタバコキョウカイ,0
31,1010405022760,新規,0,2023-12-07,2023-12-07,ＳＡＯ社会保険労務士法人,,その他の設立登記法人,東京都,港区,赤坂２丁目１４番５号Ｄａｉｗａ赤坂ビル７階,,13,103,1070052,,,,,,,2023-12-07,1,,,,,エスエーオー,0
38,1010601064301,新規,0,2023-12-07,2023-12-07,株式会社Ｌｅａｄｉｎｇ　Ｓｔａｒｔｕｐ　Ｓｑｕａｒｅ,,株式会社,東京都,江東区,豊洲３丁目２番２４号豊洲フォレシア１０階,,13,108,1350061,,,,,,,2023-12-07,1,,,,,リーディングスタートアップスクエア,0
43,1010801034582,新規,0,2023-12-07,2023-12-07,株式会社ｅｓｔｅｅ,,株式会社,東京都,大田区,山王２丁目２４番２号,,13,111,1430023,,,,,,,2023-12-07,1,,,,,エスティー,0
44,1010803004773,新規,0,2023-12-07,2023-12-07,合同会社オタスケニャー,,合同会社,東京都,大田区,大森北４丁目１３番３号,,13,111,1430016,,,,,,,2023-12-07,1,,,,,オタスケニャー,0
47,1010901054299,新規,0,2023-12-07,2023-12-07,株式会社サード・クリエイション,,株式会社,東京都,世田谷区,池尻４丁目８番１－７０２号,,13,112,1540001,,,,,,,2023-12-07,1,,,,,サードクリエイション,0
59,1011303004990,新規,0,2023-12-07,2023-12-07,リュカイオン合同会社,,合同会社,東京都,杉並区,上井草２丁目１４番１８号,,13,115,1670023,,,,,,,2023-12-07,1,,,,,リュカイオン,0
75,1012801022807,新規,0,2023-12-07,2023-12-07,株式会社ＪＰＯＣパートナーズ,,株式会社,東京都,国分寺市,本町３丁目１番１号シティタワー国分寺ザ・ツインウエストＷ２６０９,,13,214,1850012,,,,,,,2023-12-07,1,,,,,ジェイポックパートナーズ,0
82,1020001154783,新規,0,2023-12-07,2023-12-07,花の世界株式会社,,株式会社,神奈川県,横浜市中区,花咲町２丁目６２番地５－３Ｆ,,14,104,2310063,,,,,,,2023-12-07,1,,,,,ハナノセカイ,0
83,1020001154791,新規,0,2023-12-07,2023-12-07,株式会社ＳＴＡＰ,,株式会社,神奈川県,横浜市中区,桜木町１丁目１番地桜木町ぴおシティ５階,,14,104,2310062,,,,,,,2023-12-07,1,,,,,スタップ,0
86,1020003025132,新規,0,2023-12-07,2023-12-07,合同会社ｓｅｌｆｉｓｔ,,合同会社,神奈川県,横浜市西区,北幸２丁目１０番４８号むつみビル３Ｆ,,14,103,2200004,,,,,,,2023-12-07,1,,,,,セルフィスト,0
87,1020003025140,新規,0,2023-12-07,2023-12-07,合同会社ノガミ,,合同会社,神奈川県,川崎市川崎区,小田２丁目８番１７－３号,,14,131,2100846,,,,,,,2023-12-07,1,,,,,ノガミ,0
90,1021001080887,新規,0,2023-12-07,2023-12-07,株式会社ＹＳＫ,,株式会社,神奈川県,高座郡寒川町,岡田２丁目１４番２４号,,14,321,2530105,,,,,,,2023-12-07,1,,,,,ワイエスケー,0
91,1021001080912,新規,0,2023-12-07,2023-12-07,株式会社ＳＯＬ　Ｘ　ＣＩＥＬＯ,,株式会社,神奈川県,逗子市,逗子１丁目８－１カネノブビル２Ｆ,,14,208,2490006,,,,,,,2023-12-07,1,,,,,ソルバイシエロ,0
94,1021003013878,新規,0,2023-12-07,2023-12-07,合同会社Ｙｏｋｏｈａｍａ　Ｃｏｕｎｓｅｌｉｎｇ　Ｏｆｆｉｃｅ,,合同会社,神奈川県,相模原市中央区,氷川町１７番７号ザ・プレステージグラン５０１号室,,14,152,2520215,,,,,,,2023-12-07,1,,,,,ヨコハマカウンセリングオフィス,0
100,1030001157505,新規,0,2023-12-07,2023-12-07,株式会社ばすけっと,,株式会社,埼玉県,熊谷市,村岡４５１番地１,,11,202,3600162,,,,,,,2023-12-07,1,,,,,バスケット,0
101,1030001157513,新規,0,2023-12-07,2023-12-07,株式会社ディアスポラ,,株式会社,埼玉県,幸手市,北２丁目１１番２７号,,11,240,3400111,,,,,,,2023-12-07,1,,,,,ディアスポラ,0
102,1030001157521,新規,0,2023-12-07,2023-12-07,野崎空調株式会社,00132908,株式会社,埼玉県,川越市,大字中福５９５番地９,,11,201,3501156,,,,,,,2023-12-07,1,,,,,ノザキクウチョウ,0
103,1030001157538,新規,0,2023-12-07,2023-12-07,株式会社くらしラボ,,株式会社,埼玉県,川口市,大字石神５８１番地の１１,,11,203,3330823,,,,,,,2023-12-07,1,,,,,クラシラボ,0
108,1030003023135,新規,0,2023-12-07,2023-12-07,合同会社明石会計コンサルティング,,合同会社,埼玉県,朝霞市,本町２丁目２７番３７号,,11,227,3510011,,,,,,,2023-12-07,1,,,,,アカシカイケイコンサルティング,0
109,1030003023143,新規,0,2023-12-07,2023-12-07,合同会社リビテージ,,合同会社,埼玉県,さいたま市南区,神明２丁目３番７－３号,,11,108,3360023,,,,,,,2023-12-07,1,,,,,リビテージ,0
110,1030003023151,新規,0,2023-12-07,2023-12-07,合同会社ｒａｎｄｉ,,合同会社,埼玉県,所沢市,大字山口５７番地の１４１,,11,208,3591145,,,,,,,2023-12-07,1,,,,,ランディ,0
123,1040001131104,新規,0,2023-12-07,2023-12-07,雄の旅株式会社,,株式会社,千葉県,東金市,堀之内５２７番地５－１０４号,,12,213,2830027,,,,,,,2023-12-07,1,,,,,ユウノタビ,0
124,1040001131194,新規,0,2023-12-07,2023-12-07,株式会社大黒土地建物,,株式会社,千葉県,市川市,新田５丁目１８番１４号,,12,203,2720035,,,,,,,2023-12-07,1,,,,,,0
125,1040001131244,新規,0,2023-12-07,2023-12-07,株式会社Ｊｅｕｎｅｓｓｅ,,株式会社,千葉県,市川市,市川１丁目２３番８号みどりやビル５０１,,12,203,2720034,,,,,,,2023-12-07,1,,,,,ジュネス,0
128,1040003023877,新規,0,2023-12-07,2023-12-07,ＶｉｖｏＫｅｙ　Ｊａｐａｎ合同会社,,合同会社,千葉県,千葉市中央区,富士見１丁目１４－１３千葉大栄ビル８Ｆ,,12,101,2600015,,,,,,,2023-12-07,1,,,,,ヴィヴォキージャパン,0
131,1050001053917,新規,0,2023-12-07,2023-12-07,株式会社麺香ホールディングス,,株式会社,茨城県,常総市,中妻町３９７１－１,,08,211,3002505,,,,,,,2023-12-07,1,,,,,,0
156,1120001260324,新規,0,2023-12-07,2023-12-07,株式会社Ｒｉｃｃｉ　ｉｎｃｒｅａｓｅ,,株式会社,大阪府,大阪市北区,曾根崎１丁目３番６号梅田レジデンスＴＯＷＥＲ２２０２,,27,127,5300057,,,,,,,2023-12-07,1,,,,,リッチインクリーズ,0
157,1120001260373,新規,0,2023-12-07,2023-12-07,株式会社スクラムパートナーズ,,株式会社,大阪府,大阪市阿倍野区,松崎町３丁目１番１５号,,27,119,5450053,,,,,,,2023-12-07,1,,,,,スクラムパートナーズ,0
161,1120005024031,新規,0,2023-12-07,2023-12-07,弁護士法人ＭＩＴＳＵＢＯＳＨＩ,,その他の設立登記法人,大阪府,大阪市中央区,道修町３丁目２番６号,,27,128,5410045,,,,,,,2023-12-07,1,,,,,ミツボシ,0
163,1120101068650,新規,0,2023-12-07,2023-12-07,株式会社日本就労支援ネットワーク,,株式会社,大阪府,阪南市,下出７４３番地の１７,,27,232,5990202,,,,,,,2023-12-07,1,,,,,ニホンシュウロウシエンネットワーク,0
164,1120101068659,新規,0,2023-12-07,2023-12-07,京華文化交流協会株式会社,,株式会社,大阪府,堺市西区,浜寺南町２丁４１２番地１（３号）,,27,144,5928344,,,,,,,2023-12-07,1,,,,,キョウカブンカコウリュウキョウカイ,0
166,1120103005569,新規,0,2023-12-07,2023-12-07,合同会社アクトナース,,合同会社,大阪府,和泉市,葛の葉町３丁目５番１７７号,,27,219,5940081,,,,,,,2023-12-07,1,,,,,アクトナース,0
168,1120903004951,新規,0,2023-12-07,2023-12-07,合同会社ｗａｒｍ　ｈｅａｒｔ,,合同会社,大阪府,吹田市,岸部中３丁目２６番１号（５０２）,,27,205,5640002,,,,,,,2023-12-07,1,,,,,ウォームハート,0
172,1122001037628,新規,0,2023-12-07,2023-12-07,株式会社ことほぎ,,株式会社,大阪府,八尾市,曙川東８丁目１２０番地の１,,27,212,5810020,,,,,,,2023-12-07,1,,,,,コトホギ,0
173,1122003002745,新規,0,2023-12-07,2023-12-07,アマン合同会社,,合同会社,大阪府,東大阪市,森河内西２丁目３６番２８号,,27,227,5770061,,,,,,,2023-12-07,1,,,,,アマン,0
174,1130005016944,新規,0,2023-12-07,2023-12-07,特定非営利活動法人風と土の交響,,その他の設立登記法人,京都府,南丹市,園部町黒田西片山１１番地,,26,213,6220052,,,,,,,2023-12-07,1,,,,,カゼトツチノコウキョウ,0
177,1140001132587,新規,0,2023-12-07,2023-12-07,株式会社キミノウタ,,株式会社,兵庫県,尼崎市,七松町２丁目６番１４号,,28,202,6600052,,,,,,,2023-12-07,1,,,,,キミノウタ,0
179,1140005026827,新規,0,2023-12-07,2023-12-07,農事組合法人越知谷営農,,その他の設立登記法人,兵庫県,神崎郡神河町,越知３０５番地の１,,28,446,6792404,,,,,,,2023-12-07,1,,,,,オチダニエイノウ,0
180,1150005009533,新規,0,2023-12-07,2023-12-07,医療法人桜雲会,,その他の設立登記法人,奈良県,葛城市,尺土９番１０号あすかビル２階,,29,211,6392162,,,,,,,2023-12-07,1,,,,,オウウンカイ,0
185,1180001159214,新規,0,2023-12-07,2023-12-07,ゼンライフコンサルティング株式会社,,株式会社,愛知県,名古屋市中区,丸の内３丁目７－２６ＡＣＡビル８階,,23,106,4600002,,,,,,,2023-12-07,1,,,,,ゼンライフコンサルティング,0
186,1180001159239,新規,0,2023-12-07,2023-12-07,株式会社ＲＥＭＯＴＯ,,株式会社,愛知県,名古屋市港区,港陽１丁目１番５０号ファミール港陽ベイレジデンス９０８,,23,111,4550013,,,,,,,2023-12-07,1,,,,,リモト,0
189,1180003026081,新規,0,2023-12-07,2023-12-07,合同会社スナハタ,,合同会社,愛知県,名古屋市守山区,瀬古１丁目１２２０番地,,23,113,4630068,,,,,,,2023-12-07,1,,,,,スナハタ,0
190,1180005020446,新規,0,2023-12-07,2023-12-07,一般社団法人創の会,,その他の設立登記法人,愛知県,名古屋市西区,牛島町６番１号名古屋ルーセントタワー３６階,,23,104,4510046,,,,,,,2023-12-07,1,,,,,ソウノカイ,0
192,1180301038092,新規,0,2023-12-07,2023-12-07,株式会社１３Ａｌｌ,,株式会社,愛知県,刈谷市,桜町２丁目５３番地サンライフビル１階,,23,210,4480028,,,,,,,2023-12-07,1,,,,,サーティーンオール,0
196,1200005013546,新規,0,2023-12-07,2023-12-07,一般社団法人介縁隊,,その他の設立登記法人,岐阜県,各務原市,緑苑南２丁目１６番地,,21,213,5090115,,,,,,,2023-12-07,1,,,,,カイエンタイ,0
197,1210001019570,新規,0,2023-12-07,2023-12-07,株式会社若狭地域活性化研究所,,株式会社,福井県,大飯郡おおい町,本郷９３字道部２５番地１,,18,483,9192111,,,,,,,2023-12-07,1,,,,,ワカサチイキカッセイカケンキュウショ,0
202,1230001020130,新規,0,2023-12-07,2023-12-07,株式会社彩舎,,株式会社,富山県,高岡市,泉が丘３３００番地７４,,16,202,9330827,,,,,,,2023-12-07,1,,,,,サイシャ,0
214,1270003001579,新規,0,2023-12-07,2023-12-07,合同会社ＳＨＩＧＥ　Ｌａｂ,,合同会社,鳥取県,鳥取市,若葉台南５丁目５番１０号,,31,201,6891112,,,,,,,2023-12-07,1,,,,,シゲラボ,0
219,1290001103953,新規,0,2023-12-07,2023-12-07,ＴＫ　ＩＮＴＥＲＮＡＴＩＯＮＡＬ株式会社,,株式会社,福岡県,福岡市博多区,祇園町８番１３号,,40,132,8120038,,,,,,,2023-12-07,1,,,,,ティーケイインターナショナル,0
225,1320001020179,新規,0,2023-12-07,2023-12-07,日装株式会社,,株式会社,大分県,竹田市,大字玉来１００８番地,,44,208,8780024,,,,,,,2023-12-07,1,,,,,ニッソウ,0
228,1330003010111,新規,0,2023-12-07,2023-12-07,合同会社河瀬果樹園,,合同会社,熊本県,宇城市,三角町手場５８５番地,,43,213,8693212,,,,,,,2023-12-07,1,,,,,カワセカジュエン,0
229,1340001026109,新規,0,2023-12-07,2023-12-07,Ｓａｌアセット株式会社,,株式会社,鹿児島県,曽於郡大崎町,野方字迫谷５９５６番地１６,,46,468,8998313,,,,,,,2023-12-07,1,,,,,セールアセット,0
231,1350001018690,新規,0,2023-12-07,2023-12-07,株式会社ＳＴＥＡＬ,,株式会社,宮崎県,宮崎市,大字大瀬町字境田１６７３番３,,45,201,8800045,,,,,,,2023-12-07,1,,,,,スティール,0
233,1350003004516,新規,0,2023-12-07,2023-12-07,合同会社シンプルサポート,,合同会社,宮崎県,宮崎市,権現町１７０－１ＫｏＯｌｉｎａＧｏｎｇｅｎ３０７,,45,201,8800822,,,,,,,2023-12-07,1,,,,,シンプルサポート,0
238,1370001050691,新規,0,2023-12-07,2023-12-07,株式会社ジェイ・クリエイターコンシューマーサービス,,株式会社,宮城県,仙台市宮城野区,小田原２丁目１番２８号,,04,102,9830803,,,,,,,2023-12-07,1,,,,,ジェイクリエイターコンシューマーサービス,0
240,1380001034173,新規,0,2023-12-07,2023-12-07,株式会社亜細亜物産店,,株式会社,福島県,郡山市,安積町日出山３丁目２７５番地,,07,203,9630101,,,,,,,2023-12-07,1,,,,,アジアブッサンテン,0
242,1390001017433,新規,0,2023-12-07,2023-12-07,渋谷株式会社,,株式会社,山形県,西村山郡西川町,大字海味１３４２番地１,,06,322,9900702,,,,,,,2023-12-07,1,,,,,シブヤ,0
244,1420003002842,新規,0,2023-12-07,2023-12-07,コンプリート合同会社,,合同会社,青森県,東津軽郡蓬田村,大字瀬辺地字田浦３１番地,,02,304,0301202,,,,,,,2023-12-07,1,,,,,コンプリート,0
246,1430001090608,新規,0,2023-12-07,2023-12-07,ＩＡＭ　Ｓｐｏｒｔ　Ｊａｐａｎ株式会社,,株式会社,北海道,札幌市白石区,川下二条７丁目２番８号‐３０１,,01,104,0030862,,,,,,,2023-12-07,1,,,,,アイアムスポーツジャパン,0
248,1430003015728,新規,0,2023-12-07,2023-12-07,合同会社Ｎａｎｏ．,,合同会社,北海道,札幌市豊平区,水車町２丁目３番２３号メゾンＦｕｊｉＶＩＩ－５号,00132905,01,105,0620912,,,,,,,2023-12-07,1,,,,,ナノ,0
254,1700150122539,新規,0,2023-12-07,2023-12-07,ｓｈｅｎｚｈｅｎｓｈｉｃｈａｎｇｌｕｄｉａｎｚｉ　ｙｏｕｘｉａｎｇｏｎｇｓｉ,,外国会社等,,,,,,,,ｂａｏａｎｑｕｘｉｎｑｉａｏｊｉｅｄａｏｈｕａｎｇｐｕｓｈｅｑｕｎａｎｄｏｎｇｚｈｅｎｔｏｕｌｕｒｕｎｈｅｇｏｎｇｙｅｙｕａｎｃｈａｎｇｆａｎｇＢｄｏｎｇｅｒｃｅｎｇｓｈｅｎｚｈｅｎｓｈｉ,,,,,,2023-12-07,1,,,,,シンセンシチャンルデンシユウゲンコウシ,0
255,1700150122547,新規,0,2023-12-07,2023-12-07,ＳｈｅｎｚｈｅｎＳｈｉＪｉｎｇｓｈａｎｇｘｉｎＫｅｊｉ　ＹｏｕｘｉａｎＧｏｎｇｓｉ,,外国会社等,,,,,,,,ＢａｏａｎＱｕＸｉｘｉａｎｇＪｉｅｄａｏＨａｏｙｅＳｈｅｑｕＢａｏａｎＨｕｌｉａｎｗａｎｇＣｈａｎｙｅＪｉｄｉＡＱｕ５Ｄｏｎｇ６０９Ｓｈｅｎｚｈｅｎｓｈｉ,,,,,,2023-12-07,1,,,,,シンセンシジンサンシンカギユウゲンコウシ,0
256,1700150122555,新規,0,2023-12-07,2023-12-07,ｓｈｅｎｚｈｅｎｓｈｉ　ａｉｎｕｏｓｅｎ　ｋｅｊｉｙｏｕｘｉａｎｇｏｎｇｓｉ,,外国会社等,,,,,,,,ｂａｎｔｉａｎｊｉｅｄａｏ　ｂａｎｔｉａｎｓｈｅｑｕ　ｂａｎｔｉａｎｓａｎｇｏｎｇｙｅｑｕ　５ｄｏｎｇ４ｃｅｎｇｎａｎ４０４　ｓｈｅｎｚｈｅｎｓｈｉ　ｌｏｎｇｇａｎｇｑｕ,,,,,,2023-12-07,1,,,,,シンセンシアイノセンカギユウゲンコウシ,0
257,1700150122563,新規,0,2023-12-07,2023-12-07,ｔｏｎｘｉａｎｇｓｈｉｈｅｌａｄｉａｎｚｉｓｈａｎｇｗｕｙｏｕｘｉａｎｚｅｒｅｎｇｏｎｇｓｉ,,外国会社等,,,,,,,,ｙｏｎｇｙｕｅｘｉｎｃｕｎ３２１ｈａｏ２ｌｏｕ２０２ｓｈｉ　ｔｏｎｇｘｉａｎｇｓｈｉｐｕｙｕａｎｚｈｅｎ　ｚｈｅｊｉａｎｇｓｈｅｎｇ　３１４５０２　ＣＮ,,,,,,2023-12-07,1,,,,,トウキョウシカラデンシショウムユウゲンコウシ,0
258,1700150122571,新規,0,2023-12-07,2023-12-07,Ｓｈｅｎｚｈｅｎｓｈｉ　ｓｈａｎｇｙｕｊｉｓｈｕ　ｙｏｕｘｉａｎｇｏｎｇｓｉ,,外国会社等,,,,,,,,Ｕｎｉｔ　１６１６Ｃ，Ｂｕｉｌｄｉｎｇ　Ａ，Ｗｅｉｄｏｎｇｌｏｎｇ　Ｂｕｓｉｎｅｓｓ　Ｂｕｉｌｄｉｎｇ，Ｎｏ．４５４９，Ｌｏｎｇｈｕａ　Ａｖｅｎｕｅ，Ｌｏｎｇｈｕａ　Ｓｔｒｅｅｔ，Ｌｏｎｇｈｕａ　Ｄｉｓｔｒｉｃｔ，Ｓｈｅｎｚｈｅｎ，Ｃｈｉｎａ,,,,,,2023-12-07,1,,,,,シェンジェンシーシャンイージーシューヨウシエンゴンスー,0
266,2010001240600,新規,0,2023-12-07,2023-12-07,株式会社Ｃｏｅｕｒ　ｒｉｃｈｅ,,株式会社,東京都,中央区,築地４丁目１０番１４号加藤ビル１階５番,,13,102,1040045,,,,,,,2023-12-07,1,,,,,クールリッシュ,0
267,2010003042375,新規,0,2023-12-07,2023-12-07,合同会社ＳＰＣ　Ｃｈｉｙｏｄａ,,合同会社,東京都,千代田区,平河町１丁目６番１５号シルスフィア会計事務所内,,13,101,1020093,,,,,,,2023-12-07,1,,,,,エスピーシーチヨダ,0
269,2010005037605,新規,0,2023-12-07,2023-12-07,一般社団法人第三者保守協会,,その他の設立登記法人,東京都,千代田区,九段南３丁目５番７号,,13,101,1020074,,,,,,,2023-12-07,1,,,,,ダイサンシャホシュキョウカイ,0
277,2010401178944,新規,0,2023-12-07,2023-12-07,株式会社タカハシ・コーポレーション,,株式会社,東京都,港区,南青山５丁目４番２９－２０２号,,13,103,1070062,,,,,,,2023-12-07,1,,,,,タカハシコーポレーション,0
278,2010401178960,新規,0,2023-12-07,2023-12-07,株式会社ＢＦ‐１,,株式会社,東京都,港区,東新橋１丁目９番２号汐留住友ビル１６階,,13,103,1050021,,,,,,,2023-12-07,1,,,,,ビーエフワン,0
288,2010601064259,新規,0,2023-12-07,2023-12-07,株式会社ハリマックス,,株式会社,東京都,江東区,豊洲６丁目２番３１－３８２６号,,13,108,1350061,,,,,,,2023-12-07,1,,,,,ハリマックス,0
294,2010701045233,新規,0,2023-12-07,2023-12-07,トウキョウステイ株式会社,,株式会社,東京都,品川区,大井７丁目２７番４－４０１号,,13,109,1400014,,,,,,,2023-12-07,1,,,,,トウキョウステイ,0
298,2010901054307,新規,0,2023-12-07,2023-12-07,株式会社ｎｅｗｂｉｚｗｏｒｋｓ,,株式会社,東京都,世田谷区,用賀１丁目２０番２２号,,13,112,1580097,,,,,,,2023-12-07,1,,,,,ニュービズワークス,0
299,2010903008632,新規,0,2023-12-07,2023-12-07,合同会社Ｋ‐ＣＯＭＰＡＮＹ,,合同会社,東京都,世田谷区,千歳台１丁目２９番１－７１１号,,13,112,1570071,,,,,,,2023-12-07,1,,,,,ケイカンパニー,0
308,2011101105395,新規,0,2023-12-07,2023-12-07,ＫＵＳＡＷＡＺＡ株式会社,,株式会社,東京都,新宿区,西新宿７丁目２番６号西新宿Ｋ－１ビル４階４０４号室,,13,104,1600023,,,,,,,2023-12-07,1,,,,,クサワザ,0
312,2011105010880,新規,0,2023-12-07,2023-12-07,一般社団法人子孫へのラブレターあなたの想いとコトバがこの世の光となる,,その他の設立登記法人,東京都,新宿区,西新宿３丁目３番１３号西新宿水間ビル６階,,13,104,1600023,,,,,,,2023-12-07,1,,,,,シソンヘノラブレターアナタノオモイトコトバガコノヨノヒカリトナル,0
314,2011201025072,新規,0,2023-12-07,2023-12-07,株式会社志賀総業,,株式会社,東京都,中野区,野方４丁目４５番１号,,13,114,1650027,,,,,,,2023-12-07,1,,,,,,0
321,2011701026826,新規,0,2023-12-07,2023-12-07,レッツネクスト株式会社,,株式会社,東京都,江戸川区,平井５丁目５１番１０号,,13,123,1320035,,,,,,,2023-12-07,1,,,,,レッツネクスト,0
322,2011701026834,新規,0,2023-12-07,2023-12-07,株式会社ＨＩＸＹ,,株式会社,東京都,江戸川区,平井５丁目１６番２号Ｃａｐｐｕｃｃｉｎｏ　ＲｅｓｉｄｅｎｃｅＩＩ３階,00132906,13,123,1320035,,,,,,,2023-12-07,1,,,,,ヒキシー,0
327,2012801022806,新規,0,2023-12-07,2023-12-07,株式会社アドフィルム,,株式会社,東京都,国分寺市,東元町２丁目２０番４号,,13,214,1850022,,,,,,,2023-12-07,1,,,,,アドフィルム,0
333,2020001154799,新規,0,2023-12-07,2023-12-07,ＲＵＣＩＳ株式会社,,株式会社,神奈川県,横浜市神奈川区,金港町５,,14,102,2210056,,,,,,,2023-12-07,1,,,,,ルーキス,0
334,2020001154808,新規,0,2023-12-07,2023-12-07,株式会社カマモミ,,株式会社,神奈川県,川崎市幸区,古川町１１番地４,,14,132,2120025,,,,,,,2023-12-07,1,,,,,カマモミ,0
340,2021001080903,新規,0,2023-12-07,2023-12-07,株式会社近藤工務店,,株式会社,神奈川県,大和市,桜森２丁目７番１３号ＣＡＳＡ・ＳＡＧＡＭＩＯＴＵＫＡ１０６,,14,213,2420028,,,,,,,2023-12-07,1,,,,,コンドウコウムテン,0
341,2021001080911,新規,0,2023-12-07,2023-12-07,株式会社Ｌａｖｅｎｄｅｒ,,株式会社,神奈川県,藤沢市,湘南台２丁目２番地の２三和トラストビル１Ｆ,,14,205,2520804,,,,,,,2023-12-07,1,,,,,ラベンダー,0
347,2030001157504,新規,0,2023-12-07,2023-12-07,株式会社スイショウ,,株式会社,埼玉県,比企郡吉見町,東野６丁目１５番地１８,,11,347,3550110,,,,,,,2023-12-07,1,,,,,スイショウ,0
348,2030001157512,新規,0,2023-12-07,2023-12-07,株式会社Ｂｉｇ　Ｍｏｕｎｔａｉｎ,,株式会社,埼玉県,さいたま市大宮区,上小町４４７番地,,11,103,3300855,,,,,,,2023-12-07,1,,,,,ビッグマウンテン,0
349,2030001157520,新規,0,2023-12-07,2023-12-07,インクワークス株式会社,,株式会社,埼玉県,東松山市,大字市ノ川１１４番地３,,11,212,3550006,,,,,,,2023-12-07,1,,,,,インクワークス,0
350,2030001157529,新規,0,2023-12-07,2023-12-07,株式会社Ｔ・Ｍ,,株式会社,埼玉県,志木市,下宗岡２丁目６番１－３号,,11,228,3530003,,,,,,,2023-12-07,1,,,,,ティーエム,0
351,2030001157537,新規,0,2023-12-07,2023-12-07,株式会社ウォールワン,,株式会社,埼玉県,川越市,中台１丁目４番地４,,11,201,3501159,,,,,,,2023-12-07,1,,,,,ウォールワン,0
352,2030001157545,新規,0,2023-12-07,2023-12-07,株式会社Ｍｉｌａｎａ,,株式会社,埼玉県,川越市,新富町２丁目２番地５,,11,201,3500043,,,,,,,2023-12-07,1,,,,,ミラーナ,0
356,2030003023150,新規,0,2023-12-07,2023-12-07,ハセガワメディカル合同会社,,合同会社,埼玉県,川口市,大字芝７０４２番地の３３ＬＰ南浦和第２９－１０１号,,11,203,3330866,,,,,,,2023-12-07,1,,,,,ハセガワメディカル,0
357,2030005021490,新規,0,2023-12-07,2023-12-07,一般社団法人共力ＫＡＳＵＫＡＢＥ,,その他の設立登記法人,埼玉県,春日部市,銚子口９７９,,11,214,3440013,,,,,,,2023-12-07,1,,,,,キョウリョクカスカベ,0
362,2040001131235,新規,0,2023-12-07,2023-12-07,株式会社Ｋａｎｐｅｋｉ　Ｐａｒｔｎｅｒ,,株式会社,千葉県,東金市,台方１７４番地３,,12,213,2830811,,,,,,,2023-12-07,1,,,,,カンペキパートナー,0
363,2040001131251,新規,0,2023-12-07,2023-12-07,三福商貿株式会社,,株式会社,千葉県,船橋市,高根台７丁目９－１５－２Ｆ,,12,204,2740065,,,,,,,2023-12-07,1,,,,,サンフクショウボウ,0
368,2050005013362,新規,0,2023-12-07,2023-12-07,ステップ社会保険労務士法人,,その他の設立登記法人,茨城県,鹿嶋市,大字宮中２０１０番地３カシマ９５ビル１Ｆ,,08,222,3140031,,,,,,,2023-12-07,1,,,,,ステップ,0
369,2060001036606,新規,0,2023-12-07,2023-12-07,株式会社三洋総合建築,,株式会社,栃木県,那須烏山市,白久６０１番地１,,09,215,3210601,,,,,,,2023-12-07,1,,,,,サンヨウソウゴウケンチク,0
374,2080101024376,新規,0,2023-12-07,2023-12-07,株式会社マインドフルネスコンサルティング,,株式会社,静岡県,富士宮市,矢立町４６３番地,,22,207,4180072,,,,,,,2023-12-07,1,,,,,マインドフルネスコンサルティング,0
391,2120001260372,新規,0,2023-12-07,2023-12-07,株式会社ｘａｐｔｉａ,,株式会社,大阪府,大阪市淀川区,木川東３丁目４番１８号中村第２ビル４０１号室,,27,123,5320012,,,,,,,2023-12-07,1,,,,,カルティア,0
392,2120001260463,新規,0,2023-12-07,2023-12-07,株式会社ＥＲＩＣ,,株式会社,大阪府,大阪市生野区,新今里１丁目１５番２１号ＧｒａｎｄＰａｃｉｆｉｃ今里ｉｎｎｏｖａｔｉｏｎ９０１,,27,116,5440001,,,,,,,2023-12-07,1,,,,,エリック,0
395,2120005024039,新規,0,2023-12-07,2023-12-07,一般社団法人龍佑会,,その他の設立登記法人,大阪府,大阪市北区,梅田２丁目２番２号ヒルトンプラザウエスト４階,,27,127,5300001,,,,,,,2023-12-07,1,,,,,リュウユウカイ,0
399,2120101068658,新規,0,2023-12-07,2023-12-07,株式会社ｐｉｎｅｆｌａｔ,,株式会社,大阪府,阪南市,尾崎町３丁目１０－１４,,27,232,5990201,,,,,,,2023-12-07,1,,,,,パインフラット,0
400,2120901048438,新規,0,2023-12-07,2023-12-07,株式会社サンデリックス,,株式会社,大阪府,豊中市,蛍池東町一丁目６－８リバーサイドビルＩＩ・１Ｆ,00132912,27,203,5600000,,,,,,,2023-12-07,1,,,,,サンデリックス,0
401,2120901048446,新規,0,2023-12-07,2023-12-07,株式会社ミヤビコーポレーション,,株式会社,大阪府,箕面市,箕面６丁目９番９号（１０２号）,,27,220,5620001,,,,,,,2023-12-07,1,,,,,ミヤビコーポレーション,0
402,2120903004950,新規,0,2023-12-07,2023-12-07,オレンジライフ合同会社,,合同会社,大阪府,吹田市,新芦屋上２４番１－１２１０号,00132907,27,205,5650804,,,,,,,2023-12-07,1,,,,,オレンジライフ,0
409,2140002042818,新規,0,2023-12-07,2023-12-07,有限会社武庫川湯,,有限会社,兵庫県,尼崎市,大庄西町１丁目３９番２５号,,28,202,6600077,,,,,,,2023-12-07,1,,,,,ムコガワユ,0
413,2140005026826,新規,0,2023-12-07,2023-12-07,税理士法人オアシス総研,,その他の設立登記法人,兵庫県,神戸市中央区,御幸通４丁目２－１５三宮米本ビル７階,,28,110,6510087,,,,,,,2023-12-07,1,,,,,オアシスソウケン,0
415,2150005009532,新規,0,2023-12-07,2023-12-07,医療法人あさくら会,,その他の設立登記法人,奈良県,桜井市,大字黒崎６４６番地１,,29,206,6330011,,,,,,,2023-12-07,1,,,,,アサクラカイ,0
424,2180001159279,新規,0,2023-12-07,2023-12-07,株式会社リバティ・キャリア,,株式会社,愛知県,丹羽郡扶桑町,大字柏森字辻田６４６番地,,23,362,4800103,,,,,,,2023-12-07,1,,,,,リバティキャリア,0
428,2180301038091,新規,0,2023-12-07,2023-12-07,株式会社宮崎工業,,株式会社,愛知県,知立市,新林町新林３５番地３６,,23,225,4720017,,,,,,,2023-12-07,1,,,,,ミヤザキコウギョウ,0
430,2180303005924,新規,0,2023-12-07,2023-12-07,Ｚｅｒｏ　Ａｒｔ　Ｐｌａｎｎｉｎｇ合同会社,,合同会社,愛知県,岡崎市,滝町字追ノ狭間７２番地１１,,23,202,4443173,,,,,,,2023-12-07,1,,,,,ゼロアートプランニング,0
446,2250003003394,新規,0,2023-12-07,2023-12-07,合同会社ＮｅｖｅｒＦｏｒｇｅｔ,,合同会社,山口県,下関市,小月南町８番１２号,,35,201,7501137,,,,,,,2023-12-07,1,,,,,ネバーフォゲット,0
450,2290003014693,新規,0,2023-12-07,2023-12-07,合同会社ＥＮａｃｔ,,合同会社,福岡県,朝倉郡筑前町,弥永９１９番地,,40,447,8380811,,,,,,,2023-12-07,1,,,,,イナクト,0
451,2290003014702,新規,0,2023-12-07,2023-12-07,合同会社モーネ,,合同会社,福岡県,福岡市中央区,天神２丁目３番１０号天神パインクレスト７１９号,,40,133,8100001,,,,,,,2023-12-07,1,,,,,モーネ,0
453,2300001013547,新規,0,2023-12-07,2023-12-07,株式会社Ｌａｖｉｅｒｅ,,株式会社,佐賀県,三養基郡みやき町,大字原古賀７４５０番地２６,,41,346,8490101,,,,,,,2023-12-07,1,,,,,,0
455,2320001020178,新規,0,2023-12-07,2023-12-07,ＢＲＩＧＨＴｒｅｅ株式会社,,株式会社,大分県,大分市,大字荏隈６９８番地の３,,44,201,8700889,,,,,,,2023-12-07,1,,,,,ブライツリー,0
462,2330001031554,新規,0,2023-12-07,2023-12-07,ウィリングネス株式会社,,株式会社,熊本県,熊本市中央区,新市街３番４号,,43,101,8600803,,,,,,,2023-12-07,1,,,,,ウィリングネス,0
463,2330003010093,新規,0,2023-12-07,2023-12-07,Ｐｏｗｅｒ　Ｏｆｆｉｃｅ合同会社,,合同会社,熊本県,八代市,日奈久竹之内町４２８９－３,,43,202,8695143,,,,,,,2023-12-07,1,,,,,パワーオフィス,0
464,2350003004515,新規,0,2023-12-07,2023-12-07,合同会社ネクスト,,合同会社,宮崎県,宮崎市,権現町１７０－１ＫｏＯｌｉｎａＧｏｎｇｅｎ３０７,,45,201,8800822,,,,,,,2023-12-07,1,,,,,ネクスト,0
466,2360001032905,新規,0,2023-12-07,2023-12-07,株式会社Ｌａｌａ,,株式会社,沖縄県,うるま市,字江洲２１０３番２,,47,213,9042244,,,,,,,2023-12-07,1,,,,,ララ,0
467,2360003013531,新規,0,2023-12-07,2023-12-07,合同会社上東,,合同会社,沖縄県,豊見城市,字座安２４番地,,47,212,9010221,,,,,,,2023-12-07,1,,,,,ジョウトウ,0
468,2370001050690,新規,0,2023-12-07,2023-12-07,ＱＯＬＤ株式会社,,株式会社,宮城県,仙台市青葉区,山手町１１－５０コアライフ山手１Ｆ,,04,101,9810967,,,,,,,2023-12-07,1,,,,,クオルド,0
476,2380001034172,新規,0,2023-12-07,2023-12-07,株式会社東洋,,株式会社,福島県,いわき市,中央台飯野１丁目３７番地の６,,07,204,9708044,,,,,,,2023-12-07,1,,,,,トウヨウ,0
477,2380001034180,新規,0,2023-12-07,2023-12-07,株式会社マイルストーンムービー,,株式会社,福島県,二本松市,湯川町３２６－１,,07,210,9640002,,,,,,,2023-12-07,1,,,,,マイルストーンムービー,0
479,2390003002168,新規,0,2023-12-07,2023-12-07,丸共水産合資会社,,合資会社,山形県,山形市,荒楯町２番３８号,,06,201,9900000,,,,,,,2023-12-07,1,,,,,マルキョウスイサン,0
486,2430001090581,新規,0,2023-12-07,2023-12-07,株式会社Ｓｍｉｌｅ　ｏｆ　Ｙｏｕ,,株式会社,北海道,札幌市中央区,南十一条西１丁目３番２号,,01,101,0640811,,,,,,,2023-12-07,1,,,,,スマイルオブユー,0
487,2430001090607,新規,0,2023-12-07,2023-12-07,龍株式会社,,株式会社,北海道,札幌市中央区,北一条西９丁目３番地１南大通ビルＮ１　６階,,01,101,0600001,,,,,,,2023-12-07,1,,,,,タツ,0
488,2430003015719,新規,0,2023-12-07,2023-12-07,合同会社タナカ,,合同会社,北海道,札幌市南区,川沿一条２丁目８番１５号,,01,106,0050801,,,,,,,2023-12-07,1,,,,,タナカ,0
491,2700150122538,新規,0,2023-12-07,2023-12-07,ＳｈｅｎｚｈｅｎＳｈｉＤａｎｙｅＫｅｊｉ　ＹｏｕｘｉａｎＧｏｎｇｓｉ,,外国会社等,,,,,,,,ＢａｏａｎＱｕＸｉｘｉａｎｇＪｉｅｄａｏＨａｏｙｅＳｈｅｑｕＢａｏａｎＨｕｌｉａｎｗａｎｇＣｈａｎｙｅＪｉｄｉＡＱｕ５Ｄｏｎｇ６０８Ｓｈｅｎｚｈｅｎｓｈｉ,,,,,,2023-12-07,1,,,,,シンセンシダンイェカギユウゲンコウシ,0
492,2700150122546,新規,0,2023-12-07,2023-12-07,ＳｈａｎｇｈａｉＨｕａｎｇｏｕＷａｎｇｌｕｏＫｅｊｉ　ＹｏｕｘｉａｎＧｏｎｇｓｉ,,外国会社等,,,,,,,,ｊｉｎｈａｉｇｏｎｇｌｕ６０５５ｈａｏ１１ｚｈｕａｎｇ５ｃｅｎｇｆｅｎｇｘｉａｎｑｕｓｈａｎｇｈａｉｓｈｉ,,,,,,2023-12-07,1,,,,,シャンハイファンゴウワンロカギユウゲンコウシ,0
493,2700150122554,新規,0,2023-12-07,2023-12-07,Ｇｕａｎｇｚｈｏｕ　ｋｏｒｄｏ　Ｔｅｃｈｎｏｌｏｇｙ　Ｃｏ．，Ｌｔｄ,,外国会社等,,,,,,,,ＲｏｏｍＣ９６２　Ｎｏ．６ＳｏｎｇｇａｎｇＳｔｒｅｅｔ　ＣｅｎｃｕｎＧｕａｎｇｚｈｏｕ　Ｃｉｔｙ　ＴｉａｎｈｅＤｉｓｔｒｉｃｔ,,,,,,2023-12-07,1,,,,,コウシュウコルドテクノロジーカンパニーリミテッド,0
494,2700150122562,新規,0,2023-12-07,2023-12-07,Ｚｈｏｎｇｓｈａｎｓｈｉｘｉｎｇｗｕｚｈａｏｍｉｎｇｋｅｊｉｙｏｕｘｉａｎｇｏｎｇｓｉ,,外国会社等,,,,,,,,ｚｈｏｎｇｘｉｎｇｄａｄａｏｙｕｃａｏｘｉｎｇｘｉｌｕｊｉａｏｊｉｅｃｈｕｄｅ　ｇｕｙｉｒｕｉｆｅｎｇｄｅｎｇｐｅｉｃｈｅｎｇ１ｄｏｎｇ２１０ｈａｏｚｈｉ２　ｇｕｚｈｅｎｚｈｅｎ　ｚｈｏｎｇｓｈａｎｓｈｉ　５２８４００,,,,,,2023-12-07,1,,,,,チュウサンシセイヤショウメイカギユウゲンコウシ,0
495,2700150122570,新規,0,2023-12-07,2023-12-07,Ｘｉａｍｅｎ　Ｌｉｎｇｌｉｎｇ　Ｎｅｔｗｏｒｋ　Ｔｅｃｈｎｏｌｏｇｙ　Ｃｏ．，Ｌｔｄ,,外国会社等,,,,,,,,Ｒｏｏｍ　６０１，Ｎｏ．３３２　Ｃａｎｇｌｉｎ　Ｒｏａｄ，Ｈａｉｃａｎｇ　Ｄｉｓｔｒｉｃｔ，Ｘｉａｍｅｎ　Ｃｉｔｙ,,,,,,2023-12-07,1,,,,,シャーメンリンリンワンルオコージーヨウシエンゴンスー,0
501,3010001240459,新規,0,2023-12-07,2023-12-07,株式会社華開,,株式会社,東京都,千代田区,内神田２丁目４番２号一広グローバルビル１００１,,13,101,1010047,,,,,,,2023-12-07,1,,,,,カカイ,0
502,3010001240541,新規,0,2023-12-07,2023-12-07,株式会社ＯＡＧ　ＩＴマネジメントパートナー,,株式会社,東京都,千代田区,五番町６番地２ホーマットホライゾン,,13,101,1020076,,,,,,,2023-12-07,1,,,,,オーエージーアイティーマネジメントパートナー,0
503,3010003042390,新規,0,2023-12-07,2023-12-07,合同会社パワーアップル,,合同会社,東京都,中央区,日本橋人形町２丁目２３番１号,,13,102,1030013,,,,,,,2023-12-07,1,,,,,パワーアップル,0
505,3010005037612,新規,0,2023-12-07,2023-12-07,一般社団法人シェアードサービスセンター,,その他の設立登記法人,東京都,中央区,銀座１丁目１２番４号Ｎ＆Ｅ．ＢＬＤ．７階,,13,102,1040061,,,,,,,2023-12-07,1,,,,,シェアードサービスセンター,0
514,3010401178489,新規,0,2023-12-07,2023-12-07,株式会社ＩＮＦＯ　Ｍ,,株式会社,東京都,港区,南青山５丁目９－１２－１２０１,,13,103,1070062,,,,,,,2023-12-07,1,,,,,インフォエム,0
515,3010401178935,新規,0,2023-12-07,2023-12-07,Ｍｕｌｔｉｍａｔｉｃ　Ｊａｐａｎ株式会社,,株式会社,東京都,港区,元麻布３丁目１番６号,,13,103,1060046,,,,,,,2023-12-07,1,,,,,マルチマティックジャパン,0
516,3010401178968,新規,0,2023-12-07,2023-12-07,株式会社ＴｈｅＶａｌｕｅ,,株式会社,東京都,港区,赤坂２丁目１３番２３号赤坂ＭＹビル３Ｆ,,13,103,1070052,,,,,,,2023-12-07,1,,,,,ザバリュー,0
517,3010401179017,新規,0,2023-12-07,2023-12-07,株式会社ＭＡＤＰＥＡＣＨ　ＪＡＰＡＮ,,株式会社,東京都,港区,赤坂３丁目２１番１２号,,13,103,1070052,,,,,,,2023-12-07,1,,,,,マッドピーチジャパン,0
522,3010403031506,新規,0,2023-12-07,2023-12-07,合同会社ＴＯＭＹ,,合同会社,東京都,港区,赤坂１丁目１２番２０号パークコート赤坂桜坂９０２,,13,103,1070052,,,,,,,2023-12-07,1,,,,,トミー,0
523,3010405022759,新規,0,2023-12-07,2023-12-07,スマートハイムシティ流山富士見台団地管理組合法人,,その他の設立登記法人,東京都,港区,虎ノ門２丁目１０－４,,13,103,1050001,,,,,,,2023-12-07,1,,,,,スマートハイムシティナガレヤマフジミダイ,0
529,3010601064290,新規,0,2023-12-07,2023-12-07,株式会社グローコア,,株式会社,東京都,江東区,豊洲５丁目１番１３－３９０６,,13,108,1350061,,,,,,,2023-12-07,1,,,,,グローコア,0
530,3010603010508,新規,0,2023-12-07,2023-12-07,合同会社Ｎｏ．６,,合同会社,東京都,江東区,有明１丁目１番１７－２７０２号,,13,108,1350063,,,,,,,2023-12-07,1,,,,,ナンバーシックス,0
534,3010703006983,新規,0,2023-12-07,2023-12-07,Ｈ．Ｓ．Ｅ合同会社,,合同会社,東京都,品川区,戸越３丁目９番４号シャンブル・ド戸越１０２,,13,109,1420041,,,,,,,2023-12-07,1,,,,,エイチエスイー,0
537,3010803004771,新規,0,2023-12-07,2023-12-07,サーキュラーエイト合同会社,,合同会社,東京都,大田区,北嶺町４５番４号,,13,111,1450073,,,,,,,2023-12-07,1,,,,,サーキュラーエイト,0
542,3011101105394,新規,0,2023-12-07,2023-12-07,株式会社ＳＰＷ,,株式会社,東京都,新宿区,西新宿３丁目３番１３号西新宿水間ビル２Ｆ,,13,104,1600023,,,,,,,2023-12-07,1,,,,,エスピーダブリュー,0
549,3011601027353,新規,0,2023-12-07,2023-12-07,東横建創株式会社,,株式会社,東京都,練馬区,練馬３丁目１番８－８１１号,,13,120,1760001,,,,,,,2023-12-07,1,,,,,トウヨコケンソウ,0
552,3011801043456,新規,0,2023-12-07,2023-12-07,株式会社ＥＹＥ’ｓグループ,,株式会社,東京都,足立区,江北２丁目３７番１１号,,13,121,1230872,,,,,,,2023-12-07,1,,,,,アイズグループ,0
553,3012701017979,新規,0,2023-12-07,2023-12-07,青山建築株式会社,,株式会社,東京都,小平市,上水本町１丁目２８－７ブルックリンハウス２階－２０３号室,,13,211,1870022,,,,,,,2023-12-07,1,,,,,アオヤマケンチク,0
565,3020001154617,新規,0,2023-12-07,2023-12-07,株式会社サクセサリー,,株式会社,神奈川県,横浜市青葉区,美しが丘３丁目６１番９号,,14,117,2250002,,,,,,,2023-12-07,1,,,,,サクセサリー,0
566,3020001154781,新規,0,2023-12-07,2023-12-07,株式会社７Ｈｏｒｓｅ,,株式会社,神奈川県,横浜市西区,東久保町１－６塩島ハイツ１０２号,,14,103,2200062,,,,,,,2023-12-07,1,,,,,セブンホース,0
572,3020003025122,新規,0,2023-12-07,2023-12-07,合同会社三和機工,,合同会社,神奈川県,川崎市幸区,堀川町５８０番地,,14,132,2120013,,,,,,,2023-12-07,1,,,,,サンワキコウ,0
573,3020003025130,新規,0,2023-12-07,2023-12-07,合同会社エイシン,,合同会社,神奈川県,川崎市多摩区,登戸１７６３番地ライフガーデンビル２Ｆ,,14,135,2140014,,,,,,,2023-12-07,1,,,,,エイシン,0
575,3021001080910,新規,0,2023-12-07,2023-12-07,エイコーテック株式会社,,株式会社,神奈川県,茅ヶ崎市,今宿５２８番地１ソクラＩＩ,00132914,14,207,2530072,,,,,,,2023-12-07,1,,,,,エイコーテック,0
576,3021001080919,新規,0,2023-12-07,2023-12-07,株式会社安西企画,,株式会社,神奈川県,相模原市緑区,町屋４丁目２７番７号,,14,151,2520101,,,,,,,2023-12-07,1,,,,,アンザイキカク,0
581,3021003013876,新規,0,2023-12-07,2023-12-07,合同会社ＧＭＪ,,合同会社,神奈川県,藤沢市,遠藤９２５番地の２１,,14,205,2520816,,,,,,,2023-12-07,1,,,,,ジーエムジェー,0
582,3021003013884,新規,0,2023-12-07,2023-12-07,合同会社Ｒｏｎ,,合同会社,神奈川県,中郡二宮町,二宮３４０－６－１０２,,14,342,2590123,,,,,,,2023-12-07,1,,,,,ロン,0
584,3021005012950,新規,0,2023-12-07,2023-12-07,医療法人藤朋会,,その他の設立登記法人,神奈川県,大和市,渋谷８丁目３番２渋谷セントラルクリニック内１階テナントＡ号室,,14,213,2420023,,,,,,,2023-12-07,1,,,,,トウホウカイ,0
589,3030001157536,新規,0,2023-12-07,2023-12-07,株式会社汐田塗装,,株式会社,埼玉県,川口市,柳崎１丁目１８番８号,,11,203,3330861,,,,,,,2023-12-07,1,,,,,シオタトソウ,0
590,3030001157544,新規,0,2023-12-07,2023-12-07,株式会社シンコペーション,,株式会社,埼玉県,草加市,谷塚１丁目１８番６号,,11,221,3400028,,,,,,,2023-12-07,1,,,,,シンコペーション,0
591,3030001157552,新規,0,2023-12-07,2023-12-07,スタークリーンＢＬＤ株式会社,,株式会社,埼玉県,上尾市,東町１丁目６番２５号,,11,219,3620031,,,,,,,2023-12-07,1,,,,,スタークリーンビーエルディー,0
592,3030001157560,新規,0,2023-12-07,2023-12-07,株式会社Ｅ‐ＷＯＲＫＳ,,株式会社,埼玉県,川口市,北園町２番１８号,,11,203,3330862,,,,,,,2023-12-07,1,,,,,イーワークス,0
593,3030001157585,新規,0,2023-12-07,2023-12-07,株式会社豊和商事,,株式会社,埼玉県,さいたま市南区,大谷場２丁目１０番１５号,,11,108,3360016,,,,,,,2023-12-07,1,,,,,トヨカズショウジ,0
597,3030003023158,新規,0,2023-12-07,2023-12-07,Ａｆｚａｌ　Ｔｒａｄｉｎｇ合同会社,,合同会社,埼玉県,比企郡吉見町,大字黒岩１１１番地３,,11,347,3550166,,,,,,,2023-12-07,1,,,,,アフザルトレーディング,0
606,3040001131242,新規,0,2023-12-07,2023-12-07,株式会社Ｄ．Ｂｔｒｙ,,株式会社,千葉県,浦安市,今川２丁目８番４５－２号,,12,227,2790022,,,,,,,2023-12-07,1,,,,,ディビートライ,0
607,3040001131259,新規,0,2023-12-07,2023-12-07,株式会社ｆ‐ｃｏｎｎｅｃｔ,,株式会社,千葉県,千葉市緑区,おゆみ野中央６丁目１８番地１メゾンベールおゆみ野Ｂ－１０１号,,12,105,2660032,,,,,,,2023-12-07,1,,,,,エフコネクト,0
613,3040003023818,新規,0,2023-12-07,2023-12-07,ＢＥＳ合同会社,,合同会社,千葉県,市川市,大和田３丁目１－４－１０３,,12,203,2720025,,,,,,,2023-12-07,1,,,,,ベス,0
614,3040003023867,新規,0,2023-12-07,2023-12-07,合同会社ＶＥＲＴＸ,,合同会社,千葉県,茂原市,道表２－１５,,12,210,2970028,,,,,,,2023-12-07,1,,,,,ヴァーテックス,0
615,3040003023875,新規,0,2023-12-07,2023-12-07,ａｔｚｚ．合同会社,,合同会社,千葉県,佐倉市,上志津１６５６－６６,,12,212,2850846,,,,,,,2023-12-07,1,,,,,アッツ,0
617,3050001053915,新規,0,2023-12-07,2023-12-07,株式会社ユーキ建設,,株式会社,茨城県,東茨城郡城里町,大字石塚１１５６番地の４,,08,310,3114303,,,,,,,2023-12-07,1,,,,,ユーキケンセツ,0
622,3060001036596,新規,0,2023-12-07,2023-12-07,ＴＳＫ株式会社,,株式会社,栃木県,佐野市,山菅町３５１８番地,,09,204,3270505,,,,,,,2023-12-07,1,,,,,ティーエスケー,0
624,3070001041133,新規,0,2023-12-07,2023-12-07,株式会社アーブ環境,,株式会社,群馬県,藤岡市,立石１１８６番地２,,10,209,3750002,,,,,,,2023-12-07,1,,,,,,0
630,3100001037029,新規,0,2023-12-07,2023-12-07,株式会社ローカルプロパティ,,株式会社,長野県,北佐久郡御代田町,大字御代田２３８４番地９,,20,323,3890206,,,,,,,2023-12-07,1,,,,,ローカルプロパティ,0
633,3110003005230,新規,0,2023-12-07,2023-12-07,合同会社豊企画,,合同会社,新潟県,新潟市西区,山田３２６０番地,,15,107,9501101,,,,,,,2023-12-07,1,,,,,ユタカキカク,0
646,3120003025467,新規,0,2023-12-07,2023-12-07,合同会社レッドテイル,,合同会社,大阪府,大阪市北区,紅梅町６番２５号３階,,27,127,5300038,,,,,,,2023-12-07,1,,,,,レッドテイル,0
648,3120101068657,新規,0,2023-12-07,2023-12-07,株式会社ＣＬＡＲＡＳ,,株式会社,大阪府,和泉市,王子町１０６２－１６,,27,219,5940004,,,,,,,2023-12-07,1,,,,,クララス,0
650,3120901048437,新規,0,2023-12-07,2023-12-07,株式会社杉岡,,株式会社,大阪府,豊中市,螢池中町４丁目４番１０－２０２号,,27,203,5600033,,,,,,,2023-12-07,1,,,,,スギオカ,0
653,3130003009188,新規,0,2023-12-07,2023-12-07,ＴＳＭスマートアプリ合同会社,,合同会社,京都府,京都市下京区,七条通油小路東入大黒町２２７番地第２キョートビル４０２,,26,106,6008223,,,,,,,2023-12-07,1,,,,,ティエスエムスマートアプリ,0
656,3140001132552,新規,0,2023-12-07,2023-12-07,株式会社クリエイティブイーストン,,株式会社,兵庫県,伊丹市,西台１丁目１６番８５－１０５号,,28,207,6640858,,,,,,,2023-12-07,1,,,,,クリエイティブイーストン,0
657,3140001132577,新規,0,2023-12-07,2023-12-07,株式会社大城,,株式会社,兵庫県,伊丹市,北伊丹２丁目１１１番地２－４０８号,,28,207,6640831,,,,,,,2023-12-07,1,,,,,オオシロ,0
661,3150005009531,新規,0,2023-12-07,2023-12-07,医療法人想仁会,,その他の設立登記法人,奈良県,生駒市,元町１丁目３－２２アクタスビル４階,,29,209,6300257,,,,,,,2023-12-07,1,,,,,ソウジンカイ,0
670,3180001159162,新規,0,2023-12-07,2023-12-07,株式会社リーチ,,株式会社,愛知県,名古屋市中村区,鳥居通３丁目３９番地サンパーク本陣３０５号,,23,105,4530044,,,,,,,2023-12-07,1,,,,,リーチ,0
675,3180301038090,新規,0,2023-12-07,2023-12-07,株式会社ｃｈｉａｎｔｉ,,株式会社,愛知県,西尾市,伊藤１丁目２番地１６,,23,213,4450807,,,,,,,2023-12-07,1,,,,,キャンティ,0
676,3180301038099,新規,0,2023-12-07,2023-12-07,株式会社ヴィジョンアルファ,,株式会社,愛知県,岡崎市,小針町字一シキ４７番地２,,23,202,4440907,,,,,,,2023-12-07,1,,,,,ヴィジョンアルファ,0
678,3180303005923,新規,0,2023-12-07,2023-12-07,合同会社Ａｓｔｙｌｅ,,合同会社,愛知県,豊田市,越戸町安貝戸５８番地１５,,23,211,4700332,,,,,,,2023-12-07,1,,,,,エースタイル,0
679,3190003004522,新規,0,2023-12-07,2023-12-07,合同会社仁幸コーポレーション,,合同会社,三重県,伊賀市,服部町３丁目８６番地,,24,216,5180007,,,,,,,2023-12-07,1,,,,,ニコウコーポレーション,0
680,3210001019569,新規,0,2023-12-07,2023-12-07,株式会社ＡＱＵＩＮＯ,,株式会社,福井県,福井市,順化１丁目１２番４号福ビル５０２,,18,201,9100023,,,,,,,2023-12-07,1,,,,,アキノ,0
684,3240001062500,新規,0,2023-12-07,2023-12-07,株式会社金行,,株式会社,広島県,呉市,広白石３丁目１１番２３号,,34,202,7370143,,,,,,,2023-12-07,1,,,,,カネユキ,0
685,3240001062517,新規,0,2023-12-07,2023-12-07,株式会社りんどうの家,,株式会社,広島県,福山市,三吉町４丁目２番５号マルシンビル２０２,,34,207,7200031,,,,,,,2023-12-07,1,,,,,リンドウノイエ,0
687,3250003003393,新規,0,2023-12-07,2023-12-07,合同会社ここも,,合同会社,山口県,萩市,大字川島４４４,,35,204,7580031,,,,,,,2023-12-07,1,,,,,ココモ,0
693,3290001103910,新規,0,2023-12-07,2023-12-07,株式会社ＧＭｃａｆｅ,,株式会社,福岡県,福岡市東区,舞松原２丁目１０番７号,,40,131,8130042,,,,,,,2023-12-07,1,,,,,ジーエムカフェ,0
694,3290001103935,新規,0,2023-12-07,2023-12-07,株式会社Ｉ‐ＡＣＴ,,株式会社,福岡県,福岡市城南区,荒江１丁目１０番１１－１０２号,,40,136,8140101,,,,,,,2023-12-07,1,,,,,アイアクト,0
695,3290001103951,新規,0,2023-12-07,2023-12-07,渡辺建設株式会社,,株式会社,福岡県,久留米市,江戸屋敷１丁目１３番１号,,40,203,8300059,,,,,,,2023-12-07,1,,,,,ワタナベケンセツ,0
697,3290003014701,新規,0,2023-12-07,2023-12-07,合同会社Ｎ　Ｈｉｌｌｓ,,合同会社,福岡県,福岡市南区,長丘１丁目１番２４号第一長丘ビル１０８号,,40,134,8150075,,,,,,,2023-12-07,1,,,,,,0
701,3290801030098,新規,0,2023-12-07,2023-12-07,株式会社ＲＩＲＩ,,株式会社,福岡県,北九州市小倉北区,萩崎町９番３８号,,40,106,8020066,,,,,,,2023-12-07,1,,,,,リリ,0
702,3300001013546,新規,0,2023-12-07,2023-12-07,株式会社一信工業,,株式会社,佐賀県,唐津市,水主町２２９３番地３,,41,202,8470065,,,,,,,2023-12-07,1,,,,,イッシンコウギョウ,0
706,3330001031553,新規,0,2023-12-07,2023-12-07,株式会社ｍｅｔｒｏ,,株式会社,熊本県,山鹿市,山鹿１３４８番地,,43,208,8610501,,,,,,,2023-12-07,1,,,,,メトロ,0
709,3350001018697,新規,0,2023-12-07,2023-12-07,株式会社バグース,,株式会社,宮崎県,宮崎市,中央通８番２５号,,45,201,8800002,,,,,,,2023-12-07,1,,,,,バグース,0
710,3350003004514,新規,0,2023-12-07,2023-12-07,合同会社クイックサム,,合同会社,宮崎県,宮崎市,権現町１７０－１ＫｏＯｌｉｎａＧｏｎｇｅｎ３０７,,45,201,8800822,,,,,,,2023-12-07,1,,,,,クイックサム,0
711,3360001032895,新規,0,2023-12-07,2023-12-07,株式会社ＯＮＥ　ＳＴＥＰ,,株式会社,沖縄県,那覇市,牧志２丁目１７番２７－４０１号,,47,201,9000013,,,,,,,2023-12-07,1,,,,,ワンステップ,0
712,3360003013530,新規,0,2023-12-07,2023-12-07,合同会社おきなわ開拓社,,合同会社,沖縄県,豊見城市,字高嶺６１０番地１１７,,47,212,9010213,,,,,,,2023-12-07,1,,,,,オキナワカイタクシャ,0
721,3400001016480,新規,0,2023-12-07,2023-12-07,株式会社ロックマンビジネスソリューションズ,,株式会社,岩手県,盛岡市,北松園２丁目１０－８,,03,201,0200105,,,,,,,2023-12-07,1,,,,,ロックマンビジネスソリューションズ,0
724,3430001090572,新規,0,2023-12-07,2023-12-07,野口アセットマネジメント株式会社,,株式会社,北海道,登別市,千歳町１丁目７番地１,,01,230,0590003,,,,,,,2023-12-07,1,,,,,ノグチアセットマネジメント,0
725,3430001090589,新規,0,2023-12-07,2023-12-07,ＧＡＴＥ　ＺＥＲＯ株式会社,,株式会社,北海道,虻田郡ニセコ町,字ニセコ４８２番地１,,01,395,0481511,,,,,,,2023-12-07,1,,,,,ゲートゼロ,0
726,3430001090606,新規,0,2023-12-07,2023-12-07,株式会社Ｐａｔｉｓｓｅｒｉｅ　ＫＡＧＵＲＥ,,株式会社,北海道,札幌市白石区,菊水元町七条２丁目１番３号１階,,01,104,0030827,,,,,,,2023-12-07,1,,,,,パティスリーカグレ,0
731,3470001019931,新規,0,2023-12-07,2023-12-07,隆人株式会社,,株式会社,香川県,丸亀市,柞原町７４４番地１１,,37,202,7630073,,,,,,,2023-12-07,1,,,,,タカヒト,0
737,3700150122537,新規,0,2023-12-07,2023-12-07,ＳＨＥＮＺＨＥＮＪＩＴＥＬＩＫＥＪＩ　ＹＯＵＸＩＡＮＧＯＮＧＳＩ,,外国会社等,,,,,,,,ＡＤｏｎｇ１２０２ＡｏｈｕａｈｕａｙｕａｎＧａｏｆｅｎｇｓｈｅｑｕＤａｌａｎｇｊｉｅｄａｏＬｏｎｇｈｕａＤｉｓｔｒｉｃｔＳｈｅｎＺｈｅｎ,,,,,,2023-12-07,1,,,,,シンセンジテリカギユウゲンコウシ,0
738,3700150122545,新規,0,2023-12-07,2023-12-07,Ｌｏｔｕｘｓ　Ｌａｓｅｒ　Ｌｉｍｉｔｅｄ,,外国会社等,,,,,,,,Ｕｎｉｔ１００２　１０／Ｆ　ＰｅｒｆｅｃｔＣｏｍｍｅｒｃｉａｌＢｕｉｌｄｉｎｇ　２０ＡｕｓｔｉｎＲｏａｄ　ＴｓｉｍｓｈａＴｓｕｉ　Ｋｏｗｌｏｏｎ,,,,,,2023-12-07,1,,,,,ロトックスレーザーリミテッド,0
739,3700150122553,新規,0,2023-12-07,2023-12-07,ｇｕａｎｇｚｈｏｕｑｉｎｍａｏｄｉａｎｚｉｓｈａｎｇｗｕ　ｙｏｕｘｉａｎｇｏｎｇｓｉ,,外国会社等,,,,,,,,ｍｕｂｅｉｄｏｎｇｌｕ５ｈａｏ　４ｄｏｎｇ４ｌｏｕＬ５０３ｆａｎｇ　ｔｉａｎｈｅｑｕ　ｇｕａｎｇｚｈｏｕｓｈｉ,,,,,,2023-12-07,1,,,,,コウシュウチンマオデンシシャンウユウゲンコウシ,0
740,3700150122561,新規,0,2023-12-07,2023-12-07,ｆｕｚｈｏｕｋｕｎｗｕｚｈｉｎｅｎｇｋｅｊｉｙｏｕｘｉａｎｇｏｎｇｓｉ,,外国会社等,,,,,,,,ｆｕｊｉａｎｓｈｅｎｇｆｕｚｈｏｕｓｈｉｊｉｎａｎｑｕｆｕｘｉｎｇｊｉｎｇｊｉｋａｉｆａｑｕｈｏｕｙｕｌｕ１１ｈａｏｙｕａｎｘｉｇｏｎｇｙｅｘｉａｏｑｕｄｅ１＃ｃｈａｎｇｆａｎｇ３０３,,,,,,2023-12-07,1,,,,,フージョウクンウージーノンコージーヨウシエンゴンスー,0
746,4010001240508,新規,0,2023-12-07,2023-12-07,Ｔｒａｓｈ　Ｔｅｃｈｎｏｌｏｇｉｅｓ株式会社,,株式会社,東京都,中央区,東日本橋２丁目１２－３－２Ｆ,,13,102,1030004,,,,,,,2023-12-07,1,,,,,トラッシュテクノロジーズ,0
747,4010001240524,新規,0,2023-12-07,2023-12-07,岸本ホールディングス株式会社,,株式会社,東京都,中央区,日本橋本町４丁目１１番２号,,13,102,1030023,,,,,,,2023-12-07,1,,,,,キシモトホールディングス,0
749,4010003042357,新規,0,2023-12-07,2023-12-07,合資会社ＷＡＤ,,合資会社,東京都,千代田区,麹町４丁目５番２０号ＫＳビル７階,,13,101,1020083,,,,,,,2023-12-07,1,,,,,ワド,0
750,4010003042373,新規,0,2023-12-07,2023-12-07,アストロ・エイティーン合同会社,,合同会社,東京都,中央区,銀座１丁目６番１１号土志田ビルディング３Ｆ,,13,102,1040061,,,,,,,2023-12-07,1,,,,,アストロエイティーン,0
753,4010401178959,新規,0,2023-12-07,2023-12-07,Ｌｏｎｇｃｈｅｅｒ　Ｊａｐａｎ株式会社,,株式会社,東京都,港区,港南２丁目１５－１品川インターシティＡ棟２８階,,13,103,1080075,,,,,,,2023-12-07,1,,,,,ロンチージャパン,0
761,4010701045231,新規,0,2023-12-07,2023-12-07,株式会社Ｂｏｎｚ,,株式会社,東京都,品川区,西品川１丁目１番１号住友不動産大崎ガーデンタワー９階,,13,109,1410033,,,,,,,2023-12-07,1,,,,,ボンズ,0
767,4010901054305,新規,0,2023-12-07,2023-12-07,株式会社タイゼン,,株式会社,東京都,世田谷区,弦巻１丁目１５番１号,,13,112,1540016,,,,,,,2023-12-07,1,,,,,タイゼン,0
773,4011001158574,新規,0,2023-12-07,2023-12-07,株式会社Ｒｅｖｉｖｅ,,株式会社,東京都,渋谷区,道玄坂１丁目１０番８号渋谷道玄坂東急ビル２Ｆ－Ｃ,,13,113,1500043,,,,,,,2023-12-07,1,,,,,リヴァイブ,0
774,4011001158616,新規,0,2023-12-07,2023-12-07,株式会社Ｉｎｃｒｅａｌ,,株式会社,東京都,渋谷区,代官山町２０番２３号ＦｏｒｅｓｔｇａｔｅＤａｉｋａｎｙａｍａＭＡＩＮ棟３Ｆ,,13,113,1500034,,,,,,,2023-12-07,1,,,,,インクリアル,0
776,4011101105393,新規,0,2023-12-07,2023-12-07,株式会社ＥｎｚｉＭｕｒａｓａｋｉ,,株式会社,東京都,新宿区,西新宿３丁目３－１３西新宿水間ビル２Ｆ,,13,104,1600023,,,,,,,2023-12-07,1,,,,,エンジムラサキ,0
777,4011101105419,新規,0,2023-12-07,2023-12-07,株式会社ロリエ市谷,,株式会社,東京都,新宿区,市谷本村町３番２７号,,13,104,1620845,,,,,,,2023-12-07,1,,,,,ロリエイチガヤ,0
781,4011105010870,新規,0,2023-12-07,2023-12-07,一般社団法人共生・共育の会,,その他の設立登記法人,東京都,新宿区,早稲田町７７番地稲穂ビル１階早稲田町稲穂整骨院内,,13,104,1620042,,,,,,,2023-12-07,1,,,,,キョウセイキョウイクノカイ,0
786,4011301029228,新規,0,2023-12-07,2023-12-07,株式会社ジェイプラス,,株式会社,東京都,杉並区,西荻北３丁目１１番３－１０２号,,13,115,1670042,,,,,,,2023-12-07,1,,,,,ジェイプラス,0
795,4012301013691,新規,0,2023-12-07,2023-12-07,株式会社普天間塗装,,株式会社,東京都,町田市,真光寺町８４番地１,,13,209,1950051,,,,,,,2023-12-07,1,,,,,フテンマトソウ,0
796,4012401041295,新規,0,2023-12-07,2023-12-07,株式会社Ｌｕｘ,,株式会社,東京都,武蔵野市,吉祥寺南町２丁目１０番１７号パークハウス吉祥寺エクシオ７０５,,13,203,1800003,,,,,,,2023-12-07,1,,,,,ルクス,0
800,4013301051723,新規,0,2023-12-07,2023-12-07,株式会社Ｉプランニング,,株式会社,東京都,豊島区,目白４丁目３０番６号,,13,116,1710031,,,,,,,2023-12-07,1,,,,,アイプランニング,0
810,4020001154748,新規,0,2023-12-07,2023-12-07,柳屋フィナンシャルエステート株式会社,,株式会社,神奈川県,横浜市西区,北幸２丁目１３番５－９０２号,,14,103,2200004,,,,,,,2023-12-07,1,,,,,ヤナギヤフィナンシャルエステート,0
811,4020001154756,新規,0,2023-12-07,2023-12-07,株式会社Ｋ　ｔｏ　Ｙ　ｃｏｎｎｅｃｔ,,株式会社,神奈川県,川崎市川崎区,藤崎３丁目７番地７,,14,131,2100804,,,,,,,2023-12-07,1,,,,,ケートゥワイコネクト,0
812,4020001154764,新規,0,2023-12-07,2023-12-07,株式会社ＰＳ　Ｌａｂ,,株式会社,神奈川県,川崎市中原区,中丸子１３番地１７ザ・コスギタワー４１０３,,14,133,2110012,,,,,,,2023-12-07,1,,,,,フィジカルサイエンスラボ,0
813,4020001154806,新規,0,2023-12-07,2023-12-07,アイメイトホールディングス株式会社,,株式会社,神奈川県,横浜市鶴見区,東寺尾１丁目６番１３号,,14,101,2300077,,,,,,,2023-12-07,1,,,,,アイメイトホールディングス,0
817,4020003025138,新規,0,2023-12-07,2023-12-07,合同会社サンクチュアリ,,合同会社,神奈川県,横浜市中区,桜木町１丁目１０１番地１クロスゲート７階,,14,104,2310062,,,,,,,2023-12-07,1,,,,,サンクチュアリ,0
827,4030001157502,新規,0,2023-12-07,2023-12-07,株式会社關根板金工業,,株式会社,埼玉県,さいたま市緑区,大字三室２６００番地２,,11,109,3360911,,,,,,,2023-12-07,1,,,,,セキネバンキンコウギョウ,0
828,4030001157510,新規,0,2023-12-07,2023-12-07,サンホールディングス株式会社,,株式会社,埼玉県,さいたま市桜区,大字上大久保９９２番地３,,11,106,3380824,,,,,,,2023-12-07,1,,,,,サンホールディングス,0
829,4030001157543,新規,0,2023-12-07,2023-12-07,株式会社ＳＥＡＨＡＷＫＳ,,株式会社,埼玉県,川口市,上青木西１丁目１９番３２号オランジェット１０１号,,11,203,3330845,,,,,,,2023-12-07,1,,,,,シーホークス,0
830,4030001157568,新規,0,2023-12-07,2023-12-07,株式会社ｔａ‐Ｅｃｏ,,株式会社,埼玉県,さいたま市中央区,大戸１丁目１１番１０号,,11,105,3380012,,,,,,,2023-12-07,1,,,,,ティーエーエコ,0
836,4030003023132,新規,0,2023-12-07,2023-12-07,合同会社伊与前,,合同会社,埼玉県,三郷市,早稲田１丁目１１の９,,11,237,3410018,,,,,,,2023-12-07,1,,,,,イヨマエ,0
837,4030003023157,新規,0,2023-12-07,2023-12-07,吉家合同会社,,合同会社,埼玉県,さいたま市南区,白幡１丁目１６番１７号メゾン中尾第２・１０２号,,11,108,3360022,,,,,,,2023-12-07,1,,,,,ヨシヤ,0
846,4040003023866,新規,0,2023-12-07,2023-12-07,ＭＨ　Ｔｒａｄｉｎｇ　Ｊａｐａｎ合同会社,,合同会社,千葉県,市川市,塩焼２丁目１番２９号メゾン行徳１０２,,12,203,2720114,,,,,,,2023-12-07,1,,,,,エムエイチトレーディングジャパン,0
859,4070003005184,新規,0,2023-12-07,2023-12-07,ＴＮＥ　Ｉｎｔｅｒｎａｔｉｏｎａｌ合同会社,,合同会社,群馬県,太田市,本町３番１３号,,10,205,3730057,,,,,,,2023-12-07,1,,,,,ティエヌイーインターナショナル,0
868,4100003007301,新規,0,2023-12-07,2023-12-07,合同会社しるし,,合同会社,長野県,伊那市,西箕輪７２００－２７ｉｎａｄａｎｉｓｅｅｓ内,,20,209,3994501,,,,,,,2023-12-07,1,,,,,シルシ,0
869,4110001038017,新規,0,2023-12-07,2023-12-07,株式会社佐東事務所,,株式会社,新潟県,小千谷市,城内４丁目７番５号プレミアムレジデンス１０９号,,15,208,9470028,,,,,,,2023-12-07,1,,,,,サトウジムショ,0
871,4120001076750,新規,0,2023-12-07,2023-12-07,開発測量株式会社,,株式会社,大阪府,大阪市中央区,淡路町２丁目１番１０－１１０４号,,27,128,5410047,,,,,,,2023-12-07,1,,,,,,0
879,4120001260412,新規,0,2023-12-07,2023-12-07,ＡＢＮリアルティ株式会社,,株式会社,大阪府,大阪市阿倍野区,旭町１丁目２番７号あべのメディックスビル１０６号,,27,119,5450051,,,,,,,2023-12-07,1,,,,,エービーエヌリアルティ,0
880,4120001260461,新規,0,2023-12-07,2023-12-07,株式会社Ｔ,,株式会社,大阪府,大阪市城東区,諏訪４丁目１２番１９号,,27,118,5360021,,,,,,,2023-12-07,1,,,,,ティ,0
881,4120005024029,新規,0,2023-12-07,2023-12-07,一般社団法人阿倍野交通安全協会,,その他の設立登記法人,大阪府,大阪市阿倍野区,阿倍野元町１番６号,,27,119,5450034,,,,,,,2023-12-07,1,,,,,アベノコウツウアンゼンキョウカイ,0
882,4120101068648,新規,0,2023-12-07,2023-12-07,株式会社Ｇプランニング,,株式会社,大阪府,羽曳野市,恵我之荘２丁目９番１０号,,27,222,5830886,,,,,,,2023-12-07,1,,,,,ジープランニング,0
883,4120101068656,新規,0,2023-12-07,2023-12-07,株式会社夢総建,,株式会社,大阪府,羽曳野市,島泉５丁目２０－５,,27,222,5830881,,,,,,,2023-12-07,1,,,,,ユメソウケン,0
886,4120905006539,新規,0,2023-12-07,2023-12-07,特定非営利活動法人子育て子育ち応援さんえんじぇる,,その他の設立登記法人,大阪府,豊中市,旭丘８番５２号,,27,203,5610865,,,,,,,2023-12-07,1,,,,,コソダテコソダチオウエンサンエンジェル,0
898,4140001132568,新規,0,2023-12-07,2023-12-07,株式会社ネクシード,,株式会社,兵庫県,神戸市西区,樫野台２丁目２６番地の１５,,28,111,6512275,,,,,,,2023-12-07,1,,,,,ネクシード,0
900,4140003019887,新規,0,2023-12-07,2023-12-07,合同会社ＴＥＡＬＰＲＯ,,合同会社,兵庫県,神戸市中央区,磯辺通１丁目１番１８号カサベラ国際プラザビル７０７号室,,28,110,6510084,,,,,,,2023-12-07,1,,,,,ティールプロ,0
901,4150005009530,新規,0,2023-12-07,2023-12-07,ローレルスクエア高の原団地管理組合法人,,その他の設立登記法人,奈良県,奈良市,左京２丁目３番１,,29,201,6310801,,,,,,,2023-12-07,1,,,,,ローレルスクエアタカノハラ,0
907,4180001159211,新規,0,2023-12-07,2023-12-07,株式会社一進,,株式会社,愛知県,名古屋市南区,明治２丁目３２番１４号,,23,112,4570861,,,,,,,2023-12-07,1,,,,,イッシン,0
914,4180301038098,新規,0,2023-12-07,2023-12-07,ＡＲ株式会社,,株式会社,愛知県,岡崎市,連尺通２丁目２１番地１,,23,202,4440046,,,,,,,2023-12-07,1,,,,,エーアール,0
918,4210001019568,新規,0,2023-12-07,2023-12-07,株式会社クラス,,株式会社,福井県,敦賀市,呉竹町１丁目３８番１２号－２０１号室,,18,202,9140802,,,,,,,2023-12-07,1,,,,,クラス,0
921,4240001062516,新規,0,2023-12-07,2023-12-07,株式会社ジーエム,,株式会社,広島県,広島市西区,草津南１丁目１７番１７号,,34,104,7330863,,,,,,,2023-12-07,1,,,,,ジーエム,0
929,4290001103901,新規,0,2023-12-07,2023-12-07,株式会社ボナ・フォルトゥーナ,,株式会社,福岡県,福岡市中央区,赤坂１丁目８番２３号ａｓｓｅｓｓ赤坂ビル５Ｆ,,40,133,8100042,,,,,,,2023-12-07,1,,,,,ボナフォルトゥーナ,0
930,4290001103918,新規,0,2023-12-07,2023-12-07,株式会社アーバンゲート,,株式会社,福岡県,福岡市中央区,六本松２丁目１２番８号,,40,133,8100044,,,,,,,2023-12-07,1,,,,,アーバンゲート,0
931,4290001103975,新規,0,2023-12-07,2023-12-07,株式会社吉岡興業,,株式会社,福岡県,福岡市東区,二又瀬１８－１９ＦＵＲＵＳＡＷＡビル２０１号室,,40,131,8120066,,,,,,,2023-12-07,1,,,,,,0
932,4290003014700,新規,0,2023-12-07,2023-12-07,合同会社Ｌａ　Ｌｉｅｎ,,合同会社,福岡県,福岡市南区,長丘１丁目１番２４号第一長丘ビル１０８号,,40,134,8150075,,,,,,,2023-12-07,1,,,,,ラリアン,0
937,4320001020176,新規,0,2023-12-07,2023-12-07,株式会社ｅ．ｌ,,株式会社,大分県,日田市,大字十二町６６番地１,,44,204,8770000,,,,,,,2023-12-07,1,,,,,イーエル,0
942,4350003004513,新規,0,2023-12-07,2023-12-07,合同会社イノベスト,,合同会社,宮崎県,宮崎市,権現町１７０－１ＫｏＯｌｉｎａＧｏｎｇｅｎ３０７,,45,201,8800822,,,,,,,2023-12-07,1,,,,,イノベスト,0
945,4370001050706,新規,0,2023-12-07,2023-12-07,オフィスカドグラフィカ株式会社,,株式会社,宮城県,仙台市青葉区,大町２丁目５－１０御譜代町ビル７０３,,04,101,9800804,,,,,,,2023-12-07,1,,,,,オフィスカドグラフィカ,0
951,4390003002174,新規,0,2023-12-07,2023-12-07,合同会社東方紅,,合同会社,山形県,西置賜郡小国町,大字小国小坂町４０番地１,,06,401,9991363,,,,,,,2023-12-07,1,,,,,,0
958,4430001090588,新規,0,2023-12-07,2023-12-07,クリーニングアメリカンドライ株式会社,,株式会社,北海道,虻田郡倶知安町,北一条西２丁目１１番地３,,01,400,0440051,,,,,,,2023-12-07,1,,,,,クリーニングアメリカンドライ,0
959,4430001090596,新規,0,2023-12-07,2023-12-07,株式会社なかやま,,株式会社,北海道,札幌市豊平区,美園四条４丁目３番１５号,,01,105,0620004,,,,,,,2023-12-07,1,,,,,ナカヤマ,0
960,4430001090605,新規,0,2023-12-07,2023-12-07,株式会社ツーエイジ,,株式会社,北海道,札幌市中央区,北八条西１６丁目１番地１クリーンリバー桑園６０７号,,01,101,0600008,,,,,,,2023-12-07,1,,,,,ツーエイジ,0
965,4490001010648,新規,0,2023-12-07,2023-12-07,くろしおエナジー株式会社,,株式会社,高知県,幡多郡黒潮町,伊田５６５番地,,39,428,7891904,,,,,,,2023-12-07,1,,,,,クロシオエナジー,0
967,4700150116918,新規,0,2023-12-07,2023-12-07,Ｓｈｅｎｚｈｅｎ　Ｐａｓｏｗ　Ｔｅｃｈｎｏｌｏｇｙ　Ｃｏ．，Ｌｔｄ,,外国会社等,,,,,,,,ｓｈｅｎｚｈｅｎｓｈｉ　ｌｏｎｇｇａｎｇｑｕ　ｊｉｈｕａｊｉｅｄａｏ　ｓａｎｌｉａｎｓｈｅｑｕ　ｓａｉｇｅｘｉｎｃｈｅｎｇ　５ｈａｏｌｏｕ　１１０１,,,,,,2023-12-07,1,,,,,シェンジェンシパソウテクノロジーカンパニーリミテッド,0
968,4700150122544,新規,0,2023-12-07,2023-12-07,ｈｕｉｚｈｏｕｓｈｉｓｏｎｇｌｉｚｈｉｎｅｎｇｄｉａｎｚｉ　ｙｏｕｘｉａｎｇｏｎｇｓｉ,,外国会社等,,,,,,,,２ｎｄＦｌｏｏｒＢｕｉｌｄｉｎｇＡＮｏ．３ＳａｎｌｕＸｉａＷｕＢａｉｓｈｉＶｉｌｌａｇｅＱｉｕｃｈａｎｇＴｏｗｎＨｕｉｙａｎｇＨｕｉｚｈｏｕＣｉｔｙ,,,,,,2023-12-07,1,,,,,ケイシュウシソンリジノウデンシユウゲンコウシ,0
969,4700150122552,新規,0,2023-12-07,2023-12-07,Ｐａｒｔｙｄｒａｇｏｎ　Ｉｎｔｅｒａｃｔｉｖｅ　Ｌｉｍｉｔｅｄ,,外国会社等,,,,,,,,ＦＬＡＴ／Ｒｍ　１００７Ｂ　１０／Ｆ　ＬｉｐｐｏＣｅｎｔｒｅＴｏｗｅｒＯｎｅ　８９Ｑｕｅｅｎｓｗａｙ　Ａｄｍｉｒａｌｔｙ　ＨｏｎｇＫｏｎｇ,,,,,,2023-12-07,1,,,,,パーティードラゴンインタラクティブリミテッド,0
970,4700150122560,新規,0,2023-12-07,2023-12-07,Ｓｈｅｎｚｈｅｎ　Ｉｍｉｋｅ　Ｔｅｃｏｎｏｌｏｇｙ　Ｃｏ．，Ｌｔｄ,,外国会社等,,,,,,,,Ｎｏ．７０６，ｂｕｉｌｄｉｎｇ　６，ｐｈａｓｅ　ＩＩ，Ｈｕａｔｉｎｇ，ｍａｎｊｉｎｇｈｕａ　ｊｏｙ　ｌａｎｅ　Ｎａｎｌｉａｎ　ｃｏｍｍｕｎｉｔｙ，Ｌｏｎｇｇａｎｇ　ｓｔｒｅｅｔ，Ｌｏｎｇｇａｎｇ　Ｄｉｓｔｒｉｃｔ,00132885,,,,,2023-12-07,1,,,,,シェンジェンアイマイコーコージーヨウシエンゴンスー,0
971,4700150122569,新規,0,2023-12-07,2023-12-07,ＴｉａｎＪｉｎＹｏｕＧａｏＪｉｕＫｅＪｉＹｏｕＸｉａｎＺｅＲｅｎＧｏｎｇＳｉ,,外国会社等,,,,,,,,ｚｉｍａｏｓｈｉｙａｎｑｕ（ｚｈｏｎｇｘｉｎｓｈａｎｇｗｕｑｕ）ｙｉｎｇｂｉｎｄａｄａｏｄｏｎｇｃｅ　ｇｕｏｔａｉｄａｓｈａ２ｈａｏｌｏｕ－１１３　ＴｉａｎＪｉｎ　ＴｉａｎＪｉｎ　３００４５２　ＣＮ,,,,,,2023-12-07,1,,,,,ティェンジンヨウガオジゥカージヨウシェンズァレンゴンスー,0
975,5010001240548,新規,0,2023-12-07,2023-12-07,株式会社ちりん,,株式会社,東京都,中央区,入船１丁目６－１２入船プレイスＢ１,,13,102,1040042,,,,,,,2023-12-07,1,,,,,チリン,0
976,5010001240556,新規,0,2023-12-07,2023-12-07,株式会社ＨＥＲＯ,,株式会社,東京都,文京区,本駒込５丁目４１番５号松岡ビル１０１号室,,13,105,1130021,,,,,,,2023-12-07,1,,,,,ヒーロー,0
977,5010001240572,新規,0,2023-12-07,2023-12-07,花沢株式会社,,株式会社,東京都,中央区,銀座１丁目５番２号西勢ビル３階Ａ号室,,13,102,1040061,,,,,,,2023-12-07,1,,,,,ハナザワ,0
979,5010003042372,新規,0,2023-12-07,2023-12-07,アストロ・セブンティーン合同会社,,合同会社,東京都,中央区,銀座１丁目６番１１号土志田ビルディング３Ｆ,,13,102,1040061,,,,,,,2023-12-07,1,,,,,アストロセブンティーン,0
980,5010003042380,新規,0,2023-12-07,2023-12-07,合同会社信濃町メガソーラー,,合同会社,東京都,千代田区,神田須田町１丁目２４－５ＴＨＥＣＲＯＳＳ神田５階,,13,101,1010041,,,,,,,2023-12-07,1,,,,,シナノマチメガソーラー,0
996,5010401178958,新規,0,2023-12-07,2023-12-07,株式会社Ａｒｅｍｉｔｉ,,株式会社,東京都,港区,海岸１丁目９番１５号,,13,103,1050022,,,,,,,2023-12-07,1,,,,,アレミティ,0
997,5010401178966,新規,0,2023-12-07,2023-12-07,株式会社ａｔｔ　ｒｅｃｏｒｄｓ,,株式会社,東京都,港区,南青山２丁目２番１５号,,13,103,1070062,,,,,,,2023-12-07,1,,,,,アットレコード,0
1001,5010403031529,新規,0,2023-12-07,2023-12-07,合同会社スカイズプラス,,合同会社,東京都,港区,北青山１丁目３番１号アールキューブ青山３階,,13,103,1070061,,,,,,,2023-12-07,1,,,,,スカイズプラス,0
1009,5010601064280,新規,0,2023-12-07,2023-12-07,株式会社エアリアルアソシエイツ,,株式会社,東京都,墨田区,京島１丁目３８番１－１０１６号曳舟駅前プラザ,,13,107,1310046,,,,,,,2023-12-07,1,,,,,エアリアルアソシエイツ,0
1010,5010601064289,新規,0,2023-12-07,2023-12-07,株式会社Ｊｏｐｕｓ,,株式会社,東京都,墨田区,向島４丁目１番１－２０６号,,13,107,1310033,,,,,,,2023-12-07,1,,,,,ジョプス,0
1011,5010603010506,新規,0,2023-12-07,2023-12-07,合同会社サル,,合同会社,東京都,江東区,亀戸６丁目１４番３号,,13,108,1360071,,,,,,,2023-12-07,1,,,,,サル,0
1012,5010605004266,新規,0,2023-12-07,2023-12-07,一般社団法人プレカンパニーカレッジ,,その他の設立登記法人,東京都,墨田区,両国２丁目１８番４号中尾ビル４０２,,13,107,1300026,,,,,,,2023-12-07,1,,,,,プレカンパニーカレッジ,0
1019,5010901054304,新規,0,2023-12-07,2023-12-07,株式会社シエル,,株式会社,東京都,世田谷区,三軒茶屋２丁目５６番７－７０６号,,13,112,1540024,,,,,,,2023-12-07,1,,,,,シエル,0
1020,5010901054312,新規,0,2023-12-07,2023-12-07,日桜工務店株式会社,,株式会社,東京都,世田谷区,世田谷１丁目２９番２号,,13,112,1540017,,,,,,,2023-12-07,1,,,,,ニチオウコウムテン,0
1038,5011101105368,新規,0,2023-12-07,2023-12-07,リッチ不動産株式会社,,株式会社,東京都,新宿区,西新宿７丁目２２番３４号新宿東海ビル２０６,,13,104,1600023,,,,,,,2023-12-07,1,,,,,リッチフドウサン,0
1039,5011101105392,新規,0,2023-12-07,2023-12-07,株式会社ＣＨ,,株式会社,東京都,新宿区,河田町３番５３－７０２号,,13,104,1620054,,,,,,,2023-12-07,1,,,,,シーエイチ,0
1043,5011601027343,新規,0,2023-12-07,2023-12-07,株式会社パンダ,,株式会社,東京都,練馬区,田柄５丁目２７－１４－４０２号,,13,120,1790073,,,,,,,2023-12-07,1,,,,,パンダ,0
1047,5011701026831,新規,0,2023-12-07,2023-12-07,株式会社ＫｏＫｏ　Ｐｈｏｔｏ　Ｓｔｕｄｉｏ,,株式会社,東京都,江戸川区,鹿骨１丁目２５番１６号ディック・フィールド２０２,,13,123,1330073,,,,,,,2023-12-07,1,,,,,ココフォトスタジオ,0
1050,5012401041286,新規,0,2023-12-07,2023-12-07,ＡＩＺ株式会社,,株式会社,東京都,三鷹市,井の頭５丁目２８番３－２０３号,,13,204,1810001,,,,,,,2023-12-07,1,,,,,アイズ,0
1052,5012705002380,新規,0,2023-12-07,2023-12-07,一般社団法人ＦＡＩＴ‐Ｊａｐａｎ,,その他の設立登記法人,東京都,小平市,小川町１丁目８３０番地白梅学園大学子ども学部福丸研究室内,,13,211,1870032,,,,,,,2023-12-07,1,,,,,ファイトジャパン,0
1056,5020001154631,新規,0,2023-12-07,2023-12-07,株式会社スクエア,,株式会社,神奈川県,横浜市青葉区,美しが丘西３丁目６４番地１４,,14,117,2250001,,,,,,,2023-12-07,1,,,,,スクエア,0
1057,5020001154680,新規,0,2023-12-07,2023-12-07,株式会社ＳＹＳＴＥＣＨ,,株式会社,神奈川県,横浜市西区,みなとみらい４丁目４ー２ー１２Ｆ,,14,103,2200012,,,,,,,2023-12-07,1,,,,,システック,0
1058,5020001154805,新規,0,2023-12-07,2023-12-07,ＮＩＴＴＥＣホールディングス株式会社,,株式会社,神奈川県,横浜市鶴見区,東寺尾１丁目２４番１２－１１号,,14,101,2300077,,,,,,,2023-12-07,1,,,,,ニッテクホールディングス,0
1059,5020005016209,新規,0,2023-12-07,2023-12-07,一般社団法人横浜ＨＤメディカルグループ,,その他の設立登記法人,神奈川県,横浜市中区,小港町１丁目１番地２,,14,104,2310802,,,,,,,2023-12-07,1,,,,,ヨコハマエイチディーメディカルグループ,0
1060,5021001080900,新規,0,2023-12-07,2023-12-07,株式会社Ｓｐｅｌｅｎ,,株式会社,神奈川県,藤沢市,本鵠沼３丁目６番３号,,14,205,2510028,,,,,,,2023-12-07,1,,,,,スペーレン,0
1067,5021003013874,新規,0,2023-12-07,2023-12-07,ＲＯＤＯＲＩＧＯ’Ｓ合同会社,,合同会社,神奈川県,愛甲郡愛川町,角田４６４１番地４,,14,401,2430301,,,,,,,2023-12-07,1,,,,,ロドリゴス,0
1073,5030001157526,新規,0,2023-12-07,2023-12-07,熊猫商務株式会社,,株式会社,埼玉県,上尾市,東町１丁目１１番３－５号,,11,219,3620031,,,,,,,2023-12-07,1,,,,,パンダショウム,0
1074,5030001157534,新規,0,2023-12-07,2023-12-07,株式会社ＭＥＣＯＳＨ,,株式会社,埼玉県,北本市,中丸９丁目２３９番地,,11,233,3640013,,,,,,,2023-12-07,1,,,,,メコッシュ,0
1075,5030001157542,新規,0,2023-12-07,2023-12-07,桜花クリーンサポート株式会社,,株式会社,埼玉県,さいたま市大宮区,桜木町３丁目１１０番地,,11,103,3300854,,,,,,,2023-12-07,1,,,,,オウカクリーンサポート,0
1076,5030001157567,新規,0,2023-12-07,2023-12-07,株式会社ピーチエステート,,株式会社,埼玉県,久喜市,東大輪６８８番地３,,11,232,3400202,,,,,,,2023-12-07,1,,,,,ピーチエステート,0
1077,5030001157600,新規,0,2023-12-07,2023-12-07,株式会社Ｍａｙ　Ｄｅｓｉｇｎ,,株式会社,埼玉県,草加市,瀬崎５丁目１１番２８号,,11,221,3400022,,,,,,,2023-12-07,1,,,,,メイデザイン,0
1080,5030003023148,新規,0,2023-12-07,2023-12-07,合同会社Ｃ＆Ｃ　ＩＮＴＥＲＮＡＴＩＯＮＡＬ,,合同会社,埼玉県,川口市,元郷２丁目５－７サニーコート川口元郷第二６０１号,,11,203,3320011,,,,,,,2023-12-07,1,,,,,シーアンドシーインターナショナル,0
1084,5040001131240,新規,0,2023-12-07,2023-12-07,総のきらめきグループ株式会社,,株式会社,千葉県,松戸市,本町１５番地の１－２０３号,,12,207,2710091,,,,,,,2023-12-07,1,,,,,フサノキラメキグループ,0
1085,5040001131249,新規,0,2023-12-07,2023-12-07,株式会社ＯＣＢ,,株式会社,千葉県,千葉市中央区,星久喜町５９３番地６Ｂ号,,12,101,2600808,,,,,,,2023-12-07,1,,,,,オーシービー,0
1092,5050001053913,新規,0,2023-12-07,2023-12-07,株式会社ＭＯＦＦホールディングス,,株式会社,茨城県,石岡市,鹿の子２丁目３番２２号,,08,205,3150005,,,,,,,2023-12-07,1,,,,,モフホールディングス,0
1093,5060001036603,新規,0,2023-12-07,2023-12-07,加納商会株式会社,,株式会社,栃木県,さくら市,フィオーレ喜連川３丁目１０番２８号,,09,214,3291417,,,,,,,2023-12-07,1,,,,,カノウショウカイ,0
1096,5070001041148,新規,0,2023-12-07,2023-12-07,株式会社飯島空調,,株式会社,群馬県,富岡市,下高瀬２９番地８,,10,210,3702332,,,,,,,2023-12-07,1,,,,,イイジマクウチョウ,0
1101,5100001037035,新規,0,2023-12-07,2023-12-07,株式会社ワンダーコネクト,,株式会社,長野県,長野市,大字南長野西後町１５９７番地１長野表参道ビル４階,,20,201,3800845,,,,,,,2023-12-07,1,,,,,ワンダーコネクト,0
1111,5120001260353,新規,0,2023-12-07,2023-12-07,ノムラホールディングス株式会社,,株式会社,大阪府,大阪市港区,波除６丁目１番９号,,27,107,5520001,,,,,,,2023-12-07,1,,,,,ノムラホールディングス,0
1112,5120001260378,新規,0,2023-12-07,2023-12-07,ＩＮＳＯＵレストラン株式会社,,株式会社,大阪府,大阪市西区,新町３丁目６番１０号,,27,106,5500013,,,,,,,2023-12-07,1,,,,,インソウレストラン,0
1113,5120001260394,新規,0,2023-12-07,2023-12-07,株式会社ユーダイ,,株式会社,大阪府,大阪市東淀川区,菅原２丁目３番４０－３号,,27,114,5330022,,,,,,,2023-12-07,1,,,,,ユーダイ,0
1117,5120101068655,新規,0,2023-12-07,2023-12-07,株式会社ａｂｉｌｉｔｙ,,株式会社,大阪府,羽曳野市,はびきの４丁目２１番３１号,,27,222,5830872,,,,,,,2023-12-07,1,,,,,アビリティ,0
1123,5120905006538,新規,0,2023-12-07,2023-12-07,一般社団法人三島医療圏ヘルスケアネット,,その他の設立登記法人,大阪府,高槻市,南平台５丁目１８番１０号,,27,207,5691042,,,,,,,2023-12-07,1,,,,,ミシマイリョウケンヘルスケアネット,0
1132,5140001132567,新規,0,2023-12-07,2023-12-07,ＦＡＭＩＬＬＥ株式会社,,株式会社,兵庫県,西宮市,仁川町２丁目４番１３号ヴェルドール仁川２Ｆ,,28,204,6620811,,,,,,,2023-12-07,1,,,,,ファミーユ,0
1133,5140001132583,新規,0,2023-12-07,2023-12-07,株式会社ｉｄ,,株式会社,兵庫県,芦屋市,東山町１６番１－３０３号,,28,206,6590091,,,,,,,2023-12-07,1,,,,,アイディー,0
1136,5150001026917,新規,0,2023-12-07,2023-12-07,株式会社ＥＮＡＫＡＭＡ,,株式会社,奈良県,生駒市,萩の台１丁目２番２号ライフコート萩の台Ｃ－１,,29,209,6300224,,,,,,,2023-12-07,1,,,,,エナカマ,0
1145,5180301038080,新規,0,2023-12-07,2023-12-07,ＺＥＮＴホールディングス株式会社,,株式会社,愛知県,豊田市,若宮町７丁目１番地１１,,23,211,4710026,,,,,,,2023-12-07,1,,,,,ゼントホールディングス,0
1146,5180301038089,新規,0,2023-12-07,2023-12-07,株式会社Ｆｌａｔ　Ｂｏｏｋ,,株式会社,愛知県,豊橋市,下地町字大圦６３番地,,23,201,4400083,,,,,,,2023-12-07,1,,,,,フラットブック,0
1147,5180301038097,新規,0,2023-12-07,2023-12-07,株式会社旭陽,,株式会社,愛知県,岡崎市,大和町字沓市場１６１番地,,23,202,4440931,,,,,,,2023-12-07,1,,,,,アサヒ,0
1154,5240001062515,新規,0,2023-12-07,2023-12-07,株式会社リーフハーバー,,株式会社,広島県,三原市,城町１丁目２１番２号,,34,204,7230014,,,,,,,2023-12-07,1,,,,,リーフハーバー,0
1156,5240003006445,新規,0,2023-12-07,2023-12-07,リュニベル合同会社,,合同会社,広島県,広島市中区,東白島町７－３,,34,101,7300004,,,,,,,2023-12-07,1,,,,,リュニベル,0
1161,5270001008886,新規,0,2023-12-07,2023-12-07,空鳶株式会社,,株式会社,鳥取県,東伯郡湯梨浜町,大字野方９０９番地,,31,370,6890705,,,,,,,2023-12-07,1,,,,,ソラトビ,0
1163,5290001103909,新規,0,2023-12-07,2023-12-07,株式会社ＳＯＵＳＨＩＮ,,株式会社,福岡県,糟屋郡志免町,東公園台２丁目９番１８号,,40,343,8112241,,,,,,,2023-12-07,1,,,,,ソウシン,0
1164,5290001103917,新規,0,2023-12-07,2023-12-07,Ｒｅｉｍｉコンサルティング株式会社,,株式会社,福岡県,糟屋郡粕屋町,大字柚須１５６番地１スカイシャトレ柚須６０４号,,40,349,8112305,,,,,,,2023-12-07,1,,,,,レイミコンサルティング,0
1167,5290003014690,新規,0,2023-12-07,2023-12-07,合同会社ＲｅＳＴ,,合同会社,福岡県,福岡市博多区,千代２丁目４番２３－１００７号,,40,132,8120044,,,,,,,2023-12-07,1,,,,,リスタ,0
1168,5290003014699,新規,0,2023-12-07,2023-12-07,合同会社テトラクション,,合同会社,福岡県,福岡市中央区,輝国２丁目２４番２５－１１１１号パークホームズ六本松フォレストクロス,,40,133,8100032,,,,,,,2023-12-07,1,,,,,,0
1169,5290003014708,新規,0,2023-12-07,2023-12-07,ニューロケア合同会社,,合同会社,福岡県,太宰府市,高雄１丁目３６９２番１号,,40,221,8180122,,,,,,,2023-12-07,1,,,,,ニューロケア,0
1174,5310001018732,新規,0,2023-12-07,2023-12-07,株式会社Ｆａｍｉｌｙ　Ｓｃｅｎｅｒｙ,,株式会社,長崎県,大村市,赤佐古町１１７９番地３,,42,205,8560048,,,,,,,2023-12-07,1,,,,,ファミリーシーナリー,0
1178,5340001026121,新規,0,2023-12-07,2023-12-07,株式会社アーダンラボ,,株式会社,鹿児島県,奄美市,名瀬和光町７－８,,46,222,8940007,,,,,,,2023-12-07,1,,,,,アーダンラボ,0
1179,5350001018695,新規,0,2023-12-07,2023-12-07,株式会社セラネクト,,株式会社,宮崎県,宮崎市,大字島之内６９９０番地２,,45,201,8800121,,,,,,,2023-12-07,1,,,,,セラネクト,0
1187,5360001032910,新規,0,2023-12-07,2023-12-07,大行株式会社,,株式会社,沖縄県,中頭郡嘉手納町,字水釜１２０番地７,,47,325,9040204,,,,,,,2023-12-07,1,,,,,タイコウ,0
1192,5370001050705,新規,0,2023-12-07,2023-12-07,開港株式会社,,株式会社,宮城県,仙台市青葉区,台原４丁目１３番１７号,,04,101,9810911,,,,,,,2023-12-07,1,,,,,カイコウ,0
1195,5380001034178,新規,0,2023-12-07,2023-12-07,株式会社谷川興産,,株式会社,福島県,郡山市,田村町桜ケ丘２丁目６５番地の１,,07,203,9630723,,,,,,,2023-12-07,1,,,,,タニカワコウサン,0
1196,5390003002173,新規,0,2023-12-07,2023-12-07,合同会社３２９,,合同会社,山形県,山形市,旅篭町２丁目１番１１号１０２号,,06,201,9900047,,,,,,,2023-12-07,1,,,,,サンニキュー,0
1197,5420003002839,新規,0,2023-12-07,2023-12-07,合同会社つばめ会計,,合同会社,青森県,三沢市,松園町３丁目６番３１号,,02,207,0330037,,,,,,,2023-12-07,1,,,,,ツバメカイケイ,0
1199,5430001090587,新規,0,2023-12-07,2023-12-07,株式会社アーマーテック,,株式会社,北海道,札幌市白石区,米里一条２丁目２番７号,,01,104,0030871,,,,,,,2023-12-07,1,,,,,アーマーテック,0
1200,5430001090595,新規,0,2023-12-07,2023-12-07,株式会社ワイズ・プロ,,株式会社,北海道,札幌市南区,真駒内南町３丁目１番１５－９０２号,,01,106,0050016,,,,,,,2023-12-07,1,,,,,ワイズプロ,0
1209,5700150122543,新規,0,2023-12-07,2023-12-07,ｈｅｂｅｉｙｕｎｊｉａｊｉｎｃｈｕｋｏｕｍａｏｙｉ　ｙｏｕｘｉａｎｇｏｎｇｓｉ,,外国会社等,,,,,,,,ｙｕｈｕａｑｕｊｉａｎｈｕａｎａｎｄａｊｉｅ２１２ｈａｏｌａｎｓｈａｎｇｕｏｊｉＡ１５０６　ｓｈｉｊｉａｚｈｕａｎｇｓｈｉｈｅｂｅｉｓｈｅｎｇ,,,,,,2023-12-07,1,,,,,カホクユンジャジンチュウコマオイユウゲンコウシ,0
1210,5700150122551,新規,0,2023-12-07,2023-12-07,ＳｈｅｎｚｈｅｎｓｈｉＫｅｎｕｏｈｕａＤｉａｎｚｉ　Ｃｏ．，Ｌｔｄ,,外国会社等,,,,,,,,Ｒｏｏｍ８０５　Ｕｎｉｔ２　Ｂｕｉｌｄｉｎｇ２　ＸｉｎｙｕａｎＰｈａｓｅ２　ＭｉｎｚｈｉＣｏｍｍｕｎｉｔｙ　ＭｉｎｚｈｉＳｔｒｅｅｔ　ＬｏｎｇｈｕａＤｉｓｔｒｉｃｔ　ＳｈｅｎＺｈｅｎ,,,,,,2023-12-07,1,,,,,シンセンシカノファデンシカンパニーリミット,0
1211,5700150122568,新規,0,2023-12-07,2023-12-07,ｓｈａｎｔｏｕｓｈｉｃｈｅｎｇｈａｉｑｕｍｏｙｕｗｅｎｈｕａｙｏｕｘｉａｎｇｏｎｇｓｉ,,外国会社等,,,,,,,,ｓｈａｎｔｏｕｓｈｉ　ｃｈｅｎｇｈａｉｑｕ　ｆｅｎｇｘｉａｎｇｊｉｅｄａｏｆｅｎｇｘｉｎｇａｎｇｋｏｕｇｏｎｇｙｅｑｕｑｕｊｉａｎｌｕｚｈｏｎｇｄｕａｎ　５１５８００　ＣＮ,,,,,,2023-12-07,1,,,,,シャントウシチェンハイクモユブンカヨウシェンゴンスー,0
1219,6010001240596,新規,0,2023-12-07,2023-12-07,Ｐａｒｔｎｅｒｓ　Ｌｉｎｋ　Ｓｔｏｒｙ株式会社,,株式会社,東京都,中央区,日本橋室町１丁目１１番１２号日本橋水野ビル７階,,13,102,1030022,,,,,,,2023-12-07,1,,,,,パートナーズリンクストーリー,0
1225,6010003042371,新規,0,2023-12-07,2023-12-07,ＳＩＧ合同会社,,合同会社,東京都,千代田区,神田和泉町１番地６－１６,,13,101,1010024,,,,,,,2023-12-07,1,,,,,エスアイジー,0
1226,6010003042388,新規,0,2023-12-07,2023-12-07,合同会社ＭＰＨＷ,,合同会社,東京都,千代田区,内神田１丁目３番７号４０１あすな会計事務所内,,13,101,1010047,,,,,,,2023-12-07,1,,,,,エムピーエイチダブリュー,0
1232,6010401178858,新規,0,2023-12-07,2023-12-07,３ＡＫ　Ｃｈｅｍｉｅ　Ｊａｐａｎ株式会社,,株式会社,東京都,港区,赤坂２丁目１４番５号ダイワ赤坂ビル７Ｆ,,13,103,1070052,,,,,,,2023-12-07,1,,,,,スリーエイケイケミジャパン,0
1233,6010401178940,新規,0,2023-12-07,2023-12-07,株式会社ショーチァンズ,,株式会社,東京都,港区,六本木５丁目１４番１７号,,13,103,1060032,,,,,,,2023-12-07,1,,,,,ショーチァンズ,0
1234,6010401178957,新規,0,2023-12-07,2023-12-07,株式会社Ｓ,,株式会社,東京都,港区,海岸１丁目１番１－４７０５号,,13,103,1050022,,,,,,,2023-12-07,1,,,,,エス,0
1236,6010403031486,新規,0,2023-12-07,2023-12-07,合同会社シークファイン,,合同会社,東京都,港区,浜松町２丁目２番１５号浜松町ダイヤビル２Ｆ,,13,103,1050013,,,,,,,2023-12-07,1,,,,,シークファイン,0
1237,6010403031511,新規,0,2023-12-07,2023-12-07,合同会社シセイテン,,合同会社,東京都,港区,新橋６丁目２０番８号ＶａｒｉｏＣ号室,,13,103,1050004,,,,,,,2023-12-07,1,,,,,シセイテン,0
1243,6010501051460,新規,0,2023-12-07,2023-12-07,株式会社ＢＯＮＦＩＮ,,株式会社,東京都,台東区,台東２丁目２３－４嘉陽ビル７Ｆ,,13,106,1100016,,,,,,,2023-12-07,1,,,,,ボンフィン,0
1246,6010601064271,新規,0,2023-12-07,2023-12-07,株式会社ＧＲＩＴ,,株式会社,東京都,墨田区,太平１丁目１４番１－４１１号,,13,107,1300012,,,,,,,2023-12-07,1,,,,,グリット,0
1250,6010701045213,新規,0,2023-12-07,2023-12-07,株式会社ＴＴコンサルティング,,株式会社,東京都,品川区,東品川２丁目５－６－３３０３号室,,13,109,1400002,,,,,,,2023-12-07,1,,,,,ティーティーコンサルティング,0
1259,6011001158663,新規,0,2023-12-07,2023-12-07,株式会社サステナビリティスタンダードパートナーズ,,株式会社,東京都,目黒区,下目黒２丁目５番４号三和ビル２０１,,13,110,1530064,,,,,,,2023-12-07,1,,,,,サステナビリティスタンダードパートナーズ,0
1260,6011103013774,新規,0,2023-12-07,2023-12-07,合同会社エフエフピー,,合同会社,東京都,新宿区,西新宿３丁目３番１３号西新宿水間ビル２Ｆ,,13,104,1600023,,,,,,,2023-12-07,1,,,,,エフエフピー,0
1263,6011201025085,新規,0,2023-12-07,2023-12-07,アセットパルス株式会社,,株式会社,東京都,中野区,上鷺宮２丁目２１番８号－８,,13,114,1650031,,,,,,,2023-12-07,1,,,,,アセットパルス,0
1267,6011301029242,新規,0,2023-12-07,2023-12-07,株式会社Ｄｒｅａｍｉｎｇ　Ｕｐ,,株式会社,東京都,杉並区,荻窪３丁目３６番８号,,13,115,1670051,,,,,,,2023-12-07,1,,,,,ドリーミングアップ,0
1273,6011601027342,新規,0,2023-12-07,2023-12-07,株式会社菊正,,株式会社,東京都,練馬区,貫井４丁目２－３１－７０１号,,13,120,1760021,,,,,,,2023-12-07,1,,,,,キクマサ,0
1274,6011605002556,新規,0,2023-12-07,2023-12-07,一般社団法人Ａｉｔｉｅ,,その他の設立登記法人,東京都,練馬区,石神井町２丁目２７番９号メゾン石神井１０３,,13,120,1770041,,,,,,,2023-12-07,1,,,,,アイタイ,0
1277,6011701026830,新規,0,2023-12-07,2023-12-07,株式会社クウリュウ,,株式会社,東京都,江戸川区,南小岩３丁目７番１１－２０１号,,13,123,1330056,,,,,,,2023-12-07,1,,,,,クウリュウ,0
1280,6011801043445,新規,0,2023-12-07,2023-12-07,株式会社ＫＳＴ,,株式会社,東京都,葛飾区,堀切４丁目１２番９号,,13,122,1240006,,,,,,,2023-12-07,1,,,,,ケーエスティー,0
1285,6012801022810,新規,0,2023-12-07,2023-12-07,株式会社Ｌａｌａｎｇｅ,,株式会社,東京都,立川市,富士見町７丁目３６－７－１１０,,13,202,1900013,,,,,,,2023-12-07,1,,,,,ラランジュ,0
1296,6020001154779,新規,0,2023-12-07,2023-12-07,株式会社Ｖｉｓｔａ,,株式会社,神奈川県,横浜市鶴見区,矢向５丁目７番３１号メゾンＫＪ３０１,,14,101,2300001,,,,,,,2023-12-07,1,,,,,ビスタ,0
1297,6020001154795,新規,0,2023-12-07,2023-12-07,株式会社ウェイクスプロ,,株式会社,神奈川県,横浜市栄区,飯島町１２９６－５６,,14,115,2440842,,,,,,,2023-12-07,1,,,,,ウェイクスプロ,0
1299,6020003025094,新規,0,2023-12-07,2023-12-07,トラーニ・ミュージックジャパン合同会社,,合同会社,神奈川県,川崎市宮前区,野川台１丁目２６番２８号,,14,136,2160043,,,,,,,2023-12-07,1,,,,,トラーニミュージックジャパン,0
1303,6021005012956,新規,0,2023-12-07,2023-12-07,弁護士法人かふう法律事務所,,その他の設立登記法人,神奈川県,相模原市南区,相模大野３丁目１６番１５号相模大野スカイビル６Ｆ,,14,153,2520303,,,,,,,2023-12-07,1,,,,,カフウホウリツジムショ,0
1310,6030001157509,新規,0,2023-12-07,2023-12-07,株式会社ＲＡＩＳ,,株式会社,埼玉県,川口市,大字木曽呂８８３番地の８レイミー石井２０１号,,11,203,3330831,,,,,,,2023-12-07,1,,,,,ライズ,0
1313,6030003023031,新規,0,2023-12-07,2023-12-07,合同会社Ｔｏｐ　Ａｒｇｅｎｔ,,合同会社,埼玉県,春日部市,中央３丁目１４番地８レガード春日部中央３０８,,11,214,3440067,,,,,,,2023-12-07,1,,,,,トップエージェント,0
1314,6030003023147,新規,0,2023-12-07,2023-12-07,合同会社環,,合同会社,埼玉県,川口市,栄町３丁目４番４－４０１号パークホームズ川口ザレジデンス,,11,203,3320017,,,,,,,2023-12-07,1,,,,,タマキ,0
1315,6030003023155,新規,0,2023-12-07,2023-12-07,合同会社小川商事,,合同会社,埼玉県,さいたま市見沼区,大字東門前２０５－１５,,11,104,3370016,,,,,,,2023-12-07,1,,,,,オガワショウジ,0
1319,6040001131256,新規,0,2023-12-07,2023-12-07,ＨＡＲＩＳ　ＴＲＡＤＩＮＧ株式会社,,株式会社,千葉県,市原市,青葉台２丁目５番地メゾン青葉台６号棟２０１号,,12,219,2990117,,,,,,,2023-12-07,1,,,,,ハリストレーディング,0
1331,6040003023864,新規,0,2023-12-07,2023-12-07,合同会社ＪＯＵＥＳＴ,,合同会社,千葉県,船橋市,本中山３丁目５番１－３０８号,,12,204,2730035,,,,,,,2023-12-07,1,,,,,ジュエスト,0
1332,6040003023880,新規,0,2023-12-07,2023-12-07,ＦＧＨ　ＴＲＡＤＩＮＧ合同会社,,合同会社,千葉県,千葉市若葉区,高根町９５７番地１－Ｃ,,12,104,2650061,,,,,,,2023-12-07,1,,,,,エフジーエイチトレーディング,0
1333,6040005022220,新規,0,2023-12-07,2023-12-07,ユニテック協同組合,,その他の設立登記法人,千葉県,印西市,西の原３丁目２番地２,,12,231,2701334,,,,,,,2023-12-07,1,,,,,ユニテック,0
1360,6100003007299,新規,0,2023-12-07,2023-12-07,ｍｉｉｋｅ合同会社,,合同会社,長野県,東御市,和３１５１－４,,20,219,3890505,,,,,,,2023-12-07,1,,,,,ミーケ,0
1377,6120001260352,新規,0,2023-12-07,2023-12-07,株式会社優楽,,株式会社,大阪府,大阪市生野区,勝山南１丁目１－２０シルクロード勝山１０３号,,27,116,5440021,,,,,,,2023-12-07,1,,,,,ユウラク,0
1378,6120001260419,新規,0,2023-12-07,2023-12-07,株式会社プレミア,,株式会社,大阪府,大阪市城東区,新喜多東２丁目１０番２０号,,27,118,5360017,,,,,,,2023-12-07,1,,,,,プレミア,0
1379,6120001260427,新規,0,2023-12-07,2023-12-07,カレイドスポーツマネジメント株式会社,,株式会社,大阪府,大阪市北区,梅田１丁目１－３大阪駅前第３ビル２９階１－１－１号室,,27,127,5300001,,,,,,,2023-12-07,1,,,,,カレイドスポーツマネジメント,0
1380,6120001260435,新規,0,2023-12-07,2023-12-07,株式会社ＭＩＨＯＢＩ,,株式会社,大阪府,大阪市旭区,高殿６丁目１５番１７号,,27,117,5350031,,,,,,,2023-12-07,1,,,,,ミホビ,0
1381,6120001260443,新規,0,2023-12-07,2023-12-07,株式会社シーアールイーコンサルティング,,株式会社,大阪府,大阪市西淀川区,歌島２丁目６番２９号,,27,113,5550021,,,,,,,2023-12-07,1,,,,,シーアールイーコンサルティング,0
1383,6120003025464,新規,0,2023-12-07,2023-12-07,合同会社ＨＩＲＯ　ＴＯＷＥＲ,,合同会社,大阪府,大阪市西区,西本町１丁目５－１３－４０１,,27,106,5500005,,,,,,,2023-12-07,1,,,,,ヒロタワー,0
1384,6120005024027,新規,0,2023-12-07,2023-12-07,一般社団法人大阪シティーマスジド,,その他の設立登記法人,大阪府,大阪市都島区,毛馬町５丁目９番２２－５０３号,,27,102,5340001,,,,,,,2023-12-07,1,,,,,オオサカシティーマスジド,0
1385,6120005024035,新規,0,2023-12-07,2023-12-07,税理士法人ジャスト,,その他の設立登記法人,大阪府,大阪市北区,天神西町８－７山田きずなビル１階,,27,127,5300045,,,,,,,2023-12-07,1,,,,,ジャスト,0
1386,6120101068654,新規,0,2023-12-07,2023-12-07,株式会社なな,,株式会社,大阪府,泉大津市,上之町２番４号ジーメゾン泉大津ペルフェット１０３号室,,27,206,5950046,,,,,,,2023-12-07,1,,,,,ナナ,0
1390,6120901048434,新規,0,2023-12-07,2023-12-07,Ａｌｆｉｘ株式会社,,株式会社,大阪府,三島郡島本町,広瀬３丁目１０－２９－９,,27,301,6180011,,,,,,,2023-12-07,1,,,,,アルフィックス,0
1391,6120901048450,新規,0,2023-12-07,2023-12-07,株式会社Ｎｕｔｈｏｕｓｅ　Ｅｄｕｃａｔｉｏｎ　Ｐｕｂｌｉｓｈｉｎｇ,,株式会社,大阪府,豊中市,本町６丁目３番２６号,,27,203,5600021,,,,,,,2023-12-07,1,,,,,ナットハウスエデュケイションパブリシング,0
1397,6130001075741,新規,0,2023-12-07,2023-12-07,Ｔｅａ　ｐａｉｒｉｎｇ　ｌａｂ株式会社,,株式会社,京都府,京都市東山区,八坂通東大路西入小松町５９４番地７,,26,105,6050000,,,,,,,2023-12-07,1,,,,,ティーペアリングラボ,0
1400,6130003009185,新規,0,2023-12-07,2023-12-07,Ｍｏｏｍｏｏ合同会社,,合同会社,京都府,木津川市,加茂町里南古田１４１番地,,26,214,6191152,,,,,,,2023-12-07,1,,,,,ムームー,0
1413,6180001159242,新規,0,2023-12-07,2023-12-07,株式会社エセンシア,,株式会社,愛知県,名古屋市北区,志賀本通１丁目１９番地サンヒルズ寿４０１号,,23,103,4620853,,,,,,,2023-12-07,1,,,,,エセンシア,0
1422,6180303005929,新規,0,2023-12-07,2023-12-07,ＹＳＧパートナーズ合同会社,,合同会社,愛知県,刈谷市,新富町１丁目２１１番地メゾンド太陽２０８号,,23,210,4480045,,,,,,,2023-12-07,1,,,,,ワイエスジーパートナーズ,0
1425,6190001030939,新規,0,2023-12-07,2023-12-07,株式会社松田商事,,株式会社,三重県,津市,野田２２０９番地１,,24,201,5140826,,,,,,,2023-12-07,1,,,,,マツダショウジ,0
1427,6190003004528,新規,0,2023-12-07,2023-12-07,合同会社Ｋ．ｋ．ｂ．ｍａｍａｎカンパニー,,合同会社,三重県,伊勢市,神久４丁目１番８号,,24,203,5160017,,,,,,,2023-12-07,1,,,,,ケーケービーママンカンパニー,0
1430,6190005011893,新規,0,2023-12-07,2023-12-07,一般社団法人久保村歴史文化研究会,,その他の設立登記法人,三重県,四日市市,北町８番１９号,,24,202,5100081,,,,,,,2023-12-07,1,,,,,クボムラレキシブンカケンキュウカイ,0
1432,6210001019574,新規,0,2023-12-07,2023-12-07,株式会社ヴェゼルフォー,,株式会社,福井県,福井市,舟橋３丁目９０２番地２,,18,201,9100808,,,,,,,2023-12-07,1,,,,,ヴェゼルフォー,0
1435,6210003001729,新規,0,2023-12-07,2023-12-07,芦原温泉駅前開発合同会社,,合同会社,福井県,あわら市,春宮２丁目２番５０号,,18,208,9190632,,,,,,,2023-12-07,1,,,,,アワラオンセンエキマエカイハツ,0
1441,6240001062514,新規,0,2023-12-07,2023-12-07,株式会社千心会,,株式会社,広島県,府中市,府川町１００番地１９,,34,208,7260004,,,,,,,2023-12-07,1,,,,,センシンカイ,0
1442,6240003006444,新規,0,2023-12-07,2023-12-07,合同会社Ｓｕｎｓｉｒｅｎａ,,合同会社,広島県,呉市,川尻町森３丁目４－４２,,34,202,7372602,,,,,,,2023-12-07,1,,,,,サンシレナ,0
1450,6280003001788,新規,0,2023-12-07,2023-12-07,島根サステイナブルパワー合同会社,,合同会社,島根県,浜田市,黒川町１５５番地７,,32,202,6970024,,,,,,,2023-12-07,1,,,,,シマネサステイナブルパワー,0
1455,6290001103908,新規,0,2023-12-07,2023-12-07,株式会社アナイ会計,,株式会社,福岡県,福岡市博多区,博多駅前３丁目１２番３号,,40,132,8120011,,,,,,,2023-12-07,1,,,,,アナイカイケイ,0
1456,6290001103916,新規,0,2023-12-07,2023-12-07,株式会社Ｄ‐ＥＡＲＴＨ,,株式会社,福岡県,福岡市博多区,博多駅東１丁目１番１６号第２高田ビル５階,,40,132,8120013,,,,,,,2023-12-07,1,,,,,ディーアース,0
1457,6290001103924,新規,0,2023-12-07,2023-12-07,株式会社ＳＨＡＳ,,株式会社,福岡県,みやま市,瀬高町大江７０５番地１６,,40,229,8350019,,,,,,,2023-12-07,1,,,,,エスエイチエーエス,0
1458,6290001103965,新規,0,2023-12-07,2023-12-07,ディフォース株式会社,,株式会社,福岡県,福岡市博多区,博多駅前４丁目１８番２５号,,40,132,8120011,,,,,,,2023-12-07,1,,,,,ディフォース,0
1461,6310003004688,新規,0,2023-12-07,2023-12-07,合同会社Ｉｓｐｏｏｎ,,合同会社,長崎県,西彼杵郡時津町,日並郷１２６１番地７,,42,308,8512108,,,,,,,2023-12-07,1,,,,,アイスプーン,0
1462,6320001020174,新規,0,2023-12-07,2023-12-07,株式会社あかりの宿,,株式会社,大分県,由布市,湯布院町川上２９１５－１５,,44,213,8795102,,,,,,,2023-12-07,1,,,,,アカリノヤド,0
1466,6340003004322,新規,0,2023-12-07,2023-12-07,合同会社新海Ｌａｂｏ,,合同会社,鹿児島県,志布志市,志布志町安楽６０３２番地１,,46,221,8997104,,,,,,,2023-12-07,1,,,,,シンカイラボ,0
1467,6350001018694,新規,0,2023-12-07,2023-12-07,株式会社グラスファクトリー,,株式会社,宮崎県,都城市,早水町１４号５番地山田貸家・北東棟,,45,202,8850016,,,,,,,2023-12-07,1,,,,,グラスファクトリー,0
1471,6360001032884,新規,0,2023-12-07,2023-12-07,株式会社ローレン,,株式会社,沖縄県,宜野湾市,我如古１丁目２０番３号,,47,205,9012214,,,,,,,2023-12-07,1,,,,,ローレン,0
1474,6370005010712,新規,0,2023-12-07,2023-12-07,一般財団法人仙台こども財団,,その他の設立登記法人,宮城県,仙台市青葉区,国分町３丁目６番１号,,04,101,9800803,,,,,,,2023-12-07,1,,,,,センダイコドモザイダン,0
1477,6380001034177,新規,0,2023-12-07,2023-12-07,株式会社浪江の大地,,株式会社,福島県,双葉郡浪江町,大字立野字原３３２,,07,547,9791501,,,,,,,2023-12-07,1,,,,,ナミエノダイチ,0
1485,6430001052966,新規,0,2023-12-07,2023-12-07,坂木材工業株式会社,,株式会社,北海道,苫小牧市,旭町１丁目１番１４号,,01,213,0530018,,,,,,,2023-12-07,1,,,,,サカモクザイコウギョウ,0
1492,6500003003150,新規,0,2023-12-07,2023-12-07,Ｃｏｎｎｅｘｉｏｎ合同会社,,合同会社,愛媛県,松山市,歩行町１丁目１３番３号１Ｆプログレッソ御宝,,38,201,7900801,,,,,,,2023-12-07,1,,,,,コネクション,0
1493,6700150122534,新規,0,2023-12-07,2023-12-07,ＶＮＳＰＩＲＥ　ＳＯＬＵＴＩＯＮＳ　Ｐｖｔ．Ｌｔｄ,,外国会社等,,,,,,,,Ｇ－３０，２ｎｄ　Ｆｌｏｏｒ，Ｓｏｕｔｈ　Ｃｉｔｙ－２，Ｇｕｒｇａｏｎ，Ｈａｒｙａｎａ，Ｉｎｄｉａ，１２２００１,,,,,,2023-12-07,1,,,,,ヴイエヌスパイアソリユーシヨンズプライベートリミテツド,0
1494,6700150122542,新規,0,2023-12-07,2023-12-07,ＧＵＡＮＧＺＨＯＵ　ＸＵＮＣＨＥＮ　ＴＲＡＤＩＮＧ　ＣＯ．，ＬＴＤ,,外国会社等,,,,,,,,Ｇ１６Ｒｏｏｍ２１１０Ｎｏ．９ＨｕａｑｉａｎｇＲｏａｄＴｉａｎｈｅＤｉｓｔｒｉｃｔＧｕａｎｇｚｈｏｕ（ｏｆｆｉｃｅｏｎｌｙ）,,,,,,2023-12-07,1,,,,,コウシュウシュンチェントゥレーディングカンパニーリミテッド,0
1495,6700150122550,新規,0,2023-12-07,2023-12-07,Ｓｈｅｎｚｈｅｎ　Ｎｏｗｓｏｋ　Ｔｅｃｈｎｏｌｏｇｙ　Ｃｏ．，Ｌｔｄ．,,外国会社等,,,,,,,,Ｒｏｏｍ９１１Ｎｏ．１６－１７ＨｏｎｇｙｕＢｕｉｌｄｉｎｇＸｉｎｗｕｙｕａｎＮｅｗＶｉｌｌａｇｅＧｕｘｉｎｇＣｏｍｍｕｎｉｔｙＸｉｘｉａｎｇＳｔｒｅｅｔＢａｏａｎＤｉｓｔｒｉｃｔＳｈｅｎｚｈｅｎ,,,,,,2023-12-07,1,,,,,シンセンノウソクテクノロジーカンパニーリミテッド,0
1496,6700150122559,新規,0,2023-12-07,2023-12-07,ＳｈｅｎｚｈｅｎＡｏｌａｎｄｕｏＤｉａｎｚｉＳｈａｎｇｗｕ　Ｙｏｕｘｉａｎｇｏｎｇｓｉ,,外国会社等,,,,,,,,Ｓｈｅｎｚｈｅｎｓｈｉ　Ｌｏｎｇｇａｎｇｑｕ　ＮａｎｗａｎＪｉｅｄａｏ　Ｋａｎｇｌｅｓｈｅｑｕ　Ｙｉｌｅｈｕａｙｕａｎ　ｙｉｈａｉｇｅ９ｄｏｎｇ８１２,,,,,,2023-12-07,1,,,,,シンセンアオランドデンシシャンウユウゲンコウシ,0
1497,6700150122567,新規,0,2023-12-07,2023-12-07,Ｓｈａｎｇｈａｉ　Ｙｕａｎｊｉｅ　Ｅｌｅｃｔｒｏｎｉｃ　Ｅｑｕｉｐｍｅｎｔ　Ｃｏ．，Ｌｔｄ．,,外国会社等,,,,,,,,Ｒｏｏｍ　３０７，Ｂｕｉｌｄｉｎｇ　＃Ｃ，１８０　Ｃｈａｎｇｊｉａｎｇ　Ｓｏｕｔｈ　Ｒｏａｄ，Ｂａｏｓｈａｎ　Ｄｉｓｔｒｉｃｔ，Ｓｈａｎｇｈａｉ　２００４４１　ＣＮ,,,,,,2023-12-07,1,,,,,シャンハイユアンジエイレクトゥロニックイクイップメントカンパニーリミテッド,0
1505,7010001240562,新規,0,2023-12-07,2023-12-07,株式会社Ｎｕｍｂｅｒｓ,,株式会社,東京都,中央区,日本橋小網町８番２号ＢＩＺＭＡＲＫＳ日本橋茅場町４１０号室,,13,102,1030016,,,,,,,2023-12-07,1,,,,,ナンバーズ,0
1506,7010001240587,新規,0,2023-12-07,2023-12-07,株式会社オークル,,株式会社,東京都,中央区,晴海３丁目１３番１－５２１７号,,13,102,1040053,,,,,,,2023-12-07,1,,,,,オークル,0
1507,7010001240595,新規,0,2023-12-07,2023-12-07,Ｘ‐Ｗｅｂ株式会社,,株式会社,東京都,中央区,銀座１丁目２２番１１号銀座大竹ビジデンス２Ｆ,,13,102,1040061,,,,,,,2023-12-07,1,,,,,エックスウェブ,0
1510,7010003042305,新規,0,2023-12-07,2023-12-07,合同会社ＳＹＢＳ,,合同会社,東京都,文京区,本駒込３丁目２１番８－３０２号,,13,105,1130021,,,,,,,2023-12-07,1,,,,,エスワイビーエス,0
1511,7010003042395,新規,0,2023-12-07,2023-12-07,ｊａｋｅｅ合同会社,,合同会社,東京都,中央区,日本橋室町１丁目１１－１２日本橋水野ビル７Ｆ,,13,102,1030022,,,,,,,2023-12-07,1,,,,,ジャケエ,0
1513,7010101015906,新規,0,2023-12-07,2023-12-07,株式会社ＧＥＮ,,株式会社,東京都,八王子市,谷野町６１４番地１マンションたちばな１０２,,13,201,1920016,,,,,,,2023-12-07,1,,,,,ゲン,0
1519,7010401178972,新規,0,2023-12-07,2023-12-07,株式会社ウマワケサラブレッドクラブ,,株式会社,東京都,港区,西新橋１丁目１４番１０号西新橋スタービル５階,,13,103,1050003,,,,,,,2023-12-07,1,,,,,ウマワケサラブレッドクラブ,0
1531,7010901054310,新規,0,2023-12-07,2023-12-07,株式会社セブン,,株式会社,東京都,世田谷区,北沢５丁目４０番２号,,13,112,1550031,,,,,,,2023-12-07,1,,,,,セブン,0
1547,7011101105358,新規,0,2023-12-07,2023-12-07,株式会社Ｄｉｒｅｃｔ,,株式会社,東京都,新宿区,新宿３丁目３５番５号澤田第二ビル２階,,13,104,1600022,,,,,,,2023-12-07,1,,,,,ディレクト,0
1549,7011201025092,新規,0,2023-12-07,2023-12-07,ＡＮＣＨＯＲ　ＰＬＡＮＮＩＮＧ株式会社,,株式会社,東京都,中野区,大和町２丁目３番１６号,,13,114,1650034,,,,,,,2023-12-07,1,,,,,アンカープランニング,0
1555,7011601027358,新規,0,2023-12-07,2023-12-07,リトル・テイルス株式会社,,株式会社,東京都,練馬区,錦１丁目３４番１１号１階,,13,120,1790082,,,,,,,2023-12-07,1,,,,,リトルテイルス,0
1557,7011703003678,新規,0,2023-12-07,2023-12-07,合同会社ぐみ,,合同会社,東京都,江戸川区,南葛西１丁目１番１－１１０１号,,13,123,1340085,,,,,,,2023-12-07,1,,,,,グミ,0
1560,7011801043460,新規,0,2023-12-07,2023-12-07,株式会社最後の祝福,,株式会社,東京都,足立区,千住龍田町８番１号福島ビル３０２,,13,121,1200042,,,,,,,2023-12-07,1,,,,,サイゴノシュクフク,0
1564,7012303001907,新規,0,2023-12-07,2023-12-07,ＬＩＦＥ‐ＭＡＮＡＧＭＥＮＴ合同会社,,合同会社,東京都,町田市,忠生１丁目８－２,,13,209,1940035,,,,,,,2023-12-07,1,,,,,ライフマネジメント,0
1565,7012403006310,新規,0,2023-12-07,2023-12-07,合同会社ビーアンドキー,,合同会社,東京都,武蔵野市,桜堤１丁目３番２４‐４０３号,,13,203,1800021,,,,,,,2023-12-07,1,,,,,ビーアンドキー,0
1566,7012701017983,新規,0,2023-12-07,2023-12-07,Ｌａｒｒｙ　Ｇｒｏｕｐ株式会社,,株式会社,東京都,小平市,学園東町１丁目７番４１－３号,,13,211,1870043,,,,,,,2023-12-07,1,,,,,ラリーグループ,0
1573,7020001154786,新規,0,2023-12-07,2023-12-07,株式会社ミヤケノシネマ,,株式会社,神奈川県,川崎市麻生区,千代ケ丘１丁目２０番地３４－３０３,,14,137,2150005,,,,,,,2023-12-07,1,,,,,ミヤケノシネマ,0
1578,7020003025119,新規,0,2023-12-07,2023-12-07,ＬＣネット華光産業合同会社,,合同会社,神奈川県,横浜市南区,共進町１丁目２５－２ライオンズマンション吉野町第１０－３０４,,14,105,2320015,,,,,,,2023-12-07,1,,,,,,0
1582,7021001080907,新規,0,2023-12-07,2023-12-07,株式会社湘南イデアル,,株式会社,神奈川県,平塚市,徳延２３１番地の１プラーズ徳延５０３,,14,203,2540902,,,,,,,2023-12-07,1,,,,,ショウナンイデアル,0
1583,7021001080915,新規,0,2023-12-07,2023-12-07,株式会社ワークスナイン,,株式会社,神奈川県,厚木市,下依知１丁目６番１１号,,14,212,2430806,,,,,,,2023-12-07,1,,,,,ワークスナイン,0
1586,7021003013831,新規,0,2023-12-07,2023-12-07,チェンジＸ合同会社,,合同会社,神奈川県,三浦郡葉山町,長柄２９９－４,,14,301,2400113,,,,,,,2023-12-07,1,,,,,チェンジエックス,0
1587,7021003013872,新規,0,2023-12-07,2023-12-07,合同会社をかし,,合同会社,神奈川県,藤沢市,片瀬海岸３丁目２４－２２＃４１３,,14,205,2510035,,,,,,,2023-12-07,1,,,,,ヲカシ,0
1589,7021005012963,新規,0,2023-12-07,2023-12-07,一般社団法人湘洋指導者協議会オフショア,,その他の設立登記法人,神奈川県,藤沢市,辻堂元町４丁目４番１６号,,14,205,2510043,,,,,,,2023-12-07,1,,,,,ショウヨウシドウシャキョウギカイオフショア,0
1595,7030001157508,新規,0,2023-12-07,2023-12-07,株式会社Ｋｉｒｅｕ,,株式会社,埼玉県,川口市,大字安行原２５３８番地の１３,,11,203,3340057,,,,,,,2023-12-07,1,,,,,キレウ,0
1596,7030001157524,新規,0,2023-12-07,2023-12-07,広臣商事株式会社,,株式会社,埼玉県,上尾市,東町１丁目１１番３－５号,,11,219,3620031,,,,,,,2023-12-07,1,,,,,コウシンショウ,0
1597,7030001157549,新規,0,2023-12-07,2023-12-07,ジェイ・ワークスプランニング株式会社,,株式会社,埼玉県,さいたま市緑区,大字三室２１０番地１０,,11,109,3360911,,,,,,,2023-12-07,1,,,,,ジェイワークスプランニング,0
1598,7030001157557,新規,0,2023-12-07,2023-12-07,株式会社ボウルズ,,株式会社,埼玉県,越谷市,大沢１丁目１９番９号,,11,222,3430025,,,,,,,2023-12-07,1,,,,,ボウルズ,0
1599,7030001157565,新規,0,2023-12-07,2023-12-07,株式会社ティーメイク,,株式会社,埼玉県,上尾市,小泉１丁目１０番地１１,,11,219,3620063,,,,,,,2023-12-07,1,,,,,ティーメイク,0
1604,7030003023138,新規,0,2023-12-07,2023-12-07,天衣無縫合同会社,,合同会社,埼玉県,さいたま市南区,南浦和２丁目３６－１６田中ビル４０７号,,11,108,3360017,,,,,,,2023-12-07,1,,,,,テンイムホウ,0
1605,7030003023146,新規,0,2023-12-07,2023-12-07,合同会社ＡＬＴＥＲ,,合同会社,埼玉県,ふじみ野市,駒林元町３丁目９番９－３０２号レリアふじみ野ウェルビスタ,,11,245,3560038,,,,,,,2023-12-07,1,,,,,アルター,0
1606,7030003023154,新規,0,2023-12-07,2023-12-07,合同会社モトジマタイル,,合同会社,埼玉県,川口市,芝富士１丁目２４番１１号,,11,203,3330854,,,,,,,2023-12-07,1,,,,,モトジマタイル,0
1611,7040001131239,新規,0,2023-12-07,2023-12-07,アマネ株式会社,,株式会社,千葉県,松戸市,千駄堀１８０６番地の２,,12,207,2702252,,,,,,,2023-12-07,1,,,,,アマネ,0
1618,7050001053911,新規,0,2023-12-07,2023-12-07,株式会社みどり,,株式会社,茨城県,つくば市,学園の森２丁目２５番地１３,,08,220,3050816,,,,,,,2023-12-07,1,,,,,ミドリ,0
1621,7050003007964,新規,0,2023-12-07,2023-12-07,合同会社ＣＢ‐Ｒｅｖｏｌｕｔｉｏｎ,,合同会社,茨城県,北相馬郡利根町,大字中田切３５２－７,,08,564,3001624,,,,,,,2023-12-07,1,,,,,シービーレボリューション,0
1622,7050003007989,新規,0,2023-12-07,2023-12-07,ＨＹ合同会社,,合同会社,茨城県,日立市,鹿島町１丁目３８番地,,08,202,3170071,,,,,,,2023-12-07,1,,,,,エイチウイ,0
1632,7080103002937,新規,0,2023-12-07,2023-12-07,にこにこ園保育所合同会社,,合同会社,静岡県,裾野市,岩波４９番地の５,,22,220,4101101,,,,,,,2023-12-07,1,,,,,ニコニコエンホイクショ,0
1638,7100001037033,新規,0,2023-12-07,2023-12-07,株式会社宮澤板金,,株式会社,長野県,諏訪市,大字中洲３４１８番地８,,20,206,3920015,,,,,,,2023-12-07,1,,,,,ミヤザワバンキン,0
1639,7100003007298,新規,0,2023-12-07,2023-12-07,合同会社カンスケ,,合同会社,長野県,上田市,小泉９１４番地９,,20,203,3861106,,,,,,,2023-12-07,1,,,,,カンスケ,0
1645,7120001260285,新規,0,2023-12-07,2023-12-07,株式会社フジコー,,株式会社,大阪府,大阪市城東区,中央２丁目１１番２３－１７０１号,,27,118,5360005,,,,,,,2023-12-07,1,,,,,フジコー,0
1646,7120001260351,新規,0,2023-12-07,2023-12-07,株式会社世紀収穫,,株式会社,大阪府,大阪市中央区,松屋町住吉３－２－１２０２号,,27,128,5400017,,,,,,,2023-12-07,1,,,,,セイキシュウカク,0
1647,7120001260368,新規,0,2023-12-07,2023-12-07,株式会社サンウェルホールディングス,,株式会社,大阪府,大阪市中央区,平野町２丁目１番１０号,,27,128,5410046,,,,,,,2023-12-07,1,,,,,サンウェルホールディングス,0
1648,7120001260442,新規,0,2023-12-07,2023-12-07,株式会社Ｌｉｖｅ　Ｗｉｔｈｏｕｔ　Ｒｅｇｒｅｔｓ,,株式会社,大阪府,大阪市住之江区,平林南２丁目６番７号,,27,125,5590025,,,,,,,2023-12-07,1,,,,,リヴウィズアウトリグレッツ,0
1649,7120001260467,新規,0,2023-12-07,2023-12-07,日本金浪住宅株式会社,,株式会社,大阪府,大阪市生野区,新今里２丁目５－６ハピネスジュン２Ｃ,,27,116,5440001,,,,,,,2023-12-07,1,,,,,ニホンキンナミジュウタク,0
1655,7120901048425,新規,0,2023-12-07,2023-12-07,ＵＭコンサルティング株式会社,,株式会社,大阪府,吹田市,片山町２丁目１１番５１－４０８号,,27,205,5640082,,,,,,,2023-12-07,1,,,,,ユーエムコンサルティング,0
1673,7140001132540,新規,0,2023-12-07,2023-12-07,株式会社ＥＰＯＮＡ,,株式会社,兵庫県,西宮市,甲風園１丁目３－１２,,28,204,6620832,,,,,,,2023-12-07,1,,,,,エポナ,0
1674,7140001132573,新規,0,2023-12-07,2023-12-07,株式会社Ｍ’ｓ,,株式会社,兵庫県,西宮市,今在家町２－１４Ｂ１Ｆ,,28,204,6620972,,,,,,,2023-12-07,1,,,,,エムズ,0
1682,7180001159233,新規,0,2023-12-07,2023-12-07,株式会社アサヒ建装,,株式会社,愛知県,尾張旭市,東栄町１丁目１６－３２,,23,226,4880011,,,,,,,2023-12-07,1,,,,,アサヒケンソウ,0
1689,7190005011892,新規,0,2023-12-07,2023-12-07,医療法人恵和会,,その他の設立登記法人,三重県,鈴鹿市,柳町字森１６６５番地２,,24,207,5130811,,,,,,,2023-12-07,1,,,,,ケイワカイ,0
1693,7200001041925,新規,0,2023-12-07,2023-12-07,株式会社ＭＩＮＯるアグリ,,株式会社,岐阜県,美濃市,乙狩１４番地,,21,207,5013786,,,,,,,2023-12-07,1,,,,,ミノルアグリ,0
1694,7200001041941,新規,0,2023-12-07,2023-12-07,株式会社ファミリータイム,,株式会社,岐阜県,中津川市,中津川２９４６番地の２２,,21,206,5080001,,,,,,,2023-12-07,1,,,,,ファミリータイム,0
1696,7210001019573,新規,0,2023-12-07,2023-12-07,株式会社ヘルメス,,株式会社,福井県,あわら市,二面第１６号１番地３０,,18,208,9104103,,,,,,,2023-12-07,1,,,,,ヘルメス,0
1698,7230001020133,新規,0,2023-12-07,2023-12-07,Ｔ．エンジェルＴＡＫＡＯＫＡ株式会社,,株式会社,富山県,高岡市,城東１丁目８番３０号,,16,202,9330041,,,,,,,2023-12-07,1,,,,,ティーエンジェルタカオカ,0
1701,7240001062496,新規,0,2023-12-07,2023-12-07,寿商会株式会社,,株式会社,広島県,尾道市,山波町２０１０６番地３,,34,205,7220052,,,,,,,2023-12-07,1,,,,,コトブキショウカイ,0
1702,7240001062513,新規,0,2023-12-07,2023-12-07,株式会社インペリアルエステート,,株式会社,広島県,福山市,新涯町２丁目１番１８－６号,,34,207,7210955,,,,,,,2023-12-07,1,,,,,インペリアルエステート,0
1703,7250001020420,新規,0,2023-12-07,2023-12-07,株式会社堀江商会,,株式会社,山口県,宇部市,大字上宇部１５０番地９８,,35,202,7550091,,,,,,,2023-12-07,1,,,,,ホリエショウカイ,0
1705,7270003001581,新規,0,2023-12-07,2023-12-07,ＬＩＭＮＯソリューション販売合同会社,,合同会社,鳥取県,鳥取市,立川町７丁目１０１番地,,31,201,6800061,,,,,,,2023-12-07,1,,,,,リムノソリューションハンバイ,0
1710,7290001103956,新規,0,2023-12-07,2023-12-07,株式会社ＳＭＴＣ,,株式会社,福岡県,福岡市博多区,博多駅前１丁目２３番２号ＰａｒｋＦｒｏｎｔ博多駅前１丁目５Ｆ－Ｂ,,40,132,8120011,,,,,,,2023-12-07,1,,,,,エスエムティーシー,0
1711,7290001103964,新規,0,2023-12-07,2023-12-07,舟嶼株式会社,,株式会社,福岡県,福岡市東区,若宮２丁目１２番２９号,,40,131,8130036,,,,,,,2023-12-07,1,,,,,フナシマ,0
1712,7290001103972,新規,0,2023-12-07,2023-12-07,株式会社ＩＺＵＭＩ,,株式会社,福岡県,福岡市東区,舞松原１丁目６番２６号,,40,131,8130042,,,,,,,2023-12-07,1,,,,,イズミ,0
1713,7290003014689,新規,0,2023-12-07,2023-12-07,合同会社ねこのて,,合同会社,福岡県,福岡市早良区,有田１丁目３２番１６号,,40,137,8140033,,,,,,,2023-12-07,1,,,,,ネコノテ,0
1714,7290003014706,新規,0,2023-12-07,2023-12-07,合同会社リッオール,,合同会社,福岡県,福岡市城南区,友泉亭１７番２８－１０１号,,40,136,8140122,,,,,,,2023-12-07,1,,,,,リッオール,0
1715,7290801001707,新規,0,2023-12-07,2023-12-07,サンワホーム株式会社,,株式会社,福岡県,北九州市小倉北区,京町３丁目１５番１５号辰巳法律事務所内,,40,106,8020002,,,,,,,2023-12-07,1,,,,,サンワホーム,0
1719,7330003010106,新規,0,2023-12-07,2023-12-07,合同会社ＮＹＳ．ｃｏｍ,,合同会社,熊本県,菊池市,隈府８７４番地１７,,43,210,8611331,,,,,,,2023-12-07,1,,,,,エヌワイエスドットコム,0
1728,7380001034176,新規,0,2023-12-07,2023-12-07,株式会社白松工務店,,株式会社,福島県,会津若松市,東山町大字湯本字居平１３８番地,,07,202,9650814,,,,,,,2023-12-07,1,,,,,シロマツコウムテン,0
1730,7400003003184,新規,0,2023-12-07,2023-12-07,ＤＡＶＩＤＥ　ＰＩＺＺＡ合同会社,,合同会社,岩手県,久慈市,山形町霜畑第１０地割１１番地１,,03,207,0288713,,,,,,,2023-12-07,1,,,,,ダヴィデピザ,0
1733,7430001090585,新規,0,2023-12-07,2023-12-07,株式会社カワムラ,,株式会社,北海道,札幌市白石区,菊水元町三条１丁目２番１５号－２,,01,104,0030823,,,,,,,2023-12-07,1,,,,,カワムラ,0
1734,7430001090602,新規,0,2023-12-07,2023-12-07,株式会社創形,,株式会社,北海道,札幌市中央区,北四条西４丁目１番地７ＭＭＳ札幌駅前ビル１階,,01,101,0600004,,,,,,,2023-12-07,1,,,,,ソウケイ,0
1735,7430001090610,新規,0,2023-12-07,2023-12-07,株式会社芳正,,株式会社,北海道,札幌市北区,新琴似二条９丁目３番１６号,,01,102,0010902,,,,,,,2023-12-07,1,,,,,ホウショウ,0
1741,7470003002527,新規,0,2023-12-07,2023-12-07,合同会社一粒の麦,,合同会社,香川県,木田郡三木町,大字池戸２１３１番地１,,37,341,7610701,,,,,,,2023-12-07,1,,,,,ヒトツブノムギ,0
1743,7700150122533,新規,0,2023-12-07,2023-12-07,Ｑｉｎｇｄａｏ　Ｘｉｎｂａｄａ　Ｙａｎｇｐｉｎ　Ｉｎｔｅｒｎａｔｉｏｎａｌ　Ｔｒａｄｅ　Ｃｏ．，Ｌｔｄ,,外国会社等,,,,,,,,Ａ－２６５，Ｎｏ．１９，ｔｈｅ　Ｔａｉｈｕ　Ｌａｋｅ　Ｒｏａｄ，Ｓｈｉｎａｎ　Ｄｉｓｔｒｉｃｔ，Ｑｉｎｇｄａｏ，Ｓｈａｎｄｏｎｇ,,,,,,2023-12-07,1,,,,,チンダォシンバダヤンピンインターナショナルトラデカンプリリミデット,0
1744,7700150122541,新規,0,2023-12-07,2023-12-07,Ｓｈｅｎｚｈｅｎ　Ｓｅｖｅｎ　Ｃｏｌｏｕｒｓ　Ｅｌｅｃｔｒｉｃ　Ａｐｐｌｉｎａｃｅ　Ｃｏ．，Ｌｔｄ,,外国会社等,,,,,,,,１３ＣＢｕｉｌｄｉｎｇ４ＮａｎｈａｉＲｏｓｅＧａｒｄｅｎ（ＰｈａｓｅＩＩＩ）ＳｈｅｋｏｕＳｔｒｅｅｔＮａｎｓｈａｎＤｉｓｔｒｉｃｔＳｈｅｎｚｈｅｎＣｉｔｙ,00132807,,,,,2023-12-07,1,,,,,シンセンセブンカラーズイレクトゥリックアプライアンスカンパニーリミテッド,0
1745,7700150122558,新規,0,2023-12-07,2023-12-07,ｓｈｅｎｚｈｅｎｓｈｉ　ｊｉａｎｙｏｕｐｉｎｓｈａｎｇｋｅｊｉｙｏｕｘｉａｎｇｏｎｇｓｉ,,外国会社等,,,,,,,,３０２　３ｒｄＦｌｏｏｒＢｕｉｌｄｉｎｇ１ＫｉｎｇＨｅｙｕａｎＩｎｄｕｓｔｒｉａｌＰａｒｋ　２００４ＸｕｅｇａｎｇＮｏｒｔｈＲｏａｄ　ＢａｎｔｉａｎＳｔｒｅｅｔ　ＬｏｎｇｇａｎｇＤｉｓｔｒｉｃｔ　Ｓｈｅｎｚｈｅｎ,,,,,,2023-12-07,1,,,,,シンセンシカンユウヒンショウカギユウゲンコウシ,0
1746,7700150122566,新規,0,2023-12-07,2023-12-07,Ｑｉｎｇ　Ｄａｏ　Ｙｏｕ　Ｋｅ　Ｚｈｉ　Ｍａｏ　Ｙｉ　Ｙｏｕ　Ｘｉａｎ　Ｇｏｎｇ　Ｓｉ,,外国会社等,,,,,,,,ｓｈａｎｄｏｎｇｓｈｅｎｇ　ｑｉｎｇｄａｏｓｈｉ　ｓｈｉｂｅｉｑｕ　ｈｅｉｌｏｎｇｊｉａｎｇｎａｎｌｕ　２ｈａｏｂｉｎｇ８０５ｈｕ,,,,,,2023-12-07,1,,,,,チーンダオヨウコーァジーマオイーヨウシエンゴーンスー,0
1758,8010003042394,新規,0,2023-12-07,2023-12-07,合同会社まつのき,,合同会社,東京都,千代田区,丸の内３丁目１番１号東京共同会計事務所内,,13,101,1000005,,,,,,,2023-12-07,1,,,,,マツノキ,0
1763,8010401178939,新規,0,2023-12-07,2023-12-07,株式会社ルーチェス,,株式会社,東京都,港区,六本木５丁目１４番１７号,,13,103,1060032,,,,,,,2023-12-07,1,,,,,ルーチェス,0
1766,8010405022762,新規,0,2023-12-07,2023-12-07,アジアリビング１特定目的会社,,その他の設立登記法人,東京都,港区,六本木１丁目９番１０号アークヒルズ仙石山森タワー４０階,,13,103,1060032,,,,,,,2023-12-07,1,,,,,アジアリビングワン,0
1767,8010501051475,新規,0,2023-12-07,2023-12-07,株式会社食べる,,株式会社,東京都,台東区,浅草２丁目７－１３,,13,106,1110032,,,,,,,2023-12-07,1,,,,,タベル,0
1780,8010803004759,新規,0,2023-12-07,2023-12-07,合同会社ＳＡコンサル,,合同会社,東京都,大田区,南雪谷１丁目２０番２－７０２号,,13,111,1450066,,,,,,,2023-12-07,1,,,,,エスエーコンサル,0
1781,8010803004775,新規,0,2023-12-07,2023-12-07,合同会社新倉総業,,合同会社,東京都,大田区,大森北６丁目１７番４号サークルハウス平和島壱番館１０３,,13,111,1430016,,,,,,,2023-12-07,1,,,,,アラクラソウギョウ,0
1792,8011301029240,新規,0,2023-12-07,2023-12-07,株式会社ボンズクリエイト,,株式会社,東京都,杉並区,堀ノ内１丁目１３番４－２０２号サンステージ坂上,,13,115,1660013,,,,,,,2023-12-07,1,,,,,ボンズクリエイト,0
1797,8011601027340,新規,0,2023-12-07,2023-12-07,守合居株式会社,,株式会社,東京都,練馬区,高野台２丁目１１番１５－３０２号,,13,120,1770033,,,,,,,2023-12-07,1,,,,,スゴイ,0
1798,8011601027357,新規,0,2023-12-07,2023-12-07,株式会社レクチェール,,株式会社,東京都,練馬区,田柄３丁目１４番２１号,,13,120,1790073,,,,,,,2023-12-07,1,,,,,レクチェール,0
1802,8011701026829,新規,0,2023-12-07,2023-12-07,株式会社Ｒコーポレーション,,株式会社,東京都,江戸川区,瑞江２丁目５番３号,,13,123,1320011,,,,,,,2023-12-07,1,,,,,アールコーポレーション,0
1805,8011803005978,新規,0,2023-12-07,2023-12-07,秋美合同会社,,合同会社,東京都,葛飾区,新小岩２丁目２１番６号ＪＡＩＲＯ新小岩２０３号室,,13,122,1240024,,,,,,,2023-12-07,1,,,,,アキミ,0
1806,8012301013688,新規,0,2023-12-07,2023-12-07,株式会社三優総合設備,,株式会社,東京都,町田市,森野６丁目６２番地都営森野六丁目４－４０８,,13,209,1940022,,,,,,,2023-12-07,1,,,,,サンユウソウゴウセツビ,0
1807,8012803003245,新規,0,2023-12-07,2023-12-07,合同会社トライアングルキッチン,,合同会社,東京都,日野市,万願寺１丁目２９－４,,13,212,1910024,,,,,,,2023-12-07,1,,,,,トライアングルキッチン,0
1819,8020001154744,新規,0,2023-12-07,2023-12-07,株式会社機助,,株式会社,神奈川県,川崎市高津区,坂戸１丁目１４番１２－１０１号ユリアシャンテ清和,,14,134,2130012,,,,,,,2023-12-07,1,,,,,キスケ,0
1820,8020001154785,新規,0,2023-12-07,2023-12-07,株式会社富吉興業,,株式会社,神奈川県,横浜市南区,南太田１丁目６番３－２号,,14,105,2320006,,,,,,,2023-12-07,1,,,,,トミヨシコウギョウ,0
1821,8020001154793,新規,0,2023-12-07,2023-12-07,株式会社Ｋ＆Ｋ,,株式会社,神奈川県,横浜市西区,平沼１丁目１９番１８号トップルーム横浜１０１号室,,14,103,2200023,,,,,,,2023-12-07,1,,,,,ケーアンドケー,0
1825,8020005016206,新規,0,2023-12-07,2023-12-07,医療法人社団白釉会,,その他の設立登記法人,神奈川県,横浜市緑区,長津田みなみ台５丁目２４番地１パークコートみなみ台２号室,,14,113,2260018,,,,,,,2023-12-07,1,,,,,ハクユウカイ,0
1831,8021001080897,新規,0,2023-12-07,2023-12-07,株式会社経理サポート,,株式会社,神奈川県,小田原市,曽比１８８１番地,,14,206,2500851,,,,,,,2023-12-07,1,,,,,ケイリサポート,0
1832,8021001080906,新規,0,2023-12-07,2023-12-07,相模商事株式会社,,株式会社,神奈川県,相模原市中央区,東淵野辺５丁目６番３号,,14,152,2520203,,,,,,,2023-12-07,1,,,,,サガミショウジ,0
1841,8021005012954,新規,0,2023-12-07,2023-12-07,一般社団法人サイバー安全保障人材基盤協会,,その他の設立登記法人,神奈川県,横須賀市,光の丘３番４号,,14,201,2390847,,,,,,,2023-12-07,1,,,,,サイバーアンゼンホショウジンザイキバンキョウカイ,0
1846,8030001157507,新規,0,2023-12-07,2023-12-07,株式会社Ｒ．Ｈ．Ｙ,,株式会社,埼玉県,八潮市,大字古新田１０４４番地シャーメゾンエノモトＩ２０１,,11,234,3400823,,,,,,,2023-12-07,1,,,,,アールエイチワイ,0
1847,8030001157548,新規,0,2023-12-07,2023-12-07,株式会社プラウアフィールドリビングテクニカ,,株式会社,埼玉県,さいたま市見沼区,東大宮６丁目４７番地１,,11,104,3370051,,,,,,,2023-12-07,1,,,,,プラウアフィールドリビングテクニカ,0
1848,8030001157556,新規,0,2023-12-07,2023-12-07,株式会社デンショウ,,株式会社,埼玉県,蕨市,中央６丁目１６番５号,,11,223,3350004,,,,,,,2023-12-07,1,,,,,デンショウ,0
1849,8030001157572,新規,0,2023-12-07,2023-12-07,株式会社リディア,,株式会社,埼玉県,所沢市,大字下安松１１７０番地の１３グリーンフォレストＣ－１０１,,11,208,3590024,,,,,,,2023-12-07,1,,,,,リディア,0
1852,8030003023137,新規,0,2023-12-07,2023-12-07,ＨＵＲＲＥ合同会社,,合同会社,埼玉県,狭山市,大字水野７１５－３クレール月見野１０１,,11,215,3501317,,,,,,,2023-12-07,1,,,,,フーレ,0
1853,8030003023161,新規,0,2023-12-07,2023-12-07,合同会社風塵洞,,合同会社,埼玉県,春日部市,豊町２丁目６番地８,,11,214,3440066,,,,,,,2023-12-07,1,,,,,フウジンドウ,0
1854,8030005021493,新規,0,2023-12-07,2023-12-07,一般財団法人アノアス,,その他の設立登記法人,埼玉県,さいたま市大宮区,桜木町１丁目１１番１５大宮ファーストプレイスタワー１１０６,,11,103,3300854,,,,,,,2023-12-07,1,,,,,アノアス,0
1858,8040001131254,新規,0,2023-12-07,2023-12-07,金子商事株式会社,,株式会社,千葉県,山武郡横芝光町,北清水６０９６番地１,,12,410,2891734,,,,,,,2023-12-07,1,,,,,カネコショウジ,0
1861,8040003023846,新規,0,2023-12-07,2023-12-07,合同会社ｌａｔａｔａ,,合同会社,千葉県,柏市,若柴１８４－１中央３１１街区かけだし横丁Ａ１６,,12,217,2770871,,,,,,,2023-12-07,1,,,,,ラタタ,0
1862,8040003023879,新規,0,2023-12-07,2023-12-07,シャイニングアソシエイト合同会社,,合同会社,千葉県,四街道市,もねの里４丁目２番１４号,,12,228,2840016,,,,,,,2023-12-07,1,,,,,シャイニングアソシエイト,0
1870,8070001041153,新規,0,2023-12-07,2023-12-07,株式会社Ｌｉｖｅｌｙ　Ｂｌｏｏｄｓｔｏｃｋ　Ａｇｅｎｃｙ,,株式会社,群馬県,高崎市,倉賀野町３３０４番地,,10,202,3701201,,,,,,,2023-12-07,1,,,,,リヴリィブラッドストックエージェンシー,0
1874,8070003005189,新規,0,2023-12-07,2023-12-07,合同会社４Ｕ,,合同会社,群馬県,沼田市,高橋場町２１３１番地１２,,10,206,3780056,,,,,,,2023-12-07,1,,,,,フォーユー,0
1875,8080401026876,新規,0,2023-12-07,2023-12-07,株式会社マインドギア,,株式会社,静岡県,磐田市,西貝塚７８７番地２,,22,211,4380026,,,,,,,2023-12-07,1,,,,,マインドギア,0
1878,8100003007297,新規,0,2023-12-07,2023-12-07,合同会社好森山房,,合同会社,長野県,諏訪市,高島２丁目１２１９番地３,,20,206,3920022,,,,,,,2023-12-07,1,,,,,コウシンサンボウ,0
1879,8110003005234,新規,0,2023-12-07,2023-12-07,合同会社港産業,,合同会社,新潟県,新潟市西区,善久８１５番地１,,15,107,9501102,,,,,,,2023-12-07,1,,,,,ミナトサンギョウ,0
1887,8120001260425,新規,0,2023-12-07,2023-12-07,株式会社光彩アセットプランニング,,株式会社,大阪府,枚方市,中宮本町１番５－７０７号,,27,210,5731196,,,,,,,2023-12-07,1,,,,,コウサイアセットプランニング,0
1888,8120001260458,新規,0,2023-12-07,2023-12-07,株式会社リクルーティングソリューションズ,,株式会社,大阪府,大阪市西区,立売堀１丁目４番１２号,,27,106,5500012,,,,,,,2023-12-07,1,,,,,リクルーティングソリューションズ,0
1894,8120003025462,新規,0,2023-12-07,2023-12-07,連発国際合同会社,,合同会社,大阪府,大阪市西成区,天下茶屋１丁目２８番１６－３０３号,,27,122,5570014,,,,,,,2023-12-07,1,,,,,レンハツコクサイ,0
1902,8120101068652,新規,0,2023-12-07,2023-12-07,東茂株式会社,,株式会社,大阪府,堺市南区,美木多上９５１番地２４,,27,145,5900136,,,,,,,2023-12-07,1,,,,,トウモ,0
1908,8130003009183,新規,0,2023-12-07,2023-12-07,合同会社ＳＴＡＲＳ,,合同会社,京都府,京都市北区,紫竹上園生町１番地６,,26,101,6038421,,,,,,,2023-12-07,1,,,,,スターズ,0
1910,8130005016946,新規,0,2023-12-07,2023-12-07,一般社団法人宏誠会,,その他の設立登記法人,京都府,京都市中京区,夷川通室町東入巴町８７番地１パラドール烏丸御所南グランデ３０１号,,26,104,6040863,,,,,,,2023-12-07,1,,,,,コウセイカイ,0
1912,8140001132531,新規,0,2023-12-07,2023-12-07,株式会社プレシャス,,株式会社,兵庫県,加古川市,加古川町寺家町２４４番地の４５,,28,210,6750066,,,,,,,2023-12-07,1,,,,,プレシャス,0
1913,8140001132580,新規,0,2023-12-07,2023-12-07,山岸ビルズ株式会社,,株式会社,兵庫県,西宮市,甲東園１丁目４番４号,,28,204,6620812,,,,,,,2023-12-07,1,,,,,ヤマギシビルズ,0
1914,8140001132589,新規,0,2023-12-07,2023-12-07,株式会社新興開発,,株式会社,兵庫県,神戸市垂水区,塩屋町６丁目１番１５－５０３号,,28,108,6550872,,,,,,,2023-12-07,1,,,,,シンコウカイハツ,0
1915,8140001132630,新規,0,2023-12-07,2023-12-07,株式会社ＯＬＬ,,株式会社,兵庫県,神戸市中央区,小野浜町８番４８号,,28,110,6510082,,,,,,,2023-12-07,1,,,,,オーエルエル,0
1918,8140005026829,新規,0,2023-12-07,2023-12-07,一般社団法人地域貢献事業推進協会,,その他の設立登記法人,兵庫県,神戸市中央区,割塚通７丁目２－９,,28,110,6510065,,,,,,,2023-12-07,1,,,,,チイキコウケンジギョウスイシンキョウカイ,0
1930,8180301038094,新規,0,2023-12-07,2023-12-07,株式会社ディーエフ監理,,株式会社,愛知県,安城市,住吉町３丁目７番９号,,23,212,4460072,,,,,,,2023-12-07,1,,,,,ディーエフカンリ,0
1935,8190001030937,新規,0,2023-12-07,2023-12-07,ＹＫＴ株式会社,,株式会社,三重県,松阪市,嬉野新屋庄町５３番地１,,24,204,5152314,,,,,,,2023-12-07,1,,,,,ワイケーティ,0
1938,8210001019572,新規,0,2023-12-07,2023-12-07,株式会社オールメディカル福井,,株式会社,福井県,福井市,文京５丁目２番１７号,,18,201,9100017,,,,,,,2023-12-07,1,,,,,オールメディカルフクイ,0
1942,8240001062512,新規,0,2023-12-07,2023-12-07,グランディア株式会社,,株式会社,広島県,東広島市,高屋町中島１０８８番地１５７,,34,212,7392125,,,,,,,2023-12-07,1,,,,,グランディア,0
1944,8240003006442,新規,0,2023-12-07,2023-12-07,合同会社らーめんやグループ,,合同会社,広島県,広島市中区,大手町５丁目１６番６号,,34,101,7300051,,,,,,,2023-12-07,1,,,,,ラーメンヤグループ,0
1951,8260001038535,新規,0,2023-12-07,2023-12-07,株式会社タカラ不動産開発,,株式会社,岡山県,浅口市,鴨方町六条院中１４７６番地１２,,33,216,7190252,,,,,,,2023-12-07,1,,,,,タカラフドウサンカイハツ,0
1955,8280003001794,新規,0,2023-12-07,2023-12-07,合同会社Ｓ．Ｍ．Ｄ　Ｇａｍｅ’ｓらぼらとりー,,合同会社,島根県,邑智郡川本町,大字川本１５８０番地２,,32,441,6960001,,,,,,,2023-12-07,1,,,,,エスエムディーゲームズラボラトリー,0
1956,8280005007575,新規,0,2023-12-07,2023-12-07,一般社団法人ＷＡＴＥＲ　ＢＲＩＤＧＥ,,その他の設立登記法人,島根県,松江市,島根町野波２４８７,,32,201,6901212,,,,,,,2023-12-07,1,,,,,ウォーターブリッジ,0
1961,8290001103930,新規,0,2023-12-07,2023-12-07,株式会社鮨おがわ,,株式会社,福岡県,久留米市,本町１７１番地,,40,203,8300044,,,,,,,2023-12-07,1,,,,,スシオガワ,0
1962,8290003014705,新規,0,2023-12-07,2023-12-07,合同会社ウッズ,,合同会社,福岡県,福岡市中央区,天神４丁目６番２８号天神ファーストビル７階,,40,133,8100001,,,,,,,2023-12-07,1,,,,,ウッズ,0
1966,8330005010730,新規,0,2023-12-07,2023-12-07,医療法人優幸会,,その他の設立登記法人,熊本県,熊本市中央区,出水４丁目２５番２８号,,43,101,8620941,,,,,,,2023-12-07,1,,,,,ユウコウカイ,0
1970,8350001018692,新規,0,2023-12-07,2023-12-07,株式会社ＴＡＫＥ,,株式会社,宮崎県,宮崎市,中央通８番１３号－１,,45,201,8800002,,,,,,,2023-12-07,1,,,,,テイク,0
1971,8350003004518,新規,0,2023-12-07,2023-12-07,合同会社ＪＵＵＷＯＲＫＳ,,合同会社,宮崎県,西都市,小野崎１丁目８５番地,,45,208,8810012,,,,,,,2023-12-07,1,,,,,ジュウワークス,0
1972,8360001032908,新規,0,2023-12-07,2023-12-07,株式会社真心,,株式会社,沖縄県,宜野湾市,宜野湾１丁目９番２９号,,47,205,9012211,,,,,,,2023-12-07,1,,,,,マゴコロ,0
1978,8390001017435,新規,0,2023-12-07,2023-12-07,株式会社ＦＯＲＧＥ,,株式会社,山形県,鶴岡市,新海町３０番３２号,,06,203,9970044,,,,,,,2023-12-07,1,,,,,フォージ,0
1981,8400005008370,新規,0,2023-12-07,2023-12-07,一般社団法人附馬牛ＣＣ,,その他の設立登記法人,岩手県,遠野市,附馬牛町上附馬牛５地割７５番地,,03,208,0280661,,,,,,,2023-12-07,1,,,,,ツキモウシシーシー,0
1985,8430001090568,新規,0,2023-12-07,2023-12-07,株式会社一元,,株式会社,北海道,石狩市,花川北一条４丁目９３番地一條ビル２Ｆ,,01,235,0613211,,,,,,,2023-12-07,1,,,,,カズモト,0
1986,8430001090576,新規,0,2023-12-07,2023-12-07,株式会社東秀,,株式会社,北海道,札幌市中央区,盤渓４６３番地,,01,101,0640945,,,,,,,2023-12-07,1,,,,,トウシュウ,0
1987,8430003015721,新規,0,2023-12-07,2023-12-07,合同会社ＣＮエージェント,,合同会社,北海道,札幌市豊平区,中の島一条３丁目６番２４－２号,,01,105,0620921,,,,,,,2023-12-07,1,,,,,シーエヌエージェント,0
1990,8700150122532,新規,0,2023-12-07,2023-12-07,Ｃｈａｎｇｚｈｏｕ　Ｆｌｅｘｔａｉｌ　Ｔｅｃｈｎｏｌｏｇｙ　Ｃｏ．，Ｌｔｄ,,外国会社等,,,,,,,,Ｎｏ．１８，ｈｕａｓｈａｎ　Ｒｏａｄ　ｃｈａｎｇｚｈｏｕ　ｊｉａｎｇｓｕ　２１３０００　ＣＮ,,,,,,2023-12-07,1,,,,,チヤンジヨウイーウエイコージーヨウシエンゴンスー,0
1991,8700150122540,新規,0,2023-12-07,2023-12-07,ＳＨＥＮＺＨＥＮＳＨＩＸＩＮＤＡＺＨＩＮＥＮＧＣＨＵＡＮＧＸＩＮ　ＹＯＵＸＩＡＮＧＯＮＧＳＩ,,外国会社等,,,,,,,,ＳＨＥＮＺＨＥＮＳＨＩＬＯＮＧＧＡＮＧＱＵＨＥＮＧＧＡＮＧＪＩＥＤＡＯＨＥＮＧＧＡＮＧＳＨＥＱＵＦＵＫＡＮＧＬＵ１０１ＨＡＯＣＤＯＮＧ２１８－Ｂ１,,,,,,2023-12-07,1,,,,,シンセンシシンダジノウソウシンユウゲンコウシ,0
1992,8700150122549,新規,0,2023-12-07,2023-12-07,ｎｉｎｇｂｏｍａｉｂｅｉｗｅｎｈｕａｙｏｎｇｐｉｎ　ｙｏｕｘｉａｎｇｏｎｇｓｉ,,外国会社等,,,,,,,,Ｎｏ．３　ＭｅｉＪｉｎｌｕ　ＤｏｎｇｑｉａｎＬａｋｅＴｏｕｒｉｓｔＲｅｓｏｒｔ　Ｎｉｎｇｂｏ　ＺｈｅｊｉａｎｇＰｒｏｖｉｎｃｅ,,,,,,2023-12-07,1,,,,,ニンポーマイベイファヨンピンユウゲンコウシ,0
1993,8700150122557,新規,0,2023-12-07,2023-12-07,ｓｈｅｎｚｈｅｎｓｈｉ　ｙｕｅｙｏｕｇｕｏｊｉｍａｏｙｉ　ｙｏｕｘｉａｎｇｏｎｇｓｉ,,外国会社等,,,,,,,,ｌｏｎｇｇａｎｇｑｕ　ｈｅｎｇｇａｎｇｊｉｅｄａｏ　２２８ｇｏｎｇｙｅｑｕ　ｑｉａｎｃｈｅｎｇｌｕ　２７ｈａｏｙｉｌｏｕ１０３　ｓｈｅｎｚｈｅｎｓｈｉ,,,,,,2023-12-07,1,,,,,シンセンシユエヨウコクサイボウエキユウゲンコウシ,0
1994,8700150122565,新規,0,2023-12-07,2023-12-07,Ｋｕｎｓｈａｎｚｈｏｎｇｒｏｎｇｘｉｎｘｉｊｉｓｈｕｙｏｕｘｉａｎｇｏｎｇｓｉ,,外国会社等,,,,,,,,Ｎｏ．６６６　Ｃｈａｎｇｊｉａｎｇ　Ｓｏｕｔｈ　Ｒｏａｄ，Ｋｕｎｓｈａｎ　Ｄｅｖｅｌｏｐｍｅｎｔ　Ｚｏｎｅ，１８０１　Ｌｉｄｅ　Ｉｎｔｅｒｎａｔｉｏｎａｌ　Ｔｒａｄｅ　Ｃｅｎｔｅｒ，ｋｕｎｓｈａｎ，ｊｉａｎｇｓｕ，２１５３００，ＣＮ,,,,,,2023-12-07,1,,,,,クンシャンジョーンゥローンシンシイジーシュウヨウシエンゴーンスー,0
2010,9010001240478,新規,0,2023-12-07,2023-12-07,株式会社コリーグ,,株式会社,東京都,文京区,本郷１丁目８番１４号カサフェリチェ本郷２０４,,13,105,1130033,,,,,,,2023-12-07,1,,,,,コリーグ,0
2014,9010005037615,新規,0,2023-12-07,2023-12-07,一般社団法人まつのき,,その他の設立登記法人,東京都,千代田区,丸の内３丁目１番１号東京共同会計事務所内,,13,101,1000005,,,,,,,2023-12-07,1,,,,,マツノキ,0
2023,9010401178789,新規,0,2023-12-07,2023-12-07,石岡伴左衛門商店株式会社,,株式会社,東京都,港区,南青山４丁目１番５号,,13,103,1070062,,,,,,,2023-12-07,1,,,,,イシオカバンザエモンショウテン,0
2024,9010401178938,新規,0,2023-12-07,2023-12-07,株式会社ルキウス,,株式会社,東京都,港区,六本木５丁目１４番１７号,,13,103,1060032,,,,,,,2023-12-07,1,,,,,ルキウス,0
2027,9010403031343,新規,0,2023-12-07,2023-12-07,合同会社そらむ,,合同会社,東京都,港区,北青山１丁目３番１号アールキューブ青山３階,,13,103,1070061,,,,,,,2023-12-07,1,,,,,ソラム,0
2028,9010403031509,新規,0,2023-12-07,2023-12-07,合同会社ＴＹＪＹ,,合同会社,東京都,港区,南麻布１丁目７番３１号１２０１号室,,13,103,1060047,,,,,,,2023-12-07,1,,,,,ティーワイジェイケイ,0
2034,9010601064269,新規,0,2023-12-07,2023-12-07,株式会社ＡｎＧｉｎｇ,,株式会社,東京都,江東区,永代２丁目３５番３号,,13,108,1350034,,,,,,,2023-12-07,1,,,,,エンジン,0
2039,9010901054309,新規,0,2023-12-07,2023-12-07,株式会社みさとピアノ教室,,株式会社,東京都,世田谷区,北沢１丁目４０番６号フィルパーク下北沢３階,,13,112,1550031,,,,,,,2023-12-07,1,,,,,ミサトピアノキョウシツ,0
2056,9011101105364,新規,0,2023-12-07,2023-12-07,株式会社ＣｅｄｅｒＦｉｅｌｄ,,株式会社,東京都,新宿区,市谷薬王寺町１２番５号,,13,104,1620063,,,,,,,2023-12-07,1,,,,,シダーフィールド,0
2057,9011105010882,新規,0,2023-12-07,2023-12-07,Ａｎｔｈｏｎｙ一般社団法人,,その他の設立登記法人,東京都,新宿区,四谷２丁目９番地１５東京ユナイテッド綜合事務所内,,13,104,1600004,,,,,,,2023-12-07,1,,,,,アンソニー,0
2060,9011301029231,新規,0,2023-12-07,2023-12-07,株式会社ホース・アンリミテッド,,株式会社,東京都,杉並区,和泉３丁目１４番５号,,13,115,1680063,,,,,,,2023-12-07,1,,,,,ホースアンリミテッド,0
2063,9011401025675,新規,0,2023-12-07,2023-12-07,株式会社アスラク,,株式会社,東京都,板橋区,板橋１丁目１１号８番パレステージ板橋２０４,,13,119,1730004,,,,,,,2023-12-07,1,,,,,アスラク,0
2068,9011703003676,新規,0,2023-12-07,2023-12-07,蘇り合同会社,,合同会社,東京都,江戸川区,中葛西５丁目２０番９号ＳＵＮＧＩＯＩＡＮｏｒｔｈ１０１,,13,123,1340083,,,,,,,2023-12-07,1,,,,,ヨミガエリ,0
2075,9011803005977,新規,0,2023-12-07,2023-12-07,日本同仁楽合同会社,,合同会社,東京都,足立区,花畑８丁目５番１６号都営花畑第４アパート１０６号室,,13,121,1210061,,,,,,,2023-12-07,1,,,,,ニホンドウジンラク,0
2076,9012801022808,新規,0,2023-12-07,2023-12-07,株式会社ＳＡＩ　Ｓｔａｇｅ,,株式会社,東京都,立川市,柴崎町６丁目１９番９号パルテンザＢ３０３,,13,202,1900023,,,,,,,2023-12-07,1,,,,,サイステージ,0
2077,9013303006910,新規,0,2023-12-07,2023-12-07,合同会社ＳＤＨ,,合同会社,東京都,豊島区,東池袋３丁目７－８,,13,116,1700013,,,,,,,2023-12-07,1,,,,,エスディーエイチ,0
2085,9020001154685,新規,0,2023-12-07,2023-12-07,乾源株式会社,,株式会社,神奈川県,川崎市川崎区,砂子２丁目１０番地７ルリエ川崎駅前１３０３,,14,131,2100006,,,,,,,2023-12-07,1,,,,,,0
2086,9020001154768,新規,0,2023-12-07,2023-12-07,株式会社ＡｒｅａＤＳＳ,,株式会社,神奈川県,横浜市金沢区,六浦南４丁目２０番１－７０６号,,14,108,2360038,,,,,,,2023-12-07,1,,,,,エリアディーエスエス,0
2089,9020003025125,新規,0,2023-12-07,2023-12-07,なつなおエンジニアリング合同会社,,合同会社,神奈川県,川崎市中原区,下小田中２丁目１１番１－３０６号ライオンズマンション武蔵中原ガーデンスクエア,,14,133,2110041,,,,,,,2023-12-07,1,,,,,ナツナオエンジニアリング,0
2090,9021001080888,新規,0,2023-12-07,2023-12-07,株式会社安東林,,株式会社,神奈川県,厚木市,寿町２丁目２番６号,,14,212,2430003,,,,,,,2023-12-07,1,,,,,アントウリン,0
2091,9021001080905,新規,0,2023-12-07,2023-12-07,株式会社ランテックネクスト,,株式会社,神奈川県,茅ヶ崎市,小桜町３番２５号,,14,207,2530016,,,,,,,2023-12-07,1,,,,,ランテックネクスト,0
2092,9021003013879,新規,0,2023-12-07,2023-12-07,合同会社Ｓｍｉｌｅｇｅｔｈｅｒ,,合同会社,神奈川県,藤沢市,石川６丁目１０番地の１９,,14,205,2520815,,,,,,,2023-12-07,1,,,,,スマイルギャザー,0
2093,9021003013887,新規,0,2023-12-07,2023-12-07,合同会社Ｎ角,,合同会社,神奈川県,藤沢市,大庭５５９４―１,,14,205,2510861,,,,,,,2023-12-07,1,,,,,エヌカク,0
2098,9030001157506,新規,0,2023-12-07,2023-12-07,株式会社型和,,株式会社,埼玉県,越谷市,大字下間久里１０４８番地１１,,11,222,3430045,,,,,,,2023-12-07,1,,,,,ケイワ,0
2099,9030001157522,新規,0,2023-12-07,2023-12-07,株式会社ｓｏ　ｆａｒ　ｓｏ　ｇｏｏｄ,,株式会社,埼玉県,富士見市,東みずほ台２丁目２４番地３１,,11,235,3540015,,,,,,,2023-12-07,1,,,,,ソーファーソーグッド,0
2100,9030001157530,新規,0,2023-12-07,2023-12-07,株式会社ＩＮＧ,,株式会社,埼玉県,坂戸市,大字青木８８９番地１１,,11,239,3500207,,,,,,,2023-12-07,1,,,,,アイエヌジー,0
2101,9030001157547,新規,0,2023-12-07,2023-12-07,株式会社Ｌｅｏｎ,,株式会社,埼玉県,さいたま市浦和区,東仲町３番１７－５０４,,11,107,3300056,,,,,,,2023-12-07,1,,,,,レオン,0
2102,9030001157563,新規,0,2023-12-07,2023-12-07,株式会社三松舎,,株式会社,埼玉県,川口市,東領家２丁目３７番２７号,,11,203,3320003,,,,,,,2023-12-07,1,,,,,ミマツシャ,0
2103,9030003023144,新規,0,2023-12-07,2023-12-07,合同会社ＫＴＴ,,合同会社,埼玉県,朝霞市,溝沼３丁目２番４号ｃａｃａｏ１０１,,11,227,3510023,,,,,,,2023-12-07,1,,,,,ケーティーティー,0
2104,9030003023152,新規,0,2023-12-07,2023-12-07,心琿合同会社,,合同会社,埼玉県,川口市,西川口１丁目９番８号スカイコート西川口第５,,11,203,3320021,,,,,,,2023-12-07,1,,,,,シンコン,0
2105,9030003023177,新規,0,2023-12-07,2023-12-07,合同会社ＫＣ,,合同会社,埼玉県,戸田市,本町１丁目２５－２２,,11,224,3350023,,,,,,,2023-12-07,1,,,,,ケーシー,0
2108,9040001131253,新規,0,2023-12-07,2023-12-07,大楊商事株式会社,,株式会社,千葉県,浦安市,堀江４丁目３５－１３－４０１,,12,227,2790041,,,,,,,2023-12-07,1,,,,,ダイヨウショウジ,0
2116,9040005022218,新規,0,2023-12-07,2023-12-07,特定非営利活動法人パソコン企画,,その他の設立登記法人,千葉県,千葉市緑区,おゆみ野南２丁目９７番地６,,12,105,2660033,,,,,,,2023-12-07,1,,,,,パソコンキカク,0
2123,9060001036608,新規,0,2023-12-07,2023-12-07,株式会社テンカイ,,株式会社,栃木県,栃木市,大森町４３９番地７サンハイツケズカＤ棟１０１号室,,09,203,3280133,,,,,,,2023-12-07,1,,,,,テンカイ,0
2134,9080105006380,新規,0,2023-12-07,2023-12-07,ＴＳ　ＪＡＰＡＮ協同組合,,その他の設立登記法人,静岡県,沼津市,松長７９９番地の１リバーシティー２０２号室,,22,203,4100874,,,,,,,2023-12-07,1,,,,,ティエスジャパン,0
2140,9080405007599,新規,0,2023-12-07,2023-12-07,西ケ崎館管理組合法人,,その他の設立登記法人,静岡県,浜松市東区,西ケ崎町１１６６番地の１,,22,132,4313115,,,,,,,2023-12-07,1,,,,,ニシガサキカン,0
2144,9100003007296,新規,0,2023-12-07,2023-12-07,合同会社ＢＥＬＬ,,合同会社,長野県,小諸市,相生町１丁目３－７中央一番館２階右,,20,208,3840025,,,,,,,2023-12-07,1,,,,,ベル,0
2157,9120001260184,新規,0,2023-12-07,2023-12-07,株式会社Ａ’ｚ建築,,株式会社,大阪府,大阪市西成区,千本南１丁目８番９号,,27,122,5570055,,,,,,,2023-12-07,1,,,,,エーゼットケンチク,0
2158,9120001260424,新規,0,2023-12-07,2023-12-07,株式会社Ｆｅｌｉｃｉｔａ,,株式会社,大阪府,大阪市平野区,加美鞍作３丁目９番３１号,,27,126,5470004,,,,,,,2023-12-07,1,,,,,フェリチタ,0
2159,9120001260432,新規,0,2023-12-07,2023-12-07,株式会社ＩＭ,,株式会社,大阪府,大阪市中央区,心斎橋筋２丁目３番１２号,,27,128,5420085,,,,,,,2023-12-07,1,,,,,アイエム,0
2160,9120001260457,新規,0,2023-12-07,2023-12-07,天利国際株式会社,,株式会社,大阪府,大阪市生野区,小路東１丁目１２番１４号,,27,116,5440003,,,,,,,2023-12-07,1,,,,,テンリコクサイ,0
2161,9120001260473,新規,0,2023-12-07,2023-12-07,日本聚成株式会社,,株式会社,大阪府,大阪市西成区,長橋２丁目６番２７号４０１室,,27,122,5570025,,,,,,,2023-12-07,1,,,,,ニホンシュウセイ,0
2164,9120003025461,新規,0,2023-12-07,2023-12-07,合同会社Ｒｕｂｙ,,合同会社,大阪府,大阪市生野区,新今里４丁目３番２１号２Ｆ,,27,116,5440001,,,,,,,2023-12-07,1,,,,,ルビー,0
2165,9120003025486,新規,0,2023-12-07,2023-12-07,合同会社ＴＷＯ,,合同会社,大阪府,大阪市港区,夕凪２丁目１７番５－２０３号,,27,107,5520004,,,,,,,2023-12-07,1,,,,,トゥー,0
2166,9120005024032,新規,0,2023-12-07,2023-12-07,一般社団法人ＺＥＲＯ　ＰＯＩＮＴ,,その他の設立登記法人,大阪府,大阪市北区,中崎３丁目２番８号５０１号室,,27,127,5300016,,,,,,,2023-12-07,1,,,,,ゼロポイント,0
2167,9120005024040,新規,0,2023-12-07,2023-12-07,一般社団法人リンクアップ,,その他の設立登記法人,大阪府,大阪市港区,夕凪２丁目１７番５－２０３号,,27,107,5520004,,,,,,,2023-12-07,1,,,,,リンクアップ,0
2168,9120101068651,新規,0,2023-12-07,2023-12-07,株式会社エナガ,,株式会社,大阪府,岸和田市,池尻町２１番地の３－１０１,,27,202,5960813,,,,,,,2023-12-07,1,,,,,エナガ,0
2182,9140001132571,新規,0,2023-12-07,2023-12-07,Ｋ‐Ｉコンサルティング株式会社,,株式会社,兵庫県,芦屋市,公光町４番１７号,,28,206,6590065,,,,,,,2023-12-07,1,,,,,ケーアイコンサルティング,0
2185,9150001026913,新規,0,2023-12-07,2023-12-07,株式会社建防,,株式会社,奈良県,橿原市,東坊城町３２６番地の１,,29,205,6340835,,,,,,,2023-12-07,1,,,,,ケンボウ,0
2186,9150005009534,新規,0,2023-12-07,2023-12-07,医療法人社団ことのは会,,その他の設立登記法人,奈良県,奈良市,六条２丁目１８番３号奈良六条医療モール１号,,29,201,6308043,,,,,,,2023-12-07,1,,,,,コトノハカイ,0
2197,9180001159207,新規,0,2023-12-07,2023-12-07,株式会社高支,,株式会社,愛知県,名古屋市北区,大曽根２丁目６番６号シマダビル４階,,23,103,4620825,,,,,,,2023-12-07,1,,,,,コウシ,0
2198,9180001159248,新規,0,2023-12-07,2023-12-07,ＶｉｓｉｏｎＡｒｒａｙ株式会社,,株式会社,愛知県,名古屋市中村区,名駅３丁目４番１０号アルティメイト名駅１ｓｔ２階,,23,105,4500002,,,,,,,2023-12-07,1,,,,,ヴィジョンアレイ,0
2206,9180301038077,新規,0,2023-12-07,2023-12-07,株式会社新海,,株式会社,愛知県,岡崎市,江口２丁目７番地２,,23,202,4440843,,,,,,,2023-12-07,1,,,,,シンカイ,0
2207,9180301038093,新規,0,2023-12-07,2023-12-07,Ｐ‐Ｐｒｏｊｅｋｔ株式会社,,株式会社,愛知県,豊橋市,北岩田２丁目３番地１２,,23,201,4400031,,,,,,,2023-12-07,1,,,,,ピープロジェクト,0
2211,9200001041948,新規,0,2023-12-07,2023-12-07,株式会社ＢＵＬＬＰＥＮ,,株式会社,岐阜県,岐阜市,八幡町３５番地３ＮｏｔｒｅＶｉｌｌｅ１Ｆ,,21,201,5008838,,,,,,,2023-12-07,1,,,,,ブルペン,0
2215,9200003006172,新規,0,2023-12-07,2023-12-07,ＮＡＭＡＬ　ＴＲＡＤＩＮＧ合同会社,,合同会社,岐阜県,各務原市,那加吾妻町４５コーポＨＩＲＡＩ２Ｃ,,21,213,5040962,,,,,,,2023-12-07,1,,,,,ナマルトレーディング,0
2217,9200005013547,新規,0,2023-12-07,2023-12-07,医療法人喜翔会,,その他の設立登記法人,岐阜県,岐阜市,柳津町下佐波１丁目３番地,,21,201,5016121,,,,,,,2023-12-07,1,,,,,キショウカイ,0
2218,9210001019563,新規,0,2023-12-07,2023-12-07,株式会社わかさかな,,株式会社,福井県,小浜市,田烏第６３号３番地,,18,204,9170101,,,,,,,2023-12-07,1,,,,,ワカサカナ,0
2219,9210001019571,新規,0,2023-12-07,2023-12-07,株式会社アップカル,,株式会社,福井県,敦賀市,杉津４号７番地の１,,18,202,9140264,,,,,,,2023-12-07,1,,,,,アップカル,0
2231,9240003006441,新規,0,2023-12-07,2023-12-07,合同会社エムアイグロース,,合同会社,広島県,広島市西区,古江東町２５番１９号スターアーク古江東４０１号,,34,104,7330872,,,,,,,2023-12-07,1,,,,,エムアイグロース,0
2236,9260001038534,新規,0,2023-12-07,2023-12-07,株式会社ＳＨＯＵコーポレーション,,株式会社,岡山県,倉敷市,玉島乙島７３５９番地１６,,33,202,7138103,,,,,,,2023-12-07,1,,,,,ショウコーポレーション,0
2242,9290001103921,新規,0,2023-12-07,2023-12-07,株式会社ａｊｉｔｏ,,株式会社,福岡県,福岡市博多区,中洲４丁目７－２０藤木ビル２Ｆ,,40,132,8100801,,,,,,,2023-12-07,1,,,,,アジト,0
2243,9290001103946,新規,0,2023-12-07,2023-12-07,株式会社原教材店,,株式会社,福岡県,久留米市,国分町２３３番地６,,40,203,8390863,,,,,,,2023-12-07,1,,,,,ハラキョウザイテン,0
2248,9290003014662,新規,0,2023-12-07,2023-12-07,合同会社ＲＩＳＥ‐ＡＺＵ,,合同会社,福岡県,小郡市,小郡４６４－１０,,40,216,8380141,,,,,,,2023-12-07,1,,,,,リセアズ,0
2249,9290003014687,新規,0,2023-12-07,2023-12-07,合同会社キャッツ,,合同会社,福岡県,福岡市南区,老司１丁目２１番４号,,40,134,8111346,,,,,,,2023-12-07,1,,,,,キャッツ,0
2250,9290005019214,新規,0,2023-12-07,2023-12-07,ＮＰＯ法人春日地域推進協議会,,その他の設立登記法人,福岡県,春日市,桜ヶ丘２丁目５９番地,,40,218,8160872,,,,,,,2023-12-07,1,,,,,カスガチイキスイシンキョウギカイ,0
2265,9350003004517,新規,0,2023-12-07,2023-12-07,合同会社インフィニティ,,合同会社,宮崎県,宮崎市,権現町１７０－１ＫｏＯｌｉｎａＧｏｎｇｅｎ３０７,,45,201,8800822,,,,,,,2023-12-07,1,,,,,インフィニティ,0
2277,9390001017434,新規,0,2023-12-07,2023-12-07,株式会社櫻井総合設備,,株式会社,山形県,天童市,大字成生６９０番地,,06,210,9940006,,,,,,,2023-12-07,1,,,,,サクライソウゴウセツビ,0
2279,9430001090583,新規,0,2023-12-07,2023-12-07,株式会社Ｇｏｄ‐Ｇｒａｃｉａｓ,,株式会社,北海道,千歳市,錦町４丁目９番地ＴＨＥ　ＢＥＬＬＣＬＡＳＳＩＣ　Ｌｉｅｎ内,,01,224,0660064,,,,,,,2023-12-07,1,,,,,ゴッドグラシアス,0
2280,9430001090591,新規,0,2023-12-07,2023-12-07,株式会社イーガーデンプラス,,株式会社,北海道,恵庭市,黄金中央３丁目１２番地１２,,01,231,0611449,,,,,,,2023-12-07,1,,,,,イーガーデンプラス,0
2281,9430001090600,新規,0,2023-12-07,2023-12-07,株式会社大江企画,,株式会社,北海道,札幌市中央区,南五条西２７丁目１番２０号,,01,101,0640805,,,,,,,2023-12-07,1,,,,,オオエキカク,0
2282,9430001090609,新規,0,2023-12-07,2023-12-07,株式会社きときと桜,,株式会社,北海道,札幌市北区,麻生町４丁目１２番８号アルファ麻生ビル１階,,01,102,0010045,,,,,,,2023-12-07,1,,,,,キトキトサクラ,0
2289,9430003015720,新規,0,2023-12-07,2023-12-07,やまだの合同会社,,合同会社,北海道,登別市,常盤町１丁目８番地４,,01,230,0590011,,,,,,,2023-12-07,1,,,,,ヤマダノ,0
2290,9430003015729,新規,0,2023-12-07,2023-12-07,アダプライ合同会社,,合同会社,北海道,札幌市東区,北四十二条東１５丁目２－３０雪月花弐１０１号,,01,103,0070842,,,,,,,2023-12-07,1,,,,,アダプライ,0
2294,9490003001839,新規,0,2023-12-07,2023-12-07,合同会社ＡＯＩコーポレーション,,合同会社,高知県,高知市,介良乙９９３番地,,39,201,7815106,,,,,,,2023-12-07,1,,,,,アオイコーポレーション,0
2295,9700150122548,新規,0,2023-12-07,2023-12-07,Ｓｈｅｎｚｈｅｎｓｈｉ　Ｓｈａｎｙｕｌｏｎｇ　Ｔｒａｄｉｎｇ　Ｃｏ．，Ｌｔｄ,,外国会社等,,,,,,,,５０７Ｂｕｉｌｄｉｎｇ６ＴａｏｊｉｎｓｈａｎＨｕｊｉｎｇＧａｒｄｅｎＮｏ．２６８ＣｕｉｙｉｎＲｏａｄＪｉｎｈｕＣｏｍｍｕｎｉｔｙＤｏｎｇｈｕＳｔｒｅｅｔＬｕｏｈｕＤｉｓｔｒｉｃｔＳｈｅｎｚｈｅｎ,,,,,,2023-12-07,1,,,,,シンセンシサンユロントゥレーディングカンパニーリミテッド,0
2296,9700150122556,新規,0,2023-12-07,2023-12-07,Ｓｈｅｎｚｈｅｎ　ＣＨＥＮＨＥ　Ｅ－ｃｏｍｍｅｒｃｅ　ｃｏ．ＬＴＤ,,外国会社等,,,,,,,,Ｂａｏａｎｑｕ　Ｓｈａｊｉｎｇｊｉｅｄａｏ　ＸｉｎｓｈａｌｕＨｏｎｇｄａｘｉｎｇｈｕａｙｕａｎＢｄｏｎｇ６０２ｓｈｉ　Ｓｈｅｎｚｈｅｎｓｈｉ,,,,,,2023-12-07,1,,,,,シンセンチェンヘイーコマースカンパニーリミテッド,0
2297,9700150122564,新規,0,2023-12-07,2023-12-07,Ｓｈｅｎｚｈｅｎ　Ｃｕｄｙ　Ｔｅｃｈｎｏｌｏｇｙ　Ｃｏ．，Ｌｔｄ．,,外国会社等,,,,,,,,Ｒｏｏｍ　Ａ６０６，Ｇａｏｘｉｎｑｉ　Ｉｎｄｕｓｔｒｉａｌ　Ｐａｒｋ，Ｂａｏａｎ　６７　Ｄｉｓｔｒｉｃｔ　Ｓｈｅｎｚｈｅｎ　Ｇｕａｎｇｄｏｎｇ　５１８１０１　ＣＮ,,,,,,2023-12-07,1,,,,,シンセンシクテイテクノロジーカンパニーリミティッド,0
2298,9700150122572,新規,0,2023-12-07,2023-12-07,Ｄｏｎｇｇｕａｎｓｈｉ　ｔｏｎｇｇｕｉｄｕ　ｄｉａｎｚｉｋｅｊｉ　ｙｏｕｘｉａｎｇｏｎｇｓｉ,,外国会社等,,,,,,,,Ｑｉｎｇｘｉｚｈｅｎ　ｑｉｎｇｘｉｋｅｊｉｌｕ　３０５ｈａｏ　２ｈａｏｌｏｕ　３０１ｓｉ　Ｄｏｎｇｇｕａｎ　Ｇｕａｎｇｄｏｎｇ　Ｃｈｉｎａ,,,,,,2023-12-07,1,,,,,ドングワンシートングイドウディエンズーコージーヨウシエンゴンスー,0
