sequenceNumber,corporateNumber,process,correct,updateDate,changeDate,name,nameImageId,kind,prefectureName,cityName,streetNumber,addressImageId,prefectureCode,cityCode,postCode,addressOutside,addressOutsideImageId,closeDate,closeCause,successorCorporateNumber,changeCause,assignmentDate,latest,enName,enPrefectureName,enCityName,enAddressOutside,furigana,hihyoji
19,1010401140673,登記記録の閉鎖等,0,2022-10-03,2022-09-05,株式会社グランデッツァ,,株式会社,東京都,港区,赤坂４丁目８番２０号,,13,103,1070052,,,2022-09-05,合併による解散等,4012401025810,令和４年９月１日東京都港区赤坂四丁目８番２０号後藤ブランド株式会社（4012401025810）に合併し解散,2018-09-11,1,,,,,グランデッツァ,0
37,1010802017727,登記記録の閉鎖等,0,2022-10-03,2022-09-21,有限会社トーショープランニング,,有限会社,東京都,大田区,東糀谷３丁目１３番７号,,13,111,1440033,,,2022-09-21,合併による解散等,4010801014722,令和４年８月２１日東京都大田区東糀谷三丁目１３番７号株式会社トーショーホールディングス（4010801014722）に合併し解散,2015-10-05,1,,,,,トーショープランニング,0
61,1011402005816,登記記録の閉鎖等,0,2022-10-03,2022-09-28,有限会社谷ランドリー,,有限会社,東京都,板橋区,中板橋１１番１１号,,13,119,1730016,,,2022-09-28,清算の結了等,,,2015-10-05,1,,,,,タニランドリー,0
67,1011801015333,登記記録の閉鎖等,0,2022-10-03,2022-09-28,中坪巧芸印刷株式会社,,株式会社,東京都,足立区,関原２丁目４７番２５号,,13,121,1230852,,,2022-09-28,清算の結了等,,,2015-10-05,1,,,,,,0
81,1012803001651,登記記録の閉鎖等,0,2022-10-03,2022-09-26,合同会社富ヶ谷再開発,,合同会社,東京都,日野市,大字上田３３９番地の５,,13,212,1910014,,,2022-09-26,清算の結了等,,,2017-07-19,1,,,,,トミガヤサイカイハツ,0
143,1120001111733,登記記録の閉鎖等,0,2022-10-03,2022-09-30,永大テクノサポート株式会社,,株式会社,大阪府,大阪市住之江区,平林南２丁目１０番６０号,,27,125,5590025,,,2022-09-30,清算の結了等,,,2015-10-05,1,,,,,エイダイテクノサポート,0
150,1120001222431,登記記録の閉鎖等,0,2022-10-03,2022-09-29,株式会社近畿出版社,,株式会社,大阪府,大阪市北区,天神橋３丁目２番１５号サクシード南森町２階,,27,127,5300041,,,2022-09-29,清算の結了等,,,2019-07-12,1,,,,,キンキシュッパンシャ,0
164,1130001050121,登記記録の閉鎖等,0,2022-10-03,2022-09-22,株式会社ＧｒｏｗｔｈＲｉｎｇｓ,,株式会社,京都府,京都市左京区,下鴨南芝町４３番地５グランドライン北山２階,,26,103,6060841,,,2022-09-22,清算の結了等,,,2015-10-05,1,,,,,グロースリングス,0
172,1140001070300,登記記録の閉鎖等,0,2022-10-03,2022-09-28,防災エンジニアリング株式会社,,株式会社,兵庫県,西宮市,津門稲荷町９番１４号,,28,204,6638247,,,2022-09-28,清算の結了等,,,2015-10-05,1,,,,,ボウサイエンジニアリング,0
180,1140002049863,登記記録の閉鎖等,0,2022-10-03,2022-09-28,有限会社中工務店,,有限会社,兵庫県,姫路市,飾磨区中島８０４番地１,,28,201,6728035,,,2022-09-28,清算の結了等,,,2015-10-05,1,,,,,ナカコウムテン,0
181,1140002052256,登記記録の閉鎖等,0,2022-10-03,2022-09-27,有限会社ウエストジャパン・カーゴ,,有限会社,兵庫県,姫路市,西新在家３丁目４番８号,,28,201,6700096,,,2022-09-27,清算の結了等,,,2015-10-05,1,,,,,ウエストジャパンカーゴ,0
205,1230002007424,登記記録の閉鎖等,0,2022-10-03,2022-09-29,有限会社荒田商会,,有限会社,富山県,魚津市,六郎丸１１２７番地,,16,204,9370042,,,2022-09-29,清算の結了等,,,2015-10-05,1,,,,,アラタショウカイ,0
249,1390002001139,登記記録の閉鎖等,0,2022-10-03,2022-09-28,有限会社サカハラ,,有限会社,山形県,山形市,南二番町１番２９号,,06,201,9902442,,,2022-09-28,清算の結了等,,,2015-10-05,1,,,,,サカハラ,0
253,1430001051774,登記記録の閉鎖等,0,2022-10-03,2022-09-20,株式会社タクミ,,株式会社,北海道,磯谷郡蘭越町,蘭越町２７４番地１７,,01,394,0481301,,,2022-09-20,清算の結了等,,,2015-10-05,1,,,,,タクミ,0
263,1450001012345,登記記録の閉鎖等,0,2022-10-03,2022-09-30,株式会社ＨＯＰ,,株式会社,北海道,旭川市,近文町１３丁目３３番地,,01,204,0700821,,,2022-09-30,合併による解散等,2450001005901,令和４年９月３０日北海道旭川市大町一条三丁目９番地３１株式会社オフィスプライム（2450001005901）に合併し解散,2018-02-26,1,,,,,エイチオーピー,0
267,1490002000650,登記記録の閉鎖等,0,2022-10-03,2022-09-26,有限会社植木鉄筋,,有限会社,高知県,高知市,大谷公園町１６番１号９０５号,,39,201,7808085,,,2022-09-26,清算の結了等,,,2015-10-05,1,,,,,ウエキテッキン,0
292,2010401093020,登記記録の閉鎖等,0,2022-10-03,2022-09-27,アルファレオ株式会社,,株式会社,東京都,千代田区,永田町２丁目１１番１号山王パークタワー,,13,101,1000014,,,2022-09-27,清算の結了等,,,2015-10-05,1,,,,,アルファレオ,0
298,2010403019171,登記記録の閉鎖等,0,2022-10-03,2022-09-13,合同会社ミート,,合同会社,東京都,港区,虎ノ門３丁目２２番１０－２０１号,,13,103,1050001,,,2022-09-13,清算の結了等,,,2018-08-22,1,,,,,ミート,0
299,2010403022191,登記記録の閉鎖等,0,2022-10-03,2022-09-13,合同会社ハーバー,,合同会社,東京都,港区,虎ノ門３丁目２２番１０－２０１号,,13,103,1050001,,,2022-09-13,清算の結了等,,,2020-01-23,1,,,,,ハーバー,0
331,2011602008907,登記記録の閉鎖等,0,2022-10-03,2022-09-22,有限会社豊悦商事,,有限会社,東京都,杉並区,西荻北４丁目１３番３号,,13,115,1670042,,,2022-09-22,清算の結了等,,,2015-10-05,1,,,,,トヨエツホウエツショウジ,0
337,2012405000555,登記記録の閉鎖等,0,2022-10-03,2022-09-21,特定非営利活動法人全国精神障害者団体連合会,,その他の設立登記法人,東京都,調布市,調布ケ丘１丁目１５番地８矢田部荘１０３号室,,13,208,1820021,,,2022-09-21,清算の結了等,,,2015-10-05,1,,,,,ゼンコクセイシンショウガイシャダンタイレンゴウカイ,0
354,2020002094953,登記記録の閉鎖等,0,2022-10-03,2022-09-26,有限会社ｃｏｃｏｓｕｍｕ,,有限会社,神奈川県,川崎市麻生区,片平２丁目３番１８号,,14,137,2150023,,,2022-09-26,清算の結了等,,,2015-10-05,1,,,,,ココスム,0
356,2021001004928,登記記録の閉鎖等,0,2022-10-03,2022-09-30,ＡＭＥ＆ＣＯＲＰ株式会社,,株式会社,静岡県,伊東市,瓶山２丁目８番２１号スプリングハイツ伊東７３１,,22,208,4140034,,,2022-09-30,清算の結了等,,,2015-10-05,1,,,,,エーエムイーアンドコープ,0
358,2021002023613,登記記録の閉鎖等,0,2022-10-03,2022-09-28,ひょっとこや有限会社ノムラ,,有限会社,神奈川県,相模原市南区,大野台７丁目６番１５号,,14,153,2520331,,,2022-09-28,清算の結了等,,,2015-10-05,1,,,,,ヒョットコヤノムラ,0
374,2040002064434,登記記録の閉鎖等,0,2022-10-03,2022-09-21,有限会社タイコウ,,有限会社,千葉県,八街市,八街ほ２０番９,,12,230,2891115,,,2022-09-21,清算の結了等,,,2015-10-05,1,,,,,タイコウ,0
397,2110002025081,登記記録の閉鎖等,0,2022-10-03,2022-09-26,有限会社新清ホテル,,有限会社,新潟県,妙高市,大字関川６４３番地,,15,217,9492112,,,2022-09-26,清算の結了等,,,2022-09-06,1,,,,,,0
419,2120901014497,登記記録の閉鎖等,0,2022-10-03,2022-09-30,株式会社ユーキ・モールド,,株式会社,大阪府,高槻市,城南町１丁目１４番２０号,,27,207,5690056,,,2022-09-30,清算の結了等,,,2015-10-05,1,,,,,,0
422,2120902009991,登記記録の閉鎖等,0,2022-10-03,2022-09-30,有限会社サンソー,,有限会社,大阪府,高槻市,富田町４丁目３番２０号,,27,207,5690814,,,2022-09-30,清算の結了等,,,2015-10-05,1,,,,,サンソー,0
444,2180001043664,登記記録の閉鎖等,0,2022-10-03,2022-09-22,株式会社マッドジャパン,,株式会社,東京都,中央区,京橋２丁目６番１１号ＭＹ京橋ビル６階,,13,102,1040031,,,2022-09-22,清算の結了等,,,2015-10-05,1,,,,,マッドジャパン,0
446,2180001108921,登記記録の閉鎖等,0,2022-10-03,2022-09-28,株式会社前田,,株式会社,愛知県,名古屋市北区,大曽根４丁目１３番３３号,,23,103,4620825,,,2022-09-28,清算の結了等,,,2015-10-05,1,,,,,マエダ,0
456,2180003015620,登記記録の閉鎖等,0,2022-10-03,2022-09-28,ひみつきち合同会社,,合同会社,愛知県,日進市,岩崎町芦廻間１１２番地１０１５バンクーバー１１１４竹の山Ａ棟,,23,230,4700131,,,2022-09-28,清算の結了等,,,2015-10-05,1,,,,,ヒミツキチ,0
474,2240005007510,登記記録の閉鎖等,0,2022-10-03,2022-09-20,天理教仲條分教会,,その他の設立登記法人,広島県,福山市,神辺町字東中条２２２０番地,,34,207,7202102,,,2022-09-20,合併による解散等,4260005005460,令和４年９月１６日岡山県井原市高屋町２２２８番地天理教高屋分教会（4260005005460）に合併し解散,2015-10-05,1,,,,,テンリキョウチュウジョウブンキョウカイ,0
476,2260001011043,登記記録の閉鎖等,0,2022-10-03,2022-09-30,株式会社プリフォート,,株式会社,岡山県,岡山市北区,田町１丁目２番２４号,,33,101,7000825,,,2022-09-30,合併による解散等,6260002015766,令和４年９月３０日岡山市北区田町一丁目２番２４号株式会社プリフォート（6260002015766）に合併し解散,2015-10-05,1,,,,,プリフォート,0
477,2290001041698,登記記録の閉鎖等,0,2022-10-03,2022-09-26,株式会社フィッシング・ネット九州,,株式会社,福岡県,筑紫野市,原田３丁目２番地４,,40,217,8180024,,,2022-09-26,清算の結了等,,,2015-10-05,1,,,,,フィッシングネットキュウシュウ,0
505,2370202003761,登記記録の閉鎖等,0,2022-10-03,2022-09-21,有限会社テクノプラン,,有限会社,宮城県,加美郡加美町,宮崎字赤坂原９番地の２９,,04,445,9814401,,,2022-09-21,清算の結了等,,,2015-10-05,1,,,,,テクノプラン,0
508,2410002007553,登記記録の閉鎖等,0,2022-10-03,2022-09-29,有限会社鳥海クリーンセンター,,有限会社,秋田県,由利本荘市,鳥海町伏見字山添９７番地５,,05,210,0150501,,,2022-09-29,清算の結了等,,,2015-10-05,1,,,,,チョウカイクリーンセンター,0
521,3010001199010,登記記録の閉鎖等,0,2022-10-03,2022-09-26,株式会社ビースタイル,,株式会社,東京都,中央区,勝どき２丁目１８番１号,,13,102,1040054,,,2022-09-26,合併による解散等,4010001121253,令和４年９月２６日東京都中央区勝どき二丁目１８番１号株式会社インフォマージュ（4010001121253）に合併し解散,2019-03-07,1,,,,,ビースタイル,0
541,3010601055109,登記記録の閉鎖等,0,2022-10-03,2022-09-26,株式会社さくら,,株式会社,東京都,墨田区,江東橋２丁目９番５－２７０５号,,13,107,1300022,,,2022-09-26,清算の結了等,,,2019-02-28,1,,,,,サクラ,0
567,3011105000947,登記記録の閉鎖等,0,2022-10-03,2022-09-29,学校法人環境芸術学園,,その他の設立登記法人,東京都,新宿区,高田馬場１丁目２４番２２号,,13,104,1690075,,,2022-09-29,清算の結了等,,,2015-10-05,1,,,,,カンキョウゲイジュツガクエン,0
582,3012402005143,登記記録の閉鎖等,0,2022-10-03,2022-09-28,有限会社そばかす企画,,有限会社,東京都,小金井市,貫井南町５丁目１３番１０号,,13,210,1840014,,,2022-09-28,清算の結了等,,,2015-10-05,1,,,,,ソバカスキカク,0
593,3020001118530,登記記録の閉鎖等,0,2022-10-03,2022-09-26,株式会社ミラシエ,,株式会社,神奈川県,横浜市南区,日枝町４丁目９７番地２,,14,105,2320011,,,2022-09-26,清算の結了等,,,2016-11-07,1,,,,,ミラシエ,0
607,3021002055837,登記記録の閉鎖等,0,2022-10-03,2022-09-30,有限会社細川林業,,有限会社,神奈川県,足柄上郡山北町,中川２８１番地,,14,364,2580201,,,2022-09-30,清算の結了等,,,2015-10-05,1,,,,,ホソカワリンギョウ,0
610,3030001115015,登記記録の閉鎖等,0,2022-10-03,2022-09-16,株式会社ＴＭ,,株式会社,埼玉県,戸田市,下戸田１丁目２番２－１０３号,,11,224,3350011,,,2022-09-16,清算の結了等,,,2016-06-23,1,,,,,ティーエム,0
618,3030002078599,登記記録の閉鎖等,0,2022-10-03,2022-09-20,有限会社マコトエンジニアリング,,有限会社,埼玉県,川越市,大字石田本郷５５９番地６,,11,201,3500835,,,2022-09-20,清算の結了等,,,2015-10-05,1,,,,,マコトエンジニアリング,0
628,3050001030699,登記記録の閉鎖等,0,2022-10-03,2022-09-22,カワタオートボディー株式会社,,株式会社,茨城県,常総市,中妻町５３２番地２,,08,211,3002505,,,2022-09-22,清算の結了等,,,2015-10-05,1,,,,,カワタオートボディー,0
635,3080102004979,登記記録の閉鎖等,0,2022-10-03,2022-09-30,有限会社萩原電気,,有限会社,静岡県,沼津市,中原町６番７号,,22,203,4100818,,,2022-09-30,清算の結了等,,,2015-10-05,1,,,,,ハギワラデンキ,0
640,3100001029455,登記記録の閉鎖等,0,2022-10-03,2022-09-28,創和テック株式会社,,株式会社,長野県,伊那市,日影４１４番地１エターナルアイ２０１号,,20,209,3960009,,,2022-09-28,清算の結了等,,,2016-07-05,1,,,,,ソウワテック,0
645,3100002018259,登記記録の閉鎖等,0,2022-10-03,2022-09-28,有限会社マルヤマ化粧,,有限会社,長野県,中野市,中央４丁目２番５号,,20,211,3830022,,,2022-09-28,清算の結了等,,,2015-10-05,1,,,,,マルヤマケショウ,0
656,3120001029164,登記記録の閉鎖等,0,2022-10-03,2022-09-30,スエヒロミート株式会社,,株式会社,大阪府,大阪市港区,波除３丁目８番２０号,,27,107,5520001,,,2022-09-30,清算の結了等,,,2015-10-05,1,,,,,スエヒロミート,0
658,3120001031194,登記記録の閉鎖等,0,2022-10-03,2022-09-30,千代商事株式会社,,株式会社,大阪府,大阪市住之江区,浜口東１丁目１番１２２号,,27,125,5590002,,,2022-09-30,清算の結了等,,,2015-10-05,1,,,,,チヨショウジ,0
662,3120001099356,登記記録の閉鎖等,0,2022-10-03,2022-09-29,株式会社スキンテック,,株式会社,大阪府,大阪市福島区,野田４丁目５番９号,,27,103,5530005,,,2022-09-29,清算の結了等,,,2015-10-05,1,,,,,スキンテック,0
675,3120901034899,登記記録の閉鎖等,0,2022-10-03,2022-09-30,株式会社カネシチ,,株式会社,大阪府,茨木市,舟木町１２番１３－４０５号,,27,211,5670828,,,2022-09-30,清算の結了等,,,2015-10-05,1,,,,,,0
678,3120905005640,登記記録の閉鎖等,0,2022-10-03,2022-09-27,特定非営利活動法人教育支援協会大阪,,その他の設立登記法人,大阪府,池田市,菅原町３番１－９０４号,,27,204,5630055,,,2022-09-27,清算の結了等,,,2017-11-22,1,,,,,キョウイクシエンキョウカイオオサカ,0
708,3180003024034,登記記録の閉鎖等,0,2022-10-03,2022-09-28,合同会社東郷,,合同会社,愛知県,愛知郡東郷町,大字春木字中ノ杁８１１番１４,,23,302,4700162,,,2022-09-28,清算の結了等,,,2022-07-15,1,,,,,トウゴウ,0
710,3180005000454,登記記録の閉鎖等,0,2022-10-03,2022-09-16,天理教愛田分教会,,その他の設立登記法人,愛知県,名古屋市熱田区,花表町１４番２号,,23,109,4560033,,,2022-09-16,合併による解散等,4180005001311,令和４年９月１６日名古屋市瑞穂区中根町三丁目４８番地天理教尾陽分教会（4180005001311）に合併し解散,2015-10-05,1,,,,,テンリキョウアイデンブンキョウカイ,0
744,3290802012285,登記記録の閉鎖等,0,2022-10-03,2022-09-30,有限会社くすりや,,有限会社,福岡県,北九州市門司区,東門司１丁目１１番５号,,40,101,8010873,,,2022-09-30,清算の結了等,,,2015-10-05,1,,,,,クスリヤ,0
745,3290802014918,登記記録の閉鎖等,0,2022-10-03,2022-09-30,有限会社日本技建,,有限会社,福岡県,鞍手郡鞍手町,大字新延２３９３番地１,,40,402,8071305,,,2022-09-30,清算の結了等,,,2015-10-05,1,,,,,ニホンギケン,0
752,3320002002042,登記記録の閉鎖等,0,2022-10-03,2022-09-29,有限会社川元酒店,,有限会社,大分県,大分市,弁天３丁目１番３４号,,44,201,8700017,,,2022-09-29,清算の結了等,,,2015-10-05,1,,,,,,0
753,3320005001256,登記記録の閉鎖等,0,2022-10-03,2022-09-28,大分薬業協同組合,,その他の設立登記法人,大分県,大分市,金池南１丁目１５番３号,,44,201,8700839,,,2022-09-28,清算の結了等,,,2015-10-05,1,,,,,オオイタヤクギョウ,0
790,3460302001234,登記記録の閉鎖等,0,2022-10-03,2022-09-30,有限会社ファッションショップくさか,,有限会社,北海道,北見市,留辺蘂町仲町８６番地,,01,208,0910003,,,2022-09-30,清算の結了等,,,2015-10-05,1,,,,,ファッションショップクサカ,0
794,3500002003600,登記記録の閉鎖等,0,2022-10-03,2022-09-30,有限会社シルク電装,,有限会社,愛媛県,松山市,住吉２丁目５番５号,,38,201,7918062,,,2022-09-30,清算の結了等,,,2015-10-05,1,,,,,シルクデンソウ,0
795,4010001000845,登記記録の閉鎖等,0,2022-10-03,2022-09-26,岩波映像株式会社,,株式会社,東京都,文京区,小石川２丁目１番１３号,,13,105,1120002,,,2022-09-26,清算の結了等,,,2015-10-05,1,,,,,イワナミエイゾウ,0
804,4010001217010,登記記録の閉鎖等,0,2022-10-03,2022-09-26,一心建設株式会社,,株式会社,東京都,千代田区,神田駿河台２丁目１番３４号プラザお茶の水ビル５０２号室,,13,101,1010062,,,2022-09-26,清算の結了等,,,2021-04-02,1,,,,,イッシンケンセツ,0
827,4010602002694,登記記録の閉鎖等,0,2022-10-03,2022-09-26,有限会社スズケン,,有限会社,東京都,江東区,白河３丁目４番３－１４０６号,,13,108,1350021,,,2022-09-26,清算の結了等,,,2015-10-05,1,,,,,スズケン,0
834,4010801012404,登記記録の閉鎖等,0,2022-10-03,2022-09-26,横島電機産業株式会社,,株式会社,東京都,大田区,東雪谷２丁目２２番５号,,13,111,1450065,,,2022-09-26,清算の結了等,,,2015-10-05,1,,,,,ヨコジマデンキサンギョウ,0
838,4010802002420,登記記録の閉鎖等,0,2022-10-03,2022-09-27,有限会社エバラ精密,,有限会社,東京都,大田区,千鳥２丁目２６番１６号,,13,111,1460083,,,2022-09-27,清算の結了等,,,2015-10-05,1,,,,,エバラセイミツ,0
849,4011002031425,登記記録の閉鎖等,0,2022-10-03,2022-09-08,有限会社トピックコンサルティング,,有限会社,東京都,渋谷区,南平台町１３番４号,,13,113,1500036,,,2022-09-08,合併による解散等,9011002023566,令和４年９月１日東京都渋谷区南平台町１３番４号株式会社トピックメーカー（9011002023566）に合併し解散,2015-10-05,1,,,,,トピックコンサルティング,0
861,4011702000431,登記記録の閉鎖等,0,2022-10-03,2022-09-30,有限会社浅田,,有限会社,東京都,江戸川区,瑞江３丁目９番２号,,13,123,1320011,,,2022-09-30,清算の結了等,,,2015-10-05,1,,,,,アサダ,0
870,4012401008897,登記記録の閉鎖等,0,2022-10-03,2022-09-28,株式会社アスリート,,株式会社,東京都,狛江市,駒井町３丁目１４番７号,,13,219,2010016,,,2022-09-28,清算の結了等,,,2015-10-05,1,,,,,アスリート,0
875,4013202002338,登記記録の閉鎖等,0,2022-10-03,2022-09-28,有限会社ケイアンドユウ,,有限会社,東京都,品川区,上大崎２丁目２４番１－６１８号,,13,109,1410021,,,2022-09-28,清算の結了等,,,2015-10-05,1,,,,,ケイアンドユウ,0
891,4021001009000,登記記録の閉鎖等,0,2022-10-03,2022-09-26,株式会社ヒワハーブ,,株式会社,東京都,大田区,大森北１丁目１９番２０号パークレジデンス大森９０３,,13,111,1430016,,,2022-09-26,清算の結了等,,,2015-10-05,1,,,,,ヒワハーブ,0
906,4030002032662,登記記録の閉鎖等,0,2022-10-03,2022-09-20,有限会社多田工務店,,有限会社,埼玉県,所沢市,西狭山ケ丘２丁目１９７８番地の５,,11,208,3591163,,,2022-09-20,清算の結了等,,,2015-10-05,1,,,,,タダコウムテン,0
911,4040001087046,登記記録の閉鎖等,0,2022-10-03,2022-09-22,株式会社楽燕,,株式会社,千葉県,柏市,豊四季２２６番地３,,12,217,2770863,,,2022-09-22,清算の結了等,,,2015-10-05,1,,,,,,0
924,4060002022413,登記記録の閉鎖等,0,2022-10-03,2022-09-28,有限会社高田索道,,有限会社,栃木県,那須塩原市,百村３５２５番地,,09,213,3250115,,,2022-09-28,清算の結了等,,,2015-10-05,1,,,,,,0
989,4140002003520,登記記録の閉鎖等,0,2022-10-03,2022-09-28,有限会社灘メディカル・サービス,00040476,有限会社,兵庫県,神戸市灘区,楠丘町５丁目４番３号,,28,102,6570024,,,2022-09-28,清算の結了等,,,2015-10-05,1,,,,,ナダメディカルサービス,0
991,4140005004020,登記記録の閉鎖等,0,2022-10-03,2022-09-16,特定非営利活動法人花と緑のＮＰＯ,,その他の設立登記法人,兵庫県,芦屋市,東山町２６番２２号,,28,206,6590091,,,2022-09-16,清算の結了等,,,2015-10-05,1,,,,,ハナトミドリノエヌピーオー,0
997,4180001094499,登記記録の閉鎖等,0,2022-10-03,2022-09-28,株式会社早川工業所,,株式会社,愛知県,東海市,名和町五番割１５番地の５,,23,222,4760002,,,2022-09-28,清算の結了等,,,2015-10-05,1,,,,,ハヤカワコウギョウショ,0
1021,4200005004385,登記記録の閉鎖等,0,2022-10-03,2022-09-30,神道大教水都神社,,その他の設立登記法人,岐阜県,大垣市,大池町８番地の１,,21,202,5030863,,,2022-09-30,清算の結了等,,,2015-10-05,1,,,,,,0
1025,4240001003338,登記記録の閉鎖等,0,2022-10-03,2022-09-30,株式会社合同会計経営事務所,,株式会社,広島県,広島市中区,八丁堀６番１１号,,34,101,7300013,,,2022-09-30,清算の結了等,,,2015-10-05,1,,,,,ゴウドウカイケイケイエイジムショ,0
1031,4260002018416,登記記録の閉鎖等,0,2022-10-03,2022-09-30,有限会社佐々木工業,,有限会社,岡山県,都窪郡早島町,若宮１４番地の２７,,33,423,7010302,,,2022-09-30,清算の結了等,,,2015-10-05,1,,,,,ササキコウギョウ,0
1033,4280001007095,登記記録の閉鎖等,0,2022-10-03,2022-09-30,ケアメディオ株式会社,,株式会社,島根県,雲南市,木次町下熊谷１１９７番地１,,32,209,6991333,,,2022-09-30,合併による解散等,1280001006091,令和４年９月３０日島根県雲南市木次町下熊谷１１９７番地１メディオ企画株式会社（1280001006091）に合併し解散,2015-11-19,1,,,,,ケアメディオ,0
1052,4320002003361,登記記録の閉鎖等,0,2022-10-03,2022-09-30,有限会社シティーエクステリア,,有限会社,大分県,大分市,新川西１丁目７番２０号,,44,201,8700015,,,2022-09-30,清算の結了等,,,2015-10-05,1,,,,,シティーエクステリア,0
1058,4340001011462,登記記録の閉鎖等,0,2022-10-03,2022-09-30,株式会社エポックファーム,,株式会社,鹿児島県,いちき串木野市,冠嶽１４３４６番地５,,46,219,8960051,,,2022-09-30,清算の結了等,,,2015-10-05,1,,,,,エポックファーム,0
1073,4370601002544,登記記録の閉鎖等,0,2022-10-03,2022-09-15,株式会社光陽,,株式会社,宮城県,多賀城市,浮島字西沢３２番地の１,,04,209,9850861,,,2022-09-15,清算の結了等,,,2015-10-05,1,,,,,,0
1099,5010001041599,登記記録の閉鎖等,0,2022-10-03,2022-09-30,株式会社キャスト,,株式会社,東京都,台東区,根岸３丁目５番７号大場ビル２０１号,,13,106,1100003,,,2022-09-30,清算の結了等,,,2015-10-05,1,,,,,キャスト,0
1100,5010001051350,登記記録の閉鎖等,0,2022-10-03,2022-09-26,東映フーズ株式会社,,株式会社,東京都,中央区,銀座３丁目２番１７号,,13,102,1040061,,,2022-09-26,清算の結了等,,,2015-10-05,1,,,,,トウエイフーズ,0
1106,5010001213669,登記記録の閉鎖等,0,2022-10-03,2022-09-26,株式会社シンカ,,株式会社,東京都,千代田区,神田佐久間町１丁目８番４号ニュー千代田ビル３階,,13,101,1010025,,,2022-09-26,清算の結了等,,,2020-11-13,1,,,,,シンカ,0
1131,5010802008111,登記記録の閉鎖等,0,2022-10-03,2022-09-27,有限会社セフテック,,有限会社,東京都,大田区,平和島６丁目１番１号東京流通センタービル５３０号室,,13,111,1430006,,,2022-09-27,清算の結了等,,,2015-10-05,1,,,,,セフテック,0
1150,5011005002802,登記記録の閉鎖等,0,2022-10-03,2022-09-28,一般財団法人嘉納治五郎記念国際スポーツ研究・交流センター,,その他の設立登記法人,東京都,新宿区,霞ヶ丘町４番２号,,13,104,1600013,,,2022-09-28,清算の結了等,,,2015-10-05,1,,,,,カノウジゴロウキネンコクサイスポーツケンキュウコウリュウセンター,0
1161,5011601015447,登記記録の閉鎖等,0,2022-10-03,2022-09-26,彩の国明徳産業株式会社,,株式会社,東京都,練馬区,大泉学園町１丁目３３番５号,,13,120,1780061,,,2022-09-26,清算の結了等,,,2015-10-05,1,,,,,サイノクニメイトクサンギョウ,0
1164,5011702003846,登記記録の閉鎖等,0,2022-10-03,2022-09-29,有限会社恵成工業,,有限会社,東京都,江戸川区,上一色３丁目１１番１１号,,13,123,1330041,,,2022-09-29,清算の結了等,,,2015-10-05,1,,,,,ケイセイコウギョウ,0
1166,5011801020197,登記記録の閉鎖等,0,2022-10-03,2022-09-28,株式会社エヌ・ワイ,,株式会社,東京都,葛飾区,白鳥３丁目１５番１９－２０２号レクシオお花茶屋,,13,122,1250063,,,2022-09-28,清算の結了等,,,2015-10-05,1,,,,,エヌワイ,0
1181,5020001099926,登記記録の閉鎖等,0,2022-10-03,2022-09-28,かのこ環境プロデュース株式会社,,株式会社,神奈川県,三浦市,南下浦町金田３２７番地,,14,210,2380103,,,2022-09-28,清算の結了等,,,2015-10-05,1,,,,,カノコカンキョウプロデュース,0
1191,5021002030441,登記記録の閉鎖等,0,2022-10-03,2022-09-28,有限会社青木住建,,有限会社,神奈川県,厚木市,宮の里１丁目７番１号,,14,212,2430216,,,2022-09-28,清算の結了等,,,2015-10-05,1,,,,,アオキジュウケン,0
1197,5030002006500,登記記録の閉鎖等,0,2022-10-03,2022-09-20,島エンジニアリング有限会社,,有限会社,埼玉県,さいたま市浦和区,常盤７丁目８番１０号,,11,107,3300061,,,2022-09-20,清算の結了等,,,2015-10-05,1,,,,,シマエンジニアリング,0
1220,5060001024319,登記記録の閉鎖等,0,2022-10-03,2022-09-28,斎藤運輸株式会社,,株式会社,栃木県,矢板市,荒井６１５番地６８７,,09,211,3292121,,,2022-09-28,清算の結了等,,,2015-10-05,1,,,,,サイトウウンユ,0
1238,5080101004400,登記記録の閉鎖等,0,2022-10-03,2022-09-29,武蔵金線株式会社,,株式会社,静岡県,駿東郡小山町,吉久保１３６番地の１,,22,344,4101322,,,2022-09-29,清算の結了等,,,2015-10-05,1,,,,,ムサシキンセン,0
1255,5120001192670,登記記録の閉鎖等,0,2022-10-03,2022-09-29,株式会社Ｕ＆カンパニー,,株式会社,大阪府,大阪市北区,西天満４丁目４番１８－５０７号,,27,127,5300047,,,2022-09-29,清算の結了等,,,2015-10-05,1,,,,,ユーアンドカンパニー,0
1261,5120002022348,登記記録の閉鎖等,0,2022-10-03,2022-09-26,株式会社タック・インターナショナル,,株式会社,兵庫県,三田市,あかしあ台５丁目３番地９,,28,219,6691323,,,2022-09-26,清算の結了等,,,2015-10-05,1,,,,,タックインターナショナル,0
1280,5130002029788,登記記録の閉鎖等,0,2022-10-03,2022-09-15,有限会社山城大福園,,有限会社,京都府,木津川市,加茂町里小田１番地１,,26,214,6191152,,,2022-09-15,清算の結了等,,,2015-10-05,1,,,,,ヤマシロダイフクエン,0
1282,5130005008665,登記記録の閉鎖等,0,2022-10-03,2022-09-22,木津川エネルギー協同組合,,その他の設立登記法人,京都府,木津川市,山城町上狛南荒堀１９番地,,26,214,6190204,,,2022-09-22,清算の結了等,,,2015-10-05,1,,,,,キヅガワエネルギー,0
1294,5180001000349,登記記録の閉鎖等,0,2022-10-03,2022-09-27,クレストライフ株式会社,,株式会社,愛知県,名古屋市守山区,大谷町１番３７号,,23,113,4630041,,,2022-09-27,清算の結了等,,,2015-10-05,1,,,,,クレストライフ,0
1300,5180001146885,登記記録の閉鎖等,0,2022-10-03,2022-09-29,株式会社大旺,,株式会社,愛知県,名古屋市中区,栄３丁目１８番１号ナディアパークビジネスセンタービル１２Ｆ,,23,106,4600008,,,2022-09-29,清算の結了等,,,2021-07-05,1,,,,,ダイオウ,0
1320,5250002018515,登記記録の閉鎖等,0,2022-10-03,2022-09-28,有限会社福井保温工業,,有限会社,山口県,岩国市,平田３丁目３１番８号,,35,208,7410072,,,2022-09-28,清算の結了等,,,2015-10-05,1,,,,,フクイホオンコウギョウ,0
1342,5300001009385,登記記録の閉鎖等,0,2022-10-03,2022-09-26,株式会社川口工務店,,株式会社,佐賀県,佐賀市,大財３丁目１番９号,,41,201,8400811,,,2022-09-26,清算の結了等,,,2015-10-05,1,,,,,カワグチコウムテン,0
1344,5300002005986,登記記録の閉鎖等,0,2022-10-03,2022-09-27,有限会社田中蒲鉾店,,有限会社,佐賀県,武雄市,武雄町大字武雄５６３９番地２,,41,206,8430022,,,2022-09-27,清算の結了等,,,2015-10-05,1,,,,,タナカカマボコテン,0
1346,5330001023796,登記記録の閉鎖等,0,2022-10-03,2022-09-27,ＡＩ加工株式会社,,株式会社,福岡県,大牟田市,四山町８０番地２３,,40,202,8360067,,,2022-09-27,清算の結了等,,,2017-03-07,1,,,,,エーアイカコウ,0
1350,5340005000849,登記記録の閉鎖等,0,2022-10-03,2022-09-30,ＫＳＭ協同組合,,その他の設立登記法人,鹿児島県,鹿児島市,錦江町１番７号,,46,201,8920836,,,2022-09-30,清算の結了等,,,2015-10-05,1,,,,,ケイエスエム,0
1351,5360001005998,登記記録の閉鎖等,0,2022-10-03,2022-09-27,株式会社アイ・ビー・エヌ沖縄,,株式会社,沖縄県,中頭郡北谷町,字港１５番５８号,,47,326,9040114,,,2022-09-27,合併による解散等,7010401095177,令和４年８月２２日東京都港区南青山五丁目１２番６号株式会社インター・ビジネス・ネットワークス（7010401095177）に合併し解散,2015-10-05,1,,,,,,0
1364,5440002004396,登記記録の閉鎖等,0,2022-10-03,2022-09-28,有限会社丸木木下鉄工所,,有限会社,北海道,函館市,桔梗町４０６番地の２７,,01,202,0410801,,,2022-09-28,清算の結了等,,,2015-10-05,1,,,,,マルキキノシタテッコウショ,0
1366,5470001017090,登記記録の閉鎖等,0,2022-10-03,2022-09-22,ＦＲＥＥ　ＳＰＩＲＩＴ株式会社,,株式会社,京都府,京都市東山区,三条通白川橋東入４丁目中之町２０３番地５０２,,26,105,6050034,,,2022-09-22,清算の結了等,,,2018-10-01,1,,,,,フリースピリット,0
1370,5500005003653,登記記録の閉鎖等,0,2022-10-03,2022-09-30,税理士法人オレンジ,,その他の設立登記法人,愛媛県,八幡浜市,１１０７番地１,,38,204,7960088,,,2022-09-30,清算の結了等,,,2015-10-05,1,,,,,オレンジ,0
1387,6010401119944,登記記録の閉鎖等,0,2022-10-03,2022-09-09,株式会社ｉｍｐｒｅｓｓ,,株式会社,東京都,港区,北青山３丁目１２番１３号２Ｆ,,13,103,1070061,,,2022-09-09,清算の結了等,,,2015-10-05,1,,,,,,0
1401,6010601058975,登記記録の閉鎖等,0,2022-10-03,2022-09-26,Ｂｕｓｉｎｅｓｓ　Ｓｅｒｖｉｃｅｓ　ａｎｄ　Ｔｅｃｈｎｏｌｏｇｉｅｓ株式会社,,株式会社,東京都,墨田区,堤通１丁目１９番８－２８０４号,,13,107,1310034,,,2022-09-26,清算の結了等,,,2021-03-19,1,,,,,ビジネスサービシズアンドテクノロジーズ,0
1435,6011103010978,登記記録の閉鎖等,0,2022-10-03,2022-09-29,合同会社ＲＡＺＡ,,合同会社,東京都,新宿区,下落合４丁目２０－１８－４０１,,13,104,1610033,,,2022-09-29,清算の結了等,,,2021-09-01,1,,,,,ラザ,0
1454,6013201014191,登記記録の閉鎖等,0,2022-10-03,2022-09-16,株式会社アミティエコーポレーション,,株式会社,東京都,目黒区,祐天寺１丁目２１番６号,,13,110,1530052,,,2022-09-16,清算の結了等,,,2015-10-05,1,,,,,アミティエコーポレーション,0
1459,6020001002260,登記記録の閉鎖等,0,2022-10-03,2022-09-16,株式会社鳶正,,株式会社,神奈川県,横浜市都筑区,川和町２３３０番地２,,14,118,2240057,,,2022-09-16,清算の結了等,,,2015-10-05,1,,,,,トビショウ,0
1466,6021001070454,登記記録の閉鎖等,0,2022-10-03,2022-09-28,株式会社ｕｎｄｏｎｅ,,株式会社,神奈川県,藤沢市,辻堂神台２丁目２番１号アイクロス湘南６階Ｄ号室,,14,205,2510041,,,2022-09-28,清算の結了等,,,2020-07-30,1,,,,,アンダーン,0
1479,6030001112397,登記記録の閉鎖等,0,2022-10-03,2022-09-20,株式会社全日建設,,株式会社,埼玉県,三郷市,三郷１丁目２９番地１,,11,237,3410024,,,2022-09-20,清算の結了等,,,2016-01-21,1,,,,,,0
1480,6030001132536,登記記録の閉鎖等,0,2022-10-03,2022-09-21,株式会社ｇｏｇｏｍａｘ,,株式会社,埼玉県,さいたま市大宮区,東町２丁目５１番アーバン東町１０１,,11,103,3300841,,,2022-09-21,清算の結了等,,,2019-08-20,1,,,,,ゴーゴーマックス,0
1502,6050001048409,登記記録の閉鎖等,0,2022-10-03,2022-09-26,株式会社Ｆｕｔｕｒｅ　ｔｉｍｅ,,株式会社,茨城県,ひたちなか市,大字金上６５１番地１ハートヒルズＢ棟,,08,221,3120022,,,2022-09-26,清算の結了等,,,2020-12-02,1,,,,,フューチャータイム,0
1515,6080001019720,登記記録の閉鎖等,0,2022-10-03,2022-09-30,株式会社まつうら不動産,,株式会社,静岡県,島田市,向谷３丁目９２３番地の１,,22,209,4270039,,,2022-09-30,清算の結了等,,,2015-10-05,1,,,,,マツウラフドウサン,0
1563,6130001040101,登記記録の閉鎖等,0,2022-10-03,2022-09-26,株式会社ホーマートレーディングカンパニー,,株式会社,京都府,京都市山科区,西野今屋敷町６７番地,,26,110,6078341,,,2022-09-26,清算の結了等,,,2015-10-05,1,,,,,ホーマートレーディングカンパニー,0
1576,6140001045446,登記記録の閉鎖等,0,2022-10-03,2022-09-27,株式会社加古川環境サービス,,株式会社,兵庫県,加古川市,別府町新野辺１５２５番地２,,28,210,6750131,,,2022-09-27,清算の結了等,,,2015-10-05,1,,,,,カコガワカンキョウサービス,0
1614,6240001055971,登記記録の閉鎖等,0,2022-10-03,2022-09-30,オレンジテック・ジャパン株式会社,,株式会社,広島県,広島市西区,東観音町３番２２号田中ビル４階,,34,104,7330032,,,2022-09-30,清算の結了等,,,2020-04-10,1,,,,,オレンジテックジャパン,0
1622,6250002015783,登記記録の閉鎖等,0,2022-10-03,2022-09-28,有限会社為國不動産,,有限会社,山口県,下松市,潮音町４丁目４番２６号,,35,207,7440074,,,2022-09-28,清算の結了等,,,2015-10-05,1,,,,,タメクニフドウサン,0
1651,6370802000915,登記記録の閉鎖等,0,2022-10-03,2022-09-26,サンエイ薬局有限会社,,有限会社,宮城県,岩沼市,中央１丁目４番１３号,,04,211,9892432,,,2022-09-26,清算の結了等,,,2015-10-05,1,,,,,サンエイヤッキョク,0
1661,6400002011965,登記記録の閉鎖等,0,2022-10-03,2022-09-29,有限会社エス・エス・ティー,,有限会社,岩手県,釜石市,大字平田第２地割１４番地１,,03,211,0260001,,,2022-09-29,清算の結了等,,,2015-10-05,1,,,,,エスエスティー,0
1665,6430001048295,登記記録の閉鎖等,0,2022-10-03,2022-09-27,株式会社斎藤鉄工所,,株式会社,北海道,滝川市,幸町３丁目４番３０号,,01,225,0730043,,,2022-09-27,清算の結了等,,,2022-08-18,1,,,,,,0
1675,7010001046712,登記記録の閉鎖等,0,2022-10-03,2022-09-26,株式会社ジー・アール,,株式会社,東京都,中央区,八丁堀１丁目３番２号,,13,102,1040032,,,2022-09-26,清算の結了等,,,2015-10-05,1,,,,,ジーアール,0
1706,7010701026030,登記記録の閉鎖等,0,2022-10-03,2022-09-28,株式会社ティーシーエム,,株式会社,東京都,品川区,大崎１丁目２番４号,,13,109,1410032,,,2022-09-28,清算の結了等,,,2015-10-05,1,,,,,ティーシーエム,0
1763,7040002035876,登記記録の閉鎖等,0,2022-10-03,2022-09-21,有限会社乃ざき,,有限会社,千葉県,市川市,本北方２丁目２９番３号,,12,203,2720816,,,2022-09-21,清算の結了等,,,2015-10-05,1,,,,,ノザキ,0
1764,7040002076086,登記記録の閉鎖等,0,2022-10-03,2022-09-26,有限会社イグゼ,,有限会社,千葉県,市原市,古市場５６９番地１７,,12,219,2900008,,,2022-09-26,清算の結了等,,,2015-10-05,1,,,,,イグゼ,0
1775,7080101000331,登記記録の閉鎖等,0,2022-10-03,2022-09-30,大橋土地株式会社,,株式会社,静岡県,沼津市,添地町１２０番地,,22,203,4100803,,,2022-09-30,清算の結了等,,,2015-10-05,1,,,,,オオハシトチ,0
1776,7080101006287,登記記録の閉鎖等,0,2022-10-03,2022-09-28,みしま街づくり株式会社,,株式会社,静岡県,三島市,本町７番３０号,,22,206,4110855,,,2022-09-28,清算の結了等,,,2015-10-05,1,,,,,ミシママチヅクリ,0
1785,7110002034714,登記記録の閉鎖等,0,2022-10-03,2022-09-27,有限会社仲川電機商会,,有限会社,新潟県,佐渡市,吉井２番地,,15,224,9521203,,,2022-09-27,清算の結了等,,,2015-10-05,1,,,,,ナカガワデンキショウカイ,0
1802,7120002005276,登記記録の閉鎖等,0,2022-10-03,2022-09-30,有限会社奥村工務店,,有限会社,大阪府,大阪市東住吉区,駒川４丁目１０番１８号,,27,121,5460043,,,2022-09-30,清算の結了等,,,2015-10-05,1,,,,,オクムラコウムテン,0
1825,7130005000876,登記記録の閉鎖等,0,2022-10-03,2022-09-08,天理教羅生分教会,,その他の設立登記法人,京都府,京都市南区,西九条大国町２６番地,,26,107,6018449,,,2022-09-08,合併による解散等,4130005000664,令和４年９月８日京都市左京区丸太町通川端東入東丸太町１番地の１天理教河原町大教会（4130005000664）に合併し解散,2015-10-05,1,,,,,テンリキョウラショウブンキョウカイ,0
1832,7140001104283,登記記録の閉鎖等,0,2022-10-03,2022-09-28,ＳＵＮ不動産販売株式会社,,株式会社,兵庫県,神戸市灘区,浜田町３丁目５番８号アーバンヴィレッジ六甲南２０２号,,28,102,6570862,,,2022-09-28,清算の結了等,,,2016-12-08,1,,,,,,0
1837,7160002008655,登記記録の閉鎖等,0,2022-10-03,2022-09-30,有限会社村川商会,,有限会社,滋賀県,愛知郡愛荘町,目加田８９９番地の２,,25,425,5291235,,,2022-09-30,清算の結了等,,,2015-10-05,1,,,,,ムラカワショウカイ,0
1859,7240001000877,登記記録の閉鎖等,0,2022-10-03,2022-09-30,いづみ運輸株式会社,,株式会社,広島県,広島市安芸区,中野１丁目７番１号,,34,107,7390321,,,2022-09-30,清算の結了等,,,2015-10-05,1,,,,,イヅミウンユ,0
1861,7240002015981,登記記録の閉鎖等,0,2022-10-03,2022-09-30,有限会社アズマシステム,,有限会社,広島県,広島市中区,八丁堀６番１１号グレイスビル６０５号,,34,101,7300013,,,2022-09-30,清算の結了等,,,2015-10-05,1,,,,,アズマシステム,0
1865,7260001032794,登記記録の閉鎖等,0,2022-10-03,2022-09-30,株式会社ＮＳＳ,,株式会社,岡山県,岡山市中区,倉田１９７番地１,,33,102,7038265,,,2022-09-30,清算の結了等,,,2019-01-21,1,,,,,エヌエスエス,0
1866,7260003002077,登記記録の閉鎖等,0,2022-10-03,2022-09-30,合同会社高田商店,00107875,合同会社,岡山県,岡山市中区,平井１１０９－１６,,33,102,7038282,,,2022-09-30,清算の結了等,,,2016-09-21,1,,,,,タカタショウテン,0
1877,7290801025722,登記記録の閉鎖等,0,2022-10-03,2022-09-30,宇辰産業株式会社,,株式会社,福岡県,北九州市小倉北区,田町１９番２２－１０２号,,40,106,8030817,,,2022-09-30,清算の結了等,,,2019-07-18,1,,,,,ウタツサンギョウ,0
1889,7360001011219,登記記録の閉鎖等,0,2022-10-03,2022-09-22,株式会社ニューパシフィック,,株式会社,沖縄県,浦添市,内間２丁目１３番１７号,,47,208,9012121,,,2022-09-22,清算の結了等,,,2015-10-05,1,,,,,ニューパシフィック,0
1921,8010001025599,登記記録の閉鎖等,0,2022-10-03,2022-09-29,日龍商事株式会社,,株式会社,東京都,江戸川区,平井７丁目１７番１１－３０３号,,13,123,1320035,,,2022-09-29,清算の結了等,,,2015-10-05,1,,,,,ヒタツショウジ,0
1922,8010001087235,登記記録の閉鎖等,0,2022-10-03,2022-09-26,株式会社ＬＡＮＯＳテクノロジー,,株式会社,東京都,千代田区,九段南３丁目８番１３号,,13,101,1020074,,,2022-09-26,清算の結了等,,,2015-10-05,1,,,,,ラノステクノロジー,0
1949,8010403020479,登記記録の閉鎖等,0,2022-10-03,2022-09-26,広島福山バイオマス発電合同会社,,合同会社,東京都,中央区,日本橋１丁目４番１号,,13,102,1030027,,,2022-09-26,清算の結了等,,,2019-04-03,1,,,,,ヒロシマフクヤマバイオマスハツデン,0
1957,8010701019933,登記記録の閉鎖等,0,2022-10-03,2022-09-26,株式会社ＩＢＣ,,株式会社,東京都,大田区,大森北１丁目１番５号,,13,111,1430016,,,2022-09-26,清算の結了等,,,2015-10-05,1,,,,,アイビーシ,0
1993,8020001122560,登記記録の閉鎖等,0,2022-10-03,2022-09-26,株式会社シェルリオ,,株式会社,神奈川県,横浜市保土ケ谷区,常盤台４８番１６号,,14,106,2400067,,,2022-09-26,清算の結了等,,,2017-08-16,1,,,,,シェルリオ,0
2025,8050001034142,登記記録の閉鎖等,0,2022-10-03,2022-09-22,株式会社高橋商店,00022426,株式会社,茨城県,神栖市,柳川２８３５番地,,08,232,3140252,,,2022-09-22,清算の結了等,,,2015-10-05,1,,,,,タカハシ,0
2028,8050005011914,登記記録の閉鎖等,0,2022-10-03,2022-09-22,先端素材高速開発技術研究組合,,その他の設立登記法人,茨城県,つくば市,東１丁目１－１,,08,220,3050046,,,2022-09-22,清算の結了等,,,2016-07-19,1,,,,,センタンソザイコウソクカイハツ,0
2034,8080005007364,登記記録の閉鎖等,0,2022-10-03,2022-09-27,一般社団法人なごみ互助協会,,その他の設立登記法人,静岡県,静岡市葵区,伝馬町９－１５リベルテ平野２階Ｂ,,22,101,4200858,,,2022-09-27,清算の結了等,,,2021-04-15,1,,,,,ナゴミゴジョキョウカイ,0
2042,8110002013642,登記記録の閉鎖等,0,2022-10-03,2022-09-15,有限会社熊倉,,有限会社,新潟県,五泉市,吉沢１丁目９番８号,,15,218,9591824,,,2022-09-15,清算の結了等,,,2015-10-05,1,,,,,クマクラ,0
2052,8120001114003,登記記録の閉鎖等,0,2022-10-03,2022-09-29,陽明化成株式会社,,株式会社,大阪府,大阪市天王寺区,上之宮町３番３０号,,27,109,5430037,,,2022-09-29,清算の結了等,,,2015-10-05,1,,,,,ヨウメイカセイ,0
2056,8120001234040,登記記録の閉鎖等,0,2022-10-03,2022-09-22,株式会社ライフアイディア,,株式会社,大阪府,大阪市東成区,深江北１丁目１４番１８－５０４号,,27,115,5370001,,,2022-09-22,清算の結了等,,,2020-12-22,1,,,,,ライフアイディア,0
2069,8122001001379,登記記録の閉鎖等,0,2022-10-03,2022-09-29,嘉久報工業株式会社,,株式会社,大阪府,東大阪市,新町１２番４５号,,27,227,5798037,,,2022-09-29,清算の結了等,,,2015-10-05,1,,,,,カクホウコウギョウ,0
2070,8122001026616,登記記録の閉鎖等,0,2022-10-03,2022-09-29,サムフィルトレーションコンサルタント株式会社,,株式会社,大阪府,八尾市,小阪合町１丁目３番３６号,,27,212,5810012,,,2022-09-29,清算の結了等,,,2015-10-05,1,,,,,サムフィルトレーションコンサルタント,0
2081,8140001068404,登記記録の閉鎖等,0,2022-10-03,2022-09-26,株式会社川畑工作所,,株式会社,兵庫県,西宮市,芦原町６番１１号,,28,204,6620842,,,2022-09-26,清算の結了等,,,2015-10-05,1,,,,,カワバタコウサクショ,0
2092,8180001023990,登記記録の閉鎖等,0,2022-10-03,2022-09-27,株式会社東名装飾,,株式会社,愛知県,名古屋市天白区,焼山１丁目５０４番地,,23,116,4680002,,,2022-09-27,清算の結了等,,,2015-10-05,1,,,,,トウメイソウショク,0
2109,8190005008203,登記記録の閉鎖等,0,2022-10-03,2022-09-16,天理教甲東員分教会,,その他の設立登記法人,三重県,員弁郡東員町,大字大木２７５７番地１,,24,324,5110244,,,2022-09-16,合併による解散等,1160005002751,令和４年９月１６日滋賀県甲賀市水口町貴生川３３０番地天理教甲賀大教会（1160005002751）に合併し解散,2015-10-05,1,,,,,テンリキョウコウトウインブンキョウカイ,0
2112,8220001010217,登記記録の閉鎖等,0,2022-10-03,2022-09-28,株式会社西川住建,,株式会社,石川県,金沢市,鞁筒町ニ６番地１０,,17,201,9200161,,,2022-09-28,清算の結了等,,,2015-10-05,1,,,,,ニシカワジュウケン,0
2121,8240001007054,登記記録の閉鎖等,0,2022-10-03,2022-09-30,土田工業株式会社,,株式会社,広島県,広島市中区,東千田町１丁目１番３１号,,34,101,7300053,,,2022-09-30,清算の結了等,,,2015-10-05,1,,,,,ツチダコウギョウ,0
2134,8280005006404,登記記録の閉鎖等,0,2022-10-03,2022-09-30,木次カード協同組合,,その他の設立登記法人,島根県,雲南市,木次町里方５５番地,,32,209,6991311,,,2022-09-30,清算の結了等,,,2015-10-05,1,,,,,キスキカード,0
2144,8300003000356,登記記録の閉鎖等,0,2022-10-03,2022-09-27,合名会社お茶の青露園,,合名会社,佐賀県,嬉野市,嬉野町大字下宿乙８８８番地,,41,209,8430301,,,2022-09-27,清算の結了等,,,2015-10-05,1,,,,,オチャノセイロエン,0
2155,8370602001013,登記記録の閉鎖等,0,2022-10-03,2022-09-20,有限会社鈴木保険事務所,,有限会社,宮城県,宮城郡七ヶ浜町,汐見台３丁目３番地の３９,,04,404,9850821,,,2022-09-20,清算の結了等,,,2015-10-05,1,,,,,スズキホケンジムショ,0
2162,8400001008399,登記記録の閉鎖等,0,2022-10-03,2022-09-29,プレス・キャスト株式会社,,株式会社,岩手県,盛岡市,本宮４丁目２２番１号,,03,201,0200866,,,2022-09-29,清算の結了等,,,2015-10-05,1,,,,,プレスキャスト,0
2167,8430001019229,登記記録の閉鎖等,0,2022-10-03,2022-09-20,株式会社三晋,,株式会社,北海道,札幌市中央区,南四条東４丁目１番地,,01,101,0600054,,,2022-09-20,清算の結了等,,,2015-10-05,1,,,,,サンシン,0
2189,9010002012463,登記記録の閉鎖等,0,2022-10-03,2022-09-27,有限会社テイ・エム・シイ,,有限会社,東京都,千代田区,内幸町１丁目１番１号,,13,101,1000011,,,2022-09-27,清算の結了等,,,2015-10-05,1,,,,,テイエムシイ,0
2221,9010705001060,登記記録の閉鎖等,0,2022-10-03,2022-09-27,特定非営利活動法人エコタウンしながわ,,その他の設立登記法人,東京都,品川区,八潮５丁目９番１１号,,13,109,1400003,,,2022-09-27,清算の結了等,,,2015-10-05,1,,,,,エコタウンシナガワ,0
2225,9010802015624,登記記録の閉鎖等,0,2022-10-03,2022-09-28,有限会社リメイン,,有限会社,東京都,大田区,西蒲田７丁目６８番１号,,13,111,1440051,,,2022-09-28,清算の結了等,,,2015-10-05,1,,,,,,0
2231,9011001132590,登記記録の閉鎖等,0,2022-10-03,2022-09-28,株式会社インバイトミー,,株式会社,東京都,渋谷区,道玄坂１丁目１２番１号渋谷マークシティウエスト２２Ｆ,,13,113,1500043,,,2022-09-28,清算の結了等,,,2020-03-10,1,,,,,,0
2236,9011003007840,登記記録の閉鎖等,0,2022-10-03,2022-09-30,合同会社新生,,合同会社,東京都,台東区,上野６丁目１番６号御徒町グリーンハイツ１００５号,,13,106,1100005,,,2022-09-30,清算の結了等,,,2017-07-11,1,,,,,シンセイ,0
2257,9012302002086,登記記録の閉鎖等,0,2022-10-03,2022-09-26,有限会社メイショウ,,有限会社,東京都,町田市,成瀬が丘１丁目２３番地１９,,13,209,1940011,,,2022-09-26,清算の結了等,,,2015-10-05,1,,,,,メイショウ,0
2270,9020002055874,登記記録の閉鎖等,0,2022-10-03,2022-09-26,有限会社ダブルフューチャー,,有限会社,神奈川県,横浜市港北区,大豆戸町５３８番地,,14,109,2220032,,,2022-09-26,清算の結了等,,,2015-10-05,1,,,,,ダブルフューチャー,0
2277,9021002055534,登記記録の閉鎖等,0,2022-10-03,2022-09-29,有限会社吉田電設,,有限会社,神奈川県,足柄上郡大井町,金手１１１４番地,,14,362,2580018,,,2022-09-29,清算の結了等,,,2015-10-05,1,,,,,ヨシダデンセツ,0
2278,9030001033847,登記記録の閉鎖等,0,2022-10-03,2022-09-21,株式会社ＡＰコーポレーション,,株式会社,埼玉県,羽生市,東８丁目１５番地１７,,11,216,3480052,,,2022-09-21,清算の結了等,,,2015-10-05,1,,,,,エーピーコーポレーション,0
2283,9030003001430,登記記録の閉鎖等,0,2022-10-03,2022-09-21,合同会社モリノイズコントロールオフィス,,合同会社,埼玉県,所沢市,北野南３丁目３番地１１,,11,208,3591156,,,2022-09-21,清算の結了等,,,2015-10-05,1,,,,,モリノイズコントロールオフィス,0
2295,9040002099011,登記記録の閉鎖等,0,2022-10-03,2022-09-21,共栄木材工業有限会社,,有限会社,千葉県,野田市,三ツ堀３５３番地,,12,208,2780011,,,2022-09-21,清算の結了等,,,2015-10-05,1,,,,,キョウエイモクザイコウギョウ,0
2298,9050002013540,登記記録の閉鎖等,0,2022-10-03,2022-09-20,有限会社スマートブレイン,,有限会社,埼玉県,さいたま市北区,植竹町１丁目３６２番地８－３０６号,,11,102,3310813,,,2022-09-20,清算の結了等,,,2015-10-05,1,,,,,スマートブレイン,0
2301,9070002001213,登記記録の閉鎖等,0,2022-10-03,2022-09-28,有限会社小野里商店,,有限会社,群馬県,前橋市,鼻毛石町６３８番地３,,10,201,3710244,,,2022-09-28,清算の結了等,,,2015-10-05,1,,,,,オノザトショウテン,0
2308,9110005003012,登記記録の閉鎖等,0,2022-10-03,2022-09-29,特定非営利活動法人セラピーネットワーク振興協会,,その他の設立登記法人,新潟県,長岡市,沢田１丁目１番地２,,15,202,9401101,,,2022-09-29,清算の結了等,,,2015-10-05,1,,,,,セラピーネットワークシンコウキョウカイ,0
2337,9120101029686,登記記録の閉鎖等,0,2022-10-03,2022-09-30,株式会社遊休スペースマネージメント,,株式会社,大阪府,堺市東区,大美野１６７番地７,,27,143,5998126,,,2022-09-30,清算の結了等,,,2015-10-05,1,,,,,ユウキュウスペースマネージメント,0
2342,9122001008638,登記記録の閉鎖等,0,2022-10-03,2022-09-29,日本光電用品株式会社,,株式会社,大阪府,東大阪市,横枕西７番２７号,,27,227,5780956,,,2022-09-29,清算の結了等,,,2015-10-05,1,,,,,,0
2369,9140002046688,登記記録の閉鎖等,0,2022-10-03,2022-09-26,有限会社トラフィック,,有限会社,兵庫県,豊岡市,高屋１０８８番地の１２,,28,209,6680064,,,2022-09-26,清算の結了等,,,2015-10-05,1,,,,,トラフィック,0
2380,9170005001027,登記記録の閉鎖等,0,2022-10-03,2022-09-30,医療法人岡内科医院,,その他の設立登記法人,和歌山県,和歌山市,駕町４８番地,,30,201,6408293,,,2022-09-30,清算の結了等,,,2015-10-05,1,,,,,オカナイカイイン,0
2391,9180002013981,登記記録の閉鎖等,0,2022-10-03,2022-09-27,有限会社しらとりでんき,,有限会社,愛知県,名古屋市南区,観音町９丁目２０番地,,23,112,4570845,,,2022-09-27,清算の結了等,,,2015-10-05,1,,,,,シラトリデンキ,0
2395,9180302001868,登記記録の閉鎖等,0,2022-10-03,2022-09-16,有限会社大樹,,有限会社,愛知県,岡崎市,本宿町字下トコサフ１番地１８４,,23,202,4443505,,,2022-09-16,清算の結了等,,,2015-10-05,1,,,,,ダイジュウ,0
2401,9220002001734,登記記録の閉鎖等,0,2022-10-03,2022-09-29,有限会社オフィスごおいんぐ,,有限会社,石川県,金沢市,示野中町１丁目１６５番地,,17,201,9200058,,,2022-09-29,清算の結了等,,,2015-10-05,1,,,,,オフィスゴオイング,0
2402,9230001010999,登記記録の閉鎖等,0,2022-10-03,2022-09-29,株式会社マルチ．アクセス．カンパニー,,株式会社,富山県,高岡市,伏木錦町４番１号,,16,202,9330105,,,2022-09-29,清算の結了等,,,2015-10-05,1,,,,,マルチアクセスカンパニー,0
2405,9240001060151,登記記録の閉鎖等,0,2022-10-03,2022-09-30,坂本染工株式会社,,株式会社,広島県,福山市,神辺町大字川南２３１番地,,34,207,7202124,,,2022-09-30,清算の結了等,,,2022-08-09,1,,,,,サカモトセンコウソメコウ,0
2409,9240003004214,登記記録の閉鎖等,0,2022-10-03,2022-09-30,ＴＨＲＥＥ　０　ＭＩＳＳＩＯＮ合同会社,,合同会社,広島県,広島市西区,古江新町６－４,,34,104,7330873,,,2022-09-30,清算の結了等,,,2019-04-24,1,,,,,スリーゼロミッション,0
2420,9290002008608,登記記録の閉鎖等,0,2022-10-03,2022-09-26,有限会社西日本テクノサービス,,有限会社,福岡県,福岡市早良区,次郎丸３丁目２７番１１号,,40,137,8140165,,,2022-09-26,清算の結了等,,,2015-10-05,1,,,,,ニシニホンテクノサービス,0
2425,9290802000251,登記記録の閉鎖等,0,2022-10-03,2022-09-28,有限会社アール工房,,有限会社,福岡県,北九州市小倉北区,上富野４丁目５番５号,,40,106,8020022,,,2022-09-28,清算の結了等,,,2015-10-05,1,,,,,アールコウボウ,0
2436,9340005002957,登記記録の閉鎖等,0,2022-10-03,2022-09-30,医療法人壽慶会,,その他の設立登記法人,鹿児島県,姶良市,宮島町５４番地６,,46,225,8995432,,,2022-09-30,清算の結了等,,,2015-10-05,1,,,,,ジュケイカイ,0
2438,9360001027254,登記記録の閉鎖等,0,2022-10-03,2022-09-09,株式会社ｏｃｅａｎｓ１１,,株式会社,沖縄県,宮古島市,城辺字友利４９９番地,,47,214,9060107,,,2022-09-09,合併による解散等,9360001029366,令和４年９月１日沖縄県宮古島市平良西仲宗根２－５株式会社ＷＥＳＴ　ＦＩＥＬＤ　ｏｃｅａｎｓ１１（9360001029366）に合併し解散,2020-05-29,1,,,,,オーシャンズイレブン,0
2452,9400002004867,登記記録の閉鎖等,0,2022-10-03,2022-09-29,有限会社加賀野地所,,有限会社,岩手県,盛岡市,加賀野４丁目６番５０号,,03,201,0200807,,,2022-09-29,清算の結了等,,,2015-10-05,1,,,,,カガノジショ,0
