sequenceNumber,corporateNumber,process,correct,updateDate,changeDate,name,nameImageId,kind,prefectureName,cityName,streetNumber,addressImageId,prefectureCode,cityCode,postCode,addressOutside,addressOutsideImageId,closeDate,closeCause,successorCorporateNumber,changeCause,assignmentDate,latest,enName,enPrefectureName,enCityName,enAddressOutside,furigana,hihyoji
21,1010401098895,登記記録の閉鎖等,0,2022-01-07,2021-12-27,株式会社エー・ディー・アイ・シー,,株式会社,東京都,港区,虎ノ門３丁目１８番１２－５０２号株式会社虎ノ門会計神谷町分室内,,13,103,1050001,,,2021-12-27,清算の結了等,,,2015-10-05,1,,,,,エーディーアイシー,0
54,1011501012291,登記記録の閉鎖等,0,2022-01-07,2021-12-28,エムテップゴルフクリエイト株式会社,,株式会社,東京都,北区,中里２丁目２１番１１号,,13,117,1140015,,,2021-12-28,清算の結了等,,,2015-10-05,1,,,,,エムテップゴルフクリエイト,0
64,1012702005836,登記記録の閉鎖等,0,2022-01-07,2022-01-04,有限会社アトリエ・サボ,,有限会社,東京都,西東京市,緑町３丁目６番２号,,13,229,1880002,,,2022-01-04,清算の結了等,,,2015-10-05,1,,,,,アトリエサボ,0
94,1030002022732,登記記録の閉鎖等,0,2022-01-07,2022-01-04,有限会社順杏堂,,有限会社,埼玉県,蓮田市,大字黒浜４７７０番地,,11,238,3490101,,,2022-01-04,合併による解散等,2030001041625,令和４年１月１日埼玉県上尾市本町五丁目１３番２７号株式会社鈴木薬局（2030001041625）に合併し解散,2015-10-05,1,,,,,ジュンキョウドウ,0
99,1030002073544,登記記録の閉鎖等,0,2022-01-07,2022-01-04,有限会社三豊設備工業,,有限会社,埼玉県,川越市,大字寺尾７１８番地,,11,201,3501141,,,2022-01-04,清算の結了等,,,2015-10-05,1,,,,,サンホウセツビコウギョウ,0
113,1070001029551,登記記録の閉鎖等,0,2022-01-07,2022-01-04,サンデン・オートモーティブクライメイトシステム株式会社,,株式会社,群馬県,伊勢崎市,寿町２０番地,,10,204,3720052,,,2022-01-04,合併による解散等,5070001013386,令和４年１月１日群馬県伊勢崎市寿町２０番地サンデン株式会社（5070001013386）に合併し解散,2015-10-05,1,,,,,サンデンオートモーティブクライメイトシステム,0
119,1080401004616,登記記録の閉鎖等,0,2022-01-07,2021-12-28,株式会社フジスタジオ,,株式会社,静岡県,浜松市中区,砂山町３２３番地の８,,22,131,4300926,,,2021-12-28,清算の結了等,,,2015-10-05,1,,,,,フジスタジオ,0
149,1130001053504,登記記録の閉鎖等,0,2022-01-07,2021-12-17,株式会社レミック,,株式会社,京都府,長岡京市,梅が丘１丁目１０６番地,,26,209,6170841,,,2021-12-17,清算の結了等,,,2015-10-05,1,,,,,レミック,0
168,1180002077480,登記記録の閉鎖等,0,2022-01-07,2022-01-04,有限会社ホクト精工,,有限会社,愛知県,一宮市,時之島字西切野６５番地,,23,203,4910002,,,2022-01-04,清算の結了等,,,2015-10-05,1,,,,,ホクトセイコウ,0
184,1230001018802,登記記録の閉鎖等,0,2022-01-07,2021-12-28,株式会社ＤＤＥ２１,,株式会社,富山県,魚津市,木下新１２番地２８,,16,204,9370011,,,2021-12-28,清算の結了等,,,2021-04-28,1,,,,,,0
195,1260001018097,登記記録の閉鎖等,0,2022-01-07,2022-01-05,株式会社タナカ,,株式会社,岡山県,小田郡矢掛町,東三成２４０２番地,,33,461,7141211,,,2022-01-05,清算の結了等,,,2015-10-05,1,,,,,タナカ,0
197,1260003001885,登記記録の閉鎖等,0,2022-01-07,2021-12-28,エスアイキューブ合同会社,,合同会社,岡山県,倉敷市,浦田２５０９番地６,,33,202,7100843,,,2021-12-28,清算の結了等,,,2015-11-26,1,,,,,エスアイキューブ,0
203,1290002038273,登記記録の閉鎖等,0,2022-01-07,2022-01-04,有限会社エイム・プランニング,,有限会社,福岡県,糟屋郡志免町,志免中央２丁目２番３７号,,40,343,8112244,,,2022-01-04,合併による解散等,5290001039145,令和３年１２月３１日福岡県糟屋郡志免町志免中央二丁目２番３７号株式会社エイムアロー（5290001039145）に合併し解散,2015-10-05,1,,,,,エイムプランニング,0
219,1370002003954,登記記録の閉鎖等,0,2022-01-07,2022-01-05,有限会社南仙台都市開発,,有限会社,宮城県,仙台市太白区,中田７丁目１２番１号,,04,104,9811104,,,2022-01-05,清算の結了等,,,2015-10-05,1,,,,,ミナミセンダイトシカイハツ,0
232,1430001023360,登記記録の閉鎖等,0,2022-01-07,2022-01-04,株式会社丸太池田商店,,株式会社,北海道,札幌市中央区,大通西１７丁目１番地,,01,101,0600042,,,2022-01-04,合併による解散等,2430001017139,令和４年１月１日札幌市中央区北十条西十九丁目３５の２６株式会社安岡（2430001017139）に合併し解散,2015-10-05,1,,,,,マルタイケダショウテン,0
238,1430002054264,登記記録の閉鎖等,0,2022-01-07,2022-01-04,有限会社クスリのオグラ,,有限会社,北海道,小樽市,奥沢３丁目２６番１号,,01,203,0470013,,,2022-01-04,清算の結了等,,,2015-10-05,1,,,,,クスリノオグラ,0
267,2010001050784,登記記録の閉鎖等,0,2022-01-07,2022-01-04,株式会社電通マネジメントサービス,,株式会社,東京都,港区,浜松町２丁目２番１２号,,13,103,1050013,,,2022-01-04,合併による解散等,3010401161197,令和４年１月１日東京都港区東新橋一丁目８番１号株式会社電通コーポレートワン（3010401161197）に合併し解散,2015-10-05,1,,,,,デンツウマネジメントサービス,0
270,2010001139041,登記記録の閉鎖等,0,2022-01-07,2021-12-28,株式会社コアパーソン研究所,,株式会社,東京都,国立市,東１丁目１４番２２号,,13,215,1860002,,,2021-12-28,清算の結了等,,,2015-10-05,1,,,,,コアパーソンケンキュウジョ,0
301,2010502005650,登記記録の閉鎖等,0,2022-01-07,2022-01-04,有限会社寿楽,,有限会社,東京都,台東区,清川１丁目３５番１号,,13,106,1110022,,,2022-01-04,合併による解散等,3010502009634,令和４年１月１日東京都台東区清川一丁目３５番１号株式会社福田屋（3010502009634）に合併し解散,2015-10-05,1,,,,,ジュラク,0
302,2010502009643,登記記録の閉鎖等,0,2022-01-07,2022-01-04,有限会社福和商事,,有限会社,東京都,台東区,清川１丁目３５番１号,,13,106,1110022,,,2022-01-04,合併による解散等,3010502009634,令和４年１月１日東京都台東区清川一丁目３５番１号株式会社福田屋（3010502009634）に合併し解散,2015-10-05,1,,,,,フクワショウジ,0
303,2010503003678,登記記録の閉鎖等,0,2022-01-07,2021-12-28,合同会社チャレンジきょういくアソシエイツ,,合同会社,静岡県,静岡市清水区,入江３丁目７番２５号,,22,103,4240831,,,2021-12-28,合併による解散等,5080001020588,令和３年１２月２８日静岡市清水区入江三丁目１０番２１号近藤ホールディングス株式会社（5080001020588）に合併し解散,2015-10-05,1,,,,,チャレンジキョウイクアソシエイツ,0
323,2011101046813,登記記録の閉鎖等,0,2022-01-07,2021-12-27,株式会社エムティコーポレーション,,株式会社,東京都,新宿区,下落合４丁目７番２号,,13,104,1610033,,,2021-12-27,清算の結了等,,,2015-10-05,1,,,,,エムティコーポレーション,0
442,2120102018496,登記記録の閉鎖等,0,2022-01-07,2021-12-28,有限会社あかね,,有限会社,大阪府,藤井寺市,春日丘１丁目２番３号,,27,226,5830026,,,2021-12-28,清算の結了等,,,2015-10-05,1,,,,,アカネ,0
452,2130001049823,登記記録の閉鎖等,0,2022-01-07,2021-12-28,株式会社砂漠人参研究会,,株式会社,京都府,京都市左京区,一乗寺谷田町２番地,,26,103,6068153,,,2021-12-28,清算の結了等,,,2015-10-05,1,,,,,サバクニンジンケンキュウカイ,0
461,2140003008388,登記記録の閉鎖等,0,2022-01-07,2021-12-28,ＡＭ合同会社,,合同会社,兵庫県,伊丹市,南鈴原２丁目２０５番地,,28,207,6640883,,,2021-12-28,清算の結了等,,,2015-10-05,1,,,,,エイエム,0
468,2160001015178,登記記録の閉鎖等,0,2022-01-07,2022-01-04,株式会社アネックス,,株式会社,滋賀県,守山市,洲本町１１７７番地,,25,207,5240103,,,2022-01-04,合併による解散等,4160001015374,令和４年１月１日滋賀県守山市洲本町１１７７番地株式会社寺田自動車（4160001015374）に合併し解散,2015-10-05,1,,,,,アネックス,0
479,2180002077083,登記記録の閉鎖等,0,2022-01-07,2021-12-28,有限会社ドルチェ・ヴィータ,,有限会社,愛知県,一宮市,栄１丁目１１番３号,,23,203,4910858,,,2021-12-28,清算の結了等,,,2015-10-05,1,,,,,ドルチェヴィータ,0
482,2180301031641,登記記録の閉鎖等,0,2022-01-07,2021-12-28,株式会社ファイン,,株式会社,愛知県,安城市,小川町山田５６番地,,23,212,4441162,,,2021-12-28,清算の結了等,,,2018-06-29,1,,,,,ファイン,0
492,2210002002756,登記記録の閉鎖等,0,2022-01-07,2021-12-27,有限会社野中塗装,,有限会社,福井県,福井市,山内町第１５号３４番地,,18,201,9103636,,,2021-12-27,清算の結了等,,,2015-10-05,1,,,,,ノナカトソウ,0
512,2250005005752,登記記録の閉鎖等,0,2022-01-07,2022-01-04,医療法人社団昌恵会藤原皮膚科医院,,その他の設立登記法人,山口県,光市,浅江２丁目５番１号,,35,210,7430021,,,2022-01-04,清算の結了等,,,2015-10-05,1,,,,,ショウケイカイフジワラヒフカイイン,0
540,2350001005432,登記記録の閉鎖等,0,2022-01-07,2022-01-05,株式会社　嵐坊,,株式会社,宮崎県,宮崎市,大島町原ノ前１４４５番地１７２,,45,201,8800824,,,2022-01-05,清算の結了等,,,2015-10-05,1,,,,,,0
549,2370201000446,登記記録の閉鎖等,0,2022-01-07,2022-01-04,松山タクシー株式会社,,株式会社,宮城県,大崎市,松山千石字松山３１３番地３,,04,215,9871304,,,2022-01-04,清算の結了等,,,2015-10-05,1,,,,,マツヤマタクシー,0
551,2370202001055,登記記録の閉鎖等,0,2022-01-07,2021-12-23,有限会社豊和,,有限会社,宮城県,大崎市,三本木新沼字中谷地９８番地,,04,215,9896315,,,2021-12-23,清算の結了等,,,2015-10-05,1,,,,,,0
562,2400005002338,登記記録の閉鎖等,0,2022-01-07,2022-01-05,学校法人わかば学園,,その他の設立登記法人,岩手県,岩手郡雫石町,麻見田１８番の２,,03,301,0200531,,,2022-01-05,清算の結了等,,,2015-10-05,1,,,,,ワカバガクエン,0
563,2410001008528,登記記録の閉鎖等,0,2022-01-07,2021-12-28,田口木材株式会社,,株式会社,秋田県,仙北市,田沢湖生保内字男坂５番地,,05,215,0141201,,,2021-12-28,清算の結了等,,,2015-10-05,1,,,,,タグチモクザイ,0
576,2470001017432,登記記録の閉鎖等,0,2022-01-07,2022-01-04,香川トヨペット株式会社,,株式会社,香川県,高松市,香西南町５７７番地２,,37,201,7618014,,,2022-01-04,合併による解散等,3470001017431,令和４年１月１日香川県高松市番町二丁目５番１４号香川トヨタ自動車株式会社（3470001017431）に合併し解散,2019-05-14,1,,,,,カガワトヨペット,0
578,2500002022089,登記記録の閉鎖等,0,2022-01-07,2022-01-05,有限会社愛媛新聞エリアサービス伊予土居,,有限会社,愛媛県,四国中央市,土居町中村１２８５番地の１,,38,213,7990701,,,2022-01-05,清算の結了等,,,2015-10-05,1,,,,,エヒメシンブンエリアサービスイヨドイ,0
598,3010003030949,登記記録の閉鎖等,0,2022-01-07,2021-12-28,代々木４丁目プロジェクト合同会社,,合同会社,東京都,千代田区,丸の内２丁目３番２号,,13,101,1000005,,,2021-12-28,清算の結了等,,,2019-10-30,1,,,,,ヨヨギヨンチョウメ,0
607,3010401130887,登記記録の閉鎖等,0,2022-01-07,2021-12-28,株式会社プラウ,,株式会社,神奈川県,川崎市麻生区,片平２丁目６番３０号バースシティー柿生ヒルズ３１５号室,,14,137,2150023,,,2021-12-28,清算の結了等,,,2017-04-20,1,,,,,プラウ,0
612,3010403010591,登記記録の閉鎖等,0,2022-01-07,2022-01-06,合同会社ハチゴー,,合同会社,東京都,台東区,上野６丁目１番６号御徒町グリーンハイツ１００５号,,13,106,1100005,,,2022-01-06,清算の結了等,,,2015-10-05,1,,,,,ハチゴー,0
616,3010403020954,登記記録の閉鎖等,0,2022-01-07,2021-12-28,岩本町２丁目プロジェクト合同会社,,合同会社,東京都,千代田区,丸の内２丁目３番２号,,13,101,1000005,,,2021-12-28,清算の結了等,,,2019-06-26,1,,,,,イワモトチョウニチョウメ,0
635,3010902011933,登記記録の閉鎖等,0,2022-01-07,2021-12-28,有限会社長谷川造園,,有限会社,東京都,世田谷区,桜上水１丁目１７番８号,,13,112,1560045,,,2021-12-28,清算の結了等,,,2015-10-05,1,,,,,ハセガワゾウエン,0
661,3013302016107,登記記録の閉鎖等,0,2022-01-07,2021-12-28,有限会社産友,,有限会社,東京都,豊島区,駒込１丁目３６番２号,,13,116,1700003,,,2021-12-28,清算の結了等,,,2015-10-05,1,,,,,サンユウ,0
670,3020001133868,登記記録の閉鎖等,0,2022-01-07,2021-12-28,株式会社ＶＯＩＣＥ,,株式会社,神奈川県,横浜市西区,平沼１丁目１９番１８号トップルーム横浜ＮＯ１－４０４号室,,14,103,2200023,,,2021-12-28,清算の結了等,,,2019-12-02,1,,,,,ボイス,0
681,3020003013333,登記記録の閉鎖等,0,2022-01-07,2022-01-04,合同会社ばってん,,合同会社,神奈川県,横浜市鶴見区,鶴見中央１丁目９－１８,,14,101,2300051,,,2022-01-04,清算の結了等,,,2017-09-27,1,,,,,バッテン,0
702,3030002054889,登記記録の閉鎖等,0,2022-01-07,2022-01-04,有限会社堀川工務店,,有限会社,埼玉県,上尾市,向山２丁目１９番地７,,11,219,3620045,,,2022-01-04,清算の結了等,,,2015-10-05,1,,,,,ホリカワコウムテン,0
717,3070001004560,登記記録の閉鎖等,0,2022-01-07,2022-01-04,サンデン・ビジネスアソシエイト株式会社,,株式会社,群馬県,伊勢崎市,寿町２０番地,,10,204,3720052,,,2022-01-04,合併による解散等,5070001013386,令和４年１月１日群馬県伊勢崎市寿町２０番地サンデン株式会社（5070001013386）に合併し解散,2015-10-05,1,,,,,サンデンビジネスアソシエイト,0
725,3080102004095,登記記録の閉鎖等,0,2022-01-07,2022-01-06,有限会社アサヒ住設,,有限会社,静岡県,裾野市,今里７３６番地,,22,220,4101104,,,2022-01-06,清算の結了等,,,2015-10-05,1,,,,,アサヒジョウウセツ,0
726,3080102015596,登記記録の閉鎖等,0,2022-01-07,2022-01-06,富士産業技術研究開発有限会社,,有限会社,静岡県,富士市,横割４丁目８番２０号,,22,210,4160944,,,2022-01-06,清算の結了等,,,2015-10-05,1,,,,,フジサンギョウギジュツケンキュウカイハツ,0
740,3110001004250,登記記録の閉鎖等,0,2022-01-07,2022-01-04,日本海ハウス工業株式会社,,株式会社,新潟県,新潟市中央区,米山２番１４号,,15,103,9500916,,,2022-01-04,合併による解散等,2110001004251,令和４年１月１日新潟市中央区米山２番１４号日本海不動産株式会社（2110001004251）に合併し解散,2015-10-05,1,,,,,ニホンカイハウスコウギョウ,0
763,3120005019087,登記記録の閉鎖等,0,2022-01-07,2022-01-05,一般社団法人さくら児童支援センター,,その他の設立登記法人,大阪府,大阪市天王寺区,上本町８丁目７番８号,,27,109,5430001,,,2022-01-05,清算の結了等,,,2016-11-28,1,,,,,サクラジドウシエンセンター,0
764,3120101023769,登記記録の閉鎖等,0,2022-01-07,2021-12-28,株式会社ワークラボ,,株式会社,大阪府,堺市堺区,大町西３丁１番１５－４０１号,,27,141,5900959,,,2021-12-28,清算の結了等,,,2015-10-05,1,,,,,ワークラボ,0
769,3120901019082,登記記録の閉鎖等,0,2022-01-07,2022-01-04,株式会社エムツウシステム,,株式会社,大阪府,高槻市,大塚町２丁目６０番１９号,,27,207,5690034,,,2022-01-04,清算の結了等,,,2015-10-05,1,,,,,,0
771,3120901026946,登記記録の閉鎖等,0,2022-01-07,2022-01-04,株式会社リングス,,株式会社,大阪府,吹田市,豊津町４１番１３号,,27,205,5640051,,,2022-01-04,清算の結了等,,,2015-10-05,1,,,,,リングス,0
799,3180001090656,登記記録の閉鎖等,0,2022-01-07,2022-01-04,株式会社Ｆｏｒｅｓｔ　Ｈｏｍｅ,,株式会社,愛知県,名古屋市中川区,山王１丁目４番１３号,,23,110,4540011,,,2022-01-04,清算の結了等,,,2015-10-05,1,,,,,フォレストホーム,0
805,3180002009317,登記記録の閉鎖等,0,2022-01-07,2022-01-04,有限会社大津大学薬局,,有限会社,愛知県,名古屋市瑞穂区,瑞穂通３丁目３４番地,,23,108,4670806,,,2022-01-04,清算の結了等,,,2015-10-05,1,,,,,オオツダイガクヤッキョク,0
806,3180002031337,登記記録の閉鎖等,0,2022-01-07,2021-12-28,有限会社寿し銀,,有限会社,愛知県,名古屋市中区,栄１丁目６番７号,,23,106,4600008,,,2021-12-28,清算の結了等,,,2015-10-05,1,,,,,スシギン,0
811,3180301015478,登記記録の閉鎖等,0,2022-01-07,2022-01-05,株式会社フタバヤ,,株式会社,愛知県,碧南市,天王町２丁目４９番地,,23,209,4470855,,,2022-01-05,清算の結了等,,,2015-10-05,1,,,,,フタバヤ,0
839,3280001007071,登記記録の閉鎖等,0,2022-01-07,2022-01-06,株式会社赤屋食品,,株式会社,島根県,安来市,伯太町安田中３１５番地６,,32,206,6920205,,,2022-01-06,清算の結了等,,,2015-10-23,1,,,,,アカヤショクヒン,0
853,3290005012389,登記記録の閉鎖等,0,2022-01-07,2021-12-21,協同組合大商協,,その他の設立登記法人,福岡県,大牟田市,本町４丁目１０番地の１,,40,202,8360046,,,2021-12-21,清算の結了等,,,2015-10-05,1,,,,,ダイショウキョウ,0
889,3380002006343,登記記録の閉鎖等,0,2022-01-07,2021-12-28,有限会社ニューセンチュリー,,有限会社,福島県,伊達市,保原町字元町７番地の１,,07,213,9600605,,,2021-12-28,清算の結了等,,,2015-10-05,1,,,,,ニューセンチュリー,0
901,3430002064765,登記記録の閉鎖等,0,2022-01-07,2021-12-28,有限会社藤丸ストアー,,有限会社,北海道,室蘭市,高砂町１丁目５１番２２号,,01,205,0500072,,,2021-12-28,清算の結了等,,,2015-10-05,1,,,,,フジマルストアー,0
908,3460103001367,登記記録の閉鎖等,0,2022-01-07,2022-01-04,合同会社ハセ,,合同会社,北海道,中川郡幕別町,札内新北町７３番地７,,01,643,0890533,,,2022-01-04,合併による解散等,8460101004870,令和４年１月１日北海道帯広市西十一条南十八丁目１番地株式会社タカ（8460101004870）に合併し解散,2021-05-07,1,,,,,ハセ,0
915,3500002017047,登記記録の閉鎖等,0,2022-01-07,2022-01-05,有限会社ビッグ・ウエスト,,有限会社,愛媛県,新居浜市,東田１丁目甲７４１番地の１,,38,205,7920852,,,2022-01-05,清算の結了等,,,2015-10-05,1,,,,,ビッグウエスト,0
923,4010001189159,登記記録の閉鎖等,0,2022-01-07,2022-01-04,株式会社ペンリード,,株式会社,東京都,中央区,日本橋本町１丁目７番４号,,13,102,1030023,,,2022-01-04,清算の結了等,,,2018-01-25,1,,,,,ペンリード,0
948,4010501031695,登記記録の閉鎖等,0,2022-01-07,2022-01-04,株式会社ワールドパール,,株式会社,東京都,台東区,東上野３丁目５番９号,,13,106,1100015,,,2022-01-04,清算の結了等,,,2015-10-05,1,,,,,ワールドパール,0
976,4012402022708,登記記録の閉鎖等,0,2022-01-07,2021-12-28,株式会社御堂小路園,,株式会社,静岡県,沼津市,高沢町１０番８号,,22,203,4100057,,,2021-12-28,清算の結了等,,,2015-10-05,1,,,,,ミドウコウジエン,0
982,4013301015827,登記記録の閉鎖等,0,2022-01-07,2021-11-10,株式会社ウェブテクノロジ,,株式会社,東京都,渋谷区,渋谷１丁目７番７号,,13,113,1500002,,,2021-11-10,合併による解散等,6011001062642,令和３年１０月１日東京都渋谷区桜丘町２０番１号株式会社ＣＲＩ・ミドルウェア（6011001062642）に合併し、解散,2015-10-05,1,,,,,ウェブテクノロジ,0
1000,4021001001840,登記記録の閉鎖等,0,2022-01-07,2022-01-04,株式会社平間建設,,株式会社,神奈川県,藤沢市,亀井野２２１２番地,,14,205,2520813,,,2022-01-04,清算の結了等,,,2015-10-05,1,,,,,ヒラマケンセツ,0
1010,4030001105808,登記記録の閉鎖等,0,2022-01-07,2022-01-04,株式会社フルチャージ,,株式会社,埼玉県,所沢市,並木７丁目１番地６－２０４,,11,208,3590042,,,2022-01-04,清算の結了等,,,2015-10-05,1,,,,,フルチャージ,0
1013,4030001136687,登記記録の閉鎖等,0,2022-01-07,2022-01-04,株式会社ＰＡＩＬＬＡＲＤ,,株式会社,埼玉県,飯能市,大字川崎３６６番地２,,11,209,3570011,,,2022-01-04,清算の結了等,,,2020-06-02,1,,,,,パイヤール,0
1014,4030001137933,登記記録の閉鎖等,0,2022-01-07,2022-01-04,株式会社エルネスト,,株式会社,埼玉県,戸田市,新曽南２丁目１３－２５,,11,224,3350026,,,2022-01-04,清算の結了等,,,2020-08-24,1,,,,,エルネスト,0
1028,4040005005202,登記記録の閉鎖等,0,2022-01-07,2021-12-13,天理教実吉分教会,00021428,その他の設立登記法人,千葉県,松戸市,稔台３丁目８番地の６,,12,207,2702231,,,2021-12-13,合併による解散等,6011805000475,令和３年１２月７日東京都葛飾区立石六丁目３５番１２号天理教實東分教会（6011805000475）に合併し解散,2015-10-05,1,,,,,,0
1033,4070001006960,登記記録の閉鎖等,0,2022-01-07,2022-01-04,株式会社サァン・クリエイシヨン,,株式会社,群馬県,高崎市,倉賀野町２０１４番地,,10,202,3701201,,,2022-01-04,清算の結了等,,,2015-10-05,1,,,,,サァンクリエイション,0
1051,4110001024768,登記記録の閉鎖等,0,2022-01-07,2022-01-04,ニシカワワープ株式会社,,株式会社,新潟県,長岡市,栃尾宮沢１４９７番地,,15,202,9400233,,,2022-01-04,清算の結了等,,,2015-10-05,1,,,,,ニシカワワープ,0
1078,4140001024212,登記記録の閉鎖等,0,2022-01-07,2021-12-28,株式会社トルチェジョーヌ,,株式会社,兵庫県,神戸市中央区,熊内町４丁目１２番４－１０３号,,28,110,6510056,,,2021-12-28,清算の結了等,,,2015-10-05,1,,,,,トルチェジョーヌ,0
1097,4180001131962,登記記録の閉鎖等,0,2022-01-07,2022-01-04,株式会社サンクス,,株式会社,愛知県,名古屋市千種区,富士見台１丁目２５番地,,23,101,4640015,,,2022-01-04,清算の結了等,,,2018-04-17,1,,,,,サンクス,0
1138,4290001042884,登記記録の閉鎖等,0,2022-01-07,2022-01-04,株式会社夢匠,,株式会社,福岡県,福岡市博多区,昭南町１丁目５番７－４０２号,,40,132,8120876,,,2022-01-04,清算の結了等,,,2015-10-05,1,,,,,ユメショウ,0
1140,4290001082947,登記記録の閉鎖等,0,2022-01-07,2022-01-05,株式会社ＴＢ　Ｐｌａｎｎｅｒ,,株式会社,福岡県,福岡市中央区,天神２丁目３番３６号ｉｂｂ　ｆｕｋｕｏｋａ５Ｆ,,40,133,8100001,,,2022-01-05,清算の結了等,,,2018-10-05,1,,,,,ティービープランナー,0
1163,4370001043321,登記記録の閉鎖等,0,2022-01-07,2022-01-04,株式会社幸興業,,株式会社,宮城県,大崎市,古川宮内字下供輪堂２番地,,04,215,9896127,,,2022-01-04,清算の結了等,,,2018-07-17,1,,,,,ユキコウギョウ,0
1174,4390001010220,登記記録の閉鎖等,0,2022-01-07,2022-01-04,米沢共立ビル株式会社,,株式会社,山形県,米沢市,門東町３丁目３番１号,,06,202,9920039,,,2022-01-04,清算の結了等,,,2015-10-05,1,,,,,ヨネザワキョウリツビル,0
1178,4430001006544,登記記録の閉鎖等,0,2022-01-07,2021-12-28,株式会社栄ハウジング,,株式会社,北海道,札幌市北区,北二十五条西１５丁目８番８号,,01,102,0010025,,,2021-12-28,清算の結了等,,,2015-10-05,1,,,,,サカエハウジング,0
1184,4430003005189,登記記録の閉鎖等,0,2022-01-07,2022-01-04,合同会社Ｂｏｂ＆Ｄｏｎ,,合同会社,北海道,札幌市厚別区,厚別南１丁目８番１１－７０３号,,01,108,0040022,,,2022-01-04,清算の結了等,,,2015-10-05,1,,,,,ボブアンドダン,0
1186,4440001004836,登記記録の閉鎖等,0,2022-01-07,2022-01-06,研株式会社,,株式会社,北海道,函館市,西桔梗町８２０番地の２,,01,202,0410824,,,2022-01-06,清算の結了等,,,2015-10-05,1,,,,,ケン,0
1188,4470001014205,登記記録の閉鎖等,0,2022-01-07,2022-01-04,株式会社アリス・インターナショナル,,株式会社,香川県,坂出市,川津町２１００番地１,,37,203,7620025,,,2022-01-04,合併による解散等,6470002014821,令和４年１月１日香川県坂出市川津町２１００番地１株式会社城山ケアセンター（6470002014821）に合併し解散,2015-10-05,1,,,,,アリスインターナショナル,0
1220,5010101009983,登記記録の閉鎖等,0,2022-01-07,2022-01-05,株式会社パッション,,株式会社,東京都,八王子市,別所１丁目４１番地１、５－１０８,,13,201,1920363,,,2022-01-05,清算の結了等,,,2015-10-05,1,,,,,パッション,0
1234,5010403018609,登記記録の閉鎖等,0,2022-01-07,2021-12-17,ジェネシスマイニングジャパン合同会社,,合同会社,東京都,渋谷区,桜丘町２６番１号セルリアンタワー１５階,,13,113,1500031,,,2021-12-17,清算の結了等,,,2018-05-15,1,,,,,ジェネシスマイニングジャパン,0
1239,5010405011875,登記記録の閉鎖等,0,2022-01-07,2021-12-27,一般社団法人エスエイチ１号,,その他の設立登記法人,東京都,港区,元赤坂１丁目１番８号株式会社赤坂国際会計内,,13,103,1070051,,,2021-12-27,清算の結了等,,,2015-10-05,1,,,,,エスエイチイチゴウ,0
1270,5020001134278,登記記録の閉鎖等,0,2022-01-07,2022-01-04,株式会社ＴＰＭ,,株式会社,神奈川県,川崎市高津区,末長２丁目８番１１号,,14,134,2130013,,,2022-01-04,清算の結了等,,,2020-01-06,1,,,,,ティーピーエム,0
1290,5040002023206,登記記録の閉鎖等,0,2022-01-07,2021-12-17,有限会社セリオ,,有限会社,千葉県,船橋市,習志野台８丁目５４番１－４０４号,,12,204,2740063,,,2021-12-17,清算の結了等,,,2015-10-05,1,,,,,セリオ,0
1297,5050003004906,登記記録の閉鎖等,0,2022-01-07,2021-12-28,合同会社ステップ,,合同会社,神奈川県,川崎市川崎区,南町２１番地１２スカイコートパシフィック川崎３０９,,14,131,2100015,,,2021-12-28,清算の結了等,,,2019-11-05,1,,,,,ステップ,0
1303,5070001028269,登記記録の閉鎖等,0,2022-01-07,2022-01-04,株式会社アグリランドいせさき,,株式会社,群馬県,伊勢崎市,連取町３０９６番地１,,10,204,3720812,,,2022-01-04,清算の結了等,,,2015-10-05,1,,,,,アグリランドイセサキ,0
1304,5070001029556,登記記録の閉鎖等,0,2022-01-07,2022-01-04,サンデン・アドバンストテクノロジー株式会社,,株式会社,群馬県,伊勢崎市,寿町２０番地,,10,204,3720052,,,2022-01-04,合併による解散等,5070001013386,令和４年１月１日群馬県伊勢崎市寿町２０番地サンデン株式会社（5070001013386）に合併し解散,2015-10-05,1,,,,,サンデンアドバンストテクノロジー,0
1310,5080401015808,登記記録の閉鎖等,0,2022-01-07,2021-12-27,株式会社クボタ木材センター,,株式会社,静岡県,磐田市,豊島３１３番地,,22,211,4380047,,,2021-12-27,清算の結了等,,,2015-10-05,1,,,,,クボタモクザイセンター,0
1321,5110001034576,登記記録の閉鎖等,0,2022-01-07,2022-01-04,株式会社スマイルワン,,株式会社,新潟県,新潟市西区,山田４１５番地,,15,107,9501101,,,2022-01-04,合併による解散等,5110001005164,令和４年１月１日新潟市西区山田４１５番地株式会社ホンマ（5110001005164）に合併し解散,2020-01-14,1,,,,,スマイルワン,0
1351,5120901007787,登記記録の閉鎖等,0,2022-01-07,2022-01-05,株式会社西村商事,,株式会社,大阪府,吹田市,朝日町２番１０７号,,27,205,5640027,,,2022-01-05,清算の結了等,,,2015-10-05,1,,,,,ニシムラショウジ,0
1352,5120901013133,登記記録の閉鎖等,0,2022-01-07,2022-01-05,株式会社阪神共聴センター,,株式会社,大阪府,吹田市,芳野町５番６６号,,27,205,5640054,,,2022-01-05,清算の結了等,,,2015-10-05,1,,,,,,0
1377,5160002010729,登記記録の閉鎖等,0,2022-01-07,2021-12-28,南海石油有限会社,,有限会社,滋賀県,近江八幡市,千僧供町５８５番地,,25,204,5230016,,,2021-12-28,清算の結了等,,,2015-10-05,1,,,,,ナンカイセキユ,0
1382,5180001090803,登記記録の閉鎖等,0,2022-01-07,2022-01-04,株式会社白馬,,株式会社,愛知県,名古屋市昭和区,向山町２丁目１５番地,,23,107,4660829,,,2022-01-04,合併による解散等,4180001090804,令和４年１月１日名古屋市千種区千種三丁目７番４号白百合商事株式会社（4180001090804）に合併し解散,2015-10-05,1,,,,,ハクバ,0
1396,5180002063907,登記記録の閉鎖等,0,2022-01-07,2021-12-28,株式会社大橋化工,,株式会社,愛知県,豊明市,沓掛町城塚４０番地,,23,229,4701101,,,2021-12-28,清算の結了等,,,2015-10-05,1,,,,,オオハシカコウ,0
1402,5180301018090,登記記録の閉鎖等,0,2022-01-07,2022-01-05,神谷印刷株式会社,,株式会社,愛知県,豊田市,市木町４丁目１８番地９,,23,211,4710006,,,2022-01-05,清算の結了等,,,2015-10-05,1,,,,,カミヤインサツ,0
1405,5200001017126,登記記録の閉鎖等,0,2022-01-07,2022-01-05,株式会社向竜館,,株式会社,岐阜県,美濃加茂市,中富町１丁目１０番６号,,21,211,5050033,,,2022-01-05,清算の結了等,,,2015-10-05,1,,,,,コウリュウカン,0
1410,5230001012438,登記記録の閉鎖等,0,2022-01-07,2021-12-27,いみずタクシー株式会社,,株式会社,富山県,射水市,中新湊９番２４号,,16,211,9340027,,,2021-12-27,合併による解散等,8230001012393,令和３年１２月２５日富山県射水市本町三丁目１６番３号海王交通株式会社（8230001012393）に合併し解散,2015-10-05,1,,,,,イミズタクシー,0
1417,5240001036551,登記記録の閉鎖等,0,2022-01-07,2022-01-04,播磨機械工業株式会社,,株式会社,広島県,安芸郡熊野町,５３３８番地,,34,307,7314200,,,2022-01-04,清算の結了等,,,2015-10-05,1,,,,,ハリマキカイコウギョウ,0
1422,5240002020653,登記記録の閉鎖等,0,2022-01-07,2022-01-04,有限会社タカヤマ石油,,有限会社,広島県,広島市安芸区,矢野東５丁目１２番３号,,34,107,7360083,,,2022-01-04,清算の結了等,,,2015-10-05,1,,,,,タカヤマセキユ,0
1440,5290802004363,登記記録の閉鎖等,0,2022-01-07,2022-01-04,有限会社トヨウラ,,有限会社,福岡県,北九州市戸畑区,銀座１丁目５番５号,,40,105,8040076,,,2022-01-04,清算の結了等,,,2015-10-05,1,,,,,トヨウラ,0
1451,5330002016122,登記記録の閉鎖等,0,2022-01-07,2022-01-05,有限会社久保田芝産業,,有限会社,熊本県,阿蘇郡西原村,大字小森３４１６番地,,43,432,8612402,,,2022-01-05,清算の結了等,,,2015-10-05,1,,,,,,0
1458,5350001005875,登記記録の閉鎖等,0,2022-01-07,2021-12-22,株式会社日高ポートリー,00100511,株式会社,宮崎県,児湯郡高鍋町,大字持田４８５５番地６,,45,401,8840005,,,2021-12-22,清算の結了等,,,2015-10-05,1,,,,,ヒダカポートリー,0
1460,5360001010718,登記記録の閉鎖等,0,2022-01-07,2022-01-04,株式会社沖縄トランジット・ソリッドオフィス,,株式会社,沖縄県,中頭郡北谷町,字宮城２番地２２０,,47,326,9040113,,,2022-01-04,清算の結了等,,,2015-10-05,1,,,,,,0
1464,5360001027778,登記記録の閉鎖等,0,2022-01-07,2021-12-13,株式会社ＬＥＡＰ　ＣＲＥＡＴＥ,,株式会社,沖縄県,那覇市,字国場８６５番地５,,47,201,9020075,,,2021-12-13,合併による解散等,3030003008175,令和３年１１月２９日埼玉県吉川市高久一丁目１２番地８合同会社ファインドステージ（3030003008175）に合併し解散,2020-10-12,1,,,,,リープクリエイト,0
1471,5380001026431,登記記録の閉鎖等,0,2022-01-07,2021-12-27,株式会社希望ファーム,,株式会社,福島県,郡山市,田村町金屋字マセロ４２番地の１,,07,203,9630725,,,2021-12-27,清算の結了等,,,2016-02-03,1,,,,,キボウファーム,0
1479,5390002013948,登記記録の閉鎖等,0,2022-01-07,2021-12-28,有限会社創健,,有限会社,山形県,東置賜郡高畠町,大字三条目４１３番地の１３,,06,381,9920331,,,2021-12-28,清算の結了等,,,2015-10-05,1,,,,,ソウケン,0
1494,5460005000069,登記記録の閉鎖等,0,2022-01-07,2021-12-15,天理教誠利分教会,,その他の設立登記法人,北海道,釧路市,新栄町１２番６号,,01,206,0850032,,,2021-12-15,合併による解散等,1460005000080,令和３年１２月１５日北海道釧路市昭和北一丁目１６番９号天理教誠陽分教会（1460005000080）に合併し解散,2015-10-05,1,,,,,テンリキョウセイリブンキョウカイ,0
1496,5470001018238,登記記録の閉鎖等,0,2022-01-07,2022-01-04,日本メディカルコンストラクション株式会社,,株式会社,香川県,高松市,東ハゼ町８－８,,37,201,7618054,,,2022-01-04,合併による解散等,3470001003209,令和４年１月１日香川県高松市東ハゼ町８－８日本メディカル株式会社（3470001003209）に合併し解散,2020-10-15,1,,,,,ニホンメディカルコンストラクション,0
1546,6010501014467,登記記録の閉鎖等,0,2022-01-07,2022-01-05,株式会社プチ・フルール東方,,株式会社,東京都,台東区,松が谷２丁目１７番７号,,13,106,1110036,,,2022-01-05,清算の結了等,,,2015-10-05,1,,,,,プチフルールトウホウ,0
1588,6020001017820,登記記録の閉鎖等,0,2022-01-07,2022-01-04,曽根産業株式会社,,株式会社,神奈川県,横浜市磯子区,杉田３丁目１６番地６９,,14,107,2350033,,,2022-01-04,清算の結了等,,,2015-10-05,1,,,,,ソネサンギョウ,0
1589,6020001042100,登記記録の閉鎖等,0,2022-01-07,2022-01-04,メディカル情報株式会社,,株式会社,神奈川県,厚木市,旭町１丁目３８番７号後藤ビル３０１,,14,212,2430014,,,2022-01-04,清算の結了等,,,2015-10-05,1,,,,,メディカルジョウホウ,0
1590,6020001055548,登記記録の閉鎖等,0,2022-01-07,2021-12-28,株式会社ロードリバーサイドインスティテュート,,株式会社,神奈川県,横浜市栄区,小山台１丁目１２番１５号,,14,115,2470002,,,2021-12-28,清算の結了等,,,2015-10-05,1,,,,,ロードリバーサイドインスティテュート,0
1596,6020001112002,登記記録の閉鎖等,0,2022-01-07,2022-01-04,株式会社ｃｏｔｏ１,,株式会社,神奈川県,横浜市神奈川区,反町３丁目２３番地２１,,14,102,2210825,,,2022-01-04,清算の結了等,,,2015-10-05,1,,,,,コトイチ,0
1605,6020002096475,登記記録の閉鎖等,0,2022-01-07,2022-01-04,有限会社協盟電気,,有限会社,神奈川県,川崎市川崎区,塩浜３丁目６番７号,,14,131,2100826,,,2022-01-04,清算の結了等,,,2015-10-05,1,,,,,,0
1606,6020002097647,登記記録の閉鎖等,0,2022-01-07,2022-01-04,有限会社関口米店,,有限会社,神奈川県,川崎市川崎区,池田１丁目１０番６号,,14,131,2100022,,,2022-01-04,清算の結了等,,,2015-10-05,1,,,,,セキグチコメテン,0
1623,6030002058978,登記記録の閉鎖等,0,2022-01-07,2022-01-04,有限会社テクノタイル,,有限会社,埼玉県,朝霞市,本町１丁目３４番１号ボンビラージュ朝霞２１０号,,11,227,3510011,,,2022-01-04,清算の結了等,,,2015-10-05,1,,,,,テクノタイル,0
1636,6040005006495,登記記録の閉鎖等,0,2022-01-07,2021-12-14,天理教木下分教会,,その他の設立登記法人,千葉県,印西市,大字木下１５００番地,,12,231,2701300,,,2021-12-14,合併による解散等,7011805000466,令和３年１２月９日東京都葛飾区金町四丁目２０番１３号天理教東橋分教会（7011805000466）に合併し解散,2015-10-05,1,,,,,,0
1643,6050002021125,登記記録の閉鎖等,0,2022-01-07,2021-12-27,有限会社木村屋,,有限会社,茨城県,つくば市,手子生１０７７番地の２,,08,220,3002647,,,2021-12-27,清算の結了等,,,2015-10-05,1,,,,,,0
1644,6070001001456,登記記録の閉鎖等,0,2022-01-07,2022-01-04,株式会社三和,,株式会社,群馬県,伊勢崎市,長沼町２２４番地１,,10,204,3720855,,,2022-01-04,合併による解散等,5070001013386,令和４年１月１日群馬県伊勢崎市寿町２０番地サンデン株式会社（5070001013386）に合併し解散,2015-10-05,1,,,,,サンワ,0
1645,6070001029555,登記記録の閉鎖等,0,2022-01-07,2022-01-04,サンデン・エンバイロメントプロダクツ株式会社,,株式会社,群馬県,伊勢崎市,寿町２０番地,,10,204,3720052,,,2022-01-04,合併による解散等,5070001013386,令和４年１月１日群馬県伊勢崎市寿町２０番地サンデン株式会社（5070001013386）に合併し解散,2015-10-05,1,,,,,サンデンエンバイロメントプロダクツ,0
1649,6080001008252,登記記録の閉鎖等,0,2022-01-07,2022-01-05,ユーロフィン・フード・テスティング株式会社,,株式会社,静岡県,静岡市駿河区,豊原町４番１０号,,22,102,4228071,,,2022-01-05,清算の結了等,,,2015-10-05,1,,,,,ユーロフィンフードテスティング,0
1653,6090001007781,登記記録の閉鎖等,0,2022-01-07,2022-01-04,株式会社堅創,,株式会社,山梨県,甲斐市,龍地２３５３番地２－１号,,19,210,4000104,,,2022-01-04,合併による解散等,7090001004530,令和４年１月１日山梨県甲斐市下今井３５３９番地株式会社たけまる（7090001004530）に合併し解散,2015-10-05,1,,,,,,0
1655,6100001015270,登記記録の閉鎖等,0,2022-01-07,2021-12-24,株式会社ビラあずみ野,,株式会社,長野県,安曇野市,穂高有明７５７２番地１,,20,220,3998301,,,2021-12-24,清算の結了等,,,2018-03-12,1,,,,,ビラアズミノ,0
1665,6120001054291,登記記録の閉鎖等,0,2022-01-07,2022-01-05,小野研磨工業株式会社,,株式会社,大阪府,大阪市淀川区,三国本町１丁目３番６号,,27,123,5320005,,,2022-01-05,清算の結了等,,,2015-10-05,1,,,,,オノケンマコウギョウ,0
1713,6150001021578,登記記録の閉鎖等,0,2022-01-07,2022-01-04,Ｌｉａｎｄｅ・Ｊ・Ｒ＆Ｄ株式会社,,株式会社,東京都,立川市,柏町３丁目３番地の５,,13,202,1900004,,,2022-01-04,清算の結了等,,,2017-06-13,1,,,,,リアンデジェイアールアンドディ,0
1718,6160002008540,登記記録の閉鎖等,0,2022-01-07,2022-01-04,有限会社フシミヤ,,有限会社,滋賀県,彦根市,銀座町４番２７号,,25,202,5220088,,,2022-01-04,清算の結了等,,,2015-10-05,1,,,,,フシミヤ,0
1729,6180301016069,登記記録の閉鎖等,0,2022-01-07,2022-01-04,ねさき工業株式会社,,株式会社,愛知県,安城市,根崎町西新切４２番地１,,23,212,4441211,,,2022-01-04,合併による解散等,3180301012822,令和３年１２月３０日愛知県額田郡幸田町大字久保田字釜谷８番地金星工業株式会社（3180301012822）に合併し解散,2015-10-05,1,,,,,ネサキコウギョウ,0
1770,6290003003783,登記記録の閉鎖等,0,2022-01-07,2021-12-27,合同会社アドバンス,,合同会社,福岡県,福岡市博多区,山王１丁目１番１５号,,40,132,8120015,,,2021-12-27,清算の結了等,,,2015-10-05,1,,,,,アドバンス,0
1784,6330002006188,登記記録の閉鎖等,0,2022-01-07,2021-12-27,大成ビル有限会社,,有限会社,熊本県,熊本市東区,尾ノ上１丁目４４番１５号,,43,102,8620913,,,2021-12-27,清算の結了等,,,2015-10-05,1,,,,,タイセイビル,0
1837,6700150027650,登記記録の閉鎖等,0,2022-01-07,2021-09-30,チャレンジつねよし百貨店実行委員会,,その他,京都府,京丹後市,大宮町上常吉１２３－２,,26,212,6292533,,,2021-09-30,その他の清算の結了等,,,2015-10-09,1,,,,,チヤレンジツネヨシヒヤツカテンジツコウイインカイ,0
1844,7010001108124,登記記録の閉鎖等,0,2022-01-07,2022-01-04,株式会社ソニー・デジタルエンタテインメント・サービス,,株式会社,東京都,中央区,明石町８番１号聖路加ガーデン・聖路加タワー,,13,102,1040044,,,2022-01-04,清算の結了等,,,2015-10-05,1,,,,,ソニーデジタルエンタテインメントサービス,0
1855,7010401031875,登記記録の閉鎖等,0,2022-01-07,2021-12-24,株式会社レストラン馮,,株式会社,東京都,港区,南青山１丁目２６番１６－１０１号,,13,103,1070062,,,2021-12-24,清算の結了等,,,2015-10-05,1,,,,,レストランフー,0
1864,7010405017598,登記記録の閉鎖等,0,2022-01-07,2021-12-27,一般社団法人エスエイチ１１,,その他の設立登記法人,東京都,港区,元赤坂１丁目１番８号株式会社赤坂国際会計内,,13,103,1070051,,,2021-12-27,清算の結了等,,,2019-03-29,1,,,,,エスエイチジュウイチ,0
1865,7010405018497,登記記録の閉鎖等,0,2022-01-07,2021-12-27,一般社団法人エスエイチ１２,,その他の設立登記法人,東京都,港区,元赤坂１丁目１番８号株式会社赤坂国際会計内,,13,103,1070051,,,2021-12-27,清算の結了等,,,2020-02-07,1,,,,,エスエイチジュウニ,0
1870,7010601014589,登記記録の閉鎖等,0,2022-01-07,2021-12-27,株式会社Ｙ・ナイトー,,株式会社,東京都,墨田区,吾妻橋３丁目７番１５号,,13,107,1300001,,,2021-12-27,清算の結了等,,,2015-10-05,1,,,,,ワイナイトー,0
1912,7020002082895,登記記録の閉鎖等,0,2022-01-07,2022-01-04,有限会社市川忠蔵商店,,有限会社,神奈川県,川崎市中原区,新城中町７番１７－２０１号,,14,133,2110043,,,2022-01-04,清算の結了等,,,2015-10-05,1,,,,,イチカワタダゾウショウテン,0
1913,7020002104484,登記記録の閉鎖等,0,2022-01-07,2022-01-04,ディーエーシー有限会社,,有限会社,神奈川県,川崎市中原区,北谷町７２番１号,,14,133,2110015,,,2022-01-04,清算の結了等,,,2015-10-05,1,,,,,ディーエーシー,0
1929,7040001014823,登記記録の閉鎖等,0,2022-01-07,2021-12-27,友宝住宅設備株式会社,,株式会社,千葉県,八千代市,八千代台南２丁目９番２号,,12,221,2760033,,,2021-12-27,清算の結了等,,,2015-10-05,1,,,,,ユウホウジュウタクセツビ,0
1937,7050001013353,登記記録の閉鎖等,0,2022-01-07,2021-12-27,大伸商事株式会社,,株式会社,茨城県,下妻市,中居指３８番地２,,08,210,3040054,,,2021-12-27,清算の結了等,,,2015-10-05,1,,,,,ダイシンショウジ,0
1944,7070001018689,登記記録の閉鎖等,0,2022-01-07,2022-01-04,石川産業株式会社,,株式会社,群馬県,太田市,西本町６７番１０号,,10,205,3730033,,,2022-01-04,清算の結了等,,,2015-10-05,1,,,,,イシカワサンギョウ,0
1945,7070001029554,登記記録の閉鎖等,0,2022-01-07,2022-01-04,サンデン・リビングエンバイロメントシステム株式会社,,株式会社,群馬県,伊勢崎市,寿町２０番地,,10,204,3720052,,,2022-01-04,合併による解散等,5070001013386,令和４年１月１日群馬県伊勢崎市寿町２０番地サンデン株式会社（5070001013386）に合併し解散,2015-10-05,1,,,,,サンデンリビングエンバイロメントシステム,0
1950,7090002003614,登記記録の閉鎖等,0,2022-01-07,2022-01-04,有限会社勝又設備工業,,有限会社,山梨県,甲斐市,玉川９０番地の８,,19,210,4000116,,,2022-01-04,清算の結了等,,,2015-10-05,1,,,,,カツマタセツビコウギョウ,0
1962,7120001014864,登記記録の閉鎖等,0,2022-01-07,2022-01-04,株式会社コライユ,,株式会社,大阪府,大阪市中央区,久太郎町３丁目３番１５号,,27,128,5410056,,,2022-01-04,合併による解散等,9120001079617,令和３年１２月３１日大阪市中央区久太郎町三丁目４番３号株式会社コーラル（9120001079617）に合併し解散,2015-10-05,1,,,,,コライユ,0
2004,7140001070831,登記記録の閉鎖等,0,2022-01-07,2021-12-28,六甲アメニティ企画株式会社,,株式会社,兵庫県,西宮市,北六甲台２丁目１８番３号,,28,204,6511413,,,2021-12-28,清算の結了等,,,2015-10-05,1,,,,,ロッコウアメニティキカク,0
2016,7160005000460,登記記録の閉鎖等,0,2022-01-07,2022-01-06,平野商店街振興組合,,その他の設立登記法人,滋賀県,大津市,打出浜６番６号,,25,201,5200806,,,2022-01-06,清算の結了等,,,2015-10-05,1,,,,,ヒラノ,0
2017,7170002009818,登記記録の閉鎖等,0,2022-01-07,2022-01-05,有限会社さくら,,有限会社,和歌山県,西牟婁郡白浜町,栄６１０番地の６,,30,401,6492332,,,2022-01-05,清算の結了等,,,2015-10-05,1,,,,,サクラ,0
2021,7180001081965,登記記録の閉鎖等,0,2022-01-07,2022-01-04,株式会社アストン,,株式会社,愛知県,一宮市,大和町馬引字荒木１５番地,,23,203,4910931,,,2022-01-04,合併による解散等,5180001083848,令和３年１２月３１日愛知県一宮市大和町馬引字荒木１５番地三星ケミカル株式会社（5180001083848）に合併し解散,2015-10-05,1,,,,,アストン,0
2022,7180001084431,登記記録の閉鎖等,0,2022-01-07,2022-01-04,株式会社ミツボシ,,株式会社,愛知県,一宮市,小信中島字東鵜飼分１４番地,,23,203,4940007,,,2022-01-04,合併による解散等,6180001083847,令和３年１２月３１日愛知県一宮市大和町馬引字荒木１５番地三星毛糸株式会社（6180001083847）に合併し解散,2015-10-05,1,,,,,ミツボシ,0
2031,7180301003784,登記記録の閉鎖等,0,2022-01-07,2022-01-05,株式会社Ｂ．Ｓスタッフィング,,株式会社,愛知県,岡崎市,明大寺町字川端２０番地,,23,202,4440864,,,2022-01-05,合併による解散等,2180301002733,令和４年１月１日愛知県岡崎市大門三丁目３番地３ビー・エス・ネットワーク株式会社（2180301002733）に合併し解散,2015-10-05,1,,,,,ビーエススタッフィング,0
2053,7250001019181,登記記録の閉鎖等,0,2022-01-07,2022-01-04,株式会社アイ・ダブル・シー,,株式会社,山口県,岩国市,昭和町３丁目１０番７号,,35,208,7400004,,,2022-01-04,清算の結了等,,,2021-10-12,1,,,,,アイダブルシー,0
2069,7290001068687,登記記録の閉鎖等,0,2022-01-07,2022-01-04,安心賃貸保証株式会社,,株式会社,福岡県,福岡市早良区,西新３丁目７番１７号,,40,137,8140002,,,2022-01-04,清算の結了等,,,2015-10-05,1,,,,,アンシンチンタイホショウ,0
2087,7310002014373,登記記録の閉鎖等,0,2022-01-07,2022-01-04,有限会社国丸薬局,,有限会社,長崎県,南松浦郡新上五島町,浦桑郷１３６０番地,,42,411,8574511,,,2022-01-04,清算の結了等,,,2015-10-05,1,,,,,クニマルヤッキョク,0
2091,7330002011699,登記記録の閉鎖等,0,2022-01-07,2022-01-05,有限会社渡辺木材店,,有限会社,熊本県,熊本市中央区,大江６丁目２７番６号,,43,101,8620971,,,2022-01-05,清算の結了等,,,2015-10-05,1,,,,,ワタナベモクザイテン,0
2093,7350001005618,登記記録の閉鎖等,0,2022-01-07,2022-01-04,株式会社ホンダ販売電工社,,株式会社,宮崎県,西都市,大字三宅１０３番地８,,45,208,8810005,,,2022-01-04,合併による解散等,7350002010947,令和４年１月１日宮崎県日向市大字財光寺２７０番地の７株式会社ホンダカーズ宮崎北（7350002010947）に合併し解散,2015-10-05,1,,,,,ホンダハンバイデンコウシャ,0
2126,7450002003016,登記記録の閉鎖等,0,2022-01-07,2022-01-06,有限会社末広住宅設備,,有限会社,北海道,旭川市,神居八条１５丁目２番３２号,,01,204,0708018,,,2022-01-06,清算の結了等,,,2015-10-05,1,,,,,スエヒロジュウタクセツビ,0
2135,7470002001703,登記記録の閉鎖等,0,2022-01-07,2021-12-27,有限会社オザキ商事,,有限会社,香川県,高松市,松島町１５番地,,37,201,7600068,,,2021-12-27,清算の結了等,,,2015-10-05,1,,,,,オザキショウジ,0
2138,7700150048076,登記記録の閉鎖等,0,2022-01-07,2021-09-13,三岐管工事業厚生年金基金,,その他,岐阜県,岐阜市,祈年町８丁目７,,21,201,5008156,,,2021-09-13,その他の清算の結了等,,,2015-10-09,1,,,,,サンギカンコウジギヨウコウセイネンキンキキン,0
2163,8010601029743,登記記録の閉鎖等,0,2022-01-07,2021-12-28,シンドラーエレベータ株式会社,,株式会社,東京都,中央区,銀座８丁目１７番５号,,13,102,1040061,,,2021-12-28,清算の結了等,,,2015-10-05,1,,,,,シンドラーエレベータ,0
2167,8010702000685,登記記録の閉鎖等,0,2022-01-07,2022-01-06,石黒商亊有限会社,,有限会社,東京都,品川区,西大井２丁目１６番７号,,13,109,1400015,,,2022-01-06,清算の結了等,,,2015-10-05,1,,,,,イシグロショウジ,0
2190,8011302004655,登記記録の閉鎖等,0,2022-01-07,2021-12-28,有限会社嶋津工務店,,有限会社,東京都,杉並区,堀ノ内１丁目２０番３号,,13,115,1660013,,,2021-12-28,清算の結了等,,,2015-10-05,1,,,,,シマヅコウムテン,0
2201,8012402014049,登記記録の閉鎖等,0,2022-01-07,2022-01-04,有限会社プレジャー,,有限会社,東京都,狛江市,岩戸南２丁目１７番１０号,,13,219,2010005,,,2022-01-04,清算の結了等,,,2015-10-05,1,,,,,プレジャー,0
2205,8012802003923,登記記録の閉鎖等,0,2022-01-07,2021-12-28,有限会社山本金属,,有限会社,東京都,昭島市,美堀町３丁目２１番２号,,13,207,1960001,,,2021-12-28,清算の結了等,,,2015-10-05,1,,,,,ヤマモトキンゾク,0
2227,8030001022140,登記記録の閉鎖等,0,2022-01-07,2022-01-04,株式会社ニッケンプラス,,株式会社,埼玉県,戸田市,大字上戸田３５番地１,,11,224,3350022,,,2022-01-04,合併による解散等,2030001020570,令和４年１月１日埼玉県戸田市美女木一丁目１２番地５ニッケン建設株式会社（2030001020570）に合併し解散,2015-10-05,1,,,,,ニッケンプラス,0
2232,8030002001069,登記記録の閉鎖等,0,2022-01-07,2022-01-05,有限会社磯野造園,,有限会社,埼玉県,さいたま市桜区,大字大久保領家５９８番地６,,11,106,3380826,,,2022-01-05,清算の結了等,,,2015-10-05,1,,,,,イソノゾウエン,0
2233,8030002019499,登記記録の閉鎖等,0,2022-01-07,2021-12-28,有限会社ハツガイリース,,有限会社,埼玉県,さいたま市浦和区,岸町７丁目８番３号第二アルクビル４Ｆ,,11,107,3300064,,,2021-12-28,清算の結了等,,,2015-10-05,1,,,,,ハツガイリース,0
2255,8080402004105,登記記録の閉鎖等,0,2022-01-07,2021-12-28,有限会社鈴峰,,有限会社,静岡県,浜松市中区,名塚町１５５番地の３,00079921,22,131,4300811,,,2021-12-28,清算の結了等,,,2015-10-05,1,,,,,スズミネ,0
2262,8100001021622,登記記録の閉鎖等,0,2022-01-07,2022-01-04,株式会社有賀プレス,,株式会社,長野県,上伊那郡辰野町,大字伊那富４１２番地１,,20,382,3990428,,,2022-01-04,清算の結了等,,,2015-10-05,1,,,,,アルガプレス,0
2268,8110001030894,登記記録の閉鎖等,0,2022-01-07,2022-01-04,株式会社アメリカ屋漁具,,株式会社,新潟県,新潟市西区,山田４１５番地,,15,107,9501101,,,2022-01-04,合併による解散等,5110001005164,令和４年１月１日新潟市西区山田４１５番地株式会社ホンマ（5110001005164）に合併し解散,2015-10-05,1,,,,,アメリカヤギョグ,0
2270,8110002021067,登記記録の閉鎖等,0,2022-01-07,2021-12-28,有限会社吉田太郎商店,,有限会社,新潟県,柏崎市,藤元町８番１１号,,15,205,9450026,,,2021-12-28,清算の結了等,,,2015-10-05,1,,,,,ヨシダタロウショウテン,0
2274,8120001203359,登記記録の閉鎖等,0,2022-01-07,2022-01-04,資産管理サービス株式会社,,株式会社,大阪府,大阪市北区,梅田１丁目３番１号大阪駅前第１ビル,,27,127,5300001,,,2022-01-04,合併による解散等,6120001132023,令和４年１月１日大阪市北区梅田一丁目１番３号大阪駅前第３ビル２４階株式会社ハウスプロデュース（6120001132023）に合併し解散,2017-02-01,1,,,,,シサンカンリサービス,0
2283,8120003016239,登記記録の閉鎖等,0,2022-01-07,2022-01-05,合同会社無限企画,,合同会社,大阪府,大阪市住吉区,苅田８丁目１１番９－３０３号,,27,120,5580011,,,2022-01-05,清算の結了等,,,2019-09-06,1,,,,,ムゲンキカク,0
2317,8160001011106,登記記録の閉鎖等,0,2022-01-07,2022-01-04,株式会社畑中重工,,株式会社,滋賀県,守山市,洲本町１１７７番地,,25,207,5240103,,,2022-01-04,合併による解散等,4160001015374,令和４年１月１日滋賀県守山市洲本町１１７７番地株式会社寺田自動車（4160001015374）に合併し解散,2015-10-05,1,,,,,ハタナカジュウコウ,0
2339,8180302009714,登記記録の閉鎖等,0,2022-01-07,2022-01-05,有限会社宝塔,,有限会社,愛知県,豊橋市,東幸町字水神７番地２０,,23,201,4400843,,,2022-01-05,清算の結了等,,,2015-10-05,1,,,,,ホウトウ,0
2342,8190002017561,登記記録の閉鎖等,0,2022-01-07,2022-01-06,有限会社藤商事,,有限会社,三重県,桑名市,長島町大倉１番地４３６,,24,205,5111112,,,2022-01-06,清算の結了等,,,2015-10-05,1,,,,,フジショウジ,0
2350,8220001011462,登記記録の閉鎖等,0,2022-01-07,2022-01-04,株式会社ヤマト,,株式会社,石川県,金沢市,沖町イ３１番地,,17,201,9200013,,,2022-01-04,合併による解散等,8220001009671,令和４年１月１日石川県金沢市沖町イ３１番地株式会社ゴルフガーデン金沢（8220001009671）に合併し解散,2015-10-05,1,,,,,ヤマト,0
2359,8240003001113,登記記録の閉鎖等,0,2022-01-07,2021-12-28,合資会社中国サナトリウム廿日市病院,,合資会社,広島県,広島市佐伯区,楽々園４丁目４番２１号,,34,108,7315136,,,2021-12-28,清算の結了等,,,2015-10-05,1,,,,,チュウゴクサナトリウムハツカイチビョウイン,0
2385,8350002013742,登記記録の閉鎖等,0,2022-01-07,2022-01-04,有限会社猪崎薬品,00100875,有限会社,宮崎県,都城市,蔵原町１街区７号,,45,202,8850051,,,2022-01-04,清算の結了等,,,2015-10-05,1,,,,,イザキヤクヒン,0
2422,8480002012970,登記記録の閉鎖等,0,2022-01-07,2022-01-05,有限会社甲子サービスステーション,,有限会社,徳島県,阿南市,橘町豊浜２１番地,,36,204,7740023,,,2022-01-05,清算の結了等,,,2015-10-05,1,,,,,キノエサービスステーション,0
2430,9010001179667,登記記録の閉鎖等,0,2022-01-07,2022-01-04,株式会社Ｆａｃｅ　Ｆｏｒｗａｒｄ．,,株式会社,東京都,中央区,湊１丁目１２－１０八丁堀リバーゲート５Ｆ,,13,102,1040043,,,2022-01-04,清算の結了等,,,2016-11-17,1,,,,,フェイスフォワード,0
2456,9010701005081,登記記録の閉鎖等,0,2022-01-07,2022-01-04,株式会社スリーエフ,,株式会社,東京都,品川区,旗の台２丁目１番６号,,13,109,1420064,,,2022-01-04,清算の結了等,,,2015-10-05,1,,,,,スリーエフ,0
2475,9011503003612,登記記録の閉鎖等,0,2022-01-07,2021-12-28,ＴＩＮ合同会社,,合同会社,東京都,北区,上十条２丁目３１番５号,,13,117,1140034,,,2021-12-28,清算の結了等,,,2018-04-26,1,,,,,ティーアイエヌ,0
2511,9021002062761,登記記録の閉鎖等,0,2022-01-07,2021-12-24,有限会社石渡管工,,有限会社,神奈川県,横須賀市,公郷町１丁目３０番地３,,14,201,2380022,,,2021-12-24,清算の結了等,,,2015-10-05,1,,,,,イシワタカンコウ,0
2531,9030002095713,登記記録の閉鎖等,0,2022-01-07,2022-01-04,有限会社鍛治商工,,有限会社,埼玉県,東松山市,小松原町２番地１８,,11,212,3550013,,,2022-01-04,清算の結了等,,,2015-10-05,1,,,,,カジショウコウ,0
2533,9030003012527,登記記録の閉鎖等,0,2022-01-07,2022-01-04,合同会社飯伏,,合同会社,埼玉県,越谷市,蒲生東町７番４９号,,11,222,3430841,,,2022-01-04,清算の結了等,,,2018-10-05,1,,,,,イブシ,0
2550,9070001029552,登記記録の閉鎖等,0,2022-01-07,2022-01-04,サンデン・オートモーティブコンポーネント株式会社,,株式会社,群馬県,伊勢崎市,寿町２０番地,,10,204,3720052,,,2022-01-04,合併による解散等,5070001013386,令和４年１月１日群馬県伊勢崎市寿町２０番地サンデン株式会社（5070001013386）に合併し解散,2015-10-05,1,,,,,サンデンオートモーティブコンポーネント,0
2562,9120001005688,登記記録の閉鎖等,0,2022-01-07,2021-12-28,武内株式会社,,株式会社,大阪府,大阪市阿倍野区,昭和町３丁目３番５号,,27,119,5450011,,,2021-12-28,清算の結了等,,,2015-10-05,1,,,,,タケウチ,0
2585,9122001015857,登記記録の閉鎖等,0,2022-01-07,2022-01-04,株式会社東野建具店,,株式会社,大阪府,大東市,赤井１丁目１５番７号,,27,218,5740046,,,2022-01-04,清算の結了等,,,2015-10-05,1,,,,,ヒガシノタテグテン,0
2606,9140002032564,登記記録の閉鎖等,0,2022-01-07,2022-01-04,有限会社カネタ窯業,,有限会社,兵庫県,たつの市,新宮町香山３９番地,,28,229,6794302,,,2022-01-04,清算の結了等,,,2015-10-05,1,,,,,カネタヨウギョウ,0
2613,9180001020533,登記記録の閉鎖等,0,2022-01-07,2022-01-04,日通名古屋運輸株式会社,,株式会社,愛知県,名古屋市南区,南野３丁目１１番地,,23,112,4570068,,,2022-01-04,合併による解散等,6180001078517,令和４年１月１日愛知県小牧市大字舟津字久保寺８７７－１０日通名古屋運輸株式会社（6180001078517）に合併し解散,2015-10-05,1,,,,,ニッツウナゴヤウンユ,0
2632,9190001018717,登記記録の閉鎖等,0,2022-01-07,2022-01-04,株式会社Ｈ．Ｒ．Ｄ,,株式会社,三重県,四日市市,小生町８７３番地,,24,202,5120932,,,2022-01-04,合併による解散等,5190001016781,令和４年１月１日三重県四日市市浜田町１番１５号株式会社リョーケン（5190001016781）に合併し解散,2015-10-05,1,,,,,エイチアールディー,0
2640,9220002000579,登記記録の閉鎖等,0,2022-01-07,2021-12-28,有限会社ノザキ鈑金塗装,,有限会社,石川県,野々市市,矢作２丁目４８番２号,,17,212,9218822,,,2021-12-28,清算の結了等,,,2015-10-05,1,,,,,ノザキバンキントソウ,0
2651,9240002031886,登記記録の閉鎖等,0,2022-01-07,2021-12-24,有限会社備北道路,,有限会社,広島県,庄原市,口和町永田５０５番地の２,,34,210,7270114,,,2021-12-24,清算の結了等,,,2015-10-05,1,,,,,,0
2665,9290005014751,登記記録の閉鎖等,0,2022-01-07,2022-01-06,医療法人社団精密会,,その他の設立登記法人,福岡県,福岡市博多区,博多駅南３丁目８番２１－８０３号,,40,132,8120016,,,2022-01-06,清算の結了等,,,2015-10-05,1,,,,,シャダンセイミツカイ,0
2688,9370202004324,登記記録の閉鎖等,0,2022-01-07,2022-01-05,有限会社ツタカ,,有限会社,宮城県,大崎市,古川中里１丁目７番２号,,04,215,9896143,,,2022-01-05,清算の結了等,,,2015-10-05,1,,,,,ツタカ,0
2693,9380002022954,登記記録の閉鎖等,0,2022-01-07,2021-12-28,有限会社角七鈴木商店,,有限会社,福島県,いわき市,江名字江ノ浦１０５番地,,07,204,9700311,,,2021-12-28,清算の結了等,,,2015-10-05,1,,,,,カクシチスズキショウテン,0
2694,9380002025668,登記記録の閉鎖等,0,2022-01-07,2021-12-28,有限会社平野プレス,,有限会社,福島県,いわき市,平下神谷字御城９９番地の１,,07,204,9700101,,,2021-12-28,清算の結了等,,,2015-10-05,1,,,,,ヒラノプレス,0
2710,9500002017925,登記記録の閉鎖等,0,2022-01-07,2022-01-06,有限会社大仲プリント,,有限会社,愛媛県,今治市,東村３丁目５番４８号,,38,202,7991506,,,2022-01-06,清算の結了等,,,2015-10-05,1,,,,,オオナカプリント,0
2712,9700150029611,登記記録の閉鎖等,0,2022-01-07,2021-08-31,湯の原温泉オートキャンプ場組合,,その他,兵庫県,豊岡市,日高町羽尻１５１０,,28,209,6695359,,,2021-08-31,その他の清算の結了等,,,2015-10-09,1,,,,,ユノハラオンセンオートキヤンプジヨウクミアイ,0
