sequenceNumber,corporateNumber,process,correct,updateDate,changeDate,name,nameImageId,kind,prefectureName,cityName,streetNumber,addressImageId,prefectureCode,cityCode,postCode,addressOutside,addressOutsideImageId,closeDate,closeCause,successorCorporateNumber,changeCause,assignmentDate,latest,enName,enPrefectureName,enCityName,enAddressOutside,furigana,hihyoji
7,1010001244032,新規,0,2024-04-17,2024-04-17,株式会社寄立,,株式会社,東京都,千代田区,神田神保町３丁目１１番地５よりたてビル８階,,13,101,1010051,,,,,,,2024-04-17,1,,,,,ヨリタテ,0
8,1010001244040,新規,0,2024-04-17,2024-04-17,株式会社ＶｅｔｓＢｒａｉｎ,,株式会社,東京都,中央区,銀座１丁目１２番４号Ｎ＆ＥＢＬＤ．６Ｆ,,13,102,1040061,,,,,,,2024-04-17,1,,,,,ベッツブレイン,0
9,1010001244057,新規,0,2024-04-17,2024-04-17,株式会社Ｉｎｔｅｒｌｕｄｅ,,株式会社,東京都,中央区,日本橋小網町８番２号ＢＩＺＭＡＲＫＳ日本橋茅場町４１０,,13,102,1030016,,,,,,,2024-04-17,1,,,,,インタールード,0
10,1010001244073,新規,0,2024-04-17,2024-04-17,株式会社かすがの森オペレーションズ,,株式会社,東京都,千代田区,内神田１丁目５番６号小山第２ビル６階,,13,101,1010047,,,,,,,2024-04-17,1,,,,,カスガノモリオペレーションズ,0
13,1010005038208,新規,0,2024-04-17,2024-04-17,リュクス一般社団法人,,その他の設立登記法人,東京都,千代田区,霞が関３丁目２番５号,,13,101,1000013,,,,,,,2024-04-17,1,,,,,リュクス,0
19,1010401181833,新規,0,2024-04-17,2024-04-17,株式会社Ｍ＆Ａ共創パートナーズ,,株式会社,東京都,港区,愛宕２丁目５番１号愛宕グリーンヒルズＭＯＲＩタワー２７Ｆ,,13,103,1050002,,,,,,,2024-04-17,1,,,,,エムアンドエーキョウソウパートナーズ,0
20,1010401181841,新規,0,2024-04-17,2024-04-17,ＭＩＮＡＭＩ　ＩＮＶＥＳＴＭＥＮＴ株式会社,,株式会社,東京都,港区,新橋４丁目５番１号,,13,103,1050004,,,,,,,2024-04-17,1,,,,,ミナミインベストメント,0
21,1010401181858,新規,0,2024-04-17,2024-04-17,Ｍ＆Ｊトレーディング株式会社,,株式会社,東京都,港区,麻布十番３丁目３番１２－７Ｆ,,13,103,1060045,,,,,,,2024-04-17,1,,,,,エムアンドジェイトレーディング,0
22,1010401181874,新規,0,2024-04-17,2024-04-17,株式会社若木,,株式会社,東京都,港区,赤坂２丁目８番１４号ラミアール赤坂５０７号室,,13,103,1070052,,,,,,,2024-04-17,1,,,,,ワカギ,0
23,1010405023148,新規,0,2024-04-17,2024-04-17,一般社団法人農林水産物・食品輸出直取引化推進協議会,,その他の設立登記法人,東京都,港区,芝浦１丁目１３番１０号第３東運ビル８階,,13,103,1050023,,,,,,,2024-04-17,1,,,,,ノウリンスイサンブツショクヒンユシュツチョクトリヒキカスイシンキョウギカイ,0
25,1010501052117,新規,0,2024-04-17,2024-04-17,株式会社ＢＯＮＤ,,株式会社,東京都,台東区,竜泉１丁目２番３－１１０４号レクセルマンション上野入谷,,13,106,1100012,,,,,,,2024-04-17,1,,,,,ボンド,0
27,1010601065027,新規,0,2024-04-17,2024-04-17,株式会社Ｋａｌａｕ,,株式会社,東京都,墨田区,墨田５丁目５番２号,,13,107,1310031,,,,,,,2024-04-17,1,,,,,カラウ,0
31,1010701045861,新規,0,2024-04-17,2024-04-17,株式会社ｒｏｒｕｆｕ,,株式会社,東京都,品川区,小山２丁目６－１３,,13,109,1420062,,,,,,,2024-04-17,1,,,,,ロルフ,0
33,1010801034970,新規,0,2024-04-17,2024-04-17,山崎工業株式会社,00134439,株式会社,東京都,大田区,大森西２丁目１７番３１－６０５号,,13,111,1430015,,,,,,,2024-04-17,1,,,,,ヤマザキコウギョウ,0
38,1010903008971,新規,0,2024-04-17,2024-04-17,合同会社ＳＳＡＷ,,合同会社,東京都,世田谷区,大原２丁目２７番１０－５０２号,,13,112,1560041,,,,,,,2024-04-17,1,,,,,エスエスエーダブル,0
42,1011001161135,新規,0,2024-04-17,2024-04-17,株式会社Ｃｏａｌｉｓ,,株式会社,東京都,渋谷区,渋谷２丁目２４番１２号,,13,113,1500002,,,,,,,2024-04-17,1,,,,,コアリス,0
43,1011001161151,新規,0,2024-04-17,2024-04-17,株式会社ＳＯＬＩＤ　ＨＯＵＳＥ,,株式会社,東京都,渋谷区,代々木２丁目２７番１６号,,13,113,1510053,,,,,,,2024-04-17,1,,,,,ソリッドハウス,0
45,1011003018894,新規,0,2024-04-17,2024-04-17,合同会社そうせい,,合同会社,東京都,渋谷区,本町３丁目１３番３号,,13,113,1510071,,,,,,,2024-04-17,1,,,,,ソウセイ,0
46,1011003018960,新規,0,2024-04-17,2024-04-17,合同会社ＶＥＲＩＴＡＳ,,合同会社,東京都,渋谷区,神宮前５丁目２３番４号Ａ－ｒｅｎ表参道,,13,113,1500001,,,,,,,2024-04-17,1,,,,,ヴェリタス,0
49,1011101106980,新規,0,2024-04-17,2024-04-17,マジックサウンド魔音株式会社,,株式会社,東京都,新宿区,山吹町１３０番地５－３０１号,,13,104,1620801,,,,,,,2024-04-17,1,,,,,マジックサウンドマオン,0
50,1011105011005,新規,0,2024-04-17,2024-04-17,一般社団法人ＦＡＤＡ　Ｊａｐａｎ,,その他の設立登記法人,東京都,新宿区,新宿１丁目３６－２新宿第七葉山ビル,,13,104,1600022,,,,,,,2024-04-17,1,,,,,ファーダージャパン,0
52,1011301029577,新規,0,2024-04-17,2024-04-17,株式会社ＳＳ・ＣＨＩＳＡＴＯ,,株式会社,東京都,杉並区,久我山３丁目２０番１１号,,13,115,1680082,,,,,,,2024-04-17,1,,,,,エスエスチサト,0
69,1011801044076,新規,0,2024-04-17,2024-04-17,株式会社イーテクト,,株式会社,東京都,足立区,東和３丁目４番１１号,,13,121,1200003,,,,,,,2024-04-17,1,,,,,イーテクト,0
70,1011801044084,新規,0,2024-04-17,2024-04-17,株式会社アイデザイン,,株式会社,東京都,足立区,入谷１丁目２番１２－３０４号,,13,121,1210836,,,,,,,2024-04-17,1,,,,,アイデザイン,0
71,1011801044092,新規,0,2024-04-17,2024-04-17,株式会社インハース,,株式会社,東京都,足立区,足立２丁目１８番４号佐藤荘２０１,,13,121,1200015,,,,,,,2024-04-17,1,,,,,インハース,0
74,1012401041777,新規,0,2024-04-17,2024-04-17,Ｅｓｓａ　Ｐｒｏｄｕｃｔｓ株式会社,,株式会社,東京都,武蔵野市,吉祥寺本町１丁目１３番２号シラカバビル５Ｆ,,13,203,1800004,,,,,,,2024-04-17,1,,,,,エッサプロダクツ,0
82,1020001156730,新規,0,2024-04-17,2024-04-17,株式会社ドリコ,,株式会社,神奈川県,横浜市西区,北幸２丁目１０番４８号むつみビル３階,,14,103,2200004,,,,,,,2024-04-17,1,,,,,ドリコ,0
83,1020001156805,新規,0,2024-04-17,2024-04-17,株式会社フォートリンクス,,株式会社,神奈川県,川崎市中原区,下小田中４丁目３番１３－２０１号,,14,133,2110041,,,,,,,2024-04-17,1,,,,,フォートリンクス,0
96,1030001159526,新規,0,2024-04-17,2024-04-17,株式会社彩北エステート,,株式会社,埼玉県,東松山市,元宿２丁目２１番７号,,11,212,3550063,,,,,,,2024-04-17,1,,,,,サイホクエステート,0
103,1040001133166,新規,0,2024-04-17,2024-04-17,株式会社Ｍ．Ａ．Ｍファーマシー,,株式会社,千葉県,松戸市,常盤平陣屋前９－２,,12,207,2702265,,,,,,,2024-04-17,1,,,,,エムエーエムファーマシー,0
109,1040003024801,新規,0,2024-04-17,2024-04-17,カロリー合同会社,,合同会社,千葉県,船橋市,二和東４丁目９番１号,,12,204,2740805,,,,,,,2024-04-17,1,,,,,カロリー,0
115,1050001054642,新規,0,2024-04-17,2024-04-17,株式会社サイガミ建設工業,,株式会社,茨城県,稲敷市,幸田３８３０番地,,08,229,3000605,,,,,,,2024-04-17,1,,,,,サイガミケンセツコウギョウ,0
116,1050001054650,新規,0,2024-04-17,2024-04-17,株式会社ピックアップ,,株式会社,茨城県,鹿嶋市,大字志崎１２７番地１３,,08,222,3112207,,,,,,,2024-04-17,1,,,,,ピックアップ,0
117,1050003008299,新規,0,2024-04-17,2024-04-17,合同会社タモツバランス,,合同会社,茨城県,つくばみらい市,陽光台１丁目１番地２センチュリーつくばみらい平Ｃ－１４３７,,08,235,3002358,,,,,,,2024-04-17,1,,,,,タモツバランス,0
120,1070001041639,新規,0,2024-04-17,2024-04-17,株式会社ＲＹ商事,,株式会社,群馬県,邑楽郡邑楽町,大字中野３２３０番地１,,10,525,3700603,,,,,,,2024-04-17,1,,,,,アールワイショウジ,0
130,1100001037377,新規,0,2024-04-17,2024-04-17,株式会社ブレーンフォース,,株式会社,長野県,北佐久郡軽井沢町,大字長倉５９４番地６,,20,321,3890111,,,,,,,2024-04-17,1,,,,,,0
131,1100005013168,新規,0,2024-04-17,2024-04-17,一般社団法人ピュア,,その他の設立登記法人,長野県,佐久市,三河田７１番地１,,20,217,3850014,,,,,,,2024-04-17,1,,,,,ピュア,0
135,1110005017085,新規,0,2024-04-17,2024-04-17,一般社団法人彌彦村塾,,その他の設立登記法人,新潟県,新潟市中央区,新光町５番地１千歳ビル５Ｆ,,15,103,9500965,,,,,,,2024-04-17,1,,,,,ヤヒコソンジュク,0
151,1120001264060,新規,0,2024-04-17,2024-04-17,株式会社ホンネ,,株式会社,大阪府,大阪市北区,梅田１丁目２番２号大阪駅第２ビル１２－１２,,27,127,5300001,,,,,,,2024-04-17,1,,,,,ホンネ,0
152,1120001264069,新規,0,2024-04-17,2024-04-17,株式会社ＡＳＴＥＲ,,株式会社,大阪府,大阪市西区,新町１丁目７番３－７０１号,,27,106,5500013,,,,,,,2024-04-17,1,,,,,アスター,0
153,1120001264102,新規,0,2024-04-17,2024-04-17,株式会社ＮＹＲ,,株式会社,大阪府,大阪市西成区,潮路１丁目９－１９久津和ビル２０７,,27,122,5570052,,,,,,,2024-04-17,1,,,,,エヌワイアール,0
154,1120001264119,新規,0,2024-04-17,2024-04-17,日本理化株式会社,,株式会社,大阪府,大阪市北区,長柄中２丁目５番３０号,,27,127,5310062,,,,,,,2024-04-17,1,,,,,ニホンリカ,0
161,1120101069426,新規,0,2024-04-17,2024-04-17,一工芸株式会社,,株式会社,大阪府,岸和田市,包近町５１６番地の２,,27,202,5960101,,,,,,,2024-04-17,1,,,,,ピンコウゲイ,0
165,1120901049040,新規,0,2024-04-17,2024-04-17,株式会社ニューポート,,株式会社,大阪府,豊中市,東寺内町１０－１緑地パークビル３Ｆ,,27,203,5610871,,,,,,,2024-04-17,1,,,,,ニューポート,0
166,1120903005132,新規,0,2024-04-17,2024-04-17,佐野電工合同会社,,合同会社,大阪府,茨木市,西太田町３１番２３号,,27,211,5670015,,,,,,,2024-04-17,1,,,,,サノデンコウ,0
171,1130001076851,新規,0,2024-04-17,2024-04-17,ＣＥＰフードサービス株式会社,,株式会社,京都府,京都市下京区,中堂寺坊城町２８－７,,26,106,6008811,,,,,,,2024-04-17,1,,,,,シーイーピーフードサービス,0
174,1130005017075,新規,0,2024-04-17,2024-04-17,一般社団法人Ｋａｉｇｏラボラトリー,,その他の設立登記法人,京都府,京都市南区,唐橋花園町２８番地８,,26,107,6018465,,,,,,,2024-04-17,1,,,,,カイゴラボラトリー,0
178,1140001133908,新規,0,2024-04-17,2024-04-17,人事の扉株式会社,,株式会社,兵庫県,神戸市中央区,磯辺通１丁目１－１８カサベラ国際プラザビル７０７,,28,110,6510084,,,,,,,2024-04-17,1,,,,,ジンジノトビラ,0
179,1140001134096,新規,0,2024-04-17,2024-04-17,株式会社ＨＭＫ,,株式会社,兵庫県,神戸市兵庫区,菊水町１０丁目３９番地の１４,,28,105,6520058,,,,,,,2024-04-17,1,,,,,エイチエムケー,0
180,1140001134113,新規,0,2024-04-17,2024-04-17,マツモト商事株式会社,,株式会社,兵庫県,神戸市長田区,菅原通４丁目２５,,28,106,6530015,,,,,,,2024-04-17,1,,,,,マツモトショウジ,0
184,1150005009582,新規,0,2024-04-17,2024-04-17,阪奈異業種協同組合,,その他の設立登記法人,奈良県,大和高田市,大字野口１２５番地１,,29,202,6350075,,,,,,,2024-04-17,1,,,,,ハンナイギョウシュ,0
188,1160001025847,新規,0,2024-04-17,2024-04-17,株式会社ＢＲＣ,,株式会社,滋賀県,大津市,萱野浦２４番５０－６０９号,,25,201,5202143,,,,,,,2024-04-17,1,,,,,ビーアールシー,0
189,1170001018098,新規,0,2024-04-17,2024-04-17,株式会社３５８コンサルティング,,株式会社,和歌山県,西牟婁郡白浜町,２３１５番地の２,,30,401,6492211,,,,,,,2024-04-17,1,,,,,サンゴハチコンサルティング,0
190,1170005007080,新規,0,2024-04-17,2024-04-17,特定非営利活動法人きみのゆうき,,その他の設立登記法人,和歌山県,海草郡紀美野町,花野原３６２番地,,30,304,6401203,,,,,,,2024-04-17,1,,,,,キミノユウキ,0
196,1180001160948,新規,0,2024-04-17,2024-04-17,株式会社Ｓｕｐｅｒ　ｎｏｖａ,,株式会社,愛知県,名古屋市中区,栄３丁目３１番８号モリダイヤハイツ栄２０５,,23,106,4600008,,,,,,,2024-04-17,1,,,,,スーパーノヴァ,0
197,1180001160964,新規,0,2024-04-17,2024-04-17,株式会社ワーク・ボンド,,株式会社,愛知県,瀬戸市,みずの坂５丁目１番地の２５,,23,204,4890909,,,,,,,2024-04-17,1,,,,,ワークボンド,0
198,1180001160980,新規,0,2024-04-17,2024-04-17,ｇｄＡｓｓｅｔ株式会社,,株式会社,愛知県,長久手市,根の神６１３番地１,,23,238,4801141,,,,,,,2024-04-17,1,,,,,ジーディーアセット,0
199,1180001161005,新規,0,2024-04-17,2024-04-17,株式会社ＩＫＥＤＡ,,株式会社,愛知県,知多郡武豊町,大字冨貴字新薄里３５番地,,23,447,4702531,,,,,,,2024-04-17,1,,,,,イケダ,0
200,1180001161021,新規,0,2024-04-17,2024-04-17,株式会社ＳａＭｉＡ,,株式会社,愛知県,名古屋市昭和区,広路町字松風園６８番地の７松風園ハウス２０１号,,23,107,4660834,,,,,,,2024-04-17,1,,,,,サミア,0
204,1180301015281,新規,0,2024-04-17,2024-04-17,株式会社角谷組,00134399,株式会社,愛知県,碧南市,久沓町４丁目１４４番地,,23,209,4470065,,,,,,,2024-04-17,1,,,,,スミヤグミ,0
211,1190001031272,新規,0,2024-04-17,2024-04-17,株式会社安室塗装,,株式会社,三重県,四日市市,波木町９７２番地１,,24,202,5100961,,,,,,,2024-04-17,1,,,,,ヤスムロトソウ,0
215,1200003006304,新規,0,2024-04-17,2024-04-17,合同会社ふじ,,合同会社,岐阜県,大垣市,久瀬川町３丁目４０番地,,21,202,5030974,,,,,,,2024-04-17,1,,,,,フジ,0
220,1240001063095,新規,0,2024-04-17,2024-04-17,株式会社ＩＣＨＩＲＹＵ,,株式会社,広島県,安芸郡海田町,月見町９－６５,,34,304,7360034,,,,,,,2024-04-17,1,,,,,イチリュウ,0
222,1240003006630,新規,0,2024-04-17,2024-04-17,シヤフトエンタープライズ合同会社,,合同会社,広島県,広島市西区,中広町３丁目６番２－１号,,34,104,7330012,,,,,,,2024-04-17,1,,,,,シヤフトエンタープライズ,0
223,1240005015761,新規,0,2024-04-17,2024-04-17,行政書士法人岡法務事務所,,その他の設立登記法人,広島県,広島市安芸区,船越南２丁目１８番１８号,,34,107,7360082,,,,,,,2024-04-17,1,,,,,オカホウムジムショ,0
224,1250003003478,新規,0,2024-04-17,2024-04-17,合同会社カテック,,合同会社,山口県,宇部市,大字中山１０３番地１,,35,202,7550058,,,,,,,2024-04-17,1,,,,,カテック,0
232,1290001105396,新規,0,2024-04-17,2024-04-17,株式会社Ｒ・Ｒｅｓｅａｒｃｈ,,株式会社,福岡県,福岡市中央区,天神２丁目７番２１号,,40,133,8100001,,,,,,,2024-04-17,1,,,,,アールリサーチ,0
234,1290005019378,新規,0,2024-04-17,2024-04-17,医療法人ＧＳＧＬ会,,その他の設立登記法人,福岡県,福岡市中央区,六本松２丁目１２番１９号,,40,133,8100044,,,,,,,2024-04-17,1,,,,,ジーエスジーエルカイ,0
236,1300001013671,新規,0,2024-04-17,2024-04-17,株式会社鍋島藩窯百撰,,株式会社,佐賀県,伊万里市,大川内町乙１８２３－２,,41,205,8480025,,,,,,,2024-04-17,1,,,,,ナベシマハンヨウヒャクセン,0
237,1300001013696,新規,0,2024-04-17,2024-04-17,株式会社アクセル,,株式会社,佐賀県,鹿島市,大字高津原３７１５番地１７,,41,207,8491311,,,,,,,2024-04-17,1,,,,,アクセル,0
246,1330003010318,新規,0,2024-04-17,2024-04-17,合同会社Ｂｅｓｔｅｎ　Ｄａｎｋ,,合同会社,熊本県,山鹿市,鹿本町下高橋５８８－２,,43,208,8610316,,,,,,,2024-04-17,1,,,,,ベステンダンク,0
247,1330005010786,新規,0,2024-04-17,2024-04-17,一般社団法人ｈａｇ,,その他の設立登記法人,熊本県,熊本市南区,日吉１丁目１番１１－３０２号,,43,104,8614109,,,,,,,2024-04-17,1,,,,,ハグ,0
254,1360003013895,新規,0,2024-04-17,2024-04-17,合同会社日本走行,,合同会社,沖縄県,那覇市,宇栄原３丁目１８番２号ウエストヒル２１宇栄原７０２,,47,201,9010153,,,,,,,2024-04-17,1,,,,,ニホンソウコウ,0
257,1370001051203,新規,0,2024-04-17,2024-04-17,株式会社バトン,,株式会社,宮城県,仙台市宮城野区,東仙台２丁目１３番６号ロイヤルハイツ２０１,,04,102,9830833,,,,,,,2024-04-17,1,,,,,バトン,0
260,1390003002235,新規,0,2024-04-17,2024-04-17,合同会社光建,,合同会社,山形県,西村山郡河北町,谷地ひな市３丁目９番地の３,,06,321,9993514,,,,,,,2024-04-17,1,,,,,コウケン,0
261,1400001016615,新規,0,2024-04-17,2024-04-17,株式会社東北地域商社,,株式会社,岩手県,一関市,大町４番１１号,,03,209,0210881,,,,,,,2024-04-17,1,,,,,トウホクチイキショウシャ,0
275,1440001009425,新規,0,2024-04-17,2024-04-17,株式会社Ｔ‐ｃｒｅａｔｉｏｎ,,株式会社,北海道,函館市,神山３丁目６番６号,,01,202,0410832,,,,,,,2024-04-17,1,,,,,ティークリエイション,0
278,1470003002631,新規,0,2024-04-17,2024-04-17,合同会社ｍｉｎａｔｏ,,合同会社,香川県,三豊市,詫間町生里５７０番地,,37,208,7691107,,,,,,,2024-04-17,1,,,,,ミナト,0
279,1470005006564,新規,0,2024-04-17,2024-04-17,一般社団法人ＩＴＥＺＡ,,その他の設立登記法人,香川県,高松市,福岡町４丁目２０番８号,,37,201,7600066,,,,,,,2024-04-17,1,,,,,イテザ,0
288,1700150124873,新規,0,2024-04-17,2024-04-17,ＳＨＩＮＥ　ＳＵＲＰＬＵＳ　ＬＩＭＩＴＥＤ,,外国会社等,,,,,,,,中華人民共和国、香港特別行政区、ワンチヤイ、クイーンズロードイースト４３－５９、ドミニオセンター、ルーム６０４－７,,,,,,2024-04-17,1,,,,,シヤインサープラスリミテツド,0
293,2010001243900,新規,0,2024-04-17,2024-04-17,株式会社シャルミー,,株式会社,東京都,中央区,銀座７丁目１３番２０号銀座ＴＨビル９階,,13,102,1040061,,,,,,,2024-04-17,1,,,,,シャルミー,0
294,2010001244031,新規,0,2024-04-17,2024-04-17,スマートテニス株式会社,,株式会社,東京都,中央区,日本橋兜町１７－１日本橋ロイヤルプラザ内７０６,,13,102,1030026,,,,,,,2024-04-17,1,,,,,スマートテニス,0
295,2010001244048,新規,0,2024-04-17,2024-04-17,株式会社ＹＯＯＣ,,株式会社,東京都,中央区,銀座１丁目１６番５号三田ビル８Ｆ,,13,102,1040061,,,,,,,2024-04-17,1,,,,,ヨーク,0
296,2010001244056,新規,0,2024-04-17,2024-04-17,株式会社ＬＸＤ,,株式会社,東京都,千代田区,麹町１丁目４番４号２階,,13,101,1020083,,,,,,,2024-04-17,1,,,,,エルエックスディー,0
297,2010001244072,新規,0,2024-04-17,2024-04-17,アライキャピタルパートナーズ株式会社,,株式会社,東京都,千代田区,神田紺屋町１４番地千代田寿ビル９階,,13,101,1010035,,,,,,,2024-04-17,1,,,,,アライキャピタルパートナーズ,0
298,2010001244089,新規,0,2024-04-17,2024-04-17,Ｂ１０株式会社,,株式会社,東京都,千代田区,丸の内１丁目１１番１号,,13,101,1000005,,,,,,,2024-04-17,1,,,,,ビーテン,0
312,2010401181832,新規,0,2024-04-17,2024-04-17,株式会社クロッシング・ビレッジ,,株式会社,東京都,港区,虎ノ門４丁目１番３４号虎ノ門タワーズレジデンス１６０２,,13,103,1050001,,,,,,,2024-04-17,1,,,,,クロッシングビレッジ,0
313,2010401181865,新規,0,2024-04-17,2024-04-17,桜ノ都．ｋ株式会社,,株式会社,東京都,港区,芝大門１丁目１６番５号,,13,103,1050012,,,,,,,2024-04-17,1,,,,,サクラノミヤコドットケイ,0
322,2010403032439,新規,0,2024-04-17,2024-04-17,Ｎ８６合同会社,,合同会社,東京都,港区,元赤坂１丁目１番８号株式会社赤坂国際会計内,,13,103,1070051,,,,,,,2024-04-17,1,,,,,エヌエイティーシックス,0
326,2010501052124,新規,0,2024-04-17,2024-04-17,株式会社のどぐろ,,株式会社,東京都,台東区,東上野２丁目１１番３号,,13,106,1100015,,,,,,,2024-04-17,1,,,,,ノドグロ,0
327,2010601065034,新規,0,2024-04-17,2024-04-17,創成ブライト株式会社,,株式会社,東京都,江東区,新木場１丁目１１番２号,,13,108,1360082,,,,,,,2024-04-17,1,,,,,ソウセイブライト,0
334,2010803004921,新規,0,2024-04-17,2024-04-17,池田産業安全衛生アドバイザー合同会社,,合同会社,東京都,大田区,田園調布３丁目１３番２０号,,13,111,1450071,,,,,,,2024-04-17,1,,,,,イケダサンギョウアンゼンエイセイアドバイザー,0
336,2010901055073,新規,0,2024-04-17,2024-04-17,株式会社ＴＲＨ,,株式会社,東京都,世田谷区,玉川３丁目１番９号,,13,112,1580094,,,,,,,2024-04-17,1,,,,,ティーアールエイチ,0
337,2010901055098,新規,0,2024-04-17,2024-04-17,Ｃ５株式会社,,株式会社,東京都,世田谷区,弦巻１丁目１番１１－１０６号,,13,112,1540016,,,,,,,2024-04-17,1,,,,,シーファイブ,0
341,2010903008970,新規,0,2024-04-17,2024-04-17,合同会社ＴＨＥ　ＴＥＮ,,合同会社,東京都,世田谷区,北沢４丁目７番１０号デュールドミール１０１,,13,112,1550031,,,,,,,2024-04-17,1,,,,,ザテン,0
347,2011001161150,新規,0,2024-04-17,2024-04-17,株式会社虹ホールディングス,,株式会社,東京都,渋谷区,恵比寿西２丁目４番８号ウィンド恵比寿ビル８Ｆ,,13,113,1500021,,,,,,,2024-04-17,1,,,,,ニジホールディングス,0
348,2011001161365,新規,0,2024-04-17,2024-04-17,株式会社Ｅｕｒｅｋａ　Ｌａｂｏ,,株式会社,東京都,渋谷区,神宮前６丁目２３番４号桑野ビル２階,,13,113,1500001,,,,,,,2024-04-17,1,,,,,エウレカラボ,0
349,2011001161381,新規,0,2024-04-17,2024-04-17,株式会社ルーセント,,株式会社,東京都,渋谷区,桜丘町２７番１号,,13,113,1500031,,,,,,,2024-04-17,1,,,,,ルーセント,0
350,2011001161423,新規,0,2024-04-17,2024-04-17,ｍｏｃｏｍｏｃｏ株式会社,,株式会社,東京都,渋谷区,道玄坂１丁目１０番８号渋谷道玄坂東急ビル２Ｆ－Ｃ,,13,113,1500043,,,,,,,2024-04-17,1,,,,,モコモコ,0
356,2011101107004,新規,0,2024-04-17,2024-04-17,株式会社ＲＹＯ,,株式会社,東京都,新宿区,新宿７丁目２７－４－８０２室ライオンズマンション新宿第２,,13,104,1600022,,,,,,,2024-04-17,1,,,,,アルーワィーオ,0
360,2011301029576,新規,0,2024-04-17,2024-04-17,株式会社達輝商店,,株式会社,東京都,杉並区,上荻４丁目１２番１７号,,13,115,1670043,,,,,,,2024-04-17,1,,,,,タツキショウテン,0
364,2011601027692,新規,0,2024-04-17,2024-04-17,株式会社丸福流通サービス,,株式会社,東京都,練馬区,大泉学園町８丁目２３番７号,,13,120,1780061,,,,,,,2024-04-17,1,,,,,マルフクリュウツウサービス,0
369,2011801044075,新規,0,2024-04-17,2024-04-17,株式会社ループデザイン,,株式会社,東京都,足立区,神明３丁目１番２号,,13,121,1210051,,,,,,,2024-04-17,1,,,,,ループデザイン,0
370,2011801044091,新規,0,2024-04-17,2024-04-17,大唐偉業株式会社,,株式会社,東京都,足立区,千住柳町２５－１－１０１号室,,13,121,1200032,,,,,,,2024-04-17,1,,,,,タイトウイギョウ,0
372,2012401041768,新規,0,2024-04-17,2024-04-17,エムサローネ株式会社,,株式会社,東京都,調布市,染地２丁目４３番地８６,,13,208,1820023,,,,,,,2024-04-17,1,,,,,エムサローネ,0
373,2012703002963,新規,0,2024-04-17,2024-04-17,イーグルサン合同会社,,合同会社,東京都,小平市,花小金井南町１丁目１８番２８－８０２号,,13,211,1870003,,,,,,,2024-04-17,1,,,,,イーグルサン,0
390,2020001156762,新規,0,2024-04-17,2024-04-17,株式会社Ａ．Ｃ．ＧＥＴシステム,,株式会社,神奈川県,横浜市鶴見区,獅子ケ谷１丁目６３番３２号,,14,101,2300073,,,,,,,2024-04-17,1,,,,,エーシーゲットシステム,0
392,2020003025940,新規,0,2024-04-17,2024-04-17,ＣＯＭＭＵＮ合同会社,,合同会社,神奈川県,横浜市鶴見区,江ケ崎町３番１６,,14,101,2300002,,,,,,,2024-04-17,1,,,,,コミュン,0
397,2021001081991,新規,0,2024-04-17,2024-04-17,株式会社秀ファースト,,株式会社,神奈川県,厚木市,愛甲３丁目４番１３号,,14,212,2430035,,,,,,,2024-04-17,1,,,,,シュウファースト,0
415,2030003024108,新規,0,2024-04-17,2024-04-17,合同会社ＮＯＢＬＥＭＡＮ,,合同会社,埼玉県,越谷市,レイクタウン６丁目３５番地１２ロイジェントパークスレイクタウンＩＩＩＫ２１０,00134440,11,222,3430828,,,,,,,2024-04-17,1,,,,,,0
423,2040001133157,新規,0,2024-04-17,2024-04-17,株式会社ＨＯＮＥＳＴ,,株式会社,千葉県,浦安市,明海６丁目１－１１－Ｓ１５０３,,12,227,2790014,,,,,,,2024-04-17,1,,,,,オネスト,0
424,2040001133165,新規,0,2024-04-17,2024-04-17,株式会社未々乃介,,株式会社,千葉県,成田市,公津の杜５丁目２７番地２,,12,211,2860048,,,,,,,2024-04-17,1,,,,,ミミノスケ,0
425,2040001133198,新規,0,2024-04-17,2024-04-17,株式会社ＨＩＲＯＳＯＰＨＹ,,株式会社,千葉県,松戸市,日暮５丁目１９５Ａ号室,,12,207,2702253,,,,,,,2024-04-17,1,,,,,ヒロソフィー,0
428,2040003024800,新規,0,2024-04-17,2024-04-17,合同会社Ｕｔｏ,,合同会社,千葉県,千葉市美浜区,真砂２丁目１４番２－３３５号,,12,106,2610011,,,,,,,2024-04-17,1,,,,,ユートゥ,0
430,2050001054641,新規,0,2024-04-17,2024-04-17,株式会社Ｓ　ＣＡＲＳ　ＪＡＰＡＮ,,株式会社,茨城県,土浦市,右籾２９４１番地１,,08,203,3000837,,,,,,,2024-04-17,1,,,,,エスカーズジャパン,0
435,2070001041646,新規,0,2024-04-17,2024-04-17,株式会社ｉｃ,,株式会社,群馬県,高崎市,寄合町２５番地１アカツキ０２－１Ｆ,,10,202,3700822,,,,,,,2024-04-17,1,,,,,アイシー,0
436,2070001041654,新規,0,2024-04-17,2024-04-17,株式会社ＴＯＰＰＡＴＡ,,株式会社,群馬県,太田市,大原町５１０番地６,,10,205,3792304,,,,,,,2024-04-17,1,,,,,トッパタ,0
437,2070005010259,新規,0,2024-04-17,2024-04-17,一般社団法人ＧＩＳアドバンス,,その他の設立登記法人,群馬県,前橋市,千代田町３丁目７番１０号昇栄千代田ビル２Ｆ,,10,201,3710022,,,,,,,2024-04-17,1,,,,,ジーアイエスアドバンス,0
439,2080101024681,新規,0,2024-04-17,2024-04-17,静神三島株式会社,,株式会社,静岡県,三島市,平田６１番地の３グリーンハイツ１０２号室,,22,206,4110821,,,,,,,2024-04-17,1,,,,,セイシンミシマ,0
441,2090001018667,新規,0,2024-04-17,2024-04-17,ＣＡＧＯＯ株式会社,,株式会社,山梨県,富士吉田市,上吉田４２００番地の３,,19,202,4030005,,,,,,,2024-04-17,1,,,,,カゴウ,0
443,2100001037343,新規,0,2024-04-17,2024-04-17,株式会社ミクロ技研,,株式会社,長野県,諏訪市,高島１丁目２１番１６号,,20,206,3920022,,,,,,,2024-04-17,1,,,,,ミクロギケン,0
444,2100001037376,新規,0,2024-04-17,2024-04-17,株式会社ＮＥＸＵＳ,,株式会社,長野県,長野市,大字東和田３３７番地１,,20,201,3810038,,,,,,,2024-04-17,1,,,,,ネクサス,0
445,2100003007492,新規,0,2024-04-17,2024-04-17,合同会社ＲＡＮＧＥ,,合同会社,長野県,大町市,社４６８２番地５２０サンコーポラス大町１－５０７号室,,20,212,3980003,,,,,,,2024-04-17,1,,,,,レンジ,0
455,2120001264019,新規,0,2024-04-17,2024-04-17,国興商事株式会社,,株式会社,大阪府,大阪市港区,池島２丁目３番１３号１０２室,,27,107,5520015,,,,,,,2024-04-17,1,,,,,コッコウショウジ,0
456,2120001264076,新規,0,2024-04-17,2024-04-17,丸一食品株式会社,,株式会社,大阪府,大阪市浪速区,難波中１丁目８番１５号,,27,111,5560011,,,,,,,2024-04-17,1,,,,,マルイチショクヒン,0
457,2120001264084,新規,0,2024-04-17,2024-04-17,恒立株式会社,,株式会社,大阪府,大阪市大正区,三軒家西３丁目４番１６号中山ビル１０１７,,27,108,5510001,,,,,,,2024-04-17,1,,,,,コウリツ,0
458,2120001264101,新規,0,2024-04-17,2024-04-17,楽通株式会社,,株式会社,大阪府,大阪市浪速区,難波中３丁目４－７サンプラザ難波３０１室,,27,111,5560011,,,,,,,2024-04-17,1,,,,,ラクツウ,0
463,2120003026350,新規,0,2024-04-17,2024-04-17,合同会社ＡＧＯＤＥＬ,,合同会社,大阪府,大阪市浪速区,桜川１丁目４－２５ビューシャルム湊１階,,27,111,5560022,,,,,,,2024-04-17,1,,,,,アゴデル,0
464,2120003026375,新規,0,2024-04-17,2024-04-17,合同会社ＡＲＩＡ,,合同会社,大阪府,大阪市東淀川区,豊里４丁目７番２７－２０４号,,27,114,5330013,,,,,,,2024-04-17,1,,,,,アリア,0
465,2120003026425,新規,0,2024-04-17,2024-04-17,合同会社エイチティ,,合同会社,大阪府,大阪市東成区,東中本２丁目１番３‐１４０４号,,27,115,5370021,,,,,,,2024-04-17,1,,,,,エイチティ,0
469,2120901049048,新規,0,2024-04-17,2024-04-17,Ｇ‐ＯＮＥトランスポート株式会社,,株式会社,大阪府,吹田市,長野東２６番９６号,,27,205,5650816,,,,,,,2024-04-17,1,,,,,ジーワントランスポート,0
471,2120903005131,新規,0,2024-04-17,2024-04-17,合同会社技匠,,合同会社,大阪府,摂津市,鶴野１丁目５番１３号,,27,224,5660035,,,,,,,2024-04-17,1,,,,,ギコウ,0
477,2130001076801,新規,0,2024-04-17,2024-04-17,株式会社鯨松,,株式会社,京都府,京都市中京区,笹屋町４３６永和御池ビル６０６号,,26,104,6040983,,,,,,,2024-04-17,1,,,,,クジラマツ,0
478,2130001076818,新規,0,2024-04-17,2024-04-17,株式会社リコラ,,株式会社,京都府,京都市南区,吉祥院高畑町１番地サニークレスト祥山７０４号,,26,107,6018332,,,,,,,2024-04-17,1,,,,,リコラ,0
481,2130005017074,新規,0,2024-04-17,2024-04-17,医療法人颯香会,,その他の設立登記法人,京都府,京都市伏見区,淀本町１７３番地２７,,26,109,6130903,,,,,,,2024-04-17,1,,,,,ソウコウカイ,0
485,2140001134120,新規,0,2024-04-17,2024-04-17,株式会社松尾学院,,株式会社,兵庫県,姫路市,駅前町２４２番地ＩＭＡＧＥ２１ビル４階,,28,201,6700927,,,,,,,2024-04-17,1,,,,,マツオガクイン,0
487,2150001027208,新規,0,2024-04-17,2024-04-17,株式会社Ｄｏｖｅ　Ｉｎｎｏｖａｔｉｏｎｓ,,株式会社,奈良県,奈良市,学園中４丁目５４０－１０－２１９,,29,201,6310035,,,,,,,2024-04-17,1,,,,,ドーヴイノベーション,0
489,2150005009581,新規,0,2024-04-17,2024-04-17,一般社団法人国際植物療法機構グリーンフォレスト,,その他の設立登記法人,奈良県,桜井市,大字初瀬８８４番地,,29,206,6330112,,,,,,,2024-04-17,1,,,,,コクサイショクブツリョウホウキコウグリーンフォレスト,0
495,2160001025846,新規,0,2024-04-17,2024-04-17,株式会社ホクレア,,株式会社,滋賀県,高島市,マキノ町西浜１１１７番地３７,,25,212,5201812,,,,,,,2024-04-17,1,,,,,ホクレア,0
496,2170001018097,新規,0,2024-04-17,2024-04-17,株式会社吉原工業,,株式会社,和歌山県,有田郡有田川町,大字吉原８１３番地３,,30,366,6430166,,,,,,,2024-04-17,1,,,,,ヨシハラコウギョウ,0
499,2180001160971,新規,0,2024-04-17,2024-04-17,株式会社モルエイト,,株式会社,愛知県,名古屋市中村区,則武２丁目３２－１４ＣＲＥＳＴ３０１号室,,23,105,4530014,,,,,,,2024-04-17,1,,,,,モルエイト,0
504,2180003026634,新規,0,2024-04-17,2024-04-17,合同会社ＪＫ‐ＭＵＳＣＬＥ,,合同会社,愛知県,名古屋市天白区,原２丁目４０４番地（ドミール小出２０２号）,,23,116,4680015,,,,,,,2024-04-17,1,,,,,ジェイケイーマッスル,0
506,2180303006088,新規,0,2024-04-17,2024-04-17,合同会社石原農園,,合同会社,愛知県,岡崎市,保母町字下越地５２番地,,23,202,4440004,,,,,,,2024-04-17,1,,,,,イシハラノウエン,0
507,2190001031271,新規,0,2024-04-17,2024-04-17,株式会社家田外装,,株式会社,三重県,伊勢市,前山町１３５１番地６７,,24,203,5160044,,,,,,,2024-04-17,1,,,,,イエダガイソウ,0
508,2200001042408,新規,0,2024-04-17,2024-04-17,株式会社ポイント,,株式会社,岐阜県,岐阜市,鹿島町７丁目３０番地,,21,201,5008323,,,,,,,2024-04-17,1,,,,,ポイント,0
510,2210001019727,新規,0,2024-04-17,2024-04-17,株式会社Ｎオフィス,,株式会社,福井県,敦賀市,谷２５号１番１,,18,202,9140031,,,,,,,2024-04-17,1,,,,,エヌオフィス,0
511,2220001025947,新規,0,2024-04-17,2024-04-17,株式会社Ｂｅｌｌｅ　ｍｅｒ,,株式会社,石川県,金沢市,竪町１０山岸ビル２Ｆ,,17,201,9200997,,,,,,,2024-04-17,1,,,,,ベルメール,0
512,2230001020303,新規,0,2024-04-17,2024-04-17,Ｍａｓｔｅｒ　Ｐａｒｔ’ｓ株式会社,,株式会社,富山県,射水市,堀岡古明神１３７番地１１,,16,211,9330224,,,,,,,2024-04-17,1,,,,,マスターパーツ,0
514,2240001063086,新規,0,2024-04-17,2024-04-17,株式会社春日野企画,,株式会社,広島県,広島市中区,江波南２丁目１１番３０号,,34,101,7300835,,,,,,,2024-04-17,1,,,,,カスガノキカク,0
515,2250001020615,新規,0,2024-04-17,2024-04-17,株式会社ｃｏｐａｎ,,株式会社,山口県,下関市,一の宮町１丁目４番２７－２０３号,,35,201,7510806,,,,,,,2024-04-17,1,,,,,コパン,0
516,2250003003477,新規,0,2024-04-17,2024-04-17,合同会社ｔａｔｔｅ,,合同会社,山口県,下松市,楠木町１丁目１７番２９号,,35,207,7440029,,,,,,,2024-04-17,1,,,,,タッテ,0
532,2290001105404,新規,0,2024-04-17,2024-04-17,株式会社ティーコネクト,,株式会社,福岡県,大野城市,御笠川６丁目２番５号,,40,219,8160912,,,,,,,2024-04-17,1,,,,,ティーコネクト,0
533,2290003015171,新規,0,2024-04-17,2024-04-17,合同会社Ｕｐ＆Ｃｏｍｉｎｇ,,合同会社,福岡県,飯塚市,菰田６４４－５,,40,205,8200015,,,,,,,2024-04-17,1,,,,,アップアンドカミング,0
534,2290803004695,新規,0,2024-04-17,2024-04-17,豊前ため池太陽光発電合同会社,,合同会社,福岡県,豊前市,大字大村１１５０番,,40,214,8280066,,,,,,,2024-04-17,1,,,,,ブゼンタメイケタイヨウコウハツデン,0
536,2310001018958,新規,0,2024-04-17,2024-04-17,株式会社ｋｏｗｋｉｌａｂ,,株式会社,長崎県,松浦市,志佐町高野免９５６番地７,,42,208,8594503,,,,,,,2024-04-17,1,,,,,コウキラボ,0
537,2330001031975,新規,0,2024-04-17,2024-04-17,株式会社レプラコーン,,株式会社,熊本県,熊本市中央区,新大江１丁目７－４７－２０２,,43,101,8620972,,,,,,,2024-04-17,1,,,,,レプラコーン,0
539,2340003004433,新規,0,2024-04-17,2024-04-17,合同会社ＮｅｏＬａｎｄ,,合同会社,鹿児島県,南九州市,川辺町小野２５９番地４,,46,223,8970213,,,,,,,2024-04-17,1,,,,,ネオランド,0
540,2340003004441,新規,0,2024-04-17,2024-04-17,ワールドウィン合同会社,,合同会社,鹿児島県,南九州市,知覧町東別府９６０６番地,,46,223,8970304,,,,,,,2024-04-17,1,,,,,ワールドウィン,0
542,2350005006229,新規,0,2024-04-17,2024-04-17,一般社団法人じりつの会,,その他の設立登記法人,宮崎県,宮崎市,花山手東１丁目２４番地３,,45,201,8800930,,,,,,,2024-04-17,1,,,,,ジリツノカイ,0
553,2410005006577,新規,0,2024-04-17,2024-04-17,一般社団法人すまいる．Ｐｒｏ,,その他の設立登記法人,秋田県,秋田市,豊岩小山字神田２４番地,,05,201,0101653,,,,,,,2024-04-17,1,,,,,スマイルドットプロ,0
560,2430005014966,新規,0,2024-04-17,2024-04-17,一般社団法人北海道ランバイク協会,,その他の設立登記法人,北海道,札幌市南区,常盤一条２丁目２１番１号,,01,106,0050851,,,,,,,2024-04-17,1,,,,,ホッカイドウランバイクキョウカイ,0
561,2440001009424,新規,0,2024-04-17,2024-04-17,株式会社海の暖暖,,株式会社,北海道,函館市,大船町８３２番地２,,01,202,0411622,,,,,,,2024-04-17,1,,,,,ウミノダンダン,0
563,2450001014290,新規,0,2024-04-17,2024-04-17,株式会社くすのきコミュニケーション,,株式会社,北海道,旭川市,末広四条９丁目７番１７号,,01,204,0718134,,,,,,,2024-04-17,1,,,,,クスノキコミュニケーション,0
568,2700150124872,新規,0,2024-04-17,2024-04-17,常州秦富百貨集団有限責任公司　日本駐在員事務所,,外国会社等,東京都,新宿区,大久保１丁目２－１天翔東新宿ビル４階４０２号室,,13,104,1690072,９５－９７　Ｗｅｓｔ　Ｙａｎｌｉｎｇ　Ｒｏａｄ，Ｚｈｏｎｇｌｏｕ　Ｄｉｓｔｒｉｃｔ，Ｃｈａｎｇｚｈｏｕ，Ｊｉａｎｇｓｕ，Ｃｈｉｎａ，２１３１０３,,,,,,2024-04-17,1,,,,,ジヨウシユウシンフヒヤツカシユウダンユウゲンセキニンコウシニホンチユウザイインジムシヨ,0
575,3010001244039,新規,0,2024-04-17,2024-04-17,ベストチョイス株式会社,,株式会社,東京都,千代田区,神田松永町１３番地ＶＯＲＴ秋葉原ＩＩ,00134438,13,101,1010023,,,,,,,2024-04-17,1,,,,,ベストチョイス,0
576,3010001244047,新規,0,2024-04-17,2024-04-17,株式会社ＥＮＤＰＯＩＮＴ,,株式会社,東京都,中央区,八丁堀２丁目１６番８号ＧＲＡＮＰＡＳＥＯ八丁堀４０２号,,13,102,1040032,,,,,,,2024-04-17,1,,,,,エンドポイント,0
577,3010001244063,新規,0,2024-04-17,2024-04-17,Ａｃｅｍａｒｋ株式会社,,株式会社,東京都,中央区,晴海１丁目６－１－１９０７,,13,102,1040053,,,,,,,2024-04-17,1,,,,,エースマーク,0
578,3010001244071,新規,0,2024-04-17,2024-04-17,株式会社エムケイシー,,株式会社,東京都,文京区,湯島３丁目２４番４号,,13,105,1130034,,,,,,,2024-04-17,1,,,,,エムケイシー,0
580,3010003043488,新規,0,2024-04-17,2024-04-17,合同会社ＩＳ,,合同会社,東京都,中央区,銀座１丁目１２番４号Ｎ＆Ｅ．ＢＬＤ．７階,,13,102,1040061,,,,,,,2024-04-17,1,,,,,アイエス,0
581,3010003043496,新規,0,2024-04-17,2024-04-17,Ｒｅｄｕｃａｔｉｏｎ合同会社,,合同会社,東京都,中央区,銀座１丁目２２番１１号銀座大竹ビジデンス２階,,13,102,1040061,,,,,,,2024-04-17,1,,,,,リデュケーション,0
582,3010005038180,新規,0,2024-04-17,2024-04-17,弁護士法人井手国際特許法律事務所,,その他の設立登記法人,東京都,千代田区,平河町１丁目３番１３号,,13,101,1020093,,,,,,,2024-04-17,1,,,,,イデコクサイトッキョホウリツジムショ,0
583,3010005038189,新規,0,2024-04-17,2024-04-17,一般社団法人ジュガール,,その他の設立登記法人,東京都,文京区,本郷３丁目３０番１０号,,13,105,1130033,,,,,,,2024-04-17,1,,,,,ジュガール,0
584,3010005038197,新規,0,2024-04-17,2024-04-17,厚木ＩＩＩデベロップメント一般社団法人,,その他の設立登記法人,東京都,千代田区,霞が関３丁目２番５号,,13,101,1000013,,,,,,,2024-04-17,1,,,,,アツギスリーデベロップメント,0
588,3010401181831,新規,0,2024-04-17,2024-04-17,株式会社ＭＯＯＯＤ,,株式会社,東京都,港区,六本木７丁目７番１３－２５０４号,,13,103,1060032,,,,,,,2024-04-17,1,,,,,ムード,0
589,3010401181906,新規,0,2024-04-17,2024-04-17,株式会社ＥＶｅｒＭｅｄ,,株式会社,東京都,港区,西新橋３丁目２５番８号学校法人慈恵大学東京慈恵会医科大学内,,13,103,1050003,,,,,,,2024-04-17,1,,,,,エバメド,0
592,3010403032421,新規,0,2024-04-17,2024-04-17,Ｈ＆Ｈアセット合同会社,,合同会社,東京都,港区,麻布台１丁目３番２－６４０１号,,13,103,1060041,,,,,,,2024-04-17,1,,,,,エイチアンドエイチアセット,0
596,3010501052123,新規,0,2024-04-17,2024-04-17,株式会社ＲＥＩＩＴＲ,,株式会社,東京都,台東区,上野３丁目１４番２号ＵｅｎｏＹｏｕｒ２ｎｄ３０５号室,,13,106,1100005,,,,,,,2024-04-17,1,,,,,レイター,0
600,3010601065000,新規,0,2024-04-17,2024-04-17,株式会社ＭＲＳ,,株式会社,東京都,江東区,東陽４丁目５番９号４階,,13,108,1350016,,,,,,,2024-04-17,1,,,,,エムアールエス,0
605,3010801034969,新規,0,2024-04-17,2024-04-17,株式会社Ｄｏｉｎｇ　Ｇｏｏｄ,,株式会社,東京都,大田区,鵜の木１丁目２－７－３１０,,13,111,1460091,,,,,,,2024-04-17,1,,,,,ドゥインググッド,0
606,3010801034985,新規,0,2024-04-17,2024-04-17,株式会社あいおさ,,株式会社,東京都,大田区,東嶺町９－１１メゾンアベニール１０１,,13,111,1450074,,,,,,,2024-04-17,1,,,,,アイオサ,0
607,3010803004920,新規,0,2024-04-17,2024-04-17,プランソレイユ合同会社,,合同会社,東京都,大田区,羽田１丁目１８番１－３０６号,,13,111,1440043,,,,,,,2024-04-17,1,,,,,プランソレイユ,0
613,3010901055080,新規,0,2024-04-17,2024-04-17,株式会社ｂｓｂｆ,,株式会社,東京都,世田谷区,駒沢１丁目１７番１７号真成ビル７Ｆ,,13,112,1540012,,,,,,,2024-04-17,1,,,,,ビーエスビーエフ,0
616,3010903008978,新規,0,2024-04-17,2024-04-17,合同会社スタイリッシュメーカー,,合同会社,東京都,世田谷区,池尻２丁目１０番３号リュクスシティー池尻大橋１０１号室,,13,112,1540001,,,,,,,2024-04-17,1,,,,,スタイリッシュメーカー,0
619,3011001161356,新規,0,2024-04-17,2024-04-17,Ｉｃｏｎ　Ｃａｐｉｔａｌ株式会社,,株式会社,東京都,渋谷区,桜丘町１８－４二宮ビル１Ｆ－５６,,13,113,1500031,,,,,,,2024-04-17,1,,,,,アイコンキャピタル,0
620,3011001161389,新規,0,2024-04-17,2024-04-17,株式会社ＣＨＩＢＡ,,株式会社,東京都,渋谷区,東３丁目２４番９号サンイーストビル８０２,,13,113,1500011,,,,,,,2024-04-17,1,,,,,チバ,0
621,3011001161397,新規,0,2024-04-17,2024-04-17,株式会社ＰＥＲＩＯＤＯＳ,,株式会社,東京都,渋谷区,千駄ヶ谷４丁目５番１号,,13,113,1510051,,,,,,,2024-04-17,1,,,,,ピリオド,0
622,3011001161447,新規,0,2024-04-17,2024-04-17,株式会社ＳＡＮ,,株式会社,東京都,渋谷区,神宮前４丁目１６番１０号ｃ．ｃｏｌｏｒビル神宮前地下１階,,13,113,1500001,,,,,,,2024-04-17,1,,,,,サン,0
624,3011003018950,新規,0,2024-04-17,2024-04-17,合同会社落語推進協議会,,合同会社,東京都,渋谷区,代々木２丁目１９番１２号唐沢第２ビル２０１号,,13,113,1510053,,,,,,,2024-04-17,1,,,,,ラクゴスイシンキョウギカイ,0
629,3011101106970,新規,0,2024-04-17,2024-04-17,株式会社キットモットホールディングス,,株式会社,東京都,新宿区,高田馬場１丁目３０番１４号,,13,104,1690075,,,,,,,2024-04-17,1,,,,,キットモットホールディングス,0
630,3011101107011,新規,0,2024-04-17,2024-04-17,株式会社ニヒツ,,株式会社,東京都,新宿区,西新宿３丁目３番１３号西新宿水間ビル２Ｆ,,13,104,1600023,,,,,,,2024-04-17,1,,,,,ニヒツ,0
632,3011103014321,新規,0,2024-04-17,2024-04-17,Ｉｒｏｎｉｃａｌ　ＰＡＲＡＤＯＸ合同会社,,合同会社,東京都,新宿区,市谷長延寺町６番地矢野ハイツ１０２,,13,104,1620847,,,,,,,2024-04-17,1,,,,,アイロニカルパラドックス,0
634,3011205002595,新規,0,2024-04-17,2024-04-17,特定非営利活動法人学生起業大学,,その他の設立登記法人,東京都,中野区,新井２丁目３４番１１号,,13,114,1650026,,,,,,,2024-04-17,1,,,,,ガクセイキギョウダイガク,0
643,3011503006034,新規,0,2024-04-17,2024-04-17,キア・プロパティ合同会社,,合同会社,東京都,荒川区,西尾久２丁目３０番８号,,13,118,1160011,,,,,,,2024-04-17,1,,,,,キアプロパティ,0
650,3012401041767,新規,0,2024-04-17,2024-04-17,株式会社丸伍企画,,株式会社,東京都,武蔵野市,中町１丁目２５番１０号川鍋ビル２０１,,13,203,1800006,,,,,,,2024-04-17,1,,,,,マルゴキカク,0
652,3012403006520,新規,0,2024-04-17,2024-04-17,合同会社ＦＵＮｄｒｏｐ　Ｍｕｓｉｃ,,合同会社,東京都,武蔵野市,吉祥寺本町２丁目８番４号ｉ‐ｏｆｆｉｃｅ吉祥寺,,13,203,1800004,,,,,,,2024-04-17,1,,,,,ファンドロップミュージック,0
658,3020001156745,新規,0,2024-04-17,2024-04-17,株式会社エヌテック,,株式会社,神奈川県,横浜市旭区,上川井町１６３番地１５,,14,112,2410802,,,,,,,2024-04-17,1,,,,,エヌテック,0
659,3020001156761,新規,0,2024-04-17,2024-04-17,株式会社リノン,,株式会社,神奈川県,川崎市多摩区,菅仙谷３丁目１番２０－４０５号,,14,135,2140006,,,,,,,2024-04-17,1,,,,,リノン,0
662,3020003025948,新規,0,2024-04-17,2024-04-17,合同会社ＭＹＪＤ,,合同会社,神奈川県,横浜市戸塚区,前田町５１７番地２９,,14,110,2440804,,,,,,,2024-04-17,1,,,,,エムワイジェイディ,0
663,3020003025989,新規,0,2024-04-17,2024-04-17,合同会社ウルトレーヤ,,合同会社,神奈川県,横浜市戸塚区,平戸４丁目２９―６,,14,110,2440802,,,,,,,2024-04-17,1,,,,,ウルトレーヤ,0
670,3021001081933,新規,0,2024-04-17,2024-04-17,ＨＹＪ株式会社,,株式会社,神奈川県,相模原市南区,鵜野森１丁目３０番３－８１４号,,14,153,2520301,,,,,,,2024-04-17,1,,,,,エイチワイジェイ,0
671,3021001081958,新規,0,2024-04-17,2024-04-17,株式会社Ｗｉｌｄ　Ｇｏｏｓｅ　Ｃｈａｓｅ,,株式会社,神奈川県,足柄下郡箱根町,仙石原５２４―１０,,14,382,2500631,,,,,,,2024-04-17,1,,,,,ワイルドグースチェイス,0
672,3021001081990,新規,0,2024-04-17,2024-04-17,東州国際株式会社,,株式会社,神奈川県,相模原市南区,鵜野森２丁目３－３８,,14,153,2520301,,,,,,,2024-04-17,1,,,,,トウシュウコクサイ,0
676,3021003014379,新規,0,2024-04-17,2024-04-17,合同会社ＰＯＮＯ,,合同会社,神奈川県,藤沢市,大鋸１丁目４番２８号興和ガーデンヒルズ１Ｆ,,14,205,2510002,,,,,,,2024-04-17,1,,,,,ポノ,0
677,3021003014387,新規,0,2024-04-17,2024-04-17,合同会社ホテルビジョンコンサルティング,,合同会社,神奈川県,小田原市,東町５丁目１番４７号,,14,206,2500003,,,,,,,2024-04-17,1,,,,,ホテルビジョンコンサルティング,0
681,3030001159821,新規,0,2024-04-17,2024-04-17,株式会社ＳＵＧＵＲＵ商会,,株式会社,埼玉県,朝霞市,宮戸３丁目９番３９号,,11,227,3510031,,,,,,,2024-04-17,1,,,,,スグルショウカイ,0
692,3040001133057,新規,0,2024-04-17,2024-04-17,株式会社Ｒｅｓｉｌｉｅｎｃｅ,,株式会社,千葉県,松戸市,和名ケ谷９８５番地の４ウィズ松戸陽だまりの丘１２１４号,,12,207,2702232,,,,,,,2024-04-17,1,,,,,レジリエンス,0
693,3040001133164,新規,0,2024-04-17,2024-04-17,株式会社リバティ,,株式会社,千葉県,市川市,欠真間２丁目１４－５－１０５,,12,203,2720142,,,,,,,2024-04-17,1,,,,,リバティ,0
694,3040001133206,新規,0,2024-04-17,2024-04-17,Ｓｋｙ　Ｇｌｏｂａｌ　Ｌｏｇｉｓｔｉｃｓ　Ｓｅｒｖｉｃｅｓ　Ｊａｐａｎ株式会社,,株式会社,千葉県,佐倉市,城内町１２３番地１９城内町貸家,,12,212,2850017,,,,,,,2024-04-17,1,,,,,スカイグローバルロジスティクスサービスジャパン,0
699,3050005013436,新規,0,2024-04-17,2024-04-17,一般社団法人ウエルフェア,,その他の設立登記法人,茨城県,稲敷市,下太田６２５番地,,08,229,3001424,,,,,,,2024-04-17,1,,,,,ウエルフェア,0
702,3070001041620,新規,0,2024-04-17,2024-04-17,株式会社ミヤシロフード,,株式会社,群馬県,邑楽郡大泉町,坂田３丁目１０番１１号,,10,524,3700532,,,,,,,2024-04-17,1,,,,,ミヤシロフード,0
703,3070001041645,新規,0,2024-04-17,2024-04-17,ＳＴＳ株式会社,,株式会社,群馬県,前橋市,西大室町２４４７番地３,,10,201,3792104,,,,,,,2024-04-17,1,,,,,エスティーエス,0
705,3070003005367,新規,0,2024-04-17,2024-04-17,合同会社Ｔ３０,,合同会社,群馬県,館林市,松原１丁目２１番１０－４０１号,,10,207,3740016,,,,,,,2024-04-17,1,,,,,ティーサーティー,0
710,3080103003039,新規,0,2024-04-17,2024-04-17,合同会社甲子苑,,合同会社,静岡県,賀茂郡東伊豆町,奈良本９６６番地の６,,22,301,4130302,,,,,,,2024-04-17,1,,,,,コウシエン,0
717,3100001037375,新規,0,2024-04-17,2024-04-17,株式会社ＢＬＩＳＳ,,株式会社,長野県,長野市,大字稲葉日詰沖１４２７番地１,,20,201,3800912,,,,,,,2024-04-17,1,,,,,ブリス,0
729,3120001264125,新規,0,2024-04-17,2024-04-17,株式会社スジン,,株式会社,大阪府,大阪市西区,新町１丁目３１番３－７０１号,,27,106,5500013,,,,,,,2024-04-17,1,,,,,スジン,0
730,3120001264190,新規,0,2024-04-17,2024-04-17,株式会社ＢＬＥＳＳ,,株式会社,大阪府,大阪市中央区,北久宝寺町１丁目２－９－３０６,,27,128,5410057,,,,,,,2024-04-17,1,,,,,ブレス,0
736,3120005024277,新規,0,2024-04-17,2024-04-17,司法書士法人成田法務事務所,,その他の設立登記法人,大阪府,大阪市中央区,谷町２丁目２番２０号,,27,128,5400012,,,,,,,2024-04-17,1,,,,,ナリタホウムジムショ,0
739,3120101069440,新規,0,2024-04-17,2024-04-17,二条興産株式会社,,株式会社,大阪府,堺市堺区,三条通１番２号,,27,141,5900046,,,,,,,2024-04-17,1,,,,,ニジョウコウサン,0
746,3120901049039,新規,0,2024-04-17,2024-04-17,ブリックレジャパンホイール＆キャスター株式会社,,株式会社,大阪府,箕面市,船場西２丁目１番１号,,27,220,5620036,,,,,,,2024-04-17,1,,,,,ブリックレジャパンホイールアンドキャスター,0
748,3122001038021,新規,0,2024-04-17,2024-04-17,Ｍ＆Ｍネクストソリューション株式会社,,株式会社,大阪府,東大阪市,荒本１丁目２番３２号,,27,227,5770023,,,,,,,2024-04-17,1,,,,,エムアンドエムネクストソリューション,0
749,3122003002859,新規,0,2024-04-17,2024-04-17,合同会社Ｋ‐オート,,合同会社,大阪府,四條畷市,岡山３丁目１－１１,,27,229,5750002,,,,,,,2024-04-17,1,,,,,ケーオート,0
754,3130001076858,新規,0,2024-04-17,2024-04-17,ＲＥｌｕｓｈ株式会社,,株式会社,京都府,京都市中京区,三条通烏丸西入御倉町６８－１プリオール烏丸三条２０１号,,26,104,6048166,,,,,,,2024-04-17,1,,,,,リラッシュ,0
755,3130003009460,新規,0,2024-04-17,2024-04-17,合同会社ＵＥ,,合同会社,京都府,京都市東山区,弁財天町１９,,26,105,6050086,,,,,,,2024-04-17,1,,,,,ユーイー,0
760,3140001134086,新規,0,2024-04-17,2024-04-17,株式会社ＢＭＣ　ＣＯＲＰＯＲＡＴＩＯＮ,,株式会社,兵庫県,神戸市中央区,中山手通２丁目１５番１３号サンシャイン山手３０７,,28,110,6500004,,,,,,,2024-04-17,1,,,,,ビーエムシーコーポレーション,0
761,3140001134094,新規,0,2024-04-17,2024-04-17,ＲＯＣＫＥＴＢＯＯＳＴ株式会社,,株式会社,兵庫県,神戸市中央区,磯上通８丁目１－２９カサベラビルＣ＆Ｍ４０３号室,,28,110,6510086,,,,,,,2024-04-17,1,,,,,ロケットブースト,0
766,3140003020433,新規,0,2024-04-17,2024-04-17,合同会社ＨＡＬ,,合同会社,兵庫県,宝塚市,中山台２丁目２１番７号,,28,214,6650876,,,,,,,2024-04-17,1,,,,,ハル,0
771,3160003003171,新規,0,2024-04-17,2024-04-17,合同会社井上不動産,,合同会社,滋賀県,草津市,野路東５丁目８番１３号,,25,206,5250058,,,,,,,2024-04-17,1,,,,,イノウエフドウサン,0
778,3180003026609,新規,0,2024-04-17,2024-04-17,合同会社リベルティ,,合同会社,愛知県,一宮市,笹野字山屋鋪３５番地１,,23,203,4910131,,,,,,,2024-04-17,1,,,,,,0
779,3180003026658,新規,0,2024-04-17,2024-04-17,共一合同会社,,合同会社,愛知県,名古屋市天白区,野並２丁目３０８番地（レジデンス野並２０３）,,23,116,4680045,,,,,,,2024-04-17,1,,,,,キョウイチ,0
781,3180303006087,新規,0,2024-04-17,2024-04-17,ＫＭＹ合同会社,,合同会社,愛知県,刈谷市,小垣江町弁天３８番地４,,23,210,4480813,,,,,,,2024-04-17,1,,,,,ケーエムワイ,0
788,3190001031287,新規,0,2024-04-17,2024-04-17,株式会社リンド,,株式会社,三重県,四日市市,諏訪栄町７番１７号,,24,202,5100086,,,,,,,2024-04-17,1,,,,,リンド,0
789,3200001042415,新規,0,2024-04-17,2024-04-17,株式会社ＳＹＮＫＳ,,株式会社,岐阜県,岐阜市,野一色２丁目５番地１５,,21,201,5008226,,,,,,,2024-04-17,1,,,,,シンクス,0
790,3210001019726,新規,0,2024-04-17,2024-04-17,株式会社Ｆ．Ｔ．Ｔ,,株式会社,福井県,福井市,若杉町第２５号４番地ラフィーネヤシロ北３０５,,18,201,9188055,,,,,,,2024-04-17,1,,,,,エフティティ,0
795,3240003006629,新規,0,2024-04-17,2024-04-17,合同会社平田恒産,,合同会社,広島県,安芸郡海田町,南幸町１０番２１－２０１号,,34,304,7360032,,,,,,,2024-04-17,1,,,,,ヒラタコウサン,0
814,3290001105361,新規,0,2024-04-17,2024-04-17,株式会社テラツアー,,株式会社,福岡県,福岡市東区,千早２丁目３５番１０号－２０５,,40,131,8130044,,,,,,,2024-04-17,1,,,,,テラツアー,0
815,3290001105403,新規,0,2024-04-17,2024-04-17,ジーラント株式会社,,株式会社,福岡県,久留米市,宮ノ陣４丁目２４番３０号,,40,203,8390801,,,,,,,2024-04-17,1,,,,,ジーラント,0
816,3290003015179,新規,0,2024-04-17,2024-04-17,合同会社スバル,,合同会社,福岡県,福岡市南区,折立町８－１７－１０１,,40,134,8111303,,,,,,,2024-04-17,1,,,,,スバル,0
822,3310001018957,新規,0,2024-04-17,2024-04-17,インタレスト商事株式会社,,株式会社,長崎県,佐世保市,白岳町１５０９－３４日宇ヶ丘タウンＩＩＩ１００－Ｈ,00134442,42,202,8571164,,,,,,,2024-04-17,1,,,,,インタレストショウジ,0
829,3340001026445,新規,0,2024-04-17,2024-04-17,青羽電気株式会社,,株式会社,鹿児島県,鹿児島市,下荒田２丁目６番１３号,,46,201,8900056,,,,,,,2024-04-17,1,,,,,アオバデンキ,0
831,3340003004440,新規,0,2024-04-17,2024-04-17,合同会社ｓｏｒａ,,合同会社,鹿児島県,鹿児島市,郡元町６番１０号たーちハウス５０７号,,46,201,8900084,,,,,,,2024-04-17,1,,,,,ソラ,0
840,3360005007027,新規,0,2024-04-17,2024-04-17,医療法人慶翔会,,その他の設立登記法人,沖縄県,国頭郡本部町,字渡久地８４６番地１,,47,308,9050214,,,,,,,2024-04-17,1,,,,,ケイショウカイ,0
841,3370001051201,新規,0,2024-04-17,2024-04-17,株式会社ＳＨＩＢＵＵＳ,,株式会社,宮城県,仙台市青葉区,錦ケ丘２丁目７番地の５,,04,101,9893123,,,,,,,2024-04-17,1,,,,,シブアス,0
859,3430001091570,新規,0,2024-04-17,2024-04-17,株式会社Ｔａｋｅ　ｉｔ,,株式会社,北海道,札幌市西区,西町北６丁目１番１９号,,01,107,0630061,,,,,,,2024-04-17,1,,,,,テイクイット,0
860,3430001091579,新規,0,2024-04-17,2024-04-17,株式会社ケーズパワー,,株式会社,北海道,北広島市,大曲並木２丁目６番地３６,,01,234,0611279,,,,,,,2024-04-17,1,,,,,ケーズパワー,0
861,3430001091595,新規,0,2024-04-17,2024-04-17,株式会社ニーナ,,株式会社,北海道,札幌市豊平区,月寒東四条９丁目２番１－２１５号,,01,105,0620054,,,,,,,2024-04-17,1,,,,,ニーナ,0
867,3470005006562,新規,0,2024-04-17,2024-04-17,一般社団法人ことり,,その他の設立登記法人,香川県,高松市,瓦町２丁目７番地１４フォルテ瓦町駅前ビル５階,,37,201,7600052,,,,,,,2024-04-17,1,,,,,コトリ,0
876,4010001243849,新規,0,2024-04-17,2024-04-17,株式会社ＧＬＯＶＡＬＵＥ　ＷＡＹ,,株式会社,東京都,中央区,銀座１丁目１２－４Ｎ＆ＥＢＬＤ．７階,,13,102,1040061,,,,,,,2024-04-17,1,,,,,グローバリューウェイ,0
877,4010001244038,新規,0,2024-04-17,2024-04-17,ＷＥＬＬＶＹ株式会社,,株式会社,東京都,中央区,銀座１丁目１２－４Ｎ＆ＥＢＬＤ．７階,,13,102,1040061,,,,,,,2024-04-17,1,,,,,ウェルビー,0
878,4010001244137,新規,0,2024-04-17,2024-04-17,ＩｎｔｅｌｌｉＰｒｏ　Ｊａｐａｎ株式会社,,株式会社,東京都,千代田区,大手町１丁目６番１号大手町ビル１Ｆ－３Ｆ・Ｓｐａｃｅｓ大手町,,13,101,1000004,,,,,,,2024-04-17,1,,,,,インテリプロジャパン,0
881,4010003043504,新規,0,2024-04-17,2024-04-17,合同会社ホンマイアジア,,合同会社,東京都,中央区,入船１丁目９番８号ピエノアーク入船１階,,13,102,1040042,,,,,,,2024-04-17,1,,,,,ホンマイアジア,0
883,4010005038122,新規,0,2024-04-17,2024-04-17,一般社団法人日本集中治療推進機構,,その他の設立登記法人,東京都,文京区,本郷２丁目１５番１３号,,13,105,1130033,,,,,,,2024-04-17,1,,,,,ニホンシュウチュウチリョウスイシンキコウ,0
884,4010005038139,新規,0,2024-04-17,2024-04-17,一般社団法人エコシステム社会機構,,その他の設立登記法人,東京都,千代田区,神田駿河台４丁目３番地,,13,101,1010062,,,,,,,2024-04-17,1,,,,,エコシステムシャカイキコウ,0
885,4010101016089,新規,0,2024-04-17,2024-04-17,宏盛株式会社,,株式会社,東京都,八王子市,大塚７８３－５帝京マンション３０５,,13,201,1920352,,,,,,,2024-04-17,1,,,,,コウセイ,0
889,4010401181830,新規,0,2024-04-17,2024-04-17,株式会社ＮＥＸＵＳ　ＤＬ．,,株式会社,東京都,港区,虎ノ門３丁目２番２号虎ノ門３０森ビル,,13,103,1050001,,,,,,,2024-04-17,1,,,,,ネクサスディーエルドット,0
890,4010401181863,新規,0,2024-04-17,2024-04-17,株式会社わんこ,,株式会社,東京都,港区,浜松町２丁目１２番１４号竹内ビル１階,,13,103,1050013,,,,,,,2024-04-17,1,,,,,ワンコ,0
891,4010401181871,新規,0,2024-04-17,2024-04-17,日本医療ＬＬＭ株式会社,,株式会社,東京都,港区,南麻布４丁目１１番２号ホーマットバージニア４０５号,,13,103,1060047,,,,,,,2024-04-17,1,,,,,ニホンイリョウエルエルエム,0
892,4010401181896,新規,0,2024-04-17,2024-04-17,ＧＣＪＩ１２株式会社,,株式会社,東京都,港区,元赤坂１丁目１番８号株式会社赤坂国際会計内,,13,103,1070051,,,,,,,2024-04-17,1,,,,,ジーシージェイアイトゥエルブ,0
894,4010501052106,新規,0,2024-04-17,2024-04-17,株式会社きずなグループ勇,,株式会社,東京都,台東区,柳橋２丁目１４番２－３０４号,,13,106,1110052,,,,,,,2024-04-17,1,,,,,キズナグループユウ,0
895,4010501052122,新規,0,2024-04-17,2024-04-17,株式会社イノヴィート,,株式会社,東京都,台東区,北上野２丁目３番４－５０１号ＲＥＬＵＸＩＡ上野,,13,106,1100014,,,,,,,2024-04-17,1,,,,,イノヴィート,0
897,4010503007413,新規,0,2024-04-17,2024-04-17,ｔｒｉｍ合同会社,,合同会社,東京都,台東区,浅草１丁目１３－５,,13,106,1110032,,,,,,,2024-04-17,1,,,,,トリム,0
906,4010701045784,新規,0,2024-04-17,2024-04-17,光コーポレーション株式会社,,株式会社,東京都,品川区,北品川６丁目６番１４号ＢＥＬＩＳＴＡ御殿山１０５,,13,109,1410001,,,,,,,2024-04-17,1,,,,,ヒカリコーポレーション,0
907,4010701045826,新規,0,2024-04-17,2024-04-17,株式会社Ｄｏｗｅｌｌ,,株式会社,東京都,品川区,西五反田１丁目２６番２号五反田サンハイツ９１１,,13,109,1410031,,,,,,,2024-04-17,1,,,,,ドゥーウェル,0
908,4010801034968,新規,0,2024-04-17,2024-04-17,株式会社インヴィータ,,株式会社,東京都,大田区,池上６丁目１８番４－１０１号,,13,111,1460082,,,,,,,2024-04-17,1,,,,,インヴィータ,0
909,4010801034976,新規,0,2024-04-17,2024-04-17,クレアス・リーベル株式会社,,株式会社,東京都,大田区,大森中２丁目１５番５号ダイヤモンドビル大森中Ｔ２０４号室,,13,111,1430014,,,,,,,2024-04-17,1,,,,,クレアスリーベル,0
912,4010905004611,新規,0,2024-04-17,2024-04-17,一般社団法人ＨＥＡＶＥＮＥＳＥ後援会,,その他の設立登記法人,東京都,世田谷区,給田３丁目１６番１６号,,13,112,1570064,,,,,,,2024-04-17,1,,,,,ヘヴニーズコウエンカイ,0
918,4011001161314,新規,0,2024-04-17,2024-04-17,株式会社ハングオーバー,,株式会社,東京都,渋谷区,道玄坂１丁目１０番８号渋谷道玄坂東急ビル２Ｆ－Ｃ,,13,113,1500043,,,,,,,2024-04-17,1,,,,,ハングオーバー,0
919,4011001161355,新規,0,2024-04-17,2024-04-17,ライバーバード株式会社,,株式会社,東京都,目黒区,下目黒１丁目１番１４号コノトラビル７Ｆ,,13,110,1530064,,,,,,,2024-04-17,1,,,,,ライバーバード,0
925,4011003018958,新規,0,2024-04-17,2024-04-17,合同会社ニコと,,合同会社,東京都,目黒区,八雲５丁目１０番２２号グリーンヒル駒沢公園３０５,,13,110,1520023,,,,,,,2024-04-17,1,,,,,ニコト,0
926,4011003018990,新規,0,2024-04-17,2024-04-17,ＣＯＵＭＡ合同会社,,合同会社,東京都,渋谷区,道玄坂１丁目１０番８号渋谷道玄坂東急ビル２Ｆ―Ｃ,,13,113,1500043,,,,,,,2024-04-17,1,,,,,クーマ,0
929,4011101106945,新規,0,2024-04-17,2024-04-17,株式会社Ｍラボ,,株式会社,東京都,新宿区,大京町２２番地３,,13,104,1600015,,,,,,,2024-04-17,1,,,,,エムラボ,0
930,4011101106978,新規,0,2024-04-17,2024-04-17,株式会社ＴＯＹＡＭＡ,,株式会社,東京都,新宿区,西新宿３丁目５番３－４１６号,,13,104,1600023,,,,,,,2024-04-17,1,,,,,トヤマ,0
931,4011101106986,新規,0,2024-04-17,2024-04-17,株式会社ＡＬＬ　ＳＫＩＮ,,株式会社,東京都,新宿区,新宿６丁目２７番２９－９０３号,,13,104,1600022,,,,,,,2024-04-17,1,,,,,オールスキン,0
932,4011101107010,新規,0,2024-04-17,2024-04-17,グリットコーチング・ジャパン株式会社,,株式会社,東京都,新宿区,西新宿７丁目４番７号第一太田ビル５階,,13,104,1600023,,,,,,,2024-04-17,1,,,,,グリットコーチングジャパン,0
935,4011203004361,新規,0,2024-04-17,2024-04-17,合同会社こみちコンサルティング,,合同会社,東京都,中野区,中野５丁目２４番１８号クロス・スクエアＮＡＫＡＮＯ６０２,,13,114,1640001,,,,,,,2024-04-17,1,,,,,コミチコンサルティング,0
939,4011701027203,新規,0,2024-04-17,2024-04-17,株式会社ＴＥＡＭＭＡＴＥ,,株式会社,東京都,江戸川区,上篠崎２丁目４番２０－３０２号,,13,123,1330054,,,,,,,2024-04-17,1,,,,,チームメイト,0
945,4012401041766,新規,0,2024-04-17,2024-04-17,株式会社ワイシー府中南部,,株式会社,東京都,府中市,片町２丁目８番４号,,13,206,1830021,,,,,,,2024-04-17,1,,,,,ワイシーフチュウナンブ,0
947,4012801023117,新規,0,2024-04-17,2024-04-17,株式会社アルファ,,株式会社,東京都,立川市,曙町２丁目２番２２号,,13,202,1900012,,,,,,,2024-04-17,1,,,,,アルファ,0
949,4020001156653,新規,0,2024-04-17,2024-04-17,株式会社Ｗｏｏｆｉｎｉｔｙ,,株式会社,神奈川県,横浜市都筑区,早渕１丁目２－５－２０１,,14,118,2240025,,,,,,,2024-04-17,1,,,,,ウーフィニティー,0
956,4021001082022,新規,0,2024-04-17,2024-04-17,湘南フアロ株式会社,,株式会社,神奈川県,藤沢市,辻堂６丁目２番２号,,14,205,2510047,,,,,,,2024-04-17,1,,,,,ショウナンフアロ,0
958,4030001159787,新規,0,2024-04-17,2024-04-17,株式会社Ｌｏｖｉｎｇ　Ｃａｔｓ,,株式会社,埼玉県,加須市,大門町６番２０号,,11,210,3470068,,,,,,,2024-04-17,1,,,,,ラヴィングキャッツ,0
964,4030005021646,新規,0,2024-04-17,2024-04-17,一般社団法人アイエブリィ,,その他の設立登記法人,埼玉県,吉川市,中央１丁目１３番地９,,11,243,3420061,,,,,,,2024-04-17,1,,,,,アイエブリィ,0
966,4040001133163,新規,0,2024-04-17,2024-04-17,株式会社澤田赤外線建物診断,,株式会社,千葉県,銚子市,南町１１番地の３,,12,202,2880038,,,,,,,2024-04-17,1,,,,,サワダセキガイセンタテモノシンダン,0
967,4040001133205,新規,0,2024-04-17,2024-04-17,日創株式会社,,株式会社,千葉県,松戸市,小金上総町８番地の１６,,12,207,2700015,,,,,,,2024-04-17,1,,,,,ニッソウ,0
972,4040003024765,新規,0,2024-04-17,2024-04-17,Ｄａｎｇｈｏｐ合同会社,,合同会社,千葉県,八千代市,八千代台東１丁目２番地１７－１Ｆ,,12,221,2760032,,,,,,,2024-04-17,1,,,,,ダンホプ,0
984,4050003008296,新規,0,2024-04-17,2024-04-17,合同会社円,,合同会社,茨城県,日立市,南高野町３丁目１５番１０号,,08,202,3191224,,,,,,,2024-04-17,1,,,,,ツブラ,0
985,4050005013435,新規,0,2024-04-17,2024-04-17,医療法人社団慈英会,,その他の設立登記法人,茨城県,神栖市,知手３０６１番地１０１,,08,232,3140115,,,,,,,2024-04-17,1,,,,,ジエイカイ,0
991,4080003003170,新規,0,2024-04-17,2024-04-17,しあわせ住宅工房合同会社,,合同会社,静岡県,静岡市葵区,牧ケ谷５３―１,,22,101,4211221,,,,,,,2024-04-17,1,,,,,シアワセジュウタクコウボウ,0
993,4090001018657,新規,0,2024-04-17,2024-04-17,ＴＡＮＡＹＡ　ＪＥＷＥＬ株式会社,,株式会社,山梨県,甲府市,小瀬町３１８番地１０,,19,201,4000836,,,,,,,2024-04-17,1,,,,,タナヤジュエル,0
1010,4120001264082,新規,0,2024-04-17,2024-04-17,株式会社９２３２,,株式会社,大阪府,大阪市西区,新町１丁目３４番２０号ノーブルスクエア新町３０１号室,,27,106,5500013,,,,,,,2024-04-17,1,,,,,クニミツ,0
1011,4120001264157,新規,0,2024-04-17,2024-04-17,株式会社エイトライト,,株式会社,大阪府,大阪市北区,梅田１丁目２－２大阪駅前第二ビル１２－１２,,27,127,5300001,,,,,,,2024-04-17,1,,,,,エイトライト,0
1012,4120001264165,新規,0,2024-04-17,2024-04-17,Ｗｈａｔ　Ｔｉｍｅ株式会社,,株式会社,大阪府,守口市,八雲西町１丁目４０番１－５０７号,,27,209,5700006,,,,,,,2024-04-17,1,,,,,ワッタイム,0
1016,4120901049046,新規,0,2024-04-17,2024-04-17,ナカニワ株式会社,,株式会社,大阪府,箕面市,桜ケ丘２丁目９番１号,,27,220,5620046,,,,,,,2024-04-17,1,,,,,ナカニワ,0
1018,4122001038012,新規,0,2024-04-17,2024-04-17,株式会社Ｋ２技建,,株式会社,大阪府,東大阪市,瓢箪山町１４番４号,,27,227,5798051,,,,,,,2024-04-17,1,,,,,ケーツーギケン,0
1024,4130001076799,新規,0,2024-04-17,2024-04-17,株式会社ＷＦＦＭＳＴ,,株式会社,京都府,南丹市,園部町南大谷野口４番地,,26,213,6220059,,,,,,,2024-04-17,1,,,,,ワフマスト,0
1025,4130001076832,新規,0,2024-04-17,2024-04-17,京都オルゴール株式会社,,株式会社,京都府,京都市中京区,烏丸通二条下る秋野々町５１８番地,,26,104,6040847,,,,,,,2024-04-17,1,,,,,キョウトオルゴール,0
1026,4130001076840,新規,0,2024-04-17,2024-04-17,大有株式会社,,株式会社,京都府,京都市西京区,嵐山中尾下町２０番地２７－３０５室,,26,111,6160004,,,,,,,2024-04-17,1,,,,,ダイユウ,0
1027,4130001076865,新規,0,2024-04-17,2024-04-17,株式会社サンオーシー,,株式会社,京都府,京都市伏見区,桃山町西尾３７番地５０３号,,26,109,6128003,,,,,,,2024-04-17,1,,,,,サンオーシー,0
1034,4140001134077,新規,0,2024-04-17,2024-04-17,ＳＨＩＧＥＯＫＡ株式会社,,株式会社,兵庫県,神戸市須磨区,竜が台５丁目１９番地１０１号,,28,107,6540141,,,,,,,2024-04-17,1,,,,,シゲオカ,0
1035,4140001134085,新規,0,2024-04-17,2024-04-17,株式会社７０’ｓＢＡＳＥ,,株式会社,兵庫県,神戸市北区,泉台３丁目２番地の６,,28,109,6511141,,,,,,,2024-04-17,1,,,,,ナナゼロズベース,0
1040,4160001025852,新規,0,2024-04-17,2024-04-17,株式会社Ｍｉｔｈｅｎａ,,株式会社,滋賀県,甲賀市,水口町和野１１８２番地,,25,209,5280003,,,,,,,2024-04-17,1,,,,,ミゼナ,0
1045,4180001160994,新規,0,2024-04-17,2024-04-17,株式会社Ｙｓプラス,,株式会社,愛知県,名古屋市西区,城西５丁目２６番３号,,23,104,4510031,,,,,,,2024-04-17,1,,,,,ワイズプラス,0
1048,4180003026616,新規,0,2024-04-17,2024-04-17,トリムール合同会社,,合同会社,愛知県,名古屋市千種区,東山元町６丁目９番地の２パルシオ東山元町３０２号,,23,101,4640804,,,,,,,2024-04-17,1,,,,,トリムール,0
1049,4180003026632,新規,0,2024-04-17,2024-04-17,合同会社Ｃａｌｍ,,合同会社,愛知県,名古屋市港区,佐野町２丁目１番地,,23,111,4550042,,,,,,,2024-04-17,1,,,,,カーム,0
1050,4180303006086,新規,0,2024-04-17,2024-04-17,合同会社メゾリーナ,,合同会社,愛知県,岡崎市,明大寺町字大圦１番地３７,,23,202,4440865,,,,,,,2024-04-17,1,,,,,メゾリーナ,0
1051,4190001031278,新規,0,2024-04-17,2024-04-17,ＵＮＯホールディングス株式会社,,株式会社,三重県,松阪市,大津町１６０７番地の１,,24,204,5150031,,,,,,,2024-04-17,1,,,,,ウノホールディングス,0
1052,4200001042397,新規,0,2024-04-17,2024-04-17,株式会社フラットフィールド,,株式会社,岐阜県,海津市,南濃町羽沢３０１番地３,,21,221,5030413,,,,,,,2024-04-17,1,,,,,フラットフィールド,0
1053,4200001042406,新規,0,2024-04-17,2024-04-17,株式会社ＹＮカンパニー,,株式会社,岐阜県,羽島市,下中町加賀野井５１８番地,,21,209,5016313,,,,,,,2024-04-17,1,,,,,ワイエヌカンパニー,0
1054,4200005013601,新規,0,2024-04-17,2024-04-17,医療法人Ｈ＆Ｆ　ｓｉｎｃｅｒｅ,,その他の設立登記法人,岐阜県,関市,西木戸町２０番地,,21,205,5013233,,,,,,,2024-04-17,1,,,,,エイチアンドエフシンシア,0
1059,4220001025945,新規,0,2024-04-17,2024-04-17,株式会社ＣＰＲ,,株式会社,石川県,白山市,青葉台２丁目６７番地,,17,210,9240819,,,,,,,2024-04-17,1,,,,,シーピーアール,0
1070,4260001038968,新規,0,2024-04-17,2024-04-17,株式会社志栄工業,,株式会社,岡山県,倉敷市,児島塩生１８９２番地４,,33,202,7110934,,,,,,,2024-04-17,1,,,,,シエイコウギョウ,0
1075,4270005005591,新規,0,2024-04-17,2024-04-17,一般社団法人とまりぎ,,その他の設立登記法人,鳥取県,日野郡日南町,霞６８２番地,,31,401,6895212,,,,,,,2024-04-17,1,,,,,トマリギ,0
1082,4290001105369,新規,0,2024-04-17,2024-04-17,株式会社ＳＨＩ,,株式会社,福岡県,福岡市西区,石丸２丁目４３番３－３０５号ステラオリンピア,,40,135,8190025,,,,,,,2024-04-17,1,,,,,エスエイチアイ,0
1083,4290001105393,新規,0,2024-04-17,2024-04-17,株式会社エイドビート,,株式会社,福岡県,福岡市東区,千早４丁目１３番１５号,,40,131,8130044,,,,,,,2024-04-17,1,,,,,エイドビート,0
1084,4290003015178,新規,0,2024-04-17,2024-04-17,合同会社くるめ企画,,合同会社,福岡県,久留米市,日吉町１－１アーバンパレス７０２号,,40,203,8300017,,,,,,,2024-04-17,1,,,,,クルメキカク,0
1087,4290801030502,新規,0,2024-04-17,2024-04-17,株式会社希工業,,株式会社,福岡県,遠賀郡水巻町,吉田東５丁目４番５号,,40,382,8070045,,,,,,,2024-04-17,1,,,,,ノゾミコウギョウ,0
1107,4350003004620,新規,0,2024-04-17,2024-04-17,合同会社内山工房,,合同会社,宮崎県,延岡市,永池町１丁目５番地１延岡参番館１００２,,45,203,8820843,,,,,,,2024-04-17,1,,,,,ウチヤマコウボウ,0
1108,4360001033521,新規,0,2024-04-17,2024-04-17,株式会社ｓｔｕｄｉｏ　ｒｕｃｏｌａ,,株式会社,沖縄県,中頭郡西原町,字棚原５２－６０２,,47,329,9030126,,,,,,,2024-04-17,1,,,,,スタジオルッコラ,0
1109,4360001033538,新規,0,2024-04-17,2024-04-17,株式会社智円堂,,株式会社,沖縄県,島尻郡南風原町,字与那覇４８－３－３０１室,,47,350,9011103,,,,,,,2024-04-17,1,,,,,チエンドウ,0
1115,4370001051183,新規,0,2024-04-17,2024-04-17,南嶺株式会社,,株式会社,宮城県,仙台市青葉区,上杉１丁目１５－３３えるえる上杉ビル３０１,,04,101,9800011,,,,,,,2024-04-17,1,,,,,ナンレイ,0
1116,4370001051191,新規,0,2024-04-17,2024-04-17,株式会社ＯＮＥ,,株式会社,宮城県,大崎市,古川西館３丁目４番１５号,,04,215,9896156,,,,,,,2024-04-17,1,,,,,ワン,0
1119,4370003006557,新規,0,2024-04-17,2024-04-17,Ｌｙｃｏｒｉａｓ合同会社,,合同会社,宮城県,名取市,愛の杜１丁目２０番地の８,,04,207,9811230,,,,,,,2024-04-17,1,,,,,リコリアス,0
1120,4370003006573,新規,0,2024-04-17,2024-04-17,合同会社ｕｎｉｔｅ,,合同会社,宮城県,仙台市青葉区,上杉３丁目３番４６号ヴォロンテ上杉１０３,,04,101,9800011,,,,,,,2024-04-17,1,,,,,ユナイト,0
1128,4410005006575,新規,0,2024-04-17,2024-04-17,特定非営利活動法人幸せサポートいろどり,,その他の設立登記法人,秋田県,鹿角市,十和田末広字下屋布５７番地４,,05,209,0185337,,,,,,,2024-04-17,1,,,,,シアワセサポートイロドリ,0
1133,4430001091586,新規,0,2024-04-17,2024-04-17,株式会社マキノ工業,,株式会社,北海道,苫小牧市,大成町２丁目４番６号,,01,213,0530806,,,,,,,2024-04-17,1,,,,,マキノコウギョウ,0
1134,4440001009422,新規,0,2024-04-17,2024-04-17,株式会社ＧＫｆａｒｍ,,株式会社,北海道,亀田郡七飯町,字中野３０番地８,,01,337,0411131,,,,,,,2024-04-17,1,,,,,ジーケーファーム,0
1135,4440003001583,新規,0,2024-04-17,2024-04-17,合同会社ＡＹホールディングス,,合同会社,北海道,亀田郡七飯町,大川８丁目１３番８号,,01,337,0411122,,,,,,,2024-04-17,1,,,,,エーワイホールディングス,0
1136,4450001014289,新規,0,2024-04-17,2024-04-17,株式会社ソライロ,,株式会社,北海道,旭川市,旭町二条１１丁目１２８番地２１４,,01,204,0700832,,,,,,,2024-04-17,1,,,,,ソライロ,0
1138,4470001020137,新規,0,2024-04-17,2024-04-17,株式会社おおた左官,,株式会社,香川県,三豊市,豊中町笠田笠岡３１５６番地３,,37,208,7691502,,,,,,,2024-04-17,1,,,,,オオタサカン,0
1149,4700150124912,新規,0,2024-04-17,2024-04-17,ＪＥＲＡ健康保険組合,,その他,東京都,中央区,日本橋２丁目５－１,,13,102,1030027,,,,,,,2024-04-17,1,,,,,ジェラケンコウホケンクミアイ,0
1158,5010001244037,新規,0,2024-04-17,2024-04-17,Ｔ．Ｔ．Ｃホールディングス株式会社,,株式会社,東京都,千代田区,丸の内２丁目７番２号ＪＰタワー１４階,,13,101,1000005,,,,,,,2024-04-17,1,,,,,ティーティーシーホールディングス,0
1159,5010001244045,新規,0,2024-04-17,2024-04-17,株式会社Ｗｉｓｈ,,株式会社,東京都,中央区,銀座７丁目３番１３号,,13,102,1040061,,,,,,,2024-04-17,1,,,,,ウィッシュ,0
1160,5010001244053,新規,0,2024-04-17,2024-04-17,ＧＲＩＴ　ＪＡＰＡＮ株式会社,,株式会社,東京都,中央区,銀座２丁目１２－４ＡＧＩＬＩＡＧＩＮＺＡＪ’ｓ３０２,,13,102,1040061,,,,,,,2024-04-17,1,,,,,,0
1161,5010001244086,新規,0,2024-04-17,2024-04-17,Ｔｏｐ　Ｓｃｅｎｔ株式会社,,株式会社,東京都,中央区,築地３丁目７番２号築地スカイビル６Ｆ,,13,102,1040045,,,,,,,2024-04-17,1,,,,,トップセント,0
1163,5010003043494,新規,0,2024-04-17,2024-04-17,ギグズ・カンパニー合同会社,,合同会社,東京都,中央区,勝どき６丁目５番６号－８１３号,,13,102,1040054,,,,,,,2024-04-17,1,,,,,ギグズカンパニー,0
1164,5010003043503,新規,0,2024-04-17,2024-04-17,合同会社Ｉｍｐｅｒｉａｌ　Ｅｄｕｃａｔｉｏｎ,,合同会社,東京都,中央区,銀座１丁目２２番１１号銀座大竹ビジデンス２Ｆ,,13,102,1040061,,,,,,,2024-04-17,1,,,,,インペリアルエデュケーション,0
1170,5010401181838,新規,0,2024-04-17,2024-04-17,Ｏｆｆｉｃｅ　Ｎａｋａｍｕｒａ株式会社,,株式会社,東京都,港区,麻布台３丁目４番７号秀和狸穴レジデンス４０２,,13,103,1060041,,,,,,,2024-04-17,1,,,,,オフィスナカムラ,0
1171,5010401181846,新規,0,2024-04-17,2024-04-17,株式会社バーズ,,株式会社,東京都,港区,北青山１丁目３番１号アールキューブ青山３階,,13,103,1070061,,,,,,,2024-04-17,1,,,,,バーズ,0
1173,5010403032378,新規,0,2024-04-17,2024-04-17,合同会社オフィス舞ＬＩＦＥ,,合同会社,東京都,港区,南青山７丁目５番１４－３０５号,,13,103,1070062,,,,,,,2024-04-17,1,,,,,,0
1181,5010701045817,新規,0,2024-04-17,2024-04-17,株式会社ＹＳＫＮ,,株式会社,東京都,品川区,東五反田５丁目２６番６号６０２号室,,13,109,1410022,,,,,,,2024-04-17,1,,,,,ワイエスケイエヌ,0
1182,5010703007138,新規,0,2024-04-17,2024-04-17,合同会社ＳＥＥＤＳ,,合同会社,東京都,品川区,東五反田２丁目１０番１－２５１６号,,13,109,1410022,,,,,,,2024-04-17,1,,,,,シーズ,0
1184,5010801034959,新規,0,2024-04-17,2024-04-17,株式会社Ａｃｒｅｄｉｔｏ,,株式会社,東京都,大田区,東馬込１丁目４４－１０ＣＯＮＴＥＬＭＡＧＯＭＥ１０１,,13,111,1430022,,,,,,,2024-04-17,1,,,,,アクレジト,0
1185,5010803004919,新規,0,2024-04-17,2024-04-17,合同会社ＨＡＷＫ,,合同会社,東京都,大田区,西糀谷１丁目８番３－３０６号,,13,111,1440034,,,,,,,2024-04-17,1,,,,,ホーク,0
1186,5010803004927,新規,0,2024-04-17,2024-04-17,合同会社ＴＥＮＮ,,合同会社,東京都,大田区,西糀谷３丁目２０－７村義荘２０１,,13,111,1440034,,,,,,,2024-04-17,1,,,,,テン,0
1187,5010901055070,新規,0,2024-04-17,2024-04-17,株式会社Ｉｎｆｉｎｉｔｙ,,株式会社,東京都,世田谷区,等々力４丁目１３番１８号,,13,112,1580082,,,,,,,2024-04-17,1,,,,,インフィニティー,0
1188,5010901055079,新規,0,2024-04-17,2024-04-17,コンスト株式会社,,株式会社,東京都,世田谷区,瀬田３丁目１１番６号,,13,112,1580095,,,,,,,2024-04-17,1,,,,,コンスト,0
1198,5011001161305,新規,0,2024-04-17,2024-04-17,ｂｏｏｍｂｏｘ　Ｊａｐａｎ株式会社,,株式会社,東京都,渋谷区,東１丁目２９－３,,13,113,1500011,,,,,,,2024-04-17,1,,,,,ブームボックスジャパン,0
1199,5011001161370,新規,0,2024-04-17,2024-04-17,Ｍｉｎｄ　Ｅｙｅ株式会社,,株式会社,東京都,渋谷区,渋谷２丁目１９－１５宮益坂ビルディング６０９,,13,113,1500002,,,,,,,2024-04-17,1,,,,,マインドアイ,0
1200,5011001161404,新規,0,2024-04-17,2024-04-17,株式会社ＤＭＢ,,株式会社,東京都,目黒区,下目黒１丁目８番１号アルコタワー７階,,13,110,1530064,,,,,,,2024-04-17,1,,,,,ディーエムビー,0
1201,5011003018981,新規,0,2024-04-17,2024-04-17,合同会社ＡＣ　Ｃａｐｉｔａｌ,,合同会社,東京都,目黒区,下目黒１丁目１番１４号コノトラビル７Ｆ,,13,110,1530064,,,,,,,2024-04-17,1,,,,,エイシーキャピタル,0
1209,5011103014328,新規,0,2024-04-17,2024-04-17,合同会社ｆｒａｍｅｗｏｒｋｓｙｓｔｅｍ,,合同会社,東京都,新宿区,西新宿６丁目１２番６－５０６号,,13,104,1600023,,,,,,,2024-04-17,1,,,,,フレームワークシステム,0
1220,5011801044072,新規,0,2024-04-17,2024-04-17,ＸＪ　Ｔｅｃｈ株式会社,,株式会社,東京都,足立区,新田３丁目２９番１－７０８号,,13,121,1230865,,,,,,,2024-04-17,1,,,,,エックスジェイテク,0
1223,5011803006186,新規,0,2024-04-17,2024-04-17,合同会社ＦＡＴＥ,,合同会社,東京都,足立区,梅島１丁目７番１０号,,13,121,1210816,,,,,,,2024-04-17,1,,,,,フェイト,0
1224,5012401041773,新規,0,2024-04-17,2024-04-17,株式会社ブーム,,株式会社,東京都,狛江市,東和泉３丁目７番２８号エスポワール２０２号,,13,219,2010014,,,,,,,2024-04-17,1,,,,,ブーム,0
1229,5013303007094,新規,0,2024-04-17,2024-04-17,Ｅａｇｌｅ　Ｃｈｉｅｎ合同会社,,合同会社,東京都,豊島区,池袋２丁目７２番９号武谷ビル３０１号室,,13,116,1710014,,,,,,,2024-04-17,1,,,,,イーグルチェン,0
1237,5020001156751,新規,0,2024-04-17,2024-04-17,Ｐｒｏｐｅｒｔｙ　Ｊａｐａｎ株式会社,,株式会社,神奈川県,横浜市神奈川区,旭ケ丘１８番１８号,,14,102,2210814,,,,,,,2024-04-17,1,,,,,プロパティジャパン,0
1238,5020003025946,新規,0,2024-04-17,2024-04-17,ＨＡＲ　ｅｓｔａｔｅ合同会社,,合同会社,神奈川県,横浜市中区,根岸町２丁目８５番地５ハートビートベース横濱根岸２３６号室,,14,104,2310836,,,,,,,2024-04-17,1,,,,,ハルエステイト,0
1239,5020003025987,新規,0,2024-04-17,2024-04-17,ＡＭＰ合同会社,,合同会社,神奈川県,川崎市宮前区,土橋１丁目２番地６芙蓉アクティス宮前平４０１,,14,136,2160005,,,,,,,2024-04-17,1,,,,,アンプ,0
1240,5020005016381,新規,0,2024-04-17,2024-04-17,一般社団法人日本華人ポーカー協会,,その他の設立登記法人,神奈川県,横浜市中区,伊勢佐木町２丁目６６番地満利屋ビル４階,,14,104,2310045,,,,,,,2024-04-17,1,,,,,,0
1252,5021003014360,新規,0,2024-04-17,2024-04-17,合同会社光栄カンパニー,,合同会社,神奈川県,伊勢原市,高森１丁目１０番地の３ガーラ・サントク１・１０２号,,14,214,2591114,,,,,,,2024-04-17,1,,,,,コウエイカンパニー,0
1253,5030001159869,新規,0,2024-04-17,2024-04-17,株式会社Ｒ．Ｌ,,株式会社,埼玉県,川口市,戸塚南２丁目２０番１５号,,11,203,3330817,,,,,,,2024-04-17,1,,,,,アールドットエル,0
1254,5030001159910,新規,0,2024-04-17,2024-04-17,ＨＴ　ＧＲＯＵＰ株式会社,,株式会社,埼玉県,川口市,西川口１丁目３３番８号平山閣３街,,11,203,3320021,,,,,,,2024-04-17,1,,,,,エイチティグループ,0
1261,5040001133229,新規,0,2024-04-17,2024-04-17,株式会社Ｅｎｃｈａｎｔ,,株式会社,千葉県,鎌ケ谷市,東鎌ケ谷３丁目２３番１７―２９号,,12,224,2730104,,,,,,,2024-04-17,1,,,,,エンチャント,0
1269,5050001054647,新規,0,2024-04-17,2024-04-17,株式会社ＮＡＧＯＭＩ,,株式会社,茨城県,古河市,東牛谷３７１番地４,,08,204,3060232,,,,,,,2024-04-17,1,,,,,ナゴミ,0
1276,5070001041643,新規,0,2024-04-17,2024-04-17,株式会社博,,株式会社,群馬県,藤岡市,中栗須４番地３９,,10,209,3750015,,,,,,,2024-04-17,1,,,,,ヒロ,0
1281,5070003005373,新規,0,2024-04-17,2024-04-17,ＭＲ．ＧＭ　ＴＲＡＤＩＮＧ合同会社,,合同会社,群馬県,太田市,新田多村新田町１３８番地５３,,10,205,3700305,,,,,,,2024-04-17,1,,,,,ミスタージーエムトレーディング,0
1290,5090001018656,新規,0,2024-04-17,2024-04-17,株式会社ＡＮＣＨＯＲ,,株式会社,山梨県,甲府市,丸の内１丁目１６番２０－１９０６号,,19,201,4000031,,,,,,,2024-04-17,1,,,,,アンカー,0
1308,5120001264123,新規,0,2024-04-17,2024-04-17,株式会社リディム,,株式会社,大阪府,大阪市西区,南堀江３丁目１３番９号,,27,106,5500015,,,,,,,2024-04-17,1,,,,,リディム,0
1309,5120001264189,新規,0,2024-04-17,2024-04-17,株式会社ニーズ,,株式会社,大阪府,大阪市中央区,東心斎橋１丁目７番１６号,,27,128,5420083,,,,,,,2024-04-17,1,,,,,ニーズ,0
1311,5120003026372,新規,0,2024-04-17,2024-04-17,合同会社光,,合同会社,大阪府,大阪市西淀川区,姫島５丁目８－２２,,27,113,5550033,,,,,,,2024-04-17,1,,,,,ヒカリ,0
1312,5120003026380,新規,0,2024-04-17,2024-04-17,芳賀商事合同会社,,合同会社,大阪府,大阪市中央区,南船場３丁目２番２２号おおきに南船場ビル２０５,,27,128,5420081,,,,,,,2024-04-17,1,,,,,ハガショウジ,0
1313,5120003026389,新規,0,2024-04-17,2024-04-17,ＭＡＲＹＡＭ　ＪＡＰＡＮ合同会社,,合同会社,大阪府,枚方市,宮之阪３丁目６番２８号,,27,210,5730022,,,,,,,2024-04-17,1,,,,,マリアムジャパン,0
1318,5120901049037,新規,0,2024-04-17,2024-04-17,アールジェ・カンパニー株式会社,,株式会社,大阪府,高槻市,柱本６丁目４－１,,27,207,5690844,,,,,,,2024-04-17,1,,,,,アールジェカンパニー,0
1319,5120903005129,新規,0,2024-04-17,2024-04-17,合同会社ｄａｓｓｔｙｗｏｒｋｓ,,合同会社,大阪府,豊中市,山ノ上町１２番１６号,,27,203,5610892,,,,,,,2024-04-17,1,,,,,ダスティワークス,0
1320,5122001038011,新規,0,2024-04-17,2024-04-17,株式会社ＰＡＲＫ,,株式会社,大阪府,東大阪市,菱屋西６丁目７番２－１００１号,,27,227,5770807,,,,,,,2024-04-17,1,,,,,パーク,0
1324,5130001076807,新規,0,2024-04-17,2024-04-17,ＣＲＯＳＳ　ＣＲＥＡＴＥ株式会社,,株式会社,京都府,城陽市,寺田今堀１５０番地の２４,,26,207,6100121,,,,,,,2024-04-17,1,,,,,クロスクリエイト,0
1328,5140001134068,新規,0,2024-04-17,2024-04-17,株式会社Ｍ・Ｔ・Ｃ,,株式会社,兵庫県,尼崎市,南塚口町７丁目１８番２号,,28,202,6610012,,,,,,,2024-04-17,1,,,,,エムティーシー,0
1329,5140001134076,新規,0,2024-04-17,2024-04-17,株式会社ＢＯＮＤ,,株式会社,兵庫県,西宮市,上ケ原山田町４番１７号,,28,204,6620886,,,,,,,2024-04-17,1,,,,,ボンド,0
1330,5140001134084,新規,0,2024-04-17,2024-04-17,株式会社烏賊Ｓｔｙｌｅ,,株式会社,兵庫県,三木市,吉川町長谷２２７番地,,28,215,6731127,,,,,,,2024-04-17,1,,,,,イカスタイル,0
1331,5140001134092,新規,0,2024-04-17,2024-04-17,株式会社ブロビス,,株式会社,兵庫県,尼崎市,常光寺１丁目１４番９号,,28,202,6600811,,,,,,,2024-04-17,1,,,,,ブロビス,0
1335,5140003020423,新規,0,2024-04-17,2024-04-17,ＴＮｃｏｍｐａｎｙ合同会社,,合同会社,兵庫県,西宮市,樋之池町２７番５３－５０１号,,28,204,6620084,,,,,,,2024-04-17,1,,,,,ティーエヌカンパニー,0
1340,5150003003229,新規,0,2024-04-17,2024-04-17,合同会社学校組織開発ラボ,,合同会社,奈良県,生駒市,白庭台４丁目１０番１―６０６号,,29,209,6300136,,,,,,,2024-04-17,1,,,,,ガッコウソシキカイハツラボ,0
1341,5160005011303,新規,0,2024-04-17,2024-04-17,一般社団法人滋賀県中小企業家同友会,,その他の設立登記法人,滋賀県,草津市,野路８丁目１３－１ＫＥ草津ビル１階,,25,206,5250059,,,,,,,2024-04-17,1,,,,,シガケンチュウショウキギョウカドウユウカイ,0
1345,5180001160960,新規,0,2024-04-17,2024-04-17,ＳＭＡ株式会社,,株式会社,愛知県,名古屋市名東区,一社４丁目４７番地の３（プレミスト一社３０３号）,,23,115,4650093,,,,,,,2024-04-17,1,,,,,エスエムエー,0
1346,5180001160993,新規,0,2024-04-17,2024-04-17,株式会社アプローズクリエイト,,株式会社,愛知県,名古屋市名東区,藤里町２１０１番地,,23,115,4650036,,,,,,,2024-04-17,1,,,,,アプローズクリエイト,0
1347,5180001161001,新規,0,2024-04-17,2024-04-17,株式会社ＬａＰｌｕｓ,,株式会社,愛知県,知多市,清水が丘１丁目１１４番地,,23,224,4780053,,,,,,,2024-04-17,1,,,,,ラプラス,0
1348,5180001161018,新規,0,2024-04-17,2024-04-17,株式会社ヒマラヤババ,,株式会社,愛知県,名古屋市熱田区,新尾頭１丁目１番１２号,,23,109,4560018,,,,,,,2024-04-17,1,,,,,ヒマラヤババ,0
1349,5180001161034,新規,0,2024-04-17,2024-04-17,株式会社フローリア,,株式会社,愛知県,名古屋市西区,城町５－１欽花園ハイツ４Ｂ,,23,104,4520842,,,,,,,2024-04-17,1,,,,,フローリア,0
1353,5180301038535,新規,0,2024-04-17,2024-04-17,株式会社ナカシテック,,株式会社,愛知県,安城市,二本木新町１丁目３番地８シティーコート二本木新町３０３,,23,212,4460075,,,,,,,2024-04-17,1,,,,,ナカシテック,0
1356,5180303006085,新規,0,2024-04-17,2024-04-17,合同会社日頃,,合同会社,愛知県,西尾市,米津町宮浦３４番地２,,23,213,4450802,,,,,,,2024-04-17,1,,,,,ヒゴロ,0
1357,5190001031269,新規,0,2024-04-17,2024-04-17,水匠株式会社,,株式会社,三重県,桑名市,大山田３丁目１１番地１,,24,205,5110903,,,,,,,2024-04-17,1,,,,,スイショウ,0
1358,5190001031277,新規,0,2024-04-17,2024-04-17,株式会社万亀コンサルタント,,株式会社,三重県,名張市,赤目町一ノ井８２７番地３,,24,208,5180468,,,,,,,2024-04-17,1,,,,,マンガメコンサルタント,0
1359,5190001031285,新規,0,2024-04-17,2024-04-17,Ｍｏｎｄｉａｌ　Ａｕｔｏ　Ｓｏｌｕｔｉｏｎ株式会社,,株式会社,三重県,桑名郡木曽岬町,大字富田子２４７番地２８,,24,303,4980813,,,,,,,2024-04-17,1,,,,,モンディアルオートソリューション,0
1363,5210001019724,新規,0,2024-04-17,2024-04-17,株式会社ＳＴＯＫＥ,,株式会社,福井県,坂井市,丸岡町高柳第２号１２番地１５,,18,210,9100373,,,,,,,2024-04-17,1,,,,,ストーク,0
1366,5210003001779,新規,0,2024-04-17,2024-04-17,合同会社さん・さん・ふぁーむ,,合同会社,福井県,福井市,飯塚町第３０号３５番地,,18,201,9188067,,,,,,,2024-04-17,1,,,,,サンサンファーム,0
1368,5230001020300,新規,0,2024-04-17,2024-04-17,申陽工業株式会社,,株式会社,富山県,南砺市,百町１１４番地,,16,210,9391517,,,,,,,2024-04-17,1,,,,,コウヨウコウギョウ,0
1374,5260003004653,新規,0,2024-04-17,2024-04-17,合同会社ＣｈａＣｈａ,,合同会社,岡山県,岡山市中区,円山１１８番地４,,33,102,7038271,,,,,,,2024-04-17,1,,,,,チャチャ,0
1375,5260005011342,新規,0,2024-04-17,2024-04-17,一般社団法人陽葉會,,その他の設立登記法人,岡山県,浅口市,金光町佐方２９３５－２,,33,216,7190113,,,,,,,2024-04-17,1,,,,,ヨウヨウカイ,0
1381,5290001105401,新規,0,2024-04-17,2024-04-17,株式会社ＦＥＫ,,株式会社,福岡県,福岡市南区,那の川１丁目７番１７－４０２号,,40,134,8150081,,,,,,,2024-04-17,1,,,,,エフイーケー,0
1383,5290003015177,新規,0,2024-04-17,2024-04-17,合同会社ＴＫＳＤ,,合同会社,福岡県,福岡市東区,社領２丁目２３番４号,,40,131,8120068,,,,,,,2024-04-17,1,,,,,ティーケーエスディー,0
1393,5360001033512,新規,0,2024-04-17,2024-04-17,株式会社ＴＢＴコーポレーション,,株式会社,沖縄県,沖縄市,園田１丁目１６番８号照屋ビル２Ｆ,,47,211,9040022,,,,,,,2024-04-17,1,,,,,ティービーティーコーポレーション,0
1395,5370001051190,新規,0,2024-04-17,2024-04-17,株式会社カネキファイン,,株式会社,宮城県,本吉郡南三陸町,志津川字沼田１５０番地１１５,,04,606,9860725,,,,,,,2024-04-17,1,,,,,カネキファイン,0
1398,5380001034450,新規,0,2024-04-17,2024-04-17,株式会社ＷＭ　ｗｏｒｋｓ,,株式会社,福島県,郡山市,水門町１９９番地２,,07,203,9638815,,,,,,,2024-04-17,1,,,,,ダブリューエムワークス,0
1407,5420001018696,新規,0,2024-04-17,2024-04-17,コスモアートテック株式会社,,株式会社,青森県,八戸市,大字妙字西平３７番７,,02,203,0310814,,,,,,,2024-04-17,1,,,,,,0
1415,5470001020152,新規,0,2024-04-17,2024-04-17,株式会社まつり,,株式会社,香川県,高松市,成合町４５１番地１,,37,201,7618081,,,,,,,2024-04-17,1,,,,,マツリ,0
1421,5700150124878,新規,0,2024-04-17,2024-04-17,ｄｏｎｇｇｕａｎｓｈｉｃａｎｚｈｉｄｉａｎｚｉｋｅｊｉｙｏｕｘｉａｎｇｏｎｇｓｉ,,外国会社等,,,,,,,,ｇｕａｎｃｈａｎｇｌｕｃｈａｎｇａｎｄｕａｎ１９８ｈａｏ２０ｄｏｎｇ４０４ｓｈｉ　ｄｏｎｇｇｕａｎｓｈｉ　ｃｈａｎｇａｎｚｈｅｎ　ｇｕａｎｇｄｏｎｇｓｈｅｎｇ,,,,,,2024-04-17,1,,,,,トウカンシカンジデンシテクノロジーカンパニリミテツド,0
1422,5700150124911,新規,0,2024-04-17,2024-04-17,氷室第二町会,,その他,長野県,松本市,梓川倭２８０６番地９,,20,202,3901701,,,,,,,2024-04-17,1,,,,,ヒムロダイニチョウカイ,0
1429,6010001243624,新規,0,2024-04-17,2024-04-17,ハウスリンクサービス株式会社,,株式会社,東京都,千代田区,丸の内２丁目３番２号郵船ビル７０３－Ａ,,13,101,1000005,,,,,,,2024-04-17,1,,,,,ハウスリンクサービス,0
1430,6010001244028,新規,0,2024-04-17,2024-04-17,株式会社エイトファンド,,株式会社,東京都,中央区,銀座１丁目２２番１１号銀座大竹ビジデンス２階,,13,102,1040061,,,,,,,2024-04-17,1,,,,,エイトファンド,0
1431,6010001244036,新規,0,2024-04-17,2024-04-17,株式会社ＥＮＴｓ　Ｌａｂ．,,株式会社,東京都,中央区,日本橋室町３丁目３番１号,,13,102,1030022,,,,,,,2024-04-17,1,,,,,イーエヌティーラボ,0
1432,6010001244176,新規,0,2024-04-17,2024-04-17,インダストリア株式会社,,株式会社,東京都,中央区,新川２丁目１０番１―１３１５号,,13,102,1040033,,,,,,,2024-04-17,1,,,,,インダストリア,0
1433,6010003043394,新規,0,2024-04-17,2024-04-17,ＴＰＳＰ合同会社,,合同会社,東京都,千代田区,四番町４番地９新東京国際リーガル内,,13,101,1020081,,,,,,,2024-04-17,1,,,,,ティーピーエスピー,0
1434,6010003043460,新規,0,2024-04-17,2024-04-17,合同会社ヴィエナスノーグローブ,,合同会社,東京都,中央区,銀座１丁目１２－４Ｎ＆ＥＢＬＤ．７階,,13,102,1040061,,,,,,,2024-04-17,1,,,,,ヴィエナスノーグローブ,0
1435,6010005038194,新規,0,2024-04-17,2024-04-17,一般社団法人トリオスＪＮ,,その他の設立登記法人,東京都,中央区,築地２丁目１２番１６号,,13,102,1040045,,,,,,,2024-04-17,1,,,,,トリオスジェイエヌ,0
1436,6010005038203,新規,0,2024-04-17,2024-04-17,一般社団法人高等学校ダンスプロジェクトＴＳＵＮＡＧＵ,,その他の設立登記法人,東京都,文京区,春日１丁目５－３－４０１,,13,105,1120003,,,,,,,2024-04-17,1,,,,,コウトウガッコウダンスプロジェクトツナグ,0
1447,6010401181647,新規,0,2024-04-17,2024-04-17,株式会社キュアフーズ,,株式会社,東京都,港区,三田５丁目３番１号,,13,103,1080073,,,,,,,2024-04-17,1,,,,,キュアフーズ,0
1448,6010401181812,新規,0,2024-04-17,2024-04-17,株式会社ＭＳＪ,,株式会社,東京都,港区,六本木７丁目１３番５号萩原ビル１０２,,13,103,1060032,,,,,,,2024-04-17,1,,,,,エムエスジェイ,0
1449,6010401181837,新規,0,2024-04-17,2024-04-17,株式会社モバイルスター,,株式会社,東京都,港区,虎ノ門１丁目１７番１号虎ノ門ヒルズビジネスタワー１５階,,13,103,1050001,,,,,,,2024-04-17,1,,,,,モバイルスター,0
1450,6010401181845,新規,0,2024-04-17,2024-04-17,株式会社鈴木将記建築設計事務所,,株式会社,東京都,港区,南青山１丁目１１番３０号青山ガーデンハウス１０１,,13,103,1070062,,,,,,,2024-04-17,1,,,,,スズキマサキケンチクセッケイジムショ,0
1454,6010505003516,新規,0,2024-04-17,2024-04-17,一般社団法人川柳文化振興会,,その他の設立登記法人,東京都,台東区,上野桜木１丁目５番９号,,13,106,1100002,,,,,,,2024-04-17,1,,,,,センリュウブンカシンコウカイ,0
1455,6010601065006,新規,0,2024-04-17,2024-04-17,株式会社ナイス,,株式会社,東京都,江東区,亀戸６丁目１６番１０号,,13,108,1360071,,,,,,,2024-04-17,1,,,,,ナイス,0
1456,6010801034974,新規,0,2024-04-17,2024-04-17,新富恵不動産管理株式会社,,株式会社,東京都,大田区,中馬込２丁目１８番７号,,13,111,1430027,,,,,,,2024-04-17,1,,,,,アラトミエフドウサンカンリ,0
1457,6010803004918,新規,0,2024-04-17,2024-04-17,ＬＫＳ　Ｃａｐｉｔａｌ合同会社,,合同会社,東京都,大田区,田園調布３丁目４５番１６号,,13,111,1450071,,,,,,,2024-04-17,1,,,,,エルケイエスキャピタル,0
1462,6010901055078,新規,0,2024-04-17,2024-04-17,株式会社エテルナ・ルーチェ,,株式会社,東京都,世田谷区,等々力５丁目６番１３号,,13,112,1580082,,,,,,,2024-04-17,1,,,,,エテルナルーチェ,0
1469,6011003018881,新規,0,2024-04-17,2024-04-17,合同会社ヨネクラ,,合同会社,東京都,渋谷区,渋谷２丁目１９－１５宮益坂ビルディング６０９,,13,113,1500002,,,,,,,2024-04-17,1,,,,,ヨネクラ,0
1471,6011101107017,新規,0,2024-04-17,2024-04-17,株式会社中山不動産＆コンサルティング,,株式会社,東京都,新宿区,原町３丁目５９番地,,13,104,1620053,,,,,,,2024-04-17,1,,,,,ナカヤマフドウサンアンドコンサルティング,0
1481,6011801044071,新規,0,2024-04-17,2024-04-17,株式会社ゲストアンドエフ,,株式会社,東京都,葛飾区,東金町１丁目３６番１－１４０４号,,13,122,1250041,,,,,,,2024-04-17,1,,,,,ゲストアンドエフ,0
1485,6012401041681,新規,0,2024-04-17,2024-04-17,株式会社ＹＹクリエイティブ,,株式会社,東京都,調布市,小島町２丁目５１番地２寿ビル２階,,13,208,1820026,,,,,,,2024-04-17,1,,,,,ワイワイクリエイティブ,0
1486,6012401041764,新規,0,2024-04-17,2024-04-17,Ｋ．Ｍ　Ｐａｒｔｎｅｒｓ株式会社,,株式会社,東京都,武蔵野市,吉祥寺本町１丁目２０番１号吉祥寺永谷シティプラザ１００２,,13,203,1800004,,,,,,,2024-04-17,1,,,,,ケーエムパートナーズ,0
1487,6012401041772,新規,0,2024-04-17,2024-04-17,株式会社ＭＡＹＣ,,株式会社,東京都,調布市,上石原１丁目３２番地３４,,13,208,1820035,,,,,,,2024-04-17,1,,,,,エムエーワイシー,0
1499,6020001156734,新規,0,2024-04-17,2024-04-17,株式会社Ｎハウジング,,株式会社,神奈川県,横浜市青葉区,藤が丘２丁目２９番地１０藤が丘パレスビル２０２号,,14,117,2270043,,,,,,,2024-04-17,1,,,,,エヌハウジング,0
1500,6020001156750,新規,0,2024-04-17,2024-04-17,株式会社豊福総合企画,,株式会社,神奈川県,横浜市保土ケ谷区,桜ケ丘２丁目１番１０－１０１号,,14,106,2400011,,,,,,,2024-04-17,1,,,,,トヨフクソウゴウキカク,0
1502,6020003025953,新規,0,2024-04-17,2024-04-17,Ｔｏｋｙｏ　Ｇｏｌｆｅｒ合同会社,,合同会社,神奈川県,横浜市戸塚区,下倉田町１７５６番地８９,,14,110,2440815,,,,,,,2024-04-17,1,,,,,トーキョーゴルファー,0
1509,6021001081963,新規,0,2024-04-17,2024-04-17,うな美株式会社,,株式会社,神奈川県,大和市,上草柳４丁目８番１３号,,14,213,2420029,,,,,,,2024-04-17,1,,,,,ウナミ,0
1510,6021001082012,新規,0,2024-04-17,2024-04-17,株式会社タカマサ,,株式会社,神奈川県,座間市,相模が丘６丁目３４番２－１０１号,,14,216,2520001,,,,,,,2024-04-17,1,,,,,タカマサ,0
1522,6030003024120,新規,0,2024-04-17,2024-04-17,合同会社アンドモッティ,,合同会社,埼玉県,川越市,砂新田２丁目１８番地３７,,11,201,3501137,,,,,,,2024-04-17,1,,,,,アンドモッティ,0
1525,6040001133161,新規,0,2024-04-17,2024-04-17,株式会社ＧＥＮＴＥＮ,,株式会社,千葉県,我孫子市,我孫子３丁目２番１－２０２号,,12,222,2701166,,,,,,,2024-04-17,1,,,,,ゲンテン,0
1526,6040001133194,新規,0,2024-04-17,2024-04-17,ＴＦＬＣ株式会社,,株式会社,千葉県,千葉市若葉区,坂月町３１３番地９,,12,104,2640012,,,,,,,2024-04-17,1,,,,,ティエフエルシー,0
1530,6040003024788,新規,0,2024-04-17,2024-04-17,合同会社Ｌｕｎａ　Ｌｉｓａｎｔ,,合同会社,千葉県,佐倉市,上座５８１－１９,,12,212,2850854,,,,,,,2024-04-17,1,,,,,ルナリザント,0
1536,6050001054638,新規,0,2024-04-17,2024-04-17,株式会社ＬＵＸＥ,,株式会社,茨城県,結城市,大字結城３７３番地１メゾンアコックス１０３,,08,207,3070001,,,,,,,2024-04-17,1,,,,,ラックス,0
1539,6060001037014,新規,0,2024-04-17,2024-04-17,株式会社セレクト,,株式会社,栃木県,足利市,猿田町３番地４１,,09,202,3260023,,,,,,,2024-04-17,1,,,,,セレクト,0
1543,6070001041601,新規,0,2024-04-17,2024-04-17,株式会社ＭＵ,,株式会社,群馬県,高崎市,上中居町７０９レジデンス中居１０２,,10,202,3700851,,,,,,,2024-04-17,1,,,,,ミュウ,0
1544,6070001041642,新規,0,2024-04-17,2024-04-17,株式会社ＡＲＲＯＷＳ　ＩＳＬＡＮＤ,,株式会社,群馬県,富岡市,富岡５０番地,,10,210,3702316,,,,,,,2024-04-17,1,,,,,アローズアイランド,0
1545,6070001041650,新規,0,2024-04-17,2024-04-17,株式会社ＦＩＦＴＹ　ＯＮＥ,,株式会社,群馬県,前橋市,下大島町８９１番地３,,10,201,3792152,,,,,,,2024-04-17,1,,,,,フィフティーワン,0
1557,6100005013171,新規,0,2024-04-17,2024-04-17,医療法人Ｂｒｉｇｈｔ　Ｓｍｉｌｅｓ,,その他の設立登記法人,長野県,上田市,上田原８５７番１７,,20,203,3861102,,,,,,,2024-04-17,1,,,,,ブライトスマイルズ,0
1559,6110005017072,新規,0,2024-04-17,2024-04-17,阿賀野市商工会,,その他の設立登記法人,新潟県,阿賀野市,中央町２丁目１２番５号,,15,223,9592021,,,,,,新潟県阿賀野市保田３７２６番地７安田商工会（2110005003704）と新潟県阿賀野市姥ケ橋６６０番地５京ヶ瀬商工会（7110005003708）と新潟県阿賀野市中央町二丁目１２番５号水原商工会（5110005003701）と新潟県阿賀野市山崎３７９番地笹神商工会（9110005003706）の合併により設立,2024-04-17,1,,,,,アガノシ,0
1566,6120001264064,新規,0,2024-04-17,2024-04-17,株式会社ＤＺＬ,,株式会社,大阪府,大阪市中央区,西心斎橋２丁目７－１５道頓堀ＪＮＳビル３Ｆ,,27,128,5420086,,,,,,,2024-04-17,1,,,,,ディーゼットエル,0
1567,6120001264114,新規,0,2024-04-17,2024-04-17,株式会社ワンダメント,,株式会社,大阪府,大阪市西区,靱本町３丁目５番２７号,,27,106,5500004,,,,,,,2024-04-17,1,,,,,ワンダメント,0
1568,6120001264188,新規,0,2024-04-17,2024-04-17,新正投資株式会社,,株式会社,大阪府,大阪市淀川区,西宮原２丁目６－１６新大阪コーポビアネーズ１１１５号,,27,123,5320004,,,,,,,2024-04-17,1,,,,,シンセイトウシ,0
1572,6120003026396,新規,0,2024-04-17,2024-04-17,合同会社豊,,合同会社,大阪府,大阪市平野区,平野市町２丁目４－５,,27,126,5470042,,,,,,,2024-04-17,1,,,,,ユタカ,0
1580,6120901049036,新規,0,2024-04-17,2024-04-17,ピコテクデバイス株式会社,,株式会社,大阪府,吹田市,古江台１丁目１２番７号２Ｆ,,27,205,5650874,,,,,,,2024-04-17,1,,,,,ピコテクデバイス,0
1589,6130001076855,新規,0,2024-04-17,2024-04-17,株式会社ｅｉｇｈｔ　ｐｌｕｓ,,株式会社,京都府,木津川市,相楽台７丁目９番地２,,26,214,6190223,,,,,,,2024-04-17,1,,,,,エイトプラス,0
1592,6130003009458,新規,0,2024-04-17,2024-04-17,合同会社Ｔ’ｗｏｒｋｓ,,合同会社,京都府,舞鶴市,字和田９４２－２,,26,202,6250085,,,,,,,2024-04-17,1,,,,,ティーワークス,0
1593,6130003009466,新規,0,2024-04-17,2024-04-17,合同会社ひかり,,合同会社,京都府,亀岡市,大井町土田２丁目７－２５,,26,206,6210011,,,,,,,2024-04-17,1,,,,,ヒカリ,0
1598,6140003020439,新規,0,2024-04-17,2024-04-17,合同会社ＬｉｆｅＡｃｔ,,合同会社,兵庫県,尼崎市,常吉２丁目１－３－４０３,,28,202,6610042,,,,,,,2024-04-17,1,,,,,リフアクト,0
1599,6140003020455,新規,0,2024-04-17,2024-04-17,アスネット合同会社,,合同会社,兵庫県,神戸市垂水区,中道２丁目１－１６－２０２,,28,108,6550896,,,,,,,2024-04-17,1,,,,,アスネット,0
1600,6150003003228,新規,0,2024-04-17,2024-04-17,合同会社ＭＡＨＡＮＡ,,合同会社,奈良県,北葛城郡河合町,彩りの杜５６８番地２１７,,29,427,6360057,,,,,,,2024-04-17,1,,,,,マハナ,0
1601,6160001025850,新規,0,2024-04-17,2024-04-17,株式会社Ｊ‐ＳＰＯＴ,,株式会社,滋賀県,大津市,馬場２丁目１１－１５植田ビル２Ｆ,,25,201,5200802,,,,,,,2024-04-17,1,,,,,ジェイスポット,0
1604,6160003003169,新規,0,2024-04-17,2024-04-17,合同会社ＯＬＩＶＥ,,合同会社,滋賀県,大津市,青山２丁目８番７号,,25,201,5202101,,,,,,,2024-04-17,1,,,,,オリーブ,0
1610,6180001160935,新規,0,2024-04-17,2024-04-17,株式会社Ｌｅ　ｇｒａｎｄ　ｃｉｅｌ,,株式会社,愛知県,名古屋市中村区,名駅３丁目４番１０号アルティメイト名駅１ｓｔ２階,,23,105,4500002,,,,,,,2024-04-17,1,,,,,ルグランシエル,0
1611,6180001160968,新規,0,2024-04-17,2024-04-17,株式会社ＭＹＫ,,株式会社,愛知県,名古屋市東区,東桜１丁目９番２６号,,23,102,4610005,,,,,,,2024-04-17,1,,,,,エムワイケイ,0
1612,6180001160984,新規,0,2024-04-17,2024-04-17,潤子中日貿易投資株式会社,,株式会社,愛知県,名古屋市東区,相生町７９－１第２足立ビル３０６,,23,102,4610012,,,,,,,2024-04-17,1,,,,,ジュンコチュウニチボウエキトウシ,0
1613,6180001160992,新規,0,2024-04-17,2024-04-17,株式会社コネクト,,株式会社,愛知県,小牧市,大字林１６１５番地２,,23,219,4850805,,,,,,,2024-04-17,1,,,,,コネクト,0
1614,6180001161000,新規,0,2024-04-17,2024-04-17,株式会社トータルウェブ,,株式会社,愛知県,名古屋市中区,古渡町１８番９号ＴＳＵＮＯＫＹＵ名古屋ビル,,23,106,4600025,,,,,,,2024-04-17,1,,,,,トータルウェブ,0
1615,6180001161017,新規,0,2024-04-17,2024-04-17,株式会社サケシュプリーム,,株式会社,愛知県,名古屋市西区,名駅２丁目１番１８号スエヒロビル３Ｆ,,23,104,4510045,,,,,,,2024-04-17,1,,,,,サケシュプリーム,0
1616,6180001161025,新規,0,2024-04-17,2024-04-17,株式会社仲一,,株式会社,愛知県,日進市,折戸町枯木１５５番地２,,23,230,4700115,,,,,,,2024-04-17,1,,,,,ナカイチ,0
1617,6180003026408,新規,0,2024-04-17,2024-04-17,合同会社ＩｍａｇｉＣｒａｆｔ,,合同会社,愛知県,豊明市,二村台６丁目１番地１豊明団地第２５棟５０７号,,23,229,4701131,,,,,,,2024-04-17,1,,,,,イマジクラフト,0
1618,6180003026622,新規,0,2024-04-17,2024-04-17,ティーケーエンジニアリング合同会社,,合同会社,愛知県,犬山市,大字犬山字薬師１６番地４,,23,215,4840081,,,,,,,2024-04-17,1,,,,,ティーケーエンジニアリング,0
1624,6190005011927,新規,0,2024-04-17,2024-04-17,法蔵寺,,その他の設立登記法人,三重県,津市,河芸町赤部３３４番地,,24,201,5100313,,,,,,,2024-04-17,1,,,,,ホウゾウジ,0
1626,6200001042404,新規,0,2024-04-17,2024-04-17,株式会社エンペサール,,株式会社,岐阜県,岐阜市,江添２丁目４番３－１号ラヴェニールＩ２０２号室,00134437,21,201,5008383,,,,,,,2024-04-17,1,,,,,エンペサール,0
1629,6200003006308,新規,0,2024-04-17,2024-04-17,合同会社しまなみ,,合同会社,岐阜県,可児市,長坂２丁目２５９番地,,21,214,5090257,,,,,,,2024-04-17,1,,,,,シマナミ,0
1635,6240003006626,新規,0,2024-04-17,2024-04-17,合同会社ＫＡＮＡＤＥＲＥＡカナデリア,,合同会社,広島県,東広島市,八本松東３丁目１６－２,,34,212,7390142,,,,,,,2024-04-17,1,,,,,カナデリアカナデリア,0
1646,6290001105400,新規,0,2024-04-17,2024-04-17,株式会社Ｙｕｒｕｒｉｒａ,,株式会社,福岡県,古賀市,薬王寺１２９１番地１,,40,223,8113124,,,,,,,2024-04-17,1,,,,,ユルリラ,0
1647,6290001105409,新規,0,2024-04-17,2024-04-17,盛東株式会社,,株式会社,福岡県,福岡市南区,井尻５丁目４番１３号,,40,134,8111302,,,,,,,2024-04-17,1,,,,,セイトウ,0
1648,6290001105417,新規,0,2024-04-17,2024-04-17,株式会社ＦＩＴｓ,,株式会社,福岡県,福岡市博多区,寿町２丁目３番地１３イルグランデ南福岡１０２号室,,40,132,8120884,,,,,,,2024-04-17,1,,,,,フィッツ,0
1650,6290005019365,新規,0,2024-04-17,2024-04-17,一般社団法人Ｐｌｅａｒｎｙ　Ｅｄｕ,,その他の設立登記法人,福岡県,福岡市西区,今宿東１丁目２２番７号,,40,135,8190161,,,,,,,2024-04-17,1,,,,,プラニーエデュ,0
1651,6290801030509,新規,0,2024-04-17,2024-04-17,株式会社さくら,,株式会社,福岡県,行橋市,大橋２丁目３番５号,,40,213,8240003,,,,,,,2024-04-17,1,,,,,サクラ,0
1657,6340003004438,新規,0,2024-04-17,2024-04-17,ｈｉｋａｒｉ　ｗｏｒｋｓ合同会社,,合同会社,鹿児島県,鹿児島郡三島村,大字硫黄島２７,,46,303,8900901,,,,,,,2024-04-17,1,,,,,ヒカリワークス,0
1660,6350001018926,新規,0,2024-04-17,2024-04-17,株式会社Ｇｒｉｔ　Ｒｉｓｅ,,株式会社,宮崎県,延岡市,野地町４丁目２２０９番地５,,45,203,8820802,,,,,,,2024-04-17,1,,,,,グリットライズ,0
1665,6370001051207,新規,0,2024-04-17,2024-04-17,株式会社Ｄｏ　Ｆｏｒ,,株式会社,宮城県,富谷市,富谷新町３９,,04,216,9813311,,,,,,,2024-04-17,1,,,,,ドゥーフォー,0
1672,6390001017585,新規,0,2024-04-17,2024-04-17,株式会社ＢＵＬＬＥＴ,,株式会社,山形県,山形市,小立２丁目１番１０号,,06,201,9902402,,,,,,,2024-04-17,1,,,,,バレッット,0
1673,6400001016627,新規,0,2024-04-17,2024-04-17,株式会社山海畑,,株式会社,岩手県,大船渡市,三陸町綾里字大明神６０番地１,,03,203,0220211,,,,,,,2024-04-17,1,,,,,ヤマウミハタケ,0
1679,6430001091584,新規,0,2024-04-17,2024-04-17,株式会社ＮｅＷｉｎｇｓ,,株式会社,北海道,札幌市白石区,栄通４丁目２番８号,,01,104,0030021,,,,,,,2024-04-17,1,,,,,ニューイング,0
1682,6460001005888,新規,0,2024-04-17,2024-04-17,株式会社マイタックス・マネジメント,,株式会社,北海道,釧路市,鳥取大通３丁目２番１０号,,01,206,0840906,,,,,,,2024-04-17,1,,,,,マイタックスマネジメント,0
1683,6460003000994,新規,0,2024-04-17,2024-04-17,Ｇｒａｃｅ　ｆｉｅｌｄ合同会社,,合同会社,北海道,釧路市,星が浦大通１丁目７番２８号,,01,206,0840912,,,,,,,2024-04-17,1,,,,,グレイスフィールド,0
1684,6460103001612,新規,0,2024-04-17,2024-04-17,合同会社Ｅｓｓｅｎｓ,,合同会社,北海道,河東郡音更町,南鈴蘭南２丁目６－４,,01,631,0800312,,,,,,,2024-04-17,1,,,,,エッセンス,0
1687,6490005006938,新規,0,2024-04-17,2024-04-17,医療法人向日葵会,,その他の設立登記法人,高知県,高知市,北本町１丁目４番１号,,39,201,7800056,,,,,,,2024-04-17,1,,,,,ヒマワリカイ,0
1692,6700150124877,新規,0,2024-04-17,2024-04-17,Ｎｉｎｇｂｏｓｈｉｊｉｅｍａｉａｎｑｕａｎｆａｎｇｈｕｙｏｎｇｐｉｎｙｏｕｘｉａｎｇｏｎｇｓｉ,,外国会社等,,,,,,,,Ｚｈｅｊｉａｎｇｓｈｅｎｇ　Ｎｉｎｇｂｏｓｈｉ　Ｈａｉｓｈｕｑｕ　Ｇａｏｑｉａｏｚｈｅｎ　Ｘｉｎｌｉａｎｃｕｎ,,,,,,2024-04-17,1,,,,,ニンボーシジエマイアンフアウヨウヒンユウゲンコウシ,0
1693,6700150124910,新規,0,2024-04-17,2024-04-17,氷室第一町会,,その他,長野県,松本市,梓川倭２８０６番地９,,20,202,3901701,,,,,,,2024-04-17,1,,,,,ヒムロダイイチチョウカイ,0
1698,7010001244043,新規,0,2024-04-17,2024-04-17,株式会社ファボテクノロジーズ,,株式会社,東京都,中央区,銀座１丁目２２番１１号銀座大竹ビジデンス２階,,13,102,1040061,,,,,,,2024-04-17,1,,,,,ファボテクノロジーズ,0
1699,7010001244051,新規,0,2024-04-17,2024-04-17,オレンジ株式会社,,株式会社,東京都,千代田区,麹町３丁目５番地２,,13,101,1020083,,,,,,,2024-04-17,1,,,,,オレンジ,0
1702,7010003043443,新規,0,2024-04-17,2024-04-17,ＹＦ　ＪＲＥ　Ｂ合同会社,,合同会社,東京都,千代田区,霞が関３丁目２番５号,,13,101,1000013,,,,,,,2024-04-17,1,,,,,,0
1704,7010401181902,新規,0,2024-04-17,2024-04-17,ホクエナジー株式会社,,株式会社,東京都,港区,芝５丁目２６番２４号,,13,103,1080014,,,,,,,2024-04-17,1,,,,,ホクエナジー,0
1712,7010601065005,新規,0,2024-04-17,2024-04-17,株式会社ファイン,,株式会社,東京都,江東区,亀戸６丁目１６番１０号,,13,108,1360071,,,,,,,2024-04-17,1,,,,,ファイン,0
1713,7010601065038,新規,0,2024-04-17,2024-04-17,リアン株式会社,,株式会社,東京都,墨田区,東向島２丁目３０－１１曳舟スカイハウス２０１室,,13,107,1310032,,,,,,,2024-04-17,1,,,,,リアン,0
1719,7010801034981,新規,0,2024-04-17,2024-04-17,宏成株式会社,,株式会社,東京都,大田区,西蒲田８丁目８番４号,,13,111,1440051,,,,,,,2024-04-17,1,,,,,ヒロセイ,0
1720,7010901055077,新規,0,2024-04-17,2024-04-17,株式会社コムソワ,,株式会社,東京都,世田谷区,経堂３丁目３３－６,,13,112,1560052,,,,,,,2024-04-17,1,,,,,コムソワ,0
1721,7010901055093,新規,0,2024-04-17,2024-04-17,株式会社リレーションシップ,,株式会社,東京都,世田谷区,尾山台３丁目２８－４フラット３－２８－２Ａ,,13,112,1580086,,,,,,,2024-04-17,1,,,,,リレーションシップ,0
1723,7010903008974,新規,0,2024-04-17,2024-04-17,合同会社ＡＮＤＡ,,合同会社,東京都,世田谷区,下馬１丁目２９番８号,,13,112,1540002,,,,,,,2024-04-17,1,,,,,アンダ,0
1729,7011001161352,新規,0,2024-04-17,2024-04-17,株式会社ＣＩＺＲＩＡ,,株式会社,東京都,渋谷区,渋谷２丁目１９－１５宮益坂ビルディング６０９,,13,113,1500002,,,,,,,2024-04-17,1,,,,,シズリア,0
1730,7011001161369,新規,0,2024-04-17,2024-04-17,株式会社ＲｕｌｉＫａＲａ,,株式会社,東京都,目黒区,中央町２丁目６番７号,,13,110,1520001,,,,,,,2024-04-17,1,,,,,ルリカラ,0
1737,7011103014318,新規,0,2024-04-17,2024-04-17,合同会社Ｓｔｕｄｉｏ　Ｍｅｔｅｏｒｉｔｅ,,合同会社,東京都,新宿区,天神町７番地１１,,13,104,1620808,,,,,,,2024-04-17,1,,,,,スタジオメテオライト,0
1738,7011103014334,新規,0,2024-04-17,2024-04-17,合同会社ＴＤＮＹ,,合同会社,東京都,新宿区,西新宿６丁目５番１号新宿アイランドタワー２階,,13,104,1600023,,,,,,,2024-04-17,1,,,,,ティーディーエヌワイ,0
1743,7011401026015,新規,0,2024-04-17,2024-04-17,株式会社ポチワールド,,株式会社,東京都,板橋区,加賀１丁目９番１０シティテラス加賀１１８,,13,119,1730003,,,,,,,2024-04-17,1,,,,,ポチワールド,0
1746,7011503006030,新規,0,2024-04-17,2024-04-17,合同会社ＵＫコーポレーション,,合同会社,東京都,北区,滝野川６丁目１５番１号,,13,117,1140023,,,,,,,2024-04-17,1,,,,,ユーケーコーポレーション,0
1750,7011801044070,新規,0,2024-04-17,2024-04-17,パラマウントケアサービス東京株式会社,,株式会社,東京都,足立区,辰沼１丁目６番１４号,,13,121,1210054,,,,,,,2024-04-17,1,,,,,パラマウントケアサービストウキョウ,0
1751,7011801044079,新規,0,2024-04-17,2024-04-17,清水国際株式会社,,株式会社,東京都,葛飾区,東新小岩７丁目３１番１６号秀宝ビル３０６号室,,13,122,1240023,,,,,,,2024-04-17,1,,,,,シミズコクサイ,0
1763,7012401041755,新規,0,2024-04-17,2024-04-17,Ｔ‐ＣＯＮＮＥＣＴ　ＪＡＰＡＮ株式会社,,株式会社,東京都,府中市,宮西町５丁目１０番地の１ガーラ・レジデンス府中宮西町１００４,,13,206,1830022,,,,,,,2024-04-17,1,,,,,ティコネクトジャパン,0
1767,7013103001329,新規,0,2024-04-17,2024-04-17,合同会社木の芽,,合同会社,東京都,青梅市,畑中３丁目９００番地の７,,13,205,1980061,,,,,,,2024-04-17,1,,,,,,0
1774,7020005016371,新規,0,2024-04-17,2024-04-17,医療法人多信会,,その他の設立登記法人,神奈川県,横浜市磯子区,岡村６丁目５番４６号１階,,14,107,2350021,,,,,,,2024-04-17,1,,,,,タシンカイ,0
1780,7021001081962,新規,0,2024-04-17,2024-04-17,ＨｅｉｇｈｔＰｅｒｉｏｎ株式会社,,株式会社,神奈川県,茅ヶ崎市,萩園１２７０番地４５３,,14,207,2530071,,,,,,,2024-04-17,1,,,,,ハイペリオン,0
1781,7021001081995,新規,0,2024-04-17,2024-04-17,株式会社ＡＭＳ,,株式会社,神奈川県,横須賀市,湘南国際村１丁目６番２号,,14,201,2400107,,,,,,,2024-04-17,1,,,,,アムス,0
1795,7030003024053,新規,0,2024-04-17,2024-04-17,合同会社ＭＩＮＡＴＡＳ,,合同会社,埼玉県,狭山市,大字北入曽３９９番地の４,,11,215,3501315,,,,,,,2024-04-17,1,,,,,ミナタス,0
1796,7030003024078,新規,0,2024-04-17,2024-04-17,ＵＭ合同会社,,合同会社,埼玉県,春日部市,米崎３６１番地１,,11,214,3440124,,,,,,,2024-04-17,1,,,,,ユーエム,0
1797,7030003024111,新規,0,2024-04-17,2024-04-17,北半球植生合同会社,,合同会社,埼玉県,北葛飾郡杉戸町,大字下高野７０３番地５エステートピアＫＣ１０１,,11,464,3450043,,,,,,,2024-04-17,1,,,,,キタハンキュウショクセイ,0
1799,7040001133169,新規,0,2024-04-17,2024-04-17,株式会社ＹＡＣＨＩＹＯ,,株式会社,千葉県,浦安市,入船４丁目９番３号,,12,227,2790012,,,,,,,2024-04-17,1,,,,,ヤチヨ,0
1800,7040001133185,新規,0,2024-04-17,2024-04-17,株式会社ＳＯ　ＳＬＥＥＰＹ,,株式会社,千葉県,長生郡一宮町,一宮４２７０番地２,,12,421,2994301,,,,,,,2024-04-17,1,,,,,ソースリーピー,0
1801,7040001133193,新規,0,2024-04-17,2024-04-17,ＣＯＮＴＩＮＥＮＴＡＬ８１株式会社,,株式会社,千葉県,船橋市,本町６丁目１８番１９第３山中ビル４０１号室,,12,204,2730005,,,,,,,2024-04-17,1,,,,,コンチネンタルエイティーワン,0
1803,7050001054637,新規,0,2024-04-17,2024-04-17,株式会社ＥＸＥＶ,,株式会社,茨城県,水戸市,平須町１５８番地の１９２,,08,201,3100853,,,,,,,2024-04-17,1,,,,,エグゼヴ,0
1806,7050003008293,新規,0,2024-04-17,2024-04-17,合同会社ルミエール,,合同会社,茨城県,水戸市,見川４丁目４１４番地の４７,,08,201,3100912,,,,,,,2024-04-17,1,,,,,ルミエール,0
1810,7060003005042,新規,0,2024-04-17,2024-04-17,合同会社荒矢スカイワークス,,合同会社,栃木県,矢板市,木幡１６０５番地２ＭＩＫＩ－１Ｆ,,09,211,3292142,,,,,,,2024-04-17,1,,,,,アラヤスカイワークス,0
1818,7080005007605,新規,0,2024-04-17,2024-04-17,医療法人ＥＹＬ,,その他の設立登記法人,静岡県,静岡市駿河区,新川２丁目８番６号,,22,102,4228064,,,,,,,2024-04-17,1,,,,,エイル,0
1823,7080401027132,新規,0,2024-04-17,2024-04-17,株式会社ＬＡＬＯＬＥ,,株式会社,静岡県,浜松市中央区,大平台３丁目２８番１７号,,22,138,4328068,,,,,,,2024-04-17,1,,,,,ラロール,0
1829,7100003007496,新規,0,2024-04-17,2024-04-17,合同会社藤柳,,合同会社,長野県,諏訪郡富士見町,富士見８０番地６５富士見テラスハウス２０１,,20,362,3990211,,,,,,,2024-04-17,1,,,,,フジヤナギ,0
1843,7120001264063,新規,0,2024-04-17,2024-04-17,株式会社索駿,,株式会社,大阪府,大阪市生野区,桃谷２丁目３番８－３０２号,,27,116,5440034,,,,,,,2024-04-17,1,,,,,サクシュン,0
1844,7120001264179,新規,0,2024-04-17,2024-04-17,株式会社ＬｏｏＰ,,株式会社,大阪府,大阪市北区,梅田１丁目１－３大阪駅前第３ビル２９階１－１－１号室,,27,127,5300001,,,,,,,2024-04-17,1,,,,,ループ,0
1845,7120001264187,新規,0,2024-04-17,2024-04-17,ＮＡＲＣＣＳ株式会社,,株式会社,大阪府,大阪市北区,芝田２丁目８番１１号共栄ビル３Ｆ,,27,127,5300012,,,,,,,2024-04-17,1,,,,,ナークス,0
1849,7120005024273,新規,0,2024-04-17,2024-04-17,行政書士法人ｓｈｉｎ,,その他の設立登記法人,大阪府,大阪市福島区,吉野１丁目５－１７野田庄ビル２０３号,,27,103,5530006,,,,,,,2024-04-17,1,,,,,シン,0
1850,7120101069429,新規,0,2024-04-17,2024-04-17,スリーエス株式会社,,株式会社,大阪府,堺市中区,福田７０７―１,,27,142,5998241,,,,,,,2024-04-17,1,,,,,スリーエス,0
1851,7120101069437,新規,0,2024-04-17,2024-04-17,株式会社紡翠,,株式会社,大阪府,河内長野市,楠ケ丘２７番１１号,,27,216,5860039,,,,,,,2024-04-17,1,,,,,ツムギ,0
1858,7120901049035,新規,0,2024-04-17,2024-04-17,株式会社ＯＮｆｌｅｅｋ,,株式会社,大阪府,吹田市,江の木町５番３号,,27,205,5640053,,,,,,,2024-04-17,1,,,,,オンフリーク,0
1859,7120901049043,新規,0,2024-04-17,2024-04-17,株式会社スマイルオート,,株式会社,大阪府,高槻市,西面中１丁目１６番２２号,,27,207,5690842,,,,,,,2024-04-17,1,,,,,スマイルオート,0
1866,7130001076838,新規,0,2024-04-17,2024-04-17,株式会社久世電機製作所,,株式会社,京都府,京都市南区,吉祥院長田町５０４,,26,107,6018362,,,,,,,2024-04-17,1,,,,,クゼデンキセイサクジョ,0
1867,7130001076846,新規,0,2024-04-17,2024-04-17,イチリュウ通商株式会社,,株式会社,京都府,南丹市,八木町美里西所１４番地,,26,213,6290161,,,,,,,2024-04-17,1,,,,,イチリュウツウショウ,0
1871,7130003009465,新規,0,2024-04-17,2024-04-17,合同会社ピークホールド,,合同会社,京都府,長岡京市,長法寺北畠３番地１,,26,209,6170812,,,,,,,2024-04-17,1,,,,,ピークホールド,0
1877,7140001134082,新規,0,2024-04-17,2024-04-17,株式会社Ｓｔａｆｆ　Ｏｆｆｉｃｅｒ,,株式会社,兵庫県,三木市,志染町青山２丁目１５番地の１６,,28,215,6730521,,,,,,,2024-04-17,1,,,,,スタッフオフィサー,0
1878,7140001134090,新規,0,2024-04-17,2024-04-17,株式会社やまだ,,株式会社,兵庫県,姫路市,網干区坂出２３１番地１７,,28,201,6711228,,,,,,,2024-04-17,1,,,,,ヤマダ,0
1880,7140003020314,新規,0,2024-04-17,2024-04-17,Ｂｅａｎｓｔａｌｋ合同会社,,合同会社,兵庫県,西宮市,甲東園１丁目１番６号,,28,204,6620812,,,,,,,2024-04-17,1,,,,,ビーンストーク,0
1882,7140005027051,新規,0,2024-04-17,2024-04-17,一般社団法人ＡＣＡＳＡ,,その他の設立登記法人,兵庫県,姫路市,香寺町中仁野１６１番地３ＭＩＳＴＲＡＬ香寺３０２,,28,201,6792143,,,,,,,2024-04-17,1,,,,,アカサ,0
1888,7170001018101,新規,0,2024-04-17,2024-04-17,株式会社三幸フード,,株式会社,和歌山県,和歌山市,祢宜１５９０番地,,30,201,6400000,,,,,,,2024-04-17,1,,,,,サンコウフード,0
1893,7180001160959,新規,0,2024-04-17,2024-04-17,エムアイアセットマネジメント株式会社,,株式会社,愛知県,名古屋市西区,牛島町６番１号名古屋ルーセントタワー４０階,,23,104,4510046,,,,,,,2024-04-17,1,,,,,エムアイアセットマネジメント,0
1894,7180001160967,新規,0,2024-04-17,2024-04-17,株式会社Ｌｉｆｅコンサルタント,,株式会社,愛知県,名古屋市名東区,松井町２４８番地の１,,23,115,4650062,,,,,,,2024-04-17,1,,,,,ライフコンサルタント,0
1902,7180303006083,新規,0,2024-04-17,2024-04-17,リエラ合同会社,,合同会社,愛知県,豊田市,三軒町６丁目３４番地１,,23,211,4710037,,,,,,,2024-04-17,1,,,,,リエラ,0
1904,7190001031275,新規,0,2024-04-17,2024-04-17,株式会社ｔｅｓｈｉｍ,,株式会社,三重県,桑名市,大字和泉４１９番地４,,24,205,5110838,,,,,,,2024-04-17,1,,,,,テシム,0
1907,7190003004650,新規,0,2024-04-17,2024-04-17,合同会社Ｒｅｖｅ,,合同会社,三重県,津市,柳山津興７３０番地２,,24,201,5140803,,,,,,,2024-04-17,1,,,,,レーヴ,0
1908,7200001042403,新規,0,2024-04-17,2024-04-17,株式会社Ｓａｗｙｅｒ,,株式会社,岐阜県,揖斐郡池田町,片山２１８６番地の８,,21,404,5032428,,,,,,,2024-04-17,1,,,,,ソーヤー,0
1911,7200003006315,新規,0,2024-04-17,2024-04-17,ＢＯサポート合同会社,,合同会社,岐阜県,可児市,久々利柿下入会３番地５０４,,21,214,5090234,,,,,,,2024-04-17,1,,,,,ビーオーサポート,0
1912,7200005013607,新規,0,2024-04-17,2024-04-17,特定非営利活動法人野村緑の会,,その他の設立登記法人,岐阜県,揖斐郡大野町,大字野１６１９番地１,,21,403,5010504,,,,,,,2024-04-17,1,,,,,ノムラミドリノカイ,0
1918,7230001020298,新規,0,2024-04-17,2024-04-17,株式会社タイヨーサービス,,株式会社,富山県,富山市,東老田６９８番地３,,16,201,9300161,,,,,,,2024-04-17,1,,,,,タイヨーサービス,0
1919,7230003002187,新規,0,2024-04-17,2024-04-17,ビーズ合同会社,,合同会社,富山県,高岡市,荻布２３番地３,,16,202,9330073,,,,,,,2024-04-17,1,,,,,ビーズ,0
1920,7230005009387,新規,0,2024-04-17,2024-04-17,一般社団法人射水にぎわいづくりプロジェクト,,その他の設立登記法人,富山県,射水市,中央町１４番４号,,16,211,9340012,,,,,,,2024-04-17,1,,,,,イミズニギワイヅクリプロジェクト,0
1928,7240005015764,新規,0,2024-04-17,2024-04-17,一般社団法人日本歯育て協会,,その他の設立登記法人,広島県,広島市佐伯区,観音台４丁目２８番１５号,,34,108,7315157,,,,,,,2024-04-17,1,,,,,ニホンハソダテキョウカイ,0
1932,7260001038981,新規,0,2024-04-17,2024-04-17,株式会社ルーブ,,株式会社,岡山県,岡山市北区,田中６１５－５－１０１,,33,101,7000951,,,,,,,2024-04-17,1,,,,,ルーブ,0
1935,7270001008959,新規,0,2024-04-17,2024-04-17,株式会社エスジェイ,,株式会社,鳥取県,鳥取市,津ノ井６１０番地,,31,201,6891102,,,,,,,2024-04-17,1,,,,,エスジェイ,0
1941,7290001105366,新規,0,2024-04-17,2024-04-17,株式会社ｇｒｏｗｔｈＨＵＢコンサルティング,,株式会社,福岡県,福岡市中央区,高砂１丁目８番８－７０２号,,40,133,8100011,,,,,,,2024-04-17,1,,,,,グロースハブコンサルティング,0
1942,7290001105399,新規,0,2024-04-17,2024-04-17,株式会社王餃子,,株式会社,福岡県,福岡市中央区,薬院４丁目２０番８－４０５号,,40,133,8100022,,,,,,,2024-04-17,1,,,,,ワンギョウザ,0
1943,7290001105408,新規,0,2024-04-17,2024-04-17,株式会社Ｓｕｎｒｉｓｅ　Ｇａｒｄｅｎ,,株式会社,福岡県,宗像市,城西ヶ丘５丁目４番地８,,40,220,8113404,,,,,,,2024-04-17,1,,,,,,0
1944,7290001105416,新規,0,2024-04-17,2024-04-17,Ｈ＆Ｃブティック株式会社,,株式会社,福岡県,福岡市中央区,大名１丁目１番１１号,,40,133,8100041,,,,,,,2024-04-17,1,,,,,エイチアンドシー,0
1948,7290803004682,新規,0,2024-04-17,2024-04-17,合同会社Ｍｏｍｅｎｔｕｍ　Ｍａｒｋｅｔｉｎｇ,,合同会社,福岡県,北九州市八幡西区,筒井町７番１サンライフ筒井１１０１,,40,109,8060032,,,,,,,2024-04-17,1,,,,,モメンタムマーケティング,0
1951,7310001018961,新規,0,2024-04-17,2024-04-17,株式会社アーティザン,,株式会社,長崎県,平戸市,田平町福崎免２７２番地２,,42,207,8594802,,,,,,,2024-04-17,1,,,,,アーティザン,0
1956,7330001031979,新規,0,2024-04-17,2024-04-17,Ｂｕｆｆｅｔｔ株式会社,,株式会社,熊本県,熊本市北区,麻生田４丁目２５－１５,,43,105,8618081,,,,,,,2024-04-17,1,,,,,バフェット,0
1960,7340001026441,新規,0,2024-04-17,2024-04-17,株式会社ｎｏｂａｎａ,,株式会社,鹿児島県,いちき串木野市,大里４４０１－１,,46,219,8992103,,,,,,,2024-04-17,1,,,,,ノバナ,0
1962,7340005009723,新規,0,2024-04-17,2024-04-17,一般財団法人鹿児島グリーン財団,,その他の設立登記法人,鹿児島県,鹿児島市,下伊敷１丁目３６４１番地５,,46,201,8900005,,,,,,,2024-04-17,1,,,,,カゴシマグリーンザイダン,0
1966,7360003013907,新規,0,2024-04-17,2024-04-17,合同会社和商会,,合同会社,沖縄県,宮古島市,上野字新里１１１６番地６,,47,214,9060202,,,,,,,2024-04-17,1,,,,,カズショウカイ,0
1969,7370001051189,新規,0,2024-04-17,2024-04-17,５ｅ．株式会社,,株式会社,宮城県,富谷市,成田３丁目３２番地５,,04,216,9813341,,,,,,,2024-04-17,1,,,,,ファイブイー,0
1973,7390001017584,新規,0,2024-04-17,2024-04-17,株式会社ＫＫ不動産,,株式会社,山形県,山形市,小白川町１丁目１５番３号,,06,201,9900021,,,,,,,2024-04-17,1,,,,,ケーケーフドウサン,0
1978,7400001016626,新規,0,2024-04-17,2024-04-17,株式会社東日産業,,株式会社,岩手県,盛岡市,長橋町２８番５号,,03,201,0200146,,,,,,,2024-04-17,1,,,,,トウニチサンギョウ,0
1985,7450001014286,新規,0,2024-04-17,2024-04-17,株式会社仁徳舗装,,株式会社,北海道,旭川市,東光十六条３丁目４番１３号,,01,204,0788356,,,,,,,2024-04-17,1,,,,,ジントクホソウ,0
1986,7450001014294,新規,0,2024-04-17,2024-04-17,株式会社樋浦運輸,,株式会社,北海道,上川郡東川町,西１０号北８番地,,01,458,0711410,,,,,,,2024-04-17,1,,,,,ヒウラウンユ,0
1987,7460103001611,新規,0,2024-04-17,2024-04-17,合同会社ドライブ,,合同会社,北海道,河東郡音更町,宝来仲町南２丁目１０番地２３,,01,631,0800135,,,,,,,2024-04-17,1,,,,,ドライブ,0
1988,7460105002285,新規,0,2024-04-17,2024-04-17,農事組合法人江本ファーム,,その他の設立登記法人,北海道,帯広市,東十四条南６丁目１番地１０,,01,207,0800814,,,,,,,2024-04-17,1,,,,,,0
1993,7490001010752,新規,0,2024-04-17,2024-04-17,株式会社姫土木コンサルタント,,株式会社,高知県,幡多郡大月町,大字姫ノ井５８５番地,,39,424,7880331,,,,,,,2024-04-17,1,,,,,ヒメドボクコンサルタント,0
1997,7700150124570,新規,0,2024-04-17,2024-03-26,ラビット,,その他,大分県,大分市,大字丹生長迫１７４３－１,,44,201,8700318,,,,,,,2024-03-26,1,,,,,ラビツト,0
1998,7700150124876,新規,0,2024-04-17,2024-04-17,竹生自治会,,その他,秋田県,能代市,竹生字竹生８５番地,,05,202,0160016,,,,,,,2024-04-17,1,,,,,タコウジチカイ,0
2011,8010001244042,新規,0,2024-04-17,2024-04-17,株式会社セレンディピティ,,株式会社,東京都,中央区,湊３丁目１３番１０号２Ｆ,,13,102,1040043,,,,,,,2024-04-17,1,,,,,セレンディピティ,0
2012,8010001244133,新規,0,2024-04-17,2024-04-17,株式会社Ｎａｔｕｒａｌ,,株式会社,東京都,千代田区,飯田橋２丁目１１－１０総合経営ビル６Ｆ,,13,101,1020072,,,,,,,2024-04-17,1,,,,,ナチュラル,0
2013,8010001244190,新規,0,2024-04-17,2024-04-17,千羽ホールディングス株式会社,,株式会社,東京都,千代田区,麹町４丁目５－２０,,13,101,1020083,,,,,,,2024-04-17,1,,,,,センバホールディングス,0
2016,8010003043491,新規,0,2024-04-17,2024-04-17,ＥＬ　ＫＡＲＥＮ’Ｓ合同会社,,合同会社,東京都,中央区,銀座１丁目２２番１１号銀座大竹ビジデンス２Ｆ,,13,102,1040061,,,,,,,2024-04-17,1,,,,,エルカレンズ,0
2017,8010003043525,新規,0,2024-04-17,2024-04-17,合同会社メトロ原木中山開発プロジェクト,,合同会社,東京都,千代田区,平河町１丁目６番１５号シルスフィア会計事務所内,,13,101,1020093,,,,,,,2024-04-17,1,,,,,メトロバラキナカヤマカイハツプロジェクト,0
2018,8010005038184,新規,0,2024-04-17,2024-04-17,クレジット・ギャランティ１０号一般社団法人,,その他の設立登記法人,東京都,千代田区,内神田１丁目３番７号４０１あすな会計事務所内,,13,101,1010047,,,,,,,2024-04-17,1,,,,,クレジットギャランティジュウゴウ,0
2025,8010401181810,新規,0,2024-04-17,2024-04-17,株式会社ＭｉｃｒｏＢａｎｋ,,株式会社,東京都,港区,南青山３丁目１０番２１号,,13,103,1070062,,,,,,,2024-04-17,1,,,,,マイクロバンク,0
2026,8010401181835,新規,0,2024-04-17,2024-04-17,株式会社ＦＰＴＳ,,株式会社,東京都,港区,新橋３丁目１１番１号,,13,103,1050004,,,,,,,2024-04-17,1,,,,,エフピーティーエス,0
2034,8010503007418,新規,0,2024-04-17,2024-04-17,合同会社Ｗｏｒｌｄ　ｉｎ　Ｍｏｔｉｏｎ,,合同会社,東京都,台東区,西浅草２丁目８番５号２０２号室,,13,106,1110035,,,,,,,2024-04-17,1,,,,,ワールドインモーション,0
2039,8010701045863,新規,0,2024-04-17,2024-04-17,株式会社ＰＧキャピタル,,株式会社,東京都,品川区,平塚１丁目１８－１１－１２０２,,13,109,1420051,,,,,,,2024-04-17,1,,,,,ピージーキャピタル,0
2043,8010801034980,新規,0,2024-04-17,2024-04-17,株式会社ドリームゲートアジア,,株式会社,東京都,大田区,久が原２丁目２１番１３号,,13,111,1460085,,,,,,,2024-04-17,1,,,,,ドリームゲートアジア,0
2046,8010803004908,新規,0,2024-04-17,2024-04-17,合同会社ｔｄｃ,,合同会社,東京都,大田区,矢口１丁目１４番２号ビラ・８０－２０３,,13,111,1460093,,,,,,,2024-04-17,1,,,,,ティーディーシー,0
2057,8011001161384,新規,0,2024-04-17,2024-04-17,株式会社ａｂｃ,,株式会社,東京都,渋谷区,東３丁目２５番３号,,13,113,1500011,,,,,,,2024-04-17,1,,,,,エービーシー,0
2058,8011001161401,新規,0,2024-04-17,2024-04-17,８ｗｅｅｋｓ株式会社,,株式会社,東京都,渋谷区,神宮前２丁目１８番７号外苑ビル５階Ｂ号室,,13,113,1500001,,,,,,,2024-04-17,1,,,,,エイトウィークス,0
2066,8011101106990,新規,0,2024-04-17,2024-04-17,株式会社ａｂｉｅｓ　ａｎｄ,,株式会社,東京都,新宿区,西新宿７丁目２０－１１西新宿Ａｉビル４Ｆ,,13,104,1600023,,,,,,,2024-04-17,1,,,,,アビエスアンド,0
2067,8011101107007,新規,0,2024-04-17,2024-04-17,株式会社デジタルコーディネート相談所,,株式会社,東京都,新宿区,新宿１丁目３４－１６清水ビル３Ｆ,,13,104,1600022,,,,,,,2024-04-17,1,,,,,デジタルコーディネートソウダンジョ,0
2068,8011103014325,新規,0,2024-04-17,2024-04-17,合同会社イールーフ,,合同会社,東京都,新宿区,住吉町１４番９号カーサボニータ１－Ｄ,,13,104,1620065,,,,,,,2024-04-17,1,,,,,イールーフ,0
2069,8011103014333,新規,0,2024-04-17,2024-04-17,合同会社Ｅ‐ＳＯＭＡ,,合同会社,東京都,新宿区,西新宿３丁目３番１３号西新宿水間ビル６階,,13,104,1600023,,,,,,,2024-04-17,1,,,,,イーソウマ,0
2071,8011203004366,新規,0,2024-04-17,2024-04-17,合同会社クリエイティブ・コネクト,,合同会社,東京都,中野区,江原町２丁目２番５号,,13,114,1650023,,,,,,,2024-04-17,1,,,,,クリエイティブコネクト,0
2073,8011303005132,新規,0,2024-04-17,2024-04-17,まさーちこ合同会社,,合同会社,東京都,杉並区,高井戸西１丁目２６番３号,,13,115,1680071,,,,,,,2024-04-17,1,,,,,マサーチコ,0
2081,8011603004305,新規,0,2024-04-17,2024-04-17,合同会社丸松不動産,,合同会社,東京都,練馬区,高松５丁目２０番６－４０１号,,13,120,1790075,,,,,,,2024-04-17,1,,,,,マルマツフドウサン,0
2082,8011801044086,新規,0,2024-04-17,2024-04-17,株式会社Ｒｅｙ,,株式会社,東京都,足立区,梅島１丁目７番１０号,,13,121,1210816,,,,,,,2024-04-17,1,,,,,レイ,0
2087,8012403006524,新規,0,2024-04-17,2024-04-17,合同会社ＣＯＣＯ,,合同会社,東京都,狛江市,和泉本町４丁目７－１３－３０７,,13,219,2010003,,,,,,,2024-04-17,1,,,,,,0
2090,8013301052346,新規,0,2024-04-17,2024-04-17,吉祥ホールディングス株式会社,,株式会社,東京都,豊島区,巣鴨１丁目１７－３子野ビル６０１号室,,13,116,1700002,,,,,,,2024-04-17,1,,,,,キチジョウホールディングス,0
2095,8020001156724,新規,0,2024-04-17,2024-04-17,株式会社結都,,株式会社,神奈川県,川崎市幸区,中幸町３丁目２６－１,,14,132,2120012,,,,,,,2024-04-17,1,,,,,ユウト,0
2099,8020003025951,新規,0,2024-04-17,2024-04-17,イエローリッジ合同会社,,合同会社,神奈川県,横浜市神奈川区,橋本町２丁目５番地３ＳＥ－９０１,,14,102,2210053,,,,,,,2024-04-17,1,,,,,イエローリッジ,0
2104,8021001081953,新規,0,2024-04-17,2024-04-17,株式会社ＬＵＣＫＷＥＬＬ,,株式会社,神奈川県,相模原市緑区,原宿南３丁目９番地２２,,14,151,2520103,,,,,,,2024-04-17,1,,,,,ラックウェル,0
2105,8021001081994,新規,0,2024-04-17,2024-04-17,株式会社和工業,,株式会社,神奈川県,足柄下郡箱根町,湯本７９番地の１,,14,382,2500311,,,,,,,2024-04-17,1,,,,,ナゴミコウギョウ,0
2106,8021001082010,新規,0,2024-04-17,2024-04-17,株式会社ＡＬＴＲＩＮＧ,,株式会社,神奈川県,藤沢市,鵠沼橘１丁目１５番７ー７０４,,14,205,2510024,,,,,,,2024-04-17,1,,,,,アルトリング,0
2122,8030001159932,新規,0,2024-04-17,2024-04-17,株式会社Ｉｎｕ,,株式会社,埼玉県,三郷市,中央３丁目１５―６三郷中央キャスト一番館１０１号室,,11,237,3410038,,,,,,,2024-04-17,1,,,,,イヌ,0
2134,8040001133184,新規,0,2024-04-17,2024-04-17,禄優テック株式会社,,株式会社,千葉県,千葉市緑区,誉田町２丁目１７番地５,,12,105,2660005,,,,,,,2024-04-17,1,,,,,ロクユウテック,0
2136,8040003024712,新規,0,2024-04-17,2024-04-17,グリーンアセットプランニング合同会社,,合同会社,千葉県,山武郡芝山町,新井田５６２－１４,,12,409,2891625,,,,,,,2024-04-17,1,,,,,グリーンアセットプランニンング,0
2137,8040003024720,新規,0,2024-04-17,2024-04-17,ＳＡＲＡ合同会社,,合同会社,千葉県,柏市,桜台９番地２５,,12,217,2770012,,,,,,,2024-04-17,1,,,,,サラ,0
2138,8040003024761,新規,0,2024-04-17,2024-04-17,合同会社フルーク,,合同会社,千葉県,船橋市,本町７丁目２７番１－１０６号,,12,204,2730005,,,,,,,2024-04-17,1,,,,,フルーク,0
2148,8070001041649,新規,0,2024-04-17,2024-04-17,株式会社トライ,,株式会社,群馬県,高崎市,上大類町１３０５番地１パルハイム９２－２０６号,,10,202,3700031,,,,,,,2024-04-17,1,,,,,トライ,0
2149,8070001041657,新規,0,2024-04-17,2024-04-17,株式会社安達電機,,株式会社,群馬県,佐波郡玉村町,大字板井１１５２番地９,,10,464,3701135,,,,,,,2024-04-17,1,,,,,アダチデンキ,0
2150,8070003005370,新規,0,2024-04-17,2024-04-17,Ｍ＆Ａ合同会社,,合同会社,群馬県,伊勢崎市,上泉町２５３番地１５メゾンドＥＬＬＥＶＩＩ１０４,00134455,10,204,3720045,,,,,,,2024-04-17,1,,,,,エムアンドエー,0
2153,8080105006423,新規,0,2024-04-17,2024-04-17,特定非営利活動法人つなぐ,,その他の設立登記法人,静岡県,沼津市,大岡２２２６番地の３トニービル１階,,22,203,4100022,,,,,,,2024-04-17,1,,,,,ツナグ,0
2154,8080401027131,新規,0,2024-04-17,2024-04-17,株式会社橋梁メンテナンス,,株式会社,静岡県,浜松市中央区,広沢２丁目４５番１７号,,22,138,4328013,,,,,,,2024-04-17,1,,,,,キョウリョウメンテナンス,0
2158,8100001037379,新規,0,2024-04-17,2024-04-17,株式会社エムポーズ,,株式会社,長野県,北佐久郡軽井沢町,大字軽井沢１０４７番地５１ＭＯＭＩＪＩ,,20,321,3890102,,,,,,,2024-04-17,1,,,,,エムポーズ,0
2170,8120001264112,新規,0,2024-04-17,2024-04-17,株式会社ＤＥＴ,,株式会社,大阪府,大阪市北区,南森町１丁目１番２７号４Ｂ,,27,127,5300054,,,,,,,2024-04-17,1,,,,,ディーイーティー,0
2171,8120001264129,新規,0,2024-04-17,2024-04-17,株式会社Ｈａｃｈｉｋｏ,,株式会社,大阪府,大阪市東淀川区,東中島１丁目１７－１５ステュディオ新大阪１１０９,,27,114,5330033,,,,,,,2024-04-17,1,,,,,ハチコウ,0
2172,8120001264178,新規,0,2024-04-17,2024-04-17,エフケイサービス株式会社,,株式会社,大阪府,寝屋川市,上神田１丁目３４番４号,,27,215,5720052,,,,,,,2024-04-17,1,,,,,エフケイサービス,0
2173,8120001264186,新規,0,2024-04-17,2024-04-17,株式会社Ｍｉｋｋｅ,,株式会社,大阪府,大阪市天王寺区,餌差町８番２５号リベルテ真田山３０１号,,27,109,5430016,,,,,,,2024-04-17,1,,,,,ミッケ,0
2179,8120101069436,新規,0,2024-04-17,2024-04-17,株式会社キノシタ土木,,株式会社,大阪府,堺市西区,浜寺船尾町西２丁３５１番地,,27,144,5928342,,,,,,,2024-04-17,1,,,,,キノシタドボク,0
2192,8130001076853,新規,0,2024-04-17,2024-04-17,株式会社介護の相談,,株式会社,京都府,京都市下京区,四条通新町東入月鉾町３９番地１四条烏丸大西ビル９０４号,,26,106,6008492,,,,,,,2024-04-17,1,,,,,カイゴノソウダン,0
2194,8130003009464,新規,0,2024-04-17,2024-04-17,合同会社アイトレンド,,合同会社,京都府,城陽市,富野南清水５１番地の１５,,26,207,6100111,,,,,,,2024-04-17,1,,,,,アイトレンド,0
2200,8140001134049,新規,0,2024-04-17,2024-04-17,株式会社ガイナ,,株式会社,兵庫県,西宮市,南甲子園２丁目７番２２－３号,,28,204,6638153,,,,,,,2024-04-17,1,,,,,ガイナ,0
2210,8180001160966,新規,0,2024-04-17,2024-04-17,株式会社友・神,,株式会社,愛知県,名古屋市昭和区,広路町字石坂３０番地の８,,23,107,4660834,,,,,,,2024-04-17,1,,,,,ユウシン,0
2213,8180301038532,新規,0,2024-04-17,2024-04-17,株式会社レガーメ,,株式会社,愛知県,岡崎市,洞町字東前田２４番地,,23,202,4440008,,,,,,,2024-04-17,1,,,,,レガーメ,0
2214,8180303006082,新規,0,2024-04-17,2024-04-17,美里縫製合同会社,,合同会社,愛知県,豊田市,京ケ峰１丁目３番地５正木店舗１,,23,211,4710005,,,,,,,2024-04-17,1,,,,,ミサトホウセイ,0
2215,8190001031274,新規,0,2024-04-17,2024-04-17,ササオカ電工株式会社,,株式会社,三重県,四日市市,みゆきケ丘１丁目４７番地,,24,202,5100811,,,,,,,2024-04-17,1,,,,,ササオカデンコウ,0
2218,8200001042402,新規,0,2024-04-17,2024-04-17,株式会社ＬＩＮＫＸ,,株式会社,岐阜県,岐阜市,柳津町本郷４丁目１０３番地,,21,201,5016104,,,,,,,2024-04-17,1,,,,,リンクス,0
2219,8200003006306,新規,0,2024-04-17,2024-04-17,合同会社クリート,,合同会社,岐阜県,岐阜市,加納新本町１丁目４番地,,21,201,5008463,,,,,,,2024-04-17,1,,,,,クリート,0
2220,8200003006314,新規,0,2024-04-17,2024-04-17,合同会社ＨＩＲＯＭＩ,,合同会社,岐阜県,不破郡関ケ原町,大字関ケ原２１２番地１,,21,362,5031501,,,,,,,2024-04-17,1,,,,,ヒロミ,0
2222,8220005008827,新規,0,2024-04-17,2024-04-17,特定非営利活動法人まるっと,,その他の設立登記法人,石川県,鳳珠郡穴水町,字川島イの１４番地２,,17,461,9270027,,,,,,,2024-04-17,1,,,,,マルット,0
2226,8240005015763,新規,0,2024-04-17,2024-04-17,一般社団法人花束,,その他の設立登記法人,広島県,広島市中区,千田町１丁目７番１０－３０３号,,34,101,7300052,,,,,,,2024-04-17,1,,,,,ハナタバ,0
2232,8280001009162,新規,0,2024-04-17,2024-04-17,島のめぐみ麦酒株式会社,,株式会社,島根県,隠岐郡海士町,大字海士１８３９番地２町有住宅８号,,32,525,6840403,,,,,,,2024-04-17,1,,,,,シマノメグミビール,0
2235,8290001105340,新規,0,2024-04-17,2024-04-17,株式会社ジパング,,株式会社,福岡県,福岡市博多区,博多駅前１丁目２３番２号ＰａｒｋＦｒｏｎｔ博多駅前一丁目５Ｆ－Ｂ,,40,132,8120011,,,,,,,2024-04-17,1,,,,,ジパング,0
2236,8290001105398,新規,0,2024-04-17,2024-04-17,株式会社ＡＩＵ,,株式会社,福岡県,大牟田市,諏訪町３丁目１９番地,,40,202,8360051,,,,,,,2024-04-17,1,,,,,エーアイユー,0
2237,8290001105415,新規,0,2024-04-17,2024-04-17,Ｎｅｘｔ　Ｌｅａｐ株式会社,,株式会社,福岡県,福岡市博多区,千代１丁目２１番７－１００２号エンクレスト博多ＥＡＳＴＰＡＲＫ,,40,132,8120044,,,,,,,2024-04-17,1,,,,,ネクストリープ,0
2238,8290001105431,新規,0,2024-04-17,2024-04-17,江都株式会社,,株式会社,福岡県,福岡市東区,香椎照葉７丁目２番３７号,,40,131,8130017,,,,,,,2024-04-17,1,,,,,エト,0
2240,8290003015166,新規,0,2024-04-17,2024-04-17,ＤＨ合同会社,,合同会社,福岡県,福岡市博多区,山王１丁目１番１６号,,40,132,8120015,,,,,,,2024-04-17,1,,,,,ディーエイチ,0
2241,8290003015174,新規,0,2024-04-17,2024-04-17,ニューブランチ合同会社,,合同会社,福岡県,筑紫野市,上古賀１丁目１７番１０号,,40,217,8180041,,,,,,,2024-04-17,1,,,,,ニューブランチ,0
2243,8290801030498,新規,0,2024-04-17,2024-04-17,株式会社Ｋ,,株式会社,福岡県,北九州市八幡西区,折尾３丁目２番５号,,40,109,8070825,,,,,,,2024-04-17,1,,,,,ケイ,0
2251,8350001018924,新規,0,2024-04-17,2024-04-17,株式会社マエノ,,株式会社,宮崎県,都城市,下水流町１４０番地１,,45,202,8851102,,,,,,,2024-04-17,1,,,,,マエノ,0
2254,8360001033526,新規,0,2024-04-17,2024-04-17,株式会社ＫＤ　ＧＬＯＢＡＬ　ＬＩＮＫ,,株式会社,沖縄県,名護市,宮里５丁目１番８号なかざとハイツ２０７号室,,47,209,9050011,,,,,,,2024-04-17,1,,,,,ケーディイグローバルリンク,0
2259,8370001051196,新規,0,2024-04-17,2024-04-17,株式会社ＴＷＯ　ＯＦ　ＵＳ,,株式会社,宮城県,仙台市青葉区,五橋２丁目４番１５号,,04,101,9800022,,,,,,,2024-04-17,1,,,,,トゥーオブアス,0
2266,8400001016625,新規,0,2024-04-17,2024-04-17,盛岡山王不動産株式会社,,株式会社,岩手県,盛岡市,山王町１番１１号,,03,201,0200821,,,,,,,2024-04-17,1,,,,,モリオカサンノウフドウサン,0
2273,8430003016216,新規,0,2024-04-17,2024-04-17,Ｒｏｏｋｉｅｓ　Ｊａｐａｎ合同会社,,合同会社,北海道,虻田郡京極町,字川西８７‐１７,,01,399,0440131,,,,,,,2024-04-17,1,,,,,ルーキーズジャパン,0
2275,8450001014285,新規,0,2024-04-17,2024-04-17,株式会社ＬＩＮＫＲＩＳＥ,,株式会社,北海道,旭川市,永山一条２４丁目６番８号アルカーノ２０２,,01,204,0798411,,,,,,,2024-04-17,1,,,,,リンクライズ,0
2278,8460105002284,新規,0,2024-04-17,2024-04-17,農事組合法人荒井農産,,その他の設立登記法人,北海道,帯広市,東十四条南６丁目１番地１０,,01,207,0800814,,,,,,,2024-04-17,1,,,,,,0
2281,8470003002625,新規,0,2024-04-17,2024-04-17,合同会社福笑,,合同会社,香川県,さぬき市,長尾西２０５番地１０,,37,206,7692302,,,,,,,2024-04-17,1,,,,,フクエ,0
2287,8700150124875,新規,0,2024-04-17,2024-04-17,認可地縁団体法人　三坂区自治会,,その他,佐賀県,嬉野市,嬉野町大字下野丙１６７９－５,,41,209,8430302,,,,,,,2024-04-17,1,,,,,ニンカチエンダンタイホウジンサンサカクジチカイ,0
2294,9010001244041,新規,0,2024-04-17,2024-04-17,株式会社７ｘ８ＢｉｏＳｃｉｅｎｃｅｓ,,株式会社,東京都,千代田区,永田町２丁目１１番１号山王パークタワー４階永峰三島コンサルティング内,,13,101,1000014,,,,,,,2024-04-17,1,,,,,セブンバイエイトバイオサイエンス,0
2295,9010001244132,新規,0,2024-04-17,2024-04-17,センチュリー富士見投資株式会社,,株式会社,東京都,中央区,入船２丁目３番７号ＴＳＵＫＩＪＩＥＡＳＴＳＱＵＡＲＥ６階,,13,102,1040042,,,,,,,2024-04-17,1,,,,,センチュリーフジミトウシ,0
2312,9010401181735,新規,0,2024-04-17,2024-04-17,ＫＷグローバル株式会社,,株式会社,東京都,港区,北青山１丁目３番１号アールキューブ青山３階,,13,103,1070061,,,,,,,2024-04-17,1,,,,,ケーダブリューグローバル,0
2313,9010401181834,新規,0,2024-04-17,2024-04-17,株式会社知開,,株式会社,東京都,港区,六本木６丁目８番１０号ＳＴＥＰ六本木４階,,13,103,1060032,,,,,,,2024-04-17,1,,,,,チカイ,0
2314,9010405023173,新規,0,2024-04-17,2024-04-17,Ｎ８６一般社団法人,,その他の設立登記法人,東京都,港区,元赤坂１丁目１番８号株式会社赤坂国際会計内,,13,103,1070051,,,,,,,2024-04-17,1,,,,,エヌエイティーシックス,0
2316,9010501052101,新規,0,2024-04-17,2024-04-17,キタタマテリア株式会社,,株式会社,東京都,台東区,三ノ輪１丁目３番１０号,,13,106,1100011,,,,,,,2024-04-17,1,,,,,キタタマテリア,0
2317,9010501052118,新規,0,2024-04-17,2024-04-17,株式会社Ｇ２１,,株式会社,東京都,台東区,駒形２丁目１番２号アビテ駒形８０３号,,13,106,1110043,,,,,,,2024-04-17,1,,,,,ジートゥワン,0
2318,9010501052126,新規,0,2024-04-17,2024-04-17,富元株式会社,,株式会社,東京都,台東区,元浅草３丁目３番１０－７０１号,,13,106,1110041,,,,,,,2024-04-17,1,,,,,トミゲン,0
2323,9010503007409,新規,0,2024-04-17,2024-04-17,輝太郎合同会社,,合同会社,東京都,台東区,駒形２丁目３番４号１１０４,,13,106,1110043,,,,,,,2024-04-17,1,,,,,キタロウ,0
2326,9010803004915,新規,0,2024-04-17,2024-04-17,合同会社グランスリー,,合同会社,東京都,大田区,田園調布本町４５番１１号,,13,111,1450072,,,,,,,2024-04-17,1,,,,,グランスリー,0
2330,9010901055075,新規,0,2024-04-17,2024-04-17,スカイウオーカー株式会社,,株式会社,東京都,世田谷区,上用賀４丁目３４番１号,,13,112,1580098,,,,,,,2024-04-17,1,,,,,スカイウオーカー,0
2331,9010901055083,新規,0,2024-04-17,2024-04-17,株式会社ＴＯＧＡＲＡＳＵ,,株式会社,東京都,世田谷区,砧５丁目１０番１５号,,13,112,1570073,,,,,,,2024-04-17,1,,,,,トガラス,0
2332,9010901055091,新規,0,2024-04-17,2024-04-17,アリボックスライフ株式会社,,株式会社,東京都,世田谷区,成城１丁目２６番９－２０２号,,13,112,1570066,,,,,,,2024-04-17,1,,,,,アリボックスライフ,0
2334,9010903008980,新規,0,2024-04-17,2024-04-17,合同会社Ｏｎｅ　ｃｈｏｉｃｅ,,合同会社,東京都,世田谷区,給田４丁目１８番１号３０３,,13,112,1570064,,,,,,,2024-04-17,1,,,,,ワンチョイス,0
2335,9010905004607,新規,0,2024-04-17,2024-04-17,一般社団法人自立支援英才塾,,その他の設立登記法人,東京都,世田谷区,太子堂２丁目３０番１号第二丸栄ビル１階,,13,112,1540004,,,,,,,2024-04-17,1,,,,,ジリツシエンエイサイジュク,0
2337,9011001161409,新規,0,2024-04-17,2024-04-17,株式会社Ｒ　ＬＯＶＥＲ,,株式会社,東京都,渋谷区,道玄坂２丁目６番１２号道玄坂トロワー地下１階ｂ１０１,,13,113,1500043,,,,,,,2024-04-17,1,,,,,アールラバー,0
2338,9011001161433,新規,0,2024-04-17,2024-04-17,株式会社ベルエージェント,,株式会社,東京都,目黒区,自由が丘２丁目３番１８号１０２号室,,13,110,1520035,,,,,,,2024-04-17,1,,,,,ベルエージェント,0
2341,9011101106981,新規,0,2024-04-17,2024-04-17,日本未来車工株式会社,,株式会社,東京都,新宿区,新宿７丁目２０番６号１Ｆ,,13,104,1600022,,,,,,,2024-04-17,1,,,,,ニホンミライシャコウ,0
2342,9011103014332,新規,0,2024-04-17,2024-04-17,合同会社アンジュ,,合同会社,東京都,新宿区,西新宿３丁目３番１３号西新宿水間ビル２Ｆ,,13,104,1600023,,,,,,,2024-04-17,1,,,,,アンジュ,0
2350,9011801044069,新規,0,2024-04-17,2024-04-17,株式会社小林電業社,,株式会社,東京都,葛飾区,堀切７丁目１０番５号,,13,122,1240006,,,,,,,2024-04-17,1,,,,,コバヤシデンギョウシャ,0
2356,9012403006523,新規,0,2024-04-17,2024-04-17,合同会社ＩＯＦ,,合同会社,東京都,多摩市,唐木田１丁目５２番地の３,,13,224,2060035,,,,,,,2024-04-17,1,,,,,アイオーエフ,0
2367,9020003025942,新規,0,2024-04-17,2024-04-17,合同会社ももふねアセット,,合同会社,神奈川県,横浜市港北区,新横浜２丁目１４番８号,,14,109,2220033,,,,,,,2024-04-17,1,,,,,モモフネアセット,0
2381,9030001159741,新規,0,2024-04-17,2024-04-17,株式会社Ｇａｒｎｅｌｅメディカル,,株式会社,埼玉県,鴻巣市,加美１丁目２番２４号,,11,217,3650078,,,,,,,2024-04-17,1,,,,,ガルネーレメディカル,0
2382,9030001159816,新規,0,2024-04-17,2024-04-17,株式会社日本つばさ不動産,,株式会社,埼玉県,さいたま市大宮区,宮町２丁目９３番地２ＢＩＺｃｏｍｆｏｒｔ大宮東口５階４６号室,,11,103,3300802,,,,,,,2024-04-17,1,,,,,ニホンツバサフドウサン,0
2383,9030001159881,新規,0,2024-04-17,2024-04-17,株式会社ＡＴＡ　ＷＯＲＬＤ,,株式会社,埼玉県,さいたま市見沼区,大字御蔵１３５０番地７,,11,104,3370033,,,,,,,2024-04-17,1,,,,,エーティーエーワールド,0
2392,9040001133159,新規,0,2024-04-17,2024-04-17,株式会社ＹＺ商事,,株式会社,千葉県,習志野市,谷津３丁目２５番２４号,,12,216,2750026,,,,,,,2024-04-17,1,,,,,ワイゼットショウジ,0
2393,9040001133175,新規,0,2024-04-17,2024-04-17,偉格斯化学株式会社,,株式会社,千葉県,東金市,松之郷字笹目沢３９９１番地１,,12,213,2830805,,,,,,,2024-04-17,1,,,,,イカクスカガク,0
2399,9060001037011,新規,0,2024-04-17,2024-04-17,株式会社ＫＢＩ空調設備工業,,株式会社,栃木県,日光市,小倉８２０番地１９,,09,206,3211106,,,,,,,2024-04-17,1,,,,,ケイビイアイクウチョウセツビコウギョウ,0
2407,9070005010260,新規,0,2024-04-17,2024-04-17,一般社団法人もも代の会,,その他の設立登記法人,群馬県,邑楽郡大泉町,大字吉田３２１４番地の２,,10,524,3700523,,,,,,,2024-04-17,1,,,,,モモヨノカイ,0
2408,9080001026243,新規,0,2024-04-17,2024-04-17,株式会社明翔工商,,株式会社,静岡県,藤枝市,仮宿７１０番地の５７,,22,214,4260001,,,,,,,2024-04-17,1,,,,,メイショウコウショウ,0
2413,9080101024675,新規,0,2024-04-17,2024-04-17,株式会社ゼネサン金型,,株式会社,静岡県,富士市,五貫島１１７７,,22,210,4160946,,,,,,,2024-04-17,1,,,,,ゼネサンカナガタ,0
2414,9080101024683,新規,0,2024-04-17,2024-04-17,株式会社リブライト,,株式会社,静岡県,三島市,徳倉８７６－１９,,22,206,4110044,,,,,,,2024-04-17,1,,,,,リブライト,0
2415,9080103003041,新規,0,2024-04-17,2024-04-17,イーシージャパン合同会社,,合同会社,静岡県,御殿場市,東田中２丁目３番８号グランブルー３０５,,22,215,4120026,,,,,,,2024-04-17,1,,,,,イーシージャパン,0
2416,9080105006422,新規,0,2024-04-17,2024-04-17,一般社団法人ヘルプフル,,その他の設立登記法人,静岡県,富士宮市,上稲子３８２４－１,,22,207,4190311,,,,,,,2024-04-17,1,,,,,ヘルプフル,0
2421,9100003007494,新規,0,2024-04-17,2024-04-17,合同会社ＴＳＫ,,合同会社,長野県,長野市,篠ノ井塩崎６５３０－２,,20,201,3888014,,,,,,,2024-04-17,1,,,,,ティーエスケー,0
2428,9120001264103,新規,0,2024-04-17,2024-04-17,株式会社ＷＡＫＵＷＡＫＵＪＡＰＡＮ,,株式会社,大阪府,大阪市浪速区,難波中１丁目３番１８号ＤＡＩＩＣＨＩビル９階,,27,111,5560011,,,,,,,2024-04-17,1,,,,,ワクワクジャパン,0
2429,9120001264111,新規,0,2024-04-17,2024-04-17,株式会社ＫＮＯＴＹ,,株式会社,大阪府,大阪市東成区,大今里南６丁目２６番２０号,,27,115,5370013,,,,,,,2024-04-17,1,,,,,ノットワイ,0
2430,9120001264169,新規,0,2024-04-17,2024-04-17,株式会社ＳＡＫＡＥ,,株式会社,大阪府,大阪市天王寺区,烏ケ辻１丁目９番２５－２０３号,00134435,27,109,5430042,,,,,,,2024-04-17,1,,,,,サカエ,0
2431,9120001264268,新規,0,2024-04-17,2024-04-17,株式会社エアー,,株式会社,大阪府,大阪市中央区,森ノ宮中央１丁目１６番１９号トップヒルズ森之宮３０１,,27,128,5400003,,,,,,,2024-04-17,1,,,,,エアー,0
2437,9120101069435,新規,0,2024-04-17,2024-04-17,株式会社ハート看護,,株式会社,大阪府,和泉市,桑原町２７９番地の２第１泉洋ビル３０４,,27,219,5940066,,,,,,,2024-04-17,1,,,,,ハートカンゴ,0
2442,9120901049041,新規,0,2024-04-17,2024-04-17,株式会社スマイルジョイ,,株式会社,大阪府,吹田市,片山町２丁目４番１５号吹田グリーンプレイス,,27,205,5640082,,,,,,,2024-04-17,1,,,,,スマイルジョイ,0
2445,9122001038016,新規,0,2024-04-17,2024-04-17,株式会社Ｓｉｇｎ　Ｈｏｍｅ,,株式会社,大阪府,東大阪市,小阪本町１丁目１２番４号,,27,227,5770802,,,,,,,2024-04-17,1,,,,,サインホーム,0
2446,9122001038024,新規,0,2024-04-17,2024-04-17,株式会社鮮魚香川,,株式会社,大阪府,東大阪市,足代１丁目２１番４－１１３号,,27,227,5770841,,,,,,,2024-04-17,1,,,,,センギョカガワ,0
2453,9130001076877,新規,0,2024-04-17,2024-04-17,Ｇａｍｅ＆Ｔａｌｋ株式会社,,株式会社,京都府,京都市下京区,七条通油小路東入大黒町２２７番地第２キョートビル４０２,,26,106,6008223,,,,,,,2024-04-17,1,,,,,ゲームアンドトーク,0
2457,9140001134089,新規,0,2024-04-17,2024-04-17,株式会社フロントロー,,株式会社,兵庫県,神戸市東灘区,魚崎中町４丁目６番１４号松原ハイツ２０５号室,,28,101,6580083,,,,,,,2024-04-17,1,,,,,,0
2459,9140003020436,新規,0,2024-04-17,2024-04-17,合同会社ミライダネ,,合同会社,兵庫県,三田市,あかしあ台４丁目１０番地８,,28,219,6691323,,,,,,,2024-04-17,1,,,,,ミライダネ,0
2460,9140005027033,新規,0,2024-04-17,2024-04-17,一般社団法人ｗｒｅａｔｈ,,その他の設立登記法人,兵庫県,神戸市中央区,磯辺通１丁目１番１８号カサベラ国際プラザビル７０７号室,,28,110,6510084,,,,,,,2024-04-17,1,,,,,リース,0
2471,9180001160965,新規,0,2024-04-17,2024-04-17,株式会社ニュートラストジャパン,,株式会社,愛知県,岩倉市,下本町下市場９１番地１２０１号,,23,228,4820005,,,,,,,2024-04-17,1,,,,,ニュートラストジャパン,0
2472,9180001160981,新規,0,2024-04-17,2024-04-17,株式会社ＬＵＮＥ,,株式会社,愛知県,名古屋市中区,丸の内１丁目９番２７号クルールビル４階Ｃ,,23,106,4600002,,,,,,,2024-04-17,1,,,,,ルヌ,0
2473,9180001161006,新規,0,2024-04-17,2024-04-17,株式会社余語会計,,株式会社,愛知県,尾張旭市,東大道町原田２６７２番地１０,,23,226,4880801,,,,,,,2024-04-17,1,,,,,ヨゴカイケイ,0
2474,9180001161022,新規,0,2024-04-17,2024-04-17,株式会社Ｙ＆ＡＥ,,株式会社,愛知県,半田市,柊町２丁目１３番地の１６,,23,205,4750916,,,,,,,2024-04-17,1,,,,,ワイアンドエーイー,0
2479,9180003026644,新規,0,2024-04-17,2024-04-17,合同会社ＥＫＯ,,合同会社,愛知県,名古屋市南区,豊１丁目４１番１７号,,23,112,4570863,,,,,,,2024-04-17,1,,,,,エコー,0
2480,9180003026660,新規,0,2024-04-17,2024-04-17,Ｐ＆Ｎ合同会社,,合同会社,愛知県,一宮市,木曽川町門間字福塚前７６番地リトルタウン福塚ＩＩ２１２号,00134436,23,203,4930002,,,,,,,2024-04-17,1,,,,,ピーアンドエヌ,0
2482,9180301038531,新規,0,2024-04-17,2024-04-17,株式会社ｎｏａｈ,,株式会社,愛知県,高浜市,湯山町４丁目１４番地１８,,23,227,4441332,,,,,,,2024-04-17,1,,,,,ノア,0
2483,9190001031273,新規,0,2024-04-17,2024-04-17,株式会社なないろカンパニー,,株式会社,三重県,桑名市,大字蓮花寺６４４番地１４０,,24,205,5110854,,,,,,,2024-04-17,1,,,,,ナナイロカンパニー,0
2489,9210001019720,新規,0,2024-04-17,2024-04-17,株式会社あそびば,,株式会社,福井県,福井市,宝永２丁目１―４５,,18,201,9100004,,,,,,,2024-04-17,1,,,,,アソビバ,0
2491,9230001020296,新規,0,2024-04-17,2024-04-17,株式会社東工業,,株式会社,富山県,富山市,金山新東３番地１,,16,201,9302205,,,,,,,2024-04-17,1,,,,,ヒガシコウギョウ,0
2493,9230003002185,新規,0,2024-04-17,2024-04-17,合同会社三丸工業,,合同会社,富山県,射水市,稲積１３０３番地１,,16,211,9390301,,,,,,,2024-04-17,1,,,,,サンマルコウギョウ,0
2495,9240003006631,新規,0,2024-04-17,2024-04-17,Ｒｉｇｈｔ　Ｔｕｒｎ　Ａｒｏｕｎｄ合同会社,,合同会社,広島県,広島市安佐南区,祇園３丁目２５番２３－２０１号,,34,105,7310138,,,,,,,2024-04-17,1,,,,,ライトターンアラウンド,0
2496,9240005015762,新規,0,2024-04-17,2024-04-17,一般社団法人こども未来会議,,その他の設立登記法人,広島県,広島市西区,井口台２丁目１番１７号,,34,104,7330844,,,,,,,2024-04-17,1,,,,,コドモミライカイギ,0
2504,9290001105406,新規,0,2024-04-17,2024-04-17,株式会社Ｑｕａｌｉａ,,株式会社,福岡県,福岡市早良区,南庄２丁目９番２２号,,40,137,8140031,,,,,,,2024-04-17,1,,,,,クオリア,0
2505,9290001105447,新規,0,2024-04-17,2024-04-17,株式会社ＴＥＲＡ,,株式会社,福岡県,福岡市中央区,渡辺通５丁目７番２５号,,40,133,8100004,,,,,,,2024-04-17,1,,,,,テラ,0
2506,9290003015173,新規,0,2024-04-17,2024-04-17,合同会社川西企画,,合同会社,福岡県,福津市,津屋崎４丁目３９番２１号,,40,224,8113304,,,,,,,2024-04-17,1,,,,,カワニシキカク,0
2507,9290801030506,新規,0,2024-04-17,2024-04-17,株式会社オフィス・ケー・ティー・シー,,株式会社,福岡県,北九州市戸畑区,沢見２丁目４番２－６０４号,,40,105,8040093,,,,,,,2024-04-17,1,,,,,オフィスケーティーシー,0
2514,9330001031960,新規,0,2024-04-17,2024-04-17,株式会社ＮＥＯ　ＢＬＯＯＭ,,株式会社,熊本県,熊本市北区,山室１丁目１６番５８号,,43,105,8600084,,,,,,,2024-04-17,1,,,,,ネオブルーム,0
2523,9360001033517,新規,0,2024-04-17,2024-04-17,ＵＴＡＫＡＴＡ株式会社,,株式会社,沖縄県,那覇市,古波蔵３丁目１８番２７号神里アパート１－２,,47,201,9000024,,,,,,,2024-04-17,1,,,,,ウタカタ,0
2524,9370001051195,新規,0,2024-04-17,2024-04-17,株式会社鈴木板金工業,,株式会社,宮城県,石巻市,美園３丁目２番地１０,,04,202,9860033,,,,,,,2024-04-17,1,,,,,スズキバンキンコウギョウ,0
2526,9380003005735,新規,0,2024-04-17,2024-04-17,合同会社ＳＹＮ　ＳＴＵＤＩＯ,,合同会社,福島県,伊達市,保原町上保原字寺前２６番地１０,,07,213,9600684,,,,,,,2024-04-17,1,,,,,エスワイエヌスタジオ,0
2529,9390003002236,新規,0,2024-04-17,2024-04-17,池田板金合同会社,,合同会社,山形県,酒田市,小泉字上川原１２番地の５,,06,204,9998234,,,,,,,2024-04-17,1,,,,,イケダバンキン,0
2531,9400001016624,新規,0,2024-04-17,2024-04-17,株式会社ナノ・システム設計,,株式会社,岩手県,盛岡市,東中野字五輪１０番地３５,,03,201,0200817,,,,,,,2024-04-17,1,,,,,ナノシステムセッケイ,0
2539,9430001091607,新規,0,2024-04-17,2024-04-17,株式会社マハロ,,株式会社,北海道,北広島市,里見町１丁目５番地５,,01,234,0611147,,,,,,,2024-04-17,1,,,,,マハロ,0
2547,9430005014968,新規,0,2024-04-17,2024-04-17,一般社団法人ＯＭＯＩＯ,,その他の設立登記法人,北海道,札幌市中央区,大通西１４丁目１番地１４,,01,101,0600042,,,,,,,2024-04-17,1,,,,,オモイヲ,0
2552,9470003002632,新規,0,2024-04-17,2024-04-17,合同会社浩栄水産,,合同会社,香川県,丸亀市,垂水町２０３３番地４,,37,202,7630095,,,,,,,2024-04-17,1,,,,,コウエイスイサン,0
