sequenceNumber,corporateNumber,process,correct,updateDate,changeDate,name,nameImageId,kind,prefectureName,cityName,streetNumber,addressImageId,prefectureCode,cityCode,postCode,addressOutside,addressOutsideImageId,closeDate,closeCause,successorCorporateNumber,changeCause,assignmentDate,latest,enName,enPrefectureName,enCityName,enAddressOutside,furigana,hihyoji
15,1010005033984,新規,0,2021-09-21,2021-09-21,一般社団法人首都圏免震・無災害地域移転推進協議会,,その他の設立登記法人,東京都,中央区,京橋２丁目８番１号,,13,102,1040031,,,,,,,2021-09-21,1,,,,,,0
19,1010101014871,新規,0,2021-09-21,2021-09-21,株式会社ｈ＆ｈ　ｉｎｎｏｖａｔｉｏｎｓ,,株式会社,東京都,八王子市,横山町５番１４号ｗｉｌｌＤｏ八王子１Ｆ,,13,201,1920081,,,,,,,2021-09-21,1,,,,,エイチアンドエイチイノベーションズ,0
33,1010605003998,新規,0,2021-09-21,2021-09-21,医療法人社団敬枝会,,その他の設立登記法人,東京都,墨田区,東向島２丁目３９番１０号ナンカイパート１－１階Ａ区画,,13,107,1310032,,,,,,,2021-09-21,1,,,,,ケイシカイ,0
37,1010701041522,新規,0,2021-09-21,2021-09-21,株式会社小山事務所,,株式会社,東京都,品川区,東五反田５丁目２５番１９号東京デザインセンター３Ｆ株式会社ジオブレイン内,,13,109,1410022,,,,,,,2021-09-21,1,,,,,コヤマジムショ,0
42,1010901049480,新規,0,2021-09-21,2021-09-21,Ｒｅａｔｏｐｉａ株式会社,,株式会社,東京都,世田谷区,奥沢５丁目１番１１号,,13,112,1580083,,,,,,,2021-09-21,1,,,,,リアトピア,0
44,1011001142845,新規,0,2021-09-21,2021-09-21,株式会社ｋ．,,株式会社,東京都,渋谷区,広尾５丁目１９番１７－２０８号,,13,113,1500012,,,,,,,2021-09-21,1,,,,,ケードット,0
45,1011001142861,新規,0,2021-09-21,2021-09-21,Ｅ－ｂｏｘ株式会社,,株式会社,東京都,渋谷区,恵比寿南３丁目９番３５号ワクセル恵比寿,,13,113,1500022,,,,,,,2021-09-21,1,,,,,エボックス,0
54,1011301027176,新規,0,2021-09-21,2021-09-21,株式会社へんじん,,株式会社,東京都,杉並区,井草３丁目２２番３号井上ビル１３号館４０１号室,,13,115,1670021,,,,,,,2021-09-21,1,,,,,ヘンジン,0
56,1011601025409,新規,0,2021-09-21,2021-09-21,新和教材株式会社,,株式会社,東京都,練馬区,高野台３丁目３３番１９－１０１号,,13,120,1770033,,,,,,,2021-09-21,1,,,,,シンワキョウザイ,0
58,1011801039720,新規,0,2021-09-21,2021-09-21,株式会社まめとら,,株式会社,東京都,葛飾区,高砂７丁目２番４号,,13,122,1250054,,,,,,,2021-09-21,1,,,,,マメトラ,0
68,1012705002277,新規,0,2021-09-21,2021-09-21,医療法人社団ＢＲＩＬＬＩＡＮＴ,,その他の設立登記法人,東京都,西東京市,谷戸町２丁目３番７号フレスポひばりが丘３０１０区画,,13,229,1880001,,,,,,,2021-09-21,1,,,,,ブリリアント,0
73,1020001143076,新規,0,2021-09-21,2021-09-21,株式会社もくもく,,株式会社,神奈川県,横浜市神奈川区,大野町１番地２５横浜ポートサイドプレイス８０６号,,14,102,2210055,,,,,,,2021-09-21,1,,,,,モクモク,0
74,1020001143084,新規,0,2021-09-21,2021-09-21,株式会社ＥＫ　Ｃｒｅａｔｉｖｅ,,株式会社,神奈川県,横浜市西区,北幸１丁目１１番１号水信ビル７階,,14,103,2200004,,,,,,,2021-09-21,1,,,,,イーケークリエイティブ,0
76,1020003020505,新規,0,2021-09-21,2021-09-21,システムリフター合同会社,,合同会社,神奈川県,横浜市鶴見区,岸谷３丁目８－１５－５１５,,14,101,2300078,,,,,,,2021-09-21,1,,,,,システムリフター,0
88,1030001144387,新規,0,2021-09-21,2021-09-21,株式会社アライバル,,株式会社,埼玉県,桶川市,泉２丁目１９番５０号１－３０８号,,11,231,3630021,,,,,,,2021-09-21,1,,,,,アライバル,0
89,1030001144412,新規,0,2021-09-21,2021-09-21,株式会社Ｆ－Ｅｖａ,,株式会社,埼玉県,深谷市,折之口３３５番地６,,11,218,3660812,,,,,,,2021-09-21,1,,,,,エフエヴァ,0
90,1030001144420,新規,0,2021-09-21,2021-09-21,株式会社ＨｉＦｕＭｉ,,株式会社,埼玉県,さいたま市大宮区,宮町４丁目１４８番地８,,11,103,3300802,,,,,,,2021-09-21,1,,,,,ヒフミ,0
91,1030001144429,新規,0,2021-09-21,2021-09-21,株式会社ＴＫコーポレーション,,株式会社,埼玉県,さいたま市大宮区,下町３丁目７番地１－Ｆ９０１号,,11,103,3300844,,,,,,,2021-09-21,1,,,,,ティーケーコーポレーション,0
93,1030003017979,新規,0,2021-09-21,2021-09-21,アクアス合同会社,,合同会社,埼玉県,ふじみ野市,西鶴ケ岡１７７２番地１１,,11,245,3560044,,,,,,,2021-09-21,1,,,,,アクアス,0
94,1030003017987,新規,0,2021-09-21,2021-09-21,合同会社ｉｋｉ,,合同会社,埼玉県,所沢市,御幸町１番１６－２８０９号所沢スカイライズタワー,,11,208,3591115,,,,,,,2021-09-21,1,,,,,イキ,0
103,1040003018530,新規,0,2021-09-21,2021-09-21,合同会社ＳｕｎＸ,,合同会社,千葉県,流山市,三輪野山２丁目５番地の６,,12,220,2700175,,,,,,,2021-09-21,1,,,,,サンクス,0
104,1040003018563,新規,0,2021-09-21,2021-09-21,合同会社ＢｅｎＡｉｒ,,合同会社,千葉県,八千代市,八千代台北１３丁目８番２８号,,12,221,2760031,,,,,,,2021-09-21,1,,,,,ベンエアー,0
116,1060002016178,新規,0,2021-09-21,2021-09-21,有限会社ニッショウ物産,,有限会社,栃木県,日光市,鬼怒川温泉大原１３７５番地１４,,09,206,3212522,,,,,,,2021-09-21,1,,,,,ニッショウブッサン,0
119,1070001038453,新規,0,2021-09-21,2021-09-21,株式会社ミヤギ・ウッド・リサイクル・ファクトリー,,株式会社,群馬県,前橋市,鼻毛石町８３９番地,,10,201,3710244,,,,,,,2021-09-21,1,,,,,ミヤギウッドリサイクルファクトリー,0
131,1100001034622,新規,0,2021-09-21,2021-09-21,株式会社Ｓｏｍｍ－Ｓｏｍｍ,,株式会社,長野県,上田市,手塚８７１番地５,,20,203,3861433,,,,,,,2021-09-21,1,,,,,ソムソム,0
139,1120001240458,新規,0,2021-09-21,2021-09-21,マルスケム株式会社,,株式会社,大阪府,大阪市西成区,玉出西２丁目１２－１１チェリーハイツ２０５室,,27,122,5570045,,,,,,,2021-09-21,1,,,,,マルスケム,0
144,1120003020271,新規,0,2021-09-21,2021-09-21,合同会社ｏｆｆｉｃｅあじさい,,合同会社,大阪府,大阪市城東区,諏訪３丁目５－１５－７０４,,27,118,5360021,,,,,,,2021-09-21,1,,,,,オフィスアジサイ,0
153,1120105009452,新規,0,2021-09-21,2021-09-21,一般社団法人ハピネスラボ,,その他の設立登記法人,大阪府,堺市南区,釜室１８８番地４８,,27,145,5900122,,,,,,,2021-09-21,1,,,,,ハピネスラボ,0
155,1120901044909,新規,0,2021-09-21,2021-09-21,株式会社祖田商会,,株式会社,大阪府,摂津市,新在家２丁目１１番２４号,,27,224,5660055,,,,,,,2021-09-21,1,,,,,ソダショウカイ,0
156,1120901044917,新規,0,2021-09-21,2021-09-21,株式会社ａｃｔ,,株式会社,大阪府,吹田市,泉町３丁目１９番２６号,,27,205,5640041,,,,,,,2021-09-21,1,,,,,アクト,0
187,1180001147912,新規,0,2021-09-21,2021-09-21,株式会社ＡＵＴＯ　ＢＲＡＩＮ　ＪＡＰＡＮ,,株式会社,愛知県,名古屋市中区,栄１丁目２４番１１号‐１７０２,,23,106,4600008,,,,,,,2021-09-21,1,,,,,オートブレインジャパン,0
194,1180005019447,新規,0,2021-09-21,2021-09-21,社会保険労務士法人ミライズ労務コンサルティング,,その他の設立登記法人,愛知県,名古屋市中区,橘２丁目１番２４号,,23,106,4600016,,,,,,,2021-09-21,1,,,,,ミライズロウムコンサルティング,0
197,1180301035379,新規,0,2021-09-21,2021-09-21,株式会社Ｂｉ　ｐｅｒｓｏｎａ,,株式会社,愛知県,豊川市,大崎町野中９７番地５,,23,207,4420007,,,,,,,2021-09-21,1,,,,,ビペルソナ,0
198,1180301035387,新規,0,2021-09-21,2021-09-21,株式会社Ｏｓｃａｒ,,株式会社,愛知県,安城市,大岡町唐津４８番地６,,23,212,4460017,,,,,,,2021-09-21,1,,,,,オスカー,0
203,1200001039157,新規,0,2021-09-21,2021-09-21,株式会社ウィステリア,,株式会社,岐阜県,岐阜市,城東通３丁目３６番地,,21,201,5008441,,,,,,,2021-09-21,1,,,,,ウィステリア,0
204,1200001039165,新規,0,2021-09-21,2021-09-21,高一株式会社,,株式会社,岐阜県,羽島郡岐南町,伏屋４丁目１３９番地の３,,21,302,5016006,,,,,,,2021-09-21,1,,,,,タカイチ,0
222,1240001058632,新規,0,2021-09-21,2021-09-21,株式会社安芸造園,,株式会社,広島県,広島市西区,己斐本町３丁目１７番１８号,,34,104,7330812,,,,,,,2021-09-21,1,,,,,アキゾウエン,0
226,1250001019138,新規,0,2021-09-21,2021-09-21,株式会社Ｄ・ＭＡＬＴＨ,,株式会社,山口県,美祢市,大嶺町東分２９６９番地,,35,213,7592212,,,,,,,2021-09-21,1,,,,,ディーマルス,0
234,1290801027815,新規,0,2021-09-21,2021-09-21,株式会社ＬＡＬ　ＴＲＡＤＩＮＧ,,株式会社,福岡県,宮若市,磯光１３１１番地１,,40,226,8230004,,,,,,,2021-09-21,1,,,,,ラルトレーディング,0
236,1310005008543,新規,0,2021-09-21,2021-09-21,特定非営利活動法人ナナイロ,,その他の設立登記法人,長崎県,長崎市,万屋町５番１２号２０１号室,,42,201,8500852,,,,,,,2021-09-21,1,,,,,ナナイロ,0
239,1320001018611,新規,0,2021-09-21,2021-09-21,株式会社健康資本,,株式会社,大分県,別府市,上人ケ浜町５番２１号,,44,202,8740023,,,,,,,2021-09-21,1,,,,,ケンコウシホン,0
244,1330003009046,新規,0,2021-09-21,2021-09-21,合同会社フロンティア,,合同会社,熊本県,熊本市南区,八幡５丁目３番３３号,,43,104,8614113,,,,,,,2021-09-21,1,,,,,フロンティア,0
250,1350001017313,新規,0,2021-09-21,2021-09-21,株式会社Ｋ－Ｓｔｙｌｅ,,株式会社,宮崎県,宮崎市,北川内町円光明６３４５番地１３,,45,201,8800941,,,,,,,2021-09-21,1,,,,,ケースタイル,0
254,1360001029398,新規,0,2021-09-21,2021-09-21,株式会社ＢＵＧ,,株式会社,沖縄県,中頭郡北谷町,北谷１丁目８番地８コーポサングレース１０２,,47,326,9040116,,,,,,,2021-09-21,1,,,,,ビーユージー,0
256,1360003011461,新規,0,2021-09-21,2021-09-21,ＴＫ豊崎トラスト合同会社,,合同会社,沖縄県,豊見城市,字豊崎１番地１１２５、２Ｆ,,47,212,9010225,,,,,,,2021-09-21,1,,,,,ティーケートヨサキトラスト,0
262,1370001047606,新規,0,2021-09-21,2021-09-21,株式会社サンライト,,株式会社,宮城県,富谷市,明石台７丁目１０番地１２,,04,216,9813332,,,,,,,2021-09-21,1,,,,,サンライト,0
263,1370001047614,新規,0,2021-09-21,2021-09-21,アスベストリサーチ株式会社,,株式会社,宮城県,仙台市太白区,長町３丁目７番１３号,,04,104,9820011,,,,,,,2021-09-21,1,,,,,アスベストリサーチ,0
280,1430001084997,新規,0,2021-09-21,2021-09-21,株式会社よいつき,,株式会社,北海道,砂川市,東一条北２丁目２番９号２Ｆ,,01,226,0730151,,,,,,,2021-09-21,1,,,,,ヨイツキ,0
282,1470001018720,新規,0,2021-09-21,2021-09-21,グレイトサクセス株式会社,,株式会社,香川県,高松市,松島町２丁目１４番６号進成ビル４Ｆ,,37,201,7600068,,,,,,,2021-09-21,1,,,,,グレイトサクセス,0
285,1700150104792,新規,0,2021-09-21,2021-09-21,ザ・ブリタニヤ・スティーム・シップ・インシュアランス・アソシエーション・ヨーロッパ,,外国会社等,東京都,港区,芝３丁目４３－１６ＫＤＸ三田ビル８階,,13,103,1050014,ルクセンブルク大公国ルクセンブルク市ガール通り４２－４４,,,,,,2021-09-21,1,,,,,ザブリタニヤステイームシツプインシユアランスアソシエーシヨンヨーロツパ,0
297,2010001221113,新規,0,2021-09-21,2021-09-21,至誠トレーディング株式会社,,株式会社,東京都,中央区,東日本橋２丁目１６番１０号,,13,102,1030004,,,,,,,2021-09-21,1,,,,,シセイトレーディング,0
298,2010001221212,新規,0,2021-09-21,2021-09-21,ＡＢキャピタル株式会社,,株式会社,東京都,千代田区,霞が関３丁目２番５号,,13,101,1000013,,,,,,,2021-09-21,1,,,,,エービーキャピタル,0
299,2010001221237,新規,0,2021-09-21,2021-09-21,一本鋒株式会社,,株式会社,東京都,中央区,日本橋蛎殻町１丁目３番５号共同ビル２階２３号,,13,102,1030014,,,,,,,2021-09-21,1,,,,,イチモトホウ,0
300,2010001221278,新規,0,2021-09-21,2021-09-21,株式会社Ｊ　Ｖａｌｕｅ　Ｊａｐａｎ,,株式会社,東京都,千代田区,丸の内１丁目８番１号,,13,101,1000005,,,,,,,2021-09-21,1,,,,,ジェイバリュージャパン,0
304,2010003035734,新規,0,2021-09-21,2021-09-21,合同会社チアマール,,合同会社,東京都,千代田区,神田平河町１番地第３東ビル６０１号室,,13,101,1010027,,,,,,,2021-09-21,1,,,,,チアマール,0
305,2010003035866,新規,0,2021-09-21,2021-09-21,アーチドット合同会社,,合同会社,東京都,千代田区,九段南１丁目５番６号りそな九段ビル５Ｆ－ＫＳフロア,,13,101,1020074,,,,,,,2021-09-21,1,,,,,アーチドット,0
315,2010401162808,新規,0,2021-09-21,2021-09-21,サイテク株式会社,,株式会社,東京都,港区,台場１丁目１番２－１９０８号,,13,103,1350091,,,,,,,2021-09-21,1,,,,,サイテク,0
319,2010403026119,新規,0,2021-09-21,2021-09-21,合同会社Ａ．Ｃ．ＣＯＭＰＡＮＹ,,合同会社,東京都,港区,白金１丁目２５番１１号－８１１,,13,103,1080072,,,,,,,2021-09-21,1,,,,,エーシーカンパニー,0
331,2011001142860,新規,0,2021-09-21,2021-09-21,株式会社Ｇａｒｄｅ,,株式会社,東京都,渋谷区,広尾１丁目５番１３号サングラータ広尾５０２,,13,113,1500012,,,,,,,2021-09-21,1,,,,,ギャルド,0
332,2011003013408,新規,0,2021-09-21,2021-09-21,合同会社エックス,,合同会社,東京都,渋谷区,千駄ヶ谷５丁目１番６－２０２号,,13,113,1510051,,,,,,,2021-09-21,1,,,,,エックス,0
335,2011101096321,新規,0,2021-09-21,2021-09-21,株式会社ＡＮＢＩ　Ｍ＆Ｔ,,株式会社,東京都,新宿区,市谷本村町７番４号,,13,104,1620845,,,,,,,2021-09-21,1,,,,,アンビエムアンドティー,0
339,2011201023266,新規,0,2021-09-21,2021-09-21,株式会社ＡＱＵＡ,,株式会社,東京都,中野区,弥生町２丁目２７番３号矢沢エクセル１０３,,13,114,1640013,,,,,,,2021-09-21,1,,,,,アクア,0
352,2012701016668,新規,0,2021-09-21,2021-09-21,ＤＣＴ　ＷＯＲＬＤ株式会社,,株式会社,東京都,西東京市,中町１丁目１１番２８号美幸荘２０２,,13,229,2020013,,,,,,,2021-09-21,1,,,,,ディーシーティーワールド,0
353,2012701016676,新規,0,2021-09-21,2021-09-21,株式会社グレイビーズ,,株式会社,東京都,東村山市,青葉町１丁目５番地５５,,13,213,1890002,,,,,,,2021-09-21,1,,,,,グレイビーズ,0
354,2012705002276,新規,0,2021-09-21,2021-09-21,医療法人社団Ｓｈｕ－Ｃｌｉａ,,その他の設立登記法人,東京都,小平市,小川東町２丁目１２番１号２階,,13,211,1870031,,,,,,,2021-09-21,1,,,,,シュークリア,0
366,2020001143075,新規,0,2021-09-21,2021-09-21,株式会社Ｏｒｄａｒ,,株式会社,神奈川県,横浜市中区,本牧元町７４番地７－７号,,14,104,2310822,,,,,,,2021-09-21,1,,,,,オーダー,0
367,2020001143125,新規,0,2021-09-21,2021-09-21,株式会社オーガスタ,,株式会社,神奈川県,横浜市西区,高島２丁目１１番２号スカイメナー横浜５１９,,14,103,2200011,,,,,,,2021-09-21,1,,,,,オーガスタ,0
373,2020003020479,新規,0,2021-09-21,2021-09-21,合同会社輪,,合同会社,神奈川県,川崎市宮前区,南野川２丁目５６番２６－３０９号野川住宅,,14,136,2160042,,,,,,,2021-09-21,1,,,,,シャリン,0
374,2020003020495,新規,0,2021-09-21,2021-09-21,合同会社イー・アール・アイ,,合同会社,神奈川県,横浜市青葉区,みたけ台２５番地３３,,14,117,2270047,,,,,,,2021-09-21,1,,,,,イーアールアイ,0
389,2030001144378,新規,0,2021-09-21,2021-09-21,株式会社Ｅ－ＧｒｏｗｓＧｒｏｕｐ,,株式会社,埼玉県,越谷市,越ヶ谷３丁目３－１６,,11,222,3430813,,,,,,,2021-09-21,1,,,,,イーグロースグループ,0
390,2030001144394,新規,0,2021-09-21,2021-09-21,株式会社ｙｏｎｋａ,,株式会社,埼玉県,深谷市,上柴町西２丁目１０番地３プロムナード４０３,,11,218,3660052,,,,,,,2021-09-21,1,,,,,ヨンカ,0
393,2030003017978,新規,0,2021-09-21,2021-09-21,合同会社バケネコ映像社,,合同会社,埼玉県,草加市,谷塚町３６６－１３,,11,221,3400023,,,,,,,2021-09-21,1,,,,,バケネコエイゾウシャ,0
394,2030003017986,新規,0,2021-09-21,2021-09-21,青羽合同会社,,合同会社,埼玉県,川口市,西川口１丁目６－１小野田ビル４Ｆ－４０２号,,11,203,3320021,,,,,,,2021-09-21,1,,,,,アオバネ,0
395,2030005020526,新規,0,2021-09-21,2021-09-21,ＮＰＯ法人子どもの明日を守る,,その他の設立登記法人,埼玉県,新座市,東北２丁目１２番７－３０１号,,11,230,3520001,,,,,,,2021-09-21,1,,,,,コドモノアシタヲマモル,0
398,2040001120246,新規,0,2021-09-21,2021-09-21,株式会社エミーズ,,株式会社,千葉県,印旛郡酒々井町,中川４１５番地１３,,12,322,2850921,,,,,,,2021-09-21,1,,,,,エミーズ,0
404,2050001049823,新規,0,2021-09-21,2021-09-21,ＰＡ　ＧＲＯＵＰ株式会社,,株式会社,茨城県,土浦市,中村南１丁目１４０１番地５４,,08,203,3000843,,,,,,,2021-09-21,1,,,,,ピーエーグループ,0
415,2080001024451,新規,0,2021-09-21,2021-09-21,株式会社アイワコネクト,,株式会社,静岡県,島田市,湯日５６４番地,,22,209,4270113,,,,,,,2021-09-21,1,,,,,アイワコネクト,0
418,2080401025347,新規,0,2021-09-21,2021-09-21,株式会社エイチ・ピー・フーズ,,株式会社,静岡県,袋井市,高尾２６８９番地の１,,22,216,4370023,,,,,,,2021-09-21,1,,,,,エイチピーフーズ,0
422,2100001034613,新規,0,2021-09-21,2021-09-21,株式会社ｉｍａｃｏｃｏ,,株式会社,長野県,飯田市,座光寺３５３１番地６松村接骨院内,,20,205,3950001,,,,,,,2021-09-21,1,,,,,イマココ,0
423,2100001034621,新規,0,2021-09-21,2021-09-21,株式会社アバンインターナショナル,,株式会社,長野県,松本市,中央２丁目３番２１号,,20,202,3900811,,,,,,,2021-09-21,1,,,,,アバンインターナショナル,0
427,2110005016714,新規,0,2021-09-21,2021-09-21,特定非営利活動法人ＳＳＴ交流会,,その他の設立登記法人,新潟県,長岡市,高町４丁目８５８番地２２１,,15,202,9400824,,,,,,,2021-09-21,1,,,,,エスエスティコウリュウカイ,0
433,2120001240507,新規,0,2021-09-21,2021-09-21,株式会社ぶるっく,,株式会社,大阪府,大阪市中央区,高津３丁目１５番６号グランドパレス夕陽丘７０８,,27,128,5420072,,,,,,,2021-09-21,1,,,,,ブルック,0
434,2120001240548,新規,0,2021-09-21,2021-09-21,株式会社オルビー,,株式会社,大阪府,大阪市城東区,関目６丁目１３－２３,,27,118,5360008,,,,,,,2021-09-21,1,,,,,オルビー,0
435,2120001240556,新規,0,2021-09-21,2021-09-21,株式会社エターナル,,株式会社,大阪府,大阪市鶴見区,諸口５丁目浜６番１８号,,27,124,5380051,,,,,,,2021-09-21,1,,,,,エターナル,0
444,2120103004347,新規,0,2021-09-21,2021-09-21,合同会社マイニングザフューチャー,,合同会社,大阪府,岸和田市,包近町１３３３番地,,27,202,5960101,,,,,,,2021-09-21,1,,,,,マイニングザフューチャー,0
447,2120905006227,新規,0,2021-09-21,2021-09-21,一般社団法人ミツワ,,その他の設立登記法人,大阪府,高槻市,牧田町１２－１３,,27,207,5690855,,,,,,,2021-09-21,1,,,,,ミツワ,0
448,2122001035184,新規,0,2021-09-21,2021-09-21,株式会社ルカーモ,,株式会社,大阪府,東大阪市,西堤本通西１丁目８番１１号,,27,227,5770046,,,,,,,2021-09-21,1,,,,,ルカーモ,0
458,2140001123081,新規,0,2021-09-21,2021-09-21,株式会社コンテナプラス,,株式会社,兵庫県,神戸市中央区,海岸通２丁目２番３号,,28,110,6500024,,,,,,,2021-09-21,1,,,,,コンテナプラス,0
463,2150001024915,新規,0,2021-09-21,2021-09-21,株式会社Ｒａｉｎｂｏｗ　Ｃｒｅａｔｅ,,株式会社,奈良県,生駒郡斑鳩町,目安４丁目５番７号,,29,344,6360132,,,,,,,2021-09-21,1,,,,,レインボークリエイト,0
464,2160003002380,新規,0,2021-09-21,2021-09-21,合同会社そうせな,,合同会社,滋賀県,栗東市,中沢２丁目５番２－４１０号グローバル草津,,25,208,5203025,,,,,,,2021-09-21,1,,,,,ソウセナ,0
468,2180001147878,新規,0,2021-09-21,2021-09-21,株式会社ディシェアー,,株式会社,愛知県,名古屋市中区,栄３丁目２番３号,,23,106,4600008,,,,,,,2021-09-21,1,,,,,ディシェアー,0
469,2180001147903,新規,0,2021-09-21,2021-09-21,株式会社プラスク,,株式会社,愛知県,名古屋市千種区,下方町７丁目１４番地の１,,23,101,4640096,,,,,,,2021-09-21,1,,,,,プラスク,0
470,2180001147911,新規,0,2021-09-21,2021-09-21,株式会社ＧＭＧ　Ｅｎｔｅｒｔａｉｎｍｅｎｔ,,株式会社,愛知県,名古屋市中区,栄４丁目２０番１号,,23,106,4600008,,,,,,,2021-09-21,1,,,,,ジーエムジーエンターテイメント,0
471,2180001147928,新規,0,2021-09-21,2021-09-21,株式会社ロッシュ,,株式会社,愛知県,名古屋市守山区,瀬古３丁目１６１０番地,,23,113,4630068,,,,,,,2021-09-21,1,,,,,ロッシュ,0
475,2180003022971,新規,0,2021-09-21,2021-09-21,ＮＡＲＡ　ＩＮＴＥＲＮＡＴＩＯＮＡＬ合同会社,,合同会社,愛知県,瀬戸市,南菱野町１０６番地,,23,204,4890937,,,,,,,2021-09-21,1,,,,,ナラインターナショナル,0
477,2190001028689,新規,0,2021-09-21,2021-09-21,株式会社ＣＬＯＵＤ　ＮＩＮＥ,,株式会社,三重県,亀山市,川崎町３０１８番地２,,24,210,5190211,,,,,,,2021-09-21,1,,,,,クラウドナイン,0
478,2190003003764,新規,0,2021-09-21,2021-09-21,合同会社シエスタ,,合同会社,三重県,員弁郡東員町,城山１丁目１３番１０,,24,324,5110233,,,,,,,2021-09-21,1,,,,,シエスタ,0
491,2230003001730,新規,0,2021-09-21,2021-09-21,合同会社ＵＧ,,合同会社,富山県,富山市,有沢３０６番地２１,,16,201,9300862,,,,,,,2021-09-21,1,,,,,ユージー,0
493,2240001058623,新規,0,2021-09-21,2021-09-21,株式会社ジョイント,,株式会社,広島県,広島市中区,鶴見町３番２１号,,34,101,7300045,,,,,,,2021-09-21,1,,,,,ジョイント,0
501,2280001008509,新規,0,2021-09-21,2021-09-21,株式会社高原電気,,株式会社,島根県,江津市,二宮町神主２２６５番地１２,,32,207,6950024,,,,,,,2021-09-21,1,,,,,タカハラデンキ,0
504,2290001094630,新規,0,2021-09-21,2021-09-21,株式会社ｍｉｋｋｅｒｙ,,株式会社,福岡県,福岡市早良区,室見５丁目４－２２,,40,137,8140015,,,,,,,2021-09-21,1,,,,,ミッケリー,0
505,2290001094688,新規,0,2021-09-21,2021-09-21,株式会社ポルティモ,,株式会社,福岡県,嘉麻市,上山田４０６番地８,,40,227,8210012,,,,,,,2021-09-21,1,,,,,ポルティモ,0
506,2290001094705,新規,0,2021-09-21,2021-09-21,株式会社ネクサス・ファクトリー・コーポレーション,,株式会社,福岡県,筑後市,大字羽犬塚１２１番地２,,40,211,8330003,,,,,,,2021-09-21,1,,,,,ネクサスファクトリーコーポレーション,0
507,2290001094721,新規,0,2021-09-21,2021-09-21,西本建設株式会社,,株式会社,福岡県,朝倉市,牛木６９７－１,,40,228,8380067,,,,,,,2021-09-21,1,,,,,ニシモトケンセツ,0
508,2290005018370,新規,0,2021-09-21,2021-09-21,一般社団法人ザ・クイーンズヒルゴルフクラブ,,その他の設立登記法人,福岡県,糸島市,富８３８番地,,40,230,8191133,,,,,,,2021-09-21,1,,,,,ザクイーンズヒルゴルフクラブ,0
511,2290801027806,新規,0,2021-09-21,2021-09-21,株式会社ＫＡＬＣＫ,,株式会社,福岡県,行橋市,大字沓尾３７２番地,,40,213,8240013,,,,,,,2021-09-21,1,,,,,カルク,0
512,2290801027814,新規,0,2021-09-21,2021-09-21,株式会社ＯＮＭＵＳＵＢＩ,,株式会社,福岡県,北九州市戸畑区,千防２丁目１番１６号３階,,40,105,8040081,,,,,,,2021-09-21,1,,,,,オンムスビ,0
521,2330003009045,新規,0,2021-09-21,2021-09-21,合同会社ＰＭＬ,,合同会社,熊本県,上益城郡御船町,大字高木７８８番地ビッグヴィレッジＢ棟２０３号,,43,441,8613203,,,,,,,2021-09-21,1,,,,,ピーエムエル,0
524,2350001017312,新規,0,2021-09-21,2021-09-21,株式会社ｔｏｍｏｒｒｏｗ,,株式会社,宮崎県,宮崎市,神宮西２丁目２２２番地,,45,201,8800033,,,,,,,2021-09-21,1,,,,,トゥモロー,0
525,2360003011452,新規,0,2021-09-21,2021-09-21,合同会社だいけん,,合同会社,沖縄県,うるま市,石川嘉手苅１４５番地,,47,213,9041114,,,,,,,2021-09-21,1,,,,,ダイケン,0
541,2430001084996,新規,0,2021-09-21,2021-09-21,ＴＨＥ　ＣＡＭＥＬ　ＴＲＡＤＥ株式会社,,株式会社,北海道,札幌市中央区,南二条西４丁目１２番地５ＯＴＯＩビル５Ｆ,,01,101,0600062,,,,,,,2021-09-21,1,,,,,ザキャメルトレード,0
543,2430005014280,新規,0,2021-09-21,2021-09-21,医療法人金山生殖医療クリニック,,その他の設立登記法人,北海道,札幌市中央区,北一条西４丁目１番１号三甲大通公園ビル２階,,01,101,0600001,,,,,,,2021-09-21,1,,,,,カネヤマセイショクイリョウクリニック,0
546,2470001018711,新規,0,2021-09-21,2021-09-21,株式会社ＳＵＮマリン,,株式会社,香川県,東かがわ市,引田７５２番地,,37,207,7692901,,,,,,,2021-09-21,1,,,,,サンマリン,0
547,2490001009989,新規,0,2021-09-21,2021-09-21,高知ゆずからりん株式会社,,株式会社,高知県,幡多郡三原村,大字上下長谷１５３６番地２,,39,427,7870804,,,,,,,2021-09-21,1,,,,,コウチユズカラリン,0
549,2700150104791,新規,0,2021-09-21,2021-09-21,Ｅｖｅｒ　Ｍａｒｃｅｌｌａ　Ｉｎｔ’ｌ,,外国会社等,神奈川県,川崎市川崎区,南町２番１５号,,14,131,2100015,Ｐｏｒｔｃｕｌｌｉｓ　Ｃｈａｍｂｅｒｓ，４ｔｈ　Ｆｌｏｏｒ，Ｅｌｌｅｎ　Ｓｋｅｌｔｏｎ　Ｂｕｉｌｄｉｎｇ．３０７６　Ｓｉｒ　Ｆｒａｎｃｉｓ　Ｄｒａｋｅ　Ｈｉｇｈｗａｙ，Ｒｏａｄ　Ｔｏｗｎ，Ｔｏｒｔｏｌａ，Ｂｒｉｔｉｓｈ　Ｖｉｒｇｉｎ　Ｉｓｌａｎｄｓ　ＶＧ１１１０,,,,,,2021-09-21,1,,,,,エバーマーセラ,0
554,3010001221228,新規,0,2021-09-21,2021-09-21,クローバーコンサルティング株式会社,,株式会社,東京都,千代田区,九段南１丁目５－６りそな九段ビル５階,,13,101,1020074,,,,,,,2021-09-21,1,,,,,クローバーコンサルティング,0
555,3010001221244,新規,0,2021-09-21,2021-09-21,株式会社Ｓｌｅｅｐ　Ｓｔｙｌｉｎｇ,,株式会社,東京都,中央区,銀座１丁目２２－１１銀座大竹ビジデンス２階,,13,102,1040061,,,,,,,2021-09-21,1,,,,,スリープスタイリング,0
556,3010001221277,新規,0,2021-09-21,2021-09-21,株式会社ＧｕｒｏｉｎＨｏｐｅ,,株式会社,東京都,中央区,銀座２丁目１１番８号ラウンドクロス銀座２丁目１２階,,13,102,1040061,,,,,,,2021-09-21,1,,,,,グロウインホープ,0
563,3010003035865,新規,0,2021-09-21,2021-09-21,Ｒｅａｌｉｚｅ　Ｃｏｍｐａｎｙ合同会社,,合同会社,東京都,中央区,勝どき１丁目１３－６プラザタワー勝どき２７１２,,13,102,1040054,,,,,,,2021-09-21,1,,,,,リアライズカンパニー,0
571,3010401162781,新規,0,2021-09-21,2021-09-21,ＣＫＨ株式会社,,株式会社,東京都,港区,南青山３丁目１０番４３号,,13,103,1070062,,,,,,,2021-09-21,1,,,,,シーケーエイチ,0
579,3010603009161,新規,0,2021-09-21,2021-09-21,合同会社嘉旺,,合同会社,東京都,江東区,東砂７丁目３番１６号,,13,108,1360074,,,,,,,2021-09-21,1,,,,,ヨシオウ,0
584,3010901049470,新規,0,2021-09-21,2021-09-21,株式会社フォリオット,,株式会社,東京都,世田谷区,桜上水３丁目９番２７号,,13,112,1560045,,,,,,,2021-09-21,1,,,,,フォリオット,0
589,3011001142851,新規,0,2021-09-21,2021-09-21,株式会社ＭＤＳ　ＳＴＯＲＥＳ,,株式会社,東京都,渋谷区,神南１丁目６－１４ジョルディビル１Ｆ,,13,113,1500041,,,,,,,2021-09-21,1,,,,,エムディーエスストアーズ,0
601,3011801039719,新規,0,2021-09-21,2021-09-21,株式会社ＰＳＣ,,株式会社,東京都,足立区,西新井４丁目９番１２号,,13,121,1230841,,,,,,,2021-09-21,1,,,,,ピーエスシー,0
604,3011803004745,新規,0,2021-09-21,2021-09-21,合同会社スモールライフ,,合同会社,東京都,足立区,中央本町２丁目２３－７,,13,121,1200011,,,,,,,2021-09-21,1,,,,,スモールライフ,0
615,3020001143066,新規,0,2021-09-21,2021-09-21,株式会社アイビス,,株式会社,神奈川県,川崎市川崎区,駅前本町１１番地２川崎フロンティアビル４階,,14,131,2100007,,,,,,,2021-09-21,1,,,,,アイビス,0
616,3020001143074,新規,0,2021-09-21,2021-09-21,湘南株式会社,,株式会社,神奈川県,横浜市磯子区,丸山２丁目２２番１,,14,107,2350011,,,,,,,2021-09-21,1,,,,,ショウナン,0
617,3020001143082,新規,0,2021-09-21,2021-09-21,ｅｍｏｎ株式会社,,株式会社,神奈川県,川崎市中原区,小杉御殿町２丁目１２２番地テラス陽だまり６,,14,133,2110068,,,,,,,2021-09-21,1,,,,,エモン,0
624,3020003020503,新規,0,2021-09-21,2021-09-21,合同会社Ｑｕａｉｌ,,合同会社,神奈川県,横浜市瀬谷区,宮沢３丁目３３番地３０,,14,114,2460038,,,,,,,2021-09-21,1,,,,,クェイル,0
625,3020003020511,新規,0,2021-09-21,2021-09-21,恵合同会社,,合同会社,神奈川県,横浜市南区,高根町４丁目２５番地２サンパール弐番館２０３,,14,105,2320022,,,,,,,2021-09-21,1,,,,,メグミ,0
631,3021001074004,新規,0,2021-09-21,2021-09-21,ＢＥ　ＣＯＮＮＥＣＴ株式会社,,株式会社,神奈川県,高座郡寒川町,倉見１４０６番地６,,14,321,2530101,,,,,,,2021-09-21,1,,,,,ビーコネクト,0
641,3030001144402,新規,0,2021-09-21,2021-09-21,中運株式会社,,株式会社,埼玉県,川口市,西川口１丁目１２－２,,11,203,3320021,,,,,,,2021-09-21,1,,,,,チュウウン,0
642,3030001144410,新規,0,2021-09-21,2021-09-21,株式会社ひとなみ,,株式会社,埼玉県,本庄市,児玉町田端４１０,,11,211,3670222,,,,,,,2021-09-21,1,,,,,ヒトナミ,0
644,3030003017977,新規,0,2021-09-21,2021-09-21,プロプリント合同会社,,合同会社,埼玉県,さいたま市大宮区,上小町４１番地２ＬＣ大宮１０４号,,11,103,3300855,,,,,,,2021-09-21,1,,,,,プロプリント,0
657,3060001034105,新規,0,2021-09-21,2021-09-21,ガットノーラン株式会社,,株式会社,栃木県,那須塩原市,豊町１番２９号,,09,213,3250051,,,,,,,2021-09-21,1,,,,,ガットノーラン,0
658,3060001034113,新規,0,2021-09-21,2021-09-21,株式会社永吉板金,,株式会社,栃木県,下野市,薬師寺２８６８番地２,,09,216,3290431,,,,,,,2021-09-21,1,,,,,ナガヨシバンキン,0
663,3070001038451,新規,0,2021-09-21,2021-09-21,株式会社サンライズメディカルアシスタンス,,株式会社,群馬県,高崎市,上並榎町４７番地２,,10,202,3700801,,,,,,,2021-09-21,1,,,,,サンライズメディカルアシスタンス,0
674,3100001034620,新規,0,2021-09-21,2021-09-21,株式会社ＥＩＴＯ,,株式会社,長野県,長野市,大字北尾張部８３４番地８,,20,201,3810014,,,,,,,2021-09-21,1,,,,,エイト,0
687,3120001240506,新規,0,2021-09-21,2021-09-21,株式会社ＫＯＮＡＬＥＡ,,株式会社,大阪府,大阪市北区,天満１丁目３番１４号,,27,127,5300043,,,,,,,2021-09-21,1,,,,,コナレア,0
688,3120001240530,新規,0,2021-09-21,2021-09-21,梶浦興業株式会社,,株式会社,大阪府,交野市,倉治２丁目２８番８号,,27,230,5760051,,,,,,,2021-09-21,1,,,,,カジウラコウギョウ,0
698,3120901044915,新規,0,2021-09-21,2021-09-21,株式会社ワールドオンライン,,株式会社,大阪府,豊中市,緑丘２丁目７番１５号,,27,203,5600002,,,,,,,2021-09-21,1,,,,,ワールドオンライン,0
699,3122001035183,新規,0,2021-09-21,2021-09-21,株式会社関西土木,,株式会社,大阪府,東大阪市,池島町４丁目３番７号,,27,227,5798064,,,,,,,2021-09-21,1,,,,,カンサイドボク,0
710,3140005025819,新規,0,2021-09-21,2021-09-21,医療法人社団侑久拓未会,,その他の設立登記法人,兵庫県,西宮市,今津山中町１１－９グルメシティ今津店２Ｆ,,28,204,6638211,,,,,,,2021-09-21,1,,,,,ユウキュウタクミカイ,0
712,3160001023634,新規,0,2021-09-21,2021-09-21,株式会社Ｔｒｉｅｓｔａｔｅ,,株式会社,滋賀県,近江八幡市,中村町２１番地１２,,25,204,5230894,,,,,,,2021-09-21,1,,,,,トライエステート,0
721,3180001147844,新規,0,2021-09-21,2021-09-21,ドリームアライアンス株式会社,,株式会社,愛知県,名古屋市中区,栄５丁目２６番３９号ＧＳ栄ビル３Ｆ,,23,106,4600008,,,,,,,2021-09-21,1,,,,,ドリームアライアンス,0
722,3180001147910,新規,0,2021-09-21,2021-09-21,中日百達国際貿易株式会社,,株式会社,愛知県,名古屋市中区,栄４丁目９番１０号,,23,106,4600008,,,,,,,2021-09-21,1,,,,,チュウニチヒャクタツコクサイボウエキ,0
723,3180001147927,新規,0,2021-09-21,2021-09-21,株式会社優,,株式会社,愛知県,名古屋市中川区,西伏屋３丁目２０１番地,,23,110,4540982,,,,,,,2021-09-21,1,,,,,ユウ,0
726,3180005019445,新規,0,2021-09-21,2021-09-21,一般財団法人メニコン芸術文化記念財団,,その他の設立登記法人,愛知県,名古屋市中区,葵３丁目２１番１９号,,23,106,4600006,,,,,,,2021-09-21,1,,,,,メニコンゲイジュツブンカキネンザイダン,0
727,3180301035385,新規,0,2021-09-21,2021-09-21,株式会社エニシス,,株式会社,愛知県,豊橋市,駅前大通３丁目３１番地（１３０２）,,23,201,4400888,,,,,,,2021-09-21,1,,,,,エニシス,0
728,3180301035393,新規,0,2021-09-21,2021-09-21,株式会社Ｄｉｖｅｒｓｉｔｙ　Ｓｔｙｌｅ,,株式会社,愛知県,豊橋市,大岩町字東郷内１５番地の８,,23,201,4413142,,,,,,,2021-09-21,1,,,,,ダイバーシティースタイル,0
730,3190001028688,新規,0,2021-09-21,2021-09-21,ａｈ株式会社,,株式会社,三重県,名張市,夏見３２２５－２クリサンテーム２１・１Ｆ－Ｃ,,24,208,5180441,,,,,,,2021-09-21,1,,,,,エーエイチ,0
737,3210001018612,新規,0,2021-09-21,2021-09-21,株式会社ＳＴＥＬＡ,,株式会社,福井県,坂井市,三国町神明３丁目９番３６号,,18,210,9130047,,,,,,,2021-09-21,1,,,,,ステラ,0
753,3240001058630,新規,0,2021-09-21,2021-09-21,株式会社ｔｒｅｅｓ,,株式会社,広島県,広島市中区,本川町３丁目１－５ｐｏｒｔ－ｉｎｃ内,,34,101,7300802,,,,,,,2021-09-21,1,,,,,ツリーズ,0
766,3290003011608,新規,0,2021-09-21,2021-09-21,合同会社ＳＯＲＡ雲,,合同会社,福岡県,久留米市,善導寺町与田１０６番地２ベストエクセル２０２号,,40,203,8390823,,,,,,,2021-09-21,1,,,,,ソラグモ,0
767,3290003011632,新規,0,2021-09-21,2021-09-21,劇団メルヘン王国合同会社,,合同会社,福岡県,うきは市,浮羽町朝田２６４番地５,,40,225,8391401,,,,,,,2021-09-21,1,,,,,ゲキダンメルヘンオウコク,0
772,3290801027813,新規,0,2021-09-21,2021-09-21,株式会社ココ・リリオ,,株式会社,福岡県,北九州市八幡西区,木屋瀬東２丁目５番３７号,,40,109,8071266,,,,,,,2021-09-21,1,,,,,ココリリオ,0
780,3320003003618,新規,0,2021-09-21,2021-09-21,合同会社アーゴス,,合同会社,大分県,別府市,大字鶴見１７６４番地の５,,44,202,8740840,,,,,,,2021-09-21,1,,,,,アーゴス,0
799,3370001047595,新規,0,2021-09-21,2021-09-21,株式会社高周,,株式会社,宮城県,仙台市青葉区,国分町３丁目９番７－２０６号,,04,101,9800803,,,,,,,2021-09-21,1,,,,,タカシュウ,0
800,3370001047612,新規,0,2021-09-21,2021-09-21,株式会社カレラ,,株式会社,宮城県,仙台市青葉区,中山７丁目１２番２３号３号室,,04,101,9810952,,,,,,,2021-09-21,1,,,,,カレラ,0
801,3370005010351,新規,0,2021-09-21,2021-09-21,ハルランカ事業協同組合,,その他の設立登記法人,宮城県,角田市,藤田字六郎田４３番地４,,04,208,9811501,,,,,,,2021-09-21,1,,,,,,0
809,3390003001870,新規,0,2021-09-21,2021-09-21,合同会社菅原鉄工所,,合同会社,山形県,酒田市,東町１丁目７番地の６,,06,204,9980875,,,,,,,2021-09-21,1,,,,,スガワラテッコウジョ,0
812,3400005008185,新規,0,2021-09-21,2021-09-21,アイパートナー社会保険労務士法人,,その他の設立登記法人,岩手県,盛岡市,夕顔瀬町１４番１７－１０５号,,03,201,0200032,,,,,,,2021-09-21,1,,,,,アイパートナー,0
813,3410001012966,新規,0,2021-09-21,2021-09-21,株式会社ワンシックス,,株式会社,秋田県,秋田市,千秋明徳町１番５６号ＮＥＷテラス広小路,,05,201,0100875,,,,,,,2021-09-21,1,,,,,ワンシックス,0
822,3430001085003,新規,0,2021-09-21,2021-09-21,株式会社ＤＥＥＰｉｎｓｉｄｅ,,株式会社,北海道,札幌市北区,北二十三条西５丁目２番３９号Ｎ２３ビル１階,,01,102,0010023,,,,,,,2021-09-21,1,,,,,ディープインサイド,0
826,3460101007060,新規,0,2021-09-21,2021-09-21,株式会社小川サービス工業,,株式会社,北海道,帯広市,西二十二条南４丁目３０番地１９,,01,207,0802472,,,,,,,2021-09-21,1,,,,,,0
828,3490003001588,新規,0,2021-09-21,2021-09-21,合同会社トカジ繁盛商店研究所,,合同会社,高知県,高岡郡日高村,本郷７２８－４,,39,410,7812153,,,,,,,2021-09-21,1,,,,,トカジハンジョウショウテンケンキュウショ,0
830,3700150104790,新規,0,2021-09-21,2021-09-21,Ｃａｔａｌｙｓｔ　Ｍｅｒｇｅｒ　Ｓｕｂ　Ⅱ，ＬＬＣ,00124277,外国会社等,,,,,,,,１０１５０　ＣＯＶＩＮＧＴＯＮ　ＣＲＯＳＳ　ＤＲＩＶＥ　ＬＡＳ　ＶＥＧＡＳ，ＮＶ，８９１４４，Ｕ．Ｓ．,,,,,,2021-09-21,1,,,,,カタリストマージヤーサブツーエルエルシー,0
838,4010001221268,新規,0,2021-09-21,2021-09-21,ソラいろ会計株式会社,,株式会社,東京都,中央区,東日本橋２丁目２８番４号日本橋ＣＥＴビル２階,,13,102,1030004,,,,,,,2021-09-21,1,,,,,ソライロカイケイ,0
839,4010001221276,新規,0,2021-09-21,2021-09-21,アグラシル株式会社,,株式会社,東京都,千代田区,神田佐久間町２丁目２４番地,,13,101,1010025,,,,,,,2021-09-21,1,,,,,アグラシル,0
840,4010001221284,新規,0,2021-09-21,2021-09-21,株式会社ＪＩＧ,,株式会社,東京都,中央区,日本橋小伝馬町７－１６,,13,102,1030001,,,,,,,2021-09-21,1,,,,,ジグ,0
848,4010003035864,新規,0,2021-09-21,2021-09-21,合同会社ｔｈｏｕｓａｎｄｓ　ｏｆ,,合同会社,東京都,千代田区,神田紺屋町１１番地２－５Ｆ,,13,101,1010035,,,,,,,2021-09-21,1,,,,,サウザンズオブ,0
849,4010101014869,新規,0,2021-09-21,2021-09-21,株式会社フォルテ,,株式会社,東京都,八王子市,元横山町２丁目５番６－１０１号,,13,201,1920063,,,,,,,2021-09-21,1,,,,,フォルテ,0
850,4010105002127,新規,0,2021-09-21,2021-09-21,一般社団法人八日町一丁目・二丁目町会,,その他の設立登記法人,東京都,八王子市,八日町９番２３号,,13,201,1920071,,,,,,,2021-09-21,1,,,,,ヨウカマチイッチョウメニチョウメチョウカイ,0
858,4010403026026,新規,0,2021-09-21,2021-09-21,ｂｕｙｔｉｍｅ合同会社,,合同会社,東京都,港区,白金台３丁目１６－８,,13,103,1080071,,,,,,,2021-09-21,1,,,,,バイタイム,0
867,4010801032328,新規,0,2021-09-21,2021-09-21,株式会社ファースト,,株式会社,東京都,大田区,蒲田１丁目２６番１９号コロネード１３－２０１,,13,111,1440052,,,,,,,2021-09-21,1,,,,,ファースト,0
871,4010901049478,新規,0,2021-09-21,2021-09-21,株式会社ＤＩＳＨ＆ＳＰＯＯＮ,,株式会社,東京都,世田谷区,奥沢２丁目３２番２号,,13,112,1580083,,,,,,,2021-09-21,1,,,,,ディッシュアンドスプーン,0
878,4011001142883,新規,0,2021-09-21,2021-09-21,株式会社ブルーム,,株式会社,東京都,渋谷区,千駄ヶ谷５丁目３２番４号新宿パークサイドビル１階,,13,113,1510051,,,,,,,2021-09-21,1,,,,,ブルーム,0
879,4011001142891,新規,0,2021-09-21,2021-09-21,ｈｉｏ株式会社,,株式会社,東京都,渋谷区,恵比寿４丁目２０番３号恵比寿ガーデンプレイスタワー１８階,,13,113,1500013,,,,,,,2021-09-21,1,,,,,ヒオ,0
892,4012701016674,新規,0,2021-09-21,2021-09-21,株式会社Ｇｉｖｅｓｕｒｕ,,株式会社,東京都,東久留米市,中央町３丁目１２番２１号,,13,222,2030054,,,,,,,2021-09-21,1,,,,,ギブスル,0
900,4020001143040,新規,0,2021-09-21,2021-09-21,シリウスコンサルティング株式会社,,株式会社,神奈川県,川崎市川崎区,東田町２－１０ホワイトガーデン東田３０８,,14,131,2100005,,,,,,,2021-09-21,1,,,,,シリウスコンサルティング,0
901,4020001143065,新規,0,2021-09-21,2021-09-21,株式会社ＳＵＮＲＩＣＨ,,株式会社,神奈川県,川崎市宮前区,平２丁目１０番１号,,14,136,2160022,,,,,,,2021-09-21,1,,,,,サンリッチ,0
904,4020003020493,新規,0,2021-09-21,2021-09-21,キャットラスト合同会社,,合同会社,神奈川県,川崎市宮前区,宮崎２丁目１２番地１４オーベル宮崎台４０４,,14,136,2160033,,,,,,,2021-09-21,1,,,,,キャットラスト,0
905,4020003020502,新規,0,2021-09-21,2021-09-21,ＴＲＡＤＥＶＯＸ合同会社,,合同会社,神奈川県,横浜市中区,蓬莱町２丁目３－２ダイヤビル３０２号,,14,104,2310048,,,,,,,2021-09-21,1,,,,,トレードヴォックス,0
908,4021001073979,新規,0,2021-09-21,2021-09-21,株式会社Ａｄｉｉ　Ｐｒｏｊｅｃｔ,,株式会社,神奈川県,三浦郡葉山町,一色２５１２番地の９マイキャッスル葉山１０９号,,14,301,2400111,,,,,,,2021-09-21,1,,,,,アディプロジェクト,0
909,4021001073995,新規,0,2021-09-21,2021-09-21,株式会社ＴＯＫＩ,,株式会社,神奈川県,鎌倉市,山ノ内７６８番地４,,14,204,2470062,,,,,,,2021-09-21,1,,,,,トキ,0
910,4021003010914,新規,0,2021-09-21,2021-09-21,合同会社ワークラボ,,合同会社,神奈川県,小田原市,上新田１３７番地の５,,14,206,2500877,,,,,,,2021-09-21,1,,,,,ワークラボ,0
914,4030001144401,新規,0,2021-09-21,2021-09-21,株式会社Ｍ’ｓＤＥＮＫＯ,,株式会社,埼玉県,越谷市,神明町１丁目１３７番地１２,,11,222,3430805,,,,,,,2021-09-21,1,,,,,エムズデンコー,0
915,4030001144426,新規,0,2021-09-21,2021-09-21,株式会社小川企画,,株式会社,埼玉県,上尾市,本町４丁目６番２１号,,11,219,3620014,,,,,,,2021-09-21,1,,,,,オガワキカク,0
916,4030003017976,新規,0,2021-09-21,2021-09-21,サンフラワー合同会社,,合同会社,埼玉県,和光市,南１丁目２０番４０－６号,,11,229,3510104,,,,,,,2021-09-21,1,,,,,サンフラワー,0
919,4040001120244,新規,0,2021-09-21,2021-09-21,Ｍｒｅｓｔ株式会社,,株式会社,千葉県,市原市,山木１６８番地２,,12,219,2900005,,,,,,,2021-09-21,1,,,,,エムレスト,0
926,4050003006060,新規,0,2021-09-21,2021-09-21,合同会社山翠,,合同会社,茨城県,水戸市,泉町２丁目２番４０号,,08,201,3100026,,,,,,,2021-09-21,1,,,,,サンスイ,0
929,4060001034104,新規,0,2021-09-21,2021-09-21,ＡＺＡＭ　ＴＲＡＤＩＮＧ株式会社,,株式会社,栃木県,真岡市,中１７４番地１,,09,209,3214351,,,,,,,2021-09-21,1,,,,,アザムトレーディング,0
932,4070001038450,新規,0,2021-09-21,2021-09-21,株式会社ＲＵＳＨ,,株式会社,群馬県,桐生市,相生町５丁目６８３番地の９,,10,203,3760011,,,,,,,2021-09-21,1,,,,,ラッシュ,0
933,4080101022782,新規,0,2021-09-21,2021-09-21,株式会社ユノ,,株式会社,静岡県,沼津市,西椎路６３３番地の２ＦｒｅｓｃｏＢ２０１,,22,203,4100303,,,,,,,2021-09-21,1,,,,,ユノ,0
937,4100003006237,新規,0,2021-09-21,2021-09-21,合同会社女神らいふ,,合同会社,長野県,中野市,小舘１－８,,20,211,3830023,,,,,,,2021-09-21,1,,,,,メガミライフ,0
944,4110005016712,新規,0,2021-09-21,2021-09-21,特定非営利活動法人まぢラボ,,その他の設立登記法人,新潟県,新潟市中央区,網川原１丁目２番１５号グリーンミナミ県庁前４０２号,,15,103,9500964,,,,,,,2021-09-21,1,,,,,マヂラボ,0
950,4120001240538,新規,0,2021-09-21,2021-09-21,株式会社Ｍ’ｓ,,株式会社,大阪府,大阪市東住吉区,杭全５丁目２番１６号,,27,121,5460002,,,,,,,2021-09-21,1,,,,,エムズ,0
954,4120101064325,新規,0,2021-09-21,2021-09-21,みんなのシェアハウス株式会社,,株式会社,大阪府,堺市北区,長曽根町１３０番地２３堺商工会議所,,27,146,5918025,,,,,,,2021-09-21,1,,,,,ミンナノシェアハウス,0
955,4120901044914,新規,0,2021-09-21,2021-09-21,トリンク株式会社,,株式会社,大阪府,箕面市,粟生新家２丁目２番１－２０７号,,27,220,5620024,,,,,,,2021-09-21,1,,,,,トリンク,0
958,4130001070133,新規,0,2021-09-21,2021-09-21,リヴライフコア株式会社,,株式会社,京都府,長岡京市,天神２丁目５番１５号,,26,209,6170824,,,,,,,2021-09-21,1,,,,,リヴライフコア,0
962,4130005016264,新規,0,2021-09-21,2021-09-21,特定非営利活動法人視覚障害者支援ネット・チームまなざし,,その他の設立登記法人,京都府,綾部市,井倉町溝渕８番地の４,,26,203,6230054,,,,,,,2021-09-21,1,,,,,シカクショウガイシャシエンネットチームマナザシ,0
965,4140001123121,新規,0,2021-09-21,2021-09-21,株式会社ウッド５,,株式会社,兵庫県,明石市,魚住町住吉１丁目１番１８号,,28,203,6740083,,,,,,,2021-09-21,1,,,,,ウッドファイブ,0
977,4150005009332,新規,0,2021-09-21,2021-09-21,一般社団法人五條スポーツガーデン,,その他の設立登記法人,奈良県,五條市,今井１丁目９－３３,,29,207,6370004,,,,,,,2021-09-21,1,,,,,ゴジョウスポーツガーデン,0
979,4160003002379,新規,0,2021-09-21,2021-09-21,ビリゼン合同会社,,合同会社,滋賀県,湖南市,菩提寺北１丁目５番９号,,25,211,5203246,,,,,,,2021-09-21,1,,,,,ビリゼン,0
980,4160005010982,新規,0,2021-09-21,2021-09-21,一般社団法人日本庭園文化国際研究会,,その他の設立登記法人,滋賀県,大津市,下阪本６丁目３２番６号,,25,201,5200105,,,,,,,2021-09-21,1,,,,,ニホンテイエンブンカコクサイケンキュウカイ,0
983,4180001147835,新規,0,2021-09-21,2021-09-21,株式会社ｉｉｄｅａ,,株式会社,愛知県,名古屋市中区,大須１丁目７番１４号パークＩＭビル２Ｆ,,23,106,4600011,,,,,,,2021-09-21,1,,,,,イイディア,0
988,4180005019444,新規,0,2021-09-21,2021-09-21,ファブレス協同組合,,その他の設立登記法人,愛知県,一宮市,猿海道２丁目６番２０号,,23,203,4910838,,,,,,,2021-09-21,1,,,,,ファブレス,0
991,4180303005105,新規,0,2021-09-21,2021-09-21,合同会社サンビレッジ,,合同会社,愛知県,額田郡幸田町,大字野場字井戸田１３２番地,,23,501,4440128,,,,,,,2021-09-21,1,,,,,サンビレッジ,0
996,4200001039162,新規,0,2021-09-21,2021-09-21,株式会社吉川家,00124287,株式会社,岐阜県,岐阜市,六条南２丁目６番２１号,,21,201,5008358,,,,,,,2021-09-21,1,,,,,ヨシカワヤ,0
1000,4210001018611,新規,0,2021-09-21,2021-09-21,株式会社ＹＧ,,株式会社,福井県,あわら市,温泉４丁目４１８番地,,18,208,9104104,,,,,,,2021-09-21,1,,,,,ワイジー,0
1006,4230003001729,新規,0,2021-09-21,2021-09-21,東亜情報工学合同会社,,合同会社,富山県,富山市,安野屋町３丁目４－２０,,16,201,9300087,,,,,,,2021-09-21,1,,,,,トウアジョウホウコウガク,0
1021,4290001094703,新規,0,2021-09-21,2021-09-21,株式会社Ｎｏｒｍａｌｉｚａｔｉｏｎ　Ｃａｎｄｙ,,株式会社,福岡県,福岡市中央区,大手門３丁目１２番１２号,,40,133,8100074,,,,,,,2021-09-21,1,,,,,ノーマライゼーションキャンディー,0
1039,4360001029395,新規,0,2021-09-21,2021-09-21,タックスアクティングえつ子株式会社,,株式会社,沖縄県,豊見城市,宜保２丁目４番地１カーサ・プリマベーラ１階,,47,212,9010244,,,,,,,2021-09-21,1,,,,,タックスアクティングエツコ,0
1044,4370001047603,新規,0,2021-09-21,2021-09-21,株式会社所謂,,株式会社,宮城県,仙台市青葉区,小松島３丁目１－４８,,04,101,9810905,,,,,,,2021-09-21,1,,,,,,0
1045,4370001047611,新規,0,2021-09-21,2021-09-21,ＢＲＩＤＧＥ株式会社,,株式会社,宮城県,仙台市若林区,保春院前丁５番１６号,,04,103,9840811,,,,,,,2021-09-21,1,,,,,ブリッジ,0
1057,4410005006427,新規,0,2021-09-21,2021-09-21,農事組合法人柴田農園,,その他の設立登記法人,秋田県,横手市,平鹿町醍醐字荒処１５２,,05,203,0130102,,,,,,,2021-09-21,1,,,,,,0
1058,4430001085002,新規,0,2021-09-21,2021-09-21,株式会社アーム,,株式会社,北海道,札幌市白石区,北郷三条１２丁目１番３０号,,01,104,0030833,,,,,,,2021-09-21,1,,,,,アーム,0
1059,4430003013167,新規,0,2021-09-21,2021-09-21,合同会社恵比寿ケア・コミュニケーションズ,,合同会社,北海道,恵庭市,島松東町４丁目３番１３号,,01,231,0611351,,,,,,,2021-09-21,1,,,,,エビスケアコミュニケーションズ,0
1067,4490003001587,新規,0,2021-09-21,2021-09-21,ＢＡＧ合同会社,,合同会社,高知県,高知市,南竹島町１６－１コンフォールＨ２０１,,39,201,7808017,,,,,,,2021-09-21,1,,,,,,0
1069,4500001023689,新規,0,2021-09-21,2021-09-21,株式会社リーフカンパニー,,株式会社,愛媛県,松山市,生石町５９５番地１,,38,201,7900051,,,,,,,2021-09-21,1,,,,,リーフカンパニー,0
1075,5010001221218,新規,0,2021-09-21,2021-09-21,ＮＪＩＡ株式会社,,株式会社,東京都,千代田区,有楽町１丁目１３番２号,,13,101,1000006,,,,,,,2021-09-21,1,,,,,エヌジア,0
1076,5010001221234,新規,0,2021-09-21,2021-09-21,株式会社ベネライフ,,株式会社,東京都,中央区,銀座１丁目２２－１１銀座大竹ビジデンス２Ｆ,,13,102,1040061,,,,,,,2021-09-21,1,,,,,ベネライフ,0
1077,5010001221250,新規,0,2021-09-21,2021-09-21,株式会社Ｔａｓ　ｐｅｒｓｏｎａｌ　ｍａｎａｇｅｍｅｎｔ,,株式会社,東京都,中央区,銀座１丁目２７番８号,,13,102,1040061,,,,,,,2021-09-21,1,,,,,タスパーソナルマネジメント,0
1078,5010001221267,新規,0,2021-09-21,2021-09-21,株式会社ヴェールト,,株式会社,東京都,文京区,本駒込６丁目１５番５－１０２号,,13,105,1130021,,,,,,,2021-09-21,1,,,,,ヴェールト,0
1079,5010001221275,新規,0,2021-09-21,2021-09-21,ｎｏｎｎｏ株式会社,,株式会社,東京都,中央区,晴海１丁目６番１－１３０６号,,13,102,1040053,,,,,,,2021-09-21,1,,,,,ノンノ,0
1080,5010001221283,新規,0,2021-09-21,2021-09-21,ｓｙｎｃｏｐａｔｉｏｎ株式会社,,株式会社,東京都,中央区,銀座６丁目９－８銀座ＵＫビル８階,,13,102,1040061,,,,,,,2021-09-21,1,,,,,シンコペーション,0
1086,5010003035855,新規,0,2021-09-21,2021-09-21,合同会社パークテラス千代田,,合同会社,東京都,千代田区,麹町３丁目２番地１３,,13,101,1020083,,,,,,,2021-09-21,1,,,,,パークテラスチヨダ,0
1087,5010005033989,新規,0,2021-09-21,2021-09-21,東京レジＥａｓｔ６一般社団法人,,その他の設立登記法人,東京都,千代田区,丸の内３丁目１番１号東京共同会計事務所内,,13,101,1000005,,,,,,,2021-09-21,1,,,,,トウキョウレジイーストシックス,0
1096,5010401162680,新規,0,2021-09-21,2021-09-21,株式会社ＫＯＴＯＲＵ,,株式会社,東京都,港区,南青山２丁目２番１５号,,13,103,1070062,,,,,,,2021-09-21,1,,,,,コトル,0
1104,5010601059966,新規,0,2021-09-21,2021-09-21,ダ・ヴィンチスタ株式会社,,株式会社,東京都,江東区,東雲１丁目９番１１－５０４号,,13,108,1350062,,,,,,,2021-09-21,1,,,,,ダヴィンチスタ,0
1105,5010701041551,新規,0,2021-09-21,2021-09-21,株式会社ネイビー,,株式会社,東京都,品川区,八潮５丁目８番４７－８１１号,,13,109,1400003,,,,,,,2021-09-21,1,,,,,ネイビー,0
1106,5010703005950,新規,0,2021-09-21,2021-09-21,合同会社吉田,,合同会社,東京都,品川区,西五反田３丁目９番１８－５０７号,,13,109,1410031,,,,,,,2021-09-21,1,,,,,ヨシダ,0
1111,5010903006815,新規,0,2021-09-21,2021-09-21,スピカアセット合同会社,,合同会社,東京都,世田谷区,中町５丁目９番２－２１０号,,13,112,1580091,,,,,,,2021-09-21,1,,,,,スピカアセット,0
1121,5011001142874,新規,0,2021-09-21,2021-09-21,株式会社生命科学研究所,,株式会社,東京都,目黒区,洗足２丁目１５番１４号,,13,110,1520012,,,,,,,2021-09-21,1,,,,,セイメイカガクケンキュウジョ,0
1123,5011101096327,新規,0,2021-09-21,2021-09-21,株式会社Ｒａｆｆｉｎｅ,,株式会社,東京都,新宿区,西新宿８丁目１７番２－１１０１号,,13,104,1600023,,,,,,,2021-09-21,1,,,,,ラフィネ,0
1127,5011303004178,新規,0,2021-09-21,2021-09-21,合同会社北一,,合同会社,東京都,杉並区,井草３丁目２５番１０号ＣＯＣＯＣＵＢＥＩＧＵＳＡ５０３,,13,115,1670021,,,,,,,2021-09-21,1,,,,,キタイチ,0
1135,5011801039717,新規,0,2021-09-21,2021-09-21,株式会社サンキョーファニチャー,,株式会社,東京都,足立区,中川４丁目１２番１２号メゾン・ド・富士１００号室,,13,121,1200002,,,,,,,2021-09-21,1,,,,,サンキョーファニチャー,0
1143,5013303005825,新規,0,2021-09-21,2021-09-21,合同会社ＲｅＬｉｆｅ,,合同会社,東京都,豊島区,池袋１丁目１３番２４号,,13,116,1700014,,,,,,,2021-09-21,1,,,,,リライフ,0
1144,5013305003265,新規,0,2021-09-21,2021-09-21,医療法人社団祐明会,,その他の設立登記法人,東京都,豊島区,目白３丁目４番１１号ヒューリック目白２階,,13,116,1710031,,,,,,,2021-09-21,1,,,,,ユウメイカイ,0
1155,5020001143064,新規,0,2021-09-21,2021-09-21,大福商事株式会社,,株式会社,神奈川県,横浜市都筑区,北山田６丁目４０番３号,,14,118,2240021,,,,,,,2021-09-21,1,,,,,ダイフクショウジ,0
1156,5020001143072,新規,0,2021-09-21,2021-09-21,株式会社ワイ・クルーズ,,株式会社,神奈川県,横浜市西区,浅間台７７番地５,,14,103,2200071,,,,,,,2021-09-21,1,,,,,ワイクルーズ,0
1157,5020001143097,新規,0,2021-09-21,2021-09-21,Ｒｉｚｕｍｕ株式会社,,株式会社,神奈川県,横浜市港北区,日吉本町５丁目２０番７号第１７マルヨハウス１０７,,14,109,2230062,,,,,,,2021-09-21,1,,,,,リズム,0
1158,5020003020501,新規,0,2021-09-21,2021-09-21,オープンテック合同会社,,合同会社,神奈川県,川崎市宮前区,馬絹１丁目３１番２７号,,14,136,2160035,,,,,,,2021-09-21,1,,,,,オープンテック,0
1165,5021001073978,新規,0,2021-09-21,2021-09-21,優輝建設株式会社,,株式会社,神奈川県,秦野市,寺山１８０番地の３,,14,211,2570023,,,,,,,2021-09-21,1,,,,,ユウキケンセツ,0
1168,5021003010905,新規,0,2021-09-21,2021-09-21,合同会社アンドピース,,合同会社,神奈川県,藤沢市,本鵠沼２丁目１９番５号１０１,,14,205,2510028,,,,,,,2021-09-21,1,,,,,アンドピース,0
1173,5030001144400,新規,0,2021-09-21,2021-09-21,株式会社Ｂｅｌｉｅｖｅ,,株式会社,埼玉県,川口市,西川口１丁目１１番１１号,,11,203,3320021,,,,,,,2021-09-21,1,,,,,ビリーブ,0
1177,5030003017959,新規,0,2021-09-21,2021-09-21,合同会社一心,,合同会社,埼玉県,桶川市,大字川田谷３８０１番地の１,,11,231,3630027,,,,,,,2021-09-21,1,,,,,イッシン,0
1183,5040001120235,新規,0,2021-09-21,2021-09-21,萬和株式会社,,株式会社,千葉県,千葉市若葉区,大草町４４１番地３５号グレースヒルズ１０２,,12,104,2640011,,,,,,,2021-09-21,1,,,,,マンワ,0
1191,5050001049853,新規,0,2021-09-21,2021-09-21,株式会社ｃｈｏｕ　ｃｈｏｕ　ｃｌｏｕｄ,,株式会社,茨城県,ひたちなか市,大字枝川１６０７番地,,08,221,3120035,,,,,,,2021-09-21,1,,,,,シュシュクラウド,0
1192,5050001049861,新規,0,2021-09-21,2021-09-21,丸栄漁業株式会社,,株式会社,茨城県,北茨城市,関本町関本中１５６４番地３０３,,08,215,3191723,,,,,,,2021-09-21,1,,,,,マルエイギョギョウ,0
1194,5050003006084,新規,0,2021-09-21,2021-09-21,合同会社霞や,,合同会社,茨城県,土浦市,板谷６丁目５５７－２,,08,203,3000007,,,,,,,2021-09-21,1,,,,,,0
1196,5060001034103,新規,0,2021-09-21,2021-09-21,株式会社ＡＢＯＵＢＡＫＡＲ　ＴＲＡＤＩＮＧ,,株式会社,栃木県,小山市,犬塚４丁目１０番地２２グリーンコーポ３０２号室,,09,208,3230811,,,,,,,2021-09-21,1,,,,,アブバカルトレーディング,0
1199,5070001038458,新規,0,2021-09-21,2021-09-21,株式会社けやき不動産,,株式会社,群馬県,前橋市,表町２丁目９番１５号Ｙ・Ｍ・Ｄビル１階,,10,201,3710024,,,,,,,2021-09-21,1,,,,,ケヤキフドウサン,0
1205,5080101022781,新規,0,2021-09-21,2021-09-21,株式会社トライクロス,,株式会社,静岡県,富士宮市,小泉１９８０番地の１,,22,207,4180022,,,,,,,2021-09-21,1,,,,,トライクロス,0
1210,5090001017195,新規,0,2021-09-21,2021-09-21,株式会社３８ＬＩＦＥ,,株式会社,山梨県,都留市,中央１丁目３番１０号,,19,204,4020052,,,,,,,2021-09-21,1,,,,,サンパチライフ,0
1211,5100001034619,新規,0,2021-09-21,2021-09-21,株式会社オール・ビルディングメンテナンス,,株式会社,長野県,長野市,松岡２丁目２１番２９号,,20,201,3810026,,,,,,,2021-09-21,1,,,,,オールビルディングメンテナンス,0
1215,5110003004577,新規,0,2021-09-21,2021-09-21,合同会社ｙｄｙ　ｓｔｙｌｅ,,合同会社,新潟県,村上市,藤沢２２０番地１,,15,212,9593131,,,,,,,2021-09-21,1,,,,,ワイディースタイル,0
1230,5120001240495,新規,0,2021-09-21,2021-09-21,株式会社マクア,,株式会社,大阪府,大阪市平野区,瓜破１丁目１１番２９－２０１号,,27,126,5470024,,,,,,,2021-09-21,1,,,,,マクア,0
1231,5120001240529,新規,0,2021-09-21,2021-09-21,株式会社ＴＲＴ,,株式会社,大阪府,大阪市北区,中之島２丁目３番１８号中之島フェスティバルタワー１６階１６０２,,27,127,5300005,,,,,,,2021-09-21,1,,,,,ティーアールティー,0
1232,5120003020284,新規,0,2021-09-21,2021-09-21,ＳＫコンサルティング合同会社,,合同会社,大阪府,大阪市北区,梅田２丁目５番１３号桜橋第一ビル３０４号,,27,127,5300001,,,,,,,2021-09-21,1,,,,,エスケーコンサルティング,0
1238,5120901044913,新規,0,2021-09-21,2021-09-21,株式会社ＷＨ,,株式会社,大阪府,吹田市,千里山東２丁目２７番３号,,27,205,5650842,,,,,,,2021-09-21,1,,,,,ダブルエイチ,0
1239,5120901044921,新規,0,2021-09-21,2021-09-21,株式会社ｉ－ｓｔｙｌｅ,,株式会社,大阪府,吹田市,垂水町３丁目１８－１４,,27,205,5640062,,,,,,,2021-09-21,1,,,,,アイスタイル,0
1267,5180001147859,新規,0,2021-09-21,2021-09-21,株式会社スリーバード,,株式会社,愛知県,名古屋市千種区,桜が丘１１番地,,23,101,4640025,,,,,,,2021-09-21,1,,,,,スリーバード,0
1268,5180001147900,新規,0,2021-09-21,2021-09-21,株式会社ＥＩＴ,,株式会社,愛知県,名古屋市東区,葵１丁目１４番２０号エスティメゾン５０６号,,23,102,4610004,,,,,,,2021-09-21,1,,,,,イーアイティー,0
1269,5180003022936,新規,0,2021-09-21,2021-09-21,合同会社アルテプラス,,合同会社,愛知県,名古屋市千種区,青柳町５丁目１－３,,23,101,4640852,,,,,,,2021-09-21,1,,,,,アルテプラス,0
1277,5200001039153,新規,0,2021-09-21,2021-09-21,株式会社純嘉,,株式会社,岐阜県,岐阜市,加野２丁目２２番３８号,,21,201,5013107,,,,,,,2021-09-21,1,,,,,スミカ,0
1278,5200001039161,新規,0,2021-09-21,2021-09-21,グラース株式会社,,株式会社,岐阜県,中津川市,手賀野３０９番地の７,,21,206,5080015,,,,,,,2021-09-21,1,,,,,グラース,0
1280,5210003001408,新規,0,2021-09-21,2021-09-21,合同会社ハナヤ機工,,合同会社,福井県,福井市,西木田３丁目７番５号,,18,201,9188004,,,,,,,2021-09-21,1,,,,,ハナヤキコウ,0
1289,5230003001728,新規,0,2021-09-21,2021-09-21,あさひ保険サービス合同会社,,合同会社,富山県,砺波市,宮沢町１番５１号,,16,208,9391388,,,,,,,2021-09-21,1,,,,,アサヒホケンサービス,0
1295,5260001035972,新規,0,2021-09-21,2021-09-21,株式会社Ｘ‐Ｔｅｃｈ,,株式会社,岡山県,笠岡市,吉浜２４８５‐３,,33,205,7140074,,,,,,,2021-09-21,1,,,,,クロステック,0
1311,5350003003927,新規,0,2021-09-21,2021-09-21,合同会社ひなたアグリ＆トレーディング,,合同会社,宮崎県,宮崎市,広島２丁目１１番８号パレインヴィラ６９　３０６号室,,45,201,8800806,,,,,,,2021-09-21,1,,,,,ヒナタアグリアンドトレーディング,0
1329,5410003003573,新規,0,2021-09-21,2021-09-21,めいく合同会社,,合同会社,秋田県,秋田市,横森１丁目１７番３３号,,05,201,0100044,,,,,,,2021-09-21,1,,,,,,0
1333,5430001084993,新規,0,2021-09-21,2021-09-21,株式会社ＦＯＭ,,株式会社,北海道,札幌市東区,北三十四条東２８丁目８番３号,,01,103,0070834,,,,,,,2021-09-21,1,,,,,エフオーエム,0
1338,5700150104789,新規,0,2021-09-21,2021-09-21,ＢＬＵＥ　ＷＥＤＧＥ　ＬＩＭＩＴＥＤ,,外国会社等,東京都,港区,南青山５丁目１７番１２号リオン南青山４０１号,,13,103,1070062,中華人民共和国香港特別行政区カオルーン、クォン・トン、ホウ・ミン・ストリート１００、ランドマーク・イースト、ＡＩＡカオルーン・タワー３２階３２０１号室,,,,,,2021-09-21,1,,,,,ブルーウエツジリミテツド,0
1339,5700150104797,新規,0,2021-09-21,2021-09-21,ＦｏｒｒｅｓｔＦａｍｉｌｙ　ＳｕｐｅｒＦｕｎｄ　ＰｔｙＬｔｄ,,外国会社等,北海道,虻田郡倶知安町,字旭３０５番５２,,01,400,0440083,オーストラリア連邦，ニューサウスウェールズ州，アランビハイツ，リビアクレセント１５,,,,,,2021-09-21,1,,,,,フオレストフアミリースーパーフアンドピーテイーワイリミテツド,0
1348,6010001221266,新規,0,2021-09-21,2021-09-21,リグロスアドバイザリー株式会社,,株式会社,東京都,千代田区,九段南１丁目５番６号りそな九段ビル５Ｆ・ＫＳフロア,,13,101,1020074,,,,,,,2021-09-21,1,,,,,リグロスアドバイザリー,0
1351,6010003035730,新規,0,2021-09-21,2021-09-21,合同会社現実主義,,合同会社,東京都,千代田区,神田淡路町１丁目１５番地１４サンコービル３号,,13,101,1010063,,,,,,,2021-09-21,1,,,,,ゲンジツシュギ,0
1352,6010003035879,新規,0,2021-09-21,2021-09-21,合同会社ＳＡ　ＰＲＯＰＥＲＴＹ８,,合同会社,東京都,中央区,銀座１丁目６番１１号土志田ビルディング３Ｆ,,13,102,1040061,,,,,,,2021-09-21,1,,,,,エスエープロパティエイト,0
1355,6010005034004,新規,0,2021-09-21,2021-09-21,一般社団法人ＳＡ　ＰＲＯＰＥＲＴＹ８,,その他の設立登記法人,東京都,中央区,銀座１丁目６番１１号土志田ビルディング３Ｆ,,13,102,1040061,,,,,,,2021-09-21,1,,,,,エスエープロパティエイト,0
1360,6010401162721,新規,0,2021-09-21,2021-09-21,ＡｎｉＣｕｒｅ株式会社,,株式会社,東京都,港区,赤坂１丁目１２番３２号アーク森ビル３階,,13,103,1070052,,,,,,,2021-09-21,1,,,,,アニキュア,0
1361,6010401162787,新規,0,2021-09-21,2021-09-21,株式会社格好,,株式会社,東京都,港区,新橋５丁目１２番１１号,,13,103,1050004,,,,,,,2021-09-21,1,,,,,カッコウ,0
1363,6010403026156,新規,0,2021-09-21,2021-09-21,ｆｕｋｕｒｉｎｏ合同会社,,合同会社,東京都,港区,高輪２丁目１－１３－４１４,,13,103,1080074,,,,,,,2021-09-21,1,,,,,フクリーノ,0
1364,6010405020223,新規,0,2021-09-21,2021-09-21,一般社団法人日本ＩＳＭＮコードセンター,,その他の設立登記法人,東京都,港区,白金４丁目２番８－１０３号,,13,103,1080072,,,,,,,2021-09-21,1,,,,,ニホンアイエスエムエヌコードセンター,0
1370,6010601059949,新規,0,2021-09-21,2021-09-21,隆億国際株式会社,,株式会社,東京都,墨田区,錦糸１丁目７－２－４０２,,13,107,1300013,,,,,,,2021-09-21,1,,,,,リュウオクコクサイ,0
1381,6011001142849,新規,0,2021-09-21,2021-09-21,株式会社パン・パシフィック・インターナショナルフィナンシャルサービス,,株式会社,東京都,目黒区,青葉台２丁目１９番１０号,,13,110,1530042,,,,,,,2021-09-21,1,,,,,パンパシフィックインターナショナルフィナンシャルサービス,0
1382,6011001142857,新規,0,2021-09-21,2021-09-21,株式会社ｍｉｌｌｉｏｎｓ,,株式会社,東京都,渋谷区,千駄ヶ谷４丁目７番１３号ニューシティアパートメンツ千駄ヶ谷Ⅱ３０４,00124283,13,113,1510051,,,,,,,2021-09-21,1,,,,,ミリオンズ,0
1384,6011005009219,新規,0,2021-09-21,2021-09-21,医療法人社団千祥会,,その他の設立登記法人,東京都,目黒区,緑が丘２丁目２４番１５号コリーヌ自由が丘ＥＳＴ１階,,13,110,1520034,,,,,,,2021-09-21,1,,,,,センショウカイ,0
1394,6011201023238,新規,0,2021-09-21,2021-09-21,株式会社Ｍｉｍｏｚａ,,株式会社,東京都,中野区,中野３丁目４４番２号デザインコート中野１０２,,13,114,1640001,,,,,,,2021-09-21,1,,,,,ミモザ,0
1395,6011203003642,新規,0,2021-09-21,2021-09-21,ＲＩＳＨＵ合同会社,,合同会社,東京都,中野区,沼袋１丁目３０番１９号ジュネス２０２号,,13,114,1650025,,,,,,,2021-09-21,1,,,,,リス,0
1396,6011303004177,新規,0,2021-09-21,2021-09-21,合同会社ＳＨＩ,,合同会社,東京都,杉並区,阿佐谷南２丁目１７番５号－２Ｆ,,13,115,1660004,,,,,,,2021-09-21,1,,,,,エスエイチアイ,0
1400,6011401023681,新規,0,2021-09-21,2021-09-21,五條株式会社,,株式会社,東京都,板橋区,加賀２丁目１６番１－９０５号,,13,119,1730003,,,,,,,2021-09-21,1,,,,,ゴジョウ,0
1408,6012701016672,新規,0,2021-09-21,2021-09-21,株式会社全力,,株式会社,東京都,東久留米市,南沢５丁目１８番４７号,,13,222,2030023,,,,,,,2021-09-21,1,,,,,ゼンリョク,0
1411,6013101008731,新規,0,2021-09-21,2021-09-21,株式会社嶋根組,,株式会社,東京都,福生市,本町８０番地３－５０２,,13,218,1970022,,,,,,,2021-09-21,1,,,,,シマネグミ,0
1418,6020001143063,新規,0,2021-09-21,2021-09-21,カノア株式会社,,株式会社,神奈川県,川崎市川崎区,田島町２番１５号,,14,131,2100853,,,,,,,2021-09-21,1,,,,,カノア,0
1419,6020001143071,新規,0,2021-09-21,2021-09-21,株式会社ＢＡＮＫ　ＡＣＡＤＥＭＹ,,株式会社,神奈川県,横浜市神奈川区,栄町５番地１横浜クリエーションスクエア１４階,,14,102,2210052,,,,,,,2021-09-21,1,,,,,バンクアカデミー,0
1420,6020001143088,新規,0,2021-09-21,2021-09-21,ＲＵＮＧＰＩＲＯＯＮ株式会社,,株式会社,神奈川県,横浜市中区,翁町１丁目５番５号,,14,104,2310028,,,,,,,2021-09-21,1,,,,,ルンピルン,0
1425,6020003020509,新規,0,2021-09-21,2021-09-21,合同会社ＬＥＡＰ,,合同会社,神奈川県,横浜市神奈川区,栄町１３番地１６藤田ビル２０１号室,,14,102,2210052,,,,,,,2021-09-21,1,,,,,リープ,0
1428,6021003010904,新規,0,2021-09-21,2021-09-21,ＴＫ－Ａｓｓｉｓｔ合同会社,,合同会社,神奈川県,茅ヶ崎市,南湖２丁目１２番１３号,,14,207,2530061,,,,,,,2021-09-21,1,,,,,ティーケイアシスト,0
1430,6030001144291,新規,0,2021-09-21,2021-09-21,株式会社大勝自動車,,株式会社,埼玉県,川口市,大字東本郷７３７番地２,,11,203,3340063,,,,,,,2021-09-21,1,,,,,ダイショウジドウシャ,0
1431,6030001144382,新規,0,2021-09-21,2021-09-21,アーバン株式会社,,株式会社,埼玉県,熊谷市,小島８８７番地１,,11,202,3600832,,,,,,,2021-09-21,1,,,,,アーバン,0
1432,6030001144390,新規,0,2021-09-21,2021-09-21,株式会社クリエイティブインベスター,,株式会社,埼玉県,草加市,氷川町３６２番地４,,11,221,3400034,,,,,,,2021-09-21,1,,,,,クリエイティブインベスター,0
1433,6030001144408,新規,0,2021-09-21,2021-09-21,株式会社Ｂｉｒｇｏ　Ｄｅｓｉｇｎ,,株式会社,埼玉県,入間郡毛呂山町,中央３丁目１６番地２７,,11,326,3500461,,,,,,,2021-09-21,1,,,,,ビーゴデザイン,0
1434,6030003017966,新規,0,2021-09-21,2021-09-21,合同会社アタ産業,,合同会社,埼玉県,三郷市,鷹野５丁目１１４番地３,,11,237,3410035,,,,,,,2021-09-21,1,,,,,アタサンギョウ,0
1435,6030003017974,新規,0,2021-09-21,2021-09-21,合同会社ジャパンコンサルティングチーム,,合同会社,埼玉県,さいたま市岩槻区,仲町１丁目６－１９－１,,11,110,3390054,,,,,,,2021-09-21,1,,,,,ジャパンコンサルティングチーム,0
1436,6040001120234,新規,0,2021-09-21,2021-09-21,株式会社ハートフル,,株式会社,千葉県,長生郡白子町,驚１１１０番地５,,12,424,2994214,,,,,,,2021-09-21,1,,,,,ハートフル,0
1437,6040001120242,新規,0,2021-09-21,2021-09-21,株式会社ＳＯＲＴＥ,,株式会社,千葉県,千葉市緑区,おゆみ野３丁目５番地１７芝コーポ三号館１０３,,12,105,2660031,,,,,,,2021-09-21,1,,,,,ソルテ,0
1438,6040003018534,新規,0,2021-09-21,2021-09-21,合同会社ＩＭＳ,,合同会社,千葉県,市川市,末広２丁目１０番１５－２０２号（井上マンション）,,12,203,2720121,,,,,,,2021-09-21,1,,,,,アイエムエス,0
1444,6050001049860,新規,0,2021-09-21,2021-09-21,株式会社Ｙ．Ｓ．Ｋ,,株式会社,茨城県,常陸太田市,東二町２２５４番地３,,08,212,3130052,,,,,,,2021-09-21,1,,,,,ワイエスケー,0
1446,6060001034110,新規,0,2021-09-21,2021-09-21,株式会社江戸ワンダーウェルフェア,,株式会社,栃木県,日光市,柄倉４７０番地２,,09,206,3212524,,,,,,,2021-09-21,1,,,,,エドワンダーウェルフェア,0
1457,6080101022780,新規,0,2021-09-21,2021-09-21,ＳＡＭＩＩ　ＨＯＬＤＩＮＧＳ株式会社,,株式会社,静岡県,田方郡函南町,肥田４１１番地の１,,22,325,4190125,,,,,,,2021-09-21,1,,,,,サミイホールディングス,0
1462,6100001034618,新規,0,2021-09-21,2021-09-21,株式会社奥山建設興業,,株式会社,長野県,飯田市,上殿岡３４０番地８,,20,205,3950153,,,,,,,2021-09-21,1,,,,,オクヤマケンセツコウギョウ,0
1463,6100001034626,新規,0,2021-09-21,2021-09-21,株式会社ＦＧコンサルティング,,株式会社,長野県,長野市,金井田３番地,,20,201,3812222,,,,,,,2021-09-21,1,,,,,エフジーコンサルティング,0
1465,6100003006235,新規,0,2021-09-21,2021-09-21,合同会社ヤマモト,,合同会社,長野県,駒ヶ根市,赤穂３９５０番地２,,20,210,3994117,,,,,,,2021-09-21,1,,,,,ヤマモト,0
1471,6110003004576,新規,0,2021-09-21,2021-09-21,合同会社カリキシン,,合同会社,新潟県,新潟市中央区,関屋松波町３丁目３１８番地５,,15,103,9518161,,,,,,,2021-09-21,1,,,,,カリキシン,0
1473,6120001240494,新規,0,2021-09-21,2021-09-21,株式会社サーキュラーシステムズソーシング,,株式会社,大阪府,大阪市淀川区,十三東４丁目２番１５号十三アルヴィータビル,,27,123,5320023,,,,,,,2021-09-21,1,,,,,サーキュラーシステムズソーシング,0
1474,6120001240528,新規,0,2021-09-21,2021-09-21,株式会社ＲＧＢ,,株式会社,大阪府,大阪市北区,中之島２丁目３番１８号中之島フェスティバルタワー１６階１６０２,,27,127,5300005,,,,,,,2021-09-21,1,,,,,アールジービー,0
1475,6120001240536,新規,0,2021-09-21,2021-09-21,５ＬＡＮＣＥ株式会社,,株式会社,大阪府,大阪市東淀川区,東中島２丁目２３番３２号,,27,114,5330033,,,,,,,2021-09-21,1,,,,,ファイブランス,0
1477,6120003020275,新規,0,2021-09-21,2021-09-21,ＴＴＴ合同会社,,合同会社,大阪府,大阪市西区,新町１丁目２３－２ＴＢビル８Ｆ（Ｋ’ｓＣｒｅａｔｅ（株）内）,,27,106,5500013,,,,,,,2021-09-21,1,,,,,ティーティーティー,0
1482,6120103004351,新規,0,2021-09-21,2021-09-21,合同会社エイチケイ,,合同会社,大阪府,泉佐野市,下瓦屋６３６,,27,213,5980062,,,,,,,2021-09-21,1,,,,,エイチケイ,0
1486,6120901044912,新規,0,2021-09-21,2021-09-21,株式会社岡自動車内張,,株式会社,大阪府,摂津市,新在家２丁目３１番１８号２階,,27,224,5660055,,,,,,,2021-09-21,1,,,,,オカジドウシャウチバリ,0
1488,6130003007494,新規,0,2021-09-21,2021-09-21,ＰＯＯＬ合同会社,,合同会社,京都府,城陽市,平川中道表１２－２,,26,207,6100101,,,,,,,2021-09-21,1,,,,,プール,0
1496,6140003016742,新規,0,2021-09-21,2021-09-21,合同会社ポポカモ,,合同会社,兵庫県,姫路市,六角５４４番地１,,28,201,6712242,,,,,,,2021-09-21,1,,,,,ポポカモ,0
1497,6140003016750,新規,0,2021-09-21,2021-09-21,合同会社ライフデザイン研究所,,合同会社,兵庫県,西宮市,甑岩町５番４号,,28,204,6620092,,,,,,,2021-09-21,1,,,,,ライフデザインケンキュウショ,0
1498,6150001024936,新規,0,2021-09-21,2021-09-21,株式会社ＡＤＥＲＩＡ,,株式会社,奈良県,葛城市,尺土１０５番地,,29,211,6392162,,,,,,,2021-09-21,1,,,,,アデリア,0
1501,6150005009330,新規,0,2021-09-21,2021-09-21,一般社団法人明日の山添村を作る会,,その他の設立登記法人,奈良県,山辺郡山添村,大字大西１５１番地（山添村商工会内）,,29,322,6302344,,,,,,,2021-09-21,1,,,,,アスノヤマゾエムラヲツクルカイ,0
1503,6160005010980,新規,0,2021-09-21,2021-09-21,一般社団法人蜜柑の木,,その他の設立登記法人,滋賀県,近江八幡市,若葉町３丁目１８０５番１８,,25,204,5230815,,,,,,,2021-09-21,1,,,,,ミカンノキ,0
1511,6180001147890,新規,0,2021-09-21,2021-09-21,株式会社ビジュアルマーケティング,,株式会社,愛知県,名古屋市中区,大須４丁目１６番２７号,,23,106,4600011,,,,,,,2021-09-21,1,,,,,ビジュアルマーケティング,0
1512,6180001147899,新規,0,2021-09-21,2021-09-21,株式会社ＬＡＵＧＨ　ＴＡＬＥ,,株式会社,愛知県,名古屋市東区,葵１丁目１８番２０号（パルティール新栄４０１号）,,23,102,4610004,,,,,,,2021-09-21,1,,,,,ラフテル,0
1517,6180301035390,新規,0,2021-09-21,2021-09-21,Ｔイノベーション株式会社,,株式会社,愛知県,岡崎市,美合町字本郷２９０番地,,23,202,4440802,,,,,,,2021-09-21,1,,,,,ティーイノベーション,0
1520,6200001039152,新規,0,2021-09-21,2021-09-21,株式会社三旺,,株式会社,岐阜県,羽島市,正木町曲利７５０番地５,,21,209,5016227,,,,,,,2021-09-21,1,,,,,サンオウ,0
1529,6240001058628,新規,0,2021-09-21,2021-09-21,株式会社Ｇｒｏｗ　ｕｐ　Ｆｉｅｌｄｓ,,株式会社,広島県,広島市中区,上八丁堀５番５－１０３号,,34,101,7300012,,,,,,,2021-09-21,1,,,,,グローアップフィールズ,0
1540,6260001035971,新規,0,2021-09-21,2021-09-21,シマダクリエイティブ株式会社,,株式会社,岡山県,岡山市北区,辰巳２９‐１０３辰巳セントラルビル１Ｆ,,33,101,7000976,,,,,,,2021-09-21,1,,,,,シマダクリエイティブ,0
1548,6290001094684,新規,0,2021-09-21,2021-09-21,株式会社ハーモニアスビレッジ,,株式会社,福岡県,福岡市西区,今津４４３０番地の１,,40,135,8190165,,,,,,,2021-09-21,1,,,,,ハーモニアスビレッジ,0
1549,6290001094701,新規,0,2021-09-21,2021-09-21,株式会社エスカリエ,,株式会社,福岡県,福岡市博多区,博多駅南２丁目４番１１－５０５号,,40,132,8120016,,,,,,,2021-09-21,1,,,,,エスカリエ,0
1554,6310001017485,新規,0,2021-09-21,2021-09-21,株式会社フックマート,,株式会社,長崎県,諫早市,小船越町１００６番地１,,42,204,8540062,,,,,,,2021-09-21,1,,,,,フックマート,0
1557,6320001018607,新規,0,2021-09-21,2021-09-21,株式会社ｗｉｌｌ,,株式会社,大分県,別府市,秋葉町７番２４号２１０－２,,44,202,8740937,,,,,,,2021-09-21,1,,,,,ウィル,0
1564,6360001029393,新規,0,2021-09-21,2021-09-21,株式会社マザーオーシャン沖縄,,株式会社,沖縄県,豊見城市,字豊崎１番地３９瀬長共同住宅２階,,47,212,9010225,,,,,,,2021-09-21,1,,,,,マザーオーシャンオキナワ,0
1576,6400003002831,新規,0,2021-09-21,2021-09-21,Ｈ＆Ｆ合同会社,,合同会社,岩手県,北上市,大通り２丁目６番１１－１１０５号,,03,206,0240061,,,,,,,2021-09-21,1,,,,,エイチアンドエフ,0
1584,6430001084992,新規,0,2021-09-21,2021-09-21,株式会社藤正水産,,株式会社,北海道,小樽市,祝津３丁目２１２番地,,01,203,0470047,,,,,,,2021-09-21,1,,,,,フジマサスイサン,0
1585,6430005014285,新規,0,2021-09-21,2021-09-21,医療法人社団至誠会,,その他の設立登記法人,北海道,札幌市南区,南三十九条西１１丁目１番３３号,,01,106,0050039,,,,,,,2021-09-21,1,,,,,シセイカイ,0
1588,6460001005599,新規,0,2021-09-21,2021-09-21,株式会社ベルエイト,,株式会社,北海道,釧路市,白金町２０番４号,,01,206,0850034,,,,,,,2021-09-21,1,,,,,ベルエイト,0
1590,6460103001397,新規,0,2021-09-21,2021-09-21,合同会社サークルテラス,,合同会社,北海道,帯広市,西二十一条南２丁目３０番１８号,,01,207,0802471,,,,,,,2021-09-21,1,,,,,サークルテラス,0
1591,6470001018716,新規,0,2021-09-21,2021-09-21,株式会社Ａｎｙ　Ｒａｉｎｂｏｗ,,株式会社,香川県,仲多度郡多度津町,大字青木１０８番地,,37,404,7640033,,,,,,,2021-09-21,1,,,,,エニーレインボー,0
1594,6700150104788,新規,0,2021-09-21,2021-09-21,ＨＩＩＮＣＯＭＥ　ＩＮＶＥＳＴＭＥＮＴ　ＬＩＭＩＴＥＤ,,外国会社等,東京都,台東区,浅草４丁目１８５番地３,,13,106,1110032,Ｉｎｔｅｒｓｈｏｒｅ　Ｃｈａｍｂｅｒｓ，Ｒｏａｄ　Ｔｏｗｎ，Ｔｏｒｔｏｌａ，Ｂｒｉｔｉｓｈ　Ｖｉｒｇｉｎ　Ｉｓｌａｎｄｓ,,,,,,2021-09-21,1,,,,,ハイインカムインベストメントリミテツド,0
1595,6700150104796,新規,0,2021-09-21,2021-09-21,ＭｃＬｅｎｎａｎ　Ｈｏｌｄｉｎｇｓ　Ｐｔｙ　Ｌｔｄ,,外国会社等,北海道,虻田郡倶知安町,字山田１５５番５３,,01,400,0440081,オーストラリア連邦ニューサウスウェールズ州ブロンテブロンテロード３６８,,,,,,2021-09-21,1,,,,,マクレナンホールデイングスピーテイーワイエルテイーデイー,0
1611,7010001221182,新規,0,2021-09-21,2021-09-21,Ａｒｔ　Ｓａｌｖａｇｅ株式会社,,株式会社,東京都,千代田区,飯田橋２丁目９番４号,,13,101,1020072,,,,,,,2021-09-21,1,,,,,アートサルベージ,0
1612,7010001221216,新規,0,2021-09-21,2021-09-21,株式会社ＩｎｖｅｓｔｏｒｓＨＵＢ,,株式会社,東京都,中央区,日本橋３丁目６番２号日本橋フロント１Ｆ,,13,102,1030027,,,,,,,2021-09-21,1,,,,,インベスターズハブ,0
1613,7010001221257,新規,0,2021-09-21,2021-09-21,株式会社リソシア,,株式会社,東京都,中央区,新川２丁目２０番８号八丁堀スクエア１Ｆ,,13,102,1040033,,,,,,,2021-09-21,1,,,,,リソシア,0
1623,7010401162786,新規,0,2021-09-21,2021-09-21,株式会社ＩＤＲホールディングス,,株式会社,東京都,港区,北青山２丁目１０番２８号,,13,103,1070061,,,,,,,2021-09-21,1,,,,,アイディーアール,0
1626,7010403026122,新規,0,2021-09-21,2021-09-21,ラジャン合同会社,,合同会社,東京都,港区,海岸２丁目５－１,,13,103,1050022,,,,,,,2021-09-21,1,,,,,ラジャン,0
1627,7010403026163,新規,0,2021-09-21,2021-09-21,合同会社トライビジョン,,合同会社,東京都,港区,六本木３丁目４番２号,,13,103,1060032,,,,,,,2021-09-21,1,,,,,トライビジョン,0
1629,7010405020239,新規,0,2021-09-21,2021-09-21,ジェイ・オー・アイ一般社団法人,,その他の設立登記法人,東京都,港区,六本木１丁目６番１号泉ガーデンタワー,,13,103,1060032,,,,,,,2021-09-21,1,,,,,ジェイオーアイ,0
1632,7010701041509,新規,0,2021-09-21,2021-09-21,株式会社Ｇｒｏｏｖｅ,,株式会社,東京都,品川区,大崎４丁目２番５３号,,13,109,1410032,,,,,,,2021-09-21,1,,,,,グルーヴ,0
1634,7010703005949,新規,0,2021-09-21,2021-09-21,合同会社ひまり,,合同会社,東京都,品川区,北品川２丁目５番３号,,13,109,1400001,,,,,,,2021-09-21,1,,,,,ヒマリ,0
1636,7010903006813,新規,0,2021-09-21,2021-09-21,グレノーキー合同会社,,合同会社,東京都,世田谷区,中町１丁目１７番１１号レシポルトＣ,,13,112,1580091,,,,,,,2021-09-21,1,,,,,グレノーキー,0
1641,7011001142880,新規,0,2021-09-21,2021-09-21,株式会社ＤＥＳＴＩＮＯ,,株式会社,東京都,渋谷区,恵比寿２丁目２８番１０号ＳｈｕＢＬＤＧ２９５２,,13,113,1500013,,,,,,,2021-09-21,1,,,,,デスティーノ,0
1642,7011001142906,新規,0,2021-09-21,2021-09-21,株式会社ＩＺＷアンドカンパニー,,株式会社,東京都,目黒区,三田２丁目１０番４０号,,13,110,1530062,,,,,,,2021-09-21,1,,,,,アイズィーダブリューアンドカンパニー,0
1643,7011001142930,新規,0,2021-09-21,2021-09-21,株式会社スタジオジブン,,株式会社,東京都,目黒区,大橋１丁目５番１号,,13,110,1530044,,,,,,,2021-09-21,1,,,,,スタジオジブン,0
1644,7011003013386,新規,0,2021-09-21,2021-09-21,ＣＣＣ＆Ｃ合同会社,,合同会社,東京都,渋谷区,桜丘町２３－１７シティーコート桜丘内,,13,113,1500031,,,,,,,2021-09-21,1,,,,,シーシーシーアンドシー,0
1653,7011101096309,新規,0,2021-09-21,2021-09-21,株式会社こぐま不動産,,株式会社,東京都,新宿区,内藤町１番地６４ディアナコート御苑内藤町８０３,,13,104,1600014,,,,,,,2021-09-21,1,,,,,コグマフドウサン,0
1654,7011101096325,新規,0,2021-09-21,2021-09-21,株式会社エネマッチ,,株式会社,東京都,新宿区,西新宿８丁目１４番２４号,,13,104,1600023,,,,,,,2021-09-21,1,,,,,エネマッチ,0
1655,7011105009984,新規,0,2021-09-21,2021-09-21,一般社団法人Ｎｅｘｔ　Ｇｅｎｅｒａｔｉｏｎｓ　Ａｃｔｉｏｎ,,その他の設立登記法人,東京都,新宿区,新宿５丁目１０番１号第２スカイビル７０２,,13,104,1600022,,,,,,,2021-09-21,1,,,,,ネクストジェネレイションズアクション,0
1656,7011203003641,新規,0,2021-09-21,2021-09-21,合同会社キース・コンサルティング,,合同会社,東京都,中野区,本町２丁目３６番１５号,,13,114,1640012,,,,,,,2021-09-21,1,,,,,キースコンサルティング,0
1657,7011303004168,新規,0,2021-09-21,2021-09-21,Ｐｒｏｚｅｃｏ　Ｔｅｃｈｎｏｌｏｇｉｅｓ合同会社,,合同会社,東京都,杉並区,阿佐谷南１丁目３４番６号,,13,115,1660004,,,,,,,2021-09-21,1,,,,,プロゼコテクノロジーズ,0
1658,7011303004176,新規,0,2021-09-21,2021-09-21,ＤＩＢＩ　ＩＮＴＥＲＮＡＴＩＯＮＡＬ合同会社,,合同会社,東京都,杉並区,荻窪２丁目２７番９－１号,,13,115,1670051,,,,,,,2021-09-21,1,,,,,ディビィインターナショナル,0
1660,7011401023680,新規,0,2021-09-21,2021-09-21,イズミ株式会社,,株式会社,東京都,板橋区,幸町４５番７－６０９号,,13,119,1730034,,,,,,,2021-09-21,1,,,,,イズミ,0
1667,7011803004782,新規,0,2021-09-21,2021-09-21,合同会社ＨＩＳＡｃｏｒｐｏｒａｔｉｏｎ,,合同会社,東京都,葛飾区,立石７丁目２番５号,,13,122,1240012,,,,,,,2021-09-21,1,,,,,ヒサコーポレーション,0
1669,7012701016671,新規,0,2021-09-21,2021-09-21,忠実建設工業株式会社,,株式会社,東京都,西東京市,ひばりが丘北３丁目６番２１号,,13,229,2020002,,,,,,,2021-09-21,1,,,,,チュウジツケンセツコウギョウ,0
1690,7020001143062,新規,0,2021-09-21,2021-09-21,株式会社ゴールデンステップ,,株式会社,神奈川県,横浜市旭区,二俣川１丁目１２番地４アルエットパレ１０１号,,14,112,2410821,,,,,,,2021-09-21,1,,,,,ゴールデンステップ,0
1691,7020001143070,新規,0,2021-09-21,2021-09-21,株式会社Ｃｒｅａｔｏｒ,,株式会社,神奈川県,川崎市宮前区,南野川３丁目３５番２６号,,14,136,2160042,,,,,,,2021-09-21,1,,,,,クリエーター,0
1692,7020001143087,新規,0,2021-09-21,2021-09-21,株式会社狩野建築,,株式会社,神奈川県,川崎市麻生区,東百合丘１丁目３４番２８号,,14,137,2150012,,,,,,,2021-09-21,1,,,,,カノウケンチク,0
1693,7020001143104,新規,0,2021-09-21,2021-09-21,株式会社アマネプロ,,株式会社,神奈川県,横浜市中区,元町１丁目３７番地４てるのビル,,14,104,2310861,,,,,,,2021-09-21,1,,,,,アマネプロ,0
1700,7021003010903,新規,0,2021-09-21,2021-09-21,８ＤＡＹＳパートナーズ合同会社,,合同会社,神奈川県,海老名市,扇町５番７号,,14,215,2430436,,,,,,,2021-09-21,1,,,,,エイトデイズパートナーズ,0
1701,7021003010911,新規,0,2021-09-21,2021-09-21,合同会社Ｏｆｆｉｃｅ　Ｈ,,合同会社,神奈川県,小田原市,前川６８４番地の１８,,14,206,2560813,,,,,,,2021-09-21,1,,,,,オフィスエイチ,0
1705,7030001144398,新規,0,2021-09-21,2021-09-21,株式会社ＫＨＡＲＥＬ,,株式会社,埼玉県,さいたま市見沼区,大字南中野４６０番地２－２Ｆ,,11,104,3370042,,,,,,,2021-09-21,1,,,,,カレル,0
1706,7030001144407,新規,0,2021-09-21,2021-09-21,株式会社ＬｕｐｉｎｕｓＴｈｙｍｅ,,株式会社,埼玉県,三郷市,早稲田３丁目３－２－３０５,,11,237,3410018,,,,,,,2021-09-21,1,,,,,ルピナスタイム,0
1715,7040001120233,新規,0,2021-09-21,2021-09-21,株式会社木ごこち工務店,,株式会社,千葉県,柏市,増尾台４丁目１４番１７号,,12,217,2770052,,,,,,,2021-09-21,1,,,,,キゴコチコウムテン,0
1716,7040001120241,新規,0,2021-09-21,2021-09-21,丸美株式会社,,株式会社,千葉県,船橋市,西習志野３丁目１０番１３号,,12,204,2740815,,,,,,,2021-09-21,1,,,,,マルミ,0
1718,7040003018525,新規,0,2021-09-21,2021-09-21,レナトス合同会社,,合同会社,千葉県,習志野市,秋津４丁目２番１１号,,12,216,2750025,,,,,,,2021-09-21,1,,,,,レナトス,0
1719,7040003018533,新規,0,2021-09-21,2021-09-21,関口商店合同会社,,合同会社,千葉県,四街道市,大日２２１４番地９,,12,228,2840001,,,,,,,2021-09-21,1,,,,,,0
1735,7080001024447,新規,0,2021-09-21,2021-09-21,株式会社イーワークスエージェンシー,,株式会社,静岡県,藤枝市,青木３丁目１４番１号,,22,214,4260037,,,,,,,2021-09-21,1,,,,,イーワークスエージェンシー,0
1740,7100003006234,新規,0,2021-09-21,2021-09-21,合同会社Ｔｈｗ．,,合同会社,長野県,茅野市,宮川２８０６番地３,,20,214,3910013,,,,,,,2021-09-21,1,,,,,ティーエイチダブリュー,0
1750,7120001240452,新規,0,2021-09-21,2021-09-21,川添電気工事株式会社,,株式会社,大阪府,門真市,上島町６番１２号,,27,223,5710071,,,,,,,2021-09-21,1,,,,,カワゾエデンキコウジ,0
1751,7120001240502,新規,0,2021-09-21,2021-09-21,株式会社ファーストエージェンシー,,株式会社,大阪府,大阪市中央区,玉造２丁目３番１８号２Ｆ,,27,128,5400004,,,,,,,2021-09-21,1,,,,,ファーストエージェンシー,0
1757,7120101064322,新規,0,2021-09-21,2021-09-21,株式会社ジャパンホームズ,,株式会社,大阪府,堺市堺区,材木町西２丁１番１５号,,27,141,5900941,,,,,,,2021-09-21,1,,,,,ジャパンホームズ,0
1761,7120901044911,新規,0,2021-09-21,2021-09-21,株式会社ＷＡＶＹ,,株式会社,大阪府,摂津市,新在家２丁目３１番１８号１階,,27,224,5660055,,,,,,,2021-09-21,1,,,,,ウェービー,0
1764,7130003007493,新規,0,2021-09-21,2021-09-21,合同会社千代商会,,合同会社,京都府,京都市東山区,大黒町通柿町下る大黒町３０２番地１６,,26,105,6050832,,,,,,,2021-09-21,1,,,,,チシロショウカイ,0
1772,7140001123085,新規,0,2021-09-21,2021-09-21,株式会社ＡＳＡＮＴＥ,,株式会社,兵庫県,西宮市,今津社前町１番２０－１ＣＤＥ号,,28,204,6638229,,,,,,,2021-09-21,1,,,,,アサンテ,0
1773,7140001123135,新規,0,2021-09-21,2021-09-21,ＴＥＲＡＮＡ株式会社,,株式会社,兵庫県,たつの市,神岡町田中９８８番地１,,28,229,6794113,,,,,,,2021-09-21,1,,,,,テラナ,0
1776,7150003002492,新規,0,2021-09-21,2021-09-21,合同会社ならくじら,,合同会社,奈良県,橿原市,縄手町３７７番地の１４,,29,205,6340073,,,,,,,2021-09-21,1,,,,,ナラクジラ,0
1784,7180001147857,新規,0,2021-09-21,2021-09-21,株式会社クリベテック,,株式会社,愛知県,名古屋市天白区,梅が丘５丁目２１０３番地の４,,23,116,4680004,,,,,,,2021-09-21,1,,,,,クリベテック,0
1785,7180001147873,新規,0,2021-09-21,2021-09-21,株式会社ミライエ,,株式会社,愛知県,名古屋市南区,城下町３丁目２６番地,,23,112,4570047,,,,,,,2021-09-21,1,,,,,ミライエ,0
1786,7180001147898,新規,0,2021-09-21,2021-09-21,福島エンジニアリング株式会社,,株式会社,愛知県,豊明市,新田町前原１番地ナビライフ豊明マンションⅡ番館Ｄ棟２１６号,00124286,23,229,4701115,,,,,,,2021-09-21,1,,,,,フクシマエンジニアリング,0
1789,7180003022967,新規,0,2021-09-21,2021-09-21,合同会社カイゼンバンク,,合同会社,愛知県,名古屋市昭和区,山中町１丁目４１番地ベレオ山中２　１０１号室,,23,107,4660828,,,,,,,2021-09-21,1,,,,,カイゼンバンク,0
1790,7180005019441,新規,0,2021-09-21,2021-09-21,特定非営利活動法人スターアカデミー,,その他の設立登記法人,愛知県,豊明市,栄町新左山２０,,23,229,4701161,,,,,,,2021-09-21,1,,,,,スターアカデミー,0
1792,7190001028692,新規,0,2021-09-21,2021-09-21,株式会社グリーン橋本,,株式会社,三重県,四日市市,日永３丁目２番３６号,,24,202,5100885,,,,,,,2021-09-21,1,,,,,グリーンハシモト,0
1798,7220001024432,新規,0,2021-09-21,2021-09-21,株式会社ジラソル,,株式会社,石川県,金沢市,駅西本町６丁目９‐１８,,17,201,9200025,,,,,,,2021-09-21,1,,,,,ジラソル,0
1806,7240001058619,新規,0,2021-09-21,2021-09-21,株式会社Ｍ．Ｋ．Ｄ,,株式会社,広島県,東広島市,西条七丁目３番１４－１０２号,,34,212,7390000,,,,,,,2021-09-21,1,,,,,エムケーディー,0
1808,7240005015277,新規,0,2021-09-21,2021-09-21,一般社団法人結の塔,,その他の設立登記法人,広島県,府中市,栗柄町８８３番地４,,34,208,7260023,,,,,,,2021-09-21,1,,,,,ユイノトウ,0
1811,7250001019140,新規,0,2021-09-21,2021-09-21,株式会社植剛,,株式会社,山口県,下関市,豊浦町大字吉永１３９６番地４,,35,201,7596311,,,,,,,2021-09-21,1,,,,,ウエゴウ,0
1817,7260001035970,新規,0,2021-09-21,2021-09-21,株式会社クリーンライフ,,株式会社,岡山県,岡山市北区,奥田南町７番１０号ニューシティ奥田Ｂ号棟１０３号室,,33,101,7000934,,,,,,,2021-09-21,1,,,,,クリーンライフ,0
1824,7290001094700,新規,0,2021-09-21,2021-09-21,株式会社ＯＭクリエイト,,株式会社,福岡県,宗像市,赤間駅前１丁目９番１３号,,40,220,8114185,,,,,,,2021-09-21,1,,,,,オーエムクリエイト,0
1827,7290003011604,新規,0,2021-09-21,2021-09-21,合同会社ニュートラル,,合同会社,福岡県,福岡市西区,石丸１丁目２５番２７号トピア姪浜２０３号,,40,135,8190025,,,,,,,2021-09-21,1,,,,,ニュートラル,0
1828,7290003011629,新規,0,2021-09-21,2021-09-21,ＱＴ合同会社,,合同会社,福岡県,古賀市,花鶴丘１丁目７－１２花鶴丘ビル２０３,,40,223,8113104,,,,,,,2021-09-21,1,,,,,キューティー,0
1839,7350001017316,新規,0,2021-09-21,2021-09-21,株式会社龍友興産,,株式会社,宮崎県,宮崎市,松山１丁目８番８号,,45,201,8800865,,,,,,,2021-09-21,1,,,,,リュウトコウサン,0
1840,7350005006026,新規,0,2021-09-21,2021-09-21,医療法人えむ,,その他の設立登記法人,宮崎県,宮崎市,大淀４丁目６番２８号,,45,201,8800902,,,,,,,2021-09-21,1,,,,,エム,0
1843,7370001047617,新規,0,2021-09-21,2021-09-21,株式会社宮城児童福祉サービス,,株式会社,宮城県,富谷市,富ケ丘１丁目２７番２０号１階エスコートタウン富谷Ｅ,,04,216,9813352,,,,,,,2021-09-21,1,,,,,ミヤギジドウフクシサービス,0
1860,7420001017589,新規,0,2021-09-21,2021-09-21,伸栄工業株式会社,,株式会社,青森県,つがる市,下牛潟町靏舞岬３４番地,00124285,02,209,0383306,,,,,,,2021-09-21,1,,,,,シンエイコウギョウ,0
1867,7430001084991,新規,0,2021-09-21,2021-09-21,株式会社Ｆｉｔ・Ｃｏｎｎｅｃｔｉｏｎ,,株式会社,北海道,北広島市,美咲き野３丁目６番地１６,,01,234,0611115,,,,,,,2021-09-21,1,,,,,フィットコネクション,0
1869,7470001018715,新規,0,2021-09-21,2021-09-21,ヘキサゴン株式会社,,株式会社,香川県,高松市,太田下町１６４５番地５,,37,201,7618073,,,,,,,2021-09-21,1,,,,,ヘキサゴン,0
1870,7470005006385,新規,0,2021-09-21,2021-09-21,一般社団法人つなぎまいＹＯ,,その他の設立登記法人,香川県,高松市,牟礼町牟礼２０８３番地１株式会社ＱＯＬビル２０２号室,,37,201,7610121,,,,,,,2021-09-21,1,,,,,ツナギマイヨ,0
1877,7700150104795,新規,0,2021-09-21,2021-09-21,Ｍａｒａｔｈｏｎ　Ａｓｓｅｔ　Ｍａｎａｇｅｍｅｎｔ　Ｊａｐａｎ,,外国会社等,東京都,千代田区,大手町１丁目５－１大手町ファーストスクエアイーストタワー４階,,13,101,1000004,グランド・ケイマン，ネクサス・ウエイ８９，カマーナ・ベイ２階,,,,,,2021-09-21,1,,,,,マラソンアセツトマネージメントジヤパン,0
1878,7700150104845,新規,0,2021-09-21,2021-09-21,サカイ引越センター健康保険組合,,その他,大阪府,堺市堺区,石津北町５６,,27,141,5900823,,,,,,,2021-09-21,1,,,,,サカイヒツコシセンターケンコウホケンクミアイ,0
1887,8010001221248,新規,0,2021-09-21,2021-09-21,株式会社ＬＳＢ,,株式会社,東京都,中央区,銀座４丁目１０番１４号ＡＣＮ銀座４ビルディング７Ｆ,,13,102,1040061,,,,,,,2021-09-21,1,,,,,エルエスビー,0
1888,8010001221264,新規,0,2021-09-21,2021-09-21,株式会社グリエイト,,株式会社,東京都,中央区,日本橋小伝馬町１７番１４号日本橋Ｓ＆Ｓビル３階Ｂ,,13,102,1030001,,,,,,,2021-09-21,1,,,,,グリエイト,0
1899,8010403026162,新規,0,2021-09-21,2021-09-21,合同会社ＡＬＬＢＲＡＮＤ,,合同会社,東京都,港区,六本木３丁目７－１,,13,103,1060032,,,,,,,2021-09-21,1,,,,,オールブランド,0
1907,8010603009165,新規,0,2021-09-21,2021-09-21,ムーンリサーチ合同会社,,合同会社,東京都,墨田区,向島５丁目２０番４－２０１号,,13,107,1310033,,,,,,,2021-09-21,1,,,,,ムーンリサーチ,0
1908,8010701041549,新規,0,2021-09-21,2021-09-21,株式会社ブイモア,,株式会社,東京都,品川区,南品川４丁目４番１７号品川サウスタワー,,13,109,1400004,,,,,,,2021-09-21,1,,,,,ブイモア,0
1918,8010901049482,新規,0,2021-09-21,2021-09-21,株式会社Ｔｏｋｙｏ　Ｍａｔｔｏ,,株式会社,東京都,世田谷区,弦巻４丁目１１番４号,,13,112,1540016,,,,,,,2021-09-21,1,,,,,トウキョウマット,0
1920,8010903006812,新規,0,2021-09-21,2021-09-21,合同会社サーキュラス,,合同会社,東京都,世田谷区,南烏山６丁目２０番１４号,,13,112,1570062,,,,,,,2021-09-21,1,,,,,サーキュラス,0
1928,8011001142855,新規,0,2021-09-21,2021-09-21,株式会社ばんそう,,株式会社,東京都,渋谷区,神宮前５丁目４７番１１号,,13,113,1500001,,,,,,,2021-09-21,1,,,,,バンソウ,0
1931,8011003013393,新規,0,2021-09-21,2021-09-21,Ｒ２Ｈ合同会社,,合同会社,東京都,渋谷区,富ヶ谷２丁目１９番６－４０３号ヴィーナパーク富ヶ谷,,13,113,1510063,,,,,,,2021-09-21,1,,,,,アールツーエイチ,0
1932,8011003013402,新規,0,2021-09-21,2021-09-21,合同会社Ｇａｉｎ　Ｍａｋｅｒ,,合同会社,東京都,目黒区,目黒１丁目４番１６号,,13,110,1530063,,,,,,,2021-09-21,1,,,,,ゲインメーカー,0
1957,8020001143061,新規,0,2021-09-21,2021-09-21,君臨フェリアーツ株式会社,,株式会社,神奈川県,川崎市幸区,戸手４丁目１０番２－７０３号,,14,132,2120005,,,,,,,2021-09-21,1,,,,,クンリンフェリアーツ,0
1958,8020001143078,新規,0,2021-09-21,2021-09-21,株式会社Ｄ－ＳＨＩＰ,,株式会社,神奈川県,川崎市幸区,幸町２丁目５９３番地,,14,132,2120011,,,,,,,2021-09-21,1,,,,,ディーシップ,0
1965,8021001073991,新規,0,2021-09-21,2021-09-21,株式会社東環,,株式会社,神奈川県,鎌倉市,手広２丁目４０番５号,,14,204,2480036,,,,,,,2021-09-21,1,,,,,トウカン,0
1966,8021001074008,新規,0,2021-09-21,2021-09-21,株式会社ＲＥＬＩＦＥ,,株式会社,神奈川県,厚木市,三田１９８９－１０,,14,212,2430211,,,,,,,2021-09-21,1,,,,,リライフ,0
1969,8021003010910,新規,0,2021-09-21,2021-09-21,合同会社アプリビ,,合同会社,神奈川県,藤沢市,藤沢６８７番地の１藤沢マンション２０３号,,14,205,2510052,,,,,,,2021-09-21,1,,,,,アプリビ,0
1976,8030001144372,新規,0,2021-09-21,2021-09-21,久水工務店株式会社,,株式会社,埼玉県,戸田市,下戸田１丁目４－３サンリットドミール１－３０１,,11,224,3350011,,,,,,,2021-09-21,1,,,,,ヒサミズコウムテン,0
1977,8030001144414,新規,0,2021-09-21,2021-09-21,株式会社リーテック,,株式会社,埼玉県,ふじみ野市,苗間３３５番地１カーサカスターニャＣ１０６,,11,245,3560052,,,,,,,2021-09-21,1,,,,,リーテック,0
1978,8030001144430,新規,0,2021-09-21,2021-09-21,株式会社ダイヤエステート,,株式会社,埼玉県,さいたま市北区,土呂町４０９番地１,,11,102,3310804,,,,,,,2021-09-21,1,,,,,ダイヤエステート,0
1979,8030001144463,新規,0,2021-09-21,2021-09-21,株式会社ＴＳコーポレーション,,株式会社,埼玉県,所沢市,東町１３番１号,,11,208,3591116,,,,,,,2021-09-21,1,,,,,ティーエスコーポレーション,0
1983,8030003017931,新規,0,2021-09-21,2021-09-21,合同会社トライデント,,合同会社,埼玉県,川口市,大字安行原２１３番地の４河島ビル３階,,11,203,3340057,,,,,,,2021-09-21,1,,,,,トライデント,0
1984,8030003017964,新規,0,2021-09-21,2021-09-21,ＮｉｃｅＪ合同会社,,合同会社,埼玉県,さいたま市緑区,大字中尾２１８０－１,,11,109,3360932,,,,,,,2021-09-21,1,,,,,ナイスジェイ,0
1995,8060001034109,新規,0,2021-09-21,2021-09-21,農地所有適格法人株式会社江戸ワンダーファーム,,株式会社,栃木県,日光市,柄倉４７０番地２,,09,206,3212524,,,,,,,2021-09-21,1,,,,,エドワンダーファーム,0
1997,8060003003805,新規,0,2021-09-21,2021-09-21,合同会社宇塚鑑定事務所,,合同会社,栃木県,栃木市,大町２４－１６アライハイツ１０５,,09,203,3280071,,,,,,,2021-09-21,1,,,,,ウヅカカンテイジムショ,0
2005,8100001034616,新規,0,2021-09-21,2021-09-21,Ｔ＆Ｄ　ｉｎｔｅｇｒａｔｅｄ株式会社,,株式会社,長野県,上田市,真田町本原２２６９番地３,,20,203,3862202,,,,,,,2021-09-21,1,,,,,ティーアンドディーインティグレイテッド,0
2023,8120003020249,新規,0,2021-09-21,2021-09-21,合同会社ＸＹＺ,,合同会社,大阪府,大阪市北区,中之島６丁目１番３８号１８１８号室,,27,127,5300005,,,,,,,2021-09-21,1,,,,,エックスワイズィ,0
2024,8120003020265,新規,0,2021-09-21,2021-09-21,合同会社ＮＫＭＭ,,合同会社,大阪府,大阪市城東区,中央２丁目１４番Ｃ－２９０２号,,27,118,5360005,,,,,,,2021-09-21,1,,,,,エヌケイエムエム,0
2025,8120003020281,新規,0,2021-09-21,2021-09-21,合同会社ＲＩＥＭＯＮ,,合同会社,大阪府,門真市,元町２４番２号,,27,223,5710057,,,,,,,2021-09-21,1,,,,,リエモン,0
2029,8120901044910,新規,0,2021-09-21,2021-09-21,株式会社Ｔｈｅ　ＷＯＲＬＤ,,株式会社,大阪府,豊中市,東寺内町１１番４３号１０１号室,,27,203,5610871,,,,,,,2021-09-21,1,,,,,ザワールド,0
2031,8122001035179,新規,0,2021-09-21,2021-09-21,株式会社トリウェル,,株式会社,大阪府,東大阪市,中石切町２丁目８番９号,,27,227,5798014,,,,,,,2021-09-21,1,,,,,トリウェル,0
2050,8180001147889,新規,0,2021-09-21,2021-09-21,株式会社ＢＯＲ,,株式会社,愛知県,春日井市,六軒屋町１丁目１７２番地,,23,206,4860842,,,,,,,2021-09-21,1,,,,,ビーオーアール,0
2058,8180301035389,新規,0,2021-09-21,2021-09-21,Ｔ＆Ｍｇｒｏｕｐ株式会社,,株式会社,愛知県,高浜市,神明町７丁目１３番地２１,,23,227,4441305,,,,,,,2021-09-21,1,,,,,ティーアンドエムグループ,0
2062,8190001028691,新規,0,2021-09-21,2021-09-21,トレス株式会社,,株式会社,三重県,四日市市,西町３番８－２号,,24,202,5100089,,,,,,,2021-09-21,1,,,,,トレス,0
2065,8200001039150,新規,0,2021-09-21,2021-09-21,株式会社ブラガス,,株式会社,岐阜県,関市,肥田瀬３０４９番地１,,21,205,5013911,,,,,,,2021-09-21,1,,,,,ブラガス,0
2066,8200001039159,新規,0,2021-09-21,2021-09-21,株式会社Ｓ・Ｋ,,株式会社,岐阜県,岐阜市,加納徳川町１６番地,,21,201,5008416,,,,,,,2021-09-21,1,,,,,エスケー,0
2069,8200005013250,新規,0,2021-09-21,2021-09-21,一般社団法人キッズベース,,その他の設立登記法人,岐阜県,岐阜市,鍵屋西町２丁目５６番地４,,21,201,5008314,,,,,,,2021-09-21,1,,,,,キッズベース,0
2084,8240001058626,新規,0,2021-09-21,2021-09-21,株式会社Ｋ＆Ｍ,,株式会社,広島県,広島市東区,牛田南１丁目９番２５号,,34,102,7320064,,,,,,,2021-09-21,1,,,,,ケイアンドエム,0
2086,8240005015276,新規,0,2021-09-21,2021-09-21,一般財団法人皆実有朋会奨学財団,,その他の設立登記法人,広島県,広島市南区,出汐２丁目４番７６号広島県立広島皆実高等学校内,,34,103,7340001,,,,,,,2021-09-21,1,,,,,ミナミユウホウカイショウガクザイダン,0
2088,8260003003677,新規,0,2021-09-21,2021-09-21,合同会社Ｇｏｏｄｔｉｍｅ,,合同会社,岡山県,岡山市北区,撫川１４２６番地１,,33,101,7010164,,,,,,,2021-09-21,1,,,,,グッドタイム,0
2093,8290001094699,新規,0,2021-09-21,2021-09-21,株式会社クオリティーＦｏｏｄｓ,,株式会社,福岡県,久留米市,津福今町４５９－１５,,40,203,8300061,,,,,,,2021-09-21,1,,,,,クオリティーフーズ,0
2094,8290001094716,新規,0,2021-09-21,2021-09-21,株式会社クリテック,,株式会社,福岡県,福岡市東区,若宮５丁目２番１号新井ビル２０３号,,40,131,8130036,,,,,,,2021-09-21,1,,,,,クリテック,0
2105,8360005006511,新規,0,2021-09-21,2021-09-21,社会福祉法人満福祉会,,その他の設立登記法人,沖縄県,豊見城市,字上田４３９番地,,47,212,9010243,,,,,,,2021-09-21,1,,,,,ミチルフクシカイ,0
2107,8370001047608,新規,0,2021-09-21,2021-09-21,ザ・エレテック株式会社,,株式会社,宮城県,大崎市,田尻沼部字八幡崎３９番地１,,04,215,9894308,,,,,,,2021-09-21,1,,,,,ザエレテック,0
2117,8410003003570,新規,0,2021-09-21,2021-09-21,合同会社土田建設,,合同会社,秋田県,秋田市,山手台３丁目１３番地１,,05,201,0101429,,,,,,,2021-09-21,1,,,,,ツチダケンセツ,0
2120,8430001084990,新規,0,2021-09-21,2021-09-21,株式会社みつか,,株式会社,北海道,札幌市中央区,南四条西１３丁目３番５－１０７号,,01,101,0640804,,,,,,,2021-09-21,1,,,,,ミツカ,0
2121,8430001084999,新規,0,2021-09-21,2021-09-21,株式会社エムスリーマネジメント,,株式会社,北海道,札幌市北区,新琴似十二条１丁目１番３３号ＡＭＥＸビル３０２,,01,102,0010912,,,,,,,2021-09-21,1,,,,,エムスリーマネジメント,0
2123,8430003013171,新規,0,2021-09-21,2021-09-21,Ｔｒａｖｅｒｓｅ　Ａｓｉａ合同会社,,合同会社,北海道,苫小牧市,有珠の沢町１丁目１３番８号,,01,213,0530842,,,,,,,2021-09-21,1,,,,,トラバースアジア,0
2132,8700150104794,新規,0,2021-09-21,2021-09-21,ＩＣＭＧ　Ｐａｒｔｎｅｒｓ　Ｐｔｅ．ＬＴＤ．,,外国会社等,東京都,千代田区,丸の内２丁目１番１号明治安田生命ビル１１階,,13,101,1000005,６　Ｔｅｍｅｓｅｋ　Ｂｏｕｌｅｒａｒｄ　＃４２－０２　Ｓｕｎｔｅｃ　Ｔｏｗｅｒ　Ｆｏｕｒ，Ｓｉｎｇａｐｏｒｅ,,,,,,2021-09-21,1,,,,,アイシーエムジーパートナーズ,0
2145,9010001221197,新規,0,2021-09-21,2021-09-21,株式会社ＧＬＯＢＡＬ　ＡＳＴＲＡ,,株式会社,東京都,中央区,銀座１丁目１２－４Ｎ＆Ｅ・ＢＬＤ．７階,,13,102,1040061,,,,,,,2021-09-21,1,,,,,グローバルアストラ,0
2146,9010001221271,新規,0,2021-09-21,2021-09-21,株式会社ＩＲＩＳＥＲ,,株式会社,東京都,千代田区,神田紺屋町４６番地風月堂ビル,,13,101,1010035,,,,,,,2021-09-21,1,,,,,イリゼ,0
2150,9010003035851,新規,0,2021-09-21,2021-09-21,合同会社リリーホワイト,,合同会社,東京都,千代田区,岩本町３丁目４番１１号ＶＡＩＮＱＵＥＵＲｉｗａｍｏｔｏｃｈｏ９０２号,,13,101,1010032,,,,,,,2021-09-21,1,,,,,リリーホワイト,0
2151,9010005033985,新規,0,2021-09-21,2021-09-21,ＮＰＯ法人八丈島移住定住促進協議会,,その他の設立登記法人,東京都,八丈島八丈町,三根４９０６番地３,,13,401,1001511,,,,,,,2021-09-21,1,,,,,ハチジョウジマイジュウテイジュウソクシンキョウギカイ,0
2152,9010101014872,新規,0,2021-09-21,2021-09-21,株式会社ＴＩＣ,,株式会社,東京都,八王子市,明神町１丁目２５－９柿澤ビル４０１号,,13,201,1920046,,,,,,,2021-09-21,1,,,,,,0
2161,9010401162801,新規,0,2021-09-21,2021-09-21,ｃａｎａｕ株式会社,,株式会社,東京都,港区,麻布十番３丁目１番１－９０５号,,13,103,1060045,,,,,,,2021-09-21,1,,,,,カナウ,0
2164,9010603009164,新規,0,2021-09-21,2021-09-21,マルハチメディカル合同会社,,合同会社,東京都,江東区,塩浜２丁目５番１２－６１２号,,13,108,1350043,,,,,,,2021-09-21,1,,,,,マルハチメディカル,0
2165,9010605003999,新規,0,2021-09-21,2021-09-21,一般社団法人ＳＡＭＵＲＡＩ　Ｄｅｎｔａｌ　Ａｃａｄｅｍｙ,,その他の設立登記法人,東京都,江東区,東陽３丁目５番９号フォレストコート木場１Ｆ,,13,108,1350016,,,,,,,2021-09-21,1,,,,,サムライデンタルアカデミー,0
2166,9010703005947,新規,0,2021-09-21,2021-09-21,合同会社Ｓ－ＮＥＴ,,合同会社,東京都,品川区,西品川１丁目２番１号大崎ガーデンレジデンス１１１５号室,,13,109,1410033,,,,,,,2021-09-21,1,,,,,エスネット,0
2170,9010903006811,新規,0,2021-09-21,2021-09-21,合同会社大千,,合同会社,東京都,世田谷区,玉川３丁目２０番２号マノア玉川第３ビル５０１号室,,13,112,1580094,,,,,,,2021-09-21,1,,,,,ダイセン,0
2171,9010905004210,新規,0,2021-09-21,2021-09-21,一般社団法人日本メキシコ料理協会,,その他の設立登記法人,東京都,世田谷区,代田１丁目４０番１号,,13,112,1550033,,,,,,,2021-09-21,1,,,,,ニホンメキシコリョウリキョウカイ,0
2178,9011001142870,新規,0,2021-09-21,2021-09-21,ジオフィスオブ伊勢谷株式会社,,株式会社,東京都,渋谷区,代々木３丁目１１番７号,,13,113,1510053,,,,,,,2021-09-21,1,,,,,ジオフィスオブイセタニ,0
2187,9011401023670,新規,0,2021-09-21,2021-09-21,オフィスＫＣ株式会社,,株式会社,東京都,板橋区,志村３丁目１７番２号３Ｆ,,13,119,1740056,,,,,,,2021-09-21,1,,,,,オフィスケーシー,0
2188,9011401023687,新規,0,2021-09-21,2021-09-21,株式会社須永建築塗装事務所,,株式会社,東京都,板橋区,高島平５丁目５１番１４号友喜コーポ１０３号,,13,119,1750082,,,,,,,2021-09-21,1,,,,,スナガケンチクトソウジムショ,0
2189,9011701024716,新規,0,2021-09-21,2021-09-21,トリプルウィン株式会社,,株式会社,東京都,江戸川区,船堀３丁目５番１－１３０１号,,13,123,1340091,,,,,,,2021-09-21,1,,,,,トリプルウィン,0
2193,9011801039713,新規,0,2021-09-21,2021-09-21,株式会社聖建,,株式会社,東京都,足立区,皿沼１丁目１０番８－５０３号,,13,121,1230862,,,,,,,2021-09-21,1,,,,,セイケン,0
2197,9012803002601,新規,0,2021-09-21,2021-09-21,ＡＣＥ合同会社,,合同会社,東京都,国分寺市,本多１丁目１３番１７号Ｐ・Ｌｉｍｅ２０１,,13,214,1850011,,,,,,,2021-09-21,1,,,,,エース,0
2203,9020001143069,新規,0,2021-09-21,2021-09-21,株式会社中村,,株式会社,神奈川県,横浜市神奈川区,浦島丘３番地４０－６０５,,14,102,2210062,,,,,,,2021-09-21,1,,,,,ナカムラ,0
2204,9020001143085,新規,0,2021-09-21,2021-09-21,株式会社ｋｉｎｄ,,株式会社,神奈川県,横浜市戸塚区,秋葉町４８７番地９４,,14,110,2450052,,,,,,,2021-09-21,1,,,,,カインド,0
2211,9020003020497,新規,0,2021-09-21,2021-09-21,合同会社サウト,,合同会社,神奈川県,横浜市磯子区,広地町２番３６号,,14,107,2350013,,,,,,,2021-09-21,1,,,,,サウト,0
2216,9021003010892,新規,0,2021-09-21,2021-09-21,合同会社ＤＬＡコンサルティング,,合同会社,神奈川県,相模原市緑区,二本松２丁目７番４号,,14,151,2520137,,,,,,,2021-09-21,1,,,,,ディーエルエーコンサルティング,0
2222,9030001144396,新規,0,2021-09-21,2021-09-21,株式会社凰コーポレーション,,株式会社,埼玉県,新座市,東北２丁目１７番１２号コスモプレイス志木１０４,,11,230,3520001,,,,,,,2021-09-21,1,,,,,オウコーポレーション,0
2239,9070001038438,新規,0,2021-09-21,2021-09-21,株式会社流エキスプレス,,株式会社,群馬県,邑楽郡大泉町,丘山１５番Ｄ－１４４号丘山県営住宅団地,,10,524,3700534,,,,,,,2021-09-21,1,,,,,ナガレエキスプレス,0
2240,9080001024453,新規,0,2021-09-21,2021-09-21,アオノミートファクトリー株式会社,,株式会社,静岡県,静岡市葵区,長沼２丁目１１番１２号,,22,101,4200813,,,,,,,2021-09-21,1,,,,,アオノミートファクトリー,0
2241,9080401025349,新規,0,2021-09-21,2021-09-21,株式会社トーワ環境サービス,,株式会社,静岡県,袋井市,久能１８２８番地の８,,22,216,4370061,,,,,,,2021-09-21,1,,,,,トーワカンキョウサービス,0
2242,9080403004367,新規,0,2021-09-21,2021-09-21,マテリアルサービス合同会社,,合同会社,静岡県,周智郡森町,飯田４０５９番地,,22,461,4370222,,,,,,,2021-09-21,1,,,,,マテリアルサービス,0
2244,9090001017200,新規,0,2021-09-21,2021-09-21,株式会社Ｇｒａｎ　Ｓｕｎ,,株式会社,山梨県,富士吉田市,松山１丁目６番３号,,19,202,4030016,,,,,,,2021-09-21,1,,,,,,0
2254,9120001240517,新規,0,2021-09-21,2021-09-21,株式会社ＭＨＯＴ,,株式会社,大阪府,大阪市淀川区,西中島３丁目１０番１２号,,27,123,5320011,,,,,,,2021-09-21,1,,,,,エムホット,0
2255,9120001240525,新規,0,2021-09-21,2021-09-21,株式会社フォースウインズ,,株式会社,大阪府,大阪市西区,靱本町１丁目１４番４号,,27,106,5500004,,,,,,,2021-09-21,1,,,,,フォースウインズ,0
2258,9120003020223,新規,0,2021-09-21,2021-09-21,ＴｒａｎｓＥｄｕ合同会社,,合同会社,大阪府,門真市,常称寺町６－２３,,27,223,5710063,,,,,,,2021-09-21,1,,,,,トランスイーディ,0
2260,9120005022507,新規,0,2021-09-21,2021-09-21,特定非営利活動法人Ｓｕｓｔａｉｎａｂｌｅ　Ａｒｔ　Ｓｏｃｉｅｔｙ,,その他の設立登記法人,大阪府,大阪市中央区,淡路町２丁目４番７－６０４号,,27,128,5410047,,,,,,,2021-09-21,1,,,,,サスティナブルアートソサエティ,0
2264,9120901044918,新規,0,2021-09-21,2021-09-21,株式会社Ａｌｉｆｅ,,株式会社,大阪府,高槻市,塚原１丁目１１番３３号,,27,207,5691046,,,,,,,2021-09-21,1,,,,,アライフ,0
2266,9122001035186,新規,0,2021-09-21,2021-09-21,株式会社Ｍ・Ｑｕａｒｔｅｔ,,株式会社,大阪府,八尾市,龍華町１丁目４番１－２７０５,,27,212,5810069,,,,,,,2021-09-21,1,,,,,エムカルテット,0
2267,9130001070129,新規,0,2021-09-21,2021-09-21,株式会社オリーブ,,株式会社,京都府,向日市,物集女町北ノ口５５－１０,,26,208,6170001,,,,,,,2021-09-21,1,,,,,オリーブ,0
2278,9150003002490,新規,0,2021-09-21,2021-09-21,アスカメンテナンス合同会社,,合同会社,奈良県,桜井市,大字大福４３４番地１２号室,,29,206,6330067,,,,,,,2021-09-21,1,,,,,アスカメンテナンス,0
2286,9180003022965,新規,0,2021-09-21,2021-09-21,合同会社ワイズワン刈谷今川,,合同会社,愛知県,名古屋市中区,栄２丁目３番１号名古屋広小路ビルヂング１７階,,23,106,4600008,,,,,,,2021-09-21,1,,,,,ワイズワンカリヤイマガワ,0
2287,9180003022981,新規,0,2021-09-21,2021-09-21,合同会社ＳＴＵＤＩＯはち,,合同会社,愛知県,名古屋市中区,大須１丁目７番１４号パークＩＭビル２Ｆ,,23,106,4600011,,,,,,,2021-09-21,1,,,,,スタジオハチ,0
2288,9180301035396,新規,0,2021-09-21,2021-09-21,株式会社三縁商事,,株式会社,愛知県,豊橋市,向山町字三ッ塚１３番地４,,23,201,4400864,,,,,,,2021-09-21,1,,,,,サンエンショウジ,0
2300,9240001058633,新規,0,2021-09-21,2021-09-21,株式会社Ｐｉｅｎｏ　ｅａｒｔｈ,,株式会社,広島県,広島市西区,草津南１丁目９番１０号,,34,104,7330863,,,,,,,2021-09-21,1,,,,,ピエノアース,0
2311,9250001019139,新規,0,2021-09-21,2021-09-21,株式会社ユーキプロジェクト,,株式会社,山口県,下関市,長府宮崎町４番１３－２号,,35,201,7520984,,,,,,,2021-09-21,1,,,,,ユーキプロジェクト,0
2312,9260003003676,新規,0,2021-09-21,2021-09-21,合同会社アズマ,,合同会社,岡山県,岡山市南区,福吉町２９番３３号,,33,104,7028048,,,,,,,2021-09-21,1,,,,,アズマ,0
2313,9270001008362,新規,0,2021-09-21,2021-09-21,株式会社大鋼建設,,株式会社,鳥取県,倉吉市,新陽町８番地１,,31,203,6820815,,,,,,,2021-09-21,1,,,,,ダイコウケンセツ,0
2314,9280001008510,新規,0,2021-09-21,2021-09-21,株式会社ａｆｆｅｃｔｉｏｎ,,株式会社,島根県,出雲市,平田町１７０８－１　２Ｆ,,32,203,6910001,,,,,,,2021-09-21,1,,,,,アフェクション,0
2316,9290001094640,新規,0,2021-09-21,2021-09-21,株式会社味ＢＯＭＢＥＲ,,株式会社,福岡県,福岡市博多区,中洲４丁目１番１１号内山ビル１階,,40,132,8100801,,,,,,,2021-09-21,1,,,,,アジボンバー,0
2317,9290001094698,新規,0,2021-09-21,2021-09-21,株式会社メイヴス,,株式会社,福岡県,福岡市早良区,百道浜１丁目３番７０－５５０７号（ザ・レジデンシャルスイート福岡）,,40,137,8140001,,,,,,,2021-09-21,1,,,,,メイヴス,0
2318,9290001094723,新規,0,2021-09-21,2021-09-21,佐藤建設株式会社,,株式会社,福岡県,小郡市,赤川２５８番地,,40,216,8380135,,,,,,,2021-09-21,1,,,,,サトウケンセツ,0
2322,9300001012633,新規,0,2021-09-21,2021-09-21,株式会社ＳＨＧ．ビアントス,,株式会社,佐賀県,鳥栖市,酒井西町７８９番地１,,41,203,8410042,,,,,,,2021-09-21,1,,,,,エスエイチジービアントス,0
2328,9350001017314,新規,0,2021-09-21,2021-09-21,株式会社りあと,,株式会社,宮崎県,宮崎市,希望ケ丘３丁目２４番２５号,,45,201,8800923,,,,,,,2021-09-21,1,,,,,リアト,0
2360,9490001009990,新規,0,2021-09-21,2021-09-21,株式会社日立商事,,株式会社,高知県,高知市,一宮東町１丁目２５番４号,,39,201,7818132,,,,,,,2021-09-21,1,,,,,ヒタチショウジ,0
2363,9700150104793,新規,0,2021-09-21,2021-09-21,ＮＣＳ　Ｐｅａｒｓｏｎ　Ｉｎｃ．,,外国会社等,,,,,,,,５６０１　Ｇｒｅｅｎ　Ｖａｌｌｅｙ　Ｄｒ．Ｂｌｏｏｍｉｎｇｔｏｎ，ＭＮ　５５４３７　ＵＳＡ,,,,,,2021-09-21,1,,,,,エヌシーエスピアソンインク,0
2364,9700150104843,新規,0,2021-09-21,2021-09-21,Ｇｒａｎｄｖｉｅｗ　Ｐｒｏｐｅｒｔｉｅｓ　Ｌｉｍｉｔｅｄ,,外国会社等,,,,,,,,Ｇｒｅｎｖｉｌｌｅ　Ｌａ　Ｇｒａｎｄｅ　Ｒｏｕｔｅ　Ｓａｂｌｏｎｓ　Ｇｒｏｕｖｉｌｌｅ，Ｊｅｒｓｅｙ，Ｃｈａｎｎｅｌ　Ｉｓｌａｎｄｓ　ＪＥ３　９ＦＮ,,,,,,2021-09-21,1,,,,,グランドビユープロパテイーズリミテツド,0
