sequenceNumber,corporateNumber,process,correct,updateDate,changeDate,name,nameImageId,kind,prefectureName,cityName,streetNumber,addressImageId,prefectureCode,cityCode,postCode,addressOutside,addressOutsideImageId,closeDate,closeCause,successorCorporateNumber,changeCause,assignmentDate,latest,enName,enPrefectureName,enCityName,enAddressOutside,furigana,hihyoji
7,1010001092448,登記記録の閉鎖等,0,2024-11-01,2024-10-23,株式会社ジャパン環境セーブ,,株式会社,東京都,中央区,八丁堀２丁目２６番１０号,,13,102,1040032,,,2024-10-23,清算の結了等,,,2015-10-05,1,,,,,ジャパンカンキョウセーブ,0
30,1010403032365,登記記録の閉鎖等,0,2024-11-01,2024-10-16,合同会社鈴商,,合同会社,東京都,港区,芝５丁目２７－３ＭＢＣ－Ａ－５号,,13,103,1080014,,,2024-10-16,清算の結了等,,,2024-04-09,1,,,,,スズショウ,0
62,1011102030346,登記記録の閉鎖等,0,2024-11-01,2024-10-22,有限会社クチュール小林,,有限会社,東京都,新宿区,早稲田鶴巻町５３１番地,,13,104,1620041,,,2024-10-22,清算の結了等,,,2015-10-05,1,,,,,クチュールコバヤシ,0
65,1011202010586,登記記録の閉鎖等,0,2024-11-01,2024-10-31,有限会社アイアンドホワイト,,有限会社,東京都,中野区,南台３丁目２３番３号,,13,114,1640014,,,2024-10-31,清算の結了等,,,2015-10-05,1,,,,,アイアンドホワイト,0
71,1011401007061,登記記録の閉鎖等,0,2024-11-01,2024-10-30,東京鼈甲株式会社,00054846,株式会社,東京都,板橋区,小茂根１丁目１２番１４号,,13,119,1730037,,,2024-10-30,清算の結了等,,,2015-10-05,1,,,,,トウキョウベッコウ,0
77,1011602006028,登記記録の閉鎖等,0,2024-11-01,2024-10-28,有限会社大同住器工業,,有限会社,東京都,練馬区,田柄３丁目３０番２７号,,13,120,1790073,,,2024-10-28,清算の結了等,,,2015-10-05,1,,,,,ダイドウジュウキコウギョウ,0
91,1020001048093,登記記録の閉鎖等,0,2024-11-01,2024-10-17,株式会社トータルヘルスサポート,,株式会社,神奈川県,横浜市泉区,和泉中央南３丁目１０番９号,,14,116,2450023,,,2024-10-17,清算の結了等,,,2015-10-05,1,,,,,トータルヘルスサポート,0
101,1021002022079,登記記録の閉鎖等,0,2024-11-01,2024-10-30,有限会社竹中左官工業,,有限会社,神奈川県,相模原市南区,古淵３丁目２番４号,,14,153,2520344,,,2024-10-30,清算の結了等,,,2015-10-05,1,,,,,タケナカサカンコウギョウ,0
106,1030001096769,登記記録の閉鎖等,0,2024-11-01,2024-10-28,株式会社コモス,,株式会社,東京都,杉並区,堀ノ内１丁目５番５号方南マンション２０１,,13,115,1660013,,,2024-10-28,清算の結了等,,,2015-10-05,1,,,,,,0
113,1030002015001,登記記録の閉鎖等,0,2024-11-01,2024-10-29,有限会社緑豊造園土木,,有限会社,埼玉県,さいたま市西区,大字二ツ宮８３０,,11,101,3310065,,,2024-10-29,清算の結了等,,,2015-10-05,1,,,,,リョクホウゾウエンドボク,0
116,1030003016700,登記記録の閉鎖等,0,2024-11-01,2024-10-28,合同会社ＣｈａｌｌｅｎｇｉｎｇＷｏｒｋｓ,,合同会社,埼玉県,所沢市,大字山口３０８－８,,11,208,3591145,,,2024-10-28,清算の結了等,,,2021-02-19,1,,,,,チャレンジングワークス,0
126,1060001022565,登記記録の閉鎖等,0,2024-11-01,2024-10-23,株式会社Ｃａｒｅ　ｐｏｒｔ,,株式会社,東京都,中央区,銀座１丁目２２番１１号銀座大竹ビジデンス２Ｆ,,13,102,1040061,,,2024-10-23,清算の結了等,,,2015-10-05,1,,,,,ケアポート,0
135,1100001012017,登記記録の閉鎖等,0,2024-11-01,2024-10-24,株式会社オオビケン,,株式会社,長野県,中野市,中央１丁目１２番７号,,20,211,3830022,,,2024-10-24,清算の結了等,,,2015-10-05,1,,,,,オオビケン,0
136,1100001020671,登記記録の閉鎖等,0,2024-11-01,2024-10-24,カネタ竹村建設株式会社,,株式会社,長野県,伊那市,山寺２４８９番地１,,20,209,3960023,,,2024-10-24,清算の結了等,,,2015-10-05,1,,,,,カネタタケムラケンセツ,0
167,1140001108521,登記記録の閉鎖等,0,2024-11-01,2024-10-30,ＲＥＶＵＧＲＯＷ株式会社,,株式会社,兵庫県,揖保郡太子町,吉福２６１番地１０,,28,464,6711544,,,2024-10-30,清算の結了等,,,2017-12-15,1,,,,,レヴグロウ,0
171,1160001013257,登記記録の閉鎖等,0,2024-11-01,2024-10-30,旭真空エンジニアリング株式会社,,株式会社,滋賀県,栗東市,出庭１７０８番地２９,,25,208,5203041,,,2024-10-30,清算の結了等,,,2015-10-05,1,,,,,アサヒシンクウエンジニアリング,0
172,1160005004806,登記記録の閉鎖等,0,2024-11-01,2024-10-30,農事組合法人近江飯ファーム,,その他の設立登記法人,滋賀県,米原市,飯１０４１番地,,25,214,5210063,,,2024-10-30,清算の結了等,,,2015-10-05,1,,,,,オウミイファーム,0
179,1180001114565,登記記録の閉鎖等,0,2024-11-01,2024-10-21,株式会社ピゲット,,株式会社,愛知県,名古屋市中区,栄３丁目１３番１号,,23,106,4600008,,,2024-10-21,清算の結了等,,,2015-10-05,1,,,,,ピゲット,0
189,1180005001297,登記記録の閉鎖等,0,2024-11-01,2024-10-01,天理教愛道分教会,,その他の設立登記法人,愛知県,名古屋市瑞穂区,玉水町２丁目３０番地の２,,23,108,4670046,,,2024-10-01,合併による解散等,5150005003243,令和６年９月２７日奈良県天理市楢町１６０番地の１天理教和爾分教会（5150005003243）に合併し解散,2015-10-05,1,,,,,テンリキョウアイミチブンキョウカイ,0
196,1180302026699,登記記録の閉鎖等,0,2024-11-01,2024-10-29,有限会社黒部織布,,有限会社,愛知県,西尾市,吉良町上横須賀寒破池６２番地,,23,213,4440521,,,2024-10-29,清算の結了等,,,2015-10-05,1,,,,,,0
211,1270001000178,登記記録の閉鎖等,0,2024-11-01,2024-10-31,共栄製本株式会社,,株式会社,鳥取県,鳥取市,南栄町３４番地,,31,201,6891121,,,2024-10-31,清算の結了等,,,2015-10-05,1,,,,,キョウエイセイホン,0
213,1280001008889,登記記録の閉鎖等,0,2024-11-01,2024-10-30,株式会社ＨＩＴＯＭＡＲＯ,,株式会社,島根県,益田市,遠田町３８１５番地１,,32,204,6993676,,,2024-10-30,清算の結了等,,,2023-03-06,1,,,,,ヒトマロ,0
226,1290802020884,登記記録の閉鎖等,0,2024-11-01,2024-10-29,有限会社大坪陸運,,有限会社,福岡県,鞍手郡小竹町,大字勝野３５１５番地の３,,40,401,8201103,,,2024-10-29,清算の結了等,,,2015-10-05,1,,,,,オオツボリクウン,0
239,1350002009474,登記記録の閉鎖等,0,2024-11-01,2024-10-30,有限会社本部プロパンガス,,有限会社,宮崎県,西都市,大字三宅４１３２番地２,,45,208,8810005,,,2024-10-30,清算の結了等,,,2015-10-05,1,,,,,ホンブプロパンガス,0
247,1370502001094,登記記録の閉鎖等,0,2024-11-01,2024-10-21,有限会社澤井住建,,有限会社,宮城県,気仙沼市,長磯大窪２７番地の４,,04,205,9880225,,,2024-10-21,清算の結了等,,,2015-10-05,1,,,,,サワイジュウケン,0
253,1380002029123,登記記録の閉鎖等,0,2024-11-01,2024-10-22,有限会社護会,,有限会社,福島県,南相馬市,原町区大町１丁目７６番地,,07,212,9750001,,,2024-10-22,清算の結了等,,,2015-10-05,1,,,,,マモルカイ,0
259,1410001009675,登記記録の閉鎖等,0,2024-11-01,2024-10-29,株式会社山英電通,,株式会社,秋田県,鹿角市,花輪字柴内太田谷地２５番地２７,,05,209,0185201,,,2024-10-29,清算の結了等,,,2015-10-05,1,,,,,サンエイデンツウ,0
260,1410002010970,登記記録の閉鎖等,0,2024-11-01,2024-10-30,有限会社シルバーウィング,,有限会社,秋田県,能代市,元町１番１３号,,05,202,0160831,,,2024-10-30,清算の結了等,,,2015-10-05,1,,,,,シルバーウィング,0
273,1480001006600,登記記録の閉鎖等,0,2024-11-01,2024-10-29,井村汽船株式会社,,株式会社,徳島県,阿南市,福村町南筋１０２番地,,36,204,7740004,,,2024-10-29,清算の結了等,,,2015-10-05,1,,,,,イムラキセン,0
296,2010001050421,登記記録の閉鎖等,0,2024-11-01,2024-10-28,千代田美巧株式会社,,株式会社,東京都,世田谷区,豪徳寺１丁目３２番１６号,,13,112,1540021,,,2024-10-28,清算の結了等,,,2015-10-05,1,,,,,チヨダビコウ,0
299,2010001162679,登記記録の閉鎖等,0,2024-11-01,2024-10-28,ＭＭＳパートナーズ株式会社,,株式会社,東京都,八王子市,別所２丁目５４番地１４－３１６号,,13,201,1920363,,,2024-10-28,清算の結了等,,,2015-10-05,1,,,,,エムエムエスパートナーズ,0
301,2010001189540,登記記録の閉鎖等,0,2024-11-01,2024-10-21,バルブテクノロジーズ株式会社,,株式会社,東京都,千代田区,丸の内１丁目８番２号鉄鋼ビルディング４階,,13,101,1000005,,,2024-10-21,清算の結了等,,,2018-02-08,1,,,,,バルブテクノロジーズ,0
312,2010002051088,登記記録の閉鎖等,0,2024-11-01,2024-10-11,有限会社Ｃ．Ｉ．,,有限会社,東京都,千代田区,三番町１４番地ＭＬＣ三番町ビル,,13,101,1020075,,,2024-10-11,合併による解散等,3010001220931,令和６年１０月１日東京都中央区日本橋小網町６番１号株式会社エスワイ・ホールディングス（3010001220931）に合併し解散,2015-10-05,1,,,,,シーアイ,0
313,2010401004919,登記記録の閉鎖等,0,2024-11-01,2024-10-21,株式会社セガナ・クリエイティブ,,株式会社,東京都,新宿区,西新宿８丁目１４番２４号,,13,104,1600023,,,2024-10-21,清算の結了等,,,2015-10-05,1,,,,,セガナクリエイティブ,0
321,2010403029658,登記記録の閉鎖等,0,2024-11-01,2024-10-15,合同会社エフ,,合同会社,東京都,港区,浜松町２丁目２番１５号浜松町ダイヤビル２Ｆ,,13,103,1050013,,,2024-10-15,清算の結了等,,,2023-03-03,1,,,,,エフ,0
322,2010405020334,登記記録の閉鎖等,0,2024-11-01,2024-10-16,一般社団法人Ｐｅｎｉｎｓｕｌａ２,,その他の設立登記法人,東京都,港区,虎ノ門５丁目１番４号,,13,103,1050001,,,2024-10-16,清算の結了等,,,2021-10-22,1,,,,,ペニンシュラツー,0
327,2010502006657,登記記録の閉鎖等,0,2024-11-01,2024-10-28,有限会社大栄活字社,,有限会社,東京都,台東区,小島２丁目８番４号,,13,106,1110056,,,2024-10-28,清算の結了等,,,2015-10-05,1,,,,,ダイエイカツジシャ,0
332,2010601048245,登記記録の閉鎖等,0,2024-11-01,2024-10-29,アースパートナース株式会社,,株式会社,東京都,江東区,豊洲２丁目５番１,,13,108,1350061,,,2024-10-29,合併による解散等,8010401096538,令和６年１０月２９日東京都江東区豊洲二丁目５番１ケイティキャピタル株式会社（8010401096538）に合併し解散,2015-10-05,1,,,,,アースパートナース,0
337,2010702000591,登記記録の閉鎖等,0,2024-11-01,2024-10-29,有限会社イーステック,,有限会社,東京都,品川区,東大井６丁目１３番１３号,,13,109,1400011,,,2024-10-29,清算の結了等,,,2015-10-05,1,,,,,イーステック,0
338,2010703003916,登記記録の閉鎖等,0,2024-11-01,2024-10-24,ワンダーフープ合同会社,,合同会社,東京都,世田谷区,中町４丁目３３番１５号,,13,112,1580091,,,2024-10-24,清算の結了等,,,2017-11-09,1,,,,,ワンダーフープ,0
344,2011001002676,登記記録の閉鎖等,0,2024-11-01,2024-10-07,株式会社イメージ企画,,株式会社,東京都,渋谷区,神宮前４丁目３番１５号,,13,113,1500001,,,2024-10-07,清算の結了等,,,2015-10-05,1,,,,,イメージキカク,0
351,2011001125485,登記記録の閉鎖等,0,2024-11-01,2024-10-18,株式会社ＮＥＸＴＡ,,株式会社,東京都,渋谷区,上原２丁目４番８号,,13,113,1510064,,,2024-10-18,清算の結了等,,,2018-12-03,1,,,,,ネクスタ,0
395,2020001127251,登記記録の閉鎖等,0,2024-11-01,2024-10-25,株式会社トモリビ,,株式会社,東京都,町田市,真光寺２丁目１３－２２,,13,209,1950057,,,2024-10-25,清算の結了等,,,2018-07-25,1,,,,,トモリビ,0
400,2020002021866,登記記録の閉鎖等,0,2024-11-01,2024-10-18,有限会社高橋製作所,,有限会社,神奈川県,横浜市旭区,川井宿町２番地５,,14,112,2410804,,,2024-10-18,清算の結了等,,,2015-10-05,1,,,,,タカハシセイサクショ,0
403,2021002015189,登記記録の閉鎖等,0,2024-11-01,2024-10-31,有限会社東管商事,,有限会社,神奈川県,鎌倉市,山ノ内１７１番地,,14,204,2470062,,,2024-10-31,清算の結了等,,,2015-10-05,1,,,,,トウカンショウジ,0
404,2021002028918,登記記録の閉鎖等,0,2024-11-01,2024-10-30,有限会社コノギ精密,,有限会社,神奈川県,相模原市緑区,青野原２９８番地６,,14,151,2520161,,,2024-10-30,清算の結了等,,,2015-10-05,1,,,,,コノギセイミツ,0
448,2110001002676,登記記録の閉鎖等,0,2024-11-01,2024-10-29,株式会社モンレーヴ,,株式会社,新潟県,新潟市北区,新崎６９９番地１１,,15,101,9503134,,,2024-10-29,清算の結了等,,,2015-10-05,1,,,,,モンレーヴ,0
451,2110001035726,登記記録の閉鎖等,0,2024-11-01,2024-10-28,株式会社ＤＡＮＫＥ　ＢＥＡＵＴＹ,,株式会社,新潟県,燕市,笈ケ島８５６番地７,,15,213,9590113,,,2024-10-28,清算の結了等,,,2021-04-21,1,,,,,ダンケビューティー,0
453,2120001174473,登記記録の閉鎖等,0,2024-11-01,2024-10-31,株式会社レンタルクレスト,,株式会社,大阪府,大阪市淀川区,西中島７丁目１番３－４１４号,,27,123,5320011,,,2024-10-31,清算の結了等,,,2015-10-05,1,,,,,レンタルクレスト,0
483,2170002007859,登記記録の閉鎖等,0,2024-11-01,2024-10-30,有限会社中井産業,,有限会社,和歌山県,岩出市,曽屋１３１番地,,30,209,6496236,,,2024-10-30,清算の結了等,,,2015-10-05,1,,,,,ナカイサンギョウ,0
502,2230002008099,登記記録の閉鎖等,0,2024-11-01,2024-10-30,有限会社ティエスエス商会,,有限会社,富山県,黒部市,中新１７７番地の１６,,16,207,9380027,,,2024-10-30,清算の結了等,,,2015-10-05,1,,,,,ティエスエスショウカイ,0
507,2260001006497,登記記録の閉鎖等,0,2024-11-01,2024-10-28,ミフネ商工株式会社,,株式会社,岡山県,岡山市北区,吉備津１３８８番地の７,,33,101,7011341,,,2024-10-28,清算の結了等,,,2015-10-05,1,,,,,ミフネショウコウ,0
530,2320002010442,登記記録の閉鎖等,0,2024-11-01,2024-10-31,有限会社吉原殖産,,有限会社,大分県,大分市,大字津守４９６番地の７,,44,201,8700945,,,2024-10-31,清算の結了等,,,2015-10-05,1,,,,,,0
536,2360001002206,登記記録の閉鎖等,0,2024-11-01,2024-10-31,りゅうぎんビジネスサービス株式会社,,株式会社,沖縄県,浦添市,屋富祖３丁目３３番１号,,47,208,9012127,,,2024-10-31,清算の結了等,,,2015-10-05,1,,,,,リュウギンビジネスサービス,0
551,2430002012394,登記記録の閉鎖等,0,2024-11-01,2024-10-30,有限会社タック,,有限会社,北海道,札幌市豊平区,月寒西三条６丁目１番１８号,,01,105,0620023,,,2024-10-30,清算の結了等,,,2015-10-05,1,,,,,タック,0
557,2490005003542,登記記録の閉鎖等,0,2024-11-01,2024-10-30,医療法人陽晃会,,その他の設立登記法人,高知県,吾川郡いの町,天王北３丁目４番地１,,39,386,7812122,,,2024-10-30,清算の結了等,,,2015-10-05,1,,,,,ヨウコウカイ,0
582,3010003023894,登記記録の閉鎖等,0,2024-11-01,2024-10-21,ＱＵＡＬＩＬＩＦＥ合同会社,,合同会社,東京都,千代田区,六番町６－４ＬＨ番町スクエア,,13,101,1020085,,,2024-10-21,清算の結了等,,,2016-08-01,1,,,,,クオリライフ,0
583,3010003030759,登記記録の閉鎖等,0,2024-11-01,2024-10-23,合同会社Ａｃｅｌｏｙａｌ,,合同会社,東京都,文京区,湯島３丁目３５番９－３０２号,,13,105,1130034,,,2024-10-23,清算の結了等,,,2019-09-27,1,,,,,エースロイヤル,0
589,3010401116589,登記記録の閉鎖等,0,2024-11-01,2024-09-30,株式会社ＴＫＲメディカル,,株式会社,東京都,足立区,西竹の塚２丁目１３番４－２０９号,,13,121,1210822,,,2024-09-30,合併による解散等,2040001103779,令和６年９月１２日千葉県銚子市春日町１０５番地アステルサポート株式会社（2040001103779）に合併し解散,2015-10-05,1,,,,,ティケーアールメディカル,0
603,3010601001525,登記記録の閉鎖等,0,2024-11-01,2024-10-31,株式会社北村興業,,株式会社,東京都,江東区,大島６丁目１番６ー６０２号,,13,108,1360072,,,2024-10-31,清算の結了等,,,2015-10-05,1,,,,,キタムラコウギョウ,0
654,3020001142150,登記記録の閉鎖等,0,2024-11-01,2024-10-18,株式会社ＦＨＴＭコンサルティング,,株式会社,神奈川県,横浜市港北区,篠原北１丁目５番１８－１,,14,109,2220021,,,2024-10-18,清算の結了等,,,2021-07-09,1,,,,,エフエイチティーエムコンサルティング,0
663,3020002090167,登記記録の閉鎖等,0,2024-11-01,2024-10-18,有限会社スライブ,,有限会社,神奈川県,川崎市宮前区,野川本町２丁目２４番３５号,,14,136,2160041,,,2024-10-18,清算の結了等,,,2015-10-05,1,,,,,スライブ,0
666,3021001018761,登記記録の閉鎖等,0,2024-11-01,2024-10-29,株式会社ＲＦデバイステクノロジーズ,,株式会社,神奈川県,相模原市緑区,大島３３３６番地１,,14,151,2520135,,,2024-10-29,清算の結了等,,,2015-10-05,1,,,,,アールエフデバイステクノロジーズ,0
671,3021005007331,登記記録の閉鎖等,0,2024-11-01,2024-10-30,特定非営利活動法人ひらつかエネルギーカフェ,,その他の設立登記法人,神奈川県,平塚市,唐ケ原１２３番地の２平塚ガーデンホームズ２－３１５,,14,203,2540826,,,2024-10-30,清算の結了等,,,2015-10-05,1,,,,,ヒラツカエネルギーカフェ,0
680,3030002014810,登記記録の閉鎖等,0,2024-11-01,2024-10-28,有限会社ビクトリー建材,,有限会社,埼玉県,さいたま市北区,本郷町９４６番地の１,,11,102,3310802,,,2024-10-28,清算の結了等,,,2015-10-05,1,,,,,ビクトリーケンザイ,0
682,3030002101724,登記記録の閉鎖等,0,2024-11-01,2024-10-29,有限会社桂鋳工所,,有限会社,埼玉県,川口市,中青木４丁目５番２２号,,11,203,3320032,,,2024-10-29,清算の結了等,,,2015-10-05,1,,,,,カツラチュウコウショ,0
683,3030002104826,登記記録の閉鎖等,0,2024-11-01,2024-10-28,有限会社田中塗装工業所,,有限会社,埼玉県,川口市,大字芝６９４３番地２４,,11,203,3330866,,,2024-10-28,清算の結了等,,,2015-10-05,1,,,,,タナカトソウコウギョウショ,0
684,3030005021416,登記記録の閉鎖等,0,2024-11-01,2024-10-23,特定非営利活動法人在日イラン人文化協会,,その他の設立登記法人,埼玉県,越谷市,千間台西３丁目３番地パークタウン１－４０１,,11,222,3430041,,,2024-10-23,清算の結了等,,,2023-10-16,1,,,,,ザイニチイランジンブンカキョウカイ,0
689,3040003010155,登記記録の閉鎖等,0,2024-11-01,2024-10-28,高木工業合同会社,,合同会社,千葉県,銚子市,笹本町２５１番地の１,,12,202,2880873,,,2024-10-28,清算の結了等,,,2017-06-05,1,,,,,タカギコウギョウ,0
697,3060001028627,登記記録の閉鎖等,0,2024-11-01,2024-10-29,株式会社共栄観光,,株式会社,栃木県,足利市,若草町２番地４２,,09,202,3260024,,,2024-10-29,清算の結了等,,,2016-09-09,1,,,,,キョウエイカンコウ,0
705,3080101024986,登記記録の閉鎖等,0,2024-11-01,2024-10-31,株式会社賀茂自動車検査場,,株式会社,静岡県,下田市,中５５６番地,,22,219,4150016,,,2024-10-31,清算の結了等,,,2024-09-12,1,,,,,カモジドウシャケンサジョウ,0
716,3110001021725,登記記録の閉鎖等,0,2024-11-01,2024-10-29,金澤自動車販売株式会社,,株式会社,新潟県,糸魚川市,大字田海５８０４番地,,15,216,9490303,,,2024-10-29,清算の結了等,,,2015-10-05,1,,,,,カナザワジドウシャハンバイ,0
732,3120002013217,登記記録の閉鎖等,0,2024-11-01,2024-11-01,有限会社たむら,,有限会社,大阪府,大阪市天王寺区,逢阪２丁目５番１７号,00030536,27,109,5430062,,,2024-11-01,清算の結了等,,,2015-10-05,1,,,,,タムラ,0
761,3150002001714,登記記録の閉鎖等,0,2024-11-01,2024-10-29,有限会社松本正己建築事務所,,有限会社,奈良県,北葛城郡王寺町,本町３丁目３番１３号,,29,425,6360012,,,2024-10-29,清算の結了等,,,2015-10-05,1,,,,,マツモトマサミケンチクジムショ,0
785,3180002088294,登記記録の閉鎖等,0,2024-11-01,2024-10-24,有限会社田中工務店,,有限会社,愛知県,知多市,八幡字森之前５７番地の６,,23,224,4780001,,,2024-10-24,清算の結了等,,,2015-10-05,1,,,,,タナカコウムテン,0
793,3200001011394,登記記録の閉鎖等,0,2024-11-01,2024-10-30,株式会社長谷虎商店,,株式会社,岐阜県,羽島市,江吉良町１９７番地の１,,21,209,5016236,,,2024-10-30,清算の結了等,,,2015-10-05,1,,,,,ハセトラショウテン,0
821,3330005008457,登記記録の閉鎖等,0,2024-11-01,2024-10-18,ＮＰＯ法人元気ば届け隊くまもと,,その他の設立登記法人,熊本県,上益城郡御船町,大字豊秋１５７２番地５,,43,441,8613131,,,2024-10-18,清算の結了等,,,2015-10-05,1,,,,,ゲンキバトドケタイクマモト,0
827,3370001007871,登記記録の閉鎖等,0,2024-11-01,2024-10-17,株式会社マテリアル仙台,,株式会社,宮城県,仙台市青葉区,折立１丁目１５番１０号,,04,101,9820261,,,2024-10-17,清算の結了等,,,2015-10-05,1,,,,,マテリアルセンダイ,0
828,3370001011188,登記記録の閉鎖等,0,2024-11-01,2024-10-17,日本素材株式会社,,株式会社,宮城県,仙台市青葉区,折立１丁目１５番１０号,,04,101,9820261,,,2024-10-17,清算の結了等,,,2015-10-05,1,,,,,ニホンソザイ,0
837,3380002002805,登記記録の閉鎖等,0,2024-11-01,2024-10-21,有限会社ハマヤ寝具店,,有限会社,福島県,福島市,松川町字原１０５番地,,07,201,9601241,,,2024-10-21,清算の結了等,,,2015-10-05,1,,,,,ハマヤシングテン,0
866,4010001061697,登記記録の閉鎖等,0,2024-11-01,2024-10-21,株式会社東京洋菓子倶楽部,,株式会社,東京都,中央区,日本橋浜町１丁目１番１２号,,13,102,1030007,,,2024-10-21,清算の結了等,,,2015-10-05,1,,,,,トウキョウヨウガシクラブ,0
882,4010003034040,登記記録の閉鎖等,0,2024-11-01,2024-10-11,合同会社ＢＰ１,,合同会社,東京都,千代田区,永田町２丁目１２番４号,,13,101,1000014,,,2024-10-11,清算の結了等,,,2021-01-29,1,,,,,ビーピーワン,0
887,4010102002344,登記記録の閉鎖等,0,2024-11-01,2024-10-31,有限会社ケイアイ・クリフォート,,有限会社,東京都,八王子市,北野台４丁目９番１１号,,13,201,1920913,,,2024-10-31,清算の結了等,,,2015-10-05,1,,,,,,0
889,4010401071759,登記記録の閉鎖等,0,2024-11-01,2024-10-08,株式会社ＡＰ　ＩＶ　ＧＰ,,株式会社,東京都,港区,虎ノ門４丁目１番２８号虎ノ門タワーズオフィス１７階,,13,103,1050001,,,2024-10-08,清算の結了等,,,2015-10-05,1,,,,,エーピーフォージーピー,0
891,4010401155702,登記記録の閉鎖等,0,2024-11-01,2024-10-21,株式会社ＮＫＫファンド,,株式会社,東京都,中央区,日本橋蛎殻町２丁目１５番９－３０３号,,13,102,1030014,,,2024-10-21,清算の結了等,,,2020-10-08,1,,,,,エヌケーケーファンド,0
893,4010401165412,登記記録の閉鎖等,0,2024-11-01,2024-10-29,サン共同デジタルマーケティング株式会社,,株式会社,東京都,港区,南青山１丁目１番１号新青山ビル東館１５階,,13,103,1070062,,,2024-10-29,合併による解散等,2011001130535,令和６年９月６日東京都港区南青山一丁目１番１号新青山ビル東館１５階サン共同Ｍ＆Ａ株式会社（2011001130535）に合併し解散,2022-02-10,1,,,,,サンキョウドウデジタルマーケティング,0
908,4011001122159,登記記録の閉鎖等,0,2024-11-01,2024-10-21,株式会社ＥＳＣ,,株式会社,東京都,渋谷区,宇田川町３６－２ノア渋谷１００２,,13,113,1500042,,,2024-10-21,清算の結了等,,,2018-05-11,1,,,,,イーエスシー,0
910,4011001134501,登記記録の閉鎖等,0,2024-11-01,2024-10-21,バウハウス株式会社,,株式会社,東京都,渋谷区,千駄ヶ谷５丁目２７番３号新宿やまとビルディング８階,,13,113,1510051,,,2024-10-21,清算の結了等,,,2020-06-29,1,,,,,バウハウス,0
915,4011101075819,登記記録の閉鎖等,0,2024-11-01,2024-10-21,株式会社カタタ,,株式会社,東京都,新宿区,西新宿８丁目５番１７号,,13,104,1600023,,,2024-10-21,清算の結了等,,,2016-01-26,1,,,,,カタタ,0
921,4011105000847,登記記録の閉鎖等,0,2024-11-01,2024-10-25,医療法人社団智嵩会,,その他の設立登記法人,東京都,新宿区,百人町２丁目１１番２２号,,13,104,1690073,,,2024-10-25,清算の結了等,,,2015-10-05,1,,,,,トモタカカイ,0
927,4011501000186,登記記録の閉鎖等,0,2024-11-01,2024-10-30,株式会社アスカ工芸,,株式会社,東京都,北区,西ケ原４丁目２２番７号,,13,117,1140024,,,2024-10-30,清算の結了等,,,2015-10-05,1,,,,,アスカコウゲイ,0
935,4012701004233,登記記録の閉鎖等,0,2024-11-01,2024-10-21,株式会社山口工務店,,株式会社,東京都,清瀬市,中里５丁目９１番地,,13,221,2040003,,,2024-10-21,清算の結了等,,,2015-10-05,1,,,,,ヤマグチコウムテン,0
941,4020001102120,登記記録の閉鎖等,0,2024-11-01,2024-10-18,株式会社シニアライフ,,株式会社,神奈川県,川崎市宮前区,宮崎３丁目１２番２０号,,14,136,2160033,,,2024-10-18,清算の結了等,,,2015-10-05,1,,,,,シニアライフ,0
978,4070002001647,登記記録の閉鎖等,0,2024-11-01,2024-10-30,有限会社木村製麺所,00025456,有限会社,群馬県,前橋市,荒牧町２丁目４９番地２０,,10,201,3710044,,,2024-10-30,清算の結了等,,,2015-10-05,1,,,,,キムラセイメンジョ,0
982,4080101004582,登記記録の閉鎖等,0,2024-11-01,2024-10-28,株式会社フジ建,,株式会社,静岡県,沼津市,中沢田４７１番地の５,,22,203,4100006,,,2024-10-28,清算の結了等,,,2015-10-05,1,,,,,フジケン,0
1004,4120003012522,登記記録の閉鎖等,0,2024-11-01,2024-10-30,合同会社ウェルネスオープンリビングラボ,,合同会社,大阪府,大阪市阿倍野区,旭町１丁目４番３号,,27,119,5450051,,,2024-10-30,清算の結了等,,,2017-03-01,1,,,,,ウェルネスオープンリビングラボ,0
1026,4180001102261,登記記録の閉鎖等,0,2024-11-01,2024-10-21,アトール株式会社,,株式会社,愛知県,名古屋市昭和区,阿由知通４丁目３番地イルソーレ１Ｆ,,23,107,4660027,,,2024-10-21,清算の結了等,,,2015-10-05,1,,,,,アトール,0
1033,4180002010570,登記記録の閉鎖等,0,2024-11-01,2024-10-21,愛華商事有限会社,,有限会社,愛知県,名古屋市北区,楠味鋺４丁目１９０５番地,,23,103,4620014,,,2024-10-21,清算の結了等,,,2015-10-05,1,,,,,アイカショウジ,0
1035,4180003025709,登記記録の閉鎖等,0,2024-11-01,2024-10-23,合同会社インビテーション,,合同会社,愛知県,名古屋市天白区,表山２丁目１５０５番地,,23,116,4680069,,,2024-10-23,清算の結了等,,,2023-09-06,1,,,,,インビテーション,0
1038,4180302009627,登記記録の閉鎖等,0,2024-11-01,2024-10-28,有限会社宝伸実業,,有限会社,愛知県,豊橋市,築地町１７番地,,23,201,4418015,,,2024-10-28,清算の結了等,,,2015-10-05,1,,,,,ホウシンジツギョウ,0
1045,4210001017472,登記記録の閉鎖等,0,2024-11-01,2024-10-25,Ｔ’ｓ－ＴＥＸ株式会社,,株式会社,福井県,吉田郡永平寺町,松岡石舟１字１番,,18,322,9101115,,,2024-10-25,清算の結了等,,,2019-04-01,1,,,,,ティーズテックス,0
1049,4240001037360,登記記録の閉鎖等,0,2024-11-01,2024-10-29,株式会社升谷商店,,株式会社,広島県,竹原市,下野町２８７７番地の１,,34,203,7250012,,,2024-10-29,清算の結了等,,,2015-10-05,1,,,,,マスタニショウテン,0
1053,4240001061880,登記記録の閉鎖等,0,2024-11-01,2024-10-30,株式会社ｌｅｅｎｄｅ,,株式会社,広島県,広島市東区,牛田新町４丁目１８番１０号,,34,102,7320068,,,2024-10-30,清算の結了等,,,2023-07-31,1,,,,,レエンデ,0
1055,4240002000912,登記記録の閉鎖等,0,2024-11-01,2024-10-30,有限会社荒川化粧品店,,有限会社,広島県,広島市南区,松原町９番１号,,34,103,7320822,,,2024-10-30,清算の結了等,,,2015-10-05,1,,,,,アラカワケショウヒンテン,0
1056,4240002001860,登記記録の閉鎖等,0,2024-11-01,2024-10-31,有限会社ウェルダンセンターなかや,,有限会社,広島県,広島市西区,南観音４丁目１番１７号,,34,104,7330035,,,2024-10-31,清算の結了等,,,2015-10-05,1,,,,,ウェルダンセンターナカヤ,0
1057,4240002003709,登記記録の閉鎖等,0,2024-11-01,2024-10-25,有限会社かげ井商店,,有限会社,東京都,台東区,谷中４丁目４番３１－３０９号,,13,106,1100001,,,2024-10-25,清算の結了等,,,2015-10-05,1,,,,,カゲイショウテン,0
1071,4290801016906,登記記録の閉鎖等,0,2024-11-01,2024-10-29,株式会社ヘルパーステーションたがわ,,株式会社,福岡県,田川市,大字弓削田７１１番地１,,40,206,8260041,,,2024-10-29,清算の結了等,,,2015-10-05,1,,,,,ヘルパーステーションタガワ,0
1072,4290802007078,登記記録の閉鎖等,0,2024-11-01,2024-10-23,有限会社和田工務店,,有限会社,福岡県,北九州市戸畑区,沢見１丁目３番１４号,,40,105,8040093,,,2024-10-23,清算の結了等,,,2015-10-05,1,,,,,ワダコウムテン,0
1074,4320001004583,登記記録の閉鎖等,0,2024-11-01,2024-10-31,株式会社大分三好ヴァイセアドラー,,株式会社,大分県,大分市,大字佐野４２３６番地,,44,201,8700315,,,2024-10-31,清算の結了等,,,2015-10-05,1,,,,,オオイタミヨシヴアイセアドラー,0
1077,4340001012956,登記記録の閉鎖等,0,2024-11-01,2024-10-25,株式会社夢,,株式会社,鹿児島県,南九州市,頴娃町別府５４００番地２,,46,223,8910704,,,2024-10-25,清算の結了等,,,2015-10-05,1,,,,,ユメ,0
1082,4360001016575,登記記録の閉鎖等,0,2024-11-01,2024-10-21,ネクストリンク株式会社,,株式会社,福岡県,北九州市小倉北区,堺町１丁目９番６号コンプレート堺町ビル７階,,40,106,8020005,,,2024-10-21,清算の結了等,,,2015-10-05,1,,,,,ネクストリンク,0
1085,4370202001136,登記記録の閉鎖等,0,2024-11-01,2024-10-25,株式会社ウィーズ東北Ｕ,,株式会社,宮城県,大崎市,古川諏訪２丁目２番４０号,,04,215,9896175,,,2024-10-25,合併による解散等,6030001066965,令和６年１０月１日埼玉県北葛飾郡松伏町築比地７９５番地１株式会社ウィーズ（6030001066965）に合併し解散,2015-10-05,1,,,,,ウィーズトウホクユー,0
1093,4390001012340,登記記録の閉鎖等,0,2024-11-01,2024-10-23,株式会社阿部建機,,株式会社,山形県,西村山郡朝日町,大字宮宿８０３番地の１７,,06,323,9901442,,,2024-10-23,清算の結了等,,,2015-10-05,1,,,,,アベケンキ,0
1094,4400001007330,登記記録の閉鎖等,0,2024-11-01,2024-10-21,株式会社釜石総業,,株式会社,東京都,千代田区,丸の内３丁目４番１号新国際ビル４階,,13,101,1000005,,,2024-10-21,清算の結了等,,,2015-10-05,1,,,,,カマイシソウギョウ,0
1112,4500002000720,登記記録の閉鎖等,0,2024-11-01,2024-10-30,有限会社アドバンス四国,,有限会社,愛媛県,松山市,谷町甲１０３番地１,,38,201,7918002,,,2024-10-30,清算の結了等,,,2015-10-05,1,,,,,アドバンスシコク,0
1123,5010001007261,登記記録の閉鎖等,0,2024-11-01,2024-10-21,株式会社マールイ,,株式会社,東京都,文京区,本郷５丁目２９番１３号,,13,105,1130033,,,2024-10-21,清算の結了等,,,2024-09-03,1,,,,,マールイ,0
1125,5010001238559,登記記録の閉鎖等,0,2024-11-01,2024-10-11,株式会社オピニオンプラス,,株式会社,東京都,千代田区,内幸町１丁目３番１号幸ビルディング,,13,101,1000011,,,2024-10-11,清算の結了等,,,2023-09-20,1,,,,,オピニオンプラス,0
1135,5010401164272,登記記録の閉鎖等,0,2024-11-01,2024-10-29,サン共同アセットマネジメント株式会社,,株式会社,東京都,港区,南青山１丁目１番１号新青山ビル東館１５階,,13,103,1070062,,,2024-10-29,合併による解散等,2011001130535,令和６年９月６日東京都港区南青山一丁目１番１号新青山ビル東館１５階サン共同Ｍ＆Ａ株式会社（2011001130535）に合併し解散,2021-12-10,1,,,,,サンキョウドウアセットマネジメント,0
1153,5011001013183,登記記録の閉鎖等,0,2024-11-01,2024-10-07,大西部株式会社,,株式会社,東京都,渋谷区,宇田川町１３番１６号,,13,113,1500042,,,2024-10-07,清算の結了等,,,2015-10-05,1,,,,,ダイセイブ,0
1164,5011302008139,登記記録の閉鎖等,0,2024-11-01,2024-10-28,有限会社プロム,,有限会社,東京都,杉並区,下井草４丁目４番１９号,,13,115,1670022,,,2024-10-28,清算の結了等,,,2015-10-05,1,,,,,,0
1172,5011801002807,登記記録の閉鎖等,0,2024-11-01,2024-10-28,高砂建設株式会社,,株式会社,東京都,葛飾区,高砂２丁目３７番２号,,13,122,1250054,,,2024-10-28,清算の結了等,,,2015-10-05,1,,,,,タカサゴケンセツ,0
1175,5011801030691,登記記録の閉鎖等,0,2024-11-01,2024-10-29,株式会社ＳＫＹ,,株式会社,埼玉県,春日部市,小渕８４５番地５,,11,214,3440007,,,2024-10-29,清算の結了等,,,2015-10-05,1,,,,,エスケーワイ,0
1179,5020001052934,登記記録の閉鎖等,0,2024-11-01,2024-10-17,株式会社ヨッコモッコ,,株式会社,神奈川県,横浜市青葉区,奈良１丁目２３番地２,,14,117,2270038,,,2024-10-17,清算の結了等,,,2015-10-05,1,,,,,ヨッコモッコ,0
1181,5020001092096,登記記録の閉鎖等,0,2024-11-01,2024-10-17,株式会社ピーディーエス,,株式会社,神奈川県,川崎市多摩区,生田５丁目１１番９号,,14,135,2140038,,,2024-10-17,清算の結了等,,,2015-10-05,1,,,,,ピーディーエス,0
1185,5020002086205,登記記録の閉鎖等,0,2024-11-01,2024-10-17,有限会社ケルベム,,有限会社,神奈川県,川崎市宮前区,東有馬２丁目２０番１６号,,14,136,2160002,,,2024-10-17,清算の結了等,,,2015-10-05,1,,,,,ケルベム,0
1187,5020002090248,登記記録の閉鎖等,0,2024-11-01,2024-10-17,有限会社佐川精密,,有限会社,神奈川県,川崎市宮前区,犬蔵２丁目６番４号,,14,136,2160011,,,2024-10-17,清算の結了等,,,2015-10-05,1,,,,,サガワセイミツ,0
1192,5021001049499,登記記録の閉鎖等,0,2024-11-01,2024-10-25,株式会社マット,,株式会社,神奈川県,大和市,上草柳５０４番地５,,14,213,2420029,,,2024-10-25,清算の結了等,,,2015-10-05,1,,,,,マット,0
1216,5050001050489,登記記録の閉鎖等,0,2024-11-01,2024-10-25,株式会社佐藤事務所,,株式会社,茨城県,つくば市,学園南３丁目２５番地５,,08,220,3050818,,,2024-10-25,清算の結了等,,,2022-01-19,1,,,,,サトウジムショ,0
1222,5070001041081,登記記録の閉鎖等,0,2024-11-01,2024-10-30,株式会社Ｊ‐ＫＬＡＸＯＮ,,株式会社,群馬県,太田市,龍舞町３９６０番地５,,10,205,3730806,,,2024-10-30,清算の結了等,,,2023-11-20,1,,,,,ジェイクラクソン,0
1232,5100001002872,登記記録の閉鎖等,0,2024-11-01,2024-10-15,原商事株式会社,,株式会社,長野県,長野市,中御所１丁目２８番４号マノー裾花２０４,,20,201,3800935,,,2024-10-15,清算の結了等,,,2015-10-05,1,,,,,ハラショウジ,0
1264,5120901046430,登記記録の閉鎖等,0,2024-11-01,2024-10-31,株式会社オンステージ,,株式会社,大阪府,大阪市中央区,久太郎町４丁目１－３大阪センタービル６Ｆ－１９５,,27,128,5410056,,,2024-10-31,清算の結了等,,,2022-09-05,1,,,,,オンステージ,0
1285,5170001007865,登記記録の閉鎖等,0,2024-11-01,2024-10-30,中井鉄工株式会社,,株式会社,和歌山県,岩出市,曽屋１６５番地の１,,30,209,6496236,,,2024-10-30,清算の結了等,,,2015-10-05,1,,,,,ナカイテッコウ,0
1300,5180002065952,登記記録の閉鎖等,0,2024-11-01,2024-10-21,小林鉄工有限会社,,有限会社,愛知県,春日井市,桃山町２丁目３３７番地,,23,206,4860802,,,2024-10-21,清算の結了等,,,2015-10-05,1,,,,,コバヤシテッコウ,0
1302,5180003016343,登記記録の閉鎖等,0,2024-11-01,2024-10-21,シーズトラスト合同会社,,合同会社,愛知県,名古屋市中区,松原２丁目２番３３号,,23,106,4600017,,,2024-10-21,清算の結了等,,,2015-10-05,1,,,,,シーズトラスト,0
1303,5180003022606,登記記録の閉鎖等,0,2024-11-01,2024-10-21,名古屋商事合同会社,,合同会社,愛知県,名古屋市西区,名駅２丁目３４番１７号セントラル名古屋内,,23,104,4510045,,,2024-10-21,清算の結了等,,,2021-06-14,1,,,,,ナゴヤショウジ,0
1320,5240002013310,登記記録の閉鎖等,0,2024-11-01,2024-10-31,有限会社ハギノ工務店,,有限会社,広島県,広島市佐伯区,八幡が丘２丁目１５番２７号,,34,108,7315117,,,2024-10-31,清算の結了等,,,2015-10-05,1,,,,,ハギノコウムテン,0
1321,5240003003194,登記記録の閉鎖等,0,2024-11-01,2024-10-30,合同会社ひのき屋,,合同会社,広島県,東広島市,八本松町正力１２７６番地５,,34,212,7390132,,,2024-10-30,清算の結了等,,,2016-02-01,1,,,,,ヒノキヤ,0
1329,5260002024586,登記記録の閉鎖等,0,2024-11-01,2024-10-29,有限会社エム・アイ・イー,,有限会社,岡山県,倉敷市,中島８９８番地６,,33,202,7100803,,,2024-10-29,清算の結了等,,,2015-10-05,1,,,,,エムアイイー,0
1330,5280002000247,登記記録の閉鎖等,0,2024-11-01,2024-10-30,有限会社井上時計店,,有限会社,島根県,松江市,竪町６９番地５,,32,201,6900052,,,2024-10-30,清算の結了等,,,2024-08-07,1,,,,,イノウエトケイテン,0
1355,5350001011188,登記記録の閉鎖等,0,2024-11-01,2024-10-29,株式会社Ｙ・Ｓクリーン,,株式会社,宮崎県,延岡市,出北３丁目１１番２２号,,45,203,8820856,,,2024-10-29,清算の結了等,,,2015-10-05,1,,,,,ワイエスクリーン,0
1362,5360003007539,登記記録の閉鎖等,0,2024-11-01,2024-10-15,合同会社Ｏｎｅ　Ｓｔｅｐ　Ｕｐ,,合同会社,沖縄県,宜野湾市,長田３丁目５番７－３号,,47,205,9012212,,,2024-10-15,合併による解散等,1360003007501,令和６年１０月１５日沖縄県豊見城市宜保四丁目９番地７沖縄福祉株式会社（1360003007501）に合併し解散,2016-03-23,1,,,,,ワンステップアップ,0
1364,5370002001211,登記記録の閉鎖等,0,2024-11-01,2024-10-21,有限会社ダックメディカル,,有限会社,宮城県,仙台市泉区,寺岡１丁目２０番地の２４,,04,105,9813204,,,2024-10-21,清算の結了等,,,2015-10-05,1,,,,,ダックメディカル,0
1373,5410001002833,登記記録の閉鎖等,0,2024-11-01,2024-10-30,株式会社秋南水道施設工業,,株式会社,秋田県,秋田市,仁井田本町１丁目１９番１８号,,05,201,0101421,,,2024-10-30,清算の結了等,,,2015-10-05,1,,,,,シュウナンスイドウシセツコウギョウ,0
1374,5420003002698,登記記録の閉鎖等,0,2024-11-01,2024-10-29,アンベアリー合同会社,,合同会社,青森県,青森市,桂木３丁目５番地５ルグラン桂木ＩＩＣ－１０５,00129998,02,201,0300844,,,2024-10-29,清算の結了等,,,2023-04-07,1,,,,,アンベアリー,0
1384,5450002010625,登記記録の閉鎖等,0,2024-11-01,2024-10-28,有限会社岡工業,,有限会社,北海道,枝幸郡枝幸町,新港町９０９番地５１,,01,514,0985808,,,2024-10-28,清算の結了等,,,2015-10-05,1,,,,,オカコウギョウ,0
1410,6010003040219,登記記録の閉鎖等,0,2024-11-01,2024-10-18,合同会社ＫＲＦ１０４,,合同会社,東京都,千代田区,内幸町２丁目１番６号,,13,101,1000011,,,2024-10-18,清算の結了等,,,2023-04-05,1,,,,,ケイアールエフヒャクヨン,0
1416,6010401149454,登記記録の閉鎖等,0,2024-11-01,2024-10-21,株式会社Ｓｕｎｎｙ　ａｎｄ,,株式会社,東京都,港区,南青山２丁目２番１５号ウィン青山９４２,,13,103,1070062,,,2024-10-21,清算の結了等,,,2019-11-28,1,,,,,サニーアンド,0
1417,6010401164271,登記記録の閉鎖等,0,2024-11-01,2024-10-29,サン共同補助金支援コンサルティング株式会社,,株式会社,東京都,港区,南青山１丁目１番１号新青山ビル東館１５階,,13,103,1070062,,,2024-10-29,合併による解散等,2011001130535,令和６年９月６日東京都港区南青山一丁目１番１号新青山ビル東館１５階サン共同Ｍ＆Ａ株式会社（2011001130535）に合併し解散,2021-12-08,1,,,,,サンキョウドウホジョキンシエンコンサルティング,0
1440,6010701043407,登記記録の閉鎖等,0,2024-11-01,2024-10-29,株式会社エムプラット,,株式会社,東京都,品川区,大崎２丁目１番１号ＴｈｉｎｋＰａｒｋＴｏｗｅｒ８階,,13,109,1410032,,,2024-10-29,清算の結了等,,,2022-11-08,1,,,,,エムプラット,0
1448,6010902012747,登記記録の閉鎖等,0,2024-11-01,2024-10-23,有限会社冨士寿し,,有限会社,東京都,世田谷区,世田谷３丁目８番５号,,13,112,1540017,,,2024-10-23,清算の結了等,,,2015-10-05,1,,,,,フジズシ,0
1453,6011001127214,登記記録の閉鎖等,0,2024-11-01,2024-09-24,株式会社Ｃｏｏｃａ,,株式会社,東京都,港区,高輪３丁目１０番２号グラスプラス高輪,,13,103,1080074,,,2024-09-24,清算の結了等,,,2019-03-27,1,,,,,クーカ,0
1454,6011002031101,登記記録の閉鎖等,0,2024-11-01,2024-10-21,有限会社ボビッシュ,,有限会社,東京都,渋谷区,千駄ヶ谷２丁目３９番３号,,13,113,1510051,,,2024-10-21,清算の結了等,,,2015-10-05,1,,,,,,0
1456,6011003012760,登記記録の閉鎖等,0,2024-11-01,2024-10-07,合同会社もみじ,,合同会社,東京都,目黒区,青葉台１丁目１８番７－４１８号,,13,110,1530042,,,2024-10-07,清算の結了等,,,2021-05-25,1,,,,,モミジ,0
1482,6012701015856,登記記録の閉鎖等,0,2024-11-01,2024-10-18,ヨネスティ株式会社,,株式会社,東京都,清瀬市,中清戸２丁目７１８番地２５,,13,221,2040012,,,2024-10-18,清算の結了等,,,2020-04-24,1,,,,,ヨネスティ,0
1487,6013201014282,登記記録の閉鎖等,0,2024-11-01,2024-10-28,株式会社ＲＡＤＳＹＳ,,株式会社,東京都,大田区,下丸子４丁目１４－８マインコート３０２,,13,111,1460092,,,2024-10-28,清算の結了等,,,2015-10-05,1,,,,,ラドシス,0
1495,6020001124757,登記記録の閉鎖等,0,2024-11-01,2024-10-17,株式会社ヘレス,,株式会社,神奈川県,横浜市中区,不老町１丁目２番地１,,14,104,2310032,,,2024-10-17,清算の結了等,,,2018-01-24,1,,,,,ヘレス,0
1498,6020002027612,登記記録の閉鎖等,0,2024-11-01,2024-10-18,有限会社日新商事,,有限会社,神奈川県,横浜市神奈川区,入江１丁目３３番１６号,,14,102,2210014,,,2024-10-18,清算の結了等,,,2015-10-05,1,,,,,ニッシンショウジ,0
1521,6050001041818,登記記録の閉鎖等,0,2024-11-01,2024-10-11,株式会社Ｋｅｙ‐Ｐｅｒｆｏｒｍａｎｃｅ,,株式会社,茨城県,稲敷郡阿見町,大字荒川本郷１番地１９,,08,443,3001152,,,2024-10-11,清算の結了等,,,2016-11-08,1,,,,,キーパフォーマンス,0
1524,6050003002628,登記記録の閉鎖等,0,2024-11-01,2024-10-24,合同会社ポジトロン,,合同会社,茨城県,筑西市,横島８０９番地,,08,227,3080802,,,2024-10-24,清算の結了等,,,2015-10-05,1,,,,,ポジトロン,0
1535,6100001032209,登記記録の閉鎖等,0,2024-11-01,2024-10-23,ゆとりデザイン株式会社,,株式会社,長野県,長野市,大字東和田８４２番地ＣＯＲＥＯＦＦＩＣＥ３０１号室,,20,201,3810038,,,2024-10-23,清算の結了等,,,2019-05-20,1,,,,,ユトリデザイン,0
1536,6100001036143,登記記録の閉鎖等,0,2024-11-01,2024-10-23,株式会社Ａｍｉ．Ｐｏｒｔｅ,,株式会社,長野県,長野市,大字東和田８４２番地ＣＯＲＥＯＦＦＩＣＥ３０１号室,,20,201,3810038,,,2024-10-23,清算の結了等,,,2023-02-10,1,,,,,アミポルテ,0
1541,6110002011441,登記記録の閉鎖等,0,2024-11-01,2024-10-29,有限会社ウィスタリア,,有限会社,新潟県,新潟市中央区,八千代１丁目３番２０号アパガーデンピア万代５０３号,,15,103,9500909,,,2024-10-29,清算の結了等,,,2015-10-05,1,,,,,,0
1543,6110002033758,登記記録の閉鎖等,0,2024-11-01,2024-10-28,有限会社甲四郎商店,,有限会社,新潟県,魚沼市,虫野１０７番地１０,,15,225,9460037,,,2024-10-28,清算の結了等,,,2015-10-05,1,,,,,コウシロウショウテン,0
1575,6140003010844,登記記録の閉鎖等,0,2024-11-01,2024-10-30,こうじょうＫＡＮビジネスサポート合同会社,,合同会社,兵庫県,宝塚市,中山桜台６丁目１８番２－１０２号,,28,214,6650877,,,2024-10-30,清算の結了等,,,2015-10-05,1,,,,,コウジョウカンビジネスサポート,0
1579,6150001009697,登記記録の閉鎖等,0,2024-11-01,2024-10-29,アスカ産業株式会社,,株式会社,奈良県,宇陀市,大宇陀拾生６１１番地の１,,29,212,6332164,,,2024-10-29,清算の結了等,,,2015-10-05,1,,,,,アスカサンギョウ,0
1584,6180001017499,登記記録の閉鎖等,0,2024-11-01,2024-10-21,株式会社テラニシ,,株式会社,愛知県,名古屋市東区,泉１丁目９番２７号,,23,102,4610001,,,2024-10-21,清算の結了等,,,2015-10-05,1,,,,,テラニシ,0
1588,6180001085414,登記記録の閉鎖等,0,2024-11-01,2024-10-21,株式会社マーブル,,株式会社,愛知県,名古屋市中区,橘１丁目２４番５号,,23,106,4600016,,,2024-10-21,清算の結了等,,,2015-10-05,1,,,,,マーブル,0
1596,6180002039352,登記記録の閉鎖等,0,2024-11-01,2024-10-21,有限会社山内電子,,有限会社,愛知県,名古屋市南区,白水町３６番地の１５６,,23,112,4570818,,,2024-10-21,清算の結了等,,,2015-10-05,1,,,,,ヤマウチデンシ,0
1598,6180002083689,登記記録の閉鎖等,0,2024-11-01,2024-10-21,有限会社テクニカルエンジニアリング,,有限会社,愛知県,半田市,中町３丁目２番地キャッスルハイツ半田中町１３０３号,,23,205,4750855,,,2024-10-21,清算の結了等,,,2015-10-05,1,,,,,テクニカルエンジニアリング,0
1601,6180301000782,登記記録の閉鎖等,0,2024-11-01,2024-10-28,株式会社サンアド,,株式会社,愛知県,岡崎市,明大寺町字衣下道５６番地１,,23,202,4440864,,,2024-10-28,清算の結了等,,,2015-10-05,1,,,,,サンアド,0
1602,6180301033997,登記記録の閉鎖等,0,2024-11-01,2024-10-29,株式会社Ｒｅａｒｅｉｓｅ,,株式会社,愛知県,豊橋市,広小路１丁目１８番地ユメックスビル６Ｆ,,23,201,4400881,,,2024-10-29,清算の結了等,,,2020-08-18,1,,,,,リアライゼ,0
1604,6180302008800,登記記録の閉鎖等,0,2024-11-01,2024-10-28,有限会社東海リフレッシュサービス,,有限会社,愛知県,豊橋市,下地町字宮前９０番地,,23,201,4400086,,,2024-10-28,清算の結了等,,,2015-10-05,1,,,,,トウカイリフレッシュサービス,0
1623,6260001011452,登記記録の閉鎖等,0,2024-11-01,2024-10-30,アドバンス株式会社,,株式会社,岡山県,岡山市南区,泉田３５１番１,,33,104,7000944,,,2024-10-30,清算の結了等,,,2015-10-05,1,,,,,アドバンス,0
1629,6270002010808,登記記録の閉鎖等,0,2024-11-01,2024-10-30,有限会社大和屋,,有限会社,鳥取県,東伯郡湯梨浜町,大字松崎４３９番地,,31,370,6890711,,,2024-10-30,清算の結了等,,,2015-10-05,1,,,,,ヤマトヤ,0
1633,6290001090931,登記記録の閉鎖等,0,2024-11-01,2024-10-25,株式会社ウィーズ福岡,,株式会社,福岡県,福岡市早良区,重留７丁目１８番３号,,40,137,8111101,,,2024-10-25,合併による解散等,6030001066965,令和６年１０月１日埼玉県北葛飾郡松伏町築比地７９５番地１株式会社ウィーズ（6030001066965）に合併し解散,2020-11-16,1,,,,,ウィーズフクオカ,0
1637,6290801016012,登記記録の閉鎖等,0,2024-11-01,2024-10-31,株式会社園田工務店,,株式会社,福岡県,京都郡苅田町,神田町３丁目８番地８,,40,621,8000361,,,2024-10-31,清算の結了等,,,2015-10-05,1,,,,,ソノダコウムテン,0
1642,6290802011499,登記記録の閉鎖等,0,2024-11-01,2024-10-21,有限会社森建設,,有限会社,福岡県,北九州市門司区,新開４番７号,,40,101,8010885,,,2024-10-21,清算の結了等,,,2015-10-05,1,,,,,モリケンセツ,0
1644,6300002010969,登記記録の閉鎖等,0,2024-11-01,2024-10-31,有限会社明和プラント工業,,有限会社,佐賀県,東松浦郡玄海町,大字浜野浦７１番地,,41,387,8471433,,,2024-10-31,清算の結了等,,,2015-10-05,1,,,,,メイワプラントコウギョウ,0
1658,6350005002810,登記記録の閉鎖等,0,2024-11-01,2024-10-28,延岡地区素材生産事業協同組合,,その他の設立登記法人,宮崎県,延岡市,平原町５丁目１４９５番地１,,45,203,8820866,,,2024-10-28,清算の結了等,,,2015-10-05,1,,,,,ノベオカチクソザイセイサン,0
1670,6370402001999,登記記録の閉鎖等,0,2024-11-01,2024-10-17,有限会社ドリームティ・エーグループ,,有限会社,宮城県,登米市,迫町佐沼字中江４丁目９番地の４,,04,212,9870511,,,2024-10-17,清算の結了等,,,2015-10-05,1,,,,,,0
1673,6380005000596,登記記録の閉鎖等,0,2024-11-01,2024-10-08,農事組合法人吾妻高原野菜生産組合,,その他の設立登記法人,福島県,福島市,成川字石田７１番地,,07,201,9601108,,,2024-10-08,清算の結了等,,,2015-10-05,1,,,,,アズマコウゲンヤサイセイサンクミアイ,0
1674,6390001006596,登記記録の閉鎖等,0,2024-11-01,2024-10-21,ＳＬ株式会社,,株式会社,東京都,中央区,八重洲２丁目８番７号福岡ビル９階,,13,102,1040028,,,2024-10-21,清算の結了等,,,2015-10-05,1,,,,,エスエル,0
1678,6430002002243,登記記録の閉鎖等,0,2024-11-01,2024-10-24,有限会社イワタニ設計,,有限会社,北海道,札幌市北区,百合が原７丁目２番２７号,,01,102,0028081,,,2024-10-24,清算の結了等,,,2015-10-05,1,,,,,イワタニセッケイ,0
1679,6460101000921,登記記録の閉鎖等,0,2024-11-01,2024-10-30,株式会社高嶋建設,,株式会社,北海道,帯広市,西十八条南３丁目１８番４号,,01,207,0800028,,,2024-10-30,清算の結了等,,,2015-10-05,1,,,,,,0
1689,7010001042629,登記記録の閉鎖等,0,2024-11-01,2024-10-18,株式会社久保玲子,,株式会社,東京都,中央区,日本橋蛎殻町１丁目３２番２－２０１,,13,102,1030014,,,2024-10-18,清算の結了等,,,2015-10-05,1,,,,,クボレイコ,0
1712,7010405012995,登記記録の閉鎖等,0,2024-11-01,2024-10-15,特定非営利活動法人医師と団塊シニアの会,,その他の設立登記法人,東京都,港区,白金台３丁目７番７号５０９号室,,13,103,1080071,,,2024-10-15,清算の結了等,,,2015-10-05,1,,,,,イシトダンカイシニアノカイ,0
1718,7010801007070,登記記録の閉鎖等,0,2024-11-01,2024-10-29,株式会社多田製作所,,株式会社,東京都,大田区,西六郷３丁目１４番９号,,13,111,1440056,,,2024-10-29,清算の結了等,,,2015-10-05,1,,,,,タダセイサクショ,0
1768,7030002060314,登記記録の閉鎖等,0,2024-11-01,2024-10-28,有限会社ホソダ製作所,,有限会社,埼玉県,志木市,下宗岡２丁目４番２６号,,11,228,3530003,,,2024-10-28,清算の結了等,,,2015-10-05,1,,,,,ホソダセイサクショ,0
1781,7060001007866,登記記録の閉鎖等,0,2024-11-01,2024-10-29,株式会社プロフィット,,株式会社,栃木県,宇都宮市,川田町１００１番地１,,09,201,3210111,,,2024-10-29,清算の結了等,,,2015-10-05,1,,,,,プロフィット,0
1785,7070002032697,登記記録の閉鎖等,0,2024-11-01,2024-10-30,有限会社ステップ,,有限会社,群馬県,太田市,下田島町９０６番地,,10,205,3730844,,,2024-10-30,清算の結了等,,,2015-10-05,1,,,,,ステップ,0
1788,7080401010600,登記記録の閉鎖等,0,2024-11-01,2024-10-30,株式会社大和,,株式会社,静岡県,浜松市浜名区,細江町気賀５２８番地の１,,22,139,4311305,,,2024-10-30,清算の結了等,,,2015-10-05,1,,,,,ダイワ,0
1805,7110001005105,登記記録の閉鎖等,0,2024-11-01,2024-10-29,株式会社本陣,,株式会社,新潟県,新潟市中央区,東堀通９番町１４０３番地,,15,103,9518065,,,2024-10-29,清算の結了等,,,2015-10-05,1,,,,,ホンジン,0
1806,7110001024641,登記記録の閉鎖等,0,2024-11-01,2024-10-29,株式会社プラカード・ジャパン,,株式会社,新潟県,長岡市,石動町２２８番地９,,15,202,9402032,,,2024-10-29,清算の結了等,,,2015-10-05,1,,,,,プラカードジャパン,0
1831,7130001026330,登記記録の閉鎖等,0,2024-11-01,2024-10-30,株式会社プロスト２４,,株式会社,兵庫県,西宮市,神楽町２番２０号,,28,204,6620977,,,2024-10-30,清算の結了等,,,2015-10-05,1,,,,,プロストニジュウヨン,0
1834,7140001019606,登記記録の閉鎖等,0,2024-11-01,2024-10-30,いのうえ制服株式会社,,株式会社,兵庫県,神戸市中央区,神若通６丁目１番３号,,28,110,6510067,,,2024-10-30,清算の結了等,,,2015-10-05,1,,,,,イノウエセイフク,0
1845,7180001102770,登記記録の閉鎖等,0,2024-11-01,2024-10-21,株式会社エヌイーティ,,株式会社,愛知県,江南市,赤童子町良原１２１番地,,23,217,4838227,,,2024-10-21,清算の結了等,,,2015-10-05,1,,,,,エヌイーティ,0
1850,7180002032224,登記記録の閉鎖等,0,2024-11-01,2024-10-21,有限会社ニコニコ堂,,有限会社,愛知県,名古屋市中区,大井町５番３号,,23,106,4600015,,,2024-10-21,清算の結了等,,,2015-10-05,1,,,,,ニコニコドウ,0
1875,7260002010452,登記記録の閉鎖等,0,2024-11-01,2024-10-29,有限会社ユニコン,,有限会社,岡山県,岡山市東区,古都南方２８５４番地の１,,33,103,7038215,,,2024-10-29,清算の結了等,,,2015-10-05,1,,,,,ユニコン,0
1877,7270001008356,登記記録の閉鎖等,0,2024-11-01,2024-10-31,株式会社ミヤネ開発,,株式会社,鳥取県,鳥取市,福部町八重原３７９番地,,31,201,6890115,,,2024-10-31,清算の結了等,,,2021-09-16,1,,,,,ミヤネカイハツ,0
1884,7290005012690,登記記録の閉鎖等,0,2024-11-01,2024-08-22,天理教大牟田市分教会,,その他の設立登記法人,福岡県,大牟田市,宮原町１丁目１８５番地,,40,202,8360875,,,2024-08-22,合併による解散等,5290005012676,令和６年８月２２日福岡県大牟田市松原町１番地の１天理教九筑分教会（5290005012676）に合併し解散,2015-10-05,1,,,,,テンリキョウオオムタシブンキョウカイ,0
1886,7290801025499,登記記録の閉鎖等,0,2024-11-01,2024-10-31,株式会社グランツ,,株式会社,福岡県,北九州市門司区,高田１丁目３番２０号,,40,101,8000031,,,2024-10-31,清算の結了等,,,2019-05-13,1,,,,,グランツ,0
1893,7320001016130,登記記録の閉鎖等,0,2024-11-01,2024-10-29,ＴＣホテルズ＆リゾーツ別府株式会社,,株式会社,大分県,別府市,大字鉄輪字申川４９９番地１８,,44,202,8740000,,,2024-10-29,合併による解散等,7010001145299,令和６年１０月１日東京都千代田区大手町二丁目６番４号ＴＣホテルズ＆リゾーツ株式会社（7010001145299）に合併し解散,2018-01-17,1,,,,,ティーシーホテルズアンドリゾーツベップ,0
1894,7330001021237,登記記録の閉鎖等,0,2024-11-01,2024-10-28,株式会社モガ,,株式会社,熊本県,天草市,今釜町６番７号,,43,215,8630012,,,2024-10-28,清算の結了等,,,2015-10-05,1,,,,,,0
1899,7370002003404,登記記録の閉鎖等,0,2024-11-01,2024-10-21,有限会社タカタケ,,有限会社,宮城県,仙台市太白区,向山２丁目２番１２－６０１号,,04,104,9820841,,,2024-10-21,清算の結了等,,,2015-10-05,1,,,,,タカタケ,0
1902,7370802002332,登記記録の閉鎖等,0,2024-11-01,2024-10-22,有限会社フリー・フレイム,,有限会社,宮城県,岩沼市,吹上１丁目４番２１号,,04,211,9892436,,,2024-10-22,清算の結了等,,,2015-10-05,1,,,,,フリーフレイム,0
1907,7380005000595,登記記録の閉鎖等,0,2024-11-01,2024-10-08,農事組合法人吾妻小富士りんご生産組合,,その他の設立登記法人,福島県,福島市,成川字石田７１番地,,07,201,9601108,,,2024-10-08,清算の結了等,,,2015-10-05,1,,,,,アズマコフジリンゴセイサンクミアイ,0
1915,7430001036910,登記記録の閉鎖等,0,2024-11-01,2024-10-30,ターンエー株式会社,,株式会社,北海道,札幌市白石区,本郷通８丁目北７－１山口ビル２０２,,01,104,0030025,,,2024-10-30,清算の結了等,,,2015-10-05,1,,,,,ターンエー,0
1921,7480005003605,登記記録の閉鎖等,0,2024-11-01,2024-10-30,医療法人青藍社,,その他の設立登記法人,徳島県,板野郡北島町,高房字勝瑞境１０番地の２,,36,402,7710206,,,2024-10-30,清算の結了等,,,2015-10-05,1,,,,,セイランシャ,0
1931,8010001185823,登記記録の閉鎖等,0,2024-11-01,2024-10-23,アジリティ・コンサルティング株式会社,,株式会社,東京都,千代田区,一番町１０－８一番町ウェストビル５階,,13,101,1020082,,,2024-10-23,清算の結了等,,,2017-08-23,1,,,,,アジリティコンサルティング,0
1938,8010003031331,登記記録の閉鎖等,0,2024-11-01,2024-10-21,合同会社さくらじま,,合同会社,東京都,中央区,日本橋１丁目４番１号,,13,102,1030027,,,2024-10-21,清算の結了等,,,2019-12-25,1,,,,,サクラジマ,0
1951,8010401158684,登記記録の閉鎖等,0,2024-11-01,2024-10-07,株式会社Ｆｏｏｄｌｙ,,株式会社,東京都,渋谷区,渋谷１丁目２番５号,,13,113,1500002,,,2024-10-07,合併による解散等,5120001226008,令和６年１０月１日東京都渋谷区渋谷一丁目２番５号株式会社シコメルフードテック（5120001226008）に合併し解散,2021-03-11,1,,,,,フードリー,0
1954,8010402023409,登記記録の閉鎖等,0,2024-11-01,2024-10-16,有限会社ハミングカンパニー,,有限会社,東京都,港区,南青山２丁目２番１５号ウィン青山９４２号室,,13,103,1070062,,,2024-10-16,清算の結了等,,,2015-10-05,1,,,,,ハミングカンパニー,0
1961,8010501030438,登記記録の閉鎖等,0,2024-11-01,2024-10-24,株式会社中央貿易,,株式会社,東京都,足立区,中央本町５丁目３番３号,,13,121,1210011,,,2024-10-24,清算の結了等,,,2015-10-05,1,,,,,,0
1962,8010501033754,登記記録の閉鎖等,0,2024-11-01,2024-10-25,株式会社ワンワールド企画,,株式会社,東京都,台東区,竜泉１丁目１２番３－３０３号,,13,106,1100012,,,2024-10-25,清算の結了等,,,2015-10-05,1,,,,,ワンワールドキカク,0
1968,8010603008753,登記記録の閉鎖等,0,2024-11-01,2024-10-30,ミントシステム合同会社,,合同会社,東京都,墨田区,吾妻橋３丁目２番１６－４０１号,,13,107,1300001,,,2024-10-30,清算の結了等,,,2021-02-02,1,,,,,ミントシステム,0
1974,8010902007506,登記記録の閉鎖等,0,2024-11-01,2024-10-17,有限会社清水工業所,,有限会社,東京都,世田谷区,南烏山４丁目１０番１６号,,13,112,1570062,,,2024-10-17,清算の結了等,,,2015-10-05,1,,,,,,0
1995,8011301028060,登記記録の閉鎖等,0,2024-11-01,2024-10-28,ＧＶ株式会社,,株式会社,東京都,杉並区,和田２丁目２６番３－１０１号,,13,115,1660012,,,2024-10-28,清算の結了等,,,2022-08-25,1,,,,,ジーブイ,0
2003,8011802010186,登記記録の閉鎖等,0,2024-11-01,2024-10-25,有限会社エィアンドエムそうま,,有限会社,東京都,足立区,関原３丁目２３番８号,,13,121,1230852,,,2024-10-25,清算の結了等,,,2015-10-05,1,,,,,エィアンドエムソウマ,0
2010,8020001070702,登記記録の閉鎖等,0,2024-11-01,2024-10-17,株式会社カワリョー,,株式会社,神奈川県,川崎市幸区,小倉２丁目１番４４号エクセル新川崎ビル,,14,132,2120054,,,2024-10-17,清算の結了等,,,2015-10-05,1,,,,,カワリョー,0
2014,8020002008726,登記記録の閉鎖等,0,2024-11-01,2024-10-16,有限会社浜吉,,有限会社,神奈川県,横浜市金沢区,釜利谷西３丁目３番７号,,14,108,2360046,,,2024-10-16,清算の結了等,,,2015-10-05,1,,,,,ハマヨシ,0
2015,8020002012414,登記記録の閉鎖等,0,2024-11-01,2024-10-16,戸塚物産有限会社,,有限会社,神奈川県,横浜市戸塚区,汲沢町１８１番地,00010352,14,110,2450062,,,2024-10-16,清算の結了等,,,2015-10-05,1,,,,,トツカブッサン,0
2016,8020002030300,登記記録の閉鎖等,0,2024-11-01,2024-10-16,有限会社下山材木店,,有限会社,神奈川県,横浜市南区,睦町１丁目５番地の３,,14,105,2320041,,,2024-10-16,清算の結了等,,,2015-10-05,1,,,,,シモヤマザイモクテン,0
2019,8021001014021,登記記録の閉鎖等,0,2024-11-01,2024-10-30,丸栄建設株式会社,,株式会社,神奈川県,相模原市南区,相模大野３丁目１番１４号金山ビル,,14,153,2520303,,,2024-10-30,清算の結了等,,,2015-10-05,1,,,,,マルエイケンセツ,0
2043,8050002022914,登記記録の閉鎖等,0,2024-11-01,2024-10-24,有限会社敷島,,有限会社,茨城県,つくば市,洞下５６９番地,,08,220,3004249,,,2024-10-24,清算の結了等,,,2015-10-05,1,,,,,シキシマ,0
2059,8120001004559,登記記録の閉鎖等,0,2024-11-01,2024-10-28,株式会社エムズ,,株式会社,大阪府,大阪市西区,江戸堀１丁目１８番１４－１４０１号,,27,106,5500002,,,2024-10-28,清算の結了等,,,2015-10-05,1,,,,,エムズ,0
2061,8120001062053,登記記録の閉鎖等,0,2024-11-01,2024-10-25,オフィスサービス株式会社,,株式会社,大阪府,大阪市住吉区,帝塚山中２丁目２番２４号１０２号室,,27,120,5580053,,,2024-10-25,合併による解散等,3120001034081,令和６年１０月２５日大阪市住吉区帝塚山中二丁目２番２４号１０２号室大阪ロイヤルサービス株式会社（3120001034081）に合併し解散,2015-10-05,1,,,,,オフィスサービス,0
2067,8120001209736,登記記録の閉鎖等,0,2024-11-01,2024-10-30,ＭＡＳＵ不動産株式会社,,株式会社,大阪府,大阪市中央区,安土町３丁目２番２号,,27,128,5410052,,,2024-10-30,清算の結了等,,,2017-11-28,1,,,,,マスフドウサン,0
2084,8120101033219,登記記録の閉鎖等,0,2024-11-01,2024-10-31,株式会社梁塵秘,,株式会社,大阪府,羽曳野市,恵我之荘２丁目１番１９号,,27,222,5830886,,,2024-10-31,清算の結了等,,,2015-10-05,1,,,,,,0
2087,8120905005652,登記記録の閉鎖等,0,2024-11-01,2024-10-29,一般社団法人ベトナム人就労支援協会,,その他の設立登記法人,大阪府,吹田市,豊津町９番１５号日本興業ビル９０２,,27,205,5640051,,,2024-10-29,清算の結了等,,,2017-12-19,1,,,,,ベトナムジンシュウロウシエンキョウカイ,0
2090,8130001072893,登記記録の閉鎖等,0,2024-11-01,2024-10-28,株式会社松籟,,株式会社,奈良県,奈良市,三条町４７５松田ビル２ＦＹＡＭＡＴＯＢＡＳＥ,,29,201,6308244,,,2024-10-28,清算の結了等,,,2022-10-27,1,,,,,ショウライ,0
2102,8150001018052,登記記録の閉鎖等,0,2024-11-01,2024-10-30,株式会社朱雀技研,,株式会社,奈良県,奈良市,南袋町６番地１２トーマスビル４階,,29,201,6308342,,,2024-10-30,清算の結了等,,,2015-10-05,1,,,,,スザクギケン,0
2104,8180001020955,登記記録の閉鎖等,0,2024-11-01,2024-10-24,株式会社丸福,00071939,株式会社,愛知県,名古屋市中川区,太平通３丁目６番地,,23,110,4540838,,,2024-10-24,清算の結了等,,,2015-10-05,1,,,,,マルフク,0
2106,8180001036225,登記記録の閉鎖等,0,2024-11-01,2024-10-21,株式会社酒井新設計,,株式会社,愛知県,名古屋市千種区,見附町３丁目３番地２,,23,101,4640817,,,2024-10-21,清算の結了等,,,2015-10-05,1,,,,,サカイシンセッケイ,0
2122,8180002071618,登記記録の閉鎖等,0,2024-11-01,2024-10-21,有限会社岡田材木店,,有限会社,愛知県,瀬戸市,古瀬戸町２番地,,23,204,4890032,,,2024-10-21,清算の結了等,,,2015-10-05,1,,,,,オカダザイモクテン,0
2127,8180301004534,登記記録の閉鎖等,0,2024-11-01,2024-10-29,株式会社Ｃ・Ｓ・Ｋ,,株式会社,愛知県,岡崎市,能見町９３番地８,,23,202,4440061,,,2024-10-29,清算の結了等,,,2015-10-05,1,,,,,シーエスケイ,0
2128,8180301024508,登記記録の閉鎖等,0,2024-11-01,2024-10-28,株式会社誠真,,株式会社,愛知県,豊橋市,佐藤４丁目３４番地２６,,23,201,4400853,,,2024-10-28,清算の結了等,,,2015-10-05,1,,,,,セイシン,0
2137,8190005004045,登記記録の閉鎖等,0,2024-11-01,2024-10-30,医療法人徳和会,00076256,その他の設立登記法人,三重県,鈴鹿市,白子駅前２番２０号,,24,207,5100241,,,2024-10-30,清算の結了等,,,2015-10-05,1,,,,,トクワカイ,0
2164,8290801005698,登記記録の閉鎖等,0,2024-11-01,2024-10-31,株式会社フィッシュランド,,株式会社,福岡県,北九州市門司区,東馬寄５番２６号,,40,101,8000052,,,2024-10-31,清算の結了等,,,2015-10-05,1,,,,,フィッシュランド,0
2166,8290801019707,登記記録の閉鎖等,0,2024-11-01,2024-10-11,株式会社Ｌａ　Ｓａｎｔｅ,,株式会社,福岡県,直方市,湯野原２丁目２番６－１０１号,,40,204,8220008,,,2024-10-11,合併による解散等,6290801022316,令和６年１０月１１日福岡県直方市湯野原二丁目２番６－５０２号株式会社Ｌａ　Ｓａｎｔｅ（6290801022316）に合併し解散,2015-10-05,1,,,,,ラサンテ,0
2169,8290802011332,登記記録の閉鎖等,0,2024-11-01,2024-10-23,有限会社ラ・メール雅,,有限会社,福岡県,北九州市門司区,大里本町２丁目１１番３３号,,40,101,8000063,,,2024-10-23,清算の結了等,,,2015-10-05,1,,,,,ラメールミヤビ,0
2174,8340005004839,登記記録の閉鎖等,0,2024-11-01,2024-10-30,医療法人和光整形外科,,その他の設立登記法人,鹿児島県,奄美市,名瀬和光町１８番１９号,,46,222,8940007,,,2024-10-30,清算の結了等,,,2015-10-05,1,,,,,ワコウセイケイゲカ,0
2181,8370001038920,登記記録の閉鎖等,0,2024-11-01,2024-10-22,株式会社ミツイ設計プラス,,株式会社,宮城県,仙台市太白区,西の平１丁目２０－２５,,04,104,9820825,,,2024-10-22,清算の結了等,,,2015-12-09,1,,,,,ミツイセッケイプラス,0
2183,8370005009496,登記記録の閉鎖等,0,2024-11-01,2024-10-11,特定非営利活動法人旧奥州街道有壁宿助郷の会,,その他の設立登記法人,宮城県,栗原市,金成有壁新町３番地１,,04,213,9894806,,,2024-10-11,清算の結了等,,,2018-07-23,1,,,,,キュウオウシュウカイドウアリカベシュクスケゴウノカイ,0
2184,8380001018707,登記記録の閉鎖等,0,2024-11-01,2024-10-18,北永測量設計株式会社,,株式会社,福島県,喜多方市,豊川町米室字アカト５２４６番地１０６,,07,208,9660914,,,2024-10-18,清算の結了等,,,2015-10-05,1,,,,,ホクエイソクリョウセッケイ,0
2190,8410001006872,登記記録の閉鎖等,0,2024-11-01,2024-10-30,株式会社秋田北報社,,株式会社,秋田県,大館市,比内町扇田字本道端１番地１２,,05,204,0185701,,,2024-10-30,清算の結了等,,,2015-10-05,1,,,,,アキタホッポウシャ,0
2229,9010403021261,登記記録の閉鎖等,0,2024-11-01,2024-10-23,Ｚｙｍｅｒｇｅｎ　Ｊａｐａｎ合同会社,,合同会社,東京都,新宿区,西新宿３丁目３番１３号西新宿水間ビル６Ｆ,,13,104,1600023,,,2024-10-23,清算の結了等,,,2019-08-13,1,,,,,ザイマージェンジャパン,0
2236,9010501048974,登記記録の閉鎖等,0,2024-11-01,2024-10-23,錦戸株式会社,,株式会社,東京都,台東区,三ノ輪２丁目３番８－１０５号,,13,106,1100011,,,2024-10-23,清算の結了等,,,2022-06-15,1,,,,,ニシキド,0
2243,9010901024947,登記記録の閉鎖等,0,2024-11-01,2024-10-28,株式会社クレイジークック,,株式会社,東京都,大田区,蒲田５丁目１８－１０,,13,111,1440052,,,2024-10-28,清算の結了等,,,2015-10-05,1,,,,,クレイジークック,0
2251,9011001046452,登記記録の閉鎖等,0,2024-11-01,2024-10-28,株式会社アート・クロム,,株式会社,東京都,品川区,南大井３丁目１番１号桜ヒルズ南大井４０３,,13,109,1400013,,,2024-10-28,清算の結了等,,,2015-10-05,1,,,,,アートクロム,0
2257,9011101068966,登記記録の閉鎖等,0,2024-11-01,2024-10-25,綿半ライフケア株式会社,,株式会社,東京都,新宿区,四谷１丁目４番地,,13,104,1600004,,,2024-10-25,清算の結了等,,,2015-10-05,1,,,,,ワタハンライフケア,0
2258,9011101098261,登記記録の閉鎖等,0,2024-11-01,2024-10-16,株式会社ＫＭコンサルティング,,株式会社,東京都,新宿区,西新宿７丁目４番７号イマス浜田ビル３Ｆ－Ｂ,,13,104,1600023,,,2024-10-16,清算の結了等,,,2022-03-22,1,,,,,ケーエムコンサルティング,0
2266,9011801014724,登記記録の閉鎖等,0,2024-11-01,2024-10-28,ザイウェアテクノロジ株式会社,,株式会社,東京都,足立区,東和２丁目１２番１７号,,13,121,1200003,,,2024-10-28,清算の結了等,,,2015-10-05,1,,,,,ザイウェアテクノロジ,0
2273,9020001001714,登記記録の閉鎖等,0,2024-11-01,2024-10-17,見上建設株式会社,,株式会社,神奈川県,横浜市瀬谷区,三ツ境１６番地の８,,14,114,2460022,,,2024-10-17,清算の結了等,,,2015-10-05,1,,,,,ミカミケンセツ,0
2281,9020001134729,登記記録の閉鎖等,0,2024-11-01,2024-10-21,株式会社イーネット,,株式会社,東京都,新宿区,新宿２丁目１１番７号５階,,13,104,1600022,,,2024-10-21,清算の結了等,,,2020-02-03,1,,,,,イーネット,0
2292,9021003014332,登記記録の閉鎖等,0,2024-11-01,2024-10-30,合同会社近未来技術フォーラム,,合同会社,神奈川県,相模原市中央区,相模原３丁目７番１７号ディーフェスタ相模原７１０号室,,14,152,2520231,,,2024-10-30,清算の結了等,,,2024-04-08,1,,,,,キンミライギジュツフォーラム,0
2293,9021005007169,登記記録の閉鎖等,0,2024-11-01,2024-09-19,金光教大磯教会,,その他の設立登記法人,神奈川県,中郡大磯町,東小磯３３５番地,,14,341,2550004,,,2024-09-19,合併による解散等,5020005000278,令和６年９月１９日神奈川県鎌倉市稲村ガ崎４－６－１５金光教鎌倉稲村ガ崎教会（5020005000278）に合併し解散,2015-10-05,1,,,,,コンコウキョウオオイソキョウカイ,0
2299,9030002099227,登記記録の閉鎖等,0,2024-11-01,2024-10-29,有限会社長本商事,,有限会社,埼玉県,川口市,桜町３丁目１１番２号,,11,203,3340001,,,2024-10-29,清算の結了等,,,2015-10-05,1,,,,,ナガモトショウジ,0
2313,9060001007237,登記記録の閉鎖等,0,2024-11-01,2024-10-29,株式会社ゆらりホールディングス,,株式会社,栃木県,宇都宮市,南大通り１丁目７番８号,,09,201,3210963,,,2024-10-29,清算の結了等,,,2015-10-05,1,,,,,ユラリホールディングス,0
2318,9070002024866,登記記録の閉鎖等,0,2024-11-01,2024-10-30,有限会社峯岸,,有限会社,群馬県,桐生市,錦町１丁目８番１号,,10,203,3760023,,,2024-10-30,清算の結了等,,,2015-10-05,1,,,,,ミネギシ,0
2320,9080401012322,登記記録の閉鎖等,0,2024-11-01,2024-10-31,株式会社Ｒ・ゼミ,,株式会社,静岡県,浜松市中央区,城北２丁目１番１０号,,22,138,4328011,,,2024-10-31,清算の結了等,,,2015-10-05,1,,,,,アールゼミ,0
2330,9120001058133,登記記録の閉鎖等,0,2024-11-01,2024-10-31,株式会社藤本建具,,株式会社,大阪府,大阪市淀川区,田川北１丁目４番６号,,27,123,5320021,,,2024-10-31,清算の結了等,,,2015-10-05,1,,,,,フジモトタテグ,0
2331,9120001087818,登記記録の閉鎖等,0,2024-11-01,2024-10-24,株式会社久設計,,株式会社,大阪府,大阪市中央区,谷町４丁目６番１３号,,27,128,5400012,,,2024-10-24,清算の結了等,,,2015-10-05,1,,,,,キュウセッケイ,0
2349,9140001054460,登記記録の閉鎖等,0,2024-11-01,2024-10-30,株式会社水井電工,,株式会社,兵庫県,尼崎市,御園２丁目３番４０号,,28,202,6610984,,,2024-10-30,清算の結了等,,,2015-10-05,1,,,,,ミズイデンコウ,0
2350,9140001072066,登記記録の閉鎖等,0,2024-11-01,2024-10-30,株式会社環境工房インフィニティー,,株式会社,兵庫県,西宮市,屋敷町２２番１－４０１号,,28,204,6620963,,,2024-10-30,清算の結了等,,,2015-10-05,1,,,,,カンキョウコウボウインフィニティー,0
2357,9140002039254,登記記録の閉鎖等,0,2024-11-01,2024-10-28,株式会社パレット,,株式会社,兵庫県,養父市,八鹿町八鹿９０９番地３,,28,222,6670021,,,2024-10-28,清算の結了等,,,2015-10-05,1,,,,,パレット,0
2376,9180002015821,登記記録の閉鎖等,0,2024-11-01,2024-10-18,有限会社光輝印刷,,有限会社,愛知県,名古屋市北区,五反田町３０４番地２,,23,103,4620011,,,2024-10-18,清算の結了等,,,2015-10-05,1,,,,,コウキインサツ,0
2402,9260001025012,登記記録の閉鎖等,0,2024-11-01,2024-10-31,株式会社ＴＫＳ,,株式会社,岡山県,岡山市北区,富田５３６番地１,,33,101,7000936,,,2024-10-31,清算の結了等,,,2015-10-05,1,,,,,ティーケーエス,0
2403,9260003000640,登記記録の閉鎖等,0,2024-11-01,2024-10-15,合資会社アイディール,,合資会社,岡山県,倉敷市,広江８丁目１０番１号,,33,202,7128043,,,2024-10-15,清算の結了等,,,2015-10-05,1,,,,,アイディール,0
2423,9320005009707,登記記録の閉鎖等,0,2024-11-01,2024-10-30,一般社団法人困り事サポート佐伯,,その他の設立登記法人,大分県,佐伯市,駅前１丁目７番１号,,44,205,8760803,,,2024-10-30,清算の結了等,,,2019-06-25,1,,,,,コマリゴトサポートサイキ,0
2425,9330002008371,登記記録の閉鎖等,0,2024-11-01,2024-10-25,有限会社馬場商店,,有限会社,熊本県,熊本市中央区,本山１丁目５番２２号,,43,101,8600821,,,2024-10-25,清算の結了等,,,2015-10-05,1,,,,,ババショウテン,0
2428,9340002017999,登記記録の閉鎖等,0,2024-11-01,2024-10-29,有限会社橋本商事,,有限会社,鹿児島県,いちき串木野市,曙町６３番地１,,46,219,8960001,,,2024-10-29,清算の結了等,,,2015-10-05,1,,,,,ハシモトショウジ,0
2430,9360003012774,登記記録の閉鎖等,0,2024-11-01,2024-10-30,合同会社ＯＮＥ　ＯＦ　ＯＮＥ,,合同会社,沖縄県,糸満市,字与座１６１番地の４,,47,210,9010322,,,2024-10-30,清算の結了等,,,2023-03-06,1,,,,,ワンオブワン,0
2432,9360005005388,登記記録の閉鎖等,0,2024-11-01,2024-10-30,特定非営利活動法人ＷＩＮＧおきなわＫＩＳＥＫＩ,,その他の設立登記法人,沖縄県,中頭郡読谷村,字波平１９１６－１,,47,324,9040322,,,2024-10-30,清算の結了等,,,2016-06-27,1,,,,,ウイングオキナワキセキ,0
2445,9470002016872,登記記録の閉鎖等,0,2024-11-01,2024-10-28,有限会社富士商会,,有限会社,香川県,三豊市,仁尾町仁尾丁７２０番地４,,37,208,7691407,,,2024-10-28,清算の結了等,,,2015-10-05,1,,,,,フジショウカイ,0
2448,9480002012805,登記記録の閉鎖等,0,2024-11-01,2024-10-29,有限会社岡本汽船,,有限会社,徳島県,阿南市,福村町南筋１０２番地,,36,204,7740004,,,2024-10-29,清算の結了等,,,2015-10-05,1,,,,,オカモトキセン,0
2450,9500001005880,登記記録の閉鎖等,0,2024-11-01,2024-10-29,一宝堂印刷株式会社,,株式会社,愛媛県,松山市,和泉北２丁目８番７号,,38,201,7900038,,,2024-10-29,清算の結了等,,,2015-10-05,1,,,,,イッポウドウインサツ,0
