sequenceNumber,corporateNumber,process,correct,updateDate,changeDate,name,nameImageId,kind,prefectureName,cityName,streetNumber,addressImageId,prefectureCode,cityCode,postCode,addressOutside,addressOutsideImageId,closeDate,closeCause,successorCorporateNumber,changeCause,assignmentDate,latest,enName,enPrefectureName,enCityName,enAddressOutside,furigana,hihyoji
14,1010001254353,新規,0,2025-05-14,2025-05-14,株式会社ＣＡＰＳ,,株式会社,東京都,中央区,日本橋浜町１丁目２番８号日本橋ＢＮＫビル４階,,13,102,1030007,,,,,,,2025-05-14,1,,,,,キャップス,0
16,1010001254733,新規,0,2025-05-14,2025-05-14,ＡＡＭＡ株式会社,,株式会社,東京都,千代田区,神田多町２丁目１－２３神田東山ビル７Ｆ,,13,101,1010046,,,,,,,2025-05-14,1,,,,,アマ,0
17,1010001254931,新規,0,2025-05-14,2025-05-14,株式会社エリソンコンサルティング,,株式会社,東京都,中央区,銀座１丁目１２番４号Ｎ＆ＥＢＬＤ．６Ｆ,,13,102,1040061,,,,,,,2025-05-14,1,,,,,エリソンコンサルティング,0
18,1010001254972,新規,0,2025-05-14,2025-05-14,Ｂｌｏｃｋ　Ｔｒａｃｅ　Ｊａｐａｎ株式会社,,株式会社,東京都,中央区,新川１丁目７番１－３０２号日本橋茅場町オフィス,,13,102,1040033,,,,,,,2025-05-14,1,,,,,ブロックトレースジャパン,0
21,1010003047350,新規,0,2025-05-14,2025-05-14,ヘルスビズウォッチ合同会社,,合同会社,東京都,中央区,銀座７丁目１３番２０号銀座ＴＨビル９階,,13,102,1040061,,,,,,,2025-05-14,1,,,,,ヘルスビズウォッチ,0
31,1010401190173,新規,0,2025-05-14,2025-05-14,株式会社Ｍ’ｓ,,株式会社,東京都,港区,新橋５丁目１３番６号汐留英テラス４階,,13,103,1050004,,,,,,,2025-05-14,1,,,,,エムズ,0
32,1010401190264,新規,0,2025-05-14,2025-05-14,サイナーズ株式会社,,株式会社,東京都,港区,浜松町２丁目２番１５号浜松町ダイヤビル２階,,13,103,1050013,,,,,,,2025-05-14,1,,,,,サイナーズ,0
33,1010403035095,新規,0,2025-05-14,2025-05-14,ＧＲＥＥＮ　ＦＵＳＥ合同会社,,合同会社,東京都,港区,南青山３丁目１番３６号青山丸竹ビル６階,,13,103,1070062,,,,,,,2025-05-14,1,,,,,グリーンヒューズ,0
44,1010603011540,新規,0,2025-05-14,2025-05-14,合同会社コラード,,合同会社,東京都,墨田区,東駒形２丁目１４番２ハーモニーテラス東駒形１０１,,13,107,1300005,,,,,,,2025-05-14,1,,,,,コラード,0
46,1010701047692,新規,0,2025-05-14,2025-05-14,株式会社Ｍｏｅｉ,,株式会社,東京都,品川区,東品川２丁目５－６－１４０３,,13,109,1400002,,,,,,,2025-05-14,1,,,,,モエイ,0
47,1010701047701,新規,0,2025-05-14,2025-05-14,株式会社Ｃａｎｖａｓ,,株式会社,東京都,品川区,小山３丁目５番２２号,,13,109,1420062,,,,,,,2025-05-14,1,,,,,キャンバス,0
55,1010903009912,新規,0,2025-05-14,2025-05-14,合同会社青年,,合同会社,東京都,世田谷区,粕谷４丁目２１－１３,,13,112,1570063,,,,,,,2025-05-14,1,,,,,セイネン,0
58,1011001169260,新規,0,2025-05-14,2025-05-14,株式会社ＴＩＰＳ,,株式会社,東京都,渋谷区,道玄坂１丁目１６－６二葉ビル８ｂ,,13,113,1500043,,,,,,,2025-05-14,1,,,,,チップ,0
59,1011001169351,新規,0,2025-05-14,2025-05-14,株式会社ＳＦＩＤＡ,,株式会社,東京都,目黒区,八雲５丁目１１番２１号,,13,110,1520023,,,,,,,2025-05-14,1,,,,,スフィーダ,0
60,1011001169599,新規,0,2025-05-14,2025-05-14,株式会社ＬｉｎｋＧｏｌｄ,,株式会社,東京都,渋谷区,道玄坂１丁目１０番８号渋谷道玄坂東急ビル２Ｆ－Ｃ,,13,113,1500043,,,,,,,2025-05-14,1,,,,,リンクゴールド,0
61,1011001169673,新規,0,2025-05-14,2025-05-14,信和株式会社,,株式会社,東京都,目黒区,目黒本町５丁目２０番７号ＫＯＫＩＯｆｆｉｃｅ武蔵小山,,13,110,1520002,,,,,,,2025-05-14,1,,,,,シンワ,0
62,1011003021535,新規,0,2025-05-14,2025-05-14,ゼファーソリューションズ合同会社,,合同会社,東京都,渋谷区,道玄坂１丁目１０番８号渋谷道玄坂東急ビル２Ｆ－Ｃ,,13,113,1500043,,,,,,,2025-05-14,1,,,,,ゼファーソリューションズ,0
63,1011003021618,新規,0,2025-05-14,2025-05-14,合同会社共栄リンクス,,合同会社,東京都,渋谷区,神南１丁目１１－４ＦＰＧリンクス神南５階,,13,113,1500041,,,,,,,2025-05-14,1,,,,,キョウエイリンクス,0
64,1011003021642,新規,0,2025-05-14,2025-05-14,ワイスクエアードジャパン合同会社,,合同会社,東京都,渋谷区,道玄坂１丁目１０番８号渋谷道玄坂東急ビル２Ｆ－Ｃ,,13,113,1500043,,,,,,,2025-05-14,1,,,,,ワイスクエアードジャパン,0
71,1011101111502,新規,0,2025-05-14,2025-05-14,株式会社ＡＬＢＡＬＩＺＥ,,株式会社,東京都,新宿区,西新宿３丁目３番１３号西新宿水間ビル２Ｆ,,13,104,1600023,,,,,,,2025-05-14,1,,,,,アルバライズ,0
72,1011101111691,新規,0,2025-05-14,2025-05-14,株式会社ＮＡＤＺ,,株式会社,東京都,新宿区,西落合４丁目９番１－１００１号,,13,104,1610031,,,,,,,2025-05-14,1,,,,,ナッズ,0
78,1011303005535,新規,0,2025-05-14,2025-05-14,ＣＯＮＴＩＮＵＵＭ合同会社,,合同会社,東京都,杉並区,和泉３丁目６１－３３,,13,115,1680063,,,,,,,2025-05-14,1,,,,,,0
80,1011501032050,新規,0,2025-05-14,2025-05-14,株式会社Ｐｅｃｏ,,株式会社,東京都,北区,西ケ原４丁目４０番１２号３０１号室,,13,117,1140024,,,,,,,2025-05-14,1,,,,,ピコ,0
84,1011705001891,新規,0,2025-05-14,2025-05-14,特定非営利活動法人ＩＮＤＩＡ　ＪＡＰＡＮ　ＳＯＣＩＥＴＹ　ＦＯＲ　ＳＣＩＥＮＣＥ　ＡＮＤ　ＥＤＵＣＡＴＩＯＮ,,その他の設立登記法人,東京都,江戸川区,北葛西１丁目２１番２０号,,13,123,1340081,,,,,,,2025-05-14,1,,,,,インディアジャパンソサイエティフォーサイエンスアンドエデュケーション,0
91,1012801023961,新規,0,2025-05-14,2025-05-14,経営の伴走株式会社,,株式会社,東京都,立川市,幸町５丁目５７番地の１ロイヤルガーデン参番館１０１号,,13,202,1900002,,,,,,,2025-05-14,1,,,,,ケイエイノバンソウ,0
108,1020001162695,新規,0,2025-05-14,2025-05-14,株式会社大成工務店,,株式会社,神奈川県,横浜市青葉区,荏子田３丁目１２番地１５－２０５,,14,117,2250005,,,,,,,2025-05-14,1,,,,,タイセイコウムテン,0
109,1020001162828,新規,0,2025-05-14,2025-05-14,株式会社シッキム,,株式会社,神奈川県,川崎市川崎区,駅前本町１１番地２川崎フロンティアビル４階,,14,131,2100007,,,,,,,2025-05-14,1,,,,,シッキム,0
114,1020003028457,新規,0,2025-05-14,2025-05-14,合同会社キバレ,,合同会社,神奈川県,横浜市神奈川区,金港町５－１４クアドリフォリオ８階,,14,102,2210056,,,,,,,2025-05-14,1,,,,,キバレ,0
122,1021001085242,新規,0,2025-05-14,2025-05-14,さくら保険株式会社,,株式会社,神奈川県,藤沢市,藤沢５４８番地の１クラッシィハウス湘南藤沢１６１０号室,,14,205,2510052,,,,,,,2025-05-14,1,,,,,サクラホケン,0
123,1021003015981,新規,0,2025-05-14,2025-05-14,合同会社ＲｉＭｏＨｉ,,合同会社,神奈川県,厚木市,寿町２丁目１－１８ＢＩＺｃｏｍｆｏｒｔ本厚木１Ｆ１９,,14,212,2430003,,,,,,,2025-05-14,1,,,,,リモヒ,0
133,1030001166506,新規,0,2025-05-14,2025-05-14,株式会社森田工芸,,株式会社,埼玉県,春日部市,南中曽根３１８番地１４５,,11,214,3440048,,,,,,,2025-05-14,1,,,,,モリタコウゲイ,0
149,1040001138644,新規,0,2025-05-14,2025-05-14,ＴＯＳＴＡ株式会社,,株式会社,千葉県,千葉市稲毛区,作草部町１０２５番地１３作草部コーポ３０３号室,,12,103,2630014,,,,,,,2025-05-14,1,,,,,トスタ,0
152,1040003027523,新規,0,2025-05-14,2025-05-14,合同会社Ｙ’ｓ　ａｆｆｅｃｔｉｏｎ,,合同会社,千葉県,船橋市,海神町東１丁目１００４番地サンハイツ船橋海神１０１,,12,204,2730028,,,,,,,2025-05-14,1,,,,,ワイズアフェクション,0
159,1060001038198,新規,0,2025-05-14,2025-05-14,株式会社ランドオフィス,,株式会社,栃木県,栃木市,都賀町大橋２５６番地１,,09,203,3280106,,,,,,,2025-05-14,1,,,,,ランドオフィス,0
161,1060003005543,新規,0,2025-05-14,2025-05-14,合同会社かなで,,合同会社,栃木県,大田原市,美原１丁目２番１０号,,09,210,3240047,,,,,,,2025-05-14,1,,,,,カナデ,0
164,1080003003454,新規,0,2025-05-14,2025-05-14,ＲＭ　ＧＬＯＢＡＬ合同会社,,合同会社,静岡県,静岡市葵区,大岩本町３番２６号,,22,101,4200884,,,,,,,2025-05-14,1,,,,,アールエムグローバル,0
166,1090001019261,新規,0,2025-05-14,2025-05-14,澤坤日本株式会社,,株式会社,山梨県,南アルプス市,東南湖８７６番地１,,19,208,4000412,,,,,,,2025-05-14,1,,,,,ザワコンニッポン,0
170,1100001038598,新規,0,2025-05-14,2025-05-14,株式会社Ｌｉｆｉｎｉｔｙ,,株式会社,長野県,松本市,梓川倭７１０－３,,20,202,3901701,,,,,,,2025-05-14,1,,,,,ライフィニティ,0
185,1120001275289,新規,0,2025-05-14,2025-05-14,創智テック株式会社,,株式会社,大阪府,大阪市西成区,橘１丁目１１－２８オフィスポート橘３１０号室,,27,122,5570051,,,,,,,2025-05-14,1,,,,,ソウチテック,0
186,1120001275297,新規,0,2025-05-14,2025-05-14,株式会社ピューク,,株式会社,大阪府,大阪市中央区,安土町１丁目７－１３トヤマビル本館４階,,27,128,5410052,,,,,,,2025-05-14,1,,,,,ピューク,0
187,1120001275363,新規,0,2025-05-14,2025-05-14,山格農業株式会社,,株式会社,大阪府,大阪市住吉区,杉本１丁目９番１６号グランビルドアビコＩＩ３０５号室,00139152,27,120,5580022,,,,,,,2025-05-14,1,,,,,サンカクノウギョウ,0
188,1120001275413,新規,0,2025-05-14,2025-05-14,Ｓｈｉｆｔｉａ株式会社,,株式会社,大阪府,大阪市北区,本庄東２丁目５番２４－７０２号,,27,127,5310074,,,,,,,2025-05-14,1,,,,,シフティア,0
189,1120001275504,新規,0,2025-05-14,2025-05-14,株式会社ＮＡＮＫＡＩ,,株式会社,大阪府,大阪市中央区,難波５丁目１番６０号,,27,128,5420076,,,,,,,2025-05-14,1,,,,,ナンカイ,0
190,1120001275636,新規,0,2025-05-14,2025-05-14,株式会社ＭＡＲＨＡＢＡＮ,,株式会社,大阪府,大阪市中央区,千日前１丁目５番１９号１Ｆ,,27,128,5420074,,,,,,,2025-05-14,1,,,,,マルハバン,0
191,1120001275702,新規,0,2025-05-14,2025-05-14,株式会社アプワイド,,株式会社,大阪府,大阪市城東区,古市３丁目２３番２２号,,27,118,5360001,,,,,,,2025-05-14,1,,,,,アプワイド,0
192,1120001275900,新規,0,2025-05-14,2025-05-14,株式会社サード,,株式会社,大阪府,大阪市東住吉区,山坂３丁目１１番１１号,,27,121,5460035,,,,,,,2025-05-14,1,,,,,サード,0
197,1120003029379,新規,0,2025-05-14,2025-05-14,Ｈ．Ａ．Ｎ．Ｋ．合同会社,,合同会社,大阪府,大阪市北区,梅田１丁目１－３大阪駅前第３ビル２９階１－１－１号室,,27,127,5300001,,,,,,,2025-05-14,1,,,,,ハンク,0
198,1120003029420,新規,0,2025-05-14,2025-05-14,Ｍ・Ｓ・Ｔコンサルティング合同会社,,合同会社,大阪府,大阪市住吉区,帝塚山東１丁目１０番１９号,,27,120,5580054,,,,,,,2025-05-14,1,,,,,エムエスティコンサルティング,0
199,1120003029437,新規,0,2025-05-14,2025-05-14,合同会社マインド,,合同会社,大阪府,大阪市浪速区,大国３丁目９番２６－８０４号,,27,111,5560014,,,,,,,2025-05-14,1,,,,,マインド,0
203,1120101071679,新規,0,2025-05-14,2025-05-14,株式会社ＩＮＴＥＬＬＩＧＥＮＣＥ　ＦＵＴＵＲＥ,,株式会社,大阪府,松原市,天美南１丁目１０９－１０,,27,217,5800033,,,,,,,2025-05-14,1,,,,,インテリジェンスフューチャー,0
204,1120103006435,新規,0,2025-05-14,2025-05-14,合同会社グロウライズ電設,,合同会社,大阪府,富田林市,宮町１丁目２６０４番地７１０,,27,214,5840011,,,,,,,2025-05-14,1,,,,,グロウライズデンセツ,0
214,1120905006731,新規,0,2025-05-14,2025-05-14,一般社団法人育児担当保育協会,,その他の設立登記法人,大阪府,吹田市,広芝町９番１２号第１１マイダイビル６階,,27,205,5640052,,,,,,,2025-05-14,1,,,,,イクジタントウホイクキョウカイ,0
215,1122001039203,新規,0,2025-05-14,2025-05-14,株式会社山栄技建,,株式会社,大阪府,東大阪市,鳥居町５番５号,,27,227,5798035,,,,,,,2025-05-14,1,,,,,サンエイギケン,0
226,1140001138519,新規,0,2025-05-14,2025-05-14,株式会社ｎａｇｏｍｉ,,株式会社,兵庫県,川西市,萩原１丁目３番２－３号,,28,217,6660004,,,,,,,2025-05-14,1,,,,,ナゴミ,0
229,1140003022035,新規,0,2025-05-14,2025-05-14,合同会社タカトラマネジメント,,合同会社,兵庫県,西宮市,相生町３番２８ジオグランデ夙川相生町２１０号,,28,204,6620063,,,,,,,2025-05-14,1,,,,,タカトラマネジメント,0
236,1160001026754,新規,0,2025-05-14,2025-05-14,株式会社エムズリンク,,株式会社,滋賀県,大津市,柳が崎３番２－１５０６号,,25,201,5200022,,,,,,,2025-05-14,1,,,,,エムズリンク,0
250,1180001166796,新規,0,2025-05-14,2025-05-14,春風株式会社,,株式会社,愛知県,名古屋市守山区,小幡常燈１番４３号１階,,23,113,4630047,,,,,,,2025-05-14,1,,,,,ハルカゼ,0
251,1180001166813,新規,0,2025-05-14,2025-05-14,株式会社ＬｕｍｉＮｏｗ,,株式会社,愛知県,名古屋市中村区,名駅３丁目４－１０アルティメイト名駅１ｓｔ２階,,23,105,4500002,,,,,,,2025-05-14,1,,,,,ルミナウ,0
254,1180003028474,新規,0,2025-05-14,2025-05-14,合同会社ＮＯＡ,,合同会社,愛知県,名古屋市千種区,宮根台１丁目４番６号グリーンベル宮根台１００１号,,23,101,4640008,,,,,,,2025-05-14,1,,,,,エヌオーエー,0
255,1180003028482,新規,0,2025-05-14,2025-05-14,タナカ・コンサル合同会社,,合同会社,愛知県,名古屋市緑区,南大高２丁目３０１－１１３,,23,114,4598016,,,,,,,2025-05-14,1,,,,,タナカコンサル,0
260,1220001026681,新規,0,2025-05-14,2025-05-14,ティーアイエフプロジェクト株式会社,,株式会社,石川県,金沢市,材木町５番６号,,17,201,9200921,,,,,,,2025-05-14,1,,,,,ティーアイエフプロジェクト,0
270,1240003007208,新規,0,2025-05-14,2025-05-14,合同会社ダイハラホールディングス,,合同会社,広島県,呉市,上平原町１１番７号,,34,202,7370079,,,,,,,2025-05-14,1,,,,,ダイハラホールディングス,0
274,1260001040167,新規,0,2025-05-14,2025-05-14,株式会社ユアサホールディングス,,株式会社,岡山県,真庭市,西原１６６番地１,,33,214,7193105,,,,,,,2025-05-14,1,,,,,ユアサホールディングス,0
275,1260001040175,新規,0,2025-05-14,2025-05-14,株式会社津山環境,,株式会社,岡山県,津山市,杉宮７５５番地２,,33,203,7081215,,,,,,,2025-05-14,1,,,,,ツヤマカンキョウ,0
281,1290001109967,新規,0,2025-05-14,2025-05-14,株式会社ｃｏｃｏｎｙ,,株式会社,福岡県,宗像市,日の里９丁目２番地４,,40,220,8113425,,,,,,,2025-05-14,1,,,,,ココニー,0
294,1310001019602,新規,0,2025-05-14,2025-05-14,株式会社犬真,,株式会社,長崎県,対馬市,美津島町濃部１６２番地,,42,209,8171104,,,,,,,2025-05-14,1,,,,,ケンシン,0
296,1330001033196,新規,0,2025-05-14,2025-05-14,株式会社アルファプランニング,,株式会社,熊本県,熊本市北区,清水万石１丁目７番５１号,,43,105,8618068,,,,,,,2025-05-14,1,,,,,アルファプランニング,0
297,1330001033205,新規,0,2025-05-14,2025-05-14,株式会社ＭＩＩ,,株式会社,熊本県,宇城市,三角町三角浦１１５９番地３６,,43,213,8693207,,,,,,,2025-05-14,1,,,,,ミイ,0
312,1370001052572,新規,0,2025-05-14,2025-05-14,株式会社Ｅｃｈｏｒｉｓ,,株式会社,宮城県,仙台市青葉区,中央２丁目２－３０,,04,101,9800021,,,,,,,2025-05-14,1,,,,,エコリス,0
316,1380005012968,新規,0,2025-05-14,2025-05-14,土地家屋調査士法人檜森登記測量事務所,,その他の設立登記法人,福島県,伊達郡川俣町,大字鶴沢字川端２０番地の１,,07,308,9601406,,,,,,,2025-05-14,1,,,,,ヒモリトウキソクリョウジムショ,0
325,1430001094377,新規,0,2025-05-14,2025-05-14,株式会社オレンジ,,株式会社,北海道,江別市,大麻ひかり町２２番地の２,,01,217,0690847,,,,,,,2025-05-14,1,,,,,オレンジ,0
326,1430001094385,新規,0,2025-05-14,2025-05-14,株式会社ビームライトデザイン,,株式会社,北海道,滝川市,空知町１丁目６番２４号,,01,225,0730034,,,,,,,2025-05-14,1,,,,,ビームライトデザイン,0
329,1430003017658,新規,0,2025-05-14,2025-05-14,スキマ技研合同会社,,合同会社,北海道,札幌市中央区,南五条西１５丁目２‐３‐５０３,,01,101,0640805,,,,,,,2025-05-14,1,,,,,スキマギケン,0
332,1460103001708,新規,0,2025-05-14,2025-05-14,合同会社レヴノーブル,,合同会社,北海道,帯広市,西二十一条南４丁目１２－１２,,01,207,0802471,,,,,,,2025-05-14,1,,,,,レヴノーブル,0
334,1490003002019,新規,0,2025-05-14,2025-05-14,合同会社Ｔｉｇｅｒ　Ｓｈａｒｋ,,合同会社,高知県,高知市,帯屋町１丁目１４番８号,,39,201,7800841,,,,,,,2025-05-14,1,,,,,タイガーシャーク,0
336,1700150130137,新規,0,2025-05-14,2025-04-24,盛岡さんさ踊り実行委員会,,その他,岩手県,盛岡市,清水町１４－１２　盛岡商工会議所内,,03,201,0200875,,,,,,,2025-04-24,1,,,,,モリオカサンサオドリジツコウイインカイ,0
337,1700150130442,新規,0,2025-05-14,2025-05-14,ＣａｌｌＴｏｗｅｒ，Ｉｎｃ．,,外国会社等,東京都,中央区,日本橋３丁目９番１号　日本橋三丁目スクエア１１階,,13,102,1030027,アメリカ合衆国１９７１３デラウェア州ニューアーク、コンチネンタル・ドライブ１３１、スイート３０１,,,,,,2025-05-14,1,,,,,コールタワーインク,0
348,2010001254674,新規,0,2025-05-14,2025-05-14,東亜医療株式会社,,株式会社,東京都,文京区,本郷６丁目２－２平尾ビル１階,,13,105,1130033,,,,,,,2025-05-14,1,,,,,トウアイリョウ,0
349,2010001254740,新規,0,2025-05-14,2025-05-14,タンチジム株式会社,,株式会社,東京都,文京区,千石４丁目１４番９号,,13,105,1120011,,,,,,,2025-05-14,1,,,,,タンチジム,0
350,2010001254773,新規,0,2025-05-14,2025-05-14,福田産業株式会社,,株式会社,東京都,千代田区,神田須田町１丁目３０番地１－９１０号,,13,101,1010041,,,,,,,2025-05-14,1,,,,,フクダサンギョウ,0
351,2010001254939,新規,0,2025-05-14,2025-05-14,ＪＢＯ１０１株式会社,,株式会社,東京都,千代田区,霞が関３丁目２番１号,,13,101,1000013,,,,,,,2025-05-14,1,,,,,ジェイビーオーヒャクイチ,0
356,2010005040030,新規,0,2025-05-14,2025-05-14,一般財団法人日本科学未来財団,,その他の設立登記法人,東京都,中央区,日本橋本町３丁目７番２号,,13,102,1030023,,,,,,,2025-05-14,1,,,,,ニホンカガクミライザイダン,0
361,2010401190230,新規,0,2025-05-14,2025-05-14,ＳｅｎｔｉＴｅｃｈ株式会社,,株式会社,東京都,港区,南青山３丁目１番３６号青山丸竹ビル６Ｆ,,13,103,1070062,,,,,,,2025-05-14,1,,,,,センティテック,0
362,2010401190296,新規,0,2025-05-14,2025-05-14,株式会社ＣＯＮＮＳＥ,,株式会社,東京都,港区,南青山３丁目１番３６号青山丸竹ビル６階,,13,103,1070062,,,,,,,2025-05-14,1,,,,,コンセ,0
363,2010401190305,新規,0,2025-05-14,2025-05-14,Ｉｎｔｅｇｒｉｔｙ　Ｒｉｓｋ　Ｉｎｔｅｒｎａｔｉｏｎａｌ株式会社,,株式会社,東京都,港区,海岸１丁目２番２０号汐留ビルディング３階ＣＳＣＪａｐａｎＣｏｒｐｏｒａｔｅＳｅｒｖｉｃｅｓ株式会社内,,13,103,1050022,,,,,,,2025-05-14,1,,,,,インテグリティリスクインターナショナル,0
364,2010403035012,新規,0,2025-05-14,2025-05-14,合同会社ＫＳＫマネジメント,,合同会社,東京都,港区,新橋４丁目１４番１新橋ＡＵＮＢＬＤＧ４階,,13,103,1050004,,,,,,,2025-05-14,1,,,,,ケイエスケイマネジメント,0
365,2010403035086,新規,0,2025-05-14,2025-05-14,合同会社Ｓｅｃｏｎｄ　Ｃａｐｔｕｒｅ,,合同会社,東京都,港区,南青山６丁目９番２号日興児玉パレス３０４,,13,103,1070062,,,,,,,2025-05-14,1,,,,,セカンドキャプチャー,0
375,2010603011556,新規,0,2025-05-14,2025-05-14,ＨＡＫＵＥＩ合同会社,,合同会社,東京都,江東区,大島２丁目１５－３,,13,108,1360072,,,,,,,2025-05-14,1,,,,,ハクエイ,0
377,2010801036116,新規,0,2025-05-14,2025-05-14,株式会社０,,株式会社,東京都,大田区,西六郷４丁目１９－５,,13,111,1440056,,,,,,,2025-05-14,1,,,,,エン,0
382,2010901057350,新規,0,2025-05-14,2025-05-14,Ｂｒｉｄｇｅｂｕｉｌｄ株式会社,,株式会社,東京都,世田谷区,松原１丁目３８－２８松原片桐屋ビル,,13,112,1560043,,,,,,,2025-05-14,1,,,,,ブリッジビルド,0
384,2010903009911,新規,0,2025-05-14,2025-05-14,ヴァリー合同会社,,合同会社,東京都,世田谷区,粕谷４丁目１９－４ハイムピア１２－１０３,,13,112,1570063,,,,,,,2025-05-14,1,,,,,ヴァリー,0
401,2011001169318,新規,0,2025-05-14,2025-05-14,株式会社ｇｉｇｇｌｅ,,株式会社,東京都,渋谷区,道玄坂１丁目１０番８号渋谷道玄坂東急ビル２Ｆ－Ｃ,,13,113,1500043,,,,,,,2025-05-14,1,,,,,ギグル,0
402,2011001169672,新規,0,2025-05-14,2025-05-14,デリジェンス株式会社,,株式会社,東京都,渋谷区,円山町５番５号Ｎａｖｉ渋谷Ｖ３階,,13,113,1500044,,,,,,,2025-05-14,1,,,,,デリジェンス,0
403,2011001169813,新規,0,2025-05-14,2025-05-14,株式会社シアターコリン,,株式会社,東京都,渋谷区,神山町１０番８号,,13,113,1500047,,,,,,,2025-05-14,1,,,,,シアターコリン,0
407,2011103015873,新規,0,2025-05-14,2025-05-14,プラナリアム合同会社,,合同会社,東京都,新宿区,北新宿２丁目２１番２－７１０号,,13,104,1690074,,,,,,,2025-05-14,1,,,,,プラナリアム,0
408,2011201026244,新規,0,2025-05-14,2025-05-14,株式会社アストンホーム,,株式会社,東京都,中野区,南台５丁目１５番９号プリウス方南町アニマーレ１０５,,13,114,1640014,,,,,,,2025-05-14,1,,,,,アストンホーム,0
415,2011501032025,新規,0,2025-05-14,2025-05-14,小山株式会社,,株式会社,東京都,荒川区,東尾久２丁目２－９三祥ビル２３３室,,13,118,1160012,,,,,,,2025-05-14,1,,,,,コヤマ,0
428,2012301014378,新規,0,2025-05-14,2025-05-14,株式会社ＧｏｏｔＨａｎｄｓ,,株式会社,東京都,町田市,鶴間４丁目１８番１‐７０２号,,13,209,1940004,,,,,,,2025-05-14,1,,,,,グートハンズ,0
429,2012401043087,新規,0,2025-05-14,2025-05-14,ＳＴＡＲ　ＧＬＡＳＳ株式会社,,株式会社,東京都,調布市,多摩川２丁目１５番地１,,13,208,1820025,,,,,,,2025-05-14,1,,,,,,0
431,2012403007123,新規,0,2025-05-14,2025-05-14,Ｔｕｔｉｅ合同会社,,合同会社,東京都,三鷹市,下連雀５丁目１番１－３４０号,,13,204,1810013,,,,,,,2025-05-14,1,,,,,チュティエ,0
434,2012801023960,新規,0,2025-05-14,2025-05-14,新田商事株式会社,,株式会社,東京都,立川市,錦町５丁目３番１０号,,13,202,1900022,,,,,,,2025-05-14,1,,,,,ニッタショウジ,0
440,2013301054158,新規,0,2025-05-14,2025-05-14,株式会社ＧＥＮＥＲＡＴＩＯＮＳ,,株式会社,東京都,豊島区,巣鴨２丁目１５番５ー９０４号,,13,116,1700002,,,,,,,2025-05-14,1,,,,,ジェネレーションズ,0
441,2013301054257,新規,0,2025-05-14,2025-05-14,アリエスホテル＆リゾート株式会社,,株式会社,東京都,豊島区,池袋２丁目３９番１号コア星望ビル６階,,13,116,1710014,,,,,,,2025-05-14,1,,,,,アリエスホテルアンドリゾート,0
447,2020001162694,新規,0,2025-05-14,2025-05-14,株式会社小林架設工業,,株式会社,神奈川県,横浜市港南区,日野６丁目３番４号オネスティ１０２,,14,111,2340051,,,,,,,2025-05-14,1,,,,,コバヤシカセツコウギョウ,0
448,2020001162736,新規,0,2025-05-14,2025-05-14,ライフリスタート株式会社,,株式会社,神奈川県,川崎市中原区,下沼部１９１８番地１２ＢＯＫＵ１０１号室,,14,133,2110011,,,,,,,2025-05-14,1,,,,,ライフリスタート,0
449,2020001162760,新規,0,2025-05-14,2025-05-14,株式会社Ｔ・Ｏ・Ｔ,,株式会社,神奈川県,横浜市港北区,新吉田東８丁目３６番１２－１号,,14,109,2230058,,,,,,,2025-05-14,1,,,,,ティーオーティー,0
450,2020001162819,新規,0,2025-05-14,2025-05-14,株式会社ｂｉａｎｃａ,,株式会社,神奈川県,横浜市港北区,綱島西３丁目１番１６号,,14,109,2230053,,,,,,,2025-05-14,1,,,,,ビアンカ,0
451,2020001162827,新規,0,2025-05-14,2025-05-14,株式会社クローバーの木,,株式会社,神奈川県,横浜市旭区,南希望が丘４４番地６,,14,112,2410824,,,,,,,2025-05-14,1,,,,,クローバーノキ,0
452,2020001162843,新規,0,2025-05-14,2025-05-14,青和株式会社,,株式会社,神奈川県,川崎市高津区,二子５丁目９番５号高橋ビル２階２Ｅ,,14,134,2130002,,,,,,,2025-05-14,1,,,,,セイワ,0
458,2021001085084,新規,0,2025-05-14,2025-05-14,ＭＡＰ株式会社,,株式会社,神奈川県,伊勢原市,日向１２７３番６号,,14,214,2591101,,,,,,,2025-05-14,1,,,,,マップ,0
459,2021001085191,新規,0,2025-05-14,2025-05-14,リッツカット株式会社,,株式会社,神奈川県,藤沢市,鵠沼海岸７丁目１８番１４～８号,00139142,14,205,2510037,,,,,,,2025-05-14,1,,,,,リッツカット,0
460,2021001085225,新規,0,2025-05-14,2025-05-14,大坂サービス株式会社,,株式会社,神奈川県,伊勢原市,三ノ宮１７７５番地の１,,14,214,2591103,,,,,,,2025-05-14,1,,,,,オオサカサービス,0
463,2021003015980,新規,0,2025-05-14,2025-05-14,Ｇ４光合同会社,,合同会社,神奈川県,厚木市,妻田南１丁目１７番３３号コート中野２０３,,14,212,2430814,,,,,,,2025-05-14,1,,,,,ジヨンヒカリ,0
476,2030003026756,新規,0,2025-05-14,2025-05-14,合同会社ａｎｄ　Ｆ,,合同会社,埼玉県,さいたま市見沼区,大字小深作３９３番地８,,11,104,3370005,,,,,,,2025-05-14,1,,,,,アンドエフ,0
483,2040001138742,新規,0,2025-05-14,2025-05-14,株式会社Ｒａｙｐａｔｈ,,株式会社,千葉県,鎌ケ谷市,初富１３７－１４３,,12,224,2730121,,,,,,,2025-05-14,1,,,,,レイパス,0
484,2040001138750,新規,0,2025-05-14,2025-05-14,株式会社ＥＭＳ,,株式会社,千葉県,柏市,東上町２番２８号第一水戸屋ビル３階,,12,217,2770011,,,,,,,2025-05-14,1,,,,,イーエムエス,0
485,2040001138800,新規,0,2025-05-14,2025-05-14,株式会社ファントム,,株式会社,千葉県,松戸市,殿平賀５６番地,,12,207,2700004,,,,,,,2025-05-14,1,,,,,ファントム,0
498,2050001056654,新規,0,2025-05-14,2025-05-14,株式会社ＸｅｎｏｓＴｒａｄｉｎｇ,,株式会社,茨城県,鹿嶋市,大字志崎８３番地１４３,,08,222,3112207,,,,,,,2025-05-14,1,,,,,ゼノストレーディング,0
504,2060005010342,新規,0,2025-05-14,2025-05-14,一般社団法人Ｒｅｌｉｆｅ,,その他の設立登記法人,栃木県,佐野市,飛駒町２１５２番地,,09,204,3270231,,,,,,,2025-05-14,1,,,,,リライフ,0
507,2070003005921,新規,0,2025-05-14,2025-05-14,合同会社おひさま,,合同会社,群馬県,前橋市,昭和町３丁目２７番２１－１号,,10,201,3710034,,,,,,,2025-05-14,1,,,,,,0
508,2070005010390,新規,0,2025-05-14,2025-05-14,一般社団法人第弐ワークス,,その他の設立登記法人,群馬県,太田市,飯塚町８０９番地２,,10,205,3730817,,,,,,,2025-05-14,1,,,,,ダイニワークス,0
514,2090001019260,新規,0,2025-05-14,2025-05-14,梶原建築株式会社,,株式会社,山梨県,富士吉田市,向原１丁目２１番６号,,19,202,4030018,,,,,,,2025-05-14,1,,,,,,0
515,2090001019277,新規,0,2025-05-14,2025-05-14,株式会社ＤＴＮ,,株式会社,山梨県,甲府市,丸の内２丁目１番１号開柳堂土屋ビル地下１階,,19,201,4000031,,,,,,,2025-05-14,1,,,,,ディーティーエヌ,0
516,2090003002818,新規,0,2025-05-14,2025-05-14,ＹＩＬＡ　Ｊａｐａｎ合同会社,,合同会社,山梨県,上野原市,上野原２１１８番地,,19,212,4090112,,,,,,,2025-05-14,1,,,,,イラジャパン,0
519,2100001038597,新規,0,2025-05-14,2025-05-14,成和株式会社,,株式会社,長野県,松本市,寿台７丁目１０番１１号,,20,202,3990025,,,,,,,2025-05-14,1,,,,,セイワ,0
522,2100003008152,新規,0,2025-05-14,2025-05-14,合同会社外山インベストメント,,合同会社,長野県,岡谷市,長地片間町２丁目４－１６,,20,204,3940084,,,,,,,2025-05-14,1,,,,,トヤマインベストメント,0
523,2100003008160,新規,0,2025-05-14,2025-05-14,合同会社みくまり院,,合同会社,長野県,諏訪郡富士見町,富士見３７８５－３,,20,362,3990211,,,,,,,2025-05-14,1,,,,,ミクマリイン,0
524,2100005013349,新規,0,2025-05-14,2025-05-14,協同組合いいコネワークス,,その他の設立登記法人,長野県,上水内郡飯綱町,大字赤塩２４８９番地,,20,590,3891203,,,,,,,2025-05-14,1,,,,,イイコネワークス,0
542,2120001275395,新規,0,2025-05-14,2025-05-14,Ｒ２トレーディング株式会社,,株式会社,大阪府,大阪市東住吉区,南田辺１丁目２番２７号,,27,121,5460033,,,,,,,2025-05-14,1,,,,,アールツートレーディング,0
543,2120001275494,新規,0,2025-05-14,2025-05-14,株式会社ＨｅｒＰｌｕｓ,,株式会社,大阪府,大阪市阿倍野区,相生通１丁目４番２－２１０号,,27,119,5450033,,,,,,,2025-05-14,1,,,,,ハープラス,0
544,2120001275602,新規,0,2025-05-14,2025-05-14,アッパーコンサルティング株式会社,,株式会社,大阪府,大阪市北区,梅田１丁目１－３大阪駅前第３ビル２９階１－１－１号室,,27,127,5300001,,,,,,,2025-05-14,1,,,,,アッパーコンサルティング,0
547,2120003029221,新規,0,2025-05-14,2025-05-14,合同会社ＴＭＹ,,合同会社,大阪府,大阪市西区,川口１丁目１－１１－７０２,,27,106,5500021,,,,,,,2025-05-14,1,,,,,ティーエムワイ,0
548,2120003029353,新規,0,2025-05-14,2025-05-14,ＮＧＵＹＥＮ　ＤＵＯＮＧ合同会社,,合同会社,大阪府,大阪市浪速区,下寺１丁目３－１６オリエンス夕陽丘３１０号,,27,111,5560001,,,,,,,2025-05-14,1,,,,,グエンズオン,0
549,2120003029378,新規,0,2025-05-14,2025-05-14,ＹＧＭＴ合同会社,,合同会社,大阪府,枚方市,杉山手１丁目３０番５号,,27,210,5730118,,,,,,,2025-05-14,1,,,,,ワイジエムティー,0
560,2122003003189,新規,0,2025-05-14,2025-05-14,百道イノベーション合同会社,,合同会社,大阪府,東大阪市,瓜生堂２丁目２６－４、１０１号室,,27,227,5780946,,,,,,,2025-05-14,1,,,,,ヒャクドウイノベーション,0
563,2130005017363,新規,0,2025-05-14,2025-05-14,一般社団法人ＳＯＬ’ＴＡ,,その他の設立登記法人,京都府,京都市上京区,寺町通今出川上る６丁目不動前町１番地２,,26,102,6020807,,,,,,,2025-05-14,1,,,,,ソルタ,0
574,2140003022034,新規,0,2025-05-14,2025-05-14,合同会社フジワークス,,合同会社,兵庫県,神戸市垂水区,五色山２丁目１番３８号,,28,108,6550035,,,,,,,2025-05-14,1,,,,,フジワークス,0
575,2140003022042,新規,0,2025-05-14,2025-05-14,合同会社ハッチ,,合同会社,兵庫県,神戸市灘区,山田町３丁目１番１５号,,28,102,6570064,,,,,,,2025-05-14,1,,,,,ハッチ,0
576,2140003022059,新規,0,2025-05-14,2025-05-14,合同会社ＯＭＳ,,合同会社,兵庫県,尼崎市,立花町４丁目５番１１号ナンバビル２Ｆ,,28,202,6610025,,,,,,,2025-05-14,1,,,,,オーエムエス,0
583,2160003003478,新規,0,2025-05-14,2025-05-14,合同会社縁結,,合同会社,滋賀県,大津市,関津４丁目１６番１４号,,25,201,5202277,,,,,,,2025-05-14,1,,,,,エンユウ,0
597,2180003028465,新規,0,2025-05-14,2025-05-14,ＭｔｏＹ合同会社,,合同会社,愛知県,名古屋市北区,金城１丁目２中富住宅Ｄ‐１３１１,,23,103,4620847,,,,,,,2025-05-14,1,,,,,エムトワイ,0
605,2200001043785,新規,0,2025-05-14,2025-05-14,株式会社ハチコジ,,株式会社,岐阜県,土岐市,泉町大富２４２番地の７,,21,212,5095132,,,,,,,2025-05-14,1,,,,,ハチコジ,0
617,2240005015942,新規,0,2025-05-14,2025-05-14,特定非営利活動法人ＡＮＯＮＹＭＯＵＳ,,その他の設立登記法人,広島県,府中市,府川町１４－１,,34,208,7260004,,,,,,,2025-05-14,1,,,,,アノニマス,0
621,2260005011477,新規,0,2025-05-14,2025-05-14,一般社団法人日本臨床ライフサポート協会,,その他の設立登記法人,岡山県,備前市,東片上４５５番地３,,33,211,7050022,,,,,,,2025-05-14,1,,,,,ニホンリンショウライフサポートキョウカイ,0
627,2290001109933,新規,0,2025-05-14,2025-05-14,株式会社ＬＩＡ　ＤＥＳＩＧＮ,,株式会社,福岡県,福岡市中央区,高砂２丁目１７番２号ＯＡＫＶＩＬＬＡ２０１号室,,40,133,8100011,,,,,,,2025-05-14,1,,,,,リアデザイン,0
628,2290001110016,新規,0,2025-05-14,2025-05-14,株式会社ペントハウス,,株式会社,福岡県,福岡市博多区,上川端町１０－２５２号,,40,132,8120026,,,,,,,2025-05-14,1,,,,,ペントハウス,0
632,2290801031543,新規,0,2025-05-14,2025-05-14,株式会社ＫＮＯＴ,,株式会社,福岡県,北九州市小倉北区,魚町４丁目３番８号モナトリエ１Ｆ,,40,106,8020006,,,,,,,2025-05-14,1,,,,,ノット,0
634,2300003002283,新規,0,2025-05-14,2025-05-14,合同会社Ｈａｎｂａｉ　Ｈｉｄｅｓ,,合同会社,佐賀県,佐賀市,神野西１丁目４番２３－４０５号,,41,201,8400805,,,,,,,2025-05-14,1,,,,,ハンバイハイズ,0
638,2320003004658,新規,0,2025-05-14,2025-05-14,合同会社玉藻庵,,合同会社,大分県,由布市,湯布院町川上８８５番地４,,44,213,8795102,,,,,,,2025-05-14,1,,,,,タマモアン,0
647,2340001027329,新規,0,2025-05-14,2025-05-14,株式会社ＴＨＥ　ＳＣＥＮＥ,,株式会社,鹿児島県,大島郡瀬戸内町,大字蘇刈９７０番地,,46,525,8941523,,,,,,,2025-05-14,1,,,,,ザシーン,0
648,2350001019531,新規,0,2025-05-14,2025-05-14,ローカルブランディング株式会社,,株式会社,宮崎県,宮崎市,橘通東４丁目１番４号河北ビル１Ｆ,,45,201,8800805,,,,,,,2025-05-14,1,,,,,ローカルブランディング,0
656,2380003006038,新規,0,2025-05-14,2025-05-14,合同会社オクタグラム,,合同会社,福島県,いわき市,平字愛谷町二丁目８－３,,07,204,9708026,,,,,,,2025-05-14,1,,,,,オクタグラム,0
662,2420001019128,新規,0,2025-05-14,2025-05-14,株式会社オサライナー,,株式会社,青森県,青森市,大字油川字浪岸４２番地４５,,02,201,0380059,,,,,,,2025-05-14,1,,,,,オサライナー,0
669,2430003017624,新規,0,2025-05-14,2025-05-14,合同会社カムイ,,合同会社,北海道,札幌市南区,澄川四条１丁目４番１５号ビバ澄川２０７号,,01,106,0050004,,,,,,,2025-05-14,1,,,,,カムイ,0
670,2430003017640,新規,0,2025-05-14,2025-05-14,合同会社田中自動車,,合同会社,北海道,札幌市北区,篠路町上篠路１０９番地１６０,,01,102,0028052,,,,,,,2025-05-14,1,,,,,タナカジドウシャ,0
675,2470001020709,新規,0,2025-05-14,2025-05-14,株式会社ｓｏｌｅｉｌ,,株式会社,香川県,丸亀市,津森町２１７番地,,37,202,7630052,,,,,,,2025-05-14,1,,,,,ソレイユ,0
679,2490003002018,新規,0,2025-05-14,2025-05-14,合同会社やいろの杜,,合同会社,高知県,高知市,若草町８番１号,,39,201,7808081,,,,,,,2025-05-14,1,,,,,ヤイロノモリ,0
682,2700150108710,新規,0,2025-05-14,2022-05-13,Ｋｕｎｓｔ　Ｈａｕｓ,,その他,岩手県,盛岡市,上太田中屋敷７６,,03,201,0200053,,,,,,,2022-05-13,1,,,,,クンストハウス,0
683,2700150130441,新規,0,2025-05-14,2025-05-14,ＨＩＴＡＧ　ＥＮＴＥＲＰＲＩＳＥＳ,,外国会社等,千葉県,千葉市若葉区,高根町９５７－１－２,,12,104,2650061,スリランカ民主社会主義共和国、エラウル、プンナクダロード、２００,,,,,,2025-05-14,1,,,,,ヒタギエンタープライセス,0
701,3010001254392,新規,0,2025-05-14,2025-05-14,株式会社ケンオウホールディングス,,株式会社,東京都,千代田区,神田須田町２丁目２５番ＧＹＢ秋葉原５階,,13,101,1010041,,,,,,,2025-05-14,1,,,,,ケンオウホールディングス,0
707,3010003047349,新規,0,2025-05-14,2025-05-14,合同会社ＡＴロジスティクス,,合同会社,東京都,千代田区,丸の内１丁目４番１号東京共同会計事務所内,,13,101,1000005,,,,,,,2025-05-14,1,,,,,エーティーロジスティクス,0
717,3010601067277,新規,0,2025-05-14,2025-05-14,楽＿ジャパン株式会社,00139156,株式会社,東京都,江東区,豊洲６丁目２番３１－１９１７号,,13,108,1350061,,,,,,,2025-05-14,1,,,,,ラクキンジャパン,0
718,3010601067285,新規,0,2025-05-14,2025-05-14,Ｐｏｌａｒｉｑｕｅ株式会社,,株式会社,東京都,江東区,猿江２丁目１－７－３０８,,13,108,1350003,,,,,,,2025-05-14,1,,,,,ポラリック,0
719,3010605004458,新規,0,2025-05-14,2025-05-14,社会保険労務士法人三浦事務所,,その他の設立登記法人,東京都,江東区,大島３丁目１番１１号,,13,108,1360072,,,,,,,2025-05-14,1,,,,,ミウラジムショ,0
726,3010701047682,新規,0,2025-05-14,2025-05-14,グランツ株式会社,,株式会社,東京都,品川区,上大崎２丁目１８番２５号,,13,109,1410021,,,,,,,2025-05-14,1,,,,,グランツ,0
741,3011001169374,新規,0,2025-05-14,2025-05-14,株式会社３,,株式会社,東京都,渋谷区,千駄ヶ谷５丁目３３番１７号,,13,113,1510051,,,,,,,2025-05-14,1,,,,,スリー,0
742,3011001169572,新規,0,2025-05-14,2025-05-14,株式会社イーギア,,株式会社,東京都,目黒区,中町２丁目１４番２号,,13,110,1530065,,,,,,,2025-05-14,1,,,,,イーギア,0
745,3011003021533,新規,0,2025-05-14,2025-05-14,合同会社Ｋ＆Ｋ,,合同会社,東京都,渋谷区,道玄坂１丁目１０番８号渋谷道玄坂東急ビル２Ｆ－Ｃ,,13,113,1500043,,,,,,,2025-05-14,1,,,,,ケーアンドケー,0
754,3011101111665,新規,0,2025-05-14,2025-05-14,株式会社エスペランサ,,株式会社,東京都,新宿区,西新宿３丁目３番１３号西新宿水間ビル２Ｆ,,13,104,1600023,,,,,,,2025-05-14,1,,,,,エスペランサ,0
755,3011101111673,新規,0,2025-05-14,2025-05-14,Ｒａｚｅｒ　Ｇｏｌｄ　Ｊａｐａｎ株式会社,,株式会社,東京都,新宿区,新宿４丁目１－６，ＪＲ新宿ミライナタワー１８階,,13,104,1600022,,,,,,,2025-05-14,1,,,,,レイザーゴールドジャパン,0
756,3011101111780,新規,0,2025-05-14,2025-05-14,株式会社Ｆｕｎｄ　ｗｉｔｈ,,株式会社,東京都,新宿区,西新宿３丁目３番地１３号西新宿水間ビル２Ｆ,,13,104,1600023,,,,,,,2025-05-14,1,,,,,ファンドウィズ,0
758,3011103015872,新規,0,2025-05-14,2025-05-14,三共合同会社,,合同会社,東京都,新宿区,北新宿２丁目１０番１２号,,13,104,1690074,,,,,,,2025-05-14,1,,,,,サンキョウ,0
767,3011301030558,新規,0,2025-05-14,2025-05-14,株式会社さかづき,,株式会社,東京都,杉並区,西荻北３丁目１番８エステート西荻５０２号,,13,115,1670042,,,,,,,2025-05-14,1,,,,,サカヅキ,0
772,3011501032057,新規,0,2025-05-14,2025-05-14,株式会社ｃｕｏｒｅ,,株式会社,東京都,荒川区,南千住４丁目７番３－１１０２号,,13,118,1160003,,,,,,,2025-05-14,1,,,,,,0
776,3011701028326,新規,0,2025-05-14,2025-05-14,Ａｂｏｕｔ　Ｔｈｅ　Ｎｅｗ株式会社,,株式会社,東京都,江戸川区,東葛西２丁目３２番４号２０２,,13,123,1340084,,,,,,,2025-05-14,1,,,,,アバウトザニュー,0
777,3011701028334,新規,0,2025-05-14,2025-05-14,株式会社ＨＡロジスティクス,,株式会社,東京都,江戸川区,北葛西２丁目２７番１０号,,13,123,1340081,,,,,,,2025-05-14,1,,,,,エイチエーロジスティックス,0
778,3011703004234,新規,0,2025-05-14,2025-05-14,ヒューマインド合同会社,,合同会社,東京都,江戸川区,春江町５丁目２６番地７３シリエージョＷ棟２０２,,13,123,1340003,,,,,,,2025-05-14,1,,,,,ヒューマインド,0
783,3012401043086,新規,0,2025-05-14,2025-05-14,株式会社三六工房,,株式会社,東京都,調布市,国領町８丁目４番地１、Ｉ－４０４,,13,208,1820022,,,,,,,2025-05-14,1,,,,,サンロクコウボウ,0
793,3013301054140,新規,0,2025-05-14,2025-05-14,株式会社ＫＯＵＮ,,株式会社,東京都,豊島区,目白３丁目１４－６ＨＡＲＶＥＹ目白２Ｆ,,13,116,1710031,,,,,,,2025-05-14,1,,,,,コウウン,0
801,3020001162784,新規,0,2025-05-14,2025-05-14,ＡＡＶＡ株式会社,,株式会社,神奈川県,川崎市多摩区,西生田５丁目６－８,,14,135,2140037,,,,,,,2025-05-14,1,,,,,アーバ,0
802,3020001162792,新規,0,2025-05-14,2025-05-14,豪志工業株式会社,,株式会社,神奈川県,横浜市金沢区,六浦１丁目２番３３－５０４号,,14,108,2360031,,,,,,,2025-05-14,1,,,,,タケシコウギョウ,0
804,3020003028232,新規,0,2025-05-14,2025-05-14,アヴニール合同会社,,合同会社,神奈川県,横浜市旭区,左近山１９９７番地７左近山団地２街区１４棟１０４号,,14,112,2410831,,,,,,,2025-05-14,1,,,,,アヴニール,0
805,3020003028397,新規,0,2025-05-14,2025-05-14,合同会社ニコット,,合同会社,神奈川県,横浜市西区,北幸２丁目１０番４８号むつみビル３階,,14,103,2200004,,,,,,,2025-05-14,1,,,,,ニコット,0
806,3020003028422,新規,0,2025-05-14,2025-05-14,合同会社多磨氣,,合同会社,神奈川県,横浜市神奈川区,片倉５丁目３８番７－２号,,14,102,2210865,,,,,,,2025-05-14,1,,,,,タマキ,0
807,3020003028430,新規,0,2025-05-14,2025-05-14,合同会社Ｒｅａｌ　Ｃｒａｆｔ　Ｒｏｏｍ,,合同会社,神奈川県,川崎市高津区,溝口３丁目１番１０号ＭＴＴビル４０１,,14,134,2130001,,,,,,,2025-05-14,1,,,,,リアルクラフトルーム,0
808,3020003028447,新規,0,2025-05-14,2025-05-14,合同会社Ｄ＆Ｔ,,合同会社,神奈川県,川崎市川崎区,砂子１丁目２番４号,,14,131,2100006,,,,,,,2025-05-14,1,,,,,ディーアンドティー,0
809,3020003028463,新規,0,2025-05-14,2025-05-14,ｅｙｊｃ合同会社,,合同会社,神奈川県,横浜市戸塚区,名瀬町７６３番地３東戸塚第一ハイツ３０４号,,14,110,2450051,,,,,,,2025-05-14,1,,,,,イーワイジェイシー,0
810,3020003028471,新規,0,2025-05-14,2025-05-14,合同会社殿山,,合同会社,神奈川県,横浜市港北区,日吉本町１丁目２９番９号１ーＡ,,14,109,2230062,,,,,,,2025-05-14,1,,,,,トノヤマ,0
817,3021001085224,新規,0,2025-05-14,2025-05-14,株式会社Ｌａｎｉｋａｉ　Ｒｅｓｏｒｔ,,株式会社,神奈川県,大和市,西鶴間２丁目５番１５号,,14,213,2420005,,,,,,,2025-05-14,1,,,,,ラニカイリゾート,0
819,3021003015996,新規,0,2025-05-14,2025-05-14,ケン・オー商会合同会社,,合同会社,神奈川県,愛甲郡清川村,煤ヶ谷３２７８－１－２０４号,,14,402,2430112,,,,,,,2025-05-14,1,,,,,ケンオーショウカイ,0
827,3030001166529,新規,0,2025-05-14,2025-05-14,和光製薬株式会社,,株式会社,埼玉県,川口市,芝富士１丁目１０－２２ハーティヴィラ芝富士３Ｆ,,11,203,3330854,,,,,,,2025-05-14,1,,,,,ワコウセイヤク,0
837,3040001138758,新規,0,2025-05-14,2025-05-14,みらいリンク株式会社,,株式会社,千葉県,香取市,返田５８２番地２,,12,236,2870027,,,,,,,2025-05-14,1,,,,,ミライリンク,0
838,3040001138782,新規,0,2025-05-14,2025-05-14,株式会社味の駅,,株式会社,千葉県,木更津市,港南台１丁目２３番地２,,12,206,2920827,,,,,,,2025-05-14,1,,,,,アジノエキ,0
839,3040001138799,新規,0,2025-05-14,2025-05-14,株式会社オフザチャート,,株式会社,千葉県,千葉市中央区,本町２丁目７番７号,,12,101,2600012,,,,,,,2025-05-14,1,,,,,オフザチャート,0
845,3050001056629,新規,0,2025-05-14,2025-05-14,根柄株式会社,,株式会社,茨城県,石岡市,嘉良寿理２０７番地,,08,205,3150114,,,,,,,2025-05-14,1,,,,,ネガラ,0
849,3060005010341,新規,0,2025-05-14,2025-05-14,税理士法人ＴＭＣ,,その他の設立登記法人,栃木県,那須塩原市,大原間西１丁目１０番地６,,09,213,3293157,,,,,,,2025-05-14,1,,,,,ティーエムシー,0
854,3080001026934,新規,0,2025-05-14,2025-05-14,株式会社オフィル,,株式会社,静岡県,静岡市葵区,竜南３丁目７番１３－６号,,22,101,4200804,,,,,,,2025-05-14,1,,,,,オフィル,0
856,3080003003452,新規,0,2025-05-14,2025-05-14,合同会社ＷａｔａＰｒｏｊｅｃｔ,,合同会社,静岡県,焼津市,大覚寺１丁目１７番地の１２エステート山王４０２,,22,212,4250088,,,,,,,2025-05-14,1,,,,,ワタプロジェクト,0
863,3090005007707,新規,0,2025-05-14,2025-05-14,特定非営利活動法人トップファンやまなし,,その他の設立登記法人,山梨県,甲府市,丸の内２丁目２９番６号クロリスダイタ４Ｆ,,19,201,4000031,,,,,,,2025-05-14,1,,,,,トップファンヤマナシ,0
864,3100003008151,新規,0,2025-05-14,2025-05-14,合同会社Ｃ＆Ｓ,,合同会社,長野県,大町市,大町２６３４番地６,,20,212,3980002,,,,,,,2025-05-14,1,,,,,シーアンドエス,0
874,3120001275106,新規,0,2025-05-14,2025-05-14,株式会社ＯＵＥＮ,,株式会社,大阪府,大阪市城東区,中央２丁目３番２０－２４０１号,,27,118,5360005,,,,,,,2025-05-14,1,,,,,オウエン,0
875,3120001275254,新規,0,2025-05-14,2025-05-14,株式会社禅園,,株式会社,大阪府,大阪市北区,曾根崎新地１丁目３－２３北新地ＦＯＯＤＥＡＲビル３Ｆ,,27,127,5300002,,,,,,,2025-05-14,1,,,,,ゼンエン,0
876,3120001275295,新規,0,2025-05-14,2025-05-14,ｓｏｌａｎａ株式会社,,株式会社,大阪府,大阪市東住吉区,住道矢田９丁目１４－２ＵＩＩＴ、Ｉ番館２０１号室,00139144,27,121,5460022,,,,,,,2025-05-14,1,,,,,ソラナ,0
877,3120001275452,新規,0,2025-05-14,2025-05-14,株式会社ＺＮＬジャパン,,株式会社,大阪府,大阪市城東区,鴫野西３丁目３番８号,,27,118,5360014,,,,,,,2025-05-14,1,,,,,ゼットエヌエルジャパン,0
878,3120001275460,新規,0,2025-05-14,2025-05-14,株式会社ハチドリズム,,株式会社,大阪府,大阪市中央区,谷町４丁目４番１７－１２０４号,,27,128,5400012,,,,,,,2025-05-14,1,,,,,ハチドリズム,0
879,3120001275790,新規,0,2025-05-14,2025-05-14,株式会社月森工業,,株式会社,大阪府,大阪市淀川区,三津屋北２丁目３番８号,,27,123,5320032,,,,,,,2025-05-14,1,,,,,ツキモリコウギョウ,0
882,3120003029360,新規,0,2025-05-14,2025-05-14,ヴィークホールディングス合同会社,,合同会社,大阪府,大阪市浪速区,日本橋西１丁目２番１７号,,27,111,5560004,,,,,,,2025-05-14,1,,,,,ヴィークホールディングス,0
883,3120003029377,新規,0,2025-05-14,2025-05-14,合同会社ＮＧＯＣ　ＴＨＯ,,合同会社,大阪府,大阪市東住吉区,湯里２丁目１３番地２－２０５号室,,27,121,5460013,,,,,,,2025-05-14,1,,,,,ゴックトー,0
884,3120003029385,新規,0,2025-05-14,2025-05-14,Ａｌｔｏｎｌｉｎｋ合同会社,,合同会社,大阪府,寝屋川市,梅が丘２丁目３６－２５,,27,215,5720803,,,,,,,2025-05-14,1,,,,,アルトンリンク,0
885,3120003029419,新規,0,2025-05-14,2025-05-14,リヴィルタ合同会社,,合同会社,大阪府,守口市,東光町１丁目１番５号,,27,209,5700035,,,,,,,2025-05-14,1,,,,,リヴィルタ,0
905,3130001079662,新規,0,2025-05-14,2025-05-14,株式会社北條工務店,,株式会社,京都府,京都市上京区,芦山寺通千本東入北玄蕃町４５番地７,,26,102,6028308,,,,,,,2025-05-14,1,,,,,ホウジョウコウムテン,0
911,3140001138491,新規,0,2025-05-14,2025-05-14,株式会社Ｌｏｔｓエンジニアリング,,株式会社,兵庫県,尼崎市,立花町４丁目４番７号,,28,202,6610025,,,,,,,2025-05-14,1,,,,,ロッツエンジニアリング,0
912,3140001138517,新規,0,2025-05-14,2025-05-14,株式会社億道国際,,株式会社,兵庫県,神戸市中央区,中山手通２丁目２１番２－３０１号,,28,110,6500004,,,,,,,2025-05-14,1,,,,,オクドウコクサイ,0
916,3140005027501,新規,0,2025-05-14,2025-05-14,弁護士法人こうのとり,,その他の設立登記法人,兵庫県,神戸市西区,糀台５丁目６番１号西区文化センタービル５階,,28,111,6512273,,,,,,,2025-05-14,1,,,,,コウノトリ,0
929,3180001166778,新規,0,2025-05-14,2025-05-14,ＤｅｅｐＴｉｋ株式会社,,株式会社,愛知県,名古屋市中区,栄３丁目２－３名古屋日興證券ビル４階,,23,106,4600008,,,,,,,2025-05-14,1,,,,,ディープティック,0
930,3180001166811,新規,0,2025-05-14,2025-05-14,ＦｏｕｒＳ　Ｗａｖｅ株式会社,,株式会社,愛知県,豊明市,栄町南舘３番地８０３,,23,229,4701168,,,,,,,2025-05-14,1,,,,,フォースウェーブ,0
937,3180003028472,新規,0,2025-05-14,2025-05-14,合同会社ダブルエス,,合同会社,愛知県,名古屋市西区,菊井２丁目１９番８号ＥＰ名古屋駅前ＰＴ１１０３,,23,104,4510044,,,,,,,2025-05-14,1,,,,,ダブルエス,0
950,3210001020163,新規,0,2025-05-14,2025-05-14,株式会社ミナカノ,,株式会社,福井県,鯖江市,旭町１丁目８－４,,18,207,9160025,,,,,,,2025-05-14,1,,,,,ミナカノ,0
960,3260001040165,新規,0,2025-05-14,2025-05-14,株式会社ＮＥＣＯ電力,,株式会社,岡山県,岡山市北区,中井町２丁目３番３９号,,33,101,7000804,,,,,,,2025-05-14,1,,,,,ネコデンリョク,0
961,3260001040181,新規,0,2025-05-14,2025-05-14,株式会社つみき建築,,株式会社,岡山県,倉敷市,船穂町柳井原１２２３番地,,33,202,7100263,,,,,,,2025-05-14,1,,,,,ツミキケンチク,0
962,3260003005174,新規,0,2025-05-14,2025-05-14,Ｈｏｒｉｚｏｎ　Ｂａｓｅ合同会社,,合同会社,岡山県,笠岡市,新横島６番地１９４,,33,205,7140093,,,,,,,2025-05-14,1,,,,,ホライズンベース,0
966,3290001110015,新規,0,2025-05-14,2025-05-14,日友不動産株式会社,,株式会社,福岡県,福岡市中央区,薬院４丁目１８番１５号ライオンズマンションマキシム浄水通り９０１号,,40,133,8100022,,,,,,,2025-05-14,1,,,,,ニチユウフドウサン,0
969,3290003016805,新規,0,2025-05-14,2025-05-14,合同会社ＯｒｉＫａｓａｎｅ,,合同会社,福岡県,福岡市城南区,七隈５丁目１２－３４,,40,136,8140133,,,,,,,2025-05-14,1,,,,,オリカサネ,0
976,3300003002282,新規,0,2025-05-14,2025-05-14,合同会社大坪,,合同会社,佐賀県,佐賀市,東与賀町大字下古賀１１３１番地１６,,41,201,8402221,,,,,,,2025-05-14,1,,,,,オオツボ,0
978,3310001019609,新規,0,2025-05-14,2025-05-14,株式会社なかよしリフォーム,,株式会社,長崎県,長崎市,高平町３番２号,,42,201,8500821,,,,,,,2025-05-14,1,,,,,ナカヨシリフォーム,0
983,3330001033194,新規,0,2025-05-14,2025-05-14,ＬＩＮＫ＆ＢＬＯＯＭ株式会社,,株式会社,熊本県,上益城郡甲佐町,大字南三箇１０１７番地１,,43,444,8614613,,,,,,,2025-05-14,1,,,,,リンクアンドブルーム,0
984,3330001033203,新規,0,2025-05-14,2025-05-14,株式会社プラウ,,株式会社,熊本県,熊本市中央区,黒髪３丁目９番１３号１０３号室,,43,101,8600862,,,,,,,2025-05-14,1,,,,,プラウ,0
986,3340003004845,新規,0,2025-05-14,2025-05-14,合同会社匠,,合同会社,鹿児島県,鹿児島市,向陽２丁目３番１６号,,46,201,8900038,,,,,,,2025-05-14,1,,,,,タクミ,0
987,3340003004853,新規,0,2025-05-14,2025-05-14,合同会社バードウィル,,合同会社,鹿児島県,出水市,昭和町３３番１６号,,46,208,8990202,,,,,,,2025-05-14,1,,,,,バードウィル,0
992,3360001035155,新規,0,2025-05-14,2025-05-14,宮古島エコサービス株式会社,,株式会社,沖縄県,宮古島市,伊良部字佐和田大野原９０８番地３,,47,214,9060507,,,,,,,2025-05-14,1,,,,,ミヤコジマエコサービス,0
1015,3430003017656,新規,0,2025-05-14,2025-05-14,合同会社ＩＳＦマネージメントシステム,,合同会社,北海道,札幌市中央区,宮の森三条１２丁目７番１号,,01,101,0640953,,,,,,,2025-05-14,1,,,,,アイエスエフマネージメントシステム,0
1020,3460105002314,新規,0,2025-05-14,2025-05-14,一般社団法人十勝帯広支援センター,,その他の設立登記法人,北海道,帯広市,西十二条北５丁目３番地６３,,01,207,0800042,,,,,,,2025-05-14,1,,,,,トカチオビヒロシエンセンター,0
1024,3700150130449,新規,0,2025-05-14,2025-05-14,Ｃ２Ｃ　ＰＴＥ．ＬＴＤ．,,外国会社等,,,,,,,,１０　ＡＮＳＯＮ　ＲＯＡＤ　＃１４－０６　ＩＮＴＥＲＮＡＴＩＯＮＡＬ　ＰＬＡＺＡ　ＳＩＮＧＡＰＯＲＥ　（０７９９０３）,,,,,,2025-05-14,1,,,,,シーツーシーピーテイーイーエルテイーデイ,0
1025,3700150130465,新規,0,2025-05-14,2025-05-14,西日暮里駅前地区市街地再開発組合,,その他,東京都,荒川区,西日暮里５丁目３４－３　ムツミビル５階,,13,118,1160013,,,,,,,2025-05-14,1,,,,,ニシニツポリエキマエチクシガイチサイカイハツクミアイ,0
1035,4010001254581,新規,0,2025-05-14,2025-05-14,株式会社セオプロ,,株式会社,東京都,千代田区,神田駿河台２丁目３番地,,13,101,1010062,,,,,,,2025-05-14,1,,,,,セオプロ,0
1036,4010001254615,新規,0,2025-05-14,2025-05-14,株式会社福商,,株式会社,東京都,千代田区,富士見１丁目３番１１号富士見デュープレックスＢ’ｓ４階,,13,101,1020071,,,,,,,2025-05-14,1,,,,,フクショウ,0
1037,4010001254689,新規,0,2025-05-14,2025-05-14,株式会社ＵｎＡＲＣＨＩＶＥ,,株式会社,東京都,千代田区,神田三崎町３丁目３番４号巴ビル２０１号,,13,101,1010061,,,,,,,2025-05-14,1,,,,,アンアーカイブ,0
1038,4010001254739,新規,0,2025-05-14,2025-05-14,サクラコア・テクノロジーズ株式会社,,株式会社,東京都,文京区,千石４丁目１４番９号,,13,105,1120011,,,,,,,2025-05-14,1,,,,,サクラコアテクノロジーズ,0
1039,4010001254978,新規,0,2025-05-14,2025-05-14,株式会社Ｆｉｎａｎｃｉａｌ　Ｗｅｌｌ‐ｂｅｉｎｇ　Ｊａｐａｎ,,株式会社,東京都,千代田区,一番町１０番８号,,13,101,1020082,,,,,,,2025-05-14,1,,,,,ファイナンシャルウェルビーイングジャパン,0
1040,4010001254986,新規,0,2025-05-14,2025-05-14,ネクサスコア株式会社,,株式会社,東京都,中央区,日本橋室町１丁目１１番１２号日本橋水野ビル７階,,13,102,1030022,,,,,,,2025-05-14,1,,,,,ネクサスコア,0
1048,4010003047240,新規,0,2025-05-14,2025-05-14,合同会社ＢＯＮ　Ｇｏｈａｎ,,合同会社,東京都,中央区,築地３丁目２番５号第２平和田ビル５階,,13,102,1040045,,,,,,,2025-05-14,1,,,,,ボンゴハン,0
1057,4010401190237,新規,0,2025-05-14,2025-05-14,株式会社ＲＤＴ,,株式会社,東京都,港区,北青山２丁目１３番４号青山ＭＹビル３階,,13,103,1070061,,,,,,,2025-05-14,1,,,,,アールディーティー,0
1058,4010401190294,新規,0,2025-05-14,2025-05-14,Ｅｍｐｉｒｅ　Ｈｏｌｄｉｎｇｓ株式会社,,株式会社,東京都,港区,北青山１丁目３番１号アールキューブ青山３階,,13,103,1070061,,,,,,,2025-05-14,1,,,,,エンパイアホールディングス,0
1059,4010403035084,新規,0,2025-05-14,2025-05-14,ＮＯＭＡＤＳＹＮＣ　ＷＯＲＫＳ合同会社,,合同会社,東京都,港区,南青山２丁目８番２７号青山ハウス２０２号,,13,103,1070062,,,,,,,2025-05-14,1,,,,,ノマドシンクワークス,0
1060,4010405024374,新規,0,2025-05-14,2025-05-14,一般社団法人Ｎ３コンサルティング,,その他の設立登記法人,東京都,港区,麻布狸穴町５１－１－３１５,,13,103,1060042,,,,,,,2025-05-14,1,,,,,エヌスリーコンサルティング,0
1061,4010405024382,新規,0,2025-05-14,2025-05-14,一般社団法人ＪＷＬＩ　Ｅｃｏｓｙｓｔｅｍ,,その他の設立登記法人,東京都,港区,芝公園２丁目６番８号日本女子会館５Ｆ,,13,103,1050011,,,,,,,2025-05-14,1,,,,,ジェイダブルエルアイエコシステム,0
1075,4011001169398,新規,0,2025-05-14,2025-05-14,株式会社ＰＲＯＶＥ,,株式会社,東京都,渋谷区,代々木３丁目４１番１号３０１,,13,113,1510053,,,,,,,2025-05-14,1,,,,,プルーブ,0
1079,4011101111549,新規,0,2025-05-14,2025-05-14,エスツー商事株式会社,,株式会社,東京都,新宿区,西新宿７丁目１２番２４号第二小島ビル２階,,13,104,1600023,,,,,,,2025-05-14,1,,,,,エスツーショウジ,0
1080,4011101111615,新規,0,2025-05-14,2025-05-14,株式会社コレクシオ,,株式会社,東京都,新宿区,西新宿３丁目３番１３号西新宿水間ビル２Ｆ,,13,104,1600023,,,,,,,2025-05-14,1,,,,,コレクシオ,0
1085,4011301030573,新規,0,2025-05-14,2025-05-14,クロスティネット株式会社,,株式会社,東京都,杉並区,高井戸西３丁目１６番１７号,,13,115,1680071,,,,,,,2025-05-14,1,,,,,クロスティネット,0
1095,4011703004241,新規,0,2025-05-14,2025-05-14,Ｗｉｍｂｉ合同会社,,合同会社,東京都,江戸川区,一之江８丁目１６番１１－１００２号,,13,123,1320024,,,,,,,2025-05-14,1,,,,,ウィンビ,0
1096,4011801046094,新規,0,2025-05-14,2025-05-14,興瀚株式会社,,株式会社,東京都,足立区,中川２丁目１３番２号ジョイフル亀有３０５,,13,121,1200002,,,,,,,2025-05-14,1,,,,,コウハン,0
1098,4012301014368,新規,0,2025-05-14,2025-05-14,Ａｓｃｅｎｄａ株式会社,,株式会社,東京都,町田市,鶴間４丁目１８番１－３４０号,,13,209,1940004,,,,,,,2025-05-14,1,,,,,アセンダ,0
1099,4012301014376,新規,0,2025-05-14,2025-05-14,株式会社Ｈａｒｖｅｓｔ　Ｍｏｏｎ,,株式会社,東京都,町田市,小山ヶ丘５丁目２番地１モンシェル多摩境３０１,,13,209,1940215,,,,,,,2025-05-14,1,,,,,ハーベストムーン,0
1103,4012303002156,新規,0,2025-05-14,2025-05-14,Ｓｏｆｆｉｅ　ｓｔｙｌｅ合同会社,,合同会社,東京都,町田市,本町田３０２２番地４３,,13,209,1940032,,,,,,,2025-05-14,1,,,,,ソフィースタイル,0
1107,4012401043077,新規,0,2025-05-14,2025-05-14,株式会社美家木材,,株式会社,東京都,調布市,多摩川１丁目４６番地１,,13,208,1820025,,,,,,,2025-05-14,1,,,,,ミヤモクザイ,0
1108,4012401043093,新規,0,2025-05-14,2025-05-14,株式会社ルシエルーサ,,株式会社,東京都,府中市,白糸台１丁目６８番地の１,,13,206,1830011,,,,,,,2025-05-14,1,,,,,ルシエルーサ,0
1110,4012403007121,新規,0,2025-05-14,2025-05-14,合同会社縁,,合同会社,東京都,多摩市,鶴牧１丁目２４番地１新都市センタービル１階,,13,224,2060034,,,,,,,2025-05-14,1,,,,,エニシ,0
1126,4020001162734,新規,0,2025-05-14,2025-05-14,株式会社ビジョンアーチ,,株式会社,神奈川県,横浜市西区,北幸２丁目１０番４８号むつみビル３階,,14,103,2200004,,,,,,,2025-05-14,1,,,,,ビジョンアーチ,0
1127,4020001162775,新規,0,2025-05-14,2025-05-14,株式会社ＴＡＩＫＩＮＧ,,株式会社,神奈川県,横浜市西区,北幸２丁目１０番４８号むつみビル３階,,14,103,2200004,,,,,,,2025-05-14,1,,,,,タイキング,0
1128,4020001162825,新規,0,2025-05-14,2025-05-14,株式会社Ｍクラージュ,,株式会社,神奈川県,横浜市西区,高島２丁目１１番２号スカイメナー横浜５１９,,14,103,2200011,,,,,,,2025-05-14,1,,,,,エムクラージュ,0
1130,4020003028396,新規,0,2025-05-14,2025-05-14,合同会社ＰＬＵＳＯＮＥ,,合同会社,神奈川県,川崎市高津区,溝口４丁目５番３号フジビル３Ｆ,,14,134,2130001,,,,,,,2025-05-14,1,,,,,プラスワン,0
1131,4020003028454,新規,0,2025-05-14,2025-05-14,リンクスタート合同会社,,合同会社,神奈川県,川崎市中原区,井田杉山町３０番１６－３１５号,,14,133,2110036,,,,,,,2025-05-14,1,,,,,リンクスタート,0
1132,4020003028487,新規,0,2025-05-14,2025-05-14,合同会社玲提デジタル,,合同会社,神奈川県,横浜市鶴見区,尻手１丁目１番１８－２３６号,,14,101,2300003,,,,,,,2025-05-14,1,,,,,レイテイデジタル,0
1139,4021001085231,新規,0,2025-05-14,2025-05-14,株式会社天王家,,株式会社,神奈川県,高座郡寒川町,小谷１丁目１番４３号,,14,321,2530103,,,,,,,2025-05-14,1,,,,,テンノウヤ,0
1150,4030001166486,新規,0,2025-05-14,2025-05-14,株式会社ＰａｎｄａＳｙｎｎｏｖａｔｅＸ,,株式会社,埼玉県,越谷市,登戸町１１番４１－１号,,11,222,3430846,,,,,,,2025-05-14,1,,,,,パンダシノヴェイティックス,0
1151,4030001166503,新規,0,2025-05-14,2025-05-14,株式会社ジェイサポート,,株式会社,埼玉県,久喜市,菖蒲町菖蒲３３８番地,,11,232,3460106,,,,,,,2025-05-14,1,,,,,ジェイサポート,0
1157,4030003026770,新規,0,2025-05-14,2025-05-14,きずなグローブ合同会社,,合同会社,埼玉県,草加市,金明町１０１８番地８号,,11,221,3400052,,,,,,,2025-05-14,1,,,,,キズナグローブ,0
1163,4040003027553,新規,0,2025-05-14,2025-05-14,七福人材合同会社,,合同会社,千葉県,市川市,市川南１丁目６番８号（コーポ飯塚５号棟２０６号）,,12,203,2720033,,,,,,,2025-05-14,1,,,,,シチフクジンザイ,0
1167,4050003009261,新規,0,2025-05-14,2025-05-14,合同会社Ｓ．Ｐ．Ｓ,,合同会社,茨城県,ひたちなか市,大字勝倉２６７０番地１,,08,221,3120024,,,,,,,2025-05-14,1,,,,,エスピーエス,0
1186,4100001038595,新規,0,2025-05-14,2025-05-14,裕隆株式会社,,株式会社,長野県,長野市,大字稲葉２５６６番地１,,20,201,3800911,,,,,,,2025-05-14,1,,,,,ヒロタカ,0
1200,4120001275294,新規,0,2025-05-14,2025-05-14,Ｌｕｃｋｙａ株式会社,,株式会社,大阪府,大阪市東成区,東中本２丁目６－８朝日プラザ緑橋ＩＶ７０２号室,00139155,27,115,5370021,,,,,,,2025-05-14,1,,,,,ラッキーヤ,0
1201,4120001275328,新規,0,2025-05-14,2025-05-14,陳兄弟株式会社,,株式会社,大阪府,大阪市北区,西天満２丁目６番８号堂島ビルヂング６Ｆ新東京国際リーガル内,,27,127,5300047,,,,,,,2025-05-14,1,,,,,チンキョウダイ,0
1202,4120001275360,新規,0,2025-05-14,2025-05-14,Ｋｅｐｌｅｒ株式会社,,株式会社,大阪府,大阪市住吉区,杉本１丁目９番１６号グランビルドアビコＩＩ４０２号室,00139151,27,120,5580022,,,,,,,2025-05-14,1,,,,,ケプラー,0
1203,4120001275419,新規,0,2025-05-14,2025-05-14,Ｏｎｅ　Ｄｒｏｐ株式会社,,株式会社,大阪府,大阪市東成区,大今里１丁目３１－１２－２０５室,,27,115,5370012,,,,,,,2025-05-14,1,,,,,ワンドロップ,0
1204,4120001275484,新規,0,2025-05-14,2025-05-14,株式会社ＬＩＥＮ,,株式会社,大阪府,大阪市北区,大淀北２丁目２番１５アドバンス西梅田グルーブ５０７号,,27,127,5310077,,,,,,,2025-05-14,1,,,,,リアン,0
1205,4120001275518,新規,0,2025-05-14,2025-05-14,株式会社ｒｉｄｅ　Ａ,,株式会社,大阪府,大阪市中央区,南船場３丁目２番２２号おおきに南船場ビル２０５,,27,128,5420081,,,,,,,2025-05-14,1,,,,,ライドエー,0
1206,4120001275542,新規,0,2025-05-14,2025-05-14,株式会社ｍｏｏｃａ,,株式会社,大阪府,大阪市中央区,南船場４丁目１０番２９号,,27,128,5420081,,,,,,,2025-05-14,1,,,,,モカ,0
1207,4120001275583,新規,0,2025-05-14,2025-05-14,なでしこリンクス株式会社,,株式会社,大阪府,大阪市都島区,友渕町１丁目５－５－１４０２,,27,102,5340016,,,,,,,2025-05-14,1,,,,,ナデシコリンクス,0
1217,4120003029351,新規,0,2025-05-14,2025-05-14,合同会社てぃんがーら,,合同会社,大阪府,大阪市中央区,東心斎橋２丁目３番３－１号,,27,128,5420083,,,,,,,2025-05-14,1,,,,,ティンガーラ,0
1218,4120003029368,新規,0,2025-05-14,2025-05-14,合同会社ＯｎＴａｌｌｙ,,合同会社,大阪府,枚方市,香里ケ丘７丁目１０－３－１０１,,27,210,5730084,,,,,,,2025-05-14,1,,,,,オンタリー,0
1219,4120003029376,新規,0,2025-05-14,2025-05-14,合同会社ＷｅａＬ,,合同会社,大阪府,大阪市平野区,喜連東２丁目３番５１－７０４号,,27,126,5470021,,,,,,,2025-05-14,1,,,,,ウェアル,0
1220,4120003029418,新規,0,2025-05-14,2025-05-14,Ｓａｋｕｒａ内装合同会社,,合同会社,大阪府,大阪市東住吉区,湯里２丁目１３番地２－４０２号室,,27,121,5460013,,,,,,,2025-05-14,1,,,,,サクラナイソウ,0
1224,4120105009994,新規,0,2025-05-14,2025-05-14,一般社団法人まちづくり羽衣,,その他の設立登記法人,大阪府,高石市,羽衣１丁目５番１２号,,27,225,5920002,,,,,,,2025-05-14,1,,,,,マチヅクリハゴロモ,0
1231,4122001039217,新規,0,2025-05-14,2025-05-14,株式会社Ｔ．Ｇ．Ｃ．Ｒ,,株式会社,大阪府,大東市,深野１丁目２番１８号,,27,218,5740072,,,,,,,2025-05-14,1,,,,,ティージーシーアール,0
1239,4130001079645,新規,0,2025-05-14,2025-05-14,株式会社Ｓｔｒｏｎｇｈｏｌｄ,,株式会社,京都府,宇治市,五ケ庄広岡谷２番地の１２９,,26,204,6110011,,,,,,,2025-05-14,1,,,,,ストロングホールド,0
1240,4130001079653,新規,0,2025-05-14,2025-05-14,株式会社広瀬,,株式会社,京都府,城陽市,富野北垣内７番地の４０,,26,207,6100111,,,,,,,2025-05-14,1,,,,,ヒロセ,0
1242,4130003010459,新規,0,2025-05-14,2025-05-14,合同会社ユニティ,,合同会社,京都府,京都市伏見区,納所北城堀１０番地１３,,26,109,6128279,,,,,,,2025-05-14,1,,,,,ユニティ,0
1248,4140001138482,新規,0,2025-05-14,2025-05-14,株式会社ＳＥＡＬｓ,,株式会社,兵庫県,尼崎市,立花町１丁目２２番２０号Ｒｉｃｈ・Ｌｅａｆ２、１０２号室,,28,202,6610025,,,,,,,2025-05-14,1,,,,,シールズ,0
1249,4140001138532,新規,0,2025-05-14,2025-05-14,兵中開発株式会社,,株式会社,兵庫県,小野市,上本町２２２番地,,28,218,6751379,,,,,,,2025-05-14,1,,,,,,0
1254,4140003021926,新規,0,2025-05-14,2025-05-14,ＰＨＡＮ　ＮＧＯＣ　ＰＨＵＯＣ合同会社,,合同会社,兵庫県,尼崎市,東園田町９丁目１７番地１１－３階,,28,202,6610953,,,,,,,2025-05-14,1,,,,,ファンゴックフォック,0
1255,4140003022049,新規,0,2025-05-14,2025-05-14,合同会社ＦＡＶ２,,合同会社,兵庫県,神戸市中央区,下山手通２丁目１３番３号建創ビル４０２号室,,28,110,6500011,,,,,,,2025-05-14,1,,,,,ファブトゥー,0
1256,4140003022057,新規,0,2025-05-14,2025-05-14,合同会社ＵＮＩＴＥ,,合同会社,兵庫県,神戸市中央区,磯辺通１丁目１番１８号カサベラ国際プラザビル７０７号室,,28,110,6510084,,,,,,,2025-05-14,1,,,,,ユナイト,0
1258,4140005027509,新規,0,2025-05-14,2025-05-14,一般社団法人医療ＤＸ推進協会,,その他の設立登記法人,兵庫県,尼崎市,御園３丁目３－１３メゾンドラペ３０５,,28,202,6610984,,,,,,,2025-05-14,1,,,,,イリョウディーエックススイシンキョウカイ,0
1259,4150001028088,新規,0,2025-05-14,2025-05-14,株式会社ミラビト,,株式会社,奈良県,奈良市,登美ヶ丘２丁目４番１号,,29,201,6310004,,,,,,,2025-05-14,1,,,,,ミラビト,0
1261,4160003003476,新規,0,2025-05-14,2025-05-14,日中合同会社,,合同会社,滋賀県,彦根市,戸賀町１２０番地２４,,25,202,5220042,,,,,,,2025-05-14,1,,,,,ニッチュウ,0
1275,4180001166736,新規,0,2025-05-14,2025-05-14,株式会社ＲＥＬＩＦＥ,,株式会社,愛知県,一宮市,公園通５丁目４,,23,203,4910842,,,,,,,2025-05-14,1,,,,,リライフ,0
1276,4180001166769,新規,0,2025-05-14,2025-05-14,株式会社ＪＥＮＮＥ,,株式会社,愛知県,名古屋市西区,名駅２丁目３４番１７号セントラル名古屋１１０１号,,23,104,4510045,,,,,,,2025-05-14,1,,,,,ジェンヌ,0
1277,4180001166810,新規,0,2025-05-14,2025-05-14,ＲＥＡＤｉロバストマシン株式会社,,株式会社,愛知県,名古屋市中村区,那古野１丁目４７番１号名古屋国際センタービル１８階,,23,105,4500001,,,,,,,2025-05-14,1,,,,,レディロバストマシン,0
1285,4180003028471,新規,0,2025-05-14,2025-05-14,合同会社楽住,,合同会社,愛知県,名古屋市中村区,名駅４丁目２４番５号第２森ビル４０１,,23,105,4500002,,,,,,,2025-05-14,1,,,,,ラクジュウ,0
1294,4200001043775,新規,0,2025-05-14,2025-05-14,株式会社ＧＯ‐ＫＥＮ,,株式会社,岐阜県,安八郡輪之内町,海松新田１１３０番地の１プレミール１０２号室,,21,382,5030214,,,,,,,2025-05-14,1,,,,,ゴーケン,0
1312,4260001040189,新規,0,2025-05-14,2025-05-14,桜テント工業株式会社,,株式会社,岡山県,岡山市中区,平井６丁目４番１７号,,33,102,7038282,,,,,,,2025-05-14,1,,,,,サクラテントコウギョウ,0
1323,4290003016804,新規,0,2025-05-14,2025-05-14,ケイ・コーポレーション合同会社,,合同会社,福岡県,大牟田市,大字手鎌６６６－１－３,,40,202,8360004,,,,,,,2025-05-14,1,,,,,ケイコーポレーション,0
1330,4290801031541,新規,0,2025-05-14,2025-05-14,株式会社真幹,,株式会社,福岡県,豊前市,大字四郎丸７０４番地１,,40,214,8280011,,,,,,,2025-05-14,1,,,,,シンミキ,0
1340,4330001033202,新規,0,2025-05-14,2025-05-14,株式会社高階誠心堂,,株式会社,熊本県,人吉市,紺屋町１１５番地２,,43,203,8680003,,,,,,,2025-05-14,1,,,,,タカシナセイシンドウ,0
1350,4370001052578,新規,0,2025-05-14,2025-05-14,株式会社フラワー東北Ｒ＆Ｄ,,株式会社,宮城県,仙台市青葉区,錦ケ丘６丁目５番地の１０,,04,101,9893123,,,,,,,2025-05-14,1,,,,,フラワートウホクアールアンドデー,0
1359,4420001019126,新規,0,2025-05-14,2025-05-14,サイトールーフ株式会社,,株式会社,青森県,南津軽郡藤崎町,大字藤崎字西村井９０番地１,,02,361,0383802,,,,,,,2025-05-14,1,,,,,サイトールーフ,0
1364,4430001094408,新規,0,2025-05-14,2025-05-14,株式会社メタルマーク,,株式会社,北海道,札幌市南区,藤野五条５丁目３番１８号,,01,106,0612285,,,,,,,2025-05-14,1,,,,,メタルマーク,0
1370,4450003002655,新規,0,2025-05-14,2025-05-14,合同会社そらがはれ,,合同会社,北海道,旭川市,神楽七条１１丁目６番１７号,,01,204,0708007,,,,,,,2025-05-14,1,,,,,ソラガハレ,0
1382,4700150130448,新規,0,2025-05-14,2025-05-14,ＥＰＩＣ　ＳＧ　ＰＴＥ．ＬＴＤ．,,外国会社等,,,,,,,,１０５　ＣＥＣＩＬ　ＳＴＲＥＥＴ　＃２４－０２ＴＨＥ　ＯＣＴＡＧＯＮ　ＳＩＮＧＡＰＯＲＥ,,,,,,2025-05-14,1,,,,,エピツクエスジーピーテイーイーエルテイーデイー,0
1383,4700150130456,新規,0,2025-05-14,2025-05-14,Ｔｏｐａｓｉａ　Ｉｎｖｅｓｔｍｅｎｔ　Ｍａｎａｇｅｍｅｎｔ　Ｌｉｍｉｔｅｄ,,外国会社等,,,,,,,,６／Ｆ　ＲＦＣＭ，Ｍａｎｕｌｉｆｅ　Ｐｌａｃｅ，３４８　Ｋｗｕｎ　Ｔｏｎｇ　Ｒｏａｄ，Ｈｏｎｇ　Ｋｏｎｇ,,,,,,2025-05-14,1,,,,,トツプアジアインベストメントマネージメントリミテツド,0
1393,5010001254432,新規,0,2025-05-14,2025-05-14,座標日本株式会社,,株式会社,東京都,千代田区,四番町４－９新東京国際リーガル内,,13,101,1020081,,,,,,,2025-05-14,1,,,,,ザヒョウニホン,0
1394,5010001254779,新規,0,2025-05-14,2025-05-14,Ｔ　Ｃａｐｉｔａｌ株式会社,,株式会社,東京都,千代田区,丸の内３丁目４番１号新国際ビル８Ｆ,,13,101,1000005,,,,,,,2025-05-14,1,,,,,ティーキャピタル,0
1397,5010003047280,新規,0,2025-05-14,2025-05-14,クロスコネクトコミュニケーション合同会社,,合同会社,東京都,中央区,銀座７丁目１５番８号タウンハイツ銀座４０６,,13,102,1040061,,,,,,,2025-05-14,1,,,,,クロスコネクトコミュニケーション,0
1398,5010003047339,新規,0,2025-05-14,2025-05-14,ブルーインフラＬ２号合同会社,,合同会社,東京都,千代田区,紀尾井町４番１号ニューオータニガーデンコート１９階フィンポート税理士法人内,,13,101,1020094,,,,,,,2025-05-14,1,,,,,ブルーインフラエルニゴウ,0
1399,5010005040036,新規,0,2025-05-14,2025-05-14,一般社団法人ＫＦＤ１号,,その他の設立登記法人,東京都,中央区,京橋２丁目１２番６号ＡＯＪ税理士法人内,,13,102,1040031,,,,,,,2025-05-14,1,,,,,ケーエフディーイチゴウ,0
1405,5010401190228,新規,0,2025-05-14,2025-05-14,株式会社フロリス製薬,,株式会社,東京都,港区,南青山３丁目１番３６号青山丸竹ビル６Ｆ,,13,103,1070062,,,,,,,2025-05-14,1,,,,,フロリスセイヤク,0
1409,5010405024316,新規,0,2025-05-14,2025-05-14,一般社団法人Ｃｈａｎｔｉｎｇ　Ｎａｍｕ　Ａｍｉｄａ　Ｂｕｔｓｕ　Ｉｎｔｅｒｎａｔｉｏｎａｌ　Ａｓｓｏｃｉａｔｉｏｎ,,その他の設立登記法人,東京都,港区,芝公園２丁目２番１３号,,13,103,1050011,,,,,,,2025-05-14,1,,,,,チャンティングナムアミダブツインターナショナルアソシエイション,0
1418,5010901057331,新規,0,2025-05-14,2025-05-14,ｔｈｅｔａ　ｅｎｇｉｎｅｅｒｉｎｇ株式会社,,株式会社,東京都,世田谷区,砧３丁目２６番１６号アーバン・プラザＫ１０６,,13,112,1570073,,,,,,,2025-05-14,1,,,,,シータエンジニアリング,0
1419,5010901057348,新規,0,2025-05-14,2025-05-14,株式会社謙伸,,株式会社,東京都,世田谷区,中町４丁目１８－７,,13,112,1580091,,,,,,,2025-05-14,1,,,,,ケンシン,0
1420,5010901057364,新規,0,2025-05-14,2025-05-14,Ｓｉｘ　Ｓｉｇｍａ　Ｌｉｏｎ株式会社,,株式会社,東京都,世田谷区,北沢３丁目１５番２号ヒルズ北沢３０１,,13,112,1550031,,,,,,,2025-05-14,1,,,,,シックスシグマライオン,0
1425,5011001169389,新規,0,2025-05-14,2025-05-14,Ｅ＆Ｎ　Ｐａｒｔｎｅｒｓ株式会社,,株式会社,東京都,渋谷区,神宮前３丁目２５－６神宮前ウィンテルビル３Ｆ,,13,113,1500001,,,,,,,2025-05-14,1,,,,,イーアンドエヌパートナーズ,0
1426,5011001169851,新規,0,2025-05-14,2025-05-14,株式会社Ｓｔｕｄｉａ,,株式会社,東京都,渋谷区,道玄坂１丁目１０番８号渋谷道玄坂東急ビル２Ｆ－Ｃ,,13,113,1500043,,,,,,,2025-05-14,1,,,,,スタディア,0
1438,5011101111688,新規,0,2025-05-14,2025-05-14,ＴＳＬ相談室株式会社,,株式会社,東京都,新宿区,西新宿２丁目６－１新宿住友ビル４６階,,13,104,1600023,,,,,,,2025-05-14,1,,,,,ティーエスエルソウダンシツ,0
1439,5011101111738,新規,0,2025-05-14,2025-05-14,株式会社梅森,,株式会社,東京都,新宿区,新宿１丁目３６－２新宿第七葉山ビル３Ｆ,,13,104,1600022,,,,,,,2025-05-14,1,,,,,ウメモリ,0
1444,5011103015854,新規,0,2025-05-14,2025-05-14,ＲＪＣＬ　Ｐｒｅｍｉｅｒ　ＡｕｔｏＴｒａｄｅ　Ｆｏｕｎｄａｔｉｏｎ合同会社,,合同会社,東京都,新宿区,西落合１丁目２８－５アイコート西落合＃１０６,,13,104,1610031,,,,,,,2025-05-14,1,,,,,アルジェイシエルプレミアオートトレードファウンデーション,0
1447,5011303005548,新規,0,2025-05-14,2025-05-14,合同会社エンジェルフォーエバー,,合同会社,東京都,杉並区,和泉４丁目４１番１３－６０６号,,13,115,1680063,,,,,,,2025-05-14,1,,,,,エンジェルフォーエバー,0
1449,5011501032039,新規,0,2025-05-14,2025-05-14,ＶＰＴＥＣ株式会社,,株式会社,東京都,北区,中里１丁目２１番２号中里ビル１Ｆ,,13,117,1140015,,,,,,,2025-05-14,1,,,,,ビピテック,0
1450,5011501032047,新規,0,2025-05-14,2025-05-14,株式会社鈴登,,株式会社,東京都,荒川区,西日暮里２丁目５３－６－６０１,,13,118,1160013,,,,,,,2025-05-14,1,,,,,スズト,0
1452,5011601028655,新規,0,2025-05-14,2025-05-14,ＬＵＸＥ　ＮＥＸＵＳ株式会社,,株式会社,東京都,練馬区,春日町６丁目１６番１１号,,13,120,1790074,,,,,,,2025-05-14,1,,,,,ラックスネクサス,0
1458,5011801046093,新規,0,2025-05-14,2025-05-14,株式会社ＭＲＩグループ,,株式会社,東京都,足立区,花畑６丁目２１番３－１０５号,,13,121,1210061,,,,,,,2025-05-14,1,,,,,エムアールアイグループ,0
1464,5012401043084,新規,0,2025-05-14,2025-05-14,株式会社ＧＭＫコーポレーション,,株式会社,東京都,武蔵野市,吉祥寺南町３丁目７番２号,,13,203,1800003,,,,,,,2025-05-14,1,,,,,ジーエムケイコーポレーション,0
1465,5012401043092,新規,0,2025-05-14,2025-05-14,唐姫株式会社,,株式会社,東京都,三鷹市,大沢２丁目２番１４号,,13,204,1810015,,,,,,,2025-05-14,1,,,,,トウキ,0
1468,5012403007120,新規,0,2025-05-14,2025-05-14,やまぶき技研合同会社,,合同会社,東京都,府中市,緑町２丁目１４番地の２ファインスクェア府中緑町２０２,,13,206,1830006,,,,,,,2025-05-14,1,,,,,ヤマブキギケン,0
1469,5012405005114,新規,0,2025-05-14,2025-05-14,一般社団法人膵がん・胆道がん患者支援医療者ネットワーク,,その他の設立登記法人,東京都,多摩市,鶴牧３丁目４－２０４,,13,224,2060034,,,,,,,2025-05-14,1,,,,,スイガンタンドウガンカンジャシエンイリョウシャネットワーク,0
1489,5020001162659,新規,0,2025-05-14,2025-05-14,ＮＯＴ　ＴＥＡ株式会社,,株式会社,神奈川県,横浜市港北区,錦が丘１５－２０ｍｕｔｅｒｒａｃｅ１Ｆ,,14,109,2220013,,,,,,,2025-05-14,1,,,,,ノットティー,0
1491,5020003028412,新規,0,2025-05-14,2025-05-14,合同会社Ｅｒａｘｅｌ,,合同会社,神奈川県,横浜市西区,北幸２丁目１０番４８号むつみビル３階,,14,103,2200004,,,,,,,2025-05-14,1,,,,,エラクセル,0
1492,5020003028445,新規,0,2025-05-14,2025-05-14,ほかまるサービス合同会社,,合同会社,神奈川県,横浜市磯子区,岡村４丁目１９番１６号,,14,107,2350021,,,,,,,2025-05-14,1,,,,,ホカマルサービス,0
1493,5020003028486,新規,0,2025-05-14,2025-05-14,山岸合同会社,,合同会社,神奈川県,横浜市港北区,下田町１丁目６番１５号,,14,109,2230064,,,,,,,2025-05-14,1,,,,,ヤマギシ,0
1501,5021001085180,新規,0,2025-05-14,2025-05-14,株式会社樫の木,,株式会社,神奈川県,海老名市,今里１丁目３番４０号,,14,215,2430423,,,,,,,2025-05-14,1,,,,,カシノキ,0
1514,5030001166485,新規,0,2025-05-14,2025-05-14,株式会社ＫＤＳ,,株式会社,埼玉県,入間市,大字南峯４１６番地２,,11,225,3580046,,,,,,,2025-05-14,1,,,,,ケーディーエス,0
1515,5030001166493,新規,0,2025-05-14,2025-05-14,株式会社Ｈａｎｇ　Ｏｕｔｓ,,株式会社,埼玉県,さいたま市見沼区,大字南中野１０３３番地１,,11,104,3370042,,,,,,,2025-05-14,1,,,,,ハングアウツ,0
1524,5040003027560,新規,0,2025-05-14,2025-05-14,ギア４トレーディング合同会社,,合同会社,千葉県,印西市,小林３９６０番地３コーポサクライ２０２号,,12,231,2701318,,,,,,,2025-05-14,1,,,,,,0
1525,5040003027569,新規,0,2025-05-14,2025-05-14,合同会社ＲＡＩＮＢＯＷＵＳＥ,,合同会社,千葉県,成田市,東和田１００１番地２,,12,211,2860134,,,,,,,2025-05-14,1,,,,,レインボーユーズ,0
1526,5040005022766,新規,0,2025-05-14,2025-05-14,一般社団法人動物レスキュー・チームうーにゃん,,その他の設立登記法人,千葉県,東金市,薄島２５７番地６,,12,213,2830031,,,,,,,2025-05-14,1,,,,,ドウブツレスキューチームウーニャン,0
1530,5050001056668,新規,0,2025-05-14,2025-05-14,株式会社野田ＣＥＹＬＯＮ,,株式会社,茨城県,坂東市,辺田５４５番地２２,,08,228,3060632,,,,,,,2025-05-14,1,,,,,ノダセイロン,0
1535,5050003009252,新規,0,2025-05-14,2025-05-14,合同会社美浦倶楽部,,合同会社,茨城県,稲敷郡美浦村,大字木原１６９１番地１７,,08,442,3000421,,,,,,,2025-05-14,1,,,,,ミホクラブ,0
1540,5060001038194,新規,0,2025-05-14,2025-05-14,株式会社ツール工房ホールディングス,,株式会社,栃木県,下野市,下古山１７６番地１,,09,216,3290502,,,,,,,2025-05-14,1,,,,,ツールコウボウホールディングス,0
1551,5100001038603,新規,0,2025-05-14,2025-05-14,株式会社ゑびす屋商会,,株式会社,長野県,長野市,大字大豆島５０１番地,,20,201,3810022,,,,,,,2025-05-14,1,,,,,エビスヤショウカイ,0
1553,5100003008158,新規,0,2025-05-14,2025-05-14,合同会社ｈｉｙｏｒｉ,,合同会社,長野県,飯田市,座光寺３７８４番地,,20,205,3950001,,,,,,,2025-05-14,1,,,,,ヒヨリ,0
1557,5110003005757,新規,0,2025-05-14,2025-05-14,合同会社ＦＫＤ,,合同会社,新潟県,新潟市江南区,酒屋町８００番地３,,15,104,9500324,,,,,,,2025-05-14,1,,,,,エフケーディー,0
1560,5110005017230,新規,0,2025-05-14,2025-05-14,一般社団法人ユーモップ,,その他の設立登記法人,新潟県,新潟市東区,大山１丁目１０番５号,,15,102,9500067,,,,,,,2025-05-14,1,,,,,ユーモップ,0
1568,5120001275327,新規,0,2025-05-14,2025-05-14,株式会社ＡＢＷ,,株式会社,大阪府,大阪市北区,曾根崎２丁目８番５号お初天神ＥＡＳＴＢＬＤＧ３Ｆ,,27,127,5300057,,,,,,,2025-05-14,1,,,,,エィビーダブリュー,0
1569,5120001275418,新規,0,2025-05-14,2025-05-14,Ｌｉｌ‐ｌａｕｒｅｎ株式会社,,株式会社,大阪府,大阪市福島区,福島７丁目２１番１４号,,27,103,5530003,,,,,,,2025-05-14,1,,,,,リルローレン,0
1570,5120001275426,新規,0,2025-05-14,2025-05-14,株式会社ＲＳＮ,,株式会社,大阪府,大阪市鶴見区,諸口５丁目浜８－２３,,27,124,5380051,,,,,,,2025-05-14,1,,,,,レゾン,0
1571,5120001275814,新規,0,2025-05-14,2025-05-14,Ｓｔａｒｔｅｎｄ株式会社,,株式会社,大阪府,大阪市北区,梅田１丁目１‐３大阪駅前第３ビル２９階１‐１‐１号室,,27,127,5300001,,,,,,,2025-05-14,1,,,,,スターテンド,0
1572,5120003029350,新規,0,2025-05-14,2025-05-14,合同会社Ｌｉｌｙ,,合同会社,大阪府,大阪市淀川区,十八条２丁目１６－１６－３３,,27,123,5320001,,,,,,,2025-05-14,1,,,,,リリー,0
1573,5120003029367,新規,0,2025-05-14,2025-05-14,合同会社Ｎｅｘｔａｒｔ,,合同会社,大阪府,交野市,私部２丁目２７番１４－２０１号,,27,230,5760052,,,,,,,2025-05-14,1,,,,,ネクスタート,0
1574,5120003029375,新規,0,2025-05-14,2025-05-14,ＢＵＺＺ　ＬＯＵＮＧＥ　ＪＡＰＡＮ合同会社,,合同会社,大阪府,大阪市淀川区,西中島４丁目５番１号１０Ａ,,27,123,5320011,,,,,,,2025-05-14,1,,,,,バズラウンジジャパン,0
1575,5120003029383,新規,0,2025-05-14,2025-05-14,ＮＯＭＡＤＯＲＵ合同会社,,合同会社,大阪府,大阪市鶴見区,今津北５丁目１４番１号,,27,124,5380041,,,,,,,2025-05-14,1,,,,,ノマドル,0
1576,5120003029391,新規,0,2025-05-14,2025-05-14,合同会社コダマ,,合同会社,大阪府,大阪市淀川区,野中北１丁目１３番２－１２０３号,,27,123,5320034,,,,,,,2025-05-14,1,,,,,コダマ,0
1577,5120003029400,新規,0,2025-05-14,2025-05-14,合同会社ＧＳ,,合同会社,大阪府,大阪市中央区,久太郎町２丁目１番４－１００３号,,27,128,5410056,,,,,,,2025-05-14,1,,,,,ジーエス,0
1578,5120003029417,新規,0,2025-05-14,2025-05-14,合同会社こっちの不動産,,合同会社,大阪府,寝屋川市,萱島桜園町７番３号１階,,27,215,5720828,,,,,,,2025-05-14,1,,,,,コッチノフドウサン,0
1584,5120101071642,新規,0,2025-05-14,2025-05-14,Ｗ＆Ｂ　ｃｏｍｐａｎｙ株式会社,,株式会社,大阪府,岸和田市,春木大小路町７番１８号,,27,202,5960031,,,,,,,2025-05-14,1,,,,,ダブリュアンドビーカンパニー,0
1585,5120101071667,新規,0,2025-05-14,2025-05-14,Ｍｏｒｐｈ　Ｓｔｕｄｉｏ株式会社,,株式会社,大阪府,岸和田市,土生町８丁目２０番１６号,,27,202,5960825,,,,,,,2025-05-14,1,,,,,モルフスタジオ,0
1607,5140001138399,新規,0,2025-05-14,2025-05-14,三井製水株式会社,,株式会社,兵庫県,神戸市中央区,花隈町２２－３朱ビル３０２室,,28,110,6500013,,,,,,,2025-05-14,1,,,,,ミツイセイスイ,0
1610,5150001028095,新規,0,2025-05-14,2025-05-14,株式会社ＴＯＴＡＬ設備,,株式会社,奈良県,大和高田市,南今里町６番１５号,,29,202,6350033,,,,,,,2025-05-14,1,,,,,トータルセツビ,0
1611,5150001028120,新規,0,2025-05-14,2025-05-14,株式会社かほろ,,株式会社,奈良県,橿原市,四条町２番１号,,29,205,6340813,,,,,,,2025-05-14,1,,,,,カホロ,0
1617,5180001166784,新規,0,2025-05-14,2025-05-14,株式会社ＨＯＮＯＬＵＮ商事,,株式会社,愛知県,名古屋市中区,栄５丁目２１番３３号栄ハクレイビル２階,,23,106,4600008,,,,,,,2025-05-14,1,,,,,ホノルンショウジ,0
1625,5180003028421,新規,0,2025-05-14,2025-05-14,センブンノニ合同会社,,合同会社,愛知県,日進市,赤池２丁目８０８番地未来デザインラボ,,23,230,4700125,,,,,,,2025-05-14,1,,,,,センブンノニ,0
1633,5200001043782,新規,0,2025-05-14,2025-05-14,株式会社ＷＩＳＴＥＲＩＡ　ＳＴＡＲ,,株式会社,岐阜県,岐阜市,細畑３丁目１３番地６号,,21,201,5008238,,,,,,,2025-05-14,1,,,,,ウィステリアスター,0
1634,5200001043790,新規,0,2025-05-14,2025-05-14,株式会社ふじのや,,株式会社,岐阜県,恵那市,大井町２６３番地２,,21,210,5097201,,,,,,,2025-05-14,1,,,,,フジノヤ,0
1636,5200003006820,新規,0,2025-05-14,2025-05-14,合同会社ジャルダン,,合同会社,岐阜県,大垣市,墨俣町下宿２０９番地,,21,202,5030104,,,,,,,2025-05-14,1,,,,,ジャルダン,0
1649,5240001064940,新規,0,2025-05-14,2025-05-14,株式会社ＯＫＡＤＡ　ＷＯＲＫＳ,,株式会社,広島県,尾道市,高須町５７４番地３,,34,205,7290141,,,,,,,2025-05-14,1,,,,,オカダワークス,0
1652,5260001040188,新規,0,2025-05-14,2025-05-14,株式会社ＡＳＴＥＥ　ＨＯＲＩＥ　ＴＨＲＩＶＥ,,株式会社,岡山県,倉敷市,玉島長尾３６５３番地１４,,33,202,7100251,,,,,,,2025-05-14,1,,,,,アスティホリエスライヴ,0
1663,5310001019598,新規,0,2025-05-14,2025-05-14,株式会社つばさ,,株式会社,長崎県,長崎市,上戸町２３４番地１５,,42,201,8500953,,,,,,,2025-05-14,1,,,,,ツバサ,0
1668,5320003004663,新規,0,2025-05-14,2025-05-14,ｓａｐｈｉｒ合同会社,,合同会社,大分県,大分市,中央町３丁目５番１６号,,44,201,8700035,,,,,,,2025-05-14,1,,,,,サフィール,0
1669,5330001033201,新規,0,2025-05-14,2025-05-14,株式会社あそ薬膳工房,,株式会社,熊本県,阿蘇郡西原村,大字布田９７５番地１３,,43,432,8612403,,,,,,,2025-05-14,1,,,,,アソヤクゼンコウボウ,0
1672,5340001027326,新規,0,2025-05-14,2025-05-14,株式会社まきの,,株式会社,鹿児島県,熊毛郡屋久島町,安房２３５３番地２８５,,46,505,8914311,,,,,,,2025-05-14,1,,,,,マキノ,0
1673,5340003004851,新規,0,2025-05-14,2025-05-14,合同会社ＫＤＭ,,合同会社,鹿児島県,鹿屋市,王子町４０１１番地２,,46,203,8930012,,,,,,,2025-05-14,1,,,,,ケーディーエム,0
1674,5350001019529,新規,0,2025-05-14,2025-05-14,株式会社Ｄ’ｓ　ＤＲＯＮＥ,,株式会社,宮崎県,延岡市,惣領町１９番２０号,,45,203,8820857,,,,,,,2025-05-14,1,,,,,ディーズドローン,0
1676,5350003004925,新規,0,2025-05-14,2025-05-14,合同会社森と里の小人社,,合同会社,宮崎県,串間市,大字市木１１１０番地,,45,207,8893311,,,,,,,2025-05-14,1,,,,,モリトサトノコビトシャ,0
1688,5370001052569,新規,0,2025-05-14,2025-05-14,株式会社ＦＰセンター,,株式会社,宮城県,仙台市青葉区,一番町２丁目５番２２号ＧＣ青葉通りプラザ８階,,04,101,9800811,,,,,,,2025-05-14,1,,,,,エフピーセンター,0
1696,5380005012964,新規,0,2025-05-14,2025-05-14,一般社団法人宇宙産業連携機構,,その他の設立登記法人,福島県,南相馬市,小高区本町１丁目８７番地,,07,212,9792124,,,,,,,2025-05-14,1,,,,,ウチュウサンギョウレンケイキコウ,0
1700,5410003004101,新規,0,2025-05-14,2025-05-14,合同会社防犯システム研究所,,合同会社,秋田県,秋田市,土崎港南１丁目１４番２４号,,05,201,0110943,,,,,,,2025-05-14,1,,,,,,0
1702,5420001019141,新規,0,2025-05-14,2025-05-14,株式会社エイル薬局,,株式会社,青森県,八戸市,類家３丁目１４番１３号リスブラン１０２,,02,203,0310001,,,,,,,2025-05-14,1,,,,,エイルヤッキョク,0
1706,5430001094209,新規,0,2025-05-14,2025-05-14,株式会社ｔｒａｄｉｔｉｏｎａｌ　ｆｌｏｗｅｒ,,株式会社,北海道,札幌市清田区,北野二条２丁目１０番６号,,01,110,0040862,,,,,,,2025-05-14,1,,,,,トラディショナルフラワー,0
1707,5430001094332,新規,0,2025-05-14,2025-05-14,株式会社中村ＤＸサポート,,株式会社,北海道,札幌市厚別区,厚別中央二条６丁目６番３－９０４号,,01,108,0040052,,,,,,,2025-05-14,1,,,,,ナカムラディーエックスサポート,0
1708,5430001094381,新規,0,2025-05-14,2025-05-14,ボーヤジャパン株式会社,,株式会社,北海道,札幌市豊平区,平岸三条１７丁目３－３６－８０６,,01,105,0620933,,,,,,,2025-05-14,1,,,,,ボーヤジャパン,0
1709,5430001094398,新規,0,2025-05-14,2025-05-14,株式会社栄重機興業,,株式会社,北海道,札幌市東区,中沼西一条２丁目２番１号,,01,103,0070891,,,,,,,2025-05-14,1,,,,,サカエジュウキコウギョウ,0
1710,5430001094407,新規,0,2025-05-14,2025-05-14,株式会社ｍｅｒｃｈａｎｔ,,株式会社,北海道,余市郡余市町,登町６番地６,,01,408,0460002,,,,,,,2025-05-14,1,,,,,マーチャント,0
1722,5700150130356,新規,0,2025-05-14,2025-05-09,とちぎ協同労働ネットワーク,,その他,栃木県,宇都宮市,西川田７丁目１－２,,09,201,3210152,,,,,,,2025-05-09,1,,,,,トチギキヨウドウロウドウネツトワーク,0
1723,5700150130447,新規,0,2025-05-14,2025-05-14,Ｔｏｓｈｉｂａ　Ｓｏｆｔｗａｒｅ　（Ｉｎｄｉａ）　Ｐｒｉｖａｔｅ　Ｌｉｍｉｔｅｄ,,外国会社等,,,,,,,,Ｎｏ３Ａ，Ｅｓｓａｅ　Ｖａｉｓｈｎａｖｉ　Ｓｏｌｉｔａｉｒｅ，３ｒｄ　Ｂｌｏｃｋ，Ｋｏｒａｍａｎｇａｌａ，Ｂａｎｇａｌｏｒｅ，Ｋａｒｎａｔａｋ５６００３４,,,,,,2025-05-14,1,,,,,トウシバソフトウエアインデイアプライベートリミテツド,0
1724,5700150130455,新規,0,2025-05-14,2025-05-14,Ｙｕｙｕ　Ｐｈａｒｍａ．Ｉｎｃ．,,外国会社等,,,,,,,,９４，Ｂｉｏ　ｖａｌｌｅｙ　１－ｒｏ，Ｊｅｃｈｅｏｎ－ｓｉ，Ｃｈｕｎｇｃｈｅｏｎｇｂｕｋ－ｄｏ，Ｒｅｐｕｂｌｉｃ　ｏｆ　Ｋｏｒｅａ,,,,,,2025-05-14,1,,,,,ユユフアーマインク,0
1739,6010001254646,新規,0,2025-05-14,2025-05-14,株式会社ラックスメディア,,株式会社,東京都,千代田区,永田町２丁目１７番５号ローレル永田町２０５号室,,13,101,1000014,,,,,,,2025-05-14,1,,,,,ラックスメディア,0
1740,6010001254729,新規,0,2025-05-14,2025-05-14,Ｅｖａｔｌａｓ株式会社,,株式会社,東京都,千代田区,内神田２丁目４番４号,,13,101,1010047,,,,,,,2025-05-14,1,,,,,イーブイアトラス,0
1743,6010003047247,新規,0,2025-05-14,2025-05-14,合同会社ジモク,,合同会社,東京都,文京区,根津１丁目２４番１７号,,13,105,1130031,,,,,,,2025-05-14,1,,,,,ジモク,0
1755,6010401190128,新規,0,2025-05-14,2025-05-14,ＮＵＶＶＥ　ＪＡＰＡＮ株式会社,,株式会社,東京都,港区,新橋４丁目１４番１号,,13,103,1050004,,,,,,,2025-05-14,1,,,,,ヌービージャパン,0
1756,6010401190227,新規,0,2025-05-14,2025-05-14,株式会社Ｂｌｏｏｍｓｔｒａｔｅｇｉａ,,株式会社,東京都,港区,南青山３丁目１番３６号青山丸竹ビル６Ｆ,,13,103,1070062,,,,,,,2025-05-14,1,,,,,ブルームストラテジア,0
1757,6010401190276,新規,0,2025-05-14,2025-05-14,株式会社Ｇｅ‐Ｌｉｎｋ,,株式会社,東京都,港区,西新橋１丁目１８－１０佐々木ビル３階,,13,103,1050003,,,,,,,2025-05-14,1,,,,,ジーリンク,0
1759,6010403035033,新規,0,2025-05-14,2025-05-14,合同会社ＬＩＶＶＡ,,合同会社,東京都,港区,北青山１丁目３－３三橋ビル３階,,13,103,1070061,,,,,,,2025-05-14,1,,,,,リヴァ,0
1760,6010403035074,新規,0,2025-05-14,2025-05-14,ＵＮＦＯＬＤＥ合同会社,,合同会社,東京都,港区,南青山２丁目２番１５号ウィン青山９４２,,13,103,1070062,,,,,,,2025-05-14,1,,,,,アンフォールド,0
1768,6010601067299,新規,0,2025-05-14,2025-05-14,株式会社Ｋ＆Ｃ,,株式会社,東京都,墨田区,東駒形１丁目１番９号蓮田ビル１Ｆ,,13,107,1300005,,,,,,,2025-05-14,1,,,,,ケイアンドシー,0
1769,6010701047696,新規,0,2025-05-14,2025-05-14,テイクオフ株式会社,,株式会社,東京都,品川区,西五反田８丁目１－１３ＧＢＳ－Ｄ－８号,,13,109,1410031,,,,,,,2025-05-14,1,,,,,テイクオフ,0
1772,6010705003761,新規,0,2025-05-14,2025-05-14,一般社団法人一隅会,,その他の設立登記法人,東京都,品川区,二葉１丁目７番１号,,13,109,1420043,,,,,,,2025-05-14,1,,,,,イチグウカイ,0
1773,6010901057347,新規,0,2025-05-14,2025-05-14,株式会社Ｔｈｉｒｄ　ａｎｄ,,株式会社,東京都,世田谷区,下馬１丁目２１番８－３０２号,,13,112,1540002,,,,,,,2025-05-14,1,,,,,サードアンド,0
1784,6011001169850,新規,0,2025-05-14,2025-05-14,株式会社ユッシュ,,株式会社,東京都,渋谷区,渋谷１丁目３番１８号ビラ・モデルナＣ３００,,13,113,1500002,,,,,,,2025-05-14,1,,,,,ユッシュ,0
1787,6011003021613,新規,0,2025-05-14,2025-05-14,ニューテックスグローバル合同会社,,合同会社,東京都,渋谷区,千駄ヶ谷５丁目２６番地５号,,13,113,1510051,,,,,,,2025-05-14,1,,,,,ニューテックスグローバル,0
1794,6011103015928,新規,0,2025-05-14,2025-05-14,合同会社Ｃｈｅｒｉｓｈ＆Ｅｎｃｏｕｎｔｅｒｓ,,合同会社,東京都,新宿区,西新宿３丁目３－１２西新宿水間ビル２ｆ,,13,104,1600023,,,,,,,2025-05-14,1,,,,,チェリッシュアンドエンカウンターズ,0
1797,6011501032046,新規,0,2025-05-14,2025-05-14,Ｍｉｃｒｏｆｕｎ　Ｊａｐａｎ株式会社,,株式会社,東京都,北区,浮間１丁目１番１４号リムジンビル,,13,117,1150051,,,,,,,2025-05-14,1,,,,,マイクロファンジャパン,0
1798,6011505002689,新規,0,2025-05-14,2025-05-14,一般社団法人城北読売会,,その他の設立登記法人,東京都,北区,堀船４丁目２番１号,,13,117,1140004,,,,,,,2025-05-14,1,,,,,ジョウホクヨミウリカイ,0
1804,6011703004231,新規,0,2025-05-14,2025-05-14,合同会社ＴＯＫＹＯ　ＬＩＶＥＸ,,合同会社,東京都,江戸川区,北小岩４丁目３７番４号,,13,123,1330051,,,,,,,2025-05-14,1,,,,,トウキョウリベックス,0
1806,6011801046118,新規,0,2025-05-14,2025-05-14,株式会社ＺＯＤＥＮ,,株式会社,東京都,葛飾区,亀有２丁目５９番１０－２０２号,,13,122,1250061,,,,,,,2025-05-14,1,,,,,ゾデン,0
1809,6012301014374,新規,0,2025-05-14,2025-05-14,シナプスリンク株式会社,,株式会社,東京都,町田市,木曽西４丁目１１番地２０号,,13,209,1940037,,,,,,,2025-05-14,1,,,,,シナプスリンク,0
1814,6012401043083,新規,0,2025-05-14,2025-05-14,株式会社ＲＵＢＢＬＥ,,株式会社,東京都,三鷹市,牟礼４丁目１７番１６号,,13,204,1810002,,,,,,,2025-05-14,1,,,,,ラブル,0
1815,6012405005113,新規,0,2025-05-14,2025-05-14,一般社団法人多摩市国際交流センター,,その他の設立登記法人,東京都,多摩市,関戸４丁目７２番地ヴィータ・コミューネ７階,,13,224,2060011,,,,,,,2025-05-14,1,,,,,タマシコクサイコウリュウセンター,0
1820,6013301054245,新規,0,2025-05-14,2025-05-14,九鼎厚朴株式会社,,株式会社,東京都,豊島区,駒込１丁目３５番６－５０２号,,13,116,1700003,,,,,,,2025-05-14,1,,,,,キュウテイコウボク,0
1829,6020001162740,新規,0,2025-05-14,2025-05-14,リファイブ株式会社,,株式会社,神奈川県,横浜市戸塚区,汲沢町１３７２番地１０,,14,110,2450062,,,,,,,2025-05-14,1,,,,,リファイブ,0
1830,6020001162831,新規,0,2025-05-14,2025-05-14,株式会社ＢＭ．Ｒ　Ａｕｔｏｍｏｔｉｖｅ,,株式会社,神奈川県,川崎市川崎区,浅野町１番５号,,14,131,2100854,,,,,,,2025-05-14,1,,,,,ビーエムアールオートモーティブ,0
1831,6020001162848,新規,0,2025-05-14,2025-05-14,株式会社ＢＯＮＤＳ,,株式会社,神奈川県,横浜市戸塚区,原宿５丁目１４番１８号,,14,110,2450063,,,,,,,2025-05-14,1,,,,,ボンズ,0
1832,6020001162856,新規,0,2025-05-14,2025-05-14,株式会社エヌズメイク,,株式会社,神奈川県,横浜市青葉区,市ケ尾町５２９番地７森ビル１０５,,14,117,2250024,,,,,,,2025-05-14,1,,,,,エヌズメイク,0
1836,6020003028477,新規,0,2025-05-14,2025-05-14,合同会社繋人,,合同会社,神奈川県,川崎市麻生区,高石５丁目２３番１３号クレール桜１０４,,14,137,2150003,,,,,,,2025-05-14,1,,,,,ケイト,0
1841,6021001085221,新規,0,2025-05-14,2025-05-14,株式会社Ｌｉｎｋ．,,株式会社,神奈川県,平塚市,四之宮２丁目２０番１号,,14,203,2540014,,,,,,,2025-05-14,1,,,,,リンク,0
1846,6021003015985,新規,0,2025-05-14,2025-05-14,ＳＡＲＩＭ　ＴＲＡＤＩＮＧ合同会社,,合同会社,神奈川県,座間市,座間１丁目３１８７番地の３宝アパート２号,,14,216,2520027,,,,,,,2025-05-14,1,,,,,サリムトレーディング,0
1847,6021003015993,新規,0,2025-05-14,2025-05-14,ＷＩＮＯＮ　ＣＡＲＳ合同会社,,合同会社,神奈川県,伊勢原市,下谷５１０番地－Ｃ,,14,214,2591123,,,,,,,2025-05-14,1,,,,,ウィノンカーズ,0
1865,6030001166501,新規,0,2025-05-14,2025-05-14,株式会社ＳＡＫパシフィック,,株式会社,埼玉県,さいたま市大宮区,上小町９７番地２,,11,103,3300855,,,,,,,2025-05-14,1,,,,,エスエーケーパシフィック,0
1873,6040001138739,新規,0,2025-05-14,2025-05-14,株式会社カラソル,,株式会社,千葉県,松戸市,古ケ崎４丁目３５１８番地の９,,12,207,2710068,,,,,,,2025-05-14,1,,,,,カラソル,0
1874,6040001138763,新規,0,2025-05-14,2025-05-14,株式会社インテリア村上,,株式会社,千葉県,木更津市,朝日２丁目１番３号,,12,206,2920055,,,,,,,2025-05-14,1,,,,,インテリアムラカミ,0
1877,6040003027543,新規,0,2025-05-14,2025-05-14,合同会社ＡＯ,,合同会社,千葉県,市川市,原木２丁目１２番１号,,12,203,2720004,,,,,,,2025-05-14,1,,,,,エイオウ,0
1880,6050001056659,新規,0,2025-05-14,2025-05-14,株式会社関農園,,株式会社,茨城県,日立市,十王町伊師３０１４番地,,08,202,3191301,,,,,,,2025-05-14,1,,,,,セキノウエン,0
1883,6060001038169,新規,0,2025-05-14,2025-05-14,株式会社ｅＹｏｎｅ,,株式会社,栃木県,鹿沼市,日吉町５８８,,09,205,3220074,,,,,,,2025-05-14,1,,,,,エヨネ,0
1886,6060003005547,新規,0,2025-05-14,2025-05-14,合同会社アスカ,,合同会社,栃木県,下野市,小金井１２２２番地２,,09,216,3290414,,,,,,,2025-05-14,1,,,,,アスカ,0
1892,6070001042938,新規,0,2025-05-14,2025-05-14,株式会社ＲＩ‐ＫＥＮ,,株式会社,群馬県,みどり市,笠懸町鹿４９２番地８,,10,212,3792313,,,,,,,2025-05-14,1,,,,,,0
1912,6110001039260,新規,0,2025-05-14,2025-05-14,株式会社本間工業,,株式会社,新潟県,村上市,岩沢６２４番地,,15,212,9580251,,,,,,,2025-05-14,1,,,,,ホンマコウギョウ,0
1915,6110003005756,新規,0,2025-05-14,2025-05-14,合同会社Ｎｕｍｂｅｒｉ,,合同会社,新潟県,長岡市,坂之上町１丁目３番地５ドルミー八番館１０１・１０２号室,,15,202,9400065,,,,,,,2025-05-14,1,,,,,ナンバーアイ,0
1925,6120001275210,新規,0,2025-05-14,2025-05-14,株式会社ＭＡＫＩＬＵＮＡ,,株式会社,大阪府,大阪市城東区,東中浜４丁目９番１７号パークサイド２２、４０１,,27,118,5360023,,,,,,,2025-05-14,1,,,,,マキルナ,0
1926,6120001275375,新規,0,2025-05-14,2025-05-14,株式会社Ｉ＆Ｔ,,株式会社,大阪府,大阪市都島区,東野田町１丁目２０－２１リバティステージ４０３,,27,102,5340024,,,,,,,2025-05-14,1,,,,,アイアンドティー,0
1927,6120001275400,新規,0,2025-05-14,2025-05-14,株式会社イナレッジ,,株式会社,大阪府,大阪市北区,梅田１丁目２番２号大阪駅前第２ビル１２－１２,,27,127,5300001,,,,,,,2025-05-14,1,,,,,イナレッジ,0
1928,6120001275417,新規,0,2025-05-14,2025-05-14,啓華株式会社,,株式会社,大阪府,大阪市都島区,内代町１丁目１４番４号,,27,102,5340013,,,,,,,2025-05-14,1,,,,,ケイカ,0
1929,6120001275458,新規,0,2025-05-14,2025-05-14,株式会社トゥレベル,,株式会社,大阪府,大阪市中央区,南船場３丁目２番２２号おおきに南船場ビル２０５,,27,128,5420081,,,,,,,2025-05-14,1,,,,,トゥレベル,0
1930,6120001275466,新規,0,2025-05-14,2025-05-14,Ｇｒａｎｄ　Ｋｉｎｅｔｉｃｓ株式会社,,株式会社,大阪府,大阪市西成区,玉出東１丁目７番２３－２０３号,,27,122,5570043,,,,,,,2025-05-14,1,,,,,グランドキネティクス,0
1931,6120001275482,新規,0,2025-05-14,2025-05-14,福達株式会社,,株式会社,大阪府,大阪市城東区,鴫野西２丁目１２番５号,,27,118,5360014,,,,,,,2025-05-14,1,,,,,フクタツ,0
1932,6120001275499,新規,0,2025-05-14,2025-05-14,株式会社シンカ,,株式会社,大阪府,大阪市東淀川区,東中島１丁目１７番１号ステュディオ新大阪６０２号室,,27,114,5330033,,,,,,,2025-05-14,1,,,,,シンカ,0
1933,6120001275573,新規,0,2025-05-14,2025-05-14,株式会社ちょうじゅ倶楽部,,株式会社,大阪府,大阪市住之江区,新北島３丁目４番４７号,,27,125,5590024,,,,,,,2025-05-14,1,,,,,チョウジュクラブ,0
1934,6120003029374,新規,0,2025-05-14,2025-05-14,合同会社ＥＣＯ　ＳＨＩＮＥ,,合同会社,大阪府,大阪市生野区,巽南３丁目１５番３号,00139153,27,116,5440015,,,,,,,2025-05-14,1,,,,,エコシャイン,0
1935,6120003029390,新規,0,2025-05-14,2025-05-14,合同会社コバヤシ,,合同会社,大阪府,大阪市西淀川区,佃１丁目２６番３号千舟リバーサイドヴィラＣ棟２１１１号室,,27,113,5550001,,,,,,,2025-05-14,1,,,,,コバヤシ,0
1936,6120003029416,新規,0,2025-05-14,2025-05-14,合同会社ロックフォトグラフィー,,合同会社,大阪府,大阪市北区,梅田１丁目２番２号大阪駅前第２ビル１２－１２,,27,127,5300001,,,,,,,2025-05-14,1,,,,,ロックフォトグラフィー,0
1939,6120101071666,新規,0,2025-05-14,2025-05-14,株式会社サカライズ,,株式会社,大阪府,堺市堺区,柏木町２丁２番２７号１０１号室,,27,141,5900837,,,,,,,2025-05-14,1,,,,,サカライズ,0
1963,6140001138514,新規,0,2025-05-14,2025-05-14,株式会社ＭＩＤＯＲＡ,,株式会社,兵庫県,芦屋市,翠ケ丘町３番２９－１号,,28,206,6590014,,,,,,,2025-05-14,1,,,,,ミドラ,0
1964,6140001138522,新規,0,2025-05-14,2025-05-14,株式会社ＫＯＴＡＴＵ,,株式会社,兵庫県,川西市,見野２丁目２８番３－２号,,28,217,6660105,,,,,,,2025-05-14,1,,,,,コタツ,0
1965,6140001138555,新規,0,2025-05-14,2025-05-14,株式会社ＵＮプラス,,株式会社,兵庫県,神戸市中央区,加納町４丁目１０番２３号ロイヤル神戸三宮１３０４,,28,110,6500001,,,,,,,2025-05-14,1,,,,,ウンプラス,0
1971,6140003022055,新規,0,2025-05-14,2025-05-14,合同会社ロングプラン,,合同会社,兵庫県,加古川市,尾上町口里４７９番地の１Ｍプラザ加古川五番館１０７号,,28,210,6750022,,,,,,,2025-05-14,1,,,,,ロングプラン,0
1972,6140005027507,新規,0,2025-05-14,2025-05-14,アインクル一般社団法人,,その他の設立登記法人,兵庫県,芦屋市,山手町１５番８号,,28,206,6590096,,,,,,,2025-05-14,1,,,,,アインクル,0
1978,6160001026733,新規,0,2025-05-14,2025-05-14,株式会社ＳＫＣホールディングス,,株式会社,滋賀県,長浜市,泉町１３７０番地,,25,203,5260003,,,,,,,2025-05-14,1,,,,,エスケイシーホールディングス,0
1991,6180001166800,新規,0,2025-05-14,2025-05-14,株式会社ＳＳＳ,,株式会社,愛知県,春日井市,如意申町４丁目２８番地７,,23,206,4860918,,,,,,,2025-05-14,1,,,,,エスエスエス,0
1992,6180001166817,新規,0,2025-05-14,2025-05-14,株式会社Ｔｒｅｋ,,株式会社,愛知県,一宮市,木曽川町玉ノ井字寺東９５番地,,23,203,4930004,,,,,,,2025-05-14,1,,,,,トレック,0
1993,6180001166825,新規,0,2025-05-14,2025-05-14,株式会社おへやナビゲーター,,株式会社,愛知県,名古屋市中川区,松年町３丁目８２番地の５,,23,110,4540854,,,,,,,2025-05-14,1,,,,,オヘヤナビゲーター,0
1994,6180001166841,新規,0,2025-05-14,2025-05-14,株式会社ＦＲＥＡＫＳ　Ｌａｂ．,,株式会社,愛知県,半田市,白山町３丁目２０５番地の３０,,23,205,4750912,,,,,,,2025-05-14,1,,,,,フリークスラボ,0
2004,6180003028478,新規,0,2025-05-14,2025-05-14,合同会社ハーティリンケージ,,合同会社,愛知県,名古屋市天白区,保呂町１７０８番地の２,,23,116,4680041,,,,,,,2025-05-14,1,,,,,ハーティリンケージ,0
2008,6200001043781,新規,0,2025-05-14,2025-05-14,株式会社ＧＩＯＳ　Ｌｏｇｉ‐Ｔｅｃｈ,,株式会社,岐阜県,揖斐郡大野町,大字下磯４８１番地６,,21,403,5010532,,,,,,,2025-05-14,1,,,,,ジオスロジテック,0
2009,6220003004029,新規,0,2025-05-14,2025-05-14,ＢＯＴＡＮＩＣＳ合同会社,,合同会社,石川県,白山市,八ツ矢町４３８番地６,,17,210,9240882,,,,,,,2025-05-14,1,,,,,ボタニクス,0
2017,6240003007194,新規,0,2025-05-14,2025-05-14,合同会社なる,,合同会社,広島県,呉市,広徳丸町５番８号,,34,202,7370102,,,,,,,2025-05-14,1,,,,,ナル,0
2048,6360001035177,新規,0,2025-05-14,2025-05-14,ＮＢ．１　ＴＲＡＤＩＮＧ株式会社,,株式会社,沖縄県,沖縄市,美原３丁目１４番３２号,,47,211,9042155,,,,,,,2025-05-14,1,,,,,エヌビーワントレーディング,0
2050,6370001052568,新規,0,2025-05-14,2025-05-14,株式会社ＡＰＬ,,株式会社,宮城県,黒川郡大和町,もみじケ丘２丁目１９番地の２,,04,421,9813622,,,,,,,2025-05-14,1,,,,,エイピーエル,0
2061,6390003002387,新規,0,2025-05-14,2025-05-14,合同会社ｔｅｎ,,合同会社,山形県,米沢市,城北２丁目３－３９,,06,202,9920051,,,,,,,2025-05-14,1,,,,,,0
2065,6410003004100,新規,0,2025-05-14,2025-05-14,合同会社シンプルライフ,,合同会社,秋田県,秋田市,御所野湯本４丁目１番１０号,,05,201,0101415,,,,,,,2025-05-14,1,,,,,シンプルライフ,0
2075,6430003017629,新規,0,2025-05-14,2025-05-14,合同会社チロル,,合同会社,北海道,札幌市中央区,南五条西１５丁目２番３号－５０３,,01,101,0640805,,,,,,,2025-05-14,1,,,,,チロル,0
2076,6430005015234,新規,0,2025-05-14,2025-05-14,一般社団法人わらく屋,,その他の設立登記法人,北海道,北広島市,西の里北２丁目１３番地６,,01,234,0611104,,,,,,,2025-05-14,1,,,,,ワラクヤ,0
2083,6480001012833,新規,0,2025-05-14,2025-05-14,株式会社ケイズグローバル,,株式会社,徳島県,徳島市,銀座２０番地,,36,201,7700916,,,,,,,2025-05-14,1,,,,,ケイズグローバル,0
2085,6700150043474,新規,0,2025-05-14,2015-10-09,刈谷自家用自動車組合,,その他,愛知県,刈谷市,新栄町３丁目２６,,23,210,4480843,,,,,,,2015-10-09,1,,,,,カリヤジカヨウジドウシヤクミアイ,0
2086,6700150130446,新規,0,2025-05-14,2025-05-14,Ｓｃｈｏｎｆｅｌｄ　Ｓｔｒａｔｅｇｉｃ　Ｔｅｃｈ　Ｓｅｒｖｉｃｅｓ,,外国会社等,,,,,,,,５９０　Ｍａｄｉｓｏｎ　Ａｖｅｎｕｅ，２３ｒｄ　Ｆｌｏｏｒ，Ｎｅｗ　Ｙｏｒｋ，Ｎｅｗ　Ｙｏｒｋ　１００２２,,,,,,2025-05-14,1,,,,,シヨンフエルドストラテイージツクテツクサービシーズ,0
2087,6700150130454,新規,0,2025-05-14,2025-05-14,大富益實業有限公司,,外国会社等,,,,,,,,臺北市中山區松江路１９２號５樓,,,,,,2025-05-14,1,,,,,オオトミエキジツゴウユウゲンコウシ,0
2096,7010001254835,新規,0,2025-05-14,2025-05-14,Ｏｎｅ　Ｔｅａｍ株式会社,,株式会社,東京都,中央区,日本橋室町１丁目１１番１２号日本橋水野ビル７階,,13,102,1030022,,,,,,,2025-05-14,1,,,,,ワンチーム,0
2102,7010103002571,新規,0,2025-05-14,2025-05-14,合同会社ムッシュ・マドレーヌ,,合同会社,東京都,八王子市,諏訪町５９番地１０,,13,201,1930812,,,,,,,2025-05-14,1,,,,,ムッシュマドレーヌ,0
2103,7010105002339,新規,0,2025-05-14,2025-05-14,一般社団法人ＰＳＣ共済会,,その他の設立登記法人,東京都,八王子市,南町３番１２号,,13,201,1920072,,,,,,,2025-05-14,1,,,,,ピーエスシーキョウサイカイ,0
2110,7010401190003,新規,0,2025-05-14,2025-05-14,雪舞村株式会社,,株式会社,東京都,港区,西麻布３丁目２番４０号,,13,103,1060031,,,,,,,2025-05-14,1,,,,,ユキムラ,0
2111,7010401190093,新規,0,2025-05-14,2025-05-14,株式会社ゴールドキャラバン,,株式会社,東京都,港区,浜松町２丁目２番１５号浜松町ダイヤビル２Ｆ,,13,103,1050013,,,,,,,2025-05-14,1,,,,,ゴールドキャラバン,0
2112,7010401190283,新規,0,2025-05-14,2025-05-14,株式会社Ｆｕｔｒｉｘ,,株式会社,東京都,港区,麻布台３丁目１番６号５階,,13,103,1060041,,,,,,,2025-05-14,1,,,,,フュートリックス,0
2113,7010403035057,新規,0,2025-05-14,2025-05-14,合同会社ＹＥＪａｐａｎ,,合同会社,東京都,港区,南青山２丁目２番１５号ＷｉｎＡｏｙａｍａビルＵＣＦ６３５,,13,103,1070062,,,,,,,2025-05-14,1,,,,,ワイイージャパン,0
2114,7010403035073,新規,0,2025-05-14,2025-05-14,合同会社Ｙ．Ｏ,,合同会社,東京都,港区,新橋２丁目１５番１６号ル・グラシエルＢＬＤＧ．２９３階,,13,103,1050004,,,,,,,2025-05-14,1,,,,,ワイオー,0
2115,7010405024322,新規,0,2025-05-14,2025-05-14,一般社団法人日本耳つぼビジュー協会,,その他の設立登記法人,東京都,港区,北青山１丁目３番１号アールキューブ青山３階,,13,103,1070061,,,,,,,2025-05-14,1,,,,,ニッポンミミツボビジューキョウカイ,0
2120,7010801036136,新規,0,2025-05-14,2025-05-14,株式会社アスプラ電気,,株式会社,東京都,大田区,西蒲田５丁目１１番１１号ロイヤルウエストハイツ２０１,,13,111,1440051,,,,,,,2025-05-14,1,,,,,アスプラデンキ,0
2124,7010901057305,新規,0,2025-05-14,2025-05-14,Ｋ企画株式会社,,株式会社,東京都,世田谷区,松原１丁目３４番１８号,,13,112,1560043,,,,,,,2025-05-14,1,,,,,ケイキカク,0
2129,7011001169362,新規,0,2025-05-14,2025-05-14,株式会社ＷＩＬＤ　ＧＡＲＡＧＥ,,株式会社,東京都,渋谷区,円山町５番５号Ｎａｖｉ渋谷Ｖ３階,00139140,13,113,1500044,,,,,,,2025-05-14,1,,,,,ワイルドガレージ,0
2130,7011001169379,新規,0,2025-05-14,2025-05-14,株式会社Ｍａｔｅｒｉａ,,株式会社,東京都,渋谷区,神南１丁目１１－４ＦＰＧリンクス神南５階,,13,113,1500041,,,,,,,2025-05-14,1,,,,,マテリア,0
2131,7011001169750,新規,0,2025-05-14,2025-05-14,ＮｕＢａｓｅ株式会社,,株式会社,東京都,渋谷区,円山町５番３号ＭＩＥＵＸ渋谷ビル８階,,13,113,1500044,,,,,,,2025-05-14,1,,,,,ニューベース,0
2132,7011001169809,新規,0,2025-05-14,2025-05-14,Ｇｒｅｅｎ　Ｗａｖｅ株式会社,,株式会社,東京都,渋谷区,恵比寿１丁目３２番１５－１００２号,,13,113,1500013,,,,,,,2025-05-14,1,,,,,グリーンウェーブ,0
2139,7011101111612,新規,0,2025-05-14,2025-05-14,株式会社Ｄコネクト,,株式会社,東京都,新宿区,高田馬場２丁目１４番５号,,13,104,1690075,,,,,,,2025-05-14,1,,,,,ディコネクト,0
2140,7011101111694,新規,0,2025-05-14,2025-05-14,株式会社葬暖社,,株式会社,東京都,新宿区,西新宿３丁目３番１３号西新宿水間ビル２Ｆ,,13,104,1600023,,,,,,,2025-05-14,1,,,,,ソウダンシャ,0
2142,7011103015869,新規,0,2025-05-14,2025-05-14,アクアルーナ合同会社,,合同会社,東京都,新宿区,西新宿３丁目３番１３号西新宿水間ビル２Ｆ,,13,104,1600023,,,,,,,2025-05-14,1,,,,,アクアルーナ,0
2143,7011201026347,新規,0,2025-05-14,2025-05-14,株式会社ＫＹＮＡ,,株式会社,東京都,中野区,本町２丁目１６番８号柳沢荘２０３,,13,114,1640012,,,,,,,2025-05-14,1,,,,,キーナ,0
2144,7011501032029,新規,0,2025-05-14,2025-05-14,エンマイクロ・ジャパン株式会社,,株式会社,東京都,荒川区,東日暮里５丁目５０－５アートホテル日暮里ラングウッド３Ｆ,,13,118,1160014,,,,,,,2025-05-14,1,,,,,エンマイクロジャパン,0
2145,7011501032045,新規,0,2025-05-14,2025-05-14,株式会社Ｃ‐Ｕｎｉｃｏ,,株式会社,東京都,北区,西ケ原２丁目４０番１２－２０４号,,13,117,1140024,,,,,,,2025-05-14,1,,,,,シーユニコ,0
2151,7011703004239,新規,0,2025-05-14,2025-05-14,合同会社ＨＥＡＲＴ　ＰＬＡＮＴＳ,,合同会社,東京都,江戸川区,中央２丁目２０－５,,13,123,1320021,,,,,,,2025-05-14,1,,,,,ハートプランツ,0
2155,7011801046100,新規,0,2025-05-14,2025-05-14,株式会社Ｒｅメーカーズ,,株式会社,東京都,葛飾区,堀切７丁目５番２０－２０２号,,13,122,1240006,,,,,,,2025-05-14,1,,,,,リメーカーズ,0
2158,7012301014381,新規,0,2025-05-14,2025-05-14,羽音楽株式会社,,株式会社,東京都,町田市,南大谷６丁目３３番４５号,,13,209,1940031,,,,,,,2025-05-14,1,,,,,アシタノ,0
2161,7012401043090,新規,0,2025-05-14,2025-05-14,株式会社ｎｉｃｏｕｓ,,株式会社,東京都,調布市,国領町１丁目３５番地２７,,13,208,1820022,,,,,,,2025-05-14,1,,,,,ニコアス,0
2164,7012403007119,新規,0,2025-05-14,2025-05-14,合同会社はなびや,,合同会社,東京都,三鷹市,下連雀１丁目３１番８－２０６号,,13,204,1810013,,,,,,,2025-05-14,1,,,,,ハナビヤ,0
2165,7012701018858,新規,0,2025-05-14,2025-05-14,株式会社クレセントガーデン,,株式会社,東京都,東村山市,久米川町４丁目１４番地１２,,13,213,1890003,,,,,,,2025-05-14,1,,,,,クレセントガーデン,0
2176,7020001162806,新規,0,2025-05-14,2025-05-14,株式会社三共建設工業,,株式会社,神奈川県,横浜市西区,境之谷１１１番地１０,,14,103,2200054,,,,,,,2025-05-14,1,,,,,サンキョウケンセツコウギョウ,0
2177,7020003028468,新規,0,2025-05-14,2025-05-14,Ｊ＆Ｓ東京合同会社,,合同会社,神奈川県,川崎市麻生区,片平７丁目１番１８号片平中央ハイツ２０１,,14,137,2150023,,,,,,,2025-05-14,1,,,,,ジェイアンドエストウキョウ,0
2178,7020003028476,新規,0,2025-05-14,2025-05-14,合同会社ＯＦＦ　ＳＴＹＬＥ,,合同会社,神奈川県,横浜市青葉区,青葉台１丁目１４－１第２青葉台ビル４０６,,14,117,2270062,,,,,,,2025-05-14,1,,,,,オフスタイル,0
2179,7020003028484,新規,0,2025-05-14,2025-05-14,合同会社Ｉｇｇｙ,,合同会社,神奈川県,川崎市中原区,井田中ノ町１７番３０－２号,,14,133,2110034,,,,,,,2025-05-14,1,,,,,イギー,0
2185,7021001085212,新規,0,2025-05-14,2025-05-14,株式会社ＹＭＤ,,株式会社,神奈川県,横須賀市,ハイランド１丁目２４番１号,,14,201,2390833,,,,,,,2025-05-14,1,,,,,ワイエムディ,0
2186,7021001085220,新規,0,2025-05-14,2025-05-14,株式会社ＬＥ,,株式会社,神奈川県,秦野市,南矢名２２２３番地の４東海ビル２０７Ｂ,,14,211,2570003,,,,,,,2025-05-14,1,,,,,エルイー,0
2187,7021001085237,新規,0,2025-05-14,2025-05-14,株式会社ＡＭＥＹＡ解体工業,,株式会社,神奈川県,秦野市,平沢１００４番地の１５,,14,211,2570015,,,,,,,2025-05-14,1,,,,,アメヤカイタイコウギョウ,0
2191,7021005013367,新規,0,2025-05-14,2025-05-14,弁理士法人あさかぜ特許商標事務所,,その他の設立登記法人,神奈川県,鎌倉市,大船２丁目２１番１１号プレジール３階,,14,204,2470056,,,,,,,2025-05-14,1,,,,,アサカゼトッキョショウヒョウジムショ,0
2203,7030003026768,新規,0,2025-05-14,2025-05-14,湘和グローバル合同会社,,合同会社,埼玉県,草加市,松原４丁目４番８－１０号,,11,221,3400041,,,,,,,2025-05-14,1,,,,,ショウワグローバル,0
2207,7040001138754,新規,0,2025-05-14,2025-05-14,株式会社高藤,00139141,株式会社,千葉県,君津市,中島９０８番地８,,12,225,2991106,,,,,,,2025-05-14,1,,,,,タカトウ,0
2212,7040003027567,新規,0,2025-05-14,2025-05-14,Ｅｍｅｒａｌｄ　Ｖｅｎｕｓ合同会社,,合同会社,千葉県,大網白里市,南横川２１４７番地３３,,12,239,2993223,,,,,,,2025-05-14,1,,,,,エメラルドヴィーナス,0
2215,7050001056666,新規,0,2025-05-14,2025-05-14,株式会社コチエミ,,株式会社,茨城県,鉾田市,徳宿１５１３番地２,,08,234,3111503,,,,,,,2025-05-14,1,,,,,コチエミ,0
2216,7050003009250,新規,0,2025-05-14,2025-05-14,Ｅ．Ｍ．Ｄ合同会社,,合同会社,茨城県,筑西市,玉戸１３３６番地２６７,,08,227,3080847,,,,,,,2025-05-14,1,,,,,イーエムディ,0
2222,7070001042929,新規,0,2025-05-14,2025-05-14,株式会社Ｈ＆ｅｍ,,株式会社,群馬県,前橋市,大手町１丁目１番２２号,,10,201,3710026,,,,,,,2025-05-14,1,,,,,エイチアンドイーエム,0
2228,7080103003308,新規,0,2025-05-14,2025-05-14,合同会社Ｓエレベート,,合同会社,静岡県,熱海市,泉２６９－１ダイアパレス湯河原ＧＨ２番館４０３,,22,205,4130001,,,,,,,2025-05-14,1,,,,,エスエレベート,0
2232,7100003008156,新規,0,2025-05-14,2025-05-14,合同会社森暮らし,,合同会社,長野県,上水内郡飯綱町,大字川上２７５５番地１５４７,,20,590,3891226,,,,,,,2025-05-14,1,,,,,モリグラシ,0
2238,7110003005747,新規,0,2025-05-14,2025-05-14,合同会社ここはれて,,合同会社,新潟県,上越市,本町４丁目３－１５、１Ｆ,,15,222,9430832,,,,,,,2025-05-14,1,,,,,ココハレテ,0
2239,7110005017229,新規,0,2025-05-14,2025-05-14,一般社団法人日本海ゆうひ花火実行委員会,,その他の設立登記法人,新潟県,新潟市西蒲区,橋本１０３７番地,,15,108,9530103,,,,,,,2025-05-14,1,,,,,ニホンカイユウヒハナビジッコウイインカイ,0
2255,7120001275382,新規,0,2025-05-14,2025-05-14,宸澤国際株式会社,,株式会社,大阪府,大阪市生野区,巽北１丁目１番１号１Ｆ－Ｇ,,27,116,5440004,,,,,,,2025-05-14,1,,,,,シンタクコクサイ,0
2256,7120001275399,新規,0,2025-05-14,2025-05-14,株式会社Ａｔｅｌｉｅｒ　ＬｕｌｕＨａｌｕ,,株式会社,大阪府,大阪市生野区,田島５丁目１９番２号,,27,116,5440011,,,,,,,2025-05-14,1,,,,,アトリエルルハル,0
2257,7120001275416,新規,0,2025-05-14,2025-05-14,株式会社ＳＬＥＥＰＹ,,株式会社,大阪府,大阪市西区,新町１丁目８番２０号ＫＡＤＯＭＯＲＩビル２階,,27,106,5500013,,,,,,,2025-05-14,1,,,,,スリーピー,0
2258,7120001275597,新規,0,2025-05-14,2025-05-14,Ｅｍｂｅｒ株式会社,,株式会社,大阪府,大阪市淀川区,十三東１丁目２０－１８ネオハイツ新淀川５０２号,,27,123,5320023,,,,,,,2025-05-14,1,,,,,エンバー,0
2259,7120001275630,新規,0,2025-05-14,2025-05-14,株式会社タカギ,,株式会社,大阪府,大阪市淀川区,西中島４丁目３番２１号１０階,,27,123,5320011,,,,,,,2025-05-14,1,,,,,タカギ,0
2262,7120003029365,新規,0,2025-05-14,2025-05-14,ＯＹＤ合同会社,,合同会社,大阪府,大阪市天王寺区,上本町５丁目３－９－３０３,,27,109,5430001,,,,,,,2025-05-14,1,,,,,オーワイディ,0
2274,7122001039197,新規,0,2025-05-14,2025-05-14,株式会社ＧＬホーム,,株式会社,大阪府,東大阪市,長堂３丁目２０番１０号,,27,227,5770056,,,,,,,2025-05-14,1,,,,,ジーエルホーム,0
2278,7130003010423,新規,0,2025-05-14,2025-05-14,合同会社Ｋ＆Ｙ,,合同会社,京都府,京都市北区,紫竹東大門町３７－１,,26,101,6038413,,,,,,,2025-05-14,1,,,,,ケーアンドワイ,0
2286,7140001138513,新規,0,2025-05-14,2025-05-14,株式会社かも,,株式会社,兵庫県,神戸市中央区,御幸通６丁目１番２０号２階,,28,110,6510087,,,,,,,2025-05-14,1,,,,,カモ,0
2287,7140001138521,新規,0,2025-05-14,2025-05-14,株式会社ＮｅｏＳ,,株式会社,兵庫県,たつの市,揖西町土師１４６番地３５,,28,229,6794017,,,,,,,2025-05-14,1,,,,,ネオス,0
2290,7140003022054,新規,0,2025-05-14,2025-05-14,ｎｉｃｏｍｉｌａｉ合同会社,,合同会社,兵庫県,尼崎市,武庫之荘本町１丁目１３番２６号,,28,202,6610031,,,,,,,2025-05-14,1,,,,,ニコミライ,0
2294,7160001026740,新規,0,2025-05-14,2025-05-14,泰州国際貿易株式会社,,株式会社,滋賀県,高島市,新旭町針江２－２２０号,,25,212,5201502,,,,,,,2025-05-14,1,,,,,タイシュウコクサイボウエキ,0
2302,7180001166642,新規,0,2025-05-14,2025-05-14,株式会社ｒｅｐａｉｒ,,株式会社,愛知県,名古屋市千種区,下方町７丁目２３番地グランシャリオ覚王山３０５号,,23,101,4640096,,,,,,,2025-05-14,1,,,,,リペア,0
2303,7180001166840,新規,0,2025-05-14,2025-05-14,株式会社菜ごころ,,株式会社,愛知県,名古屋市千種区,豊年町８番２０号,,23,101,4640076,,,,,,,2025-05-14,1,,,,,ナゴコロ,0
2308,7180005021100,新規,0,2025-05-14,2025-05-14,協同組合アップドリーム,,その他の設立登記法人,愛知県,海部郡蟹江町,今西２丁目９６番地４,,23,425,4970037,,,,,,,2025-05-14,1,,,,,アップドリーム,0
2310,7180301039804,新規,0,2025-05-14,2025-05-14,ＨＡＲＵＭＡ株式会社,,株式会社,愛知県,岡崎市,田口町字深田６５番地,,23,202,4443172,,,,,,,2025-05-14,1,,,,,ハルマ,0
2311,7180303006570,新規,0,2025-05-14,2025-05-14,ＦＥＬ合同会社,,合同会社,愛知県,岡崎市,康生通西３丁目１５番地７岡崎タワーレジデンス２４０３,,23,202,4440059,,,,,,,2025-05-14,1,,,,,エフイーエル,0
2315,7200001043764,新規,0,2025-05-14,2025-05-14,株式会社ＳＫＰ,,株式会社,岐阜県,各務原市,那加日新町６丁目３番地,,21,213,5040945,,,,,,,2025-05-14,1,,,,,エスケーピー,0
2317,7210001020168,新規,0,2025-05-14,2025-05-14,株式会社ＧＯＯＤ　ＭＯＲＮＩＮＧ,,株式会社,福井県,福井市,大宮２丁目２番２号,,18,201,9100016,,,,,,,2025-05-14,1,,,,,グッドモーニング,0
2320,7230003002427,新規,0,2025-05-14,2025-05-14,合同会社福嘉,,合同会社,富山県,富山市,月見町２丁目６４番地,,16,201,9398136,,,,,,,2025-05-14,1,,,,,フクヨシ,0
2328,7260001040178,新規,0,2025-05-14,2025-05-14,株式会社ともいき,,株式会社,岡山県,笠岡市,笠岡５８９１番地２,,33,205,7140081,,,,,,,2025-05-14,1,,,,,トモイキ,0
2338,7290001110011,新規,0,2025-05-14,2025-05-14,株式会社ＫＯＴＯＢＵＫＩ,,株式会社,福岡県,福岡市西区,野方６丁目３４番２１－２０２号,,40,135,8190043,,,,,,,2025-05-14,1,,,,,コトブキ,0
2340,7290003016801,新規,0,2025-05-14,2025-05-14,合同会社クリアフィールド,,合同会社,福岡県,糟屋郡志免町,志免中央１丁目１２－７,,40,343,8112244,,,,,,,2025-05-14,1,,,,,クリアフィールド,0
2348,7330003011005,新規,0,2025-05-14,2025-05-14,合同会社ＩＤＥＡＳ,,合同会社,熊本県,山鹿市,久原５７９番地１,,43,208,8610522,,,,,,,2025-05-14,1,,,,,アイディアズ,0
2349,7340001027332,新規,0,2025-05-14,2025-05-14,株式会社リサイクル芦北,,株式会社,鹿児島県,鹿屋市,浜田町２０３番地,,46,203,8930053,,,,,,,2025-05-14,1,,,,,リサイクルアシキタ,0
2358,7370001052575,新規,0,2025-05-14,2025-05-14,株式会社ＩＦマネジメント,,株式会社,宮城県,仙台市青葉区,片平１丁目１番８号パルティーレＥＸＥ片平タワー７０５,,04,101,9800812,,,,,,,2025-05-14,1,,,,,アイエフマネジメント,0
2364,7400001017038,新規,0,2025-05-14,2025-05-14,株式会社Ｂｅ　ａｌｉｖｅ,,株式会社,岩手県,盛岡市,中ノ橋通１丁目５番３３号,,03,201,0200871,,,,,,,2025-05-14,1,,,,,ビーアライブ,0
2366,7400003003457,新規,0,2025-05-14,2025-05-14,合同会社Ｗｙｄ,,合同会社,岩手県,宮古市,西ヶ丘４丁目１－２,,03,202,0270041,,,,,,,2025-05-14,1,,,,,ワッド,0
2374,7440003001688,新規,0,2025-05-14,2025-05-14,４２Ｄ計画合同会社,,合同会社,北海道,亀田郡七飯町,大沼３２２番３号,,01,337,0411100,,,,,,,2025-05-14,1,,,,,ヨンジュウニディケイカク,0
2379,7470001020704,新規,0,2025-05-14,2025-05-14,株式会社ツース,,株式会社,香川県,高松市,伏石町２１７４番地８,,37,201,7618071,,,,,,,2025-05-14,1,,,,,ツース,0
2382,7700150130445,新規,0,2025-05-14,2025-05-14,ＴＳ　ＣＯＮＴＡＩＮＥＲ　ＬＩＮＥＳ　ＰＴＥ．ＬＴＤ．,,外国会社等,,,,,,,,２００　ＣＡＮＴＯＮＭＥＮＴ　ＲＯＡＤ　＃１３－０６　ＳＯＵＴＨＰＯＩＮＴ　ＳＩＮＧＡＰＯＲＥ,,,,,,2025-05-14,1,,,,,ティエスコンティナーラインズプライベートリミテッド,0
2383,7700150130453,新規,0,2025-05-14,2025-05-14,ＲＯＫＩ　Ｒ＆Ｄ　Ｉｎｄｉａ　Ｐｒｉｖａｔｅ　Ｌｉｍｉｔｅｄ,,外国会社等,,,,,,,,Ｐｌｏｔ　Ｎｏ．２５９，Ｕｄｙｏｇ　Ｖｉｈａｒ，ＰｈａｓｅーＩＶ，Ｇｕｒｕｇｒａｍー１２２０１６，Ｈａｒｙａｎａ，Ｉｎｄｉａ,00139137,,,,,2025-05-14,1,,,,,ロキアールアンドデイーインデイアプライベートリミテツド,0
2390,8010001254941,新規,0,2025-05-14,2025-05-14,株式会社オリガミツキ,,株式会社,東京都,千代田区,麹町４丁目５番地２０ＫＳビル８階,,13,101,1020083,,,,,,,2025-05-14,1,,,,,オリガミツキ,0
2393,8010003047344,新規,0,2025-05-14,2025-05-14,合同会社東京テクニカルサービス,,合同会社,東京都,中央区,銀座１丁目２２番１１号銀座大竹ビジデンス２階,,13,102,1040061,,,,,,,2025-05-14,1,,,,,トウキョウテクニカルサービス,0
2401,8010401189993,新規,0,2025-05-14,2025-05-14,エネルトランス・グローバル・ジャパン株式会社,,株式会社,東京都,港区,浜松町２丁目２番１５号浜松町ダイヤビル２Ｆ,,13,103,1050013,,,,,,,2025-05-14,1,,,,,エネルトランスグローバルジャパン,0
2402,8010401190233,新規,0,2025-05-14,2025-05-14,ＴＲＩＡＳ株式会社,,株式会社,東京都,港区,南青山３丁目８－４０青山センタービル２Ｆ２２,,13,103,1070062,,,,,,,2025-05-14,1,,,,,トリアス,0
2405,8010403035015,新規,0,2025-05-14,2025-05-14,合同会社Ｒｅａｌ　Ｍｅ,,合同会社,東京都,港区,三田１丁目１－１２－９０１,,13,103,1080073,,,,,,,2025-05-14,1,,,,,リアルミー,0
2406,8010403035056,新規,0,2025-05-14,2025-05-14,ＰＯＷＥＲ　ＰＯＯＬ１号合同会社,,合同会社,東京都,港区,芝４丁目９番３号芝石井ビル４階,,13,103,1080014,,,,,,,2025-05-14,1,,,,,パワープールイチゴウ,0
2412,8010701047686,新規,0,2025-05-14,2025-05-14,リベルベース株式会社,,株式会社,東京都,品川区,西五反田１丁目２６番２号五反田サンハイツ９１１,,13,109,1410031,,,,,,,2025-05-14,1,,,,,リベルベース,0
2413,8010703007705,新規,0,2025-05-14,2025-05-14,ＫＯＫＩＭＵＲＡ合同会社,,合同会社,東京都,品川区,西五反田３丁目１５－６リードシー目黒不動前ビル７－１６,,13,109,1410031,,,,,,,2025-05-14,1,,,,,コウキムラ,0
2421,8010903009914,新規,0,2025-05-14,2025-05-14,ｅｓｋエージェンシー合同会社,,合同会社,東京都,世田谷区,南烏山５丁目１番２０－３１５号,,13,112,1570062,,,,,,,2025-05-14,1,,,,,イーエスケーエージェンシー,0
2425,8011001169353,新規,0,2025-05-14,2025-05-14,株式会社全日本害獣駆除救急サービス,,株式会社,東京都,渋谷区,渋谷２丁目１９番１５号,,13,113,1500002,,,,,,,2025-05-14,1,,,,,ゼンニホンガイジュウクジョキュウキュウサービス,0
2426,8011001169361,新規,0,2025-05-14,2025-05-14,株式会社風と森,,株式会社,東京都,渋谷区,恵比寿西２丁目８番４号ＥＸ恵比寿西ビル５階,,13,113,1500021,,,,,,,2025-05-14,1,,,,,カゼトモリ,0
2427,8011001169386,新規,0,2025-05-14,2025-05-14,株式会社ＭａｓＫＯＦＦ,,株式会社,東京都,渋谷区,恵比寿西１丁目３３番６－２１６号ＪＰｎｏｉｅ恵比寿西,,13,113,1500021,,,,,,,2025-05-14,1,,,,,マスクオフ,0
2428,8011001169469,新規,0,2025-05-14,2025-05-14,Ｊ＆Ｂ株式会社,,株式会社,東京都,目黒区,洗足２丁目１８番４号,,13,110,1520012,,,,,,,2025-05-14,1,,,,,ジェーアンドビー,0
2429,8011001169519,新規,0,2025-05-14,2025-05-14,ＳＴＲＵＴＺ株式会社,,株式会社,東京都,渋谷区,渋谷２丁目１９－１５宮益坂ビルディング６０９,,13,113,1500002,,,,,,,2025-05-14,1,,,,,ストラッツ,0
2430,8011001169709,新規,0,2025-05-14,2025-05-14,株式会社ＮａｎｉｋＡ,,株式会社,東京都,渋谷区,神南１丁目１１－４ＦＰＧリンクス神南５階,,13,113,1500041,,,,,,,2025-05-14,1,,,,,ナニカ,0
2431,8011003021529,新規,0,2025-05-14,2025-05-14,合同会社リンクスル,,合同会社,東京都,渋谷区,神泉町１０番１５号アネックス神泉３０１,,13,113,1500045,,,,,,,2025-05-14,1,,,,,リンクスル,0
2432,8011003021537,新規,0,2025-05-14,2025-05-14,ＣＦＪ合同会社,,合同会社,東京都,目黒区,八雲３丁目２１番１５号,,13,110,1520023,,,,,,,2025-05-14,1,,,,,シーエフジェイ,0
2435,8011101111693,新規,0,2025-05-14,2025-05-14,株式会社ネオクロス,,株式会社,東京都,新宿区,高田馬場２丁目１７番３号東京三協信用金庫本店ビル,,13,104,1690075,,,,,,,2025-05-14,1,,,,,ネオクロス,0
2436,8011103015868,新規,0,2025-05-14,2025-05-14,プラストコンサルティング合同会社,,合同会社,東京都,新宿区,下落合１丁目２－１６－６０１,,13,104,1610033,,,,,,,2025-05-14,1,,,,,プラストコンサルティング,0
2441,8011503006533,新規,0,2025-05-14,2025-05-14,Ｆｒｏｋｅｎ合同会社,,合同会社,東京都,荒川区,東日暮里３丁目９－４－７０４,,13,118,1160014,,,,,,,2025-05-14,1,,,,,フロークン,0
2445,8011803006852,新規,0,2025-05-14,2025-05-14,越朝日合同会社,,合同会社,東京都,足立区,綾瀬２丁目１１番３号コーポ蓬来１０１号,,13,121,1200005,,,,,,,2025-05-14,1,,,,,エツアサヒ,0
2446,8012301014380,新規,0,2025-05-14,2025-05-14,株式会社晩餐,,株式会社,東京都,町田市,南大谷２丁目３番３号,,13,209,1940031,,,,,,,2025-05-14,1,,,,,バンサン,0
2447,8012303002160,新規,0,2025-05-14,2025-05-14,合同会社Ｙ２,,合同会社,東京都,町田市,原町田６丁目２５番４号ＳＫビル一階,,13,209,1940013,,,,,,,2025-05-14,1,,,,,ワイツー,0
2452,8012703003262,新規,0,2025-05-14,2025-05-14,Ｌｕｎｅ＆Ｃｏ合同会社,,合同会社,東京都,東久留米市,本町２丁目４番５号,,13,222,2030053,,,,,,,2025-05-14,1,,,,,ルーンアンドコー,0
2455,8012801023963,新規,0,2025-05-14,2025-05-14,株式会社ｅｎ,,株式会社,東京都,立川市,栄町４丁目２２番地の１５,,13,202,1900003,,,,,,,2025-05-14,1,,,,,エン,0
2465,8020001162771,新規,0,2025-05-14,2025-05-14,株式会社Ｂｒｉｃｏｌａｇｅ＆Ｌｏ,,株式会社,神奈川県,川崎市宮前区,土橋６丁目３番地５５,,14,136,2160005,,,,,,,2025-05-14,1,,,,,ブリコラージュアンドロー,0
2466,8020001162788,新規,0,2025-05-14,2025-05-14,株式会社ナカコー,,株式会社,神奈川県,横浜市緑区,北八朔町１４１４番地５,,14,113,2260021,,,,,,,2025-05-14,1,,,,,ナカコー,0
2467,8020001162796,新規,0,2025-05-14,2025-05-14,株式会社山田興業ＹＭＤ,,株式会社,神奈川県,横浜市西区,浜松町１４番１４－１０５号,,14,103,2200055,,,,,,,2025-05-14,1,,,,,ヤマダコウギョウワイエムディ,0
2469,8020003028418,新規,0,2025-05-14,2025-05-14,合同会社ミタキ,,合同会社,神奈川県,横浜市旭区,白根６丁目２６番１０号プランドール１０２号室,,14,112,2410005,,,,,,,2025-05-14,1,,,,,ミタキ,0
2470,8020003028434,新規,0,2025-05-14,2025-05-14,合同会社エイトリフォーム,,合同会社,神奈川県,横浜市中区,扇町１丁目１番地２５,,14,104,2310027,,,,,,,2025-05-14,1,,,,,エイトリフォーム,0
2475,8021001085203,新規,0,2025-05-14,2025-05-14,Ｅｌｌｅ　Ｆｉｌｍ株式会社,,株式会社,神奈川県,横須賀市,東浦賀２丁目２２番１－５０５号ミレニアムレジデンス浦賀,,14,201,2390821,,,,,,,2025-05-14,1,,,,,エルフィルム,0
2478,8021003015983,新規,0,2025-05-14,2025-05-14,合同会社てんてらす,,合同会社,神奈川県,相模原市緑区,橋本８丁目２２番１３号,,14,151,2520143,,,,,,,2025-05-14,1,,,,,テンテラス,0
2500,8040001138712,新規,0,2025-05-14,2025-05-14,株式会社ごとでん,,株式会社,千葉県,船橋市,八木が谷１丁目３２番１８号,,12,204,2740802,,,,,,,2025-05-14,1,,,,,ゴトデン,0
2501,8040001138753,新規,0,2025-05-14,2025-05-14,株式会社サクラサービス,,株式会社,千葉県,柏市,若柴１７８番地４柏の葉キャンパス１４８街区１Ｅ－２１０７,,12,217,2770871,,,,,,,2025-05-14,1,,,,,サクラサービス,0
2504,8040003027558,新規,0,2025-05-14,2025-05-14,合同会社クリア,,合同会社,千葉県,いすみ市,大原１００５９番地４,,12,238,2980004,,,,,,,2025-05-14,1,,,,,クリア,0
2512,8050001056649,新規,0,2025-05-14,2025-05-14,ＴＳＫホールディングス株式会社,,株式会社,茨城県,潮来市,水原３０８０番地,,08,223,3112404,,,,,,,2025-05-14,1,,,,,ティーエスケーホールディングス,0
2513,8050001056657,新規,0,2025-05-14,2025-05-14,株式会社エネルフト,,株式会社,茨城県,笠間市,鯉淵６５１５番地８,,08,216,3091703,,,,,,,2025-05-14,1,,,,,エネルフト,0
2514,8050001056665,新規,0,2025-05-14,2025-05-14,株式会社ｓａｋｕｒｉｅｌ,,株式会社,茨城県,水戸市,中央２丁目３番１２－２０１号シーガーディアン,,08,201,3100805,,,,,,,2025-05-14,1,,,,,サクリエル,0
2516,8060001038159,新規,0,2025-05-14,2025-05-14,株式会社Ｓ．Ｒ．Ｋ,,株式会社,栃木県,下都賀郡壬生町,大字安塚８５９番地１１,,09,361,3210201,,,,,,,2025-05-14,1,,,,,エスアールケー,0
2517,8060001038191,新規,0,2025-05-14,2025-05-14,株式会社横田設備,,株式会社,栃木県,栃木市,大平町富田２４１６番地１０,,09,203,3294404,,,,,,,2025-05-14,1,,,,,ヨコタセツビ,0
2524,8080003003456,新規,0,2025-05-14,2025-05-14,ＧＲＡＣＥ　ＪＡＰＡＮ合同会社,,合同会社,静岡県,静岡市葵区,栄町２番地５アークビルディング５０２,,22,101,4200859,,,,,,,2025-05-14,1,,,,,グレイスジャパン,0
2528,8080403005259,新規,0,2025-05-14,2025-05-14,モデラート合同会社,,合同会社,静岡県,浜松市中央区,砂山町３６１番１号２Ａ号室,,22,138,4300926,,,,,,,2025-05-14,1,,,,,モデラート,0
2533,8100003008155,新規,0,2025-05-14,2025-05-14,合同会社Ｌｕｘ　ｗｏｒｋｓ,,合同会社,長野県,安曇野市,豊科高家２５３６番地,,20,220,3998204,,,,,,,2025-05-14,1,,,,,ラックスワークス,0
2535,8110001039250,新規,0,2025-05-14,2025-05-14,株式会社ベーカリースタジオ,,株式会社,新潟県,新潟市西区,黒鳥３０３２番地,,15,107,9501123,,,,,,,2025-05-14,1,,,,,ベーカリースタジオ,0
2536,8110003005746,新規,0,2025-05-14,2025-05-14,合同会社こぐま,,合同会社,新潟県,小千谷市,高梨町３１７９,,15,208,9470102,,,,,,,2025-05-14,1,,,,,コグマ,0
2548,8120001275299,新規,0,2025-05-14,2025-05-14,凱楽天株式会社,,株式会社,大阪府,大阪市西成区,橘１丁目１１番２８号オフィスポート橘５１４号室,,27,122,5570051,,,,,,,2025-05-14,1,,,,,カイラクテン,0
2549,8120001275464,新規,0,2025-05-14,2025-05-14,株式会社Ｆｒｅｅｄｏｍ　Ｒｉｄｅ,,株式会社,大阪府,大阪市阿倍野区,丸山通２丁目８番１７号,,27,119,5450042,,,,,,,2025-05-14,1,,,,,フリーダムライド,0
2550,8120001275506,新規,0,2025-05-14,2025-05-14,一衡株式会社,,株式会社,大阪府,門真市,脇田町１５番６号,,27,223,5710011,,,,,,,2025-05-14,1,,,,,イッコウ,0
2551,8120001275547,新規,0,2025-05-14,2025-05-14,株式会社テックシフト,,株式会社,大阪府,大阪市北区,中崎西２丁目２番１号,,27,127,5300015,,,,,,,2025-05-14,1,,,,,テックシフト,0
2557,8120003029356,新規,0,2025-05-14,2025-05-14,Ｒｅｈｅ合同会社,,合同会社,大阪府,大阪市中央区,松屋町１０番４－８０３号,,27,128,5420067,,,,,,,2025-05-14,1,,,,,リーヘェ,0
2558,8120003029372,新規,0,2025-05-14,2025-05-14,グットリザルト合同会社,,合同会社,大阪府,大阪市北区,梅田１丁目２番２号大阪駅前第２ビル１２－１２,,27,127,5300001,,,,,,,2025-05-14,1,,,,,グットリザルト,0
2559,8120003029389,新規,0,2025-05-14,2025-05-14,合同会社サカキ,,合同会社,大阪府,大阪市住之江区,新北島７丁目１番７３号,,27,125,5590024,,,,,,,2025-05-14,1,,,,,サカキ,0
2564,8120901050900,新規,0,2025-05-14,2025-05-14,株式会社日麗不動産,,株式会社,大阪府,豊中市,永楽荘３丁目７番８の１号,,27,203,5600051,,,,,,,2025-05-14,1,,,,,ニチレイフドウサン,0
2572,8130001079666,新規,0,2025-05-14,2025-05-14,株式会社ＴＯＲＡ,,株式会社,京都府,京都市左京区,松ケ崎小竹薮町３番地３号３０７,,26,103,6060967,,,,,,,2025-05-14,1,,,,,トラ,0
2574,8130003010455,新規,0,2025-05-14,2025-05-14,合同会社ＡＫＩＯＳＴＹＬＥ,,合同会社,京都府,京都市下京区,堀川通五条下る柿本町５８０－１３ルーエ五条堀川２０３号室,,26,106,6008357,,,,,,,2025-05-14,1,,,,,アキオスタイル,0
2580,8140001138495,新規,0,2025-05-14,2025-05-14,Ｎ‐ｒｕｎｎｅｒ株式会社,,株式会社,兵庫県,尼崎市,武庫之荘東１丁目８番２８－４０１号,,28,202,6610032,,,,,,,2025-05-14,1,,,,,エヌランナー,0
2581,8140001138520,新規,0,2025-05-14,2025-05-14,株式会社ルミ・マート,,株式会社,兵庫県,神戸市西区,池上２丁目３０－１伊川センタービルＡ－２,,28,111,6512111,,,,,,,2025-05-14,1,,,,,ルミマート,0
2584,8140005027505,新規,0,2025-05-14,2025-05-14,一般財団法人ウィングストン・ジャパン財団,,その他の設立登記法人,兵庫県,西宮市,鷲林寺南町２番４０号,,28,204,6620002,,,,,,,2025-05-14,1,,,,,ウィングストンジャパンザイダン,0
2595,8180001166798,新規,0,2025-05-14,2025-05-14,株式会社ＹＷＤ,,株式会社,愛知県,名古屋市緑区,青山１丁目６３,,23,114,4580833,,,,,,,2025-05-14,1,,,,,ワイダブリューディー,0
2596,8180001166815,新規,0,2025-05-14,2025-05-14,株式会社はせでん,,株式会社,愛知県,知多市,岡田字善坪１１４番地,,23,224,4780021,,,,,,,2025-05-14,1,,,,,ハセデン,0
2605,8200001043788,新規,0,2025-05-14,2025-05-14,株式会社レイテック,,株式会社,岐阜県,多治見市,明和町３丁目１番地の３０,,21,204,5070072,,,,,,,2025-05-14,1,,,,,レイテック,0
2608,8200003006826,新規,0,2025-05-14,2025-05-14,合同会社ありがとう,,合同会社,岐阜県,多治見市,金岡町５丁目１番地の１８,,21,204,5070016,,,,,,,2025-05-14,1,,,,,アリガトウ,0
2609,8210005010206,新規,0,2025-05-14,2025-05-14,一般社団法人ＤＡＩＳＵＫＩ,,その他の設立登記法人,福井県,福井市,米松１丁目１５－４１米松アートビル１階,,18,201,9100851,,,,,,,2025-05-14,1,,,,,ダイスキ,0
2626,8270003001746,新規,0,2025-05-14,2025-05-14,プログレスジャパン合同会社,,合同会社,鳥取県,鳥取市,湖山町東３丁目９５番地,,31,201,6800942,,,,,,,2025-05-14,1,,,,,プログレスジャパン,0
2634,8290001109985,新規,0,2025-05-14,2025-05-14,株式会社藤本住設,,株式会社,福岡県,福岡市西区,横浜１丁目４３番３５号,,40,135,8190166,,,,,,,2025-05-14,1,,,,,フジモトジュウセツ,0
2638,8290003016809,新規,0,2025-05-14,2025-05-14,Ｙ＆Ｋ合同会社,,合同会社,福岡県,八女市,豊福３０６番地３,,40,210,8340016,,,,,,,2025-05-14,1,,,,,ワイアンドケイ,0
2640,8290803005052,新規,0,2025-05-14,2025-05-14,合同会社ＳＧＲ,,合同会社,福岡県,北九州市小倉南区,守恒２丁目８‐３３‐１２１１,,40,107,8020972,,,,,,,2025-05-14,1,,,,,エスジーアール,0
2641,8320001021096,新規,0,2025-05-14,2025-05-14,株式会社ＪＳアライアンス,,株式会社,大分県,別府市,石垣西２丁目１番１７－４０３号アメニティー２１Ａ棟,,44,202,8740910,,,,,,,2025-05-14,1,,,,,ジェイエスアライアンス,0
2643,8330001033181,新規,0,2025-05-14,2025-05-14,株式会社Ｔ,,株式会社,熊本県,上益城郡甲佐町,大字有安５６０番地２,,43,444,8614605,,,,,,,2025-05-14,1,,,,,ティー,0
2647,8330003011012,新規,0,2025-05-14,2025-05-14,レスキューアイ合同会社,,合同会社,熊本県,熊本市南区,八幡１１丁目２番１０号,,43,104,8614113,,,,,,,2025-05-14,1,,,,,レスキューアイ,0
2653,8340005009870,新規,0,2025-05-14,2025-05-14,一般社団法人学童クラブいちょうのき,,その他の設立登記法人,鹿児島県,薩摩川内市,中郷３丁目１３２番地１,,46,215,8950072,,,,,,,2025-05-14,1,,,,,ガクドウクラブイチョウノキ,0
2663,8420001019139,新規,0,2025-05-14,2025-05-14,株式会社いちのへ,,株式会社,青森県,北津軽郡鶴田町,大字山道字小泉１７６番地１,,02,384,0383515,,,,,,,2025-05-14,1,,,,,イチノヘ,0
2672,8430001094387,新規,0,2025-05-14,2025-05-14,株式会社テクノアイ,,株式会社,北海道,札幌市中央区,南十二条西２２丁目１－３５クレール旭ヶ丘２０４,,01,101,0640912,,,,,,,2025-05-14,1,,,,,テクノアイ,0
2673,8430001094395,新規,0,2025-05-14,2025-05-14,株式会社ＤＣＡ設計一級建築士事務所,,株式会社,北海道,札幌市西区,八軒二条東１丁目６番１５－７０１号,,01,107,0630862,,,,,,,2025-05-14,1,,,,,ディーシーエーセッケイイッキュウケンチクシジムショ,0
2677,8430003017643,新規,0,2025-05-14,2025-05-14,久伸興業合同会社,,合同会社,北海道,千歳市,北陽７丁目１番８号,,01,224,0660032,,,,,,,2025-05-14,1,,,,,キュウシンコウギョウ,0
2686,8500001026283,新規,0,2025-05-14,2025-05-14,まつめいホールディングス株式会社,,株式会社,愛媛県,松山市,勝山町２丁目４１番地７,,38,201,7900878,,,,,,,2025-05-14,1,,,,,マツメイホールディングス,0
2705,9010003047236,新規,0,2025-05-14,2025-05-14,合同会社平山経済研究所,,合同会社,東京都,中央区,築地４丁目１番１号東劇ビル８階,,13,102,1040045,,,,,,,2025-05-14,1,,,,,ヒラヤマケイザイケンキュウショ,0
2706,9010003047252,新規,0,2025-05-14,2025-05-14,合同会社ＯＮＥ’ｓ,,合同会社,東京都,中央区,銀座８丁目５番９号第２誠和ビル４階,,13,102,1040061,,,,,,,2025-05-14,1,,,,,ワンズ,0
2708,9010101016679,新規,0,2025-05-14,2025-05-14,株式会社悠かホーム,,株式会社,東京都,八王子市,千人町２丁目３番１８－４０２号,,13,201,1930835,,,,,,,2025-05-14,1,,,,,ハルカホーム,0
2712,9010401190091,新規,0,2025-05-14,2025-05-14,株式会社ｅｉｇｈｔ,,株式会社,東京都,港区,赤坂６丁目１９－５２３０１号室,,13,103,1070052,,,,,,,2025-05-14,1,,,,,エイト,0
2713,9010401190174,新規,0,2025-05-14,2025-05-14,株式会社ランドワークス・エステート,,株式会社,東京都,港区,芝３丁目３１－６,,13,103,1050014,,,,,,,2025-05-14,1,,,,,ランドワークスエステート,0
2714,9010401190224,新規,0,2025-05-14,2025-05-14,株式会社ｍｉｍｉｎｙｕ,,株式会社,東京都,港区,北青山１丁目３番１号アールキューブ青山３階,,13,103,1070061,,,,,,,2025-05-14,1,,,,,ミミニュウ,0
2715,9010403035055,新規,0,2025-05-14,2025-05-14,合同会社オフィス杉田,,合同会社,東京都,港区,三田５丁目１３番８,,13,103,1080073,,,,,,,2025-05-14,1,,,,,オフィススギタ,0
2716,9010403035071,新規,0,2025-05-14,2025-05-14,合同会社東京トレーディング,,合同会社,東京都,港区,六本木７丁目１０番１号福一六本木ビル２０２,,13,103,1060032,,,,,,,2025-05-14,1,,,,,トウキョウトレーディング,0
2720,9010701047660,新規,0,2025-05-14,2025-05-14,株式会社ＣＯＣ,,株式会社,東京都,品川区,西五反田１丁目２番１０号,,13,109,1410031,,,,,,,2025-05-14,1,,,,,シーオーシー,0
2721,9010701047685,新規,0,2025-05-14,2025-05-14,株式会社Ｐｏｓｉｔｉｖｅ,,株式会社,東京都,品川区,西五反田５丁目２３番３号,,13,109,1410031,,,,,,,2025-05-14,1,,,,,ポジティブ,0
2722,9010701047693,新規,0,2025-05-14,2025-05-14,株式会社Ｔａｃｔａ建築設計事務所,,株式会社,東京都,品川区,西五反田５丁目２３番３号３１２,,13,109,1410031,,,,,,,2025-05-14,1,,,,,タクタケンチクセッケイジムショ,0
2727,9010901057352,新規,0,2025-05-14,2025-05-14,株式会社Ｎｏｃｔｉｖｅ,,株式会社,東京都,世田谷区,北沢３丁目２３番５－３０７号,,13,112,1550031,,,,,,,2025-05-14,1,,,,,ノクティブ,0
2732,9011001169336,新規,0,2025-05-14,2025-05-14,株式会社アリエル,,株式会社,東京都,渋谷区,代々木２丁目３３番１号ライフロックスアイル３０３号室,,13,113,1510053,,,,,,,2025-05-14,1,,,,,アリエル,0
2733,9011001169344,新規,0,2025-05-14,2025-05-14,株式会社ＰＯＲＴＥＳ,,株式会社,東京都,渋谷区,桜丘町７－３ベラコート渋谷２０３,,13,113,1500031,,,,,,,2025-05-14,1,,,,,ポルテ,0
2734,9011001169369,新規,0,2025-05-14,2025-05-14,株式会社コーネル,,株式会社,東京都,目黒区,柿の木坂２丁目２４番１９号,,13,110,1520022,,,,,,,2025-05-14,1,,,,,コーネル,0
2735,9011001169385,新規,0,2025-05-14,2025-05-14,株式会社ＤＨＸ　ＪＡＰＡＮ,,株式会社,東京都,渋谷区,渋谷１丁目７番１号Ｓ－６ビル９Ｆ,,13,113,1500002,,,,,,,2025-05-14,1,,,,,ディーエイチエックスジャパン,0
2736,9011003021544,新規,0,2025-05-14,2025-05-14,合同会社ウッズ・コーポレーション,,合同会社,東京都,渋谷区,西原３丁目４１番６号,,13,113,1510066,,,,,,,2025-05-14,1,,,,,ウッズコーポレーション,0
2737,9011101111412,新規,0,2025-05-14,2025-05-14,株式会社ｉｎＳｈｏｗ,,株式会社,東京都,新宿区,西新宿３丁目３番１３号西新宿水間ビル２,,13,104,1600023,,,,,,,2025-05-14,1,,,,,インショウ,0
2739,9011103015875,新規,0,2025-05-14,2025-05-14,合同会社ウィンビィー２０５０,,合同会社,東京都,新宿区,馬場下町４０番地１２,,13,104,1620045,,,,,,,2025-05-14,1,,,,,ウィンビィーニセンゴジュウ,0
2743,9011301030569,新規,0,2025-05-14,2025-05-14,バーズネストリアルエステート株式会社,,株式会社,東京都,杉並区,阿佐谷南１丁目８－１９,,13,115,1660004,,,,,,,2025-05-14,1,,,,,バーズネストリアルエステート,0
2744,9011303005536,新規,0,2025-05-14,2025-05-14,合同会社ＢＴＹ,,合同会社,東京都,杉並区,大宮２丁目１７番８号,,13,115,1680061,,,,,,,2025-05-14,1,,,,,ビーティーワイ,0
2745,9011403004693,新規,0,2025-05-14,2025-05-14,合同会社ＥＮＤ　ＵＰ,,合同会社,東京都,板橋区,坂下２丁目３２番１１号ハッポウ蓮根２０１号,00139154,13,119,1740043,,,,,,,2025-05-14,1,,,,,エンドアップ,0
2751,9011803006843,新規,0,2025-05-14,2025-05-14,合同会社Ｌｉｎｇｏ,,合同会社,東京都,足立区,伊興５丁目２番８号,,13,121,1210823,,,,,,,2025-05-14,1,,,,,リンゴ,0
2760,9012801023962,新規,0,2025-05-14,2025-05-14,株式会社ＧＯＡＴ　Ｌｙｋｋｅ,,株式会社,東京都,国分寺市,東恋ヶ窪１丁目２８０番地４ザ・パークハウス国分寺四季の森ＩＩ－２２３,00139143,13,214,1850014,,,,,,,2025-05-14,1,,,,,ゴートリュッケ,0
2768,9020001162515,新規,0,2025-05-14,2025-05-14,株式会社ＳＵＲ,,株式会社,神奈川県,横浜市都筑区,加賀原１丁目２４番１４号,,14,118,2240055,,,,,,,2025-05-14,1,,,,,エスユーアール,0
2769,9020001162696,新規,0,2025-05-14,2025-05-14,ＧＥＮＫＡＩ株式会社,,株式会社,神奈川県,川崎市川崎区,駅前本町１１番地２川崎フロンティアビル４Ｆ,,14,131,2100007,,,,,,,2025-05-14,1,,,,,ゲンカイ,0
2770,9020001162754,新規,0,2025-05-14,2025-05-14,シックスセンス株式会社,,株式会社,神奈川県,横浜市神奈川区,新浦島町２丁目２－１－１１３,,14,102,2210031,,,,,,,2025-05-14,1,,,,,シックスセンス,0
2771,9020001162762,新規,0,2025-05-14,2025-05-14,株式会社ライニゲン,,株式会社,神奈川県,横浜市戸塚区,上矢部町１８５７番地２６,,14,110,2450053,,,,,,,2025-05-14,1,,,,,ライニゲン,0
2772,9020001162770,新規,0,2025-05-14,2025-05-14,株式会社ＭＡ　Ｐｌａｎｎｉｎｇ,,株式会社,神奈川県,川崎市高津区,上作延５丁目２５番２９号,,14,134,2130034,,,,,,,2025-05-14,1,,,,,エムエープランニング,0
2773,9020001162787,新規,0,2025-05-14,2025-05-14,株式会社ＡＰＥＸ,,株式会社,神奈川県,横浜市神奈川区,松本町４丁目３４番１ヒルズガーデン小泉ビル２０１号室,,14,102,2210841,,,,,,,2025-05-14,1,,,,,アペックス,0
2774,9020001162820,新規,0,2025-05-14,2025-05-14,株式会社ＩＧＮＵＳ,,株式会社,神奈川県,川崎市宮前区,土橋４丁目９番地１７,,14,136,2160005,,,,,,,2025-05-14,1,,,,,イグナス,0
2775,9020001162829,新規,0,2025-05-14,2025-05-14,株式会社ｆｕｌｌ　ｈｏｕｓｅ,,株式会社,神奈川県,横浜市旭区,さちが丘１４２番地３オーバーヒルズ参番館３０１号,,14,112,2410822,,,,,,,2025-05-14,1,,,,,フルハウス,0
2782,9021001085243,新規,0,2025-05-14,2025-05-14,株式会社カタナ,,株式会社,神奈川県,大和市,福田３６５番地９,,14,213,2420024,,,,,,,2025-05-14,1,,,,,カタナ,0
2787,9021003015982,新規,0,2025-05-14,2025-05-14,ＧＤアンサンブル合同会社,,合同会社,神奈川県,大和市,つきみ野３丁目１５番地２３,,14,213,2420002,,,,,,,2025-05-14,1,,,,,ジーディーアンサンブル,0
2788,9021003015999,新規,0,2025-05-14,2025-05-14,合同会社コケムス,,合同会社,神奈川県,鎌倉市,寺分１丁目１１番５号,,14,204,2470064,,,,,,,2025-05-14,1,,,,,コケムス,0
2789,9021005013365,新規,0,2025-05-14,2025-05-14,一般社団法人ＡＳＣ,,その他の設立登記法人,神奈川県,厚木市,中町１丁目８番３－５０３号,,14,212,2430018,,,,,,,2025-05-14,1,,,,,エーエスシー,0
2796,9030001166531,新規,0,2025-05-14,2025-05-14,株式会社ＧＹＡＯＳ,,株式会社,埼玉県,比企郡小川町,東小川５丁目１６－１７,,11,343,3550322,,,,,,,2025-05-14,1,,,,,ギャオス,0
2801,9030003026774,新規,0,2025-05-14,2025-05-14,合同会社まこと教育研究所,,合同会社,埼玉県,川口市,青木３丁目１０番２８号,,11,203,3320031,,,,,,,2025-05-14,1,,,,,マコトキョウイクケンキュウジョ,0
2808,9040001138744,新規,0,2025-05-14,2025-05-14,株式会社神戸工房,,株式会社,千葉県,長生郡一宮町,一宮３５０番地３２,,12,421,2994301,,,,,,,2025-05-14,1,,,,,カンベコウボウ,0
2809,9040001138760,新規,0,2025-05-14,2025-05-14,株式会社ＫＴ,,株式会社,千葉県,千葉市中央区,浜野町１０２５番地１２,,12,101,2600824,,,,,,,2025-05-14,1,,,,,ケーティー,0
2812,9040003027524,新規,0,2025-05-14,2025-05-14,合同会社ＯｎｅＯｆｆ,,合同会社,千葉県,千葉市美浜区,浜田１丁目３番地６３１号,,12,106,2610025,,,,,,,2025-05-14,1,,,,,ワンオフ,0
2813,9040003027549,新規,0,2025-05-14,2025-05-14,合同会社ＨＯＳＯＫＡＷＡ,,合同会社,千葉県,野田市,山崎２８００番地の５‐１０２,,12,208,2780022,,,,,,,2025-05-14,1,,,,,ホソカワ,0
2817,9050001056648,新規,0,2025-05-14,2025-05-14,株式会社モノシルク,,株式会社,茨城県,古河市,下辺見２０７５番地１８アメニティビル２０２号,,08,204,3060235,,,,,,,2025-05-14,1,,,,,モノシルク,0
2818,9050001056664,新規,0,2025-05-14,2025-05-14,常陸コース管理株式会社,,株式会社,茨城県,東茨城郡城里町,大字下赤沢５０４番地,,08,310,3114406,,,,,,,2025-05-14,1,,,,,ヒタチコースカンリ,0
2821,9060005010336,新規,0,2025-05-14,2025-05-14,一般社団法人とちぎ県民空き家相談センター,,その他の設立登記法人,栃木県,宇都宮市,御幸ケ原町８４番地２０,,09,201,3210982,,,,,,,2025-05-14,1,,,,,トチギケンミンアキヤソウダンセンター,0
2826,9080103003322,新規,0,2025-05-14,2025-05-14,ＡＫＲＡＭ　ＴＲＡＤＩＮＧ合同会社,,合同会社,静岡県,御殿場市,板妻３６７番地,,22,215,4120048,,,,,,,2025-05-14,1,,,,,アクラムトレーディング,0
2833,9080403005258,新規,0,2025-05-14,2025-05-14,合同会社Ｆｕｔｕｒｅ　Ｖｉｓｉｏｎ,,合同会社,静岡県,浜松市中央区,三方原町１６７３番地の１３,,22,138,4338105,,,,,,,2025-05-14,1,,,,,フーチャービジョン,0
2838,9100001038599,新規,0,2025-05-14,2025-05-14,株式会社未来フーズラボ,,株式会社,長野県,北佐久郡御代田町,大字馬瀬口８７６番地１,,20,323,3890207,,,,,,,2025-05-14,1,,,,,ミライフーズラボ,0
2850,9120001275083,新規,0,2025-05-14,2025-05-14,大阪東方海事株式会社,,株式会社,大阪府,大阪市天王寺区,上本町５丁目７番２－４１０号,,27,109,5430001,,,,,,,2025-05-14,1,,,,,オオサカトウホウカイジ,0
2851,9120001275364,新規,0,2025-05-14,2025-05-14,万達株式会社,,株式会社,大阪府,大阪市住吉区,南住吉４丁目６番７号１階,,27,120,5580041,,,,,,,2025-05-14,1,,,,,ワンダ,0
2852,9120001275372,新規,0,2025-05-14,2025-05-14,太子株式会社,,株式会社,大阪府,大阪市淀川区,西宮原３丁目２番１号新大阪ビジネス第２ニッケンマンション７２０号,,27,123,5320004,,,,,,,2025-05-14,1,,,,,タイシ,0
2853,9120001275406,新規,0,2025-05-14,2025-05-14,Ｂｅｔｔｅｒ　Ｊｏｂ株式会社,,株式会社,大阪府,大阪市淀川区,木川東３丁目５番１５－６０５号,,27,123,5320012,,,,,,,2025-05-14,1,,,,,ベタージョブ,0
2854,9120001275422,新規,0,2025-05-14,2025-05-14,ＧＭＳ株式会社,,株式会社,大阪府,大阪市阿倍野区,松崎町４丁目６番１６号,,27,119,5450053,,,,,,,2025-05-14,1,,,,,ジーエムエス,0
2855,9120001275439,新規,0,2025-05-14,2025-05-14,Ｏｎｅ　Ｉｎｎｏｖａｔｉｏｎ株式会社,,株式会社,大阪府,大阪市北区,西天満６丁目９番１６－１１０４号,,27,127,5300047,,,,,,,2025-05-14,1,,,,,ワンイノベーション,0
2856,9120001275455,新規,0,2025-05-14,2025-05-14,華信商貿株式会社,,株式会社,大阪府,大阪市大正区,小林西２丁目１５番３号２０４号室,,27,108,5510013,,,,,,,2025-05-14,1,,,,,カシンショウボウ,0
2857,9120001275496,新規,0,2025-05-14,2025-05-14,株式会社守護箱,,株式会社,大阪府,大阪市北区,西天満４丁目１１－８おおきに老松通りビル５０５号室,,27,127,5300047,,,,,,,2025-05-14,1,,,,,シュゴバコ,0
2858,9120001275505,新規,0,2025-05-14,2025-05-14,弘運トレーディング株式会社,,株式会社,大阪府,大阪市東住吉区,住道矢田８丁目４番４号レオパレス２１住道１０６号,,27,121,5460022,,,,,,,2025-05-14,1,,,,,コウウントレーディング,0
2859,9120001275579,新規,0,2025-05-14,2025-05-14,株式会社サビトレ,,株式会社,大阪府,大阪市中央区,南船場３丁目２番２２号おおきに南船場ビル２０５,,27,128,5420081,,,,,,,2025-05-14,1,,,,,サビトレ,0
2860,9120001275678,新規,0,2025-05-14,2025-05-14,株式会社ＶＡＴＯＮＥ,,株式会社,大阪府,大阪市東成区,大今里西１丁目２５番１３号南星ビル４０３号室,,27,115,5370014,,,,,,,2025-05-14,1,,,,,バトン,0
2861,9120001275686,新規,0,2025-05-14,2025-05-14,株式会社いろどり企画,,株式会社,大阪府,門真市,千石東町３７－１３,,27,223,5710013,,,,,,,2025-05-14,1,,,,,イロドリキカク,0
2863,9120003029339,新規,0,2025-05-14,2025-05-14,合同会社ふくろう,,合同会社,大阪府,大阪市浪速区,下寺３丁目１番１４－１１０６号,,27,111,5560001,,,,,,,2025-05-14,1,,,,,フクロウ,0
2864,9120003029355,新規,0,2025-05-14,2025-05-14,合同会社Ｒｅｃｏｖｅｒｙ,,合同会社,大阪府,大阪市浪速区,敷津西２丁目４番４－６１３号,,27,111,5560015,,,,,,,2025-05-14,1,,,,,リカバリー,0
2865,9120003029363,新規,0,2025-05-14,2025-05-14,泉信合同会社,,合同会社,大阪府,大阪市港区,三先１丁目１２番９号倉本ビル２０６号室,,27,107,5520016,,,,,,,2025-05-14,1,,,,,センシン,0
2866,9120003029388,新規,0,2025-05-14,2025-05-14,合同会社ヨシザワ,,合同会社,大阪府,大阪市東淀川区,柴島１丁目１番１５－５０８号,,27,114,5330024,,,,,,,2025-05-14,1,,,,,ヨシザワ,0
2867,9120003029396,新規,0,2025-05-14,2025-05-14,景辰合同会社,,合同会社,大阪府,大阪市東住吉区,湯里２丁目６番１３号エレガンスハイツ湯里１０２号,,27,121,5460013,,,,,,,2025-05-14,1,,,,,ケイシン,0
2868,9120003029421,新規,0,2025-05-14,2025-05-14,合同会社ＱＨ　ＭＯＢＩＬＥ,,合同会社,大阪府,大阪市浪速区,大国１丁目７－１－５Ｂ,,27,111,5560014,,,,,,,2025-05-14,1,,,,,キューエイチモバイル,0
2869,9120003029438,新規,0,2025-05-14,2025-05-14,合同会社正真,,合同会社,大阪府,大阪市阿倍野区,天王寺町南３丁目５番１４－６０８号,,27,119,5450002,,,,,,,2025-05-14,1,,,,,セイシン,0
2871,9120005024932,新規,0,2025-05-14,2025-05-14,一般社団法人グロース・エンジン,,その他の設立登記法人,大阪府,大阪市中央区,南船場４丁目１０番５号南船場ＳＯＨＯビル７０２,,27,128,5420081,,,,,,,2025-05-14,1,,,,,グロースエンジン,0
2882,9122001039162,新規,0,2025-05-14,2025-05-14,株式会社ウィルアクト,,株式会社,大阪府,柏原市,本郷５丁目７番７号,,27,221,5820001,,,,,,,2025-05-14,1,,,,,ウィルアクト,0
2887,9130001079566,新規,0,2025-05-14,2025-05-14,株式会社ＫＡＩＫＯＵ,,株式会社,京都府,舞鶴市,字小倉２２２番地８,,26,202,6250020,,,,,,,2025-05-14,1,,,,,カイコウ,0
2899,9140001138445,新規,0,2025-05-14,2025-05-14,株式会社アイビーホーム,,株式会社,兵庫県,尼崎市,潮江１丁目２１番１－１０２号,,28,202,6610976,,,,,,,2025-05-14,1,,,,,アイビーホーム,0
2906,9160001026747,新規,0,2025-05-14,2025-05-14,株式会社奥田電気,,株式会社,滋賀県,長浜市,加田町２６５１番地,,25,203,5260828,,,,,,,2025-05-14,1,,,,,オクダデンキ,0
2910,9170001018628,新規,0,2025-05-14,2025-05-14,株式会社Ａｃｔｉｖｅ,,株式会社,和歌山県,和歌山市,有本６２１番地１０,,30,201,6408390,,,,,,,2025-05-14,1,,,,,アクティブ,0
2914,9180001166806,新規,0,2025-05-14,2025-05-14,ＦｉｒｓｔＳｔｅｐ株式会社,,株式会社,愛知県,春日井市,二子町１丁目４番地１０,,23,206,4860955,,,,,,,2025-05-14,1,,,,,ファーストステップ,0
2915,9180001166830,新規,0,2025-05-14,2025-05-14,株式会社ＢＵＺＺ　ＬＡＢ,,株式会社,愛知県,名古屋市中区,栄３丁目２番３号名古屋日興証券ビル４Ｆ,,23,106,4600008,,,,,,,2025-05-14,1,,,,,バズラボ,0
2919,9180301039793,新規,0,2025-05-14,2025-05-14,株式会社日光ホールディングス,,株式会社,愛知県,安城市,三河安城本町２丁目１１番地１,,23,212,4460059,,,,,,,2025-05-14,1,,,,,ニッコウホールディングス,0
2920,9180301039802,新規,0,2025-05-14,2025-05-14,Ｋ‐Ｐｌａｎｎｉｎｇ株式会社,,株式会社,愛知県,豊田市,東大島町上河原１８番地２,,23,211,4442344,,,,,,,2025-05-14,1,,,,,ケープランニング,0
2921,9190001032222,新規,0,2025-05-14,2025-05-14,株式会社コミュニケーションカフェ,,株式会社,三重県,度会郡玉城町,原３３９９番地２２,,24,461,5190438,,,,,,,2025-05-14,1,,,,,コミュニケーションカフェ,0
2925,9190003005036,新規,0,2025-05-14,2025-05-14,合同会社伊勢発酵研究所,,合同会社,三重県,伊勢市,有滝町２２５０番地,,24,203,5150501,,,,,,,2025-05-14,1,,,,,イセハッコウケンキュウショ,0
2926,9200001043754,新規,0,2025-05-14,2025-05-14,株式会社Ｍｙ　Ｓｅｒｖｉｃｅ,,株式会社,岐阜県,中津川市,田瀬２８７番地６,,21,206,5080201,,,,,,,2025-05-14,1,,,,,マイサービス,0
2927,9210001020166,新規,0,2025-05-14,2025-05-14,株式会社成武,,株式会社,福井県,福井市,大森町第１８号２番地,,18,201,9103634,,,,,,,2025-05-14,1,,,,,ジョウブ,0
2930,9230003002425,新規,0,2025-05-14,2025-05-14,合同会社Ｃ＆Ｄ,,合同会社,富山県,高岡市,中曽根８１３番地２,,16,202,9340092,,,,,,,2025-05-14,1,,,,,シーアンドディー,0
2941,9290001109968,新規,0,2025-05-14,2025-05-14,ＳＥＥＫ　ＭＩＲＡＩ株式会社,,株式会社,福岡県,福岡市西区,愛宕南２丁目１１－９,,40,135,8190007,,,,,,,2025-05-14,1,,,,,シークミライ,0
2942,9290001110042,新規,0,2025-05-14,2025-05-14,株式会社ＮＯＩＥ,,株式会社,福岡県,福岡市中央区,大名１丁目３－５－１０６,,40,133,8100041,,,,,,,2025-05-14,1,,,,,ノイエ,0
2946,9290005019742,新規,0,2025-05-14,2025-05-14,ＮＰＯ法人しんぐるサポートセンター福岡,,その他の設立登記法人,福岡県,福岡市東区,千早４丁目１５番１２号,,40,131,8130044,,,,,,,2025-05-14,1,,,,,シングルサポートセンターフクオカ,0
2948,9290801031529,新規,0,2025-05-14,2025-05-14,株式会社ブリッジ,,株式会社,福岡県,北九州市八幡西区,大字笹田３番地２,,40,109,8071265,,,,,,,2025-05-14,1,,,,,ブリッジ,0
2950,9320001021095,新規,0,2025-05-14,2025-05-14,株式会社ＤＩＭＰＬＥ,,株式会社,大分県,大分市,大在中央１丁目３番５号,,44,201,8700251,,,,,,,2025-05-14,1,,,,,ディンプル,0
2965,9370005010957,新規,0,2025-05-14,2025-05-14,一般社団法人知行共創イニシアティブ,,その他の設立登記法人,宮城県,仙台市青葉区,堤通雨宮町１番６７－７０５号,,04,101,9810914,,,,,,,2025-05-14,1,,,,,チコウキョウソウイニシアティブ,0
2981,9430001094378,新規,0,2025-05-14,2025-05-14,株式会社モンツリ,,株式会社,北海道,札幌市手稲区,富丘三条７丁目３番２６号,,01,109,0060013,,,,,,,2025-05-14,1,,,,,モンツリ,0
2982,9430001094386,新規,0,2025-05-14,2025-05-14,株式会社Ｆｌｏｗｅｒ　Ｌａｙｏｕｔ,,株式会社,北海道,札幌市中央区,南六条西２６丁目２番１５号‐１Ｆ,,01,101,0640806,,,,,,,2025-05-14,1,,,,,フラワーレイアウト,0
2983,9430001094394,新規,0,2025-05-14,2025-05-14,株式会社柏木設備,,株式会社,北海道,札幌市白石区,東札幌五条５丁目８番１号,,01,104,0030005,,,,,,,2025-05-14,1,,,,,カシワギセツビ,0
2986,9430003017650,新規,0,2025-05-14,2025-05-14,合同会社ロコラン,,合同会社,北海道,札幌市中央区,北五条西１７丁目１３番地１レジデンスＮ５１７－４０３号,,01,101,0600005,,,,,,,2025-05-14,1,,,,,ロコラン,0
2989,9460101007708,新規,0,2025-05-14,2025-05-14,株式会社エルポジ,,株式会社,北海道,帯広市,西十六条北２丁目２２番３号,,01,207,0800046,,,,,,,2025-05-14,1,,,,,エルポジ,0
2992,9490001011047,新規,0,2025-05-14,2025-05-14,株式会社Ｓｕｍｉｎｅ,,株式会社,高知県,高知市,高須２丁目１５番３２号,,39,201,7818104,,,,,,,2025-05-14,1,,,,,スミネ,0
2994,9700150130303,新規,0,2025-05-14,2025-05-02,三戸地区農地・水・環境保全会,,その他,神奈川県,三浦市,南下浦町上宮田１４９１－２,,14,210,2380101,,,,,,,2025-05-02,1,,,,,ミトチクノウチミズカンキヨウホゼンカイ,0
2995,9700150130443,新規,0,2025-05-14,2025-05-14,Ｖｉｓｋｏｍ　Ｐｖｔ　Ｌｔｄ,,外国会社等,神奈川県,相模原市緑区,若柳６３９番地２強矢ハイツ２０３,,14,151,2520175,スリランカ民主社会主義共和国、アクラナ、ドゥヌウィラロード、Ｎｏ．８／３Ａ,,,,,,2025-05-14,1,,,,,ビスコムプライベートリミテツド,0
2996,9700150130451,新規,0,2025-05-14,2025-05-14,ＸＥＮＥＲＡ　ＰＴＥ．ＬＴＤ．,,外国会社等,,,,,,,,１２０　ＬＯＷＥＲ　ＤＥＬＴＡ　ＲＯＡＤ，＃１２－０２，ＣＥＮＤＥＸ　ＣＥＮＴＲＥ，ＳＩＮＧＡＰＯＲＥ　１６９２０８,,,,,,2025-05-14,1,,,,,ゼネラプライベートリミテツド,0
