sequenceNumber,corporateNumber,process,correct,updateDate,changeDate,name,nameImageId,kind,prefectureName,cityName,streetNumber,addressImageId,prefectureCode,cityCode,postCode,addressOutside,addressOutsideImageId,closeDate,closeCause,successorCorporateNumber,changeCause,assignmentDate,latest,enName,enPrefectureName,enCityName,enAddressOutside,furigana,hihyoji
11,1010401050807,登記記録の閉鎖等,0,2023-10-23,2023-10-11,株式会社創都,,株式会社,東京都,港区,赤坂６丁目４番２２号,,13,103,1070052,,,2023-10-11,清算の結了等,,,2015-10-05,1,,,,,ソウト,0
13,1010401066010,登記記録の閉鎖等,0,2023-10-23,2023-10-10,株式会社かすみ,,株式会社,東京都,港区,虎ノ門１丁目２番２９号,,13,103,1050001,,,2023-10-10,清算の結了等,,,2015-10-05,1,,,,,カスミ,0
19,1010501028835,登記記録の閉鎖等,0,2023-10-23,2023-10-17,株式会社アイ・スリー・コーポレーション,,株式会社,東京都,台東区,東上野１丁目１９番１４号ＢＭ上野ビル１階,,13,106,1100015,,,2023-10-17,合併による解散等,2130001050608,令和５年１０月１日京都市中京区車屋町通二条下ル仁王門突抜町３２５番地サンラッキーサービス株式会社（2130001050608）に合併し解散,2015-10-05,1,,,,,アイスリーコーポレーション,0
22,1010601001469,登記記録の閉鎖等,0,2023-10-23,2023-10-16,株式会社木島工芸,,株式会社,東京都,江東区,東砂４丁目２番１４号,,13,108,1360074,,,2023-10-16,清算の結了等,,,2015-10-05,1,,,,,キジマコウゲイ,0
31,1010702001483,登記記録の閉鎖等,0,2023-10-23,2023-10-18,有限会社エム・エス,,有限会社,東京都,品川区,南大井６丁目２８番１号,,13,109,1400013,,,2023-10-18,清算の結了等,,,2015-10-05,1,,,,,エムエス,0
32,1010801014312,登記記録の閉鎖等,0,2023-10-23,2023-10-17,株式会社タートル設計,,株式会社,東京都,大田区,上池台５丁目２９番１４号,,13,111,1450064,,,2023-10-17,清算の結了等,,,2015-10-05,1,,,,,タートルセッケイ,0
42,1011001142564,登記記録の閉鎖等,0,2023-10-23,2023-10-18,株式会社Ｔｅｄｄｙ．ｃｏ,,株式会社,東京都,新宿区,歌舞伎町１丁目２－３レオ新宿５０７,,13,104,1600021,,,2023-10-18,清算の結了等,,,2021-09-07,1,,,,,テディー,0
65,1013301026694,登記記録の閉鎖等,0,2023-10-23,2023-10-13,大一工芸株式会社,,株式会社,東京都,豊島区,北大塚３丁目１４番４号,,13,116,1700004,,,2023-10-13,清算の結了等,,,2015-10-05,1,,,,,ダイイチコウゲイ,0
94,1030002052795,登記記録の閉鎖等,0,2023-10-23,2023-10-10,有限会社早春学院,,有限会社,埼玉県,八潮市,緑町１丁目８番地１２,,11,234,3400808,,,2023-10-10,清算の結了等,,,2015-10-05,1,,,,,ソウシュンガクイン,0
110,1040003006592,登記記録の閉鎖等,0,2023-10-23,2023-10-05,合同会社久栄テクノセンター,,合同会社,千葉県,千葉市緑区,おゆみ野中央５丁目３番地１９,,12,105,2660032,,,2023-10-05,清算の結了等,,,2015-10-05,1,,,,,キュウエイテクノセンター,0
118,1060002005890,登記記録の閉鎖等,0,2023-10-23,2023-10-17,有限会社巽商店,,有限会社,栃木県,宇都宮市,峰町３１５番地９,,09,201,3210943,,,2023-10-17,清算の結了等,,,2015-10-05,1,,,,,タツミショウテン,0
119,1060002010981,登記記録の閉鎖等,0,2023-10-23,2023-10-17,有限会社大東興業,,有限会社,栃木県,河内郡上三川町,大字三村３６３番地,,09,301,3290615,,,2023-10-17,清算の結了等,,,2015-10-05,1,,,,,ダイトウコウギョウ,0
126,1080001008406,登記記録の閉鎖等,0,2023-10-23,2023-10-18,株式会社静岡福島畜産,,株式会社,静岡県,静岡市清水区,八木間町１７８５番地,,22,103,4240212,,,2023-10-18,清算の結了等,,,2015-10-05,1,,,,,シズオカフクシマチクサン,0
128,1080102008949,登記記録の閉鎖等,0,2023-10-23,2023-10-18,有限会社増山電気工業,,有限会社,静岡県,伊豆市,本立野４０９番地,,22,222,4102414,,,2023-10-18,清算の結了等,,,2015-10-05,1,,,,,マスヤマデンキコウギョウ,0
132,1100001033558,登記記録の閉鎖等,0,2023-10-23,2023-10-11,株式会社グローリーキッズ,,株式会社,長野県,岡谷市,今井６９番地１７,,20,204,3940001,,,2023-10-11,清算の結了等,,,2020-10-02,1,,,,,,0
164,1140001064038,登記記録の閉鎖等,0,2023-10-23,2023-10-17,株式会社Ｍ交通,,株式会社,兵庫県,姫路市,西庄１４３番地の１,,28,201,6700981,,,2023-10-17,清算の結了等,,,2015-10-05,1,,,,,エムコウツウ,0
165,1140001075828,登記記録の閉鎖等,0,2023-10-23,2023-10-17,株式会社兵庫内陸観光,,株式会社,兵庫県,西脇市,野村町１７９５番地の２９８,,28,213,6770054,,,2023-10-17,清算の結了等,,,2015-10-05,1,,,,,ヒョウゴナイリクカンコウ,0
181,1180001049662,登記記録の閉鎖等,0,2023-10-23,2023-10-11,株式会社ＨＣＰダイテック,,株式会社,愛知県,名古屋市緑区,大根山２丁目１４６番地,,23,114,4598007,,,2023-10-11,合併による解散等,6180001009595,令和５年１０月１日名古屋市緑区大根山二丁目１４６番地株式会社山一ハガネ（6180001009595）に合併し解散,2015-10-05,1,,,,,エイチシーピーダイテック,0
204,1240002031844,登記記録の閉鎖等,0,2023-10-23,2023-10-17,有限会社ドリームファーム,,有限会社,広島県,庄原市,東城町竹森５４番地１６,,34,210,7295126,,,2023-10-17,清算の結了等,,,2015-10-05,1,,,,,ドリームファーム,0
232,1360001030075,登記記録の閉鎖等,0,2023-10-23,2023-10-17,株式会社ガイヤ,,株式会社,沖縄県,名護市,大北５丁目１番６号－１０２,,47,209,9050019,,,2023-10-17,清算の結了等,,,2022-03-07,1,,,,,ガイヤ,0
233,1360001030496,登記記録の閉鎖等,0,2023-10-23,2023-10-17,株式会社コルク,,株式会社,沖縄県,名護市,字為又２８３番地２,,47,209,9050005,,,2023-10-17,清算の結了等,,,2022-06-14,1,,,,,コルク,0
238,1370202000586,登記記録の閉鎖等,0,2023-10-23,2023-10-10,有限会社スマイル・デンタル・フアクトリー,,有限会社,宮城県,加美郡加美町,字西田一番３１番地６,,04,445,9814252,,,2023-10-10,清算の結了等,,,2015-10-05,1,,,,,スマイルデンタルファクトリー,0
244,1380002024801,登記記録の閉鎖等,0,2023-10-23,2023-10-13,有限会社玉川中央自動車販売,,有限会社,福島県,いわき市,小名浜住吉字冠木１７番地,,07,204,9718124,,,2023-10-13,清算の結了等,,,2015-10-05,1,,,,,タマガワチュウオウジドウシャハンバイ,0
246,1380002030312,登記記録の閉鎖等,0,2023-10-23,2023-10-12,有限会社日装,,有限会社,福島県,双葉郡浪江町,大字北幾世橋字植ノ畑１４１番地の４,,07,547,9791512,,,2023-10-12,清算の結了等,,,2015-10-05,1,,,,,,0
258,1430002054322,登記記録の閉鎖等,0,2023-10-23,2023-10-05,有限会社光研社アド．スタジオ,,有限会社,北海道,小樽市,色内２丁目１１番１３号,,01,203,0470031,,,2023-10-05,清算の結了等,,,2023-09-01,1,,,,,コウケンシャアドスタジオ,0
275,2010401077584,登記記録の閉鎖等,0,2023-10-23,2023-10-20,株式会社Ｋ－Ｔｈａｎｋｓ　Ｎｅｔｗｏｒｋ,,株式会社,東京都,中野区,鷺宮２丁目８番１０号,,13,114,1650032,,,2023-10-20,清算の結了等,,,2015-10-05,1,,,,,ケイサンクスネットワーク,0
282,2010403025401,登記記録の閉鎖等,0,2023-10-23,2023-10-13,ＲＢソーラーノース合同会社,,合同会社,東京都,港区,虎ノ門３丁目２２番１０－２０１号,,13,103,1050001,,,2023-10-13,清算の結了等,,,2021-05-28,1,,,,,アールビーソーラーノース,0
293,2010901013337,登記記録の閉鎖等,0,2023-10-23,2023-10-12,株式会社造形集団一級建築士事務所,,株式会社,東京都,世田谷区,経堂１丁目２４番２号,,13,112,1560052,,,2023-10-12,清算の結了等,,,2015-10-05,1,,,,,ゾウケイシュウダンイッキュウケンチクシジムショ,0
295,2010902001638,登記記録の閉鎖等,0,2023-10-23,2023-10-13,有限会社一風,,有限会社,東京都,世田谷区,松原５丁目５６番１２号,,13,112,1560043,,,2023-10-13,清算の結了等,,,2015-10-05,1,,,,,イップウ,0
316,2011101045245,登記記録の閉鎖等,0,2023-10-23,2023-10-20,株式会社ウイング・コア,,株式会社,東京都,新宿区,西早稲田１丁目１３－３,,13,104,1690051,,,2023-10-20,清算の結了等,,,2015-10-05,1,,,,,ウイングコア,0
328,2011502005590,登記記録の閉鎖等,0,2023-10-23,2023-10-16,有限会社マツダフィールド,,有限会社,東京都,北区,西ケ原４丁目１０番８号,,13,117,1140024,,,2023-10-16,清算の結了等,,,2015-10-05,1,,,,,,0
338,2013301029226,登記記録の閉鎖等,0,2023-10-23,2023-10-06,株式会社ネイチャートラベル,,株式会社,埼玉県,朝霞市,西弁財２丁目６番３５－６０３号,,11,227,3510021,,,2023-10-06,清算の結了等,,,2015-10-05,1,,,,,ネイチャートラベル,0
349,2020002052168,登記記録の閉鎖等,0,2023-10-23,2023-10-11,有限会社アット・マーク,,有限会社,神奈川県,横浜市泉区,白百合２丁目１９番６号,,14,116,2450005,,,2023-10-11,清算の結了等,,,2015-10-05,1,,,,,アットマーク,0
361,2030001015793,登記記録の閉鎖等,0,2023-10-23,2023-10-05,株式会社ユウキシステム,,株式会社,埼玉県,さいたま市浦和区,元町２丁目２５番２３号,,11,107,3300073,,,2023-10-05,清算の結了等,,,2015-10-05,1,,,,,ユウキシステム,0
366,2030001045782,登記記録の閉鎖等,0,2023-10-23,2023-10-05,株式会社エル,,株式会社,埼玉県,新座市,畑中１丁目１１番３－９１５号,,11,230,3520012,,,2023-10-05,清算の結了等,,,2015-10-05,1,,,,,エル,0
379,2030002011916,登記記録の閉鎖等,0,2023-10-23,2023-10-11,有限会社ふとんクリーニングの今井,,有限会社,埼玉県,さいたま市北区,吉野町２丁目９番地９,,11,102,3310811,,,2023-10-11,清算の結了等,,,2015-10-05,1,,,,,フトンクリーニングノイマイ,0
381,2030002020504,登記記録の閉鎖等,0,2023-10-23,2023-10-06,有限会社阿部保温工業所,,有限会社,埼玉県,さいたま市岩槻区,宮町２丁目２番１４ー１号,,11,110,3390065,,,2023-10-06,清算の結了等,,,2015-10-05,1,,,,,アベホオンコウギョウショ,0
400,2040005003959,登記記録の閉鎖等,0,2023-10-23,2023-10-05,医療法人恵友会,,その他の設立登記法人,千葉県,市川市,八幡１丁目４番２２号,,12,203,2720021,,,2023-10-05,清算の結了等,,,2015-10-05,1,,,,,ケイユウカイ,0
403,2050002016962,登記記録の閉鎖等,0,2023-10-23,2023-10-11,有限会社ケイウイング,,有限会社,茨城県,下妻市,肘谷２４５,,08,210,3040047,,,2023-10-11,清算の結了等,,,2015-10-05,1,,,,,ケイウイング,0
410,2100002028432,登記記録の閉鎖等,0,2023-10-23,2023-10-10,有限会社関鉄平石商店,,有限会社,長野県,諏訪市,岡村１丁目９番１５号,,20,206,3920005,,,2023-10-10,清算の結了等,,,2015-10-05,1,,,,,セキテッペイセキショウテン,0
414,2110002026360,登記記録の閉鎖等,0,2023-10-23,2023-10-19,有限会社矢野組,,有限会社,新潟県,糸魚川市,大字大野１２２１番地の２,,15,216,9410071,,,2023-10-19,清算の結了等,,,2015-10-05,1,,,,,ヤノグミ,0
416,2120001238740,登記記録の閉鎖等,0,2023-10-23,2023-10-19,株式会社カーゴエクスプレス,,株式会社,大阪府,大阪市中央区,北久宝寺町１丁目５番１号,,27,128,5410057,,,2023-10-19,清算の結了等,,,2021-07-05,1,,,,,カーゴエクスプレス,0
420,2120002064624,登記記録の閉鎖等,0,2023-10-23,2023-10-12,有限会社ＭＫＣ東淀川,,有限会社,大阪府,大阪市北区,本庄東３丁目４番４０号,,27,127,5310074,,,2023-10-12,清算の結了等,,,2015-10-05,1,,,,,エムケーシーヒガシヨドガワ,0
427,2120102019222,登記記録の閉鎖等,0,2023-10-23,2023-10-19,有限会社三宝エステート,,有限会社,大阪府,藤井寺市,岡２丁目２番３２号,,27,226,5830027,,,2023-10-19,清算の結了等,,,2015-10-05,1,,,,,サンポウエステート,0
433,2130001043826,登記記録の閉鎖等,0,2023-10-23,2023-10-03,株式会社丸富建設,,株式会社,京都府,舞鶴市,字市場２０２番地１０,,26,202,6250025,,,2023-10-03,合併による解散等,1130001043521,令和５年１０月１日京都府舞鶴市字市場２０２番地３６鶴美建設株式会社（1130001043521）に合併し解散,2015-10-05,1,,,,,マルトミケンセツ,0
441,2130002023273,登記記録の閉鎖等,0,2023-10-23,2023-10-02,有限会社ＫＺコーポレーション,,有限会社,京都府,京都市下京区,室町通松原下る元両替町２５０番地,,26,106,6008436,,,2023-10-02,合併による解散等,5130001016606,令和５年１０月１日京都市下京区室町通松原下る元両替町２５０番地植西株式会社（5130001016606）に合併し解散,2015-10-05,1,,,,,ケーゼットコーポレーション,0
473,2180301030494,登記記録の閉鎖等,0,2023-10-23,2023-10-17,株式会社シティマネジメント研究所,,株式会社,愛知県,名古屋市緑区,桶狭間森前２８５６番地,,23,114,4580910,,,2023-10-17,清算の結了等,,,2017-06-30,1,,,,,シティマネジメントケンキュウジョ,0
494,2260002013212,登記記録の閉鎖等,0,2023-10-23,2023-10-19,有限会社リプル・クリエイト,,有限会社,岡山県,岡山市北区,一宮１１２８番地の５,,33,101,7011211,,,2023-10-19,清算の結了等,,,2015-10-05,1,,,,,リプルクリエイト,0
506,2310001008249,登記記録の閉鎖等,0,2023-10-23,2023-10-19,株式会社高比良土木,,株式会社,長崎県,諫早市,飯盛町後田１３０７番地１,,42,204,8541105,,,2023-10-19,清算の結了等,,,2015-10-05,1,,,,,タカヒラドボク,0
510,2330002006588,登記記録の閉鎖等,0,2023-10-23,2023-10-11,有限会社タジリ住宅建設,,有限会社,熊本県,熊本市北区,下硯川１丁目１番３３号,,43,105,8615526,,,2023-10-11,清算の結了等,,,2015-10-05,1,,,,,,0
512,2330002020184,登記記録の閉鎖等,0,2023-10-23,2023-10-04,有限会社マット,,有限会社,熊本県,菊池郡菊陽町,武蔵ヶ丘北３丁目１５番７号,,43,404,8691112,,,2023-10-04,清算の結了等,,,2015-10-05,1,,,,,マット,0
522,2380001015206,登記記録の閉鎖等,0,2023-10-23,2023-10-13,サカモト設計株式会社,,株式会社,福島県,いわき市,中央台鹿島２丁目７番地の５,,07,204,9708043,,,2023-10-13,清算の結了等,,,2015-10-05,1,,,,,サカモトセッケイ,0
531,2420002019333,登記記録の閉鎖等,0,2023-10-23,2023-10-16,有限会社上野電業,,有限会社,青森県,むつ市,大畑町湊村１５９番地８８,,02,208,0394401,,,2023-10-16,清算の結了等,,,2015-10-05,1,,,,,ウエノデンギョウ,0
539,2470002011748,登記記録の閉鎖等,0,2023-10-23,2023-10-18,有限会社寿楽,,有限会社,香川県,丸亀市,中府町５丁目６番１６号,,37,202,7630033,,,2023-10-18,清算の結了等,,,2015-10-05,1,,,,,ジュラク,0
554,3010002033812,登記記録の閉鎖等,0,2023-10-23,2023-10-10,中紡有限会社,,有限会社,東京都,中央区,日本橋久松町１０番１０号,,13,102,1030005,,,2023-10-10,清算の結了等,,,2015-10-05,1,,,,,チュウボウ,0
560,3010401080455,登記記録の閉鎖等,0,2023-10-23,2023-10-10,グリーン・リザーブ株式会社,,株式会社,東京都,港区,浜松町２丁目４番１号,,13,103,1050013,,,2023-10-10,清算の結了等,,,2015-10-05,1,,,,,グリーンリザーブ,0
561,3010401135894,登記記録の閉鎖等,0,2023-10-23,2023-10-10,株式会社湘南交欒,,株式会社,東京都,港区,北青山２丁目７番１３号プラセオ青山ビル,,13,103,1070061,,,2023-10-10,合併による解散等,3010401095635,令和５年１０月１日東京都港区北青山二丁目７番１３号プラセオ青山ビル株式会社ＳＯＹＯＫＡＺＥ（3010401095635）に合併し解散,2018-01-15,1,,,,,ショウナンマゼラン,0
562,3010401149944,登記記録の閉鎖等,0,2023-10-23,2023-10-11,株式会社ウイニップ,,株式会社,東京都,港区,西新橋２丁目４番３号,,13,103,1050003,,,2023-10-11,清算の結了等,,,2019-12-18,1,,,,,ウイニップ,0
601,3011101049360,登記記録の閉鎖等,0,2023-10-23,2023-10-19,ヤマデラ・リーガル・サービス株式会社,,株式会社,東京都,新宿区,津久戸町４番７号,,13,104,1620821,,,2023-10-19,清算の結了等,,,2015-10-05,1,,,,,ヤマデラリーガルサービス,0
602,3011101062479,登記記録の閉鎖等,0,2023-10-23,2023-10-20,株式会社Ａｑｕａｌｅａｄ,,株式会社,東京都,新宿区,西落合１丁目７－２,,13,104,1610031,,,2023-10-20,清算の結了等,,,2015-10-05,1,,,,,アクアリード,0
624,3013301022279,登記記録の閉鎖等,0,2023-10-23,2023-10-06,株式会社グラスプ,,株式会社,埼玉県,さいたま市岩槻区,大字本宿４４２－１６,,11,110,3390074,,,2023-10-06,清算の結了等,,,2015-10-05,1,,,,,グラスプ,0
626,3013301040586,登記記録の閉鎖等,0,2023-10-23,2023-10-05,株式会社ウイング,,株式会社,埼玉県,新座市,東北２丁目３６番１１号,,11,230,3520001,,,2023-10-05,清算の結了等,,,2017-05-25,1,,,,,ウイング,0
642,3020002030577,登記記録の閉鎖等,0,2023-10-23,2023-10-11,有限会社高橋工業,,有限会社,神奈川県,横浜市南区,高根町４丁目２９番地２ナイスウィングスクエア横濱阪東橋１１０２号,,14,105,2320022,,,2023-10-11,清算の結了等,,,2015-10-05,1,,,,,タカハシコウギョウ,0
652,3030001098045,登記記録の閉鎖等,0,2023-10-23,2023-10-05,攝田建築設計工房株式会社,,株式会社,埼玉県,日高市,大字高萩７８１番地２３,,11,242,3501213,,,2023-10-05,清算の結了等,,,2015-10-05,1,,,,,セッタケンチクセッケイコウボウ,0
659,3030002003821,登記記録の閉鎖等,0,2023-10-23,2023-10-10,有限会社キング北浦和理容店,,有限会社,埼玉県,さいたま市浦和区,北浦和３丁目８番１２号,,11,107,3300074,,,2023-10-10,清算の結了等,,,2015-10-05,1,,,,,キングキタウラワリヨウテン,0
676,3040002102151,登記記録の閉鎖等,0,2023-10-23,2023-10-10,有限会社池平商店,,有限会社,千葉県,勝浦市,勝浦２３番地,,12,218,2995234,,,2023-10-10,清算の結了等,,,2015-10-05,1,,,,,イケヒラショウテン,0
680,3050002002771,登記記録の閉鎖等,0,2023-10-23,2023-10-16,有限会社ファミリーフォート,,有限会社,茨城県,水戸市,元石川町６１１番地の１３０,,08,201,3100843,,,2023-10-16,清算の結了等,,,2015-10-05,1,,,,,ファミリーフォート,0
688,3070002032024,登記記録の閉鎖等,0,2023-10-23,2023-10-11,有限会社リ・ピュアアルク,,有限会社,群馬県,太田市,新井町１８５番地１,,10,205,3730852,,,2023-10-11,清算の結了等,,,2015-10-05,1,,,,,リピュアアルク,0
697,3100001024662,登記記録の閉鎖等,0,2023-10-23,2023-10-10,株式会社柏屋わさび店,,株式会社,長野県,安曇野市,穂高２９１８番地,,20,220,3998303,,,2023-10-10,清算の結了等,,,2015-10-05,1,,,,,カシワヤワサビテン,0
705,3120001121771,登記記録の閉鎖等,0,2023-10-23,2023-10-11,株式会社進栄設計,,株式会社,大阪府,大阪市城東区,野江１丁目１０番１９号パレ京橋２番館９０２号,,27,118,5360006,,,2023-10-11,清算の結了等,,,2015-10-05,1,,,,,シンエイセッケイ,0
727,3130005006753,登記記録の閉鎖等,0,2023-10-23,2023-10-05,京都南車検センター協同組合,,その他の設立登記法人,京都府,久世郡久御山町,田井新荒見５９番地,,26,322,6130036,,,2023-10-05,清算の結了等,,,2015-10-05,1,,,,,キョウトミナミシャケンセンター,0
779,3290802001817,登記記録の閉鎖等,0,2023-10-23,2023-10-16,有限会社キャリックス,,有限会社,福岡県,北九州市戸畑区,福柳木１丁目１６番２８号,,40,105,8040025,,,2023-10-16,清算の結了等,,,2015-10-05,1,,,,,キャリックス,0
797,3380001025550,登記記録の閉鎖等,0,2023-10-23,2023-10-13,株式会社今井自工,,株式会社,福島県,福島市,宮代字家原毛内７番地の４,,07,201,9600116,,,2023-10-13,清算の結了等,,,2015-10-05,1,,,,,イマイジコウ,0
802,3420002003278,登記記録の閉鎖等,0,2023-10-23,2023-10-13,有限会社ミウラ電技,,有限会社,青森県,東津軽郡外ヶ浜町,字三厩東町５６番地,00087542,02,307,0301737,,,2023-10-13,清算の結了等,,,2015-10-05,1,,,,,ミウラデンギ,0
809,3430002006024,登記記録の閉鎖等,0,2023-10-23,2023-10-10,有限会社行啓湯,,有限会社,北海道,札幌市中央区,（札幌市南十四条西七丁目１０５４番地の４）,,01,101,0600000,,,2023-10-10,清算の結了等,,,2015-10-05,1,,,,,ギョウケイユ,1
810,3430002010117,登記記録の閉鎖等,0,2023-10-23,2023-10-10,有限会社白石モータース,,有限会社,北海道,札幌市白石区,中央二条４丁目９番４３号,,01,104,0030012,,,2023-10-10,清算の結了等,,,2015-10-05,1,,,,,シロイシモータース,0
818,3460001000090,登記記録の閉鎖等,0,2023-10-23,2023-10-20,株式会社池田商店,,株式会社,北海道,釧路郡釧路町,桂１丁目５番地１,,01,661,0880626,,,2023-10-20,清算の結了等,,,2015-10-05,1,,,,,イケダショウテン,0
829,4010001142778,登記記録の閉鎖等,0,2023-10-23,2023-10-17,フロント・アプリケーションズ株式会社,,株式会社,東京都,中央区,新富２丁目５番５号,,13,102,1040041,,,2023-10-17,合併による解散等,3010001145468,令和５年１０月１日東京都港区虎ノ門二丁目３番１７号ＮＥＸＴ株式会社（3010001145468）に合併し解散,2015-10-05,1,,,,,フロントアプリケーションズ,0
844,4010403012983,登記記録の閉鎖等,0,2023-10-23,2023-10-10,パシフィコ・エナジー美並合同会社,,合同会社,東京都,港区,六本木６丁目１０番１号六本木ヒルズ森タワー,,13,103,1060032,,,2023-10-10,清算の結了等,,,2015-10-05,1,,,,,パシフィコエナジーミナミ,0
847,4010601036438,登記記録の閉鎖等,0,2023-10-23,2023-10-13,日光印刷株式会社,,株式会社,東京都,江東区,常盤１丁目１３番８号,,13,108,1350006,,,2023-10-13,合併による解散等,5010601005029,令和５年９月３０日東京都江東区常盤一丁目１３番８号株式会社日興印刷（5010601005029）に合併し解散,2015-10-05,1,,,,,ニッコウインサツ,0
852,4010701015548,登記記録の閉鎖等,0,2023-10-23,2023-10-18,株式会社春日亭,,株式会社,東京都,品川区,上大崎４丁目５番２６号,,13,109,1410021,,,2023-10-18,清算の結了等,,,2015-10-05,1,,,,,カスガテイ,0
868,4011101044344,登記記録の閉鎖等,0,2023-10-23,2023-10-19,株式会社エルシーアールプロパティ,,株式会社,東京都,新宿区,新宿５丁目１４番１２－３０４号,,13,104,1600022,,,2023-10-19,清算の結了等,,,2015-10-05,1,,,,,エルシーアールプロパティ,0
893,4020001126185,登記記録の閉鎖等,0,2023-10-23,2023-10-12,株式会社ボディケアラボ,,株式会社,埼玉県,戸田市,大字新曽８４５番地,,11,224,3350021,,,2023-10-12,清算の結了等,,,2018-05-07,1,,,,,ボディケアラボ,0
894,4020001129080,登記記録の閉鎖等,0,2023-10-23,2023-10-10,株式会社３６０Ｌａｂｏ,,株式会社,神奈川県,横浜市緑区,十日市場町９０１番地１ボナールミヨシ６０１,,14,113,2260025,,,2023-10-10,清算の結了等,,,2018-12-12,1,,,,,サンロクマルラボ,0
904,4020002021443,登記記録の閉鎖等,0,2023-10-23,2023-10-10,有限会社寝具の川口,,有限会社,神奈川県,横浜市旭区,白根７丁目１８番１４号,,14,112,2410005,,,2023-10-10,清算の結了等,,,2015-10-05,1,,,,,シングノカワグチ,0
906,4020002048767,登記記録の閉鎖等,0,2023-10-23,2023-10-10,有限会社楠原保険事務所,,有限会社,神奈川県,横浜市神奈川区,泉町１６番地の６,,14,102,2210842,,,2023-10-10,清算の結了等,,,2015-10-05,1,,,,,クスハラホケンジムショ,0
921,4030001108496,登記記録の閉鎖等,0,2023-10-23,2023-10-06,株式会社ダイコーポレーション,,株式会社,埼玉県,越谷市,大字弥十郎１５８番地１,,11,222,3430047,,,2023-10-06,清算の結了等,,,2015-10-05,1,,,,,ダイコーポレーション,0
930,4030002005742,登記記録の閉鎖等,0,2023-10-23,2023-10-10,有限会社さわいし,,有限会社,埼玉県,さいたま市浦和区,高砂２丁目６番４号,,11,107,3300063,,,2023-10-10,清算の結了等,,,2015-10-05,1,,,,,サワイシ,0
934,4030002079605,登記記録の閉鎖等,0,2023-10-23,2023-10-10,有限会社グッドウィル,,有限会社,埼玉県,川越市,大字笠幡１６３番地２８,,11,201,3501175,,,2023-10-10,清算の結了等,,,2015-10-05,1,,,,,グッドウィル,0
935,4030002105278,登記記録の閉鎖等,0,2023-10-23,2023-10-06,有限会社藤八技研,,有限会社,埼玉県,川口市,大字安行藤八４６番地の１２０,,11,203,3340051,,,2023-10-06,清算の結了等,,,2015-10-05,1,,,,,トウハチギケン,0
936,4030003009362,登記記録の閉鎖等,0,2023-10-23,2023-10-10,株式会社ＴＨＹ,,株式会社,神奈川県,川崎市川崎区,小田２丁目９番３３号２０１号室,,14,131,2100846,,,2023-10-10,清算の結了等,,,2016-09-28,1,,,,,ティーエイチワイ,0
948,4040002018925,登記記録の閉鎖等,0,2023-10-23,2023-10-06,二村産業有限会社,,有限会社,千葉県,習志野市,袖ケ浦４丁目１４番１号,,12,216,2750021,,,2023-10-06,清算の結了等,,,2015-10-05,1,,,,,,0
950,4040002080090,登記記録の閉鎖等,0,2023-10-23,2023-10-03,有限会社曙,,有限会社,千葉県,山武市,蓮沼ロの２７２５番地２,,12,237,2891802,,,2023-10-03,清算の結了等,,,2015-10-05,1,,,,,アケボノ,0
955,4050005007271,登記記録の閉鎖等,0,2023-10-23,2023-10-18,医療法人なめき皮フ科クリニック,,その他の設立登記法人,茨城県,日立市,田尻町４丁目４９番２１号,,08,202,3191416,,,2023-10-18,清算の結了等,,,2015-10-05,1,,,,,ナメキヒフカクリニック,0
957,4060001035003,登記記録の閉鎖等,0,2023-10-23,2023-10-16,株式会社小梅訪問介護支援センター,,株式会社,栃木県,栃木市,岩舟町下津原５００番地３,,09,203,3294308,,,2023-10-16,清算の結了等,,,2022-06-22,1,,,,,コウメホウモンカイゴシエンセンター,0
959,4060002024566,登記記録の閉鎖等,0,2023-10-23,2023-10-17,有限会社アトムクリエーション,,有限会社,栃木県,宇都宮市,平出町３７７９番地１０,,09,201,3210901,,,2023-10-17,清算の結了等,,,2015-10-05,1,,,,,アトムクリエーション,0
966,4110001032060,登記記録の閉鎖等,0,2023-10-23,2023-10-19,株式会社ラパン・レーヴ,,株式会社,新潟県,見附市,南本町２丁目１６番１６－１号,,15,211,9540056,,,2023-10-19,清算の結了等,,,2017-01-12,1,,,,,ラパンレーヴ,0
983,4120103004337,登記記録の閉鎖等,0,2023-10-23,2023-10-19,合同会社港,,合同会社,大阪府,堺市北区,百舌鳥梅町１丁２１９番地８,,27,146,5918032,,,2023-10-19,清算の結了等,,,2021-09-07,1,,,,,ミナト,0
1011,4140002059892,登記記録の閉鎖等,0,2023-10-23,2023-10-16,有限会社ボイスエンジニアリング,,有限会社,兵庫県,西宮市,満池谷町３番３－４０２号,,28,204,6620031,,,2023-10-16,清算の結了等,,,2015-10-05,1,,,,,ボイスエンジニアリング,0
1013,4150001000204,登記記録の閉鎖等,0,2023-10-23,2023-10-23,株式会社伊藤裕晤商店,,株式会社,奈良県,奈良市,大森町１７番地,,29,201,6308131,,,2023-10-23,清算の結了等,,,2015-10-05,1,,,,,イトウユウゴショウテン,0
1020,4180001102468,登記記録の閉鎖等,0,2023-10-23,2023-10-19,株式会社スワロン,,株式会社,愛知県,名古屋市中川区,山王４丁目２番２４号,,23,110,4540011,,,2023-10-19,清算の結了等,,,2015-10-05,1,,,,,スワロン,0
1034,4190002005413,登記記録の閉鎖等,0,2023-10-23,2023-10-18,有限会社紀州ホーム,,有限会社,三重県,尾鷲市,上野町３番７号,,24,209,5193653,,,2023-10-18,清算の結了等,,,2015-10-05,1,,,,,,0
1043,4220001012976,登記記録の閉鎖等,0,2023-10-23,2023-10-17,株式会社長登屋,,株式会社,石川県,能美市,山口町タ７１番地,,17,211,9290126,,,2023-10-17,合併による解散等,7180001026474,令和５年１０月１日名古屋市西区城西一丁目５番７号株式会社長登屋（7180001026474）に合併し解散,2015-10-05,1,,,,,,0
1052,4260002022013,登記記録の閉鎖等,0,2023-10-23,2023-10-19,有限会社吉田設備,,有限会社,岡山県,倉敷市,福田町古新田６４５番地の８,,33,202,7128046,,,2023-10-19,清算の結了等,,,2015-10-05,1,,,,,ヨシダセツビ,0
1073,4350002006155,登記記録の閉鎖等,0,2023-10-23,2023-10-16,有限会社フジゲン,,有限会社,宮崎県,宮崎市,丸島町１番３６号,,45,201,8800813,,,2023-10-16,清算の結了等,,,2015-10-05,1,,,,,フジゲン,0
1076,4360001030568,登記記録の閉鎖等,0,2023-10-23,2023-10-17,株式会社リンク,,株式会社,沖縄県,名護市,字為又２６５番地３－１０１,,47,209,9050005,,,2023-10-17,清算の結了等,,,2022-06-21,1,,,,,リンク,0
1078,4360003011905,登記記録の閉鎖等,0,2023-10-23,2023-10-18,合同会社ＴＳＫ,,合同会社,沖縄県,浦添市,城間４丁目９－５、１Ｆ左,,47,208,9012133,,,2023-10-18,清算の結了等,,,2022-04-06,1,,,,,ティーエスケー,0
1090,4400003002750,登記記録の閉鎖等,0,2023-10-23,2023-10-06,ＫＢＳ合同会社,,合同会社,岩手県,下閉伊郡山田町,豊間根第４地割１１５番地８,,03,482,0281302,,,2023-10-06,清算の結了等,,,2021-03-02,1,,,,,ケービーエス,0
1098,4470002003173,登記記録の閉鎖等,0,2023-10-23,2023-10-18,有限会社薩摩商事,,有限会社,香川県,高松市,高松町８７１番地１１,,37,201,7610104,,,2023-10-18,清算の結了等,,,2015-10-05,1,,,,,サツマショウジ,0
1131,5010801007270,登記記録の閉鎖等,0,2023-10-23,2023-10-17,千葉ティティ株式会社,,株式会社,東京都,江戸川区,小松川３丁目８番１号８１６室,,13,123,1320034,,,2023-10-17,清算の結了等,,,2015-10-05,1,,,,,チバティティ,0
1160,5011602020207,登記記録の閉鎖等,0,2023-10-23,2023-10-18,建築ボックス有限会社,,有限会社,東京都,練馬区,大泉学園町７丁目２５番１０号,,13,120,1780061,,,2023-10-18,清算の結了等,,,2015-10-05,1,,,,,,0
1189,5020002083656,登記記録の閉鎖等,0,2023-10-23,2023-10-10,有限会社ゴーズ・プロジェクト,,有限会社,神奈川県,川崎市中原区,宮内１丁目１７番１１号,,14,133,2110051,,,2023-10-10,清算の結了等,,,2015-10-05,1,,,,,ゴーズプロジェクト,0
1206,5030001139103,登記記録の閉鎖等,0,2023-10-23,2023-10-10,株式会社令樹,,株式会社,埼玉県,蕨市,中央２丁目１７番１３号,,11,223,3350004,,,2023-10-10,清算の結了等,,,2020-11-06,1,,,,,レイジュ,0
1211,5030002008975,登記記録の閉鎖等,0,2023-10-23,2023-10-05,司工業有限会社,,有限会社,埼玉県,さいたま市緑区,大字間宮６５９番地,,11,109,3360965,,,2023-10-05,清算の結了等,,,2015-10-05,1,,,,,ツカサコウギョウ,0
1214,5030002046620,登記記録の閉鎖等,0,2023-10-23,2023-10-11,有限会社エムエーケー,,有限会社,埼玉県,八潮市,大字浮塚１０７９番地４,,11,234,3400835,,,2023-10-11,清算の結了等,,,2015-10-05,1,,,,,エムエーケー,0
1218,5030002083127,登記記録の閉鎖等,0,2023-10-23,2023-10-10,有限会社エフエスケント,,有限会社,埼玉県,北本市,宮内１丁目９０番地２,,11,233,3640002,,,2023-10-10,清算の結了等,,,2015-10-05,1,,,,,エフエスケント,0
1236,5040002102892,登記記録の閉鎖等,0,2023-10-23,2023-10-06,有限会社カンパーニャ,,有限会社,千葉県,いすみ市,弥正１０９番地,,12,238,2980124,,,2023-10-06,合併による解散等,5040001075198,令和５年１０月１日千葉県いすみ市弥正２６７番地４株式会社新清ハイツ（5040001075198）に合併し解散,2015-10-05,1,,,,,カンパーニャ,0
1237,5040003011738,登記記録の閉鎖等,0,2023-10-23,2023-10-06,合同会社ＩＤＳ,,合同会社,千葉県,千葉市美浜区,真砂２丁目２２番１－１００３号,,12,106,2610011,,,2023-10-06,清算の結了等,,,2018-06-07,1,,,,,アイディーエス,0
1273,5120001004982,登記記録の閉鎖等,0,2023-10-23,2023-10-19,株式会社花月堂,,株式会社,大阪府,堺市東区,大美野１０６番地１０,,27,143,5998126,,,2023-10-19,清算の結了等,,,2015-10-05,1,,,,,カゲツドウ,0
1289,5120101000279,登記記録の閉鎖等,0,2023-10-23,2023-10-19,株式会社アサカワ,,株式会社,大阪府,堺市西区,上野芝向ヶ丘町１丁１７番１８号,,27,144,5938303,,,2023-10-19,清算の結了等,,,2015-10-05,1,,,,,アサカワ,0
1293,5120105005308,登記記録の閉鎖等,0,2023-10-23,2023-10-20,特定非営利活動法人子育てサポートくるみ,,その他の設立登記法人,大阪府,羽曳野市,壺井５０８番－１,,27,222,5830844,,,2023-10-20,清算の結了等,,,2015-10-05,1,,,,,コソダテサポートクルミ,0
1319,5140002034234,登記記録の閉鎖等,0,2023-10-23,2023-10-18,有限会社セーフ,,有限会社,兵庫県,赤穂市,北野中４７０番地,,28,212,6780175,,,2023-10-18,清算の結了等,,,2015-10-05,1,,,,,セーフ,0
1336,5180002041400,登記記録の閉鎖等,0,2023-10-23,2023-10-18,有限会社協立製作所,,有限会社,愛知県,名古屋市北区,新堀町２５番地,,23,103,4620801,,,2023-10-18,清算の結了等,,,2015-10-05,1,,,,,キョウリツセイサクショ,0
1367,5240002003377,登記記録の閉鎖等,0,2023-10-23,2023-09-29,有限会社小田工業,,有限会社,広島県,広島市佐伯区,五日市町大字上河内５５３番地の８,,34,108,7315151,,,2023-09-29,清算の結了等,,,2015-10-05,1,,,,,オダコウギョウ,0
1368,5250001001471,登記記録の閉鎖等,0,2023-10-23,2023-10-18,株式会社ちょうげん,,株式会社,山口県,山口市,徳地深谷１１３７番地,,35,203,7470235,,,2023-10-18,清算の結了等,,,2015-10-05,1,,,,,チョウゲン,0
1409,5380005001827,登記記録の閉鎖等,0,2023-10-23,2023-10-12,田代生産森林組合,,その他の設立登記法人,福島県,伊達郡川俣町,山木屋字上辰子山３番地の１,,07,308,9601501,,,2023-10-12,清算の結了等,,,2015-10-05,1,,,,,タシロ,0
1419,5430002008646,登記記録の閉鎖等,0,2023-10-23,2023-10-06,有限会社サトー塗工,,有限会社,北海道,札幌市北区,篠路三条３丁目２番２２号,,01,102,0028023,,,2023-10-06,清算の結了等,,,2015-10-05,1,,,,,サトートコウ,0
1420,5430002017572,登記記録の閉鎖等,0,2023-10-23,2023-10-05,平成二条こやなぎ有限会社,,有限会社,北海道,札幌市中央区,南二条東３丁目１番地,,01,101,0600052,,,2023-10-05,清算の結了等,,,2015-10-05,1,,,,,,0
1427,5460103001290,登記記録の閉鎖等,0,2023-10-23,2023-10-17,ＲｅＢｕｉｌｄ合同会社,,合同会社,北海道,帯広市,東二条南８丁目１４番地,,01,207,0800802,,,2023-10-17,清算の結了等,,,2020-06-03,1,,,,,リビルド,0
1467,6011001094371,登記記録の閉鎖等,0,2023-10-23,2023-10-13,株式会社ポスト・プランニング,,株式会社,東京都,渋谷区,上原３丁目３９番１号上原グリーンハイム２号棟１１７号室,,13,113,1510064,,,2023-10-13,清算の結了等,,,2015-10-05,1,,,,,ポストプランニング,0
1476,6011102015029,登記記録の閉鎖等,0,2023-10-23,2023-10-17,有限会社メイプル,,有限会社,東京都,江戸川区,南葛西６丁目１５番１－４０８号,,13,123,1340085,,,2023-10-17,清算の結了等,,,2015-10-05,1,,,,,,0
1481,6011201024129,登記記録の閉鎖等,0,2023-10-23,2023-10-20,イマジン株式会社,,株式会社,東京都,中野区,中野５丁目４３番１０号リバティヒルズ中野４０１,,13,114,1640001,,,2023-10-20,清算の結了等,,,2022-09-29,1,,,,,イマジン,0
1496,6012401023044,登記記録の閉鎖等,0,2023-10-23,2023-10-19,株式会社トラスト,,株式会社,東京都,府中市,是政４丁目４番地の２２－１１４,,13,206,1830014,,,2023-10-19,清算の結了等,,,2015-10-05,1,,,,,トラスト,0
1505,6020001010981,登記記録の閉鎖等,0,2023-10-23,2023-10-10,株式会社イースターセブン,,株式会社,神奈川県,横浜市青葉区,すすき野１丁目６番地１１,,14,117,2250021,,,2023-10-10,清算の結了等,,,2015-10-05,1,,,,,イースターセブン,0
1507,6020001105864,登記記録の閉鎖等,0,2023-10-23,2023-10-10,株式会社コラボ,,株式会社,神奈川県,横浜市南区,別所４丁目２番２５－３０４号,,14,105,2320064,,,2023-10-10,清算の結了等,,,2015-10-05,1,,,,,コラボ,0
1519,6020002083837,登記記録の閉鎖等,0,2023-10-23,2023-10-10,有限会社志村実商店,,有限会社,神奈川県,川崎市中原区,上小田中３丁目２１番１５号,,14,133,2110053,,,2023-10-10,清算の結了等,,,2015-10-05,1,,,,,シムラミノルショウテン,0
1528,6021002060578,登記記録の閉鎖等,0,2023-10-23,2023-10-17,有限会社田中電設工業,,有限会社,神奈川県,中郡大磯町,東小磯６６９番地８,,14,341,2550004,,,2023-10-17,清算の結了等,,,2015-10-05,1,,,,,タナカデンセツコウギョウ,0
1532,6030001120912,登記記録の閉鎖等,0,2023-10-23,2023-10-13,峰産業株式会社,,株式会社,埼玉県,朝霞市,溝沼１丁目７番２３－２号,,11,227,3510023,,,2023-10-13,清算の結了等,,,2017-06-19,1,,,,,ミネサンギョウ,0
1560,6040002013726,登記記録の閉鎖等,0,2023-10-23,2023-10-10,有限会社ネイジュブランシュ,,有限会社,千葉県,千葉市美浜区,高洲３丁目１５番３棟１７０４号,,12,106,2610004,,,2023-10-10,清算の結了等,,,2015-10-05,1,,,,,ネイジュブランシュ,0
1566,6050002002728,登記記録の閉鎖等,0,2023-10-23,2023-10-16,有限会社ヒロ・インターナショナル,,有限会社,茨城県,水戸市,見和２丁目２５７番地１１,,08,201,3100911,,,2023-10-16,清算の結了等,,,2015-10-05,1,,,,,ヒロインターナショナル,0
1601,6140001040158,登記記録の閉鎖等,0,2023-10-23,2023-10-17,株式会社丸大鉄工,,株式会社,兵庫県,赤穂市,新田１５４３番地の２,,28,212,6780255,,,2023-10-17,清算の結了等,,,2015-10-05,1,,,,,マルダイテッコウ,0
1614,6140002040818,登記記録の閉鎖等,0,2023-10-23,2023-10-16,有限会社廣和工業,00041038,有限会社,兵庫県,尼崎市,塚口本町７丁目２０番１９号,,28,202,6610001,,,2023-10-16,清算の結了等,,,2015-10-05,1,,,,,ヒロワコウギョウ,0
1637,6180301016960,登記記録の閉鎖等,0,2023-10-23,2023-10-18,株式会社ヒラタ,,株式会社,愛知県,刈谷市,今川町井田５０番地１,,23,210,4480005,,,2023-10-18,清算の結了等,,,2015-10-05,1,,,,,,0
1640,6190003000642,登記記録の閉鎖等,0,2023-10-23,2023-10-18,合名会社内山タンス店,,合名会社,三重県,尾鷲市,栄町１１番２５号,,24,209,5193618,,,2023-10-18,清算の結了等,,,2015-10-05,1,,,,,,0
1649,6220002013880,登記記録の閉鎖等,0,2023-10-23,2023-10-18,有限会社谷鈑金工業所,,有限会社,石川県,七尾市,本府中町チ部３５番地,,17,202,9260021,,,2023-10-18,清算の結了等,,,2015-10-05,1,,,,,タニバンキンコウギョウショ,0
1659,6290001051545,登記記録の閉鎖等,0,2023-10-23,2023-10-05,テイクワン株式会社,,株式会社,福岡県,久留米市,上津町１６６０番地６,,40,203,8300052,,,2023-10-05,清算の結了等,,,2015-10-05,1,,,,,テイクワン,0
1667,6330001014968,登記記録の閉鎖等,0,2023-10-23,2023-10-12,株式会社マルケンウィング,,株式会社,熊本県,熊本市南区,富合町木原１７９２番地１,,43,104,8614153,,,2023-10-12,清算の結了等,,,2015-10-05,1,,,,,マルケンウィング,0
1671,6350001014289,登記記録の閉鎖等,0,2023-10-23,2023-10-13,株式会社しげんらぼ,,株式会社,宮崎県,宮崎市,田代町１１１番地,,45,201,8800855,,,2023-10-13,清算の結了等,,,2016-09-29,1,,,,,シゲンラボ,0
1683,6380005012220,登記記録の閉鎖等,0,2023-10-23,2023-10-13,一般財団法人螢友社,,その他の設立登記法人,福島県,いわき市,小名浜諏訪町２番地の１,,07,204,9718161,,,2023-10-13,清算の結了等,,,2019-10-30,1,,,,,ケイユウシャ,0
1690,6410003003358,登記記録の閉鎖等,0,2023-10-23,2023-10-16,合同会社森藤興業,,合同会社,秋田県,横手市,大屋寺内字寺内２６番地,,05,203,0130052,,,2023-10-16,清算の結了等,,,2020-03-05,1,,,,,モリフジコウギョウ,0
1693,6430002015609,登記記録の閉鎖等,0,2023-10-23,2023-10-06,有限会社芳賀建設,,有限会社,北海道,札幌市豊平区,福住三条５丁目１番６５－４０２号,,01,105,0620043,,,2023-10-06,清算の結了等,,,2015-10-05,1,,,,,ハガケンセツ,0
1695,6450005002528,登記記録の閉鎖等,0,2023-10-23,2023-10-19,学校法人枝幸幼稚園,,その他の設立登記法人,北海道,枝幸郡枝幸町,梅ヶ枝町３４６番地２,,01,514,0985806,,,2023-10-19,清算の結了等,,,2015-10-05,1,,,,,エサシヨウチエン,0
1705,7010001006666,登記記録の閉鎖等,0,2023-10-23,2023-10-11,新日本通信株式会社,,株式会社,東京都,文京区,千石４丁目３４番１０－５０２号,,13,105,1120011,,,2023-10-11,清算の結了等,,,2015-10-05,1,,,,,シンニホンツウシン,0
1706,7010001053345,登記記録の閉鎖等,0,2023-10-23,2023-10-11,日銘商事株式会社,,株式会社,東京都,中央区,日本橋本町４丁目５番１号ふじビル,,13,102,1030023,,,2023-10-11,清算の結了等,,,2015-10-05,1,,,,,ニチメイショウジ,0
1725,7010401173791,登記記録の閉鎖等,0,2023-10-23,2023-10-10,株式会社ＴＬＥＯグループホールディングス,,株式会社,東京都,港区,西新橋１丁目２０番３号虎ノ門法曹ビル,,13,103,1050003,,,2023-10-10,清算の結了等,,,2023-05-08,1,,,,,ティーエルイーオーグループホールディングス,0
1756,7011502001890,登記記録の閉鎖等,0,2023-10-23,2023-10-12,有限会社黒川商会,,有限会社,東京都,北区,東十条３丁目１３番１１号,,13,117,1140001,,,2023-10-12,清算の結了等,,,2015-10-05,1,,,,,クロカワショウカイ,0
1774,7020001009453,登記記録の閉鎖等,0,2023-10-23,2023-10-10,株式会社ユー・エス・アイ,,株式会社,神奈川県,横浜市都筑区,佐江戸町１４６番地１,,14,118,2240054,,,2023-10-10,清算の結了等,,,2023-06-23,1,,,,,ユーエスアイ,0
1789,7021001057178,登記記録の閉鎖等,0,2023-10-23,2023-10-11,関東エネルギー株式会社,,株式会社,東京都,中央区,八丁堀４丁目１０番１号甲東ビル６０２,,13,102,1040032,,,2023-10-11,清算の結了等,,,2015-10-05,1,,,,,カントウエネルギー,0
1794,7030001045357,登記記録の閉鎖等,0,2023-10-23,2023-10-06,株式会社昭和土地,,株式会社,埼玉県,朝霞市,西原２丁目３番５号,,11,227,3510034,,,2023-10-06,清算の結了等,,,2015-10-05,1,,,,,ショウワトチ,0
1801,7030001080404,登記記録の閉鎖等,0,2023-10-23,2023-10-11,株式会社弘栄製作所,,株式会社,埼玉県,川口市,大字新堀３５７番地１,,11,203,3340061,,,2023-10-11,清算の結了等,,,2015-10-05,1,,,,,コウエイセイサクショ,0
1802,7030001118047,登記記録の閉鎖等,0,2023-10-23,2023-10-06,株式会社コーピリウス,,株式会社,埼玉県,川口市,並木４丁目２番１１号－５０１,,11,203,3320034,,,2023-10-06,清算の結了等,,,2017-01-16,1,,,,,コーピリウス,0
1826,7040001085220,登記記録の閉鎖等,0,2023-10-23,2023-10-06,株式会社日本経営支援センター,,株式会社,千葉県,市川市,大和田３丁目２５番１１号,,12,203,2720025,,,2023-10-06,清算の結了等,,,2015-10-05,1,,,,,ニホンケイエイシエンセンター,0
1839,7070001024423,登記記録の閉鎖等,0,2023-10-23,2023-10-16,株式会社蓮,,株式会社,群馬県,みどり市,大間々町大間々２８番地１,,10,212,3760101,,,2023-10-16,清算の結了等,,,2015-10-05,1,,,,,,0
1847,7080402002225,登記記録の閉鎖等,0,2023-10-23,2023-10-19,有限会社神谷フェンス,,有限会社,静岡県,浜松市中区,富塚町２２６２番地の９,00079855,22,131,4328002,,,2023-10-19,清算の結了等,,,2015-10-05,1,,,,,カミヤフェンス,0
1848,7090001008614,登記記録の閉鎖等,0,2023-10-23,2023-10-19,株式会社ＴＥＰ,,株式会社,山梨県,上野原市,上野原２１１３番地７,,19,212,4090112,,,2023-10-19,清算の結了等,,,2015-10-05,1,,,,,テップ,0
1867,7120002046493,登記記録の閉鎖等,0,2023-10-23,2023-10-18,有限会社ハラダ,,有限会社,大阪府,大阪市淀川区,加島１丁目２３番１８号,,27,123,5320031,,,2023-10-18,清算の結了等,,,2015-10-05,1,,,,,ハラダ,0
1893,7140005007953,登記記録の閉鎖等,0,2023-10-23,2023-10-13,特定非営利活動法人まちかど,,その他の設立登記法人,兵庫県,佐用郡佐用町,才金３００番地,,28,501,6795502,,,2023-10-13,清算の結了等,,,2015-10-05,1,,,,,マチカド,0
1897,7180001024494,登記記録の閉鎖等,0,2023-10-23,2023-10-16,京セラインダストリアルツールズ販売株式会社,,株式会社,愛知県,名古屋市天白区,久方１丁目１４５番地の１,,23,116,4680034,,,2023-10-16,合併による解散等,5240001052202,令和５年１０月１日広島県福山市松浜町二丁目２番５４号京セラインダストリアルツールズ株式会社（5240001052202）に合併し解散,2015-10-05,1,,,,,キョウセラインダストリアルツールズハンバイ,0
1906,7180003019344,登記記録の閉鎖等,0,2023-10-23,2023-10-17,合同会社共生,,合同会社,愛知県,一宮市,小信中島字北東山１１番地５,,23,203,4940007,,,2023-10-17,清算の結了等,,,2018-10-09,1,,,,,キョウセイ,0
1908,7180301007091,登記記録の閉鎖等,0,2023-10-23,2023-10-19,株式会社本陣,,株式会社,愛知県,豊橋市,前田町１丁目８番地５,,23,201,4400814,,,2023-10-19,清算の結了等,,,2015-10-05,1,,,,,ホンジン,0
1910,7180302022734,登記記録の閉鎖等,0,2023-10-23,2023-10-10,有限会社つるみ酒店,,有限会社,愛知県,豊田市,堤町上町４０番地,,23,211,4730932,,,2023-10-10,清算の結了等,,,2015-10-05,1,,,,,ツルミサケテン,0
1917,7200001028435,登記記録の閉鎖等,0,2023-10-23,2023-10-20,株式会社環境クリエイト,,株式会社,岐阜県,岐阜市,下川手１５８番地２６,,21,201,5008246,,,2023-10-20,清算の結了等,,,2015-10-05,1,,,,,カンキョウクリエイト,0
1932,7230002009786,登記記録の閉鎖等,0,2023-10-23,2023-10-20,有限会社第一ミートセンター,,有限会社,富山県,南砺市,福光１１５番地の２,,16,210,9391610,,,2023-10-20,清算の結了等,,,2015-10-05,1,,,,,ダイイチミートセンター,0
1934,7240003005809,登記記録の閉鎖等,0,2023-10-23,2023-10-12,ＮＡＴＨＡＮ合同会社,,合同会社,広島県,三次市,十日市南５丁目３番３５号（２０４号）,,34,209,7280014,,,2023-10-12,清算の結了等,,,2022-09-16,1,,,,,ネイサン,0
1943,7260002017885,登記記録の閉鎖等,0,2023-10-23,2023-10-17,有限会社グランテクノ,,有限会社,岡山県,倉敷市,中央２丁目１６番２号,,33,202,7100046,,,2023-10-17,清算の結了等,,,2015-10-05,1,,,,,グランテクノ,0
1984,8010001199559,登記記録の閉鎖等,0,2023-10-23,2023-10-19,株式会社うずしお開発,,株式会社,東京都,港区,東新橋１丁目５番２号汐留シティセンター８階リアルブルーソーラー合同会社内,,13,103,1050021,,,2023-10-19,合併による解散等,8010401139338,令和５年１０月５日東京都中央区八丁堀四丁目２番１０号ＡＯＪ税理士法人内株式会社はくつる開発（8010401139338）に合併し解散,2019-03-29,1,,,,,ウズシオカイハツ,0
1985,8010001205523,登記記録の閉鎖等,0,2023-10-23,2023-10-19,株式会社さざなみ開発,,株式会社,東京都,港区,東新橋１丁目５番２号汐留シティセンター８階リアルブルーソーラー合同会社内,,13,103,1050021,,,2023-10-19,合併による解散等,8010401139338,令和５年１０月５日東京都中央区八丁堀四丁目２番１０号ＡＯＪ税理士法人内株式会社はくつる開発（8010401139338）に合併し解散,2019-11-21,1,,,,,サザナミカイハツ,0
2028,8010802020146,登記記録の閉鎖等,0,2023-10-23,2023-10-19,有限会社加賀商事,,有限会社,東京都,大田区,大森北４丁目９番８号,,13,111,1430016,,,2023-10-19,清算の結了等,,,2015-10-05,1,,,,,カガショウジ,0
2040,8011101027196,登記記録の閉鎖等,0,2023-10-23,2023-10-19,株式会社ジークエデュケーション,,株式会社,東京都,新宿区,高田馬場４丁目１０番１４号,,13,104,1690075,,,2023-10-19,清算の結了等,,,2015-10-05,1,,,,,ジークエデュケーション,0
2081,8030001100557,登記記録の閉鎖等,0,2023-10-23,2023-10-06,株式会社クレアシステム,,株式会社,埼玉県,さいたま市見沼区,大字丸ヶ崎１０３８番地,,11,104,3370001,,,2023-10-06,清算の結了等,,,2015-10-05,1,,,,,クレアシステム,0
2084,8030001137277,登記記録の閉鎖等,0,2023-10-23,2023-10-06,ＵＮＩＶＥＲＳＡＬ　ＡＧＥＮＴ株式会社,,株式会社,埼玉県,さいたま市大宮区,寿能町２丁目２２４番地１ローヤルシティ大宮公園３０４号,,11,103,3300805,,,2023-10-06,清算の結了等,,,2020-07-10,1,,,,,ユニバーサルエージェント,0
2085,8030001145346,登記記録の閉鎖等,0,2023-10-23,2023-10-05,株式会社ＭＥコーポレーション,,株式会社,埼玉県,鶴ヶ島市,大字藤金８４６番地１８,,11,241,3502206,,,2023-10-05,清算の結了等,,,2021-11-16,1,,,,,エムイーコーポレーション,0
2092,8030002013188,登記記録の閉鎖等,0,2023-10-23,2023-10-06,有限会社ミエダ建設,,有限会社,埼玉県,さいたま市見沼区,染谷３丁目２番地,,11,104,3370026,,,2023-10-06,清算の結了等,,,2015-10-05,1,,,,,ミエダケンセツ,0
2094,8030002066979,登記記録の閉鎖等,0,2023-10-23,2023-10-05,有限会社八十八茶房,,有限会社,埼玉県,新座市,大和田５丁目１８番２号,,11,230,3520004,,,2023-10-05,清算の結了等,,,2015-10-05,1,,,,,ハトヤサボウ,0
2101,8040001076499,登記記録の閉鎖等,0,2023-10-23,2023-10-05,株式会社フラッガー,,株式会社,千葉県,君津市,久保２丁目１番１７号丸正第一ビル１階,,12,225,2991152,,,2023-10-05,清算の結了等,,,2015-10-05,1,,,,,フラッガー,0
2105,8040002020555,登記記録の閉鎖等,0,2023-10-23,2023-10-06,有限会社井手口測量,,有限会社,千葉県,船橋市,金杉５丁目２１番１０号,,12,204,2730853,,,2023-10-06,清算の結了等,,,2015-10-05,1,,,,,イデグチソクリョウ,0
2114,8050002004607,登記記録の閉鎖等,0,2023-10-23,2023-10-16,株式会社ウエディング・ベル,,株式会社,茨城県,水戸市,城南２丁目９番３２号,,08,201,3100803,,,2023-10-16,合併による解散等,7030001034698,令和５年９月３０日埼玉県草加市氷川町２１４７番地３株式会社ウエディング・ベル（7030001034698）に合併し解散,2015-10-05,1,,,,,,0
2116,8060001021172,登記記録の閉鎖等,0,2023-10-23,2023-10-16,株式会社ニツコー,,株式会社,栃木県,佐野市,免鳥町字城ノ前５３３番地５,,09,204,3270041,,,2023-10-16,清算の結了等,,,2015-10-05,1,,,,,ニツコー,0
2132,8100001026282,登記記録の閉鎖等,0,2023-10-23,2023-09-29,株式会社ふるさと保険サービス,,株式会社,長野県,須坂市,大字米持字大道下３０６番地１,,20,207,3820000,,,2023-09-29,清算の結了等,,,2015-10-05,1,,,,,フルサトホケンサービス,0
2138,8120001082563,登記記録の閉鎖等,0,2023-10-23,2023-10-13,株式会社フォーゲミナッツ,,株式会社,兵庫県,西宮市,西宮浜４丁目９番５－１３０４号,,28,204,6620934,,,2023-10-13,清算の結了等,,,2015-10-05,1,,,,,フォーゲミナッツ,0
2139,8120001172265,登記記録の閉鎖等,0,2023-10-23,2023-10-16,株式会社トモニコーポレーション,,株式会社,大阪府,大阪市阿倍野区,旭町１丁目１番１０号,,27,119,5450051,,,2023-10-16,合併による解散等,3120001163558,令和５年１０月１日大阪市西成区南津守五丁目２番６４号株式会社センショー（3120001163558）に合併し解散,2015-10-05,1,,,,,トモニコーポレーション,0
2162,8140001050725,登記記録の閉鎖等,0,2023-10-23,2023-10-16,阪神丸十服装株式会社,,株式会社,兵庫県,尼崎市,潮江３丁目１０番１号,,28,202,6610976,,,2023-10-16,清算の結了等,,,2015-10-05,1,,,,,ハンシンマルジュウフクソウ,0
2173,8140002058965,登記記録の閉鎖等,0,2023-10-23,2023-10-13,華義通商有限会社,,有限会社,兵庫県,西宮市,甲陽園東山町５番７号,,28,204,6620012,,,2023-10-13,清算の結了等,,,2015-10-05,1,,,,,ハナヨシツウショウ,0
2174,8140003018745,登記記録の閉鎖等,0,2023-10-23,2023-10-16,合同会社ＰＯＲＴＴＥＣ,,合同会社,兵庫県,三田市,下青野８６６番地５０,,28,219,6691302,,,2023-10-16,清算の結了等,,,2023-02-22,1,,,,,ポートテック,0
2181,8180001151635,登記記録の閉鎖等,0,2023-10-23,2023-10-17,株式会社クライム,,株式会社,愛知県,名古屋市守山区,小幡常燈１８番９号,,23,113,4630047,,,2023-10-17,清算の結了等,,,2022-06-08,1,,,,,クライム,0
2186,8180003010244,登記記録の閉鎖等,0,2023-10-23,2023-10-17,合名会社サイクルショップ丸六,,合名会社,愛知県,小牧市,小牧３丁目２６８番地,,23,219,4850041,,,2023-10-17,清算の結了等,,,2015-10-05,1,,,,,サイクルショップマルロク,0
2194,8180301014178,登記記録の閉鎖等,0,2023-10-23,2023-10-11,株式会社タカラホーム,,株式会社,愛知県,刈谷市,井ケ谷町中前田６８番地,,23,210,4480001,,,2023-10-11,清算の結了等,,,2015-10-05,1,,,,,タカラホーム,0
2195,8180301025051,登記記録の閉鎖等,0,2023-10-23,2023-10-10,株式会社リンクスタッフ,,株式会社,愛知県,豊橋市,向山町字川北１番５,,23,201,4400864,,,2023-10-10,清算の結了等,,,2015-10-05,1,,,,,リンクスタッフ,0
2217,8220002004192,登記記録の閉鎖等,0,2023-10-23,2023-10-16,有限会社内装工房めいく,,有限会社,石川県,金沢市,北塚町西３３７番地６,,17,201,9200367,,,2023-10-16,清算の結了等,,,2015-10-05,1,,,,,ナイソウコウボウメイク,0
2231,8290001030836,登記記録の閉鎖等,0,2023-10-23,2023-10-04,株式会社プレスネット,,株式会社,福岡県,福岡市東区,松崎２丁目１６番１７号,,40,131,8130035,,,2023-10-04,清算の結了等,,,2015-10-05,1,,,,,プレスネット,0
2263,8380002022039,登記記録の閉鎖等,0,2023-10-23,2023-10-16,有限会社阿部管工,,有限会社,福島県,いわき市,錦町江栗２丁目８２番地２,,07,204,9748232,,,2023-10-16,清算の結了等,,,2015-10-05,1,,,,,アベカンコウ,0
2274,8430002051354,登記記録の閉鎖等,0,2023-10-23,2023-10-05,有限会社北海道健食,,有限会社,北海道,夕張郡長沼町,東１線北１４番地,,01,428,0691317,,,2023-10-05,清算の結了等,,,2015-10-05,1,,,,,ホッカイドウケンショク,0
2278,8450002004203,登記記録の閉鎖等,0,2023-10-23,2023-10-20,有限会社ノースグラスプラニング,,有限会社,北海道,旭川市,神楽二条１２丁目３番２号,,01,204,0708002,,,2023-10-20,清算の結了等,,,2015-10-05,1,,,,,,0
2283,8500002006573,登記記録の閉鎖等,0,2023-10-23,2023-10-20,有限会社三澤電気商会,,有限会社,愛媛県,松山市,元町９番２１号,,38,201,7918064,,,2023-10-20,清算の結了等,,,2015-10-05,1,,,,,ミサワデンキショウカイ,0
2296,9010401033473,登記記録の閉鎖等,0,2023-10-23,2023-10-10,株式会社ヘルスガード・ユニオン,,株式会社,東京都,港区,浜松町１丁目９番１０号,,13,103,1050013,,,2023-10-10,清算の結了等,,,2015-10-05,1,,,,,ヘルスガードユニオン,0
2298,9010401089433,登記記録の閉鎖等,0,2023-10-23,2023-10-11,Ｐ．Ｃ．Ｆ．ＦＲＯＮＴＥＯ株式会社,,株式会社,東京都,港区,港南２丁目１２番２３号,,13,103,1080075,,,2023-10-11,合併による解散等,1010401051219,令和５年１０月１日東京都港区港南二丁目１２番２３号株式会社ＦＲＯＮＴＥＯ（1010401051219）に合併し解散,2015-10-05,1,,,,,ピーシーエフフロンテオ,0
2303,9010401174680,登記記録の閉鎖等,0,2023-10-23,2023-10-04,Ａｌｗａｙｓ　Ｏｎ　Ｔｅｃｈ　Ｊａｐａｎ株式会社,,株式会社,東京都,港区,新橋２丁目１６－１ニュー新橋ビル７０２,,13,103,1050004,,,2023-10-04,清算の結了等,,,2023-06-01,1,,,,,オールウェイズオンテックジャパン,0
2322,9010802014543,登記記録の閉鎖等,0,2023-10-23,2023-10-17,有限会社モギ,,有限会社,東京都,大田区,中馬込３丁目７番６号,,13,111,1430027,,,2023-10-17,清算の結了等,,,2015-10-05,1,,,,,モギ,0
2338,9011101056797,登記記録の閉鎖等,0,2023-10-23,2023-10-20,株式会社エス・ケー・シー,,株式会社,東京都,新宿区,新宿５丁目１３番５号,,13,104,1600022,,,2023-10-20,清算の結了等,,,2015-10-05,1,,,,,エスケーシー,0
2341,9011201012287,登記記録の閉鎖等,0,2023-10-23,2023-10-20,株式会社アドック,,株式会社,東京都,中野区,弥生町１丁目１番８－６０１号,,13,114,1640013,,,2023-10-20,清算の結了等,,,2015-10-05,1,,,,,アドック,0
2345,9011401007244,登記記録の閉鎖等,0,2023-10-23,2023-10-20,板橋笹塚自動車部品株式会社,00054852,株式会社,東京都,板橋区,大山金井町１５番２号,,13,119,1730024,,,2023-10-20,清算の結了等,,,2015-10-05,1,,,,,,0
2385,9030001001151,登記記録の閉鎖等,0,2023-10-23,2023-10-05,株式会社エムアンドワイコンサルタント,,株式会社,埼玉県,さいたま市浦和区,北浦和１丁目７番１－１２０５号,,11,107,3300074,,,2023-10-05,清算の結了等,,,2015-10-05,1,,,,,エムアンドワイコンサルタント,0
2392,9030001150089,登記記録の閉鎖等,0,2023-10-23,2023-10-10,株式会社ＷＥＤＧＥＷＥＢ,,株式会社,埼玉県,入間市,大字下藤沢１０９０番地２レグザ入間が丘３０２,,11,225,3580011,,,2023-10-10,清算の結了等,,,2022-09-13,1,,,,,ウェッジウェブ,0
2399,9030002026346,登記記録の閉鎖等,0,2023-10-23,2023-10-05,有限会社丸味ベーカリー,,有限会社,埼玉県,蕨市,塚越７丁目２７番２号,,11,223,3350002,,,2023-10-05,清算の結了等,,,2015-10-05,1,,,,,マルミベーカリー,0
2400,9030002061368,登記記録の閉鎖等,0,2023-10-23,2023-10-06,有限会社佐光エンジニァリング,,有限会社,埼玉県,新座市,新座２丁目１８番１７－４０１号,,11,230,3520006,,,2023-10-06,清算の結了等,,,2015-10-05,1,,,,,サコウエンジニアリング,0
2402,9030002079550,登記記録の閉鎖等,0,2023-10-23,2023-10-06,有限会社在宅介護支援事業所藤,,有限会社,埼玉県,川越市,大字牛子４２７番地６１,,11,201,3500017,,,2023-10-06,清算の結了等,,,2015-10-05,1,,,,,ザイタクカイゴシエンジギョウショフジ,0
2404,9030002114869,登記記録の閉鎖等,0,2023-10-23,2023-10-10,有限会社森牛乳江南センター,,有限会社,埼玉県,熊谷市,小江川１７３９番地,,11,202,3600103,,,2023-10-10,清算の結了等,,,2015-10-05,1,,,,,モリギュウニュウコウナンセンター,0
2407,9030005010850,登記記録の閉鎖等,0,2023-10-23,2023-10-06,医療法人龍仁会,,その他の設立登記法人,埼玉県,鶴ヶ島市,大字下新田１７番地４,,11,241,3502222,,,2023-10-06,清算の結了等,,,2015-10-05,1,,,,,リュウジンカイ,0
2411,9040001017659,登記記録の閉鎖等,0,2023-10-23,2023-10-06,城輝産業株式会社,,株式会社,千葉県,船橋市,西船４丁目１８番１４号１００１,,12,204,2730031,,,2023-10-06,清算の結了等,,,2015-10-05,1,,,,,シロキサンギョウ,0
2417,9040002099192,登記記録の閉鎖等,0,2023-10-23,2023-10-06,いそべ木工有限会社,,有限会社,千葉県,館山市,那古４１４番地,,12,205,2940055,,,2023-10-06,清算の結了等,,,2015-10-05,1,,,,,イソベモッコウ,0
2430,9070001015073,登記記録の閉鎖等,0,2023-10-23,2023-10-11,株式会社プレジデントスタッフサービス,,株式会社,群馬県,伊勢崎市,境下渕名３０５０番地４,,10,204,3700103,,,2023-10-11,清算の結了等,,,2015-10-05,1,,,,,,0
2443,9100002013865,登記記録の閉鎖等,0,2023-10-23,2023-10-10,有限会社グルメランチよしだ,,有限会社,長野県,上田市,下塩尻字久保田１３１番地７,,20,203,3860043,,,2023-10-10,清算の結了等,,,2015-10-05,1,,,,,グルメランチヨシダ,0
2466,9120002063231,登記記録の閉鎖等,0,2023-10-23,2023-10-05,有限会社松重商店,,有限会社,大阪府,大阪市西区,南堀江４丁目２０番１２号,,27,106,5500015,,,2023-10-05,清算の結了等,,,2015-10-05,1,,,,,マツシゲショウテン,0
2468,9120005014784,登記記録の閉鎖等,0,2023-10-23,2023-10-20,一般社団法人日本個人リスト保護協会,,その他の設立登記法人,大阪府,大阪市中央区,北久宝寺町１丁目４番１５号ＳＣ堺筋本町ビル,,27,128,5410057,,,2023-10-20,清算の結了等,,,2015-10-05,1,,,,,ニホンコジンリストホゴキョウカイ,0
2481,9140001037671,登記記録の閉鎖等,0,2023-10-23,2023-10-18,株式会社みなみ,,株式会社,兵庫県,明石市,小久保５丁目３番地の１１ロイヤルコート西明石Ｉ２０２号,00123501,28,203,6730005,,,2023-10-18,清算の結了等,,,2015-10-05,1,,,,,ミナミ,0
2502,9180001119516,登記記録の閉鎖等,0,2023-10-23,2023-10-17,株式会社ケイワンクリーン,,株式会社,愛知県,海部郡蟹江町,源氏３丁目３６番地６,,23,425,4970055,,,2023-10-17,清算の結了等,,,2015-10-05,1,,,,,ケイワンクリーン,0
2510,9180003011448,登記記録の閉鎖等,0,2023-10-23,2023-10-18,合資会社松閣,,合資会社,愛知県,一宮市,本町３丁目９番３号,,23,203,4910859,,,2023-10-18,清算の結了等,,,2015-10-05,1,,,,,ショウカク,0
2514,9190001029714,登記記録の閉鎖等,0,2023-10-23,2023-10-17,ＭＡＳＨＡＬＬＡＨ株式会社,,株式会社,三重県,桑名市,大字和泉５６２番地１,,24,205,5110838,,,2023-10-17,清算の結了等,,,2022-08-26,1,,,,,マシャラー,0
2518,9200001034588,登記記録の閉鎖等,0,2023-10-23,2023-10-19,株式会社ＴＮＫ,,株式会社,岐阜県,各務原市,鵜沼朝日町４丁目１１５番地５,,21,213,5090145,,,2023-10-19,清算の結了等,,,2017-11-09,1,,,,,,0
2556,9350002001820,登記記録の閉鎖等,0,2023-10-23,2023-10-13,有限会社コヤマ設計,,有限会社,宮崎県,宮崎市,江南１丁目２８番１２号,,45,201,8800944,,,2023-10-13,清算の結了等,,,2015-10-05,1,,,,,コヤマセッケイ,0
2565,9380001027780,登記記録の閉鎖等,0,2023-10-23,2023-10-13,株式会社ＩＮＮＯＴＥＣＨ,,株式会社,福島県,岩瀬郡鏡石町,久来石１８６番地,,07,342,9690403,,,2023-10-13,清算の結了等,,,2017-02-15,1,,,,,イノテック,0
