sequenceNumber,corporateNumber,process,correct,updateDate,changeDate,name,nameImageId,kind,prefectureName,cityName,streetNumber,addressImageId,prefectureCode,cityCode,postCode,addressOutside,addressOutsideImageId,closeDate,closeCause,successorCorporateNumber,changeCause,assignmentDate,latest,enName,enPrefectureName,enCityName,enAddressOutside,furigana,hihyoji
37,1010802011267,登記記録の閉鎖等,0,2021-07-30,2021-07-21,有限会社ノガミ精工,,有限会社,東京都,大田区,中央８丁目３６番８号,,13,111,1430024,,,2021-07-21,清算の結了等,,,2015-10-05,1,,,,,ノガミセイコウ,0
38,1010802018997,登記記録の閉鎖等,0,2021-07-30,2021-07-16,有限会社ケイ・アイ・グローバル,,有限会社,東京都,大田区,上池台５丁目３７番５号,,13,111,1450064,,,2021-07-16,清算の結了等,,,2015-10-05,1,,,,,,0
106,1040001104935,登記記録の閉鎖等,0,2021-07-30,2021-07-19,リッツ化学株式会社,,株式会社,千葉県,八街市,榎戸４１６番地２５,,12,230,2891106,,,2021-07-19,清算の結了等,,,2018-06-05,1,,,,,リッツカガク,0
120,1050002017929,登記記録の閉鎖等,0,2021-07-30,2021-07-16,有限会社ストロベリーフィールズ,,有限会社,東京都,大田区,上池台１丁目３９番１１号,,13,111,1450064,,,2021-07-16,清算の結了等,,,2015-10-05,1,,,,,ストロベリーフィールズ,0
122,1060002039336,登記記録の閉鎖等,0,2021-07-30,2021-07-15,有限会社新島園,,有限会社,栃木県,佐野市,高橋町２２５番地,,09,204,3270045,,,2021-07-15,清算の結了等,,,2015-10-05,1,,,,,ニイジマエン,0
141,1110002033606,登記記録の閉鎖等,0,2021-07-30,2021-07-26,有限会社プロジェクトエイ,,有限会社,新潟県,南魚沼郡湯沢町,大字土樽１０３番地２７,00071194,15,461,9496103,,,2021-07-26,清算の結了等,,,2015-10-05,1,,,,,プロジェクトエイ,0
160,1120003008135,登記記録の閉鎖等,0,2021-07-30,2021-07-19,合同会社新戎橋ビル開発,,合同会社,大阪府,大阪市中央区,南久宝寺町４丁目５番１７号,,27,128,5410058,,,2021-07-19,清算の結了等,,,2015-10-05,1,,,,,,0
176,1130002019306,登記記録の閉鎖等,0,2021-07-30,2021-07-26,有限会社平山製作所,,有限会社,京都府,京都市伏見区,久我西出町２番地の１２５,,26,109,6128496,,,2021-07-26,清算の結了等,,,2015-10-05,1,,,,,,0
186,1140005004444,登記記録の閉鎖等,0,2021-07-30,2021-07-26,特定非営利活動法人神戸市肢体障害者福祉協会,,その他の設立登記法人,兵庫県,神戸市中央区,橘通３丁目４番１号,,28,110,6500016,,,2021-07-26,清算の結了等,,,2015-10-05,1,,,,,コウベシシタイショウガイシャフクシキョウカイ,0
199,1170005006041,登記記録の閉鎖等,0,2021-07-30,2021-07-29,特定非営利活動法人青年学級かいなん,,その他の設立登記法人,和歌山県,海南市,木津２３３番地１９,,30,202,6401174,,,2021-07-29,清算の結了等,,,2015-10-05,1,,,,,,0
200,1180001056213,登記記録の閉鎖等,0,2021-07-30,2021-07-16,株式会社ＨＡＬコーポレーション,,株式会社,愛知県,名古屋市中村区,亀島１丁目１番１号新名古屋センタービル・浮島街１階１１３５号室,,23,105,4530013,,,2021-07-16,清算の結了等,,,2015-10-05,1,,,,,,0
206,1180001118269,登記記録の閉鎖等,0,2021-07-30,2021-07-20,コムアンドワームス株式会社,,株式会社,愛知県,名古屋市中区,錦３丁目１９番３０号,,23,106,4600003,,,2021-07-20,清算の結了等,,,2015-10-05,1,,,,,コムアンドワームス,0
207,1180001132897,登記記録の閉鎖等,0,2021-07-30,2021-07-27,豊田屋不動産株式会社,,株式会社,愛知県,名古屋市中区,栄２丁目２番１号広小路伏見中駒ビル２Ｆ,,23,106,4600008,,,2021-07-27,清算の結了等,,,2018-07-04,1,,,,,トヨタヤフドウサン,0
222,1220002013737,登記記録の閉鎖等,0,2021-07-30,2021-07-19,有限会社久保作商店,,有限会社,石川県,七尾市,矢田新町イ部５１番地５,,17,202,9260015,,,2021-07-19,清算の結了等,,,2015-10-05,1,,,,,クボサクショウテン,0
239,1250002018163,登記記録の閉鎖等,0,2021-07-30,2021-07-27,有限会社鈴川興業,,有限会社,山口県,岩国市,青木町３丁目６０番２２号,,35,208,7400042,,,2021-07-27,清算の結了等,,,2015-10-05,1,,,,,スズカワコウギョウ,0
248,1290001008624,登記記録の閉鎖等,0,2021-07-30,2021-07-07,株式会社タカクラホテル福岡,,株式会社,福岡県,福岡市中央区,渡辺通２丁目７番２１号,,40,133,8100004,,,2021-07-07,清算の結了等,,,2015-10-05,1,,,,,タカクラホテルフクオカ,0
257,1290001079087,登記記録の閉鎖等,0,2021-07-30,2021-07-07,株式会社オフィスエム,,株式会社,福岡県,福岡市博多区,板付２丁目９番９号,,40,132,8120888,,,2021-07-07,清算の結了等,,,2017-09-15,1,,,,,オフィスエム,0
265,1290003008432,登記記録の閉鎖等,0,2021-07-30,2021-07-06,ＳＥＪ　ＶＩＩＩ合同会社,,合同会社,福岡県,福岡市早良区,百道浜２丁目４－２７ＡＩビル６Ｆ,,40,137,8140001,,,2021-07-06,清算の結了等,,,2018-10-26,1,,,,,エスイージェーエイト,0
272,1310002019898,登記記録の閉鎖等,0,2021-07-30,2021-07-20,有限会社栄伸産業,,有限会社,長崎県,松浦市,鷹島町里免１２１７番地２,,42,208,8594304,,,2021-07-20,清算の結了等,,,2015-10-05,1,,,,,エイシンサンギョウ,0
279,1330001003637,登記記録の閉鎖等,0,2021-07-30,2021-07-16,株式会社西日本新聞広告社・熊本,,株式会社,熊本県,熊本市中央区,新屋敷１丁目５番１号,,43,101,8620975,,,2021-07-16,清算の結了等,,,2015-10-05,1,,,,,ニシニホンシンブンコウコクシャクマモト,0
283,1330002027528,登記記録の閉鎖等,0,2021-07-30,2021-07-19,有限会社斉藤商店,,有限会社,熊本県,葦北郡芦北町,大字大野４７番地５,,43,482,8696305,,,2021-07-19,清算の結了等,,,2015-10-05,1,,,,,サイトウショウテン,0
285,1340001014419,登記記録の閉鎖等,0,2021-07-30,2021-07-16,株式会社根占緑修園,,株式会社,鹿児島県,肝属郡南大隅町,根占山本７４６６番地,,46,491,8932504,,,2021-07-16,清算の結了等,,,2015-10-05,1,,,,,ネジメリョクシュウエン,0
294,1380001012897,登記記録の閉鎖等,0,2021-07-30,2021-07-19,株式会社紗賀英工食,,株式会社,福島県,いわき市,江名字荻ノ作１４３番地,,07,204,9700311,,,2021-07-19,清算の結了等,,,2015-10-05,1,,,,,サカエコウショク,0
309,1470001010636,登記記録の閉鎖等,0,2021-07-30,2021-07-28,株式会社櫂建築事務所,,株式会社,香川県,三豊市,詫間町松崎１９０８番地,,37,208,7691102,,,2021-07-28,清算の結了等,,,2015-10-05,1,,,,,カイケンチクジムショ,0
331,2010401125772,登記記録の閉鎖等,0,2021-07-30,2021-07-26,フーディア株式会社,,株式会社,京都府,京都市伏見区,下油掛町１５７番地,,26,109,6128364,,,2021-07-26,清算の結了等,,,2016-07-15,1,,,,,フーディア,0
334,2010402020808,登記記録の閉鎖等,0,2021-07-30,2021-07-28,有限会社空楽,,有限会社,東京都,港区,白金台２丁目１１番５号,,13,103,1080071,,,2021-07-28,合併による解散等,7010001199948,令和３年７月１日大阪市西区南堀江三丁目７番２２号株式会社ＷＯＬＶＥＳ　Ｈａｎｄ（7010001199948）に合併し解散,2015-10-05,1,,,,,ソラク,0
336,2010501007094,登記記録の閉鎖等,0,2021-07-30,2021-07-15,株式会社大晃,,株式会社,東京都,台東区,三ノ輪２丁目１４番１号,,13,106,1100011,,,2021-07-15,清算の結了等,,,2015-10-05,1,,,,,タイコウ,0
337,2010502021235,登記記録の閉鎖等,0,2021-07-30,2021-07-29,有限会社クリエイトクルー,,有限会社,東京都,足立区,谷中２丁目２０番２号,,13,121,1200006,,,2021-07-29,清算の結了等,,,2015-10-05,1,,,,,クリエイトクルー,0
344,2010802019466,登記記録の閉鎖等,0,2021-07-30,2021-07-19,有限会社ビィ・エヌ・ケイ・オフィス,,有限会社,東京都,大田区,羽田４丁目１２番３号,,13,111,1440043,,,2021-07-19,清算の結了等,,,2015-10-05,1,,,,,ビィエヌケイオフィス,0
364,2011801022270,登記記録の閉鎖等,0,2021-07-30,2021-07-29,株式会社ゼオ・ピノス,,株式会社,東京都,足立区,綾瀬５丁目１７番９号ハイムアルファ２０３号,,13,121,1200005,,,2021-07-29,清算の結了等,,,2015-10-05,1,,,,,,0
378,2013101003686,登記記録の閉鎖等,0,2021-07-30,2021-07-21,下紺屋運輸株式会社,,株式会社,東京都,青梅市,長淵５丁目５５６番地,,13,205,1980052,,,2021-07-21,清算の結了等,,,2015-10-05,1,,,,,,0
386,2020003013301,登記記録の閉鎖等,0,2021-07-30,2021-07-19,合同会社ブリッジ,,合同会社,神奈川県,川崎市麻生区,細山１丁目４番２号,,14,137,2150001,,,2021-07-19,清算の結了等,,,2017-09-19,1,,,,,ブリッジ,0
389,2020005006484,登記記録の閉鎖等,0,2021-07-30,2021-07-19,特定非営利活動法人ワーカーズ・コレクティブコンパス,,その他の設立登記法人,神奈川県,横浜市金沢区,富岡西２丁目４５番２号上原方,,14,108,2360052,,,2021-07-19,清算の結了等,,,2015-10-05,1,,,,,ワーカーズコレクティブコンパス,0
390,2021001016948,登記記録の閉鎖等,0,2021-07-30,2021-07-19,熱建工業株式会社,,株式会社,神奈川県,相模原市中央区,光が丘３丁目３１番３号,,14,152,2520227,,,2021-07-19,清算の結了等,,,2015-10-05,1,,,,,ネッケンコウギョウ,0
396,2021001056201,登記記録の閉鎖等,0,2021-07-30,2021-07-19,株式会社ＪＵＮ,,株式会社,神奈川県,相模原市中央区,千代田７丁目４番１３号,,14,152,2520237,,,2021-07-19,清算の結了等,,,2015-10-05,1,,,,,ジュン,0
429,2050001021146,登記記録の閉鎖等,0,2021-07-30,2021-07-19,株式会社輝翔,00022188,株式会社,茨城県,鹿嶋市,宮中６丁目６番１２号,,08,222,3140031,,,2021-07-19,清算の結了等,,,2015-10-05,1,,,,,キショウ,0
442,2080101022314,登記記録の閉鎖等,0,2021-07-30,2021-07-27,株式会社アセットシード２ｄ,,株式会社,静岡県,沼津市,本白銀町４８９番地の５イズミハイツ１Ｆ,,22,203,4100867,,,2021-07-27,合併による解散等,6020001027365,令和３年７月１８日横浜市中区かもめ町４１番地第一金属工業株式会社（6020001027365）に合併し解散,2021-02-08,1,,,,,アセットシードセカンド,0
448,2090002015127,登記記録の閉鎖等,0,2021-07-30,2021-07-26,有限会社山梨印友社,,有限会社,山梨県,南巨摩郡富士川町,青柳町１０６３番地,,19,368,4000501,,,2021-07-26,清算の結了等,,,2015-10-05,1,,,,,ヤマナシインユウシャ,0
452,2110002026757,登記記録の閉鎖等,0,2021-07-30,2021-07-26,有限会社池田電機,,有限会社,新潟県,長岡市,住吉２丁目１０番１９号,,15,202,9400044,,,2021-07-26,清算の結了等,,,2015-10-05,1,,,,,イケダデンキ,0
455,2110005016508,登記記録の閉鎖等,0,2021-07-30,2021-07-21,農事組合法人アグリ中俵,,その他の設立登記法人,新潟県,新発田市,中俵４１６番地８,,15,206,9592468,,,2021-07-21,清算の結了等,,,2020-03-06,1,,,,,アグリナカタワラ,0
457,2120001100017,登記記録の閉鎖等,0,2021-07-30,2021-07-13,株式会社エヌ・ティ・ティネオメイト,,株式会社,大阪府,大阪市都島区,東野田町４丁目１５番８２号,,27,102,5340024,,,2021-07-13,合併による解散等,4120001014405,令和３年７月１日大阪市都島区東野田町四丁目１５番８２号株式会社ＮＴＴフィールドテクノ（4120001014405）に合併し解散,2015-10-05,1,,,,,エヌティティネオメイト,0
468,2120002038330,登記記録の閉鎖等,0,2021-07-30,2021-07-19,有限会社プチ・マルシエ,,有限会社,大阪府,大阪市中央区,難波千日前１２番２４号,,27,128,5420075,,,2021-07-19,清算の結了等,,,2015-10-05,1,,,,,プチマルシエ,0
502,2150005000540,登記記録の閉鎖等,0,2021-07-30,2021-07-21,医療法人あさお小児科医院,,その他の設立登記法人,奈良県,奈良市,登美ヶ丘３丁目４番１１号,,29,201,6310004,,,2021-07-21,清算の結了等,,,2015-10-05,1,,,,,アサオショウニカイイン,0
504,2180001010524,登記記録の閉鎖等,0,2021-07-30,2021-07-19,宝工業株式会社,,株式会社,愛知県,名古屋市瑞穂区,甲山町１丁目８２番地,,23,108,4670824,,,2021-07-19,清算の結了等,,,2015-10-05,1,,,,,タカラコウギョウ,0
508,2180001125925,登記記録の閉鎖等,0,2021-07-30,2021-07-15,株式会社エネテクパワープラント,,株式会社,愛知県,小牧市,大字間々２７番地１,,23,219,4850015,,,2021-07-15,合併による解散等,3180001077645,令和３年７月１５日愛知県小牧市大字間々２７番地１株式会社エネテク（3180001077645）に合併し解散,2016-12-19,1,,,,,エネテクパワープラント,0
513,2180005006287,登記記録の閉鎖等,0,2021-07-30,2021-07-26,特定非営利活動法人福祉サポートセンターさわやか名城,,その他の設立登記法人,愛知県,名古屋市北区,中切町３丁目３１番地,,23,103,4620051,,,2021-07-26,清算の結了等,,,2015-10-05,1,,,,,フクシサポートセンターサワヤカメイジョウ,0
517,2180302026310,登記記録の閉鎖等,0,2021-07-30,2021-07-26,有限会社三協金型製作所,,有限会社,愛知県,西尾市,市子町大宮東１２０番地,,23,213,4450055,,,2021-07-26,清算の結了等,,,2015-10-05,1,,,,,サンキョウカナガタセイサクショ,0
528,2220002011640,登記記録の閉鎖等,0,2021-07-30,2021-07-09,有限会社中川鉄工,,有限会社,石川県,能美市,大成町ト４３番地,,17,211,9290113,,,2021-07-09,清算の結了等,,,2015-10-05,1,,,,,ナカガワテッコウ,0
529,2220002014643,登記記録の閉鎖等,0,2021-07-30,2021-07-14,有限会社カワシリ商事,,有限会社,石川県,七尾市,大和町ヌ部１７番地の９,,17,202,9260016,,,2021-07-14,清算の結了等,,,2015-10-05,1,,,,,カワシリショウジ,0
537,2240001039482,登記記録の閉鎖等,0,2021-07-30,2021-07-09,石原建設株式会社,,株式会社,広島県,三原市,宮沖１丁目１３番１９号,,34,204,7230016,,,2021-07-09,清算の結了等,,,2015-10-05,1,,,,,イシハラケンセツ,0
562,2300005005350,登記記録の閉鎖等,0,2021-07-30,2021-07-16,谷口生産森林組合,,その他の設立登記法人,佐賀県,唐津市,浜玉町谷口８５３番地３,,41,202,8495105,,,2021-07-16,清算の結了等,,,2015-10-05,1,,,,,タニグチ,0
563,2320002012042,登記記録の閉鎖等,0,2021-07-30,2021-07-26,有限会社日栄,,有限会社,大分県,別府市,北的ケ浜町４番５号,,44,202,8740928,,,2021-07-26,清算の結了等,,,2015-10-05,1,,,,,ニチエイ,0
569,2330005002238,登記記録の閉鎖等,0,2021-07-30,2021-07-19,ＮＰＯ法人九州鳥獣保護協会,,その他の設立登記法人,熊本県,熊本市東区,尾ノ上１丁目４３番１８号,,43,102,8620913,,,2021-07-19,清算の結了等,,,2015-10-05,1,,,,,キュウシュウチョウジュウホゴキョウカイ,0
573,2340002005440,登記記録の閉鎖等,0,2021-07-30,2021-07-14,有限会社セルフイッシュ,,有限会社,鹿児島県,鹿児島市,紫原１丁目１０番２０号,,46,201,8900082,,,2021-07-14,清算の結了等,,,2015-10-05,1,,,,,セルフィッシュ,0
580,2360002009893,登記記録の閉鎖等,0,2021-07-30,2021-07-12,ＬＯＣＯ　ＢＯＵＴＩＱＵＥ　ＪＡＰＡＮ有限会社,,有限会社,東京都,墨田区,緑１丁目２４番２号ミノウラアネックスビル,,13,107,1300021,,,2021-07-12,清算の結了等,,,2015-10-05,1,,,,,ロコブティックジャパン,0
597,2390001012318,登記記録の閉鎖等,0,2021-07-30,2021-07-26,カルソニックカンセイ山形株式会社,,株式会社,山形県,寒河江市,中央工業団地１９０番地,,06,206,9910061,,,2021-07-26,合併による解散等,8030001014831,令和３年７月１日埼玉県さいたま市北区日進町二丁目１９１７番地マレリ株式会社（8030001014831）に合併し解散,2015-10-05,1,,,,,カルソニックカンセイヤマガタ,0
603,2430001034860,登記記録の閉鎖等,0,2021-07-30,2021-07-15,株式会社中村商会,,株式会社,北海道,札幌市豊平区,豊平二条５丁目１番２８号,,01,105,0620902,,,2021-07-15,清算の結了等,,,2015-10-05,1,,,,,ナカムラショウカイ,0
606,2430005006591,登記記録の閉鎖等,0,2021-07-30,2021-07-15,協同組合いわせん,,その他の設立登記法人,北海道,岩見沢市,一条西２丁目８番地,,01,210,0680021,,,2021-07-15,清算の結了等,,,2015-10-05,1,,,,,イワセン,0
607,2470002014032,登記記録の閉鎖等,0,2021-07-30,2021-07-21,有限会社ＫＳ工業,,有限会社,香川県,丸亀市,川西町北１９６０番地７,,37,202,7630091,,,2021-07-21,清算の結了等,,,2015-10-05,1,,,,,ケーエスコウギョウ,0
611,2490001008066,登記記録の閉鎖等,0,2021-07-30,2021-07-29,株式会社エヌ・エス・エナジー,,株式会社,高知県,高知市,秦南町１丁目５番４６号,,39,201,7800026,,,2021-07-29,清算の結了等,,,2015-10-05,1,,,,,エヌエスエナジー,0
632,3010005013860,登記記録の閉鎖等,0,2021-07-30,2021-07-13,特定非営利活動法人間取り研究会,,その他の設立登記法人,東京都,千代田区,飯田橋１丁目１２番１号Ｄａｉｅｉｓｈａビル,,13,101,1020072,,,2021-07-13,清算の結了等,,,2015-10-05,1,,,,,マドリケンキュウカイ,0
640,3010401116069,登記記録の閉鎖等,0,2021-07-30,2021-07-13,株式会社ルスウェイ,,株式会社,東京都,港区,芝３丁目３１番６号サンライズビル２Ｆ,,13,103,1050014,,,2021-07-13,清算の結了等,,,2015-10-05,1,,,,,ルスウェイ,0
654,3010901046328,登記記録の閉鎖等,0,2021-07-30,2021-07-20,株式会社ミッツビー,,株式会社,東京都,世田谷区,船橋１丁目２９番３号Ｂ１,,13,112,1560055,,,2021-07-20,清算の結了等,,,2020-06-04,1,,,,,ミッツビー,0
656,3010902001208,登記記録の閉鎖等,0,2021-07-30,2021-07-20,有限会社イーグルアイ,,有限会社,東京都,世田谷区,代沢３丁目２２番５号,,13,112,1550032,,,2021-07-20,清算の結了等,,,2015-10-05,1,,,,,イーグルアイ,0
668,3011101072998,登記記録の閉鎖等,0,2021-07-30,2021-07-16,ポピュラス・ジャパン株式会社,,株式会社,東京都,新宿区,西新宿１丁目２６番２号新宿野村ビル３２階,,13,104,1600023,,,2021-07-16,清算の結了等,,,2015-10-05,1,,,,,ポピュラスジャパン,0
673,3011301018314,登記記録の閉鎖等,0,2021-07-30,2021-07-15,株式会社ハウススタジオ,,株式会社,東京都,杉並区,下高井戸１丁目２４番１０号,,13,115,1680073,,,2021-07-15,清算の結了等,,,2015-10-05,1,,,,,ハウススタジオ,0
678,3011801008343,登記記録の閉鎖等,0,2021-07-30,2021-07-29,昇和道路株式会社,,株式会社,東京都,足立区,柳原１丁目３０番１２号,,13,121,1200022,,,2021-07-29,清算の結了等,,,2015-10-05,1,,,,,ショウワドウロ,0
684,3012405000629,登記記録の閉鎖等,0,2021-07-30,2021-07-26,特定非営利活動法人ハンディキャブこまえ,,その他の設立登記法人,東京都,狛江市,中和泉３丁目３６番２２号アビタシオンＩ－１０３,,13,219,2010012,,,2021-07-26,清算の結了等,,,2015-10-05,1,,,,,ハンディキャブコマエ,0
687,3012801019231,登記記録の閉鎖等,0,2021-07-30,2021-07-26,つばさマネジメント株式会社,,株式会社,東京都,立川市,曙町２丁目３８番５号,00115676,13,202,1900012,,,2021-07-26,清算の結了等,,,2019-02-05,1,,,,,ツバサマネジメント,0
703,3020002052828,登記記録の閉鎖等,0,2021-07-30,2021-07-16,有限会社光豊,,有限会社,神奈川県,横浜市神奈川区,金港町５番地の１５,,14,102,2210056,,,2021-07-16,清算の結了等,,,2015-10-05,1,,,,,コウギョウ,0
723,3040002054368,登記記録の閉鎖等,0,2021-07-30,2021-07-15,有限会社工藤設備,,有限会社,千葉県,流山市,加４丁目１５番地の５,,12,220,2700176,,,2021-07-15,清算の結了等,,,2015-10-05,1,,,,,クドウセツビ,0
745,3110002020206,登記記録の閉鎖等,0,2021-07-30,2021-07-21,有限会社飯田板金工業所,,有限会社,新潟県,柏崎市,大字両田尻２０１番地２,,15,205,9451344,,,2021-07-21,清算の結了等,,,2015-10-05,1,,,,,,0
768,3120002020840,登記記録の閉鎖等,0,2021-07-30,2021-07-20,有限会社ユーアイフードプランナー,,有限会社,大阪府,大阪市浪速区,大国２丁目７番１８号,,27,111,5560014,,,2021-07-20,清算の結了等,,,2015-10-05,1,,,,,,0
782,3130001041110,登記記録の閉鎖等,0,2021-07-30,2021-07-27,株式会社ＪＲ西日本福知山メンテック,,株式会社,京都府,福知山市,駅前町４２８番地,,26,201,6200045,,,2021-07-27,合併による解散等,2120001055731,令和３年７月１日大阪市淀川区宮原四丁目４番４４号株式会社ＪＲ西日本メンテック（2120001055731）に合併し解散,2015-10-05,1,,,,,ジェイアールニシニホンフクチヤマメンテック,0
821,3180002028151,登記記録の閉鎖等,0,2021-07-30,2021-07-16,有限会社大創,,有限会社,愛知県,名古屋市瑞穂区,弥富町字円山６６番地の５,,23,108,4670000,,,2021-07-16,清算の結了等,,,2015-10-05,1,,,,,,0
826,3180005017457,登記記録の閉鎖等,0,2021-07-30,2021-07-27,一般社団法人日本オーガニックフラワー協会,,その他の設立登記法人,愛知県,名古屋市中区,栄５丁目１２番３２号栄サンライズビル,,23,106,4600008,,,2021-07-27,清算の結了等,,,2017-09-04,1,,,,,ニホンオーガニックフラワーキョウカイ,0
830,3180302024420,登記記録の閉鎖等,0,2021-07-30,2021-07-27,有限会社フジオカ,,有限会社,愛知県,豊田市,西中山町道貝１２番地,,23,211,4700431,,,2021-07-27,清算の結了等,,,2015-10-05,1,,,,,フジオカ,0
832,3190001003187,登記記録の閉鎖等,0,2021-07-30,2021-07-26,株式会社あの津技研,,株式会社,三重県,津市,安濃町安濃２６３０番地１,,24,201,5142302,,,2021-07-26,清算の結了等,,,2015-10-05,1,,,,,アノツギケン,0
845,3230002011011,登記記録の閉鎖等,0,2021-07-30,2021-07-12,有限会社向郷,,有限会社,富山県,高岡市,二塚８６７番地,,16,202,9330816,,,2021-07-12,清算の結了等,,,2015-10-05,1,,,,,コウゴウ,0
850,3240005012303,登記記録の閉鎖等,0,2021-07-30,2021-07-12,農事組合法人楽農倶楽部小泉,,その他の設立登記法人,広島県,三原市,小泉町５５７６番地,,34,204,7292361,,,2021-07-12,清算の結了等,,,2015-10-05,1,,,,,ラクノウクラブコイズミ,0
875,3330002015670,登記記録の閉鎖等,0,2021-07-30,2021-07-19,有限会社下田電機,,有限会社,熊本県,熊本市東区,佐土原３丁目３番１１４号,,43,102,8620916,,,2021-07-19,清算の結了等,,,2015-10-05,1,,,,,シモダデンキ,0
881,3360001001826,登記記録の閉鎖等,0,2021-07-30,2021-07-08,光情報システム株式会社,,株式会社,沖縄県,那覇市,字大道７８番地４,,47,201,9020066,,,2021-07-08,清算の結了等,,,2015-10-05,1,,,,,ヒカリジョウホウシステム,0
891,3380001026672,登記記録の閉鎖等,0,2021-07-30,2021-07-20,株式会社あぶくま商会,,株式会社,福島県,郡山市,小原田３丁目８番２号,,07,203,9638835,,,2021-07-20,清算の結了等,,,2016-04-04,1,,,,,アブクマショウカイ,0
907,3470002019071,登記記録の閉鎖等,0,2021-07-30,2021-07-27,有限会社美麵本舗,00005551,有限会社,香川県,小豆郡小豆島町,池田３９３６番地,,37,324,7614301,,,2021-07-27,清算の結了等,,,2015-10-05,1,,,,,ウマメンホンポ,0
930,4010003033736,登記記録の閉鎖等,0,2021-07-30,2021-07-12,エピソード合同会社,,合同会社,東京都,千代田区,六番町１５番２号,,13,101,1020085,,,2021-07-12,清算の結了等,,,2020-12-16,1,,,,,エピソード,0
934,4010105000337,登記記録の閉鎖等,0,2021-07-30,2021-07-26,八王子管工事工業協同組合,,その他の設立登記法人,東京都,八王子市,東浅川町５１６番９,,13,201,1930834,,,2021-07-26,清算の結了等,,,2015-10-05,1,,,,,ハチオウジカンコウジコウギョウ,0
937,4010401116729,登記記録の閉鎖等,0,2021-07-30,2021-07-20,株式会社ステラ・ポラーレ,,株式会社,東京都,中央区,銀座７丁目８番８号,,13,102,1040061,,,2021-07-20,清算の結了等,,,2015-10-05,1,,,,,ステラポラーレ,0
940,4010401155025,商号の登記の抹消,0,2021-07-30,2021-07-14,ＩＢＩＳ　Ｄａｔａ株式会社,,株式会社,東京都,港区,六本木６丁目１０番１号六本木ヒルズ森タワー,,13,103,1060032,,,,,,,2020-09-07,0,,,,,アイビスデータ,0
950,4010501025202,登記記録の閉鎖等,0,2021-07-30,2021-07-16,株式会社アキラ,,株式会社,東京都,台東区,花川戸１丁目１１番４号,,13,106,1110033,,,2021-07-16,清算の結了等,,,2015-10-05,1,,,,,,0
957,4010901007221,登記記録の閉鎖等,0,2021-07-30,2021-07-19,株式会社ダンススクール・オクムラ,,株式会社,東京都,世田谷区,玉川２丁目２４番７号萩原第２ビル７階,,13,112,1580094,,,2021-07-19,清算の結了等,,,2015-10-05,1,,,,,ダンススクールオクムラ,0
974,4011301008578,登記記録の閉鎖等,0,2021-07-30,2021-07-26,株式会社シニアサービス,,株式会社,東京都,杉並区,上高井戸２丁目１９番１４号,,13,115,1680074,,,2021-07-26,清算の結了等,,,2015-10-05,1,,,,,シニアサービス,0
985,4011802014744,登記記録の閉鎖等,0,2021-07-30,2021-07-21,有限会社千住技研,,有限会社,東京都,足立区,千住緑町３丁目１７番７号,,13,121,1200044,,,2021-07-21,清算の結了等,,,2015-10-05,1,,,,,,0
1013,4021002004033,登記記録の閉鎖等,0,2021-07-30,2021-07-19,有限会社原田スクリーン,,有限会社,茨城県,鉾田市,上幡木１２２２番地３,,08,234,3112113,,,2021-07-19,清算の結了等,,,2015-10-05,1,,,,,ハラダスクリーン,0
1030,4030003006483,登記記録の閉鎖等,0,2021-07-30,2021-07-14,合同会社テクノ・トラスト,,合同会社,埼玉県,越谷市,東越谷８丁目１２番地３,,11,222,3430023,,,2021-07-14,清算の結了等,,,2015-10-05,1,,,,,テクノトラスト,0
1041,4040001059417,登記記録の閉鎖等,0,2021-07-30,2021-07-19,株式会社エイト,,株式会社,千葉県,茂原市,町保１２番地,,12,210,2970022,,,2021-07-19,清算の結了等,,,2015-10-05,1,,,,,エイト,0
1045,4040005020473,登記記録の閉鎖等,0,2021-07-30,2021-07-15,一般社団法人レフォーマ,,その他の設立登記法人,千葉県,市川市,大野町４丁目３１５９番地４,,12,203,2720805,,,2021-07-15,清算の結了等,,,2019-07-25,1,,,,,レフォーマ,0
1051,4050002006400,登記記録の閉鎖等,0,2021-07-30,2021-07-21,有限会社アイ・シー・エフ,,有限会社,茨城県,水戸市,千波町２３５０番地の３７,,08,201,3100851,,,2021-07-21,清算の結了等,,,2015-10-05,1,,,,,アイシーエフ,0
1150,4210001008414,登記記録の閉鎖等,0,2021-07-30,2021-07-26,株式会社ＡＰＯＬＬＯｓｙｓｔｅｍ,,株式会社,福井県,福井市,西学園３丁目５１０番地,,18,201,9188064,,,2021-07-26,清算の結了等,,,2015-10-05,1,,,,,アポロシステム,0
1172,4280001005578,登記記録の閉鎖等,0,2021-07-30,2021-07-28,雲南工業株式会社,,株式会社,島根県,雲南市,加茂町南加茂５５０番地１,,32,209,6991104,,,2021-07-28,清算の結了等,,,2015-10-05,1,,,,,ウンナンコウギョウ,0
1183,4300001007480,登記記録の閉鎖等,0,2021-07-30,2021-07-14,株式会社エルプローゼ,,株式会社,佐賀県,唐津市,石志３２９５番地１,,41,202,8470832,,,2021-07-14,合併による解散等,6300001007132,令和３年７月１日佐賀県唐津市石志３２９５番地１株式会社エルアン（6300001007132）に合併し解散,2015-10-05,1,,,,,エルプローゼ,0
1194,4340002015561,登記記録の閉鎖等,0,2021-07-30,2021-07-15,イネイト有限会社,,有限会社,鹿児島県,姶良市,平松６２６６番地５,,46,225,8995652,,,2021-07-15,清算の結了等,,,2015-10-05,1,,,,,イネイト,0
1214,4410005005395,登記記録の閉鎖等,0,2021-07-30,2021-07-13,特定非営利活動法人能代松林保全研究会,,その他の設立登記法人,秋田県,能代市,向能代字上野２１４番地,,05,202,0160013,,,2021-07-13,清算の結了等,,,2015-10-05,1,,,,,ノシロマツバヤシホゼンケンキュウカイ,0
1224,4450001003234,登記記録の閉鎖等,0,2021-07-30,2021-07-30,株式会社八百豊小林商店,,株式会社,北海道,旭川市,五条通７丁目右６号,,01,204,0700035,,,2021-07-30,清算の結了等,,,2015-10-05,1,,,,,ヤオトヨコバヤシショウテン,0
1233,4480002001333,登記記録の閉鎖等,0,2021-07-30,2021-07-26,有限会社ケイエンジ,,有限会社,徳島県,徳島市,八多町金堂８２番地,,36,201,7714266,,,2021-07-26,清算の結了等,,,2015-10-05,1,,,,,ケイエンジ,0
1237,4500002001124,登記記録の閉鎖等,0,2021-07-30,2021-07-26,有限会社岩本電設,,有限会社,愛媛県,西予市,野村町舟戸２６９７番地,,38,214,7971431,,,2021-07-26,清算の結了等,,,2015-10-05,1,,,,,イワモトデンセツ,0
1247,5010001152512,登記記録の閉鎖等,0,2021-07-30,2021-07-20,国際興業マネジメント株式会社,,株式会社,東京都,中央区,八重洲２丁目１０番３号,,13,102,1040028,,,2021-07-20,清算の結了等,,,2015-10-05,1,,,,,コクサイコウギョウマネジメント,0
1254,5010002000298,登記記録の閉鎖等,0,2021-07-30,2021-07-20,有限会社足立屋金物店,,有限会社,東京都,文京区,大塚５丁目６番１６号,,13,105,1120012,,,2021-07-20,清算の結了等,,,2015-10-05,1,,,,,アダチヤカナモノテン,0
1298,5011105007577,登記記録の閉鎖等,0,2021-07-30,2021-07-19,一般社団法人桐華流日本きもの指導者協会,,その他の設立登記法人,東京都,中野区,弥生町５丁目６番１１号ヴォーグビル内,,13,114,1640013,,,2021-07-19,清算の結了等,,,2017-01-25,1,,,,,トウカリュウニホンキモノシドウシャキョウカイ,0
1304,5011301018262,登記記録の閉鎖等,0,2021-07-30,2021-07-21,株式会社ラビッツ,,株式会社,東京都,杉並区,阿佐谷南２丁目２１番１０号ＴＲＲＡ２０２,,13,115,1660004,,,2021-07-21,清算の結了等,,,2015-10-05,1,,,,,ラビッツ,0
1314,5011502001728,登記記録の閉鎖等,0,2021-07-30,2021-07-26,有限会社喜屋,,有限会社,東京都,北区,赤羽１丁目１９番３号,,13,117,1150045,,,2021-07-26,清算の結了等,,,2015-10-05,1,,,,,キヤ,0
1317,5011805002497,登記記録の閉鎖等,0,2021-07-30,2021-07-27,一般財団法人長尾,,その他の設立登記法人,東京都,葛飾区,新小岩２丁目９番１４号,,13,122,1240024,,,2021-07-27,清算の結了等,,,2015-10-05,1,,,,,ナガオ,0
1321,5012802003843,登記記録の閉鎖等,0,2021-07-30,2021-07-21,有限会社宮腰呉服洋品店,,有限会社,東京都,昭島市,玉川町４丁目１番３号,,13,207,1960034,,,2021-07-21,清算の結了等,,,2015-10-05,1,,,,,ミヤコシゴフクヨウヒンテン,0
1334,5020001048172,登記記録の閉鎖等,0,2021-07-30,2021-07-16,株式会社ＢＢ５コーポレーシヨン,,株式会社,神奈川県,横浜市西区,岡野１丁目５－３サンワビル２Ｆ,,14,103,2200073,,,2021-07-16,清算の結了等,,,2015-10-05,1,,,,,ビービーファイブコーポレーシヨン,0
1369,5030005002298,登記記録の閉鎖等,0,2021-07-30,2021-07-16,ケイアイディ協同組合,,その他の設立登記法人,埼玉県,さいたま市見沼区,片柳１丁目１１６番地,,11,104,3370024,,,2021-07-16,清算の結了等,,,2015-10-05,1,,,,,ケイアイディ,0
1370,5040001004396,登記記録の閉鎖等,0,2021-07-30,2021-07-20,株式会社田谷,,株式会社,千葉県,千葉市美浜区,高浜２丁目２番１号,,12,106,2610003,,,2021-07-20,清算の結了等,,,2015-10-05,1,,,,,タヤ,0
1401,5120001076923,登記記録の閉鎖等,0,2021-07-30,2021-07-15,加藤株式会社,,株式会社,大阪府,大阪市中央区,（大阪市南区上汐二丁目６番３号）,,27,128,5390000,,,2021-07-15,清算の結了等,,,2015-10-05,1,,,,,カトウ,1
1427,5130001048351,登記記録の閉鎖等,0,2021-07-30,2021-07-26,株式会社アイティアイ,,株式会社,京都府,宇治市,神明石塚３９番地の７４,,26,204,6110025,,,2021-07-26,清算の結了等,,,2015-10-05,1,,,,,,0
1443,5170001007634,登記記録の閉鎖等,0,2021-07-30,2021-07-28,株式会社ささき居宅介護,,株式会社,和歌山県,有田郡有田川町,大字熊井６８９番地８１,,30,366,6430023,,,2021-07-28,清算の結了等,,,2015-10-05,1,,,,,ササキキョタクカイゴ,0
1456,5180002075761,登記記録の閉鎖等,0,2021-07-30,2021-07-21,有限会社井上プレス,,有限会社,愛知県,一宮市,三ツ井８丁目１１番５号,,23,203,4910827,,,2021-07-21,清算の結了等,,,2015-10-05,1,,,,,,0
1461,5180301024857,登記記録の閉鎖等,0,2021-07-30,2021-07-29,アリオ建装株式会社,,株式会社,愛知県,豊橋市,野依台１丁目３６番地の１６,,23,201,4418125,,,2021-07-29,清算の結了等,,,2015-10-05,1,,,,,アリオケンソウ,0
1463,5180302006482,登記記録の閉鎖等,0,2021-07-30,2021-07-28,有限会社今泉工業所,,有限会社,愛知県,豊橋市,馬見塚町７６番地の２,,23,201,4418007,,,2021-07-28,清算の結了等,,,2015-10-05,1,,,,,イマイズミコウギョウショ,0
1464,5180302020657,登記記録の閉鎖等,0,2021-07-30,2021-07-27,株式会社紫峰,,株式会社,愛知県,高浜市,屋敷町１丁目５番地１４,,23,227,4441331,,,2021-07-27,合併による解散等,4180301015709,令和３年７月２７日愛知県高浜市屋敷町一丁目５番地１４株式会社吉浜人形（4180301015709）に合併し解散,2015-10-05,1,,,,,シホウ,0
1465,5180302022117,登記記録の閉鎖等,0,2021-07-30,2021-07-29,有限会社サカエサッシ,,有限会社,愛知県,豊田市,栄町１丁目２２番地５,,23,211,4710066,,,2021-07-29,清算の結了等,,,2015-10-05,1,,,,,サカエサッシ,0
1473,5200003003603,登記記録の閉鎖等,0,2021-07-30,2021-07-28,ハーネス合同会社,,合同会社,岐阜県,岐阜市,中西郷１丁目３７番地,,21,201,5011177,,,2021-07-28,清算の結了等,,,2015-10-05,1,,,,,ハーネス,0
1475,5220001007901,登記記録の閉鎖等,0,2021-07-30,2021-07-19,株式会社アペゼ,,株式会社,石川県,金沢市,本町２丁目１５番１号ポルテ金沢１２階,,17,201,9200853,,,2021-07-19,清算の結了等,,,2015-10-05,1,,,,,アペゼ,0
1489,5240002029827,登記記録の閉鎖等,0,2021-07-30,2021-07-13,有限会社吉村石材店,,有限会社,広島県,山県郡安芸太田町,大字津浪字浅瀬１１番地の１,,34,368,7313502,,,2021-07-13,清算の結了等,,,2015-10-05,1,,,,,ヨシムラセキザイテン,0
1492,5250001008277,登記記録の閉鎖等,0,2021-07-30,2021-07-26,小崎酒造株式会社,,株式会社,山口県,長門市,東深川１１５９番地,,35,211,7594101,,,2021-07-26,清算の結了等,,,2015-10-05,1,,,,,コサキシュゾウ,0
1493,5250002006668,登記記録の閉鎖等,0,2021-07-30,2021-07-28,有限会社河村住研,,有限会社,山口県,宇部市,大字西岐波４４１３番地の１,,35,202,7550151,,,2021-07-28,清算の結了等,,,2015-10-05,1,,,,,カワムラジュウケン,0
1515,5330002027482,登記記録の閉鎖等,0,2021-07-30,2021-07-15,有限会社アマミ測量設計社,,有限会社,熊本県,葦北郡芦北町,大字女島２０２７番地,,43,482,8695564,,,2021-07-15,清算の結了等,,,2015-10-05,1,,,,,アマミソクリョウセッケイシャ,0
1556,5470002018096,登記記録の閉鎖等,0,2021-07-30,2021-07-27,有限会社香川視聴覚志度,,有限会社,香川県,さぬき市,志度５００６番地３００,,37,206,7692101,,,2021-07-27,清算の結了等,,,2015-10-05,1,,,,,カガワシチョウカクシド,0
1563,6010001077320,登記記録の閉鎖等,0,2021-07-30,2021-07-12,株式会社セントヒルズ,,株式会社,東京都,文京区,湯島２丁目１番１９号,,13,105,1130034,,,2021-07-12,清算の結了等,,,2015-10-05,1,,,,,セントヒルズ,0
1572,6010003026093,登記記録の閉鎖等,0,2021-07-30,2021-07-14,Ａ３ＪＰ堂島浜ＭＬ合同会社,,合同会社,東京都,港区,赤坂２丁目１５番１６号赤坂ふく源ビル４階,,13,103,1070052,,,2021-07-14,清算の結了等,,,2017-09-15,1,,,,,エースリージェイピードウジマハマエムエル,0
1573,6010003026655,登記記録の閉鎖等,0,2021-07-30,2021-07-19,モノジャーナル合同会社,,合同会社,東京都,中央区,日本橋兜町１７番２号兜町第６葉山ビル４階,,13,102,1030026,,,2021-07-19,清算の結了等,,,2017-12-22,1,,,,,モノジャーナル,0
1577,6010101008679,登記記録の閉鎖等,0,2021-07-30,2021-07-26,株式会社ホットリビング,,株式会社,東京都,八王子市,小宮町８４５番地８,,13,201,1920031,,,2021-07-26,清算の結了等,,,2015-10-05,1,,,,,,0
1602,6010901046548,登記記録の閉鎖等,0,2021-07-30,2021-07-19,株式会社鳥福,,株式会社,東京都,世田谷区,世田谷３丁目１０番１２号,,13,112,1540017,,,2021-07-19,清算の結了等,,,2020-07-08,1,,,,,トリフク,0
1610,6011101011210,登記記録の閉鎖等,0,2021-07-30,2021-07-21,株式会社セントラルエージエンシー,,株式会社,東京都,新宿区,西新宿４丁目３４番７号,,13,104,1600023,,,2021-07-21,合併による解散等,6011001009718,令和３年７月１日東京都渋谷区代々木二丁目２番２号株式会社ＪＲ東日本商事（6011001009718）に合併し解散,2015-10-05,1,,,,,セントラルエージェンシー,0
1627,6011702012144,登記記録の閉鎖等,0,2021-07-30,2021-07-26,有限会社勇電社,,有限会社,東京都,江戸川区,松島１丁目１４番７号,,13,123,1320031,,,2021-07-26,清算の結了等,,,2015-10-05,1,,,,,ユウデンシャ,0
1630,6011801005981,登記記録の閉鎖等,0,2021-07-30,2021-07-29,株式会社イディアー,,株式会社,東京都,足立区,柳原２丁目２０番１７号,,13,121,1200022,,,2021-07-29,清算の結了等,,,2015-10-05,1,,,,,イディアー,0
1634,6012402011196,登記記録の閉鎖等,0,2021-07-30,2021-07-26,有限会社サンテック,,有限会社,東京都,調布市,深大寺東町６丁目１４番地８,,13,208,1820012,,,2021-07-26,清算の結了等,,,2015-10-05,1,,,,,サンテック,0
1660,6030002054085,登記記録の閉鎖等,0,2021-07-30,2021-07-15,有限会社新和サービス,,有限会社,埼玉県,上尾市,小泉１丁目１４番地１６,,11,219,3620063,,,2021-07-15,清算の結了等,,,2015-10-05,1,,,,,シンワサービス,0
1674,6050001034929,登記記録の閉鎖等,0,2021-07-30,2021-07-19,株式会社ＫＤ常陸乃郷ソーラー発電所,,株式会社,茨城県,常陸太田市,芦間町１０９１番地,00120239,08,212,3130121,,,2021-07-19,清算の結了等,,,2015-10-05,1,,,,,ケーディーヒタチノサトソーラーハツデンショ,0
1680,6060002039496,登記記録の閉鎖等,0,2021-07-30,2021-07-15,有限会社丸石,,有限会社,栃木県,佐野市,小中町９９５番地,,09,204,3270001,,,2021-07-15,清算の結了等,,,2015-10-05,1,,,,,マルイシ,0
1686,6080005006582,登記記録の閉鎖等,0,2021-07-30,2021-07-28,特定非営利活動法人セラピードッグサポートセンター,,その他の設立登記法人,静岡県,静岡市清水区,江尻台町２２－３４,,22,103,4240044,,,2021-07-28,清算の結了等,,,2015-10-05,1,,,,,セラピードッグサポートセンター,0
1697,6110002023115,登記記録の閉鎖等,0,2021-07-30,2021-07-21,有限会社土田電工,,有限会社,新潟県,上越市,稲田４丁目１番３２号,,15,222,9430154,,,2021-07-21,清算の結了等,,,2015-10-05,1,,,,,ツチダデンコウ,0
1724,6120102017866,登記記録の閉鎖等,0,2021-07-30,2021-07-26,有限会社イーストウッド,,有限会社,大阪府,羽曳野市,高鷲１０丁目１８番１１号,,27,222,5830882,,,2021-07-26,清算の結了等,,,2015-10-05,1,,,,,イーストウッド,0
1728,6120901021184,登記記録の閉鎖等,0,2021-07-30,2021-07-27,株式会社星野石油,,株式会社,大阪府,豊能郡豊能町,光風台２丁目１７番地の６,,27,321,5630104,,,2021-07-27,清算の結了等,,,2015-10-05,1,,,,,ホシノセキユ,0
1745,6140001060569,登記記録の閉鎖等,0,2021-07-30,2021-07-21,日産チエリー姫路東販売株式会社,,株式会社,兵庫県,姫路市,飾東町豊国３６番地の１,,28,201,6710219,,,2021-07-21,清算の結了等,,,2015-10-05,1,,,,,ニッサンチェリーヒメジヒガシハンバイ,0
1752,6140002047144,登記記録の閉鎖等,0,2021-07-30,2021-07-21,有限会社アークス,,有限会社,兵庫県,姫路市,勝原区朝日谷２９８番地の２,,28,201,6711204,,,2021-07-21,清算の結了等,,,2015-10-05,1,,,,,アークス,0
1758,6180001028967,登記記録の閉鎖等,0,2021-07-30,2021-07-19,株式会社明成建設,,株式会社,愛知県,名古屋市緑区,南大高１丁目６０２番地,,23,114,4598016,,,2021-07-19,清算の結了等,,,2015-10-05,1,,,,,メイセイケンセツ,0
1760,6180001085265,登記記録の閉鎖等,0,2021-07-30,2021-07-21,フェアープラン株式会社,,株式会社,愛知県,一宮市,西島町５丁目１１番地３モアグレース西島５－Ａ号,,23,203,4910062,,,2021-07-21,合併による解散等,6180001129352,令和３年７月２１日愛知県一宮市西島町五丁目１１番地３モアグレース西島５－Ａ号Ａ－ｃｏｎｎｅｃｔｉｏｎ株式会社（6180001129352）に合併し解散,2015-10-05,1,,,,,フェアープラン,0
1775,6190005009327,登記記録の閉鎖等,0,2021-07-30,2021-07-27,特定非営利活動法人あーす,,その他の設立登記法人,三重県,四日市市,寺方町９０６番地,,24,202,5120924,,,2021-07-27,清算の結了等,,,2015-10-05,1,,,,,アース,0
1779,6210001004171,登記記録の閉鎖等,0,2021-07-30,2021-07-27,株式会社山忠商店,,株式会社,福井県,福井市,問屋町４丁目５０２番地,,18,201,9188231,,,2021-07-27,清算の結了等,,,2015-10-05,1,,,,,ヤマチュウショウテン,0
1784,6220003002387,登記記録の閉鎖等,0,2021-07-30,2021-07-19,ぽぷらのもり合同会社,,合同会社,石川県,金沢市,田上本町３丁目８０番地１,,17,201,9201155,,,2021-07-19,清算の結了等,,,2018-02-02,1,,,,,ポプラノモリ,0
1788,6240001033671,登記記録の閉鎖等,0,2021-07-30,2021-07-14,株式会社ジェイアイディ,,株式会社,広島県,福山市,新市町大字戸手２５０番地の２,,34,207,7293101,,,2021-07-14,合併による解散等,1240001033610,令和３年７月１日広島県福山市新市町大字戸手１６番地の２株式会社自重堂（1240001033610）に合併し解散,2015-10-05,1,,,,,ジェイアイディ,0
1793,6240005013249,登記記録の閉鎖等,0,2021-07-30,2021-07-13,一般社団法人サステナブル地域づくりセンター・ＨＩＲＯＳＨＩＭＡ,,その他の設立登記法人,広島県,東広島市,西条朝日町６番５１号,,34,212,7390012,,,2021-07-13,清算の結了等,,,2015-10-05,1,,,,,サステナブルチイキヅクリセンターヒロシマ,0
1799,6280001002929,登記記録の閉鎖等,0,2021-07-30,2021-07-29,株式会社フォワード,,株式会社,島根県,松江市,東津田町１３３５番地６,,32,201,6900011,,,2021-07-29,清算の結了等,,,2015-10-05,1,,,,,フォワード,0
1802,6290001038724,登記記録の閉鎖等,0,2021-07-30,2021-07-07,株式会社あすなろ総合バス,,株式会社,福岡県,福岡市南区,若久３丁目３３番２２号,,40,134,8150042,,,2021-07-07,清算の結了等,,,2015-10-05,1,,,,,アスナロソウゴウバス,0
1805,6290001086327,登記記録の閉鎖等,0,2021-07-30,2021-07-07,株式会社Ｏｎｇａｍｅ,,株式会社,福岡県,福岡市中央区,大名２丁目６－１１ＦｕｋｕｏｋａＧｒｏｗｔｈＮｅｘｔ３１３,,40,133,8100041,,,2021-07-07,清算の結了等,,,2019-09-03,1,,,,,オンゲーム,0
1828,6340002016681,登記記録の閉鎖等,0,2021-07-30,2021-07-15,有限会社システム・クリエイト,,有限会社,鹿児島県,薩摩川内市,宮崎町１９１９番地３,,46,215,8950013,,,2021-07-15,清算の結了等,,,2015-10-05,1,,,,,システムクリエイト,0
1845,6400602001399,登記記録の閉鎖等,0,2021-07-30,2021-07-20,有限会社システムタイムサービス,,有限会社,岩手県,奥州市,衣川天田８１番地,,03,215,0294315,,,2021-07-20,清算の結了等,,,2015-10-05,1,,,,,システムタイムサービス,0
1856,6450001007019,登記記録の閉鎖等,0,2021-07-30,2021-07-29,株式会社松山温泉,,株式会社,北海道,上川郡東川町,松山温泉,,01,458,0711473,,,2021-07-29,清算の結了等,,,2015-10-05,1,,,,,マツヤマオンセン,0
1862,6470002001092,登記記録の閉鎖等,0,2021-07-30,2021-07-27,有限会社上田商店,,有限会社,香川県,高松市,木太町５０５６番地３,,37,201,7600080,,,2021-07-27,清算の結了等,,,2015-10-05,1,,,,,ウエタショウテン,0
1910,7010902018982,登記記録の閉鎖等,0,2021-07-30,2021-07-19,株式会社エムティーエンジニアリング,,株式会社,東京都,世田谷区,池尻４丁目２７番３２－２０３号,,13,112,1540001,,,2021-07-19,清算の結了等,,,2015-10-05,1,,,,,エムティーエンジニアリング,0
1927,7011301024119,登記記録の閉鎖等,0,2021-07-30,2021-07-26,株式会社クローバーコールセンター,,株式会社,東京都,調布市,仙川町１丁目１２番地４３,,13,208,1820002,,,2021-07-26,清算の結了等,,,2018-05-09,1,,,,,クローバーコールセンター,0
1954,7020001071949,登記記録の閉鎖等,0,2021-07-30,2021-07-16,岩本東鶴株式会社,,株式会社,神奈川県,川崎市川崎区,小川町１４番地２５,,14,131,2100023,,,2021-07-16,合併による解散等,9020001020813,令和３年７月１日横浜市港北区綱島西二丁目２番２０号大源株式会社（9020001020813）に合併し解散,2015-10-05,1,,,,,,0
1970,7021002029779,登記記録の閉鎖等,0,2021-07-30,2021-07-19,有限会社屋比久通信,,有限会社,神奈川県,相模原市緑区,若葉台６丁目２番地８,,14,151,2520112,,,2021-07-19,清算の結了等,,,2015-10-05,1,,,,,ヤビクツウシン,0
1971,7021002030720,登記記録の閉鎖等,0,2021-07-30,2021-07-19,有限会社飯田食品,,有限会社,神奈川県,厚木市,厚木町５番１号,,14,212,2430011,,,2021-07-19,清算の結了等,,,2015-10-05,1,,,,,イイダショクヒン,0
1998,7080002018167,登記記録の閉鎖等,0,2021-07-30,2021-07-28,岡部食品有限会社,,有限会社,静岡県,藤枝市,岡部町岡部６９０番地の２,,22,214,4211121,,,2021-07-28,清算の結了等,,,2015-10-05,1,,,,,オカベショクヒン,0
2005,7090001000166,登記記録の閉鎖等,0,2021-07-30,2021-07-26,石山冷菓株式会社,,株式会社,山梨県,甲府市,中小河原１丁目５番２４号,,19,201,4000855,,,2021-07-26,清算の結了等,,,2015-10-05,1,,,,,イシヤマレイカ,0
2006,7090001005768,登記記録の閉鎖等,0,2021-07-30,2021-07-26,株式会社エム・エス・ティー,,株式会社,山梨県,甲府市,東光寺町２０５２番地７,,19,201,4000808,,,2021-07-26,清算の結了等,,,2015-10-05,1,,,,,エムエスティー,0
2031,7120001204390,登記記録の閉鎖等,0,2021-07-30,2021-07-19,株式会社岩山工業,,株式会社,大阪府,大阪市住之江区,東加賀屋４丁目７番２４号,,27,125,5590012,,,2021-07-19,清算の結了等,,,2017-03-15,1,,,,,,0
2066,7140001084039,登記記録の閉鎖等,0,2021-07-30,2021-07-21,株式会社トラストパーソンズ,,株式会社,兵庫県,宝塚市,中山寺１丁目１番１９号,,28,214,6650861,,,2021-07-21,清算の結了等,,,2015-10-05,1,,,,,トラストパーソンズ,0
2086,7180001066999,登記記録の閉鎖等,0,2021-07-30,2021-07-26,株式会社シーアンドエス,,株式会社,愛知県,日進市,岩崎町竹ノ山１４９番地の３３５,,23,230,4700131,,,2021-07-26,清算の結了等,,,2015-10-05,1,,,,,シーアンドエス,0
2092,7180001127256,登記記録の閉鎖等,0,2021-07-30,2021-07-16,アイプロキュア株式会社,,株式会社,愛知県,名古屋市中区,栄３丁目１５番３３号栄ガスビル１３階,,23,106,4600008,,,2021-07-16,清算の結了等,,,2017-04-12,1,,,,,アイプロキュア,0
2102,7180302006555,登記記録の閉鎖等,0,2021-07-30,2021-07-27,有限会社うえむらかんばん,,有限会社,愛知県,豊橋市,岩屋町字岩屋下１番地の１２,,23,201,4400842,,,2021-07-27,清算の結了等,,,2015-10-05,1,,,,,ウエムラカンバン,0
2120,7250001008408,登記記録の閉鎖等,0,2021-07-30,2021-07-28,株式会社十八番,,株式会社,山口県,萩市,大字古萩町９１番地の２,,35,204,7580026,,,2021-07-28,清算の結了等,,,2015-10-05,1,,,,,ジュウハチバン,0
2144,7340001015205,登記記録の閉鎖等,0,2021-07-30,2021-07-15,株式会社高吉組,,株式会社,鹿児島県,志布志市,志布志町志布志３丁目２０番１号,,46,221,8997103,,,2021-07-15,清算の結了等,,,2015-10-05,1,,,,,タカヨシグミ,0
2147,7340005008808,登記記録の閉鎖等,0,2021-07-30,2021-07-15,特定非営利活動法人終の棲家ネットワーク,,その他の設立登記法人,鹿児島県,鹿児島市,新屋敷町１６番公社ビルＢ４５号,,46,201,8920838,,,2021-07-15,清算の結了等,,,2018-01-05,1,,,,,ツイノスミカネットワーク,0
2155,7380001003536,登記記録の閉鎖等,0,2021-07-30,2021-07-20,ＦＡシンカテクノロジー株式会社,,株式会社,福島県,福島市,渡利字岩崎町１０２番地の７,,07,201,9608141,,,2021-07-20,合併による解散等,5010001213223,令和３年７月１日東京都中央区日本橋人形町一丁目１２番１１－２００８号ＦＡシンカテクノロジー株式会社（5010001213223）に合併し解散,2015-10-05,1,,,,,エフエーシンカテクノロジー,0
2166,7410002003713,登記記録の閉鎖等,0,2021-07-30,2021-07-21,有限会社元木鈑金,,有限会社,秋田県,秋田市,川尻大川町９番４８号,,05,201,0100942,,,2021-07-21,清算の結了等,,,2015-10-05,1,,,,,モトキバンキン,0
2181,8010001002053,登記記録の閉鎖等,0,2021-07-30,2021-07-12,株式会社銀冬社,,株式会社,東京都,文京区,本駒込２丁目１９番４号,,13,105,1130021,,,2021-07-12,清算の結了等,,,2015-10-05,1,,,,,ギントウシャ,0
2251,8013202003968,登記記録の閉鎖等,0,2021-07-30,2021-07-16,高橋住建有限会社,00053526,有限会社,神奈川県,川崎市宮前区,西野川１丁目３０番９号,,14,136,2160044,,,2021-07-16,清算の結了等,,,2015-10-05,1,,,,,タカハシジュウケン,0
2257,8020002016266,登記記録の閉鎖等,0,2021-07-30,2021-07-19,追分運送有限会社,,有限会社,神奈川県,横浜市西区,中央２丁目３７番３号,,14,103,2200051,,,2021-07-19,清算の結了等,,,2015-10-05,1,,,,,オイワケウンソウ,0
2258,8020002057467,登記記録の閉鎖等,0,2021-07-30,2021-07-16,有限会社キューベル,,有限会社,神奈川県,横浜市保土ケ谷区,釜台町２４番１８号,,14,106,2400066,,,2021-07-16,清算の結了等,,,2015-10-05,1,,,,,キューベル,0
2267,8030001049968,登記記録の閉鎖等,0,2021-07-30,2021-07-15,日新不動産株式会社,,株式会社,埼玉県,所沢市,大字北秋津７３９番地の５６チャールストンハウス１０２,,11,208,3590038,,,2021-07-15,清算の結了等,,,2015-10-05,1,,,,,ニッシンフドウサン,0
2313,8120001189912,登記記録の閉鎖等,0,2021-07-30,2021-07-19,株式会社潮マリン,,株式会社,大阪府,大阪市西成区,潮路１丁目８番３６号,,27,122,5570052,,,2021-07-19,清算の結了等,,,2015-10-05,1,,,,,ウシオマリン,0
2315,8120001222978,登記記録の閉鎖等,0,2021-07-30,2021-07-20,株式会社ＬＯＷＥＣＯ,,株式会社,大阪府,大阪市西成区,南津守７丁目１３番４号,,27,122,5570063,,,2021-07-20,清算の結了等,,,2019-08-06,1,,,,,ロエコ,0
2337,8140002036509,登記記録の閉鎖等,0,2021-07-30,2021-07-21,有限会社藤池左官工業,,有限会社,兵庫県,加古川市,志方町廣尾６１０番地の１,,28,210,6750312,,,2021-07-21,清算の結了等,,,2015-10-05,1,,,,,フジイケサカンコウギョウ,0
2345,8180001144647,登記記録の閉鎖等,0,2021-07-30,2021-07-21,エッドラビー株式会社,,株式会社,愛知県,名古屋市中区,栄５丁目２６番３９号ＧＳ栄ビル３Ｆ,,23,106,4600008,,,2021-07-21,清算の結了等,,,2021-02-05,1,,,,,エッドラビー,0
2355,8180302016157,登記記録の閉鎖等,0,2021-07-30,2021-07-28,有限会社四ッ葉開発,,有限会社,愛知県,豊川市,谷川町洞１３１番地,,23,207,4420807,,,2021-07-28,清算の結了等,,,2015-10-05,1,,,,,ヨツバカイハツ,0
2372,8260001018248,登記記録の閉鎖等,0,2021-07-30,2021-07-14,ＥＣＩ株式会社,,株式会社,東京都,港区,浜松町２丁目２番１５号,,13,103,1050013,,,2021-07-14,清算の結了等,,,2015-10-05,1,,,,,イーシーアイ,0
2409,8410001005123,登記記録の閉鎖等,0,2021-07-30,2021-07-19,金浦醸造株式会社,,株式会社,秋田県,にかほ市,金浦字堀切５１番地の１,,05,214,0180311,,,2021-07-19,清算の結了等,,,2015-10-05,1,,,,,コノウラジョウゾウ,0
2412,8420002012662,登記記録の閉鎖等,0,2021-07-30,2021-07-15,有限会社森山荘,,有限会社,青森県,西津軽郡深浦町,大字松神字下浜松１番地１,,02,323,0382206,,,2021-07-15,清算の結了等,,,2015-10-05,1,,,,,,0
2423,8450002010085,登記記録の閉鎖等,0,2021-07-30,2021-07-28,有限会社齊藤産業,,有限会社,北海道,中川郡美深町,字西一条北３丁目１４番地,,01,469,0982251,,,2021-07-28,清算の結了等,,,2015-10-05,1,,,,,サイトウサンギョウ,0
2498,9012802005852,登記記録の閉鎖等,0,2021-07-30,2021-07-27,有限会社タイセイ建機,,有限会社,東京都,東大和市,湖畔２丁目１０７４番地の７８,,13,220,2070002,,,2021-07-27,清算の結了等,,,2015-10-05,1,,,,,,0
2504,9020001054233,登記記録の閉鎖等,0,2021-07-30,2021-07-19,誓昊株式会社,,株式会社,神奈川県,横浜市戸塚区,下倉田町１４９１番５号,,14,110,2440815,,,2021-07-19,清算の結了等,,,2015-10-05,1,,,,,セイコウ,0
2512,9020002030514,登記記録の閉鎖等,0,2021-07-30,2021-07-19,有限会社きょうび,,有限会社,神奈川県,横浜市南区,大岡２丁目７番１８号,,14,105,2320061,,,2021-07-19,清算の結了等,,,2015-10-05,1,,,,,キョウビ,0
2523,9030002026131,登記記録の閉鎖等,0,2021-07-30,2021-07-16,有限会社天仁ビル,,有限会社,埼玉県,蕨市,塚越２丁目１１番１５号,,11,223,3350002,,,2021-07-16,清算の結了等,,,2015-10-05,1,,,,,テンジンビル,0
2532,9040003005620,登記記録の閉鎖等,0,2021-07-30,2021-07-20,Ｆｏｒｅｖｅｒ合同会社,,合同会社,千葉県,東金市,前之内４８番地２,,12,213,2830015,,,2021-07-20,清算の結了等,,,2015-10-05,1,,,,,フォーエバー,0
2555,9100002012388,登記記録の閉鎖等,0,2021-07-30,2021-07-27,有限会社小諸魚甲,,有限会社,長野県,小諸市,相生町２丁目１番１０号,,20,208,3840025,,,2021-07-27,清算の結了等,,,2015-10-05,1,,,,,コモロウオコウ,0
2580,9120002050485,登記記録の閉鎖等,0,2021-07-30,2021-07-19,有限会社オプトエレクトロニクスラボラトリ,,有限会社,大阪府,大阪市北区,天神橋２丁目５番２８号,,27,127,5300041,,,2021-07-19,清算の結了等,,,2015-10-05,1,,,,,オプトエレクトロニクスラボラトリ,0
2588,9120101049354,登記記録の閉鎖等,0,2021-07-30,2021-07-27,ＴＫコーポレーション株式会社,,株式会社,和歌山県,紀の川市,上野１１１番地２ラフィネ・ドミール５０１号,,30,208,6496416,,,2021-07-27,清算の結了等,,,2015-10-05,1,,,,,ティーケーコーポーレーション,0
2624,9180001074752,登記記録の閉鎖等,0,2021-07-30,2021-07-21,株式会社バークレー,,株式会社,愛知県,春日井市,大手町４丁目４番地１０,,23,206,4860807,,,2021-07-21,清算の結了等,,,2015-10-05,1,,,,,バークレー,0
2631,9180002031851,登記記録の閉鎖等,0,2021-07-30,2021-07-26,有限会社ティーユーエヌ,,有限会社,愛知県,名古屋市中区,大須４丁目３番１４号,,23,106,4600011,,,2021-07-26,清算の結了等,,,2015-10-05,1,,,,,ティーユーエヌ,0
2634,9180003018575,登記記録の閉鎖等,0,2021-07-30,2021-07-21,合同会社アッシュ,,合同会社,愛知県,名古屋市東区,泉３丁目１７番１０号泉ビル３Ｆ,,23,102,4610001,,,2021-07-21,清算の結了等,,,2018-01-05,1,,,,,アッシュ,0
2640,9200002017765,登記記録の閉鎖等,0,2021-07-30,2021-07-28,有限会社オーガニックホリイ,,有限会社,岐阜県,可児市,土田３８６２番地の８,,21,214,5090206,,,2021-07-28,清算の結了等,,,2015-10-05,1,,,,,,0
2641,9200003004556,登記記録の閉鎖等,0,2021-07-30,2021-07-27,合同会社ＥＮＯＮ　ＷＯＲＫｓ,,合同会社,岐阜県,揖斐郡大野町,大字瀬古小字瀬古３４５番地３０,,21,403,5010563,,,2021-07-27,清算の結了等,,,2019-08-06,1,,,,,エノンワークス,0
2653,9250002013066,登記記録の閉鎖等,0,2021-07-30,2021-07-27,共栄建装有限会社,,有限会社,山口県,萩市,大字土原２６３番地,,35,204,7580025,,,2021-07-27,清算の結了等,,,2015-10-05,1,,,,,キョウエイケンソウ,0
2656,9250005008162,登記記録の閉鎖等,0,2021-07-30,2021-07-16,農事組合法人今出の里,,その他の設立登記法人,山口県,下関市,豊田町大字今出２４７番地,,35,201,7500431,,,2021-07-16,清算の結了等,,,2015-10-05,1,,,,,イマデノサト,0
2658,9260002019491,登記記録の閉鎖等,0,2021-07-30,2021-07-29,有限会社宝寿司,,有限会社,岡山県,倉敷市,中庄３５２３番地の６,,33,202,7100016,,,2021-07-29,清算の結了等,,,2015-10-05,1,,,,,タカラスシ,0
2675,9310002010882,登記記録の閉鎖等,0,2021-07-30,2021-07-20,有限会社東海保険サービス,,有限会社,長崎県,佐世保市,城山町４番１９号,,42,202,8570033,,,2021-07-20,清算の結了等,,,2015-10-05,1,,,,,トウカイホケンサービス,0
2687,9340001007745,登記記録の閉鎖等,0,2021-07-30,2021-07-13,鹿児島空港エンジニアリング株式会社,,株式会社,鹿児島県,霧島市,溝辺町麓８２２番地,,46,218,8996404,,,2021-07-13,合併による解散等,5340001007740,令和３年７月１日鹿児島県霧島市溝辺町麓８２２番地鹿児島空港ビルディング株式会社（5340001007740）に合併し解散,2015-10-05,1,,,,,カゴシマクウコウエンジニアリング,0
2690,9340005002164,登記記録の閉鎖等,0,2021-07-30,2021-07-15,特定非営利活動法人ＮＰＯかごしまバスケットボール塾ＳＴＡＲＳ,,その他の設立登記法人,鹿児島県,鹿児島市,武岡２丁目１１番地４,,46,201,8900031,,,2021-07-15,清算の結了等,,,2015-10-05,1,,,,,,0
2696,9370002018020,登記記録の閉鎖等,0,2021-07-30,2021-07-09,有限会社チンパンＧコーポレーション,,有限会社,宮城県,仙台市宮城野区,榴岡３丁目２番１号ドーミー仙台東口２Ｆ,,04,102,9830852,,,2021-07-09,清算の結了等,,,2015-10-05,1,,,,,チンパンジーコーポレーション,0
2706,9380002033043,登記記録の閉鎖等,0,2021-07-30,2021-07-15,有限会社豊和防災サービス,,有限会社,福島県,会津若松市,大戸町大字芦牧字下タ平１０２４番地,00084176,07,202,9695147,,,2021-07-15,清算の結了等,,,2015-10-05,1,,,,,ホウワボウサイサービス,0
2710,9420001008470,登記記録の閉鎖等,0,2021-07-30,2021-07-19,青森味紀行株式会社,,株式会社,青森県,西津軽郡鰺ヶ沢町,大字舞戸町字西阿部野１２５番地,,02,321,0382761,,,2021-07-19,清算の結了等,,,2015-10-05,1,,,,,アオモリアジキコウ,0
2713,9430001078117,登記記録の閉鎖等,0,2021-07-30,2021-07-14,ＬＩＮＥ　Ｐａｙ北海道株式会社,,株式会社,北海道,札幌市中央区,北一条西９丁目３番地１,,01,101,0600001,,,2021-07-14,清算の結了等,,,2019-01-16,1,,,,,ラインペイホッカイドウ,0
2714,9430002066277,登記記録の閉鎖等,0,2021-07-30,2021-07-15,有限会社宮崎造林,,有限会社,北海道,有珠郡壮瞥町,字蟠溪１８番地,,01,575,0520100,,,2021-07-15,清算の結了等,,,2015-10-05,1,,,,,ミヤザキゾウリン,0
