sequenceNumber,corporateNumber,process,correct,updateDate,changeDate,name,nameImageId,kind,prefectureName,cityName,streetNumber,addressImageId,prefectureCode,cityCode,postCode,addressOutside,addressOutsideImageId,closeDate,closeCause,successorCorporateNumber,changeCause,assignmentDate,latest,enName,enPrefectureName,enCityName,enAddressOutside,furigana,hihyoji
6,1010001249386,新規,0,2024-11-11,2024-11-11,三洋興産株式会社,,株式会社,東京都,千代田区,麹町４丁目７番地８地引第２ビル麹町協同法律事務所,,13,101,1020083,,,,,,,2024-11-11,1,,,,,,0
7,1010001249576,新規,0,2024-11-11,2024-11-11,株式会社インストレック,,株式会社,東京都,中央区,銀座７丁目１３番２０号銀座ＴＨビル９階,,13,102,1040061,,,,,,,2024-11-11,1,,,,,インストレック,0
8,1010001249709,新規,0,2024-11-11,2024-11-11,株式会社ＭＡＵＮＡ　ＣＡＰＩＴＡＬ,,株式会社,東京都,中央区,八重洲２丁目１番１号ＹＡＮＭＡＲＴＯＫＹＯ１２階,,13,102,1040028,,,,,,,2024-11-11,1,,,,,マウナキャピタル,0
9,1010001249725,新規,0,2024-11-11,2024-11-11,鳳凰株式会社,,株式会社,東京都,中央区,銀座１丁目１２－４Ｎ＆ＥＢＬＤ．７階,,13,102,1040061,,,,,,,2024-11-11,1,,,,,ホウオウ,0
10,1010001249733,新規,0,2024-11-11,2024-11-11,株式会社ＸＹＧＯ,,株式会社,東京都,文京区,大塚５丁目１４番１７号,00136944,13,105,1120012,,,,,,,2024-11-11,1,,,,,ザイゴ,0
11,1010001249799,新規,0,2024-11-11,2024-11-11,株式会社ＴＯＫＹＯ,,株式会社,東京都,中央区,日本橋２丁目１６番３号日本橋ビル３０２号,,13,102,1030027,,,,,,,2024-11-11,1,,,,,トウキョウ,0
19,1010003045429,新規,0,2024-11-11,2024-11-11,グリーンハーベストジャパン合同会社,,合同会社,東京都,中央区,東日本橋３丁目６番地６号パークビル７Ｆ,,13,102,1030004,,,,,,,2024-11-11,1,,,,,グリーンハーベストジャパン,0
40,1010101016389,新規,0,2024-11-11,2024-11-11,株式会社エイトホールディングス,,株式会社,東京都,八王子市,千人町４丁目１０番２２号,,13,201,1930835,,,,,,,2024-11-11,1,,,,,エイトホールディングス,0
50,1010401185883,新規,0,2024-11-11,2024-11-11,株式会社オール・ジャパン・ロジスティクス,,株式会社,東京都,港区,六本木６丁目１０番１号六本木ヒルズ森タワー３４階,,13,103,1060032,,,,,,,2024-11-11,1,,,,,オールジャパンロジスティクス,0
51,1010401186221,新規,0,2024-11-11,2024-11-11,リアンヴィダルメディ株式会社,,株式会社,東京都,港区,虎ノ門５丁目１１－１２虎ノ門ＡＣＴビル４Ｆ,,13,103,1050001,,,,,,,2024-11-11,1,,,,,リアンヴィダルメディ,0
52,1010401186238,新規,0,2024-11-11,2024-11-11,ＫＪＴ　Ｊａｐａｎ株式会社,,株式会社,東京都,港区,赤坂４丁目８番１９号赤坂フロントタウン３階,,13,103,1070052,,,,,,,2024-11-11,1,,,,,ケイジェイティージャパン,0
53,1010401186246,新規,0,2024-11-11,2024-11-11,株式会社Ａｃｃｅｎｇｙｘ,,株式会社,東京都,港区,浜松町２丁目２番１５号浜松町ダイヤビル２Ｆ,,13,103,1050013,,,,,,,2024-11-11,1,,,,,アクセンジクス,0
54,1010401186287,新規,0,2024-11-11,2024-11-11,株式会社ベンチャーナビ,,株式会社,東京都,港区,白金２丁目５番１６号,,13,103,1080072,,,,,,,2024-11-11,1,,,,,ベンチャーナビ,0
55,1010403033735,新規,0,2024-11-11,2024-11-11,ＹＳＫアドバイザリー合同会社,,合同会社,東京都,港区,三田１丁目３番２４号サンウッド三田パークサイドタワー１１０５号,,13,103,1080073,,,,,,,2024-11-11,1,,,,,ワイエスケーアドバイザリー,0
63,1010801035556,新規,0,2024-11-11,2024-11-11,株式会社星輝,,株式会社,東京都,大田区,仲六郷１丁目６番２３号仲六郷ハウス２１８,,13,111,1440055,,,,,,,2024-11-11,1,,,,,セイキ,0
74,1011001165706,新規,0,2024-11-11,2024-11-11,ソレイユキャピタル株式会社,,株式会社,東京都,渋谷区,道玄坂１丁目１６－６二葉ビル８Ｂ,,13,113,1500043,,,,,,,2024-11-11,1,,,,,ソレイユキャピタル,0
75,1011001165714,新規,0,2024-11-11,2024-11-11,株式会社ＲＩＴＺ,,株式会社,東京都,渋谷区,道玄坂２丁目８番８－６０３号,,13,113,1500043,,,,,,,2024-11-11,1,,,,,リッツ,0
76,1011001165722,新規,0,2024-11-11,2024-11-11,株式会社ＥＵＢ,,株式会社,東京都,渋谷区,渋谷２丁目１９－１５宮益坂ビルディング６０９,,13,113,1500002,,,,,,,2024-11-11,1,,,,,エウベ,0
77,1011001165739,新規,0,2024-11-11,2024-11-11,株式会社ノッテルパン,,株式会社,東京都,渋谷区,神南１丁目１１－４ＦＰＧリンクス神南５階,,13,113,1500041,,,,,,,2024-11-11,1,,,,,ノッテルパン,0
82,1011203004521,新規,0,2024-11-11,2024-11-11,合同会社エコンテック３２号,,合同会社,東京都,中野区,江古田３丁目１４番３号,,13,114,1650022,,,,,,,2024-11-11,1,,,,,エコンテックサンジュウニゴウ,0
87,1011401026557,新規,0,2024-11-11,2024-11-11,二吉産業株式会社,,株式会社,東京都,板橋区,新河岸３丁目８番２１号,,13,119,1750081,,,,,,,2024-11-11,1,,,,,フタヨシサンギョウ,0
88,1011401026573,新規,0,2024-11-11,2024-11-11,紹倉株式会社,,株式会社,東京都,板橋区,坂下１丁目２８番２号,,13,119,1740043,,,,,,,2024-11-11,1,,,,,,0
90,1011403004552,新規,0,2024-11-11,2024-11-11,合同会社ＫＴＴ,,合同会社,東京都,板橋区,清水町１８番１１号メゾン・アルページュ４０１,,13,119,1740053,,,,,,,2024-11-11,1,,,,,ケイティティ,0
95,1011701027791,新規,0,2024-11-11,2024-11-11,株式会社ＹＫＲ,,株式会社,東京都,江戸川区,新堀１丁目１６番４号,,13,123,1320001,,,,,,,2024-11-11,1,,,,,ワイケイアール,0
99,1011801045108,新規,0,2024-11-11,2024-11-11,株式会社江口板金,,株式会社,東京都,足立区,加賀１丁目１２番１０号,,13,121,1230861,,,,,,,2024-11-11,1,,,,,エグチバンキン,0
100,1011801045124,新規,0,2024-11-11,2024-11-11,株式会社ＮＢ２,,株式会社,東京都,足立区,加平２丁目１４番１２号クリエール北綾瀬１０２,,13,121,1210055,,,,,,,2024-11-11,1,,,,,エヌビーツー,0
105,1012401042420,新規,0,2024-11-11,2024-11-11,株式会社アドビリティ,,株式会社,東京都,三鷹市,下連雀５丁目１－１３－３０３,,13,204,1810013,,,,,,,2024-11-11,1,,,,,アドビリティ,0
116,1020001159964,新規,0,2024-11-11,2024-11-11,株式会社秀栄,,株式会社,神奈川県,横浜市磯子区,滝頭２丁目３４番１０号,,14,107,2350012,,,,,,,2024-11-11,1,,,,,シュウエイ,0
117,1020001159989,新規,0,2024-11-11,2024-11-11,ロハス株式会社,,株式会社,神奈川県,横浜市神奈川区,台町９番地１３,,14,102,2210834,,,,,,,2024-11-11,1,,,,,ロハス,0
118,1020001160022,新規,0,2024-11-11,2024-11-11,株式会社ヒューマンシフト,,株式会社,神奈川県,横浜市西区,北幸２丁目５番１７号横浜ＮＳビル,,14,103,2200004,,,,,,,2024-11-11,1,,,,,ヒューマンシフト,0
125,1021001083691,新規,0,2024-11-11,2024-11-11,ガウプラ株式会社,,株式会社,神奈川県,平塚市,宝町５番２７号,,14,203,2540034,,,,,,,2024-11-11,1,,,,,ガウプラ,0
126,1021001083709,新規,0,2024-11-11,2024-11-11,株式会社Ｈｉｇｈｂｕｒｙ,,株式会社,神奈川県,藤沢市,辻堂１丁目２番１７号シエロ湘南３０５号,,14,205,2510047,,,,,,,2024-11-11,1,,,,,ハイバリー,0
127,1021003015206,新規,0,2024-11-11,2024-11-11,ＶＩＣＫＹ‐７ＩＮＴＥＲＮＡＴＩＯＮＡＬ合同会社,,合同会社,神奈川県,相模原市中央区,上溝３７０番地３９,,14,152,2520243,,,,,,,2024-11-11,1,,,,,ビッキーセブンインターナショナル,0
128,1021005013216,新規,0,2024-11-11,2024-11-11,一般社団法人ＰＣＧ,,その他の設立登記法人,神奈川県,藤沢市,鵠沼松が岡４丁目６番９号,,14,205,2510038,,,,,,,2024-11-11,1,,,,,ピーシージー,0
146,1040001136078,新規,0,2024-11-11,2024-11-11,ＴＡＭＩ株式会社,,株式会社,千葉県,柏市,泉町７番４号,,12,217,2770022,,,,,,,2024-11-11,1,,,,,タミ,0
147,1040001136086,新規,0,2024-11-11,2024-11-11,株式会社ｅｎ,,株式会社,千葉県,松戸市,松戸１２８７ＡＳｍａｔｓｕｄｏ３Ｆ,,12,207,2710092,,,,,,,2024-11-11,1,,,,,エン,0
159,1070001042348,新規,0,2024-11-11,2024-11-11,株式会社ＡＣＥＳ,,株式会社,群馬県,太田市,中根町２４番地５,,10,205,3730846,,,,,,,2024-11-11,1,,,,,エーシーズ,0
166,1080403005141,新規,0,2024-11-11,2024-11-11,合同会社Ｆｏｒｗａｒｄ,,合同会社,静岡県,浜松市中央区,富塚町１９３３番地の１佐鳴湖パークタウンサウス８１０,,22,138,4328002,,,,,,,2024-11-11,1,,,,,フォワード,0
178,1120001269811,新規,0,2024-11-11,2024-11-11,おそうじ革命ＦＣ関西株式会社,,株式会社,大阪府,大阪市中央区,内淡路町１丁目３番４号５Ｆ,,27,128,5400038,,,,,,,2024-11-11,1,,,,,オソウジカクメイエフシーカンサイ,0
179,1120001269935,新規,0,2024-11-11,2024-11-11,株式会社吉原工務店,,株式会社,大阪府,守口市,八雲西町１丁目１８番地の２,,27,209,5700006,,,,,,,2024-11-11,1,,,,,ヨシハラコウムテン,0
180,1120001270026,新規,0,2024-11-11,2024-11-11,株式会社アウトステラー,,株式会社,大阪府,大阪市平野区,平野西６丁目１番２８号３０１,,27,126,5470033,,,,,,,2024-11-11,1,,,,,アウトステラー,0
181,1120001270042,新規,0,2024-11-11,2024-11-11,株式会社クレスタレント,,株式会社,大阪府,大阪市淀川区,宮原１丁目１９番２３号,,27,123,5320003,,,,,,,2024-11-11,1,,,,,クレスタレント,0
182,1120001270059,新規,0,2024-11-11,2024-11-11,楓華株式会社,,株式会社,大阪府,大阪市淀川区,新北野１丁目１２番１０号,,27,123,5320025,,,,,,,2024-11-11,1,,,,,フウカ,0
183,1120001270075,新規,0,2024-11-11,2024-11-11,株式会社ｎａｔｓｕｕ,,株式会社,大阪府,大阪市北区,万歳町３－１６天満病院グループ梅田ビル３０３,,27,127,5300028,,,,,,,2024-11-11,1,,,,,ナツ,0
184,1120001270109,新規,0,2024-11-11,2024-11-11,日本清和商事株式会社,,株式会社,大阪府,大阪市住吉区,我孫子東２丁目４番３－１００５号,,27,120,5580013,,,,,,,2024-11-11,1,,,,,ニホンセイワショウジ,0
185,1120001270117,新規,0,2024-11-11,2024-11-11,Ｔｅａｍ　Ｅｎｅｒｇｙ　ＬＩ株式会社,,株式会社,大阪府,大阪市中央区,北浜２丁目６番１８号,,27,128,5410041,,,,,,,2024-11-11,1,,,,,チームエナジーエルアイ,0
186,1120001270133,新規,0,2024-11-11,2024-11-11,株式会社ＲＥＡＬ　ＬＩＦＥ,,株式会社,大阪府,大阪市中央区,西心斎橋２丁目１３－１３ショウザンビル４０３,,27,128,5420086,,,,,,,2024-11-11,1,,,,,リールライフ,0
187,1120001270141,新規,0,2024-11-11,2024-11-11,株式会社ベストコミュニケート,,株式会社,大阪府,大阪市西淀川区,柏里２丁目９－３－９０３,,27,113,5550022,,,,,,,2024-11-11,1,,,,,ベストコミュニケート,0
188,1120003027928,新規,0,2024-11-11,2024-11-11,合同会社アネシス,,合同会社,大阪府,大阪市都島区,都島北通２丁目１８番１８－５０２号,,27,102,5340014,,,,,,,2024-11-11,1,,,,,アネシス,0
189,1120003027936,新規,0,2024-11-11,2024-11-11,合同会社ＳＴＲａｗ,,合同会社,大阪府,大阪市平野区,瓜破東５丁目１番１９号,,27,126,5470022,,,,,,,2024-11-11,1,,,,,ストロー,0
191,1120101070516,新規,0,2024-11-11,2024-11-11,株式会社Ｃｉｎｎａｍｉｌ,,株式会社,大阪府,和泉市,はつが野４丁目２０番６号,,27,219,5941106,,,,,,,2024-11-11,1,,,,,シナミル,0
193,1120903005405,新規,0,2024-11-11,2024-11-11,合同会社詩,,合同会社,大阪府,茨木市,畑田町４番４６号の３,,27,211,5670028,,,,,,,2024-11-11,1,,,,,ウタ,0
200,1140003021292,新規,0,2024-11-11,2024-11-11,オフィス・Ｒ合同会社,,合同会社,兵庫県,神戸市長田区,御船通１丁目１３アオキビル１０３号,,28,106,6530832,,,,,,,2024-11-11,1,,,,,オフィスアール,0
203,1150003003414,新規,0,2024-11-11,2024-11-11,合同会社ユンスル,,合同会社,奈良県,香芝市,鎌田５５３番地２０,,29,210,6390227,,,,,,,2024-11-11,1,,,,,ユンスル,0
212,1180001163983,新規,0,2024-11-11,2024-11-11,株式会社ｉｌｙ,,株式会社,愛知県,海部郡大治町,大字西條字高場３番地１,,23,424,4901144,,,,,,,2024-11-11,1,,,,,イリイ,0
213,1180001164032,新規,0,2024-11-11,2024-11-11,Ｔｈｅ　Ｅｘｅｃｕｔｉｖｅ　Ｌｏｕｎｇｅ　Ｊａｐａｎ株式会社,,株式会社,愛知県,名古屋市中村区,名駅４丁目４番３８号愛知県産業労働センター１８階,,23,105,4500002,,,,,,,2024-11-11,1,,,,,ジエグゼクティブラウンジジャパン,0
214,1180001164049,新規,0,2024-11-11,2024-11-11,株式会社Ｄ‐ＳＴＡＧＥ,,株式会社,愛知県,一宮市,冨田字上本郷３６１番地３,,23,203,4940018,,,,,,,2024-11-11,1,,,,,ディーステージ,0
215,1180001164057,新規,0,2024-11-11,2024-11-11,株式会社ＳＫオルソコンサルティング,,株式会社,愛知県,名古屋市中村区,名駅３丁目４番１０号アルティメイト名駅１ｓｔ２階,,23,105,4500002,,,,,,,2024-11-11,1,,,,,エスケーオルソコンサルティング,0
222,1190005011997,新規,0,2024-11-11,2024-11-11,医療法人ますだクリニック,,その他の設立登記法人,三重県,津市,河芸町東千里２５９番地１,,24,201,5100303,,,,,,,2024-11-11,1,,,,,マスダクリニック,0
228,1200003006576,新規,0,2024-11-11,2024-11-11,合同会社ユーリシャンス,,合同会社,岐阜県,瑞穂市,只越１２４１番地１,,21,216,5010221,,,,,,,2024-11-11,1,,,,,ユーリシャンス,0
234,1240001064093,新規,0,2024-11-11,2024-11-11,株式会社ＲＯＭＩＯ　ＣＲＥＡＴＥ,,株式会社,広島県,広島市安佐南区,上安２丁目３３番８号,,34,105,7310154,,,,,,,2024-11-11,1,,,,,ロミオクリエイト,0
247,1290001107847,新規,0,2024-11-11,2024-11-11,株式会社津隈コーポレーション,,株式会社,福岡県,福岡市博多区,元町１丁目１番１２号,,40,132,8120877,,,,,,,2024-11-11,1,,,,,ツグマコーポレーション,0
248,1290001107871,新規,0,2024-11-11,2024-11-11,株式会社ＹＧ　Ｐｒｏｆｅｓｓｉｏｎａｌ,,株式会社,福岡県,福岡市中央区,西中洲３番２６－５０１号,,40,133,8100002,,,,,,,2024-11-11,1,,,,,ワイジープロフェッショナル,0
251,1290003016022,新規,0,2024-11-11,2024-11-11,合同会社ＦＭＰ‐Ｌａｂ,,合同会社,福岡県,大野城市,筒井１丁目１８番１７号,,40,219,8160931,,,,,,,2024-11-11,1,,,,,エフエムピーラボ,0
262,1330001032636,新規,0,2024-11-11,2024-11-11,エルミファイン株式会社,,株式会社,熊本県,合志市,竹迫２２４７番１号,,43,216,8611114,,,,,,,2024-11-11,1,,,,,エルミファイン,0
282,1430001011729,新規,0,2024-11-11,2024-11-11,株式会社東和リース,,株式会社,北海道,札幌市中央区,南一条西５丁目８番地愛生舘ビル,,01,101,0600061,,,,,,,2024-11-11,1,,,,,,0
287,1430003016981,新規,0,2024-11-11,2024-11-11,ＺＥＮ合同会社,,合同会社,北海道,札幌市中央区,北四条西４丁目１番地,,01,101,0600004,,,,,,,2024-11-11,1,,,,,ゼン,0
295,1470001020453,新規,0,2024-11-11,2024-11-11,株式会社平井,,株式会社,香川県,善通寺市,上吉田町５丁目１番１５号,,37,204,7650011,,,,,,,2024-11-11,1,,,,,ヒライ,0
298,1480001012648,新規,0,2024-11-11,2024-11-11,株式会社ＲＥＶＩＶＥ,,株式会社,徳島県,鳴門市,大麻町桧字道ノ北１８番地１,,36,202,7790225,,,,,,,2024-11-11,1,,,,,リバイブ,0
299,1480002013075,新規,0,2024-11-11,2024-11-11,有限会社重村書店,,有限会社,徳島県,阿南市,新野町花坂４４番地１１,,36,204,7791510,,,,,,,2024-11-11,1,,,,,シゲムラショテン,0
304,2010001249740,新規,0,2024-11-11,2024-11-11,株式会社Ｈｉｓｔｏｒｙ,,株式会社,東京都,千代田区,外神田３丁目１番１５号,,13,101,1010021,,,,,,,2024-11-11,1,,,,,ヒストリー,0
305,2010001249765,新規,0,2024-11-11,2024-11-11,株式会社ＦＰＰ,,株式会社,東京都,中央区,銀座５丁目１番１６号西山興業西銀座ビル７階,,13,102,1040061,,,,,,,2024-11-11,1,,,,,エフピーピー,0
311,2010003045411,新規,0,2024-11-11,2024-11-11,ＪＥＴＳＴＲＥＡＭ合同会社,,合同会社,東京都,中央区,銀座１丁目２２番１１号銀座大竹ビジデンス２Ｆ,,13,102,1040061,,,,,,,2024-11-11,1,,,,,ジェットストリーム,0
327,2010005039031,新規,0,2024-11-11,2024-11-11,一般社団法人アートネットワークス,,その他の設立登記法人,東京都,中央区,銀座７丁目１３番２１号銀座ｓｉｎｒｏｋｕｓｙｕビル２階,,13,102,1040061,,,,,,,2024-11-11,1,,,,,アートネットワークス,0
328,2010005039056,新規,0,2024-11-11,2024-11-11,一般社団法人フォーチル,,その他の設立登記法人,東京都,中央区,日本橋小舟町８－１３,,13,102,1030024,,,,,,,2024-11-11,1,,,,,フォーチル,0
334,2010401186212,新規,0,2024-11-11,2024-11-11,Ｃｈｅｌｓｅａ　Ｓｔｒｅｅｔ　Ｃａｐｉｔａｌ株式会社,,株式会社,東京都,港区,北青山１丁目３番１号アールキューブ青山３階,,13,103,1070061,,,,,,,2024-11-11,1,,,,,チェルシーストリートキャピタル,0
335,2010401186220,新規,0,2024-11-11,2024-11-11,セントメディカル株式会社,,株式会社,東京都,港区,六本木７丁目１４番１１号メトロシティ六本木７階,,13,103,1060032,,,,,,,2024-11-11,1,,,,,セントメディカル,0
336,2010401186229,新規,0,2024-11-11,2024-11-11,ＨＡＳＨＣＡＴ　ＪＡＰＡＮ株式会社,,株式会社,東京都,港区,南麻布１丁目１５－７南麻布光コーポ５０２,,13,103,1060047,,,,,,,2024-11-11,1,,,,,ハッシュキャットジャパン,0
337,2010401186303,新規,0,2024-11-11,2024-11-11,株式会社百合凪グループ,,株式会社,東京都,港区,東麻布１丁目４番２号ＴＨＥＷＯＲＫＥＲ＆ＣＯ６０３,,13,103,1060044,,,,,,,2024-11-11,1,,,,,ユリナギグループ,0
338,2010403033750,新規,0,2024-11-11,2024-11-11,合同会社トラストモード,,合同会社,東京都,港区,三田５丁目１０番１３号,,13,103,1080073,,,,,,,2024-11-11,1,,,,,トラストモード,0
339,2010403033759,新規,0,2024-11-11,2024-11-11,合同会社ＮＳ０１,,合同会社,東京都,港区,虎ノ門３丁目２２番１０－２０１号,,13,103,1050001,,,,,,,2024-11-11,1,,,,,エヌエスゼロワン,0
343,2010501053155,新規,0,2024-11-11,2024-11-11,株式会社悠文堂,,株式会社,東京都,台東区,台東３丁目２番１０号,,13,106,1100016,,,,,,,2024-11-11,1,,,,,ユウブンドウ,0
350,2010801035555,新規,0,2024-11-11,2024-11-11,株式会社ララワン,,株式会社,東京都,大田区,下丸子４丁目２１番１４－２４０５号,,13,111,1460092,,,,,,,2024-11-11,1,,,,,ララワン,0
356,2011001165754,新規,0,2024-11-11,2024-11-11,株式会社アールディー・クリエイションズ,,株式会社,東京都,渋谷区,道玄坂１丁目１０番８号渋谷道玄坂東急ビル２Ｆ－Ｃ,,13,113,1500043,,,,,,,2024-11-11,1,,,,,アールディークリエイションズ,0
357,2011003020321,新規,0,2024-11-11,2024-11-11,合同会社いそべまき,,合同会社,東京都,渋谷区,渋谷２丁目１９番１９号ワコー宮益坂ビル５階,,13,113,1500002,,,,,,,2024-11-11,1,,,,,イソベマキ,0
358,2011003020354,新規,0,2024-11-11,2024-11-11,合同会社太陽の子,,合同会社,東京都,渋谷区,道玄坂１丁目１０番８号渋谷道玄坂東急ビル２Ｆ－Ｃ,,13,113,1500043,,,,,,,2024-11-11,1,,,,,タイヨウノコ,0
359,2011003020362,新規,0,2024-11-11,2024-11-11,ＴＡＯＹＡ合同会社,,合同会社,東京都,目黒区,下目黒１丁目１番１４号コノトラビル７Ｆ,,13,110,1530064,,,,,,,2024-11-11,1,,,,,タオヤ,0
361,2011101109454,新規,0,2024-11-11,2024-11-11,株式会社オリミュウ,,株式会社,東京都,新宿区,西新宿３丁目２０番２号,,13,104,1600023,,,,,,,2024-11-11,1,,,,,オリミュウ,0
362,2011103015155,新規,0,2024-11-11,2024-11-11,合同会社タック・コーポレーション,,合同会社,東京都,新宿区,西早稲田１丁目２３番１６－６０１号,,13,104,1690051,,,,,,,2024-11-11,1,,,,,タックコーポレーション,0
363,2011103015163,新規,0,2024-11-11,2024-11-11,合同会社ＴＯＭＡＫＯ,,合同会社,東京都,新宿区,歌舞伎町２丁目２５番８号エコプレイス新宿２４０号,,13,104,1600021,,,,,,,2024-11-11,1,,,,,トマコ,0
366,2011203004520,新規,0,2024-11-11,2024-11-11,合同会社エコンテック３１号,,合同会社,東京都,中野区,江古田３丁目１４番３号,,13,114,1650022,,,,,,,2024-11-11,1,,,,,エコンテックサンジュウイチゴウ,0
369,2011401026556,新規,0,2024-11-11,2024-11-11,ワイスリンク株式会社,,株式会社,東京都,板橋区,大山東町５９番８号ドルメン大山２０１号室,,13,119,1730014,,,,,,,2024-11-11,1,,,,,ワイスリンク,0
370,2011403004551,新規,0,2024-11-11,2024-11-11,ダニエルズ合同会社,,合同会社,東京都,板橋区,舟渡１丁目１６番１６号コーラル・舟渡３０２,,13,119,1740041,,,,,,,2024-11-11,1,,,,,ダニエルズ,0
372,2011501031324,新規,0,2024-11-11,2024-11-11,株式会社Ｆｅｅｌ　Ｇｏｏｄ　Ｉｎｃ,,株式会社,東京都,北区,赤羽北１丁目８－７岩内ビル１Ｆ,,13,117,1150052,,,,,,,2024-11-11,1,,,,,フィールグッドインク,0
373,2011601028179,新規,0,2024-11-11,2024-11-11,株式会社アーススモール,,株式会社,東京都,練馬区,大泉町６丁目３番１０－６０６号,,13,120,1780062,,,,,,,2024-11-11,1,,,,,アーススモール,0
374,2011603004509,新規,0,2024-11-11,2024-11-11,ＨＩＫＡＲＩ合同会社,,合同会社,東京都,練馬区,西大泉６丁目１２番３－５０２号,,13,120,1780065,,,,,,,2024-11-11,1,,,,,ヒカリ,0
375,2011701027790,新規,0,2024-11-11,2024-11-11,株式会社Ｐｏｓｔａｌｉａ,,株式会社,東京都,江戸川区,南葛西６丁目１８番１６号,,13,123,1340085,,,,,,,2024-11-11,1,,,,,ポスタリア,0
376,2011801045115,新規,0,2024-11-11,2024-11-11,Ｋ＆Ａ企画株式会社,,株式会社,東京都,葛飾区,細田４丁目３４番５号,,13,122,1240021,,,,,,,2024-11-11,1,,,,,ケイアンドエイキカク,0
377,2011801045123,新規,0,2024-11-11,2024-11-11,株式会社ＫＲＯＩＭ,,株式会社,東京都,葛飾区,堀切２丁目６６番１９号メゾンデューク菖蒲園３０１,,13,122,1240006,,,,,,,2024-11-11,1,,,,,ケーロイム,0
382,2012701018549,新規,0,2024-11-11,2024-11-11,ひかり株式会社,,株式会社,東京都,東村山市,美住町１丁目１５番地３０,,13,213,1890023,,,,,,,2024-11-11,1,,,,,ヒカリ,0
383,2012701018557,新規,0,2024-11-11,2024-11-11,株式会社ｍｅｍｅ,,株式会社,東京都,東久留米市,浅間町３丁目５－９－１０５,,13,222,2030012,,,,,,,2024-11-11,1,,,,,ミーム,0
384,2012703003128,新規,0,2024-11-11,2024-11-11,合同会社住基開発,,合同会社,東京都,清瀬市,上清戸１丁目９番地３０号２０５号室,,13,221,2040013,,,,,,,2024-11-11,1,,,,,ジュウキカイハツ,0
385,2012801023564,新規,0,2024-11-11,2024-11-11,株式会社ＳＡＭＵＲＡＩ　ＣＯＲＰＯＲＡＴＩＯＮ,,株式会社,東京都,立川市,富士見町１丁目１番３－７０６号,,13,202,1900013,,,,,,,2024-11-11,1,,,,,,0
387,2013303007386,新規,0,2024-11-11,2024-11-11,合同会社クリエイティブ住設,,合同会社,東京都,豊島区,高田３丁目７番１５号船山ビル２階,,13,116,1710033,,,,,,,2024-11-11,1,,,,,クリエイティブジュウセツ,0
393,2020001159963,新規,0,2024-11-11,2024-11-11,株式会社新島,,株式会社,神奈川県,川崎市川崎区,出来野９番８号,,14,131,2100825,,,,,,,2024-11-11,1,,,,,シンシマ,0
394,2020001159988,新規,0,2024-11-11,2024-11-11,華洋株式会社,,株式会社,神奈川県,横浜市南区,真金町１丁目１０番地６セントレー伊勢佐木８０５号室,,14,105,2320021,,,,,,,2024-11-11,1,,,,,カヨウ,0
395,2020001160038,新規,0,2024-11-11,2024-11-11,株式会社Ｐｏｓｓｉｂｉｌｉｔｙ,,株式会社,神奈川県,横浜市南区,井土ケ谷下町４６番３号１０３,,14,105,2320053,,,,,,,2024-11-11,1,,,,,ポシビリティー,0
403,2021001083690,新規,0,2024-11-11,2024-11-11,株式会社ｉ　Ｌａｂ　ｓｏｕｎｄ,,株式会社,神奈川県,座間市,相模が丘６丁目１８番１１号,,14,216,2520001,,,,,,,2024-11-11,1,,,,,アイラボサウンド,0
404,2021001083708,新規,0,2024-11-11,2024-11-11,株式会社野口電設,,株式会社,神奈川県,相模原市南区,当麻１１１３番地２４,,14,153,2520336,,,,,,,2024-11-11,1,,,,,ノグチデンセツ,0
405,2021001083716,新規,0,2024-11-11,2024-11-11,株式会社意識と景色,,株式会社,神奈川県,横須賀市,秋谷４３２１番地ＳｏｉｌｗｏｒｋＡｋｉｙａＶｉｌｌａｇｅ,,14,201,2400105,,,,,,,2024-11-11,1,,,,,イシキトケシキ,0
408,2021003015205,新規,0,2024-11-11,2024-11-11,ＨＡＮＡ　ＡＵＴＯ商会合同会社,,合同会社,神奈川県,厚木市,上荻野６８０－１,,14,212,2430201,,,,,,,2024-11-11,1,,,,,ハナオートショウカイ,0
416,2030002125542,新規,0,2024-11-11,2024-11-11,有限会社斉藤電器商会,,有限会社,埼玉県,加須市,中央２丁目１２番３２号,,11,210,3470055,,,,,,,2024-11-11,1,,,,,サイトウデンキショウカイ,0
417,2030003025295,新規,0,2024-11-11,2024-11-11,合同会社９９,,合同会社,埼玉県,本庄市,東台２丁目３－１ＫＲＳ本庄ビル１Ｆ,,11,211,3670021,,,,,,,2024-11-11,1,,,,,キュウジュウキュウ,0
426,2040001136102,新規,0,2024-11-11,2024-11-11,ＩＮＤＩＰ株式会社,,株式会社,千葉県,我孫子市,湖北台１丁目１３－４,,12,222,2701132,,,,,,,2024-11-11,1,,,,,インディプ,0
445,2070001042355,新規,0,2024-11-11,2024-11-11,株式会社ｆｕｌｆｉｌｌ,,株式会社,群馬県,高崎市,寺尾町２６０１番地１,,10,202,3700865,,,,,,,2024-11-11,1,,,,,フルフィル,0
452,2080001026588,新規,0,2024-11-11,2024-11-11,株式会社コウシン,,株式会社,静岡県,静岡市駿河区,向敷地１丁目１２番１２号,,22,102,4210101,,,,,,,2024-11-11,1,,,,,コウシン,0
455,2080101025119,新規,0,2024-11-11,2024-11-11,株式会社ＡＳＳＩＧＮ,,株式会社,静岡県,沼津市,高島町２－２開成ビル４階,,22,203,4100056,,,,,,,2024-11-11,1,,,,,アサイン,0
457,2080401027566,新規,0,2024-11-11,2024-11-11,株式会社ＮＢＮ経営支援,,株式会社,静岡県,浜松市中央区,元城町２１６－４,,22,138,4300946,,,,,,,2024-11-11,1,,,,,エヌビーエヌケイエンシエン,0
466,2100001038011,新規,0,2024-11-11,2024-11-11,プロジェクト・アステリ株式会社,,株式会社,長野県,北佐久郡軽井沢町,大字長倉５８９８番地２０１,,20,321,3890111,,,,,,,2024-11-11,1,,,,,プロジェクトアステリ,0
467,2100003007856,新規,0,2024-11-11,2024-11-11,合同会社リッツ,,合同会社,長野県,飯田市,上郷別府１３８８,,20,205,3950003,,,,,,,2024-11-11,1,,,,,リッツ,0
484,2120001270033,新規,0,2024-11-11,2024-11-11,水落国際株式会社,,株式会社,大阪府,大阪市天王寺区,東高津町３－２８青山ハイツ４０Ｅ,,27,109,5430021,,,,,,,2024-11-11,1,,,,,ミズオチコクサイ,0
485,2120001270082,新規,0,2024-11-11,2024-11-11,株式会社Ｂａｌｍｙ　ｓｔｕｄｉｏ,,株式会社,大阪府,大阪市西区,南堀江１丁目２１番１４－２０１号,,27,106,5500015,,,,,,,2024-11-11,1,,,,,バルミースタジオ,0
486,2120001270108,新規,0,2024-11-11,2024-11-11,株式会社竹内モータース商会,,株式会社,大阪府,大阪市西淀川区,歌島４丁目８番２４号,,27,113,5550021,,,,,,,2024-11-11,1,,,,,タケウチモータースショウカイ,0
487,2120001270116,新規,0,2024-11-11,2024-11-11,ＡＩＸ　Ｖａｌｕｅ株式会社,,株式会社,大阪府,大阪市中央区,北浜２丁目６番１８号,,27,128,5410041,,,,,,,2024-11-11,1,,,,,アイエックスバリュー,0
488,2120001270149,新規,0,2024-11-11,2024-11-11,株式会社ポノ,,株式会社,大阪府,大阪市福島区,福島５丁目１－９－２Ｆ,,27,103,5530003,,,,,,,2024-11-11,1,,,,,ポノ,0
489,2120001270157,新規,0,2024-11-11,2024-11-11,ＨＯＳＨＯ株式会社,,株式会社,大阪府,大阪市生野区,小路２丁目１８番２号,,27,116,5440002,,,,,,,2024-11-11,1,,,,,ホウショウ,0
497,2120003027927,新規,0,2024-11-11,2024-11-11,合同会社ＧＲＯＷ,,合同会社,大阪府,大阪市北区,梅田１丁目２番２号大阪駅前第２ビル１２－１２,,27,127,5300001,,,,,,,2024-11-11,1,,,,,グロウ,0
506,2120101070564,新規,0,2024-11-11,2024-11-11,株式会社ｏｐｅｎ,,株式会社,大阪府,泉佐野市,羽倉崎１丁目１番６－２０２号,,27,213,5980046,,,,,,,2024-11-11,1,,,,,オープン,0
508,2120103006129,新規,0,2024-11-11,2024-11-11,ＣＯＵＰＰＬＹ合同会社,,合同会社,大阪府,堺市西区,上６０８－２７,,27,144,5938311,,,,,,,2024-11-11,1,,,,,カップリー,0
519,2130001078319,新規,0,2024-11-11,2024-11-11,桃源株式会社,,株式会社,京都府,京都市山科区,御陵原西町１０番地９－１０３号室,,26,110,6078424,,,,,,,2024-11-11,1,,,,,トウゲン,0
520,2130001078327,新規,0,2024-11-11,2024-11-11,株式会社絆,,株式会社,京都府,城陽市,久世里ノ西１４１－１１,,26,207,6100102,,,,,,,2024-11-11,1,,,,,キズナ,0
525,2140001136380,新規,0,2024-11-11,2024-11-11,ベルテイジ株式会社,,株式会社,兵庫県,神戸市東灘区,岡本７丁目１５番１－４０３号,,28,101,6580072,,,,,,,2024-11-11,1,,,,,ベルテイジ,0
526,2140001136389,新規,0,2024-11-11,2024-11-11,株式会社太廣,,株式会社,兵庫県,姫路市,田寺４丁目３番３４号,,28,201,6700086,,,,,,,2024-11-11,1,,,,,タイコウ,0
528,2150001027645,新規,0,2024-11-11,2024-11-11,株式会社ニホンサービス,,株式会社,奈良県,大和郡山市,高田口町３２番地４,,29,203,6391133,,,,,,,2024-11-11,1,,,,,ニホンサービス,0
529,2150001027661,新規,0,2024-11-11,2024-11-11,藤井商事株式会社,,株式会社,奈良県,大和高田市,曽大根２丁目３番２６号,,29,202,6350055,,,,,,,2024-11-11,1,,,,,フジイショウジ,0
532,2150003003413,新規,0,2024-11-11,2024-11-11,合同会社オレンジロード,,合同会社,奈良県,生駒郡平群町,若葉台２丁目１０－２,,29,342,6360938,,,,,,,2024-11-11,1,,,,,オレンジロード,0
533,2160001026349,新規,0,2024-11-11,2024-11-11,株式会社近江牛のやまぜん,,株式会社,滋賀県,近江八幡市,上野町９１番地１,,25,204,5230046,,,,,,,2024-11-11,1,,,,,,0
539,2180001164007,新規,0,2024-11-11,2024-11-11,株式会社アトラス,,株式会社,愛知県,名古屋市緑区,兵庫２丁目４０１番地,,23,114,4580802,,,,,,,2024-11-11,1,,,,,アトラス,0
540,2180001164048,新規,0,2024-11-11,2024-11-11,ＰＲＩＭＡＶＥＡＲＡＮＯ　ＨＤ株式会社,,株式会社,愛知県,名古屋市港区,船頭場２丁目３１６番地,,23,111,4550881,,,,,,,2024-11-11,1,,,,,プリマヴェラーノホールディングス,0
550,2190001031791,新規,0,2024-11-11,2024-11-11,ＰＡＴＤＯＮ　ＭＡＲＩＮＥ　ＪＡＰＡＮ株式会社,,株式会社,三重県,桑名郡木曽岬町,大字源緑輪中１０５６‐７,,24,303,4980816,,,,,,,2024-11-11,1,,,,,パトドンマリネジャパン,0
557,2210001019966,新規,0,2024-11-11,2024-11-11,ｍｅｍｅｎｔｏ株式会社,,株式会社,福井県,三方上中郡若狭町,熊川第３０号６番地１菱屋１階,,18,501,9191532,,,,,,,2024-11-11,1,,,,,メメント,0
564,2240001064068,新規,0,2024-11-11,2024-11-11,ＳＫＹ人材株式会社,,株式会社,広島県,呉市,仁方錦町２５番５０号１０１号室,,34,202,7370155,,,,,,,2024-11-11,1,,,,,スカイジンザイ,0
568,2240003006935,新規,0,2024-11-11,2024-11-11,合同会社エムワイエス,,合同会社,広島県,東広島市,西条町西条１７７番地２,,34,212,7390001,,,,,,,2024-11-11,1,,,,,エムワイエス,0
569,2250005008961,新規,0,2024-11-11,2024-11-11,医療法人碧緑会,,その他の設立登記法人,山口県,下関市,富任町１丁目７－７,,35,201,7596613,,,,,,,2024-11-11,1,,,,,ミドリカイ,0
571,2260001039613,新規,0,2024-11-11,2024-11-11,ミナギ設備工業株式会社,,株式会社,岡山県,津山市,志戸部７００番地６,,33,203,7080825,,,,,,,2024-11-11,1,,,,,ミナギセツビコウギョウ,0
576,2290001107846,新規,0,2024-11-11,2024-11-11,株式会社ナイトヤ,,株式会社,福岡県,福岡市城南区,梅林１丁目１４番９－１０２号,,40,136,8140144,,,,,,,2024-11-11,1,,,,,ナイトヤ,0
577,2290001107879,新規,0,2024-11-11,2024-11-11,株式会社エバブライト,,株式会社,福岡県,福岡市東区,香椎駅前２丁目９番２２－１２０１号,,40,131,8130013,,,,,,,2024-11-11,1,,,,,エバブライト,0
578,2290001107887,新規,0,2024-11-11,2024-11-11,大左官工業株式会社,,株式会社,福岡県,筑紫野市,塔原南１丁目３番６号,,40,217,8180074,,,,,,,2024-11-11,1,,,,,ダイサカンコウギョウ,0
579,2290001107895,新規,0,2024-11-11,2024-11-11,ケーマックステクノロジー株式会社,,株式会社,福岡県,福岡市博多区,中洲５丁目３番８号アクア博多５Ｆ,,40,132,8100801,,,,,,,2024-11-11,1,,,,,ケーマックステクノロジー,0
580,2290001107912,新規,0,2024-11-11,2024-11-11,ｔｕｕｒｆ株式会社,,株式会社,福岡県,福岡市中央区,今泉１丁目２０番２号４階,,40,133,8100021,,,,,,,2024-11-11,1,,,,,ターフ,0
585,2310001019304,新規,0,2024-11-11,2024-11-11,株式会社武龍ＩＮＮＯＶＡＴＩＯＮ,,株式会社,長崎県,佐世保市,大潟町１０６６番地８,,42,202,8580926,,,,,,,2024-11-11,1,,,,,ブリュウイノベーション,0
586,2310001019320,新規,0,2024-11-11,2024-11-11,株式会社コスモスパーク,,株式会社,長崎県,諫早市,幸町６７番１８号,,42,204,8540022,,,,,,,2024-11-11,1,,,,,コスモスパーク,0
596,2360003014447,新規,0,2024-11-11,2024-11-11,合同会社フレッシュミートオオシロ,,合同会社,沖縄県,那覇市,壺屋１丁目６番９号,,47,201,9020065,,,,,,,2024-11-11,1,,,,,フレッシュミートオオシロ,0
599,2370001051904,新規,0,2024-11-11,2024-11-11,Ｆｅｌｉｃｉｅｌｏ株式会社,,株式会社,宮城県,仙台市青葉区,愛子東４丁目４番５－８号,,04,101,9893127,,,,,,,2024-11-11,1,,,,,フェリーチェロ,0
609,2430001093031,新規,0,2024-11-11,2024-11-11,株式会社ゆうぜん,,株式会社,北海道,苫小牧市,音羽町１丁目１６番１５号,,01,213,0530044,,,,,,,2024-11-11,1,,,,,ユウゼン,0
612,2450002013218,新規,0,2024-11-11,2024-11-11,有限会社オネトマナイ共同草地,,有限会社,北海道,稚内市,大字抜海村字オネトマナイ１８２０番３,,01,214,0984581,,,,,,,2024-11-11,1,,,,,オネトマナイキョウドウソウチ,0
615,2470001020452,新規,0,2024-11-11,2024-11-11,株式会社あはは,,株式会社,香川県,小豆郡土庄町,渕埼甲２６６３番地３,,37,322,7614100,,,,,,,2024-11-11,1,,,,,アハハ,0
628,3010001248849,新規,0,2024-11-11,2024-11-11,為平株式会社,,株式会社,東京都,千代田区,神田佐久間町１丁目８－４アルテール秋葉原８Ｆ８０３号室,,13,101,1010025,,,,,,,2024-11-11,1,,,,,タメヒラ,0
629,3010001249566,新規,0,2024-11-11,2024-11-11,株式会社クリエイターズクラウド,,株式会社,東京都,中央区,銀座７丁目１３番５号,,13,102,1040061,,,,,,,2024-11-11,1,,,,,クリエイターズクラウド,0
630,3010001249723,新規,0,2024-11-11,2024-11-11,株式会社ＣＲＯＷＮ,,株式会社,東京都,中央区,銀座１丁目１２番４号Ｎ＆ＥＢＬＤ．６Ｆ,,13,102,1040061,,,,,,,2024-11-11,1,,,,,クラウン,0
660,3010005039063,新規,0,2024-11-11,2024-11-11,ＭＬ神谷町一般社団法人,,その他の設立登記法人,東京都,千代田区,神田小川町３丁目２６番８号神田小川町三丁目ビル６階,,13,101,1010052,,,,,,,2024-11-11,1,,,,,エムエルカミヤチョウ,0
667,3010401186203,新規,0,2024-11-11,2024-11-11,株式会社Ｔａｒｔｅ　Ｆｌａｍｂｅｅ,,株式会社,東京都,港区,南青山７丁目１番５号＆ＣＡＬＭｍｉｎａｍｉａｏｙａｍａ＃２０４,,13,103,1070062,,,,,,,2024-11-11,1,,,,,タルトフランベ,0
668,3010401186285,新規,0,2024-11-11,2024-11-11,華成株式会社,,株式会社,東京都,港区,芝浦４丁目７番５－９０１号,,13,103,1080023,,,,,,,2024-11-11,1,,,,,カセイ,0
673,3010405023699,新規,0,2024-11-11,2024-11-11,一般社団法人Ｎｅｘｔ　Ｐｒｉｍｅ　Ｆｏｏｄ,,その他の設立登記法人,東京都,港区,南青山３丁目１番３６号,,13,103,1070062,,,,,,,2024-11-11,1,,,,,ネクストプライムフード,0
682,3010901056277,新規,0,2024-11-11,2024-11-11,栄申株式会社,,株式会社,東京都,世田谷区,野沢１丁目１３番７号,,13,112,1540003,,,,,,,2024-11-11,1,,,,,エイシン,0
683,3010901056293,新規,0,2024-11-11,2024-11-11,株式会社ＭＯＶＡＤＯ,,株式会社,東京都,世田谷区,北沢２丁目１９番１７号沢田屋ビルＢ１,,13,112,1550031,,,,,,,2024-11-11,1,,,,,モヴァド,0
684,3010903009480,新規,0,2024-11-11,2024-11-11,ＭＥＭＯＲＩ　ＤＥＳＩＧＮ合同会社,,合同会社,東京都,世田谷区,砧４丁目１０－１８－５０４,,13,112,1570073,,,,,,,2024-11-11,1,,,,,メモリデザイン,0
689,3011001165118,新規,0,2024-11-11,2024-11-11,株式会社ａｅｑ．,,株式会社,東京都,渋谷区,道玄坂１丁目１０番８号渋谷道玄坂東急ビル２Ｆ－Ｃ,,13,113,1500043,,,,,,,2024-11-11,1,,,,,アエク,0
690,3011001165695,新規,0,2024-11-11,2024-11-11,株式会社ＭＵＳＴ　ＢＵＹ,,株式会社,東京都,渋谷区,道玄坂２丁目１５番１－８２４号,,13,113,1500043,,,,,,,2024-11-11,1,,,,,マストバイ,0
691,3011001165704,新規,0,2024-11-11,2024-11-11,ユースコネクト株式会社,,株式会社,東京都,渋谷区,渋谷２丁目１９－１５宮益坂ビルディング６０９,,13,113,1500002,,,,,,,2024-11-11,1,,,,,ユースコネクト,0
692,3011001165712,新規,0,2024-11-11,2024-11-11,株式会社Ｒｅｖｉｅｗ,,株式会社,東京都,渋谷区,幡ヶ谷３丁目８番４－３０１号,,13,113,1510072,,,,,,,2024-11-11,1,,,,,リビュー,0
693,3011001165745,新規,0,2024-11-11,2024-11-11,株式会社ｍｔ＆ｃｏ,,株式会社,東京都,渋谷区,神宮前２丁目１３番９号ＢＩＲＴＨ神宮前５０３号室,,13,113,1500001,,,,,,,2024-11-11,1,,,,,エムティーアンドコー,0
694,3011001165761,新規,0,2024-11-11,2024-11-11,株式会社ＡＷＥＳＯＭＥ　ＷＯＲＫＳ,,株式会社,東京都,渋谷区,神宮前２丁目１３番１８号,,13,113,1500001,,,,,,,2024-11-11,1,,,,,オーサムワークス,0
697,3011003020353,新規,0,2024-11-11,2024-11-11,アベニューサイド代官山管理合同会社,,合同会社,東京都,渋谷区,猿楽町２番１号,,13,113,1500033,,,,,,,2024-11-11,1,,,,,アベニューサイドダイカンヤマカンリ,0
702,3011101109486,新規,0,2024-11-11,2024-11-11,株式会社Ｔｈｅ　Ａｕｓｄａｕｅｒ,,株式会社,東京都,新宿区,西新宿３丁目３番１３号西新宿水間ビル６階,,13,104,1600023,,,,,,,2024-11-11,1,,,,,ジアウスドア,0
704,3011301030145,新規,0,2024-11-11,2024-11-11,日童株式会社,,株式会社,東京都,杉並区,天沼３丁目１２番７号プルメリア荻窪５０２,,13,115,1670032,,,,,,,2024-11-11,1,,,,,ニチドウ,0
705,3011401026563,新規,0,2024-11-11,2024-11-11,ＳＹＮＣＲＯＣＫ株式会社,,株式会社,東京都,板橋区,志村２丁目７番８－１０７号,,13,119,1740056,,,,,,,2024-11-11,1,,,,,シンクロック,0
716,3011801045106,新規,0,2024-11-11,2024-11-11,株式会社ティーアールピー,,株式会社,東京都,足立区,谷在家３丁目１６番１５号コージィコート２０５,,13,121,1230863,,,,,,,2024-11-11,1,,,,,ティーアールピー,0
717,3011801045114,新規,0,2024-11-11,2024-11-11,株式会社ビギナズ,,株式会社,東京都,葛飾区,白鳥４丁目５番１－６０４号ビューキャニオンお花茶屋,,13,122,1250063,,,,,,,2024-11-11,1,,,,,ビギナズ,0
726,3012701018556,新規,0,2024-11-11,2024-11-11,株式会社恒善護院,,株式会社,東京都,東久留米市,本町１丁目４－４３、１Ｆ,,13,222,2030053,,,,,,,2024-11-11,1,,,,,コウゼンゴイン,0
727,3012701018564,新規,0,2024-11-11,2024-11-11,株式会社豊栄,,株式会社,東京都,西東京市,谷戸町２丁目１番２４号グランジオ武蔵野５０３号室,,13,229,1880001,,,,,,,2024-11-11,1,,,,,ホウエイ,0
730,3012801023555,新規,0,2024-11-11,2024-11-11,株式会社ＮＥＩＧＨＢＯＲ,,株式会社,東京都,立川市,曙町２丁目９番８号大黒屋ビルヂング９階,,13,202,1900012,,,,,,,2024-11-11,1,,,,,ネイバー,0
735,3013301053349,新規,0,2024-11-11,2024-11-11,株式会社ＥｌＥｎ,,株式会社,東京都,豊島区,長崎５丁目７番２号フェリシテオーヴィラージュ６０１号,,13,116,1710051,,,,,,,2024-11-11,1,,,,,エレン,0
736,3013303007385,新規,0,2024-11-11,2024-11-11,合同会社Ｄｏ　Ｃｏｎｓｕｌｔｉｎｇ,,合同会社,東京都,豊島区,巣鴨１丁目１５番２－５１１号,,13,116,1700002,,,,,,,2024-11-11,1,,,,,ドゥコンサルティング,0
742,3020001159863,新規,0,2024-11-11,2024-11-11,株式会社ヤマショウ,,株式会社,神奈川県,横浜市都筑区,東方町５９７番地５０,,14,118,2240045,,,,,,,2024-11-11,1,,,,,ヤマショウ,0
743,3020001159979,新規,0,2024-11-11,2024-11-11,株式会社Ｌａｂｏ,,株式会社,神奈川県,川崎市中原区,市ノ坪１２７番地２クレスト武蔵小杉Ｉ３０１,00136941,14,133,2110016,,,,,,,2024-11-11,1,,,,,ラボ,0
744,3020001159987,新規,0,2024-11-11,2024-11-11,株式会社Ｓａｖｉｏｒ,,株式会社,神奈川県,横浜市南区,中里２丁目４番１７号ＫＳハウス２号室,,14,105,2320063,,,,,,,2024-11-11,1,,,,,セイビアー,0
745,3020001160012,新規,0,2024-11-11,2024-11-11,永信食品株式会社,,株式会社,神奈川県,横浜市港北区,新横浜３丁目７番地１８日総第１８ビル６階,,14,109,2220033,,,,,,,2024-11-11,1,,,,,エイシンショクヒン,0
746,3020001160037,新規,0,2024-11-11,2024-11-11,シンギュラリティ株式会社,,株式会社,神奈川県,横浜市神奈川区,三ツ沢中町５番１号,,14,102,2210851,,,,,,,2024-11-11,1,,,,,シンギュラリティ,0
747,3020001160053,新規,0,2024-11-11,2024-11-11,イントフォー株式会社,,株式会社,神奈川県,横浜市西区,みなとみらい３丁目６番３号,,14,103,2200012,,,,,,,2024-11-11,1,,,,,イントフォー,0
752,3020003027218,新規,0,2024-11-11,2024-11-11,合同会社テクノラボ,,合同会社,神奈川県,横浜市泉区,中田西３丁目２４番４３－１０３号,,14,116,2450015,,,,,,,2024-11-11,1,,,,,テクノラボ,0
762,3021001083707,新規,0,2024-11-11,2024-11-11,株式会社ＳＡＧＡＭＩ,,株式会社,神奈川県,相模原市中央区,相模原７丁目１０番２５号２Ｆ,,14,152,2520231,,,,,,,2024-11-11,1,,,,,サガミ,0
764,3021003015138,新規,0,2024-11-11,2024-11-11,ケアガーデン合同会社,,合同会社,神奈川県,三浦郡葉山町,６５２－６,,14,301,2400100,,,,,,,2024-11-11,1,,,,,ケアガーデン,0
772,3030005021928,新規,0,2024-11-11,2024-11-11,社会福祉法人晴典会,,その他の設立登記法人,埼玉県,春日部市,大場１５６４番地１,,11,214,3440021,,,,,,,2024-11-11,1,,,,,セイテンカイ,0
775,3040001136101,新規,0,2024-11-11,2024-11-11,株式会社ＳＩＲＯ,,株式会社,千葉県,市原市,八幡１０５８－５－４０３,,12,219,2900062,,,,,,,2024-11-11,1,,,,,シロ,0
776,3040001136118,新規,0,2024-11-11,2024-11-11,日本エコプロダクツ株式会社,,株式会社,千葉県,千葉市中央区,中央２丁目５番１号千葉中央ツインビル２号館７階,,12,101,2600013,,,,,,,2024-11-11,1,,,,,ニホンエコプロダクツ,0
791,3080401027565,新規,0,2024-11-11,2024-11-11,Ｎ’Ｓ　Ｇｒｏｕｐ株式会社,,株式会社,静岡県,浜松市中央区,早出町１２１１番地の４,,22,138,4350054,,,,,,,2024-11-11,1,,,,,エヌズグループ,0
809,3120001270049,新規,0,2024-11-11,2024-11-11,株式会社ｂｒａｖｅｒｙ,,株式会社,大阪府,大阪市浪速区,難波中１丁目３番１号ＲＥ－０１６、６０２号室,,27,111,5560011,,,,,,,2024-11-11,1,,,,,ブレイヴァリー,0
810,3120001270081,新規,0,2024-11-11,2024-11-11,百里株式会社,,株式会社,大阪府,大阪市東成区,中道４丁目１６番２１－４０７号,,27,115,5370025,,,,,,,2024-11-11,1,,,,,ヒャクリ,0
811,3120001270123,新規,0,2024-11-11,2024-11-11,株式会社ｅｎｓｉｓ,,株式会社,大阪府,大阪市北区,梅田１丁目２番２号大阪駅前第２ビル１２－１２,,27,127,5300001,,,,,,,2024-11-11,1,,,,,エンシス,0
812,3120001270180,新規,0,2024-11-11,2024-11-11,株式会社コネクション,,株式会社,大阪府,門真市,北島町３－２,,27,223,5710026,,,,,,,2024-11-11,1,,,,,コネクション,0
816,3120003027942,新規,0,2024-11-11,2024-11-11,宇琳合同会社,,合同会社,大阪府,大阪市東住吉区,照ケ丘矢田１丁目１６番１８号,,27,121,5460021,,,,,,,2024-11-11,1,,,,,ウリン,0
824,3120901050013,新規,0,2024-11-11,2024-11-11,Ａｔｈｅｎａ株式会社,,株式会社,大阪府,豊中市,本町１丁目１１－５０エールグラン豊中本町７０５号室,,27,203,5600021,,,,,,,2024-11-11,1,,,,,アテナ,0
827,3130001078318,新規,0,2024-11-11,2024-11-11,Ｍｅｍｅ株式会社,,株式会社,京都府,京都市右京区,太秦下角田町７番地４,,26,108,6168111,,,,,,,2024-11-11,1,,,,,ミーム,0
828,3130001078334,新規,0,2024-11-11,2024-11-11,株式会社エーワイカンパニー,,株式会社,京都府,京都市伏見区,向島中島町２４番地１０,,26,109,6128113,,,,,,,2024-11-11,1,,,,,エーワイカンパニー,0
830,3130003009989,新規,0,2024-11-11,2024-11-11,合同会社倖商,,合同会社,京都府,京都市山科区,厨子奥若林町２８番地－２１０号,,26,110,6078451,,,,,,,2024-11-11,1,,,,,コウショウ,0
838,3150001027660,新規,0,2024-11-11,2024-11-11,庭舎株式会社,,株式会社,奈良県,生駒郡斑鳩町,法隆寺北１丁目１０番１６号,,29,344,6360111,,,,,,,2024-11-11,1,,,,,テイシャ,0
839,3150003003412,新規,0,2024-11-11,2024-11-11,ＦＡＲコンサルティング合同会社,,合同会社,奈良県,奈良市,芝辻町４丁目１１番地の８,00136955,29,201,6308114,,,,,,,2024-11-11,1,,,,,エフエーアールコンサルティング,0
852,3180005020824,新規,0,2024-11-11,2024-11-11,一般社団法人健康と生活環境改善協会,,その他の設立登記法人,愛知県,名古屋市中村区,名駅３丁目４番１０号アルティメイト名駅１ｓｔ２階,,23,105,4500002,,,,,,,2024-11-11,1,,,,,ケンコウトセイカツカンキョウカイゼンキョウカイ,0
867,3230003002331,新規,0,2024-11-11,2024-11-11,合同会社ラウンド,,合同会社,富山県,富山市,中老田３０７番地１,,16,201,9300166,,,,,,,2024-11-11,1,,,,,ラウンド,0
869,3240001064083,新規,0,2024-11-11,2024-11-11,ＯＮＥネット株式会社,,株式会社,広島県,広島市安佐南区,伴中央１丁目５番１８－２０２号,,34,105,7313165,,,,,,,2024-11-11,1,,,,,ワンネット,0
877,3260003004960,新規,0,2024-11-11,2024-11-11,合同会社Ａｒｂｒｅ,,合同会社,岡山県,井原市,笹賀町７０７番地,,33,207,7150025,,,,,,,2024-11-11,1,,,,,アルブル,0
882,3270001009085,新規,0,2024-11-11,2024-11-11,株式会社マツムラ,,株式会社,鳥取県,鳥取市,福部町湯山１５３８番地３,,31,201,6890105,,,,,,,2024-11-11,1,,,,,マツムラ,0
889,3290001107837,新規,0,2024-11-11,2024-11-11,株式会社ｄｅｆｔ,,株式会社,福岡県,福岡市南区,曰佐３丁目１４番１５号,,40,134,8111313,,,,,,,2024-11-11,1,,,,,デフト,0
890,3290001107903,新規,0,2024-11-11,2024-11-11,株式会社リックショウ,,株式会社,福岡県,福岡市西区,姪の浜４丁目１５番２４－１３０１号,,40,135,8190002,,,,,,,2024-11-11,1,,,,,リックショウ,0
891,3290001107911,新規,0,2024-11-11,2024-11-11,株式会社しづく,,株式会社,福岡県,福岡市博多区,祇園町８番１３号１階,,40,132,8120038,,,,,,,2024-11-11,1,,,,,シヅク,0
893,3290003016037,新規,0,2024-11-11,2024-11-11,合同会社アニハリ,,合同会社,福岡県,大野城市,宮野台１８番２２号,,40,219,8160963,,,,,,,2024-11-11,1,,,,,アニハリ,0
898,3320001020796,新規,0,2024-11-11,2024-11-11,株式会社ＭＩＥ,,株式会社,大分県,大分市,萩原１丁目３番５号,,44,201,8700921,,,,,,,2024-11-11,1,,,,,エムアイイー,0
902,3330003010638,新規,0,2024-11-11,2024-11-11,合同会社ロータス,,合同会社,熊本県,熊本市中央区,世安町５５‐２‐７０７,,43,101,8600823,,,,,,,2024-11-11,1,,,,,ロータス,0
904,3360003014446,新規,0,2024-11-11,2024-11-11,合同会社ｃｏｗ’ｓ宮古島,,合同会社,沖縄県,宮古島市,平良字東仲宗根１７４番地１,,47,214,9060007,,,,,,,2024-11-11,1,,,,,カウズミヤコジマ,0
906,3370003006814,新規,0,2024-11-11,2024-11-11,合同会社エイトカンパニー,,合同会社,宮城県,仙台市太白区,泉崎１丁目２０番５号ライオンズヴィアーレ長町南１０６,,04,104,9820031,,,,,,,2024-11-11,1,,,,,エイトカンパニー,0
910,3380001034898,新規,0,2024-11-11,2024-11-11,株式会社Ｄｉｓｃｉｐｌｅ,,株式会社,福島県,南相馬市,原町区日の出町１８６番地の８,,07,212,9750038,,,,,,,2024-11-11,1,,,,,ディサイプル,0
919,3440003001642,新規,0,2024-11-11,2024-11-11,合同会社おくのやま,,合同会社,北海道,函館市,松風町２０番３号,,01,202,0400035,,,,,,,2024-11-11,1,,,,,オクノヤマ,0
926,3490003001951,新規,0,2024-11-11,2024-11-11,合同会社ＯＬＮ,,合同会社,高知県,四万十市,双海６７０－１,,39,210,7870153,,,,,,,2024-11-11,1,,,,,,0
929,3700150127775,新規,0,2024-11-11,2024-11-11,ＨＯＬＹ　ＥＮＴＥＲＰＲＩＳＥＳ　ＰＶＴ　ＬＴＤ,,外国会社等,千葉県,山武郡横芝光町,木戸６８３６番地２－Ａ,,12,410,2891726,スリランカ民主社会主義共和国、ミーゴダ、ムダゲワッタロード、Ｎｏ．４３８／Ｇ／３４／Ｄ／２,,,,,,2024-11-11,1,,,,,ホリーエンタープライズプライベートリミテツド,0
933,4010001249739,新規,0,2024-11-11,2024-11-11,Ｔｒｕｓｔ＆Ｓａｆｅｔｙリサーチ株式会社,,株式会社,東京都,千代田区,永田町１丁目１１番２８号合人社東京永田町ビル２階,,13,101,1000014,,,,,,,2024-11-11,1,,,,,トラストアンドセーフティリサーチ,0
963,4010005039054,新規,0,2024-11-11,2024-11-11,一般社団法人創生会,,その他の設立登記法人,東京都,中央区,銀座５丁目４番６号,,13,102,1040061,,,,,,,2024-11-11,1,,,,,ソウセイカイ,0
972,4010401186227,新規,0,2024-11-11,2024-11-11,大林株式会社,,株式会社,東京都,港区,芝浦２丁目１７－１３保坂興産ビル３Ｆ－Ａ,,13,103,1080023,,,,,,,2024-11-11,1,,,,,オオバヤシ,0
973,4010401186276,新規,0,2024-11-11,2024-11-11,株式会社川上,,株式会社,東京都,港区,赤坂４丁目８番１９号赤坂フロントタウン３階,,13,103,1070052,,,,,,,2024-11-11,1,,,,,カワカミ,0
974,4010401186284,新規,0,2024-11-11,2024-11-11,東進株式会社,,株式会社,東京都,港区,虎ノ門１丁目２－１５虎ノ門ＹＳビル８階,,13,103,1050001,,,,,,,2024-11-11,1,,,,,トウシン,0
988,4010901056292,新規,0,2024-11-11,2024-11-11,株式会社月曜日から木曜日,,株式会社,東京都,世田谷区,太子堂４丁目１８番１５号マガザン三軒茶屋２－３階－３,,13,112,1540004,,,,,,,2024-11-11,1,,,,,ゲツヨウビカラモクヨウビ,0
990,4011001165703,新規,0,2024-11-11,2024-11-11,株式会社久和,,株式会社,東京都,渋谷区,神泉町２０番２１号,,13,113,1500045,,,,,,,2024-11-11,1,,,,,キュウワ,0
995,4011101109493,新規,0,2024-11-11,2024-11-11,株式会社ＫＩＭ,,株式会社,東京都,新宿区,西新宿３丁目３番１３号西新宿水間ビル６階,,13,104,1600023,,,,,,,2024-11-11,1,,,,,ケーアイエム,0
996,4011103015145,新規,0,2024-11-11,2024-11-11,合同会社テックイニシアチブ,,合同会社,東京都,新宿区,西新宿３丁目３番１３号西新宿水間ビル２Ｆ,,13,104,1600023,,,,,,,2024-11-11,1,,,,,テックイニシアチブ,0
997,4011203004527,新規,0,2024-11-11,2024-11-11,合同会社Ｂｒｏｗｎ　Ｊｕｉｃｅ　Ｃｏ,,合同会社,東京都,中野区,南台５丁目４番９－３０６号,,13,114,1640014,,,,,,,2024-11-11,1,,,,,ブラウンジュースコ,0
999,4011301030152,新規,0,2024-11-11,2024-11-11,株式会社ＪＰＨＯＴＯＬＡＶＩＥ　ＧＬＯＢＡＬ,,株式会社,東京都,杉並区,荻窪５丁目１１番１７号,,13,115,1670051,,,,,,,2024-11-11,1,,,,,ジェイフォトラビグローバル,0
1001,4011401026562,新規,0,2024-11-11,2024-11-11,株式会社ＣｒｅｙＬ,,株式会社,東京都,板橋区,中台１丁目４８番１１号・日商岩井上板橋マンション３０３,,13,119,1740064,,,,,,,2024-11-11,1,,,,,クレイル,0
1005,4011501031347,新規,0,2024-11-11,2024-11-11,株式会社西川興業,,株式会社,東京都,北区,王子３丁目２２番４号,,13,117,1140002,,,,,,,2024-11-11,1,,,,,ニシカワコウギョウ,0
1008,4011603004515,新規,0,2024-11-11,2024-11-11,クレディブースト合同会社,,合同会社,東京都,練馬区,東大泉１丁目３６－１０－１１０７,,13,120,1780063,,,,,,,2024-11-11,1,,,,,クレディブースト,0
1009,4011701027789,新規,0,2024-11-11,2024-11-11,株式会社ＴＭＫ　Ｃｅｎｔｒａｌ,,株式会社,東京都,江戸川区,南葛西１丁目１５番地７号グリーンホームズ南葛西ＶＩ３０５号,00136954,13,123,1340085,,,,,,,2024-11-11,1,,,,,ティエムケイセントラル,0
1010,4011701027797,新規,0,2024-11-11,2024-11-11,株式会社Ｃｒａｆｔ　Ｈｏｕｓｉｎｇ,,株式会社,東京都,江戸川区,東瑞江１丁目１－３丸喜ビル３０４号室,,13,123,1320014,,,,,,,2024-11-11,1,,,,,クラフトハウジング,0
1012,4011801045121,新規,0,2024-11-11,2024-11-11,株式会社ユニオンテック,,株式会社,東京都,葛飾区,亀有３丁目１３番１５,,13,122,1250061,,,,,,,2024-11-11,1,,,,,ユニオンテック,0
1013,4012401042467,新規,0,2024-11-11,2024-11-11,Ｔｏｋｙｏ　Ｓｏｕｎｄ　Ｌｉｎｋ株式会社,,株式会社,東京都,三鷹市,牟礼６丁目２５番５３－２０４号,,13,204,1810002,,,,,,,2024-11-11,1,,,,,トウキョウサウンドリンク,0
1016,4012701018555,新規,0,2024-11-11,2024-11-11,株式会社Ｔｒｕｆｆｌｅ　Ｕｎｉｖｅｒｓｅ,,株式会社,東京都,東久留米市,本町１丁目４－４３、１Ｆ,,13,222,2030053,,,,,,,2024-11-11,1,,,,,トリュフユニバース,0
1017,4012801023562,新規,0,2024-11-11,2024-11-11,株式会社ａｅｒｏｔａ,,株式会社,東京都,国分寺市,日吉町２丁目９番地４２,,13,214,1850032,,,,,,,2024-11-11,1,,,,,エアロタ,0
1024,4013303007384,新規,0,2024-11-11,2024-11-11,ＢＥＥ　ＡＵＴＯ合同会社,,合同会社,東京都,豊島区,南池袋１丁目９番１８号２１８号室,,13,116,1710022,,,,,,,2024-11-11,1,,,,,ビーオート,0
1032,4020001159978,新規,0,2024-11-11,2024-11-11,ＡＮＫ株式会社,,株式会社,神奈川県,横浜市西区,中央２丁目４４番－３－１０３号,,14,103,2200051,,,,,,,2024-11-11,1,,,,,エーエヌケー,0
1034,4020003027241,新規,0,2024-11-11,2024-11-11,乙村電光合同会社,,合同会社,神奈川県,横浜市金沢区,六浦２丁目１２番１４―２号,,14,108,2360031,,,,,,,2024-11-11,1,,,,,オトムラデンコウ,0
1038,4021001083714,新規,0,2024-11-11,2024-11-11,株式会社桃李,,株式会社,神奈川県,三浦郡葉山町,下山口１７３６番地の４,,14,301,2400116,,,,,,,2024-11-11,1,,,,,トウリ,0
1039,4021003015203,新規,0,2024-11-11,2024-11-11,合同会社ｆｒｏｎｔｌｉｎｅ,,合同会社,神奈川県,相模原市南区,相模大野５丁目２４番２０号パークホームＫ１０８号,,14,153,2520303,,,,,,,2024-11-11,1,,,,,フロントライン,0
1040,4021003015211,新規,0,2024-11-11,2024-11-11,湘南えふまる合同会社,,合同会社,神奈川県,藤沢市,鵠沼桜が岡１丁目１７―３７,,14,205,2510027,,,,,,,2024-11-11,1,,,,,ショウナンエフマル,0
1043,4030001163310,新規,0,2024-11-11,2024-11-11,アルファ情報システム株式会社,,株式会社,埼玉県,さいたま市大宮区,上小町５３５番地,,11,103,3300855,,,,,,,2024-11-11,1,,,,,アルファジョウホウシステム,0
1056,4040001136059,新規,0,2024-11-11,2024-11-11,株式会社ユニティワークス,,株式会社,千葉県,市川市,末広１丁目１番１－３０３号,,12,203,2720121,,,,,,,2024-11-11,1,,,,,ユニティワークス,0
1057,4040001136075,新規,0,2024-11-11,2024-11-11,株式会社エリックス,,株式会社,千葉県,千葉市稲毛区,小深町６５番地２－Ｃ号室,,12,103,2630003,,,,,,,2024-11-11,1,,,,,エリックス,0
1060,4040003026159,新規,0,2024-11-11,2024-11-11,合同会社ＷＨＩＴＥ,,合同会社,千葉県,船橋市,習志野台４丁目２７番１７号,,12,204,2740063,,,,,,,2024-11-11,1,,,,,ホワイト,0
1064,4050001055662,新規,0,2024-11-11,2024-11-11,株式会社ドリーム,,株式会社,茨城県,つくば市,高野４０４番地,,08,220,3002642,,,,,,,2024-11-11,1,,,,,ドリーム,0
1065,4050001055679,新規,0,2024-11-11,2024-11-11,株式会社アルス,,株式会社,茨城県,水戸市,双葉台４丁目２５７番地３,,08,201,3114145,,,,,,,2024-11-11,1,,,,,アルス,0
1072,4080001026586,新規,0,2024-11-11,2024-11-11,株式会社Ｐｏｒｔｌａｎｄ,,株式会社,静岡県,藤枝市,岡部町内谷９０２番地の２,,22,214,4211131,,,,,,,2024-11-11,1,,,,,ポートランド,0
1076,4080101025117,新規,0,2024-11-11,2024-11-11,株式会社磯本建業,,株式会社,静岡県,伊豆市,土肥７０３番地玉木ハイツ１０２号,,22,222,4103302,,,,,,,2024-11-11,1,,,,,イソモトケンギョウ,0
1083,4090003002675,新規,0,2024-11-11,2024-11-11,合同会社ざいや,,合同会社,山梨県,甲府市,上曽根町１６５３番地５,,19,201,4001501,,,,,,,2024-11-11,1,,,,,ザイヤ,0
1092,4120001270106,新規,0,2024-11-11,2024-11-11,株式会社ＨＩＬＯ　ＣＬＡＳＳＩＣＯｈａｉｒ,,株式会社,大阪府,枚方市,東香里１丁目２４番４８号,,27,210,5730075,,,,,,,2024-11-11,1,,,,,ヒロクラシコヘアー,0
1093,4120001270114,新規,0,2024-11-11,2024-11-11,株式会社コンパス関西,,株式会社,大阪府,大阪市中央区,備後町３丁目６番１４号アーバネックス備後町ビル９０２,,27,128,5410051,,,,,,,2024-11-11,1,,,,,コンパスカンサイ,0
1094,4120001270130,新規,0,2024-11-11,2024-11-11,株式会社Ｚｏｎａ　ｌｕｃｅ,,株式会社,大阪府,大阪市住吉区,大領２丁目８番３５号,,27,120,5580001,,,,,,,2024-11-11,1,,,,,ゾーナルーチェ,0
1095,4120001270139,新規,0,2024-11-11,2024-11-11,青流漢医文化伝承株式会社,,株式会社,大阪府,大阪市北区,長柄中２丁目５番３０号,,27,127,5310062,,,,,,,2024-11-11,1,,,,,セイリュウカンイブンカデンショウ,0
1096,4120001270147,新規,0,2024-11-11,2024-11-11,星一株式会社,,株式会社,大阪府,大阪市東成区,中道３丁目３－３１－４０２号室,,27,115,5370025,,,,,,,2024-11-11,1,,,,,セイイチ,0
1097,4120001270155,新規,0,2024-11-11,2024-11-11,株式会社ＴｉＭ,,株式会社,大阪府,大阪市西区,江戸堀１丁目２３番１９号グラン・ビルド江戸堀７０４,,27,106,5500002,,,,,,,2024-11-11,1,,,,,ティム,0
1102,4120901050012,新規,0,2024-11-11,2024-11-11,株式会社ＷＡＲＡＩ,,株式会社,大阪府,豊中市,浜１丁目２１－２,,27,203,5610817,,,,,,,2024-11-11,1,,,,,ワライ,0
1108,4130001078283,新規,0,2024-11-11,2024-11-11,株式会社ネクストマテリアル,,株式会社,京都府,京都市中京区,西ノ京職司町４番地１０,,26,104,6048381,,,,,,,2024-11-11,1,,,,,ネクストマテリアル,0
1109,4130001078325,新規,0,2024-11-11,2024-11-11,株式会社カイジュー,,株式会社,京都府,京都市左京区,浄土寺馬場町１６番地ＣＡＳＡＯＫＡＭＯＴＯ３０２号室,,26,103,6068412,,,,,,,2024-11-11,1,,,,,カイジュー,0
1115,4140001136271,新規,0,2024-11-11,2024-11-11,株式会社オール,,株式会社,兵庫県,加古川市,米田町平津２２４番地の１,,28,210,6750054,,,,,,,2024-11-11,1,,,,,オール,0
1116,4140001136354,新規,0,2024-11-11,2024-11-11,株式会社セレクトワンズ,,株式会社,兵庫県,神戸市西区,岩岡町岩岡１２０１－１,,28,111,6512401,,,,,,,2024-11-11,1,,,,,セレクトワンズ,0
1117,4140001136379,新規,0,2024-11-11,2024-11-11,株式会社Ｓ　ＰＬＡＮＮＩＮＧ,,株式会社,兵庫県,西宮市,泉町１番７号,,28,204,6620932,,,,,,,2024-11-11,1,,,,,エスプランニング,0
1123,4140003021298,新規,0,2024-11-11,2024-11-11,合同会社市村企画,,合同会社,兵庫県,神戸市垂水区,千代が丘１丁目６番１５－３号,,28,108,6550018,,,,,,,2024-11-11,1,,,,,イチムラキカク,0
1125,4150005009638,新規,0,2024-11-11,2024-11-11,特定非営利活動法人歌姫のもり人会,,その他の設立登記法人,奈良県,奈良市,六条五丁目１０番１７号株式会社アクティブエナジー内,,29,201,6300000,,,,,,,2024-11-11,1,,,,,ウタヒメノモリビトカイ,0
1140,4180001164046,新規,0,2024-11-11,2024-11-11,株式会社ＱＲＥＡＴＩＳＡＮ,,株式会社,愛知県,名古屋市天白区,植田３丁目１２０９番地１サンテラスタカギ１階１－１,,23,116,4680051,,,,,,,2024-11-11,1,,,,,クリエイティザン,0
1143,4180003027597,新規,0,2024-11-11,2024-11-11,合同会社ｓｕｓｕｒｒｕｓ,,合同会社,愛知県,名古屋市千種区,今池５丁目１６番地２９号ブリス４０１号,,23,101,4640850,,,,,,,2024-11-11,1,,,,,ササラス,0
1144,4180301039204,新規,0,2024-11-11,2024-11-11,スマイル株式会社,,株式会社,愛知県,豊橋市,飯村町字西山７番地３４６,,23,201,4400833,,,,,,,2024-11-11,1,,,,,スマイル,0
1149,4200001043115,新規,0,2024-11-11,2024-11-11,株式会社ワイエスグラム,,株式会社,岐阜県,羽島市,正木町不破一色４９２番地,,21,209,5016228,,,,,,,2024-11-11,1,,,,,ワイエスグラム,0
1153,4230003002330,新規,0,2024-11-11,2024-11-11,合同会社エステート北陸,,合同会社,富山県,富山市,泉町２丁目２番地１,,16,201,9300042,,,,,,,2024-11-11,1,,,,,エステートホクリク,0
1154,4240001064066,新規,0,2024-11-11,2024-11-11,株式会社奥平牧場,,株式会社,広島県,神石郡神石高原町,油木乙２１７９番地１,,34,545,7201812,,,,,,,2024-11-11,1,,,,,オクダイラボクジョウ,0
1155,4240001064082,新規,0,2024-11-11,2024-11-11,高田保険企画株式会社,,株式会社,広島県,福山市,高美台１１番６号,,34,207,7200024,,,,,,,2024-11-11,1,,,,,タカタホケンキカク,0
1156,4240001064099,新規,0,2024-11-11,2024-11-11,株式会社ヒロトク,,株式会社,広島県,東広島市,西条町寺家５７１－５,,34,212,7390041,,,,,,,2024-11-11,1,,,,,ヒロトク,0
1161,4260001039628,新規,0,2024-11-11,2024-11-11,株式会社ａｍ,,株式会社,岡山県,岡山市北区,表町１丁目１番２６号,,33,101,7000822,,,,,,,2024-11-11,1,,,,,エーエム,0
1165,4290001107844,新規,0,2024-11-11,2024-11-11,静宇株式会社,,株式会社,福岡県,福岡市早良区,百道１丁目２７－２５,,40,137,8140006,,,,,,,2024-11-11,1,,,,,セイウ,0
1166,4290001107852,新規,0,2024-11-11,2024-11-11,株式会社神湊シーサイドホテル,,株式会社,福岡県,宗像市,神湊６５１番地２,,40,220,8113501,,,,,,,2024-11-11,1,,,,,コウノミナトシーサイドホテル,0
1167,4290001107877,新規,0,2024-11-11,2024-11-11,ｍｉｚｗａｙ株式会社,,株式会社,福岡県,久留米市,山川追分２丁目６番５－３号,,40,203,8390814,,,,,,,2024-11-11,1,,,,,ミズウェイ,0
1168,4290001107902,新規,0,2024-11-11,2024-11-11,株式会社伊都安蔵里,,株式会社,福岡県,糸島市,川付８８２番地,,40,230,8191155,,,,,,,2024-11-11,1,,,,,イトアグリ,0
1185,4310001019319,新規,0,2024-11-11,2024-11-11,ＰＲＯＧＲＥＳＳ株式会社,,株式会社,長崎県,西彼杵郡長与町,高田郷２１４０番地,,42,307,8512127,,,,,,,2024-11-11,1,,,,,プログレス,0
1187,4310003004896,新規,0,2024-11-11,2024-11-11,合同会社Ｋ　ＤＲＥＡＭ,,合同会社,長崎県,長崎市,柳谷町２３番４５号,,42,201,8528046,,,,,,,2024-11-11,1,,,,,ケイドリーム,0
1190,4320001020795,新規,0,2024-11-11,2024-11-11,株式会社ＹＵＫＩ,,株式会社,大分県,大分市,大字羽田６８２番地,,44,201,8700942,,,,,,,2024-11-11,1,,,,,ユキ,0
1192,4330001032641,新規,0,2024-11-11,2024-11-11,株式会社駿航食品,,株式会社,熊本県,菊池市,七城町菰入６７６番地１,,43,210,8611354,,,,,,,2024-11-11,1,,,,,シュンコウショクヒン,0
1194,4330003010637,新規,0,2024-11-11,2024-11-11,合同会社ｒｉｖｒｅ,,合同会社,熊本県,熊本市東区,健軍１丁目２０番１２号,,43,102,8620911,,,,,,,2024-11-11,1,,,,,リブレ,0
1197,4350001019273,新規,0,2024-11-11,2024-11-11,株式会社洲崎コンサルティング,,株式会社,宮崎県,宮崎市,旭１丁目８番１９号楠並木ビル２階,,45,201,8800803,,,,,,,2024-11-11,1,,,,,スザキコンサルティング,0
1201,4370001051885,新規,0,2024-11-11,2024-11-11,オッジ株式会社,,株式会社,宮城県,仙台市若林区,新寺４丁目３番１号ＣＯＯＲＳＩ－２０２,00136942,04,103,9840051,,,,,,,2024-11-11,1,,,,,オッジ,0
1211,4410001013988,新規,0,2024-11-11,2024-11-11,株式会社仁匠工務店,,株式会社,秋田県,潟上市,天王字鶴沼台９３番８,,05,211,0100201,,,,,,,2024-11-11,1,,,,,ジンショウコウムテン,0
1214,4430001093038,新規,0,2024-11-11,2024-11-11,皆笑株式会社,,株式会社,北海道,札幌市清田区,清田六条１丁目５番８号,,01,110,0040846,,,,,,,2024-11-11,1,,,,,カイショウ,0
1217,4450001014446,新規,0,2024-11-11,2024-11-11,株式会社プラスイット,,株式会社,北海道,旭川市,旭町一条１４丁目２１４６番地の９０,,01,204,0700831,,,,,,,2024-11-11,1,,,,,プラスイット,0
1224,4480001012645,新規,0,2024-11-11,2024-11-11,株式会社村部畜産,,株式会社,徳島県,板野郡上板町,瀬部５７７番地,,36,405,7711350,,,,,,,2024-11-11,1,,,,,ムラベチクサン,0
1226,4700150127774,新規,0,2024-11-11,2024-11-11,新義成実宗　名泉山　龍水寺,,その他,愛知県,名古屋市東区,泉１丁目３－４０,,23,102,4610001,,,,,,,2024-11-11,1,,,,,シンギジョウジツシュウメイセンザンリュウスイジ,0
1231,5010001249639,新規,0,2024-11-11,2024-11-11,株式会社ＤＷＪ,,株式会社,東京都,千代田区,紀尾井町３番６号,,13,101,1020094,,,,,,,2024-11-11,1,,,,,ディーダブルジェー,0
1232,5010003045350,新規,0,2024-11-11,2024-11-11,ＧｙｒＦａｌｃｏｎ　Ｊａｐａｎ合同会社,,合同会社,東京都,千代田区,大手町１丁目７番２号東京サンケイビル２７階,,13,101,1000004,,,,,,,2024-11-11,1,,,,,グリファルコンジャパン,0
1233,5010003045425,新規,0,2024-11-11,2024-11-11,コネクトアイ合同会社,,合同会社,東京都,千代田区,神田須田町１丁目７番８号ＶＯＲＴ秋葉原ＩＶ２Ｆ,00136948,13,101,1010041,,,,,,,2024-11-11,1,,,,,コネクトアイ,0
1234,5010003045433,新規,0,2024-11-11,2024-11-11,合同会社アドバンス,,合同会社,東京都,千代田区,神田須田町１丁目７番８号ＶＯＲＴ秋葉原ＩＶ２Ｆ,00136945,13,101,1010041,,,,,,,2024-11-11,1,,,,,アドバンス,0
1251,5010005039061,新規,0,2024-11-11,2024-11-11,一般社団法人日本未来デザイン協会,,その他の設立登記法人,東京都,千代田区,神田須田町１丁目７番８号ＶＯＲＴ秋葉原ＩＶ２Ｆ,,13,101,1010041,,,,,,,2024-11-11,1,,,,,ニホンミライデザインキョウカイ,0
1259,5010401186127,新規,0,2024-11-11,2024-11-11,チャンス株式会社,,株式会社,東京都,港区,南青山３丁目１番３６号青山丸竹ビル６Ｆ,,13,103,1070062,,,,,,,2024-11-11,1,,,,,チャンス,0
1260,5010401186192,新規,0,2024-11-11,2024-11-11,株式会社Ｃ１８６,,株式会社,東京都,港区,南青山３丁目１番３６号青山丸竹ビル６Ｆ,,13,103,1070062,,,,,,,2024-11-11,1,,,,,シーイチハチロク,0
1261,5010401186218,新規,0,2024-11-11,2024-11-11,ＧＲＥＥ　Ｓｔｕｄｉｏｓ株式会社,,株式会社,東京都,港区,六本木６丁目１１番１号,,13,103,1060032,,,,,,,2024-11-11,1,,,,,グリースタジオズ,0
1262,5010401186234,新規,0,2024-11-11,2024-11-11,株式会社Ｆｏｏｄ　ｃｒｅａｔｏｒ　Ｔｏｐ　Ｔｅａｍ,,株式会社,東京都,港区,赤坂３丁目１４番７号ユニ赤坂ビル３階,,13,103,1070052,,,,,,,2024-11-11,1,,,,,フードクリエイタートップチーム,0
1263,5010401186291,新規,0,2024-11-11,2024-11-11,Ｖｉｒｉｈｕｂ　Ｊａｐａｎ　Ｈｏｌｄｉｎｇ株式会社,,株式会社,東京都,港区,西麻布１丁目４番３６－２１４号,,13,103,1060031,,,,,,,2024-11-11,1,,,,,ビリハブジャパンホールディング,0
1268,5010403033748,新規,0,2024-11-11,2024-11-11,福井蓄電池発電所合同会社,,合同会社,東京都,港区,西麻布１丁目４番３６－２１４号,,13,103,1060031,,,,,,,2024-11-11,1,,,,,フクイチクデンチハツデンショ,0
1270,5010501053144,新規,0,2024-11-11,2024-11-11,Ｆｉｎｅ　Ｊｅｗｅｌｒｙ株式会社,,株式会社,東京都,台東区,上野５丁目１８番４号ダイヤオフィス７０２号室,,13,106,1100005,,,,,,,2024-11-11,1,,,,,ファインジュエリー,0
1275,5010601066260,新規,0,2024-11-11,2024-11-11,株式会社ＡＺｅｓｔ　Ｃｏｎｓｕｌｔｉｎｇ,,株式会社,東京都,江東区,塩浜２丁目２４番１０－６２１号,,13,108,1350043,,,,,,,2024-11-11,1,,,,,アゼストコンサルティング,0
1279,5010703007435,新規,0,2024-11-11,2024-11-11,フォレストバレー合同会社,,合同会社,東京都,品川区,中延５丁目１３－１５市村ビル２Ｆ,,13,109,1420053,,,,,,,2024-11-11,1,,,,,フォレストバレー,0
1280,5010901056283,新規,0,2024-11-11,2024-11-11,株式会社からだにいいコト研究所,,株式会社,東京都,世田谷区,桜丘２丁目６番１３号,,13,112,1560054,,,,,,,2024-11-11,1,,,,,カラダニイイコトケンキュウジョ,0
1282,5011001165256,新規,0,2024-11-11,2024-11-11,株式会社Ｏｍｕｓｕｂｉ,,株式会社,東京都,渋谷区,恵比寿西２丁目８番４号,,13,113,1500021,,,,,,,2024-11-11,1,,,,,,0
1283,5011001165446,新規,0,2024-11-11,2024-11-11,株式会社ＨＥＡＲＴ,,株式会社,東京都,渋谷区,神南１丁目１１－４ＦＰＧリンクス神南５階,,13,113,1500041,,,,,,,2024-11-11,1,,,,,ハート,0
1284,5011001165636,新規,0,2024-11-11,2024-11-11,株式会社Ｈｉｇｈｌｉｇｈｔ,,株式会社,東京都,渋谷区,宇田川町３－７ヒューリック渋谷公園通りビル５Ｆ－１０８,,13,113,1500042,,,,,,,2024-11-11,1,,,,,ハイライト,0
1285,5011001165710,新規,0,2024-11-11,2024-11-11,株式会社ＳＯＺＯ,,株式会社,東京都,目黒区,大橋２丁目７番７号ＲＡＤＩＡＮ４０５,,13,110,1530044,,,,,,,2024-11-11,1,,,,,ソウゾウ,0
1286,5011001165727,新規,0,2024-11-11,2024-11-11,株式会社デジタルマーケティングエージェンシー,,株式会社,東京都,目黒区,下目黒１丁目１－１４コノトラビル７Ｆ,,13,110,1530064,,,,,,,2024-11-11,1,,,,,デジタルマーケティングエージェンシー,0
1287,5011001165801,新規,0,2024-11-11,2024-11-11,株式会社耳つぼリフレクソロジー協会,,株式会社,東京都,渋谷区,広尾２丁目１７番２８号,,13,113,1500012,,,,,,,2024-11-11,1,,,,,ミミツボリフレクソロジーキョウカイ,0
1289,5011003020351,新規,0,2024-11-11,2024-11-11,合同会社プリュジアエル,,合同会社,東京都,渋谷区,恵比寿西２丁目８番４号５階,,13,113,1500021,,,,,,,2024-11-11,1,,,,,プリュジアエル,0
1292,5011103015160,新規,0,2024-11-11,2024-11-11,合同会社サンライズ,,合同会社,東京都,新宿区,西新宿３丁目３番１３号西新宿水間ビル６階,,13,104,1600023,,,,,,,2024-11-11,1,,,,,サンライズ,0
1295,5011203004526,新規,0,2024-11-11,2024-11-11,合同会社エコンテック３７号,,合同会社,東京都,中野区,江古田３丁目１４番３号,,13,114,1650022,,,,,,,2024-11-11,1,,,,,エコンテックサンジュウナナゴウ,0
1297,5011505002657,新規,0,2024-11-11,2024-11-11,一般社団法人全日本中国食品総商会,,その他の設立登記法人,東京都,荒川区,東日暮里５丁目４５－１２いかるがビル７０３室,,13,118,1160014,,,,,,,2024-11-11,1,,,,,ゼンニホンチュウゴクショクヒンソウショウカイ,0
1299,5011803006541,新規,0,2024-11-11,2024-11-11,フォートゥモロー合同会社,,合同会社,東京都,足立区,古千谷本町４丁目６番６号,,13,121,1210832,,,,,,,2024-11-11,1,,,,,フォートゥモロー,0
1300,5012403006840,新規,0,2024-11-11,2024-11-11,合同会社ＭＯＲＩメディカルパートナーズ,,合同会社,東京都,三鷹市,下連雀３丁目３６番１ー１９０９号,,13,204,1810013,,,,,,,2024-11-11,1,,,,,モリメディカルパートナーズ,0
1309,5020001159977,新規,0,2024-11-11,2024-11-11,株式会社建成工業,,株式会社,神奈川県,横浜市瀬谷区,瀬谷４丁目１１番９号エステートピア瀬谷１Ｆ,,14,114,2460031,,,,,,,2024-11-11,1,,,,,ケンセイコウギョウ,0
1310,5020001159985,新規,0,2024-11-11,2024-11-11,株式会社ｒｅｚｒ,,株式会社,神奈川県,横浜市西区,浅間町１丁目４番３号ウィザードビル４０２,,14,103,2200072,,,,,,,2024-11-11,1,,,,,レーザー,0
1311,5020001160010,新規,0,2024-11-11,2024-11-11,株式会社Ｌｉｋｓ,,株式会社,神奈川県,横浜市旭区,都岡町１７－２メドウズ１００,,14,112,2410805,,,,,,,2024-11-11,1,,,,,リックス,0
1312,5020001160051,新規,0,2024-11-11,2024-11-11,株式会社スロープアップ,,株式会社,神奈川県,川崎市川崎区,小田４丁目３２番地８号,,14,131,2100846,,,,,,,2024-11-11,1,,,,,スロープアップ,0
1313,5020001160167,新規,0,2024-11-11,2024-11-11,株式会社松柏志,,株式会社,神奈川県,横浜市中区,千代崎町２丁目４７,,14,104,2310864,,,,,,,2024-11-11,1,,,,,ショウハクシ,0
1315,5020003027216,新規,0,2024-11-11,2024-11-11,ハイパーク合同会社,,合同会社,神奈川県,川崎市多摩区,中野島４丁目３番５２号サンビレッジアムールＣ１０２,,14,135,2140012,,,,,,,2024-11-11,1,,,,,ハイパーク,0
1322,5021001083713,新規,0,2024-11-11,2024-11-11,株式会社ハイキャット,,株式会社,神奈川県,相模原市中央区,上矢部２丁目２４番３３号,,14,152,2520201,,,,,,,2024-11-11,1,,,,,ハイキャット,0
1323,5021001083721,新規,0,2024-11-11,2024-11-11,株式会社湘南ＭＴＣ,,株式会社,神奈川県,藤沢市,弥勒寺４丁目９番４号,,14,205,2510016,,,,,,,2024-11-11,1,,,,,ショウナンエムティーシー,0
1326,5021003015202,新規,0,2024-11-11,2024-11-11,合同会社ｕｃｈｉｋｏ,,合同会社,神奈川県,秦野市,上大槻５８９番地の７上大槻３号棟１階,,14,211,2570005,,,,,,,2024-11-11,1,,,,,ウチコ,0
1328,5021005013212,新規,0,2024-11-11,2024-11-11,一般社団法人いきいきライフ協会大和,,その他の設立登記法人,神奈川県,大和市,渋谷１丁目１番地１９,,14,213,2420023,,,,,,,2024-11-11,1,,,,,イキイキライフキョウカイヤマト,0
1345,5030001163326,新規,0,2024-11-11,2024-11-11,株式会社モロテック,,株式会社,埼玉県,飯能市,大字前ヶ貫２６６番６４,,11,209,3570043,,,,,,,2024-11-11,1,,,,,モロテック,0
1354,5040001136132,新規,0,2024-11-11,2024-11-11,株式会社ＦＬＩＦＥ,,株式会社,千葉県,八千代市,勝田台北２丁目２６―１５,,12,221,2760020,,,,,,,2024-11-11,1,,,,,エフライフ,0
1360,5040003026109,新規,0,2024-11-11,2024-11-11,Ｍｅｔａｍｏｖｅ　Ｇｙｍ合同会社,,合同会社,千葉県,君津市,西坂田２丁目６－１ＭｅｔａｍｏｖｅＧｙｍ,,12,225,2991145,,,,,,,2024-11-11,1,,,,,メタムーブジム,0
1361,5040003026133,新規,0,2024-11-11,2024-11-11,合同会社Ｋ‐Ｃｏｎｎｅｃｔ,,合同会社,千葉県,流山市,南流山９丁目１番地の５ルピアコート南流山６０４,,12,220,2700163,,,,,,,2024-11-11,1,,,,,ケーコネクト,0
1362,5040003026158,新規,0,2024-11-11,2024-11-11,合同会社Ｐｒｏｓｐｅｒｉｔｙ,,合同会社,千葉県,船橋市,前原東２丁目１１番２号,,12,204,2740824,,,,,,,2024-11-11,1,,,,,プロスペリティ,0
1370,5050001055620,新規,0,2024-11-11,2024-11-11,株式会社学園ファーム,,株式会社,茨城県,水戸市,鯉淵町５９６５,,08,201,3190323,,,,,,,2024-11-11,1,,,,,ガクエンファーム,0
1374,5070001042352,新規,0,2024-11-11,2024-11-11,トガサキ株式会社,,株式会社,群馬県,館林市,富士原町１１３２番地４６,,10,207,3740041,,,,,,,2024-11-11,1,,,,,トガサキ,0
1376,5070003005654,新規,0,2024-11-11,2024-11-11,合同会社ＥＫＯ　ＤＯＲＡＩＢＵ,,合同会社,群馬県,高崎市,吉井町本郷３７９番地１,,10,202,3702128,,,,,,,2024-11-11,1,,,,,エコドライブ,0
1381,5080401027563,新規,0,2024-11-11,2024-11-11,株式会社ＯＨＡ,,株式会社,静岡県,浜松市中央区,上西町１００９番地,,22,138,4350048,,,,,,,2024-11-11,1,,,,,オーエイチエー,0
1386,5110005017156,新規,0,2024-11-11,2024-11-11,医療法人社団おばた耳鼻科,,その他の設立登記法人,新潟県,村上市,新町６番５３号,,15,212,9580834,,,,,,,2024-11-11,1,,,,,オバタジビカ,0
1402,5120001270154,新規,0,2024-11-11,2024-11-11,株式会社リンク,,株式会社,大阪府,寝屋川市,香里本通町１０番８号アザレアガーデンハイツ１０３号室,,27,215,5720082,,,,,,,2024-11-11,1,,,,,リンク,0
1414,5122001038606,新規,0,2024-11-11,2024-11-11,株式会社ＳＥＮＢＡ　ＨＤ,,株式会社,大阪府,大東市,諸福５丁目１２番３０号,,27,218,5740044,,,,,,,2024-11-11,1,,,,,センバエイチディー,0
1417,5130001078274,新規,0,2024-11-11,2024-11-11,株式会社ＴｒｉｎｉｔｙＷａｙ,,株式会社,京都府,京都市西京区,川島東代町８４番地３ヴィスターリ桂１０２,,26,111,6158101,,,,,,,2024-11-11,1,,,,,トリニティウェイ,0
1418,5130001078282,新規,0,2024-11-11,2024-11-11,株式会社サードマテリアル,,株式会社,京都府,京都市中京区,西ノ京職司町４番地１０,,26,104,6048381,,,,,,,2024-11-11,1,,,,,サードマテリアル,0
1426,5140001136378,新規,0,2024-11-11,2024-11-11,株式会社ＯＮＥ　ＨＯＭＥＳ,,株式会社,兵庫県,姫路市,安田４丁目１６９番地,,28,201,6700955,,,,,,,2024-11-11,1,,,,,ワンホームズ,0
1430,5140003021306,新規,0,2024-11-11,2024-11-11,合同会社一美,,合同会社,兵庫県,明石市,大久保町高丘５丁目３－１３－６１,,28,203,6740057,,,,,,,2024-11-11,1,,,,,イチミ,0
1435,5160001026346,新規,0,2024-11-11,2024-11-11,株式会社Ｋｉｎｄ　Ｔ・Ｍ,,株式会社,滋賀県,犬上郡豊郷町,大字三ツ池１０７番地１（２－２号）,,25,441,5291177,,,,,,,2024-11-11,1,,,,,カインドティーエム,0
1446,5180001163914,新規,0,2024-11-11,2024-11-11,株式会社ＴＴ,,株式会社,愛知県,名古屋市緑区,黒沢台４丁目１６０３番地２,,23,114,4580003,,,,,,,2024-11-11,1,,,,,ティーティー,0
1454,5180003027588,新規,0,2024-11-11,2024-11-11,ＮＣ合同会社,,合同会社,愛知県,名古屋市北区,清水２丁目２２番８号,,23,103,4620844,,,,,,,2024-11-11,1,,,,,エヌシー,0
1455,5180003027605,新規,0,2024-11-11,2024-11-11,合同会社やまぐち図案室,,合同会社,愛知県,瀬戸市,苗場町１０８番地の３,,23,204,4890983,,,,,,,2024-11-11,1,,,,,ヤマグチズアンシツ,0
1459,5200001043106,新規,0,2024-11-11,2024-11-11,株式会社Ｂｕｅｎ　Ｃａｍｉｎｏ,,株式会社,岐阜県,可児市,虹ケ丘２丁目３７番地,,21,214,5090261,,,,,,,2024-11-11,1,,,,,ブエンカミーノ,0
1465,5220003003881,新規,0,2024-11-11,2024-11-11,合同会社トリテック,,合同会社,石川県,白山市,倉光１丁目１２‐１Ｆ,,17,210,9240865,,,,,,,2024-11-11,1,,,,,トリテック,0
1468,5240001064081,新規,0,2024-11-11,2024-11-11,株式会社まんちょう,,株式会社,広島県,尾道市,向島町２３８７番地１０,,34,205,7220073,,,,,,,2024-11-11,1,,,,,マンチョウ,0
1475,5260001039619,新規,0,2024-11-11,2024-11-11,株式会社アップライズ,,株式会社,岡山県,岡山市北区,下中野３５０番地１１７,,33,101,7000973,,,,,,,2024-11-11,1,,,,,アップライズ,0
1476,5260001039627,新規,0,2024-11-11,2024-11-11,株式会社ＧＴＳ,,株式会社,岡山県,倉敷市,児島下の町９丁目１４番７号,,33,202,7110906,,,,,,,2024-11-11,1,,,,,ジーティーエス,0
1478,5260003004967,新規,0,2024-11-11,2024-11-11,合同会社備前日生クリーニング,,合同会社,岡山県,備前市,日生町日生６４４番地５,,33,211,7013204,,,,,,,2024-11-11,1,,,,,ビゼンヒナセクリーニング,0
1485,5290001107851,新規,0,2024-11-11,2024-11-11,株式会社Ｒｉｉホーム,,株式会社,福岡県,福岡市西区,石丸２丁目５番２号ＳｕｎＧａｒａｇｅ石丸２,,40,135,8190025,,,,,,,2024-11-11,1,,,,,リーホーム,0
1486,5290001107876,新規,0,2024-11-11,2024-11-11,株式会社ＳｏｌＦａｃｅ,,株式会社,福岡県,福岡市博多区,博多駅東３丁目３番３号,,40,132,8120013,,,,,,,2024-11-11,1,,,,,ソルフェイス,0
1487,5290003016027,新規,0,2024-11-11,2024-11-11,合同会社ＫＳファンド３,,合同会社,福岡県,福岡市博多区,博多駅前４丁目３番１８号,,40,132,8120011,,,,,,,2024-11-11,1,,,,,ケイエスファンドスリー,0
1488,5290003016035,新規,0,2024-11-11,2024-11-11,合同会社Ｙｏｈｏ　ｃｌｏｔｈ,,合同会社,福岡県,福岡市城南区,西片江２丁目２５－２モナーク西片江１０２,,40,136,8140141,,,,,,,2024-11-11,1,,,,,ヨホクロス,0
1494,5300005007212,新規,0,2024-11-11,2024-11-11,特定非営利活動法人ハマミライ,,その他の設立登記法人,佐賀県,鹿島市,大字中村２６１番地,,41,207,8491304,,,,,,,2024-11-11,1,,,,,ハマミライ,0
1502,5310005008812,新規,0,2024-11-11,2024-11-11,特定非営利活動法人教育新未来,,その他の設立登記法人,長崎県,大村市,武部町８２８番地１２,,42,205,8560035,,,,,,,2024-11-11,1,,,,,キョウイクシンミライ,0
1507,5320001020803,新規,0,2024-11-11,2024-11-11,株式会社パネルズ,,株式会社,大分県,大分市,碩田町３丁目１番１号,,44,201,8700048,,,,,,,2024-11-11,1,,,,,パネルズ,0
1516,5380001034896,新規,0,2024-11-11,2024-11-11,株式会社カイロスクエスト,,株式会社,福島県,福島市,西中央５丁目５９番地,,07,201,9608074,,,,,,,2024-11-11,1,,,,,カイロスクエスト,0
1517,5380001034905,新規,0,2024-11-11,2024-11-11,ＫＵＲＵＲＩ株式会社,,株式会社,福島県,白河市,大桜岡前１０８番地１０,,07,205,9610051,,,,,,,2024-11-11,1,,,,,クルリ,0
1529,5430001093037,新規,0,2024-11-11,2024-11-11,株式会社ＧＡＫＵ,,株式会社,北海道,札幌市清田区,美しが丘二条４丁目１－１２,,01,110,0040812,,,,,,,2024-11-11,1,,,,,ガク,0
1536,5460103001662,新規,0,2024-11-11,2024-11-11,合同会社オーシャン,,合同会社,北海道,帯広市,西十二条北６丁目６番地２,,01,207,0800042,,,,,,,2024-11-11,1,,,,,オーシャン,0
1541,5700150127773,新規,0,2024-11-11,2024-11-11,ＷＥＮＺＨＯＵＦＵＲＵＩＳＩＪＩＡＮＣＡＩＹＯＵＸＩＡＮＧＯＮＧＳＩ,,外国会社等,,,,,,,,Ｎｏ．３－９　Ｄｏｎｇｇｏｎｇ　Ｒｏａｄ，Ｈａｉｃｈｅｎｇ　Ｓｔｒｅｅｔ，Ｗｅｎｚｈｏｕ　Ｅｃｏｎｏｍｉｃ　ａｎｄ　Ｔｅｃｈｎｏｌｏｇｉｃａｌ　Ｄｅｖｅｌｏｐｍｅｎｔ　Ｚｏｎｅ，Ｚｈｅｊｉａｎｇ　Ｐｒｏｖｉｎｃｅ,,,,,,2024-11-11,1,,,,,オンシュウフエイシケンザイユウゲンコウシ,0
1548,6010003045416,新規,0,2024-11-11,2024-11-11,合同会社Ｓｈａｊｉ,,合同会社,東京都,中央区,日本橋兜町１７番２号兜町第６葉山ビル４Ｆ,,13,102,1030026,,,,,,,2024-11-11,1,,,,,シャジ,0
1573,6010101003127,新規,0,2024-11-11,2024-11-11,八王子ホームセンター株式会社,,株式会社,東京都,八王子市,八幡町１３番地６,,13,201,1920053,,,,,,,2024-11-11,1,,,,,ハチオウジホームセンター,0
1582,6010401186191,新規,0,2024-11-11,2024-11-11,株式会社Ｇｒａｃｅ　ｏｎ,,株式会社,東京都,港区,南青山２丁目２７番２５号ヒューリック南青山ビル６階,,13,103,1070062,,,,,,,2024-11-11,1,,,,,グレイスオン,0
1583,6010401186233,新規,0,2024-11-11,2024-11-11,Ｔ＆Ｎコネクトコンサルティング株式会社,,株式会社,東京都,港区,東新橋１丁目５番２号汐留シティセンター１０Ｆ,,13,103,1050021,,,,,,,2024-11-11,1,,,,,ティアンドエヌコネクトコンサルティング,0
1584,6010401186241,新規,0,2024-11-11,2024-11-11,デンタルパフォーマンス株式会社,,株式会社,東京都,港区,浜松町１丁目２７番１６号,,13,103,1050013,,,,,,,2024-11-11,1,,,,,デンタルパフォーマンス,0
1585,6010401186274,新規,0,2024-11-11,2024-11-11,株式会社オルカテック,,株式会社,東京都,港区,赤坂４丁目８番１９号赤坂フロントタウン３階,,13,103,1070052,,,,,,,2024-11-11,1,,,,,オルカテック,0
1586,6010401186282,新規,0,2024-11-11,2024-11-11,エンパワークエスト株式会社,,株式会社,東京都,港区,南青山２丁目２番１５号ウィン青山９４２,,13,103,1070062,,,,,,,2024-11-11,1,,,,,エンパワークエスト,0
1587,6010401186349,新規,0,2024-11-11,2024-11-11,在宅医療ｃｏｍ株式会社,,株式会社,東京都,港区,南青山３丁目１番３６号青山丸竹ビル６Ｆ,,13,103,1070062,,,,,,,2024-11-11,1,,,,,ザイタクイリョウコム,0
1590,6010405023663,新規,0,2024-11-11,2024-11-11,一般社団法人Ｑ,,その他の設立登記法人,東京都,港区,六本木７丁目７－７,,13,103,1060032,,,,,,,2024-11-11,1,,,,,キュー,0
1591,6010405023754,新規,0,2024-11-11,2024-11-11,雷門ホールディング２一般社団法人,,その他の設立登記法人,東京都,港区,虎ノ門３丁目２２番１０－２０１号,,13,103,1050001,,,,,,,2024-11-11,1,,,,,カミナリモンホールディングツー,0
1592,6010405023770,新規,0,2024-11-11,2024-11-11,一般社団法人ＮＳ　Ｌｏｇｉｓｔｉｃｓ,,その他の設立登記法人,東京都,港区,虎ノ門３丁目２２番１０－２０１号,,13,103,1050001,,,,,,,2024-11-11,1,,,,,エヌエスロジスティクス,0
1602,6010801035551,新規,0,2024-11-11,2024-11-11,株式会社ＬＯＯＰ,,株式会社,東京都,大田区,西六郷１丁目２８番１４号,,13,111,1440056,,,,,,,2024-11-11,1,,,,,ループ,0
1606,6010903009478,新規,0,2024-11-11,2024-11-11,未来グリーンエナジー合同会社,,合同会社,東京都,世田谷区,三軒茶屋２丁目１３番２０号,,13,112,1540024,,,,,,,2024-11-11,1,,,,,ミライグリーンエナジー,0
1609,6011001165759,新規,0,2024-11-11,2024-11-11,株式会社Ｇｌｉｍ,,株式会社,東京都,渋谷区,神宮前４丁目２５番７号コーポＫ２０２,,13,113,1500001,,,,,,,2024-11-11,1,,,,,グリム,0
1610,6011003020235,新規,0,2024-11-11,2024-11-11,合同会社ＭｏｒＭｏｔＮｏ,,合同会社,東京都,渋谷区,恵比寿西２丁目４番８号ウィンド恵比寿ビル８Ｆ,,13,113,1500021,,,,,,,2024-11-11,1,,,,,モルモットノ,0
1611,6011003020359,新規,0,2024-11-11,2024-11-11,合同会社大日本青果,,合同会社,東京都,渋谷区,上原１丁目４７番６号ＭＹビル１階,,13,113,1510064,,,,,,,2024-11-11,1,,,,,ダイニッポンセイカ,0
1614,6011201025911,新規,0,2024-11-11,2024-11-11,Ｒｉｎｇｏ株式会社,,株式会社,東京都,中野区,弥生町５丁目１１番３１－７０６号ザパークハウス中野弥生町テラス,,13,114,1640013,,,,,,,2024-11-11,1,,,,,リンゴ,0
1617,6011203004525,新規,0,2024-11-11,2024-11-11,合同会社エコンテック３６号,,合同会社,東京都,中野区,江古田３丁目１４番３号,,13,114,1650022,,,,,,,2024-11-11,1,,,,,エコンテックサンジュウロクゴウ,0
1618,6011303005340,新規,0,2024-11-11,2024-11-11,合同会社ＣＫＷ,,合同会社,東京都,杉並区,宮前５丁目２６番１２－３０３号プレール・ドゥーク西荻窪,,13,115,1680081,,,,,,,2024-11-11,1,,,,,シーケーダブリュー,0
1620,6011401026569,新規,0,2024-11-11,2024-11-11,株式会社エフ・ディー,,株式会社,東京都,板橋区,蓮沼町４７番１２号,,13,119,1740052,,,,,,,2024-11-11,1,,,,,エフディー,0
1626,6011603004505,新規,0,2024-11-11,2024-11-11,合同会社マイティ,,合同会社,東京都,練馬区,桜台２丁目３６番７号,,13,120,1760002,,,,,,,2024-11-11,1,,,,,マイティ,0
1630,6012401042449,新規,0,2024-11-11,2024-11-11,株式会社Ｍａｇｎｏｌｉａ,,株式会社,東京都,武蔵野市,境２丁目２番２０－２０２号,,13,203,1800022,,,,,,,2024-11-11,1,,,,,マグノリア,0
1631,6012701018529,新規,0,2024-11-11,2024-11-11,株式会社文教住宅社,,株式会社,東京都,小平市,大沼町２丁目８３５番地,,13,211,1870001,,,,,,,2024-11-11,1,,,,,ブンキョウジュウタクシャ,0
1633,6012801023560,新規,0,2024-11-11,2024-11-11,株式会社キズナガレッジ,,株式会社,東京都,日野市,神明３丁目７番１９－１２１号,,13,212,1910016,,,,,,,2024-11-11,1,,,,,キズナガレッジ,0
1639,6020001160034,新規,0,2024-11-11,2024-11-11,Ａｓｔｅｍｏ　Ｃｙｐｒｅｍｏｓ株式会社,,株式会社,神奈川県,横浜市西区,みなとみらい４丁目６番２号,,14,103,2200012,,,,,,,2024-11-11,1,,,,,アステモサイプレモス,0
1640,6020001160075,新規,0,2024-11-11,2024-11-11,株式会社ＰＯＬＡＲＩＳ,,株式会社,神奈川県,横浜市中区,山下町２０２－９－３Ｆ,,14,104,2310023,,,,,,,2024-11-11,1,,,,,ポラリス,0
1643,6021001083712,新規,0,2024-11-11,2024-11-11,株式会社ＴＲＩＰ　ＷＯＲＫＳ,,株式会社,神奈川県,三浦郡葉山町,下山口３８３番地の１０,,14,301,2400116,,,,,,,2024-11-11,1,,,,,トリップワークス,0
1644,6021003015201,新規,0,2024-11-11,2024-11-11,ＨＫ　Ｃｏ．合同会社,,合同会社,神奈川県,相模原市南区,相模大野７丁目３５番２号,,14,153,2520303,,,,,,,2024-11-11,1,,,,,エイチケーカンパニー,0
1670,6040001136107,新規,0,2024-11-11,2024-11-11,株式会社五和国際,,株式会社,千葉県,白井市,清水口１丁目１－３０－６０４,,12,232,2701435,,,,,,,2024-11-11,1,,,,,ゴカコクサイ,0
1674,6040003026140,新規,0,2024-11-11,2024-11-11,合同会社福千,,合同会社,千葉県,市川市,妙典２丁目１３番１７－６０３号,,12,203,2720111,,,,,,,2024-11-11,1,,,,,フクセン,0
1678,6050001016423,新規,0,2024-11-11,2024-11-11,株式会社ニューズボックス,,株式会社,茨城県,つくば市,赤塚６１０番地５７,,08,220,3050062,,,,,,,2024-11-11,1,,,,,ニューズボックス,0
1682,6050001055677,新規,0,2024-11-11,2024-11-11,株式会社クリコム・エンターテイメント,,株式会社,茨城県,笠間市,安居３１４５番地１３,,08,216,3190206,,,,,,,2024-11-11,1,,,,,クリコムエンターテイメント,0
1687,6070003005645,新規,0,2024-11-11,2024-11-11,合同会社ＲＳ,,合同会社,群馬県,前橋市,朝倉町２丁目３番地７,,10,201,3710811,,,,,,,2024-11-11,1,,,,,アールエス,0
1690,6080001026584,新規,0,2024-11-11,2024-11-11,株式会社Ｓｏａｒ,,株式会社,静岡県,島田市,東町１１番地の３コーポラス翔Ｂ２０２,,22,209,4270011,,,,,,,2024-11-11,1,,,,,ソアー,0
1695,6080103003192,新規,0,2024-11-11,2024-11-11,合同会社コスモス,,合同会社,静岡県,伊豆の国市,中２７８番地の３,,22,225,4102113,,,,,,,2024-11-11,1,,,,,コスモス,0
1696,6080401027562,新規,0,2024-11-11,2024-11-11,株式会社Ｙ２架設,,株式会社,静岡県,浜松市浜名区,於呂１０３３番地の８,,22,139,4340015,,,,,,,2024-11-11,1,,,,,ワイツーカセツ,0
1708,6100005013246,新規,0,2024-11-11,2024-11-11,行政書士法人カーズ,,その他の設立登記法人,長野県,岡谷市,長地権現町４丁目３番３７号ＣＯＣＯＤＡＫＡＲＡ内,,20,204,3940081,,,,,,,2024-11-11,1,,,,,カーズ,0
1717,6120001269996,新規,0,2024-11-11,2024-11-11,株式会社Ｋ‐ｎｅｘｔ,,株式会社,大阪府,門真市,打越町９番１５号レジデンス・ブルーローズ１０２号,,27,223,5710029,,,,,,,2024-11-11,1,,,,,ケーネクスト,0
1718,6120001270095,新規,0,2024-11-11,2024-11-11,株式会社宙,,株式会社,大阪府,大阪市住之江区,粉浜１丁目２５番１号ハイムグランディ１０２,,27,125,5590001,,,,,,,2024-11-11,1,,,,,ソラ,0
1719,6120001270120,新規,0,2024-11-11,2024-11-11,株式会社スマイル,,株式会社,大阪府,大阪市浪速区,難波中２丁目１番地７号６Ｆ,,27,111,5560011,,,,,,,2024-11-11,1,,,,,スマイル,0
1720,6120001270129,新規,0,2024-11-11,2024-11-11,勝舟株式会社,,株式会社,大阪府,大阪市浪速区,戎本町２丁目８－３－２Ｆ,,27,111,5560013,,,,,,,2024-11-11,1,,,,,カツフネ,0
1721,6120001270153,新規,0,2024-11-11,2024-11-11,株式会社ブルーポイントパワーソリューション,,株式会社,大阪府,大阪市中央区,南船場２丁目６－３第２ＢＳビル６０１号室,,27,128,5420081,,,,,,,2024-11-11,1,,,,,ブルーポイントパワーソリューション,0
1722,6120001270161,新規,0,2024-11-11,2024-11-11,万家株式会社,,株式会社,大阪府,大阪市住吉区,長居西１丁目５番８号,,27,120,5580002,,,,,,,2024-11-11,1,,,,,マンカ,0
1723,6120001270252,新規,0,2024-11-11,2024-11-11,株式会社ＲＥＥＣＯＭ,,株式会社,大阪府,大阪市西区,西本町１丁目６番６号,,27,106,5500005,,,,,,,2024-11-11,1,,,,,リーコム,0
1726,6120003027931,新規,0,2024-11-11,2024-11-11,燦和合同会社,,合同会社,大阪府,大阪市都島区,東野田町５丁目１５－２７エスリード京橋グランテラス・１０２号室,,27,102,5340024,,,,,,,2024-11-11,1,,,,,サンワ,0
1727,6120005024605,新規,0,2024-11-11,2024-11-11,一般社団法人セールスデザイナー認定協会,,その他の設立登記法人,大阪府,大阪市西区,江戸堀１丁目２３番１９号グラン・ビルド江戸堀８０３,,27,106,5500002,,,,,,,2024-11-11,1,,,,,セールスデザイナーニンテイキョウカイ,0
1732,6120101070560,新規,0,2024-11-11,2024-11-11,是吉株式会社,,株式会社,大阪府,堺市北区,南花田町４１７－３－２２５,,27,146,5918011,,,,,,,2024-11-11,1,,,,,コレヨシ,0
1736,6120105009927,新規,0,2024-11-11,2024-11-11,一般社団法人サーブコンサル,,その他の設立登記法人,大阪府,堺市北区,北花田町２丁１７７番地の２,,27,146,5918002,,,,,,,2024-11-11,1,,,,,サーブコンサル,0
1737,6120901050010,新規,0,2024-11-11,2024-11-11,株式会社ラフトレザーズ,,株式会社,大阪府,吹田市,千里丘上２４番３号,,27,205,5650811,,,,,,,2024-11-11,1,,,,,ラフトレザーズ,0
1747,6130001078281,新規,0,2024-11-11,2024-11-11,株式会社フォースマテリアル,,株式会社,京都府,京都市中京区,西ノ京職司町４番地１０,,26,104,6048381,,,,,,,2024-11-11,1,,,,,フォースマテリアル,0
1757,6140001136360,新規,0,2024-11-11,2024-11-11,申萬株式会社,,株式会社,兵庫県,三田市,けやき台４丁目２４番地１３,,28,219,6691321,,,,,,,2024-11-11,1,,,,,シンマン,0
1758,6140001136402,新規,0,2024-11-11,2024-11-11,株式会社ＣｈｒｏｎｏＶｅｃｔａ,,株式会社,兵庫県,尼崎市,長洲西通１丁目１０－１－１４２３,,28,202,6600807,,,,,,,2024-11-11,1,,,,,クロノヴェクタ,0
1763,6150001027658,新規,0,2024-11-11,2024-11-11,株式会社まほろばエンターテインメント,,株式会社,奈良県,奈良市,橋本町３－１,,29,201,6308217,,,,,,,2024-11-11,1,,,,,マホロバエンターテインメント,0
1771,6180001163954,新規,0,2024-11-11,2024-11-11,株式会社ｙａｍａ,,株式会社,愛知県,名古屋市西区,丸野２丁目８番地の２,,23,104,4520835,,,,,,,2024-11-11,1,,,,,ヤマ,0
1772,6180001164044,新規,0,2024-11-11,2024-11-11,株式会社ボディサービススズキ,,株式会社,愛知県,海部郡飛島村,竹之郷３丁目８２番地,,23,427,4901436,,,,,,,2024-11-11,1,,,,,ボディサービススズキ,0
1773,6180001164069,新規,0,2024-11-11,2024-11-11,株式会社ＫＥＩＲＩＭＡＮ,,株式会社,愛知県,名古屋市中区,丸の内３丁目１９－２３ＦＰＳビル９階,,23,106,4600002,,,,,,,2024-11-11,1,,,,,ケイリマン,0
1774,6180001164110,新規,0,2024-11-11,2024-11-11,株式会社ＧＯＺＡ,,株式会社,愛知県,長久手市,前熊下田１７０番地１,,23,238,4801102,,,,,,,2024-11-11,1,,,,,ゴザ,0
1783,6200001043113,新規,0,2024-11-11,2024-11-11,株式会社ＤＥＳＩＧＮ　ＨＩ,,株式会社,岐阜県,岐阜市,薮田南３丁目７番２０号,,21,201,5008384,,,,,,,2024-11-11,1,,,,,デザインヒー,0
1786,6210003001852,新規,0,2024-11-11,2024-11-11,合同会社ＣＬＡＲＩＳ,,合同会社,福井県,福井市,高木中央１丁目３００２,,18,201,9100804,,,,,,,2024-11-11,1,,,,,クラリス,0
1787,6220003003872,新規,0,2024-11-11,2024-11-11,合同会社ＴＹ建設,,合同会社,石川県,かほく市,高松ル１９番地３０,,17,209,9291215,,,,,,,2024-11-11,1,,,,,ティーワイケンセツ,0
1789,6240001064089,新規,0,2024-11-11,2024-11-11,株式会社ＤＮＫ,,株式会社,広島県,江田島市,江田島町切串３丁目４４番５号,,34,215,7372111,,,,,,,2024-11-11,1,,,,,ディーエヌケイ,0
1796,6280001009288,新規,0,2024-11-11,2024-11-11,株式会社檜山建装,,株式会社,島根県,松江市,雑賀町１９９番地,,32,201,6900056,,,,,,,2024-11-11,1,,,,,ヒヤマケンソウ,0
1799,6290001107875,新規,0,2024-11-11,2024-11-11,株式会社テックビジョン,,株式会社,福岡県,福岡市博多区,博多駅前２丁目５番１０号ＴＫビル３０２号,,40,132,8120011,,,,,,,2024-11-11,1,,,,,テックビジョン,0
1800,6290001107883,新規,0,2024-11-11,2024-11-11,深見電気工事株式会社,,株式会社,福岡県,福岡市中央区,大手門３丁目１４番２７号ラフォーレ大濠パークアベニュー６０４号,,40,133,8100074,,,,,,,2024-11-11,1,,,,,フカミデンキコウギョウ,0
1801,6290001107900,新規,0,2024-11-11,2024-11-11,株式会社七一八,,株式会社,福岡県,福岡市博多区,住吉２丁目１５番３号,,40,132,8120018,,,,,,,2024-11-11,1,,,,,ナナイチハチ,0
1802,6290003016026,新規,0,2024-11-11,2024-11-11,ＹＫコンサルタント合同会社,,合同会社,福岡県,福岡市早良区,原１丁目２番２６－２０７号室,,40,137,8140022,,,,,,,2024-11-11,1,,,,,ワイケーコンサルタント,0
1807,6300001013964,新規,0,2024-11-11,2024-11-11,株式会社ＫＭＣテクニカルサービス,,株式会社,佐賀県,小城市,小城町松尾３８４３番地,,41,208,8450004,,,,,,,2024-11-11,1,,,,,ケーエムシーテクニカルサービス,0
1809,6310001019317,新規,0,2024-11-11,2024-11-11,株式会社ＴＯＲＱＵＥ,,株式会社,長崎県,佐世保市,黒髪町４８８０番地１１,,42,202,8571152,,,,,,,2024-11-11,1,,,,,トルク,0
1817,6350001019271,新規,0,2024-11-11,2024-11-11,株式会社ディバイン・アーク・ホールディングス,,株式会社,宮崎県,日南市,園田３丁目１１番１号,,45,204,8870012,,,,,,,2024-11-11,1,,,,,ディバインアークホールディングス,0
1819,6360001034410,新規,0,2024-11-11,2024-11-11,株式会社ウルズン,,株式会社,沖縄県,宜野湾市,宇地泊３丁目５番２７－３０７号ライオンズ宜野湾マリンシティ,,47,205,9012227,,,,,,,2024-11-11,1,,,,,ウルズン,0
1821,6360003014443,新規,0,2024-11-11,2024-11-11,ＮＡＬＵＫＯＡ沖縄合同会社,,合同会社,沖縄県,中頭郡北谷町,伊平１丁目１３番１４号プレミスト北谷伊平Ｓｅａ＆Ｆｏｒｅｓｔ４１０,,47,326,9040102,,,,,,,2024-11-11,1,,,,,ナルコアオキナワ,0
1830,6450001014444,新規,0,2024-11-11,2024-11-11,株式会社万屋けーちゃん,,株式会社,北海道,旭川市,永山七条２１丁目１－１８,,01,204,0798417,,,,,,,2024-11-11,1,,,,,ヨロズヤケーチャン,0
1835,6470005006592,新規,0,2024-11-11,2024-11-11,一般社団法人みらい元気サポート四国,,その他の設立登記法人,香川県,丸亀市,津森町２３０番地１,,37,202,7630052,,,,,,,2024-11-11,1,,,,,,0
1840,6700150127608,新規,0,2024-11-11,2024-10-28,みやこ町地域雇用創造協議会,,その他,福岡県,京都郡みやこ町,勝山上田９６０番地,,40,625,8240821,,,,,,,2024-10-28,1,,,,,ミヤコマチチイキコヨウソウゾウキヨウギカイ,0
1841,6700150127772,新規,0,2024-11-11,2024-11-11,ｙｉｗｕｓｈｉｓｈｕａｎｇｂｅｉｂｏｌｉｚｈｉｐｉｎｙｏｕｘｉａｎｇｏｎｇｓｉ,,外国会社等,,,,,,,,Ｂ８６０２，Ｈａｉｋｅ　Ｅ－ｃｏｍｍｅｒｃｅ　Ｐａｒｋ，Ｍ７５０　Ｈｕａｎｃｈｅｎｇ　Ｓｏｕｔｈ　Ｒｏａｄ，Ｄｏｎｇｙｕａｎ　Ｉｎｄｕｓｔｒｉａｌ　Ｚｏｎｅ，Ｊｉａｎｇｄｏｎｇ　Ｓｔｒｅｅｔ，Ｙｉｗｕ　Ｃｉｔｙ，Ｚｈｅｊｉａｎｇ　Ｐｒｏｖｉｎｃｅ,,,,,,2024-11-11,1,,,,,ギウシソウハイハリセイヒンユウゲンコウシ,0
1852,7010001249587,新規,0,2024-11-11,2024-11-11,Ｖａｌｕｅ　Ｌｉｎｋ　Ｊａｐａｎ株式会社,,株式会社,東京都,千代田区,神田和泉町１番地６－１６ヤマトビル４０５,,13,101,1010024,,,,,,,2024-11-11,1,,,,,バリューリンクジャパン,0
1853,7010001249711,新規,0,2024-11-11,2024-11-11,シーイ株式会社,,株式会社,東京都,文京区,白山１丁目６－４同栄マンション２階ＶＥＮＴＵＲＥＢＡＳＥ２２６号室,,13,105,1130001,,,,,,,2024-11-11,1,,,,,シーイ,0
1854,7010001249769,新規,0,2024-11-11,2024-11-11,株式会社日本振興投資グループ,,株式会社,東京都,中央区,銀座１丁目１２番４号Ｎ＆ＥＢＬＤ．６Ｆ,,13,102,1040061,,,,,,,2024-11-11,1,,,,,ニホンシンコウトウシグループ,0
1855,7010001249851,新規,0,2024-11-11,2024-11-11,株式会社ａｎｐａｎ,,株式会社,東京都,千代田区,四番町２番地１クレール東郷坂１Ｆ,,13,101,1020081,,,,,,,2024-11-11,1,,,,,アンパン,0
1856,7010001249868,新規,0,2024-11-11,2024-11-11,株式会社くまぎん,,株式会社,東京都,千代田区,神田和泉町１番地６－１６ヤマトビル４０５,,13,101,1010024,,,,,,,2024-11-11,1,,,,,クマギン,0
1900,7010401186208,新規,0,2024-11-11,2024-11-11,ＳＲＰ　ＪＡＰＡＮ株式会社,,株式会社,東京都,港区,南青山４丁目１７番３３号,,13,103,1070062,,,,,,,2024-11-11,1,,,,,エスアールピージャパン,0
1901,7010401186273,新規,0,2024-11-11,2024-11-11,株式会社ＤＴ,,株式会社,東京都,港区,芝浦４丁目１５番１－２９０６号,,13,103,1080023,,,,,,,2024-11-11,1,,,,,ディーティー,0
1906,7010403033498,新規,0,2024-11-11,2024-11-11,合同会社Ｎｅｗ　ｇｅｎｅｒａｔｉｏｎ,,合同会社,東京都,港区,六本木３丁目１８番２号ウェリス六本木１１０３,,13,103,1060032,,,,,,,2024-11-11,1,,,,,ニュージェネレーション,0
1907,7010403033738,新規,0,2024-11-11,2024-11-11,合同会社アシスト,,合同会社,東京都,港区,海岸３丁目９－４０番１７１２,,13,103,1080022,,,,,,,2024-11-11,1,,,,,アシスト,0
1911,7010405023745,新規,0,2024-11-11,2024-11-11,一般社団法人宙船,,その他の設立登記法人,東京都,港区,北青山３丁目５番１４号７階,,13,103,1070061,,,,,,,2024-11-11,1,,,,,ソラフネ,0
1912,7010405023753,新規,0,2024-11-11,2024-11-11,雷門ホールディング１一般社団法人,,その他の設立登記法人,東京都,港区,虎ノ門３丁目２２番１０－２０１号,,13,103,1050001,,,,,,,2024-11-11,1,,,,,カミナリモンホールディングワン,0
1915,7010503007633,新規,0,2024-11-11,2024-11-11,合同会社トライシクルデザイン,,合同会社,東京都,台東区,小島１丁目６番４－９０１号モリス,,13,106,1110056,,,,,,,2024-11-11,1,,,,,トライシクルデザイン,0
1923,7010801035550,新規,0,2024-11-11,2024-11-11,株式会社音松,,株式会社,東京都,大田区,萩中１丁目６番５号,,13,111,1440047,,,,,,,2024-11-11,1,,,,,オトマツ,0
1928,7010901056240,新規,0,2024-11-11,2024-11-11,株式会社グリーンブリッヂ,,株式会社,東京都,世田谷区,用賀４丁目９番１９号,,13,112,1580097,,,,,,,2024-11-11,1,,,,,グリーンブリッヂ,0
1929,7010903009477,新規,0,2024-11-11,2024-11-11,合同会社スズキクリエーション,,合同会社,東京都,世田谷区,千歳台２丁目４６番１８号アサヒグリーンハイツ３０３,,13,112,1570071,,,,,,,2024-11-11,1,,,,,スズキクリエーション,0
1936,7011001165700,新規,0,2024-11-11,2024-11-11,株式会社やまねこ舎,,株式会社,東京都,目黒区,五本木２丁目１１番３３号,,13,110,1530053,,,,,,,2024-11-11,1,,,,,ヤマネコシャ,0
1937,7011001165709,新規,0,2024-11-11,2024-11-11,株式会社アドブライト,,株式会社,東京都,渋谷区,道玄坂１丁目１０番８号渋谷道玄坂東急ビル２Ｆ－Ｃ,,13,113,1500043,,,,,,,2024-11-11,1,,,,,,0
1938,7011001165717,新規,0,2024-11-11,2024-11-11,株式会社Ｔｅｘｙｅｎｃｅ,,株式会社,東京都,渋谷区,渋谷２丁目１９番１５号宮益坂ビルディング６０９,,13,113,1500002,,,,,,,2024-11-11,1,,,,,テクサイエンス,0
1939,7011001165741,新規,0,2024-11-11,2024-11-11,株式会社ＤＵＭＢＯ,,株式会社,東京都,渋谷区,恵比寿西２丁目４番８号ウィンド恵比寿ビル８Ｆ,,13,113,1500021,,,,,,,2024-11-11,1,,,,,ダンボ,0
1941,7011003020317,新規,0,2024-11-11,2024-11-11,クリエイトム合同会社,,合同会社,東京都,渋谷区,道玄坂１丁目１０番８号渋谷道玄坂東急ビル２Ｆ－Ｃ,,13,113,1500043,,,,,,,2024-11-11,1,,,,,クリエイトム,0
1942,7011003020333,新規,0,2024-11-11,2024-11-11,サンファースト合同会社,,合同会社,東京都,目黒区,大岡山１丁目６‐５,,13,110,1520033,,,,,,,2024-11-11,1,,,,,サンファースト,0
1943,7011003020341,新規,0,2024-11-11,2024-11-11,リボーンコンサルティンググループ合同会社,,合同会社,東京都,目黒区,東山２丁目９番３－３０１号アルコム東山,,13,110,1530043,,,,,,,2024-11-11,1,,,,,リボーンコンサルティンググループ,0
1952,7011101109458,新規,0,2024-11-11,2024-11-11,株式会社ＮＴＴ　Ｌａｎｄｓｃａｐｅ,,株式会社,東京都,新宿区,西新宿３丁目１９番２号,,13,104,1600023,,,,,,,2024-11-11,1,,,,,エヌティティランドスケープ,0
1953,7011101109474,新規,0,2024-11-11,2024-11-11,株式会社Ｉ＆Ｆ,,株式会社,東京都,新宿区,新宿４丁目４番１７号ヒロノビル４階,,13,104,1600022,,,,,,,2024-11-11,1,,,,,アイアンドエフ,0
1954,7011203004524,新規,0,2024-11-11,2024-11-11,合同会社エコンテック３５号,,合同会社,東京都,中野区,江古田３丁目１４番３号,,13,114,1650022,,,,,,,2024-11-11,1,,,,,エコンテックサンジュウゴゴウ,0
1961,7011601028182,新規,0,2024-11-11,2024-11-11,株式会社フレッシュマン,,株式会社,東京都,練馬区,大泉学園町５丁目１８番３０号ユノス大泉学園１０２,,13,120,1780061,,,,,,,2024-11-11,1,,,,,フレッシュマン,0
1962,7011601028190,新規,0,2024-11-11,2024-11-11,株式会社ＰＥＲＭＡ,,株式会社,東京都,練馬区,東大泉３丁目２８番１０号,,13,120,1780063,,,,,,,2024-11-11,1,,,,,パーマ,0
1963,7011603004504,新規,0,2024-11-11,2024-11-11,合同会社エピメリア,,合同会社,東京都,練馬区,関町北３丁目４３番２０号,,13,120,1770051,,,,,,,2024-11-11,1,,,,,エピメリア,0
1964,7011603004512,新規,0,2024-11-11,2024-11-11,合同会社ＰＭＫ,,合同会社,東京都,練馬区,上石神井１丁目１３番５号,,13,120,1770044,,,,,,,2024-11-11,1,,,,,ピーエムケー,0
1966,7011701027786,新規,0,2024-11-11,2024-11-11,株式会社ＰＪＡＭＳ,,株式会社,東京都,江戸川区,平井６丁目２番３０号,,13,123,1320035,,,,,,,2024-11-11,1,,,,,プージャムズ,0
1970,7012701018552,新規,0,2024-11-11,2024-11-11,黔香閣日本株式会社,,株式会社,東京都,西東京市,住吉町６丁目２番４号ひばりヶ丘レジデンス１０２,,13,229,2020005,,,,,,,2024-11-11,1,,,,,ケンコウカクニホン,0
1971,7013101009555,新規,0,2024-11-11,2024-11-11,株式会社ＧＯＤＳＰＥＥＤ,,株式会社,東京都,青梅市,今井１丁目４６６番地の７,,13,205,1980023,,,,,,,2024-11-11,1,,,,,ゴッドスピード,0
1981,7020001159950,新規,0,2024-11-11,2024-11-11,株式会社ＴＺ,,株式会社,神奈川県,横浜市鶴見区,駒岡１丁目２２番Ｈ－１０４号,,14,101,2300071,,,,,,,2024-11-11,1,,,,,ティーゼット,0
1982,7020001159975,新規,0,2024-11-11,2024-11-11,株式会社ブレイン＆ストーム,,株式会社,神奈川県,川崎市中原区,新丸子東３丁目１１１１番地１レジデンス・ザ・武蔵小杉３０４,,14,133,2110004,,,,,,,2024-11-11,1,,,,,ブレインアンドストーム,0
1983,7020001159983,新規,0,2024-11-11,2024-11-11,株式会社隆真建築,,株式会社,神奈川県,横浜市都筑区,東山田町１３１８番地オストベルク１０１,,14,118,2240024,,,,,,,2024-11-11,1,,,,,リュウシンケンチク,0
1984,7020001160000,新規,0,2024-11-11,2024-11-11,株式会社ポラリスジャパン,,株式会社,神奈川県,川崎市幸区,中幸町３丁目１６番地４サンクタス川崎タワー２５０１,,14,132,2120012,,,,,,,2024-11-11,1,,,,,ポラリスジャパン,0
1986,7020003027255,新規,0,2024-11-11,2024-11-11,合同会社エム・プロパティ,,合同会社,神奈川県,川崎市麻生区,高石４丁目３１番３号,,14,137,2150003,,,,,,,2024-11-11,1,,,,,エムプロパティ,0
1987,7020003027263,新規,0,2024-11-11,2024-11-11,アルビレオ合同会社,,合同会社,神奈川県,横浜市都筑区,北山田１丁目１２番４－４０６号,,14,118,2240021,,,,,,,2024-11-11,1,,,,,アルビレオ,0
1991,7021001083711,新規,0,2024-11-11,2024-11-11,ＳＤＧｉｍｍｉｅｓ株式会社,,株式会社,神奈川県,相模原市南区,相模台２丁目２番２号ガーデンビルＩＩ３階フェルゴ内,00136946,14,153,2520321,,,,,,,2024-11-11,1,,,,,エスディージミーズ,0
1992,7021003015209,新規,0,2024-11-11,2024-11-11,ＲＡＳ　ＴＲＡＤＩＮＧ合同会社,,合同会社,神奈川県,鎌倉市,大船２丁目９番３号,,14,204,2470056,,,,,,,2024-11-11,1,,,,,アールエーエストレーディング,0
2004,7040001136097,新規,0,2024-11-11,2024-11-11,Ｏｌｙｍｐｉａ株式会社,,株式会社,千葉県,富里市,日吉台５丁目１８番地８,,12,233,2860201,,,,,,,2024-11-11,1,,,,,オリンピア,0
2005,7040001136106,新規,0,2024-11-11,2024-11-11,篠原ファーム株式会社,,株式会社,千葉県,富里市,中沢１１６１番地,,12,233,2860222,,,,,,,2024-11-11,1,,,,,シノハラファーム,0
2010,7040003026123,新規,0,2024-11-11,2024-11-11,合同会社関宿新聞店,,合同会社,千葉県,野田市,なみき１丁目１３－８,,12,208,2700229,,,,,,,2024-11-11,1,,,,,,0
2011,7040003026164,新規,0,2024-11-11,2024-11-11,合同会社えぐさ屋,,合同会社,千葉県,市川市,妙典３丁目１番７号,,12,203,2720111,,,,,,,2024-11-11,1,,,,,,0
2016,7060001037640,新規,0,2024-11-11,2024-11-11,株式会社３９次元魂世,,株式会社,栃木県,那須塩原市,緑１丁目１３番地１７５,,09,213,3292713,,,,,,,2024-11-11,1,,,,,サンジュウクジゲンタマシイヨ,0
2019,7070001042342,新規,0,2024-11-11,2024-11-11,株式会社カントリータウン,,株式会社,群馬県,伊勢崎市,赤堀鹿島町１３１９番地１,,10,204,3792202,,,,,,,2024-11-11,1,,,,,カントリータウン,0
2024,7080401027561,新規,0,2024-11-11,2024-11-11,株式会社ＲＯＹＡＬＬＩＦＥ．,,株式会社,静岡県,浜松市中央区,笠井町１４４０番地の３,,22,138,4313107,,,,,,,2024-11-11,1,,,,,ロイヤルライフ,0
2025,7100001038015,新規,0,2024-11-11,2024-11-11,Ｂｌａｃｋｗｏｏｄ株式会社,,株式会社,長野県,北安曇郡白馬村,大字北城和田野４９７７番地１,,20,485,3999301,,,,,,,2024-11-11,1,,,,,ブラックウッド,0
2033,7120001270111,新規,0,2024-11-11,2024-11-11,株式会社Ｒ＆Ｓ,,株式会社,大阪府,大阪市北区,梅田１丁目２‐２大阪駅前第２ビル１２‐１２,,27,127,5300001,,,,,,,2024-11-11,1,,,,,アールアンドエス,0
2034,7120001270152,新規,0,2024-11-11,2024-11-11,ビュー・インターナショナル株式会社,,株式会社,大阪府,大阪市東成区,大今里南５丁目１８番６号,,27,115,5370013,,,,,,,2024-11-11,1,,,,,ビューインターナショナル,0
2035,7120001270177,新規,0,2024-11-11,2024-11-11,アトラス株式会社,,株式会社,大阪府,大阪市西区,九条３丁目１９番３０号,,27,106,5500027,,,,,,,2024-11-11,1,,,,,アトラス,0
2038,7120003027930,新規,0,2024-11-11,2024-11-11,合同会社ふく穂,,合同会社,大阪府,大阪市福島区,海老江１丁目９番３号,,27,103,5530001,,,,,,,2024-11-11,1,,,,,フクホ,0
2043,7120101070576,新規,0,2024-11-11,2024-11-11,株式会社ゼダーフード,,株式会社,大阪府,堺市堺区,翁橋町１丁１０番１号三ツ輪ビル,,27,141,5900061,,,,,,,2024-11-11,1,,,,,ゼダーフード,0
2049,7122001038604,新規,0,2024-11-11,2024-11-11,株式会社Ｆｉｒｓｔ,,株式会社,大阪府,東大阪市,本町１５番１７号エンジェルハイツ本町４０３号,,27,227,5798045,,,,,,,2024-11-11,1,,,,,ファースト,0
2050,7122001038620,新規,0,2024-11-11,2024-11-11,墨畑松世株式会社,,株式会社,大阪府,東大阪市,五条町２番５号、１０１号室,,27,227,5798042,,,,,,,2024-11-11,1,,,,,スミハタマツセ,0
2058,7130001078280,新規,0,2024-11-11,2024-11-11,株式会社フィフスマテリアル,,株式会社,京都府,京都市中京区,西ノ京職司町４番地１０,,26,104,6048381,,,,,,,2024-11-11,1,,,,,フィフスマテリアル,0
2059,7130001078322,新規,0,2024-11-11,2024-11-11,株式会社トリプルバレル,,株式会社,京都府,京都市中京区,烏帽子屋町４８６番地１三条室町アーバンライフ５０４号,,26,104,6048165,,,,,,,2024-11-11,1,,,,,トリプルバレル,0
2062,7130002035859,新規,0,2024-11-11,2024-11-11,有限会社志茂運送店,,有限会社,京都府,京都市南区,吉祥院這登中町５１番地,,26,107,6018353,,,,,,,2024-11-11,1,,,,,シモウンソウテン,0
2074,7150003003417,新規,0,2024-11-11,2024-11-11,合同会社ＤＬＧ,,合同会社,奈良県,生駒市,辻町９９６－２４ヴェレーナ東生駒３０４,00136956,29,209,6300212,,,,,,,2024-11-11,1,,,,,ドリグ,0
2075,7160001026344,新規,0,2024-11-11,2024-11-11,株式会社ａｌｌ　ｉｎ,,株式会社,滋賀県,東近江市,五個荘竜田町２４８番地１,,25,213,5291421,,,,,,,2024-11-11,1,,,,,オールイン,0
2083,7180001163904,新規,0,2024-11-11,2024-11-11,ＳＥＩＷＡ　ＴＲＵＳＴ株式会社,,株式会社,愛知県,名古屋市中区,錦１丁目５番１１号名古屋伊藤忠ビル２階,,23,106,4600003,,,,,,,2024-11-11,1,,,,,セイワトラスト,0
2084,7180001164002,新規,0,2024-11-11,2024-11-11,株式会社システムソリューションエンタープライズ,,株式会社,愛知県,名古屋市港区,西福田１丁目１５０６番地,,23,111,4550874,,,,,,,2024-11-11,1,,,,,システムソリューションエンタープライズ,0
2085,7180001164051,新規,0,2024-11-11,2024-11-11,岩間工業株式会社,,株式会社,愛知県,名古屋市瑞穂区,堀田通１丁目１５番地の１御剣ハイツ１０５号,,23,108,4670862,,,,,,,2024-11-11,1,,,,,イワマコウギョウ,0
2086,7180001164084,新規,0,2024-11-11,2024-11-11,株式会社綿百屋,,株式会社,愛知県,海部郡蟹江町,桜３丁目５８１番地,,23,425,4970038,,,,,,,2024-11-11,1,,,,,メンヒャクヤ,0
2094,7200001043112,新規,0,2024-11-11,2024-11-11,株式会社ＲＯＹＡＬモータース,,株式会社,岐阜県,羽島市,小熊町外粟野４丁目３５,,21,209,5016261,,,,,,,2024-11-11,1,,,,,ロイアルモータース,0
2096,7200003006579,新規,0,2024-11-11,2024-11-11,合同会社ＭｅｄｉＥｘｔ,,合同会社,岐阜県,各務原市,蘇原花園町２丁目５５番地８,,21,213,5040832,,,,,,,2024-11-11,1,,,,,メディエクスト,0
2107,7240005015855,新規,0,2024-11-11,2024-11-11,ＮＰＯ法人富笑の実,,その他の設立登記法人,広島県,広島市安佐北区,三入１丁目８番１９号,,34,106,7310211,,,,,,,2024-11-11,1,,,,,トワノミ,0
2108,7250001020890,新規,0,2024-11-11,2024-11-11,株式会社二家本運送,,株式会社,山口県,岩国市,錦町広瀬６０５番地１,,35,208,7400724,,,,,,,2024-11-11,1,,,,,ニカモトウンソウ,0
2109,7250003003588,新規,0,2024-11-11,2024-11-11,合同会社縁樹,,合同会社,山口県,萩市,大字椿２６１７番地１０,,35,204,7580061,,,,,,,2024-11-11,1,,,,,エンジュ,0
2111,7260001039617,新規,0,2024-11-11,2024-11-11,株式会社ａｒｋｉ,,株式会社,岡山県,岡山市北区,下中野７２１－１０８ベンビレッジ平田２０６号,,33,101,7000973,,,,,,,2024-11-11,1,,,,,アルキ,0
2125,7290001107899,新規,0,2024-11-11,2024-11-11,株式会社三八,,株式会社,福岡県,福岡市中央区,舞鶴１丁目２番１１号,,40,133,8100073,,,,,,,2024-11-11,1,,,,,サンハチ,0
2131,7300001013963,新規,0,2024-11-11,2024-11-11,株式会社東海工業,,株式会社,佐賀県,鹿島市,大字高津原１４７７番地１７,,41,207,8491311,,,,,,,2024-11-11,1,,,,,トウカイコウギョウ,0
2140,7360001034418,新規,0,2024-11-11,2024-11-11,株式会社優健,,株式会社,沖縄県,宜野湾市,長田４丁目９番１２号,,47,205,9012212,,,,,,,2024-11-11,1,,,,,ユウケン,0
2148,7370003006810,新規,0,2024-11-11,2024-11-11,繁盛商会合同会社,,合同会社,宮城県,亘理郡亘理町,長瀞字町南８６番地２,00136947,04,361,9892341,,,,,,,2024-11-11,1,,,,,ハンジョウショウカイ,0
2156,7380001034894,新規,0,2024-11-11,2024-11-11,株式会社リッチオートトレーディング,,株式会社,福島県,いわき市,平下大越字中ノ町７８番地の１,,07,204,9700102,,,,,,,2024-11-11,1,,,,,リッチオートトレーディング,0
2159,7390001017790,新規,0,2024-11-11,2024-11-11,株式会社ＵＮＩＲ,,株式会社,山形県,鶴岡市,下川字陳田１０番地,,06,203,9971117,,,,,,,2024-11-11,1,,,,,ユニール,0
2186,7470001020448,新規,0,2024-11-11,2024-11-11,株式会社インビジブル,,株式会社,香川県,仲多度郡琴平町,苗田８９９番地１‐Ｃ２０３,,37,403,7660005,,,,,,,2024-11-11,1,,,,,インビジブル,0
2192,7700150058348,新規,0,2024-11-11,2015-10-09,双子大敷組合,,その他,高知県,須崎市,大谷２３５－４４,,39,206,7850055,,,,,,,2015-10-09,1,,,,,フタゴオオシキクミアイ,0
2193,7700150127771,新規,0,2024-11-11,2024-11-11,ｓｈｅｎｚｈｅｎｚｈｏｎｇｃｈｕａｎｇｗｅｉｋｅｊｉｙｏｕｘｉａｎｇｏｎｇｓｉ,,外国会社等,,,,,,,,ｌｏｎｇ　ｇａｎｇ　ｑｕ　ｈｅｎｇ　ｇａｎｇ　ｊｉｅ　ｄａｏ，ｌｉ　ｊｉａ　ｌｕ　ｘｉｎ　ｍａ　ｓｈａｎｇ　ｍａｏ　ｃｈｅｎｇ　４　ｈａｏ　ｌｏｕ　３　ｌｏｕ　３３０　Ｂ，Ｓｈｅｎ　ｚｈｅｎ，Ｇｕａｎｇ　ｄｏｎｇ,,,,,,2024-11-11,1,,,,,シンセンシュウソウイカギユウゲンコウシ,0
2207,8010001249669,新規,0,2024-11-11,2024-11-11,株式会社スペースレユスイール,,株式会社,東京都,千代田区,九段南１丁目５番６号りそな九段ビル５Ｆ,,13,101,1020074,,,,,,,2024-11-11,1,,,,,スペースレユスイール,0
2208,8010001249702,新規,0,2024-11-11,2024-11-11,株式会社みんなの真実,,株式会社,東京都,中央区,八重洲１丁目４番６号八重洲境井ビル,,13,102,1030028,,,,,,,2024-11-11,1,,,,,ミンナノシンジツ,0
2209,8010001249776,新規,0,2024-11-11,2024-11-11,ＦＬＵＵ　ＮＫＵＵ株式会社,,株式会社,東京都,千代田区,神田猿楽町２丁目４番７－４０２号,,13,101,1010064,,,,,,,2024-11-11,1,,,,,フルーヌクー,0
2234,8010401186231,新規,0,2024-11-11,2024-11-11,株式会社ｈｅａｒ,,株式会社,東京都,港区,南青山３丁目１４番４号ＹＴＫ南青山Ｂ１Ｆ,,13,103,1070062,,,,,,,2024-11-11,1,,,,,ヒアー,0
2235,8010401186248,新規,0,2024-11-11,2024-11-11,ＯＳＨＩＡＩ株式会社,,株式会社,東京都,港区,芝浦３丁目１９－１８内村芝浦ビル６階６Ｂ,,13,103,1080023,,,,,,,2024-11-11,1,,,,,オシアイ,0
2236,8010401186256,新規,0,2024-11-11,2024-11-11,ＭＣＦＦ株式会社,,株式会社,東京都,港区,北青山２丁目１１－１０ＨＡＣＨＩＹＡ１０１号室,,13,103,1070061,,,,,,,2024-11-11,1,,,,,エムシーエフエフ,0
2237,8010401186264,新規,0,2024-11-11,2024-11-11,株式会社ライフサポート,,株式会社,東京都,港区,六本木４丁目９番２－９０８号,,13,103,1060032,,,,,,,2024-11-11,1,,,,,ライフサポート,0
2238,8010401186289,新規,0,2024-11-11,2024-11-11,株式会社Ｍストレージ,,株式会社,東京都,港区,虎ノ門１丁目１番１２号,,13,103,1050001,,,,,,,2024-11-11,1,,,,,エムストレージ,0
2242,8010403033745,新規,0,2024-11-11,2024-11-11,合同会社プラムエナジー,,合同会社,東京都,港区,愛宕１丁目６番８号,,13,103,1050002,,,,,,,2024-11-11,1,,,,,プラムエナジー,0
2243,8010403033761,新規,0,2024-11-11,2024-11-11,合同会社ＴＲＥＣ１２,,合同会社,東京都,港区,赤坂７丁目６番１５号,,13,103,1070052,,,,,,,2024-11-11,1,,,,,トレックジュウニ,0
2249,8010405023760,新規,0,2024-11-11,2024-11-11,一般社団法人プラムエナジー,,その他の設立登記法人,東京都,港区,愛宕１丁目６番８号,,13,103,1050002,,,,,,,2024-11-11,1,,,,,プラムエナジー,0
2250,8010501053141,新規,0,2024-11-11,2024-11-11,株式会社ＬＢＣメディカルホールディングス,,株式会社,東京都,台東区,上野３丁目２１番５号ＢＩＮＯ御徒町３階３０１区画,,13,106,1100005,,,,,,,2024-11-11,1,,,,,エルビーシーメディカルホールディングス,0
2254,8010601066217,新規,0,2024-11-11,2024-11-11,ＮＯＮＡＭＥ株式会社,,株式会社,東京都,墨田区,立花２丁目２５番１４号皆川ビル３０２,,13,107,1310043,,,,,,,2024-11-11,1,,,,,ノナメ,0
2269,8011001165641,新規,0,2024-11-11,2024-11-11,株式会社ぐらで,,株式会社,東京都,渋谷区,道玄坂１丁目１６番６号二葉ビル８Ｂ,,13,113,1500043,,,,,,,2024-11-11,1,,,,,グラデ,0
2270,8011001165690,新規,0,2024-11-11,2024-11-11,株式会社ワイズ・ホールディングス,,株式会社,東京都,渋谷区,渋谷１丁目１１番３号正栄ビル３階,,13,113,1500002,,,,,,,2024-11-11,1,,,,,ワイズホールディングス,0
2271,8011001165724,新規,0,2024-11-11,2024-11-11,株式会社伊勢志摩アート・カンパニー,,株式会社,東京都,渋谷区,渋谷２丁目１９－１５宮益坂ビルディング６０９,,13,113,1500002,,,,,,,2024-11-11,1,,,,,イセシマアートカンパニー,0
2272,8011001165740,新規,0,2024-11-11,2024-11-11,株式会社ｄｅａｌｒｏｏｍ,,株式会社,東京都,渋谷区,神宮前３丁目１２番１号,,13,113,1500001,,,,,,,2024-11-11,1,,,,,ディールルーム,0
2283,8011101109473,新規,0,2024-11-11,2024-11-11,ＲＯＭＡＮＤ株式会社,,株式会社,東京都,新宿区,新宿５丁目１５番１４号ＩＮＢＯＵＮＤＬＥＡＧＵＥ１Ｆ,,13,104,1600022,,,,,,,2024-11-11,1,,,,,ロマンド,0
2286,8011201025918,新規,0,2024-11-11,2024-11-11,株式会社ほたて,,株式会社,東京都,中野区,弥生町２丁目１５番１２号ｐｉｓｏｌ,,13,114,1640013,,,,,,,2024-11-11,1,,,,,ホタテ,0
2287,8011203004523,新規,0,2024-11-11,2024-11-11,合同会社エコンテック３４号,,合同会社,東京都,中野区,江古田３丁目１４番３号,,13,114,1650022,,,,,,,2024-11-11,1,,,,,エコンテックサンジュウヨンゴウ,0
2290,8011301030149,新規,0,2024-11-11,2024-11-11,昊遠株式会社,,株式会社,東京都,杉並区,上高井戸１丁目１７番２９号クレストヒルズ上高井戸１０４室,,13,115,1680074,,,,,,,2024-11-11,1,,,,,コウエン,0
2295,8011603004503,新規,0,2024-11-11,2024-11-11,合同会社エフエス,,合同会社,東京都,練馬区,石神井台４丁目１０－２０－２１８,,13,120,1770045,,,,,,,2024-11-11,1,,,,,エフエス,0
2296,8011603004511,新規,0,2024-11-11,2024-11-11,Ｐｉｎｏ．Ｃｏ合同会社,,合同会社,東京都,練馬区,氷川台４丁目５９番１２号,,13,120,1790084,,,,,,,2024-11-11,1,,,,,ピノコ,0
2298,8011801045118,新規,0,2024-11-11,2024-11-11,株式会社渕江企画,,株式会社,東京都,足立区,竹の塚５丁目５番１２－２０５号,,13,121,1210813,,,,,,,2024-11-11,1,,,,,フチエキカク,0
2301,8012403006838,新規,0,2024-11-11,2024-11-11,ＴＧＸアウトソーシング合同会社,,合同会社,東京都,狛江市,猪方３丁目１５番１０号,,13,219,2010015,,,,,,,2024-11-11,1,,,,,ティージーエックスアウトソーシング,0
2303,8012801023559,新規,0,2024-11-11,2024-11-11,株式会社アサヒツール,,株式会社,東京都,武蔵村山市,三ツ藤１丁目２５番地の１２,,13,223,2080021,,,,,,,2024-11-11,1,,,,,アサヒツール,0
2309,8013301053344,新規,0,2024-11-11,2024-11-11,株式会社ＨｅｌｉｏＸ,,株式会社,東京都,豊島区,南池袋２丁目４７－７サンハイツ池袋８０２,,13,116,1710022,,,,,,,2024-11-11,1,,,,,ヘリオス,0
2314,8020001159982,新規,0,2024-11-11,2024-11-11,株式会社ミッケホールディングス,,株式会社,神奈川県,横浜市港北区,日吉３丁目２番４号,,14,109,2230061,,,,,,,2024-11-11,1,,,,,ミッケホールディングス,0
2315,8020001159990,新規,0,2024-11-11,2024-11-11,株式会社翔福,,株式会社,神奈川県,横浜市神奈川区,三ツ沢上町７番８号ハイツジュネス２０３,,14,102,2210856,,,,,,,2024-11-11,1,,,,,ショウフク,0
2316,8020001160024,新規,0,2024-11-11,2024-11-11,ドウラク株式会社,,株式会社,神奈川県,横浜市泉区,和泉中央北１丁目９番１８号,,14,116,2450024,,,,,,,2024-11-11,1,,,,,ドウラク,0
2320,8020003027213,新規,0,2024-11-11,2024-11-11,合同会社Ｒａｘｅｓ,,合同会社,神奈川県,川崎市多摩区,南生田２丁目６番６－４号,,14,135,2140036,,,,,,,2024-11-11,1,,,,,,0
2324,8021003015199,新規,0,2024-11-11,2024-11-11,合同会社ピー・エム・ダブリュー,,合同会社,神奈川県,茅ヶ崎市,浜須賀１１番２２号,,14,207,2530035,,,,,,,2024-11-11,1,,,,,ピーエムダブリュー,0
2348,8040001136113,新規,0,2024-11-11,2024-11-11,株式会社ＭＰＣ,,株式会社,千葉県,君津市,豊英３３６,,12,225,2921179,,,,,,,2024-11-11,1,,,,,エムピーシー,0
2349,8040003026163,新規,0,2024-11-11,2024-11-11,合同会社ＭＨアドバイザーズ,,合同会社,千葉県,市原市,君塚４丁目１２－１３,,12,219,2900051,,,,,,,2024-11-11,1,,,,,エムエイチアドバイザーズ,0
2353,8050001055675,新規,0,2024-11-11,2024-11-11,株式会社アーカーシャ,,株式会社,茨城県,土浦市,中村南６丁目１番１９号,,08,203,3000843,,,,,,,2024-11-11,1,,,,,アーカーシャ,0
2357,8070001042341,新規,0,2024-11-11,2024-11-11,ＤｉＣ　Ｄｅｎｋｏ株式会社,,株式会社,群馬県,伊勢崎市,豊城町２１６１番地２,,10,204,3720012,,,,,,,2024-11-11,1,,,,,ディーアイシーデンコー,0
2358,8070002026500,新規,0,2024-11-11,2024-11-11,有限会社武井商店,,有限会社,群馬県,渋川市,赤城町敷島４５１番地,,10,208,3791104,,,,,,,2024-11-11,1,,,,,タケイショウテン,0
2361,8080401027552,新規,0,2024-11-11,2024-11-11,株式会社Ｒｅｓｕｒｒｅｃｔｉｏｎｓ,,株式会社,静岡県,菊川市,中内田２５６６番地,,22,224,4390036,,,,,,,2024-11-11,1,,,,,レザレクションズ,0
2362,8080401027560,新規,0,2024-11-11,2024-11-11,大丸自動車販売株式会社,,株式会社,静岡県,浜松市中央区,西島町３１４番地の２,,22,138,4300837,,,,,,,2024-11-11,1,,,,,ダイマルジドウシャハンバイ,0
2363,8080401027569,新規,0,2024-11-11,2024-11-11,明揚商事株式会社,,株式会社,静岡県,浜松市中央区,和光町２１２番地,,22,138,4311101,,,,,,,2024-11-11,1,,,,,ミヨウショウジ,0
2377,8120001270011,新規,0,2024-11-11,2024-11-11,優地株式会社,,株式会社,大阪府,大阪市生野区,新今里７丁目５番１８－３０２号,,27,116,5440001,,,,,,,2024-11-11,1,,,,,ユウチ,0
2378,8120001270143,新規,0,2024-11-11,2024-11-11,博聞株式会社,,株式会社,大阪府,大阪市生野区,小路東６丁目８番１７号昭和エクセルビュー東大阪１０３－Ｇ１０,,27,116,5440003,,,,,,,2024-11-11,1,,,,,ハクブン,0
2382,8120003027921,新規,0,2024-11-11,2024-11-11,合同会社ＭＵＳＵＢＩ,,合同会社,大阪府,大阪市淀川区,三津屋中２丁目５番２０号ＧＲＡＮＤＩＲ神崎川２０１号,,27,123,5320036,,,,,,,2024-11-11,1,,,,,ムスビ,0
2386,8120901050009,新規,0,2024-11-11,2024-11-11,株式会社ＫＳ,,株式会社,大阪府,摂津市,鳥飼和道１丁目１０番１７号,,27,224,5660073,,,,,,,2024-11-11,1,,,,,ケーエス,0
2391,8130001078321,新規,0,2024-11-11,2024-11-11,Ａｑｕａ‐ＳｅｍｉＴｅｃｈ株式会社,,株式会社,京都府,京都市下京区,中堂寺南町１３４番地ＡＳＴＥＭ棟８階,,26,106,6008813,,,,,,,2024-11-11,1,,,,,アクアセミテック,0
2393,8130003009992,新規,0,2024-11-11,2024-11-11,合同会社てとて,,合同会社,京都府,京都市下京区,七条通油小路東入大黒町２２７番地第２キョ―トビル４０２,,26,106,6008223,,,,,,,2024-11-11,1,,,,,テトテ,0
2403,8140001136359,新規,0,2024-11-11,2024-11-11,五百蔵工業株式会社,,株式会社,兵庫県,小野市,育ケ丘町１４７５番地の６０３,,28,218,6751324,,,,,,,2024-11-11,1,,,,,イオロイコウギョウ,0
2404,8140001136391,新規,0,2024-11-11,2024-11-11,株式会社Ｌｕｎａｒ,,株式会社,兵庫県,宍粟市,一宮町杉田２２３番地,,28,227,6714139,,,,,,,2024-11-11,1,,,,,ルナー,0
2411,8150003003416,新規,0,2024-11-11,2024-11-11,合同会社地球であそぼう,,合同会社,奈良県,生駒市,東新町５番７号,,29,209,6300258,,,,,,,2024-11-11,1,,,,,チキュウデアソボウ,0
2419,8180003027585,新規,0,2024-11-11,2024-11-11,合同会社ＺＡＣ,,合同会社,愛知県,名古屋市千種区,猫洞通４丁目２６番地の２,,23,101,4640032,,,,,,,2024-11-11,1,,,,,ザック,0
2420,8180003027602,新規,0,2024-11-11,2024-11-11,ＧＬＯＴＵＳ合同会社,,合同会社,愛知県,名古屋市中村区,名駅４丁目２４番５号第２森ビル４０１,,23,105,4500002,,,,,,,2024-11-11,1,,,,,グロータス,0
2433,8200001043111,新規,0,2024-11-11,2024-11-11,株式会社ＡＣミラン,,株式会社,岐阜県,大垣市,長松町８６６番地１,,21,202,5030997,,,,,,,2024-11-11,1,,,,,エイシーミラン,0
2436,8210001019969,新規,0,2024-11-11,2024-11-11,株式会社ＮＥＷ　ＮＥＸＸＴ,,株式会社,福井県,坂井市,春江町正蓮花第４号４番地１,00136953,18,210,9190443,,,,,,,2024-11-11,1,,,,,ニューネクスト,0
2442,8240001064046,新規,0,2024-11-11,2024-11-11,株式会社オフィスヨーコー,,株式会社,広島県,三原市,宮浦６丁目１９番３号,,34,204,7230051,,,,,,,2024-11-11,1,,,,,,0
2443,8240001064079,新規,0,2024-11-11,2024-11-11,株式会社Ｈ・Ｏ・Ｄ,,株式会社,広島県,広島市安佐北区,口田南９丁目２９番２９号,,34,106,7391733,,,,,,,2024-11-11,1,,,,,エイチオーディー,0
2444,8240001064087,新規,0,2024-11-11,2024-11-11,株式会社ｒｅｂｙ,,株式会社,広島県,広島市西区,上天満町２番７号,,34,104,7330021,,,,,,,2024-11-11,1,,,,,レビィ,0
2450,8250003003587,新規,0,2024-11-11,2024-11-11,合同会社フォーオン,,合同会社,山口県,山口市,後河原４１番地,,35,203,7530083,,,,,,,2024-11-11,1,,,,,フォーオン,0
2452,8260001039624,新規,0,2024-11-11,2024-11-11,株式会社ゆーさぽ,,株式会社,岡山県,岡山市中区,高屋３００番地９,,33,102,7038233,,,,,,,2024-11-11,1,,,,,ユーサポ,0
2457,8290001107849,新規,0,2024-11-11,2024-11-11,株式会社安光,,株式会社,福岡県,福岡市西区,福重４丁目８番１３号,,40,135,8190022,,,,,,,2024-11-11,1,,,,,ヤスミツ,0
2458,8290001107873,新規,0,2024-11-11,2024-11-11,株式会社Ｍｅｍｅ‐Ｍｅｍｅ,,株式会社,福岡県,福岡市西区,姪浜駅南１丁目６番１３号藤井第一ビル５Ｂ,,40,135,8190006,,,,,,,2024-11-11,1,,,,,ミームミーム,0
2459,8290001107881,新規,0,2024-11-11,2024-11-11,ミアミソリューション株式会社,,株式会社,福岡県,久留米市,東合川２丁目５番１５号,,40,203,8390809,,,,,,,2024-11-11,1,,,,,ミアミソリューション,0
2468,8310003004892,新規,0,2024-11-11,2024-11-11,合同会社モトオ,,合同会社,長崎県,諫早市,高来町法川４３３番地１,,42,204,8590126,,,,,,,2024-11-11,1,,,,,モトオ,0
2473,8330001032638,新規,0,2024-11-11,2024-11-11,株式会社ＴＧＩＭ,,株式会社,熊本県,熊本市中央区,下通１丁目３番８号下通りＮＳビル,,43,101,8600807,,,,,,,2024-11-11,1,,,,,ティージーアイエム,0
2478,8360001034409,新規,0,2024-11-11,2024-11-11,株式会社高江洲商事,00136943,株式会社,沖縄県,沖縄市,久保田２丁目３３番２７号,,47,211,9040023,,,,,,,2024-11-11,1,,,,,タカエスショウジ,0
2479,8360001034417,新規,0,2024-11-11,2024-11-11,株式会社テファリキ,,株式会社,沖縄県,宜野湾市,長田３丁目３０番７号,,47,205,9012212,,,,,,,2024-11-11,1,,,,,テファリキ,0
2485,8380001034885,新規,0,2024-11-11,2024-11-11,マルベリィホールディングス株式会社,,株式会社,福島県,いわき市,平字堂ノ前１３番地,,07,204,9708026,,,,,,,2024-11-11,1,,,,,マルベリィホールディングス,0
2486,8380001034893,新規,0,2024-11-11,2024-11-11,株式会社プルアップワン,,株式会社,福島県,郡山市,芳賀１丁目９番２０号,,07,203,9638813,,,,,,,2024-11-11,1,,,,,プルアップワン,0
2487,8380003005884,新規,0,2024-11-11,2024-11-11,合資会社今泉商店,,合資会社,福島県,田村市,船引町今泉字砂田８４番地,,07,211,9634311,,,,,,,2024-11-11,1,,,,,イマイズミショウテン,0
2501,8430001093059,新規,0,2024-11-11,2024-11-11,株式会社しおりパートナーズ,,株式会社,北海道,札幌市中央区,南二条西１０丁目１０００番２４号,,01,101,0600062,,,,,,,2024-11-11,1,,,,,シオリパートナーズ,0
2506,8430003016959,新規,0,2024-11-11,2024-11-11,合同会社市原企画,,合同会社,北海道,札幌市手稲区,新発寒七条４丁目３番８号,,01,109,0060807,,,,,,,2024-11-11,1,,,,,イチハラキカク,0
2513,8490001010900,新規,0,2024-11-11,2024-11-11,株式会社土佐刀剣堂,,株式会社,高知県,高知市,愛宕町４丁目１２番２３号,,39,201,7800051,,,,,,,2024-11-11,1,,,,,トサトウケンドウ,0
2522,9010001249684,新規,0,2024-11-11,2024-11-11,株式会社いくよう,,株式会社,東京都,中央区,銀座１丁目１２番４号Ｎ＆ＥＢＬＤ．６Ｆ,,13,102,1040061,,,,,,,2024-11-11,1,,,,,イクヨウ,0
2523,9010001249809,新規,0,2024-11-11,2024-11-11,株式会社ＣｉｅＲｏｕｇｅ,,株式会社,東京都,中央区,東日本橋１丁目３番１０号六波羅ビル２階,,13,102,1030004,,,,,,,2024-11-11,1,,,,,シェルジュ,0
2565,9010401186214,新規,0,2024-11-11,2024-11-11,株式会社アンロックメディア,,株式会社,東京都,港区,東新橋１丁目８番１号,,13,103,1050021,,,,,,,2024-11-11,1,,,,,アンロックメディア,0
2566,9010401186239,新規,0,2024-11-11,2024-11-11,株式会社ＨＹＢＥ　ＩＭ　ＪＡＰＡＮ,,株式会社,東京都,港区,東新橋１丁目９番２号,,13,103,1050021,,,,,,,2024-11-11,1,,,,,ハイブアイエムジャパン,0
2567,9010401186247,新規,0,2024-11-11,2024-11-11,株式会社Ｓｍａｒｔ　Ｒｅｖｏｌｕｔｉｏｎ　Ｔｏｋｙｏ,,株式会社,東京都,港区,西新橋２丁目１９番４号喜助西新橋ビル３階,,13,103,1050003,,,,,,,2024-11-11,1,,,,,スマートレボリューショントウキョウ,0
2568,9010401186305,新規,0,2024-11-11,2024-11-11,ｅｎｇｃｏｎ　Ｊａｐａｎ株式会社,,株式会社,東京都,港区,六本木１丁目１０番３号,,13,103,1060032,,,,,,,2024-11-11,1,,,,,エンコンジャパン,0
2576,9010501053108,新規,0,2024-11-11,2024-11-11,９ＳＴＡＹ株式会社,,株式会社,東京都,台東区,浅草橋５丁目１－３１ロッキービル１Ｆ,,13,106,1110053,,,,,,,2024-11-11,1,,,,,キューステイ,0
2577,9010501053149,新規,0,2024-11-11,2024-11-11,株式会社タクサー,,株式会社,東京都,台東区,根岸３丁目１番２２号立花ビル７Ｆ,,13,106,1100003,,,,,,,2024-11-11,1,,,,,タクサー,0
2594,9011001165789,新規,0,2024-11-11,2024-11-11,株式会社ＴＳＴＳ,,株式会社,東京都,渋谷区,幡ヶ谷１丁目２番２号,,13,113,1510072,,,,,,,2024-11-11,1,,,,,ティーエスティーエス,0
2595,9011003020331,新規,0,2024-11-11,2024-11-11,合同会社Ｋｏｍｏｒｅｂｉ　Ｄｒｅａｍ,,合同会社,東京都,渋谷区,渋谷２丁目１９－１５宮益坂ビルディング６０９,,13,113,1500002,,,,,,,2024-11-11,1,,,,,コモレビドリーム,0
2596,9011003020372,新規,0,2024-11-11,2024-11-11,ＳＨＩＢＵＹＡ３６０合同会社,,合同会社,東京都,渋谷区,東１丁目２９番３号渋谷ブリッジＢ－５,,13,113,1500011,,,,,,,2024-11-11,1,,,,,シブヤスリーシックスティ,0
2597,9011005010727,新規,0,2024-11-11,2024-11-11,一般社団法人日本フィットネス＆トレーナー協会,,その他の設立登記法人,東京都,渋谷区,渋谷１丁目１－１０ニューハイツ青山１００３,,13,113,1500002,,,,,,,2024-11-11,1,,,,,ニホンフィットネスアンドトレーナーキョウカイ,0
2602,9011201025917,新規,0,2024-11-11,2024-11-11,株式会社凌翔商事,,株式会社,東京都,中野区,上鷺宮１丁目１０番９グリーンコーポ鷺ノ宮１０５号室,,13,114,1650031,,,,,,,2024-11-11,1,,,,,リョウショウショウジ,0
2603,9011203004522,新規,0,2024-11-11,2024-11-11,合同会社エコンテック３３号,,合同会社,東京都,中野区,江古田３丁目１４番３号,,13,114,1650022,,,,,,,2024-11-11,1,,,,,,0
2608,9011401026558,新規,0,2024-11-11,2024-11-11,朋安株式会社,,株式会社,東京都,板橋区,南常盤台１丁目３１番１２号ルート南常盤台７０２,,13,119,1740072,,,,,,,2024-11-11,1,,,,,トモヤス,0
2609,9011403004545,新規,0,2024-11-11,2024-11-11,合同会社インテグリティ,,合同会社,東京都,板橋区,板橋４丁目２８番１０－３０９号,,13,119,1730004,,,,,,,2024-11-11,1,,,,,インテグリティ,0
2610,9011403004553,新規,0,2024-11-11,2024-11-11,合同会社ラーニングビジョン,,合同会社,東京都,板橋区,大山東町２７番８号２０１号室,,13,119,1730014,,,,,,,2024-11-11,1,,,,,ラーニングビジョン,0
2620,9011803006546,新規,0,2024-11-11,2024-11-11,原田マネジメントオフィス合同会社,,合同会社,東京都,足立区,千住３丁目６番地ツオード千住壱番館８０１,,13,121,1200034,,,,,,,2024-11-11,1,,,,,ハラダマネジメントオフィス,0
2627,9013103001384,新規,0,2024-11-11,2024-11-11,くるみねこ合同会社,,合同会社,東京都,福生市,本町２３番地３プレステージ福生３０６,,13,218,1970022,,,,,,,2024-11-11,1,,,,,クルミネコ,0
2640,9013301053343,新規,0,2024-11-11,2024-11-11,株式会社常盤屋,,株式会社,東京都,豊島区,東池袋２丁目６２番８号ビッグオフィスプラザ９０３号室,,13,116,1700013,,,,,,,2024-11-11,1,,,,,トキワヤ,0
2641,9013305003666,新規,0,2024-11-11,2024-11-11,一般社団法人セーフテクノロジー,,その他の設立登記法人,東京都,豊島区,東池袋１丁目１７番１１号パークハイツ池袋８０７,,13,116,1700013,,,,,,,2024-11-11,1,,,,,セーフテクノロジー,0
2645,9020001159981,新規,0,2024-11-11,2024-11-11,株式会社ＳＯＡＲＡ,,株式会社,神奈川県,横浜市青葉区,市ケ尾町１１６７番地３－３０１,,14,117,2250024,,,,,,,2024-11-11,1,,,,,ソアラ,0
2646,9020001159998,新規,0,2024-11-11,2024-11-11,株式会社ＰＵＰＩＬＡ,,株式会社,神奈川県,横浜市神奈川区,金港町５－１４クアドリフォリオ８階,,14,102,2210056,,,,,,,2024-11-11,1,,,,,プピーラ,0
2647,9020001160007,新規,0,2024-11-11,2024-11-11,株式会社ＴＥＲＲＩＡ,,株式会社,神奈川県,横浜市青葉区,青葉台１丁目１１番４田園青葉台住宅１０－４０６,,14,117,2270062,,,,,,,2024-11-11,1,,,,,テリア,0
2648,9020003027204,新規,0,2024-11-11,2024-11-11,合同会社ＯＮＥ　ａｎｄ　ＯＮＬＹ,,合同会社,神奈川県,川崎市宮前区,犬蔵２丁目３９番２－３３３号,,14,136,2160011,,,,,,,2024-11-11,1,,,,,ワンアンドオンリー,0
2649,9020003027212,新規,0,2024-11-11,2024-11-11,Ｔ．Ｖ合同会社,,合同会社,神奈川県,川崎市川崎区,東田町２－２ＲＴビル１階Ｂ店舗,,14,131,2100005,,,,,,,2024-11-11,1,,,,,ティヴィ,0
2650,9020003027220,新規,0,2024-11-11,2024-11-11,合同会社おっくん企画,,合同会社,神奈川県,横浜市磯子区,磯子８丁目４番１０１号,,14,107,2350016,,,,,,,2024-11-11,1,,,,,オックンキカク,0
2656,9021001083718,新規,0,2024-11-11,2024-11-11,株式会社中村創建,,株式会社,神奈川県,相模原市南区,南台３丁目４番２７号,,14,153,2520314,,,,,,,2024-11-11,1,,,,,ナカムラソウケン,0
2657,9021001083734,新規,0,2024-11-11,2024-11-11,株式会社ビーエッセンス,,株式会社,神奈川県,藤沢市,善行坂１丁目２１番２６号レオパレスシンフォニア２０２,,14,205,2510876,,,,,,,2024-11-11,1,,,,,ビーエッセンス,0
2661,9021003015207,新規,0,2024-11-11,2024-11-11,ＰＡＳＴ合同会社,,合同会社,神奈川県,厚木市,下川入６２－１,,14,212,2430206,,,,,,,2024-11-11,1,,,,,パスト,0
2672,9040001136104,新規,0,2024-11-11,2024-11-11,ＳＦ株式会社,,株式会社,千葉県,佐倉市,表町１丁目８－１０－２Ｄ,,12,212,2850811,,,,,,,2024-11-11,1,,,,,エスエフ,0
2682,9070001042340,新規,0,2024-11-11,2024-11-11,株式会社茂木商店,,株式会社,群馬県,館林市,分福町１９００番地の４７１,,10,207,3740034,,,,,,,2024-11-11,1,,,,,モテギショウテン,0
2694,9090001018990,新規,0,2024-11-11,2024-11-11,株式会社Ｓｕｎｎｙ　ＣＡＬＭ,,株式会社,山梨県,富士吉田市,下吉田３丁目２０－２８,,19,202,4030004,,,,,,,2024-11-11,1,,,,,,0
2696,9100001037997,新規,0,2024-11-11,2024-11-11,株式会社梨園,,株式会社,長野県,北佐久郡軽井沢町,大字追分６０１９,,20,321,3890115,,,,,,,2024-11-11,1,,,,,リエン,0
2697,9100001038013,新規,0,2024-11-11,2024-11-11,株式会社ｒｅｇｏｌｉｔｈ,,株式会社,長野県,長野市,大字栗田７１５番地５２サーパス栗田５０４,,20,201,3800921,,,,,,,2024-11-11,1,,,,,レゴリス,0
2708,9120001270118,新規,0,2024-11-11,2024-11-11,株式会社ＵＭＢＯＯ,,株式会社,大阪府,大阪市西区,立売堀１丁目１４番４－１５０２号,,27,106,5500012,,,,,,,2024-11-11,1,,,,,アンブー,0
2709,9120001270126,新規,0,2024-11-11,2024-11-11,株式会社アクセル,,株式会社,大阪府,大阪市北区,梅田２丁目５番１３号桜橋第一ビル３０４号,,27,127,5300001,,,,,,,2024-11-11,1,,,,,アクセル,0
2710,9120001270159,新規,0,2024-11-11,2024-11-11,ＫＡＮ　ｄｅ　Ｋｉｔｃｈｅｎ株式会社,,株式会社,大阪府,大阪市中央区,東心斎橋２丁目８番７号,,27,128,5420083,,,,,,,2024-11-11,1,,,,,カンデキッチン,0
2711,9120001270167,新規,0,2024-11-11,2024-11-11,晟熙株式会社,,株式会社,大阪府,大阪市西淀川区,野里２丁目１４－１３－１０８室,,27,113,5550024,,,,,,,2024-11-11,1,,,,,アキ,0
2714,9120003027920,新規,0,2024-11-11,2024-11-11,合同会社ＧＷ,,合同会社,大阪府,交野市,星田２丁目１６－３１シャルム谷１０８,,27,230,5760016,,,,,,,2024-11-11,1,,,,,ジーダブリュー,0
2716,9120101070558,新規,0,2024-11-11,2024-11-11,株式会社オーヴィット,,株式会社,大阪府,高石市,綾園７丁目８番４０－２０２号,,27,225,5920014,,,,,,,2024-11-11,1,,,,,オーヴィット,0
2717,9120101070574,新規,0,2024-11-11,2024-11-11,株式会社タリモア,,株式会社,大阪府,堺市北区,中百舌鳥町６丁８１９番地玉井ビル２階Ａ,,27,146,5918023,,,,,,,2024-11-11,1,,,,,タリモア,0
2718,9120103006130,新規,0,2024-11-11,2024-11-11,合同会社ゴールデンドラゴン,,合同会社,大阪府,堺市堺区,山本町５丁１１８番地,,27,141,5900983,,,,,,,2024-11-11,1,,,,,ゴールデンドラゴン,0
2724,9130001078279,新規,0,2024-11-11,2024-11-11,株式会社シックスマテリアル,,株式会社,京都府,京都市中京区,西ノ京職司町４番地１０,,26,104,6048381,,,,,,,2024-11-11,1,,,,,シックスマテリアル,0
2730,9140001136374,新規,0,2024-11-11,2024-11-11,株式会社アールズ,,株式会社,兵庫県,姫路市,飾磨区妻鹿１６０８番地３,,28,201,6728031,,,,,,,2024-11-11,1,,,,,アールズ,0
2735,9150003003415,新規,0,2024-11-11,2024-11-11,合同会社ポミエ,,合同会社,奈良県,葛城市,北花内９６９番地,,29,211,6392113,,,,,,,2024-11-11,1,,,,,ポミエ,0
2739,9180001163984,新規,0,2024-11-11,2024-11-11,株式会社Ｙ＆Ｔ設計,,株式会社,愛知県,名古屋市南区,豊田４丁目５－３４,,23,112,4570841,,,,,,,2024-11-11,1,,,,,ワイアンドティーセッケイ,0
2740,9180001164000,新規,0,2024-11-11,2024-11-11,株式会社中測技研ホールディングス,,株式会社,愛知県,名古屋市南区,明治１丁目１４番２８号,,23,112,4570861,,,,,,,2024-11-11,1,,,,,チュウソクギケンホールディングス,0
2741,9180001164041,新規,0,2024-11-11,2024-11-11,株式会社ＨＴＹ,,株式会社,愛知県,名古屋市昭和区,前山町２丁目４６番地の２,,23,107,4660821,,,,,,,2024-11-11,1,,,,,エイチティーワイ,0
2742,9180001164082,新規,0,2024-11-11,2024-11-11,株式会社レベライズ,,株式会社,愛知県,名古屋市西区,歌里町２８２番地グランフォルム１０２,,23,104,4520807,,,,,,,2024-11-11,1,,,,,レベライズ,0
2746,9180003027584,新規,0,2024-11-11,2024-11-11,合同会社ベアボディ,,合同会社,愛知県,名古屋市中区,伊勢山２丁目１３番２０号（パークサイド金山５０６号）,,23,106,4600026,,,,,,,2024-11-11,1,,,,,ベアボディ,0
2747,9180003027592,新規,0,2024-11-11,2024-11-11,イーエスジーパートナーズ合同会社,,合同会社,愛知県,名古屋市千種区,千種通７丁目１０１オオクラビル４Ｆ,,23,101,4640855,,,,,,,2024-11-11,1,,,,,イーエスジーパートナーズ,0
2748,9180301039216,新規,0,2024-11-11,2024-11-11,株式会社パルティエ,,株式会社,愛知県,岡崎市,宇頭町字池下２番地２９,,23,202,4440905,,,,,,,2024-11-11,1,,,,,パルティエ,0
2752,9200003006577,新規,0,2024-11-11,2024-11-11,合同会社トリプルティ,,合同会社,岐阜県,岐阜市,塩町１丁目２６番地,,21,201,5008127,,,,,,,2024-11-11,1,,,,,トリプルティ,0
2758,9240001064086,新規,0,2024-11-11,2024-11-11,株式会社ティ・エイチ・エス,,株式会社,広島県,東広島市,八本松西５丁目６番１３号,,34,212,7390147,,,,,,,2024-11-11,1,,,,,ティエイチエス,0
2766,9290001107872,新規,0,2024-11-11,2024-11-11,株式会社グリーンクロスホールディングス,,株式会社,福岡県,福岡市中央区,笹丘１丁目１７番２９号,,40,133,8100034,,,,,,,2024-11-11,1,,,,,グリーンクロスホールディングス,0
2767,9290001107897,新規,0,2024-11-11,2024-11-11,まごころホールディングス株式会社,,株式会社,福岡県,福岡市中央区,大手門１丁目２番１８－８０３号,,40,133,8100074,,,,,,,2024-11-11,1,,,,,マゴコロホールディングス,0
2768,9290003016023,新規,0,2024-11-11,2024-11-11,Ｋアセットマネジメント福岡合同会社,,合同会社,福岡県,福岡市中央区,輝国２丁目８番２０号,,40,133,8100032,,,,,,,2024-11-11,1,,,,,ケーアセットマネジメント,0
2776,9310003004891,新規,0,2024-11-11,2024-11-11,合同会社いづき工業,,合同会社,長崎県,長崎市,琴海村松町４番地１９,,42,201,8513102,,,,,,,2024-11-11,1,,,,,イヅキコウギョウ,0
2777,9320001020799,新規,0,2024-11-11,2024-11-11,株式会社ワットハンズ,,株式会社,大分県,杵築市,大字本庄６９７番地,,44,210,8730014,,,,,,,2024-11-11,1,,,,,ワットハンズ,0
2779,9330001032637,新規,0,2024-11-11,2024-11-11,株式会社琴平,,株式会社,熊本県,熊本市西区,沖新町４７１１番地１,,43,103,8615273,,,,,,,2024-11-11,1,,,,,コトヒラ,0
2787,9360001034416,新規,0,2024-11-11,2024-11-11,スカイルーフ株式会社,,株式会社,沖縄県,沖縄市,美原１丁目８番２号,,47,211,9042155,,,,,,,2024-11-11,1,,,,,スカイルーフ,0
2793,9370001051897,新規,0,2024-11-11,2024-11-11,株式会社大司丸水産,,株式会社,宮城県,牡鹿郡女川町,指ケ浜字指ケ浜６５番地の１７,,04,581,9862201,,,,,,,2024-11-11,1,,,,,タイシマルスイサン,0
2794,9370001051906,新規,0,2024-11-11,2024-11-11,株式会社桐澤洋事務所,,株式会社,宮城県,仙台市宮城野区,鶴ケ谷８丁目３番地の１４,,04,102,9830824,,,,,,,2024-11-11,1,,,,,キリサワヒロシジムショ,0
2796,9370003006809,新規,0,2024-11-11,2024-11-11,合同会社結進建設,,合同会社,宮城県,名取市,美田園４丁目２０番地の１グランディール２０２号,,04,207,9811217,,,,,,,2024-11-11,1,,,,,ユウシンケンセツ,0
2797,9370003006817,新規,0,2024-11-11,2024-11-11,合同会社烏龍舎,,合同会社,宮城県,仙台市青葉区,小松島２丁目７番６号バースランド２１１,,04,101,9810905,,,,,,,2024-11-11,1,,,,,ウロンシャ,0
2800,9380001034901,新規,0,2024-11-11,2024-11-11,仁和貿易株式会社,,株式会社,福島県,いわき市,鹿島町御代字御代坂８４番地,,07,204,9718146,,,,,,,2024-11-11,1,,,,,ジンワボウエキ,0
2804,9400005008452,新規,0,2024-11-11,2024-11-11,一般社団法人いきいきライフ協会しおさい,,その他の設立登記法人,岩手県,釜石市,中妻町２丁目２番１１号,,03,211,0260034,,,,,,,2024-11-11,1,,,,,イキイキライフキョウカイシオサイ,0
2811,9430001093009,新規,0,2024-11-11,2024-11-11,株式会社友杏建設,,株式会社,北海道,恵庭市,恵み野西１丁目１６番１４,,01,231,0611373,,,,,,,2024-11-11,1,,,,,ユウアケンセツ,0
2812,9430003016982,新規,0,2024-11-11,2024-11-11,合同会社ＦＬＡＶＯＲ,,合同会社,北海道,札幌市中央区,大通西１９丁目１‐２７シャンボール大通第二１０４,,01,101,0600042,,,,,,,2024-11-11,1,,,,,フレーバー,0
2814,9490003001954,新規,0,2024-11-11,2024-11-11,合同会社クエッタ,,合同会社,高知県,高知市,本町１丁目６番３２号,,39,201,7800870,,,,,,,2024-11-11,1,,,,,クエッタ,0
2817,9700150127654,新規,0,2024-11-11,2024-11-11,ｓｈａｎｇｈａｉｈｏｕｅｎｊｉｄｉａｎｋｅｊｉｙｏｕｘｉａｎｇｏｎｇｓｉ,,外国会社等,,,,,,,,ｚｈｏｎｇｇｕｏ（ｓｈａｎｇｈａｉ）ｚｉｙｏｕｍａｏｙｉｓｈｉｙａｎｑｕｒｕｓｈａｎｌｕ２０６ｈａｏ５１０Ａｓｈｉ,,,,,,2024-11-11,1,,,,,シヤンハイコウオンキデンカギユウゲンコウシ,0
