sequenceNumber,corporateNumber,process,correct,updateDate,changeDate,name,nameImageId,kind,prefectureName,cityName,streetNumber,addressImageId,prefectureCode,cityCode,postCode,addressOutside,addressOutsideImageId,closeDate,closeCause,successorCorporateNumber,changeCause,assignmentDate,latest,enName,enPrefectureName,enCityName,enAddressOutside,furigana,hihyoji
8,1010001260293,新規,0,2025-11-18,2025-11-18,株式会社リズナラボ,,株式会社,東京都,文京区,水道２丁目８番８号エヴェナール江戸川橋６０２,,13,105,1120005,,,,,,,2025-11-18,1,,,,,リズナラボ,0
9,1010001260343,新規,0,2025-11-18,2025-11-18,株式会社ＯｐｔｉＶｉｔａｒｅ,,株式会社,東京都,千代田区,丸の内１丁目４－１丸の内永楽ビルディング２６Ｆｘｌｉｎｋ,,13,101,1000005,,,,,,,2025-11-18,1,,,,,オプティヴィターレ,0
10,1010001260351,新規,0,2025-11-18,2025-11-18,株式会社ネットシスイノベーション,,株式会社,東京都,中央区,日本橋馬喰町１丁目５番６号,,13,102,1030002,,,,,,,2025-11-18,1,,,,,ネットシスイノベーション,0
11,1010001260384,新規,0,2025-11-18,2025-11-18,株式会社オウルジェンス,,株式会社,東京都,千代田区,神田須田町１丁目７番８号ＶＯＲＴ秋葉原ＩＶ２Ｆ,00141580,13,101,1010041,,,,,,,2025-11-18,1,,,,,オウルジェンス,0
13,1010101016967,新規,0,2025-11-18,2025-11-18,株式会社ななかる,,株式会社,東京都,八王子市,片倉町１３７９番地４２,,13,201,1920914,,,,,,,2025-11-18,1,,,,,ナナカル,0
17,1010401194513,新規,0,2025-11-18,2025-11-18,株式会社Ｅａｒｎｉｎｇｓ,,株式会社,東京都,港区,南青山２丁目２番１５号,,13,103,1070062,,,,,,,2025-11-18,1,,,,,アーニングス,0
18,1010401194521,新規,0,2025-11-18,2025-11-18,株式会社ｄｕｄｕ,,株式会社,東京都,港区,六本木３丁目１６番１２号六本木ＫＳビル５Ｆ,,13,103,1060032,,,,,,,2025-11-18,1,,,,,ドゥドゥ,0
19,1010401194595,新規,0,2025-11-18,2025-11-18,株式会社アーバンスペース,,株式会社,東京都,港区,新橋３丁目８番８号ル・グラシエルビル７５－２階２号室,,13,103,1050004,,,,,,,2025-11-18,1,,,,,アーバンスペース,0
20,1010403036639,新規,0,2025-11-18,2025-11-18,合同会社ＴＳＭ１７６,,合同会社,東京都,港区,元赤坂１丁目１番７号,,13,103,1070051,,,,,,,2025-11-18,1,,,,,ティーエスエムヒャクナナジュウロク,0
25,1010501055045,新規,0,2025-11-18,2025-11-18,株式会社ユグドラシル,,株式会社,東京都,台東区,根岸４丁目１４番１０号パラゼット根岸４０１,,13,106,1100003,,,,,,,2025-11-18,1,,,,,ユグドラシル,0
32,1010601068285,新規,0,2025-11-18,2025-11-18,株式会社ティナクル,,株式会社,東京都,墨田区,文花１丁目７番７号,,13,107,1310044,,,,,,,2025-11-18,1,,,,,ティナクル,0
36,1010701048600,新規,0,2025-11-18,2025-11-18,株式会社八重洲ネクスト,,株式会社,東京都,品川区,大崎２丁目１１番２－１００２号,,13,109,1410032,,,,,,,2025-11-18,1,,,,,ヤエスネクスト,0
37,1010701048617,新規,0,2025-11-18,2025-11-18,株式会社ホワイトバニーエンターテインメント,,株式会社,東京都,品川区,北品川１丁目２３番１９号,,13,109,1400001,,,,,,,2025-11-18,1,,,,,ホワイトバニーエンターテインメント,0
54,1011001173254,新規,0,2025-11-18,2025-11-18,株式会社チケットプラス,,株式会社,東京都,渋谷区,渋谷３丁目１２番１８号,,13,113,1500002,,,,,,,2025-11-18,1,,,,,チケットプラス,0
55,1011001173353,新規,0,2025-11-18,2025-11-18,株式会社Ｒａｖｅｎｔｏ,,株式会社,東京都,渋谷区,恵比寿西２丁目８－４ＥＸ恵比寿西ビル５Ｆ,,13,113,1500021,,,,,,,2025-11-18,1,,,,,,0
56,1011001173436,新規,0,2025-11-18,2025-11-18,株式会社ＷＩＺＩＴ,,株式会社,東京都,渋谷区,南平台町１５－１ライオンズマンション南平台４０２,,13,113,1500036,,,,,,,2025-11-18,1,,,,,ウィジット,0
57,1011001173626,新規,0,2025-11-18,2025-11-18,株式会社ＥＩＧＨＴＣＬＵＢ,,株式会社,東京都,目黒区,下目黒１丁目８番１号アルコタワー７階,,13,110,1530064,,,,,,,2025-11-18,1,,,,,エイトクラブ,0
58,1011001173667,新規,0,2025-11-18,2025-11-18,株式会社ダブルワン,,株式会社,東京都,渋谷区,渋谷２丁目１２番１２－７０１号三貴ビル,,13,113,1500002,,,,,,,2025-11-18,1,,,,,ダブルワン,0
62,1011003022938,新規,0,2025-11-18,2025-11-18,合同会社Ｑａｚｅｉ,,合同会社,東京都,渋谷区,神南１丁目１１－４ＦＰＧリンクス神南５階,,13,113,1500041,,,,,,,2025-11-18,1,,,,,ケーゼー,0
63,1011003022970,新規,0,2025-11-18,2025-11-18,Ｚｅｎｉｔｈ　Ａｖｅｎｉｒ合同会社,,合同会社,東京都,渋谷区,道玄坂１丁目１０番８号渋谷道玄坂東急ビル２Ｆ－Ｃ,,13,113,1500043,,,,,,,2025-11-18,1,,,,,ゼニスアベニール,0
69,1011303005766,新規,0,2025-11-18,2025-11-18,合同会社ＨＯＲＩＳストア,,合同会社,東京都,杉並区,和泉１丁目４５番２５号,,13,115,1680063,,,,,,,2025-11-18,1,,,,,ホリスストア,0
71,1011403004940,新規,0,2025-11-18,2025-11-18,ＳＯＵ・アセットマネジメント合同会社,,合同会社,東京都,板橋区,常盤台４丁目３３番１４号新井ビル２０３,,13,119,1740071,,,,,,,2025-11-18,1,,,,,ソウアセットマネジメント,0
76,1012301014602,新規,0,2025-11-18,2025-11-18,株式会社幸和リノベ,,株式会社,東京都,町田市,小野路町４５番地７,,13,209,1950064,,,,,,,2025-11-18,1,,,,,コウワリノベ,0
80,1012403007454,新規,0,2025-11-18,2025-11-18,合同会社スカーレットノワール,,合同会社,東京都,狛江市,中和泉２丁目３番４－３０１号,,13,219,2010012,,,,,,,2025-11-18,1,,,,,スカーレットノワール,0
82,1012803003929,新規,0,2025-11-18,2025-11-18,合同会社トロン,,合同会社,東京都,立川市,柴崎町３丁目５番１１号柴崎町ソシアルビル２階,,13,202,1900023,,,,,,,2025-11-18,1,,,,,トロン,0
89,1013301055322,新規,0,2025-11-18,2025-11-18,株式会社ネクストクールテック,,株式会社,東京都,豊島区,東池袋１丁目３４番５号,,13,116,1700013,,,,,,,2025-11-18,1,,,,,ネクストクールテック,0
97,1020001165822,新規,0,2025-11-18,2025-11-18,株式会社功建土木,,株式会社,神奈川県,横浜市港北区,新羽町４０９８番地３,,14,109,2230057,,,,,,,2025-11-18,1,,,,,コウケンドボク,0
98,1020001165847,新規,0,2025-11-18,2025-11-18,株式会社ＳＵＮＲＡＩＮ,,株式会社,神奈川県,川崎市高津区,子母口１７７番地１テラスハウス１７７Ａ棟２,,14,134,2130023,,,,,,,2025-11-18,1,,,,,サンレイン,0
99,1020001165855,新規,0,2025-11-18,2025-11-18,株式会社宇迪光学ジャパン,,株式会社,神奈川県,横浜市港北区,新横浜２丁目５番５号,,14,109,2220033,,,,,,,2025-11-18,1,,,,,ユディコウガクジャパン,0
100,1020001165863,新規,0,2025-11-18,2025-11-18,株式会社Ｎｏａ,,株式会社,神奈川県,横浜市中区,根岸旭台６２番地根岸台ハイホーム１１５号室,,14,104,2310854,,,,,,,2025-11-18,1,,,,,ノア,0
101,1020001165896,新規,0,2025-11-18,2025-11-18,株式会社ウェルカムホーム,,株式会社,神奈川県,横浜市港北区,新羽町１７４７番地,,14,109,2230057,,,,,,,2025-11-18,1,,,,,ウェルカムホーム,0
108,1020003029793,新規,0,2025-11-18,2025-11-18,合同会社相原,,合同会社,神奈川県,横浜市旭区,南本宿町９８番地１,,14,112,2410833,,,,,,,2025-11-18,1,,,,,アイハラ,0
109,1020003029802,新規,0,2025-11-18,2025-11-18,合同会社ｆｏｒｂｉｔｅｚｚａ,,合同会社,神奈川県,横浜市西区,北幸２丁目１０番４８号むつみビル３階,,14,103,2200004,,,,,,,2025-11-18,1,,,,,フォルビテッツァ,0
110,1020003029810,新規,0,2025-11-18,2025-11-18,白金土地建物合同会社,,合同会社,神奈川県,横浜市中区,住吉町４丁目４５番地１,,14,104,2310013,,,,,,,2025-11-18,1,,,,,シロカネトチタテモノ,0
129,1040001141375,新規,0,2025-11-18,2025-11-18,株式会社ＹＭＳ,,株式会社,千葉県,君津市,外箕輪２丁目１６番２３号,,12,225,2991173,,,,,,,2025-11-18,1,,,,,ワイエムエス,0
130,1040001141409,新規,0,2025-11-18,2025-11-18,株式会社Ｌｉｇｉｅｒ,,株式会社,千葉県,柏市,柏５丁目１番１１号ゼネラルビル柏４Ａ,,12,217,2770005,,,,,,,2025-11-18,1,,,,,リジェ,0
131,1040001141417,新規,0,2025-11-18,2025-11-18,株式会社江野澤企画,,株式会社,千葉県,袖ケ浦市,上宮田４００番地,,12,229,2990222,,,,,,,2025-11-18,1,,,,,エノサワキカク,0
142,1050005013727,新規,0,2025-11-18,2025-11-18,特定非営利活動法人あうりんこ,,その他の設立登記法人,茨城県,小美玉市,中野谷５６５,,08,236,3190111,,,,,,,2025-11-18,1,,,,,アウリンコ,0
143,1060001038776,新規,0,2025-11-18,2025-11-18,株式会社川井ファーム,,株式会社,栃木県,下野市,下坪山６０７番地,,09,216,3230115,,,,,,,2025-11-18,1,,,,,カワイファーム,0
146,1070003006193,新規,0,2025-11-18,2025-11-18,合同会社ｏｍｅｇａ　ｈｏｍｅ,,合同会社,群馬県,北群馬郡吉岡町,大字大久保２８７５番地の２,,10,345,3703602,,,,,,,2025-11-18,1,,,,,,0
147,1080001027265,新規,0,2025-11-18,2025-11-18,株式会社薬膳アロエ,,株式会社,静岡県,牧之原市,片浜７１１番地２,,22,226,4210511,,,,,,,2025-11-18,1,,,,,ヤクゼンアロエ,0
148,1080001027281,新規,0,2025-11-18,2025-11-18,株式会社静岡総合資産研究所,,株式会社,静岡県,静岡市葵区,呉服町１丁目３０番地札の辻クロス７０７,,22,101,4200031,,,,,,,2025-11-18,1,,,,,シズオカソウゴウシサンケンキュウジョ,0
159,1110001039728,新規,0,2025-11-18,2025-11-18,株式会社ｎｏｔ　ａｎｙ,,株式会社,新潟県,長岡市,春日１丁目６‐１８,,15,202,9400096,,,,,,,2025-11-18,1,,,,,ノットエニー,0
171,1120001281915,新規,0,2025-11-18,2025-11-18,株式会社たなか屋,,株式会社,大阪府,大阪市淀川区,宮原２丁目１４－８－３０５号,,27,123,5320003,,,,,,,2025-11-18,1,,,,,タナカヤ,0
172,1120001281972,新規,0,2025-11-18,2025-11-18,株式会社ＡＢＣ,,株式会社,大阪府,大阪市生野区,勝山南１丁目２番１０号,,27,116,5440021,,,,,,,2025-11-18,1,,,,,エービーシー,0
173,1120001282038,新規,0,2025-11-18,2025-11-18,株式会社Ｙｕｒａ　Ｙｕｒａ,,株式会社,大阪府,大阪市淀川区,西中島５丁目８番２９号,,27,123,5320011,,,,,,,2025-11-18,1,,,,,ユラユラ,0
174,1120001282046,新規,0,2025-11-18,2025-11-18,株式会社グランツ,,株式会社,大阪府,大阪市中央区,農人橋２丁目１番３１号第６松屋ビル１０階,,27,128,5400011,,,,,,,2025-11-18,1,,,,,グランツ,0
175,1120001282062,新規,0,2025-11-18,2025-11-18,株式会社ナースとテニス,,株式会社,大阪府,大阪市港区,南市岡３丁目６番５９－２６０３号,,27,107,5520011,,,,,,,2025-11-18,1,,,,,ナーストテニス,0
176,1120001282087,新規,0,2025-11-18,2025-11-18,メジャーファクトリー株式会社,,株式会社,大阪府,大阪市中央区,南本町２丁目１－１本町サザンビルＴＤフロア１Ｆ,,27,128,5410054,,,,,,,2025-11-18,1,,,,,メジャーファクトリー,0
181,1120003031244,新規,0,2025-11-18,2025-11-18,合同会社イルミネートエナジー,,合同会社,大阪府,大阪市中央区,高麗橋４丁目３番７号淀屋橋総合会計内,,27,128,5410043,,,,,,,2025-11-18,1,,,,,イルミネートエナジー,0
182,1120003031252,新規,0,2025-11-18,2025-11-18,合同会社ライブラリウム,,合同会社,大阪府,大阪市北区,浮田２丁目１－３ＭＢＣビル３０９,,27,127,5300021,,,,,,,2025-11-18,1,,,,,ライブラリウム,0
206,1140001140747,新規,0,2025-11-18,2025-11-18,株式会社エムツーケー,,株式会社,兵庫県,神戸市須磨区,一ノ谷町２丁目２番５４号,,28,107,6540076,,,,,,,2025-11-18,1,,,,,エムツーケー,0
213,1160003003644,新規,0,2025-11-18,2025-11-18,Ｃｅｙｌｏｎ　Ｇｌｏｂａｌ　Ｃｏｎｎｅｃｔ合同会社,,合同会社,滋賀県,守山市,今宿１丁目１－８エスリード守山今宿２０５,,25,207,5240046,,,,,,,2025-11-18,1,,,,,セイロングローバルコネクト,0
223,1180001169337,新規,0,2025-11-18,2025-11-18,三和土地開発株式会社,,株式会社,愛知県,名古屋市中区,栄１丁目５番８号,,23,106,4600008,,,,,,,2025-11-18,1,,,,,サンワトチカイハツ,0
224,1180001169485,新規,0,2025-11-18,2025-11-18,株式会社Ｈ＆Ｄ　Ｈｏｌｄｉｎｇｓ,,株式会社,愛知県,春日井市,妙慶町２丁目１８１番地リヴァーサイドＭ・Ｏ２０１号,,23,206,4860928,,,,,,,2025-11-18,1,,,,,エイチアンドディホールディングス,0
225,1180001169527,新規,0,2025-11-18,2025-11-18,株式会社ｉｎｈｅｒｉｔ,,株式会社,愛知県,稲沢市,井之口四家町６３番地,,23,220,4928155,,,,,,,2025-11-18,1,,,,,インヘリット,0
226,1180001169535,新規,0,2025-11-18,2025-11-18,Ｂｕｒｓｔ　Ｐｒｏｊｅｃｔ株式会社,,株式会社,愛知県,名古屋市東区,泉１丁目１１－６ミソカビル２Ｆ,,23,102,4610001,,,,,,,2025-11-18,1,,,,,バーストプロジェクト,0
227,1180001169551,新規,0,2025-11-18,2025-11-18,株式会社みらい,,株式会社,愛知県,一宮市,末広１丁目１０番１号,,23,203,4910918,,,,,,,2025-11-18,1,,,,,ミライ,0
228,1180001169576,新規,0,2025-11-18,2025-11-18,株式会社ＳＴＵＤｉＯ　ＳＨＩＮＫＩＲＯ,,株式会社,愛知県,名古屋市中区,大須２丁目８番２号杉浦ビル１Ｆ,,23,106,4600011,,,,,,,2025-11-18,1,,,,,スタジオシンキロウ,0
230,1180003029373,新規,0,2025-11-18,2025-11-18,合同会社由蓮,,合同会社,愛知県,名古屋市緑区,浦里３丁目２８１番地サーパスシティ鳴海６０２,,23,114,4580847,,,,,,,2025-11-18,1,,,,,ユレン,0
231,1180003029381,新規,0,2025-11-18,2025-11-18,アサコーパートナーズ合同会社,,合同会社,愛知県,名古屋市天白区,池場５丁目１２０８番地３,,23,116,4680055,,,,,,,2025-11-18,1,,,,,アサコーパートナーズ,0
246,1210003001972,新規,0,2025-11-18,2025-11-18,信和合同会社,,合同会社,福井県,福井市,月見２丁目７番５号,,18,201,9188011,,,,,,,2025-11-18,1,,,,,シンワ,0
249,1220001027028,新規,0,2025-11-18,2025-11-18,株式会社ＭＩＮＯＫＡ,,株式会社,石川県,金沢市,米泉町２丁目９番地３,,17,201,9218044,,,,,,,2025-11-18,1,,,,,ミノカ,0
257,1260001040745,新規,0,2025-11-18,2025-11-18,株式会社Ｏｒｂ　ＨＡＩＲ,,株式会社,岡山県,笠岡市,笠岡５８９１－２,,33,205,7140081,,,,,,,2025-11-18,1,,,,,オーブヘアー,0
266,1290003017490,新規,0,2025-11-18,2025-11-18,合同会社アカル,,合同会社,福岡県,福岡市中央区,天神２丁目２－１２,,40,133,8100001,,,,,,,2025-11-18,1,,,,,アカル,0
267,1290003017689,新規,0,2025-11-18,2025-11-18,Ｇ．Ａ．Ｔ．ホールディングス合同会社,,合同会社,福岡県,福岡市南区,鶴田３丁目１５番３０号,,40,134,8111352,,,,,,,2025-11-18,1,,,,,ジーエーティーホールディングス,0
275,1330001033766,新規,0,2025-11-18,2025-11-18,株式会社ＫＡＫＵＳＥＩ工業,,株式会社,熊本県,熊本市南区,田迎３丁目１１番２３号,,43,104,8620962,,,,,,,2025-11-18,1,,,,,カクセイコウギョウ,0
276,1340003005003,新規,0,2025-11-18,2025-11-18,合同会社ＢＡＳＥ１０４５,,合同会社,鹿児島県,鹿児島郡十島村,大字諏訪之瀬島２６５,,46,304,8915203,,,,,,,2025-11-18,1,,,,,ベースイチマルヨンゴウ,0
288,1390001018159,新規,0,2025-11-18,2025-11-18,株式会社ＲＥＢＬ,,株式会社,山形県,東置賜郡高畠町,大字夏茂２０３番地の１,,06,381,9992172,,,,,,,2025-11-18,1,,,,,レブール,0
297,1440001009714,新規,0,2025-11-18,2025-11-18,株式会社Ａｌｐｈａ,,株式会社,北海道,上磯郡知内町,字重内３１番地,,01,333,0491103,,,,,,,2025-11-18,1,,,,,アルファ,0
300,1450001014787,新規,0,2025-11-18,2025-11-18,株式会社エミネンス・ホールディングス,,株式会社,北海道,旭川市,永山六条４丁目１３番３号,,01,204,0798416,,,,,,,2025-11-18,1,,,,,エミネンスホールディングス,0
302,1470003003019,新規,0,2025-11-18,2025-11-18,Ｋ・Ｊ　ＲＯＹＡＬ合同会社,,合同会社,香川県,高松市,川部町５２８番地２３,,37,201,7618046,,,,,,,2025-11-18,1,,,,,ケイジェイロイヤル,0
309,2010001260284,新規,0,2025-11-18,2025-11-18,株式会社Ｅｌｅｖｉｑｕｅ,,株式会社,東京都,中央区,銀座１丁目２２－１１銀座大竹ビジデンス２Ｆ,,13,102,1040061,,,,,,,2025-11-18,1,,,,,エレビーク,0
310,2010001260292,新規,0,2025-11-18,2025-11-18,株式会社ＺＡＩＯＲＡ,,株式会社,東京都,文京区,湯島３丁目１７番５－３０１号,,13,105,1130034,,,,,,,2025-11-18,1,,,,,ザイオラ,0
311,2010001260383,新規,0,2025-11-18,2025-11-18,株式会社Ｔアセット,,株式会社,東京都,中央区,新富２丁目１４番５号ＡＣＮ銀座イーストビル１０階,,13,102,1040041,,,,,,,2025-11-18,1,,,,,ティーアセット,0
312,2010001260441,新規,0,2025-11-18,2025-11-18,Ｄｕｒｉａｎ　Ｍｅｄｉｃａｌ　Ｔｏｋｙｏ株式会社,,株式会社,東京都,中央区,銀座７丁目１３番２１号銀座ｓｉｎｒｏｋｕｓｙｕビル２階,,13,102,1040061,,,,,,,2025-11-18,1,,,,,ドリアンメディカルトウキョウ,0
315,2010003049288,新規,0,2025-11-18,2025-11-18,合同会社ＪＡＭＳ,,合同会社,東京都,中央区,銀座１丁目２２番１１号銀座大竹ビジデンス２Ｆ,,13,102,1040061,,,,,,,2025-11-18,1,,,,,ジャムズ,0
316,2010003049313,新規,0,2025-11-18,2025-11-18,合同会社Ｌｏｎｇ　Ｏｎｅ,,合同会社,東京都,千代田区,神田須田町１丁目７番８号ＶＯＲＴ秋葉原ＩＶ２Ｆ,,13,101,1010041,,,,,,,2025-11-18,1,,,,,ロングワン,0
317,2010003049346,新規,0,2025-11-18,2025-11-18,丸の内アセットマネジメント合同会社,,合同会社,東京都,千代田区,平河町１丁目７番１６号ビュロー平河町６０２,,13,101,1020093,,,,,,,2025-11-18,1,,,,,マルノウチアセットマネジメント,0
318,2010003049429,新規,0,2025-11-18,2025-11-18,ＲａｎｇｉＳｔａｒ合同会社,,合同会社,東京都,中央区,日本橋本町３丁目３番６号ワカ末ビル７階,,13,102,1030023,,,,,,,2025-11-18,1,,,,,ランギスター,0
319,2010003049437,新規,0,2025-11-18,2025-11-18,小山エステート合同会社,,合同会社,東京都,中央区,銀座６丁目１３番１６号銀座ＷａｌｌビルＵＣＦ５階,,13,102,1040061,,,,,,,2025-11-18,1,,,,,コヤマエステート,0
321,2010005040963,新規,0,2025-11-18,2025-11-18,一般社団法人再生医療適性評価機構,,その他の設立登記法人,東京都,中央区,京橋２丁目４番１２号第一生命キノテラス４階,,13,102,1040031,,,,,,,2025-11-18,1,,,,,サイセイイリョウテキセイヒョウカキコウ,0
325,2010101016966,新規,0,2025-11-18,2025-11-18,株式会社ＮＯＢＵＳＡＮ,,株式会社,東京都,八王子市,明神町４丁目６番１２号ザ・ビー八王子３階,,13,201,1920046,,,,,,,2025-11-18,1,,,,,ノブサン,0
332,2010401194504,新規,0,2025-11-18,2025-11-18,株式会社喜多企画,,株式会社,東京都,港区,芝浦４丁目１９番１－４０９号,,13,103,1080023,,,,,,,2025-11-18,1,,,,,キタキカク,0
333,2010401194578,新規,0,2025-11-18,2025-11-18,株式会社ＬＩＥＮＯＲＡ,,株式会社,東京都,港区,北青山３丁目１番６号３１６青山３０３,,13,103,1070061,,,,,,,2025-11-18,1,,,,,リエノラ,0
337,2010403036605,新規,0,2025-11-18,2025-11-18,合同会社Ｈｉｊｉｒｉ,,合同会社,東京都,港区,東麻布３丁目４番１６号ＡＣＡビル６Ｆ,,13,103,1060044,,,,,,,2025-11-18,1,,,,,ヒジリ,0
338,2010403036621,新規,0,2025-11-18,2025-11-18,合同会社しろくまファイナンス,,合同会社,東京都,港区,芝大門２丁目４番６号豊国ビル,,13,103,1050012,,,,,,,2025-11-18,1,,,,,シロクマファイナンス,0
339,2010403036638,新規,0,2025-11-18,2025-11-18,合同会社ＴＳＭ１７５,,合同会社,東京都,港区,元赤坂１丁目１番７号,,13,103,1070051,,,,,,,2025-11-18,1,,,,,ティーエスエムヒャクナナジュウゴ,0
340,2010405025044,新規,0,2025-11-18,2025-11-18,一般社団法人ＴＳＭ１７６,,その他の設立登記法人,東京都,港区,元赤坂１丁目１番７号,,13,103,1070051,,,,,,,2025-11-18,1,,,,,ティーエスエムヒャクナナジュウロク,0
343,2010503008082,新規,0,2025-11-18,2025-11-18,合同会社シャルメ,,合同会社,東京都,台東区,下谷３丁目１－２４ＧＯＧＯオフィス６１６,,13,106,1100004,,,,,,,2025-11-18,1,,,,,シャルメ,0
345,2010703007999,新規,0,2025-11-18,2025-11-18,合同会社ＭＵＧＩＬＥＭＯＮ,,合同会社,東京都,品川区,小山４丁目１４番２２号,,13,109,1420062,,,,,,,2025-11-18,1,,,,,ムギレモン,0
353,2010903010423,新規,0,2025-11-18,2025-11-18,東京ファミリーオフィス合同会社,,合同会社,東京都,世田谷区,上馬５丁目１８番９号,,13,112,1540011,,,,,,,2025-11-18,1,,,,,トウキョウファミリーオフィス,0
357,2011001173559,新規,0,2025-11-18,2025-11-18,ＴＨＧ　Ｎｅｓｔ株式会社,,株式会社,東京都,渋谷区,道玄坂１丁目１０－８,,13,113,1500043,,,,,,,2025-11-18,1,,,,,ティーエイチジーネスト,0
358,2011001173600,新規,0,2025-11-18,2025-11-18,株式会社Ｓ．Ｒ,,株式会社,東京都,渋谷区,恵比寿西２丁目４番８号ウィンド恵比寿ビル８階,,13,113,1500021,,,,,,,2025-11-18,1,,,,,エスアール,0
359,2011001173617,新規,0,2025-11-18,2025-11-18,株式会社テラファーム,,株式会社,東京都,渋谷区,恵比寿１丁目８番１８号Ｋ－１ビル,,13,113,1500013,,,,,,,2025-11-18,1,,,,,テラファーム,0
360,2011001173666,新規,0,2025-11-18,2025-11-18,株式会社ＨＩＴＰＡＷ,,株式会社,東京都,渋谷区,神南１丁目６番５号,,13,113,1500041,,,,,,,2025-11-18,1,,,,,ヒットポー,0
363,2011003022862,新規,0,2025-11-18,2025-11-18,合同会社ＰｒｏＦｏｒｇｅ,,合同会社,東京都,渋谷区,神宮前６丁目２３番４号桑野ビル２階,,13,113,1500001,,,,,,,2025-11-18,1,,,,,プロフォージ,0
372,2011503006778,新規,0,2025-11-18,2025-11-18,世耀合同会社,,合同会社,東京都,北区,滝野川７丁目１１番１０－１００２号朝日板橋駅前マンション,,13,117,1140023,,,,,,,2025-11-18,1,,,,,セヨウ,0
375,2011701028938,新規,0,2025-11-18,2025-11-18,ＮＥＸＵＳ株式会社,,株式会社,東京都,江戸川区,西小岩３丁目１４番３号,,13,123,1330057,,,,,,,2025-11-18,1,,,,,ネクサス,0
379,2012401043830,新規,0,2025-11-18,2025-11-18,株式会社ＣＬＡＳ,,株式会社,東京都,三鷹市,下連雀３丁目９番１２号富士見マンション４０５号,,13,204,1810013,,,,,,,2025-11-18,1,,,,,クラス,0
382,2012803003928,新規,0,2025-11-18,2025-11-18,合同会社Ｙｅｌｌｏｗ　Ｆｒｏｎｔｉｅｒ,,合同会社,東京都,昭島市,東町１丁目２－５,,13,207,1960033,,,,,,,2025-11-18,1,,,,,イエローフロンティア,0
386,2020001165846,新規,0,2025-11-18,2025-11-18,Ｗｉｌｌ　Ｉｎｆｉｎｉｔｙ　Ｃｉｒｃｌｅ株式会社,,株式会社,神奈川県,横浜市戸塚区,上柏尾町５３９番地９７,,14,110,2440811,,,,,,,2025-11-18,1,,,,,ウィルインフィニティサークル,0
391,2020003029801,新規,0,2025-11-18,2025-11-18,Ｒｉｍａｒｋ合同会社,,合同会社,神奈川県,横浜市西区,北幸１丁目１１番５号相鉄ＫＳビル９階,,14,103,2200004,,,,,,,2025-11-18,1,,,,,リマーク,0
392,2020005017044,新規,0,2025-11-18,2025-11-18,社会保険労務士法人青戸事務所,,その他の設立登記法人,神奈川県,川崎市多摩区,登戸３２９３番地３登戸藤澤ビル２階,,14,135,2140014,,,,,,,2025-11-18,1,,,,,アオトジムショ,0
394,2021001086867,新規,0,2025-11-18,2025-11-18,ルミナスインベストメント株式会社,,株式会社,神奈川県,相模原市中央区,宮下本町１丁目１８番６号,,14,152,2520211,,,,,,,2025-11-18,1,,,,,ルミナスインベストメント,0
412,2030001169714,新規,0,2025-11-18,2025-11-18,株式会社４ＬＥＡＦ,,株式会社,埼玉県,鴻巣市,本町４丁目４番２号,,11,217,3650038,,,,,,,2025-11-18,1,,,,,フォーリーフ,0
418,2030003028083,新規,0,2025-11-18,2025-11-18,ＮＯＹＯＮ合同会社,,合同会社,埼玉県,蕨市,塚越４丁目１５－９,,11,223,3350002,,,,,,,2025-11-18,1,,,,,ノヨン,0
426,2040001141440,新規,0,2025-11-18,2025-11-18,株式会社ワールドグリーン,,株式会社,千葉県,市川市,大野町３丁目１９５８番地７,,12,203,2720805,,,,,,,2025-11-18,1,,,,,ワールドグリーン,0
435,2060001038775,新規,0,2025-11-18,2025-11-18,株式会社ジレオン,,株式会社,栃木県,下都賀郡壬生町,大字壬生乙２５３２番地１,,09,361,3210215,,,,,,,2025-11-18,1,,,,,ジレオン,0
441,2080401028267,新規,0,2025-11-18,2025-11-18,株式会社パブリックフリー,,株式会社,静岡県,浜松市中央区,入野町２０００８番地の１２,,22,138,4328061,,,,,,,2025-11-18,1,,,,,パブリックフリー,0
442,2090003002933,新規,0,2025-11-18,2025-11-18,オールテッド合同会社,,合同会社,山梨県,韮崎市,神山町鍋山２０９番地３,,19,207,4070043,,,,,,,2025-11-18,1,,,,,オールテッド,0
449,2110001039735,新規,0,2025-11-18,2025-11-18,株式会社風間工業,,株式会社,新潟県,新潟市東区,上木戸１丁目１７－１４,,15,102,9500891,,,,,,,2025-11-18,1,,,,,カザマコウギョウ,0
455,2120001281740,新規,0,2025-11-18,2025-11-18,株式会社政右衛門,,株式会社,大阪府,寝屋川市,美井元町１５番２４号,,27,215,5720006,,,,,,,2025-11-18,1,,,,,マサエモン,0
456,2120001282061,新規,0,2025-11-18,2025-11-18,株式会社ＲＩＣＨＬＩＦＥ,,株式会社,大阪府,大阪市中央区,南本町４丁目３番１６－１５０９号,,27,128,5410054,,,,,,,2025-11-18,1,,,,,リッチライフ,0
459,2120003031227,新規,0,2025-11-18,2025-11-18,合同会社前田屋,,合同会社,大阪府,大阪市北区,曾根崎２丁目１６－１９メッセージ梅田ビル１階ＯＮｔｈｅＵＭＥＤＡ内,,27,127,5300057,,,,,,,2025-11-18,1,,,,,マエダヤ,0
462,2120101072800,新規,0,2025-11-18,2025-11-18,株式会社ＹＡＢＵＳＨＩＴＡ,,株式会社,大阪府,堺市中区,陶器北４８４番地２,,27,142,5998242,,,,,,,2025-11-18,1,,,,,ヤブシタ,0
467,2122001039912,新規,0,2025-11-18,2025-11-18,株式会社優輪ホールディングス,,株式会社,大阪府,東大阪市,高井田西４丁目５番１８号,,27,227,5770067,,,,,,,2025-11-18,1,,,,,ユウワホールディングス,0
468,2122001039920,新規,0,2025-11-18,2025-11-18,株式会社東北ゴールド,,株式会社,大阪府,八尾市,上尾町４丁目１１番地の１５,,27,212,5810851,,,,,,,2025-11-18,1,,,,,トウホクゴールド,0
483,2140003022827,新規,0,2025-11-18,2025-11-18,ＵＳ＆Ｐリユース合同会社,,合同会社,兵庫県,神戸市西区,玉津町高津橋６１０－１－１０２,,28,111,6512122,,,,,,,2025-11-18,1,,,,,ユーエスアンドピーリユース,0
484,2140003022851,新規,0,2025-11-18,2025-11-18,合同会社Ｏｎｅ,,合同会社,兵庫県,神戸市長田区,上池田１丁目３番２９号,,28,106,6530827,,,,,,,2025-11-18,1,,,,,ワン,0
485,2140005027700,新規,0,2025-11-18,2025-11-18,一般社団法人全国障害福祉事業協会,,その他の設立登記法人,兵庫県,伊丹市,西台１丁目１番１号伊丹阪急ビル５階,,28,207,6640858,,,,,,,2025-11-18,1,,,,,ゼンコクショウガイフクシジギョウキョウカイ,0
500,2180001169534,新規,0,2025-11-18,2025-11-18,株式会社ＡＴＴＲＡＣＴ,,株式会社,愛知県,名古屋市中川区,西日置町一丁目８番３３号Ａｖａｎｃｅ名駅通２０２号,,23,110,4540005,,,,,,,2025-11-18,1,,,,,アトラクト,0
501,2180001169550,新規,0,2025-11-18,2025-11-18,株式会社ナナスタジオ,,株式会社,愛知県,瀬戸市,緑町２丁目４６番地の６,,23,204,4890875,,,,,,,2025-11-18,1,,,,,ナナスタジオ,0
502,2180001169575,新規,0,2025-11-18,2025-11-18,株式会社プロビス,,株式会社,愛知県,名古屋市中村区,名駅３丁目４番地１０アルティメイト名駅１ｓｔ２Ｆ,,23,105,4500002,,,,,,,2025-11-18,1,,,,,プロビス,0
503,2180001169591,新規,0,2025-11-18,2025-11-18,株式会社シンセンティマネジメント,,株式会社,愛知県,名古屋市中村区,名駅４丁目２４番５号第２森ビル４０１,,23,105,4500002,,,,,,,2025-11-18,1,,,,,シンセンティマネジメント,0
507,2180003029372,新規,0,2025-11-18,2025-11-18,Ｔｒａｄｅ　Ｌｉｎｋｘ合同会社,,合同会社,愛知県,名古屋市名東区,大針３丁目２８５番地の２,,23,115,4650064,,,,,,,2025-11-18,1,,,,,トレードリンクス,0
512,2180303006807,新規,0,2025-11-18,2025-11-18,合同会社ＡＬＵＸ,,合同会社,愛知県,豊橋市,草間町字二本松６８番地の１,,23,201,4418141,,,,,,,2025-11-18,1,,,,,アルクス,0
513,2180303006815,新規,0,2025-11-18,2025-11-18,Ｍｏｏｎｌｉｇｈｔ合同会社,,合同会社,愛知県,豊川市,八幡町足洗１,,23,207,4420857,,,,,,,2025-11-18,1,,,,,,0
517,2200001044445,新規,0,2025-11-18,2025-11-18,株式会社ＡＲＶＯＮＥ,,株式会社,岐阜県,羽島郡岐南町,下印食３丁目１番地４ヴァンベール岐南３Ａ号室,,21,302,5016018,,,,,,,2025-11-18,1,,,,,アルヴォネ,0
520,2200003007144,新規,0,2025-11-18,2025-11-18,ＩＣＨＩＢＡＮ合同会社,,合同会社,岐阜県,揖斐郡大野町,大字上秋６０５番地２－２階Ａ,,21,403,5010512,,,,,,,2025-11-18,1,,,,,イチバン,0
523,2240001065792,新規,0,2025-11-18,2025-11-18,中国国際人材交流株式会社,,株式会社,広島県,東広島市,西条本町１０番９号アライズ西条３Ｆ,,34,212,7390011,,,,,,,2025-11-18,1,,,,,チュウゴクコクサイジンザイコウリュウ,0
529,2250001021431,新規,0,2025-11-18,2025-11-18,フラワープラス株式会社,,株式会社,山口県,山口市,嘉川６６６番地１,,35,203,7540897,,,,,,,2025-11-18,1,,,,,フラワープラス,0
532,2260001040744,新規,0,2025-11-18,2025-11-18,株式会社颯,,株式会社,岡山県,岡山市中区,平井３丁目１０６２番地１マイアミハイツ１Ｆ,,33,102,7038282,,,,,,,2025-11-18,1,,,,,ハヤテ,0
547,2290001112128,新規,0,2025-11-18,2025-11-18,株式会社オカショー不動産,,株式会社,福岡県,大野城市,東大利３丁目３番１号,,40,219,8160941,,,,,,,2025-11-18,1,,,,,オカショーフドウサン,0
548,2290001112144,新規,0,2025-11-18,2025-11-18,株式会社ＴＲＩＡＬＳ,,株式会社,福岡県,福岡市東区,多の津１丁目１２番２号,,40,131,8130034,,,,,,,2025-11-18,1,,,,,トライアルズ,0
549,2290001112219,新規,0,2025-11-18,2025-11-18,ＦｕｋｕＥｓｔ８株式会社,,株式会社,福岡県,大野城市,緑ケ丘３丁目２番３号,,40,219,8160961,,,,,,,2025-11-18,1,,,,,フクエステート,0
566,2380005013032,新規,0,2025-11-18,2025-11-18,特定非営利活動法人ふくしままちのキャンパス,,その他の設立登記法人,福島県,福島市,五月町７番９号サンクレイドル福島五月ウインフォート２０４,,07,201,9608061,,,,,,,2025-11-18,1,,,,,フクシママチノキャンパス,0
573,2430001095696,新規,0,2025-11-18,2025-11-18,株式会社はたしまファーム,,株式会社,北海道,勇払郡厚真町,字東和２３３番地の１,,01,581,0591621,,,,,,,2025-11-18,1,,,,,ハタシマファーム,0
582,2490001011210,新規,0,2025-11-18,2025-11-18,株式会社川崎ポンプ商会,00141572,株式会社,高知県,高知市,春野町弘岡上３８２番地２,,39,201,7810301,,,,,,,2025-11-18,1,,,,,カワサキポンプショウカイ,0
591,3010001260036,新規,0,2025-11-18,2025-11-18,フォークラス株式会社,,株式会社,東京都,中央区,銀座１丁目２２番１１号銀座大竹ビジデンス２階,,13,102,1040061,,,,,,,2025-11-18,1,,,,,フォークラス,0
592,3010001260358,新規,0,2025-11-18,2025-11-18,株式会社Ｍ’ｓキッチン,,株式会社,東京都,千代田区,神田須田町１丁目２４番１０号ＫＡＮＤＡＣＲＯＳＳビル７階,,13,101,1010041,,,,,,,2025-11-18,1,,,,,エムズキッチン,0
593,3010001260390,新規,0,2025-11-18,2025-11-18,株式会社Ｎｅｕｍｕｓ　Ｓａｌｅｓ,,株式会社,東京都,中央区,日本橋茅場町１丁目１３番１３号七宝ビルディング２Ｆ,,13,102,1030025,,,,,,,2025-11-18,1,,,,,ニューマスセールス,0
594,3010003049378,新規,0,2025-11-18,2025-11-18,ソノックスＡ＆Ｃ合同会社,,合同会社,東京都,中央区,銀座６丁目１３番１６号銀座ＷａｌｌビルＵＣＦ５階,,13,102,1040061,,,,,,,2025-11-18,1,,,,,ソノックスエーアンドシー,0
595,3010003049428,新規,0,2025-11-18,2025-11-18,Ｓｐｒｉｎｔ　Ａｓｓｅｔ２ＧＫ合同会社２,,合同会社,東京都,千代田区,霞が関３丁目２番５号,,13,101,1000013,,,,,,,2025-11-18,1,,,,,スプリントアセットツージーケーツー,0
596,3010005040954,新規,0,2025-11-18,2025-11-18,一般社団法人声の保護と多言語化協会,,その他の設立登記法人,東京都,千代田区,永田町２丁目１７番地５号ローレル永田町１１０号室,,13,101,1000014,,,,,,,2025-11-18,1,,,,,コエノホゴトタゲンゴカキョウカイ,0
597,3010005040962,新規,0,2025-11-18,2025-11-18,一般社団法人スマトラ・ワン,,その他の設立登記法人,東京都,千代田区,内幸町２丁目１番６号,,13,101,1000011,,,,,,,2025-11-18,1,,,,,スマトラワン,0
602,3010401194313,新規,0,2025-11-18,2025-11-18,ｋｏｍａｃｈｉ株式会社,,株式会社,東京都,港区,白金１丁目１３番１号ＮＰＬＡＣＥ白金２階,,13,103,1080072,,,,,,,2025-11-18,1,,,,,コマチ,0
603,3010401194560,新規,0,2025-11-18,2025-11-18,株式会社フォティア,,株式会社,東京都,港区,虎ノ門３丁目１８番６－４０６号,,13,103,1050001,,,,,,,2025-11-18,1,,,,,フォティア,0
604,3010401194610,新規,0,2025-11-18,2025-11-18,株式会社ビーケー１,,株式会社,東京都,港区,虎ノ門２丁目６番１号虎ノ門ヒルズステーションタワー,,13,103,1050001,,,,,,,2025-11-18,1,,,,,ビーケーワン,0
608,3010405025043,新規,0,2025-11-18,2025-11-18,一般社団法人ＴＳＭ１７５,,その他の設立登記法人,東京都,港区,元赤坂１丁目１番７号,,13,103,1070051,,,,,,,2025-11-18,1,,,,,ティーエスエムヒャクナナジュウゴ,0
612,3010501055043,新規,0,2025-11-18,2025-11-18,株式会社ＶＥＸＹ　ｓｏｌｕｔｉｏｎ’ｓ,,株式会社,東京都,台東区,台東２丁目２５番６号勝徳ビル５Ｆ,,13,106,1100016,,,,,,,2025-11-18,1,,,,,ベクシーソリューションズ,0
618,3010701048631,新規,0,2025-11-18,2025-11-18,株式会社アドトラックメディア,,株式会社,東京都,品川区,大崎１丁目１１番２号,,13,109,1410032,,,,,,,2025-11-18,1,,,,,アドトラックメディア,0
619,3010703008006,新規,0,2025-11-18,2025-11-18,ＣａｔＷｏｒｋｓ合同会社,,合同会社,東京都,品川区,旗の台６丁目１０番２号,,13,109,1420064,,,,,,,2025-11-18,1,,,,,キャットワークス,0
625,3010901058463,新規,0,2025-11-18,2025-11-18,株式会社ｉｃｈｉＨ,,株式会社,東京都,世田谷区,駒沢２丁目１１番５号,,13,112,1540012,,,,,,,2025-11-18,1,,,,,イッチ,0
630,3011001173566,新規,0,2025-11-18,2025-11-18,エス株式会社,,株式会社,東京都,渋谷区,道玄坂１丁目１０番８号渋谷道玄坂東急ビル２ＦーＣ,,13,113,1500043,,,,,,,2025-11-18,1,,,,,エス,0
631,3011001173582,新規,0,2025-11-18,2025-11-18,株式会社Ｌｉｔｐｏｐ,,株式会社,東京都,渋谷区,宇田川町４０番１号,,13,113,1500042,,,,,,,2025-11-18,1,,,,,リットポップ,0
632,3011001173665,新規,0,2025-11-18,2025-11-18,株式会社リパ産業,,株式会社,東京都,渋谷区,幡ヶ谷１丁目２５番２号メナール幡ヶ谷２０３,,13,113,1510072,,,,,,,2025-11-18,1,,,,,リパサンギョウ,0
634,3011003022936,新規,0,2025-11-18,2025-11-18,合同会社大福,,合同会社,東京都,渋谷区,神泉町１０番１５号アネックス神泉３０１,,13,113,1500045,,,,,,,2025-11-18,1,,,,,ダイフク,0
635,3011003022952,新規,0,2025-11-18,2025-11-18,合同会社リトロラボ,,合同会社,東京都,目黒区,五本木１丁目２３番１４号グリーンハイツ祐天寺１０２,,13,110,1530053,,,,,,,2025-11-18,1,,,,,リトロラボ,0
644,3011203004890,新規,0,2025-11-18,2025-11-18,合同会社ＢｒｉｄｇｅＤｏｏｒ,,合同会社,東京都,中野区,中野５丁目６７－７プラザ中野８０１,,13,114,1640001,,,,,,,2025-11-18,1,,,,,ブリッジドア,0
645,3011301030962,新規,0,2025-11-18,2025-11-18,株式会社レフィット,,株式会社,東京都,杉並区,堀ノ内２丁目３５番１号,,13,115,1660013,,,,,,,2025-11-18,1,,,,,レフィット,0
651,3011501032809,新規,0,2025-11-18,2025-11-18,株式会社ハーツコネクト,,株式会社,東京都,荒川区,西日暮里２丁目７番１５－２０４号,,13,118,1160013,,,,,,,2025-11-18,1,,,,,ハーツコネクト,0
657,3012801024363,新規,0,2025-11-18,2025-11-18,アンドホープ株式会社,,株式会社,東京都,昭島市,中神町１１３２番地９,,13,207,1960022,,,,,,,2025-11-18,1,,,,,アンドホープ,0
662,3013301055329,新規,0,2025-11-18,2025-11-18,株式会社Ｖａｒｉａｂｌｅ,,株式会社,東京都,豊島区,池袋２丁目３６番１号ＩＮＦＩＮＩＴＹＩＫＥＢＵＫＵＲＯ６Ｆ,,13,116,1710014,,,,,,,2025-11-18,1,,,,,バリアブル,0
667,3020001165804,新規,0,2025-11-18,2025-11-18,ＳＴＡＲ　ＬＩＶＩＮＧ株式会社,,株式会社,神奈川県,横浜市港北区,綱島東１丁目１８番２７号,,14,109,2230052,,,,,,,2025-11-18,1,,,,,スターリビング,0
668,3020001165845,新規,0,2025-11-18,2025-11-18,株式会社ＫＥＳＭ,,株式会社,神奈川県,横浜市西区,久保町２３番３３号,,14,103,2200061,,,,,,,2025-11-18,1,,,,,ケーイーエスエム,0
677,3021001086445,新規,0,2025-11-18,2025-11-18,株式会社ＲＯＲＯ,,株式会社,神奈川県,鎌倉市,岩瀬１丁目２番１－７５３号,,14,204,2470051,,,,,,,2025-11-18,1,,,,,ロロ,0
702,3040001141407,新規,0,2025-11-18,2025-11-18,ＫＡＢＯＯＭ株式会社,,株式会社,千葉県,成田市,花崎町１４１番地１,,12,211,2860033,,,,,,,2025-11-18,1,,,,,カブーン,0
707,3040003028949,新規,0,2025-11-18,2025-11-18,合同会社Ｈａｎａｎｏｓｕｍｉｋａ,,合同会社,千葉県,船橋市,前原西３丁目２番３号ｔｗｒａｉｎｂｏｗＴｍ１０１,,12,204,2740825,,,,,,,2025-11-18,1,,,,,ハナノスミカ,0
709,3050001057593,新規,0,2025-11-18,2025-11-18,株式会社ＩＩＤＡ　Ｆａｍｉｌｙ　ｏｆｆｉｃｅ,,株式会社,茨城県,守谷市,本町２８４番地の３,,08,224,3020109,,,,,,,2025-11-18,1,,,,,イイダファミリーオフィス,0
719,3080103003468,新規,0,2025-11-18,2025-11-18,ＤＯＵＺＥ合同会社,,合同会社,静岡県,富士市,大淵２４７９番地の２,,22,210,4170801,,,,,,,2025-11-18,1,,,,,デューズ,0
734,3120001282102,新規,0,2025-11-18,2025-11-18,株式会社光勝,,株式会社,大阪府,大阪市中央区,島之内１丁目１３番３号,,27,128,5420082,,,,,,,2025-11-18,1,,,,,コウショウ,0
740,3120901051770,新規,0,2025-11-18,2025-11-18,株式会社大和コンサルティング,,株式会社,大阪府,吹田市,江坂町１丁目２３番１９号米澤ビル第五江坂７０５号室,,27,205,5640063,,,,,,,2025-11-18,1,,,,,ヤマトコンサルティング,0
741,3120901051787,新規,0,2025-11-18,2025-11-18,ＲＮ　ＮＥＸＴ株式会社,,株式会社,大阪府,摂津市,新在家２丁目３１番７号,,27,224,5660055,,,,,,,2025-11-18,1,,,,,アールエヌネクスト,0
747,3130001081032,新規,0,2025-11-18,2025-11-18,株式会社ＰＬＵＳ,,株式会社,京都府,京都市伏見区,深草勧進橋町６４番地,,26,109,6128405,,,,,,,2025-11-18,1,,,,,プラス,0
748,3130001081049,新規,0,2025-11-18,2025-11-18,株式会社ＵＶＥＲＰＥＡＣＥ,,株式会社,京都府,木津川市,山城町椿井城ノ内２４番地,,26,214,6190205,,,,,,,2025-11-18,1,,,,,ウーバーピース,0
749,3130003010914,新規,0,2025-11-18,2025-11-18,合同会社ＨＯＰ,,合同会社,京都府,京都市中京区,西ノ京鹿垣町１番地３６パデシオン丸太町３０１,,26,104,6048496,,,,,,,2025-11-18,1,,,,,ホップ,0
757,3140001140786,新規,0,2025-11-18,2025-11-18,株式会社Ｙ’ｓ　ｏｆｆｉｃｅ,,株式会社,兵庫県,尼崎市,東難波町３丁目５番１－６０３号,,28,202,6600892,,,,,,,2025-11-18,1,,,,,ワイズオフィス,0
758,3140001140794,新規,0,2025-11-18,2025-11-18,株式会社Ｔ２Ｎ,,株式会社,兵庫県,尼崎市,水堂町３丁目１７－２７－２１０,,28,202,6610026,,,,,,,2025-11-18,1,,,,,ティーツーエヌ,0
760,3140003022850,新規,0,2025-11-18,2025-11-18,合同会社やまと,,合同会社,兵庫県,芦屋市,船戸町１番２５－５０３号,,28,206,6590093,,,,,,,2025-11-18,1,,,,,ヤマト,0
761,3140003022859,新規,0,2025-11-18,2025-11-18,合同会社Ｌｉｆｕ　Ｐｌｕｓ,,合同会社,兵庫県,川西市,小花１丁目３番６号,,28,217,6660015,,,,,,,2025-11-18,1,,,,,リフプラス,0
768,3160003003642,新規,0,2025-11-18,2025-11-18,合同会社Ｍｅｄｉ‐Ｅｎｔ,,合同会社,滋賀県,大津市,石山寺２丁目２２－３８ノーウェジアンウッド石山寺１０１,,25,201,5200861,,,,,,,2025-11-18,1,,,,,メディエント,0
769,3160003003650,新規,0,2025-11-18,2025-11-18,合同会社Ａｌｃｙｏｎｅ,,合同会社,滋賀県,栗東市,綣３丁目１８番３８号,,25,208,5203031,,,,,,,2025-11-18,1,,,,,アルシオネ,0
770,3170003002338,新規,0,2025-11-18,2025-11-18,合同会社ＮＤＳ,,合同会社,和歌山県,海南市,次ケ谷２８３,,30,202,6401166,,,,,,,2025-11-18,1,,,,,エヌディーエス,0
779,3180001169392,新規,0,2025-11-18,2025-11-18,株式会社塩義,,株式会社,愛知県,西春日井郡豊山町,大字豊場字八反１０７番地,,23,342,4800202,,,,,,,2025-11-18,1,,,,,シオヨシ,0
780,3180001169558,新規,0,2025-11-18,2025-11-18,株式会社スカイボックス,,株式会社,愛知県,名古屋市天白区,焼山２丁目１５１０番地,,23,116,4680002,,,,,,,2025-11-18,1,,,,,スカイボックス,0
781,3180001169582,新規,0,2025-11-18,2025-11-18,株式会社ギーク,,株式会社,愛知県,名古屋市中村区,名駅３丁目４－１０アルティメイト名駅２Ｆ,,23,105,4500002,,,,,,,2025-11-18,1,,,,,ギーク,0
789,3180301040435,新規,0,2025-11-18,2025-11-18,ロイズトレーディング株式会社,,株式会社,愛知県,豊橋市,南松山町４１番地,,23,201,4400877,,,,,,,2025-11-18,1,,,,,ロイズトレーディング,0
790,3180303006814,新規,0,2025-11-18,2025-11-18,合同会社こども未来舎,,合同会社,愛知県,岡崎市,舞木町字狐山３３番地３０,,23,202,4443511,,,,,,,2025-11-18,1,,,,,,0
794,3190003005272,新規,0,2025-11-18,2025-11-18,合同会社コハルビヨリ,,合同会社,三重県,鈴鹿市,石薬師町字開戸部１６１番８,,24,207,5130012,,,,,,,2025-11-18,1,,,,,コハルビヨリ,0
797,3200001044444,新規,0,2025-11-18,2025-11-18,株式会社ＭＴＣ　Ｊａｐａｎ,,株式会社,岐阜県,郡上市,白鳥町白鳥６９０番地３,,21,219,5015121,,,,,,,2025-11-18,1,,,,,エムティーシージャパン,0
798,3200003007143,新規,0,2025-11-18,2025-11-18,ＣＪ　ＬＡＮＫＡ　ＩＮＴＥＲＮＡＴＩＯＮＡＬ合同会社,,合同会社,岐阜県,揖斐郡大野町,大字黒野６４１番地７－２階Ｂ,,21,403,5010521,,,,,,,2025-11-18,1,,,,,シージェイランカインターナショナル,0
799,3210001020394,新規,0,2025-11-18,2025-11-18,株式会社中川不動産,,株式会社,福井県,福井市,菅谷１丁目１２番１７号,,18,201,9100034,,,,,,,2025-11-18,1,,,,,ナカガワフドウサン,0
809,3250001021422,新規,0,2025-11-18,2025-11-18,株式会社アグリアイ,,株式会社,山口県,岩国市,入野２６８番地,,35,208,7400321,,,,,,,2025-11-18,1,,,,,アグリアイ,0
812,3260005011550,新規,0,2025-11-18,2025-11-18,ＳＹＧ協同組合,,その他の設立登記法人,岡山県,岡山市中区,円山１４５ブライトン円山５０２号,,33,102,7038271,,,,,,,2025-11-18,1,,,,,エスワイジー,0
816,3290001112234,新規,0,2025-11-18,2025-11-18,株式会社さくらキッズ,,株式会社,福岡県,大牟田市,大正町４丁目６番地８,,40,202,8360047,,,,,,,2025-11-18,1,,,,,サクラキッズ,0
821,3290003017687,新規,0,2025-11-18,2025-11-18,合同会社今泉公園前,,合同会社,福岡県,福岡市中央区,今泉２丁目４番５３－５０１号Ｊ・Ｆｌａｔ,,40,133,8100021,,,,,,,2025-11-18,1,,,,,イマイズミコウエンマエ,0
822,3290003017712,新規,0,2025-11-18,2025-11-18,ＯＮＥＴＯＰ合同会社,,合同会社,福岡県,福岡市東区,千早６丁目５番１８－７０１号,,40,131,8130044,,,,,,,2025-11-18,1,,,,,ワントップ,0
823,3290003017729,新規,0,2025-11-18,2025-11-18,ＣｏｒｅＢｏｏｋｓ合同会社,,合同会社,福岡県,福岡市中央区,大名１丁目８番１８－７０５号,,40,133,8100041,,,,,,,2025-11-18,1,,,,,コアブックス,0
834,3370001053239,新規,0,2025-11-18,2025-11-18,株式会社Ｉｍｉ　ｌｏａ,,株式会社,宮城県,名取市,植松２丁目２番１１－１号,,04,207,9811226,,,,,,,2025-11-18,1,,,,,イミロア,0
835,3380003006185,新規,0,2025-11-18,2025-11-18,合同会社叶和,,合同会社,福島県,いわき市,中央台高久４丁目１３番地の４,,07,204,9708047,,,,,,,2025-11-18,1,,,,,トワ,0
854,4010001260299,新規,0,2025-11-18,2025-11-18,Ｋコンサルティング株式会社,,株式会社,東京都,中央区,銀座６丁目１３番９号ｂｉｚｃｕｂｅ,,13,102,1040061,,,,,,,2025-11-18,1,,,,,ケイコンサルティング,0
855,4010001260365,新規,0,2025-11-18,2025-11-18,株式会社ルクセン,,株式会社,東京都,千代田区,神田和泉町１番地６－１６ヤマトビル４０５,,13,101,1010024,,,,,,,2025-11-18,1,,,,,ルクセン,0
856,4010001260373,新規,0,2025-11-18,2025-11-18,株式会社ＧＥＮＳＨＩ　ＡＩ,,株式会社,東京都,千代田区,神田和泉町１番地６－１６ヤマトビル４０５,,13,101,1010024,,,,,,,2025-11-18,1,,,,,ゲンシエーアイ,0
857,4010001260398,新規,0,2025-11-18,2025-11-18,ＴＣＧ２５０９株式会社,,株式会社,東京都,千代田区,丸の内１丁目５番１号,,13,101,1000005,,,,,,,2025-11-18,1,,,,,ティーシージーニーゴーゼロキュウ,0
862,4010005040961,新規,0,2025-11-18,2025-11-18,一般社団法人ＫＲＦ１１７,,その他の設立登記法人,東京都,千代田区,内幸町２丁目１番６号,,13,101,1000011,,,,,,,2025-11-18,1,,,,,ケイアールエフヒャクジュウナナ,0
865,4010401194502,新規,0,2025-11-18,2025-11-18,株式会社エンパワー,,株式会社,東京都,港区,南青山２丁目１２番５号ＦＡＲＯ青山２０７,,13,103,1070062,,,,,,,2025-11-18,1,,,,,エンパワー,0
867,4010403036611,新規,0,2025-11-18,2025-11-18,合同会社Ｉ‐Ａｐｔｉ,,合同会社,東京都,港区,六本木３丁目１番３０号Ａ・Ｂビル６階,,13,103,1060032,,,,,,,2025-11-18,1,,,,,アイアプティ,0
868,4010403036628,新規,0,2025-11-18,2025-11-18,鳥海山合同会社,,合同会社,東京都,港区,六本木１丁目６番１号泉ガーデンタワーＫＰＭＧ税理士法人内,,13,103,1060032,,,,,,,2025-11-18,1,,,,,チョウカイサン,0
869,4010501055059,新規,0,2025-11-18,2025-11-18,株式会社Ｔｒｉｐ　ｅＳＩＭ,,株式会社,東京都,台東区,上野１丁目１７番６号広小路ビル８Ｆ－Ｂ,,13,106,1100005,,,,,,,2025-11-18,1,,,,,トリップイーシム,0
871,4010601068282,新規,0,2025-11-18,2025-11-18,株式会社Ｕｒｂａｎ　ｐｈｏｔｏ　ｇｒａｐｈｉｃｓ,,株式会社,東京都,墨田区,墨田２丁目３９番４号,,13,107,1310031,,,,,,,2025-11-18,1,,,,,アーバンフォトグラフィックス,0
873,4010701048630,新規,0,2025-11-18,2025-11-18,株式会社ＲｅｌａＬｉｎｋ,,株式会社,東京都,品川区,西五反田８丁目２番１０－３０６号,,13,109,1410031,,,,,,,2025-11-18,1,,,,,リラリンク,0
875,4010703008005,新規,0,2025-11-18,2025-11-18,アール・エイ・プランニング合同会社,,合同会社,東京都,品川区,東品川２丁目２－４天王洲ファーストタワー７階７５７号室,,13,109,1400002,,,,,,,2025-11-18,1,,,,,アールエイプランニング,0
877,4010905004867,新規,0,2025-11-18,2025-11-18,一般社団法人美心ラボ,,その他の設立登記法人,東京都,世田谷区,上野毛１丁目２４番９号,,13,112,1580093,,,,,,,2025-11-18,1,,,,,ビシンラボ,0
883,4011001173540,新規,0,2025-11-18,2025-11-18,株式会社神楽,,株式会社,東京都,渋谷区,神宮前１丁目５番３号ピーターハウス３０２,,13,113,1500001,,,,,,,2025-11-18,1,,,,,カグラ,0
884,4011001173557,新規,0,2025-11-18,2025-11-18,株式会社ＮｅｘｕｓＦｉｒｓｔ,,株式会社,東京都,渋谷区,広尾１丁目２番地１号ヒカリビル４階,,13,113,1500012,,,,,,,2025-11-18,1,,,,,ネクサスファースト,0
885,4011001173565,新規,0,2025-11-18,2025-11-18,Ｇｒｏｗｔｈ　Ｇｒｏｕｐ　Ｈｏｌｄｉｎｇｓ株式会社,,株式会社,東京都,渋谷区,恵比寿西２丁目８番４号ＥＸ恵比寿西ビル５階,,13,113,1500021,,,,,,,2025-11-18,1,,,,,グロースグループホールディングス,0
886,4011001173656,新規,0,2025-11-18,2025-11-18,株式会社ＥＦＭ,,株式会社,東京都,目黒区,青葉台１丁目１８番７号カスタリア中目黒４０５号,,13,110,1530042,,,,,,,2025-11-18,1,,,,,イーエフエム,0
887,4011001173714,新規,0,2025-11-18,2025-11-18,株式会社ＮｅｘＴｒｙ,,株式会社,東京都,渋谷区,本町３丁目２５番１６号クレセント・フラッツ１０３,,13,113,1510071,,,,,,,2025-11-18,1,,,,,ネクストリー,0
890,4011003022951,新規,0,2025-11-18,2025-11-18,ＳＴ合同会社,,合同会社,東京都,渋谷区,富ヶ谷１丁目２０番１４号,,13,113,1510063,,,,,,,2025-11-18,1,,,,,エスティー,0
895,4011101113909,新規,0,2025-11-18,2025-11-18,文旅株式会社,,株式会社,東京都,新宿区,高田馬場１丁目１７－１８ＳＴ高田馬場ビル４階,,13,104,1690075,,,,,,,2025-11-18,1,,,,,ブンタビ,0
899,4011203004881,新規,0,2025-11-18,2025-11-18,合同会社ＮＩＤＥ,,合同会社,東京都,中野区,中央４丁目５５番９号,,13,114,1640011,,,,,,,2025-11-18,1,,,,,ナイド,0
906,4011801047051,新規,0,2025-11-18,2025-11-18,インペリアルプライベート株式会社,,株式会社,東京都,足立区,梅田８丁目１４番１－３２２号,,13,121,1230851,,,,,,,2025-11-18,1,,,,,インペリアルプライベート,0
911,4012405005189,新規,0,2025-11-18,2025-11-18,一般社団法人ＡＲＣＨＩＶＥ,,その他の設立登記法人,東京都,武蔵野市,中町１丁目２０番２号,,13,203,1800006,,,,,,,2025-11-18,1,,,,,アーカイブ,0
916,4013301055311,新規,0,2025-11-18,2025-11-18,株式会社Ｆｌａｎｋｅｒｓ　Ｕｎｉｔｅｄ,,株式会社,東京都,豊島区,池袋２丁目４０番１３号,,13,116,1710014,,,,,,,2025-11-18,1,,,,,フランカーズユナイテッド,0
920,4020001165869,新規,0,2025-11-18,2025-11-18,株式会社センシュアリンク,,株式会社,神奈川県,川崎市宮前区,宮崎１丁目１３番地１６宮崎台サニーハイツＢ－２０３,,14,136,2160033,,,,,,,2025-11-18,1,,,,,センシュアリンク,0
921,4020001165885,新規,0,2025-11-18,2025-11-18,ＮｅｏＰｒｉｍｅ株式会社,,株式会社,神奈川県,川崎市麻生区,下麻生１丁目３１－１０,,14,137,2150022,,,,,,,2025-11-18,1,,,,,ネオプライム,0
922,4020001165893,新規,0,2025-11-18,2025-11-18,ｏｍｏｔｅメディカルサービス株式会社,,株式会社,神奈川県,横浜市戸塚区,品濃町５１６番地１１東戸塚駅前メディカルビル６Ｆ,,14,110,2440801,,,,,,,2025-11-18,1,,,,,オモテメディカルサービス,0
929,4021001086799,新規,0,2025-11-18,2025-11-18,株式会社早期発見ｌａｂ,,株式会社,神奈川県,藤沢市,大鋸１丁目１０番２２号,,14,205,2510002,,,,,,,2025-11-18,1,,,,,ソウキハッケンラボ,0
951,4040001141372,新規,0,2025-11-18,2025-11-18,株式会社Ｔｏｓａパートナーズ,,株式会社,千葉県,船橋市,湊町２丁目１２番２４号湊町日本橋ビル６Ｆ,,12,204,2730011,,,,,,,2025-11-18,1,,,,,トサパートナーズ,0
952,4040001141406,新規,0,2025-11-18,2025-11-18,株式会社東都総合サービス,,株式会社,千葉県,千葉市美浜区,ひび野１丁目１番,,12,106,2610021,,,,,,,2025-11-18,1,,,,,トウトソウゴウサービス,0
953,4040001141439,新規,0,2025-11-18,2025-11-18,株式会社ＹＫ,,株式会社,千葉県,木更津市,桜井新町５丁目６番地６,,12,206,2920823,,,,,,,2025-11-18,1,,,,,ワイケー,0
961,4040005022949,新規,0,2025-11-18,2025-11-18,農事組合法人アイ・アイファーム,,その他の設立登記法人,千葉県,佐倉市,飯重８７３番地,,12,212,2850832,,,,,,,2025-11-18,1,,,,,アイアイファーム,0
963,4050001057601,新規,0,2025-11-18,2025-11-18,株式会社Ｊリーフ,,株式会社,茨城県,日立市,西成沢町２丁目２０－１日立地区産業支援センター１０１,,08,202,3160032,,,,,,,2025-11-18,1,,,,,ジェイリーフ,0
964,4050003009765,新規,0,2025-11-18,2025-11-18,ＡＧＩ合同会社,,合同会社,茨城県,坂東市,馬立１２５０番地８－１０１号室,,08,228,3060605,,,,,,,2025-11-18,1,,,,,エージーアイ,0
974,4090001019614,新規,0,2025-11-18,2025-11-18,株式会社航和医療事務人財サービス,,株式会社,山梨県,甲府市,丸の内３丁目２０番４号,,19,201,4000031,,,,,,,2025-11-18,1,,,,,コウワイリョウジムジンザイサービス,0
976,4110001039733,新規,0,2025-11-18,2025-11-18,株式会社県央ライフサポート,,株式会社,新潟県,燕市,横田１１２７１番地１,,15,213,9590111,,,,,,,2025-11-18,1,,,,,ケンオウライフサポート,0
989,4120001281978,新規,0,2025-11-18,2025-11-18,株式会社ＩＳＳＯ,,株式会社,大阪府,大阪市平野区,瓜破３丁目２番１３号,,27,126,5470024,,,,,,,2025-11-18,1,,,,,イッソウ,0
990,4120001282101,新規,0,2025-11-18,2025-11-18,ナナコンサルタント株式会社,,株式会社,大阪府,大阪市中央区,久太郎町１丁目９番５号,,27,128,5410056,,,,,,,2025-11-18,1,,,,,ナナコンサルタント,0
992,4120003031241,新規,0,2025-11-18,2025-11-18,合同会社ＢＲｓ,,合同会社,大阪府,大阪市住之江区,浜口東３丁目１１番８－８０３号,,27,125,5590002,,,,,,,2025-11-18,1,,,,,ビーアールエス,0
997,4120901051778,新規,0,2025-11-18,2025-11-18,株式会社ジュエル,,株式会社,大阪府,吹田市,江坂町２丁目４―１―１０１,,27,205,5640063,,,,,,,2025-11-18,1,,,,,ジュエル,0
1007,4140001140760,新規,0,2025-11-18,2025-11-18,株式会社ＴＴＭひめじ,,株式会社,兵庫県,姫路市,大津区北天満町６５フーパーハウス１０１,,28,201,6711142,,,,,,,2025-11-18,1,,,,,ティティエムヒメジ,0
1008,4140001140802,新規,0,2025-11-18,2025-11-18,株式会社赤瀬商店,,株式会社,兵庫県,神戸市中央区,北長狭通３丁目５－１０ｎｏｒｏｓｈｉ．ｋｏｂｅ,,28,110,6500012,,,,,,,2025-11-18,1,,,,,アカセショウテン,0
1014,4170003002337,新規,0,2025-11-18,2025-11-18,合同会社ＰＯＬＡＲＩＳ,,合同会社,和歌山県,日高郡日高町,大字高家１０５１番地の２９,,30,382,6491213,,,,,,,2025-11-18,1,,,,,ポラリス,0
1019,4180001169573,新規,0,2025-11-18,2025-11-18,平出自動車株式会社,,株式会社,愛知県,北名古屋市,熊之庄石原７０,,23,234,4810006,,,,,,,2025-11-18,1,,,,,ヒラデジドウシャ,0
1024,4180003029362,新規,0,2025-11-18,2025-11-18,合同会社絆,,合同会社,愛知県,岩倉市,大市場町郷前２３４番地１,,23,228,4820002,,,,,,,2025-11-18,1,,,,,キズナ,0
1026,4180301040426,新規,0,2025-11-18,2025-11-18,株式会社タケテル食品,,株式会社,愛知県,豊田市,平芝町３丁目９番地２アクシス豊田２０４,,23,211,4710065,,,,,,,2025-11-18,1,,,,,タケテルショクヒン,0
1027,4190001032706,新規,0,2025-11-18,2025-11-18,株式会社ＯＮＥ,,株式会社,三重県,桑名市,大字東野２４番地サンライフプラザ２０１号,,24,205,5110035,,,,,,,2025-11-18,1,,,,,ワン,0
1033,4200001044443,新規,0,2025-11-18,2025-11-18,株式会社ブルー,,株式会社,岐阜県,郡上市,八幡町新町９２６番地,,21,219,5014226,,,,,,,2025-11-18,1,,,,,ブルー,0
1037,4210005010234,新規,0,2025-11-18,2025-11-18,一般社団法人こみかるユース福井,,その他の設立登記法人,福井県,福井市,西方２丁目１１－８,,18,201,9100855,,,,,,,2025-11-18,1,,,,,コミカルユースフクイ,0
1038,4220001027025,新規,0,2025-11-18,2025-11-18,株式会社ＭＥＧＵＬＩ,,株式会社,石川県,小松市,土居原町１３番地１８Ｋｏｍａｔｓｕ九コワーキングエリア内,,17,203,9230921,,,,,,,2025-11-18,1,,,,,メグリ,0
1058,4290001112167,新規,0,2025-11-18,2025-11-18,株式会社ｍ‐ｃｏｕｒａｇｅ,,株式会社,福岡県,久留米市,御井旗崎３丁目４番７号ピースフルＩＩ２０３,00141571,40,203,8390841,,,,,,,2025-11-18,1,,,,,エムカレッジ,0
1059,4290001112217,新規,0,2025-11-18,2025-11-18,株式会社よか音,,株式会社,福岡県,福岡市南区,向野１丁目４番２９号シック玉川２０１,,40,134,8150035,,,,,,,2025-11-18,1,,,,,ヨカネ,0
1064,4290003017728,新規,0,2025-11-18,2025-11-18,合同会社Ｓｕｍｉｒｅ,,合同会社,福岡県,福岡市南区,屋形原４丁目１１－１１－２,,40,134,8111351,,,,,,,2025-11-18,1,,,,,スミレ,0
1068,4330001033755,新規,0,2025-11-18,2025-11-18,株式会社心輝,,株式会社,熊本県,山鹿市,宗方通６０１番地４,,43,208,8610518,,,,,,,2025-11-18,1,,,,,シンキ,0
1072,4360001036037,新規,0,2025-11-18,2025-11-18,株式会社ふくシェア,,株式会社,沖縄県,浦添市,沢岻２丁目４番６号ワールドヒルズ那覇１０７号,,47,208,9012112,,,,,,,2025-11-18,1,,,,,フクシェア,0
1073,4360001036045,新規,0,2025-11-18,2025-11-18,株式会社イゼナ電工,,株式会社,沖縄県,那覇市,宇栄原６丁目１－１３（１０１）,,47,201,9010153,,,,,,,2025-11-18,1,,,,,イゼナデンコウ,0
1074,4360001036053,新規,0,2025-11-18,2025-11-18,株式会社Ｗｅｌｌ‐Ｋｕｍｅ,,株式会社,沖縄県,島尻郡久米島町,字大田５１７番地,,47,361,9013123,,,,,,,2025-11-18,1,,,,,ウェルークメ,0
1078,4370005011027,新規,0,2025-11-18,2025-11-18,特定非営利活動法人災強のすけっと,,その他の設立登記法人,宮城県,仙台市宮城野区,福室２丁目５番６５号プレジール高砂１０２号室,,04,102,9830005,,,,,,,2025-11-18,1,,,,,サイキョウノスケット,0
1085,4420001019324,新規,0,2025-11-18,2025-11-18,株式会社Ｅ．Ｃ．Ｅ,,株式会社,青森県,八戸市,大字沢里字一盃森３２番地９,,02,203,0391167,,,,,,,2025-11-18,1,,,,,イーシーイー,0
1100,4460305002030,新規,0,2025-11-18,2025-11-18,税理士法人服部会計事務所,,その他の設立登記法人,北海道,北見市,美芳町９丁目６番２３号,,01,208,0900064,,,,,,,2025-11-18,1,,,,,ハットリカイケイジムショ,0
1101,4490001011209,新規,0,2025-11-18,2025-11-18,いえラボ株式会社,,株式会社,高知県,高知市,越前町２丁目９番１４号１階,,39,201,7800928,,,,,,,2025-11-18,1,,,,,イエラボ,0
1111,5010001260265,新規,0,2025-11-18,2025-11-18,株式会社ＹＴＡＬ,,株式会社,東京都,千代田区,神田神保町３丁目１１番６号　神保町ビル１０階,,13,101,1010051,,,,,,,2025-11-18,1,,,,,ワイタル,0
1112,5010001260331,新規,0,2025-11-18,2025-11-18,株式会社ＲＲＲ,,株式会社,東京都,中央区,銀座６丁目１３－９ＧＩＲＡＣＧＩＮＺＡ３０１,,13,102,1040061,,,,,,,2025-11-18,1,,,,,アールアールアール,0
1113,5010001260389,新規,0,2025-11-18,2025-11-18,株式会社Ｎｅｕｍｕｓ　Ｃｏｒｅ,,株式会社,東京都,中央区,日本橋茅場町１丁目１３番１３号七宝ビルディング２Ｆ,,13,102,1030025,,,,,,,2025-11-18,1,,,,,ニューマスコア,0
1114,5010001260397,新規,0,2025-11-18,2025-11-18,ＴＣＧ２５０８株式会社,,株式会社,東京都,千代田区,丸の内１丁目５番１号,,13,101,1000005,,,,,,,2025-11-18,1,,,,,ティーシージーニーゴーゼロハチ,0
1115,5010001260406,新規,0,2025-11-18,2025-11-18,株式会社Ｂ＆Ｇ　Ｈｏｌｄｉｎｇｓ,,株式会社,東京都,中央区,銀座８丁目７番８号,,13,102,1040061,,,,,,,2025-11-18,1,,,,,ビーアンドジーホールディングス,0
1116,5010001260430,新規,0,2025-11-18,2025-11-18,株式会社Ｓａｉｌ３号,,株式会社,東京都,千代田区,紀尾井町４番１号,,13,101,1020094,,,,,,,2025-11-18,1,,,,,セイルサンゴウ,0
1118,5010003049434,新規,0,2025-11-18,2025-11-18,合同会社ＦＵＮＡＤＥ３,,合同会社,東京都,中央区,京橋２丁目１２番６号ＡＯＪ税理士法人内,,13,102,1040031,,,,,,,2025-11-18,1,,,,,フナデスリー,0
1130,5010401194534,新規,0,2025-11-18,2025-11-18,株式会社旭日エナジー,,株式会社,東京都,港区,東新橋１丁目１番１９号ヤクルト本社ビル８階,,13,103,1050021,,,,,,,2025-11-18,1,,,,,アサヒエナジー,0
1131,5010401194559,新規,0,2025-11-18,2025-11-18,株式会社アクセルゲート,,株式会社,東京都,港区,白金６丁目２１番４－４０４号,,13,103,1080072,,,,,,,2025-11-18,1,,,,,アクセルゲート,0
1133,5010403036610,新規,0,2025-11-18,2025-11-18,星インベストメント合同会社,,合同会社,東京都,港区,虎ノ門３丁目２２番１０－２０１号,,13,103,1050001,,,,,,,2025-11-18,1,,,,,ホシインベストメント,0
1134,5010403036627,新規,0,2025-11-18,2025-11-18,剱岳合同会社,,合同会社,東京都,港区,六本木１丁目６番１号泉ガーデンタワーＫＰＭＧ税理士法人内,,13,103,1060032,,,,,,,2025-11-18,1,,,,,ツルギダケ,0
1136,5010405025009,新規,0,2025-11-18,2025-11-18,一般社団法人日本デジタル・アドバイザリー戦略協議会,,その他の設立登記法人,東京都,港区,北青山１丁目２番３号青山ビル１２階株式会社ＭａｓｓｉｖｅＡｃｔ内,,13,103,1070061,,,,,,,2025-11-18,1,,,,,ニホンデジタルアドバイザリーセンリャクキョウギカイ,0
1137,5010405025033,新規,0,2025-11-18,2025-11-18,一般社団法人光,,その他の設立登記法人,東京都,港区,虎ノ門３丁目２２番１０－２０１号,,13,103,1050001,,,,,,,2025-11-18,1,,,,,ヒカリ,0
1138,5010501055033,新規,0,2025-11-18,2025-11-18,株式会社たなぼた,,株式会社,東京都,台東区,上野２丁目８番４号川島ビルＢ１階,,13,106,1100005,,,,,,,2025-11-18,1,,,,,タナボタ,0
1141,5010603011925,新規,0,2025-11-18,2025-11-18,心域合同会社,,合同会社,東京都,江東区,東砂４丁目２２番５号２階２０２,,13,108,1360074,,,,,,,2025-11-18,1,,,,,シンイキ,0
1143,5010701048571,新規,0,2025-11-18,2025-11-18,株式会社Ｆｒｅｓｅａ,,株式会社,東京都,品川区,東大井１丁目２３番６号,,13,109,1400011,,,,,,,2025-11-18,1,,,,,フリージア,0
1144,5010701048596,新規,0,2025-11-18,2025-11-18,株式会社三,,株式会社,東京都,品川区,南大井６丁目５番１２号,,13,109,1400013,,,,,,,2025-11-18,1,,,,,サン,0
1156,5011001173622,新規,0,2025-11-18,2025-11-18,株式会社コンサバティヴキャピタル,,株式会社,東京都,目黒区,目黒４丁目３番１５号,,13,110,1530063,,,,,,,2025-11-18,1,,,,,コンサバティヴキャピタル,0
1157,5011001173630,新規,0,2025-11-18,2025-11-18,株式会社Ｍｏｍｅｎｔ　Ｌａｂ,,株式会社,東京都,渋谷区,神宮前６丁目２３番４号桑野ビル２階,,13,113,1500001,,,,,,,2025-11-18,1,,,,,モメントラボ,0
1158,5011001173721,新規,0,2025-11-18,2025-11-18,株式会社ＴＮＢ　ＪＡＰＡＮ,,株式会社,東京都,渋谷区,神宮前６丁目２８－９東武ビル６Ｆ,,13,113,1500001,,,,,,,2025-11-18,1,,,,,ティーエヌビージャパン,0
1160,5011003022760,新規,0,2025-11-18,2025-11-18,合同会社ＰｒｏＳｔｕｄｉｏ,,合同会社,東京都,渋谷区,道玄坂１丁目１６－６二葉ビル８ｂ,,13,113,1500043,,,,,,,2025-11-18,1,,,,,プロスタジオ,0
1171,5011203004889,新規,0,2025-11-18,2025-11-18,合同会社Ｔｈｒｅｅ　Ｇｒｏｏｖｅ　Ｃａｐｉｔａｌ,,合同会社,東京都,中野区,丸山２丁目７番１－３０１,,13,114,1650021,,,,,,,2025-11-18,1,,,,,スリーグルーヴキャピタル,0
1172,5011301031059,新規,0,2025-11-18,2025-11-18,ジャパンリアルティ株式会社,,株式会社,東京都,杉並区,阿佐谷南３丁目４９番２号サンライズ山村１０１,,13,115,1660004,,,,,,,2025-11-18,1,,,,,ジャパンリアルティ,0
1175,5011401027584,新規,0,2025-11-18,2025-11-18,株式会社ＢＵＦＦ,,株式会社,東京都,板橋区,成増３丁目４８番２１号,,13,119,1750094,,,,,,,2025-11-18,1,,,,,バフ,0
1177,5011403004838,新規,0,2025-11-18,2025-11-18,合同会社エヌ・エス・シー,,合同会社,東京都,板橋区,高島平３丁目１０番２３－２０５号,,13,119,1750082,,,,,,,2025-11-18,1,,,,,エヌエスシー,0
1180,5011801047042,新規,0,2025-11-18,2025-11-18,アンアネラ株式会社,,株式会社,東京都,足立区,神明１丁目１２番１号,,13,121,1210051,,,,,,,2025-11-18,1,,,,,アンアネラ,0
1181,5011801047050,新規,0,2025-11-18,2025-11-18,インペリアルコンサルティング株式会社,,株式会社,東京都,足立区,梅田８丁目１４番１－３２２号,,13,121,1230851,,,,,,,2025-11-18,1,,,,,インペリアルコンサルティング,0
1184,5013301055302,新規,0,2025-11-18,2025-11-18,株式会社スキマラボ,,株式会社,東京都,豊島区,上池袋４丁目２０番１号,,13,116,1700012,,,,,,,2025-11-18,1,,,,,スキマラボ,0
1190,5020001165777,新規,0,2025-11-18,2025-11-18,株式会社ＹＮＧ丸山,,株式会社,神奈川県,横浜市南区,井土ケ谷中町３１番地の１２,,14,105,2320052,,,,,,,2025-11-18,1,,,,,ワイエヌジーマルヤマ,0
1191,5020001165843,新規,0,2025-11-18,2025-11-18,株式会社アーキテクトＷＡＮ,,株式会社,神奈川県,川崎市高津区,下作延４丁目１７番１号,,14,134,2130033,,,,,,,2025-11-18,1,,,,,アーキテクトワン,0
1192,5020001165868,新規,0,2025-11-18,2025-11-18,株式会社ｃｏｒａｉｌｅｔ,,株式会社,神奈川県,川崎市宮前区,鷺沼３丁目１１－２０,,14,136,2160004,,,,,,,2025-11-18,1,,,,,コライユエ,0
1196,5020005017041,新規,0,2025-11-18,2025-11-18,一般社団法人種まくキッチン,,その他の設立登記法人,神奈川県,横浜市青葉区,しらとり台２２番地３６,,14,117,2270054,,,,,,,2025-11-18,1,,,,,タネマクキッチン,0
1202,5021003016794,新規,0,2025-11-18,2025-11-18,ＳＯＬ　ＢＬＯＯＭ合同会社,,合同会社,神奈川県,茅ヶ崎市,東海岸南２丁目８番－４４－１１号,,14,207,2530054,,,,,,,2025-11-18,1,,,,,ソルブルーム,0
1214,5030003028056,新規,0,2025-11-18,2025-11-18,合同会社ＹＭＫ,,合同会社,埼玉県,草加市,花栗４丁目１３番２１号,,11,221,3400044,,,,,,,2025-11-18,1,,,,,ワイエムケイ,0
1218,5040001141405,新規,0,2025-11-18,2025-11-18,イキ株式会社,,株式会社,千葉県,船橋市,南本町３３番１０－２号,,12,204,2730004,,,,,,,2025-11-18,1,,,,,イキ,0
1219,5040003028971,新規,0,2025-11-18,2025-11-18,合同会社Ｓｉｍｐｌｙ,,合同会社,千葉県,市川市,本行徳２２番１８号,,12,203,2720103,,,,,,,2025-11-18,1,,,,,シンプリィ,0
1226,5080101025909,新規,0,2025-11-18,2025-11-18,株式会社ＳＡＦＥＴＹ　ＦＩＲＳＴ,,株式会社,静岡県,熱海市,下多賀６８７－１７,,22,205,4130102,,,,,,,2025-11-18,1,,,,,セーフティーファースト,0
1228,5080103003458,新規,0,2025-11-18,2025-11-18,フードインテリア合同会社,,合同会社,静岡県,沼津市,高沢町７－１服部レディスプラザ,,22,203,4100057,,,,,,,2025-11-18,1,,,,,フードインテリア,0
1229,5080401028264,新規,0,2025-11-18,2025-11-18,モアナレイ株式会社,,株式会社,静岡県,湖西市,太田１２７６番地１６２,,22,221,4310404,,,,,,,2025-11-18,1,,,,,モアナレイ,0
1241,5120001282042,新規,0,2025-11-18,2025-11-18,株式会社ＩＫＥＺＡＷＡ＆ＣＩＥ,,株式会社,大阪府,大阪市北区,梅田３丁目２番１２３号,,27,127,5300001,,,,,,,2025-11-18,1,,,,,イケザワアンドシー,0
1242,5120001282100,新規,0,2025-11-18,2025-11-18,株式会社ＳｅｌｅｃｔＡｇｅ,,株式会社,大阪府,大阪市東成区,中本１丁目７番８号リヴェール・アヤ２０１号,,27,115,5370022,,,,,,,2025-11-18,1,,,,,セレクタージュ,0
1246,5120003031216,新規,0,2025-11-18,2025-11-18,合同会社ぴーすふる,,合同会社,大阪府,大阪市東住吉区,中野１丁目２－２ハイツ日殖１階１号室,,27,121,5460012,,,,,,,2025-11-18,1,,,,,ピースフル,0
1247,5120003031257,新規,0,2025-11-18,2025-11-18,合同会社ＵｎａＶｉａ,,合同会社,大阪府,大阪市中央区,南船場３丁目２番２２号おおきに南船場ビル２０５,,27,128,5420081,,,,,,,2025-11-18,1,,,,,ユナビア,0
1250,5120101072797,新規,0,2025-11-18,2025-11-18,株式会社創来,,株式会社,大阪府,堺市南区,稲葉３丁３１５番地２８,,27,145,5900156,,,,,,,2025-11-18,1,,,,,ソラ,0
1251,5120103006852,新規,0,2025-11-18,2025-11-18,ＴＡＮＡＫＡテクノス合同会社,,合同会社,大阪府,堺市堺区,南半町西１丁１番１５号,,27,141,5900967,,,,,,,2025-11-18,1,,,,,タナカテクノス,0
1253,5120901051769,新規,0,2025-11-18,2025-11-18,株式会社Ｊ．Ｙ．ＬｉＮＫ　Ｓｍｉｌｅ　Ｓｔｕｄｉｏ,,株式会社,大阪府,豊中市,寺内１丁目９番２０－６０１号,,27,203,5610872,,,,,,,2025-11-18,1,,,,,ジェイワイリンクスマイルスタジオ,0
1257,5130001081063,新規,0,2025-11-18,2025-11-18,株式会社ビルドリンク,,株式会社,京都府,京都市右京区,西京極火打畑町１－１－１０２,,26,108,6150841,,,,,,,2025-11-18,1,,,,,ビルドリンク,0
1260,5130003010937,新規,0,2025-11-18,2025-11-18,Ｙ＆Ｋ合同会社,,合同会社,京都府,京都市右京区,西京極東衣手町８８番地プティメゾンかどの１０１,,26,108,6150871,,,,,,,2025-11-18,1,,,,,ワイアンドケイ,0
1268,5140001140768,新規,0,2025-11-18,2025-11-18,株式会社Ｌｉｇｈｔ　Ｌｅａｆ,,株式会社,兵庫県,神戸市西区,竹の台５丁目１９番地の１２０,,28,111,6512274,,,,,,,2025-11-18,1,,,,,ライトリーフ,0
1269,5140001140784,新規,0,2025-11-18,2025-11-18,株式会社リバーサイド,,株式会社,兵庫県,川西市,清和台東５丁目１番２８号,,28,217,6660142,,,,,,,2025-11-18,1,,,,,リバーサイド,0
1270,5140001140792,新規,0,2025-11-18,2025-11-18,株式会社５ｉｓ,,株式会社,兵庫県,伊丹市,桜ケ丘２丁目１－１０－２０１号,,28,207,6640897,,,,,,,2025-11-18,1,,,,,,0
1271,5140001140801,新規,0,2025-11-18,2025-11-18,株式会社ＮＩＦＬＡ不動産,,株式会社,兵庫県,加古川市,尾上町養田１９０番地の９,,28,210,6750025,,,,,,,2025-11-18,1,,,,,ニフラフドウサン,0
1272,5140003022857,新規,0,2025-11-18,2025-11-18,合同会社クリエムーブ,,合同会社,兵庫県,神戸市中央区,磯辺通１丁目１番１８号カサベラ国際プラザビル７０７号室,,28,110,6510084,,,,,,,2025-11-18,1,,,,,クリエムーブ,0
1273,5140003022865,新規,0,2025-11-18,2025-11-18,アカネエステート合同会社,,合同会社,兵庫県,神戸市西区,池上２丁目２２－１,,28,111,6512111,,,,,,,2025-11-18,1,,,,,アカネエステート,0
1274,5140005027697,新規,0,2025-11-18,2025-11-18,一般社団法人日本独立事業者推進サポート協会,,その他の設立登記法人,兵庫県,神戸市中央区,下山手通６丁目１番４号オフィス下山手８階ＡＢ,,28,110,6500011,,,,,,,2025-11-18,1,,,,,ニホンドクリツジギョウシャスイシンサポートキョウカイ,0
1282,5160005011468,新規,0,2025-11-18,2025-11-18,一般社団法人近畿クリーンサービス,,その他の設立登記法人,滋賀県,大津市,坂本６丁目３番２３号,,25,201,5200113,,,,,,,2025-11-18,1,,,,,キンキクリーンサービス,0
1291,5180001169507,新規,0,2025-11-18,2025-11-18,ＬＩＮＫ‐ＬＡＢ　ＪＡＰＡＮ株式会社,,株式会社,愛知県,長久手市,前熊一ノ井１番地１３３８,,23,238,4801102,,,,,,,2025-11-18,1,,,,,リンクラボジャパン,0
1292,5180001169564,新規,0,2025-11-18,2025-11-18,株式会社ロータススイッチ,,株式会社,愛知県,名古屋市緑区,鳴子町２丁目６８番地ライオンズ鳴子グランヒルフォート１１０１号,,23,114,4580041,,,,,,,2025-11-18,1,,,,,ロータススイッチ,0
1293,5180001169572,新規,0,2025-11-18,2025-11-18,森井印刷株式会社,,株式会社,愛知県,大府市,米田町１丁目４５４番地,,23,223,4740043,,,,,,,2025-11-18,1,,,,,モリイインサツ,0
1294,5180001169580,新規,0,2025-11-18,2025-11-18,ミルソンズ株式会社,,株式会社,愛知県,名古屋市中村区,名駅４丁目２４番５号第２森ビル４０１,,23,105,4500002,,,,,,,2025-11-18,1,,,,,ミルソンズ,0
1301,5190003005270,新規,0,2025-11-18,2025-11-18,いなおかオフィス合同会社,,合同会社,三重県,伊賀市,平野東町１１１番地,,24,216,5180810,,,,,,,2025-11-18,1,,,,,イナオカオフィス,0
1304,5200001044426,新規,0,2025-11-18,2025-11-18,株式会社やまと,,株式会社,岐阜県,本巣市,上真桑１７６２番地８,,21,218,5010461,,,,,,,2025-11-18,1,,,,,ヤマト,0
1305,5200001044434,新規,0,2025-11-18,2025-11-18,株式会社Ｇｌｕｕｃｈｅ,,株式会社,岐阜県,大垣市,桐ケ崎町６７番地２Ｆ,,21,202,5030904,,,,,,,2025-11-18,1,,,,,グルーシュ,0
1306,5200001044442,新規,0,2025-11-18,2025-11-18,株式会社きのむら商会,,株式会社,岐阜県,本巣郡北方町,平成４丁目７番地,,21,421,5010438,,,,,,,2025-11-18,1,,,,,キノムラショウカイ,0
1308,5220001027032,新規,0,2025-11-18,2025-11-18,ＡＬＩＶＥ株式会社,,株式会社,石川県,金沢市,千木町ル３番地１,,17,201,9200001,,,,,,,2025-11-18,1,,,,,アライブ,0
1314,5270003001807,新規,0,2025-11-18,2025-11-18,合同会社クリーンライフ諏訪,,合同会社,鳥取県,米子市,諏訪７６番地１,,31,202,6830013,,,,,,,2025-11-18,1,,,,,クリーンライフスワ,0
1315,5270005005665,新規,0,2025-11-18,2025-11-18,一般社団法人よるべの会,,その他の設立登記法人,鳥取県,鳥取市,鹿野町鹿野２９９９番地６,,31,201,6890405,,,,,,,2025-11-18,1,,,,,ヨルベノカイ,0
1324,5290001112166,新規,0,2025-11-18,2025-11-18,株式会社ＵＥＨ,,株式会社,福岡県,福岡市博多区,吉塚４丁目１０番７－２０２号ブランシュシュ空港通り,,40,132,8120041,,,,,,,2025-11-18,1,,,,,ユーイーエイチ,0
1328,5290003017652,新規,0,2025-11-18,2025-11-18,合同会社コル,,合同会社,福岡県,福岡市東区,千早１丁目４３番１２号,,40,131,8130044,,,,,,,2025-11-18,1,,,,,コル,0
1329,5290003017727,新規,0,2025-11-18,2025-11-18,合同会社サザンカ,,合同会社,福岡県,古賀市,天神１丁目１８番２号１０２号室,,40,223,8113101,,,,,,,2025-11-18,1,,,,,サザンカ,0
1333,5310001019854,新規,0,2025-11-18,2025-11-18,株式会社Ｎｕａ,,株式会社,長崎県,佐世保市,天満町２番１７号天満ビル１階,,42,202,8570043,,,,,,,2025-11-18,1,,,,,ヌア,0
1334,5320003004829,新規,0,2025-11-18,2025-11-18,合同会社筒井農園,,合同会社,大分県,大分市,大字下徳丸８４番地の１,,44,201,8700118,,,,,,,2025-11-18,1,,,,,ツツイノウエン,0
1336,5330005010972,新規,0,2025-11-18,2025-11-18,一般社団法人予防歯科栄養療法協会,,その他の設立登記法人,熊本県,阿蘇郡南阿蘇村,大字両併２２０８番地８,,43,433,8691501,,,,,,,2025-11-18,1,,,,,ヨボウシカエイヨウリョウホウキョウカイ,0
1342,5370003007372,新規,0,2025-11-18,2025-11-18,合同会社エトワル,,合同会社,宮城県,仙台市宮城野区,二の森２１‐１６‐シャーメゾン木皿Ｅ棟,,04,102,9830838,,,,,,,2025-11-18,1,,,,,エトワル,0
1349,5410001014325,新規,0,2025-11-18,2025-11-18,株式会社ナースアップ,,株式会社,秋田県,秋田市,東通仲町６番２号,,05,201,0100002,,,,,,,2025-11-18,1,,,,,ナースアップ,0
1355,5430001095660,新規,0,2025-11-18,2025-11-18,株式会社ちるちる,,株式会社,北海道,石狩市,厚田区望来３８８番８３,,01,235,0613523,,,,,,,2025-11-18,1,,,,,チルチル,0
1361,5460003001077,新規,0,2025-11-18,2025-11-18,インフェルノ・ストラテジーズ合同会社,,合同会社,北海道,釧路市,南大通１丁目２－３ＯＦＦＩＣＥぬさまいビル３階３０１号,,01,206,0850841,,,,,,,2025-11-18,1,,,,,,0
1363,5470001020986,新規,0,2025-11-18,2025-11-18,株式会社Ａｚｕｒｅｎｃｅ,,株式会社,香川県,高松市,天神前１０番５号高松セントラルスカイビル４階,,37,201,7600018,,,,,,,2025-11-18,1,,,,,アズレンス,0
1372,6010001260215,新規,0,2025-11-18,2025-11-18,Ｌｅｎｏ株式会社,,株式会社,東京都,千代田区,内神田１丁目１４－５ＮＫ内神田３Ｆ,,13,101,1010047,,,,,,,2025-11-18,1,,,,,レノ,0
1373,6010001260322,新規,0,2025-11-18,2025-11-18,ＴＡＨＩＫＩ株式会社,,株式会社,東京都,中央区,勝どき６丁目３番１－４３０３号,,13,102,1040054,,,,,,,2025-11-18,1,,,,,タヒキ,0
1374,6010001260339,新規,0,2025-11-18,2025-11-18,株式会社ＩｒｏＲｅ,,株式会社,東京都,千代田区,丸の内１丁目１－３日本生命丸の内ガーデンタワー３Ｆ,,13,101,1000005,,,,,,,2025-11-18,1,,,,,イロリ,0
1375,6010001260396,新規,0,2025-11-18,2025-11-18,ＴＣＧ２５０７株式会社,,株式会社,東京都,千代田区,丸の内１丁目５番１号,,13,101,1000005,,,,,,,2025-11-18,1,,,,,ティーシージーニーゴーゼロナナ,0
1376,6010001260405,新規,0,2025-11-18,2025-11-18,株式会社ヘルスガバナンス研究機構,,株式会社,東京都,中央区,銀座４丁目１２番２０号,,13,102,1040061,,,,,,,2025-11-18,1,,,,,ヘルスガバナンスケンキュウキコウ,0
1382,6010003049458,新規,0,2025-11-18,2025-11-18,エスティ２０合同会社,,合同会社,東京都,千代田区,丸の内１丁目４番１号東京共同会計事務所内,,13,101,1000005,,,,,,,2025-11-18,1,,,,,エスティニジュウ,0
1384,6010101016970,新規,0,2025-11-18,2025-11-18,株式会社千悠,,株式会社,東京都,八王子市,千人町３丁目２番１号ＫＩビル４０２号室,,13,201,1930835,,,,,,,2025-11-18,1,,,,,センユウ,0
1394,6010401194533,新規,0,2025-11-18,2025-11-18,株式会社Ｒｉｓｅ,,株式会社,東京都,港区,芝浦４丁目２１番１－４００５号,,13,103,1080023,,,,,,,2025-11-18,1,,,,,ライズ,0
1395,6010401194566,新規,0,2025-11-18,2025-11-18,株式会社ＭａｍｉＵ,,株式会社,東京都,港区,北青山１丁目３番１号アールキューブ青山３階,,13,103,1070061,,,,,,,2025-11-18,1,,,,,マミウ,0
1398,6010403036576,新規,0,2025-11-18,2025-11-18,合同会社Ｕｎｉｕｓ,,合同会社,東京都,港区,芝５丁目２９－２２ライオンズマンションフェリス三田１００２,,13,103,1080014,,,,,,,2025-11-18,1,,,,,ユニアス,0
1399,6010403036592,新規,0,2025-11-18,2025-11-18,Ｗｅｂｌｉｎａ合同会社,,合同会社,東京都,港区,南青山３丁目１番３６号青山丸竹ビル６Ｆ,,13,103,1070062,,,,,,,2025-11-18,1,,,,,ウェブリナ,0
1400,6010403036618,新規,0,2025-11-18,2025-11-18,Ｍａｋｉｎａ　Ｃｏｎｓｕｌｔｉｎｇ合同会社,,合同会社,東京都,港区,麻布十番１丁目５番１０号,,13,103,1060045,,,,,,,2025-11-18,1,,,,,マキナコンサルティング,0
1401,6010403036634,新規,0,2025-11-18,2025-11-18,合同会社Ｔｈｅ　Ｗｅｌｌｎｅｓｓ　Ｊａｐａｎ,,合同会社,東京都,港区,南青山２丁目１０番８号ＭＤＡｏｙａｍａ４階,,13,103,1070062,,,,,,,2025-11-18,1,,,,,ザウェルネスジャパン,0
1406,6010701048612,新規,0,2025-11-18,2025-11-18,株式会社Ｕｎｉｔ　ＤＸ,,株式会社,東京都,品川区,東大井１丁目１５番５－３０２号,,13,109,1400011,,,,,,,2025-11-18,1,,,,,ユニットディーエックス,0
1421,6011001173596,新規,0,2025-11-18,2025-11-18,株式会社Ｍｅｎ’ｓ　Ｂ．Ｐ．,,株式会社,東京都,渋谷区,桜丘町１２番１０号,,13,113,1500031,,,,,,,2025-11-18,1,,,,,メンズビーピー,0
1422,6011001173621,新規,0,2025-11-18,2025-11-18,株式会社コンサバティヴ,,株式会社,東京都,目黒区,目黒４丁目３番１５号,,13,110,1530063,,,,,,,2025-11-18,1,,,,,コンサバティヴ,0
1423,6011001173654,新規,0,2025-11-18,2025-11-18,株式会社ＵＮＩＯＮ　Ｉｎｖｅｓｔｍｅｎｔ　Ｐａｒｔｎｅｒｓ　Ｊａｐａｎ,,株式会社,東京都,渋谷区,代々木４丁目３１番４号キャッスル新宿１１０２号室,,13,113,1510053,,,,,,,2025-11-18,1,,,,,ユニオンインベストメントパートナーズジャパン,0
1424,6011001173720,新規,0,2025-11-18,2025-11-18,株式会社Ｂｅｅ　Ｌａｂｏｒａｔｏｒｙ,,株式会社,東京都,渋谷区,恵比寿西２丁目８番４号ＥＸ恵比寿西ビル５階,,13,113,1500021,,,,,,,2025-11-18,1,,,,,ビーラボ,0
1426,6011003022966,新規,0,2025-11-18,2025-11-18,Ｒａｐｌｕｓｙ合同会社,,合同会社,東京都,渋谷区,恵比寿西２丁目８番４号ＥＸ恵比寿西ビル５階,,13,113,1500021,,,,,,,2025-11-18,1,,,,,ラプラシー,0
1435,6011401027583,新規,0,2025-11-18,2025-11-18,株式会社Ｃｏ士技,,株式会社,東京都,板橋区,志村１丁目１９番２４－１０５号,,13,119,1740056,,,,,,,2025-11-18,1,,,,,コトワザ,0
1436,6011403004936,新規,0,2025-11-18,2025-11-18,合同会社ぴーす,,合同会社,東京都,板橋区,志村２丁目１４番１８－６０１号,,13,119,1740056,,,,,,,2025-11-18,1,,,,,ピース,0
1441,6011801047033,新規,0,2025-11-18,2025-11-18,豊瑞株式会社,,株式会社,東京都,葛飾区,東新小岩７丁目１６－１２－３０６号,,13,122,1240023,,,,,,,2025-11-18,1,,,,,ホウズイ,0
1442,6011803007191,新規,0,2025-11-18,2025-11-18,合同会社ＩＳＡＭＩ,,合同会社,東京都,葛飾区,東立石４丁目５０番９号,,13,122,1240013,,,,,,,2025-11-18,1,,,,,イサミ,0
1451,6012805003377,新規,0,2025-11-18,2025-11-18,社会保険労務士法人ロームコンサル,,その他の設立登記法人,東京都,立川市,錦町１丁目１０番２５号,,13,202,1900022,,,,,,,2025-11-18,1,,,,,ロームコンサル,0
1456,6013301055326,新規,0,2025-11-18,2025-11-18,株式会社ＩＡＣサービス,,株式会社,東京都,豊島区,駒込１丁目３番５号,,13,116,1700003,,,,,,,2025-11-18,1,,,,,アイエーシーサービス,0
1461,6020001165834,新規,0,2025-11-18,2025-11-18,株式会社静建,,株式会社,神奈川県,川崎市多摩区,長沢４丁目２５番５－１０４号,,14,135,2140035,,,,,,,2025-11-18,1,,,,,シズケン,0
1462,6020001165909,新規,0,2025-11-18,2025-11-18,ＩＭＧｒｏｗ株式会社,,株式会社,神奈川県,川崎市川崎区,砂子２丁目１０―２―１５１０,,14,131,2100006,,,,,,,2025-11-18,1,,,,,アイエムグロウ,0
1485,6040001141412,新規,0,2025-11-18,2025-11-18,株式会社ファブリック,,株式会社,千葉県,船橋市,習志野台７丁目２０番３４号,,12,204,2740063,,,,,,,2025-11-18,1,,,,,ファブリック,0
1486,6040001141420,新規,0,2025-11-18,2025-11-18,株式会社ルクス＆グレイス,,株式会社,千葉県,佐倉市,ユーカリが丘４丁目２－Ｍ１７０９,,12,212,2850858,,,,,,,2025-11-18,1,,,,,ルクスアンドグレイス,0
1487,6040001141437,新規,0,2025-11-18,2025-11-18,株式会社ＮＥＯ　ＣＬＡＳＳＩＣ,,株式会社,千葉県,八千代市,八千代台北５丁目３－１７,,12,221,2760031,,,,,,,2025-11-18,1,,,,,ネオクラシック,0
1492,6040003028946,新規,0,2025-11-18,2025-11-18,合同会社ＪＩＶＥ　ＦＡＣＴＯＲＹ,,合同会社,千葉県,市川市,高谷３丁目１３番１６号,,12,203,2720013,,,,,,,2025-11-18,1,,,,,ジャイブファクトリー,0
1493,6040003028979,新規,0,2025-11-18,2025-11-18,合同会社ブリンクル,,合同会社,千葉県,山武郡横芝光町,横芝６２５番地１,,12,410,2891732,,,,,,,2025-11-18,1,,,,,ブリンクル,0
1494,6040005022947,新規,0,2025-11-18,2025-11-18,行政書士法人ＬＤパートナーズ,,その他の設立登記法人,千葉県,千葉市美浜区,幸町１丁目２－２桑田ビル４北Ｂ,,12,106,2610001,,,,,,,2025-11-18,1,,,,,エルディーパートナーズ,0
1502,6060001038771,新規,0,2025-11-18,2025-11-18,ＳＴＨＸ　ｃａｐｉｔａｌ株式会社,,株式会社,栃木県,小山市,大字横倉新田２６１－１ステラフォンターナ３,,09,208,3230819,,,,,,,2025-11-18,1,,,,,エスティーエイチエックスキャピタル,0
1507,6070001043564,新規,0,2025-11-18,2025-11-18,株式会社晴佑電業,,株式会社,群馬県,伊勢崎市,東町２４７７番地１０,,10,204,3792231,,,,,,,2025-11-18,1,,,,,セイユウデンギョウ,0
1512,6080101025908,新規,0,2025-11-18,2025-11-18,株式会社ＦＯＲＯＯ,,株式会社,静岡県,沼津市,大手町５丁目９－４,,22,203,4100801,,,,,,,2025-11-18,1,,,,,フォルー,0
1529,6120001282090,新規,0,2025-11-18,2025-11-18,株式会社総合人材サービス,,株式会社,大阪府,大阪市住吉区,苅田８丁目１２番１２号ロイヤルハイツ苅田４０４号,,27,120,5580011,,,,,,,2025-11-18,1,,,,,ソウゴウジンザイサービス,0
1530,6120003031223,新規,0,2025-11-18,2025-11-18,Ｓｕｌｔａｎｉ　Ｔｒａｄｉｎｇ合同会社,,合同会社,大阪府,守口市,八雲東町２丁目２４－２Ａ１０３号室,,27,209,5700021,,,,,,,2025-11-18,1,,,,,スールターニトレーディング,0
1531,6120003031280,新規,0,2025-11-18,2025-11-18,あんコンサルティング合同会社,,合同会社,大阪府,大阪市北区,西天満４丁目７番１３号新老松ビル３階３５号,,27,127,5300047,,,,,,,2025-11-18,1,,,,,アンコンサルティング,0
1536,6120101072788,新規,0,2025-11-18,2025-11-18,株式会社ＭＥＡ,,株式会社,大阪府,堺市中区,土師町５丁１２番２３号,,27,142,5998238,,,,,,,2025-11-18,1,,,,,エムイーエー,0
1538,6120901051784,新規,0,2025-11-18,2025-11-18,株式会社Ｌｉｎｋ‐１,,株式会社,大阪府,吹田市,垂水町２丁目７番２０－１０２号,,27,205,5640062,,,,,,,2025-11-18,1,,,,,リンクワン,0
1539,6120901051792,新規,0,2025-11-18,2025-11-18,株式会社Ｒｅ‐ＳＴＡＲＴ,,株式会社,大阪府,摂津市,鳥飼下２丁目２番７号Ｔ．Ｒ．ＥＴＳＵＪＩＢＬＤＧ４０２号室,,27,224,5660071,,,,,,,2025-11-18,1,,,,,リスタート,0
1541,6120903005945,新規,0,2025-11-18,2025-11-18,合同会社ＴＭ‐Ｏｎｅ,,合同会社,大阪府,池田市,石橋４丁目２２番１９－１号,,27,204,5630032,,,,,,,2025-11-18,1,,,,,ティーエムワン,0
1544,6122001039875,新規,0,2025-11-18,2025-11-18,華映株式会社,,株式会社,大阪府,東大阪市,永和１丁目５番１－２０３号,,27,227,5770809,,,,,,,2025-11-18,1,,,,,カエイ,0
1545,6122001039891,新規,0,2025-11-18,2025-11-18,株式会社ＴＲＹ,,株式会社,大阪府,八尾市,渋川町６丁目３番９号,,27,212,5810075,,,,,,,2025-11-18,1,,,,,トライ,0
1550,6130003010936,新規,0,2025-11-18,2025-11-18,合名会社閑州庵智ひろ,,合名会社,京都府,京都市北区,紫野下柏野町５６－２３,,26,101,6038313,,,,,,,2025-11-18,1,,,,,カンシュウアンチヒロ,0
1558,6140001140800,新規,0,2025-11-18,2025-11-18,大翔梱包株式会社,,株式会社,兵庫県,高砂市,高砂町木曽町３番２号,,28,216,6760024,,,,,,,2025-11-18,1,,,,,ヤマトコンポウ,0
1562,6140003022856,新規,0,2025-11-18,2025-11-18,オプティマーク合同会社,,合同会社,兵庫県,芦屋市,海洋町５－２６,,28,206,6590035,,,,,,,2025-11-18,1,,,,,オプティマーク,0
1563,6140003022872,新規,0,2025-11-18,2025-11-18,合同会社Ｅｎａｋ,,合同会社,兵庫県,朝来市,和田山町東谷２１３番地５１,,28,225,6695202,,,,,,,2025-11-18,1,,,,,エナ,0
1565,6150003003748,新規,0,2025-11-18,2025-11-18,ＣＲＯＳＳＲＯＡＤ合同会社,,合同会社,奈良県,葛城市,疋田２０４番地１０,,29,211,6392101,,,,,,,2025-11-18,1,,,,,クロスロード,0
1567,6160001027228,新規,0,2025-11-18,2025-11-18,株式会社リベルテ,,株式会社,滋賀県,草津市,芦浦町５６番地１,,25,206,5250002,,,,,,,2025-11-18,1,,,,,リベルテ,0
1575,6180001169530,新規,0,2025-11-18,2025-11-18,株式会社ＲＥＣＩＥＬ,,株式会社,愛知県,名古屋市中区,丸の内２丁目１９番３２号,,23,106,4600002,,,,,,,2025-11-18,1,,,,,レシェル,0
1577,6180003029377,新規,0,2025-11-18,2025-11-18,合同会社白都,,合同会社,愛知県,半田市,岩滑西町２丁目３３番地１,,23,205,4750966,,,,,,,2025-11-18,1,,,,,ハクト,0
1590,6230001021181,新規,0,2025-11-18,2025-11-18,株式会社古市ホールディングス,,株式会社,富山県,射水市,土合１２５８番地１,,16,211,9390251,,,,,,,2025-11-18,1,,,,,フルイチホールディングス,0
1591,6230003002535,新規,0,2025-11-18,2025-11-18,合同会社Ｌｉｎｏ　Ｂｏｄｙ,,合同会社,富山県,富山市,秋吉１１４－２５,,16,201,9300953,,,,,,,2025-11-18,1,,,,,リノボディ,0
1596,6260001040740,新規,0,2025-11-18,2025-11-18,株式会社エステート英,,株式会社,岡山県,倉敷市,沖１９１番地ファーストヒルズ３０３,,33,202,7100836,,,,,,,2025-11-18,1,,,,,エステートハナブサ,0
1602,6260005011548,新規,0,2025-11-18,2025-11-18,一般社団法人海山都会,,その他の設立登記法人,岡山県,岡山市北区,津島新野１丁目１－３１,,33,101,7000083,,,,,,,2025-11-18,1,,,,,ウミヤマトカイ,0
1610,6290001112207,新規,0,2025-11-18,2025-11-18,株式会社アストレア,,株式会社,福岡県,福岡市博多区,中洲２丁目２番１３号松島ビル６Ｆ,,40,132,8100801,,,,,,,2025-11-18,1,,,,,アストレア,0
1611,6290001112256,新規,0,2025-11-18,2025-11-18,株式会社西日本住宅設備メンテナンスサービス,,株式会社,福岡県,福岡市博多区,板付３丁目８番２２号,,40,132,8120888,,,,,,,2025-11-18,1,,,,,ニシニホンジュウタクセツビメンテナンスサービス,0
1620,6330001033761,新規,0,2025-11-18,2025-11-18,株式会社ＫｉｎｅＬｉｎｋ,,株式会社,熊本県,熊本市南区,上ノ郷１丁目１３番３－２号,,43,104,8614132,,,,,,,2025-11-18,1,,,,,キネリンク,0
1624,6340001027787,新規,0,2025-11-18,2025-11-18,株式会社日高水産,00141579,株式会社,鹿児島県,鹿児島市,住吉町４－１,,46,201,8920823,,,,,,,2025-11-18,1,,,,,ヒダカスイサン,0
1626,6340005009922,新規,0,2025-11-18,2025-11-18,一般社団法人おきのえらぶ農業ドローン組合,,その他の設立登記法人,鹿児島県,大島郡知名町,大字知名６０８番地２,,46,534,8919214,,,,,,,2025-11-18,1,,,,,オキノエラブノウギョウドローンクミアイ,0
1628,6360001036043,新規,0,2025-11-18,2025-11-18,株式会社セルフ沖縄,,株式会社,沖縄県,那覇市,泊３丁目１７番地９,,47,201,9000012,,,,,,,2025-11-18,1,,,,,セルフオキナワ,0
1632,6370001053236,新規,0,2025-11-18,2025-11-18,株式会社シーフォース,,株式会社,宮城県,仙台市青葉区,春日町９番１５号,,04,101,9800821,,,,,,,2025-11-18,1,,,,,シーフォース,0
1646,6430003018321,新規,0,2025-11-18,2025-11-18,合同会社すてっぷＵＰ,,合同会社,北海道,千歳市,信濃３丁目６番１０号,,01,224,0660038,,,,,,,2025-11-18,1,,,,,ステップアップ,0
1652,6490001011207,新規,0,2025-11-18,2025-11-18,株式会社四国総合エネルギー,,株式会社,高知県,高知市,薊野西町１丁目２０番３号６号室,,39,201,7810015,,,,,,,2025-11-18,1,,,,,,0
1653,6490001011215,新規,0,2025-11-18,2025-11-18,株式会社Ｇｏ‐Ｏｎ　ＵＮＩＴＥＤ,,株式会社,高知県,高知市,杉井流２－２７,,39,201,7800072,,,,,,,2025-11-18,1,,,,,ゴーオンユナイテッド,0
1659,6700150132970,新規,0,2025-11-18,2025-11-18,ｘｕｚｈｏｕｈｕａｌｅｓｈｅｎｇｓｈｉｚｈｕａｎｇｓｈｉｇｏｎｇｃｈｅｎｇｙｏｕｘｉａｎｇｏｎｇｓｉ,,外国会社等,,,,,,,,Ｎｏ．１－４２１，Ｂｕｉｌｄｉｎｇ　Ｂ，Ｊｉｔｉａｎ　Ｂｕｓｉｎｅｓｓ　Ｐｌａｚａ，Ｘｉｎｃｈｅｎｇ　Ｄｉｓｔｒｉｃｔ，Ｘｕｚｈｏｕ，Ｊｉａｎｇｓｕ　２２１０００　ＣＮ,,,,,,2025-11-18,1,,,,,シージョウフワーラーションシージュワンシーゴンチョンヨウシエンゴンスー,0
1668,7010001260098,新規,0,2025-11-18,2025-11-18,プライマリー通販企画株式会社,,株式会社,東京都,中央区,晴海３丁目１６番１－１８０７号,,13,102,1040053,,,,,,,2025-11-18,1,,,,,プライマリーツウハンキカク,0
1669,7010001260206,新規,0,2025-11-18,2025-11-18,Ｔｅｃｈｎｏｓｏｆｔ　Ｉｎｔｅｇｒａｔｅｄ　Ｓｏｌｕｔｉｏｎｓ株式会社,,株式会社,東京都,千代田区,岩本町２丁目４番１号,,13,101,1010032,,,,,,,2025-11-18,1,,,,,テクノソフトインテグレイテッドソリューションズ,0
1670,7010001260255,新規,0,2025-11-18,2025-11-18,株式会社ＤＭ,,株式会社,東京都,中央区,銀座１丁目１２番４号Ｎ＆ＥＢＬＤ．６Ｆ,,13,102,1040061,,,,,,,2025-11-18,1,,,,,ディーエム,0
1671,7010001260305,新規,0,2025-11-18,2025-11-18,株式会社ＡＸＩＡ,,株式会社,東京都,中央区,銀座１丁目１２番４号Ｎ＆ＥＢＬＤ．６Ｆ,,13,102,1040061,,,,,,,2025-11-18,1,,,,,アクシア,0
1672,7010001260354,新規,0,2025-11-18,2025-11-18,株式会社Ｈｉｎｏｔｏ,,株式会社,東京都,文京区,本郷６丁目２５番１４号,,13,105,1130033,,,,,,,2025-11-18,1,,,,,ヒノト,0
1673,7010003049317,新規,0,2025-11-18,2025-11-18,合同会社ルナ,,合同会社,東京都,中央区,銀座４丁目１０－１４ＡＣＮ銀座４ビルディング９Ｆ,,13,102,1040061,,,,,,,2025-11-18,1,,,,,ルナ,0
1674,7010003049424,新規,0,2025-11-18,2025-11-18,合同会社Ｇｒａｃｅ＆Ｂｏｕｎｔｙ,,合同会社,東京都,文京区,千駄木３丁目２４－３ＬＩＸ千駄木ビル１０１,,13,105,1130022,,,,,,,2025-11-18,1,,,,,グレイスアンドバウンティ,0
1675,7010003049440,新規,0,2025-11-18,2025-11-18,合同会社ＤＩＲＥＣＴＩＯＮ‐７,,合同会社,東京都,中央区,日本橋蛎殻町１丁目６番４号第三カネタツビル１０１,,13,102,1030014,,,,,,,2025-11-18,1,,,,,ディレクションセブン,0
1676,7010003049457,新規,0,2025-11-18,2025-11-18,オルタナレジ２合同会社,,合同会社,東京都,千代田区,丸の内１丁目４番１号東京共同会計事務所内,,13,101,1000005,,,,,,,2025-11-18,1,,,,,オルタナレジツー,0
1679,7010401193699,新規,0,2025-11-18,2025-11-18,株式会社オオタフューチャーキャピタル,,株式会社,東京都,港区,白金１丁目２番１号白金ザ・スカイ東棟１１２３号室,,13,103,1080072,,,,,,,2025-11-18,1,,,,,オオタフューチャーキャピタル,0
1680,7010401194499,新規,0,2025-11-18,2025-11-18,株式会社ＧＯＬＦＣＯＭ,,株式会社,東京都,港区,虎ノ門１丁目１７番１号虎ノ門ヒルズビジネスタワー１５階,,13,103,1050001,,,,,,,2025-11-18,1,,,,,ゴルフコム,0
1697,7011001173397,新規,0,2025-11-18,2025-11-18,株式会社ｔｅｎｏｋｉｓ,,株式会社,東京都,目黒区,下目黒１丁目１番１４号コノトラビル７Ｆ,,13,110,1530064,,,,,,,2025-11-18,1,,,,,テノキス,0
1698,7011001173562,新規,0,2025-11-18,2025-11-18,株式会社メディメイド,,株式会社,東京都,渋谷区,渋谷３丁目７－６第６矢木ビル２階,,13,113,1500002,,,,,,,2025-11-18,1,,,,,メディメイド,0
1699,7011003022916,新規,0,2025-11-18,2025-11-18,合同会社雄丹,,合同会社,東京都,渋谷区,恵比寿西２丁目４番８号ウィンド恵比寿ビル８階,,13,113,1500021,,,,,,,2025-11-18,1,,,,,ユウタン,0
1700,7011003022932,新規,0,2025-11-18,2025-11-18,合同会社ソルライズ,,合同会社,東京都,渋谷区,道玄坂１丁目１０番８号渋谷道玄坂東急ビル２Ｆ－Ｃ,,13,113,1500043,,,,,,,2025-11-18,1,,,,,ソルライズ,0
1703,7011105011635,新規,0,2025-11-18,2025-11-18,一般社団法人Ｓｏｌｄｉａ,,その他の設立登記法人,東京都,新宿区,四谷４丁目８番地,,13,104,1600004,,,,,,,2025-11-18,1,,,,,ソルディア,0
1705,7011401027582,新規,0,2025-11-18,2025-11-18,株式会社広報ブレイスＰＬＵＳ,,株式会社,東京都,板橋区,新河岸１丁目７番７号,,13,119,1750081,,,,,,,2025-11-18,1,,,,,コウホウブレイスプラス,0
1706,7011403004943,新規,0,2025-11-18,2025-11-18,合同会社くみゴン,,合同会社,東京都,板橋区,徳丸６丁目１０番２４号,,13,119,1750083,,,,,,,2025-11-18,1,,,,,クミゴン,0
1710,7011801047057,新規,0,2025-11-18,2025-11-18,雪峰株式会社,,株式会社,東京都,葛飾区,四つ木５丁目２４番１７号,,13,122,1240011,,,,,,,2025-11-18,1,,,,,セツホウ,0
1711,7011803007190,新規,0,2025-11-18,2025-11-18,日本一周合同会社,,合同会社,東京都,足立区,大谷田３丁目１－１５－１０７,,13,121,1200001,,,,,,,2025-11-18,1,,,,,ニホンイッシュウ,0
1712,7011803007199,新規,0,2025-11-18,2025-11-18,合同会社スレッド,,合同会社,東京都,足立区,扇３丁目１３番１９－２０３号,,13,121,1230873,,,,,,,2025-11-18,1,,,,,スレッド,0
1717,7013301055283,新規,0,2025-11-18,2025-11-18,ＬＨモーゲージ株式会社,,株式会社,東京都,豊島区,西池袋１丁目９番１１号,,13,116,1710021,,,,,,,2025-11-18,1,,,,,エルエイチモーゲージ,0
1718,7013301055317,新規,0,2025-11-18,2025-11-18,株式会社ＯｎｅＤＯ,,株式会社,東京都,豊島区,東池袋１丁目３４－５いちご東池袋ビル６Ｆ,,13,116,1700013,,,,,,,2025-11-18,1,,,,,ワンドゥー,0
1722,7020001165635,新規,0,2025-11-18,2025-11-18,株式会社ＴＫＪコンサルティング,,株式会社,神奈川県,横浜市青葉区,新石川２丁目１１番地１０３,,14,117,2250003,,,,,,,2025-11-18,1,,,,,ティーケイジェイコンサルティング,0
1723,7020001165833,新規,0,2025-11-18,2025-11-18,株式会社エイトハウジング,,株式会社,神奈川県,横浜市西区,東久保町３１番２６号,,14,103,2200062,,,,,,,2025-11-18,1,,,,,エイトハウジング,0
1724,7020001165866,新規,0,2025-11-18,2025-11-18,株式会社日本創研,,株式会社,神奈川県,川崎市高津区,東野川１丁目２７番１３号,,14,134,2130029,,,,,,,2025-11-18,1,,,,,ニホンソウケン,0
1725,7020001165874,新規,0,2025-11-18,2025-11-18,株式会社Ｙ‐ＭＯＣＫ,,株式会社,神奈川県,川崎市川崎区,小田３丁目１６番７－１号,,14,131,2100846,,,,,,,2025-11-18,1,,,,,ワイモック,0
1726,7020001165882,新規,0,2025-11-18,2025-11-18,株式会社ホテル新横浜,,株式会社,神奈川県,横浜市港北区,新横浜２丁目４番地６,,14,109,2220033,,,,,,,2025-11-18,1,,,,,ホテルシンヨコハマ,0
1730,7020003029788,新規,0,2025-11-18,2025-11-18,合同会社相川インベストメント,,合同会社,神奈川県,横浜市戸塚区,上倉田町９０８番地,,14,110,2440816,,,,,,,2025-11-18,1,,,,,アイカワインベストメント,0
1731,7020003029796,新規,0,2025-11-18,2025-11-18,カルタイム合同会社,,合同会社,神奈川県,横浜市青葉区,あざみ野２丁目３１番地８,,14,117,2250011,,,,,,,2025-11-18,1,,,,,カルタイム,0
1751,7040001141064,新規,0,2025-11-18,2025-11-18,株式会社ＢＨＡＢＡＮＡ,,株式会社,千葉県,八千代市,八千代台西１丁目１番地７青木ビル１０５,,12,221,2760034,,,,,,,2025-11-18,1,,,,,ババナ,0
1752,7040001141403,新規,0,2025-11-18,2025-11-18,株式会社真建設,,株式会社,千葉県,野田市,桜の里３丁目５番地１１,,12,208,2780048,,,,,,,2025-11-18,1,,,,,シンケンセツ,0
1753,7040001141411,新規,0,2025-11-18,2025-11-18,株式会社ｔｈｒｅｅ　ｅｉｇｈｔ,,株式会社,千葉県,船橋市,湊町２丁目１２番９－１００１号,,12,204,2730011,,,,,,,2025-11-18,1,,,,,スリーエイト,0
1754,7040001141444,新規,0,2025-11-18,2025-11-18,株式会社Ｋｉｎｄ,,株式会社,千葉県,流山市,向小金１丁目２３７番地の４７ラ・フォーレ岡本Ｂ１０２,,12,220,2700143,,,,,,,2025-11-18,1,,,,,カインド,0
1755,7040001141452,新規,0,2025-11-18,2025-11-18,株式会社ＫＡＩ,,株式会社,千葉県,香取市,岩部１８５４番地１,,12,236,2870102,,,,,,,2025-11-18,1,,,,,カイ,0
1762,7040003028961,新規,0,2025-11-18,2025-11-18,合同会社成田１,,合同会社,千葉県,成田市,取香２６３－２,,12,211,2860106,,,,,,,2025-11-18,1,,,,,ナリタワン,0
1766,7080103003456,新規,0,2025-11-18,2025-11-18,ＩＺＵとＤＡＯ合同会社,,合同会社,静岡県,下田市,一丁目９－１５,,22,219,4150021,,,,,,,2025-11-18,1,,,,,イズトダオ,0
1767,7080401028254,新規,0,2025-11-18,2025-11-18,ＫＡＫＥＲＵ株式会社,,株式会社,静岡県,浜松市中央区,元魚町１０１番地,,22,138,4328026,,,,,,,2025-11-18,1,,,,,カケル,0
1769,7100001039104,新規,0,2025-11-18,2025-11-18,Ｔｈｅ　Ｂｏａｒｄｒｏｏｍ株式会社,,株式会社,長野県,北安曇郡小谷村,大字千国乙５１４番,,20,486,3999422,,,,,,,2025-11-18,1,,,,,ザボードルーム,0
1770,7110001017158,新規,0,2025-11-18,2025-11-18,株式会社エムディケー,,株式会社,新潟県,柏崎市,茨目２丁目６番２７号,00141484,15,205,9451341,,,,,,,2025-11-18,1,,,,,エムディケー,0
1774,7110001039722,新規,0,2025-11-18,2025-11-18,株式会社ＧＩＮ,,株式会社,新潟県,新潟市中央区,天神１丁目１番地プラーカ３、２階,,15,103,9500917,,,,,,,2025-11-18,1,,,,,ジン,0
1783,7120001282040,新規,0,2025-11-18,2025-11-18,松尾エナジー株式会社,,株式会社,大阪府,大阪市北区,梅田３丁目２番２号ＪＰタワー大阪１５階,,27,127,5300001,,,,,,,2025-11-18,1,,,,,マツオエナジー,0
1787,7120003031255,新規,0,2025-11-18,2025-11-18,Ｋｉｃｋｓ　Ｈａｋｏ合同会社,,合同会社,大阪府,寝屋川市,池田南町１８－４ＮＪハイツ池田ＩＩ－３０１号,00141573,27,215,5720034,,,,,,,2025-11-18,1,,,,,キックスハコ,0
1790,7120101072820,新規,0,2025-11-18,2025-11-18,エクサブル株式会社,,株式会社,大阪府,堺市堺区,旭通３－１３－２階,,27,141,5900055,,,,,,,2025-11-18,1,,,,,エクサブル,0
1791,7120901051791,新規,0,2025-11-18,2025-11-18,株式会社西前,,株式会社,大阪府,茨木市,穂積台５番２２号,,27,211,5670044,,,,,,,2025-11-18,1,,,,,ニシマエ,0
1792,7120903005960,新規,0,2025-11-18,2025-11-18,合同会社迅,,合同会社,大阪府,高槻市,大蔵司１丁目７番６号ビレッジハウス服部６号棟３０８号,,27,207,5691034,,,,,,,2025-11-18,1,,,,,ジン,0
1793,7122001039916,新規,0,2025-11-18,2025-11-18,株式会社コネクトプラス,,株式会社,大阪府,八尾市,久宝園２丁目７１番地の７,,27,212,5810817,,,,,,,2025-11-18,1,,,,,コネクトプラス,0
1795,7130001081029,新規,0,2025-11-18,2025-11-18,株式会社ｙｕｙｕ　ｗｏｒｋｓ,,株式会社,京都府,京都市下京区,朱雀宝蔵町４４番地協栄ビル２階京都朱雀スタジオＡＳ－３１０,,26,106,6008846,,,,,,,2025-11-18,1,,,,,ユユワークス,0
1796,7130001081045,新規,0,2025-11-18,2025-11-18,株式会社慶勝,,株式会社,京都府,京都市左京区,上高野隣好町３０番地,,26,103,6060085,,,,,,,2025-11-18,1,,,,,ケイショウ,0
1802,7140001140691,新規,0,2025-11-18,2025-11-18,株式会社真裕,,株式会社,兵庫県,伊丹市,南野北５丁目４－７,,28,207,6640887,,,,,,,2025-11-18,1,,,,,シンユウ,0
1803,7140001140758,新規,0,2025-11-18,2025-11-18,株式会社しばたけフーズ,,株式会社,兵庫県,加古川市,平岡町高畑２８５,,28,210,6750103,,,,,,,2025-11-18,1,,,,,シバタケフーズ,0
1804,7140001140766,新規,0,2025-11-18,2025-11-18,株式会社清水クリーナー,,株式会社,兵庫県,宝塚市,末成町１２番１１－２号,,28,214,6650044,,,,,,,2025-11-18,1,,,,,シミズクリーナー,0
1805,7140001140782,新規,0,2025-11-18,2025-11-18,株式会社エースメディカルサポート,,株式会社,兵庫県,西宮市,甲風園２丁目１２－１９,,28,204,6620832,,,,,,,2025-11-18,1,,,,,エースメディカルサポート,0
1811,7180001169538,新規,0,2025-11-18,2025-11-18,株式会社ＴＫ不動産,,株式会社,愛知県,名古屋市南区,桜台２丁目５番２４号,,23,112,4570005,,,,,,,2025-11-18,1,,,,,ティーケーフドウサン,0
1812,7180001169554,新規,0,2025-11-18,2025-11-18,株式会社ＡＫＣ,,株式会社,愛知県,知多郡阿久比町,大字植大字西廻間２番地１３,,23,441,4702216,,,,,,,2025-11-18,1,,,,,エーケーシー,0
1813,7180001169570,新規,0,2025-11-18,2025-11-18,株式会社ＢＩＤＯＮＡ,,株式会社,愛知県,一宮市,北神明町３丁目５番地４,,23,203,4910069,,,,,,,2025-11-18,1,,,,,ビドナ,0
1814,7180003029376,新規,0,2025-11-18,2025-11-18,ＣＡＲＵ合同会社,,合同会社,愛知県,名古屋市中川区,一色新町２丁目４０１三日月住宅１‐４０６,,23,110,4540946,,,,,,,2025-11-18,1,,,,,カル,0
1815,7180003029392,新規,0,2025-11-18,2025-11-18,合同会社リノアス,,合同会社,愛知県,知多郡東浦町,大字緒川字於大が丘１７２番地グレイスエーリ１０６号,,23,442,4702102,,,,,,,2025-11-18,1,,,,,リノアス,0
1817,7180301040423,新規,0,2025-11-18,2025-11-18,株式会社ＫＡＩＫＡ,,株式会社,愛知県,田原市,田原町東滝頭１番地８０区画,,23,231,4413421,,,,,,,2025-11-18,1,,,,,,0
1823,7200001044432,新規,0,2025-11-18,2025-11-18,株式会社マネーＬａｂ．,,株式会社,岐阜県,多治見市,坂上町８丁目６０番地,,21,204,5070804,,,,,,,2025-11-18,1,,,,,マネーラボ,0
1824,7200003007148,新規,0,2025-11-18,2025-11-18,合同会社エイトビレッジｃｏｃｃｏｌｅ,,合同会社,岐阜県,可児市,広見６０７番地６,,21,214,5090214,,,,,,,2025-11-18,1,,,,,エイトビレッジココレ,0
1825,7220001027030,新規,0,2025-11-18,2025-11-18,株式会社クスノキ,,株式会社,石川県,白山市,宮永市町３１０番地５,,17,210,9240016,,,,,,,2025-11-18,1,,,,,クスノキ,0
1829,7230005009503,新規,0,2025-11-18,2025-11-18,特定非営利活動法人つながりｔｉｅ,,その他の設立登記法人,富山県,富山市,清風町１４７番地,,16,201,9318409,,,,,,,2025-11-18,1,,,,,ツナガリタイ,0
1843,7290001112115,新規,0,2025-11-18,2025-11-18,株式会社ＡＶＩＯＮホールディングス,,株式会社,福岡県,久留米市,東合川新町４番２７号,,40,203,8390808,,,,,,,2025-11-18,1,,,,,アヴィオンホールディングス,0
1844,7290001112123,新規,0,2025-11-18,2025-11-18,株式会社Ｃｏｌｚａ,,株式会社,福岡県,久留米市,中央町３３番地２２,,40,203,8300023,,,,,,,2025-11-18,1,,,,,コルザ,0
1849,7290005019868,新規,0,2025-11-18,2025-11-18,九電プライベートリート投資法人,,その他の設立登記法人,福岡県,福岡市中央区,天神２丁目１２番１号天神ビル本館７階,,40,133,8100001,,,,,,,2025-11-18,1,,,,,キュウデンプライベートリート,0
1850,7300003002378,新規,0,2025-11-18,2025-11-18,合同会社福島,,合同会社,佐賀県,武雄市,朝日町大字甘久１０３０番地１草場アパート３号,,41,206,8430001,,,,,,,2025-11-18,1,,,,,フクシマ,0
1854,7330001033760,新規,0,2025-11-18,2025-11-18,株式会社かぶとむし家族,,株式会社,熊本県,球磨郡錦町,大字西１９４４番地１,,43,501,8680303,,,,,,,2025-11-18,1,,,,,カブトムシカゾク,0
1872,7430001095634,新規,0,2025-11-18,2025-11-18,ＬＩＮＫ　ＳＰＯＲＴ株式会社,,株式会社,北海道,虻田郡倶知安町,字比羅夫１－１７,,01,400,0440077,,,,,,,2025-11-18,1,,,,,リンクスポーツ,0
1875,7430005015357,新規,0,2025-11-18,2025-11-18,一般社団法人愛清会,,その他の設立登記法人,北海道,札幌市中央区,南十六条西４丁目５－４ＨＤＧビル２階,,01,101,0640916,,,,,,,2025-11-18,1,,,,,アイセイカイ,0
1886,7500001026631,新規,0,2025-11-18,2025-11-18,株式会社Ｋｕｕｃｈｅ　Ｄｅｓｉｇｎ,,株式会社,愛媛県,新居浜市,新田町１丁目８番５６号,,38,205,7920003,,,,,,,2025-11-18,1,,,,,クーチェデザイン,0
1891,8010001260254,新規,0,2025-11-18,2025-11-18,株式会社ＹＭＺＫ,,株式会社,東京都,中央区,銀座１丁目１２番４号Ｎ＆ＥＢＬＤ．６Ｆ,,13,102,1040061,,,,,,,2025-11-18,1,,,,,ワイエムゼットケー,0
1892,8010001260262,新規,0,2025-11-18,2025-11-18,株式会社Ｇｒａｔｅｆｕｌ　Ｅｓｔａｔｅ　Ｊａｐａｎ,,株式会社,東京都,千代田区,内神田１丁目２番１５号,,13,101,1010047,,,,,,,2025-11-18,1,,,,,グレイトフルエステートジャパン,0
1893,8010001260304,新規,0,2025-11-18,2025-11-18,亀鶴デジタル株式会社,,株式会社,東京都,中央区,日本橋３丁目１３番６号－５階,,13,102,1030027,,,,,,,2025-11-18,1,,,,,カメツルデジタル,0
1894,8010001260337,新規,0,2025-11-18,2025-11-18,株式会社ヒナタ,,株式会社,東京都,中央区,日本橋浜町２丁目３５番４－１０２号,,13,102,1030007,,,,,,,2025-11-18,1,,,,,ヒナタ,0
1895,8010001260353,新規,0,2025-11-18,2025-11-18,株式会社Ｔｈｏｕｓａｎｄ,,株式会社,東京都,中央区,八丁堀３丁目２３番６号サントミ八丁堀ビル５階,,13,102,1040032,,,,,,,2025-11-18,1,,,,,サウザンド,0
1896,8010001260378,新規,0,2025-11-18,2025-11-18,ベゴザキッズ株式会社,,株式会社,東京都,中央区,日本橋浜町３丁目４１番５－１００１号,,13,102,1030007,,,,,,,2025-11-18,1,,,,,ベゴザキッズ,0
1897,8010001260394,新規,0,2025-11-18,2025-11-18,株式会社ＬｅａｄＶｉｓｔａ,,株式会社,東京都,千代田区,麹町６丁目２番地６ＰＭＯ麹町２階ＨＩＯ麹町２１５,,13,101,1020083,,,,,,,2025-11-18,1,,,,,リードビスタ,0
1900,8010003049415,新規,0,2025-11-18,2025-11-18,合同会社ＺＥＮ,,合同会社,東京都,中央区,銀座１丁目１２－４Ｎ＆ＥＢＬＤ．７階,,13,102,1040061,,,,,,,2025-11-18,1,,,,,ゼン,0
1901,8010003049431,新規,0,2025-11-18,2025-11-18,合同会社ｆａｎｔａｓｉｓｔａ　ｂａｔｔｅｒｙ２,,合同会社,東京都,中央区,銀座３丁目１０番６号マルイト銀座第３ビル８階,,13,102,1040061,,,,,,,2025-11-18,1,,,,,ファンタジスタバッテリーツー,0
1903,8010005040941,新規,0,2025-11-18,2025-11-18,クローエッジ税理士法人,,その他の設立登記法人,東京都,中央区,京橋１丁目１－９千疋屋ビル７Ｂ,,13,102,1040031,,,,,,,2025-11-18,1,,,,,クローエッジ,0
1904,8010101016969,新規,0,2025-11-18,2025-11-18,株式会社ＥＮ,,株式会社,東京都,八王子市,横山町１１－１ファウントビル４Ｆ,,13,201,1920081,,,,,,,2025-11-18,1,,,,,エン,0
1912,8010401194449,新規,0,2025-11-18,2025-11-18,株式会社Ｒ　Ｃａｐｉｔａｌ,,株式会社,東京都,港区,浜松町２丁目２番１５号浜松町ダイヤビル２Ｆ,,13,103,1050013,,,,,,,2025-11-18,1,,,,,アールキャピタル,0
1913,8010401194548,新規,0,2025-11-18,2025-11-18,ワザアカ株式会社,,株式会社,東京都,港区,六本木４丁目８番７号六本木嶋田ビル５Ｆ,,13,103,1060032,,,,,,,2025-11-18,1,,,,,ワザアカ,0
1914,8010401194556,新規,0,2025-11-18,2025-11-18,株式会社伊藤衣子,,株式会社,東京都,港区,西麻布３丁目７番９号,,13,103,1060031,,,,,,,2025-11-18,1,,,,,イトウキヌコ,0
1916,8010403036608,新規,0,2025-11-18,2025-11-18,リングエナジー合同会社,,合同会社,東京都,港区,西新橋２丁目２０番１号４階,,13,103,1050003,,,,,,,2025-11-18,1,,,,,リングエナジー,0
1921,8010601068270,新規,0,2025-11-18,2025-11-18,エクスプレスグループ株式会社,,株式会社,東京都,墨田区,太平１丁目１４番１号,,13,107,1300012,,,,,,,2025-11-18,1,,,,,エクスプレスグループ,0
1922,8010701048528,新規,0,2025-11-18,2025-11-18,ＲＩＳＥＮＯＶＡ株式会社,,株式会社,東京都,品川区,荏原４丁目９番２０号Ｊ．リヴェール武蔵小山４０１号,,13,109,1420063,,,,,,,2025-11-18,1,,,,,リセノバ,0
1931,8011003022923,新規,0,2025-11-18,2025-11-18,合同会社エクター,,合同会社,東京都,目黒区,青葉台３丁目７－１７ソプラタワー１３０６,,13,110,1530042,,,,,,,2025-11-18,1,,,,,エクター,0
1933,8011103016726,新規,0,2025-11-18,2025-11-18,オフィスオハナ合同会社,,合同会社,東京都,新宿区,津久戸町１番１号,,13,104,1620821,,,,,,,2025-11-18,1,,,,,オフィスオハナ,0
1937,8011601029171,新規,0,2025-11-18,2025-11-18,株式会社ガストロ東京,,株式会社,東京都,練馬区,石神井町４丁目７－２７,,13,120,1770041,,,,,,,2025-11-18,1,,,,,ガストロトーキョー,0
1948,8013301055316,新規,0,2025-11-18,2025-11-18,株式会社ｄｒｉｐ,,株式会社,東京都,豊島区,南長崎３丁目２５番１４号,,13,116,1710052,,,,,,,2025-11-18,1,,,,,ドリップ,0
1949,8013301055324,新規,0,2025-11-18,2025-11-18,ｉｎｆｉ‐ｎｅｔ株式会社,,株式会社,東京都,豊島区,東池袋２丁目６２番８号ＢＩＧオフィスプラザ池袋１２０６,,13,116,1700013,,,,,,,2025-11-18,1,,,,,インフィネット,0
1961,8020005017047,新規,0,2025-11-18,2025-11-18,一般社団法人豆の里,,その他の設立登記法人,神奈川県,川崎市高津区,宇奈根７７９－５、１Ｆ,,14,134,2130031,,,,,,,2025-11-18,1,,,,,マメノサト,0
1978,8040001141344,新規,0,2025-11-18,2025-11-18,株式会社絲金,,株式会社,千葉県,市川市,新田３丁目２２番７号,,12,203,2720035,,,,,,,2025-11-18,1,,,,,イトキン,0
1979,8040001141402,新規,0,2025-11-18,2025-11-18,株式会社ＡＲＫＳ,,株式会社,千葉県,佐倉市,坂戸１２２０番地,,12,212,2850078,,,,,,,2025-11-18,1,,,,,アークス,0
1980,8040001141435,新規,0,2025-11-18,2025-11-18,株式会社ＡＳＯＢＲＥＷ,,株式会社,千葉県,鎌ケ谷市,南鎌ケ谷４丁目４番８０－７号,,12,224,2730106,,,,,,,2025-11-18,1,,,,,アソブリュー,0
1981,8040001141451,新規,0,2025-11-18,2025-11-18,株式会社イマイエンタープライズ,,株式会社,千葉県,千葉市若葉区,御成台３丁目１０番地１１,,12,104,2650077,,,,,,,2025-11-18,1,,,,,イマイエンタープライズ,0
1993,8080101025906,新規,0,2025-11-18,2025-11-18,株式会社改善ホールディングス,,株式会社,静岡県,伊東市,宇佐美２０１５番地の２Ｓ・ＧｒａｄｅＫ１０１号,,22,208,4140001,,,,,,,2025-11-18,1,,,,,カイゼンホールディングス,0
2003,8080401028261,新規,0,2025-11-18,2025-11-18,株式会社Ｋａ‐ｋｉｓ　Ｂａｓｅ,,株式会社,静岡県,浜松市中央区,小池町１５６４番地の１ブライトタウン小池６０４,,22,138,4350056,,,,,,,2025-11-18,1,,,,,カーキズベース,0
2005,8090003002936,新規,0,2025-11-18,2025-11-18,合同会社こあらまコンサルティング,,合同会社,山梨県,北杜市,長坂町小荒間１８３７番２３号,,19,209,4080031,,,,,,,2025-11-18,1,,,,,コアラマコンサルティング,0
2008,8110003005969,新規,0,2025-11-18,2025-11-18,合同会社ＩＴＯ,,合同会社,新潟県,上越市,三和区野３０８番地,,15,222,9430225,,,,,,,2025-11-18,1,,,,,アイティオー,0
2021,8120001281900,新規,0,2025-11-18,2025-11-18,株式会社メディリンクキャリア,,株式会社,大阪府,大阪市北区,梅田１丁目１番３号大阪駅前第３ビル２９階１－１－１号室,,27,127,5300001,,,,,,,2025-11-18,1,,,,,メディリンクキャリア,0
2022,8120001281925,新規,0,2025-11-18,2025-11-18,株式会社にこいち,,株式会社,大阪府,大阪市東住吉区,山坂１丁目１９番１８号（１階）,,27,121,5460035,,,,,,,2025-11-18,1,,,,,ニコイチ,0
2023,8120001282048,新規,0,2025-11-18,2025-11-18,株式会社ＹＯＵＲ　ＳＡＩＬ,,株式会社,大阪府,大阪市北区,芝田２丁目８番１１号共栄ビル３階,,27,127,5300012,,,,,,,2025-11-18,1,,,,,ユアセイル,0
2031,8120003030883,新規,0,2025-11-18,2025-11-18,合同会社Ｅｃｈｏｒｉｚｅ,,合同会社,大阪府,大阪市北区,大淀南２丁目６番１号グリーンハイツ淀２０２号室,,27,127,5310075,,,,,,,2025-11-18,1,,,,,エコライズ,0
2049,8140001140765,新規,0,2025-11-18,2025-11-18,株式会社Ｙ．テック,,株式会社,兵庫県,神戸市兵庫区,下沢通３丁目４－２５神戸市管工事会館５０２号,,28,105,6520047,,,,,,,2025-11-18,1,,,,,ワイテック,0
2050,8140001140781,新規,0,2025-11-18,2025-11-18,株式会社Ｂｏｕｎｄａｒｙ．,,株式会社,兵庫県,神戸市中央区,琴ノ緒町３丁目２番１号琴ノ緒ビル３Ｆ,,28,110,6510094,,,,,,,2025-11-18,1,,,,,バウンダリー,0
2057,8160003003654,新規,0,2025-11-18,2025-11-18,合同会社ＰｌｕｓＲｏｏｔｓＪａｐａｎ,,合同会社,滋賀県,長浜市,田村町１２８１番地８,,25,203,5260829,,,,,,,2025-11-18,1,,,,,プラスルーツジャパン,0
2075,8180001169512,新規,0,2025-11-18,2025-11-18,株式会社清水塗装,,株式会社,愛知県,名古屋市中川区,水里５丁目４４０番地,,23,110,4540963,,,,,,,2025-11-18,1,,,,,シミズトソウ,0
2076,8180001169520,新規,0,2025-11-18,2025-11-18,株式会社ユニファ,,株式会社,愛知県,半田市,中町２丁目３５番地,,23,205,4750855,,,,,,,2025-11-18,1,,,,,ユニファ,0
2077,8180001169529,新規,0,2025-11-18,2025-11-18,株式会社Ｍ’ｓ　Ｎｅｓｔ,,株式会社,愛知県,名古屋市中村区,名駅３丁目４－１０アルティメイト名駅１ｓｔ２階,,23,105,4500002,,,,,,,2025-11-18,1,,,,,エムズネスト,0
2078,8180001169578,新規,0,2025-11-18,2025-11-18,株式会社Ｋａｎｄｏ,,株式会社,愛知県,半田市,桐ケ丘２丁目２０３番地の２６,,23,205,4750928,,,,,,,2025-11-18,1,,,,,カンドウ,0
2080,8180003029359,新規,0,2025-11-18,2025-11-18,合同会社青い空の下で,,合同会社,愛知県,一宮市,栄４丁目８番１５号,,23,203,4910858,,,,,,,2025-11-18,1,,,,,アオイソラノシタデ,0
2081,8180003029375,新規,0,2025-11-18,2025-11-18,うさみクリエイト合同会社,,合同会社,愛知県,名古屋市東区,新出来２丁目６番８号,,23,102,4610038,,,,,,,2025-11-18,1,,,,,ウサミクリエイト,0
2082,8190001032702,新規,0,2025-11-18,2025-11-18,株式会社Ｍホールディングス,,株式会社,三重県,松阪市,下蛸路町２８６番地５,,24,204,5192142,,,,,,,2025-11-18,1,,,,,エムホールディングス,0
2083,8200001044431,新規,0,2025-11-18,2025-11-18,株式会社点線面,,株式会社,岐阜県,瑞浪市,釜戸町３９０３番地の３４５,,21,208,5096472,,,,,,,2025-11-18,1,,,,,テンセンメン,0
2084,8200001044448,新規,0,2025-11-18,2025-11-18,株式会社Ｇｏ‐ｔｏ,,株式会社,岐阜県,加茂郡八百津町,和知２３０番地１,,21,505,5050305,,,,,,,2025-11-18,1,,,,,ゴートゥー,0
2085,8200003007147,新規,0,2025-11-18,2025-11-18,合同会社ＭＥＲＣＨＡＮＴ,,合同会社,岐阜県,各務原市,那加不動丘１丁目１６番地１,,21,213,5040838,,,,,,,2025-11-18,1,,,,,マーチャント,0
2087,8240001065795,新規,0,2025-11-18,2025-11-18,株式会社大輝,,株式会社,広島県,安芸郡府中町,桃山２丁目７番２６号,,34,302,7350026,,,,,,,2025-11-18,1,,,,,マサキ,0
2090,8260002034582,新規,0,2025-11-18,2025-11-18,有限会社国文社,,有限会社,岡山県,岡山市南区,新保６６８番地の２０,,33,104,7000945,,,,,,,2025-11-18,1,,,,,コクブンシャ,0
2091,8260003005418,新規,0,2025-11-18,2025-11-18,合同会社マドネ,,合同会社,岡山県,倉敷市,真備町上二万７２,,33,202,7101315,,,,,,,2025-11-18,1,,,,,マドネ,0
2099,8290001112188,新規,0,2025-11-18,2025-11-18,マサガホールディングス株式会社,,株式会社,福岡県,糟屋郡久山町,大字久原２５５４番地２２,,40,348,8112501,,,,,,,2025-11-18,1,,,,,マサガホールディングス,0
2100,8290001112196,新規,0,2025-11-18,2025-11-18,株式会社香,,株式会社,福岡県,福岡市城南区,七隈７丁目２８番２０号,,40,136,8140133,,,,,,,2025-11-18,1,,,,,カオリ,0
2106,8290801032040,新規,0,2025-11-18,2025-11-18,株式会社ＳｈｏｓｅＩ,,株式会社,福岡県,田川郡川崎町,大字川崎８０６番地２,,40,605,8270003,,,,,,,2025-11-18,1,,,,,ショウセイ,0
2113,8320003004826,新規,0,2025-11-18,2025-11-18,合同会社小川保温,,合同会社,大分県,大分市,羽屋３丁目８番６３号コンフォートパルＤ２０２,,44,201,8700854,,,,,,,2025-11-18,1,,,,,オガワホオン,0
2122,8370001053234,新規,0,2025-11-18,2025-11-18,株式会社Ｔｈａｎｃｉａ,,株式会社,宮城県,仙台市青葉区,錦町１丁目４番５号錦町チサンマンション２０６,,04,101,9800012,,,,,,,2025-11-18,1,,,,,サンシア,0
2127,8380005013027,新規,0,2025-11-18,2025-11-18,ＳＡＧ協同組合,,その他の設立登記法人,福島県,郡山市,駅前２丁目１０－１３サンコービル５０４号室,,07,203,9638002,,,,,,,2025-11-18,1,,,,,エスエージー,0
2137,8430001095674,新規,0,2025-11-18,2025-11-18,株式会社Ａｃｔｎｏｖａ　Ｐｅｒｆｏｒｍａｎｃｅ,,株式会社,北海道,札幌市西区,八軒五条西１０丁目１－２２,,01,107,0630845,,,,,,,2025-11-18,1,,,,,アクトノヴァパフォーマンス,0
2138,8430001095690,新規,0,2025-11-18,2025-11-18,株式会社ＮＢＰ,,株式会社,北海道,札幌市西区,山の手一条５丁目６番７－１号,,01,107,0630001,,,,,,,2025-11-18,1,,,,,エヌビーピー,0
2143,8430003018328,新規,0,2025-11-18,2025-11-18,合同会社Ｒ２３０,,合同会社,北海道,札幌市南区,藤野二条１２丁目１番２号,,01,106,0612282,,,,,,,2025-11-18,1,,,,,アールニサンゼロ,0
2144,8430005015356,新規,0,2025-11-18,2025-11-18,一般社団法人さつきた８・１プラットフォーム,,その他の設立登記法人,北海道,札幌市北区,北八条西１丁目３番地,,01,102,0600808,,,,,,,2025-11-18,1,,,,,サツキタハチイチプラットフォーム,0
2151,8700150132969,新規,0,2025-11-18,2025-11-18,ｄｏｎｇｇｕａｎｓｈｉａｉｌｅｙｉｋｅｊｉｙｏｕｘｉａｎｇｏｎｇｓｉ,,外国会社等,,,,,,,,ｇｕａｎｇｄｏｎｇｓｈｅｎｇｄｏｎｇｇｕａｎｓｈｉｆｅｎｇｇａｎｇｚｈｅｎｊｉｎｆｅｎｇｈｕａｎｇｊｉｎｘｉｎｇｌｕ８ｈａｏ１ｄｏｎｇ２０１ｓｈｉｄｏｎｇｇｕａｎｓｈｉｇｕａｎｇｄｏｎｇｓｈｅｎｇ５２３０００ＣＮ,,,,,,2025-11-18,1,,,,,ドングワンシーアイラーイーコージーヨウシエンゴンスー,0
2161,9010001259915,新規,0,2025-11-18,2025-11-18,東京紙業ホールディングス株式会社,,株式会社,東京都,千代田区,神田錦町３丁目１５番１０号,,13,101,1010054,,,,,,,2025-11-18,1,,,,,トウキョウシギョウホールディングス,0
2162,9010001259989,新規,0,2025-11-18,2025-11-18,株式会社Ｄ＆Ｄキャリアスタッフ,,株式会社,東京都,中央区,日本橋富沢町９番１９号,,13,102,1030006,,,,,,,2025-11-18,1,,,,,ディーアンドディーキャリアスタッフ,0
2163,9010001260088,新規,0,2025-11-18,2025-11-18,株式会社ＳＯＬＵ,,株式会社,東京都,文京区,白山１丁目２５－１４－１００１,,13,105,1130001,,,,,,,2025-11-18,1,,,,,ソル,0
2164,9010001260303,新規,0,2025-11-18,2025-11-18,株式会社Ｅｌｅｎｏｗａ,,株式会社,東京都,中央区,銀座１丁目１２－４Ｎ＆ＥＢＬＤ．７階,,13,102,1040061,,,,,,,2025-11-18,1,,,,,エレノワ,0
2165,9010001260352,新規,0,2025-11-18,2025-11-18,株式会社オプティコネクト,,株式会社,東京都,千代田区,神田鍛冶町３丁目３番地３号高遠ビル４階,,13,101,1010045,,,,,,,2025-11-18,1,,,,,オプティコネクト,0
2166,9010001260443,新規,0,2025-11-18,2025-11-18,株式会社ピース,,株式会社,東京都,千代田区,富士見２丁目７番１－３８０４号,,13,101,1020071,,,,,,,2025-11-18,1,,,,,ピース,0
2168,9010003049380,新規,0,2025-11-18,2025-11-18,Ｐｒｏｔｏ‐Ｆｕｎｄ合同会社,,合同会社,東京都,中央区,日本橋室町１丁目１１番１２号日本橋水野ビル７階,,13,102,1030022,,,,,,,2025-11-18,1,,,,,プロトファンド,0
2169,9010003049430,新規,0,2025-11-18,2025-11-18,ＰＭＤアソシエイツ合同会社,,合同会社,東京都,中央区,銀座１丁目２２番１１号銀座大竹ビジデンス２Ｆ,,13,102,1040061,,,,,,,2025-11-18,1,,,,,ピーエムディーアソシエイツ,0
2170,9010003049447,新規,0,2025-11-18,2025-11-18,合同会社想,,合同会社,東京都,中央区,月島１丁目５番１－４４０４号,,13,102,1040052,,,,,,,2025-11-18,1,,,,,ソウ,0
2171,9010005040957,新規,0,2025-11-18,2025-11-18,一般社団法人ＭｅｄｉｃａＳｈｉｆｔ　Ｌａｂ,,その他の設立登記法人,東京都,中央区,勝どき４丁目６番地２－４００９号,,13,102,1040054,,,,,,,2025-11-18,1,,,,,メディカシフトラボ,0
2175,9010401194282,新規,0,2025-11-18,2025-11-18,株式会社ｇｌａｄ　ｄａｙ,,株式会社,東京都,港区,芝３丁目４３番１８号桜田通りＫビル２Ｆ,,13,103,1050014,,,,,,,2025-11-18,1,,,,,グラッドデイ,0
2176,9010401194530,新規,0,2025-11-18,2025-11-18,株式会社エスキスフィルムズ,,株式会社,東京都,港区,南青山４丁目１７番３３号,,13,103,1070062,,,,,,,2025-11-18,1,,,,,エスキスフィルムズ,0
2177,9010401194547,新規,0,2025-11-18,2025-11-18,株式会社ＳｈｉｎｋａＡＩ,,株式会社,東京都,港区,南青山３丁目１番３６号青山丸竹ビル６Ｆ,,13,103,1070062,,,,,,,2025-11-18,1,,,,,シンカエーアイ,0
2178,9010401194563,新規,0,2025-11-18,2025-11-18,株式会社ＦＥＲｉＣＩＡ．,,株式会社,東京都,港区,北青山２丁目１２番３３号４Ｆ,,13,103,1070061,,,,,,,2025-11-18,1,,,,,フェリシア,0
2179,9010403036607,新規,0,2025-11-18,2025-11-18,サンライズエナジー合同会社,,合同会社,東京都,港区,西新橋２丁目２０番１号４階,,13,103,1050003,,,,,,,2025-11-18,1,,,,,サンライズエナジー,0
2183,9010601068286,新規,0,2025-11-18,2025-11-18,ＴＨＴｅｃｈ株式会社,,株式会社,東京都,江東区,北砂３丁目１５番１７号,,13,108,1360073,,,,,,,2025-11-18,1,,,,,ティーエイチテック,0
2184,9010603011921,新規,0,2025-11-18,2025-11-18,合同会社ＳＡＭＡ　ＩＮＶＥＳＴ,,合同会社,東京都,江東区,有明３丁目７番２６号有明フロンティアビルＢ棟９階,,13,108,1350063,,,,,,,2025-11-18,1,,,,,サマインベスト,0
2190,9010901058417,新規,0,2025-11-18,2025-11-18,株式会社アーキテクトマーケティング,,株式会社,東京都,世田谷区,太子堂１丁目４－２４萩藤ビル４階,,13,112,1540004,,,,,,,2025-11-18,1,,,,,アーキテクトマーケティング,0
2191,9010901058458,新規,0,2025-11-18,2025-11-18,アスカホールディングス株式会社,,株式会社,東京都,世田谷区,成城１丁目２４番１２－３０３号,,13,112,1570066,,,,,,,2025-11-18,1,,,,,アスカホールディングス,0
2192,9010903010409,新規,0,2025-11-18,2025-11-18,ガルダ美健合同会社,,合同会社,東京都,世田谷区,池尻３丁目１１－１０クレスト池尻３０３,,13,112,1540001,,,,,,,2025-11-18,1,,,,,ガルダビケン,0
2198,9011001173544,新規,0,2025-11-18,2025-11-18,株式会社Ｐｉｐｅｒｉｔｅ,,株式会社,東京都,渋谷区,神宮前６丁目２３番４号桑野ビル２階,,13,113,1500001,,,,,,,2025-11-18,1,,,,,ピペリテ,0
2199,9011001173668,新規,0,2025-11-18,2025-11-18,ＣＵＳＴＡ株式会社,,株式会社,東京都,渋谷区,道玄坂１丁目１０番８号渋谷道玄坂東急ビル２Ｆ－Ｃ,,13,113,1500043,,,,,,,2025-11-18,1,,,,,カスタ,0
2202,9011003022922,新規,0,2025-11-18,2025-11-18,合同会社ＨＯＷＳＴＵＤＩＯ,,合同会社,東京都,渋谷区,神山町２７番２－３０１号,,13,113,1500047,,,,,,,2025-11-18,1,,,,,,0
2203,9011003023004,新規,0,2025-11-18,2025-11-18,合同会社Ｍａｒｉｎｅ　Ｓｎｏｗ,,合同会社,東京都,渋谷区,道玄坂１丁目１０番８号渋谷道玄坂東急ビル２Ｆ－Ｃ,,13,113,1500043,,,,,,,2025-11-18,1,,,,,マリンスノー,0
2204,9011003023012,新規,0,2025-11-18,2025-11-18,ｉＤｉＯＳＬＡＢ合同会社,,合同会社,東京都,渋谷区,広尾１丁目２番地１号ヒカリビル４階,,13,113,1500012,,,,,,,2025-11-18,1,,,,,イディオスラボ,0
2205,9011103016725,新規,0,2025-11-18,2025-11-18,合同会社ＫＺＭ,,合同会社,東京都,新宿区,北新宿２丁目３－９,,13,104,1690074,,,,,,,2025-11-18,1,,,,,ケイズィーエム,0
2210,9011601029179,新規,0,2025-11-18,2025-11-18,株式会社オアー,,株式会社,東京都,練馬区,上石神井南町３番８号,,13,120,1770043,,,,,,,2025-11-18,1,,,,,オアー,0
2218,9012401043816,新規,0,2025-11-18,2025-11-18,ＯＮＤＯブリッジ株式会社,,株式会社,東京都,三鷹市,牟礼２丁目１３番９号オークビレッジＡ－２Ｆ,,13,204,1810002,,,,,,,2025-11-18,1,,,,,オンドブリッジ,0
2226,9020001165856,新規,0,2025-11-18,2025-11-18,株式会社シーガル,,株式会社,神奈川県,横浜市港北区,高田東１丁目３９番１号,,14,109,2230065,,,,,,,2025-11-18,1,,,,,シーガル,0
2227,9020001165864,新規,0,2025-11-18,2025-11-18,株式会社トミカステイ,,株式会社,神奈川県,横浜市旭区,中沢１丁目４３番１９号,,14,112,2410814,,,,,,,2025-11-18,1,,,,,トミカステイ,0
2232,9020003029778,新規,0,2025-11-18,2025-11-18,合同会社ＨＲＣ,,合同会社,神奈川県,横浜市鶴見区,馬場４丁目３３番２５号,,14,101,2300076,,,,,,,2025-11-18,1,,,,,エイチアールシー,0
2236,9021003016469,新規,0,2025-11-18,2025-11-18,合同会社Ｋｎａｉ,,合同会社,神奈川県,相模原市南区,上鶴間４丁目２７番３号,,14,153,2520302,,,,,,,2025-11-18,1,,,,,ケナイ,0
2246,9030003027987,新規,0,2025-11-18,2025-11-18,合同会社ジェネシス,,合同会社,埼玉県,白岡市,太田新井１３８５,,11,246,3490225,,,,,,,2025-11-18,1,,,,,ジェネシス,0
2253,9040001141319,新規,0,2025-11-18,2025-11-18,Ｌｅｃｔ株式会社,,株式会社,千葉県,千葉市緑区,土気町１７２９番地１１８折原ビル３階,,12,105,2670061,,,,,,,2025-11-18,1,,,,,レクト,0
2254,9040001141376,新規,0,2025-11-18,2025-11-18,株式会社オートバックス関東販売,,株式会社,千葉県,市川市,鬼高３丁目３２番１２号,,12,203,2720015,,,,,,,2025-11-18,1,,,,,オートバックスカントウハンバイ,0
2255,9040001141392,新規,0,2025-11-18,2025-11-18,株式会社フルスイング,,株式会社,千葉県,東金市,小野７１番地１,,12,213,2830821,,,,,,,2025-11-18,1,,,,,フルスイング,0
2256,9040001141434,新規,0,2025-11-18,2025-11-18,株式会社オンシエル,,株式会社,千葉県,浦安市,北栄４丁目２３番４－２０１号,,12,227,2790002,,,,,,,2025-11-18,1,,,,,オンシエル,0
2257,9040001141450,新規,0,2025-11-18,2025-11-18,株式会社貴和商事,,株式会社,千葉県,千葉市美浜区,若葉３丁目１番地１１幕張ベイパークミッドスクエアタワー１７０６号,,12,106,2610014,,,,,,,2025-11-18,1,,,,,キワショウジ,0
2260,9040003028943,新規,0,2025-11-18,2025-11-18,合同会社ジャパン・エステート,,合同会社,千葉県,柏市,しいの木台３丁目５番地２７,,12,217,2770945,,,,,,,2025-11-18,1,,,,,ジャパンエステート,0
2261,9040003028968,新規,0,2025-11-18,2025-11-18,ワイケイ合同会社,,合同会社,千葉県,船橋市,海神町３丁目１１９番地１６デュオヒルズ船橋６１３号,,12,204,2730022,,,,,,,2025-11-18,1,,,,,ワイケイ,0
2262,9050003009752,新規,0,2025-11-18,2025-11-18,合同会社カノープス,,合同会社,茨城県,水戸市,酒門町１７６番地１グリーンヒル酒門,,08,201,3100841,,,,,,,2025-11-18,1,,,,,カノープス,0
2267,9080101025896,新規,0,2025-11-18,2025-11-18,株式会社Ｓｔａｙ　ｉｓ,,株式会社,静岡県,伊豆市,柏久保６２６－７,,22,222,4102407,,,,,,,2025-11-18,1,,,,,ステイイズ,0
2282,9120001282096,新規,0,2025-11-18,2025-11-18,日起商事株式会社,,株式会社,大阪府,大阪市天王寺区,大道３丁目５番２号５０２号室,,27,109,5430052,,,,,,,2025-11-18,1,,,,,ニッキショウジ,0
2284,9120901051781,新規,0,2025-11-18,2025-11-18,株式会社米光,,株式会社,大阪府,茨木市,宿久庄１丁目３番１３号,,27,211,5670051,,,,,,,2025-11-18,1,,,,,ヨネミツ,0
2286,9122001039906,新規,0,2025-11-18,2025-11-18,株式会社Ｓｔａｒ　Ｂｅｅ,,株式会社,大阪府,八尾市,刑部２丁目２８番地,,27,212,5810015,,,,,,,2025-11-18,1,,,,,スタービー,0
2287,9122001039922,新規,0,2025-11-18,2025-11-18,株式会社ＦＦＤ木工所,,株式会社,大阪府,八尾市,太田新町４丁目１１番地,,27,212,5810039,,,,,,,2025-11-18,1,,,,,エフエフディモッコウショ,0
2288,9130001081043,新規,0,2025-11-18,2025-11-18,Ｐｌｕｍｅｒｉａ　Ｆｌｏｗｅｒ　Ｌｉｆｅ株式会社,,株式会社,京都府,京丹後市,弥栄町溝谷１１２２,,26,212,6270111,,,,,,,2025-11-18,1,,,,,プルメリアフラワーライフ,0
2291,9130003010933,新規,0,2025-11-18,2025-11-18,エンコレクティブ合同会社,,合同会社,京都府,京都市北区,西賀茂大道口町１６番地２,,26,101,6038813,,,,,,,2025-11-18,1,,,,,エンコレクティブ,0
2292,9130003010941,新規,0,2025-11-18,2025-11-18,合同会社フレンドファクトリー,,合同会社,京都府,京都市北区,紫竹西北町７－１メゾン五友１号室,,26,101,6038426,,,,,,,2025-11-18,1,,,,,フレンドファクトリー,0
2295,9140001140830,新規,0,2025-11-18,2025-11-18,アイ・アンド・コネクト株式会社,,株式会社,兵庫県,神戸市西区,二ツ屋２丁目６番１０号,,28,111,6512142,,,,,,,2025-11-18,1,,,,,アイアンドコネクト,0
2299,9140003022845,新規,0,2025-11-18,2025-11-18,合同会社Ｐｏｃｃｏ,,合同会社,兵庫県,西宮市,西宮浜４丁目１０番３－９０１号,,28,204,6620934,,,,,,,2025-11-18,1,,,,,ポッコ,0
2300,9140003022853,新規,0,2025-11-18,2025-11-18,合同会社クアドライズ,,合同会社,兵庫県,神戸市中央区,磯辺通２丁目２－１０ｏｎｅｋｎｏｔｔｒａｄｅｓ神戸ビル１００６号室,,28,110,6510084,,,,,,,2025-11-18,1,,,,,クアドライズ,0
2301,9140005027702,新規,0,2025-11-18,2025-11-18,一般社団法人北近畿インパクト,,その他の設立登記法人,兵庫県,丹波篠山市,河原町２２９番地３,,28,221,6692325,,,,,,,2025-11-18,1,,,,,キタキンキインパクト,0
2302,9150001028538,新規,0,2025-11-18,2025-11-18,株式会社ＮＡＮＡ,,株式会社,奈良県,奈良市,北室町７番地の１,,29,201,6308364,,,,,,,2025-11-18,1,,,,,ナナ,0
2305,9180001169528,新規,0,2025-11-18,2025-11-18,株式会社あなたの看護師,,株式会社,愛知県,一宮市,北方町曽根字村裏西１０番地３,,23,203,4938002,,,,,,,2025-11-18,1,,,,,アナタノカンゴシ,0
2306,9180001169569,新規,0,2025-11-18,2025-11-18,株式会社イステイトプラス,,株式会社,愛知県,名古屋市中村区,椿町１７－１５,,23,105,4530015,,,,,,,2025-11-18,1,,,,,イステイトプラス,0
2307,9180003029374,新規,0,2025-11-18,2025-11-18,合同会社ＳＵＮＷＡＶＥ　Ｌａｂ,,合同会社,愛知県,名古屋市中村区,名駅３丁目４‐１０アルティメイト名駅１ｓｔ２階,,23,105,4500002,,,,,,,2025-11-18,1,,,,,サンウェーブラボ,0
2310,9190001032701,新規,0,2025-11-18,2025-11-18,株式会社ｋｙｕｃｈｏ　ｈｏｔｅｌ,,株式会社,三重県,名張市,元町４３３‐８,,24,208,5180725,,,,,,,2025-11-18,1,,,,,キュウチョウホテル,0
2314,9200001044406,新規,0,2025-11-18,2025-11-18,株式会社グランドュール,,株式会社,岐阜県,大垣市,波須３丁目８７番地１,,21,202,5030811,,,,,,,2025-11-18,1,,,,,グランドュール,0
2315,9200001044447,新規,0,2025-11-18,2025-11-18,ＳｕｎＧｏ株式会社,,株式会社,岐阜県,多治見市,廿原町４７９番地の１,,21,204,5070046,,,,,,,2025-11-18,1,,,,,サンゴウ,0
2317,9200003007138,新規,0,2025-11-18,2025-11-18,はや志電気工事合同会社,,合同会社,岐阜県,加茂郡白川町,赤河１８６６番地３,,21,506,5091112,,,,,,,2025-11-18,1,,,,,ハヤシデンキコウジ,0
2321,9210003001973,新規,0,2025-11-18,2025-11-18,合同会社ＯＲＣＡ,,合同会社,福井県,越前市,文京２丁目１０番２２号,,18,209,9150841,,,,,,,2025-11-18,1,,,,,オルカ,0
2327,9240003007480,新規,0,2025-11-18,2025-11-18,合同会社ＴＥＮＭＡＩＲＥ,,合同会社,広島県,広島市中区,大手町１丁目１番２０号７階,,34,101,7300051,,,,,,,2025-11-18,1,,,,,テンメア,0
2329,9260001040746,新規,0,2025-11-18,2025-11-18,株式会社タイドバック,,株式会社,岡山県,岡山市南区,福富中２丁目１５－８,,33,104,7028032,,,,,,,2025-11-18,1,,,,,タイドバック,0
2336,9290001112146,新規,0,2025-11-18,2025-11-18,株式会社ライズ,,株式会社,福岡県,久留米市,北野町中３２３９番地１,,40,203,8301113,,,,,,,2025-11-18,1,,,,,ライズ,0
2342,9290003017707,新規,0,2025-11-18,2025-11-18,合同会社シンドウ・クリエイト,,合同会社,福岡県,飯塚市,太郎丸７５３,,40,205,8200076,,,,,,,2025-11-18,1,,,,,シンドウクリエイト,0
2343,9290003017715,新規,0,2025-11-18,2025-11-18,合同会社Ｋ．Ｍ．Ｓ,,合同会社,福岡県,福岡市中央区,天神２丁目３番１０号天神パインクレスト７１９号,,40,133,8100001,,,,,,,2025-11-18,1,,,,,ケーエムエス,0
2346,9320001021442,新規,0,2025-11-18,2025-11-18,株式会社ハッピーねこちゃんわんちゃん,,株式会社,大分県,大分市,中央町１丁目４番２４号大分セントラルビル２Ｆ,,44,201,8700035,,,,,,,2025-11-18,1,,,,,ハッピーネコチャンワンチャン,0
2357,9360001036040,新規,0,2025-11-18,2025-11-18,株式会社沖島積算設計,,株式会社,沖縄県,糸満市,字武富２３７番地Ｃ,,47,210,9010311,,,,,,,2025-11-18,1,,,,,オキシマセキサンセッケイ,0
2358,9360001036049,新規,0,2025-11-18,2025-11-18,株式会社エムザト,,株式会社,沖縄県,那覇市,牧志２丁目１７番２７号４０１号室,,47,201,9000013,,,,,,,2025-11-18,1,,,,,エムザト,0
2365,9380001035701,新規,0,2025-11-18,2025-11-18,ＪＰ企画株式会社,,株式会社,福島県,郡山市,大槻町字原田北３４番地の２４,,07,203,9630201,,,,,,,2025-11-18,1,,,,,ジャックポイントキカク,0
2379,9430001095665,新規,0,2025-11-18,2025-11-18,株式会社Ｋａｇａｙａｋｉ,,株式会社,北海道,幌泉郡えりも町,字えりも岬４１番地,,01,609,0580342,,,,,,,2025-11-18,1,,,,,カガヤキ,0
2387,9470001020982,新規,0,2025-11-18,2025-11-18,株式会社エムアイクレーン,,株式会社,香川県,坂出市,富士見町２丁目４番９－２号,,37,203,7620046,,,,,,,2025-11-18,1,,,,,エムアイクレーン,0
2390,9700150132968,新規,0,2025-11-18,2025-11-18,Ｃｈａｎｇｓｈａ　Ｈａｉｌｉａｎｙｏｕｐｉｎ　Ｅ－ｃｏｍｍｅｒｃｅ　Ｃｏ．，Ｌｔｄ．,,外国会社等,,,,,,,,Ｒｏｏｍ　２３１６，Ｃｏｍｍｅｒｃｉａｌ　Ｂｕｉｌｄｉｎｇ　１　ａｎｄ　Ｏｆｆｉｃｅ　Ｂｕｉｌｄｉｎｇ，Ａｏｈａｉｌａｎｔｉｎｇ，Ｙｕｅｌｉａｎｇｄａｏ　Ｓｔｒｅｅｔ，Ｗａｎｇｃｈｅｎｇ　Ｄｉｓｔｒｉｃｔ，Ｃｈａｎｇｓｈａ，Ｈｕｎａｎ，４１００００,,,,,,2025-11-18,1,,,,,ジャンシャーシーハイリエンヨウピンディエンズーシャンウーヨウシエンゴンスー,0
