sequenceNumber,corporateNumber,process,correct,updateDate,changeDate,name,nameImageId,kind,prefectureName,cityName,streetNumber,addressImageId,prefectureCode,cityCode,postCode,addressOutside,addressOutsideImageId,closeDate,closeCause,successorCorporateNumber,changeCause,assignmentDate,latest,enName,enPrefectureName,enCityName,enAddressOutside,furigana,hihyoji
6,1010001225734,新規,0,2022-04-13,2022-04-13,株式会社Ｂａｒｂｏｕｒ　ｐａｒｔｎｅｒｓ　Ｊａｐａｎ,,株式会社,東京都,千代田区,紀尾井町３番１２号紀尾井町ビル１２階,,13,101,1020094,,,,,,,2022-04-13,1,,,,,バブアーパートナーズジャパン,0
7,1010003037418,新規,0,2022-04-13,2022-04-13,合同会社河津七滝ＰＪ,,合同会社,東京都,文京区,目白台２丁目２番２５号,,13,105,1120015,,,,,,,2022-04-13,1,,,,,カワヅナナダルプロジェクト,0
19,1010401166751,新規,0,2022-04-13,2022-04-13,株式会社ティーダブリューフォー,,株式会社,東京都,港区,南青山３丁目８－４０,,13,103,1070062,,,,,,,2022-04-13,1,,,,,ティーダブリューフォー,0
20,1010401166768,新規,0,2022-04-13,2022-04-13,ＬＡＵＮＣＨＰＡＤ　ＦＵＮＤ２株式会社,,株式会社,東京都,港区,芝公園１丁目１番１号,,13,103,1050011,,,,,,,2022-04-13,1,,,,,ラウンチパッドファンドツー,0
23,1010403027472,新規,0,2022-04-13,2022-04-13,Ｄａｔａｐａｔｈ　Ｊａｐａｎ合同会社,,合同会社,東京都,港区,新橋２丁目１１番１０号ＨＵＬＩＣ＆ＮｅｗＳＨＩＮＢＡＳＨＩ７０８,,13,103,1050004,,,,,,,2022-04-13,1,,,,,データパスジャパン,0
24,1010403027480,新規,0,2022-04-13,2022-04-13,クリーンエナジー２合同会社,,合同会社,東京都,港区,元赤坂１丁目１番７号,,13,103,1070051,,,,,,,2022-04-13,1,,,,,クリーンエナジーツー,0
47,1011001146929,新規,0,2022-04-13,2022-04-13,株式会社ダブリューチキン,,株式会社,東京都,渋谷区,恵比寿南３丁目１番１号いちご恵比寿グリーングラス,,13,113,1500022,,,,,,,2022-04-13,1,,,,,ダブリューチキン,0
48,1011003014514,新規,0,2022-04-13,2022-04-13,合同会社クエストエイド,,合同会社,東京都,渋谷区,渋谷２丁目１９－１５宮益坂ビルディング６０９,,13,113,1500002,,,,,,,2022-04-13,1,,,,,クエストエイド,0
49,1011003014539,新規,0,2022-04-13,2022-04-13,合同会社フォレスト,,合同会社,東京都,渋谷区,恵比寿４丁目９番１１号たかむらビル２０１,,13,113,1500013,,,,,,,2022-04-13,1,,,,,フォレスト,0
50,1011005009545,新規,0,2022-04-13,2022-04-13,一般社団法人夫婦問題診断士協会,,その他の設立登記法人,東京都,渋谷区,代々木２丁目２１番８－１１０４号,,13,113,1510053,,,,,,,2022-04-13,1,,,,,フウフモンダイシンダンシキョウカイ,0
55,1011101098418,新規,0,2022-04-13,2022-04-13,株式会社ケアリッツ・テクノロジーズ,,株式会社,東京都,新宿区,新宿４丁目１番６号,,13,104,1600022,,,,,,,2022-04-13,1,,,,,ケアリッツテクノロジーズ,0
56,1011101098509,新規,0,2022-04-13,2022-04-13,株式会社ロードウェイジャパン,,株式会社,東京都,新宿区,大久保１丁目１５－１５秋山ビル３０７,,13,104,1690072,,,,,,,2022-04-13,1,,,,,ロードウェイジャパン,0
57,1011101098525,新規,0,2022-04-13,2022-04-13,嶺耀堂株式会社,,株式会社,東京都,新宿区,愛住町１９番地１６富士ビル２階,,13,104,1600005,,,,,,,2022-04-13,1,,,,,レイヨウドウ,0
60,1011201023762,新規,0,2022-04-13,2022-04-13,株式会社スマイリングス,,株式会社,東京都,中野区,南台３丁目３５番４号,,13,114,1640014,,,,,,,2022-04-13,1,,,,,スマイリングス,0
61,1011203003795,新規,0,2022-04-13,2022-04-13,トライファースト合同会社,,合同会社,東京都,中野区,白鷺１丁目３１番５号,,13,114,1650035,,,,,,,2022-04-13,1,,,,,トライファースト,0
62,1011301027713,新規,0,2022-04-13,2022-04-13,株式会社ＫＨＣ,,株式会社,東京都,杉並区,永福４丁目２５番１２号,,13,115,1680064,,,,,,,2022-04-13,1,,,,,ケーエイチシー,0
68,1011601025887,新規,0,2022-04-13,2022-04-13,株式会社ＫＣ　ＢＲＯＳ,,株式会社,東京都,練馬区,栄町２０－８二階,,13,120,1760006,,,,,,,2022-04-13,1,,,,,ケーシーブロス,0
71,1011801040579,新規,0,2022-04-13,2022-04-13,株式会社ラシード,,株式会社,東京都,葛飾区,西水元６丁目１４番９号,,13,122,1250031,,,,,,,2022-04-13,1,,,,,ラシード,0
74,1011803005043,新規,0,2022-04-13,2022-04-13,合同会社寿,,合同会社,東京都,足立区,千住寿町２７番６号,,13,121,1200033,,,,,,,2022-04-13,1,,,,,コトブキ,0
76,1012401039078,新規,0,2022-04-13,2022-04-13,株式会社ＡＳＶＩＯ,,株式会社,東京都,府中市,美好町２丁目７番地の１３石坂ビル１１０,,13,206,1830045,,,,,,,2022-04-13,1,,,,,アスビオ,0
79,1012801021511,新規,0,2022-04-13,2022-04-13,バンブー株式会社,,株式会社,東京都,日野市,百草１２７４番地,,13,212,1910033,,,,,,,2022-04-13,1,,,,,バンブー,0
87,1013301048929,新規,0,2022-04-13,2022-04-13,株式会社ｉｍｐｒｅｓｓ,,株式会社,東京都,豊島区,西池袋１丁目５番４号池袋センチュリービル８０１,,13,116,1710021,,,,,,,2022-04-13,1,,,,,インプレス,0
96,1020001146062,新規,0,2022-04-13,2022-04-13,株式会社ＯＰＥＮＥＲＳ,,株式会社,神奈川県,横浜市旭区,中希望が丘１０６番地１７,,14,112,2410825,,,,,,,2022-04-13,1,,,,,オープナーズ,0
97,1020001146070,新規,0,2022-04-13,2022-04-13,株式会社ＬＯＶＥ　ａｆｆａｉｒ,,株式会社,神奈川県,川崎市多摩区,東生田１丁目２６－３ハニーコート向ヶ丘２１４,,14,135,2140031,,,,,,,2022-04-13,1,,,,,ラブアフェア,0
98,1020001146095,新規,0,2022-04-13,2022-04-13,ＧＩＯＵ株式会社,,株式会社,神奈川県,横浜市磯子区,西町６－２４－１,,14,107,2350007,,,,,,,2022-04-13,1,,,,,ギオウ,0
99,1020001146104,新規,0,2022-04-13,2022-04-13,株式会社ＵＮＢＵＮＤＬＥ,,株式会社,神奈川県,横浜市青葉区,元石川町６３３９番地渡辺方,,14,117,2250004,,,,,,,2022-04-13,1,,,,,アンバンドル,0
103,1020003021577,新規,0,2022-04-13,2022-04-13,合同会社大金,,合同会社,神奈川県,川崎市川崎区,藤崎２丁目１８番１０－２号,,14,131,2100804,,,,,,,2022-04-13,1,,,,,ダイキン,0
104,1020003021585,新規,0,2022-04-13,2022-04-13,合同会社Ｗｈａｔ’ｓ,,合同会社,神奈川県,川崎市川崎区,堀之内町１０－２ライジングプレイス川崎５０１,,14,131,2100003,,,,,,,2022-04-13,1,,,,,ワッツ,0
105,1020003021602,新規,0,2022-04-13,2022-04-13,宝元紀合同会社,,合同会社,神奈川県,横浜市港北区,箕輪町１丁目８番２２号,,14,109,2230051,,,,,,,2022-04-13,1,,,,,ポウユエンジ,0
106,1020005015486,新規,0,2022-04-13,2022-04-13,医療法人社団慶光会,,その他の設立登記法人,神奈川県,川崎市川崎区,池田１丁目６番３号八丁畷クリニックファーム３階,,14,131,2100022,,,,,,,2022-04-13,1,,,,,ケイコウカイ,0
115,1021003011601,新規,0,2022-04-13,2022-04-13,合同会社ＢＲＯＴＨＥＲＳ　ＧＲＯＵＰ,,合同会社,神奈川県,厚木市,妻田北１丁目５番１２号野口ビル１Ｆ,,14,212,2430812,,,,,,,2022-04-13,1,,,,,,0
126,1030001147737,新規,0,2022-04-13,2022-04-13,株式会社エスアンドエイチ,,株式会社,埼玉県,さいたま市大宮区,桜木町４丁目５８７番地,,11,103,3300854,,,,,,,2022-04-13,1,,,,,エスアンドエイチ,0
136,1040001123002,新規,0,2022-04-13,2022-04-13,株式会社芋國屋,,株式会社,千葉県,流山市,駒木６３３番地の４,,12,220,2700132,,,,,,,2022-04-13,1,,,,,イモクニヤ,0
144,1050005013041,新規,0,2022-04-13,2022-04-13,一般社団法人いばらき移動診療支援機構,,その他の設立登記法人,茨城県,つくば市,小野崎８４２番地５,,08,220,3050034,,,,,,,2022-04-13,1,,,,,イバラキイドウシンリョウシエンキコウ,0
147,1060001034726,新規,0,2022-04-13,2022-04-13,株式会社オートサービス荒川,,株式会社,栃木県,下野市,下古山３１６２番地２６,,09,216,3290502,,,,,,,2022-04-13,1,,,,,オートサービスアラカワ,0
148,1060001034750,新規,0,2022-04-13,2022-04-13,株式会社Ｃａｌｃｉｔｅ,,株式会社,栃木県,宇都宮市,東宿郷４丁目２番７号フリーデンハイム宇都宮２０１,,09,201,3210953,,,,,,,2022-04-13,1,,,,,カルサイト,0
155,1080001024881,新規,0,2022-04-13,2022-04-13,株式会社Ｅｌｅｎｄｉｓｈ,,株式会社,静岡県,静岡市葵区,紺屋町１７－１葵タワー１Ｆ,,22,101,4200852,,,,,,,2022-04-13,1,,,,,エレンディッシュ,0
167,1090005007477,新規,0,2022-04-13,2022-04-13,一般社団法人宝石のまち甲府会議,,その他の設立登記法人,山梨県,甲府市,宝１丁目１１番２０号,,19,201,4000034,,,,,,,2022-04-13,1,,,,,ホウセキノマチコウフカイギ,0
177,1110005016789,新規,0,2022-04-13,2022-04-13,星の清里協同組合,,その他の設立登記法人,新潟県,上越市,清里区棚田２３９番地１,,15,222,9430523,,,,,,,2022-04-13,1,,,,,ホシノキヨサト,0
192,1120003021468,新規,0,2022-04-13,2022-04-13,合同会社ｆｒｅｅｌａｎｃｅ　ｆａｃｔｏｒｙ,,合同会社,大阪府,大阪市西区,新町２丁目５－１プレミストタワー３２０８,,27,106,5500013,,,,,,,2022-04-13,1,,,,,フリーランスファクトリー,0
193,1120003021484,新規,0,2022-04-13,2022-04-13,合同会社わかつきひかる事務所,,合同会社,大阪府,大阪市此花区,朝日２丁目１８番８号３Ｆ－６３２,,27,104,5540011,,,,,,,2022-04-13,1,,,,,ワカツキヒカルジムショ,0
194,1120003021492,新規,0,2022-04-13,2022-04-13,Ｒｏｔｅ合同会社,,合同会社,大阪府,大阪市西区,西本町２丁目１－３９カナード西本町１０２,,27,106,5500005,,,,,,,2022-04-13,1,,,,,ローテ,0
198,1120101065375,新規,0,2022-04-13,2022-04-13,株式会社ＯＮ．,,株式会社,大阪府,藤井寺市,御舟町１２番１７号野元ビル２Ｆ,,27,226,5830021,,,,,,,2022-04-13,1,,,,,オン,0
199,1120101065383,新規,0,2022-04-13,2022-04-13,株式会社ドクターホーム,,株式会社,大阪府,羽曳野市,島泉５丁目１１番１２号,,27,222,5830881,,,,,,,2022-04-13,1,,,,,ドクターホーム,0
201,1120105009543,新規,0,2022-04-13,2022-04-13,特定非営利活動法人日本養液栽培研究会,,その他の設立登記法人,大阪府,堺市北区,長曽根町１３０－４２さかい新事業創造センター１００号有限会社ダブル・ワークス内,,27,146,5918025,,,,,,,2022-04-13,1,,,,,ニホンヨウエキサイバイケンキュウカイ,0
202,1122001035755,新規,0,2022-04-13,2022-04-13,株式会社ファンキー,,株式会社,大阪府,八尾市,八尾木５丁目１２４番地,,27,212,5810027,,,,,,,2022-04-13,1,,,,,ファンキー,0
203,1122001035763,新規,0,2022-04-13,2022-04-13,株式会社琥珀,,株式会社,大阪府,大東市,大野１丁目２番３号,,27,218,5740042,,,,,,,2022-04-13,1,,,,,コハク,0
204,1122001035771,新規,0,2022-04-13,2022-04-13,株式会社ハコボー,,株式会社,大阪府,四條畷市,砂１丁目３番２７号,,27,229,5750001,,,,,,,2022-04-13,1,,,,,ハコボー,0
205,1122003002316,新規,0,2022-04-13,2022-04-13,ＮｉｔＺｅ　ＣＲＥＡＴＥ合同会社,,合同会社,大阪府,東大阪市,長堂１丁目８－３７ヴェルノール布施３階ＲｅｑｒｅｅＶｅｖｌｅｎｏｒｄ,,27,227,5770056,,,,,,,2022-04-13,1,,,,,ニッツェクリエイト,0
208,1130001071480,新規,0,2022-04-13,2022-04-13,株式会社テイクケアタクシー,,株式会社,京都府,京都市伏見区,石田内里町８０－２,,26,109,6011432,,,,,,,2022-04-13,1,,,,,テイクケアタクシー,0
209,1130001071530,新規,0,2022-04-13,2022-04-13,株式会社ＴＲＯ,,株式会社,京都府,京都市山科区,北花山中道町８３番地東花マンション２階２６号室,,26,110,6078481,,,,,,,2022-04-13,1,,,,,ティーアールオー,0
210,1130001071539,新規,0,2022-04-13,2022-04-13,株式会社Ｎ．ｆｅｌｌｏｗ,,株式会社,京都府,京都市山科区,小山御坊ノ内町５３－１,,26,110,6078106,,,,,,,2022-04-13,1,,,,,エヌフェロー,0
212,1130003007862,新規,0,2022-04-13,2022-04-13,Ａｌｍａｐｒｉｓｍ合同会社,,合同会社,京都府,京都市下京区,朱雀宝蔵町４４番地協栄ビル２階京都朱雀スタジオ,,26,106,6008846,,,,,,,2022-04-13,1,,,,,アルマプリズム,0
213,1130003007870,新規,0,2022-04-13,2022-04-13,合同会社ＴＬＣ,,合同会社,京都府,京都市山科区,勧修寺福岡町２６７番地２,,26,110,6078232,,,,,,,2022-04-13,1,,,,,ティーエルシー,0
220,1140001125616,新規,0,2022-04-13,2022-04-13,株式会社クリエイトデザイン,,株式会社,兵庫県,神戸市西区,南別府１丁目１８番地の１６－３０６号,,28,111,6512116,,,,,,,2022-04-13,1,,,,,クリエイトデザイン,0
221,1140001125640,新規,0,2022-04-13,2022-04-13,株式会社ＪＭＫ,,株式会社,兵庫県,芦屋市,呉川町５番１４－４０２号,,28,206,6590051,,,,,,,2022-04-13,1,,,,,ジェイエムケー,0
227,1140003017506,新規,0,2022-04-13,2022-04-13,合同会社キボウノタネ,,合同会社,兵庫県,西宮市,上大市４丁目１３番１４－１０１号,,28,204,6638003,,,,,,,2022-04-13,1,,,,,キボウノタネ,0
233,1160003002547,新規,0,2022-04-13,2022-04-13,合同会社ハチワレファーマシー,,合同会社,滋賀県,甲賀市,土山町鮎河１２１８番地,,25,209,5280202,,,,,,,2022-04-13,1,,,,,ハチワレファーマシー,0
238,1180001150783,新規,0,2022-04-13,2022-04-13,株式会社ＳＨＩＮ,,株式会社,愛知県,名古屋市東区,泉１丁目１９番１１号,,23,102,4610001,,,,,,,2022-04-13,1,,,,,シン,0
239,1180001150874,新規,0,2022-04-13,2022-04-13,エフジーケー機設株式会社,,株式会社,愛知県,東海市,高横須賀町５丁目１１４番地ノーム１９９９－４０５号室,,23,222,4770037,,,,,,,2022-04-13,1,,,,,エフジーケーキセツ,0
240,1180001150882,新規,0,2022-04-13,2022-04-13,株式会社クレバー,,株式会社,愛知県,津島市,神守町字中切８９番地,,23,208,4960005,,,,,,,2022-04-13,1,,,,,クレバー,0
242,1180003023681,新規,0,2022-04-13,2022-04-13,合同会社Ｌｉｎｋ,,合同会社,愛知県,名古屋市中川区,北江町３丁目４番地ラ・ペジーブル２０３号,,23,110,4540851,,,,,,,2022-04-13,1,,,,,リンク,0
258,1240001059614,新規,0,2022-04-13,2022-04-13,トラスト警備保障株式会社,,株式会社,広島県,広島市西区,竜王町３－８,,34,104,7330803,,,,,,,2022-04-13,1,,,,,トラストケイビホショウ,0
262,1250001019501,新規,0,2022-04-13,2022-04-13,厚見工業株式会社,,株式会社,山口県,山口市,阿知須４９９番地１,,35,203,7541277,,,,,,,2022-04-13,1,,,,,アツミコウギョウ,0
270,1260005011065,新規,0,2022-04-13,2022-04-13,医療法人社団昌慶会,,その他の設立登記法人,岡山県,津山市,日本原１８８番１,,33,203,7081204,,,,,,,2022-04-13,1,,,,,ショウケイカイ,0
282,1290001097139,新規,0,2022-04-13,2022-04-13,ＢＭＬ株式会社,,株式会社,福岡県,糟屋郡新宮町,夜臼３丁目３番１３号,,40,345,8110110,,,,,,,2022-04-13,1,,,,,ビーエムエル,0
288,1290801028383,新規,0,2022-04-13,2022-04-13,株式会社フジモト工務店,,株式会社,福岡県,北九州市八幡西区,下上津役４丁目１４番１３号,,40,109,8070075,,,,,,,2022-04-13,1,,,,,フジモトコウムテン,0
300,1330005010497,新規,0,2022-04-13,2022-04-13,一般社団法人熊本県空手道連盟,,その他の設立登記法人,熊本県,熊本市中央区,水前寺５丁目２３番２号,,43,101,8620950,,,,,,,2022-04-13,1,,,,,クマモトケンカラテドウレンメイ,0
310,1360005006625,新規,0,2022-04-13,2022-04-13,一般社団法人ｓｕｎぐわぁー,,その他の設立登記法人,沖縄県,南城市,大里字高平５９３番地３,,47,215,9011205,,,,,,,2022-04-13,1,,,,,サングワァー,0
312,1370001048447,新規,0,2022-04-13,2022-04-13,株式会社アクテム,,株式会社,宮城県,仙台市若林区,五十人町６４番地の３,,04,103,9840812,,,,,,,2022-04-13,1,,,,,アクテム,0
315,1380001032747,新規,0,2022-04-13,2022-04-13,株式会社Ｄ．Ｓ,,株式会社,福島県,会津若松市,石堂町１０番２７号,,07,202,9650055,,,,,,,2022-04-13,1,,,,,,0
322,1410001013157,新規,0,2022-04-13,2022-04-13,けやき不動産株式会社,,株式会社,秋田県,秋田市,山王２丁目１０番２３号,,05,201,0100951,,,,,,,2022-04-13,1,,,,,ケヤキフドウサン,0
333,1430001086382,新規,0,2022-04-13,2022-04-13,越後内装株式会社,,株式会社,北海道,千歳市,長都駅前４丁目１３番１２号,,01,224,0660031,,,,,,,2022-04-13,1,,,,,エチゴナイソウ,0
334,1430001086408,新規,0,2022-04-13,2022-04-13,株式会社ブラッシュ・アップ,,株式会社,北海道,札幌市西区,琴似四条６丁目５番１０－７０２号,,01,107,0630814,,,,,,,2022-04-13,1,,,,,ブラッシュアップ,0
338,1430003013789,新規,0,2022-04-13,2022-04-13,Ｒｅｇａｌｉ　Ｄｅｌｌａ　Ｔｅｒｒａ合同会社,,合同会社,北海道,虻田郡倶知安町,北六条西３丁目４番地３０,,01,400,0440056,,,,,,,2022-04-13,1,,,,,レガーリデッラテッラ,0
341,1430005014447,新規,0,2022-04-13,2022-04-13,浜益特定地域づくり事業協同組合,,その他の設立登記法人,北海道,石狩市,浜益区浜益２番地３,,01,235,0613101,,,,,,,2022-04-13,1,,,,,ハママストクテイチイキヅクリ,0
343,1440001009061,新規,0,2022-04-13,2022-04-13,株式会社小池,,株式会社,北海道,北斗市,東前７３番地の２３,,01,236,0411214,,,,,,,2022-04-13,1,,,,,コイケ,0
344,1450001013673,新規,0,2022-04-13,2022-04-13,株式会社道建機械工業,,株式会社,北海道,旭川市,永山北四条６丁目５番３３号,,01,204,0798454,,,,,,,2022-04-13,1,,,,,ドウケンキカイコウギョウ,0
347,1460301005056,新規,0,2022-04-13,2022-04-13,株式会社大友工業,,株式会社,北海道,北見市,青葉町７－２４コーポ青葉１０７,,01,208,0900018,,,,,,,2022-04-13,1,,,,,オオトモコウギョウ,0
354,1500005008482,新規,0,2022-04-13,2022-04-13,一般社団法人愛媛・食と農でつなぐ会,,その他の設立登記法人,愛媛県,松山市,南久米町５２２番地４,,38,201,7900924,,,,,,,2022-04-13,1,,,,,エヒメショクトノウデツナグカイ,0
368,2010601060976,新規,0,2022-04-13,2022-04-13,株式会社ツヨタ,,株式会社,東京都,墨田区,押上２丁目９番２－４０４号,,13,107,1310045,,,,,,,2022-04-13,1,,,,,ツヨタ,0
375,2010901050685,新規,0,2022-04-13,2022-04-13,株式会社ｍｏｖｅ　ｍｅ,,株式会社,東京都,世田谷区,上馬２丁目２５番４号ＦＬＥＸ三軒茶屋６Ｆ,,13,112,1540011,,,,,,,2022-04-13,1,,,,,ムーブミー,0
376,2010901050693,新規,0,2022-04-13,2022-04-13,株式会社ＣＯＣＯＥＡＲＴＨ,,株式会社,東京都,世田谷区,池尻２丁目８番７号,,13,112,1540001,,,,,,,2022-04-13,1,,,,,ココアース,0
386,2011001146878,新規,0,2022-04-13,2022-04-13,フェルメール株式会社,,株式会社,東京都,渋谷区,渋谷２丁目１９－１５宮益坂ビルディング６０９,,13,113,1500002,,,,,,,2022-04-13,1,,,,,フェルメール,0
387,2011001146936,新規,0,2022-04-13,2022-04-13,株式会社ＡＲＴＥＭＩＳ,,株式会社,東京都,渋谷区,桜丘町１７番１２号渋谷ジョンソンビル４０１,,13,113,1500031,,,,,,,2022-04-13,1,,,,,アルテミス,0
388,2011001146944,新規,0,2022-04-13,2022-04-13,株式会社Ａｔｅｌｉｅｒ　Ｔ,,株式会社,東京都,目黒区,祐天寺２丁目６番１１号,,13,110,1530052,,,,,,,2022-04-13,1,,,,,アトリエティー,0
391,2011005009544,新規,0,2022-04-13,2022-04-13,一般社団法人東大駒場ＱＯＭクラブ,,その他の設立登記法人,東京都,目黒区,洗足１丁目２６番１号リフトローサ洗足２０２,,13,110,1520012,,,,,,,2022-04-13,1,,,,,トウダイコマバキューオーエムクラブ,0
397,2011101098466,新規,0,2022-04-13,2022-04-13,株式会社Ｈｉｒｏ　Ｎｅｔｗｏｒｋｓ,,株式会社,東京都,新宿区,新宿５丁目１８番２０号ルックハイツ新宿８０３号,,13,104,1600022,,,,,,,2022-04-13,1,,,,,ヒロネットワークス,0
398,2011101098508,新規,0,2022-04-13,2022-04-13,株式会社馬駆,,株式会社,東京都,新宿区,高田馬場２丁目１９番８号,,13,104,1690075,,,,,,,2022-04-13,1,,,,,マガケ,0
400,2011105010220,新規,0,2022-04-13,2022-04-13,一般社団法人首都圏ＡＲコンソーシアム,,その他の設立登記法人,東京都,新宿区,信濃町３５番地慶應義塾大学病院内,,13,104,1600016,,,,,,,2022-04-13,1,,,,,シュトケンエーアールコンソーシアム,0
401,2011201023761,新規,0,2022-04-13,2022-04-13,株式会社山田組,,株式会社,東京都,中野区,新井５丁目１３番８号,,13,114,1650026,,,,,,,2022-04-13,1,,,,,ヤマダクミ,0
403,2011301027679,新規,0,2022-04-13,2022-04-13,株式会社オーエスピー,,株式会社,東京都,杉並区,上高井戸２丁目２番２０号サンフローラ１０２,,13,115,1680074,,,,,,,2022-04-13,1,,,,,オーエスピー,0
404,2011301027712,新規,0,2022-04-13,2022-04-13,株式会社響ｄｅｓｉｇｎ,,株式会社,東京都,杉並区,下高井戸２丁目７番１－８０６号,,13,115,1680073,,,,,,,2022-04-13,1,,,,,ヒビキデザイン,0
411,2011603003568,新規,0,2022-04-13,2022-04-13,合同会社東京都市開発,,合同会社,東京都,練馬区,関町北２丁目３１－２０－１１０６,,13,120,1770051,,,,,,,2022-04-13,1,,,,,トウキョウトシカイハツ,0
418,2011803005042,新規,0,2022-04-13,2022-04-13,前田合同会社,,合同会社,東京都,葛飾区,新小岩１丁目４６番３号３Ｆ,,13,122,1240024,,,,,,,2022-04-13,1,,,,,マエダ,0
422,2012401039044,新規,0,2022-04-13,2022-04-13,株式会社エンジョイケア,,株式会社,東京都,多摩市,鶴牧２丁目２番地の１フォンテーヌ多摩３０２号,,13,224,2060034,,,,,,,2022-04-13,1,,,,,エンジョイケア,0
426,2012405004721,新規,0,2022-04-13,2022-04-13,特定非営利活動法人はぐくみ,,その他の設立登記法人,東京都,府中市,北山町３丁目３番地の１２,,13,206,1830041,,,,,,,2022-04-13,1,,,,,ハグクミ,0
429,2013301048911,新規,0,2022-04-13,2022-04-13,株式会社アスカ・ランドアセット,,株式会社,東京都,豊島区,南池袋２丁目１１番１号明王ビル３階,,13,116,1710022,,,,,,,2022-04-13,1,,,,,アスカランドアセット,0
440,2020001145996,新規,0,2022-04-13,2022-04-13,株式会社ＡＭＡＫＡＳＵ,,株式会社,神奈川県,横浜市中区,松影町２丁目７番地１９マキシヴ関内７０４,,14,104,2310025,,,,,,,2022-04-13,1,,,,,,0
441,2020001146094,新規,0,2022-04-13,2022-04-13,株式会社バリューアップ研究所,,株式会社,神奈川県,横浜市港北区,新吉田東２丁目１１－５,,14,109,2230058,,,,,,,2022-04-13,1,,,,,バリューアップケンキュウジョ,0
445,2020003021584,新規,0,2022-04-13,2022-04-13,合同会社コネクトライン,,合同会社,神奈川県,川崎市宮前区,有馬３丁目２４番２６－５０１号,,14,136,2160003,,,,,,,2022-04-13,1,,,,,コネクトライン,0
446,2020003021601,新規,0,2022-04-13,2022-04-13,カーブパディ合同会社,,合同会社,神奈川県,横浜市旭区,川島町２０５９番地コーラルガーデンＫ２０５,,14,112,2410011,,,,,,,2022-04-13,1,,,,,カーブパディ,0
448,2020005015485,新規,0,2022-04-13,2022-04-13,医療法人ＧＨＣ,,その他の設立登記法人,神奈川県,横浜市金沢区,谷津町４１９番地文庫ビル３階,,14,108,2360016,,,,,,,2022-04-13,1,,,,,ジーエイチシー,0
456,2021001075663,新規,0,2022-04-13,2022-04-13,株式会社シャープイレブンス,,株式会社,神奈川県,藤沢市,鵠沼海岸３丁目１３番１号,00126263,14,205,2510037,,,,,,,2022-04-13,1,,,,,シャープイレブンス,0
457,2021001075705,新規,0,2022-04-13,2022-04-13,Ｓｋｙ　Ｓｅｒｖｉｃｅ株式会社,,株式会社,神奈川県,座間市,相武台２丁目１２番２６号,,14,216,2520011,,,,,,,2022-04-13,1,,,,,スカイサービス,0
461,2021003011591,新規,0,2022-04-13,2022-04-13,合同会社青い蜂,,合同会社,神奈川県,横須賀市,平作２丁目８番１１－４号,,14,201,2380032,,,,,,,2022-04-13,1,,,,,アオイハチ,0
466,2030001147703,新規,0,2022-04-13,2022-04-13,株式会社アクセスマネジメント,,株式会社,埼玉県,川口市,西川口１丁目１１番１６号,,11,203,3320021,,,,,,,2022-04-13,1,,,,,アクセスマネジメント,0
469,2040001123034,新規,0,2022-04-13,2022-04-13,株式会社Ｆａｍｉｌｉａｒ,,株式会社,千葉県,千葉市中央区,松波３丁目８番１０－３０２号メゾン・ド・松波,,12,101,2600044,,,,,,,2022-04-13,1,,,,,ファミリア,0
477,2050001050946,新規,0,2022-04-13,2022-04-13,株式会社Ｕ‐ＢＩＲＴＨ,,株式会社,茨城県,水戸市,姫子２丁目７６７番地の２,,08,201,3114151,,,,,,,2022-04-13,1,,,,,ユーバース,0
479,2050005013057,新規,0,2022-04-13,2022-04-13,一般社団法人筑波精神医学研修センター,,その他の設立登記法人,茨城県,つくば市,天王台１丁目１番１号筑波大学医学医療系臨床医学域精神医学,,08,220,3050006,,,,,,,2022-04-13,1,,,,,ツクバセイシンイガクケンシュウセンター,0
484,2060005009970,新規,0,2022-04-13,2022-04-13,医療法人よしデンタルクリニック,,その他の設立登記法人,栃木県,真岡市,熊倉町４８４２番地１,,09,209,3214362,,,,,,,2022-04-13,1,,,,,ヨシデンタルクリニック,0
485,2070001039145,新規,0,2022-04-13,2022-04-13,株式会社ＭＪグループ,,株式会社,群馬県,藤岡市,本郷４９５番地１,,10,209,3750023,,,,,,,2022-04-13,1,,,,,エムジェーグループ,0
494,2080403004514,新規,0,2022-04-13,2022-04-13,合同会社庭匠,,合同会社,静岡県,浜松市南区,三島町１１３７番地の１,,22,134,4300853,,,,,,,2022-04-13,1,,,,,ニワショウ,0
495,2090005007476,新規,0,2022-04-13,2022-04-13,社会保険労務士法人総務サポート,,その他の設立登記法人,山梨県,甲州市,塩山上於曽９０３番地７,,19,213,4040042,,,,,,,2022-04-13,1,,,,,,0
497,2100005012846,新規,0,2022-04-13,2022-04-13,一般社団法人松本山雅ＳＣ南信,,その他の設立登記法人,長野県,上伊那郡箕輪町,大字東箕輪３２９５－２,,20,383,3994602,,,,,,,2022-04-13,1,,,,,マツモトヤマガエスシーナンシン,0
518,2120001245209,新規,0,2022-04-13,2022-04-13,株式会社ノリトーコーポレーション,,株式会社,大阪府,大阪市天王寺区,上汐３丁目２番１７号コモド上汐ビル２０２,,27,109,5430002,,,,,,,2022-04-13,1,,,,,ノリトーコーポレーション,0
529,2120103004644,新規,0,2022-04-13,2022-04-13,Ｏｆｆｉｃｅ　Ｒｙｏｋｏ合同会社,,合同会社,大阪府,河内長野市,美加の台２丁目２３－３,,27,216,5860044,,,,,,,2022-04-13,1,,,,,オフィスリョウコ,0
530,2120103004652,新規,0,2022-04-13,2022-04-13,ＬＹＱ合同会社,,合同会社,大阪府,泉南市,信達市場１３３４,,27,228,5900504,,,,,,,2022-04-13,1,,,,,エルワイキュー,0
535,2120901045848,新規,0,2022-04-13,2022-04-13,１７株式会社,,株式会社,大阪府,箕面市,箕面２丁目１１番５３－４０３号,,27,220,5620001,,,,,,,2022-04-13,1,,,,,ジュウナナ,0
536,2122001035762,新規,0,2022-04-13,2022-04-13,エバーリーフ株式会社,,株式会社,大阪府,八尾市,東太子１丁目９番１０号,,27,212,5810062,,,,,,,2022-04-13,1,,,,,エバーリーフ,0
541,2130001071521,新規,0,2022-04-13,2022-04-13,株式会社ピースホーム,,株式会社,京都府,京都市東山区,古川町５４２番地３,,26,105,6050026,,,,,,,2022-04-13,1,,,,,ピースホーム,0
542,2130001071538,新規,0,2022-04-13,2022-04-13,株式会社Ｂ・スペース,,株式会社,京都府,京丹後市,網野町島津２９４０番地,,26,212,6293121,,,,,,,2022-04-13,1,,,,,ビースペース,0
560,2140001125623,新規,0,2022-04-13,2022-04-13,株式会社福島屋ソリューション,,株式会社,兵庫県,芦屋市,浜芦屋町８番１２号,00126264,28,206,6590054,,,,,,,2022-04-13,1,,,,,フクシマヤソリューション,0
563,2140003017570,新規,0,2022-04-13,2022-04-13,合同会社ＨａｒｕＨａｒｕこころ,,合同会社,兵庫県,小野市,中町４１８番地の２,,28,218,6751332,,,,,,,2022-04-13,1,,,,,ハルハルココロ,0
564,2140005026140,新規,0,2022-04-13,2022-04-13,医療法人社団田村クリニック,,その他の設立登記法人,兵庫県,西宮市,寿町三丁目１５番１０１号,,28,204,6620047,,,,,,,2022-04-13,1,,,,,タムラクリニック,0
565,2160001024105,新規,0,2022-04-13,2022-04-13,株式会社ＡＬＰＨＡ　ＬＵＰＵＳ,,株式会社,滋賀県,彦根市,竹ケ鼻町１２４番地３,,25,202,5220044,,,,,,,2022-04-13,1,,,,,アルファルプス,0
566,2160001024121,新規,0,2022-04-13,2022-04-13,栗東市民でんりょく株式会社,,株式会社,滋賀県,栗東市,小柿３丁目２番１７号,,25,208,5203024,,,,,,,2022-04-13,1,,,,,リットウシミンデンリョク,0
578,2180003023730,新規,0,2022-04-13,2022-04-13,合同会社アースアート,,合同会社,愛知県,名古屋市緑区,砂田１丁目７４４番地,,23,114,4580807,,,,,,,2022-04-13,1,,,,,アースアート,0
579,2180005019735,新規,0,2022-04-13,2022-04-13,アルヴァ社会保険労務士法人,,その他の設立登記法人,愛知県,名古屋市中区,丸の内３丁目６番２７号ＥＢＳビル５階,,23,106,4600002,,,,,,,2022-04-13,1,,,,,アルヴァ,0
582,2180305009329,新規,0,2022-04-13,2022-04-13,弁理士法人東海特許事務所,,その他の設立登記法人,愛知県,西尾市,米津町蓮台６番地１０,,23,213,4450802,,,,,,,2022-04-13,1,,,,,トウカイトッキョジムショ,0
600,2240001059613,新規,0,2022-04-13,2022-04-13,Ｐｌｕｓ　Ｏｎｅ　Ｉｎｎｏｖａｔｉｏｎ株式会社,,株式会社,広島県,広島市中区,袋町５番３号松籟堂ビル１Ｆ,,34,101,7300036,,,,,,,2022-04-13,1,,,,,プラスワンイノベーション,0
608,2260003003880,新規,0,2022-04-13,2022-04-13,コーチ・ノト合同会社,,合同会社,岡山県,倉敷市,上東１２４４番地９,,33,202,7010111,,,,,,,2022-04-13,1,,,,,コーチノト,0
609,2260005011064,新規,0,2022-04-13,2022-04-13,一般社団法人道口地区有林を守る会,,その他の設立登記法人,岡山県,倉敷市,玉島道口５３３２番地４,,33,202,7138115,,,,,,,2022-04-13,1,,,,,ミチグチチクユウリンヲマモルカイ,0
613,2290001097138,新規,0,2022-04-13,2022-04-13,ｒｅｃｔｉｏｎ株式会社,,株式会社,福岡県,糸島市,篠原西２丁目６番８号,,40,230,8191129,,,,,,,2022-04-13,1,,,,,リクション,0
614,2290003012367,新規,0,2022-04-13,2022-04-13,もんり合同会社,,合同会社,福岡県,福岡市西区,富士見３丁目２－６－１０１ＫＳマリーＡ棟,,40,135,8190387,,,,,,,2022-04-13,1,,,,,モンリ,0
615,2290003012400,新規,0,2022-04-13,2022-04-13,合同会社能古島アイランドカレー,,合同会社,福岡県,福岡市西区,能古１９２番地８,,40,135,8190012,,,,,,,2022-04-13,1,,,,,ノコノシマアイランドカレー,0
623,2290801028440,新規,0,2022-04-13,2022-04-13,株式会社今重商事,,株式会社,福岡県,北九州市門司区,大里東４丁目１２番３８号,,40,101,8000022,,,,,,,2022-04-13,1,,,,,イマシゲショウジ,0
624,2290803004101,新規,0,2022-04-13,2022-04-13,合同会社Ｗ通船,,合同会社,福岡県,北九州市若松区,大字小竹３００８番地２,,40,103,8080108,,,,,,,2022-04-13,1,,,,,ダブルツウセン,0
626,2300001012862,新規,0,2022-04-13,2022-04-13,株式会社竹下コーポレーション,,株式会社,佐賀県,佐賀市,駅前中央１丁目１６４番,,41,201,8400801,,,,,,,2022-04-13,1,,,,,タケシタコーポレーション,0
632,2320003003775,新規,0,2022-04-13,2022-04-13,デジタルサポートジャパン合同会社,,合同会社,大分県,大分市,三ケ田町２丁目４－１０片山ビル１Ｆ,,44,201,8700888,,,,,,,2022-04-13,1,,,,,デジタルサポートジャパン,0
633,2320005009985,新規,0,2022-04-13,2022-04-13,ＨＩＴＡ‐ＳＨＩＫＩ　ｐｒｏｊｅｃｔ協同組合,,その他の設立登記法人,大分県,日田市,淡窓２丁目４番３８号,,44,204,8770012,,,,,,,2022-04-13,1,,,,,ヒタシキプロジェクト,0
635,2330005010496,新規,0,2022-04-13,2022-04-13,特定非営利活動法人熊本県バドミントン王国復活プロジェクト,,その他の設立登記法人,熊本県,熊本市中央区,内坪井町４－８熊本県バドミントン協会内,,43,101,8600077,,,,,,,2022-04-13,1,,,,,クマモトケンバドミントンオウコクフッカツプロジェクト,0
636,2350001017700,新規,0,2022-04-13,2022-04-13,ＭＹＵ　ＧＡＲＡＧＥ株式会社,,株式会社,宮崎県,延岡市,上伊形町１４３番１,,45,203,8890502,,,,,,,2022-04-13,1,,,,,ミユガレージ,0
637,2350003004060,新規,0,2022-04-13,2022-04-13,ＢＲＨＣ合同会社,,合同会社,宮崎県,日南市,大字酒谷乙４９８９番地９,,45,204,8892511,,,,,,,2022-04-13,1,,,,,ビーアールエイチシー,0
642,2360003011923,新規,0,2022-04-13,2022-04-13,合同会社ＰＹＴ,,合同会社,沖縄県,宜野湾市,宜野湾２丁目１５番５－４０３号パルハイム,,47,205,9012211,,,,,,,2022-04-13,1,,,,,プュット,0
648,2380005012570,新規,0,2022-04-13,2022-04-13,一般社団法人ｃｙｃｌｅ　ｖｉｌｌａｇｅ　ＴＡＭＡＫＡＷＡ,,その他の設立登記法人,福島県,石川郡玉川村,大字南須釜字奥平２９０番地すがまプラザ交流センターＲｏｏｍ３,,07,502,9636302,,,,,,,2022-04-13,1,,,,,サイクルヴィレッジタマカワ,0
657,2400003002926,新規,0,2022-04-13,2022-04-13,合同会社ｕｐヒルズ,,合同会社,岩手県,盛岡市,盛岡駅西通１丁目１３番１号ピュアパレス２０２,,03,201,0200045,,,,,,,2022-04-13,1,,,,,アップヒルズ,0
658,2410001013156,新規,0,2022-04-13,2022-04-13,株式会社加賀建築,,株式会社,秋田県,横手市,雄物川町薄井字下宮田１１７番地,,05,203,0130481,,,,,,,2022-04-13,1,,,,,カガケンチク,0
664,2440001009060,新規,0,2022-04-13,2022-04-13,株式会社佐藤,,株式会社,北海道,北斗市,東前７３番地の２３,,01,236,0411214,,,,,,,2022-04-13,1,,,,,サトウ,0
667,2440003001453,新規,0,2022-04-13,2022-04-13,合同会社ささや農園,,合同会社,北海道,爾志郡乙部町,字姫川７９５番地１,,01,364,0430117,,,,,,,2022-04-13,1,,,,,,0
668,2480001011707,新規,0,2022-04-13,2022-04-13,株式会社ユウシン企画,,株式会社,徳島県,徳島市,国府町日開１５６番地,,36,201,7793117,,,,,,,2022-04-13,1,,,,,ユウシンキカク,0
669,2480003001821,新規,0,2022-04-13,2022-04-13,合同会社矢嵐,,合同会社,徳島県,板野郡板野町,西中富字民冨地１８番地,,36,404,7790119,,,,,,,2022-04-13,1,,,,,ヤアラシ,0
671,2500001024144,新規,0,2022-04-13,2022-04-13,株式会社ピース,,株式会社,愛媛県,四国中央市,土居町津根１０２１番地,,38,213,7990704,,,,,,,2022-04-13,1,,,,,ピース,0
674,2700150107761,新規,0,2022-04-13,2022-04-11,鹿児島県立与論高等学校ＰＴＡ,,その他,鹿児島県,大島郡与論町,大字茶花１２３４番地１,,46,535,8919301,,,,,,,2022-04-11,1,,,,,カゴシマケンリツヨロンコウトウガツコウピーテイーエー,0
675,2700150107828,新規,0,2022-04-13,2022-04-11,１９７９,,その他,福岡県,糸島市,前原駅南１丁目６－１１ビアリッツ２０２,,40,230,8191138,,,,,,,2022-04-11,1,,,,,イチキユウナナキユウ,0
684,3010001225666,新規,0,2022-04-13,2022-04-13,株式会社ＢｌｕｅＭｅｍｅ　Ｐａｒｔｎｅｒｓ,,株式会社,東京都,千代田区,神田錦町３丁目２０番地,,13,101,1010054,,,,,,,2022-04-13,1,,,,,ブルーミームパートナーズ,0
685,3010001225856,新規,0,2022-04-13,2022-04-13,トラックリーシング株式会社,,株式会社,東京都,千代田区,内幸町１丁目３番３号,,13,101,1000011,,,,,,,2022-04-13,1,,,,,トラックリーシング,0
686,3010003037424,新規,0,2022-04-13,2022-04-13,合同会社くゆり,,合同会社,東京都,千代田区,神田淡路町１丁目２１－４第２西野ビル２０１,,13,101,1010063,,,,,,,2022-04-13,1,,,,,クユリ,0
697,3010401166774,新規,0,2022-04-13,2022-04-13,株式会社マネキネコ,,株式会社,東京都,港区,白金台５丁目１１番１１－４０４号,,13,103,1080071,,,,,,,2022-04-13,1,,,,,マネキネコ,0
698,3010405020878,新規,0,2022-04-13,2022-04-13,一般社団法人性支援・性問題支援センターまっぷす,,その他の設立登記法人,東京都,港区,南青山２丁目２番１５号,,13,103,1070062,,,,,,,2022-04-13,1,,,,,セイシエンセイモンダイシエンセンターマップス,0
699,3010501048699,新規,0,2022-04-13,2022-04-13,Ｄ・Ｓｈｉｅｎ株式会社,,株式会社,東京都,台東区,日本堤２丁目９番１１号,,13,106,1110021,,,,,,,2022-04-13,1,,,,,ディーシエン,0
700,3010501048708,新規,0,2022-04-13,2022-04-13,ウェルシー株式会社,,株式会社,東京都,台東区,東上野２丁目１８番９号３Ｆ,,13,106,1100015,,,,,,,2022-04-13,1,,,,,ウェルシー,0
701,3010503006564,新規,0,2022-04-13,2022-04-13,ＡｐｅｘＳｏｌｕｔｉｏｎ合同会社,,合同会社,東京都,台東区,上野６丁目８番１９号,,13,106,1100005,,,,,,,2022-04-13,1,,,,,エイペックスソリューション,0
710,3010803004136,新規,0,2022-04-13,2022-04-13,合同会社ＩＮＦＩＮＩＴＯ,,合同会社,東京都,大田区,南馬込１丁目２番１２－７０１号,,13,111,1430025,,,,,,,2022-04-13,1,,,,,インフィニート,0
712,3010901050676,新規,0,2022-04-13,2022-04-13,株式会社ＢＥＡＲＳ　ＢＡＮＱＵＥＴ,,株式会社,東京都,世田谷区,千歳台５丁目６番８号メゾンドピテュス３０２,,13,112,1570071,,,,,,,2022-04-13,1,,,,,ベアーズバンケット,0
714,3010905004298,新規,0,2022-04-13,2022-04-13,弁理士法人瑛彩知的財産事務所,,その他の設立登記法人,東京都,世田谷区,三軒茶屋２丁目２５－５アーク１階,,13,112,1540024,,,,,,,2022-04-13,1,,,,,エイサイチテキザイサンジムショ,0
718,3011001146803,新規,0,2022-04-13,2022-04-13,株式会社ＳＵＩＴＣＡＳＥ　ＮＥＴＷＯＲＫＳ,,株式会社,東京都,渋谷区,恵比寿２丁目２８番１０号,,13,113,1500013,,,,,,,2022-04-13,1,,,,,スーツケースネットワークス,0
723,3011003014537,新規,0,2022-04-13,2022-04-13,手嶌エステート合同会社,,合同会社,東京都,渋谷区,神南１丁目８番１０号ＫＤＸレジデンス渋谷神南１０２号,,13,113,1500041,,,,,,,2022-04-13,1,,,,,テシマエステート,0
728,3011101098523,新規,0,2022-04-13,2022-04-13,ａ‐ｃｏｍｐａｎｙ株式会社,,株式会社,東京都,新宿区,北新宿３丁目４番１９号,,13,104,1690074,,,,,,,2022-04-13,1,,,,,エイカンパニー,0
729,3011103011665,新規,0,2022-04-13,2022-04-13,合同会社Ｅ‐ｌｕｃｋ,,合同会社,東京都,新宿区,余丁町３－８レキシントンスクエア曙橋２０９,,13,104,1620055,,,,,,,2022-04-13,1,,,,,イーラック,0
733,3011301027703,新規,0,2022-04-13,2022-04-13,株式会社ｉＮＥＸＵＳ,,株式会社,東京都,杉並区,方南１丁目４３番１５号,,13,115,1680062,,,,,,,2022-04-13,1,,,,,アイネクサス,0
735,3011601025885,新規,0,2022-04-13,2022-04-13,株式会社エガシー,,株式会社,東京都,練馬区,豊玉北５丁目１７－２３,,13,120,1760012,,,,,,,2022-04-13,1,,,,,エガシー,0
736,3011603003575,新規,0,2022-04-13,2022-04-13,合同会社カツヤマエージェンシー,,合同会社,東京都,練馬区,石神井台２丁目７番１９号,,13,120,1770045,,,,,,,2022-04-13,1,,,,,カツヤマエージェンシー,0
741,3011801040577,新規,0,2022-04-13,2022-04-13,株式会社プラチナ共創研究所,,株式会社,東京都,葛飾区,亀有５丁目９番１号,,13,122,1250061,,,,,,,2022-04-13,1,,,,,プラチナキョウソウケンキュウショ,0
742,3011801040585,新規,0,2022-04-13,2022-04-13,経理Ｌａｎｄｓｃａｐｅ株式会社,,株式会社,東京都,足立区,千住仲町２３番１２号,,13,121,1200036,,,,,,,2022-04-13,1,,,,,ケイリランドスケープ,0
743,3012303001654,新規,0,2022-04-13,2022-04-13,合同会社Ｍｅｄｉｃａｌ　Ｒａｉｎｂｏｗ,,合同会社,東京都,町田市,原町田６丁目１８番１３号サニーサイドビル,,13,209,1940013,,,,,,,2022-04-13,1,,,,,メディカルレインボー,0
757,3020001146093,新規,0,2022-04-13,2022-04-13,株式会社Ａｕｇｕｓｔ８,,株式会社,神奈川県,川崎市多摩区,菅北浦１丁目１番３－３０１号,,14,135,2140008,,,,,,,2022-04-13,1,,,,,オーガストエイト,0
758,3020001146110,新規,0,2022-04-13,2022-04-13,株式会社ひとてま,,株式会社,神奈川県,横浜市港北区,大倉山３丁目５番１１号,,14,109,2220037,,,,,,,2022-04-13,1,,,,,ヒトテマ,0
759,3020001146119,新規,0,2022-04-13,2022-04-13,株式会社ライブマップクリエイション,,株式会社,神奈川県,横浜市鶴見区,下野谷町４丁目１７５番地ＮＩＣＥアーバン鶴見本町通り第２－１０１号,,14,101,2300047,,,,,,,2022-04-13,1,,,,,ライブマップクリエイション,0
760,3020001146135,新規,0,2022-04-13,2022-04-13,リバイバルライフ株式会社,,株式会社,神奈川県,横浜市西区,高島２丁目１１番２号スカイメナー横浜５１９,,14,103,2200011,,,,,,,2022-04-13,1,,,,,リバイバルライフ,0
765,3020003021583,新規,0,2022-04-13,2022-04-13,合同会社かぐら商店,,合同会社,神奈川県,横浜市港北区,大倉山７丁目２３番２１号,,14,109,2220037,,,,,,,2022-04-13,1,,,,,カグラショウテン,0
766,3020003021600,新規,0,2022-04-13,2022-04-13,合同会社ココカラ,,合同会社,神奈川県,川崎市多摩区,長尾１丁目７番１６号フルーレ向ヶ丘３０１,,14,135,2140023,,,,,,,2022-04-13,1,,,,,ココカラ,0
768,3020005015484,新規,0,2022-04-13,2022-04-13,一般社団法人横浜ライブエンターテインメント協議会,,その他の設立登記法人,神奈川県,横浜市中区,常盤町１丁目１番地宮下ビル４階,,14,104,2310014,,,,,,,2022-04-13,1,,,,,ヨコハマライブエンターテインメントキョウギカイ,0
770,3021001075704,新規,0,2022-04-13,2022-04-13,株式会社Ｅｖｅｒ　ＹｏｕｒＳ,,株式会社,神奈川県,秦野市,戸川４１１－２１,,14,211,2591306,,,,,,,2022-04-13,1,,,,,エバーユアーズ,0
775,3030001147628,新規,0,2022-04-13,2022-04-13,株式会社ＨＡＺ,,株式会社,埼玉県,さいたま市大宮区,下町３丁目７番地１Ｆ２２０６号,,11,103,3300844,,,,,,,2022-04-13,1,,,,,ハズ,0
776,3030001147727,新規,0,2022-04-13,2022-04-13,株式会社協立テクノマテリアル,,株式会社,埼玉県,川口市,南鳩ヶ谷６丁目１８番１－１１０７号,,11,203,3340013,,,,,,,2022-04-13,1,,,,,キョウリツテクノマテリアル,0
777,3030003019180,新規,0,2022-04-13,2022-04-13,合同会社エアリー,,合同会社,埼玉県,三郷市,中央１丁目２番地１,,11,237,3410038,,,,,,,2022-04-13,1,,,,,,0
780,3040001123017,新規,0,2022-04-13,2022-04-13,株式会社ＳＱＵＡＤ,,株式会社,千葉県,千葉市中央区,富士見２丁目１７番１０号Ａ１ビル１Ｆ,,12,101,2600015,,,,,,,2022-04-13,1,,,,,スクワッド,0
788,3050005013056,新規,0,2022-04-13,2022-04-13,一般社団法人全国地域ビジネス協会,,その他の設立登記法人,茨城県,猿島郡境町,１３４１番地１,,08,546,3060433,,,,,,,2022-04-13,1,,,,,ゼンコクチイキビジネスキョウカイ,0
802,3080101023220,新規,0,2022-04-13,2022-04-13,株式会社ＲＥＩＮＣＡＲＮＡＴＩＯＮ,,株式会社,静岡県,富士宮市,猪之頭２１１４番地の５,,22,207,4180108,,,,,,,2022-04-13,1,,,,,リンカーネイション,0
817,3080403004521,新規,0,2022-04-13,2022-04-13,Ｌａ　ｍｅｒ　ｅｔ　ｂｏｉｓ合同会社,,合同会社,静岡県,浜松市中区,元城町２２２番地の２５アルスビル１Ｆ,,22,131,4300946,,,,,,,2022-04-13,1,,,,,ラメールエトボア,0
818,3080405007448,新規,0,2022-04-13,2022-04-13,一般社団法人渡来食文化研究会,,その他の設立登記法人,静岡県,浜松市東区,丸塚町１６９番地,,22,132,4350046,,,,,,,2022-04-13,1,,,,,トライショクブンカケンキュウカイ,0
821,3100001035247,新規,0,2022-04-13,2022-04-13,株式会社櫂,,株式会社,長野県,諏訪郡富士見町,富士見２６１番地４,,20,362,3990211,,,,,,,2022-04-13,1,,,,,カイ,0
847,3120001245174,新規,0,2022-04-13,2022-04-13,株式会社Ｂｏｎ　Ｒｏｃｈｅ,,株式会社,大阪府,大阪市福島区,海老江１丁目５番３０－５０３号,,27,103,5530001,,,,,,,2022-04-13,1,,,,,ボンロッシュ,0
848,3120001245182,新規,0,2022-04-13,2022-04-13,株式会社ＲＦＪ,,株式会社,大阪府,大阪市西成区,岸里東１丁目３０番２３号,,27,122,5570042,,,,,,,2022-04-13,1,,,,,アールエフジェイ,0
849,3120001245208,新規,0,2022-04-13,2022-04-13,株式会社ＴＤＣ不動産,,株式会社,大阪府,大阪市此花区,梅香３丁目３番１１号３階,,27,104,5540013,,,,,,,2022-04-13,1,,,,,ティディシィフドウサン,0
850,3120001245224,新規,0,2022-04-13,2022-04-13,株式会社空麗,,株式会社,大阪府,大阪市住之江区,御崎２丁目１番１０－８０９号,,27,125,5590013,,,,,,,2022-04-13,1,,,,,クウレイ,0
851,3120001245240,新規,0,2022-04-13,2022-04-13,株式会社Ｙ＆Ｙ,,株式会社,大阪府,大阪市中央区,南本町２丁目６番５ファースト船場ビル５０８号,,27,128,5410054,,,,,,,2022-04-13,1,,,,,ワイアンドワイ,0
852,3120003021458,新規,0,2022-04-13,2022-04-13,合同会社Ａ２,,合同会社,大阪府,大阪市西区,南堀江４丁目１８番１５号,,27,106,5500015,,,,,,,2022-04-13,1,,,,,エーツー,0
853,3120003021482,新規,0,2022-04-13,2022-04-13,インベストリンク合同会社,,合同会社,大阪府,大阪市北区,豊崎３丁目１１番６－２１０６号,,27,127,5310072,,,,,,,2022-04-13,1,,,,,インベストリンク,0
856,3120005022917,新規,0,2022-04-13,2022-04-13,一般社団法人日中友好交流センター,,その他の設立登記法人,大阪府,大阪市中央区,北久宝寺町１丁目７番７号,,27,128,5410057,,,,,,,2022-04-13,1,,,,,ニッチュウユウコウコウリュウセンター,0
858,3120101065373,新規,0,2022-04-13,2022-04-13,株式会社すまいるけあ,,株式会社,大阪府,堺市北区,長曽根町３０７３番地１（６０１号）,,27,146,5918025,,,,,,,2022-04-13,1,,,,,スマイルケア,0
865,3122001035761,新規,0,2022-04-13,2022-04-13,株式会社ＮａｎｏＦｉｌｍ　ＡＭＪ,,株式会社,大阪府,東大阪市,荒本北１丁目４番１号,,27,227,5770011,,,,,,,2022-04-13,1,,,,,ナノフィルムエーエムジェイ,0
866,3130001071537,新規,0,2022-04-13,2022-04-13,株式会社Ｖｅｌａ　Ｆｌａｍａｎｔｅ,,株式会社,京都府,京都市下京区,烏丸通七条下る東塩小路町７３５－１京阪京都ビル８階,,26,106,6008216,,,,,,,2022-04-13,1,,,,,ヴェラフラマンテ,0
868,3130003007869,新規,0,2022-04-13,2022-04-13,合同会社天橋立ＤＭＣ,,合同会社,京都府,宮津市,字惣２８４番地の４,,26,205,6260043,,,,,,,2022-04-13,1,,,,,アマノハシダテディーエムシー,0
876,3140001125606,新規,0,2022-04-13,2022-04-13,株式会社ＳＨＡＫＡ,,株式会社,兵庫県,神戸市中央区,江戸町１００番３階,,28,110,6500033,,,,,,,2022-04-13,1,,,,,シャカ,0
877,3140001125614,新規,0,2022-04-13,2022-04-13,株式会社逆境ｓｔｙｌｅ,,株式会社,兵庫県,西宮市,津門呉羽町２番９号,,28,204,6638245,,,,,,,2022-04-13,1,,,,,ギャッキョウスタイル,0
884,3160001024120,新規,0,2022-04-13,2022-04-13,株式会社セカンドメタル,,株式会社,滋賀県,近江八幡市,安土町常楽寺１１５番地１０,,25,204,5211351,,,,,,,2022-04-13,1,,,,,セカンドメタル,0
886,3160003002545,新規,0,2022-04-13,2022-04-13,竹田電設合同会社,,合同会社,滋賀県,高島市,新旭町新庄５５５番地７,,25,212,5201522,,,,,,,2022-04-13,1,,,,,タケダデンセツ,0
891,3180001150773,新規,0,2022-04-13,2022-04-13,株式会社わくわくファーム,,株式会社,愛知県,名古屋市東区,東桜１丁目９番３号ヒシタ会館６階,,23,102,4610005,,,,,,,2022-04-13,1,,,,,ワクワクファーム,0
892,3180001150897,新規,0,2022-04-13,2022-04-13,株式会社ＲＯＺＥＯ,,株式会社,愛知県,名古屋市中区,錦３丁目２番２３号ｓｅｒｅｚａ錦５０１,,23,106,4600003,,,,,,,2022-04-13,1,,,,,ロゼオ,0
917,3240001059612,新規,0,2022-04-13,2022-04-13,株式会社ＳＡＲＡＳ,,株式会社,広島県,尾道市,向島町１００４２番地５,,34,205,7220073,,,,,,,2022-04-13,1,,,,,サラス,0
919,3240005015371,新規,0,2022-04-13,2022-04-13,一般社団法人天領上下まちづくりの会,,その他の設立登記法人,広島県,府中市,上下町上下１００３番地,,34,208,7293431,,,,,,,2022-04-13,1,,,,,テンリョウジョウゲマチヅクリノカイ,0
921,3250001019499,新規,0,2022-04-13,2022-04-13,かつみ技工株式会社,,株式会社,山口県,宇部市,鵜の島町７番２８号,,35,202,7550062,,,,,,,2022-04-13,1,,,,,カツミギコウ,0
930,3290001097186,新規,0,2022-04-13,2022-04-13,株式会社トモロウ,,株式会社,福岡県,福岡市南区,花畑３丁目４０番２４－４１０号,,40,134,8111356,,,,,,,2022-04-13,1,,,,,トモロウ,0
931,3290801028431,新規,0,2022-04-13,2022-04-13,株式会社ＫＥＥＣＯ,,株式会社,福岡県,直方市,殿町二丁目１９番地,,40,204,8220017,,,,,,,2022-04-13,1,,,,,ケーコー,0
932,3290801028448,新規,0,2022-04-13,2022-04-13,株式会社ＦＡＮＣＹ,,株式会社,福岡県,北九州市八幡西区,力丸町６－２,,40,109,8070802,,,,,,,2022-04-13,1,,,,,ファンシー,0
965,3430001086380,新規,0,2022-04-13,2022-04-13,株式会社ＢＲＥＭＥＮ,,株式会社,北海道,伊達市,長和町４４０番地５,,01,233,0520035,,,,,,,2022-04-13,1,,,,,ブレーメン,0
966,3430001086389,新規,0,2022-04-13,2022-04-13,株式会社ｉｎｃ‐Ｏ,,株式会社,北海道,札幌市中央区,南五条東２丁目１１番地１シティハイツ南五条１００２号,,01,101,0600055,,,,,,,2022-04-13,1,,,,,インクオー,0
971,3430003013779,新規,0,2022-04-13,2022-04-13,合同会社ｋａｋｅＬ,,合同会社,北海道,登別市,若山町３丁目１２ー５２,,01,230,0590026,,,,,,,2022-04-13,1,,,,,カケル,0
972,3430003013787,新規,0,2022-04-13,2022-04-13,合同会社ほっかいどう衣料コーキ,,合同会社,北海道,小樽市,銭函１丁目１９番３２号,,01,203,0470261,,,,,,,2022-04-13,1,,,,,ホッカイドウイリョウコーキ,0
973,3430003013795,新規,0,2022-04-13,2022-04-13,合同会社ＧＫ札幌,,合同会社,北海道,札幌市東区,北四十一条東４丁目１番１９号,,01,103,0070841,,,,,,,2022-04-13,1,,,,,ジーケイサッポロ,0
986,3480001011706,新規,0,2022-04-13,2022-04-13,株式会社かいごのココロ,,株式会社,徳島県,徳島市,山城西４丁目１６番地５沖浜ヒルズ館３階Ｄ号室,,36,201,7708054,,,,,,,2022-04-13,1,,,,,カイゴノココロ,0
987,3480003001820,新規,0,2022-04-13,2022-04-13,合同会社デザインこぐま,,合同会社,徳島県,徳島市,中通町１丁目９,,36,201,7700844,,,,,,,2022-04-13,1,,,,,,0
991,3700150107777,新規,0,2022-04-13,2022-04-11,令和歌謡楽技団,,その他,東京都,墨田区,向島３丁目３９－８向島西田コーポ４０２号,,13,107,1310033,,,,,,,2022-04-11,1,,,,,レイワカヨウガクギダン,0
992,3700150107950,新規,0,2022-04-13,2022-04-13,加古川市間型土地区画整理組合,,その他,兵庫県,加古川市,加古川町美乃利１１１７番地の２,,28,210,6750062,,,,,,,2022-04-13,1,,,,,カコガワシマガタトチクカクセイリクミアイ,0
1001,4010001225649,新規,0,2022-04-13,2022-04-13,株式会社ラストワンマイル・パートナーズ,,株式会社,東京都,中央区,日本橋富沢町９番１９号,,13,102,1030006,,,,,,,2022-04-13,1,,,,,ラストワンマイルパートナーズ,0
1002,4010001225698,新規,0,2022-04-13,2022-04-13,大和アグリカルチャー株式会社,,株式会社,東京都,千代田区,内幸町１丁目１番１号帝国ホテルタワー１６階,,13,101,1000011,,,,,,,2022-04-13,1,,,,,ダイワアグリカルチャー,0
1004,4010003037489,新規,0,2022-04-13,2022-04-13,レクサス四条合同会社,,合同会社,東京都,千代田区,内神田２丁目２番６号５階あすな会計事務所内,,13,101,1010047,,,,,,,2022-04-13,1,,,,,レクサスシジョウ,0
1006,4010005034823,新規,0,2022-04-13,2022-04-13,朝比奈・川崎社会保険労務士法人,00126276,その他の設立登記法人,東京都,千代田区,九段南３丁目５番１１号,,13,101,1020074,,,,,,,2022-04-13,1,,,,,アサヒナカワサキ,0
1007,4010005034872,新規,0,2022-04-13,2022-04-13,一般社団法人ウェルビーイング研究所,,その他の設立登記法人,東京都,文京区,春日２丁目１５番９号,,13,105,1120003,,,,,,,2022-04-13,1,,,,,ウェルビーイングケンキュウショ,0
1012,4010403027453,新規,0,2022-04-13,2022-04-13,Ｊａｐａｎ　Ｂｌｕｅ　Ｉｎｖｅｓｔｍｅｎｔ合同会社,,合同会社,東京都,港区,赤坂６丁目７番１４－１０１号,,13,103,1070052,,,,,,,2022-04-13,1,,,,,ジャパンブルーインベストメント,0
1013,4010403027486,新規,0,2022-04-13,2022-04-13,合同会社麓覺堂,,合同会社,東京都,港区,北青山３丁目１２番２号,,13,103,1070061,,,,,,,2022-04-13,1,,,,,ロッカクドウ,0
1020,4010601060917,新規,0,2022-04-13,2022-04-13,利建株式会社,,株式会社,東京都,墨田区,横川３丁目６番７号３－Ｅ室,,13,107,1300003,,,,,,,2022-04-13,1,,,,,リケン,0
1027,4010803004119,新規,0,2022-04-13,2022-04-13,合同会社イーストエンド,,合同会社,東京都,大田区,東馬込１丁目４５番地３号パレスタカサゴ１０６,,13,111,1430022,,,,,,,2022-04-13,1,,,,,イーストエンド,0
1032,4010903007302,新規,0,2022-04-13,2022-04-13,合同会社ＪＩＪＩ,,合同会社,東京都,世田谷区,弦巻３丁目２３番８号ベリエール弦巻第２－２０３,,13,112,1540016,,,,,,,2022-04-13,1,,,,,ジジ,0
1038,4011001146769,新規,0,2022-04-13,2022-04-13,Ｍａｎａｇｅｍｅｎｔ株式会社,,株式会社,東京都,目黒区,洗足２丁目２５番６号,,13,110,1520012,,,,,,,2022-04-13,1,,,,,マネジメント,0
1039,4011001146851,新規,0,2022-04-13,2022-04-13,株式会社ＵＮＦＩＸＥＤ　ＲＥＣＯＲＤＳ,,株式会社,東京都,渋谷区,神宮前６丁目２３番４号桑野ビル２階,,13,113,1500001,,,,,,,2022-04-13,1,,,,,アンフィクスレコーズ,0
1040,4011003014321,新規,0,2022-04-13,2022-04-13,合同会社ＧＯＯＤ　ＢＯＸ,,合同会社,東京都,渋谷区,道玄坂１丁目１０番８号渋谷道玄坂東急ビル２Ｆ－Ｃ,,13,113,1500043,,,,,,,2022-04-13,1,,,,,グッドボックス,0
1041,4011003014503,新規,0,2022-04-13,2022-04-13,フロッグゲームズ合同会社,,合同会社,東京都,渋谷区,道玄坂１丁目１０番８号渋谷道玄坂東急ビル２Ｆ―Ｃ,,13,113,1500043,,,,,,,2022-04-13,1,,,,,フロッグゲームズ,0
1046,4011101098522,新規,0,2022-04-13,2022-04-13,大嘴科技日本株式会社,,株式会社,東京都,新宿区,百人町２丁目１－４５赤煉瓦２１６,,13,104,1690073,,,,,,,2022-04-13,1,,,,,ダイシカギニホン,0
1047,4011101098539,新規,0,2022-04-13,2022-04-13,株式会社ＭＯＤ,,株式会社,東京都,新宿区,西新宿３丁目３番１３号西新宿水間ビル６階,,13,104,1600023,,,,,,,2022-04-13,1,,,,,モッド,0
1049,4011301027710,新規,0,2022-04-13,2022-04-13,株式会社ギンガム,,株式会社,東京都,杉並区,善福寺３丁目７番４号,,13,115,1670041,,,,,,,2022-04-13,1,,,,,ギンガム,0
1050,4011303004377,新規,0,2022-04-13,2022-04-13,合同会社タイロット,,合同会社,東京都,杉並区,井草２丁目３５番１２－２－４１０号グランドメゾン杉並シーズン,,13,115,1670021,,,,,,,2022-04-13,1,,,,,タイロット,0
1051,4011305002817,新規,0,2022-04-13,2022-04-13,一般社団法人ＫＯＨＯ２２,,その他の設立登記法人,東京都,杉並区,西荻北５丁目１番５－４０１号,,13,115,1670042,,,,,,,2022-04-13,1,,,,,コーホーニジュウニ,0
1052,4011401024161,新規,0,2022-04-13,2022-04-13,株式会社Ａｖａｔａｒ,,株式会社,東京都,板橋区,仲宿１２－１２,,13,119,1730005,,,,,,,2022-04-13,1,,,,,アバター,0
1053,4011403003626,新規,0,2022-04-13,2022-04-13,合同会社ウィズユー,,合同会社,東京都,板橋区,大和町４６－１０,,13,119,1730012,,,,,,,2022-04-13,1,,,,,ウィズユー,0
1056,4011605002442,新規,0,2022-04-13,2022-04-13,一般社団法人Ｓｎｏｗ　Ｗｈｉｔｅ　Ｌａｂ．,,その他の設立登記法人,東京都,練馬区,石神井台３丁目３１－２１,,13,120,1770045,,,,,,,2022-04-13,1,,,,,スノウホワイトラボ,0
1062,4011801040543,新規,0,2022-04-13,2022-04-13,株式会社ＯＡＳＩＳ　ＲＡＹ,,株式会社,東京都,足立区,梅島２丁目１４－１,,13,121,1210816,,,,,,,2022-04-13,1,,,,,オアシスレイ,0
1063,4011801040568,新規,0,2022-04-13,2022-04-13,株式会社ジャストラスト,,株式会社,東京都,葛飾区,堀切３丁目７番５号,,13,122,1240006,,,,,,,2022-04-13,1,,,,,ジャストラスト,0
1066,4012401039067,新規,0,2022-04-13,2022-04-13,株式会社橋本,,株式会社,東京都,調布市,布田４丁目２５番地６,,13,208,1820024,,,,,,,2022-04-13,1,,,,,ハシモト,0
1071,4012405004728,新規,0,2022-04-13,2022-04-13,弁理士法人友野国際特許事務所,,その他の設立登記法人,東京都,武蔵野市,中町２丁目２－２－２,,13,203,1800006,,,,,,,2022-04-13,1,,,,,トモノコクサイトッキョジムショ,0
1078,4020001146084,新規,0,2022-04-13,2022-04-13,株式会社ひろか,,株式会社,神奈川県,川崎市中原区,今井仲町１１番８－３０１号ルフォン武蔵小杉今井仲町,,14,133,2110065,,,,,,,2022-04-13,1,,,,,ヒロカ,0
1085,4020003021582,新規,0,2022-04-13,2022-04-13,合同会社ＮｅｘｔＡ,,合同会社,神奈川県,横浜市西区,みなとみらい５丁目３番１,,14,103,2200012,,,,,,,2022-04-13,1,,,,,ネクスタ,0
1090,4021001075703,新規,0,2022-04-13,2022-04-13,株式会社クツショウテン神奈川,,株式会社,神奈川県,藤沢市,辻堂神台１丁目２－１２Ｌｕｚ湘南辻堂１階,,14,205,2510041,,,,,,,2022-04-13,1,,,,,クツショウテンカナガワ,0
1103,4030001147718,新規,0,2022-04-13,2022-04-13,株式会社フルボバレーノ,,株式会社,埼玉県,草加市,八幡町９９７番地３,,11,221,3400006,,,,,,,2022-04-13,1,,,,,フルボバレーノ,0
1107,4040001123008,新規,0,2022-04-13,2022-04-13,ＡＴＨＥＮＡ株式会社,,株式会社,千葉県,市川市,北方３丁目１３番８号,,12,203,2720815,,,,,,,2022-04-13,1,,,,,アテナ,0
1111,4040003019807,新規,0,2022-04-13,2022-04-13,ＡＱＵＡ合同会社,,合同会社,千葉県,木更津市,岩根４丁目１０番４号,,12,206,2920061,,,,,,,2022-04-13,1,,,,,アクア,0
1112,4040003019864,新規,0,2022-04-13,2022-04-13,ＪＫｏｍｍｅｒｃｅ合同会社,,合同会社,千葉県,習志野市,袖ケ浦２丁目３番１－１０６号,,12,216,2750021,,,,,,,2022-04-13,1,,,,,ジェイコマース,0
1115,4050001050944,新規,0,2022-04-13,2022-04-13,株式会社東瀛物産,,株式会社,茨城県,つくば市,東平塚１１８１－１東平塚テナント１,00126268,08,220,3050812,,,,,,,2022-04-13,1,,,,,トウエイブッサン,0
1116,4050003006498,新規,0,2022-04-13,2022-04-13,合同会社ＯＮＥＢＥＴ,,合同会社,茨城県,石岡市,石川１９４８番地,,08,205,3150046,,,,,,,2022-04-13,1,,,,,ワンベット,0
1123,4060005009969,新規,0,2022-04-13,2022-04-13,医療法人Ｄｅｌｉｃｉｏｕｓ　Ｔｉｍｅ,,その他の設立登記法人,栃木県,芳賀郡市貝町,大字上根４４０番地１,,09,344,3213424,,,,,,,2022-04-13,1,,,,,デリシャスタイム,0
1128,4080001024879,新規,0,2022-04-13,2022-04-13,杉山土木株式会社,,株式会社,静岡県,静岡市葵区,千代田１丁目１番２１－６号,,22,101,4200803,,,,,,,2022-04-13,1,,,,,スギヤマドボク,0
1168,4120001245165,新規,0,2022-04-13,2022-04-13,株式会社アップスタート,,株式会社,大阪府,大阪市生野区,小路東１丁目２０番２５号,,27,116,5440003,,,,,,,2022-04-13,1,,,,,アップスタート,0
1169,4120001245207,新規,0,2022-04-13,2022-04-13,株式会社エンパシー,,株式会社,大阪府,大阪市城東区,蒲生２丁目２番４３－４１０号,,27,118,5360016,,,,,,,2022-04-13,1,,,,,エンパシー,0
1170,4120001245215,新規,0,2022-04-13,2022-04-13,株式会社シンシア,,株式会社,大阪府,大阪市天王寺区,生玉前町３番３－２０１号,,27,109,5430072,,,,,,,2022-04-13,1,,,,,シンシア,0
1171,4120001245223,新規,0,2022-04-13,2022-04-13,株式会社ｔｅｎ　ｃｏｌｌｅｃｔ,,株式会社,大阪府,大阪市天王寺区,大道５丁目３番４号,,27,109,5430052,,,,,,,2022-04-13,1,,,,,テンコレクト,0
1172,4120001245231,新規,0,2022-04-13,2022-04-13,株式会社九思,,株式会社,大阪府,大阪市浪速区,恵美須東１丁目５番１５号パークハイツ３０６,,27,111,5560002,,,,,,,2022-04-13,1,,,,,キュウシ,0
1175,4120003021473,新規,0,2022-04-13,2022-04-13,合同会社日本映像制作,,合同会社,大阪府,大阪市中央区,天満橋京町２番１５号７Ｆ,,27,128,5400032,,,,,,,2022-04-13,1,,,,,ニホンエイゾウセイサク,0
1176,4120003021481,新規,0,2022-04-13,2022-04-13,イーバイス合同会社,,合同会社,大阪府,大阪市生野区,中川４丁目１５番６号,,27,116,5440005,,,,,,,2022-04-13,1,,,,,イーバイス,0
1177,4120005022899,新規,0,2022-04-13,2022-04-13,弁理士法人ＴＮＫアジア国際特許事務所,,その他の設立登記法人,大阪府,大阪市北区,東天満２丁目９番４号千代田ビル東館６階,,27,127,5300044,,,,,,,2022-04-13,1,,,,,ティエヌケイアジアコクサイトッキョジムショ,0
1179,4120101065380,新規,0,2022-04-13,2022-04-13,株式会社大心グループ,,株式会社,大阪府,堺市南区,美木多上１－２,,27,145,5900136,,,,,,,2022-04-13,1,,,,,ダイシングループ,0
1182,4120103004659,新規,0,2022-04-13,2022-04-13,合同会社オフィス黎明,,合同会社,大阪府,岸和田市,大町３７１番地の５,,27,202,5960812,,,,,,,2022-04-13,1,,,,,オフィスレイメイ,0
1189,4130001071536,新規,0,2022-04-13,2022-04-13,株式会社Ｇ‐ｏｎｅ,,株式会社,京都府,京都市中京区,麩屋町通御池上る上白山町２５２番地グランドメゾン京都御池通１００８号室,,26,104,6040943,,,,,,,2022-04-13,1,,,,,ジーワン,0
1191,4130003007876,新規,0,2022-04-13,2022-04-13,合同会社ｄｅ,,合同会社,京都府,京都市左京区,東大路孫橋上る南門前町５３２番地６,,26,103,6068346,,,,,,,2022-04-13,1,,,,,ディーイー,0
1200,4150001025457,新規,0,2022-04-13,2022-04-13,Ｔｓ　ｆａｃｔｏｒｙ株式会社,,株式会社,奈良県,葛城市,林堂１００番地９,,29,211,6392131,,,,,,,2022-04-13,1,,,,,ティエスファクトリー,0
1203,4160003002544,新規,0,2022-04-13,2022-04-13,エムパーク合同会社,,合同会社,滋賀県,大津市,荒川５―５アーバンプラザ３０８,,25,201,5200513,,,,,,,2022-04-13,1,,,,,エムパーク,0
1204,4170001017048,新規,0,2022-04-13,2022-04-13,株式会社セブズ,,株式会社,和歌山県,西牟婁郡白浜町,３２０７番地の８,,30,401,6492211,,,,,,,2022-04-13,1,,,,,セブズ,0
1207,4180001150863,新規,0,2022-04-13,2022-04-13,株式会社ｂｅｌｌｗｅｌｌ,,株式会社,愛知県,名古屋市中村区,名駅１丁目１－１,,23,105,4500002,,,,,,,2022-04-13,1,,,,,ベルウェル,0
1214,4200005013320,新規,0,2022-04-13,2022-04-13,特定非営利活動法人瑞浪福祉事業支援友の会,,その他の設立登記法人,岐阜県,瑞浪市,山田町３３５番地の８,,21,208,5096104,,,,,,,2022-04-13,1,,,,,ミズナミフクシジギョウシエントモノカイ,0
1221,4230001019310,新規,0,2022-04-13,2022-04-13,ＦＳホールディングス株式会社,,株式会社,富山県,下新川郡入善町,新屋２３５２番地１,,16,342,9390637,,,,,,,2022-04-13,1,,,,,エフエスホールディングス,0
1222,4230001019319,新規,0,2022-04-13,2022-04-13,株式会社栄進建設,,株式会社,富山県,黒部市,石田６５１７番地１２,,16,207,9380059,,,,,,,2022-04-13,1,,,,,エイシンケンセツ,0
1226,4250001019498,新規,0,2022-04-13,2022-04-13,Ｗｏｎｄｅｒｗａｌｌ株式会社,,株式会社,山口県,宇部市,大字東須恵３４８４番地１,,35,202,7590206,,,,,,,2022-04-13,1,,,,,ワンダーウォール,0
1235,4260005011062,新規,0,2022-04-13,2022-04-13,一般社団法人おかやまクリーンエネルギー協会,,その他の設立登記法人,岡山県,岡山市中区,桑野５２５番地８４,,33,102,7028002,,,,,,,2022-04-13,1,,,,,オカヤマクリーンエネルギーキョウカイ,0
1239,4290001097103,新規,0,2022-04-13,2022-04-13,Ｒｅｌｅａｓｅ株式会社,,株式会社,福岡県,福岡市中央区,天神２丁目３番１０号,,40,133,8100001,,,,,,,2022-04-13,1,,,,,リリース,0
1240,4290001097177,新規,0,2022-04-13,2022-04-13,株式会社エナジーアークス,,株式会社,福岡県,福岡市東区,千早４丁目２１番５５－３１２２号,,40,131,8130044,,,,,,,2022-04-13,1,,,,,エナジーアークス,0
1241,4290001097185,新規,0,2022-04-13,2022-04-13,おとの香株式会社,,株式会社,福岡県,福岡市博多区,博多駅前２丁目１９番１７号トーカン博多第５ビル３１２号室,,40,132,8120011,,,,,,,2022-04-13,1,,,,,オトノカ,0
1250,4290801028414,新規,0,2022-04-13,2022-04-13,株式会社ムーブオンアップ,,株式会社,福岡県,北九州市小倉北区,米町１丁目１－１,,40,106,8020003,,,,,,,2022-04-13,1,,,,,ムーブオンアップ,0
1251,4290801028439,新規,0,2022-04-13,2022-04-13,株式会社いろは,,株式会社,福岡県,北九州市八幡西区,中の原３丁目７番３５号,,40,109,8070078,,,,,,,2022-04-13,1,,,,,イロハ,0
1257,4300003001820,新規,0,2022-04-13,2022-04-13,海風フーズ合同会社,,合同会社,佐賀県,唐津市,鎮西町横竹８１２番地１,,41,202,8470321,,,,,,,2022-04-13,1,,,,,ウミカゼフーズ,0
1261,4340001024646,新規,0,2022-04-13,2022-04-13,株式会社Ｔｈｅ　Ｋ　Ｒｅｓｏｒｔ,,株式会社,鹿児島県,大島郡龍郷町,赤尾木１７３２番地２,,46,527,8940411,,,,,,,2022-04-13,1,,,,,ザケイリゾート,0
1264,4350003004059,新規,0,2022-04-13,2022-04-13,合同会社金木犀,,合同会社,宮崎県,都城市,吉尾町２０４４番地３,,45,202,8850006,,,,,,,2022-04-13,1,,,,,キンモクセイ,0
1265,4360001030262,新規,0,2022-04-13,2022-04-13,エボーブ株式会社,,株式会社,沖縄県,糸満市,字北波平３８４番地の１,,47,210,9010312,,,,,,,2022-04-13,1,,,,,エボーブ,0
1268,4370001048436,新規,0,2022-04-13,2022-04-13,株式会社Ａ’ｓ‐ｓｔｙｌｅ,,株式会社,宮城県,仙台市泉区,高玉町１１番地の１パークシティ泉中央セントラル１１２,,04,105,9813116,,,,,,,2022-04-13,1,,,,,エーズスタイル,0
1278,4420001017807,新規,0,2022-04-13,2022-04-13,株式会社びびっと,,株式会社,青森県,つがる市,木造越水高砂５８番地,,02,209,0382806,,,,,,,2022-04-13,1,,,,,ビビット,0
1285,4430001086347,新規,0,2022-04-13,2022-04-13,ケーエムシーリング株式会社,,株式会社,北海道,江別市,野幌寿町７番地の１１,,01,217,0690802,,,,,,,2022-04-13,1,,,,,ケーエムシーリング,0
1286,4430001086388,新規,0,2022-04-13,2022-04-13,ビシャモ株式会社,,株式会社,北海道,石狩市,花川北二条６丁目１７番地,,01,235,0613212,,,,,,,2022-04-13,1,,,,,ビシャモ,0
1293,4430003013803,新規,0,2022-04-13,2022-04-13,合同会社ＢＯＤＹ　ＭＩＮＤ　ＳＯＵＬ　ＪＡＰＡＮ,,合同会社,北海道,苫小牧市,日新町６丁目１番１７号,,01,213,0530833,,,,,,,2022-04-13,1,,,,,ボディマインドソウルジャパン,0
1296,4440005002720,新規,0,2022-04-13,2022-04-13,医療法人社団昭和皮膚科クリニック,,その他の設立登記法人,北海道,函館市,昭和１丁目２９番７号昭和タウンプラザＡ館２Ｆ,,01,202,0410812,,,,,,,2022-04-13,1,,,,,ショウワヒフカクリニック,0
1297,4460001005683,新規,0,2022-04-13,2022-04-13,株式会社Ｔｈｅ　Ｗｈｉｔｅ,,株式会社,北海道,白糠郡白糠町,大楽毛３１番地１９７,,01,668,0880561,,,,,,,2022-04-13,1,,,,,ザホワイト,0
1306,4500001024142,新規,0,2022-04-13,2022-04-13,株式会社一翔,,株式会社,愛媛県,伊予市,下吾川１１２３番地２５,,38,210,7993111,,,,,,,2022-04-13,1,,,,,イッショウ,0
1308,4700150107751,新規,0,2022-04-13,2022-04-11,神戸活動写真商会　港館,,その他,兵庫県,神戸市東灘区,御影本町６丁目６－２,,28,101,6580046,,,,,,,2022-04-11,1,,,,,コウベカツドウシヤシンシヨウカイミナトカン,0
1312,5010001225680,新規,0,2022-04-13,2022-04-13,株式会社ＲＥＷＲＩＴＥ,,株式会社,東京都,中央区,八丁堀３丁目４番１２号京丸ビル５階,,13,102,1040032,,,,,,,2022-04-13,1,,,,,リライト,0
1313,5010001225697,新規,0,2022-04-13,2022-04-13,大和デベロップメント株式会社,,株式会社,東京都,千代田区,内幸町１丁目１番１号帝国ホテルタワー１６階,,13,101,1000011,,,,,,,2022-04-13,1,,,,,ダイワデベロップメント,0
1314,5010001225763,新規,0,2022-04-13,2022-04-13,株式会社ＢｏｄｙＶｏｉｃｅ,,株式会社,東京都,千代田区,鍛冶町１丁目１０番４号丸石ビルディング６階,,13,101,1010044,,,,,,,2022-04-13,1,,,,,ボディボイス,0
1315,5010001225870,新規,0,2022-04-13,2022-04-13,株式会社Ｓ＆Ｙプロパティ,,株式会社,東京都,中央区,晴海１丁目８番８号晴海トリトンスクエアオフィスタワーＷ１８階,,13,102,1040053,,,,,,,2022-04-13,1,,,,,エスアンドワイプロパティ,0
1319,5010005034871,新規,0,2022-04-13,2022-04-13,一般社団法人デザイン人類学ラボ,,その他の設立登記法人,東京都,千代田区,内幸町１丁目３番３号,,13,101,1000011,,,,,,,2022-04-13,1,,,,,デザインジンルイガクラボ,0
1324,5010403027436,新規,0,2022-04-13,2022-04-13,合同会社レジェンドシップ,,合同会社,東京都,港区,南青山２丁目２番１５号,,13,103,1070062,,,,,,,2022-04-13,1,,,,,,0
1325,5010403027469,新規,0,2022-04-13,2022-04-13,合同会社逆旅出版,,合同会社,東京都,港区,南青山２丁目２番１５号,,13,103,1070062,,,,,,,2022-04-13,1,,,,,ゲキリョシュッパン,0
1328,5010405020892,新規,0,2022-04-13,2022-04-13,一般社団法人マナー＆プロトコル・日本伝統文化普及協会,,その他の設立登記法人,東京都,港区,元赤坂１丁目７番１０号,,13,103,1070051,,,,,,,2022-04-13,1,,,,,マナーアンドプロトコルニホンデントウブンカフキュウキョウカイ,0
1331,5010501048697,新規,0,2022-04-13,2022-04-13,株式会社グラフィカ・ワン,,株式会社,東京都,台東区,浅草橋５丁目８－１１大富ビル２階,,13,106,1110053,,,,,,,2022-04-13,1,,,,,グラフィカワン,0
1332,5010501048706,新規,0,2022-04-13,2022-04-13,奥森国際貿易株式会社,,株式会社,東京都,台東区,台東２丁目２７番３号ＮＳＫビル１０Ｆ,,13,106,1100016,,,,,,,2022-04-13,1,,,,,オクモリコクサイボウエキ,0
1339,5010701042500,新規,0,2022-04-13,2022-04-13,株式会社Ｏｐｅｒａｔｉｏｎ　Ｄｅｓｉｇｎ,,株式会社,東京都,品川区,上大崎３丁目５番２号リードシー目黒イーストビル５階,,13,109,1410021,,,,,,,2022-04-13,1,,,,,オペレーションデザイン,0
1343,5010803004118,新規,0,2022-04-13,2022-04-13,プラグイン合同会社,,合同会社,東京都,大田区,西蒲田７丁目６７番１４号,,13,111,1440051,,,,,,,2022-04-13,1,,,,,プラグイン,0
1344,5010803004134,新規,0,2022-04-13,2022-04-13,合同会社グランボレ,,合同会社,東京都,大田区,田園調布本町３８番１９号,,13,111,1450072,,,,,,,2022-04-13,1,,,,,グランボレ,0
1347,5010901050699,新規,0,2022-04-13,2022-04-13,株式会社ＩＮＳｑｕａｒｅ,,株式会社,東京都,世田谷区,代田４丁目８番９号,,13,112,1550033,,,,,,,2022-04-13,1,,,,,アイエヌスクウェア,0
1349,5010903007301,新規,0,2022-04-13,2022-04-13,合同会社レインボーライフ,,合同会社,東京都,世田谷区,駒沢２丁目１８番２６号ガーデンテラス駒沢９号棟,,13,112,1540012,,,,,,,2022-04-13,1,,,,,レインボーライフ,0
1353,5011003014510,新規,0,2022-04-13,2022-04-13,合同会社Ｔｈｅ　Ｂｏｏ,,合同会社,東京都,渋谷区,富ヶ谷１丁目９－２１トーシンフェニックス代々木公園７０１,,13,113,1510063,,,,,,,2022-04-13,1,,,,,ザブー,0
1366,5011303004376,新規,0,2022-04-13,2022-04-13,合同会社ａｎｏｄｅｓｉｇｎ,,合同会社,東京都,杉並区,久我山３丁目２－２１コーポ芳苑１０１,,13,115,1680082,,,,,,,2022-04-13,1,,,,,アノードサイン,0
1368,5011401024160,新規,0,2022-04-13,2022-04-13,株式会社ＡＩ　ｔｒａｎｓｐｏｒｔａｔｉｏｎ,,株式会社,東京都,板橋区,仲宿１２－１２,,13,119,1730005,,,,,,,2022-04-13,1,,,,,エーアイトランスポーテーション,0
1377,5011801040526,新規,0,2022-04-13,2022-04-13,ＶＩＶＡ株式会社,,株式会社,東京都,葛飾区,青戸３丁目３７番６号サザンビル３０２号室,,13,122,1250062,,,,,,,2022-04-13,1,,,,,ビバ,0
1379,5011805003165,新規,0,2022-04-13,2022-04-13,特定非営利活動法人葛飾区聴力障害者協会,,その他の設立登記法人,東京都,葛飾区,西新小岩３丁目４１番１０号依田方,,13,122,1240025,,,,,,,2022-04-13,1,,,,,カツシカクチョウリョクショウガイシャキョウカイ,0
1384,5012403005322,新規,0,2022-04-13,2022-04-13,合同会社アロー,,合同会社,東京都,多摩市,一ノ宮２丁目６番地３９ＩＭビル２・３Ｆ,,13,224,2060002,,,,,,,2022-04-13,1,,,,,アロー,0
1387,5012803002753,新規,0,2022-04-13,2022-04-13,かなゆマン合同会社,,合同会社,東京都,日野市,落川５１６番地の１,,13,212,1910034,,,,,,,2022-04-13,1,,,,,カナユマン,0
1389,5012805003106,新規,0,2022-04-13,2022-04-13,一般社団法人イーライフ交通,,その他の設立登記法人,東京都,日野市,日野本町３丁目８番地２,,13,212,1910011,,,,,,,2022-04-13,1,,,,,イーライフコウツウ,0
1392,5013303006121,新規,0,2022-04-13,2022-04-13,合同会社コタケヨウスケ,,合同会社,東京都,豊島区,高松３丁目９番１３号ハイツグレース２０５,,13,116,1710042,,,,,,,2022-04-13,1,,,,,コタケヨウスケ,0
1396,5020001146075,新規,0,2022-04-13,2022-04-13,ユースフルパートナー株式会社,,株式会社,神奈川県,横浜市中区,桜木町１丁目１番７号ヒューリックみなとみらい１０階,,14,104,2310062,,,,,,,2022-04-13,1,,,,,ユースフルパートナー,0
1402,5020003021607,新規,0,2022-04-13,2022-04-13,合同会社屋満喜ホーム,,合同会社,神奈川県,横浜市港北区,樽町２丁目８番１６－３０７号,,14,109,2220001,,,,,,,2022-04-13,1,,,,,ヤマキホーム,0
1409,5021001075594,新規,0,2022-04-13,2022-04-13,株式会社石栗啓介建築設計事務所,,株式会社,神奈川県,相模原市中央区,千代田２丁目２番１５－６０４号,,14,152,2520237,,,,,,,2022-04-13,1,,,,,イシクリケイスケケンチクセッケイジムショ,0
1420,5030001147733,新規,0,2022-04-13,2022-04-13,株式会社リツ,,株式会社,埼玉県,越谷市,宮本町２丁目１８－３,,11,222,3430806,,,,,,,2022-04-13,1,,,,,リツ,0
1423,5030003019179,新規,0,2022-04-13,2022-04-13,合同会社スターロータス,,合同会社,埼玉県,蓮田市,御前橋１丁目３－３,,11,238,3490125,,,,,,,2022-04-13,1,,,,,,0
1424,5030005020804,新規,0,2022-04-13,2022-04-13,医療法人なかむら耳鼻咽喉科クリニック,,その他の設立登記法人,埼玉県,さいたま市北区,土呂町２丁目１２番地２０コスモスクエア３階,,11,102,3310804,,,,,,,2022-04-13,1,,,,,ナカムラジビインコウカクリニック,0
1430,5040001122974,新規,0,2022-04-13,2022-04-13,株式会社ＧＩＦＴ,,株式会社,千葉県,袖ケ浦市,大曽根１０９８番地２,,12,229,2990253,,,,,,,2022-04-13,1,,,,,ギフト,0
1431,5040001122982,新規,0,2022-04-13,2022-04-13,株式会社マイレボ,,株式会社,千葉県,我孫子市,本町１丁目３番２９号１Ｆ,,12,222,2701151,,,,,,,2022-04-13,1,,,,,マイレボ,0
1432,5040001122999,新規,0,2022-04-13,2022-04-13,ＩＲＩＥ　ＬＩＦＥ株式会社,,株式会社,千葉県,千葉市若葉区,西都賀４丁目１０番１１号,,12,104,2640026,,,,,,,2022-04-13,1,,,,,アイリーライフ,0
1443,5060003004021,新規,0,2022-04-13,2022-04-13,合同会社アルスハーモニー,,合同会社,栃木県,塩谷郡塩谷町,大字熊ノ木１４３２番地３１,,09,384,3292213,,,,,,,2022-04-13,1,,,,,,0
1444,5060005009968,新規,0,2022-04-13,2022-04-13,医療法人清雄会,,その他の設立登記法人,栃木県,宇都宮市,宿郷２丁目８番５号,,09,201,3210945,,,,,,,2022-04-13,1,,,,,セイユウカイ,0
1460,5100003006500,新規,0,2022-04-13,2022-04-13,合同会社ＭＣＥ,,合同会社,長野県,飯田市,下久堅下虎岩５９－１,,20,205,3992602,,,,,,,2022-04-13,1,,,,,エムシーイー,0
1463,5110001036564,新規,0,2022-04-13,2022-04-13,ＭＫ．クリエイト株式会社,,株式会社,新潟県,新潟市秋葉区,下新４３番地,,15,105,9560825,,,,,,,2022-04-13,1,,,,,エムケイクリエイト,0
1470,5110005016785,新規,0,2022-04-13,2022-04-13,特定非営利活動法人ｄｏみつけ,,その他の設立登記法人,新潟県,見附市,新町１丁目１１－３０,,15,211,9540057,,,,,,,2022-04-13,1,,,,,ドゥーミツケ,0
1488,5120001245156,新規,0,2022-04-13,2022-04-13,株式会社スウィープ・ジャパン,,株式会社,大阪府,大阪市此花区,高見１丁目３番３７ー１２０８号,,27,104,5540001,,,,,,,2022-04-13,1,,,,,スウィープジャパン,0
1491,5120003021489,新規,0,2022-04-13,2022-04-13,ヤラック合同会社,,合同会社,大阪府,大阪市浪速区,恵美須西３丁目１３－２８,,27,111,5560003,,,,,,,2022-04-13,1,,,,,ヤラック,0
1492,5120003021497,新規,0,2022-04-13,2022-04-13,合同会社ＳｅａＴｒｅｅ,,合同会社,大阪府,大阪市阿倍野区,万代１丁目２番１１号フォレストメゾン帝塚山１０３号,,27,119,5450036,,,,,,,2022-04-13,1,,,,,シーツリー,0
1495,5120101065371,新規,0,2022-04-13,2022-04-13,株式会社小島興業,,株式会社,大阪府,河内長野市,南青葉台２４番１５号,,27,216,5860067,,,,,,,2022-04-13,1,,,,,コジマコウギョウ,0
1497,5120103004658,新規,0,2022-04-13,2022-04-13,合同会社サザンクラリス,,合同会社,大阪府,泉南市,岡田７丁目１６６４－４８,,27,228,5900531,,,,,,,2022-04-13,1,,,,,サザンクラリス,0
1502,5120901045845,新規,0,2022-04-13,2022-04-13,株式会社カルム,,株式会社,大阪府,池田市,畑３丁目８番８－Ａ号（２０２）,,27,204,5630021,,,,,,,2022-04-13,1,,,,,カルム,0
1503,5120903004080,新規,0,2022-04-13,2022-04-13,合同会社レーヴェ,,合同会社,大阪府,豊中市,東豊中町６丁目１１－９シャレール東豊中８０３,,27,203,5600003,,,,,,,2022-04-13,1,,,,,レーヴェ,0
1504,5122001035743,新規,0,2022-04-13,2022-04-13,株式会社ＴＫカンパニー,,株式会社,大阪府,八尾市,志紀町南４丁目６８番地の１０,,27,212,5810033,,,,,,,2022-04-13,1,,,,,ティーケイカンパニー,0
1511,5130005016437,新規,0,2022-04-13,2022-04-13,一般社団法人京丹後市スポーツ協会,,その他の設立登記法人,京都府,京丹後市,峰山町杉谷１０３０番地,,26,212,6270012,,,,,,,2022-04-13,1,,,,,キョウタンゴシスポーツキョウカイ,0
1524,5160001024119,新規,0,2022-04-13,2022-04-13,株式会社ＰＣ‐ＦＬＡＴ,,株式会社,滋賀県,守山市,梅田町１０番１１号,,25,207,5240037,,,,,,,2022-04-13,1,,,,,ピーシーフラット,0
1532,5180001150870,新規,0,2022-04-13,2022-04-13,株式会社ハウスドクター,,株式会社,愛知県,あま市,森６丁目１３番地３,,23,237,4901107,,,,,,,2022-04-13,1,,,,,ハウスドクター,0
1533,5180001150895,新規,0,2022-04-13,2022-04-13,ＫＭ株式会社,,株式会社,愛知県,半田市,新居町３丁目１６番地,,23,205,4750039,,,,,,,2022-04-13,1,,,,,ケーエム,0
1536,5180003023703,新規,0,2022-04-13,2022-04-13,合同会社Ｗｅｌｌ‐Ｒｏｕｎｄｅｄ,,合同会社,愛知県,稲沢市,国府宮１丁目３番４１号,,23,220,4928137,,,,,,,2022-04-13,1,,,,,ウェルラウンデッド,0
1538,5180005019716,新規,0,2022-04-13,2022-04-13,特定非営利活動法人愛知県レクリエーション協会,,その他の設立登記法人,愛知県,名古屋市中区,二の丸１番１号愛知県体育館内,,23,106,4600032,,,,,,,2022-04-13,1,,,,,アイチケンレクリエーションキョウカイ,0
1540,5190001029313,新規,0,2022-04-13,2022-04-13,株式会社ユーサン,,株式会社,三重県,四日市市,大字羽津１０１８番地１１,,24,202,5100012,,,,,,,2022-04-13,1,,,,,ユーサン,0
1545,5200005013328,新規,0,2022-04-13,2022-04-13,特定非営利活動法人あんじゅ,,その他の設立登記法人,岐阜県,岐阜市,下鵜飼１６７８番３５,,21,201,5011172,,,,,,,2022-04-13,1,,,,,アンジュ,0
1549,5230001019318,新規,0,2022-04-13,2022-04-13,中川パイピング株式会社,,株式会社,富山県,富山市,今市５６０番地５・Ｍ－１２,,16,201,9302221,,,,,,,2022-04-13,1,,,,,ナカガワパイピング,0
1558,5240001059619,新規,0,2022-04-13,2022-04-13,株式会社Ｒｅ,,株式会社,広島県,広島市安佐南区,緑井８丁目１３番４２号,,34,105,7310103,,,,,,,2022-04-13,1,,,,,アールイー,0
1560,5240005015378,新規,0,2022-04-13,2022-04-13,一般社団法人西日本建物協会,,その他の設立登記法人,広島県,広島市中区,江波南２丁目９番３７号,,34,101,7300835,,,,,,,2022-04-13,1,,,,,ニシニホンタテモノキョウカイ,0
1564,5260001036748,新規,0,2022-04-13,2022-04-13,株式会社那岐研,,株式会社,岡山県,美作市,真加部１１０１番地,,33,215,7070113,,,,,,,2022-04-13,1,,,,,ナギケン,0
1575,5290001097119,新規,0,2022-04-13,2022-04-13,株式会社Ｂｒａｃｅ,,株式会社,福岡県,福岡市早良区,原４丁目１６番２８号,,40,137,8140022,,,,,,,2022-04-13,1,,,,,ブレイス,0
1576,5290001097127,新規,0,2022-04-13,2022-04-13,株式会社Ｄｅコネクト,,株式会社,福岡県,糸島市,波多江６０２,,40,230,8191104,,,,,,,2022-04-13,1,,,,,ディーコネクト,0
1577,5290001097143,新規,0,2022-04-13,2022-04-13,株式会社バーンズ,,株式会社,福岡県,みやま市,山川町河原内１０１３番地１,,40,229,8350104,,,,,,,2022-04-13,1,,,,,バーンズ,0
1578,5290001097184,新規,0,2022-04-13,2022-04-13,株式会社Ｒｉｃｈｅ,,株式会社,福岡県,古賀市,花鶴丘１丁目５番２,,40,223,8113104,,,,,,,2022-04-13,1,,,,,リッシュ,0
1583,5290805009541,新規,0,2022-04-13,2022-04-13,医療法人Ｓｍｉｌｅ　Ｄｅｓｉｇｎ,,その他の設立登記法人,福岡県,北九州市小倉北区,井堀３丁目２番１号,,40,106,8030835,,,,,,,2022-04-13,1,,,,,スマイルデザイン,0
1584,5300001012884,新規,0,2022-04-13,2022-04-13,株式会社ロコ,,株式会社,佐賀県,鳥栖市,水屋町１６２４サンマリノ水屋町６号,,41,203,8410043,,,,,,,2022-04-13,1,,,,,ロコ,0
1588,5320001019011,新規,0,2022-04-13,2022-04-13,株式会社森企画,,株式会社,大分県,大分市,横塚１丁目１３番２７号,,44,201,8700254,,,,,,,2022-04-13,1,,,,,モリキカク,0
1593,5330003009331,新規,0,2022-04-13,2022-04-13,合同会社ｃｏＢｉｇ,,合同会社,熊本県,熊本市北区,楠２丁目１番２５号,,43,105,8618003,,,,,,,2022-04-13,1,,,,,コビッグ,0
1602,5350005006060,新規,0,2022-04-13,2022-04-13,一般社団法人日本自転車プロジェクト協会,,その他の設立登記法人,宮崎県,西都市,大字右松１９６８番地１,,45,208,8810003,,,,,,,2022-04-13,1,,,,,ニッポンジテンシャプロジェクトキョウカイ,0
1603,5360001030237,新規,0,2022-04-13,2022-04-13,株式会社ＴＭＧ,,株式会社,沖縄県,うるま市,字栄野比９９６番地２メゾンＯｎｅ’ｓ良３０２,,47,213,9042205,,,,,,,2022-04-13,1,,,,,ティエムジー,0
1604,5360003011937,新規,0,2022-04-13,2022-04-13,合同会社新里組,,合同会社,沖縄県,石垣市,字石垣２６１番地,,47,207,9070023,,,,,,,2022-04-13,1,,,,,シンザトグミ,0
1607,5370001048443,新規,0,2022-04-13,2022-04-13,マルヨシ株式会社,,株式会社,宮城県,柴田郡川崎町,大字前川字北原７番地１,,04,324,9891501,,,,,,,2022-04-13,1,,,,,マルヨシ,0
1613,5380001032743,新規,0,2022-04-13,2022-04-13,株式会社オフィス郡山,,株式会社,福島県,郡山市,安積町成田字北ノ内２３番地の２,,07,203,9630112,,,,,,,2022-04-13,1,,,,,オフィスコオリヤマ,0
1633,5430003013785,新規,0,2022-04-13,2022-04-13,合同会社ＦａｍＴｉｐ,,合同会社,北海道,苫小牧市,美原町２丁目１４番地１３,,01,213,0591262,,,,,,,2022-04-13,1,,,,,ファムティップ,0
1634,5430003013793,新規,0,2022-04-13,2022-04-13,合同会社ＮＡＨＯＫＹ,,合同会社,北海道,札幌市西区,西野六条１０丁目４番８号,,01,107,0630036,,,,,,,2022-04-13,1,,,,,ナホーキー,0
1635,5430003013802,新規,0,2022-04-13,2022-04-13,Ｌｉａ合同会社,,合同会社,北海道,登別市,美園町６丁目２０番３号,,01,230,0590036,,,,,,,2022-04-13,1,,,,,リア,0
1636,5430005014443,新規,0,2022-04-13,2022-04-13,医療法人社団良恵会,,その他の設立登記法人,北海道,札幌市厚別区,厚別西二条４丁目２番１０号アクティブプラザ厚別西１階,,01,108,0040062,,,,,,,2022-04-13,1,,,,,リョウケイカイ,0
1645,5480003001819,新規,0,2022-04-13,2022-04-13,合同会社カーエステ拓陽技研,,合同会社,徳島県,阿南市,下大野町松ノ本５１番地１,,36,204,7740047,,,,,,,2022-04-13,1,,,,,カーエステタクハルギケン,0
1649,5700150107940,新規,0,2022-04-13,2022-04-13,ＴＥＣＨ－ＳＯＮＩＣ，ＩＮＣ．,,外国会社等,神奈川県,川崎市麻生区,上麻生２丁目２６番２８号森ビル１Ｆ,,14,137,2150021,アメリカ合衆国オハイオ州コロンバス市ソーブリー大通り２７１０,,,,,,2022-04-13,1,,,,,テツクソニツクインク,0
1659,6010001225696,新規,0,2022-04-13,2022-04-13,大和クリーンエナジー株式会社,,株式会社,東京都,千代田区,内幸町１丁目１番１号帝国ホテルタワー１６階,,13,101,1000011,,,,,,,2022-04-13,1,,,,,ダイワクリーンエナジー,0
1660,6010001225886,新規,0,2022-04-13,2022-04-13,株式会社ＡＭＡＴＥＲＡＳ,,株式会社,東京都,中央区,日本橋久松町４番３－３０３号,,13,102,1030005,,,,,,,2022-04-13,1,,,,,アマテラス,0
1663,6010003037479,新規,0,2022-04-13,2022-04-13,合同会社ＧＬマネジメント,,合同会社,東京都,中央区,新川１丁目２８番７号,,13,102,1040033,,,,,,,2022-04-13,1,,,,,ジーエルマネジメント,0
1666,6010005034846,新規,0,2022-04-13,2022-04-13,行政書士法人みかさ法務,,その他の設立登記法人,東京都,千代田区,神田須田町１丁目１８番６号,,13,101,1010041,,,,,,,2022-04-13,1,,,,,ミカサホウム,0
1667,6010005034862,新規,0,2022-04-13,2022-04-13,特定非営利活動法人ＡＫＳＩ　ＣＥＰＡＴ　ＴＡＮＧＧＡＰ　ＪＡＰＡＮ,,その他の設立登記法人,東京都,中央区,新川２丁目１３番１１号内田ビル４階,,13,102,1040033,,,,,,,2022-04-13,1,,,,,アクシチェパトタンガップジャパン,0
1668,6010005034879,新規,0,2022-04-13,2022-04-13,一般社団法人Ｔｒａｎｓｃｅｎｄｅｎｔａｌ　Ｃｏｒｐｏｒａｔｅ　Ｆｉｅｌｄ　Ａｓｓｏｃｉａｔｉｏｎ,,その他の設立登記法人,東京都,千代田区,大手町１丁目７番２号,,13,101,1000004,,,,,,,2022-04-13,1,,,,,トランセンデンタルコーポレートフィールドアソシエーション,0
1675,6010401166821,新規,0,2022-04-13,2022-04-13,株式会社ＰＯＮ,,株式会社,東京都,港区,六本木７丁目１３番８号六本木フュージョンビル地下１階,,13,103,1060032,,,,,,,2022-04-13,1,,,,,ポン,0
1677,6010403027451,新規,0,2022-04-13,2022-04-13,合同会社Ｆｏｎｓｏ,,合同会社,東京都,港区,虎ノ門５丁目１番４号,,13,103,1050001,,,,,,,2022-04-13,1,,,,,フォンソ,0
1678,6010403027468,新規,0,2022-04-13,2022-04-13,合同会社ＺＺＯＯ　ＬＡＢ,,合同会社,東京都,港区,北青山２丁目７番１３号プラセオ青山３Ｆ,,13,103,1070061,,,,,,,2022-04-13,1,,,,,ジゾーラボ,0
1685,6010501048671,新規,0,2022-04-13,2022-04-13,株式会社ジャパン・サイクル・インフィニティ,,株式会社,東京都,台東区,駒形１丁目１２番１４号,,13,106,1110043,,,,,,,2022-04-13,1,,,,,ジャパンサイクルインフィニティ,0
1687,6010601060972,新規,0,2022-04-13,2022-04-13,株式会社アールアイエー,,株式会社,東京都,墨田区,緑２丁目１３番１９号,,13,107,1300021,,,,,,,2022-04-13,1,,,,,アールアイエー,0
1691,6010701042499,新規,0,2022-04-13,2022-04-13,株式会社アブスト,,株式会社,東京都,品川区,上大崎２丁目１０番３４号,,13,109,1410021,,,,,,,2022-04-13,1,,,,,アブスト,0
1697,6010803004133,新規,0,2022-04-13,2022-04-13,イーアーキテクト合同会社,,合同会社,東京都,大田区,南雪谷５丁目１５番地１号５０７号室,,13,111,1450066,,,,,,,2022-04-13,1,,,,,イーアーキテクト,0
1700,6010903007300,新規,0,2022-04-13,2022-04-13,合同会社ＦＵＮＢＥＳＴ,,合同会社,東京都,世田谷区,砧６丁目２７番１９号,,13,112,1570073,,,,,,,2022-04-13,1,,,,,ファンベスト,0
1705,6011001146890,新規,0,2022-04-13,2022-04-13,ネクストヒューマン株式会社,,株式会社,東京都,渋谷区,松濤１丁目２８番２号,,13,113,1500046,,,,,,,2022-04-13,1,,,,,ネクストヒューマン,0
1706,6011001146908,新規,0,2022-04-13,2022-04-13,株式会社ＡＲＴＩＳＡＮ,,株式会社,東京都,渋谷区,富ヶ谷２丁目２０番１８号ルーブル渋谷松濤３１０,,13,113,1510063,,,,,,,2022-04-13,1,,,,,アルチザン,0
1707,6011003014476,新規,0,2022-04-13,2022-04-13,ＣＯＫＯ＆合同会社,,合同会社,東京都,渋谷区,渋谷２丁目１９－１５宮益坂ビルディング６０９,,13,113,1500002,,,,,,,2022-04-13,1,,,,,ココント,0
1708,6011003014526,新規,0,2022-04-13,2022-04-13,合同会社ＬＩＶＥＳ,,合同会社,東京都,渋谷区,道玄坂１丁目１０－８渋谷道玄坂東急ビル２Ｆ－Ｃ,,13,113,1500043,,,,,,,2022-04-13,1,,,,,ライブズ,0
1713,6011101098504,新規,0,2022-04-13,2022-04-13,三禾株式会社,,株式会社,東京都,新宿区,新宿６丁目２８番１１号ライオンズマンション１１０２号,,13,104,1600022,,,,,,,2022-04-13,1,,,,,ミカ,0
1714,6011101098529,新規,0,2022-04-13,2022-04-13,株式会社ロケハナ,,株式会社,東京都,新宿区,新宿６丁目２７番２９－２７１６号,,13,104,1600022,,,,,,,2022-04-13,1,,,,,ロケハナ,0
1715,6011103011662,新規,0,2022-04-13,2022-04-13,ＹＪ合同会社,,合同会社,東京都,新宿区,高田馬場１丁目１７番１８号ＳＴ高田馬場ビル２階,,13,104,1690075,,,,,,,2022-04-13,1,,,,,ワイジェイ,0
1717,6011301027709,新規,0,2022-04-13,2022-04-13,株式会社カツドン,,株式会社,東京都,杉並区,高円寺南５丁目１３番９号アイル中野２０６,,13,115,1660003,,,,,,,2022-04-13,1,,,,,カツドン,0
1723,6011801040582,新規,0,2022-04-13,2022-04-13,株式会社山内電設,,株式会社,東京都,足立区,綾瀬７丁目９番８－３０２号,,13,121,1200005,,,,,,,2022-04-13,1,,,,,ヤマウチデンセツ,0
1728,6012403005313,新規,0,2022-04-13,2022-04-13,ワイエービーエンターテインメント合同会社,,合同会社,東京都,府中市,北山町４丁目２５番地の５,,13,206,1830041,,,,,,,2022-04-13,1,,,,,ワイエービーエンターテインメント,0
1735,6020003021580,新規,0,2022-04-13,2022-04-13,ＫＯＮＳＥ合同会社,,合同会社,神奈川県,横浜市港南区,日野５丁目１番２５－５０１号,,14,111,2340051,,,,,,,2022-04-13,1,,,,,コンセ,0
1736,6020003021597,新規,0,2022-04-13,2022-04-13,合同会社Ｒｉｖａｇｅ,,合同会社,神奈川県,横浜市鶴見区,鶴見中央５丁目８番３－２０２号ネオマイム鶴見中央ゼクス,,14,101,2300051,,,,,,,2022-04-13,1,,,,,リヴァージュ,0
1737,6020005015449,新規,0,2022-04-13,2022-04-13,特定非営利活動法人文明多様性協会,,その他の設立登記法人,神奈川県,横浜市青葉区,千草台３９番地４,,14,117,2270051,,,,,,,2022-04-13,1,,,,,ブンメイタヨウセイキョウカイ,0
1743,6021001075684,新規,0,2022-04-13,2022-04-13,株式会社Ｍａｎｏａ,,株式会社,神奈川県,藤沢市,遠藤６３０番地１７,,14,205,2520816,,,,,,,2022-04-13,1,,,,,マノア,0
1745,6021003011596,新規,0,2022-04-13,2022-04-13,ＨＡＮＧ　ＬＯＯＳＥ　ＦＡＣＴＯＲＹ合同会社,,合同会社,神奈川県,藤沢市,羽鳥４丁目４番２９号,,14,205,2510056,,,,,,,2022-04-13,1,,,,,ハングルースファクトリー,0
1758,6030003019194,新規,0,2022-04-13,2022-04-13,合同会社フラット,,合同会社,埼玉県,朝霞市,本町２丁目１番２５号,,11,227,3510011,,,,,,,2022-04-13,1,,,,,フラット,0
1759,6030003019211,新規,0,2022-04-13,2022-04-13,合同会社新井コンサルティング,,合同会社,埼玉県,さいたま市岩槻区,西原４番５８号,,11,110,3390081,,,,,,,2022-04-13,1,,,,,アライコンサルティング,0
1768,6040003019862,新規,0,2022-04-13,2022-04-13,合同会社まつよん,,合同会社,千葉県,松戸市,五香３丁目１４－５,,12,207,2702213,,,,,,,2022-04-13,1,,,,,マツヨン,0
1769,6040005021569,新規,0,2022-04-13,2022-04-13,弁理士法人シアラシア,,その他の設立登記法人,千葉県,八千代市,緑が丘１丁目１１０６番地５,,12,221,2760049,,,,,,,2022-04-13,1,,,,,シアラシア,0
1792,6100005012842,新規,0,2022-04-13,2022-04-13,一般社団法人日本浄化協会,,その他の設立登記法人,長野県,飯田市,南信濃八重河内４３４,,20,205,3991312,,,,,,,2022-04-13,1,,,,,ニホンジョウカキョウカイ,0
1817,6120001245056,新規,0,2022-04-13,2022-04-13,株式会社Ｓａｌｕｓ,,株式会社,大阪府,大阪市中央区,平野町３丁目３－７ニューライフ平野町９０７,,27,128,5410046,,,,,,,2022-04-13,1,,,,,サルース,0
1818,6120001245163,新規,0,2022-04-13,2022-04-13,株式会社ＩＰＰｕＫ,,株式会社,大阪府,大阪市中央区,博労町１丁目４番９号５０４号室,,27,128,5410059,,,,,,,2022-04-13,1,,,,,イップク,0
1819,6120001245171,新規,0,2022-04-13,2022-04-13,Ｏｋｕｉｋｅ　Ｐｌａｙｇｒｏｕｎｄ株式会社,,株式会社,大阪府,大阪市中央区,本町橋６番２１号,,27,128,5400029,,,,,,,2022-04-13,1,,,,,オクイケプレイグラウンド,0
1820,6120001245196,新規,0,2022-04-13,2022-04-13,株式会社エムティ,,株式会社,大阪府,大阪市生野区,中川西１丁目１７－２１－Ｂ１,,27,116,5440032,,,,,,,2022-04-13,1,,,,,エムティ,0
1821,6120001245213,新規,0,2022-04-13,2022-04-13,株式会社レッドカーペット,,株式会社,大阪府,大阪市淀川区,十三東３丁目２１番９号,,27,123,5320023,,,,,,,2022-04-13,1,,,,,レッドカーペット,0
1822,6120001245221,新規,0,2022-04-13,2022-04-13,株式会社マイン,,株式会社,大阪府,寝屋川市,高柳２丁目１８番１－４０５号,,27,215,5720051,,,,,,,2022-04-13,1,,,,,マイン,0
1826,6120003021488,新規,0,2022-04-13,2022-04-13,ハイドロテクノ合同会社,,合同会社,大阪府,大阪市東淀川区,西淡路１丁目１番９－６０１号,,27,114,5330031,,,,,,,2022-04-13,1,,,,,ハイドロテクノ,0
1831,6120901045836,新規,0,2022-04-13,2022-04-13,株式会社グリーンワン,,株式会社,大阪府,豊中市,上新田４丁目３０番７－３０１号,,27,203,5600085,,,,,,,2022-04-13,1,,,,,グリーンワン,0
1832,6120901045844,新規,0,2022-04-13,2022-04-13,株式会社ＩＮＩＳＨＩＥ,,株式会社,大阪府,豊能郡能勢町,野間中７１８,,27,322,5630132,,,,,,,2022-04-13,1,,,,,イニシエ,0
1839,6122001035767,新規,0,2022-04-13,2022-04-13,オーエスポリマー株式会社,,株式会社,大阪府,東大阪市,衣摺４丁目２９番１５号,,27,227,5770827,,,,,,,2022-04-13,1,,,,,オーエスポリマー,0
1854,6140005026104,新規,0,2022-04-13,2022-04-13,一般社団法人ＫＧ　ＦＩＧＨＴＥＲＳ　ＣＬＵＢ,,その他の設立登記法人,兵庫県,西宮市,上ケ原山手町３番２７号,,28,204,6620885,,,,,,,2022-04-13,1,,,,,ケージーファイターズクラブ,0
1855,6150001025430,新規,0,2022-04-13,2022-04-13,株式会社栄山電設土木工業,,株式会社,奈良県,五條市,野原東５丁目１番３号,,29,207,6370038,,,,,,,2022-04-13,1,,,,,サキヤマデンセツドボクコウギョウ,0
1857,6170003001709,新規,0,2022-04-13,2022-04-13,合同会社ＯＶＥＲＦＬＯＷ,,合同会社,和歌山県,和歌山市,黒田２丁目５番２７－３０２号グリーンマンションＩＩ,00126266,30,201,6408341,,,,,,,2022-04-13,1,,,,,オーバーフロー,0
1859,6180001150663,新規,0,2022-04-13,2022-04-13,株式会社ＳＤＳグループ,,株式会社,愛知県,名古屋市港区,秋葉３丁目３番地,,23,111,4550857,,,,,,,2022-04-13,1,,,,,エスディーエスグループ,0
1860,6180001150878,新規,0,2022-04-13,2022-04-13,株式会社松岡サービス,,株式会社,愛知県,名古屋市中川区,下之一色町字南ノ切５３番地の４,,23,110,4540945,,,,,,,2022-04-13,1,,,,,マツオカサービス,0
1861,6180001150894,新規,0,2022-04-13,2022-04-13,イグアルファン株式会社,,株式会社,愛知県,名古屋市西区,名駅１丁目１番１７号名駅ダイヤメイテツビル１１階,,23,104,4510045,,,,,,,2022-04-13,1,,,,,イグアルファン,0
1875,6210001018881,新規,0,2022-04-13,2022-04-13,Ｇｒａｎｄｆａｒｍ株式会社,,株式会社,福井県,三方郡美浜町,新庄第７０号２番地の１,,18,442,9191144,,,,,,,2022-04-13,1,,,,,グランファーム,0
1882,6230001019317,新規,0,2022-04-13,2022-04-13,株式会社岡崎造園,,株式会社,富山県,富山市,婦中町袋２８３番地５,,16,201,9392755,,,,,,,2022-04-13,1,,,,,オカザキゾウエン,0
1889,6240003005586,新規,0,2022-04-13,2022-04-13,合同会社メドクリ,,合同会社,広島県,福山市,引野町１丁目２０－１５,,34,207,7210942,,,,,,,2022-04-13,1,,,,,メドクリ,0
1891,6250003003044,新規,0,2022-04-13,2022-04-13,八鈴宮合同会社,,合同会社,山口県,宇部市,松島町４番２－８０２号サーパス医大前第３,,35,202,7550042,,,,,,,2022-04-13,1,,,,,ヤスズノミヤ,0
1895,6270001008489,新規,0,2022-04-13,2022-04-13,株式会社久代林業,,株式会社,鳥取県,日野郡日南町,霞４２５番地６,,31,401,6895212,,,,,,,2022-04-13,1,,,,,クシロリンギョウ,0
1896,6280001008678,新規,0,2022-04-13,2022-04-13,株式会社エイト,,株式会社,島根県,出雲市,大塚町１３１１番地８,,32,203,6930063,,,,,,,2022-04-13,1,,,,,エイト,0
1904,6290001097183,新規,0,2022-04-13,2022-04-13,株式会社葉石コーポレーション,,株式会社,福岡県,朝倉市,山田２２７０,,40,228,8381306,,,,,,,2022-04-13,1,,,,,ハイシコーポレーション,0
1905,6290001097191,新規,0,2022-04-13,2022-04-13,株式会社Ｃｌｅｍｅｎｃｅ,,株式会社,福岡県,福岡市中央区,赤坂１丁目１１番１３号,,40,133,8100042,,,,,,,2022-04-13,1,,,,,クレマンス,0
1912,6300003001819,新規,0,2022-04-13,2022-04-13,合同会社北村商事,,合同会社,佐賀県,佐賀市,本庄町大字袋１２４番地１,,41,201,8400023,,,,,,,2022-04-13,1,,,,,キタムラショウジ,0
1917,6330003009330,新規,0,2022-04-13,2022-04-13,合同会社４６４,,合同会社,熊本県,宇土市,松山町８３９番地,,43,211,8690416,,,,,,,2022-04-13,1,,,,,ヨンロクヨン,0
1919,6340001024652,新規,0,2022-04-13,2022-04-13,株式会社河野タタミ商事,,株式会社,鹿児島県,熊毛郡南種子町,中之上２８３９番地１,,46,502,8913701,,,,,,,2022-04-13,1,,,,,カワノタタミショウジ,0
1920,6360001030194,新規,0,2022-04-13,2022-04-13,Ａｎａｎｔｈｙａ株式会社,,株式会社,沖縄県,うるま市,石川白浜２丁目２－２２－２Ｂ,,47,213,9041105,,,,,,,2022-04-13,1,,,,,アナンティア,0
1923,6370001048459,新規,0,2022-04-13,2022-04-13,株式会社Ｆｅｒ,,株式会社,宮城県,塩竈市,千賀の台３丁目３番１８号,,04,203,9850086,,,,,,,2022-04-13,1,,,,,フェール,0
1941,6430001086320,新規,0,2022-04-13,2022-04-13,株式会社ハイハット,,株式会社,北海道,北広島市,大曲末広１丁目１２番地７,,01,234,0611272,,,,,,,2022-04-13,1,,,,,ハイハット,0
1944,6430003013776,新規,0,2022-04-13,2022-04-13,北海道ケイ素合同会社,,合同会社,北海道,札幌市豊平区,水車町３丁目１番１号グランドハイツ１階,,01,105,0620912,,,,,,,2022-04-13,1,,,,,ホッカイドウケイソ,0
1945,6430003013801,新規,0,2022-04-13,2022-04-13,合同会社闘魂,,合同会社,北海道,札幌市東区,本町一条７丁目１番５－１０２号,,01,103,0650041,,,,,,,2022-04-13,1,,,,,トウコン,0
1946,6440001009057,新規,0,2022-04-13,2022-04-13,株式会社ヤマチョウグループ物流,,株式会社,北海道,函館市,広野町５番８号,,01,202,0420934,,,,,,,2022-04-13,1,,,,,ヤマチョウグループブツリュウ,0
1947,6440005002719,新規,0,2022-04-13,2022-04-13,医療法人社団五稜郭ネフロクリニック,,その他の設立登記法人,北海道,函館市,本通１丁目７番２０号,,01,202,0410851,,,,,,,2022-04-13,1,,,,,ゴリョウカクネフロクリニック,0
1951,6470001019037,新規,0,2022-04-13,2022-04-13,株式会社ｈｉ‐ｕｐ,,株式会社,香川県,高松市,多肥上町２１７４番地２,,37,201,7618076,,,,,,,2022-04-13,1,,,,,ハイアップ,0
1953,6480003001818,新規,0,2022-04-13,2022-04-13,合同会社ここに住まいる,,合同会社,徳島県,徳島市,不動東町４丁目１６９９番地,,36,201,7700062,,,,,,,2022-04-13,1,,,,,ココニスマイル,0
1962,6700150107832,新規,0,2022-04-13,2022-04-11,劇団血パンダ,,その他,富山県,氷見市,上田１１４３,,16,205,9350056,,,,,,,2022-04-11,1,,,,,ゲキダンチパンダ,0
1969,7010001225729,新規,0,2022-04-13,2022-04-13,楽菓珈株式会社,,株式会社,東京都,文京区,水道２丁目８番１号ハウザス小日向４０１,,13,105,1120005,,,,,,,2022-04-13,1,,,,,ラカカ,0
1970,7010001225786,新規,0,2022-04-13,2022-04-13,株式会社Ｍｕｓｉｃ　Ｈｅａｒｔｓ,,株式会社,東京都,中央区,銀座１丁目２２番１１号,,13,102,1040061,,,,,,,2022-04-13,1,,,,,ミュージックハーツ,0
1971,7010001225836,新規,0,2022-04-13,2022-04-13,ジーシーエル・シンファ半導体株式会社,,株式会社,東京都,中央区,佃２丁目１番１－３１１４号,,13,102,1040051,,,,,,,2022-04-13,1,,,,,ジーシーエルシンファハンドウタイ,0
1976,7010003037453,新規,0,2022-04-13,2022-04-13,合同会社みやび,,合同会社,東京都,中央区,日本橋浜町１丁目９番４－５１１号,,13,102,1030007,,,,,,,2022-04-13,1,,,,,ミヤビ,0
1980,7010401166606,新規,0,2022-04-13,2022-04-13,株式会社クローバーアーツ,,株式会社,東京都,港区,南青山３丁目１５番９号ＭＩＮＯＷＡ表参道３Ｆ,,13,103,1070062,,,,,,,2022-04-13,1,,,,,クローバーアーツ,0
1981,7010401166713,新規,0,2022-04-13,2022-04-13,株式会社ＨＲＶ,,株式会社,東京都,港区,高輪３丁目１０－３８ＴＩＭＥＣＡＭＰ高輪３０２,,13,103,1080074,,,,,,,2022-04-13,1,,,,,エイチアールヴイ,0
1982,7010401166787,新規,0,2022-04-13,2022-04-13,ＳＡＰＰＨＩＲＥ　ＰＡＲＴＮＥＲＳ株式会社,,株式会社,東京都,港区,北青山２丁目７－１３プラセオ青山ビル３階,,13,103,1070061,,,,,,,2022-04-13,1,,,,,サファイアパートナーズ,0
1986,7010403027450,新規,0,2022-04-13,2022-04-13,合同会社Ｖａｇｒａｎｔ,,合同会社,東京都,港区,虎ノ門５丁目１番４号,,13,103,1050001,,,,,,,2022-04-13,1,,,,,ベイグラント,0
1987,7010403027483,新規,0,2022-04-13,2022-04-13,合同会社Ｄｉａｐｈｒａｇｍ,,合同会社,東京都,港区,南青山２丁目２－１５,,13,103,1070062,,,,,,,2022-04-13,1,,,,,ダイヤフラム,0
2004,7010801032861,新規,0,2022-04-13,2022-04-13,株式会社東京蔵屋敷．ｃｏｍ,,株式会社,東京都,大田区,久が原３丁目３６番４号,,13,111,1460085,,,,,,,2022-04-13,1,,,,,トウキョウクラヤシキドットコム,0
2005,7010901050689,新規,0,2022-04-13,2022-04-13,株式会社Ａｄｖｅｎｔｕｒｅ　Ｍｏｄｅ,,株式会社,東京都,世田谷区,上馬２丁目１３番８号,,13,112,1540011,,,,,,,2022-04-13,1,,,,,アドベンチャーモード,0
2006,7010901050697,新規,0,2022-04-13,2022-04-13,株式会社ＯＨＬ,,株式会社,東京都,世田谷区,北沢３丁目３－９,,13,112,1550031,,,,,,,2022-04-13,1,,,,,オーエイチエル,0
2012,7011001146832,新規,0,2022-04-13,2022-04-13,株式会社ｋｕｓｈａｍｉ,,株式会社,東京都,渋谷区,代々木４丁目３９番１－４０５号,,13,113,1510053,,,,,,,2022-04-13,1,,,,,クシャミ,0
2013,7011001146931,新規,0,2022-04-13,2022-04-13,株式会社ＢＯＤＹ　ＷＯＲＫＳ,,株式会社,東京都,渋谷区,千駄ヶ谷１丁目３２番２号,,13,113,1510051,,,,,,,2022-04-13,1,,,,,ボディーワークス,0
2023,7011101098503,新規,0,2022-04-13,2022-04-13,株式会社ＳＴＯＲＭＩＥＳＴ,,株式会社,東京都,新宿区,歌舞伎町２丁目４５番２号カイダ第３ジャストビルＢ１Ｆ,,13,104,1600021,,,,,,,2022-04-13,1,,,,,ストーミスト,0
2024,7011101098528,新規,0,2022-04-13,2022-04-13,株式会社ｉｎｄｅｘ,,株式会社,東京都,新宿区,西早稲田１丁目６－３－２Ｆ,,13,104,1690051,,,,,,,2022-04-13,1,,,,,インデックス,0
2025,7011103011595,新規,0,2022-04-13,2022-04-13,合同会社Ｒｅｆ,,合同会社,東京都,新宿区,新宿５丁目７番１０－３０３号,,13,104,1600022,,,,,,,2022-04-13,1,,,,,リフォルテ,0
2027,7011301027708,新規,0,2022-04-13,2022-04-13,株式会社エフアンドピー,,株式会社,東京都,杉並区,浜田山４丁目１９－２７,,13,115,1680065,,,,,,,2022-04-13,1,,,,,エフアンドピー,0
2040,7011801040573,新規,0,2022-04-13,2022-04-13,株式会社蠍日本,,株式会社,東京都,足立区,南花畑２丁目３８番１３号,,13,121,1210062,,,,,,,2022-04-13,1,,,,,サソリニホン,0
2059,7020001146040,新規,0,2022-04-13,2022-04-13,株式会社Ｋ‐ｓｔｙｌｅ,,株式会社,神奈川県,横浜市金沢区,富岡東２丁目６番地８２号,,14,108,2360051,,,,,,,2022-04-13,1,,,,,ケイスタイル,0
2060,7020001146073,新規,0,2022-04-13,2022-04-13,株式会社ＳＧＯ,,株式会社,神奈川県,横浜市南区,南吉田町４丁目３７番地村林ビル,,14,105,2320012,,,,,,,2022-04-13,1,,,,,エスジーオー,0
2063,7020003021605,新規,0,2022-04-13,2022-04-13,エッグプラントプラス合同会社,,合同会社,神奈川県,横浜市中区,仲尾台２番地７号,,14,104,2310839,,,,,,,2022-04-13,1,,,,,エッグプラントプラス,0
2072,7030001147723,新規,0,2022-04-13,2022-04-13,アドバンストビジョン株式会社,,株式会社,埼玉県,戸田市,上戸田４丁目１番１－６０９号,,11,224,3350022,,,,,,,2022-04-13,1,,,,,アドバンストビジョン,0
2093,7050005013060,新規,0,2022-04-13,2022-04-13,社会福祉法人春の里,,その他の設立登記法人,茨城県,結城市,大字結城１２１３１番１,,08,207,3070001,,,,,,,2022-04-13,1,,,,,ハルノサト,0
2097,7080001024876,新規,0,2022-04-13,2022-04-13,株式会社わさび,,株式会社,静岡県,静岡市駿河区,中野新田７２７番地の２４,,22,102,4228051,,,,,,,2022-04-13,1,,,,,ワサビ,0
2132,7120001245138,新規,0,2022-04-13,2022-04-13,株式会社ＫＵＴ,,株式会社,大阪府,大阪市旭区,清水３丁目３３番１２号フットマーク清水１０６号室,,27,117,5350021,,,,,,,2022-04-13,1,,,,,カット,0
2133,7120001245154,新規,0,2022-04-13,2022-04-13,株式会社ＨＹ,,株式会社,大阪府,大阪市浪速区,元町１丁目７番２号,,27,111,5560016,,,,,,,2022-04-13,1,,,,,エイチワイ,0
2134,7120001245195,新規,0,2022-04-13,2022-04-13,株式会社ハロージョブ,,株式会社,大阪府,大阪市東淀川区,下新庄６丁目１７番１６号,,27,114,5330021,,,,,,,2022-04-13,1,,,,,ハロージョブ,0
2135,7120001245229,新規,0,2022-04-13,2022-04-13,株式会社にこカンパニー,,株式会社,大阪府,大阪市西区,北堀江３丁目１０番１７号,,27,106,5500014,,,,,,,2022-04-13,1,,,,,ニコカンパニー,0
2146,7120101065386,新規,0,2022-04-13,2022-04-13,株式会社キャニオンテック,,株式会社,大阪府,富田林市,五軒家１丁目１４番８号,,27,214,5840079,,,,,,,2022-04-13,1,,,,,キャニオンテック,0
2147,7120103004648,新規,0,2022-04-13,2022-04-13,合同会社Ｐｅｔ’ｓＬａｂ．,,合同会社,大阪府,羽曳野市,南恵我之荘１丁目３番１７号,,27,222,5830885,,,,,,,2022-04-13,1,,,,,ペッツラボ,0
2148,7120103004656,新規,0,2022-04-13,2022-04-13,合同会社ヨーソロー,,合同会社,大阪府,河内長野市,大師町１７番９号,,27,216,5860041,,,,,,,2022-04-13,1,,,,,ヨーソロー,0
2152,7122001035766,新規,0,2022-04-13,2022-04-13,株式会社誠,,株式会社,大阪府,東大阪市,善根寺町２丁目４番３６－１０５号,,27,227,5798001,,,,,,,2022-04-13,1,,,,,マコト,0
2160,7130001071509,新規,0,2022-04-13,2022-04-13,株式会社Ｅａｓｙ,,株式会社,京都府,長岡京市,長岡１丁目４番３号,,26,209,6170823,,,,,,,2022-04-13,1,,,,,イージー,0
2162,7140001125602,新規,0,2022-04-13,2022-04-13,鹿苑文化株式会社,,株式会社,兵庫県,神戸市中央区,琴ノ緒町５丁目２番２号三信ビル４１２,,28,110,6510094,,,,,,,2022-04-13,1,,,,,ロクオンブンカ,0
2163,7140001125619,新規,0,2022-04-13,2022-04-13,株式会社Ｎ＆Ｒ,,株式会社,兵庫県,南あわじ市,市円行寺１３８番地,,28,224,6560461,,,,,,,2022-04-13,1,,,,,エヌアンドアール,0
2166,7150001025454,新規,0,2022-04-13,2022-04-13,株式会社Ｆ’ｓ不動産,,株式会社,奈良県,磯城郡田原本町,大字藥王寺５５４番地,,29,363,6360341,,,,,,,2022-04-13,1,,,,,エフズフドウサン,0
2169,7150003002666,新規,0,2022-04-13,2022-04-13,Ｈａｋｋｏｕｓｈａ合同会社,,合同会社,奈良県,宇陀市,大宇陀本郷１１１６番地の１,,29,212,6332156,,,,,,,2022-04-13,1,,,,,ハッコウシャ,0
2175,7160001024125,新規,0,2022-04-13,2022-04-13,株式会社Ｂｅｅｃｈ　Ｆｏｒｅｓｔ,,株式会社,滋賀県,高島市,マキノ町高木浜１丁目８番地２０,,25,212,5201813,,,,,,,2022-04-13,1,,,,,ビーチフォレスト,0
2183,7180001150869,新規,0,2022-04-13,2022-04-13,株式会社ＺＥＡＬ,,株式会社,愛知県,名古屋市中区,大須４丁目１１番１７号日比野ユーハウスビル３階Ｃ号室,,23,106,4600011,,,,,,,2022-04-13,1,,,,,ジール,0
2184,7180001150902,新規,0,2022-04-13,2022-04-13,日輝株式会社,,株式会社,愛知県,北名古屋市,西之保犬井１３５番地,,23,234,4810033,,,,,,,2022-04-13,1,,,,,ニッキ,0
2189,7190001029311,新規,0,2022-04-13,2022-04-13,株式会社イノベーションケア,,株式会社,三重県,三重郡川越町,大字高松１８４番１,,24,344,5108121,,,,,,,2022-04-13,1,,,,,イノベーションケア,0
2198,7220001024804,新規,0,2022-04-13,2022-04-13,株式会社Ａｕアグリライン北陸,,株式会社,石川県,小松市,長崎町２丁目１０５番地,,17,203,9230004,,,,,,,2022-04-13,1,,,,,エーユーアグリラインホクリク,0
2202,7240001059617,新規,0,2022-04-13,2022-04-13,株式会社ＬＩＨＲＩＴ,,株式会社,広島県,広島市安佐南区,緑井３丁目１０番８－２０３号,,34,105,7310103,,,,,,,2022-04-13,1,,,,,リフリット,0
2209,7290001097182,新規,0,2022-04-13,2022-04-13,株式会社ＲＡＤ,,株式会社,福岡県,飯塚市,赤坂８５３番地１２２,,40,205,8200106,,,,,,,2022-04-13,1,,,,,ラド,0
2210,7290001097190,新規,0,2022-04-13,2022-04-13,アクタスクリエイト株式会社,,株式会社,福岡県,福岡市博多区,博多駅前２丁目１－１－１,,40,132,8120011,,,,,,,2022-04-13,1,,,,,アクタスクリエイト,0
2211,7290001097199,新規,0,2022-04-13,2022-04-13,株式会社プレシャスリアルティ,,株式会社,福岡県,福岡市中央区,渡辺通５丁目３番１５号モダンパラッツォ天神プレシャス１０３号,,40,133,8100004,,,,,,,2022-04-13,1,,,,,プレシャスリアルティ,0
2213,7290005018630,新規,0,2022-04-13,2022-04-13,ＮＰＯ法人未来プロジェクトまちづくり九州,,その他の設立登記法人,福岡県,飯塚市,伊川１１５２番地１,,40,205,8200054,,,,,,,2022-04-13,1,,,,,ミライプロジェクトマチヅクリキュウシュウ,0
2232,7360001030276,新規,0,2022-04-13,2022-04-13,タマキライフ株式会社,,株式会社,沖縄県,中頭郡読谷村,字大木３２５番地２,,47,324,9040316,,,,,,,2022-04-13,1,,,,,タマキライフ,0
2262,7430001086393,新規,0,2022-04-13,2022-04-13,畑のうさぎ株式会社,,株式会社,北海道,勇払郡厚真町,字上野２９番地,,01,581,0591746,,,,,,,2022-04-13,1,,,,,ハタケノウサギ,0
2265,7430003013800,新規,0,2022-04-13,2022-04-13,合同会社ＲＡＮＤ,,合同会社,北海道,札幌市西区,西野八条５丁目９番１０号,,01,107,0630038,,,,,,,2022-04-13,1,,,,,ランド,0
2271,7460103001446,新規,0,2022-04-13,2022-04-13,合同会社光輝工業,,合同会社,北海道,帯広市,西十一条南２７丁目２６番地１ヴェルデＩＩＩＮＡ号室,00126274,01,207,0800021,,,,,,,2022-04-13,1,,,,,コウキコウギョウ,0
2284,8010001225645,新規,0,2022-04-13,2022-04-13,株式会社ＥＢ　ａｓｓｏｃｉａｔｅｓ,,株式会社,東京都,中央区,銀座４丁目１１番２号,,13,102,1040061,,,,,,,2022-04-13,1,,,,,イービーアソシエイツ,0
2285,8010001225678,新規,0,2022-04-13,2022-04-13,株式会社インフォハント,,株式会社,東京都,中央区,銀座７丁目１３番６号サガミビル２階,,13,102,1040061,,,,,,,2022-04-13,1,,,,,インフォハント,0
2286,8010003037428,新規,0,2022-04-13,2022-04-13,合同会社小林書房,,合同会社,東京都,千代田区,神田神保町２丁目１２番地,,13,101,1010051,,,,,,,2022-04-13,1,,,,,コバヤシショボウ,0
2289,8010005034869,新規,0,2022-04-13,2022-04-13,乙部風力ホールディングス一般社団法人,,その他の設立登記法人,東京都,中央区,八丁堀４丁目２番１０号ＡＯＪ税理士法人内,,13,102,1040032,,,,,,,2022-04-13,1,,,,,オトベフウリョクホールディングス,0
2294,8010401166761,新規,0,2022-04-13,2022-04-13,株式会社レストベスト,,株式会社,東京都,港区,六本木３丁目３番８号,,13,103,1060032,,,,,,,2022-04-13,1,,,,,レストベスト,0
2295,8010401166786,新規,0,2022-04-13,2022-04-13,株式会社Ｊ,,株式会社,東京都,港区,麻布台３丁目２番７号６Ｆ,,13,103,1060041,,,,,,,2022-04-13,1,,,,,ジェイ,0
2296,8010403027417,新規,0,2022-04-13,2022-04-13,合同会社ＴＲＥＡＤ,,合同会社,東京都,港区,高輪４丁目１４－１４ルピナス高輪３０３,,13,103,1080074,,,,,,,2022-04-13,1,,,,,トレッド,0
2297,8010403027482,新規,0,2022-04-13,2022-04-13,Ｎｏｖｉｓ　Ｃａｐｉｔａｌ　Ｎｏ．２合同会社,,合同会社,東京都,港区,新橋５丁目２０番１号,,13,103,1050004,,,,,,,2022-04-13,1,,,,,ノービスキャピタルナンバーツー,0
2298,8010405020857,新規,0,2022-04-13,2022-04-13,医療法人社団Ｃｌａｒａ,,その他の設立登記法人,東京都,港区,南青山５丁目３番２５号オウビルＢ１階,,13,103,1070062,,,,,,,2022-04-13,1,,,,,クララ,0
2309,8010803004131,新規,0,2022-04-13,2022-04-13,合同会社ｊｅｓｕｓ　ｐｒｏｄｕｃｔｓ,,合同会社,東京都,大田区,西蒲田４丁目１８番１８号小根山ビル１Ｆ,,13,111,1440051,,,,,,,2022-04-13,1,,,,,ジーザスプロダクツ,0
2310,8010901050688,新規,0,2022-04-13,2022-04-13,株式会社Ｃｈａｌｌｅｎｇｉｎｇ,,株式会社,東京都,世田谷区,宮坂２丁目７番６号,,13,112,1560051,,,,,,,2022-04-13,1,,,,,チャレンジング,0
2312,8011001146856,新規,0,2022-04-13,2022-04-13,Ｈｕａｋａｉ株式会社,,株式会社,東京都,渋谷区,幡ヶ谷２丁目６番９号,,13,113,1510072,,,,,,,2022-04-13,1,,,,,フアカイ,0
2314,8011003014516,新規,0,2022-04-13,2022-04-13,合同会社ＫＡＫＥＲＵ,,合同会社,東京都,渋谷区,神宮前６丁目２３番４号桑野ビル２階,,13,113,1500001,,,,,,,2022-04-13,1,,,,,カケル,0
2315,8011003014524,新規,0,2022-04-13,2022-04-13,青空テプイ合同会社,,合同会社,東京都,渋谷区,上原１丁目３番９号,,13,113,1510064,,,,,,,2022-04-13,1,,,,,アオゾラテプイ,0
2322,8011101098493,新規,0,2022-04-13,2022-04-13,株式会社ナベックス,,株式会社,東京都,新宿区,大久保２丁目７番２号新宿ニューハイム共栄３２２,,13,104,1690072,,,,,,,2022-04-13,1,,,,,ナベックス,0
2323,8011101098510,新規,0,2022-04-13,2022-04-13,株式会社ＭＮプロダクション,,株式会社,東京都,新宿区,大久保１丁目１番２号,,13,104,1690072,,,,,,,2022-04-13,1,,,,,エムエヌプロダクション,0
2324,8011101098543,新規,0,2022-04-13,2022-04-13,株式会社エイトライフ,,株式会社,東京都,新宿区,高田馬場２丁目１４－２新陽ビル８０７,,13,104,1690075,,,,,,,2022-04-13,1,,,,,エイトライフ,0
2327,8011301027707,新規,0,2022-04-13,2022-04-13,株式会社ＦＧＣ,,株式会社,東京都,杉並区,井草１丁目１４－１９,,13,115,1670021,,,,,,,2022-04-13,1,,,,,エフジーシー,0
2328,8011301027715,新規,0,2022-04-13,2022-04-13,株式会社琉球プロジェクト,,株式会社,東京都,杉並区,堀ノ内２丁目４番２号,,13,115,1660013,,,,,,,2022-04-13,1,,,,,リュウキュウプロジェクト,0
2335,8011801040556,新規,0,2022-04-13,2022-04-13,太古株式会社,,株式会社,東京都,葛飾区,奥戸７丁目１４－１２－２０３,,13,122,1240022,,,,,,,2022-04-13,1,,,,,タイコ,0
2336,8011801040572,新規,0,2022-04-13,2022-04-13,株式会社ＥＤＵＣＯ,,株式会社,東京都,足立区,梅田８丁目３番９号,,13,121,1230851,,,,,,,2022-04-13,1,,,,,エデュコ,0
2340,8012801021513,新規,0,2022-04-13,2022-04-13,株式会社ＩＭＧ,,株式会社,東京都,国分寺市,本町３丁目７番２２号国分寺ハウス４１０,,13,214,1850012,,,,,,,2022-04-13,1,,,,,アイエムジー,0
2341,8013301048906,新規,0,2022-04-13,2022-04-13,株式会社カルマ,,株式会社,東京都,豊島区,高松２丁目１９番１０号,,13,116,1710042,,,,,,,2022-04-13,1,,,,,カルマ,0
2342,8013301048930,新規,0,2022-04-13,2022-04-13,鴻洋株式会社,,株式会社,東京都,豊島区,巣鴨１丁目３６番５号２階,,13,116,1700002,,,,,,,2022-04-13,1,,,,,コウヨウ,0
2349,8020001146072,新規,0,2022-04-13,2022-04-13,株式会社Ｒｕｎｓ,,株式会社,神奈川県,横浜市南区,別所中里台１０－１６,,14,105,2320065,,,,,,,2022-04-13,1,,,,,ランズ,0
2354,8020003021579,新規,0,2022-04-13,2022-04-13,ＴＲＹ２２企画合同会社,,合同会社,神奈川県,川崎市高津区,下作延２丁目３２番１５－３０９号,,14,134,2130033,,,,,,,2022-04-13,1,,,,,トライニジュウニキカク,0
2355,8020003021587,新規,0,2022-04-13,2022-04-13,ウィンテラス合同会社,,合同会社,神奈川県,横浜市港北区,新羽町２３５４番地６,,14,109,2230057,,,,,,,2022-04-13,1,,,,,ウィンテラス,0
2356,8020003021595,新規,0,2022-04-13,2022-04-13,合同会社かなろこ,,合同会社,神奈川県,横浜市磯子区,中原４丁目３番１８－５０２号,,14,107,2350036,,,,,,,2022-04-13,1,,,,,カナロコ,0
2357,8020003021604,新規,0,2022-04-13,2022-04-13,合同会社良子,,合同会社,神奈川県,横浜市南区,浦舟町１丁目２番地３丸井ビル３０２号,,14,105,2320024,,,,,,,2022-04-13,1,,,,,リョウコ,0
2358,8020005015463,新規,0,2022-04-13,2022-04-13,特定非営利活動法人ぐるーぷ・ちえのわ,,その他の設立登記法人,神奈川県,横浜市戸塚区,小雀町１１１５番１ちえのわ第２ホーム,,14,110,2440004,,,,,,,2022-04-13,1,,,,,グループチエノワ,0
2369,8030001147680,新規,0,2022-04-13,2022-04-13,株式会社アイリス,,株式会社,埼玉県,越谷市,越ヶ谷１丁目１番１２号エガワプラザビル６Ｆ,,11,222,3430813,,,,,,,2022-04-13,1,,,,,アイリス,0
2373,8030003019226,新規,0,2022-04-13,2022-04-13,合同会社並木,,合同会社,埼玉県,川口市,並木３丁目１８番２５号,,11,203,3320034,,,,,,,2022-04-13,1,,,,,,0
2374,8030005020801,新規,0,2022-04-13,2022-04-13,医療法人社団Ｓｕｎｎｙ,,その他の設立登記法人,埼玉県,川口市,戸塚南１丁目１番５号,,11,203,3330817,,,,,,,2022-04-13,1,,,,,サニー,0
2379,8040001123029,新規,0,2022-04-13,2022-04-13,株式会社パルプンテ,,株式会社,千葉県,千葉市中央区,本千葉町１番４号トリニティビル４階,,12,101,2600014,,,,,,,2022-04-13,1,,,,,パルプンテ,0
2381,8040003019852,新規,0,2022-04-13,2022-04-13,合同会社藤崎アセットマネジメント,00126269,合同会社,千葉県,印旛郡栄町,矢口２７番地,,12,329,2701502,,,,,,,2022-04-13,1,,,,,フジサキアセットマネジメント,0
2382,8040003019877,新規,0,2022-04-13,2022-04-13,合同会社何も無い場所,,合同会社,千葉県,八千代市,高津１４９２－６,,12,221,2760036,,,,,,,2022-04-13,1,,,,,ナニモナイバショ,0
2384,8050001050940,新規,0,2022-04-13,2022-04-13,株式会社ＪＡＮＮＡＴ　ＴＲＡＤＩＮＧ,,株式会社,茨城県,猿島郡境町,大字伏木１２７８番地３,,08,546,3060416,,,,,,,2022-04-13,1,,,,,ジャネットトレーディング,0
2387,8050003006486,新規,0,2022-04-13,2022-04-13,合同会社インテグラーレ,,合同会社,茨城県,土浦市,蓮河原新町７番３０号,00126267,08,203,3000821,,,,,,,2022-04-13,1,,,,,インテグラーレ,0
2395,8060001034752,新規,0,2022-04-13,2022-04-13,ＫＯＢＡコーポレーション株式会社,,株式会社,栃木県,足利市,富士見町５０番地,,09,202,3260037,,,,,,,2022-04-13,1,,,,,コバコーポレーション,0
2398,8060003004027,新規,0,2022-04-13,2022-04-13,ＨＩＫＡＲＩ合同会社,,合同会社,栃木県,宇都宮市,西１丁目１番３号１０３,,09,201,3200861,,,,,,,2022-04-13,1,,,,,ヒカリ,0
2409,8080403004517,新規,0,2022-04-13,2022-04-13,合同会社ｍｅｌ,,合同会社,静岡県,浜松市中区,千歳町１０４番地の１,,22,131,4300934,,,,,,,2022-04-13,1,,,,,メル,0
2426,8120001245161,新規,0,2022-04-13,2022-04-13,株式会社ＧＳＷ技術研,,株式会社,大阪府,大阪市北区,天神橋７丁目１１－６－６０１,,27,127,5310041,,,,,,,2022-04-13,1,,,,,ジーエスダブリュー,0
2427,8120001245186,新規,0,2022-04-13,2022-04-13,株式会社印笑,,株式会社,大阪府,大阪市中央区,久太郎町３丁目１－６伊藤佑ビル大阪本町６階６－Ｏ,,27,128,5410056,,,,,,,2022-04-13,1,,,,,インショウ,0
2428,8120001245194,新規,0,2022-04-13,2022-04-13,株式会社タカス,,株式会社,大阪府,大阪市淀川区,西三国１丁目３６番３６号,,27,123,5320006,,,,,,,2022-04-13,1,,,,,タカス,0
2429,8120001245203,新規,0,2022-04-13,2022-04-13,株式会社ＫＵプロパティー,,株式会社,大阪府,大阪市天王寺区,生玉寺町７－６１ルモン夕陽丘学園坂３０４,,27,109,5430073,,,,,,,2022-04-13,1,,,,,ケイユープロパティー,0
2430,8120001245236,新規,0,2022-04-13,2022-04-13,株式会社カケイノカイシャ,,株式会社,大阪府,大阪市北区,豊崎３丁目１６番１６号ブランズタワー４２０９,,27,127,5310072,,,,,,,2022-04-13,1,,,,,カケイノカイシャ,0
2436,8120003021263,新規,0,2022-04-13,2022-04-13,合同会社ａｖｅｓ,,合同会社,大阪府,大阪市大正区,千島３丁目１１‐１３‐８Ｆ,,27,108,5510003,,,,,,,2022-04-13,1,,,,,アヴェス,0
2437,8120003021494,新規,0,2022-04-13,2022-04-13,合同会社エレメンタル,,合同会社,大阪府,大阪市西区,本田２丁目８番５号－５０１,,27,106,5500022,,,,,,,2022-04-13,1,,,,,エレメンタル,0
2441,8120005022904,新規,0,2022-04-13,2022-04-13,トラバース監査法人,,その他の設立登記法人,大阪府,大阪市中央区,安土町３丁目２番２号中外ビル３階,,27,128,5410052,,,,,,,2022-04-13,1,,,,,トラバース,0
2445,8120101065377,新規,0,2022-04-13,2022-04-13,株式会社中村,,株式会社,大阪府,岸和田市,小松里町７９１番地の１,,27,202,5960821,,,,,,,2022-04-13,1,,,,,ナカムラ,0
2446,8120101065385,新規,0,2022-04-13,2022-04-13,株式会社アールファム,,株式会社,大阪府,堺市西区,上４４１番地１,,27,144,5938311,,,,,,,2022-04-13,1,,,,,アールファム,0
2448,8120103004639,新規,0,2022-04-13,2022-04-13,合同会社おおきなかぶ,,合同会社,大阪府,大阪狭山市,大野台４丁目１５番６号,,27,231,5890023,,,,,,,2022-04-13,1,,,,,オオキナカブ,0
2460,8130001071532,新規,0,2022-04-13,2022-04-13,株式会社ＫｅｅＳｍｉｌｅ,,株式会社,京都府,城陽市,寺田大谷１８８番地８,,26,207,6100121,,,,,,,2022-04-13,1,,,,,キースマイル,0
2463,8140001125626,新規,0,2022-04-13,2022-04-13,株式会社オフィス大野,,株式会社,兵庫県,三田市,ゆりのき台１丁目４９番地１０,,28,219,6691324,,,,,,,2022-04-13,1,,,,,オフィスオオノ,0
2464,8140001125634,新規,0,2022-04-13,2022-04-13,ＤＡＩＡ株式会社,,株式会社,兵庫県,姫路市,北条１丁目２６６番地４ポレスター北条７０１号,,28,201,6700947,,,,,,,2022-04-13,1,,,,,ダイア,0
2481,8180001150810,新規,0,2022-04-13,2022-04-13,株式会社執行工業,,株式会社,愛知県,西春日井郡豊山町,大字豊場字城屋敷３９番地１,,23,342,4800202,,,,,,,2022-04-13,1,,,,,シギョウコウギョウ,0
2482,8180001150819,新規,0,2022-04-13,2022-04-13,株式会社安達建装,,株式会社,愛知県,あま市,木田道下１８番地１,,23,237,4901222,,,,,,,2022-04-13,1,,,,,アダチケンソウ,0
2483,8180001150901,新規,0,2022-04-13,2022-04-13,株式会社大恵,,株式会社,愛知県,名古屋市港区,大西１丁目６４番地,,23,111,4550861,,,,,,,2022-04-13,1,,,,,ダイケイ,0
2487,8180005019738,新規,0,2022-04-13,2022-04-13,一般社団法人Ｅｎｇｎｅｅｒｉｎｇ　Ｂｒｉｄｇｅ,,その他の設立登記法人,愛知県,名古屋市中村区,名駅１丁目１－１名駅ＪＰタワー名古屋２１階ＳＰＡＣＥＳＪＰタワー名古屋,,23,105,4500002,,,,,,,2022-04-13,1,,,,,エンジニアリングブリッジ,0
2499,8220001024803,新規,0,2022-04-13,2022-04-13,株式会社イチムラ,,株式会社,石川県,白山市,知気寺町ほ３１番地１,,17,210,9202155,,,,,,,2022-04-13,1,,,,,イチムラ,0
2500,8220005008653,新規,0,2022-04-13,2022-04-13,医療法人紀勢会,,その他の設立登記法人,石川県,金沢市,鞍月５丁目１５０番地ＭＢＰビル２階,,17,201,9208203,,,,,,,2022-04-13,1,,,,,キセイカイ,0
2508,8240001059608,新規,0,2022-04-13,2022-04-13,株式会社みらいの手,,株式会社,広島県,東広島市,黒瀬町兼沢１８３１番地,,34,212,7392731,,,,,,,2022-04-13,1,,,,,ミライノテ,0
2509,8240001059616,新規,0,2022-04-13,2022-04-13,株式会社シエル,,株式会社,広島県,広島市安佐北区,白木町大字小越７番地６,,34,106,7391412,,,,,,,2022-04-13,1,,,,,シエル,0
2530,8300001012881,新規,0,2022-04-13,2022-04-13,株式会社江島農園,,株式会社,佐賀県,佐賀市,川副町大字犬井道１１７７番地４,,41,201,8402212,,,,,,,2022-04-13,1,,,,,エジマノウエン,0
2536,8310003004331,新規,0,2022-04-13,2022-04-13,合同会社環太桜,,合同会社,長崎県,長崎市,戸町２丁目１６番１６号,,42,201,8500952,,,,,,,2022-04-13,1,,,,,カンタイサクラ,0
2542,8330001029642,新規,0,2022-04-13,2022-04-13,株式会社サイプレス,,株式会社,熊本県,熊本市南区,城南町東阿高４４９番地４８,,43,104,8614225,,,,,,,2022-04-13,1,,,,,サイプレス,0
2543,8330003009329,新規,0,2022-04-13,2022-04-13,合同会社装麗,,合同会社,熊本県,宇土市,古保里町４３６番地,,43,211,8690415,,,,,,,2022-04-13,1,,,,,ソウレイ,0
2544,8330005010490,新規,0,2022-04-13,2022-04-13,一般社団法人熊本県警備業連合会,,その他の設立登記法人,熊本県,熊本市北区,四方寄町５６２番地１,,43,105,8615515,,,,,,,2022-04-13,1,,,,,クマモトケンケイビギョウレンゴウカイ,0
2545,8330005010499,新規,0,2022-04-13,2022-04-13,一般財団法人熊本県剣道連盟,,その他の設立登記法人,熊本県,熊本市中央区,水前寺５丁目２３番２号熊本武道館内,,43,101,8620950,,,,,,,2022-04-13,1,,,,,クマモトケンケンドウレンメイ,0
2552,8360005006627,新規,0,2022-04-13,2022-04-13,一般社団法人八重瀬町観光物産協会,,その他の設立登記法人,沖縄県,島尻郡八重瀬町,字具志頭６５９番地,,47,362,9010512,,,,,,,2022-04-13,1,,,,,ヤエセチョウカンコウブッサンキョウカイ,0
2553,8360005006635,新規,0,2022-04-13,2022-04-13,医療法人広栄,,その他の設立登記法人,沖縄県,宜野湾市,嘉数２丁目２番１号広栄メディカルビル２階,,47,205,9012226,,,,,,,2022-04-13,1,,,,,コウエイ,0
2557,8380001032740,新規,0,2022-04-13,2022-04-13,株式会社ファミリー,,株式会社,福島県,須賀川市,滑川字東町３６３番地５,,07,207,9620403,,,,,,,2022-04-13,1,,,,,ファミリー,0
2563,8400005008239,新規,0,2022-04-13,2022-04-13,医療法人社団まちのあかり,,その他の設立登記法人,岩手県,北上市,村崎野１７地割１６７番３,,03,206,0240004,,,,,,,2022-04-13,1,,,,,シャダンマチノアカリ,0
2564,8410001013159,新規,0,2022-04-13,2022-04-13,株式会社プラスナイン,,株式会社,秋田県,湯沢市,材木町１丁目３番６号,,05,207,0120845,,,,,,,2022-04-13,1,,,,,プラスナイン,0
2572,8430001086467,新規,0,2022-04-13,2022-04-13,株式会社ＦＮＴＣ,,株式会社,北海道,札幌市豊平区,平岸一条９丁目４番１５－２０１号,,01,105,0620931,,,,,,,2022-04-13,1,,,,,エフエヌティーシー,0
2581,8430003013799,新規,0,2022-04-13,2022-04-13,合同会社Ｈ＆Ｓライフサービス・アキ内装,,合同会社,北海道,札幌市清田区,清田二条３丁目７番２６－４０２号,,01,110,0040842,,,,,,,2022-04-13,1,,,,,エイチアンドエスライフサービスアキナイソウ,0
2585,8470001019035,新規,0,2022-04-13,2022-04-13,株式会社三好商事,,株式会社,香川県,高松市,春日町２１１－１,,37,201,7610101,,,,,,,2022-04-13,1,,,,,サンコウショウジ,0
2586,8470005006434,新規,0,2022-04-13,2022-04-13,特定非営利活動法人しあわせごはん食の力,,その他の設立登記法人,香川県,三豊市,詫間町箱２７３番地３,,37,208,7691106,,,,,,,2022-04-13,1,,,,,シアワセゴハンショクノチカラ,0
2591,8500003002811,新規,0,2022-04-13,2022-04-13,Ｉ‐ＲＯＯＭ合同会社,,合同会社,愛媛県,松山市,北藤原町３番地１－１００６号,,38,201,7900033,,,,,,,2022-04-13,1,,,,,イールーム,0
2592,8700150107764,新規,0,2022-04-13,2022-04-11,演劇集団あんちぽっぷ,,その他,東京都,府中市,本宿町３丁目１７－１２コーポヤナギ２０２,,13,206,1830032,,,,,,,2022-04-11,1,,,,,エンゲキシユウダンアンチポツプ,0
2593,8700150107847,新規,0,2022-04-13,2022-04-11,中野市・山ノ内町地域公共交通対策協議会,,その他,長野県,中野市,三好町１丁目３－１９,,20,211,3830025,,,,,,,2022-04-11,1,,,,,ナカノシヤマノウチマチチイキコウキヨウコウツウタイサクキヨウギカイ,0
2601,9010001225735,新規,0,2022-04-13,2022-04-13,株式会社にちようび,,株式会社,東京都,千代田区,神田佐久間町１丁目１４番地第２東ビル３０３,,13,101,1010025,,,,,,,2022-04-13,1,,,,,ニチヨウビ,0
2602,9010001225743,新規,0,2022-04-13,2022-04-13,株式会社Ｊｅｗｅｌ　Ｗｏｒｌｄ,,株式会社,東京都,中央区,銀座３丁目４番１号大倉別館５階,,13,102,1040061,,,,,,,2022-04-13,1,,,,,ジュエルワールド,0
2603,9010003037410,新規,0,2022-04-13,2022-04-13,Ｍ＆Ｍ合同会社,,合同会社,東京都,中央区,新川１丁目３番２１号ＢＩＺＳＭＡＲＴ茅場町４４５号室,,13,102,1040033,,,,,,,2022-04-13,1,,,,,エムアンドエム,0
2616,9010401166785,新規,0,2022-04-13,2022-04-13,三石株式会社,,株式会社,東京都,港区,虎ノ門４丁目１番２０号１１０２号室,,13,103,1050001,,,,,,,2022-04-13,1,,,,,ミツイシ,0
2618,9010403027449,新規,0,2022-04-13,2022-04-13,合同会社Ａｒｉｓｔｉｄｅｓ,,合同会社,東京都,港区,虎ノ門５丁目１番４号,,13,103,1050001,,,,,,,2022-04-13,1,,,,,アリスティデス,0
2619,9010403027465,新規,0,2022-04-13,2022-04-13,合同会社Ｋｏｍｐａｌ,,合同会社,東京都,港区,芝５丁目１６番地１４,,13,103,1080014,,,,,,,2022-04-13,1,,,,,コンパル,0
2620,9010403027481,新規,0,2022-04-13,2022-04-13,イ・ヴァンハ合同会社,,合同会社,東京都,港区,南青山２丁目２番１５号,,13,103,1070062,,,,,,,2022-04-13,1,,,,,イヴァンハ,0
2623,9010405020897,新規,0,2022-04-13,2022-04-13,ＮＰＯ法人多汗症サポートグループ,,その他の設立登記法人,東京都,港区,南青山２丁目２番１５号,,13,103,1070062,,,,,,,2022-04-13,1,,,,,タカンショウサポートグループ,0
2624,9010405020906,新規,0,2022-04-13,2022-04-13,アイラ２一般社団法人,,その他の設立登記法人,東京都,港区,浜松町１丁目２０番１０号ライオネス浜松町５０６号室,,13,103,1050013,,,,,,,2022-04-13,1,,,,,アイラニ,0
2625,9010501048702,新規,0,2022-04-13,2022-04-13,株式会社ｃｈｉｌｌｎａ,,株式会社,東京都,台東区,浅草６丁目４０番７,,13,106,1110032,,,,,,,2022-04-13,1,,,,,チルナ,0
2627,9010701042455,新規,0,2022-04-13,2022-04-13,株式会社ＮＳコーポレーション,,株式会社,東京都,品川区,東品川１丁目６番９－９０９号,,13,109,1400002,,,,,,,2022-04-13,1,,,,,エヌエスコーポレーション,0
2630,9010901050687,新規,0,2022-04-13,2022-04-13,グルペット株式会社,,株式会社,東京都,世田谷区,世田谷１丁目４１番２号,,13,112,1540017,,,,,,,2022-04-13,1,,,,,グルペット,0
2636,9011001146847,新規,0,2022-04-13,2022-04-13,株式会社ＧＯＯＮ,,株式会社,東京都,渋谷区,神宮前６丁目２３番４号桑野ビル２階,,13,113,1500001,,,,,,,2022-04-13,1,,,,,グーン,0
2637,9011001146921,新規,0,2022-04-13,2022-04-13,ＤＥＵ‐ＳＴＯＲＥ株式会社,,株式会社,東京都,渋谷区,渋谷３丁目７番６号第６矢木ビル４Ｆ,,13,113,1500002,,,,,,,2022-04-13,1,,,,,デューストア,0
2638,9011003014523,新規,0,2022-04-13,2022-04-13,ＭｉｒａｉＢｚ合同会社,,合同会社,東京都,渋谷区,道玄坂１丁目１０番８号渋谷道玄坂東急ビル２Ｆ－Ｃ,,13,113,1500043,,,,,,,2022-04-13,1,,,,,ミライズ,0
2639,9011005009546,新規,0,2022-04-13,2022-04-13,一般社団法人こどものえがお,,その他の設立登記法人,東京都,渋谷区,恵比寿西１丁目９番１１号イルフィアート恵比寿２０１,,13,113,1500021,,,,,,,2022-04-13,1,,,,,コドモノエガオ,0
2642,9011101098468,新規,0,2022-04-13,2022-04-13,株式会社Ｐｌｕｓ　Ｐａｒｔｎｅｒｓ,,株式会社,東京都,新宿区,西新宿３丁目１４番１０号,,13,104,1600023,,,,,,,2022-04-13,1,,,,,プラスパートナーズ,0
2643,9011103011627,新規,0,2022-04-13,2022-04-13,合同会社Ａｃｈｉｅｖｅ　Ｉｎｓｐｅｃｔｉｏｎ,,合同会社,東京都,新宿区,下宮比町２番２８号,,13,104,1620822,,,,,,,2022-04-13,1,,,,,アチーブインスペクション,0
2644,9011201023763,新規,0,2022-04-13,2022-04-13,株式会社東中野不動産,,株式会社,東京都,中野区,江原町２丁目８番１９号,,13,114,1650023,,,,,,,2022-04-13,1,,,,,ヒガシナカノフドウサン,0
2645,9011203003796,新規,0,2022-04-13,2022-04-13,合同会社クラウンズアーク,,合同会社,東京都,中野区,沼袋１丁目６－８,,13,114,1650025,,,,,,,2022-04-13,1,,,,,クラウンズアーク,0
2647,9011301027706,新規,0,2022-04-13,2022-04-13,株式会社ＳＥＮＳＥＷＡＶＥ,,株式会社,東京都,杉並区,久我山１丁目２－３４ペルルメゾン２０１号,,13,115,1680082,,,,,,,2022-04-13,1,,,,,センスウエイヴ,0
2653,9012303001657,新規,0,2022-04-13,2022-04-13,ジャスティス合同会社,,合同会社,東京都,町田市,小山ヶ丘３丁目２８番地アパガーデンパレス多摩境１４０３,,13,209,1940215,,,,,,,2022-04-13,1,,,,,ジャスティス,0
2654,9012401039087,新規,0,2022-04-13,2022-04-13,株式会社Ｍ３ラボ,,株式会社,東京都,府中市,武蔵台３丁目４５番地の３,,13,206,1830042,,,,,,,2022-04-13,1,,,,,エムサンラボ,0
2656,9012801021512,新規,0,2022-04-13,2022-04-13,株式会社プレシャスホーム,,株式会社,東京都,立川市,一番町１丁目２３番地の１,,13,202,1900033,,,,,,,2022-04-13,1,,,,,プレシャスホーム,0
2669,9020001146096,新規,0,2022-04-13,2022-04-13,株式会社ＭＰＩ,,株式会社,神奈川県,横浜市西区,みなとみらい４丁目４番２号横浜ブルーアベニュー１２階,,14,103,2200012,,,,,,,2022-04-13,1,,,,,エムピーアイ,0
2673,9020003021586,新規,0,2022-04-13,2022-04-13,ｒｅｖａｍｐｅｄ合同会社,,合同会社,神奈川県,横浜市西区,戸部本町３８－１ｍｏｋｕ００６,,14,103,2200041,,,,,,,2022-04-13,1,,,,,リバンプ,0
2674,9020003021594,新規,0,2022-04-13,2022-04-13,クァンタム企画合同会社,,合同会社,神奈川県,横浜市港北区,日吉本町５丁目２７－１７,,14,109,2230062,,,,,,,2022-04-13,1,,,,,,0
2675,9020005015470,新規,0,2022-04-13,2022-04-13,特定非営利活動法人放課後みんなみらい,,その他の設立登記法人,神奈川県,横浜市青葉区,つつじが丘２８番地５１,,14,117,2270055,,,,,,,2022-04-13,1,,,,,ホウカゴミンナミライ,0
2676,9020005015479,新規,0,2022-04-13,2022-04-13,特定非営利活動法人居場所そら,,その他の設立登記法人,神奈川県,横浜市保土ケ谷区,仏向町１１９１番地１０,,14,106,2400044,,,,,,,2022-04-13,1,,,,,イバショソラ,0
2681,9021001075640,新規,0,2022-04-13,2022-04-13,株式会社ＨＩＴコーポレーション,,株式会社,神奈川県,茅ヶ崎市,出口町２番８－２号,,14,207,2530028,,,,,,,2022-04-13,1,,,,,ヒットコーポレーション,0
2682,9021001075715,新規,0,2022-04-13,2022-04-13,株式会社Ｃ・Ｏ・Ｈ　Ｃｉｒｃｌｅ　Ｏｆ　Ｈａｒｍｏｎｙ,,株式会社,神奈川県,足柄下郡湯河原町,吉浜１９０８番地の７朝日フレール湯河原白沼田４０５,,14,384,2590312,,,,,,,2022-04-13,1,,,,,シーオーエイチサークルオブハーモーニー,0
2684,9021003011577,新規,0,2022-04-13,2022-04-13,合同会社Ｌｉｍ,,合同会社,神奈川県,綾瀬市,吉岡２７２３－５,,14,218,2521124,,,,,,,2022-04-13,1,,,,,リム,0
2691,9030001147572,新規,0,2022-04-13,2022-04-13,株式会社ＨＯＲＳＥ　ＯＮＥ,,株式会社,埼玉県,越谷市,南町３丁目１０番地１,,11,222,3430832,,,,,,,2022-04-13,1,,,,,ホースワン,0
2693,9030003019209,新規,0,2022-04-13,2022-04-13,ＳＨＩＮ合同会社,,合同会社,埼玉県,川口市,飯塚３丁目１３－２１,,11,203,3320023,,,,,,,2022-04-13,1,,,,,シン,0
2697,9040001123003,新規,0,2022-04-13,2022-04-13,株式会社ＳＵＮ．ＣＬＯＵＤ,,株式会社,千葉県,市原市,五井東３丁目４８番地１,,12,219,2900055,,,,,,,2022-04-13,1,,,,,サンクラウド,0
2705,9040005021566,新規,0,2022-04-13,2022-04-13,一般社団法人Ｓｍｉｌｉｎｇ　Ｆａｃｔｏｒｙ,,その他の設立登記法人,千葉県,船橋市,小野田町１４５２番地８,,12,204,2740081,,,,,,,2022-04-13,1,,,,,スマイリングファクトリー,0
2708,9050001050948,新規,0,2022-04-13,2022-04-13,ＣＳＳ株式会社,,株式会社,茨城県,筑西市,木戸１３５５番地９,,08,227,3080104,,,,,,,2022-04-13,1,,,,,シーエスエス,0
2709,9050003006493,新規,0,2022-04-13,2022-04-13,リルズ合同会社,,合同会社,茨城県,土浦市,真鍋５丁目１番２３号,,08,203,3000051,,,,,,,2022-04-13,1,,,,,リルズ,0
2710,9050005013059,新規,0,2022-04-13,2022-04-13,医療法人しつか,,その他の設立登記法人,茨城県,那珂市,菅谷７６５番４,,08,226,3110105,,,,,,,2022-04-13,1,,,,,シツカ,0
2711,9060001034751,新規,0,2022-04-13,2022-04-13,株式会社ＬＩＮＫＳ,,株式会社,栃木県,宇都宮市,御幸ケ原町２３４番地１６－２０４,,09,201,3210982,,,,,,,2022-04-13,1,,,,,リンクス,0
2715,9070003004454,新規,0,2022-04-13,2022-04-13,合同会社ニナノレ,,合同会社,群馬県,前橋市,日吉町２丁目３１番１６号,,10,201,3710017,,,,,,,2022-04-13,1,,,,,ニナノレ,0
2716,9080001024882,新規,0,2022-04-13,2022-04-13,トモニ株式会社,,株式会社,静岡県,焼津市,中港３丁目８番２１号焼津ＮＭビル,,22,212,4250021,,,,,,,2022-04-13,1,,,,,トモニ,0
2723,9080401025753,新規,0,2022-04-13,2022-04-13,株式会社ケイエス工業,,株式会社,静岡県,浜松市中区,高丘東２丁目１７番２号,,22,131,4338117,,,,,,,2022-04-13,1,,,,,ケイエスコウギョウ,0
2754,9120001245177,新規,0,2022-04-13,2022-04-13,ハローマイビート株式会社,,株式会社,大阪府,大阪市中央区,谷町２丁目４番３号,,27,128,5400012,,,,,,,2022-04-13,1,,,,,ハローマイビート,0
2755,9120001245193,新規,0,2022-04-13,2022-04-13,株式会社エンディングライフサポート,,株式会社,大阪府,大阪市阿倍野区,阿倍野筋５丁目１３番１０－１００２号,,27,119,5450052,,,,,,,2022-04-13,1,,,,,エンディングライフサポート,0
2756,9120001245227,新規,0,2022-04-13,2022-04-13,株式会社ＡＸＩＡパートナー,,株式会社,大阪府,大阪市天王寺区,大道４丁目５－２大道ビル２Ｆ,,27,109,5430052,,,,,,,2022-04-13,1,,,,,アクシアパートナー,0
2757,9120001245235,新規,0,2022-04-13,2022-04-13,ハートライン株式会社,,株式会社,大阪府,大阪市天王寺区,逢阪１丁目３番３８－１００１号,00126275,27,109,5430062,,,,,,,2022-04-13,1,,,,,ハートライン,0
2764,9120003021485,新規,0,2022-04-13,2022-04-13,合同会社三夢,,合同会社,大阪府,大阪市北区,天神橋３丁目９番１１号,,27,127,5300041,,,,,,,2022-04-13,1,,,,,サンム,0
2765,9120005022903,新規,0,2022-04-13,2022-04-13,一般社団法人日本フォロワーシップ協会,,その他の設立登記法人,大阪府,大阪市中央区,伏見町４丁目４－９,,27,128,5410044,,,,,,,2022-04-13,1,,,,,ニホンフォロワーシップキョウカイ,0
2766,9120101065384,新規,0,2022-04-13,2022-04-13,株式会社Ｆａｒｏ,,株式会社,大阪府,堺市堺区,南旅篭町西１丁１番８号山田ビル１Ｆ,,27,141,5900968,,,,,,,2022-04-13,1,,,,,ファロ,0
2767,9120101065392,新規,0,2022-04-13,2022-04-13,Ｒａｒｅ　Ｇｒｏｕｐ株式会社,,株式会社,大阪府,河内長野市,栄町７－１０,,27,216,5860032,,,,,,,2022-04-13,1,,,,,ラールグループ,0
2768,9120103004638,新規,0,2022-04-13,2022-04-13,合同会社Ｌｅ　ｒｏｎｄ,,合同会社,大阪府,堺市中区,福田１２２７番地２８,,27,142,5998241,,,,,,,2022-04-13,1,,,,,ロン,0
2775,9122001035764,新規,0,2022-04-13,2022-04-13,株式会社ａｔｅｌｉｅｒ,,株式会社,大阪府,東大阪市,荒本新町４番１７号サンライフ荒本３０１号室,,27,227,5770022,,,,,,,2022-04-13,1,,,,,アトリエ,0
2776,9122001035772,新規,0,2022-04-13,2022-04-13,大喜門株式会社,,株式会社,大阪府,東大阪市,上小阪４丁目１０番１５号ベルハイム上小阪３０８号室,,27,227,5770806,,,,,,,2022-04-13,1,,,,,ダイキモン,0
2779,9130001071449,新規,0,2022-04-13,2022-04-13,アンジンコーポレーション株式会社,,株式会社,京都府,京都市伏見区,石田内里町８０－２,,26,109,6011432,,,,,,,2022-04-13,1,,,,,アンジンコーポレーション,0
2780,9130001071515,新規,0,2022-04-13,2022-04-13,株式会社コーヨー電工,,株式会社,京都府,京都市北区,鷹峯木ノ畑町８９番地プレステージ北山１０４,,26,101,6038447,,,,,,,2022-04-13,1,,,,,コーヨーデンコウ,0
2788,9140001125609,新規,0,2022-04-13,2022-04-13,株式会社ユナイト,,株式会社,兵庫県,加古川市,平岡町土山６８８番地の１,,28,210,6750104,,,,,,,2022-04-13,1,,,,,ユナイト,0
2795,9160003002548,新規,0,2022-04-13,2022-04-13,合同会社Ｐａｒｃｏ　Ｒａｍｐａｎｔｅ,,合同会社,滋賀県,草津市,南草津３丁目７番２号,,25,206,5250050,,,,,,,2022-04-13,1,,,,,パルコランパンテ,0
2803,9180001150693,新規,0,2022-04-13,2022-04-13,株式会社サトウシンブン,,株式会社,愛知県,一宮市,南小渕字細野２５番地１,,23,203,4910014,,,,,,,2022-04-13,1,,,,,サトウシンブン,0
2804,9180001150909,新規,0,2022-04-13,2022-04-13,リベルター株式会社,,株式会社,愛知県,春日井市,稲口町２丁目２番地６,,23,206,4860905,,,,,,,2022-04-13,1,,,,,リベルター,0
2809,9180301036114,新規,0,2022-04-13,2022-04-13,株式会社Ｍ＆Ｓ,,株式会社,愛知県,西尾市,一色町前野東浦２７番地２,,23,213,4440407,,,,,,,2022-04-13,1,,,,,エムアンドエス,0
2816,9200005013332,新規,0,2022-04-13,2022-04-13,一般社団法人天明寺,,その他の設立登記法人,岐阜県,多治見市,元町４丁目７番地の１５,,21,204,5070824,,,,,,,2022-04-13,1,,,,,テンメイジ,0
2832,9290001097016,新規,0,2022-04-13,2022-04-13,株式会社颯建,,株式会社,福岡県,福岡市早良区,有田６丁目２４番３０－３０２号,,40,137,8140033,,,,,,,2022-04-13,1,,,,,ソウケン,0
2833,9290001097189,新規,0,2022-04-13,2022-04-13,九州朝日放送分割準備会社株式会社,,株式会社,福岡県,福岡市中央区,長浜１丁目１番１号,,40,133,8100072,,,,,,,2022-04-13,1,,,,,キュウシュウアサヒホウソウブンカツジュンビガイシャ,0
2839,9290803004103,新規,0,2022-04-13,2022-04-13,合同会社白うさぎ,,合同会社,福岡県,田川市,大字伊田１１２５番地８,,40,206,8250002,,,,,,,2022-04-13,1,,,,,シロウサギ,0
2843,9310003004330,新規,0,2022-04-13,2022-04-13,合同会社ワールドプロジェクトサポート,,合同会社,長崎県,諫早市,八天町４番１２号,,42,204,8540011,,,,,,,2022-04-13,1,,,,,ワールドプロジェクトサポート,0
2844,9310005008610,新規,0,2022-04-13,2022-04-13,一般社団法人Ｄ＆Ｅ　ｓｕｐｐｏｒｔ,,その他の設立登記法人,長崎県,雲仙市,国見町土黒己１２５９番地,,42,213,8591316,,,,,,,2022-04-13,1,,,,,ディーアンドイーサポート,0
2845,9330001029641,新規,0,2022-04-13,2022-04-13,桜ｃｌｏｖｅｒ株式会社,,株式会社,熊本県,玉名郡玉東町,大字上木葉４１４－３,,43,364,8690305,,,,,,,2022-04-13,1,,,,,サクラクローバー,0
2856,9350001017702,新規,0,2022-04-13,2022-04-13,滉華造園技建株式会社,,株式会社,宮崎県,宮崎市,田野町乙７２６６番地,,45,201,8891702,,,,,,,2022-04-13,1,,,,,コウカゾウエンギケン,0
2858,9360001030274,新規,0,2022-04-13,2022-04-13,株式会社Ｒｏｏｔ,,株式会社,沖縄県,宮古島市,平良字西里３８１番地、２階,,47,214,9060012,,,,,,,2022-04-13,1,,,,,ルート,0
2867,9370001048448,新規,0,2022-04-13,2022-04-13,株式会社ＫＡＴＡＥ,,株式会社,宮城県,仙台市泉区,桂１丁目８番地の２,,04,105,9813134,,,,,,,2022-04-13,1,,,,,カタエ,0
2879,9410001013158,新規,0,2022-04-13,2022-04-13,株式会社アルビス,,株式会社,秋田県,秋田市,広面字堤敷６４番地１,,05,201,0100041,,,,,,,2022-04-13,1,,,,,アルビス,0
2886,9430001086350,新規,0,2022-04-13,2022-04-13,株式会社グラグラ,,株式会社,北海道,虻田郡洞爺湖町,月浦４４番地６２６,,01,584,0495723,,,,,,,2022-04-13,1,,,,,グラグラ,0
2887,9430001086359,新規,0,2022-04-13,2022-04-13,株式会社北海道アマダ,,株式会社,北海道,札幌市東区,北十五条東１８丁目１番２１号,,01,103,0650015,,,,,,,2022-04-13,1,,,,,ホッカイドウアマダ,0
2890,9430003013773,新規,0,2022-04-13,2022-04-13,合同会社ＮＣＰコーポレーション,,合同会社,北海道,札幌市中央区,南六条西６丁目７番２号,,01,101,0640806,,,,,,,2022-04-13,1,,,,,エヌシィピーコーポレーション,0
2891,9430003013781,新規,0,2022-04-13,2022-04-13,合同会社オノソック,,合同会社,北海道,夕張郡長沼町,西２線南２番地,,01,428,0691472,,,,,,,2022-04-13,1,,,,,オノソック,0
2897,9460303000758,新規,0,2022-04-13,2022-04-13,合同会社北暦,,合同会社,北海道,斜里郡斜里町,字豊倉８６番地,,01,545,0994141,,,,,,,2022-04-13,1,,,,,,0
2902,9490001010156,新規,0,2022-04-13,2022-04-13,クリックコンサルティング株式会社,,株式会社,高知県,高知市,秦南町２丁目８番１８号,,39,201,7800026,,,,,,,2022-04-13,1,,,,,クリックコンサルティング,0
