sequenceNumber,corporateNumber,process,correct,updateDate,changeDate,name,nameImageId,kind,prefectureName,cityName,streetNumber,addressImageId,prefectureCode,cityCode,postCode,addressOutside,addressOutsideImageId,closeDate,closeCause,successorCorporateNumber,changeCause,assignmentDate,latest,enName,enPrefectureName,enCityName,enAddressOutside,furigana,hihyoji
10,1010003044380,新規,0,2024-07-22,2024-07-22,トパーズツー合同会社,,合同会社,東京都,中央区,日本橋１丁目４番１号日本橋一丁目ビルディング,,13,102,1030027,,,,,,,2024-07-22,1,,,,,トパーズツー,0
11,1010003044389,新規,0,2024-07-22,2024-07-22,合同会社ＺＥＨＰＪ１３,,合同会社,東京都,中央区,銀座４丁目６番１号三幸アセットマネジメント株式会社内,,13,102,1040061,,,,,,,2024-07-22,1,,,,,ゼッチピージェーサーティーン,0
20,1010401183879,新規,0,2024-07-22,2024-07-22,奕斯偉材料科技日本株式会社,,株式会社,東京都,港区,高輪４丁目２３番６号ハイホーム高輪７０８,,13,103,1080074,,,,,,,2024-07-22,1,,,,,イシウェイザイリョウカギニホン,0
21,1010401183920,新規,0,2024-07-22,2024-07-22,株式会社ＮＧＳ,,株式会社,東京都,港区,六本木５丁目２番６号ＴＫビル９階,,13,103,1060032,,,,,,,2024-07-22,1,,,,,エヌジーエス,0
31,1010603010963,新規,0,2024-07-22,2024-07-22,ＷＯＷＯＷ　ＢＲＩＤＧＥ合同会社,,合同会社,東京都,江東区,辰巳２丁目１番５８号,,13,108,1350053,,,,,,,2024-07-22,1,,,,,ワウワウブリッジ,0
32,1010603010971,新規,0,2024-07-22,2024-07-22,ワールドトレード合同会社,,合同会社,東京都,墨田区,八広４丁目８番１０－２０６号ＳＵＮＭＩＹＡＫＯ八広,,13,107,1310041,,,,,,,2024-07-22,1,,,,,ワールドトレード,0
33,1010701046298,新規,0,2024-07-22,2024-07-22,株式会社Ｓ＆Ｇ,,株式会社,東京都,品川区,東五反田１丁目２５番１７号ビラ島津山２Ｆ,,13,109,1410022,,,,,,,2024-07-22,1,,,,,エスアンドジー,0
34,1010803005029,新規,0,2024-07-22,2024-07-22,合同会社レニアス,,合同会社,東京都,大田区,蒲田３丁目９－６,,13,111,1440052,,,,,,,2024-07-22,1,,,,,レニアス,0
36,1010901055669,新規,0,2024-07-22,2024-07-22,株式会社ブルーバード,,株式会社,東京都,世田谷区,桜１丁目６１番４号,,13,112,1560053,,,,,,,2024-07-22,1,,,,,ブルーバード,0
37,1010903009227,新規,0,2024-07-22,2024-07-22,イズミジャパン合同会社,,合同会社,東京都,世田谷区,奥沢５丁目１７番１０号自由が丘フォレストＡ,,13,112,1580083,,,,,,,2024-07-22,1,,,,,イズミジャパン,0
47,1011001163387,新規,0,2024-07-22,2024-07-22,株式会社ＳＡＬＥＮＣＥ,,株式会社,東京都,渋谷区,渋谷２丁目１９－１５宮益坂ビルディング６０９,,13,113,1500002,,,,,,,2024-07-22,1,,,,,セイレンス,0
48,1011001163429,新規,0,2024-07-22,2024-07-22,株式会社ＤｙｎｅＷａｖｅ,,株式会社,東京都,渋谷区,道玄坂１丁目１０番８号渋谷道玄坂東急ビル２Ｆ－Ｃ,,13,113,1500043,,,,,,,2024-07-22,1,,,,,ダインウェイブ,0
49,1011001163461,新規,0,2024-07-22,2024-07-22,株式会社アイビス・アセットマネジメント,,株式会社,東京都,渋谷区,神山町１４番１８号,,13,113,1500047,,,,,,,2024-07-22,1,,,,,アイビスアセットマネジメント,0
50,1011001163528,新規,0,2024-07-22,2024-07-22,株式会社コンテンツ,,株式会社,東京都,渋谷区,渋谷２丁目１９番１５号宮益坂ビルディング６０９,,13,113,1500002,,,,,,,2024-07-22,1,,,,,コンテンツ,0
51,1011001163552,新規,0,2024-07-22,2024-07-22,株式会社Ｓｐａｃｅ　Ｄｅｓｉｇｎ,,株式会社,東京都,渋谷区,上原３丁目３２番９－２０８号リーフィアレジデンス上原,,13,113,1510064,,,,,,,2024-07-22,1,,,,,スペースデザイン,0
52,1011003019587,新規,0,2024-07-22,2024-07-22,Ｊａｐａｎ　Ｃｏｕｎｔｒｙ　Ｍａｎａｇｅｍｅｎｔ合同会社,,合同会社,東京都,目黒区,中目黒１丁目５－１２－５０３,,13,110,1530061,,,,,,,2024-07-22,1,,,,,ジャパンカントリーマナジメント,0
59,1011101108110,新規,0,2024-07-22,2024-07-22,株式会社ナンバーシックス,,株式会社,東京都,新宿区,西新宿６丁目６番３号,,13,104,1600023,,,,,,,2024-07-22,1,,,,,ナンバーシックス,0
62,1011301029825,新規,0,2024-07-22,2024-07-22,株式会社アルテ舎,,株式会社,東京都,杉並区,上高井戸１丁目２番６号,,13,115,1680074,,,,,,,2024-07-22,1,,,,,アルテシャ,0
70,1011703003898,新規,0,2024-07-22,2024-07-22,ＹＭ‐ｅｔ合同会社,,合同会社,東京都,江戸川区,南葛西２丁目９－１７第二ＫＭビル２０３,,13,123,1340085,,,,,,,2024-07-22,1,,,,,イムエット,0
86,1013301052856,新規,0,2024-07-22,2024-07-22,東川株式会社,,株式会社,東京都,豊島区,池袋２丁目２４番２号１４０２号,,13,116,1710014,,,,,,,2024-07-22,1,,,,,ヒガシカワ,0
91,1020001158149,新規,0,2024-07-22,2024-07-22,株式会社テクノリレーションズ,,株式会社,神奈川県,横浜市神奈川区,金港町５－１４クアドリフォリオ８階,,14,102,2210056,,,,,,,2024-07-22,1,,,,,テクノリレーションズ,0
92,1020001158157,新規,0,2024-07-22,2024-07-22,株式会社エムナビ,,株式会社,神奈川県,横浜市中区,本牧原５番１－１２１２号,,14,104,2310821,,,,,,,2024-07-22,1,,,,,エムナビ,0
93,1020001158330,新規,0,2024-07-22,2024-07-22,株式会社ＡＲＴ,,株式会社,神奈川県,川崎市中原区,市ノ坪４１０番地３７,,14,133,2110016,,,,,,,2024-07-22,1,,,,,アルト,0
99,1020003026502,新規,0,2024-07-22,2024-07-22,合同会社ＬＩＦＥ　ＷＩＴＨ,,合同会社,神奈川県,川崎市中原区,中丸子１３番地１７ザ・コスギタワー３１０４,,14,133,2110012,,,,,,,2024-07-22,1,,,,,ライフウィズ,0
100,1020003026510,新規,0,2024-07-22,2024-07-22,合同会社あかしーの,,合同会社,神奈川県,川崎市幸区,古川町８７番地ナイスアーバンスクエア新川崎エアリーコート４２０,,14,132,2120025,,,,,,,2024-07-22,1,,,,,アカシーノ,0
101,1020003026519,新規,0,2024-07-22,2024-07-22,ＭＲＫ合同会社,,合同会社,神奈川県,横浜市栄区,野七里１丁目３１番２５号,,14,115,2470024,,,,,,,2024-07-22,1,,,,,エムアールケイ,0
102,1020003026543,新規,0,2024-07-22,2024-07-22,Ｍｉｌｋｙ　ｗａｙ　ｇｌｏｂａｌ合同会社,,合同会社,神奈川県,横浜市中区,小港町１丁目１番地２ビューコート小港２号棟１０１号室,,14,104,2310802,,,,,,,2024-07-22,1,,,,,ミルキーウェイグローバル,0
103,1020003026551,新規,0,2024-07-22,2024-07-22,エイゴゾーン合同会社,,合同会社,神奈川県,川崎市多摩区,菅馬場３丁目２４番２５号,,14,135,2140004,,,,,,,2024-07-22,1,,,,,エイゴゾーン,0
111,1030001161523,新規,0,2024-07-22,2024-07-22,元井株式会社,,株式会社,埼玉県,本庄市,寿３丁目２－１,,11,211,3670023,,,,,,,2024-07-22,1,,,,,モトイ,0
112,1030001161531,新規,0,2024-07-22,2024-07-22,株式会社ＳＧＣ,,株式会社,埼玉県,三郷市,さつき平１丁目４番２－１２０８号,,11,237,3410021,,,,,,,2024-07-22,1,,,,,エスジーシー,0
122,1040001134635,新規,0,2024-07-22,2024-07-22,ライフサポートＮＥＸ株式会社,,株式会社,千葉県,八千代市,萱田町１番地１３,,12,221,2760044,,,,,,,2024-07-22,1,,,,,ライフサポートネックス,0
123,1040001134643,新規,0,2024-07-22,2024-07-22,株式会社ＲＯＯＭ,,株式会社,千葉県,船橋市,二和東６丁目１６番地９みさと店舗１０２,,12,204,2740805,,,,,,,2024-07-22,1,,,,,ルーム,0
125,1050001055120,新規,0,2024-07-22,2024-07-22,ＴＡＫＵＭＩ　ＩＮＮＯＶＡＴＩＯＮ株式会社,,株式会社,茨城県,坂東市,幸田１４０５番地２６,,08,228,3060606,,,,,,,2024-07-22,1,,,,,タクミイノベーション,0
126,1050003008530,新規,0,2024-07-22,2024-07-22,合同会社ドン,,合同会社,茨城県,土浦市,桜町２丁目５番７号,,08,203,3000037,,,,,,,2024-07-22,1,,,,,ドン,0
127,1050003008547,新規,0,2024-07-22,2024-07-22,ＳＯＯＲＩＹＡ　ＩＮＴＥＲＮＡＴＩＯＮＡＬ合同会社,,合同会社,茨城県,坂東市,菅谷１４６６－４,,08,228,3060505,,,,,,,2024-07-22,1,,,,,スーリヤインターナショナル,0
135,1080101024897,新規,0,2024-07-22,2024-07-22,株式会社ビートエイト,,株式会社,静岡県,富士市,吉原４丁目２０番３号サクラビル３Ｆ,,22,210,4170051,,,,,,,2024-07-22,1,,,,,ビートエイト,0
150,1120001266841,新規,0,2024-07-22,2024-07-22,天界株式会社,,株式会社,大阪府,大阪市住吉区,苅田３丁目１４番２０－３１３号,,27,120,5580011,,,,,,,2024-07-22,1,,,,,テンガイ,0
151,1120001266890,新規,0,2024-07-22,2024-07-22,ＥａｃｈＱＷｏｒＫ株式会社,,株式会社,大阪府,大阪市中央区,上本町西３丁目３番５号,,27,128,5420062,,,,,,,2024-07-22,1,,,,,イーチキューワーク,0
152,1120001266949,新規,0,2024-07-22,2024-07-22,株式会社武田工芸,,株式会社,大阪府,大阪市中央区,谷町６丁目１７－３９－５０４,,27,128,5420012,,,,,,,2024-07-22,1,,,,,タケダコウゲイ,0
153,1120001266957,新規,0,2024-07-22,2024-07-22,株式会社原田急便,,株式会社,大阪府,大阪市鶴見区,今津北４丁目９番２７号,,27,124,5380041,,,,,,,2024-07-22,1,,,,,ハラダキュウビン,0
154,1120001266965,新規,0,2024-07-22,2024-07-22,マルミプレーティング株式会社,,株式会社,大阪府,大阪市生野区,中川西３丁目７番１５号,,27,116,5440032,,,,,,,2024-07-22,1,,,,,マルミプレーティング,0
155,1120001266981,新規,0,2024-07-22,2024-07-22,株式会社Ｂｌｕｅ　Ｒｏｓｅ,,株式会社,大阪府,大阪市中央区,北浜２丁目２番２１号－３３０８,,27,128,5410041,,,,,,,2024-07-22,1,,,,,ブルーローズ,0
156,1120001267006,新規,0,2024-07-22,2024-07-22,博創時空貿易株式会社,,株式会社,大阪府,大阪市住吉区,殿辻１丁目２－２６シーズコート住吉１０３号,,27,120,5580042,,,,,,,2024-07-22,1,,,,,ハクソウジクウボウエキ,0
159,1120003027069,新規,0,2024-07-22,2024-07-22,合同会社Ｌｉｆｅ　ｉｓ　ＯＯ,,合同会社,大阪府,大阪市淀川区,新高１丁目１０番１３－１００４号,,27,123,5320033,,,,,,,2024-07-22,1,,,,,ライフイズオー,0
164,1120103005957,新規,0,2024-07-22,2024-07-22,合同会社清晴,,合同会社,大阪府,岸和田市,南上町１丁目２６番１３号,,27,202,5960078,,,,,,,2024-07-22,1,,,,,シンセイ,0
167,1120901049486,新規,0,2024-07-22,2024-07-22,株式会社Ｔ＆Ｂコンサルティング,,株式会社,大阪府,箕面市,桜ケ丘４丁目９番２７号,,27,220,5620046,,,,,,,2024-07-22,1,,,,,ティーアンドビーコンサルティング,0
168,1120901049494,新規,0,2024-07-22,2024-07-22,株式会社土島総建,,株式会社,大阪府,高槻市,東五百住町２丁目１番５－１０１号,,27,207,5690811,,,,,,,2024-07-22,1,,,,,トシマソウケン,0
169,1120903005272,新規,0,2024-07-22,2024-07-22,合同会社北摂経営研究所,,合同会社,大阪府,箕面市,箕面３丁目８－４１,,27,220,5620001,,,,,,,2024-07-22,1,,,,,ホクセツケイエイケンキュウショ,0
172,1122001038287,新規,0,2024-07-22,2024-07-22,株式会社ＴＳＵＺＩＫＩＣＨＩ,,株式会社,大阪府,八尾市,宮町４丁目２番３４号,,27,212,5810815,,,,,,,2024-07-22,1,,,,,ツジキチ,0
176,1140001135193,新規,0,2024-07-22,2024-07-22,株式会社ケーエスエンジニアリング,,株式会社,兵庫県,加古川市,加古川町木村７０９番地の２,,28,210,6750038,,,,,,,2024-07-22,1,,,,,ケーエスエンジニアリング,0
178,1140003020848,新規,0,2024-07-22,2024-07-22,合同会社Ｍ‐Ｓｃｈｎａ,,合同会社,兵庫県,明石市,大久保町ゆりのき通２丁目５０番地の６Ａ棟９１２号,,28,203,6740068,,,,,,,2024-07-22,1,,,,,エムシュナ,0
181,1160001026085,新規,0,2024-07-22,2024-07-22,サンレイク土地建物株式会社,,株式会社,滋賀県,守山市,守山４丁目１３番２８号,,25,207,5240022,,,,,,,2024-07-22,1,,,,,サンレイクトチタテモノ,0
182,1160005011323,新規,0,2024-07-22,2024-07-22,一般社団法人ｙｏｕｒｓｈｉｐ,,その他の設立登記法人,滋賀県,愛知郡愛荘町,沓掛６３３,,25,425,5291315,,,,,,,2024-07-22,1,,,,,ユアシップ,0
189,1180001162399,新規,0,2024-07-22,2024-07-22,株式会社ＥＲＡＢＥＬＬ,,株式会社,愛知県,名古屋市天白区,福池１丁目３０２番地,,23,116,4680049,,,,,,,2024-07-22,1,,,,,エラベル,0
190,1180001162481,新規,0,2024-07-22,2024-07-22,ＥＣＴ株式会社,,株式会社,愛知県,名古屋市熱田区,二番２丁目１７番９号,,23,109,4560052,,,,,,,2024-07-22,1,,,,,イーシーティー,0
191,1180001162498,新規,0,2024-07-22,2024-07-22,株式会社ＡＵＲＡ,,株式会社,愛知県,大府市,共和町１丁目１１番地の３,,23,223,4740061,,,,,,,2024-07-22,1,,,,,アウラ,0
195,1180003027096,新規,0,2024-07-22,2024-07-22,ＴＭコーポレーション合同会社,,合同会社,愛知県,小牧市,大字岩崎１３４５番地９２,,23,219,4850011,,,,,,,2024-07-22,1,,,,,ティーエムコーポレーション,0
197,1180301038860,新規,0,2024-07-22,2024-07-22,株式会社河興,,株式会社,愛知県,西尾市,西幡豆町中央台８１番地,,23,213,4440703,,,,,,,2024-07-22,1,,,,,カワコウ,0
198,1180303006196,新規,0,2024-07-22,2024-07-22,合同会社ＱＵＡＬＩＴＹ,,合同会社,愛知県,豊橋市,森岡町１５番地２０,,23,201,4411114,,,,,,,2024-07-22,1,,,,,クオリティ,0
200,1190003004747,新規,0,2024-07-22,2024-07-22,ＢＢＬ合同会社,,合同会社,三重県,四日市市,諏訪栄町９番５号諏訪ビル２階,,24,202,5100086,,,,,,,2024-07-22,1,,,,,ビービーエル,0
207,1210003001816,新規,0,2024-07-22,2024-07-22,合同会社ＭＭＫ,,合同会社,福井県,福井市,羽水２丁目１２７番地オリアナ４０３,,18,201,9188114,,,,,,,2024-07-22,1,,,,,エムエムケー,0
212,1240001063566,新規,0,2024-07-22,2024-07-22,株式会社Ｍａｓｔｅｒｏｆａｒｃｈｉｔｅｃｔｕｒｅ,,株式会社,広島県,広島市中区,舟入幸町２番３－２０１号,,34,101,7300844,,,,,,,2024-07-22,1,,,,,マスターオブアーキテクチャ,0
224,1290001106469,新規,0,2024-07-22,2024-07-22,株式会社じゅうＲ不動産,,株式会社,福岡県,福岡市博多区,東比恵１丁目３番２３－３０８号,,40,132,8120007,,,,,,,2024-07-22,1,,,,,ジュウアールフドウサン,0
225,1290001106618,新規,0,2024-07-22,2024-07-22,ＩＢＡＳＨＯＷ株式会社,,株式会社,福岡県,春日市,千歳町１丁目３１番地１,,40,218,8160805,,,,,,,2024-07-22,1,,,,,イバショ,0
247,1360003014167,新規,0,2024-07-22,2024-07-22,西崎パシフィッククラブ合同会社,,合同会社,沖縄県,那覇市,若狭１丁目６番１０号ビーチサイドビル,,47,201,9000031,,,,,,,2024-07-22,1,,,,,ニシザキパシフィッククラブ,0
250,1370001051509,新規,0,2024-07-22,2024-07-22,株式会社空,,株式会社,宮城県,東松島市,赤井字七反谷地４３１番地１グラース華Ｂ棟２０２,,04,214,9810501,,,,,,,2024-07-22,1,,,,,ソラ,0
256,1380001034677,新規,0,2024-07-22,2024-07-22,ＫＥＮＶＯＧＵＥ株式会社,,株式会社,福島県,郡山市,駅前１丁目９番５号ＮＡＴＵＲＥ倶楽部ビルＢ１Ｆ,,07,203,9638002,,,,,,,2024-07-22,1,,,,,ケンヴォーグ,0
263,1430003016577,新規,0,2024-07-22,2024-07-22,合同会社北野台,,合同会社,北海道,札幌市清田区,北野四条５丁目１２‐１５,,01,110,0040864,,,,,,,2024-07-22,1,,,,,キタノダイ,0
273,1700150126366,新規,0,2024-07-22,2024-07-04,守谷ハーフマラソン実行委員会,,その他,茨城県,守谷市,大柏９５０－１,,08,224,3020116,,,,,,,2024-07-04,1,,,,,モリヤハーフマラソンジツコウイインカイ,0
274,1700150126498,新規,0,2024-07-22,2024-07-22,Ｆｏｓｈａｎ　ｃｉｔｙ　ＬｅＱｉ　ｃｏｍｍｅｒｃｉａｌ　ａｎｄ　ｔｒａｄｉｎｇ　Ｃｏ．，Ｌｔｄ,,外国会社等,,,,,,,,Ｒｍ．１７０５，Ｂｕｉｌｄｉｎｇ　Ｂ　Ｍｅｉｓｉ　Ｐｌａｚａ，Ｎｏ．１　Ｃｈａｎｌｏｎｇ　Ｒｏａｄ　Ｙａｎｂｕ，Ｄａｌｉ　Ｔｏｗｎ，Ｎａｎｈａｉ　Ｄｉｓｔｒｉｃｔ,,,,,,2024-07-22,1,,,,,フォーシャンシーラージーシャンマオヨウシエンゴンスー,0
291,2010003044355,新規,0,2024-07-22,2024-07-22,半蔵門マネジメント合同会社,,合同会社,東京都,千代田区,一番町１３－６－７０２,,13,101,1020082,,,,,,,2024-07-22,1,,,,,ハンゾウモンマネジメント,0
292,2010005038512,新規,0,2024-07-22,2024-07-22,一般社団法人日本血管内留置カテーテル研究協議会,,その他の設立登記法人,東京都,文京区,本郷３丁目２６番１－７０２号,,13,105,1130033,,,,,,,2024-07-22,1,,,,,ニホンケッカンナイリュウチカテーテルケンキュウキョウギカイ,0
293,2010005038537,新規,0,2024-07-22,2024-07-22,一般社団法人セントラルレジホールディングス,,その他の設立登記法人,東京都,千代田区,丸の内３丁目１番１号東京共同会計事務所内,,13,101,1000005,,,,,,,2024-07-22,1,,,,,セントラルレジホールディングス,0
307,2010401183903,新規,0,2024-07-22,2024-07-22,株式会社メーテル,,株式会社,東京都,港区,芝公園１丁目１番８－１５０２号,,13,103,1050011,,,,,,,2024-07-22,1,,,,,メーテル,0
308,2010401183952,新規,0,2024-07-22,2024-07-22,株式会社フォスホールディングス,,株式会社,東京都,港区,三田３丁目４番１７号,,13,103,1080073,,,,,,,2024-07-22,1,,,,,フォスホールディングス,0
315,2010501052644,新規,0,2024-07-22,2024-07-22,株式会社令六社,,株式会社,東京都,台東区,下谷１丁目５番２１号,,13,106,1100004,,,,,,,2024-07-22,1,,,,,レイロクシャ,0
317,2010701046297,新規,0,2024-07-22,2024-07-22,株式会社ロジオフィス葉月,,株式会社,東京都,品川区,東大井１丁目１１番２５－１１０５号,,13,109,1400011,,,,,,,2024-07-22,1,,,,,ロジオフィスハヅキ,0
321,2010901055668,新規,0,2024-07-22,2024-07-22,株式会社日暮撮影事務所,,株式会社,東京都,世田谷区,等々力２丁目５番１１号高橋方１０１,,13,112,1580082,,,,,,,2024-07-22,1,,,,,ヒグラシサツエイジムショ,0
330,2011001163403,新規,0,2024-07-22,2024-07-22,株式会社九州ガイドデント,,株式会社,東京都,渋谷区,幡ヶ谷１丁目３４番１４号,,13,113,1510072,,,,,,,2024-07-22,1,,,,,キュウシュウガイドデント,0
331,2011001163428,新規,0,2024-07-22,2024-07-22,株式会社Ｓｅｏｒｙ,,株式会社,東京都,渋谷区,恵比寿西２丁目４番８号ウィンド恵比寿ビル８Ｆ,,13,113,1500021,,,,,,,2024-07-22,1,,,,,セオリー,0
332,2011001163460,新規,0,2024-07-22,2024-07-22,株式会社産燈堂,,株式会社,東京都,渋谷区,道玄坂１丁目１６番６号二葉ビル８Ｂ,,13,113,1500043,,,,,,,2024-07-22,1,,,,,サントウドウ,0
333,2011001163510,新規,0,2024-07-22,2024-07-22,エンターテックエデュケーション株式会社,,株式会社,東京都,渋谷区,神宮前６丁目２３番４号桑野ビル２階,,13,113,1500001,,,,,,,2024-07-22,1,,,,,エンターテックエデュケーション,0
335,2011003019603,新規,0,2024-07-22,2024-07-22,ｏｄｏｒｕｔｏｎｋａｔｓｕ合同会社,,合同会社,東京都,渋谷区,渋谷２丁目１９－１５宮益坂ビルディング６０９,,13,113,1500002,,,,,,,2024-07-22,1,,,,,オドルトンカツ,0
336,2011003019628,新規,0,2024-07-22,2024-07-22,合同会社ＮＯＡ,,合同会社,東京都,目黒区,中目黒２丁目８番９－２０６号ＺＯＯＭ中目黒,,13,110,1530061,,,,,,,2024-07-22,1,,,,,ノア,0
339,2011103014693,新規,0,2024-07-22,2024-07-22,合同会社ルミナインターナショナル,,合同会社,東京都,新宿区,西新宿３丁目３番１３号西新宿水間ビル２Ｆ,,13,104,1600023,,,,,,,2024-07-22,1,,,,,ルミナインターナショナル,0
342,2011301029857,新規,0,2024-07-22,2024-07-22,株式会社ジェネラスアーク,,株式会社,東京都,杉並区,上荻３丁目２５番１０号,,13,115,1670043,,,,,,,2024-07-22,1,,,,,ジェネラスアーク,0
344,2011401026267,新規,0,2024-07-22,2024-07-22,株式会社ＫＡＳＵＭＩ,,株式会社,東京都,板橋区,熊野町４３番７号,,13,119,1730025,,,,,,,2024-07-22,1,,,,,カスミ,0
345,2011501030953,新規,0,2024-07-22,2024-07-22,発展株式会社,,株式会社,東京都,北区,浮間１丁目１番１４号,,13,117,1150051,,,,,,,2024-07-22,1,,,,,ハッテン,0
356,2012403006678,新規,0,2024-07-22,2024-07-22,プロメテウスインベストメント合同会社,,合同会社,東京都,三鷹市,下連雀８丁目５‐５,,13,204,1810013,,,,,,,2024-07-22,1,,,,,プロメテウスインベストメント,0
359,2012801023341,新規,0,2024-07-22,2024-07-22,ｗａｍｏｎｏ株式会社,,株式会社,東京都,東大和市,立野２丁目２番１６号,,13,220,2070021,,,,,,,2024-07-22,1,,,,,ワモノ,0
376,2020001158156,新規,0,2024-07-22,2024-07-22,株式会社焼肉うし和,,株式会社,神奈川県,横浜市中区,太田町５丁目６８番地５明和ビル１階,,14,104,2310011,,,,,,,2024-07-22,1,,,,,ヤキニクウシワ,0
377,2020001158206,新規,0,2024-07-22,2024-07-22,株式会社ｔｏｍｏｒｉ,,株式会社,神奈川県,横浜市緑区,鴨居町２５７６番地２,,14,113,2260004,,,,,,,2024-07-22,1,,,,,トモリ,0
382,2020003026501,新規,0,2024-07-22,2024-07-22,和道合同会社,,合同会社,神奈川県,横浜市青葉区,青葉台１丁目１８番地５アネックス青葉台１０２,,14,117,2270062,,,,,,,2024-07-22,1,,,,,ワドウ,0
393,2030001161407,新規,0,2024-07-22,2024-07-22,株式会社ＫＡＷＡＭＯＴＯ,,株式会社,埼玉県,川口市,西川口１丁目５番２０号４階,,11,203,3320021,,,,,,,2024-07-22,1,,,,,カワモト,0
394,2030001161522,新規,0,2024-07-22,2024-07-22,株式会社林,,株式会社,埼玉県,春日部市,大場１０９９－２Ｆ,,11,214,3440021,,,,,,,2024-07-22,1,,,,,ハヤシ,0
395,2030001161530,新規,0,2024-07-22,2024-07-22,株式会社あてな,,株式会社,埼玉県,さいたま市大宮区,桜木町２丁目３番地,,11,103,3300854,,,,,,,2024-07-22,1,,,,,アテナ,0
396,2030001161563,新規,0,2024-07-22,2024-07-22,株式会社はるスマイル,,株式会社,埼玉県,上尾市,小泉５丁目１５番地１２,,11,219,3620063,,,,,,,2024-07-22,1,,,,,ハルスマイル,0
399,2030003024743,新規,0,2024-07-22,2024-07-22,合同会社ＡＲＣＺ建設,,合同会社,埼玉県,川口市,戸塚１丁目９番４１号エクセレント東川口２０３号,,11,203,3330811,,,,,,,2024-07-22,1,,,,,アークスケンセツ,0
400,2030003024751,新規,0,2024-07-22,2024-07-22,合同会社ＨＩＲＵＮＥ,,合同会社,埼玉県,川口市,南鳩ヶ谷３丁目１１番２０－３号,,11,203,3340013,,,,,,,2024-07-22,1,,,,,,0
410,2040001134527,新規,0,2024-07-22,2024-07-22,ＢＰ　Ｇｒｏｕｐ株式会社,,株式会社,千葉県,市川市,行徳駅前３丁目５番１６号,,12,203,2720133,,,,,,,2024-07-22,1,,,,,ビーピーグループ,0
411,2040001134634,新規,0,2024-07-22,2024-07-22,ｉＢｒａｎｃｈ株式会社,,株式会社,千葉県,市川市,福栄２丁目１１番１０号,,12,203,2720137,,,,,,,2024-07-22,1,,,,,アイブランチ,0
412,2040001134650,新規,0,2024-07-22,2024-07-22,株式会社アイノテ,,株式会社,千葉県,柏市,宿連寺３１番地６,,12,217,2770826,,,,,,,2024-07-22,1,,,,,アイノテ,0
415,2040003025451,新規,0,2024-07-22,2024-07-22,ＥＶＥＲＥＳＴ合同会社,,合同会社,千葉県,佐倉市,将門町２８番地８,,12,212,2850042,,,,,,,2024-07-22,1,,,,,エヴェレスト,0
421,2060001037315,新規,0,2024-07-22,2024-07-22,株式会社Ａｃｅ　Ｔｅｃ,,株式会社,栃木県,宇都宮市,鶴田町９８番地２,,09,201,3200851,,,,,,,2024-07-22,1,,,,,エーステック,0
424,2070001041976,新規,0,2024-07-22,2024-07-22,株式会社ＨＥＭＩ,,株式会社,群馬県,高崎市,吉井町南陽台３丁目２１番地３,,10,202,3702101,,,,,,,2024-07-22,1,,,,,ヘミ,0
426,2080003003255,新規,0,2024-07-22,2024-07-22,合同会社むすび,,合同会社,静岡県,静岡市駿河区,宮竹２丁目６番１号,,22,102,4228035,,,,,,,2024-07-22,1,,,,,,0
427,2080101024896,新規,0,2024-07-22,2024-07-22,株式会社山十,,株式会社,静岡県,伊豆市,小立野１３７番地,,22,222,4102413,,,,,,,2024-07-22,1,,,,,ヤマジュウ,0
431,2100001037657,新規,0,2024-07-22,2024-07-22,株式会社桜梅桃李,,株式会社,長野県,千曲市,大字粟佐１２６１－１,,20,218,3870006,,,,,,,2024-07-22,1,,,,,オウバイトウリ,0
433,2100003007666,新規,0,2024-07-22,2024-07-22,ＫＩＮ・ＫＡＧＡＹＡＫＩ合同会社,,合同会社,長野県,北安曇郡白馬村,大字北城８２８番２７,,20,485,3999301,,,,,,,2024-07-22,1,,,,,キンカガヤキ,0
435,2110001038571,新規,0,2024-07-22,2024-07-22,拓富株式会社,,株式会社,新潟県,柏崎市,田塚２丁目２番２４号Ａ棟－１,,15,205,9450032,,,,,,,2024-07-22,1,,,,,タクトミ,0
436,2110001038588,新規,0,2024-07-22,2024-07-22,株式会社ＮＮＹコーポレーション,,株式会社,新潟県,新潟市中央区,上近江４丁目１番３号,,15,103,9500973,,,,,,,2024-07-22,1,,,,,エヌエヌワイコーポレーション,0
454,2120001266915,新規,0,2024-07-22,2024-07-22,三果株式会社,,株式会社,大阪府,大阪市大正区,三軒家西３丁目４番１６号中山ビル４０９Ｂ,,27,108,5510001,,,,,,,2024-07-22,1,,,,,サンカ,0
455,2120001266948,新規,0,2024-07-22,2024-07-22,株式会社ＩＬＤＯＯ,,株式会社,大阪府,大阪市西区,立売堀４丁目６番２０号,,27,106,5500012,,,,,,,2024-07-22,1,,,,,イルドゥ,0
456,2120001266989,新規,0,2024-07-22,2024-07-22,株式会社ＭＡＫ,,株式会社,大阪府,大阪市城東区,東中浜７丁目２番９号,,27,118,5360023,,,,,,,2024-07-22,1,,,,,マック,0
457,2120001266997,新規,0,2024-07-22,2024-07-22,株式会社ますと,,株式会社,大阪府,大阪市鶴見区,焼野２丁目１０番５０,,27,124,5380037,,,,,,,2024-07-22,1,,,,,マスト,0
458,2120001267005,新規,0,2024-07-22,2024-07-22,詩画株式会社,,株式会社,大阪府,大阪市港区,八幡屋３丁目５番１－２０７号,,27,107,5520014,,,,,,,2024-07-22,1,,,,,シカク,0
462,2120003027084,新規,0,2024-07-22,2024-07-22,合同会社ロイヤル,,合同会社,大阪府,大阪市平野区,加美北９丁目３番３３号,,27,126,5470001,,,,,,,2024-07-22,1,,,,,ロイヤル,0
464,2120101070011,新規,0,2024-07-22,2024-07-22,株式会社ＭＭＰ,,株式会社,大阪府,藤井寺市,沢田２丁目１１番１２号,,27,226,5830011,,,,,,,2024-07-22,1,,,,,エムエムピー,0
466,2122001038278,新規,0,2024-07-22,2024-07-22,株式会社ビジネスシップ,,株式会社,大阪府,東大阪市,弥生町１４－５０,,27,227,5798026,,,,,,,2024-07-22,1,,,,,ビジネスシップ,0
467,2122001038286,新規,0,2024-07-22,2024-07-22,株式会社コンシェルジュホーム,,株式会社,大阪府,東大阪市,足代南１丁目３番１２－２０６号,,27,227,5770842,,,,,,,2024-07-22,1,,,,,コンシェルジュホーム,0
469,2130003009701,新規,0,2024-07-22,2024-07-22,合同会社ＶＩｌｕｃｋ,,合同会社,京都府,京都市伏見区,桃山町山ノ下６２－２クレステージ桃山３１４,,26,109,6128002,,,,,,,2024-07-22,1,,,,,ウェラック,0
470,2130003009718,新規,0,2024-07-22,2024-07-22,Ｂｏｎ‐Ｚｏｏ合同会社,,合同会社,京都府,京都市中京区,西ノ京池ノ内町１６番地６八文字屋ビル３０２,,26,104,6048375,,,,,,,2024-07-22,1,,,,,ボンズー,0
475,2140001135168,新規,0,2024-07-22,2024-07-22,日本図鑑株式会社,,株式会社,兵庫県,神戸市中央区,下山手通２丁目１３番３号建創ビル８Ｆ・９Ｆ,,28,110,6500011,,,,,,,2024-07-22,1,,,,,ニホンズカン,0
476,2140001135176,新規,0,2024-07-22,2024-07-22,ＳＧＴ株式会社,,株式会社,兵庫県,尼崎市,大庄西町３丁目１６番１５号,,28,202,6600077,,,,,,,2024-07-22,1,,,,,エスジーティー,0
477,2140001135218,新規,0,2024-07-22,2024-07-22,ＡＫリアルエステート株式会社,,株式会社,兵庫県,南あわじ市,賀集立川瀬９１２番地,,28,224,6560512,,,,,,,2024-07-22,1,,,,,エーケーリアルエステート,0
478,2140001135226,新規,0,2024-07-22,2024-07-22,レッドローズパートナーズ株式会社,,株式会社,兵庫県,神戸市東灘区,向洋町中１丁目１０番地１０１号棟３６１１号室,,28,101,6580032,,,,,,,2024-07-22,1,,,,,レッドローズパートナーズ,0
480,2140005027163,新規,0,2024-07-22,2024-07-22,一般社団法人国際交流協会青空,,その他の設立登記法人,兵庫県,三田市,南が丘２丁目１番地２８ＭＹビル２Ｆ,,28,219,6691535,,,,,,,2024-07-22,1,,,,,コクサイコウリュウキョウカイアオゾラ,0
481,2160001026092,新規,0,2024-07-22,2024-07-22,株式会社ＢＯＮＤＳ,,株式会社,滋賀県,草津市,笠山２丁目３番４９号,,25,206,5250072,,,,,,,2024-07-22,1,,,,,ボンズ,0
483,2180001162381,新規,0,2024-07-22,2024-07-22,株式会社スリースターズグローバル,,株式会社,愛知県,名古屋市昭和区,鶴舞２丁目１９番３号ＨＧＢＬＤＧ２階,,23,107,4660064,,,,,,,2024-07-22,1,,,,,スリースターズグローバル,0
484,2180001162398,新規,0,2024-07-22,2024-07-22,株式会社１０ＤＥＳＩＧＮ,,株式会社,愛知県,名古屋市緑区,鳴海町字前之輪２４０番地,,23,114,4580834,,,,,,,2024-07-22,1,,,,,テンデザイン,0
485,2180001162415,新規,0,2024-07-22,2024-07-22,株式会社興盛商事,,株式会社,愛知県,稲沢市,祖父江町二俣柳原８４３番地８,,23,220,4950013,,,,,,,2024-07-22,1,,,,,コウセイショウジ,0
486,2180001162480,新規,0,2024-07-22,2024-07-22,株式会社藤原建設,,株式会社,愛知県,名古屋市千種区,菊坂町２丁目１７番地の３（メゾン・ド・覚王山２０６号）,,23,101,4640836,,,,,,,2024-07-22,1,,,,,フジワラケンセツ,0
491,2180301038868,新規,0,2024-07-22,2024-07-22,松ホーム株式会社,,株式会社,愛知県,岡崎市,藤川町字河原２０番地１,,23,202,4443523,,,,,,,2024-07-22,1,,,,,マツホーム,0
497,2200003006435,新規,0,2024-07-22,2024-07-22,合同会社ＴＭＲ,,合同会社,岐阜県,岐阜市,下奈良２丁目１５－１,,21,201,5008385,,,,,,,2024-07-22,1,,,,,ティーエムアール,0
498,2210001019834,新規,0,2024-07-22,2024-07-22,株式会社ＭＩＫＵ,,株式会社,福井県,坂井市,春江町江留上昭和３４番,,18,210,9190463,,,,,,,2024-07-22,1,,,,,ミク,0
517,2290001106369,新規,0,2024-07-22,2024-07-22,株式会社ビズノヴァ,,株式会社,福岡県,春日市,岡本１丁目５番,,40,218,8160861,,,,,,,2024-07-22,1,,,,,ビズノヴァ,0
518,2290001106435,新規,0,2024-07-22,2024-07-22,株式会社ドットアークス,,株式会社,福岡県,福岡市博多区,博多駅東１丁目１番３３号はかた近代ビル７階,,40,132,8120013,,,,,,,2024-07-22,1,,,,,ドットアークス,0
521,2300001013844,新規,0,2024-07-22,2024-07-22,株式会社フロレセル,,株式会社,佐賀県,佐賀市,長瀬町１番１６号アムール２１－１０７号,,41,201,8400853,,,,,,,2024-07-22,1,,,,,フロレセル,0
525,2310003004824,新規,0,2024-07-22,2024-07-22,合同会社ＫＥＩＫＡ,,合同会社,長崎県,長崎市,平野町１１番１０号,,42,201,8528117,,,,,,,2024-07-22,1,,,,,ケイカ,0
531,2330001032247,新規,0,2024-07-22,2024-07-22,＿都株式会社,00135642,株式会社,熊本県,熊本市中央区,帯山３丁目２０番１７号,,43,101,8620924,,,,,,,2024-07-22,1,,,,,ホウト,0
539,2340003004540,新規,0,2024-07-22,2024-07-22,合同会社奄美いんまや動物病院,,合同会社,鹿児島県,大島郡龍郷町,中勝１５６９番地１,,46,527,8940106,,,,,,,2024-07-22,1,,,,,アマミインマヤドウブツビョウイン,0
540,2340003004549,新規,0,2024-07-22,2024-07-22,合同会社ＺＭ６,,合同会社,鹿児島県,鹿児島市,草牟田２丁目１－６,,46,201,8900014,,,,,,,2024-07-22,1,,,,,ズィーエムシックス,0
546,2360001033960,新規,0,2024-07-22,2024-07-22,株式会社伊良部,,株式会社,沖縄県,石垣市,字登野城５２３番地１５,,47,207,9070004,,,,,,,2024-07-22,1,,,,,イラブ,0
554,2370003006682,新規,0,2024-07-22,2024-07-22,合同会社ＩＳＨＯ,,合同会社,宮城県,仙台市青葉区,中央１丁目２番３号仙台マークワン１９階,,04,101,9800021,,,,,,,2024-07-22,1,,,,,イショウ,0
558,2380003005816,新規,0,2024-07-22,2024-07-22,ヌトルム合同会社,,合同会社,福島県,伊達郡国見町,板橋南１４番地４板橋南子育て住宅２－Ａ,,07,303,9691785,,,,,,,2024-07-22,1,,,,,ヌトルム,0
566,2430001092289,新規,0,2024-07-22,2024-07-22,株式会社ＳＨＯ,,株式会社,北海道,札幌市厚別区,厚別東四条４丁目９番３５号,,01,108,0040004,,,,,,,2024-07-22,1,,,,,ショウ,0
567,2430001092297,新規,0,2024-07-22,2024-07-22,株式会社ＴＡＮＡＫＡＧＡＫＵＥＮ　ＨＯＬＤＩＮＧＳ,,株式会社,北海道,札幌市豊平区,西岡四条４丁目９番５号,,01,105,0620034,,,,,,,2024-07-22,1,,,,,タナカガクエンホールディングス,0
568,2430003016576,新規,0,2024-07-22,2024-07-22,合同会社Ｐｏｌｙｇｏｎ,,合同会社,北海道,虻田郡倶知安町,北三条東５丁目１番地１グランドール２０３,,01,400,0440003,,,,,,,2024-07-22,1,,,,,ポリゴン,0
578,2490003001911,新規,0,2024-07-22,2024-07-22,アルテーノ合同会社,,合同会社,高知県,高知市,潮見台１丁目１５０４番地,,39,201,7815108,,,,,,,2024-07-22,1,,,,,,0
582,2700150044848,新規,0,2024-07-22,2015-10-09,静岡県保険医協会,,その他,静岡県,静岡市駿河区,南町１８－１サウスポット静岡８Ｆ,,22,102,4228067,,,,,,,2015-10-09,1,,,,,シズオカケンホケンイキヨウカイ,0
583,2700150126497,新規,0,2024-07-22,2024-07-22,ＭａｉＫｅＡｉＤｉａｎＺｉＳｈａｎｇＷｕＺｈｏｎｇＳｈａｎＳｈｉＹｏｕＸｉａｎＺｅＲｅｎＧｏｎｇＳｉ,,外国会社等,,,,,,,,ＺｈｏｎｇＳｈａｎＳｈｉＨｕｏＪｕＫａｉＦａＱｕＬｉｕＨｅＳｈｅＱｕＪｉａｎｇＬｉｎｇＤｏｎｇＬｕ２３ＨａｏＨｅＴａｉＪｉａＹｕａｎ１Ｚｈｕａｎｇ１２ＫａＣ,,,,,,2024-07-22,1,,,,,マイコーアイディエンズーシャンウージョンシャンシーヨウシエンゾーレンゴンスー,0
595,3010003044379,新規,0,2024-07-22,2024-07-22,クンツァイトツー合同会社,,合同会社,東京都,中央区,日本橋１丁目４番１号日本橋一丁目ビルディング,,13,102,1030027,,,,,,,2024-07-22,1,,,,,クンツァイトツー,0
606,3010401183910,新規,0,2024-07-22,2024-07-22,株式会社ＳＨＯＷ‐ＧＵＮ,,株式会社,東京都,港区,六本木１丁目６番１号泉ガーデンタワー３９階,,13,103,1060032,,,,,,,2024-07-22,1,,,,,ショウグン,0
607,3010401183943,新規,0,2024-07-22,2024-07-22,株式会社ＷＯＲＬＤ　ＯＮＥ　ＴＯＫＹＯ,,株式会社,東京都,港区,赤坂５丁目５番７号,,13,103,1070052,,,,,,,2024-07-22,1,,,,,ワールドワントウキョウ,0
609,3010403033072,新規,0,2024-07-22,2024-07-22,合同会社シェアでんき２４,,合同会社,東京都,港区,元赤坂１丁目１番８号赤坂コミュニティビル４階,,13,103,1070051,,,,,,,2024-07-22,1,,,,,シェアデンキニジュウヨン,0
611,3010405023419,新規,0,2024-07-22,2024-07-22,一般社団法人シェアでんき２４,,その他の設立登記法人,東京都,港区,元赤坂１丁目１番８号赤坂コミュニティビル４階,,13,103,1070051,,,,,,,2024-07-22,1,,,,,シェアデンキニジュウヨン,0
615,3010601065578,新規,0,2024-07-22,2024-07-22,株式会社たきぐちカンパニー,,株式会社,東京都,江東区,永代２丁目３４番１１－７０１号,,13,108,1350034,,,,,,,2024-07-22,1,,,,,タキグチカンパニー,0
617,3010701046296,新規,0,2024-07-22,2024-07-22,株式会社ＳＵＮＤＡＹＳ,,株式会社,東京都,品川区,西五反田２丁目１３番８号,,13,109,1410031,,,,,,,2024-07-22,1,,,,,サンデイズ,0
621,3010901055667,新規,0,2024-07-22,2024-07-22,鷹番アセットマネジメント株式会社,,株式会社,東京都,世田谷区,新町１丁目８番２３号,,13,112,1540014,,,,,,,2024-07-22,1,,,,,タカバンアセットマネジメント,0
622,3010903009225,新規,0,2024-07-22,2024-07-22,合同会社Ｏｎ　Ｙｏｕｒ　Ｍａｒｋ３６５,,合同会社,東京都,世田谷区,中町３丁目１６番１５号,,13,112,1580091,,,,,,,2024-07-22,1,,,,,オンユアマークサンロクゴ,0
629,3011001163393,新規,0,2024-07-22,2024-07-22,株式会社Ｆｉｎｄ,,株式会社,東京都,渋谷区,渋谷２丁目１９番１５号宮益坂ビルディング６０９,,13,113,1500002,,,,,,,2024-07-22,1,,,,,ファインド,0
630,3011001163419,新規,0,2024-07-22,2024-07-22,株式会社Ａｌｌｉｎ,,株式会社,東京都,渋谷区,渋谷２丁目１９－１５宮益坂ビルディング６０９,,13,113,1500002,,,,,,,2024-07-22,1,,,,,オールイン,0
631,3011001163427,新規,0,2024-07-22,2024-07-22,株式会社エービーシープログラミングス,,株式会社,東京都,渋谷区,渋谷２丁目１９番１５号宮益坂ビルディング６０９,,13,113,1500002,,,,,,,2024-07-22,1,,,,,エービーシープログラミングス,0
632,3011001163435,新規,0,2024-07-22,2024-07-22,株式会社都市空間総合研究所,,株式会社,東京都,渋谷区,本町３丁目１２番１号住友不動産西新宿ビル６号館１２階,,13,113,1510071,,,,,,,2024-07-22,1,,,,,トシクウカンソウゴウケンキュウショ,0
633,3011001163451,新規,0,2024-07-22,2024-07-22,株式会社ｅｆｆｅｔ　ｐｏｌｌｅｎ,,株式会社,東京都,渋谷区,東１丁目２５番２号丸橋ビル４階,,13,113,1500011,,,,,,,2024-07-22,1,,,,,エフェポレン,0
634,3011001163501,新規,0,2024-07-22,2024-07-22,株式会社ロバストエンジン,,株式会社,東京都,渋谷区,渋谷２丁目１９番１５号宮益坂ビルディング６０９号室,,13,113,1500002,,,,,,,2024-07-22,1,,,,,ロバストエンジン,0
635,3011001163526,新規,0,2024-07-22,2024-07-22,株式会社ＲＥＤＵＣＴ,,株式会社,東京都,渋谷区,恵比寿西２丁目８番４号ＥＸ恵比寿西ビル５階,,13,113,1500021,,,,,,,2024-07-22,1,,,,,リダクト,0
636,3011001163534,新規,0,2024-07-22,2024-07-22,Ｄｅｅｐ　Ｆａｋｅ　ＡＩ　Ｌａｂ株式会社,,株式会社,東京都,渋谷区,広尾１丁目１５番３号クオリア恵比寿パークフロント７０２,,13,113,1500012,,,,,,,2024-07-22,1,,,,,ディープフェイクエーアイラボ,0
638,3011003019610,新規,0,2024-07-22,2024-07-22,合同会社パラード,,合同会社,東京都,目黒区,大橋１丁目２番１０号,,13,110,1530044,,,,,,,2024-07-22,1,,,,,パラード,0
639,3011003019627,新規,0,2024-07-22,2024-07-22,合同会社ガボットコンセプト,,合同会社,東京都,渋谷区,恵比寿西２丁目４番８号ウィンド恵比寿ビル８Ｆ,,13,113,1500021,,,,,,,2024-07-22,1,,,,,ガボットコンセプト,0
644,3011101108109,新規,0,2024-07-22,2024-07-22,辻・本郷インシュアランス株式会社,00135655,株式会社,東京都,新宿区,西新宿１丁目２５番１号新宿センタービル３１Ｆ,,13,104,1600023,,,,,,,2024-07-22,1,,,,,ツジホンゴウインシュアランス,0
645,3011101108117,新規,0,2024-07-22,2024-07-22,株式会社Ｎａｉａ,,株式会社,東京都,新宿区,西早稲田３丁目２９番９号クロスレジデンス高田馬場７０５,,13,104,1690051,,,,,,,2024-07-22,1,,,,,ナイア,0
646,3011101108133,新規,0,2024-07-22,2024-07-22,いくら株式会社,,株式会社,東京都,新宿区,新宿７丁目２２－９Ｇｌａｎｚ東新宿３０１,,13,104,1600022,,,,,,,2024-07-22,1,,,,,イクラ,0
647,3011105011102,新規,0,2024-07-22,2024-07-22,特定非営利活動法人Ｋｈｕｓｉ,,その他の設立登記法人,東京都,新宿区,百人町１丁目１７番５－１０１号,,13,104,1690073,,,,,,,2024-07-22,1,,,,,クシ,0
666,3012801023349,新規,0,2024-07-22,2024-07-22,株式会社ＥＸ‐ＬＩＮＫＳ,,株式会社,東京都,昭島市,緑町１丁目１４番２１号,,13,207,1960004,,,,,,,2024-07-22,1,,,,,エクスリンクス,0
669,3013301052862,新規,0,2024-07-22,2024-07-22,東新グランドアーク株式会社,,株式会社,東京都,豊島区,駒込２丁目３－６駒込北口第１ビル３階,,13,116,1700003,,,,,,,2024-07-22,1,,,,,トウシングランドアーク,0
676,3020001158155,新規,0,2024-07-22,2024-07-22,株式会社ｄｐコーポレーション,,株式会社,神奈川県,横浜市都筑区,茅ケ崎中央２１番８－４０２号,,14,118,2240032,,,,,,,2024-07-22,1,,,,,ディーピーコーポレーション,0
677,3020001158163,新規,0,2024-07-22,2024-07-22,株式会社岩崎鐵工,00135652,株式会社,神奈川県,横浜市鶴見区,向井町４丁目８６番地１８,,14,101,2300037,,,,,,,2024-07-22,1,,,,,イワサキテッコウ,0
678,3020001158312,新規,0,2024-07-22,2024-07-22,株式会社Ｙ’ｓ　ＨＯＵＳＥ,,株式会社,神奈川県,川崎市中原区,宮内４丁目９番３２号,,14,133,2110051,,,,,,,2024-07-22,1,,,,,ワイズハウス,0
679,3020001158386,新規,0,2024-07-22,2024-07-22,株式会社ＫＪシステムズ,,株式会社,神奈川県,横浜市栄区,飯島町５３２番地４６,,14,115,2440842,,,,,,,2024-07-22,1,,,,,ケージェイシステムズ,0
682,3020003026500,新規,0,2024-07-22,2024-07-22,合同会社クレイニクス,,合同会社,神奈川県,横浜市青葉区,荏田町２３１－１ファミールあざみ野９０２,,14,117,2250013,,,,,,,2024-07-22,1,,,,,クレイニクス,0
683,3020003026517,新規,0,2024-07-22,2024-07-22,合同会社バルブバック,,合同会社,神奈川県,横浜市神奈川区,栄町１０番地３５ザ・ヨコハマタワーズＷ３４０１号,,14,102,2210052,,,,,,,2024-07-22,1,,,,,バルブバック,0
684,3020003026590,新規,0,2024-07-22,2024-07-22,合同会社ＬＵＦＡ,,合同会社,神奈川県,横浜市中区,諏訪町２６―９,,14,104,2310863,,,,,,,2024-07-22,1,,,,,ルファ,0
687,3020005016482,新規,0,2024-07-22,2024-07-22,一般社団法人ＵＢＳ,,その他の設立登記法人,神奈川県,横浜市中区,相生町６丁目１０４番地２横浜相生町ビル９階株式会社ニッシン内,,14,104,2310012,,,,,,,2024-07-22,1,,,,,ユービーエス,0
700,3030001161513,新規,0,2024-07-22,2024-07-22,株式会社なないろ,,株式会社,埼玉県,川越市,今成１丁目３－８,,11,201,3501105,,,,,,,2024-07-22,1,,,,,ナナイロ,0
701,3030001161521,新規,0,2024-07-22,2024-07-22,株式会社ＯＤＥＮ,,株式会社,埼玉県,川越市,城下町３９番地７,,11,201,3500853,,,,,,,2024-07-22,1,,,,,オデン,0
706,3030003024742,新規,0,2024-07-22,2024-07-22,合同会社宇津木,,合同会社,埼玉県,幸手市,北３丁目３番７号,,11,240,3400111,,,,,,,2024-07-22,1,,,,,ウツギ,0
707,3030003024767,新規,0,2024-07-22,2024-07-22,合同会社あまかね,,合同会社,埼玉県,さいたま市桜区,桜田１丁目１２番１３号,,11,106,3380833,,,,,,,2024-07-22,1,,,,,アマカネ,0
715,3040001134617,新規,0,2024-07-22,2024-07-22,株式会社ＫＲＢ,,株式会社,千葉県,茂原市,長尾２６９３番地２,,12,210,2970073,,,,,,,2024-07-22,1,,,,,ケイアールビー,0
716,3040001134633,新規,0,2024-07-22,2024-07-22,株式会社光プロ,,株式会社,千葉県,船橋市,咲が丘２丁目３７番１５号,,12,204,2740807,,,,,,,2024-07-22,1,,,,,ヒカリプロ,0
719,3040003025450,新規,0,2024-07-22,2024-07-22,王子合同会社,,合同会社,千葉県,柏市,大塚町５番１５号,,12,217,2770026,,,,,,,2024-07-22,1,,,,,オウジ,0
723,3050001055102,新規,0,2024-07-22,2024-07-22,株式会社ノリコンガンＪａｐａｎ,,株式会社,茨城県,石岡市,石岡２３１３番２１,,08,205,3150001,,,,,,,2024-07-22,1,,,,,ノリコンガンジャパン,0
728,3060003005161,新規,0,2024-07-22,2024-07-22,ＭＲ　ＴＲＡＤＩＮＧ合同会社,,合同会社,栃木県,小山市,駅南町３丁目１９番５号ヤマトスカイハイツ２０２号室,,09,208,3230822,,,,,,,2024-07-22,1,,,,,エムアールトレーディング,0
733,3070003005508,新規,0,2024-07-22,2024-07-22,合同会社心香,,合同会社,群馬県,前橋市,天川町１６２４番地７,,10,201,3710802,,,,,,,2024-07-22,1,,,,,ココ,0
734,3080001026389,新規,0,2024-07-22,2024-07-22,株式会社風月花,,株式会社,静岡県,静岡市葵区,鷹匠１丁目１２番１２号,,22,101,4200839,,,,,,,2024-07-22,1,,,,,フウゲツカ,0
735,3080003003254,新規,0,2024-07-22,2024-07-22,合同会社ＲＬＣ,,合同会社,静岡県,静岡市駿河区,下川原２丁目２０番１５－４０２号,,22,102,4210113,,,,,,,2024-07-22,1,,,,,アールエルシー,0
737,3080101024895,新規,0,2024-07-22,2024-07-22,株式会社創心工業,,株式会社,静岡県,富士市,大淵３０番地の７,,22,210,4170801,,,,,,,2024-07-22,1,,,,,ソウシンコウギョウ,0
738,3090001018815,新規,0,2024-07-22,2024-07-22,＿盛株式会社,00135653,株式会社,山梨県,甲府市,酒折２丁目９－２３ＲＣコード１０２室,,19,201,4000805,,,,,,,2024-07-22,1,,,,,キンセイ,0
751,3120001266897,新規,0,2024-07-22,2024-07-22,東上久治株式会社,,株式会社,大阪府,大阪市中央区,南本町４丁目３－１６－３６０１,,27,128,5410054,,,,,,,2024-07-22,1,,,,,トウジョウキュウジ,0
752,3120001266914,新規,0,2024-07-22,2024-07-22,青木川株式会社,,株式会社,大阪府,大阪市阿倍野区,北畠３丁目４番１２－１０１号,,27,119,5450035,,,,,,,2024-07-22,1,,,,,セイボクカワ,0
753,3120001266988,新規,0,2024-07-22,2024-07-22,株式会社ライトオブライフ,,株式会社,大阪府,大阪市阿倍野区,北畠１丁目１番４９号,,27,119,5450035,,,,,,,2024-07-22,1,,,,,ライトオブライフ,0
759,3120005024434,新規,0,2024-07-22,2024-07-22,一般社団法人海洋ごみゼロ推進協議会,,その他の設立登記法人,大阪府,大阪市西区,新町４丁目８番８－１１０６号,,27,106,5500013,,,,,,,2024-07-22,1,,,,,カイヨウゴミゼロスイシンキョウギカイ,0
765,3120901049492,新規,0,2024-07-22,2024-07-22,株式会社クライマシー,,株式会社,大阪府,吹田市,岸部新町６番１号,,27,205,5640018,,,,,,,2024-07-22,1,,,,,クライマシー,0
775,3130001077484,新規,0,2024-07-22,2024-07-22,株式会社スカイエクシード,,株式会社,京都府,京田辺市,草内南垣内４６－１０,,26,211,6100311,,,,,,,2024-07-22,1,,,,,スカイエクシード,0
779,3130003009709,新規,0,2024-07-22,2024-07-22,奥和合同会社,,合同会社,京都府,京都市伏見区,久我森の宮町２番地２８３,,26,109,6128495,,,,,,,2024-07-22,1,,,,,オクワ,0
785,3140001135175,新規,0,2024-07-22,2024-07-22,株式会社ＨＴＤ,,株式会社,兵庫県,尼崎市,東園田町５丁目５９番地の２－２０２,,28,202,6610953,,,,,,,2024-07-22,1,,,,,エイチティーディー,0
786,3140001135191,新規,0,2024-07-22,2024-07-22,双英開発株式会社,,株式会社,兵庫県,尼崎市,三反田町２丁目７番３７号,,28,202,6610024,,,,,,,2024-07-22,1,,,,,ソウエイカイハツ,0
787,3140001135200,新規,0,2024-07-22,2024-07-22,株式会社三好設計事務所,,株式会社,兵庫県,川辺郡猪名川町,白金１丁目７８番地３,,28,301,6660257,,,,,,,2024-07-22,1,,,,,ミヨシセッケイジムショ,0
793,3140005027162,新規,0,2024-07-22,2024-07-22,スマートエコタウン宝塚中山戸建団地管理組合法人,00135646,その他の設立登記法人,兵庫県,宝塚市,安倉北５丁目１０番１８号,,28,214,6650821,,,,,,,2024-07-22,1,,,,,スマートエコタウンタカラヅカナカヤマコダテ,0
795,3150003003321,新規,0,2024-07-22,2024-07-22,合同会社ＳＳ,,合同会社,奈良県,奈良市,二名４丁目１３６０番地１３,,29,201,6310072,,,,,,,2024-07-22,1,,,,,エスエス,0
796,3160001026083,新規,0,2024-07-22,2024-07-22,株式会社Ａｙ　Ｅｎｔｅｒｔａｉｎｍｅｎｔ,,株式会社,滋賀県,彦根市,古沢町７６８番地１１,,25,202,5220007,,,,,,,2024-07-22,1,,,,,アイエンターテイメント,0
797,3160001026091,新規,0,2024-07-22,2024-07-22,株式会社ＳＨＩＰ,,株式会社,滋賀県,大津市,坂本６丁目２０番１８号,,25,201,5200113,,,,,,,2024-07-22,1,,,,,シップ,0
799,3180001162265,新規,0,2024-07-22,2024-07-22,株式会社Ｂｌｕｅ　Ｓ．ｐｒｉｎｔ,,株式会社,愛知県,名古屋市中区,栄２丁目２番１号広小路伏見中駒ビル２Ｆ－９,,23,106,4600008,,,,,,,2024-07-22,1,,,,,ブルースプリント,0
802,3180003027111,新規,0,2024-07-22,2024-07-22,合同会社Ｈ．Ｌ．Ｌ,,合同会社,愛知県,名古屋市中川区,八家町２丁目３８番,,23,110,4540835,,,,,,,2024-07-22,1,,,,,エイチエルエル,0
807,3200001042729,新規,0,2024-07-22,2024-07-22,ＳＭＥ株式会社,,株式会社,岐阜県,高山市,緑ケ丘町１丁目３３番地,,21,203,5060056,,,,,,,2024-07-22,1,,,,,エスエムイー,0
808,3200001042737,新規,0,2024-07-22,2024-07-22,ＤＥＬＧＡＤＯ株式会社,,株式会社,岐阜県,岐阜市,細畑華南７２番地１,,21,201,5008243,,,,,,,2024-07-22,1,,,,,デルガド,0
809,3210001019833,新規,0,2024-07-22,2024-07-22,株式会社北陸舗道,,株式会社,福井県,福井市,月見５丁目２番１号,,18,201,9188011,,,,,,,2024-07-22,1,,,,,ホクリクホドウ,0
812,3220001026102,新規,0,2024-07-22,2024-07-22,羽咋土木技士株式会社,,株式会社,石川県,羽咋市,御坊山町２０番地１,,17,207,9250047,,,,,,,2024-07-22,1,,,,,ハクイドボクギシ,0
817,3230001020450,新規,0,2024-07-22,2024-07-22,株式会社ＮＥＥＤ,,株式会社,富山県,富山市,婦中町西ヶ丘１番地１６１,,16,201,9392719,,,,,,,2024-07-22,1,,,,,ニード,0
826,3260001039273,新規,0,2024-07-22,2024-07-22,株式会社ＨＩＴ,,株式会社,岡山県,笠岡市,神島４２５１番地４,,33,205,7140044,,,,,,,2024-07-22,1,,,,,エイチアイティー,0
836,3290001106582,新規,0,2024-07-22,2024-07-22,Ｋ・Ｔ株式会社,,株式会社,福岡県,福岡市博多区,博多駅前１丁目２３－１３馬場マンション６０１号,,40,132,8120011,,,,,,,2024-07-22,1,,,,,ケィティ,0
837,3290001106608,新規,0,2024-07-22,2024-07-22,株式会社ＷＩＳＨ,,株式会社,福岡県,福岡市東区,香椎駅前１丁目１７番４４号２Ｆ,,40,131,8130013,,,,,,,2024-07-22,1,,,,,ウィッシュ,0
840,3290003015575,新規,0,2024-07-22,2024-07-22,くにうみコンサルティング合同会社,,合同会社,福岡県,大野城市,下大利１丁目２１番２０‐１２０４号,,40,219,8160952,,,,,,,2024-07-22,1,,,,,クニウミコンサルティング,0
841,3290005019442,新規,0,2024-07-22,2024-07-22,一般社団法人Ａｎｉｍａｌ　Ｌｉｆｅ　Ｓａｖｅｒ,,その他の設立登記法人,福岡県,大牟田市,大字岩本１７８１番地３,,40,202,8370913,,,,,,,2024-07-22,1,,,,,アニマルライフセーバー,0
844,3320001020598,新規,0,2024-07-22,2024-07-22,株式会社進兼,,株式会社,大分県,宇佐市,大字長洲１７４７番地の３,,44,211,8720001,,,,,,,2024-07-22,1,,,,,シンケン,0
846,3330001032262,新規,0,2024-07-22,2024-07-22,株式会社グレース,,株式会社,熊本県,熊本市中央区,中央街４－２２アルバ銀座通りビル,,43,101,8600802,,,,,,,2024-07-22,1,,,,,グレース,0
853,3340003004548,新規,0,2024-07-22,2024-07-22,合同会社Ｂｌｏｓｓｏｍｓ,,合同会社,鹿児島県,鹿児島市,玉里町１９－８－１０７,,46,201,8900012,,,,,,,2024-07-22,1,,,,,ブロッサムズ,0
855,3350005006244,新規,0,2024-07-22,2024-07-22,一般社団法人地域計画,,その他の設立登記法人,宮崎県,宮崎市,東宮２丁目１５４番地,,45,201,8800928,,,,,,,2024-07-22,1,,,,,チイキケイカク,0
858,3360003014165,新規,0,2024-07-22,2024-07-22,合同会社Ｂｅ　ｙｏｕｒｓｅｌｆ,,合同会社,沖縄県,うるま市,みどり町２丁目８番２号,,47,213,9042215,,,,,,,2024-07-22,1,,,,,ビーユアセルフ,0
860,3370003006681,新規,0,2024-07-22,2024-07-22,合同会社銀色の風,,合同会社,宮城県,黒川郡大和町,吉岡字古館１５２コーポ楓２０２,,04,421,9813621,,,,,,,2024-07-22,1,,,,,ギンイロノカゼ,0
874,3430003016575,新規,0,2024-07-22,2024-07-22,合同会社ＬＩＧ　Ｆｒｏｎｔｉｅｒ,,合同会社,北海道,札幌市東区,北十八条東１２丁目２番１０号,,01,103,0650018,,,,,,,2024-07-22,1,,,,,リグフロンティア,0
875,3430005015030,新規,0,2024-07-22,2024-07-22,特定非営利活動法人みやみや,,その他の設立登記法人,北海道,札幌市東区,東苗穂十三条２丁目２４番１号,,01,103,0070813,,,,,,,2024-07-22,1,,,,,ミヤミヤ,0
882,3700150126496,新規,0,2024-07-22,2024-07-22,Ｃｈｅｎｇｄｕ　Ｂｕｄｉｎｇ　Ｍｉａｏ　Ｋｅｊｉ　Ｙｏｕｘｉａｎ　Ｇｏｎｇｓｉ,,外国会社等,,,,,,,,Ｂｕｉｌｄｉｎｇ　２，Ｒｏｏｍ　１，５ｔｈ　Ｆｌｏｏｒ，Ｎｏ．６０６，Ｗｅｓｔ　Ｓｅｃｔｉｏｎ　ｏｆ　Ｈａｉｋｅ　Ｒｏａｄ，Ｃｈｅｎｇｄｕ　Ｃｒｏｓｓ－Ｓｔｒａｉｔ　Ｓｃｉｅｎｃｅ　ａｎｄ　Ｔｅｃｈｎｏｌｏｇｙ　Ｉｎｄｕｓｔｒｉａｌ　Ｄｅｖｅｌｏｐｍｅｎｔ　Ｐａｒｋ，Ｗｅｎｊｉａｎｇ　Ｄｉｓｔｒｉｃｔ，Ｃｈｅｎｇｄｕ，ＣＮ，６１１１３０,,,,,,2024-07-22,1,,,,,セイトフテイニャーカギユウゲンコウシ,0
893,4010001246678,新規,0,2024-07-22,2024-07-22,株式会社コフィ,,株式会社,東京都,中央区,銀座１丁目１２番４号Ｎ＆ＥＢＬＤ．６Ｆ,,13,102,1040061,,,,,,,2024-07-22,1,,,,,コフィ,0
894,4010001246703,新規,0,2024-07-22,2024-07-22,株式会社ＢＥＲＩＮＧ,,株式会社,東京都,中央区,銀座１丁目１２番４号Ｎ＆ＥＢＬＤ．６Ｆ,,13,102,1040061,,,,,,,2024-07-22,1,,,,,ベーリング,0
895,4010003044378,新規,0,2024-07-22,2024-07-22,ジルコンツー合同会社,,合同会社,東京都,中央区,日本橋１丁目４番１号日本橋一丁目ビルディング,,13,102,1030027,,,,,,,2024-07-22,1,,,,,ジルコンツー,0
904,4010401183901,新規,0,2024-07-22,2024-07-22,株式会社ベータクリエイト,,株式会社,東京都,港区,西麻布３丁目２１番３－９０１号,,13,103,1060031,,,,,,,2024-07-22,1,,,,,ベータクリエイト,0
907,4010501052642,新規,0,2024-07-22,2024-07-22,株式会社日本先導,,株式会社,東京都,台東区,台東３丁目１８番７号,,13,106,1100016,,,,,,,2024-07-22,1,,,,,ニホンセンドウ,0
913,4010603010969,新規,0,2024-07-22,2024-07-22,ＳＣＭ合同会社,,合同会社,東京都,墨田区,緑２丁目１０番１０－７０１号,,13,107,1300021,,,,,,,2024-07-22,1,,,,,エスシーエム,0
917,4010901055666,新規,0,2024-07-22,2024-07-22,株式会社ＡＣＥＳ,,株式会社,東京都,世田谷区,太子堂５丁目１６番２号クリスタル三軒茶屋パート１－５０５,,13,112,1540004,,,,,,,2024-07-22,1,,,,,エース,0
922,4011001163418,新規,0,2024-07-22,2024-07-22,株式会社オマリー,,株式会社,東京都,渋谷区,渋谷２丁目１９番１５号宮益坂ビルディング６０９,,13,113,1500002,,,,,,,2024-07-22,1,,,,,オマリー,0
923,4011001163459,新規,0,2024-07-22,2024-07-22,株式会社Ｕｎｌｙ,,株式会社,東京都,渋谷区,渋谷２丁目１９－１５宮益坂ビルディング６０９,,13,113,1500002,,,,,,,2024-07-22,1,,,,,アンリー,0
924,4011001163525,新規,0,2024-07-22,2024-07-22,株式会社Ｃｌｉｎｉｃ　Ａｉｄ,,株式会社,東京都,渋谷区,恵比寿南３丁目１番１号いちご恵比寿グリーングラスビル６～９Ｆ,,13,113,1500022,,,,,,,2024-07-22,1,,,,,クリニックエイド,0
925,4011001163533,新規,0,2024-07-22,2024-07-22,ＧＯＡＴ株式会社,,株式会社,東京都,渋谷区,広尾１丁目１５番３号クオリア恵比寿パークフロント７０２,,13,113,1500012,,,,,,,2024-07-22,1,,,,,ゴート,0
931,4011003019601,新規,0,2024-07-22,2024-07-22,合同会社ＲＥＮＡＴＡ,,合同会社,東京都,渋谷区,上原２丁目３１番５号,,13,113,1510064,,,,,,,2024-07-22,1,,,,,,0
932,4011003019618,新規,0,2024-07-22,2024-07-22,合同会社ＱｕｉｎｔＯ,,合同会社,東京都,渋谷区,渋谷２丁目１９－１５宮益坂ビルディング６０９,,13,113,1500002,,,,,,,2024-07-22,1,,,,,クイント,0
933,4011301029855,新規,0,2024-07-22,2024-07-22,株式会社ワンドカラー,,株式会社,東京都,杉並区,荻窪５丁目２９番１０号,,13,115,1670051,,,,,,,2024-07-22,1,,,,,ワンドカラー,0
934,4011601027906,新規,0,2024-07-22,2024-07-22,ショーケース株式会社,,株式会社,東京都,練馬区,北町３丁目２０番５号,,13,120,1790081,,,,,,,2024-07-22,1,,,,,ショーケース,0
936,4012301013997,新規,0,2024-07-22,2024-07-22,スパークリンク株式会社,,株式会社,東京都,町田市,南成瀬１丁目６番地７Ｄ’クラディア成瀬欅坂５０６,,13,209,1940045,,,,,,,2024-07-22,1,,,,,スパークリンク,0
938,4012403006668,新規,0,2024-07-22,2024-07-22,合同会社Ｌｕｃｅ＆Ｃｏ,,合同会社,東京都,武蔵野市,西久保２丁目２８番３－１０２号小長井ハウス,,13,203,1800013,,,,,,,2024-07-22,1,,,,,ルーチェアンドコー,0
939,4012403006676,新規,0,2024-07-22,2024-07-22,ＳＨＩＢＡ合同会社,,合同会社,東京都,小金井市,本町４丁目６－４－５０,,13,210,1840004,,,,,,,2024-07-22,1,,,,,シバ,0
946,4013301052853,新規,0,2024-07-22,2024-07-22,株式会社エイチフェローズ,,株式会社,東京都,豊島区,東池袋２丁目１－１２ライオンズマンション東池袋１１０６,,13,116,1700013,,,,,,,2024-07-22,1,,,,,エイチフェローズ,0
947,4013301052861,新規,0,2024-07-22,2024-07-22,禧悦国際株式会社,,株式会社,東京都,豊島区,池袋本町１丁目２５番１４号池袋マンション２Ｅ号,,13,116,1700011,,,,,,,2024-07-22,1,,,,,キエツコクサイ,0
952,4020001158146,新規,0,2024-07-22,2024-07-22,株式会社Ｆｌａｇ　Ｆｉｅｌｄｓ,,株式会社,神奈川県,横浜市都筑区,川和町１１５１番地１,,14,118,2240057,,,,,,,2024-07-22,1,,,,,フラッグフィールズ,0
953,4020001158154,新規,0,2024-07-22,2024-07-22,株式会社プログワン,,株式会社,神奈川県,川崎市幸区,塚越４丁目３４５番地１ザ・ミレナリータワーズ１２４０,,14,132,2120024,,,,,,,2024-07-22,1,,,,,プログワン,0
954,4020001158162,新規,0,2024-07-22,2024-07-22,株式会社Ｏｔｔｏ,,株式会社,神奈川県,川崎市幸区,南加瀬３丁目１９番７号,,14,132,2120055,,,,,,,2024-07-22,1,,,,,,0
955,4020001158179,新規,0,2024-07-22,2024-07-22,株式会社ＵＮＩ　ＲＯＳＥ,,株式会社,神奈川県,川崎市麻生区,向原１丁目５番７号,,14,137,2150007,,,,,,,2024-07-22,1,,,,,ユニローズ,0
956,4020001158311,新規,0,2024-07-22,2024-07-22,株式会社ＨＩＲＯＩＥ,,株式会社,神奈川県,川崎市中原区,宮内４丁目９番３２号,,14,133,2110051,,,,,,,2024-07-22,1,,,,,ヒロイエ,0
959,4020003026499,新規,0,2024-07-22,2024-07-22,富士メンテナンス合同会社,,合同会社,神奈川県,横浜市西区,北幸２丁目１０番４８号むつみビル３階,,14,103,2200004,,,,,,,2024-07-22,1,,,,,フジメンテナンス,0
960,4020003026508,新規,0,2024-07-22,2024-07-22,ＲＥＶＥ　ＤＥ　ＬＵＮＥ合同会社,,合同会社,神奈川県,横浜市西区,北幸２丁目１０番４８号むつみビル３階,,14,103,2200004,,,,,,,2024-07-22,1,,,,,レーヴドルナ,0
970,4030001161529,新規,0,2024-07-22,2024-07-22,株式会社フジカーゴサービス,,株式会社,埼玉県,さいたま市南区,鹿手袋５丁目２番１５－１０６号,,11,108,3360031,,,,,,,2024-07-22,1,,,,,フジカーゴサービス,0
972,4030003024741,新規,0,2024-07-22,2024-07-22,合同会社たまリビング,,合同会社,埼玉県,戸田市,笹目２丁目１２－１１フレックスコート１０２号室,,11,224,3350034,,,,,,,2024-07-22,1,,,,,タマリビング,0
973,4040001134599,新規,0,2024-07-22,2024-07-22,株式会社ハップ・インテリジェンス,,株式会社,千葉県,柏市,東上町４番１号Ｐ,,12,217,2770011,,,,,,,2024-07-22,1,,,,,ハップインテリジェンス,0
974,4040001134632,新規,0,2024-07-22,2024-07-22,株式会社フィールド４,,株式会社,千葉県,船橋市,西習志野１丁目２７番６号,,12,204,2740815,,,,,,,2024-07-22,1,,,,,フィールドフォー,0
975,4040001134640,新規,0,2024-07-22,2024-07-22,株式会社バイ・ツー,,株式会社,千葉県,白井市,桜台２丁目４番８棟９０３号,,12,232,2701412,,,,,,,2024-07-22,1,,,,,バイツー,0
976,4040001134649,新規,0,2024-07-22,2024-07-22,株式会社ＨＩＧＨＥＲ,,株式会社,千葉県,八千代市,ゆりのき台５丁目３０番地５４,,12,221,2760042,,,,,,,2024-07-22,1,,,,,ハイヤー,0
979,4050001055118,新規,0,2024-07-22,2024-07-22,株式会社フラスト,,株式会社,茨城県,つくば市,篠崎９３８番地３,,08,220,3003264,,,,,,,2024-07-22,1,,,,,フラスト,0
980,4050003008544,新規,0,2024-07-22,2024-07-22,Ｈｕｓｓａｉｎ　Ｔｒａｄｅｒｓ　Ｉｎｔｅｒｎａｔｉｏｎａｌ合同会社,,合同会社,茨城県,結城郡八千代町,大字西大山５４５番地６,,08,521,3003504,,,,,,,2024-07-22,1,,,,,フサイントレーダーズインターナショナル,0
982,4070001041990,新規,0,2024-07-22,2024-07-22,いうなり株式会社,,株式会社,群馬県,桐生市,広沢町５丁目１１４２－２,,10,203,3760013,,,,,,,2024-07-22,1,,,,,,0
984,4070003005507,新規,0,2024-07-22,2024-07-22,ＮＡＲＯ合同会社,,合同会社,群馬県,高崎市,片岡町３丁目７番３号,,10,202,3700862,,,,,,,2024-07-22,1,,,,,ナロ,0
986,4080405007653,新規,0,2024-07-22,2024-07-22,特定非営利活動法人Ｕ．Ｓ．Ｐ．Ｒ．静岡県水上オートバイレスキュー連合体,,その他の設立登記法人,静岡県,掛川市,国安２８０８－１,,22,213,4371413,,,,,,,2024-07-22,1,,,,,アスパーシズオカケンスイジョウオートバイレスキューレンゴウタイ,0
991,4110003005460,新規,0,2024-07-22,2024-07-22,合同会社エイチエムエス,,合同会社,新潟県,新潟市西蒲区,割前２０３２番地１０,,15,108,9530035,,,,,,,2024-07-22,1,,,,,エイチエムエス,0
1000,4120001266888,新規,0,2024-07-22,2024-07-22,株式会社アハト,,株式会社,大阪府,大阪市淀川区,新高６丁目１４番９－１２０６号,,27,123,5320033,,,,,,,2024-07-22,1,,,,,アハト,0
1001,4120001266896,新規,0,2024-07-22,2024-07-22,Ａｓｉａ　ｋｅｙｓｔｏｎｅ株式会社,,株式会社,大阪府,大阪市東住吉区,東田辺３丁目１－１－１Ｆ－Ｍ,,27,121,5460032,,,,,,,2024-07-22,1,,,,,アジアキーストーン,0
1002,4120001266921,新規,0,2024-07-22,2024-07-22,ＡＩＰＣ株式会社,,株式会社,大阪府,大阪市中央区,内淡路町２丁目４－１０－２０２,,27,128,5400038,,,,,,,2024-07-22,1,,,,,エーアイピーシー,0
1003,4120001266962,新規,0,2024-07-22,2024-07-22,株式会社ハイフォレスト,,株式会社,大阪府,大阪市西成区,千本中１丁目３番２号日丸ビル２０６号室,,27,122,5570054,,,,,,,2024-07-22,1,,,,,ハイフォレスト,0
1004,4120001267003,新規,0,2024-07-22,2024-07-22,嘉吉株式会社,,株式会社,大阪府,大阪市淀川区,西三国１丁目１１－２グロースハイツ東三国２０１号室,,27,123,5320006,,,,,,,2024-07-22,1,,,,,カキチ,0
1010,4120005024441,新規,0,2024-07-22,2024-07-22,一般財団法人村井シークス財団,,その他の設立登記法人,大阪府,大阪市中央区,備後町１丁目４番９号,,27,128,5410051,,,,,,,2024-07-22,1,,,,,ムライシークスザイダン,0
1019,4120901049491,新規,0,2024-07-22,2024-07-22,東雲自動車工業株式会社,,株式会社,大阪府,豊中市,刀根山６丁目１１番２２号,,27,203,5600045,,,,,,,2024-07-22,1,,,,,シノノメジドウシャコウギョウ,0
1020,4122005003771,新規,0,2024-07-22,2024-07-22,医療法人健春会,,その他の設立登記法人,大阪府,東大阪市,岩田町４丁目１５番２０号,,27,227,5780941,,,,,,,2024-07-22,1,,,,,ケンシュンカイ,0
1023,4130001077475,新規,0,2024-07-22,2024-07-22,宇明商社株式会社,,株式会社,京都府,京都市北区,西賀茂大道口町９３カステロレヴィＰＡＲＴ４－１０２号,,26,101,6038813,,,,,,,2024-07-22,1,,,,,ウメイショウシャ,0
1024,4130001077500,新規,0,2024-07-22,2024-07-22,瑞登株式会社,,株式会社,京都府,京都市上京区,烏丸通上立売下る御所八幡町１１０番地５ウエストイン２４０、３０１号室,,26,102,6020023,,,,,,,2024-07-22,1,,,,,ミズト,0
1027,4140001135182,新規,0,2024-07-22,2024-07-22,株式会社トルベジーノ,,株式会社,兵庫県,西宮市,霞町４番４７号ヴィラ・プレミエール・ルネッサンス２０３号,,28,204,6620052,,,,,,,2024-07-22,1,,,,,トルベジーノ,0
1028,4140001135216,新規,0,2024-07-22,2024-07-22,ＡＫエンタープライズ株式会社,,株式会社,兵庫県,南あわじ市,賀集立川瀬９１２番地,,28,224,6560512,,,,,,,2024-07-22,1,,,,,エーケーエンタープライズ,0
1029,4150003003320,新規,0,2024-07-22,2024-07-22,合同会社ＣＦ商会,,合同会社,奈良県,葛城市,當麻２７－１,,29,211,6390276,,,,,,,2024-07-22,1,,,,,シーエフショウカイ,0
1035,4180001162413,新規,0,2024-07-22,2024-07-22,株式会社Ｎｅｗｄａｙｓ,,株式会社,愛知県,名古屋市中村区,名駅３丁目４－１０アルティメイト名駅１ｓｔ２階,,23,105,4500002,,,,,,,2024-07-22,1,,,,,ニューデイズ,0
1044,4210001019832,新規,0,2024-07-22,2024-07-22,生駒塗装株式会社,,株式会社,福井県,吉田郡永平寺町,松岡薬師１丁目１５２番地,,18,322,9101118,,,,,,,2024-07-22,1,,,,,イコマトソウ,0
1047,4230003002256,新規,0,2024-07-22,2024-07-22,合同会社フォルゴーレ,,合同会社,富山県,射水市,小島３６５０番地,,16,211,9390274,,,,,,,2024-07-22,1,,,,,フォルゴーレ,0
1048,4230005009398,新規,0,2024-07-22,2024-07-22,一般社団法人ファクトリースタディ,,その他の設立登記法人,富山県,富山市,三郷９番地,,16,201,9390000,,,,,,,2024-07-22,1,,,,,ファクトリースタディ,0
1053,4240001063472,新規,0,2024-07-22,2024-07-22,株式会社エコスタイルアグリ,,株式会社,広島県,広島市西区,庚午中４丁目１４番１６号,,34,104,7330822,,,,,,,2024-07-22,1,,,,,エコスタイルアグリ,0
1056,4250003003541,新規,0,2024-07-22,2024-07-22,ＯＮＥ　ＣＲＥＡＴＥ合同会社,,合同会社,山口県,萩市,大字呉服町１丁目３５番地,,35,204,7580072,,,,,,,2024-07-22,1,,,,,ワンクリエイト,0
1057,4260001039272,新規,0,2024-07-22,2024-07-22,株式会社双馬,,株式会社,岡山県,岡山市北区,今保３４１番地７,,33,101,7010145,,,,,,,2024-07-22,1,,,,,ソウマ,0
1065,4290803004784,新規,0,2024-07-22,2024-07-22,合同会社バモス,,合同会社,福岡県,宮若市,龍徳３０－３,,40,226,8230001,,,,,,,2024-07-22,1,,,,,,0
1069,4330001032253,新規,0,2024-07-22,2024-07-22,株式会社Ｎアットラボ,,株式会社,熊本県,熊本市中央区,花畑町１番１４号Ａ＆Ｍ　ＨＡＮＡＢＡＴＡ３０１号,,43,101,8600806,,,,,,,2024-07-22,1,,,,,エヌアットラボ,0
1070,4330001032261,新規,0,2024-07-22,2024-07-22,株式会社ＩＮＳＩＤＥ　ＰＵＬＬ,,株式会社,熊本県,熊本市北区,楡木３丁目８－２４,,43,105,8618083,,,,,,,2024-07-22,1,,,,,インサイドプル,0
1076,4360001033959,新規,0,2024-07-22,2024-07-22,株式会社タカバシラ,,株式会社,沖縄県,宮古島市,平良字東仲宗根６０４番地５,,47,214,9060007,,,,,,,2024-07-22,1,,,,,タカバシラ,0
1078,4380003005814,新規,0,2024-07-22,2024-07-22,グローバルトレーディング合同会社,,合同会社,福島県,福島市,宮代字中川原２７番地の１,,07,201,9600116,,,,,,,2024-07-22,1,,,,,グローバルトレーディング,0
1084,4430001092287,新規,0,2024-07-22,2024-07-22,株式会社ＧＬＥＭ,,株式会社,北海道,札幌市中央区,宮の森四条４丁目５－９,,01,101,0640954,,,,,,,2024-07-22,1,,,,,グレム,0
1085,4430001092295,新規,0,2024-07-22,2024-07-22,Ｆｅｒｎｓ　Ｊａｐａｎ株式会社,,株式会社,北海道,千歳市,みどり台北３丁目２番１２号,,01,224,0660083,,,,,,,2024-07-22,1,,,,,フェーンズジャパンン,0
1086,4430003016566,新規,0,2024-07-22,2024-07-22,合同会社フリーハウス,,合同会社,北海道,札幌市白石区,栄通５丁目７番１３号日新ビル２０１号,,01,104,0030021,,,,,,,2024-07-22,1,,,,,フリーハウス,0
1087,4462501001006,新規,0,2024-07-22,2024-07-22,株式会社上林商店,,株式会社,北海道,野付郡別海町,尾岱沼８番地の２１,,01,691,0861641,,,,,,,2024-07-22,1,,,,,カンバヤシショウテン,0
1089,4470001020302,新規,0,2024-07-22,2024-07-22,ヨシナ建築株式会社,,株式会社,香川県,高松市,下田井町２０６番地５２,,37,201,7610313,,,,,,,2024-07-22,1,,,,,ヨシナケンチク,0
1094,4700150126495,新規,0,2024-07-22,2024-07-22,ｇｕａｎｇｚｈｏｕｓｈｉｆａｎｆｅｉｋｅｊｉｙｏｕｘｉａｎｇｏｎｇｓｉ,,外国会社等,,,,,,,,ｘｉａｎｌｉｅｚｈｏｎｇｌｕ７５ｈａｏ，７７ｈａｏ　ｚｉｂｉａｎ１ｄｏｎｇＡ２１７ｆａｎｇ－Ｙ４１８　ｇｕａｎｇｚｈｏｕｓｈｉ　ｙｕｅｘｉｕｑｕ　５１００３０　ＣＮ,,,,,,2024-07-22,1,,,,,コウシュウシホヒカギユウゲンコウシ,0
1108,5010401183875,新規,0,2024-07-22,2024-07-22,株式会社ロカブリッジ,,株式会社,東京都,港区,芝大門２丁目２番８号２階,,13,103,1050012,,,,,,,2024-07-22,1,,,,,ロカブリッジ,0
1112,5010501052641,新規,0,2024-07-22,2024-07-22,株式会社Ｐｕｍｐｋｉｎ　Ｃｏｍｐａｎｙ　ＪＰ,,株式会社,東京都,台東区,上野６丁目７－１６、７２１号,,13,106,1100005,,,,,,,2024-07-22,1,,,,,パンプキンカンパニージェイピー,0
1114,5010601065576,新規,0,2024-07-22,2024-07-22,株式会社吉吉,,株式会社,東京都,墨田区,業平１丁目１４番９号,,13,107,1300002,,,,,,,2024-07-22,1,,,,,キチキチ,0
1115,5010601065584,新規,0,2024-07-22,2024-07-22,利信株式会社,,株式会社,東京都,江東区,木場５丁目１番５号メープルハイム木場Ｂ－１２０号室,,13,108,1350042,,,,,,,2024-07-22,1,,,,,リシン,0
1116,5010605004349,新規,0,2024-07-22,2024-07-22,農事組合法人安田ファーム,,その他の設立登記法人,東京都,墨田区,太平２丁目１８番４－４０１号カーサ・パシフィコ,,13,107,1300012,,,,,,,2024-07-22,1,,,,,ヤスダファーム,0
1119,5010703007261,新規,0,2024-07-22,2024-07-22,ＹＧＫエンジニアリング合同会社,,合同会社,東京都,品川区,上大崎２丁目１０番３４－３－１０１号,,13,109,1410021,,,,,,,2024-07-22,1,,,,,ワイジーケーエンジニアリング,0
1131,5011001163391,新規,0,2024-07-22,2024-07-22,株式会社Ｒｅｓｅｒｖｅ,,株式会社,東京都,渋谷区,神宮前１丁目２３番８－５０５号ブリスベージュ神宮前,,13,113,1500001,,,,,,,2024-07-22,1,,,,,リザーブ,0
1132,5011001163417,新規,0,2024-07-22,2024-07-22,株式会社Ｐｒｉｍａｒｙ,,株式会社,東京都,渋谷区,円山町５番５号Ｎａｖｉ渋谷Ｖ３階,,13,113,1500044,,,,,,,2024-07-22,1,,,,,プライマリー,0
1133,5011001163425,新規,0,2024-07-22,2024-07-22,株式会社北辰,,株式会社,東京都,渋谷区,広尾４丁目１番７号広尾ガーデンヒルズ・ノースヒルＬ棟６０７号,,13,113,1500012,,,,,,,2024-07-22,1,,,,,ホクシン,0
1134,5011001163433,新規,0,2024-07-22,2024-07-22,株式会社Ｐｕｂｌｉｃ　Ｃｏｄｅ,,株式会社,東京都,渋谷区,道玄坂１丁目１０番８号,,13,113,1500043,,,,,,,2024-07-22,1,,,,,パブリックコード,0
1135,5011001163458,新規,0,2024-07-22,2024-07-22,株式会社Ｂｒｏｏｄ１１,,株式会社,東京都,渋谷区,神宮前６丁目２３番４号桑野ビル２階,,13,113,1500001,,,,,,,2024-07-22,1,,,,,ブルードイレブン,0
1136,5011001163466,新規,0,2024-07-22,2024-07-22,株式会社ルックアップ,,株式会社,東京都,渋谷区,道玄坂１丁目１０番８号渋谷道玄坂東急ビル２Ｆ－Ｃ,,13,113,1500043,,,,,,,2024-07-22,1,,,,,ルックアップ,0
1137,5011001163540,新規,0,2024-07-22,2024-07-22,株式会社フォートゥエニー,,株式会社,東京都,渋谷区,千駄ヶ谷３丁目１３番２０号,,13,113,1510051,,,,,,,2024-07-22,1,,,,,フォートゥエニー,0
1140,5011003019609,新規,0,2024-07-22,2024-07-22,合同会社Ｙ＆Ａ　ｉｎｖｅｓｔｍｅｎｔｓ,,合同会社,東京都,渋谷区,道玄坂１丁目１６－６二葉ビル８ｂ,,13,113,1500043,,,,,,,2024-07-22,1,,,,,ワイアンドエーインベストメンツ,0
1141,5011003019617,新規,0,2024-07-22,2024-07-22,ＪＩＮ合同会社,,合同会社,東京都,渋谷区,東３丁目６番２６号,,13,113,1500011,,,,,,,2024-07-22,1,,,,,ジン,0
1142,5011003019625,新規,0,2024-07-22,2024-07-22,ヌーヴェル・オントルプリーズ合同会社,,合同会社,東京都,渋谷区,上原１丁目３番９号,,13,113,1510064,,,,,,,2024-07-22,1,,,,,ヌーヴェルオントルプリーズ,0
1143,5011003019633,新規,0,2024-07-22,2024-07-22,合同会社Ｓｍｉｌｅ　Ｂｅｌｌ,,合同会社,東京都,目黒区,五本木３丁目２５番２５－１０３号アリビオ学芸大学,,13,110,1530053,,,,,,,2024-07-22,1,,,,,スマイルベル,0
1146,5011103014699,新規,0,2024-07-22,2024-07-22,レガート合同会社,,合同会社,東京都,新宿区,西新宿３丁目３番１３号西新宿水間ビル６階,,13,104,1600023,,,,,,,2024-07-22,1,,,,,レガート,0
1147,5011301029862,新規,0,2024-07-22,2024-07-22,株式会社ＷＯＮＤＥＲ,,株式会社,東京都,杉並区,上高井戸１丁目３０番４７号,,13,115,1680074,,,,,,,2024-07-22,1,,,,,ワンダー,0
1152,5011601027913,新規,0,2024-07-22,2024-07-22,株式会社グローアップアセット,,株式会社,東京都,練馬区,羽沢２丁目１１番１６号,,13,120,1760003,,,,,,,2024-07-22,1,,,,,グローアップアセット,0
1154,5011703003911,新規,0,2024-07-22,2024-07-22,安田国際会計合同会社,,合同会社,東京都,江戸川区,西葛西３丁目２２－１０ジャストオフィス西葛西５０１Ｃ,,13,123,1340088,,,,,,,2024-07-22,1,,,,,ヤスダコクサイカイケイ,0
1158,5012303002023,新規,0,2024-07-22,2024-07-22,合同会社りすまいる,,合同会社,東京都,町田市,小山町１７３７番地３９,,13,209,1940212,,,,,,,2024-07-22,1,,,,,リスマイル,0
1162,5012801023330,新規,0,2024-07-22,2024-07-22,東京貿易株式会社,,株式会社,東京都,立川市,錦町２丁目１０番１６号,,13,202,1900022,,,,,,,2024-07-22,1,,,,,トウキョウボウエキ,0
1163,5012801023339,新規,0,2024-07-22,2024-07-22,アステリア・スターライト株式会社,,株式会社,東京都,立川市,柴崎町４丁目１０番６号,,13,202,1900023,,,,,,,2024-07-22,1,,,,,アステリアスターライト,0
1164,5012803003462,新規,0,2024-07-22,2024-07-22,合同会社Ｒｅａｌ　Ｅｎｔｅｒｐｒｉｓｅ,,合同会社,東京都,立川市,富士見町３丁目４番１０号パークエレガンス１０１号,,13,202,1900013,,,,,,,2024-07-22,1,,,,,リアルエンタープライズ,0
1165,5013301052860,新規,0,2024-07-22,2024-07-22,株式会社エブリワン,,株式会社,東京都,豊島区,池袋２丁目６５番１－８０２号,,13,116,1710014,,,,,,,2024-07-22,1,,,,,エブリワン,0
1170,5020001158145,新規,0,2024-07-22,2024-07-22,出縄商事株式会社,,株式会社,神奈川県,横浜市戸塚区,上倉田町９８５番地２７,,14,110,2440816,,,,,,,2024-07-22,1,,,,,イデナワショウジ,0
1171,5020001158153,新規,0,2024-07-22,2024-07-22,株式会社Ｎｏｍｐｒｅ,,株式会社,神奈川県,横浜市港北区,篠原北２丁目１番９号Ｎ－ｈａｒｂｏｒＬａｇｏｏｎ１Ｆ,,14,109,2220021,,,,,,,2024-07-22,1,,,,,ノンプル,0
1172,5020001158161,新規,0,2024-07-22,2024-07-22,株式会社ＭＣＳ,,株式会社,神奈川県,横浜市港北区,日吉２丁目１８－４２－２カメリア日吉２０２,,14,109,2230061,,,,,,,2024-07-22,1,,,,,エムシーエス,0
1173,5020001158178,新規,0,2024-07-22,2024-07-22,株式会社ウォータースイフト,,株式会社,神奈川県,横浜市都筑区,早渕３丁目１１番２３－２号,,14,118,2240025,,,,,,,2024-07-22,1,,,,,ウォータースイフト,0
1174,5020001158203,新規,0,2024-07-22,2024-07-22,株式会社１０４,,株式会社,神奈川県,横浜市港北区,新吉田東８丁目３６番１２－１号,,14,109,2230058,,,,,,,2024-07-22,1,,,,,トシ,0
1175,5020001158310,新規,0,2024-07-22,2024-07-22,株式会社Ｈｉｎａｔａ　ＨＯＭＥ,,株式会社,神奈川県,川崎市中原区,宮内４丁目９番３２号,,14,133,2110051,,,,,,,2024-07-22,1,,,,,ヒナタホーム,0
1194,5040001134648,新規,0,2024-07-22,2024-07-22,株式会社ウィルネスサポート,,株式会社,千葉県,印西市,舞姫１丁目４番地２３,,12,231,2701608,,,,,,,2024-07-22,1,,,,,ウィルネスサポート,0
1196,5040003025449,新規,0,2024-07-22,2024-07-22,合同会社ＳＲＫ,,合同会社,千葉県,松戸市,小山７０番地１－Ａ,,12,207,2710093,,,,,,,2024-07-22,1,,,,,エスアールケー,0
1200,5050003008543,新規,0,2024-07-22,2024-07-22,合同会社ヌーベル,,合同会社,茨城県,土浦市,桜町２丁目８番２号,,08,203,3000037,,,,,,,2024-07-22,1,,,,,ヌーベル,0
1204,5070003005506,新規,0,2024-07-22,2024-07-22,合同会社ＮＯＷ,,合同会社,群馬県,太田市,熊野町２１番３５－Ａ２０７号,,10,205,3730025,,,,,,,2024-07-22,1,,,,,ナウ,0
1215,5110005017115,新規,0,2024-07-22,2024-07-22,特定非営利活動法人新潟スポーツ倶楽部,,その他の設立登記法人,新潟県,新潟市東区,上木戸２丁目１番３号,,15,102,9500891,,,,,,,2024-07-22,1,,,,,ニイガタスポーツクラブ,0
1230,5120003027040,新規,0,2024-07-22,2024-07-22,合同会社ＯＸ　ＢＥＬＬ,,合同会社,大阪府,大阪市浪速区,日本橋４丁目１２番８号,,27,111,5560005,,,,,,,2024-07-22,1,,,,,オックスベル,0
1231,5120005024440,新規,0,2024-07-22,2024-07-22,一般社団法人Ｂｕｓｉｎｅｓｓ　Ｃｏｎｎｅｃｔ＆Ｌｉｎｋａｇｅ,,その他の設立登記法人,大阪府,大阪市中央区,淡路町３丁目２番８号,,27,128,5410047,,,,,,,2024-07-22,1,,,,,ビジネスコネクトアンドリンケージ,0
1233,5120101070017,新規,0,2024-07-22,2024-07-22,株式会社ＴＯＲＩＤＯＡ,,株式会社,大阪府,堺市堺区,向陵西町４丁６番１１－３０４号,,27,141,5900026,,,,,,,2024-07-22,1,,,,,トリドア,0
1234,5120105009886,新規,0,2024-07-22,2024-07-22,医療法人ＯＲＩＮＡＳ,,その他の設立登記法人,大阪府,堺市西区,上野芝町２丁３番１８号上野芝クリニックモール４階,,27,144,5938301,,,,,,,2024-07-22,1,,,,,オリナス,0
1236,5120901049482,新規,0,2024-07-22,2024-07-22,株式会社ＪＭＳ,,株式会社,大阪府,豊中市,豊南町南５丁目９番１３号,,27,203,5610815,,,,,,,2024-07-22,1,,,,,ジェイエムエス,0
1238,5122001038283,新規,0,2024-07-22,2024-07-22,株式会社グランハート,,株式会社,大阪府,東大阪市,永和２丁目２４番２５号,,27,227,5770809,,,,,,,2024-07-22,1,,,,,グランハート,0
1239,5122001038291,新規,0,2024-07-22,2024-07-22,株式会社Ｓｗｉｔｃｈ,,株式会社,大阪府,東大阪市,新庄１丁目８番２１号,,27,227,5780963,,,,,,,2024-07-22,1,,,,,スイッチ,0
1244,5130001077540,新規,0,2024-07-22,2024-07-22,株式会社バリアスローレ,,株式会社,京都府,木津川市,兜台５丁目１－１３－２－３０２,,26,214,6190224,,,,,,,2024-07-22,1,,,,,バリアスローレ,0
1247,5130003009723,新規,0,2024-07-22,2024-07-22,合同会社ＲＥＭＯＮＡ,,合同会社,京都府,京都市下京区,杉屋町２９５カーサデ河原町２０５,,26,106,6008078,,,,,,,2024-07-22,1,,,,,レモナ,0
1250,5130005017146,新規,0,2024-07-22,2024-07-22,税理士法人みやびパートナーズ,,その他の設立登記法人,京都府,京都市中京区,堺町通御池下る丸木材木町６７１番地エクレーヌ御池９０８号,,26,104,6048106,,,,,,,2024-07-22,1,,,,,ミヤビパートナーズ,0
1254,5140001135198,新規,0,2024-07-22,2024-07-22,Ｅｎｒｉｑｕｅ　Ｍａｔｓｕｂａｒａ株式会社,,株式会社,兵庫県,伊丹市,鴻池６丁目２番１２号,,28,207,6640006,,,,,,,2024-07-22,1,,,,,エンリケマツバラ,0
1255,5140001135215,新規,0,2024-07-22,2024-07-22,ＡＫキャピタル株式会社,,株式会社,兵庫県,南あわじ市,賀集立川瀬９１２番地,,28,224,6560512,,,,,,,2024-07-22,1,,,,,エーケーキャピタル,0
1258,5150001027436,新規,0,2024-07-22,2024-07-22,株式会社よろず屋自動車,,株式会社,奈良県,桜井市,大字三輪７０７番地の１２,,29,206,6330001,,,,,,,2024-07-22,1,,,,,ヨロズヤジドウシャ,0
1267,5180001162387,新規,0,2024-07-22,2024-07-22,株式会社伊古敬,,株式会社,愛知県,西春日井郡豊山町,大字豊場字大山１２３番地,,23,342,4800202,,,,,,,2024-07-22,1,,,,,イグケイ,0
1268,5180001162404,新規,0,2024-07-22,2024-07-22,株式会社Ａｄｖａｎｃｅ,,株式会社,愛知県,春日井市,上田楽町１９７２番地１５,,23,206,4860801,,,,,,,2024-07-22,1,,,,,アドバンス,0
1269,5180001162437,新規,0,2024-07-22,2024-07-22,村木株式会社,,株式会社,愛知県,春日井市,堀ノ内町北１丁目５８番地パビリオンすみれ台Ｃ棟５１８号,,23,206,4860828,,,,,,,2024-07-22,1,,,,,ムラキ,0
1270,5180001162494,新規,0,2024-07-22,2024-07-22,株式会社Ｓｔｅｌｌａｒ,,株式会社,愛知県,名古屋市中区,大須２丁目５番１３号,,23,106,4600011,,,,,,,2024-07-22,1,,,,,ステラー,0
1274,5180003027084,新規,0,2024-07-22,2024-07-22,Ｗ．Ａ．Ｙ．合同会社,,合同会社,愛知県,名古屋市中川区,小碓通３丁目３６番地ＳＡＣビル２０２号,,23,110,4540856,,,,,,,2024-07-22,1,,,,,ウェイ,0
1281,5200001042735,新規,0,2024-07-22,2024-07-22,株式会社エココロロボ,,株式会社,岐阜県,岐阜市,薮田南３丁目７番２０号,,21,201,5008384,,,,,,,2024-07-22,1,,,,,エココロロボ,0
1285,5230003002255,新規,0,2024-07-22,2024-07-22,合同会社Ｆ＆Ｍ．ＣＯＭ,,合同会社,富山県,氷見市,北大町１３番３９号,,16,205,9350004,,,,,,,2024-07-22,1,,,,,エフアンドエムドットコム,0
1287,5240001063554,新規,0,2024-07-22,2024-07-22,株式会社ストリーズ,,株式会社,広島県,福山市,水呑町３４６６番地７,,34,207,7200832,,,,,,,2024-07-22,1,,,,,ストリーズ,0
1289,5240003006767,新規,0,2024-07-22,2024-07-22,こころの泉合同会社,,合同会社,広島県,山県郡安芸太田町,大字加計４８０７番地５,,34,368,7313501,,,,,,,2024-07-22,1,,,,,ココロノイズミ,0
1296,5250003003540,新規,0,2024-07-22,2024-07-22,Ｆｕｎｎｙ　Ｌｏｌｌｉｐｏｐ合同会社,,合同会社,山口県,岩国市,牛野谷町３丁目６番１０号,,35,208,7410071,,,,,,,2024-07-22,1,,,,,ファニーロリポップ,0
1297,5260003004819,新規,0,2024-07-22,2024-07-22,合同会社市建,,合同会社,岡山県,倉敷市,生坂２４３８番地１９,,33,202,7100002,,,,,,,2024-07-22,1,,,,,イチケン,0
1304,5290001106630,新規,0,2024-07-22,2024-07-22,株式会社建澤不動産,,株式会社,福岡県,福岡市東区,雁の巣１丁目３番８号,,40,131,8110206,,,,,,,2024-07-22,1,,,,,ケンサワフドウサン,0
1308,5290803004783,新規,0,2024-07-22,2024-07-22,合同会社かべちょろ,,合同会社,福岡県,行橋市,東泉３丁目１番４８号,,40,213,8240035,,,,,,,2024-07-22,1,,,,,カベチョロ,0
1320,5340001026658,新規,0,2024-07-22,2024-07-22,株式会社ヤスダ,,株式会社,鹿児島県,奄美市,名瀬末広町１４番１号,,46,222,8940027,,,,,,,2024-07-22,1,,,,,ヤスダ,0
1329,5380001034673,新規,0,2024-07-22,2024-07-22,株式会社ＭＧ　ｇｌｏｂａｌ,,株式会社,福島県,いわき市,小名浜島字前屋６０番地の６,,07,204,9718125,,,,,,,2024-07-22,1,,,,,エムジーグローバル,0
1330,5380001034681,新規,0,2024-07-22,2024-07-22,株式会社Ｚｅｒｏ‐Ｏｎｅ　Ｉｎｆｉｎｉｔｅ　Ｌａｂ,,株式会社,福島県,会津若松市,一箕町松長１丁目１７番地の２５会津大学教員公舎Ｃ‐２０８号,,07,202,9650001,,,,,,,2024-07-22,1,,,,,ゼロワンインフィニットラボ,0
1332,5380003005813,新規,0,2024-07-22,2024-07-22,合同会社クレイカミーナ,,合同会社,福島県,いわき市,小名浜岡小名１丁目５番地の５アルティメートシリウスＩＩＣ棟,00135643,07,204,9718151,,,,,,,2024-07-22,1,,,,,クレイカミーナ,0
1333,5380003005821,新規,0,2024-07-22,2024-07-22,合同会社南郷草舎,,合同会社,福島県,南会津郡南会津町,山口字村上７９７番地,,07,368,9670611,,,,,,,2024-07-22,1,,,,,ナンゴウソウシャ,0
1343,5430001092286,新規,0,2024-07-22,2024-07-22,株式会社Ｈｏｋｋａｉｄｏ　Ｉｍｐａｃｔ,,株式会社,北海道,虻田郡倶知安町,北一条西２丁目１５番地３,,01,400,0440051,,,,,,,2024-07-22,1,,,,,ホッカイドウインパクト,0
1344,5430003016565,新規,0,2024-07-22,2024-07-22,合同会社Ｓｕｉｒｅｎ,,合同会社,北海道,札幌市清田区,北野三条５丁目３番７号,,01,110,0040863,,,,,,,2024-07-22,1,,,,,スイレン,0
1345,5430003016573,新規,0,2024-07-22,2024-07-22,ＷＩＮＢＥ４０８合同会社,,合同会社,北海道,札幌市北区,篠路町拓北８番地２２,,01,102,0028054,,,,,,,2024-07-22,1,,,,,ウィンビーヨンマルハチ,0
1346,5430005015029,新規,0,2024-07-22,2024-07-22,一般社団法人ほっかいどう空き家活用ネットワーク,,その他の設立登記法人,北海道,札幌市北区,北十条西３丁目１３番地,,01,102,0010010,,,,,,,2024-07-22,1,,,,,ホッカイドウアキヤカツヨウネットワーク,0
1348,5460101007579,新規,0,2024-07-22,2024-07-22,株式会社やまのたね,,株式会社,北海道,帯広市,西五条北１丁目８番地１,,01,207,0800035,,,,,,,2024-07-22,1,,,,,ヤマノタネ,0
1349,5460103001638,新規,0,2024-07-22,2024-07-22,ｓｔｏｒａｇｅ　ｓｅｒｖｉｃｅ合同会社,,合同会社,北海道,帯広市,東四条南５丁目３番地２,,01,207,0800804,,,,,,,2024-07-22,1,,,,,ストレージサービス,0
1378,6010401183899,新規,0,2024-07-22,2024-07-22,株式会社ＯＴＴＥＳ,,株式会社,東京都,港区,六本木１丁目９番１－１０２号,,13,103,1060032,,,,,,,2024-07-22,1,,,,,オーティス,0
1379,6010401183932,新規,0,2024-07-22,2024-07-22,ｅＴｒｅｅｇｏ　Ｊａｐａｎ株式会社,,株式会社,東京都,港区,三田１丁目２番１８号ＴＴＤビル,,13,103,1080073,,,,,,,2024-07-22,1,,,,,イーツリーゴジャパン,0
1388,6010601065468,新規,0,2024-07-22,2024-07-22,株式会社フローリー,,株式会社,東京都,墨田区,石原２丁目２１―１,,13,107,1300011,,,,,,,2024-07-22,1,,,,,フローリー,0
1389,6010605004348,新規,0,2024-07-22,2024-07-22,農事組合法人安田農園,,その他の設立登記法人,東京都,墨田区,太平２丁目１８番４－４０１号カーサ・パシフィコ,,13,107,1300012,,,,,,,2024-07-22,1,,,,,ヤスダノウエン,0
1393,6010703007260,新規,0,2024-07-22,2024-07-22,合同会社ＬｉｂＬｉｂ,,合同会社,東京都,品川区,西五反田２丁目９番７－４０７号ドルミ五反田アンメゾン,,13,109,1410031,,,,,,,2024-07-22,1,,,,,リブリブ,0
1395,6010901055656,新規,0,2024-07-22,2024-07-22,株式会社デンタル桜新町,,株式会社,東京都,世田谷区,桜新町２丁目９番６号ＢＬＯＳＳＯＭ桜新町２階－Ａ,,13,112,1540015,,,,,,,2024-07-22,1,,,,,デンタルサクラシンマチ,0
1396,6010901055664,新規,0,2024-07-22,2024-07-22,ＷＥ　ＭＡＫＥ　ＥＮＥＲＧＹ株式会社,,株式会社,東京都,世田谷区,代田２丁目１－３６番１５号ＢＯＮＵＳ・ＴＲＡＣＫ・ＭＥＭＢＥＲ’Ｓ,,13,112,1550033,,,,,,,2024-07-22,1,,,,,ウィーメイクエナジー,0
1397,6010901055672,新規,0,2024-07-22,2024-07-22,株式会社ＳＯＧＥ,,株式会社,東京都,世田谷区,下馬５丁目３９番１号,,13,112,1540002,,,,,,,2024-07-22,1,,,,,ソージ,0
1400,6010903009230,新規,0,2024-07-22,2024-07-22,Ｂｅｆｏｒｅ　ａｎｙｏｎｅ　ｅｌｓｅ合同会社,,合同会社,東京都,世田谷区,三軒茶屋１丁目３５番２２－２０２号,,13,112,1540024,,,,,,,2024-07-22,1,,,,,ビフォアエニワンエルス,0
1404,6011001163408,新規,0,2024-07-22,2024-07-22,株式会社Ｅａｓｙｈｉｖｅｓ,,株式会社,東京都,渋谷区,神宮前６丁目２３番４号桑野ビル２階,,13,113,1500001,,,,,,,2024-07-22,1,,,,,イージーハイブス,0
1405,6011001163531,新規,0,2024-07-22,2024-07-22,株式会社ゆいむに,,株式会社,東京都,渋谷区,恵比寿西２丁目４番８号ウィンド恵比寿ビル８Ｆ,,13,113,1500021,,,,,,,2024-07-22,1,,,,,ユイムニ,0
1411,6011003019608,新規,0,2024-07-22,2024-07-22,ＲＥＭＩＴＡ合同会社,,合同会社,東京都,渋谷区,道玄坂１丁目１０番８号渋谷道玄坂東急ビル２Ｆ－Ｃ,,13,113,1500043,,,,,,,2024-07-22,1,,,,,レミタ,0
1412,6011003019624,新規,0,2024-07-22,2024-07-22,プレミアムソリューション合同会社,,合同会社,東京都,渋谷区,道玄坂１丁目１０番８号渋谷道玄坂東急ビル２Ｆ－Ｃ,,13,113,1500043,,,,,,,2024-07-22,1,,,,,プレミアムソリューション,0
1415,6011101108106,新規,0,2024-07-22,2024-07-22,株式会社Ｕ‐ｔｃｓｍ,,株式会社,東京都,新宿区,西新宿４丁目１４番７号新宿パークサイド永谷１３０６,,13,104,1600023,,,,,,,2024-07-22,1,,,,,ユーティクシム,0
1416,6011103014698,新規,0,2024-07-22,2024-07-22,合同会社ｔｏｒｎｅ,,合同会社,東京都,新宿区,北新宿４丁目１１番１３号,,13,104,1690074,,,,,,,2024-07-22,1,,,,,トローネ,0
1417,6011103014707,新規,0,2024-07-22,2024-07-22,合同会社レタキャベ,,合同会社,東京都,新宿区,新宿１丁目１９番１０号サンモールクレスト６０２号,,13,104,1600022,,,,,,,2024-07-22,1,,,,,レタキャベ,0
1421,6011601027920,新規,0,2024-07-22,2024-07-22,株式会社Ｎｏ．８,,株式会社,東京都,練馬区,早宮３丁目１５番１３号,,13,120,1790085,,,,,,,2024-07-22,1,,,,,ナンバーエイト,0
1429,6012803003461,新規,0,2024-07-22,2024-07-22,ＳＴＥＬＬＡＢＥＬＬＡ合同会社,,合同会社,東京都,国分寺市,富士本３丁目１４番地３８,,13,214,1850031,,,,,,,2024-07-22,1,,,,,ステラベラ,0
1434,6013303007234,新規,0,2024-07-22,2024-07-22,Ｂｌｕｅ　Ｓｔａｒ　Ｐｒｏｄｕｃｔｉｏｎｓ合同会社,,合同会社,東京都,豊島区,巣鴨１丁目１５－２－８０６,,13,116,1700002,,,,,,,2024-07-22,1,,,,,ブルスタープロダクションズ,0
1443,6020001158144,新規,0,2024-07-22,2024-07-22,Ｆｒｉｅｄｅｎ株式会社,,株式会社,神奈川県,川崎市麻生区,王禅寺東３丁目３９番１３号,,14,137,2150018,,,,,,,2024-07-22,1,,,,,フリーデン,0
1447,6020003026506,新規,0,2024-07-22,2024-07-22,合同会社オフィス１３,,合同会社,神奈川県,横浜市港北区,綱島西１丁目２４番２号,,14,109,2230053,,,,,,,2024-07-22,1,,,,,オフィスジュウサン,0
1448,6020003026522,新規,0,2024-07-22,2024-07-22,合同会社エスリー,,合同会社,神奈川県,横浜市金沢区,柴町３６５番地１シーブリーズ金沢５棟１０２号,,14,108,2360012,,,,,,,2024-07-22,1,,,,,エスリー,0
1449,6020003026555,新規,0,2024-07-22,2024-07-22,合同会社サンティアス,,合同会社,神奈川県,横浜市緑区,東本郷３丁目４５－７,,14,113,2260002,,,,,,,2024-07-22,1,,,,,サンティアス,0
1460,6030001161510,新規,0,2024-07-22,2024-07-22,ｕｐＮｄｏｗｎ株式会社,,株式会社,埼玉県,さいたま市緑区,大字中尾１１８９－２,,11,109,3360932,,,,,,,2024-07-22,1,,,,,アップエンドダウン,0
1461,6030001161527,新規,0,2024-07-22,2024-07-22,株式会社サンライズ,,株式会社,埼玉県,川口市,並木１丁目６番２２－１０１号,,11,203,3320034,,,,,,,2024-07-22,1,,,,,サンライズ,0
1462,6030001161568,新規,0,2024-07-22,2024-07-22,株式会社Ｔ＆Ｍ,,株式会社,埼玉県,上尾市,東町２丁目４番２６号,,11,219,3620031,,,,,,,2024-07-22,1,,,,,ティーアンドエム,0
1467,6030003024673,新規,0,2024-07-22,2024-07-22,合同会社ＳＵＮ,,合同会社,埼玉県,さいたま市西区,大字西遊馬１８１３－１－１－２０３,,11,101,3310061,,,,,,,2024-07-22,1,,,,,サン,0
1468,6030003024748,新規,0,2024-07-22,2024-07-22,合同会社川口建設,,合同会社,埼玉県,川口市,大字里９８６－２１,,11,203,3340005,,,,,,,2024-07-22,1,,,,,カワグチケンセツ,0
1472,6040001134639,新規,0,2024-07-22,2024-07-22,株式会社ＩＫ‐ＭＵＴ,,株式会社,千葉県,千葉市緑区,誉田町２丁目２番地２０４６,,12,105,2660005,,,,,,,2024-07-22,1,,,,,アイケームート,0
1473,6040001134655,新規,0,2024-07-22,2024-07-22,株式会社Ｍａｒｓ　Ｃｒｅｗ,,株式会社,千葉県,習志野市,津田沼１丁目１０－４１－５０２,,12,216,2750016,,,,,,,2024-07-22,1,,,,,マーズクルー,0
1478,6050001055108,新規,0,2024-07-22,2024-07-22,ＪＩＪＩ株式会社,,株式会社,茨城県,水戸市,城南１丁目２番３７号,,08,201,3100803,,,,,,,2024-07-22,1,,,,,ジジ,0
1480,6050003008542,新規,0,2024-07-22,2024-07-22,合同会社マハ,,合同会社,茨城県,土浦市,桜町２丁目５番４号,,08,203,3000037,,,,,,,2024-07-22,1,,,,,マハ,0
1481,6050003008550,新規,0,2024-07-22,2024-07-22,合同会社ＡＺＡＲＡＳＨＩ　ＣＡＦＥ,,合同会社,茨城県,守谷市,ひがし野４丁目５番地８－５０７,,08,224,3020131,,,,,,,2024-07-22,1,,,,,アザラシカフェ,0
1498,6100005013196,新規,0,2024-07-22,2024-07-22,特定非営利活動法人日本ラジオ博物館,,その他の設立登記法人,長野県,松本市,筑摩３丁目１０番１号,,20,202,3900821,,,,,,,2024-07-22,1,,,,,ニホンラジオハクブツカン,0
1516,6120001266861,新規,0,2024-07-22,2024-07-22,株式会社アットフロー,,株式会社,大阪府,大阪市北区,梅田１丁目２番２号大阪駅前第２ビル１２－１２,,27,127,5300001,,,,,,,2024-07-22,1,,,,,アットフロー,0
1517,6120001266944,新規,0,2024-07-22,2024-07-22,ＨＩＲＯＳＨＩ株式会社,,株式会社,大阪府,大阪市淀川区,宮原２丁目１２番１４－８１０号,,27,123,5320003,,,,,,,2024-07-22,1,,,,,ヒロシ,0
1518,6120001266969,新規,0,2024-07-22,2024-07-22,株式会社ユートワン,,株式会社,大阪府,大阪市住吉区,長峡町４－３５－３０４,,27,120,5580044,,,,,,,2024-07-22,1,,,,,ユートワン,0
1519,6120001266993,新規,0,2024-07-22,2024-07-22,株式会社ゴールドマイン,,株式会社,大阪府,大阪市淀川区,西中島３丁目２２番２号,,27,123,5320011,,,,,,,2024-07-22,1,,,,,ゴールドマイン,0
1521,6120003027072,新規,0,2024-07-22,2024-07-22,インテグリティ合同会社,,合同会社,大阪府,大阪市中央区,南船場３丁目２番２２号おおきに南船場ビル２０５,,27,128,5420081,,,,,,,2024-07-22,1,,,,,インテグリティ,0
1533,6130001077473,新規,0,2024-07-22,2024-07-22,株式会社ＰＭ,,株式会社,京都府,京都市中京区,壬生西土居ノ内町２８,,26,104,6048847,,,,,,,2024-07-22,1,,,,,ピーエム,0
1534,6130003009706,新規,0,2024-07-22,2024-07-22,合同会社ＲＩＴＺ,,合同会社,京都府,京都市中京区,河原町通三条下る東入北車屋町２６７番地佐野ビル２階,,26,104,6040000,,,,,,,2024-07-22,1,,,,,リッツ,0
1541,6140001135172,新規,0,2024-07-22,2024-07-22,株式会社ＴＲＤ,,株式会社,兵庫県,姫路市,花田町加納原田４３７－３,,28,201,6710252,,,,,,,2024-07-22,1,,,,,ティーアールディー,0
1542,6140001135180,新規,0,2024-07-22,2024-07-22,株式会社井戸,,株式会社,兵庫県,神戸市東灘区,御影本町６丁目２番２２号,,28,101,6580046,,,,,,,2024-07-22,1,,,,,イド,0
1543,6140001135197,新規,0,2024-07-22,2024-07-22,株式会社Ｂｉｚサポ,,株式会社,兵庫県,姫路市,飾磨区英賀西町２丁目７番地,,28,201,6728088,,,,,,,2024-07-22,1,,,,,ビズサポ,0
1544,6140001135214,新規,0,2024-07-22,2024-07-22,株式会社Ｒｅ　ＲＯＡＤ,,株式会社,兵庫県,朝来市,和田山町玉置１０５番地,,28,225,6695213,,,,,,,2024-07-22,1,,,,,リロード,0
1548,6140003020843,新規,0,2024-07-22,2024-07-22,さくらプロット合同会社,,合同会社,兵庫県,西宮市,樋之池町６番５－５０１号,,28,204,6620084,,,,,,,2024-07-22,1,,,,,サクラプロット,0
1549,6160001026089,新規,0,2024-07-22,2024-07-22,株式会社ＫＡＹＯＵ,,株式会社,滋賀県,彦根市,大東町２番３９号ＭＳビル３Ｆ,,25,202,5220074,,,,,,,2024-07-22,1,,,,,カヨウ,0
1550,6160003003243,新規,0,2024-07-22,2024-07-22,合同会社翔空,,合同会社,滋賀県,長浜市,高月町高月９３５番地,,25,203,5290241,,,,,,,2024-07-22,1,,,,,トア,0
1556,6180001162188,新規,0,2024-07-22,2024-07-22,ＲＵＩＸＩ株式会社,,株式会社,愛知県,名古屋市瑞穂区,川澄町２丁目８番５号シャンポール藤美１Ｃ,,23,108,4670002,,,,,,,2024-07-22,1,,,,,ルイシ,0
1557,6180001162353,新規,0,2024-07-22,2024-07-22,株式会社Ｄａｗｎｓ,,株式会社,愛知県,常滑市,かじま台２丁目５３番地,,23,216,4790873,,,,,,,2024-07-22,1,,,,,ドーンズ,0
1558,6180001162436,新規,0,2024-07-22,2024-07-22,株式会社キャリアＥＡ,,株式会社,愛知県,名古屋市西区,市場木町２４２番地,,23,104,4520805,,,,,,,2024-07-22,1,,,,,キャリアイーエー,0
1559,6180001162477,新規,0,2024-07-22,2024-07-22,株式会社グリューネボックス,,株式会社,愛知県,名古屋市緑区,滝ノ水１丁目１２１９番地,,23,114,4580021,,,,,,,2024-07-22,1,,,,,グリューネボックス,0
1566,6180301038856,新規,0,2024-07-22,2024-07-22,ＪＶＴｅａｍ株式会社,,株式会社,愛知県,豊田市,曙町５丁目７４サンハイツＡＫＥＢＯＮＯ１１０号室,,23,211,4710835,,,,,,,2024-07-22,1,,,,,ジェイヴィチーム,0
1567,6180301038864,新規,0,2024-07-22,2024-07-22,株式会社スカイライトインターナショナル,,株式会社,愛知県,豊田市,古瀬間町鳥ヶ峰３７１－１５０,,23,211,4710801,,,,,,,2024-07-22,1,,,,,スカイライトインターナショナル,0
1571,6190001031499,新規,0,2024-07-22,2024-07-22,株式会社リビルグロー,,株式会社,三重県,三重郡菰野町,大字潤田６５０番地４０,,24,341,5101253,,,,,,,2024-07-22,1,,,,,リビルグロー,0
1572,6190003004750,新規,0,2024-07-22,2024-07-22,合同会社よんたくラボ,,合同会社,三重県,南牟婁郡紀宝町,成川１７‐１,,24,562,5195713,,,,,,,2024-07-22,1,,,,,ヨンタクラボ,0
1580,6240003006774,新規,0,2024-07-22,2024-07-22,合同会社白島コーポレーション,,合同会社,広島県,広島市西区,庚午中１丁目２番５号,,34,104,7330822,,,,,,,2024-07-22,1,,,,,ハクシマコーポレーション,0
1596,6310001019119,新規,0,2024-07-22,2024-07-22,株式会社ＦＬＩＣ,,株式会社,長崎県,長崎市,田中町２７９番地４３,,42,201,8510134,,,,,,,2024-07-22,1,,,,,フリック,0
1605,6330003010478,新規,0,2024-07-22,2024-07-22,合同会社よしひらファーム,,合同会社,熊本県,八代市,北平和町１５５番地,,43,202,8695166,,,,,,,2024-07-22,1,,,,,ヨシヒラファーム,0
1608,6340001026616,新規,0,2024-07-22,2024-07-22,Ｈ‐ｔｅｃｈさつま株式会社,,株式会社,鹿児島県,薩摩川内市,宮里町６５５番地９,,46,215,8950056,,,,,,,2024-07-22,1,,,,,エイチテックサツマ,0
1617,6360001033957,新規,0,2024-07-22,2024-07-22,沖縄ユイ不動産株式会社,,株式会社,沖縄県,名護市,字伊差川１００７番地,,47,209,9051152,,,,,,,2024-07-22,1,,,,,オキナワユイフドウサン,0
1620,6370001051537,新規,0,2024-07-22,2024-07-22,ＶＥＧＡ　ＩＮＮＯＶＡＴＩＯＮ株式会社,,株式会社,宮城県,仙台市青葉区,滝道２６－１０,,04,101,9810951,,,,,,,2024-07-22,1,,,,,ベガイノベーション,0
1626,6380001034680,新規,0,2024-07-22,2024-07-22,ｔｗｉｌｌ株式会社,,株式会社,福島県,会津若松市,米代２丁目４番１８号,,07,202,9650875,,,,,,,2024-07-22,1,,,,,ツイル,0
1629,6380003005820,新規,0,2024-07-22,2024-07-22,イワキロボット合同会社,,合同会社,福島県,いわき市,平字田町１２０番地ＬＡＴＯＶ６階いわき産業創造館シェアオフィス内,,07,204,9708026,,,,,,,2024-07-22,1,,,,,イワキロボット,0
1635,6430001092277,新規,0,2024-07-22,2024-07-22,株式会社飛内交通,,株式会社,北海道,北広島市,稲穂町東２丁目１番地２イナホアンソレイエ１－１０１号,,01,234,0611125,,,,,,,2024-07-22,1,,,,,トビウチコウツウ,0
1636,6430003016580,新規,0,2024-07-22,2024-07-22,合同会社プロティアン,,合同会社,北海道,札幌市西区,西野五条８丁目１１－１５,,01,107,0630035,,,,,,,2024-07-22,1,,,,,プロティアン,0
1640,6500001025758,新規,0,2024-07-22,2024-07-22,株式会社マナベ,,株式会社,愛媛県,松山市,竹原２丁目９番２０号,,38,201,7900053,,,,,,,2024-07-22,1,,,,,マナベ,0
1647,6700150126378,新規,0,2024-07-22,2024-07-05,生糧－ｉｋｉｒｕｋａｔｅ－,,その他,新潟県,新潟市中央区,姥ケ山４丁目１２－２２,,15,103,9500923,,,,,,,2024-07-05,1,,,,,イキルカテ,0
1653,7010001246634,新規,0,2024-07-22,2024-07-22,ナイリス株式会社,,株式会社,東京都,文京区,本郷４丁目１６番６号,,13,105,1130033,,,,,,,2024-07-22,1,,,,,ナイリス,0
1654,7010001246700,新規,0,2024-07-22,2024-07-22,株式会社Ｐ‐ＬＵＣＫ,,株式会社,東京都,文京区,本郷６丁目２５番１４号,,13,105,1130033,,,,,,,2024-07-22,1,,,,,ピーラック,0
1655,7010001246758,新規,0,2024-07-22,2024-07-22,株式会社ララボーレ,,株式会社,東京都,中央区,銀座１丁目１２番４Ｎ＆ＥＢＬＤ．７階,,13,102,1040061,,,,,,,2024-07-22,1,,,,,ララボーレ,0
1658,7010003044350,新規,0,2024-07-22,2024-07-22,西京合同会社,,合同会社,東京都,千代田区,麹町２丁目２番２２号（Ｃ／ＯＪｏｏ－ｒｅａｌｅｓｔａｔｅ－ｏｆｆｉｃｅ）,,13,101,1020083,,,,,,,2024-07-22,1,,,,,サイキョウ,0
1659,7010003044359,新規,0,2024-07-22,2024-07-22,ＣＭサステナブルエナジー合同会社,,合同会社,東京都,中央区,日本橋１丁目４番１号,,13,102,1030027,,,,,,,2024-07-22,1,,,,,シーエムサステナブルエナジー,0
1660,7010003044367,新規,0,2024-07-22,2024-07-22,ゆめや合同会社,,合同会社,東京都,中央区,日本橋室町１丁目１１番１２号日本橋水野ビル７階,,13,102,1030022,,,,,,,2024-07-22,1,,,,,ユメヤ,0
1671,7010401183923,新規,0,2024-07-22,2024-07-22,株式会社７Ｇｓ,,株式会社,東京都,港区,西新橋１丁目１番１号日比谷ＦＯＲＴＴＯＷＥＲ１０Ｆ,,13,103,1050003,,,,,,,2024-07-22,1,,,,,セブンジーズ,0
1672,7010401183956,新規,0,2024-07-22,2024-07-22,株式会社ＡＣＴＩＶＡ,,株式会社,東京都,港区,赤坂４丁目８番１９号赤坂フロントタウン３階,,13,103,1070052,,,,,,,2024-07-22,1,,,,,アクティバ,0
1680,7010601065574,新規,0,2024-07-22,2024-07-22,シー・ウインズ株式会社,,株式会社,東京都,江東区,富岡２丁目３番３号,,13,108,1350047,,,,,,,2024-07-22,1,,,,,シーウインズ,0
1681,7010601065582,新規,0,2024-07-22,2024-07-22,株式会社オフィスキムラ,,株式会社,東京都,墨田区,八広３丁目１番５号,,13,107,1310041,,,,,,,2024-07-22,1,,,,,オフィスキムラ,0
1682,7010601065590,新規,0,2024-07-22,2024-07-22,株式会社バカラ,,株式会社,東京都,墨田区,緑４丁目２０番９－１０１号,,13,107,1300021,,,,,,,2024-07-22,1,,,,,バカラ,0
1683,7010603010958,新規,0,2024-07-22,2024-07-22,合同会社ｋｏａｌａ,,合同会社,東京都,墨田区,両国１丁目８－１１マンション両国５０２,,13,107,1300026,,,,,,,2024-07-22,1,,,,,コアラ,0
1686,7010701046301,新規,0,2024-07-22,2024-07-22,株式会社ビー・エス・アイ,,株式会社,東京都,品川区,南大井６丁目７番５号,,13,109,1400013,,,,,,,2024-07-22,1,,,,,ビーエスアイ,0
1696,7011001163472,新規,0,2024-07-22,2024-07-22,株式会社ｉ．ｎａｒｉ,,株式会社,東京都,渋谷区,上原１丁目３－９,,13,113,1510064,,,,,,,2024-07-22,1,,,,,イナリ,0
1697,7011001163497,新規,0,2024-07-22,2024-07-22,株式会社ファインズホールディングス,,株式会社,東京都,渋谷区,代官山町８番７号Ｄａｉｗａ代官山ビル,,13,113,1500034,,,,,,,2024-07-22,1,,,,,ファインズホールディングス,0
1698,7011001163506,新規,0,2024-07-22,2024-07-22,株式会社ＶＯＹＡＧＥ,,株式会社,東京都,渋谷区,宇田川町３番７号ヒューリック渋谷公園通りビル５Ｆ－１０１,,13,113,1500042,,,,,,,2024-07-22,1,,,,,ボイッジ,0
1699,7011001163539,新規,0,2024-07-22,2024-07-22,ＡｌｐｈａＢｅｔａ株式会社,,株式会社,東京都,渋谷区,渋谷２丁目１９－１５宮益坂ビルディング６０９号,,13,113,1500002,,,,,,,2024-07-22,1,,,,,アルファベータ,0
1700,7011003019607,新規,0,2024-07-22,2024-07-22,ＳＩプロパティ合同会社,,合同会社,東京都,渋谷区,恵比寿南３丁目１１番９号ブラッサム恵比寿３０２,,13,113,1500022,,,,,,,2024-07-22,1,,,,,エスアイプロパティ,0
1701,7011005010588,新規,0,2024-07-22,2024-07-22,一般社団法人日本ウイスキー文化振興協会,,その他の設立登記法人,東京都,渋谷区,恵比寿４丁目２３番６号グランドメゾン恵比寿の杜８１０号室,,13,113,1500013,,,,,,,2024-07-22,1,,,,,ニッポンウイスキーブンカシンコウキョウカイ,0
1704,7011101108088,新規,0,2024-07-22,2024-07-22,株式会社エヌエースカイ,,株式会社,東京都,新宿区,北新宿３丁目２番１号レグノセレーノ１２０１,,13,104,1690074,,,,,,,2024-07-22,1,,,,,エヌエースカイ,0
1705,7011101108113,新規,0,2024-07-22,2024-07-22,株式会社エクサイアジア,,株式会社,東京都,新宿区,高田馬場１丁目３１番１６号ワイム高田馬場ビル７１６号室,,13,104,1690075,,,,,,,2024-07-22,1,,,,,エクサイアジア,0
1706,7011101108121,新規,0,2024-07-22,2024-07-22,株式会社ｍａｔｃｈａｂｌｅ,,株式会社,東京都,新宿区,西新宿３丁目３番１３号西新宿水間ビル２Ｆ,,13,104,1600023,,,,,,,2024-07-22,1,,,,,マッチャブル,0
1707,7011105011098,新規,0,2024-07-22,2024-07-22,一般社団法人国際ミャンマー学者・専門家協会,,その他の設立登記法人,東京都,新宿区,新宿２丁目１２番１３号新宿アントレサロンビル２階,,13,104,1600022,,,,,,,2024-07-22,1,,,,,コクサイミャンマーガクシャセンモンカキョウカイ,0
1708,7011401026279,新規,0,2024-07-22,2024-07-22,テクノサポート株式会社,,株式会社,東京都,板橋区,蓮根３丁目２８番４－４０２号,,13,119,1740046,,,,,,,2024-07-22,1,,,,,テクノサポート,0
1710,7011501030940,新規,0,2024-07-22,2024-07-22,株式会社サウスインプレスト,,株式会社,東京都,荒川区,東日暮里３丁目４０－１３ニュートーキョー三河島ビル３Ｆ,,13,118,1160014,,,,,,,2024-07-22,1,,,,,,0
1714,7011801044566,新規,0,2024-07-22,2024-07-22,株式会社ＢＥ‐ＥＣＨＯ,,株式会社,東京都,足立区,東和５丁目８番１６号,,13,121,1200003,,,,,,,2024-07-22,1,,,,,ビーエコー,0
1727,7013301052859,新規,0,2024-07-22,2024-07-22,恆博株式会社,,株式会社,東京都,豊島区,西巣鴨１丁目２番２２号ＷＡＮＤＡビル２階,,13,116,1700001,,,,,,,2024-07-22,1,,,,,コウハク,0
1728,7013303007233,新規,0,2024-07-22,2024-07-22,ヨーパタナ合同会社,,合同会社,東京都,豊島区,北大塚１丁目１９番１２号,,13,116,1700004,,,,,,,2024-07-22,1,,,,,ヨーパタナ,0
1734,7020001158135,新規,0,2024-07-22,2024-07-22,アーキワークス株式会社,,株式会社,神奈川県,横浜市鶴見区,岸谷１丁目２２番３４号,,14,101,2300078,,,,,,,2024-07-22,1,,,,,アーキワークス,0
1735,7020001158143,新規,0,2024-07-22,2024-07-22,コンケンロジスティック株式会社,,株式会社,神奈川県,横浜市神奈川区,菅田町４８３番地１７,,14,102,2210864,,,,,,,2024-07-22,1,,,,,コンケンロジスティック,0
1736,7020001158168,新規,0,2024-07-22,2024-07-22,Ｍａｇ１ｃ　ｃｏｍｐａｓｙ株式会社,,株式会社,神奈川県,横浜市旭区,さちが丘１０５－３５,,14,112,2410822,,,,,,,2024-07-22,1,,,,,マジックコムパシー,0
1737,7020003026505,新規,0,2024-07-22,2024-07-22,合同会社花車,,合同会社,神奈川県,横浜市中区,野毛町１丁目２４－７,,14,104,2310064,,,,,,,2024-07-22,1,,,,,,0
1738,7020003026546,新規,0,2024-07-22,2024-07-22,ＡＲＥＮＤ合同会社,,合同会社,神奈川県,横浜市青葉区,美しが丘４丁目４３番地２ペアシティ弐番館２０１,,14,117,2250002,,,,,,,2024-07-22,1,,,,,アーレント,0
1740,7020005016479,新規,0,2024-07-22,2024-07-22,行政書士法人ルファール,,その他の設立登記法人,神奈川県,横浜市旭区,東希望が丘９７番地１９八ッ橋ビル２階北側,,14,112,2410826,,,,,,,2024-07-22,1,,,,,ルファール,0
1753,7030003024763,新規,0,2024-07-22,2024-07-22,合同会社Ｋｏａ　Ｍｉｎｄ,,合同会社,埼玉県,狭山市,富士見２丁目２－３４ガレージハウスＭ１－１,,11,215,3501306,,,,,,,2024-07-22,1,,,,,コアマインド,0
1759,7040001134638,新規,0,2024-07-22,2024-07-22,ＳＥＶＥＮ　ＳＥＮＳＥ株式会社,,株式会社,千葉県,習志野市,鷺沼４丁目３番７号,,12,216,2750014,,,,,,,2024-07-22,1,,,,,セブンセンス,0
1760,7040001134654,新規,0,2024-07-22,2024-07-22,株式会社Ｐ．Ｂ．Ｓ　Ｋａｓｈｉｗａ,,株式会社,千葉県,柏市,戸張１３０７番地８０,,12,217,2770008,,,,,,,2024-07-22,1,,,,,ピービーエスカシワ,0
1764,7040003025447,新規,0,2024-07-22,2024-07-22,一ノ宮堂合同会社,,合同会社,千葉県,長生郡一宮町,一宮８３４９番地３４,,12,421,2994301,,,,,,,2024-07-22,1,,,,,イチノミヤドウ,0
1766,7040005022450,新規,0,2024-07-22,2024-07-22,一般社団法人Ａｎｇｕ花の協会,,その他の設立登記法人,千葉県,四街道市,和良比１１０７番地１,,12,228,2840044,,,,,,,2024-07-22,1,,,,,アングハナノキョウカイ,0
1767,7050001055115,新規,0,2024-07-22,2024-07-22,株式会社ＴＤＫ　ＥＮＴＥＲＰＲＩＳＥＳ,,株式会社,茨城県,水戸市,内原町１４０１番地の４,,08,201,3190315,,,,,,,2024-07-22,1,,,,,ティーディーケーエンタープライセス,0
1769,7060001037310,新規,0,2024-07-22,2024-07-22,佐々木商事株式会社,,株式会社,栃木県,那須郡那須町,大字豊原丙２１３９番地,,09,407,3293225,,,,,,,2024-07-22,1,,,,,ササキショウジ,0
1773,7070001041988,新規,0,2024-07-22,2024-07-22,株式会社ＮＥＸＴ　ＨＯＭＥ,,株式会社,群馬県,高崎市,小八木町３１２番地１５,,10,202,3700071,,,,,,,2024-07-22,1,,,,,ネクストホーム,0
1777,7080101024900,新規,0,2024-07-22,2024-07-22,株式会社ＥＮ．,,株式会社,静岡県,富士市,青葉町１６５番地の２,,22,210,4160952,,,,,,,2024-07-22,1,,,,,エン,0
1779,7080103003101,新規,0,2024-07-22,2024-07-22,合同会社江南９９,,合同会社,静岡県,沼津市,高島町２３番１２号プランシェ沼津高島町３０１,,22,203,4100056,,,,,,,2024-07-22,1,,,,,コウナンキュウキュウ,0
1784,7100003007661,新規,0,2024-07-22,2024-07-22,合同会社ＹＭ,,合同会社,長野県,北安曇郡松川村,５６５０番地３３６,,20,482,3998501,,,,,,,2024-07-22,1,,,,,ワイエム,0
1786,7110001038575,新規,0,2024-07-22,2024-07-22,ＡＱＶＡＮＡ株式会社,,株式会社,新潟県,長岡市,上富岡町１６０３番地１,,15,202,9402137,,,,,,,2024-07-22,1,,,,,アクアナ,0
1809,7120001266943,新規,0,2024-07-22,2024-07-22,株式会社Ｒ‐Ｓｑｕａｒｅ,,株式会社,大阪府,大阪市中央区,材木町１－６第二新興ビル４０１号室,,27,128,5400010,,,,,,,2024-07-22,1,,,,,アールスクエア,0
1810,7120001266992,新規,0,2024-07-22,2024-07-22,株式会社にしも,,株式会社,大阪府,大阪市住吉区,帝塚山中２丁目１０番８－６０５号,,27,120,5580053,,,,,,,2024-07-22,1,,,,,ニシモ,0
1811,7120001267000,新規,0,2024-07-22,2024-07-22,みなとメンテナンス株式会社,,株式会社,大阪府,大阪市港区,港晴３丁目１０番１７号,,27,107,5520023,,,,,,,2024-07-22,1,,,,,ミナトメンテナンス,0
1812,7120001267009,新規,0,2024-07-22,2024-07-22,株式会社Ｓａｋｕｒａ　Ｒｉｎ,,株式会社,大阪府,大阪市西区,江之子島２丁目１－６９,,27,106,5500006,,,,,,,2024-07-22,1,,,,,サクラリン,0
1822,7120103005951,新規,0,2024-07-22,2024-07-22,合同会社ほのお,,合同会社,大阪府,高石市,加茂２丁目２２番１２―１０３号,,27,225,5920011,,,,,,,2024-07-22,1,,,,,ホノオ,0
1825,7120901049489,新規,0,2024-07-22,2024-07-22,株式会社Ｐｒｉｍｅ　ＡＩ,,株式会社,大阪府,吹田市,広芝町１０‐８江坂董友ビルＴＨＥＨＵＢ１Ｆ,,27,205,5640052,,,,,,,2024-07-22,1,,,,,プライムエーアイ,0
1828,7130001077480,新規,0,2024-07-22,2024-07-22,株式会社瑞晃,,株式会社,京都府,京都市左京区,静市市原町９番地,,26,103,6011123,,,,,,,2024-07-22,1,,,,,ズイコウ,0
1829,7130001077497,新規,0,2024-07-22,2024-07-22,株式会社丹波ノ国,,株式会社,京都府,綾部市,睦合町小山ノ下６０番地,,26,203,6231121,,,,,,,2024-07-22,1,,,,,タンバノクニ,0
1838,7140001135163,新規,0,2024-07-22,2024-07-22,株式会社神戸ＰＣサービス,,株式会社,兵庫県,神戸市中央区,旗塚通５丁目１番３号,,28,110,6510068,,,,,,,2024-07-22,1,,,,,コウベピーシーサービス,0
1840,7140003020842,新規,0,2024-07-22,2024-07-22,合同会社ＡＺＵＫＩカンパニー,,合同会社,兵庫県,神戸市中央区,加納町４丁目１０番３０号神戸大隆ビル５階,,28,110,6500001,,,,,,,2024-07-22,1,,,,,アズキカンパニー,0
1841,7150001027434,新規,0,2024-07-22,2024-07-22,株式会社ＬＩＮＫ,,株式会社,奈良県,奈良市,六条１丁目１５番３８－２号,,29,201,6308043,,,,,,,2024-07-22,1,,,,,リンク,0
1844,7150003003318,新規,0,2024-07-22,2024-07-22,合同会社タスキ,,合同会社,奈良県,生駒市,東生駒１丁目３５５番地メゾン大和５１１,,29,209,6300213,,,,,,,2024-07-22,1,,,,,タスキ,0
1845,7160003003242,新規,0,2024-07-22,2024-07-22,合同会社Ｂｅｌｌｅｃｌｏｒｅ,,合同会社,滋賀県,大津市,松が丘１丁目１番１２号,,25,201,5202102,,,,,,,2024-07-22,1,,,,,ベルクロール,0
1848,7180001162410,新規,0,2024-07-22,2024-07-22,株式会社ヤマト警備保障,,株式会社,愛知県,名古屋市東区,矢田１丁目１２番３１号,,23,102,4610040,,,,,,,2024-07-22,1,,,,,ヤマトケイビホショウ,0
1854,7180301038855,新規,0,2024-07-22,2024-07-22,高陸株式会社,00135644,株式会社,愛知県,豊田市,山之手８丁目１２４番地コスモビル山之手５０３号室,,23,211,4710833,,,,,,,2024-07-22,1,,,,,タカリク,0
1858,7200001042725,新規,0,2024-07-22,2024-07-22,株式会社ＭＵＤＩＣＳ,,株式会社,岐阜県,多治見市,明和町４丁目４番地の１５,,21,204,5070072,,,,,,,2024-07-22,1,,,,,ミューディクス,0
1859,7200001042733,新規,0,2024-07-22,2024-07-22,株式会社ファインアライブ,,株式会社,岐阜県,岐阜市,弥八町９番地,,21,201,5008827,,,,,,,2024-07-22,1,,,,,ファインアライブ,0
1863,7210003001819,新規,0,2024-07-22,2024-07-22,合同会社竹内事務所,,合同会社,福井県,敦賀市,本町１丁目１０番１４号,,18,202,9140051,,,,,,,2024-07-22,1,,,,,タケウチジムショ,0
1875,7220001026107,新規,0,2024-07-22,2024-07-22,株式会社ＢＭｃｃ,,株式会社,石川県,金沢市,打木町西２３７番地１８,,17,201,9200377,,,,,,,2024-07-22,1,,,,,ビーエムシーシー,0
1877,7220003003797,新規,0,2024-07-22,2024-07-22,ＴＨＥ　ＣＯＳＭＯ合同会社,,合同会社,石川県,かほく市,七窪ロ４５番地,,17,209,9291122,,,,,,,2024-07-22,1,,,,,ザコスモ,0
1879,7230003002253,新規,0,2024-07-22,2024-07-22,合同会社ＫＩＴ,,合同会社,富山県,富山市,西田地方町３丁目４番１‐３０７号サーパス西田地方,,16,201,9398202,,,,,,,2024-07-22,1,,,,,ケーアイティー,0
1882,7250003003539,新規,0,2024-07-22,2024-07-22,合同会社ＨｏｎｅｙＳｔｙｌｅ,,合同会社,山口県,山口市,仁保下郷５６３番地１,,35,203,7530303,,,,,,,2024-07-22,1,,,,,ハニースタイル,0
1883,7260001039278,新規,0,2024-07-22,2024-07-22,株式会社熊澤,,株式会社,岡山県,岡山市南区,大福３６１番地５,,33,104,7010204,,,,,,,2024-07-22,1,,,,,クマザワ,0
1889,7290001106546,新規,0,2024-07-22,2024-07-22,株式会社共匠,,株式会社,福岡県,大牟田市,三川町２丁目２４番地２,,40,202,8360065,,,,,,,2024-07-22,1,,,,,キョウショウ,0
1890,7290001106570,新規,0,2024-07-22,2024-07-22,株式会社ＳＡＩｆｏｏｄ,,株式会社,福岡県,福岡市中央区,春吉２丁目６－９,,40,133,8100003,,,,,,,2024-07-22,1,,,,,サイフード,0
1902,7350001019089,新規,0,2024-07-22,2024-07-22,株式会社ＦＩＮＥ,,株式会社,宮崎県,都城市,大王町６２号３番地,,45,202,8850026,,,,,,,2024-07-22,1,,,,,ファイン,0
1903,7360001033948,新規,0,2024-07-22,2024-07-22,株式会社ＴＨＯ,,株式会社,沖縄県,名護市,東江３丁目５番５号,,47,209,9050021,,,,,,,2024-07-22,1,,,,,ティーエイチオー,0
1904,7360001033956,新規,0,2024-07-22,2024-07-22,株式会社ラヴィ・アカデミー,,株式会社,沖縄県,豊見城市,字豊崎１番地１１７５,,47,212,9010225,,,,,,,2024-07-22,1,,,,,ラヴィアカデミー,0
1905,7370001051528,新規,0,2024-07-22,2024-07-22,株式会社行建,,株式会社,宮城県,登米市,南方町天沼８３番地１,,04,212,9870411,,,,,,,2024-07-22,1,,,,,コウケン,0
1907,7370003006686,新規,0,2024-07-22,2024-07-22,Ｈｕｌｌａｂａｌｏｏ合同会社,,合同会社,宮城県,柴田郡川崎町,大字川内字七曲山１８７番地３,,04,324,9891503,,,,,,,2024-07-22,1,,,,,フラバル,0
1917,7430001092301,新規,0,2024-07-22,2024-07-22,カワナカ重機株式会社,,株式会社,北海道,札幌市南区,川沿一条３丁目５番２０号,,01,106,0050801,,,,,,,2024-07-22,1,,,,,カワナカジュウキ,0
1926,7700150126328,新規,0,2024-07-22,2024-07-03,大和市部活動地域移行推進協議会,,その他,神奈川県,大和市,深見西１丁目３番１７号,,14,213,2420018,,,,,,,2024-07-03,1,,,,,ヤマトシブカツドウチイキイコウスイシンキヨウギカイ,0
1938,8010001246708,新規,0,2024-07-22,2024-07-22,ＲＥＡＡＳ株式会社,,株式会社,東京都,千代田区,丸の内２丁目３番２号郵船ビルディング４階,,13,101,1000005,,,,,,,2024-07-22,1,,,,,リアース,0
1941,8010003044325,新規,0,2024-07-22,2024-07-22,ＧＸ　Ｃａｆｅ合同会社,,合同会社,東京都,中央区,銀座１丁目２２番１１号銀座大竹ビジデンス２Ｆ,,13,102,1040061,,,,,,,2024-07-22,1,,,,,グローバルクロスカフェ,0
1946,8010005038531,新規,0,2024-07-22,2024-07-22,一般社団法人ＵＩＶ１,,その他の設立登記法人,東京都,千代田区,平河町２丁目６番１号平河町ビル７階,,13,101,1020093,,,,,,,2024-07-22,1,,,,,ユーアイヴィワン,0
1947,8010101016242,新規,0,2024-07-22,2024-07-22,株式会社ＴＯＰ,,株式会社,東京都,八王子市,南大沢５丁目６番地４号棟６０３号室,,13,201,1920364,,,,,,,2024-07-22,1,,,,,トップ,0
1961,8010403033068,新規,0,2024-07-22,2024-07-22,Ｅａｓｔ　Ｃｏｌｌｅｃｔｉｖｅ合同会社,,合同会社,東京都,港区,浜松町２丁目２番１５号浜松町ダイヤビル２Ｆ,,13,103,1050013,,,,,,,2024-07-22,1,,,,,イーストコレクティブ,0
1967,8010601065581,新規,0,2024-07-22,2024-07-22,ＩＡＩソリューションズ株式会社,,株式会社,東京都,墨田区,押上１丁目４７番２－２０５号スカイコート押上第２,,13,107,1310045,,,,,,,2024-07-22,1,,,,,アイエーアイソリューションズ,0
1973,8010701046291,新規,0,2024-07-22,2024-07-22,嘉悦株式会社,,株式会社,東京都,品川区,大井５丁目１４－３－４階４０３室,,13,109,1400014,,,,,,,2024-07-22,1,,,,,カエツ,0
1974,8010701046300,新規,0,2024-07-22,2024-07-22,株式会社ＳＡＲＡ　ＲＡＣＩＮＧ,,株式会社,東京都,品川区,上大崎１丁目２３番９号,,13,109,1410021,,,,,,,2024-07-22,1,,,,,サラレーシング,0
1977,8010901055670,新規,0,2024-07-22,2024-07-22,株式会社Ｒｉｋｕｋａ,,株式会社,東京都,世田谷区,上北沢５丁目３１番１－４０１号,,13,112,1560057,,,,,,,2024-07-22,1,,,,,リクカ,0
1978,8010903009229,新規,0,2024-07-22,2024-07-22,合同会社ヤムヤム,,合同会社,東京都,世田谷区,南烏山６丁目２６番７号グランファミリア２０３,,13,112,1570062,,,,,,,2024-07-22,1,,,,,ヤムヤム,0
1986,8011001163389,新規,0,2024-07-22,2024-07-22,株式会社ボブラ,,株式会社,東京都,渋谷区,富ヶ谷１丁目１６番１１号,,13,113,1510063,,,,,,,2024-07-22,1,,,,,ボブラ,0
1987,8011001163430,新規,0,2024-07-22,2024-07-22,株式会社アシスト,,株式会社,東京都,目黒区,大橋１丁目５番１号,,13,110,1530044,,,,,,,2024-07-22,1,,,,,アシスト,0
1988,8011001163439,新規,0,2024-07-22,2024-07-22,エーティシーホールディングス株式会社,,株式会社,東京都,渋谷区,千駄ヶ谷３丁目５５番１４号,,13,113,1510051,,,,,,,2024-07-22,1,,,,,エーティシーホールディングス,0
1989,8011001163447,新規,0,2024-07-22,2024-07-22,株式会社四季報写経,,株式会社,東京都,渋谷区,神泉町１０番１５号アネックス神泉３０１,,13,113,1500045,,,,,,,2024-07-22,1,,,,,シキホウシャキョウ,0
1990,8011001163455,新規,0,2024-07-22,2024-07-22,株式会社トライ,,株式会社,東京都,渋谷区,恵比寿西２丁目８番４号ＥＸ恵比寿西ビル５階,,13,113,1500021,,,,,,,2024-07-22,1,,,,,トライ,0
1991,8011001163463,新規,0,2024-07-22,2024-07-22,株式会社ＷｅａｖｅｒｓＪＡＰＡＮ,,株式会社,東京都,目黒区,東山３丁目１５番１２－２０３号,,13,110,1530043,,,,,,,2024-07-22,1,,,,,ウィーバーズジャパン,0
1992,8011001163496,新規,0,2024-07-22,2024-07-22,株式会社ＩＨＭＨ,,株式会社,東京都,渋谷区,東１丁目２番５号三海苑マンション２Ａ,,13,113,1500011,,,,,,,2024-07-22,1,,,,,アイエイチエムエイチ,0
1993,8011001163521,新規,0,2024-07-22,2024-07-22,株式会社Ａｌｏｈａ　Ｂｅｉｎｇ,,株式会社,東京都,渋谷区,恵比寿西２丁目８番４号ＥＸ恵比寿西ビル５階,,13,113,1500021,,,,,,,2024-07-22,1,,,,,アロハビーイング,0
1994,8011001163538,新規,0,2024-07-22,2024-07-22,株式会社Ｍａｉｓｏｎ　ｄｅ　ＵＭコンサルティング横浜,,株式会社,東京都,渋谷区,代々木１丁目３０番１４号天翔オフィス代々木ＡＮＮＥＸ４階,,13,113,1510053,,,,,,,2024-07-22,1,,,,,メゾンドユーエムコンサルティングヨコハマ,0
1995,8011001163546,新規,0,2024-07-22,2024-07-22,株式会社ロミクシー,,株式会社,東京都,渋谷区,神宮前６丁目２３番４号桑野ビル２階,,13,113,1500001,,,,,,,2024-07-22,1,,,,,ロミクシー,0
1996,8011003019630,新規,0,2024-07-22,2024-07-22,合同会社ＡＺＵ,,合同会社,東京都,渋谷区,渋谷１丁目１２番地１１号ＨＡＭＡＭＯＴＯビル３０２号室,,13,113,1500002,,,,,,,2024-07-22,1,,,,,アズ,0
1997,8011101108112,新規,0,2024-07-22,2024-07-22,株式会社ＬＡＬＡ,,株式会社,東京都,新宿区,百人町１丁目２２番２７－２０３号,,13,104,1690073,,,,,,,2024-07-22,1,,,,,ララ,0
1998,8011105011106,新規,0,2024-07-22,2024-07-22,一般社団法人日本抗衰老医学会,,その他の設立登記法人,東京都,新宿区,西早稲田１丁目１１番６号華青会ビル３０１,,13,104,1690051,,,,,,,2024-07-22,1,,,,,ニホンコウスイロウイガクカイ,0
2001,8011401026261,新規,0,2024-07-22,2024-07-22,株式会社ａｎｄＲｅｅｅ,,株式会社,東京都,板橋区,大山西町１９番１－６０１号,,13,119,1730033,,,,,,,2024-07-22,1,,,,,アンドリー,0
2009,8012801023344,新規,0,2024-07-22,2024-07-22,国立日本総合研究センター株式会社,,株式会社,東京都,国立市,東１丁目１５－３２,,13,215,1860002,,,,,,,2024-07-22,1,,,,,クニタチニホンソウゴウケンキュウセンター,0
2012,8020001158134,新規,0,2024-07-22,2024-07-22,株式会社Ｅｌｅｎａ　Ｒｏｓｅ,,株式会社,神奈川県,横浜市港北区,新吉田東５丁目４２番３号２０２,,14,109,2230058,,,,,,,2024-07-22,1,,,,,エレナローズ,0
2013,8020001158142,新規,0,2024-07-22,2024-07-22,株式会社ＫＤＳ,,株式会社,神奈川県,横浜市港南区,大久保３丁目３４番７号,,14,111,2330007,,,,,,,2024-07-22,1,,,,,ケイディエス,0
2014,8020001158167,新規,0,2024-07-22,2024-07-22,株式会社仲桝測量,,株式会社,神奈川県,横浜市保土ケ谷区,霞台２８番１４号,,14,106,2400014,,,,,,,2024-07-22,1,,,,,ナカマスソクリョウ,0
2015,8020001158183,新規,0,2024-07-22,2024-07-22,日本蜀里株式会社,,株式会社,神奈川県,横浜市中区,山下町１９１番地１０－３Ｆ,,14,104,2310023,,,,,,,2024-07-22,1,,,,,ニホンショクリ,0
2017,8020003026504,新規,0,2024-07-22,2024-07-22,Ｍａｒｉｇｏｌｄ　Ｌｏｂｓｔｅｒ合同会社,,合同会社,神奈川県,横浜市中区,石川町１丁目５７番地２,,14,104,2310868,,,,,,,2024-07-22,1,,,,,マリーゴールドロブスター,0
2018,8020005016478,新規,0,2024-07-22,2024-07-22,一般社団法人グリーンクラブ,,その他の設立登記法人,神奈川県,横浜市緑区,長津田みなみ台４丁目１番地１プリマシティＢ－１２０５号,,14,113,2260018,,,,,,,2024-07-22,1,,,,,グリーンクラブ,0
2027,8030001161525,新規,0,2024-07-22,2024-07-22,株式会社トコミライ,,株式会社,埼玉県,所沢市,大字上山口２０１５番地の８,,11,208,3591153,,,,,,,2024-07-22,1,,,,,トコミライ,0
2028,8030001161533,新規,0,2024-07-22,2024-07-22,株式会社英智,,株式会社,埼玉県,さいたま市岩槻区,諏訪２丁目２番地２９,,11,110,3390007,,,,,,,2024-07-22,1,,,,,エイチ,0
2032,8030003024754,新規,0,2024-07-22,2024-07-22,合同会社大谷商事,,合同会社,埼玉県,熊谷市,宮本町７７番地１セントラルハイツ熊谷３１０号,,11,202,3600822,,,,,,,2024-07-22,1,,,,,オオヤショウジ,0
2033,8030003024770,新規,0,2024-07-22,2024-07-22,合同会社ＭａｇｉｃＣｒａｔｅ,,合同会社,埼玉県,北本市,緑１丁目１０,,11,233,3640032,,,,,,,2024-07-22,1,,,,,マジッククレート,0
2038,8040001134554,新規,0,2024-07-22,2024-07-22,株式会社Ｍｏｎｄｏｌｅ,,株式会社,千葉県,千葉市若葉区,加曽利町７０２番地１１,,12,104,2640017,,,,,,,2024-07-22,1,,,,,モンドーレ,0
2039,8040001134604,新規,0,2024-07-22,2024-07-22,株式会社さくら霊園,,株式会社,千葉県,佐倉市,小竹６９９番地,,12,212,2850853,,,,,,,2024-07-22,1,,,,,サクラレイエン,0
2043,8050003008549,新規,0,2024-07-22,2024-07-22,ブルーストーン合同会社,,合同会社,茨城県,神栖市,深芝南２丁目１１番地２６,,08,232,3140142,,,,,,,2024-07-22,1,,,,,ブルーストーン,0
2044,8050005013472,新規,0,2024-07-22,2024-07-22,一般社団法人ネットワーキングプラス,,その他の設立登記法人,茨城県,水戸市,見川５丁目１２７番地の２３７,,08,201,3100912,,,,,,,2024-07-22,1,,,,,ネットワーキングプラス,0
2045,8060001037318,新規,0,2024-07-22,2024-07-22,株式会社ハヤカワ電設,,株式会社,栃木県,佐野市,閑馬町２６７８番地,,09,204,3270321,,,,,,,2024-07-22,1,,,,,ハヤカワデンセツ,0
2046,8060001037326,新規,0,2024-07-22,2024-07-22,ひまわりパートナーズ株式会社,,株式会社,栃木県,宇都宮市,南大通り２丁目２番７号,,09,201,3210963,,,,,,,2024-07-22,1,,,,,ヒマワリパートナーズ,0
2047,8060003005165,新規,0,2024-07-22,2024-07-22,合同会社ＦＵＬＬＮＥＳＳ,,合同会社,栃木県,宇都宮市,桜２丁目５番２５号,,09,201,3200043,,,,,,,2024-07-22,1,,,,,フルネス,0
2063,8110001038574,新規,0,2024-07-22,2024-07-22,株式会社ＢＬＡＮＫＲＥＡＤ,,株式会社,新潟県,新潟市中央区,本町通７番町１０９８番１ＷｏｒｋＷｉｔｈ本町３階Ｇ－３号室,,15,103,9518067,,,,,,,2024-07-22,1,,,,,ブランクリード,0
2083,8120001266950,新規,0,2024-07-22,2024-07-22,株式会社神鷲,,株式会社,大阪府,大阪市住吉区,長居西２丁目１番４号,,27,120,5580002,,,,,,,2024-07-22,1,,,,,カムワシ,0
2084,8120001266983,新規,0,2024-07-22,2024-07-22,株式会社悟傑,,株式会社,大阪府,大阪市都島区,片町２丁目５－６京橋ハンエイビル４１２号,,27,102,5340025,,,,,,,2024-07-22,1,,,,,ゴケツ,0
2085,8120001267008,新規,0,2024-07-22,2024-07-22,原之田株式会社,,株式会社,大阪府,大阪市中央区,南船場１丁目１０番１２－４０３号,,27,128,5420081,,,,,,,2024-07-22,1,,,,,ハラノダ,0
2090,8120003027070,新規,0,2024-07-22,2024-07-22,合同会社ＨＤＭ,,合同会社,大阪府,大阪市生野区,巽東３丁目５番１１号,00135648,27,116,5440014,,,,,,,2024-07-22,1,,,,,エイチディーエム,0
2091,8120003027079,新規,0,2024-07-22,2024-07-22,ドリーム合同会社,,合同会社,大阪府,大阪市浪速区,難波中１丁目９番１０号,,27,111,5560011,,,,,,,2024-07-22,1,,,,,ドリーム,0
2092,8120005024438,新規,0,2024-07-22,2024-07-22,医療法人縁雲会,,その他の設立登記法人,大阪府,大阪市北区,中崎１丁目２番２５号アクシオ梅田東１階,,27,127,5300016,,,,,,,2024-07-22,1,,,,,エンウンカイ,0
2095,8120901049488,新規,0,2024-07-22,2024-07-22,株式会社さしはな,,株式会社,大阪府,箕面市,白島２丁目１８番１８号,,27,220,5620012,,,,,,,2024-07-22,1,,,,,サシハナ,0
2096,8120901049496,新規,0,2024-07-22,2024-07-22,Ｓ．Ｃｒａｆｔ株式会社,,株式会社,大阪府,茨木市,野々宮２丁目１０番３３号,,27,211,5670847,,,,,,,2024-07-22,1,,,,,エスクラフト,0
2102,8122001038289,新規,0,2024-07-22,2024-07-22,リンクス株式会社,,株式会社,大阪府,八尾市,北本町４丁目７番３２号,,27,212,5810802,,,,,,,2024-07-22,1,,,,,リンクス,0
2107,8130003009712,新規,0,2024-07-22,2024-07-22,ｒａｙｏｕｔ合同会社,,合同会社,京都府,京都市山科区,小山姫子町３０－２２,,26,110,6078114,,,,,,,2024-07-22,1,,,,,レイアウト,0
2113,8140001135179,新規,0,2024-07-22,2024-07-22,株式会社Ｌｉｎｏ,,株式会社,兵庫県,明石市,大久保町松陰１０５０番地の１０,,28,203,6740053,,,,,,,2024-07-22,1,,,,,リノ,0
2114,8140001135187,新規,0,2024-07-22,2024-07-22,株式会社Ａｆｆｉｎｉｔｙ　Ｎｅｘａ,,株式会社,兵庫県,神戸市中央区,東川崎町１丁目８番４号神戸市産業振興センター５階インキュベーション神戸ハーバーオフィス創業準備オフィス内５－７株式会社ＡｆｆｉｎｉｔｙＮｅｘａ,,28,110,6500044,,,,,,,2024-07-22,1,,,,,アフィニティネクサ,0
2115,8140001135212,新規,0,2024-07-22,2024-07-22,株式会社ＦＡＭＣＡ,,株式会社,兵庫県,西宮市,山口町船坂２１６１番地１,,28,204,6511423,,,,,,,2024-07-22,1,,,,,ファムカ,0
2117,8140003020817,新規,0,2024-07-22,2024-07-22,うお忠合同会社,,合同会社,兵庫県,尼崎市,杭瀬本町２丁目１４番１４号,,28,202,6600814,,,,,,,2024-07-22,1,,,,,ウオチュウ,0
2118,8140003020841,新規,0,2024-07-22,2024-07-22,合同会社アバック,,合同会社,兵庫県,加古川市,野口町北野７３３番地の１ラムールファミーユ１０１号,,28,210,6750011,,,,,,,2024-07-22,1,,,,,アバック,0
2121,8160001026087,新規,0,2024-07-22,2024-07-22,ＱＵＢＥ株式会社,,株式会社,滋賀県,大津市,南小松１６－３４,,25,201,5200502,,,,,,,2024-07-22,1,,,,,キューブ,0
2131,8180003027098,新規,0,2024-07-22,2024-07-22,合同会社ライフウェイジャパン,,合同会社,愛知県,名古屋市西区,二方町４番地の１－１００４,,23,104,4520817,,,,,,,2024-07-22,1,,,,,ライフウェイジャパン,0
2132,8180003027107,新規,0,2024-07-22,2024-07-22,合同会社ループ,,合同会社,愛知県,名古屋市東区,東桜２丁目４―１第三コジマビル２階,,23,102,4610005,,,,,,,2024-07-22,1,,,,,ループ,0
2137,8200001042740,新規,0,2024-07-22,2024-07-22,株式会社Ｂｒｅｅｄ,,株式会社,岐阜県,岐阜市,琴塚２丁目１６番２５号,,21,201,5008222,,,,,,,2024-07-22,1,,,,,ブリード,0
2170,8310003004819,新規,0,2024-07-22,2024-07-22,合同会社Ｋａｆｂｅｔ,,合同会社,長崎県,諫早市,西栄田町１１９２番地５,,42,204,8540082,,,,,,,2024-07-22,1,,,,,カフベート,0
2173,8330001032266,新規,0,2024-07-22,2024-07-22,Ｒｅ‐デザイン株式会社,,株式会社,熊本県,菊池郡菊陽町,大字津久礼２２１４番地１９,,43,404,8691101,,,,,,,2024-07-22,1,,,,,リデザイン,0
2175,8340001026663,新規,0,2024-07-22,2024-07-22,株式会社コネクト不動産,,株式会社,鹿児島県,霧島市,国分清水１丁目１４番３１号,,46,218,8994304,,,,,,,2024-07-22,1,,,,,コネクトフドウサン,0
2178,8360001033939,新規,0,2024-07-22,2024-07-22,ブルーゾーン沖縄研究センター株式会社,,株式会社,沖縄県,中頭郡読谷村,字楚辺２２１５番地１,,47,324,9040304,,,,,,,2024-07-22,1,,,,,ブルーゾーンオキナワケンキュウセンター,0
2179,8360001033955,新規,0,2024-07-22,2024-07-22,株式会社ＷＥＬＬＮＡ　ＭＡＷＡＳＨＩ,,株式会社,沖縄県,那覇市,旭町１１４番地４,,47,201,9000029,,,,,,,2024-07-22,1,,,,,ウェルナマワシ,0
2182,8370001051535,新規,0,2024-07-22,2024-07-22,株式会社Ａｐｉｓｉｃｏ,,株式会社,宮城県,名取市,杜せきのした１丁目３番地の６ヨアンルミエールＩ２０３号,00135645,04,207,9811227,,,,,,,2024-07-22,1,,,,,アピシコ,0
2186,8380003005819,新規,0,2024-07-22,2024-07-22,合同会社ＹｏｕｔｈＢａｓｅ,,合同会社,福島県,福島市,西中央１丁目１番地,,07,201,9608074,,,,,,,2024-07-22,1,,,,,ユースベース,0
2190,8410001013885,新規,0,2024-07-22,2024-07-22,株式会社瀧口オフィス,,株式会社,秋田県,大館市,字大田面３９４番地１,,05,204,0170041,,,,,,,2024-07-22,1,,,,,タキグチオフィス,0
2194,8430003016579,新規,0,2024-07-22,2024-07-22,ファノーヴァプラス合同会社,,合同会社,北海道,札幌市豊平区,月寒西二条６丁目２番１６号アイランド２６－１０１号,,01,105,0620022,,,,,,,2024-07-22,1,,,,,ファノーヴァプラス,0
2202,8500003003280,新規,0,2024-07-22,2024-07-22,ブルーフィールド合同会社,,合同会社,愛媛県,今治市,東門町１丁目５番地３７,,38,202,7940033,,,,,,,2024-07-22,1,,,,,ブルーフィールド,0
2205,8700150126319,新規,0,2024-07-22,2024-07-03,上分地区地域自主組織,,その他,高知県,須崎市,上分丙３４４番地の２,,39,206,7850028,,,,,,,2024-07-03,1,,,,,カミブンチクチイキジシユソシキ,0
2222,9010001246590,新規,0,2024-07-22,2024-07-22,Ｏｒａｎｇｅ　Ｃｏｃｏ　Ｃａｐｉｔａｌ　Ｌｉｍｉｔｅｄ株式会社,,株式会社,東京都,千代田区,内神田２丁目４番２号一広グローバルビル１００１号,,13,101,1010047,,,,,,,2024-07-22,1,,,,,オレンジココキャピタルリミテッド,0
2223,9010001246764,新規,0,2024-07-22,2024-07-22,株式会社ＹＯＯＫ,,株式会社,東京都,千代田区,神田須田町１丁目７番８号ＶＯＲＴ秋葉原ＩＶ２Ｆ,00135654,13,101,1010041,,,,,,,2024-07-22,1,,,,,ヨーク,0
2228,9010003044365,新規,0,2024-07-22,2024-07-22,Ｓｔｕｄｉｏ　Ｋｉｓｈｉｋａｗａ合同会社,,合同会社,東京都,中央区,日本橋大伝馬町１２番３－１１０２号,,13,102,1030011,,,,,,,2024-07-22,1,,,,,スタジオキシカワ,0
2229,9010005038530,新規,0,2024-07-22,2024-07-22,メック都市開発１６号一般社団法人,,その他の設立登記法人,東京都,中央区,日本橋１丁目４番１号日本橋一丁目ビルディング,,13,102,1030027,,,,,,,2024-07-22,1,,,,,メックトシカイハツジュウロクゴウ,0
2231,9010101016233,新規,0,2024-07-22,2024-07-22,株式会社和流者,,株式会社,東京都,八王子市,元八王子町３丁目２４３１番地７,,13,201,1930826,,,,,,,2024-07-22,1,,,,,ワルモン,0
2235,9010601065589,新規,0,2024-07-22,2024-07-22,株式会社ＯＷＬ,,株式会社,東京都,江東区,白河３丁目３番３号,,13,108,1350021,,,,,,,2024-07-22,1,,,,,オウル,0
2236,9010701046290,新規,0,2024-07-22,2024-07-22,株式会社リ・クリエ,,株式会社,東京都,品川区,西五反田７丁目１３－５ＤＫ五反田４０７,,13,109,1410031,,,,,,,2024-07-22,1,,,,,リクリエ,0
2237,9010701046299,新規,0,2024-07-22,2024-07-22,コトムケヤワス株式会社,,株式会社,東京都,品川区,西五反田２丁目２３番１号,,13,109,1410031,,,,,,,2024-07-22,1,,,,,コトムケヤワス,0
2239,9010703007258,新規,0,2024-07-22,2024-07-22,Ｍｉｃｔｏ　Ｐｉｃｔｕｒｅｓ合同会社,,合同会社,東京都,品川区,荏原６丁目２―８,,13,109,1420063,,,,,,,2024-07-22,1,,,,,ミクトピクチャーズ,0
2254,9011001163388,新規,0,2024-07-22,2024-07-22,株式会社ねこの手,,株式会社,東京都,渋谷区,円山町５番５号Ｎａｖｉ渋谷Ｖ３階,,13,113,1500044,,,,,,,2024-07-22,1,,,,,ネコノテ,0
2255,9011001163405,新規,0,2024-07-22,2024-07-22,株式会社ワクテカデジタル,,株式会社,東京都,目黒区,下目黒１丁目１番１４号コノトラビル７Ｆ,,13,110,1530064,,,,,,,2024-07-22,1,,,,,ワクテカデジタル,0
2256,9011001163421,新規,0,2024-07-22,2024-07-22,株式会社Ｇａｂｒｉｅｌ,,株式会社,東京都,渋谷区,道玄坂１丁目１０番８号,,13,113,1500043,,,,,,,2024-07-22,1,,,,,ガブリエル,0
2257,9011001163495,新規,0,2024-07-22,2024-07-22,株式会社宇賀神商店,,株式会社,東京都,渋谷区,初台１丁目３８番１０号第二近江ビル１階３号室,,13,113,1510061,,,,,,,2024-07-22,1,,,,,ウガジンショウテン,0
2258,9011001163520,新規,0,2024-07-22,2024-07-22,株式会社アシスト・クローバー,,株式会社,東京都,渋谷区,道玄坂１丁目１０番８号渋谷道玄坂東急ビル２Ｆ－Ｃ,,13,113,1500043,,,,,,,2024-07-22,1,,,,,アシストクローバー,0
2263,9011101108111,新規,0,2024-07-22,2024-07-22,星の海株式会社,,株式会社,東京都,新宿区,高田馬場４丁目８－９ＮＹ企画ビル４Ｆ,,13,104,1690075,,,,,,,2024-07-22,1,,,,,ホシノウミ,0
2267,9011501030955,新規,0,2024-07-22,2024-07-22,株式会社アールエム,,株式会社,東京都,荒川区,西日暮里１丁目１２番２１号,,13,118,1160013,,,,,,,2024-07-22,1,,,,,アールエム,0
2269,9011503006152,新規,0,2024-07-22,2024-07-22,フランクユニ合同会社,,合同会社,東京都,北区,浮間３丁目２１番１４－２０２号リエス北赤羽,,13,117,1150051,,,,,,,2024-07-22,1,,,,,フランクユニ,0
2275,9012301014000,新規,0,2024-07-22,2024-07-22,株式会社ＲＵＴＨ,,株式会社,東京都,町田市,金森７丁目１８番１１－６０１号,,13,209,1940012,,,,,,,2024-07-22,1,,,,,ルース,0
2290,9020001158158,新規,0,2024-07-22,2024-07-22,株式会社Ｓ．Ｋ,,株式会社,神奈川県,横浜市港北区,新吉田東５丁目５９番１１号,,14,109,2230058,,,,,,,2024-07-22,1,,,,,エスケイ,0
2291,9020001158397,新規,0,2024-07-22,2024-07-22,株式会社ｏｒｃａｄｏｔ,,株式会社,神奈川県,川崎市宮前区,鷺沼４丁目１６番地３グラン・ブルー鷺沼４０３,,14,136,2160004,,,,,,,2024-07-22,1,,,,,オルカドット,0
2293,9020003026503,新規,0,2024-07-22,2024-07-22,合同会社ＢＲＩＬＬＡＮＴＥ　ＤＥＦＩ,,合同会社,神奈川県,横浜市神奈川区,金港町５－１４クアドリフォリオ８階,,14,102,2210056,,,,,,,2024-07-22,1,,,,,ブリランテディフィ,0
2302,9030001161549,新規,0,2024-07-22,2024-07-22,株式会社美学,,株式会社,埼玉県,鴻巣市,本町４丁目９－２９,,11,217,3650038,,,,,,,2024-07-22,1,,,,,ビガク,0
2311,9040001134603,新規,0,2024-07-22,2024-07-22,ＯＮＥ　ＳＨＩＰ株式会社,,株式会社,千葉県,柏市,南柏２丁目２番４－２０４号,,12,217,2770855,,,,,,,2024-07-22,1,,,,,ワンシップ,0
2312,9040001134636,新規,0,2024-07-22,2024-07-22,株式会社ルネソレイユ,,株式会社,千葉県,市川市,市川１丁目６番６号もりやすビル３Ｆ,,12,203,2720034,,,,,,,2024-07-22,1,,,,,ルネソレイユ,0
2313,9040001134644,新規,0,2024-07-22,2024-07-22,株式会社テクノルーム,,株式会社,千葉県,船橋市,新高根２丁目２７番５号プオナスタンザ高根公団Ｉ－２０２号,,12,204,2740814,,,,,,,2024-07-22,1,,,,,テクノルーム,0
2318,9040003025395,新規,0,2024-07-22,2024-07-22,合同会社和心おたすけ堂,,合同会社,千葉県,柏市,富里２丁目１－３７ハイム柏洋２０１号室,,12,217,2770081,,,,,,,2024-07-22,1,,,,,ワゴコロオタスケドウ,0
2319,9040005022449,新規,0,2024-07-22,2024-07-22,一般社団法人ゆぴあ４７,,その他の設立登記法人,千葉県,市原市,東五所１番地１０,,12,219,2900064,,,,,,,2024-07-22,1,,,,,ユピアヨンジュウナナ,0
2325,9060001037317,新規,0,2024-07-22,2024-07-22,株式会社ビュートデンタル,,株式会社,栃木県,宇都宮市,鶴田町５番地５,,09,201,3200851,,,,,,,2024-07-22,1,,,,,ビュートデンタル,0
2328,9070001041986,新規,0,2024-07-22,2024-07-22,株式会社篠原建築,,株式会社,群馬県,高崎市,江木町１３６０番地２,,10,202,3700046,,,,,,,2024-07-22,1,,,,,シノハラケンチク,0
2341,9120001266966,新規,0,2024-07-22,2024-07-22,ｇｌｏｉｒｅ株式会社,,株式会社,大阪府,大阪市福島区,吉野４丁目９番２０－２０３号,,27,103,5530006,,,,,,,2024-07-22,1,,,,,グロワール,0
2342,9120001266990,新規,0,2024-07-22,2024-07-22,株式会社ボクトコロ,,株式会社,大阪府,大阪市東成区,大今里２丁目２７－２４,,27,115,5370012,,,,,,,2024-07-22,1,,,,,ボクトコロ,0
2343,9120001266999,新規,0,2024-07-22,2024-07-22,平睿株式会社,,株式会社,大阪府,大阪市平野区,加美正覚寺１丁目５番３号ショウエイハウス４Ｄ,,27,126,5470006,,,,,,,2024-07-22,1,,,,,ヘイエイ,0
2344,9120001267007,新規,0,2024-07-22,2024-07-22,此心株式会社,,株式会社,大阪府,大阪市中央区,島之内２丁目８番２９－４１０号,,27,128,5420082,,,,,,,2024-07-22,1,,,,,コシン,0
2351,9120901049487,新規,0,2024-07-22,2024-07-22,株式会社ＨＡＪＩＭＥ,,株式会社,大阪府,高槻市,日吉台六番町５８番８号,,27,207,5691022,,,,,,,2024-07-22,1,,,,,ハジメ,0
2364,9140001135178,新規,0,2024-07-22,2024-07-22,株式会社７ＡＲＣ,,株式会社,兵庫県,神戸市兵庫区,築地町３番５１号,,28,105,6520845,,,,,,,2024-07-22,1,,,,,セブンアーク,0
2365,9140001135186,新規,0,2024-07-22,2024-07-22,株式会社ＳＳ　ｗｏｒｋ,,株式会社,兵庫県,尼崎市,大島１丁目７番１号,,28,202,6600076,,,,,,,2024-07-22,1,,,,,エスエスワーク,0
2367,9150001027432,新規,0,2024-07-22,2024-07-22,株式会社ＭＯＮＪＵ,,株式会社,奈良県,大和郡山市,千日町３５番地５,,29,203,6391053,,,,,,,2024-07-22,1,,,,,モンジュ,0
2377,9180001162409,新規,0,2024-07-22,2024-07-22,中日介護事業株式会社,,株式会社,愛知県,名古屋市中川区,富川町５丁目２番地６,,23,110,4540037,,,,,,,2024-07-22,1,,,,,チュウニチカイゴジギョウ,0
2383,9180003027089,新規,0,2024-07-22,2024-07-22,合同会社菜の花,,合同会社,愛知県,名古屋市守山区,本地が丘１１０１番地グリーンコーポ白山６０４号,,23,113,4630031,,,,,,,2024-07-22,1,,,,,ナノハナ,0
2384,9180003027097,新規,0,2024-07-22,2024-07-22,ＳＰ合同会社,,合同会社,愛知県,名古屋市東区,泉３丁目１７番１１号３０２,,23,102,4610001,,,,,,,2024-07-22,1,,,,,エスピー,0
2394,9190003004748,新規,0,2024-07-22,2024-07-22,合同会社ノビアン,,合同会社,三重県,津市,白山町三ヶ野３６４３番地,,24,201,5152601,,,,,,,2024-07-22,1,,,,,ノビアン,0
2395,9220001026105,新規,0,2024-07-22,2024-07-22,株式会社ＭＡＫＩ,,株式会社,石川県,金沢市,東力２丁目５番地２,,17,201,9218015,,,,,,,2024-07-22,1,,,,,マキ,0
2404,9290001106445,新規,0,2024-07-22,2024-07-22,株式会社ＣＩＥＬＯ,,株式会社,福岡県,福岡市中央区,六本松２丁目４番１９号,,40,133,8100044,,,,,,,2024-07-22,1,,,,,シエロ,0
2406,9290003015529,新規,0,2024-07-22,2024-07-22,Ｉ　ＧＥＴ　ＡＵＴＯ合同会社,,合同会社,福岡県,福岡市中央区,天神１丁目９番１７号福岡天神フコク生命ビル１５階,,40,133,8100001,,,,,,,2024-07-22,1,,,,,アイゲットオート,0
2407,9290003015545,新規,0,2024-07-22,2024-07-22,合同会社ＲｏｂｏＧｅｎｅ,,合同会社,福岡県,福岡市早良区,荒江２丁目６番１３－１２０３号,,40,137,8140021,,,,,,,2024-07-22,1,,,,,ロボジーン,0
2420,9340003004550,新規,0,2024-07-22,2024-07-22,合同会社真愛メディカルサポート,,合同会社,鹿児島県,南さつま市,大浦町２４５９３番地,,46,220,8971201,,,,,,,2024-07-22,1,,,,,シンアイメディカルサポート,0
2431,9360001033962,新規,0,2024-07-22,2024-07-22,株式会社農業福祉連携推進機構,,株式会社,沖縄県,那覇市,字国場４２１番地,,47,201,9020075,,,,,,,2024-07-22,1,,,,,ノウギョウフクシスイシンレンケイキコウ,0
2433,9360003014151,新規,0,2024-07-22,2024-07-22,合同会社団上工業,,合同会社,沖縄県,那覇市,牧志２丁目１５－９,,47,201,9000013,,,,,,,2024-07-22,1,,,,,ダンジョウコウギョウ,0
2440,9380003005818,新規,0,2024-07-22,2024-07-22,郡山工業合同会社,,合同会社,福島県,郡山市,富田町字音路１番地の２,,07,203,9638041,,,,,,,2024-07-22,1,,,,,コオリヤマコウギョウ,0
2445,9430001092274,新規,0,2024-07-22,2024-07-22,株式会社エヌビーエル,,株式会社,北海道,恵庭市,漁町２３７番地,,01,231,0611414,,,,,,,2024-07-22,1,,,,,エヌビーエル,0
2446,9430001092282,新規,0,2024-07-22,2024-07-22,Ｔ・Ｋ・Ｇ株式会社,,株式会社,北海道,札幌市南区,川沿七条４丁目８番１２号,,01,106,0050807,,,,,,,2024-07-22,1,,,,,ティケイジイ,0
2447,9430003016578,新規,0,2024-07-22,2024-07-22,合同会社やまいち商店,,合同会社,北海道,札幌市南区,澄川六条１２丁目３番２５号レジデンスやまいちパートＩＩ２０３号,00135647,01,106,0050006,,,,,,,2024-07-22,1,,,,,ヤマイチショウテン,0
2451,9470005006573,新規,0,2024-07-22,2024-07-22,一般社団法人笠島人名会,,その他の設立登記法人,香川県,丸亀市,本島町笠島３３０番地２,,37,202,7630221,,,,,,,2024-07-22,1,,,,,カサシマニンミョウカイ,0
2454,9700150126482,新規,0,2024-07-22,2024-07-22,株式会社スティーリアン,,外国会社等,東京都,港区,虎ノ門１丁目１７番１号虎ノ門ヒルズビジネスタワー１５階,,13,103,1050001,大韓民国ソウル特別市龍山区元曉路９０ギル１１、業務棟１２階（元曉路１街）,,,,,,2024-07-22,1,,,,,カブシキカイシヤステイーリアン,0
