sequenceNumber,corporateNumber,process,correct,updateDate,changeDate,name,nameImageId,kind,prefectureName,cityName,streetNumber,addressImageId,prefectureCode,cityCode,postCode,addressOutside,addressOutsideImageId,closeDate,closeCause,successorCorporateNumber,changeCause,assignmentDate,latest,enName,enPrefectureName,enCityName,enAddressOutside,furigana,hihyoji
7,1010001239197,新規,0,2023-10-18,2023-10-18,アトラクション株式会社,,株式会社,東京都,中央区,銀座１丁目１２―４Ｎ＆ＥＢＬＤ．７階,,13,102,1040061,,,,,,,2023-10-18,1,,,,,アトラクション,0
10,1010003041923,新規,0,2023-10-18,2023-10-18,合同会社プロスマイル,,合同会社,東京都,中央区,日本橋小伝馬町１４番１２号,,13,102,1030001,,,,,,,2023-10-18,1,,,,,プロスマイル,0
11,1010003041964,新規,0,2023-10-18,2023-10-18,Ａｂａｎｄｏｎ’ｔ　Ｃｏｎｓｕｌｔｉｎｇ合同会社,,合同会社,東京都,中央区,銀座１丁目１２番４号Ｎ＆ＥＢＬＤ．６Ｆ,,13,102,1040061,,,,,,,2023-10-18,1,,,,,アバンダンコンサルティング,0
12,1010003041997,新規,0,2023-10-18,2023-10-18,スリーライツ合同会社,,合同会社,東京都,千代田区,丸の内２丁目２－１岸本ビルヂング６Ｆ,,13,101,1000005,,,,,,,2023-10-18,1,,,,,スリーライツ,0
14,1010005037366,新規,0,2023-10-18,2023-10-18,社会保険労務士法人ＦＯＵＲ　ＨＥＡＲＴＳ,,その他の設立登記法人,東京都,千代田区,神田三崎町１丁目１番１４号三崎町大島ビル４階,,13,101,1010061,,,,,,,2023-10-18,1,,,,,フォーハーツ,0
15,1010005037399,新規,0,2023-10-18,2023-10-18,黒岩レジデンシャルホールディング一般社団法人,,その他の設立登記法人,東京都,千代田区,丸の内３丁目１番１号東京共同会計事務所内,,13,101,1000005,,,,,,,2023-10-18,1,,,,,クロイワレジデンシャルホールディング,0
16,1010103002230,新規,0,2023-10-18,2023-10-18,ＱＳグローバル合同会社,,合同会社,東京都,八王子市,別所１丁目１７番４号リヴェール大関１０１,,13,201,1920363,,,,,,,2023-10-18,1,,,,,キューエスグローバル,0
31,1010401177807,新規,0,2023-10-18,2023-10-18,株式会社ＨＯＰＥ　ＲＯＣＫ,,株式会社,東京都,港区,北青山１丁目３番１号,,13,103,1070061,,,,,,,2023-10-18,1,,,,,ホープロック,0
32,1010401177848,新規,0,2023-10-18,2023-10-18,株式会社ブレイヴ,,株式会社,東京都,港区,北青山１丁目３番１号アールキューブ青山３階,,13,103,1070061,,,,,,,2023-10-18,1,,,,,ブレイヴ,0
33,1010401177856,新規,0,2023-10-18,2023-10-18,株式会社シリウス,,株式会社,東京都,港区,南青山７丁目３番１号,,13,103,1070062,,,,,,,2023-10-18,1,,,,,シリウス,0
34,1010401177864,新規,0,2023-10-18,2023-10-18,株式会社恒利,,株式会社,東京都,港区,赤坂２丁目２１番５号ＡＢＣ,,13,103,1070052,,,,,,,2023-10-18,1,,,,,ヘンリー,0
35,1010401177889,新規,0,2023-10-18,2023-10-18,株式会社Ａｋａｇａｗａ　Ｉｎｎｏｖａｔｉｏｎｓ,,株式会社,東京都,港区,芝１丁目２番１－３５１１号,,13,103,1050014,,,,,,,2023-10-18,1,,,,,アカガワイノベーションズ,0
36,1010403031160,新規,0,2023-10-18,2023-10-18,合同会社信じるチカラ,,合同会社,東京都,港区,南青山１丁目２６番１３号,,13,103,1070062,,,,,,,2023-10-18,1,,,,,シンジルチカラ,0
37,1010403031177,新規,0,2023-10-18,2023-10-18,ＧＨＳ　ＪＡＰＡＮ合同会社,,合同会社,東京都,港区,赤坂２丁目１４番５号Ｄａｉｗａ赤坂ビル４階,,13,103,1070052,,,,,,,2023-10-18,1,,,,,ジーエイチエスジャパン,0
38,1010405022562,新規,0,2023-10-18,2023-10-18,医療法人社団弘愛会,,その他の設立登記法人,東京都,港区,虎ノ門３丁目１７番７号２階,,13,103,1050001,,,,,,,2023-10-18,1,,,,,コウアイカイ,0
40,1010501051201,新規,0,2023-10-18,2023-10-18,株式会社ＴＯＵＲ　ＤＲＥＡＭ,,株式会社,東京都,台東区,上野桜木１丁目７番５号ハウス上野の山１０２号室,,13,106,1100002,,,,,,,2023-10-18,1,,,,,ツアードリーム,0
41,1010603010427,新規,0,2023-10-18,2023-10-18,合同会社ＫＡＪＹＭＭ,,合同会社,東京都,江東区,木場６丁目４番１３－３０３号,,13,108,1350042,,,,,,,2023-10-18,1,,,,,カジーム,0
42,1010605004253,新規,0,2023-10-18,2023-10-18,ＮＰＯ法人アートコミュニティ縁,00132307,その他の設立登記法人,東京都,江東区,南砂３丁目１１番４－９０８号,,13,108,1360076,,,,,,,2023-10-18,1,,,,,アートコミュニティエン,0
47,1010801034442,新規,0,2023-10-18,2023-10-18,株式会社ＰＡＮＡＳ,,株式会社,東京都,大田区,蒲田１丁目１番２５号プチパレ４０１,,13,111,1440052,,,,,,,2023-10-18,1,,,,,パナス,0
48,1010803004724,新規,0,2023-10-18,2023-10-18,Ａｓｈａ　Ｔｒａｄｉｎｇ合同会社,,合同会社,東京都,大田区,東矢口３丁目１７－１０－２０３号室,,13,111,1460094,,,,,,,2023-10-18,1,,,,,アサトレーディング,0
50,1010901054019,新規,0,2023-10-18,2023-10-18,株式会社Ｃａｔｃｈｅｍ,,株式会社,東京都,世田谷区,野毛３丁目３番７号,,13,112,1580092,,,,,,,2023-10-18,1,,,,,キャッチエム,0
52,1010903008526,新規,0,2023-10-18,2023-10-18,ＬＶ３合同会社,,合同会社,東京都,世田谷区,奥沢５丁目１番１１号メゾンドジョワ２０２,,13,112,1580083,,,,,,,2023-10-18,1,,,,,レベルスリー,0
57,1011001157546,新規,0,2023-10-18,2023-10-18,株式会社ＪＡＰＯＮＩＣ　ＦＯＯＤ＆ＣＡＦＥ,,株式会社,東京都,渋谷区,本町４丁目４９番７号,,13,113,1510071,,,,,,,2023-10-18,1,,,,,ジャポニックフードアンドカフェ,0
65,1011101104794,新規,0,2023-10-18,2023-10-18,株式会社三井プロミス,,株式会社,東京都,新宿区,百人町１丁目１７－３,,13,104,1690073,,,,,,,2023-10-18,1,,,,,ミツイプロミス,0
69,1011403004148,新規,0,2023-10-18,2023-10-18,ＫＦ日興商事合同会社,,合同会社,東京都,板橋区,西台２丁目２１番８号,,13,119,1750045,,,,,,,2023-10-18,1,,,,,ケイエフニッコウショウジ,0
75,1011803005893,新規,0,2023-10-18,2023-10-18,Ｂｌｏｏｍ合同会社,,合同会社,東京都,足立区,大谷田３丁目２２番１５－３０４号,,13,121,1200001,,,,,,,2023-10-18,1,,,,,ブルーム,0
76,1012301013629,新規,0,2023-10-18,2023-10-18,株式会社Ｂｉｇ　Ｍ,,株式会社,東京都,町田市,中町３丁目２３－２０－２０１,,13,209,1940021,,,,,,,2023-10-18,1,,,,,ビッグエム,0
81,1012701017881,新規,0,2023-10-18,2023-10-18,株式会社ＵＴ‐Ａｓｓｅｔ,,株式会社,東京都,西東京市,谷戸町３丁目２３番１－８０１号,,13,229,1880001,,,,,,,2023-10-18,1,,,,,ユーティーアセット,0
85,1013301051486,新規,0,2023-10-18,2023-10-18,株式会社授受,,株式会社,東京都,豊島区,上池袋４丁目１１番３号コーポ東永２０８号,,13,116,1700012,,,,,,,2023-10-18,1,,,,,ジュジュ,0
86,1013303006835,新規,0,2023-10-18,2023-10-18,ＭａｎｙＣｏｎｎｅｃｔｉｏｎ合同会社,,合同会社,東京都,豊島区,東池袋１丁目３４番５号いちご東池袋ビル６階,,13,116,1700013,,,,,,,2023-10-18,1,,,,,メニーコネクション,0
97,1020003024712,新規,0,2023-10-18,2023-10-18,ＡＭＵ合同会社,,合同会社,神奈川県,横浜市鶴見区,汐入町２丁目３８番２１号,,14,101,2300043,,,,,,,2023-10-18,1,,,,,,0
98,1020003024794,新規,0,2023-10-18,2023-10-18,合同会社のんびり生きたい,,合同会社,神奈川県,横浜市中区,末吉町４丁目７７番地１－１００３号,,14,104,2310055,,,,,,,2023-10-18,1,,,,,ノンビリイキタイ,0
103,1021001080474,新規,0,2023-10-18,2023-10-18,三和商事株式会社,,株式会社,神奈川県,足柄下郡湯河原町,吉浜４２９番地,,14,384,2590312,,,,,,,2023-10-18,1,,,,,サンワショウジ,0
104,1021001080482,新規,0,2023-10-18,2023-10-18,株式会社湘南ユニテクノ,,株式会社,神奈川県,高座郡寒川町,宮山１９７５－８,,14,321,2530106,,,,,,,2023-10-18,1,,,,,,0
105,1021003013688,新規,0,2023-10-18,2023-10-18,合同会社ウイング,,合同会社,神奈川県,秦野市,鈴張町６番４２号,,14,211,2570055,,,,,,,2023-10-18,1,,,,,ウイング,0
126,1040003023571,新規,0,2023-10-18,2023-10-18,福田屋管理合同会社,,合同会社,千葉県,松戸市,東松戸１丁目９－２,,12,207,2702225,,,,,,,2023-10-18,1,,,,,フクダヤカンリ,0
130,1040005022150,新規,0,2023-10-18,2023-10-18,医療法人社団Ｅ‐ＨＯＰＥ,,その他の設立登記法人,千葉県,市川市,市川南１丁目５番２５号グロリアコート市川１階Ａ,,12,203,2720033,,,,,,,2023-10-18,1,,,,,イーホープ,0
131,1050003007854,新規,0,2023-10-18,2023-10-18,ＮＡＺＩＲ　ＩＮＴＥＲＮＡＴＩＯＮＡＬ合同会社,,合同会社,茨城県,常総市,坂手町字貝置３５８９番１,,08,211,3030042,,,,,,,2023-10-18,1,,,,,ナジルインターナショナル,0
132,1050003007862,新規,0,2023-10-18,2023-10-18,合同会社アルターナティーフ,,合同会社,茨城県,笠間市,下郷４５２７番地６５,,08,216,3190202,,,,,,,2023-10-18,1,,,,,アルターナティーフ,0
134,1060001036441,新規,0,2023-10-18,2023-10-18,ＳＨＡＨ　ＩＮＴＥＲＮＡＴＩＯＮＡＬ　ＴＲＡＤＩＮＧ株式会社,,株式会社,栃木県,栃木市,都賀町家中４７７８番地,,09,203,3280111,,,,,,,2023-10-18,1,,,,,シャフインターナショナルトレーディング,0
140,1060005010145,新規,0,2023-10-18,2023-10-18,医療法人一悠会,,その他の設立登記法人,栃木県,小山市,大字粟宮字溜下４７番地,,09,208,3290201,,,,,,,2023-10-18,1,,,,,イチユウカイ,0
149,1080401026791,新規,0,2023-10-18,2023-10-18,株式会社ラ・ポール,,株式会社,静岡県,浜松市中区,元浜町３３番１４号２階,,22,131,4300942,,,,,,,2023-10-18,1,,,,,ラポール,0
152,1110001037921,新規,0,2023-10-18,2023-10-18,株式会社Ｃａｒ　ｍｏｌｌａｈ,,株式会社,新潟県,新潟市中央区,大島１６７番地２８,,15,103,9500953,,,,,,,2023-10-18,1,,,,,カーモラー,0
163,1120001258855,新規,0,2023-10-18,2023-10-18,ＴＡＧＡＩ株式会社,,株式会社,大阪府,大阪市中央区,船場中央３丁目３番９－２０９号,,27,128,5410055,,,,,,,2023-10-18,1,,,,,タガイ,0
164,1120001258871,新規,0,2023-10-18,2023-10-18,株式会社マルチェットラボ,,株式会社,大阪府,大阪市城東区,関目１丁目１４番２号,,27,118,5360008,,,,,,,2023-10-18,1,,,,,マルチェットラボ,0
165,1120001258938,新規,0,2023-10-18,2023-10-18,株式会社ＭＡＧＯＫＯＲＯ,,株式会社,大阪府,大阪市北区,池田町２番１号２０２号室,,27,127,5300033,,,,,,,2023-10-18,1,,,,,マゴコロ,0
174,1120103005494,新規,0,2023-10-18,2023-10-18,合同会社あすか,,合同会社,大阪府,堺市南区,鴨谷台１丁２８番１号,,27,145,5900138,,,,,,,2023-10-18,1,,,,,アスカ,0
175,1120901048216,新規,0,2023-10-18,2023-10-18,ＳＳＦ株式会社,,株式会社,大阪府,摂津市,鳥飼中１丁目７番１３号,,27,224,5660064,,,,,,,2023-10-18,1,,,,,エスエスエフ,0
194,1140001131977,新規,0,2023-10-18,2023-10-18,株式会社鉄木侭,,株式会社,兵庫県,宝塚市,中山五月台５丁目２番１９－４０１号,,28,214,6650871,,,,,,,2023-10-18,1,,,,,テムジン,0
195,1140003019700,新規,0,2023-10-18,2023-10-18,クリエイターズオフィスヨミヤ合同会社,,合同会社,兵庫県,芦屋市,三条南町６番１３号,,28,206,6590086,,,,,,,2023-10-18,1,,,,,クリエイターズオフィスヨミヤ,0
197,1150001026805,新規,0,2023-10-18,2023-10-18,株式会社高山自動車,00132296,株式会社,奈良県,宇陀郡御杖村,大字土屋原１６９６番地の１,,29,386,6331303,,,,,,,2023-10-18,1,,,,,タカヤマジドウシャ,0
198,1150001026813,新規,0,2023-10-18,2023-10-18,ブライアント株式会社,,株式会社,奈良県,北葛城郡王寺町,畠田９丁目１６７１番地の１,,29,425,6360021,,,,,,,2023-10-18,1,,,,,ブライアント,0
200,1150003003100,新規,0,2023-10-18,2023-10-18,合同会社アルケミー,,合同会社,奈良県,葛城市,柿本１２１番地１ヴェルドミールＡ棟１０３号,,29,211,6392111,,,,,,,2023-10-18,1,,,,,アルケミー,0
214,1180001158505,新規,0,2023-10-18,2023-10-18,株式会社ラズリーラボ,,株式会社,愛知県,名古屋市北区,会所町２５０番地１ロイヤルオークビル５階,,23,103,4620061,,,,,,,2023-10-18,1,,,,,ラズリーラボ,0
221,1180003025868,新規,0,2023-10-18,2023-10-18,合同会社まちしあ,,合同会社,愛知県,名古屋市中区,大須１丁目２５番４５号,,23,106,4600011,,,,,,,2023-10-18,1,,,,,マチシア,0
227,1190005011873,新規,0,2023-10-18,2023-10-18,渡鹿野旅館協同組合,,その他の設立登記法人,三重県,志摩市,磯部町渡鹿野５１７番地,,24,215,5170205,,,,,,,2023-10-18,1,,,,,ワタカノリョカン,0
234,1230001020056,新規,0,2023-10-18,2023-10-18,株式会社ｅパートナーとやま,,株式会社,富山県,富山市,境野新２９番地４,,16,201,9300153,,,,,,,2023-10-18,1,,,,,イーパートナートヤマ,0
237,1240001062270,新規,0,2023-10-18,2023-10-18,株式会社ＡＸＥ　ＣＯＭＰＡＮＹ,,株式会社,広島県,広島市安佐南区,山本新町５丁目２４番７号,,34,105,7310139,,,,,,,2023-10-18,1,,,,,アックスカンパニー,0
239,1240005015662,新規,0,2023-10-18,2023-10-18,医療法人ＬＣＧ,,その他の設立登記法人,広島県,呉市,吾妻２丁目９番２９号,,34,202,7370076,,,,,,,2023-10-18,1,,,,,エルシージー,0
241,1250001020343,新規,0,2023-10-18,2023-10-18,株式会社ブリス,,株式会社,山口県,周南市,大字八代８２２番地の５,,35,215,7450501,,,,,,,2023-10-18,1,,,,,ブリス,0
245,1280001009045,新規,0,2023-10-18,2023-10-18,グリーンフィールズ株式会社,,株式会社,島根県,雲南市,木次町山方２０６番地１,,32,209,6991312,,,,,,,2023-10-18,1,,,,,グリーンフィールズ,0
247,1290001103441,新規,0,2023-10-18,2023-10-18,株式会社シンプリエンス,,株式会社,福岡県,福岡市中央区,天神２丁目３番１０号天神パインクレスト７１９号,,40,133,8100001,,,,,,,2023-10-18,1,,,,,シンプリエンス,0
250,1290003014496,新規,0,2023-10-18,2023-10-18,合同会社２ｎｄＲｉｖｅｒ,,合同会社,福岡県,福岡市城南区,東油山１丁目３０番９号,,40,136,8140155,,,,,,,2023-10-18,1,,,,,セカンドリバー,0
253,1290803004523,新規,0,2023-10-18,2023-10-18,合同会社ＧＲＯＯＶＹ,,合同会社,福岡県,北九州市小倉南区,徳力１丁目１５番２－２０５号,,40,107,8020974,,,,,,,2023-10-18,1,,,,,グルービー,0
257,1300005007158,新規,0,2023-10-18,2023-10-18,一般社団法人チーム・ビヨンド,,その他の設立登記法人,佐賀県,佐賀市,三瀬村藤原５３７番地１３,,41,201,8420302,,,,,,,2023-10-18,1,,,,,チームビヨンド,0
262,1320001020088,新規,0,2023-10-18,2023-10-18,株式会社湧翔,,株式会社,大分県,大分市,大字乙津１６６番地の８,,44,201,8700144,,,,,,,2023-10-18,1,,,,,ユウショウ,0
264,1320003004205,新規,0,2023-10-18,2023-10-18,合同会社あおいメディテック,,合同会社,大分県,別府市,鶴見８組３,,44,202,8740833,,,,,,,2023-10-18,1,,,,,アオイメディテック,0
268,1330001031365,新規,0,2023-10-18,2023-10-18,株式会社丸興,,株式会社,熊本県,熊本市中央区,坪井６丁目３７番８号,,43,101,8600863,,,,,,,2023-10-18,1,,,,,マルコウ,0
272,1350005006188,新規,0,2023-10-18,2023-10-18,椎葉村複業協同組合,,その他の設立登記法人,宮崎県,東臼杵郡椎葉村,大字下福良１７５２－１,,45,430,8831601,,,,,,,2023-10-18,1,,,,,シイバソンフクギョウ,0
275,1360003013359,新規,0,2023-10-18,2023-10-18,合同会社ＨＥＮＴＯＮＡ,,合同会社,沖縄県,沖縄市,比屋根６丁目２５番１号２Ｆ,,47,211,9042173,,,,,,,2023-10-18,1,,,,,ヘントナ,0
276,1360003013367,新規,0,2023-10-18,2023-10-18,合同会社Ｄｒｅａｍ　Ｆａｒｍ,,合同会社,沖縄県,南城市,佐敷字津波古２３４９番地フリーダ南城Ｃ号室,,47,215,9011414,,,,,,,2023-10-18,1,,,,,ドリームファーム,0
277,1360003013383,新規,0,2023-10-18,2023-10-18,Ｚ園芸合同会社,,合同会社,沖縄県,中頭郡北中城村,字屋宜原６２１番地,,47,327,9012304,,,,,,,2023-10-18,1,,,,,ゼットエンゲイ,0
279,1370001050535,新規,0,2023-10-18,2023-10-18,株式会社ｋａｗａｒｉｎａ,,株式会社,宮城県,仙台市青葉区,本町１丁目５番２８号カーニープレイス仙台駅前通６０３号室,,04,101,9800014,,,,,,,2023-10-18,1,,,,,カワリナ,0
281,1370003006329,新規,0,2023-10-18,2023-10-18,合同会社ペガサスファイン５５,,合同会社,宮城県,大崎市,古川中島町８番８－５号,,04,215,9896142,,,,,,,2023-10-18,1,,,,,ペガサスファインゴーゴー,0
287,1400001016433,新規,0,2023-10-18,2023-10-18,スマイルサポート株式会社,,株式会社,岩手県,盛岡市,向中野７丁目１２番１５号,,03,201,0200851,,,,,,,2023-10-18,1,,,,,スマイルサポート,0
288,1400003003165,新規,0,2023-10-18,2023-10-18,合同会社２００９,,合同会社,岩手県,盛岡市,上ノ橋町７番６５－２０５号,,03,201,0200887,,,,,,,2023-10-18,1,,,,,ニゼロゼロキュウ,0
294,1430001090203,新規,0,2023-10-18,2023-10-18,株式会社Ｗｉｓｈ,,株式会社,北海道,札幌市北区,北二十七条西１２丁目４番２６号,,01,102,0010027,,,,,,,2023-10-18,1,,,,,ウィッシュ,0
296,1450001014119,新規,0,2023-10-18,2023-10-18,株式会社ネクサム,,株式会社,北海道,旭川市,旭神二条２丁目４番１号８,,01,204,0788372,,,,,,,2023-10-18,1,,,,,ネクサム,0
302,1470005006531,新規,0,2023-10-18,2023-10-18,サンヨーテック協同組合,,その他の設立登記法人,香川県,坂出市,林田町４２８５番地３２３,,37,203,7620012,,,,,,,2023-10-18,1,,,,,サンヨーテック,0
305,1480003002036,新規,0,2023-10-18,2023-10-18,合同会社アイキャンバス,,合同会社,徳島県,徳島市,中吉野町３丁目８６番地５,,36,201,7700804,,,,,,,2023-10-18,1,,,,,アイキャンバス,0
306,1480005006992,新規,0,2023-10-18,2023-10-18,一般社団法人うみのこてらす,,その他の設立登記法人,徳島県,海部郡牟岐町,大字中村字本村１０番地５５,,36,383,7750006,,,,,,,2023-10-18,1,,,,,ウミノコテラス,0
308,1500001025259,新規,0,2023-10-18,2023-10-18,株式会社ｍａｉｒｏ,,株式会社,愛媛県,松山市,天山３丁目１２番７号,,38,201,7900951,,,,,,,2023-10-18,1,,,,,マイロ,0
317,2010001239238,新規,0,2023-10-18,2023-10-18,ＫｌｉｍａＤＡＯ　ＪＡＰＡＮ株式会社,,株式会社,東京都,中央区,日本橋室町１丁目１１番１２号日本橋水野ビル７階,,13,102,1030022,,,,,,,2023-10-18,1,,,,,クリマダオジャパン,0
331,2010401177756,新規,0,2023-10-18,2023-10-18,株式会社アトリエラボ,,株式会社,東京都,港区,海岸１丁目２番２０号汐留ビルディング３階,,13,103,1050022,,,,,,,2023-10-18,1,,,,,アトリエラボ,0
332,2010401177847,新規,0,2023-10-18,2023-10-18,株式会社ＭＪ,,株式会社,東京都,港区,港南２丁目５番３号,,13,103,1080075,,,,,,,2023-10-18,1,,,,,エムジェイ,0
333,2010401177905,新規,0,2023-10-18,2023-10-18,株式会社ｄｕａｅｌ,,株式会社,東京都,港区,西麻布３丁目２４番１６号西麻布ＳＤビル７Ｆ,,13,103,1060031,,,,,,,2023-10-18,1,,,,,デュイル,0
335,2010403031184,新規,0,2023-10-18,2023-10-18,マノーピュ合同会社,,合同会社,東京都,港区,芝２丁目２８番１１－３０９号,,13,103,1050014,,,,,,,2023-10-18,1,,,,,マノーピュ,0
336,2010405022561,新規,0,2023-10-18,2023-10-18,一般社団法人日本脊椎・脊髄神経手術手技学会,,その他の設立登記法人,東京都,港区,南青山２丁目２２番１４号,,13,103,1070062,,,,,,,2023-10-18,1,,,,,ニホンセキツイセキズイシンケイシュジュツシュギガッカイ,0
340,2010601063987,新規,0,2023-10-18,2023-10-18,株式会社Ｒｏｓｓｉ’ｓ　Ｓｏｌｕｔｉｏｎｓ,,株式会社,東京都,墨田区,菊川３丁目２１－１１レジデンス須賀菊川２０５階,,13,107,1300024,,,,,,,2023-10-18,1,,,,,,0
341,2010603010426,新規,0,2023-10-18,2023-10-18,合同会社利君,,合同会社,東京都,江東区,佐賀１丁目１６番３号２０１－Ｃ,,13,108,1350031,,,,,,,2023-10-18,1,,,,,リクン,0
342,2010605004252,新規,0,2023-10-18,2023-10-18,一般社団法人豊洲輸出連携協議会,,その他の設立登記法人,東京都,江東区,豊洲６丁目５番１号,,13,108,1350061,,,,,,,2023-10-18,1,,,,,トヨスユシュツレンケイキョウギカイ,0
345,2010701044994,新規,0,2023-10-18,2023-10-18,ＨＯＧＵＳＵ株式会社,,株式会社,東京都,品川区,西五反田２丁目７番９号クワハラビル３階,,13,109,1410031,,,,,,,2023-10-18,1,,,,,ホグス,0
346,2010701045002,新規,0,2023-10-18,2023-10-18,株式会社ターニングクリエイション,,株式会社,東京都,品川区,大井５丁目１６番１２号,,13,109,1400014,,,,,,,2023-10-18,1,,,,,ターニングクリエイション,0
347,2010703006910,新規,0,2023-10-18,2023-10-18,合同会社Ｔｏｒｉｓｈｏ,,合同会社,東京都,品川区,北品川１丁目２９番１４号,,13,109,1400001,,,,,,,2023-10-18,1,,,,,トリショウ,0
361,2011001157487,新規,0,2023-10-18,2023-10-18,株式会社ＦＩＶＥ　ＪＡＰＡＮ,,株式会社,東京都,渋谷区,渋谷２丁目１９－１５宮益坂ビルディング６０９,,13,113,1500002,,,,,,,2023-10-18,1,,,,,ファイブジャパン,0
363,2011003017623,新規,0,2023-10-18,2023-10-18,合同会社Ｍｉｎｇｌｅ,,合同会社,東京都,渋谷区,道玄坂１丁目１０番８号渋谷道玄坂東急ビル２Ｆ－Ｃ,,13,113,1500043,,,,,,,2023-10-18,1,,,,,ミングル,0
364,2011003017706,新規,0,2023-10-18,2023-10-18,合同会社Ｉｎｓｐｉｒａｔｉｏｎ,,合同会社,東京都,目黒区,目黒本町６丁目１３番１６号,,13,110,1520002,,,,,,,2023-10-18,1,,,,,インスピレーション,0
365,2011003017714,新規,0,2023-10-18,2023-10-18,合同会社ｏｆｆｉｃｅ　ｃｒａｆｔ,,合同会社,東京都,目黒区,東山３丁目１－１１サンサーラ東山８０３,,13,110,1530043,,,,,,,2023-10-18,1,,,,,オフィスクラフト,0
366,2011005010238,新規,0,2023-10-18,2023-10-18,一般社団法人Ｂｏｒｄｅｒｌｅｓｓ　Ｂａｌｌｅｒｓ,,その他の設立登記法人,東京都,渋谷区,富ヶ谷１丁目４９番２１－１００７号ＢｒｉｌｌｉａＴｏｗｅｒ代々木公園ＣＬＡＳＳＹ,,13,113,1510063,,,,,,,2023-10-18,1,,,,,ボーダーレスボーラーズ,0
378,2011401025533,新規,0,2023-10-18,2023-10-18,株式会社日本ボートコンサルタント,,株式会社,東京都,板橋区,向原１丁目２１番１２号,,13,119,1730036,,,,,,,2023-10-18,1,,,,,ニホンボートコンサルタント,0
380,2011505002585,新規,0,2023-10-18,2023-10-18,一般社団法人プラポ倶楽部,,その他の設立登記法人,東京都,北区,岸町１丁目５番２０号太春ビル２階,,13,117,1140021,,,,,,,2023-10-18,1,,,,,プラポクラブ,0
381,2011603004095,新規,0,2023-10-18,2023-10-18,ＭＭＰ合同会社,,合同会社,東京都,練馬区,小竹町２丁目５番６号,,13,120,1760004,,,,,,,2023-10-18,1,,,,,エムエムピー,0
397,2013301051485,新規,0,2023-10-18,2023-10-18,株式会社Ｏｆｆｉｃｅ　ＴＡＧＡＷＡ,,株式会社,東京都,豊島区,南池袋２丁目３５番４号ユニティ池袋７Ｆ,,13,116,1710022,,,,,,,2023-10-18,1,,,,,オフィスタガワ,0
405,2020001153974,新規,0,2023-10-18,2023-10-18,四方株式会社,,株式会社,神奈川県,横浜市神奈川区,神大寺４丁目１４番２１号３ユナイト片倉アデリーナ１０３室,,14,102,2210801,,,,,,,2023-10-18,1,,,,,シホウ,0
406,2020001153999,新規,0,2023-10-18,2023-10-18,株式会社カイセイホームズ,,株式会社,神奈川県,横浜市磯子区,杉田１丁目１番１－２１０９号,,14,107,2350033,,,,,,,2023-10-18,1,,,,,カイセイホームズ,0
413,2020003024793,新規,0,2023-10-18,2023-10-18,てちあん合同会社,,合同会社,神奈川県,横浜市神奈川区,白楽３２番地,,14,102,2210065,,,,,,,2023-10-18,1,,,,,テチアン,0
420,2021001080457,新規,0,2023-10-18,2023-10-18,株式会社エスプラス,,株式会社,神奈川県,大和市,深見台１丁目２番６号,,14,213,2420013,,,,,,,2023-10-18,1,,,,,エスプラス,0
421,2021003013687,新規,0,2023-10-18,2023-10-18,合同会社ウィルアウェイ,,合同会社,神奈川県,相模原市緑区,橋本８丁目２４番１７－１号,,14,151,2520143,,,,,,,2023-10-18,1,,,,,ウィルアウェイ,0
430,2030001156687,新規,0,2023-10-18,2023-10-18,株式会社ＯＣＥＡＮ,,株式会社,埼玉県,川越市,月吉町９番地３,,11,201,3500825,,,,,,,2023-10-18,1,,,,,オーシャン,0
431,2030001156778,新規,0,2023-10-18,2023-10-18,株式会社ＭＳ技研工業,,株式会社,埼玉県,川口市,飯塚１丁目４番３０‐６０４号ダイアパレスステーションサイド川口,,11,203,3320023,,,,,,,2023-10-18,1,,,,,エムエスギケンコウギョウ,0
438,2030003022730,新規,0,2023-10-18,2023-10-18,ＡＳＰ合同会社,,合同会社,埼玉県,朝霞市,東弁財３丁目１５－３,,11,227,3510022,,,,,,,2023-10-18,1,,,,,エースピー,0
439,2030003022838,新規,0,2023-10-18,2023-10-18,合同会社ナイスマット,,合同会社,埼玉県,八潮市,緑町２丁目３番地４,,11,234,3400808,,,,,,,2023-10-18,1,,,,,ナイスマット,0
448,2040001130559,新規,0,2023-10-18,2023-10-18,株式会社ＲＩＣＯＬＡＢＯ,,株式会社,千葉県,浦安市,高洲１丁目６番２号,,12,227,2790023,,,,,,,2023-10-18,1,,,,,リコラボ,0
453,2040003023546,新規,0,2023-10-18,2023-10-18,合同会社Ｍｅ,,合同会社,千葉県,流山市,こうのす台６３３番地の４０,,12,220,2700102,,,,,,,2023-10-18,1,,,,,ミィ,0
457,2050003007845,新規,0,2023-10-18,2023-10-18,合同会社Ｈ＆Ｗ,,合同会社,茨城県,水戸市,東赤塚２１３４番地の１０,00132306,08,201,3100000,,,,,,,2023-10-18,1,,,,,エイチアンドダブリュ,0
470,2070003005137,新規,0,2023-10-18,2023-10-18,ヒロキトレード合同会社,,合同会社,群馬県,前橋市,富士見町皆沢２９８番地５,,10,201,3710102,,,,,,,2023-10-18,1,,,,,ヒロキトレード,0
476,2080401026790,新規,0,2023-10-18,2023-10-18,株式会社オオタカ,,株式会社,静岡県,浜松市浜北区,新原２３２６番地の１,,22,136,4340003,,,,,,,2023-10-18,1,,,,,オオタカ,0
481,2110003005181,新規,0,2023-10-18,2023-10-18,合同会社晃恵総業,,合同会社,新潟県,新潟市西区,立仏３６番地４,,15,107,9501103,,,,,,,2023-10-18,1,,,,,コウエソウギョウ,0
498,2120001258788,新規,0,2023-10-18,2023-10-18,ＰＢ株式会社,,株式会社,大阪府,大阪市淀川区,野中北１丁目９－２－５Ｆ,,27,123,5320034,,,,,,,2023-10-18,1,,,,,ピービー,0
499,2120001258805,新規,0,2023-10-18,2023-10-18,株式会社Ｊｏｂ‐Ｆｉｖｅ,,株式会社,大阪府,大阪市北区,万歳町３－１２萬栄ビル２０８,,27,127,5300028,,,,,,,2023-10-18,1,,,,,ジョブファイブ,0
500,2120001258862,新規,0,2023-10-18,2023-10-18,でんけん株式会社,,株式会社,大阪府,大阪市天王寺区,堀越町１番３号,,27,109,5430056,,,,,,,2023-10-18,1,,,,,デンケン,0
501,2120001258904,新規,0,2023-10-18,2023-10-18,イチコ開発株式会社,,株式会社,大阪府,大阪市東淀川区,下新庄４丁目２０番２０－２０５号,,27,114,5330021,,,,,,,2023-10-18,1,,,,,イチコカイハツ,0
506,2120103005493,新規,0,2023-10-18,2023-10-18,合同会社Ｓｔａｒｔ結ＫＫ,,合同会社,大阪府,阪南市,鳥取中３７１番地の３,,27,232,5990211,,,,,,,2023-10-18,1,,,,,スタートムスビケイケイ,0
510,2120903004868,新規,0,2023-10-18,2023-10-18,合同会社Ｏｒｉ織,,合同会社,大阪府,三島郡島本町,山崎３丁目２番４－５１２号,,27,301,6180001,,,,,,,2023-10-18,1,,,,,オリオリ,0
522,2140001132009,新規,0,2023-10-18,2023-10-18,株式会社Ｓ　ｃｏｒｐｏｒａｔｉｏｎ,,株式会社,兵庫県,神戸市中央区,布引町２丁目１番１１号グレイスハイツ新神戸４０４,,28,110,6510097,,,,,,,2023-10-18,1,,,,,エスコーポレーション,0
528,2170001017834,新規,0,2023-10-18,2023-10-18,盛熙株式会社,,株式会社,和歌山県,西牟婁郡白浜町,３０５４番地の３,,30,401,6492211,,,,,,,2023-10-18,1,,,,,モリヒロ,0
543,2180001158512,新規,0,2023-10-18,2023-10-18,株式会社スパークビルド,,株式会社,愛知県,江南市,宮田町南野東１８８番地,,23,217,4838368,,,,,,,2023-10-18,1,,,,,スパークビルド,0
553,2190001030819,新規,0,2023-10-18,2023-10-18,株式会社ｅｓ,,株式会社,三重県,松阪市,田村町１３１番地２,,24,204,5150055,,,,,,,2023-10-18,1,,,,,エス,0
558,2210001019512,新規,0,2023-10-18,2023-10-18,株式会社Ｕｍｉｎａｖｉ,,株式会社,福井県,あわら市,春宮３丁目８－１７,,18,208,9190632,,,,,,,2023-10-18,1,,,,,ウミナビ,0
560,2220001025633,新規,0,2023-10-18,2023-10-18,ＡＮＥＪＹＡホールディングス株式会社,,株式会社,石川県,珠洲市,飯田町１５部６１番地１,,17,205,9271214,,,,,,,2023-10-18,1,,,,,アネジャホールディングス,0
563,2240001062278,新規,0,2023-10-18,2023-10-18,株式会社今中工業,,株式会社,広島県,広島市安佐南区,中筋４丁目１５番３－２０１号,,34,105,7310122,,,,,,,2023-10-18,1,,,,,イマナカコウギョウ,0
575,2280001009052,新規,0,2023-10-18,2023-10-18,株式会社カンテラ,,株式会社,島根県,松江市,大庭町１８１２番地３,,32,201,6900033,,,,,,,2023-10-18,1,,,,,カンテラ,0
579,2290001103416,新規,0,2023-10-18,2023-10-18,株式会社ことのはラボ,,株式会社,福岡県,朝倉市,来春２０９番地２ＡＸＩＳ・ＫＩＩＡ,00132295,40,228,8380069,,,,,,,2023-10-18,1,,,,,コトノハラボ,0
580,2290001103432,新規,0,2023-10-18,2023-10-18,株式会社猿飛Ｒｅｆｏｒｍ,,株式会社,福岡県,福岡市東区,松島３丁目２２番１５－６０４号,,40,131,8130062,,,,,,,2023-10-18,1,,,,,サルトビリフォーム,0
581,2290003014487,新規,0,2023-10-18,2023-10-18,合同会社シマゾエ,,合同会社,福岡県,柳川市,筑紫町２７２番地１,,40,207,8320077,,,,,,,2023-10-18,1,,,,,シマゾエ,0
582,2290003014495,新規,0,2023-10-18,2023-10-18,Ｋ’ｓ　Ｐｒｏｄｕｃｔ合同会社,,合同会社,福岡県,福岡市早良区,野芥７丁目４１番２号,,40,137,8140171,,,,,,,2023-10-18,1,,,,,ケイズプロダクト,0
590,2320001020087,新規,0,2023-10-18,2023-10-18,株式会社大分・ヘルスケアサポート,,株式会社,大分県,大分市,東大道１丁目５番２－７０５号,,44,201,8700823,,,,,,,2023-10-18,1,,,,,オオイタヘルスケアサポート,0
591,2320001020095,新規,0,2023-10-18,2023-10-18,株式会社華丸工務店,,株式会社,大分県,大分市,大字松岡８２１２番地の５,,44,201,8700125,,,,,,,2023-10-18,1,,,,,ハナマルコウムテン,0
595,2340001025992,新規,0,2023-10-18,2023-10-18,株式会社Ｎ．ＣＲＡＦＴ,,株式会社,鹿児島県,鹿児島市,原良６丁目９番１５号１０３,,46,201,8900026,,,,,,,2023-10-18,1,,,,,エヌクラフト,0
599,2340003004292,新規,0,2023-10-18,2023-10-18,合同会社ｃｏｃｏｒｏｅｎ,,合同会社,鹿児島県,鹿児島市,下伊敷１丁目４番５号,,46,201,8900005,,,,,,,2023-10-18,1,,,,,ココロエン,0
600,2350001018599,新規,0,2023-10-18,2023-10-18,株式会社Ｗｏｏｄ　Ｐｒｉｍｅホールディングス,,株式会社,宮崎県,都城市,甲斐元町６街区２号,,45,202,8850074,,,,,,,2023-10-18,1,,,,,ウッドプライムホールディングス,0
601,2350001018616,新規,0,2023-10-18,2023-10-18,株式会社那須木材,,株式会社,宮崎県,西臼杵郡五ヶ瀬町,大字三ヶ所５６８９番地５,,45,443,8821203,,,,,,,2023-10-18,1,,,,,ナスモクザイ,0
602,2350003004465,新規,0,2023-10-18,2023-10-18,合同会社ステラコンサルティング,,合同会社,宮崎県,宮崎市,大島町馬場尻１８８７番地１５,,45,201,8800824,,,,,,,2023-10-18,1,,,,,ステラコンサルティング,0
605,2370001050542,新規,0,2023-10-18,2023-10-18,株式会社Ｙ．Ｔ．Ｋ,,株式会社,宮城県,仙台市宮城野区,田子１丁目１番１７－１０３号,,04,102,9830021,,,,,,,2023-10-18,1,,,,,ワイティーケー,0
607,2370005010699,新規,0,2023-10-18,2023-10-18,特定非営利活動法人宮城こどもホスピスプロジェクト,,その他の設立登記法人,宮城県,仙台市泉区,泉中央１丁目７番地１ヒューモススウィング６階,,04,105,9813133,,,,,,,2023-10-18,1,,,,,ミヤギコドモホスピスプロジェクト,0
612,2400003003164,新規,0,2023-10-18,2023-10-18,合同会社食材流通,,合同会社,岩手県,岩手郡雫石町,長山梍６番地１,,03,301,0200585,,,,,,,2023-10-18,1,,,,,ショクザイリュウツウ,0
619,2430001090193,新規,0,2023-10-18,2023-10-18,Ａｒｔ　Ｒｉｓｅ株式会社,,株式会社,北海道,札幌市豊平区,平岸六条１２丁目１４番１６号,,01,105,0620936,,,,,,,2023-10-18,1,,,,,アートライズ,0
625,2500001025258,新規,0,2023-10-18,2023-10-18,株式会社ＨＡＲＵ,,株式会社,愛媛県,松山市,鷹子町７９２番地１,,38,201,7900925,,,,,,,2023-10-18,1,,,,,ハル,0
638,3010001239336,新規,0,2023-10-18,2023-10-18,ジャパン・イノベイティブ・エコ・プロダクツ株式会社,,株式会社,東京都,中央区,銀座７丁目１５番８号タウンハイツ銀座４０６,,13,102,1040061,,,,,,,2023-10-18,1,,,,,ジャパンイノベイティブエコプロダクツ,0
643,3010003041962,新規,0,2023-10-18,2023-10-18,合同会社Ｙｏｔｅｉ　Ｔｗｏ３,,合同会社,東京都,千代田区,霞が関３丁目２番５号,,13,101,1000013,,,,,,,2023-10-18,1,,,,,ヨウテイツースリー,0
644,3010003041979,新規,0,2023-10-18,2023-10-18,合同会社ＢＯＯＳＴ,,合同会社,東京都,中央区,日本橋茅場町３丁目１２番９号,,13,102,1030025,,,,,,,2023-10-18,1,,,,,ブースト,0
646,3010005037372,新規,0,2023-10-18,2023-10-18,一般社団法人ディープテックスタートアップサポーターズ協会,,その他の設立登記法人,東京都,中央区,日本橋室町１丁目１１番１２号日本橋水野ビル７階,,13,102,1030022,,,,,,,2023-10-18,1,,,,,ディープテックスタートアップサポーターズキョウカイ,0
647,3010101015851,新規,0,2023-10-18,2023-10-18,株式会社Ｌｉｖｉｎｇ　Ｆｏｒｃｅ,,株式会社,東京都,八王子市,本町１８番６号,,13,201,1920066,,,,,,,2023-10-18,1,,,,,リビングフォース,0
655,3010401177805,新規,0,2023-10-18,2023-10-18,アイフィート株式会社,,株式会社,東京都,港区,六本木４丁目９番２－７０４号,,13,103,1060032,,,,,,,2023-10-18,1,,,,,アイフィート,0
656,3010401177895,新規,0,2023-10-18,2023-10-18,Ａ　Ｇａｓｔｒｏｎｏｍｙ株式会社,,株式会社,東京都,港区,赤坂３丁目９番２号Ｎｏ．Ｒ赤坂見附１Ｆ,,13,103,1070052,,,,,,,2023-10-18,1,,,,,エーガストロノミー,0
657,3010401177904,新規,0,2023-10-18,2023-10-18,メゾン株式会社,,株式会社,東京都,港区,南青山３丁目１０番４１号ジュエル青山ビル２Ｆ,,13,103,1070062,,,,,,,2023-10-18,1,,,,,メゾン,0
663,3010403031191,新規,0,2023-10-18,2023-10-18,合同会社西沢伝業,,合同会社,東京都,港区,浜松町２丁目２番１５号浜松町ダイヤビル２Ｆ,,13,103,1050013,,,,,,,2023-10-18,1,,,,,ニシザワデンギョウ,0
665,3010501051216,新規,0,2023-10-18,2023-10-18,ＵＭＡＭＩ　ＵＮＩＴＥＤ株式会社,,株式会社,東京都,台東区,寿２丁目１０番１１号仙石ビル３Ｆ,,13,106,1110042,,,,,,,2023-10-18,1,,,,,ウマミユナイテッド,0
668,3010605004251,新規,0,2023-10-18,2023-10-18,一般社団法人ハチノス,,その他の設立登記法人,東京都,江東区,亀戸３丁目４７番６号,,13,108,1360071,,,,,,,2023-10-18,1,,,,,ハチノス,0
670,3010701045001,新規,0,2023-10-18,2023-10-18,ライグリッド株式会社,,株式会社,東京都,品川区,西品川３丁目１２番１１号サンライズ２０１,,13,109,1410033,,,,,,,2023-10-18,1,,,,,ライグリッド,0
673,3010801034424,新規,0,2023-10-18,2023-10-18,ヴルーヴイノベーションズ株式会社,,株式会社,東京都,大田区,羽田空港１丁目１番４号,,13,111,1440041,,,,,,,2023-10-18,1,,,,,ヴルーヴイノベーションズ,0
676,3010901054017,新規,0,2023-10-18,2023-10-18,株式会社オーブ,,株式会社,東京都,世田谷区,経堂２丁目９番６－３０５号,,13,112,1560052,,,,,,,2023-10-18,1,,,,,オーブ,0
684,3011003017705,新規,0,2023-10-18,2023-10-18,Ｋａｐｅｒｉ合同会社,,合同会社,東京都,渋谷区,本町５丁目３７－２,,13,113,1510071,,,,,,,2023-10-18,1,,,,,カペリ,0
693,3011101104768,新規,0,2023-10-18,2023-10-18,株式会社ソラリス・ネクサス,,株式会社,東京都,新宿区,南元町２０番地３ガーデンヒルズ四ツ谷迎賓の森２１４,,13,104,1600012,,,,,,,2023-10-18,1,,,,,ソラリスネクサス,0
694,3011101104801,新規,0,2023-10-18,2023-10-18,株式会社ＳＢ,,株式会社,東京都,新宿区,東榎町１番地ＴＹＫビル２０２号室,,13,104,1620807,,,,,,,2023-10-18,1,,,,,エスビー,0
695,3011103013612,新規,0,2023-10-18,2023-10-18,合同会社元氣道,,合同会社,東京都,新宿区,細工町３番１５号石黒ビル４０１,,13,104,1620838,,,,,,,2023-10-18,1,,,,,ゲンキドウ,0
705,3012701017888,新規,0,2023-10-18,2023-10-18,Ｆｕｎｂｉｒｄ株式会社,,株式会社,東京都,西東京市,富士町１丁目１１番２１－３２２号,,13,229,2020014,,,,,,,2023-10-18,1,,,,,ファンバード,0
712,3020001153973,新規,0,2023-10-18,2023-10-18,株式会社エムアイテック,,株式会社,神奈川県,川崎市多摩区,菅仙谷２丁目１５番１７号,,14,135,2140006,,,,,,,2023-10-18,1,,,,,エムアイテック,0
713,3020001154047,新規,0,2023-10-18,2023-10-18,Ａｉｒ株式会社,,株式会社,神奈川県,横浜市戸塚区,上矢部町２８５８番地１グランディール横濱６０５号,,14,110,2450053,,,,,,,2023-10-18,1,,,,,エア,0
716,3020003024792,新規,0,2023-10-18,2023-10-18,ＲＩＴＡ合同会社,,合同会社,神奈川県,川崎市川崎区,小田栄２丁目１―８アイランドグレース１７２１,,14,131,2100843,,,,,,,2023-10-18,1,,,,,リタ,0
724,3021003013678,新規,0,2023-10-18,2023-10-18,つつじ商会ＣＥ合同会社,,合同会社,神奈川県,三浦郡葉山町,長柄１４６１番地の２５６コーポ葉山１０１号室,,14,301,2400113,,,,,,,2023-10-18,1,,,,,ツツジショウカイシーイー,0
731,3030001156637,新規,0,2023-10-18,2023-10-18,株式会社ニューフレックス,,株式会社,埼玉県,川口市,西川口１丁目３０番２０号４Ｆ,,11,203,3320021,,,,,,,2023-10-18,1,,,,,ニューフレックス,0
743,3040001130541,新規,0,2023-10-18,2023-10-18,株式会社Ｌｉｆｅ‐Ｕｐ,,株式会社,千葉県,千葉市中央区,中央２丁目５番１号千葉中央ツインビル２号館７階,,12,101,2600013,,,,,,,2023-10-18,1,,,,,ライフアップ,0
744,3040001130558,新規,0,2023-10-18,2023-10-18,株式会社ＥＬＥＴＩＡ,,株式会社,千葉県,八街市,勢田１２－３８,,12,230,2891132,,,,,,,2023-10-18,1,,,,,エレティア,0
750,3040003023553,新規,0,2023-10-18,2023-10-18,和賀心合資会社,,合資会社,千葉県,千葉市稲毛区,長沼町２５番地１スマートヴィレッジ稲毛Ａ棟７２３号,,12,103,2630005,,,,,,,2023-10-18,1,,,,,ワガココロ,0
753,3050003007860,新規,0,2023-10-18,2023-10-18,ＺＡＩＮ　ＴＲＡＤＩＮＧ合同会社,,合同会社,茨城県,古河市,諸川１８７６番地３スズキハイツＡ－２０１,,08,204,3060126,,,,,,,2023-10-18,1,,,,,ザイントレーディング,0
759,3060005010143,新規,0,2023-10-18,2023-10-18,特定非営利活動法人子どもの居場所ＯＺ,,その他の設立登記法人,栃木県,足利市,永楽町４番地３号１０,,09,202,3260055,,,,,,,2023-10-18,1,,,,,コドモノイバショオズ,0
766,3080401026798,新規,0,2023-10-18,2023-10-18,株式会社ＲＩＳＯＲＣＨ,,株式会社,静岡県,浜松市中区,和合町１７９番地の８,,22,131,4338125,,,,,,,2023-10-18,1,,,,,リソーチ,0
772,3110001037928,新規,0,2023-10-18,2023-10-18,株式会社ＳＫグループ,,株式会社,新潟県,新潟市中央区,女池西１丁目２６番１２号スタンディクラーゼ２０１,,15,103,9500946,,,,,,,2023-10-18,1,,,,,エスケーグループ,0
788,3120001258820,新規,0,2023-10-18,2023-10-18,ＤＬ株式会社,,株式会社,大阪府,門真市,上島町２５－６,,27,223,5710071,,,,,,,2023-10-18,1,,,,,ディーエル,0
790,3120003025104,新規,0,2023-10-18,2023-10-18,ベル合同会社,,合同会社,大阪府,大阪市城東区,東中浜８丁目４番９号,,27,118,5360023,,,,,,,2023-10-18,1,,,,,ベル,0
791,3120003025112,新規,0,2023-10-18,2023-10-18,Ｍｉｒａｉｅ合同会社,,合同会社,大阪府,守口市,西郷通１丁目１１番２号,,27,209,5700034,,,,,,,2023-10-18,1,,,,,ミライヘ,0
792,3120003025120,新規,0,2023-10-18,2023-10-18,合同会社ＢｅｂｅＲｅｐ．,,合同会社,大阪府,大阪市港区,港晴２丁目６番１１号,,27,107,5520023,,,,,,,2023-10-18,1,,,,,ベベレプ,0
799,3120101068392,新規,0,2023-10-18,2023-10-18,株式会社カモ,,株式会社,大阪府,羽曳野市,島泉１丁目１４番７号,,27,222,5830881,,,,,,,2023-10-18,1,,,,,カモ,0
800,3120901048214,新規,0,2023-10-18,2023-10-18,株式会社ワケン,,株式会社,大阪府,吹田市,南金田２丁目２６番８号,,27,205,5640044,,,,,,,2023-10-18,1,,,,,ワケン,0
804,3130003009072,新規,0,2023-10-18,2023-10-18,合同会社Ｓｍｉｌｅ,,合同会社,京都府,京都市伏見区,日野谷寺町７１番地８,,26,109,6011406,,,,,,,2023-10-18,1,,,,,スマイル,0
810,3150001026811,新規,0,2023-10-18,2023-10-18,株式会社ＵＰ　ＺＥＲＯ,,株式会社,奈良県,大和郡山市,額田部北町６３２番地５,,29,203,6391037,,,,,,,2023-10-18,1,,,,,アップゼロ,0
812,3160005011239,新規,0,2023-10-18,2023-10-18,医療法人近江笑生会,,その他の設立登記法人,滋賀県,大津市,松が丘７丁目１６番２０号,,25,201,5202102,,,,,,,2023-10-18,1,,,,,オウミショウセイカイ,0
828,3180001158412,新規,0,2023-10-18,2023-10-18,株式会社Ｗｉｔｈ　ａ　ｓｍｉｌｅ,,株式会社,愛知県,春日井市,東野町西３丁目４番地５,,23,206,4860818,,,,,,,2023-10-18,1,,,,,ウィズアスマイル,0
829,3180001158486,新規,0,2023-10-18,2023-10-18,ＣＯＣＯ　ｈｏｌｄｉｎｇｓ株式会社,,株式会社,愛知県,名古屋市千種区,末盛通１丁目１９番地の２,,23,101,4640821,,,,,,,2023-10-18,1,,,,,ココホールディングス,0
836,3180003025866,新規,0,2023-10-18,2023-10-18,Ｕｐ　ｔｈｅ　Ｍｏｏｎ合同会社,,合同会社,愛知県,愛知郡東郷町,大字春木字太子３０番地センチュリー太子別棟店舗２Ｂ,,23,302,4700162,,,,,,,2023-10-18,1,,,,,アップザムーン,0
861,3290001103398,新規,0,2023-10-18,2023-10-18,株式会社政軒,,株式会社,福岡県,福岡市南区,大橋２丁目６番１９－２０５号,,40,134,8150033,,,,,,,2023-10-18,1,,,,,セイケン,0
862,3290001103415,新規,0,2023-10-18,2023-10-18,株式会社エイト電工,,株式会社,福岡県,古賀市,今の庄３丁目１６番１０号,,40,223,8113117,,,,,,,2023-10-18,1,,,,,エイトデンコウ,0
863,3290001103431,新規,0,2023-10-18,2023-10-18,株式会社ＳｏＲａＢｉｌｔ,,株式会社,福岡県,糟屋郡志免町,別府北１丁目１４番１０号ニューガイヤ空港通り３０１,,40,343,8112233,,,,,,,2023-10-18,1,,,,,ソラビルト,0
865,3290003014478,新規,0,2023-10-18,2023-10-18,合同会社ｋｉｔａｇａｗａ,,合同会社,福岡県,福岡市博多区,博多駅前３丁目１１番２４－３０６号,,40,132,8120011,,,,,,,2023-10-18,1,,,,,キタガワ,0
866,3290801029958,新規,0,2023-10-18,2023-10-18,株式会社Ｗｉｎ　Ｔａｉｌ,,株式会社,福岡県,北九州市戸畑区,菅原２丁目３－８スカイヒルズ菅原２０１号,,40,105,8040044,,,,,,,2023-10-18,1,,,,,ウィンテール,0
867,3300001013496,新規,0,2023-10-18,2023-10-18,株式会社光安商店,,株式会社,佐賀県,鳥栖市,江島町３４５２番地１,,41,203,8410073,,,,,,,2023-10-18,1,,,,,ミツヤスショウテン,0
870,3300003002035,新規,0,2023-10-18,2023-10-18,合同会社ＲＥＶＩＶＥ,,合同会社,佐賀県,鳥栖市,西新町１４２２－１３７,,41,203,8410074,,,,,,,2023-10-18,1,,,,,,0
874,3310003004658,新規,0,2023-10-18,2023-10-18,Ｏｐｈｌｅｘ合同会社,,合同会社,長崎県,西彼杵郡長与町,嬉里郷７０５番地１,,42,307,8512128,,,,,,,2023-10-18,1,,,,,オフレックス,0
875,3320001020078,新規,0,2023-10-18,2023-10-18,株式会社エフワイアグリ大分,,株式会社,大分県,中津市,大字高瀬１２６４番地２,,44,203,8710026,,,,,,,2023-10-18,1,,,,,エフワイアグリオオイタ,0
876,3320001020094,新規,0,2023-10-18,2023-10-18,株式会社Ｂｌａｃｋ　ＭＡＹ’Ｓ,,株式会社,大分県,別府市,楠町１１番１４号,,44,202,8740943,,,,,,,2023-10-18,1,,,,,ブラックメイズ,0
878,3330003010027,新規,0,2023-10-18,2023-10-18,合同会社ＹＲＩ,,合同会社,熊本県,阿蘇郡南小国町,大字満願寺６７７６番地１,,43,423,8692402,,,,,,,2023-10-18,1,,,,,ワイアールアイ,0
881,3340001025983,新規,0,2023-10-18,2023-10-18,株式会社ＯＮＬＹ,,株式会社,鹿児島県,曽於郡大崎町,野方５７６１番地７,,46,468,8998313,,,,,,,2023-10-18,1,,,,,オンリー,0
883,3340003004291,新規,0,2023-10-18,2023-10-18,合同会社レスゥエ,,合同会社,鹿児島県,鹿児島市,新栄町２２番２６号１Ｆ,,46,201,8900072,,,,,,,2023-10-18,1,,,,,レスゥエ,0
884,3340005009669,新規,0,2023-10-18,2023-10-18,一般社団法人奄美みらいエネルギー,,その他の設立登記法人,鹿児島県,奄美市,名瀬矢之脇町２番６号,,46,222,8940033,,,,,,,2023-10-18,1,,,,,アマミミライエネルギー,0
891,3360003013398,新規,0,2023-10-18,2023-10-18,合同会社Ｓａｔｕｒｄａｙ,,合同会社,沖縄県,国頭郡恩納村,字瀬良垣４９６,,47,311,9040404,,,,,,,2023-10-18,1,,,,,サタデイ,0
899,3390001017407,新規,0,2023-10-18,2023-10-18,株式会社ＴＲＹＡＮＧＬＥ,,株式会社,山形県,山形市,青田南２２番１９号,,06,201,9902324,,,,,,,2023-10-18,1,,,,,トライアングル,0
904,3420001018450,新規,0,2023-10-18,2023-10-18,株式会社ＮＣ　ｃｒｅａｔｅ,,株式会社,青森県,八戸市,大字尻内町字鴨ケ池１１１番地５,,02,203,0391101,,,,,,,2023-10-18,1,,,,,エヌシークリエイト,0
909,3430001090218,新規,0,2023-10-18,2023-10-18,株式会社Ｈａｎ’ｓ　Ｓａｐｐｏｒｏ不動産,,株式会社,北海道,札幌市西区,発寒十条２丁目８番４３号,,01,107,0630830,,,,,,,2023-10-18,1,,,,,ハンスサッポロフドウサン,0
912,3430003015528,新規,0,2023-10-18,2023-10-18,合同会社ジャパネスク,,合同会社,北海道,札幌市白石区,菊水二条２丁目３番１３号,,01,104,0030802,,,,,,,2023-10-18,1,,,,,ジャパネスク,0
917,3460101007449,新規,0,2023-10-18,2023-10-18,エコサービスとかち株式会社,,株式会社,北海道,帯広市,西十三条南１４丁目１番地２,,01,207,0800023,,,,,,,2023-10-18,1,,,,,エコサービストカチ,0
918,3470003002506,新規,0,2023-10-18,2023-10-18,合同会社ＫＡＩＫＡ,,合同会社,香川県,高松市,松島町２丁目１１－４,,37,201,7600068,,,,,,,2023-10-18,1,,,,,カイカ,0
919,3480001012258,新規,0,2023-10-18,2023-10-18,晨光株式会社,,株式会社,徳島県,阿波市,阿波町高垣１７１番地６,,36,206,7711705,,,,,,,2023-10-18,1,,,,,シンコウ,0
921,3500001025249,新規,0,2023-10-18,2023-10-18,株式会社ＶＥアスリート,,株式会社,愛媛県,松山市,浄瑠璃町甲９９９番地１,,38,201,7911133,,,,,,,2023-10-18,1,,,,,ブイイーアスリート,0
922,3500001025257,新規,0,2023-10-18,2023-10-18,株式会社スチールハマダ,,株式会社,愛媛県,四国中央市,土居町野田丙２０３番地,,38,213,7990705,,,,,,,2023-10-18,1,,,,,スチールハマダ,0
928,4010001238790,新規,0,2023-10-18,2023-10-18,株式会社ＣＩＴ,,株式会社,東京都,中央区,八丁堀４丁目１４番７号,,13,102,1040032,,,,,,,2023-10-18,1,,,,,シーアイティ,0
929,4010001239277,新規,0,2023-10-18,2023-10-18,株式会社リフォーム光優,,株式会社,東京都,千代田区,神田佐久間町４丁目１ベラカーサ秋葉原１０１,,13,101,1010025,,,,,,,2023-10-18,1,,,,,リフォームコウユウ,0
930,4010001239310,新規,0,2023-10-18,2023-10-18,Ｋｏｎｎｙ株式会社,,株式会社,東京都,千代田区,丸の内１丁目６番５号９階,,13,101,1000005,,,,,,,2023-10-18,1,,,,,コニー,0
931,4010001239335,新規,0,2023-10-18,2023-10-18,株式会社Ｃｏｔｏｉｒｏ,,株式会社,東京都,中央区,銀座４丁目９番８号,,13,102,1040061,,,,,,,2023-10-18,1,,,,,コトイロ,0
934,4010003041937,新規,0,2023-10-18,2023-10-18,合同会社ｐｒｏｊｅｃｔ哉,,合同会社,東京都,中央区,銀座１丁目１２－４Ｎ＆ＥＢＬＤ．７階,,13,102,1040061,,,,,,,2023-10-18,1,,,,,プロジェクトサイ,0
935,4010003041961,新規,0,2023-10-18,2023-10-18,合同会社Ｙｏｔｅｉ　Ｔｗｏ２,,合同会社,東京都,千代田区,霞が関３丁目２番５号,,13,101,1000013,,,,,,,2023-10-18,1,,,,,ヨウテイツーツー,0
936,4010005037388,新規,0,2023-10-18,2023-10-18,ＳＨＪ３特定目的会社,,その他の設立登記法人,東京都,中央区,銀座１丁目６番１１号土志田ビルディング３Ｆ,,13,102,1040061,,,,,,,2023-10-18,1,,,,,エスエイチジェイスリー,0
945,4010401177845,新規,0,2023-10-18,2023-10-18,株式会社先,,株式会社,東京都,港区,南青山４丁目１番８号麗雲ビルＢ１Ｆ,,13,103,1070062,,,,,,,2023-10-18,1,,,,,ヒロ,0
946,4010401177853,新規,0,2023-10-18,2023-10-18,株式会社ＤａｔａＰｉｖｏｔＳｔｒａｔｅｇｉｅｓ,,株式会社,東京都,港区,虎ノ門４丁目１番１号神谷町トラストタワー２３Ｆ,,13,103,1050001,,,,,,,2023-10-18,1,,,,,データピボットストラテジーズ,0
947,4010401177861,新規,0,2023-10-18,2023-10-18,群岳国際投資株式会社,,株式会社,東京都,港区,北青山１丁目３番１号アールキューブ青山３階,,13,103,1070061,,,,,,,2023-10-18,1,,,,,グンガクコクサイトウシ,0
953,4010601063969,新規,0,2023-10-18,2023-10-18,株式会社海蔵,,株式会社,東京都,江東区,豊洲６丁目５番１号,,13,108,1350061,,,,,,,2023-10-18,1,,,,,カイゾウ,0
954,4010601063985,新規,0,2023-10-18,2023-10-18,ラフプラス株式会社,,株式会社,東京都,江東区,東陽３丁目２３－２６東陽町コーポラス３Ｆ,,13,108,1350016,,,,,,,2023-10-18,1,,,,,ラフプラス,0
955,4010603010424,新規,0,2023-10-18,2023-10-18,合同会社ＫＯＫＯＲＯ　Ｄｅｌｉｇｈｔｓ,,合同会社,東京都,墨田区,業平１丁目７番９号ＰＬＡＴ２９５,,13,107,1300002,,,,,,,2023-10-18,1,,,,,ココロディライツ,0
956,4010801034431,新規,0,2023-10-18,2023-10-18,株式会社グラウンドナビゲーターズ,,株式会社,東京都,大田区,山王２丁目３番１３号,,13,111,1430023,,,,,,,2023-10-18,1,,,,,グラウンドナビゲーターズ,0
957,4010805003069,新規,0,2023-10-18,2023-10-18,一般社団法人マンション協会,,その他の設立登記法人,東京都,大田区,山王４丁目２番１６－１００号,,13,111,1430023,,,,,,,2023-10-18,1,,,,,マンションキョウカイ,0
960,4010903008523,新規,0,2023-10-18,2023-10-18,合同会社ティー・アイ・コンサルティング,,合同会社,東京都,世田谷区,玉川台２丁目３９－１６ライオンズスクエア用賀９０３,,13,112,1580096,,,,,,,2023-10-18,1,,,,,ティーアイコンサルティング,0
967,4011001157519,新規,0,2023-10-18,2023-10-18,ＲｉｎｇＳ株式会社,,株式会社,東京都,渋谷区,初台１丁目９番３号,,13,113,1510061,,,,,,,2023-10-18,1,,,,,リングス,0
968,4011003017720,新規,0,2023-10-18,2023-10-18,Ｉｎｆｉｎｉｔｙ合同会社,,合同会社,東京都,渋谷区,神宮前６丁目２３番４号桑野ビル２Ｆ,,13,113,1500001,,,,,,,2023-10-18,1,,,,,インフィニティ,0
969,4011005010236,新規,0,2023-10-18,2023-10-18,協同組合ＴＡＳＫ,,その他の設立登記法人,東京都,渋谷区,恵比寿西１丁目３４番６号,,13,113,1500021,,,,,,,2023-10-18,1,,,,,タスク,0
972,4011101104783,新規,0,2023-10-18,2023-10-18,株式会社ＰｌｕｓＮｅｘｕｓ,,株式会社,東京都,新宿区,四谷３丁目２番地１－９０９,,13,104,1600004,,,,,,,2023-10-18,1,,,,,プラスネクサス,0
973,4011101104800,新規,0,2023-10-18,2023-10-18,株式会社嘉＿カタカラ,00132300,株式会社,東京都,新宿区,四谷坂町１２番１４－６０３号,,13,104,1600002,,,,,,,2023-10-18,1,,,,,カギョクカタカラ,0
975,4011103013611,新規,0,2023-10-18,2023-10-18,ＴＥＮＺＯ合同会社,,合同会社,東京都,新宿区,大京町２０番地５８,,13,104,1600015,,,,,,,2023-10-18,1,,,,,テンゾウ,0
978,4011501029878,新規,0,2023-10-18,2023-10-18,株式会社インキュベスター,,株式会社,東京都,荒川区,東日暮里３丁目４２番７号,,13,118,1160014,,,,,,,2023-10-18,1,,,,,インキュベスター,0
985,4011801043141,新規,0,2023-10-18,2023-10-18,ｃｉｅｍａ株式会社,,株式会社,東京都,葛飾区,南水元４丁目１８番１７号２０５,,13,122,1250035,,,,,,,2023-10-18,1,,,,,シエマ,0
986,4011801043182,新規,0,2023-10-18,2023-10-18,株式会社ＡＵＴＯＣＡＲＥ,,株式会社,東京都,足立区,扇２丁目２０番１２号,,13,121,1230873,,,,,,,2023-10-18,1,,,,,オートケア,0
1004,4020001153931,新規,0,2023-10-18,2023-10-18,株式会社ひまわり薬局,,株式会社,神奈川県,横浜市南区,別所３丁目８番３号,,14,105,2320064,,,,,,,2023-10-18,1,,,,,ヒマワリヤッキョク,0
1005,4020001154005,新規,0,2023-10-18,2023-10-18,株式会社ＡＣＹ,,株式会社,神奈川県,横浜市青葉区,荏田西２丁目２７番地１２,,14,117,2250014,,,,,,,2023-10-18,1,,,,,エーシーワイ,0
1008,4020003024775,新規,0,2023-10-18,2023-10-18,炎合同会社,,合同会社,神奈川県,横浜市西区,浅間町１丁目４番３号ウィザードビル４０２,,14,103,2200072,,,,,,,2023-10-18,1,,,,,エン,0
1009,4020003024800,新規,0,2023-10-18,2023-10-18,合同会社ＣＬＥＢ,,合同会社,神奈川県,横浜市神奈川区,金港町５－１４クアドリフォリオ８階,,14,102,2210056,,,,,,,2023-10-18,1,,,,,クレブ,0
1032,4040001130532,新規,0,2023-10-18,2023-10-18,株式会社ＥＳＲＲ,,株式会社,千葉県,千葉市緑区,おゆみ野中央５丁目３５番地３,,12,105,2660032,,,,,,,2023-10-18,1,,,,,エスアール,0
1049,4040003023560,新規,0,2023-10-18,2023-10-18,合同会社ティア,,合同会社,千葉県,四街道市,四街道２丁目１６－１０－２０２,,12,228,2840005,,,,,,,2023-10-18,1,,,,,ティア,0
1050,4040005022148,新規,0,2023-10-18,2023-10-18,税理士法人ＷＩＴＨ,,その他の設立登記法人,千葉県,松戸市,北松戸２丁目３番７号アコードプラザビル５階,,12,207,2710063,,,,,,,2023-10-18,1,,,,,ウィズ,0
1051,4040005022156,新規,0,2023-10-18,2023-10-18,医療法人社団Ｃａｒｒｙｏｎ,,その他の設立登記法人,千葉県,千葉市中央区,中央４丁目１６番地２,,12,101,2600013,,,,,,,2023-10-18,1,,,,,キャリーオン,0
1056,4050003007868,新規,0,2023-10-18,2023-10-18,ドンファン合同会社,,合同会社,茨城県,土浦市,桜町２丁目５番７号,,08,203,3000037,,,,,,,2023-10-18,1,,,,,ドンファン,0
1062,4070001040976,新規,0,2023-10-18,2023-10-18,株式会社平野ライン,,株式会社,群馬県,太田市,龍舞町１５４２番地１,,10,205,3730806,,,,,,,2023-10-18,1,,,,,ヒラノライン,0
1064,4070005010182,新規,0,2023-10-18,2023-10-18,一般財団法人ＦＢＫ渡邊教育科学技術振興財団,00132293,その他の設立登記法人,群馬県,太田市,脇屋町９９７番地１４,,10,205,3730031,,,,,,,2023-10-18,1,,,,,エフビィケイワタナベキョウイクカガクギジュツシンコウザイダン,0
1069,4100001036888,新規,0,2023-10-18,2023-10-18,ＢＩＮＨ　ＴＲＩ　ＴＨＩＥＮ株式会社,,株式会社,長野県,南佐久郡川上村,大字大深山１１８６番地,,20,304,3841405,,,,,,,2023-10-18,1,,,,,ビンチィティエン,0
1071,4110003005188,新規,0,2023-10-18,2023-10-18,合同会社Ｖｉｓｉｏｎ,,合同会社,新潟県,上越市,栄町７番２０号,,15,222,9430827,,,,,,,2023-10-18,1,,,,,ビジョン,0
1082,4120001258902,新規,0,2023-10-18,2023-10-18,株式会社ＲｅａＤｙ＆Ｃｏ．,,株式会社,大阪府,大阪市阿倍野区,天王寺町北２丁目５番１９号,,27,119,5450001,,,,,,,2023-10-18,1,,,,,レディーアンドコー,0
1083,4120001258943,新規,0,2023-10-18,2023-10-18,株式会社すたいるらぼ,,株式会社,大阪府,大阪市東住吉区,北田辺４丁目２１番１０号,,27,121,5460044,,,,,,,2023-10-18,1,,,,,スタイルラボ,0
1093,4120901048196,新規,0,2023-10-18,2023-10-18,株式会社Ｒ,,株式会社,大阪府,摂津市,香露園２８番１２号,,27,224,5660034,,,,,,,2023-10-18,1,,,,,アール,0
1094,4120901048221,新規,0,2023-10-18,2023-10-18,株式会社ベネクル,,株式会社,大阪府,茨木市,総持寺１丁目９－１９ＭｉｓｏｎＣｌａｉｒｅ２０３,,27,211,5670801,,,,,,,2023-10-18,1,,,,,ベネクル,0
1098,4122003002701,新規,0,2023-10-18,2023-10-18,合同会社ＮＲＴ,,合同会社,大阪府,柏原市,国分本町２丁目２－４スタイルズ国分２０３,,27,221,5820021,,,,,,,2023-10-18,1,,,,,エヌアールティー,0
1103,4130001075537,新規,0,2023-10-18,2023-10-18,株式会社洛陽防災設備,,株式会社,京都府,京都市西京区,御陵大枝山町６丁目１１番地８,,26,111,6101102,,,,,,,2023-10-18,1,,,,,ラクヨウボウサイセツビ,0
1132,4180003025873,新規,0,2023-10-18,2023-10-18,合同会社ワンズプラスワン,,合同会社,愛知県,一宮市,奥町字堤下二８１番地２,,23,203,4910201,,,,,,,2023-10-18,1,,,,,ワンズプラスワン,0
1139,4200001041829,新規,0,2023-10-18,2023-10-18,Ｒｅ　Ｔｈｅｏｒｙ株式会社,,株式会社,岐阜県,各務原市,蘇原吉新町３丁目２９番地２,,21,213,5040844,,,,,,,2023-10-18,1,,,,,リセオリー,0
1144,4210003001714,新規,0,2023-10-18,2023-10-18,合同会社レオブル,,合同会社,福井県,鯖江市,丸山町４丁目２番２９－１号,,18,207,9160019,,,,,,,2023-10-18,1,,,,,レオブル,0
1149,4250001020332,新規,0,2023-10-18,2023-10-18,株式会社新栄ホールディングス,,株式会社,山口県,萩市,大字椿東字平方２９１７番地,,35,204,7580011,,,,,,,2023-10-18,1,,,,,シンエイホールディングス,0
1150,4260001038423,新規,0,2023-10-18,2023-10-18,株式会社ふじ車輌,,株式会社,岡山県,岡山市東区,浅越７９６番地７,,33,103,7048181,,,,,,,2023-10-18,1,,,,,フジシャリョウ,0
1163,4290001103397,新規,0,2023-10-18,2023-10-18,株式会社ＥｘＢｏｎｄ,,株式会社,福岡県,福岡市中央区,大名１丁目８－２５－３０１号,,40,133,8100041,,,,,,,2023-10-18,1,,,,,エクスボンド,0
1164,4290001103422,新規,0,2023-10-18,2023-10-18,株式会社ヤマタケ,,株式会社,福岡県,福岡市中央区,渡辺通１丁目９番２号－６０４号,,40,133,8100004,,,,,,,2023-10-18,1,,,,,,0
1165,4290001103447,新規,0,2023-10-18,2023-10-18,株式会社ｑｕｉｃｋｌｙ,,株式会社,福岡県,春日市,春日原北町５丁目６０番地１－Ｂ,,40,218,8160802,,,,,,,2023-10-18,1,,,,,クイックリー,0
1167,4290003014485,新規,0,2023-10-18,2023-10-18,合同会社トラスティ,,合同会社,福岡県,福岡市城南区,茶山６丁目７－１１,,40,136,8140111,,,,,,,2023-10-18,1,,,,,トラスティ,0
1168,4290003014502,新規,0,2023-10-18,2023-10-18,ＴｏｙｏＳｅｅｄｓ合同会社,,合同会社,福岡県,福岡市中央区,天神４丁目６－２８天神ファーストビル７階,,40,133,8100001,,,,,,,2023-10-18,1,,,,,,0
1170,4290801029973,新規,0,2023-10-18,2023-10-18,株式会社絢ｓ,,株式会社,福岡県,北九州市若松区,小敷ひびきの２丁目９番２号,,40,103,8080139,,,,,,,2023-10-18,1,,,,,アヤズ,0
1172,4320001020085,新規,0,2023-10-18,2023-10-18,大分昭和製氷株式会社,,株式会社,大分県,大分市,三川上１丁目１番１１号,,44,201,8700143,,,,,,,2023-10-18,1,,,,,オオイタショウワセイヒョウ,0
1176,4340005009668,新規,0,2023-10-18,2023-10-18,農事組合法人葵,,その他の設立登記法人,鹿児島県,出水郡長島町,下山門野１８７１番地１,,46,404,8991321,,,,,,,2023-10-18,1,,,,,アオイ,0
1177,4360001032696,新規,0,2023-10-18,2023-10-18,株式会社ＶＡＬＯＩＲ,,株式会社,沖縄県,名護市,宇茂佐の森１丁目１７番地２ロイヤルマンションヤスコＩＩ１０２号,00132294,47,209,9050009,,,,,,,2023-10-18,1,,,,,ヴァロワール,0
1191,4380001034047,新規,0,2023-10-18,2023-10-18,株式会社ジュンプロ,,株式会社,福島県,白河市,郭内７０番地駅前春洋ビル３０１号,,07,205,9610074,,,,,,,2023-10-18,1,,,,,ジュンプロ,0
1195,4420003002815,新規,0,2023-10-18,2023-10-18,合同会社たかはし福祉商会,,合同会社,青森県,八戸市,小中野３丁目６番１９号,,02,203,0310802,,,,,,,2023-10-18,1,,,,,タカハシフクシショウカイ,0
1200,4430005014808,新規,0,2023-10-18,2023-10-18,社会保険労務士法人Ｆａｃｉｌｉｔａｔｉｏｎ,,その他の設立登記法人,北海道,札幌市中央区,北四条東２丁目８番地,,01,101,0600034,,,,,,,2023-10-18,1,,,,,ファシリテーション,0
1207,4470003002505,新規,0,2023-10-18,2023-10-18,合同会社雅画企画,,合同会社,香川県,高松市,松縄町１０５０番地１５,,37,201,7600079,,,,,,,2023-10-18,1,,,,,ガガキカク,0
1215,5010001239268,新規,0,2023-10-18,2023-10-18,株式会社Ｖｉｅｗｐｏｐ,,株式会社,東京都,中央区,築地６丁目１７番４号,,13,102,1040045,,,,,,,2023-10-18,1,,,,,ビューポップ,0
1216,5010001239284,新規,0,2023-10-18,2023-10-18,株式会社華希,,株式会社,東京都,千代田区,岩本町３丁目８番８号中和秋葉原ビル４Ｆ－０８,,13,101,1010032,,,,,,,2023-10-18,1,,,,,カノ,0
1217,5010001239301,新規,0,2023-10-18,2023-10-18,株式会社ＪＰＹＴ,,株式会社,東京都,千代田区,麹町５丁目３番地２３,,13,101,1020083,,,,,,,2023-10-18,1,,,,,ジェーピーワイティー,0
1218,5010001239359,新規,0,2023-10-18,2023-10-18,ＹＳＧ株式会社,,株式会社,東京都,千代田区,丸の内２丁目６番１号丸の内パークビルディング８階,,13,101,1000005,,,,,,,2023-10-18,1,,,,,ワイエスジー,0
1220,5010003041952,新規,0,2023-10-18,2023-10-18,合同会社ゆさよけ,,合同会社,東京都,中央区,勝どき５丁目１２－４－２６０４,,13,102,1040054,,,,,,,2023-10-18,1,,,,,ユサヨケ,0
1234,5010401177852,新規,0,2023-10-18,2023-10-18,龍月株式会社,,株式会社,東京都,港区,南麻布３丁目２０番１号,,13,103,1060047,,,,,,,2023-10-18,1,,,,,リュウツキ,0
1235,5010401177885,新規,0,2023-10-18,2023-10-18,株式会社Ｋｏｔｏｂａ　Ｔｅｃｈｎｏｌｏｇｉｅｓ　Ｊａｐａｎ,,株式会社,東京都,港区,六本木７丁目１２番２号Ｒ７ビルディング,,13,103,1060032,,,,,,,2023-10-18,1,,,,,コトバテクノロジーズジャパン,0
1236,5010401177893,新規,0,2023-10-18,2023-10-18,樋口機工ホールディングス株式会社,,株式会社,東京都,港区,北青山１丁目３番１号アールキューブ青山３階,,13,103,1070061,,,,,,,2023-10-18,1,,,,,ヒグチキコウホールディングス,0
1238,5010403031149,新規,0,2023-10-18,2023-10-18,合同会社クリエイティブエイト,,合同会社,東京都,港区,南青山２丁目２番１５号,,13,103,1070062,,,,,,,2023-10-18,1,,,,,クリエイティブエイト,0
1246,5010601063976,新規,0,2023-10-18,2023-10-18,株式会社Ｒｉｍｉｔｏ,,株式会社,東京都,江東区,東雲２丁目２番１４－１９１５号,,13,108,1350062,,,,,,,2023-10-18,1,,,,,リミット,0
1254,5010803004720,新規,0,2023-10-18,2023-10-18,合同会社ＹＨ　ＷＯＲＫＳ,,合同会社,東京都,大田区,西蒲田７丁目４－４－６Ｆ,,13,111,1440051,,,,,,,2023-10-18,1,,,,,ワイエイチワークス,0
1262,5011001157427,新規,0,2023-10-18,2023-10-18,株式会社ニューオーダー,,株式会社,東京都,目黒区,上目黒１丁目１１－１３ソレイユコート２０２,,13,110,1530051,,,,,,,2023-10-18,1,,,,,ニューオーダー,0
1263,5011001157518,新規,0,2023-10-18,2023-10-18,パシフィック・コミュニケーターズ株式会社,,株式会社,東京都,目黒区,青葉台２丁目９番５号,,13,110,1530042,,,,,,,2023-10-18,1,,,,,パシフィックコミュニケーターズ,0
1270,5011101104691,新規,0,2023-10-18,2023-10-18,浩広株式会社,,株式会社,東京都,新宿区,早稲田鶴巻町５３８番地１９リンクス早稲田ビル５０４,,13,104,1620041,,,,,,,2023-10-18,1,,,,,ハルヒロ,0
1271,5011101104790,新規,0,2023-10-18,2023-10-18,株式会社Ｐｌｕｍｅ,,株式会社,東京都,新宿区,西新宿３丁目３番１３号水間ビル２Ｆ,,13,104,1600023,,,,,,,2023-10-18,1,,,,,プルーム,0
1272,5011103013585,新規,0,2023-10-18,2023-10-18,合同会社ｓｔｍ　ｃｏｒｐｏｒａｔｉｏｎ,,合同会社,東京都,新宿区,西新宿３丁目５番１２号トーカン新宿第二キャステール３１０号室,,13,104,1600023,,,,,,,2023-10-18,1,,,,,エスティーエムコーポレーション,0
1273,5011103013610,新規,0,2023-10-18,2023-10-18,東輝合同会社,,合同会社,東京都,新宿区,中落合３丁目１６－１３落合明穂ハイツ７０３号,,13,104,1610032,,,,,,,2023-10-18,1,,,,,トウキ,0
1274,5011301029086,新規,0,2023-10-18,2023-10-18,株式会社プロジェクトチャレンジ,,株式会社,東京都,杉並区,下高井戸３丁目３８番９号,,13,115,1680073,,,,,,,2023-10-18,1,,,,,プロジェクトチャレンジ,0
1277,5011503005802,新規,0,2023-10-18,2023-10-18,ＫＳＭＡＸ合同会社,,合同会社,東京都,荒川区,西日暮里２丁目２１番１０－５０２号,,13,118,1160013,,,,,,,2023-10-18,1,,,,,ケーエスマックス,0
1286,5012701017894,新規,0,2023-10-18,2023-10-18,Ｋ２ｎｅｔｗｏｒｋ株式会社,,株式会社,東京都,東久留米市,滝山１丁目８番１８号,,13,222,2030033,,,,,,,2023-10-18,1,,,,,ケーツーネットワーク,0
1298,5020001153906,新規,0,2023-10-18,2023-10-18,株式会社ハートスリープラボ,,株式会社,神奈川県,川崎市宮前区,小台２丁目２番地１ファーロ宮前平５０５号室,,14,136,2160007,,,,,,,2023-10-18,1,,,,,ハートスリープラボ,0
1299,5020001153930,新規,0,2023-10-18,2023-10-18,株式会社公育,,株式会社,神奈川県,横浜市南区,別所３丁目８番３号,,14,105,2320064,,,,,,,2023-10-18,1,,,,,コウイク,0
1300,5020001153963,新規,0,2023-10-18,2023-10-18,森井商事株式会社,,株式会社,神奈川県,横浜市中区,山下町２００番地２,,14,104,2310023,,,,,,,2023-10-18,1,,,,,モリイショウジ,0
1301,5020001154020,新規,0,2023-10-18,2023-10-18,株式会社食明記,,株式会社,神奈川県,横浜市中区,元町４丁目１７９,,14,104,2310861,,,,,,,2023-10-18,1,,,,,ショクメイキ,0
1308,5021001080479,新規,0,2023-10-18,2023-10-18,株式会社スワンプフィールド,,株式会社,神奈川県,綾瀬市,深谷南１丁目１０番２２号ＰＡＩＮＴＨＯＵＳＥ,,14,218,2521106,,,,,,,2023-10-18,1,,,,,スワンプフィールド,0
1337,5030001156684,新規,0,2023-10-18,2023-10-18,株式会社ＧＬＯＢＡＬ１,,株式会社,埼玉県,川口市,並木３丁目４番２６－５０６号中村ビル,,11,203,3320034,,,,,,,2023-10-18,1,,,,,グローバルワン,0
1338,5030001156742,新規,0,2023-10-18,2023-10-18,株式会社ＡＧＥ,,株式会社,埼玉県,狭山市,大字水野１２９１番地の１８,,11,215,3501317,,,,,,,2023-10-18,1,,,,,エイジ,0
1357,5040001130498,新規,0,2023-10-18,2023-10-18,株式会社ブラッシュアップ電工,,株式会社,千葉県,八街市,八街に５３番地２９４,,12,230,2891103,,,,,,,2023-10-18,1,,,,,ブラッシュアップデンコウ,0
1358,5040001130531,新規,0,2023-10-18,2023-10-18,株式会社ＫＭデザインＬａｂ,,株式会社,千葉県,千葉市花見川区,幕張町６丁目９７番地１,,12,102,2620032,,,,,,,2023-10-18,1,,,,,ケイエムデザインラボ,0
1359,5040001130548,新規,0,2023-10-18,2023-10-18,株式会社ｓｔｅｌｌａ,,株式会社,千葉県,千葉市緑区,誉田町２丁目９２番地２０,,12,105,2660005,,,,,,,2023-10-18,1,,,,,ステラ,0
1360,5040001130556,新規,0,2023-10-18,2023-10-18,株式会社アビリティー・ランカ,,株式会社,千葉県,佐倉市,萩山新田３３２番地２０,,12,212,2850002,,,,,,,2023-10-18,1,,,,,アビリティーランカ,0
1361,5040002105193,新規,0,2023-10-18,2023-10-18,有限会社八角傳藏商店,,有限会社,千葉県,大網白里市,南今泉４６２２番地,,12,239,2993202,,,,,,,2023-10-18,1,,,,,ハッカクデンゾウショウテン,0
1363,5040005022147,新規,0,2023-10-18,2023-10-18,一般社団法人東邦大学薬学部鶴風会,,その他の設立登記法人,千葉県,船橋市,三山２丁目２番１号,,12,204,2740072,,,,,,,2023-10-18,1,,,,,トウホウダイガクヤクガクブカクフウカイ,0
1364,5040005022155,新規,0,2023-10-18,2023-10-18,医療法人社団ＳＲ．ｏｒｔｈｏｄｏｎｔｉｃｓ,,その他の設立登記法人,千葉県,千葉市中央区,新町１０００番地センシティビルディング６階,,12,101,2600028,,,,,,,2023-10-18,1,,,,,エスアールオルソドンティクス,0
1365,5050001053657,新規,0,2023-10-18,2023-10-18,株式会社Ｍｙｃａ,,株式会社,茨城県,つくば市,研究学園１丁目２－１５ＡＪ－ＨＩＬＬＳ・Ｄ号,,08,220,3050817,,,,,,,2023-10-18,1,,,,,マイカ,0
1368,5050003007859,新規,0,2023-10-18,2023-10-18,合同会社ＭＥＥＴ　ＴＲＡＤＩＮＧ,,合同会社,茨城県,結城市,大字山王２００－２,,08,207,3070023,,,,,,,2023-10-18,1,,,,,ミートトレーディング,0
1369,5050005013319,新規,0,2023-10-18,2023-10-18,特定非営利活動法人ＫＲＣ,,その他の設立登記法人,茨城県,笠間市,稲田３８８８番地１８,,08,216,3091635,,,,,,,2023-10-18,1,,,,,ケーアールシー,0
1376,5080001025926,新規,0,2023-10-18,2023-10-18,あんしんスクラム株式会社,,株式会社,静岡県,藤枝市,大東町９０８番地の１,,22,214,4260044,,,,,,,2023-10-18,1,,,,,アンシンスクラム,0
1378,5080401026796,新規,0,2023-10-18,2023-10-18,株式会社坪井プロジェクト,,株式会社,静岡県,浜松市東区,篠ケ瀬町１３６０番地ネオステージ東浜松壱番館１００２号室,,22,132,4350042,,,,,,,2023-10-18,1,,,,,ツボイプロジェクト,0
1380,5110003005187,新規,0,2023-10-18,2023-10-18,ミノル合同会社,,合同会社,新潟県,上越市,大和２丁目７－２３,,15,222,9430861,,,,,,,2023-10-18,1,,,,,ミノル,0
1391,5120001258851,新規,0,2023-10-18,2023-10-18,株式会社Ｆｌｏｗｅｒ,,株式会社,大阪府,大阪市北区,梅田１丁目１番３大阪駅前第３ビル２９階１－１－１号室,,27,127,5300001,,,,,,,2023-10-18,1,,,,,フラワー,0
1392,5120001258892,新規,0,2023-10-18,2023-10-18,株式会社ＲＩＭＩＮＡ,,株式会社,大阪府,枚方市,東山２丁目２６番地の７,,27,210,5731114,,,,,,,2023-10-18,1,,,,,リミナ,0
1399,5120003025102,新規,0,2023-10-18,2023-10-18,トイトイパーク合同会社,,合同会社,大阪府,大阪市福島区,福島７丁目１３番７号,,27,103,5530003,,,,,,,2023-10-18,1,,,,,トイトイパーク,0
1401,5120901048229,新規,0,2023-10-18,2023-10-18,株式会社Ｔｓｔａｇｅ,,株式会社,大阪府,摂津市,千里丘東３丁目１０番１６号,,27,224,5660011,,,,,,,2023-10-18,1,,,,,ティーステージ,0
1403,5130001075437,新規,0,2023-10-18,2023-10-18,Ｒｅフォレスト株式会社,,株式会社,京都府,京都市北区,紫野下柏野町１４番地２４,,26,101,6038313,,,,,,,2023-10-18,1,,,,,リフォレスト,0
1404,5130001075494,新規,0,2023-10-18,2023-10-18,ＢｉｎＧｏ株式会社,,株式会社,京都府,京都市伏見区,深草正覚町１２番地３鳥羽街道団地Ｊ棟２０２号室,,26,109,6120801,,,,,,,2023-10-18,1,,,,,ビンゴ,0
1405,5130001075552,新規,0,2023-10-18,2023-10-18,株式会社Ｇ‐ＡＩＲ,,株式会社,京都府,京都市伏見区,醍醐南端山町１５番地４２,,26,109,6011331,,,,,,,2023-10-18,1,,,,,ジーエアー,0
1408,5130005016899,新規,0,2023-10-18,2023-10-18,一般社団法人不妊症不育症ピアサポーター協会,,その他の設立登記法人,京都府,京都市下京区,七条通油小路東入大黒町２２７番地第２キョートビル４０２,,26,106,6008223,,,,,,,2023-10-18,1,,,,,フニンショウフイクショウピアサポーターキョウカイ,0
1415,5140001132006,新規,0,2023-10-18,2023-10-18,株式会社クライフワン,,株式会社,兵庫県,加古郡稲美町,六分一１２０９番地の２１,,28,381,6751112,,,,,,,2023-10-18,1,,,,,,0
1417,5140003019688,新規,0,2023-10-18,2023-10-18,Ｂｒａｎｄ　Ｈｕｍｉｌ合同会社,,合同会社,兵庫県,朝来市,新井６３０－９,,28,225,6793431,,,,,,,2023-10-18,1,,,,,,0
1418,5140003019696,新規,0,2023-10-18,2023-10-18,合同会社Ｇｌｏｒｉａ,,合同会社,兵庫県,加古川市,加古川町寺家町４５番地の３ブランシエラ加古川リアラス２０２号,,28,210,6750066,,,,,,,2023-10-18,1,,,,,グローリア,0
1425,5160001025422,新規,0,2023-10-18,2023-10-18,ＵＭＵ株式会社,,株式会社,滋賀県,大津市,八屋戸１９８６－１１,,25,201,5200515,,,,,,,2023-10-18,1,,,,,ウム,0
1427,5160003003013,新規,0,2023-10-18,2023-10-18,合同会社冨田工業,,合同会社,滋賀県,野洲市,久野部２８８番地,,25,210,5202353,,,,,,,2023-10-18,1,,,,,トミタコウギョウ,0
1438,5180001158526,新規,0,2023-10-18,2023-10-18,ｎｕｍｂｅｒａｃｅ‐ｅｃｏｊａｐａｎ株式会社,,株式会社,愛知県,名古屋市千種区,今池５丁目２７番１号,,23,101,4640850,,,,,,,2023-10-18,1,,,,,ナンバーエースエコジャパン,0
1442,5180003025609,新規,0,2023-10-18,2023-10-18,合同会社イチナナ,,合同会社,愛知県,名古屋市名東区,藤見が丘９８Ｌａｃａｎｇ３０２,,23,115,4650048,,,,,,,2023-10-18,1,,,,,イチナナ,0
1443,5180003025856,新規,0,2023-10-18,2023-10-18,市川会計コンサルティング合同会社,,合同会社,愛知県,名古屋市天白区,中平３丁目２３０７番地,,23,116,4680014,,,,,,,2023-10-18,1,,,,,イチカワカイケイコンサルティング,0
1448,5190001018142,新規,0,2023-10-18,2023-10-18,日英鑛油株式会社,,株式会社,三重県,四日市市,浜一色町１１番１号,,24,202,5100031,,,,,,,2023-10-18,1,,,,,ニチエイコウユ,0
1454,5200001041828,新規,0,2023-10-18,2023-10-18,株式会社キィサポート,,株式会社,岐阜県,大垣市,新田町４丁目２０番地１,,21,202,5030856,,,,,,,2023-10-18,1,,,,,キィサポート,0
1457,5210003001713,新規,0,2023-10-18,2023-10-18,合同会社道具屋木村,,合同会社,福井県,福井市,八ツ島町１４号６番地６,,18,201,9100065,,,,,,,2023-10-18,1,,,,,ドウグヤキムラ,0
1458,5220001025639,新規,0,2023-10-18,2023-10-18,株式会社Ａ‐ＷＥＳＴ,,株式会社,石川県,金沢市,小坂町南６４６番地プリマクラッセ・１０１号,,17,201,9200811,,,,,,,2023-10-18,1,,,,,エーウエスト,0
1459,5230001020060,新規,0,2023-10-18,2023-10-18,株式会社ＡＦＡ　ＴＲＡＤＩＮＧ,,株式会社,富山県,射水市,かもめ台６３番地,,16,211,9330240,,,,,,,2023-10-18,1,,,,,アファトレーディング,0
1462,5240001062275,新規,0,2023-10-18,2023-10-18,株式会社まなすみ,,株式会社,広島県,三原市,東町１丁目１番７－５０６号,,34,204,7230011,,,,,,,2023-10-18,1,,,,,マナスミ,0
1465,5260001038397,新規,0,2023-10-18,2023-10-18,株式会社フォーティーン,,株式会社,岡山県,岡山市南区,妹尾３７６０番地８,,33,104,7010205,,,,,,,2023-10-18,1,,,,,フォーティーン,0
1466,5260001038422,新規,0,2023-10-18,2023-10-18,株式会社宏信,,株式会社,岡山県,岡山市東区,福治５３７番地１,,33,103,7048107,,,,,,,2023-10-18,1,,,,,コウシン,0
1473,5290001103388,新規,0,2023-10-18,2023-10-18,株式会社詰まりました,,株式会社,福岡県,福岡市中央区,桜坂１丁目７番４号,,40,133,8100024,,,,,,,2023-10-18,1,,,,,ツマリマシタ,0
1474,5290001103470,新規,0,2023-10-18,2023-10-18,株式会社くぶき,,株式会社,福岡県,福岡市博多区,博多駅南１丁目１５番２２号,,40,132,8120016,,,,,,,2023-10-18,1,,,,,クブキ,0
1478,5290003014501,新規,0,2023-10-18,2023-10-18,テラスアセット合同会社,,合同会社,福岡県,福岡市東区,香椎照葉４丁目２番１－３０５号セントラルパーク香椎照葉壱番館,,40,131,8130017,,,,,,,2023-10-18,1,,,,,テラスアセット,0
1480,5320001020051,新規,0,2023-10-18,2023-10-18,株式会社陽天,,株式会社,大分県,日田市,天瀬町合田３１４９番地１,,44,204,8794122,,,,,,,2023-10-18,1,,,,,ハルアマ,0
1481,5320001020084,新規,0,2023-10-18,2023-10-18,株式会社ＥＳＥ,,株式会社,大分県,中津市,大字東浜２７１－３８,,44,203,8710006,,,,,,,2023-10-18,1,,,,,イーエスイー,0
1482,5320001020092,新規,0,2023-10-18,2023-10-18,株式会社メタセコイア,,株式会社,大分県,大分市,金池南１丁目５番１号,,44,201,8700839,,,,,,,2023-10-18,1,,,,,メタセコイア,0
1487,5330001031329,新規,0,2023-10-18,2023-10-18,ＴＳＵシステム株式会社,,株式会社,熊本県,熊本市東区,戸島町８９４番地１,,43,102,8618031,,,,,,,2023-10-18,1,,,,,,0
1493,5350001018621,新規,0,2023-10-18,2023-10-18,株式会社ライターズロック,,株式会社,宮崎県,宮崎市,清武町加納甲１７２４番地２カーサ・フォーオールＢ２０３号,,45,201,8891605,,,,,,,2023-10-18,1,,,,,ライターズロック,0
1496,5360001032695,新規,0,2023-10-18,2023-10-18,アニマート・グループうるま株式会社,,株式会社,沖縄県,うるま市,安慶名３丁目２４番１号キャロルガーデン１階１０１号室,,47,213,9042214,,,,,,,2023-10-18,1,,,,,アニマートグループウルマ,0
1500,5360005006919,新規,0,2023-10-18,2023-10-18,一般財団法人地ボ活党,,その他の設立登記法人,沖縄県,中頭郡読谷村,字比謝５０３番地１－３０２,,47,324,9040311,,,,,,,2023-10-18,1,,,,,チボカツトウ,0
1511,5390003002149,新規,0,2023-10-18,2023-10-18,ヨコヤマアーキ合同会社,,合同会社,山形県,山形市,大字土坂乙２５番地,,06,201,9902405,,,,,,,2023-10-18,1,,,,,ヨコヤマアーキ,0
1514,5410003003854,新規,0,2023-10-18,2023-10-18,合同会社Ｕ‐Ｆｒｉｅｎｄｓ,,合同会社,秋田県,秋田市,桜１丁目８番３９号メゾンドゥ桜２０４号,,05,201,0100042,,,,,,,2023-10-18,1,,,,,ユーフレンズ,0
1517,5430001090190,新規,0,2023-10-18,2023-10-18,株式会社ブラビズ,,株式会社,北海道,札幌市中央区,北五条西１０丁目３－１,,01,101,0600005,,,,,,,2023-10-18,1,,,,,ブラビズ,0
1521,5470001019855,新規,0,2023-10-18,2023-10-18,株式会社ライトニング,,株式会社,香川県,高松市,亀井町８番地２３,,37,201,7600050,,,,,,,2023-10-18,1,,,,,ライトニング,0
1522,5470003002504,新規,0,2023-10-18,2023-10-18,合同会社Ｒｅ．ｐｅａｔ,,合同会社,香川県,観音寺市,大野原町丸井１６９０番地３,,37,205,7691615,,,,,,,2023-10-18,1,,,,,リピート,0
1523,5500001025247,新規,0,2023-10-18,2023-10-18,株式会社ＭｙＬｉｎｏ,,株式会社,愛媛県,松山市,朝生田町２丁目１０番３４号,,38,201,7900952,,,,,,,2023-10-18,1,,,,,マイリノ,0
1524,5500001025255,新規,0,2023-10-18,2023-10-18,株式会社Ｗｅｌｌ　ｓｐｏｏｎ,,株式会社,愛媛県,伊予郡松前町,大字北黒田７０６番地１ロータスビレッジあいゆうＡ－１０２,,38,401,7913102,,,,,,,2023-10-18,1,,,,,ウェルスプーン,0
1526,5700150117378,新規,0,2023-10-18,2023-10-18,ｐｉｎｇｔａｎｚｏｎｇｈｅｓｈｉｙａｎｑｕｊｕｎｙｉｗａｎｇｌｕｏｋｅｊｉｃｏ．ｌｔｄ．,,外国会社等,,,,,,,,ｐｉｎｇｔａｎｚｏｎｇｈｅｓｈｉｙａｎｑｕｊｉｎｊｉｎｇｗａｎｐｉａｎｑｕｓｈａｎｇｗｕｙｕｎｙｉｎｇｚｈｏｎｇｘｉｎ６ｈａｏｌｏｕ５ｃｅｎｇ５１１ｓｈｉ－１９００,,,,,,2023-10-18,1,,,,,ピンタンソウゴウジッケンクジュンイネットワークテクノロジーユウゲンカイシャ,0
1527,5700150119812,新規,0,2023-10-18,2023-10-18,ｃｈｅｎｇｄｕ　ｌｅｉｅｒｚｈｅｎｙｉｎｄｉａｎｚｉｓｈａｎｇｗｕ　ｙｏｕｘｉａｎｇｏｎｇｓｉ,,外国会社等,,,,,,,,ｈｕｉｑｕａｎｎａｎｌｕ１８３ｈａｏｆｕ６２５ｈａｏ　ｃｈｅｎｇｄｕｓｈｉ　ｊｉｎｊｉａｎｇｑｕ　ｓｉｃｈｕａｎｓｈｅｎｇ,,,,,,2023-10-18,1,,,,,チェンドウレイエゼンインデンシシャンウユウゲンコウシ,0
1540,6010001239259,新規,0,2023-10-18,2023-10-18,株式会社ｚｅｎｌｏｎ,,株式会社,東京都,中央区,銀座１丁目１２番４号Ｎ＆ＥＢＬＤ．６Ｆ,,13,102,1040061,,,,,,,2023-10-18,1,,,,,ゼンロン,0
1541,6010001239291,新規,0,2023-10-18,2023-10-18,株式会社クラレット,,株式会社,東京都,中央区,日本橋室町１丁目１１番１２号日本橋水野ビル７階,,13,102,1030022,,,,,,,2023-10-18,1,,,,,クラレット,0
1542,6010001239300,新規,0,2023-10-18,2023-10-18,Ａｓｉａ　Ｍｙ　Ｗａｙ　Ｊａｐａｎ株式会社,,株式会社,東京都,中央区,日本橋本町２丁目２－２日本橋本町ＹＳビル２階在日フランス商工会議所,,13,102,1030023,,,,,,,2023-10-18,1,,,,,アジアマイウェイジャパン,0
1543,6010001239309,新規,0,2023-10-18,2023-10-18,株式会社イル・デ・パン,,株式会社,東京都,千代田区,丸の内１丁目８番２号,,13,101,1000005,,,,,,,2023-10-18,1,,,,,イルデパン,0
1544,6010001239317,新規,0,2023-10-18,2023-10-18,株式会社新卒ＲＰＯ,,株式会社,東京都,千代田区,神田三崎町３丁目１番１６号,,13,101,1010061,,,,,,,2023-10-18,1,,,,,シンソツアールピーオー,0
1545,6010001239341,新規,0,2023-10-18,2023-10-18,ビジョナリー・エステート株式会社,,株式会社,東京都,中央区,日本橋３丁目６番１１号,,13,102,1030027,,,,,,,2023-10-18,1,,,,,ビジョナリーエステート,0
1547,6010003041951,新規,0,2023-10-18,2023-10-18,合同会社ＭＯＤ,,合同会社,東京都,中央区,銀座１丁目１２番４号Ｎ＆ＥＢＬＤ．６Ｆ,,13,102,1040061,,,,,,,2023-10-18,1,,,,,エムオーディー,0
1551,6010005037386,新規,0,2023-10-18,2023-10-18,金沢プロパティ特定目的会社,,その他の設立登記法人,東京都,千代田区,内幸町２丁目１番６号,,13,101,1000011,,,,,,,2023-10-18,1,,,,,カナザワプロパティ,0
1556,6010105002232,新規,0,2023-10-18,2023-10-18,一般社団法人楽育,,その他の設立登記法人,東京都,八王子市,北野町５６７番地６第２サンライズマンション４０３号,,13,201,1920906,,,,,,,2023-10-18,1,,,,,ライク,0
1563,6010401177843,新規,0,2023-10-18,2023-10-18,株式会社ギガコード,,株式会社,東京都,港区,三田１丁目４番２８号三田国際ビル１６階,,13,103,1080073,,,,,,,2023-10-18,1,,,,,ギガコード,0
1564,6010401177901,新規,0,2023-10-18,2023-10-18,碧色粧店株式会社,,株式会社,東京都,港区,元麻布３丁目１０－８山水荘,,13,103,1060046,,,,,,,2023-10-18,1,,,,,アオイロショウテン,0
1569,6010601063975,新規,0,2023-10-18,2023-10-18,株式会社Ｌｉｒｉｏ,,株式会社,東京都,江東区,富岡１丁目２４番２号,,13,108,1350047,,,,,,,2023-10-18,1,,,,,リリオ,0
1597,6011001157483,新規,0,2023-10-18,2023-10-18,株式会社ＴａｔｏＢｅ,,株式会社,東京都,渋谷区,道玄坂１丁目１０番８号,,13,113,1500043,,,,,,,2023-10-18,1,,,,,タトゥビー,0
1598,6011001157525,新規,0,2023-10-18,2023-10-18,スーパーエージェント株式会社,,株式会社,東京都,渋谷区,道玄坂１丁目１２－１渋谷マークシティＷ２２階,,13,113,1500043,,,,,,,2023-10-18,1,,,,,スーパーエージェント,0
1599,6011003017636,新規,0,2023-10-18,2023-10-18,合同会社Ｒｅｃｅｐｔ,,合同会社,東京都,渋谷区,道玄坂１丁目１０番８号渋谷道玄坂東急ビル２Ｆ－Ｃ,,13,113,1500043,,,,,,,2023-10-18,1,,,,,リセプト,0
1603,6011101104690,新規,0,2023-10-18,2023-10-18,波涛株式会社,,株式会社,東京都,新宿区,早稲田鶴巻町５３８番地１９リンクス早稲田ビル５０６,,13,104,1620041,,,,,,,2023-10-18,1,,,,,ハトウ,0
1604,6011101104773,新規,0,2023-10-18,2023-10-18,株式会社ＰＬＡＹ　ＥＡＲＴＨ　ＧＲＯＵＰ,,株式会社,東京都,新宿区,西新宿４丁目３６番１３号松原ビル２Ｆ,,13,104,1600023,,,,,,,2023-10-18,1,,,,,プレイアースグループ,0
1605,6011101104807,新規,0,2023-10-18,2023-10-18,株式会社ピークスアンドマークス,,株式会社,東京都,新宿区,西新宿６丁目１０－１日土地西新宿ビル８階,,13,104,1600023,,,,,,,2023-10-18,1,,,,,ピークスアンドマークス,0
1606,6011101104831,新規,0,2023-10-18,2023-10-18,株式会社ｏｍｏｕｓ,,株式会社,東京都,新宿区,新宿１丁目３６番２号新宿第七葉山ビル,,13,104,1600022,,,,,,,2023-10-18,1,,,,,オモウス,0
1618,6011501029868,新規,0,2023-10-18,2023-10-18,日昇科技日本株式会社,,株式会社,東京都,北区,東十条６丁目５－２１丹波貿易本社ビル２０１号室,,13,117,1140001,,,,,,,2023-10-18,1,,,,,ニチショウカギニホン,0
1629,6012403006237,新規,0,2023-10-18,2023-10-18,Ｔ＆Ｅ合同会社,,合同会社,東京都,多摩市,関戸３丁目１８番地の１５,,13,224,2060011,,,,,,,2023-10-18,1,,,,,ティーアンドイー,0
1631,6012701017893,新規,0,2023-10-18,2023-10-18,株式会社シセイ,,株式会社,東京都,東村山市,久米川町３丁目２８番地４ローレルコート東村山８０７,,13,213,1890003,,,,,,,2023-10-18,1,,,,,シセイ,0
1636,6013303006839,新規,0,2023-10-18,2023-10-18,合同会社オウルズ,,合同会社,東京都,豊島区,西池袋３丁目３３番３号,,13,116,1710021,,,,,,,2023-10-18,1,,,,,オウルズ,0
1642,6020001153987,新規,0,2023-10-18,2023-10-18,株式会社松葉商事,,株式会社,神奈川県,横浜市港北区,師岡町９４８番地,,14,109,2220002,,,,,,,2023-10-18,1,,,,,マツバショウジ,0
1647,6021001080486,新規,0,2023-10-18,2023-10-18,株式会社あさひ,,株式会社,神奈川県,厚木市,飯山南１丁目１１番４１号,,14,212,2430218,,,,,,,2023-10-18,1,,,,,アサヒ,0
1661,6030001156485,新規,0,2023-10-18,2023-10-18,株式会社Ｇｒｏｕｎｄ．ａｇｅｎｃｙ,,株式会社,埼玉県,越谷市,川柳町４丁目２４５番地１朝日プラザガーデンシティ新越谷１１４,,11,222,3430827,,,,,,,2023-10-18,1,,,,,グランドエージェンシー,0
1662,6030001156675,新規,0,2023-10-18,2023-10-18,株式会社ＺＥＲＯ１８２,,株式会社,埼玉県,鴻巣市,鎌塚２丁目４－３山下邸１０３号室,,11,217,3690112,,,,,,,2023-10-18,1,,,,,ゼロイチハチニ,0
1670,6030003022801,新規,0,2023-10-18,2023-10-18,ＧＥＮＳＯＮ合同会社,,合同会社,埼玉県,比企郡川島町,大字上伊草１７６７－１,,11,346,3500152,,,,,,,2023-10-18,1,,,,,ゲンソン,0
1683,6040003023575,新規,0,2023-10-18,2023-10-18,合同会社レイ電工,,合同会社,千葉県,千葉市中央区,道場南１丁目１９番地１０－１号,,12,101,2600005,,,,,,,2023-10-18,1,,,,,レイデンコウ,0
1686,6050003007866,新規,0,2023-10-18,2023-10-18,ＡＭＩＬＡ　ＥＮＴＥＲＰＲＩＳＥＳ合同会社,,合同会社,茨城県,結城市,大字大木１９１７番地コーポアキタ１００－２Ｂ,,08,207,3070031,,,,,,,2023-10-18,1,,,,,アミラエンタープライセズ,0
1694,6060001036445,新規,0,2023-10-18,2023-10-18,Ｚｗｅｉｔｅｓ　Ｌｅｂｅｎ株式会社,,株式会社,栃木県,日光市,針貝１６６番地２,,09,206,3212331,,,,,,,2023-10-18,1,,,,,ツヴエイテスレーベン,0
1701,6070001040982,新規,0,2023-10-18,2023-10-18,株式会社ウォーターアップ,,株式会社,群馬県,利根郡みなかみ町,高日向２１番地３,,10,449,3791613,,,,,,,2023-10-18,1,,,,,,0
1703,6080001025925,新規,0,2023-10-18,2023-10-18,株式会社風知草,,株式会社,静岡県,静岡市駿河区,八幡１丁目２番２５号,,22,102,4228076,,,,,,,2023-10-18,1,,,,,フウチソウ,0
1704,6080003003078,新規,0,2023-10-18,2023-10-18,Ｓｙｎｅｒｇｙ　Ｎｕｒｓｉｎｇ合同会社,,合同会社,静岡県,島田市,南２丁目８－１６,,22,209,4270017,,,,,,,2023-10-18,1,,,,,シナジーナーシング,0
1710,6080403004898,新規,0,2023-10-18,2023-10-18,合同会社Ｇｒｏｏｖｉｎ,,合同会社,静岡県,浜松市東区,小池町１８６４番地の６３,,22,132,4350056,,,,,,,2023-10-18,1,,,,,グルーヴィン,0
1714,6100001036886,新規,0,2023-10-18,2023-10-18,株式会社笑福,,株式会社,長野県,松本市,寿北６丁目１１番１号淵庵村ＷＢＡＳＥ０６,,20,202,3990011,,,,,,,2023-10-18,1,,,,,,0
1715,6100003007233,新規,0,2023-10-18,2023-10-18,ツリーケアスタッフ合同会社,,合同会社,長野県,茅野市,北山４０２６番地２東急リゾートタウン蓼科からまつ台５－１－２５,,20,214,3910301,,,,,,,2023-10-18,1,,,,,ツリーケアスタッフ,0
1716,6110001037925,新規,0,2023-10-18,2023-10-18,アルピナ船舶株式会社,,株式会社,新潟県,新潟市中央区,新島町通５ノ町２２３２番地４,,15,103,9518051,,,,,,,2023-10-18,1,,,,,アルピナセンパク,0
1733,6120001258941,新規,0,2023-10-18,2023-10-18,ＩＬｇｒｏｗ株式会社,,株式会社,大阪府,大阪市北区,堂山町１－５三共梅田ビル７階,,27,127,5300027,,,,,,,2023-10-18,1,,,,,イルグロー,0
1735,6120003025092,新規,0,2023-10-18,2023-10-18,ＡＳＡＧＡＯ　ＪＡＰＡＮ合同会社,,合同会社,大阪府,大阪市中央区,谷町９丁目２番１４号中田東海ビル５０１号,,27,128,5420012,,,,,,,2023-10-18,1,,,,,アサガオジャパン,0
1736,6120003025101,新規,0,2023-10-18,2023-10-18,合同会社当事者,,合同会社,大阪府,大阪市北区,梅田１丁目２番２号,,27,127,5300001,,,,,,,2023-10-18,1,,,,,トウジシャ,0
1742,6120101068407,新規,0,2023-10-18,2023-10-18,株式会社メゾンパークス,,株式会社,大阪府,堺市北区,百舌鳥本町３丁４０２番地,,27,146,5918036,,,,,,,2023-10-18,1,,,,,メゾンパークス,0
1745,6120901048178,新規,0,2023-10-18,2023-10-18,株式会社ＦＪ,,株式会社,大阪府,茨木市,片桐町１０番１４－４０６号,,27,211,5670819,,,,,,,2023-10-18,1,,,,,エフジェイ,0
1746,6120901048194,新規,0,2023-10-18,2023-10-18,株式会社ＵＫＭＫ,,株式会社,大阪府,豊中市,北緑丘２丁目８番３－４０２号,,27,203,5600001,,,,,,,2023-10-18,1,,,,,ユーケーエムケー,0
1747,6120901048211,新規,0,2023-10-18,2023-10-18,シエン株式会社,,株式会社,大阪府,豊中市,豊南町西２丁目２－９,,27,203,5610816,,,,,,,2023-10-18,1,,,,,シエン,0
1748,6120901048228,新規,0,2023-10-18,2023-10-18,株式会社Ｔ．Ｍ．Ｓ．Ａ,,株式会社,大阪府,高槻市,西面中１丁目７番２号,,27,207,5690842,,,,,,,2023-10-18,1,,,,,ティーエムエスエー,0
1754,6130001075386,新規,0,2023-10-18,2023-10-18,株式会社まつりか,,株式会社,京都府,京都市右京区,花園内畑町１０番地１２,,26,108,6168045,,,,,,,2023-10-18,1,,,,,マツリカ,0
1755,6130001075436,新規,0,2023-10-18,2023-10-18,ＡＺｔａｓ株式会社,,株式会社,京都府,京都市下京区,朱雀正会町１番地１ＫＹＯＣＡ３０１,,26,106,6008841,,,,,,,2023-10-18,1,,,,,アズタス,0
1756,6130001075477,新規,0,2023-10-18,2023-10-18,一阿五控股株式会社,,株式会社,京都府,京都市右京区,山ノ内苗町１番地,,26,108,6150074,,,,,,,2023-10-18,1,,,,,イツアゴコウク,0
1757,6130001075568,新規,0,2023-10-18,2023-10-18,大森株式会社,,株式会社,京都府,京都市中京区,西ノ京星池町８－３１コーポエトワール２０３号室,,26,104,6048416,,,,,,,2023-10-18,1,,,,,オオモリ,0
1768,6140001132013,新規,0,2023-10-18,2023-10-18,ノースリッジ株式会社,,株式会社,兵庫県,伊丹市,荒牧南２丁目２０番３０号,,28,207,6640008,,,,,,,2023-10-18,1,,,,,ノースリッジ,0
1771,6140003019662,新規,0,2023-10-18,2023-10-18,合同会社福隆,,合同会社,兵庫県,加古川市,志方町上冨木３４５番地の２サンフラワーハイツ３Ｆ２３号,,28,210,6750314,,,,,,,2023-10-18,1,,,,,フクタカ,0
1772,6140003019687,新規,0,2023-10-18,2023-10-18,合同会社オフィスあげは,,合同会社,兵庫県,丹波市,氷上町福田５５番地,,28,223,6693583,,,,,,,2023-10-18,1,,,,,,0
1778,6160001025421,新規,0,2023-10-18,2023-10-18,株式会社ライスブラン,,株式会社,滋賀県,野洲市,野洲５１１,,25,210,5202342,,,,,,,2023-10-18,1,,,,,ライスブラン,0
1793,6180001158491,新規,0,2023-10-18,2023-10-18,株式会社八事サービス,,株式会社,愛知県,名古屋市天白区,池見２丁目１７７グランパス池見１０７,,23,116,4680067,,,,,,,2023-10-18,1,,,,,ヤゴトサービス,0
1794,6180001158517,新規,0,2023-10-18,2023-10-18,株式会社リ・スペース,,株式会社,愛知県,知多郡武豊町,字東長宗７番地２,,23,447,4702382,,,,,,,2023-10-18,1,,,,,リスペース,0
1800,6190003004478,新規,0,2023-10-18,2023-10-18,Ｔｏｋｙｏ　Ｌａｎｋａ　Ｅｎｔｅｒｐｒｉｓｅｓ合同会社,,合同会社,三重県,鈴鹿市,東旭が丘１丁目２番４０－１０３号,,24,207,5100211,,,,,,,2023-10-18,1,,,,,トウキョウランカエンタープライゼス,0
1801,6200001041827,新規,0,2023-10-18,2023-10-18,株式会社Ｄ．Ｉ‐ＷＯＲＫＳ,,株式会社,岐阜県,土岐市,土岐津町土岐口２２５５番地の４１７,,21,212,5095122,,,,,,,2023-10-18,1,,,,,ディーアイワークス,0
1802,6200001041835,新規,0,2023-10-18,2023-10-18,株式会社春日井内装,,株式会社,岐阜県,山県市,高木７０５番地１０,,21,215,5012113,,,,,,,2023-10-18,1,,,,,カスガイナイソウ,0
1807,6220001025638,新規,0,2023-10-18,2023-10-18,マノック株式会社,,株式会社,石川県,金沢市,高尾南２丁目１５５番地,,17,201,9218154,,,,,,,2023-10-18,1,,,,,マノック,0
1814,6250001020330,新規,0,2023-10-18,2023-10-18,株式会社アーカム,,株式会社,山口県,下関市,竹崎町１丁目１７番１号,,35,201,7500025,,,,,,,2023-10-18,1,,,,,アーカム,0
1816,6260001038413,新規,0,2023-10-18,2023-10-18,河原電工株式会社,,株式会社,岡山県,岡山市南区,藤田４４７番地６６,,33,104,7010221,,,,,,,2023-10-18,1,,,,,カワハラデンコウ,0
1817,6260001038421,新規,0,2023-10-18,2023-10-18,株式会社エイティーエイト,,株式会社,岡山県,岡山市東区,西大寺浜１７４番地４,,33,103,7048126,,,,,,,2023-10-18,1,,,,,エイティーエイト,0
1823,6290001103420,新規,0,2023-10-18,2023-10-18,株式会社ａｌｅｓ,,株式会社,福岡県,福岡市西区,今宿東３丁目４８番１３号,,40,135,8190161,,,,,,,2023-10-18,1,,,,,アレス,0
1824,6290003014509,新規,0,2023-10-18,2023-10-18,Ｐｔｅｒｉｄｉｕｍ合同会社,,合同会社,福岡県,福岡市城南区,田島３丁目１番２６－２０５号,,40,136,8140113,,,,,,,2023-10-18,1,,,,,プテルディアム,0
1827,6290801029971,新規,0,2023-10-18,2023-10-18,株式会社ａｎｄ　ｃｏｎｔｒｉｂｕｔｅ,,株式会社,福岡県,北九州市小倉北区,竪町１丁目６番２８号,,40,106,8030818,,,,,,,2023-10-18,1,,,,,アンドコントリビュート,0
1829,6320001020091,新規,0,2023-10-18,2023-10-18,株式会社ヌリマル,,株式会社,大分県,別府市,若草町３番２７号グランベール別府９０２号,,44,202,8740925,,,,,,,2023-10-18,1,,,,,ヌリマル,0
1830,6320003004209,新規,0,2023-10-18,2023-10-18,合同会社ＳＵＮ　ＳＰＩＲＩＴ,,合同会社,大分県,大分市,新町７番２３－４０１号,,44,201,8700028,,,,,,,2023-10-18,1,,,,,サンスピリット,0
1833,6340001025997,新規,0,2023-10-18,2023-10-18,株式会社ヒラミネ不動産,,株式会社,鹿児島県,鹿児島市,玉里団地２丁目５７番１号,,46,201,8920811,,,,,,,2023-10-18,1,,,,,ヒラミネフドウサン,0
1834,6340001026005,新規,0,2023-10-18,2023-10-18,ＭＮＫ株式会社,,株式会社,鹿児島県,薩摩川内市,平佐町２８９０番地１,,46,215,8950012,,,,,,,2023-10-18,1,,,,,エムエヌケイ,0
1838,6350001018620,新規,0,2023-10-18,2023-10-18,平田兄弟株式会社,,株式会社,宮崎県,宮崎市,高千穂通２丁目５番３４号ポレスター宮崎ザ・プレミアム９０５号,,45,201,8800812,,,,,,,2023-10-18,1,,,,,ヒラタキョウダイ,0
1841,6370001050547,新規,0,2023-10-18,2023-10-18,株式会社ｃｌｉｆｆ,,株式会社,宮城県,塩竈市,泉沢町１９番１３号,,04,203,9850062,,,,,,,2023-10-18,1,,,,,クリフ,0
1845,6390001017404,新規,0,2023-10-18,2023-10-18,株式会社久吉,,株式会社,山形県,尾花沢市,大字銀山新畑４２９番地,,06,212,9994333,,,,,,,2023-10-18,1,,,,,キュウキチ,0
1851,6420003002813,新規,0,2023-10-18,2023-10-18,合同会社銀蔵,,合同会社,青森県,上北郡六ヶ所村,大字尾駮字家ノ前１番地６０,,02,411,0393212,,,,,,,2023-10-18,1,,,,,ギンゾウ,0
1853,6430001090231,新規,0,2023-10-18,2023-10-18,みるく不動産株式会社,,株式会社,北海道,札幌市手稲区,西宮の沢二条３丁目６番１２号,,01,109,0060002,,,,,,,2023-10-18,1,,,,,ミルクフドウサン,0
1856,6430003015525,新規,0,2023-10-18,2023-10-18,合同会社貢献,,合同会社,北海道,札幌市中央区,界川２丁目６番１３号,,01,101,0640943,,,,,,,2023-10-18,1,,,,,コウケン,0
1858,6440001009338,新規,0,2023-10-18,2023-10-18,株式会社オーリ,,株式会社,北海道,函館市,湯川町１丁目４１番９号,,01,202,0420932,,,,,,,2023-10-18,1,,,,,オーリ,0
1860,6480001012263,新規,0,2023-10-18,2023-10-18,株式会社稲岡土木,,株式会社,徳島県,板野郡上板町,神託字青木１９番地１,,36,405,7711300,,,,,,,2023-10-18,1,,,,,イナオカドボク,0
1867,6500001025246,新規,0,2023-10-18,2023-10-18,株式会社自由区,,株式会社,愛媛県,松山市,一番町２丁目５番地１４－６０１号室,,38,201,7900001,,,,,,,2023-10-18,1,,,,,フリーク,0
1881,7010001239209,新規,0,2023-10-18,2023-10-18,株式会社ビジネス交渉戦略研究所,,株式会社,東京都,中央区,京橋１丁目１番５号セントラルビル２階,,13,102,1040031,,,,,,,2023-10-18,1,,,,,ビジネスコウショウセンリャクケンキュウショ,0
1902,7010401177611,新規,0,2023-10-18,2023-10-18,株式会社ＢＵＺＺＧＡＭＥＳ,,株式会社,東京都,港区,浜松町２丁目２番１５号,,13,103,1050013,,,,,,,2023-10-18,1,,,,,バズゲームス,0
1903,7010401177900,新規,0,2023-10-18,2023-10-18,ヘルステクノロジーラボ株式会社,,株式会社,東京都,港区,北青山１丁目２番３号,,13,103,1070061,,,,,,,2023-10-18,1,,,,,ヘルステクノロジーラボ,0
1905,7010403031139,新規,0,2023-10-18,2023-10-18,オフィスＫＮＮ合同会社,,合同会社,東京都,港区,虎ノ門４丁目３－１城山トラストタワー２７階,,13,103,1050001,,,,,,,2023-10-18,1,,,,,オフィスケーエヌエヌ,0
1911,7010501051204,新規,0,2023-10-18,2023-10-18,株式会社ティーアイ,,株式会社,東京都,台東区,浅草橋１丁目１９番１０号,,13,106,1110053,,,,,,,2023-10-18,1,,,,,ティーアイ,0
1912,7010501051212,新規,0,2023-10-18,2023-10-18,株式会社Ｉｎｂｏｕｎｄ　Ｄｉｎｉｎｇ,,株式会社,東京都,台東区,松が谷２丁目１番１１号,,13,106,1110036,,,,,,,2023-10-18,1,,,,,インバウンドダイニング,0
1913,7010503007195,新規,0,2023-10-18,2023-10-18,合同会社Ｔｈｏｒ,,合同会社,東京都,台東区,東上野１丁目２番４号ラ・ブリークビル１階,,13,106,1100015,,,,,,,2023-10-18,1,,,,,トール,0
1914,7010601063974,新規,0,2023-10-18,2023-10-18,株式会社Ｌｏｇｕｅｓ,,株式会社,東京都,墨田区,向島５丁目２２番１,,13,107,1310033,,,,,,,2023-10-18,1,,,,,ローグス,0
1924,7011001157532,新規,0,2023-10-18,2023-10-18,Ｓｔａｃｋ　Ｂｕｎｄｌｅｓ株式会社,,株式会社,東京都,渋谷区,広尾５丁目２３番２号,,13,113,1500012,,,,,,,2023-10-18,1,,,,,スタックバンドルス,0
1925,7011001157540,新規,0,2023-10-18,2023-10-18,ＰＡＣＩＦＩＣ　ＥＡＧＬＥ株式会社,,株式会社,東京都,渋谷区,富ヶ谷１丁目１４－１４スタンフォードアネックスビル３Ｆ・４Ｆ,,13,113,1510063,,,,,,,2023-10-18,1,,,,,パシフィックイーグル,0
1935,7011101104789,新規,0,2023-10-18,2023-10-18,株式会社ＫＴＫＳ,,株式会社,東京都,新宿区,西新宿３丁目４番１１アピス西新宿５０１号,,13,104,1600023,,,,,,,2023-10-18,1,,,,,ケーティーケーエス,0
1936,7011101104822,新規,0,2023-10-18,2023-10-18,株式会社住友建装,,株式会社,東京都,新宿区,原町３丁目２１番地１リエトコート夏目坂６０４,,13,104,1620053,,,,,,,2023-10-18,1,,,,,スミトモケンソウ,0
1938,7011301029076,新規,0,2023-10-18,2023-10-18,株式会社ＮＥＷ　ＲＩＶＥＲ,,株式会社,東京都,杉並区,高円寺南４丁目１６－４ＬＥＧＡＬＡＮＤ高円寺１０６,,13,115,1660003,,,,,,,2023-10-18,1,,,,,ニューリバー,0
1941,7011501029875,新規,0,2023-10-18,2023-10-18,本田硝子株式会社,,株式会社,東京都,荒川区,南千住３丁目２４番２２号,,13,118,1160003,,,,,,,2023-10-18,1,,,,,ホンダガラス,0
1945,7011605002547,新規,0,2023-10-18,2023-10-18,医療法人社団桜秀会,,その他の設立登記法人,東京都,練馬区,貫井１丁目４８番４号すだま１号,,13,120,1760021,,,,,,,2023-10-18,1,,,,,オウシュウカイ,0
1952,7012301013631,新規,0,2023-10-18,2023-10-18,ブラン・ニュ株式会社,,株式会社,東京都,町田市,成瀬台４丁目９番地３ビラージュ成瀬台１０１,,13,209,1940043,,,,,,,2023-10-18,1,,,,,ブランニュ,0
1954,7013101009266,新規,0,2023-10-18,2023-10-18,株式会社東鳳建設,,株式会社,東京都,あきる野市,瀬戸岡１５７－１,,13,228,1970803,,,,,,,2023-10-18,1,,,,,,0
1958,7013301051489,新規,0,2023-10-18,2023-10-18,株式会社ＭＡＮＷＯＬ,,株式会社,東京都,豊島区,南大塚３丁目２８番１３号ル・リオン南大塚６０２号,,13,116,1700005,,,,,,,2023-10-18,1,,,,,マンウォル,0
1959,7013301051497,新規,0,2023-10-18,2023-10-18,株式会社ハレタヒ,,株式会社,東京都,豊島区,東池袋１丁目３４－５いちご東池袋ビル６階,,13,116,1700013,,,,,,,2023-10-18,1,,,,,ハレタヒ,0
1960,7013303006838,新規,0,2023-10-18,2023-10-18,合同会社ＬＩＦＩＸ,,合同会社,東京都,豊島区,池袋本町４丁目２６番１２号,,13,116,1700011,,,,,,,2023-10-18,1,,,,,リフィックス,0
1978,7021001080477,新規,0,2023-10-18,2023-10-18,株式会社ファンクチャー,,株式会社,神奈川県,平塚市,代官町２９番２６－１０２号,,14,203,2540807,,,,,,,2023-10-18,1,,,,,ファンクチャー,0
1979,7021001080485,新規,0,2023-10-18,2023-10-18,株式会社ライフステーション８１０,,株式会社,神奈川県,厚木市,林３丁目９番１６号,,14,212,2430816,,,,,,,2023-10-18,1,,,,,ライフステーションハチイチマル,0
1980,7021001080493,新規,0,2023-10-18,2023-10-18,株式会社ＪＳＫＩ,,株式会社,神奈川県,藤沢市,朝日町４番地の２０,,14,205,2510054,,,,,,,2023-10-18,1,,,,,ジェースキー,0
2003,7030001156732,新規,0,2023-10-18,2023-10-18,株式会社興和,,株式会社,埼玉県,川口市,飯塚３丁目５－１３末吉ビル１号室,,11,203,3320023,,,,,,,2023-10-18,1,,,,,コウワ,0
2011,7040001130546,新規,0,2023-10-18,2023-10-18,株式会社Ｍｏｒｅ,,株式会社,千葉県,船橋市,本中山２丁目８番２２－１０１号,,12,204,2730035,,,,,,,2023-10-18,1,,,,,モア,0
2018,7050001053622,新規,0,2023-10-18,2023-10-18,株式会社ＹＮ３Ｒ,,株式会社,茨城県,牛久市,ひたち野東３丁目２７番地２,,08,219,3001207,,,,,,,2023-10-18,1,,,,,ワイエヌスリーアール,0
2020,7050003007857,新規,0,2023-10-18,2023-10-18,合同会社羅夢,,合同会社,茨城県,筑西市,二木成１４９４番地２,,08,227,3080841,,,,,,,2023-10-18,1,,,,,ラム,0
2021,7050003007865,新規,0,2023-10-18,2023-10-18,Ｓｕｎｒｉｓｅ　ｉｎｖｅｓｔｍｅｎｔ合同会社,,合同会社,茨城県,牛久市,ひたち野東２丁目１３番地５,,08,219,3001207,,,,,,,2023-10-18,1,,,,,サンライズインベストメント,0
2023,7050005013341,新規,0,2023-10-18,2023-10-18,一般社団法人みことば,,その他の設立登記法人,茨城県,常陸大宮市,上小瀬２０８１番地の１,,08,225,3192401,,,,,,,2023-10-18,1,,,,,ミコトバ,0
2026,7060001036444,新規,0,2023-10-18,2023-10-18,株式会社マリクトレーディング,,株式会社,栃木県,小山市,大字粟宮１０２７番地９,,09,208,3290201,,,,,,,2023-10-18,1,,,,,マリクトレーディング,0
2034,7080401026794,新規,0,2023-10-18,2023-10-18,株式会社２ＣＯＮＤ,,株式会社,静岡県,浜松市西区,大平台２丁目４７番１５号,,22,133,4328068,,,,,,,2023-10-18,1,,,,,セカンド,0
2037,7080403004897,新規,0,2023-10-18,2023-10-18,合同会社ＬｉｍＲｉｄｅ,,合同会社,静岡県,浜松市北区,東三方町１番地東三方宿舎１号棟３０７,,22,135,4338104,,,,,,,2023-10-18,1,,,,,リムライド,0
2053,7120001258858,新規,0,2023-10-18,2023-10-18,株式会社Ｇｌｏｒｙ　Ｐａｉｎｔ,,株式会社,大阪府,門真市,江端町２７番２号Ｋ・ルーラルハウスＢ棟２０３号,,27,223,5710012,,,,,,,2023-10-18,1,,,,,グローリーペイント,0
2054,7120001258899,新規,0,2023-10-18,2023-10-18,キダアセットマネジメント株式会社,,株式会社,大阪府,大阪市城東区,中央１丁目１２－１７第三坂本ビル２０３号,,27,118,5360005,,,,,,,2023-10-18,1,,,,,キダアセットマネジメント,0
2055,7120001258949,新規,0,2023-10-18,2023-10-18,株式会社青天,,株式会社,大阪府,大阪市中央区,材木町１番１号,,27,128,5400010,,,,,,,2023-10-18,1,,,,,セイテン,0
2060,7120003025100,新規,0,2023-10-18,2023-10-18,合同会社スカイ,,合同会社,大阪府,大阪市北区,神山町１番３３－２０６号,,27,127,5300026,,,,,,,2023-10-18,1,,,,,スカイ,0
2061,7120003025117,新規,0,2023-10-18,2023-10-18,合同会社ＮＯＲＴＨ　ＦＡＣＴＯＲＹ,,合同会社,大阪府,大阪市北区,梅田１丁目２番２号大阪駅前第２ビル１２－１２,,27,127,5300001,,,,,,,2023-10-18,1,,,,,ノースファクトリー,0
2069,7120101068397,新規,0,2023-10-18,2023-10-18,株式会社ＡｎＦＩＮＩ,,株式会社,大阪府,堺市中区,東山３０３番地４,,27,142,5998247,,,,,,,2023-10-18,1,,,,,アンフィニィ,0
2076,7122001037473,新規,0,2023-10-18,2023-10-18,株式会社ＳＧ‐ｗｅｌｄｉｎｇ,,株式会社,大阪府,東大阪市,加納３丁目２番２４号ＬａＳｕｉｔｅＩｎｆｉｎｉ１０１号室,,27,227,5780901,,,,,,,2023-10-18,1,,,,,エスジーウェルディング,0
2083,7130003009028,新規,0,2023-10-18,2023-10-18,合同会社Ｐｒｉｍｅ　Ｒｅｓｅａｒｃｈ　Ｐａｒｔｎｅｒｓ,,合同会社,京都府,京都市北区,上賀茂狭間町４番地８,,26,101,6038042,,,,,,,2023-10-18,1,,,,,プライムリサーチパートナーズ,0
2095,7140003019645,新規,0,2023-10-18,2023-10-18,合同会社はじめ,,合同会社,兵庫県,芦屋市,親王塚町３番７号,,28,206,6590016,,,,,,,2023-10-18,1,,,,,ハジメ,0
2096,7140005026771,新規,0,2023-10-18,2023-10-18,一般社団法人Ｗｉｔｈ　Ｙｏｕ,,その他の設立登記法人,兵庫県,相生市,双葉２丁目１７番１１号,,28,208,6780024,,,,,,,2023-10-18,1,,,,,ウイズユー,0
2106,7180001158516,新規,0,2023-10-18,2023-10-18,株式会社鈴木建築,,株式会社,愛知県,東海市,高横須賀町藪下７番地の２,,23,222,4770037,,,,,,,2023-10-18,1,,,,,スズキケンチク,0
2114,7180003025862,新規,0,2023-10-18,2023-10-18,合同会社Ｉｎｆｉｎｉｔｙ,,合同会社,愛知県,一宮市,伝法寺６丁目６番地３号,,23,203,4910828,,,,,,,2023-10-18,1,,,,,インフィニティ,0
2115,7180003025870,新規,0,2023-10-18,2023-10-18,合同会社ＲＥＸ,,合同会社,愛知県,一宮市,浅野字長池７６番地,,23,203,4910871,,,,,,,2023-10-18,1,,,,,レックス,0
2120,7200001041826,新規,0,2023-10-18,2023-10-18,株式会社Ｅａｒｓｔ　Ｊａｐａｎ,,株式会社,岐阜県,岐阜市,松下町１１－３,,21,201,5008013,,,,,,,2023-10-18,1,,,,,アーストジャパン,0
2121,7200001041834,新規,0,2023-10-18,2023-10-18,株式会社ＯＴＫ,,株式会社,岐阜県,大垣市,平町５５０番地１,,21,202,5030841,,,,,,,2023-10-18,1,,,,,オーティーケー,0
2126,7220001025637,新規,0,2023-10-18,2023-10-18,ライジング株式会社,,株式会社,石川県,小松市,園町ハ１７８番地１,,17,203,9230801,,,,,,,2023-10-18,1,,,,,ライジング,0
2129,7240003006369,新規,0,2023-10-18,2023-10-18,合同会社ＲＩＳＩＮＧ　ＳＵＮ,,合同会社,広島県,安芸郡府中町,千代３番１４－５０２号,,34,302,7350027,,,,,,,2023-10-18,1,,,,,ライジングサン,0
2130,7240005015665,新規,0,2023-10-18,2023-10-18,一般社団法人ｎｅｃｏｔｏ,,その他の設立登記法人,広島県,広島市東区,牛田本町４丁目２番１－３０３号,,34,102,7320066,,,,,,,2023-10-18,1,,,,,ネコト,0
2135,7260001038412,新規,0,2023-10-18,2023-10-18,株式会社茶下山,,株式会社,岡山県,岡山市北区,弓之町１７番３５号,,33,101,7000817,,,,,,,2023-10-18,1,,,,,チャシモヤマ,0
2136,7260001038420,新規,0,2023-10-18,2023-10-18,株式会社ｂｉｏｓｉｓ,,株式会社,岡山県,岡山市南区,新保６６２－４,,33,104,7000945,,,,,,,2023-10-18,1,,,,,ビオシス,0
2144,7290001103428,新規,0,2023-10-18,2023-10-18,株式会社みやごえ,,株式会社,福岡県,福岡市東区,千早４丁目１４番１－７１３号プレミスト千早中央公園,,40,131,8130044,,,,,,,2023-10-18,1,,,,,ミヤゴエ,0
2145,7290003014499,新規,0,2023-10-18,2023-10-18,合同会社エルピース,,合同会社,福岡県,筑紫野市,光が丘２丁目１２－１０,,40,217,8180036,,,,,,,2023-10-18,1,,,,,エルピース,0
2146,7290801029962,新規,0,2023-10-18,2023-10-18,株式会社龍樹,,株式会社,福岡県,北九州市八幡西区,光明２丁目３番６号ウィングス折尾９０２,,40,109,8070824,,,,,,,2023-10-18,1,,,,,リュウジュ,0
2147,7290803004526,新規,0,2023-10-18,2023-10-18,合同会社つかさ,,合同会社,福岡県,中間市,長津３丁目３－１７,,40,215,8090036,,,,,,,2023-10-18,1,,,,,ツカサ,0
2151,7320001020082,新規,0,2023-10-18,2023-10-18,株式会社グリーンコープミルク,,株式会社,大分県,中津市,山国町宇曽１２３７番地１,,44,203,8710715,,,,,,,2023-10-18,1,,,,,グリーンコープミルク,0
2152,7320001020090,新規,0,2023-10-18,2023-10-18,株式会社アスヒ,,株式会社,大分県,大分市,千代町４丁目１番５号堀川ビル１０３号,,44,201,8700033,,,,,,,2023-10-18,1,,,,,アスヒ,0
2164,7360001032693,新規,0,2023-10-18,2023-10-18,株式会社セイン商事,,株式会社,沖縄県,那覇市,字与儀５９番地,,47,201,9020076,,,,,,,2023-10-18,1,,,,,セインショウジ,0
2165,7360001032702,新規,0,2023-10-18,2023-10-18,Ｏｋｉｂｌｕｅｓ　Ｅｘｐｒｅｓｓ株式会社,,株式会社,沖縄県,那覇市,赤嶺２丁目３－１、１０５,,47,201,9010154,,,,,,,2023-10-18,1,,,,,オキブルースエクスプレス,0
2174,7390001017403,新規,0,2023-10-18,2023-10-18,ＳＴＹＥＳ株式会社,,株式会社,山形県,酒田市,みずほ１丁目３番地の４４,,06,204,9980853,,,,,,,2023-10-18,1,,,,,エスティーイエス,0
2175,7400003003151,新規,0,2023-10-18,2023-10-18,合同会社ＡＲＩＳＴＯ,,合同会社,岩手県,奥州市,江刺岩谷堂字中野前６７－１,,03,215,0231101,,,,,,,2023-10-18,1,,,,,アリスト,0
2176,7410001013622,新規,0,2023-10-18,2023-10-18,株式会社Ｒ．,,株式会社,秋田県,秋田市,桜３丁目２番３４号,,05,201,0100042,,,,,,,2023-10-18,1,,,,,アール,0
2177,7410005006548,新規,0,2023-10-18,2023-10-18,農事組合法人三本扇,,その他の設立登記法人,秋田県,大仙市,太田町三本扇字小柳１０７番地,,05,212,0191602,,,,,,,2023-10-18,1,,,,,サンボンオウギ,0
2180,7420003002812,新規,0,2023-10-18,2023-10-18,ＲｉｎｇａＲｉｎｇｏ合同会社,,合同会社,青森県,弘前市,大字駅前３丁目３－１２藤田ビル２Ｆ,,02,202,0368002,,,,,,,2023-10-18,1,,,,,リンガリンゴ,0
2185,7430001090197,新規,0,2023-10-18,2023-10-18,株式会社Ｙ＆Ｍブラッドストック,,株式会社,北海道,新冠郡新冠町,字高江１４７番地７,,01,604,0592413,,,,,,,2023-10-18,1,,,,,ワイアンドエムブラッドストック,0
2186,7430001090214,新規,0,2023-10-18,2023-10-18,株式会社訪問治療院ロイヤリティ,,株式会社,北海道,札幌市東区,北二十五条東１３丁目１番１５号,,01,103,0650025,,,,,,,2023-10-18,1,,,,,ホウモンチリョウインロイヤリティ,0
2190,7460003000969,新規,0,2023-10-18,2023-10-18,よろずネット合同会社,,合同会社,北海道,釧路市,桜ケ岡５丁目４番３号,,01,206,0850805,,,,,,,2023-10-18,1,,,,,,0
2195,7480001012254,新規,0,2023-10-18,2023-10-18,武内海運株式会社,,株式会社,徳島県,鳴門市,撫養町北浜字宮の西９９番地,,36,202,7720015,,,,,,,2023-10-18,1,,,,,,0
2196,7480001012262,新規,0,2023-10-18,2023-10-18,株式会社ＮＯＲＡＩＳＭ,,株式会社,徳島県,板野郡松茂町,中喜来字宮前三番越８番地５３,,36,401,7710212,,,,,,,2023-10-18,1,,,,,ノーライズム,0
2197,7490001010612,新規,0,2023-10-18,2023-10-18,株式会社好日,,株式会社,高知県,吾川郡いの町,３８０７番地,,39,386,7812110,,,,,,,2023-10-18,1,,,,,コウジツ,0
2198,7500003003125,新規,0,2023-10-18,2023-10-18,合同会社暖,,合同会社,愛媛県,宇和島市,祝森甲３３０８番地１,,38,203,7980078,,,,,,,2023-10-18,1,,,,,ダン,0
2199,7700150117376,新規,0,2023-10-18,2023-10-18,ｓｈａｎｇ　ｈａｉ　ａｎｇ　ｍａｏ　ｄｉａｎ　ｚｉ　ｓｈａｎｇ　ｗｕ　ｙｏｕ　ｘｉａｎ　ｇｏｎｇｓｉ,,外国会社等,,,,,,,,ｓｈａｎｇ　ｈａｉ　ｓｈｉ　ｆｅｎｇ　ｘｉａｎ　ｑｕ　ｑｉｎｇ　ｃｕｎ　ｚｈｅｎ　ｇｕａｎｇ　ｍｉｎｇ　ｊｉｎ　ｑｉａｎ　ｇｏｎｇ　ｌｕ　３２９８ｈａｏ　ｄｉ　７ｚｈｕａｎｇ　１１９１ｓｈｉ,,,,,,2023-10-18,1,,,,,シャンハイアンマウデンシショウムユウゲンカイシャ,0
2206,8010001239190,新規,0,2023-10-18,2023-10-18,株式会社Ｏｒａｎｇｅｄａｌｅ,,株式会社,東京都,中央区,銀座６丁目１３番９号ｂｉｚｃｕｂｅ,,13,102,1040061,,,,,,,2023-10-18,1,,,,,オレンジデール,0
2208,8010001239315,新規,0,2023-10-18,2023-10-18,株式会社ＮＩパートナーズ,,株式会社,東京都,中央区,銀座１丁目２２番１１号銀座大竹ビジデンス２Ｆ,,13,102,1040061,,,,,,,2023-10-18,1,,,,,エヌアイパートナーズ,0
2209,8010001239356,新規,0,2023-10-18,2023-10-18,株式会社いつも．ＳＮＩＦＦ,,株式会社,東京都,千代田区,有楽町１丁目１３番２号第一生命日比谷ファースト,,13,101,1000006,,,,,,,2023-10-18,1,,,,,イツモスニフ,0
2215,8010003041909,新規,0,2023-10-18,2023-10-18,イーリス１号合同会社,,合同会社,東京都,千代田区,霞が関３丁目２番５号,,13,101,1000013,,,,,,,2023-10-18,1,,,,,イーリスイチゴウ,0
2216,8010003041966,新規,0,2023-10-18,2023-10-18,合同会社アドバンストプロテクションズ,,合同会社,東京都,中央区,銀座１丁目１２－４Ｎ＆ＥＢＬＤ．７階,,13,102,1040061,,,,,,,2023-10-18,1,,,,,アドバンストプロテクションズ,0
2217,8010003041974,新規,0,2023-10-18,2023-10-18,ＹＯＲＩＭＯＲＥ合同会社,,合同会社,東京都,中央区,日本橋室町１丁目１１番１２号日本橋水野ビル７階,,13,102,1030022,,,,,,,2023-10-18,1,,,,,ヨリモア,0
2218,8010003041982,新規,0,2023-10-18,2023-10-18,黒岩レジデンシャル合同会社１,,合同会社,東京都,千代田区,丸の内３丁目１番１号東京共同会計事務所内,,13,101,1000005,,,,,,,2023-10-18,1,,,,,クロイワレジデンシャルイチ,0
2220,8010101015855,新規,0,2023-10-18,2023-10-18,東京国際曙商事株式会社,,株式会社,東京都,八王子市,追分町７番９号グランエスト八王子２階,,13,201,1920056,,,,,,,2023-10-18,1,,,,,トウキョウコクサイアケボノショウジ,0
2227,8010401177858,新規,0,2023-10-18,2023-10-18,株式会社サマーツリー,,株式会社,東京都,港区,赤坂３丁目８番８号,,13,103,1070052,,,,,,,2023-10-18,1,,,,,サマーツリー,0
2228,8010401177866,新規,0,2023-10-18,2023-10-18,株式会社Ｐｕｒｉ　Ｐｒｉｎｃｅ,,株式会社,東京都,港区,六本木７丁目１５番７号,,13,103,1060032,,,,,,,2023-10-18,1,,,,,プリプリンス,0
2229,8010401177890,新規,0,2023-10-18,2023-10-18,株式会社Ｗａｋｉｒカンパニー,,株式会社,東京都,港区,赤坂３丁目８番８号,,13,103,1070052,,,,,,,2023-10-18,1,,,,,ワキラカンパニー,0
2232,8010403031063,新規,0,2023-10-18,2023-10-18,合同会社Ｎｅｘｔ　Ｗｏｎｄｅｒ,,合同会社,東京都,港区,六本木７丁目７－７Ｔｒｉ－ＳｅｖｅｎＲｏｐｐｏｎｇｉ８階,,13,103,1060032,,,,,,,2023-10-18,1,,,,,ネクストワンダー,0
2233,8010403031179,新規,0,2023-10-18,2023-10-18,合同会社ＲＯＯＭ５,,合同会社,東京都,港区,南青山２丁目２番１５号ｗｉｎ青山ビル,,13,103,1070062,,,,,,,2023-10-18,1,,,,,ルームファイブ,0
2234,8010403031204,新規,0,2023-10-18,2023-10-18,サクマコーポレーション合同会社,,合同会社,東京都,港区,南青山２丁目２番１５号,,13,103,1070062,,,,,,,2023-10-18,1,,,,,サクマコーポレーション,0
2236,8010601063965,新規,0,2023-10-18,2023-10-18,株式会社遠遠,,株式会社,東京都,江東区,亀戸９丁目１４番１５－４０１号,,13,108,1360071,,,,,,,2023-10-18,1,,,,,エンエン,0
2237,8010601063973,新規,0,2023-10-18,2023-10-18,株式会社Ｌｉｎｋ　Ｊａｐａｎ,,株式会社,東京都,江東区,豊洲５丁目１番１３－２６０７号,,13,108,1350061,,,,,,,2023-10-18,1,,,,,リンクジャパン,0
2246,8010801034428,新規,0,2023-10-18,2023-10-18,エムワイ株式会社,,株式会社,東京都,大田区,中央１丁目２０番４号,,13,111,1430024,,,,,,,2023-10-18,1,,,,,エムワイ,0
2248,8010903008528,新規,0,2023-10-18,2023-10-18,合同会社Ｈｘ,,合同会社,東京都,世田谷区,鎌田３丁目２４番４号,,13,112,1570077,,,,,,,2023-10-18,1,,,,,エイチエックス,0
2254,8011001157639,新規,0,2023-10-18,2023-10-18,株式会社夜幸醒,,株式会社,東京都,渋谷区,宇田川町２番１－２０６号,,13,113,1500042,,,,,,,2023-10-18,1,,,,,ヤコウセイ,0
2255,8011003017717,新規,0,2023-10-18,2023-10-18,ＡｌｔａＢｏｘ合同会社,,合同会社,東京都,渋谷区,道玄坂１丁目１０番８号渋谷道玄坂東急ビル２Ｆ－Ｃ,,13,113,1500043,,,,,,,2023-10-18,1,,,,,アルタボックス,0
2263,8011103013608,新規,0,2023-10-18,2023-10-18,合同会社クアドラ,,合同会社,東京都,新宿区,西新宿３丁目３番１３号西新宿水間ビル２Ｆ,,13,104,1600023,,,,,,,2023-10-18,1,,,,,クアドラ,0
2268,8011501029874,新規,0,2023-10-18,2023-10-18,株式会社ＤＡ,,株式会社,東京都,北区,浮間１丁目１番１４号リムジンビル３４３,,13,117,1150051,,,,,,,2023-10-18,1,,,,,ディーエー,0
2269,8011501029882,新規,0,2023-10-18,2023-10-18,株式会社蒼昊,,株式会社,東京都,北区,豊島６丁目７番３号,,13,117,1140003,,,,,,,2023-10-18,1,,,,,ソウコウ,0
2271,8011503005799,新規,0,2023-10-18,2023-10-18,合同会社和泉,,合同会社,東京都,荒川区,西日暮里２丁目１２番１号コリュックス日暮里１０１号室,,13,118,1160013,,,,,,,2023-10-18,1,,,,,イズミ,0
2275,8011801043187,新規,0,2023-10-18,2023-10-18,株式会社ゼロイチ,,株式会社,東京都,足立区,谷中４丁目１８番９－４０２号,,13,121,1200006,,,,,,,2023-10-18,1,,,,,ゼロイチ,0
2281,8012303001872,新規,0,2023-10-18,2023-10-18,合同会社ｍａｓｋｙ,,合同会社,東京都,町田市,鶴間１丁目１６番地１３メルベーユドルミＦ,,13,209,1940004,,,,,,,2023-10-18,1,,,,,マスキー,0
2283,8012403006235,新規,0,2023-10-18,2023-10-18,合同会社プレシャス,,合同会社,東京都,三鷹市,大沢３丁目３番１６号,,13,204,1810015,,,,,,,2023-10-18,1,,,,,プレシャス,0
2293,8020001154001,新規,0,2023-10-18,2023-10-18,株式会社伸栄,,株式会社,神奈川県,横浜市都筑区,南山田３丁目１２番１８号,,14,118,2240029,,,,,,,2023-10-18,1,,,,,シンエイ,0
2303,8030001156574,新規,0,2023-10-18,2023-10-18,株式会社昇,,株式会社,埼玉県,蕨市,塚越１丁目１４番１３号,,11,223,3350002,,,,,,,2023-10-18,1,,,,,ノボル,0
2304,8030001156657,新規,0,2023-10-18,2023-10-18,株式会社インフィニティ,,株式会社,埼玉県,熊谷市,石原２丁目１４番地１ビレッタ熊谷１０２号,,11,202,3600816,,,,,,,2023-10-18,1,,,,,インフィニティ,0
2305,8030001156723,新規,0,2023-10-18,2023-10-18,ウェルテクス株式会社,,株式会社,埼玉県,さいたま市大宮区,櫛引町１丁目４２５番地１ウェルネス４２５－１０２,,11,103,3300851,,,,,,,2023-10-18,1,,,,,ウェルテクス,0
2306,8030001156772,新規,0,2023-10-18,2023-10-18,株式会社ＲＥＧＯ．,,株式会社,埼玉県,さいたま市浦和区,東高砂町１４番１号,,11,107,3300055,,,,,,,2023-10-18,1,,,,,レゴ,0
2311,8040001130545,新規,0,2023-10-18,2023-10-18,株式会社ＭｏｅＬｉｏ,,株式会社,千葉県,船橋市,海神１丁目２５番１号,,12,204,2730021,,,,,,,2023-10-18,1,,,,,モエリオ,0
2315,8040003023557,新規,0,2023-10-18,2023-10-18,合同会社ワウム,,合同会社,千葉県,船橋市,西船３丁目６番６号,,12,204,2730031,,,,,,,2023-10-18,1,,,,,ワウム,0
2316,8050001053646,新規,0,2023-10-18,2023-10-18,イー・アール・ホールディングス２株式会社,,株式会社,茨城県,牛久市,牛久町２７９番１号,,08,219,3001221,,,,,,,2023-10-18,1,,,,,イーアールホールディングスツー,0
2317,8050001053662,新規,0,2023-10-18,2023-10-18,株式会社ＳＴＹＬＥ　ＴＥＣ,,株式会社,茨城県,水戸市,川又町２１３番地の５,,08,201,3111112,,,,,,,2023-10-18,1,,,,,スタイルテック,0
2318,8050003007880,新規,0,2023-10-18,2023-10-18,合同会社マイエステート,,合同会社,茨城県,取手市,寺田６３５２番地エステ・スクエア取手壱番館７０５号,,08,217,3020021,,,,,,,2023-10-18,1,,,,,マイエステート,0
2329,8080401026793,新規,0,2023-10-18,2023-10-18,株式会社学びの支援,,株式会社,静岡県,浜松市中区,旭町６番地の１一条タワー９０３号,,22,131,4300927,,,,,,,2023-10-18,1,,,,,マナビノシエン,0
2331,8080403004896,新規,0,2023-10-18,2023-10-18,合同会社ＢＹＴＥ,,合同会社,静岡県,浜松市中区,元城町２２３番地３９,,22,131,4300946,,,,,,,2023-10-18,1,,,,,バイト,0
2345,8120001258857,新規,0,2023-10-18,2023-10-18,ｙｏｕ株式会社,,株式会社,大阪府,大阪市中央区,上本町西５丁目３番１９号上六原田ビル２階,,27,128,5420062,,,,,,,2023-10-18,1,,,,,ユー,0
2348,8120003025000,新規,0,2023-10-18,2023-10-18,合同会社ＴＧＣ,,合同会社,大阪府,大阪市住之江区,中加賀屋２丁目１５‐２０,,27,125,5590017,,,,,,,2023-10-18,1,,,,,ティジィシィ,0
2349,8120003025108,新規,0,2023-10-18,2023-10-18,合同会社Ｌｉｃｈｔ,,合同会社,大阪府,大阪市平野区,長吉出戸４丁目３番２７号,,27,126,5470011,,,,,,,2023-10-18,1,,,,,リヒト,0
2351,8120101068405,新規,0,2023-10-18,2023-10-18,株式会社ユニティーコア,,株式会社,大阪府,岸和田市,並松町２５－１２,,27,202,5960052,,,,,,,2023-10-18,1,,,,,ユニティーコア,0
2362,8130001075434,新規,0,2023-10-18,2023-10-18,株式会社京滋ビルド,,株式会社,京都府,京都市西京区,桂上野西町２９３番地ベネッセ桂川２０３号室,,26,111,6158006,,,,,,,2023-10-18,1,,,,,ケイジビルド,0
2363,8130001075509,新規,0,2023-10-18,2023-10-18,多益食研所株式会社,,株式会社,京都府,京都市南区,西九条唐戸町１８番４－１０２,,26,107,6018447,,,,,,,2023-10-18,1,,,,,タエキショクケンショ,0
2367,8130003009051,新規,0,2023-10-18,2023-10-18,合同会社ＲＹＵ,,合同会社,京都府,京都市下京区,天使突抜４丁目４７２－１,,26,106,6008456,,,,,,,2023-10-18,1,,,,,リュウ,0
2376,8140001131979,新規,0,2023-10-18,2023-10-18,株式会社陽向設備,,株式会社,兵庫県,宝塚市,末成町１９番９号,,28,214,6650044,,,,,,,2023-10-18,1,,,,,ヒナタセツビ,0
2377,8140001131995,新規,0,2023-10-18,2023-10-18,株式会社Ｋ‐ＴＲＵＳＴ,,株式会社,兵庫県,神戸市中央区,熊内町５丁目２番２４－４０２号,,28,110,6510056,,,,,,,2023-10-18,1,,,,,ケートラスト,0
2378,8140001132003,新規,0,2023-10-18,2023-10-18,株式会社ＢＩＲＥＮ　ｄｒ　ｙｏｕ,,株式会社,兵庫県,神戸市東灘区,住吉宮町５丁目９番２３－３０２号,,28,101,6580053,,,,,,,2023-10-18,1,,,,,ビレンドクターユー,0
2379,8140003019685,新規,0,2023-10-18,2023-10-18,合同会社ＬＵＣＹ,,合同会社,兵庫県,加東市,南山３丁目２２番地９,,28,228,6731341,,,,,,,2023-10-18,1,,,,,,0
2381,8150001026815,新規,0,2023-10-18,2023-10-18,株式会社佑栄建設,,株式会社,奈良県,奈良市,六条町１７２番地の２,,29,201,6308041,,,,,,,2023-10-18,1,,,,,ユウエイケンセツ,0
2402,8180001158507,新規,0,2023-10-18,2023-10-18,ＢＯＳ商事株式会社,,株式会社,愛知県,愛西市,佐屋町堤西１１７番１,,23,232,4960901,,,,,,,2023-10-18,1,,,,,ボスショウジ,0
2403,8180001158515,新規,0,2023-10-18,2023-10-18,株式会社江南スクールランチ,,株式会社,愛知県,江南市,古知野町牧森１０７番地,,23,217,4838278,,,,,,,2023-10-18,1,,,,,コウナンスクールランチ,0
2404,8180001158523,新規,0,2023-10-18,2023-10-18,株式会社栄生商事,,株式会社,愛知県,名古屋市南区,豊田５丁目１３番３８号,,23,112,4570841,,,,,,,2023-10-18,1,,,,,サコウショウジ,0
2405,8180001158548,新規,0,2023-10-18,2023-10-18,株式会社佐藤デザイン事務所,,株式会社,愛知県,名古屋市中区,新栄１丁目２２番１１号,,23,106,4600007,,,,,,,2023-10-18,1,,,,,サトウデザインジムショ,0
2406,8180001158572,新規,0,2023-10-18,2023-10-18,株式会社太勝,,株式会社,愛知県,名古屋市名東区,一社４丁目１１４番地の１シャンテニエ２Ａ号,,23,115,4650093,,,,,,,2023-10-18,1,,,,,タイショウ,0
2420,8190003004484,新規,0,2023-10-18,2023-10-18,合同会社Ｍｏｏｎ　Ｊｅｌｌｙｆｉｓｈ　Ｏｐｔｉｃｓ,,合同会社,三重県,伊勢市,旭町５４‐１,,24,203,5160045,,,,,,,2023-10-18,1,,,,,ムーンジェリーフィッシュオプティクス,0
2421,8200001041825,新規,0,2023-10-18,2023-10-18,株式会社ＩＢＡＤＨ　ＴＲＡＤＩＮＧ,,株式会社,岐阜県,土岐市,下石町６６０番地の２９,,21,212,5095202,,,,,,,2023-10-18,1,,,,,イバデュトレーディング,0
2422,8200001041833,新規,0,2023-10-18,2023-10-18,株式会社ＳｙｓＭｉｘ,,株式会社,岐阜県,羽島市,竹鼻町狐穴１８８２番地１青木マンション３０３号,,21,209,5016232,,,,,,,2023-10-18,1,,,,,シスミックス,0
2423,8200003006116,新規,0,2023-10-18,2023-10-18,合同会社ルミナスワン,,合同会社,岐阜県,岐阜市,水主町２丁目３７番地,,21,201,5008259,,,,,,,2023-10-18,1,,,,,ルミナスワン,0
2437,8290001103294,新規,0,2023-10-18,2023-10-18,Ｏｕｃｈｉ工房株式会社,,株式会社,福岡県,糸島市,波多江駅北３丁目８－１,,40,230,8191107,,,,,,,2023-10-18,1,,,,,オウチコウボウ,0
2439,8290003014507,新規,0,2023-10-18,2023-10-18,合同会社ＨＵＹＵ,,合同会社,福岡県,福津市,宮司４丁目２９番１０号,,40,224,8113305,,,,,,,2023-10-18,1,,,,,フーユー,0
2440,8290801029961,新規,0,2023-10-18,2023-10-18,金丸鉱油株式会社,,株式会社,福岡県,北九州市門司区,黒川西１丁目２番３号,,40,101,8010825,,,,,,,2023-10-18,1,,,,,カナマルコウユ,0
2442,8310001018663,新規,0,2023-10-18,2023-10-18,株式会社本田プランニング,,株式会社,長崎県,長崎市,万屋町５番１４－９０５号,,42,201,8500852,,,,,,,2023-10-18,1,,,,,ホンダプランニング,0
2443,8320001020081,新規,0,2023-10-18,2023-10-18,株式会社耶馬渓ファーム,,株式会社,大分県,中津市,耶馬溪町大字金吉５１７４番地１９,,44,203,8710432,,,,,,,2023-10-18,1,,,,,ヤバケイファーム,0
2444,8320003004207,新規,0,2023-10-18,2023-10-18,合同会社一栄総建,,合同会社,大分県,大分市,大在浜２丁目８番１４－１号ブリス房前５,,44,201,8700252,,,,,,,2023-10-18,1,,,,,イチエイソウケン,0
2456,8350001018619,新規,0,2023-10-18,2023-10-18,株式会社もみじ,,株式会社,宮崎県,宮崎市,橘通東３丁目５番２５号,,45,201,8800805,,,,,,,2023-10-18,1,,,,,モミジ,0
2460,8360001032701,新規,0,2023-10-18,2023-10-18,Ｙｏｌｏ株式会社,,株式会社,沖縄県,国頭郡恩納村,字真栄田９３２番地２－２Ｃ,,47,311,9040417,,,,,,,2023-10-18,1,,,,,ヨロ,0
2465,8370003006280,新規,0,2023-10-18,2023-10-18,合同会社サクセス,,合同会社,宮城県,仙台市青葉区,小田原７丁目５－４６,,04,101,9800003,,,,,,,2023-10-18,1,,,,,サクセス,0
2470,8400001016427,新規,0,2023-10-18,2023-10-18,株式会社ブリス,,株式会社,岩手県,花巻市,諏訪３９９番地１,,03,205,0250033,,,,,,,2023-10-18,1,,,,,ブリス,0
2474,8410005006547,新規,0,2023-10-18,2023-10-18,農事組合法人みやは,,その他の設立登記法人,秋田県,大仙市,太田町三本扇字新山後２番地,,05,212,0191602,,,,,,,2023-10-18,1,,,,,ミヤハ,0
2476,8450001014120,新規,0,2023-10-18,2023-10-18,株式会社モリヤカンパニー,,株式会社,北海道,富良野市,日の出町２番１号,,01,229,0760025,,,,,,,2023-10-18,1,,,,,モリヤカンパニー,0
2478,8470001019852,新規,0,2023-10-18,2023-10-18,株式会社イーサムワンズ,,株式会社,香川県,高松市,木太町４５３番地１丸忠第１３ビル１０７,,37,201,7600080,,,,,,,2023-10-18,1,,,,,イーサムワンズ,0
2482,8480001012261,新規,0,2023-10-18,2023-10-18,株式会社光建装,,株式会社,徳島県,板野郡北島町,鯛浜字川久保１３２番地,,36,402,7710204,,,,,,,2023-10-18,1,,,,,ヒカルケンソウ,0
2483,8480003002038,新規,0,2023-10-18,2023-10-18,合同会社プリム,,合同会社,徳島県,徳島市,秋田町６丁目１５の２,,36,201,7700934,,,,,,,2023-10-18,1,,,,,プリム,0
2484,8500001025244,新規,0,2023-10-18,2023-10-18,Ｒｅｂｏｒｎ株式会社,,株式会社,愛媛県,松山市,久米窪田町３３７番地１テクノプラザ愛媛内,00132299,38,201,7911101,,,,,,,2023-10-18,1,,,,,リボーン,0
2485,8500001025252,新規,0,2023-10-18,2023-10-18,いばらぎ縫製株式会社,,株式会社,愛媛県,西条市,氷見丙１２５番地１,,38,206,7930073,,,,,,,2023-10-18,1,,,,,イバラギホウセイ,0
2486,8500003003124,新規,0,2023-10-18,2023-10-18,合同会社ｍａｋｉｎｇテンぺい,,合同会社,愛媛県,松山市,南梅本町１２９８番地の１１,,38,201,7910245,,,,,,,2023-10-18,1,,,,,メイキングテンペイ,0
2493,9010003041924,新規,0,2023-10-18,2023-10-18,合同会社ＹＫＬ　ＥＳＳ４号,,合同会社,東京都,中央区,日本橋浜町２丁目７番１号小田ビル３Ｆ,,13,102,1030007,,,,,,,2023-10-18,1,,,,,ワイケイエルイーエスエスヨンゴウ,0
2494,9010003041932,新規,0,2023-10-18,2023-10-18,合同会社かんてつ,,合同会社,東京都,中央区,新川１丁目３番２１号３０２,,13,102,1040033,,,,,,,2023-10-18,1,,,,,カンテツ,0
2495,9010003041957,新規,0,2023-10-18,2023-10-18,Ａｓｉａ　Ｌｉｖｉｎｇ　Ｊａｐａｎ合同会社,,合同会社,東京都,千代田区,大手町２丁目６番４号ＴＯＫＹＯＴＯＲＣＨ常盤橋タワーｘＬＩＮＫ常盤橋,00132292,13,101,1000004,,,,,,,2023-10-18,1,,,,,アジアリビングジャパン,0
2496,9010003041981,新規,0,2023-10-18,2023-10-18,黒岩レジデンシャルホールディング合同会社,,合同会社,東京都,千代田区,丸の内３丁目１番１号東京共同会計事務所内,,13,101,1000005,,,,,,,2023-10-18,1,,,,,クロイワレジデンシャルホールディング,0
2499,9010005037400,新規,0,2023-10-18,2023-10-18,黒岩レジデンシャル一般社団法人,,その他の設立登記法人,東京都,千代田区,丸の内３丁目１番１号東京共同会計事務所内,,13,101,1000005,,,,,,,2023-10-18,1,,,,,クロイワレジデンシャル,0
2502,9010101015854,新規,0,2023-10-18,2023-10-18,株式会社ＳＫ不動産,,株式会社,東京都,八王子市,大楽寺町４９８番地１,,13,201,1930816,,,,,,,2023-10-18,1,,,,,エスケーフドウサン,0
2508,9010401177849,新規,0,2023-10-18,2023-10-18,ＭＹＡＮＭＡＲ　ＧＡＲＤＥＮ株式会社,,株式会社,東京都,港区,芝２丁目２８－１１ＬｉｎｋＳｐａｃｅ芝３１０,,13,103,1050014,,,,,,,2023-10-18,1,,,,,ミャンマーガーデン,0
2509,9010401177865,新規,0,2023-10-18,2023-10-18,株式会社Ｇｌｏｂａｌ　Ｐｅｎ,,株式会社,東京都,港区,南青山６丁目１２番１０号ユニティ５０２,,13,103,1070062,,,,,,,2023-10-18,1,,,,,グローバルペン,0
2512,9010403031161,新規,0,2023-10-18,2023-10-18,ｉＳｅｎｓｅ　ｌａｂ合同会社,,合同会社,東京都,港区,北青山１丁目４番５号ＶＯＲＴ青山一丁目Ｄｕａｌ’ｓ３Ｆ,,13,103,1070061,,,,,,,2023-10-18,1,,,,,アイセンスラボ,0
2515,9010501051193,新規,0,2023-10-18,2023-10-18,株式会社太陽,,株式会社,東京都,台東区,千束４丁目３７番８号,,13,106,1110031,,,,,,,2023-10-18,1,,,,,タイヨウ,0
2516,9010505003455,新規,0,2023-10-18,2023-10-18,特定非営利活動法人国際盆踊り協会,,その他の設立登記法人,東京都,台東区,花川戸２丁目２番５号花川戸サニーマンション８０３,,13,106,1110033,,,,,,,2023-10-18,1,,,,,コクサイボンオドリキョウカイ,0
2526,9010801034427,新規,0,2023-10-18,2023-10-18,株式会社ＢｌａｚｅＣｏｒｅ,,株式会社,東京都,大田区,蒲田１丁目２８番１８号シャトー蒲田５－２Ｂ,,13,111,1440052,,,,,,,2023-10-18,1,,,,,ブレイズコア,0
2527,9010803004725,新規,0,2023-10-18,2023-10-18,合同会社ＫｅｉＣ,,合同会社,東京都,大田区,西六郷２丁目５８番６号,,13,111,1440056,,,,,,,2023-10-18,1,,,,,ケーイーシー,0
2529,9010901054028,新規,0,2023-10-18,2023-10-18,株式会社Ａｎｄ　Ａｄａｐｔ,,株式会社,東京都,世田谷区,下馬６丁目１９番３－５０２号,,13,112,1540002,,,,,,,2023-10-18,1,,,,,アンドアダプト,0
2540,9011001157539,新規,0,2023-10-18,2023-10-18,ＥＷ　Ｉｍｐａｃｔ　Ｃｏｎｓｕｌｔｉｎｇ株式会社,,株式会社,東京都,渋谷区,富ヶ谷１丁目１４－１４スタンフォードアネックスビル３Ｆ・４Ｆ,,13,113,1510063,,,,,,,2023-10-18,1,,,,,イーダブリューインパクトコンサルティング,0
2541,9011001157638,新規,0,2023-10-18,2023-10-18,株式会社Ｓｔａｒｔｕｐ,,株式会社,東京都,渋谷区,道玄坂２丁目１５番１号ノア道玄坂５０１号室,,13,113,1500043,,,,,,,2023-10-18,1,,,,,,0
2542,9011001157646,新規,0,2023-10-18,2023-10-18,株式会社エイコーテック,,株式会社,東京都,渋谷区,恵比寿３丁目３７番１９－２０２号,,13,113,1500013,,,,,,,2023-10-18,1,,,,,エイコーテック,0
2543,9011003017716,新規,0,2023-10-18,2023-10-18,ブリューテック合同会社,,合同会社,東京都,渋谷区,道玄坂１丁目１０番８号渋谷道玄坂東急ビル２Ｆ－Ｃ,,13,113,1500043,,,,,,,2023-10-18,1,,,,,ブリューテック,0
2544,9011003017749,新規,0,2023-10-18,2023-10-18,ＷＥＸＰＡＮ合同会社,,合同会社,東京都,渋谷区,渋谷２丁目１９－１５宮益坂ビルディング６０９,,13,113,1500002,,,,,,,2023-10-18,1,,,,,ウェクスパン,0
2546,9011101104787,新規,0,2023-10-18,2023-10-18,株式会社Ｇｒｏｗ　ｕｐ,,株式会社,東京都,新宿区,北新宿１丁目１８番２号寿マンション１０１,,13,104,1690074,,,,,,,2023-10-18,1,,,,,グロウアップ,0
2552,9011103013607,新規,0,2023-10-18,2023-10-18,合同会社みんなで育児,,合同会社,東京都,新宿区,新宿７丁目１２番１１号７０１,,13,104,1600022,,,,,,,2023-10-18,1,,,,,ミンナデイクジ,0
2559,9011403004140,新規,0,2023-10-18,2023-10-18,ＭＳナビゲーション合同会社,,合同会社,東京都,板橋区,本町４０－６－８０２,,13,119,1730001,,,,,,,2023-10-18,1,,,,,エムエスナビゲーション,0
2560,9011501029881,新規,0,2023-10-18,2023-10-18,百創盈株式会社,,株式会社,東京都,北区,中十条３丁目３３番３号興和マンション１０３室,,13,117,1140032,,,,,,,2023-10-18,1,,,,,ヒャクソウエイ,0
2573,9011801043194,新規,0,2023-10-18,2023-10-18,株式会社旭林研,,株式会社,東京都,足立区,大谷田１丁目１３－１３,,13,121,1200001,,,,,,,2023-10-18,1,,,,,アサヒリンケン,0
2578,9012701017890,新規,0,2023-10-18,2023-10-18,ｃｒｙｐｔｏ　ｃｏｎｎｅｃｔｉｏｎ株式会社,,株式会社,東京都,西東京市,新町５丁目３番２号２０１,,13,229,2020023,,,,,,,2023-10-18,1,,,,,クリプトコネクション,0
2584,9013301051495,新規,0,2023-10-18,2023-10-18,株式会社アート・ミル,,株式会社,東京都,豊島区,東池袋１丁目３４番５号いちご東池袋ビル６階,,13,116,1700013,,,,,,,2023-10-18,1,,,,,アートミル,0
2585,9013303006836,新規,0,2023-10-18,2023-10-18,合同会社ｍｅｙｍａ,,合同会社,東京都,豊島区,南池袋２丁目１９番１４－４０３号,,13,116,1710022,,,,,,,2023-10-18,1,,,,,メイマ,0
2592,9020001154000,新規,0,2023-10-18,2023-10-18,株式会社ティーアンドエムデザイン,,株式会社,神奈川県,横浜市栄区,長沼町７９１－４,,14,115,2440841,,,,,,,2023-10-18,1,,,,,ティーアンドエムデザイン,0
2595,9020003024795,新規,0,2023-10-18,2023-10-18,合同会社浜梨,,合同会社,神奈川県,横浜市港北区,篠原西町１７番２２－２号,,14,109,2220025,,,,,,,2023-10-18,1,,,,,ハマナス,0
2596,9020003024812,新規,0,2023-10-18,2023-10-18,ＪＩＮ’Ｓ・ＨＯＭＥＳ合同会社,,合同会社,神奈川県,横浜市中区,桜木町２丁目２港陽ビル３１８号室,,14,104,2310062,,,,,,,2023-10-18,1,,,,,ジンズホームズ,0
2597,9020003024829,新規,0,2023-10-18,2023-10-18,Ｇ＆Ｍ合同会社,,合同会社,神奈川県,横浜市青葉区,大場町６９９―１６,,14,117,2250023,,,,,,,2023-10-18,1,,,,,ジーアンドエム,0
2601,9021001080475,新規,0,2023-10-18,2023-10-18,株式会社一転,,株式会社,神奈川県,相模原市南区,相模大野７丁目１８－９スターハイツ相模大野駅前２１０,,14,153,2520303,,,,,,,2023-10-18,1,,,,,イッテン,0
2602,9021001080491,新規,0,2023-10-18,2023-10-18,大発貿易株式会社,,株式会社,神奈川県,秦野市,曽屋５７７６番地の４,,14,211,2570031,,,,,,,2023-10-18,1,,,,,タイハツボウエキ,0
2607,9021003013689,新規,0,2023-10-18,2023-10-18,合同会社テックハウス,,合同会社,神奈川県,鎌倉市,鎌倉山４丁目３番１－１０１号,,14,204,2480031,,,,,,,2023-10-18,1,,,,,テックハウス,0
2615,9030005021419,新規,0,2023-10-18,2023-10-18,一般財団法人加藤学育英財団,,その他の設立登記法人,埼玉県,越谷市,蒲生西町１丁目１番５４号,,11,222,3430835,,,,,,,2023-10-18,1,,,,,カトウマナブイクエイザイダン,0
2633,9040003023457,新規,0,2023-10-18,2023-10-18,合同会社Ｋ　Ｏｆｆｉｃｅ,,合同会社,千葉県,千葉市稲毛区,稲毛３丁目９番１９号,,12,103,2630034,,,,,,,2023-10-18,1,,,,,ケーオフィス,0
2636,9050001053653,新規,0,2023-10-18,2023-10-18,株式会社メディカルサンライズ,,株式会社,茨城県,稲敷市,犬塚字後通田１５３８番地７,,08,229,3000507,,,,,,,2023-10-18,1,,,,,メディカルサンライズ,0
2637,9050003007871,新規,0,2023-10-18,2023-10-18,合同会社わんわんＢａｒｂａｒ,,合同会社,茨城県,坂東市,岩井４３５８番地１３,,08,228,3060631,,,,,,,2023-10-18,1,,,,,ワンワンバーバー,0
2643,9080003003075,新規,0,2023-10-18,2023-10-18,清水ＳＵＳ合同会社,,合同会社,静岡県,静岡市清水区,横砂東町３０番１３号,,22,103,4240032,,,,,,,2023-10-18,1,,,,,シミズエスユーエス,0
2645,9080105006372,新規,0,2023-10-18,2023-10-18,一般社団法人利生の月くおん,,その他の設立登記法人,静岡県,駿東郡長泉町,下土狩３７０番地の１ディアドール長泉６０１号,,22,342,4110943,,,,,,,2023-10-18,1,,,,,リショウノツキクオン,0
2646,9080401026792,新規,0,2023-10-18,2023-10-18,株式会社トリリオン,,株式会社,静岡県,浜松市中区,高丘東１丁目６番５８号,,22,131,4338117,,,,,,,2023-10-18,1,,,,,トリリオン,0
2648,9080405007590,新規,0,2023-10-18,2023-10-18,税理士法人七福神,,その他の設立登記法人,静岡県,浜松市中区,富塚町２０５９番地の３,,22,131,4328002,,,,,,,2023-10-18,1,,,,,シチフクジン,0
2651,9110001037922,新規,0,2023-10-18,2023-10-18,株式会社リズ,,株式会社,新潟県,新潟市中央区,万代５丁目７番１－１２０７号,,15,103,9500088,,,,,,,2023-10-18,1,,,,,リズ,0
2652,9110001037930,新規,0,2023-10-18,2023-10-18,株式会社Ｖ’ｓ,,株式会社,新潟県,新潟市中央区,山二ツ１４０６番地１,,15,103,9500922,,,,,,,2023-10-18,1,,,,,ヴィーズ,0
2653,9110003005183,新規,0,2023-10-18,2023-10-18,合同会社Ｆ．Ｉ．Ｗ．,,合同会社,新潟県,新潟市中央区,東大通２丁目５番１号,,15,103,9500087,,,,,,,2023-10-18,1,,,,,エフアイダブリュー,0
2663,9120001258880,新規,0,2023-10-18,2023-10-18,パワーベース貿易株式会社,,株式会社,大阪府,大阪市中央区,瓦町１丁目３－２,,27,128,5410048,,,,,,,2023-10-18,1,,,,,パワーベースボウエキ,0
2670,9120103005495,新規,0,2023-10-18,2023-10-18,合同会社ＮＥＷ　ＬＩＦＥ,,合同会社,大阪府,堺市西区,浜寺船尾町西２丁３６０－２,,27,144,5928342,,,,,,,2023-10-18,1,,,,,ニューライフ,0
2672,9120903004878,新規,0,2023-10-18,2023-10-18,Ｎ．Ｃ．ＬＩＮＥ合同会社,,合同会社,大阪府,箕面市,彩都粟生南２丁目３番４６号（１０１号）,,27,220,5620028,,,,,,,2023-10-18,1,,,,,エヌシーライン,0
2674,9122003002705,新規,0,2023-10-18,2023-10-18,合同会社Ｆｌｏｗｅｒ　Ｆｏｒｅｓｔ,,合同会社,大阪府,八尾市,教興寺３丁目６５,,27,212,5810874,,,,,,,2023-10-18,1,,,,,フラワーフォレスト,0
2676,9130003009050,新規,0,2023-10-18,2023-10-18,ＮＣ合同会社,,合同会社,京都府,京都市左京区,田中西樋ノ口町５７番地,,26,103,6068221,,,,,,,2023-10-18,1,,,,,エヌシィ,0
2678,9140001131994,新規,0,2023-10-18,2023-10-18,株式会社ストライブＰＬＵＳ,,株式会社,兵庫県,姫路市,網干区大江島古川町１３１,,28,201,6711233,,,,,,,2023-10-18,1,,,,,ストライブプラス,0
2686,9160001025427,新規,0,2023-10-18,2023-10-18,株式会社ユイマルシェ,,株式会社,滋賀県,甲賀市,信楽町西４４４番地２,,25,209,5291831,,,,,,,2023-10-18,1,,,,,ユイマルシェ,0
2702,9180001158497,新規,0,2023-10-18,2023-10-18,株式会社アイエンス,,株式会社,愛知県,春日井市,牛山町２５９１番地４,,23,206,4860901,,,,,,,2023-10-18,1,,,,,アイエンス,0
2703,9180001158506,新規,0,2023-10-18,2023-10-18,株式会社Ｗａｄ‐Ｃｒｅａｔｉｖｅ,,株式会社,愛知県,名古屋市中区,大須１丁目３４番２４号（Ｎａｐａｒｔｍｅｎｔ３０１号）,,23,106,4600011,,,,,,,2023-10-18,1,,,,,ワドクリエイティブ,0
2704,9180001158514,新規,0,2023-10-18,2023-10-18,東海ｉｎｎｏｖａｔｉｏｎ株式会社,,株式会社,愛知県,名古屋市西区,枇杷島５丁目８番２２号,,23,104,4510053,,,,,,,2023-10-18,1,,,,,トウカイイノベーション,0
2706,9180005020389,新規,0,2023-10-18,2023-10-18,一般社団法人日本ＳＮＳマーケティング協会,,その他の設立登記法人,愛知県,名古屋市中区,丸の内３丁目１７番１３号いちご丸の内ビル２Ｆ,,23,106,4600002,,,,,,,2023-10-18,1,,,,,ニホンエスエヌエスマーケティングキョウカイ,0
2715,9200003006115,新規,0,2023-10-18,2023-10-18,合同会社シャンティＲ,,合同会社,岐阜県,岐阜市,徹明通６丁目１番地１,,21,201,5008879,,,,,,,2023-10-18,1,,,,,シャンティアール,0
2724,9240005015663,新規,0,2023-10-18,2023-10-18,ＹＯＵｐｌｕｓ社会保険労務士法人,,その他の設立登記法人,広島県,広島市中区,上八丁堀５番２号ＷＡＫＯ　ＫＭビル３Ｆ,,34,101,7300012,,,,,,,2023-10-18,1,,,,,ユープラス,0
2738,9290003014497,新規,0,2023-10-18,2023-10-18,合同会社ＫＦＧ,,合同会社,福岡県,糟屋郡宇美町,障子岳南３丁目１番８号１Ｆ,,40,341,8112126,,,,,,,2023-10-18,1,,,,,ケーエフジー,0
2740,9290801029960,新規,0,2023-10-18,2023-10-18,株式会社ムラカミ電工,,株式会社,福岡県,北九州市門司区,吉志６丁目１７番１号,,40,101,8000114,,,,,,,2023-10-18,1,,,,,ムラカミデンコウ,0
2741,9290801029969,新規,0,2023-10-18,2023-10-18,株式会社リコウ,,株式会社,福岡県,北九州市門司区,大里東４丁目１番１９号,,40,101,8000022,,,,,,,2023-10-18,1,,,,,リコウ,0
2747,9320001020089,新規,0,2023-10-18,2023-10-18,株式会社Ｅ‐Ｍｉｌｅｓ,,株式会社,大分県,大分市,府内町１丁目５番１号ＣＯＳＭＯＩＩ４０３,00132308,44,201,8700021,,,,,,,2023-10-18,1,,,,,イーマイルス,0
2748,9320003004206,新規,0,2023-10-18,2023-10-18,合同会社こばと屋,,合同会社,大分県,中津市,大字大貞３３３番地７,,44,203,8710153,,,,,,,2023-10-18,1,,,,,コバトヤ,0
2751,9340001026002,新規,0,2023-10-18,2023-10-18,株式会社ＮＡＧＩ,,株式会社,鹿児島県,鹿児島市,草牟田町７番地１０,,46,201,8900015,,,,,,,2023-10-18,1,,,,,ナギ,0
2758,9360005006923,新規,0,2023-10-18,2023-10-18,医療法人としみ会,,その他の設立登記法人,沖縄県,豊見城市,字渡橋名２８９番６２の２,,47,212,9010222,,,,,,,2023-10-18,1,,,,,トシミカイ,0
2761,9370001050536,新規,0,2023-10-18,2023-10-18,株式会社ＴＭＴ,,株式会社,宮城県,仙台市太白区,柳生２丁目６番地の１グランドパレス柳生フェミーナ５０２,,04,104,9811106,,,,,,,2023-10-18,1,,,,,ティーエムティー,0
2770,9400003003166,新規,0,2023-10-18,2023-10-18,合同会社光,,合同会社,岩手県,盛岡市,黒石野１丁目８番１７号Ｃ棟,,03,201,0200111,,,,,,,2023-10-18,1,,,,,ヒカリ,0
2774,9430001090187,新規,0,2023-10-18,2023-10-18,株式会社ＡｐｐｌｅＬｏｄｇｅ,,株式会社,北海道,札幌市豊平区,平岸二条５丁目１番６号,,01,105,0620932,,,,,,,2023-10-18,1,,,,,アップルロッヂ,0
2775,9430001090195,新規,0,2023-10-18,2023-10-18,株式会社Ｔファシリティーズ,,株式会社,北海道,札幌市中央区,北五条西１９丁目２４番２５号－２０１,,01,101,0600005,,,,,,,2023-10-18,1,,,,,ティーファシリティーズ,0
2776,9430001090204,新規,0,2023-10-18,2023-10-18,株式会社おだしカレー,,株式会社,北海道,札幌市中央区,南四条東４丁目７番地１アルファスクエア南４条東５０３号,,01,101,0600054,,,,,,,2023-10-18,1,,,,,オダシカレー,0
2779,9430003015530,新規,0,2023-10-18,2023-10-18,合同会社希望,,合同会社,北海道,札幌市厚別区,もみじ台北５丁目９番９号,,01,108,0040014,,,,,,,2023-10-18,1,,,,,キボウ,0
2781,9480001012260,新規,0,2023-10-18,2023-10-18,株式会社ＫＯＨＮＯ　ＩＮＴＥＲＮＡＴＩＯＮＡＬ,,株式会社,徳島県,小松島市,江田町字腰前４番地６,,36,203,7730014,,,,,,,2023-10-18,1,,,,,コウノインターナショナル,0
2782,9480003002037,新規,0,2023-10-18,2023-10-18,合同会社みはり,,合同会社,徳島県,徳島市,鮎喰町１丁目１２番地の１２,,36,201,7700046,,,,,,,2023-10-18,1,,,,,ミハリ,0
2785,9500001025251,新規,0,2023-10-18,2023-10-18,株式会社アロー不動産,,株式会社,愛媛県,松山市,土居田町３４２番地,,38,201,7900056,,,,,,,2023-10-18,1,,,,,アローフドウサン,0
2787,9500003003123,新規,0,2023-10-18,2023-10-18,カナＬａｂｏ合同会社,,合同会社,愛媛県,松山市,南久米町３５８番地,,38,201,7900924,,,,,,,2023-10-18,1,,,,,カナラボ,0
2788,9700150116343,新規,0,2023-10-18,2023-10-18,ｓｈｅｎｚｈｅｎｓｈｉｂｏｒｕｉｊｉａｈｅｋｅｊｉｆａｚｈａｎｙｏｕｘｉａｎｇｏｎｇｓｉ,,外国会社等,,,,,,,,Ｑｉａｏｓｈｅｎ　ＲｏａｄＧａｏｆａ　Ｃｏｍｍｕｎｉｔｙ，Ｓｈａｈｅ　Ｓｔｒｅｅｔ，Ｎａｎｓｈａｎ　Ｄｉｓｔｒｉｃｔ　２－３Ｅ，Ｕｎｉｔ　２，Ａｐａｒｔｍｅｎｔ　３，Ｑｉａｏｆｅｎｇｇｅ，Ｏｒｉｅｎｔａｌ　Ｓｃｉｅｎｃｅ　Ｓｈｅｎｚｈｅｎ　ｇｏｎｇｄｏｎｇ,,,,,,2023-10-18,1,,,,,シンセンシボールイジャーヘイテクノロジーユウゲンカイシャ,0
