sequenceNumber,corporateNumber,process,correct,updateDate,changeDate,name,nameImageId,kind,prefectureName,cityName,streetNumber,addressImageId,prefectureCode,cityCode,postCode,addressOutside,addressOutsideImageId,closeDate,closeCause,successorCorporateNumber,changeCause,assignmentDate,latest,enName,enPrefectureName,enCityName,enAddressOutside,furigana,hihyoji
31,1010403030550,登記記録の閉鎖等,0,2024-10-24,2024-10-02,ＥＢアドバイザー合同会社,,合同会社,東京都,港区,六本木１丁目４番５号アークヒルズサウスタワー１６階,,13,103,1060032,,,2024-10-02,清算の結了等,,,2023-07-25,1,,,,,イービーアドバイザー,0
35,1010405018032,登記記録の閉鎖等,0,2024-10-24,2024-10-01,築地インベストメンツ特定目的会社,,その他の設立登記法人,東京都,港区,六本木１丁目６番１号泉ガーデンタワー,,13,103,1060032,,,2024-10-01,清算の結了等,,,2019-09-04,1,,,,,ツキジインベストメンツ,0
37,1010701004140,登記記録の閉鎖等,0,2024-10-24,2024-10-01,株式会社水道アセットサービス,,株式会社,東京都,港区,芝１丁目４番７号,,13,103,1050014,,,2024-10-01,合併による解散等,8011101027320,令和６年１０月１日東京都港区芝浦一丁目１番１号株式会社ＮＪＳ・Ｅ＆Ｍ（8011101027320）に合併し解散,2015-10-05,1,,,,,スイドウアセットサービス,0
41,1010802009039,登記記録の閉鎖等,0,2024-10-24,2024-10-16,有限会社田中建築店,,有限会社,東京都,大田区,西六郷１丁目３５番８号,,13,111,1440056,,,2024-10-16,清算の結了等,,,2015-10-05,1,,,,,タナカケンチクテン,0
49,1011001044281,登記記録の閉鎖等,0,2024-10-24,2024-10-01,株式会社ネクシィーズ・トレード,,株式会社,東京都,渋谷区,桜丘町２０番４号,,13,113,1500031,,,2024-10-01,合併による解散等,1011001017948,令和６年１０月１日東京都渋谷区桜丘町２０番４号株式会社ＮＥＸＹＺ．Ｇｒｏｕｐ（1011001017948）に合併し解散,2015-10-05,1,,,,,ネクシィーズトレード,0
63,1011301012401,登記記録の閉鎖等,0,2024-10-24,2024-10-17,株式会社セピ・ココ,,株式会社,千葉県,千葉市緑区,あすみが丘７丁目４６番地６,,12,105,2670066,,,2024-10-17,清算の結了等,,,2015-10-05,1,,,,,セピココ,0
91,1013401006191,登記記録の閉鎖等,0,2024-10-24,2024-10-17,株式会社ハーネスジャパン,,株式会社,北海道,江別市,萌えぎ野西２９番地の１５,,01,217,0670059,,,2024-10-17,清算の結了等,,,2015-10-05,1,,,,,ハーネスジャパン,0
113,1040002090613,登記記録の閉鎖等,0,2024-10-24,2024-10-17,有限会社千歳流,,有限会社,千葉県,柏市,柏６丁目４番２７－４０１号,,12,217,2770005,,,2024-10-17,清算の結了等,,,2015-10-05,1,,,,,,0
129,1100003004276,登記記録の閉鎖等,0,2024-10-24,2024-10-09,合同会社山のいずみ,,合同会社,長野県,下高井郡山ノ内町,大字平穏４１４５番地１,,20,561,3810401,,,2024-10-09,清算の結了等,,,2015-10-05,1,,,,,ヤマノイズミ,0
134,1110002033440,登記記録の閉鎖等,0,2024-10-24,2024-10-16,有限会社ライスセンター魚沼,,有限会社,新潟県,南魚沼市,六日町２３２６番地１,,15,226,9496680,,,2024-10-16,清算の結了等,,,2015-10-05,1,,,,,ライスセンターウオヌマ,0
142,1120001159509,登記記録の閉鎖等,0,2024-10-24,2024-10-17,株式会社エムジェイ・コミュニケーションズ,,株式会社,大阪府,交野市,倉治３丁目８番１７号,,27,230,5760051,,,2024-10-17,清算の結了等,,,2015-10-05,1,,,,,エムジェイコミュニケーションズ,0
148,1120002024397,登記記録の閉鎖等,0,2024-10-24,2024-10-18,有限会社山本製作所,,有限会社,大阪府,大阪市西淀川区,竹島５丁目７番４号,,27,113,5550011,,,2024-10-18,清算の結了等,,,2015-10-05,1,,,,,ヤマモトセイサクショ,0
172,1140003000602,登記記録の閉鎖等,0,2024-10-24,2024-10-22,山田合名会社,,合名会社,兵庫県,神戸市兵庫区,東山町１丁目３番２４号,,28,105,6520042,,,2024-10-22,清算の結了等,,,2015-10-05,1,,,,,ヤマダ,0
179,1180001073134,登記記録の閉鎖等,0,2024-10-24,2024-10-07,株式会社ウッドメイトアオヤマ,,株式会社,愛知県,名古屋市港区,正徳町４丁目９番地,,23,111,4550075,,,2024-10-07,清算の結了等,,,2015-10-05,1,,,,,ウッドメイトアオヤマ,0
207,1290001065475,登記記録の閉鎖等,0,2024-10-24,2024-09-13,株式会社Ｊ・Ｂ・Ｃ,,株式会社,福岡県,福岡市早良区,百道浜１丁目３番７０号,,40,137,8140001,,,2024-09-13,清算の結了等,,,2015-10-05,1,,,,,,0
210,1290001077693,登記記録の閉鎖等,0,2024-10-24,2024-09-24,株式会社富楽和,,株式会社,福岡県,朝倉郡筑前町,東小田３５３９番地８,,40,447,8380214,,,2024-09-24,清算の結了等,,,2017-05-09,1,,,,,フラワ,0
211,1290001082446,登記記録の閉鎖等,0,2024-10-24,2024-10-17,ダイレクト株式会社,,株式会社,大分県,大分市,都町２丁目１番１０号,,44,201,8700034,,,2024-10-17,清算の結了等,,,2018-08-22,1,,,,,ダイレクト,0
222,1320001010188,登記記録の閉鎖等,0,2024-10-24,2024-10-22,九州シートスプリング工業株式会社,,株式会社,大分県,日田市,大山町西大山字時鳥３２２２番地,,44,204,8770201,,,2024-10-22,清算の結了等,,,2015-10-05,1,,,,,キュウシュウシートスプリングコウギョウ,0
228,1360002007618,登記記録の閉鎖等,0,2024-10-24,2024-10-21,有限会社コスモコンサルタント,,有限会社,沖縄県,豊見城市,字真玉橋２７４番地の３,,47,212,9010201,,,2024-10-21,清算の結了等,,,2015-10-05,1,,,,,コスモコンサルタント,0
234,1380001019505,登記記録の閉鎖等,0,2024-10-24,2024-10-08,株式会社サクマサービス,,株式会社,福島県,郡山市,巳六段６６番地,,07,203,9630119,,,2024-10-08,清算の結了等,,,2015-10-05,1,,,,,サクマサービス,0
237,1380002034726,登記記録の閉鎖等,0,2024-10-24,2024-10-09,有限会社カネミツ,,有限会社,福島県,喜多方市,字清水が丘３丁目３番地,,07,208,9660093,,,2024-10-09,清算の結了等,,,2015-10-05,1,,,,,カネミツ,0
240,1430001035265,登記記録の閉鎖等,0,2024-10-24,2024-10-21,株式会社タイムゾーン,,株式会社,北海道,札幌市中央区,南八条西４丁目４２２番地４１オリエンタルエミネンス３０４号,,01,101,0640808,,,2024-10-21,清算の結了等,,,2015-10-05,1,,,,,タイムゾーン,0
251,1480002003191,登記記録の閉鎖等,0,2024-10-24,2024-10-22,有限会社谷川勇組,,有限会社,徳島県,徳島市,一宮町東丁３３７番地の２,,36,201,7793132,,,2024-10-22,清算の結了等,,,2015-10-05,1,,,,,タニガワイサムグミ,0
253,1500003002157,登記記録の閉鎖等,0,2024-10-24,2024-10-21,合同会社アイエム,,合同会社,愛媛県,八幡浜市,旭町３丁目１５１０番地１４９,,38,204,7960086,,,2024-10-21,清算の結了等,,,2018-09-10,1,,,,,アイエム,0
261,2010001110258,登記記録の閉鎖等,0,2024-10-24,2024-10-16,山佐産業ＢＡＷ１リース株式会社,,株式会社,東京都,千代田区,丸の内３丁目１番１号東京共同会計事務所内,,13,101,1000005,,,2024-10-16,清算の結了等,,,2015-10-05,1,,,,,ヤマササンギョウビーエーダブリューワンリース,0
262,2010001144883,登記記録の閉鎖等,0,2024-10-24,2024-10-07,株式会社シーソーゲーム,,株式会社,東京都,港区,東新橋１丁目９番１号,,13,103,1050021,,,2024-10-07,合併による解散等,2011101100479,令和６年１０月１日東京都港区東新橋一丁目９番１号株式会社ライブドア（2011101100479）に合併し解散,2015-10-05,1,,,,,シーソーゲーム,0
304,2011101097591,登記記録の閉鎖等,0,2024-10-24,2024-10-11,株式会社カセイ,,株式会社,東京都,新宿区,西新宿３丁目３番１３号西新宿水間ビル６階,,13,104,1600023,,,2024-10-11,清算の結了等,,,2022-02-10,1,,,,,カセイ,0
324,2021002021666,登記記録の閉鎖等,0,2024-10-24,2024-10-22,有限会社瀬谷土木,,有限会社,神奈川県,相模原市南区,新戸２６８６番地５３,,14,153,2520326,,,2024-10-22,清算の結了等,,,2015-10-05,1,,,,,セヤドボク,0
361,2080102013485,登記記録の閉鎖等,0,2024-10-24,2024-10-21,有限会社遠藤倶楽部,,有限会社,静岡県,富士市,本市場町１０５８番地,,22,210,4160954,,,2024-10-21,清算の結了等,,,2015-10-05,1,,,,,エンドウクラブ,0
362,2080402018036,登記記録の閉鎖等,0,2024-10-24,2024-10-18,有限会社サンサンファーム,,有限会社,静岡県,掛川市,大渕１４５６番地の３１２,,22,213,4371302,,,2024-10-18,清算の結了等,,,2015-10-05,1,,,,,サンサンファーム,0
363,2080405007481,登記記録の閉鎖等,0,2024-10-24,2024-10-21,社会保険労務士法人あさひ労務管理事務所,,その他の設立登記法人,静岡県,浜松市中央区,初生町１１６３番地の４７,,22,138,4338112,,,2024-10-21,清算の結了等,,,2022-09-06,1,,,,,アサヒロウムカンリジムショ,0
368,2110001003170,登記記録の閉鎖等,0,2024-10-24,2024-10-17,株式会社高橋設備工業所,,株式会社,新潟県,新潟市東区,物見山２丁目３４番２２号,,15,102,9500021,,,2024-10-17,清算の結了等,,,2015-10-05,1,,,,,タカハシセツビコウギョウショ,0
370,2110001029876,登記記録の閉鎖等,0,2024-10-24,2024-10-15,株式会社ＧＲＥＥＮＨＯＭＥ,,株式会社,新潟県,柏崎市,大字下田尻６０１番地２１,,15,205,9451345,,,2024-10-15,清算の結了等,,,2015-10-05,1,,,,,グリーンホーム,0
371,2110002025370,登記記録の閉鎖等,0,2024-10-24,2024-10-16,市川試錐建設有限会社,,有限会社,新潟県,十日町市,下条４丁目７７４番地,,15,210,9498603,,,2024-10-16,清算の結了等,,,2015-10-05,1,,,,,イチカワシスイケンセツ,0
387,2120901031212,登記記録の閉鎖等,0,2024-10-24,2024-10-09,株式会社アプリ・ライフ・クリエーション,,株式会社,東京都,中央区,日本橋室町１丁目２番６号日本橋大栄ビル７階,,13,102,1030022,,,2024-10-09,清算の結了等,,,2015-10-05,1,,,,,アプリライフクリエーション,0
391,2130001063023,登記記録の閉鎖等,0,2024-10-24,2024-09-17,株式会社ＴｏｙＣａｓｈ,,株式会社,京都府,京都市左京区,聖護院山王町９ハイム西川４０５,,26,103,6068392,,,2024-09-17,清算の結了等,,,2018-10-04,1,,,,,トイキャッシュ,0
405,2180001010482,登記記録の閉鎖等,0,2024-10-24,2024-10-09,大洋産業株式会社,,株式会社,愛知県,名古屋市瑞穂区,陽明町２丁目２１番地,,23,108,4670026,,,2024-10-09,清算の結了等,,,2015-10-05,1,,,,,タイヨウサンギョウ,0
407,2180001110175,登記記録の閉鎖等,0,2024-10-24,2024-10-07,株式会社ＳＨＩＮＰＬ,,株式会社,愛知県,春日井市,上条町６丁目３７０７番地１３,,23,206,4860833,,,2024-10-07,清算の結了等,,,2015-10-05,1,,,,,シンプル,0
415,2180001161887,登記記録の閉鎖等,0,2024-10-24,2024-10-07,株式会社エイケイ企画,,株式会社,愛知県,名古屋市中区,栄１丁目３０番１５号荘苑御園６０５号,,23,106,4600008,,,2024-10-07,清算の結了等,,,2024-06-12,1,,,,,エイケイキカク,0
439,2220002001914,登記記録の閉鎖等,0,2024-10-24,2024-10-21,有限会社金子鉄工,,有限会社,石川県,金沢市,粟崎町２丁目１２５番地２,,17,201,9200226,,,2024-10-21,清算の結了等,,,2015-10-05,1,,,,,カネコテッコウ,0
444,2240001019484,登記記録の閉鎖等,0,2024-10-24,2024-10-21,株式会社ピースコミュニケーシヨン,,株式会社,広島県,広島市西区,南観音５丁目１６番７号,,34,104,7330035,,,2024-10-21,清算の結了等,,,2015-10-05,1,,,,,ピースコミュニケーション,0
466,2310002019138,登記記録の閉鎖等,0,2024-10-24,2024-10-18,有限会社稗田木工所,00096220,有限会社,長崎県,壱岐市,郷ノ浦町田中触９４３番地２,,42,210,8115117,,,2024-10-18,清算の結了等,,,2015-10-05,1,,,,,ヒエダモッコウショ,0
488,2420002008253,登記記録の閉鎖等,0,2024-10-24,2024-10-18,有限会社八戸観葉植物園,,有限会社,青森県,八戸市,大字十日市字西５５番地３,,02,203,0310012,,,2024-10-18,清算の結了等,,,2015-10-05,1,,,,,ハチノヘカンヨウショクブツエン,0
494,2460001004679,登記記録の閉鎖等,0,2024-10-24,2024-10-23,株式会社ＤＥＳＩＧＮ　ＷＯＲＫ－Ｓ．,,株式会社,北海道,釧路市,芦野３丁目１番４号,00127997,01,206,0850061,,,2024-10-23,清算の結了等,,,2015-10-05,1,,,,,デザインワークス,0
496,2470002010130,登記記録の閉鎖等,0,2024-10-24,2024-10-18,有限会社タナカ,,有限会社,香川県,高松市,国分寺町新居３４９番地４,,37,201,7690101,,,2024-10-18,清算の結了等,,,2015-10-05,1,,,,,タナカ,0
497,2480001001286,登記記録の閉鎖等,0,2024-10-24,2024-10-23,創美印刷株式会社,,株式会社,徳島県,徳島市,北沖洲１丁目１１番２８号,,36,201,7700872,,,2024-10-23,清算の結了等,,,2015-10-05,1,,,,,ソウビインサツ,0
503,3010001110257,登記記録の閉鎖等,0,2024-10-24,2024-10-16,山佐産業ＢＡＷ２リース株式会社,,株式会社,東京都,千代田区,丸の内３丁目１番１号東京共同会計事務所内,,13,101,1000005,,,2024-10-16,清算の結了等,,,2015-10-05,1,,,,,ヤマササンギョウビーエーダブリューツーリース,0
504,3010001137548,登記記録の閉鎖等,0,2024-10-24,2024-10-16,山佐ライアンエア８リース株式会社,,株式会社,東京都,千代田区,丸の内３丁目１番１号東京共同会計事務所内,,13,101,1000005,,,2024-10-16,清算の結了等,,,2015-10-05,1,,,,,ヤマサライアンエアハチリース,0
565,3011802006453,登記記録の閉鎖等,0,2024-10-24,2024-10-18,有限会社日之出興業,,有限会社,東京都,葛飾区,白鳥２丁目３番１３号,,13,122,1250063,,,2024-10-18,清算の結了等,,,2015-10-05,1,,,,,,0
567,3011802008697,登記記録の閉鎖等,0,2024-10-24,2024-10-18,有限会社アサヒ印刷,,有限会社,東京都,足立区,千住仲町８番７号,,13,121,1200036,,,2024-10-18,清算の結了等,,,2015-10-05,1,,,,,アサヒインサツ,0
580,3020002074467,登記記録の閉鎖等,0,2024-10-24,2024-10-07,有限会社読売二俣川駅前,,有限会社,神奈川県,横浜市旭区,白根３丁目１２番３６号,,14,112,2410005,,,2024-10-07,清算の結了等,,,2015-10-05,1,,,,,ヨミウリフタマタガワエキマエ,0
618,3060001017043,登記記録の閉鎖等,0,2024-10-24,2024-10-18,三毳興産株式会社,,株式会社,栃木県,栃木市,岩舟町和泉１５４９番地６,,09,203,3294303,,,2024-10-18,清算の結了等,,,2015-10-05,1,,,,,ミカモコウサン,0
622,3060002031274,登記記録の閉鎖等,0,2024-10-24,2024-10-17,有限会社野沢工業,,有限会社,栃木県,栃木市,岩舟町静２２４８番地１,,09,203,3294307,,,2024-10-17,清算の結了等,,,2015-10-05,1,,,,,ノザワコウギョウ,0
628,3080001023304,登記記録の閉鎖等,0,2024-10-24,2024-10-18,株式会社ｏｆｆｉｃｅ　ｂｃ,,株式会社,静岡県,静岡市清水区,日立町２１番１４号,,22,103,4240929,,,2024-10-18,清算の結了等,,,2020-01-10,1,,,,,オフィスビーシー,0
630,3080002010251,登記記録の閉鎖等,0,2024-10-24,2024-10-17,有限会社鈴屋,,有限会社,静岡県,静岡市清水区,下野北１２番３号,,22,103,4240021,,,2024-10-17,清算の結了等,,,2015-10-05,1,,,,,スズヤ,0
634,3100001012808,登記記録の閉鎖等,0,2024-10-24,2024-10-15,江上製菓株式会社,,株式会社,長野県,松本市,県１丁目６番１６号,,20,202,3900812,,,2024-10-15,清算の結了等,,,2015-10-05,1,,,,,エガミセイカ,0
636,3110002024495,登記記録の閉鎖等,0,2024-10-24,2024-10-17,有限会社アーキ・ブレイン,,有限会社,新潟県,上越市,稲田４丁目１２－３ヤマトプラザＪ号,,15,222,9430154,,,2024-10-17,清算の結了等,,,2015-10-05,1,,,,,,0
637,3110002029016,登記記録の閉鎖等,0,2024-10-24,2024-10-16,有限会社フリーライン,,有限会社,新潟県,長岡市,寺宝町４４４番地,,15,202,9402057,,,2024-10-16,清算の結了等,,,2015-10-05,1,,,,,フリーライン,0
639,3120001023811,登記記録の閉鎖等,0,2024-10-24,2024-10-15,株式会社新生中央薬局,,株式会社,大阪府,大阪市天王寺区,東上町９番１６号,,27,109,5430026,,,2024-10-15,清算の結了等,,,2015-10-05,1,,,,,シンセイチュウオウヤッキョク,0
644,3120001188316,登記記録の閉鎖等,0,2024-10-24,2024-10-17,株式会社ＮＯＲＫ,,株式会社,大阪府,大阪市西区,新町２丁目１２－１２森ビル４Ｆ,,27,106,5500013,,,2024-10-17,清算の結了等,,,2015-10-05,1,,,,,ノーク,0
648,3120001229482,登記記録の閉鎖等,0,2024-10-24,2024-10-17,Ｔｉｍｅｓ株式会社,,株式会社,大阪府,大阪市福島区,福島７丁目１５番１－５０６号,,27,103,5530003,,,2024-10-17,清算の結了等,,,2020-06-04,1,,,,,タイムズ,0
666,3140002051082,登記記録の閉鎖等,0,2024-10-24,2024-10-18,有限会社愛和ヒューマンケア,,有限会社,兵庫県,姫路市,白浜町乙３６９番地の２,,28,201,6728023,,,2024-10-18,清算の結了等,,,2015-10-05,1,,,,,アイワヒューマンケア,0
680,3180005019073,登記記録の閉鎖等,0,2024-10-24,2024-10-18,一般社団法人美玉基金,,その他の設立登記法人,愛知県,名古屋市瑞穂区,彌富町字月見ケ岡３０番地,,23,108,4670035,,,2024-10-18,清算の結了等,,,2020-12-18,1,,,,,ミタマキキン,0
696,3260001018161,登記記録の閉鎖等,0,2024-10-24,2024-10-17,いばら建鋼株式会社,,株式会社,岡山県,井原市,大江町２２４５番地,,33,207,7150023,,,2024-10-17,清算の結了等,,,2015-10-05,1,,,,,イバラケンコウ,0
701,3280002011642,登記記録の閉鎖等,0,2024-10-24,2024-10-23,有限会社奥出雲椎茸,,有限会社,島根県,仁多郡奥出雲町,三沢９８番地３,,32,343,6991513,,,2024-10-23,清算の結了等,,,2015-10-05,1,,,,,オクイズモシイタケ,0
710,3290801024934,登記記録の閉鎖等,0,2024-10-24,2024-09-19,株式会社清水工業,,株式会社,福岡県,糟屋郡宇美町,神武原３丁目１４番１号,,40,341,8112129,,,2024-09-19,清算の結了等,,,2018-09-19,1,,,,,シミズコウギョウ,0
712,3300001004371,登記記録の閉鎖等,0,2024-10-24,2024-10-21,株式会社サンタフーズ,,株式会社,佐賀県,佐賀市,新中町１番１９号,,41,201,8490924,,,2024-10-21,清算の結了等,,,2015-10-05,1,,,,,サンタフーズ,0
714,3310001002250,登記記録の閉鎖等,0,2024-10-24,2024-10-16,株式会社ヤマカワ,,株式会社,長崎県,長崎市,大黒町４番５号,,42,201,8500057,,,2024-10-16,清算の結了等,,,2015-10-05,1,,,,,ヤマカワ,0
717,3310002005590,登記記録の閉鎖等,0,2024-10-24,2024-10-21,有限会社村里石材,,有限会社,長崎県,長崎市,西小島２丁目３番１号,,42,201,8500837,,,2024-10-21,清算の結了等,,,2015-10-05,1,,,,,ムラサトセキザイ,0
721,3330001020481,登記記録の閉鎖等,0,2024-10-24,2024-10-04,株式会社クリア,,株式会社,熊本県,宇城市,松橋町久具２０６６番地,,43,213,8690532,,,2024-10-04,清算の結了等,,,2015-10-05,1,,,,,クリア,0
725,3340005001023,登記記録の閉鎖等,0,2024-10-24,2024-10-22,医療法人朝隈耳鼻咽喉科,,その他の設立登記法人,鹿児島県,鹿児島市,千日町９番９号,,46,201,8920843,,,2024-10-22,清算の結了等,,,2015-10-05,1,,,,,アサクマジビインコウカ,0
729,3360003005404,登記記録の閉鎖等,0,2024-10-24,2024-10-22,かぎ花合同会社,,合同会社,沖縄県,宮古島市,平良字西里７５８番地,,47,214,9060012,,,2024-10-22,清算の結了等,,,2015-10-05,1,,,,,カギバナ,0
731,3370302000781,登記記録の閉鎖等,0,2024-10-24,2024-10-04,有限会社きく薬局,,有限会社,宮城県,石巻市,中里１丁目１０番２４号,,04,202,9860815,,,2024-10-04,清算の結了等,,,2015-10-05,1,,,,,キクヤッキョク,0
733,3400001013040,登記記録の閉鎖等,0,2024-10-24,2024-10-10,株式会社笹匠,,株式会社,岩手県,滝沢市,湯舟沢２２２番地８５,,03,216,0200617,,,2024-10-10,清算の結了等,,,2016-01-20,1,,,,,ササショウ,0
741,3430001062225,登記記録の閉鎖等,0,2024-10-24,2024-10-15,カズ株式会社,,株式会社,北海道,日高郡新ひだか町,静内末広町２丁目１３番２号,,01,610,0560026,,,2024-10-15,清算の結了等,,,2015-10-05,1,,,,,カズ,0
755,4010001137547,登記記録の閉鎖等,0,2024-10-24,2024-10-16,山佐ライアンエア７リース株式会社,,株式会社,東京都,千代田区,丸の内３丁目１番１号東京共同会計事務所内,,13,101,1000005,,,2024-10-16,清算の結了等,,,2015-10-05,1,,,,,ヤマサライアンエアナナリース,0
771,4010002021634,登記記録の閉鎖等,0,2024-10-24,2024-10-01,有限会社荘栄建物,,有限会社,東京都,渋谷区,恵比寿西１丁目１２番４号,,13,113,1500021,,,2024-10-01,合併による解散等,5011001012664,令和６年１０月１日東京都渋谷区恵比寿西一丁目１２番４号株式会社荘栄企画（5011001012664）に合併し解散,2015-10-05,1,,,,,ソウエイタテモノ,0
776,4010401130184,登記記録の閉鎖等,0,2024-10-24,2024-10-01,ＯＮＥ　ＤＲＯＰ　ＲＥＡＬＴＹ株式会社,,株式会社,東京都,港区,六本木１丁目６番１号泉ガーデンタワー,,13,103,1060032,,,2024-10-01,合併による解散等,5010401089032,令和６年１０月１日東京都港区六本木一丁目６番１号泉ガーデンタワーＯＮＥ　ＤＲＯＰ　ＲＥＡＬＴＹ株式会社（5010401089032）に合併し解散,2017-03-08,1,,,,,ワンドロップリアルティ,0
786,4010405020217,登記記録の閉鎖等,0,2024-10-24,2024-10-01,新御堂筋マネジメント特定目的会社,,その他の設立登記法人,東京都,港区,六本木１丁目６番１号泉ガーデンタワー,,13,103,1060032,,,2024-10-01,清算の結了等,,,2021-09-13,1,,,,,ミドウスジマネジメント,0
791,4010601038599,登記記録の閉鎖等,0,2024-10-24,2024-10-18,株式会社ＴＯＫＯＤＡＩ,,株式会社,東京都,墨田区,押上１丁目２４番３号,,13,107,1310045,,,2024-10-18,清算の結了等,,,2015-10-05,1,,,,,トコダイ,0
794,4010603010267,登記記録の閉鎖等,0,2024-10-24,2024-10-18,合同会社Ｏｆｆｉｃｅ　Ｋ２ＬＩＮＫ,,合同会社,東京都,墨田区,江東橋２丁目２－１４東神ビル２０２,,13,107,1300022,,,2024-10-18,清算の結了等,,,2023-07-25,1,,,,,オフィスケーツーリンク,0
817,4011205001613,登記記録の閉鎖等,0,2024-10-24,2024-10-23,特定非営利活動法人チーム・イーグレット,,その他の設立登記法人,東京都,中野区,鷺宮５丁目１５番１２号丸吉コーポ１０２三田村方,,13,114,1650032,,,2024-10-23,清算の結了等,,,2015-10-05,1,,,,,チームイーグレット,0
822,4011505001610,登記記録の閉鎖等,0,2024-10-24,2024-10-18,一般財団法人印刷朝陽会,,その他の設立登記法人,東京都,北区,上中里２丁目３０番２号,,13,117,1140016,,,2024-10-18,清算の結了等,,,2015-10-05,1,,,,,インサツチョウヨウカイ,0
836,4013102005457,登記記録の閉鎖等,0,2024-10-24,2024-10-18,有限会社松浦製作所,,有限会社,東京都,西多摩郡瑞穂町,大字二本木字長田林４７７番地２０,,13,303,1901201,,,2024-10-18,清算の結了等,,,2015-10-05,1,,,,,,0
866,4050001006450,登記記録の閉鎖等,0,2024-10-24,2024-10-17,Ｊ．ビークル株式会社,,株式会社,茨城県,水戸市,内原町１６３７番地３,,08,201,3190315,,,2024-10-17,清算の結了等,,,2015-10-05,1,,,,,ジェイビークル,0
877,4080002011570,登記記録の閉鎖等,0,2024-10-24,2024-10-17,有限会社ユニック静岡,,有限会社,静岡県,静岡市清水区,下野西２番２７号,,22,103,4240012,,,2024-10-17,清算の結了等,,,2015-10-05,1,,,,,ユニックシズオカ,0
879,4080402004934,登記記録の閉鎖等,0,2024-10-24,2024-10-21,有限会社たんぽぽ,,有限会社,静岡県,浜松市中央区,三方原町１６５８番地の５,,22,138,4338105,,,2024-10-21,清算の結了等,,,2015-10-05,1,,,,,タンポポ,0
882,4100002024099,登記記録の閉鎖等,0,2024-10-24,2024-10-10,有限会社丸山電気工業所,,有限会社,長野県,安曇野市,豊科高家６５４５番地,,20,220,3998204,,,2024-10-10,清算の結了等,,,2015-10-05,1,,,,,マルヤマデンキコウギョウショ,0
885,4120001108256,登記記録の閉鎖等,0,2024-10-24,2024-10-17,ケイトレーディング株式会社,,株式会社,大阪府,大阪市北区,堂島２丁目１番２５－８０３号,,27,127,5300003,,,2024-10-17,清算の結了等,,,2015-10-05,1,,,,,ケイトレーディング,0
886,4120001113974,登記記録の閉鎖等,0,2024-10-24,2024-10-23,株式会社Ｄｒｉｖｅ,,株式会社,大阪府,大阪市西区,西本町１丁目１３番３８号,,27,106,5500005,,,2024-10-23,清算の結了等,,,2015-10-05,1,,,,,ドライブ,0
902,4120002035284,登記記録の閉鎖等,0,2024-10-24,2024-10-21,有限会社キャトル・セゾン,,有限会社,大阪府,大阪市中央区,久太郎町３丁目３番９号,,27,128,5410056,,,2024-10-21,清算の結了等,,,2015-10-05,1,,,,,キャトルセゾン,0
911,4120901023199,登記記録の閉鎖等,0,2024-10-24,2024-10-21,株式会社おれんじ館,,株式会社,大阪府,豊中市,待兼山町１４番１３号,,27,203,5600043,,,2024-10-21,清算の結了等,,,2015-10-05,1,,,,,オレンジカン,0
922,4130003008676,登記記録の閉鎖等,0,2024-10-24,2024-10-21,合同会社ＴＡＮＹ,,合同会社,京都府,福知山市,駅前町３番地銀鈴ビル２階,,26,201,6200045,,,2024-10-21,清算の結了等,,,2023-04-18,1,,,,,タニー,0
928,4150005004201,登記記録の閉鎖等,0,2024-10-24,2024-10-21,汲泉寺,00043923,その他の設立登記法人,奈良県,吉野郡東吉野村,大字大豆生３４３番地,,29,453,6332442,,,2024-10-21,清算の結了等,,,2015-10-05,1,,,,,キュウセンジ,0
932,4180001113309,登記記録の閉鎖等,0,2024-10-24,2024-10-08,株式会社洋建築設計事務所,,株式会社,愛知県,江南市,古知野町塔塚１１６,,23,217,4838216,,,2024-10-08,清算の結了等,,,2015-10-05,1,,,,,ヨウケンチクセッケイジムショ,0
934,4180001116170,登記記録の閉鎖等,0,2024-10-24,2024-10-07,株式会社ＣＲＵＮＣＨ,,株式会社,愛知県,一宮市,森本４丁目１４番２０号,,23,203,4910831,,,2024-10-07,清算の結了等,,,2015-10-05,1,,,,,クランチ,0
935,4180001134503,登記記録の閉鎖等,0,2024-10-24,2024-10-07,シルバーライン株式会社,,株式会社,愛知県,一宮市,今伊勢町本神戸字河原３３番地,,23,203,4910053,,,2024-10-07,清算の結了等,,,2018-11-20,1,,,,,シルバーライン,0
942,4180302006847,登記記録の閉鎖等,0,2024-10-24,2024-10-17,有限会社岡本デンタルラボラトリー,,有限会社,愛知県,豊橋市,高師町字西沢６３番地２,,23,201,4418156,,,2024-10-17,清算の結了等,,,2015-10-05,1,,,,,オカモトデンタルラボラトリー,0
947,4200002026993,登記記録の閉鎖等,0,2024-10-24,2024-10-22,有限会社平成工業,,有限会社,岐阜県,飛騨市,神岡町殿８３０番地の４,,21,217,5061121,,,2024-10-22,清算の結了等,,,2015-10-05,1,,,,,ヘイセイコウギョウ,0
951,4220001023338,登記記録の閉鎖等,0,2024-10-24,2024-10-21,株式会社近岡屋,,株式会社,石川県,野々市市,長池２７番地８,,17,212,9218808,,,2024-10-21,清算の結了等,,,2020-01-30,1,,,,,チカオカヤ,0
965,4290001079150,登記記録の閉鎖等,0,2024-10-24,2024-09-19,株式会社Ｅｉｎ　Ａｐｆｅｌ,,株式会社,福岡県,福岡市中央区,渡辺通２丁目３番１９号,,40,133,8100004,,,2024-09-19,清算の結了等,,,2017-09-25,1,,,,,エインアプフェル,0
974,4320005005941,登記記録の閉鎖等,0,2024-10-24,2024-10-15,豊肥製＿協同組合,00097195,その他の設立登記法人,大分県,竹田市,大字竹田１８８１番地１,,44,208,8780013,,,2024-10-15,清算の結了等,,,2015-10-05,1,,,,,ホウヒセイアン,0
980,4370302003239,登記記録の閉鎖等,0,2024-10-24,2024-10-10,有限会社あさの工業,,有限会社,宮城県,東松島市,大曲字貝田２２番地２,,04,214,9810502,,,2024-10-10,清算の結了等,,,2015-10-05,1,,,,,アサノコウギョウ,0
984,4400003002222,登記記録の閉鎖等,0,2024-10-24,2024-10-09,合同会社コバリオンクラダプロジェクト,,合同会社,岩手県,釜石市,大字平田第３地割６１番地２４,,03,211,0260001,,,2024-10-09,清算の結了等,,,2017-06-27,1,,,,,コバリオンクラダプロジェクト,0
995,4460001000940,登記記録の閉鎖等,0,2024-10-24,2024-10-23,タケダ産業株式会社,,株式会社,北海道,白糠郡白糠町,西庶路東二条南３丁目１番地１０,,01,668,0880574,,,2024-10-23,清算の結了等,,,2015-10-05,1,,,,,タケダサンギョウ,0
997,4460305001965,登記記録の閉鎖等,0,2024-10-24,2024-10-23,特定非営利活動法人ネイチャーランド・宙ｓｏｒａ,,その他の設立登記法人,北海道,斜里郡斜里町,字峰浜６９番地,,01,545,0994122,,,2024-10-23,清算の結了等,,,2021-07-30,1,,,,,ネイチャーランドソラ,0
1003,5010001053859,登記記録の閉鎖等,0,2024-10-24,2024-10-10,ニユービジネス株式会社,,株式会社,東京都,中央区,日本橋小舟町１４番７号,,13,102,1030024,,,2024-10-10,清算の結了等,,,2015-10-05,1,,,,,ニュービジネス,0
1005,5010001158690,登記記録の閉鎖等,0,2024-10-24,2024-10-16,山佐ＴＫ１０リース株式会社,,株式会社,東京都,千代田区,丸の内３丁目１番１号東京共同会計事務所内,,13,101,1000005,,,2024-10-16,清算の結了等,,,2015-10-05,1,,,,,ヤマサティーケイジュウリース,0
1011,5010005028618,登記記録の閉鎖等,0,2024-10-24,2024-10-16,一般財団法人ＨＩＭ研究所,,その他の設立登記法人,東京都,文京区,後楽１丁目２番９号,,13,105,1120004,,,2024-10-16,清算の結了等,,,2018-06-05,1,,,,,エイチアイエムケンキュウジョ,0
1014,5010401077912,登記記録の閉鎖等,0,2024-10-24,2024-10-21,アイング株式会社,,株式会社,東京都,港区,赤坂５丁目３番１号,,13,103,1070052,,,2024-10-21,合併による解散等,5010001167923,令和６年１０月１日東京都千代田区麹町二丁目１４番地スマートパートナー株式会社（5010001167923）に合併し解散,2015-10-05,1,,,,,アイング,0
1042,5011101017563,登記記録の閉鎖等,0,2024-10-24,2024-10-21,株式会社ハヤカワ,,株式会社,東京都,渋谷区,代々木２丁目２１番８－４０８号,,13,113,1510053,,,2024-10-21,清算の結了等,,,2015-10-05,1,,,,,ハヤカワ,0
1051,5011201005071,登記記録の閉鎖等,0,2024-10-24,2024-10-17,株式会社マーシャルマート,,株式会社,千葉県,南房総市,大井５６４番地,,12,234,2992507,,,2024-10-17,清算の結了等,,,2015-10-05,1,,,,,マーシャルマート,0
1066,5012402019216,登記記録の閉鎖等,0,2024-10-24,2024-10-23,有限会社タック,,有限会社,東京都,三鷹市,下連雀６丁目６番５０号,,13,204,1810013,,,2024-10-23,清算の結了等,,,2015-10-05,1,,,,,タック,0
1075,5020001070812,登記記録の閉鎖等,0,2024-10-24,2024-10-09,クロダインターナショナル株式会社,,株式会社,神奈川県,川崎市幸区,堀川町５８０番地１６,,14,132,2120013,,,2024-10-09,合併による解散等,7020001070810,令和６年１０月１日川崎市幸区堀川町５８０番地１６黒田精工株式会社（7020001070810）に合併し解散,2015-10-05,1,,,,,クロダインターナショナル,0
1100,5040002013520,登記記録の閉鎖等,0,2024-10-24,2024-10-17,有限会社アイコムライトテクノ,,有限会社,千葉県,千葉市中央区,仁戸名町５１２番地１,,12,101,2600801,,,2024-10-17,清算の結了等,,,2015-10-05,1,,,,,アイコムライトテクノ,0
1111,5060002034341,登記記録の閉鎖等,0,2024-10-24,2024-10-17,有限会社斉藤土建,,有限会社,栃木県,下都賀郡壬生町,大字中泉１０１３番地,,09,361,3210232,,,2024-10-17,清算の結了等,,,2015-10-05,1,,,,,サイトウドケン,0
1114,5080401011658,登記記録の閉鎖等,0,2024-10-24,2024-10-16,伊藤伐採株式会社,,株式会社,静岡県,浜松市天竜区,船明４５９番地の２,,22,140,4313306,,,2024-10-16,清算の結了等,,,2015-10-05,1,,,,,イトウバッサイ,0
1121,5110002033817,登記記録の閉鎖等,0,2024-10-24,2024-10-17,有限会社文昌堂,,有限会社,新潟県,魚沼市,小出島９０番地４,,15,225,9460011,,,2024-10-17,清算の結了等,,,2015-10-05,1,,,,,ブンショウドウ,0
1129,5120001234497,登記記録の閉鎖等,0,2024-10-24,2024-10-10,株式会社ディーアンドピージャパン,,株式会社,大阪府,大阪市北区,梅田２丁目５番１３号桜橋第一ビル３０４号,,27,127,5300001,,,2024-10-10,清算の結了等,,,2021-01-13,1,,,,,ディーアンドピージャパン,0
1132,5120001251278,登記記録の閉鎖等,0,2024-10-24,2024-10-17,株式会社ｉｎｎｏｖｉｓ,,株式会社,大阪府,大阪市北区,堂島１丁目１番５号,,27,127,5300003,,,2024-10-17,清算の結了等,,,2022-12-27,1,,,,,イノヴィス,0
1141,5120101027529,登記記録の閉鎖等,0,2024-10-24,2024-10-17,新日本フランジ株式会社,,株式会社,大阪府,大阪市平野区,長吉出戸３丁目２番１３号,,27,126,5470011,,,2024-10-17,清算の結了等,,,2015-10-05,1,,,,,,0
1143,5120101035250,登記記録の閉鎖等,0,2024-10-24,2024-10-21,Ｉ．Ｓ．ワールド株式会社,,株式会社,大阪府,羽曳野市,はびきの４丁目２１番２３号,,27,222,5830872,,,2024-10-21,清算の結了等,,,2015-10-05,1,,,,,アイエスワールド,0
1159,5140002019722,登記記録の閉鎖等,0,2024-10-24,2024-10-21,有限会社テックサウンド,,有限会社,兵庫県,神戸市中央区,港島中町３丁目２－６番地エバーグリーンポートアイランド５－８０７号,,28,110,6500046,,,2024-10-21,清算の結了等,,,2015-10-05,1,,,,,テックサウンド,0
1160,5140002057747,登記記録の閉鎖等,0,2024-10-24,2024-10-21,有限会社プレステージ神戸,,有限会社,兵庫県,西宮市,上ケ原四番町４－３３グランフェルティー甲東園５０８,,28,204,6620894,,,2024-10-21,清算の結了等,,,2015-10-05,1,,,,,プレステージコウベ,0
1164,5160002005943,登記記録の閉鎖等,0,2024-10-24,2024-10-23,有限会社カーピットライト,,有限会社,滋賀県,湖南市,針３５７番地１,,25,211,5203231,,,2024-10-23,清算の結了等,,,2015-10-05,1,,,,,カーピットライト,0
1191,5250002012014,登記記録の閉鎖等,0,2024-10-24,2024-10-18,有限会社長府サッシ硝子建材,,有限会社,山口県,下関市,長府黒門東町１０番１１号,,35,201,7520986,,,2024-10-18,清算の結了等,,,2015-10-05,1,,,,,チョウフサッシガラスケンザイ,0
1194,5260002033604,登記記録の閉鎖等,0,2024-10-24,2024-10-18,有限会社三島屋製パン工場,,有限会社,岡山県,真庭市,勝山２４１番地,,33,214,7170013,,,2024-10-18,清算の結了等,,,2015-10-05,1,,,,,ミシマヤセイパンコウジョウ,0
1201,5290001088076,登記記録の閉鎖等,0,2024-10-24,2024-09-19,株式会社Ｍ２サポート,,株式会社,福岡県,福岡市博多区,諸岡４丁目３番１３号,,40,132,8120894,,,2024-09-19,清算の結了等,,,2020-02-13,1,,,,,エムツーサポート,0
1206,5320001003642,登記記録の閉鎖等,0,2024-10-24,2024-10-22,大分共同火力株式会社,,株式会社,大分県,大分市,大字西ノ洲１番地,,44,201,8700902,,,2024-10-22,合併による解散等,3290801002659,令和６年１０月１日北九州市戸畑区大字中原字先の浜４６番９３九州共同発電株式会社（3290801002659）に合併し解散,2015-10-05,1,,,,,オオイタキョウドウカリョク,0
1217,5360002017885,登記記録の閉鎖等,0,2024-10-24,2024-10-18,ブルーウェーブ沖縄建設有限会社,,有限会社,沖縄県,中頭郡嘉手納町,字嘉手納１８３番地１６,,47,325,9040203,,,2024-10-18,清算の結了等,,,2015-10-05,1,,,,,ブルーウェーブオキナワケンセツ,0
1226,5390001012050,登記記録の閉鎖等,0,2024-10-24,2024-10-11,株式会社丸光鉄工所,,株式会社,山形県,西村山郡河北町,谷地丙８１番地,,06,321,9993511,,,2024-10-11,清算の結了等,,,2015-10-05,1,,,,,マルミツテッコウショ,0
1227,5400001004723,登記記録の閉鎖等,0,2024-10-24,2024-10-09,さがみ典礼岩手株式会社,,株式会社,岩手県,盛岡市,愛宕町７番８号,,03,201,0200013,,,2024-10-09,合併による解散等,9380001007709,令和６年１０月１日福島県郡山市開成三丁目６番１５号アルファクラブ東北株式会社（9380001007709）に合併し解散,2015-10-05,1,,,,,サガミテンレイイワテ,0
1228,5400001009557,登記記録の閉鎖等,0,2024-10-24,2024-10-08,株式会社介護デイサービス花巻,,株式会社,岩手県,北上市,村崎野１６地割２番地２０,,03,206,0240004,,,2024-10-08,清算の結了等,,,2015-10-05,1,,,,,カイゴデイサービスハナマキ,0
1238,5430001079283,登記記録の閉鎖等,0,2024-10-24,2024-10-16,株式会社北海道物流システム研究所,,株式会社,北海道,札幌市中央区,北二条西３丁目１番地,,01,101,0600002,,,2024-10-16,清算の結了等,,,2019-07-03,1,,,,,ホッカイドウブツリュウシステムケンキュウショ,0
1242,5430002037307,登記記録の閉鎖等,0,2024-10-24,2024-10-15,有限会社サッポロイーセット,,有限会社,北海道,札幌市白石区,本郷通３丁目南４番３１号,,01,104,0030024,,,2024-10-15,清算の結了等,,,2015-10-05,1,,,,,サッポロイーセット,0
1247,6010001039221,登記記録の閉鎖等,0,2024-10-24,2024-10-09,株式会社大坂屋,,株式会社,東京都,中央区,日本橋蛎殻町１丁目１１番３号,,13,102,1030014,,,2024-10-09,清算の結了等,,,2015-10-05,1,,,,,オオサカヤ,0
1248,6010001154557,登記記録の閉鎖等,0,2024-10-24,2024-10-16,山佐ＣＣＡ４リース株式会社,,株式会社,東京都,千代田区,丸の内３丁目１番１号東京共同会計事務所内,,13,101,1000005,,,2024-10-16,清算の結了等,,,2015-10-05,1,,,,,ヤマサシーシーエイヨンリース,0
1249,6010001189520,登記記録の閉鎖等,0,2024-10-24,2024-10-10,株式会社ＭＯＬＭＯＣＡ,,株式会社,東京都,中央区,日本橋浜町２丁目４２番８号,,13,102,1030007,,,2024-10-10,清算の結了等,,,2018-02-19,1,,,,,モルモカ,0
1250,6010001203388,登記記録の閉鎖等,0,2024-10-24,2024-10-10,ＡＣＡエナジー株式会社,,株式会社,東京都,千代田区,平河町２丁目１６番９号永田町グラスゲート６階,,13,101,1020093,,,2024-10-10,清算の結了等,,,2019-08-19,1,,,,,エーシーエーエナジー,0
1264,6010401162300,登記記録の閉鎖等,0,2024-10-24,2024-09-24,株式会社ＯＺ　Ｗｏｒｋｓ,,株式会社,東京都,港区,西麻布２丁目１７番６－１０１号,,13,103,1060031,,,2024-09-24,清算の結了等,,,2021-08-27,1,,,,,オズワークス,0
1272,6010405021345,登記記録の閉鎖等,0,2024-10-24,2024-10-02,Ｎｅｐｔｕｎｅ特定目的会社,,その他の設立登記法人,東京都,港区,虎ノ門５丁目１番４号,,13,103,1050001,,,2024-10-02,清算の結了等,,,2022-09-01,1,,,,,ネプチューン,0
1288,6011001148755,登記記録の閉鎖等,0,2024-10-24,2024-10-21,株式会社ＭＧＭ,,株式会社,東京都,渋谷区,恵比寿西１丁目２０番５号恵比寿ＳＡビル８階,,13,113,1500021,,,2024-10-21,合併による解散等,5010501013073,令和６年１０月１日東京都台東区橋場一丁目２番１号マルカ株式会社（5010501013073）に合併し解散,2022-07-19,1,,,,,エムジーエム,0
1295,6011002022133,登記記録の閉鎖等,0,2024-10-24,2024-09-10,有限会社エフデザイニング,,有限会社,東京都,渋谷区,東４丁目７番２号ソーホーエスト,,13,113,1500011,,,2024-09-10,清算の結了等,,,2015-10-05,1,,,,,エフデザイニング,0
1304,6011205001223,登記記録の閉鎖等,0,2024-10-24,2024-10-23,特定非営利活動法人地域学習協会,,その他の設立登記法人,東京都,中野区,松が丘２丁目１９番９号ファミールヒルズ哲学堂公園３２０,,13,114,1650024,,,2024-10-23,清算の結了等,,,2015-10-05,1,,,,,チイキガクシュウキョウカイ,0
1315,6012301002148,登記記録の閉鎖等,0,2024-10-24,2024-10-18,株式会社ふじとみ,,株式会社,東京都,町田市,原町田４丁目５番２２号,,13,209,1940013,,,2024-10-18,清算の結了等,,,2015-10-05,1,,,,,フジトミ,0
1327,6020001125672,登記記録の閉鎖等,0,2024-10-24,2024-10-08,ＴＹＫコンサルティング株式会社,,株式会社,神奈川県,横浜市港南区,港南台７丁目１番４号,,14,111,2340054,,,2024-10-08,清算の結了等,,,2018-04-02,1,,,,,ティーワイケーコンサルティング,0
1331,6020003009196,登記記録の閉鎖等,0,2024-10-24,2024-10-07,Ｎａｄｙ合同会社,,合同会社,神奈川県,川崎市宮前区,宮崎２丁目１２番地９,,14,136,2160033,,,2024-10-07,清算の結了等,,,2015-10-05,1,,,,,ナディ,0
1332,6021001062328,登記記録の閉鎖等,0,2024-10-24,2024-10-02,株式会社Ｂｏｒｄｉ,,株式会社,東京都,港区,赤坂４丁目８番１９号赤坂フロントタウン３階,,13,103,1070052,,,2024-10-02,清算の結了等,,,2017-06-12,1,,,,,ボーディ,0
1348,6040002068332,登記記録の閉鎖等,0,2024-10-24,2024-10-17,有限会社クサカ工業,,有限会社,千葉県,木更津市,江川１３４１番地,,12,206,2920063,,,2024-10-17,清算の結了等,,,2015-10-05,1,,,,,,0
1358,6050002039258,登記記録の閉鎖等,0,2024-10-24,2024-10-15,有限会社オオサワ工建,,有限会社,茨城県,取手市,戸頭２４２５番地６,,08,217,3020034,,,2024-10-15,清算の結了等,,,2015-10-05,1,,,,,オオサワコウケン,0
1378,6080401011079,登記記録の閉鎖等,0,2024-10-24,2024-10-23,株式会社ＡＺＵＴＩ,,株式会社,静岡県,浜松市浜名区,善地３００番地,,22,139,4340025,,,2024-10-23,清算の結了等,,,2015-10-05,1,,,,,アズチ,0
1385,6120001161261,登記記録の閉鎖等,0,2024-10-24,2024-10-21,株式会社リーベック,,株式会社,大阪府,泉南郡岬町,淡輪１７５０番地,,27,366,5990301,,,2024-10-21,清算の結了等,,,2015-10-05,1,,,,,リーベック,0
1398,6120101045793,登記記録の閉鎖等,0,2024-10-24,2024-10-17,株式会社翼,,株式会社,大阪府,寝屋川市,高柳５丁目１６番５号３０５,,27,215,5720051,,,2024-10-17,清算の結了等,,,2015-10-05,1,,,,,ツバサ,0
1408,6140002003519,登記記録の閉鎖等,0,2024-10-24,2024-10-18,有限会社夏目内張工作所,,有限会社,兵庫県,神戸市灘区,都通５丁目４番１９号,,28,102,6570844,,,2024-10-18,清算の結了等,,,2015-10-05,1,,,,,ナツメウチバリコウサクショ,0
1412,6150002005299,登記記録の閉鎖等,0,2024-10-24,2024-10-21,有限会社森本鍼灸整骨院,,有限会社,奈良県,大和郡山市,小林町西２丁目３番地の２,,29,203,6391045,,,2024-10-21,清算の結了等,,,2015-10-05,1,,,,,モリモトシンキュウセイコツイン,0
1424,6180001149945,登記記録の閉鎖等,0,2024-10-24,2024-10-04,株式会社明弘,,株式会社,愛知県,日進市,竹の山５丁目８０６番地,,23,230,4700136,,,2024-10-04,合併による解散等,3180001107492,令和６年９月２５日愛知県日進市岩崎町元井ゲ１７番地３２株式会社明雄（3180001107492）に合併し解散,2022-02-14,1,,,,,メイコウ,0
1429,6180002086626,登記記録の閉鎖等,0,2024-10-24,2024-10-07,有限会社シーエスエンジニアリング,,有限会社,愛知県,半田市,有楽町７丁目４０番地２,,23,205,4750837,,,2024-10-07,清算の結了等,,,2015-10-05,1,,,,,シーエスエンジニアリング,0
1452,6290001079842,登記記録の閉鎖等,0,2024-10-24,2024-10-01,サンライト株式会社,,株式会社,東京都,港区,東麻布１丁目５－３パシフィックビル,,13,103,1060044,,,2024-10-01,合併による解散等,5010601055230,令和６年１０月１日東京都港区東麻布１－５－３パシフィックビル株式会社ＪＯＭＳ（5010601055230）に合併し解散,2017-12-08,1,,,,,サンライト,0
1456,6290002019491,登記記録の閉鎖等,0,2024-10-24,2024-09-18,有限会社ケイズプラン,,有限会社,福岡県,福岡市中央区,荒戸３丁目３番４８－２０４号,,40,133,8100062,,,2024-09-18,清算の結了等,,,2015-10-05,1,,,,,ケイズプラン,0
1459,6290803003207,登記記録の閉鎖等,0,2024-10-24,2024-09-18,合同会社ＧＵＭｉ,,合同会社,福岡県,福岡市博多区,博多駅前３丁目７番３５号博多ハイテックビル５０５,,40,132,8120011,,,2024-09-18,清算の結了等,,,2018-10-05,1,,,,,グミ,0
1473,6400001004796,登記記録の閉鎖等,0,2024-10-24,2024-10-11,株式会社サラダファーム,,株式会社,岩手県,八幡平市,平笠第２地割６番地３３３,,03,214,0287113,,,2024-10-11,清算の結了等,,,2015-10-05,1,,,,,サラダファーム,0
1479,6430001036597,登記記録の閉鎖等,0,2024-10-24,2024-10-17,株式会社ＳＢＣ,,株式会社,北海道,札幌市東区,東苗穂六条１丁目５番４０号,,01,103,0070806,,,2024-10-17,清算の結了等,,,2015-10-05,1,,,,,エスビーシー,0
1485,6430001066826,登記記録の閉鎖等,0,2024-10-24,2024-10-16,株式会社尾崎土木設計事務所,,株式会社,北海道,江別市,幸町１番地の３,,01,217,0690812,,,2024-10-16,清算の結了等,,,2015-10-05,1,,,,,オザキドボクセッケイジムショ,0
1501,7010001152213,登記記録の閉鎖等,0,2024-10-24,2024-10-16,山佐ＤＬＨ１０リース株式会社,,株式会社,東京都,千代田区,丸の内３丁目１番１号東京共同会計事務所内,,13,101,1000005,,,2024-10-16,清算の結了等,,,2015-10-05,1,,,,,ヤマサディーエルエイチジュウリース,0
1502,7010001154556,登記記録の閉鎖等,0,2024-10-24,2024-10-16,山佐ＣＣＡ３リース株式会社,,株式会社,東京都,千代田区,丸の内３丁目１番１号東京共同会計事務所内,,13,101,1000005,,,2024-10-16,清算の結了等,,,2015-10-05,1,,,,,ヤマサシーシーエイサンリース,0
1505,7010001158689,登記記録の閉鎖等,0,2024-10-24,2024-10-16,山佐ＴＫ９リース株式会社,,株式会社,東京都,千代田区,丸の内３丁目１番１号東京共同会計事務所内,,13,101,1000005,,,2024-10-16,清算の結了等,,,2015-10-05,1,,,,,ヤマサティーケイキュウリース,0
1506,7010001159068,登記記録の閉鎖等,0,2024-10-24,2024-10-16,山佐２０１０ＨＫ２リース株式会社,,株式会社,東京都,千代田区,丸の内３丁目１番１号東京共同会計事務所内,,13,101,1000005,,,2024-10-16,清算の結了等,,,2015-10-05,1,,,,,ヤマサニセンジュウエイチケイニリース,0
1510,7010002037801,登記記録の閉鎖等,0,2024-10-24,2024-10-09,有限会社ラ・ヴォーテ,,有限会社,東京都,千代田区,有楽町１丁目７番１号,,13,101,1000006,,,2024-10-09,清算の結了等,,,2015-10-05,1,,,,,ラヴォーテ,0
1513,7010003025326,登記記録の閉鎖等,0,2024-10-24,2024-10-09,ＵＳＰＯＦ１号合同会社,,合同会社,東京都,千代田区,丸の内３丁目１番１号東京共同会計事務所内,,13,101,1000005,,,2024-10-09,清算の結了等,,,2017-05-16,1,,,,,ユーエスピーオーエフイチゴウ,0
1515,7010005030720,登記記録の閉鎖等,0,2024-10-24,2024-09-30,一般社団法人ＳＯＳＡＮＡ,,その他の設立登記法人,東京都,渋谷区,渋谷３丁目１－９Ｙａｚａｗａビル４階,,13,113,1500002,,,2024-09-30,清算の結了等,,,2019-09-04,1,,,,,ソサナ,0
1527,7010401132582,登記記録の閉鎖等,0,2024-10-24,2024-10-01,スコーク株式会社,,株式会社,東京都,港区,南青山２丁目２番１５号ウィン青山９４２,,13,103,1070062,,,2024-10-01,合併による解散等,8010401132581,令和６年１０月１日東京都港区南青山二丁目２番１５号ウィン青山９４２ＲＰＭ株式会社（8010401132581）に合併し解散,2017-07-21,1,,,,,スコーク,0
1536,7010405017425,登記記録の閉鎖等,0,2024-10-24,2024-10-01,一般財団法人稻川素子記念財団,,その他の設立登記法人,東京都,港区,西麻布１丁目９番１６号,,13,103,1060031,,,2024-10-01,清算の結了等,,,2019-02-01,1,,,,,イナガワモトコキネンザイダン,0
1559,7011102030035,登記記録の閉鎖等,0,2024-10-24,2024-10-21,有限会社ＶＩＴＡＬＥ,,有限会社,東京都,練馬区,東大泉１丁目３７番２０号シティタワー大泉学園１４０５号,,13,120,1780063,,,2024-10-21,清算の結了等,,,2015-10-05,1,,,,,ヴィターレ,0
1560,7011105007914,登記記録の閉鎖等,0,2024-10-24,2024-10-10,一般社団法人センチュリーホールディングス,,その他の設立登記法人,東京都,新宿区,四谷２丁目９番地１５あると綜合事務所内,,13,104,1600004,,,2024-10-10,清算の結了等,,,2017-07-28,1,,,,,センチュリーホールディングス,0
1562,7011401022286,登記記録の閉鎖等,0,2024-10-24,2024-10-17,株式会社茉莉,,株式会社,東京都,足立区,東六月町１１番４５号,,13,121,1210071,,,2024-10-17,清算の結了等,,,2019-12-19,1,,,,,マツリ,0
1579,7012301012063,登記記録の閉鎖等,0,2024-10-24,2024-10-18,株式会社ＥＵ　ＺＥＮ,,株式会社,東京都,町田市,金森東２丁目１１番２８号カーサフェリーチェ１０２,,13,209,1940015,,,2024-10-18,清算の結了等,,,2020-04-08,1,,,,,エウゼン,0
1588,7013301044682,登記記録の閉鎖等,0,2024-10-24,2024-10-10,株式会社ライド,,株式会社,東京都,新宿区,西新宿３丁目１５番５号ライオンズマンション西新宿５０１号,,13,104,1600023,,,2024-10-10,清算の結了等,,,2019-10-29,1,,,,,ライド,0
1590,7020001010188,登記記録の閉鎖等,0,2024-10-24,2024-10-07,ダイヤライフ株式会社,,株式会社,神奈川県,横浜市瀬谷区,三ツ境１０５－４タック三ツ境６０３,,14,114,2460022,,,2024-10-07,清算の結了等,,,2015-10-05,1,,,,,ダイヤライフ,0
1593,7020001105509,登記記録の閉鎖等,0,2024-10-24,2024-10-08,株式会社ワイン２０９カンパニー,,株式会社,神奈川県,横浜市港南区,港南台３丁目１８番３７号,,14,111,2340054,,,2024-10-08,清算の結了等,,,2015-10-05,1,,,,,ワインニーマルキュウカンパニー,0
1600,7020002096813,登記記録の閉鎖等,0,2024-10-24,2024-10-23,有限会社児島防水工業,,有限会社,神奈川県,小田原市,矢作１４７番地の５１,,14,206,2500873,,,2024-10-23,清算の結了等,,,2015-10-05,1,,,,,コジマボウスイコウギョウ,0
1620,7040003006612,登記記録の閉鎖等,0,2024-10-24,2024-10-10,合同会社まちづくりサポート,,合同会社,東京都,千代田区,富士見２丁目１０番２号,,13,101,1020071,,,2024-10-10,清算の結了等,,,2015-10-05,1,,,,,マチヅクリサポート,0
1628,7050002024820,登記記録の閉鎖等,0,2024-10-24,2024-10-15,有限会社マルゼン工業,,有限会社,茨城県,古河市,女沼９９６番地の１０,,08,204,3060226,,,2024-10-15,清算の結了等,,,2015-10-05,1,,,,,マルゼンコウギョウ,0
1635,7070001026997,登記記録の閉鎖等,0,2024-10-24,2024-10-21,新井防災株式会社,,株式会社,群馬県,前橋市,下細井町５５４番地６,,10,201,3710054,,,2024-10-21,清算の結了等,,,2015-10-05,1,,,,,アライボウサイ,0
1638,7080001007591,登記記録の閉鎖等,0,2024-10-24,2024-10-18,株式会社池田新聞店,,株式会社,静岡県,静岡市清水区,興津中町４２７番地の６,,22,103,4240204,,,2024-10-18,清算の結了等,,,2015-10-05,1,,,,,イケダシンブンテン,0
1677,7130001029424,登記記録の閉鎖等,0,2024-10-24,2024-10-22,株式会社トパーズ,,株式会社,京都府,京都市山科区,小山谷田町４４番地の６７,,26,110,6078104,,,2024-10-22,清算の結了等,,,2015-10-05,1,,,,,,0
1699,7180001142701,登記記録の閉鎖等,0,2024-10-24,2024-10-07,Ｓｉｇｎａｌ株式会社,,株式会社,愛知県,名古屋市千種区,大島町２丁目８番地,,23,101,4640833,,,2024-10-07,清算の結了等,,,2020-09-03,1,,,,,シグナル,0
1701,7180002039797,登記記録の閉鎖等,0,2024-10-24,2024-10-07,有限会社吉田商店,00073122,有限会社,愛知県,名古屋市守山区,新城１１番７号,,23,113,4630056,,,2024-10-07,清算の結了等,,,2015-10-05,1,,,,,ヨシダショウテン,0
1702,7180002049350,登記記録の閉鎖等,0,2024-10-24,2024-10-07,有限会社アセットリサーチ,,有限会社,愛知県,春日井市,春見町３０番２,,23,206,4860837,,,2024-10-07,清算の結了等,,,2015-10-05,1,,,,,アセットリサーチ,0
1708,7190001004660,登記記録の閉鎖等,0,2024-10-24,2024-10-22,株式会社ほけんのたかはし,,株式会社,三重県,尾鷲市,末広町２番１０号クロスロード１Ｆ,,24,209,5193651,,,2024-10-22,清算の結了等,,,2015-10-05,1,,,,,ホケンノタカハシ,0
1713,7210002013815,登記記録の閉鎖等,0,2024-10-24,2024-10-16,有限会社竹中酒店,,有限会社,福井県,小浜市,加茂第９５号６番地,,18,204,9170223,,,2024-10-16,合併による解散等,5210001004494,令和６年１０月１日福井市問屋町二丁目３５番地株式会社華（5210001004494）に合併し解散,2015-10-05,1,,,,,タケナカサケテン,0
1723,7250002009677,登記記録の閉鎖等,0,2024-10-24,2024-10-21,有限会社セラビ,,有限会社,山口県,下関市,観音崎町５番１５号,,35,201,7500012,,,2024-10-21,清算の結了等,,,2015-10-05,1,,,,,セラビ,0
1732,7300002007989,登記記録の閉鎖等,0,2024-10-24,2024-10-22,有限会社ながはま,,有限会社,佐賀県,伊万里市,東山代町長浜２０９４番地５,,41,205,8494271,,,2024-10-22,清算の結了等,,,2015-10-05,1,,,,,ナガハマ,0
1756,7420001004793,登記記録の閉鎖等,0,2024-10-24,2024-10-18,株式会社玄同社,,株式会社,青森県,青森市,桜川１丁目１２番５号,,02,201,0300945,,,2024-10-18,清算の結了等,,,2015-10-05,1,,,,,ゲンドウシャ,0
1764,7460001005573,登記記録の閉鎖等,0,2024-10-24,2024-10-23,株式会社Ｃｏｎｔｉｎｕａｒ,,株式会社,北海道,釧路市,昭和南６丁目２０番１７号,,01,206,0840909,,,2024-10-23,清算の結了等,,,2021-07-14,1,,,,,コンティノアール,0
1766,7480002001792,登記記録の閉鎖等,0,2024-10-24,2024-10-22,有限会社小西英利建築設計室,,有限会社,徳島県,徳島市,八万町内浜１５１番地１１,,36,201,7708076,,,2024-10-22,清算の結了等,,,2015-10-05,1,,,,,コニシヒデトシケンチクセケイシツ,0
1767,7490001000992,登記記録の閉鎖等,0,2024-10-24,2024-10-22,株式会社高知葬祭センター,,株式会社,高知県,高知市,昭和町２４番１６号,,39,201,7800063,,,2024-10-22,清算の結了等,,,2015-10-05,1,,,,,コウチソウサイセンター,0
1770,8010001018124,登記記録の閉鎖等,0,2024-10-24,2024-10-09,株式会社ザ・メツセージ,,株式会社,東京都,千代田区,神田三崎町３丁目３番１号,,13,101,1010061,,,2024-10-09,清算の結了等,,,2015-10-05,1,,,,,ザメッセージ,0
1774,8010001152212,登記記録の閉鎖等,0,2024-10-24,2024-10-16,山佐ＤＬＨ９リース株式会社,,株式会社,東京都,千代田区,丸の内３丁目１番１号東京共同会計事務所内,,13,101,1000005,,,2024-10-16,清算の結了等,,,2015-10-05,1,,,,,ヤマサディーエルエイチキュウリース,0
1776,8010001159067,登記記録の閉鎖等,0,2024-10-24,2024-10-16,山佐２０１０ＨＫ１リース株式会社,,株式会社,東京都,千代田区,丸の内３丁目１番１号東京共同会計事務所内,,13,101,1000005,,,2024-10-16,清算の結了等,,,2015-10-05,1,,,,,ヤマサニセンジュウエイチケイイチリース,0
1783,8010103001003,登記記録の閉鎖等,0,2024-10-24,2024-10-21,合同会社ＳＫＥ企画,,合同会社,東京都,八王子市,並木町３９番１４－２１５号,,13,201,1930831,,,2024-10-21,清算の結了等,,,2016-08-09,1,,,,,,0
1785,8010401081176,登記記録の閉鎖等,0,2024-10-24,2024-10-02,株式会社ＴＤＭ,,株式会社,東京都,港区,浜松町１丁目３０番５号,,13,103,1050013,,,2024-10-02,清算の結了等,,,2015-10-05,1,,,,,ティディエム,0
1800,8010405016649,登記記録の閉鎖等,0,2024-10-24,2024-10-08,一般社団法人ＩｏＴ３Ｒ協会,,その他の設立登記法人,神奈川県,横浜市青葉区,もみの木台１７番地３４,,14,117,2250026,,,2024-10-08,清算の結了等,,,2018-04-17,1,,,,,アイオーティーサンアールキョウカイ,0
1810,8010802008587,登記記録の閉鎖等,0,2024-10-24,2024-10-18,有限会社ダイヤ商事,,有限会社,東京都,大田区,池上５丁目２番８号,,13,111,1460082,,,2024-10-18,清算の結了等,,,2015-10-05,1,,,,,ダイヤショウジ,0
1811,8010802017687,登記記録の閉鎖等,0,2024-10-24,2024-10-21,有限会社エヌエヌインターナショナル,,有限会社,東京都,大田区,仲池上１丁目１５番１１号,,13,111,1460081,,,2024-10-21,清算の結了等,,,2015-10-05,1,,,,,エヌエヌインターナショナル,0
1835,8011205002418,登記記録の閉鎖等,0,2024-10-24,2024-10-09,一般社団法人アップステア,,その他の設立登記法人,東京都,国立市,谷保４丁目２０番地の１ＪＵＮメビウス国立１階,,13,215,1860011,,,2024-10-09,清算の結了等,,,2021-01-12,1,,,,,アップステア,0
1845,8011602003349,登記記録の閉鎖等,0,2024-10-24,2024-10-18,有限会社栗原精機製作所,,有限会社,東京都,練馬区,北町２丁目４１番２６号,,13,120,1790081,,,2024-10-18,清算の結了等,,,2015-10-05,1,,,,,クリハラセイキセイサクジョ,0
1848,8011802025911,登記記録の閉鎖等,0,2024-10-24,2024-10-18,有限会社悠榮印刷,,有限会社,東京都,足立区,堀之内１丁目１番４号,,13,121,1230874,,,2024-10-18,清算の結了等,,,2015-10-05,1,,,,,ユウエイインサツ,0
1860,8013301049284,登記記録の閉鎖等,0,2024-10-24,2024-10-11,金木源株式会社,,株式会社,東京都,豊島区,東池袋２丁目６２番９号サンハイツ東池袋６０２号室,,13,116,1700013,,,2024-10-11,清算の結了等,,,2022-06-21,1,,,,,,0
1865,8020001024600,登記記録の閉鎖等,0,2024-10-24,2024-09-30,株式会社室工業所,,株式会社,神奈川県,横浜市神奈川区,台町１３番地の８シェリーヒルズ横浜５階,,14,102,2210834,,,2024-09-30,清算の結了等,,,2024-08-07,1,,,,,ムロコウギョウショ,0
1879,8021001064132,登記記録の閉鎖等,0,2024-10-24,2024-10-22,株式会社ＲＩＳＡ,,株式会社,神奈川県,足柄下郡箱根町,元箱根２０番地,,14,382,2500522,,,2024-10-22,清算の結了等,,,2018-02-13,1,,,,,リサ,0
1900,8060001021734,登記記録の閉鎖等,0,2024-10-24,2024-10-18,株式会社ＡｒｏｕｎＤエンターテイメント,,株式会社,栃木県,小山市,城山町３丁目１５番３号日南ビル３Ｆ、４Ｆ,,09,208,3230025,,,2024-10-18,清算の結了等,,,2015-10-05,1,,,,,アラウンドエンターテイメント,0
1903,8070001036905,登記記録の閉鎖等,0,2024-10-24,2024-10-22,塚本土建株式会社,,株式会社,群馬県,太田市,細谷町１１１番地１,,10,205,3730842,,,2024-10-22,清算の結了等,,,2020-06-08,1,,,,,ツカモトドケン,0
1910,8070005009361,登記記録の閉鎖等,0,2024-10-24,2024-10-22,一般社団法人樹,,その他の設立登記法人,群馬県,みどり市,笠懸町阿左美２５６１番地３,,10,212,3792311,,,2024-10-22,清算の結了等,,,2017-07-25,1,,,,,イツキ,0
1915,8080401019640,登記記録の閉鎖等,0,2024-10-24,2024-10-18,株式会社ＢＲＥＥＤ,,株式会社,静岡県,浜松市中央区,笠井町１３５６番地の７,,22,138,4313107,,,2024-10-18,清算の結了等,,,2015-10-05,1,,,,,ブリード,0
1922,8110001009492,登記記録の閉鎖等,0,2024-10-24,2024-10-16,リニアクラフト株式会社,,株式会社,新潟県,新潟市西蒲区,漆山３６９０番地３２,,15,108,9530054,,,2024-10-16,清算の結了等,,,2015-10-05,1,,,,,リニアクラフト,0
1928,8120001113062,登記記録の閉鎖等,0,2024-10-24,2024-10-22,株式会社ゲームエイジ総研,,株式会社,大阪府,箕面市,桜井２丁目４番３号,,27,220,5620043,,,2024-10-22,清算の結了等,,,2015-10-05,1,,,,,ゲームエイジソウケン,0
1931,8120001225196,登記記録の閉鎖等,0,2024-10-24,2024-10-17,トライデント株式会社,,株式会社,大阪府,大阪市北区,天神西町１番６号アールビル天神西１１０１号,,27,127,5300045,,,2024-10-17,清算の結了等,,,2019-11-18,1,,,,,トライデント,0
1940,8122001025436,登記記録の閉鎖等,0,2024-10-24,2024-10-22,リーガルコーチ株式会社,,株式会社,兵庫県,宝塚市,仁川北２丁目１番９号,,28,214,6650061,,,2024-10-22,清算の結了等,,,2015-10-05,1,,,,,リーガルコーチ,0
1947,8130002007758,登記記録の閉鎖等,0,2024-10-24,2024-10-21,有限会社ビストロ希味,,有限会社,京都府,京都市下京区,室町通高辻下る高辻町５８７番地,00037100,26,106,6008434,,,2024-10-21,清算の結了等,,,2015-10-05,1,,,,,,0
1950,8140001084062,登記記録の閉鎖等,0,2024-10-24,2024-10-18,Ｎ・Ｎ株式会社,,株式会社,兵庫県,宝塚市,小林２丁目１１番１６号,,28,214,6650034,,,2024-10-18,清算の結了等,,,2015-10-05,1,,,,,エヌエヌ,0
1961,8180001038064,登記記録の閉鎖等,0,2024-10-24,2024-10-07,中部コムテック株式会社,,株式会社,愛知県,名古屋市中区,千代田５丁目７番２８号,,23,106,4600012,,,2024-10-07,清算の結了等,,,2015-10-05,1,,,,,チュウブコムテック,0
1978,8220001000465,登記記録の閉鎖等,0,2024-10-24,2024-10-22,株式会社ハヤカワ,,株式会社,石川県,野々市市,本町５丁目１番１７号,,17,212,9218815,,,2024-10-22,清算の結了等,,,2015-10-05,1,,,,,ハヤカワ,0
1981,8230002003581,登記記録の閉鎖等,0,2024-10-24,2024-10-23,有限会社アーティファクト,,有限会社,富山県,富山市,黒崎９７番地の５,,16,201,9398214,,,2024-10-23,清算の結了等,,,2015-10-05,1,,,,,,0
1985,8240002021946,登記記録の閉鎖等,0,2024-10-24,2024-10-21,有限会社みくにや,,有限会社,広島県,広島市佐伯区,八幡東３丁目２５番１０－６０２号,,34,108,7315115,,,2024-10-21,清算の結了等,,,2015-10-05,1,,,,,ミクニヤ,0
1995,8290001087620,登記記録の閉鎖等,0,2024-10-24,2024-09-17,株式会社ＬｉＶＥＳＨＯＰ,,株式会社,福岡県,福岡市中央区,今泉１丁目１８番２０号クレスト今泉１０６号,,40,133,8100021,,,2024-09-17,清算の結了等,,,2020-01-09,1,,,,,ライブショップ,0
2032,8430001036950,登記記録の閉鎖等,0,2024-10-24,2024-10-16,モリミツ株式会社,,株式会社,北海道,札幌市豊平区,美園九条３丁目３番５号,,01,105,0620009,,,2024-10-16,合併による解散等,9010001041323,令和６年１０月１日東京都中央区日本橋本町一丁目１番８号ニッタエアソリューションズ株式会社（9010001041323）に合併し解散,2015-10-05,1,,,,,モリミツ,0
2033,8430001062022,登記記録の閉鎖等,0,2024-10-24,2024-10-17,株式会社聖徳苑,,株式会社,北海道,苫小牧市,美原町２丁目２７番１６号,,01,213,0591262,,,2024-10-17,清算の結了等,,,2015-10-05,1,,,,,ショウトクエン,0
2046,9010001160940,登記記録の閉鎖等,0,2024-10-24,2024-10-09,株式会社サガミインターナショナル,,株式会社,東京都,文京区,小日向４丁目２番１３号,,13,105,1120006,,,2024-10-09,清算の結了等,,,2015-10-05,1,,,,,サガミインターナショナル,0
2051,9010003042410,登記記録の閉鎖等,0,2024-10-24,2024-10-16,エスティイレブン合同会社,,合同会社,東京都,千代田区,丸の内３丁目１番１号東京共同会計事務所内,,13,101,1000005,,,2024-10-16,清算の結了等,,,2023-12-11,1,,,,,エスティイレブン,0
2071,9011101016693,登記記録の閉鎖等,0,2024-10-24,2024-10-11,株式会社日本文化センターファクタリング,,株式会社,東京都,新宿区,高田馬場１丁目４番１５号,,13,104,1690075,,,2024-10-11,清算の結了等,,,2015-10-05,1,,,,,ニホンブンカセンターファクタリング,0
2083,9011502004966,登記記録の閉鎖等,0,2024-10-24,2024-10-23,有限会社平井機械店,,有限会社,東京都,北区,田端新町２丁目２６番６号,,13,117,1140012,,,2024-10-23,清算の結了等,,,2015-10-05,1,,,,,,0
2090,9012703002528,登記記録の閉鎖等,0,2024-10-24,2024-10-17,合同会社サンドリーム,,合同会社,北海道,札幌市西区,西野七条７丁目８番３６号,,01,107,0630037,,,2024-10-17,清算の結了等,,,2022-09-02,1,,,,,サンドリーム,0
2100,9020002023138,登記記録の閉鎖等,0,2024-10-24,2024-10-07,有限会社今西総業,,有限会社,神奈川県,横浜市神奈川区,三ツ沢上町３番９－７０３号,,14,102,2210856,,,2024-10-07,清算の結了等,,,2015-10-05,1,,,,,イマニシソウギョウ,0
2107,9021002071630,登記記録の閉鎖等,0,2024-10-24,2024-10-23,有限会社辻井クリーニング,00013985,有限会社,神奈川県,三浦市,三崎町諸磯１番地１,,14,210,2380224,,,2024-10-23,清算の結了等,,,2015-10-05,1,,,,,ツジイクリーニング,0
2109,9021005001386,登記記録の閉鎖等,0,2024-10-24,2024-10-18,医療法人社団南星会,,その他の設立登記法人,神奈川県,藤沢市,藤沢９６６番地の３毛利ビル１階,,14,205,2510052,,,2024-10-18,清算の結了等,,,2015-10-05,1,,,,,ナンセイカイ,0
2132,9070001013390,登記記録の閉鎖等,0,2024-10-24,2024-10-18,エクシオ・コアイノベーション株式会社,,株式会社,群馬県,伊勢崎市,宮子町３４５０番地８,,10,204,3720801,,,2024-10-18,合併による解散等,1010401081430,令和６年１０月１日東京都港区三田三丁目５番２７号エクシオ・デジタルソリューションズ株式会社（1010401081430）に合併し解散,2015-10-05,1,,,,,エクシオコアイノベーション,0
2134,9070001023539,登記記録の閉鎖等,0,2024-10-24,2024-10-22,株式会社利根産業,,株式会社,群馬県,沼田市,薄根町４４８２番地,,10,206,3780031,,,2024-10-22,清算の結了等,,,2015-10-05,1,,,,,トネサンギョウ,0
2141,9080002009379,登記記録の閉鎖等,0,2024-10-24,2024-10-17,有限会社エスピーエフ,,有限会社,静岡県,静岡市清水区,楠新田２７０番地の１７,,22,103,4240882,,,2024-10-17,清算の結了等,,,2015-10-05,1,,,,,エスピーエフ,0
2142,9080002013521,登記記録の閉鎖等,0,2024-10-24,2024-10-18,有限会社お茶のあおしま,,有限会社,静岡県,島田市,井口１２０６番地,,22,209,4270104,,,2024-10-18,清算の結了等,,,2015-10-05,1,,,,,,0
2145,9080102017430,登記記録の閉鎖等,0,2024-10-24,2024-10-21,有限会社吉野商店,,有限会社,静岡県,富士宮市,光町９番１１号,,22,207,4180054,,,2024-10-21,清算の結了等,,,2015-10-05,1,,,,,ヨシノショウテン,0
2146,9080402016322,登記記録の閉鎖等,0,2024-10-24,2024-10-18,有限会社イトー電化,,有限会社,静岡県,浜松市天竜区,二俣町二俣３５２番地の１２,,22,140,4313314,,,2024-10-18,清算の結了等,,,2015-10-05,1,,,,,イトーデンカ,0
2151,9110001012925,登記記録の閉鎖等,0,2024-10-24,2024-10-16,株式会社まるこ,,株式会社,新潟県,新発田市,大栄町１丁目７番１６号,,15,206,9570056,,,2024-10-16,清算の結了等,,,2015-10-05,1,,,,,マルコ,0
2152,9110001020622,登記記録の閉鎖等,0,2024-10-24,2024-10-17,株式会社ＳＪテクノス,,株式会社,新潟県,上越市,寺町１丁目９番１６号,,15,222,9430892,,,2024-10-17,清算の結了等,,,2015-10-05,1,,,,,エスジェイテクノス,0
2177,9130003002328,登記記録の閉鎖等,0,2024-10-24,2024-10-21,セルフソウ合同会社,,合同会社,京都府,京都市中京区,夷川通烏丸東入西九軒町２９１番地藤和シティコープ烏丸７０５号,,26,104,6040851,,,2024-10-21,清算の結了等,,,2015-10-05,1,,,,,セルフソウ,0
2194,9180001130480,登記記録の閉鎖等,0,2024-10-24,2024-10-07,株式会社メディカルビルド,,株式会社,愛知県,名古屋市中川区,野田１丁目３３４番地,,23,110,4540912,,,2024-10-07,清算の結了等,,,2017-12-19,1,,,,,メディカルビルド,0
2210,9190002020259,登記記録の閉鎖等,0,2024-10-24,2024-10-22,有限会社サカヱヤ,,有限会社,三重県,四日市市,九の城町１番１号,,24,202,5100072,,,2024-10-22,清算の結了等,,,2015-10-05,1,,,,,サカエヤ,0
2220,9250002017934,登記記録の閉鎖等,0,2024-10-24,2024-10-21,有限会社共伸電機工事,,有限会社,山口県,岩国市,室の木町４丁目６４番１６号,,35,208,7400021,,,2024-10-21,清算の結了等,,,2015-10-05,1,,,,,キョウシンデンキコウジ,0
2226,9270002000475,登記記録の閉鎖等,0,2024-10-24,2024-10-23,有限会社賀露鉄工處,,有限会社,鳥取県,鳥取市,賀露町南３丁目３０９６番地,,31,201,6800909,,,2024-10-23,清算の結了等,,,2015-10-05,1,,,,,カロテッコウショ,0
2236,9290802014400,登記記録の閉鎖等,0,2024-10-24,2024-10-16,有限会社下川設計事務所,,有限会社,福岡県,北九州市八幡西区,沖田２丁目１７番４号１０６,,40,109,8070077,,,2024-10-16,清算の結了等,,,2015-10-05,1,,,,,シモカワセッケイジムショ,0
2244,9330002026786,登記記録の閉鎖等,0,2024-10-24,2024-10-17,有限会社村井鮮魚店,,有限会社,熊本県,八代市,鏡町鏡１９７番地,,43,202,8694203,,,2024-10-17,清算の結了等,,,2015-10-05,1,,,,,ムライセンギョテン,0
2256,9370801001738,登記記録の閉鎖等,0,2024-10-24,2024-10-09,株式会社新成,,株式会社,宮城県,亘理郡亘理町,逢隈神宮寺字袖ケ沢６番地９,00081727,04,361,9892372,,,2024-10-09,清算の結了等,,,2015-10-05,1,,,,,シンセイ,0
2274,9390005006235,登記記録の閉鎖等,0,2024-10-24,2024-10-15,公益財団法人近野教育振興会,,その他の設立登記法人,山形県,米沢市,大町１丁目１番４４号,,06,202,9920031,,,2024-10-15,清算の結了等,,,2015-10-05,1,,,,,コンノキョウイクシンコウカイ,0
2275,9410002003125,登記記録の閉鎖等,0,2024-10-24,2024-10-18,有限会社平野内建築設計事務所,,有限会社,秋田県,秋田市,大町２丁目５番３８号,,05,201,0100921,,,2024-10-18,清算の結了等,,,2015-10-05,1,,,,,ヒラノウチケンチクセッケイジムショ,0
2283,9460001005357,登記記録の閉鎖等,0,2024-10-24,2024-10-23,株式会社エーエムサービス,,株式会社,北海道,厚岸郡厚岸町,白浜３丁目５２番地,,01,662,0881125,,,2024-10-23,清算の結了等,,,2019-06-04,1,,,,,エーエムサービス,0
