sequenceNumber,corporateNumber,process,correct,updateDate,changeDate,name,nameImageId,kind,prefectureName,cityName,streetNumber,addressImageId,prefectureCode,cityCode,postCode,addressOutside,addressOutsideImageId,closeDate,closeCause,successorCorporateNumber,changeCause,assignmentDate,latest,enName,enPrefectureName,enCityName,enAddressOutside,furigana,hihyoji
16,1010002024029,登記記録の閉鎖等,0,2023-09-28,2023-09-20,有限会社平井,,有限会社,東京都,中央区,日本橋浜町２丁目２６番７号,,13,102,1030007,,,2023-09-20,清算の結了等,,,2015-10-05,1,,,,,ヒライ,0
18,1010401020520,登記記録の閉鎖等,0,2023-09-28,2023-09-07,東京岸田精密工業株式会社,,株式会社,東京都,港区,新橋６丁目１３番５号,,13,103,1050004,,,2023-09-07,清算の結了等,,,2015-10-05,1,,,,,トウキョウキシダセイミツコウギョウ,0
33,1010701009247,登記記録の閉鎖等,0,2023-09-28,2023-09-22,株式会社マツミヤ,,株式会社,東京都,品川区,小山台１丁目２９番１号,,13,109,1420061,,,2023-09-22,清算の結了等,,,2015-10-05,1,,,,,マツミヤ,0
36,1011001132656,登記記録の閉鎖等,0,2023-09-28,2023-09-19,株式会社ＶＩＰ　ＭＯＴＯＲＳ　ＪＡＰＡＮ,,株式会社,東京都,渋谷区,桜丘町１３番９－３０８号クリエート桜丘,,13,113,1500031,,,2023-09-19,清算の結了等,,,2020-03-04,1,,,,,ビップモーターズジャパン,0
42,1011102029371,登記記録の閉鎖等,0,2023-09-28,2023-09-25,有限会社アイランド,,有限会社,東京都,新宿区,市谷左内町一丁目１番地,,13,104,1620846,,,2023-09-25,清算の結了等,,,2015-10-05,1,,,,,アイランド,0
54,1012301007738,登記記録の閉鎖等,0,2023-09-28,2023-09-11,株式会社エヌ・ケイ・エンタープライズ,,株式会社,東京都,町田市,原町田４丁目７番１２号カーサイコー町田４０２,,13,209,1940013,,,2023-09-11,清算の結了等,,,2015-10-05,1,,,,,エヌケイエンタープライズ,0
61,1013302007454,登記記録の閉鎖等,0,2023-09-28,2023-09-22,有限会社中村事務所,,有限会社,東京都,豊島区,南池袋１丁目９番２０－１０３号,,13,116,1710022,,,2023-09-22,清算の結了等,,,2015-10-05,1,,,,,ナカムラジムショ,0
70,1021001055402,登記記録の閉鎖等,0,2023-09-28,2023-09-19,ＵＴＳテクノロジー株式会社,,株式会社,神奈川県,大和市,大和東２丁目１０番１３号,,14,213,2420017,,,2023-09-19,清算の結了等,,,2015-10-05,1,,,,,ユーティーエステクノロジー,0
79,1030001109646,登記記録の閉鎖等,0,2023-09-28,2023-09-20,華亮株式会社,,株式会社,山梨県,南都留郡富士河口湖町,船津３９１６－１Ａ号室,,19,430,4010301,,,2023-09-20,清算の結了等,,,2015-10-05,1,,,,,カリョウ,0
84,1030002016569,登記記録の閉鎖等,0,2023-09-28,2023-09-04,有限会社スリースターズ,,有限会社,埼玉県,さいたま市南区,大字円正寺字新田５０７番９号,,11,108,3360043,,,2023-09-04,清算の結了等,,,2015-10-05,1,,,,,スリースターズ,0
86,1030002094037,登記記録の閉鎖等,0,2023-09-28,2023-09-04,有限会社川角設備,,有限会社,埼玉県,入間郡毛呂山町,大字川角７０１番地１４,,11,326,3500436,,,2023-09-04,清算の結了等,,,2015-10-05,1,,,,,,0
144,1180001129456,登記記録の閉鎖等,0,2023-09-28,2023-09-22,株式会社ケンゾー,,株式会社,愛知県,名古屋市中区,錦１丁目１５番８号アミティエ錦第一ビル,,23,106,4600003,,,2023-09-22,清算の結了等,,,2017-09-21,1,,,,,ケンゾー,0
189,1360001021413,登記記録の閉鎖等,0,2023-09-28,2023-09-21,株式会社池根設計,,株式会社,沖縄県,うるま市,与那城１２２番地１,,47,213,9042303,,,2023-09-21,清算の結了等,,,2016-10-07,1,,,,,イケネセッケイ,0
225,2000030170001,登記記録の閉鎖等,0,2023-09-28,2018-11-09,西岸財産区,,地方公共団体,石川県,七尾市,袖ケ江町イ部２５番地,,17,202,9260045,,,2018-11-09,その他の清算の結了等,,,2015-10-05,1,Nishigishi Property ward,Ishikawa,"25 I-bu Sodegae-cho, Nanao-shi ",,ニシギシザイサンク,0
239,2010003022724,登記記録の閉鎖等,0,2023-09-28,2023-09-20,ＭＣＤ鎌倉山アセット合同会社,,合同会社,東京都,千代田区,大手町１丁目５番１号,,13,101,1000004,,,2023-09-20,清算の結了等,,,2015-11-30,1,,,,,カマクラヤマアセット,0
240,2010003038398,登記記録の閉鎖等,0,2023-09-28,2023-09-20,ジャパンブリッジファンド合同会社,,合同会社,東京都,千代田区,麹町２丁目８番地ＭＬＣ麹町ビル４階フィンポート税理士法人内,,13,101,1020083,,,2023-09-20,合併による解散等,6011801026573,令和５年９月２０日東京都中央区八丁堀四丁目２番１０号ＡＯＪ税理士法人内株式会社トーヨーエネルギーファーム（6011801026573）に合併し解散,2022-08-15,1,,,,,ジャパンブリッジファンド,0
246,2010401082188,登記記録の閉鎖等,0,2023-09-28,2023-09-20,株式会社アイエイチ,,株式会社,東京都,中央区,入船１丁目９番６号,,13,102,1040042,,,2023-09-20,清算の結了等,,,2015-10-05,1,,,,,アイエイチ,0
252,2010501004463,登記記録の閉鎖等,0,2023-09-28,2023-09-25,株式会社清鷹ビル,,株式会社,東京都,台東区,台東１丁目３２番８号,,13,106,1100016,,,2023-09-25,清算の結了等,,,2015-10-05,1,,,,,キヨタカビル,0
261,2010703006092,登記記録の閉鎖等,0,2023-09-28,2023-09-21,セブンホールディングス合同会社,,合同会社,東京都,荒川区,町屋１丁目２８番１２号関口ビル１階,,13,118,1160001,,,2023-09-21,清算の結了等,,,2022-01-31,1,,,,,セブンホールディングス,0
265,2010903000052,登記記録の閉鎖等,0,2023-09-28,2023-09-21,合名会社山秀安藤商店,,合名会社,東京都,世田谷区,松原１丁目５６番２１号,,13,112,1560043,,,2023-09-21,清算の結了等,,,2015-10-05,1,,,,,ヤマヒデアンドウショウテン,0
306,2020001142069,登記記録の閉鎖等,0,2023-09-28,2023-09-19,株式会社シエスタ,,株式会社,神奈川県,横浜市鶴見区,下末吉２丁目６番１３号クランベリー末吉５０１,,14,101,2300012,,,2023-09-19,清算の結了等,,,2021-07-06,1,,,,,シエスタ,0
325,2030002001891,登記記録の閉鎖等,0,2023-09-28,2023-09-01,有限会社エー・エス・ピー,,有限会社,埼玉県,さいたま市南区,大字円正寺５１８番地６,,11,108,3360043,,,2023-09-01,清算の結了等,,,2015-10-05,1,,,,,エーエスピー,0
336,2040002059054,登記記録の閉鎖等,0,2023-09-28,2023-09-12,ライズ精機有限会社,,有限会社,千葉県,船橋市,栄町２丁目７番６号,,12,204,2730018,,,2023-09-12,清算の結了等,,,2015-10-05,1,,,,,ライズセイキ,0
350,2080102007900,登記記録の閉鎖等,0,2023-09-28,2023-09-27,有限会社天城商会,,有限会社,静岡県,伊豆市,湯ケ島１５２５番地,,22,222,4103206,,,2023-09-27,清算の結了等,,,2015-10-05,1,,,,,アマギショウカイ,0
353,2110001021338,登記記録の閉鎖等,0,2023-09-28,2023-09-25,よしだ商事株式会社,,株式会社,新潟県,十日町市,丸山町５番地８,,15,210,9480075,,,2023-09-25,清算の結了等,,,2015-10-05,1,,,,,ヨシダショウジ,0
354,2110001027228,登記記録の閉鎖等,0,2023-09-28,2023-09-25,株式会社創生,,株式会社,新潟県,南魚沼市,島新田２４２番地,,15,226,9496407,,,2023-09-25,清算の結了等,,,2015-10-05,1,,,,,ソウセイ,0
356,2110003003929,登記記録の閉鎖等,0,2023-09-28,2023-09-25,ＹＫ合同会社,,合同会社,新潟県,燕市,大曲２７７７番地,,15,213,9591263,,,2023-09-25,清算の結了等,,,2019-05-27,1,,,,,ワイケー,0
367,2120003016863,登記記録の閉鎖等,0,2023-09-28,2023-09-19,合同会社ウーバーイーツ,,合同会社,大阪府,大阪市淀川区,宮原１丁目１９番２３－７１４号,,27,123,5320003,,,2023-09-19,清算の結了等,,,2020-01-21,1,,,,,ウーバーイーツ,0
385,2150002005781,登記記録の閉鎖等,0,2023-09-28,2023-09-26,有限会社タナカネットワーク,,有限会社,奈良県,香芝市,上中６２番地の１,,29,210,6390265,,,2023-09-26,清算の結了等,,,2015-10-05,1,,,,,タナカネットワーク,0
404,2190002006157,登記記録の閉鎖等,0,2023-09-28,2023-09-25,有限会社河合型紙店,,有限会社,三重県,鈴鹿市,白子本町４番１９号,,24,207,5100242,,,2023-09-25,清算の結了等,,,2015-10-05,1,,,,,カワイカタガミテン,0
408,2200002017615,登記記録の閉鎖等,0,2023-09-28,2023-09-26,有限会社ワールド企画,,有限会社,岐阜県,可児市,若葉台８丁目１４６番地,,21,214,5090258,,,2023-09-26,清算の結了等,,,2015-10-05,1,,,,,ワールドキカク,0
409,2200003001799,登記記録の閉鎖等,0,2023-09-28,2023-09-25,合資会社山田屋呉服店,,合資会社,岐阜県,養老郡養老町,高田１７１番地の１,,21,341,5031314,,,2023-09-25,清算の結了等,,,2015-10-05,1,,,,,ヤマダヤゴフクテン,0
433,2310002002399,登記記録の閉鎖等,0,2023-09-28,2023-09-25,有限会社将光,,有限会社,長崎県,長崎市,新地町６番５６－９０１号,,42,201,8500842,,,2023-09-25,清算の結了等,,,2015-10-05,1,,,,,マサカネ,0
442,2370001039247,登記記録の閉鎖等,0,2023-09-28,2023-09-21,株式会社ビノクラスパートナーズ,,株式会社,宮城県,名取市,那智が丘２丁目１８番地の６,,04,207,9811244,,,2023-09-21,清算の結了等,,,2016-03-02,1,,,,,ビノクラスパートナーズ,0
453,2460102001402,登記記録の閉鎖等,0,2023-09-28,2023-09-26,有限会社サンヨウ工営,,有限会社,北海道,河東郡音更町,東通２０丁目２番地１０,,01,631,0800106,,,2023-09-26,清算の結了等,,,2015-10-05,1,,,,,,0
454,2460102005667,登記記録の閉鎖等,0,2023-09-28,2023-09-26,有限会社丸長マツオカ工業,,有限会社,北海道,河東郡上士幌町,字上士幌東１線２３５番地,,01,633,0801408,,,2023-09-26,清算の結了等,,,2015-10-05,1,,,,,マルナガマツオカコウギョウ,0
459,3000020178136,登記記録の閉鎖等,0,2023-09-28,2022-03-31,子浦川水防事務組合,,地方公共団体,石川県,羽咋市,旭町ア２００番地羽咋市役所内,,17,207,9250034,,,2022-03-31,その他の清算の結了等,,,2015-10-05,1,Shiogawa Flood Prevention Association,Ishikawa,"A 200 Asahi-machi, Hakui City",,シオガワスイボウジムクミアイ,0
460,3000020178152,登記記録の閉鎖等,0,2023-09-28,2022-03-31,長曽川水防事務組合,,地方公共団体,石川県,羽咋市,旭町ア２００番地羽咋市役所内,,17,207,9250034,,,2022-03-31,その他の清算の結了等,,,2015-10-05,1,Nagasogawa Flood Prevention Association,Ishikawa,"A 200 Asahi-machi, Hakui City",,ナガソガワスイボウジムクミアイ,0
468,3010003039981,登記記録の閉鎖等,0,2023-09-28,2023-09-20,トンパイルーイビジョン合同会社,,合同会社,東京都,中央区,銀座１丁目２２番１１号銀座大竹ビジデンス２Ｆ,,13,102,1040061,,,2023-09-20,清算の結了等,,,2023-03-06,1,,,,,トンパイルーイビジョン,0
471,3010005033017,登記記録の閉鎖等,0,2023-09-28,2023-09-26,ＳＫＤホールディングス３一般社団法人,,その他の設立登記法人,東京都,千代田区,丸の内３丁目１番１号東京共同会計事務所内,,13,101,1000005,,,2023-09-26,清算の結了等,,,2021-03-04,1,,,,,エスケイディホールディングススリー,0
486,3010405013634,登記記録の閉鎖等,0,2023-09-28,2023-09-05,ザオウ特定目的会社,,その他の設立登記法人,東京都,港区,虎ノ門３丁目２２番１０－２０１号,,13,103,1050001,,,2023-09-05,清算の結了等,,,2015-10-05,1,,,,,ザオウ,0
502,3010905002987,登記記録の閉鎖等,0,2023-09-28,2023-09-12,特定非営利活動法人市民科学者国際会議,,その他の設立登記法人,東京都,渋谷区,代々木４丁目２８番８号代々木村田マンション・村田第一ビル５０６号室,,13,113,1510053,,,2023-09-12,清算の結了等,,,2015-10-05,1,,,,,シミンカガクシャコクサイカイギ,0
516,3011301001138,登記記録の閉鎖等,0,2023-09-28,2023-09-20,株式会社エナミウエルシード,,株式会社,東京都,杉並区,下高井戸５丁目２６番６号,,13,115,1680073,,,2023-09-20,清算の結了等,,,2015-10-05,1,,,,,,0
518,3011301001146,登記記録の閉鎖等,0,2023-09-28,2023-09-21,株式会社エフ．エス．ケイ,,株式会社,東京都,杉並区,成田東４丁目７番１５号,,13,115,1660015,,,2023-09-21,清算の結了等,,,2015-10-05,1,,,,,,0
527,3011502015663,登記記録の閉鎖等,0,2023-09-28,2023-09-19,有限会社ティーアンドティーアカウンティング,,有限会社,東京都,荒川区,南千住２丁目１０番８－７０３号,,13,118,1160003,,,2023-09-19,清算の結了等,,,2015-10-05,1,,,,,ティーアンドティーアカウンティング,0
531,3011802024744,登記記録の閉鎖等,0,2023-09-28,2023-09-26,有限会社コウホク,,有限会社,東京都,足立区,青井１丁目１２番１号,,13,121,1200012,,,2023-09-26,清算の結了等,,,2015-10-05,1,,,,,コウホク,0
540,3013202003659,登記記録の閉鎖等,0,2023-09-28,2023-09-22,有限会社セントラル・プライズ,,有限会社,東京都,目黒区,自由が丘２丁目８番１６号,,13,110,1520035,,,2023-09-22,清算の結了等,,,2015-10-05,1,,,,,セントラルプライズ,0
554,3021001043891,登記記録の閉鎖等,0,2023-09-28,2023-09-15,ＰＬＡＮＰＬＡＮ株式会社,,株式会社,神奈川県,横須賀市,根岸町４丁目２６番９号,,14,201,2390807,,,2023-09-15,清算の結了等,,,2015-10-05,1,,,,,プランプラン,0
557,3021002019230,登記記録の閉鎖等,0,2023-09-28,2023-09-19,有限会社鎌田乳業,,有限会社,神奈川県,相模原市南区,麻溝台５丁目１８番１５号,,14,153,2520328,,,2023-09-19,清算の結了等,,,2015-10-05,1,,,,,カマタニュウギョウ,0
558,3021002025716,登記記録の閉鎖等,0,2023-09-28,2023-09-20,有限会社エムエヌシー,,有限会社,神奈川県,相模原市緑区,橋本４丁目１１番３４号,,14,151,2520143,,,2023-09-20,清算の結了等,,,2015-10-05,1,,,,,エムエヌシー,0
567,3030001147644,登記記録の閉鎖等,0,2023-09-28,2023-09-01,株式会社ＨＩＳファーマーズ,,株式会社,埼玉県,蓮田市,大字井沼２１０－７,,11,238,3490135,,,2023-09-01,清算の結了等,,,2022-04-06,1,,,,,エイチアイエスファーマーズ,0
582,3040001090736,登記記録の閉鎖等,0,2023-09-28,2023-09-12,株式会社ＪＳＡ,,株式会社,千葉県,鎌ケ谷市,丸山２丁目１０番２１号,,12,224,2730103,,,2023-09-12,清算の結了等,,,2015-10-05,1,,,,,ジェイエスエー,0
594,3070002036181,登記記録の閉鎖等,0,2023-09-28,2023-09-26,有限会社いち川,,有限会社,群馬県,吾妻郡嬬恋村,大字田代１０１７番地の１２８,,10,425,3771614,,,2023-09-26,清算の結了等,,,2015-10-05,1,,,,,イチカワ,0
595,3070003004658,登記記録の閉鎖等,0,2023-09-28,2023-09-13,合同会社ラ・ポーズ,,合同会社,群馬県,前橋市,南町３丁目５０‐２プラザアン２階Ｄ‐１７,,10,201,3710805,,,2023-09-13,清算の結了等,,,2022-10-20,1,,,,,ラポーズ,0
596,3080001018667,登記記録の閉鎖等,0,2023-09-28,2023-09-27,株式会社来迎断熱,,株式会社,静岡県,静岡市駿河区,西島６９９番地の６,,22,102,4228045,,,2023-09-27,清算の結了等,,,2015-10-05,1,,,,,,0
597,3080001023618,登記記録の閉鎖等,0,2023-09-28,2023-09-26,株式会社Ｔ＆Ｙ　ＮＥＸＴ,,株式会社,静岡県,榛原郡吉田町,片岡１７３１番地の１,,22,424,4210303,,,2023-09-26,清算の結了等,,,2020-07-07,1,,,,,ティーアンドワイネクスト,0
602,3080401015124,登記記録の閉鎖等,0,2023-09-28,2023-09-25,株式会社アール・アイ・トレーディング,,株式会社,静岡県,御前崎市,白羽４５８番地の１,,22,223,4371622,,,2023-09-25,清算の結了等,,,2015-10-05,1,,,,,アールアイトレーディング,0
607,3120001071604,登記記録の閉鎖等,0,2023-09-28,2023-09-25,株式会社ＵＩＭ,,株式会社,大阪府,大阪市東成区,玉津３丁目２番４号,,27,115,5370023,,,2023-09-25,清算の結了等,,,2015-10-05,1,,,,,ユーアイエム,0
608,3120001075175,登記記録の閉鎖等,0,2023-09-28,2023-09-25,株式会社ウラタニ,,株式会社,大阪府,大阪市西区,南堀江４丁目２５番,,27,106,5500015,,,2023-09-25,清算の結了等,,,2015-10-05,1,,,,,ウラタニ,0
618,3120102024980,登記記録の閉鎖等,0,2023-09-28,2023-09-21,フルール・ドゥ・エステティック有限会社,,有限会社,大阪府,和泉市,鶴山台３丁目１０番１０１－１０１号,,27,219,5940013,,,2023-09-21,清算の結了等,,,2015-10-05,1,,,,,フルールドゥエステティック,0
632,3140002029772,登記記録の閉鎖等,0,2023-09-28,2023-09-25,有限会社マルニヤ製麺所,,有限会社,兵庫県,明石市,野々上３丁目４番地の１２,,28,203,6730017,,,2023-09-25,清算の結了等,,,2015-10-05,1,,,,,マルニヤセイメンショ,0
633,3140002040705,登記記録の閉鎖等,0,2023-09-28,2023-09-21,有限会社グランツ,,有限会社,兵庫県,尼崎市,武庫之荘東１丁目２６番１号,,28,202,6610032,,,2023-09-21,清算の結了等,,,2015-10-05,1,,,,,グランツ,0
649,3180303003092,登記記録の閉鎖等,0,2023-09-28,2023-09-15,合同会社ＯＫエクスプレス,,合同会社,愛知県,豊橋市,三本木町字新東上５８番地の６,,23,201,4418152,,,2023-09-15,清算の結了等,,,2015-10-05,1,,,,,オーケーエクスプレス,0
655,3240001032107,登記記録の閉鎖等,0,2023-09-28,2023-09-25,株式会社ホソイ鑑定,,株式会社,広島県,福山市,若松町５番２１号,,34,207,7200034,,,2023-09-25,清算の結了等,,,2015-10-05,1,,,,,ホソイカンテイ,0
657,3250001008642,登記記録の閉鎖等,0,2023-09-28,2023-09-22,愛徳興産株式会社,,株式会社,山口県,周南市,千代田町６番３号,,35,215,7450044,,,2023-09-22,清算の結了等,,,2015-10-05,1,,,,,アイトクコウサン,0
663,3280002002773,登記記録の閉鎖等,0,2023-09-28,2023-09-26,有限会社旅館東光,,有限会社,島根県,松江市,美保関町美保関６５２番地,,32,201,6901501,,,2023-09-26,清算の結了等,,,2015-10-05,1,,,,,リョカントウコウ,0
666,3290001052133,登記記録の閉鎖等,0,2023-09-28,2023-09-15,株式会社ティー・オー・サービス,,株式会社,福岡県,福岡市博多区,店屋町３番３２号中村ビル２階,,40,132,8120025,,,2023-09-15,清算の結了等,,,2015-10-05,1,,,,,ティーオーサービス,0
679,3310002016786,登記記録の閉鎖等,0,2023-09-28,2023-09-26,有限会社コスモ,,有限会社,長崎県,雲仙市,国見町多比良乙４１４番地,,42,213,8591322,,,2023-09-26,清算の結了等,,,2015-10-05,1,,,,,コスモ,0
684,3340001010127,登記記録の閉鎖等,0,2023-09-28,2023-09-25,株式会社タフィー,,株式会社,鹿児島県,大島郡天城町,大字西阿木名字白二川１１５５番地７２,,46,531,8917731,,,2023-09-25,清算の結了等,,,2015-10-05,1,,,,,タフィー,0
695,3380002032546,登記記録の閉鎖等,0,2023-09-28,2023-09-21,有限会社桃李社,,有限会社,福島県,会津若松市,千石町３番４３号８０５,,07,202,9650817,,,2023-09-21,清算の結了等,,,2015-10-05,1,,,,,トウリシャ,0
703,3460101001823,登記記録の閉鎖等,0,2023-09-28,2023-09-26,明治屋電機信用販売株式会社,,株式会社,北海道,帯広市,東二条南１７丁目１９番地,,01,207,0800802,,,2023-09-26,清算の結了等,,,2015-10-05,1,,,,,メイジヤデンキシンヨウハンバイ,0
707,3500001021784,登記記録の閉鎖等,0,2023-09-28,2023-09-27,株式会社アークフロウ,,株式会社,愛媛県,新居浜市,坂井町３丁目１５番１号,,38,205,7920812,,,2023-09-27,清算の結了等,,,2019-01-09,1,,,,,アークフロウ,0
710,4000020178250,登記記録の閉鎖等,0,2023-09-28,2023-03-31,手取川流域環境衛生事業組合,,地方公共団体,石川県,能美郡川北町,字朝日レ４７番地,,17,324,,,,2023-03-31,その他の清算の結了等,,,2015-10-05,1,Tedorigawaryuiki Environment and Sanitation Association,Ishikawa,"Re 47 Asahi, Kawakita-machi Nomi-gun",,テドリガワリュウイキカンキョウエイセイジギョウクミアイ,0
715,4010001190802,登記記録の閉鎖等,0,2023-09-28,2023-09-20,ＭＣＳ　Ｌａｂ株式会社,,株式会社,東京都,千代田区,神田神保町１丁目２４番地加藤ＫＫビル５０１,,13,101,1010051,,,2023-09-20,清算の結了等,,,2018-04-10,1,,,,,エムシーエスラボ,0
745,4011001063989,登記記録の閉鎖等,0,2023-09-28,2023-09-08,マイゴルフ株式会社,,株式会社,東京都,港区,三田１丁目６番３－３６０４号,,13,103,1080073,,,2023-09-08,清算の結了等,,,2015-10-05,1,,,,,マイゴルフ,0
751,4011002002112,登記記録の閉鎖等,0,2023-09-28,2023-09-26,岩松食品有限会社,,有限会社,東京都,渋谷区,本町４丁目２番５号,,13,113,1510071,,,2023-09-26,清算の結了等,,,2015-10-05,1,,,,,イワマツショクヒン,0
761,4011301024856,登記記録の閉鎖等,0,2023-09-28,2023-09-20,株式会社ＯＮ,,株式会社,東京都,杉並区,高円寺南２丁目４０番３０号,,13,115,1660003,,,2023-09-20,清算の結了等,,,2019-03-04,1,,,,,オン,0
768,4011502007858,登記記録の閉鎖等,0,2023-09-28,2023-09-22,有限会社神谷青果,,有限会社,東京都,荒川区,東日暮里６丁目４２番８号,,13,118,1160014,,,2023-09-22,清算の結了等,,,2015-10-05,1,,,,,カミヤセイカ,0
780,4020002017508,登記記録の閉鎖等,0,2023-09-28,2023-09-15,有限会社松山畳店,,有限会社,神奈川県,横浜市西区,南幸２丁目８番１２号,,14,103,2200005,,,2023-09-15,清算の結了等,,,2015-10-05,1,,,,,マツヤマタタミテン,0
786,4021002033230,登記記録の閉鎖等,0,2023-09-28,2023-09-19,有限会社丸恵,,有限会社,神奈川県,厚木市,下荻野４４５番地,,14,212,2430203,,,2023-09-19,清算の結了等,,,2015-10-05,1,,,,,マルエ,0
787,4021002071965,登記記録の閉鎖等,0,2023-09-28,2023-09-15,有限会社エーアイ,,有限会社,神奈川県,三浦市,三崎町小網代１６６番地１,,14,210,2380225,,,2023-09-15,清算の結了等,,,2015-10-05,1,,,,,エーアイ,0
790,4030001054484,登記記録の閉鎖等,0,2023-09-28,2023-09-04,株式会社川越画廊,,株式会社,埼玉県,川越市,連雀町１４番地２,,11,201,3500066,,,2023-09-04,清算の結了等,,,2015-10-05,1,,,,,カワゴエガロウ,0
806,4050001043915,登記記録の閉鎖等,0,2023-09-28,2023-09-05,株式会社ＥＸＯＡＴＬＥＴ　ＩＮＣ．,,株式会社,東京都,港区,西新橋２丁目３９番８号鈴丸ビル２階,,13,103,1050003,,,2023-09-05,清算の結了等,,,2018-01-18,1,,,,,エクソアトレットインク,0
810,4060001004627,登記記録の閉鎖等,0,2023-09-28,2023-09-20,株式会社陽南荘宇都宮グランドホテル,,株式会社,栃木県,宇都宮市,西原町１４２番地,,09,201,3200826,,,2023-09-20,清算の結了等,,,2015-10-05,1,,,,,ヨウナンソウウツノミヤグランドホテル,0
825,4110002034188,登記記録の閉鎖等,0,2023-09-28,2023-09-25,有限会社内田金物,,有限会社,新潟県,南魚沼市,余川１３８４番地１,,15,226,9496681,,,2023-09-25,清算の結了等,,,2015-10-05,1,,,,,ウチダカナモノ,0
826,4120001039550,登記記録の閉鎖等,0,2023-09-28,2023-09-20,株式会社橋本塗料店,,株式会社,大阪府,大阪市浪速区,恵美須東１丁目２２番２１号,,27,111,5560002,,,2023-09-20,清算の結了等,,,2015-10-05,1,,,,,ハシモトトリョウテン,0
841,4120901040566,登記記録の閉鎖等,0,2023-09-28,2023-09-20,株式会社ポパイ,,株式会社,大阪府,箕面市,箕面５丁目１番４５－１０２号,,27,220,5620001,,,2023-09-20,清算の結了等,,,2018-11-02,1,,,,,ポパイ,0
847,4140001010815,登記記録の閉鎖等,0,2023-09-28,2023-09-22,凡交易株式会社,,株式会社,兵庫県,神戸市東灘区,御影中町１丁目１５番１２－１０２号,,28,101,6580054,,,2023-09-22,清算の結了等,,,2015-10-05,1,,,,,ボンコウエキ,0
850,4140001089800,登記記録の閉鎖等,0,2023-09-28,2023-09-21,株式会社アイ・ウーマン,,株式会社,兵庫県,神戸市中央区,橘通２丁目１－１８神戸アクシスビル４Ｆ,,28,110,6500016,,,2023-09-21,清算の結了等,,,2015-10-05,1,,,,,アイウーマン,0
851,4140001102224,登記記録の閉鎖等,0,2023-09-28,2023-09-21,株式会社アイ・ウーマンサービス,,株式会社,兵庫県,小野市,敷地町９１３－１,,28,218,6751367,,,2023-09-21,清算の結了等,,,2016-05-31,1,,,,,アイウーマンサービス,0
854,4140005010142,登記記録の閉鎖等,0,2023-09-28,2023-09-19,特定非営利活動法人高砂物産協会,,その他の設立登記法人,兵庫県,高砂市,荒井町小松原１丁目１９番３６号,,28,216,6760011,,,2023-09-19,清算の結了等,,,2015-10-05,1,,,,,タカサゴブッサンキョウカイ,0
862,4180002035790,登記記録の閉鎖等,0,2023-09-28,2023-09-22,有限会社フレイズ,,有限会社,愛知県,名古屋市港区,辰巳町３番７号,,23,111,4550003,,,2023-09-22,清算の結了等,,,2015-10-05,1,,,,,フレイズ,0
863,4180002080564,登記記録の閉鎖等,0,2023-09-28,2023-09-25,有限会社三友縫製産業,,有限会社,愛知県,稲沢市,平和町東城郷内２２４番地,,23,220,4901321,,,2023-09-25,清算の結了等,,,2015-10-05,1,,,,,サンユウホウセイサンギョウ,0
880,4270001007583,登記記録の閉鎖等,0,2023-09-28,2023-09-25,株式会社アドバンステクノロジー,,株式会社,鳥取県,米子市,西福原１丁目１番７１号,,31,202,6830805,,,2023-09-25,清算の結了等,,,2018-09-03,1,,,,,アドバンステクノロジー,0
882,4280002003424,登記記録の閉鎖等,0,2023-09-28,2023-09-27,有限会社ケイアンドジェイ,,有限会社,島根県,松江市,上乃木３丁目２番５号,,32,201,6900015,,,2023-09-27,清算の結了等,,,2015-10-05,1,,,,,ケイアンドジェイ,0
890,4310002009608,登記記録の閉鎖等,0,2023-09-28,2023-09-25,有限会社川尻メディカル・サービス,,有限会社,長崎県,佐世保市,早岐２丁目１７番１３号,,42,202,8593215,,,2023-09-25,清算の結了等,,,2015-10-05,1,,,,,カワジリメディカルサービス,0
895,4330003002535,登記記録の閉鎖等,0,2023-09-28,2023-09-19,合資会社マエダ建築事務所,,合資会社,熊本県,玉名市,伊倉北方２５３４番地３,,43,206,8650041,,,2023-09-19,清算の結了等,,,2015-10-05,1,,,,,,0
918,4480001004171,登記記録の閉鎖等,0,2023-09-28,2023-09-27,株式会社下家新聞販売店,,株式会社,徳島県,徳島市,応神町古川字高良９９番地１,,36,201,7711151,,,2023-09-27,清算の結了等,,,2015-10-05,1,,,,,,0
927,5010001112615,登記記録の閉鎖等,0,2023-09-28,2023-09-20,株式会社ケーエムエス２,,株式会社,東京都,中央区,日本橋小伝馬町１５番１６号,,13,102,1030001,,,2023-09-20,清算の結了等,,,2015-10-05,1,,,,,ケーエムエスツー,0
936,5010102000941,登記記録の閉鎖等,0,2023-09-28,2023-09-22,有限会社ウェルオフ,,有限会社,東京都,八王子市,散田町３丁目１０番１５号,,13,201,1930832,,,2023-09-22,清算の結了等,,,2015-10-05,1,,,,,,0
938,5010401008784,登記記録の閉鎖等,0,2023-09-28,2023-09-19,株式会社クラッセ,,株式会社,東京都,港区,高輪４丁目２３番６号ハイホーム高輪６０９号室,,13,103,1080074,,,2023-09-19,清算の結了等,,,2015-10-05,1,,,,,クラッセ,0
967,5011101101020,登記記録の閉鎖等,0,2023-09-28,2023-09-26,吉田エレテック株式会社,,株式会社,東京都,新宿区,西新宿６丁目１６番１２号,,13,104,1600023,,,2023-09-26,清算の結了等,,,2022-12-02,1,,,,,ヨシダエレテック,0
982,5011501026395,登記記録の閉鎖等,0,2023-09-28,2023-09-20,株式会社ＯＷＬ,,株式会社,東京都,千代田区,外神田２丁目１９番３号,,13,101,1010021,,,2023-09-20,清算の結了等,,,2020-11-24,1,,,,,アウル,0
984,5011602023936,登記記録の閉鎖等,0,2023-09-28,2023-09-26,有限会社アドキング,,有限会社,東京都,練馬区,中村北１丁目１１番１－１０２号,,13,120,1760023,,,2023-09-26,清算の結了等,,,2015-10-05,1,,,,,,0
986,5011701004878,登記記録の閉鎖等,0,2023-09-28,2023-09-20,タケダニツト株式会社,,株式会社,東京都,江戸川区,大杉２丁目６番１２号,,13,123,1320022,,,2023-09-20,清算の結了等,,,2015-10-05,1,,,,,タケダニツト,0
989,5011703002418,登記記録の閉鎖等,0,2023-09-28,2023-09-25,Ｇ　ｍａｔｅｒｉａｌ合同会社,,合同会社,東京都,江戸川区,新堀１丁目１２番７号フローレンスパレスラルジュ瑞江９０１号,,13,123,1320001,,,2023-09-25,清算の結了等,,,2019-11-22,1,,,,,ジーマテリアル,0
993,5011801002146,登記記録の閉鎖等,0,2023-09-28,2023-09-26,株式会社霜田工芸,,株式会社,東京都,葛飾区,東堀切３丁目３２番２９号,,13,122,1240004,,,2023-09-26,清算の結了等,,,2015-10-05,1,,,,,シモダコウゲイ,0
994,5011801017193,登記記録の閉鎖等,0,2023-09-28,2023-09-20,株式会社トーヨーＨＤ,,株式会社,東京都,千代田区,有楽町１丁目１０番１号,,13,101,1000006,,,2023-09-20,合併による解散等,6011801026573,令和５年９月２０日東京都中央区八丁堀四丁目２番１０号ＡＯＪ税理士法人内株式会社トーヨーエネルギーファーム（6011801026573）に合併し解散,2015-10-05,1,,,,,トーヨーエイチディー,0
995,5011801036771,登記記録の閉鎖等,0,2023-09-28,2023-09-26,株式会社ＡＭＢＥＲ,,株式会社,東京都,葛飾区,新小岩１丁目４３番１２号川島ビル４階,,13,122,1240024,,,2023-09-26,清算の結了等,,,2019-10-18,1,,,,,アンバー,0
1001,5012702001303,登記記録の閉鎖等,0,2023-09-28,2023-09-21,トモエ企画有限会社,,有限会社,東京都,小平市,大沼町４丁目３６番１３号,,13,211,1870001,,,2023-09-21,清算の結了等,,,2015-10-05,1,,,,,トモエキカク,0
1008,5020001017292,登記記録の閉鎖等,0,2023-09-28,2023-09-20,国際機械販売株式会社,,株式会社,神奈川県,横浜市西区,みなとみらい４丁目６番２号みなとみらいグランドセントラルタワー,,14,103,2200012,,,2023-09-20,清算の結了等,,,2015-10-05,1,,,,,コクサイキカイハンバイ,0
1009,5020001045021,登記記録の閉鎖等,0,2023-09-28,2023-09-19,チャイナインベストメント株式会社,,株式会社,神奈川県,横浜市都筑区,すみれが丘２１番地６,,14,118,2240013,,,2023-09-19,清算の結了等,,,2015-10-05,1,,,,,チャイナインベストメント,0
1013,5020003005790,登記記録の閉鎖等,0,2023-09-28,2023-09-20,合同会社ケイテック,,合同会社,神奈川県,川崎市高津区,向ケ丘４７番地１ラ・ロッシュビル３０３,,14,134,2130035,,,2023-09-20,清算の結了等,,,2015-10-05,1,,,,,ケイテック,0
1014,5020003012639,登記記録の閉鎖等,0,2023-09-28,2023-09-20,モーションライフ合同会社,,合同会社,神奈川県,横浜市中区,長者町２丁目６番地７ライフレビュー横濱関内スクエア８０２号室,,14,104,2310033,,,2023-09-20,清算の結了等,,,2017-04-18,1,,,,,モーションライフ,0
1021,5021005012255,登記記録の閉鎖等,0,2023-09-28,2023-09-15,一般社団法人にゃんずネット横須賀,,その他の設立登記法人,神奈川県,横須賀市,汐入町４丁目５４番地１グランテム汐入６０５,,14,201,2380042,,,2023-09-15,清算の結了等,,,2021-07-28,1,,,,,ニャンズネットヨコスカ,0
1029,5030002038519,登記記録の閉鎖等,0,2023-09-28,2023-08-31,有限会社内田サッシ,,有限会社,埼玉県,白岡市,実ケ谷９９２番地の１,,11,246,3490216,,,2023-08-31,清算の結了等,,,2015-10-05,1,,,,,ウチダサッシ,0
1039,5040001039509,登記記録の閉鎖等,0,2023-09-28,2023-09-12,株式会社ＡＢＣストーン,,株式会社,千葉県,松戸市,河原塚４０３番地,00026581,12,207,2702254,,,2023-09-12,清算の結了等,,,2015-10-05,1,,,,,エービーシーストーン,0
1053,5050002000939,登記記録の閉鎖等,0,2023-09-28,2023-09-20,有限会社勤協商会,,有限会社,茨城県,水戸市,加倉井町４１８番地１１,,08,201,3114163,,,2023-09-20,清算の結了等,,,2015-10-05,1,,,,,キンキョウショウカイ,0
1058,5060002005433,登記記録の閉鎖等,0,2023-09-28,2023-09-19,有限会社大栄機械設備,,有限会社,栃木県,宇都宮市,清原台６丁目２６番２３号,,09,201,3213223,,,2023-09-19,清算の結了等,,,2015-10-05,1,,,,,ダイエイキカイセツビ,0
1066,5100002021632,登記記録の閉鎖等,0,2023-09-28,2023-09-19,有限会社萬年筆の山田,,有限会社,長野県,松本市,中央２丁目５番１１号,,20,202,3900811,,,2023-09-19,清算の結了等,,,2015-10-05,1,,,,,マンネンシツノヤマダ,0
1081,5120102004114,登記記録の閉鎖等,0,2023-09-28,2023-09-26,有限会社福和,,有限会社,大阪府,堺市堺区,香ヶ丘町１丁３番３１号,,27,141,5900011,,,2023-09-26,清算の結了等,,,2015-10-05,1,,,,,フクワ,0
1091,5140001026372,登記記録の閉鎖等,0,2023-09-28,2023-09-26,株式会社リュミエールダイニング,,株式会社,大阪府,枚方市,朝日丘町１７番１－４１６号,,27,210,5730026,,,2023-09-26,清算の結了等,,,2015-10-05,1,,,,,リュミエールダイニング,0
1103,5180001063172,登記記録の閉鎖等,0,2023-09-28,2023-09-25,伝栄株式会社,,株式会社,愛知県,名古屋市名東区,勢子坊２丁目１４０５番地,,23,115,4650055,,,2023-09-25,清算の結了等,,,2015-10-05,1,,,,,デンエイ,0
1108,5180002053313,登記記録の閉鎖等,0,2023-09-28,2023-09-22,有限会社テクノメンテナンス,,有限会社,愛知県,名古屋市守山区,小幡千代田１７番１０号,,23,113,4630053,,,2023-09-22,清算の結了等,,,2015-10-05,1,,,,,テクノメンテナンス,0
1111,5180003010040,登記記録の閉鎖等,0,2023-09-28,2023-09-25,合資会社スズキ,,合資会社,愛知県,春日井市,気噴町北２丁目１７８番地,,23,206,4870015,,,2023-09-25,清算の結了等,,,2015-10-05,1,,,,,スズキ,0
1115,5180005015054,登記記録の閉鎖等,0,2023-09-28,2023-09-25,特定非営利活動法人日本足裏健康法普及協会,,その他の設立登記法人,愛知県,名古屋市中村区,本陣通５丁目１３０番地,,23,105,4530041,,,2023-09-25,清算の結了等,,,2015-10-05,1,,,,,ニホンアシウラケンコウホウフキュウキョウカイ,0
1120,5180303002935,登記記録の閉鎖等,0,2023-09-28,2023-09-15,合資会社Ｗｈｉｚｋｉｄ．Ｊ１,,合資会社,愛知県,新城市,副川字塚島５４番地,,23,221,4411946,,,2023-09-15,清算の結了等,,,2015-10-05,1,,,,,ウィズキッドジェイワン,0
1134,5260002025130,登記記録の閉鎖等,0,2023-09-28,2023-09-21,有限会社杉田工業,,有限会社,岡山県,笠岡市,旭が丘３６６番地,,33,205,7140056,,,2023-09-21,清算の結了等,,,2015-10-05,1,,,,,スギタコウギョウ,0
1138,5290002006870,登記記録の閉鎖等,0,2023-09-28,2023-09-13,有限会社如水,,有限会社,福岡県,福岡市城南区,茶山４丁目４番９号,,40,136,8140111,,,2023-09-13,清算の結了等,,,2015-10-05,1,,,,,ジョスイ,0
1142,5290801023190,登記記録の閉鎖等,0,2023-09-28,2023-09-27,株式会社やね八,,株式会社,福岡県,中間市,通谷６丁目１６番１号,,40,215,8090018,,,2023-09-27,清算の結了等,,,2017-01-11,1,,,,,ヤネハチ,0
1145,5310002008550,登記記録の閉鎖等,0,2023-09-28,2023-09-22,有限会社和,,有限会社,長崎県,長崎市,錦１丁目１６番２５号,,42,201,8528045,,,2023-09-22,清算の結了等,,,2015-10-05,1,,,,,ナゴミ,0
1165,5430001032011,登記記録の閉鎖等,0,2023-09-28,2023-09-12,株式会社日本サプリ,,株式会社,北海道,札幌市白石区,南郷通３丁目南５番２５－４０１号,,01,104,0030022,,,2023-09-12,清算の結了等,,,2015-10-05,1,,,,,ニホンサプリ,0
1166,5430001053445,登記記録の閉鎖等,0,2023-09-28,2023-09-12,苫小牧コンクリート株式会社,,株式会社,北海道,苫小牧市,字沼ノ端２番地の３５,,01,213,0591364,,,2023-09-12,清算の結了等,,,2015-10-05,1,,,,,トマコマイコンクリート,0
1176,6000020178471,登記記録の閉鎖等,0,2023-09-28,2021-03-31,小松加賀環境衛生事務組合,,地方公共団体,石川県,小松市,浜佐美町ヲ１５,,17,203,9230985,,,2021-03-31,その他の清算の結了等,,,2015-10-05,1,environmental sanitation authority of komatsu and kaga,Ishikawa,"wo-15 Hamasami machi, Komatsu City",,コマツカガカンキョウエイセイジムクミアイ,0
1179,6010001030774,登記記録の閉鎖等,0,2023-09-28,2023-09-20,株式会社メディアエンジニアリング,,株式会社,東京都,千代田区,西神田２丁目６番１号西神田コスモス館１３１０,,13,101,1010065,,,2023-09-20,清算の結了等,,,2015-10-05,1,,,,,メディアエンジニアリング,0
1191,6010001157378,登記記録の閉鎖等,0,2023-09-28,2023-09-21,野村ＩＣＧ株式会社,,株式会社,東京都,千代田区,大手町２丁目１番１号,,13,101,1000004,,,2023-09-21,清算の結了等,,,2015-10-05,1,,,,,ノムラアイシージー,0
1195,6010001220771,登記記録の閉鎖等,0,2023-09-28,2023-09-21,安達テクノロジー株式会社,,株式会社,東京都,中央区,勝どき５丁目１２番４－１２０３号,,13,102,1040054,,,2023-09-21,清算の結了等,,,2021-08-30,1,,,,,アンタツテクノロジー,0
1201,6010005003917,登記記録の閉鎖等,0,2023-09-28,2023-09-25,京橋監査法人,,その他の設立登記法人,東京都,中央区,京橋２丁目１１番６号,,13,102,1040031,,,2023-09-25,清算の結了等,,,2015-10-05,1,,,,,キョウバシ,0
1212,6010403025570,登記記録の閉鎖等,0,2023-09-28,2023-09-07,合同会社Ａｐｏｌｌｏｎ,,合同会社,東京都,港区,虎ノ門５丁目１番４号,,13,103,1050001,,,2023-09-07,清算の結了等,,,2021-06-21,1,,,,,アポロン,0
1215,6010502004244,登記記録の閉鎖等,0,2023-09-28,2023-09-26,有限会社紅葉家,,有限会社,東京都,台東区,日本堤１丁目１６番６号,,13,106,1110021,,,2023-09-26,清算の結了等,,,2015-10-05,1,,,,,モミジヤ,0
1225,6010901021088,登記記録の閉鎖等,0,2023-09-28,2023-09-20,株式会社スイートハウス,,株式会社,東京都,千代田区,九段北１丁目２番３号,,13,101,1020073,,,2023-09-20,清算の結了等,,,2015-10-05,1,,,,,スイートハウス,0
1238,6011003002191,登記記録の閉鎖等,0,2023-09-28,2023-09-26,ノープロブレム合同会社,,合同会社,東京都,渋谷区,東１丁目６番１６号,,13,113,1500011,,,2023-09-26,清算の結了等,,,2015-10-05,1,,,,,ノープロブレム,0
1283,6030001050795,登記記録の閉鎖等,0,2023-09-28,2023-09-21,株式会社宿屋マネジメント,,株式会社,東京都,中央区,晴海２丁目３番３０号,,13,102,1040053,,,2023-09-21,清算の結了等,,,2015-10-05,1,,,,,ヤドヤマネジメント,0
1286,6030001123964,登記記録の閉鎖等,0,2023-09-28,2023-09-07,株式会社ＰＯＳ,,株式会社,東京都,港区,北青山２丁目１４番４号,,13,103,1070061,,,2023-09-07,合併による解散等,8011101062994,令和５年８月３１日東京都港区北青山二丁目１４番４号株式会社Ａｍａｄｅｕｓ　Ｃｏｄｅ（8011101062994）に合併し解散,2018-01-23,1,,,,,ピーオーエス,0
1294,6030005020258,登記記録の閉鎖等,0,2023-09-28,2023-09-04,ＩＮＳＡＡＦ一般財団法人,,その他の設立登記法人,埼玉県,越谷市,蒲生本町一丁目１０－４０２,,11,222,3430837,,,2023-09-04,清算の結了等,,,2021-02-04,1,,,,,インサーフ,0
1303,6040002012348,登記記録の閉鎖等,0,2023-09-28,2023-09-12,有限会社ヨネショウ,,有限会社,千葉県,千葉市稲毛区,小中台町７０１番地,,12,103,2630044,,,2023-09-12,清算の結了等,,,2015-10-05,1,,,,,ヨネショウ,0
1317,6050002035125,登記記録の閉鎖等,0,2023-09-28,2023-09-21,有限会社ダイモン工業,,有限会社,茨城県,常陸太田市,瑞竜町２７０番地,,08,212,3130000,,,2023-09-21,清算の結了等,,,2015-10-05,1,,,,,ダイモンコウギョウ,0
1325,6090002003004,登記記録の閉鎖等,0,2023-09-28,2023-09-05,三井硝子有限会社,,有限会社,山梨県,甲府市,丸の内２丁目１０番１号,,19,201,4000031,,,2023-09-05,清算の結了等,,,2015-10-05,1,,,,,ミツイガラス,0
1327,6110002015137,登記記録の閉鎖等,0,2023-09-28,2023-09-26,有限会社柴土木,,有限会社,新潟県,新発田市,住吉町２丁目６番１７号,,15,206,9570061,,,2023-09-26,清算の結了等,,,2015-10-05,1,,,,,シバドボク,0
1332,6120001232608,登記記録の閉鎖等,0,2023-09-28,2023-09-26,株式会社Ｂｕｌｌ　Ｆｏｏｄｓ,,株式会社,大阪府,大阪市平野区,長吉出戸５丁目２番５号２Ｆ,,27,126,5470011,,,2023-09-26,清算の結了等,,,2020-10-22,1,,,,,ブルフーズ,0
1339,6120101030358,登記記録の閉鎖等,0,2023-09-28,2023-09-25,仲井物産株式会社,,株式会社,大阪府,八尾市,西山本町５丁目１４番１３号,,27,212,5810868,,,2023-09-25,清算の結了等,,,2015-10-05,1,,,,,ナカイブッサン,0
1356,6140002035710,登記記録の閉鎖等,0,2023-09-28,2023-09-25,有限会社ケイエス工房,,有限会社,兵庫県,加古川市,平岡町土山５７番地の６,,28,210,6750104,,,2023-09-25,清算の結了等,,,2015-10-05,1,,,,,ケイエスコウボウ,0
1357,6140002048150,登記記録の閉鎖等,0,2023-09-28,2023-09-25,企画総研有限会社,,有限会社,兵庫県,姫路市,安田４丁目５２番地の８,,28,201,6700955,,,2023-09-25,清算の結了等,,,2015-10-05,1,,,,,キカクソウケン,0
1366,6180003010683,登記記録の閉鎖等,0,2023-09-28,2023-09-25,合資会社鈴彦製陶所,,合資会社,愛知県,瀬戸市,進陶町３５番地,,23,204,4890058,,,2023-09-25,清算の結了等,,,2015-10-05,1,,,,,スズヒコセイトウショ,0
1372,6180302007463,登記記録の閉鎖等,0,2023-09-28,2023-09-15,近藤畜産有限会社,,有限会社,愛知県,豊橋市,南大清水町字元町８２番地,,23,201,4418132,,,2023-09-15,合併による解散等,8180301007495,令和５年９月１５日愛知県豊橋市南大清水町字元町８２番地ヤマコ株式会社（8180301007495）に合併し解散,2015-10-05,1,,,,,コンドウチクサン,0
1383,6250002005900,登記記録の閉鎖等,0,2023-09-28,2023-09-22,有限会社吉村工業所,,有限会社,山口県,宇部市,北条２丁目９番１８号,,35,202,7550802,,,2023-09-22,清算の結了等,,,2015-10-05,1,,,,,ヨシムラコウギョウショ,0
1402,6320002012567,登記記録の閉鎖等,0,2023-09-28,2023-09-26,有限会社みつば印刷,,有限会社,大分県,別府市,京町３番２５号,,44,202,8740926,,,2023-09-26,清算の結了等,,,2015-10-05,1,,,,,,0
1405,6330005009642,登記記録の閉鎖等,0,2023-09-28,2023-09-22,一般社団法人ふるさと発・復興志民会議,,その他の設立登記法人,熊本県,熊本市東区,山ノ神２丁目９番１６号,,43,102,8620915,,,2023-09-22,清算の結了等,,,2017-04-10,1,,,,,フルサトハツフッコウシミンカイギ,0
1449,7010005035521,登記記録の閉鎖等,0,2023-09-28,2023-09-26,一般社団法人ＫＭＰ１,,その他の設立登記法人,東京都,千代田区,内神田２丁目２番６号５階あすな会計事務所内,,13,101,1010047,,,2023-09-26,清算の結了等,,,2022-09-07,1,,,,,ケーエムピーワン,0
1451,7010401019838,登記記録の閉鎖等,0,2023-09-28,2023-09-25,株式会社トヨタ興業,,株式会社,東京都,港区,新橋２丁目１６番地１ニュー新橋ビル４３号,,13,103,1050004,,,2023-09-25,合併による解散等,6010903002037,令和５年９月２０日東京都世田谷区野毛二丁目２１番１号株式会社アイウィル（6010903002037）に合併し解散,2015-10-05,1,,,,,トヨタコウギョウ,0
1453,7010401097017,登記記録の閉鎖等,0,2023-09-28,2023-09-06,株式会社ＣＬＥＯ,,株式会社,東京都,港区,南青山３丁目８番５号アーバンプレム南青山２Ｆ,,13,103,1070062,,,2023-09-06,清算の結了等,,,2015-10-05,1,,,,,,0
1454,7010401133985,登記記録の閉鎖等,0,2023-09-28,2023-09-06,クイックゲット株式会社,,株式会社,東京都,港区,三田２丁目１７番２９号１０５,,13,103,1080073,,,2023-09-06,清算の結了等,,,2017-10-03,1,,,,,クイックゲット,0
1465,7010405015239,登記記録の閉鎖等,0,2023-09-28,2023-09-26,相模原４ロジスティック特定目的会社,,その他の設立登記法人,東京都,中央区,八重洲２丁目２番１号,,13,102,1040028,,,2023-09-26,清算の結了等,,,2016-11-01,1,,,,,サガミハラフォーロジスティック,0
1483,7011001070677,登記記録の閉鎖等,0,2023-09-28,2023-09-20,株式会社プロスペクト,,株式会社,東京都,中央区,佃１丁目１１番９号シティフロントタワー６０８,,13,102,1040051,,,2023-09-20,清算の結了等,,,2015-10-05,1,,,,,プロスペクト,0
1523,7020002001723,登記記録の閉鎖等,0,2023-09-28,2023-09-12,有限会社トーワ,,有限会社,神奈川県,横浜市瀬谷区,阿久和南３丁目３６番地１１,,14,114,2460026,,,2023-09-12,清算の結了等,,,2015-10-05,1,,,,,トーワ,0
1547,7040002045933,登記記録の閉鎖等,0,2023-09-28,2023-09-12,有限会社さかえ家,,有限会社,千葉県,松戸市,牧の原１丁目９９番地ライオンズヒルズ新八柱壱番館７０６号,,12,207,2702267,,,2023-09-12,清算の結了等,,,2015-10-05,1,,,,,サカエヤ,0
1551,7050002009004,登記記録の閉鎖等,0,2023-09-28,2023-09-22,有限会社皆川運輸,,有限会社,茨城県,ひたちなか市,八幡町１番２８号,,08,221,3111228,,,2023-09-22,清算の結了等,,,2015-10-05,1,,,,,ミナカワウンユ,0
1556,7070001037474,登記記録の閉鎖等,0,2023-09-28,2023-09-21,株式会社龍,,株式会社,群馬県,邑楽郡大泉町,仙石３丁目１５番２２号,,10,524,3700533,,,2023-09-21,清算の結了等,,,2020-12-04,1,,,,,リュウ,0
1564,7080401013198,登記記録の閉鎖等,0,2023-09-28,2023-09-27,株式会社ティーアールビー,,株式会社,静岡県,浜松市東区,将監町１５番地の２０,,22,132,4300802,,,2023-09-27,清算の結了等,,,2015-10-05,1,,,,,ティーアールビー,0
1571,7120001008825,登記記録の閉鎖等,0,2023-09-28,2023-09-25,株式会社明友,,株式会社,大阪府,大阪市都島区,毛馬町２丁目１１番４０－１０６号,,27,102,5340001,,,2023-09-25,清算の結了等,,,2015-10-05,1,,,,,メイユウ,0
1587,7122001003599,登記記録の閉鎖等,0,2023-09-28,2023-09-26,親和興業株式会社,,株式会社,大阪府,東大阪市,桜町２番３号,,27,227,5798047,,,2023-09-26,清算の結了等,,,2015-10-05,1,,,,,シンワコウギョウ,0
1602,7180001119014,登記記録の閉鎖等,0,2023-09-28,2023-09-25,株式会社みう企画,,株式会社,愛知県,名古屋市昭和区,広路町字隼人５番地の１,,23,107,4660834,,,2023-09-25,清算の結了等,,,2015-10-05,1,,,,,ミウキカク,0
1617,7210002002792,登記記録の閉鎖等,0,2023-09-28,2023-09-25,有限会社ハウビングショップタグチ,,有限会社,福井県,福井市,加茂緑苑町６１５番地,,18,201,9188058,,,2023-09-25,清算の結了等,,,2015-10-05,1,,,,,ハウビングショップタグチ,0
1623,7240003003424,登記記録の閉鎖等,0,2023-09-28,2023-09-25,合同会社ＴＲＡＣＯＮＮＥＣＴ,,合同会社,広島県,東広島市,高屋高美が丘３丁目９番６号,,34,212,7392115,,,2023-09-25,清算の結了等,,,2016-11-11,1,,,,,トラコネクト,0
1627,7260001031763,登記記録の閉鎖等,0,2023-09-28,2023-09-26,株式会社タガ,,株式会社,岡山県,岡山市南区,西高崎３８番地,,33,104,7091204,,,2023-09-26,清算の結了等,,,2018-02-26,1,,,,,タガ,0
1629,7290001058127,登記記録の閉鎖等,0,2023-09-28,2023-09-01,株式会社弥栄,,株式会社,福岡県,行橋市,宮市町５－２４ハイライフサクセス１Ｆ,,40,213,8240008,,,2023-09-01,合併による解散等,7290802022264,令和５年９月１日福岡県行橋市宮市町５－２４ハイライフサクセス１Ｆ株式会社古賀商店（7290802022264）に合併し解散,2015-10-05,1,,,,,イヤサカ,0
1645,7330002020023,登記記録の閉鎖等,0,2023-09-28,2023-09-19,有限会社コデラ,,有限会社,熊本県,上益城郡益城町,大字惣領字北横大道１６７９番地２,,43,443,8612233,,,2023-09-19,清算の結了等,,,2015-10-05,1,,,,,コデラ,0
1651,7340005002182,登記記録の閉鎖等,0,2023-09-28,2023-09-20,特定非営利活動法人ＮＰＯ福祉ひかり作業所,,その他の設立登記法人,鹿児島県,鹿児島市,小山田町６７６９番地２,,46,201,8911231,,,2023-09-20,清算の結了等,,,2015-10-05,1,,,,,エヌピーオーフクシヒカリサギョウショ,0
1659,7470001017650,登記記録の閉鎖等,0,2023-09-28,2023-09-25,エコ・プラント株式会社,,株式会社,香川県,綾歌郡綾川町,山田下８９１番地１,,37,387,7612204,,,2023-09-25,清算の結了等,,,2019-09-27,1,,,,,エコプラント,0
1681,8010405018331,登記記録の閉鎖等,0,2023-09-28,2023-09-26,総社３ロジスティック特定目的会社,,その他の設立登記法人,東京都,中央区,八重洲２丁目２番１号,,13,102,1040028,,,2023-09-26,清算の結了等,,,2019-12-11,1,,,,,ソウジャスリーロジスティック,0
1682,8010405018793,登記記録の閉鎖等,0,2023-09-28,2023-09-26,常総２ロジスティック特定目的会社,,その他の設立登記法人,東京都,中央区,八重洲２丁目２番１号,,13,102,1040028,,,2023-09-26,清算の結了等,,,2020-06-03,1,,,,,ジョウソウツーロジスティック,0
1705,8011003015183,登記記録の閉鎖等,0,2023-09-28,2023-09-22,合同会社オフソフト,,合同会社,東京都,渋谷区,道玄坂１丁目１０番８号渋谷道玄坂東急ビル２Ｆ－Ｃ,,13,113,1500043,,,2023-09-22,清算の結了等,,,2022-08-12,1,,,,,オフソフト,0
1710,8011201023938,登記記録の閉鎖等,0,2023-09-28,2023-09-26,株式会社Ｈ＆Ｙ,,株式会社,東京都,台東区,上野３丁目２４番６号,,13,106,1100005,,,2023-09-26,清算の結了等,,,2022-07-06,1,,,,,エイチアンドワイ,0
1732,8021005007260,登記記録の閉鎖等,0,2023-09-28,2023-09-22,特定非営利活動法人湘南ダンベル体操協会,,その他の設立登記法人,神奈川県,平塚市,四之宮５丁目１３番５８号,,14,203,2540014,,,2023-09-22,清算の結了等,,,2015-10-05,1,,,,,ショウナンダンベルタイソウキョウカイ,0
1737,8030001116702,登記記録の閉鎖等,0,2023-09-28,2023-09-01,株式会社バンキング,,株式会社,埼玉県,さいたま市岩槻区,大字長宮１０６２番地４,,11,110,3390011,,,2023-09-01,清算の結了等,,,2016-10-14,1,,,,,バンキング,0
1740,8030001144744,登記記録の閉鎖等,0,2023-09-28,2023-09-01,株式会社ミーユー,,株式会社,埼玉県,蕨市,錦町６丁目１５番５号,,11,223,3350005,,,2023-09-01,清算の結了等,,,2021-10-11,1,,,,,ミーユー,0
1752,8040005003953,登記記録の閉鎖等,0,2023-09-28,2023-09-11,ユニオン・ロイヤル労働組合,,その他の設立登記法人,千葉県,鎌ケ谷市,鎌ケ谷９丁目１番５号,,12,224,2730105,,,2023-09-11,清算の結了等,,,2015-10-05,1,,,,,ユニオンロイヤル,0
1755,8060001014894,登記記録の閉鎖等,0,2023-09-28,2023-09-19,株式会社太陽モールド,,株式会社,栃木県,小山市,大字羽川３４４番地３,,09,208,3230012,,,2023-09-19,清算の結了等,,,2015-10-05,1,,,,,タイヨウモールド,0
1756,8060002012468,登記記録の閉鎖等,0,2023-09-28,2023-09-20,有限会社今寿屋商店,,有限会社,栃木県,さくら市,氏家２５４３番地,,09,214,3291311,,,2023-09-20,清算の結了等,,,2015-10-05,1,,,,,イマスヤショウテン,0
1761,8070002017887,登記記録の閉鎖等,0,2023-09-28,2023-09-25,有限会社横弘精機製作所,,有限会社,群馬県,藤岡市,中島３５０番地２,,10,209,3750001,,,2023-09-25,清算の結了等,,,2015-10-05,1,,,,,ヨコヒロセイキセイサクジョ,0
1762,8070002032952,登記記録の閉鎖等,0,2023-09-28,2023-09-26,ＣＳＥ有限会社,,有限会社,群馬県,太田市,新田上田中町４６２番地５,,10,205,3700346,,,2023-09-26,清算の結了等,,,2015-10-05,1,,,,,シーエスイー,0
1781,8120002015555,登記記録の閉鎖等,0,2023-09-28,2023-09-26,有限会社新日本メンテナンス,,有限会社,大阪府,大阪市西区,本田３丁目２番１号,,27,106,5500022,,,2023-09-26,清算の結了等,,,2015-10-05,1,,,,,シンニホンメンテナンス,0
1802,8140002038901,登記記録の閉鎖等,0,2023-09-28,2023-09-25,有限会社ミヤキタ,,有限会社,兵庫県,高砂市,松陽３丁目７７０番地の４,,28,216,6760077,,,2023-09-25,清算の結了等,,,2015-10-05,1,,,,,ミヤキタ,0
1806,8140005001880,登記記録の閉鎖等,0,2023-09-28,2023-09-26,医療法人社団神矢眼科,,その他の設立登記法人,兵庫県,神戸市灘区,王子町１丁目３番１９,,28,102,6570838,,,2023-09-26,清算の結了等,,,2015-10-05,1,,,,,カミヤガンカ,0
1810,8170005004757,登記記録の閉鎖等,0,2023-09-28,2023-09-26,山田教会,,その他の設立登記法人,和歌山県,橋本市,山田８１２番地,,30,203,6480081,,,2023-09-26,清算の結了等,,,2015-10-05,1,,,,,ヤマダキョウカイ,0
1814,8180001097325,登記記録の閉鎖等,0,2023-09-28,2023-09-21,愛知藤吉工業株式会社,,株式会社,愛知県,海部郡飛島村,政成２丁目５２番地,,23,427,4901441,,,2023-09-21,合併による解散等,5180001005323,令和５年９月２１日名古屋市中村区太閤四丁目２番８号プラントサービス株式会社（5180001005323）に合併し解散,2015-10-05,1,,,,,アイチフジヨシコウギョウ,0
1833,8180303005720,登記記録の閉鎖等,0,2023-09-28,2023-09-15,合同会社Ｂｅ　Ｔｈｅ　Ｌｉｇｈｔ,,合同会社,愛知県,岡崎市,大西町字南ケ原２１番地６,,23,202,4440812,,,2023-09-15,清算の結了等,,,2023-05-29,1,,,,,ビーザライト,0
1835,8190002004774,登記記録の閉鎖等,0,2023-09-28,2023-09-21,有限会社つるやフーズ,,有限会社,三重県,亀山市,両尾町１９０４番地の１,,24,210,5190222,,,2023-09-21,清算の結了等,,,2015-10-05,1,,,,,,0
1842,8240001041160,登記記録の閉鎖等,0,2023-09-28,2023-09-25,株式会社アッそうだ,,株式会社,広島県,尾道市,東御所町４番１１号,,34,205,7220036,,,2023-09-25,清算の結了等,,,2015-10-05,1,,,,,アッソウダ,0
1858,8290002043300,登記記録の閉鎖等,0,2023-09-28,2023-09-12,有限会社アサクラ木材,,有限会社,福岡県,朝倉市,杷木星丸１０２３番地の３,,40,228,8381504,,,2023-09-12,清算の結了等,,,2015-10-05,1,,,,,アサクラモクザイ,0
1896,8490005001813,登記記録の閉鎖等,0,2023-09-28,2023-09-26,特定非営利活動法人エコアクション２１こうち,,その他の設立登記法人,高知県,香美市,土佐山田町４５１番地５マンションパル２・７０１号室,,39,212,7820047,,,2023-09-26,清算の結了等,,,2015-10-05,1,,,,,エコアクションニジュウイチコウチ,0
1916,9010005020083,登記記録の閉鎖等,0,2023-09-28,2023-09-26,銀座大栄ビル特定目的会社,,その他の設立登記法人,東京都,千代田区,丸の内３丁目１番１号東京共同会計事務所内,,13,101,1000005,,,2023-09-26,清算の結了等,,,2015-10-05,1,,,,,ギンザダイエイビル,0
1917,9010005035321,登記記録の閉鎖等,0,2023-09-28,2023-09-04,一般社団法人カーボンニュートラル技術促進会,,その他の設立登記法人,東京都,中央区,日本橋室町１丁目２－６日本橋大栄ビル７階,,13,102,1030022,,,2023-09-04,清算の結了等,,,2022-08-09,1,,,,,カーボンニュートラルギジュツソクシンカイ,0
1921,9010402030040,登記記録の閉鎖等,0,2023-09-28,2023-09-14,東立サービス有限会社,,有限会社,神奈川県,横浜市西区,南幸２丁目１６番１３号ＹＫビル７階,,14,103,2200005,,,2023-09-14,清算の結了等,,,2015-10-05,1,,,,,トウリツサービス,0
1935,9011001053044,登記記録の閉鎖等,0,2023-09-28,2023-09-26,株式会社小霜オフィス,,株式会社,東京都,渋谷区,東１丁目６番１６号,,13,113,1500011,,,2023-09-26,清算の結了等,,,2015-10-05,1,,,,,コシモオフィス,0
1946,9011002003543,登記記録の閉鎖等,0,2023-09-28,2023-09-25,有限会社グッドライフ,,有限会社,東京都,渋谷区,代々木１丁目３１番１２号,,13,113,1510053,,,2023-09-25,清算の結了等,,,2015-10-05,1,,,,,グッドライフ,0
1959,9011502009206,登記記録の閉鎖等,0,2023-09-28,2023-09-22,有限会社鈴木加工所,,有限会社,東京都,荒川区,南千住３丁目１６番２号,,13,118,1160003,,,2023-09-22,清算の結了等,,,2015-10-05,1,,,,,スズキカコウジョ,0
1960,9011601005452,登記記録の閉鎖等,0,2023-09-28,2023-09-26,株式会社ネスト,,株式会社,東京都,練馬区,羽沢２丁目１１番１７号,,13,120,1760003,,,2023-09-26,清算の結了等,,,2015-10-05,1,,,,,ネスト,0
1973,9020001122849,登記記録の閉鎖等,0,2023-09-28,2023-09-07,株式会社ｐａｐｕｒｉｃａ,,株式会社,東京都,港区,南青山２丁目２番１５号ウィン青山５２２,,13,103,1070062,,,2023-09-07,清算の結了等,,,2017-09-04,1,,,,,パプリカ,0
1980,9020002078033,登記記録の閉鎖等,0,2023-09-28,2023-09-27,有限会社日本ガードシステム,,有限会社,山梨県,南都留郡富士河口湖町,船津１５６４－７,,19,430,4010301,,,2023-09-27,清算の結了等,,,2015-10-05,1,,,,,ニホンガードシステム,0
2025,9050001008095,登記記録の閉鎖等,0,2023-09-28,2023-09-26,株式会社ヤナカ,,株式会社,茨城県,笠間市,八雲２丁目１１番３５号,,08,216,3091736,,,2023-09-26,合併による解散等,9010001184584,令和５年９月１日東京都港区虎ノ門二丁目３番１７号株式会社ヤナカホールディングス（9010001184584）に合併し解散,2015-10-05,1,,,,,ヤナカ,0
2033,9060002025163,登記記録の閉鎖等,0,2023-09-28,2023-09-19,有限会社エフ・ケイ・ジェイ,,有限会社,栃木県,大田原市,紫塚４丁目３９４４番１１０,,09,210,3240058,,,2023-09-19,清算の結了等,,,2015-10-05,1,,,,,エフケイジェイ,0
2036,9070002023273,登記記録の閉鎖等,0,2023-09-28,2023-09-26,有限会社小林総業,,有限会社,群馬県,みどり市,大間々町大間々３１３番地の１,,10,212,3760101,,,2023-09-26,清算の結了等,,,2015-10-05,1,,,,,コバヤシソウギョウ,0
2037,9070002023455,登記記録の閉鎖等,0,2023-09-28,2023-09-25,小林染工有限会社,,有限会社,群馬県,桐生市,東２丁目４番２２号,,10,203,3760034,,,2023-09-25,清算の結了等,,,2015-10-05,1,,,,,コバヤシセンコウ,0
2038,9070005003363,登記記録の閉鎖等,0,2023-09-28,2023-09-22,特定非営利活動法人ＴＥＥＰ,,その他の設立登記法人,群馬県,甘楽郡甘楽町,大字小幡９０５番地１０,,10,384,3702202,,,2023-09-22,清算の結了等,,,2015-10-05,1,,,,,ティーイーイーピー,0
2047,9110002033078,登記記録の閉鎖等,0,2023-09-28,2023-09-25,有限会社高野建築事務所,,有限会社,新潟県,南魚沼郡湯沢町,大字湯沢３５４番地１９,,15,461,9496101,,,2023-09-25,清算の結了等,,,2015-10-05,1,,,,,タカノケンチクジムショ,0
2054,9120001222127,登記記録の閉鎖等,0,2023-09-28,2023-09-19,株式会社ｔｒｕｅ　ｗｏｒｋ’ｓ,,株式会社,大阪府,大阪市浪速区,難波中２丁目６番２２号ナンバＡＯビル４Ｆ,,27,111,5560011,,,2023-09-19,清算の結了等,,,2019-07-03,1,,,,,トゥルーワークス,0
2089,9180002024946,登記記録の閉鎖等,0,2023-09-28,2023-09-22,有限会社家城屋,,有限会社,愛知県,名古屋市西区,花の木２丁目１２番７号,,23,104,4510062,,,2023-09-22,清算の結了等,,,2015-10-05,1,,,,,ヤシロヤ,0
2103,9200002000457,登記記録の閉鎖等,0,2023-09-28,2023-09-26,有限会社入船,,有限会社,岐阜県,岐阜市,加納水野町２丁目１２番地,,21,201,5008477,,,2023-09-26,清算の結了等,,,2015-10-05,1,,,,,イリフネ,0
2117,9290001053621,登記記録の閉鎖等,0,2023-09-28,2023-09-12,サン化成商事株式会社,,株式会社,福岡県,みやま市,高田町黒崎開３６６番地,,40,229,8390203,,,2023-09-12,清算の結了等,,,2015-10-05,1,,,,,サンカセイショウジ,0
2119,9290002006396,登記記録の閉鎖等,0,2023-09-28,2023-09-13,有限会社アクア,,有限会社,福岡県,福岡市城南区,茶山４丁目４番９号,,40,136,8140111,,,2023-09-13,清算の結了等,,,2015-10-05,1,,,,,アクア,0
2123,9300001008037,登記記録の閉鎖等,0,2023-09-28,2023-08-31,九州ブランド株式会社,,株式会社,埼玉県,さいたま市浦和区,北浦和５丁目７番１３号,,11,107,3300074,,,2023-08-31,清算の結了等,,,2015-10-05,1,,,,,キュウシュウブランド,0
2127,9310003003506,登記記録の閉鎖等,0,2023-09-28,2023-09-25,合同会社ＹＫエステート,,合同会社,長崎県,長崎市,新大工町５番１－７０１号,,42,201,8500017,,,2023-09-25,合併による解散等,9310003002813,令和５年９月２４日長崎市新大工町５番１－７０１号合同会社アドバンスト・プランニング（9310003002813）に合併し解散,2018-06-25,1,,,,,ワイケイエステート,0
2135,9370001005894,登記記録の閉鎖等,0,2023-09-28,2023-09-25,株式会社ハウジングキサラ,,株式会社,宮城県,仙台市宮城野区,二の森１０番２０号,,04,102,9830838,,,2023-09-25,清算の結了等,,,2015-10-05,1,,,,,ハウジングキサラ,0
