sequenceNumber,corporateNumber,process,correct,updateDate,changeDate,name,nameImageId,kind,prefectureName,cityName,streetNumber,addressImageId,prefectureCode,cityCode,postCode,addressOutside,addressOutsideImageId,closeDate,closeCause,successorCorporateNumber,changeCause,assignmentDate,latest,enName,enPrefectureName,enCityName,enAddressOutside,furigana,hihyoji
8,1010005018300,登記記録の閉鎖等,0,2024-12-11,2024-12-06,医療法人社団Ｄ＆Ｍ　Ｓｍｉｌｅ,,その他の設立登記法人,東京都,中央区,日本橋１丁目５番３号日本橋西川ビル１階,,13,102,1030027,,,2024-12-06,清算の結了等,,,2015-10-05,1,,,,,ディーアンドエムスマイル,0
27,1010601049368,登記記録の閉鎖等,0,2024-12-11,2024-12-04,水田湖一株式会社,,株式会社,東京都,中央区,日本橋２丁目２番２１号日本橋二丁目ビル４階スリーエス内,,13,102,1030027,,,2024-12-04,合併による解散等,7010003039887,令和６年１１月１５日東京都中央区日本橋二丁目２番２１号スリーエス内ＦＩＰＰ１合同会社（7010003039887）に合併し解散,2016-03-23,1,,,,,スイデンミズウミイチ,0
36,1011101002726,登記記録の閉鎖等,0,2024-12-11,2024-12-03,株式会社エイト・アンド・エイト,,株式会社,東京都,新宿区,西新宿４丁目３２番１１号,,13,104,1600023,,,2024-12-03,清算の結了等,,,2015-10-05,1,,,,,エイトアンドエイト,0
49,1011301003805,登記記録の閉鎖等,0,2024-12-11,2024-12-06,株式会社全日保安警備,,株式会社,東京都,杉並区,高円寺北２丁目１番２１号,,13,115,1660002,,,2024-12-06,清算の結了等,,,2015-10-05,1,,,,,ゼンニチホアンケイビ,0
54,1011602004849,登記記録の閉鎖等,0,2024-12-11,2024-12-06,有限会社志知プランナー,,有限会社,埼玉県,白岡市,新白岡８丁目１３番地４,,11,246,3490212,,,2024-12-06,清算の結了等,,,2015-10-05,1,,,,,シチプランナー,0
66,1013301049811,登記記録の閉鎖等,0,2024-12-11,2024-12-06,株式会社ＭＯＤＥＲＮＷＯＲＫＳ　ＪＡＰＡＮ,,株式会社,東京都,豊島区,東池袋５丁目７番３号アゼリア東池袋４０１,,13,116,1700013,,,2024-12-06,清算の結了等,,,2022-10-18,1,,,,,モダンワークスジャパン,0
79,1020002096884,登記記録の閉鎖等,0,2024-12-11,2024-12-02,有限会社光常,,有限会社,神奈川県,川崎市川崎区,田島町１３番１３号,,14,131,2100853,,,2024-12-02,清算の結了等,,,2015-10-05,1,,,,,コウジョウ,0
123,1110002015562,登記記録の閉鎖等,0,2024-12-11,2024-12-06,有限会社ミット,,有限会社,新潟県,新発田市,諏訪町１丁目３番６号,,15,206,9570055,,,2024-12-06,合併による解散等,3011201013506,令和６年１２月１日東京都中野区中央一丁目３８番１号ファーマライズ株式会社（3011201013506）に合併し解散,2015-10-05,1,,,,,ミット,0
124,1110005009801,登記記録の閉鎖等,0,2024-12-11,2024-12-05,浄円寺,,その他の設立登記法人,新潟県,妙高市,大字東関４８１番地,,15,217,9440335,,,2024-12-05,清算の結了等,,,2015-10-05,1,,,,,ジョウエンジ,0
136,1120101043158,登記記録の閉鎖等,0,2024-12-11,2024-12-09,株式会社ライト建設,,株式会社,大阪府,泉大津市,汐見町１２番地の１,,27,206,5950054,,,2024-12-09,合併による解散等,6140001070725,令和６年１２月１日兵庫県西宮市今津山中町６番２１号株式会社ライト建設（6140001070725）に合併し解散,2015-10-05,1,,,,,ライトケンセツ,0
152,1140001051738,登記記録の閉鎖等,0,2024-12-11,2024-12-05,株式会社山滋運輸,,株式会社,兵庫県,尼崎市,南清水３７番１４号,,28,202,6610985,,,2024-12-05,清算の結了等,,,2015-10-05,1,,,,,ヤマシゲウンユ,0
172,1160005001010,登記記録の閉鎖等,0,2024-12-11,2024-12-09,志賀管工事工業協同組合,,その他の設立登記法人,滋賀県,大津市,北比良６４３番地,,25,201,5200503,,,2024-12-09,清算の結了等,,,2015-10-05,1,,,,,シガカンコウジコウギョウ,0
177,1180001121826,登記記録の閉鎖等,0,2024-12-11,2024-12-02,株式会社ＭｅＸ,,株式会社,愛知県,長久手市,打越８０４番地,,23,238,4801152,,,2024-12-02,清算の結了等,,,2016-01-25,1,,,,,メックス,0
181,1180001142434,登記記録の閉鎖等,0,2024-12-11,2024-12-10,株式会社ゼロクリエイト,,株式会社,愛知県,名古屋市中区,錦３丁目４－２０錦ヤングビル４階,,23,106,4600003,,,2024-12-10,合併による解散等,8180001072550,令和６年１２月１０日名古屋市中区栄三丁目８番２２号サンリツビル２Ｆ株式会社ＬＡＷＬ（8180001072550）に合併し解散,2020-08-17,1,,,,,ゼロクリエイト,0
186,1180002072639,登記記録の閉鎖等,0,2024-12-11,2024-12-02,有限会社川瀬製作所,,有限会社,愛知県,尾張旭市,南原山町赤土２０２番地の１,,23,226,4880066,,,2024-12-02,清算の結了等,,,2015-10-05,1,,,,,カワセセイサクショ,0
199,1190002019531,登記記録の閉鎖等,0,2024-12-11,2024-12-05,有限会社太田工務店,,有限会社,三重県,四日市市,中村町１７０６番地,,24,202,5128044,,,2024-12-05,清算の結了等,,,2015-10-05,1,,,,,オオタコウムテン,0
201,1190005005561,登記記録の閉鎖等,0,2024-12-11,2024-12-09,志摩真珠協同組合,,その他の設立登記法人,三重県,志摩市,志摩町片田１１７４番地３９,,24,215,5170701,,,2024-12-09,清算の結了等,,,2015-10-05,1,,,,,シマシンジュ,0
202,1200001029728,登記記録の閉鎖等,0,2024-12-11,2024-12-06,株式会社エーアールエーテクノ,,株式会社,岐阜県,山県市,岩佐６４７番地１,,21,215,5012259,,,2024-12-06,清算の結了等,,,2015-10-05,1,,,,,エーアールエーテクノ,0
206,1200003000414,登記記録の閉鎖等,0,2024-12-11,2024-12-09,合資会社こうや,,合資会社,岐阜県,岐阜市,神室町１丁目２５番地の１,,21,201,5008878,,,2024-12-09,清算の結了等,,,2015-10-05,1,,,,,,0
222,1280002010365,登記記録の閉鎖等,0,2024-12-11,2024-12-09,有限会社ミルミルク,,有限会社,島根県,益田市,高津４丁目１９番８号,,32,204,6980041,,,2024-12-09,清算の結了等,,,2015-10-05,1,,,,,ミルミルク,0
223,1290001004268,登記記録の閉鎖等,0,2024-12-11,2024-11-19,株式会社吉野白蟻研究所,,株式会社,福岡県,福岡市東区,箱崎６丁目１３番１２号,,40,131,8120053,,,2024-11-19,清算の結了等,,,2015-10-05,1,,,,,ヨシノシロアリケンキュウジョ,0
237,1290801000540,登記記録の閉鎖等,0,2024-12-11,2024-12-02,株式会社エヌ・ケイ・ケイ,,株式会社,福岡県,北九州市小倉南区,大字呼野１０３５番地５,,40,107,8030181,,,2024-12-02,合併による解散等,2290801012956,令和６年１２月１日北九州市八幡西区引野一丁目１５番１２号株式会社Ｆ・Ｂクリエイト（2290801012956）に合併し解散,2015-10-05,1,,,,,エヌケイケイ,0
243,1330002028261,登記記録の閉鎖等,0,2024-12-11,2024-12-05,有限会社海の都,,有限会社,熊本県,上天草市,松島町合津６１００番地の１７,,43,212,8616102,,,2024-12-05,清算の結了等,,,2015-10-05,1,,,,,ウミノミヤコ,0
249,1360001023970,登記記録の閉鎖等,0,2024-12-11,2024-12-10,株式会社ミナミソラｂａｎｋ,,株式会社,沖縄県,石垣市,字真栄里３０９番地２オーシャンラムダ２０５号,,47,207,9070002,,,2024-12-10,清算の結了等,,,2018-05-14,1,,,,,ミナミソラバンク,0
264,1440001001175,登記記録の閉鎖等,0,2024-12-11,2024-12-10,株式会社竹田ストアー,,株式会社,北海道,函館市,本通３丁目２番７号,,01,202,0410851,,,2024-12-10,清算の結了等,,,2015-10-05,1,,,,,タケダストアー,0
274,2010002051641,登記記録の閉鎖等,0,2024-12-11,2024-11-28,有限会社産直オーガニックサービス,,有限会社,東京都,文京区,音羽１丁目２２番１６－３０３号,,13,105,1120013,,,2024-11-28,清算の結了等,,,2015-10-05,1,,,,,,0
293,2010401128511,登記記録の閉鎖等,0,2024-12-11,2024-11-26,株式会社ドリブン,,株式会社,東京都,港区,西新橋１丁目１８番１７号,,13,103,1050003,,,2024-11-26,清算の結了等,,,2016-12-08,1,,,,,ドリブン,0
297,2010403010568,登記記録の閉鎖等,0,2024-12-11,2024-11-27,インベナジー・イーストエッジ合同会社,,合同会社,東京都,千代田区,永田町２丁目１１番１号山王パークタワー２１階,,13,101,1000014,,,2024-11-27,清算の結了等,,,2015-10-05,1,,,,,インベナジーイーストエッジ,0
311,2010501049715,登記記録の閉鎖等,0,2024-12-11,2024-12-04,敬和株式会社,,株式会社,東京都,台東区,上野６丁目７番１６号,,13,106,1100005,,,2024-12-04,清算の結了等,,,2022-12-06,1,,,,,ケイワ,0
313,2010601049334,登記記録の閉鎖等,0,2024-12-11,2024-11-28,株式会社ステラキッズ,,株式会社,東京都,中央区,佃１丁目１１番８号,,13,102,1040051,,,2024-11-28,清算の結了等,,,2016-03-07,1,,,,,ステラキッズ,0
317,2010801025762,登記記録の閉鎖等,0,2024-12-11,2024-12-06,株式会社オスカー,,株式会社,東京都,大田区,千鳥１丁目１８番４－２０３号,,13,111,1460083,,,2024-12-06,合併による解散等,7090001001040,令和６年１１月３０日山梨県中央市山之神流通団地一丁目８番２号株式会社システムインナカゴミ（7090001001040）に合併し解散,2015-10-05,1,,,,,オスカー,0
320,2011001011479,登記記録の閉鎖等,0,2024-12-11,2024-12-05,ジャパン・トラストシステム株式会社,,株式会社,東京都,渋谷区,渋谷３丁目１８番４号渋谷三丁目ビル４階,,13,113,1500002,,,2024-12-05,合併による解散等,2440001001356,令和６年１２月１日北海道函館市中道一丁目１番１２号株式会社トーショウビルサービス（2440001001356）に合併し解散,2015-10-05,1,,,,,ジャパントラストシステム,0
321,2011001041963,登記記録の閉鎖等,0,2024-12-11,2024-11-19,株式会社ウィンウィン,,株式会社,東京都,渋谷区,笹塚３丁目６０番１２号,00064516,13,113,1510073,,,2024-11-19,清算の結了等,,,2015-10-05,1,,,,,ウィンウィン,0
337,2011801025372,登記記録の閉鎖等,0,2024-12-11,2024-12-05,株式会社スペース・ユー,,株式会社,東京都,足立区,本木南町８番６号,,13,121,1230855,,,2024-12-05,清算の結了等,,,2015-10-05,1,,,,,,0
343,2013301005284,登記記録の閉鎖等,0,2024-12-11,2024-12-02,新東京ビルサービス株式会社,,株式会社,東京都,豊島区,南大塚２丁目１１番１０号,,13,116,1700005,,,2024-12-02,清算の結了等,,,2015-10-05,1,,,,,シントウキョウビルサービス,0
371,2040001016031,登記記録の閉鎖等,0,2024-12-11,2024-12-04,株式会社ます田まえ田,,株式会社,千葉県,千葉市中央区,富士見２丁目２１番８号マルエイ第８ビル６階,,12,101,2600015,,,2024-12-04,清算の結了等,,,2015-10-05,1,,,,,マスダマエダ,0
373,2040001034388,登記記録の閉鎖等,0,2024-12-11,2024-12-04,株式会社みんなの会,,株式会社,千葉県,千葉市若葉区,若松町９０２－２,,12,104,2640021,,,2024-12-04,清算の結了等,,,2015-10-05,1,,,,,ミンナノカイ,0
375,2040001093161,登記記録の閉鎖等,0,2024-12-11,2024-12-04,株式会社永神,,株式会社,千葉県,市原市,廿五里１２２７番地８,,12,219,2900032,,,2024-12-04,清算の結了等,,,2015-12-04,1,,,,,エイシン,0
376,2040001099555,登記記録の閉鎖等,0,2024-12-11,2024-11-25,日本ＡＤキャピタル・インベストメント株式会社,,株式会社,東京都,港区,赤坂１丁目１４番１５号,,13,103,1070052,,,2024-11-25,清算の結了等,,,2017-04-04,1,,,,,ニホンエーディーキャピタルインベストメント,0
377,2040001100784,登記記録の閉鎖等,0,2024-12-11,2024-12-04,株式会社Ｕｌｕ,,株式会社,千葉県,市川市,南八幡３丁目５番９号,,12,203,2720023,,,2024-12-04,清算の結了等,,,2017-06-23,1,,,,,ウル,0
380,2050001023919,登記記録の閉鎖等,0,2024-12-11,2024-12-05,緑栄株式会社,,株式会社,東京都,西東京市,向台町６丁目１番１１号,,13,229,1880013,,,2024-12-05,合併による解散等,6012401018861,令和６年１２月１日東京都杉並区上荻三丁目２５番８号２Ｆ株式会社リアルクリエート（6012401018861）に合併し解散,2015-10-05,1,,,,,リョクエイ,0
402,2110002021477,登記記録の閉鎖等,0,2024-12-11,2024-12-04,有限会社朝日商事,,有限会社,新潟県,村上市,猿沢１２０５番地１,,15,212,9580261,,,2024-12-04,清算の結了等,,,2015-10-05,1,,,,,アサヒショウジ,0
414,2120002021567,登記記録の閉鎖等,0,2024-12-11,2024-12-09,有限会社カケハシ印刷,,有限会社,大阪府,大阪市西区,靱本町１丁目７番２７号,,27,106,5500004,,,2024-12-09,清算の結了等,,,2015-10-05,1,,,,,カケハシインサツ,0
416,2120002077551,登記記録の閉鎖等,0,2024-12-11,2024-12-05,有限会社三宅保険事務所,,有限会社,大阪府,交野市,妙見東３丁目１２番２１号,,27,230,5760012,,,2024-12-05,清算の結了等,,,2015-10-05,1,,,,,ミヤケホケンジムショ,0
418,2120005016993,登記記録の閉鎖等,0,2024-12-11,2024-12-09,ＮＰＯ法人プロジェクトジャスティス,,その他の設立登記法人,大阪府,大阪市北区,兎我野町５－６,,27,127,5300056,,,2024-12-09,清算の結了等,,,2015-10-05,1,,,,,プロジェクトジャスティス,0
419,2120101033083,登記記録の閉鎖等,0,2024-12-11,2024-12-06,株式会社ミートショウズ,,株式会社,大阪府,藤井寺市,野中５丁目３番４４号,,27,226,5830014,,,2024-12-06,清算の結了等,,,2015-10-05,1,,,,,ミートショウズ,0
420,2120101035988,登記記録の閉鎖等,0,2024-12-11,2024-12-09,株式会社ブライトワーク,,株式会社,大阪府,羽曳野市,郡戸３３４番８２号,,27,222,5830874,,,2024-12-09,清算の結了等,,,2015-10-05,1,,,,,ブライトワーク,0
421,2120101044015,登記記録の閉鎖等,0,2024-12-11,2024-12-06,株式会社小川電気,,株式会社,大阪府,泉南市,樽井５丁目１８番１４号,,27,228,5900521,,,2024-12-06,清算の結了等,,,2015-10-05,1,,,,,オガワデンキ,0
422,2120101046102,登記記録の閉鎖等,0,2024-12-11,2024-12-09,龍登株式会社,,株式会社,大阪府,岸和田市,岸の丘町１丁目１２番１１号,,27,202,5960817,,,2024-12-09,清算の結了等,,,2015-10-05,1,,,,,リュウト,0
432,2130002017135,登記記録の閉鎖等,0,2024-12-11,2024-12-09,有限会社浜喜久,,有限会社,京都府,京都市中京区,河原町通四条上る２丁目東入下大阪町３５２番地の４．３５３番地の３合地,,26,104,6048025,,,2024-12-09,清算の結了等,,,2015-10-05,1,,,,,ハマキク,0
441,2140003020104,登記記録の閉鎖等,0,2024-12-11,2024-12-05,合同会社はった,,合同会社,兵庫県,宝塚市,湯本町１番１,,28,214,6650003,,,2024-12-05,清算の結了等,,,2024-01-29,1,,,,,ハッタ,0
442,2140005021827,登記記録の閉鎖等,0,2024-12-11,2024-12-09,特定非営利活動法人ＧＡＴＥ,,その他の設立登記法人,兵庫県,姫路市,同心町４番地,,28,201,6700856,,,2024-12-09,清算の結了等,,,2015-10-05,1,,,,,ゲイト,0
452,2180001128671,登記記録の閉鎖等,0,2024-12-11,2024-11-29,ピエニュクリーン株式会社,,株式会社,愛知県,小牧市,応時３丁目８９番地,,23,219,4850832,,,2024-11-29,清算の結了等,,,2017-07-19,1,,,,,ピエニュクリーン,0
454,2180002021909,登記記録の閉鎖等,0,2024-12-11,2024-12-02,有限会社永井製作所,,有限会社,愛知県,名古屋市天白区,野並１丁目１４番地の２,,23,116,4680045,,,2024-12-02,清算の結了等,,,2015-10-05,1,,,,,ナガイセイサクショ,0
455,2180002087974,登記記録の閉鎖等,0,2024-12-11,2024-12-03,有限会社富木島石油店,,有限会社,愛知県,東海市,富木島町道才１０番地,,23,222,4760011,,,2024-12-03,清算の結了等,,,2015-10-05,1,,,,,フキシマセキユテン,0
456,2180003020166,登記記録の閉鎖等,0,2024-12-11,2024-12-03,桃の縁合同会社,,合同会社,愛知県,名古屋市東区,出来町２丁目１番１５号－２,,23,102,4610032,,,2024-12-03,清算の結了等,,,2019-07-11,1,,,,,モモノエン,0
472,2230001014420,登記記録の閉鎖等,0,2024-12-11,2024-12-06,株式会社ＬＩＦＥ,,株式会社,富山県,高岡市,横田本町九丁目２番地,,16,202,9330849,,,2024-12-06,清算の結了等,,,2015-10-05,1,,,,,ライフ,0
477,2240002017388,登記記録の閉鎖等,0,2024-12-11,2024-12-09,有限会社山本牧場,,有限会社,広島県,広島市安佐南区,東原３丁目５番４号,,34,105,7310112,,,2024-12-09,清算の結了等,,,2015-10-05,1,,,,,ヤマモトボクジョウ,0
486,2280002006511,登記記録の閉鎖等,0,2024-12-11,2024-12-09,有限会社井上鉄工所,,有限会社,島根県,出雲市,大社町修理免７０２番地２,,32,203,6990721,,,2024-12-09,清算の結了等,,,2015-10-05,1,,,,,イノウエテッコウショ,0
487,2290001073683,登記記録の閉鎖等,0,2024-12-11,2024-10-25,メンテＴＯＫＡＲＡ株式会社,,株式会社,福岡県,福岡市南区,桧原７丁目２３番１３号,,40,134,8111355,,,2024-10-25,清算の結了等,,,2016-04-21,1,,,,,メンテトカラ,0
493,2310002013090,登記記録の閉鎖等,0,2024-12-11,2024-12-06,有限会社ぴのきお,,有限会社,長崎県,北松浦郡佐々町,本田原免４８番地１,,42,391,8570311,,,2024-12-06,清算の結了等,,,2015-10-05,1,,,,,ピノキオ,0
494,2310003002472,登記記録の閉鎖等,0,2024-12-11,2024-12-05,合同会社長崎県央共済,,合同会社,長崎県,大村市,中里町４２０番地２,,42,205,8560842,,,2024-12-05,清算の結了等,,,2015-10-05,1,,,,,ナガサキケンオウキョウサイ,0
511,2430001030521,登記記録の閉鎖等,0,2024-12-11,2024-12-06,株式会社アドマイヤ,,株式会社,北海道,札幌市中央区,南七条西２丁目１－４豊水メディカルビル５Ｆ,,01,101,0640807,,,2024-12-06,清算の結了等,,,2015-10-05,1,,,,,アドマイヤ,0
513,2430001072613,登記記録の閉鎖等,0,2024-12-11,2024-12-09,トライアンフジャパン株式会社,,株式会社,北海道,札幌市中央区,南二条西７丁目１番地５（２・７ビル２階）,,01,101,0600062,,,2024-12-09,清算の結了等,,,2016-11-01,1,,,,,トライアンフジャパン,0
515,2430005007697,登記記録の閉鎖等,0,2024-12-11,2024-12-05,医療法人社団安達内科医院,,その他の設立登記法人,北海道,小樽市,花園３丁目１９番１７号,,01,203,0470024,,,2024-12-05,清算の結了等,,,2015-10-05,1,,,,,アダチナイカイイン,0
523,2490002012637,登記記録の閉鎖等,0,2024-12-11,2024-12-09,有限会社セーフティオート,,有限会社,高知県,南国市,大＿乙３０７３番地,00006848,39,204,7830005,,,2024-12-09,清算の結了等,,,2015-10-05,1,,,,,セーフティオート,0
527,3010001022543,登記記録の閉鎖等,0,2024-12-11,2024-11-27,株式会社淡青社企画開発研究所,,株式会社,東京都,千代田区,内幸町２丁目２番２号,,13,101,1000011,,,2024-11-27,清算の結了等,,,2015-10-05,1,,,,,タンセイシャキカクカイハツケンキュウジョ,0
541,3010005026004,登記記録の閉鎖等,0,2024-12-11,2024-12-03,一般社団法人訪日外国人医療支援機構,,その他の設立登記法人,東京都,品川区,東五反田１丁目２番３９号マンション島津山９０１,,13,109,1410022,,,2024-12-03,清算の結了等,,,2016-11-14,1,,,,,ホウニチガイコクジンイリョウシエンキコウ,0
551,3010401028727,登記記録の閉鎖等,0,2024-12-11,2024-11-27,株式会社ミップス,,株式会社,東京都,港区,六本木５丁目１１番２８号,,13,103,1060032,,,2024-11-27,清算の結了等,,,2015-10-05,1,,,,,ミップス,0
553,3010401081271,登記記録の閉鎖等,0,2024-12-11,2024-12-02,海天華遠日本機械株式会社,,株式会社,愛知県,名古屋市中村区,名駅南１丁目１３番８号セントラルハイツ柳橋３０５号,,23,105,4500003,,,2024-12-02,清算の結了等,,,2015-10-05,1,,,,,ハイティアンニホンキカイ,0
577,3011701007511,登記記録の閉鎖等,0,2024-12-11,2024-12-09,株式会社丸仲商店,,株式会社,東京都,江戸川区,東小松川１丁目１１番１５号,,13,123,1320033,,,2024-12-09,清算の結了等,,,2015-10-05,1,,,,,マルナカショウテン,0
598,3021001009224,登記記録の閉鎖等,0,2024-12-11,2024-12-02,株式会社杉山,,株式会社,神奈川県,鎌倉市,小町２丁目１４番８号,,14,204,2480006,,,2024-12-02,合併による解散等,7021001008825,令和６年１２月１日神奈川県鎌倉市小町二丁目１４番８号株式会社石長（7021001008825）に合併し解散,2015-10-05,1,,,,,スギヤマ,0
606,3030001104389,登記記録の閉鎖等,0,2024-12-11,2024-12-05,株式会社メープル,,株式会社,埼玉県,狭山市,入間川３丁目１番７号ライオンズ狭山グランテラス９０８,,11,215,3501305,,,2024-12-05,清算の結了等,,,2015-10-05,1,,,,,メープル,0
614,3040001057677,登記記録の閉鎖等,0,2024-12-11,2024-12-10,株式会社エイコウ,,株式会社,千葉県,山武郡九十九里町,片貝３５３３番地,,12,403,2830104,,,2024-12-10,合併による解散等,1040001007551,令和６年１２月１日千葉市中央区問屋町１番３５号株式会社ヤックスケアサービス（1040001007551）に合併し解散,2015-10-05,1,,,,,エイコウ,0
618,3040003011211,登記記録の閉鎖等,0,2024-12-11,2024-12-05,合同会社印西ベース,,合同会社,千葉県,印西市,牧の原５丁目７番地２,,12,231,2701331,,,2024-12-05,清算の結了等,,,2018-02-07,1,,,,,インザイベース,0
639,3080402016278,登記記録の閉鎖等,0,2024-12-11,2024-12-06,有限会社山本ホーキ,,有限会社,静岡県,浜松市浜名区,三ヶ日町下尾奈１１８０番地の１,,22,139,4311424,,,2024-12-06,清算の結了等,,,2015-10-05,1,,,,,ヤマモトホーキ,0
643,3110002025592,登記記録の閉鎖等,0,2024-12-11,2024-12-05,有限会社寿司源,,有限会社,新潟県,十日町市,本町４丁目３５番地１,,15,210,9480082,,,2024-12-05,清算の結了等,,,2015-10-05,1,,,,,スシゲン,0
646,3110002025857,登記記録の閉鎖等,0,2024-12-11,2024-12-05,有限会社牧野屋クリーニング,,有限会社,新潟県,十日町市,本町１丁目下６９１番地,,15,210,9480083,,,2024-12-05,清算の結了等,,,2015-10-05,1,,,,,マキノヤクリーニング,0
647,3120001003912,登記記録の閉鎖等,0,2024-12-11,2024-12-02,トキワ産業株式会社,,株式会社,大阪府,大阪市西成区,南開１丁目２番１７号,,27,122,5570023,,,2024-12-02,合併による解散等,8120001003908,令和６年１２月１日大阪市西成区南開一丁目２番１７号トキワ工業株式会社（8120001003908）に合併し解散,2015-10-05,1,,,,,トキワサンギョウ,0
648,3120001006254,登記記録の閉鎖等,0,2024-12-11,2024-12-10,株式会社日野,,株式会社,大阪府,大阪市阿倍野区,阿倍野筋３丁目１０番１号４３２,,27,119,5450052,,,2024-12-10,清算の結了等,,,2015-10-05,1,,,,,ヒノ,0
654,3120001247699,登記記録の閉鎖等,0,2024-12-11,2024-12-06,Ｄｕｏｙｉ　Ｎｅｔｗｏｒｋ株式会社,,株式会社,大阪府,大阪市西区,北堀江１丁目５番２号四ツ橋新興産ビル９０３号室,,27,106,5500014,,,2024-12-06,清算の結了等,,,2022-07-29,1,,,,,ドウイネットワーク,0
671,3130002032562,登記記録の閉鎖等,0,2024-12-11,2024-12-09,有限会社京都ビジネス学院,,有限会社,京都府,福知山市,和久市町５１番地３,,26,201,6200062,,,2024-12-09,清算の結了等,,,2015-10-05,1,,,,,キョウトビジネスガクイン,0
672,3130003009031,登記記録の閉鎖等,0,2024-12-11,2024-12-09,合同会社海老名駐車場,,合同会社,京都府,京都市右京区,嵯峨野宮ノ元４５,,26,108,6160000,,,2024-12-09,清算の結了等,,,2023-10-13,1,,,,,エビナチュウシャジョウ,0
682,3180001075590,登記記録の閉鎖等,0,2024-12-11,2024-12-02,株式会社ウーマン,,株式会社,愛知県,小牧市,春日寺２丁目１０４番地,,23,219,4850025,,,2024-12-02,清算の結了等,,,2015-10-05,1,,,,,ウーマン,0
690,3180301021286,登記記録の閉鎖等,0,2024-12-11,2024-12-04,株式会社サンノウ,,株式会社,愛知県,豊田市,山之手１丁目７番地６,,23,211,4710833,,,2024-12-04,清算の結了等,,,2015-10-05,1,,,,,サンノウ,0
692,3180302009553,登記記録の閉鎖等,0,2024-12-11,2024-12-06,有限会社ブルーウィング,,有限会社,愛知県,豊川市,小坂井町倉屋敷５２番地１,,23,207,4410103,,,2024-12-06,清算の結了等,,,2015-10-05,1,,,,,ブルーウィング,0
693,3180302016533,登記記録の閉鎖等,0,2024-12-11,2024-12-05,有限会社カトープラスチック工業,,有限会社,愛知県,刈谷市,築地町５丁目１９番地３,,23,210,4480011,,,2024-12-05,清算の結了等,,,2015-10-05,1,,,,,カトープラスチックコウギョウ,0
694,3180302019379,登記記録の閉鎖等,0,2024-12-11,2024-12-04,有限会社佐々野工業,,有限会社,愛知県,知立市,西中町中新切４３番地１,,23,225,4720016,,,2024-12-04,清算の結了等,,,2015-10-05,1,,,,,ササノコウギョウ,0
695,3180302027737,登記記録の閉鎖等,0,2024-12-11,2024-12-04,有限会社中西組,,有限会社,愛知県,新城市,野田字西郷５５番地の１,,23,221,4411343,,,2024-12-04,清算の結了等,,,2015-10-05,1,,,,,ナカニシグミ,0
696,3180305009336,登記記録の閉鎖等,0,2024-12-11,2024-12-04,一般社団法人平田炊飯研究所,,その他の設立登記法人,愛知県,豊川市,国府町下坊入６番地の６レインボー國府Ｃ２０５号,,23,207,4420854,,,2024-12-04,清算の結了等,,,2022-05-10,1,,,,,ヒラタスイハンケンキュウジョ,0
699,3190002013004,登記記録の閉鎖等,0,2024-12-11,2024-12-06,有限会社さわの,,有限会社,三重県,名張市,東町１７３０番地,,24,208,5180711,,,2024-12-06,清算の結了等,,,2015-10-05,1,,,,,サワノ,0
707,3220002015599,登記記録の閉鎖等,0,2024-12-11,2024-12-09,有限会社輪島港運,,有限会社,石川県,輪島市,鳳至町下町１６５番地,,17,204,9280075,,,2024-12-09,清算の結了等,,,2015-10-05,1,,,,,ワジマコウウン,0
713,3240002046790,登記記録の閉鎖等,0,2024-12-11,2024-12-06,光密金属工業有限会社,,有限会社,広島県,府中市,高木町６６１番地の１,,34,208,7260013,,,2024-12-06,清算の結了等,,,2015-10-05,1,,,,,コウミツキンゾクコウギョウ,0
716,3260001017460,登記記録の閉鎖等,0,2024-12-11,2024-12-09,アンドディハウス株式会社,,株式会社,岡山県,倉敷市,新田２４３０番地１,,33,202,7100038,,,2024-12-09,清算の結了等,,,2015-10-05,1,,,,,アンドディハウス,0
751,3370105000087,登記記録の閉鎖等,0,2024-12-11,2024-11-28,上川名生産森林組合,,その他の設立登記法人,宮城県,柴田郡柴田町,大字上川名字館山６７番地の３,,04,323,9891742,,,2024-11-28,清算の結了等,,,2015-10-05,1,,,,,カミカワナ,0
766,3460102001558,登記記録の閉鎖等,0,2024-12-11,2024-12-09,有限会社昭和堂カメラ店,,有限会社,北海道,帯広市,西十八条南５丁目５８番地５,,01,207,0800028,,,2024-12-09,清算の結了等,,,2015-10-05,1,,,,,ショウワドウカメラテン,0
781,4010003022607,登記記録の閉鎖等,0,2024-12-11,2024-11-28,合同会社Ｉｎｆｉｎｉｔｙ,,合同会社,東京都,中央区,日本橋茅場町３丁目４番１－１００３号,,13,102,1030025,,,2024-11-28,清算の結了等,,,2015-10-30,1,,,,,,0
792,4010401096013,登記記録の閉鎖等,0,2024-12-11,2024-11-18,株式会社フォレスト,,株式会社,東京都,渋谷区,桜丘町４－１４ＶＯＲＴ渋谷桜丘ビル５Ｆ,,13,113,1500031,,,2024-11-18,清算の結了等,,,2015-10-05,1,,,,,フォレスト,0
793,4010401106622,登記記録の閉鎖等,0,2024-12-11,2024-11-28,株式会社ジャム・アンド・イノベーションズ,,株式会社,東京都,千代田区,飯田橋１丁目３番８号ＫＤビル１階,,13,101,1020072,,,2024-11-28,清算の結了等,,,2015-10-05,1,,,,,ジャムアンドイノベーションズ,0
814,4010701017817,登記記録の閉鎖等,0,2024-12-11,2024-12-04,株式会社ティーケービジネス,,株式会社,東京都,品川区,大井３丁目１８番１５－１４０６号,,13,109,1400014,,,2024-12-04,清算の結了等,,,2015-10-05,1,,,,,ティーケービジネス,0
815,4010701038879,登記記録の閉鎖等,0,2024-12-11,2024-12-04,株式会社ＪＴＢ　ＢＯＫＵＮ,,株式会社,東京都,品川区,東品川２丁目３番１１号,,13,109,1400002,,,2024-12-04,清算の結了等,,,2020-02-13,1,,,,,ジェイティービーボークン,0
822,4011001155761,登記記録の閉鎖等,0,2024-12-11,2024-11-12,株式会社メガネ丸,,株式会社,熊本県,熊本市中央区,黒髪２丁目３－５プリマレーベン黒髪１１０１号,,43,101,8600862,,,2024-11-12,清算の結了等,,,2023-08-03,1,,,,,メガネマル,0
837,4011701006017,登記記録の閉鎖等,0,2024-12-11,2024-12-09,日本コンピュータ伝票株式会社,,株式会社,東京都,江東区,南砂１丁目１２番８号,,13,108,1360076,,,2024-12-09,清算の結了等,,,2015-10-05,1,,,,,,0
841,4011802006667,登記記録の閉鎖等,0,2024-12-11,2024-12-04,有限会社フイールド,,有限会社,東京都,葛飾区,鎌倉４丁目２６番７号,,13,122,1250053,,,2024-12-04,清算の結了等,,,2015-10-05,1,,,,,フイールド,0
847,4013202005976,登記記録の閉鎖等,0,2024-12-11,2024-11-19,有限会社マツ・カンパニー,,有限会社,東京都,渋谷区,恵比寿１丁目１８番１６号,,13,113,1500013,,,2024-11-19,清算の結了等,,,2015-10-05,1,,,,,マツカンパニー,0
856,4020002059120,登記記録の閉鎖等,0,2024-12-11,2024-12-02,有限会社ハードル,,有限会社,神奈川県,横浜市旭区,中白根４丁目１番８３－２０４号,,14,112,2410004,,,2024-12-02,清算の結了等,,,2015-10-05,1,,,,,ハードル,0
868,4030001116895,登記記録の閉鎖等,0,2024-12-11,2024-12-09,三浦精工株式会社,,株式会社,埼玉県,三郷市,鷹野３丁目１９２番地,,11,237,3410035,,,2024-12-09,清算の結了等,,,2016-10-24,1,,,,,ミウラセイコウ,0
869,4030001145283,登記記録の閉鎖等,0,2024-12-11,2024-12-06,株式会社ＣＣＦ,,株式会社,埼玉県,さいたま市岩槻区,大字裏慈恩寺３９番地２,,11,110,3390002,,,2024-12-06,清算の結了等,,,2021-11-10,1,,,,,シーシーエフ,0
873,4030003006450,登記記録の閉鎖等,0,2024-12-11,2024-12-06,合同会社北山コンサルティング,,合同会社,埼玉県,さいたま市南区,沼影１丁目３０番２５号１１１７,,11,108,3360027,,,2024-12-06,清算の結了等,,,2015-10-05,1,,,,,キタヤマコンサルティング,0
875,4030005017801,登記記録の閉鎖等,0,2024-12-11,2024-12-05,一般社団法人ひなた,,その他の設立登記法人,埼玉県,加須市,花崎北４丁目３番地３,,11,210,3470016,,,2024-12-05,清算の結了等,,,2016-02-08,1,,,,,ヒナタ,0
876,4040001064714,登記記録の閉鎖等,0,2024-12-11,2024-12-04,株式会社斉藤電機商会,,株式会社,千葉県,千葉市中央区,浜野町１１９６番地浜野セントラルマンション３０４,,12,101,2600824,,,2024-12-04,清算の結了等,,,2015-10-05,1,,,,,サイトウデンキショウカイ,0
880,4040001108454,登記記録の閉鎖等,0,2024-12-11,2024-12-04,株式会社Ｇｒａｃｅｓ,,株式会社,千葉県,柏市,柏３丁目４番８号トキワ第２ビル２階,,12,217,2770005,,,2024-12-04,清算の結了等,,,2019-03-26,1,,,,,グラシス,0
891,4060002007141,登記記録の閉鎖等,0,2024-12-11,2024-12-06,有限会社ノザワ,,有限会社,栃木県,宇都宮市,石井町３４００番地９,,09,201,3210912,,,2024-12-06,清算の結了等,,,2015-10-05,1,,,,,ノザワ,0
894,4070001030746,登記記録の閉鎖等,0,2024-12-11,2024-12-10,田子電気工事株式会社,,株式会社,群馬県,高崎市,保渡田町３７番地３,,10,202,3703533,,,2024-12-10,清算の結了等,,,2015-10-05,1,,,,,タゴデンキコウジ,0
895,4070001037337,登記記録の閉鎖等,0,2024-12-11,2024-12-06,株式会社東日本エコロジー・パートナー,,株式会社,群馬県,伊勢崎市,連取町３００３番地１１,,10,204,3720812,,,2024-12-06,清算の結了等,,,2020-10-22,1,,,,,ヒガシニホンエコロジーパートナー,0
907,4100001036293,登記記録の閉鎖等,0,2024-12-11,2024-12-03,株式会社くらし信州,,株式会社,長野県,長野市,大字鶴賀３６８番地１南部ビル２Ｄ,,20,201,3800907,,,2024-12-03,清算の結了等,,,2023-04-05,1,,,,,クラシシンシュウ,0
909,4100002030997,登記記録の閉鎖等,0,2024-12-11,2024-12-04,岡谷製麺有限会社,,有限会社,長野県,岡谷市,川岸中２丁目６番１号,,20,204,3940047,,,2024-12-04,清算の結了等,,,2015-10-05,1,,,,,オカヤセイメン,0
912,4120001013613,登記記録の閉鎖等,0,2024-12-11,2024-12-09,マホメット産業株式会社,,株式会社,大阪府,大阪市東成区,大今里南２丁目１４番２０号,,27,115,5370013,,,2024-12-09,清算の結了等,,,2015-10-05,1,,,,,マホメットサンギョウ,0
913,4120001075083,登記記録の閉鎖等,0,2024-12-11,2024-12-03,株式会社上堂建築設計事務所,,株式会社,大阪府,豊中市,寺内２丁目１２番１４－２０６号,,27,203,5610872,,,2024-12-03,清算の結了等,,,2015-10-05,1,,,,,ウエドウケンチクセッケイジムショ,0
917,4120001230002,登記記録の閉鎖等,0,2024-12-11,2024-11-13,ＬｏｎｄｏｎＣｏｎｓｕｌｔｉｎｇ株式会社,,株式会社,大阪府,堺市西区,鳳東町７丁８２７－７,,27,144,5938324,,,2024-11-13,清算の結了等,,,2020-06-26,1,,,,,ロンドンコンサルティング,0
923,4120002055712,登記記録の閉鎖等,0,2024-12-11,2024-12-06,有限会社メディカル・トータル・プランナー,,有限会社,大阪府,大阪市東成区,東今里２丁目１２－２２,,27,115,5370011,,,2024-12-06,清算の結了等,,,2015-10-05,1,,,,,メディカルトータルプランナー,0
935,4130001017068,登記記録の閉鎖等,0,2024-12-11,2024-12-09,株式会社キョーボク,,株式会社,京都府,京都市下京区,中堂寺庄ノ内町１番地の１１５,,26,106,6008814,,,2024-12-09,清算の結了等,,,2015-10-05,1,,,,,キョーボク,0
939,4130001069010,登記記録の閉鎖等,0,2024-12-11,2024-11-27,株式会社ＫａｎｓａｉＬａｎｋａ,,株式会社,京都府,京都市下京区,松原通新町東入中野之町１７５メロディハイム松原１０１,,26,106,6008435,,,2024-11-27,清算の結了等,,,2021-04-05,1,,,,,カンサイランカ,0
947,4180001092775,登記記録の閉鎖等,0,2024-12-11,2024-12-02,株式会社あちは製作所,,株式会社,愛知県,知多郡東浦町,大字森岡字一町田２０番地の２,,23,442,4702101,,,2024-12-02,清算の結了等,,,2015-10-05,1,,,,,アチワセイサクジョ,0
955,4180005011500,登記記録の閉鎖等,0,2024-12-11,2024-12-03,エコーガーデン桃花台団地管理組合法人,,その他の設立登記法人,愛知県,小牧市,古雅３丁目９８番地４４,,23,219,4850814,,,2024-12-03,清算の結了等,,,2015-10-05,1,,,,,エコーガーデントウカダイ,0
965,4240001022932,登記記録の閉鎖等,0,2024-12-11,2024-12-06,株式会社天亀,,株式会社,広島県,東広島市,西条町田口２０５２番地２,,34,212,7390036,,,2024-12-06,清算の結了等,,,2015-10-05,1,,,,,,0
976,4270001005744,登記記録の閉鎖等,0,2024-12-11,2024-12-10,株式会社エスプリ・ドゥ・フルール,,株式会社,鳥取県,倉吉市,新陽町１７番地,,31,203,6820815,,,2024-12-10,清算の結了等,,,2015-10-05,1,,,,,エスプリドゥフルール,0
987,4290005005648,登記記録の閉鎖等,0,2024-12-11,2024-11-27,特定非営利活動法人コスモキャンパス,,その他の設立登記法人,福岡県,古賀市,今在家１８４番地１,,40,223,8113131,,,2024-11-27,清算の結了等,,,2015-10-05,1,,,,,コスモキャンパス,0
995,4330001002099,登記記録の閉鎖等,0,2024-12-11,2024-12-04,三洋開発株式会社,,株式会社,熊本県,菊池郡菊陽町,大字津久礼１５４番地９,,43,404,8691101,,,2024-12-04,清算の結了等,,,2015-10-05,1,,,,,サンヨウカイハツ,0
1000,4330002004664,登記記録の閉鎖等,0,2024-12-11,2024-12-05,有限会社山洋観光,,有限会社,熊本県,熊本市東区,江津１丁目１番７号,,43,102,8620942,,,2024-12-05,清算の結了等,,,2015-10-05,1,,,,,サンヨウカンコウ,0
1018,4390001015392,登記記録の閉鎖等,0,2024-12-11,2024-12-05,株式会社サンコーポレーション,,株式会社,山形県,西置賜郡小国町,大字小国小坂町３丁目６０番地,,06,401,9991363,,,2024-12-05,合併による解散等,4011801027276,令和６年１１月３０日東京都足立区梅島一丁目１４番７号株式会社サンプランニング（4011801027276）に合併し解散,2018-07-26,1,,,,,サンコーポレーション,0
1030,4700150011763,削除,,2024-12-11,,,,,,,,,,,,,,,,,,,,,,,,,
1041,5010001222273,登記記録の閉鎖等,0,2024-12-11,2024-11-28,株式会社Ｆｏｒ　Ｒ,,株式会社,東京都,中央区,日本橋蛎殻町１丁目１９番８－８０３号,,13,102,1030014,,,2024-11-28,清算の結了等,,,2021-11-04,1,,,,,フォーアール,0
1044,5010003020642,登記記録の閉鎖等,0,2024-12-11,2024-11-28,新浦安プロパティー合同会社,,合同会社,東京都,千代田区,丸の内１丁目１１番１号,,13,101,1000005,,,2024-11-28,清算の結了等,,,2015-10-05,1,,,,,シンウラヤスプロパティー,0
1077,5010603004094,登記記録の閉鎖等,0,2024-12-11,2024-12-09,合資会社シューテクニック・ジャパン,,合資会社,東京都,墨田区,本所１丁目２番１４－４０３号,,13,107,1300004,,,2024-12-09,清算の結了等,,,2015-10-05,1,,,,,,0
1097,5011203003965,登記記録の閉鎖等,0,2024-12-11,2024-11-20,合同会社ＢＲＴＣ,,合同会社,東京都,中央区,銀座１丁目１２番４号Ｎ＆ＥＢＬＤ．６Ｆ,,13,102,1040061,,,2024-11-20,清算の結了等,,,2022-12-20,1,,,,,ビーアールティーシー,0
1113,5021001062361,登記記録の閉鎖等,0,2024-12-11,2024-12-09,エフアイジー・コンサルティング株式会社,,株式会社,神奈川県,横須賀市,日の出町１丁目１６番地１ハイネス横須賀中央１０５,,14,201,2380006,,,2024-12-09,清算の結了等,,,2017-06-12,1,,,,,エフアイジーコンサルティング,0
1128,5030002066536,登記記録の閉鎖等,0,2024-12-11,2024-12-09,福和運送有限会社,,有限会社,埼玉県,志木市,下宗岡３丁目１２番２号,,11,228,3530003,,,2024-12-09,清算の結了等,,,2015-10-05,1,,,,,フクワウンソウ,0
1132,5040001013629,登記記録の閉鎖等,0,2024-12-11,2024-12-05,株式会社テクソン,,株式会社,千葉県,四街道市,和良比２４５番地３３,,12,228,2840044,,,2024-12-05,清算の結了等,,,2015-10-05,1,,,,,テクソン,0
1134,5040001083052,登記記録の閉鎖等,0,2024-12-11,2024-12-04,株式会社リベルタ,,株式会社,千葉県,千葉市中央区,神明町３番地２９アーバン菅沼３０８号,,12,101,2600022,,,2024-12-04,清算の結了等,,,2015-10-05,1,,,,,リベルタ,0
1148,5080401002335,登記記録の閉鎖等,0,2024-12-11,2024-12-06,株式会社ショーケンハウス,,株式会社,静岡県,浜松市中央区,伊左地町８１３３番地の２,,22,138,4311111,,,2024-12-06,清算の結了等,,,2015-10-05,1,,,,,ショーケンハウス,0
1153,5100002020345,登記記録の閉鎖等,0,2024-12-11,2024-12-04,有限会社昭和堂,,有限会社,長野県,松本市,浅間温泉２丁目４番１８号,,20,202,3900303,,,2024-12-04,清算の結了等,,,2015-10-05,1,,,,,ショウワドウ,0
1155,5120001015501,登記記録の閉鎖等,0,2024-12-11,2024-12-09,株式会社高橋直,,株式会社,大阪府,大阪市城東区,東中浜１丁目１２番８号,,27,118,5360023,,,2024-12-09,清算の結了等,,,2015-10-05,1,,,,,タカハシナオ,0
1202,5180001146943,登記記録の閉鎖等,0,2024-12-11,2024-12-02,株式会社久保設計,,株式会社,愛知県,知多郡美浜町,大字古布字屋敷１６１番地６,,23,446,4702413,,,2024-12-02,清算の結了等,,,2021-07-13,1,,,,,クボセッケイ,0
1211,5180301020658,登記記録の閉鎖等,0,2024-12-11,2024-12-09,株式会社かめや,,株式会社,愛知県,豊田市,竹町宮下６８番地,,23,211,4730906,,,2024-12-09,清算の結了等,,,2015-10-05,1,,,,,カメヤ,0
1229,5240002031634,登記記録の閉鎖等,0,2024-12-11,2024-12-06,有限会社ＩＭＡＩ　ＳＥＲＶＩＣＥ,,有限会社,広島県,廿日市市,木材港北１３番４３号,,34,213,7380021,,,2024-12-06,清算の結了等,,,2015-10-05,1,,,,,イマイサービス,0
1270,5310001010631,登記記録の閉鎖等,0,2024-12-11,2024-12-05,株式会社ヨシモト,,株式会社,長崎県,松浦市,志佐町浦免１１４７番地,,42,208,8594501,,,2024-12-05,清算の結了等,,,2015-10-05,1,,,,,ヨシモト,0
1271,5310001011290,登記記録の閉鎖等,0,2024-12-11,2024-12-05,岩永設計事務所株式会社,,株式会社,長崎県,長崎市,鶴の尾町１３番３号,,42,201,8510132,,,2024-12-05,清算の結了等,,,2015-10-05,1,,,,,イワナガセッケイジムショ,0
1275,5350002008852,登記記録の閉鎖等,0,2024-12-11,2024-12-04,有限会社ジュライシステム,,有限会社,千葉県,市川市,行徳駅前４丁目２３番１号２Ｆ,,12,203,2720133,,,2024-12-04,清算の結了等,,,2015-10-05,1,,,,,ジュライシステム,0
1286,5370301002216,登記記録の閉鎖等,0,2024-12-11,2024-12-02,株式会社小笠原新聞店大橋専売所,,株式会社,宮城県,石巻市,大橋３丁目２番地１２,,04,202,9860805,,,2024-12-02,合併による解散等,4370301002209,令和６年１２月１日宮城県石巻市穀町１番３号株式会社小笠原新聞店立町専売所（4370301002209）に合併し解散,2015-10-05,1,,,,,オガサワラシンブンテンオオハシセンバイショ,0
1287,5370801001320,登記記録の閉鎖等,0,2024-12-11,2024-12-04,株式会社ＳＡＫＵＲＡＤＡ,,株式会社,宮城県,名取市,那智が丘２丁目２１番地の２,,04,207,9811244,,,2024-12-04,清算の結了等,,,2015-10-05,1,,,,,サクラダ,0
1292,5430001020362,登記記録の閉鎖等,0,2024-12-11,2024-12-06,株式会社ピックルスコーポレーション札幌,,株式会社,北海道,札幌市白石区,米里一条３丁目５番１０号,,01,104,0030871,,,2024-12-06,合併による解散等,2030001024893,令和６年１２月１日埼玉県所沢市東住吉７番８号株式会社ピックルスコーポレーション（2030001024893）に合併し解散,2015-10-05,1,,,,,ピックルスコーポレーションサッポロ,0
1300,5460002000055,登記記録の閉鎖等,0,2024-12-11,2024-12-10,有限会社アクツ,,有限会社,北海道,釧路市,春採８丁目１７番７号,,01,206,0850813,,,2024-12-10,清算の結了等,,,2015-10-05,1,,,,,アクツ,0
1315,6010002052529,登記記録の閉鎖等,0,2024-12-11,2024-11-27,利島総合サービス有限会社,,有限会社,東京都,利島村,３９番地,,13,362,1000301,,,2024-11-27,清算の結了等,,,2015-10-05,1,,,,,トシマソウゴウサービス,0
1319,6010005030696,登記記録の閉鎖等,0,2024-12-11,2024-11-19,３０１特定目的会社,,その他の設立登記法人,東京都,千代田区,霞が関３丁目２番５号霞が関ビル３０階,,13,101,1000013,,,2024-11-19,清算の結了等,,,2019-09-03,1,,,,,サンマルイチ,0
1363,6012401021262,登記記録の閉鎖等,0,2024-12-11,2024-11-26,ＨＲネットワーク株式会社,,株式会社,東京都,国分寺市,日吉町１丁目４０番地４５,,13,214,1850032,,,2024-11-26,清算の結了等,,,2015-10-05,1,,,,,エイチアールネットワーク,0
1385,6021002018667,登記記録の閉鎖等,0,2024-12-11,2024-12-09,有限会社大月,,有限会社,神奈川県,相模原市中央区,並木４丁目８番２２号,,14,152,2520228,,,2024-12-09,清算の結了等,,,2015-10-05,1,,,,,オオツキ,0
1392,6030002084025,登記記録の閉鎖等,0,2024-12-11,2024-12-05,有限会社火の国北関東,,有限会社,埼玉県,鴻巣市,寺谷１２５番地,,11,217,3650071,,,2024-12-05,清算の結了等,,,2015-10-05,1,,,,,,0
1395,6040002020251,登記記録の閉鎖等,0,2024-12-11,2024-12-04,有限会社浅間ブロック工業所,,有限会社,千葉県,船橋市,豊富町１４８０番地６７,,12,204,2740053,,,2024-12-04,清算の結了等,,,2015-10-05,1,,,,,アサマブロックコウギョウショ,0
1396,6040002050372,登記記録の閉鎖等,0,2024-12-11,2024-12-04,有限会社共創,,有限会社,千葉県,松戸市,高塚新田１５２番地の９２,,12,207,2702222,,,2024-12-04,清算の結了等,,,2015-10-05,1,,,,,キョウソウ,0
1404,6050001038310,登記記録の閉鎖等,0,2024-12-11,2024-12-05,株式会社ＴＩＡ,,株式会社,茨城県,東茨城郡茨城町,大字上石崎９０番地２,,08,302,3113122,,,2024-12-05,清算の結了等,,,2015-10-05,1,,,,,,0
1410,6080001000507,登記記録の閉鎖等,0,2024-12-11,2024-12-04,株式会社入山杉山茶問屋,,株式会社,静岡県,静岡市葵区,屋形町２８番地の２,,22,101,4200028,,,2024-12-04,清算の結了等,,,2015-10-05,1,,,,,イリヤマスギヤマチャドンヤ,0
1418,6120001064258,登記記録の閉鎖等,0,2024-12-11,2024-12-09,株式会社サンエイ設計,,株式会社,大阪府,大阪市北区,天満２丁目１５番８号,,27,127,5300043,,,2024-12-09,清算の結了等,,,2015-10-05,1,,,,,サンエイセッケイ,0
1420,6120001140315,登記記録の閉鎖等,0,2024-12-11,2024-12-02,ハートリビングサポート東京株式会社,,株式会社,神奈川県,横浜市青葉区,みたけ台１５番地１９,,14,117,2270047,,,2024-12-02,清算の結了等,,,2015-10-05,1,,,,,ハートリビングサポートトウキョウ,0
1421,6120001163142,登記記録の閉鎖等,0,2024-12-11,2024-12-05,株式会社メディシーン,,株式会社,大阪府,大阪市住吉区,墨江３丁目９番３１号,,27,120,5580043,,,2024-12-05,清算の結了等,,,2015-10-05,1,,,,,メディシーン,0
1432,6120005024035,登記記録の閉鎖等,0,2024-12-11,2024-12-09,税理士法人ジャスト,,その他の設立登記法人,大阪府,大阪市北区,天神西町８－７山田きずなビル１階,,27,127,5300045,,,2024-12-09,清算の結了等,,,2023-12-07,1,,,,,ジャスト,0
1468,6220001014558,登記記録の閉鎖等,0,2024-12-11,2024-12-09,株式会社ＰＯＰグループ,,株式会社,石川県,小松市,飴屋町２２番地,00078345,17,203,9230922,,,2024-12-09,清算の結了等,,,2015-10-05,1,,,,,,0
1469,6220002017213,登記記録の閉鎖等,0,2024-12-11,2024-12-04,有限会社喜多,,有限会社,石川県,河北郡津幡町,字中橋イ８６番地１,,17,361,9290331,,,2024-12-04,清算の結了等,,,2015-10-05,1,,,,,キタ,0
1471,6240002016980,登記記録の閉鎖等,0,2024-12-11,2024-12-06,やしき美装有限会社,,有限会社,広島県,広島市西区,己斐上３丁目３２番８号,,34,104,7330815,,,2024-12-06,清算の結了等,,,2015-10-05,1,,,,,ヤシキビソウ,0
1475,6250001013342,登記記録の閉鎖等,0,2024-12-11,2024-12-06,株式会社プラスアイランド,,株式会社,広島県,広島市西区,田方１丁目１１番７１号,,34,104,7330851,,,2024-12-06,清算の結了等,,,2015-10-05,1,,,,,プラスアイランド,0
1484,6290002052369,登記記録の閉鎖等,0,2024-12-11,2024-11-15,有限会社エヌ・アールシステム,,有限会社,福岡県,久留米市,日吉町１４５番地４,,40,203,8300017,,,2024-11-15,清算の結了等,,,2015-10-05,1,,,,,エヌアールシステム,0
1499,6350002014924,登記記録の閉鎖等,0,2024-12-11,2024-12-06,有限会社丸幸,,有限会社,宮崎県,都城市,早水町３３号１番地,,45,202,8850016,,,2024-12-06,清算の結了等,,,2015-10-05,1,,,,,マルコウ,0
1500,6360001001550,登記記録の閉鎖等,0,2024-12-11,2024-12-06,株式会社泊ボルト,,株式会社,沖縄県,那覇市,泊２丁目１９番地１,,47,201,9000012,,,2024-12-06,清算の結了等,,,2015-10-05,1,,,,,,0
1503,6360003005995,登記記録の閉鎖等,0,2024-12-11,2024-12-10,合同会社アガリファーム,,合同会社,沖縄県,南城市,佐敷字手登根３７４番地３,,47,215,9011402,,,2024-12-10,清算の結了等,,,2015-10-05,1,,,,,アガリファーム,0
1510,6370301002215,登記記録の閉鎖等,0,2024-12-11,2024-12-02,株式会社小笠原新聞店蛇田専売所,,株式会社,宮城県,石巻市,丸井戸３丁目５番１２号,,04,202,9860865,,,2024-12-02,合併による解散等,7370301002214,令和６年１２月１日宮城県石巻市蛇田字新埣寺２５番地１株式会社小笠原新聞店青葉専売所（7370301002214）に合併し解散,2015-10-05,1,,,,,オガサワラシンブンテンヘビタセンバイショ,0
1543,7010403008913,登記記録の閉鎖等,0,2024-12-11,2024-11-27,Ｃｏｍｍｏｎｓ　ＮＹ合同会社,,合同会社,東京都,港区,高輪４丁目１５番１５号,,13,103,1080074,,,2024-11-27,清算の結了等,,,2015-10-05,1,,,,,コモンズニューヨーク,0
1544,7010403020414,登記記録の閉鎖等,0,2024-12-11,2024-11-25,Ｐｅｒｆｅｃｔ　Ｂｌｕｅ合同会社,,合同会社,東京都,港区,港南１丁目９番３６号,,13,103,1080075,,,2024-11-25,清算の結了等,,,2019-03-25,1,,,,,パーフェクトブルー,0
1562,7011101087976,登記記録の閉鎖等,0,2024-12-11,2024-12-04,株式会社ｆｅｌｉｃｅ,,株式会社,東京都,新宿区,歌舞伎町１丁目５－３新宿ＣＥＮＴＥＲＣＯＵＲＴ６Ｆ,,13,104,1600021,,,2024-12-04,清算の結了等,,,2019-06-06,1,,,,,フェリーチェ,0
1566,7011302008772,登記記録の閉鎖等,0,2024-12-11,2024-12-06,有限会社松屋商店,,有限会社,東京都,杉並区,高円寺南１丁目６番１９号,,13,115,1660003,,,2024-12-06,清算の結了等,,,2015-10-05,1,,,,,マツヤショウテン,0
1570,7012401024371,登記記録の閉鎖等,0,2024-12-11,2024-11-28,株式会社メルティンＭＭＩ,,株式会社,東京都,中央区,新川１丁目１７番２４号ＮＭＦ茅場町ビル５階,,13,102,1040033,,,2024-11-28,清算の結了等,,,2015-10-05,1,,,,,メルティンエムエムアイ,0
1571,7012405003875,登記記録の閉鎖等,0,2024-12-11,2024-12-09,一般社団法人ひと・まち・みらい創生社,,その他の設立登記法人,東京都,調布市,小島町２丁目５１番地２寿ビル２階,,13,208,1820026,,,2024-12-09,清算の結了等,,,2016-03-28,1,,,,,ヒトマチミライソウセイシャ,0
1574,7020001081345,登記記録の閉鎖等,0,2024-12-11,2024-12-02,山崎コンサルティング株式会社,00009835,株式会社,神奈川県,川崎市麻生区,王禅寺西５丁目４番２８号,,14,137,2150017,,,2024-12-02,清算の結了等,,,2015-10-05,1,,,,,ヤマサキコンサルティング,0
1590,7021001009633,登記記録の閉鎖等,0,2024-12-11,2024-12-02,株式会社横浜データ,,株式会社,神奈川県,鎌倉市,小町２丁目１４番８号,,14,204,2480006,,,2024-12-02,合併による解散等,7021001008825,令和６年１２月１日神奈川県鎌倉市小町二丁目１４番８号株式会社石長（7021001008825）に合併し解散,2015-10-05,1,,,,,ヨコハマデータ,0
1597,7030001012951,登記記録の閉鎖等,0,2024-12-11,2024-12-05,株式会社アイ総研,,株式会社,埼玉県,春日部市,西金野井３９６番地２,,11,214,3440112,,,2024-12-05,清算の結了等,,,2015-10-05,1,,,,,アイソウケン,0
1600,7030001070388,登記記録の閉鎖等,0,2024-12-11,2024-12-09,株式会社インテリア鹿丸,,株式会社,埼玉県,鶴ヶ島市,大字藤金３５８番地６,,11,241,3502206,,,2024-12-09,清算の結了等,,,2015-10-05,1,,,,,インテリアカマル,0
1601,7030001095939,登記記録の閉鎖等,0,2024-12-11,2024-12-09,株式会社恭栄ハウジング,,株式会社,埼玉県,三郷市,栄３丁目４５番地,,11,237,3410043,,,2024-12-09,清算の結了等,,,2015-10-05,1,,,,,キョウエイハウジング,0
1607,7030002036891,登記記録の閉鎖等,0,2024-12-11,2024-12-09,有限会社ハウスプロジェクト,,有限会社,埼玉県,入間市,牛沢町９番６号プレミール入間１０３,,11,225,3580051,,,2024-12-09,清算の結了等,,,2015-10-05,1,,,,,ハウスプロジェクト,0
1608,7030002053755,登記記録の閉鎖等,0,2024-12-11,2024-12-06,有限会社小島食品,,有限会社,埼玉県,上尾市,大字上１３２１番地の２,,11,219,3620001,,,2024-12-06,清算の結了等,,,2015-10-05,1,,,,,,0
1609,7030002089097,登記記録の閉鎖等,0,2024-12-11,2024-12-06,有限会社清成工務店,,有限会社,埼玉県,越谷市,谷中町１丁目４２番地,,11,222,3430856,,,2024-12-06,清算の結了等,,,2015-10-05,1,,,,,セイセイコウムテン,0
1617,7040001021398,登記記録の閉鎖等,0,2024-12-11,2024-12-04,株式会社カミオカ,,株式会社,千葉県,八千代市,大和田新田２０１番地４８,,12,221,2760046,,,2024-12-04,清算の結了等,,,2015-10-05,1,,,,,カミオカ,0
1622,7040002046056,登記記録の閉鎖等,0,2024-12-11,2024-12-04,有限会社佐藤商会,,有限会社,千葉県,松戸市,西馬橋蔵元町１８６番地,,12,207,2710046,,,2024-12-04,清算の結了等,,,2015-10-05,1,,,,,サトウショウカイ,0
1625,7040002047789,登記記録の閉鎖等,0,2024-12-11,2024-12-02,有限会社日慶企画,,有限会社,千葉県,柏市,中原２丁目１－１サンシティ柏参番館２０２,,12,217,2770085,,,2024-12-02,清算の結了等,,,2015-10-05,1,,,,,ニッケイキカク,0
1644,7070002010678,登記記録の閉鎖等,0,2024-12-11,2024-12-06,有限会社高崎建販,,有限会社,群馬県,高崎市,中居町２丁目３番地３５,,10,202,3700852,,,2024-12-06,清算の結了等,,,2015-10-05,1,,,,,タカサキケンパン,0
1645,7080002012005,登記記録の閉鎖等,0,2024-12-11,2024-12-06,有限会社司総合内装,,有限会社,静岡県,静岡市葵区,瀬名１丁目３０番１８号,,22,101,4200911,,,2024-12-06,清算の結了等,,,2015-10-05,1,,,,,ツカサソウゴウナイソウ,0
1648,7080402017776,登記記録の閉鎖等,0,2024-12-11,2024-12-06,有限会社山本木工所,,有限会社,静岡県,掛川市,幡鎌３４１番地の２,,22,213,4360117,,,2024-12-06,清算の結了等,,,2015-10-05,1,,,,,ヤマモトモッコウショ,0
1659,7100003001565,登記記録の閉鎖等,0,2024-12-11,2024-12-02,合名会社赤羽味噌醤油醸造店,00069810,合名会社,長野県,松本市,大字里山辺区１４６６番地,,20,202,3900221,,,2024-12-02,清算の結了等,,,2015-10-05,1,,,,,アカハネミソショウユジョウゾウテン,0
1660,7110001026407,登記記録の閉鎖等,0,2024-12-11,2024-12-05,長勝建設株式会社,,株式会社,新潟県,南魚沼市,畔地１１３番地,,15,226,9496746,,,2024-12-05,清算の結了等,,,2015-10-05,1,,,,,チョウカツケンセツ,0
1664,7120001056857,登記記録の閉鎖等,0,2024-12-11,2024-12-06,株式会社中央鉄工所,,株式会社,大阪府,大阪市淀川区,三津屋南２丁目１４番４３号,,27,123,5320035,,,2024-12-06,合併による解散等,7140001078610,令和６年１２月１日兵庫県伊丹市森本九丁目６７番地株式会社中央鉄工所（7140001078610）に合併し解散,2015-10-05,1,,,,,チュウオウテッコウジョ,0
1673,7120001249130,登記記録の閉鎖等,0,2024-12-11,2024-12-06,簡悠株式会社,,株式会社,大阪府,大阪市東成区,深江北３丁目４番２１号エクラ深江橋３０２Ａ,,27,115,5370001,,,2024-12-06,清算の結了等,,,2022-09-30,1,,,,,カンユウ,0
1674,7120001255905,登記記録の閉鎖等,0,2024-12-11,2024-12-05,タイガー運送株式会社,,株式会社,大阪府,枚方市,桜丘町５番１２－４０２号,,27,210,5730018,,,2024-12-05,清算の結了等,,,2023-06-21,1,,,,,タイガーウンソウ,0
1682,7120003020605,登記記録の閉鎖等,0,2024-12-11,2024-11-14,合同会社ｏｎｅ,,合同会社,大阪府,大阪市中央区,南船場４丁目１０番５号南船場ＳＯＨＯビル７０２,,27,128,5420081,,,2024-11-14,清算の結了等,,,2021-11-17,1,,,,,ワン,0
1700,7130002019911,登記記録の閉鎖等,0,2024-12-11,2024-12-09,有限会社エフ・ビー・エス総研,,有限会社,京都府,京都市北区,西賀茂坊ノ後町６２番地,,26,101,6038826,,,2024-12-09,清算の結了等,,,2015-10-05,1,,,,,エフビーエスソウケン,0
1705,7140001085466,登記記録の閉鎖等,0,2024-12-11,2024-12-05,株式会社アドバンス,,株式会社,兵庫県,洲本市,宇原２２３４番地,,28,205,6560054,,,2024-12-05,清算の結了等,,,2015-10-05,1,,,,,アドバンス,0
1730,7190002010187,登記記録の閉鎖等,0,2024-12-11,2024-12-09,有限会社シャルレピンクパール,,有限会社,三重県,伊勢市,藤里町６７８番地５,,24,203,5160043,,,2024-12-09,清算の結了等,,,2015-10-05,1,,,,,シャルレピンクパール,0
1736,7220001018979,登記記録の閉鎖等,0,2024-12-11,2024-12-02,コマテックスホールディングス株式会社,,株式会社,石川県,能美市,末信町ヌ８０番地,,17,211,9231117,,,2024-12-02,合併による解散等,2220001012012,令和６年１２月１日石川県能美市末信町ヌ８０番地コマテックス株式会社（2220001012012）に合併し解散,2015-10-05,1,,,,,コマテックスホールディングス,0
1744,7290001025622,登記記録の閉鎖等,0,2024-12-11,2024-11-13,株式会社ジャパントレード,,株式会社,福岡県,福岡市東区,香椎照葉３丁目２－４－７２０,,40,131,8130017,,,2024-11-13,清算の結了等,,,2015-10-05,1,,,,,ジャパントレード,0
1771,7370001044829,登記記録の閉鎖等,0,2024-12-11,2024-12-02,クラスタークリーンエナジー株式会社,,株式会社,宮城県,仙台市青葉区,二日町１６番地１,,04,101,9800802,,,2024-12-02,清算の結了等,,,2019-09-18,1,,,,,クラスタークリーンエナジー,0
1775,7370002007842,登記記録の閉鎖等,0,2024-12-11,2024-12-02,有限会社スプレンダリー,,有限会社,宮城県,仙台市宮城野区,銀杏町２２番１３号,,04,102,9830047,,,2024-12-02,清算の結了等,,,2015-10-05,1,,,,,スプレンダリー,0
1787,7430002026472,登記記録の閉鎖等,0,2024-12-11,2024-12-06,有限会社ガラステック,,有限会社,北海道,札幌市厚別区,上野幌二条６丁目７番１０号,,01,108,0040032,,,2024-12-06,清算の結了等,,,2015-10-05,1,,,,,ガラステック,0
1796,7500003003315,登記記録の閉鎖等,0,2024-12-11,2024-12-09,合同会社希望,,合同会社,愛媛県,松山市,北井門４丁目２４番８号カルムＩ２０２号,00136133,38,201,7911105,,,2024-12-09,清算の結了等,,,2024-08-30,1,,,,,キボウ,0
1810,8010001186433,登記記録の閉鎖等,0,2024-12-11,2024-12-05,株式会社Ｇｅｍｓｅｋｉ,,株式会社,東京都,中央区,明石町８番１号,,13,102,1040044,,,2024-12-05,合併による解散等,9340001000031,令和６年１０月７日鹿児島県鹿児島市宮之浦町２４３８番地株式会社新日本科学（9340001000031）に合併し解散,2017-09-26,1,,,,,ゲンセキ,0
1819,8010401147588,登記記録の閉鎖等,0,2024-12-11,2024-11-22,Ｋｎｏｔｅｌ　Ｊａｐａｎ株式会社,,株式会社,東京都,港区,白金台３丁目１０番１０号,,13,103,1080071,,,2024-11-22,清算の結了等,,,2019-08-19,1,,,,,ノーテルジャパン,0
1848,8011101009814,登記記録の閉鎖等,0,2024-12-11,2024-12-04,株式会社新宿紺野ビル,,株式会社,東京都,新宿区,新宿３丁目２番２号,,13,104,1600022,,,2024-12-04,清算の結了等,,,2015-10-05,1,,,,,シンジュクコンノビル,0
1856,8011701026564,登記記録の閉鎖等,0,2024-12-11,2024-12-06,日本ｉＲ国際株式会社,,株式会社,東京都,江戸川区,平井５丁目４５番５号渡辺ハイツ１０１,,13,123,1320035,,,2024-12-06,清算の結了等,,,2023-09-06,1,,,,,ニホンアイアールコクサイ,0
1861,8012402001897,登記記録の閉鎖等,0,2024-12-11,2024-12-09,有限会社東洋堂,,有限会社,東京都,府中市,緑町２丁目７番地２シーザーレジデンス東府中,,13,206,1830006,,,2024-12-09,清算の結了等,,,2015-10-05,1,,,,,トウヨウドウ,0
1864,8012702007446,登記記録の閉鎖等,0,2024-12-11,2024-11-26,有限会社ヤマキ測量設計事務所,,有限会社,東京都,東久留米市,下里１丁目１１番４１号,,13,222,2030043,,,2024-11-26,清算の結了等,,,2015-10-05,1,,,,,ヤマキソクリョウセッケイジムショ,0
1870,8020002044317,登記記録の閉鎖等,0,2024-12-11,2024-12-02,有限会社白光社,,有限会社,神奈川県,横浜市中区,麦田町４丁目１０７番地,,14,104,2310849,,,2024-12-02,清算の結了等,,,2015-10-05,1,,,,,ハッコウシャ,0
1871,8020002106496,登記記録の閉鎖等,0,2024-12-11,2024-11-26,有限会社アッシュインターナショナル,,有限会社,兵庫県,神戸市中央区,磯上通８丁目１番２９号,,28,110,6510086,,,2024-11-26,清算の結了等,,,2015-10-05,1,,,,,アッシュインターナショナル,0
1872,8020005010497,登記記録の閉鎖等,0,2024-12-11,2024-12-02,一般社団法人日本ハウスメンテナンス協会,,その他の設立登記法人,神奈川県,横浜市旭区,中希望が丘１７７番地１Ｋ－１ショッピングセンター４Ｆ,,14,112,2410825,,,2024-12-02,清算の結了等,,,2015-10-05,1,,,,,ニホンハウスメンテナンスキョウカイ,0
1881,8030002001481,登記記録の閉鎖等,0,2024-12-11,2024-12-06,有限会社一の関工務店,,有限会社,埼玉県,さいたま市北区,植竹町１丁目４８番地２４,,11,102,3310813,,,2024-12-06,清算の結了等,,,2015-10-05,1,,,,,イチノセキコウムテン,0
1884,8040001025910,登記記録の閉鎖等,0,2024-12-11,2024-12-04,株式会社籠宮商店,,株式会社,千葉県,市川市,真間２丁目１番２５号,,12,203,2720826,,,2024-12-04,清算の結了等,,,2015-10-05,1,,,,,カゴミヤショウテン,0
1885,8040001060949,登記記録の閉鎖等,0,2024-12-11,2024-12-04,株式会社ヌードル,,株式会社,千葉県,千葉市中央区,富士見２丁目２１番８号,,12,101,2600015,,,2024-12-04,清算の結了等,,,2015-10-05,1,,,,,ヌードル,0
1900,8060002012889,登記記録の閉鎖等,0,2024-12-11,2024-12-06,有限会社ヤベキン,,有限会社,栃木県,さくら市,櫻野１３２３番地２,,09,214,3291312,,,2024-12-06,清算の結了等,,,2015-10-05,1,,,,,ヤベキン,0
1913,8120001117113,登記記録の閉鎖等,0,2024-12-11,2024-12-10,株式会社メディフロント,,株式会社,大阪府,大阪市阿倍野区,丸山通２丁目８番２３号,,27,119,5450042,,,2024-12-10,清算の結了等,,,2015-10-05,1,,,,,メディフロント,0
1939,8140002018795,登記記録の閉鎖等,0,2024-12-11,2024-12-06,有限会社布引コンタクトレンズ,,有限会社,兵庫県,神戸市中央区,生田町１丁目４番１号ショダリ２１Ｅ－２０２,,28,110,6510092,,,2024-12-06,清算の結了等,,,2015-10-05,1,,,,,ヌノビキコンタクトレンズ,0
1949,8180002076410,登記記録の閉鎖等,0,2024-12-11,2024-12-02,有限会社サカイ電設,,有限会社,愛知県,一宮市,花池４丁目６番２号,,23,203,4910914,,,2024-12-02,清算の結了等,,,2015-10-05,1,,,,,サカイデンセツ,0
1953,8190001012209,登記記録の閉鎖等,0,2024-12-11,2024-12-06,寿建設株式会社,,株式会社,三重県,桑名市,大字小貝須７９３番地,,24,205,5110841,,,2024-12-06,清算の結了等,,,2015-10-05,1,,,,,,0
1959,8210002008847,登記記録の閉鎖等,0,2024-12-11,2024-12-09,アルカンシェル株式会社,,株式会社,福井県,福井市,大和田２丁目１２３８番地,,18,201,9100836,,,2024-12-09,清算の結了等,,,2015-10-05,1,,,,,アルカンシェル,0
1960,8220002015594,登記記録の閉鎖等,0,2024-12-11,2024-12-09,有限会社輪島運送,,有限会社,石川県,輪島市,鳳至町下町１６４番地,,17,204,9280075,,,2024-12-09,清算の結了等,,,2015-10-05,1,,,,,ワジマウンソウ,0
1961,8230001003426,登記記録の閉鎖等,0,2024-12-11,2024-12-02,株式会社ラッキーフエロース,,株式会社,富山県,富山市,堤町通り１丁目２番３４号,,16,201,9300046,,,2024-12-02,合併による解散等,7230001001356,令和６年１１月３０日富山市曙町４９番１１号株式会社スーパーパワー・ピー・ダブル・イー（7230001001356）に合併し解散,2015-10-05,1,,,,,ラッキーフエロース,0
1965,8240001032218,登記記録の閉鎖等,0,2024-12-11,2024-12-06,株式会社丸福設備工業,,株式会社,広島県,福山市,草戸町１丁目７番１９号,,34,207,7200831,,,2024-12-06,清算の結了等,,,2015-10-05,1,,,,,マルフクセツビコウギョウ,0
1967,8240001039378,登記記録の閉鎖等,0,2024-12-11,2024-12-06,株式会社濱田昌範建築設計事務所,,株式会社,広島県,尾道市,山波町５７０番地９,,34,205,7220052,,,2024-12-06,清算の結了等,,,2015-10-05,1,,,,,ハマダマサノリケンチクセッケイジムショ,0
2005,8410002013728,登記記録の閉鎖等,0,2024-12-11,2024-12-09,有限会社アクア,,有限会社,秋田県,横手市,十文字町字通町３番地６,,05,203,0190526,,,2024-12-09,清算の結了等,,,2015-10-05,1,,,,,アクア,0
2009,8430002054002,登記記録の閉鎖等,0,2024-12-11,2024-12-04,有限会社大高商店,,有限会社,北海道,小樽市,稲穂５丁目１０番１２号,,01,203,0470032,,,2024-12-04,清算の結了等,,,2015-10-05,1,,,,,オオタカショウテン,0
2023,9010003028450,登記記録の閉鎖等,0,2024-12-11,2024-11-29,合同会社ＫＲＦ７６,,合同会社,東京都,千代田区,内幸町２丁目１番６号,,13,101,1000011,,,2024-11-29,清算の結了等,,,2018-10-12,1,,,,,ケイアールエフエブンティシックス,0
2024,9010003039877,登記記録の閉鎖等,0,2024-12-11,2024-11-26,合同会社クロスロード,,合同会社,東京都,千代田区,神田東松下町３７番地２加瀬ビル１３０－６０６号,,13,101,1010042,,,2024-11-26,清算の結了等,,,2023-02-20,1,,,,,クロスロード,0
2032,9010401150657,登記記録の閉鎖等,0,2024-12-11,2024-12-04,株式会社ライフフォース,,株式会社,千葉県,船橋市,若松２丁目７番,,12,204,2730013,,,2024-12-04,清算の結了等,,,2020-01-27,1,,,,,ライフフォース,0
2042,9010402023168,登記記録の閉鎖等,0,2024-12-11,2024-11-26,有限会社亀石鉄鋼,,有限会社,東京都,港区,白金５丁目１１番８号,,13,103,1080072,,,2024-11-26,清算の結了等,,,2015-10-05,1,,,,,カメイシテッコウ,0
2078,9011202001974,登記記録の閉鎖等,0,2024-12-11,2024-12-10,有限会社黒田電気,,有限会社,東京都,中野区,上高田２丁目５７番３号,,13,114,1640002,,,2024-12-10,清算の結了等,,,2015-10-05,1,,,,,クロダデンキ,0
2109,9030001067993,登記記録の閉鎖等,0,2024-12-11,2024-12-09,株式会社オリエンタルシップ,,株式会社,埼玉県,越谷市,赤山本町１１－１Ｋ－１ビル３Ｆ,,11,222,3430808,,,2024-12-09,清算の結了等,,,2015-10-05,1,,,,,オリエンタルシップ,0
2110,9030001130446,登記記録の閉鎖等,0,2024-12-11,2024-12-06,株式会社ひまわり不動産,,株式会社,埼玉県,白岡市,小久喜１１３３番地４,,11,246,3490217,,,2024-12-06,清算の結了等,,,2019-04-15,1,,,,,ヒマワリフドウサン,0
2114,9040001016462,登記記録の閉鎖等,0,2024-12-11,2024-12-04,株式会社アルトコーポレーション,,株式会社,千葉県,千葉市中央区,松波２丁目４番１８号,,12,101,2600044,,,2024-12-04,清算の結了等,,,2015-10-05,1,,,,,アルトコーポレーション,0
2128,9080402004640,登記記録の閉鎖等,0,2024-12-11,2024-12-06,有限会社ダイホー商会,,有限会社,静岡県,浜松市中央区,南浅田２丁目１番１１号,,22,138,4328044,,,2024-12-06,清算の結了等,,,2015-10-05,1,,,,,ダイホーショウカイ,0
2135,9110002017659,登記記録の閉鎖等,0,2024-12-11,2024-12-05,有限会社丸山商店,,有限会社,新潟県,三条市,島田３丁目６番２号,,15,204,9550842,,,2024-12-05,清算の結了等,,,2015-10-05,1,,,,,マルヤマショウテン,0
2175,9140001115436,登記記録の閉鎖等,0,2024-12-11,2024-12-04,株式会社Ｅ．ビルド,,株式会社,兵庫県,三木市,緑が丘町西２丁目５番地の１,,28,215,6730531,,,2024-12-04,清算の結了等,,,2019-11-06,1,,,,,イービルド,0
2178,9170001015798,登記記録の閉鎖等,0,2024-12-11,2024-12-09,株式会社ＳＴＹＬＥ３６５,,株式会社,和歌山県,日高郡みなべ町,西岩代１６２９番地２,,30,391,6450014,,,2024-12-09,清算の結了等,,,2019-10-09,1,,,,,スタイルサンロクゴ,0
2192,9220002002963,登記記録の閉鎖等,0,2024-12-11,2024-12-09,有限会社伸栄企画,,有限会社,石川県,金沢市,平和町３丁目１２番３６号,,17,201,9218105,,,2024-12-09,清算の結了等,,,2015-10-05,1,,,,,シンエイキカク,0
2196,9240002008686,登記記録の閉鎖等,0,2024-12-11,2024-12-06,有限会社繊維の丸和,,有限会社,広島県,広島市南区,的場町２丁目３－１１,,34,103,7320824,,,2024-12-06,清算の結了等,,,2015-10-05,1,,,,,センイノマルワ,0
2212,9300002008192,登記記録の閉鎖等,0,2024-12-11,2024-12-05,有限会社山口ボデー,,有限会社,佐賀県,伊万里市,大坪町半の尻乙６２２番地１,,41,205,8480000,,,2024-12-05,清算の結了等,,,2015-10-05,1,,,,,ヤマグチボデー,0
2221,9340002024442,登記記録の閉鎖等,0,2024-12-11,2024-12-02,有限会社森回春堂,,有限会社,鹿児島県,南九州市,知覧町塩屋２９００７番地,,46,223,8910911,,,2024-12-02,清算の結了等,,,2015-10-05,1,,,,,モリカイシュンドウ,0
2228,9370002003591,登記記録の閉鎖等,0,2024-12-11,2024-12-05,有限会社西鉄工所,,有限会社,宮城県,仙台市太白区,東中田１丁目２番６０号,,04,104,9811107,,,2024-12-05,清算の結了等,,,2015-10-05,1,,,,,ニシテッコウショ,0
2229,9370002007015,登記記録の閉鎖等,0,2024-12-11,2024-12-05,有限会社尾花,,有限会社,宮城県,仙台市宮城野区,宮城野１丁目１番地の２,,04,102,9830045,,,2024-12-05,清算の結了等,,,2015-10-05,1,,,,,オバナ,0
2231,9370301002212,登記記録の閉鎖等,0,2024-12-11,2024-12-02,株式会社小笠原新聞店大街道専売所,,株式会社,宮城県,石巻市,築山１丁目８番８号,,04,202,9860857,,,2024-12-02,合併による解散等,7370301002214,令和６年１２月１日宮城県石巻市蛇田字新埣寺２５番地１株式会社小笠原新聞店青葉専売所（7370301002214）に合併し解散,2015-10-05,1,,,,,オガサワラシンブンテンオオカイドウセンバイショ,0
2234,9380002035130,登記記録の閉鎖等,0,2024-12-11,2024-12-02,ミスミ商会有限会社,,有限会社,福島県,喜多方市,字青葉台１２９番地,,07,208,9660091,,,2024-12-02,清算の結了等,,,2015-10-05,1,,,,,,0
2251,9460005000412,登記記録の閉鎖等,0,2024-12-11,2024-12-09,医療法人社団高橋博歯科診療室,,その他の設立登記法人,北海道,釧路市,桜ケ岡１丁目１１番２５号,,01,206,0850805,,,2024-12-09,清算の結了等,,,2015-10-05,1,,,,,タカハシヒロシシカシンリョウシツ,0
