sequenceNumber,corporateNumber,process,correct,updateDate,changeDate,name,nameImageId,kind,prefectureName,cityName,streetNumber,addressImageId,prefectureCode,cityCode,postCode,addressOutside,addressOutsideImageId,closeDate,closeCause,successorCorporateNumber,changeCause,assignmentDate,latest,enName,enPrefectureName,enCityName,enAddressOutside,furigana,hihyoji
3,1010001231699,新規,0,2023-01-05,2023-01-05,株式会社Ｂｅａｕｔｙ＆Ｈｅａｌｔｈ,,株式会社,東京都,文京区,本郷５丁目２９－１２赤門ロイヤルハイツ１１０４,,13,105,1130033,,,,,,,2023-01-05,1,,,,,ビューティーアンドヘルス,0
4,1010001231930,新規,0,2023-01-05,2023-01-05,ＳＶＯ株式会社,,株式会社,東京都,中央区,銀座６丁目１３番９号ｂｉｚｃｕｂｅ,,13,102,1040061,,,,,,,2023-01-05,1,,,,,エスヴィオー,0
5,1010001231963,新規,0,2023-01-05,2023-01-05,株式会社Ｈｅｄｇｅｈｏｇ,,株式会社,東京都,中央区,日本橋中洲４番１０－１００３号,,13,102,1030008,,,,,,,2023-01-05,1,,,,,ヘッジホッグ,0
6,1010001232004,新規,0,2023-01-05,2023-01-05,株式会社エース,,株式会社,東京都,千代田区,神田錦町１丁目２９番地リバーサイド神田橋,,13,101,1010054,,,,,,,2023-01-05,1,,,,,エース,0
7,1010003039414,新規,0,2023-01-05,2023-01-05,Ｂｒｏａｄｖｉｅｗ　Ｉｎｖｅｓｔｍｅｎｔ合同会社,,合同会社,東京都,文京区,大塚５丁目８番１２－３０１号,,13,105,1120012,,,,,,,2023-01-05,1,,,,,ブロードビューインベストメント,0
13,1010401171628,新規,0,2023-01-05,2023-01-05,株式会社ＩＧ　ＰＡＲＴＮＥＲＳ,,株式会社,東京都,港区,南青山３丁目１番３６号青山丸竹ビル６Ｆ,,13,103,1070062,,,,,,,2023-01-05,1,,,,,アイジーパートナーズ,0
14,1010401171644,新規,0,2023-01-05,2023-01-05,株式会社コアサポート,,株式会社,東京都,港区,元麻布３丁目１番３５号,,13,103,1060046,,,,,,,2023-01-05,1,,,,,コアサポート,0
18,1010503006839,新規,0,2023-01-05,2023-01-05,合同会社エターナル,,合同会社,東京都,台東区,千束４丁目３１番１号,,13,106,1110031,,,,,,,2023-01-05,1,,,,,エターナル,0
22,1010701043675,新規,0,2023-01-05,2023-01-05,株式会社ｓｏｌ　ｔｒａｎｓｐｏｒｔ,,株式会社,東京都,品川区,西五反田１丁目２６番２号五反田サンハイツ９１１,,13,109,1410031,,,,,,,2023-01-05,1,,,,,ソルトランスポート,0
23,1010803004402,新規,0,2023-01-05,2023-01-05,合同会社協和,,合同会社,東京都,大田区,上池台１丁目１番６号,,13,111,1450064,,,,,,,2023-01-05,1,,,,,キョウワ,0
26,1010903007874,新規,0,2023-01-05,2023-01-05,合同会社ｂｉｚａｓｔ,,合同会社,東京都,世田谷区,三宿２丁目１０－８,,13,112,1540005,,,,,,,2023-01-05,1,,,,,ビザスト,0
29,1011001151730,新規,0,2023-01-05,2023-01-05,株式会社ＨＯＵＳＥ　ＶＩＬＬＡＧＥ　ＴＯＫＹＯ,,株式会社,東京都,渋谷区,代々木神園町３－３,,13,113,1510052,,,,,,,2023-01-05,1,,,,,ハウスヴィレッジトウキョウ,0
30,1011001151755,新規,0,2023-01-05,2023-01-05,株式会社明光アセットデザイン,,株式会社,東京都,渋谷区,恵比寿４丁目１７番３号,,13,113,1500013,,,,,,,2023-01-05,1,,,,,メイコウアセットデザイン,0
34,1011101101180,新規,0,2023-01-05,2023-01-05,Ｘ　Ｓｈｉｅｌｄ株式会社,,株式会社,東京都,新宿区,新宿７丁目２０－６・１Ｆ,,13,104,1600022,,,,,,,2023-01-05,1,,,,,エックスシールド,0
35,1011101101247,新規,0,2023-01-05,2023-01-05,Ｐｕｒｐｌｅ　Ｓｐｏｏｎ株式会社,,株式会社,東京都,新宿区,西早稲田１丁目２２－３早稲田大学１９－３号館アントレプレナーシップセンター,,13,104,1690051,,,,,,,2023-01-05,1,,,,,パープルスプーン,0
36,1011101101338,新規,0,2023-01-05,2023-01-05,株式会社メネサイド,,株式会社,東京都,新宿区,西新宿３丁目３番１３号西新宿水間ビル６階,,13,104,1600023,,,,,,,2023-01-05,1,,,,,メネサイド,0
37,1011101101362,新規,0,2023-01-05,2023-01-05,株式会社ａｄｅｓｓｏ,,株式会社,東京都,新宿区,下落合３丁目２１番５号,,13,104,1610033,,,,,,,2023-01-05,1,,,,,アデッソ,0
39,1011303004628,新規,0,2023-01-05,2023-01-05,ＭＳ‐ＡＭＣ合同会社,,合同会社,東京都,杉並区,荻窪５丁目２８番地７号エクセレントシティ荻窪３０２,,13,115,1670051,,,,,,,2023-01-05,1,,,,,エムエスエーエムシー,0
41,1011401024800,新規,0,2023-01-05,2023-01-05,株式会社与真,,株式会社,東京都,板橋区,大原町９番１５－１３０１号,,13,119,1740061,,,,,,,2023-01-05,1,,,,,ヨシン,0
46,1011601026472,新規,0,2023-01-05,2023-01-05,楽田化成株式会社,,株式会社,東京都,練馬区,関町北５丁目６番７号関町マンション４０１Ｆ,,13,120,1770051,,,,,,,2023-01-05,1,,,,,ラクタカセイ,0
47,1011601026480,新規,0,2023-01-05,2023-01-05,株式会社ＬＩＢＥＲ,,株式会社,東京都,練馬区,高松２丁目１４番１１－１０２号,,13,120,1790075,,,,,,,2023-01-05,1,,,,,リベル,0
49,1011605002486,新規,0,2023-01-05,2023-01-05,社会保険労務士法人ＴＭＳ,,その他の設立登記法人,東京都,練馬区,氷川台４丁目４７番１８号,,13,120,1790084,,,,,,,2023-01-05,1,,,,,ティーエムエス,0
53,1011801041742,新規,0,2023-01-05,2023-01-05,株式会社日本シティレジデンス,,株式会社,東京都,葛飾区,奥戸９丁目２番２０号ライオンズマンション小岩第五１２８号室,,13,122,1240022,,,,,,,2023-01-05,1,,,,,ニホンシティレジデンス,0
57,1012405004821,新規,0,2023-01-05,2023-01-05,一般社団法人価値共創研究会,,その他の設立登記法人,東京都,府中市,白糸台２丁目５９番地の５５,,13,206,1830011,,,,,,,2023-01-05,1,,,,,カチキョウソウケンキュウカイ,0
68,1020001149627,新規,0,2023-01-05,2023-01-05,株式会社アップル,,株式会社,神奈川県,横浜市保土ケ谷区,権太坂２丁目８番４－１号,,14,106,2400026,,,,,,,2023-01-05,1,,,,,アップル,0
75,1021003012566,新規,0,2023-01-05,2023-01-05,合同会社スギミック,,合同会社,神奈川県,相模原市南区,上鶴間本町３丁目１８番２７－９１２号,,14,153,2520318,,,,,,,2023-01-05,1,,,,,スギミック,0
78,1030001151656,新規,0,2023-01-05,2023-01-05,微研技術開発株式会社,,株式会社,埼玉県,比企郡吉見町,大字久米田６２８,,11,347,3550153,,,,,,,2023-01-05,1,,,,,ビケンギジュツカイハツ,0
79,1030001151697,新規,0,2023-01-05,2023-01-05,坂野タイル工事株式会社,,株式会社,埼玉県,川口市,大字伊刈８７１番地の１,,11,203,3330865,,,,,,,2023-01-05,1,,,,,サカノタイルコウジ,0
86,1030003020867,新規,0,2023-01-05,2023-01-05,合同会社幸インフィニティ,,合同会社,埼玉県,新座市,新座２丁目１８番２号,,11,230,3520006,,,,,,,2023-01-05,1,,,,,コウインフィニティ,0
91,1040001126426,新規,0,2023-01-05,2023-01-05,株式会社空海,,株式会社,千葉県,千葉市中央区,赤井町９１７番地２９,,12,101,2600804,,,,,,,2023-01-05,1,,,,,クウカイ,0
92,1040001126434,新規,0,2023-01-05,2023-01-05,株式会社アクア,,株式会社,千葉県,柏市,西柏台１丁目１５番４号,,12,217,2770886,,,,,,,2023-01-05,1,,,,,アクア,0
93,1040001126442,新規,0,2023-01-05,2023-01-05,株式会社貴翔,,株式会社,千葉県,市原市,光風台４丁目３６９番地,,12,219,2900255,,,,,,,2023-01-05,1,,,,,タカショウ,0
94,1040001126459,新規,0,2023-01-05,2023-01-05,ｌｉｆｅ　ｉｎ　ｎａｔｕｒｅ株式会社,,株式会社,千葉県,山武郡九十九里町,下貝塚９６３番７号,,12,403,2830117,,,,,,,2023-01-05,1,,,,,ライフインネーチャー,0
95,1040003021600,新規,0,2023-01-05,2023-01-05,合同会社シックスマン,,合同会社,千葉県,千葉市花見川区,畑町８６８番地５,,12,102,2620018,,,,,,,2023-01-05,1,,,,,シックスマン,0
96,1040005021854,新規,0,2023-01-05,2023-01-05,カナール協同組合,,その他の設立登記法人,千葉県,市原市,八幡２７１番地５,,12,219,2900062,,,,,,,2023-01-05,1,,,,,カナール,0
99,1050003007128,新規,0,2023-01-05,2023-01-05,ＳＤ　ＬＡＮＫＡ合同会社,,合同会社,茨城県,牛久市,岡見町２７３１番地３８－５号室,,08,219,3001204,,,,,,,2023-01-05,1,,,,,エスディーランカ,0
104,1070001039963,新規,0,2023-01-05,2023-01-05,株式会社バックアップ,,株式会社,群馬県,高崎市,本郷町６０５番地４,,10,202,3703334,,,,,,,2023-01-05,1,,,,,バックアップ,0
105,1070001039971,新規,0,2023-01-05,2023-01-05,日本有機ＪＡＳ企画株式会社,,株式会社,群馬県,伊勢崎市,曲沢町１３０番地６,,10,204,3792203,,,,,,,2023-01-05,1,,,,,ニホンユウキジャスキカク,0
111,1080101023726,新規,0,2023-01-05,2023-01-05,株式会社ＡＳＩＩＮ,,株式会社,静岡県,沼津市,三枚橋町１１番１２号高田ビル２階,,22,203,4100037,,,,,,,2023-01-05,1,,,,,エイシン,0
114,1080401026230,新規,0,2023-01-05,2023-01-05,Ｇｌｏｗ　ＴＩＩＲ株式会社,,株式会社,静岡県,浜松市東区,天王町１３４３番地,,22,132,4350052,,,,,,,2023-01-05,1,,,,,グローティール,0
121,1100001036008,新規,0,2023-01-05,2023-01-05,クルール株式会社,,株式会社,長野県,塩尻市,大字広丘郷原１７６２番地４４１,,20,215,3990704,,,,,,,2023-01-05,1,,,,,クルール,0
133,1120001251430,新規,0,2023-01-05,2023-01-05,万境株式会社,,株式会社,大阪府,大阪市北区,中津２丁目８－Ｄ－９０６,,27,127,5310071,,,,,,,2023-01-05,1,,,,,バンキョウ,0
141,1120101066761,新規,0,2023-01-05,2023-01-05,株式会社堺西防災,,株式会社,大阪府,堺市西区,原田３３番地２５,,27,144,5938317,,,,,,,2023-01-05,1,,,,,カイセイボウサイ,0
152,1140001128536,新規,0,2023-01-05,2023-01-05,株式会社Ｅｌ　Ｄｏｒａｄｏ,,株式会社,兵庫県,西宮市,羽衣町７－３０夙川グリーンタウン３階,,28,204,6620051,,,,,,,2023-01-05,1,,,,,エルドラード,0
153,1140001128585,新規,0,2023-01-05,2023-01-05,セイオウビルメンテナンス株式会社,,株式会社,兵庫県,尼崎市,梶ケ島２番１２－１Ｆ,,28,202,6600821,,,,,,,2023-01-05,1,,,,,セイオウビルメンテナンス,0
156,1150001026053,新規,0,2023-01-05,2023-01-05,株式会社ＳＫＺホールディングス,,株式会社,奈良県,生駒市,真弓２丁目２番１４号,,29,209,6300122,,,,,,,2023-01-05,1,,,,,エスケーゼットホールディングス,0
168,1180003024671,新規,0,2023-01-05,2023-01-05,合同会社プラスシー,,合同会社,愛知県,大府市,一屋町１丁目５１番地,,23,223,4740055,,,,,,,2023-01-05,1,,,,,プラスシー,0
174,1200003005784,新規,0,2023-01-05,2023-01-05,Ｍｏｏｎ　Ｒｉｖｅｒ　ｒｖ合同会社,,合同会社,岐阜県,羽島郡笠松町,長池５０４番地１,,21,303,5016063,,,,,,,2023-01-05,1,,,,,ムーンリバーアールブイ,0
182,1250001019897,新規,0,2023-01-05,2023-01-05,株式会社光輝,,株式会社,山口県,岩国市,麻里布町５丁目７番２８－４０１号,,35,208,7400018,,,,,,,2023-01-05,1,,,,,コウキ,0
183,1260001037527,新規,0,2023-01-05,2023-01-05,株式会社ＯＲＣＨＩＤ,,株式会社,岡山県,岡山市南区,三浜町１丁目８番４号,,33,104,7028036,,,,,,,2023-01-05,1,,,,,オーキッド,0
192,1290001100059,新規,0,2023-01-05,2023-01-05,株式会社セカンドカーズ,,株式会社,福岡県,糟屋郡新宮町,下府２丁目１２番２５号,,40,345,8110112,,,,,,,2023-01-05,1,,,,,セカンドカーズ,0
193,1290001100067,新規,0,2023-01-05,2023-01-05,株式会社ＭＡＳ＆ｍｅ,,株式会社,福岡県,福岡市南区,大橋３丁目２４番８号,,40,134,8150033,,,,,,,2023-01-05,1,,,,,エムエーエスアンドミイ,0
200,1290801029167,新規,0,2023-01-05,2023-01-05,株式会社ＨＥＡＬ　ＴＨＥ　ＷＯＲＬＤ,,株式会社,福岡県,北九州市小倉北区,片野４丁目２３番５－１０３号,,40,106,8020064,,,,,,,2023-01-05,1,,,,,ヒールザワールド,0
201,1310001018182,新規,0,2023-01-05,2023-01-05,株式会社海西ＧＲＯＵＰ,,株式会社,長崎県,佐世保市,新田町３５２番地新田団地４－１棟３０３,,42,202,8580913,,,,,,,2023-01-05,1,,,,,カイセイグループ,0
202,1310001018190,新規,0,2023-01-05,2023-01-05,株式会社センシンテクノ,,株式会社,長崎県,長崎市,女の都２丁目１０番６号,,42,201,8528144,,,,,,,2023-01-05,1,,,,,センシンテクノ,0
204,1320001019493,新規,0,2023-01-05,2023-01-05,リボンコーポレーション株式会社,,株式会社,大分県,宇佐市,大字麻生７３５番地,,44,211,8790501,,,,,,,2023-01-05,1,,,,,リボンコーポレーション,0
206,1330003009649,新規,0,2023-01-05,2023-01-05,合同会社フレキスト,,合同会社,熊本県,熊本市中央区,花畑町１番１４号Ａ＆Ｍ・ＨＡＮＡＢＡＴＡ３０１号,,43,101,8600806,,,,,,,2023-01-05,1,,,,,フレキスト,0
207,1340001025267,新規,0,2023-01-05,2023-01-05,サクラ創建株式会社,,株式会社,鹿児島県,霧島市,隼人町真孝３２７７番地５,,46,218,8995102,,,,,,,2023-01-05,1,,,,,サクラソウケン,0
208,1340001025275,新規,0,2023-01-05,2023-01-05,株式会社鉄・ＴＥＣ,,株式会社,鹿児島県,鹿児島市,広木１丁目１１番１９－２０１号,,46,201,8900037,,,,,,,2023-01-05,1,,,,,テツテック,0
211,1370001049429,新規,0,2023-01-05,2023-01-05,株式会社ｇｏｏｄ　ｏｌｄ　ｃｕｌｔｕｒｅ,,株式会社,宮城県,仙台市太白区,四郎丸字浜堀４９番地の７,,04,104,9811101,,,,,,,2023-01-05,1,,,,,グッドオールドカルチャー,0
214,1380001033365,新規,0,2023-01-05,2023-01-05,株式会社中野開発センター,,株式会社,福島県,西白河郡西郷村,字石塚南５１番地,,07,461,9618043,,,,,,,2023-01-05,1,,,,,ナカノカイハツセンター,0
216,1400001016111,新規,0,2023-01-05,2023-01-05,ＤＰネット株式会社,,株式会社,岩手県,盛岡市,盛岡駅西通１丁目９番３－６１４号,,03,201,0200045,,,,,,,2023-01-05,1,,,,,ディーピーネット,0
221,1450001013871,新規,0,2023-01-05,2023-01-05,株式会社ミッションハーツ,,株式会社,北海道,旭川市,東光五条５丁目３番１５号,,01,204,0788345,,,,,,,2023-01-05,1,,,,,ミッションハーツ,0
227,1500001024698,新規,0,2023-01-05,2023-01-05,株式会社フルーツファーム健治郎,,株式会社,愛媛県,伊予郡砥部町,三角１８０番地,,38,402,7912115,,,,,,,2023-01-05,1,,,,,フルーツファームケンジロウ,0
228,1500003002941,新規,0,2023-01-05,2023-01-05,合同会社中野工業,,合同会社,愛媛県,伊予郡砥部町,大南５７５番地,,38,402,7912132,,,,,,,2023-01-05,1,,,,,ナカノコウギョウ,0
229,1500005008549,新規,0,2023-01-05,2023-01-05,一般社団法人ＰＬＵＳ　ＵＳ,,その他の設立登記法人,愛媛県,西予市,三瓶町津布理９番地３２,,38,214,7960908,,,,,,,2023-01-05,1,,,,,プラスアス,0
250,2010005036061,新規,0,2023-01-05,2023-01-05,一般社団法人日本砂糖輸出入協議会,,その他の設立登記法人,東京都,中央区,日本橋小網町１番３号,,13,102,1030016,,,,,,,2023-01-05,1,,,,,ニホンサトウユシュツニュウキョウギカイ,0
254,2010401171610,新規,0,2023-01-05,2023-01-05,株式会社ＪＯＲＫＥＲ’Ｓ　ＷＩＬＤ,,株式会社,東京都,港区,浜松町２丁目２番１５号浜松町ダイヤビル２Ｆ,,13,103,1050013,,,,,,,2023-01-05,1,,,,,ジョーカーズワイルド,0
255,2010401171643,新規,0,2023-01-05,2023-01-05,株式会社Ｓ＆Ｈ,,株式会社,東京都,港区,港南４丁目６番８－３００７号,,13,103,1080075,,,,,,,2023-01-05,1,,,,,エスアンドエイチ,0
256,2010401171651,新規,0,2023-01-05,2023-01-05,株式会社ＲＭ　ＧＬＯＢＡＬ,,株式会社,東京都,港区,港南４丁目７番５５－６０５号,,13,103,1080075,,,,,,,2023-01-05,1,,,,,アールエムグローバル,0
257,2010401171684,新規,0,2023-01-05,2023-01-05,ＶＩＡ　ＶＥＮＥＴＯ株式会社,,株式会社,東京都,港区,六本木７丁目２番５号,,13,103,1060032,,,,,,,2023-01-05,1,,,,,ヴィアヴェネト,0
258,2010403029212,新規,0,2023-01-05,2023-01-05,合同会社ＤＲＡ,,合同会社,東京都,港区,南麻布５丁目１０番３２号麻布広尾ナショナルコート１０１,,13,103,1060047,,,,,,,2023-01-05,1,,,,,ディーアールエー,0
259,2010501049806,新規,0,2023-01-05,2023-01-05,株式会社ＷＡＮＴＳ,,株式会社,東京都,台東区,東上野１丁目６番１０号,,13,106,1100015,,,,,,,2023-01-05,1,,,,,ウォンツ,0
260,2010501049830,新規,0,2023-01-05,2023-01-05,株式会社理,,株式会社,東京都,台東区,上野６丁目１番６号御徒町グリーンハイツ１００５号,,13,106,1100005,,,,,,,2023-01-05,1,,,,,コトワリ,0
263,2010703006522,新規,0,2023-01-05,2023-01-05,合同会社Ｍ＆Ｍ,,合同会社,東京都,品川区,大崎３丁目５番１３,,13,109,1410032,,,,,,,2023-01-05,1,,,,,エムアンドエム,0
267,2010803004401,新規,0,2023-01-05,2023-01-05,合同会社みのり,,合同会社,東京都,大田区,上池台１丁目１番６号,,13,111,1450064,,,,,,,2023-01-05,1,,,,,ミノリ,0
271,2010903007873,新規,0,2023-01-05,2023-01-05,ＴＡＳＫ合同会社,,合同会社,東京都,世田谷区,経堂１丁目３９番７－３０４号,,13,112,1560052,,,,,,,2023-01-05,1,,,,,タスク,0
278,2011001151779,新規,0,2023-01-05,2023-01-05,株式会社ＡＴ２ＫＭ,,株式会社,東京都,渋谷区,代々木５丁目３７－１１,,13,113,1510053,,,,,,,2023-01-05,1,,,,,エイティーツーケイエム,0
281,2011101101337,新規,0,2023-01-05,2023-01-05,ＫＡＢＵＫＩ不動産株式会社,,株式会社,東京都,新宿区,歌舞伎町２丁目９－１５歌舞伎町ダイヤモンドパレス１１２号室,,13,104,1600021,,,,,,,2023-01-05,1,,,,,カブキフドウサン,0
282,2011101101353,新規,0,2023-01-05,2023-01-05,株式会社ＦＡＬＡＢＯ,,株式会社,東京都,新宿区,西新宿３丁目３番１３号西新宿水間ビル６階,,13,104,1600023,,,,,,,2023-01-05,1,,,,,ファラボ,0
288,2011403003859,新規,0,2023-01-05,2023-01-05,合同会社ＡＸＮＩＲ,,合同会社,東京都,板橋区,西台３丁目５番１号,,13,119,1750045,,,,,,,2023-01-05,1,,,,,アクスニール,0
291,2011601026471,新規,0,2023-01-05,2023-01-05,株式会社蒼空,,株式会社,東京都,練馬区,春日町２丁目１１番３１号,,13,120,1790074,,,,,,,2023-01-05,1,,,,,ソラ,0
293,2011603003790,新規,0,2023-01-05,2023-01-05,合同会社ＹＯＬＯ,,合同会社,東京都,練馬区,関町北４丁目３３番４３－２０６号,,13,120,1770051,,,,,,,2023-01-05,1,,,,,ヨーロー,0
296,2011701025919,新規,0,2023-01-05,2023-01-05,株式会社コタビクトリー,,株式会社,東京都,江戸川区,宇喜田町１２９６番地２,,13,123,1340082,,,,,,,2023-01-05,1,,,,,コタビクトリー,0
298,2011703003344,新規,0,2023-01-05,2023-01-05,合同会社ＴＡＳ,,合同会社,東京都,江戸川区,本一色１丁目２３－１,,13,123,1330044,,,,,,,2023-01-05,1,,,,,タス,0
299,2011801041741,新規,0,2023-01-05,2023-01-05,帝和株式会社,,株式会社,東京都,足立区,西新井２丁目３０番２号,,13,121,1230841,,,,,,,2023-01-05,1,,,,,テイワ,0
300,2011803005455,新規,0,2023-01-05,2023-01-05,合同会社ジーアール,,合同会社,東京都,葛飾区,亀有５丁目３４番１１号,,13,122,1250061,,,,,,,2023-01-05,1,,,,,ジーアール,0
301,2012405004820,新規,0,2023-01-05,2023-01-05,一般社団法人日本モンゴル博士会,,その他の設立登記法人,東京都,調布市,布田６丁目５８番地７,,13,208,1820024,,,,,,,2023-01-05,1,,,,,ニホンモンゴルハカセカイ,0
307,2020001149592,新規,0,2023-01-05,2023-01-05,株式会社ボディサイエンス,,株式会社,神奈川県,川崎市宮前区,土橋２丁目１４番地３,,14,136,2160005,,,,,,,2023-01-05,1,,,,,ボディサイエンス,0
308,2020001149634,新規,0,2023-01-05,2023-01-05,坪川技研株式会社,,株式会社,神奈川県,横浜市都筑区,川和町２７４番地,,14,118,2240057,,,,,,,2023-01-05,1,,,,,ツボカワギケン,0
309,2020001149642,新規,0,2023-01-05,2023-01-05,株式会社ニューマルジャパン,,株式会社,神奈川県,横浜市栄区,笠間３丁目４５番Ｋ－９０５号,,14,115,2470006,,,,,,,2023-01-05,1,,,,,ニューマルジャパン,0
323,2030001151713,新規,0,2023-01-05,2023-01-05,株式会社サザンクロス,,株式会社,埼玉県,さいたま市中央区,大戸６丁目８番２３号,,11,105,3380012,,,,,,,2023-01-05,1,,,,,サザンクロス,0
329,2040001126425,新規,0,2023-01-05,2023-01-05,株式会社Ｂｒｉｇｈｔ,,株式会社,千葉県,船橋市,前貝塚町５２１番地１－１０７号,,12,204,2730042,,,,,,,2023-01-05,1,,,,,ブライト,0
334,2040003021590,新規,0,2023-01-05,2023-01-05,ＮＯＡ　ＥＩＧＨＴ合同会社,,合同会社,千葉県,市川市,市川南１丁目１０番１－３２０２号,,12,203,2720033,,,,,,,2023-01-05,1,,,,,ノアエイト,0
335,2040003021599,新規,0,2023-01-05,2023-01-05,合同会社ＨＥＲＯ’ｓ　ＳＨＯＰ,,合同会社,千葉県,東金市,押堀１２３番地,,12,213,2830065,,,,,,,2023-01-05,1,,,,,ヒーローズショップ,0
337,2060001035574,新規,0,2023-01-05,2023-01-05,ＲＡＣＣＯ株式会社,,株式会社,栃木県,宇都宮市,宮園町１番１０号,,09,201,3200808,,,,,,,2023-01-05,1,,,,,ラッコ,0
339,2070001039970,新規,0,2023-01-05,2023-01-05,株式会社トール,,株式会社,群馬県,高崎市,金古町２３４３番地６,,10,202,3703511,,,,,,,2023-01-05,1,,,,,トール,0
340,2070001039979,新規,0,2023-01-05,2023-01-05,ＢＡＳＥ　ＭＡＫＥ株式会社,,株式会社,群馬県,高崎市,綿貫町１４７５番地高南ハイツ１０１号,,10,202,3701207,,,,,,,2023-01-05,1,,,,,ベースメイク,0
341,2080103002719,新規,0,2023-01-05,2023-01-05,合同会社富士山麓ファーム,,合同会社,静岡県,富士市,大淵３２０４番地の２,,22,210,4170801,,,,,,,2023-01-05,1,,,,,フジサンロクファーム,0
343,2080405007515,新規,0,2023-01-05,2023-01-05,プレミスト浜松中山町管理組合法人,,その他の設立登記法人,静岡県,浜松市中区,中山町９４番地の１,,22,131,4328016,,,,,,,2023-01-05,1,,,,,プレミストハママツナカヤマチョウ,0
348,2100003006825,新規,0,2023-01-05,2023-01-05,合同会社らくしょう,,合同会社,長野県,松本市,大字島立５１９－２樹ハウスＢ棟,,20,202,3900852,,,,,,,2023-01-05,1,,,,,ラクショウ,0
351,2110001037202,新規,0,2023-01-05,2023-01-05,横坂電気株式会社,,株式会社,新潟県,長岡市,李崎町１０２６番地２２,,15,202,9402462,,,,,,,2023-01-05,1,,,,,ヨコサカデンキ,0
371,2120001251438,新規,0,2023-01-05,2023-01-05,株式会社Ｙ‐Ｔａｇ,,株式会社,大阪府,大阪市西区,川口２丁目６番２４－９０１号,,27,106,5500021,,,,,,,2023-01-05,1,,,,,ワイタグ,0
372,2120001251462,新規,0,2023-01-05,2023-01-05,株式会社ｊｕｉｃｅ,,株式会社,大阪府,大阪市西区,南堀江１丁目７番３号１Ｆ,,27,106,5500015,,,,,,,2023-01-05,1,,,,,ジュース,0
375,2120101066752,新規,0,2023-01-05,2023-01-05,株式会社２ｎｄ総設,,株式会社,大阪府,藤井寺市,小山７丁目１７番５号,,27,226,5830033,,,,,,,2023-01-05,1,,,,,セカンドソウセツ,0
376,2120903004439,新規,0,2023-01-05,2023-01-05,合同会社ＴＳ,,合同会社,大阪府,豊中市,西緑丘３丁目１３番１号２階,,27,203,5600005,,,,,,,2023-01-05,1,,,,,ティーエス,0
380,2130001073377,新規,0,2023-01-05,2023-01-05,株式会社ｎｉｊｉｉｒｏ,,株式会社,京都府,京都市右京区,梅津北浦町１９番地２８、２０３号室,,26,108,6150934,,,,,,,2023-01-05,1,,,,,ニジイロ,0
389,2140001128584,新規,0,2023-01-05,2023-01-05,株式会社Ｂｅｙｏｎｄ‐Ｚｅｒｏ,,株式会社,兵庫県,尼崎市,大西町１丁目８番１８号,,28,202,6610023,,,,,,,2023-01-05,1,,,,,ビヨンドゼロ,0
396,2160001024732,新規,0,2023-01-05,2023-01-05,フォレスト開発株式会社,,株式会社,滋賀県,長浜市,木之本町廣瀬３１５番地２６,,25,203,5290424,,,,,,,2023-01-05,1,,,,,フォレストカイハツ,0
397,2160003002769,新規,0,2023-01-05,2023-01-05,合同会社ＬＡＦＩＴＥ,,合同会社,滋賀県,大津市,今堅田２丁目２５番２２号,,25,201,5200241,,,,,,,2023-01-05,1,,,,,ラフィット,0
402,2180001154362,新規,0,2023-01-05,2023-01-05,株式会社ＦＦフォワーディング,,株式会社,愛知県,名古屋市中区,丸の内３丁目１５番３４号第１６ＫＴビル８階,,23,106,4600002,,,,,,,2023-01-05,1,,,,,エフエフフォワーディング,0
403,2180001154404,新規,0,2023-01-05,2023-01-05,株式会社にっこ俐,,株式会社,愛知県,一宮市,木曽川町黒田字西町南４１番地,,23,203,4930001,,,,,,,2023-01-05,1,,,,,ニッコリ,0
404,2180001154412,新規,0,2023-01-05,2023-01-05,株式会社ＫＯＨ‐Ｌａｂ,,株式会社,愛知県,西春日井郡豊山町,大字豊場字流川１４番地２,,23,342,4800202,,,,,,,2023-01-05,1,,,,,コラボ,0
408,2180003024687,新規,0,2023-01-05,2023-01-05,ＣＬＡＰ合同会社,,合同会社,愛知県,一宮市,本町４丁目９－２４,,23,203,4910859,,,,,,,2023-01-05,1,,,,,クラップ,0
420,2220001025195,新規,0,2023-01-05,2023-01-05,株式会社Ｓ．Ｔ．Ｄ．,,株式会社,石川県,白山市,北安田西２丁目１８番地,,17,210,9240039,,,,,,,2023-01-05,1,,,,,エスティーディー,0
425,2240001060851,新規,0,2023-01-05,2023-01-05,ＧＳ株式会社,,株式会社,広島県,広島市西区,井口５丁目６番４号,,34,104,7330842,,,,,,,2023-01-05,1,,,,,ジーエス,0
428,2260001037534,新規,0,2023-01-05,2023-01-05,株式会社ＴＫ,,株式会社,岡山県,岡山市南区,福島４丁目６番７号,,33,104,7028044,,,,,,,2023-01-05,1,,,,,ティーケイ,0
436,2290001100074,新規,0,2023-01-05,2023-01-05,九綜コンサルタント株式会社,,株式会社,福岡県,筑紫野市,二日市中央５丁目３番２１号,,40,217,8180072,,,,,,,2023-01-05,1,,,,,キュウソウコンサルタント,0
439,2290801029158,新規,0,2023-01-05,2023-01-05,魁ネクスト株式会社,,株式会社,福岡県,北九州市戸畑区,中本町１１番２１号,,40,105,8040061,,,,,,,2023-01-05,1,,,,,サキガケネクスト,0
440,2290801029166,新規,0,2023-01-05,2023-01-05,株式会社五演,,株式会社,福岡県,北九州市若松区,畠田１丁目１０番９４号,,40,103,8080104,,,,,,,2023-01-05,1,,,,,ゴエン,0
441,2290801029174,新規,0,2023-01-05,2023-01-05,新プラント工業株式会社,,株式会社,福岡県,北九州市小倉南区,南方３丁目４番２３号（１０５）,,40,107,8020976,,,,,,,2023-01-05,1,,,,,シンプラントコウギョウ,0
442,2290803004299,新規,0,2023-01-05,2023-01-05,合同会社ＡＳＫ,,合同会社,福岡県,北九州市小倉北区,足立２丁目９番６－３０２号,,40,106,8020042,,,,,,,2023-01-05,1,,,,,アスク,0
443,2310001018181,新規,0,2023-01-05,2023-01-05,株式会社Ａｍｉｓｔａｄ,,株式会社,長崎県,東彼杵郡川棚町,小串郷２２８３番地２２,,42,322,8593618,,,,,,,2023-01-05,1,,,,,アミスタ,0
444,2310001018198,新規,0,2023-01-05,2023-01-05,株式会社ＡＬＣ,,株式会社,長崎県,諫早市,栗面町３６３番地１０,,42,204,8540055,,,,,,,2023-01-05,1,,,,,オルカ,0
445,2310001018207,新規,0,2023-01-05,2023-01-05,株式会社長崎きはら,,株式会社,長崎県,長崎市,浜町２番２０号,,42,201,8500853,,,,,,,2023-01-05,1,,,,,ナガサキキハラ,0
447,2320001019492,新規,0,2023-01-05,2023-01-05,ＣＯＮＶＥＮＩＥＮＴ　ＳＴＯＲＥ株式会社,,株式会社,大分県,大分市,生石４丁目１番１号,,44,201,8700003,,,,,,,2023-01-05,1,,,,,コンビニエントストア,0
450,2330005010604,新規,0,2023-01-05,2023-01-05,一般社団法人福祉流星会,,その他の設立登記法人,熊本県,熊本市中央区,九品寺１丁目５番３号熊本第二ビル１０３,,43,101,8620976,,,,,,,2023-01-05,1,,,,,フクシリュウセイカイ,0
451,2340001025266,新規,0,2023-01-05,2023-01-05,株式会社Ｒ建設,,株式会社,鹿児島県,鹿児島市,永吉２丁目４１番３０号,,46,201,8900023,,,,,,,2023-01-05,1,,,,,アールケンセツ,0
457,2350001018104,新規,0,2023-01-05,2023-01-05,株式会社ＡＴＨＭ,,株式会社,宮崎県,宮崎市,橘通東１丁目８－１１,,45,201,8800805,,,,,,,2023-01-05,1,,,,,エーティーエイチエム,0
458,2350001018112,新規,0,2023-01-05,2023-01-05,株式会社俺，山師,,株式会社,宮崎県,都城市,乙房町２５３番地３エトワール・フィラントＩＩＩ－Ａ棟,00128942,45,202,8850112,,,,,,,2023-01-05,1,,,,,オレヤマシ,0
466,2360003012599,新規,0,2023-01-05,2023-01-05,合同会社ＹＮ,,合同会社,沖縄県,那覇市,泉崎２丁目１８番地４長浜アパート１階,,47,201,9000021,,,,,,,2023-01-05,1,,,,,ワイエヌ,0
468,2360005006756,新規,0,2023-01-05,2023-01-05,労働者協同組合かりまた共働組合,,その他の設立登記法人,沖縄県,宮古島市,平良字狩俣３５８番地,,47,214,9060002,,,,,,,2023-01-05,1,,,,,カリマタキョウドウクミアイ,0
469,2370001049411,新規,0,2023-01-05,2023-01-05,株式会社東日本輪遊,,株式会社,宮城県,仙台市若林区,六丁の目中町６番２０号,,04,103,9840012,,,,,,,2023-01-05,1,,,,,ヒガシニホンリンユウ,0
470,2370001049428,新規,0,2023-01-05,2023-01-05,株式会社Ｄｅｅｃｌｕ,,株式会社,宮城県,仙台市青葉区,大町２丁目８番２５号,,04,101,9800804,,,,,,,2023-01-05,1,,,,,ディークル,0
471,2370001049436,新規,0,2023-01-05,2023-01-05,株式会社ＴＲＵＳＴ電設,,株式会社,宮城県,仙台市若林区,大和町１丁目１７番１号エスポワール大和町２０３,,04,103,9840042,,,,,,,2023-01-05,1,,,,,トラストデンセツ,0
473,2390001017110,新規,0,2023-01-05,2023-01-05,クラビトベース株式会社,,株式会社,山形県,山形市,七日町３丁目２番２２号山形やき鳥センタービル１－Ａ,,06,201,9900042,,,,,,,2023-01-05,1,,,,,クラビトベース,0
475,2400001016110,新規,0,2023-01-05,2023-01-05,株式会社藤建設,,株式会社,岩手県,盛岡市,三ツ割３丁目１７番２５号,,03,201,0200011,,,,,,,2023-01-05,1,,,,,フジケンセツ,0
479,2430001088114,新規,0,2023-01-05,2023-01-05,株式会社しな不動産,,株式会社,北海道,札幌市中央区,円山西町１丁目５－１ナカヤマビル１Ｆ,,01,101,0640944,,,,,,,2023-01-05,1,,,,,シナフドウサン,0
482,2450001013870,新規,0,2023-01-05,2023-01-05,エクステリア創園株式会社,,株式会社,北海道,旭川市,春光二条９丁目１７番１１号,,01,204,0700872,,,,,,,2023-01-05,1,,,,,エクステリアソウエン,0
483,2470003002317,新規,0,2023-01-05,2023-01-05,合同会社ｒｅ,,合同会社,香川県,高松市,南新町１番地２松永ビル２階,,37,201,7600051,,,,,,,2023-01-05,1,,,,,アールイー,0
486,2490001010369,新規,0,2023-01-05,2023-01-05,株式会社Ｓａｎｓｅｄａｉ,,株式会社,高知県,高知市,はりまや町２丁目１０番１号,,39,201,7800822,,,,,,,2023-01-05,1,,,,,サンセダイ,0
489,2490003001721,新規,0,2023-01-05,2023-01-05,アサヒオンラインショップ合同会社,,合同会社,高知県,高知市,瀬戸南町２丁目８－５０,,39,201,7810253,,,,,,,2023-01-05,1,,,,,アサヒオンラインショップ,0
490,2500001024697,新規,0,2023-01-05,2023-01-05,株式会社ｐｌａｎｎｉｎｇ　ＭＡＴＳＵＭＯＴＯ,,株式会社,愛媛県,東温市,見奈良１５４３番地,,38,215,7910211,,,,,,,2023-01-05,1,,,,,プランニングマツモト,0
492,2700150113529,新規,0,2023-01-05,2023-01-05,Ｎｉｎｇｂｏ　Ｙｏｕｓｉｙｏｕｘｉｎｇ　Ｉｎｔｅｒｎａｔｉｏｎａｌ　Ｔｒａｄｉｎｇ　Ｃｏ．，Ｌｔｄ,,外国会社等,,,,,,,,ｙｉｎ　ｚｈｏｕ　ｑｕ　ｃｈｅｎｇ　ｘｉｎ　ｌｕ　９２８　ｈａｏ　ｎｉｎｇ　ｂｏ　ｚｈｅ　ｊｉａｎｇ,,,,,,2023-01-05,1,,,,,ニンボユウシユウコウインターナシヨナルトレーデイングカンパニーリミテツド,0
496,3010003039453,新規,0,2023-01-05,2023-01-05,ｉｉｉ合同会社,,合同会社,東京都,中央区,銀座１丁目２２番１１号銀座大竹ビジデンス２Ｆ,,13,102,1040061,,,,,,,2023-01-05,1,,,,,サンアイ,0
498,3010005036060,新規,0,2023-01-05,2023-01-05,一般社団法人オールウェイズコーディアリー,,その他の設立登記法人,東京都,文京区,小石川５丁目６番９号,,13,105,1120002,,,,,,,2023-01-05,1,,,,,オールウェイズコーディアリー,0
502,3010401171618,新規,0,2023-01-05,2023-01-05,漢和国際株式会社,,株式会社,東京都,港区,芝５丁目２９番２５号コアビル,,13,103,1080014,,,,,,,2023-01-05,1,,,,,カンワコクサイ,0
504,3010803004400,新規,0,2023-01-05,2023-01-05,合同会社大幸,,合同会社,東京都,大田区,上池台１丁目１番６号,,13,111,1450064,,,,,,,2023-01-05,1,,,,,ダイコウ,0
505,3010803004409,新規,0,2023-01-05,2023-01-05,合同会社ＴＥＣプラス,,合同会社,東京都,大田区,石川町２丁目１９番７号,,13,111,1450061,,,,,,,2023-01-05,1,,,,,テックプラス,0
508,3010903007880,新規,0,2023-01-05,2023-01-05,合同会社ｌｉｎｏ,,合同会社,東京都,世田谷区,上祖師谷２丁目１２番７号,,13,112,1570065,,,,,,,2023-01-05,1,,,,,リノ,0
509,3010905004414,新規,0,2023-01-05,2023-01-05,特定非営利活動法人外国人介護人材を支援する連絡協会,,その他の設立登記法人,東京都,世田谷区,世田谷１丁目５番１５号,,13,112,1540017,,,,,,,2023-01-05,1,,,,,,0
520,3011001151729,新規,0,2023-01-05,2023-01-05,琢居株式会社,,株式会社,東京都,渋谷区,神宮前２丁目１８－１５ワンエイスビル３階,,13,113,1500001,,,,,,,2023-01-05,1,,,,,タクイ,0
521,3011001151745,新規,0,2023-01-05,2023-01-05,株式会社ＧＯＤ　ＢＬＥＳＳ,,株式会社,東京都,渋谷区,神宮前６丁目２８番９号東武ビル３０６,,13,113,1500001,,,,,,,2023-01-05,1,,,,,ゴッドブレス,0
531,3011301028346,新規,0,2023-01-05,2023-01-05,株式会社アントレース,,株式会社,東京都,杉並区,西荻南４丁目１０番９号３０２,,13,115,1670053,,,,,,,2023-01-05,1,,,,,アントレース,0
548,3020003022986,新規,0,2023-01-05,2023-01-05,ふくまる合同会社,,合同会社,神奈川県,横浜市港北区,小机町１２２３番地３,,14,109,2220036,,,,,,,2023-01-05,1,,,,,フクマル,0
566,3030001151687,新規,0,2023-01-05,2023-01-05,株式会社めぐりあい,,株式会社,埼玉県,狭山市,大字下奥富６６６番地,,11,215,3501332,,,,,,,2023-01-05,1,,,,,メグリアイ,0
567,3030001151704,新規,0,2023-01-05,2023-01-05,クレスト株式会社,,株式会社,埼玉県,さいたま市見沼区,大字大谷１６９番地６,,11,104,3370014,,,,,,,2023-01-05,1,,,,,クレスト,0
568,3030001151712,新規,0,2023-01-05,2023-01-05,株式会社Ａ＆Ｈエンターテイメント,,株式会社,埼玉県,さいたま市大宮区,吉敷町２丁目７２番地,,11,103,3300843,,,,,,,2023-01-05,1,,,,,エイアンドエイチエンターテイメント,0
575,3040001126432,新規,0,2023-01-05,2023-01-05,株式会社ＭＫＳ,,株式会社,千葉県,千葉市花見川区,三角町１５０番地１,,12,102,2620011,,,,,,,2023-01-05,1,,,,,エムケイエス,0
579,3050001052165,新規,0,2023-01-05,2023-01-05,希音株式会社,,株式会社,茨城県,坂東市,岩井３４４０番地１ＹＭビル３階,,08,228,3060631,,,,,,,2023-01-05,1,,,,,キオン,0
582,3060001035573,新規,0,2023-01-05,2023-01-05,株式会社ＪＡＰＡＮ　ＭＡＣＨＩＮＥ　ＭＡＩＮＴＥＮＡＮＣＥ,,株式会社,栃木県,日光市,小代１５７５番地５７陽東商事日光倉庫Ｎ３,,09,206,3211107,,,,,,,2023-01-05,1,,,,,ジャパンマシンメンテナンス,0
586,3080101023724,新規,0,2023-01-05,2023-01-05,株式会社蒼陽,,株式会社,静岡県,富士宮市,小泉２２７９番地の８,,22,207,4180022,,,,,,,2023-01-05,1,,,,,ソウヨウ,0
587,3080401026220,新規,0,2023-01-05,2023-01-05,マスビーズ株式会社,,株式会社,静岡県,掛川市,中町１番地の２１,,22,213,4360092,,,,,,,2023-01-05,1,,,,,マスビーズ,0
590,3090003002222,新規,0,2023-01-05,2023-01-05,合同会社ＤＩｓＨ,,合同会社,山梨県,甲府市,善光寺１丁目３－７,,19,201,4000806,,,,,,,2023-01-05,1,,,,,,0
591,3100001036006,新規,0,2023-01-05,2023-01-05,株式会社さわむら,,株式会社,長野県,上田市,上丸子１５８９番地６,,20,203,3860404,,,,,,,2023-01-05,1,,,,,サワムラ,0
601,3120001251387,新規,0,2023-01-05,2023-01-05,株式会社Ｅ‐ＳＴＥＰ,,株式会社,大阪府,大阪市中央区,安堂寺町１丁目３番１３号５階,,27,128,5420061,,,,,,,2023-01-05,1,,,,,イーステップ,0
602,3120001251429,新規,0,2023-01-05,2023-01-05,株式会社ＢＩＲＤ,,株式会社,大阪府,守口市,寺方元町４丁目７番２８－２０７号,,27,209,5700047,,,,,,,2023-01-05,1,,,,,バード,0
607,3120005023378,新規,0,2023-01-05,2023-01-05,一般社団法人マルーン,,その他の設立登記法人,大阪府,大阪市北区,茶屋町１５－２２アーバンテラス茶屋町１５－２２、Ａ棟５階,,27,127,5300013,,,,,,,2023-01-05,1,,,,,マルーン,0
612,3120903004438,新規,0,2023-01-05,2023-01-05,合同会社ＭＯＲＩＮＯＩＥ,,合同会社,大阪府,豊中市,上野西３丁目５番３６号,,27,203,5600011,,,,,,,2023-01-05,1,,,,,モリノイエ,0
617,3130001073384,新規,0,2023-01-05,2023-01-05,株式会社桔梗利内藤商店,,株式会社,京都府,京都市中京区,三条通河原町東入中島町１０８番地,,26,104,6048004,,,,,,,2023-01-05,1,,,,,キキョウリナイトウショウテン,0
623,3140003018527,新規,0,2023-01-05,2023-01-05,合同会社サンバ,,合同会社,兵庫県,西宮市,大浜町１番４１－８０４号,,28,204,6620957,,,,,,,2023-01-05,1,,,,,サンバ,0
624,3140005026429,新規,0,2023-01-05,2023-01-05,医療法人社団ワイオーシー松川歯科医院,,その他の設立登記法人,兵庫県,神戸市北区,西大池１丁目１６－４,,28,109,6511201,,,,,,,2023-01-05,1,,,,,ワイオーシーマツカワシカイイン,0
633,3180001154386,新規,0,2023-01-05,2023-01-05,株式会社藤洋,00128934,株式会社,愛知県,名古屋市港区,本宮町１丁目１８番地の４,,23,111,4550064,,,,,,,2023-01-05,1,,,,,フジヒロ,0
638,3180005020064,新規,0,2023-01-05,2023-01-05,一般社団法人Ｒ＆Ｖ,,その他の設立登記法人,愛知県,一宮市,浅井町極楽寺字郷内３３４番地,,23,203,4910144,,,,,,,2023-01-05,1,,,,,アールアンドヴイ,0
641,3190001030066,新規,0,2023-01-05,2023-01-05,株式会社やまと,,株式会社,三重県,桑名市,長島町松ケ島７００番地１１６,,24,205,5111122,,,,,,,2023-01-05,1,,,,,ヤマト,0
645,3200001040815,新規,0,2023-01-05,2023-01-05,株式会社Ｊ４‐ｆｒｏｎｔｉｅｒ,,株式会社,岐阜県,岐阜市,島田１丁目１２番１８号,,21,201,5020917,,,,,,,2023-01-05,1,,,,,ジェイフォーフロンティア,0
647,3200003005774,新規,0,2023-01-05,2023-01-05,Ｋｙｏｄａｉ合同会社,,合同会社,岐阜県,可児市,鳩吹台４丁目３４番地,,21,214,5090264,,,,,,,2023-01-05,1,,,,,キョウダイ,0
648,3210001019189,新規,0,2023-01-05,2023-01-05,株式会社きんそく福井,,株式会社,福井県,福井市,西方１丁目１番９号Ｎビル１Ａ号・２Ａ号,,18,201,9100855,,,,,,,2023-01-05,1,,,,,キンソクフクイ,0
652,3220001025194,新規,0,2023-01-05,2023-01-05,株式会社モント・アベーテ,,株式会社,石川県,金沢市,額谷３丁目２６番地,,17,201,9218145,,,,,,,2023-01-05,1,,,,,モントアベーテ,0
655,3240003005960,新規,0,2023-01-05,2023-01-05,合同会社クロシェドール,,合同会社,広島県,広島市西区,田方３丁目１４８１番地１－９０１号,,34,104,7330851,,,,,,,2023-01-05,1,,,,,クロシェドール,0
658,3260001037541,新規,0,2023-01-05,2023-01-05,株式会社ＧＳＭ,,株式会社,岡山県,岡山市南区,あけぼの町１６番１号,,33,104,7028057,,,,,,,2023-01-05,1,,,,,ジーエスエム,0
659,3260003004135,新規,0,2023-01-05,2023-01-05,合同会社ホワイトグループ,,合同会社,岡山県,岡山市北区,青江４丁目３番７号アメリエコート青江１０３,,33,101,7000941,,,,,,,2023-01-05,1,,,,,ホワイトグループ,0
669,3290001100057,新規,0,2023-01-05,2023-01-05,高千穂コンサルティング株式会社,,株式会社,福岡県,福岡市博多区,昭南町３丁目３番８－２０３号,,40,132,8120876,,,,,,,2023-01-05,1,,,,,タカチホコンサルティング,0
670,3290001100065,新規,0,2023-01-05,2023-01-05,株式会社ＲＥＲＩＧＨＴ,,株式会社,福岡県,福岡市中央区,大名２丁目９番１７号アリスト大名１０階Ｄ,,40,133,8100041,,,,,,,2023-01-05,1,,,,,リライト,0
671,3290001100073,新規,0,2023-01-05,2023-01-05,株式会社ステラ,,株式会社,福岡県,宗像市,自由ヶ丘４丁目２番地２６,,40,220,8114163,,,,,,,2023-01-05,1,,,,,ステラ,0
672,3290001100081,新規,0,2023-01-05,2023-01-05,株式会社大凧,,株式会社,福岡県,宗像市,大島９４４番地２,,40,220,8113701,,,,,,,2023-01-05,1,,,,,オオダコ,0
674,3290003013372,新規,0,2023-01-05,2023-01-05,ＨＯＡＮ　ＫＩＭ合同会社,,合同会社,福岡県,福岡市博多区,吉塚５丁目１－３－１松屋ビル３０２号室,,40,132,8120041,,,,,,,2023-01-05,1,,,,,ホアンキム,0
675,3290801029165,新規,0,2023-01-05,2023-01-05,株式会社リラ,,株式会社,福岡県,北九州市門司区,小森江３丁目３番２６号,,40,101,8000007,,,,,,,2023-01-05,1,,,,,リラ,0
676,3290801029173,新規,0,2023-01-05,2023-01-05,株式会社プロテクト,,株式会社,福岡県,北九州市小倉北区,大田町１４番１７－１０６号,,40,106,8020015,,,,,,,2023-01-05,1,,,,,プロテクト,0
677,3290803004298,新規,0,2023-01-05,2023-01-05,合同会社ＡＮＳＩＮＨ,,合同会社,福岡県,北九州市小倉南区,津田新町３丁目７番２４号（グランドメゾンＢ棟２０２室）,,40,107,8000227,,,,,,,2023-01-05,1,,,,,アンシン,0
678,3310001018189,新規,0,2023-01-05,2023-01-05,株式会社北松開発,,株式会社,長崎県,佐世保市,宇久町平２４２６番地３８,,42,202,8574901,,,,,,,2023-01-05,1,,,,,ホクショウカイハツ,0
683,3320001019491,新規,0,2023-01-05,2023-01-05,株式会社ｆｉｎａｌ　Ｓｔａｇｅ,,株式会社,大分県,杵築市,大字守江３８９７番地８,,44,210,8730033,,,,,,,2023-01-05,1,,,,,ファイナルステージ,0
685,3330001030456,新規,0,2023-01-05,2023-01-05,バトン株式会社,,株式会社,熊本県,熊本市北区,植木町山本４１５番地,,43,105,8610101,,,,,,,2023-01-05,1,,,,,バトン,0
688,3330005010603,新規,0,2023-01-05,2023-01-05,行政書士法人フィールドワークス,,その他の設立登記法人,熊本県,熊本市東区,尾ノ上２丁目７番１８号,,43,102,8620913,,,,,,,2023-01-05,1,,,,,フィールドワークス,0
689,3350001018103,新規,0,2023-01-05,2023-01-05,株式会社Ｌｉｆｅ　Ｓｕｐｐｏｒｔ　ＴＡＢＡＲＵ,,株式会社,宮崎県,日向市,江良町３丁目１０３番地,,45,206,8830012,,,,,,,2023-01-05,1,,,,,ライフサポートタバル,0
691,3360001031369,新規,0,2023-01-05,2023-01-05,株式会社四季コーポレーション,,株式会社,沖縄県,宜野湾市,上原２丁目２２番地９号,,47,205,9012204,,,,,,,2023-01-05,1,,,,,シキコーポレーション,0
698,3420003002642,新規,0,2023-01-05,2023-01-05,合同会社豊生,,合同会社,青森県,青森市,緑２丁目１８番地５号,,02,201,0300845,,,,,,,2023-01-05,1,,,,,ホウセイ,0
701,3470001019403,新規,0,2023-01-05,2023-01-05,株式会社ナラファーム,,株式会社,香川県,高松市,池田町１４３４番地,,37,201,7610444,,,,,,,2023-01-05,1,,,,,ナラファーム,0
703,3490001010368,新規,0,2023-01-05,2023-01-05,株式会社ディープ・エコロジー,,株式会社,高知県,高知市,神田３４３番地,,39,201,7808040,,,,,,,2023-01-05,1,,,,,ディープエコロジー,0
710,4010001231515,新規,0,2023-01-05,2023-01-05,株式会社櫻会,,株式会社,東京都,千代田区,九段南２丁目３－１０－５Ｆ,,13,101,1020074,,,,,,,2023-01-05,1,,,,,サクラカイ,0
711,4010001231911,新規,0,2023-01-05,2023-01-05,中央電子販売株式会社,,株式会社,東京都,千代田区,神田東松下町１７番地,,13,101,1010042,,,,,,,2023-01-05,1,,,,,チュウオウデンシハンバイ,0
712,4010001231928,新規,0,2023-01-05,2023-01-05,株式会社インパクト,,株式会社,東京都,文京区,本郷２丁目４０番１４号山崎ビル７０２,,13,105,1130033,,,,,,,2023-01-05,1,,,,,インパクト,0
713,4010001231960,新規,0,2023-01-05,2023-01-05,ＭＩＤパートナーズ株式会社,,株式会社,東京都,千代田区,九段南１丁目５－６りそな九段ビル５ＦＫＳフロア,,13,101,1020074,,,,,,,2023-01-05,1,,,,,ミッドパートナーズ,0
718,4010003039452,新規,0,2023-01-05,2023-01-05,合同会社ＢＬＥＮＤＥＤ,,合同会社,東京都,千代田区,外神田１丁目９番１１号神タワービル１Ｆ,,13,101,1010021,,,,,,,2023-01-05,1,,,,,ブレンデッド,0
726,4010401171567,新規,0,2023-01-05,2023-01-05,株式会社ＣＭＩ,,株式会社,東京都,港区,六本木３丁目１７番１０,,13,103,1060032,,,,,,,2023-01-05,1,,,,,シーエムアイ,0
727,4010401171600,新規,0,2023-01-05,2023-01-05,正信日本新エネルギー株式会社,,株式会社,東京都,港区,芝浦１丁目４番１号,,13,103,1050023,,,,,,,2023-01-05,1,,,,,セイシンニホンシンエネルギー,0
728,4010403029219,新規,0,2023-01-05,2023-01-05,定永合同会社,,合同会社,東京都,港区,六本木６丁目２番３５号六本木６６２ビル,,13,103,1060032,,,,,,,2023-01-05,1,,,,,テイエイ,0
729,4010403029243,新規,0,2023-01-05,2023-01-05,Ｂｅａｃｈ　Ｊａｐａｎ合同会社,,合同会社,東京都,港区,南青山２丁目２番１５号,,13,103,1070062,,,,,,,2023-01-05,1,,,,,ビーチジャパン,0
730,4010501049820,新規,0,2023-01-05,2023-01-05,株式会社ＬＡＭＥ　ＢＥＡＵＴＥ　ＬＡＢＯ,,株式会社,東京都,台東区,浅草橋５丁目２０番６－３０１号ＣＳタワーアネックス,,13,106,1110053,,,,,,,2023-01-05,1,,,,,ラメビューテラボ,0
732,4010503006836,新規,0,2023-01-05,2023-01-05,マイルド合同会社,,合同会社,東京都,台東区,花川戸２丁目８番５号,,13,106,1110033,,,,,,,2023-01-05,1,,,,,マイルド,0
733,4010603009920,新規,0,2023-01-05,2023-01-05,ＳＵＺＵコンサルティング合同会社,,合同会社,東京都,墨田区,東向島６丁目５８番６－２０１号,,13,107,1310032,,,,,,,2023-01-05,1,,,,,スズコンサルティング,0
735,4010903007871,新規,0,2023-01-05,2023-01-05,合同会社ＡＮＤＲＥＡ．Ｈ．ＡＲＣＨＩＴＥＣＴＳ,,合同会社,東京都,世田谷区,成城７丁目５番３号,,13,112,1570066,,,,,,,2023-01-05,1,,,,,アンドレアエイチアーキテクツ,0
741,4011101101343,新規,0,2023-01-05,2023-01-05,株式会社ＷＡＶＹ,,株式会社,東京都,新宿区,新宿２丁目１２番１３号,,13,104,1600022,,,,,,,2023-01-05,1,,,,,ウェイビー,0
742,4011103012547,新規,0,2023-01-05,2023-01-05,右肩上がり合同会社,,合同会社,東京都,新宿区,新宿５丁目１８番１６号新宿伊藤ビル５Ｆ,,13,104,1600022,,,,,,,2023-01-05,1,,,,,ミギカタアガリ,0
747,4011503005415,新規,0,2023-01-05,2023-01-05,合同会社ＦＯＲＵＭ‐ＩＣＨＩＲＩＮ,,合同会社,東京都,荒川区,西尾久２丁目１９番１３号,,13,118,1160011,,,,,,,2023-01-05,1,,,,,フォーラムイチリン,0
752,4012401040025,新規,0,2023-01-05,2023-01-05,株式会社ＪＯＹ,,株式会社,東京都,調布市,調布ケ丘１丁目１４番地２３,,13,208,1820021,,,,,,,2023-01-05,1,,,,,ジョイ,0
753,4012401040033,新規,0,2023-01-05,2023-01-05,株式会社ＳＡＮＺＥ,,株式会社,東京都,調布市,西つつじケ丘４丁目２０－３第二旭ハイツＢ－１０２,,13,208,1820006,,,,,,,2023-01-05,1,,,,,サンゼ,0
759,4013301050139,新規,0,2023-01-05,2023-01-05,株式会社雑司が谷,,株式会社,東京都,豊島区,雑司が谷１丁目１８番１１号,,13,116,1710032,,,,,,,2023-01-05,1,,,,,ゾウシガヤ,0
764,4020001149616,新規,0,2023-01-05,2023-01-05,株式会社Ｒｅｖｅｌｉｓｅｒ,,株式会社,神奈川県,川崎市高津区,溝口６丁目２４番６－６０５号,,14,134,2130001,,,,,,,2023-01-05,1,,,,,レブリゼ,0
771,4021001077831,新規,0,2023-01-05,2023-01-05,プリン株式会社,,株式会社,神奈川県,藤沢市,片瀬山５丁目５番４号,,14,205,2510033,,,,,,,2023-01-05,1,,,,,プリン,0
780,4030001151694,新規,0,2023-01-05,2023-01-05,かんぺきグループ株式会社,,株式会社,埼玉県,さいたま市桜区,西堀７丁目８番８号－３０２,,11,106,3380832,,,,,,,2023-01-05,1,,,,,カンペキグループ,0
782,4030003020856,新規,0,2023-01-05,2023-01-05,合同会社ナツガ企画,,合同会社,埼玉県,さいたま市浦和区,元町１丁目１０番１７－７号,,11,107,3300073,,,,,,,2023-01-05,1,,,,,ナツガキカク,0
786,4040001126415,新規,0,2023-01-05,2023-01-05,株式会社ハウスメイト,,株式会社,千葉県,船橋市,高野台１丁目９番２０号,,12,204,2740801,,,,,,,2023-01-05,1,,,,,ハウスメイト,0
787,4040001126423,新規,0,2023-01-05,2023-01-05,株式会社スズキフーズ,,株式会社,千葉県,鴨川市,太海浜１０４番地,,12,223,2992863,,,,,,,2023-01-05,1,,,,,スズキフーズ,0
789,4040003021622,新規,0,2023-01-05,2023-01-05,合同会社千葉管財,,合同会社,千葉県,船橋市,前原西５丁目１０番１６号,,12,204,2740825,,,,,,,2023-01-05,1,,,,,チバカンザイ,0
791,4050001052148,新規,0,2023-01-05,2023-01-05,Ｍ　ｓｐｉｃｅｓ　ａｎｄ　ｇｒｏｕｐ株式会社,,株式会社,茨城県,稲敷郡阿見町,うずら野３丁目１４番地３０,,08,443,3000341,,,,,,,2023-01-05,1,,,,,エムスパイシーズアンドグループ,0
792,4050003007133,新規,0,2023-01-05,2023-01-05,ジャシムトレーディング合同会社,,合同会社,茨城県,結城市,大字結城９７１０番地２７,,08,207,3070001,,,,,,,2023-01-05,1,,,,,ジャシムトレーディング,0
794,4080101023723,新規,0,2023-01-05,2023-01-05,株式会社ＡＷＥ,,株式会社,静岡県,駿東郡清水町,徳倉２５９８番地の１,,22,341,4110917,,,,,,,2023-01-05,1,,,,,エイダブルイー,0
795,4080101023731,新規,0,2023-01-05,2023-01-05,株式会社ファンタジア,,株式会社,静岡県,沼津市,春日町１７－５,,22,203,4100844,,,,,,,2023-01-05,1,,,,,ファンタジア,0
798,4080401026228,新規,0,2023-01-05,2023-01-05,株式会社丸庄,,株式会社,静岡県,浜松市東区,白鳥町９６８番地,,22,132,4350002,,,,,,,2023-01-05,1,,,,,マルショウ,0
800,4100001036005,新規,0,2023-01-05,2023-01-05,株式会社ナカタヒロヨスタジオ,,株式会社,長野県,長野市,大字南長野南県町６４４番地８県ビル３階,,20,201,3800836,,,,,,,2023-01-05,1,,,,,ナカタヒロヨスタジオ,0
801,4100001036013,新規,0,2023-01-05,2023-01-05,株式会社ヒトコトデザイン,,株式会社,長野県,伊那市,手良野口１８６８番地１,,20,209,3960003,,,,,,,2023-01-05,1,,,,,ヒトコトデザイン,0
804,4110001037217,新規,0,2023-01-05,2023-01-05,株式会社ＮＥＥＬ,,株式会社,新潟県,新潟市中央区,山二ツ１丁目９７６番地１,,15,103,9500922,,,,,,,2023-01-05,1,,,,,ニール,0
818,4120001251444,新規,0,2023-01-05,2023-01-05,株式会社Ｈ１ｃｏｓｍｅ,,株式会社,大阪府,大阪市北区,曾根崎新地１丁目１３番２２号,,27,127,5300002,,,,,,,2023-01-05,1,,,,,エイチワンコスメ,0
819,4120001251460,新規,0,2023-01-05,2023-01-05,株式会社ワイプロテクト,,株式会社,大阪府,大阪市住吉区,遠里小野２丁目６番２２号,,27,120,5580032,,,,,,,2023-01-05,1,,,,,ワイプロテクト,0
821,4120101066750,新規,0,2023-01-05,2023-01-05,株式会社西要,,株式会社,大阪府,藤井寺市,津堂２丁目７番４５号,,27,226,5830037,,,,,,,2023-01-05,1,,,,,セイヨウ,0
822,4120101066767,新規,0,2023-01-05,2023-01-05,株式会社ｒｕｋｕ,,株式会社,大阪府,和泉市,緑ケ丘１丁目４番２１号,,27,219,5941155,,,,,,,2023-01-05,1,,,,,ルク,0
827,4120903004445,新規,0,2023-01-05,2023-01-05,合同会社ＡＬＬＴＥＲＲＡ,,合同会社,大阪府,摂津市,東別府４丁目１番３９号,,27,224,5660042,,,,,,,2023-01-05,1,,,,,オルテラ,0
830,4130001073375,新規,0,2023-01-05,2023-01-05,神戸ミートフーズ株式会社,,株式会社,京都府,南丹市,八木町鳥羽鳥栄本１１番地,,26,213,6290162,,,,,,,2023-01-05,1,,,,,コウベミートフーズ,0
839,4140001128525,新規,0,2023-01-05,2023-01-05,株式会社オタニ動物病院,,株式会社,兵庫県,神戸市長田区,丸山町１丁目１０番１号,,28,106,6530875,,,,,,,2023-01-05,1,,,,,オタニドウブツビョウイン,0
840,4140001128574,新規,0,2023-01-05,2023-01-05,株式会社荒瀬工業,,株式会社,兵庫県,姫路市,保城５１２番地５,,28,201,6700804,,,,,,,2023-01-05,1,,,,,アラセコウギョウ,0
843,4140005026428,新規,0,2023-01-05,2023-01-05,医療法人仁山会,,その他の設立登記法人,兵庫県,西宮市,仁川町２丁目３番８号,,28,204,6620811,,,,,,,2023-01-05,1,,,,,ジンザンカイ,0
848,4160001024730,新規,0,2023-01-05,2023-01-05,株式会社弥一,,株式会社,滋賀県,彦根市,東沼波町７６８番地,,25,202,5220027,,,,,,,2023-01-05,1,,,,,ヤイチ,0
852,4160003002767,新規,0,2023-01-05,2023-01-05,合同会社ＯＴＯ,,合同会社,滋賀県,湖南市,三雲２３４番地,,25,211,5203221,,,,,,,2023-01-05,1,,,,,オト,0
859,4180001154352,新規,0,2023-01-05,2023-01-05,株式会社みらいふ,,株式会社,愛知県,名古屋市千種区,今池１丁目６番７号サンパワービル４階,,23,101,4640850,,,,,,,2023-01-05,1,,,,,ミライフ,0
867,4200001040806,新規,0,2023-01-05,2023-01-05,株式会社ライフプラス,,株式会社,岐阜県,本巣市,金原６３番地,,21,218,5011232,,,,,,,2023-01-05,1,,,,,ライフプラス,0
868,4200001040814,新規,0,2023-01-05,2023-01-05,株式会社Ｄ．Ｓ　Ｃｒａｆｔ,,株式会社,岐阜県,関市,山田１００９番地３,,21,205,5013944,,,,,,,2023-01-05,1,,,,,ディーエスクラフト,0
881,4260003004134,新規,0,2023-01-05,2023-01-05,合同会社ＢＵＬＬ,,合同会社,岡山県,岡山市北区,矢坂東町１２番５０号,,33,101,7000074,,,,,,,2023-01-05,1,,,,,ブル,0
882,4260003004142,新規,0,2023-01-05,2023-01-05,合同会社えぬ,,合同会社,岡山県,津山市,大谷１６２番地１０－２０１,,33,203,7080882,,,,,,,2023-01-05,1,,,,,エヌ,0
888,4290001100064,新規,0,2023-01-05,2023-01-05,株式会社フジテック,,株式会社,福岡県,那珂川市,大字山田６０７番地６１,,40,231,8111244,,,,,,,2023-01-05,1,,,,,フジテック,0
889,4290003013371,新規,0,2023-01-05,2023-01-05,ＤＭ合同会社,,合同会社,福岡県,福岡市博多区,千代１丁目３０番２４号,,40,132,8120044,,,,,,,2023-01-05,1,,,,,ディーエム,0
890,4290801029156,新規,0,2023-01-05,2023-01-05,株式会社Ｋ２自工,,株式会社,福岡県,北九州市八幡西区,引野３丁目１６番１号,,40,109,8060067,,,,,,,2023-01-05,1,,,,,ケイツージコウ,0
891,4290801029164,新規,0,2023-01-05,2023-01-05,株式会社ライフコール,,株式会社,福岡県,北九州市小倉南区,朽網東４丁目３番２３号,,40,107,8000232,,,,,,,2023-01-05,1,,,,,ライフコール,0
893,4320001019490,新規,0,2023-01-05,2023-01-05,株式会社エスケイワイ産業,,株式会社,大分県,杵築市,大字宮司字久原５６１番１,,44,210,8730004,,,,,,,2023-01-05,1,,,,,エスケイワイサンギョウ,0
905,4350001018102,新規,0,2023-01-05,2023-01-05,株式会社門川クレーン工業,,株式会社,宮崎県,日南市,南郷町中村乙７０５１番地６９９,,45,204,8893204,,,,,,,2023-01-05,1,,,,,カドガワクレーンコウギョウ,0
907,4360001031392,新規,0,2023-01-05,2023-01-05,株式会社福家,,株式会社,沖縄県,那覇市,小禄５丁目１１番８号シティーハウス桜２－１,,47,201,9010152,,,,,,,2023-01-05,1,,,,,フクヤ,0
909,4370001049418,新規,0,2023-01-05,2023-01-05,株式会社耕不尽,,株式会社,宮城県,柴田郡川崎町,大字前川字舘山２番地１,,04,324,9891501,,,,,,,2023-01-05,1,,,,,コウフジン,0
912,4380001033362,新規,0,2023-01-05,2023-01-05,大星建設株式会社,,株式会社,福島県,相馬市,新沼字刈敷田２番地の１２エレガント１０２号室,,07,209,9760011,,,,,,,2023-01-05,1,,,,,オオホシケンセツ,0
915,4390001017109,新規,0,2023-01-05,2023-01-05,株式会社タマＴＯＫ,,株式会社,山形県,東根市,中央西５番１７号モデッサ２８Ａ１０３,,06,211,9993719,,,,,,,2023-01-05,1,,,,,タマトック,0
920,4400005008291,新規,0,2023-01-05,2023-01-05,一般社団法人ｍｏｏｖａ,,その他の設立登記法人,岩手県,九戸郡洋野町,種市第１地割１５番地２９,,03,507,0287903,,,,,,,2023-01-05,1,,,,,モーバ,0
933,4450001013869,新規,0,2023-01-05,2023-01-05,株式会社小林シーリング,,株式会社,北海道,旭川市,永山一条１１丁目６番５号,,01,204,0798411,,,,,,,2023-01-05,1,,,,,コバヤシシーリング,0
934,4450001013877,新規,0,2023-01-05,2023-01-05,株式会社ヴィクトリーオーダー,,株式会社,北海道,上川郡鷹栖町,南一条６丁目８番１６号,,01,452,0711201,,,,,,,2023-01-05,1,,,,,ヴィクトリーオーダー,0
936,4470001019402,新規,0,2023-01-05,2023-01-05,株式会社ＣｕｒｉｏｕｓＬａｂ,,株式会社,香川県,高松市,牟礼町牟礼３７５番地２２,,37,201,7610121,,,,,,,2023-01-05,1,,,,,キュリオスラボ,0
937,4500001024695,新規,0,2023-01-05,2023-01-05,株式会社ｋａｎａｄｅ,,株式会社,愛媛県,松山市,柳井町１丁目１１番地１,,38,201,7900014,,,,,,,2023-01-05,1,,,,,カナデ,0
938,4500003002939,新規,0,2023-01-05,2023-01-05,合同会社海洋瀬戸内,,合同会社,愛媛県,今治市,東門町６丁目２番２５号,,38,202,7940033,,,,,,,2023-01-05,1,,,,,カイヨウセトウチ,0
939,4500005008554,新規,0,2023-01-05,2023-01-05,税理士法人白石会計事務所,,その他の設立登記法人,愛媛県,松山市,夏目甲７９番地,,38,201,7992437,,,,,,,2023-01-05,1,,,,,シライシカイケイジムショ,0
944,5010001231935,新規,0,2023-01-05,2023-01-05,株式会社ＶＯＹＡＧＥ,,株式会社,東京都,千代田区,九段北１丁目３番１号ＶＯＲＴ九段下８階,,13,101,1020073,,,,,,,2023-01-05,1,,,,,ヴォヤージュ,0
945,5010003039476,新規,0,2023-01-05,2023-01-05,フロンティッド合同会社,,合同会社,東京都,中央区,銀座１丁目２２番１１号銀座大竹ビジデンス２階,,13,102,1040061,,,,,,,2023-01-05,1,,,,,フロンティッド,0
948,5010005036059,新規,0,2023-01-05,2023-01-05,一般社団法人脱毛協会,,その他の設立登記法人,東京都,中央区,日本橋兜町１７番１号,,13,102,1030026,,,,,,,2023-01-05,1,,,,,ダツモウキョウカイ,0
950,5010101015478,新規,0,2023-01-05,2023-01-05,株式会社ｔｒｅｓ,,株式会社,東京都,八王子市,新町２番５号コスモリード八王子,,13,201,1920065,,,,,,,2023-01-05,1,,,,,トゥレス,0
952,5010401171624,新規,0,2023-01-05,2023-01-05,株式会社Ａｘｉｓ,,株式会社,東京都,港区,高輪４丁目１９番５号ＲＡＵＭ高輪３０６,,13,103,1080074,,,,,,,2023-01-05,1,,,,,アクシス,0
953,5010401171673,新規,0,2023-01-05,2023-01-05,株式会社Ｒｅｆｅｅｌ,,株式会社,東京都,港区,浜松町２丁目２番１５号浜松町ダイヤビル２Ｆ,,13,103,1050013,,,,,,,2023-01-05,1,,,,,リフィール,0
954,5010403029218,新規,0,2023-01-05,2023-01-05,Ｖｅｒｔｉｃａｌ　Ｏｐｔｉｏｎｓ合同会社,,合同会社,東京都,港区,南麻布１丁目７番３１号Ｍタワー１００１,,13,103,1060047,,,,,,,2023-01-05,1,,,,,バーティカルオプションズ,0
955,5010403029226,新規,0,2023-01-05,2023-01-05,クレアチュール合同会社,,合同会社,東京都,港区,三田５丁目２番２２号ザ・パークハウス三田ガーデン１００９,,13,103,1080073,,,,,,,2023-01-05,1,,,,,クレアチュール,0
956,5010501049828,新規,0,2023-01-05,2023-01-05,大安株式会社,,株式会社,東京都,台東区,根岸３丁目２番１３－１４０６号,,13,106,1100003,,,,,,,2023-01-05,1,,,,,ダイアン,0
959,5010801033564,新規,0,2023-01-05,2023-01-05,未来シティ株式会社,,株式会社,東京都,大田区,鵜の木３丁目１７番１４号,,13,111,1460091,,,,,,,2023-01-05,1,,,,,ミライシティ,0
961,5010901052200,新規,0,2023-01-05,2023-01-05,日本メディカルサービス株式会社,,株式会社,東京都,世田谷区,桜上水１丁目５－１１,,13,112,1560045,,,,,,,2023-01-05,1,,,,,ニホンメディカルサービス,0
968,5011001151710,新規,0,2023-01-05,2023-01-05,株式会社ネオアクション,,株式会社,東京都,渋谷区,円山町５番５号Ｎａｖｉ渋谷Ｖ３階,,13,113,1500044,,,,,,,2023-01-05,1,,,,,ネオアクション,0
969,5011001151727,新規,0,2023-01-05,2023-01-05,村上コンサルティング株式会社,,株式会社,東京都,目黒区,八雲５丁目１０番１５号,,13,110,1520023,,,,,,,2023-01-05,1,,,,,ムラカミコンサルティング,0
970,5011001151735,新規,0,2023-01-05,2023-01-05,株式会社ｍｅｍａ．ｌｉ,,株式会社,東京都,渋谷区,道玄坂１丁目１０番８号渋谷道玄坂東急ビル２Ｆ－Ｃ,,13,113,1500043,,,,,,,2023-01-05,1,,,,,メマリ,0
971,5011001151768,新規,0,2023-01-05,2023-01-05,株式会社リアルウェル,,株式会社,東京都,渋谷区,千駄ヶ谷３丁目７番４号,,13,113,1510051,,,,,,,2023-01-05,1,,,,,リアルウェル,0
973,5011003016011,新規,0,2023-01-05,2023-01-05,合同会社ＣＥＳ,,合同会社,東京都,渋谷区,渋谷２丁目１９－１５宮益坂ビルディング６０９,,13,113,1500002,,,,,,,2023-01-05,1,,,,,シーイーエス,0
983,5011601026477,新規,0,2023-01-05,2023-01-05,株式会社ｔａｉ‐ｔａｎ,,株式会社,東京都,練馬区,大泉町２丁目３５番１３号,,13,120,1780062,,,,,,,2023-01-05,1,,,,,タイタン,0
984,5011603003788,新規,0,2023-01-05,2023-01-05,ＯＲＢＥ合同会社,,合同会社,東京都,練馬区,関町東２丁目７番５号,,13,120,1770052,,,,,,,2023-01-05,1,,,,,オーブ,0
985,5011701025924,新規,0,2023-01-05,2023-01-05,株式会社ＳＴファシリティー,,株式会社,東京都,江戸川区,上篠崎２丁目１５番１７号,,13,123,1330054,,,,,,,2023-01-05,1,,,,,エスティーファシリティー,0
987,5011801041680,新規,0,2023-01-05,2023-01-05,豊栄商事株式会社,,株式会社,東京都,葛飾区,立石１丁目１－２立石Ｎフラット２０３号室,,13,122,1240012,,,,,,,2023-01-05,1,,,,,ホウエイショウジ,0
989,5012401040024,新規,0,2023-01-05,2023-01-05,株式会社Ｒｅｓｔａｒｔ,,株式会社,東京都,調布市,小島町３丁目６６番地１モンレーヴ調布７０２,,13,208,1820026,,,,,,,2023-01-05,1,,,,,リスタート,0
992,5012703002614,新規,0,2023-01-05,2023-01-05,ＩＷＡＹＡ　ＷＯＲＫＳ合同会社,,合同会社,東京都,東久留米市,柳窪２丁目１５番３０号,,13,222,2030044,,,,,,,2023-01-05,1,,,,,イワヤワークス,0
994,5013303006435,新規,0,2023-01-05,2023-01-05,合同会社ｆｅｌｅｓ,,合同会社,東京都,豊島区,池袋１丁目１番８号,,13,116,1700014,,,,,,,2023-01-05,1,,,,,フェレス,0
998,5020001149615,新規,0,2023-01-05,2023-01-05,株式会社サンマリー,,株式会社,神奈川県,川崎市川崎区,東田町１０番２－１００５号,,14,131,2100005,,,,,,,2023-01-05,1,,,,,サンマリー,0
999,5020005015796,新規,0,2023-01-05,2023-01-05,特定非営利活動法人中山学童保育なかよしの家,,その他の設立登記法人,神奈川県,横浜市緑区,寺山町１１５番地１遠藤ビル１０３,,14,113,2260013,,,,,,,2023-01-05,1,,,,,ナカヨシノイエ,0
1013,5030001151685,新規,0,2023-01-05,2023-01-05,ゼット商事株式会社,,株式会社,埼玉県,蕨市,南町２丁目２６番１１号,,11,223,3350003,,,,,,,2023-01-05,1,,,,,,0
1014,5030001151710,新規,0,2023-01-05,2023-01-05,高濱社中株式会社,00128935,株式会社,埼玉県,さいたま市岩槻区,美園東３丁目１８番地２０,,11,110,3390028,,,,,,,2023-01-05,1,,,,,タカハマシャチュウ,0
1022,5030003020855,新規,0,2023-01-05,2023-01-05,合同会社風太,,合同会社,埼玉県,飯能市,大字前ヶ貫２４０番地１０６,,11,209,3570043,,,,,,,2023-01-05,1,,,,,フウタ,0
1026,5030005021100,新規,0,2023-01-05,2023-01-05,ＮＰＯ法人エガキツクル,,その他の設立登記法人,埼玉県,さいたま市北区,宮原町３丁目４８３番地１赤間コーポＢ２階西号,,11,102,3310812,,,,,,,2023-01-05,1,,,,,エガキツクル,0
1029,5040001126422,新規,0,2023-01-05,2023-01-05,株式会社大野,,株式会社,千葉県,浦安市,舞浜３丁目２７番１５号,,12,227,2790031,,,,,,,2023-01-05,1,,,,,オオノ,0
1030,5040001126430,新規,0,2023-01-05,2023-01-05,ＰＡＲＡ　ＪＡＰＡＮ株式会社,,株式会社,千葉県,市川市,稲荷木３丁目１９番６号,,12,203,2720024,,,,,,,2023-01-05,1,,,,,パラジャパン,0
1031,5040001126439,新規,0,2023-01-05,2023-01-05,ＭＡＲＵＴＥＣ株式会社,,株式会社,千葉県,富里市,七栄３０５番地２４,,12,233,2860221,,,,,,,2023-01-05,1,,,,,マルテック,0
1032,5040003021596,新規,0,2023-01-05,2023-01-05,合同会社ガブリク,,合同会社,千葉県,富津市,千種新田３２１番地の１,,12,226,2930036,,,,,,,2023-01-05,1,,,,,ガブリク,0
1034,5080001025372,新規,0,2023-01-05,2023-01-05,Ａｌａｘ株式会社,,株式会社,静岡県,静岡市葵区,田町５丁目５２番地,,22,101,4200068,,,,,,,2023-01-05,1,,,,,アラクス,0
1037,5080101023722,新規,0,2023-01-05,2023-01-05,鳶鍛冶秋津組株式会社,,株式会社,静岡県,三島市,長伏２５６番地の１,,22,206,4110824,,,,,,,2023-01-05,1,,,,,トビカジアキツグミ,0
1038,5080101023730,新規,0,2023-01-05,2023-01-05,株式会社順漢堂,,株式会社,静岡県,沼津市,柳町１番５８号,,22,203,4100043,,,,,,,2023-01-05,1,,,,,ジュンカンドウ,0
1041,5080403004684,新規,0,2023-01-05,2023-01-05,合同会社銀河エステート,,合同会社,静岡県,浜松市浜北区,根堅２１２番地の１,,22,136,4340016,,,,,,,2023-01-05,1,,,,,ギンガエステート,0
1046,5100001036012,新規,0,2023-01-05,2023-01-05,株式会社Ｙ・Ｆ・Ｇ,,株式会社,長野県,長野市,青木島町綱島２１２番地１,,20,201,3812206,,,,,,,2023-01-05,1,,,,,ワイエフジー,0
1063,5120001251451,新規,0,2023-01-05,2023-01-05,株式会社かどま環境,,株式会社,大阪府,門真市,上野口町１１番３号,,27,223,5710070,,,,,,,2023-01-05,1,,,,,カドマカンキョウ,0
1064,5120001251468,新規,0,2023-01-05,2023-01-05,株式会社エムローライト,,株式会社,大阪府,大阪市中央区,千日前２丁目７番８号,,27,128,5420074,,,,,,,2023-01-05,1,,,,,エムローライト,0
1065,5120001251492,新規,0,2023-01-05,2023-01-05,株式会社ＹＯＮＹＯＮ,,株式会社,大阪府,大阪市中央区,西心斎橋１丁目１２番１１－１２０１号,,27,128,5420086,,,,,,,2023-01-05,1,,,,,ヨンヨン,0
1067,5120005023376,新規,0,2023-01-05,2023-01-05,一般社団法人ＳＡＷＡ,,その他の設立登記法人,大阪府,大阪市西区,新町１丁目７番５号四ツ橋ＧＴＣビル１１階,,27,106,5500013,,,,,,,2023-01-05,1,,,,,サワ,0
1070,5120901046926,新規,0,2023-01-05,2023-01-05,株式会社Ｌｉｎｏｈａ,,株式会社,大阪府,高槻市,川添１丁目５番５号,,27,207,5690824,,,,,,,2023-01-05,1,,,,,リノハ,0
1083,5140001128573,新規,0,2023-01-05,2023-01-05,株式会社一期一礼,,株式会社,兵庫県,神戸市兵庫区,福原町２７番６号,,28,105,6520036,,,,,,,2023-01-05,1,,,,,イチゴイチレイ,0
1094,5170001017427,新規,0,2023-01-05,2023-01-05,株式会社四季,,株式会社,和歌山県,和歌山市,北ノ新地上六軒丁８、２Ｆ,,30,201,6408356,,,,,,,2023-01-05,1,,,,,シキ,0
1099,5180001154401,新規,0,2023-01-05,2023-01-05,株式会社オーミ・マネジメント,,株式会社,愛知県,長久手市,蟹原６０７番地,,23,238,4801142,,,,,,,2023-01-05,1,,,,,オーミマネジメント,0
1106,5180003024676,新規,0,2023-01-05,2023-01-05,合同会社ＷｅｅＤＳ,,合同会社,愛知県,名古屋市中区,栄１丁目３０－１５荘苑御園４０６,,23,106,4600008,,,,,,,2023-01-05,1,,,,,ウィード,0
1113,5220005008722,新規,0,2023-01-05,2023-01-05,一般社団法人金岡,,その他の設立登記法人,石川県,金沢市,大野町４丁目レ４０番地１７２,,17,201,9200331,,,,,,,2023-01-05,1,,,,,カナオカ,0
1119,5250005008793,新規,0,2023-01-05,2023-01-05,一般社団法人ｍｏｔｉｂａｓｅ,,その他の設立登記法人,山口県,萩市,大字油屋町７番地３メゾンタナカ１０３,,35,204,7580051,,,,,,,2023-01-05,1,,,,,モチベース,0
1123,5260003004133,新規,0,2023-01-05,2023-01-05,合同会社松田建設サポート,,合同会社,岡山県,津山市,大田１５２番地３２,,33,203,7080806,,,,,,,2023-01-05,1,,,,,マツダケンセツサポート,0
1124,5260003004141,新規,0,2023-01-05,2023-01-05,合同会社透光,,合同会社,岡山県,岡山市北区,表町２丁目３番８４号小林ビル５Ｆ,,33,101,7000822,,,,,,,2023-01-05,1,,,,,トウコウ,0
1133,5290001100071,新規,0,2023-01-05,2023-01-05,株式会社Ｇｅｍ　Ｍｉｎｄ,,株式会社,福岡県,福岡市博多区,博多駅前３丁目４－２５アクロスキューブ博多駅前１階,,40,132,8120011,,,,,,,2023-01-05,1,,,,,,0
1134,5290001100088,新規,0,2023-01-05,2023-01-05,福岡美食株式会社,,株式会社,福岡県,福岡市早良区,高取１丁目１番３０号油屋ビル１Ｆ－Ｃ,,40,137,8140011,,,,,,,2023-01-05,1,,,,,フクオカビショク,0
1140,5290801029171,新規,0,2023-01-05,2023-01-05,株式会社ＴＡＫＡＭＩＣＨＩ　ＣＯＭＰＡＮＹ,,株式会社,福岡県,北九州市八幡西区,楠橋下方１丁目５番３３号,,40,109,8071146,,,,,,,2023-01-05,1,,,,,タカミチカンパニー,0
1143,5310001018195,新規,0,2023-01-05,2023-01-05,株式会社Ｌｅａｄ,,株式会社,長崎県,長崎市,野母崎樺島町１６１８番地,,42,201,8510507,,,,,,,2023-01-05,1,,,,,リード,0
1144,5310001018204,新規,0,2023-01-05,2023-01-05,松田工業株式会社,,株式会社,長崎県,長崎市,小江町２１４９番地４,,42,201,8511133,,,,,,,2023-01-05,1,,,,,マツダコウギョウ,0
1154,5330005010601,新規,0,2023-01-05,2023-01-05,ＮＰＯ法人東陽まちづくり協議会子育て支援ネットワーク,,その他の設立登記法人,熊本県,八代市,東陽町南１２８５番地,,43,202,8694301,,,,,,,2023-01-05,1,,,,,トウヨウマチマチヅクリキョウギカイコソダテシエンネットワーク,0
1156,5340001025263,新規,0,2023-01-05,2023-01-05,弘元株式会社,,株式会社,鹿児島県,日置市,東市来町長里６０４０番１,,46,216,8992202,,,,,,,2023-01-05,1,,,,,コウゲン,0
1158,5350001018101,新規,0,2023-01-05,2023-01-05,株式会社永迫梨葡萄園,,株式会社,宮崎県,小林市,東方５７２０番地３９,,45,205,8860001,,,,,,,2023-01-05,1,,,,,ナガサコナシブドウエン,0
1161,5360001031383,新規,0,2023-01-05,2023-01-05,株式会社ＪＯｅＢテック,,株式会社,沖縄県,うるま市,勝連南風原５１９４番７５,,47,213,9042311,,,,,,,2023-01-05,1,,,,,ジェイオーイービーテック,0
1170,5370001049425,新規,0,2023-01-05,2023-01-05,株式会社ＳＯＴＥＴＳ,,株式会社,宮城県,仙台市青葉区,宮町２丁目２番６－１０６号室,,04,101,9800004,,,,,,,2023-01-05,1,,,,,ソーテッツ,0
1185,5470001019401,新規,0,2023-01-05,2023-01-05,株式会社みそら,,株式会社,香川県,丸亀市,飯野町東二甲１３９１番地３,,37,202,7630084,,,,,,,2023-01-05,1,,,,,ミソラ,0
1187,5500005008553,新規,0,2023-01-05,2023-01-05,一般社団法人愛媛県軟式野球連盟,00128938,その他の設立登記法人,愛媛県,松山市,道後今市６番１８号,,38,201,7900845,,,,,,,2023-01-05,1,,,,,エヒメケンナンシキヤキュウレンメイ,0
1191,6010001231934,新規,0,2023-01-05,2023-01-05,東京奇美株式会社,,株式会社,東京都,文京区,西片２丁目２１番３－２０１,,13,105,1130024,,,,,,,2023-01-05,1,,,,,トウキョウキビ,0
1192,6010001231983,新規,0,2023-01-05,2023-01-05,株式会社ノーススター・パートナーズ,,株式会社,東京都,中央区,日本橋蛎殻町１丁目１１番３号中銀日本橋マンシオン５０８,,13,102,1030014,,,,,,,2023-01-05,1,,,,,ノーススターパートナーズ,0
1197,6010005036058,新規,0,2023-01-05,2023-01-05,一般社団法人公縁交流推進機構,,その他の設立登記法人,東京都,千代田区,飯田橋２丁目１８番２号,,13,101,1020072,,,,,,,2023-01-05,1,,,,,コウエンコウリュウスイシンキコウ,0
1198,6010101015477,新規,0,2023-01-05,2023-01-05,株式会社ＷＥＤＩＯ,,株式会社,東京都,八王子市,寺田町２６６番地１,,13,201,1930943,,,,,,,2023-01-05,1,,,,,ウェディオ,0
1199,6010103002052,新規,0,2023-01-05,2023-01-05,合同会社ｄｅ　ｎｏｖｏ,,合同会社,東京都,八王子市,子安町３丁目６番９号ベルペペビル６０１号,,13,201,1920904,,,,,,,2023-01-05,1,,,,,デノボ,0
1205,6010401171607,新規,0,2023-01-05,2023-01-05,株式会社チェンジ分割準備会社,,株式会社,東京都,港区,虎ノ門３丁目１７番１号,,13,103,1050001,,,,,,,2023-01-05,1,,,,,チェンジブンカツジュンビガイシャ,0
1206,6010401171623,新規,0,2023-01-05,2023-01-05,株式会社アスモ,,株式会社,東京都,港区,芝１丁目２番１－２８０２号,,13,103,1050014,,,,,,,2023-01-05,1,,,,,アスモ,0
1207,6010401171648,新規,0,2023-01-05,2023-01-05,株式会社ＥｍｐｔｙＣｕｐｓ,,株式会社,東京都,港区,三田４丁目１２番２３号ハウスＫナイン３０２,,13,103,1080073,,,,,,,2023-01-05,1,,,,,エンプティカップ,0
1209,6010403029225,新規,0,2023-01-05,2023-01-05,ＪＭＡ　Ｗｉｒｅｌｅｓｓ合同会社,,合同会社,東京都,港区,六本木１丁目９番１０号アークヒルズ仙石山森タワー２８階べーカー＆マッケンジー法律事務所（外国法共同事業）内,,13,103,1060032,,,,,,,2023-01-05,1,,,,,ジェイエムエーワイヤレス,0
1212,6010501049827,新規,0,2023-01-05,2023-01-05,株式会社ＱｕｅｓｔＤｅｓｉｇｎ,,株式会社,東京都,台東区,浅草橋５丁目２番３号鈴和ビル２階,,13,106,1110053,,,,,,,2023-01-05,1,,,,,クエストデザイン,0
1220,6010701043670,新規,0,2023-01-05,2023-01-05,株式会社ＴＧＭ,,株式会社,東京都,品川区,上大崎３丁目５番２号,,13,109,1410021,,,,,,,2023-01-05,1,,,,,ティージーエム,0
1221,6010801033563,新規,0,2023-01-05,2023-01-05,建サービス株式会社,,株式会社,東京都,大田区,大森中３丁目２７番１４号,,13,111,1430014,,,,,,,2023-01-05,1,,,,,ケンサービス,0
1224,6010901052257,新規,0,2023-01-05,2023-01-05,株式会社Ｓｐｈｅｒｅ,,株式会社,東京都,世田谷区,北沢２丁目２６番２５号,,13,112,1550031,,,,,,,2023-01-05,1,,,,,,0
1230,6011001151263,新規,0,2023-01-05,2023-01-05,株式会社Ｂｌａｃｋ　Ｓｏｉｌ,,株式会社,東京都,渋谷区,道玄坂１丁目１０番８号渋谷道玄坂東急ビル２Ｆ－Ｃ,,13,113,1500043,,,,,,,2023-01-05,1,,,,,ブラックソイル,0
1231,6011001151750,新規,0,2023-01-05,2023-01-05,株式会社ファースト・ビジョン,,株式会社,東京都,渋谷区,宇田川町１２番３号,,13,113,1500042,,,,,,,2023-01-05,1,,,,,ファーストビジョン,0
1232,6011001151775,新規,0,2023-01-05,2023-01-05,株式会社ＲｅＤ．,,株式会社,東京都,渋谷区,恵比寿４丁目２０番３号,,13,113,1500013,,,,,,,2023-01-05,1,,,,,レッド,0
1236,6011101101325,新規,0,2023-01-05,2023-01-05,デサイ・ダイヤモンド株式会社,,株式会社,東京都,新宿区,新宿２丁目２－１０－６０５,,13,104,1600022,,,,,,,2023-01-05,1,,,,,デサイダイヤモンド,0
1237,6011101101341,新規,0,2023-01-05,2023-01-05,株式会社ＬＩＢＥＲ　ＰＡＲＴＮＥＲＳ,,株式会社,東京都,新宿区,高田馬場４丁目４０番１７号Ｆｏｒｅｓｉｇｈｔ高田馬場８Ｆ,,13,104,1690075,,,,,,,2023-01-05,1,,,,,リーベルパートナーズ,0
1249,6011801041738,新規,0,2023-01-05,2023-01-05,株式会社諸星,,株式会社,東京都,足立区,関原３丁目４３番３号,,13,121,1230852,,,,,,,2023-01-05,1,,,,,モロホシ,0
1250,6011801041746,新規,0,2023-01-05,2023-01-05,ＴＳＨ株式会社,,株式会社,東京都,足立区,加平３丁目１７番７－２０６号,,13,121,1210055,,,,,,,2023-01-05,1,,,,,ティーエスエイチ,0
1254,6012401040023,新規,0,2023-01-05,2023-01-05,祐福ホールディングス株式会社,,株式会社,東京都,調布市,東つつじケ丘２丁目２６番地１２,,13,208,1820005,,,,,,,2023-01-05,1,,,,,ユウフクホールディングス,0
1256,6012403005759,新規,0,2023-01-05,2023-01-05,カペナウム合同会社,,合同会社,東京都,多摩市,落合３丁目１－３－３０３,,13,224,2060033,,,,,,,2023-01-05,1,,,,,カペナウム,0
1258,6012703002613,新規,0,2023-01-05,2023-01-05,合同会社ｏｌｉｏ,,合同会社,東京都,西東京市,ひばりが丘３丁目２番５１号ＨＩＢＡＲＩＤＯ,,13,229,2020001,,,,,,,2023-01-05,1,,,,,オリオ,0
1261,6013301050104,新規,0,2023-01-05,2023-01-05,瑞進国際株式会社,,株式会社,東京都,豊島区,東池袋１丁目４４番２－４０２号,,13,116,1700013,,,,,,,2023-01-05,1,,,,,ズイシンコクサイ,0
1262,6013301050112,新規,0,2023-01-05,2023-01-05,リンカーフォレスト株式会社,,株式会社,東京都,豊島区,池袋本町３丁目３１番６号,,13,116,1700011,,,,,,,2023-01-05,1,,,,,リンカーフォレスト,0
1278,6030001151577,新規,0,2023-01-05,2023-01-05,株式会社ＴＲＩＢＥ　ＣＡＲＳ,,株式会社,埼玉県,北葛飾郡杉戸町,大字下高野６２３番地８,,11,464,3450043,,,,,,,2023-01-05,1,,,,,トライブカーズ,0
1279,6030001151701,新規,0,2023-01-05,2023-01-05,株式会社グッドワンカンパニー,,株式会社,埼玉県,さいたま市北区,大成町４丁目５９０番地３,,11,102,3310815,,,,,,,2023-01-05,1,,,,,グッドワンカンパニー,0
1287,6040001126421,新規,0,2023-01-05,2023-01-05,グロウエンジニアズ株式会社,,株式会社,千葉県,富里市,新橋３９６番地１４,,12,233,2860224,,,,,,,2023-01-05,1,,,,,グロウエンジニアズ,0
1288,6040001126446,新規,0,2023-01-05,2023-01-05,株式会社一初堂,,株式会社,千葉県,市川市,下新宿１６番８号,,12,203,2720102,,,,,,,2023-01-05,1,,,,,イッショドウ,0
1290,6040003021587,新規,0,2023-01-05,2023-01-05,ＫＯＧＡコンサルティングオフィス合同会社,,合同会社,千葉県,白井市,笹塚２丁目５番１棟１１１０号,,12,232,2701426,,,,,,,2023-01-05,1,,,,,コガコンサルティングオフィス,0
1291,6040003021604,新規,0,2023-01-05,2023-01-05,Ａ‐Ｄｅｓｉｇｎ合同会社,,合同会社,千葉県,市原市,五井中央西１丁目２０番地１５,,12,219,2900081,,,,,,,2023-01-05,1,,,,,エーデザイン,0
1296,6050003007131,新規,0,2023-01-05,2023-01-05,合同会社エムズサポート,,合同会社,茨城県,水戸市,宮町１丁目２番４号ＭＹＭビル３階１６,,08,201,3100015,,,,,,,2023-01-05,1,,,,,エムズサポート,0
1304,6080403004683,新規,0,2023-01-05,2023-01-05,合同会社ＴＡＲＯ,,合同会社,静岡県,浜松市天竜区,二俣町阿蔵４５３番地の１１,,22,137,4313311,,,,,,,2023-01-05,1,,,,,タロウ,0
1307,6100001036003,新規,0,2023-01-05,2023-01-05,株式会社ＴＲＩＬＬ．,,株式会社,長野県,長野市,大字風間２０３４－１７,,20,201,3810023,,,,,,,2023-01-05,1,,,,,トリル,0
1312,6110001037198,新規,0,2023-01-05,2023-01-05,新潟ロードテック株式会社,,株式会社,新潟県,新発田市,真野原外１１２８番地５,,15,206,9570232,,,,,,,2023-01-05,1,,,,,ニイガタロードテック,0
1323,6120001251442,新規,0,2023-01-05,2023-01-05,株式会社エデン商事,,株式会社,大阪府,大阪市生野区,桃谷５丁目３番３０号,,27,116,5440034,,,,,,,2023-01-05,1,,,,,エデンショウジ,0
1324,6120001251467,新規,0,2023-01-05,2023-01-05,株式会社サイバーアセスメント,,株式会社,大阪府,大阪市城東区,成育２丁目６番１７号,,27,118,5360007,,,,,,,2023-01-05,1,,,,,サイバーアセスメント,0
1325,6120001251483,新規,0,2023-01-05,2023-01-05,株式会社ＮＫ,,株式会社,大阪府,大阪市中央区,東心斎橋２丁目４番１９号ギャラクシービルＩＩＩ１階１０５,00128936,27,128,5420083,,,,,,,2023-01-05,1,,,,,エヌケー,0
1326,6120001251491,新規,0,2023-01-05,2023-01-05,＿澤株式会社,00128941,株式会社,大阪府,大阪市住吉区,長居１丁目１５番１７号ムックマンション４０５号室,,27,120,5580003,,,,,,,2023-01-05,1,,,,,コウタク,0
1328,6120003023170,新規,0,2023-01-05,2023-01-05,ＨＡＮＡ合同会社,,合同会社,大阪府,大阪市生野区,新今里３丁目１９番７号相愛マンション３１号,,27,116,5440001,,,,,,,2023-01-05,1,,,,,ハナ,0
1330,6120005023375,新規,0,2023-01-05,2023-01-05,行政書士法人優愛トラスト,,その他の設立登記法人,大阪府,大阪市北区,天満橋１丁目８番１０－１３０４号,,27,127,5300042,,,,,,,2023-01-05,1,,,,,ユアトラスト,0
1334,6120103005003,新規,0,2023-01-05,2023-01-05,合同会社ＫＯＫＯＲＯＷＡ,,合同会社,大阪府,堺市北区,蔵前町１丁１番３－２１０号,,27,146,5918004,,,,,,,2023-01-05,1,,,,,ココロワ,0
1347,6140001128589,新規,0,2023-01-05,2023-01-05,株式会社ＦＥＬＩＸ,,株式会社,兵庫県,神戸市灘区,桜ケ丘町７番１２号,,28,102,6570021,,,,,,,2023-01-05,1,,,,,フェリックス,0
1349,6150001026057,新規,0,2023-01-05,2023-01-05,株式会社Ｌｉｆｅ　ｉＳ,,株式会社,奈良県,北葛城郡広陵町,大字笠１５－１,,29,426,6350821,,,,,,,2023-01-05,1,,,,,ライフイズ,0
1351,6160003002765,新規,0,2023-01-05,2023-01-05,エムクア合同会社,,合同会社,滋賀県,大津市,打出浜２－１コラボしが２１、４階,,25,201,5200806,,,,,,,2023-01-05,1,,,,,エムクア,0
1358,6180001154334,新規,0,2023-01-05,2023-01-05,株式会社ＳＡＭ　ＳＡＮ,,株式会社,愛知県,稲沢市,稲沢町前田２１２,,23,220,4928217,,,,,,,2023-01-05,1,,,,,サムサン,0
1359,6180001154350,新規,0,2023-01-05,2023-01-05,ペルシア千代株式会社,,株式会社,愛知県,北名古屋市,六ツ師松葉６２番地２,,23,234,4810001,,,,,,,2023-01-05,1,,,,,ペルシアチヨ,0
1360,6180001154367,新規,0,2023-01-05,2023-01-05,株式会社安朱任,,株式会社,愛知県,名古屋市中区,丸の内２丁目１３番２５号,,23,106,4600002,,,,,,,2023-01-05,1,,,,,アスト,0
1361,6180001154383,新規,0,2023-01-05,2023-01-05,株式会社スマイルストーン,,株式会社,愛知県,大府市,共西町６丁目３０２番地の９,,23,223,4740062,,,,,,,2023-01-05,1,,,,,スマイルストーン,0
1362,6180001154400,新規,0,2023-01-05,2023-01-05,株式会社ＪＵＭＰ,,株式会社,愛知県,名古屋市名東区,上社４丁目７０番地ライオンズマンション上社２０７,,23,115,4650025,,,,,,,2023-01-05,1,,,,,ジャンプ,0
1363,6180001154433,新規,0,2023-01-05,2023-01-05,株式会社Ｎｅｘｔｒｉｓｅ,,株式会社,愛知県,名古屋市熱田区,桜田町３番１０号（服部コーポ２０３号）,,23,109,4560004,,,,,,,2023-01-05,1,,,,,ネクストライズ,0
1365,6180003024650,新規,0,2023-01-05,2023-01-05,合同会社ＳＯＲＡ,,合同会社,愛知県,名古屋市港区,八百島１丁目１３０１番地,,23,111,4550885,,,,,,,2023-01-05,1,,,,,ソラ,0
1374,6200001040829,新規,0,2023-01-05,2023-01-05,株式会社エイチエル,,株式会社,岐阜県,岐阜市,日野東４丁目２番１０号,,21,201,5008211,,,,,,,2023-01-05,1,,,,,エイチエル,0
1383,6240001060889,新規,0,2023-01-05,2023-01-05,株式会社アキレア,,株式会社,広島県,広島市安佐南区,大塚東１丁目３番１８号,,34,105,7313166,,,,,,,2023-01-05,1,,,,,アキレア,0
1384,6240001060906,新規,0,2023-01-05,2023-01-05,株式会社Ｇｉｏｖｅ,,株式会社,広島県,広島市中区,鶴見町３番２１－４０３号,,34,101,7300045,,,,,,,2023-01-05,1,,,,,ジョーヴェ,0
1387,6240003005958,新規,0,2023-01-05,2023-01-05,合同会社イズミル,,合同会社,広島県,広島市西区,山田町１３５番地１,,34,104,7330854,,,,,,,2023-01-05,1,,,,,イズミル,0
1398,6290001100062,新規,0,2023-01-05,2023-01-05,伊都街道株式会社,,株式会社,福岡県,福岡市東区,水谷２丁目２番２２号,,40,131,8130041,,,,,,,2023-01-05,1,,,,,イトカイドウ,0
1402,6290005018895,新規,0,2023-01-05,2023-01-05,一般社団法人令和藤雲社,,その他の設立登記法人,福岡県,福岡市中央区,今川２丁目１番２２号,,40,133,8100054,,,,,,,2023-01-05,1,,,,,レイワトウウンシャ,0
1409,6310001018186,新規,0,2023-01-05,2023-01-05,日新商会株式会社,,株式会社,長崎県,対馬市,上対馬町古里５０４番地,,42,209,8171702,,,,,,,2023-01-05,1,,,,,ニッシンショウカイ,0
1413,6330003009652,新規,0,2023-01-05,2023-01-05,合同会社五つの心,,合同会社,熊本県,八代郡氷川町,立神３８９番地２,,43,468,8694603,,,,,,,2023-01-05,1,,,,,イツツノココロ,0
1422,6360001031382,新規,0,2023-01-05,2023-01-05,株式会社ｏａｓｉｓ　Ｃｏｒｐｏｒａｔｉｏｎ,,株式会社,沖縄県,名護市,宮里６丁目５番１６号玉城アパート２０２号室,,47,209,9050011,,,,,,,2023-01-05,1,,,,,オアシスコーポレーション,0
1433,6430003014601,新規,0,2023-01-05,2023-01-05,合同会社南企画,,合同会社,北海道,札幌市中央区,南七条西１０丁目１０２７番地２９ＭＡＨＡＬＯ　ＯＨＡＳＨＩ７１０　１０５号室,,01,101,0640807,,,,,,,2023-01-05,1,,,,,ミナミキカク,0
1437,6450001013875,新規,0,2023-01-05,2023-01-05,株式会社ＹＫ,,株式会社,北海道,旭川市,錦町１５丁目２９５７番地の１セレナ１０５,,01,204,0700824,,,,,,,2023-01-05,1,,,,,ワイケー,0
1440,6470001019400,新規,0,2023-01-05,2023-01-05,令和平成自動車株式会社,,株式会社,香川県,坂出市,横津町３丁目１番２２号,,37,203,7620005,,,,,,,2023-01-05,1,,,,,レイワヘイセイジドウシャ,0
1444,6500001024685,新規,0,2023-01-05,2023-01-05,ＳＣ．ｊｐ株式会社,,株式会社,愛媛県,松山市,森松町１０８９番地１－５０２,,38,201,7911113,,,,,,,2023-01-05,1,,,,,エスシードットジェイピー,0
1445,6500001024693,新規,0,2023-01-05,2023-01-05,株式会社ナノペイントジャパン,,株式会社,愛媛県,松山市,山越６丁目６番８号,,38,201,7918013,,,,,,,2023-01-05,1,,,,,ナノペイントジャパン,0
1450,7010001231925,新規,0,2023-01-05,2023-01-05,Ｚｅａｔｉｃ株式会社,,株式会社,東京都,中央区,銀座１丁目１２－４Ｎ＆ＥＢＬＤ．７階,,13,102,1040061,,,,,,,2023-01-05,1,,,,,ジーティック,0
1451,7010001231974,新規,0,2023-01-05,2023-01-05,株式会社五黄のとら,,株式会社,東京都,中央区,入船３丁目９番５号,,13,102,1040042,,,,,,,2023-01-05,1,,,,,ゴオウノトラ,0
1452,7010001231982,新規,0,2023-01-05,2023-01-05,株式会社パートナーズ・ラボ,,株式会社,東京都,千代田区,内神田２丁目１２番６号内神田ＯＳビル３階,,13,101,1010047,,,,,,,2023-01-05,1,,,,,パートナーズラボ,0
1457,7010101015476,新規,0,2023-01-05,2023-01-05,株式会社儲かりまっか,,株式会社,東京都,八王子市,大和田町３丁目１７番１５号,,13,201,1920045,,,,,,,2023-01-05,1,,,,,モウカリマッカ,0
1463,7010401171622,新規,0,2023-01-05,2023-01-05,株式会社ＣｏｎＢｏｎｄｓ,,株式会社,東京都,港区,南青山３丁目１番３６号青山丸竹ビル６Ｆ,,13,103,1070062,,,,,,,2023-01-05,1,,,,,コンボンズ,0
1464,7010401171639,新規,0,2023-01-05,2023-01-05,ＨＲ　ＤＥＳＩＧＮ株式会社,,株式会社,東京都,港区,麻布十番１丁目２番７－７０１号,,13,103,1060045,,,,,,,2023-01-05,1,,,,,エイチアールデザイン,0
1468,7010501049818,新規,0,2023-01-05,2023-01-05,株式会社Ｒｉｓｉｎｇ　Ｌｉｇｈｔ,,株式会社,東京都,台東区,浅草１丁目１０番２号ＹＮビル２階・３階,,13,106,1110032,,,,,,,2023-01-05,1,,,,,ライジングライト,0
1469,7010501049826,新規,0,2023-01-05,2023-01-05,株式会社ＱｕｅｓｔＳｅｃｕｒｉｔｙ,,株式会社,東京都,台東区,浅草橋５丁目２番３号鈴和ビル２階,,13,106,1110053,,,,,,,2023-01-05,1,,,,,クエストセキュリティー,0
1472,7010703006518,新規,0,2023-01-05,2023-01-05,合同会社Ｂｒａｖｏ,,合同会社,東京都,品川区,西五反田８丁目９－１１ＧＬＥＮＰＡＲＫＧ－ＷＥＳＴ５０１,,13,109,1410031,,,,,,,2023-01-05,1,,,,,ブラボー,0
1474,7010901052248,新規,0,2023-01-05,2023-01-05,株式会社佳園,,株式会社,東京都,世田谷区,経堂１丁目１９番１２号遠州ビル２階Ｂ号,,13,112,1560052,,,,,,,2023-01-05,1,,,,,カエン,0
1478,7011001151733,新規,0,2023-01-05,2023-01-05,株式会社Ｃｒｙｐｔｏ　Ｖｉｓｉｏｎ,,株式会社,東京都,渋谷区,道玄坂１丁目１０番８号渋谷道玄坂東急ビル２Ｆ－Ｃ,,13,113,1500043,,,,,,,2023-01-05,1,,,,,クリプトビジョン,0
1479,7011003016018,新規,0,2023-01-05,2023-01-05,合同会社ｅｃｌａｒｇｅ,,合同会社,東京都,渋谷区,幡ヶ谷１丁目３３番地１シャトーフタバ３０１,,13,113,1510072,,,,,,,2023-01-05,1,,,,,エクラージュ,0
1480,7011003016026,新規,0,2023-01-05,2023-01-05,合同会社Ａｎｄ,,合同会社,東京都,渋谷区,渋谷２丁目１９－１５宮益坂ビルディング６０９,,13,113,1500002,,,,,,,2023-01-05,1,,,,,アンド,0
1484,7011101101332,新規,0,2023-01-05,2023-01-05,三山商事株式会社,,株式会社,東京都,新宿区,四谷三栄町６番７号２Ｆ,,13,104,1600008,,,,,,,2023-01-05,1,,,,,ミヤマショウジ,0
1485,7011101101349,新規,0,2023-01-05,2023-01-05,株式会社ティグリス,,株式会社,東京都,新宿区,新宿３丁目１２番４号熊三ビル４Ｆ,,13,104,1600022,,,,,,,2023-01-05,1,,,,,ティグリス,0
1489,7011401024803,新規,0,2023-01-05,2023-01-05,ツナグ株式会社,,株式会社,東京都,板橋区,南町１２－６－２０１,,13,119,1730027,,,,,,,2023-01-05,1,,,,,ツナグ,0
1490,7011501028803,新規,0,2023-01-05,2023-01-05,多徳株式会社,,株式会社,東京都,荒川区,町屋３丁目２４番２号面川ビル２０７号室,,13,118,1160001,,,,,,,2023-01-05,1,,,,,タトク,0
1500,7012401039989,新規,0,2023-01-05,2023-01-05,株式会社ｏｚｏｒａ,,株式会社,東京都,武蔵野市,西久保３丁目４番１３号,,13,203,1800013,,,,,,,2023-01-05,1,,,,,オオゾラ,0
1506,7020001149588,新規,0,2023-01-05,2023-01-05,株式会社ミュゼ・ホールディングス,,株式会社,神奈川県,横浜市神奈川区,鶴屋町２丁目１２番１号横浜カリオカビル,,14,102,2210835,,,,,,,2023-01-05,1,,,,,ミュゼホールディングス,0
1507,7020001149638,新規,0,2023-01-05,2023-01-05,株式会社ＡＵＫ　Ｆｉｌｍｉｎｇ,,株式会社,神奈川県,横浜市都筑区,荏田東２丁目１８番１７号,,14,118,2240006,,,,,,,2023-01-05,1,,,,,アークフィルミング,0
1529,7030003020829,新規,0,2023-01-05,2023-01-05,ソ・アンドジェイ合同会社,,合同会社,埼玉県,越谷市,大字増林１０５８番地１,,11,222,3430011,,,,,,,2023-01-05,1,,,,,ソアンドジェイ,0
1530,7030003020845,新規,0,2023-01-05,2023-01-05,合同会社ＡＴＡ,,合同会社,埼玉県,さいたま市桜区,西堀５丁目１３－６アーバンライフ２０７,,11,106,3380832,,,,,,,2023-01-05,1,,,,,エーティーエー,0
1531,7030003020861,新規,0,2023-01-05,2023-01-05,ＨＰプラス合同会社,,合同会社,埼玉県,さいたま市岩槻区,西原台１丁目５番６２号,,11,110,3390082,,,,,,,2023-01-05,1,,,,,エイチピープラス,0
1539,7040001126189,新規,0,2023-01-05,2023-01-05,株式会社Ｇｌｙｃｉｎｅ,,株式会社,千葉県,我孫子市,高野山４９５番地の２９,,12,222,2701145,,,,,,,2023-01-05,1,,,,,グリシーヌ,0
1540,7040001126404,新規,0,2023-01-05,2023-01-05,旭日商運株式会社,,株式会社,千葉県,松戸市,上本郷８５７番地の１シンビル４Ｆ,,12,207,2710064,,,,,,,2023-01-05,1,,,,,キョクジツショウウン,0
1541,7040001126429,新規,0,2023-01-05,2023-01-05,株式会社ｗａｔｔｉ,,株式会社,千葉県,千葉市花見川区,内山町１０番地１,,12,102,2620002,,,,,,,2023-01-05,1,,,,,ワッチ,0
1542,7040001126453,新規,0,2023-01-05,2023-01-05,株式会社スミスチール工業,,株式会社,千葉県,市原市,柏原１２８番地１,,12,219,2990105,,,,,,,2023-01-05,1,,,,,スミスチールコウギョウ,0
1543,7040001126461,新規,0,2023-01-05,2023-01-05,株式会社スズマサ,,株式会社,千葉県,柏市,篠籠田１３７３番地５,,12,217,2770862,,,,,,,2023-01-05,1,,,,,スズマサ,0
1546,7040003021594,新規,0,2023-01-05,2023-01-05,ＡＧＫ合同会社,,合同会社,千葉県,浦安市,東野２丁目９－１１,,12,227,2790042,,,,,,,2023-01-05,1,,,,,エージーケー,0
1547,7040003021603,新規,0,2023-01-05,2023-01-05,ビュティちゃん合同会社,,合同会社,千葉県,千葉市中央区,栄町３１番１５号,,12,101,2600016,,,,,,,2023-01-05,1,,,,,ビュティチャン,0
1551,7080001025379,新規,0,2023-01-05,2023-01-05,株式会社ワイズデザイン,,株式会社,静岡県,静岡市駿河区,西島７７５番地の８,,22,102,4228045,,,,,,,2023-01-05,1,,,,,ワイズデザイン,0
1552,7080101023720,新規,0,2023-01-05,2023-01-05,ユニエル株式会社,,株式会社,静岡県,沼津市,沼北町２丁目２０番３号,,22,203,4100058,,,,,,,2023-01-05,1,,,,,ユニエル,0
1553,7080403004682,新規,0,2023-01-05,2023-01-05,ボデープラザ浜松合同会社,,合同会社,静岡県,浜松市北区,細江町中川１１６３番地,,22,135,4311304,,,,,,,2023-01-05,1,,,,,ボデープラザハママツ,0
1568,7120001251284,新規,0,2023-01-05,2023-01-05,ＮＥＷＦＩＳＨ　ＴＥＣＨＮＯＬＯＧＹ株式会社,,株式会社,大阪府,大阪市東住吉区,鷹合４丁目２１番１６号－３Ｆ－Ｄ,,27,121,5460014,,,,,,,2023-01-05,1,,,,,ニューフィッシュテクノロジー,0
1569,7120001251466,新規,0,2023-01-05,2023-01-05,株式会社ＫｏｍｉＤｅｎｋｉ,,株式会社,大阪府,大阪市淀川区,東三国６丁目５番２２号,,27,123,5320002,,,,,,,2023-01-05,1,,,,,コミデンキ,0
1570,7120001251524,新規,0,2023-01-05,2023-01-05,株式会社ＴＥＫＩＳＨＯ　ＰＬＡＮＮＩＮＧ,,株式会社,大阪府,大阪市北区,本庄西１丁目１番７号２６０１号室,,27,127,5310073,,,,,,,2023-01-05,1,,,,,テキショプランニング,0
1573,7120101066756,新規,0,2023-01-05,2023-01-05,株式会社大住機工,,株式会社,大阪府,堺市堺区,南田出井町１丁４番７－２０５号,,27,141,5900015,,,,,,,2023-01-05,1,,,,,オオスミキコウ,0
1574,7120101066764,新規,0,2023-01-05,2023-01-05,株式会社Ｃｏｎｎｅｃｔ　Ｗｉｔｈ,,株式会社,大阪府,岸和田市,土生町５丁目３番４６－７０３号,,27,202,5960825,,,,,,,2023-01-05,1,,,,,コネクトウィズ,0
1577,7120901046924,新規,0,2023-01-05,2023-01-05,アールエーケー株式会社,,株式会社,大阪府,高槻市,本町１１番７号,,27,207,5690074,,,,,,,2023-01-05,1,,,,,アールエーケー,0
1578,7120903004442,新規,0,2023-01-05,2023-01-05,Ｔｉｂｕｒｏｎ合同会社,,合同会社,大阪府,吹田市,江坂町４丁目２３番２－１０１号,,27,205,5640063,,,,,,,2023-01-05,1,,,,,ティブロン,0
1589,7140003018531,新規,0,2023-01-05,2023-01-05,合同会社ＢＯＳＳＡ,,合同会社,兵庫県,神戸市長田区,川西通５丁目１０１番地の３共栄ビル西館２階,,28,106,6530834,,,,,,,2023-01-05,1,,,,,ボッサ,0
1592,7140005026417,新規,0,2023-01-05,2023-01-05,一般社団法人ウェルネス予防医療協会,,その他の設立登記法人,兵庫県,神戸市中央区,北野町１丁目１番コトノハコ神戸１Ｆ,,28,110,6500002,,,,,,,2023-01-05,1,,,,,ウェルネスヨボウイリョウキョウカイ,0
1595,7170001017425,新規,0,2023-01-05,2023-01-05,株式会社紀南合材センター,,株式会社,和歌山県,田辺市,中辺路町真砂３８３番地,,30,206,6461415,,,,,,,2023-01-05,1,,,,,キナンゴウザイセンター,0
1600,7180001154333,新規,0,2023-01-05,2023-01-05,ＥＫＡ　ＴＥＫＮＩＫ株式会社,,株式会社,愛知県,あま市,木田西新五領４６番地１,,23,237,4901222,,,,,,,2023-01-05,1,,,,,エカテクニック,0
1601,7180001154408,新規,0,2023-01-05,2023-01-05,株式会社プログラマー,,株式会社,愛知県,名古屋市中川区,福住町９－８サンクマーレ福住１０３,,23,110,4540802,,,,,,,2023-01-05,1,,,,,プログラマー,0
1602,7180005020052,新規,0,2023-01-05,2023-01-05,医療法人社団孝佑会,,その他の設立登記法人,愛知県,一宮市,奥町字宮前４５番１,,23,203,4910201,,,,,,,2023-01-05,1,,,,,コウユウカイ,0
1607,7200003005787,新規,0,2023-01-05,2023-01-05,合同会社くまのみ,,合同会社,岐阜県,関市,常磐町２６番地,,21,205,5013200,,,,,,,2023-01-05,1,,,,,クマノミ,0
1608,7220001025199,新規,0,2023-01-05,2023-01-05,株式会社なかがわ建翔,,株式会社,石川県,白山市,番田町１２２番地１,,17,210,9240856,,,,,,,2023-01-05,1,,,,,ナカガワケンショウ,0
1615,7240001060905,新規,0,2023-01-05,2023-01-05,株式会社花田商事,,株式会社,広島県,広島市南区,猿猴橋町６番２９－２０１号,,34,103,7320823,,,,,,,2023-01-05,1,,,,,ハナダショウジ,0
1618,7260001037538,新規,0,2023-01-05,2023-01-05,株式会社Ｇｒｏｏｖｅ　Ｈａｎｄｓ,,株式会社,岡山県,倉敷市,茶屋町早沖１５８５番地,,33,202,7101102,,,,,,,2023-01-05,1,,,,,グルーヴハンズ,0
1630,7290001100061,新規,0,2023-01-05,2023-01-05,西日本共電工株式会社,,株式会社,福岡県,福岡市早良区,田村７丁目１０番２５号,,40,137,8140175,,,,,,,2023-01-05,1,,,,,ニシニホンキョウデンコウ,0
1631,7290001100086,新規,0,2023-01-05,2023-01-05,株式会社Ｍｉｎｏ,,株式会社,福岡県,福岡市博多区,博多駅東３丁目５番８号,,40,132,8120013,,,,,,,2023-01-05,1,,,,,ミノ,0
1637,7290005018894,新規,0,2023-01-05,2023-01-05,医療法人Ｍｉｓｏｒａ,,その他の設立登記法人,福岡県,福岡市早良区,高取１丁目３番２０号ファインガーデン高取２０２,,40,137,8140011,,,,,,,2023-01-05,1,,,,,ミソラ,0
1643,7310001018193,新規,0,2023-01-05,2023-01-05,アロハウス株式会社,,株式会社,長崎県,長崎市,滑石２丁目２番３２号Ｍａｎａビル,,42,201,8528061,,,,,,,2023-01-05,1,,,,,アロハウス,0
1645,7330001030444,新規,0,2023-01-05,2023-01-05,スカイコミュニケーションズ株式会社,,株式会社,熊本県,熊本市南区,南高江１丁目１３番１５号,,43,104,8614106,,,,,,,2023-01-05,1,,,,,スカイコミュニケーションズ,0
1646,7330001030452,新規,0,2023-01-05,2023-01-05,Ｋ・Ｂ・Ｓ株式会社,,株式会社,熊本県,玉名郡南関町,大字細永２３９６番地３,,43,367,8610831,,,,,,,2023-01-05,1,,,,,ケービーエス,0
1651,7370001049415,新規,0,2023-01-05,2023-01-05,Ａ．Ａ．Ｒ．Ｃｏｒｐ．株式会社,,株式会社,宮城県,仙台市泉区,高森６丁目２７番地の８,,04,105,9813203,,,,,,,2023-01-05,1,,,,,ツーエーアール,0
1668,7430001088126,新規,0,2023-01-05,2023-01-05,株式会社ＴＡＭＯ,,株式会社,北海道,札幌市白石区,北郷五条８丁目６番８号,,01,104,0030835,,,,,,,2023-01-05,1,,,,,タモ,0
1671,7450001013874,新規,0,2023-01-05,2023-01-05,コントランス北海道株式会社,,株式会社,北海道,上川郡当麻町,中央３区,,01,454,0781331,,,,,,,2023-01-05,1,,,,,コントランスホッカイドウ,0
1674,7470001019399,新規,0,2023-01-05,2023-01-05,株式会社ＥＮＴＡＭＥＮＴ,,株式会社,香川県,坂出市,元町１丁目８－３０,,37,203,7620045,,,,,,,2023-01-05,1,,,,,エンタメント,0
1677,7500001024692,新規,0,2023-01-05,2023-01-05,株式会社エトアレトア,,株式会社,愛媛県,松山市,余戸南４丁目１０番３８号,,38,201,7900047,,,,,,,2023-01-05,1,,,,,エトアレトア,0
1680,8010001231973,新規,0,2023-01-05,2023-01-05,株式会社ＳＴＯＲＹ,,株式会社,東京都,千代田区,丸の内１丁目８番２号鉄鋼ビルディング４Ｆ,,13,101,1000005,,,,,,,2023-01-05,1,,,,,ストーリー,0
1692,8010503006832,新規,0,2023-01-05,2023-01-05,合同会社ＯＡＫ,,合同会社,東京都,台東区,上野１丁目２番５号,,13,106,1100005,,,,,,,2023-01-05,1,,,,,オーク,0
1693,8010503006840,新規,0,2023-01-05,2023-01-05,合同会社未来美容ラボ,,合同会社,東京都,台東区,上野１丁目７番４－１８０１号ライオンズタワー上野黒門町,,13,106,1100005,,,,,,,2023-01-05,1,,,,,ミライビヨウラボ,0
1694,8010601062298,新規,0,2023-01-05,2023-01-05,株式会社ＦＯＲＴ　ＪＯＬＩ,,株式会社,東京都,江東区,豊洲５丁目１－１３,,13,108,1350061,,,,,,,2023-01-05,1,,,,,フォールジョリー,0
1700,8010801033561,新規,0,2023-01-05,2023-01-05,株式会社暁,,株式会社,東京都,大田区,多摩川１丁目６番２２号,,13,111,1460095,,,,,,,2023-01-05,1,,,,,アカツキ,0
1701,8010901052239,新規,0,2023-01-05,2023-01-05,株式会社Ａｒｒａｎｇｅ,,株式会社,東京都,世田谷区,上北沢５丁目３７番８－２０９号,,13,112,1560057,,,,,,,2023-01-05,1,,,,,アレンジ,0
1704,8011003016017,新規,0,2023-01-05,2023-01-05,ＧＥＫＫＯ合同会社,,合同会社,東京都,目黒区,八雲３丁目１番１－１０６号目黒八雲ハイム,,13,110,1520023,,,,,,,2023-01-05,1,,,,,ゲッコウ,0
1705,8011101101323,新規,0,2023-01-05,2023-01-05,株式会社ＡＮＥＫＳ,,株式会社,東京都,新宿区,市谷台町１８番１号,,13,104,1620066,,,,,,,2023-01-05,1,,,,,アネックス,0
1706,8011101101348,新規,0,2023-01-05,2023-01-05,株式会社Ｅｎ　ｐｌａｃｅ,,株式会社,東京都,新宿区,新宿７丁目２０番６号大久保マンション１Ｆ,,13,104,1600022,,,,,,,2023-01-05,1,,,,,エンプレイス,0
1712,8012401040021,新規,0,2023-01-05,2023-01-05,アセンドゾーンロジ株式会社,,株式会社,東京都,調布市,佐須町３丁目３５番地３,,13,208,1820016,,,,,,,2023-01-05,1,,,,,アセンドゾーンロジ,0
1715,8013101009091,新規,0,2023-01-05,2023-01-05,ＳＴＯＲＭＮＩＮＥ株式会社,,株式会社,東京都,青梅市,二俣尾１丁目２９７番地,,13,205,1980171,,,,,,,2023-01-05,1,,,,,ストームナイン,0
1733,8021001077836,新規,0,2023-01-05,2023-01-05,株式会社相武開発,,株式会社,神奈川県,相模原市南区,麻溝台６丁目１８番９号,,14,153,2520328,,,,,,,2023-01-05,1,,,,,ソウブカイハツ,0
1734,8021001077844,新規,0,2023-01-05,2023-01-05,株式会社バモス,,株式会社,神奈川県,中郡二宮町,二宮１３６９番地の１０,,14,342,2590123,,,,,,,2023-01-05,1,,,,,バモス,0
1737,8021003012551,新規,0,2023-01-05,2023-01-05,合同会社ＫＯＯＬ,,合同会社,神奈川県,海老名市,柏ケ谷２１６番地の３,,14,215,2430402,,,,,,,2023-01-05,1,,,,,クール,0
1746,8030001151699,新規,0,2023-01-05,2023-01-05,株式会社ノーベルリーズン,,株式会社,埼玉県,さいたま市北区,吉野町２丁目２１９－１４,,11,102,3310811,,,,,,,2023-01-05,1,,,,,ノーベルリーズン,0
1751,8030003020869,新規,0,2023-01-05,2023-01-05,合同会社ＴＡＭＯＴＳＵ,,合同会社,埼玉県,蕨市,中央２丁目１３番２８号ヴィラ金山中央１０１号,,11,223,3350004,,,,,,,2023-01-05,1,,,,,タモツ,0
1757,8040001126428,新規,0,2023-01-05,2023-01-05,株式会社ＫＵ‐ＫＵ,,株式会社,千葉県,船橋市,西船４丁目２０番２－１号,,12,204,2730031,,,,,,,2023-01-05,1,,,,,クク,0
1758,8040001126436,新規,0,2023-01-05,2023-01-05,株式会社むぎわらぼうし,,株式会社,千葉県,千葉市稲毛区,緑町１丁目２１番３号片山第一ビル１階,,12,103,2630023,,,,,,,2023-01-05,1,,,,,ムギワラボウシ,0
1759,8040001126444,新規,0,2023-01-05,2023-01-05,株式会社Ｙｏｕｒ　Ａｄｖｉｓｅｒ,,株式会社,千葉県,鎌ケ谷市,南初富４丁目６番５３－２号,,12,224,2730123,,,,,,,2023-01-05,1,,,,,ユアアドバイザー,0
1768,8080001025378,新規,0,2023-01-05,2023-01-05,株式会社石清,,株式会社,静岡県,静岡市葵区,四番町１番地の５,,22,101,4200074,,,,,,,2023-01-05,1,,,,,イシセイ,0
1771,8080105006308,新規,0,2023-01-05,2023-01-05,熱海ハイプラザ管理組合法人,,その他の設立登記法人,静岡県,熱海市,小嵐町９番６８号,,22,205,4130029,,,,,,,2023-01-05,1,,,,,アタミハイプラザ,0
1773,8080401026232,新規,0,2023-01-05,2023-01-05,株式会社ＮｕｍｅｒｉｃＧａｚｅｒ,,株式会社,静岡県,磐田市,竜洋中島１０５０－１,,22,211,4380201,,,,,,,2023-01-05,1,,,,,ニューメリックゲイザー,0
1791,8120003023169,新規,0,2023-01-05,2023-01-05,合同会社Ｍｉｎｇ,,合同会社,大阪府,大阪市中央区,瓦町３丁目１番３－７０１,,27,128,5410048,,,,,,,2023-01-05,1,,,,,ミン,0
1792,8120005023373,新規,0,2023-01-05,2023-01-05,シェア税理士法人,,その他の設立登記法人,大阪府,大阪市天王寺区,生玉寺町１番１３号,,27,109,5430073,,,,,,,2023-01-05,1,,,,,シェア,0
1793,8120901046931,新規,0,2023-01-05,2023-01-05,株式会社ゼロド,,株式会社,大阪府,豊中市,東泉丘２丁目６番２６号,,27,203,5610861,,,,,,,2023-01-05,1,,,,,ゼロド,0
1796,8120903004441,新規,0,2023-01-05,2023-01-05,合同会社ロークアット,,合同会社,大阪府,豊中市,東豊中町２丁目２番４３号１０２号,,27,203,5600003,,,,,,,2023-01-05,1,,,,,ロークアット,0
1800,8130005016657,新規,0,2023-01-05,2023-01-05,特定非営利活動法人ぼちぼち広場,,その他の設立登記法人,京都府,京都市上京区,横大宮町１９５番地２,,26,102,6028449,,,,,,,2023-01-05,1,,,,,ボチボチヒロバ,0
1815,8160001024743,新規,0,2023-01-05,2023-01-05,株式会社ＴＩＥＲＲＡＮ,,株式会社,滋賀県,草津市,志那町９４８番地,,25,206,5250005,,,,,,,2023-01-05,1,,,,,ティエラン,0
1822,8180001154373,新規,0,2023-01-05,2023-01-05,株式会社ＥＮＴ,,株式会社,愛知県,名古屋市中区,栄４丁目３－１５,,23,106,4600008,,,,,,,2023-01-05,1,,,,,イーエヌティー,0
1823,8180001154398,新規,0,2023-01-05,2023-01-05,大黒興産株式会社,,株式会社,愛知県,東海市,高横須賀町１丁目３４番地,,23,222,4770037,,,,,,,2023-01-05,1,,,,,ダイコクコウサン,0
1824,8180001154431,新規,0,2023-01-05,2023-01-05,サンユーサービス株式会社,,株式会社,愛知県,名古屋市守山区,金屋２丁目１１９番地の１グランディール３０２号,,23,113,4630072,,,,,,,2023-01-05,1,,,,,サンユーサービス,0
1827,8180005020051,新規,0,2023-01-05,2023-01-05,医療法人とむ歯科,,その他の設立登記法人,愛知県,一宮市,今伊勢町馬寄字西切戸１２番地１,,23,203,4910051,,,,,,,2023-01-05,1,,,,,トムシカ,0
1836,8200001040819,新規,0,2023-01-05,2023-01-05,林木材産業株式会社,,株式会社,岐阜県,羽島市,福寿町平方４丁目３９番地,,21,209,5016257,,,,,,,2023-01-05,1,,,,,ハヤシモクザイサンギョウ,0
1838,8220001025198,新規,0,2023-01-05,2023-01-05,株式会社ＦＥＥＬ,,株式会社,石川県,金沢市,八日市４丁目３６８番地Ｋ６コーポ１０２,,17,201,9218064,,,,,,,2023-01-05,1,,,,,フィール,0
1839,8240003005948,新規,0,2023-01-05,2023-01-05,合同会社ＭＩＮＡＴＯ,,合同会社,広島県,広島市南区,翠４丁目１番２２－３０３号,,34,103,7340005,,,,,,,2023-01-05,1,,,,,ミナト,0
1844,8260001037545,新規,0,2023-01-05,2023-01-05,株式会社正信保険事務所,,株式会社,岡山県,岡山市北区,田中６３９番地３,,33,101,7000951,,,,,,,2023-01-05,1,,,,,マサノブホケンジムショ,0
1850,8290001100060,新規,0,2023-01-05,2023-01-05,株式会社慶,,株式会社,福岡県,太宰府市,白川１５番６号,,40,221,8180102,,,,,,,2023-01-05,1,,,,,ケイ,0
1851,8290001100077,新規,0,2023-01-05,2023-01-05,株式会社ソーシャル・インクルージョン西日本,,株式会社,福岡県,福岡市中央区,大名２丁目１０－４シャンボール大名Ｄ棟１００６,,40,133,8100041,,,,,,,2023-01-05,1,,,,,ソーシャルインクルージョンニシニホン,0
1852,8290001100085,新規,0,2023-01-05,2023-01-05,三八建設株式会社,,株式会社,福岡県,久留米市,梅満町１２２７番地５,,40,203,8300048,,,,,,,2023-01-05,1,,,,,ミヤケンセツ,0
1855,8290003013368,新規,0,2023-01-05,2023-01-05,合同会社ＬＩＮＫＳ,,合同会社,福岡県,福岡市西区,今宿東３丁目３１番２４号,,40,135,8190161,,,,,,,2023-01-05,1,,,,,リンクス,0
1858,8290005018893,新規,0,2023-01-05,2023-01-05,一般社団法人しんカード協会,,その他の設立登記法人,福岡県,那珂川市,中原５丁目４９番地３,,40,231,8111213,,,,,,,2023-01-05,1,,,,,シンカードキョウカイ,0
1860,8290801029160,新規,0,2023-01-05,2023-01-05,海援工業株式会社,,株式会社,福岡県,北九州市若松区,今光２丁目１２番１３号,,40,103,8080071,,,,,,,2023-01-05,1,,,,,カイエンコウギョウ,0
1861,8290801029169,新規,0,2023-01-05,2023-01-05,株式会社ＳＯＬ,,株式会社,福岡県,宮若市,本城５３８番地２,,40,226,8230003,,,,,,,2023-01-05,1,,,,,ソル,0
1862,8290801029177,新規,0,2023-01-05,2023-01-05,株式会社ＪＦｃｏｍｐａｎｙ,,株式会社,福岡県,田川郡糸田町,１０１８番地１,,40,604,8221300,,,,,,,2023-01-05,1,,,,,ジェイエフカンパニー,0
1864,8300001013178,新規,0,2023-01-05,2023-01-05,株式会社牧口造園土木,,株式会社,佐賀県,三養基郡みやき町,大字白壁３７９２番地４８,,41,346,8490111,,,,,,,2023-01-05,1,,,,,マキグチゾウエンドボク,0
1866,8320001019495,新規,0,2023-01-05,2023-01-05,株式会社板井・林業,,株式会社,大分県,由布市,庄内町渕３１７１番地,,44,213,8795425,,,,,,,2023-01-05,1,,,,,イタイリンギョウ,0
1867,8320005010038,新規,0,2023-01-05,2023-01-05,一般社団法人大分県空手道連盟,,その他の設立登記法人,大分県,大分市,明野南３丁目１７番９号,,44,201,8700163,,,,,,,2023-01-05,1,,,,,オオイタケンカラテドウレンメイ,0
1868,8360003012602,新規,0,2023-01-05,2023-01-05,合同会社福祉用具店こころ,,合同会社,沖縄県,宮古島市,城辺字長間２１１７番地１,,47,214,9060105,,,,,,,2023-01-05,1,,,,,フクシヨウグテンココロ,0
1869,8360005006767,新規,0,2023-01-05,2023-01-05,一般社団法人アルバ,,その他の設立登記法人,沖縄県,那覇市,繁多川１丁目１４番３６号アルバ２１・５－Ｃ,,47,201,9020071,,,,,,,2023-01-05,1,,,,,アルバ,0
1872,8370001049414,新規,0,2023-01-05,2023-01-05,株式会社ギバトホールディングス,,株式会社,宮城県,仙台市青葉区,二日町１７番１７号,,04,101,9800802,,,,,,,2023-01-05,1,,,,,ギバトホールディングス,0
1873,8370001049430,新規,0,2023-01-05,2023-01-05,株式会社アイリーコーポレーション,,株式会社,宮城県,仙台市青葉区,春日町９番１８号,,04,101,9800821,,,,,,,2023-01-05,1,,,,,アイリーコーポレーション,0
1883,8410003003736,新規,0,2023-01-05,2023-01-05,合同会社インベーダー,,合同会社,秋田県,秋田市,御所野地蔵田２丁目１５番４１号,,05,201,0101413,,,,,,,2023-01-05,1,,,,,インベーダー,0
1889,8430001088125,新規,0,2023-01-05,2023-01-05,株式会社Ｓｅａｆｏｒｍ　Ｊａｐａｎ,,株式会社,北海道,虻田郡倶知安町,北六条西１丁目２－６４,,01,400,0440056,,,,,,,2023-01-05,1,,,,,シーフォームジャパン,0
1890,8430003014599,新規,0,2023-01-05,2023-01-05,合同会社北海道Ｙ’ｓカンパニー,,合同会社,北海道,札幌市白石区,菊水上町一条２丁目１２０番地１,,01,104,0030811,,,,,,,2023-01-05,1,,,,,ホッカイドウワイズカンパニー,0
1899,8700150113531,新規,0,2023-01-05,2023-01-05,ＣＡＰＣＯＭ　ＴＡＩＷＡＮ　ＣＯ．，ＬＴＤ．,,外国会社等,,,,,,,,１５Ｆ．，Ｎｏ．９，Ｘｉａｎｇｙａｎｇ　Ｒｄ．，Ｚｈｏｎｇｚｈｅｎｇ　Ｄｉｓｔ．，Ｔａｉｐｅｉ　Ｃｉｔｙ　１００４６，Ｔａｉｗａｎ（Ｒ．Ｏ．Ｃ．）,,,,,,2023-01-05,1,,,,,カプコンタイワンカンパニーリミテツド,0
1908,9010001232005,新規,0,2023-01-05,2023-01-05,株式会社ＷＩＰＳ,,株式会社,東京都,中央区,銀座７丁目１３番２０号銀座ＴＨビル９階,,13,102,1040061,,,,,,,2023-01-05,1,,,,,ウィップス,0
1909,9010003039448,新規,0,2023-01-05,2023-01-05,ホイホーイ合同会社,,合同会社,東京都,文京区,目白台３丁目１７番１０号,,13,105,1120015,,,,,,,2023-01-05,1,,,,,ホイホーイ,0
1910,9010003039472,新規,0,2023-01-05,2023-01-05,合同会社Ｓ＆Ｎ,,合同会社,東京都,中央区,勝どき３丁目９番７号,,13,102,1040054,,,,,,,2023-01-05,1,,,,,エスアンドエヌ,0
1911,9010005036063,新規,0,2023-01-05,2023-01-05,一般社団法人日本金融教育支援機構,,その他の設立登記法人,東京都,中央区,銀座１丁目２２番１１号銀座大竹ビジデンス２Ｆ,,13,102,1040061,,,,,,,2023-01-05,1,,,,,ニホンキンユウキョウイクシエンキコウ,0
1917,9010701043651,新規,0,2023-01-05,2023-01-05,株式会社ハイリングプロジェクト,,株式会社,東京都,品川区,東五反田２丁目２１－１１ＤＩＫマンション東五反田５２３号室,,13,109,1410022,,,,,,,2023-01-05,1,,,,,ハイリングプロジェクト,0
1922,9010801033552,新規,0,2023-01-05,2023-01-05,株式会社一井興業,,株式会社,東京都,大田区,田園調布南６番３号,,13,111,1450076,,,,,,,2023-01-05,1,,,,,イチイコウギョウ,0
1924,9010901052238,新規,0,2023-01-05,2023-01-05,株式会社エイケーゼロ,,株式会社,東京都,世田谷区,上馬４丁目４１番１－１０３号,,13,112,1540011,,,,,,,2023-01-05,1,,,,,エイケーゼロ,0
1931,9011001151764,新規,0,2023-01-05,2023-01-05,ＴＯＰＩＣＯ株式会社,,株式会社,東京都,渋谷区,道玄坂１丁目１０番８号渋谷道玄坂東急ビル２Ｆ－Ｃ,,13,113,1500043,,,,,,,2023-01-05,1,,,,,トピコ,0
1932,9011001151780,新規,0,2023-01-05,2023-01-05,株式会社Ｓｔａｍ,,株式会社,東京都,渋谷区,神南１丁目８番８号アビタシオン・ボヌール神南１Ｆ,,13,113,1500041,,,,,,,2023-01-05,1,,,,,スタム,0
1934,9011003016016,新規,0,2023-01-05,2023-01-05,合同会社ＴＹＰＥ,,合同会社,東京都,渋谷区,神宮前６丁目２３番４号桑野ビル２Ｆ,,13,113,1500001,,,,,,,2023-01-05,1,,,,,タイプ,0
1935,9011003016024,新規,0,2023-01-05,2023-01-05,合同会社ａｄｄｉｎｇｗａｔｅｒ,,合同会社,東京都,渋谷区,渋谷２丁目２－４アルコーブ２０３,,13,113,1500002,,,,,,,2023-01-05,1,,,,,,0
1940,9011101101322,新規,0,2023-01-05,2023-01-05,株式会社一丸不動産,,株式会社,東京都,新宿区,新宿１丁目１０番２号,,13,104,1600022,,,,,,,2023-01-05,1,,,,,イチマルフドウサン,0
1941,9011101101330,新規,0,2023-01-05,2023-01-05,株式会社アドトロニクス,,株式会社,東京都,新宿区,信濃町３５番地,,13,104,1600016,,,,,,,2023-01-05,1,,,,,アドトロニクス,0
1942,9011101101347,新規,0,2023-01-05,2023-01-05,株式会社Ｒｏｙａｌ　ｃｏｌｌｅｃｔｉｏｎ,,株式会社,東京都,新宿区,歌舞伎町２丁目１９番１７－１０１号,,13,104,1600021,,,,,,,2023-01-05,1,,,,,ロイヤルコレクション,0
1946,9011501028801,新規,0,2023-01-05,2023-01-05,ＬＯＹＯ株式会社,,株式会社,東京都,北区,十条仲原１丁目３番５号鈴木ビル２０４号室,,13,117,1140031,,,,,,,2023-01-05,1,,,,,ロヨ,0
1949,9011801041743,新規,0,2023-01-05,2023-01-05,株式会社コレクトアール,,株式会社,東京都,足立区,一ツ家２丁目４－１０－３０１吉田マンション,,13,121,1210075,,,,,,,2023-01-05,1,,,,,コレクトアール,0
1950,9012401040020,新規,0,2023-01-05,2023-01-05,株式会社ハピウェル,,株式会社,東京都,三鷹市,牟礼６丁目２３番８－３２９号,,13,204,1810002,,,,,,,2023-01-05,1,,,,,ハピウェル,0
1952,9012403005764,新規,0,2023-01-05,2023-01-05,合同会社オフィスＡ１ハート,,合同会社,東京都,小金井市,関野町１丁目１番１１号,,13,210,1840001,,,,,,,2023-01-05,1,,,,,オフィスエイワンハート,0
1954,9012703002610,新規,0,2023-01-05,2023-01-05,合同会社１０８Ｂｒｏｓ．,,合同会社,東京都,西東京市,ひばりが丘２丁目５番３４－８２２号,,13,229,2020001,,,,,,,2023-01-05,1,,,,,ヒャクハチブロス,0
1955,9013101009090,新規,0,2023-01-05,2023-01-05,株式会社ｉ‐ｔｅｃ,,株式会社,東京都,青梅市,東青梅３丁目２３番地の１０サンシャインメゾン５０４,,13,205,1980042,,,,,,,2023-01-05,1,,,,,アイテック,0
1956,9013103001203,新規,0,2023-01-05,2023-01-05,合同会社若林建築事務所,,合同会社,東京都,青梅市,新町３丁目２６番地の８,,13,205,1980024,,,,,,,2023-01-05,1,,,,,ワカバヤシケンチクジムショ,0
1975,9030001151681,新規,0,2023-01-05,2023-01-05,株式会社咲蓮,,株式会社,埼玉県,さいたま市北区,今羽町３３９番地１,,11,102,3310801,,,,,,,2023-01-05,1,,,,,エレン,0
1983,9040001126427,新規,0,2023-01-05,2023-01-05,株式会社森谷浩二広告事務所,,株式会社,千葉県,千葉市美浜区,高洲１丁目１３番２－２０２号,,12,106,2610004,,,,,,,2023-01-05,1,,,,,モリヤコウジコウコクジムショ,0
1984,9040001126443,新規,0,2023-01-05,2023-01-05,株式会社タツミ,,株式会社,千葉県,市原市,荻作５５５番地１１,,12,219,2900177,,,,,,,2023-01-05,1,,,,,タツミ,0
1995,9080101023727,新規,0,2023-01-05,2023-01-05,株式会社Ｆｅｍｃａｒｅｒｉｎｇ,,株式会社,静岡県,沼津市,内浦長浜１６７番地,,22,203,4100224,,,,,,,2023-01-05,1,,,,,フェムケアリング,0
1997,9080103002720,新規,0,2023-01-05,2023-01-05,合同会社ｓｏｍｉｇａ,,合同会社,静岡県,沼津市,岡宮１１７５番地の１０,,22,203,4100011,,,,,,,2023-01-05,1,,,,,ソミガ,0
2001,9110001037204,新規,0,2023-01-05,2023-01-05,鈴木建業株式会社,,株式会社,新潟県,村上市,緑町２丁目１番５５号,,15,212,9580033,,,,,,,2023-01-05,1,,,,,スズキケンギョウ,0
2007,9120001251200,新規,0,2023-01-05,2023-01-05,株式会社豊,,株式会社,大阪府,大阪市中央区,谷町９丁目２番２号ノプリード谷町７０２,,27,128,5420012,,,,,,,2023-01-05,1,,,,,ユタカ,0
2008,9120001251472,新規,0,2023-01-05,2023-01-05,株式会社Ｌｉｅｎ,,株式会社,大阪府,大阪市中央区,久太郎町３丁目１番１５号メビウス御堂筋本町ビル５０２,,27,128,5410056,,,,,,,2023-01-05,1,,,,,リアン,0
2009,9120001251522,新規,0,2023-01-05,2023-01-05,株式会社宮田,,株式会社,大阪府,大阪市北区,大淀南２丁目２番９－４９０１号,,27,127,5310075,,,,,,,2023-01-05,1,,,,,ミヤタ,0
2013,9120003023168,新規,0,2023-01-05,2023-01-05,合同会社キミボウ,,合同会社,大阪府,大阪市東住吉区,南田辺４丁目９番２２－３０３号,,27,121,5460033,,,,,,,2023-01-05,1,,,,,キミボウ,0
2020,9120101066746,新規,0,2023-01-05,2023-01-05,大一金属株式会社,,株式会社,大阪府,羽曳野市,野６５６,,27,222,5830884,,,,,,,2023-01-05,1,,,,,ダイイチキンゾク,0
2021,9120101066754,新規,0,2023-01-05,2023-01-05,マルケイ産業株式会社,,株式会社,大阪府,羽曳野市,川向７９－１,,27,222,5830848,,,,,,,2023-01-05,1,,,,,マルケイサンギョウ,0
2023,9120901046922,新規,0,2023-01-05,2023-01-05,株式会社ｕｎ　ｃａｎｄｅｌａ,,株式会社,大阪府,豊中市,寺内２丁目３番９号,,27,203,5610872,,,,,,,2023-01-05,1,,,,,アンカンデラ,0
2031,9130001073370,新規,0,2023-01-05,2023-01-05,三藍商貿服務株式会社,,株式会社,京都府,京都市右京区,嵯峨大覚寺門前六道町２８番地８,,26,108,6168417,,,,,,,2023-01-05,1,,,,,サンアイショウボウフクム,0
2032,9130001073379,新規,0,2023-01-05,2023-01-05,アローフィールド株式会社,,株式会社,京都府,京都市南区,久世川原町１９２番地１４,,26,107,6018201,,,,,,,2023-01-05,1,,,,,アローフィールド,0
2039,9140001128586,新規,0,2023-01-05,2023-01-05,株式会社ＩＶＹ　Ｕ,,株式会社,兵庫県,神戸市中央区,八幡通４丁目２番９号,,28,110,6510085,,,,,,,2023-01-05,1,,,,,アイヴィーユー,0
2040,9140001128603,新規,0,2023-01-05,2023-01-05,株式会社メープルホーム,,株式会社,兵庫県,神戸市中央区,橘通２丁目１番６号５０１,,28,110,6500016,,,,,,,2023-01-05,1,,,,,,0
2055,9180001154389,新規,0,2023-01-05,2023-01-05,株式会社すゑ広重機,,株式会社,愛知県,知多市,八幡字森之前７１番地の６,,23,224,4780001,,,,,,,2023-01-05,1,,,,,スエヒロジュウキ,0
2059,9180003024664,新規,0,2023-01-05,2023-01-05,合同会社ＳＣマネージメント,,合同会社,愛知県,長久手市,西原山１２番地５,,23,238,4801138,,,,,,,2023-01-05,1,,,,,エスシーマネージメント,0
2063,9200001040834,新規,0,2023-01-05,2023-01-05,株式会社チャレンジエッグ,,株式会社,岐阜県,各務原市,鵜沼山崎町７丁目２５番地,,21,213,5090124,,,,,,,2023-01-05,1,,,,,チャレンジエッグ,0
2067,9240001060886,新規,0,2023-01-05,2023-01-05,株式会社ちくだいサービス,,株式会社,広島県,呉市,本通４丁目１番５号オレンジビル１Ｆ,,34,202,7370045,,,,,,,2023-01-05,1,,,,,チクダイサービス,0
2068,9240001060903,新規,0,2023-01-05,2023-01-05,株式会社ＥＶＥＮ,,株式会社,広島県,広島市中区,東平塚町１番９－８０５号,,34,101,7300025,,,,,,,2023-01-05,1,,,,,イーブン,0
2074,9260001037536,新規,0,2023-01-05,2023-01-05,株式会社Ｂｕｄｄｙ,,株式会社,岡山県,岡山市東区,政津２１４番地１,,33,103,7048165,,,,,,,2023-01-05,1,,,,,バディ,0
2075,9260001037544,新規,0,2023-01-05,2023-01-05,株式会社ドマーニ情報システム,,株式会社,岡山県,岡山市中区,雄町３９４番地３,,33,102,7038204,,,,,,,2023-01-05,1,,,,,ドマーニジョウホウシステム,0
2086,9290001100068,新規,0,2023-01-05,2023-01-05,株式会社システムアロー,,株式会社,福岡県,福岡市東区,多々良２丁目２６番４号,,40,131,8130033,,,,,,,2023-01-05,1,,,,,システムアロー,0
2087,9290001100084,新規,0,2023-01-05,2023-01-05,株式会社絆,,株式会社,福岡県,福岡市博多区,博多駅南２丁目９番１５－１４０６号,,40,132,8120016,,,,,,,2023-01-05,1,,,,,キズナ,0
2091,9290003013367,新規,0,2023-01-05,2023-01-05,合同会社ＰｅＣｏＲｉ,,合同会社,福岡県,福岡市早良区,小田部５丁目６番１号,,40,137,8140032,,,,,,,2023-01-05,1,,,,,ペコリ,0
2094,9290801029168,新規,0,2023-01-05,2023-01-05,株式会社カズベイカー,,株式会社,福岡県,北九州市戸畑区,新池１丁目１０番２４号,,40,105,8040082,,,,,,,2023-01-05,1,,,,,カズベイカー,0
2095,9310001018191,新規,0,2023-01-05,2023-01-05,株式会社アールツーワイ,,株式会社,長崎県,長崎市,さくらの里２丁目２３番４１号,,42,201,8512207,,,,,,,2023-01-05,1,,,,,アールツーワイ,0
2096,9310001018200,新規,0,2023-01-05,2023-01-05,株式会社ブルースカイジャパン,,株式会社,長崎県,西彼杵郡長与町,岡郷２７６２番地１,,42,307,8512121,,,,,,,2023-01-05,1,,,,,ブルースカイジャパン,0
2101,9320001019494,新規,0,2023-01-05,2023-01-05,株式会社Ｌａ　ｖｉｅ,,株式会社,大分県,中津市,栄町一丁目２０８８番地６,,44,203,8710043,,,,,,,2023-01-05,1,,,,,ラヴィ,0
2102,9330001030450,新規,0,2023-01-05,2023-01-05,株式会社ＯＮＥ　ｃｏｎｆｉｄｅｎｃｅ,,株式会社,熊本県,熊本市中央区,桜町３番１０－１０１２号,,43,101,8600805,,,,,,,2023-01-05,1,,,,,ワンコンフィデンス,0
2104,9330005010606,新規,0,2023-01-05,2023-01-05,社会福祉法人寺尾会,,その他の設立登記法人,熊本県,熊本市北区,小糸山町７５２番１号,,43,105,8615504,,,,,,,2023-01-05,1,,,,,テラオカイ,0
2105,9340001025268,新規,0,2023-01-05,2023-01-05,ＡｇｒｉＢｌｏｏｍ株式会社,,株式会社,鹿児島県,鹿児島市,坂之上１丁目３３番１８号,,46,201,8910150,,,,,,,2023-01-05,1,,,,,アグリブルーム,0
2108,9360001031405,新規,0,2023-01-05,2023-01-05,ダイワアークス株式会社,,株式会社,沖縄県,南城市,大里字稲嶺２０６５番地５,,47,215,9011204,,,,,,,2023-01-05,1,,,,,ダイワアークス,0
2110,9370001049413,新規,0,2023-01-05,2023-01-05,株式会社ＢＯＵＧＡ,,株式会社,宮城県,仙台市宮城野区,五輪２丁目６－１６,,04,102,9830842,,,,,,,2023-01-05,1,,,,,ボーガ,0
2111,9370001049421,新規,0,2023-01-05,2023-01-05,株式会社テクノビルダー,,株式会社,宮城県,仙台市太白区,柳生７丁目２１番地の３レジデンスＳＳ１０５号室,,04,104,9811106,,,,,,,2023-01-05,1,,,,,テクノビルダー,0
2118,9380003005355,新規,0,2023-01-05,2023-01-05,合同会社りゅう,,合同会社,福島県,伊達郡川俣町,大字鶴沢字社前１番地の１,,07,308,9601406,,,,,,,2023-01-05,1,,,,,リュウ,0
2124,9430003014598,新規,0,2023-01-05,2023-01-05,合同会社ＤＡＩ,,合同会社,北海道,札幌市手稲区,星置一条３丁目２番１号イトーピア星置プラザＡＮＮＥＸ棟１Ｆ,,01,109,0060851,,,,,,,2023-01-05,1,,,,,ダイ,0
2128,9480001011964,新規,0,2023-01-05,2023-01-05,株式会社ＹＯ,,株式会社,徳島県,徳島市,寺島本町東３丁目１５番地の５－７０７,,36,201,7700832,,,,,,,2023-01-05,1,,,,,ヨー,0
2131,9700150113530,新規,0,2023-01-05,2023-01-05,ＨａｎｇＺｈｏｕ　ＧａｏＬｅＹｉＬｉａｏＱｉＣａｉ　ＹｏｕＸｉａｎＧｏｎｇＳｉ,,外国会社等,,,,,,,,ＦｕＹａｎｇＱｕＤｏｎｇＺｈｏｕＪｉｅＤａｏＧｏｎｇＹｅＧｏｎｇＮｅｎｇＱｕＭｉｎｇＸｉｎｇＬｕ１８ＨａｏＤｉ３Ｚｈｕａｎｇ２０１Ｓｈｉ　ＨａｎｇＺｈｏｕＳｈｉ　ＺｈｅＪｉａｎｇＳｈｅｎｇ,,,,,,2023-01-05,1,,,,,コウシユウコウレイリヨウキカイユウゲンコウシ,0
