sequenceNumber,corporateNumber,process,correct,updateDate,changeDate,name,nameImageId,kind,prefectureName,cityName,streetNumber,addressImageId,prefectureCode,cityCode,postCode,addressOutside,addressOutsideImageId,closeDate,closeCause,successorCorporateNumber,changeCause,assignmentDate,latest,enName,enPrefectureName,enCityName,enAddressOutside,furigana,hihyoji
14,1010401031708,登記記録の閉鎖等,0,2022-08-04,2022-07-15,株式会社ルイード,,株式会社,東京都,港区,赤坂９丁目１番２７号サンウッド赤坂フラッツ２０２,,13,103,1070052,,,2022-07-15,清算の結了等,,,2015-10-05,1,,,,,ルイード,0
18,1010403006261,登記記録の閉鎖等,0,2022-08-04,2022-07-13,合同会社ディンプル,,合同会社,東京都,港区,元赤坂１丁目１番７号,,13,103,1070051,,,2022-07-13,清算の結了等,,,2015-10-05,1,,,,,ディンプル,0
24,1010701028750,登記記録の閉鎖等,0,2022-08-04,2022-08-01,株式会社ストラテジックイノベーション,,株式会社,東京都,品川区,大崎５丁目９番９－８０４号,,13,109,1410032,,,2022-08-01,清算の結了等,,,2015-10-05,1,,,,,,0
27,1010901007835,登記記録の閉鎖等,0,2022-08-04,2022-07-21,テンフーズ株式会社,,株式会社,東京都,世田谷区,桜上水４丁目１番Ｄ－１１４号,,13,112,1560045,,,2022-07-21,清算の結了等,,,2015-10-05,1,,,,,テンフーズ,0
63,1011601005550,登記記録の閉鎖等,0,2022-08-04,2022-07-29,株式会社白英社,,株式会社,東京都,練馬区,石神井台６丁目１９番２８号,,13,120,1770045,,,2022-07-29,清算の結了等,,,2015-10-05,1,,,,,ハクエイシャ,0
70,1011803003105,登記記録の閉鎖等,0,2022-08-04,2022-08-02,日創テクノロジー合同会社,,合同会社,東京都,足立区,竹の塚４丁目３番２５－３０５号,,13,121,1210813,,,2022-08-02,清算の結了等,,,2017-11-29,1,,,,,ニッソウテクノロジー,0
93,1020001076549,登記記録の閉鎖等,0,2022-08-04,2022-07-15,エアープロダクツジャパン株式会社,,株式会社,東京都,港区,虎ノ門４丁目１番１７号,,13,103,1050001,,,2022-07-15,清算の結了等,,,2015-10-05,1,,,,,エアープロダクツジャパン,0
124,1040001089887,登記記録の閉鎖等,0,2022-08-04,2022-07-25,株式会社ＺＩＰ,,株式会社,千葉県,千葉市稲毛区,小仲台１丁目４番１号,,12,103,2630043,,,2022-07-25,清算の結了等,,,2015-10-05,1,,,,,ジップ,0
128,1040002053891,登記記録の閉鎖等,0,2022-08-04,2022-07-26,有限会社ウェイブ,,有限会社,千葉県,松戸市,常盤平５丁目２０番地２秋元ビル,,12,207,2702261,,,2022-07-26,清算の結了等,,,2015-10-05,1,,,,,ウェイブ,0
142,1080402020249,登記記録の閉鎖等,0,2022-08-04,2022-08-01,有限会社半場鉄工所,,有限会社,静岡県,磐田市,富里２６１番地の４,,22,211,4380807,,,2022-08-01,清算の結了等,,,2015-10-05,1,,,,,ハンバテッコウショ,0
152,1120001063685,登記記録の閉鎖等,0,2022-08-04,2022-08-03,株式会社ゴウハラ建設,,株式会社,大阪府,大阪市北区,豊崎５丁目７番１１号,,27,127,5310072,,,2022-08-03,清算の結了等,,,2015-10-05,1,,,,,ゴウハラケンセツ,0
182,1122001028759,登記記録の閉鎖等,0,2022-08-04,2022-07-28,株式会社勝現建設,,株式会社,大阪府,八尾市,水越１丁目６９番地,,27,212,5810856,,,2022-07-28,清算の結了等,,,2015-10-05,1,,,,,,0
183,1122002016795,登記記録の閉鎖等,0,2022-08-04,2022-07-29,有限会社タナカ塩ビ,,有限会社,大阪府,八尾市,太田新町６丁目１４５番地,,27,212,5810039,,,2022-07-29,清算の結了等,,,2015-10-05,1,,,,,,0
217,1180002072234,登記記録の閉鎖等,0,2022-08-04,2022-08-01,有限会社ホンダ瀬戸,,有限会社,愛知県,瀬戸市,見付町８番地,,23,204,4890808,,,2022-08-01,清算の結了等,,,2015-10-05,1,,,,,ホンダセト,0
219,1180002092414,登記記録の閉鎖等,0,2022-08-04,2022-08-02,有限会社フチベ設備,,有限会社,愛知県,あま市,七宝町伊福河原７５番地２,,23,237,4970005,,,2022-08-02,清算の結了等,,,2015-10-05,1,,,,,フチベセツビ,0
225,1190001009599,登記記録の閉鎖等,0,2022-08-04,2022-08-01,森田医療器株式会社,,株式会社,三重県,名張市,百合が丘東８番町１４３番地,,24,208,5180478,,,2022-08-01,清算の結了等,,,2015-10-05,1,,,,,モリタイリョウキ,0
226,1190001013452,登記記録の閉鎖等,0,2022-08-04,2022-07-29,ソウメイ株式会社,,株式会社,三重県,員弁郡東員町,大字山田１１１０番地,,24,324,5110251,,,2022-07-29,清算の結了等,,,2015-10-05,1,,,,,ソウメイ,0
258,1290002001289,登記記録の閉鎖等,0,2022-08-04,2022-07-27,有限会社アップワード,,有限会社,福岡県,福岡市南区,警弥郷１丁目１３番２号,,40,134,8111324,,,2022-07-27,清算の結了等,,,2015-10-05,1,,,,,アップワード,0
284,1360001014870,登記記録の閉鎖等,0,2022-08-04,2022-07-25,沖縄度假旅行不動産株式会社,,株式会社,沖縄県,宜野湾市,普天間１丁目３３番６号,,47,205,9012202,,,2022-07-25,清算の結了等,,,2015-10-05,1,,,,,オキナワトカリョコウフドウサン,0
289,1380001016758,登記記録の閉鎖等,0,2022-08-04,2022-07-22,エヌ・イー大熊株式会社,,株式会社,千葉県,松戸市,小金原７丁目６番地の９,,12,207,2700021,,,2022-07-22,合併による解散等,2040001036005,令和４年７月２２日千葉県松戸市小金原七丁目６番地の９環境資源株式会社（2040001036005）に合併し解散,2015-10-05,1,,,,,エヌイーオオクマ,0
292,1380003003523,登記記録の閉鎖等,0,2022-08-04,2022-08-01,合同会社麻雀倶楽部王庁,,合同会社,福島県,郡山市,豊田町４番１２号グランサンビル２Ｆ,,07,203,9638016,,,2022-08-01,合併による解散等,4380002014543,令和４年８月１日福島県郡山市西ノ内二丁目１８番７号株式会社シューコー（4380002014543）に合併し解散,2016-01-04,1,,,,,マージャンクラブオウチョウ,0
295,1400002000089,登記記録の閉鎖等,0,2022-08-04,2022-08-03,有限会社あおば不動産,,有限会社,岩手県,盛岡市,本町通３丁目１番９号,,03,201,0200015,,,2022-08-03,清算の結了等,,,2015-10-05,1,,,,,アオバフドウサン,0
303,1450001005456,登記記録の閉鎖等,0,2022-08-04,2022-08-01,日東運輸株式会社,,株式会社,北海道,旭川市,永山北一条６丁目１番２１号,,01,204,0798451,,,2022-08-01,合併による解散等,8450001002372,令和４年８月１日北海道旭川市本町三丁目４３７番地２３９日東石油株式会社（8450001002372）に合併し解散,2015-10-05,1,,,,,ニットウウンユ,0
306,1450001010778,登記記録の閉鎖等,0,2022-08-04,2022-07-20,エヌピークリーメンス株式会社,,株式会社,北海道,苫前郡苫前町,字古丹別１７４番地４６,,01,483,0783621,,,2022-07-20,清算の結了等,,,2015-10-05,1,,,,,エヌピークリーメンス,0
309,1470001002121,登記記録の閉鎖等,0,2022-08-04,2022-08-01,香川漁連運輸株式会社,,株式会社,香川県,高松市,北浜町８番２５号,,37,201,7600031,,,2022-08-01,清算の結了等,,,2015-10-05,1,,,,,カガワギョレンウンユ,0
322,2010001150097,登記記録の閉鎖等,0,2022-08-04,2022-07-21,株式会社ＴＥＲＡ,,株式会社,東京都,千代田区,飯田橋１丁目１２－１４,,13,101,1020072,,,2022-07-21,清算の結了等,,,2015-10-05,1,,,,,テラ,0
368,2011103008183,登記記録の閉鎖等,0,2022-08-04,2022-08-01,合同会社ジェイ・アイ・オー,,合同会社,東京都,新宿区,下宮比町１番４号,,13,104,1620822,,,2022-08-01,清算の結了等,,,2018-08-24,1,,,,,ジェイアイオー,0
395,2020001098443,登記記録の閉鎖等,0,2022-08-04,2022-08-02,株式会社ＣＬＯＵＤＮＩＮＥ,,株式会社,東京都,台東区,浅草橋１丁目３２番６号,,13,106,1110053,,,2022-08-02,清算の結了等,,,2015-10-05,1,,,,,クラウドナイン,0
426,2040002057545,登記記録の閉鎖等,0,2022-08-04,2022-07-25,有限会社匠,,有限会社,千葉県,印西市,大塚３丁目３９番２０,,12,231,2701352,,,2022-07-25,清算の結了等,,,2015-10-05,1,,,,,,0
447,2120001211474,登記記録の閉鎖等,0,2022-08-04,2022-08-03,株式会社ゴロー,,株式会社,大阪府,大阪市西区,九条３丁目２７番１号,,27,106,5500027,,,2022-08-03,清算の結了等,,,2018-02-19,1,,,,,ゴロー,0
490,2180002038291,登記記録の閉鎖等,0,2022-08-04,2022-08-01,有限会社ロングバケーション,,有限会社,愛知県,名古屋市中区,錦３丁目１３番１９号,,23,106,4600003,,,2022-08-01,合併による解散等,5180002029957,令和４年７月３１日名古屋市中村区名駅南一丁目８番３号株式会社ウィナーコーポレーション（5180002029957）に合併し解散,2015-10-05,1,,,,,ロングバケーション,0
499,2180305000015,登記記録の閉鎖等,0,2022-08-04,2022-08-01,ショッピングセンターアロー協同組合,,その他の設立登記法人,愛知県,岡崎市,中町５丁目８番地の４,,23,202,4440015,,,2022-08-01,清算の結了等,,,2015-10-05,1,,,,,ショッピングセンターアロー,0
504,2200001005892,登記記録の閉鎖等,0,2022-08-04,2022-08-02,株式会社レデイスモード郷,,株式会社,岐阜県,岐阜市,御望１丁目１９番地の３,,21,201,5011171,,,2022-08-02,清算の結了等,,,2015-10-05,1,,,,,レデイスモードゴウ,0
514,2240001053293,登記記録の閉鎖等,0,2022-08-04,2022-08-02,株式会社ＳＫＴ,,株式会社,広島県,広島市安佐北区,口田２丁目２５番６号,,34,106,7391734,,,2022-08-02,清算の結了等,,,2018-09-12,1,,,,,エスケーティー,0
526,2290002004605,登記記録の閉鎖等,0,2022-08-04,2022-07-26,有限会社九州ゴンドラリース,,有限会社,福岡県,福岡市東区,若宮３丁目１７番２号,,40,131,8130036,,,2022-07-26,清算の結了等,,,2015-10-05,1,,,,,キューシュウゴンドラリース,0
529,2300002000577,登記記録の閉鎖等,0,2022-08-04,2022-07-28,有限会社財基,,有限会社,佐賀県,佐賀市,八丁畷町３番１号,,41,201,8490925,,,2022-07-28,清算の結了等,,,2015-10-05,1,,,,,ザイキ,0
533,2330002004864,登記記録の閉鎖等,0,2022-08-04,2022-07-25,有限会社新光電設,,有限会社,熊本県,熊本市中央区,新町１丁目４番１０号,,43,101,8600004,,,2022-07-25,清算の結了等,,,2015-10-05,1,,,,,シンコウデンセツ,0
541,2350002014192,登記記録の閉鎖等,0,2022-08-04,2022-08-02,サンエー商事有限会社,,有限会社,宮崎県,都城市,南横市町８３９４番地３,,45,202,8850092,,,2022-08-02,清算の結了等,,,2015-10-05,1,,,,,サンエーショウジ,0
554,2400602000322,登記記録の閉鎖等,0,2022-08-04,2022-07-28,有限会社三共商事,,有限会社,岩手県,奥州市,水沢花園町２丁目５番２号,,03,215,0230829,,,2022-07-28,清算の結了等,,,2015-10-05,1,,,,,,0
569,2500002018574,登記記録の閉鎖等,0,2022-08-04,2022-08-01,大松内装有限会社,,有限会社,愛媛県,今治市,湯ノ浦１４番地,,38,202,7991525,,,2022-08-01,清算の結了等,,,2015-10-05,1,,,,,オオマツナイソウ,0
572,3010001077001,登記記録の閉鎖等,0,2022-08-04,2022-07-29,株式会社リュウツウオウ・トレーディング,,株式会社,東京都,江東区,三好４丁目８－２－６０４号,,13,108,1350022,,,2022-07-29,清算の結了等,,,2015-10-05,1,,,,,リュウツウオウトレーディング,0
579,3010002006974,登記記録の閉鎖等,0,2022-08-04,2022-07-19,有限会社アクティトレード,,有限会社,東京都,千代田区,東神田１丁目１１番７号,,13,101,1010031,,,2022-07-19,清算の結了等,,,2015-10-05,1,,,,,アクティトレード,0
585,3010005012986,登記記録の閉鎖等,0,2022-08-04,2022-07-25,エグザゴン１特定目的会社,,その他の設立登記法人,東京都,千代田区,丸の内３丁目１番１号東京共同会計事務所内,,13,101,1000005,,,2022-07-25,清算の結了等,,,2015-10-05,1,,,,,エグザゴンワン,0
591,3010401060102,登記記録の閉鎖等,0,2022-08-04,2022-07-19,トラベルスカイテクノロジー日本株式会社,,株式会社,東京都,千代田区,麹町４丁目５番２０号ＫＳビル８階,,13,101,1020083,,,2022-07-19,清算の結了等,,,2015-10-05,1,,,,,トラベルスカイテクノロジーニホン,0
604,3010701003561,登記記録の閉鎖等,0,2022-08-04,2022-08-01,サンエステート株式会社,,株式会社,東京都,品川区,東中延１丁目７番２０号,,13,109,1420052,,,2022-08-01,清算の結了等,,,2015-10-05,1,,,,,サンエステート,0
618,3010902001620,登記記録の閉鎖等,0,2022-08-04,2022-07-29,有限会社市川乳業,,有限会社,東京都,世田谷区,下馬１丁目４３番７号,,13,112,1540002,,,2022-07-29,清算の結了等,,,2015-10-05,1,,,,,イチカワニュウギョウ,0
619,3010902015471,登記記録の閉鎖等,0,2022-08-04,2022-08-01,有限会社屋島,,有限会社,東京都,世田谷区,松原２丁目４２番１５号,,13,112,1560043,,,2022-08-01,清算の結了等,,,2015-10-05,1,,,,,ヤシマ,0
653,3013301006091,登記記録の閉鎖等,0,2022-08-04,2022-08-02,株式会社スタジオクリエィテブアンドコミニケーション,,株式会社,東京都,豊島区,北大塚２丁目１２番１号,,13,116,1700004,,,2022-08-02,清算の結了等,,,2015-10-05,1,,,,,スタジオクリエイテブアンドコミニケーション,0
660,3020001062720,登記記録の閉鎖等,0,2022-08-04,2022-07-26,株式会社ユービルドテクノス,,株式会社,神奈川県,横浜市青葉区,桂台２丁目３７番地３－１１５,,14,117,2270034,,,2022-07-26,清算の結了等,,,2015-10-05,1,,,,,ユービルドテクノス,0
662,3020001108804,登記記録の閉鎖等,0,2022-08-04,2022-07-28,株式会社藤山屋,,株式会社,神奈川県,横浜市港南区,上永谷４丁目１９番７号,,14,111,2330012,,,2022-07-28,清算の結了等,,,2015-10-05,1,,,,,フジヤマヤ,0
687,3021002025138,登記記録の閉鎖等,0,2022-08-04,2022-08-01,有限会社山本タイル工業,,有限会社,神奈川県,相模原市南区,大野台７丁目２６番１６号,,14,153,2520331,,,2022-08-01,清算の結了等,,,2015-10-05,1,,,,,ヤマモトタイルコウギョウ,0
691,3021002035772,登記記録の閉鎖等,0,2022-08-04,2022-08-01,有限会社エポック柳川,,有限会社,神奈川県,愛甲郡愛川町,中津３５７２番地の４,,14,401,2430303,,,2022-08-01,合併による解散等,4021002034393,令和４年８月１日神奈川県愛甲郡愛川町中津３５７２番地の４株式会社柳川酒店（4021002034393）に合併し解散,2015-10-05,1,,,,,エポックヤナガワ,0
702,3030002057941,登記記録の閉鎖等,0,2022-08-04,2022-07-25,有限会社今井設計,,有限会社,埼玉県,上尾市,大字小敷谷１番地１７,,11,219,3620064,,,2022-07-25,清算の結了等,,,2015-10-05,1,,,,,イマイセッケイ,0
724,3080002013733,登記記録の閉鎖等,0,2022-08-04,2022-08-02,有限会社竹屋,,有限会社,静岡県,島田市,井口８２７番地,,22,209,4270104,,,2022-08-02,清算の結了等,,,2015-10-05,1,,,,,タケヤ,0
728,3090001003370,登記記録の閉鎖等,0,2022-08-04,2022-07-29,株式会社イーエルイー,,株式会社,山梨県,甲斐市,龍地２７８３－３,,19,210,4000104,,,2022-07-29,合併による解散等,2010001012074,令和４年７月１日東京都文京区西片一丁目１５番１５号株式会社トモズ（2010001012074）に合併し解散,2015-10-05,1,,,,,イーエルイー,0
785,3180001070914,登記記録の閉鎖等,0,2022-08-04,2022-07-29,株式会社今村,,株式会社,愛知県,名古屋市緑区,黒沢台１丁目２００１番地,,23,114,4580003,,,2022-07-29,清算の結了等,,,2015-10-05,1,,,,,イマムラ,0
799,3180002054362,登記記録の閉鎖等,0,2022-08-04,2022-07-29,有限会社かめや製菓,,有限会社,愛知県,名古屋市中村区,塩池町１丁目２番１号,,23,105,4530032,,,2022-07-29,清算の結了等,,,2015-10-05,1,,,,,カメヤセイカ,0
805,3190002000200,登記記録の閉鎖等,0,2022-08-04,2022-08-01,有限会社ウエダ・フオト・スタジオ,,有限会社,三重県,津市,一身田上津部田３０２９番地メゾン５１０－１０１号,,24,201,5140061,,,2022-08-01,清算の結了等,,,2015-10-05,1,,,,,ウエダフォトスタジオ,0
810,3200002012318,登記記録の閉鎖等,0,2022-08-04,2022-08-02,有限会社上松タイル工業,,有限会社,岐阜県,大垣市,新馬場町２５番地,,21,202,5030921,,,2022-08-02,清算の結了等,,,2015-10-05,1,,,,,ウエマツタイルコウギョウ,0
811,3200002012615,登記記録の閉鎖等,0,2022-08-04,2022-07-19,有限会社ラビータエヴェッラ,,有限会社,岐阜県,大垣市,南頬町１丁目７０番地,00081014,21,202,5030864,,,2022-07-19,清算の結了等,,,2015-10-05,1,,,,,ラビータエベッラ,0
812,3210001018075,登記記録の閉鎖等,0,2022-08-04,2022-07-29,ＡＫＵＳＨＵ株式会社,,株式会社,福井県,福井市,中央３丁目５番１２号,,18,201,9100006,,,2022-07-29,合併による解散等,5210001014709,令和４年７月２５日福井県坂井市春江町藤鷲塚第４０号３５番地２株式会社ザカモア（5210001014709）に合併し解散,2020-07-09,1,,,,,アクシュ,0
813,3210002010106,登記記録の閉鎖等,0,2022-08-04,2022-08-01,有限会社梅島書店,,有限会社,福井県,敦賀市,白銀町７番１０号,,18,202,9140054,,,2022-08-01,清算の結了等,,,2015-10-05,1,,,,,ウメシマショテン,0
847,3290002029361,登記記録の閉鎖等,0,2022-08-04,2022-07-22,有限会社風の丘,,有限会社,福岡県,福岡市南区,柏原３丁目３３番３７号,,40,134,8111353,,,2022-07-22,清算の結了等,,,2015-10-05,1,,,,,カゼノオカ,0
853,3290801006263,登記記録の閉鎖等,0,2022-08-04,2022-07-27,段谷産業株式会社,,株式会社,福岡県,北九州市小倉北区,東港２丁目５番１２号,,40,106,8030802,,,2022-07-27,清算の結了等,,,2018-06-26,1,,,,,ダンタニサンギョウ,0
861,3310002020978,登記記録の閉鎖等,0,2022-08-04,2022-08-01,大黒海運有限会社,,有限会社,長崎県,壱岐市,石田町久喜触３９番地,,42,210,8115223,,,2022-08-01,清算の結了等,,,2022-04-08,1,,,,,ダイコクカイウン,0
874,3370002002517,登記記録の閉鎖等,0,2022-08-04,2022-07-20,有限会社大沼工業所,,有限会社,宮城県,仙台市太白区,郡山２丁目３番２７号,,04,104,9820003,,,2022-07-20,清算の結了等,,,2015-10-05,1,,,,,オオヌマコウギョウショ,0
887,3400602000602,登記記録の閉鎖等,0,2022-08-04,2022-08-01,有限会社ふっくらやー本舗,,有限会社,岩手県,奥州市,水沢宮下町８５番地,,03,215,0230817,,,2022-08-01,合併による解散等,7400603000077,令和４年８月１日岩手県奥州市胆沢小山字北長檀１７０番地１株式会社いさわ本舗（7400603000077）に合併し解散,2015-10-05,1,,,,,フックラヤーホンポ,0
891,3420003000316,登記記録の閉鎖等,0,2022-08-04,2022-07-29,アステール合同会社,,合同会社,青森県,青森市,緑３丁目８番地７,,02,201,0300845,,,2022-07-29,清算の結了等,,,2015-10-05,1,,,,,アステール,0
894,3430002030180,登記記録の閉鎖等,0,2022-08-04,2022-07-21,ティー・アイ・プランニング有限会社,,有限会社,北海道,札幌市清田区,真栄二条１丁目２番２号,,01,110,0040832,,,2022-07-21,清算の結了等,,,2015-10-05,1,,,,,ティーアイプランニング,0
895,3430002031781,登記記録の閉鎖等,0,2022-08-04,2022-07-25,有限会社スギモトデザイン事務所,,有限会社,北海道,札幌市豊平区,月寒東一条６丁目２番１２号,,01,105,0620051,,,2022-07-25,清算の結了等,,,2015-10-05,1,,,,,スギモトデザインジムショ,0
917,4010001195990,登記記録の閉鎖等,0,2022-08-04,2022-08-01,株式会社ＨＯＳカンパニー,,株式会社,東京都,新宿区,高田馬場２丁目２番１号,,13,104,1690075,,,2022-08-01,清算の結了等,,,2018-10-31,1,,,,,エイチオーエスカンパニー,0
925,4010003018514,登記記録の閉鎖等,0,2022-08-04,2022-07-21,合同会社コムコム・コミュニケーションズ,,合同会社,東京都,千代田区,外神田２丁目１７番２号,,13,101,1010021,,,2022-07-21,清算の結了等,,,2015-10-05,1,,,,,コムコムコミュニケーションズ,0
935,4010501001327,登記記録の閉鎖等,0,2022-08-04,2022-08-02,株式会社英雲堂印刷所,,株式会社,東京都,台東区,浅草橋２丁目２７番１号,,13,106,1110053,,,2022-08-02,清算の結了等,,,2015-10-05,1,,,,,エイウンドウインサツショ,0
968,4011101055366,登記記録の閉鎖等,0,2022-08-04,2022-08-01,株式会社エースオブハーツ,,株式会社,東京都,新宿区,西新宿７丁目１７番１４号新宿シティ源共同ビル,,13,104,1600023,,,2022-08-01,合併による解散等,9011101037566,令和４年８月１日東京都新宿区西新宿七丁目１７番１４号新宿シティ源共同ビル株式会社スゴロク（9011101037566）に合併し解散,2015-10-05,1,,,,,エースオブハーツ,0
984,4011501002835,登記記録の閉鎖等,0,2022-08-04,2022-08-01,谷黒工業株式会社,,株式会社,東京都,北区,西が丘１丁目１１番５号,,13,117,1150056,,,2022-08-01,清算の結了等,,,2015-10-05,1,,,,,タニクロコウギョウ,0
985,4011701010563,登記記録の閉鎖等,0,2022-08-04,2022-08-01,株式会社大明,,株式会社,東京都,江戸川区,西小岩１丁目２２番１９号,,13,123,1330057,,,2022-08-01,合併による解散等,6011701013894,令和４年８月１日東京都江戸川区西小岩一丁目２２番１９号株式会社加持野商事大野屋（6011701013894）に合併し解散,2015-10-05,1,,,,,ダイメイ,0
990,4011802000190,登記記録の閉鎖等,0,2022-08-04,2022-08-02,赤城運送有限会社,,有限会社,東京都,葛飾区,白鳥１丁目４番５号,,13,122,1250063,,,2022-08-02,清算の結了等,,,2015-10-05,1,,,,,アカギウンソウ,0
1005,4020001080151,登記記録の閉鎖等,0,2022-08-04,2022-07-28,株式会社テクノボックス,,株式会社,神奈川県,川崎市麻生区,早野５８６番地,,14,137,2150016,,,2022-07-28,清算の結了等,,,2015-10-05,1,,,,,テクノボックス,0
1021,4021001064615,登記記録の閉鎖等,0,2022-08-04,2022-08-01,ｒｏｏｐ株式会社,,株式会社,神奈川県,相模原市中央区,中央６丁目７番１３号,,14,152,2520239,,,2022-08-01,清算の結了等,,,2018-04-19,1,,,,,ループ,0
1026,4021002021193,登記記録の閉鎖等,0,2022-08-04,2022-08-01,有限会社湘興エステート,,有限会社,神奈川県,相模原市南区,東林間２丁目１８番５号コーポパサニア２０３号室,,14,153,2520311,,,2022-08-01,清算の結了等,,,2015-10-05,1,,,,,ショウコウエステート,0
1043,4040002036646,登記記録の閉鎖等,0,2022-08-04,2022-07-27,有限会社マツダ食品,,有限会社,千葉県,市川市,新井３丁目２０番１０号,,12,203,2720144,,,2022-07-27,清算の結了等,,,2015-10-05,1,,,,,マツダショクヒン,0
1044,4040002059077,登記記録の閉鎖等,0,2022-08-04,2022-07-26,有限会社エー・ワイ,,有限会社,千葉県,印旛郡栄町,竜角寺台２丁目７番７号,,12,329,2701505,,,2022-07-26,清算の結了等,,,2015-10-05,1,,,,,エーワイ,0
1045,4050001016243,登記記録の閉鎖等,0,2022-08-04,2022-07-21,株式会社エーナ,,株式会社,東京都,千代田区,丸の内３丁目４番１号新国際ビル４階４１５Ａ,,13,101,1000005,,,2022-07-21,清算の結了等,,,2015-10-05,1,,,,,エーナ,0
1057,4110001014439,登記記録の閉鎖等,0,2022-08-04,2022-07-28,株式会社東映ムービル,,株式会社,新潟県,三条市,本町１丁目９番６号,,15,204,9550071,,,2022-07-28,清算の結了等,,,2015-10-05,1,,,,,トウエイムービル,0
1076,4120002051273,登記記録の閉鎖等,0,2022-08-04,2022-07-29,有限会社サンヨウ商事,,有限会社,大阪府,大阪市大正区,三軒家東２丁目２番２３－１０２０号,,27,108,5510002,,,2022-07-29,清算の結了等,,,2015-10-05,1,,,,,,0
1077,4120002051926,登記記録の閉鎖等,0,2022-08-04,2022-07-29,有限会社エムアールジーエム企画,,有限会社,大阪府,大阪市淀川区,西中島７丁目７番２号,,27,123,5320011,,,2022-07-29,清算の結了等,,,2015-10-05,1,,,,,,0
1087,4120901030682,登記記録の閉鎖等,0,2022-08-04,2022-08-03,立木産業株式会社,,株式会社,大阪府,吹田市,江坂町２丁目４番２５－３０４号,,27,205,5640063,,,2022-08-03,清算の結了等,,,2015-10-05,1,,,,,,0
1091,4122002004558,登記記録の閉鎖等,0,2022-08-04,2022-08-01,有限会社丸山泰弘商店,,有限会社,大阪府,東大阪市,長堂１丁目２０番２５号,,27,227,5770056,,,2022-08-01,清算の結了等,,,2015-10-05,1,,,,,マルヤマヤスヒロショウテン,0
1097,4130003007430,登記記録の閉鎖等,0,2022-08-04,2022-07-26,合同会社エブリデイ,,合同会社,京都府,木津川市,山城町平尾西黒部３１番地１ヴェルメゾンＩＩＩ号館１０２号,00124008,26,214,6190202,,,2022-07-26,清算の結了等,,,2021-08-24,1,,,,,エブリディ,0
1132,4180002070929,登記記録の閉鎖等,0,2022-08-04,2022-07-29,有限会社佐々テント商会,,有限会社,愛知県,小牧市,弥生町１５０番地,,23,219,4850071,,,2022-07-29,清算の結了等,,,2015-10-05,1,,,,,ササテントショウカイ,0
1174,4290002041308,登記記録の閉鎖等,0,2022-08-04,2022-07-21,有限会社ルートセキサン,,有限会社,福岡県,春日市,大谷９丁目４０番地,,40,218,8160831,,,2022-07-21,清算の結了等,,,2015-10-05,1,,,,,ルートセキサン,0
1214,4380005012164,登記記録の閉鎖等,0,2022-08-04,2022-07-29,一般社団法人まちづくり矢吹,,その他の設立登記法人,福島県,西白河郡矢吹町,中町２５９番地,,07,466,9690221,,,2022-07-29,清算の結了等,,,2019-05-28,1,,,,,マチヅクリヤブキ,0
1219,4410002012709,登記記録の閉鎖等,0,2022-08-04,2022-07-25,野村商事有限会社,,有限会社,秋田県,仙北市,角館町小館１３８番地の１,,05,215,0140372,,,2022-07-25,清算の結了等,,,2022-03-22,1,,,,,,0
1221,4420002001818,登記記録の閉鎖等,0,2022-08-04,2022-08-01,有限会社タイコウ産業,,有限会社,青森県,青森市,西滝１丁目８番４号,,02,201,0380014,,,2022-08-01,清算の結了等,,,2015-10-05,1,,,,,タイコウサンギョウ,0
1227,4430001035089,登記記録の閉鎖等,0,2022-08-04,2022-07-25,株式会社藤,,株式会社,北海道,札幌市白石区,菊水一条４丁目６番３０－１０７号,,01,104,0030801,,,2022-07-25,清算の結了等,,,2015-10-05,1,,,,,フジ,0
1250,5010001157800,登記記録の閉鎖等,0,2022-08-04,2022-07-15,株式会社ＳＷＣ,,株式会社,東京都,港区,麻布永坂町１番地,,13,103,1060043,,,2022-07-15,清算の結了等,,,2015-10-05,1,,,,,エスダブリューシー,0
1264,5010403006175,登記記録の閉鎖等,0,2022-08-04,2022-07-13,合同会社ＴＳＭフィフティー,,合同会社,東京都,港区,元赤坂１丁目１番７号,,13,103,1070051,,,2022-07-13,清算の結了等,,,2015-10-05,1,,,,,ティーエスエムフィフティー,0
1265,5010403015399,登記記録の閉鎖等,0,2022-08-04,2022-07-15,スペリオル合同会社,,合同会社,東京都,港区,六本木１丁目６番１号泉ガーデンタワー,,13,103,1060032,,,2022-07-15,清算の結了等,,,2016-09-23,1,,,,,スペリオル,0
1266,5010501029409,登記記録の閉鎖等,0,2022-08-04,2022-08-01,株式会社東叡地所,,株式会社,東京都,台東区,池之端１丁目１番１号,,13,106,1100008,,,2022-08-01,合併による解散等,8010502019372,令和４年８月１日東京都台東区池之端一丁目１番１号株式会社萬年堂（8010502019372）に合併し解散,2015-10-05,1,,,,,トウエイジショ,0
1270,5010701013220,登記記録の閉鎖等,0,2022-08-04,2022-08-01,日本サンライズ株式会社,,株式会社,神奈川県,藤沢市,南藤沢２０番１７号,,14,205,2510055,,,2022-08-01,合併による解散等,4010701011761,令和４年８月１日神奈川県藤沢市南藤沢２０番１７号ジャパンアンコールコンピュータ株式会社（4010701011761）に合併し解散,2015-10-05,1,,,,,ニホンサンライズ,0
1293,5011102019170,登記記録の閉鎖等,0,2022-08-04,2022-08-01,有限会社マークソリューションズ,,有限会社,東京都,新宿区,新宿１丁目２３番６号グローイン新宿御苑２０８号,,13,104,1600022,,,2022-08-01,清算の結了等,,,2015-10-05,1,,,,,マークソリューションズ,0
1303,5012401034901,登記記録の閉鎖等,0,2022-08-04,2022-08-01,星辰化粧品株式会社,,株式会社,東京都,台東区,上野３丁目１１番５号,,13,106,1100005,,,2022-08-01,清算の結了等,,,2019-02-01,1,,,,,ホシタツケショウヒン,0
1306,5012402019604,登記記録の閉鎖等,0,2022-08-04,2022-08-01,有限会社冨士電化研究所,,有限会社,東京都,三鷹市,下連雀７丁目１番３３号,,13,204,1810013,,,2022-08-01,清算の結了等,,,2015-10-05,1,,,,,フジデンカケンキュウショ,0
1318,5020001016162,登記記録の閉鎖等,0,2022-08-04,2022-07-27,森川工業株式会社,,株式会社,神奈川県,横浜市瀬谷区,橋戸１丁目２２番地２ホークメゾン瀬谷２０６号室,,14,114,2460037,,,2022-07-27,清算の結了等,,,2015-10-05,1,,,,,モリカワコウギョウ,0
1329,5020002025773,登記記録の閉鎖等,0,2022-08-04,2022-07-27,有限会社オート横浜サービス工業,,有限会社,神奈川県,横浜市神奈川区,三ツ沢南町１３番１７号,,14,102,2210854,,,2022-07-27,清算の結了等,,,2015-10-05,1,,,,,オートヨコハマサービスコウギョウ,0
1365,5050001001442,登記記録の閉鎖等,0,2022-08-04,2022-07-28,株式会社ＳＤ企画,,株式会社,茨城県,水戸市,南町１丁目３番２３号金沢ビル５階,,08,201,3100021,,,2022-07-28,清算の結了等,,,2015-10-05,1,,,,,エスディーキカク,0
1378,5080401024115,登記記録の閉鎖等,0,2022-08-04,2022-07-29,リノクロ不動産株式会社,,株式会社,静岡県,浜松市東区,積志町５０１番地グリュック１０１,,22,132,4313114,,,2022-07-29,清算の結了等,,,2020-02-07,1,,,,,リノクロフドウサン,0
1389,5110002008232,登記記録の閉鎖等,0,2022-08-04,2022-08-01,有限会社マルマ工業,,有限会社,新潟県,新潟市江南区,亀田水道町１丁目２番２号,,15,104,9500123,,,2022-08-01,清算の結了等,,,2015-10-05,1,,,,,マルマコウギョウ,0
1391,5120001023751,登記記録の閉鎖等,0,2022-08-04,2022-08-01,シーラ株式会社,,株式会社,大阪府,大阪市天王寺区,国分町５番３号サンロード国分８０１,,27,109,5430044,,,2022-08-01,清算の結了等,,,2015-10-05,1,,,,,シーラ,0
1397,5120001157896,登記記録の閉鎖等,0,2022-08-04,2022-07-29,株式会社ナカタニ,,株式会社,大阪府,門真市,宮野町１３番３６号,,27,223,5710062,,,2022-07-29,清算の結了等,,,2015-10-05,1,,,,,,0
1400,5120001241576,登記記録の閉鎖等,0,2022-08-04,2022-08-01,有馬建設株式会社,,株式会社,大阪府,枚方市,禁野本町１丁目２番３５号,,27,210,5731197,,,2022-08-01,合併による解散等,5120001203510,令和４年８月１日大阪府枚方市禁野本町一丁目２番３５号株式会社有馬不動産（5120001203510）に合併し解散,2021-11-05,1,,,,,アリマケンセツ,0
1418,5130001052072,登記記録の閉鎖等,0,2022-08-04,2022-07-28,辻井木材ホールディングス株式会社,00036684,株式会社,京都府,京都市中京区,西ノ京南聖町１３番地,,26,104,6048412,,,2022-07-28,清算の結了等,,,2015-10-05,1,,,,,ツジイモクザイホールディングス,0
1433,5140002000954,登記記録の閉鎖等,0,2022-08-04,2022-08-01,有限会社アーク,,有限会社,兵庫県,神戸市中央区,山本通４丁目１２－１０,,28,110,6500003,,,2022-08-01,清算の結了等,,,2015-10-05,1,,,,,アーク,0
1437,5140002062540,登記記録の閉鎖等,0,2022-08-04,2022-08-01,有限会社北条石油,,有限会社,兵庫県,加西市,市村町１２９番地の１,,28,220,6752337,,,2022-08-01,清算の結了等,,,2015-10-05,1,,,,,ホウジョウセキユ,0
1439,5150001007768,登記記録の閉鎖等,0,2022-08-04,2022-08-02,株式会社アスカリビング,,株式会社,奈良県,生駒市,鹿ノ台西２丁目７番地８,,29,209,6300114,,,2022-08-02,清算の結了等,,,2015-10-05,1,,,,,アスカリビング,0
1441,5170002006123,登記記録の閉鎖等,0,2022-08-04,2022-08-02,有限会社スリープログレス,,有限会社,和歌山県,和歌山市,西浜１６６０番地の１８０,,30,201,6410036,,,2022-08-02,清算の結了等,,,2015-10-05,1,,,,,スリープログレス,0
1445,5180001100685,登記記録の閉鎖等,0,2022-08-04,2022-08-01,ＮＤＫセミコンダクタ株式会社,,株式会社,愛知県,名古屋市中区,錦３丁目８番１４号,,23,106,4600003,,,2022-08-01,清算の結了等,,,2015-10-05,1,,,,,エヌディーケーセミコンダクタ,0
1457,5200002001681,登記記録の閉鎖等,0,2022-08-04,2022-08-02,有限会社郷企画,,有限会社,岐阜県,岐阜市,御望１丁目１９番地の３,,21,201,5011171,,,2022-08-02,清算の結了等,,,2015-10-05,1,,,,,ゴウキカク,0
1465,5230001016224,登記記録の閉鎖等,0,2022-08-04,2022-08-01,株式会社富山駅前市場,,株式会社,富山県,富山市,南央町３７番地６,,16,201,9398232,,,2022-08-01,清算の結了等,,,2015-12-21,1,,,,,トヤマエキマエイチバ,0
1470,5250001015612,登記記録の閉鎖等,0,2022-08-04,2022-08-01,株式会社総和テック,,株式会社,山口県,宇部市,大字際波２３６１番地９,,35,202,7590207,,,2022-08-01,清算の結了等,,,2015-10-26,1,,,,,ソウワテック,0
1483,5290005010853,登記記録の閉鎖等,0,2022-08-04,2022-08-03,医療法人まつせ会,,その他の設立登記法人,福岡県,久留米市,荒木町荒木字東山１９６６番３,,40,203,8300063,,,2022-08-03,清算の結了等,,,2015-10-05,1,,,,,マツセカイ,0
1487,5300002011068,登記記録の閉鎖等,0,2022-08-04,2022-07-28,有限会社カワサキ,,有限会社,佐賀県,唐津市,呼子町呼子３７６４番地２９,,41,202,8470303,,,2022-07-28,清算の結了等,,,2015-10-05,1,,,,,カワサキ,0
1510,5380001026349,登記記録の閉鎖等,0,2022-08-04,2022-07-28,株式会社グランドリーム,,株式会社,福島県,会津若松市,中町２番７８号ホテルニューパレス１階,,07,202,9650878,,,2022-07-28,清算の結了等,,,2016-01-12,1,,,,,グランドリーム,0
1527,5450001007408,登記記録の閉鎖等,0,2022-08-04,2022-07-28,株式会社アウル,,株式会社,北海道,中川郡美深町,字大手３０７番地の１,,01,469,0982362,,,2022-07-28,合併による解散等,6450001007431,令和４年７月３日北海道中川郡美深町字紋穂内１３９番地株式会社美深振興公社（6450001007431）に合併し解散,2015-10-05,1,,,,,アウル,0
1532,5500001022228,登記記録の閉鎖等,0,2022-08-04,2022-08-02,株式会社フューチャー．Ｃ,,株式会社,愛媛県,松山市,西長戸町２６０番地６,,38,201,7918017,,,2022-08-02,清算の結了等,,,2019-09-24,1,,,,,フューチャードットシー,0
1535,5500002011865,登記記録の閉鎖等,0,2022-08-04,2022-08-01,有限会社ベル・ジュバンスサロン・セブン,,有限会社,愛媛県,大洲市,若宮７１５番地２,,38,207,7950052,,,2022-08-01,清算の結了等,,,2015-10-05,1,,,,,ベルジュバンスサロンセブン,0
1551,6010005027610,登記記録の閉鎖等,0,2022-08-04,2022-07-25,一般社団法人薬研坂,,その他の設立登記法人,東京都,千代田区,平河町１丁目６番１５号シルスフィア会計事務所内,,13,101,1020093,,,2022-07-25,清算の結了等,,,2017-10-18,1,,,,,ヤゲンザカ,0
1562,6010402027064,登記記録の閉鎖等,0,2022-08-04,2022-07-21,有限会社エアー・ユートピア,,有限会社,東京都,千代田区,丸の内１丁目１番１号,,13,101,1000005,,,2022-07-21,清算の結了等,,,2015-10-05,1,,,,,エアーユートピア,0
1563,6010403013740,登記記録の閉鎖等,0,2022-08-04,2022-07-13,ＪＨ２合同会社,,合同会社,東京都,港区,元赤坂１丁目１番７号,,13,103,1070051,,,2022-07-13,清算の結了等,,,2015-10-05,1,,,,,ジェイエイチツー,0
1564,6010403014350,登記記録の閉鎖等,0,2022-08-04,2022-07-29,ナチュラルナイン合同会社,,合同会社,東京都,世田谷区,太子堂１丁目１２番２７号コンフォートテラス１００５号,,13,112,1540004,,,2022-07-29,清算の結了等,,,2016-01-26,1,,,,,ナチュラルナイン,0
1567,6010501047847,登記記録の閉鎖等,0,2022-08-04,2022-08-01,ＢＯＩＪ株式会社,,株式会社,東京都,台東区,上野３丁目１１番５号,,13,106,1100005,,,2022-08-01,清算の結了等,,,2021-10-01,1,,,,,ボイジュ,0
1569,6010502015786,登記記録の閉鎖等,0,2022-08-04,2022-08-01,有限会社ラインドット,,有限会社,東京都,台東区,鳥越１丁目２１番６号,,13,106,1110054,,,2022-08-01,清算の結了等,,,2015-10-05,1,,,,,ラインドット,0
1607,6011601023820,登記記録の閉鎖等,0,2022-08-04,2022-07-29,株式会社ハクエイシャ,,株式会社,東京都,練馬区,南大泉１丁目２２番４９号,,13,120,1780064,,,2022-07-29,清算の結了等,,,2019-12-05,1,,,,,ハクエイシャ,0
1612,6011802004529,登記記録の閉鎖等,0,2022-08-04,2022-08-01,大光電気通信有限会社,,有限会社,東京都,葛飾区,奥戸７丁目１０番４号,,13,122,1240022,,,2022-08-01,清算の結了等,,,2015-10-05,1,,,,,ダイコウデンキツウシン,0
1648,6030001074142,登記記録の閉鎖等,0,2022-08-04,2022-07-25,株式会社岡田工機製作所,00015283,株式会社,埼玉県,川口市,江戸３丁目２番１２号,,11,203,3340074,,,2022-07-25,清算の結了等,,,2015-10-05,1,,,,,オカダコウキセイサクショ,0
1724,6140001102759,登記記録の閉鎖等,0,2022-08-04,2022-08-01,株式会社ねくすと,,株式会社,兵庫県,西宮市,段上町１丁目１０番２号甲東園エクセル１０１号,,28,204,6638006,,,2022-08-01,清算の結了等,,,2016-07-20,1,,,,,ネクスト,0
1730,6140005010891,登記記録の閉鎖等,0,2022-08-04,2022-08-01,学校法人常性幼稚園,,その他の設立登記法人,兵庫県,尼崎市,西難波町１丁目２８番２０号,,28,202,6600893,,,2022-08-01,清算の結了等,,,2015-10-05,1,,,,,ジョウショウヨウチエン,0
1741,6180001021971,登記記録の閉鎖等,0,2022-08-04,2022-08-01,株式会社新巧製作所,,株式会社,愛知県,名古屋市熱田区,西野町１丁目５６番地,,23,109,4560063,,,2022-08-01,清算の結了等,,,2015-10-05,1,,,,,シンコウセイサクジョ,0
1748,6180001137751,登記記録の閉鎖等,0,2022-08-04,2022-08-01,ＮＩＮＥ＆ＰＡＲＴＮＥＲＳ株式会社,,株式会社,愛知県,名古屋市中区,錦３丁目１５番１５号,,23,106,4600003,,,2022-08-01,合併による解散等,8180001080784,令和４年８月１日愛知県犬山市大字犬山字東古券３１番地キューホールディングス株式会社（8180001080784）に合併し解散,2019-08-14,1,,,,,ナインアンドパートナーズ,0
1760,6180302004163,登記記録の閉鎖等,0,2022-08-04,2022-07-29,有限会社プロミス．Ｔ．Ｃ．,,有限会社,愛知県,岡崎市,桜井寺町字川向２１番地１,,23,202,4443626,,,2022-07-29,清算の結了等,,,2015-10-05,1,,,,,プロミスティーシー,0
1771,6240001025751,登記記録の閉鎖等,0,2022-08-04,2022-08-01,呉サンソ株式会社,,株式会社,広島県,呉市,昭和町１１番１号,,34,202,7370027,,,2022-08-01,清算の結了等,,,2015-10-05,1,,,,,クレサンソ,0
1790,6290002044556,登記記録の閉鎖等,0,2022-08-04,2022-07-28,有限会社グリーンアース,,有限会社,福岡県,嘉麻市,中益４９７－１,,40,227,8200303,,,2022-07-28,清算の結了等,,,2015-10-05,1,,,,,グリーンアース,0
1796,6310005007334,登記記録の閉鎖等,0,2022-08-04,2022-08-02,特定非営利活動法人長崎リンパ浮腫研究会,,その他の設立登記法人,長崎県,佐世保市,皆瀬町６５３番地１,,42,202,8570144,,,2022-08-02,清算の結了等,,,2015-10-05,1,,,,,ナガサキリンパフシュケンキュウカイ,0
1809,6350005005821,登記記録の閉鎖等,0,2022-08-04,2022-08-01,みやざき福祉事業協同組合,,その他の設立登記法人,宮崎県,宮崎市,別府町４番１９号,,45,201,8800802,,,2022-08-01,清算の結了等,,,2019-02-01,1,,,,,ミヤザキフクシ,0
1810,6360001024320,登記記録の閉鎖等,0,2022-08-04,2022-07-25,株式会社Ｍ．Ｂ．Ｆ,,株式会社,沖縄県,那覇市,上之屋１丁目１１番８号２ーＡ,,47,201,9000011,,,2022-07-25,清算の結了等,,,2018-07-25,1,,,,,エムビエフ,0
1812,6360002015715,登記記録の閉鎖等,0,2022-08-04,2022-07-22,有限会社国際観光開発,,有限会社,沖縄県,浦添市,字経塚２４３番地の３,,47,208,9012111,,,2022-07-22,清算の結了等,,,2015-10-05,1,,,,,コクサイカンコウカイハツ,0
1836,6430002028858,登記記録の閉鎖等,0,2022-08-04,2022-07-22,有限会社アイ・ケープランニング,,有限会社,北海道,札幌市西区,発寒一条３丁目１０番７号,,01,107,0630821,,,2022-07-22,清算の結了等,,,2015-10-05,1,,,,,アイケープランニング,0
1856,7010001073921,登記記録の閉鎖等,0,2022-08-04,2022-08-01,株式会社ブレーンバンク,,株式会社,徳島県,吉野川市,鴨島町上下島４４０番地,,36,205,7760013,,,2022-08-01,清算の結了等,,,2015-10-05,1,,,,,ブレーンバンク,0
1863,7010001213535,登記記録の閉鎖等,0,2022-08-04,2022-07-28,Ｚｏｇｅｎｉｘ　Ｊａｐａｎ株式会社,,株式会社,東京都,千代田区,内幸町１丁目１番１号,,13,101,1000011,,,2022-07-28,合併による解散等,9011101063273,令和４年７月１日東京都新宿区西新宿八丁目１７番１号ユーシービージャパン株式会社（9011101063273）に合併し解散,2020-11-06,1,,,,,ゾジェニックスジャパン,0
1873,7010405015148,登記記録の閉鎖等,0,2022-08-04,2022-07-15,一般社団法人エベレスト,,その他の設立登記法人,東京都,港区,六本木１丁目６番１号泉ガーデンタワー,,13,103,1060032,,,2022-07-15,清算の結了等,,,2016-09-20,1,,,,,エベレスト,0
1874,7010405020049,登記記録の閉鎖等,0,2022-08-04,2022-07-12,一般社団法人日比谷蓮愚狼事務所,,その他の設立登記法人,東京都,港区,赤坂２丁目５－８ヒューリックＪＰ赤坂ビル３Ｆ,,13,103,1070052,,,2022-07-12,清算の結了等,,,2021-08-05,1,,,,,ヒビヤレングロウジムショ,0
1876,7010601032392,登記記録の閉鎖等,0,2022-08-04,2022-07-28,株式会社リスコビジネス,,株式会社,東京都,江東区,辰巳３丁目１８番１４号,,13,108,1350053,,,2022-07-28,清算の結了等,,,2015-10-05,1,,,,,リスコビジネス,0
1877,7010601053034,登記記録の閉鎖等,0,2022-08-04,2022-07-29,株式会社ジャパン・インターナショナル・ネットワーク,,株式会社,東京都,墨田区,緑２丁目１３番５号,,13,107,1300021,,,2022-07-29,清算の結了等,,,2018-03-23,1,,,,,ジャパンインターナショナルネットワーク,0
1889,7011001125324,登記記録の閉鎖等,0,2022-08-04,2022-08-02,株式会社エヌエイパートナーズジャパン,,株式会社,東京都,渋谷区,桜丘町２３番１７号,,13,113,1500031,,,2022-08-02,清算の結了等,,,2018-11-22,1,,,,,エヌエイパートナーズジャパン,0
1910,7011301022097,登記記録の閉鎖等,0,2022-08-04,2022-08-02,麗人麗粧日本株式会社,,株式会社,東京都,杉並区,下高井戸２丁目１０番３号３２２号室,,13,115,1680073,,,2022-08-02,清算の結了等,,,2016-03-11,1,,,,,レイジンレイショウニホン,0
1919,7011801026449,登記記録の閉鎖等,0,2022-08-04,2022-08-01,株式会社マルゼン,,株式会社,東京都,足立区,入谷９丁目７番１２号渡辺ビル２０２,,13,121,1210836,,,2022-08-01,清算の結了等,,,2015-10-05,1,,,,,マルゼン,0
1921,7011802005385,登記記録の閉鎖等,0,2022-08-04,2022-08-01,有限会社東洋ホーム建設,,有限会社,東京都,葛飾区,新宿５丁目７番２０号,,13,122,1250051,,,2022-08-01,清算の結了等,,,2015-10-05,1,,,,,トウヨウホームケンセツ,0
1930,7013301045598,登記記録の閉鎖等,0,2022-08-04,2022-07-29,ＧＪＰ　Ｉｎｎｏｖａｔｉｏｎ株式会社,,株式会社,東京都,台東区,上野７丁目６番５号ＶＯＲＴ上野ＩＩＡ棟２階,00121889,13,106,1100005,,,2022-07-29,合併による解散等,7013301038932,令和４年７月２９日東京都台東区上野七丁目６番５号ＶＯＲＴ上野ＩＩＡ棟２階Ｇｏ　Ｊａｐａｎ株式会社（7013301038932）に合併し解散,2020-05-08,1,,,,,ジージェイピーイノベーション,0
1934,7013303004247,登記記録の閉鎖等,0,2022-08-04,2022-08-02,合同会社トータルエージェント,,合同会社,東京都,豊島区,西池袋１丁目２９番１４号,,13,116,1710021,,,2022-08-02,清算の結了等,,,2018-07-18,1,,,,,トータルエージェント,0
1937,7020001042520,登記記録の閉鎖等,0,2022-08-04,2022-07-26,株式会社ＡＦＣ,,株式会社,神奈川県,横浜市旭区,南本宿町９９番地の１,,14,112,2410833,,,2022-07-26,清算の結了等,,,2015-10-05,1,,,,,エーエフシー,0
1955,7021002043144,登記記録の閉鎖等,0,2022-08-04,2022-08-02,有限会社いしがき,,有限会社,神奈川県,座間市,東原２丁目１０番３４号,,14,216,2520004,,,2022-08-02,清算の結了等,,,2015-10-05,1,,,,,イシガキ,0
1969,7030003008956,登記記録の閉鎖等,0,2022-08-04,2022-07-25,合同会社佐々木水菓子屋,,合同会社,埼玉県,所沢市,元町１番１１－１０２号,,11,208,3591121,,,2022-07-25,清算の結了等,,,2016-06-20,1,,,,,,0
1992,7080001021056,登記記録の閉鎖等,0,2022-08-04,2022-08-02,小林国際株式会社,,株式会社,静岡県,静岡市葵区,上足洗２丁目６番３０号,,22,101,4200841,,,2022-08-02,清算の結了等,,,2016-07-22,1,,,,,コバヤシコクサイ,0
1999,7100001001113,登記記録の閉鎖等,0,2022-08-04,2022-08-01,株式会社サン・カラープロセス,,株式会社,長野県,長野市,大字風間字下河原２０３４番地４０,,20,201,3810023,,,2022-08-01,合併による解散等,5100001005256,令和４年８月１日長野市大橋南二丁目５番地１株式会社日商印刷（5100001005256）に合併し解散,2015-10-05,1,,,,,サンカラープロセス,0
2014,7120001137079,登記記録の閉鎖等,0,2022-08-04,2022-08-03,株式会社吉田総合研究所,,株式会社,大阪府,大阪市中央区,北浜東４番２４－３７０６号,,27,128,5400031,,,2022-08-03,清算の結了等,,,2015-10-05,1,,,,,ヨシダソウゴウケンキュウショ,0
2019,7120001219364,登記記録の閉鎖等,0,2022-08-04,2022-08-02,リバー不動産販売株式会社,,株式会社,大阪府,大阪市中央区,南久宝寺町１丁目３番９号,,27,128,5410058,,,2022-08-02,合併による解散等,9120101023053,令和４年８月１日大阪府堺市中区辻之８７７番地１株式会社リベルティーノ（9120101023053）に合併し解散,2019-03-06,1,,,,,リバーフドウサンハンバイ,0
2040,7120101047987,登記記録の閉鎖等,0,2022-08-04,2022-08-03,株式会社フィールドブリッジ,,株式会社,大阪府,大阪狭山市,西山台６丁目９番１３号,,27,231,5890022,,,2022-08-03,清算の結了等,,,2015-10-05,1,,,,,フィールドブリッジ,0
2044,7120901043013,登記記録の閉鎖等,0,2022-08-04,2022-08-01,株式会社ＳＭＴ,,株式会社,大阪府,吹田市,春日１丁目１番１５号,,27,205,5650853,,,2022-08-01,合併による解散等,9120902007270,令和４年８月１日大阪府吹田市春日一丁目１番１５号株式会社野中グリーン興産（9120902007270）に合併し解散,2020-07-27,1,,,,,エスエムティー,0
2052,7130002010754,登記記録の閉鎖等,0,2022-08-04,2022-07-28,有限会社京南蓄電池工業所,,有限会社,京都府,京都市伏見区,桃山町大島３８番地４８７,,26,109,6128006,,,2022-07-28,清算の結了等,,,2015-10-05,1,,,,,キョウナンチクデンチコウギョウショ,0
2055,7140001000383,登記記録の閉鎖等,0,2022-08-04,2022-08-02,株式会社三喜ホーム,,株式会社,兵庫県,芦屋市,宮塚町１６番４号,,28,206,6590062,,,2022-08-02,清算の結了等,,,2015-10-05,1,,,,,ミキホーム,0
2087,7180003009642,登記記録の閉鎖等,0,2022-08-04,2022-08-02,パートナーズ合同会社,,合同会社,愛知県,名古屋市守山区,大字上志段味字所下１０４３番地の１カフェ・ダイニングサユ内,,23,113,4630001,,,2022-08-02,清算の結了等,,,2015-10-05,1,,,,,パートナーズ,0
2088,7180003021878,登記記録の閉鎖等,0,2022-08-04,2022-08-01,合同会社ＡＭＩ,,合同会社,愛知県,名古屋市中区,千代田５丁目１１番３３号ＳＴＰＬＡＺＡＴＳＵＲＵＭＡＩ本館５階,,23,106,4600012,,,2022-08-01,清算の結了等,,,2020-12-01,1,,,,,エイエムアイ,0
2104,7200002000616,登記記録の閉鎖等,0,2022-08-04,2022-08-02,有限会社エスニツク渋谷,,有限会社,岐阜県,岐阜市,御望４５８番地の３０,,21,201,5011171,,,2022-08-02,清算の結了等,,,2015-10-05,1,,,,,エスニツクシブヤ,0
2107,7210001011381,登記記録の閉鎖等,0,2022-08-04,2022-08-01,株式会社エイテック,,株式会社,福井県,敦賀市,神楽町１丁目１番２０号,,18,202,9140063,,,2022-08-01,清算の結了等,,,2015-10-05,1,,,,,エイテック,0
2111,7240002023101,登記記録の閉鎖等,0,2022-08-04,2022-08-02,今田鉄筋有限会社,,有限会社,広島県,広島市安佐南区,伴東２丁目４２番１号,,34,105,7313164,,,2022-08-02,清算の結了等,,,2015-10-05,1,,,,,イマダテッキン,0
2123,7290002046353,登記記録の閉鎖等,0,2022-08-04,2022-08-01,有限会社一永,,有限会社,福岡県,嘉麻市,下山田８６９番地１４,,40,227,8210011,,,2022-08-01,合併による解散等,5290002046405,令和４年８月１日福岡県嘉麻市漆生１５６０番地５株式会社ＦＤＳ（5290002046405）に合併し解散,2015-10-05,1,,,,,イチエイ,0
2127,7290803003800,登記記録の閉鎖等,0,2022-08-04,2022-08-01,合同会社トラシネ,,合同会社,福岡県,北九州市八幡西区,泉ケ浦１丁目１５番２１号,,40,109,8070854,,,2022-08-01,清算の結了等,,,2021-04-30,1,,,,,トラシネ,0
2141,7360003009186,登記記録の閉鎖等,0,2022-08-04,2022-07-22,サウスウィンド宮古島合同会社,,合同会社,沖縄県,宮古島市,平良字久貝８６９番地１,,47,214,9060015,,,2022-07-22,清算の結了等,,,2018-11-22,1,,,,,サウスウィンドミヤコジマ,0
2146,7380002028383,登記記録の閉鎖等,0,2022-08-04,2022-07-29,有限会社クリーンビジネス,,有限会社,福島県,南相馬市,原町区錦町１丁目１４３番地,,07,212,9750031,,,2022-07-29,清算の結了等,,,2015-10-05,1,,,,,,0
2153,7430001000486,登記記録の閉鎖等,0,2022-08-04,2022-07-22,安斉倉庫株式会社,,株式会社,北海道,札幌市白石区,中央二条３丁目４番１５号,,01,104,0030012,,,2022-07-22,清算の結了等,,,2015-10-05,1,,,,,アンザイソウコ,0
2165,7450002001127,登記記録の閉鎖等,0,2022-08-04,2022-08-02,有限会社大竹洋服工場,,有限会社,北海道,旭川市,一条通５丁目右９号,,01,204,0700031,,,2022-08-02,清算の結了等,,,2015-10-05,1,,,,,オオタケヨウフクコウジョウ,0
2193,8010401109811,登記記録の閉鎖等,0,2022-08-04,2022-07-21,株式会社レコルト,,株式会社,東京都,千代田区,平河町１丁目９番８号,,13,101,1020093,,,2022-07-21,清算の結了等,,,2015-10-05,1,,,,,レコルト,0
2194,8010401113474,登記記録の閉鎖等,0,2022-08-04,2022-07-27,Ｓｅｎｓｕｓ　Ｊａｐａｎ株式会社,,株式会社,神奈川県,川崎市川崎区,小川町１４番地１９、３階,,14,131,2100023,,,2022-07-27,清算の結了等,,,2015-10-05,1,,,,,センサスジャパン,0
2204,8010801006690,登記記録の閉鎖等,0,2022-08-04,2022-07-28,大動工業株式会社,,株式会社,東京都,大田区,東六郷２丁目１５番３号ニュー雑色マンション３０７,,13,111,1440046,,,2022-07-28,清算の結了等,,,2015-10-05,1,,,,,ダイドウコウギョウ,0
2216,8010903003669,登記記録の閉鎖等,0,2022-08-04,2022-07-15,合同会社Ｓｕｎｎｙｖａｌｅ,,合同会社,東京都,港区,白金６丁目７番３号３０１,,13,103,1080072,,,2022-07-15,清算の結了等,,,2017-06-02,1,,,,,サニーベール,0
2229,8011003005622,登記記録の閉鎖等,0,2022-08-04,2022-07-19,合同会社Ｗｉｎｄ　Ｐｏｒｔ,,合同会社,東京都,目黒区,原町１丁目３０番２号,,13,110,1520011,,,2022-07-19,清算の結了等,,,2015-10-05,1,,,,,ウインドポート,0
2245,8011701022588,登記記録の閉鎖等,0,2022-08-04,2022-08-01,日本卓上工房株式会社,,株式会社,東京都,江戸川区,江戸川６丁目４１番地１,,13,123,1340013,,,2022-08-01,清算の結了等,,,2019-04-16,1,,,,,ニホンタクジョウコウボウ,0
2251,8012401017928,登記記録の閉鎖等,0,2022-08-04,2022-08-03,ナノ技研株式会社,,株式会社,東京都,青梅市,東青梅１丁目７番地１号パーセル東青梅３０３,,13,205,1980042,,,2022-08-03,清算の結了等,,,2015-10-05,1,,,,,ナノギケン,0
2258,8012803001199,登記記録の閉鎖等,0,2022-08-04,2022-07-29,合同会社ウィング,,合同会社,東京都,国立市,富士見台１丁目２６番地の９,,13,215,1860003,,,2022-07-29,合併による解散等,6430001038305,令和４年７月２８日東京都国立市富士見台一丁目２６番地の９ローヤルサービス株式会社（6430001038305）に合併し解散,2015-10-05,1,,,,,ウィング,0
2259,8013102003746,登記記録の閉鎖等,0,2022-08-04,2022-08-03,有限会社あきる野製作所,,有限会社,東京都,あきる野市,下代継９４番地６,,13,228,1970831,,,2022-08-03,清算の結了等,,,2015-10-05,1,,,,,,0
2261,8020001078423,登記記録の閉鎖等,0,2022-08-04,2022-07-25,株式会社パシフイック・コースト・インダストリー,,株式会社,神奈川県,川崎市川崎区,大島５丁目１５番５－５０４号,,14,131,2100834,,,2022-07-25,清算の結了等,,,2015-10-05,1,,,,,パシフイックコーストインダストリー,0
2267,8020002021836,登記記録の閉鎖等,0,2022-08-04,2022-07-28,有限会社田丸,,有限会社,神奈川県,横浜市旭区,川井宿町１１番地の１,,14,112,2410804,,,2022-07-28,清算の結了等,,,2015-10-05,1,,,,,タマル,0
2270,8020002039721,登記記録の閉鎖等,0,2022-08-04,2022-07-27,有限会社林工務店,,有限会社,神奈川県,横浜市鶴見区,浜町１丁目５番地の１４,,14,101,2300036,,,2022-07-27,清算の結了等,,,2015-10-05,1,,,,,ハヤシコウムテン,0
2275,8021001029143,登記記録の閉鎖等,0,2022-08-04,2022-08-02,株式会社エフケイ,,株式会社,神奈川県,海老名市,国分南２丁目４２番１０号,,14,215,2430405,,,2022-08-02,清算の結了等,,,2015-10-05,1,,,,,エフケイ,0
2288,8030001030572,登記記録の閉鎖等,0,2022-08-04,2022-07-25,株式会社植田工業,,株式会社,埼玉県,所沢市,大字日比田６８３番地３,,11,208,3590015,,,2022-07-25,清算の結了等,,,2015-10-05,1,,,,,,0
2302,8040002049223,登記記録の閉鎖等,0,2022-08-04,2022-07-26,有限会社やぐち電気販売,,有限会社,千葉県,松戸市,根本７９番地,,12,207,2710077,,,2022-07-26,清算の結了等,,,2015-10-05,1,,,,,ヤグチデンキハンバイ,0
2312,8080101008308,登記記録の閉鎖等,0,2022-08-04,2022-08-02,株式会社岳南総業,,株式会社,静岡県,富士市,桑崎３４０番地の１,,22,210,4170803,,,2022-08-02,清算の結了等,,,2015-10-05,1,,,,,ガクナンソウギョウ,0
2316,8080401019673,登記記録の閉鎖等,0,2022-08-04,2022-08-01,株式会社ケアコラボ,,株式会社,静岡県,浜松市中区,上島５丁目１０番１号,,22,131,4338122,,,2022-08-01,清算の結了等,,,2015-10-05,1,,,,,ケアコラボ,0
2322,8080402019193,登記記録の閉鎖等,0,2022-08-04,2022-08-01,有限会社丸敏青果配送センター,,有限会社,静岡県,御前崎市,池新田７２０番地の１,,22,223,4371612,,,2022-08-01,清算の結了等,,,2015-10-05,1,,,,,マルトシセイカハイソウセンター,0
2360,8140001113853,登記記録の閉鎖等,0,2022-08-04,2022-08-01,未来鋼業株式会社,,株式会社,兵庫県,三木市,別所町下石野１４４２－２,,28,215,6730453,,,2022-08-01,清算の結了等,,,2019-06-05,1,,,,,ミライコウギョウ,0
2390,8200002021132,登記記録の閉鎖等,0,2022-08-04,2022-07-28,有限会社カクセン,,有限会社,岐阜県,土岐市,泉郷町３丁目１番地,,21,212,5095147,,,2022-07-28,清算の結了等,,,2015-10-05,1,,,,,カクセン,0
2410,8260002033106,登記記録の閉鎖等,0,2022-08-04,2022-08-02,有限会社デンタルスタジオアベ,,有限会社,岡山県,玉野市,西田井地２２０８番地,,33,204,7060313,,,2022-08-02,清算の結了等,,,2015-10-05,1,,,,,デンタルスタジオアベ,0
2466,8470002019678,登記記録の閉鎖等,0,2022-08-04,2022-08-02,有限会社幸洋水産,,有限会社,香川県,東かがわ市,坂元７２０番地,,37,207,7692904,,,2022-08-02,清算の結了等,,,2022-07-15,1,,,,,コウヨウスイサン,0
2476,9010001023874,登記記録の閉鎖等,0,2022-08-04,2022-07-21,東正商事株式会社,,株式会社,東京都,千代田区,内神田２丁目１４番１０号,,13,101,1010047,,,2022-07-21,清算の結了等,,,2015-10-05,1,,,,,トウショウショウジ,0
2492,9010001204838,登記記録の閉鎖等,0,2022-08-04,2022-07-19,スキャン・エックス株式会社,,株式会社,東京都,千代田区,大手町２丁目６番１号朝日生命大手町ビル２階Ｆａｂｂｉｔ大手町内,,13,101,1000004,,,2022-07-19,清算の結了等,,,2019-10-21,1,,,,,スキャンエックス,0
2507,9010405016747,登記記録の閉鎖等,0,2022-08-04,2022-07-15,キングストン特定目的会社,,その他の設立登記法人,東京都,港区,六本木１丁目６番１号泉ガーデンタワー,,13,103,1060032,,,2022-07-15,清算の結了等,,,2018-05-28,1,,,,,キングストン,0
2521,9010801016623,登記記録の閉鎖等,0,2022-08-04,2022-07-26,株式会社ニーチタイム,,株式会社,東京都,大田区,千鳥２丁目２６番２－４０３号,,13,111,1460083,,,2022-07-26,清算の結了等,,,2015-10-05,1,,,,,ニーチタイム,0
2534,9011001124828,登記記録の閉鎖等,0,2022-08-04,2022-07-19,Ａｒｔｉｓｅｎｓｅ　Ｊａｐａｎ株式会社,,株式会社,東京都,渋谷区,渋谷２丁目１０番１５号,,13,113,1500002,,,2022-07-19,清算の結了等,,,2018-10-23,1,,,,,アーティセンスジャパン,0
2560,9011703002109,登記記録の閉鎖等,0,2022-08-04,2022-08-01,合同会社豊岡,,合同会社,東京都,江戸川区,東葛西５丁目３６番３号,,13,123,1340084,,,2022-08-01,清算の結了等,,,2018-10-01,1,,,,,トヨオカ,0
2567,9012803002626,登記記録の閉鎖等,0,2022-08-04,2022-08-03,Ｓｕｐｐ合同会社,,合同会社,東京都,国立市,西３丁目５－１１,,13,215,1860005,,,2022-08-03,清算の結了等,,,2021-10-13,1,,,,,サップ,0
2572,9020001065635,登記記録の閉鎖等,0,2022-08-04,2022-07-25,瑞穂興産株式会社,,株式会社,神奈川県,川崎市麻生区,白鳥１丁目１番２７号,,14,137,2150024,,,2022-07-25,清算の結了等,,,2015-10-05,1,,,,,,0
2574,9020001109763,登記記録の閉鎖等,0,2022-08-04,2022-07-27,株式会社ベクトリー,,株式会社,神奈川県,横浜市中区,元浜町３丁目２１番地２,,14,104,2310004,,,2022-07-27,清算の結了等,,,2015-10-05,1,,,,,ベクトリー,0
2578,9020002098320,登記記録の閉鎖等,0,2022-08-04,2022-07-27,有限会社東亜,,有限会社,神奈川県,川崎市川崎区,小田６丁目１５番１４号,,14,131,2100846,,,2022-07-27,清算の結了等,,,2015-10-05,1,,,,,,0
2585,9021001032096,登記記録の閉鎖等,0,2022-08-04,2022-08-01,古谷興業株式会社,,株式会社,神奈川県,足柄下郡箱根町,箱根１３８番地,,14,382,2500521,,,2022-08-01,清算の結了等,,,2015-10-05,1,,,,,,0
2589,9021002030834,登記記録の閉鎖等,0,2022-08-04,2022-08-01,有限会社今泉商店,,有限会社,神奈川県,厚木市,森の里４丁目３４番５号,,14,212,2430122,,,2022-08-01,清算の結了等,,,2015-10-05,1,,,,,イマイズミショウテン,0
2613,9040002100389,登記記録の閉鎖等,0,2022-08-04,2022-07-26,有限会社共栄ホーム,,有限会社,千葉県,南房総市,千倉町白間津２９９番地３,,12,234,2950027,,,2022-07-26,清算の結了等,,,2015-10-05,1,,,,,キョウエイホーム,0
2614,9040003016881,登記記録の閉鎖等,0,2022-08-04,2022-07-27,合同会社カナル,,合同会社,千葉県,君津市,中島９８２,,12,225,2991106,,,2022-07-27,清算の結了等,,,2021-01-27,1,,,,,カナル,0
2621,9080105002413,登記記録の閉鎖等,0,2022-08-04,2022-08-02,特定非営利活動法人自然と共生を考える会,,その他の設立登記法人,静岡県,三島市,加茂１９番地の１８,,22,206,4110023,,,2022-08-02,清算の結了等,,,2015-10-05,1,,,,,シゼントキョウセイヲカンガエルカイ,0
2631,9120001074774,登記記録の閉鎖等,0,2022-08-04,2022-08-02,株式会社井吉賀建設工業,,株式会社,大阪府,大阪市中央区,農人橋１丁目１番２９－３００６号,,27,128,5400011,,,2022-08-02,清算の結了等,,,2015-10-05,1,,,,,イヨシガケンセツコウギョウ,0
2640,9120001237645,登記記録の閉鎖等,0,2022-08-04,2022-08-02,株式会社ツートップ,,株式会社,大阪府,大阪市住吉区,遠里小野１丁目４－２６関西ドリームハイツ１０７号室,,27,120,5580032,,,2022-08-02,清算の結了等,,,2021-05-24,1,,,,,ツートップ,0
2649,9120003021527,登記記録の閉鎖等,0,2022-08-04,2022-07-26,合同会社空色ラッシュ,,合同会社,大阪府,大阪市北区,梅田２丁目５番１３号桜橋第一ビル３０４号,,27,127,5300001,,,2022-07-26,清算の結了等,,,2022-04-21,1,,,,,ソライロラッシュ,0
2656,9120102015561,登記記録の閉鎖等,0,2022-08-04,2022-08-01,有限会社マツバラ技研,,有限会社,大阪府,松原市,小川５丁目１４番１５号,,27,217,5800002,,,2022-08-01,清算の結了等,,,2015-10-05,1,,,,,マツバラギケン,0
2663,9120902022121,登記記録の閉鎖等,0,2022-08-04,2022-08-01,有限会社トレンザゴルフサイエンス,,有限会社,大阪府,豊中市,新千里西町１丁目２番１１－１８０４号,,27,203,5600083,,,2022-08-01,清算の結了等,,,2015-10-05,1,,,,,トレンザゴルフサイエンス,0
2675,9140002015940,登記記録の閉鎖等,0,2022-08-04,2022-08-01,有限会社ボルサソベラナ,,有限会社,兵庫県,神戸市中央区,三宮町２丁目１１番１センタープラザ西館５１９号,,28,110,6500021,,,2022-08-01,清算の結了等,,,2015-10-05,1,,,,,ボルサソベラナ,0
2676,9140002047117,登記記録の閉鎖等,0,2022-08-04,2022-08-01,有限会社中西システム,,有限会社,兵庫県,姫路市,飯田２丁目１２６番地の１,,28,201,6700974,,,2022-08-01,清算の結了等,,,2015-10-05,1,,,,,ナカニシシステム,0
2678,9140005017240,登記記録の閉鎖等,0,2022-08-04,2022-08-01,富士繊維協業組合,,その他の設立登記法人,兵庫県,西脇市,板波町１４５番地,,28,213,6770056,,,2022-08-01,清算の結了等,,,2015-10-05,1,,,,,フジセンイ,0
2681,9170001004314,登記記録の閉鎖等,0,2022-08-04,2022-08-02,株式会社ワイツーコミュニケーションズ,,株式会社,和歌山県,和歌山市,西浜１６６０番地の１８０,,30,201,6410036,,,2022-08-02,清算の結了等,,,2015-10-05,1,,,,,ワイツーコミュニケーションズ,0
2690,9180003018526,登記記録の閉鎖等,0,2022-08-04,2022-07-28,ネクシーンインベストメント合同会社,,合同会社,愛知県,丹羽郡扶桑町,大字高雄字天道２２,,23,362,4800102,,,2022-07-28,清算の結了等,,,2017-12-13,1,,,,,ネクシーンインベストメント,0
2693,9180301025827,登記記録の閉鎖等,0,2022-08-04,2022-07-29,港建材株式会社,,株式会社,愛知県,蒲郡市,新井形町殿海道２６番地２,,23,214,4430051,,,2022-07-29,清算の結了等,,,2015-10-05,1,,,,,ミナトケンザイ,0
2728,9310001015577,登記記録の閉鎖等,0,2022-08-04,2022-07-28,株式会社ＨＫ,,株式会社,長崎県,佐世保市,瀬戸越４丁目９番２３号４階,,42,202,8570134,,,2022-07-28,清算の結了等,,,2018-06-06,1,,,,,エイチケイ,0
2732,9310002016070,登記記録の閉鎖等,0,2022-08-04,2022-08-01,有限会社俵物産,,有限会社,長崎県,諫早市,多良見町化屋７４６番地１,,42,204,8590401,,,2022-08-01,合併による解散等,4310002015985,令和４年８月１日長崎県諫早市多良見町化屋１８８５番地株式会社あづま屋（4310002015985）に合併し解散,2015-10-05,1,,,,,タワラブッサン,0
2734,9330002007935,登記記録の閉鎖等,0,2022-08-04,2022-07-21,有限会社日東工業,,有限会社,熊本県,熊本市北区,楠野町４５３番地１,,43,105,8615511,,,2022-07-21,合併による解散等,6330001002766,令和４年７月２１日熊本市北区楠野町４５３番地１大東商事株式会社（6330001002766）に合併し解散,2015-10-05,1,,,,,ニットウコウギョウ,0
2752,9370005010453,登記記録の閉鎖等,0,2022-08-04,2022-07-25,登米郡吉田村新田農事實行組合,,その他の設立登記法人,宮城県,登米市,米山町,,04,212,9870500,,,2022-07-25,清算の結了等,,,2022-03-15,1,,,,,トメグンヨシダムラシンデンノウジジッコウクミアイ,0
2754,9380001031782,登記記録の閉鎖等,0,2022-08-04,2022-07-27,株式会社ＴｒｕｅＡｌｇａｅ　Ｊａｐａｎ,,株式会社,福島県,東白川郡矢祭町,大字内川字トキノス１７番地２,,07,482,9635322,,,2022-07-27,清算の結了等,,,2021-04-20,1,,,,,トゥルーアレジジャパン,0
2755,9380002027697,登記記録の閉鎖等,0,2022-08-04,2022-07-29,有限会社シルバーストーン,,有限会社,福島県,いわき市,常磐下湯長谷町勝善３８番地の１,,07,204,9728317,,,2022-07-29,清算の結了等,,,2015-10-05,1,,,,,シルバーストーン,0
2767,9460001003261,登記記録の閉鎖等,0,2022-08-04,2022-08-02,摩周工産株式会社,,株式会社,北海道,川上郡弟子屈町,鈴蘭１丁目３番４号,,01,665,0883202,,,2022-08-02,清算の結了等,,,2015-10-05,1,,,,,マシュウコウサン,0
