sequenceNumber,corporateNumber,process,correct,updateDate,changeDate,name,nameImageId,kind,prefectureName,cityName,streetNumber,addressImageId,prefectureCode,cityCode,postCode,addressOutside,addressOutsideImageId,closeDate,closeCause,successorCorporateNumber,changeCause,assignmentDate,latest,enName,enPrefectureName,enCityName,enAddressOutside,furigana,hihyoji
6,1010003045866,新規,0,2024-12-25,2024-12-25,ハナサク合同会社,,合同会社,東京都,中央区,晴海３丁目１３番２－４１１０号,,13,102,1040053,,,,,,,2024-12-25,1,,,,,ハナサク,0
9,1010005039321,新規,0,2024-12-25,2024-12-25,小倉物流施設特定目的会社,,その他の設立登記法人,東京都,中央区,日本橋１丁目４番１号,,13,102,1030027,,,,,,,2024-12-25,1,,,,,コクラブツリュウシセツ,0
17,1010401187145,新規,0,2024-12-25,2024-12-25,株式会社新,,株式会社,東京都,港区,西麻布４丁目２２－１２ＢＩＳ西麻布６０１号室,,13,103,1060031,,,,,,,2024-12-25,1,,,,,アラタ,0
18,1010401187186,新規,0,2024-12-25,2024-12-25,株式会社トランスメディカル,,株式会社,東京都,港区,元赤坂１丁目２－７赤坂Ｋタワー４階,,13,103,1070051,,,,,,,2024-12-25,1,,,,,トランスメディカル,0
19,1010401187211,新規,0,2024-12-25,2024-12-25,株式会社ネクストステージ,,株式会社,東京都,港区,芝４丁目１８番４－７０６号メインステージ三田アーバンスクエア,,13,103,1080014,,,,,,,2024-12-25,1,,,,,ネクストステージ,0
20,1010401187244,新規,0,2024-12-25,2024-12-25,株式会社ＳＩＧｘ,,株式会社,東京都,港区,芝５丁目２９番２０号,,13,103,1080014,,,,,,,2024-12-25,1,,,,,シグ,0
21,1010401187260,新規,0,2024-12-25,2024-12-25,株式会社上原エンタープライズ,,株式会社,東京都,港区,南青山７丁目４番３号ザ・レジデンス南青山１０２,,13,103,1070062,,,,,,,2024-12-25,1,,,,,ウエハラエンタープライズ,0
23,1010403034056,新規,0,2024-12-25,2024-12-25,合同会社ＵＮＩ,,合同会社,東京都,港区,白金１丁目２５番１１－１９０９,,13,103,1080072,,,,,,,2024-12-25,1,,,,,ユニ,0
24,1010403034064,新規,0,2024-12-25,2024-12-25,ＪａｙＣｏ合同会社,,合同会社,東京都,港区,南麻布２丁目３番１１号パークホームズ南麻布ザレジデンス４２３,,13,103,1060047,,,,,,,2024-12-25,1,,,,,ジェイコ,0
26,1010501053387,新規,0,2024-12-25,2024-12-25,株式会社海燕,,株式会社,東京都,台東区,浅草橋１丁目１０番８号,,13,106,1110053,,,,,,,2024-12-25,1,,,,,カイエン,0
30,1010601066512,新規,0,2024-12-25,2024-12-25,株式会社ｏｕ．ｂａｉ．ｔｏｕ．ｒｉ,,株式会社,東京都,墨田区,錦糸１丁目２－１アルカセントラル１４Ｆ,,13,107,1300013,,,,,,,2024-12-25,1,,,,,オウバイトウリ,0
35,1010703007513,新規,0,2024-12-25,2024-12-25,合同会社ベビサポ,,合同会社,東京都,品川区,荏原５丁目７番９号コーポラスＵＳＡＭＩ３０５,,13,109,1420063,,,,,,,2024-12-25,1,,,,,ベビサポ,0
50,1011203004562,新規,0,2024-12-25,2024-12-25,合同会社ステップアップ,,合同会社,東京都,中野区,新井２丁目３２番５号ピア中野新井ＩＩ－１１,00137452,13,114,1650026,,,,,,,2024-12-25,1,,,,,ステップアップ,0
51,1011301030246,新規,0,2024-12-25,2024-12-25,クリムゾン株式会社,,株式会社,東京都,杉並区,荻窪５丁目１２番１０－５０４号,,13,115,1670051,,,,,,,2024-12-25,1,,,,,クリムゾン,0
58,1011801045330,新規,0,2024-12-25,2024-12-25,株式会社ひとこと,,株式会社,東京都,葛飾区,四つ木１丁目１７－７,,13,122,1240011,,,,,,,2024-12-25,1,,,,,ヒトコト,0
59,1011801045355,新規,0,2024-12-25,2024-12-25,株式会社ＩＭＳ,,株式会社,東京都,葛飾区,高砂８丁目２０番５号,,13,122,1250054,,,,,,,2024-12-25,1,,,,,,0
60,1011803006611,新規,0,2024-12-25,2024-12-25,ＲＯＡＳ合同会社,,合同会社,東京都,足立区,鹿浜２丁目３９番５号４０５,,13,121,1230864,,,,,,,2024-12-25,1,,,,,ロアス,0
61,1012403006885,新規,0,2024-12-25,2024-12-25,ＴＳＵＫＩＨＩ合同会社,,合同会社,東京都,小金井市,貫井南町３丁目１７番３－１１３号パークホームズ武蔵小金井フォレストフィールド,,13,210,1840014,,,,,,,2024-12-25,1,,,,,ツキヒ,0
74,1020001160658,新規,0,2024-12-25,2024-12-25,株式会社ＰＯＮＯ,,株式会社,神奈川県,川崎市幸区,北加瀬２丁目４番５号,,14,132,2120057,,,,,,,2024-12-25,1,,,,,ポノ,0
75,1020001160740,新規,0,2024-12-25,2024-12-25,株式会社ソピア,,株式会社,神奈川県,横浜市泉区,中田南４丁目２１番１７－１０１号,,14,116,2450014,,,,,,,2024-12-25,1,,,,,ソピア,0
80,1020003027475,新規,0,2024-12-25,2024-12-25,正大クリエティブ合同会社,,合同会社,神奈川県,横浜市西区,紅葉ケ丘１番地１横濱紅葉坂レジデンス３－４２１号,,14,103,2200044,,,,,,,2024-12-25,1,,,,,,0
90,1030003025750,新規,0,2024-12-25,2024-12-25,高橋ビルドワークス合同会社,,合同会社,埼玉県,北足立郡伊奈町,大字小室４６９９番地８,,11,301,3620806,,,,,,,2024-12-25,1,,,,,タカハシビルドワークス,0
91,1030003025759,新規,0,2024-12-25,2024-12-25,鈴木商事合同会社,,合同会社,埼玉県,加須市,陽光台１丁目６００番地６３,,11,210,3491204,,,,,,,2024-12-25,1,,,,,スズキショウジ,0
99,1040001136672,新規,0,2024-12-25,2024-12-25,株式会社ＴｅｃｈｉｅｓＬＩＮＫ,,株式会社,千葉県,船橋市,三咲７丁目２０番１６号,,12,204,2740812,,,,,,,2024-12-25,1,,,,,テッキーズリンク,0
100,1040001136706,新規,0,2024-12-25,2024-12-25,株式会社Ｍｅｅｔ　Ｂｒｏｔｈｅｒ’ｓ,,株式会社,千葉県,松戸市,松戸新田２４番地京葉流通センター２－１,,12,207,2702241,,,,,,,2024-12-25,1,,,,,ミートブラザーズ,0
101,1040001136722,新規,0,2024-12-25,2024-12-25,未来デザインラボ株式会社,,株式会社,千葉県,市原市,松ケ島１丁目１１番地１１ハッピーハイツ３－１０３号室,,12,219,2900035,,,,,,,2024-12-25,1,,,,,ミライデザインラボ,0
107,1040003026459,新規,0,2024-12-25,2024-12-25,合同会社ＧＲＥＥＮ,,合同会社,千葉県,市川市,南八幡４丁目７番８号,,12,203,2720023,,,,,,,2024-12-25,1,,,,,グリーン,0
108,1040003026467,新規,0,2024-12-25,2024-12-25,合同会社Ｖ,,合同会社,千葉県,千葉市中央区,汐見丘町１７－１６,,12,101,2600034,,,,,,,2024-12-25,1,,,,,ブイ,0
120,1070003005716,新規,0,2024-12-25,2024-12-25,合同会社ジェイワーク,,合同会社,群馬県,前橋市,南町３丁目５０番地２プラザアン２ＦＤ－１,,10,201,3710805,,,,,,,2024-12-25,1,,,,,ジェイワーク,0
138,1120001271156,新規,0,2024-12-25,2024-12-25,株式会社天沢,,株式会社,大阪府,門真市,島頭４丁目１６番１３号,,27,223,5710016,,,,,,,2024-12-25,1,,,,,テンタク,0
139,1120001271412,新規,0,2024-12-25,2024-12-25,ライフリレー株式会社,,株式会社,大阪府,大阪市中央区,南新町２丁目３番７号塚本ビル７階,00137447,27,128,5400024,,,,,,,2024-12-25,1,,,,,ライフリレー,0
140,1120001271420,新規,0,2024-12-25,2024-12-25,株式会社ＯＮＥ　ＮＥＳＴ,,株式会社,大阪府,大阪市阿倍野区,松虫通１丁目４－２６,,27,119,5450043,,,,,,,2024-12-25,1,,,,,ワンネスト,0
144,1120003028224,新規,0,2024-12-25,2024-12-25,ＭＡＲＶＥＬＯＵＳ　ＧＲＯＵＰ合同会社,,合同会社,大阪府,大阪市中央区,平野町１丁目４番１号ハイネス北浜４０２号室,,27,128,5410046,,,,,,,2024-12-25,1,,,,,マーベラスグループ,0
147,1120101070788,新規,0,2024-12-25,2024-12-25,株式会社スマイルＹＫ,,株式会社,大阪府,堺市美原区,大饗２６７番地５,,27,147,5870063,,,,,,,2024-12-25,1,,,,,スマイルワイケー,0
148,1120101070796,新規,0,2024-12-25,2024-12-25,吉野株式会社,,株式会社,大阪府,堺市北区,南花田町４１７番３－２２３号,,27,146,5918011,,,,,,,2024-12-25,1,,,,,ヨシノ,0
150,1120901050205,新規,0,2024-12-25,2024-12-25,株式会社Ｋｒａａｌ．Ｎ,,株式会社,大阪府,摂津市,鳥飼本町２丁目４番４４号関口倉庫６号,,27,224,5660052,,,,,,,2024-12-25,1,,,,,クラールドットエヌ,0
155,1130001078641,新規,0,2024-12-25,2024-12-25,和作株式会社,,株式会社,京都府,京都市中京区,堺町通三条下る道祐町１４１番地Ｉ．Ｂ－Ｏｆｆｉｃｅ４階４３０号室,,26,104,6048118,,,,,,,2024-12-25,1,,,,,ワサク,0
160,1140003021441,新規,0,2024-12-25,2024-12-25,ＢＨＡＮＤＡＲＩ合同会社,,合同会社,兵庫県,神戸市兵庫区,荒田町３丁目４番１０号,,28,105,6520032,,,,,,,2024-12-25,1,,,,,バンダリ,0
161,1140003021458,新規,0,2024-12-25,2024-12-25,きっずーな合同会社,,合同会社,兵庫県,神戸市西区,糀台２丁目１２番２１号,,28,111,6512273,,,,,,,2024-12-25,1,,,,,キッズーナ,0
166,1160001026432,新規,0,2024-12-25,2024-12-25,株式会社８１１,,株式会社,滋賀県,大津市,粟津町７番２１－１０１号,,25,201,5200832,,,,,,,2024-12-25,1,,,,,ハチイチイチ,0
173,1180003027765,新規,0,2024-12-25,2024-12-25,経靭合同会社,,合同会社,愛知県,丹羽郡扶桑町,大字山那７３９番地２,,23,362,4800101,,,,,,,2024-12-25,1,,,,,ケイジン,0
176,1180305009635,新規,0,2024-12-25,2024-12-25,医療法人おりひめ,,その他の設立登記法人,愛知県,安城市,横山町八左２３１番地２,,23,212,4460045,,,,,,,2024-12-25,1,,,,,オリヒメ,0
179,1200001043258,新規,0,2024-12-25,2024-12-25,船坂ホールディングス株式会社,,株式会社,岐阜県,高山市,新宮町１１２番地１６,,21,203,5060035,,,,,,,2024-12-25,1,,,,,フナサカホールディングス,0
183,1240003006928,新規,0,2024-12-25,2024-12-25,Ｋ．Ｍ．Ｔ．Ｙデザインワークス合同会社,,合同会社,広島県,広島市西区,上天満町５－２５フレグランス岡本Ｂ棟１０１,,34,104,7330021,,,,,,,2024-12-25,1,,,,,ケイエムティワイデザインワークス,0
191,1290001108382,新規,0,2024-12-25,2024-12-25,株式会社Ｐｏｏｎｇホールディングス,,株式会社,福岡県,福岡市博多区,博多駅前３丁目２３番７号,,40,132,8120011,,,,,,,2024-12-25,1,,,,,プーンホールディングス,0
192,1290001108399,新規,0,2024-12-25,2024-12-25,株式会社ＬＥＤ　ＡＳＩＡ,,株式会社,福岡県,糟屋郡粕屋町,大字仲原２５３０番地１,,40,349,8112304,,,,,,,2024-12-25,1,,,,,エルイーディーアジア,0
195,1290003016212,新規,0,2024-12-25,2024-12-25,エイチエス合同会社,,合同会社,福岡県,筑紫野市,筑紫駅前通１丁目２４番地５０１,,40,217,8180022,,,,,,,2024-12-25,1,,,,,エイチエス,0
199,1310001019379,新規,0,2024-12-25,2024-12-25,株式会社ａｏ．,,株式会社,長崎県,佐世保市,天満町２番１７号天満ビル１階,,42,202,8570043,,,,,,,2024-12-25,1,,,,,アオ,0
202,1340001027016,新規,0,2024-12-25,2024-12-25,株式会社財部興業,,株式会社,鹿児島県,鹿児島市,小松原１丁目５２－１０アムール戝部１０１,,46,201,8910114,,,,,,,2024-12-25,1,,,,,タカラベコウギョウ,0
204,1360003014539,新規,0,2024-12-25,2024-12-25,合同会社ｄａｉｋｉｃｈｉ,,合同会社,沖縄県,宮古島市,平良字下里３１０７番地８９８,,47,214,9060013,,,,,,,2024-12-25,1,,,,,ダイキチ,0
208,1400001016895,新規,0,2024-12-25,2024-12-25,イアス北上株式会社,,株式会社,岩手県,北上市,九年橋１丁目１０番３４号,,03,206,0240063,,,,,,,2024-12-25,1,,,,,イアスキタカミ,0
214,1430001093338,新規,0,2024-12-25,2024-12-25,８ｓ株式会社,,株式会社,北海道,石狩市,新港西３丁目７６７－２,,01,235,0613241,,,,,,,2024-12-25,1,,,,,エイトズ,0
216,1430003017105,新規,0,2024-12-25,2024-12-25,合同会社まる牛,,合同会社,北海道,滝川市,本町２丁目３番３０号焼肉まる牛,,01,225,0730021,,,,,,,2024-12-25,1,,,,,マルギュウ,0
227,1700150128404,新規,0,2024-12-25,2024-12-25,ｓｈｅｎｚｈｅｎｓｈｉｄｏｎｇｒｕｉｈａｎｊｉｅｓｈｅｂｅｉｇｕｆｅｎｙｏｕｘｉａｎｇｏｎｇｓｉ,,外国会社等,,,,,,,,Ｈｕａｎｇｐｕ　Ｃｏｍｍｕｎｉｔｙ，Ｘｉｎｑｉａｏ　Ｓｔｒｅｅｔ，Ｂａｏａｎ　ＤｉｓｔｒｉｃｔＲｏｏｍ６０２，Ｂｕｉｌｄｉｎｇ　１，Ｉｎｎｏｖａｔｉｏｎ　Ｓｍａｒｔ　Ｐｏｒｔ，Ｎｏ．１５５　Ｈｏｎｇｔｉａｎ　ＲｏａｄＳｈｅｎｚｈｅｎ　ＣｉｔｙＧｕａｎｇｄｏｎｇ　５１８０００ＣＮ,,,,,,2024-12-25,1,,,,,シェンジェンシードンルイハンジエショーベイグーフェンヨウシエンゴンスー,0
242,2010401186988,新規,0,2024-12-25,2024-12-25,Ｓｉｒｉ　Ｌｉｆｅｓｔｙｌｅ　Ｊａｐａｎ株式会社,,株式会社,東京都,港区,白金３丁目１番１０号シンシア白金高輪１００３号室,,13,103,1080072,,,,,,,2024-12-25,1,,,,,シリライフスタイルジャパン,0
243,2010401187169,新規,0,2024-12-25,2024-12-25,株式会社トラコ,,株式会社,東京都,港区,芝大門１丁目１０番１１号,,13,103,1050012,,,,,,,2024-12-25,1,,,,,トラコ,0
244,2010401187210,新規,0,2024-12-25,2024-12-25,株式会社ＭＥＢＵＫＡＳ,,株式会社,東京都,港区,赤坂２丁目１２番３３号赤坂永楽ビル５Ｆ,,13,103,1070052,,,,,,,2024-12-25,1,,,,,メブカス,0
245,2010401187243,新規,0,2024-12-25,2024-12-25,株式会社ＹＮＧ,,株式会社,東京都,港区,南青山３丁目１番３６号青山丸竹ビル６Ｆ,,13,103,1070062,,,,,,,2024-12-25,1,,,,,ワイエヌジー,0
246,2010401187251,新規,0,2024-12-25,2024-12-25,Ｓｅｓｓｉｏｎｓ株式会社,,株式会社,東京都,港区,東麻布２丁目２４番１号ＨＥＲＥＮＣＩＡ７０１,,13,103,1060044,,,,,,,2024-12-25,1,,,,,セッションズ,0
247,2010401187276,新規,0,2024-12-25,2024-12-25,株式会社ＬＥＲＺ,,株式会社,東京都,港区,南青山３丁目１番３６号青山丸竹ビル６階,,13,103,1070062,,,,,,,2024-12-25,1,,,,,エルイーアールゼット,0
249,2010403034063,新規,0,2024-12-25,2024-12-25,合同会社もこたむぎ,,合同会社,東京都,港区,南青山２丁目２－１５ＷｉｎＡｏｙａｍａビルＵＣＦ６３５,,13,103,1070062,,,,,,,2024-12-25,1,,,,,モコタムギ,0
254,2010603011291,新規,0,2024-12-25,2024-12-25,合同会社Ｐａｓａｓｈ,,合同会社,東京都,墨田区,太平４丁目２０番５－２０６号,,13,107,1300012,,,,,,,2024-12-25,1,,,,,パサッシュ,0
257,2010705003716,新規,0,2024-12-25,2024-12-25,一般社団法人メモリアリンク,,その他の設立登記法人,東京都,品川区,戸越５丁目１８番７号戸越公園駅前ビル４階,,13,109,1420041,,,,,,,2024-12-25,1,,,,,メモリアリンク,0
259,2010901056534,新規,0,2024-12-25,2024-12-25,株式会社Ｓｔｒｉｄｅ,,株式会社,東京都,世田谷区,代田３丁目３６番７－３０１号,,13,112,1550033,,,,,,,2024-12-25,1,,,,,ストライド,0
260,2010901056542,新規,0,2024-12-25,2024-12-25,株式会社ＭＣＰ,,株式会社,東京都,世田谷区,奥沢２丁目８番２号,,13,112,1580083,,,,,,,2024-12-25,1,,,,,エムシーピー,0
263,2010905004712,新規,0,2024-12-25,2024-12-25,一般社団法人日本ロープフロー協会,,その他の設立登記法人,東京都,世田谷区,用賀４丁目１２番地６号テトラ用賀２Ｆ,,13,112,1580097,,,,,,,2024-12-25,1,,,,,ニッポンロープフローキョウカイ,0
265,2011101110040,新規,0,2024-12-25,2024-12-25,ＪＩＮ　ＧＲＩＤ株式会社,,株式会社,東京都,新宿区,大久保２丁目１番８号プラザ新大樹ビル６階,,13,104,1690072,,,,,,,2024-12-25,1,,,,,ジングリッド,0
266,2011101110049,新規,0,2024-12-25,2024-12-25,株式会社ベイリーフコーポレーション,,株式会社,東京都,新宿区,高田馬場３丁目１２番２４号,,13,104,1690075,,,,,,,2024-12-25,1,,,,,ベイリーフコーポレーション,0
267,2011103015345,新規,0,2024-12-25,2024-12-25,Ｏ９合同会社,,合同会社,東京都,新宿区,新宿１丁目３６－２新宿七葉山ビル３Ｆ,,13,104,1600022,,,,,,,2024-12-25,1,,,,,オーナイン,0
268,2011103015353,新規,0,2024-12-25,2024-12-25,合同会社イフエラ,,合同会社,東京都,新宿区,西新宿８丁目１８－２中山ビル２０２,,13,104,1600023,,,,,,,2024-12-25,1,,,,,イフエラ,0
274,2011701027923,新規,0,2024-12-25,2024-12-25,株式会社思立羽,,株式会社,東京都,江戸川区,中葛西２丁目２６番１０－１００２号,,13,123,1340083,,,,,,,2024-12-25,1,,,,,シリュウ,0
276,2011803006619,新規,0,2024-12-25,2024-12-25,雨雲出版合同会社,,合同会社,東京都,足立区,中川１丁目２１番１９号,,13,121,1200002,,,,,,,2024-12-25,1,,,,,アマグモシュッパン,0
280,2012303002091,新規,0,2024-12-25,2024-12-25,ＴＫＧサービス合同会社,,合同会社,東京都,町田市,中町３丁目６番２４号,,13,209,1940021,,,,,,,2024-12-25,1,,,,,ティーケージーサービス,0
281,2012403006884,新規,0,2024-12-25,2024-12-25,Ｎｏｔ　Ｔｈａｔ　Ｓｃｏｒｅ合同会社,,合同会社,東京都,三鷹市,牟礼４丁目１９番１３－４０３号,,13,204,1810002,,,,,,,2024-12-25,1,,,,,ノットザットスコア,0
283,2012701018615,新規,0,2024-12-25,2024-12-25,株式会社ＴＥＡＬ,,株式会社,東京都,東村山市,栄町３丁目１１番地１１久米川プラネット７０１,,13,213,1890013,,,,,,,2024-12-25,1,,,,,ティール,0
288,2013301053556,新規,0,2024-12-25,2024-12-25,ＫＨＩＮ　ＭＹＡＮＭＡＲ株式会社,,株式会社,東京都,豊島区,駒込５丁目４番２５号Ｋフラット５０３号,,13,116,1700003,,,,,,,2024-12-25,1,,,,,キンミャンマー,0
291,2020001160616,新規,0,2024-12-25,2024-12-25,株式会社寿司こん平,,株式会社,神奈川県,川崎市高津区,末長１丁目２７－３,,14,134,2130013,,,,,,,2024-12-25,1,,,,,スシコンペイ,0
292,2020001160657,新規,0,2024-12-25,2024-12-25,株式会社大富電設,,株式会社,神奈川県,横浜市鶴見区,上末吉２丁目７番１－５０５号,,14,101,2300011,,,,,,,2024-12-25,1,,,,,オオトミデンセツ,0
293,2020001160707,新規,0,2024-12-25,2024-12-25,ホットファン株式会社,,株式会社,神奈川県,横浜市神奈川区,高島台２１－１４,,14,102,2210833,,,,,,,2024-12-25,1,,,,,ホットファン,0
294,2020001160731,新規,0,2024-12-25,2024-12-25,株式会社ネス・コーポレーション川崎,,株式会社,神奈川県,川崎市宮前区,東有馬２丁目３５番３８号,,14,136,2160002,,,,,,,2024-12-25,1,,,,,ネスコーポレーションカワサキ,0
306,2030001164112,新規,0,2024-12-25,2024-12-25,Ｔ．Ｎ．Ｓ．株式会社,,株式会社,埼玉県,行田市,大字須加３１９１番地,,11,206,3610004,,,,,,,2024-12-25,1,,,,,ティーエヌエス,0
307,2030001164120,新規,0,2024-12-25,2024-12-25,株式会社とそう家,,株式会社,埼玉県,越谷市,大字大房９１１番地７,,11,222,3430027,,,,,,,2024-12-25,1,,,,,トソウヤ,0
309,2030003025717,新規,0,2024-12-25,2024-12-25,ＴＷＩＮ　ＬＵＸ合同会社,,合同会社,埼玉県,羽生市,東３丁目３８－２０,,11,216,3480052,,,,,,,2024-12-25,1,,,,,ツインラックス,0
310,2030003025741,新規,0,2024-12-25,2024-12-25,興勝合同会社,,合同会社,埼玉県,秩父郡皆野町,大字大渕１７０番地１－２０１号室,,11,362,3691623,,,,,,,2024-12-25,1,,,,,コウショウ,0
311,2030003025766,新規,0,2024-12-25,2024-12-25,合同会社ＦＤラボ,,合同会社,埼玉県,さいたま市大宮区,宮町２丁目９３－２,,11,103,3300802,,,,,,,2024-12-25,1,,,,,エフディーラボ,0
314,2040001136696,新規,0,2024-12-25,2024-12-25,株式会社マジェスティーワークス,,株式会社,千葉県,富里市,七栄５７５番地３８３,,12,233,2860221,,,,,,,2024-12-25,1,,,,,マジェスティーワークス,0
318,2040003026458,新規,0,2024-12-25,2024-12-25,合同会社ＭＯＲＩＮＡ,,合同会社,千葉県,習志野市,新栄２丁目７－１２新栄ビルディング１階１２号,,12,216,2750005,,,,,,,2024-12-25,1,,,,,モリナ,0
323,2060001037760,新規,0,2024-12-25,2024-12-25,イノヴィアホールディングス株式会社,,株式会社,栃木県,宇都宮市,新里町丙２１９番地１,,09,201,3212118,,,,,,,2024-12-25,1,,,,,イノヴィアホールディングス,0
327,2080001026679,新規,0,2024-12-25,2024-12-25,ａｔｅｌｉｅｒ　Ａｐｒｉｃｏｔ株式会社,,株式会社,静岡県,静岡市葵区,南沼上１８９５番地の１５,,22,101,4200905,,,,,,,2024-12-25,1,,,,,アトリエアプリコット,0
331,2090003002702,新規,0,2024-12-25,2024-12-25,合同会社ピボットクリエイション,,合同会社,山梨県,甲府市,丸の内２丁目２－１ＣＲＯＳＳ５００、１Ｆ,,19,201,4000031,,,,,,,2024-12-25,1,,,,,,0
338,2120001271329,新規,0,2024-12-25,2024-12-25,瀧音株式会社,,株式会社,大阪府,大阪市住之江区,御崎１丁目１１－１９－３０８,,27,125,5590013,,,,,,,2024-12-25,1,,,,,タキオト,0
341,2120003028223,新規,0,2024-12-25,2024-12-25,ＳＰ　ＥＳＳ１合同会社,,合同会社,大阪府,大阪市中央区,南船場１丁目１６－１０大阪岡本ビル５階税理士法人ＰＬＵＳ１内,,27,128,5420081,,,,,,,2024-12-25,1,,,,,エスピーイーエスエスワン,0
345,2120903005486,新規,0,2024-12-25,2024-12-25,合同会社エーテルワークス,,合同会社,大阪府,茨木市,春日３丁目４－５－１０１,,27,211,5670031,,,,,,,2024-12-25,1,,,,,エーテルワークス,0
358,2140003021465,新規,0,2024-12-25,2024-12-25,合同会社雲,,合同会社,兵庫県,尼崎市,御園１丁目２１番５－４０６号,,28,202,6610984,,,,,,,2024-12-25,1,,,,,クモ,0
365,2180001164659,新規,0,2024-12-25,2024-12-25,株式会社日ノ丸,,株式会社,愛知県,尾張旭市,南新町中畑２３６番地,,23,226,4880041,,,,,,,2024-12-25,1,,,,,ヒノマル,0
366,2180001164667,新規,0,2024-12-25,2024-12-25,株式会社さくらインスティテュート,,株式会社,愛知県,小牧市,光ケ丘２丁目７４番地６,,23,219,4850811,,,,,,,2024-12-25,1,,,,,サクラインスティテュート,0
367,2180001164675,新規,0,2024-12-25,2024-12-25,株式会社ＡＣＥ　ＴＥＣＨ,,株式会社,愛知県,名古屋市天白区,島田黒石４１５番地,,23,116,4680028,,,,,,,2024-12-25,1,,,,,エーステック,0
368,2180001164683,新規,0,2024-12-25,2024-12-25,株式会社ワイズウェルネス,,株式会社,愛知県,名古屋市中区,栄２丁目３番１号名古屋広小路ビルヂング１７階,,23,106,4600008,,,,,,,2024-12-25,1,,,,,ワイズウェルネス,0
369,2180001164700,新規,0,2024-12-25,2024-12-25,株式会社ｓｕｓｕｍ,,株式会社,愛知県,名古屋市中区,錦３丁目９番１５号,,23,106,4600003,,,,,,,2024-12-25,1,,,,,ススム,0
372,2180303006377,新規,0,2024-12-25,2024-12-25,合同会社あかつきサポート,,合同会社,愛知県,刈谷市,一ツ木町折戸１０番地２０,,23,210,4480003,,,,,,,2024-12-25,1,,,,,アカツキサポート,0
373,2190001031890,新規,0,2024-12-25,2024-12-25,株式会社久遠メモリアル,,株式会社,三重県,松阪市,久保町１９０５番地５,,24,204,5150044,,,,,,,2024-12-25,1,,,,,クオンメモリアル,0
397,2290001108381,新規,0,2024-12-25,2024-12-25,株式会社Ｂｕｌｌ,,株式会社,福岡県,福岡市中央区,薬院４丁目８番２８号１Ｆ,,40,133,8100022,,,,,,,2024-12-25,1,,,,,ブル,0
400,2290003016211,新規,0,2024-12-25,2024-12-25,ワイエス合同会社,,合同会社,福岡県,筑紫野市,二日市北４丁目６番８－４０２号,,40,217,8180056,,,,,,,2024-12-25,1,,,,,ワイエス,0
403,2310001019386,新規,0,2024-12-25,2024-12-25,株式会社ＡＲＡＢＡＳＴＡ　ＲＩＣＨ,,株式会社,長崎県,諫早市,小野町２８５番地６－Ｏ．Ｃガーデン２０３,,42,204,8540034,,,,,,,2024-12-25,1,,,,,アラバスタリッチ,0
404,2320001020871,新規,0,2024-12-25,2024-12-25,株式会社ＲＡＩＳＥ,,株式会社,大分県,別府市,大字鶴見１９７６番地の３,,44,202,8740840,,,,,,,2024-12-25,1,,,,,レイズ,0
405,2320005010209,新規,0,2024-12-25,2024-12-25,一般社団法人ここのえ町づくり公社,,その他の設立登記法人,大分県,玖珠郡九重町,大字右田７１４番地の２８,,44,461,8794601,,,,,,,2024-12-25,1,,,,,ココノエマチヅクリコウシャ,0
407,2340001027015,新規,0,2024-12-25,2024-12-25,Ａｉｒ　Ｒｅｐｏｓ光株式会社,,株式会社,鹿児島県,鹿児島市,加治屋町１９番７－８０４号,,46,201,8920846,,,,,,,2024-12-25,1,,,,,エアルポヒカリ,0
409,2360005007143,新規,0,2024-12-25,2024-12-25,特定非営利活動法人ＵｎｉＭｏ,,その他の設立登記法人,沖縄県,宜野湾市,志真志３丁目９番１０号２階オアシス若葉,,47,205,9012213,,,,,,,2024-12-25,1,,,,,ユニモ,0
417,2400001016894,新規,0,2024-12-25,2024-12-25,イアス盛岡株式会社,,株式会社,岩手県,盛岡市,中ノ橋通１丁目１４番１１号,,03,201,0200871,,,,,,,2024-12-25,1,,,,,イアスモリオカ,0
420,2420003003039,新規,0,2024-12-25,2024-12-25,合同会社雷動,,合同会社,青森県,八戸市,白銀字雷９番地１号,,02,203,0310000,,,,,,,2024-12-25,1,,,,,ライドウ,0
423,2430001093337,新規,0,2024-12-25,2024-12-25,株式会社キーレスキューサポート,,株式会社,北海道,札幌市手稲区,富丘二条５丁目８番５０－３０１号,,01,109,0060012,,,,,,,2024-12-25,1,,,,,キーレスキューサポート,0
426,2430003017104,新規,0,2024-12-25,2024-12-25,増川建業合同会社,,合同会社,北海道,札幌市清田区,北野四条４丁目２９番２５号,,01,110,0040864,,,,,,,2024-12-25,1,,,,,マスカワケンギョウ,0
432,2700150128403,新規,0,2024-12-25,2024-12-25,ＸＩＡＭＥＮ　ＪＩＡＺＨＩＪＩＥ　ＥＣＯＭＭＥＲＣＥ　ＣＯ．，ＬＴＤ,,外国会社等,,,,,,,,ＺＨＩ　ＥＲ，ＤＡＮＹＵＡＮ　２０２，ＮＯ＃　５１６，ＸＩＮＧＬＩＮＷＡＮ　ＲＯＡＤＪＩＭＥＩ　ＤｌＳＴＲＩＣＴＸＩＡＭＥＮＦＵＪＩＡＮ　３６１０２２ＣＮ,,,,,,2024-12-25,1,,,,,シャーメンシージャージージエディエンズーシャンウーヨウシエンゴンスー,0
446,3010001250895,新規,0,2024-12-25,2024-12-25,エンデバー・ユナイテッド・パートナーズ・３８株式会社,,株式会社,東京都,千代田区,丸の内２丁目５番１号丸の内二丁目ビル６階,,13,101,1000005,,,,,,,2024-12-25,1,,,,,エンデバーユナイテッドパートナーズサーティーエイト,0
448,3010003045864,新規,0,2024-12-25,2024-12-25,ブルーセブン合同会社,,合同会社,東京都,文京区,本郷３丁目３３番３号,,13,105,1130033,,,,,,,2024-12-25,1,,,,,ブルーセブン,0
449,3010003045880,新規,0,2024-12-25,2024-12-25,さわ合同会社,,合同会社,東京都,中央区,湊１丁目１３番４－８０３号,,13,102,1040043,,,,,,,2024-12-25,1,,,,,サワ,0
450,3010005039328,新規,0,2024-12-25,2024-12-25,一般社団法人１４,,その他の設立登記法人,東京都,千代田区,丸の内１丁目４番１号東京共同会計事務所内,,13,101,1000005,,,,,,,2024-12-25,1,,,,,ジュウヨン,0
451,3010103002476,新規,0,2024-12-25,2024-12-25,合同会社ＹＭＫＫ,,合同会社,東京都,八王子市,弐分方町５６３番地１,,13,201,1930822,,,,,,,2024-12-25,1,,,,,ワイエムケーケー,0
460,3010401187085,新規,0,2024-12-25,2024-12-25,株式会社Ｓｈａｄｅ,,株式会社,東京都,港区,北青山１丁目３－１アールキューブ青山３階,,13,103,1070061,,,,,,,2024-12-25,1,,,,,シェード,0
461,3010401187201,新規,0,2024-12-25,2024-12-25,ＤＵＢＩ株式会社,,株式会社,東京都,港区,三田１丁目２番１８号ＴＴＤビル,,13,103,1080073,,,,,,,2024-12-25,1,,,,,ドゥビ,0
462,3010401187259,新規,0,2024-12-25,2024-12-25,ＤＹアセット株式会社,,株式会社,東京都,港区,南青山６丁目８－２－１００２,,13,103,1070062,,,,,,,2024-12-25,1,,,,,ディーワイアセット,0
465,3010403034054,新規,0,2024-12-25,2024-12-25,アリアローズ合同会社,,合同会社,東京都,港区,南麻布３丁目１１番７号２０１,,13,103,1060047,,,,,,,2024-12-25,1,,,,,アリアローズ,0
466,3010403034062,新規,0,2024-12-25,2024-12-25,１４４０合同会社,,合同会社,東京都,港区,南青山５丁目４－３５たつむら青山ビル６１０号室,,13,103,1070062,,,,,,,2024-12-25,1,,,,,フォーティーンフォーティー,0
480,3010901056541,新規,0,2024-12-25,2024-12-25,帝国リムジン株式会社,,株式会社,東京都,世田谷区,太子堂１丁目１２番２７号コンフォートテラス１００５号,,13,112,1540004,,,,,,,2024-12-25,1,,,,,テイコクリムジン,0
481,3010903009588,新規,0,2024-12-25,2024-12-25,合同会社ＳＡＫＡＴＡ,,合同会社,東京都,世田谷区,北沢５丁目１－１０カーム東北沢２０１,,13,112,1550031,,,,,,,2024-12-25,1,,,,,サカタ,0
485,3011001166710,新規,0,2024-12-25,2024-12-25,メンタルヘルスＤＸ株式会社,,株式会社,東京都,渋谷区,道玄坂１丁目１５番１４号ＳＴ渋谷ビル６階,,13,113,1500043,,,,,,,2024-12-25,1,,,,,メンタルヘルスディーエックス,0
486,3011001166751,新規,0,2024-12-25,2024-12-25,株式会社ＳａｖｅＰｏｉｎｔ　Ｓｔｕｄｉｏ,,株式会社,東京都,目黒区,自由が丘２丁目１６番１２号ＲＪ３,,13,110,1520035,,,,,,,2024-12-25,1,,,,,セーブポイントスタジオ,0
487,3011001166768,新規,0,2024-12-25,2024-12-25,株式会社マームライン,,株式会社,東京都,渋谷区,千駄ヶ谷５丁目１３－１３メゾン奈良１０２,,13,113,1510051,,,,,,,2024-12-25,1,,,,,マームライン,0
490,3011003020667,新規,0,2024-12-25,2024-12-25,合同会社ＲｕｃＫｙ,,合同会社,東京都,渋谷区,神宮前３丁目３１―２―１Ｆ,,13,113,1500001,,,,,,,2024-12-25,1,,,,,ラッキー,0
496,3011101110048,新規,0,2024-12-25,2024-12-25,株式会社プレミアムビューティー,,株式会社,東京都,新宿区,西新宿３丁目３番１３号西新宿水間ビル２Ｆ,,13,104,1600023,,,,,,,2024-12-25,1,,,,,プレミアムビューティー,0
498,3011103015344,新規,0,2024-12-25,2024-12-25,合同会社ＧＥＮＫＩ,,合同会社,東京都,新宿区,西新宿７丁目１番７号,,13,104,1600023,,,,,,,2024-12-25,1,,,,,ゲンキ,0
501,3011203004560,新規,0,2024-12-25,2024-12-25,合同会社ＡＬＬ‐Ｂ,,合同会社,東京都,中野区,大和町３丁目４－１１－１０４,,13,114,1650034,,,,,,,2024-12-25,1,,,,,オールビー,0
504,3011501031538,新規,0,2024-12-25,2024-12-25,スカイソフト株式会社,,株式会社,東京都,北区,東十条６丁目４番４－３０２号東十条スタンザ,,13,117,1140001,,,,,,,2024-12-25,1,,,,,スカイソフト,0
514,3020001160656,新規,0,2024-12-25,2024-12-25,株式会社ＧｏａｌＴｅｃｈ,,株式会社,神奈川県,横浜市保土ケ谷区,月見台３６番１１号２０１,,14,106,2400012,,,,,,,2024-12-25,1,,,,,ゴールテック,0
515,3020001160706,新規,0,2024-12-25,2024-12-25,株式会社征矢設備,,株式会社,神奈川県,川崎市麻生区,東百合丘１丁目３６番１－２号,,14,137,2150012,,,,,,,2024-12-25,1,,,,,セイヤセツビ,0
520,3021001084069,新規,0,2024-12-25,2024-12-25,株式会社メテオ,,株式会社,神奈川県,相模原市中央区,相模原２丁目３番１３号マリオン相模原ビル１階,,14,152,2520231,,,,,,,2024-12-25,1,,,,,メテオ,0
533,3030001164012,新規,0,2024-12-25,2024-12-25,株式会社住宅ラボ,,株式会社,埼玉県,さいたま市浦和区,仲町２丁目１７番１３号,,11,107,3300062,,,,,,,2024-12-25,1,,,,,ジュウタクラボ,0
534,3030001164045,新規,0,2024-12-25,2024-12-25,株式会社神田,,株式会社,埼玉県,久喜市,古久喜５３番地７,,11,232,3460001,,,,,,,2024-12-25,1,,,,,カンダ,0
535,3030001164103,新規,0,2024-12-25,2024-12-25,株式会社ＷａｚａＣｏｖｅｒ,,株式会社,埼玉県,富士見市,西みずほ台２丁目３番９号,,11,235,3540018,,,,,,,2024-12-25,1,,,,,ワザカバー,0
538,3030003025765,新規,0,2024-12-25,2024-12-25,合同会社ＳＳＳＰ,,合同会社,埼玉県,さいたま市緑区,原山１丁目１番地１２の１,,11,109,3360931,,,,,,,2024-12-25,1,,,,,スリーエスピー,0
542,3040001136646,新規,0,2024-12-25,2024-12-25,株式会社ｕｉ,,株式会社,千葉県,柏市,手賀の杜４丁目２６番地１,,12,217,2701447,,,,,,,2024-12-25,1,,,,,ウイ,0
543,3040001136704,新規,0,2024-12-25,2024-12-25,山川商事株式会社,,株式会社,千葉県,市川市,大洲２丁目１６番地１４相沢マンションＡ１,,12,203,2720032,,,,,,,2024-12-25,1,,,,,ヤマカワショウジ,0
549,3040003026457,新規,0,2024-12-25,2024-12-25,合同会社ｗｉｔｈ,,合同会社,千葉県,東金市,広瀬４２１番地８,,12,213,2830041,,,,,,,2024-12-25,1,,,,,ウィズ,0
555,3070003005714,新規,0,2024-12-25,2024-12-25,合同会社ＫＨ‐ホンダ,,合同会社,群馬県,みどり市,大間々町大間々４９０番地７,,10,212,3760101,,,,,,,2024-12-25,1,,,,,ケーエイチホンダ,0
581,3120001271360,新規,0,2024-12-25,2024-12-25,株式会社ＳＴＭＹ,,株式会社,大阪府,大阪市生野区,小路東３丁目１１番１７号,,27,116,5440003,,,,,,,2024-12-25,1,,,,,エスティエムワイ,0
582,3120001271369,新規,0,2024-12-25,2024-12-25,株式会社キミマツ,,株式会社,大阪府,大阪市城東区,野江２丁目５番９号巽ビル１階,,27,118,5360006,,,,,,,2024-12-25,1,,,,,キミマツ,0
583,3120001271410,新規,0,2024-12-25,2024-12-25,株式会社エイト,,株式会社,大阪府,大阪市中央区,農人橋２丁目１－６－５階,,27,128,5400011,,,,,,,2024-12-25,1,,,,,エイト,0
584,3120001271419,新規,0,2024-12-25,2024-12-25,株式会社ＳＡＴＯＷＡ,,株式会社,大阪府,大阪市北区,天神橋２丁目１番６１号,,27,127,5300041,,,,,,,2024-12-25,1,,,,,サトワ,0
587,3120003028222,新規,0,2024-12-25,2024-12-25,合同会社ＨＲＣ,,合同会社,大阪府,大阪市北区,中崎西４丁目３－３２ＡＲＣＡ梅田ビル８Ｆ,,27,127,5300015,,,,,,,2024-12-25,1,,,,,エイチアールシー,0
590,3120901050211,新規,0,2024-12-25,2024-12-25,株式会社ＴＡＫＯ　ＳＴＵＤＩＯ,,株式会社,大阪府,吹田市,豊津町１－１８エクラート江坂ビル７０１,,27,205,5640051,,,,,,,2024-12-25,1,,,,,タコスタジオ,0
601,3140003021456,新規,0,2024-12-25,2024-12-25,エンディレクション合同会社,,合同会社,兵庫県,神戸市中央区,磯辺通１丁目１番１８号カサベラ国際プラザビル７０７号室,,28,110,6510084,,,,,,,2024-12-25,1,,,,,エンディレクション,0
607,3180003027771,新規,0,2024-12-25,2024-12-25,佳園合同会社,,合同会社,愛知県,名古屋市中区,新栄２丁目２番７号－６０１号室,,23,106,4600007,,,,,,,2024-12-25,1,,,,,カエン,0
610,3190003004893,新規,0,2024-12-25,2024-12-25,合同会社Ｍｅｅｔｅｃ,,合同会社,三重県,いなべ市,大安町門前８４５番地,,24,214,5110281,,,,,,,2024-12-25,1,,,,,ミーテック,0
614,3200003006632,新規,0,2024-12-25,2024-12-25,合同会社元気魂,,合同会社,岐阜県,大垣市,中野町５丁目４８１－８,,21,202,5030022,,,,,,,2024-12-25,1,,,,,ゲンキダマ,0
617,3240001064273,新規,0,2024-12-25,2024-12-25,株式会社Ｅ＆Ｔ　Ｅｃｏｌｏｇｉｃａｌ　Ｅｎｅｒｇｙ,,株式会社,広島県,広島市西区,井口台３丁目３３番４１－１０５号,,34,104,7330844,,,,,,,2024-12-25,1,,,,,エアンドティーエコロジカルエネルギー,0
625,3290001108406,新規,0,2024-12-25,2024-12-25,株式会社ジェイ・ベスト,,株式会社,福岡県,福岡市東区,奈多１丁目５番３号,,40,131,8110204,,,,,,,2024-12-25,1,,,,,ジェイベスト,0
627,3290005019582,新規,0,2024-12-25,2024-12-25,特定非営利活動法人多世代交流ネットワーク協会,,その他の設立登記法人,福岡県,福岡市西区,石丸４丁目４番３１－７０２号グランドライフ大産,,40,135,8190025,,,,,,,2024-12-25,1,,,,,タセダイコウリュウネットワークキョウカイ,0
629,3290801031138,新規,0,2024-12-25,2024-12-25,株式会社にくよし１９６７,,株式会社,福岡県,北九州市小倉南区,志徳１丁目１番８－１０３号,,40,107,8020983,,,,,,,2024-12-25,1,,,,,ニクヨシイチキュウロクナナ,0
632,3320001020870,新規,0,2024-12-25,2024-12-25,株式会社Ｋ．Ｓ企画,,株式会社,大分県,日田市,大字日高９５３番地１,,44,204,8770000,,,,,,,2024-12-25,1,,,,,ケーズキカク,0
649,3420003003038,新規,0,2024-12-25,2024-12-25,Ｓ．Ａ．Ｏ合同会社,,合同会社,青森県,弘前市,大字小栗山字沢部２２６番２５,,02,202,0368127,,,,,,,2024-12-25,1,,,,,エスエーオー,0
650,3430001093336,新規,0,2024-12-25,2024-12-25,株式会社Ｃ．Ｓｅｎ,,株式会社,北海道,札幌市東区,北十三条東７丁目５番１０－１００８号,,01,103,0650013,,,,,,,2024-12-25,1,,,,,シーセン,0
653,3430003017103,新規,0,2024-12-25,2024-12-25,合同会社エクスキュート,,合同会社,北海道,札幌市白石区,北郷二条４丁目６番４８号ビックバーンズマンション北郷ＩＩＩＡ－４０３号,00137455,01,104,0030832,,,,,,,2024-12-25,1,,,,,エクスキュート,0
655,3470003002778,新規,0,2024-12-25,2024-12-25,合同会社仁保屋,,合同会社,香川県,観音寺市,坂本町７丁目１０番１０号,,37,205,7680067,,,,,,,2024-12-25,1,,,,,ニホヤ,0
664,3700150128402,新規,0,2024-12-25,2024-12-25,ＴＵＮＮＵ　ＩＮＮＯＶＡＴＩＯＮ，ＩＮＣ,,外国会社等,,,,,,,,１７８００　ＣＡＳＴＬＥＴＯＮ　ＳＴ　ＳＴＥ　６６５ＣＩＴＹ　ＯＦ　ＩＮＤＵＳＴＲＹ　Ｃａｌｉｆｏｒｎｉａ　９１７４８　ＵＳ,,,,,,2024-12-25,1,,,,,ティーユーエンエンユーアイエンエンオービーアーティーアイオーエンアイエンシー,0
676,4010001250952,新規,0,2024-12-25,2024-12-25,ＯＲｙｎａｓ株式会社,,株式会社,東京都,千代田区,神田和泉町一丁目６－１６ヤマトビル４０５,,13,101,1010024,,,,,,,2024-12-25,1,,,,,オリナス,0
677,4010001250985,新規,0,2024-12-25,2024-12-25,株式会社Ｆｌｙｂｙ　Ｍａｎａｇｅｍｅｎｔ,,株式会社,東京都,文京区,湯島２丁目２４番６号ブリガ文京湯島３Ｆ,,13,105,1130034,,,,,,,2024-12-25,1,,,,,フライバイマネジメント,0
681,4010003045896,新規,0,2024-12-25,2024-12-25,合同会社Ａｐｏｌｌｏｎ’ｓ　Ｇｏｌｄ,,合同会社,東京都,千代田区,九段北１丁目１４－１３メゾン萬六１０２,,13,101,1020073,,,,,,,2024-12-25,1,,,,,アポロンズゴールド,0
684,4010401187209,新規,0,2024-12-25,2024-12-25,ＳＣＩＥＮＣＡ株式会社,,株式会社,東京都,港区,赤坂２丁目２１－４天翔赤坂ＡＮＮＥＸビル４階４１３号室,,13,103,1070052,,,,,,,2024-12-25,1,,,,,サイエンカ,0
685,4010401187225,新規,0,2024-12-25,2024-12-25,新三＿株式会社,00137448,株式会社,東京都,港区,赤坂８丁目２番７－１０１号,,13,103,1070052,,,,,,,2024-12-25,1,,,,,シンサンシン,0
686,4010401187241,新規,0,2024-12-25,2024-12-25,株式会社クラフトサイド,,株式会社,東京都,港区,南青山２丁目２番１５号ＷＩＮ青山５３１,,13,103,1070062,,,,,,,2024-12-25,1,,,,,クラフトサイド,0
694,4010505003575,新規,0,2024-12-25,2024-12-25,東京メトロプライベートリート投資法人,,その他の設立登記法人,東京都,台東区,上野３丁目１番２号,,13,106,1100005,,,,,,,2024-12-25,1,,,,,トウキョウメトロプライベートリート,0
707,4010903009587,新規,0,2024-12-25,2024-12-25,合同会社Ａｒｓｈ,,合同会社,東京都,世田谷区,弦巻２丁目１０番９－３０６号,,13,112,1540016,,,,,,,2024-12-25,1,,,,,アーシュ,0
712,4011001166726,新規,0,2024-12-25,2024-12-25,株式会社フィットネステクノロジー,,株式会社,東京都,目黒区,大岡山１丁目２９番４号,,13,110,1520033,,,,,,,2024-12-25,1,,,,,フィットネステクノロジー,0
713,4011001166750,新規,0,2024-12-25,2024-12-25,Ｓｅｎｔｅｉ株式会社,,株式会社,東京都,渋谷区,渋谷２丁目１９－１５宮益坂ビルディング６０９,,13,113,1500002,,,,,,,2024-12-25,1,,,,,センテイ,0
718,4011101110047,新規,0,2024-12-25,2024-12-25,株式会社ジェーエッセンシャル,,株式会社,東京都,新宿区,下落合３丁目２１番９号サンライズ目白２０１,,13,104,1610033,,,,,,,2024-12-25,1,,,,,ジェーエッセンシャル,0
719,4011101110071,新規,0,2024-12-25,2024-12-25,株式会社雄志,,株式会社,東京都,新宿区,上落合３丁目１０番１３号ＭＡＩＳＯＮ・ＤＥ・ＯＵＺＡＫ１０１,,13,104,1610034,,,,,,,2024-12-25,1,,,,,ユウシ,0
720,4011103015343,新規,0,2024-12-25,2024-12-25,合同会社ｍｉｅ,,合同会社,東京都,新宿区,市谷八幡町１１－１市ヶ谷八幡町ビル８階,,13,104,1620844,,,,,,,2024-12-25,1,,,,,ミー,0
722,4011105011282,新規,0,2024-12-25,2024-12-25,一般社団法人ＬＩＧＡＲＥ,,その他の設立登記法人,東京都,新宿区,西新宿３丁目３番１３号西新宿水間ビル６階,,13,104,1600023,,,,,,,2024-12-25,1,,,,,リガーレ,0
727,4011503006363,新規,0,2024-12-25,2024-12-25,合同会社ＯＲＥＺ,,合同会社,東京都,北区,赤羽３丁目２８番１８－５０４号,,13,117,1150045,,,,,,,2024-12-25,1,,,,,オレズ,0
728,4011801045344,新規,0,2024-12-25,2024-12-25,株式会社オオトモ,,株式会社,東京都,足立区,梅島１丁目５－１９小鳥ハウス１０１,,13,121,1210816,,,,,,,2024-12-25,1,,,,,オオトモ,0
729,4012401042582,新規,0,2024-12-25,2024-12-25,株式会社インスタイル,,株式会社,東京都,府中市,本町４丁目１２番６号２Ｆ,,13,206,1830027,,,,,,,2024-12-25,1,,,,,インスタイル,0
730,4012401042608,新規,0,2024-12-25,2024-12-25,株式会社アイディールズ,,株式会社,東京都,武蔵野市,吉祥寺東町１丁目２５番１６号,,13,203,1800002,,,,,,,2024-12-25,1,,,,,アイディールズ,0
731,4012403006882,新規,0,2024-12-25,2024-12-25,チョウタリー合同会社,,合同会社,東京都,三鷹市,大沢５丁目９番１６号コーポジュネス１０１,,13,204,1810015,,,,,,,2024-12-25,1,,,,,チョウタリー,0
732,4012701018621,新規,0,2024-12-25,2024-12-25,株式会社結翔,,株式会社,東京都,西東京市,下保谷１丁目２番６号,,13,229,2020004,,,,,,,2024-12-25,1,,,,,ユイト,0
737,4013303007442,新規,0,2024-12-25,2024-12-25,Ｃａｌｍ合同会社,,合同会社,東京都,豊島区,雑司が谷３丁目９番１０号カーム４Ｂ号,,13,116,1710032,,,,,,,2024-12-25,1,,,,,カーム,0
741,4020001160705,新規,0,2024-12-25,2024-12-25,株式会社ＴＡＯ,,株式会社,神奈川県,横浜市西区,浅間町１丁目４番３号ウィザードビル４０２,,14,103,2200072,,,,,,,2024-12-25,1,,,,,タオ,0
742,4020001160713,新規,0,2024-12-25,2024-12-25,株式会社リクラフト,,株式会社,神奈川県,川崎市高津区,蟹ケ谷２３７番地１４,,14,134,2130025,,,,,,,2024-12-25,1,,,,,リクラフト,0
745,4020003027506,新規,0,2024-12-25,2024-12-25,ＹＣリンク合同会社,,合同会社,神奈川県,横浜市港北区,綱島西６丁目２０番２９号,,14,109,2230053,,,,,,,2024-12-25,1,,,,,ワイシーリンク,0
747,4020005016671,新規,0,2024-12-25,2024-12-25,医療法人社団粉川クリニック,,その他の設立登記法人,神奈川県,横浜市中区,弁天通４丁目５３番地１ホテルルートイン横浜馬車道２Ｆ,,14,104,2310007,,,,,,,2024-12-25,1,,,,,コカワクリニック,0
754,4030001164093,新規,0,2024-12-25,2024-12-25,株式会社ブルーオーシャン,,株式会社,埼玉県,久喜市,久喜新１１８０番地１,,11,232,3460032,,,,,,,2024-12-25,1,,,,,ブルーオーシャン,0
755,4030001164110,新規,0,2024-12-25,2024-12-25,株式会社ＷｉＲＭ,,株式会社,埼玉県,川越市,大字福田２５９－１１,,11,201,3500821,,,,,,,2024-12-25,1,,,,,ウィルム,0
760,4040001136678,新規,0,2024-12-25,2024-12-25,株式会社アニマーレ,,株式会社,千葉県,千葉市稲毛区,天台４丁目３番３号カームスクエア天台スカイマンション１０８,,12,103,2630016,,,,,,,2024-12-25,1,,,,,アニマーレ,0
761,4040001136694,新規,0,2024-12-25,2024-12-25,ディーワンオート株式会社,,株式会社,千葉県,印旛郡酒々井町,東酒々井３丁目３番４６９,,12,322,2850923,,,,,,,2024-12-25,1,,,,,ディーワンオート,0
762,4040001136728,新規,0,2024-12-25,2024-12-25,株式会社貫信,,株式会社,千葉県,船橋市,薬円台５丁目３２－１パンセビル１階,,12,204,2740077,,,,,,,2024-12-25,1,,,,,カンシン,0
766,4060003005375,新規,0,2024-12-25,2024-12-25,合同会社雨屋,,合同会社,栃木県,那須塩原市,一区町１３９番地７,,09,213,3292732,,,,,,,2024-12-25,1,,,,,アマヤ,0
774,4090003002709,新規,0,2024-12-25,2024-12-25,たまぶりスタジオ合同会社,,合同会社,山梨県,南都留郡富士河口湖町,小立８０４５番地２,,19,430,4010302,,,,,,,2024-12-25,1,,,,,タマブリスタジオ,0
778,4100003007920,新規,0,2024-12-25,2024-12-25,合同会社ヒンナヒンナの森,,合同会社,長野県,北佐久郡軽井沢町,中軽井沢１７番地８,,20,321,3890112,,,,,,,2024-12-25,1,,,,,ヒンナヒンナノモリ,0
792,4120001271434,新規,0,2024-12-25,2024-12-25,絆プロパティーズ株式会社,,株式会社,大阪府,大阪市阿倍野区,西田辺町１丁目１８番２０号２０１,,27,119,5450014,,,,,,,2024-12-25,1,,,,,キズナプロパティーズ,0
796,4120005024672,新規,0,2024-12-25,2024-12-25,一般社団法人なにわメディカルネットワーク,,その他の設立登記法人,大阪府,大阪市福島区,大開１丁目１３番８号医療法人英仁会大阪ブレストクリニック内,,27,103,5530007,,,,,,,2024-12-25,1,,,,,ナニワメディカルネットワーク,0
797,4120101070802,新規,0,2024-12-25,2024-12-25,汝利株式会社,,株式会社,大阪府,泉佐野市,新町１丁目４番８号,,27,213,5980051,,,,,,,2024-12-25,1,,,,,ジョリ,0
800,4130001078647,新規,0,2024-12-25,2024-12-25,株式会社ＣＯＮＧＥＮ,,株式会社,京都府,京都市左京区,高野東開町８番地５ヴェルエール松屋１０１,,26,103,6068107,,,,,,,2024-12-25,1,,,,,コンゲン,0
809,4140001136791,新規,0,2024-12-25,2024-12-25,株式会社ＳＷＣ．,,株式会社,兵庫県,神戸市西区,玉津町新方４４９番地の５,,28,111,6512125,,,,,,,2024-12-25,1,,,,,エスダブルシー,0
813,4150001027767,新規,0,2024-12-25,2024-12-25,株式会社里山環境保護管理センター,,株式会社,奈良県,高市郡明日香村,大字岡１０１番の８,,29,402,6340111,,,,,,,2024-12-25,1,,,,,サトヤマカンキョウホゴカンリセンター,0
819,4180001164657,新規,0,2024-12-25,2024-12-25,株式会社Ｆ’ｓ‐Ｌｉｆｅ,,株式会社,愛知県,尾張旭市,瀬戸川町２丁目１１番地１階,,23,226,4880023,,,,,,,2024-12-25,1,,,,,エフズライフ,0
820,4180001164673,新規,0,2024-12-25,2024-12-25,ケイズ・アンド・カンパニー株式会社,,株式会社,愛知県,名古屋市西区,那古野２丁目１４－１,,23,104,4510042,,,,,,,2024-12-25,1,,,,,ケイズアンドカンパニー,0
828,4180301039369,新規,0,2024-12-25,2024-12-25,株式会社愛Ｔｏｙｏ,,株式会社,愛知県,豊橋市,一色町字一色上２５番地１,,23,201,4418148,,,,,,,2024-12-25,1,,,,,アイトヨ,0
830,4190003004892,新規,0,2024-12-25,2024-12-25,合同会社ＮＥＷＳ,,合同会社,三重県,鈴鹿市,野町２０６‐２１セリーヌパレス２０１,,24,207,5100202,,,,,,,2024-12-25,1,,,,,ニューズ,0
841,4240001064297,新規,0,2024-12-25,2024-12-25,株式会社イオンデトックスＪＡＰＡＮ,,株式会社,広島県,広島市中区,大手町５丁目８番１号,,34,101,7300051,,,,,,,2024-12-25,1,,,,,イオンデトックスジャパン,0
859,4290001108405,新規,0,2024-12-25,2024-12-25,株式会社コウメイ,,株式会社,福岡県,福岡市中央区,西中洲５番６号,,40,133,8100002,,,,,,,2024-12-25,1,,,,,コウメイ,0
871,4340005009800,新規,0,2024-12-25,2024-12-25,社会福祉法人橙縁会,,その他の設立登記法人,鹿児島県,鹿児島市,石谷町３０２６番地,,46,201,8992701,,,,,,,2024-12-25,1,,,,,トウエンカイ,0
873,4360001034569,新規,0,2024-12-25,2024-12-25,株式会社デジタルフォワード,,株式会社,沖縄県,那覇市,牧志２丁目１７－２７－４０１,,47,201,9000013,,,,,,,2024-12-25,1,,,,,デジタルフォワード,0
875,4360005007141,新規,0,2024-12-25,2024-12-25,一般社団法人かけはし,,その他の設立登記法人,沖縄県,石垣市,字新川２１３６番地２３,,47,207,9070024,,,,,,,2024-12-25,1,,,,,カケハシ,0
877,4370005010879,新規,0,2024-12-25,2024-12-25,一般社団法人ハッピーライフ,,その他の設立登記法人,宮城県,仙台市宮城野区,田子３丁目４番２６号サンコープ二木２０２,,04,102,9830021,,,,,,,2024-12-25,1,,,,,ハッピーライフ,0
880,4420003003037,新規,0,2024-12-25,2024-12-25,合同会社クオンタムリフォーム,,合同会社,青森県,青森市,大字浜田字豊田３６２番地１,,02,201,0300843,,,,,,,2024-12-25,1,,,,,クオンタムリフォーム,0
883,4430001093343,新規,0,2024-12-25,2024-12-25,株式会社Ｌｉｍ,,株式会社,北海道,札幌市東区,東苗穂六条２丁目６－１５田中ビル１Ｆ,,01,103,0070806,,,,,,,2024-12-25,1,,,,,リム,0
884,4440005002786,新規,0,2024-12-25,2024-12-25,一般社団法人海藻文化振興会,,その他の設立登記法人,北海道,函館市,大町１３番１号,,01,202,0400052,,,,,,,2024-12-25,1,,,,,カイソウブンカシンコウカイ,0
888,4470003002777,新規,0,2024-12-25,2024-12-25,合同会社バン設計,,合同会社,香川県,高松市,今里町３７５番地アルファステイツ今里町４０２号室,,37,201,7600078,,,,,,,2024-12-25,1,,,,,バンセッケイ,0
891,4700150128401,新規,0,2024-12-25,2024-12-25,Ｈａｎｇｚｈｏｕ　Ｔｉａｎｘｉａｎｇ　Ｘｉｎ　Ｘｉ　Ｋｅ　Ｊｉ　Ｃｏ．，Ｌｔｄ,,外国会社等,,,,,,,,Ｒｏｏｍ　４０１－６，Ｂｕｉｌｄｉｎｇ　２，Ｗａｎｇｕａｎｇｈｕｉ　Ｂｕｓｉｎｅｓｓ　Ｃｅｎｔｅｒ，Ｇｏｎｇｓｈｕ　Ｄｉｓｔｒｉｃｔ　Ｈａｎｇｚｈｏｕ　Ｃｉｔｙ　Ｚｈｅｊｉａｎｇ　Ｐｒｏｖｉｎｃｅ　３１００１５　ＣＮ,,,,,,2024-12-25,1,,,,,ハンジョウティエンシャンシンシーコージーヨウシエンゴンスー,0
907,5010001250935,新規,0,2024-12-25,2024-12-25,株式会社Ｕｎｉｔｅｄ　Ａｓｉａ,,株式会社,東京都,中央区,銀座１丁目１２－４Ｎ＆ＥＢＬＤ．７階,,13,102,1040061,,,,,,,2024-12-25,1,,,,,ユナイテッドアジア,0
908,5010001250943,新規,0,2024-12-25,2024-12-25,株式会社エビスフーズサポート,,株式会社,東京都,中央区,日本橋浜町３丁目２３番１１号,,13,102,1030007,,,,,,,2024-12-25,1,,,,,エビスフーズサポート,0
909,5010001250951,新規,0,2024-12-25,2024-12-25,株式会社Ｒｅｆ．８７ＨＮＫ,,株式会社,東京都,中央区,日本橋堀留町１丁目７番２－５０７号,,13,102,1030012,,,,,,,2024-12-25,1,,,,,レフハチナナエイチエヌケー,0
913,5010005039318,新規,0,2024-12-25,2024-12-25,特定非営利活動法人こどもスポーツ教育推進クラブ,,その他の設立登記法人,東京都,中央区,日本橋大伝馬町１３－７日本橋大富ビル２階,,13,102,1030011,,,,,,,2024-12-25,1,,,,,コドモスポーツキョウイクスイシンクラブ,0
916,5010401187133,新規,0,2024-12-25,2024-12-25,株式会社ＦｍｉＴｅｃｈ,,株式会社,東京都,港区,南青山３丁目１番３６号青山丸竹ビル６Ｆ,,13,103,1070062,,,,,,,2024-12-25,1,,,,,フミイテック,0
917,5010401187199,新規,0,2024-12-25,2024-12-25,株式会社バリュープラス,,株式会社,東京都,港区,赤坂４丁目８番１９号赤坂フロントタウン３階,,13,103,1070052,,,,,,,2024-12-25,1,,,,,バリュープラス,0
918,5010401187216,新規,0,2024-12-25,2024-12-25,株式会社ＳＴＩ,,株式会社,東京都,港区,芝４丁目１６番１－１８１３号,,13,103,1080014,,,,,,,2024-12-25,1,,,,,エスティーアイ,0
919,5010401187240,新規,0,2024-12-25,2024-12-25,株式会社こはる,,株式会社,東京都,港区,北青山１丁目３番１号アールキューブ青山３階,,13,103,1070061,,,,,,,2024-12-25,1,,,,,コハル,0
922,5010403034069,新規,0,2024-12-25,2024-12-25,ＣＩＴＲＵＳ合同会社,,合同会社,東京都,港区,芝５丁目２７番４－９０２号,,13,103,1080014,,,,,,,2024-12-25,1,,,,,シトラス,0
926,5010603011289,新規,0,2024-12-25,2024-12-25,合同会社Ｊ．Ｅ．Ｒ．,,合同会社,東京都,江東区,亀戸６丁目３１番２－１７１１号,,13,108,1360071,,,,,,,2024-12-25,1,,,,,ジェイイーアール,0
928,5010903009586,新規,0,2024-12-25,2024-12-25,梅澤翔マーケティングデザイン合同会社,,合同会社,東京都,世田谷区,砧１丁目１３番１４号マァナー砧１０６,,13,112,1570073,,,,,,,2024-12-25,1,,,,,ウメザワショウマーケティングデザイン,0
931,5011001166758,新規,0,2024-12-25,2024-12-25,株式会社Ｊａｐａｎ　Ｃｏｍｍｕｎｉｃａｔｉｏｎｓ,,株式会社,東京都,渋谷区,恵比寿西２丁目８番４号ＥＸ恵比寿西ビル５Ｆ,,13,113,1500021,,,,,,,2024-12-25,1,,,,,ジャパンコミュニケーションズ,0
933,5011101110054,新規,0,2024-12-25,2024-12-25,株式会社スタジオサザンカ,,株式会社,東京都,新宿区,高田馬場２丁目１４番９号,,13,104,1690075,,,,,,,2024-12-25,1,,,,,スタジオサザンカ,0
934,5011101110070,新規,0,2024-12-25,2024-12-25,ＢＩＧ　ＢＩＬＬ株式会社,,株式会社,東京都,新宿区,百人町１丁目１８番８号大久保カドビル２Ｆ・ＬｉｎｋＳｐａｃｅ・Ｅ０１号,,13,104,1690073,,,,,,,2024-12-25,1,,,,,ビッグビル,0
935,5011103015334,新規,0,2024-12-25,2024-12-25,合同会社ＰＬＡＣＥ,,合同会社,東京都,新宿区,新宿７丁目２４番３号パルサー新宿１階,,13,104,1600022,,,,,,,2024-12-25,1,,,,,プレイス,0
937,5011303005374,新規,0,2024-12-25,2024-12-25,タイドプール合同会社,,合同会社,東京都,杉並区,方南１丁目５１番１号,,13,115,1680062,,,,,,,2024-12-25,1,,,,,タイドプール,0
949,5012401042607,新規,0,2024-12-25,2024-12-25,株式会社ＣＩＮＤＥＲＥＬＬＡ,,株式会社,東京都,多摩市,愛宕１丁目６３０番地の２４,,13,224,2060041,,,,,,,2024-12-25,1,,,,,シンデレラ,0
951,5012701018612,新規,0,2024-12-25,2024-12-25,株式会社ＩＣＷ,,株式会社,東京都,西東京市,富士町５丁目４番１５号,,13,229,2020014,,,,,,,2024-12-25,1,,,,,アイシーダブリュ,0
952,5012701018620,新規,0,2024-12-25,2024-12-25,株式会社ＮＫＲ．ＤＥＳＩＧＮ,,株式会社,東京都,西東京市,下保谷５丁目７番２１号,,13,229,2020004,,,,,,,2024-12-25,1,,,,,エヌケイアールデザイン,0
953,5012701018629,新規,0,2024-12-25,2024-12-25,株式会社村上商店,,株式会社,東京都,小平市,津田町２丁目３番１０号,,13,211,1870025,,,,,,,2024-12-25,1,,,,,ムラカミショウテン,0
955,5012703003158,新規,0,2024-12-25,2024-12-25,合同会社Ｓｎｏｏｚｅ,,合同会社,東京都,小平市,上水新町３丁目２６番７号,,13,211,1870023,,,,,,,2024-12-25,1,,,,,スヌーズ,0
966,5020003027521,新規,0,2024-12-25,2024-12-25,合同会社ウエノトランスポート,,合同会社,神奈川県,横浜市戸塚区,汲沢町３３５番地,,14,110,2450062,,,,,,,2024-12-25,1,,,,,ウエノトランスポート,0
969,5021001084075,新規,0,2024-12-25,2024-12-25,島津株式会社,,株式会社,神奈川県,小田原市,浜町３丁目１番４３号２０１,,14,206,2500004,,,,,,,2024-12-25,1,,,,,シマヅ,0
975,5030001164101,新規,0,2024-12-25,2024-12-25,株式会社プレジャー,,株式会社,埼玉県,新座市,畑中１丁目７番１３－２０２号,,11,230,3520012,,,,,,,2024-12-25,1,,,,,プレジャー,0
981,5040001136693,新規,0,2024-12-25,2024-12-25,株式会社一対,,株式会社,千葉県,船橋市,前貝塚町７０２番地,,12,204,2730042,,,,,,,2024-12-25,1,,,,,イッツイ,0
982,5040001136702,新規,0,2024-12-25,2024-12-25,株式会社ＨＴＬ千葉,,株式会社,千葉県,千葉市中央区,新千葉１丁目７番２号ペリエＰＬＵＳビル７５号室,,12,101,2600031,,,,,,,2024-12-25,1,,,,,エイチティーエルチバ,0
987,5040003026455,新規,0,2024-12-25,2024-12-25,合同会社太夢企画,,合同会社,千葉県,柏市,柏１１２７番地の３,,12,217,2770005,,,,,,,2024-12-25,1,,,,,タイムキカク,0
988,5040003026463,新規,0,2024-12-25,2024-12-25,ＲＤＬ　Ｅｎｔｅｒｐｒｉｓｅｓ合同会社,,合同会社,千葉県,野田市,なみき１丁目２９番地１３,,12,208,2700229,,,,,,,2024-12-25,1,,,,,アールディーエルエンタープライゼス,0
994,5060001037766,新規,0,2024-12-25,2024-12-25,株式会社テイクフォー,,株式会社,栃木県,鹿沼市,茂呂２６６番地９,,09,205,3220026,,,,,,,2024-12-25,1,,,,,テイクフォー,0
996,5070001042476,新規,0,2024-12-25,2024-12-25,株式会社エアコニスト,,株式会社,群馬県,高崎市,飯塚町１８２０番地１８セレニティＢ棟,,10,202,3700069,,,,,,,2024-12-25,1,,,,,エアコニスト,0
1002,5100005013271,新規,0,2024-12-25,2024-12-25,一般財団法人さくまんが舎,,その他の設立登記法人,長野県,佐久市,岩村田５５０６番地,,20,217,3850022,,,,,,,2024-12-25,1,,,,,サクマンガシヤ,0
1011,5120001271391,新規,0,2024-12-25,2024-12-25,強泰株式会社,,株式会社,大阪府,大阪市中央区,博労町３丁目１番８－９０８号,,27,128,5410059,,,,,,,2024-12-25,1,,,,,キョウタイ,0
1012,5120001271400,新規,0,2024-12-25,2024-12-25,リアルティワン株式会社,,株式会社,大阪府,大阪市中央区,本町１丁目１番３号,,27,128,5410053,,,,,,,2024-12-25,1,,,,,リアルティワン,0
1013,5120001271417,新規,0,2024-12-25,2024-12-25,株式会社サンリッシュ,,株式会社,大阪府,大阪市北区,中津１丁目２番１８号,,27,127,5310071,,,,,,,2024-12-25,1,,,,,サンリッシュ,0
1014,5120001271425,新規,0,2024-12-25,2024-12-25,株式会社明清,,株式会社,大阪府,大阪市東住吉区,照ケ丘矢田３丁目１番１８号矢田駅前ビル２階,,27,121,5460021,,,,,,,2024-12-25,1,,,,,メイセイ,0
1015,5120001271433,新規,0,2024-12-25,2024-12-25,株式会社ネクサス,,株式会社,大阪府,枚方市,堂山１丁目１３番２号,,27,210,5730007,,,,,,,2024-12-25,1,,,,,ネクサス,0
1019,5120003028204,新規,0,2024-12-25,2024-12-25,Ｔａｍ　Ｅｒａ　Ｔｒａｄｉｎｇ　Ｊａｐａｎ合同会社,,合同会社,大阪府,大阪市北区,梅田１丁目２番２号大阪駅前第２ビル１２－１２,,27,127,5300001,,,,,,,2024-12-25,1,,,,,タムエラトレーディングジャパン,0
1020,5120003028237,新規,0,2024-12-25,2024-12-25,ＫＭ合同会社,,合同会社,大阪府,大阪市中央区,北浜２丁目１番１７号,,27,128,5410041,,,,,,,2024-12-25,1,,,,,ケイエム,0
1022,5120101070801,新規,0,2024-12-25,2024-12-25,Ｓ＆Ｈカンパニー株式会社,,株式会社,大阪府,羽曳野市,高鷲３丁目３番１－７１１号,,27,222,5830882,,,,,,,2024-12-25,1,,,,,エスアンドエイチカンパニー,0
1026,5122001038762,新規,0,2024-12-25,2024-12-25,株式会社ＳＯＡＲＩＮ,,株式会社,大阪府,東大阪市,吉田３丁目１３番３１号,,27,227,5780924,,,,,,,2024-12-25,1,,,,,ソアリン,0
1035,5140001136849,新規,0,2024-12-25,2024-12-25,株式会社ザナリクス,,株式会社,兵庫県,神戸市中央区,北長狭通４丁目２－１９,,28,110,6500012,,,,,,,2024-12-25,1,,,,,ザナリクス,0
1052,5180001164656,新規,0,2024-12-25,2024-12-25,ＡＴＬＡＳ　ＣＯＮＳＵＬＴＩＮＧ株式会社,,株式会社,愛知県,半田市,南末広町１２０番地の４,,23,205,4750853,,,,,,,2024-12-25,1,,,,,アトラスコンサルティング,0
1055,5180003027786,新規,0,2024-12-25,2024-12-25,ＭＩＷＡ　ＭＯＴＯＲＳ合同会社,,合同会社,愛知県,名古屋市港区,港楽１丁目２番１６号レオパレス港楽１０７,,23,111,4550014,,,,,,,2024-12-25,1,,,,,ミワモータース,0
1058,5190001031888,新規,0,2024-12-25,2024-12-25,株式会社Ａ＆Ｇ,,株式会社,三重県,多気郡明和町,大字明星２５４０番地７,,24,442,5150313,,,,,,,2024-12-25,1,,,,,エーアンドジー,0
1059,5190003004891,新規,0,2024-12-25,2024-12-25,ホリイ木材生産合同会社,,合同会社,三重県,多気郡多気町,下出江１５２番地３,,24,441,5192202,,,,,,,2024-12-25,1,,,,,ホリイモクザイセイサン,0
1068,5240001064288,新規,0,2024-12-25,2024-12-25,株式会社Ｙ５１,,株式会社,広島県,東広島市,安芸津町風早２６１２番地８,,34,212,7392403,,,,,,,2024-12-25,1,,,,,ワイゴジュウイチ,0
1078,5290001108379,新規,0,2024-12-25,2024-12-25,遠享株式会社,,株式会社,福岡県,福岡市城南区,西片江２丁目１５番２０ハイツアゼリア２０２号,,40,136,8140141,,,,,,,2024-12-25,1,,,,,エンコウ,0
1079,5290001108387,新規,0,2024-12-25,2024-12-25,株式会社ｓｈｉｎ,,株式会社,福岡県,糟屋郡宇美町,四王寺坂３丁目２１番７号,,40,341,8112103,,,,,,,2024-12-25,1,,,,,シン,0
1080,5290001108395,新規,0,2024-12-25,2024-12-25,株式会社ｍｉｏｎａｎｏ,,株式会社,福岡県,福岡市南区,向野２丁目１９番２５号,,40,134,8150035,,,,,,,2024-12-25,1,,,,,ミオナノ,0
1081,5290001108404,新規,0,2024-12-25,2024-12-25,株式会社グラーティア,,株式会社,福岡県,福岡市博多区,博多駅前１丁目２３番２号ＰａｒｋＦｒｏｎｔ博多駅前１丁目５Ｆ－Ｂ,,40,132,8120011,,,,,,,2024-12-25,1,,,,,グラーティア,0
1082,5290001108412,新規,0,2024-12-25,2024-12-25,株式会社ＣＮＤ　Ｊａｐａｎ　Ｔｅｃｈ,,株式会社,福岡県,福岡市中央区,那の津２丁目６番４号九州産業東ビル３Ｆ,,40,133,8100071,,,,,,,2024-12-25,1,,,,,シーエヌディージャパンテック,0
1084,5290005019589,新規,0,2024-12-25,2024-12-25,特定非営利活動法人ファーナウ２１,,その他の設立登記法人,福岡県,春日市,須玖南８丁目６５,,40,218,8160863,,,,,,,2024-12-25,1,,,,,ファーナウニジュウイチ,0
1085,5290005019597,新規,0,2024-12-25,2024-12-25,医療法人寛仁会,,その他の設立登記法人,福岡県,福岡市中央区,白金１丁目１２番２号,,40,133,8100012,,,,,,,2024-12-25,1,,,,,,0
1095,5350001019330,新規,0,2024-12-25,2024-12-25,株式会社都城ロイヤルホテル,,株式会社,宮崎県,都城市,小松原町１１０６番地５０,,45,202,8850022,,,,,,,2024-12-25,1,,,,,ミヤコノジョウロイヤルホテル,0
1096,5360001034551,新規,0,2024-12-25,2024-12-25,株式会社くくまーる,,株式会社,沖縄県,那覇市,牧志２丁目１７－４０１,,47,201,9000013,,,,,,,2024-12-25,1,,,,,ククマール,0
1110,5430001093342,新規,0,2024-12-25,2024-12-25,株式会社トライアド,,株式会社,北海道,札幌市厚別区,大谷地東５丁目１番１５－６１６号,,01,108,0040041,,,,,,,2024-12-25,1,,,,,トライアド,0
1111,5430003017101,新規,0,2024-12-25,2024-12-25,合同会社優助ＧＲＯＵＰ,,合同会社,北海道,札幌市手稲区,西宮の沢五条１丁目２０番１６号,,01,109,0060005,,,,,,,2024-12-25,1,,,,,ユウスケグループ,0
1114,5470001020508,新規,0,2024-12-25,2024-12-25,株式会社大讃工業,,株式会社,香川県,丸亀市,飯野町東二８２３番地２０,,37,202,7630084,,,,,,,2024-12-25,1,,,,,ダイサンコウギョウ,0
1115,5480003002214,新規,0,2024-12-25,2024-12-25,合同会社エスペシアル,,合同会社,徳島県,徳島市,南沖洲３丁目１１番２２－１０９号コーポシーサイド,,36,201,7700874,,,,,,,2024-12-25,1,,,,,エスペシアル,0
1120,5700150127988,新規,0,2024-12-25,2024-12-25,ＤＮＶＢ　Ｉｎｃ．,,外国会社等,,,,,,,,４８　Ｗ　２１ｓｔ，２ｎｄ　Ｆｌｏｏｒ　Ｎｅｗ　Ｙｏｒｋ，ＮＹ,,,,,,2024-12-25,1,,,,,デイーエヌヴイビーインコーポレイテイツド,0
1124,6010001250843,新規,0,2024-12-25,2024-12-25,株式会社ＥＮＩＳＩＡ,,株式会社,東京都,中央区,銀座８丁目７番２号,,13,102,1040061,,,,,,,2024-12-25,1,,,,,エニシア,0
1125,6010001250950,新規,0,2024-12-25,2024-12-25,株式会社エビスフィード,,株式会社,東京都,中央区,新川１丁目３番２１号,,13,102,1040033,,,,,,,2024-12-25,1,,,,,エビスフィード,0
1126,6010001250975,新規,0,2024-12-25,2024-12-25,Ｂｏｎｄｅｅ株式会社,,株式会社,東京都,文京区,大塚３丁目８－３ブランズ文京茗荷谷２０２,,13,105,1120012,,,,,,,2024-12-25,1,,,,,ボンディ,0
1133,6010003045886,新規,0,2024-12-25,2024-12-25,合同会社ａｗａｒｅ,,合同会社,東京都,中央区,銀座１丁目１２番４号Ｎ＆ＥＢＬＤ．６Ｆ,,13,102,1040061,,,,,,,2024-12-25,1,,,,,アウェア,0
1134,6010003045894,新規,0,2024-12-25,2024-12-25,合同会社ソルソル,,合同会社,東京都,千代田区,神田須田町１丁目７番８号ＶＯＲＴ秋葉原ＩＶ２Ｆ,00137444,13,101,1010041,,,,,,,2024-12-25,1,,,,,ソルソル,0
1139,6010401187198,新規,0,2024-12-25,2024-12-25,株式会社ＮＳＳＫ‐Ｉ２,,株式会社,東京都,港区,愛宕２丁目５番１号愛宕グリーンヒルズＭＯＲＩタワー,,13,103,1050002,,,,,,,2024-12-25,1,,,,,エヌエスエスケーアイツー,0
1140,6010401187223,新規,0,2024-12-25,2024-12-25,株式会社サカイスラッシュ,,株式会社,東京都,港区,南青山６丁目１１番１号スリーエフ南青山ビルディング４Ｆ,,13,103,1070062,,,,,,,2024-12-25,1,,,,,サカイスラッシュ,0
1141,6010401187256,新規,0,2024-12-25,2024-12-25,Ｃ‐ＶＩ株式会社,,株式会社,東京都,港区,北青山１丁目３番１号アールキューブ青山３階,,13,103,1070061,,,,,,,2024-12-25,1,,,,,シーヴィーアイ,0
1146,6010403034051,新規,0,2024-12-25,2024-12-25,合同会社Ｄｅｌ　Ｍａｒ,,合同会社,東京都,港区,新橋２丁目１６－１－２０６,,13,103,1050004,,,,,,,2024-12-25,1,,,,,デルマール,0
1150,6010601066516,新規,0,2024-12-25,2024-12-25,株式会社運幸ジャパン,,株式会社,東京都,江東区,東陽４丁目７－３５グランヒルズ東陽町５０６号室,,13,108,1350016,,,,,,,2024-12-25,1,,,,,ウンコウジャパン,0
1152,6010603011288,新規,0,2024-12-25,2024-12-25,アンダンティーノジャパン合同会社,,合同会社,東京都,墨田区,東向島３丁目１０－９－５０２グランパーク東向島,,13,107,1310032,,,,,,,2024-12-25,1,,,,,アンダンティーノジャパン,0
1153,6010801035700,新規,0,2024-12-25,2024-12-25,株式会社丸秀ホールディングス,,株式会社,東京都,大田区,多摩川１丁目２１番５号,,13,111,1460095,,,,,,,2024-12-25,1,,,,,マルヒデホールディングス,0
1154,6010803005214,新規,0,2024-12-25,2024-12-25,リードライズ合同会社,,合同会社,東京都,大田区,大森東３丁目９－８ガーデングレイス２０１号,,13,111,1430012,,,,,,,2024-12-25,1,,,,,リードライズ,0
1158,6010901056547,新規,0,2024-12-25,2024-12-25,株式会社ＯＮＩ　ＷＯＲＫ,,株式会社,東京都,世田谷区,北沢３丁目３０番３号,,13,112,1550031,,,,,,,2024-12-25,1,,,,,オニワーク,0
1164,6011101110004,新規,0,2024-12-25,2024-12-25,株式会社Ｓｏｌｏ　Ａｒｅｎａ,,株式会社,東京都,新宿区,西新宿３丁目３－１３西新宿水間ビル２Ｆ,,13,104,1600023,,,,,,,2024-12-25,1,,,,,ソロアリーナ,0
1165,6011101110012,新規,0,2024-12-25,2024-12-25,株式会社ＥｑｕａｌＦｒｏｎｔｉｅｒｓ,,株式会社,東京都,新宿区,喜久井町２９番,,13,104,1620044,,,,,,,2024-12-25,1,,,,,イコールフロンティアーズ,0
1166,6011101110037,新規,0,2024-12-25,2024-12-25,株式会社サウンズ,,株式会社,東京都,新宿区,高田馬場３丁目２５番３０号,,13,104,1690075,,,,,,,2024-12-25,1,,,,,サウンズ,0
1167,6011101110053,新規,0,2024-12-25,2024-12-25,ＯＮＰ株式会社,,株式会社,東京都,新宿区,新宿１丁目２４番８号新宿タウンプラザビル２Ｆ－Ａ２,,13,104,1600022,,,,,,,2024-12-25,1,,,,,オーエヌピー,0
1168,6011101110061,新規,0,2024-12-25,2024-12-25,株式会社ＴＯＭＯ,,株式会社,東京都,新宿区,西新宿７丁目１７番７号廣田ビル５０４号室,,13,104,1600023,,,,,,,2024-12-25,1,,,,,トモ,0
1173,6011303005373,新規,0,2024-12-25,2024-12-25,合同会社Ｋｅｎ’ｓ　Ｐｒｏｐｅｒｔｙ,,合同会社,東京都,杉並区,阿佐谷北２丁目２９番１２号,,13,115,1660001,,,,,,,2024-12-25,1,,,,,ケンズプロパティ,0
1174,6011305003020,新規,0,2024-12-25,2024-12-25,社会保険労務士法人Ｆ＆Ｆ,,その他の設立登記法人,東京都,杉並区,荻窪４丁目２６番６号,,13,115,1670051,,,,,,,2024-12-25,1,,,,,エフアンドエフ,0
1177,6011501031519,新規,0,2024-12-25,2024-12-25,ＮＣＮ　ＣＯＮＳＵＬＴＩＮＧ株式会社,,株式会社,東京都,荒川区,荒川５丁目１８番１－７０２号,,13,118,1160002,,,,,,,2024-12-25,1,,,,,エヌシーエヌコンサルティング,0
1182,6012301014192,新規,0,2024-12-25,2024-12-25,Ｄｉａｇｓｅｎｓｏｒ日本株式会社,,株式会社,東京都,町田市,森野１丁目３６－２Ｒｅｇｕｓ２１５,,13,209,1940022,,,,,,,2024-12-25,1,,,,,ダイアグセンサーニホン,0
1186,6012701018611,新規,0,2024-12-25,2024-12-25,株式会社千鳥舎,,株式会社,東京都,西東京市,向台町１丁目２番３４号,,13,229,1880013,,,,,,,2024-12-25,1,,,,,チドリシャ,0
1196,6020001160653,新規,0,2024-12-25,2024-12-25,株式会社ＰＩＦ,,株式会社,神奈川県,川崎市中原区,丸子通１丁目６５３番地７藤和シティコープ新丸子５０２,,14,133,2110006,,,,,,,2024-12-25,1,,,,,ピーアイエフ,0
1197,6020001160736,新規,0,2024-12-25,2024-12-25,株式会社Ｌｉ．ＲＩＳＥ,,株式会社,神奈川県,横浜市港北区,新横浜１丁目２番地１,,14,109,2220033,,,,,,,2024-12-25,1,,,,,リライズ,0
1198,6020003027297,新規,0,2024-12-25,2024-12-25,合同会社ゼロワンｌａｂｏ,,合同会社,神奈川県,横浜市西区,浅間町１丁目４番３号,,14,103,2200072,,,,,,,2024-12-25,1,,,,,ゼロワンラボ,0
1210,6040001136668,新規,0,2024-12-25,2024-12-25,株式会社ブライトスタッフ,,株式会社,千葉県,八千代市,勝田台１丁目３８番地１ソレアード勝田台２０２,,12,221,2760023,,,,,,,2024-12-25,1,,,,,ブライトスタッフ,0
1211,6040001136676,新規,0,2024-12-25,2024-12-25,株式会社Ｒｅホームラフテル,,株式会社,千葉県,八千代市,萱田町８２６番地１,,12,221,2760044,,,,,,,2024-12-25,1,,,,,リホームラフテル,0
1212,6040001136692,新規,0,2024-12-25,2024-12-25,大雅工業株式会社,,株式会社,千葉県,千葉市稲毛区,長沼原町７０４番地１パストラールハイツＡ２０３,,12,103,2630001,,,,,,,2024-12-25,1,,,,,タイガコウギョウ,0
1213,6040001136701,新規,0,2024-12-25,2024-12-25,方華株式会社,,株式会社,千葉県,市川市,南行徳４丁目８番１－３０７号（エクセレント南行徳）,,12,203,2720138,,,,,,,2024-12-25,1,,,,,ホウカ,0
1214,6040003026396,新規,0,2024-12-25,2024-12-25,ＪＩＭＡＬ　ＴＲＡＤＩＮＧ合同会社,,合同会社,千葉県,我孫子市,都１７番地の１桜井ハイツ１０９号,,12,222,2701102,,,,,,,2024-12-25,1,,,,,ジーマルトレーディング,0
1215,6040003026454,新規,0,2024-12-25,2024-12-25,合同会社Ｌｉｎａヨガ,,合同会社,千葉県,千葉市美浜区,真砂１丁目１２番７棟３０４号,,12,106,2610011,,,,,,,2024-12-25,1,,,,,リナヨガ,0
1219,6050001055925,新規,0,2024-12-25,2024-12-25,株式会社ＰＯＫＯＭＡＲＯＯＭ,,株式会社,茨城県,日立市,西成沢町３丁目７番６号,,08,202,3160032,,,,,,,2024-12-25,1,,,,,ポコマルーム,0
1223,6050003008897,新規,0,2024-12-25,2024-12-25,ＫＹＡＷ合同会社,,合同会社,茨城県,筑西市,折本７４７－６,,08,227,3080007,,,,,,,2024-12-25,1,,,,,チョウ,0
1231,6080401027645,新規,0,2024-12-25,2024-12-25,株式会社コウシ,,株式会社,静岡県,浜松市中央区,有玉北町１７０６番地,,22,138,4313121,,,,,,,2024-12-25,1,,,,,コウシ,0
1236,6100001038148,新規,0,2024-12-25,2024-12-25,株式会社ＫｏｍｏＬｉｎｋ,,株式会社,長野県,千曲市,大字上山田８６６番地６,,20,218,3890822,,,,,,,2024-12-25,1,,,,,コモリンク,0
1240,6100005013270,新規,0,2024-12-25,2024-12-25,特定非営利活動法人美麻ジビエ振興会,,その他の設立登記法人,長野県,大町市,美麻１７４５番地,,20,212,3999101,,,,,,,2024-12-25,1,,,,,ミアサジビエシンコウカイ,0
1246,6120001271300,新規,0,2024-12-25,2024-12-25,株式会社西日本都市開発,,株式会社,大阪府,大阪市浪速区,湊町２丁目１番３４号,,27,111,5560017,,,,,,,2024-12-25,1,,,,,ニシニホントシカイハツ,0
1247,6120001271374,新規,0,2024-12-25,2024-12-25,株式会社ＯＴＯＴＯＭＡ,,株式会社,大阪府,大阪市天王寺区,悲田院町８－１１－６階,,27,109,5430055,,,,,,,2024-12-25,1,,,,,オトトマ,0
1248,6120001271408,新規,0,2024-12-25,2024-12-25,大成株式会社,,株式会社,大阪府,大阪市城東区,今福西５丁目７番１２号,,27,118,5360004,,,,,,,2024-12-25,1,,,,,ダイセイ,0
1249,6120001271457,新規,0,2024-12-25,2024-12-25,株式会社Ｆｉｎｅｓ,,株式会社,大阪府,大阪市西区,南堀江１丁目１０番１－６０３号,,27,106,5500015,,,,,,,2024-12-25,1,,,,,ファインズ,0
1250,6120003028211,新規,0,2024-12-25,2024-12-25,合同会社ホープジャパン,,合同会社,大阪府,大阪市西成区,天下茶屋東２丁目１６番７号,,27,122,5570011,,,,,,,2024-12-25,1,,,,,ホープジャパン,0
1251,6120003028236,新規,0,2024-12-25,2024-12-25,合同会社ヘブンリーハナ,,合同会社,大阪府,大阪市北区,中崎２丁目３番２号ラ・メゾヌーヴ２０１号室,,27,127,5300016,,,,,,,2024-12-25,1,,,,,ヘブンリーハナ,0
1254,6120101070800,新規,0,2024-12-25,2024-12-25,はじめクリエイト株式会社,,株式会社,大阪府,堺市北区,北花田町４丁９４番地１４,,27,146,5918002,,,,,,,2024-12-25,1,,,,,ハジメクリエイト,0
1255,6120103006208,新規,0,2024-12-25,2024-12-25,合同会社益信,,合同会社,大阪府,岸和田市,荒木町１丁目１３番１４号,,27,202,5960004,,,,,,,2024-12-25,1,,,,,マスシン,0
1274,6180001164655,新規,0,2024-12-25,2024-12-25,株式会社ｍｕｇｉ　ａｎｄ,,株式会社,愛知県,小牧市,大字大草８３８番地２,,23,219,4850802,,,,,,,2024-12-25,1,,,,,ムギアンド,0
1275,6180001164671,新規,0,2024-12-25,2024-12-25,株式会社ＴＡＮＩＤＡ,,株式会社,愛知県,丹羽郡扶桑町,大字南山名字安戸３番地,,23,362,4800105,,,,,,,2024-12-25,1,,,,,タニダ,0
1282,6210001020004,新規,0,2024-12-25,2024-12-25,株式会社ＧｒａｎｄＱｕｅｓｔ,,株式会社,福井県,坂井市,春江町木部西方寺１３―１―２,,18,210,9190408,,,,,,,2024-12-25,1,,,,,グランドクエスト,0
1286,6220001026388,新規,0,2024-12-25,2024-12-25,和徳株式会社,,株式会社,石川県,加賀市,伊切町ワ１０４番地１,,17,206,9220406,,,,,,,2024-12-25,1,,,,,ワトク,0
1287,6220001026396,新規,0,2024-12-25,2024-12-25,ＡＩＤＴ株式会社,,株式会社,石川県,加賀市,大聖寺八間道６５番地,,17,206,9220057,,,,,,,2024-12-25,1,,,,,エーアイディーティー,0
1291,6230003002353,新規,0,2024-12-25,2024-12-25,ＩＦＴマネジメント合同会社,,合同会社,富山県,砺波市,東中４５番地,,16,208,9391348,,,,,,,2024-12-25,1,,,,,アイエフティーマネジメント,0
1298,6240005015872,新規,0,2024-12-25,2024-12-25,一般社団法人ベースキャンプ,,その他の設立登記法人,広島県,広島市西区,三篠町１丁目９番５４号,,34,104,7330003,,,,,,,2024-12-25,1,,,,,ベースキャンプ,0
1301,6270005005623,新規,0,2024-12-25,2024-12-25,司法書士法人濱本事務所,,その他の設立登記法人,鳥取県,鳥取市,吉方町２丁目５２１番地,,31,201,6800062,,,,,,,2024-12-25,1,,,,,ハマモトジムショ,0
1313,6290001108394,新規,0,2024-12-25,2024-12-25,ディグニティライフ株式会社,,株式会社,福岡県,福岡市西区,野方６丁目２７番２号,,40,135,8190043,,,,,,,2024-12-25,1,,,,,ディグニティライフ,0
1314,6290005019596,新規,0,2024-12-25,2024-12-25,医療法人ＴＴＳＲ,,その他の設立登記法人,福岡県,福岡市城南区,鳥飼７丁目１番２１号グレイス鳥飼２階,,40,136,8140103,,,,,,,2024-12-25,1,,,,,ティーティーエスアール,0
1315,6300001014021,新規,0,2024-12-25,2024-12-25,株式会社Ｃａｒｅ　ｌａ　Ｃｕｒｅ,,株式会社,佐賀県,唐津市,相知町牟田部１５５４番地３,,41,202,8493231,,,,,,,2024-12-25,1,,,,,ケアラキュア,0
1318,6360005007148,新規,0,2024-12-25,2024-12-25,一般社団法人Ｇｏｌｄｅｎ　ｃＲｏｗ,,その他の設立登記法人,沖縄県,名護市,字真喜屋５４４,,47,209,9051143,,,,,,,2024-12-25,1,,,,,ゴールデンクロウ,0
1328,6410001014019,新規,0,2024-12-25,2024-12-25,株式会社幕の内,,株式会社,秋田県,秋田市,千秋明徳町１番５６号ＮＥＷテラス広小路,,05,201,0100875,,,,,,,2024-12-25,1,,,,,マクノウチ,0
1330,6430001093250,新規,0,2024-12-25,2024-12-25,株式会社ｔｒｅｎｔｕｎｏ,,株式会社,北海道,千歳市,旭ケ丘１丁目２番２４号,,01,224,0660018,,,,,,,2024-12-25,1,,,,,トレントゥーノ,0
1331,6430001093333,新規,0,2024-12-25,2024-12-25,株式会社ＴＲＫ３,,株式会社,北海道,千歳市,清流４丁目６番４号,,01,224,0660081,,,,,,,2024-12-25,1,,,,,ティーアールケースリー,0
1332,6430001093341,新規,0,2024-12-25,2024-12-25,株式会社ＭＯＮＲＯＥ,,株式会社,北海道,札幌市東区,東苗穂九条３丁目８番５号モンローハウスＡ－２－１,,01,103,0070809,,,,,,,2024-12-25,1,,,,,モンロー,0
1336,6460101007644,新規,0,2024-12-25,2024-12-25,株式会社陽興業,,株式会社,北海道,中川郡幕別町,札内共栄町１６３番地１８札内ＭハウスＥ,,01,643,0890538,,,,,,,2024-12-25,1,,,,,ヒナタコウギョウ,0
1349,6700150128399,新規,0,2024-12-25,2024-12-25,日本国際連合協会京都本部,,その他,京都府,京都市中京区,烏丸通夷川上る少将井町２２９－２　第７長谷ビル８階,,26,104,6040862,,,,,,,2024-12-25,1,,,,,ニホンコクサイレンゴウキョウカイキョウトホンブ,0
1362,7010001250768,新規,0,2024-12-25,2024-12-25,ワンダーベンチャー株式会社,,株式会社,東京都,千代田区,丸の内１丁目１１－１パシフィックセンチュリープレイス丸の内１３階,,13,101,1000005,,,,,,,2024-12-25,1,,,,,ワンダーベンチャー,0
1363,7010001250867,新規,0,2024-12-25,2024-12-25,ＡｄｖｅｒｔｉｓｅｍｅｎｔＭｉｎｄ株式会社,,株式会社,東京都,千代田区,神田司町２丁目８番１号ＰＭＯ神田司町４Ｆ,,13,101,1010048,,,,,,,2024-12-25,1,,,,,アドバータイズメントマインド,0
1364,7010001250941,新規,0,2024-12-25,2024-12-25,ＶＯＣｓ　ＤｅｅｐＴｅｃｈ　Ｌａｂ株式会社,,株式会社,東京都,千代田区,飯田橋１丁目８－９ニューシティハイツ飯田橋７０７,,13,101,1020072,,,,,,,2024-12-25,1,,,,,ヴォックスディープテックラボ,0
1365,7010001250966,新規,0,2024-12-25,2024-12-25,株式会社ＧｕｉｄｅＹａｒｄ,,株式会社,東京都,中央区,新川１丁目７番１号,,13,102,1040033,,,,,,,2024-12-25,1,,,,,ガイドヤード,0
1369,7010005039316,新規,0,2024-12-25,2024-12-25,一般社団法人リマンベ,,その他の設立登記法人,東京都,中央区,銀座１丁目２２番１１号銀座大竹ビジデンス２Ｆ,,13,102,1040061,,,,,,,2024-12-25,1,,,,,リマンベ,0
1376,7010401187197,新規,0,2024-12-25,2024-12-25,株式会社ＮＳＳＫ‐Ｉ１,,株式会社,東京都,港区,愛宕２丁目５番１号愛宕グリーンヒルズＭＯＲＩタワー,,13,103,1050002,,,,,,,2024-12-25,1,,,,,エヌエスエスケーアイワン,0
1377,7010401187214,新規,0,2024-12-25,2024-12-25,株式会社Ｓｑｕａｒｅ　Ｒｏｏｔｓ　Ｊａｐａｎ,,株式会社,東京都,港区,南青山５丁目４番２７号６Ｆ,,13,103,1070062,,,,,,,2024-12-25,1,,,,,スクエアルーツジャパン,0
1386,7010801035708,新規,0,2024-12-25,2024-12-25,株式会社ＲＵＭＯＳ,,株式会社,東京都,大田区,西蒲田７丁目２９番地２号ＨＳＤビル３階,,13,111,1440051,,,,,,,2024-12-25,1,,,,,ルーモス,0
1395,7011103015340,新規,0,2024-12-25,2024-12-25,合同会社ＫＴＮ,,合同会社,東京都,新宿区,大久保１丁目１２番３号カーサ第２新宿７０３号室,,13,104,1690072,,,,,,,2024-12-25,1,,,,,ケーティーエヌ,0
1396,7011105011263,新規,0,2024-12-25,2024-12-25,一般社団法人全日本ホストクラブ協会,,その他の設立登記法人,東京都,新宿区,歌舞伎町２丁目２番２１号,,13,104,1600021,,,,,,,2024-12-25,1,,,,,ゼンニホンホストクラブキョウカイ,0
1397,7011301030249,新規,0,2024-12-25,2024-12-25,株式会社ＲＨＰ,,株式会社,東京都,杉並区,梅里１丁目１０番４号,,13,115,1660011,,,,,,,2024-12-25,1,,,,,アールエイチピー,0
1403,7011303005372,新規,0,2024-12-25,2024-12-25,セコノデ合同会社,,合同会社,東京都,杉並区,井草１丁目４１番２２－３０８号ライオンズガーデン下井草,,13,115,1670021,,,,,,,2024-12-25,1,,,,,セコノデ,0
1409,7011501031526,新規,0,2024-12-25,2024-12-25,株式会社ワーカーズ,,株式会社,東京都,北区,浮間３丁目３３番１４号,,13,117,1150051,,,,,,,2024-12-25,1,,,,,ワーカーズ,0
1411,7011801045358,新規,0,2024-12-25,2024-12-25,カッカザル株式会社,,株式会社,東京都,足立区,足立４丁目３３番１号ＺＫＹビル２０１号室,,13,121,1200015,,,,,,,2024-12-25,1,,,,,カッカザル,0
1412,7011801045366,新規,0,2024-12-25,2024-12-25,株式会社未来リフォーム・サービス,,株式会社,東京都,足立区,一ツ家２丁目３－６ＥＸＹ六町４０１,,13,121,1210075,,,,,,,2024-12-25,1,,,,,ミライリフォームサービス,0
1415,7011803006614,新規,0,2024-12-25,2024-12-25,合同会社カワセン,,合同会社,東京都,葛飾区,柴又６丁目４番地１号,,13,122,1250052,,,,,,,2024-12-25,1,,,,,カワセン,0
1419,7012401042605,新規,0,2024-12-25,2024-12-25,Ａｉｌａ株式会社,,株式会社,東京都,武蔵野市,御殿山１丁目５番３号第二ジョージパークハイツ２０５,,13,203,1800005,,,,,,,2024-12-25,1,,,,,アイラ,0
1420,7012403006888,新規,0,2024-12-25,2024-12-25,クラとクティ合同会社,,合同会社,東京都,三鷹市,下連雀２丁目２８番６号,,13,204,1810013,,,,,,,2024-12-25,1,,,,,クラトクティ,0
1421,7012701018619,新規,0,2024-12-25,2024-12-25,株式会社ＫＥＮＺＥＲＯ,,株式会社,東京都,東村山市,恩多町３丁目１３番地１０,,13,213,1890011,,,,,,,2024-12-25,1,,,,,ケンゼロ,0
1429,7020001160628,新規,0,2024-12-25,2024-12-25,ＡＬＴＯＲＥ株式会社,,株式会社,神奈川県,川崎市多摩区,西生田５丁目３－１０,,14,135,2140037,,,,,,,2024-12-25,1,,,,,アルトーレ,0
1430,7020001160710,新規,0,2024-12-25,2024-12-25,ジェネラルジェネレート株式会社,,株式会社,神奈川県,川崎市麻生区,片平１５２７番地３,,14,137,2150023,,,,,,,2024-12-25,1,,,,,ジェネラルジェネレート,0
1432,7020003027486,新規,0,2024-12-25,2024-12-25,合同会社センターフィールド,,合同会社,神奈川県,横浜市南区,中里１丁目１３－２１－２０５,,14,105,2320063,,,,,,,2024-12-25,1,,,,,センターフィールド,0
1433,7020003027503,新規,0,2024-12-25,2024-12-25,合同会社インターグライド,,合同会社,神奈川県,横浜市中区,翁町２丁目８－５関内エメラルドビル４０３,,14,104,2310028,,,,,,,2024-12-25,1,,,,,インターグライド,0
1443,7030001164099,新規,0,2024-12-25,2024-12-25,木子株式会社,,株式会社,埼玉県,蕨市,中央２丁目１９番１３号,,11,223,3350004,,,,,,,2024-12-25,1,,,,,モクシ,0
1450,7040001136667,新規,0,2024-12-25,2024-12-25,登文堂開発株式会社,,株式会社,千葉県,松戸市,新松戸北１丁目３番地の８,,12,207,2700032,,,,,,,2024-12-25,1,,,,,トウブンドウカイハツ,0
1451,7040001136700,新規,0,2024-12-25,2024-12-25,株式会社修吾,,株式会社,千葉県,松戸市,八ケ崎８丁目１９番地の１,,12,207,2700023,,,,,,,2024-12-25,1,,,,,シュウゴ,0
1453,7040003026461,新規,0,2024-12-25,2024-12-25,Ｓフィールド合同会社,,合同会社,千葉県,白井市,根２１８番地１,,12,232,2701431,,,,,,,2024-12-25,1,,,,,エスフィールド,0
1459,7060001037756,新規,0,2024-12-25,2024-12-25,株式会社ニットクアグテック,,株式会社,栃木県,日光市,高原６番地,,09,206,3212616,,,,,,,2024-12-25,1,,,,,ニットクアグテック,0
1460,7060001037764,新規,0,2024-12-25,2024-12-25,株式会社高橋商店,00137443,株式会社,栃木県,栃木市,岩舟町和泉１３５３番地２６,,09,203,3294303,,,,,,,2024-12-25,1,,,,,タカハシショウテン,0
1461,7070001042466,新規,0,2024-12-25,2024-12-25,株式会社ＤＡＩＲＩＮ,,株式会社,群馬県,太田市,大舘町１２６６番地,,10,205,3700423,,,,,,,2024-12-25,1,,,,,ダイリン,0
1462,7070001042482,新規,0,2024-12-25,2024-12-25,株式会社ＡｒｃＬｉｂｅｒ,,株式会社,群馬県,伊勢崎市,太田町１４９番地１Ｃ－１,,10,204,3720006,,,,,,,2024-12-25,1,,,,,アークリベル,0
1470,7100001038147,新規,0,2024-12-25,2024-12-25,株式会社ＮＤＦ,,株式会社,長野県,上伊那郡箕輪町,大字中箕輪６１８５番地５,,20,383,3994601,,,,,,,2024-12-25,1,,,,,エヌディーエフ,0
1473,7110001038955,新規,0,2024-12-25,2024-12-25,株式会社田澤農園,,株式会社,新潟県,三条市,代官島１２３１番地,,15,204,9550095,,,,,,,2024-12-25,1,,,,,タザワノウエン,0
1481,7120001271290,新規,0,2024-12-25,2024-12-25,株式会社ＣＳＳ,,株式会社,大阪府,大阪市港区,弁天４丁目１１－３,,27,107,5520007,,,,,,,2024-12-25,1,,,,,シーエスエス,0
1482,7120001271332,新規,0,2024-12-25,2024-12-25,リフト株式会社,,株式会社,大阪府,大阪市北区,長柄西２丁目１番１９号天神戎長柄５０３号室,,27,127,5310061,,,,,,,2024-12-25,1,,,,,リフト,0
1483,7120001271340,新規,0,2024-12-25,2024-12-25,大盛国際貿易株式会社,,株式会社,大阪府,大阪市生野区,新今里３丁目４番１７号ＯＧビル２０１Ｂ,,27,116,5440001,,,,,,,2024-12-25,1,,,,,オオモリコクサイボウエキ,0
1484,7120001271365,新規,0,2024-12-25,2024-12-25,株式会社信毓,,株式会社,大阪府,大阪市西成区,萩之茶屋１丁目１２－７－１０９号室,,27,122,5570004,,,,,,,2024-12-25,1,,,,,シンイク,0
1485,7120001271373,新規,0,2024-12-25,2024-12-25,二丸株式会社,,株式会社,大阪府,大阪市東成区,玉津１丁目３番２１号,,27,115,5370023,,,,,,,2024-12-25,1,,,,,ニマル,0
1486,7120001271407,新規,0,2024-12-25,2024-12-25,株式会社ＡＬＢＡ　ＤＥＳＩＧＮ,,株式会社,大阪府,大阪市北区,中之島６丁目１番３８－２１１６号,,27,127,5300005,,,,,,,2024-12-25,1,,,,,アルバデザイン,0
1487,7120001271415,新規,0,2024-12-25,2024-12-25,株式会社エンリードプロパティ,,株式会社,大阪府,大阪市福島区,吉野４丁目２９番２０－５０２号,,27,103,5530006,,,,,,,2024-12-25,1,,,,,エンリードプロパティ,0
1488,7120001271423,新規,0,2024-12-25,2024-12-25,キムラエンタープライズ株式会社,,株式会社,大阪府,大阪市北区,西天満３丁目６－２２日宝北大阪屋ビル７０１,,27,127,5300047,,,,,,,2024-12-25,1,,,,,キムラエンタープライズ,0
1489,7120001271431,新規,0,2024-12-25,2024-12-25,株式会社ラダー,,株式会社,大阪府,交野市,東倉治３丁目２番１８号,,27,230,5760061,,,,,,,2024-12-25,1,,,,,ラダー,0
1507,7140001136830,新規,0,2024-12-25,2024-12-25,株式会社サード,,株式会社,兵庫県,神戸市灘区,国玉通３丁目１－１２,,28,102,6570816,,,,,,,2024-12-25,1,,,,,サード,0
1508,7140001136839,新規,0,2024-12-25,2024-12-25,株式会社ＨＥＨ,,株式会社,兵庫県,尼崎市,西立花町２丁目４番５号,,28,202,6600054,,,,,,,2024-12-25,1,,,,,エイチイーエイチ,0
1512,7140005027324,新規,0,2024-12-25,2024-12-25,社会福祉法人誠心さつき会,,その他の設立登記法人,兵庫県,宍粟市,山崎町門前１８１番地,,28,227,6712579,,,,,,,2024-12-25,1,,,,,セイシンサツキカイ,0
1516,7150003003458,新規,0,2024-12-25,2024-12-25,フィット合同会社,,合同会社,奈良県,生駒市,辻町７８番地６シティパレス２１東生駒Ｐ－ＩＩＩ,00137446,29,209,6300212,,,,,,,2024-12-25,1,,,,,フィット,0
1524,7180001164662,新規,0,2024-12-25,2024-12-25,株式会社ｍａｍｉｉｉｙ,,株式会社,愛知県,常滑市,多屋町２丁目１１２番地,,23,216,4790839,,,,,,,2024-12-25,1,,,,,マミィ,0
1525,7180001164670,新規,0,2024-12-25,2024-12-25,株式会社ＴｒｕｓｔＬｉｎｋ,,株式会社,愛知県,名古屋市中区,錦３丁目４番２０号錦ヤングビル４階,,23,106,4600003,,,,,,,2024-12-25,1,,,,,トラストリンク,0
1526,7180001164679,新規,0,2024-12-25,2024-12-25,株式会社ａｍｐ,,株式会社,愛知県,名古屋市港区,宝神２丁目１１０５番地,,23,111,4550832,,,,,,,2024-12-25,1,,,,,アンペア,0
1527,7180001164687,新規,0,2024-12-25,2024-12-25,株式会社コルトスグループ,,株式会社,愛知県,長久手市,山野田１３１０,,23,238,4801113,,,,,,,2024-12-25,1,,,,,コルトスグループ,0
1528,7180001164704,新規,0,2024-12-25,2024-12-25,株式会社ごじゅまる,,株式会社,愛知県,名古屋市中村区,名駅４丁目２４番５号第２森ビル４０１,,23,105,4500002,,,,,,,2024-12-25,1,,,,,ゴジュマル,0
1533,7190001031886,新規,0,2024-12-25,2024-12-25,ＴＡ　ＪＡＰＡＮ株式会社,,株式会社,三重県,四日市市,桜町６６８４番地２５,,24,202,5121211,,,,,,,2024-12-25,1,,,,,ティーエイジャパン,0
1534,7190001031894,新規,0,2024-12-25,2024-12-25,Ｗ．Ｇ．株式会社,,株式会社,三重県,桑名市,長島町押付５３４‐１４ハイツサザンカ１０１号,,24,205,5111113,,,,,,,2024-12-25,1,,,,,ダブリュージー,0
1537,7200001043260,新規,0,2024-12-25,2024-12-25,株式会社中日通商,,株式会社,岐阜県,瑞穂市,生津内宮町２丁目５４番地,,21,216,5010213,,,,,,,2024-12-25,1,,,,,チュウニチツウショウ,0
1543,7220001026387,新規,0,2024-12-25,2024-12-25,株式会社北前ＢＡＳＥ,,株式会社,石川県,加賀市,田尻町浜山２番地８１,,17,206,9220552,,,,,,,2024-12-25,1,,,,,キタマエベース,0
1544,7230001020678,新規,0,2024-12-25,2024-12-25,株式会社富山解体産業,,株式会社,富山県,富山市,鶴ヶ丘町１５５番地,,16,201,9300824,,,,,,,2024-12-25,1,,,,,トヤマカイタイサンギョウ,0
1547,7240005015871,新規,0,2024-12-25,2024-12-25,一般社団法人やすらぎをつくる,,その他の設立登記法人,広島県,尾道市,土堂２丁目９番２３号,,34,205,7220035,,,,,,,2024-12-25,1,,,,,ヤスラギヲツクル,0
1549,7260001039732,新規,0,2024-12-25,2024-12-25,株式会社サボテン,,株式会社,岡山県,岡山市北区,中央町３－３２,,33,101,7000836,,,,,,,2024-12-25,1,,,,,サボテン,0
1551,7280001009320,新規,0,2024-12-25,2024-12-25,灰示花火株式会社,,株式会社,島根県,雲南市,掛合町掛合３０８１番地,,32,209,6902701,,,,,,,2024-12-25,1,,,,,ハイジハナビ,0
1552,7280005007634,新規,0,2024-12-25,2024-12-25,一般社団法人ますだプライドクリエーション,,その他の設立登記法人,島根県,益田市,駅前町１７番２号,,32,204,6980024,,,,,,,2024-12-25,1,,,,,マスダプライドクリエーション,0
1559,7290001108377,新規,0,2024-12-25,2024-12-25,エム・エム・ティー株式会社,,株式会社,福岡県,春日市,下白水南７丁目１４４番地５０２号,,40,218,8160846,,,,,,,2024-12-25,1,,,,,エムエムティー,0
1564,7290801031142,新規,0,2024-12-25,2024-12-25,株式会社Ｅｔｅｒｎａｌ　Ｐｉｎｅ,,株式会社,福岡県,直方市,大字山部４０３－３,,40,204,8220034,,,,,,,2024-12-25,1,,,,,エターナルパイン,0
1573,7360001034574,新規,0,2024-12-25,2024-12-25,株式会社ＬｏＳＡ,,株式会社,沖縄県,石垣市,美崎町１０番地２,,47,207,9070012,,,,,,,2024-12-25,1,,,,,ローザ,0
1574,7360003014541,新規,0,2024-12-25,2024-12-25,イオズ合同会社,,合同会社,沖縄県,中頭郡西原町,字与那城３１１番地（新田荘１０３号）,,47,329,9030111,,,,,,,2024-12-25,1,,,,,イオズ,0
1582,7390001017832,新規,0,2024-12-25,2024-12-25,株式会社マイファーム天童,,株式会社,山形県,天童市,大字上荻野戸８０７番地,,06,210,9940053,,,,,,,2024-12-25,1,,,,,マイファームテンドウ,0
1585,7430001093316,新規,0,2024-12-25,2024-12-25,ＴＫホールディングス株式会社,,株式会社,北海道,小樽市,奥沢５丁目９番４号,,01,203,0470013,,,,,,,2024-12-25,1,,,,,ティーケーホールディングス,0
1586,7430001093340,新規,0,2024-12-25,2024-12-25,株式会社ＤＡＩＣＨＩ,,株式会社,北海道,札幌市北区,新川西二条２丁目４番３号,,01,102,0010932,,,,,,,2024-12-25,1,,,,,ダイチ,0
1589,7470003002758,新規,0,2024-12-25,2024-12-25,ヘリテージパートナー合同会社,,合同会社,香川県,丸亀市,土器町東７丁目５５４,,37,202,7630082,,,,,,,2024-12-25,1,,,,,ヘリテージパートナー,0
1591,7700150062449,新規,0,2024-12-25,2015-10-09,熊本経済同友会,,その他,熊本県,熊本市中央区,城東町４－２ホテルキャッスル内,,43,101,8600846,,,,,,,2015-10-09,1,,,,,クマモトケイザイドウユウカイ,0
1596,7700150128398,新規,0,2024-12-25,2024-12-25,富山市蜷川土地改良区,,その他,富山県,富山市,大場１,,16,201,9398103,,,,,,,2024-12-25,1,,,,,トヤマシニナガワトチカイリョウク,0
1606,8010001250932,新規,0,2024-12-25,2024-12-25,ＡＩ　ＣＯＮＩＣ株式会社,,株式会社,東京都,中央区,銀座１丁目１６番７号銀座大栄ビル５階,,13,102,1040061,,,,,,,2024-12-25,1,,,,,アイコニック,0
1607,8010001250965,新規,0,2024-12-25,2024-12-25,株式会社領創建築事務所,,株式会社,東京都,中央区,月島１丁目５番１－１９０４号,,13,102,1040052,,,,,,,2024-12-25,1,,,,,リョウソウケンチクジムショ,0
1610,8010003045884,新規,0,2024-12-25,2024-12-25,Ｌｉｐｓ　Ｕ合同会社,,合同会社,東京都,中央区,銀座１丁目２２－１１銀座大竹ビジデンス２Ｆ,,13,102,1040061,,,,,,,2024-12-25,1,,,,,リップスユー,0
1611,8010003045901,新規,0,2024-12-25,2024-12-25,キント合同会社,,合同会社,東京都,文京区,弥生２丁目１４番８－１０６号,,13,105,1130032,,,,,,,2024-12-25,1,,,,,キント,0
1613,8010005039323,新規,0,2024-12-25,2024-12-25,二条城前匿名組合一般社団法人,,その他の設立登記法人,東京都,千代田区,平河町１丁目６番１５号シルスフィア会計事務所内,,13,101,1020093,,,,,,,2024-12-25,1,,,,,ニジョウジョウマエトクメイクミアイ,0
1623,8010401187196,新規,0,2024-12-25,2024-12-25,株式会社ＮＳＳＫ‐Ｈ２,,株式会社,東京都,港区,愛宕２丁目５番１号愛宕グリーンヒルズＭＯＲＩタワー,,13,103,1050002,,,,,,,2024-12-25,1,,,,,エヌエスエスケーエイチツー,0
1624,8010401187213,新規,0,2024-12-25,2024-12-25,株式会社スターチス,,株式会社,東京都,港区,南青山３丁目１番３６号青山丸竹ビル６Ｆ,,13,103,1070062,,,,,,,2024-12-25,1,,,,,スターチス,0
1625,8010401187221,新規,0,2024-12-25,2024-12-25,モノライフパートナーズ株式会社,,株式会社,東京都,港区,新橋１丁目１８－２１第一日比谷ビル５階,,13,103,1050004,,,,,,,2024-12-25,1,,,,,モノライフパートナーズ,0
1626,8010403034066,新規,0,2024-12-25,2024-12-25,合同会社ＳｏｌｕｔｉｏｎＭａｎａｇｅｒ,,合同会社,東京都,港区,白金３丁目１番１３号日恵ビル２階,,13,103,1080072,,,,,,,2024-12-25,1,,,,,ソリューションマネージャー,0
1631,8010603011294,新規,0,2024-12-25,2024-12-25,合同会社イー・シー・エム,,合同会社,東京都,墨田区,向島３丁目２４－１ＫＳビル３０２,,13,107,1310033,,,,,,,2024-12-25,1,,,,,イーシーエム,0
1642,8010901056537,新規,0,2024-12-25,2024-12-25,株式会社輝晟カンパニー,,株式会社,東京都,世田谷区,新町３丁目２６番７号,,13,112,1540014,,,,,,,2024-12-25,1,,,,,キセイカンパニー,0
1651,8011001166747,新規,0,2024-12-25,2024-12-25,株式会社Ｅｓｔａｔｅ　ａｔＲｉｅ,,株式会社,東京都,目黒区,鷹番２丁目２０番６号能嶋ビル３Ｆ,,13,110,1520004,,,,,,,2024-12-25,1,,,,,エステートアトリエ,0
1655,8011101110051,新規,0,2024-12-25,2024-12-25,株式会社ｓｔｕｄｉｏ　ＰＯＴＡ,,株式会社,東京都,新宿区,西新宿３丁目３番１３号西新宿水間ビル６階,,13,104,1600023,,,,,,,2024-12-25,1,,,,,スタジオポタ,0
1656,8011103015323,新規,0,2024-12-25,2024-12-25,合同会社リエントス,,合同会社,東京都,新宿区,高田馬場２丁目１９－８ｍａｉｓｏｎＳＴ３０３,,13,104,1690075,,,,,,,2024-12-25,1,,,,,リエントス,0
1657,8011105011262,新規,0,2024-12-25,2024-12-25,特定非営利活動法人ＳＩＳＴＥＲＳ,,その他の設立登記法人,東京都,新宿区,市谷田町２丁目１７八重洲市谷ビル１０階,,13,104,1620843,,,,,,,2024-12-25,1,,,,,シスターズ,0
1669,8012801023658,新規,0,2024-12-25,2024-12-25,株式会社Ｔ‐Ｓｔｙｌｅ,,株式会社,東京都,東大和市,新堀１丁目１４２１番地の６２,,13,220,2070012,,,,,,,2024-12-25,1,,,,,ティースタイル,0
1675,8020001160577,新規,0,2024-12-25,2024-12-25,株式会社ＳＡＲＡ＆ＤＡＲＡ,,株式会社,神奈川県,横浜市中区,曙町１丁目１－４エクジ・ルイセザキ６０７,,14,104,2310057,,,,,,,2024-12-25,1,,,,,,0
1676,8020001160651,新規,0,2024-12-25,2024-12-25,株式会社農業ＤＸ推進研究所,,株式会社,神奈川県,横浜市港南区,上大岡東２丁目１２番２３－１号,,14,111,2330001,,,,,,,2024-12-25,1,,,,,ノウギョウディーエックススイシンケンキュウショ,0
1677,8020001160701,新規,0,2024-12-25,2024-12-25,株式会社みんなの家,,株式会社,神奈川県,横浜市南区,六ツ川３丁目６番地３,,14,105,2320066,,,,,,,2024-12-25,1,,,,,ミンナノイエ,0
1678,8020001160726,新規,0,2024-12-25,2024-12-25,株式会社ＭＡＨＡＬＯ,,株式会社,神奈川県,川崎市麻生区,上麻生１丁目２番７号８０２,,14,137,2150021,,,,,,,2024-12-25,1,,,,,マハロ,0
1679,8020001160742,新規,0,2024-12-25,2024-12-25,チョップスティック株式会社,,株式会社,神奈川県,川崎市中原区,木月３丁目１２番２５号,,14,133,2110025,,,,,,,2024-12-25,1,,,,,チョップスティック,0
1681,8020003027519,新規,0,2024-12-25,2024-12-25,合同会社ＥＭＩＮＡＬ,,合同会社,神奈川県,川崎市宮前区,野川本町１丁目５番２３号,,14,136,2160041,,,,,,,2024-12-25,1,,,,,エミナル,0
1684,8021001084080,新規,0,2024-12-25,2024-12-25,株式会社アクアリアプラス,,株式会社,神奈川県,平塚市,東八幡４丁目７番１０号,,14,203,2540016,,,,,,,2024-12-25,1,,,,,アクアリアプラス,0
1715,8100001038146,新規,0,2024-12-25,2024-12-25,株式会社ナカザワ,,株式会社,長野県,長野市,大字高田９６３番地,,20,201,3810034,,,,,,,2024-12-25,1,,,,,ナカザワ,0
1729,8120001271348,新規,0,2024-12-25,2024-12-25,田盛株式会社,,株式会社,大阪府,大阪市生野区,新今里６丁目３番１０号エクラ新今里１０５号室,,27,116,5440001,,,,,,,2024-12-25,1,,,,,タモリ,0
1730,8120001271356,新規,0,2024-12-25,2024-12-25,株式会社利休,,株式会社,大阪府,大阪市天王寺区,石ケ辻町１８－２３,00137453,27,109,5430031,,,,,,,2024-12-25,1,,,,,リキュウ,0
1731,8120001271380,新規,0,2024-12-25,2024-12-25,株式会社グローバルサイネージラボ,,株式会社,大阪府,大阪市西成区,岸里東１丁目４番３号,,27,122,5570042,,,,,,,2024-12-25,1,,,,,グローバルサイネージラボ,0
1732,8120001271389,新規,0,2024-12-25,2024-12-25,株式会社ＭＰ,,株式会社,大阪府,大阪市中央区,東心斎橋２丁目３番２２号玉八ビル２階,,27,128,5420083,,,,,,,2024-12-25,1,,,,,エムピー,0
1733,8120001271414,新規,0,2024-12-25,2024-12-25,株式会社ヘアラボＨＣ,,株式会社,大阪府,大阪市浪速区,桜川２丁目９番４号,,27,111,5560022,,,,,,,2024-12-25,1,,,,,ヘアラボエイチシー,0
1734,8120001271422,新規,0,2024-12-25,2024-12-25,株式会社けいまん,,株式会社,大阪府,大阪市中央区,南船場２丁目１０番１３号２０１号室,,27,128,5420081,,,,,,,2024-12-25,1,,,,,ケイマン,0
1735,8120001271439,新規,0,2024-12-25,2024-12-25,株式会社Ｓ．Ｅ．Ｔ,,株式会社,大阪府,大阪市中央区,平野町１丁目３番１０－１１０５号,,27,128,5410046,,,,,,,2024-12-25,1,,,,,セット,0
1738,8120003028218,新規,0,2024-12-25,2024-12-25,ＭＩＫＡＫＡ合同会社,,合同会社,大阪府,大阪市北区,天神橋２丁目２番２０－２０１号,,27,127,5300041,,,,,,,2024-12-25,1,,,,,ミカカ,0
1739,8120003028242,新規,0,2024-12-25,2024-12-25,ＲＫ合同会社,,合同会社,大阪府,大阪市福島区,鷺洲３丁目７番３４－１０１号,,27,103,5530002,,,,,,,2024-12-25,1,,,,,アールケー,0
1740,8120003028250,新規,0,2024-12-25,2024-12-25,Ｍｉｎｎａ　ｎｏ　ｓｔｏｒｅ合同会社,,合同会社,大阪府,大阪市浪速区,恵美須西１丁目５番６－３０２号,,27,111,5560003,,,,,,,2024-12-25,1,,,,,ミンナノストア,0
1742,8120005024669,新規,0,2024-12-25,2024-12-25,一般社団法人日本情報技術研究社,,その他の設立登記法人,大阪府,大阪市北区,梅田１丁目２番２号大阪駅前第２ビル１２－１２,,27,127,5300001,,,,,,,2024-12-25,1,,,,,ニホンジョウホウギジュツケンキュウシャ,0
1746,8130001078643,新規,0,2024-12-25,2024-12-25,グローカルエステートネットワーク株式会社,,株式会社,京都府,京都市中京区,木屋町通三条上る上大阪町５３０番地,,26,104,6048001,,,,,,,2024-12-25,1,,,,,グローカルエステートネットワーク,0
1750,8140001136805,新規,0,2024-12-25,2024-12-25,株式会社ユグドラシル,,株式会社,兵庫県,神戸市長田区,戸崎通３丁目８番１号板宿オーナーズビル４０１号,,28,106,6530845,,,,,,,2024-12-25,1,,,,,ユグドラシル,0
1754,8140005027323,新規,0,2024-12-25,2024-12-25,医療法人社団晃英会,,その他の設立登記法人,兵庫県,姫路市,香寺町岩部字出水田４７９番１,,28,201,6792141,,,,,,,2024-12-25,1,,,,,コウエイカイ,0
1756,8150003003457,新規,0,2024-12-25,2024-12-25,合同会社松下企画,,合同会社,奈良県,御所市,大字蛇穴１３－３,,29,208,6392272,,,,,,,2024-12-25,1,,,,,マツシタキカク,0
1757,8160003003365,新規,0,2024-12-25,2024-12-25,合同会社Ｒｉｃｏ,,合同会社,滋賀県,守山市,金森町８６９‐２ＲＯＯＴコワーキングスペース,,25,207,5240045,,,,,,,2024-12-25,1,,,,,リコ,0
1765,8180305009637,新規,0,2024-12-25,2024-12-25,医療法人Ｗｈｉｔｅ　Ｈａｐｐｙ,,その他の設立登記法人,愛知県,刈谷市,一ツ木町５丁目１５－１,,23,210,4480003,,,,,,,2024-12-25,1,,,,,ホワイトハッピー,0
1766,8190003004889,新規,0,2024-12-25,2024-12-25,合同会社Ｇ,,合同会社,三重県,四日市市,諏訪栄町８番６号,,24,202,5100086,,,,,,,2024-12-25,1,,,,,ジー,0
1775,8210003001867,新規,0,2024-12-25,2024-12-25,合同会社ケーアイ・コンサルティング,,合同会社,福井県,福井市,田原２丁目２９番５号,,18,201,9100018,,,,,,,2024-12-25,1,,,,,ケーアイコンサルティング,0
1776,8230001020677,新規,0,2024-12-25,2024-12-25,株式会社ワクワクオン,,株式会社,富山県,富山市,北代４２７４番地５,,16,201,9300103,,,,,,,2024-12-25,1,,,,,ワクワクオン,0
1777,8230003002351,新規,0,2024-12-25,2024-12-25,ＡＢＢＡＳＩ　ＴＲＡＤＩＮＧ合同会社,,合同会社,富山県,射水市,本町１丁目２番２３号,,16,211,9340011,,,,,,,2024-12-25,1,,,,,アバシトレーディング,0
1779,8240001064293,新規,0,2024-12-25,2024-12-25,トヨプラテック株式会社,,株式会社,広島県,広島市安芸区,阿戸町７８３番地１,,34,107,7314231,,,,,,,2024-12-25,1,,,,,トヨプラテック,0
1792,8290003016206,新規,0,2024-12-25,2024-12-25,合同会社オンリー・ワン,,合同会社,福岡県,久留米市,篠原町２番地５－２０４号,,40,203,8300036,,,,,,,2024-12-25,1,,,,,オンリーワン,0
1799,8340003004700,新規,0,2024-12-25,2024-12-25,合同会社マネジープラス,,合同会社,鹿児島県,鹿児島市,武３丁目２８番２４号,,46,201,8900045,,,,,,,2024-12-25,1,,,,,マネジープラス,0
1800,8360001034573,新規,0,2024-12-25,2024-12-25,株式会社ＡＵＴＨＥＮＴＩＣ,,株式会社,沖縄県,うるま市,字赤道５７３番地４,,47,213,9042245,,,,,,,2024-12-25,1,,,,,オーセンティック,0
1809,8430001093331,新規,0,2024-12-25,2024-12-25,ｉｖｙ株式会社,,株式会社,北海道,札幌市清田区,平岡公園東８丁目９番８号,,01,110,0040882,,,,,,,2024-12-25,1,,,,,アイヴィー,0
1821,8700150128406,新規,0,2024-12-25,2024-12-25,４８ＥＮＴＥＲＴＡＩＮＭＥＮＴ株式会社,,外国会社等,東京都,港区,六本木６丁目２番３１号,,13,103,1060032,３５－０１，メナラ・ブキッ・ビンタン・シティ・センター・ナンバー２，ジャラン・ハントゥア，５５１００クアラルンプール，マレーシア,,,,,,2024-12-25,1,,,,,フオーテイエイトエンターテイメントカブシキガイシヤ,0
1827,9010001250840,新規,0,2024-12-25,2024-12-25,明徳陽光株式会社,,株式会社,東京都,千代田区,岩本町２丁目１７－４－４０４号,,13,101,1010032,,,,,,,2024-12-25,1,,,,,メイトクヨウコウ,0
1828,9010001250997,新規,0,2024-12-25,2024-12-25,株式会社Ａｃｔｏｒａｔｅｃｔ,,株式会社,東京都,千代田区,神田和泉町１番地６－１６ヤマトビル４０５,,13,101,1010024,,,,,,,2024-12-25,1,,,,,アクトラテクト,0
1832,9010003045883,新規,0,2024-12-25,2024-12-25,合同会社ｓｔｅｐｂｙｓｔｅｐ,,合同会社,東京都,中央区,日本橋小伝馬町２１番１－８０４号,,13,102,1030001,,,,,,,2024-12-25,1,,,,,ステップバイステップ,0
1837,9010005039330,新規,0,2024-12-25,2024-12-25,一般社団法人和多屋,,その他の設立登記法人,東京都,千代田区,霞が関３丁目２番５号,,13,101,1000013,,,,,,,2024-12-25,1,,,,,ワタヤ,0
1843,9010401187195,新規,0,2024-12-25,2024-12-25,株式会社ＮＳＳＫ‐Ｈ１,,株式会社,東京都,港区,愛宕２丁目５番１号愛宕グリーンヒルズＭＯＲＩタワー,,13,103,1050002,,,,,,,2024-12-25,1,,,,,エヌエスエスケーエイチワン,0
1844,9010401187220,新規,0,2024-12-25,2024-12-25,ＴＫ　Ｄｉｎｉｎｇ株式会社,,株式会社,東京都,港区,西麻布２丁目１５－１三澤ビルＢ１,,13,103,1060031,,,,,,,2024-12-25,1,,,,,ティーケーダイニング,0
1847,9010403034057,新規,0,2024-12-25,2024-12-25,ＡＳＫ合同会社,,合同会社,東京都,港区,六本木４丁目３番１１－２２３号六本木ユニハウス,,13,103,1060032,,,,,,,2024-12-25,1,,,,,エーエスケー,0
1857,9010703007514,新規,0,2024-12-25,2024-12-25,合同会社オクトライズ,,合同会社,東京都,品川区,中延５丁目１３番１８号ハウス金子１０５号室,,13,109,1420053,,,,,,,2024-12-25,1,,,,,オクトライズ,0
1862,9010901056552,新規,0,2024-12-25,2024-12-25,ＭｏｎｋｅｙＤｅｓｉｇｎ株式会社,,株式会社,東京都,世田谷区,太子堂３丁目１５バナナビル３Ｆ,,13,112,1540004,,,,,,,2024-12-25,1,,,,,モンキーデザイン,0
1866,9011001166432,新規,0,2024-12-25,2024-12-25,株式会社ＤＹＮＡ　ＴＯＫＹＯ,,株式会社,東京都,渋谷区,道玄坂１丁目１０番８号渋谷道玄坂東急ビル２Ｆ－Ｃ,,13,113,1500043,,,,,,,2024-12-25,1,,,,,ダイナトウキョウ,0
1867,9011001166754,新規,0,2024-12-25,2024-12-25,株式会社Ｌｉｎｋ　Ｗｉｔｈ　Ｍｅ,,株式会社,東京都,渋谷区,恵比寿西２丁目８番４号ＥＸ恵比寿西ビル５階,,13,113,1500021,,,,,,,2024-12-25,1,,,,,リンクウィズミー,0
1871,9011101109976,新規,0,2024-12-25,2024-12-25,株式会社ＮｅｘｔＲ,,株式会社,東京都,新宿区,西新宿３丁目３番１３号西新宿水間ビル６階,,13,104,1600023,,,,,,,2024-12-25,1,,,,,ネクストアール,0
1872,9011101109992,新規,0,2024-12-25,2024-12-25,株式会社エルドラ,,株式会社,東京都,新宿区,上落合３丁目１３番２号スカイコート新宿落合５－４０１,,13,104,1610034,,,,,,,2024-12-25,1,,,,,エルドラ,0
1873,9011101110018,新規,0,2024-12-25,2024-12-25,株式会社テンソル,,株式会社,東京都,新宿区,西新宿１丁目２６－２新宿野村ビル３２Ｆ,,13,104,1600023,,,,,,,2024-12-25,1,,,,,テンソル,0
1874,9011101110050,新規,0,2024-12-25,2024-12-25,株式会社ＤＨＮｏＡ,,株式会社,東京都,新宿区,歌舞伎町１丁目１４番７号林ビル３階,,13,104,1600021,,,,,,,2024-12-25,1,,,,,デノア,0
1875,9011101110059,新規,0,2024-12-25,2024-12-25,株式会社ＦｒｅｏＭｏｔｔｏ,,株式会社,東京都,新宿区,高田馬場１丁目３１番８号高田馬場ダイカンプラザ１１０９号,,13,104,1690075,,,,,,,2024-12-25,1,,,,,フレオモット,0
1876,9011201026015,新規,0,2024-12-25,2024-12-25,株式会社勇,,株式会社,東京都,中野区,沼袋３丁目１２番２３号,,13,114,1650025,,,,,,,2024-12-25,1,,,,,イサム,0
1878,9011305003018,新規,0,2024-12-25,2024-12-25,社会保険労務士法人池田事務所,,その他の設立登記法人,東京都,杉並区,高円寺南４丁目２３番２－９０３号,,13,115,1660003,,,,,,,2024-12-25,1,,,,,,0
1879,9011703004071,新規,0,2024-12-25,2024-12-25,合同会社中村地所,,合同会社,東京都,江戸川区,西葛西４丁目３番３―１０８号,,13,123,1340088,,,,,,,2024-12-25,1,,,,,ナカムラジショ,0
1884,9012401042603,新規,0,2024-12-25,2024-12-25,鑠石ジャパン株式会社,,株式会社,東京都,稲城市,東長沼２１１４番地の８ＴＯＰ稲城５０４,,13,225,2060802,,,,,,,2024-12-25,1,,,,,シャクセキジャパン,0
1885,9012403006886,新規,0,2024-12-25,2024-12-25,Ｂｅｌｕｃｋｉａ　Ｖｏｇｅ合同会社,,合同会社,東京都,小金井市,貫井北町５丁目１番１３号（１０）,,13,210,1840015,,,,,,,2024-12-25,1,,,,,ベルキアボージェ,0
1886,9012701018609,新規,0,2024-12-25,2024-12-25,シンケン株式会社,,株式会社,東京都,東久留米市,柳窪５丁目１番４３号,,13,222,2030044,,,,,,,2024-12-25,1,,,,,シンケン,0
1888,9012801023657,新規,0,2024-12-25,2024-12-25,株式会社Ｓｙｕｎ,,株式会社,東京都,国分寺市,本町２丁目１２番５号カワシマビル１階,,13,214,1850012,,,,,,,2024-12-25,1,,,,,シュン,0
1896,9020001160650,新規,0,2024-12-25,2024-12-25,株式会社ｈａｎａｌａｂｏ,,株式会社,神奈川県,横浜市港南区,港南台５丁目１３番１０号,,14,111,2340054,,,,,,,2024-12-25,1,,,,,ハナラボ,0
1897,9020001160733,新規,0,2024-12-25,2024-12-25,株式会社ペイントホーム,,株式会社,神奈川県,川崎市川崎区,港町７番６－３０２号,,14,131,2100807,,,,,,,2024-12-25,1,,,,,ペイントホーム,0
1898,9020001160766,新規,0,2024-12-25,2024-12-25,ＤＴグループ株式会社,,株式会社,神奈川県,横浜市中区,野毛町１丁目４６番地１ＭＳ野毛ビル４０２,,14,104,2310064,,,,,,,2024-12-25,1,,,,,ディーティーグループ,0
1900,9021001084071,新規,0,2024-12-25,2024-12-25,株式会社Ａ１,,株式会社,神奈川県,相模原市中央区,星が丘３丁目１０番４号１階,,14,152,2520238,,,,,,,2024-12-25,1,,,,,エーワン,0
1917,9040001136707,新規,0,2024-12-25,2024-12-25,恒和株式会社,,株式会社,千葉県,袖ケ浦市,上泉１２０２番地,,12,229,2990205,,,,,,,2024-12-25,1,,,,,コウワ,0
1921,9040003026451,新規,0,2024-12-25,2024-12-25,Ｍｅｇｕｍｉ　Ｔｒａｄｉｎｇ合同会社,,合同会社,千葉県,八千代市,米本２３８０番地１１６,,12,221,2760015,,,,,,,2024-12-25,1,,,,,メグミトレーディング,0
1929,9060001037762,新規,0,2024-12-25,2024-12-25,エルスパット株式会社,,株式会社,栃木県,足利市,田中町４０番地２,,09,202,3260822,,,,,,,2024-12-25,1,,,,,エルスパット,0
1931,9070001042480,新規,0,2024-12-25,2024-12-25,三協株式会社,,株式会社,群馬県,太田市,脇屋町１７２番地２,,10,205,3730031,,,,,,,2024-12-25,1,,,,,サンキョウ,0
1932,9070003005717,新規,0,2024-12-25,2024-12-25,合同会社生き甲斐,,合同会社,群馬県,北群馬郡榛東村,大字広馬場１２４番地２フォークロスＡ１０２号,,10,344,3703504,,,,,,,2024-12-25,1,,,,,イキガイ,0
1936,9080103003223,新規,0,2024-12-25,2024-12-25,ＹＮＤＥＦＥＮＣＥ合同会社,,合同会社,静岡県,駿東郡清水町,徳倉２４０１―６,,22,341,4110917,,,,,,,2024-12-25,1,,,,,ワイエヌディフェンス,0
1939,9090003002704,新規,0,2024-12-25,2024-12-25,合同会社１９８６,,合同会社,山梨県,甲府市,上石田４丁目８番３４号アメニティ甲府４０５,,19,201,4000041,,,,,,,2024-12-25,1,,,,,,0
1949,9120001271330,新規,0,2024-12-25,2024-12-25,ＯＮＥ株式会社,,株式会社,大阪府,大阪市東住吉区,東田辺３丁目２５番２４号,,27,121,5460032,,,,,,,2024-12-25,1,,,,,ワン,0
1950,9120001271388,新規,0,2024-12-25,2024-12-25,株式会社問題解決伴走社,,株式会社,大阪府,大阪市北区,角田町８番１号大阪梅田ツインタワーノース１９階,,27,127,5300017,,,,,,,2024-12-25,1,,,,,モンダイカイケツバンソウシャ,0
1951,9120001271438,新規,0,2024-12-25,2024-12-25,株式会社ＲＳ,,株式会社,大阪府,大阪市中央区,南船場３丁目２番２２号おおきに南船場ビル２０５,,27,128,5420081,,,,,,,2024-12-25,1,,,,,アールエス,0
1955,9120003028183,新規,0,2024-12-25,2024-12-25,合同会社イテル,,合同会社,大阪府,大阪市西区,京町堀３丁目６－１１－７０１,,27,106,5500003,,,,,,,2024-12-25,1,,,,,イテル,0
1960,9120101070789,新規,0,2024-12-25,2024-12-25,造物遊株式会社,,株式会社,大阪府,堺市中区,堀上町１７６番地２５,,27,142,5998261,,,,,,,2024-12-25,1,,,,,ゾウブツユウ,0
1966,9130003010090,新規,0,2024-12-25,2024-12-25,ＦＲＥＥＫＳ合同会社,,合同会社,京都府,京都市伏見区,醍醐大畑町１７３番地,,26,109,6011303,,,,,,,2024-12-25,1,,,,,フリークス,0
1973,9140005027322,新規,0,2024-12-25,2024-12-25,一般社団法人白川教育研究所,,その他の設立登記法人,兵庫県,芦屋市,翠ケ丘町２０番１６－６０９号,,28,206,6590014,,,,,,,2024-12-25,1,,,,,シラカワキョウイクケンキュウショ,0
1974,9150001027770,新規,0,2024-12-25,2024-12-25,株式会社Ｍｏｔｏ　ｍｏｔｔｏ,,株式会社,奈良県,奈良市,東九条町２６３番地の４,,29,201,6308144,,,,,,,2024-12-25,1,,,,,モトモット,0
1975,9160003003364,新規,0,2024-12-25,2024-12-25,合同会社バーサット,,合同会社,滋賀県,大津市,今堅田２丁目６－２シャーメゾンシャルム２０３号室,,25,201,5200241,,,,,,,2024-12-25,1,,,,,バーサット,0
1980,9180001164652,新規,0,2024-12-25,2024-12-25,株式会社エコナフェット,,株式会社,愛知県,名古屋市天白区,原２丁目３５０８番地の１,,23,116,4680015,,,,,,,2024-12-25,1,,,,,エコナフェット,0
1984,9180305009636,新規,0,2024-12-25,2024-12-25,一般社団法人モルサンクチュアリ,,その他の設立登記法人,愛知県,豊橋市,西山町字西山３２６番地１,,23,201,4413121,,,,,,,2024-12-25,1,,,,,モルサンクチュアリ,0
1991,9220001026393,新規,0,2024-12-25,2024-12-25,株式会社ネットワークビルダー,,株式会社,石川県,野々市市,本町５丁目１７番１８－２号,,17,212,9218815,,,,,,,2024-12-25,1,,,,,ネットワークビルダー,0
1996,9240001064292,新規,0,2024-12-25,2024-12-25,株式会社ケイＨＤ,,株式会社,広島県,尾道市,土堂２丁目９番２３号,,34,205,7220035,,,,,,,2024-12-25,1,,,,,ケイホールディングス,0
2012,9290001108400,新規,0,2024-12-25,2024-12-25,一依株式会社,,株式会社,福岡県,福岡市東区,西戸崎５丁目４－１５,,40,131,8110321,,,,,,,2024-12-25,1,,,,,イチイ,0
2017,9290005019593,新規,0,2024-12-25,2024-12-25,一般社団法人Ｋ＆Ｓワーカーズリンク,,その他の設立登記法人,福岡県,八女市,本村１３番地１,,40,210,8340063,,,,,,,2024-12-25,1,,,,,ケーアンドエスワーカーズリンク,0
2024,9340003004699,新規,0,2024-12-25,2024-12-25,合同会社お絵描き倶楽部,,合同会社,鹿児島県,鹿児島市,高麗町２９番１号コアビル３０３号,,46,201,8900051,,,,,,,2024-12-25,1,,,,,オエカキクラブ,0
2026,9370003006866,新規,0,2024-12-25,2024-12-25,合同会社カンビアンテ,,合同会社,宮城県,仙台市青葉区,中山６丁目８－２３,,04,101,9810952,,,,,,,2024-12-25,1,,,,,カンビアンテ,0
2029,9370005010882,新規,0,2024-12-25,2024-12-25,医療法人聴明会,,その他の設立登記法人,宮城県,仙台市青葉区,五橋１丁目２番２８号,,04,101,9800022,,,,,,,2024-12-25,1,,,,,チョウメイカイ,0
2032,9390001017830,新規,0,2024-12-25,2024-12-25,株式会社ＬＯＣＡＬ　ＲＥＳＯＲＴＳ,,株式会社,山形県,鶴岡市,北京田字下鳥ノ巣２３番地１,,06,203,9970053,,,,,,,2024-12-25,1,,,,,ローカルリゾート,0
2042,9470003002780,新規,0,2024-12-25,2024-12-25,合同会社西岡,,合同会社,香川県,観音寺市,茂西町２丁目２番２９号,,37,205,7680073,,,,,,,2024-12-25,1,,,,,,0
2044,9490001010924,新規,0,2024-12-25,2024-12-25,株式会社ひだかコミュニティー住宅,,株式会社,高知県,高岡郡日高村,本郷１６１３番地３,,39,410,7812153,,,,,,,2024-12-25,1,,,,,ヒダカコミュニティージュウタク,0
2048,9700150128405,新規,0,2024-12-25,2024-12-25,ＪＩＡＮＧＸＩ　ＲＩＳＥＳＵＮ　ＴＥＣＨＮＯＬＯＧＹ　ＣＯ．，ＬＴＤ,,外国会社等,,,,,,,,Ｒｕｉｃｈａｎｇ　ＣｉｔｙＢｕｉｌｄｉｎｇ　２，Ｄｏｎｇｇｕａｎｙｕａｎ，Ｓｍａｒｔ　Ｍａｎｕｆａｃｔｕｒｉｎｇ　ＴｏｗｎＪｉｕｊｉａｎｇ　ＣｉｔｙＪｉａｎｇｘｉ３３２２００ＣＮ,,,,,,2024-12-25,1,,,,,ジャンシールイションコージーグーフェンヨウシエンゴンスー,0
