sequenceNumber,corporateNumber,process,correct,updateDate,changeDate,name,nameImageId,kind,prefectureName,cityName,streetNumber,addressImageId,prefectureCode,cityCode,postCode,addressOutside,addressOutsideImageId,closeDate,closeCause,successorCorporateNumber,changeCause,assignmentDate,latest,enName,enPrefectureName,enCityName,enAddressOutside,furigana,hihyoji
8,1010002020572,登記記録の閉鎖等,0,2024-01-11,2023-12-28,有限会社下羽箔押所,,有限会社,東京都,中央区,新川２丁目２８番８号,,13,102,1040033,,,2023-12-28,清算の結了等,,,2015-10-05,1,,,,,シモバハクオシショ,0
20,1010403022060,登記記録の閉鎖等,0,2024-01-11,2023-12-27,ＤＳ　Ｉｋｅｂｕｋｕｒｏ　Ｔ合同会社,,合同会社,東京都,港区,虎ノ門５丁目１番４号,,13,103,1050001,,,2023-12-27,清算の結了等,,,2019-12-24,1,,,,,ディーエスイケブクロティー,0
55,1011101046995,登記記録の閉鎖等,0,2024-01-11,2024-01-04,株式会社Ｄ５ＤＥＳＩＧＮ,,株式会社,東京都,新宿区,西早稲田１丁目１４番２３号,,13,104,1690051,,,2024-01-04,清算の結了等,,,2015-10-05,1,,,,,デイゴデザイン,0
68,1011701017693,登記記録の閉鎖等,0,2024-01-11,2024-01-04,皓辰株式会社,,株式会社,東京都,葛飾区,西新小岩３丁目２９－４,,13,122,1240025,,,2024-01-04,清算の結了等,,,2015-10-05,1,,,,,コウシン,0
91,1020002055881,登記記録の閉鎖等,0,2024-01-11,2023-12-28,有限会社アピールハウス,,有限会社,神奈川県,横浜市戸塚区,汲沢１丁目４３番１８号,00011137,14,110,2450061,,,2023-12-28,清算の結了等,,,2015-10-05,1,,,,,アピールハウス,0
100,1021003003565,登記記録の閉鎖等,0,2024-01-11,2023-12-26,プロトラブズ合同会社,,合同会社,東京都,港区,南青山１丁目１番１号新青山ビル西館１４階ＶｉｓｔｒａＪａｐａｎ合同会社内,,13,103,1070062,,,2023-12-26,清算の結了等,,,2015-10-05,1,,,,,プロトラブズ,0
108,1030001092470,登記記録の閉鎖等,0,2024-01-11,2023-12-27,株式会社ビ・ジェイ・エル,,株式会社,埼玉県,所沢市,若狭１丁目２６２６番地の２１,,11,208,3591151,,,2023-12-27,清算の結了等,,,2015-10-05,1,,,,,ビジェイエル,0
113,1030002012576,登記記録の閉鎖等,0,2024-01-11,2023-12-28,有限会社丸一不動産,,有限会社,埼玉県,さいたま市浦和区,常盤６丁目１２番１号,,11,107,3300061,,,2023-12-28,清算の結了等,,,2015-10-05,1,,,,,マルイチフドウサン,0
153,1080401016710,登記記録の閉鎖等,0,2024-01-11,2024-01-04,株式会社昌和,,株式会社,静岡県,磐田市,千手堂９６４番地６,,22,211,4380057,,,2024-01-04,清算の結了等,,,2015-10-05,1,,,,,ショウワ,0
173,1120001125345,登記記録の閉鎖等,0,2024-01-11,2024-01-09,株式会社エイジプラス,,株式会社,大阪府,大阪市中央区,内平野町１丁目２－９グランドビル大手前３階３０４号室,,27,128,5400037,,,2024-01-09,清算の結了等,,,2015-10-05,1,,,,,エイジプラス,0
210,1180001006358,登記記録の閉鎖等,0,2024-01-11,2023-12-28,株式会社ケイエス理化,,株式会社,愛知県,名古屋市港区,正保町４丁目１５番地,,23,111,4550074,,,2023-12-28,清算の結了等,,,2015-10-05,1,,,,,ケイエスリカ,0
215,1180001131684,登記記録の閉鎖等,0,2024-01-11,2024-01-04,株式会社ＢＯＯＳＴ　ＦＩＴ,,株式会社,愛知県,日進市,香久山３丁目１７０８番地,,23,230,4700134,,,2024-01-04,合併による解散等,9180001101192,令和５年１２月３１日名古屋市名東区社台三丁目２４５番地５ＭＴＹ株式会社（9180001101192）に合併し解散,2018-03-29,1,,,,,ブーストフィット,0
216,1180001137707,登記記録の閉鎖等,0,2024-01-11,2024-01-09,株式会社ライズソリューション,,株式会社,愛知県,名古屋市緑区,潮見が丘３丁目４７番地,,23,114,4580037,,,2024-01-09,清算の結了等,,,2019-08-13,1,,,,,ライズソリューション,0
219,1180002008304,登記記録の閉鎖等,0,2024-01-11,2024-01-04,有限会社ダイリン,,有限会社,愛知県,名古屋市昭和区,伊勝町１丁目７０番地の２,,23,107,4660805,,,2024-01-04,清算の結了等,,,2015-10-05,1,,,,,ダイリン,0
236,1190003003542,登記記録の閉鎖等,0,2024-01-11,2024-01-04,合同会社シェノン,,合同会社,三重県,四日市市,楠町本郷１０４５番地３,,24,202,5100106,,,2024-01-04,清算の結了等,,,2020-12-08,1,,,,,シェノン,0
238,1200001012782,登記記録の閉鎖等,0,2024-01-11,2024-01-05,新日本創薬株式会社,,株式会社,岐阜県,岐阜市,鷺山東２丁目７番３２号,,21,201,5020850,,,2024-01-05,清算の結了等,,,2015-10-05,1,,,,,シンニホンソウヤク,0
240,1200001036781,登記記録の閉鎖等,0,2024-01-11,2024-01-09,株式会社ｇｕｐｓ,,株式会社,岐阜県,岐阜市,浪花町１丁目８番地１,,21,201,5008301,,,2024-01-09,清算の結了等,,,2019-10-25,1,,,,,ガップス,0
250,1230002002020,登記記録の閉鎖等,0,2024-01-11,2024-01-10,有限会社竹原興産,,有限会社,富山県,富山市,下赤江町２丁目２番２７号,,16,201,9300813,,,2024-01-10,清算の結了等,,,2015-10-05,1,,,,,タケハラコウサン,0
251,1230005002604,登記記録の閉鎖等,0,2024-01-11,2024-01-09,康樂寺,,その他の設立登記法人,富山県,富山市,山田白井谷７１９番地,,16,201,9302121,,,2024-01-09,清算の結了等,,,2015-10-05,1,,,,,コウラクジ,0
252,1250001004643,登記記録の閉鎖等,0,2024-01-11,2024-01-04,株式会社鄙の館,,株式会社,山口県,山口市,湯田温泉５丁目２番２６号,,35,203,7530056,,,2024-01-04,合併による解散等,2250001003355,令和５年１２月３１日山口県宇部市大字西岐波１１７３番地の１７１株式会社創舎（2250001003355）に合併し解散,2015-10-05,1,,,,,ヒナノヤカタ,0
258,1280001004517,登記記録の閉鎖等,0,2024-01-11,2024-01-10,日本メリオン株式会社,,株式会社,島根県,江津市,黒松町３６４番地,,32,207,6992831,,,2024-01-10,登記官による閉鎖,,,2015-10-05,1,,,,,,0
259,1280001005977,登記記録の閉鎖等,0,2024-01-11,2024-01-10,株式会社西日本ヒートポンプ工業,,株式会社,島根県,鹿足郡津和野町,池村１９４２番地１,,32,501,6995216,,,2024-01-10,登記官による閉鎖,,,2015-10-05,1,,,,,,0
260,1280002004359,登記記録の閉鎖等,0,2024-01-11,2024-01-10,有限会社ヤマト水産,,有限会社,島根県,松江市,魚瀬町７８４番地７,,32,201,6900266,,,2024-01-10,登記官による閉鎖,,,2015-10-05,1,,,,,,0
261,1280002008054,登記記録の閉鎖等,0,2024-01-11,2024-01-10,有限会社棟石不動産,,有限会社,島根県,出雲市,塩冶町１１７３番地１,,32,203,6930021,,,2024-01-10,登記官による閉鎖,,,2015-10-05,1,,,,,,0
263,1280005004447,登記記録の閉鎖等,0,2024-01-11,2024-01-10,特定非営利活動法人Ａ－ＧＥＮＥＲいわみ,,その他の設立登記法人,島根県,浜田市,長沢町１６２番地,,32,202,6970023,,,2024-01-10,登記官による閉鎖,,,2015-10-05,1,,,,,,0
264,1280005005899,登記記録の閉鎖等,0,2024-01-11,2024-01-10,協業組合デイリー・アパレル・カンパニー,,その他の設立登記法人,島根県,雲南市,三刀屋町三刀屋４５番地１,,32,209,6902404,,,2024-01-10,登記官による閉鎖,,,2015-10-05,1,,,,,,0
268,1290001065434,登記記録の閉鎖等,0,2024-01-11,2024-01-04,株式会社ユピキタス,,株式会社,福岡県,那珂川市,大字西畑４５３番地７１,,40,231,8111246,,,2024-01-04,清算の結了等,,,2015-10-05,1,,,,,ユピキタス,0
301,1390002010668,登記記録の閉鎖等,0,2024-01-11,2024-01-09,有限会社芳村捺染,,有限会社,山形県,鶴岡市,安丹字村上１番地１,,06,203,9970057,,,2024-01-09,清算の結了等,,,2015-10-05,1,,,,,,0
353,2010502004009,登記記録の閉鎖等,0,2024-01-11,2023-12-28,有限会社コバヤシ,,有限会社,東京都,台東区,日本堤２丁目１０番５号,,13,106,1110021,,,2023-12-28,清算の結了等,,,2015-10-05,1,,,,,,0
362,2010801020730,登記記録の閉鎖等,0,2024-01-11,2024-01-04,株式会社ブルーコーポレーション,,株式会社,東京都,大田区,蒲田５丁目１９番１５号,,13,111,1440052,,,2024-01-04,清算の結了等,,,2015-10-05,1,,,,,ブルーコーポレーション,0
363,2010802001597,登記記録の閉鎖等,0,2024-01-11,2024-01-04,有限会社岩崎工業所,00052291,有限会社,東京都,大田区,萩中１丁目５番１９号,,13,111,1440047,,,2024-01-04,清算の結了等,,,2015-10-05,1,,,,,イワサキコウギョウショ,0
371,2011001039768,登記記録の閉鎖等,0,2024-01-11,2024-01-04,株式会社ソル・スポーツマネージメント,,株式会社,東京都,渋谷区,神南１丁目１１番１号,,13,113,1500041,,,2024-01-04,合併による解散等,3011001011461,令和６年１月１日東京都渋谷区神南一丁目１１番１号株式会社ジヤパン・スポーツ・プロモーション（3011001011461）に合併し解散,2015-10-05,1,,,,,ソルスポーツマネージメント,0
376,2011001104778,登記記録の閉鎖等,0,2024-01-11,2024-01-04,株式会社アナザーディメンション,,株式会社,東京都,渋谷区,広尾１丁目３番６号エルオフィス広尾,,13,113,1500012,,,2024-01-04,合併による解散等,9011001138654,令和５年１２月３１日東京都渋谷区広尾一丁目３番６号エルオフィス広尾株式会社キャッシュオンリー（9011001138654）に合併し解散,2015-10-05,1,,,,,アナザーディメンション,0
384,2011101041079,登記記録の閉鎖等,0,2024-01-11,2024-01-04,株式会社Ｄｒ．ＭＯＭ,,株式会社,東京都,新宿区,左門町６番地７号鯉江ビル２階,,13,104,1600017,,,2024-01-04,清算の結了等,,,2015-10-05,1,,,,,ドクターマム,0
388,2011201003193,登記記録の閉鎖等,0,2024-01-11,2023-12-26,株式会社たくま企画,,株式会社,東京都,杉並区,梅里１丁目６番地９号新高円寺センタービル１０１号室,,13,115,1660011,,,2023-12-26,清算の結了等,,,2015-10-05,1,,,,,タクマキカク,0
389,2011201015841,登記記録の閉鎖等,0,2024-01-11,2023-12-28,株式会社アイリス,,株式会社,神奈川県,川崎市多摩区,登戸２８６－２,,14,135,2140014,,,2023-12-28,清算の結了等,,,2015-10-05,1,,,,,アイリス,0
402,2013101003546,登記記録の閉鎖等,0,2024-01-11,2024-01-05,株式会社岸田屋,,株式会社,東京都,青梅市,野上町１丁目１５０番地の１ククナ１０５,,13,205,1980032,,,2024-01-05,清算の結了等,,,2015-10-05,1,,,,,キシダヤ,0
406,2020001119389,登記記録の閉鎖等,0,2024-01-11,2024-01-04,ソフトップ株式会社,,株式会社,神奈川県,横浜市都筑区,加賀原２丁目１４番９号,,14,118,2240055,,,2024-01-04,清算の結了等,,,2017-01-10,1,,,,,ソフトップ,0
420,2030001130048,登記記録の閉鎖等,0,2024-01-11,2023-12-27,株式会社スミヨシ,,株式会社,埼玉県,加須市,南篠崎１丁目８番９号,,11,210,3470017,,,2023-12-27,合併による解散等,7030001155676,令和５年１２月２７日埼玉県加須市南篠崎一丁目８番９号株式会社スミヨシ（7030001155676）に合併し解散,2019-03-27,1,,,,,スミヨシ,0
423,2030001150384,登記記録の閉鎖等,0,2024-01-11,2023-12-26,ＡＣ１株式会社,,株式会社,埼玉県,越谷市,赤山本町３番地２４ライオンズグローベル越谷ステーションプラザ１２０１号,,11,222,3430808,,,2023-12-26,清算の結了等,,,2022-10-11,1,,,,,エーシーワン,0
427,2030002031534,登記記録の閉鎖等,0,2024-01-11,2023-12-27,有限会社柳堀通信建設,,有限会社,埼玉県,所沢市,北中３丁目５８番地の１３,,11,208,3591101,,,2023-12-27,清算の結了等,,,2015-10-05,1,,,,,ヤナギボリツウシンケンセツ,0
431,2030003014934,登記記録の閉鎖等,0,2024-01-11,2024-01-05,合同会社ＩＩＺ,,合同会社,福岡県,福岡市博多区,博多駅前３丁目７番３５号博多ハイテックビル５０５,,40,132,8120011,,,2024-01-05,清算の結了等,,,2020-03-10,1,,,,,イーズ,0
437,2040002024594,登記記録の閉鎖等,0,2024-01-11,2023-12-26,有限会社林基礎,,有限会社,千葉県,船橋市,西習志野３丁目３４番７号,,12,204,2740815,,,2023-12-26,清算の結了等,,,2015-10-05,1,,,,,ハヤシキソ,0
445,2060005003932,登記記録の閉鎖等,0,2024-01-11,2023-12-26,農事組合法人那須岡田牧場,,その他の設立登記法人,栃木県,那須郡那須町,大字豊原乙６５４番地１,,09,407,3293224,,,2023-12-26,清算の結了等,,,2015-10-05,1,,,,,ナスオカダボクジョウ,0
479,2120001230111,登記記録の閉鎖等,0,2024-01-11,2024-01-09,株式会社ＷＦＤ,,株式会社,大阪府,大阪市港区,市岡２丁目１０番４号,,27,107,5520012,,,2024-01-09,清算の結了等,,,2020-07-06,1,,,,,ダブリューエフディー,0
503,2140001016756,登記記録の閉鎖等,0,2024-01-11,2024-01-09,エフ管財株式会社,,株式会社,兵庫県,神戸市長田区,長尾町２丁目７番４号,,28,106,6530855,,,2024-01-09,清算の結了等,,,2015-10-05,1,,,,,,0
504,2140001079381,登記記録の閉鎖等,0,2024-01-11,2024-01-09,新灯工業株式会社,,株式会社,兵庫県,川西市,東久代１丁目４６３番地の１,,28,217,6660023,,,2024-01-09,清算の結了等,,,2015-10-05,1,,,,,シントウコウギョウ,0
511,2170002008948,登記記録の閉鎖等,0,2024-01-11,2024-01-09,有限会社中島鉄工,,有限会社,和歌山県,田辺市,上万呂３８９番地の１９,,30,206,6460002,,,2024-01-09,清算の結了等,,,2015-10-05,1,,,,,ナカシマテッコウ,0
512,2180001072936,登記記録の閉鎖等,0,2024-01-11,2024-01-05,株式会社アーネットグループ,,株式会社,愛知県,名古屋市中区,大須３丁目２４番２１号,,23,106,4600011,,,2024-01-05,清算の結了等,,,2015-10-05,1,,,,,アーネットグループ,0
515,2180001142648,登記記録の閉鎖等,0,2024-01-11,2024-01-09,株式会社シンセーコーポレーション,,株式会社,愛知県,名古屋市名東区,高針台１丁目４０２番地,,23,115,4650054,,,2024-01-09,清算の結了等,,,2020-09-03,1,,,,,シンセーコーポレーション,0
516,2180001143308,登記記録の閉鎖等,0,2024-01-11,2024-01-05,株式会社ＦＯＵＲ　ＲＯＯＭＳ,,株式会社,愛知県,名古屋市中区,千代田４丁目８番１６号,,23,106,4600012,,,2024-01-05,清算の結了等,,,2020-10-19,1,,,,,フォールームス,0
529,2180002072035,登記記録の閉鎖等,0,2024-01-11,2023-12-26,有限会社陶都観光サービス,,有限会社,愛知県,瀬戸市,京町２丁目６６番地,,23,204,4890804,,,2023-12-26,清算の結了等,,,2015-10-05,1,,,,,トウトカンコウサービス,0
533,2180301019595,登記記録の閉鎖等,0,2024-01-11,2024-01-09,株式会社アスカ,,株式会社,愛知県,日進市,米野木町南山９７３番地の１９,,23,230,4700111,,,2024-01-09,清算の結了等,,,2015-10-05,1,,,,,アスカ,0
534,2180301022401,登記記録の閉鎖等,0,2024-01-11,2023-12-27,神谷鉄工株式会社,,株式会社,愛知県,西尾市,平坂町奥辰１３番地４,,23,213,4440305,,,2023-12-27,清算の結了等,,,2015-10-05,1,,,,,カミヤテッコウ,0
539,2200001034685,登記記録の閉鎖等,0,2024-01-11,2024-01-05,ＳＵＰＥＲＭＡＴＥホールディングス株式会社,,株式会社,岐阜県,羽島郡笠松町,円城寺字川通１４７０番地の１,,21,303,5016035,,,2024-01-05,合併による解散等,4200001011138,令和６年１月１日岐阜県羽島郡笠松町円城寺字川通１４７０番地の１株式会社スーパーメイト（4200001011138）に合併し解散,2017-12-07,1,,,,,スーパーメイトホールディングス,0
543,2210001011592,登記記録の閉鎖等,0,2024-01-11,2024-01-04,株式会社キヨエイビルド,,株式会社,福井県,越前市,新町８号６番地,,18,209,9150883,,,2024-01-04,合併による解散等,1210001011726,令和６年１月１日福井県越前市新町８号１番地株式会社高野組（1210001011726）に合併し解散,2015-10-05,1,,,,,キヨエイビルド,0
549,2240001029707,登記記録の閉鎖等,0,2024-01-11,2023-12-28,アケボノコーポレーション株式会社,,株式会社,広島県,福山市,新涯町５丁目３１番３２号,,34,207,7210955,,,2023-12-28,清算の結了等,,,2015-10-05,1,,,,,アケボノコーポレーション,0
552,2240002015598,登記記録の閉鎖等,0,2024-01-11,2023-12-27,有限会社松下設備工業,,有限会社,広島県,広島市安佐北区,安佐町大字久地１０４２番地１号,,34,106,7313362,,,2023-12-27,清算の結了等,,,2015-10-05,1,,,,,,0
559,2260001031108,登記記録の閉鎖等,0,2024-01-11,2024-01-09,株式会社前谷フーズ,,株式会社,岡山県,倉敷市,昭和１丁目２番３１－１００２号,,33,202,7100057,,,2024-01-09,清算の結了等,,,2017-08-04,1,,,,,,0
560,2260002002495,登記記録の閉鎖等,0,2024-01-11,2024-01-09,有限会社関西気球,,有限会社,岡山県,岡山市南区,妹尾３３０８番地の２,,33,104,7010205,,,2024-01-09,清算の結了等,,,2015-10-05,1,,,,,カンサイキキュウ,0
562,2280002000497,登記記録の閉鎖等,0,2024-01-11,2024-01-10,有限会社小村商店,,有限会社,島根県,松江市,北田町１０２番地４,,32,201,6900883,,,2024-01-10,登記官による閉鎖,,,2015-10-05,1,,,,,,0
564,2280005000148,登記記録の閉鎖等,0,2024-01-11,2024-01-10,社団法人島根県調理師会,,その他の設立登記法人,島根県,松江市,和多見町１５３番地,,32,201,6900005,,,2024-01-10,登記官による閉鎖,,,2015-10-05,1,,,,,,0
565,2280005003340,登記記録の閉鎖等,0,2024-01-11,2024-01-10,社団法人直江商工会,,その他の設立登記法人,島根県,出雲市,斐川町直江１０６４番地,,32,203,6990631,,,2024-01-10,登記官による閉鎖,,,2015-10-05,1,,,,,,0
567,2290001034413,登記記録の閉鎖等,0,2024-01-11,2024-01-04,株式会社エムズ,,株式会社,山口県,下関市,赤間町１番１６号,,35,201,7500007,,,2024-01-04,合併による解散等,6250001013144,令和６年１月１日山口県下関市赤間町１番１６号株式会社湖月（6250001013144）に合併し解散,2015-10-05,1,,,,,エムズ,0
590,2370002003648,登記記録の閉鎖等,0,2024-01-11,2024-01-09,有限会社橋本電化,,有限会社,宮城県,仙台市太白区,中田１丁目１０番１７号,,04,104,9811104,,,2024-01-09,清算の結了等,,,2015-10-05,1,,,,,ハシモトデンカ,0
616,2490002006184,登記記録の閉鎖等,0,2024-01-11,2024-01-04,有限会社壽産業ウエムラ,,有限会社,高知県,高知市,瀬戸南町２丁目１番３号,,39,201,7810253,,,2024-01-04,清算の結了等,,,2015-10-05,1,,,,,,0
621,3010001099598,登記記録の閉鎖等,0,2024-01-11,2024-01-05,株式会社リクルートストラテジックパートナーズ,,株式会社,東京都,千代田区,丸の内１丁目９番２号,,13,101,1000005,,,2024-01-05,合併による解散等,5010001149426,令和６年１月１日東京都千代田区丸の内一丁目９番２号株式会社リクルート（5010001149426）に合併し解散,2015-10-05,1,,,,,リクルートストラテジックパートナーズ,0
632,3010005030303,登記記録の閉鎖等,0,2024-01-11,2024-01-09,一般社団法人地域未来創生,,その他の設立登記法人,東京都,千代田区,丸の内３丁目１番１号東京共同会計事務所内,,13,101,1000005,,,2024-01-09,清算の結了等,,,2019-06-11,1,,,,,チイキミライソウセイ,0
669,3011102006336,登記記録の閉鎖等,0,2024-01-11,2024-01-04,有限会社松翠,00053931,有限会社,東京都,新宿区,西新宿７丁目２番１２号,,13,104,1600023,,,2024-01-04,清算の結了等,,,2015-10-05,1,,,,,ショウスイ,0
681,3012302000401,登記記録の閉鎖等,0,2024-01-11,2024-01-04,有限会社インテリア参壱々丸,,有限会社,東京都,町田市,山崎町３０７番地１,,13,209,1950074,,,2024-01-04,清算の結了等,,,2015-10-05,1,,,,,インテリアサンイチイチマル,0
683,3012703001279,登記記録の閉鎖等,0,2024-01-11,2024-01-05,合同会社ＭＹＵＭＡ,,合同会社,東京都,東久留米市,滝山４丁目１番４０号,,13,222,2030033,,,2024-01-05,合併による解散等,6010701023598,令和５年１２月１５日東京都新宿区住吉町１－１７株式会社エム・エス・プランニング（6010701023598）に合併し解散,2016-04-22,1,,,,,ミューマ,0
696,3020002074905,登記記録の閉鎖等,0,2024-01-11,2024-01-04,有限会社チャウアー,,有限会社,群馬県,伊勢崎市,富塚町２２０番地２１,,10,204,3720833,,,2024-01-04,清算の結了等,,,2015-10-05,1,,,,,チャウアー,0
720,3030003015857,登記記録の閉鎖等,0,2024-01-11,2023-12-27,合同会社フルフィー,,合同会社,埼玉県,新座市,野火止５丁目２８番１８号２０１号室,,11,230,3520011,,,2023-12-27,清算の結了等,,,2020-09-17,1,,,,,フルフィー,0
730,3040002009504,登記記録の閉鎖等,0,2024-01-11,2023-12-25,有限会社原田電設,,有限会社,千葉県,千葉市花見川区,横戸町１４８５番地４３,,12,102,2620001,,,2023-12-25,清算の結了等,,,2015-10-05,1,,,,,ハラダデンセツ,0
733,3040002094835,登記記録の閉鎖等,0,2024-01-11,2023-12-26,有限会社エフ・エム・シー,,有限会社,千葉県,我孫子市,中里２２２番地の５,,12,222,2701122,,,2023-12-26,清算の結了等,,,2015-10-05,1,,,,,エフエムシー,0
754,3070002025746,登記記録の閉鎖等,0,2024-01-11,2024-01-04,有限会社ＮＥＯＣＵＯＲＥ,,有限会社,群馬県,桐生市,相生町５丁目２８４番地５４,,10,203,3760011,,,2024-01-04,清算の結了等,,,2015-10-05,1,,,,,ネオクオーレ,0
756,3080002004501,登記記録の閉鎖等,0,2024-01-11,2024-01-09,有限会社ニュー・シェル,,有限会社,静岡県,静岡市葵区,呉服町２丁目４番地の４,,22,101,4200031,,,2024-01-09,清算の結了等,,,2015-10-05,1,,,,,ニューシェル,0
785,3120001220342,登記記録の閉鎖等,0,2024-01-11,2024-01-04,株式会社シグナルマーケティング,,株式会社,大阪府,大阪市中央区,瓦町４丁目７番８号,,27,128,5410048,,,2024-01-04,合併による解散等,1120001202953,令和６年１月１日大阪市中央区難波五丁目１番６０号株式会社アンビションプラス（1120001202953）に合併し解散,2019-04-15,1,,,,,シグナルマーケティング,0
820,3180001109613,登記記録の閉鎖等,0,2024-01-11,2024-01-09,株式会社鈴木商店,,株式会社,愛知県,小牧市,小木５丁目４１７番地,,23,219,4850058,,,2024-01-09,清算の結了等,,,2015-10-05,1,,,,,スズキショウテン,0
823,3180001134173,登記記録の閉鎖等,0,2024-01-11,2024-01-09,株式会社ハピネス,,株式会社,愛知県,名古屋市天白区,一つ山３丁目２６番地１,,23,116,4680033,,,2024-01-09,清算の結了等,,,2018-10-22,1,,,,,ハピネス,0
825,3180002009143,登記記録の閉鎖等,0,2024-01-11,2024-01-04,有限会社荒川製作所,,有限会社,愛知県,名古屋市瑞穂区,妙音通２丁目１７番地,,23,108,4670842,,,2024-01-04,清算の結了等,,,2015-10-05,1,,,,,アラカワセイサクジョ,0
826,3180002025108,登記記録の閉鎖等,0,2024-01-11,2024-01-04,有限会社和高工業所,,有限会社,愛知県,名古屋市西区,十方町１２３番地,,23,104,4520837,,,2024-01-04,清算の結了等,,,2015-10-05,1,,,,,ワコウコウギョウショ,0
828,3180002055575,登記記録の閉鎖等,0,2024-01-11,2023-12-27,有限会社オカケン,,有限会社,愛知県,名古屋市中川区,伏屋３丁目６０４番地,,23,110,4540996,,,2023-12-27,清算の結了等,,,2015-10-05,1,,,,,オカケン,0
829,3180003024678,登記記録の閉鎖等,0,2024-01-11,2023-12-28,合同会社ＣＳＣ,,合同会社,愛知県,名古屋市中村区,名駅３丁目４番１０号アルティメイト名駅１ｓｔ２階,,23,105,4500002,,,2023-12-28,清算の結了等,,,2023-01-06,1,,,,,シーエスシー,0
835,3190002009893,登記記録の閉鎖等,0,2024-01-11,2024-01-04,有限会社森楠酒店,,有限会社,三重県,伊勢市,浦口３丁目３番２９号,,24,203,5160062,,,2024-01-04,清算の結了等,,,2015-10-05,1,,,,,モリクスサケテン,0
840,3200002008150,登記記録の閉鎖等,0,2024-01-11,2024-01-05,有限会社藤田,,有限会社,岐阜県,各務原市,鵜沼各務原町５丁目１６４番地,,21,213,5090141,,,2024-01-05,清算の結了等,,,2015-10-05,1,,,,,,0
844,3240001060446,登記記録の閉鎖等,0,2024-01-11,2023-12-26,株式会社武知,,株式会社,広島県,福山市,日吉台２丁目１６番６号サニーコート日吉台２０１,,34,207,7210972,,,2023-12-26,清算の結了等,,,2022-10-06,1,,,,,タケチ,0
846,3250001006191,登記記録の閉鎖等,0,2024-01-11,2024-01-04,株式会社ＫＳＴ,,株式会社,山口県,下関市,赤間町１番１６号,,35,201,7500007,,,2024-01-04,合併による解散等,6250001013144,令和６年１月１日山口県下関市赤間町１番１６号株式会社湖月（6250001013144）に合併し解散,2015-10-05,1,,,,,ケイエスティー,0
847,3250001013329,登記記録の閉鎖等,0,2024-01-11,2024-01-04,株式会社イーストウインド,,株式会社,山口県,下関市,赤間町１番１６号,,35,201,7500007,,,2024-01-04,合併による解散等,6250001013144,令和６年１月１日山口県下関市赤間町１番１６号株式会社湖月（6250001013144）に合併し解散,2015-10-05,1,,,,,イーストウインド,0
850,3280001002758,登記記録の閉鎖等,0,2024-01-11,2024-01-10,株式会社秋月事務所,,株式会社,島根県,松江市,母衣町１５２番地,,32,201,6900886,,,2024-01-10,登記官による閉鎖,,,2015-10-05,1,,,,,,0
853,3280005002614,登記記録の閉鎖等,0,2024-01-11,2024-01-10,財団法人修理免共益会,,その他の設立登記法人,島根県,出雲市,大社町修理免３９１番地,,32,203,6990721,,,2024-01-10,登記官による閉鎖,,,2015-10-05,1,,,,,,0
854,3280005003950,登記記録の閉鎖等,0,2024-01-11,2024-01-10,島根県いわみニット協同組合,,その他の設立登記法人,島根県,大田市,川合町吉永１１６４番地２,,32,205,6940013,,,2024-01-10,登記官による閉鎖,,,2015-10-05,1,,,,,,0
876,3340001024754,登記記録の閉鎖等,0,2024-01-11,2024-01-04,株式会社平岩ホールディングス,,株式会社,鹿児島県,出水市,知識町３５７番地２,,46,208,8990211,,,2024-01-04,合併による解散等,3340001011819,令和６年１月１日鹿児島県出水市知識町３５７番地２株式会社平岩熱学（3340001011819）に合併し解散,2022-06-01,1,,,,,ヒライワホールディングス,0
881,3370001043529,登記記録の閉鎖等,0,2024-01-11,2024-01-09,株式会社スマイル＆リラックス,,株式会社,宮城県,仙台市泉区,松森字明神３０番地の５０,,04,105,9813111,,,2024-01-09,清算の結了等,,,2018-09-19,1,,,,,スマイルアンドリラックス,0
882,3370002014537,登記記録の閉鎖等,0,2024-01-11,2024-01-05,有限会社仙台富士保険サービス,,有限会社,宮城県,仙台市青葉区,台原４丁目７番２７号,,04,101,9810911,,,2024-01-05,清算の結了等,,,2015-10-05,1,,,,,センダイフジホケンサービス,0
887,3380001008308,登記記録の閉鎖等,0,2024-01-11,2024-01-04,株式会社エステートジャパン,,株式会社,福島県,郡山市,並木１丁目１３番地の２１,,07,203,9638026,,,2024-01-04,合併による解散等,3380001007029,令和６年１月１日福島県郡山市並木一丁目１３番地の２１株式会社ＨＮＧ（3380001007029）に合併し解散,2015-10-05,1,,,,,エステートジャパン,0
891,3380003005022,登記記録の閉鎖等,0,2024-01-11,2023-12-20,合同会社Ｐｌａｔｆｏｒｍ１２,,合同会社,福島県,伊達市,梁川町字西塩野川６６番地１,,07,213,9600709,,,2023-12-20,清算の結了等,,,2021-09-28,1,,,,,プラットフォームトュエルブ,0
904,3470001010329,登記記録の閉鎖等,0,2024-01-11,2024-01-09,田井精機株式会社,,株式会社,香川県,三豊市,豊中町本山甲１１４６番地２,,37,208,7691506,,,2024-01-09,清算の結了等,,,2015-10-05,1,,,,,タイセイキ,0
909,3500001024408,登記記録の閉鎖等,0,2024-01-11,2024-01-05,株式会社楽笑,,株式会社,愛媛県,松山市,朝生田町５丁目３番地２８,,38,201,7900952,,,2024-01-05,清算の結了等,,,2022-08-22,1,,,,,ラクショウ,0
912,3500003001685,登記記録の閉鎖等,0,2024-01-11,2024-01-10,西村経営合同会社,,合同会社,愛媛県,松山市,越智３丁目９番１号,,38,201,7900933,,,2024-01-10,清算の結了等,,,2015-10-05,1,,,,,ニシムラケイエイ,0
927,4010003036482,登記記録の閉鎖等,0,2024-01-11,2023-12-27,Ｄタワー西新宿合同会社,,合同会社,東京都,千代田区,飯田橋４丁目７番１号結和税理士法人内,,13,101,1020072,,,2023-12-27,清算の結了等,,,2021-12-07,1,,,,,ディータワーニシシンジュク,0
932,4010401040318,登記記録の閉鎖等,0,2024-01-11,2024-01-04,ヨコハマゴム・マリン＆エアロスペース株式会社,,株式会社,神奈川県,平塚市,追分２番１号,,14,203,2540047,,,2024-01-04,合併による解散等,4010401030574,令和６年１月１日神奈川県平塚市追分２番１号横浜ゴム株式会社（4010401030574）に合併し解散,2015-10-05,1,,,,,ヨコハマゴムマリンアンドエアロスペース,0
947,4010601006003,登記記録の閉鎖等,0,2024-01-11,2024-01-04,福恵堂印刷株式会社,,株式会社,東京都,江東区,永代２丁目１２番１号,,13,108,1350034,,,2024-01-04,清算の結了等,,,2015-10-05,1,,,,,フクエドウインサツ,0
958,4010801016033,登記記録の閉鎖等,0,2024-01-11,2023-12-28,株式会社ＳＵＮ　ＡＣＣＥＳＳＡＲＹ,,株式会社,東京都,大田区,仲池上１丁目１３番１号,,13,111,1460081,,,2023-12-28,清算の結了等,,,2015-10-05,1,,,,,サンアクセサリー,0
963,4010902000935,登記記録の閉鎖等,0,2024-01-11,2023-12-26,有限会社アペックス研究所,,有限会社,神奈川県,横浜市港北区,北新横浜１丁目９番４号,,14,109,2230059,,,2023-12-26,清算の結了等,,,2015-10-05,1,,,,,アペックスケンキュウショ,0
979,4011101049376,登記記録の閉鎖等,0,2024-01-11,2024-01-04,株式会社アラベスク,,株式会社,東京都,新宿区,市谷田町１丁目１０番地プライム市ヶ谷ビル３階,,13,104,1620843,,,2024-01-04,合併による解散等,6011101018924,令和６年１月１日東京都新宿区市谷田町一丁目１０番地プライム市ヶ谷ビル３階株式会社プロダクション尾木（6011101018924）に合併し解散,2015-10-05,1,,,,,アラベスク,0
1006,4012401024309,登記記録の閉鎖等,0,2024-01-11,2023-12-28,Ｍ２Ｙトレーディング株式会社,,株式会社,東京都,調布市,染地３丁目５番地１９０,,13,208,1820023,,,2023-12-28,清算の結了等,,,2015-10-05,1,,,,,,0
1008,4012701012855,登記記録の閉鎖等,0,2024-01-11,2023-12-28,株式会社Ｃｏｍｐｒｏｍｉｓｏ,,株式会社,東京都,町田市,金森２丁目３８番３３号,,13,209,1940012,,,2023-12-28,清算の結了等,,,2015-10-05,1,,,,,コンプロミソ,0
1012,4013303004472,登記記録の閉鎖等,0,2024-01-11,2024-01-04,ＯｎＳｃａｌｅ　Ｊａｐａｎ合同会社,,合同会社,東京都,新宿区,西新宿６丁目１０番１号,,13,104,1600023,,,2024-01-04,合併による解散等,6011101057245,令和６年１月１日東京都新宿区西新宿六丁目１０番１号アンシス・ジャパン株式会社（6011101057245）に合併し解散,2019-01-28,1,,,,,オンスケールジャパン,0
1018,4020001109272,登記記録の閉鎖等,0,2024-01-11,2024-01-04,株式会社ネクストイノベーション,,株式会社,神奈川県,横浜市神奈川区,鶴屋町３丁目３５番地１１ストーク横浜二番館５階,,14,102,2210835,,,2024-01-04,清算の結了等,,,2015-10-05,1,,,,,ネクストイノベーション,0
1031,4020003010379,登記記録の閉鎖等,0,2024-01-11,2023-12-22,アデリー合同会社,,合同会社,神奈川県,横浜市港北区,日吉本町５丁目６７番４１号,,14,109,2230062,,,2023-12-22,清算の結了等,,,2015-10-05,1,,,,,アデリー,0
1034,4021001047280,登記記録の閉鎖等,0,2024-01-11,2024-01-05,株式会社Ｓｔａｌｉｇｈｔ,,株式会社,神奈川県,横須賀市,根岸町３丁目１０番１３号,,14,201,2390807,,,2024-01-05,清算の結了等,,,2015-10-05,1,,,,,スターライト,0
1043,4030001000397,登記記録の閉鎖等,0,2024-01-11,2024-01-04,青山物産株式会社,,株式会社,埼玉県,さいたま市見沼区,大字御蔵１４０１番地５３,,11,104,3370033,,,2024-01-04,清算の結了等,,,2015-10-05,1,,,,,アオヤマブッサン,0
1047,4030001086602,登記記録の閉鎖等,0,2024-01-11,2023-12-27,株式会社ムカイ,,株式会社,埼玉県,深谷市,新戒５６１番地２,,11,218,3660019,,,2023-12-27,清算の結了等,,,2015-10-05,1,,,,,ムカイ,0
1059,4040002032199,登記記録の閉鎖等,0,2024-01-11,2023-12-26,有限会社ステップワン,,有限会社,千葉県,市川市,鬼高２丁目９番１１号,,12,203,2720015,,,2023-12-26,清算の結了等,,,2015-10-05,1,,,,,ステップワン,0
1081,4080401019405,登記記録の閉鎖等,0,2024-01-11,2023-12-26,株式会社さきしまトランズ,,株式会社,秋田県,秋田市,金足黒川１番地,,05,201,0100121,,,2023-12-26,合併による解散等,2410001001796,令和５年１２月２５日秋田市金足黒川１番地株式会社東環（2410001001796）に合併し解散,2015-10-05,1,,,,,サキシマトランズ,0
1095,4120001150340,登記記録の閉鎖等,0,2024-01-11,2024-01-04,日本物流システム株式会社,,株式会社,大阪府,枚方市,茄子作４丁目２１番１号,,27,210,5730071,,,2024-01-04,合併による解散等,6120001150339,令和６年１月１日大阪府枚方市茄子作四丁目２１番１号日本物流倉庫株式会社（6120001150339）に合併し解散,2015-10-05,1,,,,,ニホンブツリュウシステム,0
1108,4120102011219,登記記録の閉鎖等,0,2024-01-11,2024-01-10,有限会社岡田,,有限会社,大阪府,堺市東区,引野町２丁１９番地の７,,27,143,5998104,,,2024-01-10,清算の結了等,,,2015-10-05,1,,,,,オカダ,0
1111,4122001012702,登記記録の閉鎖等,0,2024-01-11,2024-01-09,株式会社フォレスト,,株式会社,大阪府,東大阪市,新庄１丁目１１番８号,,27,227,5780963,,,2024-01-09,清算の結了等,,,2015-10-05,1,,,,,フォレスト,0
1112,4130001043592,登記記録の閉鎖等,0,2024-01-11,2024-01-09,原口建設株式会社,,株式会社,京都府,舞鶴市,字京田４９番地,,26,202,6240823,,,2024-01-09,清算の結了等,,,2015-10-05,1,,,,,ハラグチケンセツ,0
1133,4170002008987,登記記録の閉鎖等,0,2024-01-11,2024-01-10,有限会社ハマグチ,,有限会社,和歌山県,田辺市,湊１９番２６号,,30,206,6460031,,,2024-01-10,清算の結了等,,,2015-10-05,1,,,,,ハマグチ,0
1136,4180001143990,登記記録の閉鎖等,0,2024-01-11,2024-01-04,株式会社アイズユー,,株式会社,愛知県,名古屋市昭和区,滝子通３丁目２７番地Ｓ－ＴＡＫＩＫＯ３階ＲＯＯＭ４,,23,107,4660055,,,2024-01-04,清算の結了等,,,2020-12-10,1,,,,,アイズユー,0
1142,4180003008234,登記記録の閉鎖等,0,2024-01-11,2024-01-05,合資会社中家商会,,合資会社,愛知県,名古屋市港区,明正２丁目１４７番地,,23,111,4550806,,,2024-01-05,清算の結了等,,,2015-10-05,1,,,,,ナカヤショウカイ,0
1144,4180003015643,登記記録の閉鎖等,0,2024-01-11,2024-01-05,合同会社フィオクォーレ,,合同会社,愛知県,一宮市,定水寺字清水４９番地１,,23,203,4910004,,,2024-01-05,合併による解散等,1180003017270,令和５年１２月２０日愛知県春日井市白山町一丁目６２番地６合同会社施恩（1180003017270）に合併し解散,2015-10-05,1,,,,,フィオクォーレ,0
1152,4200001024305,登記記録の閉鎖等,0,2024-01-11,2024-01-09,株式会社フジワテクノス,,株式会社,岐阜県,恵那市,上矢作町１８８３番地,,21,210,5097521,,,2024-01-09,清算の結了等,,,2015-10-05,1,,,,,,0
1157,4210005008006,登記記録の閉鎖等,0,2024-01-11,2024-01-04,医療法人加藤産婦人科,,その他の設立登記法人,福井県,鯖江市,水落町１丁目４番２１号,,18,207,9160022,,,2024-01-04,清算の結了等,,,2015-10-05,1,,,,,カトウサンフジンカ,0
1165,4250001007214,登記記録の閉鎖等,0,2024-01-11,2024-01-04,株式会社スパークス,,株式会社,山口県,下関市,赤間町１番１６号,,35,201,7500007,,,2024-01-04,合併による解散等,6250001013144,令和６年１月１日山口県下関市赤間町１番１６号株式会社湖月（6250001013144）に合併し解散,2015-10-05,1,,,,,スパークス,0
1166,4250003003269,登記記録の閉鎖等,0,2024-01-11,2024-01-05,合同会社縁,,合同会社,山口県,下関市,長府豊城町９番３４号,,35,201,7520943,,,2024-01-05,清算の結了等,,,2023-05-15,1,,,,,エン,0
1177,4280001000686,登記記録の閉鎖等,0,2024-01-11,2024-01-10,松江ソーイング株式会社,,株式会社,島根県,松江市,黒田町４９７番地４,,32,201,6900876,,,2024-01-10,登記官による閉鎖,,,2015-10-05,1,,,,,,0
1179,4280002006030,登記記録の閉鎖等,0,2024-01-11,2024-01-10,有限会社ミート．ファミリー．サービス,,有限会社,島根県,出雲市,白枝町２５１番地,,32,203,6930006,,,2024-01-10,登記官による閉鎖,,,2015-10-05,1,,,,,,0
1180,4280002009462,登記記録の閉鎖等,0,2024-01-11,2024-01-10,有限会社空の幸,,有限会社,島根県,浜田市,弥栄町小坂４３５番地,,32,202,6971202,,,2024-01-10,登記官による閉鎖,,,2015-10-05,1,,,,,,0
1181,4280005004056,登記記録の閉鎖等,0,2024-01-11,2024-01-10,財団法人ドレスメーカー山陰女学院,00004889,その他の設立登記法人,島根県,浜田市,田町１１６番地１２,,32,202,6970026,,,2024-01-10,登記官による閉鎖,,,2015-10-05,1,,,,,,0
1182,4280005006408,登記記録の閉鎖等,0,2024-01-11,2024-01-10,島根ふるさと情報アイティ協同組合,,その他の設立登記法人,島根県,雲南市,大東町下佐世１０２番地１,,32,209,6991215,,,2024-01-10,登記官による閉鎖,,,2015-10-05,1,,,,,,0
1184,4290001020543,登記記録の閉鎖等,0,2024-01-11,2024-01-09,株式会社アドバンスウェア,,株式会社,福岡県,福岡市中央区,長浜１丁目１番３５号,,40,133,8100072,,,2024-01-09,合併による解散等,8320001001478,令和６年１月１日大分市生石四丁目１番２０号株式会社スリーエイ・システム（8320001001478）に合併し解散,2015-10-05,1,,,,,,0
1201,4310005007947,登記記録の閉鎖等,0,2024-01-11,2024-01-10,一般社団法人放課後児童クラブＳＡＫＵＲＡ・ＬＡ・ＨＯＵＳＥ,,その他の設立登記法人,長崎県,長崎市,さくらの里１丁目１１番２２号,,42,201,8512207,,,2024-01-10,清算の結了等,,,2016-04-12,1,,,,,ホウカゴジドウクラブサクララハウス,0
1211,4360001004976,登記記録の閉鎖等,0,2024-01-11,2024-01-04,株式会社ドリームスタッフ,,株式会社,沖縄県,糸満市,西崎６丁目１３番５号,,47,210,9010305,,,2024-01-04,合併による解散等,4360001008003,令和６年１月１日沖縄県糸満市西崎六丁目１３番５号株式会社友睦物流（4360001008003）に合併し解散,2015-10-05,1,,,,,ドリームスタッフ,0
1217,4370001016871,登記記録の閉鎖等,0,2024-01-11,2024-01-09,株式会社ディスカバリー広告社,,株式会社,宮城県,名取市,手倉田字八幡７５－１シャローネ星１０１,,04,207,9811231,,,2024-01-09,清算の結了等,,,2015-10-05,1,,,,,,0
1218,4370101001971,登記記録の閉鎖等,0,2024-01-11,2024-01-09,株式会社ＵＮＩＴＥ　ＳＹＳＴＥＭ,,株式会社,宮城県,仙台市太白区,東大野田２１－１８,,04,104,9820004,,,2024-01-09,清算の結了等,,,2015-10-05,1,,,,,ユナイトシステム,0
1220,4370301000740,登記記録の閉鎖等,0,2024-01-11,2024-01-09,株式会社仙台屋,,株式会社,宮城県,石巻市,前谷地字中埣１３８番地の５,,04,202,9871101,,,2024-01-09,清算の結了等,,,2015-10-05,1,,,,,センダイヤ,0
1223,4390001015070,登記記録の閉鎖等,0,2024-01-11,2024-01-09,株式会社ナチュラルスマイルプラス,,株式会社,山形県,鶴岡市,羽黒町押口字川端４２番地２９号,,06,203,9970161,,,2024-01-09,清算の結了等,,,2017-10-04,1,,,,,ナチュラルスマイルプラス,0
1224,4390001016416,登記記録の閉鎖等,0,2024-01-11,2024-01-09,株式会社ベストエバー,,株式会社,山形県,西村山郡朝日町,大字中沢字中沢原９番地５,,06,323,9901301,,,2024-01-09,清算の結了等,,,2021-04-14,1,,,,,ベストエバー,0
1284,5010701033061,登記記録の閉鎖等,0,2024-01-11,2024-01-04,株式会社ワークポート東日本,,株式会社,東京都,品川区,大崎１丁目２番２号,,13,109,1410032,,,2024-01-04,合併による解散等,9010701016178,令和６年１月１日東京都品川区大崎一丁目２番２号株式会社ワークポート（9010701016178）に合併し解散,2016-10-04,1,,,,,ワークポートヒガシニホン,0
1305,5011005009054,登記記録の閉鎖等,0,2024-01-11,2024-01-05,一般社団法人リファインメタル協会,,その他の設立登記法人,東京都,渋谷区,千駄ヶ谷３丁目３番１８号,,13,113,1510051,,,2024-01-05,清算の結了等,,,2021-05-18,1,,,,,リファインメタルキョウカイ,0
1326,5012702006517,登記記録の閉鎖等,0,2024-01-11,2024-01-09,有限会社久留米電機商会,,有限会社,東京都,東久留米市,中央町２丁目１番５８号,,13,222,2030054,,,2024-01-09,清算の結了等,,,2015-10-05,1,,,,,クルメデンキショウカイ,0
1346,5020003013827,登記記録の閉鎖等,0,2024-01-11,2024-01-04,ｉｍｏ合同会社,,合同会社,神奈川県,横浜市都筑区,牛久保東２丁目１０番８,,14,118,2240014,,,2024-01-04,清算の結了等,,,2018-01-23,1,,,,,イモ,0
1352,5021002021861,登記記録の閉鎖等,0,2024-01-11,2024-01-05,有限会社大光設備,,有限会社,神奈川県,相模原市中央区,高根２丁目８番９号,,14,152,2520221,,,2024-01-05,清算の結了等,,,2015-10-05,1,,,,,タイコウセツビ,0
1358,5021005003469,登記記録の閉鎖等,0,2024-01-11,2024-01-05,医療法人社団秀生会,,その他の設立登記法人,神奈川県,厚木市,山際６１５番地の７ＴＡＫＥＯビル１階,,14,212,2430803,,,2024-01-05,清算の結了等,,,2015-10-05,1,,,,,シュウセイカイ,0
1385,5040005018599,登記記録の閉鎖等,0,2024-01-11,2023-12-21,九十九里の恵企業組合,,その他の設立登記法人,千葉県,山武郡九十九里町,片貝６９２８番３３０,,12,403,2830104,,,2023-12-21,清算の結了等,,,2015-10-05,1,,,,,クジュウクリノメグミ,0
1401,5080002016387,登記記録の閉鎖等,0,2024-01-11,2024-01-09,有限会社焼津丸水輸送,,有限会社,静岡県,焼津市,田尻北３８０番地の２,,22,212,4250051,,,2024-01-09,清算の結了等,,,2015-10-05,1,,,,,ヤイヅマルスイユソウ,0
1410,5080401017762,登記記録の閉鎖等,0,2024-01-11,2024-01-04,ＬＥテクノロジー株式会社,,株式会社,静岡県,袋井市,袋井１０５番地の２,,22,216,4370026,,,2024-01-04,清算の結了等,,,2015-10-05,1,,,,,エルイーテクノロジー,0
1420,5120001029542,登記記録の閉鎖等,0,2024-01-11,2024-01-09,ニックサービス株式会社,,株式会社,大阪府,大阪市港区,磯路２丁目２１番１号,,27,107,5520003,,,2024-01-09,清算の結了等,,,2015-10-05,1,,,,,ニックサービス,0
1422,5120001086055,登記記録の閉鎖等,0,2024-01-11,2024-01-10,株式会社中島商店,,株式会社,大阪府,大阪市中央区,博労町２丁目６番４号,,27,128,5410059,,,2024-01-10,清算の結了等,,,2015-10-05,1,,,,,ナカジマショウテン,0
1430,5120101038336,登記記録の閉鎖等,0,2024-01-11,2024-01-04,南海サービス株式会社,,株式会社,大阪府,貝塚市,堀１丁目１２番２号,,27,208,5970015,,,2024-01-04,合併による解散等,2120101038826,令和６年１月１日大阪府貝塚市堤３００番地ジェイ－ワイテックス株式会社（2120101038826）に合併し解散,2015-10-05,1,,,,,ナンカイサービス,0
1434,5120105003567,登記記録の閉鎖等,0,2024-01-11,2024-01-09,特定非営利活動法人ネイチャー・フレンドリー・ジャパン,,その他の設立登記法人,大阪府,堺市北区,野遠町２番地６,,27,146,5918013,,,2024-01-09,清算の結了等,,,2015-10-05,1,,,,,ネイチャーフレンドリージャパン,0
1450,5140002022627,登記記録の閉鎖等,0,2024-01-11,2024-01-05,有限会社エル,,有限会社,兵庫県,神戸市西区,池上２丁目５番地の２５,,28,111,6512111,,,2024-01-05,清算の結了等,,,2015-10-05,1,,,,,エル,0
1452,5140003017337,登記記録の閉鎖等,0,2024-01-11,2024-01-05,Ｄｉｐｔｉｅ合同会社,,合同会社,兵庫県,神戸市灘区,日尾町２丁目２－１１六甲第２ビル３階北,,28,102,6570029,,,2024-01-05,清算の結了等,,,2022-02-08,1,,,,,ディプティー,0
1464,5170002006354,登記記録の閉鎖等,0,2024-01-11,2024-01-09,有限会社上田モップ製作所,,有限会社,和歌山県,海南市,野上新６０４番地,,30,202,6401161,,,2024-01-09,清算の結了等,,,2015-10-05,1,,,,,ウエダモップセイサクショ,0
1476,5180002067890,登記記録の閉鎖等,0,2024-01-11,2024-01-05,有限会社アサ藤山台,,有限会社,愛知県,春日井市,岩成台９丁目１番地の６,,23,206,4870033,,,2024-01-05,清算の結了等,,,2015-10-05,1,,,,,アサフジヤマダイ,0
1479,5180301007003,登記記録の閉鎖等,0,2024-01-11,2023-12-28,紅屋栄ビル株式会社,,株式会社,愛知県,豊橋市,花園町４６番地,,23,201,4400895,,,2023-12-28,清算の結了等,,,2015-10-05,1,,,,,ベニヤサカエビル,0
1498,5280001005874,登記記録の閉鎖等,0,2024-01-11,2024-01-10,株式会社シマショク,,株式会社,島根県,出雲市,大津町２７９３番地,,32,203,6930011,,,2024-01-10,登記官による閉鎖,,,2015-10-05,1,,,,,,0
1499,5280002010832,登記記録の閉鎖等,0,2024-01-11,2024-01-10,有限会社三隅工業,,有限会社,島根県,益田市,東町３９番１３号,,32,204,6980004,,,2024-01-10,登記官による閉鎖,,,2015-10-05,1,,,,,,0
1500,5280005003627,登記記録の閉鎖等,0,2024-01-11,2024-01-10,大田木材生産協同組合,,その他の設立登記法人,島根県,大田市,大田町大田イ８５１番地１,,32,205,6940064,,,2024-01-10,登記官による閉鎖,,,2015-10-05,1,,,,,,0
1501,5280005004740,登記記録の閉鎖等,0,2024-01-11,2024-01-10,協業組合新栄木工,,その他の設立登記法人,島根県,邑智郡邑南町,下口羽１０９３番地,,32,449,6960603,,,2024-01-10,登記官による閉鎖,,,2015-10-05,1,,,,,,0
1517,5320003003624,登記記録の閉鎖等,0,2024-01-11,2024-01-05,合同会社おおはら管財,,合同会社,大分県,日田市,田島２丁目１２番５０号,,44,204,8770025,,,2024-01-05,清算の結了等,,,2021-10-05,1,,,,,オオハラカンザイ,0
1518,5330001016437,登記記録の閉鎖等,0,2024-01-11,2024-01-09,株式会社ハウジング創,,株式会社,熊本県,上益城郡益城町,大字広崎１６８９番地６３,,43,443,8612236,,,2024-01-09,清算の結了等,,,2015-10-05,1,,,,,ハウジングソウ,0
1522,5330005009866,登記記録の閉鎖等,0,2024-01-11,2023-12-28,ＮＰＯ法人くまもと新創生プロジェクト,,その他の設立登記法人,熊本県,熊本市西区,二本木３丁目７番３７号,,43,103,8600051,,,2023-12-28,清算の結了等,,,2018-05-01,1,,,,,,0
1531,5370001039013,登記記録の閉鎖等,0,2024-01-11,2024-01-09,株式会社イーエスグループ,,株式会社,宮城県,仙台市若林区,新寺２丁目２－３５,,04,103,9840051,,,2024-01-09,清算の結了等,,,2016-01-06,1,,,,,,0
1534,5370101001046,登記記録の閉鎖等,0,2024-01-11,2024-01-09,秋葉株式会社,,株式会社,宮城県,伊具郡丸森町,大内字丑ノ町１６番地１,,04,341,9812501,,,2024-01-09,清算の結了等,,,2015-10-05,1,,,,,,0
1540,5380002010632,登記記録の閉鎖等,0,2024-01-11,2024-01-05,有限会社中央化研,,有限会社,福島県,郡山市,片平町字堺６番地１,,07,203,9630211,,,2024-01-05,清算の結了等,,,2015-10-05,1,,,,,チュウオウカケン,0
1543,5410002008516,登記記録の閉鎖等,0,2024-01-11,2023-12-27,有限会社サンウッド二井,,有限会社,秋田県,大館市,釈迦内字街道上２２番地３,00086737,05,204,0170012,,,2023-12-27,合併による解散等,6410002008795,令和５年１２月２７日秋田県大館市花岡町字神山７７番地二井建設株式会社（6410002008795）に合併し解散,2015-10-05,1,,,,,,0
1556,5470002010664,登記記録の閉鎖等,0,2024-01-11,2024-01-04,有限会社滝川企画,,有限会社,香川県,木田郡三木町,大字池戸３４８２番地４,,37,341,7610701,,,2024-01-04,合併による解散等,4470001006945,令和６年１月１日香川県木田郡三木町大字井上３４１２番地滝川印刷株式会社（4470001006945）に合併し解散,2015-10-05,1,,,,,タキガワキカク,0
1559,5480003001562,登記記録の閉鎖等,0,2024-01-11,2023-12-28,合同会社ナルトカーボ,,合同会社,徳島県,板野郡北島町,鯛浜字大西１０７番地１ウエストハイツ１０６号,,36,402,7710204,,,2023-12-28,清算の結了等,,,2020-10-07,1,,,,,ナルトカーボ,0
1561,5500001018028,登記記録の閉鎖等,0,2024-01-11,2024-01-09,株式会社貴,,株式会社,愛媛県,西条市,大町１２４２－１１,,38,206,7930030,,,2024-01-09,清算の結了等,,,2015-10-05,1,,,,,,0
1567,6010001094126,登記記録の閉鎖等,0,2024-01-11,2024-01-09,ストラクス株式会社,,株式会社,東京都,千代田区,岩本町３丁目５番５号,,13,101,1010032,,,2024-01-09,合併による解散等,4090001007890,令和６年１月１日山梨県大月市富浜町鳥沢７０８４番地ストラクス株式会社（4090001007890）に合併し解散,2015-10-05,1,,,,,ストラクス,0
1579,6010401005145,登記記録の閉鎖等,0,2024-01-11,2023-12-26,エバントインターナショナル株式会社,,株式会社,東京都,港区,西麻布２丁目２４番２６－４０３号,,13,103,1060031,,,2023-12-26,清算の結了等,,,2015-10-05,1,,,,,エバントインターナショナル,0
1581,6010401148745,登記記録の閉鎖等,0,2024-01-11,2024-01-04,エアトラスト株式会社,,株式会社,東京都,江東区,豊洲１丁目１番１号,,13,108,1350061,,,2024-01-04,清算の結了等,,,2019-10-18,1,,,,,エアトラスト,0
1592,6010405018325,登記記録の閉鎖等,0,2024-01-11,2023-12-26,六甲レジデンス特定目的会社,,その他の設立登記法人,東京都,港区,愛宕２丁目５番１号,,13,103,1050002,,,2023-12-26,清算の結了等,,,2019-12-11,1,,,,,ロッコウレジデンス,0
1599,6010701042284,登記記録の閉鎖等,0,2024-01-11,2023-12-26,ＭＩＲＡＩ　ＨＯＬＤＩＮＧＳ株式会社,,株式会社,東京都,品川区,東五反田５丁目２２番３３号,,13,109,1410022,,,2023-12-26,清算の結了等,,,2022-02-28,1,,,,,ミライホールディングス,0
1612,6011101040449,登記記録の閉鎖等,0,2024-01-11,2024-01-04,アプリハウス株式会社,,株式会社,東京都,新宿区,西新宿６丁目５番１号,,13,104,1600023,,,2024-01-04,合併による解散等,7011101011259,令和６年１月１日東京都新宿区西新宿六丁目５番１号株式会社ゼネテック（7011101011259）に合併し解散,2015-10-05,1,,,,,アプリハウス,0
1620,6011401004517,登記記録の閉鎖等,0,2024-01-11,2024-01-09,株式会社東配,,株式会社,東京都,板橋区,前野町１丁目２９番１０号,,13,119,1740063,,,2024-01-09,合併による解散等,8010001002144,令和５年１２月３１日東京都文京区白山二丁目１２番３号共同製本株式会社（8010001002144）に合併し解散,2015-10-05,1,,,,,トウハイ,0
1628,6011801025286,登記記録の閉鎖等,0,2024-01-11,2024-01-04,株式会社エネ管システムズ,,株式会社,東京都,足立区,千住１丁目４番１号,,13,121,1200034,,,2024-01-04,清算の結了等,,,2015-10-05,1,,,,,エネカンシステムズ,0
1632,6012401017153,登記記録の閉鎖等,0,2024-01-11,2024-01-05,株式会社ヒトスギ,,株式会社,東京都,三鷹市,上連雀１丁目２５番２１－２０２号,,13,204,1810012,,,2024-01-05,清算の結了等,,,2015-10-05,1,,,,,ヒトスギ,0
1637,6013301039956,登記記録の閉鎖等,0,2024-01-11,2023-12-27,株式会社Ｍｏｂｉｌｅ　Ｓｔｙｌｅ,,株式会社,東京都,豊島区,西池袋１丁目４番１０号,,13,116,1710021,,,2023-12-27,清算の結了等,,,2017-01-20,1,,,,,モバイルスタイル,0
1649,6021001066584,登記記録の閉鎖等,0,2024-01-11,2024-01-04,株式会社パームス,,株式会社,東京都,千代田区,内神田２丁目１５番４号司ビルディング７階,,13,101,1010047,,,2024-01-04,合併による解散等,5010001188812,令和５年１２月３０日東京都千代田区内神田二丁目１５番４号司ビルディング７階ファンネルアド株式会社（5010001188812）に合併し解散,2019-02-06,1,,,,,パームス,0
1656,6030001119970,登記記録の閉鎖等,0,2024-01-11,2023-12-27,龍輝商事株式会社,,株式会社,埼玉県,さいたま市南区,文蔵５丁目２２番８－３０７号,,11,108,3360025,,,2023-12-27,清算の結了等,,,2017-04-27,1,,,,,リュウキショウジ,0
1662,6030002035416,登記記録の閉鎖等,0,2024-01-11,2023-12-26,有限会社スガ電子,,有限会社,埼玉県,入間市,大字新光２７８番地８,,11,225,3580055,,,2023-12-26,清算の結了等,,,2015-10-05,1,,,,,スガデンシ,0
1663,6030002074711,登記記録の閉鎖等,0,2024-01-11,2023-12-27,有限会社樋口畜産,00017104,有限会社,埼玉県,川越市,松江町２丁目２番地１（メゾン松江１１３号室）,,11,201,3500056,,,2023-12-27,清算の結了等,,,2015-10-05,1,,,,,ヒグチチクサン,0
1679,6060001035348,登記記録の閉鎖等,0,2024-01-11,2024-01-05,ＭＨ株式会社,,株式会社,栃木県,那須塩原市,永田町１４番２２号,,09,213,3292727,,,2024-01-05,合併による解散等,8060001012097,令和６年１月１日栃木県那須塩原市永田町１４番２２号株式会社山木屋（8060001012097）に合併し解散,2022-10-12,1,,,,,エムエイチ,0
1680,6060003001645,登記記録の閉鎖等,0,2024-01-11,2023-12-27,ウィンウィンウィン合同会社,,合同会社,栃木県,宇都宮市,今宮１丁目３番１１号,,09,201,3210166,,,2023-12-27,清算の結了等,,,2015-10-05,1,,,,,ウィンウィンウィン,0
1691,6080001015884,登記記録の閉鎖等,0,2024-01-11,2024-01-09,株式会社プライムケア,,株式会社,静岡県,静岡市駿河区,南町１４番２５号エスパティオ４０５号,,22,102,4228067,,,2024-01-09,清算の結了等,,,2015-10-05,1,,,,,プライムケア,0
1694,6080102017607,登記記録の閉鎖等,0,2024-01-11,2024-01-05,有限会社加藤養鶏場,,有限会社,静岡県,富士宮市,人穴６４０番地の２,,22,207,4180102,,,2024-01-05,清算の結了等,,,2015-10-05,1,,,,,カトウヨウケイジョウ,0
1739,6130001068704,登記記録の閉鎖等,0,2024-01-11,2024-01-04,ｉｄｅａｌ株式会社,,株式会社,京都府,京都市北区,小山西玄以町１番地４,,26,101,6038105,,,2024-01-04,合併による解散等,3130001064136,令和６年１月１日京都市北区小山西玄以町１－４株式会社Ｐａｄｇ（3130001064136）に合併し解散,2021-02-26,1,,,,,アイデアル,0
1741,6130002019474,登記記録の閉鎖等,0,2024-01-11,2023-12-26,有限会社ミュージックキャブ,,有限会社,京都府,京都市左京区,吉田上阿達町２１番地の１０,,26,103,6068307,,,2023-12-26,清算の結了等,,,2015-10-05,1,,,,,ミュージックキャブ,0
1750,6140003013269,登記記録の閉鎖等,0,2024-01-11,2024-01-09,合同会社ｋａｙａｋ,,合同会社,兵庫県,明石市,松の内１丁目９番１５号ライオンズマンション西明石第５－１０１号室,,28,203,6730016,,,2024-01-09,清算の結了等,,,2018-09-03,1,,,,,,0
1759,6180001037200,登記記録の閉鎖等,0,2024-01-11,2024-01-04,住吉不動産株式会社,,株式会社,愛知県,名古屋市中区,栄３丁目１０番１６号,,23,106,4600008,,,2024-01-04,合併による解散等,9180001158951,令和５年１２月３１日名古屋市天白区中平四丁目２０１番地住吉不動産ＲＥ株式会社（9180001158951）に合併し解散,2015-10-05,1,,,,,スミヨシフドウサン,0
1780,6270001003168,登記記録の閉鎖等,0,2024-01-11,2024-01-05,株式会社大寺屋船越,,株式会社,鳥取県,米子市,紺屋町１２番地,,31,202,6830062,,,2024-01-05,清算の結了等,,,2015-10-05,1,,,,,オオテラヤフナコシ,0
1783,6280002000452,登記記録の閉鎖等,0,2024-01-11,2024-01-10,有限会社大野鉄工所,,有限会社,島根県,松江市,八幡町９６０番地８７,,32,201,6900025,,,2024-01-10,登記官による閉鎖,,,2015-10-05,1,,,,,,0
1784,6280002001310,登記記録の閉鎖等,0,2024-01-11,2024-01-10,有限会社ダイシン産業,,有限会社,島根県,松江市,坂本町３５３番地５,,32,201,6900813,,,2024-01-10,登記官による閉鎖,,,2015-10-05,1,,,,,,0
1785,6280002004247,登記記録の閉鎖等,0,2024-01-11,2024-01-10,平成エンタテイメント有限会社,,有限会社,島根県,松江市,朝日町４８４番地４,,32,201,6900003,,,2024-01-10,登記官による閉鎖,,,2015-10-05,1,,,,,,0
1786,6280002009452,登記記録の閉鎖等,0,2024-01-11,2024-01-10,有限会社島根ライスセンター,,有限会社,島根県,浜田市,原井町３０５０番地１,,32,202,6970017,,,2024-01-10,登記官による閉鎖,,,2015-10-05,1,,,,,,0
1789,6280005005143,登記記録の閉鎖等,0,2024-01-11,2024-01-10,協同組合しまねライズ,,その他の設立登記法人,島根県,益田市,安富町１１３６番地,,32,204,6995131,,,2024-01-10,登記官による閉鎖,,,2015-10-05,1,,,,,,0
1790,6290001040465,登記記録の閉鎖等,0,2024-01-11,2023-12-28,株式会社インテリアキタザト,,株式会社,福岡県,大野城市,雑餉隈町５丁目４番１０号,,40,219,8160923,,,2023-12-28,清算の結了等,,,2015-10-05,1,,,,,,0
1816,6390002002652,登記記録の閉鎖等,0,2024-01-11,2024-01-05,有限会社美咲,,有限会社,山形県,山形市,吉原３丁目６番２９号,,06,201,9902451,,,2024-01-05,清算の結了等,,,2015-10-05,1,,,,,ミサキ,0
1836,6470001010326,登記記録の閉鎖等,0,2024-01-11,2024-01-09,株式会社田井タップ製作所,,株式会社,香川県,三豊市,豊中町本山甲１１４６番地２,,37,208,7691506,,,2024-01-09,清算の結了等,,,2015-10-05,1,,,,,タイタップセイサクショ,0
1841,7010001136323,登記記録の閉鎖等,0,2024-01-11,2023-12-27,株式会社未来会計研究所,,株式会社,東京都,立川市,富士見町６丁目４３番５号ランドシティ立川多摩川テラスガーデンコート２０４,,13,202,1900013,,,2023-12-27,清算の結了等,,,2015-10-05,1,,,,,ミライカイケイケンキュウジョ,0
1855,7010005029671,登記記録の閉鎖等,0,2024-01-11,2023-12-28,一般社団法人森本勇振興基金,,その他の設立登記法人,東京都,千代田区,丸の内３丁目３番１号新東京ビル６階６３４区,,13,101,1000005,,,2023-12-28,清算の結了等,,,2019-01-31,1,,,,,モリモトイサムシンコウキキン,0
1866,7010403025693,登記記録の閉鎖等,0,2024-01-11,2023-12-26,Ｗｉｌｉｏｔ　Ｊａｐａｎ合同会社,,合同会社,東京都,港区,元麻布３丁目１番６号,,13,103,1060046,,,2023-12-26,清算の結了等,,,2021-07-12,1,,,,,ウィリオットジャパン,0
1869,7010603008614,登記記録の閉鎖等,0,2024-01-11,2024-01-04,合同会社キュリオス,,合同会社,東京都,江東区,東陽２丁目３番１６－６０７号,,13,108,1350016,,,2024-01-04,清算の結了等,,,2020-11-17,1,,,,,キュリオス,0
1875,7010801000851,登記記録の閉鎖等,0,2024-01-11,2024-01-04,株式会社石,,株式会社,東京都,大田区,山王１丁目３５番１０号,,13,111,1430023,,,2024-01-04,合併による解散等,8010801000850,令和６年１月１日東京都大田区山王一丁目３５番１０号石株式会社（8010801000850）に合併し解散,2015-10-05,1,,,,,イシ,0
1879,7010901044690,登記記録の閉鎖等,0,2024-01-11,2024-01-05,インフル株式会社,,株式会社,東京都,渋谷区,渋谷２丁目１０番１５号,,13,113,1500002,,,2024-01-05,清算の結了等,,,2019-08-14,1,,,,,インフル,0
1906,7011301008022,登記記録の閉鎖等,0,2024-01-11,2023-12-26,ビーエム・ディーシステム株式会社,,株式会社,東京都,杉並区,浜田山２丁目３番１０号,,13,115,1680065,,,2023-12-26,清算の結了等,,,2015-10-05,1,,,,,ビーエムディーシステム,0
1920,7012802003866,登記記録の閉鎖等,0,2024-01-11,2023-12-27,有限会社メグミ生花店,,有限会社,東京都,昭島市,玉川町１丁目７番２－１０６,,13,207,1960034,,,2023-12-27,清算の結了等,,,2015-10-05,1,,,,,メグミセイカテン,0
1929,7020001030228,登記記録の閉鎖等,0,2024-01-11,2024-01-04,株式会社ワイエスシー,,株式会社,神奈川県,相模原市南区,松が枝町２４番３号,,14,153,2520313,,,2024-01-04,合併による解散等,6021001014808,令和６年１月１日神奈川県相模原市南区松が枝町２４番３株式会社ヴィレッジ（6021001014808）に合併し解散,2015-10-05,1,,,,,ワイエスシー,0
1943,7021001002290,登記記録の閉鎖等,0,2024-01-11,2024-01-04,株式会社山神建設,,株式会社,神奈川県,藤沢市,西富５８７番地,,14,205,2510001,,,2024-01-04,清算の結了等,,,2015-10-05,1,,,,,ヤマガミケンセツ,0
1955,7030001035762,登記記録の閉鎖等,0,2024-01-11,2023-12-28,株式会社リアルサービス,,株式会社,埼玉県,草加市,長栄１丁目８３７番地６,,11,221,3400051,,,2023-12-28,清算の結了等,,,2015-10-05,1,,,,,リアルサービス,0
1962,7030002038277,登記記録の閉鎖等,0,2024-01-11,2023-12-26,有限会社西少女,,有限会社,埼玉県,久喜市,青毛３丁目５番地５,,11,232,3460011,,,2023-12-26,清算の結了等,,,2015-10-05,1,,,,,シャガール,0
1970,7040001015912,登記記録の閉鎖等,0,2024-01-11,2023-12-25,株式会社農み,,株式会社,千葉県,千葉市花見川区,武石町１丁目１６３２番地,,12,102,2620031,,,2023-12-25,清算の結了等,,,2015-10-05,1,,,,,ノウミ,0
1989,7080002015841,登記記録の閉鎖等,0,2024-01-11,2024-01-09,有限会社坂本商事,,有限会社,静岡県,焼津市,田尻北３８０番地の２,,22,212,4250051,,,2024-01-09,清算の結了等,,,2015-10-05,1,,,,,サカモトショウジ,0
1993,7080102016616,登記記録の閉鎖等,0,2024-01-11,2024-01-09,有限会社加賀住,,有限会社,静岡県,富士宮市,下条２３９０番地の５,,22,207,4180114,,,2024-01-09,清算の結了等,,,2015-10-05,1,,,,,カガジュウ,0
1994,7080102017606,登記記録の閉鎖等,0,2024-01-11,2024-01-05,有限会社渡井養鶏場,,有限会社,静岡県,富士宮市,人穴６４０番地の２,,22,207,4180102,,,2024-01-05,清算の結了等,,,2015-10-05,1,,,,,ワタイヨウケイジョウ,0
1995,7080105001887,登記記録の閉鎖等,0,2024-01-11,2024-01-05,医療法人社団みどり会,,その他の設立登記法人,静岡県,伊豆の国市,四日町３７７番地の２,,22,225,4102123,,,2024-01-05,清算の結了等,,,2015-10-05,1,,,,,ミドリカイ,0
2005,7110005003047,登記記録の閉鎖等,0,2024-01-11,2023-12-25,清水フードセンター労働組合,,その他の設立登記法人,新潟県,新潟市中央区,堀之内５５番地１,,15,103,9500981,,,2023-12-25,清算の結了等,,,2015-10-05,1,,,,,シミズフードセンター,0
2010,7120001206552,登記記録の閉鎖等,0,2024-01-11,2024-01-09,株式会社フライングブイ,,株式会社,大阪府,大阪市西淀川区,御幣島１丁目１６番１３号,,27,113,5550012,,,2024-01-09,清算の結了等,,,2017-06-26,1,,,,,フライングブイ,0
2012,7120001249056,登記記録の閉鎖等,0,2024-01-11,2024-01-09,日正株式会社,,株式会社,大阪府,大阪市淀川区,東三国２丁目１８番３０号１０５,,27,123,5320002,,,2024-01-09,清算の結了等,,,2022-09-28,1,,,,,ニチセイ,0
2019,7120003024408,登記記録の閉鎖等,0,2024-01-11,2023-12-28,合同会社ティーアイイーシステム,,合同会社,大阪府,大阪市北区,梅田１丁目１‐３大阪駅前第３ビル２９階１‐１‐１号室,,27,127,5300001,,,2023-12-28,清算の結了等,,,2023-06-30,1,,,,,ティーアイイーシステム,0
2020,7120101048242,登記記録の閉鎖等,0,2024-01-11,2024-01-09,株式会社わいわい,,株式会社,大阪府,堺市堺区,海山町１丁３１番１０号,,27,141,5900982,,,2024-01-09,清算の結了等,,,2015-10-05,1,,,,,ワイワイ,0
2035,7140003018110,登記記録の閉鎖等,0,2024-01-11,2024-01-09,合同会社ＮＧＵＹＥＮ　ＴＡＩ,,合同会社,兵庫県,神戸市北区,鈴蘭台西町１丁目２０番８－２０１号,,28,109,6511114,,,2024-01-09,清算の結了等,,,2022-09-12,1,,,,,グェンタイ,0
2043,7180001019024,登記記録の閉鎖等,0,2024-01-11,2024-01-04,エスケー工販株式会社,,株式会社,愛知県,名古屋市中川区,四女子町３丁目６番地の２,,23,110,4540822,,,2024-01-04,合併による解散等,8180001019023,令和５年１２月３１日名古屋市中川区四女子町三丁目６番地２エスケー工業株式会社（8180001019023）に合併し解散,2015-10-05,1,,,,,エスケーコウハン,0
2046,7180001039022,登記記録の閉鎖等,0,2024-01-11,2023-12-28,名古屋パレスＨＤ株式会社,,株式会社,愛知県,名古屋市昭和区,広路町字南山７７番地２,,23,107,4660834,,,2023-12-28,合併による解散等,1180001039218,令和５年１２月１８日名古屋市昭和区広路町字南山７７番地２株式会社南山（1180001039218）に合併し解散,2015-10-05,1,,,,,ナゴヤパレスホールディングス,0
2050,7180001146330,登記記録の閉鎖等,0,2024-01-11,2023-12-27,株式会社ＵＮＤＡ,,株式会社,東京都,港区,浜松町２丁目２番１５号浜松町ダイヤビル２Ｆ,,13,103,1050013,,,2023-12-27,清算の結了等,,,2021-06-03,1,,,,,ユーエヌディーエー,0
2067,7190001023891,登記記録の閉鎖等,0,2024-01-11,2023-12-28,株式会社ＳＴＥＰ,,株式会社,三重県,四日市市,楠町本郷１４６２番地２０,,24,202,5100106,,,2023-12-28,清算の結了等,,,2016-08-03,1,,,,,ステップ,0
2069,7200002020671,登記記録の閉鎖等,0,2024-01-11,2024-01-09,有限会社増高,00077041,有限会社,岐阜県,多治見市,宝町１２丁目２１番地,,21,204,5070054,,,2024-01-09,清算の結了等,,,2015-10-05,1,,,,,マスタカ,0
2083,7280001005922,登記記録の閉鎖等,0,2024-01-11,2024-01-10,株式会社ネクストウォーカー,,株式会社,島根県,松江市,国屋町４０９番地８プチメゾンＫＵＹＡ２０１号,,32,201,6900859,,,2024-01-10,登記官による閉鎖,,,2015-10-05,1,,,,,,0
2085,7280002009468,登記記録の閉鎖等,0,2024-01-11,2024-01-10,有限会社漆谷木材,,有限会社,島根県,江津市,後地町２４８６番地,,32,207,6992841,,,2024-01-10,登記官による閉鎖,,,2015-10-05,1,,,,,,0
2086,7280003000657,登記記録の閉鎖等,0,2024-01-11,2024-01-10,合同会社なかま,,合同会社,島根県,仁多郡奥出雲町,横田１１８９番地,,32,343,6991832,,,2024-01-10,登記官による閉鎖,,,2015-10-05,1,,,,,,0
2088,7280005002610,登記記録の閉鎖等,0,2024-01-11,2024-01-10,財団法人鷺浦八千代会,,その他の設立登記法人,島根県,出雲市,大社町鷺浦１２１番地,,32,203,6990761,,,2024-01-10,登記官による閉鎖,,,2015-10-05,1,,,,,,0
2118,7370002020275,登記記録の閉鎖等,0,2024-01-11,2024-01-09,有限会社早坂酒造店,,有限会社,宮城県,黒川郡大和町,吉岡字下町５番地,,04,421,9813621,,,2024-01-09,清算の結了等,,,2015-10-05,1,,,,,ハヤサカシュゾウテン,0
2122,7390002001364,登記記録の閉鎖等,0,2024-01-11,2024-01-10,有限会社蛇子商事,,有限会社,山形県,山形市,大字長谷堂４５１８番地の３,,06,201,9902363,,,2024-01-10,清算の結了等,,,2015-10-05,1,,,,,ジャコショウジ,0
2170,8010001226362,登記記録の閉鎖等,0,2024-01-11,2023-12-28,株式会社のら猫バンク,,株式会社,東京都,千代田区,神田錦町３丁目４番地２,,13,101,1010054,,,2023-12-28,清算の結了等,,,2022-05-06,1,,,,,ノラネコバンク,0
2174,8010003017768,登記記録の閉鎖等,0,2024-01-11,2023-12-28,合同会社ＣＳターゲット,,合同会社,東京都,千代田区,内幸町１丁目３番３号内幸町ダイビル,,13,101,1000011,,,2023-12-28,清算の結了等,,,2015-10-05,1,,,,,シーエスターゲット,0
2188,8010401132136,登記記録の閉鎖等,0,2024-01-11,2023-12-26,株式会社ディースクエア,,株式会社,東京都,港区,赤坂２丁目１６－６－１Ｆ,,13,103,1070052,,,2023-12-26,清算の結了等,,,2017-06-22,1,,,,,ディースクエア,0
2201,8010701005941,登記記録の閉鎖等,0,2024-01-11,2024-01-04,株式会社タプロデザイン,,株式会社,東京都,品川区,上大崎３丁目５番３号朝日目黒ビジネスマンション４０３,,13,109,1410021,,,2024-01-04,清算の結了等,,,2015-10-05,1,,,,,タプロデザイン,0
2212,8011001118905,登記記録の閉鎖等,0,2024-01-11,2024-01-04,株式会社Ｎｅｏｌｉｖｅ　ｋ３,,株式会社,東京都,渋谷区,東１丁目２６番３０号,,13,113,1500011,,,2024-01-04,合併による解散等,7020001089116,令和６年１月１日東京都渋谷区東一丁目２６番３０号株式会社Ｎｅｏｌｉｖｅホールディングス（7020001089116）に合併し解散,2017-10-20,1,,,,,ネオリーブケースリー,0
2243,8013102000859,登記記録の閉鎖等,0,2024-01-11,2024-01-09,有限会社弥栄工業,,有限会社,東京都,福生市,本町２番地,,13,218,1970022,,,2024-01-09,清算の結了等,,,2015-10-05,1,,,,,,0
2244,8013103001170,登記記録の閉鎖等,0,2024-01-11,2024-01-04,合同会社イロハ,,合同会社,東京都,青梅市,今寺１丁目７６７番地の１８,,13,205,1980021,,,2024-01-04,清算の結了等,,,2022-09-28,1,,,,,イロハ,0
2271,8030001119762,登記記録の閉鎖等,0,2024-01-11,2023-12-27,黒沼電気株式会社,,株式会社,埼玉県,久喜市,除堀６７４番地６,,11,232,3460027,,,2023-12-27,清算の結了等,,,2017-04-18,1,,,,,クロヌマデンキ,0
2277,8030002038383,登記記録の閉鎖等,0,2024-01-11,2023-12-27,有限会社丸林縫製,,有限会社,埼玉県,久喜市,青毛３丁目２番地４,,11,232,3460011,,,2023-12-27,清算の結了等,,,2015-10-05,1,,,,,マルヤマホウセイ,0
2280,8030002044596,登記記録の閉鎖等,0,2024-01-11,2023-12-28,有限会社ストロベリーフィールズ,,有限会社,埼玉県,草加市,瀬崎６丁目１番８号,,11,221,3400022,,,2023-12-28,清算の結了等,,,2015-10-05,1,,,,,ストロベリーフィールズ,0
2281,8030002104763,登記記録の閉鎖等,0,2024-01-11,2023-12-27,有限会社太刀川製作所,,有限会社,埼玉県,川口市,東本郷１丁目６番１６号,,11,203,3340063,,,2023-12-27,清算の結了等,,,2015-10-05,1,,,,,,0
2291,8050001050817,登記記録の閉鎖等,0,2024-01-11,2023-12-27,株式会社ネクサス,,株式会社,茨城県,ひたちなか市,大字足崎２８０番地の１,,08,221,3120003,,,2023-12-27,清算の結了等,,,2022-03-23,1,,,,,ネクサス,0
2304,8070005002721,登記記録の閉鎖等,0,2024-01-11,2024-01-04,特定非営利活動法人エンパワメントぐんま,,その他の設立登記法人,群馬県,前橋市,亀泉町５２番地４,,10,201,3710004,,,2024-01-04,清算の結了等,,,2015-10-05,1,,,,,エンパワメントグンマ,0
2330,8120001082159,登記記録の閉鎖等,0,2024-01-11,2024-01-05,千鳥屋総本家株式会社,,株式会社,大阪府,大阪市中央区,本町３丁目４番１２号,,27,128,5410053,,,2024-01-05,合併による解散等,3140001055101,令和５年１２月１１日兵庫県尼崎市塚口町三丁目２６番地の４株式会社千鳥屋宗家（3140001055101）に合併し解散,2015-10-05,1,,,,,チドリヤソウホンケ,0
2354,8130001023046,登記記録の閉鎖等,0,2024-01-11,2024-01-09,株式会社夢小路,,株式会社,京都府,京都市中京区,壬生相合町６４番地１５,,26,104,6048812,,,2024-01-09,清算の結了等,,,2015-10-05,1,,,,,,0
2363,8140001078592,登記記録の閉鎖等,0,2024-01-11,2024-01-09,株式会社辰巳植広園,,株式会社,兵庫県,伊丹市,荻野１丁目１７５番地の２,,28,207,6640002,,,2024-01-09,清算の結了等,,,2015-10-05,1,,,,,,0
2368,8170001012400,登記記録の閉鎖等,0,2024-01-11,2024-01-05,株式会社アコモファーム紀州,,株式会社,和歌山県,有田市,千田７０－１,,30,204,6490313,,,2024-01-05,合併による解散等,4170001007370,令和５年１２月３１日和歌山県有田市初島町浜１０００番地株式会社ＴＯＡ（4170001007370）に合併し解散,2015-10-05,1,,,,,アコモファームキシュウ,0
2373,8180001051661,登記記録の閉鎖等,0,2024-01-11,2024-01-04,株式会社弘翠,,株式会社,愛知県,名古屋市昭和区,花見通１丁目５番地の１０,,23,107,4660831,,,2024-01-04,合併による解散等,5180001008986,令和６年１月１日名古屋市昭和区花見通一丁目５番地の１０名古屋建工株式会社（5180001008986）に合併し解散,2015-10-05,1,,,,,コウスイ,0
2377,8180001139820,登記記録の閉鎖等,0,2024-01-11,2024-01-04,株式会社ｍａｄｂｅａｕ,,株式会社,愛知県,名古屋市中区,栄１丁目１２番３５号,,23,106,4600008,,,2024-01-04,合併による解散等,1180303004084,令和５年１２月２９日愛知県大府市江端町三丁目１６９番地の２ＷＯＬ合同会社（1180303004084）に合併し解散,2020-01-28,1,,,,,マッドボー,0
2379,8180001147195,登記記録の閉鎖等,0,2024-01-11,2024-01-04,株式会社Ｒｏｂｅｒｕ　Ａｕｔｏ,,株式会社,愛知県,瀬戸市,三沢町１丁目３５６番地,,23,204,4890006,,,2024-01-04,清算の結了等,,,2021-08-02,1,,,,,ロベルオート,0
2381,8180002018494,登記記録の閉鎖等,0,2024-01-11,2024-01-04,有限会社大和建工,,有限会社,愛知県,名古屋市中川区,十番町３丁目２６７番地,,23,110,4540055,,,2024-01-04,清算の結了等,,,2015-10-05,1,,,,,ダイワケンコウ,0
2382,8180002030276,登記記録の閉鎖等,0,2024-01-11,2024-01-04,有限会社オフィスオオモリ,,有限会社,愛知県,名古屋市中区,錦２丁目８番２２号,,23,106,4600003,,,2024-01-04,合併による解散等,2180001152564,令和６年１月１日名古屋市西区菊井二丁目７番８号株式会社ブライトアイ（2180001152564）に合併し解散,2015-10-05,1,,,,,オフィスオオモリ,0
2389,8180302019647,登記記録の閉鎖等,0,2024-01-11,2023-12-28,有限会社プルーン内田,,有限会社,愛知県,知立市,上重原町鍛治荒井４５番地５,,23,225,4720026,,,2023-12-28,清算の結了等,,,2015-10-05,1,,,,,プルーンウチダ,0
2397,8200005004522,登記記録の閉鎖等,0,2024-01-11,2024-01-10,興福寺南円堂別院,,その他の設立登記法人,岐阜県,大垣市,桐ケ崎町９６番地,,21,202,5030904,,,2024-01-10,清算の結了等,,,2015-10-05,1,,,,,コウフクジナンエンドウベツイン,0
2402,8220003002253,登記記録の閉鎖等,0,2024-01-11,2023-12-26,合同会社ＰＭＰ,,合同会社,東京都,港区,浜松町２丁目２番１５号浜松町ダイヤビル２Ｆ,,13,103,1050013,,,2023-12-26,清算の結了等,,,2017-03-08,1,,,,,ピーエムピー,0
2406,8250001007144,登記記録の閉鎖等,0,2024-01-11,2024-01-04,株式会社イーストパーク,,株式会社,山口県,下関市,赤間町１番１６号,,35,201,7500007,,,2024-01-04,合併による解散等,6250001013144,令和６年１月１日山口県下関市赤間町１番１６号株式会社湖月（6250001013144）に合併し解散,2015-10-05,1,,,,,イーストパーク,0
2408,8250002017506,登記記録の閉鎖等,0,2024-01-11,2024-01-09,株式会社活鮮ストアー,,株式会社,島根県,鹿足郡吉賀町,六日市４２６番地１,,32,505,6995513,,,2024-01-09,清算の結了等,,,2015-10-05,1,,,,,カッセンストアー,0
2412,8280002002232,登記記録の閉鎖等,0,2024-01-11,2024-01-10,有限会社マルシン製パン所,,有限会社,島根県,松江市,雑賀町９６番地,,32,201,6900056,,,2024-01-10,登記官による閉鎖,,,2015-10-05,1,,,,,,0
2413,8280002006043,登記記録の閉鎖等,0,2024-01-11,2024-01-10,有限会社皆美自動車ボデー,,有限会社,島根県,出雲市,武志町２５３番地,,32,203,6930014,,,2024-01-10,登記官による閉鎖,,,2015-10-05,1,,,,,,0
2414,8280005005050,登記記録の閉鎖等,0,2024-01-11,2024-01-10,財団法人益田霊苑,,その他の設立登記法人,島根県,益田市,乙子町１０３８番地１,,32,204,6993675,,,2024-01-10,登記官による閉鎖,,,2015-10-05,1,,,,,,0
2427,8290002050949,登記記録の閉鎖等,0,2024-01-11,2024-01-04,有限会社益村商店,,有限会社,福岡県,久留米市,荒木町藤田１３０６番地の３,,40,203,8300064,,,2024-01-04,清算の結了等,,,2015-10-05,1,,,,,マスムラショウテン,0
2433,8320001001338,登記記録の閉鎖等,0,2024-01-11,2024-01-09,青崎工業株式会社,,株式会社,大分県,大分市,青崎１丁目１２番１８号,,44,201,8700278,,,2024-01-09,清算の結了等,,,2015-10-05,1,,,,,アオサキコウギョウ,0
2456,8380003001149,登記記録の閉鎖等,0,2024-01-11,2024-01-04,合資会社タナベ,,合資会社,福島県,いわき市,内郷綴町金谷１番地の８,,07,204,9738403,,,2024-01-04,合併による解散等,6380001022280,令和６年１月１日福島県いわき市平字童子町３番地の１９株式会社田村（6380001022280）に合併し解散,2015-10-05,1,,,,,タナベ,0
2482,9010001015153,登記記録の閉鎖等,0,2024-01-11,2024-01-04,クラフト本社株式会社,,株式会社,東京都,千代田区,丸の内１丁目１番１号,,13,101,1000005,,,2024-01-04,合併による解散等,8010001129202,令和６年１月１日東京都千代田区丸の内一丁目１番１号クラフト株式会社（8010001129202）に合併し解散,2015-10-05,1,,,,,クラフトホンシャ,0
2492,9010401056383,登記記録の閉鎖等,0,2024-01-11,2023-12-28,クレアホーム株式会社,,株式会社,東京都,千代田区,神田錦町３丁目４番地２,,13,101,1010054,,,2023-12-28,清算の結了等,,,2015-10-05,1,,,,,クレアホーム,0
2495,9010401120817,登記記録の閉鎖等,0,2024-01-11,2024-01-04,株式会社河合秀仁事務所,,株式会社,東京都,品川区,上大崎２丁目１０番１１号アビティ目黒８０６号室,,13,109,1410021,,,2024-01-04,清算の結了等,,,2015-10-05,1,,,,,カワイヒデヒトジムショ,0
2498,9010401170127,登記記録の閉鎖等,0,2024-01-11,2023-12-26,株式会社アルファアシスト,,株式会社,東京都,港区,南麻布３丁目２０番１号Ｄａｉｗａ麻布テラス５Ｆ,,13,103,1060047,,,2023-12-26,清算の結了等,,,2022-10-07,1,,,,,アルファアシスト,0
2500,9010402026105,登記記録の閉鎖等,0,2024-01-11,2023-12-27,有限会社羽富商会,,有限会社,東京都,港区,芝大門２丁目７番１０号,,13,103,1050012,,,2023-12-27,清算の結了等,,,2015-10-05,1,,,,,ハトミショウカイ,0
2502,9010403012005,登記記録の閉鎖等,0,2024-01-11,2023-12-27,Ｓｕｉｍｅｉ　Ｍｅｇａ　Ｓｏｌａｒ　Ｐａｒｋ合同会社,,合同会社,東京都,港区,六本木６丁目１０番１号六本木ヒルズ森タワー３７階,,13,103,1060032,,,2023-12-27,清算の結了等,,,2015-10-05,1,,,,,スイメイメガソーラーパーク,0
2509,9010405013216,登記記録の閉鎖等,0,2024-01-11,2023-12-26,一般社団法人ＡＫＪターンアラウンドマネジメント,,その他の設立登記法人,東京都,港区,愛宕２丁目５番１号愛宕グリーンヒルズＭＯＲＩタワー３７階,,13,103,1050002,,,2023-12-26,清算の結了等,,,2015-10-05,1,,,,,エイケイジェイターンアラウンドマネジメント,0
2554,9013301037841,登記記録の閉鎖等,0,2024-01-11,2024-01-04,ラインダール株式会社,,株式会社,東京都,豊島区,西池袋３丁目７番６号,,13,116,1710021,,,2024-01-04,合併による解散等,8013301038171,令和６年１月１日東京都豊島区西池袋三丁目７番６号ロンバート株式会社（8013301038171）に合併し解散,2015-10-27,1,,,,,ラインダール,0
2563,9020001134836,登記記録の閉鎖等,0,2024-01-11,2024-01-04,株式会社ＶＲ住宅公園,,株式会社,神奈川県,川崎市多摩区,布田３２番４０号,,14,135,2140011,,,2024-01-04,合併による解散等,4020001064666,令和６年１月１日川崎市多摩区登戸５８３番地２ビルドエフ株式会社（4020001064666）に合併し解散,2020-02-06,1,,,,,ブイアールジュウタクコウエン,0
2567,9021001038184,登記記録の閉鎖等,0,2024-01-11,2024-01-05,大江工業株式会社,,株式会社,神奈川県,平塚市,四之宮７丁目３番１号,,14,203,2540014,,,2024-01-05,合併による解散等,5021001048360,令和５年１２月３１日神奈川県鎌倉市岩瀬一丁目２０番２５号株式会社東邦ホールディングス（5021001048360）に合併し解散,2015-10-05,1,,,,,オオエコウギョウ,0
2574,9030001049579,登記記録の閉鎖等,0,2024-01-11,2023-12-28,株式会社シーエスカンパニー,,株式会社,埼玉県,所沢市,東所沢２丁目４１番地２０,,11,208,3590021,,,2023-12-28,清算の結了等,,,2015-10-05,1,,,,,シーエスカンパニー,0
2576,9030001066772,登記記録の閉鎖等,0,2024-01-11,2023-12-28,株式会社ＲＩＺＥ　ＡＤＶＡＮＣＥ,,株式会社,埼玉県,越谷市,蒲生東町４番４１号,,11,222,3430841,,,2023-12-28,清算の結了等,,,2015-10-05,1,,,,,ライズアドバンス,0
2584,9030002006802,登記記録の閉鎖等,0,2024-01-11,2023-12-28,有限会社ジエイ・ケイ,,有限会社,埼玉県,さいたま市大宮区,吉敷町２丁目９９番地１,,11,103,3300843,,,2023-12-28,清算の結了等,,,2015-10-05,1,,,,,ジエイケイ,0
2592,9040001076325,登記記録の閉鎖等,0,2024-01-11,2023-12-25,城間興業株式会社,,株式会社,千葉県,市川市,柏井町１丁目２２０４番地,,12,203,2720802,,,2023-12-25,清算の結了等,,,2015-10-05,1,,,,,シロマコウギョウ,0
2611,9050003002402,登記記録の閉鎖等,0,2024-01-11,2024-01-04,ａｃｃｏｍｐａｎｙ合同会社,,合同会社,茨城県,水戸市,平須町１５８番地の８,,08,201,3100853,,,2024-01-04,清算の結了等,,,2015-10-05,1,,,,,アカンパニー,0
2618,9060003004604,登記記録の閉鎖等,0,2024-01-11,2023-12-19,ＳＵＮＣＴＵＳ　ＡＲＣＨ　ＢＲＥＷＩＮＧ合同会社,,合同会社,栃木県,日光市,稲荷町３丁目３２５番地,,09,206,3211411,,,2023-12-19,清算の結了等,,,2023-06-13,1,,,,,サンクタスアーチブルーイング,0
2628,9080102019096,登記記録の閉鎖等,0,2024-01-11,2024-01-10,有限会社むねエンタープライズ,,有限会社,静岡県,伊東市,富戸１３１７番地の５０６２大室高原８－５１３,,22,208,4130231,,,2024-01-10,清算の結了等,,,2015-10-05,1,,,,,ムネエンタープライズ,0
2643,9100001018279,登記記録の閉鎖等,0,2024-01-11,2024-01-04,霧ケ峰沢渡スキーリフト株式会社,,株式会社,長野県,諏訪市,大字四賀７７１８番地１５,,20,206,3920012,,,2024-01-04,清算の結了等,,,2015-10-05,1,,,,,キリガミネサワタリスキーリフト,0
2660,9120102023003,登記記録の閉鎖等,0,2024-01-11,2024-01-10,有限会社チェリーくめだ,,有限会社,大阪府,和泉市,阪本町３７３番地の３,,27,219,5940052,,,2024-01-10,清算の結了等,,,2015-10-05,1,,,,,チェリークメダ,0
2663,9120902018268,登記記録の閉鎖等,0,2024-01-11,2024-01-04,有限会社ケイエムエス,,有限会社,大阪府,豊中市,北緑丘３丁目１番３－２０１号,,27,203,5600001,,,2024-01-04,清算の結了等,,,2015-10-05,1,,,,,ケイエムエス,0
2680,9180001094395,登記記録の閉鎖等,0,2024-01-11,2024-01-04,株式会社テック,,株式会社,愛知県,東海市,大田町天尾崎１０７番地の１,,23,222,4770031,,,2024-01-04,清算の結了等,,,2015-10-05,1,,,,,テック,0
2682,9180001114104,登記記録の閉鎖等,0,2024-01-11,2024-01-04,株式会社ＲＩＶＡ,,株式会社,愛知県,名古屋市名東区,社台３丁目２４５番地５,,23,115,4650092,,,2024-01-04,合併による解散等,9180001101192,令和５年１２月３１日名古屋市名東区社台三丁目２４５番地５ＭＴＹ株式会社（9180001101192）に合併し解散,2015-10-05,1,,,,,リーバ,0
2690,9180302014218,登記記録の閉鎖等,0,2024-01-11,2024-01-09,有限会社豊給食,,有限会社,愛知県,豊川市,若鳩町３番地の１５,,23,207,4420065,,,2024-01-09,清算の結了等,,,2015-10-05,1,,,,,ユタカキュウショク,0
2712,9280002010861,登記記録の閉鎖等,0,2024-01-11,2024-01-10,有限会社大田,,有限会社,島根県,隠岐郡隠岐の島町,中町目貫の三６０番地,,32,528,6850013,,,2024-01-10,登記官による閉鎖,,,2015-10-05,1,,,,,,0
2713,9280002011975,登記記録の閉鎖等,0,2024-01-11,2024-01-10,有限会社佳吉,,有限会社,島根県,雲南市,三刀屋町三刀屋４５番地２,,32,209,6902404,,,2024-01-10,登記官による閉鎖,,,2015-10-05,1,,,,,,0
2714,9280003000647,登記記録の閉鎖等,0,2024-01-11,2024-01-10,はちみつ８３合同会社,,合同会社,島根県,浜田市,治和町ロ４８１番地２,,32,202,6971326,,,2024-01-10,登記官による閉鎖,,,2015-10-05,1,,,,,,0
2715,9280005000125,登記記録の閉鎖等,0,2024-01-11,2024-01-10,社団法人けやきの会,,その他の設立登記法人,島根県,松江市,法吉町１６０－１番地,,32,201,6900861,,,2024-01-10,登記官による閉鎖,,,2015-10-05,1,,,,,,0
2716,9280005004019,登記記録の閉鎖等,0,2024-01-11,2024-01-10,新橋マーケット協同組合,,その他の設立登記法人,島根県,浜田市,新町３１番地１,,32,202,6970037,,,2024-01-10,登記官による閉鎖,,,2015-10-05,1,,,,,,0
2719,9290001071482,登記記録の閉鎖等,0,2024-01-11,2024-01-04,株式会社湖月熊本,,株式会社,山口県,下関市,赤間町１番１６号,,35,201,7500007,,,2024-01-04,合併による解散等,6250001013144,令和６年１月１日山口県下関市赤間町１番１６号株式会社湖月（6250001013144）に合併し解散,2015-10-05,1,,,,,コゲツクマモト,0
2742,9290802020118,登記記録の閉鎖等,0,2024-01-11,2024-01-05,有限会社上野アルミ建材,,有限会社,福岡県,直方市,大字下新入２７３７番地,,40,204,8220032,,,2024-01-05,清算の結了等,,,2015-10-05,1,,,,,ウエノアルミケンザイ,0
2745,9300001004192,登記記録の閉鎖等,0,2024-01-11,2024-01-04,株式会社はんど,,株式会社,佐賀県,佐賀市,兵庫北２丁目２０番４号,,41,201,8490919,,,2024-01-04,合併による解散等,4300001012605,令和５年１２月３１日佐賀市天神一丁目２番地５５株式会社ＩＫホールディングス（4300001012605）に合併し解散,2015-10-05,1,,,,,ハンド,0
2778,9450002000713,登記記録の閉鎖等,0,2024-01-11,2024-01-09,有限会社インデペンデント・ニコー,,有限会社,北海道,旭川市,四条通５丁目１３１６番地の２,,01,204,0700034,,,2024-01-09,清算の結了等,,,2015-10-05,1,,,,,インデペンデントニコー,0
