sequenceNumber,corporateNumber,process,correct,updateDate,changeDate,name,nameImageId,kind,prefectureName,cityName,streetNumber,addressImageId,prefectureCode,cityCode,postCode,addressOutside,addressOutsideImageId,closeDate,closeCause,successorCorporateNumber,changeCause,assignmentDate,latest,enName,enPrefectureName,enCityName,enAddressOutside,furigana,hihyoji
9,1010001229909,新規,0,2022-10-13,2022-10-13,ＤＯＡ株式会社,,株式会社,東京都,中央区,銀座１丁目１２番４号Ｎ＆ＥＢＬＤ．７階,,13,102,1040061,,,,,,,2022-10-13,1,,,,,ディーオーエー,0
10,1010001230073,新規,0,2022-10-13,2022-10-13,エンデバー・ユナイテッド・パートナーズ・２７株式会社,,株式会社,東京都,千代田区,丸の内２丁目５番１号丸の内二丁目ビル６階,,13,101,1000005,,,,,,,2022-10-13,1,,,,,エンデバーユナイテッドパートナーズトゥエンティセブン,0
11,1010001230098,新規,0,2022-10-13,2022-10-13,株式会社煌・星,,株式会社,東京都,中央区,日本橋大伝馬町１２番１０号ＴＳビル１階,,13,102,1030011,,,,,,,2022-10-13,1,,,,,キラボシ,0
12,1010003038853,新規,0,2022-10-13,2022-10-13,八ヶ岳太陽光発電合同会社,,合同会社,東京都,中央区,京橋２丁目２番１号京橋エドグラン,,13,102,1040031,,,,,,,2022-10-13,1,,,,,ヤツガタケタイヨウコウハツデン,0
26,1010501049492,新規,0,2022-10-13,2022-10-13,株式会社エスアイリノベーション,,株式会社,東京都,台東区,駒形２丁目１番５号ＭｏｏｎＰｌａｃｅ４Ｆ,,13,106,1110043,,,,,,,2022-10-13,1,,,,,エスアイリノベーション,0
27,1010601061950,新規,0,2022-10-13,2022-10-13,ＴＲＹ’ｓ株式会社,,株式会社,東京都,墨田区,押上１丁目５１番４号,,13,107,1310045,,,,,,,2022-10-13,1,,,,,ティーアールワイズ,0
33,1010701043329,新規,0,2022-10-13,2022-10-13,株式会社ＶＩＣＴＯＲＹ,,株式会社,東京都,品川区,東五反田３丁目６番１８号高輪台マスターズ３階,,13,109,1410022,,,,,,,2022-10-13,1,,,,,ビクトリー,0
40,1011001150220,新規,0,2022-10-13,2022-10-13,株式会社ＴＹＰＥＳ,,株式会社,東京都,渋谷区,神宮前６丁目２３番４号桑野ビル２階,,13,113,1500001,,,,,,,2022-10-13,1,,,,,タイプス,0
41,1011001150229,新規,0,2022-10-13,2022-10-13,ＢＥＦＦＹ株式会社,,株式会社,東京都,渋谷区,道玄坂１丁目１０番８号渋谷道玄坂東急ビル２Ｆ－Ｃ,,13,113,1500043,,,,,,,2022-10-13,1,,,,,ベフィー,0
42,1011001150294,新規,0,2022-10-13,2022-10-13,株式会社ＮＣＮＬ,,株式会社,東京都,目黒区,中央町２丁目３７番２号,,13,110,1520001,,,,,,,2022-10-13,1,,,,,エヌシーエヌエル,0
45,1011003015495,新規,0,2022-10-13,2022-10-13,ｎｉｃｏｒａ合同会社,,合同会社,東京都,渋谷区,渋谷３丁目１番地９号ＹＡＺＡＷＡビル３階,,13,113,1500002,,,,,,,2022-10-13,1,,,,,ニコラ,0
46,1011003015529,新規,0,2022-10-13,2022-10-13,Ｐ＆Ｍ合同会社,,合同会社,東京都,渋谷区,道玄坂１丁目１０番８号渋谷道玄坂東急ビル２Ｆ－Ｃ,,13,113,1500043,,,,,,,2022-10-13,1,,,,,ピーアンドエム,0
47,1011005009768,新規,0,2022-10-13,2022-10-13,一般社団法人サブコンシャス療法協会,,その他の設立登記法人,東京都,目黒区,中目黒１丁目１番２６－４２０号,,13,110,1530061,,,,,,,2022-10-13,1,,,,,サブコンシャスイリョウキョウカイ,0
54,1011701025688,新規,0,2022-10-13,2022-10-13,リッツ・ウーマン株式会社,,株式会社,東京都,江戸川区,北小岩１丁目７番５－１１０１号プレジャー・ガーデン小岩,,13,123,1330051,,,,,,,2022-10-13,1,,,,,リッツウーマン,0
60,1011801041362,新規,0,2022-10-13,2022-10-13,株式会社Ｔｗｏ　Ｓｔｅｐ,,株式会社,東京都,足立区,千住河原町２１番１２－１００１号,,13,121,1200037,,,,,,,2022-10-13,1,,,,,トゥステップ,0
61,1011803005299,新規,0,2022-10-13,2022-10-13,ひらまめ写真館合同会社,,合同会社,東京都,葛飾区,亀有４丁目３３番１２号,,13,122,1250061,,,,,,,2022-10-13,1,,,,,ヒラマメシャシンカン,0
62,1011803005308,新規,0,2022-10-13,2022-10-13,合同会社ＲＡＫＵ,,合同会社,東京都,足立区,中央本町３丁目４番１号東急ドエルアルス五反野１０５号,,13,121,1210011,,,,,,,2022-10-13,1,,,,,ラク,0
64,1012401039747,新規,0,2022-10-13,2022-10-13,株式会社ブルーモーメント,,株式会社,東京都,小金井市,梶野町３丁目４番４号,,13,210,1840002,,,,,,,2022-10-13,1,,,,,ブルーモーメント,0
67,1013101009032,新規,0,2022-10-13,2022-10-13,株式会社ＪＭＥＤＩＣ,,株式会社,東京都,青梅市,東青梅１丁目１６１番地の５,,13,205,1980042,,,,,,,2022-10-13,1,,,,,ジェイメディック,0
71,1020001148521,新規,0,2022-10-13,2022-10-13,華盛商事株式会社,,株式会社,神奈川県,横浜市南区,万世町１丁目１６－５,,14,105,2320032,,,,,,,2022-10-13,1,,,,,カセイショウジ,0
72,1020001148546,新規,0,2022-10-13,2022-10-13,株式会社シダー・ベイ,,株式会社,神奈川県,横浜市港北区,綱島上町１番地１グリーンサラウンドシティ４番街２１８号,,14,109,2230055,,,,,,,2022-10-13,1,,,,,シダーベイ,0
75,1020003022542,新規,0,2022-10-13,2022-10-13,合同会社ＬｉＢプランニング,,合同会社,神奈川県,川崎市中原区,宮内３丁目５番１２号,,14,133,2110051,,,,,,,2022-10-13,1,,,,,リブプランニング,0
76,1020003022550,新規,0,2022-10-13,2022-10-13,合同会社フィフス,,合同会社,神奈川県,横浜市都筑区,見花山１４番２１号大谷グリーンプレイスＢ－２,,14,118,2240066,,,,,,,2022-10-13,1,,,,,フィフス,0
77,1020003022559,新規,0,2022-10-13,2022-10-13,合同会社Ｒｉｏｖｉｍ,,合同会社,神奈川県,横浜市西区,南幸２丁目１９－２，第二土屋ビル３階,,14,103,2200005,,,,,,,2022-10-13,1,,,,,リオビム,0
84,1021003012252,新規,0,2022-10-13,2022-10-13,合同会社ＹＭＴＫ,,合同会社,神奈川県,座間市,座間２丁目２１４－４,,14,216,2520027,,,,,,,2022-10-13,1,,,,,ワイエムティーケー,0
85,1021005012630,新規,0,2022-10-13,2022-10-13,Ｐａｌｍ税理士法人,,その他の設立登記法人,神奈川県,藤沢市,辻堂神台１丁目３番３９号オザワビル６０１,,14,205,2510041,,,,,,,2022-10-13,1,,,,,,0
93,1030001150542,新規,0,2022-10-13,2022-10-13,株式会社ＺＡＳＳＯＵ,,株式会社,埼玉県,川口市,大字新井宿９７７番地の１,,11,203,3330826,,,,,,,2022-10-13,1,,,,,ザッソウ,0
99,1040001125270,新規,0,2022-10-13,2022-10-13,株式会社クローバーライフ,,株式会社,千葉県,市原市,大厩１８２７番地１４,,12,219,2900002,,,,,,,2022-10-13,1,,,,,クローバーライフ,0
101,1050003006914,新規,0,2022-10-13,2022-10-13,合同会社Ｄｏｍ１４０,,合同会社,茨城県,牛久市,ひたち野西４丁目２３番地５（４０１）,,08,219,3001206,,,,,,,2022-10-13,1,,,,,ドムイチヨンゼロ,0
106,1070001039724,新規,0,2022-10-13,2022-10-13,株式会社ＩＢＵ,,株式会社,群馬県,桐生市,相生町２丁目７１５番地２６,,10,203,3760011,,,,,,,2022-10-13,1,,,,,イブ,0
109,1080001025244,新規,0,2022-10-13,2022-10-13,大晴電設株式会社,,株式会社,静岡県,静岡市清水区,袖師町１０９番地の６,,22,103,4240037,,,,,,,2022-10-13,1,,,,,タイセイデンセツ,0
110,1080101023569,新規,0,2022-10-13,2022-10-13,株式会社ナカノ,,株式会社,静岡県,富士宮市,万野原新田３４７３番地の１６,,22,207,4180001,,,,,,,2022-10-13,1,,,,,ナカノ,0
111,1080401026098,新規,0,2022-10-13,2022-10-13,株式会社有田企画,,株式会社,静岡県,磐田市,赤池３２番地１,,22,211,4380824,,,,,,,2022-10-13,1,,,,,アリタキカク,0
113,1090001017810,新規,0,2022-10-13,2022-10-13,大和電気工事株式会社,,株式会社,山梨県,南巨摩郡南部町,大和９１７番地１,,19,366,4092213,,,,,,,2022-10-13,1,,,,,オオワデンキコウジ,0
133,1120001249350,新規,0,2022-10-13,2022-10-13,株式会社ジャパンプロモーションテクノロジー,,株式会社,大阪府,大阪市北区,梅田１丁目１番３号大阪駅前第３ビル２３０７,,27,127,5300001,,,,,,,2022-10-13,1,,,,,ジャパンプロモーションテクノロジー,0
134,1120003022607,新規,0,2022-10-13,2022-10-13,ＭＩＯ合同会社,,合同会社,大阪府,大阪市東淀川区,東中島１丁目１７－５－３２２,,27,114,5330033,,,,,,,2022-10-13,1,,,,,ミオ,0
135,1120003022623,新規,0,2022-10-13,2022-10-13,合同会社デシ,,合同会社,大阪府,大阪市住吉区,山之内４丁目１１番６号,,27,120,5580023,,,,,,,2022-10-13,1,,,,,デシ,0
136,1120003022672,新規,0,2022-10-13,2022-10-13,ブルーコメットラボ合同会社,,合同会社,大阪府,大阪市北区,梅田１丁目２番２号大阪駅前第２ビル１２－１２,,27,127,5300001,,,,,,,2022-10-13,1,,,,,ブルーコメットラボ,0
140,1120101066373,新規,0,2022-10-13,2022-10-13,ＥＮＺＯＥ株式会社,,株式会社,大阪府,堺市堺区,田出井町１－１－４０３－１号室,,27,141,5900014,,,,,,,2022-10-13,1,,,,,エンゾイ,0
143,1120103004884,新規,0,2022-10-13,2022-10-13,合同会社イズミル,,合同会社,大阪府,和泉市,万町３８６番地の５,,27,219,5941104,,,,,,,2022-10-13,1,,,,,イズミル,0
146,1120901046608,新規,0,2022-10-13,2022-10-13,Ｍｉｙａｂｉ株式会社,,株式会社,大阪府,箕面市,彩都粟生南２丁目５番１６号,,27,220,5620028,,,,,,,2022-10-13,1,,,,,ミヤビ,0
149,1122001036308,新規,0,2022-10-13,2022-10-13,株式会社ＮＦＫプランニング,,株式会社,大阪府,大東市,新田北町５番９号,,27,218,5740052,,,,,,,2022-10-13,1,,,,,エヌエフケイプランニング,0
160,1140001127653,新規,0,2022-10-13,2022-10-13,株式会社ニューバード,,株式会社,兵庫県,尼崎市,道意町６丁目２８番地７,,28,202,6600083,,,,,,,2022-10-13,1,,,,,ニューバード,0
161,1140001127678,新規,0,2022-10-13,2022-10-13,株式会社ＣＳＣ,,株式会社,兵庫県,神戸市西区,水谷３丁目９番７号,,28,111,6512121,,,,,,,2022-10-13,1,,,,,シーエスシー,0
168,1160001024568,新規,0,2022-10-13,2022-10-13,株式会社あたらしや,,株式会社,滋賀県,守山市,勝部２丁目５番１９号,,25,207,5240041,,,,,,,2022-10-13,1,,,,,アタラシヤ,0
169,1160003002695,新規,0,2022-10-13,2022-10-13,ＭＴＴ合同会社,,合同会社,滋賀県,彦根市,佐和町９－３５佐和町Ｍ様アパート１号室,,25,202,5220075,,,,,,,2022-10-13,1,,,,,エムティティ,0
170,1160005011133,新規,0,2022-10-13,2022-10-13,一般社団法人日本サステナブルサイクルツーリズム協議会,,その他の設立登記法人,滋賀県,大津市,皇子が丘１丁目２番１０号,,25,201,5200025,,,,,,,2022-10-13,1,,,,,ニホンサステナブルサイクルツーリズムキョウギカイ,0
171,1170001017298,新規,0,2022-10-13,2022-10-13,株式会社テントゥーワン不動産鑑定,,株式会社,和歌山県,和歌山市,中之島１６３９番地きのくにマンション３０２号,,30,201,6408392,,,,,,,2022-10-13,1,,,,,テントゥーワンフドウサンカンテイ,0
192,1180301036724,新規,0,2022-10-13,2022-10-13,株式会社サンレディ,,株式会社,愛知県,西尾市,下町鳥居前８番地５サンレディ城西３－Ａ号室,,23,213,4450891,,,,,,,2022-10-13,1,,,,,サンレディ,0
195,1180303005479,新規,0,2022-10-13,2022-10-13,合同会社いずみ,,合同会社,愛知県,岡崎市,富永町字番丈目１３番地１－３０１,,23,202,4440946,,,,,,,2022-10-13,1,,,,,イズミ,0
200,1200003005702,新規,0,2022-10-13,2022-10-13,アズボウクリエイト合同会社,,合同会社,岐阜県,恵那市,山岡町原１２３０番地,,21,210,5097605,,,,,,,2022-10-13,1,,,,,アズボウクリエイト,0
202,1210001019117,新規,0,2022-10-13,2022-10-13,株式会社ブリッジ,,株式会社,福井県,越前市,塚町２１０番地カサ・プリマベラＩＩＩ２０３,00128116,18,209,9150092,,,,,,,2022-10-13,1,,,,,ブリッジ,0
203,1210001019125,新規,0,2022-10-13,2022-10-13,株式会社ＧＲＯＯＶＥ,,株式会社,福井県,鯖江市,幸町２丁目２番７号,,18,207,9160018,,,,,,,2022-10-13,1,,,,,グルーヴ,0
204,1210003001568,新規,0,2022-10-13,2022-10-13,合同会社夜ぽぴ,,合同会社,福井県,越前市,家久町９４号３番地の４,,18,209,9150801,,,,,,,2022-10-13,1,,,,,ヨルポピ,0
206,1230003001921,新規,0,2022-10-13,2022-10-13,合同会社ニコ,,合同会社,富山県,富山市,桜谷みどり町１丁目１３番地,,16,201,9300898,,,,,,,2022-10-13,1,,,,,ニコ,0
209,1250001019807,新規,0,2022-10-13,2022-10-13,株式会社Ｍアールズ,,株式会社,山口県,長門市,東深川２６４７番地,,35,211,7594101,,,,,,,2022-10-13,1,,,,,エムアールズ,0
210,1260001037320,新規,0,2022-10-13,2022-10-13,株式会社Ｔｏｗａｎｉ　Ｆｕｊｉｗａｒａ,,株式会社,岡山県,岡山市北区,津高９１９番地７（２０１号）,,33,101,7011152,,,,,,,2022-10-13,1,,,,,トワニフジワラ,0
211,1270005005529,新規,0,2022-10-13,2022-10-13,一般社団法人海と日本プロジェクトｉｎとっとり,,その他の設立登記法人,鳥取県,鳥取市,田園町４丁目３６０番地,,31,201,6800803,,,,,,,2022-10-13,1,,,,,ウミトニッポンプロジェクトイントットリ,0
218,1290001099060,新規,0,2022-10-13,2022-10-13,株式会社オーバーカム,,株式会社,福岡県,福岡市博多区,博多駅中央街１－１アミュプラザ博多地下１階Ｑ,,40,132,8120012,,,,,,,2022-10-13,1,,,,,オーバーカム,0
219,1290001099184,新規,0,2022-10-13,2022-10-13,株式会社ＭＢ,,株式会社,福岡県,久留米市,御井町１９６６番地１,,40,203,8390851,,,,,,,2022-10-13,1,,,,,エムビー,0
220,1290001099218,新規,0,2022-10-13,2022-10-13,株式会社十和薬局,,株式会社,福岡県,福岡市南区,平和２丁目１番４－１０６号,,40,134,8150071,,,,,,,2022-10-13,1,,,,,トワヤッキョク,0
224,1290003013044,新規,0,2022-10-13,2022-10-13,合同会社Ｒｉｓｉｎｇ,,合同会社,福岡県,筑紫野市,むさしヶ丘３丁目８番２２号,,40,217,8180043,,,,,,,2022-10-13,1,,,,,ライジング,0
225,1290003013060,新規,0,2022-10-13,2022-10-13,Ｊ・Ｉ・Ｎ合同会社,,合同会社,福岡県,福岡市城南区,長尾１丁目１６番１９号１Ｆ,,40,136,8140123,,,,,,,2022-10-13,1,,,,,ジン,0
229,1310001018083,新規,0,2022-10-13,2022-10-13,株式会社福嶋石膏,,株式会社,長崎県,東彼杵郡波佐見町,田ノ頭郷３２７番地１５,,42,323,8593716,,,,,,,2022-10-13,1,,,,,フクシマセッコウ,0
235,1340005009514,新規,0,2022-10-13,2022-10-13,一般社団法人コミュニティラボ,,その他の設立登記法人,鹿児島県,鹿児島市,東千石町１７番１号,,46,201,8920842,,,,,,,2022-10-13,1,,,,,コミュニティラボ,0
237,1350003004193,新規,0,2022-10-13,2022-10-13,松井エネルギー研究所一豊精密機械製作合同会社,,合同会社,宮崎県,日向市,春原町１丁目１番地,,45,206,8830035,,,,,,,2022-10-13,1,,,,,マツイエネルギーケンキュウショカズトヨセイミツキカイセイサク,0
278,2010003038844,新規,0,2022-10-13,2022-10-13,合同会社ＬＥＡＣＴ,,合同会社,東京都,中央区,銀座３丁目１４番１３号第一厚生館ビル５階,,13,102,1040061,,,,,,,2022-10-13,1,,,,,リアクト,0
279,2010003038852,新規,0,2022-10-13,2022-10-13,合同会社ライラ,,合同会社,東京都,文京区,白山５丁目７番３号,,13,105,1120001,,,,,,,2022-10-13,1,,,,,ライラ,0
301,2010501049491,新規,0,2022-10-13,2022-10-13,株式会社東上麒麟,,株式会社,東京都,台東区,浅草５丁目２９番２号,,13,106,1110032,,,,,,,2022-10-13,1,,,,,トウジョウキリン,0
303,2010603009773,新規,0,2022-10-13,2022-10-13,明月天心合同会社,,合同会社,東京都,墨田区,吾妻橋３丁目４番５号大井ビル２－Ｃ号室,,13,107,1300001,,,,,,,2022-10-13,1,,,,,メイゲツテンシン,0
304,2010701043311,新規,0,2022-10-13,2022-10-13,株式会社コスモスカイラボ,,株式会社,東京都,品川区,旗の台６丁目７番１７号,,13,109,1420064,,,,,,,2022-10-13,1,,,,,コスモスカイラボ,0
307,2010703006415,新規,0,2022-10-13,2022-10-13,合同会社Ｉｓｐａｈａｎ,,合同会社,東京都,品川区,東品川３丁目２２番３０－７０６号,,13,109,1400002,,,,,,,2022-10-13,1,,,,,イスパハン,0
310,2010803004310,新規,0,2022-10-13,2022-10-13,ＬＣａｎｄｌｅ合同会社,,合同会社,東京都,大田区,大森南３丁目７番１号,,13,111,1430013,,,,,,,2022-10-13,1,,,,,エルキャンドル,0
311,2010901051782,新規,0,2022-10-13,2022-10-13,株式会社Ｌｅａｄ．Ｆ,,株式会社,東京都,世田谷区,奥沢３丁目３５－１１奥沢アパートメンツ２０１,,13,112,1580083,,,,,,,2022-10-13,1,,,,,リードエフ,0
312,2010903007700,新規,0,2022-10-13,2022-10-13,鈴木商店合同会社,,合同会社,東京都,世田谷区,経堂１丁目２１－２２ショップ経堂１Ｆ,,13,112,1560052,,,,,,,2022-10-13,1,,,,,スズキショウテン,0
316,2011001150070,新規,0,2022-10-13,2022-10-13,株式会社Ｓｐｈｅｒｅ,,株式会社,東京都,渋谷区,神宮前６丁目２３番４号桑野ビル２階,,13,113,1500001,,,,,,,2022-10-13,1,,,,,スフィア,0
317,2011001150120,新規,0,2022-10-13,2022-10-13,株式会社ＦＰ　ｔｅａｍ,,株式会社,東京都,渋谷区,代々木３丁目５２番７‐３０１号,,13,113,1510053,,,,,,,2022-10-13,1,,,,,エフピーチーム,0
319,2011003015494,新規,0,2022-10-13,2022-10-13,リンクス合同会社,,合同会社,東京都,渋谷区,代々木１丁目４３－１１－４,,13,113,1510053,,,,,,,2022-10-13,1,,,,,リンクス,0
320,2011003015503,新規,0,2022-10-13,2022-10-13,合同会社ＭＯＮＯＬＩＴＨ　ＣＬＡＮ,,合同会社,東京都,渋谷区,西原２丁目１４番２１号Ａｒｒｏｗｓａｌ代々木上原１０５,,13,113,1510066,,,,,,,2022-10-13,1,,,,,モノリスクラン,0
321,2011003015528,新規,0,2022-10-13,2022-10-13,合同会社ｇｅｎｇｅｄａ,,合同会社,東京都,渋谷区,道玄坂１丁目１０番８号渋谷道玄坂東急ビル２Ｆ－Ｃ,,13,113,1500043,,,,,,,2022-10-13,1,,,,,ゲンゲダ,0
332,2011601026298,新規,0,2022-10-13,2022-10-13,ＳｋｙＬｉｎｅ株式会社,,株式会社,東京都,練馬区,錦１丁目２５－２５ネコパレス２３５、１０３号室,,13,120,1790082,,,,,,,2022-10-13,1,,,,,スカイライン,0
338,2011801041386,新規,0,2022-10-13,2022-10-13,株式会社Ｎｉｃｏｔｔｏ　Ｐｌｕｓ,,株式会社,東京都,葛飾区,柴又４丁目９番９－８０１号コスモ柴又駅前,,13,122,1250052,,,,,,,2022-10-13,1,,,,,ニコットプラス,0
340,2011803005298,新規,0,2022-10-13,2022-10-13,合同会社ブルーム,,合同会社,東京都,葛飾区,青戸２丁目６番１７号テラス・ブルーリバー１０１,,13,122,1250062,,,,,,,2022-10-13,1,,,,,ブルーム,0
342,2012701017294,新規,0,2022-10-13,2022-10-13,株式会社エフケーエス,,株式会社,東京都,西東京市,芝久保町３丁目２３番１号,,13,229,1880014,,,,,,,2022-10-13,1,,,,,エフケーエス,0
346,2013101009031,新規,0,2022-10-13,2022-10-13,株式会社アースアン,,株式会社,東京都,羽村市,小作台４丁目４番地３８,,13,227,2050001,,,,,,,2022-10-13,1,,,,,アースアン,0
351,2013301049785,新規,0,2022-10-13,2022-10-13,ジャパン・コレクション株式会社,,株式会社,東京都,豊島区,東池袋２丁目６２番８号,,13,116,1700013,,,,,,,2022-10-13,1,,,,,ジャパンコレクション,0
365,2020001148413,新規,0,2022-10-13,2022-10-13,イノルト株式会社,,株式会社,神奈川県,横浜市港南区,港南台４丁目３３番８号,,14,111,2340054,,,,,,,2022-10-13,1,,,,,イノルト,0
366,2020001148520,新規,0,2022-10-13,2022-10-13,株式会社ファストキャット,,株式会社,神奈川県,横浜市中区,花咲町１丁目４８番３号ロゼ桜木町４０６号,,14,104,2310063,,,,,,,2022-10-13,1,,,,,ファストキャット,0
367,2020001148545,新規,0,2022-10-13,2022-10-13,ビースマート株式会社,,株式会社,神奈川県,川崎市多摩区,長沢４丁目３２番２４号,,14,135,2140035,,,,,,,2022-10-13,1,,,,,ビースマート,0
371,2021001077098,新規,0,2022-10-13,2022-10-13,オールスタイル株式会社,,株式会社,神奈川県,藤沢市,湘南台１丁目７番地９,,14,205,2520804,,,,,,,2022-10-13,1,,,,,オールスタイル,0
372,2021001077172,新規,0,2022-10-13,2022-10-13,株式会社メディカルスパーズ,,株式会社,神奈川県,藤沢市,片瀬海岸１丁目７番２２－５０２,,14,205,2510035,,,,,,,2022-10-13,1,,,,,メディカルスパーズ,0
376,2030001150401,新規,0,2022-10-13,2022-10-13,株式会社ＭＲＮ,,株式会社,埼玉県,川口市,北園町１２－２０並木マンション１０１,,11,203,3330862,,,,,,,2022-10-13,1,,,,,エムアールエヌ,0
377,2030001150541,新規,0,2022-10-13,2022-10-13,株式会社Ｂｅｔｔｅｒ　Ｌｉｆｅｓｔｙｌｅ　Ｃｏｒｐｏｒａｔｉｏｎ,,株式会社,埼玉県,八潮市,大字二丁目１４８番地エクレール八潮４１１号室,,11,234,3400811,,,,,,,2022-10-13,1,,,,,ベターライフスタイルコーポレーション,0
387,2040001125402,新規,0,2022-10-13,2022-10-13,株式会社ＣＯＡＳＴ　ＨＩＫＥ,,株式会社,千葉県,袖ケ浦市,神納１８３４番地,,12,229,2990257,,,,,,,2022-10-13,1,,,,,コーストハイク,0
388,2040003021038,新規,0,2022-10-13,2022-10-13,合同会社山室,,合同会社,千葉県,船橋市,咲が丘２丁目２３番１２号,,12,204,2740807,,,,,,,2022-10-13,1,,,,,ヤマムロ,0
390,2040005021787,新規,0,2022-10-13,2022-10-13,一般社団法人オンラインボッチャ普及協会,,その他の設立登記法人,千葉県,千葉市稲毛区,宮野木町２１０９番地１４,,12,103,2630054,,,,,,,2022-10-13,1,,,,,オンラインボッチャフキュウキョウカイ,0
402,2060003004263,新規,0,2022-10-13,2022-10-13,合同会社みどりキャピタル,,合同会社,栃木県,宇都宮市,西川田本町２丁目６番１８号,,09,201,3210158,,,,,,,2022-10-13,1,,,,,ミドリキャピタル,0
404,2070003004650,新規,0,2022-10-13,2022-10-13,合同会社アセアンソリューション,,合同会社,群馬県,藤岡市,西平井１２３３,,10,209,3750044,,,,,,,2022-10-13,1,,,,,アセアンソリューション,0
426,2120001249416,新規,0,2022-10-13,2022-10-13,株式会社ＷＥＬＬＳＴＹＬＥ,,株式会社,大阪府,大阪市中央区,船越町１丁目５番８号Ｓ．ＴＢＬＤ５０１,,27,128,5400036,,,,,,,2022-10-13,1,,,,,ウエルスタイル,0
427,2120001249473,新規,0,2022-10-13,2022-10-13,株式会社Ｔｏｔａｌ　Ｓｕｐｐｏｒｔ,,株式会社,大阪府,大阪市東住吉区,公園南矢田４丁目１７番１５号Ａ,,27,121,5460024,,,,,,,2022-10-13,1,,,,,トータルサポート,0
428,2120001249498,新規,0,2022-10-13,2022-10-13,鋭唐視覚芸術株式会社,,株式会社,大阪府,大阪市東成区,深江北３丁目４番２１号エクラ深江橋２１５Ｂ,,27,115,5370001,,,,,,,2022-10-13,1,,,,,エイトウシカクゲイジュツ,0
429,2120001249515,新規,0,2022-10-13,2022-10-13,株式会社Ｎ‐ｃｌａｓｓ,,株式会社,大阪府,大阪市住吉区,万代６丁目７番１７－６０６号,,27,120,5580055,,,,,,,2022-10-13,1,,,,,エヌクラス,0
434,2120101066380,新規,0,2022-10-13,2022-10-13,Ｍ．Ｄ．Ｔ．Ｅ株式会社,,株式会社,大阪府,堺市中区,東山１９９番地１８,,27,142,5998247,,,,,,,2022-10-13,1,,,,,エムディーティーイー,0
439,2120905006383,新規,0,2022-10-13,2022-10-13,税理士法人Ａｒｃ,,その他の設立登記法人,大阪府,吹田市,江の木町１７番１号コンパーノビル４階,,27,205,5640053,,,,,,,2022-10-13,1,,,,,アルク,0
443,2130001072775,新規,0,2022-10-13,2022-10-13,株式会社ザウルス,,株式会社,京都府,京都市右京区,西院巽町２番地２オヴェス西院３階,00128115,26,108,6150014,,,,,,,2022-10-13,1,,,,,ザウルス,0
444,2130001072825,新規,0,2022-10-13,2022-10-13,株式会社ルミエール,,株式会社,京都府,京都市下京区,中堂寺南町１０番地２０,,26,106,6008813,,,,,,,2022-10-13,1,,,,,ルミエール,0
447,2130003008249,新規,0,2022-10-13,2022-10-13,竹内村上ＡＴＥＬＩＥＲ合同会社,,合同会社,京都府,京都市右京区,京北下町畑野７３番地１,,26,108,6010324,,,,,,,2022-10-13,1,,,,,タケウチムラカミアトリエ,0
450,2130005016613,新規,0,2022-10-13,2022-10-13,社会福祉法人丹後福祉応援団,,その他の設立登記法人,京都府,与謝郡与謝野町,字加悦８０２番地７,,26,465,6292403,,,,,,,2022-10-13,1,,,,,タンゴフクシオウエンダン,0
456,2140001127652,新規,0,2022-10-13,2022-10-13,株式会社ネオミライズ,,株式会社,兵庫県,加西市,北条町東南２１３番地の１１,,28,220,6752324,,,,,,,2022-10-13,1,,,,,ネオミライズ,0
457,2140003018239,新規,0,2022-10-13,2022-10-13,合同会社ｈａｎｏｃａｒｅ,,合同会社,兵庫県,神戸市中央区,中山手通１丁目１７番６号,,28,110,6500004,,,,,,,2022-10-13,1,,,,,ハノケア,0
461,2170003001778,新規,0,2022-10-13,2022-10-13,合同会社ＩＩＮＯＶＩＳＴＡ,,合同会社,和歌山県,和歌山市,島崎町１丁目１５,,30,201,6408125,,,,,,,2022-10-13,1,,,,,イノヴィスタ,0
478,2200001040535,新規,0,2022-10-13,2022-10-13,グッドワーク株式会社,,株式会社,岐阜県,恵那市,大井町２７１４番地３８０,,21,210,5097201,,,,,,,2022-10-13,1,,,,,グッドワーク,0
480,2200003005701,新規,0,2022-10-13,2022-10-13,合同会社ハロウィンの怪人,,合同会社,岐阜県,関市,一ツ山町５６番地２,,21,205,5013973,,,,,,,2022-10-13,1,,,,,ハロウィンノカイジン,0
483,2210005010062,新規,0,2022-10-13,2022-10-13,農事組合法人ファーム吉政,,その他の設立登記法人,福井県,坂井市,丸岡町吉政第１６号５０番地,,18,210,9100372,,,,,,,2022-10-13,1,,,,,ファームヨシマサ,0
484,2230001019551,新規,0,2022-10-13,2022-10-13,プラスナナイロ株式会社,,株式会社,富山県,射水市,戸破字針原６９番地の１６,,16,211,9390351,,,,,,,2022-10-13,1,,,,,プラスナナイロ,0
504,2290001099183,新規,0,2022-10-13,2022-10-13,株式会社鉄筋プロショップ,,株式会社,福岡県,福岡市東区,舞松原１丁目６番５３号,,40,131,8130042,,,,,,,2022-10-13,1,,,,,テッキンプロショップ,0
505,2290001099191,新規,0,2022-10-13,2022-10-13,ＥＶパートナーズ株式会社,,株式会社,福岡県,久留米市,本町２－２３栗原ビルディング４Ｆ,,40,203,8300044,,,,,,,2022-10-13,1,,,,,イーブイパートナーズ,0
506,2290001099209,新規,0,2022-10-13,2022-10-13,Ｃｏｍｇｒａｓｔ株式会社,,株式会社,福岡県,福岡市博多区,博多駅南５丁目１１番１５号,,40,132,8120016,,,,,,,2022-10-13,1,,,,,コムグラスト,0
507,2290001099217,新規,0,2022-10-13,2022-10-13,ＫＨＡＯＳ株式会社,,株式会社,福岡県,福岡市南区,柏原１丁目１１番２１号,,40,134,8111353,,,,,,,2022-10-13,1,,,,,カオス,0
510,2290005018833,新規,0,2022-10-13,2022-10-13,ＮＰＯ法人愛い空,,その他の設立登記法人,福岡県,福岡市東区,香椎台４丁目１４番１号,,40,131,8130014,,,,,,,2022-10-13,1,,,,,アカイソラ,0
515,2290805009593,新規,0,2022-10-13,2022-10-13,一般社団法人ＫｎｏｗｌｅｄｇｅＳｈａｒｅＣｏｍｍｕｎｉｔｙ,,その他の設立登記法人,福岡県,北九州市小倉北区,浅野１丁目１－１ビエラ小倉１Ｆ　ＤＩＳＣＯＶＥＲＹ－１２５号,,40,106,8020001,,,,,,,2022-10-13,1,,,,,ナレッジシェアコミュニティー,0
518,2320003003924,新規,0,2022-10-13,2022-10-13,くれなゐ丸ラボ合同会社,,合同会社,大分県,別府市,餅ケ浜町３番３２号,,44,202,8740924,,,,,,,2022-10-13,1,,,,,クレナイマルラボ,0
521,2360001031031,新規,0,2022-10-13,2022-10-13,株式会社ＮＫＤ,,株式会社,沖縄県,中頭郡北谷町,美浜１丁目６番地７オーシャンウインズ美浜４０２,,47,326,9040115,,,,,,,2022-10-13,1,,,,,エヌケーディー,0
522,2360003012368,新規,0,2022-10-13,2022-10-13,合同会社まる美工業,,合同会社,沖縄県,中頭郡読谷村,字比謝１０３番地５,,47,324,9040311,,,,,,,2022-10-13,1,,,,,マルミコウギョウ,0
534,2380005012629,新規,0,2022-10-13,2022-10-13,一般社団法人ＧＲＥＥＮ　ＦＥＥＬＤ,,その他の設立登記法人,福島県,白河市,表郷金山字愛宕山１,,07,205,9610416,,,,,,,2022-10-13,1,,,,,グリーンフィールド,0
574,3010401170108,新規,0,2022-10-13,2022-10-13,株式会社ＭＥメカトロニクス,,株式会社,東京都,港区,芝４丁目１番２３号,,13,103,1080014,,,,,,,2022-10-13,1,,,,,エムイーメカトロニクス,0
583,3010601061973,新規,0,2022-10-13,2022-10-13,株式会社Ｆ＆Ｆ,,株式会社,東京都,江東区,東陽５丁目２６番１－４０３号,,13,108,1350016,,,,,,,2022-10-13,1,,,,,エフアンドエフ,0
586,3010703006414,新規,0,2022-10-13,2022-10-13,池田山ブラザーズ合同会社,,合同会社,東京都,品川区,東五反田５丁目２５番７－３０３号,,13,109,1410022,,,,,,,2022-10-13,1,,,,,イケダヤマブラザーズ,0
588,3010801033351,新規,0,2022-10-13,2022-10-13,株式会社Ｍｏｆｕ　Ｍｏｎｓｔｅｒ,,株式会社,東京都,大田区,池上３丁目３２番２０－１０３号,,13,111,1460082,,,,,,,2022-10-13,1,,,,,モフモンスター,0
597,3010901051773,新規,0,2022-10-13,2022-10-13,株式会社いであ,,株式会社,東京都,世田谷区,桜新町２丁目２７番２１－１０１号,,13,112,1540015,,,,,,,2022-10-13,1,,,,,イデア,0
601,3011001150268,新規,0,2022-10-13,2022-10-13,株式会社ＬＩＢＥＲＴＥ,,株式会社,東京都,渋谷区,神宮前６丁目２３番４号桑野ビル２階,,13,113,1500001,,,,,,,2022-10-13,1,,,,,リベルテ,0
602,3011001150276,新規,0,2022-10-13,2022-10-13,株式会社ＧｏｍａＣｒｕｓｈ,,株式会社,東京都,渋谷区,千駄ヶ谷４丁目８番４号,,13,113,1510051,,,,,,,2022-10-13,1,,,,,ゴマクラッシュ,0
607,3011103012218,新規,0,2022-10-13,2022-10-13,合同会社ＢＬＡＺＥＭＡＮ,,合同会社,東京都,新宿区,西新宿７丁目１４番１１号Ｂ１,,13,104,1600023,,,,,,,2022-10-13,1,,,,,ブレイズマン,0
610,3011301028164,新規,0,2022-10-13,2022-10-13,株式会社ＫＳＫ,,株式会社,東京都,杉並区,堀ノ内２丁目１２番１６号,,13,115,1660013,,,,,,,2022-10-13,1,,,,,,0
613,3011403003791,新規,0,2022-10-13,2022-10-13,合同会社ＮＨＯ,,合同会社,東京都,板橋区,赤塚５丁目２３番３４－１０２号,,13,119,1750092,,,,,,,2022-10-13,1,,,,,ニョ,0
617,3011601026306,新規,0,2022-10-13,2022-10-13,株式会社エムツークリーン,,株式会社,東京都,練馬区,旭町１丁目８番１号,,13,120,1790071,,,,,,,2022-10-13,1,,,,,エムツークリーン,0
623,3012401039745,新規,0,2022-10-13,2022-10-13,株式会社ドリームウイングス,,株式会社,東京都,調布市,東つつじケ丘１丁目９番地５４,,13,208,1820005,,,,,,,2022-10-13,1,,,,,ドリームウイングス,0
624,3012701017302,新規,0,2022-10-13,2022-10-13,Ｓｉｍｐｌｅｘｉｔｙ株式会社,,株式会社,東京都,西東京市,ひばりが丘３丁目２番５３－５１３号,,13,229,2020001,,,,,,,2022-10-13,1,,,,,シンプレキシティ,0
636,3020001148536,新規,0,2022-10-13,2022-10-13,株式会社ＤＡＯＵ　ＪＡＰＡＮ,,株式会社,神奈川県,横浜市中区,千歳町１－２横浜ＴＨビル３０６号,,14,104,2310035,,,,,,,2022-10-13,1,,,,,ダウジャパン,0
640,3020003022549,新規,0,2022-10-13,2022-10-13,合同会社Ｐｒｏｇｒｅｓｓ,,合同会社,神奈川県,横浜市青葉区,新石川１丁目３０－７－１００４,,14,117,2250003,,,,,,,2022-10-13,1,,,,,プログレス,0
647,3021003012242,新規,0,2022-10-13,2022-10-13,合同会社スミカ,,合同会社,神奈川県,藤沢市,辻堂元町５丁目９番２０号玉井コーポ２０１号,,14,205,2510043,,,,,,,2022-10-13,1,,,,,スミカ,0
654,3030001150540,新規,0,2022-10-13,2022-10-13,株式会社ファースト,,株式会社,埼玉県,上尾市,浅間台３丁目１５番地２,,11,219,3620073,,,,,,,2022-10-13,1,,,,,ファースト,0
659,3030003020394,新規,0,2022-10-13,2022-10-13,合同会社古口,,合同会社,埼玉県,さいたま市浦和区,常盤４丁目１３番２１－１０２号,,11,107,3300061,,,,,,,2022-10-13,1,,,,,コグチ,0
668,3040001125384,新規,0,2022-10-13,2022-10-13,株式会社ＣｏＣｏ‐ＶＥＮＵＳ,,株式会社,千葉県,船橋市,中野木２丁目３番５７号ボワ・リジェール・トワＤ号,,12,204,2740826,,,,,,,2022-10-13,1,,,,,ココビーナス,0
669,3040001125426,新規,0,2022-10-13,2022-10-13,株式会社アヴァニス,,株式会社,千葉県,市川市,市川南１丁目２番２１号三浦ビル２０１,,12,203,2720033,,,,,,,2022-10-13,1,,,,,アヴァニス,0
670,3040003020922,新規,0,2022-10-13,2022-10-13,合同会社ＳＥＮＴＩＡ,,合同会社,千葉県,習志野市,東習志野１丁目９－７,,12,216,2750001,,,,,,,2022-10-13,1,,,,,センティア,0
671,3040003021029,新規,0,2022-10-13,2022-10-13,ＨＡＢ　Ｇｌｏｂｅ合同会社,,合同会社,千葉県,浦安市,高洲５丁目１番Ａ－１１０４号レジアスフォート新浦安,,12,227,2790023,,,,,,,2022-10-13,1,,,,,ハブグローブ,0
672,3040003021037,新規,0,2022-10-13,2022-10-13,合同会社ＭＲ．ＶＩＳＩＯＮ　ＩＮＴＥＲＮＡＴＩＯＮＡＬ,,合同会社,千葉県,柏市,塚崎１０３６番地２セントヴィラ沼南２階２０１号室,,12,217,2770923,,,,,,,2022-10-13,1,,,,,エムアールヴィジョンインターナショナル,0
675,3050001051811,新規,0,2022-10-13,2022-10-13,株式会社トラスト・カンパニー,,株式会社,茨城県,石岡市,山崎９６２番１６,,08,205,3150125,,,,,,,2022-10-13,1,,,,,トラストカンパニー,0
678,3050003006904,新規,0,2022-10-13,2022-10-13,合同会社ＬＩＥＮ,,合同会社,茨城県,筑西市,藤ケ谷２２６４－２,,08,227,3080112,,,,,,,2022-10-13,1,,,,,リアン,0
679,3050003006912,新規,0,2022-10-13,2022-10-13,合同会社ミナミエクスポート,,合同会社,茨城県,結城郡八千代町,大字平塚４７３７番地７７,,08,521,3003561,,,,,,,2022-10-13,1,,,,,ミナミエクスポート,0
684,3070001039739,新規,0,2022-10-13,2022-10-13,株式会社Ｒｅ・Ｌｉｆｅ,,株式会社,群馬県,前橋市,日吉町３丁目３９－４杉本ハイツ１０１,,10,201,3710017,,,,,,,2022-10-13,1,,,,,リライフ,0
687,3080001025242,新規,0,2022-10-13,2022-10-13,輝力士株式会社,,株式会社,静岡県,焼津市,中新田１３０番地の２,,22,212,4250068,,,,,,,2022-10-13,1,,,,,キリキシ,0
690,3080401026096,新規,0,2022-10-13,2022-10-13,株式会社風雅,,株式会社,静岡県,浜松市北区,初生町６９９番地,,22,135,4338112,,,,,,,2022-10-13,1,,,,,フウガ,0
697,3110001037036,新規,0,2022-10-13,2022-10-13,株式会社サウナスパ・ロングヒル,,株式会社,新潟県,長岡市,下条町１４２０番地,,15,202,9401146,,,,,,,2022-10-13,1,,,,,サウナスパロングヒル,0
711,3120001249407,新規,0,2022-10-13,2022-10-13,エムバイツーコーポレーション株式会社,,株式会社,大阪府,大阪市淀川区,西中島４丁目２番２６号天神第一ビル,,27,123,5320011,,,,,,,2022-10-13,1,,,,,エムバイツーコーポレーション,0
712,3120001249472,新規,0,2022-10-13,2022-10-13,株式会社カスケード,,株式会社,大阪府,大阪市北区,梅田１丁目１－３大阪駅前第３ビル２９階１－１－１号室,,27,127,5300001,,,,,,,2022-10-13,1,,,,,カスケード,0
713,3120001249522,新規,0,2022-10-13,2022-10-13,ＹＯＵＢＵＮ株式会社,,株式会社,大阪府,枚方市,三栗１丁目１番３５号,,27,210,5731171,,,,,,,2022-10-13,1,,,,,ヨーブン,0
714,3120001249530,新規,0,2022-10-13,2022-10-13,平田鉄筋工業株式会社,,株式会社,大阪府,寝屋川市,日新町１０番２１号,,27,215,5720028,,,,,,,2022-10-13,1,,,,,ヒラタテッキンコウギョウ,0
715,3120001249539,新規,0,2022-10-13,2022-10-13,株式会社Ｊ＆Ｊ,,株式会社,大阪府,大阪市西区,京町堀２丁目６番２０－１４０６号,,27,106,5500003,,,,,,,2022-10-13,1,,,,,ジェイアンドジェイ,0
716,3120001249588,新規,0,2022-10-13,2022-10-13,株式会社シーフレッシュ,,株式会社,大阪府,大阪市福島区,玉川３丁目５番２０号,,27,103,5530004,,,,,,,2022-10-13,1,,,,,シーフレッシュ,0
719,3120003022638,新規,0,2022-10-13,2022-10-13,合同会社Ｔｅｃｈ　ＳＨＩＦＴ　Ｇｒｏｗｉｎｇｓ,,合同会社,大阪府,大阪市北区,万歳町１－６ＳＴＡＲＳビル２０４,,27,127,5300028,,,,,,,2022-10-13,1,,,,,テックシフトグローイングス,0
720,3120003022646,新規,0,2022-10-13,2022-10-13,ＣＣＣ合同会社,,合同会社,大阪府,大阪市浪速区,幸町２丁目２番４０－１２０１号,,27,111,5560021,,,,,,,2022-10-13,1,,,,,シーシーシー,0
725,3120101066363,新規,0,2022-10-13,2022-10-13,株式会社ＭＤＷＯＲＫＳ,,株式会社,大阪府,堺市堺区,大浜北町２丁６番１－１５０６号,,27,141,5900974,,,,,,,2022-10-13,1,,,,,エムディーワークス,0
726,3120103004882,新規,0,2022-10-13,2022-10-13,合同会社わらしべ,,合同会社,大阪府,堺市堺区,中瓦町１丁４番２２号大阪信用金庫堺東ビル２Ｆ,,27,141,5900077,,,,,,,2022-10-13,1,,,,,ワラシベ,0
731,3130001072782,新規,0,2022-10-13,2022-10-13,株式会社ピーク,,株式会社,京都府,福知山市,字今安９６９番地の５,,26,201,6200953,,,,,,,2022-10-13,1,,,,,ピーク,0
734,3150001025879,新規,0,2022-10-13,2022-10-13,株式会社ＲｅＳｔａｒｔ,,株式会社,奈良県,生駒郡斑鳩町,神南４丁目１１番７６号,,29,344,6360143,,,,,,,2022-10-13,1,,,,,リスタート,0
738,3180001153388,新規,0,2022-10-13,2022-10-13,株式会社つなぎ人,,株式会社,愛知県,名古屋市瑞穂区,西ノ割町１丁目１２番地１０１号,,23,108,4670813,,,,,,,2022-10-13,1,,,,,ツナギビト,0
740,3180003024331,新規,0,2022-10-13,2022-10-13,合同会社Ｒ２１,,合同会社,愛知県,名古屋市中村区,則武１丁目１１番７号,,23,105,4530014,,,,,,,2022-10-13,1,,,,,アールトゥーワン,0
745,3180301036722,新規,0,2022-10-13,2022-10-13,ハンソーイング株式会社,,株式会社,愛知県,西尾市,楠村町山崎７番地１,,23,213,4440325,,,,,,,2022-10-13,1,,,,,ハンソーイング,0
748,3200001040526,新規,0,2022-10-13,2022-10-13,株式会社ハッピータイム,,株式会社,岐阜県,関市,明生町３丁目２－６,,21,205,5013904,,,,,,,2022-10-13,1,,,,,ハッピータイム,0
756,3240001060487,新規,0,2022-10-13,2022-10-13,株式会社ＡＲＴ,,株式会社,広島県,福山市,新涯町５丁目３６番３号村上ビル１Ｆ,,34,207,7210955,,,,,,,2022-10-13,1,,,,,エーアールティー,0
757,3240001060504,新規,0,2022-10-13,2022-10-13,株式会社印刷工房,,株式会社,広島県,福山市,神辺町字十九軒屋１５－１,,34,207,7202106,,,,,,,2022-10-13,1,,,,,インサツコウボウ,0
768,3290001099208,新規,0,2022-10-13,2022-10-13,株式会社Ａ,,株式会社,福岡県,福岡市博多区,中洲１丁目３番１５号オンリーワンビル２Ｆ,,40,132,8100801,,,,,,,2022-10-13,1,,,,,エー,0
771,3290005018832,新規,0,2022-10-13,2022-10-13,一般社団法人あかときの道,,その他の設立登記法人,福岡県,久留米市,東合川７丁目８番地１,,40,203,8390809,,,,,,,2022-10-13,1,,,,,アカトキノミチ,0
782,3360001031063,新規,0,2022-10-13,2022-10-13,株式会社ＶＥＲＳＡＴＡＩＬＥ,,株式会社,沖縄県,沖縄市,池原１丁目１９番１４号,,47,211,9042141,,,,,,,2022-10-13,1,,,,,バーサタイル,0
790,3390001017051,新規,0,2022-10-13,2022-10-13,株式会社Ｇｓ,,株式会社,山形県,新庄市,本町２番１５号,,06,205,9960027,,,,,,,2022-10-13,1,,,,,ジーズ,0
830,4010001229939,新規,0,2022-10-13,2022-10-13,株式会社リグライフ,,株式会社,東京都,千代田区,九段南１丁目５番６号りそな九段ビル５階ＫＳフロア,,13,101,1020074,,,,,,,2022-10-13,1,,,,,リグライフ,0
831,4010001230038,新規,0,2022-10-13,2022-10-13,株式会社紫陽花ホールディングス,,株式会社,東京都,千代田区,丸の内２丁目５番２号,,13,101,1000005,,,,,,,2022-10-13,1,,,,,アジサイホールディングス,0
832,4010001230129,新規,0,2022-10-13,2022-10-13,株式会社フットコアソリューションズ,,株式会社,東京都,中央区,銀座１丁目１９番９号ギンザヨシダビル,,13,102,1040061,,,,,,,2022-10-13,1,,,,,フットコアソリューションズ,0
833,4010001230137,新規,0,2022-10-13,2022-10-13,トモラク株式会社,,株式会社,東京都,千代田区,麹町１丁目４番４号,,13,101,1020083,,,,,,,2022-10-13,1,,,,,トモラク,0
836,4010003038850,新規,0,2022-10-13,2022-10-13,合同会社マネータートル,,合同会社,東京都,中央区,銀座１丁目１２番４号Ｎ＆ＥＢＬＤ．６Ｆ,,13,102,1040061,,,,,,,2022-10-13,1,,,,,マネータートル,0
841,4010101015363,新規,0,2022-10-13,2022-10-13,株式会社Ｏｃｕｌｉ,,株式会社,東京都,八王子市,緑町７６－４１ファーストハイム１０３号,,13,201,1930932,,,,,,,2022-10-13,1,,,,,アキュライ,0
846,4010401170107,新規,0,2022-10-13,2022-10-13,株式会社ＭＥファクトリーオートメーション,,株式会社,東京都,港区,芝４丁目１番２３号,,13,103,1080014,,,,,,,2022-10-13,1,,,,,エムイーファクトリーオートメーション,0
847,4010401170206,新規,0,2022-10-13,2022-10-13,株式会社ＫＵＲＯ左衛門,,株式会社,東京都,港区,芝２丁目１７番１０－２０１号,,13,103,1050014,,,,,,,2022-10-13,1,,,,,クロザエモン,0
848,4010403028492,新規,0,2022-10-13,2022-10-13,合同会社サンコア,,合同会社,東京都,港区,浜松町２丁目２－１５ダイヤビル２Ｆ,,13,103,1050013,,,,,,,2022-10-13,1,,,,,サンコア,0
849,4010403028674,新規,0,2022-10-13,2022-10-13,合同会社Ａｐｐａｒｅ,,合同会社,東京都,港区,南青山２丁目２番１５号,,13,103,1070062,,,,,,,2022-10-13,1,,,,,アッパレ,0
855,4010901051772,新規,0,2022-10-13,2022-10-13,株式会社ＳＯＭＥ　ＣＯＦＦＥＥ,,株式会社,東京都,世田谷区,桜丘２丁目２４番１９号コーポまつば１階,,13,112,1560054,,,,,,,2022-10-13,1,,,,,サムコーヒー,0
858,4011001150259,新規,0,2022-10-13,2022-10-13,株式会社ＭＩＹＡＧＩＨＩＤＥＴＡＫＡ,,株式会社,東京都,渋谷区,恵比寿西２丁目１０番８号畑ビル１Ｆ,,13,113,1500021,,,,,,,2022-10-13,1,,,,,ミヤギヒデタカ,0
861,4011003015534,新規,0,2022-10-13,2022-10-13,Ａｉｃｏｃｃｏ合同会社,,合同会社,東京都,渋谷区,神宮前６丁目２３番４号桑野ビル２階,,13,113,1500001,,,,,,,2022-10-13,1,,,,,アイコッコ,0
862,4011005009765,新規,0,2022-10-13,2022-10-13,特定非営利活動法人カンゲキ大賞委員会,,その他の設立登記法人,東京都,渋谷区,神宮前６丁目２３番４号桑野ビル２階,,13,113,1500001,,,,,,,2022-10-13,1,,,,,カンゲキタイショウイインカイ,0
867,4011301028171,新規,0,2022-10-13,2022-10-13,株式会社深み,,株式会社,東京都,杉並区,南荻窪１丁目９番７号,,13,115,1670052,,,,,,,2022-10-13,1,,,,,フカミ,0
868,4011303004542,新規,0,2022-10-13,2022-10-13,合同会社ＳＫコンサルティング,,合同会社,東京都,杉並区,本天沼１丁目１０番６号,,13,115,1670031,,,,,,,2022-10-13,1,,,,,,0
872,4011601026305,新規,0,2022-10-13,2022-10-13,株式会社あしたの結婚会議,,株式会社,東京都,練馬区,土支田１丁目３５番６号,,13,120,1790076,,,,,,,2022-10-13,1,,,,,アシタノケッコンカイギ,0
878,4012701017301,新規,0,2022-10-13,2022-10-13,東瀛株式会社,,株式会社,東京都,東村山市,栄町２丁目２７番地５,,13,213,1890013,,,,,,,2022-10-13,1,,,,,トウエイ,0
882,4013303006329,新規,0,2022-10-13,2022-10-13,ＤＴＨ合同会社,,合同会社,東京都,豊島区,東池袋５丁目２７番１３号,,13,116,1700013,,,,,,,2022-10-13,1,,,,,ディティーエイチ,0
891,4020001148519,新規,0,2022-10-13,2022-10-13,株式会社ナディエライフ,,株式会社,神奈川県,川崎市麻生区,高石４丁目５－２２－４,,14,137,2150003,,,,,,,2022-10-13,1,,,,,ナディエライフ,0
897,4021001077170,新規,0,2022-10-13,2022-10-13,株式会社ＮＫ湘南,,株式会社,神奈川県,高座郡寒川町,倉見２０８８番地３,,14,321,2530101,,,,,,,2022-10-13,1,,,,,エヌケーショウナン,0
898,4021001077187,新規,0,2022-10-13,2022-10-13,株式会社シンク・エヌ,,株式会社,神奈川県,鎌倉市,御成町１１－２ヤノヤビル２Ｆ,,14,204,2480012,,,,,,,2022-10-13,1,,,,,シンクエヌ,0
910,4030001150523,新規,0,2022-10-13,2022-10-13,蜀の家系株式会社,,株式会社,埼玉県,川口市,飯塚２丁目８番１０号,,11,203,3320023,,,,,,,2022-10-13,1,,,,,ショクノカケイ,0
911,4030001150548,新規,0,2022-10-13,2022-10-13,スマバリュー株式会社,,株式会社,埼玉県,越谷市,宮本町５丁目２１９番地８０,,11,222,3430806,,,,,,,2022-10-13,1,,,,,スマバリュー,0
912,4030001150556,新規,0,2022-10-13,2022-10-13,株式会社ＨＯＫＵＴＯ,,株式会社,埼玉県,飯能市,大字川寺４７１番地７,,11,209,3570044,,,,,,,2022-10-13,1,,,,,ホクト,0
916,4030003020385,新規,0,2022-10-13,2022-10-13,合同会社クリーン工房,,合同会社,埼玉県,新座市,栄５丁目１１番８号,,11,230,3520014,,,,,,,2022-10-13,1,,,,,クリーンコウボウ,0
921,4040001125425,新規,0,2022-10-13,2022-10-13,株式会社Ｍｙｌａ,,株式会社,千葉県,流山市,おおたかの森北１丁目１１番地の３ソライエ流山おおたかの森５２８,,12,220,2700119,,,,,,,2022-10-13,1,,,,,マイラ,0
929,4040003021028,新規,0,2022-10-13,2022-10-13,合同会社清基,,合同会社,千葉県,千葉市中央区,末広１丁目１番４－５号,,12,101,2600843,,,,,,,2022-10-13,1,,,,,キヨモト,0
930,4040003021036,新規,0,2022-10-13,2022-10-13,合同会社Ｇｏｋｉｇｅｎ　Ｌａｂ,,合同会社,千葉県,八千代市,大和田新田８８５番地１４,,12,221,2760046,,,,,,,2022-10-13,1,,,,,ゴキゲンラボ,0
932,4050001051810,新規,0,2022-10-13,2022-10-13,株式会社Ｋ’ｓＣＯＭＰＡＮＹ,,株式会社,茨城県,結城郡八千代町,大字大渡戸１４４番地,,08,521,3003515,,,,,,,2022-10-13,1,,,,,ケーズカンパニー,0
939,4070001039696,新規,0,2022-10-13,2022-10-13,株式会社ベッレ,,株式会社,群馬県,桐生市,末広町１０番４号,,10,203,3760045,,,,,,,2022-10-13,1,,,,,ベッレ,0
940,4070001039738,新規,0,2022-10-13,2022-10-13,園部設計株式会社,,株式会社,群馬県,伊勢崎市,茂呂町２丁目７８０番地３,,10,204,3720034,,,,,,,2022-10-13,1,,,,,ソノベセッケイ,0
942,4070003004649,新規,0,2022-10-13,2022-10-13,心合同会社,,合同会社,群馬県,高崎市,箕郷町生原４０７番地１２,,10,202,3703102,,,,,,,2022-10-13,1,,,,,ココロ,0
944,4080001025241,新規,0,2022-10-13,2022-10-13,株式会社サンイチマル,,株式会社,静岡県,静岡市葵区,鷹匠２丁目４番２７－１１２号,,22,101,4200839,,,,,,,2022-10-13,1,,,,,サンイチマル,0
946,4080401026095,新規,0,2022-10-13,2022-10-13,株式会社Ｂｅ　ｈａｐｐｙ,,株式会社,静岡県,袋井市,太郎助３０番地,,22,216,4371116,,,,,,,2022-10-13,1,,,,,ビィハッピイ,0
950,4100001035782,新規,0,2022-10-13,2022-10-13,株式会社ＦＵＴＵＲＥ　ＦＯＸ　ＰＬＡＹ,,株式会社,長野県,下伊那郡松川町,上片桐９８２番地５,,20,402,3993301,,,,,,,2022-10-13,1,,,,,フューチャーフォックスプレイ,0
952,4110001037035,新規,0,2022-10-13,2022-10-13,株式会社ゼロワンリゾーツ,,株式会社,新潟県,新潟市東区,空港西１丁目１５番８号,,15,102,9500036,,,,,,,2022-10-13,1,,,,,ゼロワンリゾーツ,0
971,4120001249364,新規,0,2022-10-13,2022-10-13,株式会社ユウキ工業,,株式会社,大阪府,大阪市西成区,天下茶屋３丁目２３番９号,,27,122,5570014,,,,,,,2022-10-13,1,,,,,ユウキコウギョウ,0
972,4120001249406,新規,0,2022-10-13,2022-10-13,株式会社ＲＥＭ,,株式会社,大阪府,大阪市鶴見区,浜３丁目５番１９号,,27,124,5380035,,,,,,,2022-10-13,1,,,,,リム,0
973,4120001249430,新規,0,2022-10-13,2022-10-13,ＭＢＸ株式会社,,株式会社,大阪府,大阪市東成区,東小橋１丁目１４－６ジェイ・プライド東小橋５０１,,27,115,5370024,,,,,,,2022-10-13,1,,,,,エムビーエックス,0
974,4120001249455,新規,0,2022-10-13,2022-10-13,株式会社ネクストステージプラス,,株式会社,大阪府,大阪市西淀川区,中島１丁目１９番４４号,,27,113,5550041,,,,,,,2022-10-13,1,,,,,ネクストステージプラス,0
975,4120001249471,新規,0,2022-10-13,2022-10-13,株式会社伸和,,株式会社,大阪府,大阪市旭区,中宮２丁目１９番２４号,,27,117,5350003,,,,,,,2022-10-13,1,,,,,シンワ,0
976,4120001249513,新規,0,2022-10-13,2022-10-13,株式会社ジェイ・クオリティ,,株式会社,大阪府,大阪市中央区,南船場２丁目３番４号日宝長堀ビル５０７号,,27,128,5420081,,,,,,,2022-10-13,1,,,,,ジェイクオリティ,0
981,4120003022637,新規,0,2022-10-13,2022-10-13,合同会社ＨＹサービス,,合同会社,大阪府,大阪市生野区,小路２丁目１１番２４号,,27,116,5440002,,,,,,,2022-10-13,1,,,,,エイチワイサービス,0
984,4120005023237,新規,0,2022-10-13,2022-10-13,ＮＰＯ法人ワンツーヒポポ,,その他の設立登記法人,大阪府,大阪市住之江区,粉浜３丁目９－１９,,27,125,5590001,,,,,,,2022-10-13,1,,,,,ワンツーヒポポ,0
990,4120103004881,新規,0,2022-10-13,2022-10-13,合同会社ｋｎ．ｏｗ,,合同会社,大阪府,和泉市,小田町５８６－１－２－３１４,,27,219,5940074,,,,,,,2022-10-13,1,,,,,ノウ,0
991,4120901046605,新規,0,2022-10-13,2022-10-13,株式会社ユガフ,,株式会社,大阪府,豊中市,利倉３丁目８番１２号,,27,203,5610845,,,,,,,2022-10-13,1,,,,,ユガフ,0
993,4122001036305,新規,0,2022-10-13,2022-10-13,バンデエンジニアリング株式会社,,株式会社,大阪府,東大阪市,吉原２丁目１１番２１号,,27,227,5780904,,,,,,,2022-10-13,1,,,,,バンデエンジニアリング,0
995,4122003002429,新規,0,2022-10-13,2022-10-13,シゲ・アデランテ合同会社,,合同会社,大阪府,東大阪市,出雲井町５番８号シャルマンコーポ枚岡公園Ｌ棟３０２号,,27,227,5798033,,,,,,,2022-10-13,1,,,,,シゲアデランテ,0
1001,4130003008230,新規,0,2022-10-13,2022-10-13,合同会社オブジェクト,,合同会社,京都府,木津川市,梅美台３丁目２２番地６,,26,214,6190215,,,,,,,2022-10-13,1,,,,,オブジェクト,0
1005,4140001127659,新規,0,2022-10-13,2022-10-13,株式会社ナカテック,,株式会社,兵庫県,姫路市,飾東町唐端新１番地,,28,201,6710214,,,,,,,2022-10-13,1,,,,,ナカテック,0
1006,4140003018237,新規,0,2022-10-13,2022-10-13,恒原合同会社,,合同会社,兵庫県,神戸市東灘区,向洋町中１丁目１７アジアワンセンター３０４号室,,28,101,6580032,,,,,,,2022-10-13,1,,,,,コウゲン,0
1011,4160001024573,新規,0,2022-10-13,2022-10-13,株式会社近江リフォーム,,株式会社,滋賀県,野洲市,冨波甲８８０番地８,,25,210,5202351,,,,,,,2022-10-13,1,,,,,オウミリフォーム,0
1022,4180001153370,新規,0,2022-10-13,2022-10-13,株式会社オールシエンシア,,株式会社,愛知県,名古屋市中区,丸の内３丁目８番８号山富丸の内ビル５階,,23,106,4600002,,,,,,,2022-10-13,1,,,,,オールシエンシア,0
1025,4180303005468,新規,0,2022-10-13,2022-10-13,合同会社嘉福楼,,合同会社,愛知県,豊橋市,中原町字新瓶焼７番地５,,23,201,4413106,,,,,,,2022-10-13,1,,,,,カフクロウ,0
1033,4210001019122,新規,0,2022-10-13,2022-10-13,株式会社マネプロ,,株式会社,福井県,鯖江市,東鯖江２丁目６－５－２,,18,207,9160041,,,,,,,2022-10-13,1,,,,,マネプロ,0
1034,4220003003379,新規,0,2022-10-13,2022-10-13,合同会社ｗｈｏ　ａｎｄ　ｍｅ,,合同会社,石川県,白山市,湊町ム９２番１,,17,210,9290217,,,,,,,2022-10-13,1,,,,,フーアンドミー,0
1038,4240001060503,新規,0,2022-10-13,2022-10-13,株式会社角田瓦,,株式会社,広島県,広島市安佐北区,可部９丁目１１番３０号,,34,106,7310221,,,,,,,2022-10-13,1,,,,,スミダカワラ,0
1049,4290001099181,新規,0,2022-10-13,2022-10-13,株式会社美スペース,,株式会社,福岡県,福岡市南区,桧原５丁目２１番５号,,40,134,8111355,,,,,,,2022-10-13,1,,,,,ビスペース,0
1050,4290001099207,新規,0,2022-10-13,2022-10-13,ＨＡソリューション株式会社,,株式会社,福岡県,福岡市中央区,荒戸３丁目２番４－１００３号,,40,133,8100062,,,,,,,2022-10-13,1,,,,,エイチエーソリューション,0
1051,4290001099215,新規,0,2022-10-13,2022-10-13,株式会社ＥｓｔａｔｅＧａｒｄｅｎ,,株式会社,福岡県,福岡市南区,西長住２丁目１６番５号,,40,134,8111361,,,,,,,2022-10-13,1,,,,,エステートガーデン,0
1056,4290003013058,新規,0,2022-10-13,2022-10-13,合同会社豊祐不動産,,合同会社,福岡県,福岡市城南区,樋井川１丁目１９番１０号,,40,136,8140153,,,,,,,2022-10-13,1,,,,,ホウユウフドウサン,0
1057,4290005018831,新規,0,2022-10-13,2022-10-13,一般社団法人柳川チャイルド育成クラブ,,その他の設立登記法人,福岡県,柳川市,三橋町下百町２０６番地８,,40,207,8320822,,,,,,,2022-10-13,1,,,,,ヤナガワチャイルドイクセイクラブ,0
1066,4330003009547,新規,0,2022-10-13,2022-10-13,合同会社宮尾刃物鍛錬所,,合同会社,熊本県,水俣市,古賀町２丁目１１番７号,,43,205,8670066,,,,,,,2022-10-13,1,,,,,ミヤオハモノタンレンショ,0
1079,4390001017050,新規,0,2022-10-13,2022-10-13,ヒカル未来株式会社,,株式会社,山形県,山形市,あこや町３丁目６番２４号,,06,201,9900025,,,,,,,2022-10-13,1,,,,,ヒカルミライ,0
1090,4430001087659,新規,0,2022-10-13,2022-10-13,株式会社健成工業,,株式会社,北海道,札幌市北区,屯田六条７丁目４番２７－２０１号,,01,102,0020856,,,,,,,2022-10-13,1,,,,,ケンセイコウギョウ,0
1103,4480005006924,新規,0,2022-10-13,2022-10-13,医療法人Ｂｒｏｔｈｅｒｈｏｏｄ,,その他の設立登記法人,徳島県,徳島市,南庄町５丁目６１番地２３,,36,201,7700045,,,,,,,2022-10-13,1,,,,,ブラザーフッド,0
1113,5010001230103,新規,0,2022-10-13,2022-10-13,株式会社ＡＫＡＲＩ　Ｃ＆Ｉ,,株式会社,東京都,千代田区,外神田２丁目１８番１３号,,13,101,1010021,,,,,,,2022-10-13,1,,,,,アカリシーアンドアイ,0
1114,5010001230111,新規,0,2022-10-13,2022-10-13,ｐｅｐｅ株式会社,,株式会社,東京都,中央区,銀座６丁目１３番１６号銀座ＷａｌｌビルＵＣＦ５０１,,13,102,1040061,,,,,,,2022-10-13,1,,,,,ペペ,0
1117,5010003038858,新規,0,2022-10-13,2022-10-13,合同会社メゾン・ベージュ,,合同会社,東京都,中央区,日本橋室町１丁目２－６日本橋大栄ビル７階,,13,102,1030022,,,,,,,2022-10-13,1,,,,,メゾンベージュ,0
1118,5010003038866,新規,0,2022-10-13,2022-10-13,合同会社ＮＩＳＩＣＯ,,合同会社,東京都,中央区,日本橋小伝馬町１４－５メローナ日本橋１００２号,,13,102,1030001,,,,,,,2022-10-13,1,,,,,ニシコ,0
1125,5010405021437,新規,0,2022-10-13,2022-10-13,一般社団法人日本ライポライフ協会,,その他の設立登記法人,東京都,港区,南麻布５丁目１５番２号,,13,103,1060047,,,,,,,2022-10-13,1,,,,,ニホンライポライフキョウカイ,0
1127,5010501049431,新規,0,2022-10-13,2022-10-13,マスターオール株式会社,,株式会社,東京都,台東区,上野３丁目１６番２号天翔オフィス上野末広町６０５－Ｅ号室,,13,106,1100005,,,,,,,2022-10-13,1,,,,,マスターオール,0
1129,5010601061988,新規,0,2022-10-13,2022-10-13,宗千株式会社,,株式会社,東京都,江東区,北砂６丁目２０番３３号,,13,108,1360073,,,,,,,2022-10-13,1,,,,,シュウゼン,0
1130,5010605004142,新規,0,2022-10-13,2022-10-13,税理士法人宇津木・向井会計,,その他の設立登記法人,東京都,江東区,亀戸６丁目２０番８号第五共立ビル２０２号室,,13,108,1360071,,,,,,,2022-10-13,1,,,,,ウツギムカイカイケイ,0
1136,5010901051771,新規,0,2022-10-13,2022-10-13,株式会社ＦＯＮＡ,,株式会社,東京都,世田谷区,三軒茶屋２丁目１３番７号２Ｆ,,13,112,1540024,,,,,,,2022-10-13,1,,,,,エフオーエヌエー,0
1144,5011001150191,新規,0,2022-10-13,2022-10-13,あつまる株式会社,,株式会社,東京都,渋谷区,渋谷１丁目８番５号,,13,113,1500002,,,,,,,2022-10-13,1,,,,,アツマル,0
1145,5011001150209,新規,0,2022-10-13,2022-10-13,輝音株式会社,,株式会社,東京都,渋谷区,渋谷１丁目１９番１８－１９０８号,,13,113,1500002,,,,,,,2022-10-13,1,,,,,キオン,0
1146,5011001150225,新規,0,2022-10-13,2022-10-13,株式会社春花,,株式会社,東京都,渋谷区,神宮前６丁目２９番４号原宿ｋｏｍｉｙａビル６階,,13,113,1500001,,,,,,,2022-10-13,1,,,,,ハルハナ,0
1147,5011001150233,新規,0,2022-10-13,2022-10-13,株式会社ＩＮＦＩＮＩＴＹ,,株式会社,東京都,渋谷区,代々木１丁目５８番７号ヴェラハイツ代々木３０５,,13,113,1510053,,,,,,,2022-10-13,1,,,,,,0
1148,5011001150241,新規,0,2022-10-13,2022-10-13,株式会社Ｓ,,株式会社,東京都,渋谷区,恵比寿４丁目２３番８号ＫＯＨＧＡ．ＢＬＤＧ１階,,13,113,1500013,,,,,,,2022-10-13,1,,,,,エス,0
1149,5011003015483,新規,0,2022-10-13,2022-10-13,合同会社アリス,,合同会社,東京都,渋谷区,本町１丁目５０番９号ブルーノ初台Ａ３０３,,13,113,1510071,,,,,,,2022-10-13,1,,,,,アリス,0
1150,5011003015491,新規,0,2022-10-13,2022-10-13,合同会社ハックベース,,合同会社,東京都,渋谷区,道玄坂１丁目１０番８号渋谷道玄坂東急ビル２Ｆ－Ｃ,,13,113,1500043,,,,,,,2022-10-13,1,,,,,ハックベース,0
1151,5011003015500,新規,0,2022-10-13,2022-10-13,ワドフラ合同会社,,合同会社,東京都,渋谷区,恵比寿４丁目２０番４号恵比寿ガーデンプレイスポータルポイントＬＢ－３７,,13,113,1500013,,,,,,,2022-10-13,1,,,,,ワドフラ,0
1152,5011003015517,新規,0,2022-10-13,2022-10-13,マッチリング合同会社,,合同会社,東京都,目黒区,目黒１丁目９番１２号Ｚｉｅｇｅｌ目黒１０２,,13,110,1530063,,,,,,,2022-10-13,1,,,,,,0
1153,5011003015525,新規,0,2022-10-13,2022-10-13,合同会社Ｌａｚｙ＆Ｄｕｌｌ,,合同会社,東京都,渋谷区,富ヶ谷１丁目３８－１５フォルム代々木公園１０５号室,,13,113,1510063,,,,,,,2022-10-13,1,,,,,レイジーアンドダル,0
1161,5011601006421,新規,0,2022-10-13,2022-10-13,丸平木材株式会社,,株式会社,東京都,練馬区,高松１丁目３８番１７号,,13,120,1790075,,,,,,,2022-10-13,1,,,,,マルヘイモクザイ,0
1165,5012401039743,新規,0,2022-10-13,2022-10-13,株式会社ワイズドットコム,,株式会社,東京都,調布市,小島町２丁目５１番２号寿ビル２階,,13,208,1820026,,,,,,,2022-10-13,1,,,,,ワイズドットコム,0
1170,5013301049782,新規,0,2022-10-13,2022-10-13,株式会社ＳＣＫ,,株式会社,東京都,豊島区,巣鴨１丁目１７番３号子野ビル４０１号室,,13,116,1700002,,,,,,,2022-10-13,1,,,,,エスシーケー,0
1184,5020001148451,新規,0,2022-10-13,2022-10-13,株式会社トレンディーオ,,株式会社,神奈川県,横浜市港北区,新吉田東３丁目２番１２－７０９号,,14,109,2230058,,,,,,,2022-10-13,1,,,,,トレンディーオ,0
1185,5020001148534,新規,0,2022-10-13,2022-10-13,株式会社永遠,,株式会社,神奈川県,横浜市緑区,北八朔町１８６番地オーチャード・アパートメントＢ棟１０４号,,14,113,2260021,,,,,,,2022-10-13,1,,,,,トワ,0
1189,5020003022539,新規,0,2022-10-13,2022-10-13,合同会社ＣＲＡ,,合同会社,神奈川県,横浜市戸塚区,上倉田町１０２４番地２,,14,110,2440816,,,,,,,2022-10-13,1,,,,,シーアールエー,0
1193,5021001077186,新規,0,2022-10-13,2022-10-13,株式会社愛羽冷熱工業,,株式会社,神奈川県,横須賀市,吉井３丁目６番４号シャルマン１０２,,14,201,2390804,,,,,,,2022-10-13,1,,,,,ミワレイネツコウギョウ,0
1202,5030001150506,新規,0,2022-10-13,2022-10-13,ＴｏｋｙｏＤｅｖ株式会社,,株式会社,埼玉県,入間郡毛呂山町,前久保南１丁目８番地１４,,11,326,3500463,,,,,,,2022-10-13,1,,,,,トウキョウデヴ,0
1210,5040001125399,新規,0,2022-10-13,2022-10-13,株式会社浜野青果,,株式会社,千葉県,八千代市,勝田台１丁目３０番地京成サンコーポ勝田台Ｃ棟１０９,,12,221,2760023,,,,,,,2022-10-13,1,,,,,ハマノセイカ,0
1211,5040001125424,新規,0,2022-10-13,2022-10-13,加日商事株式会社,,株式会社,千葉県,大網白里市,みどりが丘３丁目１２番地３,,12,239,2993255,,,,,,,2022-10-13,1,,,,,カヒショウジ,0
1213,5040003021002,新規,0,2022-10-13,2022-10-13,Ｈ．Ｌ．Ｓｔｉｔｃｈ合同会社,,合同会社,千葉県,野田市,山崎２７０４－３４２,,12,208,2780022,,,,,,,2022-10-13,1,,,,,エイチエルスティッチ,0
1214,5040003021010,新規,0,2022-10-13,2022-10-13,合同会社シックス,,合同会社,千葉県,柏市,旭町３丁目３番２５号恩田コーポ１０３,,12,217,2770852,,,,,,,2022-10-13,1,,,,,シックス,0
1215,5040003021035,新規,0,2022-10-13,2022-10-13,Ｒｅｍｉｌｅ合同会社,,合同会社,千葉県,柏市,柏３丁目１０－３０第３泉ビル５０７,,12,217,2770005,,,,,,,2022-10-13,1,,,,,リマイル,0
1228,5060001035340,新規,0,2022-10-13,2022-10-13,株式会社ビッグガーデン,,株式会社,栃木県,宇都宮市,宝木本町１８３５番地５７,,09,201,3200075,,,,,,,2022-10-13,1,,,,,ビッグガーデン,0
1233,5070001039720,新規,0,2022-10-13,2022-10-13,株式会社セカンドアクト,,株式会社,群馬県,伊勢崎市,三室町５７２１番地１,,10,204,3792235,,,,,,,2022-10-13,1,,,,,セカンドアクト,0
1238,5100001035781,新規,0,2022-10-13,2022-10-13,株式会社彩,,株式会社,長野県,松本市,波田５７１２番地１５５,,20,202,3901401,,,,,,,2022-10-13,1,,,,,イロドリ,0
1242,5110001037034,新規,0,2022-10-13,2022-10-13,株式会社ナックジャパン,,株式会社,新潟県,新潟市東区,空港西１丁目１５番８号,,15,102,9500036,,,,,,,2022-10-13,1,,,,,ナックジャパン,0
1252,5120001249231,新規,0,2022-10-13,2022-10-13,翼トレーディング株式会社,,株式会社,大阪府,大阪市中央区,天満橋京町１番２４号ストーク児島ビル９０１,,27,128,5400032,,,,,,,2022-10-13,1,,,,,ツバサトレーディング,0
1253,5120001249470,新規,0,2022-10-13,2022-10-13,株式会社大吉大利,,株式会社,大阪府,大阪市淀川区,十三本町２丁目３番２０号,,27,123,5320024,,,,,,,2022-10-13,1,,,,,ダジダリ,0
1254,5120001249479,新規,0,2022-10-13,2022-10-13,太陽化学株式会社,,株式会社,大阪府,大阪市阿倍野区,昭和町２丁目１０番６号ＥＳＴ－１・３０５号室,,27,119,5450011,,,,,,,2022-10-13,1,,,,,タイヨウカガク,0
1255,5120001249487,新規,0,2022-10-13,2022-10-13,株式会社ＳＴＥＬＬＡＲ,,株式会社,大阪府,大阪市北区,浪花町５番１５号天五高田ビル６Ｆ,,27,127,5300022,,,,,,,2022-10-13,1,,,,,ステラ,0
1256,5120001249520,新規,0,2022-10-13,2022-10-13,エースプラン株式会社,,株式会社,大阪府,大阪市中央区,島之内２丁目１５番１６号堺筋道頓堀グリーンコーポラス２０３号,,27,128,5420082,,,,,,,2022-10-13,1,,,,,エースプラン,0
1261,5120003022644,新規,0,2022-10-13,2022-10-13,九果合同会社,,合同会社,大阪府,大阪市淀川区,西宮原１丁目７番１５号ネオハイツ第３新大阪５０６号室,,27,123,5320004,,,,,,,2022-10-13,1,,,,,キュウカ,0
1265,5120101066361,新規,0,2022-10-13,2022-10-13,Ｓ＆Ｄベースサポート株式会社,,株式会社,大阪府,堺市堺区,中田出井町２丁３番１７号,,27,141,5900016,,,,,,,2022-10-13,1,,,,,エスアンドディーベースサポート,0
1271,5130001072756,新規,0,2022-10-13,2022-10-13,株式会社幸輝,,株式会社,京都府,京都市北区,等持院南町１９番地６,,26,101,6038344,,,,,,,2022-10-13,1,,,,,コウキ,0
1272,5130001072772,新規,0,2022-10-13,2022-10-13,株式会社ＳＣ,,株式会社,京都府,京都市中京区,東木屋町通四条上る鍋屋町２１５番地,,26,104,6048015,,,,,,,2022-10-13,1,,,,,エスシー,0
1281,5140001127732,新規,0,2022-10-13,2022-10-13,株式会社ｚｉｎｇ　ｍｕｓｉｃ　ｌａｂ,,株式会社,兵庫県,神戸市東灘区,本庄町１丁目１６番１４－２０１号,,28,101,6580012,,,,,,,2022-10-13,1,,,,,ジングミュージックラボ,0
1283,5140003018236,新規,0,2022-10-13,2022-10-13,ｌ’ｏｒｅｉｌｌｅ．合同会社,,合同会社,兵庫県,神戸市垂水区,舞子坂４丁目７番２号,,28,108,6550044,,,,,,,2022-10-13,1,,,,,ロレイユ,0
1284,5150001025877,新規,0,2022-10-13,2022-10-13,株式会社東建設,,株式会社,奈良県,奈良市,南京終町２丁目２６２番地の１イングス奈良大安寺５０５号,,29,201,6308141,,,,,,,2022-10-13,1,,,,,アズマケンセツ,0
1286,5160001024531,新規,0,2022-10-13,2022-10-13,株式会社ＣＢＨＰ,,株式会社,滋賀県,大津市,一里山１丁目５番２４－２０６号,,25,201,5202153,,,,,,,2022-10-13,1,,,,,シービーエイチピー,0
1290,5180001153361,新規,0,2022-10-13,2022-10-13,株式会社ヤナギ鮮魚販売,,株式会社,愛知県,常滑市,新開町３丁目６０番地,,23,216,4790837,,,,,,,2022-10-13,1,,,,,ヤナギセンギョハンバイ,0
1291,5180001153411,新規,0,2022-10-13,2022-10-13,株式会社ｉ‐ｃｕｂｅ,,株式会社,愛知県,日進市,竹の山１丁目６１３番地,,23,230,4700136,,,,,,,2022-10-13,1,,,,,アイキューブ,0
1303,5200001040540,新規,0,2022-10-13,2022-10-13,株式会社エスジェイケイ,,株式会社,岐阜県,多治見市,市之倉町１２丁目３５３番地の２６４,,21,204,5070814,,,,,,,2022-10-13,1,,,,,エスジェイケイ,0
1307,5220003003378,新規,0,2022-10-13,2022-10-13,合同会社楽笑,,合同会社,石川県,金沢市,八日市２丁目８５‐５,,17,201,9218064,,,,,,,2022-10-13,1,,,,,ラクショウ,0
1308,5220005008706,新規,0,2022-10-13,2022-10-13,社会福祉法人すず椿,,その他の設立登記法人,石川県,珠洲市,飯田町５部９番地,,17,205,9271214,,,,,,,2022-10-13,1,,,,,スズツバキ,0
1315,5240003005851,新規,0,2022-10-13,2022-10-13,ＷＡＮＩＣＯ合同会社,,合同会社,広島県,広島市中区,光南４丁目２番２８号,,34,101,7300825,,,,,,,2022-10-13,1,,,,,ワニコ,0
1325,5290003013040,新規,0,2022-10-13,2022-10-13,合同会社トロイメライ,,合同会社,福岡県,久留米市,小森野４丁目１９番２０号,,40,203,8300001,,,,,,,2022-10-13,1,,,,,トロイメライ,0
1326,5290003013057,新規,0,2022-10-13,2022-10-13,合同会社Ｗｅｌｌ　Ｙｅｌｌ,,合同会社,福岡県,福岡市博多区,博多駅南６丁目８－３０－１０２０,,40,132,8120016,,,,,,,2022-10-13,1,,,,,ウェルエール,0
1332,5330001030198,新規,0,2022-10-13,2022-10-13,株式会社ＦＨプランニング,,株式会社,熊本県,熊本市西区,春日２丁目９番８－１４０１号,,43,103,8600047,,,,,,,2022-10-13,1,,,,,エフエイチプランニング,0
1334,5330003009546,新規,0,2022-10-13,2022-10-13,合同会社ＦｏｒＳｍｉｌｅ,,合同会社,熊本県,八代市,郡築十番町４１番地２,,43,202,8660003,,,,,,,2022-10-13,1,,,,,フォースマイル,0
1337,5360001031053,新規,0,2022-10-13,2022-10-13,株式会社ＤＩＶＥＩＮ沖縄,,株式会社,沖縄県,那覇市,壺屋２丁目１８－１壺屋店舗１０１,,47,201,9020065,,,,,,,2022-10-13,1,,,,,ダイブインオキナワ,0
1338,5360003012365,新規,0,2022-10-13,2022-10-13,サーライト合同会社,,合同会社,沖縄県,名護市,宇茂佐の森５丁目７番地２,,47,209,9050009,,,,,,,2022-10-13,1,,,,,サーライト,0
1383,6010001230102,新規,0,2022-10-13,2022-10-13,八王子西スマートグリッド株式会社,,株式会社,東京都,中央区,日本橋室町４丁目５番１号,,13,102,1030022,,,,,,,2022-10-13,1,,,,,ハチオウジニシスマートグリッド,0
1384,6010001230135,新規,0,2022-10-13,2022-10-13,株式会社ファムソル,,株式会社,東京都,千代田区,九段南１丁目５番６号りそな九段ビル５ＦＫＳフロア,,13,101,1020074,,,,,,,2022-10-13,1,,,,,ファムソル,0
1388,6010101015361,新規,0,2022-10-13,2022-10-13,株式会社嶺興業,,株式会社,東京都,八王子市,大楽寺町５１６番地,,13,201,1930816,,,,,,,2022-10-13,1,,,,,ミネコウギョウ,0
1396,6010403028706,新規,0,2022-10-13,2022-10-13,江坂インベストメンツ２合同会社,,合同会社,東京都,港区,六本木１丁目６番１号泉ガーデンタワー,,13,103,1060032,,,,,,,2022-10-13,1,,,,,エサカインベストメンツツー,0
1397,6010601061987,新規,0,2022-10-13,2022-10-13,華柔株式会社,,株式会社,東京都,墨田区,押上１丁目１５番２－４０１号,,13,107,1310045,,,,,,,2022-10-13,1,,,,,カジュウ,0
1403,6010901051762,新規,0,2022-10-13,2022-10-13,晶愛株式会社,,株式会社,東京都,世田谷区,太子堂５丁目２－１１ライオンズマンション三軒茶屋第七１０１号室,,13,112,1540004,,,,,,,2022-10-13,1,,,,,ショウアイ,0
1410,6011001150166,新規,0,2022-10-13,2022-10-13,株式会社ＦｒｅｅｌｙＴｅｃｈ,,株式会社,東京都,渋谷区,神宮前６丁目２３番４号桑野ビル２階,,13,113,1500001,,,,,,,2022-10-13,1,,,,,フリーリーテック,0
1411,6011001150265,新規,0,2022-10-13,2022-10-13,株式会社ＮＩＮＯＸ,,株式会社,東京都,渋谷区,渋谷３丁目５番１６号渋谷三丁目スクエアビル２階,,13,113,1500002,,,,,,,2022-10-13,1,,,,,ニノックス,0
1412,6011003015499,新規,0,2022-10-13,2022-10-13,合同会社Ｊａｚｚ＆Ｃｏｍｐａｎｙ,,合同会社,東京都,目黒区,洗足１丁目１５－１３クラッシィハウス目黒洗足３２０,,13,110,1520012,,,,,,,2022-10-13,1,,,,,ジャズアンドカンパニー,0
1413,6011003015516,新規,0,2022-10-13,2022-10-13,合同会社ＲＩＣＥ　ＰＡＤＤＹ,,合同会社,東京都,目黒区,八雲３丁目２９番２０号,,13,110,1520023,,,,,,,2022-10-13,1,,,,,ライスパディ,0
1414,6011003015524,新規,0,2022-10-13,2022-10-13,合同会社ＦＲＯＮＴＩＥＲ,,合同会社,東京都,渋谷区,渋谷１丁目８番５号,,13,113,1500002,,,,,,,2022-10-13,1,,,,,フロンティア,0
1422,6011201024137,新規,0,2022-10-13,2022-10-13,株式会社ＭＩＤ,,株式会社,東京都,中野区,大和町１丁目４０番１号,,13,114,1650034,,,,,,,2022-10-13,1,,,,,エムアイディ,0
1425,6011301028161,新規,0,2022-10-13,2022-10-13,賽博朋克株式会社,,株式会社,東京都,杉並区,梅里２丁目２５番１３号高円寺プラザ２１２号,,13,115,1660011,,,,,,,2022-10-13,1,,,,,サイハクトモカツ,0
1427,6011401024597,新規,0,2022-10-13,2022-10-13,株式会社ＧＸ企画,,株式会社,東京都,板橋区,中丸町９番１号,,13,119,1730026,,,,,,,2022-10-13,1,,,,,ジーエックスキカク,0
1438,6012801021894,新規,0,2022-10-13,2022-10-13,株式会社ジェイライフ,,株式会社,東京都,東大和市,湖畔１丁目９０９番地の１レアル２０２,,13,220,2070002,,,,,,,2022-10-13,1,,,,,ジェイライフ,0
1448,6020001148533,新規,0,2022-10-13,2022-10-13,株式会社ＴＨＲＥＥ　ＳＥＳＳＩＯＮＳ,,株式会社,神奈川県,川崎市麻生区,細山６丁目２－１１エクセランオール２０１,,14,137,2150001,,,,,,,2022-10-13,1,,,,,スリーセッションズ,0
1449,6020001148541,新規,0,2022-10-13,2022-10-13,株式会社Ｍ＆Ｄ,,株式会社,神奈川県,川崎市中原区,市ノ坪３４番地１７,,14,133,2110016,,,,,,,2022-10-13,1,,,,,エムアンドディー,0
1451,6020003022554,新規,0,2022-10-13,2022-10-13,合同会社カナショウ,,合同会社,神奈川県,横浜市神奈川区,六角橋６丁目２５番１７号,,14,102,2210802,,,,,,,2022-10-13,1,,,,,カナショウ,0
1457,6021001077152,新規,0,2022-10-13,2022-10-13,株式会社ハラールサービスジャパン,,株式会社,神奈川県,綾瀬市,吉岡東５丁目５番４１号,,14,218,2521125,,,,,,,2022-10-13,1,,,,,ハラールサービスジャパン,0
1458,6021005012634,新規,0,2022-10-13,2022-10-13,一般社団法人ホームみんなの学校,,その他の設立登記法人,神奈川県,藤沢市,片瀬山２丁目１８番１４号,,14,205,2510033,,,,,,,2022-10-13,1,,,,,ホームミンナノガッコウ,0
1462,6030001150513,新規,0,2022-10-13,2022-10-13,株式会社Ａｃｈｔｇｒａｍ,,株式会社,埼玉県,川口市,北原台２丁目１０番２１－３号,,11,203,3330815,,,,,,,2022-10-13,1,,,,,アハトグラム,0
1463,6030001150521,新規,0,2022-10-13,2022-10-13,呂家株式会社,,株式会社,埼玉県,川口市,西川口１丁目２３－１９上州屋ビル,,11,203,3320021,,,,,,,2022-10-13,1,,,,,ロカ,0
1464,6030001150538,新規,0,2022-10-13,2022-10-13,株式会社ＮＥＸＴｉ,,株式会社,埼玉県,本庄市,駅南２丁目２７番１０号ＥＳＴビル２階Ａ,,11,211,3670041,,,,,,,2022-10-13,1,,,,,ネクストアイ,0
1465,6030001150562,新規,0,2022-10-13,2022-10-13,エスケープランニング株式会社,,株式会社,埼玉県,戸田市,早瀬２丁目２７番７号,,11,224,3350036,,,,,,,2022-10-13,1,,,,,エスケープランニング,0
1474,6040001125308,新規,0,2022-10-13,2022-10-13,株式会社クリアテック,,株式会社,千葉県,白井市,七次台３丁目４７番２３号,,12,232,2701436,,,,,,,2022-10-13,1,,,,,クリアテック,0
1475,6040001125407,新規,0,2022-10-13,2022-10-13,金城商事株式会社,,株式会社,千葉県,習志野市,香澄１丁目３番７－４０５号,,12,216,2750022,,,,,,,2022-10-13,1,,,,,カネシロショウジ,0
1476,6040001125415,新規,0,2022-10-13,2022-10-13,株式会社加藤工業,,株式会社,千葉県,木更津市,清見台南２丁目１５番１４号フラット大谷Ｂ１０１,,12,206,2920042,,,,,,,2022-10-13,1,,,,,カトウコウギョウ,0
1477,6040001125423,新規,0,2022-10-13,2022-10-13,株式会社シーカム,,株式会社,千葉県,千葉市花見川区,花園１丁目１０番１号岩井店舗２０２号室,,12,102,2620025,,,,,,,2022-10-13,1,,,,,シーカム,0
1478,6040001125431,新規,0,2022-10-13,2022-10-13,にゃんでもペイント株式会社,,株式会社,千葉県,市原市,諏訪１丁目１番地１プレシア３０５,,12,219,2900026,,,,,,,2022-10-13,1,,,,,ニャンデモペイント,0
1483,6040003021018,新規,0,2022-10-13,2022-10-13,合同会社ピースエンジ,,合同会社,千葉県,富津市,青木２丁目１３番地６Ｆ,,12,226,2930012,,,,,,,2022-10-13,1,,,,,ピースエンジ,0
1484,6050001051809,新規,0,2022-10-13,2022-10-13,デプスインヴィジャパン株式会社,,株式会社,茨城県,水戸市,平須町１３２５番地の３１,,08,201,3100853,,,,,,,2022-10-13,1,,,,,デプスインヴィジャパン,0
1492,6070001039736,新規,0,2022-10-13,2022-10-13,めぶくグラウンド株式会社,,株式会社,群馬県,前橋市,表町２丁目３０番８号ＡＱＥＲＵ６Ｆ,,10,201,3710024,,,,,,,2022-10-13,1,,,,,メブクグラウンド,0
1495,6070003004647,新規,0,2022-10-13,2022-10-13,合同会社Ｒ,,合同会社,群馬県,前橋市,天川大島町３丁目４－１６グランノワール１０１,,10,201,3792154,,,,,,,2022-10-13,1,,,,,アール,0
1501,6100001035780,新規,0,2022-10-13,2022-10-13,株式会社ｂｒｉｇｈｔ　ｓｉｄｅ,,株式会社,長野県,飯田市,上郷別府３３２４番地２３,,20,205,3950003,,,,,,,2022-10-13,1,,,,,ブライトサイド,0
1506,6110001037033,新規,0,2022-10-13,2022-10-13,株式会社ＧＴＣクリエイト,,株式会社,新潟県,新潟市中央区,八千代１丁目３番２６号アパガーデンコート万代８０３号,,15,103,9500909,,,,,,,2022-10-13,1,,,,,ジーティーシークリエイト,0
1507,6110001037041,新規,0,2022-10-13,2022-10-13,株式会社石本商店,,株式会社,新潟県,新潟市江南区,袋津２丁目３番１１号,,15,104,9500131,,,,,,,2022-10-13,1,,,,,イシモトショウテン,0
1521,6120001249429,新規,0,2022-10-13,2022-10-13,株式会社ＬＯＣＡＬ　ＳＴＡＲ　ＥＮＴＥＲＴＡＩＮＭＥＮＴ,,株式会社,大阪府,大阪市住之江区,西加賀屋１丁目２番５６－３２１号,,27,125,5590016,,,,,,,2022-10-13,1,,,,,ローカルスターエンターテイメント,0
1522,6120001249478,新規,0,2022-10-13,2022-10-13,クレイジージャパン株式会社,,株式会社,大阪府,大阪市北区,梅田２丁目２番２号ヒルトンプラザウエスト１９階,,27,127,5300001,,,,,,,2022-10-13,1,,,,,クレイジージャパン,0
1523,6120001249486,新規,0,2022-10-13,2022-10-13,株式会社ダブルウィン,,株式会社,大阪府,大阪市北区,天満橋１丁目４番１４号天満橋ビル２０５号,,27,127,5300042,,,,,,,2022-10-13,1,,,,,ダブルウィン,0
1524,6120001249503,新規,0,2022-10-13,2022-10-13,万紅株式会社,,株式会社,大阪府,大阪市東成区,深江北３丁目４番２１号エクラ深江橋７１２Ａ,,27,115,5370001,,,,,,,2022-10-13,1,,,,,バンコウ,0
1525,6120001249528,新規,0,2022-10-13,2022-10-13,関西マネジメント株式会社,,株式会社,大阪府,大阪市浪速区,下寺３丁目３番１２号,,27,111,5560001,,,,,,,2022-10-13,1,,,,,カンサイマネジメント,0
1527,6120003022627,新規,0,2022-10-13,2022-10-13,合同会社ＰＨＵＯＮＧ　ＴＨＡＯ,,合同会社,大阪府,大阪市浪速区,下寺１丁目４番７号,,27,111,5560001,,,,,,,2022-10-13,1,,,,,フォンタオ,0
1535,6120101066328,新規,0,2022-10-13,2022-10-13,株式会社まなべる,,株式会社,大阪府,堺市堺区,緑ヶ丘北町２丁３番２１号,,27,141,5900806,,,,,,,2022-10-13,1,,,,,マナベル,0
1536,6120101066344,新規,0,2022-10-13,2022-10-13,株式会社エスティプリーズ,,株式会社,大阪府,羽曳野市,恵我之荘５丁目２番１１号,,27,222,5830886,,,,,,,2022-10-13,1,,,,,エスティプリーズ,0
1537,6120101066369,新規,0,2022-10-13,2022-10-13,株式会社西川建設,,株式会社,大阪府,和泉市,伏屋町３丁目１５番５０－２０３号,,27,219,5940031,,,,,,,2022-10-13,1,,,,,ニシカワケンセツ,0
1542,6120901046603,新規,0,2022-10-13,2022-10-13,株式会社ＴＳ,,株式会社,大阪府,摂津市,鳥飼下３丁目１１番７号,,27,224,5660071,,,,,,,2022-10-13,1,,,,,ティエス,0
1547,6130001072788,新規,0,2022-10-13,2022-10-13,株式会社超世界,,株式会社,京都府,京都市右京区,嵯峨野六反田町１３番地１５,,26,108,6168327,,,,,,,2022-10-13,1,,,,,チョウセカイ,0
1548,6130001072796,新規,0,2022-10-13,2022-10-13,株式会社Ｏｎｅ　ＳＴＥＰ,,株式会社,京都府,京都市右京区,山ノ内荒木町１１番地,,26,108,6150073,,,,,,,2022-10-13,1,,,,,ワンステップ,0
1551,6140001127649,新規,0,2022-10-13,2022-10-13,株式会社ジュニア,,株式会社,兵庫県,姫路市,広畑区小坂３０３番地４,,28,201,6711156,,,,,,,2022-10-13,1,,,,,ジュニア,0
1552,6140001127665,新規,0,2022-10-13,2022-10-13,株式会社Ｎｏｕｎｏｕ,,株式会社,兵庫県,神戸市中央区,元町通４丁目４番７号ｓｅｓｓｉｏｎｓ２Ｆ,,28,110,6500022,,,,,,,2022-10-13,1,,,,,ヌーヌー,0
1553,6140001127698,新規,0,2022-10-13,2022-10-13,株式会社ＣＯＣＯＩＥ’工房,,株式会社,兵庫県,加古川市,平岡町高畑４－１イオンタウン東加古川ＳＣ内,,28,210,6750103,,,,,,,2022-10-13,1,,,,,ココイエコウボウ,0
1554,6140001127707,新規,0,2022-10-13,2022-10-13,株式会社ＴＣ８８,,株式会社,兵庫県,神戸市東灘区,向洋町東３丁目６,,28,101,6580031,,,,,,,2022-10-13,1,,,,,ティーシーハチハチ,0
1561,6160001024571,新規,0,2022-10-13,2022-10-13,株式会社クールプラン,,株式会社,滋賀県,野洲市,西河原２４５０,,25,210,5202423,,,,,,,2022-10-13,1,,,,,クールプラン,0
1563,6170001017327,新規,0,2022-10-13,2022-10-13,ＮＡＫＡ左官株式会社,,株式会社,和歌山県,和歌山市,西庄８１番地１０,,30,201,6400112,,,,,,,2022-10-13,1,,,,,ナカサカン,0
1568,6180001153352,新規,0,2022-10-13,2022-10-13,株式会社アイラック,,株式会社,愛知県,弥富市,前ケ須町南本田５１９番地,,23,235,4980017,,,,,,,2022-10-13,1,,,,,アイラック,0
1569,6180001153377,新規,0,2022-10-13,2022-10-13,株式会社サンライト,,株式会社,愛知県,稲沢市,平和町下起中２２６番地３,,23,220,4901323,,,,,,,2022-10-13,1,,,,,,0
1570,6180001153443,新規,0,2022-10-13,2022-10-13,株式会社ハンズオン,,株式会社,愛知県,名古屋市東区,徳川２丁目２１番６号,,23,102,4610025,,,,,,,2022-10-13,1,,,,,ハンズオン,0
1574,6180301036728,新規,0,2022-10-13,2022-10-13,壽々喜調査設計株式会社,,株式会社,愛知県,岡崎市,江口３丁目１番地１６,,23,202,4440843,,,,,,,2022-10-13,1,,,,,スズキチョウサセッケイ,0
1589,6240001060484,新規,0,2022-10-13,2022-10-13,ＳＥＴＨＵＫＩ　ＩＮＴＥＲＮＡＴＩＯＮＡＬ株式会社,,株式会社,広島県,東広島市,西条町御薗宇１１０００番地１３ファミール南２０２号,,34,212,7390024,,,,,,,2022-10-13,1,,,,,セトゥキインターナショナル,0
1597,6260005011151,新規,0,2022-10-13,2022-10-13,ＮＰＯ法人女性起業家支援団体シェア会,,その他の設立登記法人,岡山県,岡山市北区,吉備津２１４２番地１,,33,101,7011341,,,,,,,2022-10-13,1,,,,,ジョセイキギョウカシエンダンタイシェアカイ,0
1600,6280003001656,新規,0,2022-10-13,2022-10-13,出雲デジタル合同会社,,合同会社,島根県,出雲市,今市町１３９番地７,,32,203,6930001,,,,,,,2022-10-13,1,,,,,イズモデジタル,0
1604,6290001099205,新規,0,2022-10-13,2022-10-13,Ｐｈｏｅｎｉｘ　Ｃｌｏｕｄ株式会社,,株式会社,福岡県,福岡市中央区,天神４丁目６番２８号,,40,133,8100001,,,,,,,2022-10-13,1,,,,,フェニックスクラウド,0
1605,6290001099213,新規,0,2022-10-13,2022-10-13,株式会社誠美,,株式会社,福岡県,大牟田市,不知火町３丁目２番地４,,40,202,8360843,,,,,,,2022-10-13,1,,,,,セイビ,0
1606,6290003013048,新規,0,2022-10-13,2022-10-13,合同会社ＭＩＮＤＳＴＵＤＳ,,合同会社,福岡県,福岡市中央区,大名１丁目１０番３３号東峰マンション大名７０１号,,40,133,8100041,,,,,,,2022-10-13,1,,,,,マインドスタッズ,0
1607,6290003013056,新規,0,2022-10-13,2022-10-13,キックス合同会社,,合同会社,福岡県,筑紫野市,二日市北６丁目５番２３号,,40,217,8180056,,,,,,,2022-10-13,1,,,,,キックス,0
1611,6310005008638,新規,0,2022-10-13,2022-10-13,一般社団法人まちづくりネットワーク,,その他の設立登記法人,長崎県,西彼杵郡時津町,浦郷２７０番地３柳原ビル２階,,42,308,8512105,,,,,,,2022-10-13,1,,,,,マチヅクリネットワーク,0
1617,6330001030148,新規,0,2022-10-13,2022-10-13,Ｚｉｌｌｉｏｎ　Ｔｅｋ　Ｊａｐａｎ株式会社,,株式会社,熊本県,熊本市中央区,新市街１－２８,,43,101,8600803,,,,,,,2022-10-13,1,,,,,ジリオンテックジャパン,0
1618,6330001030156,新規,0,2022-10-13,2022-10-13,雅株式会社,00128123,株式会社,熊本県,八代市,千丁町古閑出７４１番地,,43,202,8694704,,,,,,,2022-10-13,1,,,,,ミヤビ,0
1619,6330001030197,新規,0,2022-10-13,2022-10-13,きりしま創建株式会社,,株式会社,熊本県,菊池市,泗水町吉富１９番地,,43,210,8611201,,,,,,,2022-10-13,1,,,,,キリシマソウケン,0
1622,6340001025097,新規,0,2022-10-13,2022-10-13,株式会社ディアートラスト,,株式会社,鹿児島県,霧島市,隼人町神宮２丁目７番６８－３０７号サンハウス,,46,218,8995121,,,,,,,2022-10-13,1,,,,,ディアートラスト,0
1624,6350001017993,新規,0,2022-10-13,2022-10-13,株式会社リモワ,,株式会社,宮崎県,宮崎市,橘通西１丁目２番２５号橘パークビル１階,,45,201,8800001,,,,,,,2022-10-13,1,,,,,リモワ,0
1635,6380005012633,新規,0,2022-10-13,2022-10-13,特定非営利活動法人こおりやま子ども若者ネットワーク,,その他の設立登記法人,福島県,郡山市,町東１丁目７２番地レジェンド鎌田Ｂ－１０５,,07,203,9638046,,,,,,,2022-10-13,1,,,,,,0
1650,6430001087632,新規,0,2022-10-13,2022-10-13,Ｇｒａｓｓ・Ｅｘｐｒｅｓｓ株式会社,,株式会社,北海道,新冠郡新冠町,字大狩部４３６番地,,01,604,0592411,,,,,,,2022-10-13,1,,,,,グラスエクスプレス,0
1651,6430001087673,新規,0,2022-10-13,2022-10-13,株式会社ルミネ,,株式会社,北海道,札幌市豊平区,福住二条１０丁目８－１３,,01,105,0620042,,,,,,,2022-10-13,1,,,,,ルミネ,0
1661,6470001019292,新規,0,2022-10-13,2022-10-13,株式会社英功ライフケア,,株式会社,香川県,三豊市,豊中町上高野３４４８番地２,,37,208,7691504,,,,,,,2022-10-13,1,,,,,エイコウライフケア,0
1663,6500001024537,新規,0,2022-10-13,2022-10-13,株式会社こだまオーガニクス,,株式会社,愛媛県,今治市,上浦町盛１３２５番地,,38,202,7941401,,,,,,,2022-10-13,1,,,,,コダマオーガニクス,0
1672,7010001230084,新規,0,2022-10-13,2022-10-13,株式会社オフィス・テッド,,株式会社,東京都,千代田区,麹町２丁目１０番３号,,13,101,1020083,,,,,,,2022-10-13,1,,,,,オフィステッド,0
1677,7010101015360,新規,0,2022-10-13,2022-10-13,株式会社ＳＨＩＲＯＹＩ,,株式会社,東京都,八王子市,鑓水２丁目７２番地５５,,13,201,1920375,,,,,,,2022-10-13,1,,,,,シロイ,0
1683,7010403028705,新規,0,2022-10-13,2022-10-13,江坂インベストメンツ１合同会社,,合同会社,東京都,港区,六本木１丁目６番１号泉ガーデンタワー,,13,103,1060032,,,,,,,2022-10-13,1,,,,,エサカインベストメンツワン,0
1684,7010503006750,新規,0,2022-10-13,2022-10-13,合同会社依田産業,,合同会社,東京都,台東区,日本堤１丁目３８番２号桜ビル１０５,,13,106,1110021,,,,,,,2022-10-13,1,,,,,ヨダサンギョウ,0
1689,7010601061961,新規,0,2022-10-13,2022-10-13,株式会社ＨＡＮＫ,,株式会社,東京都,墨田区,緑１丁目２番５号,,13,107,1300021,,,,,,,2022-10-13,1,,,,,ハンク,0
1690,7010601061986,新規,0,2022-10-13,2022-10-13,株式会社ＴＨＥ　ＯＮＥ,,株式会社,東京都,江東区,越中島２丁目１番３２号,,13,108,1350044,,,,,,,2022-10-13,1,,,,,ザワン,0
1693,7010603009777,新規,0,2022-10-13,2022-10-13,ＭＯＫＡ合同会社,,合同会社,東京都,墨田区,錦糸４丁目６－７万正オンダビル５０１号,,13,107,1300013,,,,,,,2022-10-13,1,,,,,モカ,0
1701,7011001150009,新規,0,2022-10-13,2022-10-13,株式会社マキノカンパニー,,株式会社,東京都,渋谷区,千駄ヶ谷５丁目２７番３号,,13,113,1510051,,,,,,,2022-10-13,1,,,,,マキノカンパニー,0
1702,7011001150099,新規,0,2022-10-13,2022-10-13,株式会社生きる,,株式会社,東京都,渋谷区,神宮前６丁目２３番４号桑野ビル２階,,13,113,1500001,,,,,,,2022-10-13,1,,,,,イキル,0
1703,7011001150140,新規,0,2022-10-13,2022-10-13,株式会社Ｐｏｒｔａｌ,,株式会社,東京都,目黒区,碑文谷５丁目１９番１３号ルミエール碑文谷２０１,,13,110,1520003,,,,,,,2022-10-13,1,,,,,ポータル,0
1704,7011001150165,新規,0,2022-10-13,2022-10-13,株式会社ブランジスタエール,,株式会社,東京都,渋谷区,桜丘町２０番４号,,13,113,1500031,,,,,,,2022-10-13,1,,,,,ブランジスタエール,0
1705,7011001150314,新規,0,2022-10-13,2022-10-13,株式会社Ｂｌｕｅ　Ｓｕｍｍｅｒ,,株式会社,東京都,渋谷区,渋谷２丁目４番１０号Ｆ１０２,,13,113,1500002,,,,,,,2022-10-13,1,,,,,ブルーサマー,0
1708,7011003015507,新規,0,2022-10-13,2022-10-13,ノアトリエ合同会社,,合同会社,東京都,渋谷区,道玄坂１丁目１０番８号渋谷道玄坂東急ビル２Ｆ－Ｃ,,13,113,1500043,,,,,,,2022-10-13,1,,,,,ノアトリエ,0
1709,7011003015523,新規,0,2022-10-13,2022-10-13,合同会社ＰＯＰＣＯＲＮ,,合同会社,東京都,目黒区,下目黒２丁目１９番１２号ＳＫパレス３０３,,13,110,1530064,,,,,,,2022-10-13,1,,,,,ポップコーン,0
1714,7011005009770,新規,0,2022-10-13,2022-10-13,一般社団法人日本マイライフデザイン協会,,その他の設立登記法人,東京都,渋谷区,恵比寿南１丁目１４番９－１０２号,,13,113,1500022,,,,,,,2022-10-13,1,,,,,ニホンマイライフデザインキョウカイ,0
1722,7011201024136,新規,0,2022-10-13,2022-10-13,ＰＯＩＳＯＮ　ＦＲＯＧ株式会社,,株式会社,東京都,中野区,鷺宮３丁目３７番１０－１０４号,,13,114,1650032,,,,,,,2022-10-13,1,,,,,ポイズンフロッグ,0
1747,7012801021885,新規,0,2022-10-13,2022-10-13,株式会社興青商会,,株式会社,東京都,立川市,曙町２丁目３２番７号ビック武蔵野立川３０６号,,13,202,1900012,,,,,,,2022-10-13,1,,,,,コウセイショウカイ,0
1751,7013301049772,新規,0,2022-10-13,2022-10-13,株式会社和牛仁,,株式会社,東京都,豊島区,西池袋１丁目４番３号藤巻ビル１Ｆ,,13,116,1710021,,,,,,,2022-10-13,1,,,,,ワギュウジン,0
1752,7013303006326,新規,0,2022-10-13,2022-10-13,合同会社エヌハウス,,合同会社,東京都,豊島区,目白１丁目３番１７号目白ガーデンヒルズＣ棟２０４号,,13,116,1710031,,,,,,,2022-10-13,1,,,,,エヌハウス,0
1756,7020001148532,新規,0,2022-10-13,2022-10-13,ヨウム株式会社,,株式会社,神奈川県,横浜市青葉区,恩田町１１６５番地２１９,,14,117,2270065,,,,,,,2022-10-13,1,,,,,ヨウム,0
1759,7020005015687,新規,0,2022-10-13,2022-10-13,トレイス土地家屋調査士法人横浜,,その他の設立登記法人,神奈川県,横浜市港北区,新横浜２丁目１８番地１９ドメス新横浜２０２,,14,109,2220033,,,,,,,2022-10-13,1,,,,,,0
1765,7030001150487,新規,0,2022-10-13,2022-10-13,株式会社ｅｔｃ．,,株式会社,埼玉県,入間市,東町４丁目３番５７号,,11,225,3580002,,,,,,,2022-10-13,1,,,,,イーティーシー,0
1766,7030001150537,新規,0,2022-10-13,2022-10-13,株式会社ＳＴＯＫＥＤ,,株式会社,埼玉県,日高市,横手１丁目７－１１,,11,242,3501257,,,,,,,2022-10-13,1,,,,,ストーク,0
1767,7030001150545,新規,0,2022-10-13,2022-10-13,株式会社ＹＯＵ　ＲＯＣＫ,,株式会社,埼玉県,深谷市,栄町１３番２２号,,11,218,3660827,,,,,,,2022-10-13,1,,,,,ユウロック,0
1768,7030001150553,新規,0,2022-10-13,2022-10-13,株式会社ｈｏｌｏｍｕａ,,株式会社,埼玉県,川口市,大字安行領根岸９９３番地,,11,203,3330834,,,,,,,2022-10-13,1,,,,,ホロムア,0
1775,7030003020382,新規,0,2022-10-13,2022-10-13,合同会社Ｌｉｎｋ,,合同会社,埼玉県,さいたま市南区,別所５丁目１５番２号,,11,108,3360021,,,,,,,2022-10-13,1,,,,,リンク,0
1776,7030005021008,新規,0,2022-10-13,2022-10-13,一般社団法人多文化共生推進プロジェクト,,その他の設立登記法人,埼玉県,ふじみ野市,大井中央３丁目２０番２０号,,11,245,3560058,,,,,,,2022-10-13,1,,,,,タブンカキョウセイスイシンプロジェクト,0
1781,7040001125414,新規,0,2022-10-13,2022-10-13,株式会社ＬＵＣＩＳ,,株式会社,千葉県,船橋市,前原西２丁目２２番１３－１０１号,,12,204,2740825,,,,,,,2022-10-13,1,,,,,ルシス,0
1782,7040001125422,新規,0,2022-10-13,2022-10-13,株式会社エフエスティ,,株式会社,千葉県,松戸市,小金原１丁目１７番地の３,,12,207,2700021,,,,,,,2022-10-13,1,,,,,エフエスティ,0
1784,7040003021025,新規,0,2022-10-13,2022-10-13,合同会社葛南建材,,合同会社,千葉県,白井市,南山１丁目３番１０棟１０３号,,12,232,2701423,,,,,,,2022-10-13,1,,,,,カツナンケンザイ,0
1785,7040005021766,新規,0,2022-10-13,2022-10-13,社会保険労務士法人田中経営労務事務所,,その他の設立登記法人,千葉県,千葉市中央区,中央４丁目１０番７号３号室,,12,101,2600013,,,,,,,2022-10-13,1,,,,,タナカケイエイロウムジムショ,0
1787,7050001051808,新規,0,2022-10-13,2022-10-13,ＨＮＨ株式会社,,株式会社,茨城県,笠間市,旭町３２１－２,,08,216,3091717,,,,,,,2022-10-13,1,,,,,エイチエヌエイチ,0
1790,7050003006909,新規,0,2022-10-13,2022-10-13,エスジェットラボ合同会社,,合同会社,茨城県,守谷市,松並２０２４番地５９,,08,224,3020108,,,,,,,2022-10-13,1,,,,,,0
1791,7060001035355,新規,0,2022-10-13,2022-10-13,株式会社大沢工業,,株式会社,栃木県,芳賀郡芳賀町,大字八ツ木８４０番地１,,09,345,3213306,,,,,,,2022-10-13,1,,,,,オオサワコウギョウ,0
1794,7070001039735,新規,0,2022-10-13,2022-10-13,Ｅ‐Ｓｑｕａｒｅ株式会社,,株式会社,群馬県,伊勢崎市,馬見塚町９３９番地２,,10,204,3720842,,,,,,,2022-10-13,1,,,,,イースクエア,0
1795,7070003004646,新規,0,2022-10-13,2022-10-13,合同会社Ｆｏｏｄ　ａｎｄ　Ａｃｃｏｍｍｏ　Ｓｕｎｒｉｓｅ,,合同会社,群馬県,吾妻郡草津町,大字草津５７０番地１,,10,426,3771711,,,,,,,2022-10-13,1,,,,,フードアンドアコモサンライズ,0
1798,7080105006291,新規,0,2022-10-13,2022-10-13,医療法人社団みなと会,,その他の設立登記法人,静岡県,沼津市,本田町５番１７号,,22,203,4100004,,,,,,,2022-10-13,1,,,,,ミナトカイ,0
1800,7080403004625,新規,0,2022-10-13,2022-10-13,翠清合同会社,,合同会社,静岡県,周智郡森町,天宮７３１,,22,461,4370216,,,,,,,2022-10-13,1,,,,,スイセイ,0
1801,7090001017813,新規,0,2022-10-13,2022-10-13,ＮＯＷ株式会社,,株式会社,山梨県,甲斐市,名取２４２番地６,,19,210,4000112,,,,,,,2022-10-13,1,,,,,ナウ,0
1802,7090005007521,新規,0,2022-10-13,2022-10-13,昭和町環境事業協同組合,,その他の設立登記法人,山梨県,中巨摩郡昭和町,築地新居７４３番地１,,19,384,4093853,,,,,,,2022-10-13,1,,,,,ショウワチョウカンキョウジギョウ,0
1812,7120001249122,新規,0,2022-10-13,2022-10-13,株式会社アースリズム,,株式会社,大阪府,大阪市大正区,南恩加島２丁目９－３８,,27,108,5510021,,,,,,,2022-10-13,1,,,,,アースリズム,0
1813,7120001249155,新規,0,2022-10-13,2022-10-13,正鋒株式会社,,株式会社,大阪府,大阪市西成区,天下茶屋四丁目４番４号Ａ１,,27,122,5570000,,,,,,,2022-10-13,1,,,,,セイホウ,0
1814,7120001249270,新規,0,2022-10-13,2022-10-13,ＤＡＩＴ　ｇｌｏｂａｌ　ｓｅｒｖｉｃｅ株式会社,,株式会社,大阪府,大阪市中央区,松屋町９番２０号ローレルステート松屋町９０５Ａ,,27,128,5420067,,,,,,,2022-10-13,1,,,,,デイトグローバルサービス,0
1815,7120001249403,新規,0,2022-10-13,2022-10-13,株式会社ＫＯＵＫＯＮ,,株式会社,大阪府,大阪市旭区,今市１丁目１５番６号,,27,117,5350011,,,,,,,2022-10-13,1,,,,,コウコン,0
1816,7120001249428,新規,0,2022-10-13,2022-10-13,株式会社魔王軍,,株式会社,大阪府,門真市,上野口町４６番３０号,,27,223,5710070,,,,,,,2022-10-13,1,,,,,マオウグン,0
1817,7120001249485,新規,0,2022-10-13,2022-10-13,株式会社ＳＴＫＳ,,株式会社,大阪府,大阪市平野区,加美鞍作２丁目６番２号,,27,126,5470004,,,,,,,2022-10-13,1,,,,,エスティーケーエス,0
1818,7120001249493,新規,0,2022-10-13,2022-10-13,株式会社Ｋ＆Ｔファーマコンサルティング,,株式会社,大阪府,大阪市北区,梅田２丁目２－２ヒルトンプラザウエストオフィスタワー１８階,,27,127,5300001,,,,,,,2022-10-13,1,,,,,ケーアンドティファーマコンサルティング,0
1821,7120003022601,新規,0,2022-10-13,2022-10-13,合同会社ａｄ‐９ｔｈ,,合同会社,大阪府,大阪市淀川区,西中島５丁目８番２９号チサンマンション第三新大阪７０１,,27,123,5320011,,,,,,,2022-10-13,1,,,,,アドナインス,0
1833,7120901046602,新規,0,2022-10-13,2022-10-13,株式会社北摂造園,,株式会社,大阪府,豊能郡能勢町,平通９番地の４９,,27,322,5630356,,,,,,,2022-10-13,1,,,,,ホクセツゾウエン,0
1846,7180001153376,新規,0,2022-10-13,2022-10-13,株式会社セラブリッジ,,株式会社,愛知県,名古屋市中区,栄２丁目２番地１号広小路伏見中駒ビル２Ｆ－９,,23,106,4600008,,,,,,,2022-10-13,1,,,,,セラブリッジ,0
1849,7180003024336,新規,0,2022-10-13,2022-10-13,高島工芸合同会社,00128124,合同会社,愛知県,瀬戸市,上水野町６１３番地の１,,23,204,4890062,,,,,,,2022-10-13,1,,,,,タカシマコウゲイ,0
1855,7180301036719,新規,0,2022-10-13,2022-10-13,株式会社オールウィン,,株式会社,愛知県,西尾市,吉良町上横須賀六石目５番地,,23,213,4440521,,,,,,,2022-10-13,1,,,,,オールウィン,0
1856,7180301036727,新規,0,2022-10-13,2022-10-13,平岩ファーム株式会社,,株式会社,愛知県,額田郡幸田町,大字須美字向屋敷６６番地,,23,501,4440127,,,,,,,2022-10-13,1,,,,,ヒライワファーム,0
1876,7280003001655,新規,0,2022-10-13,2022-10-13,合同会社Ｓｅｎａ’ｓ　Ｈｏｌｄｉｎｇｓ,,合同会社,島根県,松江市,上乃木５丁目１番１４号,,32,201,6900015,,,,,,,2022-10-13,1,,,,,セナズホールディングス,0
1879,7290001099047,新規,0,2022-10-13,2022-10-13,ａｃｔ　ｂｕｉｌｄ株式会社,,株式会社,福岡県,大野城市,南ケ丘４丁目３－２１,,40,219,8160964,,,,,,,2022-10-13,1,,,,,アクトビルド,0
1880,7290001099187,新規,0,2022-10-13,2022-10-13,株式会社成和陶材,,株式会社,福岡県,古賀市,今の庄２丁目１４番１４号,,40,223,8113117,,,,,,,2022-10-13,1,,,,,セイワトウザイ,0
1881,7290001099204,新規,0,2022-10-13,2022-10-13,株式会社ケンショウ,,株式会社,福岡県,久留米市,城島町六町原５番地１,,40,203,8300206,,,,,,,2022-10-13,1,,,,,ケンショウ,0
1885,7290801028964,新規,0,2022-10-13,2022-10-13,株式会社鳥ＳＯＨ,,株式会社,福岡県,北九州市小倉南区,中曽根５丁目２番３７号,,40,107,8000222,,,,,,,2022-10-13,1,,,,,トリソウ,0
1892,7340001025096,新規,0,2022-10-13,2022-10-13,株式会社ＬＩＦＥ　ＰＡＣＫ,,株式会社,鹿児島県,鹿児島市,唐湊３丁目４４番１４号,,46,201,8900081,,,,,,,2022-10-13,1,,,,,ライフパック,0
1897,7360003012330,新規,0,2022-10-13,2022-10-13,合同会社Ｒ．Ｕ．ＳＴＯＲＥ,,合同会社,沖縄県,豊見城市,字饒波５０６番地１ネクステージ寛３０１号室,,47,212,9010211,,,,,,,2022-10-13,1,,,,,アールユーストア,0
1898,7360003012347,新規,0,2022-10-13,2022-10-13,トライエアフライトクラブ合同会社,,合同会社,沖縄県,豊見城市,字豊崎１－４１１豊崎ライフスタイルセンターＴＯＭＩＴＯＮ２０２,,47,212,9010225,,,,,,,2022-10-13,1,,,,,トライエアフライトクラブ,0
1908,7390005008976,新規,0,2022-10-13,2022-10-13,一般社団法人海と日本プロジェクトｉｎ山形,,その他の設立登記法人,山形県,山形市,白山１丁目１１番３３号,,06,201,9902446,,,,,,,2022-10-13,1,,,,,ウミトニッポンプロジェクトインヤマガタ,0
1918,7450001013817,新規,0,2022-10-13,2022-10-13,株式会社ＭＹｃｏｎｓｕｌｔｉｎｇ,,株式会社,北海道,旭川市,四条通６丁目４０５番地３ヨシタケビル５号館１階,,01,204,0700034,,,,,,,2022-10-13,1,,,,,エムワイコンサルティング,0
1921,7480001011883,新規,0,2022-10-13,2022-10-13,株式会社ＭＣコレクション,,株式会社,徳島県,板野郡板野町,下庄字栄寿１９７番地２,,36,404,7790118,,,,,,,2022-10-13,1,,,,,エムシーコレクション,0
1922,7500001024536,新規,0,2022-10-13,2022-10-13,株式会社ＳＯ開発,,株式会社,愛媛県,伊予市,湊町３５１番地１,,38,210,7993115,,,,,,,2022-10-13,1,,,,,エスオーカイハツ,0
1933,8010001230018,新規,0,2022-10-13,2022-10-13,株式会社エヌコムホールディングス,,株式会社,東京都,文京区,湯島４丁目１番１１号南山堂ビル４階,,13,105,1130034,,,,,,,2022-10-13,1,,,,,エヌコムホールディングス,0
1934,8010001230117,新規,0,2022-10-13,2022-10-13,イーグルエステート株式会社,,株式会社,東京都,文京区,本郷３丁目２１番４号,,13,105,1130033,,,,,,,2022-10-13,1,,,,,イーグルエステート,0
1935,8010001230133,新規,0,2022-10-13,2022-10-13,信一商事株式会社,,株式会社,東京都,千代田区,神田須田町１丁目１２番９号富士第一ビル２Ｆ,,13,101,1010041,,,,,,,2022-10-13,1,,,,,シンイチショウジ,0
1939,8010003038855,新規,0,2022-10-13,2022-10-13,テイルデータコンサルティング合同会社,,合同会社,東京都,中央区,銀座１丁目１２番４号Ｎ＆ＥＢＬＤ．６Ｆ,,13,102,1040061,,,,,,,2022-10-13,1,,,,,テイルデータコンサルティング,0
1940,8010003038863,新規,0,2022-10-13,2022-10-13,合同会社エフマットオルソペディクス,,合同会社,東京都,千代田区,紀尾井町３番２９号,,13,101,1020094,,,,,,,2022-10-13,1,,,,,エフマットオルソペディクス,0
1949,8010401170210,新規,0,2022-10-13,2022-10-13,株式会社ｍａｅｕｈａ,,株式会社,東京都,港区,六本木６丁目１６番１１号ザ・ウエストミンスター六本木１２０３,,13,103,1060032,,,,,,,2022-10-13,1,,,,,マユハ,0
1954,8010403028704,新規,0,2022-10-13,2022-10-13,江坂マネジメント合同会社,,合同会社,東京都,港区,六本木１丁目６番１号泉ガーデンタワー,,13,103,1060032,,,,,,,2022-10-13,1,,,,,エサカマネジメント,0
1960,8010601061969,新規,0,2022-10-13,2022-10-13,株式会社すばるコンサルティング,,株式会社,東京都,江東区,富岡２丁目１１番１８号,,13,108,1350047,,,,,,,2022-10-13,1,,,,,スバルコンサルティング,0
1963,8010701043322,新規,0,2022-10-13,2022-10-13,株式会社イシカワ,,株式会社,東京都,品川区,大井４丁目１２番２２号ＧＢＩ号室,,13,109,1400014,,,,,,,2022-10-13,1,,,,,イシカワ,0
1964,8010701043330,新規,0,2022-10-13,2022-10-13,日盛昇株式会社,,株式会社,東京都,品川区,南品川１丁目１番３号,,13,109,1400004,,,,,,,2022-10-13,1,,,,,ニッセイショウ,0
1967,8010801033330,新規,0,2022-10-13,2022-10-13,株式会社Ｖｅｒｔｅｘ,,株式会社,東京都,大田区,蒲田５丁目８番３－２０４号,,13,111,1440052,,,,,,,2022-10-13,1,,,,,バーテックス,0
1973,8010903007703,新規,0,2022-10-13,2022-10-13,合同会社加藤総合企画,,合同会社,東京都,世田谷区,代田１丁目４４番４－１０５号,,13,112,1550033,,,,,,,2022-10-13,1,,,,,カトウソウゴウキカク,0
2004,8012701017297,新規,0,2022-10-13,2022-10-13,株式会社山田豊次郎商店,,株式会社,東京都,西東京市,中町１丁目７番１５号,,13,229,2020013,,,,,,,2022-10-13,1,,,,,ヤマダトヨジロウショウテン,0
2016,8020001148498,新規,0,2022-10-13,2022-10-13,株式会社ＩＲＥＭＳ,,株式会社,神奈川県,横浜市青葉区,つつじが丘１９番地９,,14,117,2270055,,,,,,,2022-10-13,1,,,,,アイレムス,0
2019,8020003022552,新規,0,2022-10-13,2022-10-13,ミーヤランド合同会社,,合同会社,神奈川県,横浜市中区,野毛町２丁目７１番地２セレッソビル３階,,14,104,2310064,,,,,,,2022-10-13,1,,,,,ミーヤランド,0
2021,8021001077150,新規,0,2022-10-13,2022-10-13,ＦＭＣ株式会社,,株式会社,神奈川県,藤沢市,辻堂元町４丁目１５番１７号エレガンシア２０５,,14,205,2510043,,,,,,,2022-10-13,1,,,,,エフエムシー,0
2025,8021003012246,新規,0,2022-10-13,2022-10-13,ニューパラダイス合同会社,,合同会社,神奈川県,藤沢市,片瀬海岸３丁目２３番１８～４２０号,,14,205,2510035,,,,,,,2022-10-13,1,,,,,ニューパラダイス,0
2026,8021003012254,新規,0,2022-10-13,2022-10-13,合同会社ＴＫＤ,,合同会社,神奈川県,茅ヶ崎市,矢畑４０３－１,,14,207,2530085,,,,,,,2022-10-13,1,,,,,ティーケーディー,0
2030,8030001150404,新規,0,2022-10-13,2022-10-13,株式会社小林工業,,株式会社,埼玉県,さいたま市桜区,大字神田２８８番地３ニューロイヤルハイツ３０２,,11,106,3380812,,,,,,,2022-10-13,1,,,,,コバヤシコウギョウ,0
2031,8030001150552,新規,0,2022-10-13,2022-10-13,株式会社グラスプ,,株式会社,埼玉県,さいたま市大宮区,桜木町１丁目３８６,,11,103,3300854,,,,,,,2022-10-13,1,,,,,グラスプ,0
2032,8030001150569,新規,0,2022-10-13,2022-10-13,株式会社ｉＣｏｎ,,株式会社,埼玉県,川口市,芝東町１９番２号,,11,203,3330867,,,,,,,2022-10-13,1,,,,,アイコン,0
2033,8030003020324,新規,0,2022-10-13,2022-10-13,ＳＳＡ合同会社,,合同会社,埼玉県,朝霞市,根岸台２丁目１７番１６号,,11,227,3510005,,,,,,,2022-10-13,1,,,,,エスエスエー,0
2034,8030003020381,新規,0,2022-10-13,2022-10-13,Ｍａｔｓｕｄａマネジメント合同会社,,合同会社,埼玉県,草加市,柳島町２９９番地７,,11,221,3400033,,,,,,,2022-10-13,1,,,,,マツダマネジメント,0
2043,8040001125396,新規,0,2022-10-13,2022-10-13,株式会社富月商事,,株式会社,千葉県,柏市,藤ケ谷新田１５－５,,12,217,2770932,,,,,,,2022-10-13,1,,,,,フツキショウジ,0
2044,8040001125421,新規,0,2022-10-13,2022-10-13,株式会社鳶寺嶋組,,株式会社,千葉県,香取市,八日市場９１９番地,,12,236,2890311,,,,,,,2022-10-13,1,,,,,トビテラジマグミ,0
2045,8040001125438,新規,0,2022-10-13,2022-10-13,株式会社Ｆ．ｎｅｘｔ,,株式会社,千葉県,千葉市稲毛区,稲毛東３丁目４番１５号吉田ビル,,12,103,2630031,,,,,,,2022-10-13,1,,,,,エフネクスト,0
2046,8040002025612,新規,0,2022-10-13,2022-10-13,有限会社ミステイーブルー,,有限会社,千葉県,船橋市,西船４丁目１８番１７号峯川ビル１階,,12,204,2730031,,,,,,,2022-10-13,1,,,,,ミステイーブルー,0
2052,8040003021032,新規,0,2022-10-13,2022-10-13,合同会社９９８１,,合同会社,千葉県,柏市,千代田２丁目４番１１号,,12,217,2770025,,,,,,,2022-10-13,1,,,,,キュウキュウハチイチ,0
2053,8040003021049,新規,0,2022-10-13,2022-10-13,合同会社ブロンド,,合同会社,千葉県,成田市,中台２丁目３６番地３,,12,211,2860015,,,,,,,2022-10-13,1,,,,,ブロンド,0
2064,8070001039734,新規,0,2022-10-13,2022-10-13,株式会社彩美,,株式会社,群馬県,桐生市,相生町２丁目４３５番地の６,,10,203,3760011,,,,,,,2022-10-13,1,,,,,サイビ,0
2073,8100001035779,新規,0,2022-10-13,2022-10-13,南信州リゾート株式会社,,株式会社,長野県,飯田市,松尾新井７１７０番地,,20,205,3950821,,,,,,,2022-10-13,1,,,,,ミナミシンシューウリゾート,0
2074,8100001035787,新規,0,2022-10-13,2022-10-13,株式会社上今井,,株式会社,長野県,中野市,大字上今井６４０番地の３,,20,211,3892102,,,,,,,2022-10-13,1,,,,,カミイマイ,0
2085,8120001249443,新規,0,2022-10-13,2022-10-13,株式会社ＮＩＣＯ製作所,,株式会社,大阪府,大阪市東住吉区,今林２丁目４番１３号,,27,121,5460001,,,,,,,2022-10-13,1,,,,,ニコセイサクショ,0
2086,8120001249476,新規,0,2022-10-13,2022-10-13,ＳＥＩＷＡメディカルキャリア株式会社,,株式会社,大阪府,大阪市天王寺区,上本町８丁目２番１号,,27,109,5430001,,,,,,,2022-10-13,1,,,,,セイワメディカルキャリア,0
2087,8120001249501,新規,0,2022-10-13,2022-10-13,株式会社Ａｃｔｉｖａｔｉｏｎ,,株式会社,大阪府,大阪市北区,天満２丁目１２番３号ヴィレッジリバー南森町５Ｆ,,27,127,5300043,,,,,,,2022-10-13,1,,,,,アクティベーション,0
2088,8120001249518,新規,0,2022-10-13,2022-10-13,株式会社ルシオス,,株式会社,大阪府,大阪市鶴見区,諸口５丁目２番４７号,,27,124,5380051,,,,,,,2022-10-13,1,,,,,ルシオス,0
2096,8120003022641,新規,0,2022-10-13,2022-10-13,合同会社ＨＯＮＥＳＴＹ,,合同会社,大阪府,大阪市西区,北堀江２丁目８号１７－４０５,,27,106,5500014,,,,,,,2022-10-13,1,,,,,オネスティ,0
2097,8120003022658,新規,0,2022-10-13,2022-10-13,合同会社Ｓｐｒｅａｄ　Ｔｒａｄｅ,,合同会社,大阪府,大阪市平野区,平野西４丁目２番１５号,,27,126,5470033,,,,,,,2022-10-13,1,,,,,スプレッドトレード,0
2102,8120903004334,新規,0,2022-10-13,2022-10-13,合同会社ステップフォワード,,合同会社,大阪府,茨木市,西駅前町１０番６０９号,,27,211,5670032,,,,,,,2022-10-13,1,,,,,ステップフォワード,0
2108,8130001072811,新規,0,2022-10-13,2022-10-13,株式会社八時堂,,株式会社,京都府,亀岡市,内丸町１－６内丸ハイツ１０１,,26,206,6210864,,,,,,,2022-10-13,1,,,,,ハチジドウ,0
2110,8130003008235,新規,0,2022-10-13,2022-10-13,ＢＥＬＥＡ‐ｚｅｒｏ合同会社,,合同会社,京都府,京都市伏見区,深草西伊達町８７－９２,,26,109,6120876,,,,,,,2022-10-13,1,,,,,ベレアゼロ,0
2111,8130003008243,新規,0,2022-10-13,2022-10-13,ＳＲＴ合同会社,,合同会社,京都府,京都市伏見区,深草柴田屋敷町３－１０,,26,109,6128432,,,,,,,2022-10-13,1,,,,,エスアールティー,0
2122,8180001153276,新規,0,2022-10-13,2022-10-13,株式会社レクビィホールディングス,,株式会社,愛知県,瀬戸市,品野町３丁目３番地,,23,204,4801207,,,,,,,2022-10-13,1,,,,,レクビィホールディングス,0
2123,8180001153326,新規,0,2022-10-13,2022-10-13,株式会社ＮＫサポート,,株式会社,愛知県,名古屋市中川区,三ツ池町１丁目１７番地三ツ池マンション２０２号,,23,110,4540811,,,,,,,2022-10-13,1,,,,,エヌケイサポート,0
2124,8180001153350,新規,0,2022-10-13,2022-10-13,株式会社レイヴンＦａＭ,,株式会社,愛知県,名古屋市中区,栄２丁目１５番１４号ザ・グランアルト栄１２０３号,,23,106,4600008,,,,,,,2022-10-13,1,,,,,レイヴンファム,0
2125,8180001153383,新規,0,2022-10-13,2022-10-13,株式会社住建開発,,株式会社,愛知県,名古屋市中区,千代田２丁目１７番２１号パレス鶴舞Ｃ８号,,23,106,4600012,,,,,,,2022-10-13,1,,,,,ジュウケンカイハツ,0
2127,8180301036718,新規,0,2022-10-13,2022-10-13,株式会社ＭＯＮＥ,,株式会社,愛知県,豊川市,大崎町上金居場４８番地,,23,207,4420007,,,,,,,2022-10-13,1,,,,,モネ,0
2134,8210003001561,新規,0,2022-10-13,2022-10-13,合同会社和平,,合同会社,福井県,小浜市,駅前町７番２２号３階,,18,204,9170077,,,,,,,2022-10-13,1,,,,,ワヘイ,0
2146,8260003004064,新規,0,2022-10-13,2022-10-13,合同会社柴田久美子事務所,,合同会社,岡山県,岡山市北区,津高６３４番地１０,,33,101,7011152,,,,,,,2022-10-13,1,,,,,シバタクミコジムショ,0
2148,8280001008800,新規,0,2022-10-13,2022-10-13,株式会社福田本店販売,,株式会社,島根県,松江市,西茶町１番地１４,,32,201,6900845,,,,,,,2022-10-13,1,,,,,フクダホンテンハンバイ,0
2151,8290001099079,新規,0,2022-10-13,2022-10-13,株式会社東亜重工,,株式会社,福岡県,宗像市,青葉台１丁目１０番地４清栄ビル２０２号,,40,220,8114162,,,,,,,2022-10-13,1,,,,,トウアジュウコウ,0
2152,8290001099211,新規,0,2022-10-13,2022-10-13,株式会社Ａｍｂｅｒ,,株式会社,福岡県,福岡市南区,大池２丁目１０番３７－２号,,40,134,8150073,,,,,,,2022-10-13,1,,,,,アンバー,0
2161,8340001025095,新規,0,2022-10-13,2022-10-13,株式会社ユースファーム,,株式会社,鹿児島県,伊佐市,大口上町１０－３,,46,224,8952513,,,,,,,2022-10-13,1,,,,,ユースファーム,0
2166,8360003012362,新規,0,2022-10-13,2022-10-13,合同会社ファーストラック,,合同会社,沖縄県,浦添市,西原５丁目３２－２２浦西団地Ｄ－２３,,47,208,9012101,,,,,,,2022-10-13,1,,,,,ファーストラック,0
2170,8370005010537,新規,0,2022-10-13,2022-10-13,一般社団法人みやぎ樹木医会,,その他の設立登記法人,宮城県,仙台市青葉区,八幡３丁目２番７号宮城十條林産ビル４階株式会社宮城環境保全研究所内,,04,101,9800871,,,,,,,2022-10-13,1,,,,,ミヤギジュモクイカイ,0
2172,8380001033185,新規,0,2022-10-13,2022-10-13,株式会社パブリックオート須賀川,,株式会社,福島県,須賀川市,弘法坦１２４番地,,07,207,9620848,,,,,,,2022-10-13,1,,,,,パブリックオートスカガワ,0
2180,8420001018033,新規,0,2022-10-13,2022-10-13,東北ベース株式会社,,株式会社,青森県,青森市,大字新城字平岡８８９番地,,02,201,0380042,,,,,,,2022-10-13,1,,,,,トウホクベース,0
2186,8450001013816,新規,0,2022-10-13,2022-10-13,ＤＡＩＫＥＮ株式会社,,株式会社,北海道,旭川市,神楽岡十二条８丁目２番３２号,,01,204,0788322,,,,,,,2022-10-13,1,,,,,ダイケン,0
2201,9010001229843,新規,0,2022-10-13,2022-10-13,ＳＣＯＰＥＮＮＥ株式会社,,株式会社,東京都,文京区,向丘２丁目１８番１７号,,13,105,1130023,,,,,,,2022-10-13,1,,,,,スコペンネ,0
2202,9010001230000,新規,0,2022-10-13,2022-10-13,ジパング・アルファ・キャピタル株式会社,,株式会社,東京都,千代田区,平河町１丁目６番１５号ＵＳビル８Ｆ,,13,101,1020093,,,,,,,2022-10-13,1,,,,,ジパングアルファキャピタル,0
2203,9010001230124,新規,0,2022-10-13,2022-10-13,株式会社強在,,株式会社,東京都,千代田区,九段南１丁目５番６号りそな九段ビル５Ｆ,,13,101,1020074,,,,,,,2022-10-13,1,,,,,キョウザイ,0
2204,9010003038854,新規,0,2022-10-13,2022-10-13,合同会社ＨｉＪｏＪｏ．ｃｏｍ７,,合同会社,東京都,千代田区,霞が関３丁目２番５号,,13,101,1000013,,,,,,,2022-10-13,1,,,,,ヒジョージョードットコムセブン,0
2213,9010403028612,新規,0,2022-10-13,2022-10-13,柘榴合同会社,,合同会社,東京都,港区,西新橋１丁目１番１号ＥＰコンサルティングサービス内,,13,103,1050003,,,,,,,2022-10-13,1,,,,,ザクロ,0
2216,9010501049477,新規,0,2022-10-13,2022-10-13,優品企画株式会社,,株式会社,東京都,台東区,三ノ輪２丁目３番８－２０１号,,13,106,1100011,,,,,,,2022-10-13,1,,,,,ユウヒンキカク,0
2217,9010503006749,新規,0,2022-10-13,2022-10-13,ＫＩＧＵＭＩ　ＥＮＴＥＲＴＡＩＮＭＥＮＴ．合同会社,,合同会社,東京都,台東区,入谷２丁目１番４号５階,,13,106,1100013,,,,,,,2022-10-13,1,,,,,キグミエンターテイメント,0
2221,9010601061968,新規,0,2022-10-13,2022-10-13,株式会社ベンズムービーファクトリー,,株式会社,東京都,墨田区,江東橋１丁目５－１１モナーク錦糸町１１０１,,13,107,1300022,,,,,,,2022-10-13,1,,,,,ベンズムービーファクトリー,0
2223,9010605004139,新規,0,2022-10-13,2022-10-13,行政書士法人フロンティア,,その他の設立登記法人,東京都,江東区,潮見１丁目３番１０号マレオドゥール２０３号室,,13,108,1350052,,,,,,,2022-10-13,1,,,,,フロンティア,0
2227,9010803004312,新規,0,2022-10-13,2022-10-13,Ｆ３００Ａｓｉａ合同会社,,合同会社,東京都,大田区,羽田５丁目６番２４号,,13,111,1440043,,,,,,,2022-10-13,1,,,,,エフスリーハンドレッドエイジア,0
2234,9011001150254,新規,0,2022-10-13,2022-10-13,株式会社マックスアンドジェーン,,株式会社,東京都,目黒区,鷹番３丁目１４番１４号４Ｆ,,13,110,1520004,,,,,,,2022-10-13,1,,,,,マックスアンドジェーン,0
2236,9011003015521,新規,0,2022-10-13,2022-10-13,合同会社ｂｅｎｅｘｔ,,合同会社,東京都,渋谷区,渋谷２丁目１９－１５宮益坂ビルディング６０９,,13,113,1500002,,,,,,,2022-10-13,1,,,,,ビーネクスト,0
2244,9011101100506,新規,0,2022-10-13,2022-10-13,株式会社ジェイエムピー,,株式会社,東京都,新宿区,新宿２丁目４番１－１００２号,,13,104,1600022,,,,,,,2022-10-13,1,,,,,ジェイエムピー,0
2245,9011201024142,新規,0,2022-10-13,2022-10-13,富士建物株式会社,,株式会社,東京都,中野区,弥生町１丁目２８番７号サニーハイツ２０２,,13,114,1640013,,,,,,,2022-10-13,1,,,,,フジタテモノ,0
2261,9011801041396,新規,0,2022-10-13,2022-10-13,株式会社Ｍ５１,,株式会社,東京都,足立区,竹の塚６丁目１５番１号,00128114,13,121,1210813,,,,,,,2022-10-13,1,,,,,エムゴジュウイチ,0
2265,9012403005624,新規,0,2022-10-13,2022-10-13,合同会社ＡＰＨ,,合同会社,東京都,小金井市,中町２丁目１４―６,,13,210,1840012,,,,,,,2022-10-13,1,,,,,エーピーエイチ,0
2268,9013101009033,新規,0,2022-10-13,2022-10-13,株式会社ヤマホーム,,株式会社,東京都,福生市,大字熊川１８８番地１２,,13,218,1970003,,,,,,,2022-10-13,1,,,,,ヤマホーム,0
2285,9020003022551,新規,0,2022-10-13,2022-10-13,合同会社アルテミス,,合同会社,神奈川県,横浜市栄区,上郷町１２１４番地１６内田テラス２号,,14,115,2470013,,,,,,,2022-10-13,1,,,,,アルテミス,0
2291,9021003012237,新規,0,2022-10-13,2022-10-13,合同会社唯一人,,合同会社,神奈川県,海老名市,国分北３丁目３３番５－２号,,14,215,2430406,,,,,,,2022-10-13,1,,,,,タダヒトリ,0
2292,9021005012631,新規,0,2022-10-13,2022-10-13,一般社団法人ハンターズギルド,,その他の設立登記法人,神奈川県,足柄上郡山北町,向原２１３８番地８,,14,364,2580111,,,,,,,2022-10-13,1,,,,,ハンターズギルド,0
2301,9030001150551,新規,0,2022-10-13,2022-10-13,アライズ株式会社,,株式会社,埼玉県,川越市,大字安比奈新田８番地１３,,11,201,3501173,,,,,,,2022-10-13,1,,,,,アライズ,0
2310,9040001125429,新規,0,2022-10-13,2022-10-13,ＢＬＵＥ　ＳＫＹ　ＪＡＰＡＮ株式会社,,株式会社,千葉県,船橋市,東船橋２丁目２番４号,,12,204,2730002,,,,,,,2022-10-13,1,,,,,ブルースカイジャパン,0
2313,9040003021031,新規,0,2022-10-13,2022-10-13,Ｇ．ＬＣａｒｓ合同会社,,合同会社,千葉県,八千代市,大和田新田７８５番地５,,12,221,2760046,,,,,,,2022-10-13,1,,,,,ジーエルカーズ,0
2316,9050001051806,新規,0,2022-10-13,2022-10-13,株式会社蓮建設,,株式会社,茨城県,ひたちなか市,大字田彦７１３番地８,,08,221,3120063,,,,,,,2022-10-13,1,,,,,レンケンセツ,0
2321,9070003004644,新規,0,2022-10-13,2022-10-13,合同会社岡部鈑金,,合同会社,群馬県,太田市,東矢島町１３１番地,,10,205,3730816,,,,,,,2022-10-13,1,,,,,オカベバンキン,0
2338,9120001249500,新規,0,2022-10-13,2022-10-13,台佳株式会社,,株式会社,大阪府,大阪市中央区,松屋町９番２０号ローレルステート松屋町５０４Ｂ,,27,128,5420067,,,,,,,2022-10-13,1,,,,,ダイカ,0
2339,9120001249525,新規,0,2022-10-13,2022-10-13,成翔興産株式会社,,株式会社,大阪府,大阪市東淀川区,西淡路２丁目１５番１０号,,27,114,5330031,,,,,,,2022-10-13,1,,,,,セイショウコウサン,0
2341,9120003022632,新規,0,2022-10-13,2022-10-13,合同会社テルモス,,合同会社,大阪府,大阪市東淀川区,大隅１丁目３番１２－２０２号,,27,114,5330015,,,,,,,2022-10-13,1,,,,,テルモス,0
2342,9120003022665,新規,0,2022-10-13,2022-10-13,ポップゲイン合同会社,,合同会社,大阪府,大阪市阿倍野区,文の里４丁目１４―４,,27,119,5450004,,,,,,,2022-10-13,1,,,,,ポップゲイン,0
2347,9120101066366,新規,0,2022-10-13,2022-10-13,株式会社堺スクールランチパートナーズ,,株式会社,大阪府,堺市北区,南花田町３６番地１,,27,146,5918011,,,,,,,2022-10-13,1,,,,,サカイスクールランチパートナーズ,0
2355,9120901046600,新規,0,2022-10-13,2022-10-13,Ｐｅｅｌ　ＳＤＧｓ　Ｃｏｎｓｕｌｔｉｎｇ株式会社,,株式会社,大阪府,茨木市,宮元町７番２２号仲辻ビル５Ｄ号室,,27,211,5670810,,,,,,,2022-10-13,1,,,,,ピールエスディージーズコンサルティング,0
2356,9120901046609,新規,0,2022-10-13,2022-10-13,株式会社スカンジナビアンデンティストリー,,株式会社,大阪府,高槻市,城北町１丁目８番３４号,,27,207,5690071,,,,,,,2022-10-13,1,,,,,スカンジナビアンデンティストリー,0
2359,9122001036317,新規,0,2022-10-13,2022-10-13,株式会社グローバルユニット,,株式会社,大阪府,東大阪市,高井田６番１号,,27,227,5770053,,,,,,,2022-10-13,1,,,,,グローバルユニット,0
2361,9130001072810,新規,0,2022-10-13,2022-10-13,株式会社ネスト,,株式会社,京都府,亀岡市,千代川町小川２丁目６－２０,,26,206,6210041,,,,,,,2022-10-13,1,,,,,ネスト,0
2362,9130003008234,新規,0,2022-10-13,2022-10-13,合同会社ＣＯＣＯＣＯｍｐａｎｙ,,合同会社,京都府,京都市伏見区,深草西伊達町８７－９２,,26,109,6120876,,,,,,,2022-10-13,1,,,,,ココカンパニー,0
2366,9140001127695,新規,0,2022-10-13,2022-10-13,株式会社ｉｓｉｓ,,株式会社,兵庫県,たつの市,龍野町富永４７１番地の３,,28,229,6794167,,,,,,,2022-10-13,1,,,,,シス,0
2370,9140003018240,新規,0,2022-10-13,2022-10-13,合同会社つじ吉,,合同会社,兵庫県,宝塚市,小浜２丁目５番２５－７１７号,,28,214,6650827,,,,,,,2022-10-13,1,,,,,ツジキチ,0
2372,9160001024569,新規,0,2022-10-13,2022-10-13,株式会社ルカナ,,株式会社,滋賀県,大津市,大江４丁目２２番１４号,,25,201,5202141,,,,,,,2022-10-13,1,,,,,ルカナ,0
2373,9170001017324,新規,0,2022-10-13,2022-10-13,株式会社エコ・ユース,,株式会社,和歌山県,和歌山市,築港５丁目９番地３,,30,201,6408287,,,,,,,2022-10-13,1,,,,,エコユース,0
2381,9180001153382,新規,0,2022-10-13,2022-10-13,株式会社ミイロ,,株式会社,愛知県,名古屋市中村区,名駅５丁目１０番７号花車ビル中館２階６号,,23,105,4500002,,,,,,,2022-10-13,1,,,,,ミイロ,0
2388,9180301036717,新規,0,2022-10-13,2022-10-13,株式会社ＥＮＬＯＯＰ,,株式会社,愛知県,安城市,篠目町井山９８番地３９イナホビル１０１,,23,212,4460073,,,,,,,2022-10-13,1,,,,,エンループ,0
2397,9240001060481,新規,0,2022-10-13,2022-10-13,株式会社ｆａｍ　ｃａｒａｔ,,株式会社,広島県,広島市東区,牛田早稲田３丁目４番１－１３０４号,,34,102,7320062,,,,,,,2022-10-13,1,,,,,ファムカラット,0
2398,9240001060507,新規,0,2022-10-13,2022-10-13,株式会社Ｍ‐Ｗｏｒｋｓ．,,株式会社,広島県,安芸郡府中町,本町５丁目１７番１６号,,34,302,7350006,,,,,,,2022-10-13,1,,,,,エムワークス,0
2409,9290001099210,新規,0,2022-10-13,2022-10-13,古賀資材株式会社,,株式会社,福岡県,大川市,大字大橋４３４番地４,,40,212,8310021,,,,,,,2022-10-13,1,,,,,コガシザイ,0
2411,9290003013061,新規,0,2022-10-13,2022-10-13,アレンジ合同会社,,合同会社,福岡県,久留米市,長門石２丁目１０－１４,,40,203,8300027,,,,,,,2022-10-13,1,,,,,アレンジ,0
2417,9290803004227,新規,0,2022-10-13,2022-10-13,永松管財合同会社,,合同会社,福岡県,田川市,大字位登７３４番地８,,40,206,8260044,,,,,,,2022-10-13,1,,,,,ナガマツカンザイ,0
2420,9330001030194,新規,0,2022-10-13,2022-10-13,株式会社Ｌ，Ｗ,,株式会社,熊本県,熊本市北区,弓削１丁目２番２４号,,43,105,8618002,,,,,,,2022-10-13,1,,,,,エルダブリュ,0
2423,9340001025094,新規,0,2022-10-13,2022-10-13,ジャスティモールド株式会社,,株式会社,鹿児島県,曽於市,財部町下財部１６３７番地３３,,46,217,8994103,,,,,,,2022-10-13,1,,,,,ジャスティモールド,0
2425,9360001031041,新規,0,2022-10-13,2022-10-13,株式会社ＯＷＬ,,株式会社,沖縄県,沖縄市,桃原４丁目２２番４７号テラス久富Ｂ１０２,,47,211,9042164,,,,,,,2022-10-13,1,,,,,オウル,0
2428,9380001033176,新規,0,2022-10-13,2022-10-13,株式会社資源貿易ハムスター,,株式会社,福島県,須賀川市,山寺町３４番地,,07,207,9620062,,,,,,,2022-10-13,1,,,,,シゲンボウエキハムスター,0
2435,9430001087654,新規,0,2022-10-13,2022-10-13,株式会社Ａｍｂｉｔｉｏｕｓ,,株式会社,北海道,札幌市西区,八軒三条東４丁目１番１号,,01,107,0630863,,,,,,,2022-10-13,1,,,,,アンビシャス,0
2441,9440003001488,新規,0,2022-10-13,2022-10-13,ＲＴＳ　Ｊａｐａｎ合同会社,,合同会社,北海道,函館市,青柳町３９番５号,,01,202,0400044,,,,,,,2022-10-13,1,,,,,,0
2447,9500001024534,新規,0,2022-10-13,2022-10-13,株式会社ＡＲＲＯＷ　ＦＩＥＬＤ,,株式会社,愛媛県,西条市,大町４４番地３,,38,206,7930030,,,,,,,2022-10-13,1,,,,,アローフィールド,0
