sequenceNumber,corporateNumber,process,correct,updateDate,changeDate,name,nameImageId,kind,prefectureName,cityName,streetNumber,addressImageId,prefectureCode,cityCode,postCode,addressOutside,addressOutsideImageId,closeDate,closeCause,successorCorporateNumber,changeCause,assignmentDate,latest,enName,enPrefectureName,enCityName,enAddressOutside,furigana,hihyoji
12,1010403025154,登記記録の閉鎖等,0,2025-09-08,2025-08-08,合同会社ＡＰＨ１,,合同会社,東京都,港区,虎ノ門５丁目１番４号,,13,103,1050001,,,2025-08-08,清算の結了等,,,2021-04-22,1,,,,,エーピーエイチワン,0
14,1010405020673,登記記録の閉鎖等,0,2025-09-08,2025-08-08,ＲＢソーラーリオホールディングス一般社団法人,,その他の設立登記法人,東京都,港区,虎ノ門３丁目２２番１０－２０１号,,13,103,1050001,,,2025-08-08,清算の結了等,,,2022-02-08,1,,,,,アールビーソーラーリオホールディングス,0
15,1010405023726,登記記録の閉鎖等,0,2025-09-08,2025-08-07,一般社団法人ＭＫ常陸ソーラーパーク,,その他の設立登記法人,東京都,港区,愛宕１丁目６番８号,,13,103,1050002,,,2025-08-07,清算の結了等,,,2024-10-29,1,,,,,エムケイヒタチソーラーパーク,0
16,1010501003524,登記記録の閉鎖等,0,2025-09-08,2025-08-29,株式会社キンラン,,株式会社,東京都,台東区,花川戸２丁目９番１１号,,13,106,1110033,,,2025-08-29,清算の結了等,,,2015-10-05,1,,,,,キンラン,0
21,1010601013860,登記記録の閉鎖等,0,2025-09-08,2025-09-01,株式会社鳥井商会,,株式会社,東京都,墨田区,八広１丁目１番２０号,,13,107,1310041,,,2025-09-01,清算の結了等,,,2015-10-05,1,,,,,トリイショウカイ,0
29,1010802005533,登記記録の閉鎖等,0,2025-09-08,2025-08-29,有限会社小林建板,,有限会社,東京都,大田区,南六郷１丁目２０番６号,,13,111,1440045,,,2025-08-29,清算の結了等,,,2015-10-05,1,,,,,コバヤシケンパン,0
38,1011001101768,登記記録の閉鎖等,0,2025-09-08,2025-09-04,株式会社サトウ,,株式会社,東京都,目黒区,中目黒１丁目３番１２号,,13,110,1530061,,,2025-09-04,合併による解散等,8010901005618,令和７年９月１日東京都世田谷区若林四丁目３５番５号株式会社佐藤地所（8010901005618）に合併し解散,2015-10-05,1,,,,,サトウ,0
52,1011101032599,登記記録の閉鎖等,0,2025-09-08,2025-09-01,株式会社アピアグループ,,株式会社,埼玉県,越谷市,レイクタウン８丁目１３番地２ザ・シーズンズグランアルト３０４号,,11,222,3430828,,,2025-09-01,清算の結了等,,,2015-10-05,1,,,,,アピアグループ,0
57,1011301012467,登記記録の閉鎖等,0,2025-09-08,2025-09-02,株式会社翔エステート,,株式会社,東京都,杉並区,下井草３丁目４番３号,,13,115,1670022,,,2025-09-02,清算の結了等,,,2015-10-05,1,,,,,ショウエステート,0
58,1011301014166,登記記録の閉鎖等,0,2025-09-08,2025-09-02,アールズ株式会社,,株式会社,東京都,杉並区,西荻北３丁目２０番１２－１００２号グラツィオーソ西荻窪,,13,115,1670042,,,2025-09-02,清算の結了等,,,2015-10-05,1,,,,,アールズ,0
61,1011301023951,登記記録の閉鎖等,0,2025-09-08,2025-09-03,株式会社ＳＯＳ,,株式会社,東京都,杉並区,和泉２丁目２７番１－３０９号,,13,115,1680063,,,2025-09-03,清算の結了等,,,2018-03-12,1,,,,,エスオーエス,0
73,1012801021817,登記記録の閉鎖等,0,2025-09-08,2025-09-01,株式会社ＯＳＣフィッシュ,,株式会社,東京都,国分寺市,本町４丁目１２番１号,,13,214,1850012,,,2025-09-01,合併による解散等,2012401015268,令和７年９月１日東京都国分寺市本町四丁目１２番１号株式会社Ｏｌｙｍｐｉｃ（2012401015268）に合併し解散,2022-09-06,1,,,,,オーエスシーフィッシュ,0
87,1030001159385,登記記録の閉鎖等,0,2025-09-08,2025-09-01,株式会社ワンエイト,,株式会社,埼玉県,さいたま市見沼区,大字風渡野３６６番地２８Ａｍｂｉｔｉｏｎ見沼１０５,,11,104,3370017,,,2025-09-01,清算の結了等,,,2024-03-25,1,,,,,ワンエイト,0
100,1050001023003,登記記録の閉鎖等,0,2025-09-08,2025-08-28,株式会社エスコン,,株式会社,茨城県,常陸太田市,高柿町１０５９－１,,08,212,3130113,,,2025-08-28,清算の結了等,,,2015-10-05,1,,,,,エスコン,0
111,1080102013750,登記記録の閉鎖等,0,2025-09-08,2025-09-03,共和運送有限会社,,有限会社,静岡県,富士市,今泉３４８番地の１,,22,210,4170001,,,2025-09-03,清算の結了等,,,2015-10-05,1,,,,,キョウワウンソウ,0
112,1080102017272,登記記録の閉鎖等,0,2025-09-08,2025-09-03,有限会社松村商店,,有限会社,静岡県,富士宮市,三園平６６５番地,,22,207,4180004,,,2025-09-03,清算の結了等,,,2015-10-05,1,,,,,マツムラショウテン,0
113,1080401000433,登記記録の閉鎖等,0,2025-09-08,2025-09-02,イズゴ株式会社,,株式会社,静岡県,浜松市中央区,卸本町７９番地,,22,138,4328055,,,2025-09-02,清算の結了等,,,2015-10-05,1,,,,,イズゴ,0
119,1100001002430,登記記録の閉鎖等,0,2025-09-08,2025-08-25,長野テクトロン株式会社,,株式会社,長野県,長野市,篠ノ井塩崎２３０４番地１,,20,201,3888014,,,2025-08-25,合併による解散等,5010401088182,令和７年８月１日長野市篠ノ井塩崎２３０４番地１株式会社医療情報基盤（5010401088182）に合併し解散,2015-10-05,1,,,,,ナガノテクトロン,0
128,1120001058066,登記記録の閉鎖等,0,2025-09-08,2025-09-02,株式会社フジ,,株式会社,大阪府,大阪市淀川区,西宮原１丁目８番４８号,,27,123,5320004,,,2025-09-02,清算の結了等,,,2015-10-05,1,,,,,フジ,0
135,1120003021625,登記記録の閉鎖等,0,2025-09-08,2025-08-26,合同会社Ｕｎｉｔｙ,,合同会社,神奈川県,座間市,四ツ谷８８５－２ガーデンコートｓ１－１０２号,,14,216,2520025,,,2025-08-26,清算の結了等,,,2022-05-10,1,,,,,ユニティー,0
147,1130001000365,登記記録の閉鎖等,0,2025-09-08,2025-08-06,大田商事株式会社,,株式会社,京都府,京都市山科区,四ノ宮小金塚１番地１０３,,26,110,6078022,,,2025-08-06,清算の結了等,,,2015-10-05,1,,,,,オオタショウジ,0
154,1140001031186,登記記録の閉鎖等,0,2025-09-08,2025-09-02,株式会社六甲廣藝,,株式会社,兵庫県,神戸市灘区,高尾通１丁目３番１３号,,28,102,6570813,,,2025-09-02,清算の結了等,,,2015-10-05,1,,,,,ロッコウコウゲイ,0
171,1180002053837,登記記録の閉鎖等,0,2025-09-08,2025-08-29,有限会社ウッドワーク,,有限会社,愛知県,名古屋市中川区,神郷町２丁目１２番地,,23,110,4540046,,,2025-08-29,清算の結了等,,,2015-10-05,1,,,,,ウッドワーク,0
173,1180002064132,登記記録の閉鎖等,0,2025-09-08,2025-08-27,有限会社ディーサイド,,有限会社,愛知県,豊明市,栄町南舘４８番地の３,,23,229,4701168,,,2025-08-27,清算の結了等,,,2015-10-05,1,,,,,ディーサイド,0
175,1180002092455,登記記録の閉鎖等,0,2025-09-08,2025-08-29,有限会社ヤマグチ製作所,,有限会社,愛知県,あま市,七宝町川部山王１９８番地,,23,237,4970013,,,2025-08-29,清算の結了等,,,2015-10-05,1,,,,,ヤマグチセイサクショ,0
186,1210001004218,登記記録の閉鎖等,0,2025-09-08,2025-09-01,ヤスダウェルフーズ株式会社,,株式会社,福井県,福井市,高柳１丁目２５１２番地,,18,201,9100837,,,2025-09-01,合併による解散等,9210001004219,令和７年９月１日福井市高柳一丁目２５１２番地安田蒲鉾株式会社（9210001004219）に合併し解散,2015-10-05,1,,,,,ヤスダウェルフーズ,0
188,1210002013127,登記記録の閉鎖等,0,2025-09-08,2025-09-02,有限会社田中薬品,,有限会社,福井県,鯖江市,落井町第４３号３８番地,,18,207,9161115,,,2025-09-02,清算の結了等,,,2015-10-05,1,,,,,タナカヤクヒン,0
216,1350003004111,登記記録の閉鎖等,0,2025-09-08,2025-09-03,合同会社ＳＴＹ,,合同会社,宮崎県,日南市,北郷町郷之原乙１４３６番地１,,45,204,8892402,,,2025-09-03,清算の結了等,,,2022-07-04,1,,,,,エスティワイ,0
218,1370001014093,登記記録の閉鎖等,0,2025-09-08,2025-08-26,株式会社フロンティア,,株式会社,宮城県,仙台市青葉区,中央２丁目１番２７号,,04,101,9800021,,,2025-08-26,清算の結了等,,,2015-10-05,1,,,,,フロンティア,0
223,1370003005297,登記記録の閉鎖等,0,2025-09-08,2025-08-25,コ・デザイン仙台合同会社,,合同会社,宮城県,仙台市青葉区,角五郎１丁目８番７－５０６号,,04,101,9800874,,,2025-08-25,清算の結了等,,,2021-07-06,1,,,,,コデザインセンダイ,0
233,1430001071640,登記記録の閉鎖等,0,2025-09-08,2025-09-01,株式会社ＨＡＮＡＫＯ,,株式会社,北海道,札幌市清田区,美しが丘五条９丁目１０番３０号,,01,110,0040815,,,2025-09-01,合併による解散等,5430001024735,令和７年９月１日札幌市清田区美しが丘五条九丁目１０番３０号株式会社ベル・クール研究所（5430001024735）に合併し解散,2016-05-25,1,,,,,ハナコ,0
245,1500001012827,登記記録の閉鎖等,0,2025-09-08,2025-09-03,株式会社野間組,,株式会社,愛媛県,今治市,伯方町有津甲８２９番地の３,,38,202,7942301,,,2025-09-03,清算の結了等,,,2015-10-05,1,,,,,ノマグミ,0
251,2010001162885,登記記録の閉鎖等,0,2025-09-08,2025-08-29,株式会社ギネプラス,,株式会社,埼玉県,北足立郡伊奈町,学園２丁目９５番地３４,,11,301,3620813,,,2025-08-29,清算の結了等,,,2015-10-05,1,,,,,ギネプラス,0
252,2010001164808,登記記録の閉鎖等,0,2025-09-08,2025-09-01,アイスバッテリー株式会社,,株式会社,東京都,千代田区,丸の内１丁目５番１号新丸の内ビルディング１０階,,13,101,1000005,,,2025-09-01,合併による解散等,3011301013991,令和７年９月１日東京都千代田区丸の内一丁目５番１号新丸の内ビルアイ・ティ・イー株式会社（3011301013991）に合併し解散,2015-10-05,1,,,,,アイスバッテリー,0
254,2010003039628,登記記録の閉鎖等,0,2025-09-08,2025-08-15,合同会社ＲＥＮＯＳＹファンド１号,,合同会社,東京都,千代田区,霞が関３丁目２番５号,,13,101,1000013,,,2025-08-15,清算の結了等,,,2023-01-19,1,,,,,リノシーファンドイチゴウ,0
260,2010401070052,登記記録の閉鎖等,0,2025-09-08,2025-09-01,株式会社セクオ,,株式会社,埼玉県,上尾市,本町３丁目７番１７号,,11,219,3620014,,,2025-09-01,清算の結了等,,,2015-10-05,1,,,,,セクオ,0
273,2010403021689,登記記録の閉鎖等,0,2025-09-08,2025-08-08,合同会社築地ホテル管理,,合同会社,東京都,港区,虎ノ門５丁目１番４号,,13,103,1050001,,,2025-08-08,清算の結了等,,,2019-10-29,1,,,,,ツキジホテルカンリ,0
275,2010403032356,登記記録の閉鎖等,0,2025-09-08,2025-08-08,ｒｅｎｇａプロ第３号合同会社,,合同会社,東京都,港区,赤坂４丁目１５番１号赤坂ガーデンシティ３階,,13,103,1070052,,,2025-08-08,清算の結了等,,,2024-04-11,1,,,,,レンガプロダイサンゴウ,0
280,2010502007119,登記記録の閉鎖等,0,2025-09-08,2025-08-27,有限会社千速商事,,有限会社,東京都,台東区,浅草３丁目４２番４号,,13,106,1110032,,,2025-08-27,清算の結了等,,,2015-10-05,1,,,,,,0
285,2010801008998,登記記録の閉鎖等,0,2025-09-08,2025-09-01,日本デコール株式会社,,株式会社,東京都,大田区,蒲田５丁目２６番３号,,13,111,1440052,,,2025-09-01,清算の結了等,,,2015-10-05,1,,,,,ニホンデコール,0
294,2011001145533,登記記録の閉鎖等,0,2025-09-08,2025-08-06,株式会社エアロスリム,,株式会社,東京都,渋谷区,東１丁目１番３６号キタ・ビルデンス１Ｆ,,13,113,1500011,,,2025-08-06,清算の結了等,,,2022-02-10,1,,,,,エアロスリム,0
298,2011003010628,登記記録の閉鎖等,0,2025-09-08,2025-08-07,リーコネクト・ジャパン合同会社,,合同会社,東京都,港区,元麻布３丁目１番６号,,13,103,1060046,,,2025-08-07,清算の結了等,,,2019-12-09,1,,,,,リーコネクトジャパン,0
316,2012401002638,登記記録の閉鎖等,0,2025-09-08,2025-08-27,株式会社武蔵開発,,株式会社,東京都,国分寺市,東戸倉１丁目１５番地２,,13,214,1850002,,,2025-08-27,清算の結了等,,,2015-10-05,1,,,,,ムサシカイハツ,0
323,2012402016348,登記記録の閉鎖等,0,2025-09-08,2025-09-03,有限会社エビス自動車整備工場,,有限会社,東京都,武蔵野市,関前４丁目１番３号,,13,203,1800014,,,2025-09-03,清算の結了等,,,2015-10-05,1,,,,,エビスジドウシャセイビコウジョウ,0
334,2020001104291,登記記録の閉鎖等,0,2025-09-08,2025-09-04,株式会社なゆた企画,,株式会社,神奈川県,相模原市中央区,宮下本町２丁目３６－５,,14,152,2520211,,,2025-09-04,清算の結了等,,,2015-10-05,1,,,,,,0
346,2021002033496,登記記録の閉鎖等,0,2025-09-08,2025-08-29,有限会社ヤマオ商事,,有限会社,神奈川県,厚木市,下川入４１８番地,,14,212,2430206,,,2025-08-29,清算の結了等,,,2015-10-05,1,,,,,ヤマオショウジ,0
347,2021002037679,登記記録の閉鎖等,0,2025-09-08,2025-08-28,有限会社門倉商店,,有限会社,神奈川県,秦野市,鶴巻南２丁目２番３０号,,14,211,2570002,,,2025-08-28,清算の結了等,,,2015-10-05,1,,,,,カドクラショウテン,0
361,2040001101378,登記記録の閉鎖等,0,2025-09-08,2025-08-14,株式会社ＣＨＡＴＥＯ,,株式会社,千葉県,松戸市,大谷口６３番地の２２,,12,207,2700005,,,2025-08-14,清算の結了等,,,2017-08-14,1,,,,,,0
379,2070002034475,登記記録の閉鎖等,0,2025-09-08,2025-09-01,有限会社デイトリッパー,,有限会社,群馬県,館林市,若宮町２７４８番地の８,,10,207,3740007,,,2025-09-01,清算の結了等,,,2015-10-05,1,,,,,デイトリッパー,0
423,2180001012693,登記記録の閉鎖等,0,2025-09-08,2025-08-27,株式会社地質技研,,株式会社,愛知県,名古屋市北区,中丸町２丁目３１番地の１,,23,103,4620056,,,2025-08-27,清算の結了等,,,2015-10-05,1,,,,,チシツギケン,0
426,2180001068075,登記記録の閉鎖等,0,2025-09-08,2025-09-02,株式会社ル・タンブル,,株式会社,愛知県,名古屋市西区,名駅２丁目２７番８号名古屋プライムセントラルタワー,,23,104,4510045,,,2025-09-02,合併による解散等,6180001068113,令和７年９月１日名古屋市西区名駅二丁目２７番８号名古屋プライムセントラルタワー株式会社アメーバホールディングス（6180001068113）に合併し解散,2015-10-05,1,,,,,ルタンブル,0
428,2180001087298,登記記録の閉鎖等,0,2025-09-08,2025-08-27,株式会社奥島エンタープライズ,,株式会社,愛知県,江南市,松竹町西瀬古１１７番地,,23,217,4838355,,,2025-08-27,清算の結了等,,,2015-10-05,1,,,,,オクシマエンタープライズ,0
435,2180001161689,登記記録の閉鎖等,0,2025-09-08,2025-08-20,株式会社Ｔーｂｒｉｇｈｔ,,株式会社,愛知県,あま市,甚目寺須原２７番地３,,23,237,4901111,,,2025-08-20,清算の結了等,,,2024-05-29,1,,,,,ティーブライト,0
441,2180002092396,登記記録の閉鎖等,0,2025-09-08,2025-08-25,有限会社野田漆器,,有限会社,愛知県,あま市,七宝町下之森河原５２番地,,23,237,4970006,,,2025-08-25,清算の結了等,,,2015-10-05,1,,,,,ノダシッキ,0
448,2180301017946,登記記録の閉鎖等,0,2025-09-08,2025-08-12,エーセンワーク株式会社,,株式会社,愛知県,豊田市,広久手町２丁目３２番地,,23,211,4710036,,,2025-08-12,清算の結了等,,,2015-10-05,1,,,,,エーセンワーク,0
451,2200001000530,登記記録の閉鎖等,0,2025-09-08,2025-09-01,宇野不動産株式会社,,株式会社,岐阜県,岐阜市,神田町７丁目１０番地,,21,201,5008833,,,2025-09-01,合併による解散等,5200001000528,令和７年８月３１日岐阜市神田町七丁目１０番地株式会社宇野電機商会（5200001000528）に合併し解散,2015-10-05,1,,,,,ウノフドウサン,0
455,2200003000248,登記記録の閉鎖等,0,2025-09-08,2025-09-01,合資会社宇野商会,,合資会社,岐阜県,岐阜市,神田町７丁目１０番地,,21,201,5008833,,,2025-09-01,合併による解散等,5200001000528,令和７年８月３１日岐阜市神田町七丁目１０番地株式会社宇野電機商会（5200001000528）に合併し解散,2015-10-05,1,,,,,ウノショウカイ,0
469,2260001031231,登記記録の閉鎖等,0,2025-09-08,2025-08-26,株式会社Ｂｏｕｖａｒｄｉａ,,株式会社,岡山県,岡山市北区,中山下２丁目２番１号エスパス岡山Ｂ１Ｆ,,33,101,7000821,,,2025-08-26,合併による解散等,5430001071562,令和７年８月１日札幌市中央区南二条西一丁目５番丸大ビル４階４号室株式会社ＡＶＥＮＩＬ（5430001071562）に合併し解散,2017-09-11,1,,,,,ブバルディア,0
481,2320005007147,登記記録の閉鎖等,0,2025-09-08,2025-09-03,特定非営利活動法人大山水環境アスリート,,その他の設立登記法人,大分県,日田市,大山町東大山２３６６番地,,44,204,8770202,,,2025-09-03,清算の結了等,,,2015-10-05,1,,,,,オオヤマミズカンキョウアスリート,0
484,2330001018064,登記記録の閉鎖等,0,2025-09-08,2025-08-28,株式会社手野運送,,株式会社,熊本県,宇城市,小川町南小川３３５番地,,43,213,8690614,,,2025-08-28,清算の結了等,,,2015-10-05,1,,,,,テノウンソウ,0
503,2380005003272,登記記録の閉鎖等,0,2025-09-08,2025-08-26,特定非営利活動法人ふくしまユニバーサルデザイン,,その他の設立登記法人,福島県,郡山市,大町１丁目３番１３号,,07,203,9638001,,,2025-08-26,清算の結了等,,,2015-10-05,1,,,,,フクシマユニバーサルデザイン,0
526,3010401026615,登記記録の閉鎖等,0,2025-09-08,2025-08-08,株式会社プロデュースハウス都,,株式会社,東京都,港区,赤坂６丁目４番１１－４０１号,,13,103,1070052,,,2025-08-08,清算の結了等,,,2015-10-05,1,,,,,プロデュースハウスミヤコ,0
533,3010403012076,登記記録の閉鎖等,0,2025-09-08,2025-08-08,合同会社ｓｏａｋａｐｐ,,合同会社,東京都,港区,南青山２丁目２番１５号ウィン青山９階,,13,103,1070062,,,2025-08-08,清算の結了等,,,2015-10-05,1,,,,,ソークアップ,0
539,3010405015944,登記記録の閉鎖等,0,2025-09-08,2025-08-18,一般社団法人シーコンソーシアム,,その他の設立登記法人,東京都,中央区,京橋２丁目１４番１号,,13,102,1040031,,,2025-08-18,清算の結了等,,,2017-07-31,1,,,,,シーコンソーシアム,0
546,3010601025144,登記記録の閉鎖等,0,2025-09-08,2025-09-02,株式会社ウエスタリアケース,,株式会社,東京都,墨田区,菊川３丁目２番６号,,13,107,1300024,,,2025-09-02,清算の結了等,,,2015-10-05,1,,,,,ウエスタリアケース,0
550,3010602000518,登記記録の閉鎖等,0,2025-09-08,2025-09-02,有限会社宇城,,有限会社,東京都,江東区,東陽５丁目２番９号,,13,108,1350016,,,2025-09-02,清算の結了等,,,2015-10-05,1,,,,,ウシロ,0
575,3011202004883,登記記録の閉鎖等,0,2025-09-08,2025-09-01,有限会社パワーハウス,,有限会社,東京都,中野区,大和町１丁目３番１１号,,13,114,1650034,,,2025-09-01,清算の結了等,,,2015-10-05,1,,,,,パワーハウス,0
587,3011702004037,登記記録の閉鎖等,0,2025-09-08,2025-08-12,有限会社高進インテリア,00056607,有限会社,千葉県,市川市,新井３丁目１５番３０号,,12,203,2720144,,,2025-08-12,清算の結了等,,,2015-10-05,1,,,,,コウシンインテリア,0
592,3011802000043,登記記録の閉鎖等,0,2025-09-08,2025-08-18,有限会社アヴァーンティ,,有限会社,東京都,台東区,蔵前４丁目１１番６号,,13,106,1110051,,,2025-08-18,清算の結了等,,,2015-10-05,1,,,,,アヴァーンティ,0
593,3012402002487,登記記録の閉鎖等,0,2025-09-08,2025-09-03,有限会社堀江工務店,,有限会社,東京都,府中市,天神町３丁目１１番地の５,,13,206,1830053,,,2025-09-03,清算の結了等,,,2015-10-05,1,,,,,ホリエコウムテン,0
597,3012701017252,登記記録の閉鎖等,0,2025-09-08,2025-09-01,株式会社シバモリ,,株式会社,東京都,小平市,花小金井５丁目５８番１３号,,13,211,1870002,,,2025-09-01,清算の結了等,,,2022-09-14,1,,,,,シバモリ,0
600,3013301001704,登記記録の閉鎖等,0,2025-09-08,2025-08-28,株式会社エイ・アンド・エイ,,株式会社,東京都,豊島区,西池袋３丁目６番５号,,13,116,1710021,,,2025-08-28,清算の結了等,,,2015-10-05,1,,,,,エイアンドエイ,0
603,3020001118150,登記記録の閉鎖等,0,2025-09-08,2025-08-25,株式会社サポート,,株式会社,神奈川県,横浜市金沢区,朝比奈町３６１番地３５,,14,108,2360034,,,2025-08-25,清算の結了等,,,2016-10-11,1,,,,,サポート,0
609,3020003013754,登記記録の閉鎖等,0,2025-09-08,2025-08-20,合同会社剛ＴＥＣ,,合同会社,神奈川県,川崎市宮前区,有馬６丁目４番１７－２０３号キャピタル鷺沼,,14,136,2160003,,,2025-08-20,清算の結了等,,,2018-01-16,1,,,,,ゴウテック,0
611,3021001039114,登記記録の閉鎖等,0,2025-09-08,2025-08-29,株式会社松映企画,,株式会社,神奈川県,平塚市,纒７０番地の４,,14,203,2540901,,,2025-08-29,清算の結了等,,,2015-10-05,1,,,,,ショウエイキカク,0
621,3040001071331,登記記録の閉鎖等,0,2025-09-08,2025-08-12,株式会社たっく設計,,株式会社,千葉県,野田市,柳沢５４番地９０,,12,208,2780006,,,2025-08-12,清算の結了等,,,2015-10-05,1,,,,,タックセッケイ,0
631,3050001039385,登記記録の閉鎖等,0,2025-09-08,2025-08-28,株式会社神奈川小野寺商事,,株式会社,神奈川県,厚木市,飯山南３丁目９番３４号エミネンス・飯山１０２,,14,212,2430218,,,2025-08-28,清算の結了等,,,2015-10-05,1,,,,,カナガワオノデラショウジ,0
636,3050002008785,登記記録の閉鎖等,0,2025-09-08,2025-08-29,有限会社日進電気商会,,有限会社,茨城県,ひたちなか市,外野２丁目８番３２号,,08,221,3120053,,,2025-08-29,清算の結了等,,,2015-10-05,1,,,,,ニッシンデンキショウカイ,0
637,3050002032380,登記記録の閉鎖等,0,2025-09-08,2025-08-27,有限会社北茨城営繕,,有限会社,茨城県,北茨城市,中郷町石岡１７５番地の５,,08,215,3191558,,,2025-08-27,清算の結了等,,,2015-10-05,1,,,,,イバラキエイゼン,0
641,3070002031587,登記記録の閉鎖等,0,2025-09-08,2025-09-01,有限会社山口プレス製作所,,有限会社,群馬県,太田市,新田中江田町１５５６番地の４,,10,205,3700332,,,2025-09-01,清算の結了等,,,2015-10-05,1,,,,,ヤマグチプレスセイサクショ,0
647,3100001013772,登記記録の閉鎖等,0,2025-09-08,2025-09-01,株式会社中野工務店,,株式会社,長野県,松本市,大字笹賀５９０５番地３,,20,202,3990033,,,2025-09-01,合併による解散等,9100001024021,令和７年８月３１日長野県松本市大字島内７７１６番地８株式会社幸建設（9100001024021）に合併し解散,2015-10-05,1,,,,,ナカノコウムテン,0
649,3110001031154,登記記録の閉鎖等,0,2025-09-08,2025-08-28,株式会社荒井電機,,株式会社,新潟県,新潟市江南区,松山１５６１番地,,15,104,9500112,,,2025-08-28,清算の結了等,,,2015-12-21,1,,,,,アライデンキ,0
652,3120001047983,登記記録の閉鎖等,0,2025-09-08,2025-08-29,株式会社八尾力堀岡商店,,株式会社,大阪府,大阪市西区,土佐堀３丁目４番６号,,27,106,5500001,,,2025-08-29,清算の結了等,,,2015-10-05,1,,,,,,0
671,3120005001268,登記記録の閉鎖等,0,2025-09-08,2025-09-04,成道寺,,その他の設立登記法人,大阪府,大阪市東成区,中道４丁目１１番２２号,,27,115,5370025,,,2025-09-04,清算の結了等,,,2015-10-05,1,,,,,,0
673,3120005020409,登記記録の閉鎖等,0,2025-09-08,2025-09-01,ＮＰＯ法人メッターフレンズ,,その他の設立登記法人,大阪府,大阪市西区,靱本町２丁目５番１２号靱公園プライマリーワン１階,,27,106,5500004,,,2025-09-01,清算の結了等,,,2018-08-28,1,,,,,メッターフレンズ,0
684,3140001081171,登記記録の閉鎖等,0,2025-09-08,2025-09-02,株式会社アトリエ芸樹,,株式会社,兵庫県,宝塚市,野上１丁目５番３１号,,28,214,6650022,,,2025-09-02,清算の結了等,,,2015-10-05,1,,,,,アトリエゲイジュ,0
687,3140001126356,登記記録の閉鎖等,0,2025-09-08,2025-09-01,株式会社カルボン,,株式会社,兵庫県,芦屋市,前田町６番６－５０１号,,28,206,6590071,,,2025-09-01,清算の結了等,,,2022-06-20,1,,,,,カルボン,0
688,3140001127230,登記記録の閉鎖等,0,2025-09-08,2025-09-02,株式会社ＡＺ,,株式会社,兵庫県,宝塚市,山手台東３丁目２番１号,,28,214,6650887,,,2025-09-02,清算の結了等,,,2022-09-02,1,,,,,エージー,0
695,3140005025827,登記記録の閉鎖等,0,2025-09-08,2025-09-03,ＬＩＢＥＣＣＩＯ一般社団法人,,その他の設立登記法人,兵庫県,神戸市中央区,北野町３丁目６番２号１階,,28,110,6500002,,,2025-09-03,清算の結了等,,,2021-09-24,1,,,,,リベッチオ,0
706,3160005006478,登記記録の閉鎖等,0,2025-09-08,2025-09-01,日野町漁業協同組合,,その他の設立登記法人,滋賀県,蒲生郡日野町,大字西大路２８７１番地の３,,25,383,5291628,,,2025-09-01,清算の結了等,,,2015-10-05,1,,,,,ヒノチョウ,0
709,3180001080731,登記記録の閉鎖等,0,2025-09-08,2025-08-15,犬山ビール株式会社,,株式会社,愛知県,犬山市,大字羽黒字古市場６番地,,23,215,4840894,,,2025-08-15,清算の結了等,,,2015-10-05,1,,,,,イヌヤマビール,0
717,3180002026790,登記記録の閉鎖等,0,2025-09-08,2025-08-29,山下機工有限会社,,有限会社,愛知県,名古屋市緑区,鳴丘２丁目２０５番地,,23,114,4580005,,,2025-08-29,清算の結了等,,,2015-10-05,1,,,,,ヤマシタキコウ,0
718,3180002072637,登記記録の閉鎖等,0,2025-09-08,2025-08-27,有限会社カミシマ,,有限会社,愛知県,尾張旭市,瀬戸川町１丁目１９３番地,,23,226,4880023,,,2025-08-27,清算の結了等,,,2015-10-05,1,,,,,カミシマ,0
732,3240001015490,登記記録の閉鎖等,0,2025-09-08,2025-09-01,広発ブレイン株式会社,,株式会社,広島県,広島市安佐南区,緑井６丁目１０番９号,,34,105,7310103,,,2025-09-01,合併による解散等,5240001003378,令和７年８月３１日広島市安佐南区緑井六丁目１０番９号広発工業株式会社（5240001003378）に合併し解散,2015-10-05,1,,,,,ヒロハツブレイン,0
741,3280005003298,登記記録の閉鎖等,0,2025-09-08,2025-09-05,医療法人愛和会,,その他の設立登記法人,島根県,出雲市,平田町９８９番地１,,32,203,6910001,,,2025-09-05,清算の結了等,,,2015-10-05,1,,,,,アイワカイ,0
744,3290802011691,登記記録の閉鎖等,0,2025-09-08,2025-09-02,有限会社ホープ,,有限会社,福岡県,北九州市小倉北区,砂津３丁目８番１号,,40,106,8020014,,,2025-09-02,清算の結了等,,,2015-10-05,1,,,,,ホープ,0
752,3330002006793,登記記録の閉鎖等,0,2025-09-08,2025-08-26,有限会社千花,,有限会社,熊本県,熊本市西区,出町４番４０－６１０号,,43,103,8600074,,,2025-08-26,清算の結了等,,,2015-10-05,1,,,,,チハナ,0
773,3470002010823,登記記録の閉鎖等,0,2025-09-08,2025-09-02,有限会社カフェレストエルトーラ,,有限会社,香川県,綾歌郡綾川町,陶２７５９番地３,,37,387,7612103,,,2025-09-02,清算の結了等,,,2015-10-05,1,,,,,,0
775,3500001008311,登記記録の閉鎖等,0,2025-09-08,2025-09-02,株式会社佐々木本店,,株式会社,愛媛県,西宇和郡伊方町,川永田甲１４２番地,,38,442,7960312,,,2025-09-02,清算の結了等,,,2015-10-05,1,,,,,ササキホンテン,0
778,4010001080607,登記記録の閉鎖等,0,2025-09-08,2025-09-02,株式会社イノベーティブ・アドバイザー,,株式会社,東京都,大田区,下丸子４丁目２６番１－１００２号,,13,111,1460092,,,2025-09-02,清算の結了等,,,2015-10-05,1,,,,,イノベーティブアドバイザー,0
784,4010001247750,登記記録の閉鎖等,0,2025-09-08,2025-08-18,株式会社ファンク,,株式会社,東京都,千代田区,神田須田町１丁目７番８号ＶＯＲＴ秋葉原ＩＶ２Ｆ,00136060,13,101,1010041,,,2025-08-18,清算の結了等,,,2024-08-23,1,,,,,ファンク,0
787,4010002039560,登記記録の閉鎖等,0,2025-09-08,2025-08-27,有限会社せきれい舎,,有限会社,東京都,台東区,浅草橋１丁目３５番７号,,13,106,1110053,,,2025-08-27,清算の結了等,,,2015-10-05,1,,,,,セキレイシャ,0
792,4010005026721,登記記録の閉鎖等,0,2025-09-08,2025-08-19,一般財団法人山元文化・芸術機構,,その他の設立登記法人,東京都,千代田区,神田神保町１丁目７番３号三光堂ビル,,13,101,1010051,,,2025-08-19,清算の結了等,,,2017-04-14,1,,,,,ヤマモトブンカゲイジュツキコウ,0
802,4010403027049,登記記録の閉鎖等,0,2025-09-08,2025-08-08,ＲＢソーラーリオ合同会社,,合同会社,東京都,港区,虎ノ門３丁目２２番１０－２０１号,,13,103,1050001,,,2025-08-08,清算の結了等,,,2022-02-08,1,,,,,アールビーソーラーリオ,0
811,4010802020414,登記記録の閉鎖等,0,2025-09-08,2025-08-21,有限会社エルゴラッソ,,有限会社,東京都,大田区,多摩川２丁目１８番１１号,,13,111,1460095,,,2025-08-21,清算の結了等,,,2015-10-05,1,,,,,エルゴラッソ,0
824,4011101039625,登記記録の閉鎖等,0,2025-09-08,2025-09-01,株式会社伊藤商事,,株式会社,埼玉県,越谷市,伊原２丁目１１番８号,,11,222,3430831,,,2025-09-01,清算の結了等,,,2015-10-05,1,,,,,イトウショウジ,0
840,4011502006174,登記記録の閉鎖等,0,2025-09-08,2025-09-02,有限会社山根電機商会,,有限会社,東京都,北区,浮間１丁目１番１５号,,13,117,1150051,,,2025-09-02,清算の結了等,,,2015-10-05,1,,,,,ヤマネデンキショウカイ,0
850,4012801021814,登記記録の閉鎖等,0,2025-09-08,2025-09-01,株式会社ＯＳＣミート,,株式会社,東京都,国分寺市,本町４丁目１２番１号,,13,214,1850012,,,2025-09-01,合併による解散等,2012401015268,令和７年９月１日東京都国分寺市本町四丁目１２番１号株式会社Ｏｌｙｍｐｉｃ（2012401015268）に合併し解散,2022-09-06,1,,,,,オーエスシーミート,0
851,4012802004462,登記記録の閉鎖等,0,2025-09-08,2025-09-02,有限会社三伸商事,,有限会社,栃木県,佐野市,関川町９００番地１０,,09,204,3270811,,,2025-09-02,清算の結了等,,,2015-10-05,1,,,,,サンシンショウジ,0
854,4013301046351,登記記録の閉鎖等,0,2025-09-08,2025-08-08,龍祥コミュニケーション株式会社,,株式会社,東京都,港区,南青山２丁目２－８ＤＦビル６Ｆ,,13,103,1070062,,,2025-08-08,清算の結了等,,,2020-10-14,1,,,,,リュウショウコミュニケーション,0
860,4020005005567,登記記録の閉鎖等,0,2025-09-08,2025-08-21,医療法人橋本クリニック,,その他の設立登記法人,神奈川県,横浜市青葉区,青葉台２丁目１８番地３モリエール青葉台２Ａ号室,,14,117,2270062,,,2025-08-21,清算の結了等,,,2015-10-05,1,,,,,ハシモトクリニック,0
861,4020005012200,登記記録の閉鎖等,0,2025-09-08,2025-08-20,特定非営利活動法人かみはし・はまっ子の会,,その他の設立登記法人,神奈川県,横浜市神奈川区,六角橋１丁目４番７号,,14,102,2210802,,,2025-08-20,清算の結了等,,,2015-10-05,1,,,,,カミハシハマッコノカイ,0
885,4070001020334,登記記録の閉鎖等,0,2025-09-08,2025-09-01,株式会社ワイヤプロセス,,株式会社,群馬県,邑楽郡大泉町,西小泉４丁目１４番３号,,10,524,3700517,,,2025-09-01,清算の結了等,,,2015-10-05,1,,,,,ワイヤプロセス,0
888,4070002008543,登記記録の閉鎖等,0,2025-09-08,2025-09-02,有限会社阿部製作所,,有限会社,群馬県,高崎市,石原町１８２１番地の１,,10,202,3700864,,,2025-09-02,清算の結了等,,,2015-10-05,1,,,,,アベセイサクジョ,0
889,4070002018121,登記記録の閉鎖等,0,2025-09-08,2025-09-01,有限会社ケアくん,,有限会社,群馬県,藤岡市,岡之郷８００番地２,,10,209,3750011,,,2025-09-01,清算の結了等,,,2015-10-05,1,,,,,ケアクン,0
899,4100002037984,登記記録の閉鎖等,0,2025-09-08,2025-09-01,有限会社ピュアチェ,,有限会社,長野県,飯田市,上郷飯沼３７００番地３,,20,205,3950002,,,2025-09-01,合併による解散等,7100001022885,令和７年９月１日長野県飯田市中村１７２９番地１日本糖尿食研株式会社（7100001022885）に合併し解散,2015-10-05,1,,,,,ピュアチェ,0
916,4120001246766,登記記録の閉鎖等,0,2025-09-08,2025-09-01,和利株式会社,,株式会社,大阪府,大阪市都島区,都島南通１丁目１９－１０－６０３,,27,102,5340023,,,2025-09-01,清算の結了等,,,2022-06-21,1,,,,,カズトシ,0
948,4140002065981,登記記録の閉鎖等,0,2025-09-08,2025-09-01,有限会社ダイチ工芸,,有限会社,兵庫県,川西市,東久代２丁目９番１８号,,28,217,6660023,,,2025-09-01,清算の結了等,,,2015-10-05,1,,,,,ダイチコウゲイ,0
953,4150002007652,登記記録の閉鎖等,0,2025-09-08,2025-09-04,有限会社西岡商事製作所,,有限会社,奈良県,橿原市,縄手町１３９番地,,29,205,6340073,,,2025-09-04,清算の結了等,,,2015-10-05,1,,,,,ニシオカセイサクショ,0
973,4180301035905,登記記録の閉鎖等,0,2025-09-08,2025-08-29,スピリッツ株式会社,,株式会社,愛知県,岡崎市,明大寺本町２丁目１９番地,,23,202,4440860,,,2025-08-29,清算の結了等,,,2022-02-04,1,,,,,,0
979,4210001011285,登記記録の閉鎖等,0,2025-09-08,2025-09-02,株式会社ＡＳＡ敦賀,,株式会社,福井県,敦賀市,沓見９３号１番地,,18,202,9140823,,,2025-09-02,清算の結了等,,,2015-10-05,1,,,,,アサツルガ,0
1005,4340001020281,登記記録の閉鎖等,0,2025-09-08,2025-09-02,株式会社倉電,,株式会社,鹿児島県,鹿児島市,若葉町３番１２号,,46,201,8900006,,,2025-09-02,清算の結了等,,,2017-05-15,1,,,,,クラデン,0
1014,4380005007057,登記記録の閉鎖等,0,2025-09-08,2025-08-27,神習教高山講社,,その他の設立登記法人,福島県,南相馬市,原町区桜井字原畑１３５番地,,07,212,9750000,,,2025-08-27,清算の結了等,,,2015-10-05,1,,,,,,0
1024,4490001001267,登記記録の閉鎖等,0,2025-09-08,2025-09-01,四国理科株式会社,,株式会社,高知県,高知市,大津乙１０６７番地６,,39,201,7815103,,,2025-09-01,合併による解散等,5130001029574,令和７年８月２１日京都市左京区一乗寺西水干町１７番地和研薬株式会社（5130001029574）に合併し解散,2015-10-05,1,,,,,シコクリカ,0
1029,5010001137513,登記記録の閉鎖等,0,2025-09-08,2025-09-02,福田工芸株式会社,,株式会社,東京都,小平市,御幸町３０６番地の４５,,13,211,1870012,,,2025-09-02,清算の結了等,,,2015-10-05,1,,,,,フクダコウゲイ,0
1041,5010005024146,登記記録の閉鎖等,0,2025-09-08,2025-08-15,南多摩特定目的会社,,その他の設立登記法人,東京都,中央区,日本橋１丁目４番１号,,13,102,1030027,,,2025-08-15,清算の結了等,,,2015-10-05,1,,,,,ミナミタマ,0
1055,5010401178867,登記記録の閉鎖等,0,2025-09-08,2025-08-07,株式会社ｓｕｂケッサイ,,株式会社,東京都,港区,北青山２丁目７番２０号猪瀬ビル２Ｆ,,13,103,1070061,,,2025-08-07,清算の結了等,,,2023-12-04,1,,,,,エスユービーケッサイ,0
1062,5010402002860,登記記録の閉鎖等,0,2025-09-08,2025-09-04,有限会社岡本一宣デザイン事務所,,有限会社,東京都,港区,南青山５丁目４番３５号,,13,103,1070062,,,2025-09-04,合併による解散等,8010901002409,令和７年９月１日東京都世田谷区松原三丁目９番１号株式会社岡本一宣デザイン事務所（8010901002409）に合併し解散,2015-10-05,1,,,,,,0
1077,5010802004721,登記記録の閉鎖等,0,2025-09-08,2025-09-03,有限会社くるみ,,有限会社,東京都,大田区,南六郷２丁目２４番６号,,13,111,1440045,,,2025-09-03,合併による解散等,8011001120349,令和７年６月３０日東京都港区浜松町二丁目１３番１０号株式会社Ｌｉｎｃ’ｗｅｌｌ（8011001120349）に合併し解散,2015-10-05,1,,,,,クルミ,0
1084,5011001096303,登記記録の閉鎖等,0,2025-09-08,2025-09-04,株式会社ティーアンドエスインターナショナル,,株式会社,東京都,渋谷区,代官山町９番８号,,13,113,1500034,,,2025-09-04,合併による解散等,8010901005618,令和７年９月１日東京都世田谷区若林四丁目３５番５号株式会社佐藤地所（8010901005618）に合併し解散,2015-10-05,1,,,,,ティーアンドエスインターナショナル,0
1104,5011302010895,登記記録の閉鎖等,0,2025-09-08,2025-09-02,有限会社ティーエムケイ事務所,,有限会社,東京都,杉並区,阿佐谷北１丁目４０番７号,,13,115,1660001,,,2025-09-02,清算の結了等,,,2015-10-05,1,,,,,ティーエムケイジムショ,0
1113,5011801002121,登記記録の閉鎖等,0,2025-09-08,2025-09-01,株式会社柴吉金属,,株式会社,東京都,葛飾区,柴又１丁目３５番１２号,,13,122,1250052,,,2025-09-01,清算の結了等,,,2015-10-05,1,,,,,シバヨシキンゾク,0
1114,5011801042927,登記記録の閉鎖等,0,2025-09-08,2025-09-01,株式会社カンガルーポイント,,株式会社,東京都,足立区,千住橋戸町１－２０ＡＱＵＡＶＩＳＴＡ１４０８,,13,121,1200038,,,2025-09-01,清算の結了等,,,2023-08-22,1,,,,,カンガルーポイント,0
1117,5012401007254,登記記録の閉鎖等,0,2025-09-08,2025-09-01,株式会社アメック,,株式会社,東京都,調布市,柴崎１丁目５０番地４,,13,208,1820014,,,2025-09-01,合併による解散等,8012401008753,令和７年９月１日東京都調布市柴崎一丁目５０番地４株式会社ヤマシロ（8012401008753）に合併し解散,2015-10-05,1,,,,,アメック,0
1138,5021001035904,登記記録の閉鎖等,0,2025-09-08,2025-08-27,株式会社フォレクスラボ,,株式会社,神奈川県,小田原市,鴨宮８４４番地の１６,,14,206,2500874,,,2025-08-27,清算の結了等,,,2015-10-05,1,,,,,フォレクスラボ,0
1153,5030002035284,登記記録の閉鎖等,0,2025-09-08,2025-09-01,有限会社坂井工業,,有限会社,埼玉県,入間市,宮寺３４５番地６,,11,225,3580014,,,2025-09-01,清算の結了等,,,2015-10-05,1,,,,,サカイコウギョウ,0
1164,5040002083596,登記記録の閉鎖等,0,2025-09-08,2025-08-13,有限会社トムソーヤ,,有限会社,千葉県,成田市,並木町１４２番地３３,,12,211,2860045,,,2025-08-13,清算の結了等,,,2015-10-05,1,,,,,トムソーヤ,0
1178,5070002023120,登記記録の閉鎖等,0,2025-09-08,2025-09-01,有限会社カミヤマ,,有限会社,群馬県,桐生市,新里町新川１５３番地,,10,203,3760121,,,2025-09-01,清算の結了等,,,2015-10-05,1,,,,,カミヤマ,0
1179,5080002013269,登記記録の閉鎖等,0,2025-09-08,2025-09-01,株式会社稲葉ブロイラー,,株式会社,山梨県,笛吹市,八代町米倉１４４７番地,,19,211,4060835,,,2025-09-01,合併による解散等,3090001006258,令和７年９月１日山梨県笛吹市八代町米倉１４４７番地甲斐食産株式会社（3090001006258）に合併し解散,2015-10-05,1,,,,,イナバブロイラー,0
1183,5080402007952,登記記録の閉鎖等,0,2025-09-08,2025-09-01,有限会社三方原電気工事,,有限会社,静岡県,浜松市中央区,三方原町２８２番地の２,,22,138,4338105,,,2025-09-01,清算の結了等,,,2024-02-07,1,,,,,ミカタバラデンキコウジ,0
1184,5080402009239,登記記録の閉鎖等,0,2025-09-08,2025-09-02,有限会社湖西大惣商店,,有限会社,静岡県,湖西市,太田１７２番地の５,,22,221,4310404,,,2025-09-02,清算の結了等,,,2015-10-05,1,,,,,コサイダイソウショウテン,0
1217,5150001023402,登記記録の閉鎖等,0,2025-09-08,2025-09-04,株式会社澤井仮設,,株式会社,奈良県,大和郡山市,柳町５５６番地（６１２号）,,29,203,6391134,,,2025-09-04,清算の結了等,,,2019-11-26,1,,,,,サワイカセツ,0
1222,5180001027499,登記記録の閉鎖等,0,2025-09-08,2025-08-27,株式会社山形屋,,株式会社,愛知県,名古屋市西区,上名古屋２丁目４番２号,,23,104,4510025,,,2025-08-27,清算の結了等,,,2015-10-05,1,,,,,ヤマガタヤ,0
1225,5180001128611,登記記録の閉鎖等,0,2025-09-08,2025-08-27,リケン株式会社,,株式会社,愛知県,名古屋市守山区,花咲台２丁目１０４番,,23,113,4630808,,,2025-08-27,清算の結了等,,,2017-07-19,1,,,,,リケン,0
1229,5180002088581,登記記録の閉鎖等,0,2025-09-08,2025-08-26,有限会社輝工業,,有限会社,愛知県,知多市,梅が丘１丁目１９７番地の４,,23,224,4780016,,,2025-08-26,清算の結了等,,,2015-10-05,1,,,,,キコウギョウ,0
1237,5230001005887,登記記録の閉鎖等,0,2025-09-08,2025-09-02,大和海産株式会社,,株式会社,富山県,富山市,赤田４８７番地１,,16,201,9398064,,,2025-09-02,合併による解散等,7230001000473,令和７年９月１日富山市赤田４８７番地１株式会社大阪屋ショップ（7230001000473）に合併し解散,2015-10-05,1,,,,,ヤマトカイサン,0
1242,5230002005762,登記記録の閉鎖等,0,2025-09-08,2025-09-04,有限会社源七,,有限会社,富山県,富山市,吉作２２１番地,,16,201,9300142,,,2025-09-04,清算の結了等,,,2015-10-05,1,,,,,ゲンナナ,0
1243,5230002008229,登記記録の閉鎖等,0,2025-09-08,2025-09-04,有限会社安丸重機,,有限会社,富山県,黒部市,三日市３０４番地,,16,207,9380031,,,2025-09-04,清算の結了等,,,2015-10-05,1,,,,,ヤスマルジュウキ,0
1246,5240001041808,登記記録の閉鎖等,0,2025-09-08,2025-09-02,株式会社ドリームクリエイト,,株式会社,広島県,広島市西区,井口台２丁目２３番４－５０１号,,34,104,7330844,,,2025-09-02,清算の結了等,,,2015-10-05,1,,,,,ドリームクリエイト,0
1247,5240002024893,登記記録の閉鎖等,0,2025-09-08,2025-09-01,有限会社工房志楽,,有限会社,広島県,広島市安佐北区,安佐町久地２５１番地２０９,,34,106,7391700,,,2025-09-01,合併による解散等,8240001054600,令和７年９月１日広島市安佐南区長束四丁目１７番７号Ｌａｐｉｎホールディングス株式会社（8240001054600）に合併し解散,2015-10-05,1,,,,,コウボウシラク,0
1248,5240002027896,登記記録の閉鎖等,0,2025-09-08,2025-09-01,有限会社高橋技研,,有限会社,広島県,東広島市,福富町久芳字沢田２０００番地の３,,34,212,7392303,,,2025-09-01,清算の結了等,,,2015-10-05,1,,,,,タカハシギケン,0
1249,5250001020810,登記記録の閉鎖等,0,2025-09-08,2025-09-04,株式会社ＲＥＦＩＸ,,株式会社,山口県,山口市,朝田１６０２番地１アンジュール朝田６０２号,,35,203,7530871,,,2025-09-04,清算の結了等,,,2024-09-11,1,,,,,リフィックス,0
1254,5290002047056,登記記録の閉鎖等,0,2025-09-08,2025-08-08,有限会社大鶴タクシー,00093476,有限会社,福岡県,筑後市,大字野町３７８番地の１,,40,211,8330032,,,2025-08-08,清算の結了等,,,2015-10-05,1,,,,,,0
1303,5470002012644,登記記録の閉鎖等,0,2025-09-08,2025-09-01,有限会社西武工業,,有限会社,香川県,仲多度郡多度津町,西港町１６番地８,,37,404,7640017,,,2025-09-01,合併による解散等,8470001007849,令和７年９月１日香川県仲多度郡多度津町西港町１６番地２株式会社イハラ（8470001007849）に合併し解散,2015-10-05,1,,,,,セイブコウギョウ,0
1322,6010102001427,登記記録の閉鎖等,0,2025-09-08,2025-09-01,有限会社オートショップそうと,,有限会社,東京都,八王子市,中野町２７３９番地３,,13,201,1920015,,,2025-09-01,清算の結了等,,,2015-10-05,1,,,,,,0
1335,6010402034580,登記記録の閉鎖等,0,2025-09-08,2025-08-05,有限会社フセ,,有限会社,東京都,港区,赤坂９丁目１番７号,,13,103,1070052,,,2025-08-05,清算の結了等,,,2015-10-05,1,,,,,,0
1338,6010503000077,登記記録の閉鎖等,0,2025-09-08,2025-09-04,株式会社金田,,株式会社,東京都,台東区,浅草１丁目３６番９号,,13,106,1110032,,,2025-09-04,合併による解散等,4010903009827,令和７年８月２９日東京都世田谷区北沢四丁目２６番１号合同会社浅草１丁目開発（4010903009827）に合併し解散,2015-10-05,1,,,,,カネダ,0
1341,6010602011925,登記記録の閉鎖等,0,2025-09-08,2025-09-04,有限会社三水衛生設備工業所,,有限会社,東京都,墨田区,東向島６丁目３３番１０号,,13,107,1310032,,,2025-09-04,清算の結了等,,,2015-10-05,1,,,,,,0
1348,6010802000018,登記記録の閉鎖等,0,2025-09-08,2025-08-28,有限会社朝日建装,,有限会社,東京都,大田区,中央１丁目４番９号,,13,111,1430024,,,2025-08-28,清算の結了等,,,2015-10-05,1,,,,,アサヒケンソウ,0
1383,6013202004679,登記記録の閉鎖等,0,2025-09-08,2025-08-06,有限会社中根寿司,,有限会社,東京都,目黒区,八雲３丁目７番１号,,13,110,1520023,,,2025-08-06,清算の結了等,,,2015-10-05,1,,,,,,0
1400,6021001039128,登記記録の閉鎖等,0,2025-09-08,2025-08-29,湘南丸大食品株式会社,,株式会社,神奈川県,平塚市,四之宮７丁目３番１６号,,14,203,2540014,,,2025-08-29,清算の結了等,,,2015-10-05,1,,,,,ショウナンマルダイショクヒン,0
1401,6021003001762,登記記録の閉鎖等,0,2025-09-08,2025-08-29,合同会社シーガルハウス,,合同会社,神奈川県,秦野市,平沢２５７番地の１,,14,211,2570015,,,2025-08-29,清算の結了等,,,2015-10-05,1,,,,,シーガルハウス,0
1406,6030001158333,登記記録の閉鎖等,0,2025-09-08,2025-08-18,株式会社ＫＭＧ,,株式会社,埼玉県,川口市,大字安行領根岸９０５番地ビレッジハウス根岸１－３０７号,,11,203,3330834,,,2025-08-18,清算の結了等,,,2024-01-26,1,,,,,ケーエムジー,0
1408,6030002000163,登記記録の閉鎖等,0,2025-09-08,2025-09-02,有限会社あいらんど,,有限会社,埼玉県,さいたま市緑区,東浦和１丁目１４番地５,,11,109,3360926,,,2025-09-02,清算の結了等,,,2015-10-05,1,,,,,アイランド,0
1409,6030002086665,登記記録の閉鎖等,0,2025-09-08,2025-09-01,有限会社ステップ,,有限会社,埼玉県,越谷市,伊原２丁目１１番８号,,11,222,3430831,,,2025-09-01,清算の結了等,,,2015-10-05,1,,,,,ステップ,0
1411,6030002099270,登記記録の閉鎖等,0,2025-09-08,2025-09-01,有限会社野崎工機,,有限会社,埼玉県,川口市,南鳩ヶ谷４丁目９番地の５,,11,203,3340013,,,2025-09-01,清算の結了等,,,2015-10-05,1,,,,,ノザキコウキ,0
1421,6040002074108,登記記録の閉鎖等,0,2025-09-08,2025-08-14,有限会社タカラ興業,,有限会社,千葉県,市原市,五井西２丁目２番地５,,12,219,2900038,,,2025-08-14,清算の結了等,,,2015-10-05,1,,,,,,0
1425,6050001011779,登記記録の閉鎖等,0,2025-09-08,2025-09-01,株式会社日進工機,,株式会社,茨城県,石岡市,石岡２５８３番地の２,,08,205,3150001,,,2025-09-01,清算の結了等,,,2015-10-05,1,,,,,ニッシンコウキ,0
1444,6120001056610,登記記録の閉鎖等,0,2025-09-08,2025-09-02,株式会社大丸商事,,株式会社,大阪府,大阪市淀川区,西中島４丁目１０番５号,,27,123,5320011,,,2025-09-02,清算の結了等,,,2015-10-05,1,,,,,ダイマルショウジ,0
1455,6120002004584,登記記録の閉鎖等,0,2025-09-08,2025-08-27,有限会社ドッグウッドカンパニー,,有限会社,大阪府,大阪市都島区,高倉町２丁目７番２３号,,27,102,5340011,,,2025-08-27,清算の結了等,,,2015-10-05,1,,,,,ドッグウッドカンパニー,0
1472,6130001043277,登記記録の閉鎖等,0,2025-09-08,2025-09-04,株式会社エール,,株式会社,京都府,舞鶴市,南浜町２７番地５,,26,202,6250057,,,2025-09-04,合併による解散等,3160001008726,令和７年８月２１日滋賀県彦根市西今町１番地株式会社平和堂（3160001008726）に合併し解散,2015-10-05,1,,,,,エール,0
1477,6140002003849,登記記録の閉鎖等,0,2025-09-08,2025-09-02,有限会社メディアサポート,,有限会社,兵庫県,神戸市灘区,鶴甲４丁目４番１４－４０６号,,28,102,6570011,,,2025-09-02,清算の結了等,,,2015-10-05,1,,,,,メディアサポート,0
1478,6140005011667,登記記録の閉鎖等,0,2025-09-08,2025-08-26,日鉄鋼管労働組合,,その他の設立登記法人,茨城県,鹿嶋市,大字光３番地,,08,222,3140014,,,2025-08-26,清算の結了等,,,2015-10-05,1,,,,,ニッテツコウカン,0
1491,6180001118520,登記記録の閉鎖等,0,2025-09-08,2025-08-19,株式会社ナノカホールディング,,株式会社,愛知県,名古屋市名東区,貴船１丁目３４４番地,,23,115,4650058,,,2025-08-19,清算の結了等,,,2015-10-05,1,,,,,ナノカホールディング,0
1493,6180001162188,登記記録の閉鎖等,0,2025-09-08,2025-08-28,ＲＵＩＸＩ株式会社,,株式会社,愛知県,名古屋市瑞穂区,川澄町２丁目８番５号シャンポール藤美１Ｃ,,23,108,4670002,,,2025-08-28,清算の結了等,,,2024-07-22,1,,,,,ルイシ,0
1498,6180302019657,登記記録の閉鎖等,0,2025-09-08,2025-08-18,有限会社プロメッツ名古屋,,有限会社,愛知県,大府市,北崎町井田９５番地４,,23,223,4740001,,,2025-08-18,清算の結了等,,,2015-10-05,1,,,,,プロメッツナゴヤ,0
1502,6190002013273,登記記録の閉鎖等,0,2025-09-08,2025-08-27,有限会社葵工業,,有限会社,三重県,名張市,すずらん台東１番町９４番地,,24,208,5180401,,,2025-08-27,清算の結了等,,,2015-10-05,1,,,,,アオイコウギョウ,0
1508,6200002022181,登記記録の閉鎖等,0,2025-09-08,2025-09-01,有限会社三輪製作所,,有限会社,岐阜県,瑞浪市,土岐町２９９１番地の１,,21,208,5096101,,,2025-09-01,清算の結了等,,,2015-10-05,1,,,,,ミワセイサクショ,0
1509,6220001007396,登記記録の閉鎖等,0,2025-09-08,2025-09-04,株式会社吉倉測量設計事務所,,株式会社,石川県,金沢市,入江１丁目１３５番地（山岡ビル２階）,,17,201,9218011,,,2025-09-04,清算の結了等,,,2015-10-05,1,,,,,ヨシクラソクリョウセッケイジムショ,0
1510,6220002012148,登記記録の閉鎖等,0,2025-09-08,2025-09-04,有限会社えびな,,有限会社,石川県,加賀市,山代温泉桔梗丘２丁目８６番地,,17,206,9220257,,,2025-09-04,清算の結了等,,,2015-10-05,1,,,,,エビナ,0
1512,6240002046887,登記記録の閉鎖等,0,2025-09-08,2025-09-01,有限会社サンヨー家電,,有限会社,広島県,府中市,府川町１００番地の１６,,34,208,7260004,,,2025-09-01,清算の結了等,,,2015-10-05,1,,,,,サンヨーカデン,0
1528,6330001017772,登記記録の閉鎖等,0,2025-09-08,2025-08-27,株式会社真心葬儀社,,株式会社,熊本県,玉名郡和水町,中林１４５番地１,,43,369,8610905,,,2025-08-27,清算の結了等,,,2015-10-05,1,,,,,マゴコロソウギシャ,0
1539,6360001030161,登記記録の閉鎖等,0,2025-09-08,2025-09-01,株式会社ＢＳキャリア,,株式会社,東京都,品川区,小山１丁目９番２４号,,13,109,1420062,,,2025-09-01,合併による解散等,9011001132525,令和７年９月１日東京都品川区西五反田三丁目１５番６号リードシー目黒不動前２階株式会社ＨＡＲＥ（9011001132525）に合併し解散,2022-03-25,1,,,,,ビーエスキャリア,0
1553,6370102001960,登記記録の閉鎖等,0,2025-09-08,2025-08-22,有限会社鉄栄技研,,有限会社,宮城県,角田市,梶賀字高畑北２３番地,,04,208,9811523,,,2025-08-22,清算の結了等,,,2015-10-05,1,,,,,テツエイギケン,0
1567,6430005012504,登記記録の閉鎖等,0,2025-09-08,2025-08-22,一般社団法人アシスト・サポート札幌,,その他の設立登記法人,北海道,札幌市西区,福井４丁目３番５－３０３号,,01,107,0630012,,,2025-08-22,清算の結了等,,,2015-10-05,1,,,,,アシストサポートサッポロ,0
1568,6470002001191,登記記録の閉鎖等,0,2025-09-08,2025-09-02,有限会社上原,,有限会社,香川県,高松市,宮脇町２丁目２２番１号,,37,201,7600005,,,2025-09-02,清算の結了等,,,2015-10-05,1,,,,,ウエハラ,0
1569,6470002012627,登記記録の閉鎖等,0,2025-09-08,2025-09-01,有限会社寿行製作所,,有限会社,香川県,仲多度郡多度津町,西港町１６番地７,,37,404,7640017,,,2025-09-01,合併による解散等,8470001007849,令和７年９月１日香川県仲多度郡多度津町西港町１６番地２株式会社イハラ（8470001007849）に合併し解散,2015-10-05,1,,,,,ジュコウセイサクショ,0
1581,6500002021236,登記記録の閉鎖等,0,2025-09-08,2025-09-03,有限会社とくわか,,有限会社,愛媛県,四国中央市,三島中央３丁目１１番２８号,,38,213,7990405,,,2025-09-03,清算の結了等,,,2015-10-05,1,,,,,トクワカ,0
1586,7010001139219,登記記録の閉鎖等,0,2025-09-08,2025-08-20,株式会社アィベックス,,株式会社,東京都,千代田区,九段北１丁目１１番１２号福興第二ビル１階,,13,101,1020073,,,2025-08-20,清算の結了等,,,2015-10-05,1,,,,,アィベックス,0
1601,7010003036257,登記記録の閉鎖等,0,2025-09-08,2025-08-20,合同会社オルタナ８,,合同会社,東京都,千代田区,丸の内１丁目４番１号東京共同会計事務所内,,13,101,1000005,,,2025-08-20,清算の結了等,,,2021-11-10,1,,,,,オルタナエイト,0
1621,7010501052986,登記記録の閉鎖等,0,2025-09-08,2025-08-21,株式会社ＢＬＵＥ,,株式会社,東京都,台東区,浅草４丁目２番５号プランドール浅草１０１,,13,106,1110032,,,2025-08-21,清算の結了等,,,2024-10-01,1,,,,,ブルー,0
1624,7010503000902,登記記録の閉鎖等,0,2025-09-08,2025-09-04,株式会社井手,,株式会社,東京都,台東区,浅草１丁目３６番９号,,13,106,1110032,,,2025-09-04,合併による解散等,4010903009827,令和７年８月２９日東京都世田谷区北沢四丁目２６番１号合同会社浅草１丁目開発（4010903009827）に合併し解散,2015-10-05,1,,,,,イデ,0
1629,7010603008416,登記記録の閉鎖等,0,2025-09-08,2025-08-20,ＧＲＥＥＮＥＲ合同会社,,合同会社,茨城県,つくば市,梅園２丁目１－１５－４０１,,08,220,3050045,,,2025-08-20,清算の結了等,,,2020-07-08,1,,,,,グリーナー,0
1633,7010802001725,登記記録の閉鎖等,0,2025-09-08,2025-08-26,有限会社ストレート,,有限会社,東京都,大田区,矢口３丁目２番１６－５０７号,,13,111,1460093,,,2025-08-26,清算の結了等,,,2015-10-05,1,,,,,ストレート,0
1634,7010901009628,登記記録の閉鎖等,0,2025-09-08,2025-09-03,株式会社ハイ・フィールド,,株式会社,石川県,金沢市,菊川２丁目９番１号,,17,201,9200967,,,2025-09-03,清算の結了等,,,2015-10-05,1,,,,,ハイフィールド,0
1644,7011003021265,登記記録の閉鎖等,0,2025-09-08,2025-09-03,合同会社ＴＩＮ,,合同会社,東京都,渋谷区,神宮前１丁目５番８号,,13,113,1500001,,,2025-09-03,合併による解散等,4012401016751,令和７年９月１日東京都府中市宮西町一丁目５番地１府中ビルディング株式会社（4012401016751）に合併し解散,2025-04-02,1,,,,,ティーアイエヌ,0
1658,7012401019272,登記記録の閉鎖等,0,2025-09-08,2025-09-02,株式会社田中建築設計,,株式会社,東京都,調布市,西つつじケ丘４丁目２３番地,,13,208,1820006,,,2025-09-02,清算の結了等,,,2015-10-05,1,,,,,,0
1667,7013303006862,登記記録の閉鎖等,0,2025-09-08,2025-08-21,合同会社もなか,,合同会社,東京都,豊島区,池袋２丁目７１番９号エクセルコート２０５,,13,116,1710014,,,2025-08-21,清算の結了等,,,2023-11-09,1,,,,,モナカ,0
1673,7020001113503,登記記録の閉鎖等,0,2025-09-08,2025-09-01,株式会社アンカープライド生田,,株式会社,神奈川県,川崎市宮前区,菅生１丁目１番３１号,,14,136,2160015,,,2025-09-01,合併による解散等,7020001051728,令和７年９月１日川崎市多摩区宿河原三丁目２３番４０号株式会社アンカープライド（7020001051728）に合併し解散,2015-11-09,1,,,,,アンカープライドイクタ,0
1682,7021002065122,登記記録の閉鎖等,0,2025-09-08,2025-08-29,有限会社スリーエイ,,有限会社,神奈川県,横須賀市,小川町２４番地,,14,201,2380004,,,2025-08-29,清算の結了等,,,2015-10-05,1,,,,,スリーエイ,0
1685,7030001082160,登記記録の閉鎖等,0,2025-09-08,2025-09-03,株式会社プレンティ,,株式会社,東京都,千代田区,神田錦町１丁目１６番地１いちご神田錦町ビル,,13,101,1010054,,,2025-09-03,合併による解散等,5210001003208,令和７年９月１日福井市南居町第８１号１番地４０ＳＯ　ＰＬＵＳ　ＣＯＭＰＡＮＹ株式会社（5210001003208）に合併し解散,2015-10-05,1,,,,,プレンティ,0
1713,7060002021379,登記記録の閉鎖等,0,2025-09-08,2025-09-02,有限会社宇梶石材,,有限会社,栃木県,鹿沼市,酒野谷１３４番地,,09,205,3220047,,,2025-09-02,清算の結了等,,,2015-10-05,1,,,,,ウカジセキザイ,0
1714,7060002039784,登記記録の閉鎖等,0,2025-09-08,2025-09-02,有限会社カメヤマ工業,,有限会社,栃木県,佐野市,白岩町６６番地の１,,09,204,3270302,,,2025-09-02,清算の結了等,,,2015-10-05,1,,,,,カメヤマコウギョウ,0
1721,7080401009989,登記記録の閉鎖等,0,2025-09-08,2025-09-01,株式会社ＣＦＤ研究所,,株式会社,静岡県,浜松市中央区,呉松町３６３３番地の２,,22,138,4311202,,,2025-09-01,清算の結了等,,,2015-10-05,1,,,,,シーエフディーケンキュウジョ,0
1735,7120001226716,登記記録の閉鎖等,0,2025-09-08,2025-09-03,ハヤレジ株式会社,,株式会社,大阪府,大阪市北区,梅田１丁目２番２号大阪駅前第２ビル１２－１２,,27,127,5300001,,,2025-09-03,合併による解散等,5011001159373,令和７年８月１日東京都渋谷区道玄坂一丁目２番３号ＧＭＯヘルステック株式会社（5011001159373）に合併し解散,2020-01-28,1,,,,,ハヤレジ,0
1769,7150001009201,登記記録の閉鎖等,0,2025-09-08,2025-09-01,アイサポート株式会社,,株式会社,奈良県,桜井市,大字上之宮３９９番地,,29,206,6330041,,,2025-09-01,合併による解散等,9150001009224,令和７年９月１日奈良県桜井市大字粟殿２４番地の３株式会社市田（9150001009224）に合併し解散,2015-10-05,1,,,,,アイサポート,0
1770,7150001012089,登記記録の閉鎖等,0,2025-09-08,2025-09-04,伸和産業株式会社,,株式会社,奈良県,磯城郡川西町,大字下永８９番地の３,,29,361,6360201,,,2025-09-04,清算の結了等,,,2015-10-05,1,,,,,シンワサンギョウ,0
1775,7180001114238,登記記録の閉鎖等,0,2025-09-08,2025-09-02,株式会社アメリ,,株式会社,愛知県,名古屋市西区,名駅２丁目２７番８号名古屋プライムセントラルタワー,,23,104,4510045,,,2025-09-02,合併による解散等,6180001068113,令和７年９月１日名古屋市西区名駅二丁目２７番８号名古屋プライムセントラルタワー株式会社アメーバホールディングス（6180001068113）に合併し解散,2015-10-05,1,,,,,アメリ,0
1776,7180001124088,登記記録の閉鎖等,0,2025-09-08,2025-08-19,株式会社シーグランツ,,株式会社,愛知県,名古屋市守山区,天子田１丁目１４０４番地,,23,113,4630037,,,2025-08-19,清算の結了等,,,2016-07-15,1,,,,,シーグランツ,0
1788,7180302009054,登記記録の閉鎖等,0,2025-09-08,2025-08-28,有限会社ニシヤマ工営,,有限会社,愛知県,豊橋市,西小鷹野２丁目９番地の１５,,23,201,4400013,,,2025-08-28,清算の結了等,,,2015-10-05,1,,,,,ニシヤマコウエイ,0
1806,7250001013977,登記記録の閉鎖等,0,2025-09-08,2025-09-02,株式会社ミノカ,,株式会社,山口県,山陽小野田市,大字西高泊３４８１番地,,35,216,7560057,,,2025-09-02,清算の結了等,,,2015-10-05,1,,,,,ミノカ,0
1813,7290001024343,登記記録の閉鎖等,0,2025-09-08,2025-08-08,株式会社黒乃屋,,株式会社,福岡県,福岡市早良区,原２丁目４番１５号,,40,137,8140022,,,2025-08-08,清算の結了等,,,2015-10-05,1,,,,,クロノヤ,0
1826,7330002020345,登記記録の閉鎖等,0,2025-09-08,2025-08-28,有限会社リックしもだ,,有限会社,熊本県,上益城郡山都町,下市２番地の７,,43,447,8613513,,,2025-08-28,清算の結了等,,,2015-10-05,1,,,,,リックシモダ,0
1827,7340001026301,登記記録の閉鎖等,0,2025-09-08,2025-09-02,つるぎグローバル株式会社,,株式会社,鹿児島県,薩摩川内市,平佐町４３００番地５ヴァンドミール１０２,,46,215,8950012,,,2025-09-02,清算の結了等,,,2024-02-21,1,,,,,ツルギグローバル,0
1834,7380001029218,登記記録の閉鎖等,0,2025-09-08,2025-08-28,株式会社福島電産,,株式会社,福島県,いわき市,久之浜町西２丁目７番地の６－２０１号,,07,204,9790334,,,2025-08-28,清算の結了等,,,2018-06-26,1,,,,,,0
1848,7440001001062,登記記録の閉鎖等,0,2025-09-08,2025-09-02,株式会社千林,,株式会社,北海道,函館市,東山２丁目７番２２号,,01,202,0410835,,,2025-09-02,清算の結了等,,,2015-10-05,1,,,,,センリン,0
1851,7450002005441,登記記録の閉鎖等,0,2025-09-08,2025-09-03,有限会社司建機工業,,有限会社,北海道,上川郡比布町,西町２丁目３番７号,,01,455,0780342,,,2025-09-03,清算の結了等,,,2015-10-05,1,,,,,ツカサケンキコウギョウ,0
1857,8010001086146,登記記録の閉鎖等,0,2025-09-08,2025-09-03,ポリコムジャパン株式会社,,株式会社,東京都,新宿区,新宿６丁目２７番３０号新宿イーストサイドスクエア,,13,104,1600022,,,2025-09-03,合併による解散等,8010601047191,令和７年８月１５日東京都港区港南一丁目２番７０号品川シーズンテラス株式会社日本ＨＰ（8010601047191）に合併し解散,2015-10-05,1,,,,,ポリコムジャパン,0
1859,8010001135919,登記記録の閉鎖等,0,2025-09-08,2025-08-12,株式会社サクセッションビジネス,,株式会社,千葉県,我孫子市,我孫子２丁目１番地,,12,222,2701166,,,2025-08-12,清算の結了等,,,2015-10-05,1,,,,,サクセッションビジネス,0
1864,8010001248547,登記記録の閉鎖等,0,2025-09-08,2025-09-02,投信直販サービス株式会社,,株式会社,東京都,千代田区,麹町３丁目５番４号,,13,101,1020083,,,2025-09-02,合併による解散等,1010001018139,令和７年９月１日東京都千代田区一番町２９番地２さわかみ投信株式会社（1010001018139）に合併し解散,2024-09-25,1,,,,,トウシンチョクハンサービス,0
1868,8010005031338,登記記録の閉鎖等,0,2025-09-08,2025-08-18,一般社団法人ＯＮＥ　ＴＥＡＭ,,その他の設立登記法人,東京都,中央区,八丁堀４丁目２番１０号ＡＯＪ税理士法人内,,13,102,1040032,,,2025-08-18,清算の結了等,,,2020-01-23,1,,,,,ワンチーム,0
1869,8010005036147,登記記録の閉鎖等,0,2025-09-08,2025-08-20,一般社団法人ＲＥＮＯＳＹファンド１号,,その他の設立登記法人,東京都,千代田区,霞が関３丁目２番５号,,13,101,1000013,,,2025-08-20,清算の結了等,,,2023-01-18,1,,,,,リノシーファンドイチゴウ,0
1871,8010101009428,登記記録の閉鎖等,0,2025-09-08,2025-09-01,株式会社ワールドマーク・ジャパン,,株式会社,東京都,八王子市,富士見町９番８号,,13,201,1920044,,,2025-09-01,清算の結了等,,,2015-10-05,1,,,,,ワールドマークジャパン,0
1883,8010402026270,登記記録の閉鎖等,0,2025-09-08,2025-08-08,有限会社Ｔ＆Ｍコンサルティング,,有限会社,東京都,港区,白金２丁目５番２０－７０７号,,13,103,1080072,,,2025-08-08,清算の結了等,,,2015-10-05,1,,,,,ティーアンドエムコンサルティング,0
1886,8010403034181,登記記録の閉鎖等,0,2025-09-08,2025-08-08,Ｃｌｅａｎ　Ｃｌｅａｎ合同会社,,合同会社,東京都,港区,赤坂２丁目２１－４，＃４０５－Ｄ,,13,103,1070052,,,2025-08-08,清算の結了等,,,2025-02-14,1,,,,,クリーンクリーン,0
1891,8010601018928,登記記録の閉鎖等,0,2025-09-08,2025-09-01,株式会社シテイライフ,,株式会社,東京都,江東区,大島７丁目３９番３－１２０３号,,13,108,1360072,,,2025-09-01,清算の結了等,,,2015-10-05,1,,,,,シテイライフ,0
1898,8010802007770,登記記録の閉鎖等,0,2025-09-08,2025-08-29,有限会社スタジオ宮角,,有限会社,東京都,大田区,田園調布２丁目３８番５号,,13,111,1450071,,,2025-08-29,清算の結了等,,,2015-10-05,1,,,,,スタジオミヤカク,0
1907,8011001061337,登記記録の閉鎖等,0,2025-09-08,2025-08-08,株式会社マーベリック,,株式会社,東京都,港区,南青山５丁目４番５１号,,13,103,1070062,,,2025-08-08,清算の結了等,,,2015-10-05,1,,,,,マーベリック,0
1911,8011001136650,登記記録の閉鎖等,0,2025-09-08,2025-09-01,株式会社メディカルサクシード,,株式会社,埼玉県,さいたま市大宮区,仲町３丁目３６番１号コンフォリア大宮５０３,,11,103,3300845,,,2025-09-01,清算の結了等,,,2020-10-28,1,,,,,メディカルサクシード,0
1937,8011802019855,登記記録の閉鎖等,0,2025-09-08,2025-09-01,有限会社山田鋼業,,有限会社,東京都,足立区,保木間３丁目３６番１２号,,13,121,1210064,,,2025-09-01,清算の結了等,,,2015-10-05,1,,,,,ヤマダコウギョウ,0
1942,8012402021680,登記記録の閉鎖等,0,2025-09-08,2025-09-03,有限会社グループ・マーナル,,有限会社,東京都,三鷹市,上連雀７丁目９番８号,,13,204,1810012,,,2025-09-03,清算の結了等,,,2015-10-05,1,,,,,グループマーナル,0
1967,8021001014888,登記記録の閉鎖等,0,2025-09-08,2025-08-28,株式会社ジーワイエス,,株式会社,神奈川県,相模原市南区,東林間５丁目６番１９号２Ｃ,,14,153,2520311,,,2025-08-28,清算の結了等,,,2015-10-05,1,,,,,ジーワイエス,0
1970,8021002054421,登記記録の閉鎖等,0,2025-09-08,2025-08-27,有限会社プリンティング・ハウス,,有限会社,神奈川県,小田原市,久野２３９１番地の１,,14,206,2500055,,,2025-08-27,清算の結了等,,,2015-10-05,1,,,,,プリンティングハウス,0
1991,8040003021759,登記記録の閉鎖等,0,2025-09-08,2025-08-14,合同会社ｆｒｅｅｌｙ,,合同会社,千葉県,船橋市,藤原１丁目２３－１３－２０２,,12,204,2730047,,,2025-08-14,清算の結了等,,,2023-01-26,1,,,,,フリーリィ,0
2012,8120001009632,登記記録の閉鎖等,0,2025-09-08,2025-09-02,株式会社桑原商店,,株式会社,大阪府,大阪市東住吉区,今林１丁目２番６８号,,27,121,5460001,,,2025-09-02,清算の結了等,,,2015-10-05,1,,,,,クワハラショウテン,0
2029,8130001054603,登記記録の閉鎖等,0,2025-09-08,2025-08-29,株式会社蔵,,株式会社,京都府,京都市右京区,嵯峨野開町２７番地（３１３）,,26,108,6168313,,,2025-08-29,清算の結了等,,,2015-10-05,1,,,,,クラ,0
2032,8140001080516,登記記録の閉鎖等,0,2025-09-08,2025-09-02,株式会社ＳＤＭ,,株式会社,兵庫県,川西市,小花２丁目７番１－２０１号,,28,217,6660015,,,2025-09-02,清算の結了等,,,2015-10-05,1,,,,,エスディーエム,0
2041,8160001025766,登記記録の閉鎖等,0,2025-09-08,2025-08-28,ＳＦホールディング株式会社,,株式会社,滋賀県,東近江市,青野町４６００番地,,25,213,5270232,,,2025-08-28,合併による解散等,3160001024384,令和７年８月１３日滋賀県東近江市青野町４６００番地ＹＳホールディング合同会社（3160001024384）に合併し解散,2024-03-25,1,,,,,エスエフホールディング,0
2048,8180001119756,登記記録の閉鎖等,0,2025-09-08,2025-08-26,ドュウハコミュニケーション株式会社,,株式会社,愛知県,名古屋市中区,新栄３丁目１４番６号,,23,106,4600007,,,2025-08-26,清算の結了等,,,2015-10-05,1,,,,,ドュウハコミュニケーション,0
2052,8180001133146,登記記録の閉鎖等,0,2025-09-08,2025-08-26,株式会社山崎損害保険事務所,,株式会社,愛知県,名古屋市昭和区,八事富士見５１０番地の１,,23,107,4660812,,,2025-08-26,清算の結了等,,,2018-07-23,1,,,,,ヤマザキソンガイホケンジムショ,0
2053,8180001151131,登記記録の閉鎖等,0,2025-09-08,2025-08-26,愛知アルコール検知器株式会社,,株式会社,愛知県,名古屋市東区,泉２丁目２６番１０号,,23,102,4610001,,,2025-08-26,清算の結了等,,,2022-05-02,1,,,,,アイチアルコールケンチキ,0
2076,8240002044815,登記記録の閉鎖等,0,2025-09-08,2025-09-01,有限会社ドリームヤマト,,有限会社,広島県,福山市,瀬戸町長和１１５番地,,34,207,7210000,,,2025-09-01,清算の結了等,,,2015-10-05,1,,,,,ドリームヤマト,0
2086,8290005005693,登記記録の閉鎖等,0,2025-09-08,2025-08-18,医療法人恵和中央クリニック,,その他の設立登記法人,福岡県,宗像市,日の里８丁目３番地２,,40,220,8113425,,,2025-08-18,清算の結了等,,,2015-10-05,1,,,,,ケイワチュウオウクリニック,0
2090,8290801019194,登記記録の閉鎖等,0,2025-09-08,2025-09-04,株式会社長生庵,,株式会社,福岡県,京都郡苅田町,富久町１丁目５番１０号,,40,621,8000352,,,2025-09-04,清算の結了等,,,2015-10-05,1,,,,,チョウセイアン,0
2091,8290802002570,登記記録の閉鎖等,0,2025-09-08,2025-09-05,有限会社光陽電機工業,,有限会社,福岡県,北九州市戸畑区,三六町２番１４号,,40,105,8040091,,,2025-09-05,清算の結了等,,,2015-10-05,1,,,,,コウヨウデンキコウギョウ,0
2093,8290802022858,登記記録の閉鎖等,0,2025-09-08,2025-09-03,有限会社ゴトウ内装,,有限会社,福岡県,京都郡苅田町,大字尾倉４１０６番地の５,,40,621,8000353,,,2025-09-03,清算の結了等,,,2015-10-05,1,,,,,ゴトウナイソウ,0
2095,8290802023154,登記記録の閉鎖等,0,2025-09-08,2025-09-04,有限会社西ビル,,有限会社,福岡県,京都郡みやこ町,犀川本庄４６７番地,,40,625,8240231,,,2025-09-04,清算の結了等,,,2015-10-05,1,,,,,ニシビル,0
2098,8300002009497,登記記録の閉鎖等,0,2025-09-08,2025-09-04,有限会社介護家事サービス上峰,,有限会社,佐賀県,三養基郡上峰町,大字堤１８６８番地１,,41,345,8490124,,,2025-09-04,清算の結了等,,,2015-10-05,1,,,,,カイゴカジサービスカミミネ,0
2113,8370301003351,登記記録の閉鎖等,0,2025-09-08,2025-08-26,株式会社雄勝そだての住人,,株式会社,宮城県,石巻市,雄勝町小島字和田２番地１,,04,202,9861332,,,2025-08-26,清算の結了等,,,2015-10-05,1,,,,,オガツソダテノジュウニン,0
2119,8430001083464,登記記録の閉鎖等,0,2025-09-08,2025-08-22,セーフティーネット保証株式会社,,株式会社,北海道,札幌市中央区,南三条西４丁目２０番地東昌ビル,,01,101,0600063,,,2025-08-22,清算の結了等,,,2021-02-22,1,,,,,セーフティーネットホショウ,0
2122,8460103001073,登記記録の閉鎖等,0,2025-09-08,2025-09-03,ＮＫ重機工業合同会社,,合同会社,北海道,帯広市,西十七条南１丁目１３番１３号,,01,207,0800027,,,2025-09-03,清算の結了等,,,2017-07-27,1,,,,,エヌケイジュウキコウギョウ,0
2124,8470001006578,登記記録の閉鎖等,0,2025-09-08,2025-09-02,株式会社アーバンプロパティーズ,,株式会社,香川県,高松市,磨屋町６番地６,,37,201,7600026,,,2025-09-02,合併による解散等,8470001000449,令和７年９月２日香川県高松市磨屋町６番地６株式会社アーバンレック（8470001000449）に合併し解散,2015-10-05,1,,,,,アーバンプロパティーズ,0
2137,9010001184444,登記記録の閉鎖等,0,2025-09-08,2025-08-20,株式会社こころ,,株式会社,東京都,中央区,日本橋蛎殻町１丁目１１番３号－４０５,,13,102,1030014,,,2025-08-20,清算の結了等,,,2017-06-26,1,,,,,ココロ,0
2150,9010401087734,登記記録の閉鎖等,0,2025-09-08,2025-09-01,株式会社トモリゾートプランニング,,株式会社,沖縄県,那覇市,松山１丁目３１番地９,,47,201,9000032,,,2025-09-01,清算の結了等,,,2015-10-05,1,,,,,,0
2166,9010802015814,登記記録の閉鎖等,0,2025-09-08,2025-08-29,有限会社ワーク・サトウ,,有限会社,東京都,大田区,大森北３丁目２４番４号,,13,111,1430016,,,2025-08-29,清算の結了等,,,2015-10-05,1,,,,,ワークサトウ,0
2187,9011005009835,登記記録の閉鎖等,0,2025-09-08,2025-08-06,一般社団法人ビューティコンサルティングジャパン協会,,その他の設立登記法人,東京都,渋谷区,宇田川町３２番７号１１階,,13,113,1500042,,,2025-08-06,清算の結了等,,,2022-11-25,1,,,,,ビューティコンサルティングジャパンキョウカイ,0
2204,9011802000401,登記記録の閉鎖等,0,2025-09-08,2025-09-01,有限会社あみ平マリーナー,,有限会社,東京都,葛飾区,立石４丁目８番１３号,,13,122,1240012,,,2025-09-01,清算の結了等,,,2015-10-05,1,,,,,アミヘイマリーナー,0
2222,9021001064800,登記記録の閉鎖等,0,2025-09-08,2025-08-27,株式会社Ｋａｔｅ’ｓ　Ｎｅｘｕｓ,,株式会社,神奈川県,茅ヶ崎市,柳島海岸８番２９号,,14,207,2530063,,,2025-08-27,清算の結了等,,,2018-05-15,1,,,,,ケイツネクサス,0
2227,9021002044396,登記記録の閉鎖等,0,2025-09-08,2025-09-04,有限会社横山ドアメンタル,,有限会社,神奈川県,座間市,緑ケ丘２丁目２８番１５号,,14,216,2520021,,,2025-09-04,清算の結了等,,,2015-10-05,1,,,,,ヨコヤマドアメンタル,0
2231,9030001028888,登記記録の閉鎖等,0,2025-09-08,2025-09-01,株式会社メグミホーム,,株式会社,埼玉県,所沢市,大字荒幡１１９番地の１０,,11,208,3591133,,,2025-09-01,清算の結了等,,,2015-10-05,1,,,,,メグミホーム,0
2235,9030001163314,登記記録の閉鎖等,0,2025-09-08,2025-09-01,ｊ‐ｄａｓｈ株式会社,,株式会社,埼玉県,熊谷市,銀座２丁目３３番地,,11,202,3600032,,,2025-09-01,清算の結了等,,,2024-11-08,1,,,,,ジェイダッシュ,0
2236,9030002047854,登記記録の閉鎖等,0,2025-09-08,2025-09-01,有限会社松装,,有限会社,埼玉県,八潮市,大字木曽根１５０１番地９,,11,234,3400813,,,2025-09-01,清算の結了等,,,2015-10-05,1,,,,,マツソウ,0
2237,9030002072019,登記記録の閉鎖等,0,2025-09-08,2025-09-01,有限会社青木ゴム製作所,,有限会社,埼玉県,川越市,大字下小坂１９５番地４,,11,201,3500812,,,2025-09-01,清算の結了等,,,2015-10-05,1,,,,,アオキゴムセイサクショ,0
2240,9040001049719,登記記録の閉鎖等,0,2025-09-08,2025-08-14,株式会社ＴＰＣ,,株式会社,千葉県,八千代市,大和田９８０番地２２パークサイド高野２０１号,00133983,12,221,2760045,,,2025-08-14,清算の結了等,,,2015-10-05,1,,,,,ティーピーシー,0
2244,9040002008277,登記記録の閉鎖等,0,2025-09-08,2025-08-12,有限会社戸草内武道具,,有限会社,千葉県,千葉市緑区,高津戸町２９９番地の３,,12,105,2670053,,,2025-08-12,清算の結了等,,,2015-10-05,1,,,,,トクサウチブドウグ,0
2248,9040005018579,登記記録の閉鎖等,0,2025-09-08,2025-08-20,協同組合千葉ロードネット会,,その他の設立登記法人,千葉県,袖ケ浦市,三ツ作１４２９番地,,12,229,2990254,,,2025-08-20,清算の結了等,,,2015-10-05,1,,,,,,0
2250,9050001015026,登記記録の閉鎖等,0,2025-09-08,2025-08-29,株式会社後藤建築,,株式会社,茨城県,坂東市,古布内３１５６番地,,08,228,3060644,,,2025-08-29,清算の結了等,,,2015-10-05,1,,,,,ゴトウケンチク,0
2253,9050002032862,登記記録の閉鎖等,0,2025-09-08,2025-09-01,有限会社カーホテル夜間飛行,,有限会社,茨城県,北茨城市,中郷町小野矢指９１番地４,,08,215,3191555,,,2025-09-01,清算の結了等,,,2015-10-05,1,,,,,カーホテルヤカンヒコウ,0
2257,9060002029734,登記記録の閉鎖等,0,2025-09-08,2025-09-02,有限会社紀藤コンサルタントオフィス,,有限会社,栃木県,下都賀郡野木町,大字丸林４０４番地２５,,09,364,3290111,,,2025-09-02,清算の結了等,,,2015-10-05,1,,,,,キトウコンサルタントオフィス,0
2264,9080101024766,登記記録の閉鎖等,0,2025-09-08,2025-09-03,Ｆｒｏｍ　ｔｈｅ　Ｍａｔｃｈａ株式会社,,株式会社,静岡県,富士市,津田２６０番地の１０,,22,210,4170034,,,2025-09-03,清算の結了等,,,2024-05-22,1,,,,,フロムザマッチャ,0
2266,9090003002472,登記記録の閉鎖等,0,2025-09-08,2025-09-02,合同会社ハインドサイト,,合同会社,山梨県,甲斐市,西八幡９７０番地１１,,19,210,4000117,,,2025-09-02,清算の結了等,,,2024-01-19,1,,,,,ハインドサイト,0
2270,9100003005647,登記記録の閉鎖等,0,2025-09-08,2025-09-03,合同会社メグリブ,,合同会社,長野県,下伊那郡売木村,４５番地１３４,,20,412,3991601,,,2025-09-03,清算の結了等,,,2020-04-14,1,,,,,メグリブ,0
2271,9110005010017,登記記録の閉鎖等,0,2025-09-08,2025-08-22,特定非営利活動法人よもぎの会,,その他の設立登記法人,新潟県,上越市,牧区荒井５０８番地１,,15,222,9430642,,,2025-08-22,清算の結了等,,,2015-10-05,1,,,,,ヨモギノカイ,0
2272,9110005015759,登記記録の閉鎖等,0,2025-09-08,2025-08-21,農事組合法人まつだい棚田,,その他の設立登記法人,新潟県,十日町市,莇平１０３８番地,,15,210,9421531,,,2025-08-21,清算の結了等,,,2015-10-05,1,,,,,マツダイタナダ,0
2276,9120001118300,登記記録の閉鎖等,0,2025-09-08,2025-09-01,株式会社アークシェア,,株式会社,大阪府,大阪市北区,本庄東２丁目２番３０号,,27,127,5310074,,,2025-09-01,合併による解散等,7120901028880,令和７年９月１日大阪市北区本庄東二丁目２番３０号株式会社エコスモ（7120901028880）に合併し解散,2015-10-05,1,,,,,アークシェア,0
2293,9130005012688,登記記録の閉鎖等,0,2025-09-08,2025-08-28,一般社団法人都福祉事業協会,,その他の設立登記法人,京都府,京都市中京区,麩屋町通二条下る尾張町２２３番地合田ビル２Ｆ,,26,104,6040934,,,2025-08-28,清算の結了等,,,2015-10-05,1,,,,,ミヤコフクシジギョウキョウカイ,0
2297,9140002010545,登記記録の閉鎖等,0,2025-09-08,2025-09-01,有限会社山口新聞舗,,有限会社,兵庫県,神戸市北区,有野台２丁目１番１号,,28,109,6511321,,,2025-09-01,清算の結了等,,,2015-10-05,1,,,,,ヤマグチシンブンホ,0
2307,9180001040168,登記記録の閉鎖等,0,2025-09-08,2025-08-28,株式会社フォーラル,,株式会社,愛知県,一宮市,木曽川町里小牧字笹原６番地５,,23,203,4930005,,,2025-08-28,清算の結了等,,,2015-10-05,1,,,,,フォーラル,0
2315,9180002017611,登記記録の閉鎖等,0,2025-09-08,2025-08-27,有限会社大塚メデイカルサービス,,有限会社,愛知県,名古屋市中川区,中島新町４丁目２４０８番地,,23,110,4540932,,,2025-08-27,清算の結了等,,,2015-10-05,1,,,,,オオツカメディカルサービス,0
2317,9180003011621,登記記録の閉鎖等,0,2025-09-08,2025-08-26,合資会社松島園老舗,,合資会社,愛知県,一宮市,本町４丁目４番３号,,23,203,4910859,,,2025-08-26,清算の結了等,,,2015-10-05,1,,,,,マツシマエンロウホ,0
2320,9180003027205,登記記録の閉鎖等,0,2025-09-08,2025-08-26,合同会社月あかり,,合同会社,愛知県,知多郡東浦町,大字緒川字西本坪８番地の１４,,23,442,4702102,,,2025-08-26,清算の結了等,,,2024-08-16,1,,,,,ツキアカリ,0
2332,9200002021239,登記記録の閉鎖等,0,2025-09-08,2025-09-01,三和商事有限会社,,有限会社,岐阜県,土岐市,肥田浅野矢落町１丁目６番地の３,,21,212,5095116,,,2025-09-01,合併による解散等,1200001021313,令和７年９月１日岐阜県土岐市肥田町浅野９１番地三和自動車株式会社（1200001021313）に合併し解散,2015-10-05,1,,,,,サンワショウジ,0
2335,9220001018498,登記記録の閉鎖等,0,2025-09-08,2025-09-03,株式会社ステンド,,株式会社,石川県,金沢市,片町１丁目１２番１７号,,17,201,9200981,,,2025-09-03,清算の結了等,,,2015-10-05,1,,,,,ステンド,0
2346,9290005009446,登記記録の閉鎖等,0,2025-09-08,2025-08-18,特定非営利活動法人栄養ケア・ちっご,,その他の設立登記法人,福岡県,筑後市,大字馬間田１５７番地４,,40,211,8330023,,,2025-08-18,清算の結了等,,,2015-10-05,1,,,,,エイヨウケアチッゴ,0
2347,9310001010727,登記記録の閉鎖等,0,2025-09-08,2025-08-21,対州林産株式会社,,株式会社,佐賀県,唐津市,中瀬通１０－３,,41,202,8470101,,,2025-08-21,清算の結了等,,,2015-10-05,1,,,,,タイシュウリンサン,0
2354,9330003009716,登記記録の閉鎖等,0,2025-09-08,2025-08-28,合同会社エクセル,,合同会社,熊本県,熊本市中央区,花畑町１番１４号,,43,101,8600806,,,2025-08-28,清算の結了等,,,2023-02-08,1,,,,,エクセル,0
2356,9350002003635,登記記録の閉鎖等,0,2025-09-08,2025-09-02,有限会社パシフィック実業,,有限会社,宮崎県,宮崎市,中央通７番２２号,,45,201,8800002,,,2025-09-02,清算の結了等,,,2015-10-05,1,,,,,パシフィックジツギョウ,0
2357,9360003011396,登記記録の閉鎖等,0,2025-09-08,2025-09-01,Ｈｏｋｋｏｒｉカンパニー合同会社,,合同会社,沖縄県,島尻郡久米島町,字仲泊５５２番地１２,,47,361,9013124,,,2025-09-01,清算の結了等,,,2021-09-01,1,,,,,ホッコリカンパニー,0
2361,9390001010538,登記記録の閉鎖等,0,2025-09-08,2025-09-01,羽陽産業株式会社,,株式会社,福島県,郡山市,新屋敷２丁目１３６番地,,07,203,9638045,,,2025-09-01,合併による解散等,3380002009503,令和７年９月１日福島県郡山市新屋敷二丁目１３６番地株式会社エナジャイズホールディングス（3380002009503）に合併し解散,2015-10-05,1,,,,,ウヨウサンギョウ,0
