sequenceNumber,corporateNumber,process,correct,updateDate,changeDate,name,nameImageId,kind,prefectureName,cityName,streetNumber,addressImageId,prefectureCode,cityCode,postCode,addressOutside,addressOutsideImageId,closeDate,closeCause,successorCorporateNumber,changeCause,assignmentDate,latest,enName,enPrefectureName,enCityName,enAddressOutside,furigana,hihyoji
70,1013301005351,登記記録の閉鎖等,0,2023-10-24,2023-10-18,株式会社新日本鑑定所,,株式会社,東京都,豊島区,東池袋１丁目３６番３号池袋陽光ハイツ９１０号,,13,116,1700013,,,2023-10-18,清算の結了等,,,2015-10-05,1,,,,,シンニホンカンテイジョ,0
78,1020002030422,登記記録の閉鎖等,0,2023-10-24,2023-10-02,有限会社スギヤマ,,有限会社,神奈川県,横浜市南区,庚台２７番地,,14,105,2320008,,,2023-10-02,清算の結了等,,,2015-10-05,1,,,,,スギヤマ,0
81,1020002074700,登記記録の閉鎖等,0,2023-10-24,2023-10-11,有限会社スクエア,,有限会社,神奈川県,横浜市緑区,中山１丁目２１番６－４０２号,,14,113,2260019,,,2023-10-11,清算の結了等,,,2015-10-05,1,,,,,スクエア,0
82,1020002075913,登記記録の閉鎖等,0,2023-10-24,2023-10-11,有限会社大和コーディアル産業,,有限会社,神奈川県,横浜市金沢区,六浦南５丁目５番１８号,,14,108,2360038,,,2023-10-11,清算の結了等,,,2015-10-05,1,,,,,ダイワコーディアルサンギョウ,0
86,1021001014382,登記記録の閉鎖等,0,2023-10-24,2023-10-18,株式会社和宏電設,,株式会社,神奈川県,相模原市南区,上鶴間本町８丁目５７番６号,,14,153,2520318,,,2023-10-18,清算の結了等,,,2015-10-05,1,,,,,ワコウデンセツ,0
118,1060002009710,登記記録の閉鎖等,0,2023-10-24,2023-10-18,有限会社ワットウェーブ,,有限会社,栃木県,宇都宮市,弥生２丁目１５番４７号,,09,201,3200837,,,2023-10-18,清算の結了等,,,2015-10-05,1,,,,,ワットウェーブ,0
124,1080102006762,登記記録の閉鎖等,0,2023-10-24,2023-10-23,有限会社大野原建設工業,,有限会社,静岡県,御殿場市,深沢８９８番地の５,,22,215,4120023,,,2023-10-23,清算の結了等,,,2015-10-05,1,,,,,オオノハラケンセツコウギョウ,0
134,1120001157181,登記記録の閉鎖等,0,2023-10-24,2023-10-19,株式会社オオサカヤ,,株式会社,大阪府,門真市,中町１１番６０－８１０号,,27,223,5710055,,,2023-10-19,清算の結了等,,,2015-10-05,1,,,,,オオサカヤ,0
173,1150001006633,登記記録の閉鎖等,0,2023-10-24,2023-10-23,株式会社中島商店,,株式会社,奈良県,天理市,丹波市町１０８番地,,29,204,6320034,,,2023-10-23,清算の結了等,,,2015-10-05,1,,,,,ナカジマショウテン,0
179,1180001029598,登記記録の閉鎖等,0,2023-10-24,2023-10-19,江崎給食品株式会社,,株式会社,愛知県,名古屋市中村区,五反城町３丁目３１番地,,23,105,4530836,,,2023-10-19,清算の結了等,,,2015-10-05,1,,,,,エサキキュウショクヒン,0
180,1180001090435,登記記録の閉鎖等,0,2023-10-24,2023-10-17,株式会社喜斎,,株式会社,愛知県,名古屋市中区,錦２丁目１１番２７号,,23,106,4600003,,,2023-10-17,清算の結了等,,,2015-10-05,1,,,,,キサイ,0
185,1180001144100,登記記録の閉鎖等,0,2023-10-24,2023-10-20,ＭＣＴ株式会社,,株式会社,愛知県,尾張旭市,東大道町原田２６７２番地３７７,,23,226,4880801,,,2023-10-20,清算の結了等,,,2020-12-22,1,,,,,エムシーティー,0
189,1180301035040,登記記録の閉鎖等,0,2023-10-24,2023-10-12,株式会社Ｆａｒ　Ｔｒａｖｅｌ　Ｃｒｅａｔｅ,,株式会社,愛知県,豊橋市,広小路１丁目４１番地,,23,201,4400881,,,2023-10-12,清算の結了等,,,2021-06-15,1,,,,,ファートラベルクリエイト,0
193,1180302021171,登記記録の閉鎖等,0,2023-10-24,2023-10-12,有限会社青木モータース,,有限会社,愛知県,豊田市,陣中町１丁目１７番地の８,,23,211,4710079,,,2023-10-12,清算の結了等,,,2015-10-05,1,,,,,アオキモータース,0
198,1210002009141,登記記録の閉鎖等,0,2023-10-24,2023-10-17,有限会社ラウルス勝木,,有限会社,福井県,福井市,勝見３丁目１３番２３号,,18,201,9100856,,,2023-10-17,清算の結了等,,,2015-10-05,1,,,,,ラウルスカツキ,0
203,1240001029724,登記記録の閉鎖等,0,2023-10-24,2023-10-02,株式会社アシダ,,株式会社,広島県,福山市,芦田町大字下有地１４４３番地の１,00000270,34,207,7201262,,,2023-10-02,清算の結了等,,,2015-10-05,1,,,,,アシダ,0
210,1250003003222,登記記録の閉鎖等,0,2023-10-24,2023-10-23,合同会社リハスタイル,,合同会社,山口県,周南市,藤ヶ台２丁目２番１５号,,35,215,7450618,,,2023-10-23,清算の結了等,,,2023-02-14,1,,,,,リハスタイル,0
238,1360001015828,登記記録の閉鎖等,0,2023-10-24,2023-10-20,牧港作業株式会社,,株式会社,沖縄県,浦添市,牧港１丁目６５番１号,,47,208,9012131,,,2023-10-20,清算の結了等,,,2015-10-05,1,,,,,マキミナトサギョウ,0
254,1370401000949,登記記録の閉鎖等,0,2023-10-24,2023-10-16,米谷金融株式会社,,株式会社,宮城県,登米市,東和町米谷字＿荷４６番地,00082784,04,212,9870902,,,2023-10-16,清算の結了等,,,2015-10-05,1,,,,,マイヤキンユウ,0
261,1410001010963,登記記録の閉鎖等,0,2023-10-24,2023-10-19,Ｉ．Ｍランバー株式会社,,株式会社,秋田県,秋田市,卸町１丁目３番２号,,05,201,0100061,,,2023-10-19,清算の結了等,,,2015-10-05,1,,,,,アイエムランバー,0
294,2010401141811,登記記録の閉鎖等,0,2023-10-24,2023-10-16,株式会社コール・シート,,株式会社,東京都,港区,海岸３丁目８番９号ＫＡＭＯＭＥ１００１,,13,103,1080022,,,2023-10-16,清算の結了等,,,2018-11-02,1,,,,,コールシート,0
319,2011001133843,登記記録の閉鎖等,0,2023-10-24,2023-10-16,株式会社アセナ,,株式会社,東京都,港区,西麻布１丁目１１番６－７０７号,,13,103,1060031,,,2023-10-16,清算の結了等,,,2020-05-26,1,,,,,アセナ,0
327,2011403003792,登記記録の閉鎖等,0,2023-10-24,2023-10-23,信安合同会社,,合同会社,東京都,板橋区,加賀２丁目５番１９号,,13,119,1730003,,,2023-10-23,清算の結了等,,,2022-10-14,1,,,,,シンアン,0
331,2011601000930,登記記録の閉鎖等,0,2023-10-24,2023-10-20,株式会社エクセス,,株式会社,東京都,練馬区,早宮１丁目１８番１５号,,13,120,1790085,,,2023-10-20,清算の結了等,,,2015-10-05,1,,,,,エクセス,0
350,2013301049645,登記記録の閉鎖等,0,2023-10-24,2023-10-12,株式会社トライサウンド,,株式会社,東京都,豊島区,東池袋３丁目８番５号パレドール池袋６０２号室,,13,116,1700013,,,2023-10-12,清算の結了等,,,2022-09-12,1,,,,,トライサウンド,0
354,2020001002660,登記記録の閉鎖等,0,2023-10-24,2023-10-13,株式会社イタリアンビデオコレクション,,株式会社,東京都,世田谷区,経堂５丁目２７番１６－４０５号,,13,112,1560052,,,2023-10-13,清算の結了等,,,2015-10-05,1,,,,,イタリアンビデオコレクション,0
370,2021002067057,登記記録の閉鎖等,0,2023-10-24,2023-10-19,有限会社三浦図書,,有限会社,神奈川県,横須賀市,武３丁目１７番１２－４１７号,,14,201,2380313,,,2023-10-19,清算の結了等,,,2015-10-05,1,,,,,ミウラトショ,0
389,2050002042389,登記記録の閉鎖等,0,2023-10-24,2023-10-16,有限会社箱守プリント,,有限会社,茨城県,筑西市,丙１２９番地,,08,227,3080031,,,2023-10-16,清算の結了等,,,2015-10-05,1,,,,,ハコモリプリント,0
399,2080002016142,登記記録の閉鎖等,0,2023-10-24,2023-10-19,有限会社ハマコーポレイション,,有限会社,静岡県,焼津市,一色１７番地の３,,22,212,4250054,,,2023-10-19,清算の結了等,,,2015-10-05,1,,,,,ハマコーポレイション,0
400,2080101007967,登記記録の閉鎖等,0,2023-10-24,2023-10-19,株式会社瑞彰,,株式会社,静岡県,沼津市,岡宮１５６番地の１９,,22,203,4100011,,,2023-10-19,清算の結了等,,,2015-10-05,1,,,,,ズイショウ,0
423,2120001235176,登記記録の閉鎖等,0,2023-10-24,2023-10-13,株式会社Ｊ－ＰＬＡＮ,,株式会社,大阪府,大阪市都島区,東野田町３丁目１２－１１－５Ｆ,,27,102,5340024,,,2023-10-13,清算の結了等,,,2021-02-09,1,,,,,ジェイプラン,0
439,2130001021823,登記記録の閉鎖等,0,2023-10-24,2023-10-06,株式会社都市建築事務所,,株式会社,京都府,京都市中京区,壬生坊城町４８－３壬生坊城第２市街地住宅４号棟１０１７号,,26,104,6048804,,,2023-10-06,清算の結了等,,,2023-08-21,1,,,,,トシケンチクジムショ,0
453,2180001054637,登記記録の閉鎖等,0,2023-10-24,2023-10-20,株式会社ジーライフ,,株式会社,愛知県,名古屋市中区,丸の内３丁目７番２６号,,23,106,4600002,,,2023-10-20,合併による解散等,6180001042010,令和５年１０月２０日名古屋市中区松原三丁目１３番４１号株式会社ワイ・ヨット（6180001042010）に合併し解散,2015-10-05,1,,,,,ジーライフ,0
457,2180003019150,登記記録の閉鎖等,0,2023-10-24,2023-10-19,合同会社ファイティングボルト,,合同会社,愛知県,瀬戸市,瘤木町７７番地,,23,204,4890879,,,2023-10-19,清算の結了等,,,2018-07-31,1,,,,,ファイティングボルト,0
463,2190003001693,登記記録の閉鎖等,0,2023-10-24,2023-10-17,丸平食品合名会社,,合名会社,三重県,四日市市,天カ須賀２丁目１８番２１号,,24,202,5108001,,,2023-10-17,清算の結了等,,,2015-10-05,1,,,,,マルヘイショクヒン,0
466,2200002006254,登記記録の閉鎖等,0,2023-10-24,2023-10-24,有限会社中部特殊ミシン,,有限会社,岐阜県,岐阜市,上太田町１丁目１０番地,,21,201,5008068,,,2023-10-24,清算の結了等,,,2015-10-05,1,,,,,チュウブトクシュミシン,0
474,2230005003510,登記記録の閉鎖等,0,2023-10-24,2023-10-23,魚津ガス事業協同組合,,その他の設立登記法人,富山県,魚津市,友道１００８番地,,16,204,9370806,,,2023-10-23,清算の結了等,,,2015-10-05,1,,,,,ウオヅガスジギョウ,0
479,2250001016704,登記記録の閉鎖等,0,2023-10-24,2023-10-13,ネクスドア株式会社,,株式会社,山口県,光市,三井６丁目１８番３０号,,35,210,7430052,,,2023-10-13,合併による解散等,4250003001009,令和５年１０月１日山口県光市大字小周防１１０２番地４西峰テクノス株式会社（4250003001009）に合併し解散,2017-07-18,1,,,,,ネクスドア,0
520,2370201004083,登記記録の閉鎖等,0,2023-10-24,2023-10-23,株式会社テクノスコーポレーション,,株式会社,岡山県,岡山市北区,今８丁目１４番２８号今八丁目合同ビル２階,,33,101,7000975,,,2023-10-23,清算の結了等,,,2015-10-05,1,,,,,テクノスコーポレーション,0
549,2500001019648,登記記録の閉鎖等,0,2023-10-24,2023-10-23,株式会社貴蔵,,株式会社,愛媛県,松山市,大街道２丁目２番地１,,38,201,7900004,,,2023-10-23,清算の結了等,,,2016-02-24,1,,,,,,0
564,3010005020122,登記記録の閉鎖等,0,2023-10-24,2023-10-20,一般社団法人ＮＵ－８,,その他の設立登記法人,東京都,千代田区,九段南３丁目７番７号成和綜合会計事務所内,,13,101,1020074,,,2023-10-20,清算の結了等,,,2015-10-05,1,,,,,エヌユーエイト,0
567,3010005034907,登記記録の閉鎖等,0,2023-10-24,2023-10-16,一般社団法人言靈やまと語協会,,その他の設立登記法人,東京都,千代田区,丸の内１丁目６－２新丸の内センタービルディング２０階,,13,101,1000005,,,2023-10-16,清算の結了等,,,2022-04-27,1,,,,,ゲンレイヤマトゴキョウカイ,0
574,3010401133774,登記記録の閉鎖等,0,2023-10-24,2023-10-19,株式会社イエスレーザージャパン,,株式会社,東京都,足立区,扇１丁目８番９号,,13,121,1230873,,,2023-10-19,清算の結了等,,,2017-09-14,1,,,,,イエスレーザージャパン,0
593,3011001007360,登記記録の閉鎖等,0,2023-10-24,2023-10-19,ケイズパワー株式会社,,株式会社,東京都,渋谷区,広尾３丁目２番１４号,,13,113,1500012,,,2023-10-19,清算の結了等,,,2015-10-05,1,,,,,ケイズパワー,0
612,3011602002529,登記記録の閉鎖等,0,2023-10-24,2023-10-19,有限会社かずさ,,有限会社,東京都,練馬区,春日町６丁目６番３９号,,13,120,1790074,,,2023-10-19,清算の結了等,,,2015-10-05,1,,,,,カズサ,0
617,3012301000765,登記記録の閉鎖等,0,2023-10-24,2023-10-17,株式会社ＫＭＣ,,株式会社,東京都,町田市,小山町１６２９番地５４,,13,209,1940212,,,2023-10-17,清算の結了等,,,2015-10-05,1,,,,,ケーエムシー,0
627,3012802003564,登記記録の閉鎖等,0,2023-10-24,2023-10-13,有限会社ネオ,,有限会社,東京都,昭島市,上川原町２丁目５番６号,,13,207,1960011,,,2023-10-13,清算の結了等,,,2015-10-05,1,,,,,ネオ,0
634,3020001074666,登記記録の閉鎖等,0,2023-10-24,2023-10-04,株式会社三岩,,株式会社,神奈川県,川崎市川崎区,大島３丁目２番１５号,,14,131,2100834,,,2023-10-04,清算の結了等,,,2015-10-05,1,,,,,サンイワ,0
651,3021001052819,登記記録の閉鎖等,0,2023-10-24,2023-10-19,湘南リアルエステート株式会社,,株式会社,神奈川県,鎌倉市,梶原２丁目１８番６号,,14,204,2470063,,,2023-10-19,清算の結了等,,,2015-10-05,1,,,,,ショウナンリアルエステート,0
653,3021002013695,登記記録の閉鎖等,0,2023-10-24,2023-10-18,有限会社参輪工業,,有限会社,神奈川県,茅ヶ崎市,本村４丁目２２番１４－２０１号,,14,207,2530042,,,2023-10-18,清算の結了等,,,2015-10-05,1,,,,,サンワコウギョウ,0
663,3030001128173,登記記録の閉鎖等,0,2023-10-24,2023-10-10,株式会社Ｈ＆Ａ　ｅｎｅｒｇｙ,,株式会社,埼玉県,川口市,大字里９７９番地２０３号,,11,203,3340005,,,2023-10-10,清算の結了等,,,2018-11-07,1,,,,,エイチアンドエーエナジー,0
673,3040001036425,登記記録の閉鎖等,0,2023-10-24,2023-10-10,成田工機株式会社,,株式会社,千葉県,松戸市,吉井町１３番地７,,12,207,2710066,,,2023-10-10,清算の結了等,,,2015-10-05,1,,,,,ナリタコウキ,0
685,3050001017837,登記記録の閉鎖等,0,2023-10-24,2023-10-16,株式会社柴田不動産,,株式会社,茨城県,つくば市,小野崎１番地,,08,220,3050034,,,2023-10-16,清算の結了等,,,2015-10-05,1,,,,,シバタフドウサン,0
700,3120001003573,登記記録の閉鎖等,0,2023-10-24,2023-10-20,株式会社庄井商店,,株式会社,大阪府,大阪市住之江区,東加賀屋１丁目１２番９－８０７号,,27,125,5590012,,,2023-10-20,清算の結了等,,,2015-10-05,1,,,,,ショウイショウテン,0
702,3120001137834,登記記録の閉鎖等,0,2023-10-24,2023-10-19,北浜商事株式会社,,株式会社,大阪府,大阪市中央区,平野町３丁目３番７号－６１０,,27,128,5410046,,,2023-10-19,清算の結了等,,,2015-10-05,1,,,,,キタハマショウジ,0
733,3130002004520,登記記録の閉鎖等,0,2023-10-24,2023-10-10,有限会社吉友,00036963,有限会社,京都府,京都市北区,小山下総町３４番地の２６,,26,101,6038151,,,2023-10-10,清算の結了等,,,2015-10-05,1,,,,,ヨシトモ,0
746,3170002000292,登記記録の閉鎖等,0,2023-10-24,2023-10-20,池田漁網有限会社,,有限会社,和歌山県,和歌山市,二筋目３０番地,,30,201,6408068,,,2023-10-20,清算の結了等,,,2015-10-05,1,,,,,イケダギョモウ,0
748,3180001037525,登記記録の閉鎖等,0,2023-10-24,2023-10-18,大日設備株式会社,,株式会社,愛知県,名古屋市天白区,植田東２丁目５０１番地,,23,116,4680006,,,2023-10-18,清算の結了等,,,2015-10-05,1,,,,,ダイニチセツビ,0
752,3180001139016,登記記録の閉鎖等,0,2023-10-24,2023-10-19,ＳＢＣ株式会社,,株式会社,愛知県,名古屋市中区,栄３丁目２５番３９号ＳａｋａｅＳｏｕｔｈＳｑｕａｒｅ３Ｆ,,23,106,4600008,,,2023-10-19,清算の結了等,,,2019-11-28,1,,,,,エスビーシー,0
757,3180002056284,登記記録の閉鎖等,0,2023-10-24,2023-10-19,有限会社一心,,有限会社,愛知県,名古屋市北区,上飯田南町３丁目２６番地の１,,23,103,4620804,,,2023-10-19,清算の結了等,,,2015-10-05,1,,,,,イッシン,0
774,3280002008275,登記記録の閉鎖等,0,2023-10-24,2023-10-20,有限会社河野良工務店,,有限会社,島根県,浜田市,下府町８７１番地５,,32,202,6970006,,,2023-10-20,清算の結了等,,,2015-10-05,1,,,,,コウノリョウコウムテン,0
803,3330005008928,登記記録の閉鎖等,0,2023-10-24,2023-10-13,一般社団法人健康ライフサポートくま,,その他の設立登記法人,熊本県,人吉市,中青井町３５７番地６,,43,203,8680008,,,2023-10-13,清算の結了等,,,2015-10-05,1,,,,,ケンコウライフサポートクマ,0
807,3360001018647,登記記録の閉鎖等,0,2023-10-24,2023-10-18,株式会社ＬａＬａ　Ｐｒｉｍｏ,,株式会社,沖縄県,中頭郡中城村,字南上原１０２１番地プリモタウン２－Ｂ,,47,328,9012424,,,2023-10-18,清算の結了等,,,2015-10-05,1,,,,,ララプリモ,0
821,3430001030999,登記記録の閉鎖等,0,2023-10-24,2023-10-11,株式会社味の匠,,株式会社,北海道,札幌市白石区,南郷通２丁目南２番５－１０１号,,01,104,0030022,,,2023-10-11,清算の結了等,,,2015-10-05,1,,,,,アジノタクミ,0
822,3430001075961,登記記録の閉鎖等,0,2023-10-24,2023-10-11,株式会社メイカ,,株式会社,北海道,札幌市中央区,大通西７丁目２番地２,,01,101,0600042,,,2023-10-11,清算の結了等,,,2018-02-22,1,,,,,メイカ,0
826,3430002035824,登記記録の閉鎖等,0,2023-10-24,2023-10-11,有限会社環境研,,有限会社,北海道,札幌市東区,北二十三条東１８丁目７番６号,,01,103,0650023,,,2023-10-11,清算の結了等,,,2015-10-05,1,,,,,カンキョウケン,0
830,3490001007059,登記記録の閉鎖等,0,2023-10-24,2023-10-19,株式会社Ｆ・Ｍ・Ｓ,,株式会社,高知県,高知市,仁井田１６１７番地１８,,39,201,7810112,,,2023-10-19,清算の結了等,,,2015-10-05,1,,,,,エフエムエス,0
832,3490002007933,登記記録の閉鎖等,0,2023-10-24,2023-10-19,有限会社ジャスト,,有限会社,高知県,高知市,南久万６９番地５,,39,201,7800985,,,2023-10-19,清算の結了等,,,2015-10-05,1,,,,,ジャスト,0
852,4010401095188,登記記録の閉鎖等,0,2023-10-24,2023-10-16,アイ・アート・アセット株式会社,,株式会社,東京都,港区,六本木５丁目１５番２１号クリスタルコート鳥居坂４０１,,13,103,1060032,,,2023-10-16,清算の結了等,,,2015-10-05,1,,,,,アイアートアセット,0
865,4010601014534,登記記録の閉鎖等,0,2023-10-24,2023-10-18,東和工業株式会社,,株式会社,東京都,墨田区,八広４丁目４４番１５号,,13,107,1310041,,,2023-10-18,清算の結了等,,,2015-10-05,1,,,,,トウワコウギョウ,0
876,4011001136373,登記記録の閉鎖等,0,2023-10-24,2023-10-18,ＷｏｒｋＰｏｄ株式会社,,株式会社,東京都,渋谷区,渋谷３丁目１０番１９号渋谷ＭＪ－ＩＩビル６階,00121054,13,113,1500002,,,2023-10-18,合併による解散等,5430001073303,令和５年９月３０日札幌市中央区南一条西五丁目７番地愛生舘ビルグルーコードコミュニケーションズ株式会社（5430001073303）に合併し解散,2020-10-14,1,,,,,ワークポッド,0
880,4011002029709,登記記録の閉鎖等,0,2023-10-24,2023-10-23,有限会社アスファルト,,有限会社,東京都,渋谷区,千駄ヶ谷３丁目５３番１７号,,13,113,1510051,,,2023-10-23,清算の結了等,,,2015-10-05,1,,,,,アスファルト,0
906,4012801018827,登記記録の閉鎖等,0,2023-10-24,2023-10-12,株式会社Ａｂｉｓｕ,,株式会社,東京都,立川市,砂川町１丁目８番地３,,13,202,1900031,,,2023-10-12,清算の結了等,,,2018-06-29,1,,,,,エイビス,0
931,4021002056751,登記記録の閉鎖等,0,2023-10-24,2023-10-19,有限会社池上,,有限会社,神奈川県,平塚市,四之宮３丁目２６番１９号,,14,203,2540014,,,2023-10-19,清算の結了等,,,2015-10-05,1,,,,,イケガミ,0
936,4030001001593,登記記録の閉鎖等,0,2023-10-24,2023-09-14,大宮ホンダ株式会社,,株式会社,埼玉県,さいたま市北区,吉野町１丁目４００番地１８,,11,102,3310811,,,2023-09-14,清算の結了等,,,2015-10-05,1,,,,,,0
939,4030001113703,登記記録の閉鎖等,0,2023-10-24,2023-10-10,株式会社ＦＭＤ,,株式会社,埼玉県,東松山市,桜山台２番地９６,,11,212,3550052,,,2023-10-10,清算の結了等,,,2016-04-06,1,,,,,,0
944,4030003020311,登記記録の閉鎖等,0,2023-10-24,2023-10-11,Ｒｅｎｅｗ合同会社,,合同会社,埼玉県,川口市,大字里１８０ワイアンドエステラスＣ号室,,11,203,3340005,,,2023-10-11,清算の結了等,,,2022-10-04,1,,,,,リニュー,0
953,4040001113586,登記記録の閉鎖等,0,2023-10-24,2023-10-10,株式会社ＣＡＮ,,株式会社,千葉県,成田市,並木町１４２－１１ガーデンハイツＢ１０３,,12,211,2860045,,,2023-10-10,清算の結了等,,,2020-05-12,1,,,,,キャン,0
968,4050002024550,登記記録の閉鎖等,0,2023-10-24,2023-10-12,有限会社三幸飯店,,有限会社,茨城県,古河市,駒羽根１３９７番地２,,08,204,3060221,,,2023-10-12,清算の結了等,,,2015-10-05,1,,,,,サンンコウハンテン,0
970,4060001015871,登記記録の閉鎖等,0,2023-10-24,2023-10-16,メディカルパパス株式会社,,株式会社,茨城県,結城市,新福寺５丁目１３番地１３,,08,207,3070053,,,2023-10-16,清算の結了等,,,2015-10-05,1,,,,,,0
988,4120001200599,登記記録の閉鎖等,0,2023-10-24,2023-10-18,株式会社アスモフードサービス西日本,,株式会社,大阪府,大阪市北区,曾根崎１丁目２番９号,,27,127,5300057,,,2023-10-18,合併による解散等,1011101066449,令和５年１０月１日東京都新宿区西新宿二丁目４番１号株式会社アスモフードサービス（1011101066449）に合併し解散,2016-09-07,1,,,,,アスモフードサービスニシニホン,0
997,4120105003543,登記記録の閉鎖等,0,2023-10-24,2023-10-23,企業組合ファインウォーク,,その他の設立登記法人,大阪府,堺市南区,城山台３丁１番１２－２０５号,,27,145,5900137,,,2023-10-23,清算の結了等,,,2015-10-05,1,,,,,ファインウォーク,0
999,4130001036935,登記記録の閉鎖等,0,2023-10-24,2023-10-06,株式会社美加ノ原メンテナンス,,株式会社,京都府,木津川市,鹿背山梶ケ谷６７番地,,26,214,6190211,,,2023-10-06,清算の結了等,,,2015-10-05,1,,,,,ミカノハラメンテナンス,0
1015,4160001022354,登記記録の閉鎖等,0,2023-10-24,2023-10-18,株式会社ぴあにしも,,株式会社,滋賀県,湖南市,菩提寺西４丁目１３番１２号,,25,211,5203248,,,2023-10-18,清算の結了等,,,2020-03-13,1,,,,,ピアニシモ,0
1025,4180002039627,登記記録の閉鎖等,0,2023-10-24,2023-10-13,有限会社クニモト工芸,,有限会社,愛知県,名古屋市緑区,鳴海町字母呂後１９６番地の２,,23,114,4580801,,,2023-10-13,清算の結了等,,,2015-10-05,1,,,,,クニモトコウゲイ,0
1044,4250001002883,登記記録の閉鎖等,0,2023-10-24,2023-10-19,コウナン建設株式会社,,株式会社,山口県,山口市,吉敷上東３丁目９番１１号,,35,203,7530818,,,2023-10-19,清算の結了等,,,2015-10-05,1,,,,,コウナンケンセツ,0
1047,4250003003062,登記記録の閉鎖等,0,2023-10-24,2023-10-16,合同会社ＹＭＲ,,合同会社,山口県,宇部市,常藤町５番３８－２号,,35,202,7550021,,,2023-10-16,清算の結了等,,,2022-05-10,1,,,,,ワイエムアール,0
1051,4260001030099,登記記録の閉鎖等,0,2023-10-24,2023-10-20,株式会社みなみリース,,株式会社,岡山県,岡山市南区,福富西１丁目１５番２４号,,33,104,7028031,,,2023-10-20,清算の結了等,,,2016-10-26,1,,,,,ミナミリース,0
1057,4290001098464,登記記録の閉鎖等,0,2023-10-24,2023-10-02,株式会社伊三郎製ぱん,,株式会社,京都府,京都市中京区,烏丸通蛸薬師上る七観音町６３７番地インターワンプレイス烏丸ビル７Ｆ,00128573,26,104,6048162,,,2023-10-02,合併による解散等,1130001065326,令和５年１０月１日京都市中京区烏丸通蛸薬師上ル七観音町６３７番地インターワンプレイス烏丸ビル７Ｆ株式会社ブランワン（1130001065326）に合併し解散,2022-08-04,1,,,,,イサブロウセイパン,0
1077,4370001023612,登記記録の閉鎖等,0,2023-10-24,2023-10-18,株式会社とうあ,,株式会社,宮城県,仙台市太白区,郡山４丁目３番１３号,,04,104,9820003,,,2023-10-18,清算の結了等,,,2015-10-05,1,,,,,トウア,0
1081,4370302003263,登記記録の閉鎖等,0,2023-10-24,2023-10-17,有限会社ワタベ,,有限会社,宮城県,石巻市,大瓜字八津山８５番地２,,04,202,9860005,,,2023-10-17,清算の結了等,,,2015-10-05,1,,,,,ワタベ,0
1082,4380001005023,登記記録の閉鎖等,0,2023-10-24,2023-10-16,株式会社Ｋ・Ｓ・Ｃ,,株式会社,福島県,郡山市,喜久田町字菖蒲池２２番地,,07,203,9630551,,,2023-10-16,清算の結了等,,,2015-10-05,1,,,,,ケーエスシー,0
1110,5010001210113,登記記録の閉鎖等,0,2023-10-24,2023-09-27,デジタル人財アカデミー株式会社,,株式会社,東京都,中央区,東日本橋２丁目２８番４号日本橋ＣＥＴビル２階,,13,102,1030004,,,2023-09-27,清算の結了等,,,2020-06-05,1,,,,,デジタルジンザイアカデミー,0
1112,5010001226357,登記記録の閉鎖等,0,2023-10-24,2023-10-11,株式会社日本非上場株式買取機構,,株式会社,東京都,千代田区,霞が関３丁目２番５号,,13,101,1000013,,,2023-10-11,清算の結了等,,,2022-05-06,1,,,,,ニホンヒジョウジョウカブシキカイトリキコウ,0
1123,5010405012246,登記記録の閉鎖等,0,2023-10-24,2023-10-02,未利用熱エネルギー革新的活用技術研究組合,,その他の設立登記法人,東京都,港区,西新橋１丁目５番１１号,,13,103,1050003,,,2023-10-02,清算の結了等,,,2015-10-05,1,,,,,ミリヨウネツエネルギーカクシンテキカツヨウ,0
1128,5010602000400,登記記録の閉鎖等,0,2023-10-24,2023-10-18,有限会社岩貢運送,,有限会社,東京都,江東区,南砂１丁目９番１８号,,13,108,1360076,,,2023-10-18,清算の結了等,,,2015-10-05,1,,,,,イワツグウンソウ,0
1140,5011001143278,登記記録の閉鎖等,0,2023-10-24,2023-10-19,株式会社ジョインハンズゲーミング,,株式会社,東京都,渋谷区,神宮前１丁目１番８号ケンハーバー４０１,,13,113,1500001,,,2023-10-19,清算の結了等,,,2021-10-18,1,,,,,ジョインハンズゲーミング,0
1161,5012801021375,登記記録の閉鎖等,0,2023-10-24,2023-10-06,株式会社オフィス佐々木,,株式会社,東京都,日野市,南平１丁目７番地の２２,,13,212,1910041,,,2023-10-06,清算の結了等,,,2022-02-04,1,,,,,オフィスササキ,0
1173,5020001149243,登記記録の閉鎖等,0,2023-10-24,2023-10-11,株式会社１０Ｐｌｕｓ,,株式会社,神奈川県,横浜市保土ケ谷区,星川１丁目６番５－５０２号,,14,106,2400006,,,2023-10-11,清算の結了等,,,2022-12-06,1,,,,,テンプラス,0
1176,5020002013282,登記記録の閉鎖等,0,2023-10-24,2023-10-11,有限会社ワイズオフィス,,有限会社,神奈川県,横浜市戸塚区,原宿２丁目５６番２１号,,14,110,2450063,,,2023-10-11,清算の結了等,,,2015-10-05,1,,,,,ワイズオフィス,0
1177,5020002061967,登記記録の閉鎖等,0,2023-10-24,2023-10-19,有限会社ステップコーポレーション,,有限会社,神奈川県,横浜市神奈川区,西神奈川３丁目９番１号,,14,102,2210822,,,2023-10-19,合併による解散等,4130001041547,令和５年１０月１日京都府福知山市長田大野下２７３７番地１２株式会社ミストラルサービス（4130001041547）に合併し解散,2015-10-05,1,,,,,ステップコーポレーション,0
1198,5030002058244,登記記録の閉鎖等,0,2023-10-24,2023-10-10,有限会社折原硝子店,,有限会社,埼玉県,朝霞市,栄町２丁目１４番１９号,,11,227,3510012,,,2023-10-10,清算の結了等,,,2015-10-05,1,,,,,オリハラガラステン,0
1204,5030005015622,登記記録の閉鎖等,0,2023-10-24,2023-10-06,税理士法人浅野小林事務所,,その他の設立登記法人,埼玉県,川口市,西川口１丁目１５番６号,,11,203,3320021,,,2023-10-06,清算の結了等,,,2015-10-05,1,,,,,アサノコバヤシジムショ,0
1213,5060002039200,登記記録の閉鎖等,0,2023-10-24,2023-10-17,有限会社高橋木型製作所,,有限会社,栃木県,佐野市,植野町１９０２番地の２,,09,204,3270837,,,2023-10-17,清算の結了等,,,2015-10-05,1,,,,,タカハシキガタセイサクジョ,0
1224,5080102015289,登記記録の閉鎖等,0,2023-10-24,2023-10-20,有限会社ＷＩＮ,,有限会社,静岡県,富士市,国久保２丁目３番３７号,,22,210,4170071,,,2023-10-20,清算の結了等,,,2015-10-05,1,,,,,,0
1225,5080401010809,登記記録の閉鎖等,0,2023-10-24,2023-10-23,金本建設株式会社,,株式会社,静岡県,浜松市天竜区,春野町気田５０２番地,,22,137,4370605,,,2023-10-23,清算の結了等,,,2015-10-05,1,,,,,カネモトケンセツ,0
1236,5110002022150,登記記録の閉鎖等,0,2023-10-24,2023-10-19,有限会社岩嶋機械設計,,有限会社,新潟県,上越市,加賀町２番３８号,,15,222,9420086,,,2023-10-19,清算の結了等,,,2015-10-05,1,,,,,イワシマキカイセッケイ,0
1237,5110005015770,登記記録の閉鎖等,0,2023-10-24,2023-10-20,一般社団法人セルフアドヴァンス協会,,その他の設立登記法人,新潟県,三条市,直江町３丁目１１番２０－７号,,15,204,9550832,,,2023-10-20,清算の結了等,,,2015-10-05,1,,,,,セルフアドバンスキョウカイ,0
1238,5120001012977,登記記録の閉鎖等,0,2023-10-24,2023-10-19,株式会社中央技研設計事務所,,株式会社,大阪府,大阪市東成区,中道３丁目１５番１６号,,27,115,5370025,,,2023-10-19,清算の結了等,,,2015-10-05,1,,,,,チュウオウギケンセッケイジムショ,0
1250,5120001219878,登記記録の閉鎖等,0,2023-10-24,2023-10-20,株式会社アセアン関西,,株式会社,大阪府,大阪市東淀川区,東中島１丁目１７番１８号新大阪ビル東館３０３号室,,27,114,5330033,,,2023-10-20,合併による解散等,9010501043686,令和５年１０月１日東京都台東区台東三丁目１５番３号ＭＡＲＫＳＱＵＡＲＥ御徒町７階株式会社アセアン（9010501043686）に合併し解散,2019-03-26,1,,,,,アセアンカンサイ,0
1276,5122002013657,登記記録の閉鎖等,0,2023-10-24,2023-10-20,有限会社香里太平ホール,,有限会社,大阪府,寝屋川市,香里南之町２０番２０号,,27,215,5720084,,,2023-10-20,清算の結了等,,,2015-10-05,1,,,,,コウリタイヘイホール,0
1285,5130002003999,登記記録の閉鎖等,0,2023-10-24,2023-10-10,有限会社力,,有限会社,京都府,京都市北区,鞍馬口通室町西入小山町２１８番地,,26,101,6038152,,,2023-10-10,清算の結了等,,,2015-10-05,1,,,,,チカラ,0
1298,5170002002741,登記記録の閉鎖等,0,2023-10-24,2023-10-20,有限会社南和酒店,,有限会社,和歌山県,和歌山市,北新５丁目６２番地の１,,30,201,6408002,,,2023-10-20,清算の結了等,,,2015-10-05,1,,,,,,0
1300,5180001103291,登記記録の閉鎖等,0,2023-10-24,2023-10-20,株式会社ガスシステム,,株式会社,愛知県,名古屋市昭和区,川原通６丁目３番地の１,,23,107,4660853,,,2023-10-20,合併による解散等,9050001025289,令和５年１０月１日茨城県龍ケ崎市中根台四丁目１０番地１シナネンアクシア株式会社（9050001025289）に合併し解散,2015-10-05,1,,,,,ガスシステム,0
1301,5180001122762,登記記録の閉鎖等,0,2023-10-24,2023-10-19,Ｓ．ＴＥＣＴ株式会社,,株式会社,愛知県,名古屋市港区,七反野１丁目１８１４番地,,23,111,4550884,,,2023-10-19,清算の結了等,,,2016-04-12,1,,,,,エステクト,0
1308,5180302017802,登記記録の閉鎖等,0,2023-10-24,2023-10-12,有限会社ふれんど,,有限会社,愛知県,知立市,八橋町大流３４番地２７,,23,225,4720001,,,2023-10-12,清算の結了等,,,2015-10-05,1,,,,,フレンド,0
1332,5320005009636,登記記録の閉鎖等,0,2023-10-24,2023-10-23,一般社団法人ＲＡＫＵ　ＤＯＨ,,その他の設立登記法人,大分県,杵築市,大字鴨川９３６番地来福山迎接寺,,44,210,8730023,,,2023-10-23,清算の結了等,,,2018-11-16,1,,,,,ラクド,0
1354,5450002012349,登記記録の閉鎖等,0,2023-10-24,2023-10-20,有限会社若杉ガラス店,,有限会社,北海道,留萌郡小平町,字小平町２６５番地,,01,482,0783301,,,2023-10-20,清算の結了等,,,2015-10-05,1,,,,,ワカスギガラステン,0
1365,6010001072949,登記記録の閉鎖等,0,2023-10-24,2023-10-19,株式会社エム・アール・エム,,株式会社,東京都,町田市,玉川学園７丁目３番１４号,,13,209,1940041,,,2023-10-19,清算の結了等,,,2015-10-05,1,,,,,エムアールエム,0
1366,6010001081256,登記記録の閉鎖等,0,2023-10-24,2023-10-12,株式会社三盛社,,株式会社,東京都,文京区,根津２丁目３４番２３号,,13,105,1130031,,,2023-10-12,清算の結了等,,,2015-10-05,1,,,,,サンセイシャ,0
1379,6010401041074,登記記録の閉鎖等,0,2023-10-24,2023-10-12,株式会社モーインターナショナル,,株式会社,東京都,港区,愛宕２丁目５番１号,,13,103,1050002,,,2023-10-12,清算の結了等,,,2015-10-05,1,,,,,モーインターナショナル,0
1393,6010501010540,登記記録の閉鎖等,0,2023-10-24,2023-10-20,日本ビューホテル株式会社,,株式会社,東京都,台東区,西浅草３丁目１７番１号,,13,106,1110035,,,2023-10-20,合併による解散等,1010501033785,令和５年１０月１日東京都中央区日本橋小舟町１３番８号ヒューリックホテルマネジメント株式会社（1010501033785）に合併し解散,2015-10-05,1,,,,,ニホンビューホテル,0
1414,6011502011453,登記記録の閉鎖等,0,2023-10-24,2023-10-17,有限会社ムラカミ,,有限会社,東京都,荒川区,西尾久６丁目１８番１２号,,13,118,1160011,,,2023-10-17,清算の結了等,,,2015-10-05,1,,,,,ムラカミ,0
1454,6030001133303,登記記録の閉鎖等,0,2023-10-24,2023-10-10,株式会社サンズホーム,,株式会社,埼玉県,さいたま市北区,別所町９８番地２４,,11,102,3310821,,,2023-10-10,清算の結了等,,,2019-10-15,1,,,,,サンズホーム,0
1464,6040002018948,登記記録の閉鎖等,0,2023-10-24,2023-10-18,有限会社藤本建装,,有限会社,神奈川県,茅ヶ崎市,柳島海岸１８番９－１号,,14,207,2530063,,,2023-10-18,清算の結了等,,,2015-10-05,1,,,,,フジモトケンソウ,0
1474,6050001007934,登記記録の閉鎖等,0,2023-10-24,2023-10-16,大塚石材工業株式会社,,株式会社,茨城県,笠間市,稲田２１９８番地の４,,08,216,3091635,,,2023-10-16,清算の結了等,,,2015-10-05,1,,,,,オオツカセキザイコウギョウ,0
1475,6050001010847,登記記録の閉鎖等,0,2023-10-24,2023-10-16,北斗設備工業株式会社,,株式会社,茨城県,かすみがうら市,上土田字宿尻９４７の１番地,,08,230,3150057,,,2023-10-16,清算の結了等,,,2015-10-05,1,,,,,ホクトセツビコウギョウ,0
1490,6080101018754,登記記録の閉鎖等,0,2023-10-24,2023-10-20,株式会社アンクルハウス,,株式会社,静岡県,熱海市,田原本町９番１号第一ビル５階,,22,205,4130011,,,2023-10-20,清算の結了等,,,2015-11-17,1,,,,,アンクルハウス,0
1492,6080401001303,登記記録の閉鎖等,0,2023-10-24,2023-10-23,上村設備株式会社,,株式会社,静岡県,浜松市南区,新橋町９５０番地,,22,134,4328058,,,2023-10-23,清算の結了等,,,2015-10-05,1,,,,,カミムラセツビ,0
1534,6140001070295,登記記録の閉鎖等,0,2023-10-24,2023-10-18,ベルナール日仏貿易株式会社,,株式会社,兵庫県,西宮市,仁川百合野町４番２８－４０５号,,28,204,6620815,,,2023-10-18,清算の結了等,,,2015-10-05,1,,,,,ベルナールニチフツボウエキ,0
1544,6180001014570,登記記録の閉鎖等,0,2023-10-24,2023-10-19,三和管材株式会社,,株式会社,愛知県,名古屋市南区,鶴里町３丁目６１番地,,23,112,4570021,,,2023-10-19,清算の結了等,,,2015-10-05,1,,,,,サンワカンザイ,0
1548,6180001053783,登記記録の閉鎖等,0,2023-10-24,2023-10-19,株式会社アイツー,,株式会社,愛知県,名古屋市名東区,社が丘２丁目４１５番地,,23,115,4650051,,,2023-10-19,清算の結了等,,,2015-10-05,1,,,,,アイツー,0
1552,6180001147305,登記記録の閉鎖等,0,2023-10-24,2023-10-20,ちょこっと株式会社,,株式会社,愛知県,名古屋市緑区,大高町字石ノ戸４番地の２,,23,114,4598001,,,2023-10-20,清算の結了等,,,2021-08-04,1,,,,,チョコット,0
1560,6180003005527,登記記録の閉鎖等,0,2023-10-24,2023-10-19,合資会社東進社,,合資会社,愛知県,名古屋市中区,新栄２丁目８番２５号,,23,106,4600007,,,2023-10-19,清算の結了等,,,2015-10-05,1,,,,,トウシンシャ,0
1580,6240002025825,登記記録の閉鎖等,0,2023-10-24,2023-10-18,有限会社梶川ホームサービス,,有限会社,広島県,広島市佐伯区,杉並台４７番地の２,,34,108,7380514,,,2023-10-18,清算の結了等,,,2015-10-05,1,,,,,カジカワホームサービス,0
1583,6250002015940,登記記録の閉鎖等,0,2023-10-24,2023-10-19,有限会社松井会計センター,,有限会社,山口県,下松市,古川町１丁目４番１号,,35,207,7440005,,,2023-10-19,清算の結了等,,,2015-10-05,1,,,,,マツイカイケイセンター,0
1584,6260002024445,登記記録の閉鎖等,0,2023-10-24,2023-10-20,有限会社幸栄工業,,有限会社,岡山県,倉敷市,玉島乙島７０７０番地３,,33,202,7138103,,,2023-10-20,清算の結了等,,,2015-10-05,1,,,,,コウエイコウギョウ,0
1595,6290801005535,登記記録の閉鎖等,0,2023-10-24,2023-10-20,株式会社藤工建設,,株式会社,福岡県,北九州市門司区,東新町１丁目７番２２号,,40,101,8000055,,,2023-10-20,清算の結了等,,,2022-07-26,1,,,,,トウコウケンセツ,0
1630,6430002046026,登記記録の閉鎖等,0,2023-10-24,2023-10-11,有限会社藤富數藤商店,,有限会社,北海道,江別市,大麻新町２１番地３,,01,217,0690863,,,2023-10-11,清算の結了等,,,2015-10-05,1,,,,,フジトミスドウショウテン,0
1678,7010601000457,登記記録の閉鎖等,0,2023-10-24,2023-10-17,株式会社井高,00051428,株式会社,東京都,江東区,千石２丁目６番１３号,,13,108,1350015,,,2023-10-17,清算の結了等,,,2015-10-05,1,,,,,イダカ,0
1697,7011103011208,登記記録の閉鎖等,0,2023-10-24,2023-10-18,ＢａＬｓ合同会社,,合同会社,東京都,新宿区,西新宿３丁目３番１３号西新宿水間ビル６階,,13,104,1600023,,,2023-10-18,清算の結了等,,,2021-11-26,1,,,,,バルス,0
1701,7011602007020,登記記録の閉鎖等,0,2023-10-24,2023-10-20,有限会社ネリマオートガーデン,,有限会社,東京都,練馬区,土支田３丁目２０番１３号,,13,120,1790076,,,2023-10-20,清算の結了等,,,2015-10-05,1,,,,,ネリマオートガーデン,0
1712,7013402006763,登記記録の閉鎖等,0,2023-10-24,2023-10-17,有限会社サン建築積算事務所,,有限会社,東京都,稲城市,東長沼２１０６－５,,13,225,2060802,,,2023-10-17,清算の結了等,,,2015-10-05,1,,,,,サンケンチクセキサンジムショ,0
1722,7020002017406,登記記録の閉鎖等,0,2023-10-24,2023-10-12,有限会社フルサワ建築設計室,,有限会社,神奈川県,横浜市西区,岡野１丁目６番４８－３０５号,,14,103,2200073,,,2023-10-12,清算の結了等,,,2015-10-05,1,,,,,フルサワケンチクセッケイシツ,0
1728,7021001045661,登記記録の閉鎖等,0,2023-10-24,2023-10-18,株式会社大希,,株式会社,神奈川県,小田原市,栄町１丁目２番８号第一マツガヤビル２階,,14,206,2500011,,,2023-10-18,清算の結了等,,,2015-10-05,1,,,,,ダイキ,0
1746,7040001057054,登記記録の閉鎖等,0,2023-10-24,2023-10-10,株式会社櫻岡建築所,,株式会社,千葉県,市川市,新田２丁目１７番３号,,12,203,2720035,,,2023-10-10,清算の結了等,,,2015-10-05,1,,,,,サクラオカケンチクジョ,0
1751,7040002025209,登記記録の閉鎖等,0,2023-10-24,2023-10-06,有限会社北産建設,,有限会社,千葉県,船橋市,上山町１丁目１５０番地１５－２０１,,12,204,2730046,,,2023-10-06,合併による解散等,3040002025212,令和５年９月１３日千葉県船橋市上山町一丁目１５０番地１５株式会社ホクサン住宅（3040002025212）に合併し解散,2015-10-05,1,,,,,ホクサンケンセツ,0
1754,7040003008674,登記記録の閉鎖等,0,2023-10-24,2023-10-10,合同会社アン・コーポレーション,,合同会社,千葉県,船橋市,高根台６丁目２９番１２号,,12,204,2740065,,,2023-10-10,清算の結了等,,,2016-06-13,1,,,,,アンコーポレーション,0
1758,7050002008187,登記記録の閉鎖等,0,2023-10-24,2023-10-17,有限会社小川屋商店,,有限会社,茨城県,ひたちなか市,柳沢３０５番地３,,08,221,3111231,,,2023-10-17,清算の結了等,,,2015-10-05,1,,,,,オガワヤショウテン,0
1759,7050002043705,登記記録の閉鎖等,0,2023-10-24,2023-10-17,農業生産法人有限会社コスモ塾,,有限会社,茨城県,筑西市,関本上１１７５番地の１,,08,227,3080122,,,2023-10-17,清算の結了等,,,2015-10-05,1,,,,,コスモジュク,0
1775,7080102001989,登記記録の閉鎖等,0,2023-10-24,2023-10-23,有限会社誠和産業,,有限会社,静岡県,沼津市,大塚９２１番地の２,,22,203,4100306,,,2023-10-23,清算の結了等,,,2015-10-05,1,,,,,セイワサンギョウ,0
1805,7130001038012,登記記録の閉鎖等,0,2023-10-24,2023-10-06,近畿設計株式会社,,株式会社,京都府,八幡市,八幡沓田５番地７,,26,210,6148095,,,2023-10-06,清算の結了等,,,2015-10-05,1,,,,,キンキセッケイ,0
1810,7130002024795,登記記録の閉鎖等,0,2023-10-24,2023-10-20,有限会社杉崎鉄工所,,有限会社,大阪府,大阪市住吉区,万代３丁目６番２３号,,27,120,5580055,,,2023-10-20,清算の結了等,,,2015-10-05,1,,,,,スギサキテッコウショ,0
1829,7180001040013,登記記録の閉鎖等,0,2023-10-24,2023-10-17,敏工ミシン工業株式会社,,株式会社,愛知県,名古屋市中区,千代田５丁目６番５号,,23,106,4600012,,,2023-10-17,合併による解散等,8180001040012,令和５年１０月１日名古屋市中区千代田五丁目６番５号ビンコー株式会社（8180001040012）に合併し解散,2015-10-05,1,,,,,ビンコウミシンコウギョウ,0
1831,7180001091691,登記記録の閉鎖等,0,2023-10-24,2023-10-18,澤田晒工業株式会社,,株式会社,愛知県,半田市,青山４丁目５番地４,,23,205,4750836,,,2023-10-18,清算の結了等,,,2015-10-05,1,,,,,サワダサラシコウギョウ,0
1848,7200001005186,登記記録の閉鎖等,0,2023-10-24,2023-10-23,株式会社丸和森屋フードセンター,,株式会社,岐阜県,岐阜市,鹿島町８丁目３７番地,,21,201,5008323,,,2023-10-23,清算の結了等,,,2015-10-05,1,,,,,マルワモリヤフードセンター,0
1849,7200002014145,登記記録の閉鎖等,0,2023-10-24,2023-10-23,有限会社鳥芳,,有限会社,岐阜県,大垣市,郭町２丁目５４番地,,21,202,5030887,,,2023-10-23,清算の結了等,,,2015-10-05,1,,,,,トリヨシ,0
1857,7240001018143,登記記録の閉鎖等,0,2023-10-24,2023-10-20,株式会社ＳＰＵコミュニケーションズ,,株式会社,広島県,広島市中区,大手町５丁目４番８号,,34,101,7300051,,,2023-10-20,清算の結了等,,,2015-10-05,1,,,,,エスピーユーコミュニケーションズ,0
1865,7260002020377,登記記録の閉鎖等,0,2023-10-24,2023-10-20,有限会社ノガミ工業,,有限会社,岡山県,倉敷市,祐安１３９１番地,,33,202,7100006,,,2023-10-20,清算の結了等,,,2015-10-05,1,,,,,ノガミコウギョウ,0
1870,7280002010054,登記記録の閉鎖等,0,2023-10-24,2023-10-23,有限会社セゾングループ,,有限会社,島根県,益田市,乙吉町イ９６番地５,,32,204,6980003,,,2023-10-23,清算の結了等,,,2015-10-05,1,,,,,セゾングループ,0
1910,7380002000821,登記記録の閉鎖等,0,2023-10-24,2023-10-17,有限会社鍛冶共同会計,,有限会社,福島県,福島市,腰浜町１番３号,,07,201,9608135,,,2023-10-17,清算の結了等,,,2015-10-05,1,,,,,カジキョウドウカイケイ,0
1914,7390002008418,登記記録の閉鎖等,0,2023-10-24,2023-10-18,有限会社フジストア,,有限会社,山形県,酒田市,字山田２３番地の１２,,06,204,9996861,,,2023-10-18,清算の結了等,,,2015-10-05,1,,,,,フジストア,0
1919,7430001009874,登記記録の閉鎖等,0,2023-10-24,2023-10-04,たくぎん保証株式会社,,株式会社,北海道,札幌市中央区,南一条西１丁目１番地,,01,101,0600061,,,2023-10-04,清算の結了等,,,2015-11-17,1,,,,,,0
1927,7430005012602,登記記録の閉鎖等,0,2023-10-24,2023-10-12,特定非営利活動法人ＬＩＮＫ　ＵＰ,,その他の設立登記法人,北海道,札幌市北区,篠路町上篠路６０番地４３,,01,102,0028052,,,2023-10-12,清算の結了等,,,2015-10-05,1,,,,,ランクアップ,0
1930,7460101006430,登記記録の閉鎖等,0,2023-10-24,2023-10-20,株式会社石井鉱産,,株式会社,北海道,帯広市,西三条南９丁目２番地,,01,207,0800013,,,2023-10-20,清算の結了等,,,2018-08-30,1,,,,,イシイコウサン,0
1956,8010401009978,登記記録の閉鎖等,0,2023-10-24,2023-10-17,光隆商事株式会社,,株式会社,東京都,目黒区,中町２丁目３８番８号,,13,110,1530065,,,2023-10-17,清算の結了等,,,2015-10-05,1,,,,,コウリュウショウジ,0
1957,8010401013947,登記記録の閉鎖等,0,2023-10-24,2023-10-03,株式会社エネサンスサービス,,株式会社,東京都,港区,浜松町１丁目２９番６号,,13,103,1050013,,,2023-10-03,合併による解散等,2010401076867,令和５年１０月１日東京都港区海岸一丁目２番２０号株式会社エネサンス関東（2010401076867）に合併し解散,2015-10-05,1,,,,,エネサンスサービス,0
1960,8010401158973,登記記録の閉鎖等,0,2023-10-24,2023-10-12,Ｒ８Ｇ　Ｊａｐａｎ株式会社,,株式会社,東京都,港区,虎ノ門４丁目３番１号城山トラストタワー東京赤坂法律事務所内,,13,103,1050001,,,2023-10-12,清算の結了等,,,2021-03-22,1,,,,,アールエイトジージャパン,0
1970,8010801025922,登記記録の閉鎖等,0,2023-10-24,2023-10-19,株式会社終盤戦,,株式会社,東京都,大田区,山王３丁目３７番６－５０３号,,13,111,1430023,,,2023-10-19,合併による解散等,3010001172438,令和５年９月３０日東京都中央区京橋二丁目８番１号八重洲中央ビル７階株式会社ココカラ・トラスト（3010001172438）に合併し解散,2015-10-05,1,,,,,シュウバンセン,0
1978,8011001058110,登記記録の閉鎖等,0,2023-10-24,2023-10-10,アドバドライブ株式会社,,株式会社,千葉県,勝浦市,中島７４番地１,,12,218,2995264,,,2023-10-10,清算の結了等,,,2015-10-05,1,,,,,アドバドライブ,0
1990,8011301020026,登記記録の閉鎖等,0,2023-10-24,2023-10-16,グロービート・ホールディングス株式会社,,株式会社,東京都,杉並区,上荻１丁目１４番５号,,13,115,1670043,,,2023-10-16,合併による解散等,9011301022946,令和５年１０月１日東京都杉並区上荻一丁目１４番５号グロービート株式会社（9011301022946）に合併し解散,2015-10-05,1,,,,,グロービートホールディングス,0
1993,8011403003135,登記記録の閉鎖等,0,2023-10-24,2023-10-23,東京ＴＫ合同会社,,合同会社,東京都,板橋区,東坂下２丁目１７番１１－１０５号エンゼルハイム板橋,,13,119,1740042,,,2023-10-23,清算の結了等,,,2020-10-14,1,,,,,トウキョウティケー,0
1996,8011603003686,登記記録の閉鎖等,0,2023-10-24,2023-10-20,エナ合同会社,,合同会社,東京都,練馬区,田柄３丁目１７番２０号,,13,120,1790073,,,2023-10-20,清算の結了等,,,2022-08-23,1,,,,,エナ,0
2001,8012301005553,登記記録の閉鎖等,0,2023-10-24,2023-10-19,株式会社エン,,株式会社,東京都,町田市,木曽東４丁目２７番１０号,,13,209,1940036,,,2023-10-19,清算の結了等,,,2015-10-05,1,,,,,エン,0
2021,8020002028344,登記記録の閉鎖等,0,2023-10-24,2023-10-12,有限会社丸一工業,,有限会社,神奈川県,横浜市神奈川区,子安通２丁目２０９番地,,14,102,2210021,,,2023-10-12,清算の結了等,,,2015-10-05,1,,,,,マルイチコウギョウ,0
2056,8050002001166,登記記録の閉鎖等,0,2023-10-24,2023-10-17,有限会社クリエ,,有限会社,茨城県,水戸市,元吉田町１４３６番地の３,,08,201,3100836,,,2023-10-17,清算の結了等,,,2015-10-05,1,,,,,クリエ,0
2057,8050002016528,登記記録の閉鎖等,0,2023-10-24,2023-10-16,有限会社ターテック,,有限会社,茨城県,石岡市,谷向町１５番１８号,,08,205,3150003,,,2023-10-16,清算の結了等,,,2015-10-05,1,,,,,ターテック,0
2077,8100002016159,登記記録の閉鎖等,0,2023-10-24,2023-10-10,株式会社花梨,,株式会社,長野県,小県郡長和町,古町２４２４番地１７,,20,350,3860603,,,2023-10-10,清算の結了等,,,2015-10-05,1,,,,,カリン,0
2105,8130001072547,登記記録の閉鎖等,0,2023-10-24,2023-10-06,株式会社ＦＴＮ,,株式会社,京都府,京都市中京区,西ノ京笠殿町２３番地,,26,104,6048482,,,2023-10-06,清算の結了等,,,2022-09-02,1,,,,,エフティーエヌ,0
2106,8130002029868,登記記録の閉鎖等,0,2023-10-24,2023-10-10,有限会社ツカサコーポレーション,,有限会社,京都府,木津川市,山城町椿井中垣内１１,,26,214,6190205,,,2023-10-10,清算の結了等,,,2015-10-05,1,,,,,ツカサコーポレーション,0
2129,8180001135753,登記記録の閉鎖等,0,2023-10-24,2023-10-20,株式会社アセアン中部,,株式会社,愛知県,名古屋市中区,栄５丁目２６番３９号ＧＳ栄ビル８０５号室,,23,106,4600008,,,2023-10-20,合併による解散等,9010501043686,令和５年１０月１日東京都台東区台東三丁目１５番３号ＭＡＲＫＳＱＵＡＲＥ御徒町７階株式会社アセアン（9010501043686）に合併し解散,2019-03-13,1,,,,,アセアンチュウブ,0
2138,8180305007376,登記記録の閉鎖等,0,2023-10-24,2023-10-11,企業組合人材サポート東海,,その他の設立登記法人,愛知県,西尾市,住崎３丁目１００,,23,213,4450879,,,2023-10-11,清算の結了等,,,2015-10-05,1,,,,,ジンザイサポートトウカイ,0
2141,8190002013602,登記記録の閉鎖等,0,2023-10-24,2023-10-06,有限会社中井鉄筋,,有限会社,三重県,多気郡明和町,大字佐田２５３３番地,,24,442,5150331,,,2023-10-06,清算の結了等,,,2015-10-05,1,,,,,ナカイテッキン,0
2157,8280002004831,登記記録の閉鎖等,0,2023-10-24,2023-10-23,有限会社原田エム・エフ・ジー,,有限会社,島根県,安来市,黒井田町１８３８番地１,,32,206,6920023,,,2023-10-23,清算の結了等,,,2015-10-05,1,,,,,ハラダエムエフジー,0
2167,8290002037814,登記記録の閉鎖等,0,2023-10-24,2023-10-06,有限会社西村建具,,有限会社,福岡県,糟屋郡篠栗町,大字若杉３７６番地９３,,40,342,8112411,,,2023-10-06,清算の結了等,,,2015-10-05,1,,,,,ニシムラタテグ,0
2173,8290801010863,登記記録の閉鎖等,0,2023-10-24,2023-10-20,株式会社山水,,株式会社,福岡県,直方市,大字頓野３７５番地１,,40,204,8220002,,,2023-10-20,清算の結了等,,,2015-10-05,1,,,,,サンスイ,0
2185,8370002001217,登記記録の閉鎖等,0,2023-10-24,2023-10-18,有限会社高久自動車商会,,有限会社,宮城県,仙台市泉区,天神沢１丁目２番１０号,,04,105,9813105,,,2023-10-18,清算の結了等,,,2015-10-05,1,,,,,タカキュウジドウシャショウカイ,0
2187,8370801001210,登記記録の閉鎖等,0,2023-10-24,2023-10-23,株式会社ＡＩソリューション,,株式会社,宮城県,岩沼市,三色吉字平等２０番地の５５,,04,211,9892464,,,2023-10-23,清算の結了等,,,2015-10-05,1,,,,,エーアイソリューション,0
2198,8430002022355,登記記録の閉鎖等,0,2023-10-24,2023-10-16,有限会社ロックフォール,,有限会社,北海道,札幌市北区,北二十三条西６丁目２番１－８０３号,,01,102,0010023,,,2023-10-16,清算の結了等,,,2015-10-05,1,,,,,ロックフォール,0
2207,8490002000826,登記記録の閉鎖等,0,2023-10-24,2023-10-20,有限会社岡林燃料店,,有限会社,高知県,高知市,愛宕町２丁目１９番５号,,39,201,7800051,,,2023-10-20,清算の結了等,,,2015-10-05,1,,,,,オカバヤシネンリョウテン,0
2209,8490002005271,登記記録の閉鎖等,0,2023-10-24,2023-10-16,矢倉寿し有限会社,,有限会社,高知県,高知市,北本町４丁目３８番１号,,39,201,7800056,,,2023-10-16,清算の結了等,,,2015-10-05,1,,,,,ヤグラスシ,0
2210,8490005006762,登記記録の閉鎖等,0,2023-10-24,2023-10-20,一般社団法人龍馬フロッグス,,その他の設立登記法人,高知県,高知市,永国寺町１－８近森ビル１階,,39,201,7800844,,,2023-10-20,清算の結了等,,,2021-04-02,1,,,,,リョウマフロッグス,0
2236,9010401002817,登記記録の閉鎖等,0,2023-10-24,2023-10-12,株式会社インターテツク,,株式会社,東京都,港区,虎ノ門３丁目１８番６号朝日虎ノ門マンション,,13,103,1050001,,,2023-10-12,清算の結了等,,,2015-10-05,1,,,,,インターテツク,0
2243,9010401122623,登記記録の閉鎖等,0,2023-10-24,2023-10-12,シミック・シフトゼロ株式会社,,株式会社,東京都,港区,芝浦１丁目１番１号,,13,103,1050023,,,2023-10-12,合併による解散等,3010701026059,令和５年１０月１日東京都港区芝浦一丁目１番１号シミック株式会社（3010701026059）に合併し解散,2016-01-22,1,,,,,シミックシフトゼロ,0
2245,9010401129486,登記記録の閉鎖等,0,2023-10-24,2023-10-19,株式会社アルファハウジング,,株式会社,東京都,調布市,菊野台１丁目２７番１－２０４号,,13,208,1820007,,,2023-10-19,清算の結了等,,,2017-02-03,1,,,,,アルファハウジング,0
2273,9011001122492,登記記録の閉鎖等,0,2023-10-24,2023-10-12,株式会社エデュラ,,株式会社,東京都,港区,西新橋３丁目４番２号,,13,103,1050003,,,2023-10-12,合併による解散等,4030001103126,令和５年１０月１日東京都港区西新橋三丁目４番２号株式会社エデュリー（4030001103126）に合併し解散,2018-06-22,1,,,,,エデュラ,0
2281,9011201004111,登記記録の閉鎖等,0,2023-10-24,2023-10-23,株式会社ジョー・ジョー・グループ,,株式会社,東京都,中野区,鷺宮１丁目１番７号,,13,114,1650032,,,2023-10-23,清算の結了等,,,2015-10-05,1,,,,,ジョージョーグループ,0
2282,9011201009639,登記記録の閉鎖等,0,2023-10-24,2023-10-23,株式会社耀華商会,,株式会社,東京都,中野区,本町３丁目３３番９－２０１号,,13,114,1640012,,,2023-10-23,清算の結了等,,,2015-10-05,1,,,,,ヨウカショウカイ,0
2312,9020003022816,登記記録の閉鎖等,0,2023-10-24,2023-10-11,風林火山合同会社,,合同会社,神奈川県,横浜市鶴見区,下末吉５丁目２３番１０号,,14,101,2300012,,,2023-10-11,清算の結了等,,,2022-11-30,1,,,,,フウリンカザン,0
2313,9020003024102,登記記録の閉鎖等,0,2023-10-24,2023-10-11,グローバルプラチナ合同会社,,合同会社,神奈川県,横浜市中区,本牧元町２４番１号,,14,104,2310822,,,2023-10-11,清算の結了等,,,2023-06-23,1,,,,,グローバルプラチナ,0
2326,9030001008584,登記記録の閉鎖等,0,2023-10-24,2023-10-10,株式会社オフィスネットサービス,,株式会社,埼玉県,さいたま市見沼区,大字中川１１３番１０,,11,104,3370043,,,2023-10-10,合併による解散等,1030001067596,令和５年１０月１日埼玉県さいたま市見沼区大字中川１１３番地１０株式会社ツルーサービス（1030001067596）に合併し解散,2015-10-05,1,,,,,オフィスネットサービス,0
2328,9030001121742,登記記録の閉鎖等,0,2023-10-24,2023-10-10,株式会社プリンツ・オイゲン,,株式会社,埼玉県,さいたま市南区,鹿手袋５丁目１７番１８－３０２号,,11,108,3360031,,,2023-10-10,清算の結了等,,,2017-08-16,1,,,,,プリンツオイゲン,0
2340,9040002009052,登記記録の閉鎖等,0,2023-10-24,2023-10-10,有限会社ネギシ,,有限会社,千葉県,千葉市稲毛区,山王町１０２番地の１７,,12,103,2630002,,,2023-10-10,清算の結了等,,,2015-10-05,1,,,,,ネギシ,0
2365,9080402006026,登記記録の閉鎖等,0,2023-10-24,2023-10-20,有限会社ノジリ建機,,有限会社,静岡県,浜松市東区,有玉台２丁目３２番１４号,,22,132,4313126,,,2023-10-20,清算の結了等,,,2015-10-05,1,,,,,ノジリケンキ,0
2426,9180002028022,登記記録の閉鎖等,0,2023-10-24,2023-10-19,鈴木金属工業有限会社,,有限会社,愛知県,名古屋市中村区,沖田町２９５番地,,23,105,4530825,,,2023-10-19,清算の結了等,,,2015-10-05,1,,,,,スズキキンゾクコウギョウ,0
2440,9220001000332,登記記録の閉鎖等,0,2023-10-24,2023-10-19,酒井重機運輸株式会社,,株式会社,石川県,金沢市,米泉町５丁目３２番地５,,17,201,9218044,,,2023-10-19,清算の結了等,,,2015-10-05,1,,,,,サカイジュウキウンユ,0
2446,9240001054145,登記記録の閉鎖等,0,2023-10-24,2023-10-19,株式会社Ｃｅｒｃｌｅ　Ｄｅ　Ｆａｍｉｌｌｅ,,株式会社,広島県,福山市,宝町７番２４－３０１号,,34,207,7200045,,,2023-10-19,清算の結了等,,,2019-04-05,1,,,,,サークルドゥファミーユ,0
2452,9250002005831,登記記録の閉鎖等,0,2023-10-24,2023-10-19,有限会社メック,,有限会社,山口県,宇部市,亀浦５丁目５番１８号,,35,202,7550002,,,2023-10-19,清算の結了等,,,2015-10-05,1,,,,,メック,0
2459,9260005011132,登記記録の閉鎖等,0,2023-10-24,2023-10-20,一般社団法人大久保会館,,その他の設立登記法人,岡山県,岡山市中区,平井６丁目１５番３４号,,33,102,7038282,,,2023-10-20,清算の結了等,,,2022-09-05,1,,,,,オオクボカイカン,0
2471,9310002011154,登記記録の閉鎖等,0,2023-10-24,2023-10-20,有限会社野元秀建設,,有限会社,長崎県,佐世保市,星和台町１４６０番地の３２６,,42,202,8580924,,,2023-10-20,清算の結了等,,,2015-10-05,1,,,,,ノモトヒデケンセツ,0
2478,9330002001921,登記記録の閉鎖等,0,2023-10-24,2023-10-16,有限会社オフィス秀,,有限会社,熊本県,熊本市北区,黒髪７丁目１５１番地,,43,105,8600862,,,2023-10-16,清算の結了等,,,2015-10-05,1,,,,,オフィスシュウ,0
2502,9460103001147,登記記録の閉鎖等,0,2023-10-24,2023-10-17,ＡＱ合同会社,,合同会社,北海道,帯広市,新町西４丁目３０番地１,,01,207,0800053,,,2023-10-17,清算の結了等,,,2018-06-11,1,,,,,エーキュー,0
