sequenceNumber,corporateNumber,process,correct,updateDate,changeDate,name,nameImageId,kind,prefectureName,cityName,streetNumber,addressImageId,prefectureCode,cityCode,postCode,addressOutside,addressOutsideImageId,closeDate,closeCause,successorCorporateNumber,changeCause,assignmentDate,latest,enName,enPrefectureName,enCityName,enAddressOutside,furigana,hihyoji
3,1010001230651,新規,0,2022-11-17,2022-11-17,宅地開発株式会社,,株式会社,東京都,中央区,銀座１丁目８番１７号,,13,102,1040061,,,,,,,2022-11-17,1,,,,,,0
12,1010005035808,新規,0,2022-11-17,2022-11-17,高田馬場一般社団法人,,その他の設立登記法人,東京都,千代田区,神田小川町３丁目２６番８号神田小川町三丁目ビル６階,,13,101,1010052,,,,,,,2022-11-17,1,,,,,タカダノババ,0
20,1010403028917,新規,0,2022-11-17,2022-11-17,合同会社ｔｈｉｒｄ　ｐｌａｃｅ,,合同会社,東京都,港区,西麻布４丁目５－１０ザ・パークハウス西麻布レジデンス１７０５,,13,103,1060031,,,,,,,2022-11-17,1,,,,,サードプレイス,0
21,1010403028925,新規,0,2022-11-17,2022-11-17,合同会社ＢＰ０１マスター・リース,,合同会社,東京都,港区,元赤坂１丁目１番７号,,13,103,1070051,,,,,,,2022-11-17,1,,,,,ビーピーゼロワンマスターリース,0
22,1010405021597,新規,0,2022-11-17,2022-11-17,一般社団法人ＢＰ０１,,その他の設立登記法人,東京都,港区,元赤坂１丁目１番７号,,13,103,1070051,,,,,,,2022-11-17,1,,,,,ビーピーゼロワン,0
26,1010503006789,新規,0,2022-11-17,2022-11-17,Ｂｅｓｐｏｋｅ　Ｅｎｇｉｎｅｅｒｉｎｇ合同会社,,合同会社,東京都,台東区,谷中２丁目５－１９,,13,106,1100001,,,,,,,2022-11-17,1,,,,,ビスポークエンジニアリング,0
37,1010901051973,新規,0,2022-11-17,2022-11-17,株式会社キューアール,,株式会社,東京都,世田谷区,北沢２丁目１１番１５号ミカン下北Ａ街区５Ｆ,,13,112,1550031,,,,,,,2022-11-17,1,,,,,キューアール,0
38,1010903007791,新規,0,2022-11-17,2022-11-17,合同会社ＮＡＳＡ,,合同会社,東京都,世田谷区,千歳台２丁目１７番６号,,13,112,1570071,,,,,,,2022-11-17,1,,,,,,0
43,1011001150872,新規,0,2022-11-17,2022-11-17,スープレックス株式会社,,株式会社,東京都,渋谷区,道玄坂１丁目１０番８号渋谷道玄坂東急ビル２Ｆ－Ｃ,,13,113,1500043,,,,,,,2022-11-17,1,,,,,スープレックス,0
44,1011001150963,新規,0,2022-11-17,2022-11-17,株式会社ファインド,,株式会社,東京都,渋谷区,代々木２丁目２３番１号ニューステイトメナー８２３,,13,113,1510053,,,,,,,2022-11-17,1,,,,,ファインド,0
45,1011003015710,新規,0,2022-11-17,2022-11-17,合同会社アップステージ,,合同会社,東京都,渋谷区,代々木１丁目４３－１１－４,,13,113,1510053,,,,,,,2022-11-17,1,,,,,アップステージ,0
46,1011003015751,新規,0,2022-11-17,2022-11-17,合同会社スムヨシ,,合同会社,東京都,渋谷区,道玄坂１丁目１０番８号渋谷道玄坂東急ビル２Ｆ－Ｃ,,13,113,1500043,,,,,,,2022-11-17,1,,,,,スムヨシ,0
50,1011303004578,新規,0,2022-11-17,2022-11-17,Ｓｔｕｄｉｏ　Ｄ．Ｘ．合同会社,,合同会社,東京都,杉並区,西荻南３丁目５番１９号,,13,115,1670053,,,,,,,2022-11-17,1,,,,,スタジオディーエックス,0
51,1011401024701,新規,0,2022-11-17,2022-11-17,株式会社海藻ゼロ食品研究所,,株式会社,東京都,板橋区,志村１丁目２６番１８－５０１号,,13,119,1740056,,,,,,,2022-11-17,1,,,,,カイソウゼロショクヒンケンキュウジョ,0
56,1011701025795,新規,0,2022-11-17,2022-11-17,延平株式会社,,株式会社,東京都,江戸川区,松江２丁目１－１３－３０７号室,,13,123,1320025,,,,,,,2022-11-17,1,,,,,エンヘイ,0
57,1011703003304,新規,0,2022-11-17,2022-11-17,合同会社シテルン,,合同会社,東京都,江戸川区,松島２丁目３２番１５号,,13,123,1320031,,,,,,,2022-11-17,1,,,,,シテルン,0
62,1013301049943,新規,0,2022-11-17,2022-11-17,株式会社シルフカンパニー,,株式会社,東京都,豊島区,長崎２丁目１番１３号,,13,116,1710051,,,,,,,2022-11-17,1,,,,,シルフカンパニー,0
63,1013301049951,新規,0,2022-11-17,2022-11-17,株式会社ＶＩＳＯＬ,,株式会社,東京都,豊島区,東池袋１丁目３４番５いちご東池袋ビル６階,,13,116,1700013,,,,,,,2022-11-17,1,,,,,バイソル,0
76,1020001149024,新規,0,2022-11-17,2022-11-17,鵡川商事株式会社,,株式会社,神奈川県,横浜市保土ケ谷区,岩井町１１番地ダイアナプラザ保土ケ谷４０９号室,,14,106,2400023,,,,,,,2022-11-17,1,,,,,ムカワショウジ,0
88,1021003012392,新規,0,2022-11-17,2022-11-17,合同会社八海,,合同会社,神奈川県,南足柄市,塚原１３５９番地１,,14,217,2500117,,,,,,,2022-11-17,1,,,,,ハッカイ,0
94,1030001151094,新規,0,2022-11-17,2022-11-17,株式会社バディエステート,,株式会社,埼玉県,上尾市,日の出３丁目１０番４３－２３号,,11,219,3620032,,,,,,,2022-11-17,1,,,,,バディエステート,0
105,1050001051978,新規,0,2022-11-17,2022-11-17,株式会社ＩｎａＭｅｄ,,株式会社,茨城県,取手市,中央町２番２５号取手ｉセンター３０１号室（Ｂ）,,08,217,3020014,,,,,,,2022-11-17,1,,,,,イナメド,0
117,1120001250300,新規,0,2022-11-17,2022-11-17,株式会社Ｙ２Ｋ,,株式会社,大阪府,大阪市東淀川区,東中島１丁目１７－５ステュディオ新大阪８３６号室,,27,114,5330033,,,,,,,2022-11-17,1,,,,,ワイツーケー,0
120,1120003022879,新規,0,2022-11-17,2022-11-17,合同会社ファーストペンギン,,合同会社,大阪府,大阪市住吉区,墨江４丁目４番１号,,27,120,5580043,,,,,,,2022-11-17,1,,,,,ファーストペンギン,0
121,1120101066539,新規,0,2022-11-17,2022-11-17,徳億利商務株式会社,,株式会社,大阪府,泉佐野市,日根野４０９７番地１,,27,213,5980021,,,,,,,2022-11-17,1,,,,,デイーリービジネス,0
123,1120103004926,新規,0,2022-11-17,2022-11-17,合同会社ＴＭＳ,,合同会社,大阪府,和泉市,弥生町３丁目３番１－６０４号,,27,219,5940061,,,,,,,2022-11-17,1,,,,,ティエムエス,0
125,1120901046764,新規,0,2022-11-17,2022-11-17,株式会社ＫｎｏｗＬｅｓｔ,,株式会社,大阪府,高槻市,氷室町１丁目８番３５号,,27,207,5691141,,,,,,,2022-11-17,1,,,,,ノウレスト,0
126,1120903004373,新規,0,2022-11-17,2022-11-17,合同会社リークオフ製作所,,合同会社,大阪府,豊中市,利倉２丁目１９番７号,,27,203,5610845,,,,,,,2022-11-17,1,,,,,リークオフセイサクショ,0
128,1122001036415,新規,0,2022-11-17,2022-11-17,株式会社愛生建設,,株式会社,大阪府,大東市,泉町２丁目１６番１－６０９号,,27,218,5740024,,,,,,,2022-11-17,1,,,,,マヒロケンセツ,0
130,1130005016622,新規,0,2022-11-17,2022-11-17,特定非営利活動法人兆し,,その他の設立登記法人,京都府,京都市中京区,西ノ京南両町１３１番地,,26,104,6048493,,,,,,,2022-11-17,1,,,,,キザシ,0
137,1140001128123,新規,0,2022-11-17,2022-11-17,株式会社アンジュリーナ,,株式会社,兵庫県,加古川市,志方町西山２３３番地の１,,28,210,6750333,,,,,,,2022-11-17,1,,,,,アンジュリーナ,0
167,1230001019602,新規,0,2022-11-17,2022-11-17,株式会社マウントリッチ,,株式会社,富山県,富山市,二俣２８８番地１,,16,201,9398185,,,,,,,2022-11-17,1,,,,,マウントリッチ,0
173,1250001019848,新規,0,2022-11-17,2022-11-17,株式会社お助けさくら便,,株式会社,山口県,岩国市,麻里布町３丁目４番１７号,,35,208,7400018,,,,,,,2022-11-17,1,,,,,オタスケサクラビン,0
176,1260003004104,新規,0,2022-11-17,2022-11-17,合同会社一期一会,,合同会社,岡山県,倉敷市,新田２７１６番地５,,33,202,7100038,,,,,,,2022-11-17,1,,,,,イチゴイチエ,0
179,1290001099580,新規,0,2022-11-17,2022-11-17,ウラカタプロジェクト株式会社,,株式会社,福岡県,福岡市博多区,博多駅前１丁目１５番２０号ＮＭＦ博多駅前ビル２Ｆ,,40,132,8120011,,,,,,,2022-11-17,1,,,,,ウラカタプロジェクト,0
180,1290001099614,新規,0,2022-11-17,2022-11-17,株式会社リアン,,株式会社,福岡県,久留米市,小頭町３番地１８－６０４号,,40,203,8300045,,,,,,,2022-11-17,1,,,,,リアン,0
181,1290001099622,新規,0,2022-11-17,2022-11-17,株式会社福美,,株式会社,福岡県,福岡市中央区,舞鶴１丁目３－４７アクロス天神Ｖタワー１３０５,,40,133,8100073,,,,,,,2022-11-17,1,,,,,フクヨシ,0
188,1330001030301,新規,0,2022-11-17,2022-11-17,アルファトラック株式会社,,株式会社,熊本県,熊本市中央区,上通町２番１７号,,43,101,8600845,,,,,,,2022-11-17,1,,,,,アルファトラック,0
189,1330001030318,新規,0,2022-11-17,2022-11-17,株式会社くらしイロドリ,,株式会社,熊本県,熊本市北区,楡木３丁目８番６１号,,43,105,8618083,,,,,,,2022-11-17,1,,,,,クラシイロドリ,0
194,1340003003972,新規,0,2022-11-17,2022-11-17,合同会社ｓｍａｓｈｉｎｇ,,合同会社,鹿児島県,鹿児島市,郡元１丁目１３番３号エムディア付属中前３０２,,46,201,8900065,,,,,,,2022-11-17,1,,,,,スマァシィング,0
198,1360001031214,新規,0,2022-11-17,2022-11-17,株式会社雀部建築板金,,株式会社,沖縄県,宜野湾市,嘉数２丁目１番１４号１０２,,47,205,9012226,,,,,,,2022-11-17,1,,,,,ササベケンチクバンキン,0
199,1360003012468,新規,0,2022-11-17,2022-11-17,合同会社Ｊｏｉｎｔ　Ｓａｕｃｅ,,合同会社,沖縄県,中頭郡読谷村,字都屋３６６番地２,,47,324,9040305,,,,,,,2022-11-17,1,,,,,ジョイントソース,0
202,1370001049263,新規,0,2022-11-17,2022-11-17,ＡＳＯＭＡ株式会社,,株式会社,宮城県,仙台市青葉区,本町１丁目５番２８号カーニープレイス仙台駅前通６０３号室,,04,101,9800014,,,,,,,2022-11-17,1,,,,,アソマ,0
209,1430001087868,新規,0,2022-11-17,2022-11-17,啓明ＡＲＴ不動産株式会社,,株式会社,北海道,札幌市中央区,宮の森四条３丁目４番１号,,01,101,0640954,,,,,,,2022-11-17,1,,,,,ケイメイアートフドウサン,0
210,1430003014473,新規,0,2022-11-17,2022-11-17,合同会社ｔ．ｐ．ｃ,,合同会社,北海道,札幌市白石区,菊水三条２丁目１―７―８０１,,01,104,0030803,,,,,,,2022-11-17,1,,,,,テーピーシー,0
211,1460001005744,新規,0,2022-11-17,2022-11-17,株式会社アンティークラフト,,株式会社,北海道,厚岸郡厚岸町,片無去８９７番地２,,01,662,0881137,,,,,,,2022-11-17,1,,,,,アンティークラフト,0
217,1700150112572,新規,0,2022-11-17,2022-11-04,ＥＲＢＸ企画,,その他,大阪府,大阪市平野区,平野上町２丁目５－２３－１０２,,27,126,5470045,,,,,,,2022-11-04,1,,,,,イーアールビーエツクスキカク,0
238,2010001230898,新規,0,2022-11-17,2022-11-17,アモック株式会社,,株式会社,東京都,中央区,新川１丁目６番１２号,,13,102,1040033,,,,,,,2022-11-17,1,,,,,アモック,0
239,2010001230923,新規,0,2022-11-17,2022-11-17,フォーカスバリュエーション株式会社,,株式会社,東京都,中央区,銀座１丁目１２番４号Ｎ＆ＥＢＬＤ．７階,,13,102,1040061,,,,,,,2022-11-17,1,,,,,フォーカスバリュエーション,0
241,2010003039116,新規,0,2022-11-17,2022-11-17,合同会社雷門プロパティ,,合同会社,東京都,中央区,銀座２丁目１０番８号マニエラ銀座ビル４階,,13,102,1040061,,,,,,,2022-11-17,1,,,,,カミナリモンプロパティ,0
243,2010005035798,新規,0,2022-11-17,2022-11-17,一般社団法人イノベートジャパン,,その他の設立登記法人,東京都,中央区,京橋１丁目６番１２号,,13,102,1040031,,,,,,,2022-11-17,1,,,,,イノベートジャパン,0
244,2010005035807,新規,0,2022-11-17,2022-11-17,御岳５特定目的会社,,その他の設立登記法人,東京都,千代田区,丸の内２丁目２番３号丸の内仲通りビル６階,,13,101,1000005,,,,,,,2022-11-17,1,,,,,ミタケファイブ,0
255,2010401170835,新規,0,2022-11-17,2022-11-17,株式会社もりかわ,,株式会社,東京都,港区,高輪４丁目１０番３１号,,13,103,1080074,,,,,,,2022-11-17,1,,,,,モリカワ,0
256,2010401170876,新規,0,2022-11-17,2022-11-17,Ｓｋｉｌｌ　Ｓｏｃｉｅｔｙ株式会社,,株式会社,東京都,港区,赤坂９丁目６番３０号,,13,103,1070052,,,,,,,2022-11-17,1,,,,,スキルソサエティ,0
257,2010401170901,新規,0,2022-11-17,2022-11-17,ＮＫ株式会社,,株式会社,東京都,港区,赤坂６丁目１０番８号ＳＫＩ赤坂ビル５階,,13,103,1070052,,,,,,,2022-11-17,1,,,,,エヌケー,0
264,2010403028924,新規,0,2022-11-17,2022-11-17,合同会社ＢＰ０１,,合同会社,東京都,港区,元赤坂１丁目１番７号,,13,103,1070051,,,,,,,2022-11-17,1,,,,,ビーピーゼロワン,0
265,2010403028932,新規,0,2022-11-17,2022-11-17,合同会社エルインベストメント２,,合同会社,東京都,港区,元赤坂１丁目１番８号株式会社赤坂国際会計内,,13,103,1070051,,,,,,,2022-11-17,1,,,,,エルインベストメントツー,0
268,2010503006788,新規,0,2022-11-17,2022-11-17,合同会社エモルカ,,合同会社,東京都,台東区,蔵前４丁目１８番１８－６０４号プライムメゾン蔵前,,13,106,1110051,,,,,,,2022-11-17,1,,,,,エモルカ,0
272,2010801033435,新規,0,2022-11-17,2022-11-17,株式会社エヌズコア,,株式会社,東京都,大田区,東六郷２丁目１５番３号,,13,111,1440046,,,,,,,2022-11-17,1,,,,,エヌズコア,0
273,2010801033443,新規,0,2022-11-17,2022-11-17,株式会社金山,,株式会社,東京都,大田区,東雪谷１丁目２番１６号ガーデンフラッツ洗足池３０２,,13,111,1450065,,,,,,,2022-11-17,1,,,,,,0
280,2011001150970,新規,0,2022-11-17,2022-11-17,株式会社ＩＭ　Ｐｉｃｔｕｒｅｓ,,株式会社,東京都,渋谷区,神宮前６丁目２３番４号桑野ビル２階,,13,113,1500001,,,,,,,2022-11-17,1,,,,,アイエムピクチャーズ,0
281,2011001151028,新規,0,2022-11-17,2022-11-17,株式会社トータルプラン,,株式会社,東京都,渋谷区,神泉町１０番１５号,,13,113,1500045,,,,,,,2022-11-17,1,,,,,トータルプラン,0
282,2011003015668,新規,0,2022-11-17,2022-11-17,合同会社Ｔ‐ｆｌｙｅｒ,,合同会社,東京都,渋谷区,渋谷２丁目１９－１５宮益坂ビルディング６０９,,13,113,1500002,,,,,,,2022-11-17,1,,,,,ティーフライヤー,0
283,2011003015684,新規,0,2022-11-17,2022-11-17,コンテエイド合同会社,,合同会社,東京都,渋谷区,道玄坂１丁目１０番８号渋谷道玄坂東急ビル２Ｆ－Ｃ,,13,113,1500043,,,,,,,2022-11-17,1,,,,,コンテエイド,0
284,2011003015734,新規,0,2022-11-17,2022-11-17,メタバモス合同会社,,合同会社,東京都,渋谷区,神宮前６丁目２３番４号桑野ビル２階,,13,113,1500001,,,,,,,2022-11-17,1,,,,,メタバモス,0
297,2011401024700,新規,0,2022-11-17,2022-11-17,株式会社大矢工業,,株式会社,東京都,板橋区,板橋２丁目３３番５－２０５号,,13,119,1730004,,,,,,,2022-11-17,1,,,,,オオヤコウギョウ,0
308,2011801041568,新規,0,2022-11-17,2022-11-17,株式会社天音,,株式会社,東京都,足立区,足立４丁目２番１２号,,13,121,1200015,,,,,,,2022-11-17,1,,,,,アマン,0
311,2012703002575,新規,0,2022-11-17,2022-11-17,合同会社オヘア,,合同会社,東京都,西東京市,向台町５丁目１番１２号,,13,229,1880013,,,,,,,2022-11-17,1,,,,,オヘア,0
312,2012801021972,新規,0,2022-11-17,2022-11-17,株式会社高橋工務店,,株式会社,東京都,日野市,大字日野１４９２番地の６,,13,212,1910012,,,,,,,2022-11-17,1,,,,,タカハシコウムテン,0
314,2013301049950,新規,0,2022-11-17,2022-11-17,アドミオン株式会社,,株式会社,東京都,豊島区,要町１丁目１１番１１号,,13,116,1710043,,,,,,,2022-11-17,1,,,,,アドミオン,0
322,2020001149015,新規,0,2022-11-17,2022-11-17,株式会社エコリサイクル,,株式会社,神奈川県,横浜市港北区,大倉山７丁目１番３号,,14,109,2220037,,,,,,,2022-11-17,1,,,,,エコリサイクル,0
323,2020001149023,新規,0,2022-11-17,2022-11-17,株式会社Ｌａｎｄ　Ｄｅｓｉｇｎ,,株式会社,神奈川県,横浜市神奈川区,栄町５番地１横浜クリエーションスクエア１４階,,14,102,2210052,,,,,,,2022-11-17,1,,,,,ランドデザイン,0
327,2020005015725,新規,0,2022-11-17,2022-11-17,一般社団法人ＳＤクッピンＦＣ,,その他の設立登記法人,神奈川県,横浜市鶴見区,下末吉５丁目１３番７－３号,,14,101,2300012,,,,,,,2022-11-17,1,,,,,エスディークッピンエフシー,0
333,2021001077486,新規,0,2022-11-17,2022-11-17,株式会社箱庭ワークス,,株式会社,神奈川県,綾瀬市,落合南１丁目１４番１６号,,14,218,2521115,,,,,,,2022-11-17,1,,,,,ハコニワワークス,0
338,2030001151110,新規,0,2022-11-17,2022-11-17,株式会社オスミックアグリ埼玉,,株式会社,埼玉県,熊谷市,上之３２３２番地,,11,202,3600012,,,,,,,2022-11-17,1,,,,,オスミックアグリサイタマ,0
358,2060001035459,新規,0,2022-11-17,2022-11-17,Ａｌｉ　Ｇｏｈａｒ　Ｔｒａｄｉｎｇ株式会社,,株式会社,栃木県,栃木市,藤岡町藤岡５３１４番地,,09,203,3231104,,,,,,,2022-11-17,1,,,,,アリゴーハルトレーディング,0
360,2070001039839,新規,0,2022-11-17,2022-11-17,株式会社寿興業,,株式会社,群馬県,伊勢崎市,三室町４０２２番地２０,,10,204,3792235,,,,,,,2022-11-17,1,,,,,,0
361,2080001025301,新規,0,2022-11-17,2022-11-17,株式会社関根工務店,,株式会社,静岡県,焼津市,宗高１３５７番地の５ナイスプラザ１０１,,22,212,4210205,,,,,,,2022-11-17,1,,,,,セキネコウムテン,0
362,2080105006296,新規,0,2022-11-17,2022-11-17,特定非営利活動法人Ｃｈｉｌｄ　Ｃａｒｅ　Ｓｕｐｐｏｒｔふじ,,その他の設立登記法人,静岡県,富士市,三ツ沢３１６－４,,22,210,4170855,,,,,,,2022-11-17,1,,,,,チャイルドケアサポートフジ,0
379,2120001250373,新規,0,2022-11-17,2022-11-17,株式会社ＹＳ　Ｐｒｏｐｅｒｔｙ,,株式会社,大阪府,大阪市天王寺区,悲田院町１－３Ｅｌｆｅｒ天王寺３０２,,27,109,5430055,,,,,,,2022-11-17,1,,,,,イースプロパティ,0
381,2120003022878,新規,0,2022-11-17,2022-11-17,合同会社一,,合同会社,大阪府,大阪市平野区,長吉長原３丁目８番２号,,27,126,5470016,,,,,,,2022-11-17,1,,,,,ハジメ,0
382,2120003022886,新規,0,2022-11-17,2022-11-17,合同会社しんわ,,合同会社,大阪府,大阪市此花区,四貫島１丁目８番７号,,27,104,5540014,,,,,,,2022-11-17,1,,,,,シンワ,0
384,2120101066554,新規,0,2022-11-17,2022-11-17,縁ｊｏｙ株式会社,,株式会社,大阪府,堺市南区,新檜尾台３丁３番２－１０９号,,27,145,5900143,,,,,,,2022-11-17,1,,,,,エンジョイ,0
385,2120103004917,新規,0,2022-11-17,2022-11-17,合同会社Ｌｉｆｅ　Ｃａｒｅ,,合同会社,大阪府,岸和田市,上松町４３３‐３,,27,202,5960827,,,,,,,2022-11-17,1,,,,,ライフケア,0
390,2120901046763,新規,0,2022-11-17,2022-11-17,吉祥寿株式会社,,株式会社,大阪府,吹田市,五月が丘北１４番１６－２０７号,,27,205,5650834,,,,,,,2022-11-17,1,,,,,キッショウジュ,0
392,2122001036406,新規,0,2022-11-17,2022-11-17,株式会社程揚国際,,株式会社,大阪府,大東市,深野１丁目２番１９号,,27,218,5740072,,,,,,,2022-11-17,1,,,,,テイヨウコクサイ,0
394,2130001073113,新規,0,2022-11-17,2022-11-17,富士オートサービス株式会社,,株式会社,京都府,京都市東山区,本町２丁目８６番地,,26,105,6050981,,,,,,,2022-11-17,1,,,,,フジオートサービス,0
406,2140003018370,新規,0,2022-11-17,2022-11-17,合同会社ＬＣＳ,,合同会社,兵庫県,姫路市,御立東１丁目２５－１５－２,,28,201,6700072,,,,,,,2022-11-17,1,,,,,エルシーエス,0
407,2150001025954,新規,0,2022-11-17,2022-11-17,株式会社Ｋ‐Ｆｏｒｃｅ,,株式会社,奈良県,香芝市,藤山１丁目１７番８号,,29,210,6390243,,,,,,,2022-11-17,1,,,,,ケイフォース,0
415,2160005011140,新規,0,2022-11-17,2022-11-17,一般社団法人ひより,,その他の設立登記法人,滋賀県,近江八幡市,鷹飼町４５７番地２３,,25,204,5230891,,,,,,,2022-11-17,1,,,,,ヒヨリ,0
435,2190003004143,新規,0,2022-11-17,2022-11-17,大真合同会社,,合同会社,三重県,三重郡菰野町,大字大強原３４９０番地２,,24,341,5101222,,,,,,,2022-11-17,1,,,,,ダイシン,0
441,2200001040683,新規,0,2022-11-17,2022-11-17,ＬＰＦ株式会社,,株式会社,岐阜県,岐阜市,江添２丁目９番１５号,,21,201,5008383,,,,,,,2022-11-17,1,,,,,エルピーエフ,0
443,2230001019601,新規,0,2022-11-17,2022-11-17,島田工業株式会社,,株式会社,富山県,滑川市,下島１１８番地３,,16,206,9360065,,,,,,,2022-11-17,1,,,,,シマダコウギョウ,0
449,2250001019847,新規,0,2022-11-17,2022-11-17,株式会社フューネラルＫ,,株式会社,山口県,下関市,一の宮学園町１１番６号,,35,201,7510807,,,,,,,2022-11-17,1,,,,,フューネラルケイ,0
456,2290001099605,新規,0,2022-11-17,2022-11-17,株式会社エイエムシー,,株式会社,福岡県,福岡市博多区,博多駅前２丁目１－１,,40,132,8120011,,,,,,,2022-11-17,1,,,,,エイエムシー,0
457,2290001099621,新規,0,2022-11-17,2022-11-17,クローバーチップ株式会社,,株式会社,福岡県,福岡市城南区,長尾１丁目４番１８号,,40,136,8140123,,,,,,,2022-11-17,1,,,,,クローバーチップ,0
461,2320001019427,新規,0,2022-11-17,2022-11-17,株式会社エンテラス,,株式会社,大分県,由布市,挾間町挾間６２０番地１リングファイブ１０５号室,,44,213,8795506,,,,,,,2022-11-17,1,,,,,エンテラス,0
462,2330001030317,新規,0,2022-11-17,2022-11-17,株式会社ａｌｌｙｍａｒｒｙ＆Ｃｏ．,,株式会社,熊本県,熊本市南区,田井島２丁目９番８号,,43,104,8620965,,,,,,,2022-11-17,1,,,,,アーリーマーリーアンドコー,0
469,2360001031213,新規,0,2022-11-17,2022-11-17,ＢＳＢ株式会社,,株式会社,沖縄県,宮古島市,平良字西里５９番地１,,47,214,9060012,,,,,,,2022-11-17,1,,,,,ビーエスビー,0
485,2430001017353,新規,0,2022-11-17,2022-11-17,株式会社やまさわ澤出組,,株式会社,北海道,札幌市東区,北二十二条東６丁目１番２２号,,01,103,0650022,,,,,,,2022-11-17,1,,,,,,0
489,2430001087867,新規,0,2022-11-17,2022-11-17,株式会社ＣＯ‐ＤＯ,,株式会社,北海道,札幌市北区,北六条西６丁目２番地２４,,01,102,0600806,,,,,,,2022-11-17,1,,,,,コドゥ,0
492,2470001019338,新規,0,2022-11-17,2022-11-17,ジーシーシー株式会社,,株式会社,香川県,坂出市,府中町５７９２番地１,,37,203,7620024,,,,,,,2022-11-17,1,,,,,ジーシーシー,0
498,2700150112539,新規,0,2022-11-17,2022-11-02,雪ニセコ　管理組合,,その他,北海道,虻田郡倶知安町,字山田９１－１７,,01,400,0440081,,,,,,,2022-11-02,1,,,,,セツニセコカンリクミアイ,0
508,3010001230889,新規,0,2022-11-17,2022-11-17,株式会社アレグラーレ,,株式会社,東京都,千代田区,神田須田町２丁目２３番１２号ＯＬＩＯ神田９０２,,13,101,1010041,,,,,,,2022-11-17,1,,,,,アレグラーレ,0
509,3010001230897,新規,0,2022-11-17,2022-11-17,ＡＤＢＥＮＴＯＢＯＹ株式会社,,株式会社,東京都,文京区,西片１丁目１５－１９－３１０,,13,105,1130024,,,,,,,2022-11-17,1,,,,,アドベントボーイ,0
511,3010003039098,新規,0,2022-11-17,2022-11-17,合同会社天岩戸,,合同会社,東京都,中央区,銀座１丁目２２番１１号銀座大竹ビジデンス２階,,13,102,1040061,,,,,,,2022-11-17,1,,,,,アマノイワト,0
512,3010003039115,新規,0,2022-11-17,2022-11-17,合同会社花川戸プロパティ,,合同会社,東京都,中央区,銀座２丁目１０番８号マニエラ銀座ビル４階,,13,102,1040061,,,,,,,2022-11-17,1,,,,,ハナカワドプロパティ,0
516,3010401170867,新規,0,2022-11-17,2022-11-17,株式会社リプラグ,,株式会社,東京都,港区,浜松町１丁目２番１４号,,13,103,1050013,,,,,,,2022-11-17,1,,,,,リプラグ,0
518,3010403028915,新規,0,2022-11-17,2022-11-17,マークモニター・ジャパン合同会社,,合同会社,東京都,港区,赤坂５丁目２番２０号赤坂パークビル１８階,,13,103,1070052,,,,,,,2022-11-17,1,,,,,マークモニタージャパン,0
533,3010901051988,新規,0,2022-11-17,2022-11-17,ｂｅＭＥ株式会社,,株式会社,東京都,世田谷区,松原３丁目５番１２号,,13,112,1560043,,,,,,,2022-11-17,1,,,,,ビーミー,0
539,3011001150870,新規,0,2022-11-17,2022-11-17,ワイユーケー株式会社,,株式会社,東京都,渋谷区,渋谷２丁目１９番１５号宮益坂ビルディング６０９,,13,113,1500002,,,,,,,2022-11-17,1,,,,,ワイユーケー,0
544,3011003015700,新規,0,2022-11-17,2022-11-17,シェアミィ合同会社,,合同会社,東京都,目黒区,下目黒５丁目２１番１－３１６号,,13,110,1530064,,,,,,,2022-11-17,1,,,,,シェアミィ,0
545,3011003015717,新規,0,2022-11-17,2022-11-17,合同会社トリプルワン,,合同会社,東京都,渋谷区,道玄坂１丁目１０番８号渋谷道玄坂東急ビル２Ｆ－Ｃ,,13,113,1500043,,,,,,,2022-11-17,1,,,,,トリプルワン,0
546,3011003015741,新規,0,2022-11-17,2022-11-17,合同会社医武,,合同会社,東京都,渋谷区,代々木２丁目３６－１ウインベル代々木二丁目１０１号,,13,113,1510053,,,,,,,2022-11-17,1,,,,,イブ,0
564,3012301013214,新規,0,2022-11-17,2022-11-17,株式会社８８,,株式会社,東京都,町田市,原町田３丁目８番１２号網倉ビル３階,,13,209,1940013,,,,,,,2022-11-17,1,,,,,ハチハチ,0
566,3012801021971,新規,0,2022-11-17,2022-11-17,株式会社嫩企画,,株式会社,東京都,立川市,高松町３丁目１４番１１号９階,,13,202,1900011,,,,,,,2022-11-17,1,,,,,フタバキカク,0
567,3013101009055,新規,0,2022-11-17,2022-11-17,株式会社カルロス,,株式会社,東京都,あきる野市,乙津２５９３番地２,,13,228,1900174,,,,,,,2022-11-17,1,,,,,カルロス,0
601,3021005012661,新規,0,2022-11-17,2022-11-17,エホバの証人の神奈川県相模原市新磯野会衆,,その他の設立登記法人,神奈川県,相模原市南区,相武台３丁目１７番１８号,,14,153,2520324,,,,,,,2022-11-17,1,,,,,エホバノショウニンノカナガワケンサガミハラシアライソノカイシュウ,0
605,3030001151118,新規,0,2022-11-17,2022-11-17,株式会社一建プロパティ,,株式会社,埼玉県,東松山市,元宿２丁目４番地１７,,11,212,3550063,,,,,,,2022-11-17,1,,,,,イチケンプロパティ,0
620,3040001125888,新規,0,2022-11-17,2022-11-17,株式会社Ｋ２,,株式会社,千葉県,千葉市中央区,生実町９４４番地１ＩＴＯビル１０５号室,,12,101,2600813,,,,,,,2022-11-17,1,,,,,ケーツー,0
628,3050001051976,新規,0,2022-11-17,2022-11-17,株式会社藏良,,株式会社,茨城県,水戸市,堀町５９２番地,,08,201,3100903,,,,,,,2022-11-17,1,,,,,クラヨシ,0
629,3050001051992,新規,0,2022-11-17,2022-11-17,株式会社ＩＴＣ　ＪＡＰＡＮ,,株式会社,茨城県,東茨城郡茨城町,大字長岡７５８番地２Ｆ,,08,302,3113116,,,,,,,2022-11-17,1,,,,,アイテイシージャパン,0
630,3050003007019,新規,0,2022-11-17,2022-11-17,合同会社進真,,合同会社,茨城県,つくば市,梅園２丁目２４番地８ファミール梅園Ｄ棟１０１号,,08,220,3050045,,,,,,,2022-11-17,1,,,,,シンマ,0
636,3080001025300,新規,0,2022-11-17,2022-11-17,株式会社堀建築設計事務所,,株式会社,静岡県,藤枝市,末広２丁目１０番地の２,,22,214,4260065,,,,,,,2022-11-17,1,,,,,ホリケンチクセッケイジムショ,0
642,3090001017858,新規,0,2022-11-17,2022-11-17,株式会社山梨義肢・装具製作所,,株式会社,山梨県,甲斐市,西八幡４４８３番地３,,19,210,4000117,,,,,,,2022-11-17,1,,,,,ヤマナシギシソウグセイサクジョ,0
652,3120001250372,新規,0,2022-11-17,2022-11-17,株式会社ＫＲＳ,,株式会社,大阪府,守口市,南寺方北通１丁目６番６号,,27,209,5700046,,,,,,,2022-11-17,1,,,,,ケイアールエス,0
653,3120001250397,新規,0,2022-11-17,2022-11-17,株式会社エステティックミロ,,株式会社,大阪府,大阪市中央区,北久宝寺町２丁目６番８号２Ｆ,,27,128,5410057,,,,,,,2022-11-17,1,,,,,エステティックミロ,0
654,3120001250406,新規,0,2022-11-17,2022-11-17,株式会社ＲＯＯＺ,,株式会社,大阪府,大阪市西区,西本町１丁目２番１号ＡＸＩＳビル１０階,,27,106,5500005,,,,,,,2022-11-17,1,,,,,ルーツ,0
655,3120001250430,新規,0,2022-11-17,2022-11-17,株式会社Ｋスタジオ,,株式会社,大阪府,大阪市中央区,安土町３丁目２番９号,,27,128,5410052,,,,,,,2022-11-17,1,,,,,ケースタジオ,0
668,3130001073112,新規,0,2022-11-17,2022-11-17,株式会社プリュネ,,株式会社,京都府,京都市上京区,御前通今出川上る三丁目神明町６１２番地,,26,102,6020000,,,,,,,2022-11-17,1,,,,,プリュネ,0
677,3150001025961,新規,0,2022-11-17,2022-11-17,ａｎｄ　ｄｅｓｉｇｎ株式会社,,株式会社,奈良県,奈良市,八条４丁目６３８番地１Ｍｏｋｕｌａｂ,,29,201,6308145,,,,,,,2022-11-17,1,,,,,アンドデザイン,0
688,3200001040682,新規,0,2022-11-17,2022-11-17,株式会社Ｙ’ｓ　Ｓｅｒｖｉｃｅ,,株式会社,岐阜県,中津川市,中津川２３６４番地の２９３１,,21,206,5080001,,,,,,,2022-11-17,1,,,,,ワイズサービス,0
690,3230003001928,新規,0,2022-11-17,2022-11-17,合同会社リクレオ,,合同会社,富山県,富山市,牛島町２３番１５－８０１号レーベン富山ＶＡＬＥＳＴＴＯＷＥＲ,,16,201,9300858,,,,,,,2022-11-17,1,,,,,リクレオ,0
692,3240001060669,新規,0,2022-11-17,2022-11-17,株式会社ａｎｄ　ｎｅｘｔ,,株式会社,広島県,広島市佐伯区,城山２丁目２番２号,,34,108,7315155,,,,,,,2022-11-17,1,,,,,アンドネクスト,0
710,3320001019426,新規,0,2022-11-17,2022-11-17,株式会社モータースポーツオカダ,,株式会社,大分県,速見郡日出町,大字川崎１９８３番地７,,44,341,8791505,,,,,,,2022-11-17,1,,,,,モータースポーツオカダ,0
727,3430001087874,新規,0,2022-11-17,2022-11-17,Ｈ．Ｄ．Ｈ株式会社,,株式会社,北海道,札幌市白石区,本通３丁目北２番３号クレステージ本通２０１,,01,104,0030027,,,,,,,2022-11-17,1,,,,,エイチディーエイチ,0
731,3480003001894,新規,0,2022-11-17,2022-11-17,吉財合同会社,,合同会社,徳島県,美馬市,脇町大字猪尻字建神社下南１１５番地,,36,207,7793602,,,,,,,2022-11-17,1,,,,,,0
734,3700150108908,新規,0,2022-11-17,2022-05-20,天王寺区理学療法士会,,その他,大阪府,大阪市天王寺区,清水谷町５－２７（みずほ倶楽部内）,,27,109,5430011,,,,,,,2022-05-20,1,,,,,テンノウジクリガクリヨウホウシカイ,0
749,4010001230896,新規,0,2022-11-17,2022-11-17,ＭＡＧＮＩＸ　ＧＬＯＢＡＬ　ＴＲＡＤＩＮＧ株式会社,,株式会社,東京都,中央区,日本橋茅場町１丁目９番２号第一稲村ビル７階,,13,102,1030025,,,,,,,2022-11-17,1,,,,,マグニクスグローバルトレーディング,0
753,4010101015421,新規,0,2022-11-17,2022-11-17,株式会社ＲＤＸ,,株式会社,東京都,八王子市,元横山町２丁目１－８モリス八王子駅前通り４０３室,,13,201,1920063,,,,,,,2022-11-17,1,,,,,アールディーエックス,0
759,4010401170908,新規,0,2022-11-17,2022-11-17,株式会社サマリーエンターテインメント,,株式会社,東京都,港区,新橋５丁目１２番７号,,13,103,1050004,,,,,,,2022-11-17,1,,,,,サマリーエンターテインメント,0
760,4010403028939,新規,0,2022-11-17,2022-11-17,リゾリュートジャパン合同会社,,合同会社,東京都,港区,浜松町２丁目２番１５号浜松町ダイヤビル２Ｆ,,13,103,1050013,,,,,,,2022-11-17,1,,,,,リゾリュートジャパン,0
762,4010501049639,新規,0,2022-11-17,2022-11-17,株式会社ＫＡＮＩ,,株式会社,東京都,台東区,小島１丁目１番１－７０１号,,13,106,1110056,,,,,,,2022-11-17,1,,,,,カニ,0
770,4010603009846,新規,0,2022-11-17,2022-11-17,ＧＲＡＶＩＴＹ合同会社,,合同会社,東京都,江東区,住吉１丁目１６－３オーベル住吉マスターテラス７０６,,13,108,1350002,,,,,,,2022-11-17,1,,,,,グラビティ,0
782,4011001150911,新規,0,2022-11-17,2022-11-17,株式会社Ｃｈａｎｓｅｙ,,株式会社,東京都,渋谷区,道玄坂１丁目１０番８号渋谷道玄坂東急ビル２Ｆ－Ｃ,,13,113,1500043,,,,,,,2022-11-17,1,,,,,チャンシー,0
783,4011001150928,新規,0,2022-11-17,2022-11-17,株式会社ＴＨＥ　ＢＥＧＩＮＮＩＮＧ,,株式会社,東京都,渋谷区,神宮前６丁目２３番４号桑野ビル２階,,13,113,1500001,,,,,,,2022-11-17,1,,,,,ザビギニング,0
784,4011001150960,新規,0,2022-11-17,2022-11-17,１８Ｓａｌｉｓｂｕｒｙ　Ｃａｐｉｔａｌ　Ｊａｐａｎ株式会社,,株式会社,東京都,目黒区,碑文谷５丁目１７－５,,13,110,1520003,,,,,,,2022-11-17,1,,,,,エイティーンソウルスベリーキャピタルジャパン,0
785,4011003015708,新規,0,2022-11-17,2022-11-17,合同会社ＣＬＡＩＲＥ,,合同会社,東京都,渋谷区,道玄坂１丁目１０番８号渋谷道玄坂東急ビル２Ｆ－Ｃ,,13,113,1500043,,,,,,,2022-11-17,1,,,,,クレア,0
793,4011503005357,新規,0,2022-11-17,2022-11-17,合同会社ＮＣコミュニケーション,,合同会社,東京都,北区,中十条３丁目７－５,,13,117,1140032,,,,,,,2022-11-17,1,,,,,エヌシーコミュニケーション,0
797,4011701025768,新規,0,2022-11-17,2022-11-17,株式会社ＢＢ,,株式会社,東京都,江戸川区,本一色３丁目１８－９,,13,123,1330044,,,,,,,2022-11-17,1,,,,,ビービー,0
799,4011803005338,新規,0,2022-11-17,2022-11-17,エースト合同会社,,合同会社,東京都,葛飾区,柴又３丁目５番１４号,,13,122,1250052,,,,,,,2022-11-17,1,,,,,エースト,0
800,4011803005387,新規,0,2022-11-17,2022-11-17,ＩＭＡ・Ｉｎｖｅｓｔ合同会社,,合同会社,東京都,葛飾区,青戸７丁目３０番１号クレストフォルム青砥グランデッツァ５０５号室,,13,122,1250062,,,,,,,2022-11-17,1,,,,,アイエムエーインベスト,0
803,4012401039876,新規,0,2022-11-17,2022-11-17,ＫＹＯＵＤＡＩ　ＬＡＮＫＡ株式会社,,株式会社,東京都,調布市,仙川町１丁目１２番地４３安藤ビル３階,,13,208,1820002,,,,,,,2022-11-17,1,,,,,キョウダイランカ,0
816,4020001149021,新規,0,2022-11-17,2022-11-17,ブルースカイ株式会社,,株式会社,神奈川県,川崎市多摩区,三田１丁目１６番４－３０７号,,14,135,2140034,,,,,,,2022-11-17,1,,,,,ブルースカイ,0
829,4021003012398,新規,0,2022-11-17,2022-11-17,合同会社ヒノモト,,合同会社,神奈川県,相模原市中央区,横山２丁目９番４号,,14,152,2520242,,,,,,,2022-11-17,1,,,,,ヒノモト,0
835,4030001151117,新規,0,2022-11-17,2022-11-17,株式会社ワイケイ船舶鑑定,,株式会社,埼玉県,越谷市,大字平方２１４３番地１１,,11,222,3430002,,,,,,,2022-11-17,1,,,,,ワイケイセンパクカンテイ,0
842,4030003020591,新規,0,2022-11-17,2022-11-17,ＡＲＡＩインベストメント合同会社,,合同会社,埼玉県,坂戸市,日の出町５番２４－１００８号,,11,239,3500225,,,,,,,2022-11-17,1,,,,,アライインベストメント,0
843,4030003020600,新規,0,2022-11-17,2022-11-17,＿合同会社,00128514,合同会社,埼玉県,戸田市,下前２丁目１１番４－６０１号,,11,224,3350016,,,,,,,2022-11-17,1,,,,,キン,0
859,4050001051950,新規,0,2022-11-17,2022-11-17,Ｗａｓ株式会社,,株式会社,茨城県,つくば市,筑穂２丁目７番地６,,08,220,3003257,,,,,,,2022-11-17,1,,,,,ワズ,0
860,4050001051959,新規,0,2022-11-17,2022-11-17,イーコネクト株式会社,,株式会社,茨城県,水戸市,城南２丁目１２番５号,,08,201,3100803,,,,,,,2022-11-17,1,,,,,イーコネクト,0
867,4060003004311,新規,0,2022-11-17,2022-11-17,アシストＣｏｒｐｏｒａｔｉｏｎ合同会社,,合同会社,栃木県,宇都宮市,上野町６０６８－２県営うえの住宅１２号棟３３号室,,09,201,3210981,,,,,,,2022-11-17,1,,,,,アシストコーポレーション,0
868,4070003004715,新規,0,2022-11-17,2022-11-17,合同会社フォール,,合同会社,群馬県,桐生市,宮本町４丁目６番１１号,,10,203,3760056,,,,,,,2022-11-17,1,,,,,フォール,0
885,4120001250396,新規,0,2022-11-17,2022-11-17,Ｋ．Ｓ株式会社,,株式会社,大阪府,大阪市東淀川区,東中島５丁目１番３９号,,27,114,5330033,,,,,,,2022-11-17,1,,,,,ケーズ,0
894,4120101066544,新規,0,2022-11-17,2022-11-17,株式会社ＴＧ,,株式会社,大阪府,堺市堺区,車之町東１丁目２番２８号,,27,141,5900943,,,,,,,2022-11-17,1,,,,,ティージー,0
895,4120101066552,新規,0,2022-11-17,2022-11-17,株式会社アイ負荷試験,,株式会社,大阪府,堺市中区,八田西町２丁２１番１０号,,27,142,5998265,,,,,,,2022-11-17,1,,,,,アイフカシケン,0
898,4122001036412,新規,0,2022-11-17,2022-11-17,メディアポップアート株式会社,,株式会社,大阪府,八尾市,清水町２丁目１番２３号,,27,212,5810006,,,,,,,2022-11-17,1,,,,,メディアポップアート,0
901,4130001073103,新規,0,2022-11-17,2022-11-17,Ｂｉｇ　Ｂａｃｋｅｒ株式会社,,株式会社,京都府,京都市下京区,七条通油小路東入大黒町２２７番地第２キョートビル４０２,,26,106,6008223,,,,,,,2022-11-17,1,,,,,ビックバッカー,0
911,4140001128120,新規,0,2022-11-17,2022-11-17,株式会社あのこのコト,,株式会社,兵庫県,芦屋市,若葉町５番２－７４４号,,28,206,6590041,,,,,,,2022-11-17,1,,,,,アノコノコト,0
920,4180301036837,新規,0,2022-11-17,2022-11-17,株式会社石黒ビル,,株式会社,愛知県,豊川市,豊川元町１番地,,23,207,4420035,,,,,,,2022-11-17,1,,,,,イシグロビル,0
922,4190001029941,新規,0,2022-11-17,2022-11-17,株式会社ｔｏｉｒｏ,,株式会社,三重県,伊勢市,小俣町元町１８２２番地１,,24,203,5190503,,,,,,,2022-11-17,1,,,,,トイロ,0
937,4290001034683,新規,0,2022-11-17,2022-11-17,株式会社ＴＰＴ　ＨＡＫＡＴＡ,,株式会社,福岡県,糟屋郡須惠町,大字旅石３７０番地５９,,40,344,8112221,,,,,,,2022-11-17,1,,,,,,0
938,4290001099578,新規,0,2022-11-17,2022-11-17,長琴貿易株式会社,,株式会社,福岡県,福岡市博多区,博多駅前４丁目３３番７号,,40,132,8120011,,,,,,,2022-11-17,1,,,,,チョウキンボウエキ,0
940,4300003001903,新規,0,2022-11-17,2022-11-17,合同会社ｆｕｌｌ　ｂｌｏｏｍ,,合同会社,佐賀県,佐賀市,久保泉町上和泉２３６１－１８,,41,201,8490000,,,,,,,2022-11-17,1,,,,,フルブルーム,0
943,4320001019425,新規,0,2022-11-17,2022-11-17,株式会社フラワープロパティ,,株式会社,大分県,大分市,大字小池原１２１８番地の１５,,44,201,8700147,,,,,,,2022-11-17,1,,,,,フラワープロパティ,0
945,4330001030315,新規,0,2022-11-17,2022-11-17,株式会社ライトクリエイト,,株式会社,熊本県,熊本市西区,春日８丁目１３番７号,,43,103,8600047,,,,,,,2022-11-17,1,,,,,ライトクリエイト,0
951,4370003005897,新規,0,2022-11-17,2022-11-17,合同会社輝都築,,合同会社,宮城県,塩竈市,西玉川町１０番２８号Ａ－１号,,04,203,9850045,,,,,,,2022-11-17,1,,,,,キズキ,0
956,4390003002018,新規,0,2022-11-17,2022-11-17,合同会社Ｏｃｅａｎ　Ｂｌｉｚｚａｒｄ,,合同会社,山形県,酒田市,東大町１丁目１６番地の５,,06,204,9980851,,,,,,,2022-11-17,1,,,,,オーシャンブリザード,0
957,4400001016059,新規,0,2022-11-17,2022-11-17,株式会社Ｄ‐Ｄｅｓｉｇｎ　Ｆａｒｍ,,株式会社,岩手県,陸前高田市,横田町字堂の沢４０番地５,,03,210,0292202,,,,,,,2022-11-17,1,,,,,ディーデザインファーム,0
965,4470001019344,新規,0,2022-11-17,2022-11-17,株式会社山大建装,,株式会社,香川県,木田郡三木町,大字朝倉１６０７番地３,,37,341,7610614,,,,,,,2022-11-17,1,,,,,ヤマダイケンソウ,0
967,4480001011928,新規,0,2022-11-17,2022-11-17,株式会社ＲＭ,,株式会社,徳島県,阿南市,富岡町今福寺４９番地１５,,36,204,7740030,,,,,,,2022-11-17,1,,,,,アールエム,0
979,5010001230912,新規,0,2022-11-17,2022-11-17,株式会社ミラスエイト,,株式会社,東京都,中央区,銀座１丁目２２番１１号銀座大竹ビジデンス２階,,13,102,1040061,,,,,,,2022-11-17,1,,,,,ミラスエイト,0
980,5010001230937,新規,0,2022-11-17,2022-11-17,株式会社与和ｓ,,株式会社,東京都,中央区,八重洲１丁目４－１６東京建物八重洲ビル３階,,13,102,1030028,,,,,,,2022-11-17,1,,,,,ヨワーズ,0
983,5010005035804,新規,0,2022-11-17,2022-11-17,弁理士法人ＩＧＩＰ岩田合同国際知的財産事務所,,その他の設立登記法人,東京都,千代田区,丸の内２丁目４－１丸の内ビルディング１５階,,13,101,1000005,,,,,,,2022-11-17,1,,,,,アイジーアイピーイワタゴウドウコクサイチテキザイサンジムショ,0
994,5010403028913,新規,0,2022-11-17,2022-11-17,合同会社セネカ,,合同会社,東京都,港区,高輪１丁目１８番１４－９０６号,,13,103,1080074,,,,,,,2022-11-17,1,,,,,セネカ,0
996,5010405021544,新規,0,2022-11-17,2022-11-17,一般社団法人改革研究所,,その他の設立登記法人,東京都,港区,虎ノ門１丁目１７番１号虎ノ門ヒルズビジネスタワー１５階,,13,103,1050001,,,,,,,2022-11-17,1,,,,,カイカクケンキュウジョ,0
997,5010501049638,新規,0,2022-11-17,2022-11-17,株式会社ＲＵＮ,,株式会社,東京都,台東区,東上野５丁目８番３号,,13,106,1100015,,,,,,,2022-11-17,1,,,,,ラン,0
1002,5010601062169,新規,0,2022-11-17,2022-11-17,Ｐｒｏｆｅｓｓｉｏｎａｌ　Ｃａｒｅ　Ｉｎｔｅｒｎａｔｉｏｎａｌ株式会社,,株式会社,東京都,江東区,有明３丁目７番２６号有明フロンティアビルＢ棟９階,,13,108,1350063,,,,,,,2022-11-17,1,,,,,プロフェッショナルケアインターナショナル,0
1010,5010803004349,新規,0,2022-11-17,2022-11-17,合同会社ＣＡＭＯＲＥ,,合同会社,東京都,大田区,田園調布２丁目４６－１６,,13,111,1450071,,,,,,,2022-11-17,1,,,,,カモーア,0
1011,5010901051978,新規,0,2022-11-17,2022-11-17,株式会社Ｍａｋｅ　Ｂｅｔｔｅｒ,,株式会社,東京都,世田谷区,下馬１丁目２７番７号コマツナギテラスＧ,,13,112,1540002,,,,,,,2022-11-17,1,,,,,メイクベター,0
1016,5011001150852,新規,0,2022-11-17,2022-11-17,株式会社サンポウヨシサービス,,株式会社,東京都,渋谷区,渋谷２丁目１９－１５宮益坂ビルディング６０９,,13,113,1500002,,,,,,,2022-11-17,1,,,,,サンポウヨシサービス,0
1017,5011001150869,新規,0,2022-11-17,2022-11-17,株式会社ＳＰＯＴ,,株式会社,東京都,渋谷区,鶯谷町７番１号,,13,113,1500032,,,,,,,2022-11-17,1,,,,,スポット,0
1018,5011001150910,新規,0,2022-11-17,2022-11-17,Ｗｅｌｚｅｎ株式会社,,株式会社,東京都,渋谷区,神宮前６丁目２３－４桑野ビル２階,,13,113,1500001,,,,,,,2022-11-17,1,,,,,ウェルゼン,0
1019,5011003015707,新規,0,2022-11-17,2022-11-17,合同会社Ａｍｏｔｉｏｎ,,合同会社,東京都,目黒区,目黒本町５丁目３１－９セレニティ目黒,,13,110,1520002,,,,,,,2022-11-17,1,,,,,アモーション,0
1020,5011003015723,新規,0,2022-11-17,2022-11-17,ＫＶＡメディアグループ合同会社,,合同会社,東京都,渋谷区,神宮前６丁目２３番４号桑野ビル２階,,13,113,1500001,,,,,,,2022-11-17,1,,,,,ケーブイエーメディアグループ,0
1029,5011101100864,新規,0,2022-11-17,2022-11-17,ダイバーズサポート株式会社,,株式会社,東京都,新宿区,高田馬場１丁目３１番地８号６２４号室,,13,104,1690075,,,,,,,2022-11-17,1,,,,,ダイバーズサポート,0
1031,5011203003949,新規,0,2022-11-17,2022-11-17,合同会社ＫＦカンパニー,,合同会社,東京都,中野区,江古田３丁目１４番３－６１１号,,13,114,1650022,,,,,,,2022-11-17,1,,,,,エフケーカンパニー,0
1044,5011803005386,新規,0,2022-11-17,2022-11-17,ＣＲＯＳＳ　ＷＯＲＫＳ　Ｊａｐａｎ合同会社,,合同会社,東京都,足立区,千住桜木２丁目１１―２６,,13,121,1200045,,,,,,,2022-11-17,1,,,,,クロスワークスジャパン,0
1046,5012403005693,新規,0,2022-11-17,2022-11-17,トリプルオン合同会社,,合同会社,東京都,小金井市,梶野町３丁目１番５号,,13,210,1840002,,,,,,,2022-11-17,1,,,,,トリプルオン,0
1049,5013301049964,新規,0,2022-11-17,2022-11-17,ＲＩＯ株式会社,,株式会社,東京都,豊島区,池袋２丁目４２番３号,,13,116,1710014,,,,,,,2022-11-17,1,,,,,リオ,0
1069,5020001149020,新規,0,2022-11-17,2022-11-17,株式会社シティスターズ,,株式会社,神奈川県,横浜市磯子区,森３丁目１６番１１号,,14,107,2350023,,,,,,,2022-11-17,1,,,,,シティスターズ,0
1080,5030001151000,新規,0,2022-11-17,2022-11-17,株式会社Ｏｃｅａｎ　Ｆｉｅｌｄ,,株式会社,埼玉県,新座市,新堀１丁目８－１１－１５,,11,230,3520032,,,,,,,2022-11-17,1,,,,,オーシャンフィールド,0
1081,5030001151124,新規,0,2022-11-17,2022-11-17,株式会社ライトテック,,株式会社,埼玉県,日高市,四本木１丁目６番地１,,11,242,3501248,,,,,,,2022-11-17,1,,,,,ライトテック,0
1082,5030001151132,新規,0,2022-11-17,2022-11-17,ハウスオブクラン株式会社,,株式会社,埼玉県,蓮田市,東６丁目１番５号いさみビル２０２,,11,238,3490111,,,,,,,2022-11-17,1,,,,,ハウスオブクラン,0
1084,5030003020590,新規,0,2022-11-17,2022-11-17,合同会社令和商事,,合同会社,埼玉県,さいたま市浦和区,仲町４丁目２２番１０号,,11,107,3300062,,,,,,,2022-11-17,1,,,,,レイワショウジ,0
1095,5050001051941,新規,0,2022-11-17,2022-11-17,ＨＤＳ株式会社,,株式会社,茨城県,石岡市,谷向町３番３６号,,08,205,3150003,,,,,,,2022-11-17,1,,,,,エイチディーエス,0
1096,5050001051966,新規,0,2022-11-17,2022-11-17,株式会社日本アール・シー,,株式会社,茨城県,つくばみらい市,筒戸１８７３番地３,,08,235,3002435,,,,,,,2022-11-17,1,,,,,ニホンアールシー,0
1097,5050001051990,新規,0,2022-11-17,2022-11-17,株式会社ＹＯＬＯ,,株式会社,茨城県,日立市,日高町５丁目８番４－１０１号,,08,202,3191414,,,,,,,2022-11-17,1,,,,,ヨロ,0
1103,5050003007017,新規,0,2022-11-17,2022-11-17,合同会社Ｔ＆Ｋ建装総合監理,,合同会社,茨城県,小美玉市,栗又四ケ２３８０番地１８,,08,236,3113434,,,,,,,2022-11-17,1,,,,,ティーアンドケーソウゴウカンリ,0
1105,5070003004714,新規,0,2022-11-17,2022-11-17,流花合同会社,,合同会社,群馬県,前橋市,六供町９３１番地,,10,201,3710804,,,,,,,2022-11-17,1,,,,,リュウカ,0
1106,5080101023648,新規,0,2022-11-17,2022-11-17,株式会社沙哉花,,株式会社,静岡県,富士市,伝法７０４番地の６１,,22,210,4170061,,,,,,,2022-11-17,1,,,,,サヤカ,0
1124,5120001250412,新規,0,2022-11-17,2022-11-17,株式会社Ｒｅ　Ｔｈａｎｋｓ,,株式会社,大阪府,寝屋川市,点野１丁目１０番１４号,,27,215,5720077,,,,,,,2022-11-17,1,,,,,リーサンクス,0
1125,5120001250429,新規,0,2022-11-17,2022-11-17,株式会社セールスロード,,株式会社,大阪府,大阪市北区,梅田１丁目１１番４号大阪駅前第４ビル９階９２３－１６４５号,,27,127,5300001,,,,,,,2022-11-17,1,,,,,セールスロード,0
1130,5120005023285,新規,0,2022-11-17,2022-11-17,一般社団法人はちみづなプロジェクト,,その他の設立登記法人,大阪府,枚方市,香里ケ丘３丁目１１番地の３０,,27,210,5730084,,,,,,,2022-11-17,1,,,,,ハチミヅナプロジェクト,0
1131,5120101066551,新規,0,2022-11-17,2022-11-17,株式会社ＨＩＷＩＮ,,株式会社,大阪府,泉南郡田尻町,嘉祥寺５８８,,27,362,5980091,,,,,,,2022-11-17,1,,,,,ハイウィン,0
1136,5130001073085,新規,0,2022-11-17,2022-11-17,時気美巧商貿株式会社,,株式会社,京都府,京都市右京区,嵯峨大覚寺門前六道町２８番地８,,26,108,6168417,,,,,,,2022-11-17,1,,,,,ジキビコウショウボウ,0
1137,5130001073093,新規,0,2022-11-17,2022-11-17,株式会社Ｌａｒｇｏ,,株式会社,京都府,京都市下京区,朱雀宝蔵町４４番地協栄ビル２階京都朱雀スタジオ,,26,106,6008846,,,,,,,2022-11-17,1,,,,,ラルゴ,0
1138,5130001073119,新規,0,2022-11-17,2022-11-17,株式会社Ｍｏｎ　Ｃｈａｔ　Ｂｌａｎｃ,,株式会社,京都府,京都市中京区,河原町通三条下る大黒町３８－１コニーアイランドビル２Ｆ,,26,104,6048031,,,,,,,2022-11-17,1,,,,,モンシャブラン,0
1147,5160001024655,新規,0,2022-11-17,2022-11-17,ＹＧ‐ＴＥＣＨ株式会社,,株式会社,滋賀県,草津市,矢橋町７９６番地７,,25,206,5250066,,,,,,,2022-11-17,1,,,,,ワイジーテック,0
1170,5190005011770,新規,0,2022-11-17,2022-11-17,医療法人しんたに整形外科クリニック,,その他の設立登記法人,三重県,伊勢市,一之木４丁目５番１号,,24,203,5160071,,,,,,,2022-11-17,1,,,,,シンタニセイケイゲカクリニック,0
1177,5250001019852,新規,0,2022-11-17,2022-11-17,株式会社イングリッチ,,株式会社,山口県,宇部市,中央町３丁目１５－２７,,35,202,7550045,,,,,,,2022-11-17,1,,,,,イングリッチ,0
1191,5320001019424,新規,0,2022-11-17,2022-11-17,株式会社ラサランカ,,株式会社,大分県,別府市,田の湯町３番７号４階,,44,202,8740909,,,,,,,2022-11-17,1,,,,,ラサランカ,0
1192,5320001019432,新規,0,2022-11-17,2022-11-17,株式会社ＹＡＭＡＧＵＣＨＩ,,株式会社,大分県,別府市,石垣西４丁目３番１６号,,44,202,8740910,,,,,,,2022-11-17,1,,,,,ヤマグチ,0
1197,5340001025172,新規,0,2022-11-17,2022-11-17,株式会社原口防災,,株式会社,鹿児島県,伊佐市,大口堂崎５３７番地５,,46,224,8952524,,,,,,,2022-11-17,1,,,,,ハラグチボウサイ,0
1198,5340001025180,新規,0,2022-11-17,2022-11-17,株式会社Ｔｉｇｅｒ　Ｐａｌｌａｓ,,株式会社,鹿児島県,鹿児島市,易居町１番２号鹿児島市役所みなと大通り別館６階９号室,,46,201,8920815,,,,,,,2022-11-17,1,,,,,タイガーパレス,0
1215,5390003002017,新規,0,2022-11-17,2022-11-17,合同会社与七屋,,合同会社,山形県,新庄市,金沢１８０４番地の４,,06,205,9960002,,,,,,,2022-11-17,1,,,,,ヨシチヤ,0
1223,5430001087872,新規,0,2022-11-17,2022-11-17,宇佐神ファームズ株式会社,,株式会社,北海道,沙流郡日高町,字清畠７３４番地の２,,01,601,0592245,,,,,,,2022-11-17,1,,,,,ウサミファームズ,0
1224,5430003014461,新規,0,2022-11-17,2022-11-17,合同会社鹿ノ谷駅,,合同会社,北海道,夕張市,鹿の谷３丁目１１６,,01,209,0680413,,,,,,,2022-11-17,1,,,,,シカノタニエキ,0
1244,6010005035737,新規,0,2022-11-17,2022-11-17,一般社団法人フェムテック推進協議会,,その他の設立登記法人,東京都,中央区,湊２丁目１１番１号シティタワー銀座東４１７号室,,13,102,1040043,,,,,,,2022-11-17,1,,,,,フェムテックスイシンキョウギカイ,0
1245,6010005035794,新規,0,2022-11-17,2022-11-17,一般社団法人新雪キャピタル,,その他の設立登記法人,東京都,千代田区,霞が関３丁目２番５号,,13,101,1000013,,,,,,,2022-11-17,1,,,,,シンセツキャピタル,0
1246,6010005035803,新規,0,2022-11-17,2022-11-17,一般社団法人ＡＲＭＳ,,その他の設立登記法人,東京都,千代田区,神田須田町１丁目８番３号,,13,101,1010041,,,,,,,2022-11-17,1,,,,,アームス,0
1257,6010401170559,新規,0,2022-11-17,2022-11-17,ｏｔｏ株式会社,,株式会社,東京都,港区,南麻布４丁目１２番４号プラチナコート広尾１階,,13,103,1060047,,,,,,,2022-11-17,1,,,,,オト,0
1258,6010401170889,新規,0,2022-11-17,2022-11-17,Ｃｈｏｉｃｅ株式会社,,株式会社,東京都,港区,南青山３丁目１番３６号青山丸竹ビル６Ｆ,,13,103,1070062,,,,,,,2022-11-17,1,,,,,チョイス,0
1260,6010403028937,新規,0,2022-11-17,2022-11-17,目黒オペレーションズ合同会社,,合同会社,東京都,港区,六本木１丁目６番１号泉ガーデンタワー,,13,103,1060032,,,,,,,2022-11-17,1,,,,,メグロオペレーションズ,0
1270,6010601062176,新規,0,2022-11-17,2022-11-17,株式会社八百久,,株式会社,東京都,江東区,三好２丁目１２番１３号,,13,108,1350022,,,,,,,2022-11-17,1,,,,,ヤオキュウ,0
1271,6010601062184,新規,0,2022-11-17,2022-11-17,株式会社フォレスト,,株式会社,東京都,墨田区,京島３丁目５番３号エム・ティビル１階,,13,107,1310046,,,,,,,2022-11-17,1,,,,,フォレスト,0
1278,6011001150876,新規,0,2022-11-17,2022-11-17,イデリアル株式会社,,株式会社,東京都,渋谷区,神宮前２丁目３０－２６－１０５,,13,113,1500001,,,,,,,2022-11-17,1,,,,,イデリアル,0
1279,6011001150967,新規,0,2022-11-17,2022-11-17,株式会社夢生庵,,株式会社,東京都,渋谷区,上原１丁目３番地９号,,13,113,1510064,,,,,,,2022-11-17,1,,,,,ムショウアン,0
1280,6011003015706,新規,0,2022-11-17,2022-11-17,ＬＡＩＴＡ合同会社,,合同会社,東京都,渋谷区,道玄坂１丁目１０番８号渋谷道玄坂東急ビル２Ｆ－Ｃ,,13,113,1500043,,,,,,,2022-11-17,1,,,,,ライタ,0
1288,6011101100847,新規,0,2022-11-17,2022-11-17,株式会社ＭＯＦＵ,,株式会社,東京都,新宿区,西新宿３丁目３番１３号西新宿水間ビル６Ｆ,,13,104,1600023,,,,,,,2022-11-17,1,,,,,モフ,0
1289,6011101100863,新規,0,2022-11-17,2022-11-17,株式会社Ｗｉｎｅ　Ｒｏａｄ　Ｔｒａｄｉｎｇ　ａｎｄ　Ｃｏｎｓｕｌｔａｔｉｏｎ,,株式会社,東京都,新宿区,赤城下町５３番地４５,,13,104,1620803,,,,,,,2022-11-17,1,,,,,ワインロードトレーディングアンドコンサルテーション,0
1299,6011701025799,新規,0,2022-11-17,2022-11-17,株式会社オンサイト,,株式会社,東京都,江戸川区,平井４丁目２３番１６号,,13,123,1320035,,,,,,,2022-11-17,1,,,,,オンサイト,0
1301,6011803005385,新規,0,2022-11-17,2022-11-17,合同会社Ｌｉｂｅｒｔｅ,,合同会社,東京都,葛飾区,青戸２丁目６番１７号テラス・ブルーリバー１０１,,13,122,1250062,,,,,,,2022-11-17,1,,,,,リベルテ,0
1304,6012401039874,新規,0,2022-11-17,2022-11-17,株式会社ＹＫ,,株式会社,東京都,三鷹市,新川３丁目５番９号,,13,204,1810004,,,,,,,2022-11-17,1,,,,,ワイケー,0
1305,6012401039882,新規,0,2022-11-17,2022-11-17,株式会社小林基礎,,株式会社,東京都,府中市,幸町１丁目２０番地の６,,13,206,1830054,,,,,,,2022-11-17,1,,,,,コバヤシキソ,0
1306,6012403005692,新規,0,2022-11-17,2022-11-17,合同会社水口,,合同会社,東京都,三鷹市,下連雀３丁目１‐１３,,13,204,1810013,,,,,,,2022-11-17,1,,,,,ミズグチ,0
1308,6013303006376,新規,0,2022-11-17,2022-11-17,エリアワン合同会社,,合同会社,東京都,豊島区,池袋２丁目７３番５－７０１号,,13,116,1710014,,,,,,,2022-11-17,1,,,,,エリアワン,0
1316,6020001149011,新規,0,2022-11-17,2022-11-17,株式会社ＳＴＥ,,株式会社,神奈川県,横浜市鶴見区,北寺尾７丁目１９番４８－１０２号,,14,101,2300074,,,,,,,2022-11-17,1,,,,,エスティーイー,0
1325,6021001077490,新規,0,2022-11-17,2022-11-17,株式会社いちわり,,株式会社,神奈川県,鎌倉市,玉縄１丁目９番地３２,,14,204,2470071,,,,,,,2022-11-17,1,,,,,イチワリ,0
1327,6021003012396,新規,0,2022-11-17,2022-11-17,ＫＥＮＷＡＹ貿易合同会社,,合同会社,神奈川県,綾瀬市,大上３丁目２２番３２号サンシェル１０１,,14,218,2521104,,,,,,,2022-11-17,1,,,,,ケンウェイボウエキ,0
1340,6030003020598,新規,0,2022-11-17,2022-11-17,ＦＧトレーディング合同会社,,合同会社,埼玉県,八潮市,大字鶴ケ曽根８１８番地３コーポモンレーブ２０２,,11,234,3400802,,,,,,,2022-11-17,1,,,,,エフジートレーディング,0
1352,6050001051981,新規,0,2022-11-17,2022-11-17,株式会社一心,,株式会社,茨城県,古河市,尾崎１３２７番地１,,08,204,3060101,,,,,,,2022-11-17,1,,,,,イッシン,0
1357,6050003007024,新規,0,2022-11-17,2022-11-17,合同会社ＭＳ　ＡＵＴＯ,,合同会社,茨城県,結城市,新福寺３丁目１３番地８,,08,207,3070053,,,,,,,2022-11-17,1,,,,,エムエスオート,0
1387,6120001250329,新規,0,2022-11-17,2022-11-17,株式会社Ｂｅ　ＭａＹｏｏ,,株式会社,大阪府,大阪市中央区,大阪城１番１号ＭＩＲＡＩＺＡＯＳＡＫＡ－ＪＯ１階,,27,128,5400002,,,,,,,2022-11-17,1,,,,,ビーマーユー,0
1388,6120001250353,新規,0,2022-11-17,2022-11-17,ＩＭＬ　Ｃａｐｉｔａｌ株式会社,,株式会社,大阪府,大阪市北区,大淀南２丁目２番９号グランドメゾン新梅田タワーＴＨＥ・ＣＬＵＢＲＥＳＩＤＥＮＣＥ２６０２号室,,27,127,5310075,,,,,,,2022-11-17,1,,,,,アイエムエルキャピタル,0
1389,6120001250411,新規,0,2022-11-17,2022-11-17,株式会社タイム,,株式会社,大阪府,大阪市浪速区,恵美須東２丁目９番８－３０２号,,27,111,5560002,,,,,,,2022-11-17,1,,,,,タイム,0
1390,6120001250452,新規,0,2022-11-17,2022-11-17,株式会社溢和,,株式会社,大阪府,大阪市淀川区,十八条１丁目１番３２－５０３号,,27,123,5320001,,,,,,,2022-11-17,1,,,,,イツワ,0
1395,6120003022866,新規,0,2022-11-17,2022-11-17,ＨＡＳＨＩＷＡ合同会社,,合同会社,大阪府,大阪市中央区,北浜３丁目２番２５号京阪淀屋橋ビル８階,,27,128,5410041,,,,,,,2022-11-17,1,,,,,ハシワ,0
1398,6120101066518,新規,0,2022-11-17,2022-11-17,株式会社エアーズ,,株式会社,大阪府,岸和田市,北町１５－１２シャンブル北町１階,,27,202,5960056,,,,,,,2022-11-17,1,,,,,エアーズ,0
1399,6120101066550,新規,0,2022-11-17,2022-11-17,株式会社リトルファミリー,,株式会社,大阪府,堺市西区,鳳西町２丁１４番地１４,,27,144,5938326,,,,,,,2022-11-17,1,,,,,リトルファミリー,0
1400,6120903004369,新規,0,2022-11-17,2022-11-17,奬建合同会社,,合同会社,大阪府,豊中市,服部西町１丁目２番１０－３０９号,,27,203,5610858,,,,,,,2022-11-17,1,,,,,ショウケン,0
1402,6122001036419,新規,0,2022-11-17,2022-11-17,株式会社フォースワン,,株式会社,大阪府,東大阪市,若江東町４丁目１番８号,,27,227,5780935,,,,,,,2022-11-17,1,,,,,フォースワン,0
1405,6130001073101,新規,0,2022-11-17,2022-11-17,ＢＳＰ京都株式会社,,株式会社,京都府,京都市北区,大将軍東鷹司町１４９番地,,26,101,6038333,,,,,,,2022-11-17,1,,,,,ビーエスピーキョウト,0
1409,6140001128119,新規,0,2022-11-17,2022-11-17,株式会社ＩＫＫアセットマネジメント,,株式会社,兵庫県,神戸市垂水区,五色山２丁目５－２７－２,,28,108,6550035,,,,,,,2022-11-17,1,,,,,アイケーケーアセットマネジメント,0
1411,6160001024613,新規,0,2022-11-17,2022-11-17,ＫＯＴＯＮＡホールディングス株式会社,,株式会社,滋賀県,高島市,永田１１番地,,25,212,5201112,,,,,,,2022-11-17,1,,,,,コトナホールディングス,0
1420,6180005020004,新規,0,2022-11-17,2022-11-17,一般社団法人ネオコスモ,,その他の設立登記法人,愛知県,小牧市,桃ケ丘１丁目２８番地１,,23,219,4850813,,,,,,,2022-11-17,1,,,,,ネオコスモ,0
1436,6220001025134,新規,0,2022-11-17,2022-11-17,株式会社ＤＥＰ,,株式会社,石川県,かほく市,高松ム６８番地２,,17,209,9291215,,,,,,,2022-11-17,1,,,,,デップ,0
1448,6290001099618,新規,0,2022-11-17,2022-11-17,株式会社美髪ショップＴａｎＴａｎ,,株式会社,福岡県,福岡市南区,若久１丁目１３番地６号,,40,134,8150042,,,,,,,2022-11-17,1,,,,,ビハツショップタンタン,0
1453,6290005018854,新規,0,2022-11-17,2022-11-17,特定非営利活動法人福岡東在宅ケアネットワーク,,その他の設立登記法人,福岡県,福岡市東区,青葉３丁目１番６号,,40,131,8130025,,,,,,,2022-11-17,1,,,,,フクオカヒガシザイタクケアネットワーク,0
1456,6290803004262,新規,0,2022-11-17,2022-11-17,合同会社共創テクノロジー,,合同会社,福岡県,北九州市若松区,ひびきの１‐８,,40,103,8080135,,,,,,,2022-11-17,1,,,,,キョウソウテクノロジー,0
1457,6320001019423,新規,0,2022-11-17,2022-11-17,株式会社ＹＭＴ,,株式会社,大分県,由布市,庄内町西長宝１８４８番地１,,44,213,8795406,,,,,,,2022-11-17,1,,,,,ワイエムティ,0
1459,6330001030313,新規,0,2022-11-17,2022-11-17,株式会社ピンチヒッター,,株式会社,熊本県,熊本市中央区,帯山５丁目２４番５号,,43,101,8620924,,,,,,,2022-11-17,1,,,,,ピンチヒッター,0
1495,6430001087863,新規,0,2022-11-17,2022-11-17,株式会社三大松橋,,株式会社,北海道,苫小牧市,柳町４丁目８番９号,,01,213,0530053,,,,,,,2022-11-17,1,,,,,サンダイマツハシ,0
1497,6430003014460,新規,0,2022-11-17,2022-11-17,合同会社三貴昇,,合同会社,北海道,札幌市手稲区,前田二条１１丁目１番１０－４０１号,,01,109,0060812,,,,,,,2022-11-17,1,,,,,ミキショウ,0
1498,6450001004973,新規,0,2022-11-17,2022-11-17,株式会社旭川平安閣,,株式会社,北海道,旭川市,四条通１８丁目左３号,,01,204,0788214,,,,,,,2022-11-17,1,,,,,アサヒカワヘイアンカク,0
1500,6470001019334,新規,0,2022-11-17,2022-11-17,株式会社いけこうどん,,株式会社,香川県,丸亀市,津森町４２６番地７,,37,202,7630052,,,,,,,2022-11-17,1,,,,,イケコウドン,0
1501,6470001019342,新規,0,2022-11-17,2022-11-17,株式会社大倉,,株式会社,香川県,丸亀市,郡家町１０４２番地３,,37,202,7630093,,,,,,,2022-11-17,1,,,,,オオクラ,0
1509,6700150112576,新規,0,2022-11-17,2022-11-04,Ｍ’ｓ　ｍｕｓｉｃ　ｏｆｆｉｃｅ,,その他,埼玉県,吉川市,大字上内川７５８－３,,11,243,3420001,,,,,,,2022-11-04,1,,,,,エムズミユージツクオフイス,0
1530,7010401170764,新規,0,2022-11-17,2022-11-17,株式会社ＲＡＹＳ,,株式会社,東京都,港区,南青山５丁目１１番２４号グレイセス２Ｆ,,13,103,1070062,,,,,,,2022-11-17,1,,,,,レイズ,0
1531,7010401170855,新規,0,2022-11-17,2022-11-17,株式会社ＯＮＥ　ＰＩＥＣＥ,,株式会社,東京都,港区,赤坂２丁目１２番１８号いちご溜池ビル５階,,13,103,1070052,,,,,,,2022-11-17,1,,,,,ワンピース,0
1532,7010403028878,新規,0,2022-11-17,2022-11-17,合同会社ＬＡＤＡ,,合同会社,東京都,港区,南青山２丁目２番１５号,,13,103,1070062,,,,,,,2022-11-17,1,,,,,ラダ,0
1533,7010405021534,新規,0,2022-11-17,2022-11-17,一般財団法人うみらい環境財団,,その他の設立登記法人,東京都,港区,赤坂７丁目１０番９号赤坂伊藤ビル２階,,13,103,1070052,,,,,,,2022-11-17,1,,,,,ウミライカンキョウザイダン,0
1536,7010601062167,新規,0,2022-11-17,2022-11-17,ｆｆｃ株式会社,,株式会社,東京都,墨田区,太平４丁目１番１号９０８号Ｂｒｉｌｌｉａタワー東京,,13,107,1300012,,,,,,,2022-11-17,1,,,,,エフエフシー,0
1542,7011001150900,新規,0,2022-11-17,2022-11-17,株式会社ＡｌｇｏＧｒｏｗｔｈ,,株式会社,東京都,渋谷区,渋谷２丁目１９番１５－６０９号,,13,113,1500002,,,,,,,2022-11-17,1,,,,,アルゴグロース,0
1543,7011001150966,新規,0,2022-11-17,2022-11-17,株式会社ＴｕＭＧ,,株式会社,東京都,渋谷区,富ヶ谷１丁目２７－１５テラスラムダ２０２,,13,113,1510063,,,,,,,2022-11-17,1,,,,,ツムグ,0
1544,7011001151031,新規,0,2022-11-17,2022-11-17,株式会社Ｆｒｅｅｓｉａ,,株式会社,東京都,渋谷区,宇田川町１２番３号ニュー渋谷コーポラス１００２,,13,113,1500042,,,,,,,2022-11-17,1,,,,,フリージア,0
1548,7011101100846,新規,0,2022-11-17,2022-11-17,株式会社ＡＶＥＮＩＲ,,株式会社,東京都,新宿区,西新宿７丁目１８番１５－４０２号,,13,104,1600023,,,,,,,2022-11-17,1,,,,,アヴニール,0
1552,7011701025798,新規,0,2022-11-17,2022-11-17,株式会社カードン,,株式会社,東京都,江戸川区,南篠崎町５丁目１２番２－１４０５号,,13,123,1330065,,,,,,,2022-11-17,1,,,,,カードン,0
1553,7011801041571,新規,0,2022-11-17,2022-11-17,粤順Ｊａｐａｎ株式会社,,株式会社,東京都,足立区,栗原３丁目２６番１号２Ｆ,,13,121,1230842,,,,,,,2022-11-17,1,,,,,エツジュンジャパン,0
1556,7012403005691,新規,0,2022-11-17,2022-11-17,Ｓ＆Ａ合同会社,,合同会社,東京都,稲城市,平尾２丁目１１番地の２０グランキューブ新百合ケ丘３０７,,13,225,2060823,,,,,,,2022-11-17,1,,,,,エスアンドエー,0
1559,7012703002579,新規,0,2022-11-17,2022-11-17,中島国際コンサルティング合同会社,,合同会社,東京都,小平市,花小金井６丁目３１番２１号,,13,211,1870002,,,,,,,2022-11-17,1,,,,,ナカシマコクサイコンサルティング,0
1560,7012803002917,新規,0,2022-11-17,2022-11-17,合同会社Ｋ‐ＬＩＦＩＸ,,合同会社,東京都,東大和市,新堀２丁目１４５３番地の８６コーポ永寿１０３号,,13,220,2070012,,,,,,,2022-11-17,1,,,,,ケイリフィックス,0
1561,7012803002925,新規,0,2022-11-17,2022-11-17,Ｋ２総合研究所合同会社,,合同会社,東京都,国立市,中２丁目２１番地の１２号,,13,215,1860004,,,,,,,2022-11-17,1,,,,,ケイツーソウゴウケンキュウジョ,0
1564,7013303006375,新規,0,2022-11-17,2022-11-17,合同会社Ｌｉａｍｍｅｓｓａｍ,,合同会社,東京都,豊島区,要町１丁目１３番１２－１００１号,,13,116,1710043,,,,,,,2022-11-17,1,,,,,リーアムメッサム,0
1575,7020003022743,新規,0,2022-11-17,2022-11-17,合同会社Ｙｕｊ　Ｃｏｍｐａｎｙ,,合同会社,神奈川県,横浜市緑区,寺山町４９９番地３,,14,113,2260013,,,,,,,2022-11-17,1,,,,,ユジュカンパニー,0
1589,7030001151114,新規,0,2022-11-17,2022-11-17,株式会社野村工業,,株式会社,埼玉県,春日部市,米島１４０番地ショコラヒルズＢ２０２,,11,214,3440115,,,,,,,2022-11-17,1,,,,,ノムラコウギョウ,0
1592,7030003020589,新規,0,2022-11-17,2022-11-17,ＮＫ合同会社,,合同会社,埼玉県,八潮市,中央３丁目１７番地１５メゾン八潮１１０号室,,11,234,3400816,,,,,,,2022-11-17,1,,,,,エヌケイ,0
1603,7050001051956,新規,0,2022-11-17,2022-11-17,飯岡石油販売株式会社,,株式会社,茨城県,つくば市,金田１９２７番地,,08,220,3050018,,,,,,,2022-11-17,1,,,,,,0
1605,7070001039842,新規,0,2022-11-17,2022-11-17,株式会社Ｌａｄｙｂｕｇ,,株式会社,群馬県,高崎市,鶴見町６－３高崎中央マンション１－Ａ,,10,202,3700848,,,,,,,2022-11-17,1,,,,,レディバグ,0
1617,7120001250352,新規,0,2022-11-17,2022-11-17,Ｎｅｅｓ　Ｉｎｖｅｓｔｍｅｎｔ株式会社,,株式会社,大阪府,大阪市北区,曾根崎新地１丁目１３番２２号,,27,127,5300002,,,,,,,2022-11-17,1,,,,,ニースインベストメント,0
1618,7120001250360,新規,0,2022-11-17,2022-11-17,株式会社ａｒｃａ,,株式会社,大阪府,大阪市北区,梅田１丁目２番２－２００号大阪駅前第２ビル２階１－１－１,,27,127,5300001,,,,,,,2022-11-17,1,,,,,アルカ,0
1619,7120001250419,新規,0,2022-11-17,2022-11-17,株式会社ＭＳＭ,,株式会社,大阪府,大阪市北区,同心１丁目１－２２朝日プラザ扇町２１１,,27,127,5300035,,,,,,,2022-11-17,1,,,,,エムエスエム,0
1620,7120001250427,新規,0,2022-11-17,2022-11-17,株式会社ＣＦホールディングス,,株式会社,大阪府,大阪市港区,築港４丁目４番２号,,27,107,5520021,,,,,,,2022-11-17,1,,,,,シーエフホールディングス,0
1622,7120003022898,新規,0,2022-11-17,2022-11-17,さくら産業グループ合同会社,,合同会社,大阪府,守口市,南寺方東通４丁目３０番８号,,27,209,5700043,,,,,,,2022-11-17,1,,,,,サクラサンギョウグループ,0
1627,7120901046759,新規,0,2022-11-17,2022-11-17,株式会社だるま不動産,,株式会社,大阪府,高槻市,昭和台町２丁目１４番１２号,,27,207,5690815,,,,,,,2022-11-17,1,,,,,ダルマフドウサン,0
1629,7130001073091,新規,0,2022-11-17,2022-11-17,株式会社いこいこ,,株式会社,京都府,相楽郡精華町,光台６丁目２８番地６,,26,366,6190237,,,,,,,2022-11-17,1,,,,,イコイコ,0
1630,7130001073109,新規,0,2022-11-17,2022-11-17,株式会社ＮｅｗＢｅｓｔ,,株式会社,京都府,京都市下京区,七条通間之町東入材木町４６８番地コスモＳＴ河原町３０２室,,26,106,6008146,,,,,,,2022-11-17,1,,,,,ニューベスト,0
1631,7130001073117,新規,0,2022-11-17,2022-11-17,株式会社ＰＡＲＡＤＩＧＭ,,株式会社,京都府,京都市中京区,下白山町２９２－１,,26,104,6048085,,,,,,,2022-11-17,1,,,,,パラダイム,0
1632,7130005016633,新規,0,2022-11-17,2022-11-17,特定非営利活動法人Ｊａｐａｎ　Ｒｅｇｉｏｎａｌ　Ｄｅｖｅｌｏｐｍｅｎｔ　Ｃｏｏｐｅｒａｔｉｏｎ,,その他の設立登記法人,京都府,京都市西京区,大原野小塩町４１０番地１,,26,111,6101133,,,,,,,2022-11-17,1,,,,,ジャパンリージョナルデベロップメントコーポレーション,0
1658,7180005020003,新規,0,2022-11-17,2022-11-17,一般社団法人ＯＮｉＧｉＲｉ,,その他の設立登記法人,愛知県,海部郡蟹江町,大字鍋蓋新田字イロノ割官地拝借第１９号地,,23,425,4970042,,,,,,,2022-11-17,1,,,,,オニギリ,0
1660,7180301036826,新規,0,2022-11-17,2022-11-17,株式会社ＴＵＥ,,株式会社,愛知県,豊橋市,曙町字若松１４２番地１８,00128513,23,201,4418151,,,,,,,2022-11-17,1,,,,,ティーユーイー,0
1661,7180301036834,新規,0,2022-11-17,2022-11-17,株式会社柊工業,,株式会社,愛知県,蒲郡市,拾石町浅岡１番地１５,,23,214,4430038,,,,,,,2022-11-17,1,,,,,ヒイラギコウギョウ,0
1662,7180303005515,新規,0,2022-11-17,2022-11-17,合同会社みらい,,合同会社,愛知県,豊橋市,南大清水町字富士見８４９番１,,23,201,4418132,,,,,,,2022-11-17,1,,,,,ミライ,0
1672,7240001060665,新規,0,2022-11-17,2022-11-17,ＷＩＬＬＥＲ株式会社,,株式会社,広島県,広島市西区,横川町２丁目２番２１号小谷ビル１０１,,34,104,7330011,,,,,,,2022-11-17,1,,,,,ウィラー,0
1673,7240001060673,新規,0,2022-11-17,2022-11-17,サンライトセキュリティー株式会社,,株式会社,広島県,広島市西区,古江上２丁目４７２番地８－４０１号,,34,104,7330875,,,,,,,2022-11-17,1,,,,,サンライトセキュリティー,0
1683,7290001099617,新規,0,2022-11-17,2022-11-17,株式会社Ｍｉｌｋｙ　Ｗａｙ,,株式会社,福岡県,福岡市西区,今宿東１丁目８番１７－１０３号,,40,135,8190161,,,,,,,2022-11-17,1,,,,,ミルキィウェイ,0
1684,7290003013212,新規,0,2022-11-17,2022-11-17,光輝合同会社,,合同会社,福岡県,福岡市博多区,美野島２丁目１７番１－３０２号美野島ハイツ,,40,132,8120017,,,,,,,2022-11-17,1,,,,,コウキ,0
1685,7290803004261,新規,0,2022-11-17,2022-11-17,合同会社サントピア,,合同会社,福岡県,北九州市戸畑区,沖台２丁目４番１号サントピア沖台２０１,,40,105,8040064,,,,,,,2022-11-17,1,,,,,サントピア,0
1689,7310001018128,新規,0,2022-11-17,2022-11-17,株式会社創希,,株式会社,長崎県,佐世保市,木原町１８０番地１０,,42,202,8593166,,,,,,,2022-11-17,1,,,,,ソウキ,0
1692,7330001030312,新規,0,2022-11-17,2022-11-17,株式会社有機生活ネット,,株式会社,熊本県,熊本市東区,佐土原２丁目４番２０号,,43,102,8620916,,,,,,,2022-11-17,1,,,,,ユウキセイカツネット,0
1693,7330001030320,新規,0,2022-11-17,2022-11-17,株式会社Ｙ．ＧＲＯＵＰ,,株式会社,熊本県,熊本市北区,揄木三丁目１番１０２号,,43,105,8610000,,,,,,,2022-11-17,1,,,,,ワイドットグループ,0
1694,7330005010582,新規,0,2022-11-17,2022-11-17,赤帽熊本県軽自動車運送協同組合,,その他の設立登記法人,熊本県,熊本市南区,城南町碇９番地３,,43,104,8614205,,,,,,,2022-11-17,1,,,,,アカボウクマモトケンケイジドウシャウンソウ,0
1701,7360003012421,新規,0,2022-11-17,2022-11-17,ＫＯＳＡＫＡ合同会社,,合同会社,沖縄県,国頭郡恩納村,字名嘉真２２８８番地５３５,,47,311,9040401,,,,,,,2022-11-17,1,,,,,コサカ,0
1702,7360003012438,新規,0,2022-11-17,2022-11-17,合同会社アイリスＪａｎｄＵ,,合同会社,沖縄県,国頭郡恩納村,字恩納４２５番地,,47,311,9040411,,,,,,,2022-11-17,1,,,,,アイリスジェイアンドユウ,0
1711,7390003002015,新規,0,2022-11-17,2022-11-17,ＬＪＫ合同会社,,合同会社,山形県,米沢市,成島町１丁目５番１８号,,06,202,9920057,,,,,,,2022-11-17,1,,,,,エルジェイケイ,0
1713,7410003003720,新規,0,2022-11-17,2022-11-17,合同会社ｃｌａｓｓｍａｔｅ,,合同会社,秋田県,能代市,二ツ井町飛根字羽立９５番地１,,05,202,0183122,,,,,,,2022-11-17,1,,,,,クラスメイト,0
1720,7470001019341,新規,0,2022-11-17,2022-11-17,株式会社ジーク,,株式会社,香川県,高松市,福岡町２丁目１１番１４号,,37,201,7600066,,,,,,,2022-11-17,1,,,,,ジーク,0
1734,8010001230926,新規,0,2022-11-17,2022-11-17,株式会社メインクーン,,株式会社,東京都,中央区,銀座７丁目１３番２１号銀座ｓｉｎｒｏｋｕｓｙｕビル２階,,13,102,1040061,,,,,,,2022-11-17,1,,,,,メインクーン,0
1736,8010003039119,新規,0,2022-11-17,2022-11-17,合同会社アザースタイルズ,,合同会社,東京都,中央区,銀座１丁目２２番１１号銀座大竹ビジデンス２階,,13,102,1040061,,,,,,,2022-11-17,1,,,,,アザースタイルズ,0
1741,8010401170904,新規,0,2022-11-17,2022-11-17,株式会社リ・ダイニング,,株式会社,東京都,港区,赤坂８丁目１０番２４号,,13,103,1070052,,,,,,,2022-11-17,1,,,,,リダイニング,0
1743,8010403028910,新規,0,2022-11-17,2022-11-17,Ｓｏｕｎｄ合同会社,,合同会社,東京都,港区,海岸３丁目１３番１号ビレッジハウス芝浦タワー１２１１号室,,13,103,1080022,,,,,,,2022-11-17,1,,,,,サウンド,0
1744,8010403028919,新規,0,2022-11-17,2022-11-17,芝浦キャピタル合同会社,,合同会社,東京都,港区,芝浦２丁目９番１－１３１３号,,13,103,1080023,,,,,,,2022-11-17,1,,,,,シバウラキャピタル,0
1745,8010403028927,新規,0,2022-11-17,2022-11-17,合同会社マーケギア,,合同会社,東京都,港区,南青山３丁目１番３６号青山丸竹ビル６Ｆ,,13,103,1070062,,,,,,,2022-11-17,1,,,,,マーケギア,0
1746,8010405021558,新規,0,2022-11-17,2022-11-17,一般社団法人セミナ,,その他の設立登記法人,東京都,港区,虎ノ門３丁目２２番１０－２０１号,,13,103,1050001,,,,,,,2022-11-17,1,,,,,セミナ,0
1747,8010501049651,新規,0,2022-11-17,2022-11-17,株式会社ｅｕｓ　ｍａｉｎｔｅｎａｎｃｅ,,株式会社,東京都,台東区,東浅草２丁目１５－１２浅草頼本ビル１０１,,13,106,1110025,,,,,,,2022-11-17,1,,,,,イーユーエスメンテナンス,0
1751,8010701043479,新規,0,2022-11-17,2022-11-17,株式会社インフィニティー,,株式会社,東京都,品川区,東五反田５丁目１８番１号,,13,109,1410022,,,,,,,2022-11-17,1,,,,,インフィニティー,0
1752,8010703006459,新規,0,2022-11-17,2022-11-17,合同会社ドルジ,,合同会社,東京都,品川区,東大井１丁目１１番２５－４１３号,,13,109,1400011,,,,,,,2022-11-17,1,,,,,ドルジ,0
1758,8010903007785,新規,0,2022-11-17,2022-11-17,合同会社Ｕｌｕ　Ｌａｎｉ,,合同会社,東京都,世田谷区,三軒茶屋１丁目３６番２号プリンセスライン三軒茶屋５０２,,13,112,1540024,,,,,,,2022-11-17,1,,,,,,0
1762,8011001150874,新規,0,2022-11-17,2022-11-17,株式会社ｐｅｓｃａ,,株式会社,東京都,渋谷区,神宮前６丁目２３番４号桑野ビル２階,,13,113,1500001,,,,,,,2022-11-17,1,,,,,ペスカ,0
1763,8011001150940,新規,0,2022-11-17,2022-11-17,ＬＦＤ株式会社,,株式会社,東京都,渋谷区,本町４丁目４９－１３東邦西新宿ビル４０２,,13,113,1510071,,,,,,,2022-11-17,1,,,,,エルエフディー,0
1764,8011001151014,新規,0,2022-11-17,2022-11-17,株式会社ＨＡＲＵＫＵ,,株式会社,東京都,渋谷区,恵比寿４丁目１１番９号クオーレエビス５Ｆ,,13,113,1500013,,,,,,,2022-11-17,1,,,,,ハルク,0
1769,8011201024234,新規,0,2022-11-17,2022-11-17,株式会社Ｕｍｂｉｌｉｃｕｓ,,株式会社,東京都,中野区,野方５丁目１８番３号,,13,114,1650027,,,,,,,2022-11-17,1,,,,,アンビリカス,0
1770,8011201024242,新規,0,2022-11-17,2022-11-17,株式会社ビープロジェクト,,株式会社,東京都,中野区,江古田３丁目１４番３－１０３号,,13,114,1650022,,,,,,,2022-11-17,1,,,,,ビープロジェクト,0
1779,8012303001749,新規,0,2022-11-17,2022-11-17,合同会社太谷,,合同会社,東京都,町田市,金森７丁目１７番３４号,,13,209,1940012,,,,,,,2022-11-17,1,,,,,オオタニ,0
1782,8012403005690,新規,0,2022-11-17,2022-11-17,合同会社ＦＴＨ,,合同会社,東京都,狛江市,元和泉１丁目５番１７－１０２号,,13,219,2010013,,,,,,,2022-11-17,1,,,,,エフティーエイチ,0
1790,8013301049961,新規,0,2022-11-17,2022-11-17,エメ株式会社,,株式会社,東京都,豊島区,東池袋１丁目１７番１１号パークハイツ池袋１１０５号,,13,116,1700013,,,,,,,2022-11-17,1,,,,,エメ,0
1810,8021001077497,新規,0,2022-11-17,2022-11-17,オーエスラン株式会社,,株式会社,神奈川県,伊勢原市,板戸８８番地の３パルテール・トロワ１０３号,,14,214,2591145,,,,,,,2022-11-17,1,,,,,オーエスラン,0
1817,8030001151113,新規,0,2022-11-17,2022-11-17,日野アークス株式会社,,株式会社,埼玉県,越谷市,大成町１丁目２１６０番地１１,,11,222,3430825,,,,,,,2022-11-17,1,,,,,ヒノアークス,0
1818,8030001151121,新規,0,2022-11-17,2022-11-17,株式会社ＭＫ　ＬＡＮＤ,,株式会社,埼玉県,さいたま市西区,宮前町６９１番地１サウスエムＢ２０１,,11,101,3310046,,,,,,,2022-11-17,1,,,,,エムケーランド,0
1822,8030003020588,新規,0,2022-11-17,2022-11-17,合同会社フォース・エス,,合同会社,埼玉県,新座市,東北１丁目１４－１志幸３０ＳＥＡＳＯＮ４０２,,11,230,3520001,,,,,,,2022-11-17,1,,,,,フォースエス,0
1840,8070001039841,新規,0,2022-11-17,2022-11-17,ブライトフィールド株式会社,,株式会社,群馬県,佐波郡玉村町,大字下新田５７７番地２,,10,464,3701132,,,,,,,2022-11-17,1,,,,,ブライトフィールド,0
1841,8080001025304,新規,0,2022-11-17,2022-11-17,株式会社ＳｏＢａＮｉ,,株式会社,静岡県,島田市,南原８５番地の１,,22,209,4270105,,,,,,,2022-11-17,1,,,,,ソバニ,0
1858,8120001119621,新規,0,2022-11-17,2022-11-17,ネクサス株式会社,,株式会社,大阪府,大阪市中央区,北久宝寺一丁目５番６号,,27,128,5390000,,,,,,,2022-11-17,1,,,,,ネクサス,0
1863,8120001250351,新規,0,2022-11-17,2022-11-17,ＨＤホールディングス株式会社,,株式会社,大阪府,大阪市生野区,林寺６丁目８番２４号,,27,116,5440023,,,,,,,2022-11-17,1,,,,,エイチディホールディングス,0
1876,8130001073116,新規,0,2022-11-17,2022-11-17,Ｓｈｕｔｔｌｅ　Ｂｒｏｓ．株式会社,,株式会社,京都府,相楽郡精華町,光台５丁目１８番地１,,26,366,6190237,,,,,,,2022-11-17,1,,,,,シャトルブラザーズ,0
1877,8130001073124,新規,0,2022-11-17,2022-11-17,株式会社倉田工業,,株式会社,京都府,京都市北区,紫竹西北町７番地１８,,26,101,6038426,,,,,,,2022-11-17,1,,,,,クラタコウギョウ,0
1882,8130005016632,新規,0,2022-11-17,2022-11-17,特定非営利活動法人京都子ども未来への翼,,その他の設立登記法人,京都府,京都市伏見区,深草ヲカヤ町７番地２８,,26,109,6128403,,,,,,,2022-11-17,1,,,,,キョウトコドモミライヘノツバサ,0
1911,8180005020002,新規,0,2022-11-17,2022-11-17,特定非営利活動法人さくらの風,,その他の設立登記法人,愛知県,西春日井郡豊山町,大字豊場字伊勢山３６６番地,,23,342,4800202,,,,,,,2022-11-17,1,,,,,サクラノカゼ,0
1912,8180301036833,新規,0,2022-11-17,2022-11-17,株式会社ＬＩＢ,,株式会社,愛知県,高浜市,神明町２丁目１４番地３,,23,227,4441305,,,,,,,2022-11-17,1,,,,,リブ,0
1924,8240001060672,新規,0,2022-11-17,2022-11-17,株式会社ジョーカー,,株式会社,広島県,廿日市市,大野９３８番地２,,34,213,7390488,,,,,,,2022-11-17,1,,,,,ジョーカー,0
1928,8260001037421,新規,0,2022-11-17,2022-11-17,株式会社コムワン,,株式会社,岡山県,倉敷市,真備町辻田１７６番地１０,00128519,33,202,7101312,,,,,,,2022-11-17,1,,,,,コムワン,0
1930,8260003004106,新規,0,2022-11-17,2022-11-17,ＳＫＢ合同会社,,合同会社,岡山県,岡山市北区,清輝橋３丁目４番２号,,33,101,7000861,,,,,,,2022-11-17,1,,,,,エスケービー,0
1932,8280005007518,新規,0,2022-11-17,2022-11-17,特定非営利活動法人エデュ・ネットワーク・プラン,,その他の設立登記法人,島根県,松江市,幸町８２８番地８１－６０４号,,32,201,6900041,,,,,,,2022-11-17,1,,,,,エデュネットワークプラン,0
1940,8290003013211,新規,0,2022-11-17,2022-11-17,合同会社ＮＩＣＨＩ,,合同会社,福岡県,宗像市,日の里５丁目１番（１１棟４０１号）,,40,220,8113425,,,,,,,2022-11-17,1,,,,,ニチ,0
1944,8300005007110,新規,0,2022-11-17,2022-11-17,医療法人きのの木,,その他の設立登記法人,佐賀県,多久市,東多久町大字別府４６３６番地１,,41,204,8460012,,,,,,,2022-11-17,1,,,,,キノノキ,0
1946,8330001030311,新規,0,2022-11-17,2022-11-17,株式会社インフィニティエナジー,,株式会社,熊本県,熊本市北区,高平１丁目６番１号建装ビル１Ｆ,,43,105,8600085,,,,,,,2022-11-17,1,,,,,インフィニティエナジー,0
1970,8430003014483,新規,0,2022-11-17,2022-11-17,ＨＵＵＭジャパン合同会社,,合同会社,北海道,札幌市南区,真駒内上町３丁目２－１１ＭｃＬｏｕｎｇｅ,,01,106,0050012,,,,,,,2022-11-17,1,,,,,ヒュームジャパン,0
1971,8440005002741,新規,0,2022-11-17,2022-11-17,特定非営利活動法人ｆｏｒ　Ｒ,,その他の設立登記法人,北海道,函館市,八幡町８番３号,,01,202,0400083,,,,,,,2022-11-17,1,,,,,フォーアール,0
1973,8450001013840,新規,0,2022-11-17,2022-11-17,株式会社ＲＥＯＡＳ,,株式会社,北海道,旭川市,豊岡四条１丁目２番１１号アーバンライフ豊岡１０１,,01,204,0788234,,,,,,,2022-11-17,1,,,,,リオアス,0
1979,8700150112153,新規,0,2022-11-17,2022-11-01,松崎町シルバー人材センター,,その他,静岡県,賀茂郡松崎町,宮内２７２－２,,22,305,4103612,,,,,,,2022-11-01,1,,,,,マツザキチヨウシルバージンザイセンター,0
1996,9010101015417,新規,0,2022-11-17,2022-11-17,株式会社Ｍａｈａｌｏ,,株式会社,東京都,八王子市,松木４６－１８－３０２,,13,201,1920362,,,,,,,2022-11-17,1,,,,,マハロ,0
2002,9010403028926,新規,0,2022-11-17,2022-11-17,クレアム合同会社,,合同会社,東京都,港区,南青山２丁目２―１５,,13,103,1070062,,,,,,,2022-11-17,1,,,,,クレアム,0
2006,9010405021540,新規,0,2022-11-17,2022-11-17,一般財団法人吉川徹財団,,その他の設立登記法人,東京都,港区,虎ノ門１丁目２３番２－３７０５,,13,103,1050001,,,,,,,2022-11-17,1,,,,,,0
2007,9010501049634,新規,0,2022-11-17,2022-11-17,南予西株式会社,,株式会社,東京都,台東区,元浅草２丁目７番５号モダンビル６Ｆ,,13,106,1110041,,,,,,,2022-11-17,1,,,,,ナンヨニシ,0
2008,9010601062181,新規,0,2022-11-17,2022-11-17,株式会社ＮＥＸＴ,,株式会社,東京都,江東区,有明３丁目７番１１号パークビル２０Ｆ,,13,108,1350063,,,,,,,2022-11-17,1,,,,,ネクスト,0
2013,9010901051982,新規,0,2022-11-17,2022-11-17,村上デザイン株式会社,,株式会社,東京都,世田谷区,北沢３丁目２番１１号２Ｆ－０９,,13,112,1550031,,,,,,,2022-11-17,1,,,,,ムラカミデザイン,0
2018,9011001150873,新規,0,2022-11-17,2022-11-17,株式会社ＡＮＤ‐Ｘ,,株式会社,東京都,渋谷区,神宮前４丁目３番１５号東京セントラル表参道２２０号,,13,113,1500001,,,,,,,2022-11-17,1,,,,,アンドテン,0
2019,9011001151005,新規,0,2022-11-17,2022-11-17,株式会社プンクトゥム,,株式会社,東京都,目黒区,平町２丁目１６番２５号,,13,110,1520032,,,,,,,2022-11-17,1,,,,,プンクトゥム,0
2036,9011701025796,新規,0,2022-11-17,2022-11-17,雅図株式会社,,株式会社,東京都,江戸川区,松江２丁目１－１３－３０５号室,,13,123,1320025,,,,,,,2022-11-17,1,,,,,カズ,0
2037,9011703003305,新規,0,2022-11-17,2022-11-17,ＭＵＳＵＢＩ合同会社,,合同会社,東京都,江戸川区,大杉２丁目１６番１４号,,13,123,1320022,,,,,,,2022-11-17,1,,,,,ムスビ,0
2046,9012801021974,新規,0,2022-11-17,2022-11-17,ニューコーテックス株式会社,,株式会社,東京都,立川市,栄町６丁目１６番地の４０立川栄町の家６号棟,,13,202,1900003,,,,,,,2022-11-17,1,,,,,ニューコーテックス,0
2047,9013101009058,新規,0,2022-11-17,2022-11-17,株式会社ＹＳＴＫコーポレーション,,株式会社,東京都,福生市,志茂１５６番地１レクセルプラッツァ福生壱番館１１０号室,,13,218,1970023,,,,,,,2022-11-17,1,,,,,,0
2056,9020001149033,新規,0,2022-11-17,2022-11-17,株式会社一常,,株式会社,神奈川県,川崎市川崎区,渡田新町１丁目７番２－２０２号川崎南ダイカンプラザ,,14,131,2100844,,,,,,,2022-11-17,1,,,,,イチジョウ,0
2062,9021001077488,新規,0,2022-11-17,2022-11-17,ＤＵＢＡＩ　ＩＮＴＥＲＮＡＴＩＯＮＡＬ株式会社,,株式会社,神奈川県,相模原市中央区,青葉３丁目２１番１号旭ハウス２０２,,14,152,2520224,,,,,,,2022-11-17,1,,,,,ドバイインターナショナル,0
2072,9030001151120,新規,0,2022-11-17,2022-11-17,株式会社Ｈａｒｉ　ｃｏｍｐａｎｙ,,株式会社,埼玉県,草加市,小山２丁目１５番１号,,11,221,3400045,,,,,,,2022-11-17,1,,,,,ハリカンパニー,0
2082,9040003021287,新規,0,2022-11-17,2022-11-17,ベンルスエナジージャパン合同会社,,合同会社,千葉県,野田市,七光台２２４番地の１０メルシープラザＩ・２０３,00128520,12,208,2780051,,,,,,,2022-11-17,1,,,,,ベンルスエナジージャパン,0
2083,9040005021814,新規,0,2022-11-17,2022-11-17,特定非営利活動法人Ａｌｚ柏わの会,,その他の設立登記法人,千葉県,柏市,東逆井１丁目６番６号,,12,217,2770045,,,,,,,2022-11-17,1,,,,,アルツカシワワノカイ,0
2086,9060001035460,新規,0,2022-11-17,2022-11-17,株式会社丸吉,,株式会社,栃木県,足利市,借宿町６１２番地１６,,09,202,3260826,,,,,,,2022-11-17,1,,,,,マルヨシ,0
2088,9070001039840,新規,0,2022-11-17,2022-11-17,ＡＬ　ＨＯＯＲ　ＴＲＡＤＩＮＧ株式会社,,株式会社,群馬県,館林市,諏訪町１４９５番地の３,,10,207,3740036,,,,,,,2022-11-17,1,,,,,アルフールトレーディング,0
2092,9090003002200,新規,0,2022-11-17,2022-11-17,合同会社ありがとう,,合同会社,山梨県,甲府市,里吉４丁目５番１号ミナミＣｉｔｙＡ－１,,19,201,4000822,,,,,,,2022-11-17,1,,,,,アリガトウ,0
2093,9090005007528,新規,0,2022-11-17,2022-11-17,ＮＰＯ法人Ｈａｎａｈｏｋｏ,,その他の設立登記法人,山梨県,中巨摩郡昭和町,西条新田８４５番地１,,19,384,4093865,,,,,,,2022-11-17,1,,,,,ハナホコ,0
2108,9120001250359,新規,0,2022-11-17,2022-11-17,株式会社ＨｙＧｅｅ,,株式会社,大阪府,大阪市北区,中津１丁目４番２－８０１号,,27,127,5310071,,,,,,,2022-11-17,1,,,,,ハイジー,0
2112,9120103004927,新規,0,2022-11-17,2022-11-17,きたこば合同会社,,合同会社,大阪府,羽曳野市,恵我之荘４丁目４番２６号,,27,222,5830886,,,,,,,2022-11-17,1,,,,,キタコバ,0
2114,9120901046749,新規,0,2022-11-17,2022-11-17,株式会社アイズウル,,株式会社,大阪府,豊中市,利倉２丁目７番１３号,,27,203,5610845,,,,,,,2022-11-17,1,,,,,アイズウル,0
2115,9120901046757,新規,0,2022-11-17,2022-11-17,株式会社Ｇ＆Ｇ研究所,,株式会社,大阪府,箕面市,小野原東３丁目１３番２９号,,27,220,5620031,,,,,,,2022-11-17,1,,,,,ジーアンドジーケンキュウショ,0
2122,9140001128124,新規,0,2022-11-17,2022-11-17,株式会社ＭＩＩＭＵ,,株式会社,兵庫県,宝塚市,雲雀丘山手１丁目１４番４号,,28,214,6650804,,,,,,,2022-11-17,1,,,,,ミーム,0
2125,9170001017381,新規,0,2022-11-17,2022-11-17,株式会社一期,,株式会社,和歌山県,西牟婁郡上富田町,岡１３７０番地の４,,30,404,6492101,,,,,,,2022-11-17,1,,,,,イチゴ,0
2130,9180005020001,新規,0,2022-11-17,2022-11-17,社会保険労務士法人田中事務所,,その他の設立登記法人,愛知県,名古屋市名東区,名東本通２丁目３２番地星ヶ丘イーストビル２階Ａ,,23,115,4650087,,,,,,,2022-11-17,1,,,,,タナカジムショ,0
2146,9240001060671,新規,0,2022-11-17,2022-11-17,株式会社ファイブ,,株式会社,広島県,広島市佐伯区,石内南１丁目２１番１１号,,34,108,7315108,,,,,,,2022-11-17,1,,,,,ファイブ,0
2149,9250001019849,新規,0,2022-11-17,2022-11-17,株式会社ＣＲＥＶＥ,,株式会社,山口県,下関市,伊倉本町２０番３号,,35,201,7510863,,,,,,,2022-11-17,1,,,,,クレーヴ,0
2156,9260001037420,新規,0,2022-11-17,2022-11-17,ワイズトランス株式会社,,株式会社,岡山県,岡山市南区,立川町４番２－２号,,33,104,7028046,,,,,,,2022-11-17,1,,,,,ワイズトランス,0
2161,9290001099607,新規,0,2022-11-17,2022-11-17,株式会社ＬｉＣＯＬｉＣＥ,,株式会社,福岡県,福岡市東区,名子３丁目２０番２０－３０６号グランピアマンション青葉,,40,131,8130024,,,,,,,2022-11-17,1,,,,,リコリス,0
2163,9290003013202,新規,0,2022-11-17,2022-11-17,ネスト合同会社,,合同会社,福岡県,宗像市,泉ヶ丘１丁目４番１０号,,40,220,8114142,,,,,,,2022-11-17,1,,,,,ネスト,0
2164,9290801029060,新規,0,2022-11-17,2022-11-17,株式会社Ｇｉ　ＳＴＹＬＥ,,株式会社,福岡県,京都郡苅田町,大字与原３４９番１－１０８,,40,621,8000323,,,,,,,2022-11-17,1,,,,,ジーアイスタイル,0
2178,9330001030302,新規,0,2022-11-17,2022-11-17,Ｄａｉｍｏｎ　ｆａｒｍ株式会社,,株式会社,熊本県,宇土市,花園町７６７番地,,43,211,8690413,,,,,,,2022-11-17,1,,,,,ダイモンファーム,0
2184,9340003003965,新規,0,2022-11-17,2022-11-17,わんわんプラス合同会社,,合同会社,鹿児島県,霧島市,国分中央５丁目１０番１４号,,46,218,8994332,,,,,,,2022-11-17,1,,,,,ワンワンプラス,0
2205,9430001087852,新規,0,2022-11-17,2022-11-17,株式会社秋場鑑定事務所,,株式会社,北海道,札幌市中央区,南二条西３丁目１３番地４カタオカビル３階,,01,101,0600062,,,,,,,2022-11-17,1,,,,,アキバカンテイジムショ,0
2207,9430005014596,新規,0,2022-11-17,2022-11-17,一般社団法人大乗寺護持の会,,その他の設立登記法人,北海道,沙流郡平取町,字荷菜１１番地１,,01,602,0550106,,,,,,,2022-11-17,1,,,,,ダイジョウジゴジノカイ,0
2209,9450003002270,新規,0,2022-11-17,2022-11-17,合同会社燈心,,合同会社,北海道,旭川市,東二条３丁目４番７号,,01,204,0700022,,,,,,,2022-11-17,1,,,,,,0
2218,9700150112334,新規,0,2022-11-17,2022-10-27,Ｚｉｐａｎｇ　Ｆｅｓｔｉｖａｌ,,その他,東京都,杉並区,久我山５丁目１１－２０アビタ久我山３０４,,13,115,1680082,,,,,,,2022-10-27,1,,,,,ジパングフエステイバル,0
