sequenceNumber,corporateNumber,process,correct,updateDate,changeDate,name,nameImageId,kind,prefectureName,cityName,streetNumber,addressImageId,prefectureCode,cityCode,postCode,addressOutside,addressOutsideImageId,closeDate,closeCause,successorCorporateNumber,changeCause,assignmentDate,latest,enName,enPrefectureName,enCityName,enAddressOutside,furigana,hihyoji
2,1010001242085,新規,0,2024-03-13,2024-03-13,株式会社日本衛創計算機技術,,株式会社,東京都,中央区,新川１丁目２２－１２－６０２号室,,13,102,1040033,,,,,,,2024-03-13,1,,,,,ニホンエイソウケイサンキギジュツ,0
9,1010403032159,新規,0,2024-03-13,2024-03-13,ＯｒｉｇｉｎａｌＳｅｌｆ合同会社,,合同会社,東京都,港区,赤坂８丁目４－１４青山タワープレイス８Ｆ,,13,103,1070052,,,,,,,2024-03-13,1,,,,,オリジナルセルフ,0
11,1010501051911,新規,0,2024-03-13,2024-03-13,株式会社ＫＩＳＥＫＩＡＮＴＩＱ,,株式会社,東京都,台東区,上野５丁目８番５号,,13,106,1100005,,,,,,,2024-03-13,1,,,,,キセキアンティーク,0
13,1010701045688,新規,0,2024-03-13,2024-03-13,ＢＹ　Ｉｎｔｅｒｎａｔｉｏｎａｌ株式会社,,株式会社,東京都,品川区,八潮５丁目６番３７－３０３号,,13,109,1400003,,,,,,,2024-03-13,1,,,,,ビワイインターナショナル,0
14,1010801034847,新規,0,2024-03-13,2024-03-13,株式会社瑞光,,株式会社,東京都,大田区,中央６丁目２５－２０ニューフラット２５,,13,111,1430024,,,,,,,2024-03-13,1,,,,,ズイコウ,0
23,1011001160525,新規,0,2024-03-13,2024-03-13,株式会社ヘルスベイシス・コンストラクション,,株式会社,東京都,渋谷区,恵比寿２丁目３８番１号レジディア広尾南９０１,,13,113,1500013,,,,,,,2024-03-13,1,,,,,ヘルスベイシスコンストラクション,0
28,1011801043904,新規,0,2024-03-13,2024-03-13,株式会社はじめ工業,,株式会社,東京都,葛飾区,金町２丁目１番１３号,,13,122,1250042,,,,,,,2024-03-13,1,,,,,ハジメコウギョウ,0
29,1011801043912,新規,0,2024-03-13,2024-03-13,株式会社ＰＲＩＭＥ,,株式会社,東京都,葛飾区,新宿５丁目３番３号,,13,122,1250051,,,,,,,2024-03-13,1,,,,,プライム,0
30,1012303001953,新規,0,2024-03-13,2024-03-13,フィナンシャルサポート合同会社,,合同会社,東京都,町田市,金井ヶ丘４丁目４２番６号,,13,209,1950076,,,,,,,2024-03-13,1,,,,,フィナンシャルサポート,0
37,1020001156185,新規,0,2024-03-13,2024-03-13,Ｋエンジニアリング株式会社,,株式会社,神奈川県,横浜市磯子区,東町１８番８号,,14,107,2350005,,,,,,,2024-03-13,1,,,,,ケーエンジニアリング,0
39,1020003025719,新規,0,2024-03-13,2024-03-13,合同会社ＳＴＡ,,合同会社,神奈川県,横浜市金沢区,柴町３８７－５,,14,108,2360012,,,,,,,2024-03-13,1,,,,,エスティーエー,0
56,1030001159138,新規,0,2024-03-13,2024-03-13,株式会社米屋,,株式会社,埼玉県,川越市,新富町１丁目３番地５,,11,201,3500043,,,,,,,2024-03-13,1,,,,,ヨネヤ,0
58,1030003023812,新規,0,2024-03-13,2024-03-13,合同会社むさし野野菜ファーマーズ,,合同会社,埼玉県,狭山市,大字南入曽３２８小沢農場内,,11,215,3501316,,,,,,,2024-03-13,1,,,,,ムサシノヤサイファーマーズ,0
59,1040001038150,新規,0,2024-03-13,2024-03-13,西武電商株式会社,,株式会社,千葉県,流山市,東初石２丁目１７８番地,,12,220,2700114,,,,,,,2024-03-13,1,,,,,セイブデンショウ,0
64,1040001132507,新規,0,2024-03-13,2024-03-13,株式会社ＢｏｎＫｕｌａ,,株式会社,千葉県,柏市,若柴１７８番地４柏の葉キャンパス１４８街区２ショップ＆オフィス棟６Ｆ,,12,217,2770871,,,,,,,2024-03-13,1,,,,,ボンクラ,0
65,1040001132606,新規,0,2024-03-13,2024-03-13,旅育ワーケーションツアーズ株式会社,,株式会社,千葉県,野田市,柳沢２４５－８,,12,208,2780006,,,,,,,2024-03-13,1,,,,,タビイクワーケーションツアーズ,0
67,1060001036862,新規,0,2024-03-13,2024-03-13,なつめぐ株式会社,,株式会社,栃木県,佐野市,堀米町１６９６－１コーポラスアベニュー１０１,,09,204,3270843,,,,,,,2024-03-13,1,,,,,ナツメグ,0
71,1070003005311,新規,0,2024-03-13,2024-03-13,合同会社ＪＨＬｉｎｋ,,合同会社,群馬県,太田市,東金井町４２２番地ビレッジハウス東金井１－３０９号,,10,205,3730022,,,,,,,2024-03-13,1,,,,,ジェイエイチリンク,0
95,1120001262824,新規,0,2024-03-13,2024-03-13,ｉｎｔｅｒｓｔｅｌｌａｒ株式会社,,株式会社,大阪府,大阪市西成区,長橋３丁目６番１９号,,27,122,5570025,,,,,,,2024-03-13,1,,,,,インターステラー,0
96,1120001262915,新規,0,2024-03-13,2024-03-13,株式会社タブネオン,,株式会社,大阪府,大阪市中央区,本町２丁目３番４号アソルティ本町４階,,27,128,5410053,,,,,,,2024-03-13,1,,,,,タブネオン,0
97,1120001262980,新規,0,2024-03-13,2024-03-13,株式会社リフェルテ,,株式会社,大阪府,大阪市淀川区,西中島４丁目４－２５フルーレ新大阪４１２,,27,123,5320011,,,,,,,2024-03-13,1,,,,,リフェルテ,0
98,1120001262997,新規,0,2024-03-13,2024-03-13,株式会社福英,,株式会社,大阪府,大阪市西成区,太子１丁目１３番１号太子ハイツ３０１号,,27,122,5570002,,,,,,,2024-03-13,1,,,,,フクエイ,0
99,1120001263005,新規,0,2024-03-13,2024-03-13,ザホームエコー株式会社,,株式会社,大阪府,大阪市中央区,日本橋１丁目１７番１７－７０１号,,27,128,5420073,,,,,,,2024-03-13,1,,,,,ザホームエコー,0
100,1120001263079,新規,0,2024-03-13,2024-03-13,株式会社ＡＩＫＥＮ,,株式会社,大阪府,大阪市浪速区,日本橋５丁目１３番１３－３０９号,,27,111,5560005,,,,,,,2024-03-13,1,,,,,アイケン,0
107,1122001037900,新規,0,2024-03-13,2024-03-13,株式会社メンテック,,株式会社,大阪府,八尾市,太田３丁目２１７－１,,27,212,5810037,,,,,,,2024-03-13,1,,,,,メンテック,0
123,1140003020261,新規,0,2024-03-13,2024-03-13,合同会社け・せら・せら,,合同会社,兵庫県,加西市,下宮木町３６３番地の３,,28,220,6752105,,,,,,,2024-03-13,1,,,,,ケセラセラ,0
125,1140005026967,新規,0,2024-03-13,2024-03-13,国際流通人材支援協同組合,,その他の設立登記法人,兵庫県,尼崎市,下坂部４丁目７番２８号,,28,202,6610975,,,,,,,2024-03-13,1,,,,,コクサイリュウツウジンザイシエン,0
127,1170003002001,新規,0,2024-03-13,2024-03-13,合同会社ＦＲＯＮＴＩＥＲ,,合同会社,和歌山県,岩出市,山７８６番地の１０（４０１号）,,30,209,6496258,,,,,,,2024-03-13,1,,,,,フロンティア,0
134,1190001031165,新規,0,2024-03-13,2024-03-13,株式会社カーレスキュー三重,,株式会社,三重県,熊野市,有馬町２８５４番地１７,,24,212,5194325,,,,,,,2024-03-13,1,,,,,カーレスキューミエ,0
156,1350001018831,新規,0,2024-03-13,2024-03-13,長友美装株式会社,,株式会社,宮崎県,宮崎市,大字恒久１１９８番地２,,45,201,8800916,,,,,,,2024-03-13,1,,,,,ナガトモビソウ,0
161,1400001016581,新規,0,2024-03-13,2024-03-13,株式会社キメラ,,株式会社,岩手県,盛岡市,大通３丁目９番７号,,03,201,0200022,,,,,,,2024-03-13,1,,,,,キメラ,0
165,1440003001578,新規,0,2024-03-13,2024-03-13,合同会社ｉｍｍｓ．,,合同会社,北海道,函館市,美原５丁目１３番４号,,01,202,0410806,,,,,,,2024-03-13,1,,,,,イムズ,0
171,1700150123834,新規,0,2024-03-13,2024-03-13,Ｇｌｏｂａｌ　Ｔｅｌｅｌｉｎｋｓ　ＧｍｂＨ,,外国会社等,,,,,,,,Ｕｎｔｅｒｍｕｅｌｉ　９，Ｚｕｇ　６３００　Ｓｗｉｔｚｅｒｌａｎｄ,,,,,,2024-03-13,1,,,,,グローバルテレリンクスゲーエムベーハー,0
172,1700150124428,新規,0,2024-03-13,2024-03-13,Ｔｚｕｎｇ　Ｊｉａ　Ｅｎｔｅｒｐｒｉｓｅ　Ｃｏ．，Ｌｔｄ,,外国会社等,,,,,,,,Ｎｏ．３８，Ｌｎ．７　４７，Ｌｉｒｅｎ　Ｒｄ．，Ｂｉｚｈｏｕ　Ｖｉｌ．，Ｃａｏｔｕｎ　Ｔｏｗｎｓｈｉｐ，Ｎａｎｔｏｕ　Ｃｏｕｎｔｙ　５４２５９，Ｔａｉｗａｎ（Ｒ．Ｏ．Ｃ．）,,,,,,2024-03-13,1,,,,,ソウカエンタプリスカンプリリミテッド,0
175,2010001243033,新規,0,2024-03-13,2024-03-13,株式会社十八商店,,株式会社,東京都,千代田区,神田錦町２丁目４番地１ダヴィンチ小川町１階,,13,101,1010054,,,,,,,2024-03-13,1,,,,,ジュウハチショウテン,0
180,2010003043191,新規,0,2024-03-13,2024-03-13,Ｙ‐Ｃｏｍｐａｎｙ合同会社,,合同会社,東京都,千代田区,丸の内２丁目５番１号丸の内二丁目ビル,,13,101,1000005,,,,,,,2024-03-13,1,,,,,ワイカンパニー,0
200,2010403032141,新規,0,2024-03-13,2024-03-13,デルガド合同会社,,合同会社,東京都,港区,浜松町２丁目７番１７号イーグル浜松町天翔オフィス浜松町大門５階５１０号室,,13,103,1050013,,,,,,,2024-03-13,1,,,,,デルガド,0
206,2010801034846,新規,0,2024-03-13,2024-03-13,株式会社ＲＨＫコンサルティング,,株式会社,東京都,大田区,東雪谷１丁目８番８号,,13,111,1450065,,,,,,,2024-03-13,1,,,,,アールエイチケイコンサルティング,0
212,2011001160292,新規,0,2024-03-13,2024-03-13,麗桂商事株式会社,,株式会社,東京都,目黒区,大橋１丁目３－８ＢＮＤｂｌｄｇ．２階,,13,110,1530044,,,,,,,2024-03-13,1,,,,,レイケイショウジ,0
213,2011001160441,新規,0,2024-03-13,2024-03-13,スイッチング株式会社,,株式会社,東京都,渋谷区,広尾５丁目１５番２号,,13,113,1500012,,,,,,,2024-03-13,1,,,,,スイッチング,0
214,2011001160482,新規,0,2024-03-13,2024-03-13,株式会社ベネス,,株式会社,東京都,渋谷区,富ヶ谷１丁目１９番３号,,13,113,1510063,,,,,,,2024-03-13,1,,,,,ベネス,0
215,2011001160565,新規,0,2024-03-13,2024-03-13,株式会社Ｇｒｉｚｚｌｙ,,株式会社,東京都,渋谷区,幡ヶ谷１丁目３－１幡ヶ谷ゴールデンマンション９０９,,13,113,1510072,,,,,,,2024-03-13,1,,,,,グリズリー,0
216,2011003018670,新規,0,2024-03-13,2024-03-13,ＮＩＳＨＩＣＨＩ合同会社,,合同会社,東京都,渋谷区,渋谷２丁目１９－１５宮益坂ビルディング６０９,,13,113,1500002,,,,,,,2024-03-13,1,,,,,ニシチ,0
222,2011201025312,新規,0,2024-03-13,2024-03-13,株式会社ＡＬＬＦＯＲＣＥＳ,,株式会社,東京都,中野区,大和町４丁目３０－１３,,13,114,1650034,,,,,,,2024-03-13,1,,,,,オールフォーセース,0
225,2011501030433,新規,0,2024-03-13,2024-03-13,ＳＫＨＣ株式会社,,株式会社,東京都,北区,赤羽１丁目５９番８号,,13,117,1150045,,,,,,,2024-03-13,1,,,,,エスケイエイチシー,0
233,2011801043903,新規,0,2024-03-13,2024-03-13,天真爛漫株式会社,,株式会社,東京都,足立区,足立４丁目３６番１３号,,13,121,1200015,,,,,,,2024-03-13,1,,,,,テンシンランマン,0
234,2011801043911,新規,0,2024-03-13,2024-03-13,株式会社一輪,,株式会社,東京都,足立区,六月２丁目１番１号,,13,121,1210814,,,,,,,2024-03-13,1,,,,,イチリン,0
249,2020005016302,新規,0,2024-03-13,2024-03-13,一般社団法人リスポ,,その他の設立登記法人,神奈川県,横浜市港北区,新横浜１丁目２７－１２アルカンシェル新横浜５０２号,,14,109,2220033,,,,,,,2024-03-13,1,,,,,リスポ,0
267,2040001132621,新規,0,2024-03-13,2024-03-13,株式会社Ｆｉｒｓｔ　Ｌｉｎｅ　Ｅｘｐｒｅｓｓ,,株式会社,千葉県,野田市,光葉町２丁目１－９ＡＲＶＩＴＡ１０１,,12,208,2780057,,,,,,,2024-03-13,1,,,,,ファーストラインエクスプレス,0
270,2040003024453,新規,0,2024-03-13,2024-03-13,ライムクラフト合同会社,,合同会社,千葉県,いすみ市,釈迦谷７４３番地１０,,12,238,2980015,,,,,,,2024-03-13,1,,,,,ライムクラフト,0
279,2070003005310,新規,0,2024-03-13,2024-03-13,ジュピタ合同会社,,合同会社,群馬県,伊勢崎市,昭和町１８６８番地１,,10,204,3720014,,,,,,,2024-03-13,1,,,,,ジュピタ,0
283,2100001037260,新規,0,2024-03-13,2024-03-13,株式会社井出製材所,,株式会社,長野県,佐久市,田口１０８２番地,,20,217,3840412,,,,,,,2024-03-13,1,,,,,イデセイザイショ,0
290,2120001262823,新規,0,2024-03-13,2024-03-13,迦南株式会社,,株式会社,大阪府,大阪市東淀川区,瑞光５丁目５番３０号,,27,114,5330005,,,,,,,2024-03-13,1,,,,,カナン,0
291,2120001262988,新規,0,2024-03-13,2024-03-13,Ｒｅｂｏｏｔ株式会社,,株式会社,大阪府,大阪市城東区,野江３丁目２６番１１－１０１号,,27,118,5360006,,,,,,,2024-03-13,1,,,,,リブート,0
292,2120001263004,新規,0,2024-03-13,2024-03-13,ザセットイチ株式会社,,株式会社,大阪府,大阪市中央区,日本橋１丁目１７番１７－７０１号,,27,128,5420073,,,,,,,2024-03-13,1,,,,,ザセットイチ,0
295,2120003026136,新規,0,2024-03-13,2024-03-13,合同会社ＫＳ　Ｐｌａｎｎｉｎｇ,,合同会社,大阪府,大阪市東成区,東小橋２丁目７－２,,27,115,5370024,,,,,,,2024-03-13,1,,,,,ケーエスプランニング,0
298,2120101069193,新規,0,2024-03-13,2024-03-13,東海商事株式会社,,株式会社,大阪府,阪南市,貝掛６３番３号シーサイド貝掛Ｂ棟３０８室,,27,232,5990231,,,,,,,2024-03-13,1,,,,,トウカイショウジ,0
305,2120901048883,新規,0,2024-03-13,2024-03-13,チカモト工業株式会社,,株式会社,大阪府,吹田市,末広町１４－９,,27,205,5640022,,,,,,,2024-03-13,1,,,,,チカモトコウギョウ,0
306,2122001037882,新規,0,2024-03-13,2024-03-13,株式会社山光テクノ,,株式会社,大阪府,東大阪市,玉串町西１丁目２－４２,,27,227,5780934,,,,,,,2024-03-13,1,,,,,サンコウテクノ,0
308,2122003002827,新規,0,2024-03-13,2024-03-13,合同会社Ｐｕｒｉｏ,,合同会社,大阪府,東大阪市,上四条町９番２２号,,27,227,5798052,,,,,,,2024-03-13,1,,,,,プリオ,0
309,2130001076561,新規,0,2024-03-13,2024-03-13,株式会社リヒト,,株式会社,京都府,長岡京市,天神１丁目１－５６,,26,209,6170824,,,,,,,2024-03-13,1,,,,,リヒト,0
313,2140001133618,新規,0,2024-03-13,2024-03-13,銘神建設株式会社,,株式会社,兵庫県,神戸市長田区,丸山町１丁目６－１９－２０２号室,,28,106,6530875,,,,,,,2024-03-13,1,,,,,メイシンケンセツ,0
314,2140001133642,新規,0,2024-03-13,2024-03-13,東建金属株式会社,,株式会社,兵庫県,三木市,別所町下石野１４９６番１,,28,215,6730453,,,,,,,2024-03-13,1,,,,,トウケンキンゾク,0
332,2190001031172,新規,0,2024-03-13,2024-03-13,株式会社ＬＥＧＯＲＩＳ,,株式会社,三重県,四日市市,曙町６‐１５,,24,202,5100054,,,,,,,2024-03-13,1,,,,,レゴリス,0
356,2330003010259,新規,0,2024-03-13,2024-03-13,合同会社ライフサポート,,合同会社,熊本県,熊本市北区,植木町岩野１６５５番地,,43,105,8610136,,,,,,,2024-03-13,1,,,,,ライフサポート,0
365,2360001033309,新規,0,2024-03-13,2024-03-13,株式会社ＯＮＥ　ＳＴＥＰ,,株式会社,沖縄県,沖縄市,宮里１丁目２６番１３号,,47,211,9042165,,,,,,,2024-03-13,1,,,,,ワンステップ,0
367,2360003013787,新規,0,2024-03-13,2024-03-13,ミーヤク合同会社,,合同会社,沖縄県,宮古島市,平良字西里５５５番地ＺＵＭＩ　ＨＯＭＥマンション２０４室,,47,214,9060012,,,,,,,2024-03-13,1,,,,,ミーヤク,0
370,2370001051020,新規,0,2024-03-13,2024-03-13,株式会社鈴木建築,,株式会社,宮城県,宮城郡七ヶ浜町,松ヶ浜字謡３５番地の１７,,04,404,9850812,,,,,,,2024-03-13,1,,,,,スズキケンチク,0
381,3010001242827,新規,0,2024-03-13,2024-03-13,ＢＯＲＮＳＡＩ株式会社,,株式会社,東京都,千代田区,神田和泉町１番地６－１６ヤマトビル４０５,,13,101,1010024,,,,,,,2024-03-13,1,,,,,ボーンサイ,0
382,3010001243032,新規,0,2024-03-13,2024-03-13,極ホールディングス株式会社,,株式会社,東京都,中央区,銀座６丁目６番１号銀座風月堂ビル５Ｆ,,13,102,1040061,,,,,,,2024-03-13,1,,,,,キワミホールディングス,0
389,3010405023055,新規,0,2024-03-13,2024-03-13,ＧＳＳＧ　Ｓｏｌａｒ　Ｊａｐａｎ　Ｈｏｌｄｉｎｇｓ１４一般社団法人,,その他の設立登記法人,東京都,港区,赤坂１丁目１１番４４号赤坂インターシティ５階Ｍａｚａｒｓ・Ｊａｐａｎ株式会社内,,13,103,1070052,,,,,,,2024-03-13,1,,,,,ジーエスエスジーソーラージャパンホールディングスフォーティーン,0
395,3010601064803,新規,0,2024-03-13,2024-03-13,Ｒｕｔａ　Ａｓｓｅｔ　Ｍａｎａｇｅｍｅｎｔ株式会社,,株式会社,東京都,墨田区,錦糸３丁目１３番１２号,,13,107,1300013,,,,,,,2024-03-13,1,,,,,ルタアセットマネジメント,0
400,3010901054867,新規,0,2024-03-13,2024-03-13,株式会社ＳＩＴＵＲＡＥ,,株式会社,東京都,世田谷区,桜丘４丁目７－１９,,13,112,1560054,,,,,,,2024-03-13,1,,,,,シツラエ,0
407,3011001160465,新規,0,2024-03-13,2024-03-13,株式会社ネクストインパクト,,株式会社,東京都,渋谷区,渋谷２丁目１９番１５－６０９宮益坂ビルディング,,13,113,1500002,,,,,,,2024-03-13,1,,,,,ネクストインパクト,0
408,3011001160523,新規,0,2024-03-13,2024-03-13,株式会社ＳＡＮＣＯＫ,,株式会社,東京都,目黒区,東が丘１丁目１６番１７－１０５号,,13,110,1520021,,,,,,,2024-03-13,1,,,,,サンコック,0
409,3011001160556,新規,0,2024-03-13,2024-03-13,株式会社Ｍｙ　Ｃｈｏｉｃｅ,,株式会社,東京都,渋谷区,道玄坂１丁目１０番８号渋谷道玄坂東急ビル２Ｆ－Ｃ,,13,113,1500043,,,,,,,2024-03-13,1,,,,,マイチョイス,0
410,3011001160597,新規,0,2024-03-13,2024-03-13,株式会社エスプラス,,株式会社,東京都,目黒区,中町２丁目１１番５号,,13,110,1530065,,,,,,,2024-03-13,1,,,,,エスプラス,0
415,3011003018653,新規,0,2024-03-13,2024-03-13,ＴＨＥ　ＬＡＮＤ合同会社,,合同会社,東京都,目黒区,下目黒１丁目２番２２－５０４号,,13,110,1530064,,,,,,,2024-03-13,1,,,,,ザランド,0
424,3011703003764,新規,0,2024-03-13,2024-03-13,合同会社グローリーエクス,,合同会社,東京都,江戸川区,西葛西４丁目３－２５－８０２,,13,123,1340088,,,,,,,2024-03-13,1,,,,,グローリーエクス,0
428,3011801043910,新規,0,2024-03-13,2024-03-13,株式会社スパロウテイル,,株式会社,東京都,足立区,千住東２丁目６番２２号,,13,121,1200025,,,,,,,2024-03-13,1,,,,,スパロウテイル,0
430,3012401041593,新規,0,2024-03-13,2024-03-13,ＴＨＥ　ＢＩＧＬＥ株式会社,,株式会社,東京都,小金井市,貫井南町１丁目７番１５号（１５）,,13,210,1840014,,,,,,,2024-03-13,1,,,,,ザビグル,0
452,3040001132612,新規,0,2024-03-13,2024-03-13,株式会社タガタメ,,株式会社,千葉県,市原市,五井東３丁目４８－１,,12,219,2900055,,,,,,,2024-03-13,1,,,,,タガタメ,0
454,3040003024535,新規,0,2024-03-13,2024-03-13,合同会社北葉,,合同会社,千葉県,千葉市稲毛区,轟町４丁目２番１４号,,12,103,2630021,,,,,,,2024-03-13,1,,,,,ホクヨウ,0
457,3050001054442,新規,0,2024-03-13,2024-03-13,株式会社Ｒｅｂｏ,,株式会社,茨城県,古河市,下大野１５７３－１,,08,204,3060204,,,,,,,2024-03-13,1,,,,,レボ,0
465,3080403004967,新規,0,2024-03-13,2024-03-13,合同会社Ｈｐ,,合同会社,静岡県,磐田市,川袋１００５番地の１,,22,211,4380232,,,,,,,2024-03-13,1,,,,,エイチピー,0
469,3110003005321,新規,0,2024-03-13,2024-03-13,合同会社ｍｏｂｉｌｉｔｙ　Ｘ,,合同会社,新潟県,新潟市西区,西有明町１０－２,,15,107,9502071,,,,,,,2024-03-13,1,,,,,モビリティクロス,0
474,3120001262822,新規,0,2024-03-13,2024-03-13,浩恩株式会社,,株式会社,大阪府,大阪市西区,立売堀１丁目６番１３号南本町天祥ビル２号館２０９室,,27,106,5500012,,,,,,,2024-03-13,1,,,,,コウオン,0
475,3120001263003,新規,0,2024-03-13,2024-03-13,ザセット株式会社,,株式会社,大阪府,大阪市中央区,日本橋１丁目１７番１７－７０１号,,27,128,5420073,,,,,,,2024-03-13,1,,,,,ザセット,0
480,3120103005716,新規,0,2024-03-13,2024-03-13,ｍｅｉｓｉｊａｐａｎ合同会社,,合同会社,大阪府,堺市中区,深井北町６１番地１,,27,142,5998271,,,,,,,2024-03-13,1,,,,,メイシジャパン,0
490,3130005017032,新規,0,2024-03-13,2024-03-13,特定非営利活動法人みらいのとびら,,その他の設立登記法人,京都府,京都市中京区,西ノ京小倉町２２番８,,26,104,6048414,,,,,,,2024-03-13,1,,,,,ミライノトビラ,0
494,3140003020268,新規,0,2024-03-13,2024-03-13,ミライＵＰ合同会社,,合同会社,兵庫県,神戸市長田区,戸崎通１丁目２番１０－３０２号,,28,106,6530845,,,,,,,2024-03-13,1,,,,,ミライアップ,0
511,3290001105023,新規,0,2024-03-13,2024-03-13,株式会社クレスタ,,株式会社,福岡県,福岡市中央区,大名１丁目８－１８ロイヤルパークス大名１００４,,40,133,8100041,,,,,,,2024-03-13,1,,,,,クレスタ,0
518,3330001031842,新規,0,2024-03-13,2024-03-13,株式会社ｏｆｆｉｃｅ　ａｆｔｅｒｎｏｏｎ,,株式会社,熊本県,熊本市東区,長嶺南３丁目８番１０号,,43,102,8618039,,,,,,,2024-03-13,1,,,,,オフィスアフタヌーン,0
525,3340001026354,新規,0,2024-03-13,2024-03-13,株式会社ＥＮＯ,,株式会社,鹿児島県,鹿屋市,西原２丁目３４番１号,,46,203,8930064,,,,,,,2024-03-13,1,,,,,エンオ,0
529,3360001033316,新規,0,2024-03-13,2024-03-13,Ｆｒｅｅｄｏｍ音楽センター株式会社,,株式会社,沖縄県,名護市,宇茂佐の森３丁目３番地１０,,47,209,9050009,,,,,,,2024-03-13,1,,,,,フリーダムオンガクセンター,0
540,3430003016055,新規,0,2024-03-13,2024-03-13,合同会社Ｔ４号,,合同会社,北海道,札幌市中央区,南十一条西７丁目２－２１,,01,101,0640811,,,,,,,2024-03-13,1,,,,,ティーヨンゴウ,0
541,3470005006554,新規,0,2024-03-13,2024-03-13,一般社団法人さぬき絆隊,,その他の設立登記法人,香川県,丸亀市,中津町７５６番地５,,37,202,7630054,,,,,,,2024-03-13,1,,,,,サヌキキズナタイ,0
544,3480005007007,新規,0,2024-03-13,2024-03-13,一般社団法人まち猫フルネス,,その他の設立登記法人,徳島県,三好市,池田町大利大西１５番地,,36,208,7795164,,,,,,,2024-03-13,1,,,,,マチネコフルネス,0
548,3700150124418,新規,0,2024-03-13,2024-03-13,明原町会,,その他,千葉県,柏市,明原４丁目９番明原ふるさとセンター内,,12,217,2770843,,,,,,,2024-03-13,1,,,,,アケハラチョウカイ,0
560,4010001242999,新規,0,2024-03-13,2024-03-13,株式会社スターフーズ,,株式会社,東京都,千代田区,麹町２丁目６番７号ＳｔａｒＢｕｉｌｄｉｎｇ５階,,13,101,1020083,,,,,,,2024-03-13,1,,,,,スターフーズ,0
561,4010001243007,新規,0,2024-03-13,2024-03-13,ネオデジネット株式会社,,株式会社,東京都,千代田区,神田和泉町１番地６－１６ヤマトビル４０５,,13,101,1010024,,,,,,,2024-03-13,1,,,,,ネオデジネット,0
562,4010003043181,新規,0,2024-03-13,2024-03-13,合同会社ＳｕｎＱ　ＵＰ,,合同会社,東京都,千代田区,神田和泉町１番地６－１６ヤマトビル４０５,,13,101,1010024,,,,,,,2024-03-13,1,,,,,サンキューアップ,0
569,4010401180840,新規,0,2024-03-13,2024-03-13,株式会社ＲＣ,,株式会社,東京都,港区,赤坂６丁目１９番４５号コートモデリア六本木４０５,,13,103,1070052,,,,,,,2024-03-13,1,,,,,アールシー,0
570,4010401180931,新規,0,2024-03-13,2024-03-13,マネディク株式会社,,株式会社,東京都,港区,北青山１丁目３番１号アールキューブ青山３階,,13,103,1070061,,,,,,,2024-03-13,1,,,,,マネディク,0
573,4010405023054,新規,0,2024-03-13,2024-03-13,ＧＳＳＧ　Ｓｏｌａｒ　Ｊａｐａｎ　Ｈｏｌｄｉｎｇｓ１５一般社団法人,,その他の設立登記法人,東京都,港区,赤坂１丁目１１番４４号赤坂インターシティ５階Ｍａｚａｒｓ・Ｊａｐａｎ株式会社内,,13,103,1070052,,,,,,,2024-03-13,1,,,,,ジーエスエスジーソーラージャパンホールディングスフィフティーン,0
574,4010501051917,新規,0,2024-03-13,2024-03-13,株式会社ＣＬ　ＪＡＰＡＮ,,株式会社,東京都,台東区,下谷３丁目２－１２－３階,,13,106,1100004,,,,,,,2024-03-13,1,,,,,シーエルジャパン,0
584,4010901054858,新規,0,2024-03-13,2024-03-13,株式会社ｍｉｌｌｅｎｎｉｕｍ,,株式会社,東京都,世田谷区,北沢２丁目３０番１４号重宗ビル３Ｆ,,13,112,1550031,,,,,,,2024-03-13,1,,,,,ミレニアム,0
585,4010905004586,新規,0,2024-03-13,2024-03-13,一般社団法人日本血糖値協会,,その他の設立登記法人,東京都,世田谷区,成城６丁目５番３４号,,13,112,1570066,,,,,,,2024-03-13,1,,,,,ニホンケットウチキョウカイ,0
589,4011001160530,新規,0,2024-03-13,2024-03-13,ＳＫＫ準備株式会社,,株式会社,東京都,渋谷区,千駄ヶ谷５丁目２７番５号リンクスクエア新宿,,13,113,1510051,,,,,,,2024-03-13,1,,,,,エスケーケージュンビ,0
590,4011001160539,新規,0,2024-03-13,2024-03-13,株式会社ＴＥＴＥＣＨ,,株式会社,東京都,渋谷区,渋谷２丁目１９－１５宮益坂ビルディング６０９,,13,113,1500002,,,,,,,2024-03-13,1,,,,,テテック,0
591,4011001160555,新規,0,2024-03-13,2024-03-13,株式会社ふすま,,株式会社,東京都,渋谷区,広尾１丁目７番７－１０３号,,13,113,1500012,,,,,,,2024-03-13,1,,,,,フスマ,0
592,4011001160563,新規,0,2024-03-13,2024-03-13,株式会社Ｎｅｘｔｅｎｔｉｏｎ,,株式会社,東京都,渋谷区,神宮前４丁目１４番１３号ハイシティ表参道１１５号,,13,113,1500001,,,,,,,2024-03-13,1,,,,,ネクステンション,0
593,4011003018652,新規,0,2024-03-13,2024-03-13,合同会社アンリミテッド東京,,合同会社,東京都,渋谷区,神南１丁目１３番８号パークアヴェニュー神南１１０４,,13,113,1500041,,,,,,,2024-03-13,1,,,,,アンリミテッドトウキョウ,0
597,4011301004321,新規,0,2024-03-13,2024-03-13,第一拓殖株式会社,,株式会社,東京都,杉並区,荻窪１丁目１８番５号,,13,115,1670051,,,,,,,2024-03-13,1,,,,,,0
603,4013303007046,新規,0,2024-03-13,2024-03-13,合同会社フェニックス,,合同会社,東京都,豊島区,高松２丁目１４番１８号コアふくみ高松１０１号,,13,116,1710042,,,,,,,2024-03-13,1,,,,,フェニックス,0
609,4020001156182,新規,0,2024-03-13,2024-03-13,株式会社ＬＵＣＫ,,株式会社,神奈川県,横浜市南区,六ツ川１丁目３２０,,14,105,2320066,,,,,,,2024-03-13,1,,,,,ラック,0
610,4020001156199,新規,0,2024-03-13,2024-03-13,株式会社ＮｅｗｏｎｅＬｉｖｉｎｇ,,株式会社,神奈川県,横浜市西区,花咲町５丁目１３７－１プラウド横浜桜木町５０３,,14,103,2200022,,,,,,,2024-03-13,1,,,,,ニューワンリビング,0
633,4070001041479,新規,0,2024-03-13,2024-03-13,スターフィールド株式会社,,株式会社,群馬県,前橋市,北代田町２２０番地６,,10,201,3710055,,,,,,,2024-03-13,1,,,,,スターフィールド,0
637,4090001018590,新規,0,2024-03-13,2024-03-13,株式会社上條商店,,株式会社,山梨県,大月市,富浜町鳥沢３３１８番地５号,,19,206,4090502,,,,,,,2024-03-13,1,,,,,カミジョウショウテン,0
646,4120003026134,新規,0,2024-03-13,2024-03-13,Ｅｓａｋａ　ＡＲＥ　Ｇｌｏｂａｌ合同会社,,合同会社,大阪府,大阪市中央区,高麗橋４丁目３番７号淀屋橋総合会計内,,27,128,5410043,,,,,,,2024-03-13,1,,,,,エサカエーアールイーグローバル,0
647,4120005024193,新規,0,2024-03-13,2024-03-13,特定非営利活動法人友和会,,その他の設立登記法人,大阪府,大阪市北区,茶屋町６番２０号,,27,127,5300013,,,,,,,2024-03-13,1,,,,,ユウワカイ,0
650,4120101069191,新規,0,2024-03-13,2024-03-13,ＡＣＥ旅行株式会社,,株式会社,大阪府,堺市西区,鳳北町１０丁６２番地２,,27,144,5938328,,,,,,,2024-03-13,1,,,,,エースリョコウ,0
651,4120103005715,新規,0,2024-03-13,2024-03-13,合同会社壽音,,合同会社,大阪府,富田林市,藤沢台６丁目１３番３２号,,27,214,5840071,,,,,,,2024-03-13,1,,,,,コトネ,0
655,4122001037897,新規,0,2024-03-13,2024-03-13,株式会社ビヨンド・カンパニー,,株式会社,大阪府,東大阪市,豊浦町９－３,,27,227,5798031,,,,,,,2024-03-13,1,,,,,ビヨンドカンパニー,0
657,4130001076551,新規,0,2024-03-13,2024-03-13,心呉株式会社,,株式会社,京都府,京都市右京区,西京極畔勝町５４番地１－７３０号,,26,108,6150806,,,,,,,2024-03-13,1,,,,,ココロゴ,0
665,4140001133566,新規,0,2024-03-13,2024-03-13,株式会社ミックウェアチャレンジド,,株式会社,兵庫県,神戸市中央区,浪花町５９番地,,28,110,6500035,,,,,,,2024-03-13,1,,,,,ミックウェアチャレンジド,0
666,4140003020267,新規,0,2024-03-13,2024-03-13,合同会社ｌｏｏｌ,,合同会社,兵庫県,尼崎市,西難波町５丁目２番３０号,,28,202,6600893,,,,,,,2024-03-13,1,,,,,,0
672,4180303006029,新規,0,2024-03-13,2024-03-13,合同会社ベル産業医オフィス,,合同会社,愛知県,刈谷市,相生町２丁目２０番地パークホテル刈谷ＱＳ２階,,23,210,4480027,,,,,,,2024-03-13,1,,,,,ベルサンギョウイオフィス,0
684,4290001104981,新規,0,2024-03-13,2024-03-13,聖諾株式会社,,株式会社,福岡県,福岡市中央区,警固１丁目４－１１フローレス警固４０２号室,,40,133,8100023,,,,,,,2024-03-13,1,,,,,セイダク,0
686,4290003015046,新規,0,2024-03-13,2024-03-13,合同会社Ｒｏｙ　Ｇ．Ｂｉｖ,,合同会社,福岡県,福岡市中央区,天神３丁目６番３６号第一黒田ビル４０１号室,,40,133,8100001,,,,,,,2024-03-13,1,,,,,ロイジービー,0
690,4290803004644,新規,0,2024-03-13,2024-03-13,合同会社サチヤ,,合同会社,福岡県,北九州市八幡西区,平尾町８番２－１０４号,,40,109,8060018,,,,,,,2024-03-13,1,,,,,サチヤ,0
692,4310003004748,新規,0,2024-03-13,2024-03-13,Ｙａｍａｔｏ　Ｌａｂｏ合同会社,,合同会社,長崎県,雲仙市,瑞穂町西郷戊２７４番地１,,42,213,8591211,,,,,,,2024-03-13,1,,,,,ヤマトラボ,0
693,4320001020341,新規,0,2024-03-13,2024-03-13,株式会社Ｂｅｅｇｌｅ,,株式会社,大分県,豊後高田市,森７５６番地１,,44,209,8790611,,,,,,,2024-03-13,1,,,,,ビーグル,0
705,4420003002889,新規,0,2024-03-13,2024-03-13,合同会社エーリオ,,合同会社,青森県,青森市,浪館前田１丁目２０番１７号１号,,02,201,0380024,,,,,,,2024-03-13,1,,,,,エーリオ,0
706,4430001091280,新規,0,2024-03-13,2024-03-13,株式会社チームアルファ,,株式会社,北海道,札幌市西区,二十四軒一条６丁目６－１０,,01,107,0630801,,,,,,,2024-03-13,1,,,,,チームアルファ,0
708,4430003016054,新規,0,2024-03-13,2024-03-13,合同会社Ｔ３号,,合同会社,北海道,札幌市中央区,南十一条西７丁目２－２１,,01,101,0640811,,,,,,,2024-03-13,1,,,,,ティーサンゴウ,0
709,4470001020070,新規,0,2024-03-13,2024-03-13,ＢＡＩＧ　ＴＲＡＤＩＮＧ株式会社,,株式会社,香川県,三豊市,豊中町下高野２５２５下高野オフィスビルＡ－３,,37,208,7691508,,,,,,,2024-03-13,1,,,,,バイグトレーディング,0
714,4700150124417,新規,0,2024-03-13,2024-03-13,Ｆｉｎａｎｃｅ　ｗｉｔｈ　Ｈａｎａｋｏ，ＬＬＣ,,外国会社等,埼玉県,北葛飾郡杉戸町,高野台南２丁目１３－１１,,11,464,3450046,５１５　Ｓ．　ＭＥＹＬＥＲ　ＳＴ　＃２０　ＳＡＮ　ＰＥＤＲＯ，ＣＡ　９０７３１,,,,,,2024-03-13,1,,,,,ファイナンスウィズハナコエルエルシー,0
724,5010001242981,新規,0,2024-03-13,2024-03-13,株式会社ＧＡＴＨＥＲ,,株式会社,東京都,千代田区,丸の内１丁目１１番１号パシフィックセンチュリー丸の内１３Ｆ,,13,101,1000005,,,,,,,2024-03-13,1,,,,,ギャザー,0
725,5010001243006,新規,0,2024-03-13,2024-03-13,株式会社大成住信,,株式会社,東京都,千代田区,神田錦町３丁目１９番地４ＡＣＮ神田錦町ビル１０Ｆ,,13,101,1010054,,,,,,,2024-03-13,1,,,,,タイセイジュウシン,0
726,5010001243014,新規,0,2024-03-13,2024-03-13,株式会社Ｂｏｘ,,株式会社,東京都,千代田区,紀尾井町４番１号,,13,101,1020094,,,,,,,2024-03-13,1,,,,,ボックス,0
731,5010005038030,新規,0,2024-03-13,2024-03-13,一般社団法人自然エネルギーＳＩＰＰ１２,,その他の設立登記法人,東京都,中央区,日本橋本町２丁目４番７号,,13,102,1030023,,,,,,,2024-03-13,1,,,,,シゼンエネルギーエスアイピーピージュウニ,0
739,5010403032147,新規,0,2024-03-13,2024-03-13,合同会社藤光クリーンエナジー,,合同会社,東京都,港区,愛宕１丁目６番８号,,13,103,1050002,,,,,,,2024-03-13,1,,,,,フジコウクリーンエナジー,0
741,5010405023053,新規,0,2024-03-13,2024-03-13,Ｈｏｋｋａｉｄｏ　Ｚｅｒｏ　Ｃａｒｂｏｎ　Ｌａｎｄ一般社団法人,,その他の設立登記法人,東京都,港区,赤坂１丁目１１番４４号赤坂インターシティ５階Ｍａｚａｒｓ・Ｊａｐａｎ株式会社内,,13,103,1070052,,,,,,,2024-03-13,1,,,,,ホッカイドウゼロカーボンランド,0
742,5010501051924,新規,0,2024-03-13,2024-03-13,株式会社Ｄｒｏｏｐｉｎｇ　ｅｙｅｓ,,株式会社,東京都,台東区,入谷１丁目２７番５号共栄入谷ビル１０階,,13,106,1100013,,,,,,,2024-03-13,1,,,,,ドルーピングアイズ,0
743,5010701045684,新規,0,2024-03-13,2024-03-13,株式会社Ｍｒ．小僧,,株式会社,東京都,品川区,東五反田５丁目２番６－８０１号,,13,109,1410022,,,,,,,2024-03-13,1,,,,,ミスターコゾウ,0
745,5010805003101,新規,0,2024-03-13,2024-03-13,医療法人社団証仁会,,その他の設立登記法人,東京都,大田区,西蒲田８丁目１番５号東急西蒲田ビル２階,,13,111,1440051,,,,,,,2024-03-13,1,,,,,ショウジンカイ,0
751,5011001160538,新規,0,2024-03-13,2024-03-13,ＭＡＮＥＴ　Ｔｅｃｈｎｏｌｏｇｉｅｓ株式会社,,株式会社,東京都,目黒区,下目黒２丁目１４番１０号ヴィラコート下目黒２０４,,13,110,1530064,,,,,,,2024-03-13,1,,,,,マネテクノロジーズ,0
752,5011001160546,新規,0,2024-03-13,2024-03-13,中小企業Ｍ＆Ａ相談所株式会社,,株式会社,東京都,渋谷区,代々木１丁目３６番１号,,13,113,1510053,,,,,,,2024-03-13,1,,,,,チュウショウキギョウエムアンドエーソウダンジョ,0
753,5011001160554,新規,0,2024-03-13,2024-03-13,日本リヴウェル株式会社,,株式会社,東京都,渋谷区,神宮前６丁目２９番４号原宿ｋｏｍｉｙａビル６階,,13,113,1500001,,,,,,,2024-03-13,1,,,,,ニホンリヴウェル,0
754,5011001160587,新規,0,2024-03-13,2024-03-13,株式会社ｃｏｍｍｉｔｍｅｎｔ,,株式会社,東京都,渋谷区,渋谷１丁目２番５号８階,,13,113,1500002,,,,,,,2024-03-13,1,,,,,コミットメント,0
755,5011003018651,新規,0,2024-03-13,2024-03-13,合同会社ＷｈｅｎＷｈｅｒｅ,,合同会社,東京都,渋谷区,神宮前６丁目２３番４号,,13,113,1500001,,,,,,,2024-03-13,1,,,,,ウェンウェア,0
756,5011005010417,新規,0,2024-03-13,2024-03-13,医療法人社団ＴＥＭ,,その他の設立登記法人,東京都,渋谷区,神南１丁目１１番１号渋谷市野ビルＢ１Ｆ,,13,113,1500041,,,,,,,2024-03-13,1,,,,,テム,0
776,5013301052200,新規,0,2024-03-13,2024-03-13,株式会社サイバーパンク,,株式会社,東京都,豊島区,池袋２丁目５９－２,,13,116,1710014,,,,,,,2024-03-13,1,,,,,サイバーパンク,0
780,5020003025723,新規,0,2024-03-13,2024-03-13,大栄土地建物合同会社,,合同会社,神奈川県,川崎市麻生区,王禅寺東３丁目３番１４号,,14,137,2150018,,,,,,,2024-03-13,1,,,,,,0
789,5040001132610,新規,0,2024-03-13,2024-03-13,株式会社商業藝術研究所,,株式会社,千葉県,千葉市花見川区,幕張本郷７丁目２８－１林田マンション３Ｆ,,12,102,2620033,,,,,,,2024-03-13,1,,,,,ショウギョウゲイジュツケンキュウジョ,0
797,5060003004938,新規,0,2024-03-13,2024-03-13,カレント合同会社,,合同会社,栃木県,塩谷郡高根沢町,光陽台５丁目１１－４－Ａ,,09,386,3291232,,,,,,,2024-03-13,1,,,,,カレント,0
811,5120001263018,新規,0,2024-03-13,2024-03-13,株式会社ＳｐａＡｎａｎａ,,株式会社,大阪府,大阪市浪速区,桜川１丁目２番２０号,,27,111,5560022,,,,,,,2024-03-13,1,,,,,スパアナナ,0
812,5120001263050,新規,0,2024-03-13,2024-03-13,株式会社サスカ,,株式会社,大阪府,大阪市中央区,今橋２丁目２番１７号グロース北浜ビルディング８Ｆ,,27,128,5410042,,,,,,,2024-03-13,1,,,,,サスカ,0
813,5120001263133,新規,0,2024-03-13,2024-03-13,Ｎｅｗ　Ａｇｅ株式会社,,株式会社,大阪府,大阪市西成区,萩之茶屋２丁目８－３ハイツニューコンパ１０５号,,27,122,5570004,,,,,,,2024-03-13,1,,,,,ニューエイジ,0
815,5120003026125,新規,0,2024-03-13,2024-03-13,合同会社Ｒｉｎ,,合同会社,大阪府,大阪市住吉区,庭井１丁目１番１２号,,27,120,5580012,,,,,,,2024-03-13,1,,,,,リン,0
823,5122005003738,新規,0,2024-03-13,2024-03-13,一般社団法人新星館,,その他の設立登記法人,大阪府,東大阪市,宝持１丁目２番１８号,,27,227,5770805,,,,,,,2024-03-13,1,,,,,シンセイカン,0
837,5180305009549,新規,0,2024-03-13,2024-03-13,一般社団法人全国寺社デジタル化情報協会,,その他の設立登記法人,愛知県,岡崎市,美合町字生田２２５番地,,23,202,4440804,,,,,,,2024-03-13,1,,,,,ゼンコクジシャデジタルカジョウホウキョウカイ,0
845,5270001008928,新規,0,2024-03-13,2024-03-13,株式会社ライズエステート,,株式会社,鳥取県,境港市,中野町１８００番地１,,31,204,6840041,,,,,,,2024-03-13,1,,,,,ライズエステート,0
849,5290005019317,新規,0,2024-03-13,2024-03-13,一般社団法人ＢＥＡＵＴＩＦＵＬ　ＥＡＲＴＨ　ＪＡＰＡＮ,,その他の設立登記法人,福岡県,糸島市,前原中央２丁目２番２１号２Ｆ,,40,230,8191116,,,,,,,2024-03-13,1,,,,,ビューティフルアースジャパン,0
861,5360001033306,新規,0,2024-03-13,2024-03-13,株式会社ライオン・ビルメンテナンス,,株式会社,沖縄県,石垣市,字大川５３３番地１,,47,207,9070022,,,,,,,2024-03-13,1,,,,,ライオンビルメンテナンス,0
864,5360005007000,新規,0,2024-03-13,2024-03-13,一般社団法人Ｏｋｉｎａｗａ　Ｃｈｕｒｃｈ　ｏｆ　Ｇｏｄ,,その他の設立登記法人,沖縄県,宜野湾市,大山２丁目２３番１２号,,47,205,9012223,,,,,,,2024-03-13,1,,,,,オキナワチャーチオブゴット,0
866,5370003006515,新規,0,2024-03-13,2024-03-13,合同会社エナー,,合同会社,宮城県,仙台市青葉区,昭和町４－９－３０７,,04,101,9810913,,,,,,,2024-03-13,1,,,,,エナー,0
876,5430001091263,新規,0,2024-03-13,2024-03-13,株式会社山ＤＥＳＩＧＮ　ＯＦＦＩＣＥ,,株式会社,北海道,札幌市北区,北三十四条西１０丁目６番２１号田中ビル,,01,102,0010034,,,,,,,2024-03-13,1,,,,,ヤマデザインオフィス,0
880,5500003003201,新規,0,2024-03-13,2024-03-13,合同会社コーシン,,合同会社,愛媛県,松山市,道後姫塚乙１２番地２道後姫塚ハイツ６０４号,,38,201,7900858,,,,,,,2024-03-13,1,,,,,コーシン,0
882,5700150124432,新規,0,2024-03-13,2024-03-13,カシミヤワークスジャパン株式会社,,外国会社等,東京都,渋谷区,東１丁目１８番２号,,13,113,1500011,中華人民共和国ホンコン・カオルン・クントン・ホントーロード・４４－４６・センチュリーセンター５階,,,,,,2024-03-13,1,,,,,カシミヤワークスジヤパンカブシキガイシヤ,0
889,6010001242972,新規,0,2024-03-13,2024-03-13,ＢＩＧ　ＥＹＥＳ　ＣＯＮＳＵＬＴＩＮＧ株式会社,,株式会社,東京都,千代田区,神田平河町１番地第３東ビル５Ｆ,,13,101,1010027,,,,,,,2024-03-13,1,,,,,ビッグアイズコンサルティング,0
898,6010403032121,新規,0,2024-03-13,2024-03-13,ＡＩプロモーション合同会社,,合同会社,東京都,港区,南青山１丁目２１番７号ＭＡＬＵＬＡＮＩ南青山４０２,,13,103,1070062,,,,,,,2024-03-13,1,,,,,エーアイプロモーション,0
899,6010501051923,新規,0,2024-03-13,2024-03-13,日本力天株式会社,,株式会社,東京都,台東区,台東２丁目３１番１０号第２掛川ビル１２２号室,,13,106,1100016,,,,,,,2024-03-13,1,,,,,ニホンリョクテン,0
900,6010601064742,新規,0,2024-03-13,2024-03-13,ミナモトＯＮＥ株式会社,,株式会社,東京都,江東区,東雲１丁目９番１１－４１８号,,13,108,1350062,,,,,,,2024-03-13,1,,,,,ミナモトワン,0
901,6010803004876,新規,0,2024-03-13,2024-03-13,ラビットソフト合同会社,,合同会社,東京都,大田区,東矢口２丁目６番１９号,,13,111,1460094,,,,,,,2024-03-13,1,,,,,ラビットソフト,0
903,6010901054757,新規,0,2024-03-13,2024-03-13,Ｙｏｕｒ　ｏｗｎ　Ｌｉｆｅ株式会社,,株式会社,東京都,世田谷区,瀬田４丁目２８－７,,13,112,1580095,,,,,,,2024-03-13,1,,,,,ユアオウンライフ,0
906,6011001160537,新規,0,2024-03-13,2024-03-13,ルーラル株式会社,,株式会社,東京都,渋谷区,神南１丁目１１番５号ダイネス壱番館１００５,,13,113,1500041,,,,,,,2024-03-13,1,,,,,ルーラル,0
907,6011001160553,新規,0,2024-03-13,2024-03-13,株式会社ＫＭＥ,,株式会社,東京都,渋谷区,恵比寿南１丁目１番１号,,13,113,1500022,,,,,,,2024-03-13,1,,,,,ケーエムイー,0
908,6011003018659,新規,0,2024-03-13,2024-03-13,合同会社Ａｃｅ　ｆｉｃｔｉｏｎ,,合同会社,東京都,渋谷区,渋谷２丁目１９－１５宮益坂ビルディング６０９,,13,113,1500002,,,,,,,2024-03-13,1,,,,,エースフィクション,0
916,6011101106530,新規,0,2024-03-13,2024-03-13,株式会社美翔,,株式会社,東京都,新宿区,西新宿３丁目１番３号西新宿小出ビル１階,,13,104,1600023,,,,,,,2024-03-13,1,,,,,ビショウ,0
918,6011103014194,新規,0,2024-03-13,2024-03-13,浦安プロパティーズ合同会社,,合同会社,東京都,新宿区,四谷２丁目９番地１５東京ユナイテッド綜合事務所内,,13,104,1600004,,,,,,,2024-03-13,1,,,,,ウラヤスプロパティーズ,0
919,6011103014203,新規,0,2024-03-13,2024-03-13,合同会社ＧＲＡＮ,,合同会社,東京都,新宿区,西新宿３丁目３番１３号西新宿水間ビル６階,,13,104,1600023,,,,,,,2024-03-13,1,,,,,グラン,0
926,6011605002572,新規,0,2024-03-13,2024-03-13,医療法人社団慶望会,,その他の設立登記法人,東京都,練馬区,貫井３丁目１１番１２号ジョイントビル３階,,13,120,1760021,,,,,,,2024-03-13,1,,,,,ケイボウカイ,0
928,6011801043841,新規,0,2024-03-13,2024-03-13,株式会社リアズ・インターナショナル,,株式会社,東京都,葛飾区,新小岩４丁目１０番７号メッサしんこいわ１０２,,13,122,1240024,,,,,,,2024-03-13,1,,,,,リアズインターナショナル,0
929,6011801043916,新規,0,2024-03-13,2024-03-13,株式会社いろりの里,,株式会社,東京都,葛飾区,堀切１丁目２３番２１号,,13,122,1240006,,,,,,,2024-03-13,1,,,,,イロリノサト,0
933,6012701018132,新規,0,2024-03-13,2024-03-13,Ｚｅｎ　Ｓｔｕｄｉｏ株式会社,,株式会社,東京都,清瀬市,元町１丁目１３番２１号エメラルドハイツ１０１－１０１号室－Ｋ,,13,221,2040021,,,,,,,2024-03-13,1,,,,,ゼンスタジオ,0
934,6013301052199,新規,0,2024-03-13,2024-03-13,ＹＯＹＯ株式会社,,株式会社,東京都,豊島区,目白５丁目１４－２,,13,116,1710031,,,,,,,2024-03-13,1,,,,,ヨーヨー,0
940,6020001156214,新規,0,2024-03-13,2024-03-13,株式会社ウガホームサービス,,株式会社,神奈川県,横浜市西区,北幸２丁目１０－４８むつみビル３階,,14,103,2200004,,,,,,,2024-03-13,1,,,,,ウガホームサービス,0
958,6030003023808,新規,0,2024-03-13,2024-03-13,合同会社Ｗｉｓｄｏｍ,,合同会社,埼玉県,八潮市,大字南川崎９４７番地３ステラ八潮２０１,,11,234,3400814,,,,,,,2024-03-13,1,,,,,ウィズダム,0
964,6040001132584,新規,0,2024-03-13,2024-03-13,澤食飲食株式会社,,株式会社,千葉県,柏市,酒井根６丁目２７番３号,,12,217,2770053,,,,,,,2024-03-13,1,,,,,サワショクインショク,0
970,6070001041477,新規,0,2024-03-13,2024-03-13,Ｋ＆Ｍホールディングス株式会社,,株式会社,群馬県,太田市,細谷町３３６番地１,,10,205,3730842,,,,,,,2024-03-13,1,,,,,ケイアンドエムホールディングス,0
982,6120001263074,新規,0,2024-03-13,2024-03-13,株式会社ＳＵＮＰＩＮ　ＪＡＰＡＮ,,株式会社,大阪府,大阪市中央区,南船場２丁目６番３号第２ＢＳビル６０１号室,,27,128,5420081,,,,,,,2024-03-13,1,,,,,サンピンジャパン,0
988,6120003026124,新規,0,2024-03-13,2024-03-13,富通合同会社,,合同会社,大阪府,大阪市生野区,新今里４丁目４－５ジョイフルマンション３０１号室,,27,116,5440001,,,,,,,2024-03-13,1,,,,,トミツウ,0
990,6120005024183,新規,0,2024-03-13,2024-03-13,一般社団法人結プロジェクト,,その他の設立登記法人,大阪府,大阪市北区,梅田１丁目２番２号,,27,127,5300001,,,,,,,2024-03-13,1,,,,,ムスビプロジェクト,0
1007,6140001133647,新規,0,2024-03-13,2024-03-13,Ｓｏｌａｒｉｓ　Ｅｎｅｒｇｙ株式会社,,株式会社,兵庫県,西宮市,浜甲子園１丁目１０番１号,,28,204,6638154,,,,,,,2024-03-13,1,,,,,ソラリスエナジー,0
1008,6140001133663,新規,0,2024-03-13,2024-03-13,株式会社ＥＮＶＹ,,株式会社,兵庫県,神戸市中央区,磯辺通１丁目１番１８号カサベラ国際プラザビル７０７号室,,28,110,6510084,,,,,,,2024-03-13,1,,,,,エンヴィー,0
1014,6180301038410,新規,0,2024-03-13,2024-03-13,Ｂｅｌｉｎｈａ　Ｆｏｏｄｓ株式会社,,株式会社,愛知県,高浜市,田戸町７丁目６番地２８,,23,227,4441323,,,,,,,2024-03-13,1,,,,,ベリンヤフーズ,0
1020,6230001020241,新規,0,2024-03-13,2024-03-13,株式会社ＬＥＰＬＵＳ,,株式会社,富山県,富山市,呉羽町２０７０番地３１,,16,201,9300138,,,,,,,2024-03-13,1,,,,,レプラス,0
1027,6290001105029,新規,0,2024-03-13,2024-03-13,株式会社友昇,,株式会社,福岡県,糟屋郡粕屋町,大字大隈１２６６番地２－２０２号,,40,349,8112302,,,,,,,2024-03-13,1,,,,,ユウショウ,0
1028,6290001105037,新規,0,2024-03-13,2024-03-13,Ｆｏｏｄｍｅｎｕ．ｗｏｒｌｄ株式会社,,株式会社,福岡県,福岡市中央区,天神２丁目２番１２号Ｔ＆Ｊビルディング７Ｆ,,40,133,8100001,,,,,,,2024-03-13,1,,,,,フードメニュードットワールド,0
1035,6330001031848,新規,0,2024-03-13,2024-03-13,株式会社田中自動車,,株式会社,熊本県,熊本市北区,貢町１４９番地９,,43,105,8615535,,,,,,,2024-03-13,1,,,,,タナカジドウシャ,0
1038,6350001018827,新規,0,2024-03-13,2024-03-13,株式会社みんなで,,株式会社,宮崎県,宮崎市,下北方町下郷５９７９番地３,,45,201,8800035,,,,,,,2024-03-13,1,,,,,ミンナデ,0
1044,6370003006514,新規,0,2024-03-13,2024-03-13,合同会社Ｔｒｕｅ　Ｃｏｌｏｒｓ,,合同会社,宮城県,仙台市青葉区,台原森林公園１番１－１４０３号,,04,101,9810903,,,,,,,2024-03-13,1,,,,,トゥルーカラーズ,0
1045,6380001034350,新規,0,2024-03-13,2024-03-13,株式会社Ｍ’ｓ,,株式会社,福島県,いわき市,常磐上湯長谷町扇田４７番地の５,,07,204,9728322,,,,,,,2024-03-13,1,,,,,,0
1048,6420005007884,新規,0,2024-03-13,2024-03-13,特定非営利活動法人Ｍｏｔｉｏｎ,,その他の設立登記法人,青森県,黒石市,大字横町１４番地４号ストゼン＋２０３号室,,02,204,0360368,,,,,,,2024-03-13,1,,,,,モーション,0
1056,6450005004400,新規,0,2024-03-13,2024-03-13,医療法人社団つながる輪,,その他の設立登記法人,北海道,旭川市,宮下通７丁目３８９７番地１旭川駅前ビル４階,,01,204,0700030,,,,,,,2024-03-13,1,,,,,ツナガルワ,0
1057,6470001020069,新規,0,2024-03-13,2024-03-13,ＵＳ　ＴＲＡＤＩＮＧ株式会社,,株式会社,香川県,三豊市,豊中町下高野２５２５下高野オフィスビルＢ－２,,37,208,7691508,,,,,,,2024-03-13,1,,,,,ユーエストレーディング,0
1062,6700150124431,新規,0,2024-03-13,2024-03-13,Ｆｏｓｈａｎ　Ｘｉｎｓｈｕｉ　Ｔｅｃｈｎｏｌｏｇｙ　Ｃｏ．，Ｌｔｄ,,外国会社等,,,,,,,,３０１Ａ，３／Ｆ，Ｗｅｓｔ　Ｂｌｏｃｋ，Ｄｅｓｉｇｎ　Ｃｉｔｙ　ＩＩ，Ｎｏ．１　Ｓａｎｌｅ　Ｒｏａｄ　Ｎｏｒｔｈ，Ｄｅｓｉｇｎ　Ｃｉｔｙ　Ｃｏｍｍｕｎｉｔｙ，Ｂｅｉｊｉａｏ　Ｔｏｗｎ，Ｓｈｕｎｄｅ　Ｄｉｓｔｒｉｃｔ，Ｆｏｓｈａｎ　Ｃｉｔｙ，Ｇｕａｎｇｄｏｎｇ　Ｐｒｏｖｉｎｃｅ，５２８３１２　ＣＮ,00134042,,,,,2024-03-13,1,,,,,フォーシャンシンシュイコージーヨウシエンゴンスー,0
1068,7010001242996,新規,0,2024-03-13,2024-03-13,株式会社Ｏｃｔｏｗｏｏｄｓ,,株式会社,東京都,中央区,八丁堀２丁目４番１号,,13,102,1040032,,,,,,,2024-03-13,1,,,,,オクトウッズ,0
1069,7010001243004,新規,0,2024-03-13,2024-03-13,Ｗｈａｌｅｃｏ　Ｊａｐａｎ株式会社,,株式会社,東京都,中央区,日本橋３丁目９番１号日本橋三丁目スクエア１１階,,13,102,1030027,,,,,,,2024-03-13,1,,,,,ホエールコジャパン,0
1071,7010005038020,新規,0,2024-03-13,2024-03-13,一般社団法人ＳｕＦＩＡ,,その他の設立登記法人,東京都,千代田区,丸の内３丁目２番２号丸の内二重橋ビル４階,,13,101,1000005,,,,,,,2024-03-13,1,,,,,スフィア,0
1072,7010005038029,新規,0,2024-03-13,2024-03-13,一般社団法人自然エネルギーＳＩＰＰ１１,,その他の設立登記法人,東京都,中央区,日本橋本町２丁目４番７号,,13,102,1030023,,,,,,,2024-03-13,1,,,,,シゼンエネルギーエスアイピーピージュウイチ,0
1078,7010401180805,新規,0,2024-03-13,2024-03-13,株式会社ｓｃｒａｍｂｌｅ,,株式会社,東京都,港区,赤坂５丁目１番２８号Ｒｅｆｉａｎｔｃｅｄｅｒ赤坂１０３号室,,13,103,1070052,,,,,,,2024-03-13,1,,,,,スクランブル,0
1082,7010501051922,新規,0,2024-03-13,2024-03-13,融暉株式会社,,株式会社,東京都,台東区,三ノ輪２丁目３番８－１０１号,,13,106,1100011,,,,,,,2024-03-13,1,,,,,ユウキ,0
1112,7011001160552,新規,0,2024-03-13,2024-03-13,ブルーアークコンサルティング株式会社,,株式会社,東京都,渋谷区,恵比寿４丁目２０－３恵比寿ガーデンプレイスタワー１８階,,13,113,1500013,,,,,,,2024-03-13,1,,,,,ブルーアークコンサルティング,0
1113,7011001160602,新規,0,2024-03-13,2024-03-13,株式会社エムアンドコンサルティング,,株式会社,東京都,渋谷区,渋谷３丁目１番９号ＹＡＺＡＷＡビル３Ｆ,,13,113,1500002,,,,,,,2024-03-13,1,,,,,エムアンドコンサルティング,0
1117,7011101106505,新規,0,2024-03-13,2024-03-13,株式会社芳真会,,株式会社,東京都,新宿区,新宿１丁目２６－１２四谷御苑マンション８０４,,13,104,1600022,,,,,,,2024-03-13,1,,,,,ホウシンカイ,0
1119,7011103014193,新規,0,2024-03-13,2024-03-13,沖縄糸満プロパティーズ合同会社,,合同会社,東京都,新宿区,四谷２丁目９番地１５東京ユナイテッド綜合事務所内,,13,104,1600004,,,,,,,2024-03-13,1,,,,,オキナワイトマンプロパティーズ,0
1125,7011403004299,新規,0,2024-03-13,2024-03-13,合同会社ＳＴＯＮＥ,,合同会社,東京都,板橋区,若木３丁目２５番１３号リブリ・プレジール志村三丁目１０５,,13,119,1740065,,,,,,,2024-03-13,1,,,,,ストーン,0
1127,7011801043898,新規,0,2024-03-13,2024-03-13,株式会社Ｆｏｒｔｕｎｅ,,株式会社,東京都,足立区,西新井本町５丁目２番４－１０５号,,13,121,1230845,,,,,,,2024-03-13,1,,,,,フォーチュン,0
1133,7012703002918,新規,0,2024-03-13,2024-03-13,合同会社ノルエイジ,,合同会社,東京都,東久留米市,東本町３―１０―１０１,,13,222,2030014,,,,,,,2024-03-13,1,,,,,ノルエイジ,0
1134,7012803003337,新規,0,2024-03-13,2024-03-13,ＤＥＳＩＧＮ　ＴＡＺＡ合同会社,,合同会社,東京都,国立市,東１丁目１５番地の１１、４４８ビル３Ｆ,,13,215,1860002,,,,,,,2024-03-13,1,,,,,デザインタザ,0
1138,7020001156205,新規,0,2024-03-13,2024-03-13,株式会社ＮｅｘｔＡｖａｉｌ,,株式会社,神奈川県,横浜市栄区,鍛冶ケ谷町４５２番地２３４,,14,115,2470003,,,,,,,2024-03-13,1,,,,,ネクストアヴェイル,0
1139,7020003025688,新規,0,2024-03-13,2024-03-13,合同会社キミトミライ,,合同会社,神奈川県,横浜市西区,浅間町１丁目４番３号ウィザードビル４０２,,14,103,2200072,,,,,,,2024-03-13,1,,,,,キミトミライ,0
1140,7020003025721,新規,0,2024-03-13,2024-03-13,Ｄ＆Ｔ合同会社,,合同会社,神奈川県,川崎市川崎区,元木２丁目５番２１号,,14,131,2100021,,,,,,,2024-03-13,1,,,,,ディーアンドティー,0
1170,7060003004960,新規,0,2024-03-13,2024-03-13,合同会社香り甘茶の丸,,合同会社,栃木県,真岡市,長田２丁目３２－１５,,09,209,3214364,,,,,,,2024-03-13,1,,,,,カオリアマチャノマル,0
1176,7070003005314,新規,0,2024-03-13,2024-03-13,Ｍ・Ｔ・Ｒ　ＣＯＲＰＯＲＡＴＩＯＮ合同会社,,合同会社,群馬県,桐生市,川内町５丁目３３０４番地の５フォレストハイツＡ,,10,203,3760041,,,,,,,2024-03-13,1,,,,,エムティーアールコーポレーション,0
1229,7290001105028,新規,0,2024-03-13,2024-03-13,株式会社ＹＯＵ,,株式会社,福岡県,福岡市博多区,博多駅前３丁目１２番３号玉井親和ビル７－Ｅ,,40,132,8120011,,,,,,,2024-03-13,1,,,,,ユウ,0
1234,7330001031847,新規,0,2024-03-13,2024-03-13,株式会社押忍モーター,,株式会社,熊本県,熊本市南区,城南町さんさん２丁目８－４,,43,104,8614206,,,,,,,2024-03-13,1,,,,,,0
1239,7380003005712,新規,0,2024-03-13,2024-03-13,トップリフォームジャパン合同会社,,合同会社,福島県,双葉郡広野町,大字下北迫字岩沢３１番地６３（２５号室）,,07,541,9790402,,,,,,,2024-03-13,1,,,,,トップリフォームジャパン,0
1242,7390001017551,新規,0,2024-03-13,2024-03-13,後藤鋼業株式会社,,株式会社,山形県,東村山郡山辺町,大字山辺１６１番地１０,,06,301,9900301,,,,,,,2024-03-13,1,,,,,ゴトウコウギョウ,0
1245,7450005004399,新規,0,2024-03-13,2024-03-13,医療法人蒼雪舎,,その他の設立登記法人,北海道,旭川市,大町三条６丁目２３９７－３１大町イチフジビル２階,,01,204,0700843,,,,,,,2024-03-13,1,,,,,ソウセツシャ,0
1253,7700150124430,新規,0,2024-03-13,2024-03-13,深＿市高石半導体科技有限公司,00134044,外国会社等,群馬県,太田市,飯田町１８９番地青田ビル２Ｆ,,10,205,3730851,中華人民共和国広東省深＿市福田区沙頭街道天安社区泰然六路泰然蒼松大厦十九層１９０１－０９２,00134045,,,,,2024-03-13,1,,,,,シンセンシタカイシハンドウタイカギユウゲンコウシ,0
1264,8010005038036,新規,0,2024-03-13,2024-03-13,豊田インベストメンツ特定目的会社,,その他の設立登記法人,東京都,千代田区,霞が関３丁目２番１号,,13,101,1000013,,,,,,,2024-03-13,1,,,,,トヨタインベストメンツ,0
1269,8010601064567,新規,0,2024-03-13,2024-03-13,株式会社Ｅｎｄｌｅｓｓ　Ｒｏｌｌ,,株式会社,東京都,江東区,大島４丁目５－１４－１３０２,,13,108,1360072,,,,,,,2024-03-13,1,,,,,エンドレスロール,0
1272,8010801034840,新規,0,2024-03-13,2024-03-13,株式会社Ａｎｇｅｌｕｓ,,株式会社,東京都,大田区,上池台５丁目１９番１－５０８号,,13,111,1450064,,,,,,,2024-03-13,1,,,,,アンゲルス,0
1280,8011001160428,新規,0,2024-03-13,2024-03-13,大日本商事株式会社,,株式会社,東京都,渋谷区,道玄坂１丁目１０番８号渋谷道玄坂東急ビル２Ｆ－Ｃ,,13,113,1500043,,,,,,,2024-03-13,1,,,,,ダイニッポンショウジ,0
1281,8011001160493,新規,0,2024-03-13,2024-03-13,Ｌｅａｄ　Ｐｒｏｆｅｓｓｉｏｎａｌ株式会社,,株式会社,東京都,渋谷区,笹塚３丁目３４番地１０号,,13,113,1510073,,,,,,,2024-03-13,1,,,,,リードプロフェッショナル,0
1282,8011001160510,新規,0,2024-03-13,2024-03-13,株式会社ケルベロス,,株式会社,東京都,渋谷区,道玄坂１丁目１６番６号二葉ビル８ｂ,,13,113,1500043,,,,,,,2024-03-13,1,,,,,ケルベロス,0
1283,8011001160543,新規,0,2024-03-13,2024-03-13,株式会社ＢＲＩＯ,,株式会社,東京都,渋谷区,代官山町２０番２３号,,13,113,1500034,,,,,,,2024-03-13,1,,,,,ブリオ,0
1284,8011001160568,新規,0,2024-03-13,2024-03-13,株式会社ＴＨＥ　ＭＥＤＩＣＡＬ,,株式会社,東京都,渋谷区,渋谷２丁目１９－１５宮益坂ビルディング６０９,,13,113,1500002,,,,,,,2024-03-13,1,,,,,ザメディカル,0
1285,8011001160592,新規,0,2024-03-13,2024-03-13,株式会社ＦＩＸＥＲ,,株式会社,東京都,渋谷区,渋谷２丁目１９番１５号宮益坂ビルディング６０９,,13,113,1500002,,,,,,,2024-03-13,1,,,,,フィクサー,0
1287,8011101106520,新規,0,2024-03-13,2024-03-13,株式会社ＭＪ　Ｂｒｉｄｇｅ,,株式会社,東京都,新宿区,西新宿３丁目３番１３号西新宿水間ビル２Ｆ,,13,104,1600023,,,,,,,2024-03-13,1,,,,,エムジェイブリッジ,0
1290,8011601027605,新規,0,2024-03-13,2024-03-13,株式会社フレンドリーサービス,,株式会社,東京都,練馬区,大泉学園町１丁目１番３号サンビームＡＺ２０２,,13,120,1780061,,,,,,,2024-03-13,1,,,,,フレンドリーサービス,0
1292,8011801043906,新規,0,2024-03-13,2024-03-13,株式会社Ｔｈｒｅｅ　Ａｒｒｏｗｓ,,株式会社,東京都,葛飾区,東金町５丁目１４番１号,,13,122,1250041,,,,,,,2024-03-13,1,,,,,スリーアローズ,0
1293,8012703002925,新規,0,2024-03-13,2024-03-13,ＪＡＭ＆Ｋ合同会社,,合同会社,東京都,西東京市,住吉町３丁目１０番２５－６１１号,,13,229,2020005,,,,,,,2024-03-13,1,,,,,ジャムアンドケー,0
1295,8013301052197,新規,0,2024-03-13,2024-03-13,ニッポングローバルエネルギー株式会社,,株式会社,東京都,豊島区,東池袋１丁目１７番１１号パークハイツ池袋,,13,116,1700013,,,,,,,2024-03-13,1,,,,,ニッポングローバルエネルギー,0
1306,8020001156204,新規,0,2024-03-13,2024-03-13,株式会社クレアル,,株式会社,神奈川県,川崎市川崎区,駅前本町１１番地２川崎フロンティアビル４階,,14,131,2100007,,,,,,,2024-03-13,1,,,,,クレアル,0
1314,8020003025670,新規,0,2024-03-13,2024-03-13,合同会社週末,,合同会社,神奈川県,横浜市西区,北幸２丁目１０番４８号むつみビル３階,,14,103,2200004,,,,,,,2024-03-13,1,,,,,シュウマツ,0
1315,8020003025687,新規,0,2024-03-13,2024-03-13,合同会社Ｂａｙｐｈｉｌｉａ,,合同会社,神奈川県,横浜市西区,北幸２丁目１０番４８号むつみビル３階,,14,103,2200004,,,,,,,2024-03-13,1,,,,,ベイフィリア,0
1317,8021003014218,新規,0,2024-03-13,2024-03-13,ＴＪ＆ＳＭ合同会社,,合同会社,神奈川県,厚木市,岡田２丁目１４番５リステージ本厚木６０１号,,14,212,2430021,,,,,,,2024-03-13,1,,,,,ティージェイアンドエスエム,0
1332,8040005022318,新規,0,2024-03-13,2024-03-13,特定非営利活動法人リスペック,,その他の設立登記法人,千葉県,我孫子市,栄２１番１２－１号,,12,222,2701141,,,,,,,2024-03-13,1,,,,,リスペック,0
1335,8050003008193,新規,0,2024-03-13,2024-03-13,合同会社Ｎ７０３,,合同会社,茨城県,つくばみらい市,谷井田２３９１番地１１,,08,235,3002337,,,,,,,2024-03-13,1,,,,,エヌナナマルサン,0
1336,8060001036906,新規,0,2024-03-13,2024-03-13,株式会社ライトマインド,,株式会社,栃木県,宇都宮市,下砥上町６４２番地６,,09,201,3200852,,,,,,,2024-03-13,1,,,,,ライトマインド,0
1337,8070001041483,新規,0,2024-03-13,2024-03-13,株式会社エイ・スピード社,,株式会社,群馬県,前橋市,文京町３丁目８番１７号,,10,201,3710801,,,,,,,2024-03-13,1,,,,,エイスピードシャ,0
1339,8070003005313,新規,0,2024-03-13,2024-03-13,合同会社エンクル,,合同会社,群馬県,太田市,新田木崎町９６３－１０,,10,205,3700321,,,,,,,2024-03-13,1,,,,,エンクル,0
1340,8080003003150,新規,0,2024-03-13,2024-03-13,合同会社ファイアーバード,,合同会社,静岡県,静岡市駿河区,曲金５丁目１０番１３号,,22,102,4228006,,,,,,,2024-03-13,1,,,,,ファイアーバード,0
1351,8110001038236,新規,0,2024-03-13,2024-03-13,株式会社ＭａｓＬａｎｋａ,,株式会社,新潟県,長岡市,昭和１丁目６番２２号,,15,202,9400092,,,,,,,2024-03-13,1,,,,,マスランカ,0
1366,8120001262859,新規,0,2024-03-13,2024-03-13,株式会社ＡＹＣ,,株式会社,大阪府,大阪市北区,曾根崎新地１丁目６番３０号Ｓ１ビル３Ｆ,,27,127,5300002,,,,,,,2024-03-13,1,,,,,エーワイシー,0
1367,8120001262974,新規,0,2024-03-13,2024-03-13,ＤＲＥＡＭ株式会社,,株式会社,大阪府,大阪市淀川区,西宮原３丁目２番１号新大阪ビジネス第２ニッケンマンション５２７号,,27,123,5320004,,,,,,,2024-03-13,1,,,,,ドリーム,0
1368,8120001263015,新規,0,2024-03-13,2024-03-13,好生株式会社,,株式会社,大阪府,大阪市大正区,三軒家西３丁目４番１６号中山ビル１０３２,,27,108,5510001,,,,,,,2024-03-13,1,,,,,コウセイ,0
1375,8130005017028,新規,0,2024-03-13,2024-03-13,一般社団法人くれすと,,その他の設立登記法人,京都府,向日市,森本町下森本４３番の６４,,26,208,6170003,,,,,,,2024-03-13,1,,,,,クレスト,0
1384,8150003003201,新規,0,2024-03-13,2024-03-13,イノウエ合同会社,,合同会社,奈良県,大和郡山市,田中町５３９番地６,,29,203,6391028,,,,,,,2024-03-13,1,,,,,イノウエ,0
1386,8160001025741,新規,0,2024-03-13,2024-03-13,株式会社リホムジャパン,,株式会社,滋賀県,守山市,守山５丁目８番３－３０２,,25,207,5240022,,,,,,,2024-03-13,1,,,,,リホムジャパン,0
1388,8170005007074,新規,0,2024-03-13,2024-03-13,医療法人たなか歯科クリニック,,その他の設立登記法人,和歌山県,田辺市,たきない町２１－３３,,30,206,6460015,,,,,,,2024-03-13,1,,,,,タナカシカクリニック,0
1390,8190003004609,新規,0,2024-03-13,2024-03-13,合同会社フィールドヴィレッジ,,合同会社,三重県,鈴鹿市,東玉垣町１３５１番地の２,,24,207,5130814,,,,,,,2024-03-13,1,,,,,フィールドヴィレッジ,0
1419,8360003013781,新規,0,2024-03-13,2024-03-13,おおごちょう合同会社,,合同会社,沖縄県,糸満市,字名城２２０番地の２,,47,210,9010351,,,,,,,2024-03-13,1,,,,,オオゴチョウ,0
1421,8370001051023,新規,0,2024-03-13,2024-03-13,株式会社後藤充裕建築設計事務所,,株式会社,宮城県,仙台市青葉区,片平１丁目１－６ネオハイツ片平２０２,,04,101,9800812,,,,,,,2024-03-13,1,,,,,ゴトウミツヒロケンチクセッケイジムショ,0
1426,8410003003901,新規,0,2024-03-13,2024-03-13,合同会社Ｂ　ＥＡＲＴＨ,,合同会社,秋田県,秋田市,大平台４丁目６－２,,05,201,0101428,,,,,,,2024-03-13,1,,,,,ビーアース,0
1428,8430001091252,新規,0,2024-03-13,2024-03-13,株式会社Ｔｓｕｍｐｌｅ,,株式会社,北海道,江別市,豊幌はみんぐ町８番地の２,,01,217,0670028,,,,,,,2024-03-13,1,,,,,ツンプル,0
1429,8430001091285,新規,0,2024-03-13,2024-03-13,株式会社ＯＩＫＡＷＡ　Ｇｒｏｕｐ,,株式会社,北海道,石狩市,樽川４４９番地２,,01,235,0613251,,,,,,,2024-03-13,1,,,,,オイカワグループ,0
1440,9010003042963,新規,0,2024-03-13,2024-03-13,ＡＧＥＮＴ合同会社,,合同会社,東京都,中央区,銀座１丁目１２番４号Ｎ＆ＥＢＬＤ．７階,,13,102,1040061,,,,,,,2024-03-13,1,,,,,エージェント,0
1441,9010003043193,新規,0,2024-03-13,2024-03-13,合同会社Ｌｕｃｅ,,合同会社,東京都,文京区,根津１丁目１６－１３朝日根津マンション１００２,,13,105,1130031,,,,,,,2024-03-13,1,,,,,ルーチェ,0
1444,9010401180877,新規,0,2024-03-13,2024-03-13,株式会社ｒｅｆｕｌｇｅｎｓ,,株式会社,東京都,港区,南青山３丁目１番３６号青山丸竹ビル６Ｆ,,13,103,1070062,,,,,,,2024-03-13,1,,,,,リフルゲンス,0
1454,9010903008881,新規,0,2024-03-13,2024-03-13,ＢｉｏＶｉｔａ　Ｓｏｌｕｔｉｏｎｓ合同会社,,合同会社,東京都,世田谷区,奥沢６丁目８－２２,,13,112,1580083,,,,,,,2024-03-13,1,,,,,ビオビータソリューションズ,0
1464,9011001160492,新規,0,2024-03-13,2024-03-13,ＡＥＧＩＳ株式会社,,株式会社,東京都,渋谷区,笹塚３丁目３４番地１０号,,13,113,1510073,,,,,,,2024-03-13,1,,,,,イージス,0
1465,9011001160526,新規,0,2024-03-13,2024-03-13,株式会社コーポレートＧＰＴ,,株式会社,東京都,渋谷区,道玄坂１丁目１０番８号,,13,113,1500043,,,,,,,2024-03-13,1,,,,,コーポレートジーピーティー,0
1468,9011003018615,新規,0,2024-03-13,2024-03-13,合同会社カンパニオン,,合同会社,東京都,渋谷区,渋谷２丁目１９番１５号宮益坂ビルディング６０９,,13,113,1500002,,,,,,,2024-03-13,1,,,,,カンパニオン,0
1469,9011003018648,新規,0,2024-03-13,2024-03-13,Ｍｅｄｉａｂｏｕｎｄ合同会社,,合同会社,東京都,渋谷区,道玄坂１丁目１０番８号渋谷道玄坂東急ビル２Ｆ－Ｃ,,13,113,1500043,,,,,,,2024-03-13,1,,,,,メディアバウンド,0
1470,9011003018656,新規,0,2024-03-13,2024-03-13,１２マネジメント合同会社,,合同会社,東京都,目黒区,自由が丘３丁目３番３号,,13,110,1520035,,,,,,,2024-03-13,1,,,,,トゥウェルブマネジメント,0
1476,9011101106536,新規,0,2024-03-13,2024-03-13,株式会社Ｒｉｖ　ｕｐ,,株式会社,東京都,新宿区,新宿６丁目２番１９号パラドール２０２号室,,13,104,1600022,,,,,,,2024-03-13,1,,,,,リバップ,0
1483,9011801043905,新規,0,2024-03-13,2024-03-13,株式会社別解,,株式会社,東京都,葛飾区,白鳥２丁目２１番２２号,,13,122,1250063,,,,,,,2024-03-13,1,,,,,ベッカイ,0
1484,9011801043913,新規,0,2024-03-13,2024-03-13,ＳＪ星日国際時尚旅行株式会社,,株式会社,東京都,足立区,中川２丁目５番１３号,,13,121,1200002,,,,,,,2024-03-13,1,,,,,エスジェイセイニチコクサイジショウリョコウ,0
1492,9020001156186,新規,0,2024-03-13,2024-03-13,株式会社Ｕ‐ＰＲＯ,,株式会社,神奈川県,横浜市泉区,中田東１丁目１６番２７号ファーストヴィラＡ１０３号,,14,116,2450013,,,,,,,2024-03-13,1,,,,,ユープロ,0
1505,9030003023813,新規,0,2024-03-13,2024-03-13,ＮＫＢマシナリー合同会社,,合同会社,埼玉県,越谷市,千間台西１丁目１２番１ダイアパレスルネッサせんげん台９２５号,,11,222,3430041,,,,,,,2024-03-13,1,,,,,エヌケイビイマシナリー,0
1509,9040001132631,新規,0,2024-03-13,2024-03-13,株式会社でんふぁれ,,株式会社,千葉県,船橋市,馬込町１１０７番地６,,12,204,2730851,,,,,,,2024-03-13,1,,,,,デンファレ,0
1512,9040003024538,新規,0,2024-03-13,2024-03-13,ＬＵＸ合同会社,,合同会社,千葉県,習志野市,藤崎３丁目７－１２－４,,12,216,2750017,,,,,,,2024-03-13,1,,,,,ルクス,0
1514,9050001054420,新規,0,2024-03-13,2024-03-13,株式会社ｇｌｏｗｉｎｇ,,株式会社,茨城県,那珂市,額田南郷５０１,,08,226,3110107,,,,,,,2024-03-13,1,,,,,,0
1516,9050005013397,新規,0,2024-03-13,2024-03-13,行政書士法人ハーモニー,,その他の設立登記法人,茨城県,水戸市,城南２丁目８－３８－１０５,,08,201,3100803,,,,,,,2024-03-13,1,,,,,ハーモニー,0
1518,9060003004950,新規,0,2024-03-13,2024-03-13,合同会社ブラックパール,,合同会社,栃木県,栃木市,岩舟町静１１２番地１宮田アパートＤ棟,,09,203,3294307,,,,,,,2024-03-13,1,,,,,ブラックパール,0
1521,9070001041474,新規,0,2024-03-13,2024-03-13,株式会社じゅんちゃん食堂,,株式会社,群馬県,伊勢崎市,西久保町２丁目２５６番地４,,10,204,3792204,,,,,,,2024-03-13,1,,,,,ジュンチャンショクドウ,0
1523,9070003005312,新規,0,2024-03-13,2024-03-13,合同会社Ｔ・ＮＥＷ,,合同会社,群馬県,伊勢崎市,宮子町６６４番地４,,10,204,3720801,,,,,,,2024-03-13,1,,,,,ティーニュウ,0
1524,9080405007616,新規,0,2024-03-13,2024-03-13,一般社団法人レミアレメール,,その他の設立登記法人,静岡県,浜松市中央区,東若林町１４９８番地の１,,22,138,4328052,,,,,,,2024-03-13,1,,,,,レミアレメール,0
1528,9120001262882,新規,0,2024-03-13,2024-03-13,株式会社デカモリシ,,株式会社,大阪府,大阪市鶴見区,放出東３丁目２１番４０号ローレルコート放出２０５,,27,124,5380044,,,,,,,2024-03-13,1,,,,,デカモリシ,0
1529,9120001262965,新規,0,2024-03-13,2024-03-13,株式会社Ｒｉｏｔ　ｆｉｌｍ,,株式会社,大阪府,大阪市北区,池田町９番７号２階,,27,127,5300033,,,,,,,2024-03-13,1,,,,,ライオットフィルム,0
1530,9120001263022,新規,0,2024-03-13,2024-03-13,向陽国際観光株式会社,,株式会社,大阪府,大阪市東住吉区,矢田３丁目１３番２－１０１号,,27,121,5460023,,,,,,,2024-03-13,1,,,,,コウヨウコクサイカンコウ,0
1533,9120003026022,新規,0,2024-03-13,2024-03-13,合同会社ＭＩトラスト,,合同会社,大阪府,大阪市平野区,瓜破東２丁目７番２４－１１０４号,,27,126,5470022,,,,,,,2024-03-13,1,,,,,エムアイトラスト,0
1550,9150001027135,新規,0,2024-03-13,2024-03-13,株式会社リベロペイント,,株式会社,奈良県,奈良市,鹿野園町８３９番地,,29,201,6308425,,,,,,,2024-03-13,1,,,,,リベロペイント,0
1552,9160003003133,新規,0,2024-03-13,2024-03-13,合同会社トライウィン,,合同会社,滋賀県,守山市,古高町７０－７,,25,207,5240044,,,,,,,2024-03-13,1,,,,,トライウィン,0
1565,9250001020550,新規,0,2024-03-13,2024-03-13,株式会社ＧＹＭｂｅｅ,,株式会社,山口県,山口市,佐山２０９７番地,,35,203,7540894,,,,,,,2024-03-13,1,,,,,ジムビー,0
1587,9370001051022,新規,0,2024-03-13,2024-03-13,株式会社極味,,株式会社,宮城県,仙台市太白区,山田字汚田通２９番地,,04,104,9820814,,,,,,,2024-03-13,1,,,,,キワミ,0
1590,9380005012804,新規,0,2024-03-13,2024-03-13,一般社団法人ゴビのみどり,,その他の設立登記法人,福島県,相馬郡新地町,駒ケ嶺字新町８４番地の２マンションＳＵＺＵ２０３号,,07,561,9792611,,,,,,,2024-03-13,1,,,,,ゴビノミドリ,0
1591,9400001016582,新規,0,2024-03-13,2024-03-13,株式会社やまもり,,株式会社,岩手県,盛岡市,上ノ橋町１番４６－９０４号,,03,201,0200887,,,,,,,2024-03-13,1,,,,,ヤマモリ,0
1602,9700150124429,新規,0,2024-03-13,2024-03-13,Ｓｈｅｎｚｈｅｎｓｈｉ　Ｊｉａｊｉａｊｉａ　Ｄｉａｎｚｉｋｅｊｉ　Ｙｏｕｘｉａｎｇｏｎｇｓｉ,,外国会社等,,,,,,,,Ｌｏｎｇｇａｎｇｑｕ　Ｙｕａｎｓｈａｎｊｉｅｄａｏ　Ｂａｏａｎｓｈｅｑｕ　Ｓｈａｎｇｘｉａｗｅｉｘｉｎｃｕｎ　５２ｈａｏ３０２　Ｓｈｅｎｚｈｅｎｓｈｉ　Ｇｕａｎｇｄｏｎｇｓｈｅｎｇ　５１８１０１　ＣＮ,,,,,,2024-03-13,1,,,,,シェンジェンシージャージャージャーディエンズーコージーヨウシエンゴンスー,0
