sequenceNumber,corporateNumber,process,correct,updateDate,changeDate,name,nameImageId,kind,prefectureName,cityName,streetNumber,addressImageId,prefectureCode,cityCode,postCode,addressOutside,addressOutsideImageId,closeDate,closeCause,successorCorporateNumber,changeCause,assignmentDate,latest,enName,enPrefectureName,enCityName,enAddressOutside,furigana,hihyoji
10,1010001179906,登記記録の閉鎖等,0,2022-07-29,2022-07-11,株式会社優才ネットワーク,,株式会社,東京都,千代田区,九段南１丁目５番６号りそな九段ビル５Ｆ,,13,101,1020074,,,2022-07-11,清算の結了等,,,2016-12-07,1,,,,,,0
27,1010803002513,登記記録の閉鎖等,0,2022-07-29,2022-07-22,合同会社フォーセット,,合同会社,東京都,大田区,北糀谷１丁目２番４号,,13,111,1440032,,,2022-07-22,清算の結了等,,,2017-11-07,1,,,,,フォーセット,0
51,1011403003430,登記記録の閉鎖等,0,2022-07-29,2022-07-28,合同会社コハラＡＭ,,合同会社,東京都,板橋区,高島平１丁目８番１９号,,13,119,1750082,,,2022-07-28,清算の結了等,,,2021-09-06,1,,,,,コハラエイエム,0
75,1020002001654,登記記録の閉鎖等,0,2022-07-29,2022-07-13,有限会社多摩電気工業,,有限会社,神奈川県,横浜市瀬谷区,瀬谷２丁目４７の３,,14,114,2460031,,,2022-07-13,清算の結了等,,,2015-10-05,1,,,,,タマデンキコウギョウ,0
79,1020003012808,登記記録の閉鎖等,0,2022-07-29,2022-07-25,合同会社ファンエステート,,合同会社,神奈川県,横浜市西区,高島２丁目１１番２号スカイメナー横浜４２２,,14,103,2200011,,,2022-07-25,合併による解散等,7120003013286,令和４年７月１日大阪市淀川区西中島四丁目７番２０号合同会社アドバンスエステート（7120003013286）に合併し解散,2017-05-29,1,,,,,ファンエステート,0
91,1030003014828,登記記録の閉鎖等,0,2022-07-29,2022-07-14,合同会社ｗｅｂｃａｚｏｏ,,合同会社,埼玉県,所沢市,北中２丁目１２３番地の１６,,11,208,3591101,,,2022-07-14,清算の結了等,,,2020-02-17,1,,,,,ウェブカズー,0
117,1070001008497,登記記録の閉鎖等,0,2022-07-29,2022-07-14,株式会社三峰,,株式会社,群馬県,高崎市,飯塚町１４７番地の１,,10,202,3700069,,,2022-07-14,清算の結了等,,,2015-10-05,1,,,,,ミツミネ,0
122,1080401002669,登記記録の閉鎖等,0,2022-07-29,2022-07-28,清進運輸株式会社,,株式会社,静岡県,浜松市南区,大柳町６３１番地の１,,22,134,4300842,,,2022-07-28,清算の結了等,,,2015-10-05,1,,,,,セイシンウンユ,0
123,1080401024861,登記記録の閉鎖等,0,2022-07-29,2022-07-28,グラント株式会社,,株式会社,静岡県,浜松市中区,鍛冶町１４０番地の２,,22,131,4300933,,,2022-07-28,清算の結了等,,,2021-02-18,1,,,,,グラント,0
134,1110005015733,登記記録の閉鎖等,0,2022-07-29,2022-07-11,特定非営利活動法人考房あったか,,その他の設立登記法人,新潟県,長岡市,与板町与板乙１６２３番地８,,15,202,9402402,,,2022-07-11,清算の結了等,,,2015-10-05,1,,,,,コウボウアッタカ,0
145,1120001206269,登記記録の閉鎖等,0,2022-07-29,2022-07-19,バリアート株式会社,,株式会社,大阪府,大阪市西区,新町３丁目５番７号,,27,106,5500013,,,2022-07-19,清算の結了等,,,2017-06-08,1,,,,,バリアート,0
147,1120001232372,登記記録の閉鎖等,0,2022-07-29,2022-07-25,株式会社川崎工務店,00121010,株式会社,大阪府,枚方市,野村中町２４番２６号,,27,210,5730144,,,2022-07-25,清算の結了等,,,2020-10-09,1,,,,,カワサキコウムテン,0
155,1120002047398,登記記録の閉鎖等,0,2022-07-29,2022-07-20,有限会社ウイン二十一,,有限会社,大阪府,大阪市城東区,古市３丁目１番１－１２０６号,,27,118,5360001,,,2022-07-20,清算の結了等,,,2015-10-05,1,,,,,ウインニジュウイチ,0
167,1122002014642,登記記録の閉鎖等,0,2022-07-29,2022-07-21,有限会社双葉金型製作所,,有限会社,大阪府,八尾市,太田８丁目２２番地の１２,,27,212,5810037,,,2022-07-21,清算の結了等,,,2015-10-05,1,,,,,フタバカナガタセイサクショ,0
168,1130001041863,登記記録の閉鎖等,0,2022-07-29,2022-07-19,株式会社丸起商店,,株式会社,京都府,綾部市,西町１丁目５３番地,,26,203,6230016,,,2022-07-19,清算の結了等,,,2015-10-05,1,,,,,マルキショウテン,0
181,1140003005659,登記記録の閉鎖等,0,2022-07-29,2022-07-22,合資会社しなのや電機商会,,合資会社,兵庫県,明石市,大久保町西島１０８６番地の４,,28,203,6740065,,,2022-07-22,合併による解散等,7140001034968,令和４年７月２２日兵庫県明石市大久保町大窪２４７番地しなのや電機株式会社（7140001034968）に合併し解散,2015-10-05,1,,,,,シナノヤデンキショウカイ,0
184,1160005003246,登記記録の閉鎖等,0,2022-07-29,2022-07-28,企業組合滋賀リサイクル社,,その他の設立登記法人,滋賀県,長浜市,新庄中町１８９番地の８,,25,203,5260012,,,2022-07-28,清算の結了等,,,2015-10-05,1,,,,,シガリサイクルシャ,0
193,1180303003623,登記記録の閉鎖等,0,2022-07-29,2022-07-20,合同会社東海フード,,合同会社,愛知県,岡崎市,羽根町字鰻池８番地,,23,202,4440813,,,2022-07-20,清算の結了等,,,2016-05-18,1,,,,,トウカイフード,0
206,1230005002240,登記記録の閉鎖等,0,2022-07-29,2022-07-26,協同組合北アルプス商店会,,その他の設立登記法人,富山県,中新川郡上市町,法音寺１番地,,16,322,9300353,,,2022-07-26,清算の結了等,,,2015-10-05,1,,,,,キタアルプスショウテンカイ,0
214,1260002026826,登記記録の閉鎖等,0,2022-07-29,2022-07-28,有限会社ナカヤマ,,有限会社,岡山県,総社市,総社１０２８番地３,,33,208,7191126,,,2022-07-28,清算の結了等,,,2015-10-05,1,,,,,ナカヤマ,0
219,1280001007313,登記記録の閉鎖等,0,2022-07-29,2022-07-25,株式会社総和,,株式会社,島根県,松江市,上東川津町２００９番地,,32,201,6900821,,,2022-07-25,清算の結了等,,,2016-10-06,1,,,,,ソウワ,0
235,1330001019583,登記記録の閉鎖等,0,2022-07-29,2022-07-15,株式会社マイカーランド熊本,,株式会社,熊本県,熊本市東区,御領６丁目７番３５号,,43,102,8618035,,,2022-07-15,清算の結了等,,,2015-10-05,1,,,,,マイカーランドクマモト,0
266,1470002007945,登記記録の閉鎖等,0,2022-07-29,2022-07-28,有限会社マーメイド平井,,有限会社,香川県,綾歌郡綾川町,畑田８０４番地１４,,37,387,7612101,,,2022-07-28,清算の結了等,,,2015-10-05,1,,,,,マーメイドヒライ,0
267,1490003001383,登記記録の閉鎖等,0,2022-07-29,2022-07-25,合同会社Ｍ．Ｋ保険企画,,合同会社,高知県,高知市,二葉町１３－３０,,39,201,7810815,,,2022-07-25,清算の結了等,,,2019-11-21,1,,,,,エムケイホケンキカク,0
311,2011502007496,登記記録の閉鎖等,0,2022-07-29,2022-07-28,有限会社大槻被服,,有限会社,東京都,荒川区,東尾久８丁目３４番７号,,13,118,1160012,,,2022-07-28,清算の結了等,,,2015-10-05,1,,,,,オオツキヒフク,0
318,2012401017776,登記記録の閉鎖等,0,2022-07-29,2022-07-27,株式会社キャシェット,,株式会社,東京都,小金井市,東町４丁目３８番２４号Ｂ１,,13,210,1840011,,,2022-07-27,清算の結了等,,,2015-10-05,1,,,,,キャシェット,0
326,2013301032915,登記記録の閉鎖等,0,2022-07-29,2022-07-26,株式会社クラウドナイン,,株式会社,東京都,豊島区,千早４丁目３３番地１０号,,13,116,1710044,,,2022-07-26,清算の結了等,,,2015-10-05,1,,,,,クラウドナイン,0
331,2020001069683,登記記録の閉鎖等,0,2022-07-29,2022-07-15,第一金型工業株式会社,,株式会社,神奈川県,川崎市中原区,苅宿６番９号,,14,133,2110022,,,2022-07-15,清算の結了等,,,2015-10-05,1,,,,,ダイイチカナガタコウギョウ,0
338,2020002064725,登記記録の閉鎖等,0,2022-07-29,2022-07-20,有限会社グリッケン,,有限会社,神奈川県,横浜市神奈川区,菅田町２６４７番地,,14,102,2210864,,,2022-07-20,清算の結了等,,,2015-10-05,1,,,,,グリッケン,0
342,2021001063453,登記記録の閉鎖等,0,2022-07-29,2022-07-11,株式会社ニューポート,,株式会社,東京都,千代田区,丸の内１丁目８番３号丸の内トラストタワー本館２０階,,13,101,1000005,,,2022-07-11,清算の結了等,,,2017-11-06,1,,,,,ニューポート,0
365,2040002005314,登記記録の閉鎖等,0,2022-07-29,2022-07-21,有限会社志貴野,,有限会社,千葉県,千葉市稲毛区,稲毛東６丁目１０番１棟９１１号,,12,103,2630031,,,2022-07-21,清算の結了等,,,2015-10-05,1,,,,,シキノ,0
388,2080101008370,登記記録の閉鎖等,0,2022-07-29,2022-07-27,株式会社カミオ,,株式会社,静岡県,富士市,比奈１０５２番地,,22,210,4170847,,,2022-07-27,清算の結了等,,,2015-10-05,1,,,,,カミオ,0
402,2120001024604,登記記録の閉鎖等,0,2022-07-29,2022-07-26,株式会社ナイガイアート,,株式会社,大阪府,大阪市天王寺区,勝山２丁目１５番５号,,27,109,5430043,,,2022-07-26,清算の結了等,,,2015-10-05,1,,,,,ナイガイアート,0
403,2120001030115,登記記録の閉鎖等,0,2022-07-29,2022-07-27,大阪日進洋瓦株式会社,,株式会社,大阪府,大阪市港区,南市岡２丁目１４番１０号,,27,107,5520011,,,2022-07-27,清算の結了等,,,2015-10-05,1,,,,,オオサカニッシンヨウカワラ,0
407,2120001059261,登記記録の閉鎖等,0,2022-07-29,2022-07-27,株式会社ワイ・アイ・ジー,,株式会社,大阪府,大阪市淀川区,東三国５丁目１５番２７号,,27,123,5320002,,,2022-07-27,清算の結了等,,,2015-10-05,1,,,,,ワイアイジー,0
409,2120001081389,登記記録の閉鎖等,0,2022-07-29,2022-07-25,ジャパンプラザ大和興産株式会社,,株式会社,大阪府,大阪市中央区,森ノ宮中央１丁目１０番１６号,,27,128,5400003,,,2022-07-25,清算の結了等,,,2015-10-05,1,,,,,ジャパンプラザダイワコウサン,0
428,2120003017176,登記記録の閉鎖等,0,2022-07-29,2022-07-27,合同会社ｐｌｕｍｓ　ｇｒｏｗ,,合同会社,大阪府,大阪市西淀川区,姫島１丁目１１番２号,,27,113,5550033,,,2022-07-27,清算の結了等,,,2020-03-17,1,,,,,プラムスグロウ,0
435,2120902017739,登記記録の閉鎖等,0,2022-07-29,2022-07-26,栄和工業有限会社,,有限会社,大阪府,豊中市,名神口３丁目６番３号,,27,203,5610841,,,2022-07-26,清算の結了等,,,2015-10-05,1,,,,,エイワコウギョウ,0
436,2122002001375,登記記録の閉鎖等,0,2022-07-29,2022-07-22,有限会社吉兆,00034649,有限会社,大阪府,東大阪市,加納２丁目２１番２０号,,27,227,5780901,,,2022-07-22,清算の結了等,,,2015-10-05,1,,,,,キッチョウ,0
447,2140002059325,登記記録の閉鎖等,0,2022-07-29,2022-07-25,アウルキャピタル有限会社,,有限会社,兵庫県,西宮市,松園町１番３０－２０２号,,28,204,6620053,,,2022-07-25,清算の結了等,,,2015-10-05,1,,,,,アウルキャピタル,0
455,2160001005245,登記記録の閉鎖等,0,2022-07-29,2022-07-26,メデイカルサービス株式会社,,株式会社,滋賀県,甲賀市,水口町宇川３７番地２,,25,209,5280052,,,2022-07-26,合併による解散等,2010001046130,令和４年７月１日東京都中央区京橋二丁目７番１４号白井松新薬株式会社（2010001046130）に合併し解散,2015-10-05,1,,,,,メデイカルサービス,0
460,2180001041437,登記記録の閉鎖等,0,2022-07-29,2022-07-25,株式会社木材工業新聞社,,株式会社,愛知県,名古屋市中区,上前津２丁目１０番２４号福信ビル２階,,23,106,4600013,,,2022-07-25,清算の結了等,,,2015-10-05,1,,,,,モクザイコウギョウシンブンシャ,0
467,2190002019984,登記記録の閉鎖等,0,2022-07-29,2022-07-21,有限会社クリエイト村田,,有限会社,三重県,四日市市,笹川９丁目１５番地の１０,,24,202,5100944,,,2022-07-21,清算の結了等,,,2015-10-05,1,,,,,クリエイトムラタ,0
480,2240001033089,登記記録の閉鎖等,0,2022-07-29,2022-07-28,株式会社シーエムディー,,株式会社,広島県,福山市,南本庄２丁目４番１３号,,34,207,7200077,,,2022-07-28,清算の結了等,,,2015-10-05,1,,,,,シーエムディー,0
484,2240002001739,登記記録の閉鎖等,0,2022-07-29,2022-07-28,有限会社ウエストアート,,有限会社,広島県,広島市佐伯区,美鈴が丘緑１丁目９番２３号,,34,108,7315113,,,2022-07-28,清算の結了等,,,2015-10-05,1,,,,,ウェストアート,0
494,2280002001223,登記記録の閉鎖等,0,2022-07-29,2022-07-27,有限会社スタニ時計店,,有限会社,島根県,松江市,天神町３４番地,,32,201,6900064,,,2022-07-27,清算の結了等,,,2015-10-05,1,,,,,スタニトケイテン,0
504,2290801019456,登記記録の閉鎖等,0,2022-07-29,2022-07-28,株式会社ＮＥＸＴ　ＯＮＥ,,株式会社,福岡県,北九州市八幡西区,茶屋の原３丁目１７－６,,40,109,8071134,,,2022-07-28,清算の結了等,,,2015-10-05,1,,,,,,0
524,2370002001404,登記記録の閉鎖等,0,2022-07-29,2022-07-14,有限会社成田電産,,有限会社,宮城県,仙台市泉区,南光台南１丁目４番１号,,04,105,9818002,,,2022-07-14,清算の結了等,,,2015-10-05,1,,,,,ナリタデンサン,0
543,2430001026180,登記記録の閉鎖等,0,2022-07-29,2022-07-25,株式会社アクティブオフィス,,株式会社,北海道,札幌市東区,北十七条東１丁目６番２１号,,01,103,0650017,,,2022-07-25,清算の結了等,,,2015-10-05,1,,,,,アクティブオフィス,0
549,2430002000432,登記記録の閉鎖等,0,2022-07-29,2022-07-15,アール工房有限会社,,有限会社,北海道,札幌市清田区,北野六条３丁目７番６号,,01,110,0040866,,,2022-07-15,清算の結了等,,,2015-10-05,1,,,,,アールコウボウ,0
565,3010001143694,登記記録の閉鎖等,0,2022-07-29,2022-07-26,株式会社Ｋｅｉ．Ｃｏｒｐｏｒａｔｉｏｎ,,株式会社,東京都,板橋区,板橋２丁目１４番３号光ビル２Ｆ,,13,119,1730004,,,2022-07-26,清算の結了等,,,2015-10-05,1,,,,,ケイコーポレーション,0
607,3011302006887,登記記録の閉鎖等,0,2022-07-29,2022-07-22,有限会社新潟屋,,有限会社,東京都,杉並区,浜田山１丁目２３番６号,,13,115,1680065,,,2022-07-22,清算の結了等,,,2015-10-05,1,,,,,ニイガタヤ,0
637,3020002041657,登記記録の閉鎖等,0,2022-07-29,2022-07-19,有限会社岡田眼鏡店,,有限会社,神奈川県,横浜市中区,吉田町４番地の３,,14,104,2310041,,,2022-07-19,清算の結了等,,,2015-10-05,1,,,,,オカダガンキョウテン,0
640,3021001010149,登記記録の閉鎖等,0,2022-07-29,2022-07-21,株式会社アムシス,,株式会社,神奈川県,鎌倉市,二階堂８４４番地１,,14,204,2480002,,,2022-07-21,清算の結了等,,,2015-10-05,1,,,,,アムシス,0
644,3021002042637,登記記録の閉鎖等,0,2022-07-29,2022-07-20,有限会社メカトロアート,,有限会社,神奈川県,横浜市泉区,下飯田町１７８７－１,,14,116,2450017,,,2022-07-20,清算の結了等,,,2015-10-05,1,,,,,メカトロアート,0
650,3030002078129,登記記録の閉鎖等,0,2022-07-29,2022-07-08,有限会社エムビーエム,,有限会社,埼玉県,川越市,大字的場８２７番地５,,11,201,3501101,,,2022-07-08,合併による解散等,2030001056904,令和４年７月１日埼玉県川越市大字的場８２６番地１株式会社ヘルスサポートサービス（2030001056904）に合併し解散,2015-10-05,1,,,,,エムビーエム,0
658,3040001072172,登記記録の閉鎖等,0,2022-07-29,2022-07-20,矢萩の杜造園株式会社,,株式会社,千葉県,野田市,目吹６７０番地,,12,208,2780001,,,2022-07-20,清算の結了等,,,2015-10-05,1,,,,,ヤハギノモリゾウエン,0
684,3110001013367,登記記録の閉鎖等,0,2022-07-29,2022-07-26,株式会社アイオムテクノロジー,,株式会社,新潟県,新潟市中央区,出来島１丁目２番１２号,,15,103,9500962,,,2022-07-26,清算の結了等,,,2015-10-05,1,,,,,アイオムテクノロジー,0
691,3120001194586,登記記録の閉鎖等,0,2022-07-29,2022-07-27,株式会社ワイクール,,株式会社,大阪府,大阪市阿倍野区,昭和町２丁目１２番２６号,,27,119,5450011,,,2022-07-27,清算の結了等,,,2015-11-19,1,,,,,ワイクール,0
710,3120003013570,登記記録の閉鎖等,0,2022-07-29,2022-07-22,ブリッジロード合同会社,,合同会社,大阪府,大阪市淀川区,西中島１丁目１４番１７号５０１号室,,27,123,5320011,,,2022-07-22,清算の結了等,,,2017-11-20,1,,,,,ブリッジロード,0
727,3130002005972,登記記録の閉鎖等,0,2022-07-29,2022-07-14,有限会社ビーワイズ,,有限会社,京都府,京都市左京区,岩倉三宅町６９番地,,26,103,6060022,,,2022-07-14,清算の結了等,,,2015-10-05,1,,,,,ビーワイズ,0
736,3140002026101,登記記録の閉鎖等,0,2022-07-29,2022-07-26,有限会社ポパイラバー,,有限会社,兵庫県,神戸市兵庫区,羽坂通３丁目７番１号ＮＫ兵庫ビル２Ｆ,,28,105,6520805,,,2022-07-26,清算の結了等,,,2015-10-05,1,,,,,,0
737,3140003013049,登記記録の閉鎖等,0,2022-07-29,2022-07-25,合同会社ロックアート,,合同会社,兵庫県,神戸市北区,唐櫃台１丁目２１番１４号,,28,109,6511332,,,2022-07-25,清算の結了等,,,2018-05-31,1,,,,,ロックアート,0
739,3150001005872,登記記録の閉鎖等,0,2022-07-29,2022-07-27,新栄水産株式会社,,株式会社,奈良県,大和郡山市,馬司町６４２番地の２,,29,203,6391124,,,2022-07-27,清算の結了等,,,2015-10-05,1,,,,,シンエイスイサン,0
748,3180001099680,登記記録の閉鎖等,0,2022-07-29,2022-07-26,株式会社オフィスＭ,,株式会社,愛知県,あま市,七宝町桂宮前４７番地,,23,237,4970004,,,2022-07-26,清算の結了等,,,2015-10-05,1,,,,,オフィスエム,0
751,3180002016420,登記記録の閉鎖等,0,2022-07-29,2022-07-26,有限会社東海メンテナンス,,有限会社,愛知県,名古屋市東区,矢田南１丁目４番７号,,23,102,4610048,,,2022-07-26,清算の結了等,,,2015-10-05,1,,,,,トウカイメンテナンス,0
753,3180002082289,登記記録の閉鎖等,0,2022-07-29,2022-07-25,有限会社スタイル・ウィン,,有限会社,愛知県,江南市,古知野町北屋敷２２番地,,23,217,4838272,,,2022-07-25,清算の結了等,,,2015-10-05,1,,,,,スタイルウィン,0
775,3290001040303,登記記録の閉鎖等,0,2022-07-29,2022-07-20,株式会社エーシーユー,,株式会社,京都府,京都市西京区,下津林東大般若町１番地,,26,111,6158033,,,2022-07-20,清算の結了等,,,2015-10-05,1,,,,,エーシーユー,0
800,3340001010060,登記記録の閉鎖等,0,2022-07-29,2022-07-26,株式会社さつま家畜診療所,,株式会社,鹿児島県,薩摩郡さつま町,鶴田２７２２番地１,,46,392,8952101,,,2022-07-26,清算の結了等,,,2015-10-05,1,,,,,サツマカチクシンリョウジョ,0
810,3430001050634,登記記録の閉鎖等,0,2022-07-29,2022-07-14,ヤマユ目谷水産株式会社,,株式会社,北海道,小樽市,錦町１５番９号,,01,203,0470039,,,2022-07-14,清算の結了等,,,2015-10-05,1,,,,,ヤマユメタニスイサン,0
816,3460105000375,登記記録の閉鎖等,0,2022-07-29,2022-07-26,医療法人社団船津歯科・矯正歯科クリニック,,その他の設立登記法人,北海道,帯広市,公園東町３丁目１１番地４,,01,207,0800847,,,2022-07-26,清算の結了等,,,2015-10-05,1,,,,,フナツシカキョウセイシカクリニック,0
817,3460302000995,登記記録の閉鎖等,0,2022-07-29,2022-07-26,有限会社チヨダ保険事務所,,有限会社,北海道,北見市,春光町７丁目１番１２号,,01,208,0900801,,,2022-07-26,清算の結了等,,,2015-10-05,1,,,,,チヨダホケンジムショ,0
857,4010701006183,登記記録の閉鎖等,0,2022-07-29,2022-07-28,ディ・エス・スタッフ株式会社,,株式会社,東京都,品川区,東五反田２丁目９番７号,,13,109,1410022,,,2022-07-28,清算の結了等,,,2015-10-05,1,,,,,ディエススタッフ,0
858,4010803003731,登記記録の閉鎖等,0,2022-07-29,2022-07-22,合同会社ＫＲ,,合同会社,東京都,大田区,西糀谷３丁目３５番２－４０１号,,13,111,1440034,,,2022-07-22,清算の結了等,,,2021-04-28,1,,,,,ケーアール,0
862,4010901017063,登記記録の閉鎖等,0,2022-07-29,2022-07-22,株式会社ジャパンエターナルコンフィデンス,,株式会社,東京都,世田谷区,玉堤１丁目１６番２４－３０４号,,13,112,1580087,,,2022-07-22,清算の結了等,,,2015-10-05,1,,,,,ジャパンエターナルコンフィデンス,0
867,4010901041716,登記記録の閉鎖等,0,2022-07-29,2022-07-19,株式会社Ｌｅａｄｓ　Ｔｏ　Ｊｏｙ,,株式会社,東京都,中野区,江古田３丁目１４－３プライムメゾン江古田の杜イースト４１５,,13,114,1650022,,,2022-07-19,清算の結了等,,,2018-03-27,1,,,,,リーズトゥジョイ,0
877,4011002006749,登記記録の閉鎖等,0,2022-07-29,2022-07-12,有限会社すのうち鳥升,,有限会社,東京都,渋谷区,道玄坂１丁目１１番８号,,13,113,1500043,,,2022-07-12,清算の結了等,,,2015-10-05,1,,,,,スノウチトリマス,0
890,4011501007272,登記記録の閉鎖等,0,2022-07-29,2022-07-28,大栄プラスチック工業株式会社,,株式会社,東京都,荒川区,町屋１丁目３５番９号,,13,118,1160001,,,2022-07-28,清算の結了等,,,2022-04-05,1,,,,,,0
894,4011801026930,登記記録の閉鎖等,0,2022-07-29,2022-07-27,株式会社ドロップスアート,,株式会社,東京都,葛飾区,堀切１丁目６番２８号,,13,122,1240006,,,2022-07-27,清算の結了等,,,2015-10-05,1,,,,,ドロップスアート,0
903,4012702005206,登記記録の閉鎖等,0,2022-07-29,2022-07-28,有限会社石原模型工房,,有限会社,東京都,西東京市,谷戸町２丁目２番３－４１３号,,13,229,1880001,,,2022-07-28,清算の結了等,,,2015-10-05,1,,,,,イシハラモケイコウボウ,0
924,4021001068260,登記記録の閉鎖等,0,2022-07-29,2022-07-25,株式会社ソアサービス研究所,,株式会社,神奈川県,平塚市,紅谷町８番１６サニープラザ平塚３－２４,,14,203,2540043,,,2022-07-25,清算の結了等,,,2019-10-02,1,,,,,ソアサービスケンキュウジョ,0
933,4030001128552,登記記録の閉鎖等,0,2022-07-29,2022-07-14,株式会社ＭＡＤＡＭ　ＩＭＡＧＥ,,株式会社,埼玉県,さいたま市浦和区,前地３丁目２番１３－１０２号,,11,107,3300053,,,2022-07-14,清算の結了等,,,2018-12-07,1,,,,,マダムイメージ,0
952,4040002049763,登記記録の閉鎖等,0,2022-07-29,2022-07-14,有限会社渡辺妙商会,,有限会社,千葉県,松戸市,古ケ崎４丁目３６４３番地の１２,,12,207,2710068,,,2022-07-14,清算の結了等,,,2015-10-05,1,,,,,ワタナベタエショウカイ,0
954,4040002075330,登記記録の閉鎖等,0,2022-07-29,2022-07-19,有限会社美よし食堂,,有限会社,千葉県,市原市,椎津１２８番地の２,,12,219,2990118,,,2022-07-19,清算の結了等,,,2015-10-05,1,,,,,ミヨシショクドウ,0
963,4050002014147,登記記録の閉鎖等,0,2022-07-29,2022-07-11,有限会社エイアールエイ,,有限会社,茨城県,かすみがうら市,稲吉東１丁目１８番１３号,,08,230,3150053,,,2022-07-11,清算の結了等,,,2015-10-05,1,,,,,エイアールエイ,0
977,4100002025337,登記記録の閉鎖等,0,2022-07-29,2022-07-22,有限会社宮川エンジニアリング,,有限会社,長野県,塩尻市,大字洗馬２９０番地１５,,20,215,3996462,,,2022-07-22,清算の結了等,,,2015-10-05,1,,,,,ミヤガワエンジニアリング,0
983,4120001025708,登記記録の閉鎖等,0,2022-07-29,2022-07-25,株式会社ユーピーフォトス,,株式会社,大阪府,大阪市天王寺区,東高津町１０番１６号,,27,109,5430021,,,2022-07-25,清算の結了等,,,2015-10-05,1,,,,,ユーピーフォトス,0
987,4120001084646,登記記録の閉鎖等,0,2022-07-29,2022-07-28,ダイケンホーム＆サービス株式会社,,株式会社,大阪府,大阪市北区,中之島３丁目２番４号,,27,127,5300005,,,2022-07-28,清算の結了等,,,2015-10-05,1,,,,,ダイケンホームアンドサービス,0
992,4120001177458,登記記録の閉鎖等,0,2022-07-29,2022-07-27,株式会社相援隊,,株式会社,大阪府,大阪市中央区,瓦町３丁目４番１５－８０１号,,27,128,5410048,,,2022-07-27,清算の結了等,,,2015-10-05,1,,,,,ソウエンタイ,0
994,4120001197019,登記記録の閉鎖等,0,2022-07-29,2022-07-27,Ｅ３Ｌａｂｓ株式会社,,株式会社,大阪府,大阪市東成区,神路１丁目１４番１９号,,27,115,5370003,,,2022-07-27,清算の結了等,,,2016-03-22,1,,,,,イースリーラブズ,0
999,4120001238292,登記記録の閉鎖等,0,2022-07-29,2022-07-25,フラックス株式会社,,株式会社,大阪府,大阪市中央区,大手通１丁目２－１０藤和シティコープ大手前ＩＩ９０３号室,00123389,27,128,5400021,,,2022-07-25,清算の結了等,,,2021-06-17,1,,,,,フラックス,0
1029,4140003009905,登記記録の閉鎖等,0,2022-07-29,2022-07-20,合同会社インスイング,,合同会社,兵庫県,神戸市西区,糀台２丁目１２番地の７,,28,111,6512273,,,2022-07-20,清算の結了等,,,2015-10-05,1,,,,,インスイング,0
1036,4180001069146,登記記録の閉鎖等,0,2022-07-29,2022-07-25,株式会社ＥＣＯ,,株式会社,愛知県,名古屋市千種区,萱場２丁目７番３号,,23,101,4640086,,,2022-07-25,清算の結了等,,,2015-10-05,1,,,,,エコ,0
1041,4180001126442,登記記録の閉鎖等,0,2022-07-29,2022-07-25,ミルキーウェイシステムズ株式会社,,株式会社,愛知県,一宮市,栄３丁目７－１８ミルキーウェイビル５階,,23,203,4910858,,,2022-07-25,清算の結了等,,,2017-02-03,1,,,,,ミルキーウェイシステムズ,0
1043,4180002002295,登記記録の閉鎖等,0,2022-07-29,2022-07-27,有限会社サンナイ印刷,,有限会社,愛知県,名古屋市名東区,香南１丁目３１９番地,,23,115,4650004,,,2022-07-27,清算の結了等,,,2015-10-05,1,,,,,サンナイインサツ,0
1044,4180002042440,登記記録の閉鎖等,0,2022-07-29,2022-07-26,有限会社ミミ,,有限会社,愛知県,北名古屋市,弥勒寺東２丁目２５７番地,,23,234,4810031,,,2022-07-26,清算の結了等,,,2015-10-05,1,,,,,ミミ,0
1056,4190001000563,登記記録の閉鎖等,0,2022-07-29,2022-07-25,大門観光株式会社,,株式会社,三重県,津市,大門１８番１１号,,24,201,5140027,,,2022-07-25,清算の結了等,,,2015-10-05,1,,,,,ダイモンカンコウ,0
1057,4190001004829,登記記録の閉鎖等,0,2022-07-29,2022-07-26,株式会社市川物産,,株式会社,三重県,鈴鹿市,御薗町２４０４番地,,24,207,5100261,,,2022-07-26,清算の結了等,,,2015-10-05,1,,,,,イチカワブッサン,0
1092,4330001013427,登記記録の閉鎖等,0,2022-07-29,2022-07-14,株式会社エコプランニング,,株式会社,熊本県,熊本市中央区,大江本町７番地９,,43,101,8620973,,,2022-07-14,清算の結了等,,,2015-10-05,1,,,,,エコプランニング,0
1099,4370001013506,登記記録の閉鎖等,0,2022-07-29,2022-07-14,株式会社トータルシステム,,株式会社,宮城県,仙台市青葉区,五橋１丁目４番２４号ライオンズビル五橋２０２号,,04,101,9800022,,,2022-07-14,清算の結了等,,,2015-10-05,1,,,,,トータルシステム,0
1107,4380002029599,登記記録の閉鎖等,0,2022-07-29,2022-07-20,有限会社石井工務店,,有限会社,福島県,南相馬市,小高区田町１丁目８０番地,,07,212,9792112,,,2022-07-20,清算の結了等,,,2015-10-05,1,,,,,イシイコウムテン,0
1122,4470002012892,登記記録の閉鎖等,0,2022-07-29,2022-07-28,有限会社寿産業,,有限会社,香川県,丸亀市,綾歌町栗熊西１６１５番地５,,37,202,7612405,,,2022-07-28,清算の結了等,,,2015-10-05,1,,,,,コトブキサンギョウ,0
1127,4500001008896,登記記録の閉鎖等,0,2022-07-29,2022-07-28,今久保鉄工株式会社,,株式会社,愛媛県,西条市,港字北新地４６９番地の１,,38,206,7930046,,,2022-07-28,清算の結了等,,,2015-10-05,1,,,,,イマクボテッコウ,0
1128,4500001013566,登記記録の閉鎖等,0,2022-07-29,2022-07-28,株式会社プチタミ,,株式会社,愛媛県,松山市,土居田町４０６番地５,,38,201,7900056,,,2022-07-28,清算の結了等,,,2015-10-05,1,,,,,,0
1140,5010001136515,登記記録の閉鎖等,0,2022-07-29,2022-07-21,株式会社ウィルドゥ,,株式会社,千葉県,船橋市,葛飾町２丁目３７２番地サニークレスト西船橋４０５号,,12,204,2730032,,,2022-07-21,清算の結了等,,,2015-10-05,1,,,,,ウィルドゥ,0
1143,5010001168525,登記記録の閉鎖等,0,2022-07-29,2022-07-13,合同新開源製薬株式会社,,株式会社,東京都,中央区,京橋２丁目１２番６号,,13,102,1040031,,,2022-07-13,清算の結了等,,,2015-10-05,1,,,,,ゴウドウシンカイゲンセイヤク,0
1145,5010002009307,登記記録の閉鎖等,0,2022-07-29,2022-07-12,有限会社クチュール．スズキ,,有限会社,東京都,千代田区,三番町３番地,,13,101,1020075,,,2022-07-12,清算の結了等,,,2015-10-05,1,,,,,クチュールスズキ,0
1162,5010401152054,登記記録の閉鎖等,0,2022-07-29,2022-07-25,株式会社ＢｉｚＧｅｎｅｓｉｓ,,株式会社,東京都,港区,芝大門２丁目１０番１２号,,13,103,1050012,,,2022-07-25,合併による解散等,7430001029022,令和４年７月１日札幌市中央区南一条西八丁目１０－３株式会社ファイバーゲート（7430001029022）に合併し解散,2020-04-02,1,,,,,ビズジェネシス,0
1186,5011001117728,登記記録の閉鎖等,0,2022-07-29,2022-07-01,ハイメディックインターナショナル株式会社,,株式会社,東京都,渋谷区,代々木４丁目３６番１９号,,13,113,1510053,,,2022-07-01,合併による解散等,3011001041013,令和４年７月１日東京都渋谷区代々木四丁目３６番１９号株式会社ハイメディック（3011001041013）に合併し解散,2017-08-14,1,,,,,ハイメディックインターナショナル,0
1195,5011101087986,登記記録の閉鎖等,0,2022-07-29,2022-07-25,株式会社Ｌｕｃｙ,,株式会社,東京都,新宿区,新宿３丁目２２番１１号ＲＳビル８Ｆ－Ｓ,,13,104,1600022,,,2022-07-25,清算の結了等,,,2019-06-07,1,,,,,ルーシー,0
1217,5020001046465,登記記録の閉鎖等,0,2022-07-29,2022-07-19,株式会社耐震防災,,株式会社,神奈川県,横浜市西区,平沼１丁目１４番２０号,,14,103,2200023,,,2022-07-19,清算の結了等,,,2015-10-05,1,,,,,タイシンボウサイ,0
1220,5020001079390,登記記録の閉鎖等,0,2022-07-29,2022-07-12,ウィスターテック・アソシエイツ株式会社,,株式会社,神奈川県,川崎市麻生区,王禅寺西７丁目３番２号,,14,137,2150017,,,2022-07-12,清算の結了等,,,2015-10-05,1,,,,,ウィスターテックアソシエイツ,0
1234,5021002023073,登記記録の閉鎖等,0,2022-07-29,2022-07-25,有限会社肉の田辺,,有限会社,神奈川県,相模原市緑区,大島７７７番地,,14,151,2520135,,,2022-07-25,清算の結了等,,,2015-10-05,1,,,,,,0
1237,5030001015873,登記記録の閉鎖等,0,2022-07-29,2022-07-15,株式会社ライカット,,株式会社,埼玉県,さいたま市南区,辻８丁目１６番８号,00014627,11,108,3360026,,,2022-07-15,清算の結了等,,,2015-10-05,1,,,,,ライカット,0
1240,5030001053238,登記記録の閉鎖等,0,2022-07-29,2022-07-14,株式会社清水企業,,株式会社,埼玉県,春日部市,上金崎５６９番地１,,11,214,3440111,,,2022-07-14,清算の結了等,,,2015-10-05,1,,,,,シミズキギョウ,0
1241,5030001065258,登記記録の閉鎖等,0,2022-07-29,2022-07-15,幸友会株式会社,,株式会社,埼玉県,吉川市,大字上内川４４４番地１,,11,243,3420001,,,2022-07-15,清算の結了等,,,2015-10-05,1,,,,,コウユウカイ,0
1245,5030002012341,登記記録の閉鎖等,0,2022-07-29,2022-07-15,有限会社北斗電工,,有限会社,埼玉県,さいたま市見沼区,深作３丁目６番地の１２,,11,104,3370003,,,2022-07-15,清算の結了等,,,2015-10-05,1,,,,,ホクトデンコウ,0
1251,5040001114575,登記記録の閉鎖等,0,2022-07-29,2022-07-25,株式会社ＷＯＲＬＤ　ＣＡＢＩＮ関東,,株式会社,千葉県,香取郡多古町,十余三２８１番地１４,,12,347,2892306,,,2022-07-25,合併による解散等,1011101051979,令和４年７月１日東京都港区東新橋一丁目１番１９号ヤクルト本社ビル１１階株式会社ＡＬＥＸＡＮＤＥＲ＆ＳＵＮ（1011101051979）に合併し解散,2020-08-04,1,,,,,ワールドキャビンカントウ,0
1262,5060002031636,登記記録の閉鎖等,0,2022-07-29,2022-07-21,有限会社いなば,,有限会社,栃木県,栃木市,箱森町２１番２８号,,09,203,3280075,,,2022-07-21,清算の結了等,,,2015-10-05,1,,,,,イナバ,0
1279,5100001014331,登記記録の閉鎖等,0,2022-07-29,2022-07-22,株式会社ジェットコーポレーション,,株式会社,長野県,松本市,大字岡田下岡田２５０番地９,,20,202,3900313,,,2022-07-22,清算の結了等,,,2015-10-05,1,,,,,ジェットコーポレーション,0
1283,5110001012607,登記記録の閉鎖等,0,2022-07-29,2022-07-26,株式会社佐藤工務所,,株式会社,新潟県,新発田市,緑町３丁目１番２５号,,15,206,9570018,,,2022-07-26,清算の結了等,,,2015-10-05,1,,,,,サトウコウムショ,0
1284,5110005005573,登記記録の閉鎖等,0,2022-07-29,2022-07-26,協同組合三条鋏センター共同工場,,その他の設立登記法人,新潟県,三条市,金子新田丙６４６番地６,,15,204,9550814,,,2022-07-26,清算の結了等,,,2015-10-05,1,,,,,サンジョウハサミセンターキョウドウコウジョウ,0
1312,5130001023057,登記記録の閉鎖等,0,2022-07-29,2022-07-21,株式会社横山源平堂,,株式会社,京都府,京都市中京区,丸太町通御幸町東入毘沙門町５５９番地,,26,104,6040981,,,2022-07-21,清算の結了等,,,2015-10-05,1,,,,,ヨコヤマゲンペイドウ,0
1328,5140003014185,登記記録の閉鎖等,0,2022-07-29,2022-07-13,ｄｅｅｚｕｓ合同会社,,合同会社,兵庫県,神戸市中央区,下山手通２丁目１３番３号建創ビル９階,,28,110,6500011,,,2022-07-13,清算の結了等,,,2019-08-16,1,,,,,ディーザス,0
1331,5170002009423,登記記録の閉鎖等,0,2022-07-29,2022-07-27,有限会社本田設備,,有限会社,和歌山県,西牟婁郡白浜町,富田９５０番地の６,,30,401,6492325,,,2022-07-27,清算の結了等,,,2015-10-05,1,,,,,ホンダセツビ,0
1336,5180003010445,登記記録の閉鎖等,0,2022-07-29,2022-07-25,合資会社西田商店,,合資会社,愛知県,名古屋市守山区,大字中志段味字東原２５０６番地,,23,113,4630002,,,2022-07-25,清算の結了等,,,2015-10-05,1,,,,,ニシダショウテン,0
1342,5180302011004,登記記録の閉鎖等,0,2022-07-29,2022-07-19,有限会社ちどり,,有限会社,愛知県,田原市,伊良湖町宮下３０００番地の５２,,23,231,4413624,,,2022-07-19,清算の結了等,,,2015-10-05,1,,,,,チドリ,0
1345,5180303002472,登記記録の閉鎖等,0,2022-07-29,2022-07-21,合資会社ニッポンボデー,,合資会社,愛知県,豊田市,広久手町６丁目６番地,,23,211,4710036,,,2022-07-21,清算の結了等,,,2015-10-05,1,,,,,ニッポンボデー,0
1359,5230005008374,登記記録の閉鎖等,0,2022-07-29,2022-07-26,一般社団法人じょうはな伝統芸能・文化を護る会,,その他の設立登記法人,富山県,南砺市,大鋸屋５１番地,,16,210,9391824,,,2022-07-26,清算の結了等,,,2015-10-05,1,,,,,ジョウハナデントウゲイノウブンカヲマモルカイ,0
1380,5320005002533,登記記録の閉鎖等,0,2022-07-29,2022-07-29,特定非営利活動法人共に生きる,,その他の設立登記法人,大分県,大分市,明野西１丁目５番２号,,44,201,8700164,,,2022-07-29,清算の結了等,,,2015-10-05,1,,,,,トモニイキル,0
1392,5390001007224,登記記録の閉鎖等,0,2022-07-29,2022-07-20,食菜のふるさと株式会社,,株式会社,山形県,酒田市,泉町９番３４号,,06,204,9980018,,,2022-07-20,清算の結了等,,,2015-10-05,1,,,,,ショクサイノフルサト,0
1411,6010001164333,登記記録の閉鎖等,0,2022-07-29,2022-07-11,アデッソデザイン株式会社,,株式会社,東京都,千代田区,飯田橋２丁目９番４－４０１号,,13,101,1020072,,,2022-07-11,清算の結了等,,,2015-10-05,1,,,,,アデッソデザイン,0
1438,6010901025964,登記記録の閉鎖等,0,2022-07-29,2022-07-01,トラストガーデン株式会社,,株式会社,東京都,渋谷区,代々木４丁目３６番１９号,,13,113,1510053,,,2022-07-01,合併による解散等,3011001041013,令和４年７月１日東京都渋谷区代々木四丁目３６番１９号株式会社ハイメディック（3011001041013）に合併し解散,2015-10-05,1,,,,,トラストガーデン,0
1470,6011602000240,登記記録の閉鎖等,0,2022-07-29,2022-07-26,有限会社アートフォールムどんぐり,,有限会社,東京都,練馬区,桜台３丁目１５番１号,,13,120,1760002,,,2022-07-26,清算の結了等,,,2015-10-05,1,,,,,アートフォールムドングリ,0
1474,6012701000775,登記記録の閉鎖等,0,2022-07-29,2022-07-27,株式会社日本ガーデン,,株式会社,東京都,小平市,小川町１丁目８７７番地の４６,,13,211,1870032,,,2022-07-27,清算の結了等,,,2015-10-05,1,,,,,ニホンガーデン,0
1481,6020001000256,登記記録の閉鎖等,0,2022-07-29,2022-07-21,株式会社ソフトシステム,,株式会社,神奈川県,横浜市栄区,飯島町１０９５番地５,,14,115,2440842,,,2022-07-21,清算の結了等,,,2015-10-05,1,,,,,ソフトシステム,0
1511,6030002121950,登記記録の閉鎖等,0,2022-07-29,2022-07-14,有限会社建創,,有限会社,埼玉県,秩父郡小鹿野町,小鹿野２８０７番地１,,11,365,3680105,,,2022-07-14,清算の結了等,,,2015-10-05,1,,,,,ケンソウ,0
1521,6040003006381,登記記録の閉鎖等,0,2022-07-29,2022-07-21,カシワコンピュータ合同会社,,合同会社,千葉県,柏市,あけぼの４丁目１１番１－５０８号,,12,217,2770841,,,2022-07-21,清算の結了等,,,2015-10-05,1,,,,,カシワコンピュータ,0
1524,6050002035769,登記記録の閉鎖等,0,2022-07-29,2022-07-22,有限会社常陸商事,,有限会社,茨城県,常陸大宮市,泉５４３番地の５,,08,225,3192144,,,2022-07-22,清算の結了等,,,2015-10-05,1,,,,,ヒタチショウジ,0
1532,6080102008721,登記記録の閉鎖等,0,2022-07-29,2022-07-28,有限会社山田呉服店,,有限会社,静岡県,伊豆市,柏久保６２８番地,,22,222,4102407,,,2022-07-28,清算の結了等,,,2015-10-05,1,,,,,ヤマダゴフクテン,0
1539,6110001017514,登記記録の閉鎖等,0,2022-07-29,2022-07-25,株式会社日本商産,,株式会社,新潟県,柏崎市,松波２丁目２４番２４号,,15,205,9450011,,,2022-07-25,清算の結了等,,,2015-10-05,1,,,,,ニホンショウサン,0
1541,6110002008719,登記記録の閉鎖等,0,2022-07-29,2022-07-26,有限会社アシストサービス,,有限会社,新潟県,新潟市西区,五十嵐中島２丁目１３番７８号,,15,107,9502162,,,2022-07-26,清算の結了等,,,2015-10-05,1,,,,,アシストサービス,0
1545,6120001229876,登記記録の閉鎖等,0,2022-07-29,2022-07-21,株式会社ＭＣマネジメント,,株式会社,大阪府,寝屋川市,黒原旭町２７－２０,,27,215,5720057,,,2022-07-21,清算の結了等,,,2020-06-22,1,,,,,エムシーマネジメント,0
1584,6180001037068,登記記録の閉鎖等,0,2022-07-29,2022-07-25,株式会社進和計装,,株式会社,愛知県,名古屋市中区,金山２丁目１１番１０号,,23,106,4600022,,,2022-07-25,清算の結了等,,,2015-10-05,1,,,,,シンワケイソウ,0
1590,6180001121904,登記記録の閉鎖等,0,2022-07-29,2022-07-25,株式会社アース,,株式会社,愛知県,名古屋市昭和区,川名町５丁目２７番地コスモ川名２－Ｃ号,,23,107,4660856,,,2022-07-25,清算の結了等,,,2016-01-27,1,,,,,アース,0
1605,6200001027834,登記記録の閉鎖等,0,2022-07-29,2022-07-27,株式会社エムズ,,株式会社,岐阜県,土岐市,泉東窯町１丁目１５番地の１の２,,21,212,5095103,,,2022-07-27,清算の結了等,,,2015-10-05,1,,,,,エムズ,0
1621,6240002052605,登記記録の閉鎖等,0,2022-07-29,2022-07-25,有限会社共栄電気工事,,有限会社,広島県,世羅郡世羅町,大字東神崎３６８番地の２０,,34,462,7221114,,,2022-07-25,清算の結了等,,,2015-10-05,1,,,,,キョウエイデンキコウジ,0
1628,6250002019479,登記記録の閉鎖等,0,2022-07-29,2022-07-25,有限会社建築工房ＮＯＡ,,有限会社,山口県,岩国市,横山３丁目１４番２３号,,35,208,7410081,,,2022-07-25,清算の結了等,,,2015-10-05,1,,,,,ケンチクコウボウノア,0
1642,6290001089742,登記記録の閉鎖等,0,2022-07-29,2022-07-25,株式会社ＷＯＲＬＤ　ＣＡＢＩＮ九州,,株式会社,福岡県,糟屋郡久山町,大字久原３２５９番地３,,40,348,8112501,,,2022-07-25,合併による解散等,1011101051979,令和４年７月１日東京都港区東新橋一丁目１番１９号ヤクルト本社ビル１１階株式会社ＡＬＥＸＡＮＤＥＲ＆ＳＵＮ（1011101051979）に合併し解散,2020-08-11,1,,,,,ワールドキャビンキュウシュウ,0
1649,6290802024526,登記記録の閉鎖等,0,2022-07-29,2022-07-21,有限会社山口電機商会,,有限会社,福岡県,田川市,白鳥町１番５号,,40,206,8250003,,,2022-07-21,清算の結了等,,,2015-10-05,1,,,,,ヤマグチデンキショウカイ,0
1664,6340001014694,登記記録の閉鎖等,0,2022-07-29,2022-07-28,株式会社さつき総合保険事務所,,株式会社,鹿児島県,鹿屋市,札元１丁目１４番１号,,46,203,8930013,,,2022-07-28,清算の結了等,,,2015-10-05,1,,,,,サツキソウゴウホケンジムショ,0
1690,6450002008098,登記記録の閉鎖等,0,2022-07-29,2022-07-28,秋月介護サービス有限会社,,有限会社,北海道,旭川市,流通団地三条４丁目２７番５号,,01,204,0798443,,,2022-07-28,清算の結了等,,,2015-10-05,1,,,,,アキツキカイゴサービス,0
1698,7010001048551,登記記録の閉鎖等,0,2022-07-29,2022-07-15,株式会社創研設計,,株式会社,東京都,千代田区,外神田４丁目１３番２号,,13,101,1010021,,,2022-07-15,清算の結了等,,,2015-10-05,1,,,,,ソウケンセッケイ,0
1739,7011001130423,登記記録の閉鎖等,0,2022-07-29,2022-07-12,株式会社フェアバリュー,,株式会社,東京都,渋谷区,恵比寿１丁目２４番１６号カルチェ恵比寿３０４号室,,13,113,1500013,,,2022-07-12,清算の結了等,,,2019-10-16,1,,,,,フェアバリュー,0
1750,7011201022692,登記記録の閉鎖等,0,2022-07-29,2022-07-21,株式会社ＭａｒｉａＷｉｚ,,株式会社,東京都,中野区,中野１丁目２７番１号ＴＫＪ－ＯＮＥ３階,,13,114,1640001,,,2022-07-21,清算の結了等,,,2021-01-18,1,,,,,マリアウィズ,0
1796,7030001050836,登記記録の閉鎖等,0,2022-07-29,2022-07-14,エフテイシー株式会社,,株式会社,埼玉県,春日部市,不動院野２５０３番地１,,11,214,3440001,,,2022-07-14,清算の結了等,,,2015-10-05,1,,,,,エフテイシー,0
1812,7040001078918,登記記録の閉鎖等,0,2022-07-29,2022-07-20,株式会社酒々井企画,,株式会社,千葉県,印旛郡酒々井町,東酒々井２丁目２番１８７,,12,322,2850923,,,2022-07-20,清算の結了等,,,2015-10-05,1,,,,,シスイキカク,0
1815,7040002027007,登記記録の閉鎖等,0,2022-07-29,2022-07-19,有限会社大和,,有限会社,千葉県,船橋市,大穴南５丁目２５番１５号,,12,204,2740067,,,2022-07-19,清算の結了等,,,2015-10-05,1,,,,,ダイワ,0
1819,7040005019959,登記記録の閉鎖等,0,2022-07-29,2022-07-20,千葉ビジネス開発協同組合,,その他の設立登記法人,千葉県,君津市,中野６丁目１番地２４,,12,225,2991151,,,2022-07-20,清算の結了等,,,2018-04-24,1,,,,,チバビジネスカイハツ,0
1877,7140001001992,登記記録の閉鎖等,0,2022-07-29,2022-07-25,株式会社中央管理サービス,,株式会社,兵庫県,神戸市北区,山田町上谷上字古々山２９番地の４８２,,28,109,6511242,,,2022-07-25,清算の結了等,,,2015-10-05,1,,,,,チュウオウカンリサービス,0
1888,7180001084794,登記記録の閉鎖等,0,2022-07-29,2022-07-25,株式会社エグゼスター,,株式会社,愛知県,一宮市,緑４丁目１番２号,,23,203,4910862,,,2022-07-25,清算の結了等,,,2015-10-05,1,,,,,エグゼスター,0
1895,7180302002091,登記記録の閉鎖等,0,2022-07-29,2022-07-20,有限会社富武工業,,有限会社,愛知県,岡崎市,下青野町字宝田２８番地１,,23,202,4440244,,,2022-07-20,清算の結了等,,,2015-10-05,1,,,,,トミタケコウギョウ,0
1899,7200005005884,登記記録の閉鎖等,0,2022-07-29,2022-07-28,揖斐川町土地開発公社,,その他の設立登記法人,岐阜県,揖斐郡揖斐川町,三輪１３３番地,,21,401,5010619,,,2022-07-28,清算の結了等,,,2015-10-05,1,,,,,イビガワチョウ,0
1900,7210002011216,登記記録の閉鎖等,0,2022-07-29,2022-07-20,有限会社パワーショップ,,有限会社,福井県,敦賀市,若葉町１丁目１５３１番地,,18,202,9140125,,,2022-07-20,清算の結了等,,,2015-10-05,1,,,,,パワーショップ,0
1924,7290001089733,登記記録の閉鎖等,0,2022-07-29,2022-07-19,辻実業株式会社,00120528,株式会社,福岡県,福岡市中央区,笹丘１丁目２３番３０号,,40,133,8100034,,,2022-07-19,清算の結了等,,,2020-08-18,1,,,,,ツジジツギョウ,0
1928,7290002039828,登記記録の閉鎖等,0,2022-07-29,2022-07-19,有限会社西日本クリーン,,有限会社,福岡県,福岡市博多区,竹丘町２丁目４番２９号,,40,132,8120878,,,2022-07-19,清算の結了等,,,2015-10-05,1,,,,,,0
1936,7320001016510,登記記録の閉鎖等,0,2022-07-29,2022-07-27,株式会社ＩＴＯ牧場,,株式会社,大分県,宇佐市,安心院町尾立１１６４番地の７０,,44,211,8720703,,,2022-07-27,清算の結了等,,,2018-07-23,1,,,,,イトウボクジョウ,0
1939,7340001023950,登記記録の閉鎖等,0,2022-07-29,2022-07-26,ワイイーエス株式会社,,株式会社,鹿児島県,霧島市,隼人町内４４２番地１,,46,218,8995116,,,2022-07-26,清算の結了等,,,2021-07-21,1,,,,,ワイイーエス,0
1951,7390005008745,登記記録の閉鎖等,0,2022-07-29,2022-07-20,特定非営利活動法人ささえ愛の会,,その他の設立登記法人,山形県,新庄市,堀端町６番１６号メゾンパークもがみＡ－１０,,06,205,9960085,,,2022-07-20,清算の結了等,,,2018-10-24,1,,,,,ササエアイノカイ,0
1958,7430002053566,登記記録の閉鎖等,0,2022-07-29,2022-07-14,有限会社グリーンマイティないえ,,有限会社,北海道,空知郡奈井江町,字奈井江町８７番地１,,01,424,0790300,,,2022-07-14,清算の結了等,,,2015-10-05,1,,,,,グリーンマイティナイエ,0
1966,7470002002172,登記記録の閉鎖等,0,2022-07-29,2022-07-28,有限会社川畑硝子店,,有限会社,香川県,高松市,太田上町５６１番地１,,37,201,7618074,,,2022-07-28,清算の結了等,,,2015-10-05,1,,,,,カワバタガラステン,0
1999,8010702010585,登記記録の閉鎖等,0,2022-07-29,2022-07-28,有限会社秋元,,有限会社,東京都,品川区,東五反田２丁目９番７号ピロティ五反田４１０号,,13,109,1410022,,,2022-07-28,清算の結了等,,,2015-10-05,1,,,,,アキモト,0
2004,8010901011640,登記記録の閉鎖等,0,2022-07-29,2022-07-25,ミゼット電気株式会社,,株式会社,東京都,世田谷区,玉堤２丁目１番４号,,13,112,1580087,,,2022-07-25,清算の結了等,,,2015-10-05,1,,,,,ミゼットデンキ,0
2015,8011003010878,登記記録の閉鎖等,0,2022-07-29,2022-07-12,安新組合同会社,,合同会社,東京都,渋谷区,千駄ヶ谷５丁目３番１２号Ｋ＆Ｋビル２階,,13,113,1510051,,,2022-07-12,清算の結了等,,,2020-02-18,1,,,,,アンシングミ,0
2025,8011501012153,登記記録の閉鎖等,0,2022-07-29,2022-07-28,株式会社Ｔ．Ｐ．Ｃサービス,,株式会社,東京都,荒川区,西日暮里５丁目１０番４号,,13,118,1160013,,,2022-07-28,清算の結了等,,,2015-10-05,1,,,,,,0
2034,8012402006046,登記記録の閉鎖等,0,2022-07-29,2022-07-15,国立食販有限会社,,有限会社,東京都,国立市,谷保４丁目１４番地の２,,13,215,1860011,,,2022-07-15,清算の結了等,,,2015-10-05,1,,,,,クニタチショクハン,0
2047,8013201014421,登記記録の閉鎖等,0,2022-07-29,2022-07-11,株式会社ＳＥＥＤ,,株式会社,東京都,目黒区,中根２丁目９番１０号,,13,110,1520031,,,2022-07-11,清算の結了等,,,2015-10-05,1,,,,,シード,0
2048,8020001022843,登記記録の閉鎖等,0,2022-07-29,2022-07-15,株式会社旭日警備,,株式会社,神奈川県,横浜市神奈川区,富家町１番地,,14,102,2210821,,,2022-07-15,清算の結了等,,,2015-10-05,1,,,,,アサヒケイビ,0
2073,8040001047228,登記記録の閉鎖等,0,2022-07-29,2022-07-20,カイドウ物産株式会社,,株式会社,千葉県,四街道市,鹿渡７９８番地の５,,12,228,2840003,,,2022-07-20,清算の結了等,,,2015-10-05,1,,,,,カイドウブッサン,0
2078,8040002054801,登記記録の閉鎖等,0,2022-07-29,2022-07-20,有限会社石井設計,,有限会社,千葉県,成田市,並木町２１番地,,12,211,2860045,,,2022-07-20,清算の結了等,,,2015-10-05,1,,,,,イシイセッケイ,0
2090,8050002034736,登記記録の閉鎖等,0,2022-07-29,2022-07-20,有限会社阿見旭紙工,,有限会社,茨城県,稲敷市,下太田６４２番地,,08,229,3001424,,,2022-07-20,清算の結了等,,,2015-10-05,1,,,,,アミアサヒシコウ,0
2095,8060002008334,登記記録の閉鎖等,0,2022-07-29,2022-07-21,有限会社マルサン食品,,有限会社,栃木県,宇都宮市,御幸ケ原町１０２番地,,09,201,3210982,,,2022-07-21,清算の結了等,,,2015-10-05,1,,,,,マルサンショクヒン,0
2102,8080002014644,登記記録の閉鎖等,0,2022-07-29,2022-07-26,有限会社タイムズ,,有限会社,静岡県,榛原郡吉田町,片岡９６９番地,,22,424,4210303,,,2022-07-26,清算の結了等,,,2015-10-05,1,,,,,タイムズ,0
2103,8080102010774,登記記録の閉鎖等,0,2022-07-29,2022-07-25,有限会社ダイゼン精工,,有限会社,静岡県,駿東郡長泉町,東野字八分平５０番地の８,,22,342,4110931,,,2022-07-25,清算の結了等,,,2015-10-05,1,,,,,ダイゼンセイコウ,0
2107,8100001002977,登記記録の閉鎖等,0,2022-07-29,2022-07-22,株式会社藤商事,,株式会社,長野県,長野市,徳間１丁目１６番８号,,20,201,3810041,,,2022-07-22,清算の結了等,,,2015-10-05,1,,,,,フジショウジ,0
2112,8110001017504,登記記録の閉鎖等,0,2022-07-29,2022-07-26,西山建設株式会社,,株式会社,新潟県,柏崎市,西山町礼拝字三五田５７７番地,,15,205,9494124,,,2022-07-26,清算の結了等,,,2015-10-05,1,,,,,ニシヤマケンセツ,0
2115,8110005005562,登記記録の閉鎖等,0,2022-07-29,2022-07-26,協同組合三条工匠具センター共同工場,,その他の設立登記法人,新潟県,三条市,金子新田乙１７００番地１,,15,204,9550814,,,2022-07-26,清算の結了等,,,2015-10-05,1,,,,,サンジョウコウショウグセンターキョウドウコウジョウ,0
2131,8120002063199,登記記録の閉鎖等,0,2022-07-29,2022-07-21,有限会社丸徳製作所,,有限会社,大阪府,大阪市港区,市岡１丁目２０番１１号,,27,107,5520012,,,2022-07-21,清算の結了等,,,2015-10-05,1,,,,,マルトクセイサクショ,0
2151,8140001020653,登記記録の閉鎖等,0,2022-07-29,2022-07-25,株式会社ジャパテック貿易,,株式会社,兵庫県,尼崎市,東園田町６丁目７７番１０１号,,28,202,6610953,,,2022-07-25,清算の結了等,,,2015-10-05,1,,,,,ジャパテックボウエキ,0
2157,8140002049865,登記記録の閉鎖等,0,2022-07-29,2022-07-25,有限会社中川酒店,,有限会社,兵庫県,姫路市,三左衛門堀東の町９８番地,,28,201,6700949,,,2022-07-25,清算の結了等,,,2015-10-05,1,,,,,ナカガワサケテン,0
2161,8180001027579,登記記録の閉鎖等,0,2022-07-29,2022-07-25,株式会社ユニテック,,株式会社,愛知県,名古屋市千種区,富士見台４丁目４７番地の３,,23,101,4640015,,,2022-07-25,清算の結了等,,,2015-10-05,1,,,,,ユニテック,0
2162,8180001089256,登記記録の閉鎖等,0,2022-07-29,2022-07-25,株式会社介護サービスまるちゃん,,株式会社,愛知県,丹羽郡大口町,余野２丁目１９７番地,,23,361,4800146,,,2022-07-25,清算の結了等,,,2015-10-05,1,,,,,カイゴサービスマルチャン,0
2184,8200001018815,登記記録の閉鎖等,0,2022-07-29,2022-07-27,株式会社スカイライトチューブ岐阜,,株式会社,岐阜県,可児市,下切１０７８番地１,,21,214,5090245,,,2022-07-27,清算の結了等,,,2015-10-05,1,,,,,スカイライトチューブギフ,0
2185,8200002000136,登記記録の閉鎖等,0,2022-07-29,2022-07-28,有限会社暁教育学習センター,,有限会社,岐阜県,岐阜市,六条大溝４丁目１１番１６号,,21,201,5008357,,,2022-07-28,清算の結了等,,,2015-10-05,1,,,,,アカツキキョウイクガクシュウセンター,0
2197,8240003000354,登記記録の閉鎖等,0,2022-07-29,2022-07-28,合資会社小泉家具工芸所,00001722,合資会社,広島県,広島市中区,紙屋町２丁目２番３３号,,34,101,7300031,,,2022-07-28,清算の結了等,,,2015-10-05,1,,,,,コイズミカグコウゲイショグ,0
2198,8250002008430,登記記録の閉鎖等,0,2022-07-29,2022-07-27,有限会社大村ビル,,有限会社,山口県,下関市,垢田町２丁目１６番９号,,35,201,7510841,,,2022-07-27,清算の結了等,,,2015-10-05,1,,,,,オオムラビル,0
2209,8290002008344,登記記録の閉鎖等,0,2022-07-29,2022-07-15,有限会社ソハラマンション,,有限会社,福岡県,福岡市早良区,西新６丁目７番２９号,,40,137,8140002,,,2022-07-15,清算の結了等,,,2015-10-05,1,,,,,ソハラマンション,0
2210,8290002023112,登記記録の閉鎖等,0,2022-07-29,2022-07-15,株式会社スタックデザイン,,株式会社,福岡県,福岡市南区,高宮１丁目１番１０－３０３号,,40,134,8150083,,,2022-07-15,清算の結了等,,,2015-10-05,1,,,,,スタックデザイン,0
2230,8430001068639,登記記録の閉鎖等,0,2022-07-29,2022-07-25,株式会社アクティブファーム,,株式会社,北海道,北広島市,富ヶ岡４２２番地１,,01,234,0611153,,,2022-07-25,清算の結了等,,,2015-10-05,1,,,,,アクティブファーム,0
2240,8480005000403,登記記録の閉鎖等,0,2022-07-29,2022-07-28,医療法人誠会,,その他の設立登記法人,徳島県,徳島市,国府町芝原字天満２５番地の１,,36,201,7793112,,,2022-07-28,清算の結了等,,,2015-10-05,1,,,,,マコトカイ,0
2259,9010002030606,登記記録の閉鎖等,0,2022-07-29,2022-07-11,有限会社丸善企画,,有限会社,東京都,文京区,西片１丁目１７番１１号,,13,105,1130024,,,2022-07-11,清算の結了等,,,2015-10-05,1,,,,,マルゼンキカク,0
2308,9011801019459,登記記録の閉鎖等,0,2022-07-29,2022-07-28,共伸株式会社,,株式会社,東京都,足立区,江北６丁目２７番１－４０３号,,13,121,1230872,,,2022-07-28,清算の結了等,,,2015-10-05,1,,,,,キョウシン,0
2346,9030002067514,登記記録の閉鎖等,0,2022-07-29,2022-07-15,有限会社平田設計工房,,有限会社,埼玉県,朝霞市,根岸台７丁目２４番４号,,11,227,3510005,,,2022-07-15,清算の結了等,,,2015-10-05,1,,,,,ヒラタセッケイコウボウ,0
2353,9040003020009,登記記録の閉鎖等,0,2022-07-29,2022-07-15,ＨＯＬＯＭＵＡ合同会社,,合同会社,千葉県,富里市,日吉台６丁目２４番地３,,12,233,2860201,,,2022-07-15,清算の結了等,,,2022-05-10,1,,,,,ホロムア,0
2359,9050003002757,登記記録の閉鎖等,0,2022-07-29,2022-07-20,合同会社ボーダレス,,合同会社,茨城県,結城市,大字矢畑２８０番地５,,08,207,3070022,,,2022-07-20,清算の結了等,,,2015-10-05,1,,,,,ボーダレス,0
2368,9100001007843,登記記録の閉鎖等,0,2022-07-29,2022-07-22,株式会社メグミ薬局,,株式会社,長野県,佐久市,中込２丁目１５番地２,,20,217,3850051,,,2022-07-22,清算の結了等,,,2015-10-05,1,,,,,メグミヤッキョク,0
2372,9100003003642,登記記録の閉鎖等,0,2022-07-29,2022-07-21,合同会社かがやきサポート,,合同会社,長野県,小県郡長和町,長久保１５０番地２０,,20,350,3860602,,,2022-07-21,清算の結了等,,,2015-10-05,1,,,,,カガヤキサポート,0
2376,9120001072373,登記記録の閉鎖等,0,2022-07-29,2022-07-27,株式会社渡辺新商店,,株式会社,大阪府,大阪市北区,天神橋１丁目１４番１５号,,27,127,5300041,,,2022-07-27,清算の結了等,,,2015-10-05,1,,,,,ワタナベシンショウテン,0
2399,9120902010613,登記記録の閉鎖等,0,2022-07-29,2022-07-28,有限会社田宮工務店,,有限会社,大阪府,高槻市,大蔵司２丁目９番３号第８摂津グリーンハイツ１１号,,27,207,5691034,,,2022-07-28,清算の結了等,,,2015-10-05,1,,,,,タミヤコウムテン,0
2400,9122001005172,登記記録の閉鎖等,0,2022-07-29,2022-07-22,東和青果株式会社,,株式会社,大阪府,東大阪市,森河内西２丁目４番１１号,,27,227,5770061,,,2022-07-22,清算の結了等,,,2015-10-05,1,,,,,トウワセイカ,0
2420,9180001071601,登記記録の閉鎖等,0,2022-07-29,2022-07-25,株式会社Ｐｅｒｓｈ,,株式会社,愛知県,名古屋市中区,丸の内３丁目１３番１号セプトン丸の内ビル２Ｆ,,23,106,4600002,,,2022-07-25,清算の結了等,,,2015-10-05,1,,,,,パーシュ,0
2451,9260001027140,登記記録の閉鎖等,0,2022-07-29,2022-07-27,株式会社日向,,株式会社,岡山県,美作市,梶並６７番地,,33,215,7070201,,,2022-07-27,清算の結了等,,,2015-10-05,1,,,,,ヒュウガ,0
2467,9290801027428,登記記録の閉鎖等,0,2022-07-29,2022-07-28,株式会社ｅｎｇｉｎｅ,,株式会社,福岡県,北九州市若松区,中川町３番２号,,40,103,8080025,,,2022-07-28,清算の結了等,,,2021-05-14,1,,,,,エンジン,0
2469,9300002011015,登記記録の閉鎖等,0,2022-07-29,2022-07-21,有限会社栄福丸,,有限会社,佐賀県,唐津市,鎮西町菖蒲２７７３番地６,,41,202,8470314,,,2022-07-21,清算の結了等,,,2015-10-05,1,,,,,エイフクマル,0
2470,9320002010238,登記記録の閉鎖等,0,2022-07-29,2022-07-27,有限会社由布開発ボーリング工業,,有限会社,大分県,由布市,湯布院町川上２９４５番地,,44,213,8795102,,,2022-07-27,清算の結了等,,,2015-10-05,1,,,,,ユフカイハツボーリングコウギョウ,0
2473,9330001013637,登記記録の閉鎖等,0,2022-07-29,2022-07-19,株式会社天商,,株式会社,熊本県,八代市,長田町２８２１番地の４,,43,202,8660815,,,2022-07-19,清算の結了等,,,2015-10-05,1,,,,,テンショウ,0
2497,9390001013136,登記記録の閉鎖等,0,2022-07-29,2022-07-19,株式会社進成工房,,株式会社,山形県,天童市,大字川原子字本郷４７３９番地,,06,210,9940103,,,2022-07-19,清算の結了等,,,2015-10-05,1,,,,,,0
2500,9410001005568,登記記録の閉鎖等,0,2022-07-29,2022-07-22,株式会社ミトファッション,,株式会社,秋田県,湯沢市,字両神１２１番地,,05,207,0120036,,,2022-07-22,清算の結了等,,,2015-10-05,1,,,,,,0
2520,9470002013341,登記記録の閉鎖等,0,2022-07-29,2022-07-27,有限会社松本保温工業所,,有限会社,香川県,仲多度郡琴平町,苗田３１５番地の１,,37,403,7660005,,,2022-07-27,清算の結了等,,,2015-10-05,1,,,,,マツモトホウオンコウギョウショ,0
