sequenceNumber,corporateNumber,process,correct,updateDate,changeDate,name,nameImageId,kind,prefectureName,cityName,streetNumber,addressImageId,prefectureCode,cityCode,postCode,addressOutside,addressOutsideImageId,closeDate,closeCause,successorCorporateNumber,changeCause,assignmentDate,latest,enName,enPrefectureName,enCityName,enAddressOutside,furigana,hihyoji
17,1010003049099,新規,0,2025-10-28,2025-10-28,合同会社ＣＪ４,,合同会社,東京都,中央区,京橋２丁目１２番６号ＡＯＪ税理士法人内,,13,102,1040031,,,,,,,2025-10-28,1,,,,,シージェイフォー,0
19,1010005040832,新規,0,2025-10-28,2025-10-28,一般社団法人トワイライト・オーシャン研究機構,,その他の設立登記法人,東京都,八丈島八丈町,三根４４１９番地６,,13,401,1001511,,,,,,,2025-10-28,1,,,,,トワイライトオーシャンケンキュウキコウ,0
20,1010005040849,新規,0,2025-10-28,2025-10-28,ＳＲＦアセット２一般社団法人,,その他の設立登記法人,東京都,千代田区,丸の内１丁目４番１号東京共同会計事務所内,,13,101,1000005,,,,,,,2025-10-28,1,,,,,エスアールエフアセットツー,0
21,1010005040857,新規,0,2025-10-28,2025-10-28,一般社団法人ＡＴＪ１６,,その他の設立登記法人,東京都,千代田区,丸の内１丁目４番１号東京共同会計事務所内,,13,101,1000005,,,,,,,2025-10-28,1,,,,,エーティージェイシックスティーン,0
26,1010401193473,新規,0,2025-10-28,2025-10-28,株式会社トレプロ,,株式会社,東京都,港区,芝浦３丁目１４番１８号キャナルスクエア芝浦５階,,13,103,1080023,,,,,,,2025-10-28,1,,,,,トレプロ,0
27,1010401194117,新規,0,2025-10-28,2025-10-28,株式会社ＭＣＫ,,株式会社,東京都,港区,西麻布１丁目２番２１－１０２号,,13,103,1060031,,,,,,,2025-10-28,1,,,,,エムシーケー,0
28,1010401194125,新規,0,2025-10-28,2025-10-28,Ｕｎｉｔｅｄ　Ｃｙｂｅｒ　Ｆｏｒｃｅ株式会社,,株式会社,東京都,港区,高輪２丁目２１番１号,,13,103,1080074,,,,,,,2025-10-28,1,,,,,ユナイテッドサイバーフォース,0
37,1010703007959,新規,0,2025-10-28,2025-10-28,合同会社Ｂａｒｅｌｉｎｅ,,合同会社,東京都,品川区,西大井４丁目６番１６号,,13,109,1400015,,,,,,,2025-10-28,1,,,,,ベアライン,0
38,1010805003220,新規,0,2025-10-28,2025-10-28,一般社団法人ｄｅｅｐ　ｗａｔｅｒ＆ｍｏｏｎｌｉｇｈｔ,,その他の設立登記法人,東京都,大田区,鵜の木２丁目４４番１号プレアデス多摩川２・１０２,,13,111,1460091,,,,,,,2025-10-28,1,,,,,ディープウォーターアンドムーンライト,0
40,1010903010374,新規,0,2025-10-28,2025-10-28,合同会社ヨセ,,合同会社,東京都,世田谷区,世田谷１丁目３６番３号サンライズ松本Ｎｏ．３－３４５,,13,112,1540017,,,,,,,2025-10-28,1,,,,,ヨセ,0
44,1011001173031,新規,0,2025-10-28,2025-10-28,テンスリーラボ株式会社,,株式会社,東京都,渋谷区,道玄坂１丁目１０番８号渋谷道玄坂東急ビル２Ｆ－Ｃ,,13,113,1500043,,,,,,,2025-10-28,1,,,,,テンスリーラボ,0
45,1011001173089,新規,0,2025-10-28,2025-10-28,株式会社Ｓａｉ,,株式会社,東京都,渋谷区,道玄坂１丁目１０番８号渋谷道玄坂東急ビル２Ｆ－Ｃ,,13,113,1500043,,,,,,,2025-10-28,1,,,,,サイ,0
47,1011003022731,新規,0,2025-10-28,2025-10-28,合同会社ＫＥＩＶ,,合同会社,東京都,渋谷区,神南１丁目１１－４ＦＰＧリンクス神南５階,,13,113,1500041,,,,,,,2025-10-28,1,,,,,ケイブ,0
58,1011501032744,新規,0,2025-10-28,2025-10-28,ＦＵＬＮ株式会社,,株式会社,東京都,北区,豊島３丁目３番１４号,,13,117,1140003,,,,,,,2025-10-28,1,,,,,フルン,0
61,1011801046972,新規,0,2025-10-28,2025-10-28,株式会社千寿工研,,株式会社,東京都,足立区,千住寿町３５番１７－９０５号,,13,121,1200033,,,,,,,2025-10-28,1,,,,,センジュコウケン,0
63,1011803007163,新規,0,2025-10-28,2025-10-28,ＦＴ合同会社,,合同会社,東京都,足立区,中川２丁目１３番４号,,13,121,1200002,,,,,,,2025-10-28,1,,,,,エフティー,0
64,1012303002233,新規,0,2025-10-28,2025-10-28,Ｈ１Ｃａｐｉｔａｌ　Ｐａｒｔｎｅｒｓ合同会社,,合同会社,東京都,町田市,玉川学園７丁目６番２０号,,13,209,1940041,,,,,,,2025-10-28,1,,,,,エイチワンキャピタルパートナーズ,0
67,1012801024324,新規,0,2025-10-28,2025-10-28,株式会社アイエムフーズ,,株式会社,東京都,立川市,柴崎町２丁目２番２３号,,13,202,1900023,,,,,,,2025-10-28,1,,,,,アイエムフーズ,0
80,1020001165368,新規,0,2025-10-28,2025-10-28,Ｍａｓａ’ｓ　Ｇａｒｄｅｎ株式会社,,株式会社,神奈川県,横浜市青葉区,藤が丘２丁目４５番地２イトーピア藤が丘サンヒルズ１０４,,14,117,2270043,,,,,,,2025-10-28,1,,,,,マサズガーデン,0
89,1021001086694,新規,0,2025-10-28,2025-10-28,株式会社ＥＶＥ,,株式会社,神奈川県,藤沢市,南藤沢２０番１９号第二ハルミビル,,14,205,2510055,,,,,,,2025-10-28,1,,,,,イブ,0
98,1030001169384,新規,0,2025-10-28,2025-10-28,橋本設備株式会社,,株式会社,埼玉県,狭山市,大字北入曽８１９番地の５,,11,215,3501315,,,,,,,2025-10-28,1,,,,,ハシモトセツビ,0
99,1030001169401,新規,0,2025-10-28,2025-10-28,株式会社高砂電工,,株式会社,埼玉県,さいたま市南区,辻２丁目１５番１７号,00141286,11,108,3360026,,,,,,,2025-10-28,1,,,,,タカサゴデンコウ,0
100,1030001169418,新規,0,2025-10-28,2025-10-28,株式会社ひまわり,,株式会社,埼玉県,志木市,本町６丁目２９番３号,,11,228,3530004,,,,,,,2025-10-28,1,,,,,ヒマワリ,0
107,1030003027961,新規,0,2025-10-28,2025-10-28,合同会社庭び左び,,合同会社,埼玉県,春日部市,六軒町４３０番地４,,11,214,3440012,,,,,,,2025-10-28,1,,,,,ワビサビ,0
111,1040001141136,新規,0,2025-10-28,2025-10-28,株式会社賢生,,株式会社,千葉県,八千代市,村上南５丁目８番地６レクセルグランデ勝田台７１０,,12,221,2760029,,,,,,,2025-10-28,1,,,,,ケンセイ,0
112,1040001141152,新規,0,2025-10-28,2025-10-28,株式会社Ｓｈｉｒａｔｏｒｉ　Ｇｒｏｕｐ,,株式会社,千葉県,山武郡横芝光町,栗山３２０５番地,,12,410,2891733,,,,,,,2025-10-28,1,,,,,シラトリグループ,0
116,1040003028819,新規,0,2025-10-28,2025-10-28,ＪＡＹＡＲＡＮＧＡ　ＥＸＰＯＲＴＳ合同会社,,合同会社,千葉県,柏市,南逆井１丁目１６番４４－１４号,,12,217,2770043,,,,,,,2025-10-28,1,,,,,ジャヤランガエクスポーツ,0
126,1070001043486,新規,0,2025-10-28,2025-10-28,株式会社高昇不動産,,株式会社,群馬県,伊勢崎市,曲沢町６７１番地５１,,10,204,3792203,,,,,,,2025-10-28,1,,,,,タカショウフドウサン,0
127,1070001043494,新規,0,2025-10-28,2025-10-28,株式会社Ｌｉｎｋ　Ｌａｂ,,株式会社,群馬県,高崎市,吉井町上奥平甲１９９１番地２,,10,202,3702139,,,,,,,2025-10-28,1,,,,,リンクラボ,0
136,1100001039068,新規,0,2025-10-28,2025-10-28,株式会社ラズリ,,株式会社,長野県,安曇野市,豊科４５９７番地１アスリート１０２,,20,220,3998205,,,,,,,2025-10-28,1,,,,,ラズリ,0
137,1100003008450,新規,0,2025-10-28,2025-10-28,合同会社テラス信州,,合同会社,長野県,松本市,大手３丁目３番９号ＮＴＴ東日本松本大名町ビル１Ｆ,,20,202,3900874,,,,,,,2025-10-28,1,,,,,テラスシンシュウ,0
140,1110001039678,新規,0,2025-10-28,2025-10-28,株式会社Ｓｕｃｃｅｓｓ　Ｇｕｉｄｅ,,株式会社,新潟県,新潟市中央区,南笹口１丁目１番３８号コープオリンピア８０８,,15,103,9500912,,,,,,,2025-10-28,1,,,,,サクセスガイド,0
152,1120001281345,新規,0,2025-10-28,2025-10-28,株式会社Ｅａｒｔｈ５７２,,株式会社,大阪府,大阪市北区,梅田１丁目１－３大阪駅前第３ビル２９階１－１－１号室,,27,127,5300001,,,,,,,2025-10-28,1,,,,,アースゴーナナニ,0
153,1120001281477,新規,0,2025-10-28,2025-10-28,瑞興株式会社,,株式会社,大阪府,大阪市中央区,松屋町住吉６番２６号住吉ビル２０１号,,27,128,5400017,,,,,,,2025-10-28,1,,,,,ズイコウ,0
154,1120001281502,新規,0,2025-10-28,2025-10-28,Ｎ＆Ｒアセットマネジメント株式会社,,株式会社,大阪府,大阪市中央区,北久宝寺町４丁目４番７号ＶＰＯ本町セントラル,,27,128,5410057,,,,,,,2025-10-28,1,,,,,エヌアンドアール,0
155,1120003031062,新規,0,2025-10-28,2025-10-28,ＲＡＩＮＢＯＷ　ＦＡＮＴＡＳＹ　ＵＮＩＣＯＲＮ　ＳＴＡＲＳ合同会社,,合同会社,大阪府,大阪市淀川区,東三国１丁目７－６まこと荘３０２号室,,27,123,5320002,,,,,,,2025-10-28,1,,,,,レインボーファンタジーユニコーンスターズ,0
156,1120003031070,新規,0,2025-10-28,2025-10-28,Ｃ＆Ｃ合同会社,,合同会社,大阪府,大阪市中央区,日本橋２丁目２番３－３０７号,,27,128,5420073,,,,,,,2025-10-28,1,,,,,シーアンドシー,0
157,1120003031104,新規,0,2025-10-28,2025-10-28,合同会社ＤｅｖＦｏｒｇｅ,,合同会社,大阪府,大阪市北区,梅田１丁目２番２号大阪駅前第２ビル１２－１２,,27,127,5300001,,,,,,,2025-10-28,1,,,,,デブフォージ,0
179,1140001140581,新規,0,2025-10-28,2025-10-28,株式会社伊吹カスタムデザイン,,株式会社,兵庫県,神戸市須磨区,月見山本町１丁目１番１０号－５０１,,28,107,6540051,,,,,,,2025-10-28,1,,,,,イブキカスタムデザイン,0
183,1140003022786,新規,0,2025-10-28,2025-10-28,合同会社オカザキ,,合同会社,兵庫県,芦屋市,宮塚町５番１号２Ｆ,,28,206,6590062,,,,,,,2025-10-28,1,,,,,オカザキ,0
186,1160001027166,新規,0,2025-10-28,2025-10-28,株式会社池元興業,,株式会社,滋賀県,蒲生郡日野町,大字山本７７８番地１１８,,25,383,5291651,,,,,,,2025-10-28,1,,,,,イケモトコウギョウ,0
197,1180001169254,新規,0,2025-10-28,2025-10-28,株式会社ＤＥＣＬＩＮＥ,,株式会社,愛知県,名古屋市北区,如意１丁目１１５番地,,23,103,4620007,,,,,,,2025-10-28,1,,,,,ディクライン,0
201,1180303006782,新規,0,2025-10-28,2025-10-28,合同会社美商堂,,合同会社,愛知県,安城市,古井町三ツ塚１９番地１・サンフィオーレ３０１,,23,212,4460025,,,,,,,2025-10-28,1,,,,,ビショウドウ,0
203,1190003005241,新規,0,2025-10-28,2025-10-28,Ｔｈｅ　Ｓｉｌｋ　Ｒｏａｄ　Ｃｏｍｐａｎｙ合同会社,,合同会社,三重県,松阪市,稲木町４４５番地,,24,204,5150212,,,,,,,2025-10-28,1,,,,,シルクロードカンパニー,0
210,1230003002523,新規,0,2025-10-28,2025-10-28,合同会社ＥＭＡ,,合同会社,富山県,富山市,四方荒屋１３１２－２６,,16,201,9302243,,,,,,,2025-10-28,1,,,,,エマ,0
213,1240001065686,新規,0,2025-10-28,2025-10-28,株式会社Ｎサポート,,株式会社,広島県,広島市西区,楠木町１丁目１４番１号,,34,104,7330002,,,,,,,2025-10-28,1,,,,,エヌサポート,0
214,1240001065703,新規,0,2025-10-28,2025-10-28,株式会社ＥＭＩ,,株式会社,広島県,広島市南区,段原２丁目１５番２４号,,34,103,7320811,,,,,,,2025-10-28,1,,,,,エミ,0
215,1250005009036,新規,0,2025-10-28,2025-10-28,一般財団法人大草医院記念財団,,その他の設立登記法人,山口県,山口市,阿東徳佐中３３８５番地２,,35,203,7591512,,,,,,,2025-10-28,1,,,,,オオクサイインキネンザイダン,0
219,1260001040679,新規,0,2025-10-28,2025-10-28,株式会社デンソ川上,,株式会社,岡山県,倉敷市,藤戸町天城４０１番地４,,33,202,7100132,,,,,,,2025-10-28,1,,,,,デンソカワカミ,0
220,1260001040687,新規,0,2025-10-28,2025-10-28,株式会社よつばＣＵＲＥ,,株式会社,岡山県,岡山市中区,下４３１番地１,,33,102,7038222,,,,,,,2025-10-28,1,,,,,ヨツバケア,0
226,1290001111741,新規,0,2025-10-28,2025-10-28,株式会社ＣＩＲＣＬＥＳ,,株式会社,福岡県,福岡市中央区,桜坂３丁目１３番４７号ライオンズマンション桜坂第２－４０２号,,40,133,8100024,,,,,,,2025-10-28,1,,,,,サークルズ,0
227,1290001111840,新規,0,2025-10-28,2025-10-28,株式会社Ｗｏｒｋｅｒ８,,株式会社,福岡県,柳川市,新外町１０６番地２,,40,207,8320069,,,,,,,2025-10-28,1,,,,,ワーカーエイト,0
228,1290001111881,新規,0,2025-10-28,2025-10-28,株式会社池田絣工房,,株式会社,福岡県,筑後市,大字久富１８４０番地,,40,211,8330056,,,,,,,2025-10-28,1,,,,,イケダカスリコウボウ,0
233,1290801031965,新規,0,2025-10-28,2025-10-28,株式会社ＨＯＴＴエターナリー,,株式会社,福岡県,田川市,大字伊田５００３番地１,,40,206,8250002,,,,,,,2025-10-28,1,,,,,ホットエターナリー,0
241,1320001021417,新規,0,2025-10-28,2025-10-28,株式会社ｅｉｇｈｔ,,株式会社,大分県,大分市,大字鶴瀬３９４番地の１,,44,201,8700121,,,,,,,2025-10-28,1,,,,,エイト,0
247,1330001033700,新規,0,2025-10-28,2025-10-28,株式会社かねこ,,株式会社,熊本県,天草郡苓北町,坂瀬川２７７７番地１,,43,531,8632501,,,,,,,2025-10-28,1,,,,,カネコ,0
248,1330003011282,新規,0,2025-10-28,2025-10-28,Ｃｏ．Ｍｕｎｉｔｙ合同会社,,合同会社,熊本県,熊本市南区,城南町阿高２５８番地２グリュック２１－３０１号,,43,104,8614224,,,,,,,2025-10-28,1,,,,,コムユニティ,0
249,1350001019788,新規,0,2025-10-28,2025-10-28,株式会社日高工業,00141283,株式会社,宮崎県,宮崎市,大字本郷南方３６１０番地１,,45,201,8800921,,,,,,,2025-10-28,1,,,,,ヒダカコウギョウ,0
251,1360003015355,新規,0,2025-10-28,2025-10-28,合同会社真来アルファ,,合同会社,沖縄県,島尻郡八重瀬町,字宜次１４９番地３,,47,362,9010416,,,,,,,2025-10-28,1,,,,,シンライアルファ,0
252,1360005007301,新規,0,2025-10-28,2025-10-28,医療法人社団悠陽会,,その他の設立登記法人,沖縄県,沖縄市,美原４丁目１番１５号１階,,47,211,9042155,,,,,,,2025-10-28,1,,,,,ユウヒカイ,0
257,1390001018142,新規,0,2025-10-28,2025-10-28,株式会社大吉米穀,,株式会社,山形県,新庄市,千門町１番２８号,,06,205,9960079,,,,,,,2025-10-28,1,,,,,ダイキチベイコク,0
259,1400001017217,新規,0,2025-10-28,2025-10-28,株式会社今川工業,,株式会社,岩手県,花巻市,桜町１丁目６７５番３号Ｃ２０２,,03,205,0250084,,,,,,,2025-10-28,1,,,,,イマカワコウギョウ,0
266,1420001019310,新規,0,2025-10-28,2025-10-28,株式会社ＹＨＳ,,株式会社,青森県,弘前市,大字山崎３丁目５－８,,02,202,0368233,,,,,,,2025-10-28,1,,,,,,0
271,1430001095524,新規,0,2025-10-28,2025-10-28,令和みらいサポート株式会社,,株式会社,北海道,札幌市北区,北十条西３丁目２３番地１－１階,,01,102,0010010,,,,,,,2025-10-28,1,,,,,レイワミライサポート,0
272,1430001095557,新規,0,2025-10-28,2025-10-28,株式会社マーシフルセレモニー,,株式会社,北海道,小樽市,望洋台３丁目５番１７号,,01,203,0470155,,,,,,,2025-10-28,1,,,,,マーシフルセレモニー,0
273,1430003018276,新規,0,2025-10-28,2025-10-28,合同会社國文,,合同会社,北海道,札幌市北区,北七条西４丁目１番地１トーカン札幌第一キャステール６０７,,01,102,0600807,,,,,,,2025-10-28,1,,,,,クニオ,0
278,1700150132744,新規,0,2025-10-28,2025-10-28,ＫＯＨＡＲＵ　ＰＴＥ．ＬＴＤ．,,外国会社等,,,,,,,,１６　ＲＡＦＦＬＥＳ　ＱＵＡＹ　＃１６－０２　ＨＯＮＧ　ＬＥＯＮＧ　ＢＵＩＬＤＩＮＧ　ＳＩＮＧＡＰＯＲＥ,,,,,,2025-10-28,1,,,,,コハルピーテイーイーリミテツド,0
282,2010001259789,新規,0,2025-10-28,2025-10-28,大地の恵み株式会社,,株式会社,東京都,中央区,銀座６丁目１３番１６号銀座ＷａｌｌビルＵＣＦ５階,,13,102,1040061,,,,,,,2025-10-28,1,,,,,ダイチノメグミ,0
283,2010003049098,新規,0,2025-10-28,2025-10-28,合同会社輪厚プレリート,,合同会社,東京都,中央区,京橋２丁目１２番６号ＡＯＪ税理士法人内,,13,102,1040031,,,,,,,2025-10-28,1,,,,,ワッツプレリート,0
284,2010005040848,新規,0,2025-10-28,2025-10-28,ＳＲＦアセット１一般社団法人,,その他の設立登記法人,東京都,千代田区,丸の内１丁目４番１号東京共同会計事務所内,,13,101,1000005,,,,,,,2025-10-28,1,,,,,エスアールエフアセットワン,0
285,2010005040856,新規,0,2025-10-28,2025-10-28,一般社団法人ＡＴＪ１５,,その他の設立登記法人,東京都,千代田区,丸の内１丁目４番１号東京共同会計事務所内,,13,101,1000005,,,,,,,2025-10-28,1,,,,,エーティージェイフィフティーン,0
303,2010403036423,新規,0,2025-10-28,2025-10-28,合同会社ＯＲＢコンサルティング,,合同会社,東京都,港区,虎ノ門１丁目１６番１１号桜川アネックス２階,,13,103,1050001,,,,,,,2025-10-28,1,,,,,オーブコンサルティング,0
305,2010501054839,新規,0,2025-10-28,2025-10-28,株式会社マトリックスソリューションズ,,株式会社,東京都,台東区,上野５丁目２２番１３号２階,,13,106,1100005,,,,,,,2025-10-28,1,,,,,マトリックスソリューションズ,0
315,2010901058349,新規,0,2025-10-28,2025-10-28,株式会社ＭａｉｓｏｎＡｒｓ,,株式会社,東京都,世田谷区,代田５丁目３０番１２号,,13,112,1550033,,,,,,,2025-10-28,1,,,,,メーゾンアルス,0
320,2011001173146,新規,0,2025-10-28,2025-10-28,株式会社Ｌｅｖ,,株式会社,東京都,渋谷区,恵比寿４丁目２０番３号恵比寿ガーデンプレイスタワー１８階,,13,113,1500013,,,,,,,2025-10-28,1,,,,,レヴ,0
322,2011003022730,新規,0,2025-10-28,2025-10-28,Ｋａｋｕｎｏ合同会社,,合同会社,東京都,渋谷区,道玄坂１丁目１０番８号渋谷道玄坂東急ビル２Ｆ－Ｃ,,13,113,1500043,,,,,,,2025-10-28,1,,,,,カクノ,0
323,2011003022739,新規,0,2025-10-28,2025-10-28,合同会社Ｂｏａｒｄ＆Ｂｅｙｏｎｄ,,合同会社,東京都,渋谷区,神南１丁目１１－４ＦＰＧリンクス神南５階,,13,113,1500041,,,,,,,2025-10-28,1,,,,,ボードアンドビヨンド,0
324,2011003022821,新規,0,2025-10-28,2025-10-28,合同会社ウルティス,,合同会社,東京都,渋谷区,恵比寿西２丁目８番４号ＥＸ恵比寿西ビル５階,,13,113,1500021,,,,,,,2025-10-28,1,,,,,ウルティス,0
325,2011003022854,新規,0,2025-10-28,2025-10-28,ＮＯＫＡ合同会社,,合同会社,東京都,目黒区,緑が丘２丁目２２番２号,,13,110,1520034,,,,,,,2025-10-28,1,,,,,ノカ,0
336,2011201026748,新規,0,2025-10-28,2025-10-28,株式会社ＳＵＮＳＥＴ　ＬＩＦＥ,,株式会社,東京都,中野区,東中野２丁目２９番３号Ｌｉｅｂｅ東中野２０２,,13,114,1640003,,,,,,,2025-10-28,1,,,,,サンセットライフ,0
338,2011301031012,新規,0,2025-10-28,2025-10-28,株式会社ケーマックス・ラボ,,株式会社,東京都,杉並区,浜田山３丁目２１番１４号カーサヒビヤ３０１,,13,115,1680065,,,,,,,2025-10-28,1,,,,,ケーマックスラボ,0
345,2012405005182,新規,0,2025-10-28,2025-10-28,特定非営利活動法人ＮＰＯつなぐ,,その他の設立登記法人,東京都,調布市,富士見町４丁目２４番地２８号,,13,208,1820033,,,,,,,2025-10-28,1,,,,,エヌピーオーツナグ,0
359,2020001165359,新規,0,2025-10-28,2025-10-28,株式会社エスケーワイアセットマネジメント,,株式会社,神奈川県,横浜市戸塚区,上倉田町１８５４番地１,,14,110,2440816,,,,,,,2025-10-28,1,,,,,エスケーワイアセットマネジメント,0
360,2020001165482,新規,0,2025-10-28,2025-10-28,株式会社Ｗ　Ｄｙｎａｍｉｃｓ,,株式会社,神奈川県,川崎市川崎区,駅前本町１１番地２川崎フロンティアビル４階,,14,131,2100007,,,,,,,2025-10-28,1,,,,,ダブリューダイナミクス,0
361,2020001165524,新規,0,2025-10-28,2025-10-28,株式会社エナジーサポート,,株式会社,神奈川県,横浜市中区,尾上町４丁目５７番地横浜尾上町ビルディング８Ｆ,,14,104,2310015,,,,,,,2025-10-28,1,,,,,エナジーサポート,0
378,2030001169326,新規,0,2025-10-28,2025-10-28,オオトモ工業株式会社,,株式会社,埼玉県,八潮市,大字西袋６５８－１,,11,234,3400833,,,,,,,2025-10-28,1,,,,,オオトモコウギョウ,0
379,2030001169400,新規,0,2025-10-28,2025-10-28,株式会社ＹＲＥＩ,,株式会社,埼玉県,北葛飾郡松伏町,田中３丁目２番地３５,,11,465,3430117,,,,,,,2025-10-28,1,,,,,ワイアールイーアイ,0
380,2030001169409,新規,0,2025-10-28,2025-10-28,株式会社エイトワークス,,株式会社,埼玉県,所沢市,大字上安松５５５番地の２サンルミエールＡ－２０４,,11,208,3590025,,,,,,,2025-10-28,1,,,,,エイトワークス,0
386,2030003027960,新規,0,2025-10-28,2025-10-28,合同会社Ｗｉｎｇｓ　Ｃｏ．,,合同会社,埼玉県,狭山市,入間川３丁目２７番１３号,,11,215,3501305,,,,,,,2025-10-28,1,,,,,ウィングスカンパニー,0
388,2040001141135,新規,0,2025-10-28,2025-10-28,日昌株式会社,,株式会社,千葉県,千葉市稲毛区,小深町１２番地１,,12,103,2630003,,,,,,,2025-10-28,1,,,,,ニッショウ,0
389,2040001141143,新規,0,2025-10-28,2025-10-28,株式会社ＥＡＳＴホールディングス,,株式会社,千葉県,船橋市,南海神１丁目２番２５号,,12,204,2730023,,,,,,,2025-10-28,1,,,,,イーストホールディングス,0
390,2040001141151,新規,0,2025-10-28,2025-10-28,株式会社円卓,,株式会社,千葉県,松戸市,新松戸７丁目１５１－１０,,12,207,2700034,,,,,,,2025-10-28,1,,,,,エンタク,0
394,2040003028859,新規,0,2025-10-28,2025-10-28,合同会社Ａ．ｊｕｓｔ,,合同会社,千葉県,千葉市中央区,都町１丁目２３番２３号,,12,101,2600001,,,,,,,2025-10-28,1,,,,,アジャスト,0
407,2090001019582,新規,0,2025-10-28,2025-10-28,株式会社Ｂｌｏｓｓｏｍｉａ,,株式会社,山梨県,上野原市,鶴島８６８－１,,19,212,4090114,,,,,,,2025-10-28,1,,,,,ブロッソミア,0
408,2100001039075,新規,0,2025-10-28,2025-10-28,株式会社樹木業,,株式会社,長野県,伊那市,高遠町西高遠９５０番地,,20,209,3960211,,,,,,,2025-10-28,1,,,,,ジュモクギョウ,0
424,2120001281501,新規,0,2025-10-28,2025-10-28,株式会社ＮＥＸＴＡ,,株式会社,大阪府,大阪市生野区,桃谷４丁目４番３号,,27,116,5440034,,,,,,,2025-10-28,1,,,,,ネクスタ,0
427,2120003031061,新規,0,2025-10-28,2025-10-28,合同会社ＣｒａｎＫｏｏ,,合同会社,大阪府,大阪市北区,梅田１丁目１－３大阪駅前第３ビル２９階１－１－１号室,,27,127,5300001,,,,,,,2025-10-28,1,,,,,クランクー,0
428,2120005025227,新規,0,2025-10-28,2025-10-28,一般社団法人清心会,,その他の設立登記法人,大阪府,大阪市中央区,島町１丁目１番３号近畿ビル２Ｆ,,27,128,5400034,,,,,,,2025-10-28,1,,,,,セイシンカイ,0
430,2120901051664,新規,0,2025-10-28,2025-10-28,株式会社プラスミライ不動産,,株式会社,大阪府,豊中市,服部元町１丁目９番１４号ゆたか３号館４０２号,,27,203,5610851,,,,,,,2025-10-28,1,,,,,プラスミライフドウサン,0
433,2122003003370,新規,0,2025-10-28,2025-10-28,三五八合同会社,,合同会社,大阪府,東大阪市,柏田東町１０番２５号,,27,227,5770833,,,,,,,2025-10-28,1,,,,,サンゴハチ,0
438,2140001140507,新規,0,2025-10-28,2025-10-28,友通株式会社,,株式会社,兵庫県,芦屋市,奥池南町１０番１－２０２号,,28,206,6590004,,,,,,,2025-10-28,1,,,,,ユウツウ,0
439,2140001140548,新規,0,2025-10-28,2025-10-28,株式会社ＦＫＹ,,株式会社,兵庫県,尼崎市,南武庫之荘１丁目２９番１４号,,28,202,6610033,,,,,,,2025-10-28,1,,,,,エフケイワイ,0
440,2140001140556,新規,0,2025-10-28,2025-10-28,株式会社Ｃａｓａ　ＥＣＯ,,株式会社,兵庫県,神戸市灘区,篠原本町１丁目８番１８号,,28,102,6570067,,,,,,,2025-10-28,1,,,,,カーサエコ,0
445,2150001028486,新規,0,2025-10-28,2025-10-28,株式会社ＡＧＭ　Ｅｌｅｖａｔｅ,,株式会社,奈良県,奈良市,尼辻北町７－７プレステ８番館１０８号,,29,201,6308025,,,,,,,2025-10-28,1,,,,,エージーエムエレベート,0
449,2160001027157,新規,0,2025-10-28,2025-10-28,株式会社銀座スコーレ上野テントウシャ,,株式会社,滋賀県,彦根市,芹橋１丁目４番３６号,,25,202,5220087,,,,,,,2025-10-28,1,,,,,ギンザスコーレウエノテントウシャ,0
450,2170001018849,新規,0,2025-10-28,2025-10-28,東勝食品株式会社,,株式会社,和歌山県,和歌山市,六十谷２７３番地８－１０３号室,,30,201,6408482,,,,,,,2025-10-28,1,,,,,トウカツショクヒン,0
454,2180001169286,新規,0,2025-10-28,2025-10-28,株式会社セントラル,,株式会社,愛知県,名古屋市中川区,千音寺４丁目１１４２番地,,23,110,4540977,,,,,,,2025-10-28,1,,,,,セントラル,0
455,2180001169311,新規,0,2025-10-28,2025-10-28,株式会社ＰＩＳＴＯＮ,,株式会社,愛知県,丹羽郡大口町,高橋２丁目２３番地３,,23,361,4800131,,,,,,,2025-10-28,1,,,,,ピストン,0
458,2180005021286,新規,0,2025-10-28,2025-10-28,税理士法人カメガイ会計,,その他の設立登記法人,愛知県,犬山市,大字犬山字西三条４６番地１仙田ビル２階３号,,23,215,4840081,,,,,,,2025-10-28,1,,,,,カメガイカイケイ,0
459,2180301040353,新規,0,2025-10-28,2025-10-28,パペラーダ株式会社,,株式会社,愛知県,豊橋市,東幸町字長山１番地１１,,23,201,4400843,,,,,,,2025-10-28,1,,,,,パペラーダ,0
464,2220001026994,新規,0,2025-10-28,2025-10-28,ＡＩ‐ＢＲＩＤＧＥ株式会社,,株式会社,石川県,白山市,鶴来本町２丁目ワ４２番地１,,17,210,9202121,,,,,,,2025-10-28,1,,,,,エーアイブリッジ,0
465,2230001021152,新規,0,2025-10-28,2025-10-28,株式会社嶋川コーポレーション,,株式会社,富山県,滑川市,下島８１番地,,16,206,9360065,,,,,,,2025-10-28,1,,,,,シマカワコーポレーション,0
469,2240001065693,新規,0,2025-10-28,2025-10-28,株式会社ｍｕｃｈｕ,,株式会社,広島県,福山市,駅家町大字万能倉１４１３番地１３,,34,207,7201131,,,,,,,2025-10-28,1,,,,,ムチュウ,0
477,2280005007671,新規,0,2025-10-28,2025-10-28,一般社団法人Ｃｉｔｒｉｎｅ　ＳＨＩＭＡＮＥ　Ｌｉｎｋｓ,,その他の設立登記法人,島根県,雲南市,加茂町宇治２２８番地１,,32,209,6991105,,,,,,,2025-10-28,1,,,,,シトリンシマネリンクス,0
483,2290001111864,新規,0,2025-10-28,2025-10-28,株式会社ＴＹ　ＣＯＬＬＥＣＴＯＲＳ,,株式会社,福岡県,筑後市,大字長浜７６３－３－Ｆ,,40,211,8330005,,,,,,,2025-10-28,1,,,,,ティワイコレクターズ,0
485,2290003017589,新規,0,2025-10-28,2025-10-28,合同会社Ｓｉｅｌｌｅ,,合同会社,福岡県,久留米市,野中町８２４番地１ラルジュ野中Ａ,,40,203,8390862,,,,,,,2025-10-28,1,,,,,シエル,0
486,2290003017606,新規,0,2025-10-28,2025-10-28,和展合同会社,,合同会社,福岡県,太宰府市,宰府１丁目４番２号,,40,221,8180117,,,,,,,2025-10-28,1,,,,,ワテン,0
489,2290801031964,新規,0,2025-10-28,2025-10-28,株式会社ハルテクノ,,株式会社,福岡県,田川市,大字伊田２６７０番地７,,40,206,8250002,,,,,,,2025-10-28,1,,,,,ハルテクノ,0
492,2310001019832,新規,0,2025-10-28,2025-10-28,株式会社杣林,,株式会社,長崎県,五島市,岐宿町松山２０３７－５,,42,211,8530313,,,,,,,2025-10-28,1,,,,,ソマリン,0
497,2330003011281,新規,0,2025-10-28,2025-10-28,合同会社リブコード,,合同会社,熊本県,熊本市南区,近見１丁目８－３６,,43,104,8614101,,,,,,,2025-10-28,1,,,,,リブコード,0
499,2340001027733,新規,0,2025-10-28,2025-10-28,東京トイズパーク株式会社,,株式会社,鹿児島県,霧島市,国分福島１丁目４番３４号,,46,218,8994322,,,,,,,2025-10-28,1,,,,,トウキョウトイズパーク,0
500,2350001019787,新規,0,2025-10-28,2025-10-28,株式会社キャリアイノベーションラボ,,株式会社,宮崎県,宮崎市,錦本町４番５号－１,,45,201,8800818,,,,,,,2025-10-28,1,,,,,キャリアイノベーションラボ,0
505,2360003015354,新規,0,2025-10-28,2025-10-28,合同会社陽気,,合同会社,沖縄県,南城市,佐敷字津波古９３０番地,,47,215,9011414,,,,,,,2025-10-28,1,,,,,ヨウキ,0
506,2360003015362,新規,0,2025-10-28,2025-10-28,合同会社あすかファーム,,合同会社,沖縄県,南城市,玉城字前川３３２番地１,,47,215,9010616,,,,,,,2025-10-28,1,,,,,アスカファーム,0
512,2390001018141,新規,0,2025-10-28,2025-10-28,株式会社茂木技建,,株式会社,山形県,最上郡真室川町,大字釜渕３３番地４,,06,364,9995604,,,,,,,2025-10-28,1,,,,,モギギケン,0
514,2400001017216,新規,0,2025-10-28,2025-10-28,株式会社弥栄,,株式会社,岩手県,久慈市,長内町第３６地割９番地２,,03,207,0280041,,,,,,,2025-10-28,1,,,,,イヤサカ,0
525,2440001009705,新規,0,2025-10-28,2025-10-28,株式会社颯,,株式会社,北海道,檜山郡上ノ国町,字北村４５９番地１,,01,362,0490622,,,,,,,2025-10-28,1,,,,,ハヤテ,0
528,2700150132719,新規,0,2025-10-28,2025-10-28,ＯＳＨ　ＩＮＶＥＳＴ　ＰＴＹ　ＬＴＤ,,外国会社等,,,,,,,,オーストラリア連邦、クイーンズランド州、ブロードビーチ・ウォーターズ、サラソータ・キー５,,,,,,2025-10-28,1,,,,,オーエスエイチインベストピーテイーワイリミテツド,0
529,2700150132743,新規,0,2025-10-28,2025-10-28,ＹＵＲＩＫＯ　ＳＨＩＰＰＩＮＧ　ＩＮＣ．,,外国会社等,広島県,尾道市,山波町１００５番地　尾道造船株式会社　尾道造船所　内,,34,205,7220052,８０　Ｂｒｏａｄ　Ｓｔｒｅｅｔ，Ｍｏｎｒｏｖｉａ，Ｌｉｂｅｒｉａ,,,,,,2025-10-28,1,,,,,ユリコシツピングインコーポレーテツド,0
539,3010005040847,新規,0,2025-10-28,2025-10-28,日光Ｐｌｕｓ２５一般社団法人,,その他の設立登記法人,東京都,千代田区,丸の内１丁目４番１号東京共同会計事務所内,,13,101,1000005,,,,,,,2025-10-28,1,,,,,ニッコウプラストゥエンティファイブ,0
540,3010005040855,新規,0,2025-10-28,2025-10-28,ＳＲＦアセット８一般社団法人,,その他の設立登記法人,東京都,千代田区,丸の内１丁目４番１号東京共同会計事務所内,,13,101,1000005,,,,,,,2025-10-28,1,,,,,エスアールエフアセットエイト,0
546,3010401193901,新規,0,2025-10-28,2025-10-28,株式会社通訳者ギルド,,株式会社,東京都,港区,芝３丁目１３－３－１０２,,13,103,1050014,,,,,,,2025-10-28,1,,,,,ツウヤクシャギルド,0
550,3010605004516,新規,0,2025-10-28,2025-10-28,一般社団法人長谷木・木の記念幹,,その他の設立登記法人,東京都,江東区,新木場１丁目１６番３号,,13,108,1360082,,,,,,,2025-10-28,1,,,,,ハセモクキノキネンカン,0
552,3010701048524,新規,0,2025-10-28,2025-10-28,株式会社ＴｏｐＴｉｅｒ,,株式会社,東京都,品川区,上大崎４丁目１－１,,13,109,1410021,,,,,,,2025-10-28,1,,,,,トップティア,0
553,3010703007973,新規,0,2025-10-28,2025-10-28,合同会社Ａｎａｎｄａｈ,,合同会社,東京都,品川区,北品川５丁目１６番２５号,,13,109,1410001,,,,,,,2025-10-28,1,,,,,アーナンダ,0
554,3010801036734,新規,0,2025-10-28,2025-10-28,マルゴ水産株式会社,,株式会社,東京都,大田区,山王１丁目２９番５号,,13,111,1430023,,,,,,,2025-10-28,1,,,,,マルゴスイサン,0
568,3011001172683,新規,0,2025-10-28,2025-10-28,株式会社Ｄｉａｒｙ,,株式会社,東京都,渋谷区,広尾１丁目２番地１号ヒカリビル４階,,13,113,1500012,,,,,,,2025-10-28,1,,,,,ダイアリー,0
569,3011001173079,新規,0,2025-10-28,2025-10-28,株式会社Ｓｏｌｉｄ　Ｆｏｕｎｄａｔｉｏｎ　Ｊａｐａｎ,,株式会社,東京都,渋谷区,道玄坂１丁目１０番８号渋谷道玄坂東急ビル２Ｆ－Ｃ,,13,113,1500043,,,,,,,2025-10-28,1,,,,,ソリッドファンデーションジャパン,0
570,3011001173120,新規,0,2025-10-28,2025-10-28,株式会社ＷＥＤＮＥＳＤＡＹ,,株式会社,東京都,渋谷区,渋谷３丁目１８－５佐藤エステートビル本館７Ｆ,,13,113,1500002,,,,,,,2025-10-28,1,,,,,ウェンズデー,0
571,3011001173145,新規,0,2025-10-28,2025-10-28,Ｔｒｕｎｋｏｎｎｅｃｔａ８株式会社,,株式会社,東京都,目黒区,大岡山１丁目２番３号,,13,110,1520033,,,,,,,2025-10-28,1,,,,,トランコネクタ,0
572,3011101016286,新規,0,2025-10-28,2025-10-28,日本企画株式会社,,株式会社,東京都,新宿区,高田馬場４丁目９番１１号藤和高田馬場コープＩＩ１０Ｆ,00141199,13,104,1690075,,,,,,,2025-10-28,1,,,,,,0
575,3011101113736,新規,0,2025-10-28,2025-10-28,株式会社ＫＧＮｅｕｔｒａｌ,,株式会社,東京都,新宿区,高田馬場２丁目１７番３号東京三協信用金庫本店ビル６０９,,13,104,1690075,,,,,,,2025-10-28,1,,,,,ケージーニュートラル,0
578,3011105011614,新規,0,2025-10-28,2025-10-28,ＬＬＨＣホールディングス一般社団法人,,その他の設立登記法人,東京都,新宿区,四谷２丁目９番地１５東京ユナイテッド綜合事務所内,,13,104,1600004,,,,,,,2025-10-28,1,,,,,エルエルエイチシーホールディングス,0
579,3011203004866,新規,0,2025-10-28,2025-10-28,合同会社桜,,合同会社,東京都,中野区,弥生町２丁目１２番１号,,13,114,1640013,,,,,,,2025-10-28,1,,,,,サクラ,0
582,3011501032759,新規,0,2025-10-28,2025-10-28,ＡＩＡ　ｆｉｎａｎｃｉａｌ株式会社,,株式会社,東京都,北区,志茂３丁目４３－１６－６２６,,13,117,1150042,,,,,,,2025-10-28,1,,,,,エーアイエーファイナンシャル,0
583,3011501032767,新規,0,2025-10-28,2025-10-28,株式会社ハレマエ,,株式会社,東京都,北区,上十条５丁目３０－２１,,13,117,1140034,,,,,,,2025-10-28,1,,,,,ハレマエ,0
598,3012301014575,新規,0,2025-10-28,2025-10-28,株式会社ＴＲＹ’Ｓ,,株式会社,東京都,町田市,上小山田町２９１５番地５,,13,209,1940201,,,,,,,2025-10-28,1,,,,,トライズ,0
604,3013305003779,新規,0,2025-10-28,2025-10-28,一般社団法人池袋マンション支援センター,,その他の設立登記法人,東京都,豊島区,駒込７丁目１２番４号,,13,116,1700003,,,,,,,2025-10-28,1,,,,,イケブクロマンションシエンセンター,0
624,3020001165548,新規,0,2025-10-28,2025-10-28,株式会社ＦＴホームズ,,株式会社,神奈川県,横浜市港北区,新吉田町３４１５番地１１,,14,109,2230056,,,,,,,2025-10-28,1,,,,,エフティーホームズ,0
646,3030001169358,新規,0,2025-10-28,2025-10-28,株式会社緑功園,,株式会社,埼玉県,加須市,三俣２丁目１１番地５,,11,210,3470009,,,,,,,2025-10-28,1,,,,,リョッコウエン,0
647,3030001169382,新規,0,2025-10-28,2025-10-28,株式会社ケセラセラ,,株式会社,埼玉県,八潮市,八潮３丁目３２番地３５,,11,234,3400815,,,,,,,2025-10-28,1,,,,,ケセラセラ,0
648,3030001169416,新規,0,2025-10-28,2025-10-28,ビートルファーム株式会社,,株式会社,埼玉県,さいたま市西区,大字佐知川９５－１２,,11,101,3310064,,,,,,,2025-10-28,1,,,,,ビートルファーム,0
649,3030001169424,新規,0,2025-10-28,2025-10-28,株式会社環美,,株式会社,埼玉県,入間郡三芳町,大字北永井６８１番地２３２,,11,324,3540044,,,,,,,2025-10-28,1,,,,,カンビ,0
653,3030003027943,新規,0,2025-10-28,2025-10-28,ｓｔｕｄｉｏ１２合同会社,,合同会社,埼玉県,さいたま市浦和区,元町２丁目２３番１３号－Ｂ２０２,,11,107,3300073,,,,,,,2025-10-28,1,,,,,スタジオトゥエルブ,0
654,3030003027951,新規,0,2025-10-28,2025-10-28,ＨＵＮＧ　ＴＨＩＮＨ　ＰＨＡＴ合同会社,,合同会社,埼玉県,蕨市,中央１丁目２９番２号蕨駅前ビル３Ｆ,,11,223,3350004,,,,,,,2025-10-28,1,,,,,フンティンファット,0
661,3040001141068,新規,0,2025-10-28,2025-10-28,株式会社ぴこっと,,株式会社,千葉県,柏市,あけぼの３丁目５番７号,,12,217,2770841,,,,,,,2025-10-28,1,,,,,ピコット,0
662,3040001141142,新規,0,2025-10-28,2025-10-28,株式会社Ｃｏｍｉｔａｓ,,株式会社,千葉県,富里市,七栄４８９番地１１０,,12,233,2860221,,,,,,,2025-10-28,1,,,,,コミタス,0
663,3040001141159,新規,0,2025-10-28,2025-10-28,株式会社Ｋ・Ｕ,,株式会社,千葉県,船橋市,飯山満町２丁目９７８番地,,12,204,2740822,,,,,,,2025-10-28,1,,,,,ケーユー,0
675,3040003028817,新規,0,2025-10-28,2025-10-28,合同会社山大,,合同会社,千葉県,千葉市美浜区,真砂５丁目２０番１７－１３１０号,,12,106,2610011,,,,,,,2025-10-28,1,,,,,ヤマダイ,0
681,3060005010390,新規,0,2025-10-28,2025-10-28,一般社団法人栃木イノベーションベース,,その他の設立登記法人,栃木県,宇都宮市,南大通り２丁目６番１号ＦＹＤＢＬＤ４階,,09,201,3210963,,,,,,,2025-10-28,1,,,,,トチギイノベーションベース,0
682,3070001043476,新規,0,2025-10-28,2025-10-28,株式会社ゆのわ,,株式会社,群馬県,吾妻郡草津町,大字草津４６２番地２７田村マンション２号棟２０５号室,,10,426,3771711,,,,,,,2025-10-28,1,,,,,ユノワ,0
684,3070003006167,新規,0,2025-10-28,2025-10-28,合同会社長沢商店,,合同会社,群馬県,高崎市,中里見町根岸２１２番地４,,10,202,3703344,,,,,,,2025-10-28,1,,,,,ナガサワショウテン,0
687,3080401028241,新規,0,2025-10-28,2025-10-28,ミソノサービス株式会社,,株式会社,静岡県,浜松市中央区,鶴見町３６１番地の５,,22,138,4350022,,,,,,,2025-10-28,1,,,,,ミソノサービス,0
688,3100001039066,新規,0,2025-10-28,2025-10-28,株式会社Ｍ＆Ｒ,,株式会社,長野県,長野市,大字徳間１４０５番地４,,20,201,3810041,,,,,,,2025-10-28,1,,,,,エムアール,0
689,3100003008449,新規,0,2025-10-28,2025-10-28,合同会社ｍｙｗａｙｏｆｌｉｆｅ,,合同会社,長野県,北佐久郡軽井沢町,大字長倉５８２７番地１１５,,20,321,3890111,,,,,,,2025-10-28,1,,,,,マイウェイオブライフ,0
691,3110001039676,新規,0,2025-10-28,2025-10-28,株式会社ＮＦ,,株式会社,新潟県,魚沼市,根小屋７１３番地３,,15,225,9497403,,,,,,,2025-10-28,1,,,,,エヌエフ,0
701,3120001280931,新規,0,2025-10-28,2025-10-28,スキヤキレコーディング株式会社,,株式会社,大阪府,大阪市北区,梅田２丁目２－２ヒルトンプラザウエスト１９階,,27,127,5300001,,,,,,,2025-10-28,1,,,,,スキヤキレコーディング,0
702,3120001281228,新規,0,2025-10-28,2025-10-28,株式会社Ｗ,,株式会社,大阪府,大阪市中央区,久太郎町４丁目２番１５号星和シティービル６階,,27,128,5410056,,,,,,,2025-10-28,1,,,,,ダブリュー,0
703,3120001281285,新規,0,2025-10-28,2025-10-28,株式会社Ｍａｄｏｙａｃａ,,株式会社,大阪府,大阪市北区,堂山町１－５三共梅田ビル７階,,27,127,5300027,,,,,,,2025-10-28,1,,,,,マドヤカ,0
704,3120001281491,新規,0,2025-10-28,2025-10-28,株式会社ダイワテック,,株式会社,大阪府,大阪市生野区,巽北３丁目６番１４号,,27,116,5440004,,,,,,,2025-10-28,1,,,,,ダイワテック,0
706,3120003031110,新規,0,2025-10-28,2025-10-28,合同会社ＨＡＮＳ,,合同会社,大阪府,大阪市東住吉区,山坂４丁目４番３号ブランズ山坂２０４号,,27,121,5460035,,,,,,,2025-10-28,1,,,,,ハンズ,0
719,3130001080876,新規,0,2025-10-28,2025-10-28,株式会社ワカバ,,株式会社,京都府,京都市東山区,粟田口三条坊町１９番地１ヒューマンズウェル京都５０６,,26,105,6050035,,,,,,,2025-10-28,1,,,,,ワカバ,0
720,3130001080892,新規,0,2025-10-28,2025-10-28,ｋｓｉｄｅ株式会社,,株式会社,京都府,京都市伏見区,桃山町見附町１２番地１,,26,109,6128009,,,,,,,2025-10-28,1,,,,,ケーサイド,0
721,3130003010897,新規,0,2025-10-28,2025-10-28,合同会社リアン,,合同会社,京都府,京都市下京区,高橋町６１３－１１,,26,106,6008096,,,,,,,2025-10-28,1,,,,,リアン,0
722,3130005017503,新規,0,2025-10-28,2025-10-28,一般社団法人ＮＯＯＲ,,その他の設立登記法人,京都府,京都市上京区,七本松通五辻上る老松町１０４６番地２,00141280,26,102,6028318,,,,,,,2025-10-28,1,,,,,ヌール,0
727,3140001140423,新規,0,2025-10-28,2025-10-28,株式会社ＯＮＥ　ＬＯＯＫ,,株式会社,兵庫県,神戸市中央区,磯上通４丁目１－１４,,28,110,6510086,,,,,,,2025-10-28,1,,,,,ワンルック,0
728,3140001140530,新規,0,2025-10-28,2025-10-28,株式会社千金,,株式会社,兵庫県,姫路市,本町２２４番地,,28,201,6700012,,,,,,,2025-10-28,1,,,,,センキン,0
733,3150001028502,新規,0,2025-10-28,2025-10-28,株式会社ａｌｌｉｅ,,株式会社,奈良県,奈良市,三条宮前町１番３８号２Ｆ,,29,201,6308121,,,,,,,2025-10-28,1,,,,,アリー,0
765,3230003002521,新規,0,2025-10-28,2025-10-28,顧銘合同会社,,合同会社,富山県,砺波市,新栄町５番地２６,,16,208,9391354,,,,,,,2025-10-28,1,,,,,コメイ,0
770,3240001065701,新規,0,2025-10-28,2025-10-28,株式会社ＴＡＫＡ　ＪＯＵＲＮＥＹ,,株式会社,広島県,広島市中区,大手町１丁目１－２０相生橋ビル７階Ａ号室,,34,101,7300051,,,,,,,2025-10-28,1,,,,,タカジャーニー,0
776,3290001111871,新規,0,2025-10-28,2025-10-28,株式会社エブリイグラティ,,株式会社,福岡県,糟屋郡志免町,志免２丁目１６番２号,,40,343,8112202,,,,,,,2025-10-28,1,,,,,エブリイグラティ,0
785,3330003011280,新規,0,2025-10-28,2025-10-28,合同会社菊池タウンプランニング,,合同会社,熊本県,菊池市,隈府１０１０番地,,43,210,8611331,,,,,,,2025-10-28,1,,,,,キクチタウンプランニング,0
787,3350001019786,新規,0,2025-10-28,2025-10-28,クリーンアースデザイン株式会社,,株式会社,宮崎県,宮崎市,宮崎駅東３丁目５番地７,,45,201,8800879,,,,,,,2025-10-28,1,,,,,クリーンアースデザイン,0
790,3360001035964,新規,0,2025-10-28,2025-10-28,株式会社Ｂ．ａｎｃａｒ,,株式会社,沖縄県,豊見城市,字与根西中原１６６番３,,47,212,9010224,,,,,,,2025-10-28,1,,,,,ビアンカー,0
791,3360003015361,新規,0,2025-10-28,2025-10-28,合同会社ゴダ‐ド,,合同会社,沖縄県,石垣市,字野底４６９番地,,47,207,9070333,,,,,,,2025-10-28,1,,,,,ゴダード,0
792,3370001053180,新規,0,2025-10-28,2025-10-28,株式会社ａｃｃｏｍｉｌｅ,,株式会社,宮城県,仙台市青葉区,中央２丁目１１－１９仙南ビル４階－Ａ,,04,101,9800021,,,,,,,2025-10-28,1,,,,,アコミル,0
794,3390001018140,新規,0,2025-10-28,2025-10-28,株式会社ホリライス,,株式会社,山形県,最上郡最上町,大字大堀２５２番地の２,,06,362,9996211,,,,,,,2025-10-28,1,,,,,ホリライス,0
803,3430001095489,新規,0,2025-10-28,2025-10-28,株式会社日本麻藝社,,株式会社,北海道,札幌市中央区,南七条西５丁目２８９－５４地下１階,,01,101,0640807,,,,,,,2025-10-28,1,,,,,ニッポンアサゲイシャ,0
804,3430001095547,新規,0,2025-10-28,2025-10-28,株式会社ソルミナテック,,株式会社,北海道,札幌市清田区,平岡九条２丁目２番３号,,01,110,0040879,,,,,,,2025-10-28,1,,,,,ソルミナテック,0
805,3430001095563,新規,0,2025-10-28,2025-10-28,シンフォニーコネクト株式会社,,株式会社,北海道,札幌市西区,琴似一条６丁目４番３号札幌琴似第一ビルディング,,01,107,0630811,,,,,,,2025-10-28,1,,,,,シンフォニーコネクト,0
808,3430003018274,新規,0,2025-10-28,2025-10-28,楓悦合同会社,,合同会社,北海道,札幌市中央区,南二条西１０丁目１０００番地２４　３階Ｃ－１号室,,01,101,0600062,,,,,,,2025-10-28,1,,,,,フウエツ,0
811,3470001020955,新規,0,2025-10-28,2025-10-28,みらい株式会社,,株式会社,香川県,高松市,香川町浅野１０６２番地５,,37,201,7611703,,,,,,,2025-10-28,1,,,,,ミライ,0
812,3470003003009,新規,0,2025-10-28,2025-10-28,合同会社白水堂,,合同会社,香川県,仲多度郡まんのう町,炭所東３０３番地２,,37,406,7660016,,,,,,,2025-10-28,1,,,,,,0
817,3700150132734,新規,0,2025-10-28,2025-10-28,ｓｈｅｎｚｈｅｎｓｈｉｋａｉｐｕｌｅｘｉｎｘｉｙｏｕｘｉａｎｇｏｎｇｓｉ,,外国会社等,,,,,,,,Ｒｏｏｍ　Ａ９０２，Ｙｏｕｙｏｕｗｅｉ　Ｂｕｉｌｄｉｎｇ，Ｎｏ．２０００，Ｊｉａｘｉａｎ　Ｒｏａｄ，Ｇａｎｇｔｏｕ　Ｃｏｍｍｕｎｉｔｙ，Ｂａｎｔｉａｎ　Ｓｔｒｅｅｔ，Ｌｏｎｇｇａｎｇ　Ｄｉｓｔｒｉｃｔ，Ｓｈｅｎｚｈｅｎ,,,,,,2025-10-28,1,,,,,シェンジェンシーカイプーラーシンシーヨウシエンゴンスー,0
818,3700150132742,新規,0,2025-10-28,2025-10-28,ＦＵＫＵＳＨＩＭＡ　ＡＵＴＯ　ＥＮＴＥＲＰＲＩＳＥＳ　ＰＲＩＶＡＴＥ　ＬＩＭＩＴＥＤ,,外国会社等,栃木県,足利市,大前町９２２番地　サンシャイン大前２４,,09,202,3260845,スリランカ民主社会主義共和国、東部州、アンパラ地区、サンマントゥライ、ビリナイヤディ、マラヤルロード、Ｎｏ．１３９／２／１,,,,,,2025-10-28,1,,,,,フクシマオートエンタープライズプライベートリミテツド,0
823,4010001259696,新規,0,2025-10-28,2025-10-28,三和総合サービス株式会社,,株式会社,東京都,文京区,千石３丁目３番３－６０３号,,13,105,1120011,,,,,,,2025-10-28,1,,,,,サンワソウゴウサービス,0
824,4010001259770,新規,0,2025-10-28,2025-10-28,株式会社デイブレイク,,株式会社,東京都,千代田区,神田須田町２丁目１９－２３Ｄａｉｗａ秋葉原ビル２Ｆ,,13,101,1010041,,,,,,,2025-10-28,1,,,,,デイブレイク,0
825,4010003049170,新規,0,2025-10-28,2025-10-28,合同会社Ｓｕｍｕファンド２号,,合同会社,東京都,中央区,銀座４丁目６番１号三幸アセットマネジメント株式会社内,,13,102,1040061,,,,,,,2025-10-28,1,,,,,スムファンドニゴウ,0
826,4010003049204,新規,0,2025-10-28,2025-10-28,ＡＡＪ０１合同会社,,合同会社,東京都,千代田区,麹町４丁目５番地２０ドットアンドライン株式会社内,,13,101,1020083,,,,,,,2025-10-28,1,,,,,エーエージェーゼロワン,0
829,4010005040854,新規,0,2025-10-28,2025-10-28,ＳＲＦアセット７一般社団法人,,その他の設立登記法人,東京都,千代田区,丸の内１丁目４番１号東京共同会計事務所内,,13,101,1000005,,,,,,,2025-10-28,1,,,,,エスアールエフアセットセブン,0
832,4010403036371,新規,0,2025-10-28,2025-10-28,ＴＬＡ合同会社,,合同会社,東京都,港区,芝大門２丁目４－４,,13,103,1050012,,,,,,,2025-10-28,1,,,,,ティーエルエー,0
836,4010503008056,新規,0,2025-10-28,2025-10-28,合同会社Ａｔｅｌｉｅｒ　Ｎｏｖａ,,合同会社,東京都,台東区,柳橋２丁目１６番１－９０３号ＳＯＮＮＥＮＨＯＦ,,13,106,1110052,,,,,,,2025-10-28,1,,,,,アトリエノヴァ,0
851,4010905004859,新規,0,2025-10-28,2025-10-28,一般社団法人ＡＩロボット駆動科学イニシアティブ,,その他の設立登記法人,東京都,世田谷区,太子堂４丁目１８番１５号マガザン三軒茶屋２・３Ｆ－３,,13,112,1540004,,,,,,,2025-10-28,1,,,,,エーアイロボットクドウカガクイニシアティブ,0
856,4011001173144,新規,0,2025-10-28,2025-10-28,株式会社義虎,,株式会社,東京都,渋谷区,広尾１丁目２番１号ヒカリビル４階,,13,113,1500012,,,,,,,2025-10-28,1,,,,,ギトラ,0
858,4011003022729,新規,0,2025-10-28,2025-10-28,合同会社シュゴト,,合同会社,東京都,渋谷区,円山町５番３号ＭＩＥＵＸ渋谷ビル８階,,13,113,1500044,,,,,,,2025-10-28,1,,,,,シュゴト,0
859,4011003022753,新規,0,2025-10-28,2025-10-28,合同会社名刀政光ＳＰＡＲＫＬＥ,,合同会社,東京都,渋谷区,道玄坂１丁目１０番８号渋谷道玄坂東急ビル２Ｆ－Ｃ,,13,113,1500043,,,,,,,2025-10-28,1,,,,,メイトウマサミツスパークル,0
864,4011101113710,新規,0,2025-10-28,2025-10-28,株式会社クリタス,,株式会社,東京都,新宿区,西新宿８丁目１３番１１号ＮＦビル,,13,104,1600023,,,,,,,2025-10-28,1,,,,,クリタス,0
865,4011101113727,新規,0,2025-10-28,2025-10-28,Ｄ＆Ｒ株式会社,,株式会社,東京都,新宿区,新宿７丁目４番６－４０９号,,13,104,1600022,,,,,,,2025-10-28,1,,,,,ディアンドアル,0
867,4011103016589,新規,0,2025-10-28,2025-10-28,Ｋ＆Ｋジャパン合同会社,,合同会社,東京都,新宿区,高田馬場４丁目３４番８号,,13,104,1690075,,,,,,,2025-10-28,1,,,,,ケーアンドケージャパン,0
868,4011105011638,新規,0,2025-10-28,2025-10-28,一般社団法人終活サポートこころ,,その他の設立登記法人,東京都,新宿区,西新宿７丁目１７番１４－１０１号,,13,104,1600023,,,,,,,2025-10-28,1,,,,,シュウカツサポートココロ,0
873,4011301031002,新規,0,2025-10-28,2025-10-28,株式会社ｓｔｕｄｉｏＳＴ,,株式会社,東京都,杉並区,井草２丁目２５番１号塚田ビル２Ｆ,,13,115,1670021,,,,,,,2025-10-28,1,,,,,スタジオエスティー,0
875,4011403004913,新規,0,2025-10-28,2025-10-28,星瑞和貿易合同会社,,合同会社,東京都,板橋区,成増３丁目４番１７号グリーンエステート３０２,,13,119,1750094,,,,,,,2025-10-28,1,,,,,ホシミワボウエキ,0
879,4011801046961,新規,0,2025-10-28,2025-10-28,株式会社Ａｕｔｈｅｎｔｉｃ　Ｌａｂ,,株式会社,東京都,葛飾区,東立石２丁目１２番９号,,13,122,1240013,,,,,,,2025-10-28,1,,,,,オーセンティックラボ,0
884,4012401043754,新規,0,2025-10-28,2025-10-28,株式会社Ｔａｋｉ．Ｌａｂ,,株式会社,東京都,調布市,国領町８丁目８－１ブリリア調布国領９１０,,13,208,1820022,,,,,,,2025-10-28,1,,,,,タキラボ,0
887,4013301055220,新規,0,2025-10-28,2025-10-28,シンシア・アセット株式会社,,株式会社,東京都,豊島区,池袋本町３丁目２９番３号,,13,116,1700011,,,,,,,2025-10-28,1,,,,,シンシアアセット,0
900,4020001165506,新規,0,2025-10-28,2025-10-28,Ｓ‐Ｇｏ株式会社,,株式会社,神奈川県,横浜市西区,紅葉ケ丘１番地１横濱紅葉坂レジデンス３－８１４号,,14,103,2200044,,,,,,,2025-10-28,1,,,,,エスゴー,0
901,4020001165514,新規,0,2025-10-28,2025-10-28,株式会社グリーンリボン,,株式会社,神奈川県,横浜市中区,尾上町４丁目５７番地横浜尾上町ビルディング８Ｆ,,14,104,2310015,,,,,,,2025-10-28,1,,,,,グリーンリボン,0
907,4020003029667,新規,0,2025-10-28,2025-10-28,同田合同会社,,合同会社,神奈川県,川崎市中原区,新城４丁目３番１５号大師ビル２階,,14,133,2110044,,,,,,,2025-10-28,1,,,,,ドウデン,0
926,4030001169407,新規,0,2025-10-28,2025-10-28,株式会社ＦＯＬＩＡ,,株式会社,埼玉県,ふじみ野市,苗間３４０番地２１,,11,245,3560052,,,,,,,2025-10-28,1,,,,,フォリア,0
932,4040001141125,新規,0,2025-10-28,2025-10-28,高村珈琲株式会社,,株式会社,千葉県,佐倉市,ユーカリが丘４丁目１番４－１０３号,,12,212,2850858,,,,,,,2025-10-28,1,,,,,タカムラコーヒー,0
933,4040001141141,新規,0,2025-10-28,2025-10-28,株式会社ＭＯＦｇｒａｐｈｙ,,株式会社,千葉県,柏市,若柴２２６番地４４中央１４１街区１ＫＯＩＬＴＥＲＲＡＣＥ６Ｆ,,12,217,2770871,,,,,,,2025-10-28,1,,,,,モフグラフィー,0
934,4040001141158,新規,0,2025-10-28,2025-10-28,株式会社山五,,株式会社,千葉県,八街市,朝日１６９番地２,,12,230,2891101,,,,,,,2025-10-28,1,,,,,ヤマゴ,0
941,4040003028741,新規,0,2025-10-28,2025-10-28,合同会社木更津蓄電所,,合同会社,千葉県,木更津市,かずさ鎌足１丁目８番地１,,12,206,2920818,,,,,,,2025-10-28,1,,,,,キサラヅチクデンショ,0
949,4080001027238,新規,0,2025-10-28,2025-10-28,株式会社ＢＪ‐ＥＤＩＴ,,株式会社,静岡県,静岡市葵区,水道町１１９番地,,22,101,4200008,,,,,,,2025-10-28,1,,,,,ビージェーエディット,0
950,4080401028240,新規,0,2025-10-28,2025-10-28,株式会社ａｃａｋａｒａ,,株式会社,静岡県,御前崎市,下朝比奈３３３２－２,,22,223,4371605,,,,,,,2025-10-28,1,,,,,アサカラ,0
953,4100001039065,新規,0,2025-10-28,2025-10-28,株式会社結寿,,株式会社,長野県,茅野市,ちの８６５番地,,20,214,3910001,,,,,,,2025-10-28,1,,,,,ユズ,0
954,4100001039073,新規,0,2025-10-28,2025-10-28,株式会社プレジアホールディングス,,株式会社,長野県,長野市,大字長野西之門町９３１番地,,20,201,3800857,,,,,,,2025-10-28,1,,,,,プレジアホールディングス,0
971,4120001280781,新規,0,2025-10-28,2025-10-28,株式会社ワイオーユー,,株式会社,大阪府,大阪市都島区,都島南通１丁目１５番１３号コンフォート都島２０２号,,27,102,5340023,,,,,,,2025-10-28,1,,,,,ワイオーユー,0
972,4120001281350,新規,0,2025-10-28,2025-10-28,中華源株式会社,,株式会社,大阪府,大阪市中央区,島之内２丁目１１－２６,,27,128,5420082,,,,,,,2025-10-28,1,,,,,チュウカゲン,0
973,4120001281499,新規,0,2025-10-28,2025-10-28,株式会社ＡＳＶＥＲ　ＲＥＳＩＤＥＮＴＩＡＬ,,株式会社,大阪府,大阪市北区,豊崎３丁目１５番１６号,,27,127,5310072,,,,,,,2025-10-28,1,,,,,アスヴェルレジデンシャル,0
974,4120001281532,新規,0,2025-10-28,2025-10-28,株式会社ライフマテリアル,,株式会社,大阪府,大阪市東住吉区,桑津２丁目１５番３号,,27,121,5460041,,,,,,,2025-10-28,1,,,,,ライフマテリアル,0
975,4120001281540,新規,0,2025-10-28,2025-10-28,栄川株式会社,,株式会社,大阪府,大阪市住吉区,遠里小野５丁目１４－２０,,27,120,5580032,,,,,,,2025-10-28,1,,,,,サカエガワ,0
980,4120901051679,新規,0,2025-10-28,2025-10-28,敏行商事株式会社,,株式会社,大阪府,吹田市,垂水町１丁目１５－２７－３０３室,,27,205,5640062,,,,,,,2025-10-28,1,,,,,ビコウショウジ,0
982,4122005003854,新規,0,2025-10-28,2025-10-28,一般社団法人恵生会,,その他の設立登記法人,大阪府,東大阪市,鷹殿町７番４号,,27,227,5798036,,,,,,,2025-10-28,1,,,,,ケイセイカイ,0
987,4130001080875,新規,0,2025-10-28,2025-10-28,株式会社ＲＹＯＥＮ,,株式会社,京都府,京都市西京区,上桂宮ノ後町３５番地,,26,111,6158227,,,,,,,2025-10-28,1,,,,,リョウエン,0
988,4130001080891,新規,0,2025-10-28,2025-10-28,グラスライン株式会社,,株式会社,京都府,京都市東山区,五条橋東２丁目３２番地１プレサンス京都五条大橋レジェンド３０４,,26,105,6050846,,,,,,,2025-10-28,1,,,,,グラスライン,0
995,4140001140447,新規,0,2025-10-28,2025-10-28,株式会社Ｓｕｎ　Ａｃｅ,,株式会社,兵庫県,尼崎市,大庄北２丁目５番１号,,28,202,6600063,,,,,,,2025-10-28,1,,,,,サンエース,0
996,4140001140463,新規,0,2025-10-28,2025-10-28,株式会社Ｌｉｔｔ　Ｉ　Ｒｏｏｔｓ,,株式会社,兵庫県,揖保郡太子町,福地２８２番地の２,,28,464,6711534,,,,,,,2025-10-28,1,,,,,リトアイルーツ,0
997,4140001140546,新規,0,2025-10-28,2025-10-28,ＡＲＴ　ＪＡＰＡＮ株式会社,,株式会社,兵庫県,神戸市中央区,熊内橋通４丁目２番６号熊内橋ハイツ西２０２,,28,110,6510055,,,,,,,2025-10-28,1,,,,,エーアールティジャパン,0
1002,4140003022750,新規,0,2025-10-28,2025-10-28,合同会社ヤナック,,合同会社,兵庫県,神戸市西区,櫨谷町福谷７９６番地の１,,28,111,6512233,,,,,,,2025-10-28,1,,,,,ヤナック,0
1005,4150001028501,新規,0,2025-10-28,2025-10-28,余白株式会社,,株式会社,奈良県,生駒市,鹿ノ台南２丁目２５番地９,,29,209,6300113,,,,,,,2025-10-28,1,,,,,ヨハク,0
1015,4180001169268,新規,0,2025-10-28,2025-10-28,アイワメンテナンス株式会社,,株式会社,愛知県,名古屋市名東区,西山台１３９番地,,23,115,4650071,,,,,,,2025-10-28,1,,,,,アイワメンテナンス,0
1019,4180005021284,新規,0,2025-10-28,2025-10-28,ＮＰＯ法人ＣＯＰＩＮ,,その他の設立登記法人,愛知県,名古屋市東区,泉３丁目８－１４,,23,102,4610001,,,,,,,2025-10-28,1,,,,,コパン,0
1020,4180301040351,新規,0,2025-10-28,2025-10-28,株式会社リプロ,,株式会社,愛知県,豊田市,月原町宮ノ前１９番地１,,23,211,4442527,,,,,,,2025-10-28,1,,,,,リプロ,0
1023,4190003005247,新規,0,2025-10-28,2025-10-28,合同会社みのり咲,,合同会社,三重県,四日市市,富田一色町３番６号,,24,202,5108004,,,,,,,2025-10-28,1,,,,,ミノリサキ,0
1026,4200001044369,新規,0,2025-10-28,2025-10-28,株式会社ｓｈｒｉ,,株式会社,岐阜県,大垣市,禾森町６丁目１３番地三貴ビル３階東,,21,202,5030852,,,,,,,2025-10-28,1,,,,,シュリ,0
1030,4200003007118,新規,0,2025-10-28,2025-10-28,ＲＵＮＰＩＳＴ合同会社,,合同会社,岐阜県,高山市,国府町三川１５０３番地１,,21,203,5094117,,,,,,,2025-10-28,1,,,,,ランピスト,0
1039,4240001065683,新規,0,2025-10-28,2025-10-28,株式会社ＲｉｎｇＨＲ,,株式会社,広島県,広島市中区,南千田東町１番１２,,34,101,7300054,,,,,,,2025-10-28,1,,,,,リングエイチアール,0
1040,4240001065700,新規,0,2025-10-28,2025-10-28,Ｍｏｍｉｊｉ　Ｔｒａｄｉｎｇ株式会社,,株式会社,広島県,広島市安佐南区,緑井３丁目３４番１７－１７号,,34,105,7310103,,,,,,,2025-10-28,1,,,,,モミジトレーディング,0
1050,4290001111854,新規,0,2025-10-28,2025-10-28,ｉｎｅＲｏｂｏ株式会社,,株式会社,福岡県,宗像市,江口４６５番地,,40,220,8113502,,,,,,,2025-10-28,1,,,,,イネロボ,0
1051,4290001111937,新規,0,2025-10-28,2025-10-28,株式会社Ｎｏｖａｒｉａ,,株式会社,福岡県,福岡市中央区,天神２丁目２番１２号Ｔ＆Ｊビルディング７Ｆ,,40,133,8100001,,,,,,,2025-10-28,1,,,,,ノヴァリア,0
1054,4290801031970,新規,0,2025-10-28,2025-10-28,株式会社ＥＶＥＲ　ＹＯＵＲＳ,,株式会社,福岡県,北九州市若松区,ひびきの南２丁目１２番１号,,40,103,8080137,,,,,,,2025-10-28,1,,,,,エバーユアーズ,0
1059,4320003004813,新規,0,2025-10-28,2025-10-28,合同会社成微ＩＣ,,合同会社,大分県,中津市,大字蛎瀬７７０,,44,203,8710007,,,,,,,2025-10-28,1,,,,,セイビアイシー,0
1065,4360005007298,新規,0,2025-10-28,2025-10-28,一般社団法人ミライママポケット,,その他の設立登記法人,沖縄県,島尻郡与那原町,字上与那原２０７番地,,47,348,9011302,,,,,,,2025-10-28,1,,,,,ミライママポケット,0
1066,4360005007307,新規,0,2025-10-28,2025-10-28,医療法人綾白会,,その他の設立登記法人,沖縄県,浦添市,伊祖２丁目１番３号メディカルプレイス伊祖５Ｆ,,47,208,9012132,,,,,,,2025-10-28,1,,,,,アヤハクカイ,0
1068,4370003007349,新規,0,2025-10-28,2025-10-28,未来像合同会社,,合同会社,宮城県,仙台市青葉区,中央３丁目８番５号新仙台駅前ビル２Ｆ－３－５,,04,101,9800021,,,,,,,2025-10-28,1,,,,,ミライゾウ,0
1085,4430001095488,新規,0,2025-10-28,2025-10-28,株式会社サトシ研究所,,株式会社,北海道,札幌市豊平区,平岸三条１０丁目５番２８－４０５号,,01,105,0620933,,,,,,,2025-10-28,1,,,,,サトシケンキュウショ,0
1086,4430001095538,新規,0,2025-10-28,2025-10-28,株式会社独楽コンサルティング,,株式会社,北海道,札幌市中央区,北三条東３丁目１－１５レジディア北３条４０８号,,01,101,0600033,,,,,,,2025-10-28,1,,,,,コマコンサルティング,0
1089,4430003018273,新規,0,2025-10-28,2025-10-28,合同会社ａｄ‐ｃｒｅｅｎ,,合同会社,北海道,札幌市白石区,本郷通９丁目北１番８－８０１号,,01,104,0030025,,,,,,,2025-10-28,1,,,,,アドクリーン,0
1094,4470001020954,新規,0,2025-10-28,2025-10-28,株式会社さくら鈑金塗装,,株式会社,香川県,丸亀市,川西町北１８７３番地の１,,37,202,7630091,,,,,,,2025-10-28,1,,,,,サクラバンキントソウ,0
1103,4700150132725,新規,0,2025-10-28,2025-10-28,Ｓ．Ｔ　ＳＥＬＫＡ　ＥＮＴＥＲＰＲＩＳＥＳ　ＰＲＩＶＡＴＥ　ＬＩＭＩＴＥＤ,,外国会社等,三重県,鈴鹿市,長太旭町３丁目２番２２号　シティハイツアゼリア１Ｅ,,24,207,5130042,スリランカ民主社会主義共和国、ディブルデニヤ、ナッラ、スリマルワッタ,,,,,,2025-10-28,1,,,,,エステイーセルカエンタープライズプライベートリミテツド,0
1104,4700150132741,新規,0,2025-10-28,2025-10-28,ＡＬＬＩＡＮＣＥ　ＡＵＴＯ　ＴＲＡＤＥＲＳ　ＰＲＩＶＡＴＥ　ＬＩＭＩＴＥＤ,,外国会社等,栃木県,足利市,鹿島町６９４番地９,,09,202,3260844,スリランカ民主社会主義共和国、東部州、アンパラ地区、サンマントゥライ８、バビロード、Ｎｏ．１２／１Ｂ,,,,,,2025-10-28,1,,,,,アライアンスオートトレーダーズプライベートリミテツド,0
1112,5010001259761,新規,0,2025-10-28,2025-10-28,ＷＩＮＮＥＲ　ＡＣＡＤＥＭＩＡ株式会社,,株式会社,東京都,中央区,銀座１丁目１９番１４号銀座ＯＮＥビル６階,,13,102,1040061,,,,,,,2025-10-28,1,,,,,ウイナーアカデミア,0
1114,5010003049161,新規,0,2025-10-28,2025-10-28,合同会社ＡＩｓｔｙｌｅ,,合同会社,東京都,中央区,銀座１丁目２２番１１号銀座大竹ビジデンス２Ｆ,,13,102,1040061,,,,,,,2025-10-28,1,,,,,アイスタイル,0
1115,5010003049203,新規,0,2025-10-28,2025-10-28,ＡＡＪ　Ｍ合同会社,,合同会社,東京都,千代田区,麹町４丁目５番地２０ドットアンドライン株式会社内,,13,101,1020083,,,,,,,2025-10-28,1,,,,,エーエージェーエム,0
1116,5010005040853,新規,0,2025-10-28,2025-10-28,ＳＲＦアセット６一般社団法人,,その他の設立登記法人,東京都,千代田区,丸の内１丁目４番１号東京共同会計事務所内,,13,101,1000005,,,,,,,2025-10-28,1,,,,,エスアールエフアセットシックス,0
1117,5010101016930,新規,0,2025-10-28,2025-10-28,株式会社ＴＡＮＡＫＡ　ＣＯＬＬＥＣＴＩＯＮ,,株式会社,東京都,八王子市,明神町２丁目１０番１０号,,13,201,1920046,,,,,,,2025-10-28,1,,,,,タナカコレクション,0
1136,5010401194170,新規,0,2025-10-28,2025-10-28,株式会社ＲＥＡＬ　ＶＡＬＵＥ　ＣＯＮＦＥＲＥＮＣＥ,,株式会社,東京都,港区,芝２丁目２番１２号５階,,13,103,1050014,,,,,,,2025-10-28,1,,,,,リアルバリューカンファレンス,0
1138,5010403036420,新規,0,2025-10-28,2025-10-28,合同会社アーケイン,,合同会社,東京都,港区,南青山３丁目１番３６号青山丸竹ビル６階,,13,103,1070062,,,,,,,2025-10-28,1,,,,,アーケイン,0
1139,5010403036429,新規,0,2025-10-28,2025-10-28,上頓野蓄電合同会社,,合同会社,東京都,港区,虎ノ門２丁目６番１号,,13,103,1050001,,,,,,,2025-10-28,1,,,,,カミトンノチクデン,0
1153,5011001173044,新規,0,2025-10-28,2025-10-28,株式会社Ｄｉｇｒｅａｃｈ,,株式会社,東京都,渋谷区,富ヶ谷１丁目３０－２４富ヶ谷マンション２０２,,13,113,1510063,,,,,,,2025-10-28,1,,,,,ディグリーチ,0
1154,5011001173060,新規,0,2025-10-28,2025-10-28,株式会社アン・フィールド開発,,株式会社,東京都,渋谷区,代々木１丁目３０番１４号,,13,113,1510053,,,,,,,2025-10-28,1,,,,,,0
1155,5011001173069,新規,0,2025-10-28,2025-10-28,ＧＰバイアウトＳ株式会社,,株式会社,東京都,目黒区,自由が丘２丁目１６－１２ＲＪ３,,13,110,1520035,,,,,,,2025-10-28,1,,,,,ジーピーバイアウトエス,0
1156,5011001173102,新規,0,2025-10-28,2025-10-28,株式会社セブンファースト,,株式会社,東京都,渋谷区,恵比寿南１丁目１番１号ヒューマックス恵比寿ビル７Ｆ,,13,113,1500022,,,,,,,2025-10-28,1,,,,,セブンファースト,0
1157,5011001173424,新規,0,2025-10-28,2025-10-28,株式会社ＲＥＣＲＯ,,株式会社,東京都,渋谷区,恵比寿西１丁目２６番５号,,13,113,1500021,,,,,,,2025-10-28,1,,,,,レクロ,0
1170,5011201026745,新規,0,2025-10-28,2025-10-28,株式会社ＨＡＮＡ,,株式会社,東京都,中野区,中野５丁目４４番１４号パールシティ中野１１２,,13,114,1640001,,,,,,,2025-10-28,1,,,,,ハナ,0
1172,5011301031001,新規,0,2025-10-28,2025-10-28,株式会社ノアーズアーク,,株式会社,東京都,杉並区,西荻北２丁目２０番５号,,13,115,1670042,,,,,,,2025-10-28,1,,,,,ノアーズアーク,0
1173,5011501032757,新規,0,2025-10-28,2025-10-28,金帆株式会社,,株式会社,東京都,荒川区,西日暮里６丁目８－８、４０６号室,,13,118,1160013,,,,,,,2025-10-28,1,,,,,キンホ,0
1175,5011601029133,新規,0,2025-10-28,2025-10-28,株式会社てんてこてん,,株式会社,東京都,練馬区,田柄１丁目７番５号,,13,120,1790073,,,,,,,2025-10-28,1,,,,,テンテコテン,0
1183,5012401043745,新規,0,2025-10-28,2025-10-28,株式会社トラスティス,,株式会社,東京都,武蔵野市,吉祥寺本町１丁目３６番２号,,13,203,1800004,,,,,,,2025-10-28,1,,,,,トラスティス,0
1198,5020001165513,新規,0,2025-10-28,2025-10-28,株式会社エネルギーサポート,,株式会社,神奈川県,横浜市中区,尾上町４丁目５７番地横浜尾上町ビルディング８Ｆ,,14,104,2310015,,,,,,,2025-10-28,1,,,,,エネルギーサポート,0
1199,5020001165521,新規,0,2025-10-28,2025-10-28,株式会社家具ステーション,,株式会社,神奈川県,横浜市青葉区,田奈町１８番地４２,,14,117,2270064,,,,,,,2025-10-28,1,,,,,カグステーション,0
1200,5020001165538,新規,0,2025-10-28,2025-10-28,株式会社ＯＮＥ　ＳＩＣＫ,,株式会社,神奈川県,横浜市神奈川区,金港町５番地１４クアドリフォリオ８階,,14,102,2210056,,,,,,,2025-10-28,1,,,,,ワンシック,0
1213,5030001169389,新規,0,2025-10-28,2025-10-28,株式会社Ｓｕｎｎｙ　ｓｉｄｅ　ｕｐ,,株式会社,埼玉県,さいたま市大宮区,宮町３丁目７ヤナカビル１階,,11,103,3300802,,,,,,,2025-10-28,1,,,,,サニーサイドアップ,0
1214,5030001169406,新規,0,2025-10-28,2025-10-28,株式会社コクア,,株式会社,埼玉県,川口市,領家３丁目２２番７号,,11,203,3320004,,,,,,,2025-10-28,1,,,,,コクア,0
1215,5030001169422,新規,0,2025-10-28,2025-10-28,株式会社ＴＩＧＥＲ　Ｔｒａｄｉｎｇ　Ｊａｐａｎ,,株式会社,埼玉県,川口市,栄町３丁目１３－１プラウドタワー川口クロス２４０７,,11,203,3320017,,,,,,,2025-10-28,1,,,,,タイガートレーディングジャパン,0
1218,5030003027966,新規,0,2025-10-28,2025-10-28,合同会社アライズ,,合同会社,埼玉県,三郷市,戸ケ崎４丁目５１番地モアステージ三郷１０１号,,11,237,3410044,,,,,,,2025-10-28,1,,,,,アライズ,0
1228,5040001141132,新規,0,2025-10-28,2025-10-28,株式会社新日本エージェント,,株式会社,千葉県,市原市,ちはら台東２丁目１９番地１０,,12,219,2900141,,,,,,,2025-10-28,1,,,,,シンニホンエージェント,0
1229,5040001141140,新規,0,2025-10-28,2025-10-28,ＹＡＥＮ株式会社,,株式会社,千葉県,山武郡芝山町,大里２４４７,,12,409,2891603,,,,,,,2025-10-28,1,,,,,ヤエン,0
1230,5040001141157,新規,0,2025-10-28,2025-10-28,株式会社Ｓｅｔａｍｙ,,株式会社,千葉県,印西市,若萩２丁目６番地５,,12,231,2701609,,,,,,,2025-10-28,1,,,,,セタミー,0
1233,5040003028848,新規,0,2025-10-28,2025-10-28,合同会社Ｍｅｒａｋｉ,,合同会社,千葉県,我孫子市,台田２丁目４番３０号,,12,222,2701167,,,,,,,2025-10-28,1,,,,,メラキ,0
1234,5040003028856,新規,0,2025-10-28,2025-10-28,ＰＡＤ　Ｓｑｕａｒｅ合同会社,,合同会社,千葉県,我孫子市,布佐平和台５丁目８番６号,,12,222,2701108,,,,,,,2025-10-28,1,,,,,パッドスクエア,0
1235,5040003028864,新規,0,2025-10-28,2025-10-28,合同会社ＷＤＳＰ,,合同会社,千葉県,柏市,柏４丁目５番１０号,,12,217,2770005,,,,,,,2025-10-28,1,,,,,ダブリューディーエスピー,0
1238,5060005010389,新規,0,2025-10-28,2025-10-28,一般社団法人わくわく,,その他の設立登記法人,栃木県,大田原市,紫塚３丁目２６０９－１０７,,09,210,3240058,,,,,,,2025-10-28,1,,,,,ワクワク,0
1240,5070001043490,新規,0,2025-10-28,2025-10-28,株式会社ＬｉｆｅＦｌｏｗ,,株式会社,群馬県,高崎市,矢島町３１２番地８ダイアパレス高崎ガーデンステージ１０３号,,10,202,3700016,,,,,,,2025-10-28,1,,,,,ライフフロウ,0
1247,5090003002922,新規,0,2025-10-28,2025-10-28,ＶＡＬＩＯＮ合同会社,,合同会社,山梨県,富士吉田市,ときわ台２丁目７番５０号,,19,202,4030015,,,,,,,2025-10-28,1,,,,,ヴァリオン,0
1249,5100001039064,新規,0,2025-10-28,2025-10-28,株式会社ＳＥＡＳＯＮＡＬ　ＰＯＲＴＥＲＳ,,株式会社,長野県,北佐久郡軽井沢町,大字長倉３５９１番地１３,,20,321,3890111,,,,,,,2025-10-28,1,,,,,シーズナルポーターズ,0
1251,5100005013412,新規,0,2025-10-28,2025-10-28,医療法人萌生会,,その他の設立登記法人,長野県,松本市,大字島立字花見添６４７番地２,,20,202,3900852,,,,,,,2025-10-28,1,,,,,ホウセイカイ,0
1262,5120001281317,新規,0,2025-10-28,2025-10-28,株式会社ＴＩＣＫＷＯＲＫＳ,,株式会社,大阪府,大阪市北区,梅田１丁目１－３大阪駅前第３ビル２９階１－１－１号室,,27,127,5300001,,,,,,,2025-10-28,1,,,,,チックワークス,0
1263,5120001281507,新規,0,2025-10-28,2025-10-28,株式会社ｅｎｎｅ,,株式会社,大阪府,枚方市,村野本町８番５－２０３号,,27,210,5730016,,,,,,,2025-10-28,1,,,,,エンネ,0
1273,5120003031001,新規,0,2025-10-28,2025-10-28,Ｔｅｎｄａ　Ｊａｐａｎ合同会社,,合同会社,大阪府,大阪市中央区,平野町２丁目５番８号,,27,128,5410046,,,,,,,2025-10-28,1,,,,,テンダジャパン,0
1274,5120003031050,新規,0,2025-10-28,2025-10-28,合同会社Ｌｉｆｅ　Ｅｄｇｅ,,合同会社,大阪府,大阪市北区,梅田１丁目１－３大阪駅前第３ビル２９階１－１－１号室,,27,127,5300001,,,,,,,2025-10-28,1,,,,,ライフエッジ,0
1275,5120003031075,新規,0,2025-10-28,2025-10-28,ＡＲＴＩＡＬ　ＤＥＳＩＧＮ　ＯＦＦＩＣＥ合同会社,,合同会社,大阪府,大阪市住吉区,東粉浜３丁目９番２７号,,27,120,5580051,,,,,,,2025-10-28,1,,,,,アーティアルデザインオフィス,0
1276,5120005025224,新規,0,2025-10-28,2025-10-28,特定非営利活動法人Ｐｅｅｒｉｔｈ,,その他の設立登記法人,大阪府,大阪市住吉区,沢之町１丁目９番１６－９０１号,,27,120,5580031,,,,,,,2025-10-28,1,,,,,ピアリス,0
1288,5122001039802,新規,0,2025-10-28,2025-10-28,株式会社ＪＱＰ,,株式会社,大阪府,東大阪市,高井田西６丁目１番３１号,,27,227,5770067,,,,,,,2025-10-28,1,,,,,ジェイキューピー,0
1292,5130001080890,新規,0,2025-10-28,2025-10-28,株式会社テイエムクラフト,,株式会社,京都府,京都市右京区,太秦下角田町２番地エスリード太秦三条天神川４１８,,26,108,6168111,,,,,,,2025-10-28,1,,,,,テイエムクラフト,0
1293,5130001080899,新規,0,2025-10-28,2025-10-28,株式会社ｏｌｌ,,株式会社,京都府,京都市左京区,松ケ崎雲路町１７番地１ＡＩＭ南館Ａ－２,,26,103,6060955,,,,,,,2025-10-28,1,,,,,オール,0
1303,5150001028500,新規,0,2025-10-28,2025-10-28,株式会社リスケア,,株式会社,奈良県,奈良市,鳥見町１丁目１６－１２,,29,201,6310065,,,,,,,2025-10-28,1,,,,,リスケア,0
1313,5180001169093,新規,0,2025-10-28,2025-10-28,株式会社Ｅ‐ｈｅａｒｔ,,株式会社,愛知県,あま市,篠田居島３２番地３‐Ｂ,,23,237,4901211,,,,,,,2025-10-28,1,,,,,イーハート,0
1317,5180003029279,新規,0,2025-10-28,2025-10-28,れもんメディカルグループ合同会社,,合同会社,愛知県,一宮市,長島町１丁目９－３,,23,203,4910071,,,,,,,2025-10-28,1,,,,,レモンメディカルグループ,0
1320,5180301040359,新規,0,2025-10-28,2025-10-28,株式会社セントラルジャパン,,株式会社,愛知県,豊田市,若林東町下外根４２番地６,,23,211,4730914,,,,,,,2025-10-28,1,,,,,セントラルジャパン,0
1331,5240001065690,新規,0,2025-10-28,2025-10-28,株式会社ＭＡＳＴロジ,,株式会社,広島県,広島市西区,草津港１丁目４番３２号,,34,104,7330832,,,,,,,2025-10-28,1,,,,,マストロジ,0
1332,5240001065699,新規,0,2025-10-28,2025-10-28,株式会社ＲａｄｉＥＮ,,株式会社,広島県,広島市中区,十日市町１丁目１番１４号,,34,101,7300805,,,,,,,2025-10-28,1,,,,,ラディエン,0
1333,5240003007451,新規,0,2025-10-28,2025-10-28,合同会社Ｖｉａｎｃａ,,合同会社,広島県,廿日市市,山陽園７番３１号,,34,213,7380002,,,,,,,2025-10-28,1,,,,,ヴィアンカ,0
1337,5250003003838,新規,0,2025-10-28,2025-10-28,合同会社Ｗｅａｌｔｈｙ,,合同会社,山口県,光市,光井７丁目２３番１２号,,35,210,7430011,,,,,,,2025-10-28,1,,,,,ウェルシー,0
1352,5290001111837,新規,0,2025-10-28,2025-10-28,株式会社ＫＴＨＨＡ,,株式会社,福岡県,太宰府市,坂本１丁目１番１８号,,40,221,8180133,,,,,,,2025-10-28,1,,,,,ケイティエイチエイチエー,0
1353,5290001111911,新規,0,2025-10-28,2025-10-28,株式会社いちりん,,株式会社,福岡県,福岡市中央区,天神２丁目２番１２号Ｔ＆Ｊビルディング７Ｆ,,40,133,8100001,,,,,,,2025-10-28,1,,,,,イチリン,0
1359,5290803005195,新規,0,2025-10-28,2025-10-28,ＡＩＣ合同会社,,合同会社,福岡県,宮若市,福丸１６３番地１・３－Ｄ,,40,226,8220101,,,,,,,2025-10-28,1,,,,,エーアイシー,0
1365,5320001021413,新規,0,2025-10-28,2025-10-28,株式会社Ｆｅｌｉｃｉａ,,株式会社,大分県,豊後高田市,玉津３５７番地,,44,209,8790606,,,,,,,2025-10-28,1,,,,,フェリシア,0
1367,5320003004812,新規,0,2025-10-28,2025-10-28,Ｍ．Ａ合同会社,,合同会社,大分県,別府市,大字北石垣９１５番地の１アミティー桜ケ丘９０６号,,44,202,8740000,,,,,,,2025-10-28,1,,,,,エムドットエー,0
1370,5330003011279,新規,0,2025-10-28,2025-10-28,合同会社長生,,合同会社,熊本県,熊本市中央区,上鍛冶屋町１２－１コアマンション慶徳１０１,,43,101,8600021,,,,,,,2025-10-28,1,,,,,チョウセイ,0
1373,5360001035962,新規,0,2025-10-28,2025-10-28,株式会社ＲＥｃｕｌｔｕｒａ,,株式会社,沖縄県,那覇市,首里鳥堀町３丁目４１－３,,47,201,9030805,,,,,,,2025-10-28,1,,,,,リカルチュラ,0
1379,5410001014309,新規,0,2025-10-28,2025-10-28,ＭＯＯＮ　ＴＲＡＤＩＮＧ株式会社,,株式会社,秋田県,男鹿市,払戸字横長根１７３番地１,,05,206,0100431,,,,,,,2025-10-28,1,,,,,ムーントレイデング,0
1385,5430001095520,新規,0,2025-10-28,2025-10-28,ＴｅｒｒａＨｏｍｅ株式会社,,株式会社,北海道,札幌市北区,新琴似八条７丁目２―６,,01,102,0010908,,,,,,,2025-10-28,1,,,,,テラホーム,0
1386,5430001095545,新規,0,2025-10-28,2025-10-28,株式会社エゾーネ,,株式会社,北海道,札幌市豊平区,美園五条６丁目２番２６号,,01,105,0620005,,,,,,,2025-10-28,1,,,,,エゾーネ,0
1390,5430003018256,新規,0,2025-10-28,2025-10-28,合同会社ＮＫＧ,,合同会社,北海道,白老郡白老町,字竹浦２１６－１２４,,01,578,0590642,,,,,,,2025-10-28,1,,,,,エヌケージー,0
1391,5430003018272,新規,0,2025-10-28,2025-10-28,合同会社Ｋｃｏｍｐａｎｙ,,合同会社,北海道,札幌市西区,八軒三条西３丁目２番２２号,,01,107,0630843,,,,,,,2025-10-28,1,,,,,ケーカンパニー,0
1393,5460101007769,新規,0,2025-10-28,2025-10-28,道栄管材株式会社,,株式会社,北海道,帯広市,西十七条北１丁目４０番２３号,,01,207,0800047,,,,,,,2025-10-28,1,,,,,,0
1398,5700150132716,新規,0,2025-10-28,2025-10-28,ＨＯＫＫＡＩＤＯ　ＭＯＴＯＲＳ,,外国会社等,神奈川県,厚木市,飯山南２丁目２１－１７－２０２,,14,212,2430218,Ｎｏ．１２／Ａ　ＰＩＨＩＬＬＡＤＡＮＩＹＡ　ＭＡＤＡＷＡＬＡ　ＢＡＺＡＡＲ　ＳＲＩ　ＬＡＮＫＡ,,,,,,2025-10-28,1,,,,,ホツカイドモータース,0
1399,5700150132724,新規,0,2025-10-28,2025-10-28,Ｗｉｃｋｒａｍａｓｉｎｇｈａ　Ｓｕｐｐｌｉｅｒｓ　＆　Ｄｉｓｔｒｉｂｕｔｏｒｓ,,外国会社等,三重県,津市,美杉町下多気８２４番地,,24,201,5153311,スリランカ民主社会主義共和国、ホラマペッラ、タルガハワッタ　５６０／Ｃ／２,,,,,,2025-10-28,1,,,,,ウイクラマシンハサプライヤーズアンドデイストリビユーターズ,0
1400,5700150132740,新規,0,2025-10-28,2025-10-28,ＲＵＷＡＮ　ＭＯＴＯＲＳ,,外国会社等,大阪府,富田林市,喜志町４丁目６－２９羽鹿文化西棟１０３号室,,27,214,5840005,１５４、Ｐｏｌａｔｈｔｈａｐｉｔｉｙａ，Ｄａｍｂｕｌｌａ　Ｒｏａｄ，Ｋｕｒｕｎｅｇａｌａ,,,,,,2025-10-28,1,,,,,ルワンモータース,0
1408,6010001259760,新規,0,2025-10-28,2025-10-28,日新株式会社,,株式会社,東京都,文京区,白山１丁目６番４－２１９号,,13,105,1130001,,,,,,,2025-10-28,1,,,,,ニッシン,0
1409,6010001259769,新規,0,2025-10-28,2025-10-28,イーアコモ株式会社,,株式会社,東京都,千代田区,麹町５丁目１番地９階成倫税理士法人内,,13,101,1020083,,,,,,,2025-10-28,1,,,,,イーアコモ,0
1415,6010005040852,新規,0,2025-10-28,2025-10-28,ＳＲＦアセット５一般社団法人,,その他の設立登記法人,東京都,千代田区,丸の内１丁目４番１号東京共同会計事務所内,,13,101,1000005,,,,,,,2025-10-28,1,,,,,エスアールエフアセットファイブ,0
1425,6010403036428,新規,0,2025-10-28,2025-10-28,新宮蓄電合同会社,,合同会社,東京都,港区,虎ノ門２丁目６番１号,,13,103,1050001,,,,,,,2025-10-28,1,,,,,シングウチクデン,0
1430,6010701048521,新規,0,2025-10-28,2025-10-28,株式会社４９４,,株式会社,東京都,品川区,西五反田３丁目７番１－４０７号,,13,109,1410031,,,,,,,2025-10-28,1,,,,,ヨクシ,0
1436,6010901058337,新規,0,2025-10-28,2025-10-28,株式会社Ｈｏｌｙ,,株式会社,東京都,世田谷区,桜新町１丁目１４番７号,,13,112,1540015,,,,,,,2025-10-28,1,,,,,ホーリー,0
1437,6010901058345,新規,0,2025-10-28,2025-10-28,Ｂｏ　Ｖｉｎｔａｇｅ株式会社,,株式会社,東京都,世田谷区,祖師谷３丁目１２番１０号,,13,112,1570072,,,,,,,2025-10-28,1,,,,,ボービンテージ,0
1446,6011001173027,新規,0,2025-10-28,2025-10-28,株式会社ＰａｓｓＬｉｎｅ,,株式会社,東京都,渋谷区,神南１丁目１１－３ＰОＲＴＡＬＰОＩＮＴＳＨＩＢＵＹＡ－８Ｆ,,13,113,1500041,,,,,,,2025-10-28,1,,,,,パスライン,0
1447,6011001173092,新規,0,2025-10-28,2025-10-28,株式会社ＣＲＩＡ,,株式会社,東京都,渋谷区,千駄ヶ谷３丁目５１－１０ＰＯＲＴＡＬＰＯＩＮＴＨＡＲＡＪＵＫＵ４０２号室,,13,113,1510051,,,,,,,2025-10-28,1,,,,,クリア,0
1448,6011001173101,新規,0,2025-10-28,2025-10-28,株式会社エイトゥリー,,株式会社,東京都,渋谷区,代々木５丁目１５番１０－３０７号,,13,113,1510053,,,,,,,2025-10-28,1,,,,,エイトゥリー,0
1449,6011001173126,新規,0,2025-10-28,2025-10-28,株式会社ベキベキベッキーズ,,株式会社,東京都,渋谷区,猿楽町１７番１０号代官山アートビレッジ３階,,13,113,1500033,,,,,,,2025-10-28,1,,,,,ベキベキベッキーズ,0
1452,6011003022727,新規,0,2025-10-28,2025-10-28,合同会社Ｈａｎｅ　Ｒｏｓｅ,,合同会社,東京都,目黒区,平町１丁目２３－５,,13,110,1520032,,,,,,,2025-10-28,1,,,,,ハーネローズ,0
1453,6011003022735,新規,0,2025-10-28,2025-10-28,ｃｏｚｉｎａ合同会社,,合同会社,東京都,渋谷区,広尾１丁目２番地１号ヒカリビル４階,,13,113,1500012,,,,,,,2025-10-28,1,,,,,コジナ,0
1454,6011003022859,新規,0,2025-10-28,2025-10-28,合同会社ＭＭＳ,,合同会社,東京都,渋谷区,東２丁目１８番７号渋谷アトウビル４０２,,13,113,1500011,,,,,,,2025-10-28,1,,,,,エムエムエス,0
1463,6011101113700,新規,0,2025-10-28,2025-10-28,ＳＡＶＩＮＧ　ＳＴＯＲＹ株式会社,,株式会社,東京都,新宿区,西新宿３丁目３番１３号西新宿水間ビル６階,,13,104,1600023,,,,,,,2025-10-28,1,,,,,セービングストーリー,0
1468,6011301031000,新規,0,2025-10-28,2025-10-28,株式会社Ｒｅ．ｓｅｅｄ,,株式会社,東京都,杉並区,堀ノ内１丁目７番３７号君田ビル３Ｆ,,13,115,1660013,,,,,,,2025-10-28,1,,,,,リシード,0
1469,6011301031009,新規,0,2025-10-28,2025-10-28,株式会社１０ＦＵＫＵ,,株式会社,東京都,杉並区,上高井戸１丁目６番３号ＴＡＫＣＳ３０４,,13,115,1680074,,,,,,,2025-10-28,1,,,,,テンフク,0
1472,6011601029124,新規,0,2025-10-28,2025-10-28,ＳＨＩＲＡ　ＧＬＯＢＡＬ株式会社,,株式会社,東京都,練馬区,貫井２丁目１８番１－１０１号,,13,120,1760021,,,,,,,2025-10-28,1,,,,,シラグローバル,0
1482,6012303002229,新規,0,2025-10-28,2025-10-28,合同会社ＧｌｏｗＦｒａｍｅ,,合同会社,東京都,町田市,木曽東４丁目１７番５号,,13,209,1940036,,,,,,,2025-10-28,1,,,,,グロウフレーム,0
1498,6020001165314,新規,0,2025-10-28,2025-10-28,Ｇｒｅｅｎ　Ｓｐａｒｋ　Ｔｅｃｈｎｏｌｏｇｉｅｓ株式会社,,株式会社,神奈川県,川崎市中原区,中丸子３５－９ディール武蔵小杉４Ｆ,,14,133,2110012,,,,,,,2025-10-28,1,,,,,グリーンスパークテクノロジーズ,0
1499,6020001165537,新規,0,2025-10-28,2025-10-28,株式会社スプレッドフィールド,,株式会社,神奈川県,横浜市磯子区,新杉田町８番地８クリオレジダンス横浜新杉田５０１号,,14,107,2350032,,,,,,,2025-10-28,1,,,,,スプレッドフィールド,0
1503,6020005017016,新規,0,2025-10-28,2025-10-28,一般社団法人ＫＩＢＩ．ＤＡＮＧＯ,,その他の設立登記法人,神奈川県,横浜市西区,みなとみらい４丁目４番２号横浜ブルーアベニュー１２階,,14,103,2200012,,,,,,,2025-10-28,1,,,,,キビダンゴ,0
1512,6030001169388,新規,0,2025-10-28,2025-10-28,株式会社ＳＧ,,株式会社,埼玉県,川口市,大字道合４５８番地の７,,11,203,3330835,,,,,,,2025-10-28,1,,,,,エスジー,0
1513,6030001169396,新規,0,2025-10-28,2025-10-28,ケンミ・マネジメント株式会社,,株式会社,埼玉県,川越市,大字的場２００３番地１２,,11,201,3501101,,,,,,,2025-10-28,1,,,,,ケンミマネジメント,0
1514,6030001169413,新規,0,2025-10-28,2025-10-28,仁恵株式会社,,株式会社,埼玉県,越谷市,大間野町３丁目１８５番１０号２Ｃ,,11,222,3430844,,,,,,,2025-10-28,1,,,,,ジンケイ,0
1528,6040003028888,新規,0,2025-10-28,2025-10-28,合同会社隼,,合同会社,千葉県,市川市,柏井町２丁目１２９２番地２サンハイツ２－２１０号,,12,203,2720802,,,,,,,2025-10-28,1,,,,,ハヤブサ,0
1530,6040005022930,新規,0,2025-10-28,2025-10-28,行政書士法人ＡＳｌｉｆｅ,,その他の設立登記法人,千葉県,松戸市,根本４４７番地の１長谷川ビル４階,,12,207,2710077,,,,,,,2025-10-28,1,,,,,アスライフ,0
1543,6080401028239,新規,0,2025-10-28,2025-10-28,株式会社ハイドロ・アース・エナジー,,株式会社,静岡県,浜松市中央区,板屋町１１１番地の２浜松アクトタワー２３階,,22,138,4300928,,,,,,,2025-10-28,1,,,,,ハイドロアースエナジー,0
1544,6090001019579,新規,0,2025-10-28,2025-10-28,株式会社ハニービー,,株式会社,山梨県,甲州市,勝沼町山１７８０－２,,19,213,4091306,,,,,,,2025-10-28,1,,,,,ハニービー,0
1546,6100001039071,新規,0,2025-10-28,2025-10-28,株式会社ファーベル,,株式会社,長野県,松本市,新橋７番２８号,,20,202,3900865,,,,,,,2025-10-28,1,,,,,ファーベル,0
1547,6100005013411,新規,0,2025-10-28,2025-10-28,医療法人ＫＡＮＡＹＡＭＡ　Ｏｒｔｈｏｄｏｎｔｉｃｓ,,その他の設立登記法人,長野県,中野市,大字西条１３３４番地,,20,211,3830042,,,,,,,2025-10-28,1,,,,,カナヤマオルソドンティックス,0
1551,6110001039673,新規,0,2025-10-28,2025-10-28,株式会社ことだま,,株式会社,新潟県,五泉市,村松甲２１９７番地１,,15,218,9591704,,,,,,,2025-10-28,1,,,,,コトダマ,0
1554,6110003005946,新規,0,2025-10-28,2025-10-28,合同会社アカデン,,合同会社,新潟県,柏崎市,朝日が丘１８番２９号,,15,205,9450814,,,,,,,2025-10-28,1,,,,,アカデン,0
1571,6120001281225,新規,0,2025-10-28,2025-10-28,株式会社ＤＩＯＮ,,株式会社,大阪府,大阪市北区,国分寺１丁目６番６号,,27,127,5310064,,,,,,,2025-10-28,1,,,,,ディオン,0
1572,6120001281349,新規,0,2025-10-28,2025-10-28,株式会社Ｍｉｉ,,株式会社,大阪府,門真市,柳町１０番２７－６０６号,,27,223,5710041,,,,,,,2025-10-28,1,,,,,エムアイアイ,0
1573,6120001281497,新規,0,2025-10-28,2025-10-28,株式会社ニョッキ,,株式会社,大阪府,大阪市平野区,平野南２丁目１番２号ガーデンコート平野南５０８号,,27,126,5470031,,,,,,,2025-10-28,1,,,,,ニョッキ,0
1574,6120001281555,新規,0,2025-10-28,2025-10-28,株式会社Ｈ５,,株式会社,大阪府,大阪市中央区,東心斎橋１丁目７番２２－３０１号,,27,128,5420083,,,,,,,2025-10-28,1,,,,,エイチファイブ,0
1578,6120003031058,新規,0,2025-10-28,2025-10-28,ＳＡＲＷＡＲ　ＴＲＡＤＩＮＧ合同会社,,合同会社,大阪府,大阪市東淀川区,東中島２丁目１番３号,,27,114,5330033,,,,,,,2025-10-28,1,,,,,サルワルトレーディング,0
1581,6120901051685,新規,0,2025-10-28,2025-10-28,株式会社Ｔｅｅ　Ｔｉｍｅ　Ｇｏｌｆ　Ｊａｐａｎ,,株式会社,大阪府,高槻市,日吉台四番町５番２６号,,27,207,5691022,,,,,,,2025-10-28,1,,,,,ティータイムゴルフジャパン,0
1585,6130005017500,新規,0,2025-10-28,2025-10-28,京都土木浚渫事業協同組合,,その他の設立登記法人,京都府,京都市右京区,西院月双町３３番地,,26,108,6150054,,,,,,,2025-10-28,1,,,,,キョウトドボクシュンセツ,0
1591,6140001140511,新規,0,2025-10-28,2025-10-28,Ｗａｋｕ‐Ｗｏｒｋ　Ｉｎｎｏｖａｔｉｏｎ株式会社,,株式会社,兵庫県,芦屋市,大桝町１番２０－２０２号,,28,206,6590066,,,,,,,2025-10-28,1,,,,,,0
1592,6140001140577,新規,0,2025-10-28,2025-10-28,Ｑｕａｔｔｒｏ　Ｐａｓｓｉ株式会社,,株式会社,兵庫県,芦屋市,奥池南町１２番１１号,,28,206,6590004,,,,,,,2025-10-28,1,,,,,クアトロパッシ,0
1594,6140003022781,新規,0,2025-10-28,2025-10-28,Ｂｌｏｏｍｌｙ合同会社,,合同会社,兵庫県,西宮市,川添町２番２－２号,,28,204,6620944,,,,,,,2025-10-28,1,,,,,ブルーミー,0
1604,6180001169191,新規,0,2025-10-28,2025-10-28,株式会社ＦＹＮＡ,,株式会社,愛知県,江南市,赤童子町福住１０２番地３,,23,217,4838165,,,,,,,2025-10-28,1,,,,,ファイナ,0
1605,6180001169241,新規,0,2025-10-28,2025-10-28,株式会社ＧＴＢＦ,,株式会社,愛知県,名古屋市中区,錦２丁目４番１５号,,23,106,4600003,,,,,,,2025-10-28,1,,,,,ジーティービーエフ,0
1611,6180301040358,新規,0,2025-10-28,2025-10-28,株式会社Ｘ‐ＺＥＵＳ,,株式会社,愛知県,豊田市,神田町１丁目１番地１,,23,211,4710868,,,,,,,2025-10-28,1,,,,,エグゼウス,0
1613,6190001032646,新規,0,2025-10-28,2025-10-28,ＮＡＲＵＫＡＷＡ株式会社,,株式会社,三重県,鈴鹿市,国分町６５０番地,,24,207,5130013,,,,,,,2025-10-28,1,,,,,ナルカワ,0
1630,6250001021403,新規,0,2025-10-28,2025-10-28,株式会社ＳＹＮＡＲＩＳ,,株式会社,山口県,周南市,中央町２番３号,,35,215,7460016,,,,,,,2025-10-28,1,,,,,シナリス,0
1642,6290001111860,新規,0,2025-10-28,2025-10-28,株式会社Ｇｒａｉｎ　Ｒｏｏｔｓ,,株式会社,福岡県,宗像市,ひかりヶ丘４丁目１３番地９,,40,220,8113403,,,,,,,2025-10-28,1,,,,,グレインルーツ,0
1643,6290001111869,新規,0,2025-10-28,2025-10-28,ＪＡＰＡＮ　ＨＯＭＥ　ＳＯＬＵＴＩＯＮ株式会社,,株式会社,福岡県,福岡市西区,福重４丁目１３番２０－３０２号パークアソシア室見河畔,,40,135,8190022,,,,,,,2025-10-28,1,,,,,ジャパンホームソリューション,0
1645,6290003017602,新規,0,2025-10-28,2025-10-28,合同会社光月,,合同会社,福岡県,福岡市博多区,対馬小路６番３－３０３号ＡＥＣ天神東アネックス,,40,132,8120020,,,,,,,2025-10-28,1,,,,,コウゲツ,0
1647,6290005019860,新規,0,2025-10-28,2025-10-28,一般財団法人まろわの杜,,その他の設立登記法人,福岡県,福岡市博多区,千代４丁目２９番２４号三原第３ビル３Ｆ,,40,132,8120044,,,,,,,2025-10-28,1,,,,,マロワノモリ,0
1659,6340003004999,新規,0,2025-10-28,2025-10-28,昭和文房具合同会社,,合同会社,鹿児島県,鹿児島市,武２丁目１０番３号第２永田ビル２階,,46,201,8900045,,,,,,,2025-10-28,1,,,,,ショウワブンボウグ,0
1662,6360001035953,新規,0,2025-10-28,2025-10-28,株式会社セリアコーポレーション沖縄,,株式会社,沖縄県,那覇市,東町９番１４号,,47,201,9000034,,,,,,,2025-10-28,1,,,,,セリアコーポレーションオキナワ,0
1665,6380003006174,新規,0,2025-10-28,2025-10-28,合同会社やばほるフクヤマ,,合同会社,福島県,郡山市,八山田３丁目８７,,07,203,9638052,,,,,,,2025-10-28,1,,,,,ヤバホルフクヤマ,0
1668,6410001014308,新規,0,2025-10-28,2025-10-28,Ｓｏｂｉａ　ｉｎｔｅｒｎａｔｉｏｎａｌ株式会社,,株式会社,秋田県,男鹿市,払戸字横長根１７３番地１,,05,206,0100431,,,,,,,2025-10-28,1,,,,,ソビアインターナショナル,0
1674,6460103001752,新規,0,2025-10-28,2025-10-28,合同会社ＴＫＣ,,合同会社,北海道,帯広市,西七条南２８丁目３２番地１,,01,207,0800017,,,,,,,2025-10-28,1,,,,,ティーケーシー,0
1675,6470003003006,新規,0,2025-10-28,2025-10-28,合同会社幸豊社,,合同会社,香川県,観音寺市,柞田町甲２１４２番地１,,37,205,7680040,,,,,,,2025-10-28,1,,,,,,0
1682,6700150132715,新規,0,2025-10-28,2025-10-28,ＮＥＲＩＳ　ＡＮＡＬＹＴＩＣＳＬＩＭＩＴＥＤ,,外国会社等,,,,,,,,９Ｈｉｌｌｓ　Ｒｏａｄ　ＣＢ２１ＧＥ　Ｃａｍｂｒｉｄｇｅ　Ｕｎｉｔｅｄ　Ｋｉｎｇｄｏｍ,,,,,,2025-10-28,1,,,,,ネリスアナリテイクスリミテツド,0
1683,6700150132723,新規,0,2025-10-28,2025-10-28,Ｌｕｃｋｙ　Ｌｉｍｉｔｅｄ,,外国会社等,,,,,,,,Ｆｌａｔ　Ｅ，２３／Ｆ　Ｂｌｅｓｓｉｎｇｓ　Ｇａｒｄｅｎ　Ｐｈａｓｅ　２５６　Ｃｏｎｄｕｉｔ　Ｒｏａｄ　Ｍｉｄ－Ｌｅｖｅｌｓ　Ｈｏｎｇ　Ｋｏｎｇ,,,,,,2025-10-28,1,,,,,ラツキーリミテツド,0
1693,7010001259776,新規,0,2025-10-28,2025-10-28,ＴＮＣオートメーション株式会社,,株式会社,東京都,文京区,白山１丁目６番４－２０７,,13,105,1130001,,,,,,,2025-10-28,1,,,,,ティーエヌシーオートメーション,0
1694,7010001259784,新規,0,2025-10-28,2025-10-28,株式会社Ａｏｉ,,株式会社,東京都,中央区,銀座１丁目２８番１５号鈴木ビル３Ｂ,,13,102,1040061,,,,,,,2025-10-28,1,,,,,アオイ,0
1700,7010005040851,新規,0,2025-10-28,2025-10-28,ＳＲＦアセット４一般社団法人,,その他の設立登記法人,東京都,千代田区,丸の内１丁目４番１号東京共同会計事務所内,,13,101,1000005,,,,,,,2025-10-28,1,,,,,エスアールエフアセットフォー,0
1701,7010103002687,新規,0,2025-10-28,2025-10-28,合同会社共栄,,合同会社,東京都,八王子市,長房町４８０番地４,,13,201,1930824,,,,,,,2025-10-28,1,,,,,キョウエイ,0
1707,7010401194144,新規,0,2025-10-28,2025-10-28,株式会社ブリッジパートナーズ,,株式会社,東京都,港区,赤坂３丁目１１番５号ＶＯＲＴ赤坂見附４階,,13,103,1070052,,,,,,,2025-10-28,1,,,,,ブリッジパートナーズ,0
1709,7010501054933,新規,0,2025-10-28,2025-10-28,株式会社遊ＧＥＬＤ,,株式会社,東京都,台東区,東上野３丁目１５番３号宮島ビル３Ｆ,,13,106,1100015,,,,,,,2025-10-28,1,,,,,ユウゲルト,0
1710,7010501054941,新規,0,2025-10-28,2025-10-28,株式会社ｓｏｍｅ,,株式会社,東京都,台東区,池之端３丁目３ー９花園アレイ２０６,,13,106,1100008,,,,,,,2025-10-28,1,,,,,サム,0
1717,7010901058328,新規,0,2025-10-28,2025-10-28,株式会社アンビデクス,,株式会社,東京都,世田谷区,船橋５丁目２－９,,13,112,1560055,,,,,,,2025-10-28,1,,,,,アンビデクス,0
1726,7011001172721,新規,0,2025-10-28,2025-10-28,株式会社フリートレジャー,,株式会社,東京都,渋谷区,道玄坂１丁目１０番８号,,13,113,1500043,,,,,,,2025-10-28,1,,,,,フリートレジャー,0
1727,7011001173034,新規,0,2025-10-28,2025-10-28,ＸＩＮＣＡ株式会社,,株式会社,東京都,渋谷区,恵比寿西２丁目８番４号ＥＸ恵比寿西ビル５階,,13,113,1500021,,,,,,,2025-10-28,1,,,,,シンカ,0
1728,7011001173059,新規,0,2025-10-28,2025-10-28,株式会社ＳｅｒｅｎｏＷｏｒｋｓ,,株式会社,東京都,渋谷区,広尾３丁目５番２７号８８．ＨＡＮＥＺＡＷＡ３０３,,13,113,1500012,,,,,,,2025-10-28,1,,,,,セレノワークス,0
1729,7011001173083,新規,0,2025-10-28,2025-10-28,株式会社ｇｉｉｐ,,株式会社,東京都,渋谷区,西原３丁目４－２紅谷ビル２０５,,13,113,1510066,,,,,,,2025-10-28,1,,,,,ギップ,0
1730,7011001173091,新規,0,2025-10-28,2025-10-28,株式会社ＳＩＭＳ,,株式会社,東京都,渋谷区,恵比寿西２丁目４番８号ウィンド恵比寿ビル８Ｆ,,13,113,1500021,,,,,,,2025-10-28,1,,,,,シムス,0
1731,7011001173125,新規,0,2025-10-28,2025-10-28,株式会社ＣＲＥＡＰＩＡ　ＴＥＣＨＮＯＬＯＧＹ,,株式会社,東京都,渋谷区,道玄坂１丁目１０番８号渋谷道玄坂東急ビル２Ｆ－Ｃ,,13,113,1500043,,,,,,,2025-10-28,1,,,,,クリエイピアテクノロジー,0
1732,7011001173133,新規,0,2025-10-28,2025-10-28,株式会社Ｒｉｌｌ　Ｂａｎｑｕｅｔ,,株式会社,東京都,渋谷区,渋谷１丁目１１番１号４階,,13,113,1500002,,,,,,,2025-10-28,1,,,,,リルバンケット,0
1735,7011003022750,新規,0,2025-10-28,2025-10-28,合同会社星六花,,合同会社,東京都,目黒区,下目黒１丁目１番１４号コノトラビル７Ｆ,,13,110,1530064,,,,,,,2025-10-28,1,,,,,ホシロッカ,0
1740,7011101113682,新規,0,2025-10-28,2025-10-28,株式会社ＡＡＳ,,株式会社,東京都,新宿区,百人町２丁目１９番１５号第２音羽コーポ４０１,,13,104,1690073,,,,,,,2025-10-28,1,,,,,エイエイエス,0
1741,7011101113708,新規,0,2025-10-28,2025-10-28,株式会社ジャパン・ジャトロハ・ファーム・ホールディング,,株式会社,東京都,新宿区,四谷１丁目２３番６号,,13,104,1600004,,,,,,,2025-10-28,1,,,,,ジャパンジャトロハファームホールディング,0
1742,7011101113732,新規,0,2025-10-28,2025-10-28,Ａｒｃｓｔｅｌｌａ株式会社,,株式会社,東京都,新宿区,新宿１丁目３６－２新宿第七葉山ビル３Ｆ,,13,104,1600022,,,,,,,2025-10-28,1,,,,,アークステラ,0
1744,7011103016586,新規,0,2025-10-28,2025-10-28,ステラ合同会社,,合同会社,東京都,新宿区,西新宿６丁目５番１号新宿アイランドタワー２階,,13,104,1600023,,,,,,,2025-10-28,1,,,,,ステラ,0
1749,7011501032763,新規,0,2025-10-28,2025-10-28,クレメンテ・デル・ヴェッキオ・ジャパン株式会社,,株式会社,東京都,荒川区,東日暮里５丁目５２番５－９０１号,,13,118,1160014,,,,,,,2025-10-28,1,,,,,クレメンテデルヴェッキオジャパン,0
1759,7012303002236,新規,0,2025-10-28,2025-10-28,ＰｅａｃｅＮｕ合同会社,,合同会社,東京都,町田市,小山ヶ丘４丁目７番地２,,13,209,1940215,,,,,,,2025-10-28,1,,,,,ピースヌー,0
1761,7012401043751,新規,0,2025-10-28,2025-10-28,株式会社カオハル,,株式会社,東京都,調布市,深大寺南町３丁目１７番地１深大寺レジデンスＧ８１２,,13,208,1820013,,,,,,,2025-10-28,1,,,,,カオハル,0
1772,7020001165494,新規,0,2025-10-28,2025-10-28,株式会社ロンジェビティ,,株式会社,神奈川県,横浜市泉区,和泉中央北２丁目１０番１６号,,14,116,2450024,,,,,,,2025-10-28,1,,,,,ロンジェビティ,0
1773,7020001165511,新規,0,2025-10-28,2025-10-28,株式会社フューチャーコネクトパートナーズ,,株式会社,神奈川県,横浜市青葉区,荏田町１６１番地１パルミナードあざみ野壱番館４０５,,14,117,2250013,,,,,,,2025-10-28,1,,,,,フューチャーコネクトパートナーズ,0
1774,7020001165536,新規,0,2025-10-28,2025-10-28,安寿ＳＫＲ株式会社,,株式会社,神奈川県,川崎市中原区,上小田中１丁目３１番４８号,,14,133,2110053,,,,,,,2025-10-28,1,,,,,アンジュエスケーアール,0
1777,7021001086532,新規,0,2025-10-28,2025-10-28,株式会社栗本重設,,株式会社,神奈川県,小田原市,中里１８－５,,14,206,2500872,,,,,,,2025-10-28,1,,,,,クリモトジュウセツ,0
1784,7030001169346,新規,0,2025-10-28,2025-10-28,アバスノ株式会社,,株式会社,埼玉県,さいたま市西区,西大宮２丁目３７番地１２,,11,101,3310078,,,,,,,2025-10-28,1,,,,,アバスノ,0
1785,7030001169387,新規,0,2025-10-28,2025-10-28,株式会社ＭＹ・ＳＴＡＲ,,株式会社,埼玉県,越谷市,神明町１丁目１５９番地１０,,11,222,3430805,,,,,,,2025-10-28,1,,,,,マイスター,0
1786,7030003027873,新規,0,2025-10-28,2025-10-28,エフエイト合同会社,,合同会社,埼玉県,草加市,旭町５丁目５番４－５号,,11,221,3400053,,,,,,,2025-10-28,1,,,,,エフエイト,0
1787,7030003027956,新規,0,2025-10-28,2025-10-28,にじいろ地球合同会社,,合同会社,埼玉県,北本市,朝日２丁目２３８番地ワコーレＲＧ北本Ｇ－１０１０,,11,233,3640011,,,,,,,2025-10-28,1,,,,,ニジイロチキュウ,0
1788,7030003027964,新規,0,2025-10-28,2025-10-28,合同会社成ＮＡＬＵ,,合同会社,埼玉県,越谷市,大字大里５１６番地２,,11,222,3430031,,,,,,,2025-10-28,1,,,,,ナル,0
1797,7040001141155,新規,0,2025-10-28,2025-10-28,株式会社ＴＭＳ,,株式会社,千葉県,長生郡長生村,金田３０３３番地１,,12,423,2994332,,,,,,,2025-10-28,1,,,,,ティーエムエス,0
1800,7040005022905,新規,0,2025-10-28,2025-10-28,一般社団法人いすみっこリンク,,その他の設立登記法人,千葉県,夷隅郡大多喜町,久我原１１６８番地１,,12,441,2980251,,,,,,,2025-10-28,1,,,,,イスミッコリンク,0
1801,7040005022921,新規,0,2025-10-28,2025-10-28,一般財団法人鎌足未来基金,,その他の設立登記法人,千葉県,千葉市美浜区,打瀬３丁目５番地,,12,106,2610013,,,,,,,2025-10-28,1,,,,,カマタリミライキキン,0
1808,7070001043489,新規,0,2025-10-28,2025-10-28,株式会社ＫＳＯ　Ｌｉａｇｅ,,株式会社,群馬県,高崎市,吉井町小棚２９０番地９,,10,202,3702136,,,,,,,2025-10-28,1,,,,,ケイエスオーリアージュ,0
1813,7080003003589,新規,0,2025-10-28,2025-10-28,ＫＡＨＡＭＡ合同会社,,合同会社,静岡県,藤枝市,高柳２４３３番地の９,,22,214,4260041,,,,,,,2025-10-28,1,,,,,カハマ,0
1820,7100003008445,新規,0,2025-10-28,2025-10-28,合同会社ヤマゼンコーポレーション,,合同会社,長野県,松本市,神田１丁目１２番２４号,,20,202,3900822,,,,,,,2025-10-28,1,,,,,ヤマゼンコーポレーション,0
1821,7110001039672,新規,0,2025-10-28,2025-10-28,トラステック株式会社,,株式会社,新潟県,三条市,北入蔵２丁目２２番１４号,,15,204,9550053,,,,,,,2025-10-28,1,,,,,トラステック,0
1829,7120001281307,新規,0,2025-10-28,2025-10-28,株式会社美瑞ヴアナジャパン,,株式会社,大阪府,大阪市港区,弁天３丁目１０－２０－３０６号室,,27,107,5520007,,,,,,,2025-10-28,1,,,,,ミズイヴアナジャパン,0
1830,7120001281331,新規,0,2025-10-28,2025-10-28,株式会社ＭＩＥＬＥ,,株式会社,大阪府,大阪市生野区,桃谷３丁目９番２３号,,27,116,5440034,,,,,,,2025-10-28,1,,,,,ミエル,0
1831,7120001281414,新規,0,2025-10-28,2025-10-28,株式会社ＭＨＫ,,株式会社,大阪府,大阪市都島区,都島中通３丁目５番１３－９０１号,,27,102,5340022,,,,,,,2025-10-28,1,,,,,エムエイチケー,0
1832,7120001281447,新規,0,2025-10-28,2025-10-28,株式会社アイエフシー,,株式会社,大阪府,大阪市平野区,西脇２丁目８番２２－４０７号,,27,126,5470035,,,,,,,2025-10-28,1,,,,,アイエフシー,0
1833,7120001281505,新規,0,2025-10-28,2025-10-28,株式会社Ｎｉｔｅｎ　ｆｏｏｄｓ,,株式会社,大阪府,門真市,宮野町４番１５－１４０１号室,,27,223,5710062,,,,,,,2025-10-28,1,,,,,ニテンフーズ,0
1834,7120001281521,新規,0,2025-10-28,2025-10-28,株式会社ＴＡＫＡＯ,,株式会社,大阪府,大阪市平野区,平野市町２丁目４番６号２０１,,27,126,5470042,,,,,,,2025-10-28,1,,,,,タカオ,0
1835,7120001281538,新規,0,2025-10-28,2025-10-28,株式会社ＳＹＮＡＳＩＡ　ＨＯＴＥＬＳ,,株式会社,大阪府,大阪市中央区,徳井町２丁目４番８号,,27,128,5400025,,,,,,,2025-10-28,1,,,,,シナジアホテルズ,0
1838,7120003031040,新規,0,2025-10-28,2025-10-28,合同会社ＳｔａｙＦｒｏｎｔ,,合同会社,大阪府,大阪市中央区,高津３丁目２－３０ヴァンデュール日本橋ｃｉｔｙＬｉｆｅＩ２０１,00141282,27,128,5420072,,,,,,,2025-10-28,1,,,,,ステイフロント,0
1839,7120003031073,新規,0,2025-10-28,2025-10-28,合同会社ジール,,合同会社,大阪府,大阪市天王寺区,味原本町１３番１０号６０１号室,,27,109,5430022,,,,,,,2025-10-28,1,,,,,ジール,0
1844,7120903005911,新規,0,2025-10-28,2025-10-28,合同会社ペイノーマインド,,合同会社,大阪府,吹田市,江坂町１丁目１３番３８－７０２号,,27,205,5640063,,,,,,,2025-10-28,1,,,,,ペイノーマインド,0
1847,7130001080666,新規,0,2025-10-28,2025-10-28,桃蔵舎株式会社,,株式会社,京都府,京都市下京区,朱雀宝蔵町４４番地協栄ビル２階京都朱雀スタジオＡＳ－１０１,,26,106,6008846,,,,,,,2025-10-28,1,,,,,モモゾウシャ,0
1848,7130001080889,新規,0,2025-10-28,2025-10-28,株式会社ＴＵＮＡＧＵ,,株式会社,京都府,京都市東山区,本町２１丁目４８１番地の１,,26,105,6050981,,,,,,,2025-10-28,1,,,,,ツナグ,0
1849,7130001080897,新規,0,2025-10-28,2025-10-28,株式会社ＧＲＯＷ‐ＶＡＬ,,株式会社,京都府,京都市下京区,小稲荷町８５番地２Ｇｒａｎｄ－Ｋ京都駅前ビル２０１,,26,106,6008208,,,,,,,2025-10-28,1,,,,,グロウヴァル,0
1851,7130003010893,新規,0,2025-10-28,2025-10-28,合同会社ＰＤＳ,,合同会社,京都府,乙訓郡大山崎町,字大山崎小字西高田９－１０１,,26,303,6180071,,,,,,,2025-10-28,1,,,,,ピーディーエス,0
1852,7130005017499,新規,0,2025-10-28,2025-10-28,一般社団法人メンズカウンセリング協会,,その他の設立登記法人,京都府,京都市山科区,御陵大津畑町３８番地,,26,110,6078411,,,,,,,2025-10-28,1,,,,,メンズカウンセリングキョウカイ,0
1857,7140001140535,新規,0,2025-10-28,2025-10-28,株式会社たけや,,株式会社,兵庫県,西宮市,学文殿町２丁目７番２１号,,28,204,6638182,,,,,,,2025-10-28,1,,,,,タケヤ,0
1858,7140001140576,新規,0,2025-10-28,2025-10-28,Ｇｏｏｄ　Ｓｌｅｅｐ　Ｓｏｌｕｔｉｏｎｓ株式会社,,株式会社,兵庫県,西宮市,甲子園二番町９番１０－２０２号,,28,204,6638172,,,,,,,2025-10-28,1,,,,,グッドスリープソリューションズ,0
1860,7160001027144,新規,0,2025-10-28,2025-10-28,株式会社花咲,,株式会社,滋賀県,野洲市,小篠原２２２０－２－６０３,,25,210,5202331,,,,,,,2025-10-28,1,,,,,ハナサク,0
1861,7160001027177,新規,0,2025-10-28,2025-10-28,株式会社ＲｅＬｉｆｅ,,株式会社,滋賀県,草津市,下寺町４０３番地,,25,206,5250007,,,,,,,2025-10-28,1,,,,,リライフ,0
1874,7180001169166,新規,0,2025-10-28,2025-10-28,ＰｕｋｅＰｕｍｉ株式会社,,株式会社,愛知県,名古屋市中村区,十王町８番２９号サンマンション１Ａ号室,,23,105,4530035,,,,,,,2025-10-28,1,,,,,プケプミ,0
1875,7180001169224,新規,0,2025-10-28,2025-10-28,株式会社ＧＡＬＡＢ,,株式会社,愛知県,尾張旭市,柏井町公園通３９８番地２,,23,226,4880007,,,,,,,2025-10-28,1,,,,,ジーエーラボ,0
1876,7180001169281,新規,0,2025-10-28,2025-10-28,ｅｍｏホールディングス株式会社,,株式会社,愛知県,名古屋市中村区,名駅２丁目３８番２号オーキッドビル１階,,23,105,4500002,,,,,,,2025-10-28,1,,,,,イーモホールディングス,0
1883,7180003029302,新規,0,2025-10-28,2025-10-28,合同会社ｗｉｔｈ　Ｌａｆ,,合同会社,愛知県,名古屋市千種区,唐山町２丁目４３番地の２８,,23,101,4640806,,,,,,,2025-10-28,1,,,,,ウィズラフ,0
1885,7190001032645,新規,0,2025-10-28,2025-10-28,株式会社ネオホールディングス,,株式会社,三重県,三重郡菰野町,大字福村３４４番地,,24,341,5101234,,,,,,,2025-10-28,1,,,,,ネオホールディングス,0
1887,7210003001967,新規,0,2025-10-28,2025-10-28,あおき管理合同会社,,合同会社,福井県,越前市,村国２丁目９－２５,,18,209,9150084,,,,,,,2025-10-28,1,,,,,アオキカンリ,0
1897,7240001065689,新規,0,2025-10-28,2025-10-28,株式会社Ｎｅｃｔ,,株式会社,広島県,広島市西区,南観音８丁目１２番１９号,,34,104,7330035,,,,,,,2025-10-28,1,,,,,ネクト,0
1908,7290001111868,新規,0,2025-10-28,2025-10-28,株式会社ＭＡＴＥ,,株式会社,福岡県,久留米市,合川町４２２番地１８,,40,203,8390861,,,,,,,2025-10-28,1,,,,,メイト,0
1909,7290001111876,新規,0,2025-10-28,2025-10-28,株式会社ドルモンシェ,,株式会社,福岡県,福岡市中央区,薬院４丁目１４番５０－３０１号,,40,133,8100022,,,,,,,2025-10-28,1,,,,,ドルモンシェ,0
1921,7320001021411,新規,0,2025-10-28,2025-10-28,株式会社Ｋ,,株式会社,大分県,大分市,横尾東町４丁目１１番７号,,44,201,8700130,,,,,,,2025-10-28,1,,,,,ケイ,0
1923,7320003004810,新規,0,2025-10-28,2025-10-28,合同会社紡ぐ道,,合同会社,大分県,大分市,中津留１丁目１番５－４０４号サーパス中津留,,44,201,8700939,,,,,,,2025-10-28,1,,,,,ツムグミチ,0
1929,7360001035960,新規,0,2025-10-28,2025-10-28,うみ結い不動産株式会社,,株式会社,沖縄県,浦添市,字前田５７２番地Ｃｏｒａｌｉａ　１０１号室,,47,208,9012102,,,,,,,2025-10-28,1,,,,,ウミユイフドウサン,0
1931,7360003015358,新規,0,2025-10-28,2025-10-28,合同会社ｒｉｃｏｒａ,,合同会社,沖縄県,沖縄市,越来３丁目１５番４７号２Ｆ,,47,211,9040001,,,,,,,2025-10-28,1,,,,,リコラ,0
1941,7430001095551,新規,0,2025-10-28,2025-10-28,株式会社ＪＹＡＳＴ,,株式会社,北海道,札幌市厚別区,厚別東二条１丁目５番８号,,01,108,0040002,,,,,,,2025-10-28,1,,,,,ジャスト,0
1947,7430003018254,新規,0,2025-10-28,2025-10-28,丘だけ不動産合同会社,,合同会社,北海道,札幌市中央区,南五条西２４丁目１番１２号,,01,101,0640805,,,,,,,2025-10-28,1,,,,,オカダケフドウサン,0
1948,7430003018270,新規,0,2025-10-28,2025-10-28,合同会社オフィスミー,,合同会社,北海道,札幌市中央区,南六条西３丁目６－２２秋水ビル５階ネモちゃんランド２内,,01,101,0640806,,,,,,,2025-10-28,1,,,,,オフィスミー,0
1949,7430003018279,新規,0,2025-10-28,2025-10-28,合同会社ＮＥＸＴ　ＳＴＡＧＥ,,合同会社,北海道,虻田郡倶知安町,南三条東４丁目１番地２０パレス羊蹄Ｉ１０１号室,00141293,01,400,0440013,,,,,,,2025-10-28,1,,,,,ネクストステージ,0
1953,7470003003005,新規,0,2025-10-28,2025-10-28,合同会社メモリアルサポート,,合同会社,香川県,東かがわ市,松原５７番地１,,37,207,7692702,,,,,,,2025-10-28,1,,,,,メモリアルサポート,0
1955,7700150132722,新規,0,2025-10-28,2025-10-28,ＭＥＴＨＵＬ　ＣＥＹＬＯＮ　ＰＶＴ　ＬＴＤ,,外国会社等,埼玉県,羽生市,大字今泉５４４イエロータウンＡ,,11,216,3480017,スリランカ民主社会主義共和国マラウィラ、モダラウェッラ、ヘッティワッタ、１３５／Ｅ番地,,,,,,2025-10-28,1,,,,,メトウルセイロンリミテツド,0
1956,7700150132739,新規,0,2025-10-28,2025-10-28,ＹＵＭＥ　ＭＹＡＮＭＡＲ　Ｃｏｍｐａｎｙ　Ｌｉｍｉｔｅｄ,,外国会社等,熊本県,菊池郡大津町,大字引水８２９番地１６,,43,403,8691234,ミャンマー連邦共和国ヤンゴン市ラインタウンシップ（１）区アウンメッタロード（７０）号,,,,,,2025-10-28,1,,,,,ユメミヤンマーカブシキガイシヤ,0
1964,8010001259767,新規,0,2025-10-28,2025-10-28,株式会社Ｇ’ｓ　Ｌｅｘｙ,,株式会社,東京都,千代田区,神田和泉町１番地６－１６ヤマトビル４０５,,13,101,1010024,,,,,,,2025-10-28,1,,,,,ジーズレクシー,0
1972,8010005040850,新規,0,2025-10-28,2025-10-28,ＳＲＦアセット３一般社団法人,,その他の設立登記法人,東京都,千代田区,丸の内１丁目４番１号東京共同会計事務所内,,13,101,1000005,,,,,,,2025-10-28,1,,,,,エスアールエフアセットスリー,0
1973,8010005040859,新規,0,2025-10-28,2025-10-28,日光Ｐｌｕｓ２５ホールディング特定目的会社,,その他の設立登記法人,東京都,千代田区,丸の内１丁目４番１号東京共同会計事務所内,,13,101,1000005,,,,,,,2025-10-28,1,,,,,ニッコウプラストゥエンティファイブホールディング,0
1974,8010101016936,新規,0,2025-10-28,2025-10-28,株式会社たゆｎａｉｌ,,株式会社,東京都,八王子市,明神町３丁目７－４すずらんビル１Ｆ,,13,201,1920046,,,,,,,2025-10-28,1,,,,,タユネイル,0
1975,8010103002686,新規,0,2025-10-28,2025-10-28,コネクト合同会社,,合同会社,東京都,八王子市,長房町３４１番地長房東アパート東３－３０９,,13,201,1930824,,,,,,,2025-10-28,1,,,,,コネクト,0
1981,8010401194119,新規,0,2025-10-28,2025-10-28,株式会社ＴｅｒｒａＳｐａｒｋ,,株式会社,東京都,港区,南麻布４丁目９－１７－３０５,,13,103,1060047,,,,,,,2025-10-28,1,,,,,テラスパーク,0
1982,8010401194201,新規,0,2025-10-28,2025-10-28,ＳＢＩ　Ｏｎｃｈａｉｎ株式会社,,株式会社,東京都,港区,六本木１丁目６番１号,,13,103,1060032,,,,,,,2025-10-28,1,,,,,エスビーアイオンチェーン,0
1985,8010505003654,新規,0,2025-10-28,2025-10-28,リンク行政書士法人,,その他の設立登記法人,東京都,台東区,東上野２丁目２２番１０号東上野小池ビル６階,,13,106,1100015,,,,,,,2025-10-28,1,,,,,リンク,0
2010,8011001173099,新規,0,2025-10-28,2025-10-28,株式会社Ｏｌｅ　Ｃｒｅａｔｉｏｎ,,株式会社,東京都,渋谷区,本町２丁目２２番３号グリーンハウス２０３,,13,113,1510071,,,,,,,2025-10-28,1,,,,,オレクリエーション,0
2011,8011001173116,新規,0,2025-10-28,2025-10-28,ＲｅＣａｒｅｅｒ株式会社,,株式会社,東京都,渋谷区,神南１丁目２３番１４号リージャス渋谷公園通りビル,,13,113,1500041,,,,,,,2025-10-28,1,,,,,リキャリア,0
2012,8011001173132,新規,0,2025-10-28,2025-10-28,株式会社ニューネクスト,,株式会社,東京都,渋谷区,広尾５丁目４－１２大成鋼機ビル５１６,,13,113,1500012,,,,,,,2025-10-28,1,,,,,ニューネクスト,0
2013,8011003022741,新規,0,2025-10-28,2025-10-28,ＦＵＦＵＦＵＦＡＲＭ合同会社,,合同会社,東京都,渋谷区,道玄坂１丁目２０オリエンタル道玄坂案達ビル０１,,13,113,1500043,,,,,,,2025-10-28,1,,,,,フフフファーム,0
2017,8011103016602,新規,0,2025-10-28,2025-10-28,Ｈｅｄｒｉｃｋ合同会社,,合同会社,東京都,新宿区,新宿１丁目３６番２号,,13,104,1600022,,,,,,,2025-10-28,1,,,,,ヘッドリック,0
2018,8011401027524,新規,0,2025-10-28,2025-10-28,株式会社ブレイスライフサポート,,株式会社,東京都,板橋区,徳丸３丁目５番２３号,,13,119,1750083,,,,,,,2025-10-28,1,,,,,ブレイスライフサポート,0
2024,8012301014579,新規,0,2025-10-28,2025-10-28,株式会社エルアンド,,株式会社,東京都,町田市,原町田６丁目９番８号４Ｆ,,13,209,1940013,,,,,,,2025-10-28,1,,,,,エルアンド,0
2026,8012401043750,新規,0,2025-10-28,2025-10-28,株式会社三陸興業,,株式会社,東京都,調布市,多摩川７丁目１６番地２０,,13,208,1820025,,,,,,,2025-10-28,1,,,,,サンリクコウギョウ,0
2029,8012803003914,新規,0,2025-10-28,2025-10-28,合同会社メモリー,,合同会社,東京都,国分寺市,東元町１丁目３８番４５号,,13,214,1850022,,,,,,,2025-10-28,1,,,,,メモリー,0
2045,8020001165287,新規,0,2025-10-28,2025-10-28,株式会社Ａｓｃｉｅｎｃｅ,,株式会社,神奈川県,横浜市港北区,日吉５丁目３１－２２－２０３,,14,109,2230061,,,,,,,2025-10-28,1,,,,,アサイエンス,0
2046,8020001165329,新規,0,2025-10-28,2025-10-28,パイントラスト株式会社,,株式会社,神奈川県,横浜市青葉区,荏田西３丁目２０番地１,,14,117,2250014,,,,,,,2025-10-28,1,,,,,パイントラスト,0
2047,8020001165584,新規,0,2025-10-28,2025-10-28,株式会社ＸＥＥＥＤ,,株式会社,神奈川県,横浜市神奈川区,金港町５－１４クアドリフォリオ８階,,14,102,2210056,,,,,,,2025-10-28,1,,,,,エクシード,0
2058,8020003029432,新規,0,2025-10-28,2025-10-28,合同会社ミギウデ,,合同会社,神奈川県,横浜市西区,浅間町１丁目４番３－４０２号,,14,103,2200072,,,,,,,2025-10-28,1,,,,,ミギウデ,0
2091,8030001169056,新規,0,2025-10-28,2025-10-28,盛世建設株式会社,,株式会社,埼玉県,川口市,差間１丁目１７番１０号,,11,203,3330816,,,,,,,2025-10-28,1,,,,,モリヨケンセツ,0
2094,8030003027963,新規,0,2025-10-28,2025-10-28,合同会社ＧｒｏＬｉｎｅ,,合同会社,埼玉県,ふじみ野市,旭１丁目１番２３－１０２号,,11,245,3560055,,,,,,,2025-10-28,1,,,,,グロライン,0
2101,8040001141138,新規,0,2025-10-28,2025-10-28,株式会社大和と豪,,株式会社,千葉県,千葉市若葉区,中野町２１７２番地,,12,104,2650051,,,,,,,2025-10-28,1,,,,,ヤマトトゴウ,0
2104,8040003028845,新規,0,2025-10-28,2025-10-28,合同会社Ｅｍｂｌｅｍ,,合同会社,千葉県,市川市,宝１丁目８番１３号リリックハイツ宝２・２１７,,12,203,2720122,,,,,,,2025-10-28,1,,,,,エンブレム,0
2105,8040003028861,新規,0,2025-10-28,2025-10-28,合同会社Ｎｅｘａ　Ｃ,,合同会社,千葉県,浦安市,富岡３丁目３番,,12,227,2790021,,,,,,,2025-10-28,1,,,,,ネクサシー,0
2107,8040005022937,新規,0,2025-10-28,2025-10-28,一般社団法人Ｂｏａｎｓｅｉｏ　Ａｓａｈｉ,,その他の設立登記法人,千葉県,旭市,野中３２０１番地,,12,215,2892513,,,,,,,2025-10-28,1,,,,,ボアンセオアサヒ,0
2116,8070001043488,新規,0,2025-10-28,2025-10-28,株式会社アイティーエス,,株式会社,群馬県,太田市,上小林町２６１番地１０,,10,205,3730024,,,,,,,2025-10-28,1,,,,,アイティーエス,0
2117,8070001043496,新規,0,2025-10-28,2025-10-28,株式会社そらにわ,,株式会社,群馬県,高崎市,島野町１０９６－１,,10,202,3700015,,,,,,,2025-10-28,1,,,,,ソラニワ,0
2120,8080003003588,新規,0,2025-10-28,2025-10-28,合同会社ＣｈａｔＮｏｉｒ,,合同会社,静岡県,静岡市葵区,東草深町１９番１４号,,22,101,4200865,,,,,,,2025-10-28,1,,,,,シャノワール,0
2123,8080103003455,新規,0,2025-10-28,2025-10-28,きずなライフ合同会社,,合同会社,静岡県,三島市,青木３６４番地の１３渡辺住宅５,,22,206,4110811,,,,,,,2025-10-28,1,,,,,キズナライフ,0
2127,8090001019585,新規,0,2025-10-28,2025-10-28,株式会社スムリエ,,株式会社,山梨県,北杜市,高根町村山北割１４２８番地,,19,209,4080002,,,,,,,2025-10-28,1,,,,,スムリエ,0
2129,8100003008444,新規,0,2025-10-28,2025-10-28,合同会社結,,合同会社,長野県,飯田市,上郷黒田２９９２－１,,20,205,3950004,,,,,,,2025-10-28,1,,,,,ムスビ,0
2131,8110001039671,新規,0,2025-10-28,2025-10-28,株式会社ＰＥＲＭＡ,,株式会社,新潟県,長岡市,西新町２丁目８番１１号,,15,202,9400024,,,,,,,2025-10-28,1,,,,,パルマ,0
2133,8110003005944,新規,0,2025-10-28,2025-10-28,合同会社ＦＵＳＩＯＮ　ＳＨＩＰ,,合同会社,新潟県,上越市,本町４丁目２番２５号２階,,15,222,9430832,,,,,,,2025-10-28,1,,,,,フュージョンシップ,0
2145,8120001281000,新規,0,2025-10-28,2025-10-28,株式会社サザーランド,,株式会社,大阪府,大阪市北区,梅田１丁目２番２号大阪駅前第２ビル１２－１２,,27,127,5300001,,,,,,,2025-10-28,1,,,,,サザーランド,0
2146,8120001281074,新規,0,2025-10-28,2025-10-28,株式会社スカイケンホールディングス,,株式会社,大阪府,大阪市生野区,生野西２丁目５－１４、４号室,,27,116,5440024,,,,,,,2025-10-28,1,,,,,スカイケンホールディングス,0
2147,8120001281223,新規,0,2025-10-28,2025-10-28,株式会社メゾンドシック,,株式会社,大阪府,大阪市中央区,南船場１丁目１０番２号ＳＡＮＷＡトレーディングビル３０１号,,27,128,5420081,,,,,,,2025-10-28,1,,,,,メゾンドシック,0
2148,8120001281297,新規,0,2025-10-28,2025-10-28,株式会社再生会,,株式会社,大阪府,大阪市東成区,大今里４丁目１５番１０号,,27,115,5370012,,,,,,,2025-10-28,1,,,,,サイセイカイ,0
2149,8120001281512,新規,0,2025-10-28,2025-10-28,株式会社Ｌｉｎｋｓｙ,,株式会社,大阪府,大阪市浪速区,日本橋東３丁目１０番２０号２Ｆ,,27,111,5560006,,,,,,,2025-10-28,1,,,,,リンクシー,0
2150,8120001281537,新規,0,2025-10-28,2025-10-28,株式会社Ｓ＆Ｓ,,株式会社,大阪府,枚方市,宗谷１丁目４番８号,,27,210,5730113,,,,,,,2025-10-28,1,,,,,エスアンドエス,0
2156,8120003030875,新規,0,2025-10-28,2025-10-28,ナナバイオート合同会社,,合同会社,大阪府,寝屋川市,日之出町５－１０,,27,215,5720835,,,,,,,2025-10-28,1,,,,,ナナバイオート,0
2157,8120003030941,新規,0,2025-10-28,2025-10-28,合同会社天龍の森,,合同会社,大阪府,大阪市此花区,島屋６丁目２－１４－１７０２,,27,104,5540024,,,,,,,2025-10-28,1,,,,,テンリュウノモリ,0
2158,8120003031106,新規,0,2025-10-28,2025-10-28,ＨＡＮＲＵＩ　ＪＡＰＡＮ合同会社,,合同会社,大阪府,大阪市中央区,南久宝寺町４丁目４番１号新御堂ビル５０２－２号室,,27,128,5410058,,,,,,,2025-10-28,1,,,,,ハンルイジャパン,0
2159,8120003031114,新規,0,2025-10-28,2025-10-28,合同会社みどり訪問介護,,合同会社,大阪府,大阪市西成区,長橋３丁目６番３３号,,27,122,5570025,,,,,,,2025-10-28,1,,,,,ミドリホウモンカイゴ,0
2164,8130001080896,新規,0,2025-10-28,2025-10-28,京都ＭＰＩ株式会社,,株式会社,京都府,京都市左京区,吉田本町３６番地１京都大学国際科学イノベーション棟西館１０４ベンチャーインキュベーションセンター内,,26,103,6068317,,,,,,,2025-10-28,1,,,,,キョウトエムピーアイ,0
2166,8130003010884,新規,0,2025-10-28,2025-10-28,合同会社ｌｉｎｏａ,,合同会社,京都府,木津川市,相楽神後原５７番地１ブルグ藪内２号館２０２,,26,214,6190222,,,,,,,2025-10-28,1,,,,,リノア,0
2176,8160001027168,新規,0,2025-10-28,2025-10-28,ＩＮＴＥＧ’Ｒｅ’ＴＹ株式会社,,株式会社,滋賀県,東近江市,山路町２５３番地１,,25,213,5211225,,,,,,,2025-10-28,1,,,,,インテグリティ,0
2182,8180001169165,新規,0,2025-10-28,2025-10-28,ｉ‐Ｗｏｒｋ株式会社,,株式会社,愛知県,名古屋市中区,栄５丁目２６－３９ＧＳ栄ビル３階,,23,106,4600008,,,,,,,2025-10-28,1,,,,,アイワーク,0
2183,8180001169248,新規,0,2025-10-28,2025-10-28,株式会社ムーサ,,株式会社,愛知県,春日井市,白山町６丁目１１番地１６,,23,206,4870034,,,,,,,2025-10-28,1,,,,,ムーサ,0
2184,8180001169289,新規,0,2025-10-28,2025-10-28,株式会社ＴＴホールディングス,,株式会社,愛知県,春日井市,美濃町２丁目２３０番地,,23,206,4860917,,,,,,,2025-10-28,1,,,,,ティーティーホールディングス,0
2185,8180001169297,新規,0,2025-10-28,2025-10-28,株式会社ポラリス,,株式会社,愛知県,名古屋市中区,丸の内３丁目５番１０号名古屋丸の内ビル６Ｆ,,23,106,4600002,,,,,,,2025-10-28,1,,,,,ポラリス,0
2186,8180001169306,新規,0,2025-10-28,2025-10-28,株式会社オーエヌプランニング,,株式会社,愛知県,名古屋市中区,栄５丁目４番２３号,,23,106,4600008,,,,,,,2025-10-28,1,,,,,オーエヌプランニング,0
2187,8180001169314,新規,0,2025-10-28,2025-10-28,株式会社住まいプラザ,,株式会社,愛知県,一宮市,大毛字西新開５５番地クレセール松岡ＩＩ１０２号室,00141294,23,203,4910132,,,,,,,2025-10-28,1,,,,,スマイプラザ,0
2195,8200001044373,新規,0,2025-10-28,2025-10-28,株式会社Ｌａｍｐｉ,,株式会社,岐阜県,可児市,羽崎５１７番地,,21,214,5090222,,,,,,,2025-10-28,1,,,,,ランピ,0
2207,8240001065688,新規,0,2025-10-28,2025-10-28,株式会社松原商店,,株式会社,広島県,三原市,港町３丁目２番２６号,,34,204,7230017,,,,,,,2025-10-28,1,,,,,マツバラショウテン,0
2208,8240001065696,新規,0,2025-10-28,2025-10-28,ＴＭ　Ｈｉｒｏｓｈｉｍａ株式会社,,株式会社,広島県,広島市佐伯区,海老園１丁目６－２８－６０１,,34,108,7315135,,,,,,,2025-10-28,1,,,,,,0
2218,8290001111842,新規,0,2025-10-28,2025-10-28,ＳＨＡＯＫＥ　ＴＥＣＨ株式会社,,株式会社,福岡県,福岡市東区,香椎照葉７丁目７－３１,,40,131,8130017,,,,,,,2025-10-28,1,,,,,シャオケテック,0
2222,8290003017451,新規,0,2025-10-28,2025-10-28,合同会社ＷＫ,,合同会社,福岡県,福岡市西区,姪の浜６丁目１４－１３姪の浜北ハイツ３０２,,40,135,8190002,,,,,,,2025-10-28,1,,,,,ワック,0
2229,8290801031967,新規,0,2025-10-28,2025-10-28,ワイエスフード株式会社,,株式会社,福岡県,田川郡香春町,大字鏡山５６７番,,40,601,8221402,,,,,,,2025-10-28,1,,,,,ワイエスフード,0
2239,8360001035968,新規,0,2025-10-28,2025-10-28,株式会社ＤＪＮ　ＡＳＳＥＴ,,株式会社,沖縄県,中頭郡嘉手納町,屋良１丁目２３番地３,,47,325,9040202,,,,,,,2025-10-28,1,,,,,ディージェーエヌアセット,0
2245,8380003006172,新規,0,2025-10-28,2025-10-28,合同会社ウィズビオ,,合同会社,福島県,福島市,天神町１４番５号オフィス天神２Ｆ‐Ｂ,,07,201,9608001,,,,,,,2025-10-28,1,,,,,ウィズビオ,0
2247,8390001018144,新規,0,2025-10-28,2025-10-28,株式会社Ｅｙｅ　ｗｏｒｋｓ,,株式会社,山形県,酒田市,相生町２丁目２番１号,,06,204,9980032,,,,,,,2025-10-28,1,,,,,アイワークス,0
2251,8430001095542,新規,0,2025-10-28,2025-10-28,株式会社スノウスケイプ,,株式会社,北海道,札幌市豊平区,美園四条１丁目１－１４,,01,105,0620004,,,,,,,2025-10-28,1,,,,,スノウスケイプ,0
2252,8430001095550,新規,0,2025-10-28,2025-10-28,セールスデザインラボ株式会社,,株式会社,北海道,札幌市中央区,南五条西１５丁目２－３－５０３,,01,101,0640805,,,,,,,2025-10-28,1,,,,,セールスデザインラボ,0
2253,8430001095559,新規,0,2025-10-28,2025-10-28,株式会社ｔｏ‐Ｂｅ,,株式会社,北海道,札幌市西区,西野七条１０丁目１９番１８号,,01,107,0630037,,,,,,,2025-10-28,1,,,,,トゥービー,0
2260,8430003018253,新規,0,2025-10-28,2025-10-28,合同会社ＫＡＮＮＡ　ＫＡＭＵＹ,,合同会社,北海道,札幌市厚別区,厚別北六条４丁目５番３号,,01,108,0040076,,,,,,,2025-10-28,1,,,,,カンナカムイ,0
2261,8460301005314,新規,0,2025-10-28,2025-10-28,伯株式会社,,株式会社,北海道,紋別郡遠軽町,南町３丁目４番地３５６,,01,555,0990414,,,,,,,2025-10-28,1,,,,,ハク,0
2264,8700150132721,新規,0,2025-10-28,2025-10-28,ＤＡＲＬＩＮＧ　ＣＯＲＰ．ＰＴＹ　ＬＴＤ,,外国会社等,,,,,,,,２８６　ＭＡＲＩＢＹＲＮＯＮＧ　ＲＯＡＤ，ＭＯＯＮＥＥ　ＰＯＮＤＳ　ＶＩＣ　３０３９,,,,,,2025-10-28,1,,,,,ダーリンコーポレーシヨンピーテイーワイエルテイーデイ,0
2265,8700150132738,新規,0,2025-10-28,2025-10-28,ＮＯＤＡ　ＭＯＴＯＲＳ　ＥＮＴＥＲＰＲＩＳＥＳ,,外国会社等,神奈川県,厚木市,下川入４６－１平和荘１０７号室,,14,212,2430206,スリランカ民主社会主義共和国、キャンディ、アクラナ、クルゴダ１８番地,,,,,,2025-10-28,1,,,,,ノダモータースエンタープライセス,0
2272,9010001259733,新規,0,2025-10-28,2025-10-28,ＫＪ００３ＨＤ株式会社,,株式会社,東京都,千代田区,丸の内２丁目１番１号明治安田生命ビル１１階,,13,101,1000005,,,,,,,2025-10-28,1,,,,,ケイジェイゼロゼロスリーエイチディー,0
2275,9010003049100,新規,0,2025-10-28,2025-10-28,合同会社Ｇｒｅｅｎ　Ｇａｒｄｅｎ,,合同会社,東京都,中央区,京橋２丁目１２番６号ＡＯＪ税理士法人内,,13,102,1040031,,,,,,,2025-10-28,1,,,,,グリーンガーデン,0
2283,9010401194118,新規,0,2025-10-28,2025-10-28,株式会社ＷＴＨＤ,,株式会社,東京都,港区,六本木３丁目２番２－９０２号,,13,103,1060032,,,,,,,2025-10-28,1,,,,,ダブルティーエイチディー,0
2284,9010401194150,新規,0,2025-10-28,2025-10-28,株式会社ＫＭ　Ｈｏｌｄｉｎｇｓ,,株式会社,東京都,港区,浜松町２丁目２番１１号ＫＭＶＩＩ９Ｆ,00141279,13,103,1050013,,,,,,,2025-10-28,1,,,,,ケーエムホールディングス,0
2285,9010403036425,新規,0,2025-10-28,2025-10-28,クリアレイク・キャピタル・グループ・ジャパン合同会社,,合同会社,東京都,港区,六本木１丁目９番１０号アークヒルズ仙石山森タワー２８階ベーカー＆マッケンジー法律事務所（外国法共同事業）内,,13,103,1060032,,,,,,,2025-10-28,1,,,,,クリアレイクキャピタルグループジャパン,0
2286,9010403036433,新規,0,2025-10-28,2025-10-28,ＫＥＩ合同会社,,合同会社,東京都,港区,赤坂６丁目５番２５－５０２号,,13,103,1070052,,,,,,,2025-10-28,1,,,,,ケイ,0
2307,9011001173016,新規,0,2025-10-28,2025-10-28,株式会社Ｗｉｎｏｖａ,,株式会社,東京都,渋谷区,道玄坂１丁目１０番８号,,13,113,1500043,,,,,,,2025-10-28,1,,,,,ウィノバ,0
2308,9011001173098,新規,0,2025-10-28,2025-10-28,株式会社Ｆ,,株式会社,東京都,渋谷区,恵比寿西２丁目４番８号ウィンド恵比寿ビル８Ｆ,,13,113,1500021,,,,,,,2025-10-28,1,,,,,エフ,0
2309,9011001173115,新規,0,2025-10-28,2025-10-28,株式会社ＳＴＯＮＥ　ＯＡＫ,,株式会社,東京都,目黒区,下目黒２丁目３番７－８０９号,,13,110,1530064,,,,,,,2025-10-28,1,,,,,ストーンオーク,0
2310,9011001173271,新規,0,2025-10-28,2025-10-28,株式会社ＡＩメンタルサポート,,株式会社,東京都,渋谷区,恵比寿４丁目２０番４号恵比寿ガーデンプレイスグラススクエア,,13,113,1500013,,,,,,,2025-10-28,1,,,,,エーアイメンタルサポート,0
2311,9011001173429,新規,0,2025-10-28,2025-10-28,株式会社Ｍａｒｇｉｎａｌ,,株式会社,東京都,渋谷区,道玄坂１丁目１０番８号渋谷道玄坂東急ビル２Ｆ－Ｃ,,13,113,1500043,,,,,,,2025-10-28,1,,,,,マージナル,0
2313,9011003022740,新規,0,2025-10-28,2025-10-28,合同会社ハレとケリレーションズ,,合同会社,東京都,渋谷区,渋谷１丁目２４番７号渋谷宮下パークビル１００４号室,,13,113,1500002,,,,,,,2025-10-28,1,,,,,ハレトケリレーションズ,0
2314,9011005011213,新規,0,2025-10-28,2025-10-28,一般社団法人ユニークブレインラボ,,その他の設立登記法人,東京都,渋谷区,上原２丁目２番１号,,13,113,1510064,,,,,,,2025-10-28,1,,,,,ユニークブレインラボ,0
2318,9011101113508,新規,0,2025-10-28,2025-10-28,唯雍株式会社,,株式会社,東京都,新宿区,百人町２丁目５－８科研ビル１階Ｃ号室,,13,104,1690073,,,,,,,2025-10-28,1,,,,,ウェイヨン,0
2320,9011103016584,新規,0,2025-10-28,2025-10-28,合同会社ＰＳＧ,,合同会社,東京都,新宿区,西新宿３丁目３番１３号西新宿水間ビル６階,,13,104,1600023,,,,,,,2025-10-28,1,,,,,ピーエスジー,0
2330,9011801046973,新規,0,2025-10-28,2025-10-28,株式会社ＫｉｎＧ　ＴｏＫｙｏ,,株式会社,東京都,葛飾区,奥戸９丁目１５番１９号,,13,122,1240022,,,,,,,2025-10-28,1,,,,,キングトウキョウ,0
2331,9012301014578,新規,0,2025-10-28,2025-10-28,株式会社Ｓ‐ｏｎｅ・２,,株式会社,東京都,町田市,中町３丁目３番１７号,,13,209,1940021,,,,,,,2025-10-28,1,,,,,エスワンツー,0
2334,9012403007430,新規,0,2025-10-28,2025-10-28,合同会社絆,,合同会社,東京都,武蔵野市,吉祥寺北町３丁目１７番１１号日銀寮Ａ１２１,,13,203,1800001,,,,,,,2025-10-28,1,,,,,キズナ,0
2337,9012801024325,新規,0,2025-10-28,2025-10-28,株式会社Ｒｅｍｙｕ,,株式会社,東京都,日野市,落川３３０番地の２２,,13,212,1910034,,,,,,,2025-10-28,1,,,,,レミュー,0
2340,9012803003913,新規,0,2025-10-28,2025-10-28,合同会社山龍,,合同会社,東京都,武蔵村山市,伊奈平５丁目６８－１７,,13,223,2080023,,,,,,,2025-10-28,1,,,,,ヤマタツ,0
2359,9020001165294,新規,0,2025-10-28,2025-10-28,方舟株式会社,,株式会社,神奈川県,横浜市鶴見区,矢向３丁目２５番１８－２０３号,,14,101,2300001,,,,,,,2025-10-28,1,,,,,ホウシュウ,0
2360,9020001165410,新規,0,2025-10-28,2025-10-28,キャリア・ライフ共創ラボ株式会社,,株式会社,神奈川県,横浜市鶴見区,東寺尾６丁目２３番１１号,,14,101,2300077,,,,,,,2025-10-28,1,,,,,キャリアライフキョウソウラボ,0
2374,9030001169369,新規,0,2025-10-28,2025-10-28,株式会社ＩＣｇｒｏｗ,,株式会社,埼玉県,川口市,大字安行藤八６６８番地の５,,11,203,3340051,,,,,,,2025-10-28,1,,,,,アイシーグロウ,0
2375,9030001169385,新規,0,2025-10-28,2025-10-28,株式会社ＨＩＳＨＩＮ,,株式会社,埼玉県,新座市,新堀２丁目８番４０号,,11,230,3520032,,,,,,,2025-10-28,1,,,,,ヒシン,0
2376,9030001169402,新規,0,2025-10-28,2025-10-28,株式会社フュースパーク,,株式会社,埼玉県,羽生市,大字須影１０１番地６,,11,216,3480033,,,,,,,2025-10-28,1,,,,,フュースパーク,0
2377,9030001169410,新規,0,2025-10-28,2025-10-28,楽和株式会社,,株式会社,埼玉県,川口市,芝塚原１丁目７番２８号富士見ハイツ３０１号,,11,203,3330856,,,,,,,2025-10-28,1,,,,,ラクワ,0
2379,9030003027962,新規,0,2025-10-28,2025-10-28,合同会社輝,,合同会社,埼玉県,入間市,下藤沢１丁目７番地５,,11,225,3580011,,,,,,,2025-10-28,1,,,,,カガヤキ,0
2385,9040001141137,新規,0,2025-10-28,2025-10-28,株式会社エナジーコンシェルジュ,,株式会社,千葉県,市川市,末広２丁目２０番１４－１０１号（ローズガーデン行徳ラティオ）,,12,203,2720121,,,,,,,2025-10-28,1,,,,,エナジーコンシェルジュ,0
2386,9040001141161,新規,0,2025-10-28,2025-10-28,株式会社壱八メンテナンス,,株式会社,千葉県,市川市,塩焼２丁目１２番１３号,,12,203,2720114,,,,,,,2025-10-28,1,,,,,イッパチメンテナンス,0
2389,9040003028844,新規,0,2025-10-28,2025-10-28,合同会社ＧＮＫ,,合同会社,千葉県,市川市,塩焼４丁目９番３２号,,12,203,2720114,,,,,,,2025-10-28,1,,,,,ジーエヌケー,0
2394,9070001043487,新規,0,2025-10-28,2025-10-28,株式会社ＭＩマネジメント,,株式会社,群馬県,高崎市,吉井町神保１２９０番地１,,10,202,3702123,,,,,,,2025-10-28,1,,,,,エムアイマネジメント,0
2396,9080001027233,新規,0,2025-10-28,2025-10-28,株式会社ＶＹＮＸ,,株式会社,静岡県,静岡市葵区,牧ケ谷２０８４番地,,22,101,4211221,,,,,,,2025-10-28,1,,,,,ヴィンクス,0
2400,9080103003454,新規,0,2025-10-28,2025-10-28,合同会社デザインあお,,合同会社,静岡県,沼津市,大手町２丁目１－５Ｋレジデンス大手町３０３,,22,203,4100801,,,,,,,2025-10-28,1,,,,,デザインアオ,0
2401,9080401028236,新規,0,2025-10-28,2025-10-28,株式会社エクセボ,,株式会社,静岡県,浜松市中央区,西ケ崎町５３１番地の６,,22,138,4313115,,,,,,,2025-10-28,1,,,,,エクセボ,0
2402,9080403005373,新規,0,2025-10-28,2025-10-28,合同会社Ｄｉｉ,,合同会社,静岡県,浜松市中央区,葵西１丁目１７番２号,,22,138,4338111,,,,,,,2025-10-28,1,,,,,ディー,0
2407,9100003008451,新規,0,2025-10-28,2025-10-28,合同会社北信山岳整備,,合同会社,長野県,下高井郡木島平村,大字上木島９５５,,20,562,3892303,,,,,,,2025-10-28,1,,,,,ホクシンサンガクセイビ,0
2408,9110001039679,新規,0,2025-10-28,2025-10-28,株式会社Ｍ＆Ｍ,,株式会社,新潟県,新潟市西蒲区,潟頭１１９番地,,15,108,9530067,,,,,,,2025-10-28,1,,,,,エムアンドエム,0
2421,9120001281395,新規,0,2025-10-28,2025-10-28,茉奈株式会社,,株式会社,大阪府,大阪市東成区,中道４丁目１６－２１山上ビル４０６号,,27,115,5370025,,,,,,,2025-10-28,1,,,,,マナ,0
2422,9120001281404,新規,0,2025-10-28,2025-10-28,株式会社Ｍａａｔｓ,,株式会社,大阪府,大阪市淀川区,十八条１丁目１番３２－２０２号,,27,123,5320001,,,,,,,2025-10-28,1,,,,,マーツ,0
2423,9120001281494,新規,0,2025-10-28,2025-10-28,株式会社ＬＣＴ,,株式会社,大阪府,大阪市中央区,久宝寺町三丁目２－７第一住建南久宝寺町ビル９Ｆ,,27,128,5390000,,,,,,,2025-10-28,1,,,,,エルシーティー,0
2424,9120001281569,新規,0,2025-10-28,2025-10-28,ＡＷＡＩ　ＢＬＵＥ　ＰＡＲＴＮＥＲＳ株式会社,,株式会社,大阪府,大阪市北区,梅田１丁目２－２－１４００号,,27,127,5300001,,,,,,,2025-10-28,1,,,,,アワイブルーパートナーズ,0
2429,9120003030924,新規,0,2025-10-28,2025-10-28,Ａｂｓｉｎｔｈｅ　Ｗｏｒｍｗｏｏｄ合同会社,,合同会社,大阪府,大阪市西区,北堀江１丁目２－２７Ｂ２,,27,106,5500014,,,,,,,2025-10-28,1,,,,,アブサンワームウッド,0
2432,9120901051690,新規,0,2025-10-28,2025-10-28,株式会社Ｔ．Ｋ．Ｒ．Ｅ,,株式会社,大阪府,摂津市,鶴野４丁目２２番１６号,,27,224,5660035,,,,,,,2025-10-28,1,,,,,ティーケーアールイー,0
2439,9130001080870,新規,0,2025-10-28,2025-10-28,株式会社ＡＳＣＥＮＯＲ,,株式会社,京都府,京都市伏見区,桃山筒井伊賀西町３６番地１ＳｈａＭａｉｓｏｎ丹波橋ｉｎ桃山２０１号,,26,109,6120073,,,,,,,2025-10-28,1,,,,,アセノア,0
2440,9130001080895,新規,0,2025-10-28,2025-10-28,株式会社Ｂｒ　ｏｎｅ,,株式会社,京都府,京都市下京区,七条御所ノ内南町２９番地,,26,106,6008864,,,,,,,2025-10-28,1,,,,,ビーアールワン,0
2451,9150003003729,新規,0,2025-10-28,2025-10-28,はなはな看護合同会社,,合同会社,奈良県,葛城市,長尾９３,,29,211,6392164,,,,,,,2025-10-28,1,,,,,ハナハナカンゴ,0
2454,9160001027175,新規,0,2025-10-28,2025-10-28,株式会社ＳＫ,,株式会社,滋賀県,守山市,下之郷１丁目４番１８－１０２号,,25,207,5240013,,,,,,,2025-10-28,1,,,,,エスケー,0
2462,9180001169222,新規,0,2025-10-28,2025-10-28,株式会社ＮｅｘｔＤｏｏｒ,,株式会社,愛知県,名古屋市東区,泉１丁目１４－６パークサイト泉１００２,,23,102,4610001,,,,,,,2025-10-28,1,,,,,ネクストドア,0
2463,9180001169313,新規,0,2025-10-28,2025-10-28,株式会社ｕｎｉｔｙ,,株式会社,愛知県,名古屋市中区,錦３丁目２番２４号セントヒルズビル８Ｄ,,23,106,4600003,,,,,,,2025-10-28,1,,,,,ユニティ,0
2465,9180003029283,新規,0,2025-10-28,2025-10-28,合同会社＿明堂,00141281,合同会社,愛知県,一宮市,本町４丁目１６番３号,,23,203,4910859,,,,,,,2025-10-28,1,,,,,エイメイドウ,0
2468,9180301040355,新規,0,2025-10-28,2025-10-28,株式会社Ｅファーム三河,,株式会社,愛知県,豊橋市,野田町字野田１９６番地１,,23,201,4418001,,,,,,,2025-10-28,1,,,,,イーファームミカワ,0
2473,9200001044372,新規,0,2025-10-28,2025-10-28,株式会社ＫＴ９,,株式会社,岐阜県,各務原市,川島松倉町１８０９番地９,,21,213,5016022,,,,,,,2025-10-28,1,,,,,ケーティーナイン,0
2479,9230001021154,新規,0,2025-10-28,2025-10-28,株式会社リブレ,,株式会社,富山県,富山市,梅沢町２丁目６番１０号,,16,201,9300055,,,,,,,2025-10-28,1,,,,,リブレ,0
2484,9240001065695,新規,0,2025-10-28,2025-10-28,株式会社ＤＰＩＣ　Ｓ１,,株式会社,広島県,広島市西区,三篠町３丁目１０番２号,,34,104,7330003,,,,,,,2025-10-28,1,,,,,ディーピーアイシーエスワン,0
2486,9240003007456,新規,0,2025-10-28,2025-10-28,合同会社Ｙ　ＣＯＦＦＥＥ,,合同会社,広島県,東広島市,西条町田口７０７番地５０,,34,212,7390036,,,,,,,2025-10-28,1,,,,,ワイコーヒー,0
2493,9290001111866,新規,0,2025-10-28,2025-10-28,株式会社Ｅｎｒｉｃｈ,,株式会社,福岡県,福岡市中央区,大名１丁目９－４５藤和大名コープ２１１,,40,133,8100041,,,,,,,2025-10-28,1,,,,,エンリッチ,0
2494,9290001111890,新規,0,2025-10-28,2025-10-28,株式会社シースケープパートナーズ,,株式会社,福岡県,福岡市博多区,千代５丁目３番２８‐１００５号,,40,132,8120044,,,,,,,2025-10-28,1,,,,,シースケープパートナーズ,0
2510,9340001027735,新規,0,2025-10-28,2025-10-28,株式会社Ｔ・Ｓｈｉｎｅ,,株式会社,鹿児島県,鹿児島市,武１丁目１７番２４号,,46,201,8900045,,,,,,,2025-10-28,1,,,,,ティーシャイン,0
2511,9360001035950,新規,0,2025-10-28,2025-10-28,鯨波株式会社,,株式会社,沖縄県,名護市,字宇茂佐４２８－２４,,47,209,9050006,,,,,,,2025-10-28,1,,,,,ゲイハ,0
2512,9390001018143,新規,0,2025-10-28,2025-10-28,さがえ不動産株式会社,,株式会社,山形県,鶴岡市,伊勢原町２２番３３－１号,,06,203,9970802,,,,,,,2025-10-28,1,,,,,サガエフドウサン,0
2515,9400003003554,新規,0,2025-10-28,2025-10-28,合同会社佐々木設備,,合同会社,岩手県,奥州市,江刺八日町１丁目６番３号,,03,215,0231102,,,,,,,2025-10-28,1,,,,,ササキセツビ,0
2522,9430001095558,新規,0,2025-10-28,2025-10-28,株式会社沖元建築設計,,株式会社,北海道,札幌市中央区,南九条西６丁目１番３６号ユー・ステージ,,01,101,0640809,,,,,,,2025-10-28,1,,,,,オキモトケンチクセッケイ,0
2526,9440001009707,新規,0,2025-10-28,2025-10-28,株式会社はせがわ農園,,株式会社,北海道,亀田郡七飯町,字豊田１２５番地の２,,01,337,0411132,,,,,,,2025-10-28,1,,,,,ハセガワノウエン,0
2530,9700150132126,新規,0,2025-10-28,2025-10-28,中山市蕾諾電子有限公司,,外国会社等,,,,,,,,中山市東鳳鎮小瀝社区益隆一街二巷（李雄秋商舗首層之三）,,,,,,2025-10-28,1,,,,,チュウザンシライダクデンシユウゲンコウシ,0
2531,9700150132720,新規,0,2025-10-28,2025-10-28,ＢＩＧＳＨＯＴ　ＩＮＶＥＳＴＭＥＮＴ　ＬＩＭＩＴＥＤ,,外国会社等,,,,,,,,Ｒｏｏｍ１８０１－４，ＹＡＵＳＨＩＮＧＣＯＭＭＥＲＣＩＡＬＣＥＮＴＲＥ，５１ＳＡＩＹＥＵＮＧＣＨＯＩＳＴＲＥＥＴ，ＭＯＮＧＫＯＫ，ＫＯＷＬＯＯＮ，ＨＯＮＧＫＯＮＧ,,,,,,2025-10-28,1,,,,,ビツグシヨツトインヴエストメントリミテツド,0
2532,9700150132737,新規,0,2025-10-28,2025-10-28,ＨＡＲＢＯＵＲ　ＰＩＬＯＴ　ＬＩＭＩＴＥＤ,,外国会社等,,,,,,,,Ｖｉｓｔｒａ　Ｃｏｒｐｏｒａｔｅ　Ｓｅｒｖｉｃｅｓ　Ｃｅｎｔｅｒ，Ｓｕｉｔｅ　２３，１ｓｔ　Ｆｌｏｏｒ，Ｅｄｅｎ　Ｐｌａｚａ，Ｅｄｅｎ　Ｉｓｌａｎｄ，Ｍａｈｅ，Ｒｅｐｕｂｌｉｃ　ｏｆ　Ｓｅｙｃｈｅｌｌｅｓ,00141292,,,,,2025-10-28,1,,,,,ハーバーパイロツトリミテツド,0
2533,9700150132745,新規,0,2025-10-28,2025-10-28,蘇州市呉中区万事順針織服飾有限公司,,外国会社等,東京都,江東区,亀戸３丁目６２番１０号ＳＡＮビル４１１号室,,13,108,1360071,中国蘇州市呉中区臨湖鎮浦庄,,,,,,2025-10-28,1,,,,,ソシユウシゴチユウクバンジジユンシンシヨクフクシユウゲンコウシ,0
