sequenceNumber,corporateNumber,process,correct,updateDate,changeDate,name,nameImageId,kind,prefectureName,cityName,streetNumber,addressImageId,prefectureCode,cityCode,postCode,addressOutside,addressOutsideImageId,closeDate,closeCause,successorCorporateNumber,changeCause,assignmentDate,latest,enName,enPrefectureName,enCityName,enAddressOutside,furigana,hihyoji
6,1010001144125,登記記録の閉鎖等,0,2023-11-17,2023-11-10,株式会社ＴＲＵＥ　ＬＯＶＥ,,株式会社,東京都,千代田区,神田駿河台４丁目４番地,,13,101,1010062,,,2023-11-10,清算の結了等,,,2015-10-05,1,,,,,,0
26,1010401109017,登記記録の閉鎖等,0,2023-11-17,2023-11-10,ＤＷ　Ｌｉｎｇｕａｌ　Ｓｙｓｔｅｍｓ　Ｊａｐａｎ株式会社,,株式会社,東京都,港区,北青山３丁目５番１４号青山鈴木硝子ビル７階,,13,103,1070061,,,2023-11-10,清算の結了等,,,2015-10-05,1,,,,,デ,0
32,1010403012747,登記記録の閉鎖等,0,2023-11-17,2023-11-14,合同会社十和田和島向,,合同会社,東京都,港区,虎ノ門１丁目２番８号リニューアブル・ジャパン株式会社内,,13,103,1050001,,,2023-11-14,清算の結了等,,,2015-10-05,1,,,,,トワダワシマムカイ,0
37,1010501007855,登記記録の閉鎖等,0,2023-11-17,2023-11-15,株式会社タミール,,株式会社,東京都,台東区,西浅草１丁目７番４号,,13,106,1110035,,,2023-11-15,清算の結了等,,,2015-10-05,1,,,,,タミール,0
39,1010601012813,登記記録の閉鎖等,0,2023-11-17,2023-11-13,株式会社タケダ,,株式会社,東京都,墨田区,向島１丁目２６番３号,,13,107,1310033,,,2023-11-13,清算の結了等,,,2015-10-05,1,,,,,タケダ,0
40,1010601041903,登記記録の閉鎖等,0,2023-11-17,2023-11-09,株式会社飛鳥デンタルクラフト,,株式会社,東京都,墨田区,太平２丁目１２番１１号,,13,107,1300012,,,2023-11-09,清算の結了等,,,2015-10-05,1,,,,,アスカデンタルクラフト,0
46,1010901030845,登記記録の閉鎖等,0,2023-11-17,2023-11-13,株式会社テンアローズ,,株式会社,東京都,世田谷区,野沢３丁目３０番１５－１０４号,,13,112,1540003,,,2023-11-13,清算の結了等,,,2015-10-05,1,,,,,,0
47,1010901042799,登記記録の閉鎖等,0,2023-11-17,2023-11-13,株式会社ＯＦＦＩＣＥ　ＨＵＢＮ,,株式会社,東京都,世田谷区,太子堂２丁目３番６号,,13,112,1540004,,,2023-11-13,清算の結了等,,,2018-09-21,1,,,,,オフィスハブン,0
58,1011102003368,登記記録の閉鎖等,0,2023-11-17,2023-11-15,有限会社川島屋酒店,,有限会社,東京都,新宿区,富久町３５番１１号,,13,104,1620067,,,2023-11-15,清算の結了等,,,2015-10-05,1,,,,,カワシマヤサケテン,0
76,1012802001842,登記記録の閉鎖等,0,2023-11-17,2023-11-13,有限会社ハートワン,,有限会社,東京都,立川市,柴崎町３丁目５番２１号,,13,202,1900023,,,2023-11-13,清算の結了等,,,2015-10-05,1,,,,,,0
90,1021001024869,登記記録の閉鎖等,0,2023-11-17,2023-11-14,朝日ハウジング株式会社,,株式会社,神奈川県,大和市,西鶴間１丁目９番１６号,,14,213,2420005,,,2023-11-14,清算の結了等,,,2015-10-05,1,,,,,アサヒハウジング,0
93,1021002033423,登記記録の閉鎖等,0,2023-11-17,2023-11-14,有限会社メドル,,有限会社,神奈川県,厚木市,森の里４丁目２０番５号,,14,212,2430122,,,2023-11-14,清算の結了等,,,2015-10-05,1,,,,,メドル,0
94,1021003003788,登記記録の閉鎖等,0,2023-11-17,2023-11-14,合同会社山武企画,,合同会社,神奈川県,厚木市,旭町２丁目１０番５号,,14,212,2430014,,,2023-11-14,清算の結了等,,,2015-10-05,1,,,,,ヤマタケキカク,0
132,1050003004208,登記記録の閉鎖等,0,2023-11-17,2023-11-10,Ａｍｎｉｃｏ合同会社,,合同会社,茨城県,つくば市,並木２丁目９番地デュオヒルズつくば学園都市１０７号,,08,220,3050044,,,2023-11-10,清算の結了等,,,2018-06-06,1,,,,,アムニコ,0
141,1080102009377,登記記録の閉鎖等,0,2023-11-17,2023-11-16,有限会社アルト電子,,有限会社,静岡県,沼津市,西沢田５００番地,,22,203,4100007,,,2023-11-16,清算の結了等,,,2015-10-05,1,,,,,アルトデンシ,0
148,1110001014788,登記記録の閉鎖等,0,2023-11-17,2023-11-15,山本工業株式会社,,株式会社,新潟県,三条市,四日町１４番２７号,,15,204,9550854,,,2023-11-15,清算の結了等,,,2015-10-05,1,,,,,ヤマモトコウギョウ,0
151,1120001118365,登記記録の閉鎖等,0,2023-11-17,2023-11-16,ＭＡＲＶＥＬＯＵＳ　ＭＡＧＩＣ株式会社,,株式会社,大阪府,八尾市,東山本新町１丁目６番９号,,27,212,5810866,,,2023-11-16,清算の結了等,,,2015-10-05,1,,,,,,0
162,1120103005271,登記記録の閉鎖等,0,2023-11-17,2023-11-14,合同会社ひかりといろ,,合同会社,大阪府,松原市,東新町４丁目６番１５号,,27,217,5800024,,,2023-11-14,清算の結了等,,,2023-06-14,1,,,,,ヒカリトイロ,0
169,1130001025783,登記記録の閉鎖等,0,2023-11-17,2023-11-13,株式会社京伸食販,,株式会社,京都府,京都市山科区,音羽役出町１番地３７,,26,110,6078076,,,2023-11-13,清算の結了等,,,2015-10-05,1,,,,,ケイシンショクハン,0
173,1130002011279,登記記録の閉鎖等,0,2023-11-17,2023-11-13,中村商事有限会社,,有限会社,京都府,京都市南区,四ツ塚町５４番地,00047478,26,107,6018474,,,2023-11-13,清算の結了等,,,2015-10-05,1,,,,,ナカムラショウジ,0
201,1180003024382,登記記録の閉鎖等,0,2023-11-17,2023-11-13,合同会社４５Ｆａｃｔｏｒｙ,,合同会社,愛知県,名古屋市北区,黒川本通４丁目７番地の１,,23,103,4620841,,,2023-11-13,清算の結了等,,,2022-10-18,1,,,,,ヨンゴーファクトリー,0
206,1200001007881,登記記録の閉鎖等,0,2023-11-17,2023-11-15,三晃染色株式会社,,株式会社,岐阜県,各務原市,松本町２丁目４５８番地,,21,213,5040925,,,2023-11-15,清算の結了等,,,2015-10-05,1,,,,,サンコウセンショク,0
212,1230001015989,登記記録の閉鎖等,0,2023-11-17,2023-11-15,富山グリーン観光株式会社,,株式会社,富山県,富山市,上栄３４０番地１,,16,201,9398151,,,2023-11-15,清算の結了等,,,2015-10-05,1,,,,,トヤマグリーンカンコウ,0
228,1290002022847,登記記録の閉鎖等,0,2023-11-17,2023-11-07,有限会社ガシーヨ,,有限会社,福岡県,福岡市博多区,美野島４丁目１番３－１０９号,,40,132,8120017,,,2023-11-07,清算の結了等,,,2015-10-05,1,,,,,ガシーヨ,0
239,1330003004294,登記記録の閉鎖等,0,2023-11-17,2023-11-13,合資会社上村石油,,合資会社,熊本県,球磨郡あさぎり町,免田東１２２５番地,,43,514,8680408,,,2023-11-13,清算の結了等,,,2015-10-05,1,,,,,ウエムラセキユ,0
257,1380002006592,登記記録の閉鎖等,0,2023-11-17,2023-11-15,有限会社タツミ洋装,,有限会社,福島県,伊達市,梁川町字大舘１５番地２,,07,213,9600715,,,2023-11-15,清算の結了等,,,2015-10-05,1,,,,,タツミヨウソウ,0
259,1380002018340,登記記録の閉鎖等,0,2023-11-17,2023-11-15,有限会社ピットボックストウホク,,有限会社,福島県,西白河郡泉崎村,大字泉崎字礼堂１８番地,,07,464,9690101,,,2023-11-15,清算の結了等,,,2015-10-05,1,,,,,ピットボックストウホク,0
264,1402703000045,登記記録の閉鎖等,0,2023-11-17,2023-11-06,合資会社アール・ビー・テー,,合資会社,岩手県,大船渡市,赤崎町字大洞３７番地１５,,03,203,0220007,,,2023-11-06,清算の結了等,,,2015-10-05,1,,,,,アールビーテー,0
266,1420002002348,登記記録の閉鎖等,0,2023-11-17,2023-11-13,有限会社原子建設,,有限会社,青森県,青森市,大字大野字山下１１５番地１,,02,201,0300852,,,2023-11-13,清算の結了等,,,2015-10-05,1,,,,,ハラコケンセツ,0
280,1470001011097,登記記録の閉鎖等,0,2023-11-17,2023-11-16,新旭工業株式会社,,株式会社,香川県,高松市,多賀町３丁目８番１６号,,37,201,7600063,,,2023-11-16,清算の結了等,,,2015-10-05,1,,,,,シンアサヒコウギョウ,0
282,1480002014189,登記記録の閉鎖等,0,2023-11-17,2023-11-15,福山商事有限会社,,有限会社,徳島県,海部郡牟岐町,大字中村字大谷７３番地の１,,36,383,7750006,,,2023-11-15,清算の結了等,,,2015-10-05,1,,,,,フクヤマショウジ,0
284,1490002008306,登記記録の閉鎖等,0,2023-11-17,2023-11-10,有限会社協同技術コンサルタント,,有限会社,高知県,四万十市,不破２０８２番地１４,,39,210,7870017,,,2023-11-10,清算の結了等,,,2015-10-05,1,,,,,キョウドウギジュツコンサルタント,0
285,1500001009575,登記記録の閉鎖等,0,2023-11-17,2023-11-15,愛光包装株式会社,,株式会社,愛媛県,新居浜市,一宮町２丁目６番５号,,38,205,7920025,,,2023-11-15,清算の結了等,,,2015-10-05,1,,,,,アイコウホウソウ,0
292,2010001036362,登記記録の閉鎖等,0,2023-11-17,2023-11-13,株式会社赤札屋田村商店,,株式会社,東京都,中央区,日本橋茅場町３丁目５番８号,,13,102,1030025,,,2023-11-13,清算の結了等,,,2015-10-05,1,,,,,アカフダヤタムラショウテン,0
299,2010001206262,登記記録の閉鎖等,0,2023-11-17,2023-11-10,株式会社アクア・ライブ・ギフト,,株式会社,東京都,千代田区,内幸町２丁目２番３号日比谷国際ビル１階,,13,101,1000011,,,2023-11-10,清算の結了等,,,2019-12-20,1,,,,,アクアライブギフト,0
300,2010001219396,登記記録の閉鎖等,0,2023-11-17,2023-11-10,東京レゾン株式会社,,株式会社,東京都,千代田区,神田小川町２丁目１番地,,13,101,1010052,,,2023-11-10,清算の結了等,,,2021-07-02,1,,,,,トウキョウレゾン,0
313,2010403012746,登記記録の閉鎖等,0,2023-11-17,2023-11-14,合同会社十和田伝法寺,,合同会社,東京都,港区,虎ノ門１丁目２番８号リニューアブル・ジャパン株式会社内,,13,103,1050001,,,2023-11-14,清算の結了等,,,2015-10-05,1,,,,,トワダデンポウジ,0
316,2010405003702,登記記録の閉鎖等,0,2023-11-17,2023-11-14,特定非営利活動法人開発技術学会,,その他の設立登記法人,東京都,港区,西新橋２丁目１３番１４号,,13,103,1050003,,,2023-11-14,清算の結了等,,,2015-10-05,1,,,,,カイハツギジュツガクカイ,0
354,2011402008900,登記記録の閉鎖等,0,2023-11-17,2023-11-06,有限会社メンタルサイエンス,,有限会社,埼玉県,新座市,東北２丁目１５番２０－６０２号,,11,230,3520001,,,2023-11-06,清算の結了等,,,2015-10-05,1,,,,,メンタルサイエンス,0
357,2011601024194,登記記録の閉鎖等,0,2023-11-17,2023-11-13,株式会社ジドウカ,,株式会社,東京都,世田谷区,用賀２丁目１０－１４フォレスト４４６－６０７号,,13,112,1580097,,,2023-11-13,清算の結了等,,,2020-05-18,1,,,,,ジドウカ,0
368,2012402016083,登記記録の閉鎖等,0,2023-11-17,2023-11-14,有限会社朝倉設備工業所,,有限会社,東京都,武蔵野市,吉祥寺本町４丁目３２番１８号,,13,203,1800004,,,2023-11-14,清算の結了等,,,2015-10-05,1,,,,,アサクラセツビコウギョウショ,0
373,2012802010669,登記記録の閉鎖等,0,2023-11-17,2023-11-10,有限会社笠原設計,,有限会社,東京都,立川市,柏町４丁目６７番地の１０,,13,202,1900004,,,2023-11-10,清算の結了等,,,2015-10-05,1,,,,,カサハラセッケイ,0
375,2013305003367,登記記録の閉鎖等,0,2023-11-17,2023-11-10,一般社団法人ＦｕｔｕｒｅＳＤＧｓ協会,,その他の設立登記法人,東京都,豊島区,池袋２丁目１４－４池袋ＴＡビル８Ｆ,,13,116,1710014,,,2023-11-10,清算の結了等,,,2022-08-05,1,,,,,フューチャーエスディージーズキョウカイ,0
381,2020001077703,登記記録の閉鎖等,0,2023-11-17,2023-11-14,株式会社曙Ｒ．Ａ,,株式会社,神奈川県,川崎市川崎区,浅田３丁目１４番１号,,14,131,2100847,,,2023-11-14,清算の結了等,,,2015-10-05,1,,,,,アケボノアールエー,0
391,2020002016420,登記記録の閉鎖等,0,2023-11-17,2023-11-06,有限会社川上建築設計事務所,,有限会社,神奈川県,横浜市旭区,三反田町１９３－５,,14,112,2410013,,,2023-11-06,清算の結了等,,,2015-10-05,1,,,,,カワカミケンチクセッケイジムショ,0
392,2020002073461,登記記録の閉鎖等,0,2023-11-17,2023-11-13,有限会社ヒカリフーズ,,有限会社,神奈川県,横浜市港南区,野庭町９５１番地,,14,111,2340056,,,2023-11-13,清算の結了等,,,2015-10-05,1,,,,,ヒカリフーズ,0
393,2020002084459,登記記録の閉鎖等,0,2023-11-17,2023-11-02,東京財務受託有限会社,,有限会社,神奈川県,川崎市中原区,木月１丁目６番７号,,14,133,2110025,,,2023-11-02,清算の結了等,,,2015-10-05,1,,,,,トウキョウザイムジュタク,0
404,2030001151283,登記記録の閉鎖等,0,2023-11-17,2023-11-07,ホープ株式会社,,株式会社,埼玉県,さいたま市南区,南浦和２丁目３６番１６号田中ビル４０７号,,11,108,3360017,,,2023-11-07,清算の結了等,,,2022-12-02,1,,,,,ホープ,0
408,2030003010776,登記記録の閉鎖等,0,2023-11-17,2023-11-09,合同会社日康,,合同会社,埼玉県,川口市,八幡木２丁目１０番地の５,,11,203,3340012,,,2023-11-09,清算の結了等,,,2017-09-13,1,,,,,ニッコウ,0
413,2040001021634,登記記録の閉鎖等,0,2023-11-17,2023-11-14,リバティ企画株式会社,,株式会社,福島県,いわき市,平谷川瀬字堂ノ入３１番地の２１,,07,204,9708036,,,2023-11-14,清算の結了等,,,2015-10-05,1,,,,,リバティキカク,0
426,2050002026672,登記記録の閉鎖等,0,2023-11-17,2023-11-09,有限会社ヌマタ興産,,有限会社,茨城県,鹿嶋市,大字志崎１３６２番地の１,,08,222,3112207,,,2023-11-09,清算の結了等,,,2015-10-05,1,,,,,,0
427,2060001006609,登記記録の閉鎖等,0,2023-11-17,2023-11-15,富士商事株式会社,,株式会社,栃木県,宇都宮市,立伏町９４８番地２６７,,09,201,3291116,,,2023-11-15,清算の結了等,,,2015-10-05,1,,,,,フジショウジ,0
428,2060001025212,登記記録の閉鎖等,0,2023-11-17,2023-11-14,株式会社ＳＡＷＡ警備,,株式会社,栃木県,那須塩原市,石林６９８番地３０,,09,213,3292711,,,2023-11-14,清算の結了等,,,2015-10-05,1,,,,,サワケイビ,0
430,2060002025277,登記記録の閉鎖等,0,2023-11-17,2023-11-15,有限会社きや美容商会,,有限会社,栃木県,大田原市,南金丸１３４８番地２,,09,210,3240012,,,2023-11-15,清算の結了等,,,2015-10-05,1,,,,,キヤビヨウショウカイ,0
432,2060002037462,登記記録の閉鎖等,0,2023-11-17,2023-11-13,有限会社みつじや,,有限会社,栃木県,足利市,福居町９９番地,,09,202,3260338,,,2023-11-13,清算の結了等,,,2015-10-05,1,,,,,ミツジヤ,0
433,2060002038683,登記記録の閉鎖等,0,2023-11-17,2023-11-14,有限会社飯塚製麺所,00024812,有限会社,栃木県,佐野市,植野町２１４１番地６,,09,204,3270837,,,2023-11-14,清算の結了等,,,2015-10-05,1,,,,,イイヅカセイメンジョ,0
445,2100001016512,登記記録の閉鎖等,0,2023-11-17,2023-11-08,株式会社ＴＫＮライフプランニング,,株式会社,長野県,松本市,南原１丁目２１番１２号,,20,202,3900846,,,2023-11-08,清算の結了等,,,2015-10-05,1,,,,,ティーケーエヌライフプランニング,0
449,2100002002437,登記記録の閉鎖等,0,2023-11-17,2023-11-09,有限会社ジョイワールド,,有限会社,長野県,長野市,若穂綿内８６１３番地１,,20,201,3810101,,,2023-11-09,清算の結了等,,,2015-10-05,1,,,,,ジョイワールド,0
453,2120001075218,登記記録の閉鎖等,0,2023-11-17,2023-11-15,株式会社エアーズ・ロック,,株式会社,大阪府,大阪市中央区,東心斎橋１丁目９番２３号,,27,128,5420083,,,2023-11-15,清算の結了等,,,2015-10-05,1,,,,,エアーズロック,0
504,2180302023613,登記記録の閉鎖等,0,2023-11-17,2023-11-08,有限会社ミズタ薬局,,有限会社,愛知県,豊田市,平山町１丁目１番地４,,23,211,4710827,,,2023-11-08,清算の結了等,,,2015-10-05,1,,,,,ミズタヤッキョク,0
512,2230001004925,登記記録の閉鎖等,0,2023-11-17,2023-11-14,株式会社エヌティ建設,,株式会社,富山県,富山市,善名９８番地２,,16,201,9301303,,,2023-11-14,清算の結了等,,,2015-10-05,1,,,,,エヌティケンセツ,0
513,2230001005428,登記記録の閉鎖等,0,2023-11-17,2023-11-06,株式会社ワイム,,株式会社,埼玉県,さいたま市大宮区,浅間町１丁目１９４番地３,,11,103,3300842,,,2023-11-06,清算の結了等,,,2015-10-05,1,,,,,ワイム,0
521,2260002012429,登記記録の閉鎖等,0,2023-11-17,2023-11-15,スズキ販売長岡有限会社,,有限会社,岡山県,岡山市中区,長岡６００番地の１,,33,102,7038221,,,2023-11-15,清算の結了等,,,2015-10-05,1,,,,,スズキハンバイナガオカ,0
522,2290001053603,登記記録の閉鎖等,0,2023-11-17,2023-11-06,株式会社ひかり,,株式会社,福岡県,柳川市,吉原１番地１,,40,207,8320085,,,2023-11-06,清算の結了等,,,2015-10-05,1,,,,,ヒカリ,0
548,2320001016894,登記記録の閉鎖等,0,2023-11-17,2023-11-16,臼杵技研株式会社,,株式会社,大分県,大分市,浜中９番１１号,,44,201,8700323,,,2023-11-16,清算の結了等,,,2019-02-18,1,,,,,ウスキギケン,0
560,2380001008894,登記記録の閉鎖等,0,2023-11-17,2023-11-14,ときわ工業株式会社,,株式会社,福島県,本宮市,稲沢字桑田４６番地２,,07,214,9691201,,,2023-11-14,合併による解散等,5010401108139,令和５年１１月１日東京都港区芝大門一丁目１２番１５号シンジーテック株式会社（5010401108139）に合併し解散,2015-10-05,1,,,,,,0
566,2430001006117,登記記録の閉鎖等,0,2023-11-17,2023-11-14,コスモ新薬株式会社,,株式会社,北海道,札幌市中央区,北一条西７丁目４番地,,01,101,0600001,,,2023-11-14,清算の結了等,,,2015-10-05,1,,,,,コスモシンヤク,0
575,2430002066168,登記記録の閉鎖等,0,2023-11-17,2023-11-09,有限会社齊藤コンサルティング事務所,,有限会社,北海道,札幌市中央区,南十五条西１５丁目１番１７－２０３号,,01,101,0640915,,,2023-11-09,清算の結了等,,,2015-10-05,1,,,,,サイトウコンサルテティングジムショ,0
593,3010001206261,登記記録の閉鎖等,0,2023-11-17,2023-11-10,株式会社アクア・ライブ・ネイチャー,,株式会社,東京都,千代田区,内幸町２丁目２番３号日比谷国際ビル１階,,13,101,1000011,,,2023-11-10,清算の結了等,,,2019-12-25,1,,,,,アクアライブネイチャー,0
596,3010001227687,登記記録の閉鎖等,0,2023-11-17,2023-11-14,株式会社ＹＳＫ７,,株式会社,東京都,千代田区,麹町２丁目６番地５,,13,101,1020083,,,2023-11-14,合併による解散等,4490001000426,令和５年１１月１日高知市若松町１０番１７号株式会社きさらぎ（4490001000426）に合併し解散,2022-06-30,1,,,,,,0
601,3010005034741,登記記録の閉鎖等,0,2023-11-17,2023-11-15,一般社団法人ＪＢＣ,,その他の設立登記法人,東京都,文京区,後楽１丁目３番６１号,,13,105,1120004,,,2023-11-15,清算の結了等,,,2022-03-17,1,,,,,ジェイビーシー,0
603,3010401095726,登記記録の閉鎖等,0,2023-11-17,2023-11-13,ドリームラボ株式会社,,株式会社,東京都,港区,南青山２丁目２番１５号ウィン青山１４０３,,13,103,1070062,,,2023-11-13,清算の結了等,,,2015-10-05,1,,,,,ドリームラボ,0
608,3010403010699,登記記録の閉鎖等,0,2023-11-17,2023-11-14,合同会社ＪＲＥ中九州風力,,合同会社,東京都,港区,六本木６丁目２番３１号六本木ヒルズノースタワー１５階,,13,103,1060032,,,2023-11-14,清算の結了等,,,2015-10-05,1,,,,,ジェーアールイーナカキュウシュウフウリョク,0
612,3010601028840,登記記録の閉鎖等,0,2023-11-17,2023-11-10,エビス食品株式会社,,株式会社,東京都,江東区,木場６丁目７番５号,,13,108,1350042,,,2023-11-10,清算の結了等,,,2015-10-05,1,,,,,エビスショクヒン,0
632,3011001130922,登記記録の閉鎖等,0,2023-11-17,2023-11-09,株式会社Ｃｒｏｐ,,株式会社,東京都,渋谷区,渋谷１丁目１２－８ＩＬＡ渋谷美竹ビル４０６,,13,113,1500002,,,2023-11-09,清算の結了等,,,2019-11-14,1,,,,,クロップ,0
653,3011701000623,登記記録の閉鎖等,0,2023-11-17,2023-11-13,株式会社インテリア,,株式会社,東京都,江戸川区,臨海町３丁目６番２号,,13,123,1340086,,,2023-11-13,清算の結了等,,,2015-10-05,1,,,,,インテリア,0
669,3013202007899,登記記録の閉鎖等,0,2023-11-17,2023-11-13,ケーワンクルー有限会社,,有限会社,東京都,世田谷区,奥沢２丁目１３番１２号,,13,112,1580083,,,2023-11-13,清算の結了等,,,2015-10-05,1,,,,,,0
686,3020005015856,登記記録の閉鎖等,0,2023-11-17,2023-11-13,ＮＩＰ弁理士法人,,その他の設立登記法人,神奈川県,横浜市中区,山下町１９３番地１,,14,104,2310023,,,2023-11-13,清算の結了等,,,2023-02-28,1,,,,,エヌアイピー,0
691,3030001075960,登記記録の閉鎖等,0,2023-11-17,2023-11-07,株式会社多部商会,,株式会社,埼玉県,川口市,前上町３２番２３号,,11,203,3330843,,,2023-11-07,清算の結了等,,,2015-10-05,1,,,,,タベショウカイ,0
692,3030001090729,登記記録の閉鎖等,0,2023-11-17,2023-11-08,株式会社コーワ電器,,株式会社,埼玉県,秩父市,上野町２４番１０号,,11,207,3680031,,,2023-11-08,清算の結了等,,,2015-10-05,1,,,,,コーワデンキ,0
705,3040001107449,登記記録の閉鎖等,0,2023-11-17,2023-11-06,穀栄株式会社,,株式会社,千葉県,市川市,本行徳２５５４番地６３,,12,203,2720103,,,2023-11-06,合併による解散等,3040001031467,令和５年１１月１日千葉県市川市本行徳２５５４番地６３株式会社農業技術マーケティング（3040001031467）に合併し解散,2018-12-27,1,,,,,コクエイ,0
710,3040002001766,登記記録の閉鎖等,0,2023-11-17,2023-11-10,有限会社エスケン,,有限会社,千葉県,千葉市若葉区,桜木北１丁目２６番７号,,12,104,2640029,,,2023-11-10,清算の結了等,,,2015-10-05,1,,,,,エスケン,0
711,3040002100353,登記記録の閉鎖等,0,2023-11-17,2023-11-10,有限会社石井舶用電気,,有限会社,千葉県,南房総市,千倉町平磯２１０番地,,12,234,2950024,,,2023-11-10,清算の結了等,,,2015-10-05,1,,,,,イシイハクヨウデンキ,0
738,3080102004137,登記記録の閉鎖等,0,2023-11-17,2023-11-15,有限会社エム美容室,,有限会社,静岡県,裾野市,平松４９７番地,,22,220,4101127,,,2023-11-15,清算の結了等,,,2015-10-05,1,,,,,エムビヨウシツ,0
746,3110002020890,登記記録の閉鎖等,0,2023-11-17,2023-11-15,有限会社美宝堂,,有限会社,新潟県,柏崎市,東本町１丁目１６番３１号,,15,205,9450051,,,2023-11-15,清算の結了等,,,2015-10-05,1,,,,,ビホウドウ,0
748,3120001058980,登記記録の閉鎖等,0,2023-11-17,2023-11-15,株式会社ユーテツク,,株式会社,兵庫県,西宮市,池田町１２番３３－５０１号,,28,204,6620911,,,2023-11-15,清算の結了等,,,2015-10-05,1,,,,,ユーテツク,0
776,3130002021739,登記記録の閉鎖等,0,2023-11-17,2023-11-01,有限会社フロウ,,有限会社,京都府,京都市右京区,西京極郡町９９番地エスポアール２１－１０３号室,,26,108,6150884,,,2023-11-01,清算の結了等,,,2015-10-05,1,,,,,フロウ,0
799,3180302017696,登記記録の閉鎖等,0,2023-11-17,2023-11-09,英功技研有限会社,,有限会社,愛知県,安城市,福釜町百々目１２番地６,,23,212,4460052,,,2023-11-09,清算の結了等,,,2015-10-05,1,,,,,エイコウギケン,0
801,3200001040154,登記記録の閉鎖等,0,2023-11-17,2023-11-16,シェアグレイン株式会社,,株式会社,岐阜県,岐阜市,香取町３丁目３８番地,,21,201,5008322,,,2023-11-16,清算の結了等,,,2022-06-10,1,,,,,シェアグレイン,0
834,3370001025213,登記記録の閉鎖等,0,2023-11-17,2023-11-14,株式会社弾性波デバイスラボ,,株式会社,宮城県,仙台市太白区,松が丘３７番１３号,,04,104,9820821,,,2023-11-14,清算の結了等,,,2015-10-05,1,,,,,ダンセイハデバイスラボ,0
843,3420002008913,登記記録の閉鎖等,0,2023-11-17,2023-11-13,有限会社松原建築,,有限会社,青森県,八戸市,大字新井田字中町３６番地３,,02,203,0310813,,,2023-11-13,清算の結了等,,,2015-10-05,1,,,,,マツバラケンチク,0
873,4010001005729,登記記録の閉鎖等,0,2023-11-17,2023-11-13,株式会社中村製作所,,株式会社,東京都,文京区,向丘２丁目３１番７号,,13,105,1130023,,,2023-11-13,清算の結了等,,,2015-10-05,1,,,,,ナカムラセイサクショ,0
902,4010401110533,登記記録の閉鎖等,0,2023-11-17,2023-11-13,ライトハウスコンサルタンツ株式会社,,株式会社,東京都,港区,虎ノ門５丁目４番１０号,,13,103,1050001,,,2023-11-13,清算の結了等,,,2015-10-05,1,,,,,ライトハウスコンサルタンツ,0
911,4010801027484,登記記録の閉鎖等,0,2023-11-17,2023-11-15,株式会社中山架設,,株式会社,神奈川県,茅ヶ崎市,赤松町１３番２３－３０４号,,14,207,2530013,,,2023-11-15,清算の結了等,,,2017-02-10,1,,,,,ナカヤマカセツ,0
945,4011605000529,登記記録の閉鎖等,0,2023-11-17,2023-11-14,医療法人社団光洋会,,その他の設立登記法人,東京都,練馬区,田柄５丁目２７番６号プリー光が丘２階,,13,120,1790073,,,2023-11-14,清算の結了等,,,2015-10-05,1,,,,,コウヨウカイ,0
948,4011701023730,登記記録の閉鎖等,0,2023-11-17,2023-11-13,株式会社ＫＩＨＡＣＨＩ,,株式会社,東京都,江戸川区,東瑞江１丁目３４番７号１階,,13,123,1320014,,,2023-11-13,清算の結了等,,,2020-09-02,1,,,,,キハチ,0
961,4012801001345,登記記録の閉鎖等,0,2023-11-17,2023-11-13,ハトヤ商事株式会社,,株式会社,東京都,立川市,柴崎町３丁目１３番５号,,13,202,1900023,,,2023-11-13,清算の結了等,,,2015-10-05,1,,,,,,0
965,4020001011841,登記記録の閉鎖等,0,2023-11-17,2023-11-14,株式会社奈良情報企画,,株式会社,神奈川県,横浜市青葉区,桜台３３番地１２－１０５,,14,117,2270061,,,2023-11-14,清算の結了等,,,2015-10-05,1,,,,,ナラジョウホウキカク,0
970,4020001112202,登記記録の閉鎖等,0,2023-11-17,2023-11-14,株式会社げんき,,株式会社,神奈川県,横浜市戸塚区,平戸２丁目３４番５０号,,14,110,2440802,,,2023-11-14,清算の結了等,,,2015-10-05,1,,,,,ゲンキ,0
975,4020002084754,登記記録の閉鎖等,0,2023-11-17,2023-11-14,有限会社上田企画,,有限会社,神奈川県,藤沢市,辻堂６丁目８番３２号,,14,205,2510047,,,2023-11-14,清算の結了等,,,2015-10-05,1,,,,,ウエダキカク,0
1006,4040002085726,登記記録の閉鎖等,0,2023-11-17,2023-11-07,有限会社田杭石油,,有限会社,千葉県,銚子市,唐子町３０番地の１３,,12,202,2880801,,,2023-11-07,清算の結了等,,,2015-10-05,1,,,,,タグイセキユ,0
1021,4070001017462,登記記録の閉鎖等,0,2023-11-17,2023-11-10,株式会社赤城精工,,株式会社,群馬県,北群馬郡吉岡町,大字漆原１５０９番地の２,,10,345,3703601,,,2023-11-10,清算の結了等,,,2015-10-05,1,,,,,アカギセイコウ,0
1060,4122001005838,登記記録の閉鎖等,0,2023-11-17,2023-11-13,ブリーズベイ鶴崎株式会社,,株式会社,神奈川県,横浜市中区,花咲町１丁目２２番地２,,14,104,2310063,,,2023-11-13,合併による解散等,2100001019746,令和５年１１月１日長野県岡谷市中央町一丁目４番１２号株式会社ホテル岡谷（2100001019746）に合併し解散,2015-10-05,1,,,,,ブリーズベイツルサキ,0
1070,4130002001079,登記記録の閉鎖等,0,2023-11-17,2023-11-10,有限会社常石印刷所,,有限会社,京都府,京都市右京区,西京極大門町２０番地の１０,,26,108,6150812,,,2023-11-10,清算の結了等,,,2015-10-05,1,,,,,ツネイシインサツジョ,0
1082,4160002012783,登記記録の閉鎖等,0,2023-11-17,2023-11-15,有限会社ティワィケィリコウ,,有限会社,滋賀県,栗東市,北中小路４００番地,,25,208,5203037,,,2023-11-15,清算の結了等,,,2015-10-05,1,,,,,ティワィケィリコウ,0
1085,4180001072884,登記記録の閉鎖等,0,2023-11-17,2023-11-14,山篤コーポレーション株式会社,,株式会社,愛知県,名古屋市天白区,植田３丁目１０３番地,,23,116,4680051,,,2023-11-14,清算の結了等,,,2015-10-05,1,,,,,ヤマアツコーポレーション,0
1099,4200001018406,登記記録の閉鎖等,0,2023-11-17,2023-11-16,ジェイシーユナイテッド株式会社,,株式会社,岐阜県,可児市,塩９５３番地の５,,21,214,5090251,,,2023-11-16,清算の結了等,,,2015-10-05,1,,,,,ジェイシーユナイテッド,0
1109,4230001009006,登記記録の閉鎖等,0,2023-11-17,2023-11-15,オヤベゴルフセンター株式会社,,株式会社,富山県,小矢部市,西中５９８２番地,,16,209,9320805,,,2023-11-15,清算の結了等,,,2015-10-05,1,,,,,オヤベゴルフセンター,0
1113,4250005008084,登記記録の閉鎖等,0,2023-11-17,2023-11-10,医療法人しながわクリニック,,その他の設立登記法人,山口県,宇部市,東琴芝１丁目５－１４,,35,202,7550034,,,2023-11-10,清算の結了等,,,2015-10-05,1,,,,,シナガワクリニック,0
1114,4260001008302,登記記録の閉鎖等,0,2023-11-17,2023-11-14,株式会社ＫＲＧ,,株式会社,岡山県,岡山市北区,幸町６番９号,,33,101,7000903,,,2023-11-14,清算の結了等,,,2015-10-05,1,,,,,ケイアールジー,0
1115,4260001022451,登記記録の閉鎖等,0,2023-11-17,2023-11-15,株式会社フナツキ石材工業,,株式会社,岡山県,玉野市,西田井地２０８２番地の１,,33,204,7060313,,,2023-11-15,清算の結了等,,,2015-10-05,1,,,,,,0
1120,4280002009207,登記記録の閉鎖等,0,2023-11-17,2023-11-16,株式会社セラー,,株式会社,島根県,江津市,嘉久志町イ６６７番地３,,32,207,6950016,,,2023-11-16,清算の結了等,,,2015-10-05,1,,,,,セラー,0
1122,4290001061728,登記記録の閉鎖等,0,2023-11-17,2023-11-08,株式会社志賀島開発,,株式会社,福岡県,福岡市東区,西戸崎６丁目１７－１,,40,131,8110321,,,2023-11-08,清算の結了等,,,2015-10-05,1,,,,,シカノシマカイハツ,0
1129,4290002025186,登記記録の閉鎖等,0,2023-11-17,2023-11-02,有限会社ティー・エム・シー,,有限会社,福岡県,福岡市西区,野方１丁目２番２７－２号,,40,135,8190043,,,2023-11-02,清算の結了等,,,2015-10-05,1,,,,,ティーエムシー,0
1144,4370002009288,登記記録の閉鎖等,0,2023-11-17,2023-11-14,有限会社アート・シャポー,,有限会社,宮城県,仙台市青葉区,中央１丁目６番２５号,,04,101,9800021,,,2023-11-14,清算の結了等,,,2015-10-05,1,,,,,アートシャポー,0
1155,4410003001082,登記記録の閉鎖等,0,2023-11-17,2023-11-10,中嶋土地合資会社,,合資会社,秋田県,湯沢市,山田字下六日町７４番地,,05,207,0120055,,,2023-11-10,清算の結了等,,,2015-10-05,1,,,,,ナカジマトチ,0
1161,4430001047720,登記記録の閉鎖等,0,2023-11-17,2023-11-13,株式会社藤田,,株式会社,北海道,岩見沢市,美園五条７丁目７番１号,,01,210,0680815,,,2023-11-13,清算の結了等,,,2015-10-05,1,,,,,フジタ,0
1168,4430002005958,登記記録の閉鎖等,0,2023-11-17,2023-11-14,有限会社木村商店,,有限会社,北海道,札幌市東区,東苗穂九条３丁目９番１号,,01,103,0070809,,,2023-11-14,清算の結了等,,,2015-10-05,1,,,,,キムラショウテン,0
1169,4430002020841,登記記録の閉鎖等,0,2023-11-17,2023-11-14,有限会社山谷建具工業,,有限会社,北海道,札幌市手稲区,稲穂一条６丁目４番１２号,,01,109,0060031,,,2023-11-14,清算の結了等,,,2015-10-05,1,,,,,ヤマヤタテグコウギョウ,0
1175,4470002014666,登記記録の閉鎖等,0,2023-11-17,2023-11-14,有限会社いなだ不動産,,有限会社,香川県,坂出市,笠指町３番１号,,37,203,7620038,,,2023-11-14,清算の結了等,,,2015-10-05,1,,,,,イナダフドウサン,0
1177,4490001009748,登記記録の閉鎖等,0,2023-11-17,2023-11-15,ヤマカ片山海産株式会社,,株式会社,高知県,高知市,仁井田４５７９番地３,,39,201,7810112,,,2023-11-15,清算の結了等,,,2020-12-23,1,,,,,ヤマカカタヤマカイサン,0
1211,5010403030869,登記記録の閉鎖等,0,2023-11-17,2023-11-14,合同会社あさひ,,合同会社,東京都,港区,芝４丁目１６番１号カテリーナ三田タワースイートウエスト１７１２,,13,103,1080014,,,2023-11-14,清算の結了等,,,2023-09-06,1,,,,,アサヒ,0
1221,5010702013244,登記記録の閉鎖等,0,2023-11-17,2023-11-13,有限会社サンヒーター,,有限会社,東京都,品川区,戸越１丁目３番２１号,,13,109,1420041,,,2023-11-13,清算の結了等,,,2015-10-05,1,,,,,,0
1247,5011201013834,登記記録の閉鎖等,0,2023-11-17,2023-11-14,株式会社創建工業,,株式会社,東京都,中野区,鷺宮５丁目６番１３号,,13,114,1650032,,,2023-11-14,清算の結了等,,,2015-10-05,1,,,,,ソウケンコウギョウ,0
1253,5011701011503,登記記録の閉鎖等,0,2023-11-17,2023-11-13,株式会社和興電気,,株式会社,東京都,江戸川区,西一之江４丁目１４番１２号,,13,123,1320023,,,2023-11-13,清算の結了等,,,2015-10-05,1,,,,,ワコウデンキ,0
1256,5011801005941,登記記録の閉鎖等,0,2023-11-17,2023-11-14,株式会社石塚計画設計事務所,,株式会社,東京都,足立区,竹の塚３丁目１１番１７－３０１号,,13,121,1210813,,,2023-11-14,清算の結了等,,,2015-10-05,1,,,,,イシヅカケイカクセッケイジムショ,0
1261,5012403000075,登記記録の閉鎖等,0,2023-11-17,2023-11-10,合資会社諸橋洋服店,,合資会社,東京都,国立市,東１丁目１６番地１３,,13,215,1860002,,,2023-11-10,清算の結了等,,,2015-10-05,1,,,,,モロハシヨウフクテン,0
1264,5012702013439,登記記録の閉鎖等,0,2023-11-17,2023-11-14,有限会社岩野電気,,有限会社,東京都,西東京市,富士町４丁目１２番２２号,,13,229,2020014,,,2023-11-14,清算の結了等,,,2015-10-05,1,,,,,,0
1287,5030001138352,登記記録の閉鎖等,0,2023-11-17,2023-11-08,セントリエース工業株式会社,,株式会社,埼玉県,蕨市,北町５丁目１１番１号,,11,223,3350001,,,2023-11-08,清算の結了等,,,2020-09-16,1,,,,,セントリエースコウギョウ,0
1296,5030003017653,登記記録の閉鎖等,0,2023-11-17,2023-11-10,合同会社ワークス,,合同会社,新潟県,妙高市,関川町１丁目７番１３号,,15,217,9440014,,,2023-11-10,清算の結了等,,,2021-07-20,1,,,,,ワークス,0
1307,5040003007067,登記記録の閉鎖等,0,2023-11-17,2023-11-10,合同会社シティハウスチシマ,,合同会社,千葉県,市川市,市川３丁目２８番３号,,12,203,2720034,,,2023-11-10,清算の結了等,,,2015-10-05,1,,,,,シティハウスチシマ,0
1313,5050002001177,登記記録の閉鎖等,0,2023-11-17,2023-11-09,有限会社恵佑会,,有限会社,茨城県,水戸市,五軒町１丁目３番１２号,,08,201,3100063,,,2023-11-09,清算の結了等,,,2015-10-05,1,,,,,ケイユウカイ,0
1326,5080101011974,登記記録の閉鎖等,0,2023-11-17,2023-11-16,株式会社フォーユー,,株式会社,静岡県,富士宮市,若の宮町４１２番地,,22,207,4180063,,,2023-11-16,清算の結了等,,,2015-10-05,1,,,,,フォーユー,0
1327,5080102003797,登記記録の閉鎖等,0,2023-11-17,2023-11-16,有限会社吉乃商事,,有限会社,静岡県,沼津市,大手町５丁目９番１８号,,22,203,4100801,,,2023-11-16,清算の結了等,,,2015-10-05,1,,,,,ヨシノショウジ,0
1339,5120001051397,登記記録の閉鎖等,0,2023-11-17,2023-11-15,株式会社オーク,,株式会社,大阪府,大阪市東淀川区,大桐２丁目１２番１３号,,27,114,5330011,,,2023-11-15,清算の結了等,,,2015-10-05,1,,,,,オーク,0
1372,5140001014385,登記記録の閉鎖等,0,2023-11-17,2023-11-15,株式会社モリオカ,,株式会社,兵庫県,神戸市兵庫区,荒田町３丁目１番１９号,,28,105,6520032,,,2023-11-15,清算の結了等,,,2015-10-05,1,,,,,モリオカ,0
1389,5180301004215,登記記録の閉鎖等,0,2023-11-17,2023-11-09,株式会社国義工業,,株式会社,愛知県,岡崎市,竜泉寺町字笹口４番地２５,,23,202,4443524,,,2023-11-09,清算の結了等,,,2015-10-05,1,,,,,クニヨシコウギョウ,0
1390,5180302017199,登記記録の閉鎖等,0,2023-11-17,2023-11-08,有限会社ぼてこ,,有限会社,愛知県,安城市,御幸本町１８番１１号,,23,212,4460032,,,2023-11-08,清算の結了等,,,2015-10-05,1,,,,,ボテコ,0
1396,5190002006559,登記記録の閉鎖等,0,2023-11-17,2023-11-14,有限会社スズカブロックコーポレーション,,有限会社,三重県,鈴鹿市,汲川原町５０１番地,00075876,24,207,5130005,,,2023-11-14,清算の結了等,,,2015-10-05,1,,,,,スズカブロックコーポレーション,0
1400,5200002008108,登記記録の閉鎖等,0,2023-11-17,2023-11-15,有限会社ビルホーム,,有限会社,岐阜県,各務原市,つつじが丘６丁目８９番地,,21,213,5090131,,,2023-11-15,清算の結了等,,,2015-10-05,1,,,,,ビルホーム,0
1404,5250001002049,登記記録の閉鎖等,0,2023-11-17,2023-11-15,株式会社瀬戸観光,,株式会社,山口県,防府市,今市町５番２９号,,35,206,7470042,,,2023-11-15,清算の結了等,,,2015-10-05,1,,,,,,0
1407,5260001032978,登記記録の閉鎖等,0,2023-11-17,2023-11-15,株式会社大和創建,,株式会社,岡山県,岡山市北区,中撫川６６６番地７,,33,101,7010163,,,2023-11-15,清算の結了等,,,2019-03-29,1,,,,,ヤマトソウケン,0
1415,5290002040829,登記記録の閉鎖等,0,2023-11-17,2023-11-07,有限会社昭和ガレーヂ,,有限会社,福岡県,春日市,宝町４丁目３４番地,,40,218,8160807,,,2023-11-07,清算の結了等,,,2015-10-05,1,,,,,ショウワガレーヂ,0
1424,5290802025954,登記記録の閉鎖等,0,2023-11-17,2023-11-15,有限会社サンエム産業,,有限会社,福岡県,北九州市門司区,大里本町３丁目７番７号,,40,101,8000063,,,2023-11-15,清算の結了等,,,2015-10-05,1,,,,,サンエムサンギョウ,0
1430,5310002020621,登記記録の閉鎖等,0,2023-11-17,2023-11-14,有限会社山田呉服店,,有限会社,長崎県,五島市,中央町８番地１０,,42,211,8530002,,,2023-11-14,清算の結了等,,,2015-10-05,1,,,,,ヤマダゴフクテン,0
1447,5420002008416,登記記録の閉鎖等,0,2023-11-17,2023-11-13,有限会社ハチヤ電設,,有限会社,青森県,八戸市,大字大久保字行人塚２番地７１９,,02,203,0310833,,,2023-11-13,清算の結了等,,,2015-10-05,1,,,,,ハチヤデンセツ,0
1449,5430001088722,登記記録の閉鎖等,0,2023-11-17,2023-11-09,ミネラルプラネット株式会社,,株式会社,北海道,札幌市中央区,南一条西１６丁目１番地３２３春野ビル３Ｆ,,01,101,0600061,,,2023-11-09,清算の結了等,,,2023-03-29,1,,,,,ミネラルプラネット,0
1457,5430002063113,登記記録の閉鎖等,0,2023-11-17,2023-11-10,有限会社ひだか丸水,,有限会社,北海道,日高郡新ひだか町,静内古川町１丁目４番３６号,,01,610,0560014,,,2023-11-10,清算の結了等,,,2015-10-05,1,,,,,ヒダカマルスイ,0
1464,5470001008354,登記記録の閉鎖等,0,2023-11-17,2023-11-14,株式会社ニューホンダ丸亀,,株式会社,香川県,丸亀市,田村町１７７７番地１,,37,202,7630071,,,2023-11-14,清算の結了等,,,2015-10-05,1,,,,,ニューホンダマルガメ,0
1485,6010001199437,登記記録の閉鎖等,0,2023-11-17,2023-11-10,株式会社アクア・ライブ・インベストメント,,株式会社,東京都,千代田区,内幸町２丁目２番３号日比谷国際ビル１階,,13,101,1000011,,,2023-11-10,清算の結了等,,,2019-03-20,1,,,,,アクアライブインベストメント,0
1512,6010403021660,登記記録の閉鎖等,0,2023-11-17,2023-11-13,合同会社日本住宅保守管理協会,,合同会社,東京都,港区,浜松町２丁目２番１５号浜松町ダイヤビル２Ｆ,,13,103,1050013,,,2023-11-13,清算の結了等,,,2019-10-23,1,,,,,ニホンジュウタクホシュカンリキョウカイ,0
1513,6010405021304,登記記録の閉鎖等,0,2023-11-17,2023-11-15,Ｓａｔｕｒｎ特定目的会社,,その他の設立登記法人,東京都,港区,虎ノ門５丁目１番４号,,13,103,1050001,,,2023-11-15,清算の結了等,,,2022-09-02,1,,,,,サターン,0
1516,6010501042162,登記記録の閉鎖等,0,2023-11-17,2023-11-15,株式会社マリオン,,株式会社,東京都,台東区,上野６丁目１番６号御徒町グリーンハイツ１００５号,,13,106,1100005,,,2023-11-15,清算の結了等,,,2018-02-09,1,,,,,マリオン,0
1520,6010601062440,登記記録の閉鎖等,0,2023-11-17,2023-11-10,株式会社スタディ,,株式会社,東京都,墨田区,石原４丁目２５番１５号,,13,107,1300011,,,2023-11-10,合併による解散等,1010001133755,令和５年１１月１日東京都墨田区石原四丁目２５番１５号株式会社Ａ＆Ｔ（1010001133755）に合併し解散,2023-01-19,1,,,,,スタディ,0
1541,6011103010565,登記記録の閉鎖等,0,2023-11-17,2023-11-15,合同会社ベルミコ,,合同会社,東京都,新宿区,西新宿７丁目１番７号新宿ダイカンプラザＡ１０１８,,13,104,1600023,,,2023-11-15,清算の結了等,,,2021-04-12,1,,,,,ベルミコ,0
1551,6011802005758,登記記録の閉鎖等,0,2023-11-17,2023-11-14,有限会社仲田製作所,,有限会社,東京都,葛飾区,四つ木１丁目３３番５号,,13,122,1240011,,,2023-11-14,清算の結了等,,,2015-10-05,1,,,,,ナカタセイサクショ,0
1563,6013405000665,登記記録の閉鎖等,0,2023-11-17,2023-11-10,特定非営利活動法人多摩市聴覚障がい者情報活動センター,,その他の設立登記法人,東京都,多摩市,聖ヶ丘１丁目１９番地の５－２０１,,13,224,2060022,,,2023-11-10,清算の結了等,,,2015-10-05,1,,,,,タマシチョウカクショウガイシャジョウホウカツドウセンター,0
1573,6020002097696,登記記録の閉鎖等,0,2023-11-17,2023-11-14,有限会社相馬堂,,有限会社,神奈川県,川崎市川崎区,渡田向町１２番９号,,14,131,2100841,,,2023-11-14,清算の結了等,,,2015-10-05,1,,,,,ソウマドウ,0
1574,6020002104980,登記記録の閉鎖等,0,2023-11-17,2023-11-13,有限会社Ｂ・Ｕ・Ｎ,,有限会社,神奈川県,川崎市中原区,井田中ノ町１２番４号,,14,133,2110034,,,2023-11-13,清算の結了等,,,2015-10-05,1,,,,,ビーユーエヌ,0
1577,6021001050695,登記記録の閉鎖等,0,2023-11-17,2023-11-14,株式会社ＨＳＰ研究所,,株式会社,神奈川県,足柄上郡松田町,松田惣領１８１５番地３,,14,363,2580003,,,2023-11-14,清算の結了等,,,2015-10-05,1,,,,,エイチエスピーケンキュウショ,0
1578,6021001067129,登記記録の閉鎖等,0,2023-11-17,2023-11-14,株式会社ＴＯＭＩ,,株式会社,神奈川県,足柄上郡中井町,境１１３番地３号,,14,361,2590157,,,2023-11-14,合併による解散等,2020001108887,令和５年１１月１日神奈川県足柄上郡中井町境１１３番地３号株式会社ココドット（2020001108887）に合併し解散,2019-04-23,1,,,,,トミー,0
1583,6021002061444,登記記録の閉鎖等,0,2023-11-17,2023-11-14,有限会社読売二宮,,有限会社,神奈川県,中郡二宮町,山西１０３７番地の２６,,14,342,2590124,,,2023-11-14,清算の結了等,,,2015-10-05,1,,,,,ヨミウリニノミヤ,0
1590,6030002059729,登記記録の閉鎖等,0,2023-11-17,2023-11-09,有限会社工藤商店,,有限会社,埼玉県,志木市,上宗岡４丁目８番１７号,,11,228,3530001,,,2023-11-09,清算の結了等,,,2015-10-05,1,,,,,,0
1597,6040001053665,登記記録の閉鎖等,0,2023-11-17,2023-11-09,會本工業株式会社,,株式会社,千葉県,市原市,豊成３７５番地,,12,219,2990122,,,2023-11-09,清算の結了等,,,2015-10-05,1,,,,,エモトコウギョウ,0
1604,6050001000542,登記記録の閉鎖等,0,2023-11-17,2023-11-09,株式会社太平商事,,株式会社,茨城県,水戸市,大塚町１９５８番地の２３,,08,201,3114143,,,2023-11-09,清算の結了等,,,2015-10-05,1,,,,,タイヘイショウジ,0
1606,6050001038070,登記記録の閉鎖等,0,2023-11-17,2023-11-01,株式会社セイムテック,,株式会社,茨城県,守谷市,高野６６７番地１,,08,224,3020125,,,2023-11-01,合併による解散等,6050002039266,令和５年１１月１日茨城県守谷市本町２５７番１株式会社セイム（6050002039266）に合併し解散,2015-10-05,1,,,,,セイムテック,0
1614,6070003004143,登記記録の閉鎖等,0,2023-11-17,2023-11-02,ゆぅ＆みぃ合同会社,,合同会社,群馬県,太田市,藪塚町１９６６番地４６,,10,205,3792301,,,2023-11-02,清算の結了等,,,2021-06-17,1,,,,,ユウアンドミイ,0
1617,6100002028619,登記記録の閉鎖等,0,2023-11-17,2023-11-08,有限会社トータルサポート,,有限会社,長野県,諏訪市,南町１２番地２,,20,206,3920014,,,2023-11-08,清算の結了等,,,2015-10-05,1,,,,,トータルサポート,0
1627,6120002040299,登記記録の閉鎖等,0,2023-11-17,2023-11-15,有限会社山下動物病院,,有限会社,大阪府,大阪市西区,千代崎１丁目２３番２号,,27,106,5500023,,,2023-11-15,清算の結了等,,,2015-10-05,1,,,,,ヤマシタドウブツビョウイン,0
1628,6120002063077,登記記録の閉鎖等,0,2023-11-17,2023-11-14,有限会社ヘルパーステーションひまわり,,有限会社,大阪府,大阪市生野区,巽西２丁目１番３６号,00031226,27,116,5440012,,,2023-11-14,清算の結了等,,,2015-10-05,1,,,,,ヘルパーステーションヒマワリ,0
1647,6130005005868,登記記録の閉鎖等,0,2023-11-17,2023-11-08,特定非営利活動法人ＮＰＯ水と緑・住環境２１,,その他の設立登記法人,京都府,京都市右京区,宇多野福王子町８０番地ユウハイツ２０３号,,26,108,6168208,,,2023-11-08,清算の結了等,,,2015-10-05,1,,,,,エヌピーオーミズトミドリジュウカンキョウ,0
1651,6140001093643,登記記録の閉鎖等,0,2023-11-17,2023-11-13,株式会社Ｈｏｍｅ　Ａｇｅｎｃｙ,,株式会社,兵庫県,神戸市須磨区,平田町３丁目３－１１,,28,107,6540021,,,2023-11-13,清算の結了等,,,2015-10-05,1,,,,,ホームエージェンシー,0
1657,6140002016652,登記記録の閉鎖等,0,2023-11-17,2023-11-14,有限会社神戸害虫駆除所,,有限会社,兵庫県,神戸市須磨区,横尾２丁目２１番地の２,,28,107,6540131,,,2023-11-14,清算の結了等,,,2015-10-05,1,,,,,コウベガイチュウクジョショ,0
1675,6180001083946,登記記録の閉鎖等,0,2023-11-17,2023-11-14,山重工業株式会社,,株式会社,愛知県,一宮市,千秋町小山９７９番地の１,,23,203,4910814,,,2023-11-14,清算の結了等,,,2015-10-05,1,,,,,ヤマシゲコウギョウ,0
1684,6180305004350,登記記録の閉鎖等,0,2023-11-17,2023-11-09,一般社団法人東三河セーフティネット,,その他の設立登記法人,愛知県,豊橋市,新本町１３３－２（１Ｆ）,,23,201,4400892,,,2023-11-09,清算の結了等,,,2015-10-05,1,,,,,ヒガシミカワセーフティネット,0
1685,6190001024684,登記記録の閉鎖等,0,2023-11-17,2023-11-15,関タクシー株式会社,,株式会社,三重県,亀山市,関町会下１２０３番地１,,24,210,5191106,,,2023-11-15,清算の結了等,,,2017-05-30,1,,,,,セキタクシー,0
1687,6190002012333,登記記録の閉鎖等,0,2023-11-17,2023-11-15,有限会社プロダクツ・ケイ,,有限会社,三重県,伊賀市,上野紺屋町３１６４番地,,24,216,5180858,,,2023-11-15,清算の結了等,,,2015-10-05,1,,,,,,0
1707,6290003010359,登記記録の閉鎖等,0,2023-11-17,2023-11-07,Ｍａｒｂｌｅ　１合同会社,,合同会社,福岡県,福岡市早良区,百道浜２丁目４番２７号ＡＩビル６Ｆ,,40,137,8140001,,,2023-11-07,清算の結了等,,,2020-08-31,1,,,,,マーブルワン,0
1708,6290003012173,登記記録の閉鎖等,0,2023-11-17,2023-11-07,対馬洋上風力発電合同会社,,合同会社,福岡県,福岡市博多区,綱場町７番１号リアンプレミアム呉服町ステーション９階,,40,132,8120024,,,2023-11-07,清算の結了等,,,2022-02-24,1,,,,,ツシマヨウジョウフウリョクハツデン,0
1731,6380001012496,登記記録の閉鎖等,0,2023-11-17,2023-11-14,株式会社美らい工建,,株式会社,福島県,いわき市,錦町中央３丁目２番地の９,,07,204,9748233,,,2023-11-14,清算の結了等,,,2015-10-05,1,,,,,ミライコウケン,0
1733,6380001026298,登記記録の閉鎖等,0,2023-11-17,2023-11-15,株式会社メディカルサプライ,,株式会社,福島県,福島市,御山字松川原１番地の２２,,07,201,9608252,,,2023-11-15,清算の結了等,,,2015-12-28,1,,,,,メディカルサプライ,0
1740,6420001002204,登記記録の閉鎖等,0,2023-11-17,2023-11-13,理光商事株式会社,,株式会社,青森県,青森市,安方２丁目１０番１－５０７号,,02,201,0300803,,,2023-11-13,清算の結了等,,,2015-10-05,1,,,,,リコウショウジ,0
1741,6420001010272,登記記録の閉鎖等,0,2023-11-17,2023-11-10,株式会社鶴ケ谷米店,,株式会社,青森県,弘前市,大字賀田１丁目１９番地４,,02,202,0361313,,,2023-11-10,清算の結了等,,,2015-10-05,1,,,,,ツルガヤコメテン,0
1746,6430002055274,登記記録の閉鎖等,0,2023-11-17,2023-11-08,有限会社丸建築,,有限会社,北海道,小樽市,緑２丁目１７番１９号,,01,203,0470034,,,2023-11-08,清算の結了等,,,2015-10-05,1,,,,,マルケンチク,0
1747,6430002058970,登記記録の閉鎖等,0,2023-11-17,2023-11-13,有限会社鈴木正志工務店,,有限会社,北海道,白老郡白老町,本町１丁目５番１号,,01,578,0590906,,,2023-11-13,清算の結了等,,,2015-10-05,1,,,,,スズキマサシコウムテン,0
1754,6470001010053,登記記録の閉鎖等,0,2023-11-17,2023-11-15,藤田株式会社,,株式会社,香川県,観音寺市,観音寺町甲３０９１番地２,,37,205,7680060,,,2023-11-15,清算の結了等,,,2015-10-05,1,,,,,フジタ,0
1782,7010003037362,登記記録の閉鎖等,0,2023-11-17,2023-11-10,合同会社板橋本町,,合同会社,東京都,千代田区,麹町５丁目１番地ＮＫ真和ビル９階,,13,101,1020083,,,2023-11-10,清算の結了等,,,2022-03-31,1,,,,,イタバシホンチョウ,0
1799,7010601025215,登記記録の閉鎖等,0,2023-11-17,2023-11-13,株式会社泰陽不動産,,株式会社,神奈川県,川崎市麻生区,高石１丁目１番５号,,14,137,2150003,,,2023-11-13,清算の結了等,,,2015-10-05,1,,,,,タイヨウフドウサン,0
1800,7010602033662,登記記録の閉鎖等,0,2023-11-17,2023-11-15,有限会社ＪＥＳエンジニアリング,,有限会社,東京都,墨田区,緑４丁目４番１４号やよい緑ビル３階,,13,107,1300021,,,2023-11-15,合併による解散等,9010601050038,令和５年１１月５日千葉市稲毛区園生町４００番地８０ハローガレージ稲毛園生町１号室株式会社ＪＥＳエンジニアリング（9010601050038）に合併し解散,2015-10-05,1,,,,,ジェイイーエスエンジニアリング,0
1807,7010802018711,登記記録の閉鎖等,0,2023-11-17,2023-11-14,有限会社Ｔ＆Ｃ,,有限会社,東京都,大田区,下丸子２丁目２４番１０号,,13,111,1460092,,,2023-11-14,清算の結了等,,,2015-10-05,1,,,,,ティーアンドシー,0
1842,7011801021342,登記記録の閉鎖等,0,2023-11-17,2023-11-14,株式会社ミヤコエンジニアリング,,株式会社,東京都,足立区,舎人６丁目１０番１１－５１０号,,13,121,1210831,,,2023-11-14,清算の結了等,,,2015-10-05,1,,,,,ミヤコエンジニアリング,0
1859,7020001150199,登記記録の閉鎖等,0,2023-11-17,2023-11-13,株式会社メモリアル芝,,株式会社,神奈川県,川崎市中原区,市ノ坪４５番地１,,14,133,2110016,,,2023-11-13,清算の結了等,,,2023-02-09,1,,,,,メモリアルシバ,0
1862,7021001040976,登記記録の閉鎖等,0,2023-11-17,2023-11-13,株式会社日野屋商店,,株式会社,神奈川県,横須賀市,安浦町２丁目２５番地,,14,201,2380012,,,2023-11-13,清算の結了等,,,2015-10-05,1,,,,,ヒノヤショウテン,0
1881,7030001120878,登記記録の閉鎖等,0,2023-11-17,2023-11-09,株式会社フューチャー,,株式会社,埼玉県,蓮田市,大字川島２９１番地７,,11,238,3490112,,,2023-11-09,清算の結了等,,,2017-06-21,1,,,,,フューチャー,0
1899,7070002023267,登記記録の閉鎖等,0,2023-11-17,2023-11-10,有限会社久保田工務店,,有限会社,群馬県,桐生市,新宿３丁目１４番３０号,,10,203,3760006,,,2023-11-10,清算の結了等,,,2015-10-05,1,,,,,クボタコウムテン,0
1902,7080102007251,登記記録の閉鎖等,0,2023-11-17,2023-11-16,有限会社東秀工業,,有限会社,静岡県,御殿場市,茱萸沢１３１０番地,,22,215,4120041,,,2023-11-16,清算の結了等,,,2015-10-05,1,,,,,トウシュウコウギヨウ,0
1907,7090003002094,登記記録の閉鎖等,0,2023-11-17,2023-11-15,合同会社スリーウェイズ,,合同会社,山梨県,都留市,古川渡１８５番地１,,19,204,4020004,,,2023-11-15,清算の結了等,,,2022-05-30,1,,,,,スリーウェイズ,0
1911,7110003004781,登記記録の閉鎖等,0,2023-11-17,2023-11-13,ＮＩＴ合同会社,,合同会社,新潟県,上越市,三和区日和町６０番地,,15,222,9430226,,,2023-11-13,清算の結了等,,,2022-06-06,1,,,,,エヌアイティ,0
1937,7130001008964,登記記録の閉鎖等,0,2023-11-17,2023-11-10,株式会社アキト,,株式会社,京都府,京都市左京区,田中里ノ内町１１１番地,,26,103,6068212,,,2023-11-10,清算の結了等,,,2015-10-05,1,,,,,アキト,0
1945,7130005007153,登記記録の閉鎖等,0,2023-11-17,2023-11-08,桑船酒販協同組合,,その他の設立登記法人,京都府,南丹市,園部町本町１５番地,,26,213,6220013,,,2023-11-08,清算の結了等,,,2015-10-05,1,,,,,ソウセンシュハン,0
1948,7140001099813,登記記録の閉鎖等,0,2023-11-17,2023-11-13,上方投資株式会社,,株式会社,兵庫県,神戸市中央区,下山手通５丁目６番１６－３２０２号,,28,110,6500011,,,2023-11-13,清算の結了等,,,2015-10-27,1,,,,,ジョウホウトウシ,0
1952,7140002005191,登記記録の閉鎖等,0,2023-11-17,2023-11-14,有限会社ベルワールド,,有限会社,兵庫県,神戸市西区,狩場台３丁目９番１５号,,28,111,6512272,,,2023-11-14,清算の結了等,,,2015-10-05,1,,,,,ベルワールド,0
1953,7140002009795,登記記録の閉鎖等,0,2023-11-17,2023-11-14,有限会社かさい,,有限会社,兵庫県,神戸市北区,鈴蘭台東町７丁目７番３号,,28,109,6511112,,,2023-11-14,清算の結了等,,,2015-10-05,1,,,,,カサイ,0
1966,7150002006180,登記記録の閉鎖等,0,2023-11-17,2023-11-16,有限会社オーエムエス,,有限会社,奈良県,生駒郡斑鳩町,小吉田２丁目１番２号,00043457,29,344,6360142,,,2023-11-16,清算の結了等,,,2015-10-05,1,,,,,オーエムエス,0
1969,7180001023158,登記記録の閉鎖等,0,2023-11-17,2023-11-13,アイテックシステム株式会社,,株式会社,愛知県,名古屋市昭和区,西畑町３番地,,23,107,4660806,,,2023-11-13,清算の結了等,,,2015-10-05,1,,,,,アイテックシステム,0
1970,7180001029345,登記記録の閉鎖等,0,2023-11-17,2023-11-15,株式会社アルス,,株式会社,愛知県,名古屋市中村区,太閤通６丁目８番地,,23,105,4530811,,,2023-11-15,清算の結了等,,,2015-10-05,1,,,,,アルス,0
1975,7180002058640,登記記録の閉鎖等,0,2023-11-17,2023-11-08,有限会社北村大黒園,,有限会社,愛知県,名古屋市守山区,高島町１８番地,,23,113,4630095,,,2023-11-08,清算の結了等,,,2015-10-05,1,,,,,キタムラダイコクエン,0
1997,7240005003331,登記記録の閉鎖等,0,2023-11-17,2023-11-13,特定非営利活動法人中小企業販路開拓支援協議会,,その他の設立登記法人,広島県,広島市東区,光町１丁目１２番１６号,,34,102,7320052,,,2023-11-13,清算の結了等,,,2015-10-05,1,,,,,チュウショウキギョウハンロカイタクシエンキョウギカイ,0
2013,7290803000129,登記記録の閉鎖等,0,2023-11-17,2023-11-14,合資会社マルサン商店,,合資会社,福岡県,北九州市小倉北区,魚町２丁目１番９号,,40,106,8020006,,,2023-11-14,清算の結了等,,,2015-10-05,1,,,,,マルサンショウテン,0
2014,7300002005844,登記記録の閉鎖等,0,2023-11-17,2023-11-15,有限会社大古場建設,,有限会社,佐賀県,武雄市,武内町大字真手野２１８９２番地,,41,206,8492342,,,2023-11-15,清算の結了等,,,2015-10-05,1,,,,,オオコバケンセツ,0
2034,7420002005980,登記記録の閉鎖等,0,2023-11-17,2023-11-13,有限会社アミューズ,,有限会社,青森県,八戸市,大字新井田字西平２８番地２４,,02,203,0310813,,,2023-11-13,清算の結了等,,,2015-10-05,1,,,,,アミューズ,0
2035,7420002010551,登記記録の閉鎖等,0,2023-11-17,2023-11-13,有限会社アベ・プランニング,,有限会社,青森県,八戸市,大字新井田字古館６番地１２,,02,203,0310813,,,2023-11-13,清算の結了等,,,2015-10-05,1,,,,,アベプランニング,0
2036,7420005002174,登記記録の閉鎖等,0,2023-11-17,2023-11-10,特定非営利活動法人ＩＴＣあおもり,,その他の設立登記法人,青森県,青森市,第二問屋町４丁目１１番１８号株式会社ソフトアカデミーあおもり内,,02,201,0300113,,,2023-11-10,清算の結了等,,,2015-10-05,1,,,,,アイテイシーアオモリ,0
2042,7470002015769,登記記録の閉鎖等,0,2023-11-17,2023-11-15,有限会社いずつオート,,有限会社,香川県,観音寺市,観音寺町甲６３６番地,,37,205,7680060,,,2023-11-15,清算の結了等,,,2015-10-05,1,,,,,イズツオート,0
2060,8010002051297,登記記録の閉鎖等,0,2023-11-17,2023-11-10,カーネルソリューションズ有限会社,,有限会社,東京都,中央区,新川２丁目１番７号,,13,102,1040033,,,2023-11-10,清算の結了等,,,2015-10-05,1,,,,,カーネルソリューションズ,0
2065,8010003037361,登記記録の閉鎖等,0,2023-11-17,2023-11-10,合同会社ＤＡＷＮ,,合同会社,東京都,千代田区,麹町５丁目１番地ＮＫ真和ビル９階,,13,101,1020083,,,2023-11-10,清算の結了等,,,2022-03-30,1,,,,,ドーン,0
2088,8010602016006,登記記録の閉鎖等,0,2023-11-17,2023-11-10,有限会社山口紙器工業所,,有限会社,東京都,江東区,東雲１丁目９番２１－２０２号,,13,108,1350062,,,2023-11-10,清算の結了等,,,2015-10-05,1,,,,,ヤマグチシキコウギョウショ,0
2101,8010802012028,登記記録の閉鎖等,0,2023-11-17,2023-11-13,有限会社日之出木工所,,有限会社,東京都,大田区,北嶺町３２番２号,,13,111,1450073,,,2023-11-13,清算の結了等,,,2015-10-05,1,,,,,ヒノデモッコウジョ,0
2118,8011601000652,登記記録の閉鎖等,0,2023-11-17,2023-11-10,株式会社西武園ゆうえんち,,株式会社,東京都,豊島区,南池袋１丁目１６番１５号,,13,116,1710022,,,2023-11-10,清算の結了等,,,2015-10-05,1,,,,,セイブエンユウエンチ,0
2119,8011601017770,登記記録の閉鎖等,0,2023-11-17,2023-11-13,株式会社クーマ,,株式会社,東京都,練馬区,練馬４丁目６番１－５０８号,,13,120,1760001,,,2023-11-13,清算の結了等,,,2015-10-05,1,,,,,クーマ,0
2126,8011801008520,登記記録の閉鎖等,0,2023-11-17,2023-11-15,株式会社七福健康理学研究所,,株式会社,東京都,足立区,西伊興３丁目７番２号,,13,121,1210824,,,2023-11-15,清算の結了等,,,2015-10-05,1,,,,,シチフクケンコウリガクケンキュウショ,0
2130,8011802008057,登記記録の閉鎖等,0,2023-11-17,2023-11-14,有限会社山金,,有限会社,東京都,葛飾区,東立石４丁目３７番１３号,,13,122,1240013,,,2023-11-14,清算の結了等,,,2015-10-05,1,,,,,ヤマキン,0
2133,8012303001559,登記記録の閉鎖等,0,2023-11-17,2023-11-15,ＶＵＩ　ＷＯＲＫＳ合同会社,,合同会社,東京都,町田市,高ヶ坂６丁目１５－２０,,13,209,1940014,,,2023-11-15,清算の結了等,,,2021-06-24,1,,,,,ブイワークス,0
2166,8030001145734,登記記録の閉鎖等,0,2023-11-17,2023-11-09,ブレインティーザー株式会社,,株式会社,埼玉県,さいたま市見沼区,東大宮４丁目７０番地３レナティス３０５号室,,11,104,3370051,,,2023-11-09,清算の結了等,,,2021-12-07,1,,,,,ブレインティーザー,0
2172,8030002048102,登記記録の閉鎖等,0,2023-11-17,2023-11-08,有限会社ワイ・ビー・エス,,有限会社,埼玉県,八潮市,中央２丁目２番地１２,,11,234,3400816,,,2023-11-08,清算の結了等,,,2015-10-05,1,,,,,ワイビーエス,0
2175,8030003021504,登記記録の閉鎖等,0,2023-11-17,2023-11-09,合同会社絆サポート,,合同会社,埼玉県,川越市,大字久下戸３４７９番地１１,,11,201,3500011,,,2023-11-09,清算の結了等,,,2023-04-13,1,,,,,キズナサポート,0
2179,8040001064058,登記記録の閉鎖等,0,2023-11-17,2023-11-08,株式会社シンワ,,株式会社,千葉県,香取市,仁良１１９４番地の７,,12,236,2890407,,,2023-11-08,清算の結了等,,,2015-10-05,1,,,,,シンワ,0
2190,8040003013475,登記記録の閉鎖等,0,2023-11-17,2023-11-13,クレオジャパン合同会社,,合同会社,千葉県,松戸市,古ケ崎１９２番地の６,,12,207,2710068,,,2023-11-13,清算の結了等,,,2019-06-05,1,,,,,クレオジャパン,0
2194,8060001006009,登記記録の閉鎖等,0,2023-11-17,2023-11-15,株式会社サンノワ,,株式会社,栃木県,矢板市,中６０６番地１８２,,09,211,3292135,,,2023-11-15,清算の結了等,,,2015-10-05,1,,,,,サンノワ,0
2210,8080401026166,登記記録の閉鎖等,0,2023-11-17,2023-11-16,株式会社イスィ,,株式会社,静岡県,浜松市東区,天王町１９９９番地の１１,,22,132,4350052,,,2023-11-16,清算の結了等,,,2022-11-24,1,,,,,イスィ,0
2213,8110001035084,登記記録の閉鎖等,0,2023-11-17,2023-11-14,ＴＡＰ　ＦＡＣＴＯＲＹ株式会社,,株式会社,新潟県,南魚沼市,黒土新田４５０番地６,,15,226,9497241,,,2023-11-14,合併による解散等,3110001027284,令和５年１１月１４日新潟県南魚沼市黒土新田４５０番地６株式会社昇工務店（3110001027284）に合併し解散,2020-08-17,1,,,,,タップファクトリー,0
2223,8120001232606,登記記録の閉鎖等,0,2023-11-17,2023-11-15,おひさまデザイン株式会社,,株式会社,大阪府,大阪市中央区,南船場４丁目１０番５号南船場ＳＯＨＯビル７０２,,27,128,5420081,,,2023-11-15,清算の結了等,,,2020-10-20,1,,,,,オヒサマデザイン,0
2242,8130002001711,登記記録の閉鎖等,0,2023-11-17,2023-11-01,有限会社山下工務店,,有限会社,京都府,京都市右京区,太秦百合ケ本町８番地１１,,26,108,6168144,,,2023-11-01,清算の結了等,,,2015-10-05,1,,,,,ヤマシタコウムテン,0
2277,8200001017619,登記記録の閉鎖等,0,2023-11-17,2023-11-15,株式会社愛岐,,株式会社,岐阜県,可児市,今渡２１７４番地の１,,21,214,5090207,,,2023-11-15,清算の結了等,,,2015-10-05,1,,,,,アイギ,0
2279,8210002001538,登記記録の閉鎖等,0,2023-11-17,2023-11-15,有限会社シンアイ,,有限会社,福井県,福井市,大島町戌亥４０２番地の１０,,18,201,9188018,,,2023-11-15,清算の結了等,,,2015-10-05,1,,,,,シンアイ,0
2285,8290001048333,登記記録の閉鎖等,0,2023-11-17,2023-11-07,株式会社安徳設備,,株式会社,福岡県,久留米市,原古賀町２５番地の１７,,40,203,8300046,,,2023-11-07,清算の結了等,,,2015-10-05,1,,,,,アントクセツビ,0
2286,8290001083173,登記記録の閉鎖等,0,2023-11-17,2023-11-01,株式会社ラフィージュ,,株式会社,福岡県,福岡市中央区,赤坂１丁目１３番１０号,,40,133,8100042,,,2023-11-01,合併による解散等,1290001061549,令和５年１１月１日福岡市中央区赤坂一丁目１３番１０号株式会社Ｄ＆Ｓ（1290001061549）に合併し解散,2018-10-29,1,,,,,ラフィージュ,0
2298,8330001007136,登記記録の閉鎖等,0,2023-11-17,2023-11-13,株式会社ディード,,株式会社,熊本県,熊本市中央区,下通１丁目１１－８,,43,101,8600807,,,2023-11-13,清算の結了等,,,2015-10-05,1,,,,,,0
2305,8370001020960,登記記録の閉鎖等,0,2023-11-17,2023-11-13,株式会社ＡＳＴ法務,,株式会社,宮城県,仙台市太白区,ひより台３８番３号,,04,104,9820811,,,2023-11-13,清算の結了等,,,2015-10-05,1,,,,,アストホウム,0
2315,8402705000342,登記記録の閉鎖等,0,2023-11-17,2023-11-02,特定非営利活動法人福祉フォーラム・東北,,その他の設立登記法人,岩手県,陸前高田市,米崎町字松峰４８番地１,,03,210,0292206,,,2023-11-02,清算の結了等,,,2015-10-05,1,,,,,フクシフォーラムトウホク,0
2317,8430001023081,登記記録の閉鎖等,0,2023-11-17,2023-11-14,マルクラ観光株式会社,,株式会社,北海道,札幌市豊平区,西岡四条７丁目１番４３－９１５号,,01,105,0620034,,,2023-11-14,清算の結了等,,,2015-10-05,1,,,,,マルクラカンコウ,0
2332,8490002012020,登記記録の閉鎖等,0,2023-11-17,2023-11-15,有限会社依光建設,,有限会社,高知県,南国市,廿枝１００６番地の２,,39,204,7830023,,,2023-11-15,清算の結了等,,,2015-10-05,1,,,,,ヨリミツケンセツ,0
2363,9010401151481,登記記録の閉鎖等,0,2023-11-17,2023-11-10,株式会社ＫＡＳＣＡＤＥ,,株式会社,東京都,目黒区,平町２丁目１３番５号,,13,110,1520032,,,2023-11-10,合併による解散等,7010501039273,令和５年１１月１０日東京都目黒区平町二丁目１３番５号株式会社ＭＯＬＴＳ（7010501039273）に合併し解散,2020-03-05,1,,,,,カスケード,0
2368,9010403023489,登記記録の閉鎖等,0,2023-11-17,2023-11-14,合同会社パラキート,,合同会社,東京都,港区,浜松町２丁目２番１５号浜松町ダイヤビル２Ｆ,,13,103,1050013,,,2023-11-14,清算の結了等,,,2020-08-13,1,,,,,,0
2426,9020001052435,登記記録の閉鎖等,0,2023-11-17,2023-11-15,株式会社編集エンジン,,株式会社,新潟県,魚沼市,大沢６９１番地,,15,225,9460073,,,2023-11-15,清算の結了等,,,2015-10-05,1,,,,,ヘンシュウエンジン,0
2427,9020001059389,登記記録の閉鎖等,0,2023-11-17,2023-11-10,株式会社サポート・スタッフィング,,株式会社,神奈川県,横浜市神奈川区,鶴屋町３丁目３３番１７号大河原ビル３階,,14,102,2210835,,,2023-11-10,清算の結了等,,,2015-10-05,1,,,,,サポートスタッフィング,0
2437,9020002106009,登記記録の閉鎖等,0,2023-11-17,2023-11-13,有限会社エス・アイ・ティー,,有限会社,神奈川県,川崎市麻生区,白山１丁目２番１号,,14,137,2150014,,,2023-11-13,清算の結了等,,,2015-10-05,1,,,,,エスアイティー,0
2441,9021002025198,登記記録の閉鎖等,0,2023-11-17,2023-11-14,有限会社ユートホーム,,有限会社,神奈川県,相模原市中央区,上溝１丁目１１番２６号,,14,152,2520243,,,2023-11-14,清算の結了等,,,2015-10-05,1,,,,,ユートホーム,0
2442,9021002056301,登記記録の閉鎖等,0,2023-11-17,2023-11-10,有限会社高橋製作所,00013718,有限会社,神奈川県,足柄上郡中井町,境別所５２番地の８,,14,361,2590156,,,2023-11-10,清算の結了等,,,2015-10-05,1,,,,,タカハシセイサクショ,0
2463,9050001034059,登記記録の閉鎖等,0,2023-11-17,2023-11-09,株式会社シンコウ電工,,株式会社,茨城県,つくば市,榎戸７８３番地１２,,08,220,3050853,,,2023-11-09,清算の結了等,,,2015-10-05,1,,,,,シンコウデンコウ,0
2474,9070002003374,登記記録の閉鎖等,0,2023-11-17,2023-11-10,有限会社高久,,有限会社,群馬県,前橋市,敷島町２６５番地の２２,,10,201,3710036,,,2023-11-10,清算の結了等,,,2015-10-05,1,,,,,タカヒサ,0
2475,9080001012425,登記記録の閉鎖等,0,2023-11-17,2023-11-16,株式会社Ｌｉｅｎ,,株式会社,静岡県,静岡市葵区,沓谷６丁目２０番地１,,22,101,4200816,,,2023-11-16,清算の結了等,,,2015-10-05,1,,,,,,0
2479,9080101008091,登記記録の閉鎖等,0,2023-11-17,2023-11-14,株式会社池田組,,株式会社,静岡県,富士市,宮島３２２番地の５,,22,210,4160945,,,2023-11-14,清算の結了等,,,2015-10-05,1,,,,,イケダグミ,0
2483,9080102019402,登記記録の閉鎖等,0,2023-11-17,2023-11-15,有限会社伊東屋,,有限会社,静岡県,伊東市,松川町５番４１号,,22,208,4140011,,,2023-11-15,清算の結了等,,,2015-10-05,1,,,,,イトウヤ,0
2494,9110001013989,登記記録の閉鎖等,0,2023-11-17,2023-11-14,株式会社兼弘,,株式会社,新潟県,三条市,中新３０番２３号,,15,204,9550035,,,2023-11-14,清算の結了等,,,2015-10-05,1,,,,,カネヒロ,0
2495,9110002021355,登記記録の閉鎖等,0,2023-11-17,2023-11-15,有限会社パーソナル・クリエイト,,有限会社,新潟県,柏崎市,城塚４番１３号,,15,205,9451343,,,2023-11-15,清算の結了等,,,2015-10-05,1,,,,,パーソナルクリエイト,0
2499,9120001009904,登記記録の閉鎖等,0,2023-11-17,2023-11-10,株式会社サンコー,,株式会社,大阪府,大阪市東住吉区,杭全５丁目６番１０号,,27,121,5460002,,,2023-11-10,清算の結了等,,,2015-10-05,1,,,,,サンコー,0
2518,9120102004390,登記記録の閉鎖等,0,2023-11-17,2023-11-15,ボズ有限会社,,有限会社,大阪府,堺市堺区,大浜中町２丁１番２２号,,27,141,5900975,,,2023-11-15,清算の結了等,,,2015-10-05,1,,,,,ボズ,0
2521,9120902018838,登記記録の閉鎖等,0,2023-11-17,2023-11-08,有限会社ソーラーリサーチ研究所,,有限会社,大阪府,豊中市,北桜塚２丁目７番１４号,,27,203,5600022,,,2023-11-08,清算の結了等,,,2015-10-05,1,,,,,ソーラーリサーチケンキュウショ,0
2534,9140001042721,登記記録の閉鎖等,0,2023-11-17,2023-11-13,国広木工株式会社,,株式会社,兵庫県,加古川市,上荘町国包１０４番地,,28,210,6751213,,,2023-11-13,清算の結了等,,,2015-10-05,1,,,,,クニヒロモッコウ,0
2546,9150002006162,登記記録の閉鎖等,0,2023-11-17,2023-11-16,ファーレ企画株式会社,,株式会社,奈良県,生駒郡斑鳩町,龍田２丁目２番１１号,00043140,29,344,6360152,,,2023-11-16,清算の結了等,,,2015-10-05,1,,,,,ファーレキカク,0
2549,9160001025179,登記記録の閉鎖等,0,2023-11-17,2023-11-15,株式会社ゴールドジャパン,,株式会社,滋賀県,草津市,西大路町４－３２－１０６草津エストピアプラザ,,25,206,5250037,,,2023-11-15,合併による解散等,8160001016864,令和５年１１月１３日大阪市北区梅田二丁目４番９号ブリーゼタワー株式会社インターナショナルスワングループ（8160001016864）に合併し解散,2023-07-13,1,,,,,,0
2557,9180002052690,登記記録の閉鎖等,0,2023-11-17,2023-11-14,有限会社加藤積算事務所,,有限会社,愛知県,名古屋市中川区,上脇町１丁目１番地,,23,110,4540833,,,2023-11-14,清算の結了等,,,2015-10-05,1,,,,,カトウセキサンジムショ,0
2561,9180303004044,登記記録の閉鎖等,0,2023-11-17,2023-11-09,合同会社マウンテン・トップ,,合同会社,愛知県,岡崎市,美合町字五反田７番地１日研オフィスビル１０２号室,,23,202,4440802,,,2023-11-09,清算の結了等,,,2018-03-29,1,,,,,マウンテントップ,0
2562,9190001026042,登記記録の閉鎖等,0,2023-11-17,2023-11-15,株式会社エディションフーズ,,株式会社,三重県,松阪市,中林町４３番地９,,24,204,5152111,,,2023-11-15,清算の結了等,,,2018-12-06,1,,,,,エディションフーズ,0
2563,9200001009945,登記記録の閉鎖等,0,2023-11-17,2023-11-16,三和エンジニヤリング株式会社,,株式会社,岐阜県,本巣市,仏生寺８８４番地の９,,21,218,5010407,,,2023-11-16,清算の結了等,,,2015-10-05,1,,,,,サンワエンジニヤリング,0
2572,9230002009438,登記記録の閉鎖等,0,2023-11-17,2023-11-15,有限会社森川写真館,,有限会社,富山県,砺波市,表町４番７号,,16,208,9391366,,,2023-11-15,清算の結了等,,,2015-10-05,1,,,,,モリカワシャシンカン,0
2579,9290001035900,登記記録の閉鎖等,0,2023-11-17,2023-11-07,株式会社幹,,株式会社,福岡県,福岡市中央区,笹丘３丁目２０番１５－２０５号,,40,133,8100034,,,2023-11-07,清算の結了等,,,2015-10-05,1,,,,,ミキ,0
2586,9290001090012,登記記録の閉鎖等,0,2023-11-17,2023-11-08,株式会社ＤＴＳ,,株式会社,福岡県,福岡市中央区,天神１丁目６番８号天神ツインビル７階,,40,133,8100001,,,2023-11-08,清算の結了等,,,2020-09-01,1,,,,,ディーティーエス,0
2592,9290005017606,登記記録の閉鎖等,0,2023-11-17,2023-11-07,一般社団法人ヨハン宣教会,,その他の設立登記法人,福岡県,福岡市早良区,城西３丁目１番９号,,40,137,8140003,,,2023-11-07,清算の結了等,,,2020-01-06,1,,,,,ヨハンセンキョウカイ,0
2596,9330001007275,登記記録の閉鎖等,0,2023-11-17,2023-11-13,株式会社グリーンコーポレーシヨン,,株式会社,熊本県,熊本市北区,梶尾町１７４５番地１１５,,43,105,8615512,,,2023-11-13,清算の結了等,,,2015-10-05,1,,,,,グリーンコーポレーシヨン,0
2605,9370001025612,登記記録の閉鎖等,0,2023-11-17,2023-11-14,株式会社きぼう,,株式会社,宮城県,仙台市泉区,鶴が丘１丁目７番地の１０,,04,105,9813109,,,2023-11-14,清算の結了等,,,2015-10-05,1,,,,,キボウ,0
2611,9380001022435,登記記録の閉鎖等,0,2023-11-17,2023-11-15,株式会社山商産業物流,,株式会社,福島県,いわき市,葉山２丁目３９番地,,07,204,9718187,,,2023-11-15,清算の結了等,,,2015-10-05,1,,,,,ヤマショウサンギョウブツリュウ,0
2612,9380003001148,登記記録の閉鎖等,0,2023-11-17,2023-11-15,合資会社太陽,,合資会社,福島県,いわき市,平字十五町目２番地,,07,204,9708026,,,2023-11-15,清算の結了等,,,2015-10-05,1,,,,,タイヨウ,0
2614,9390002000455,登記記録の閉鎖等,0,2023-11-17,2023-11-15,有限会社エス・エイ・プランナーズ,,有限会社,山形県,山形市,寿町２０番１３号,,06,201,9902414,,,2023-11-15,清算の結了等,,,2015-10-05,1,,,,,エスエイプランナーズ,0
