sequenceNumber,corporateNumber,process,correct,updateDate,changeDate,name,nameImageId,kind,prefectureName,cityName,streetNumber,addressImageId,prefectureCode,cityCode,postCode,addressOutside,addressOutsideImageId,closeDate,closeCause,successorCorporateNumber,changeCause,assignmentDate,latest,enName,enPrefectureName,enCityName,enAddressOutside,furigana,hihyoji
19,1010601019197,登記記録の閉鎖等,0,2022-07-01,2022-06-27,株式会社アトレイユ,,株式会社,東京都,墨田区,吾妻橋１丁目６番２号,,13,107,1300001,,,2022-06-27,清算の結了等,,,2021-06-11,1,,,,,アトレイユ,0
52,1011502013124,登記記録の閉鎖等,0,2022-07-01,2022-06-28,有限会社健康行動出版,,有限会社,東京都,荒川区,南千住６丁目３７番１１号アクロシティＥポート１４０３号室,,13,118,1160003,,,2022-06-28,清算の結了等,,,2015-10-05,1,,,,,ケンコウコウドウシュッパン,0
70,1020001088305,登記記録の閉鎖等,0,2022-07-01,2022-06-24,株式会社アシストサービス,,株式会社,神奈川県,川崎市多摩区,西生田１丁目８番１－７０５号,,14,135,2140037,,,2022-06-24,清算の結了等,,,2015-10-05,1,,,,,アシストサービス,0
73,1020001108608,登記記録の閉鎖等,0,2022-07-01,2022-06-24,株式会社ＴＲＥＥ,,株式会社,神奈川県,横浜市瀬谷区,橋戸２丁目２０番地の５,,14,114,2460037,,,2022-06-24,清算の結了等,,,2015-10-05,1,,,,,,0
76,1020002028755,登記記録の閉鎖等,0,2022-07-01,2022-06-24,有限会社渡辺章三商店,,有限会社,神奈川県,横浜市神奈川区,神大寺１丁目９番２８－３０３号,,14,102,2210801,,,2022-06-24,清算の結了等,,,2015-10-05,1,,,,,ワタナベショウゾウショウテン,0
85,1030003015677,登記記録の閉鎖等,0,2022-07-01,2022-06-20,合同会社ＭＴＴ企画,,合同会社,埼玉県,久喜市,鷲宮中央１丁目１６番２９号ウイングベル１０１号室,,11,232,3400216,,,2022-06-20,清算の結了等,,,2020-08-06,1,,,,,エムティーティーキカク,0
93,1040002048017,登記記録の閉鎖等,0,2022-07-01,2022-06-22,有限会社花の井屋,,有限会社,千葉県,松戸市,小金６５番地,,12,207,2700014,,,2022-06-22,清算の結了等,,,2015-10-05,1,,,,,ハナノイヤ,0
98,1050005009188,登記記録の閉鎖等,0,2022-07-01,2022-06-21,特定非営利活動法人福祉の会ねこのて,,その他の設立登記法人,茨城県,守谷市,松前台１丁目８番地５,,08,224,3020102,,,2022-06-21,清算の結了等,,,2015-10-05,1,,,,,フクシノカイネコノテ,0
116,1120001170077,登記記録の閉鎖等,0,2022-07-01,2022-06-27,株式会社新ＧＨＳ,,株式会社,東京都,北区,赤羽２丁目６９番２号千秀ビル７Ｆ,,13,117,1150045,,,2022-06-27,清算の結了等,,,2015-10-05,1,,,,,シンジーエイチエス,0
161,1180001090534,登記記録の閉鎖等,0,2022-07-01,2022-06-22,アイ・キャスト株式会社,,株式会社,愛知県,名古屋市中村区,名駅５丁目４番地１４号花車ビル北館１階シアトル・マリアージュ内,,23,105,4500002,,,2022-06-22,清算の結了等,,,2015-10-05,1,,,,,アイキャスト,0
169,1200001028267,登記記録の閉鎖等,0,2022-07-01,2022-06-29,株式会社ユーシーワークス,,株式会社,岐阜県,岐阜市,高田４丁目１２番４号,,21,201,5008224,,,2022-06-29,清算の結了等,,,2015-10-05,1,,,,,,0
170,1200002005067,登記記録の閉鎖等,0,2022-07-01,2022-06-29,有限会社夢のくに,,有限会社,岐阜県,岐阜市,御浪町３１番地,,21,201,5008181,,,2022-06-29,清算の結了等,,,2015-10-05,1,,,,,ユメノクニ,0
193,1290001055385,登記記録の閉鎖等,0,2022-07-01,2022-06-24,アブリールジャパン保険株式会社,,株式会社,福岡県,久留米市,中央町１２番地３エバーライフ久留米中央ＩＩ１１０５号,00092713,40,203,8300023,,,2022-06-24,清算の結了等,,,2015-10-05,1,,,,,アブリールジャパンホケン,0
198,1290002028068,登記記録の閉鎖等,0,2022-07-01,2022-06-24,有限会社シーフォー,,有限会社,福岡県,福岡市東区,香椎浜４丁目１番８号,,40,131,8130016,,,2022-06-24,清算の結了等,,,2015-10-05,1,,,,,,0
232,1460401000361,登記記録の閉鎖等,0,2022-07-01,2022-06-30,株式会社日政興産,,株式会社,北海道,根室市,花咲港２８５番地,,01,223,0870032,,,2022-06-30,清算の結了等,,,2015-10-05,1,,,,,ニッセイコウサン,0
238,2010001020746,登記記録の閉鎖等,0,2022-07-01,2022-06-24,株式会社石油産業技術研究所,,株式会社,東京都,千代田区,大手町１丁目３番２号,,13,101,1000004,,,2022-06-24,清算の結了等,,,2015-10-05,1,,,,,セキユサンギョウギジュツケンキュウジョ,0
241,2010005007582,登記記録の閉鎖等,0,2022-07-01,2022-06-24,特定非営利活動法人綜合画像研究支援,,その他の設立登記法人,東京都,千代田区,平河町１丁目７番５号,,13,101,1020093,,,2022-06-24,清算の結了等,,,2015-10-05,1,,,,,ソウゴウガゾウケンキュウシエン,0
242,2010101011249,登記記録の閉鎖等,0,2022-07-01,2022-06-27,株式会社イーサイン,,株式会社,東京都,八王子市,台町４丁目２４番１号加島屋ビル２階,,13,201,1930931,,,2022-06-27,清算の結了等,,,2015-10-05,1,,,,,イーサイン,0
257,2011101041558,登記記録の閉鎖等,0,2022-07-01,2022-06-29,株式会社信和シージェイ,,株式会社,東京都,新宿区,大久保２丁目７番１号,,13,104,1690072,,,2022-06-29,清算の結了等,,,2015-10-05,1,,,,,,0
272,2013301044679,登記記録の閉鎖等,0,2022-07-01,2022-06-27,持ち家リースバックの窓口株式会社,,株式会社,東京都,豊島区,南大塚２丁目７番２号,,13,116,1700005,,,2022-06-27,清算の結了等,,,2019-10-29,1,,,,,モチイエリースバックノマドグチ,0
283,2020002063669,登記記録の閉鎖等,0,2022-07-01,2022-06-27,中央冷機有限会社，,,有限会社,神奈川県,横浜市青葉区,しらとり台１１番地１１－２－１０３,,14,117,2270054,,,2022-06-27,清算の結了等,,,2015-10-05,1,,,,,チュウオウレイキ,0
311,2070001032926,登記記録の閉鎖等,0,2022-07-01,2022-06-22,株式会社Ａｉ　Ｌｏｕｎｇｅ,,株式会社,群馬県,高崎市,あら町１３４番地１高崎クリエートビル４階,,10,202,3700831,,,2022-06-22,清算の結了等,,,2016-12-07,1,,,,,アイラウンジ,0
314,2070002009857,登記記録の閉鎖等,0,2022-07-01,2022-06-22,有限会社コグレ・コーポレーション,,有限会社,群馬県,高崎市,矢島町２０１番地１０,,10,202,3700016,,,2022-06-22,清算の結了等,,,2015-10-05,1,,,,,,0
325,2120001164268,登記記録の閉鎖等,0,2022-07-01,2022-06-28,イージィー不動産株式会社,,株式会社,大阪府,大阪市天王寺区,悲田院町１番３８－１６０１号,,27,109,5430055,,,2022-06-28,清算の結了等,,,2015-10-05,1,,,,,イージィーフドウサン,0
326,2120001204239,登記記録の閉鎖等,0,2022-07-01,2022-06-28,株式会社サンメディカル,,株式会社,兵庫県,神戸市灘区,篠原南町６丁目９番２５－３０３号,,28,102,6570059,,,2022-06-28,清算の結了等,,,2017-03-08,1,,,,,サンメディカル,0
328,2120001216556,登記記録の閉鎖等,0,2022-07-01,2022-06-09,株式会社イケてるやつら,,株式会社,東京都,渋谷区,渋谷１丁目１７番４号ＰＭＯ渋谷８階,,13,113,1500002,,,2022-06-09,合併による解散等,8011001067994,令和４年６月１日東京都渋谷区渋谷一丁目１７番４号ＰＭＯ渋谷８階キラメックス株式会社（8011001067994）に合併し解散,2018-10-17,1,,,,,イケテルヤツラ,0
347,2160001018643,登記記録の閉鎖等,0,2022-07-01,2022-06-28,マザーコスモＪＰ株式会社,,株式会社,滋賀県,甲賀市,水口町高塚２番４８号,,25,209,5280011,,,2022-06-28,清算の結了等,,,2015-10-05,1,,,,,マザーコスモジェイピー,0
352,2180001117988,登記記録の閉鎖等,0,2022-07-01,2022-06-29,株式会社エーリス,,株式会社,愛知県,名古屋市西区,名塚町４丁目２番地,,23,104,4510081,,,2022-06-29,清算の結了等,,,2015-10-05,1,,,,,エーリス,0
364,2200005001145,登記記録の閉鎖等,0,2022-07-01,2022-06-29,岐阜ディスプレー協同組合,,その他の設立登記法人,岐阜県,岐阜市,東栄町３丁目６番地株式会社弘報社内,,21,201,5008144,,,2022-06-29,清算の結了等,,,2015-10-05,1,,,,,ギフディスプレー,0
393,2320001013090,登記記録の閉鎖等,0,2022-07-01,2022-06-29,ＨＴＣ佐伯センター株式会社,,株式会社,大分県,佐伯市,駅前２丁目１２４００番地７第二メグビル４階,,44,205,8760803,,,2022-06-29,清算の結了等,,,2015-10-05,1,,,,,エイチティーシーサイキセンター,0
419,2410003002256,登記記録の閉鎖等,0,2022-07-01,2022-06-21,ハッピー・ライフ合同会社,,合同会社,秋田県,大仙市,大曲福住町５番２９号,,05,212,0140014,,,2022-06-21,清算の結了等,,,2015-10-05,1,,,,,ハッピーライフ,0
430,2430005005189,登記記録の閉鎖等,0,2022-07-01,2022-06-24,札幌北読売会事業協同組合,,その他の設立登記法人,北海道,札幌市西区,発寒十三条３丁目６番１０号,,01,107,0630833,,,2022-06-24,清算の結了等,,,2015-10-05,1,,,,,サッポロキタヨミウリカイ,0
439,3010001059404,登記記録の閉鎖等,0,2022-07-01,2022-06-24,株式会社八重洲米穀市場,,株式会社,東京都,中央区,日本橋３丁目２番６号,,13,102,1030027,,,2022-06-24,清算の結了等,,,2015-10-05,1,,,,,ヤエスベイコクシジョウ,0
460,3010602026587,登記記録の閉鎖等,0,2022-07-01,2022-06-17,有限会社ワイエスエージャパン,,有限会社,東京都,江東区,東陽６丁目５番５－１００５号,,13,108,1350016,,,2022-06-17,清算の結了等,,,2015-10-05,1,,,,,ワイエスエージャパン,0
496,3013301044678,登記記録の閉鎖等,0,2022-07-01,2022-06-27,ＦＰの住宅ローン比較株式会社,,株式会社,東京都,豊島区,南大塚２丁目７番２号,,13,116,1700005,,,2022-06-27,清算の結了等,,,2019-10-29,1,,,,,エフピーノジュウタクローンヒカク,0
500,3020001022245,登記記録の閉鎖等,0,2022-07-01,2022-06-24,アーティザン株式会社,,株式会社,神奈川県,横浜市港北区,下田町３丁目１２番１号,,14,109,2230064,,,2022-06-24,清算の結了等,,,2015-10-05,1,,,,,アーティザン,0
501,3020001063842,登記記録の閉鎖等,0,2022-07-01,2022-06-24,株式会社岡本みね子事務所,,株式会社,神奈川県,川崎市多摩区,登戸２７１０番地６,,14,135,2140014,,,2022-06-24,清算の結了等,,,2015-10-05,1,,,,,オカモトミネコジムショ,0
503,3020002082569,登記記録の閉鎖等,0,2022-07-01,2022-06-20,有限会社アイエムシー,,有限会社,熊本県,熊本市中央区,新町２丁目１１番３３－８０３号,,43,101,8600004,,,2022-06-20,清算の結了等,,,2015-10-05,1,,,,,アイエムシー,0
520,3040002080711,登記記録の閉鎖等,0,2022-07-01,2022-06-20,有限会社アズマ測量設計事務所,,有限会社,千葉県,茂原市,高師４０７番地１９,,12,210,2970029,,,2022-06-20,清算の結了等,,,2015-10-05,1,,,,,アズマソクリョウセッケイジムショ,0
532,3070001008636,登記記録の閉鎖等,0,2022-07-01,2022-06-22,山喜電設工業株式会社,,株式会社,群馬県,高崎市,新保町１４０４番地,,10,202,3700018,,,2022-06-22,清算の結了等,,,2015-10-05,1,,,,,ヤマキデンセツコウギョウ,0
537,3070002033204,登記記録の閉鎖等,0,2022-07-01,2022-06-20,有限会社川島薬局,,有限会社,群馬県,館林市,本町２丁目８番２４号,,10,207,3740024,,,2022-06-20,清算の結了等,,,2015-10-05,1,,,,,カワシマヤッキョク,0
538,3080101001837,登記記録の閉鎖等,0,2022-07-01,2022-06-30,丸文化学工業株式会社,,株式会社,静岡県,沼津市,西沢田７２４番地の１,,22,203,4100007,,,2022-06-30,清算の結了等,,,2015-10-05,1,,,,,,0
540,3080102000615,登記記録の閉鎖等,0,2022-07-01,2022-06-30,有限会社エム・アール,,有限会社,静岡県,沼津市,岡宮１３４９番地の７,,22,203,4100011,,,2022-06-30,清算の結了等,,,2015-10-05,1,,,,,エムアール,0
543,3090001013989,登記記録の閉鎖等,0,2022-07-01,2022-06-24,株式会社ナオミ,,株式会社,山梨県,上野原市,上野原４１２０番地２,,19,212,4090112,,,2022-06-24,清算の結了等,,,2015-10-05,1,,,,,ナオミ,0
552,3120001222520,登記記録の閉鎖等,0,2022-07-01,2022-06-29,株式会社ホイミ,,株式会社,大阪府,大阪市中央区,高津３丁目１５番６－７１３号,,27,128,5420072,,,2022-06-29,清算の結了等,,,2019-07-18,1,,,,,ホイミ,0
559,3120005006135,登記記録の閉鎖等,0,2022-07-01,2022-06-27,西日本織ネーム商業協同組合,,その他の設立登記法人,大阪府,大阪市中央区,南久宝寺町２丁目１番２号竹田ビル５階,,27,128,5410058,,,2022-06-27,清算の結了等,,,2015-10-05,1,,,,,ニシニホンオリネームショウギョウ,0
560,3120005022173,登記記録の閉鎖等,0,2022-07-01,2022-06-29,弁護士法人ＳＢＰＪ法律事務所,,その他の設立登記法人,大阪府,大阪市阿倍野区,西田辺町１丁目１９番２０号,,27,119,5450014,,,2022-06-29,清算の結了等,,,2021-03-15,1,,,,,エスビーピージェイ,0
562,3122001015400,登記記録の閉鎖等,0,2022-07-01,2022-06-23,新明紙工株式会社,,株式会社,大阪府,大東市,三箇３丁目１０番１２号,,27,218,5740077,,,2022-06-23,清算の結了等,,,2015-10-05,1,,,,,シンメイシコウ,0
576,3140001106052,登記記録の閉鎖等,0,2022-07-01,2022-06-27,株式会社オー．エヌ．オー,,株式会社,兵庫県,小野市,敷地町１３８２番地,,28,218,6751367,,,2022-06-27,清算の結了等,,,2017-05-10,1,,,,,オーエヌオー,0
584,3170001006976,登記記録の閉鎖等,0,2022-07-01,2022-06-30,株式会社ＨＯＫＥＮ和歌山,,株式会社,和歌山県,和歌山市,有田屋町南ノ丁３５番地,,30,201,6408245,,,2022-06-30,清算の結了等,,,2015-10-05,1,,,,,ホケンワカヤマ,0
591,3180002085192,登記記録の閉鎖等,0,2022-07-01,2022-06-24,有限会社名信,,有限会社,愛知県,大府市,半月町４丁目５９番地,,23,223,4740037,,,2022-06-24,清算の結了等,,,2015-10-05,1,,,,,メイシン,0
618,3250001013857,登記記録の閉鎖等,0,2022-07-01,2022-06-27,株式会社Ａ＆Ｓ中村設計事務所,,株式会社,山口県,防府市,緑町１丁目７番５０号,,35,206,7470026,,,2022-06-27,清算の結了等,,,2015-10-05,1,,,,,,0
619,3250002013625,登記記録の閉鎖等,0,2022-07-01,2022-06-27,有限会社スエワカ,,有限会社,山口県,阿武郡阿武町,大字奈古２３１８番地の６,,35,502,7593622,,,2022-06-27,清算の結了等,,,2015-10-05,1,,,,,スエワカ,0
631,3290002019528,登記記録の閉鎖等,0,2022-07-01,2022-06-23,ネクストデザイン有限会社,,有限会社,福岡県,福岡市西区,生松台１丁目２６番６号,,40,135,8190044,,,2022-06-23,清算の結了等,,,2015-10-05,1,,,,,ネクストデザイン,0
632,3290005012793,登記記録の閉鎖等,0,2022-07-01,2022-06-23,特定非営利活動法人おおむた市民オンブズマン,,その他の設立登記法人,福岡県,大牟田市,下白川町２丁目３３番地,,40,202,8370928,,,2022-06-23,清算の結了等,,,2015-10-05,1,,,,,オオムタシミンオンブズマン,0
640,3340001020670,登記記録の閉鎖等,0,2022-07-01,2022-06-22,千里水産株式会社,,株式会社,鹿児島県,曽於郡大崎町,井俣３００７番地１３,,46,468,8997309,,,2022-06-22,合併による解散等,5120901043873,令和４年６月２０日大阪府高槻市唐崎北一丁目２番５号株式会社千里ホールディングス（5120901043873）に合併し解散,2017-10-25,1,,,,,,0
653,3390001015435,登記記録の閉鎖等,0,2022-07-01,2022-06-24,株式会社ファイブマシン,,株式会社,山形県,鶴岡市,文下字村ノ内１１番地,,06,203,9970003,,,2022-06-24,清算の結了等,,,2018-09-05,1,,,,,ファイブマシン,0
676,4010401011211,登記記録の閉鎖等,0,2022-07-01,2022-06-29,株式会社サンマール,,株式会社,大阪府,大阪市中央区,北久宝寺町２丁目１番３号,,27,128,5410057,,,2022-06-29,合併による解散等,5120001089000,令和４年６月２１日大阪市中央区北久宝寺町二丁目１番３号株式会社プロルート丸光（5120001089000）に合併し解散,2015-10-05,1,,,,,サンマール,0
677,4010401075124,登記記録の閉鎖等,0,2022-07-01,2022-06-14,マッチ・ドットコムジャパン株式会社,,株式会社,東京都,港区,三田１丁目４番１号住友不動産麻布十番ビル４階,,13,103,1080073,,,2022-06-14,合併による解散等,8010401091860,令和４年５月３１日東京都港区三田一丁目４番１号株式会社エウレカ（8010401091860）に合併し解散,2015-10-05,1,,,,,マッチドットコムジャパン,0
696,4011001033265,登記記録の閉鎖等,0,2022-07-01,2022-06-29,株式会社バリーク,,株式会社,東京都,渋谷区,東１丁目１番３７号,,13,113,1500011,,,2022-06-29,清算の結了等,,,2015-10-05,1,,,,,,0
697,4011001049947,登記記録の閉鎖等,0,2022-07-01,2022-06-27,株式会社ユーティリティーズ,,株式会社,東京都,渋谷区,大山町１７番２５号,,13,113,1510065,,,2022-06-27,清算の結了等,,,2015-10-05,1,,,,,,0
711,4011101094513,登記記録の閉鎖等,0,2022-07-01,2022-06-28,株式会社全盛貿易,,株式会社,東京都,新宿区,北新宿１丁目３０番３０－２０３号,,13,104,1690074,,,2022-06-28,清算の結了等,,,2021-03-26,1,,,,,ゼンセイボウエキ,0
729,4012401007429,登記記録の閉鎖等,0,2022-07-01,2022-06-29,株式会社応用数理テフニコス,,株式会社,東京都,調布市,仙川町２丁目７番地２２,,13,208,1820002,,,2022-06-29,清算の結了等,,,2015-10-05,1,,,,,オウヨウスウリテフニコス,0
732,4020001067462,登記記録の閉鎖等,0,2022-07-01,2022-06-29,株式会社ウインファーム,,株式会社,神奈川県,川崎市宮前区,菅生ケ丘２３番１１号,,14,136,2160014,,,2022-06-29,合併による解散等,6040001016779,令和４年６月１日千葉県船橋市高瀬町６２番地２株式会社ウインファーム（6040001016779）に合併し解散,2015-10-05,1,,,,,ウインファーム,0
750,4040001025897,登記記録の閉鎖等,0,2022-07-01,2022-06-23,株式会社カイ建築設計事務所,,株式会社,千葉県,市川市,曽谷７丁目２番３号,,12,203,2720832,,,2022-06-23,清算の結了等,,,2015-10-05,1,,,,,カイケンチクセッケイジムショ,0
770,4070002031710,登記記録の閉鎖等,0,2022-07-01,2022-06-17,有限会社太田ベリーファーム,,有限会社,群馬県,太田市,内ケ島町８７６番地の１,,10,205,3730813,,,2022-06-17,清算の結了等,,,2015-10-05,1,,,,,オオタベリーファーム,0
775,4090002001810,登記記録の閉鎖等,0,2022-07-01,2022-06-24,相互不動産有限会社,,有限会社,山梨県,甲府市,下飯田１丁目１番１５号,,19,201,4000064,,,2022-06-24,清算の結了等,,,2015-10-05,1,,,,,ソウゴフドウサン,0
828,4180002081827,登記記録の閉鎖等,0,2022-07-01,2022-06-28,有限会社江菱自動車,,有限会社,愛知県,江南市,天王町駒野１３７番地,,23,217,4838114,,,2022-06-28,清算の結了等,,,2015-10-05,1,,,,,コウリョウジドウシャ,0
829,4180002082726,登記記録の閉鎖等,0,2022-07-01,2022-06-27,有限会社須賀義ニット,,有限会社,愛知県,江南市,鹿子島町尾崎６番地,,23,217,4838008,,,2022-06-27,清算の結了等,,,2015-10-05,1,,,,,スガヨシニット,0
834,4190001026220,登記記録の閉鎖等,0,2022-07-01,2022-06-27,株式会社ハウスラボ,,株式会社,三重県,松阪市,嬉野一志町３１２番地１０７,,24,204,5152305,,,2022-06-27,清算の結了等,,,2019-03-01,1,,,,,ハウスラボ,0
851,4250002008351,登記記録の閉鎖等,0,2022-07-01,2022-06-27,有限会社エフシーシー,,有限会社,山口県,下関市,大和町２丁目４番８号,,35,201,7500067,,,2022-06-27,清算の結了等,,,2015-10-05,1,,,,,エフシーシー,0
858,4290001021418,登記記録の閉鎖等,0,2022-07-01,2022-06-23,ＷＡＯ　Ｉｎｔｅｒｎａｔｉｏｎａｌ株式会社,,株式会社,福岡県,福岡市博多区,中洲５丁目１番２２号,,40,132,8100801,,,2022-06-23,清算の結了等,,,2015-10-05,1,,,,,ワオインターナショナル,0
861,4290001042892,登記記録の閉鎖等,0,2022-07-01,2022-06-24,株式会社ＲＵＳＨ,,株式会社,福岡県,太宰府市,坂本３丁目２３番１５号,,40,221,8180133,,,2022-06-24,清算の結了等,,,2015-10-05,1,,,,,ラッシュ,0
863,4290001060250,登記記録の閉鎖等,0,2022-07-01,2022-06-24,Ｗｏｒｋｉｎｇ　Ｂｒｏｔｈｅｒｓ株式会社,,株式会社,福岡県,福岡市博多区,山王１丁目１０－１１,,40,132,8120015,,,2022-06-24,清算の結了等,,,2015-10-05,1,,,,,,0
875,4320002008105,登記記録の閉鎖等,0,2022-07-01,2022-06-28,有限会社松本コーポレーション,,有限会社,大分県,大分市,賀来北１丁目４番２６号,,44,201,8700848,,,2022-06-28,清算の結了等,,,2015-10-05,1,,,,,,0
885,4370601002668,登記記録の閉鎖等,0,2022-07-01,2022-06-22,株式会社療善社,,株式会社,宮城県,宮城郡七ヶ浜町,境山２丁目１８番８号,,04,404,9850824,,,2022-06-22,清算の結了等,,,2015-10-05,1,,,,,リョウゼンシャ,0
897,4430001005018,登記記録の閉鎖等,0,2022-07-01,2022-06-20,株式会社クリエーション工房林,,株式会社,北海道,札幌市中央区,大通西２８丁目１番２５号,,01,101,0640820,,,2022-06-20,清算の結了等,,,2015-10-05,1,,,,,クリエーションコウボウハヤシ,0
903,4430002029560,登記記録の閉鎖等,0,2022-07-01,2022-06-17,マル進ウッド有限会社,,有限会社,北海道,札幌市白石区,中央一条５丁目１番１５－６０４号,,01,104,0030011,,,2022-06-17,清算の結了等,,,2015-10-05,1,,,,,マルシンウッド,0
922,5010005006557,登記記録の閉鎖等,0,2022-07-01,2022-06-28,一般社団法人建設データベース協議会,,その他の設立登記法人,東京都,中央区,八重洲１丁目２番１６号,,13,102,1030028,,,2022-06-28,清算の結了等,,,2015-10-05,1,,,,,ケンセツデータベースキョウギカイ,0
935,5010403022809,登記記録の閉鎖等,0,2022-07-01,2022-06-28,ヤングニンジャ合同会社,,合同会社,東京都,東久留米市,中央町１丁目７番１号４０４号室,,13,222,2030054,,,2022-06-28,清算の結了等,,,2020-04-08,1,,,,,ヤングニンジャ,0
954,5011102030037,登記記録の閉鎖等,0,2022-07-01,2022-06-28,マギル・ジャパン有限会社,,有限会社,東京都,新宿区,西新宿２丁目４番１号,,13,104,1600023,,,2022-06-28,清算の結了等,,,2015-10-05,1,,,,,マギルジャパン,0
960,5011501021280,登記記録の閉鎖等,0,2022-07-01,2022-06-28,楽勝株式会社,,株式会社,東京都,荒川区,荒川２丁目１番５号セントラル荒川ビル８階１号室,,13,118,1160002,,,2022-06-28,清算の結了等,,,2016-01-27,1,,,,,ラクショウ,0
974,5013301044676,登記記録の閉鎖等,0,2022-07-01,2022-06-27,ファクタリング比較コンシェル株式会社,,株式会社,東京都,豊島区,南大塚２丁目７番２号,,13,116,1700005,,,2022-06-27,清算の結了等,,,2019-10-29,1,,,,,ファクタリングヒカクコンシェル,0
991,5021005008617,登記記録の閉鎖等,0,2022-07-01,2022-06-24,一般社団法人日本カラーヒーリング協会,,その他の設立登記法人,神奈川県,逗子市,新宿３丁目６番２９号,,14,208,2490007,,,2022-06-24,清算の結了等,,,2015-10-05,1,,,,,ニホンカラーヒーリングキョウカイ,0
1000,5040001074571,登記記録の閉鎖等,0,2022-07-01,2022-06-23,スギイ株式会社,,株式会社,千葉県,館山市,北条１７５７番地の１,,12,205,2940045,,,2022-06-23,清算の結了等,,,2015-10-05,1,,,,,スギイ,0
1002,5040001089157,登記記録の閉鎖等,0,2022-07-01,2022-06-21,株式会社モリタ,,株式会社,千葉県,浦安市,堀江４丁目１６番５号,,12,227,2790041,,,2022-06-21,清算の結了等,,,2015-10-05,1,,,,,モリタ,0
1011,5060001013437,登記記録の閉鎖等,0,2022-07-01,2022-06-23,株式会社松屋肥料店,,株式会社,栃木県,矢板市,片岡１２番地,,09,211,3291571,,,2022-06-23,清算の結了等,,,2015-10-05,1,,,,,マツヤヒリョウテン,0
1024,5110002003489,登記記録の閉鎖等,0,2022-07-01,2022-06-28,有限会社スワマ,,有限会社,新潟県,新潟市中央区,関屋昭和町２丁目８４番地２１,,15,103,9518164,,,2022-06-28,清算の結了等,,,2015-10-05,1,,,,,スワマ,0
1029,5120001046331,登記記録の閉鎖等,0,2022-07-01,2022-06-27,日東企画株式会社,,株式会社,奈良県,橿原市,地黄町３４１番地の１０,,29,205,6340805,,,2022-06-27,清算の結了等,,,2015-10-05,1,,,,,ニットウキカク,0
1045,5120001162707,登記記録の閉鎖等,0,2022-07-01,2022-06-29,ＭＩキャピタル株式会社,,株式会社,大阪府,大阪市中央区,上本町西１丁目５番１８号,,27,128,5420062,,,2022-06-29,清算の結了等,,,2015-10-05,1,,,,,エムアイキャピタル,0
1052,5120001215175,登記記録の閉鎖等,0,2022-07-01,2022-06-27,株式会社ネクストインプレス,,株式会社,大阪府,大阪市中央区,南本町４丁目５番７号東亜ビル１２階,,27,128,5410054,,,2022-06-27,清算の結了等,,,2018-08-06,1,,,,,,0
1078,5140005011255,登記記録の閉鎖等,0,2022-07-01,2022-06-21,東阪神タクシー協同組合,,その他の設立登記法人,兵庫県,尼崎市,大島３丁目２８番２６号,,28,202,6600076,,,2022-06-21,清算の結了等,,,2015-10-05,1,,,,,ヒガシハンシンタクシー,0
1083,5160002013970,登記記録の閉鎖等,0,2022-07-01,2022-06-28,有限会社セルバ商業開発,,有限会社,滋賀県,守山市,梅田町２番１号セルバ守山,,25,207,5240037,,,2022-06-28,清算の結了等,,,2015-10-05,1,,,,,セルバショウギョウカイハツ,0
1106,5220002008907,登記記録の閉鎖等,0,2022-07-01,2022-06-27,有限会社いしだ動物病院,,有限会社,石川県,白山市,新田町１４番地２,,17,210,9240015,,,2022-06-27,清算の結了等,,,2015-10-05,1,,,,,イシダドウブツビョウイン,0
1127,5290801019833,登記記録の閉鎖等,0,2022-07-01,2022-06-24,株式会社福岡カネショウ,,株式会社,福岡県,福岡市博多区,祇園町８番１３号,,40,132,8120038,,,2022-06-24,清算の結了等,,,2015-10-05,1,,,,,フクオカカネショウ,0
1133,5330003008341,登記記録の閉鎖等,0,2022-07-01,2022-06-21,合同会社トラストプロデュース,,合同会社,熊本県,熊本市北区,植木町投刀塚４８４番地５,,43,105,8610141,,,2022-06-21,清算の結了等,,,2020-04-07,1,,,,,トラストプロデュース,0
1134,5340002015420,登記記録の閉鎖等,0,2022-07-01,2022-06-28,有限会社マコト駐車場,,有限会社,鹿児島県,霧島市,溝辺町麓１３６１番地４,,46,218,8996404,,,2022-06-28,清算の結了等,,,2015-10-05,1,,,,,マコトチュウシャジョウ,0
1142,5380002005418,登記記録の閉鎖等,0,2022-07-01,2022-06-24,有限会社ホームセンターゴトー,,有限会社,福島県,伊達郡国見町,大字藤田字五反田１番地の２２,,07,303,9691761,,,2022-06-24,清算の結了等,,,2015-10-05,1,,,,,ホームセンターゴトー,0
1171,5450001007093,登記記録の閉鎖等,0,2022-07-01,2022-06-30,株式会社寿企画,,株式会社,北海道,旭川市,一条通１９丁目２１８７番地,,01,204,0788211,,,2022-06-30,清算の結了等,,,2015-10-05,1,,,,,,0
1178,5500002005776,登記記録の閉鎖等,0,2022-07-01,2022-06-30,有限会社不二寝具,,有限会社,愛媛県,松山市,北梅本町６０７番地６,,38,201,7910242,,,2022-06-30,清算の結了等,,,2015-10-05,1,,,,,,0
1193,6010401106439,登記記録の閉鎖等,0,2022-07-01,2022-06-27,株式会社アストリア,,株式会社,東京都,渋谷区,恵比寿１丁目２２－３シルバープラザ恵比寿９０１,,13,113,1500013,,,2022-06-27,清算の結了等,,,2015-10-05,1,,,,,,0
1210,6010802003904,登記記録の閉鎖等,0,2022-07-01,2022-06-23,有限会社川田商店,,有限会社,東京都,大田区,千鳥３丁目２２番１２号,,13,111,1460083,,,2022-06-23,清算の結了等,,,2015-10-05,1,,,,,カワタショウテン,0
1230,6011301006497,登記記録の閉鎖等,0,2022-07-01,2022-06-27,株式会社母子衛生ベビーセンター,,株式会社,東京都,杉並区,和泉２丁目４６番２０号,,13,115,1680063,,,2022-06-27,清算の結了等,,,2015-10-05,1,,,,,,0
1242,6013101008822,登記記録の閉鎖等,0,2022-07-01,2022-06-29,株式会社ファクト建設,,株式会社,東京都,あきる野市,平沢４５７番地３,,13,228,1970812,,,2022-06-29,清算の結了等,,,2022-01-13,1,,,,,ファクトケンセツ,0
1243,6013301044675,登記記録の閉鎖等,0,2022-07-01,2022-06-27,不動産担保ローン比較コンシェル株式会社,,株式会社,東京都,豊島区,南大塚２丁目７番２号,,13,116,1700005,,,2022-06-27,清算の結了等,,,2019-10-29,1,,,,,フドウサンタンポローンヒカクコンシェル,0
1247,6020001078433,登記記録の閉鎖等,0,2022-07-01,2022-06-17,株式会社ハノス,,株式会社,神奈川県,川崎市麻生区,高石６丁目２５番６－３０１号,,14,137,2150003,,,2022-06-17,清算の結了等,,,2015-10-05,1,,,,,ハノス,0
1255,6020002099271,登記記録の閉鎖等,0,2022-07-01,2022-06-27,有限会社丸宮商事,,有限会社,神奈川県,川崎市川崎区,浜町１丁目１番１号,,14,131,2100851,,,2022-06-27,清算の結了等,,,2015-10-05,1,,,,,マルミヤショウジ,0
1269,6030002021317,登記記録の閉鎖等,0,2022-07-01,2022-06-20,有限会社綜合内装島村,,有限会社,埼玉県,さいたま市岩槻区,大字柏崎１２４５番地,,11,110,3390045,,,2022-06-20,清算の結了等,,,2015-10-05,1,,,,,,0
1274,6040001058078,登記記録の閉鎖等,0,2022-07-01,2022-06-22,岩崎建設株式会社,,株式会社,千葉県,山武市,姫島９３６番地,,12,237,2891327,,,2022-06-22,清算の結了等,,,2015-10-05,1,,,,,イワサキケンセツ,0
1282,6050002045017,登記記録の閉鎖等,0,2022-07-01,2022-06-22,有限会社メモリアル企画,,有限会社,茨城県,結城市,大字結城２４９６番地の８,,08,207,3070001,,,2022-06-22,清算の結了等,,,2015-10-05,1,,,,,メモリアルキカク,0
1286,6060001018039,登記記録の閉鎖等,0,2022-07-01,2022-06-23,Ｔプラス株式会社,,株式会社,栃木県,那須烏山市,滝田８７３番地,,09,215,3210605,,,2022-06-23,清算の結了等,,,2015-10-05,1,,,,,ティプラス,0
1320,6120005007295,登記記録の閉鎖等,0,2022-07-01,2022-06-29,長吉養鶏農業協同組合,,その他の設立登記法人,大阪府,大阪市平野区,長吉出戸５丁目３番４８号,,27,126,5470011,,,2022-06-29,清算の結了等,,,2015-10-05,1,,,,,ナガヨシヨウケイ,0
1338,6170001000943,登記記録の閉鎖等,0,2022-07-01,2022-06-30,株式会社共栄商会,,株式会社,和歌山県,和歌山市,新堀東２丁目１１番９号,,30,201,6410042,,,2022-06-30,清算の結了等,,,2015-10-05,1,,,,,キョウエイショウカイ,0
1340,6170005001079,登記記録の閉鎖等,0,2022-07-01,2022-07-01,医療法人乾医院,,その他の設立登記法人,和歌山県,和歌山市,上町６０番地,,30,201,6408239,,,2022-07-01,清算の結了等,,,2015-10-05,1,,,,,イヌイイイン,0
1348,6180002007747,登記記録の閉鎖等,0,2022-07-01,2022-06-29,有限会社大西木材,,有限会社,愛知県,名古屋市昭和区,御器所４丁目１４番１１号,,23,107,4660051,,,2022-06-29,清算の結了等,,,2015-10-05,1,,,,,オオニシモクザイ,0
1356,6180301031241,登記記録の閉鎖等,0,2022-07-01,2022-06-23,ｆｕｎ－ｄｅ株式会社,,株式会社,愛知県,豊橋市,町畑町字町畑１番地１０６,,23,201,4418108,,,2022-06-23,清算の結了等,,,2018-02-23,1,,,,,ファンデ,0
1393,6290801005766,登記記録の閉鎖等,0,2022-07-01,2022-06-28,門司飼料株式会社,,株式会社,福岡県,北九州市門司区,小森江１丁目３番１号,,40,101,8000007,,,2022-06-28,清算の結了等,,,2015-10-05,1,,,,,モジシリョウ,0
1394,6290802003892,登記記録の閉鎖等,0,2022-07-01,2022-06-30,有限会社高畑塗装,,有限会社,福岡県,北九州市戸畑区,東大谷２丁目１２番３０号,,40,105,8040031,,,2022-06-30,清算の結了等,,,2015-10-05,1,,,,,タカハタトソウ,0
1396,6320005009180,登記記録の閉鎖等,0,2022-07-01,2022-06-29,パートナーサプライビジネス協同組合,,その他の設立登記法人,大分県,竹田市,久住町大字久住２０４４番地,,44,208,8780201,,,2022-06-29,清算の結了等,,,2015-10-05,1,,,,,パートナーサプライビジネス,0
1408,6360002015558,登記記録の閉鎖等,0,2022-07-01,2022-06-17,有限会社岸本地質,,有限会社,沖縄県,宜野湾市,志真志３丁目１３番２号,,47,205,9012213,,,2022-06-17,清算の結了等,,,2015-10-05,1,,,,,,0
1409,6370002009666,登記記録の閉鎖等,0,2022-07-01,2022-06-22,有限会社岩喜,,有限会社,宮城県,仙台市青葉区,木町通２丁目１番１号,,04,101,9800801,,,2022-06-22,清算の結了等,,,2015-10-05,1,,,,,イワキ,0
1426,6430002044938,登記記録の閉鎖等,0,2022-07-01,2022-06-17,有限会社北央メディカル,,有限会社,北海道,北広島市,栄町２丁目１１番地５,,01,234,0611133,,,2022-06-17,清算の結了等,,,2015-10-05,1,,,,,ホクオウメディカル,0
1431,6470001010160,登記記録の閉鎖等,0,2022-07-01,2022-06-24,百十四財田代理店株式会社,,株式会社,香川県,三豊市,財田町財田上２２２３番地２,,37,208,7690401,,,2022-06-24,清算の結了等,,,2015-10-05,1,,,,,ヒャクジュウシサイタダイリテン,0
1440,7010001184834,登記記録の閉鎖等,0,2022-07-01,2022-06-24,ＳＲキャピタル株式会社,,株式会社,東京都,中央区,日本橋室町２丁目４番３号,,13,102,1030022,,,2022-06-24,清算の結了等,,,2017-07-13,1,,,,,エスアールキャピタル,0
1453,7010102002746,登記記録の閉鎖等,0,2022-07-01,2022-06-30,有限会社小山組,,有限会社,東京都,八王子市,散田町３丁目２番５号,,13,201,1930832,,,2022-06-30,清算の結了等,,,2015-10-05,1,,,,,コヤマグミ,0
1454,7010401092059,登記記録の閉鎖等,0,2022-07-01,2022-06-24,株式会社雄保聯合國際旅行社,,株式会社,東京都,中央区,八丁堀４丁目１３番４号ＳＫビル２階,,13,102,1040032,,,2022-06-24,清算の結了等,,,2015-10-05,1,,,,,ユウホレンゴウコクサイリョコウシャ,0
1475,7010901030237,登記記録の閉鎖等,0,2022-07-01,2022-06-28,加藤世田谷本店株式会社,,株式会社,東京都,世田谷区,深沢２丁目１３番１７号,,13,112,1580081,,,2022-06-28,清算の結了等,,,2015-10-05,1,,,,,カトウセタガヤホンテン,0
1477,7010902001848,登記記録の閉鎖等,0,2022-07-01,2022-06-28,有限会社イワモトデザイン,,有限会社,東京都,世田谷区,給田３丁目２６番３－５０６号,,13,112,1570064,,,2022-06-28,清算の結了等,,,2015-10-05,1,,,,,イワモトデザイン,0
1493,7012302008746,登記記録の閉鎖等,0,2022-07-01,2022-06-24,有限会社カインド,,有限会社,東京都,町田市,本町田１２７４番地２,,13,209,1940032,,,2022-06-24,清算の結了等,,,2015-10-05,1,,,,,カインド,0
1497,7013301007862,登記記録の閉鎖等,0,2022-07-01,2022-06-27,つばさ産業株式会社,,株式会社,東京都,豊島区,西池袋３丁目２２番１４号,,13,116,1710021,,,2022-06-27,清算の結了等,,,2015-10-05,1,,,,,ツバササンギョウ,0
1501,7013301044674,登記記録の閉鎖等,0,2022-07-01,2022-06-27,ビジネスローン比較コンシェル株式会社,,株式会社,東京都,豊島区,南大塚２丁目７番２号,,13,116,1700005,,,2022-06-27,清算の結了等,,,2019-10-29,1,,,,,ビジネスローンヒカクコンシェル,0
1505,7020001113841,登記記録の閉鎖等,0,2022-07-01,2022-06-27,株式会社エムズマリン,,株式会社,神奈川県,横浜市栄区,犬山町２０番７号,,14,115,2470026,,,2022-06-27,清算の結了等,,,2015-12-07,1,,,,,エムズマリン,0
1506,7020002057294,登記記録の閉鎖等,0,2022-07-01,2022-06-27,有限会社美木,,有限会社,神奈川県,横浜市金沢区,並木１丁目３－５－１０４,,14,108,2360005,,,2022-06-27,清算の結了等,,,2015-10-05,1,,,,,ミキ,0
1509,7020002090733,登記記録の閉鎖等,0,2022-07-01,2022-06-21,有限会社メック,,有限会社,神奈川県,川崎市高津区,梶ケ谷６丁目７番地２７号,,14,134,2130015,,,2022-06-21,清算の結了等,,,2015-10-05,1,,,,,メック,0
1511,7020002099106,登記記録の閉鎖等,0,2022-07-01,2022-06-24,有限会社望星,,有限会社,神奈川県,川崎市川崎区,小田６丁目１１番２４号,,14,131,2100846,,,2022-06-24,清算の結了等,,,2015-10-05,1,,,,,ボウセイ,0
1516,7021002016521,登記記録の閉鎖等,0,2022-07-01,2022-06-27,有限会社オフィスティーワイ,,有限会社,神奈川県,鎌倉市,腰越５丁目８番７号,,14,204,2480033,,,2022-06-27,清算の結了等,,,2015-10-05,1,,,,,オフィスティーワイ,0
1523,7040001007307,登記記録の閉鎖等,0,2022-07-01,2022-06-23,株式会社ミツワ機材,,株式会社,千葉県,千葉市若葉区,みつわ台５丁目２１番３１号,,12,104,2640032,,,2022-06-23,清算の結了等,,,2015-10-05,1,,,,,,0
1541,7070002019430,登記記録の閉鎖等,0,2022-07-01,2022-06-23,有限会社鳥年フーズ,,有限会社,群馬県,伊勢崎市,曲輪町２６番６号,,10,204,3720055,,,2022-06-23,清算の結了等,,,2015-10-05,1,,,,,トリトシフーズ,0
1549,7090002005296,登記記録の閉鎖等,0,2022-07-01,2022-06-27,有限会社エムティストーン,,有限会社,山梨県,甲府市,武田３丁目５番２０号,,19,201,4000016,,,2022-06-27,清算の結了等,,,2015-10-05,1,,,,,エムティストーン,0
1552,7100003005450,登記記録の閉鎖等,0,2022-07-01,2022-06-28,合同会社黒耀花豆,,合同会社,長野県,小県郡長和町,長久保１６７０番地,,20,350,3860602,,,2022-06-28,清算の結了等,,,2019-10-17,1,,,,,コクヨウハナマメ,0
1557,7120001041850,登記記録の閉鎖等,0,2022-07-01,2022-06-28,株式会社エフエフシー,,株式会社,大阪府,大阪市西区,立売堀１丁目９番１９号,,27,106,5500012,,,2022-06-28,清算の結了等,,,2015-10-05,1,,,,,エフエフシー,0
1595,7180001017812,登記記録の閉鎖等,0,2022-07-01,2022-06-27,日動商事株式会社,,株式会社,愛知県,名古屋市東区,白壁１丁目４５番地,,23,102,4610011,,,2022-06-27,清算の結了等,,,2015-10-05,1,,,,,ニチドウショウジ,0
1612,7210002004673,登記記録の閉鎖等,0,2022-07-01,2022-06-24,有限会社若菜企画,,有限会社,福井県,福井市,殿下町第３４号３３番地,,18,201,9188216,,,2022-06-24,清算の結了等,,,2015-10-05,1,,,,,ワカナキカク,0
1622,7260001024809,登記記録の閉鎖等,0,2022-07-01,2022-06-30,クリーン・アップ・パーティ株式会社,,株式会社,岡山県,岡山市北区,西古松２丁目２番８号ラポルト大元駅前１Ｆ,,33,101,7000927,,,2022-06-30,清算の結了等,,,2015-10-05,1,,,,,クリーンアップパーティ,0
1628,7290802021828,登記記録の閉鎖等,0,2022-07-01,2022-06-29,司産業有限会社,,有限会社,福岡県,北九州市小倉北区,須賀町８番２５－５０２号,,40,106,8020034,,,2022-06-29,清算の結了等,,,2015-10-05,1,,,,,ツカササンギョウ,0
1639,7390001016090,登記記録の閉鎖等,0,2022-07-01,2022-06-28,株式会社あい藍,,株式会社,山形県,山形市,平清水１丁目１番１５号,,06,201,9902401,,,2022-06-28,清算の結了等,,,2020-05-19,1,,,,,アイアイ,0
1655,7440003000161,登記記録の閉鎖等,0,2022-07-01,2022-06-24,白崎合名会社,,合名会社,北海道,函館市,豊川町２１番９号,,01,202,0400065,,,2022-06-24,清算の結了等,,,2015-10-05,1,,,,,シラサキ,0
1656,7450005001990,登記記録の閉鎖等,0,2022-07-01,2022-06-30,特定非営利活動法人エル・ピー・シー,,その他の設立登記法人,北海道,旭川市,東四条６丁目２番１５号,,01,204,0700024,,,2022-06-30,清算の結了等,,,2015-10-05,1,,,,,エルピーシー,0
1657,7460102006652,登記記録の閉鎖等,0,2022-07-01,2022-06-29,有限会社今村呉服店,,有限会社,北海道,広尾郡大樹町,東本通１５番地,,01,641,0892134,,,2022-06-29,清算の結了等,,,2015-10-05,1,,,,,イマムラゴフクテン,0
1669,8010001175551,登記記録の閉鎖等,0,2022-07-01,2022-06-30,広島電力株式会社,,株式会社,広島県,広島市中区,銀山町３－１ひろしまハイビル２１、１６Ｆ,,34,101,7300022,,,2022-06-30,清算の結了等,,,2016-05-12,1,,,,,ヒロシマデンリョク,0
1694,8010801023959,登記記録の閉鎖等,0,2022-07-01,2022-06-27,株式会社ユニオンスクエア,,株式会社,東京都,渋谷区,恵比寿１丁目２２－３シルバープラザ恵比寿９０１,,13,113,1500013,,,2022-06-27,清算の結了等,,,2015-10-05,1,,,,,,0
1711,8011101084188,登記記録の閉鎖等,0,2022-07-01,2022-06-22,株式会社ライフアップ,,株式会社,千葉県,松戸市,新松戸３丁目３０９番地ベルナーデ２０３号,,12,207,2700034,,,2022-06-22,清算の結了等,,,2018-05-22,1,,,,,ライフアップ,0
1719,8011401014687,登記記録の閉鎖等,0,2022-07-01,2022-06-28,株式会社木村,,株式会社,東京都,板橋区,高島平２丁目２６番７－９２１号,,13,119,1750082,,,2022-06-28,清算の結了等,,,2015-10-05,1,,,,,キムラ,0
1725,8011603001979,登記記録の閉鎖等,0,2022-07-01,2022-06-29,つつい建物管理合同会社,,合同会社,東京都,練馬区,春日町２丁目１５番２０号,,13,120,1790074,,,2022-06-29,清算の結了等,,,2016-12-15,1,,,,,ツツイタテモノカンリ,0
1736,8013301044681,登記記録の閉鎖等,0,2022-07-01,2022-06-27,転職サイトおすすめ比較プロ株式会社,,株式会社,東京都,豊島区,南大塚２丁目７番２号,,13,116,1700005,,,2022-06-27,清算の結了等,,,2019-10-29,1,,,,,テンショクサイトオススメヒカクプロ,0
1742,8020001127634,登記記録の閉鎖等,0,2022-07-01,2022-06-27,Ｚｅｒｏ　Ｏｎｅ　Ｔｅｃｈｎｏｌｏｇｙ　Ｊａｐａｎ株式会社,,株式会社,神奈川県,横浜市港北区,綱島上町１番地１,,14,109,2230055,,,2022-06-27,清算の結了等,,,2018-08-20,1,,,,,ゼロワンテクノロジージャパン,0
1757,8021005008333,登記記録の閉鎖等,0,2022-07-01,2022-06-24,特定非営利活動法人ずし楽習塾推進の会,,その他の設立登記法人,神奈川県,逗子市,逗子４丁目２番１１号,,14,208,2490006,,,2022-06-24,清算の結了等,,,2015-10-05,1,,,,,ズシガクシュウジュクスイシンノカイ,0
1771,8040003018689,登記記録の閉鎖等,0,2022-07-01,2022-06-17,合同会社サクセスホーム,,合同会社,千葉県,香取市,佐原ロ２０２８番地２２,,12,236,2870001,,,2022-06-17,清算の結了等,,,2021-10-06,1,,,,,サクセスホーム,0
1774,8050001021545,登記記録の閉鎖等,0,2022-07-01,2022-06-22,行方コンクリート株式会社,,株式会社,茨城県,行方市,麻生８５８番地１,,08,233,3113832,,,2022-06-22,清算の結了等,,,2015-10-05,1,,,,,ナメカタコンクリート,0
1775,8050002021503,登記記録の閉鎖等,0,2022-07-01,2022-06-21,有限会社セクレタリーサービス,,有限会社,茨城県,つくば市,天久保２丁目９番地の２,,08,220,3050005,,,2022-06-21,清算の結了等,,,2015-10-05,1,,,,,セクレタリーサービス,0
1784,8070001033043,登記記録の閉鎖等,0,2022-07-01,2022-06-23,株式会社ナチュレグリーンファーム,,株式会社,群馬県,前橋市,文京町１丁目２９番１号,,10,201,3710801,,,2022-06-23,清算の結了等,,,2017-01-13,1,,,,,ナチュレグリーンファーム,0
1789,8080001010322,登記記録の閉鎖等,0,2022-07-01,2022-06-29,株式会社日本情報処理,,株式会社,静岡県,静岡市駿河区,曲金３丁目９番３号,,22,102,4228006,,,2022-06-29,清算の結了等,,,2015-10-05,1,,,,,ニホンジョウホウショリ,0
1835,8190005011140,登記記録の閉鎖等,0,2022-07-01,2022-06-24,一般社団法人三重中勢カマダフットボールクラブ,,その他の設立登記法人,三重県,津市,香良洲町１７０３番地１,,24,201,5140315,,,2022-06-24,清算の結了等,,,2018-01-05,1,,,,,ミエチュウセイカマダフットボールクラブ,0
1857,8260003001474,登記記録の閉鎖等,0,2022-07-01,2022-06-27,アクセルビート合同会社,,合同会社,岡山県,都窪郡早島町,若宮２６番地１２,,33,423,7010302,,,2022-06-27,清算の結了等,,,2015-10-05,1,,,,,アクセルビート,0
1882,8370001047525,登記記録の閉鎖等,0,2022-07-01,2022-06-22,株式会社アストライア,,株式会社,宮城県,登米市,迫町新田字山崎１８０－８,,04,212,9894601,,,2022-06-22,清算の結了等,,,2021-08-26,1,,,,,アストライア,0
1884,8380002028787,登記記録の閉鎖等,0,2022-07-01,2022-06-24,有限会社はらがまフーズ,,有限会社,福島県,相馬市,尾浜字港町１番地３７,,07,209,9760022,,,2022-06-24,清算の結了等,,,2015-10-05,1,,,,,ハラガマフーズ,0
1894,8430001074918,登記記録の閉鎖等,0,2022-07-01,2022-06-17,株式会社エムズ,,株式会社,北海道,札幌市豊平区,豊平四条７丁目３番５－１１０１号,,01,105,0620904,,,2022-06-17,清算の結了等,,,2017-09-08,1,,,,,エムズ,0
1899,8480001005406,登記記録の閉鎖等,0,2022-07-01,2022-06-28,河野工業株式会社,,株式会社,徳島県,板野郡藍住町,乙瀬字中田２２番地５,,36,403,7711240,,,2022-06-28,合併による解散等,8480001010315,令和４年６月２４日徳島県板野郡藍住町奥野字西中須１０５番地１後藤工業株式会社（8480001010315）に合併し解散,2015-10-05,1,,,,,カワノコウギョウ,0
1930,9011001004138,登記記録の閉鎖等,0,2022-07-01,2022-06-02,株式会社エフエム,,株式会社,東京都,渋谷区,渋谷３丁目１１番２号パインビル,,13,113,1500002,,,2022-06-02,合併による解散等,1011001137309,令和４年６月１日東京都目黒区青葉台三丁目７番１７号株式会社ＹＳＫ４（1011001137309）に合併し解散,2015-10-05,1,,,,,エフエム,0
1934,9011001125446,登記記録の閉鎖等,0,2022-07-01,2022-06-29,ＳｔａｒＡＰＰ株式会社,,株式会社,東京都,渋谷区,桜丘町２３番１７号シティコート桜丘４０８,,13,113,1500031,,,2022-06-29,清算の結了等,,,2018-12-04,1,,,,,,0
1951,9013301012489,登記記録の閉鎖等,0,2022-07-01,2022-06-28,株式会社ロガータ,,株式会社,東京都,豊島区,雑司が谷３丁目６番８号,,13,116,1710032,,,2022-06-28,清算の結了等,,,2015-10-05,1,,,,,ロガータ,0
1952,9013301044680,登記記録の閉鎖等,0,2022-07-01,2022-06-27,クレジットカード比較プロ株式会社,,株式会社,東京都,豊島区,南大塚２丁目７番２号,,13,116,1700005,,,2022-06-27,清算の結了等,,,2019-10-29,1,,,,,クレジットカードヒカクプロ,0
1959,9020001140710,登記記録の閉鎖等,0,2022-07-01,2022-06-27,株式会社互光メンテナンスサービス,,株式会社,神奈川県,横浜市鶴見区,鶴見中央４丁目４２番１８号,,14,101,2300051,,,2022-06-27,清算の結了等,,,2021-04-05,1,,,,,ゴコウメンテナンスサービス,0
1968,9030001003858,登記記録の閉鎖等,0,2022-07-01,2022-06-17,株式会社新カナメ商會,,株式会社,埼玉県,さいたま市浦和区,東仲町１１番１７号７０３,,11,107,3300056,,,2022-06-17,清算の結了等,,,2015-10-05,1,,,,,シンカナメショウカイ,0
1984,9050005000998,登記記録の閉鎖等,0,2022-07-01,2022-06-23,茨城県央防カビ業協同組合,00023544,その他の設立登記法人,茨城県,水戸市,酒門町４３６５番地２,,08,201,3100841,,,2022-06-23,清算の結了等,,,2015-10-05,1,,,,,イバラキケンオウボウカビギョウ,0
1986,9060001011585,登記記録の閉鎖等,0,2022-07-01,2022-06-23,穐葉アンティークジュウリー美術館株式会社,,株式会社,栃木県,那須郡那須町,大字高久丙１７９０番地２０,,09,407,3250302,,,2022-06-23,清算の結了等,,,2015-10-05,1,,,,,アキバアンティークジュウリービジュツカン,0
1997,9080002016227,登記記録の閉鎖等,0,2022-07-01,2022-06-30,有限会社丸信,,有限会社,静岡県,焼津市,大村３丁目２番地の３,,22,212,4250082,,,2022-06-30,清算の結了等,,,2015-10-05,1,,,,,,0
1998,9080101001807,登記記録の閉鎖等,0,2022-07-01,2022-06-30,株式会社丸五,,株式会社,静岡県,沼津市,本田町７番３３号,,22,203,4100004,,,2022-06-30,清算の結了等,,,2015-10-05,1,,,,,マルゴ,0
2000,9080402014672,登記記録の閉鎖等,0,2022-07-01,2022-06-28,有限会社石田電気工事,,有限会社,静岡県,浜松市浜北区,新原３５３４番地の２,,22,136,4340003,,,2022-06-28,清算の結了等,,,2015-10-05,1,,,,,イシダデンキコウジ,0
2023,9130001049899,登記記録の閉鎖等,0,2022-07-01,2022-06-28,株式会社サンコンサルティング,,株式会社,京都府,京都市下京区,大宮通四条下る四条大宮町３３番地四条大宮ビル２０１号,,26,106,6008389,,,2022-06-28,清算の結了等,,,2015-10-05,1,,,,,サンコンサルティング,0
2050,9180003013790,登記記録の閉鎖等,0,2022-07-01,2022-06-27,合資会社山田農牧本社,,合資会社,愛知県,あま市,七宝町徳実郷４９番地,,23,237,4970016,,,2022-06-27,清算の結了等,,,2015-10-05,1,,,,,ヤマダノウボクホンシャ,0
2075,9260001022587,登記記録の閉鎖等,0,2022-07-01,2022-06-29,ＡＮＤ技研株式会社,,株式会社,岡山県,玉野市,田井３丁目３１番１０号,,33,204,7060001,,,2022-06-29,清算の結了等,,,2015-10-05,1,,,,,エーエヌディーギケン,0
2076,9260002020391,登記記録の閉鎖等,0,2022-07-01,2022-06-30,有限会社ノンノン＆麻依,,有限会社,岡山県,倉敷市,玉島１３６５番地の１,,33,202,7138102,,,2022-06-30,清算の結了等,,,2015-10-05,1,,,,,ノンノンアンドマイ,0
2094,9340002009765,登記記録の閉鎖等,0,2022-07-01,2022-06-30,有限会社本山商店,,有限会社,鹿児島県,鹿児島市,船津町１番２１号,,46,201,8920831,,,2022-06-30,清算の結了等,,,2022-05-25,1,,,,,モトヤマショウテン,0
