sequenceNumber,corporateNumber,process,correct,updateDate,changeDate,name,nameImageId,kind,prefectureName,cityName,streetNumber,addressImageId,prefectureCode,cityCode,postCode,addressOutside,addressOutsideImageId,closeDate,closeCause,successorCorporateNumber,changeCause,assignmentDate,latest,enName,enPrefectureName,enCityName,enAddressOutside,furigana,hihyoji
6,1010001221790,新規,0,2021-10-15,2021-10-15,ＬＩＮＫ株式会社,,株式会社,東京都,中央区,日本橋人形町２丁目２５番１１号三幸ビル,,13,102,1030013,,,,,,,2021-10-15,1,,,,,リンク,0
7,1010001221808,新規,0,2021-10-15,2021-10-15,ベネリックデジタルエンターテインメント株式会社,,株式会社,東京都,千代田区,神田駿河台２丁目９番地,,13,101,1010062,,,,,,,2021-10-15,1,,,,,ベネリックデジタルエンターテインメント,0
8,1010001221816,新規,0,2021-10-15,2021-10-15,株式会社ＤＴＧ,,株式会社,東京都,中央区,晴海１丁目８－５－７０６,,13,102,1040053,,,,,,,2021-10-15,1,,,,,ディーティージー,0
13,1010403026301,新規,0,2021-10-15,2021-10-15,ＮＹＨＡＫ　Ｔｒａｄｉｎｇ合同会社,,合同会社,東京都,港区,南青山２丁目２－１５,,13,103,1070062,,,,,,,2021-10-15,1,,,,,ナイハックトレーディング,0
15,1010405020277,新規,0,2021-10-15,2021-10-15,一般財団法人ロートこどもみらい財団,,その他の設立登記法人,東京都,港区,海岸１丁目２番２０号汐留ビルディング２０階（ロート製薬株式会社東京支社内）,,13,103,1050022,,,,,,,2021-10-15,1,,,,,ロートコドモミライザイダン,0
20,1010701041638,新規,0,2021-10-15,2021-10-15,株式会社Ｊｅｔｔｙ　Ｐｒｏｄｕｃｔｉｏｎ,,株式会社,東京都,品川区,東品川４丁目１１番３６－１０２９号,,13,109,1400002,,,,,,,2021-10-15,1,,,,,ジェッティプロダクション,0
21,1010701041670,新規,0,2021-10-15,2021-10-15,グリービズ株式会社,,株式会社,東京都,品川区,西五反田６丁目１４番７－１５０１号,,13,109,1410031,,,,,,,2021-10-15,1,,,,,グリービズ,0
24,1010805002890,新規,0,2021-10-15,2021-10-15,一般財団法人こんどＢ,,その他の設立登記法人,東京都,大田区,萩中２丁目１番１５号,,13,111,1440047,,,,,,,2021-10-15,1,,,,,コンドビー,0
38,1011101096594,新規,0,2021-10-15,2021-10-15,日本ＡＤＩＧＩ株式会社,,株式会社,東京都,新宿区,百人町２丁目１－４５赤煉瓦２１２号,,13,104,1690073,,,,,,,2021-10-15,1,,,,,ニホンアディジー,0
39,1011103011089,新規,0,2021-10-15,2021-10-15,キッコージン合同会社,,合同会社,東京都,新宿区,新宿２丁目１３番３号２Ａ,,13,104,1600022,,,,,,,2021-10-15,1,,,,,キッコージン,0
42,1011403003471,新規,0,2021-10-15,2021-10-15,Ｌｏｕｖｒｅ合同会社,,合同会社,東京都,板橋区,板橋３丁目９番９号浜野ビル３０３,,13,119,1730004,,,,,,,2021-10-15,1,,,,,,0
44,1011501027380,新規,0,2021-10-15,2021-10-15,ヘムライフ株式会社,,株式会社,東京都,北区,浮間１丁目７－２３兆豊浮間ビル５０２号室,,13,117,1150051,,,,,,,2021-10-15,1,,,,,ヘムライフ,0
45,1011501027389,新規,0,2021-10-15,2021-10-15,株式会社ａｇａｉｎ,,株式会社,東京都,北区,滝野川４丁目１３－１０,,13,117,1140023,,,,,,,2021-10-15,1,,,,,アゲイン,0
57,1013301048160,新規,0,2021-10-15,2021-10-15,株式会社チアワークス,,株式会社,東京都,豊島区,上池袋２丁目２８番５号,,13,116,1700012,,,,,,,2021-10-15,1,,,,,チアワークス,0
59,1013305003269,新規,0,2021-10-15,2021-10-15,一般社団法人起業家支援協会,,その他の設立登記法人,東京都,豊島区,池袋３丁目３０番２１号,,13,116,1710014,,,,,,,2021-10-15,1,,,,,キギョウカシエンキョウカイ,0
65,1020001143448,新規,0,2021-10-15,2021-10-15,株式会社龍興,,株式会社,神奈川県,横浜市中区,蓬莱町２丁目４番地２グランステイツ横濱２０４,,14,104,2310048,,,,,,,2021-10-15,1,,,,,リュウセイ,0
66,1020001143497,新規,0,2021-10-15,2021-10-15,株式会社ＡＳＯ,,株式会社,神奈川県,川崎市中原区,中丸子１３番地１７ザ・コスギタワー９０３,,14,133,2110012,,,,,,,2021-10-15,1,,,,,エーエスオー,0
69,1020003020645,新規,0,2021-10-15,2021-10-15,Ｖｙｖｉａｌ　Ｓｕｚｕｋｉ　Ｓｔｕｄｉｏ合同会社,,合同会社,神奈川県,横浜市中区,本牧間門１６番５号,,14,104,2310825,,,,,,,2021-10-15,1,,,,,ヴィヴィアールスズキスタディオ,0
71,1020005015239,新規,0,2021-10-15,2021-10-15,一般社団法人あおば共育研究会,,その他の設立登記法人,神奈川県,川崎市麻生区,上麻生２丁目２７番２５－１０２号,,14,137,2150021,,,,,,,2021-10-15,1,,,,,アオバキョウイクケンキュウカイ,0
76,1021003010990,新規,0,2021-10-15,2021-10-15,合同会社ＲＯＢＯＴ．ＩＣＨＩＢＡ,,合同会社,神奈川県,相模原市緑区,大山町１番４１－１３０３号,,14,151,2520146,,,,,,,2021-10-15,1,,,,,ロボットイチバ,0
85,1030003018135,新規,0,2021-10-15,2021-10-15,合同会社勝守,,合同会社,埼玉県,入間市,高倉３丁目６番７号,00124578,11,225,3580021,,,,,,,2021-10-15,1,,,,,カチマモリ,0
86,1030005020568,新規,0,2021-10-15,2021-10-15,医療法人社団百英会,,その他の設立登記法人,埼玉県,ふじみ野市,上福岡６丁目４番５号メディカルセンター上福岡１階Ａ号室,,11,245,3560004,,,,,,,2021-10-15,1,,,,,ヒャクエイカイ,0
93,1040001120379,新規,0,2021-10-15,2021-10-15,アートブレーリ株式会社,,株式会社,千葉県,市川市,市川南１丁目１番１－１６１３号（ザタワーズイースト）,,12,203,2720033,,,,,,,2021-10-15,1,,,,,アートブレーリ,0
103,1050003006138,新規,0,2021-10-15,2021-10-15,Ｔ．Ｄ．ＮＩＰＰＯＮ合同会社,,合同会社,茨城県,鉾田市,飯島８９２－１７,,08,234,3112112,,,,,,,2021-10-15,1,,,,,ティーディーニッポン,0
105,1060001034189,新規,0,2021-10-15,2021-10-15,大木商店株式会社,,株式会社,栃木県,下都賀郡壬生町,大字中泉１２７番地４,,09,361,3210232,,,,,,,2021-10-15,1,,,,,,0
106,1060001034197,新規,0,2021-10-15,2021-10-15,株式会社丸高屋ホールディングス,00124580,株式会社,栃木県,那須塩原市,太夫塚６丁目２３３番地１０,,09,213,3292735,,,,,,,2021-10-15,1,,,,,マルタカヤホールディングス,0
107,1060001034206,新規,0,2021-10-15,2021-10-15,株式会社竜の道プロジェクト,,株式会社,栃木県,芳賀郡茂木町,大字茂木１５３番地,,09,343,3213531,,,,,,,2021-10-15,1,,,,,リュウノミチプロジェクト,0
114,1080005007404,新規,0,2021-10-15,2021-10-15,医療法人社団今村歯科医院,,その他の設立登記法人,静岡県,静岡市葵区,新通２丁目１番２０号,,22,101,4200065,,,,,,,2021-10-15,1,,,,,イマムラシカイイン,0
119,1100001034721,新規,0,2021-10-15,2021-10-15,株式会社清水会計,,株式会社,長野県,上田市,住吉３０７番地１３,,20,203,3860002,,,,,,,2021-10-15,1,,,,,シミズカイケイ,0
124,1110003004606,新規,0,2021-10-15,2021-10-15,合同会社Ａ鷹,,合同会社,新潟県,上越市,中郷区二本木１７４５番地１さくらハイツ３０３号,,15,222,9492304,,,,,,,2021-10-15,1,,,,,エイタカ,0
131,1120001241126,新規,0,2021-10-15,2021-10-15,株式会社エスアンドエムズィー,,株式会社,大阪府,大阪市浪速区,大国２丁目１８番１２号グルパ大国１階,,27,111,5560014,,,,,,,2021-10-15,1,,,,,エスアンドエムズィー,0
132,1120001241191,新規,0,2021-10-15,2021-10-15,ブリッジケア株式会社,,株式会社,大阪府,大阪市平野区,加美北８丁目２３番７号メゾン・ド・ユリー２０５,,27,126,5470001,,,,,,,2021-10-15,1,,,,,ブリッジケア,0
133,1120001241209,新規,0,2021-10-15,2021-10-15,株式会社トレボル,,株式会社,大阪府,大阪市大正区,平尾２丁目１６番１７号,,27,108,5510012,,,,,,,2021-10-15,1,,,,,トレボル,0
134,1120001241225,新規,0,2021-10-15,2021-10-15,株式会社ＰＯＰＰＥ,,株式会社,大阪府,大阪市城東区,今福西６丁目８番２－６０１号,,27,118,5360004,,,,,,,2021-10-15,1,,,,,ポッペ,0
139,1120003020437,新規,0,2021-10-15,2021-10-15,合同会社フィットケー,,合同会社,大阪府,大阪市浪速区,元町３丁目１２－２５－２０２,,27,111,5560016,,,,,,,2021-10-15,1,,,,,フィットケー,0
143,1120901045056,新規,0,2021-10-15,2021-10-15,株式会社芯凛,,株式会社,大阪府,豊中市,名神口３丁目３－３０,,27,203,5610841,,,,,,,2021-10-15,1,,,,,シンリン,0
150,1130003007549,新規,0,2021-10-15,2021-10-15,アンドエイチミュージアム合同会社,,合同会社,京都府,京都市中京区,三条通高倉東入桝屋町５３番地１Ｄｕｃｅｍｉｘビルヂング４０４号,,26,104,6048111,,,,,,,2021-10-15,1,,,,,アンドエイチミュージアム,0
158,1140001123504,新規,0,2021-10-15,2021-10-15,株式会社吉本重機,,株式会社,兵庫県,姫路市,飾磨区中野田１丁目２８番地ペアーレ３０１号,,28,201,6728045,,,,,,,2021-10-15,1,,,,,ヨシモトジュウキ,0
161,1140003016870,新規,0,2021-10-15,2021-10-15,合同会社スカイカンパニー,,合同会社,兵庫県,西宮市,甲子園口４丁目２０番９号,,28,204,6638113,,,,,,,2021-10-15,1,,,,,スカイカンパニー,0
164,1160001023727,新規,0,2021-10-15,2021-10-15,エムティエル株式会社,,株式会社,滋賀県,東近江市,五個荘日吉町１２６－７,,25,213,5291403,,,,,,,2021-10-15,1,,,,,エムティエル,0
167,1170001016829,新規,0,2021-10-15,2021-10-15,株式会社Ｌ．,,株式会社,和歌山県,和歌山市,杉ノ馬場２丁目９１番地,,30,201,6408212,,,,,,,2021-10-15,1,,,,,エルドット,0
169,1170003001647,新規,0,2021-10-15,2021-10-15,合同会社Ｙ’ｓ,,合同会社,和歌山県,和歌山市,西庄１０３６番地１２５,,30,201,6400112,,,,,,,2021-10-15,1,,,,,ワイズ,0
177,1180001148316,新規,0,2021-10-15,2021-10-15,株式会社Ｔｒｙ　Ａｇａｉｎ,,株式会社,愛知県,岩倉市,大山寺町７７５番地,,23,228,4820014,,,,,,,2021-10-15,1,,,,,トライアゲイン,0
181,1180003023021,新規,0,2021-10-15,2021-10-15,合同会社スローライフ,,合同会社,愛知県,名古屋市南区,豊田１丁目３７番５号,,23,112,4570841,,,,,,,2021-10-15,1,,,,,スローライフ,0
182,1180003023087,新規,0,2021-10-15,2021-10-15,合資会社ひまわり,,合資会社,愛知県,名古屋市北区,龍ノ口町１丁目２７番地,,23,103,4620869,,,,,,,2021-10-15,1,,,,,ヒマワリ,0
187,1190003003798,新規,0,2021-10-15,2021-10-15,亀山グリーン不動産管理合同会社,,合同会社,三重県,亀山市,羽若町６９９番地３,,24,210,5190164,,,,,,,2021-10-15,1,,,,,カメヤマグリーンフドウサンカンリ,0
193,1210005009989,新規,0,2021-10-15,2021-10-15,一般社団法人ＴＲＧ,,その他の設立登記法人,福井県,敦賀市,若泉町３番地,,18,202,9140027,,,,,,,2021-10-15,1,,,,,ティーアールジー,0
213,1260001036099,新規,0,2021-10-15,2021-10-15,株式会社ｂｒｅａｋｆａｓｔ,,株式会社,岡山県,倉敷市,児島下の町９丁目１番５号,,33,202,7110906,,,,,,,2021-10-15,1,,,,,,0
265,1430003013252,新規,0,2021-10-15,2021-10-15,合同会社ＮＴＮ,,合同会社,北海道,札幌市白石区,本郷通２丁目南２番２号,,01,104,0030024,,,,,,,2021-10-15,1,,,,,エヌティエヌ,0
268,1450001013509,新規,0,2021-10-15,2021-10-15,株式会社エンゼルジャパン,,株式会社,北海道,旭川市,東光六条１丁目４番３号,,01,204,0788346,,,,,,,2021-10-15,1,,,,,エンゼルジャパン,0
272,1470003002053,新規,0,2021-10-15,2021-10-15,合同会社Ｌｓｅｎｔ,,合同会社,香川県,木田郡三木町,大字氷上３５１番地５,,37,341,7610612,,,,,,,2021-10-15,1,,,,,エルセント,0
274,1500005008425,新規,0,2021-10-15,2021-10-15,特定非営利活動法人かみじま町空き家よくし隊,,その他の設立登記法人,愛媛県,越智郡上島町,弓削下弓削３８４番地１,,38,356,7942506,,,,,,,2021-10-15,1,,,,,カミジマチョウアキヤヨクシタイ,0
276,1700150105345,新規,0,2021-10-15,2021-10-15,ＮＵＷＡＮ　ＭＯＴＯＲＳ,,外国会社等,千葉県,茂原市,下永吉６９８－１０、１Ｆ－３,,12,210,2970035,スリランカ民主社会主義共和国、ピリマサワラ、ゴウィンダラ、ダウラガラロード,,,,,,2021-10-15,1,,,,,ヌワンモータース,0
289,2010001221773,新規,0,2021-10-15,2021-10-15,ＤＰ　Ｃｌｅａｎｔｅｃｈジャパン株式会社,,株式会社,東京都,千代田区,紀尾井町３番２９号,,13,101,1020094,,,,,,,2021-10-15,1,,,,,ディーピークリンテックジャパン,0
290,2010001221798,新規,0,2021-10-15,2021-10-15,株式会社Ｏｎａｋａｍａ,,株式会社,東京都,千代田区,外神田３丁目６番１号,,13,101,1010021,,,,,,,2021-10-15,1,,,,,オナカマ,0
291,2010001221831,新規,0,2021-10-15,2021-10-15,株式会社住宅産業推進協議会,,株式会社,東京都,中央区,佃１丁目４番４号,,13,102,1040051,,,,,,,2021-10-15,1,,,,,ジュウタクサンギョウスイシンキョウギカイ,0
303,2010401163244,新規,0,2021-10-15,2021-10-15,ズーパーマルクト株式会社,,株式会社,東京都,港区,赤坂７丁目５番１６－２０５号,,13,103,1070052,,,,,,,2021-10-15,1,,,,,ズーパーマルクト,0
308,2010601060084,新規,0,2021-10-15,2021-10-15,株式会社オフィスｈ,,株式会社,東京都,江東区,新砂３丁目４番４３号－１７１２,,13,108,1360075,,,,,,,2021-10-15,1,,,,,オフィスエイチ,0
313,2010603009204,新規,0,2021-10-15,2021-10-15,Ｊｏｅ’ｓ　Ｉｎｃ．合同会社,,合同会社,東京都,墨田区,東駒形２丁目５番９号大井ビル５階,,13,107,1300005,,,,,,,2021-10-15,1,,,,,ジョーズインク,0
316,2010701041637,新規,0,2021-10-15,2021-10-15,株式会社Ｉｄｅ,,株式会社,東京都,品川区,西五反田２丁目１０番８号,,13,109,1410031,,,,,,,2021-10-15,1,,,,,イデ,0
317,2010801032395,新規,0,2021-10-15,2021-10-15,株式会社ｒｏｕｘ,,株式会社,東京都,大田区,本羽田１丁目２８番５号,,13,111,1440044,,,,,,,2021-10-15,1,,,,,ルーツ,0
328,2011001143438,新規,0,2021-10-15,2021-10-15,株式会社ＲＩＮＡＢＯ,,株式会社,東京都,渋谷区,宇田川町１６－８渋谷センタービル３Ｆ,,13,113,1500042,,,,,,,2021-10-15,1,,,,,リナボ,0
331,2011003013556,新規,0,2021-10-15,2021-10-15,３１Ｓｏｕｔｈ　Ｆｉｒｍ合同会社,,合同会社,東京都,渋谷区,幡ヶ谷３丁目２３－１０,,13,113,1510072,,,,,,,2021-10-15,1,,,,,サーティーワンサウスファーム,0
332,2011003013564,新規,0,2021-10-15,2021-10-15,合同会社猫目堂,,合同会社,東京都,目黒区,自由が丘２丁目８番２９号ディアナガーデン自由が丘３０４,,13,110,1520035,,,,,,,2021-10-15,1,,,,,ネコメドウ,0
341,2011101096593,新規,0,2021-10-15,2021-10-15,株式会社ＳＣＶ,,株式会社,東京都,新宿区,歌舞伎町２丁目４２番３号林ビル４Ｆ,,13,104,1600021,,,,,,,2021-10-15,1,,,,,エスシーブイ,0
342,2011101096602,新規,0,2021-10-15,2021-10-15,日本一株式会社,,株式会社,東京都,新宿区,西新宿６丁目１５番１号,,13,104,1600023,,,,,,,2021-10-15,1,,,,,ニホンイチ,0
344,2011105010014,新規,0,2021-10-15,2021-10-15,税理士法人加藤・船木会計,,その他の設立登記法人,東京都,新宿区,市谷左内町１１番地市ヶ谷左内坂ハイム７０７号,,13,104,1620846,,,,,,,2021-10-15,1,,,,,カトウフナキカイケイ,0
346,2011403003470,新規,0,2021-10-15,2021-10-15,ＴＫＮ　ＵＮＩＴＥＤ合同会社,,合同会社,東京都,板橋区,清水町４１番１－Ｎ１３０１号,,13,119,1740053,,,,,,,2021-10-15,1,,,,,ティーケーエヌユナイテッド,0
349,2011603003411,新規,0,2021-10-15,2021-10-15,ＭＡＥ合同会社,,合同会社,東京都,練馬区,石神井町６丁目１番２５号ａｒｔｉｓｔａ２０４号,,13,120,1770041,,,,,,,2021-10-15,1,,,,,エムエーイー,0
353,2011803004829,新規,0,2021-10-15,2021-10-15,ＭＤＬ合同会社,,合同会社,東京都,足立区,千住東２丁目２０番１２－４１６号,,13,121,1200025,,,,,,,2021-10-15,1,,,,,エムディーエル,0
357,2013303005852,新規,0,2021-10-15,2021-10-15,合同会社エコム,,合同会社,東京都,豊島区,高田３丁目１５番７－３０６号,,13,116,1710033,,,,,,,2021-10-15,1,,,,,エコム,0
362,2020001143488,新規,0,2021-10-15,2021-10-15,株式会社キャリアテック,,株式会社,神奈川県,横浜市磯子区,坂下町１１番１０号,,14,107,2350003,,,,,,,2021-10-15,1,,,,,キャリアテック,0
380,2030001144849,新規,0,2021-10-15,2021-10-15,株式会社ＢＯＵＮＴＹ,,株式会社,埼玉県,さいたま市南区,辻４丁目５－２,,11,108,3360026,,,,,,,2021-10-15,1,,,,,,0
391,2040001120642,新規,0,2021-10-15,2021-10-15,シンフォニティ株式会社,,株式会社,千葉県,市川市,市川１丁目３番３号ブォーノ市川３０１,,12,203,2720034,,,,,,,2021-10-15,1,,,,,シンフォニティ,0
395,2040003018752,新規,0,2021-10-15,2021-10-15,合同会社オフィスＫＡＯＲＩ,,合同会社,千葉県,船橋市,本町７丁目２５番１５－３１０号,,12,204,2730005,,,,,,,2021-10-15,1,,,,,オフィスカオリ,0
398,2050001049988,新規,0,2021-10-15,2021-10-15,株式会社モノバズー,,株式会社,茨城県,鹿嶋市,大字長栖２２８８－１４８,,08,222,3140022,,,,,,,2021-10-15,1,,,,,モノバズー,0
399,2050001049996,新規,0,2021-10-15,2021-10-15,株式会社ＡＲＩＳＥ,,株式会社,茨城県,常総市,大崎町１５７番地,,08,211,3030012,,,,,,,2021-10-15,1,,,,,アライズ,0
403,2060001034196,新規,0,2021-10-15,2021-10-15,あかつきリビング株式会社,,株式会社,栃木県,小山市,暁３丁目４番地１パールハイツ１０７号室,,09,208,3290211,,,,,,,2021-10-15,1,,,,,アカツキリビング,0
404,2060001034205,新規,0,2021-10-15,2021-10-15,株式会社ＬＯＬ,,株式会社,栃木県,那須塩原市,塩原９２７番地３０２号室,,09,213,3292921,,,,,,,2021-10-15,1,,,,,エルオーエル,0
408,2070001038543,新規,0,2021-10-15,2021-10-15,株式会社Ｌａｉ軽井沢,,株式会社,群馬県,吾妻郡嬬恋村,大字大前字細原２２６３番地５８５,,10,425,3771612,,,,,,,2021-10-15,1,,,,,ライカルイザワ,0
417,2110003004605,新規,0,2021-10-15,2021-10-15,合同会社デイブレイク,,合同会社,新潟県,新潟市西区,内野西が丘２丁目１０番２８号,,15,107,9502157,,,,,,,2021-10-15,1,,,,,デイブレイク,0
425,2120001240779,新規,0,2021-10-15,2021-10-15,Ｔ　Ａｓｓｅｔ　Ｍａｎａｇｅｍｅｎｔ株式会社,,株式会社,大阪府,大阪市都島区,善源寺町２丁目２番５－１０３５号,,27,102,5340015,,,,,,,2021-10-15,1,,,,,ティーアセットマネジメント,0
426,2120001241158,新規,0,2021-10-15,2021-10-15,株式会社ベスト・パートナーズ,,株式会社,大阪府,大阪市中央区,平野町２丁目２番７号,,27,128,5410046,,,,,,,2021-10-15,1,,,,,ベストパートナーズ,0
431,2120003020411,新規,0,2021-10-15,2021-10-15,Ｐｌａｔｉｎｕｍｃａｒｔ合同会社,,合同会社,大阪府,大阪市北区,梅田２丁目５番１３号桜橋第一ビル３０４号,,27,127,5300001,,,,,,,2021-10-15,1,,,,,プラチナカート,0
432,2120003020428,新規,0,2021-10-15,2021-10-15,合同会社華,,合同会社,大阪府,大阪市西成区,潮路１丁目１番１３－１０２号,,27,122,5570052,,,,,,,2021-10-15,1,,,,,ハナ,0
441,2130003007548,新規,0,2021-10-15,2021-10-15,フリースタイル合同会社,,合同会社,京都府,京都市左京区,上高野稲荷町４,,26,103,6060087,,,,,,,2021-10-15,1,,,,,フリースタイル,0
454,2140001123461,新規,0,2021-10-15,2021-10-15,株式会社シリゼ,,株式会社,兵庫県,尼崎市,西長洲町２丁目３２番３号,,28,202,6600805,,,,,,,2021-10-15,1,,,,,シリゼ,0
462,2160001023718,新規,0,2021-10-15,2021-10-15,あおぞら運送株式会社,,株式会社,滋賀県,大津市,石居３丁目２番２５号,,25,201,5202272,,,,,,,2021-10-15,1,,,,,アオゾラウンソウ,0
463,2160001023726,新規,0,2021-10-15,2021-10-15,株式会社滋案,,株式会社,滋賀県,湖南市,平松５１９番地３５,,25,211,5203232,,,,,,,2021-10-15,1,,,,,シアン,0
466,2160003002406,新規,0,2021-10-15,2021-10-15,合同会社ａｚｚｕｒｒｏ,,合同会社,滋賀県,栗東市,下鈎１１９５番地５８,,25,208,5203026,,,,,,,2021-10-15,1,,,,,アズーロ,0
482,2180001148273,新規,0,2021-10-15,2021-10-15,株式会社ＫＧクラフト,,株式会社,愛知県,春日井市,白山町８丁目３番地２,,23,206,4870034,,,,,,,2021-10-15,1,,,,,ケージークラフトクラフト,0
486,2180003023086,新規,0,2021-10-15,2021-10-15,合同会社ｍｅｍｏｒｉａ,,合同会社,愛知県,名古屋市東区,白壁２丁目１番２８号,,23,102,4610011,,,,,,,2021-10-15,1,,,,,メモリア,0
487,2180005019479,新規,0,2021-10-15,2021-10-15,一般社団法人次世代就労継続支援センター,,その他の設立登記法人,愛知県,名古屋市中川区,万町１９０７番地,,23,110,4540872,,,,,,,2021-10-15,1,,,,,ジセダイシュウロウケイゾクシエンセンター,0
489,2200005013264,新規,0,2021-10-15,2021-10-15,特定非営利活動法人ＧＥＴ　ＭＹＳＥＬＦ,,その他の設立登記法人,岐阜県,山県市,出戸１２番地,,21,215,5012254,,,,,,,2021-10-15,1,,,,,ゲットマイセルフ,0
494,2220001024478,新規,0,2021-10-15,2021-10-15,ＲＭＣホールディングス株式会社,,株式会社,石川県,金沢市,桜町８番２４－１号,,17,201,9200923,,,,,,,2021-10-15,1,,,,,アールエムシーホールディングス,0
500,2240001058763,新規,0,2021-10-15,2021-10-15,株式会社ＭＯＮＳＯＯ,,株式会社,広島県,広島市西区,草津南１丁目４番３－３０５号,,34,104,7330863,,,,,,,2021-10-15,1,,,,,モンソー,0
503,2240003005326,新規,0,2021-10-15,2021-10-15,合同会社マブハイ・コーポレーション,,合同会社,広島県,東広島市,西大沢１丁目１３番１７号,,34,212,7390037,,,,,,,2021-10-15,1,,,,,マブハイコーポレーション,0
507,2260001036098,新規,0,2021-10-15,2021-10-15,株式会社ＴＳＵＢＡＳＡ,,株式会社,岡山県,岡山市中区,海吉２３１７番地９,,33,102,7038261,,,,,,,2021-10-15,1,,,,,ツバサ,0
515,2290001094829,新規,0,2021-10-15,2021-10-15,株式会社ｙｏｕ,,株式会社,福岡県,福岡市中央区,今川２丁目６番４１号,,40,133,8100054,,,,,,,2021-10-15,1,,,,,ユー,0
518,2290003011724,新規,0,2021-10-15,2021-10-15,合同会社ツリィ,,合同会社,福岡県,福岡市西区,野方２丁目１２番４８号,,40,135,8190043,,,,,,,2021-10-15,1,,,,,ツリィ,0
521,2290803003953,新規,0,2021-10-15,2021-10-15,合同会社サーティ・フォー,,合同会社,福岡県,田川市,大字伊田２６７０番地２７,,40,206,8250002,,,,,,,2021-10-15,1,,,,,サーティフォー,0
529,2340003003600,新規,0,2021-10-15,2021-10-15,合同会社ＷＩＴ,,合同会社,鹿児島県,鹿児島市,堀江町９番８号,,46,201,8920824,,,,,,,2021-10-15,1,,,,,ウィット,0
537,2380001032275,新規,0,2021-10-15,2021-10-15,株式会社ＣＨＯＵＣＨＯＵ－ＬＥＡ,,株式会社,福島県,福島市,三河北町６番１６号２階,,07,201,9608054,,,,,,,2021-10-15,1,,,,,シュシュレア,0
560,2700150105336,新規,0,2021-10-15,2021-10-15,Ｎｅｕｒｏｎｅｔｉｃｓ，Ｉｎｃ．,,外国会社等,,,,,,,,３２２２　Ｐｈｏｅｎｉｘｖｉｌｌｅ　Ｐｉｋｅ　Ｍａｌｖｅｒｎ，Ｐｅｎｎｓｙｌｖａｎｉａ　１９３５５　ＵＳＡ,,,,,,2021-10-15,1,,,,,ニユーロネテイクスインク,0
570,3010001221748,新規,0,2021-10-15,2021-10-15,株式会社２ＤＡ,,株式会社,東京都,中央区,銀座６丁目１３－１６－５Ｆ,,13,102,1040061,,,,,,,2021-10-15,1,,,,,ツーディーエー,0
571,3010001221789,新規,0,2021-10-15,2021-10-15,株式会社コミュカル,,株式会社,東京都,千代田区,丸の内１丁目８番２号鉄鋼ビルディング４階,,13,101,1000005,,,,,,,2021-10-15,1,,,,,コミュカル,0
572,3010001221814,新規,0,2021-10-15,2021-10-15,株式会社ハイフィールド,,株式会社,東京都,中央区,日本橋兜町１７番２号兜町第６葉山ビル４階,,13,102,1030026,,,,,,,2021-10-15,1,,,,,ハイフィールド,0
573,3010001221863,新規,0,2021-10-15,2021-10-15,株式会社ＹＡＲＤ,,株式会社,東京都,千代田区,九段南１丁目５番６号りそな九段ビル７階,,13,101,1020074,,,,,,,2021-10-15,1,,,,,ヤード,0
576,3010003036038,新規,0,2021-10-15,2021-10-15,アルテリンガジャパン合同会社,,合同会社,東京都,中央区,銀座１丁目２２番１１号銀座大竹ビジデンス２階,,13,102,1040061,,,,,,,2021-10-15,1,,,,,アルテリンガジャパン,0
587,3010401163037,新規,0,2021-10-15,2021-10-15,株式会社レスパ,,株式会社,東京都,港区,南青山１丁目１５番９号,,13,103,1070062,,,,,,,2021-10-15,1,,,,,レスパ,0
588,3010401163292,新規,0,2021-10-15,2021-10-15,株式会社プロテリアル,,株式会社,東京都,港区,港南１丁目２番７０号,,13,103,1080075,,,,,,,2021-10-15,1,,,,,プロテリアル,0
589,3010403026324,新規,0,2021-10-15,2021-10-15,ＤＦ合同会社,,合同会社,東京都,港区,赤坂２丁目２３番１号アークヒルズフロントタワーＲｏＰ７０３,,13,103,1070052,,,,,,,2021-10-15,1,,,,,ディーエフ,0
590,3010501047965,新規,0,2021-10-15,2021-10-15,株式会社タニコーポレーション,,株式会社,東京都,台東区,寿２丁目１番６号アイステージ寿１０１号室,,13,106,1110042,,,,,,,2021-10-15,1,,,,,,0
593,3010701041644,新規,0,2021-10-15,2021-10-15,株式会社Ｌｉｌｌｍ,,株式会社,東京都,品川区,小山６丁目１－３－１０３,,13,109,1420062,,,,,,,2021-10-15,1,,,,,リルム,0
594,3010705003277,新規,0,2021-10-15,2021-10-15,一般社団法人日本ハイヒールウォーキング協会,,その他の設立登記法人,東京都,品川区,上大崎３丁目１１番７－２０５号,,13,109,1410021,,,,,,,2021-10-15,1,,,,,ニホンハイヒールウォーキングキョウカイ,0
602,3011003013555,新規,0,2021-10-15,2021-10-15,カド・インベストメント合同会社,,合同会社,東京都,渋谷区,桜丘町２９番２５号渋谷パールホーム７０３,,13,113,1500031,,,,,,,2021-10-15,1,,,,,カドインベストメント,0
603,3011003013563,新規,0,2021-10-15,2021-10-15,合同会社ＢＲＡＮＤ　ＧＬＯＢＡＬ,,合同会社,東京都,渋谷区,恵比寿４丁目５番２３号,,13,113,1500013,,,,,,,2021-10-15,1,,,,,ブランドグローバル,0
604,3011003013571,新規,0,2021-10-15,2021-10-15,合同会社Ｃｕｒｉｏｕｓ　Ｆｕｎｄ,,合同会社,東京都,目黒区,上目黒１丁目１７番１２号,,13,110,1530051,,,,,,,2021-10-15,1,,,,,キュリオスファンド,0
605,3011101096592,新規,0,2021-10-15,2021-10-15,株式会社ＰＵＲＧＥ　ＴＯＫＹＯ,,株式会社,東京都,新宿区,高田馬場１丁目３－１２,,13,104,1690075,,,,,,,2021-10-15,1,,,,,,0
606,3011101096601,新規,0,2021-10-15,2021-10-15,株式会社Ｈａｂｉｔ,,株式会社,東京都,新宿区,西新宿７丁目４－７,,13,104,1600023,,,,,,,2021-10-15,1,,,,,,0
607,3011103011087,新規,0,2021-10-15,2021-10-15,Ｈ＆Ｔ合同会社,,合同会社,東京都,新宿区,歌舞伎町１丁目１８番７号新宿第１ビル４階,,13,104,1600021,,,,,,,2021-10-15,1,,,,,エイチアンドティ,0
618,3011801039834,新規,0,2021-10-15,2021-10-15,株式会社サンホーム,,株式会社,東京都,足立区,千住曙町１１－４,,13,121,1200023,,,,,,,2021-10-15,1,,,,,サンホーム,0
621,3012401038350,新規,0,2021-10-15,2021-10-15,ｓｔａＡｇｅ株式会社,,株式会社,東京都,小金井市,東町４丁目４０－２０Ｃ１０２,,13,210,1840011,,,,,,,2021-10-15,1,,,,,スターエイジ,0
622,3012401038391,新規,0,2021-10-15,2021-10-15,株式会社Ｋｅｙｍ,,株式会社,東京都,稲城市,若葉台２丁目１４番地の３,,13,225,2060824,,,,,,,2021-10-15,1,,,,,キーム,0
628,3013301048126,新規,0,2021-10-15,2021-10-15,株式会社フラットコレクション,,株式会社,東京都,豊島区,要町１丁目４０番１５号,,13,116,1710043,,,,,,,2021-10-15,1,,,,,フラットコレクション,0
629,3013301048159,新規,0,2021-10-15,2021-10-15,株式会社コーウェルフードサービス,,株式会社,東京都,豊島区,北大塚２丁目２０番４号,,13,116,1700004,,,,,,,2021-10-15,1,,,,,コーウェルフードサービス,0
630,3013303005851,新規,0,2021-10-15,2021-10-15,合同会社ひまわり,,合同会社,東京都,豊島区,南大塚２丁目１１－１０ミモザビル３階,,13,116,1700005,,,,,,,2021-10-15,1,,,,,ヒマワリ,0
633,3020001143495,新規,0,2021-10-15,2021-10-15,橘ソリューション株式会社,,株式会社,神奈川県,横浜市西区,楠町９番地７ＴＡＫビル５階,,14,103,2200003,,,,,,,2021-10-15,1,,,,,タチバナソリューション,0
636,3020003020643,新規,0,2021-10-15,2021-10-15,合同会社Ｃｏｐａｉｎｓ,,合同会社,神奈川県,横浜市旭区,上川井町１１５１－１,,14,112,2410802,,,,,,,2021-10-15,1,,,,,コパインズ,0
637,3020003020651,新規,0,2021-10-15,2021-10-15,合同会社ペアハート,,合同会社,神奈川県,横浜市西区,北幸１丁目１１番１号水信ビル７階,,14,103,2200004,,,,,,,2021-10-15,1,,,,,ペアハート,0
654,3030001144773,新規,0,2021-10-15,2021-10-15,株式会社ＴＫＦ,,株式会社,埼玉県,さいたま市南区,辻３丁目９－２２－１,00124579,11,108,3360026,,,,,,,2021-10-15,1,,,,,ティーケーエフ,0
660,3030003018133,新規,0,2021-10-15,2021-10-15,合同会社３５１０,,合同会社,埼玉県,上尾市,原新町１９番地１６,,11,219,3620016,,,,,,,2021-10-15,1,,,,,サンゴーイチゼロ,0
661,3030003018141,新規,0,2021-10-15,2021-10-15,合同会社サン商事,,合同会社,埼玉県,草加市,中根２丁目６番３号,,11,221,3400005,,,,,,,2021-10-15,1,,,,,サンショウジ,0
664,3040001120641,新規,0,2021-10-15,2021-10-15,みらいブライト株式会社,,株式会社,千葉県,船橋市,湊町２丁目１－１８勝山ビル２Ｆ,,12,204,2730011,,,,,,,2021-10-15,1,,,,,ミライブライト,0
675,3060003003834,新規,0,2021-10-15,2021-10-15,合同会社３ｉｓ,,合同会社,栃木県,佐野市,奈良渕町３１４番地２１,,09,204,3270842,,,,,,,2021-10-15,1,,,,,スリーアイズ,0
680,3080101022841,新規,0,2021-10-15,2021-10-15,株式会社シードプラス,,株式会社,静岡県,三島市,文教町１丁目７番２５号,,22,206,4110033,,,,,,,2021-10-15,1,,,,,シードプラス,0
681,3080103002437,新規,0,2021-10-15,2021-10-15,合同会社ＡＲＡＬＩＹＡ　ＴＲＡＤＩＮＧ,,合同会社,静岡県,富士宮市,源道寺町１０８５番地ハイツ和光２０１,,22,207,4180074,,,,,,,2021-10-15,1,,,,,アラリヤテレーディング,0
683,3090003001975,新規,0,2021-10-15,2021-10-15,合同会社シビルボス,,合同会社,山梨県,甲府市,大里町３６８９番地２,,19,201,4000053,,,,,,,2021-10-15,1,,,,,シビルボス,0
700,3120001240778,新規,0,2021-10-15,2021-10-15,Ｔ　Ｓｔｕｄｉｏ　Ｍａｎａｇｅｍｅｎｔ株式会社,,株式会社,大阪府,大阪市都島区,善源寺町２丁目２番５－１０３５号,,27,102,5340015,,,,,,,2021-10-15,1,,,,,ティースタジオマネジメント,0
701,3120001241198,新規,0,2021-10-15,2021-10-15,株式会社ジャイロニー,,株式会社,大阪府,大阪市中央区,南船場４丁目１０番５号南船場ＳＯＨＯビル７０２,,27,128,5420081,,,,,,,2021-10-15,1,,,,,ジャイロニー,0
702,3120001241215,新規,0,2021-10-15,2021-10-15,株式会社ダイパック,,株式会社,大阪府,大阪市淀川区,宮原４丁目１番１４号,,27,123,5320003,,,,,,,2021-10-15,1,,,,,ダイパック,0
717,3122001035274,新規,0,2021-10-15,2021-10-15,株式会社ボヌール・シュエット,,株式会社,大阪府,八尾市,安中町２丁目３番１３号,,27,212,5810085,,,,,,,2021-10-15,1,,,,,ボヌールシュエット,0
743,3170001016827,新規,0,2021-10-15,2021-10-15,ＳＷｉ株式会社,,株式会社,和歌山県,和歌山市,杭ノ瀬３２８番地３,,30,201,6410001,,,,,,,2021-10-15,1,,,,,エスダブリューアイ,0
749,3180001148322,新規,0,2021-10-15,2021-10-15,株式会社エイト,,株式会社,愛知県,長久手市,鴨田１０２番地,,23,238,4801165,,,,,,,2021-10-15,1,,,,,エイト,0
757,3190001028779,新規,0,2021-10-15,2021-10-15,株式会社ＳＯＵＮＤ　ＰＯＴＡＴＯ,,株式会社,三重県,津市,久居明神町２４０１番地１,,24,201,5141101,,,,,,,2021-10-15,1,,,,,サウンドポテト,0
762,3200001039295,新規,0,2021-10-15,2021-10-15,株式会社かごはら,,株式会社,岐阜県,郡上市,白鳥町二日町１５８３番地９,,21,219,5015103,,,,,,,2021-10-15,1,,,,,カゴハラ,0
763,3200001039304,新規,0,2021-10-15,2021-10-15,株式会社柳屋本店,,株式会社,岐阜県,関市,西田原４５８番地,,21,205,5013928,,,,,,,2021-10-15,1,,,,,ヤナギヤホンテン,0
765,3220003003132,新規,0,2021-10-15,2021-10-15,合同会社明花,,合同会社,石川県,七尾市,東浜町ニ部５番地,,17,202,9260383,,,,,,,2021-10-15,1,,,,,ミョウカ,0
772,3240001058762,新規,0,2021-10-15,2021-10-15,大瀧ベンダー株式会社,,株式会社,広島県,広島市南区,出島２丁目１４番１９号,,34,103,7340013,,,,,,,2021-10-15,1,,,,,オオタキベンダー,0
795,3290001094919,新規,0,2021-10-15,2021-10-15,ポコムーチョ株式会社,,株式会社,福岡県,福岡市中央区,白金１丁目１０－３０ＰＯＣＯＭＵＣＨＯ,,40,133,8100012,,,,,,,2021-10-15,1,,,,,ポコムーチョ,0
796,3290001095017,新規,0,2021-10-15,2021-10-15,株式会社アンジュレーション,,株式会社,福岡県,福岡市南区,大楠１丁目１６番５号,,40,134,8150082,,,,,,,2021-10-15,1,,,,,アンジュレーション,0
802,3320003003634,新規,0,2021-10-15,2021-10-15,ｗａｌｋ合同会社,,合同会社,大分県,大分市,大字一尺屋３５４０番地の１,,44,201,8792203,,,,,,,2021-10-15,1,,,,,ウォーク,0
804,3330001029077,新規,0,2021-10-15,2021-10-15,株式会社東昇,,株式会社,熊本県,熊本市中央区,帯山６丁目７－１３６アベニューつるお１０２号室,,43,101,8620924,,,,,,,2021-10-15,1,,,,,トウショウ,0
807,3340001024176,新規,0,2021-10-15,2021-10-15,株式会社紅,,株式会社,鹿児島県,鹿児島市,吉野町２２４０番地１６,,46,201,8920871,,,,,,,2021-10-15,1,,,,,クレナイ,0
809,3340003003599,新規,0,2021-10-15,2021-10-15,合同会社零,,合同会社,鹿児島県,肝属郡東串良町,新川西３７０２番地１,,46,482,8931614,,,,,,,2021-10-15,1,,,,,ゼロ,0
828,3410001012990,新規,0,2021-10-15,2021-10-15,株式会社Ｍ２プロジェクト,,株式会社,秋田県,秋田市,御野場６丁目６番１１号,,05,201,0101424,,,,,,,2021-10-15,1,,,,,エムツープロジェクト,0
837,3440001008961,新規,0,2021-10-15,2021-10-15,株式会社みらいハウス,,株式会社,北海道,函館市,湯川町１丁目２０番１５号,,01,202,0420932,,,,,,,2021-10-15,1,,,,,ミライハウス,0
850,4010001221771,新規,0,2021-10-15,2021-10-15,株式会社喜安ビジネスマネジメント,,株式会社,東京都,中央区,日本橋２丁目１番３号,,13,102,1030027,,,,,,,2021-10-15,1,,,,,キヤスビジネスマネジメント,0
855,4010003036029,新規,0,2021-10-15,2021-10-15,Ａｘｅｒａ　Ｊａｐａｎ合同会社,,合同会社,東京都,千代田区,霞が関３丁目２番６号東京倶楽部ビルディング１１階,,13,101,1000013,,,,,,,2021-10-15,1,,,,,アクセラジャパン,0
856,4010003036037,新規,0,2021-10-15,2021-10-15,ソフィア・フィナンシャル合同会社,,合同会社,東京都,中央区,佃１丁目１１番９－５１４号,,13,102,1040051,,,,,,,2021-10-15,1,,,,,,0
872,4010401163218,新規,0,2021-10-15,2021-10-15,株式会社リブフォー,,株式会社,東京都,港区,浜松町２丁目２番１５号浜松町ダイヤビル２Ｆ,,13,103,1050013,,,,,,,2021-10-15,1,,,,,リブフォー,0
878,4010403026281,新規,0,2021-10-15,2021-10-15,合同会社ニコニコホールディングス,,合同会社,東京都,港区,新橋５丁目１３番７号港新ビル３階３０１号室,,13,103,1050004,,,,,,,2021-10-15,1,,,,,ニコニコホールディングス,0
879,4010403026323,新規,0,2021-10-15,2021-10-15,ＭＡＧＥ合同会社,,合同会社,東京都,港区,麻布十番１丁目２番７号,,13,103,1060045,,,,,,,2021-10-15,1,,,,,マゲ,0
880,4010405020282,新規,0,2021-10-15,2021-10-15,社会保険労務士法人舟木事務所,,その他の設立登記法人,東京都,港区,新橋２丁目１２番７号労金新橋ビル６階,,13,103,1050004,,,,,,,2021-10-15,1,,,,,フナキジムショ,0
882,4010601060090,新規,0,2021-10-15,2021-10-15,株式会社アジュール,,株式会社,東京都,江東区,佐賀２丁目１０番２１,,13,108,1350031,,,,,,,2021-10-15,1,,,,,アジュール,0
883,4010701041643,新規,0,2021-10-15,2021-10-15,株式会社Ｂｏｄｙ　Ｅｎｅｒｇｙ,,株式会社,東京都,品川区,東五反田１丁目４番３号ル・リオン五反田１００３,,13,109,1410022,,,,,,,2021-10-15,1,,,,,ボディエナジー,0
898,4011103011086,新規,0,2021-10-15,2021-10-15,合同会社ゲサ・ロウズ,,合同会社,東京都,新宿区,西早稲田２丁目１７番３２号,,13,104,1690051,,,,,,,2021-10-15,1,,,,,ゲサロウズ,0
912,4011801039833,新規,0,2021-10-15,2021-10-15,株式会社リアクリ,,株式会社,東京都,葛飾区,東金町２丁目１９番１８号２０３,,13,122,1250041,,,,,,,2021-10-15,1,,,,,リアクリ,0
917,4012803002630,新規,0,2021-10-15,2021-10-15,合同会社ホルスフィールド,,合同会社,東京都,立川市,高松町３丁目１５番２号ラフィネ立川２０５号,,13,202,1900011,,,,,,,2021-10-15,1,,,,,ホルスフィールド,0
922,4013305003266,新規,0,2021-10-15,2021-10-15,メゾン椎名町管理組合法人,,その他の設立登記法人,東京都,豊島区,南長崎３丁目１５番１２号,,13,116,1710052,,,,,,,2021-10-15,1,,,,,メゾンシイナマチ,0
930,4020001143445,新規,0,2021-10-15,2021-10-15,株式会社ｉｓｔ,,株式会社,神奈川県,横浜市旭区,鶴ケ峰本町１丁目１９番２１号,,14,112,2410021,,,,,,,2021-10-15,1,,,,,イスト,0
933,4020005015236,新規,0,2021-10-15,2021-10-15,リカルド協同組合,,その他の設立登記法人,神奈川県,横浜市中区,本牧町１丁目３８本牧ビル２０３室,,14,104,2310806,,,,,,,2021-10-15,1,,,,,リカルド,0
939,4021005012322,新規,0,2021-10-15,2021-10-15,一般社団法人三崎動物保護センター,,その他の設立登記法人,神奈川県,三浦市,三崎５丁目１２番３号,,14,210,2380243,,,,,,,2021-10-15,1,,,,,ミサキドウブツホゴセンター,0
953,4030003018140,新規,0,2021-10-15,2021-10-15,合同会社ＳＢＭ,,合同会社,埼玉県,さいたま市見沼区,大和田町２丁目１１７　０－６,,11,104,3370053,,,,,,,2021-10-15,1,,,,,エスビーエム,0
962,4040005021389,新規,0,2021-10-15,2021-10-15,医療法人社団Ｍｅｄｉｃａｌ　Ｋ,,その他の設立登記法人,千葉県,旭市,イの２６７６番地１ショッピングセンターサンモール２階,,12,215,2892511,,,,,,,2021-10-15,1,,,,,メディカルケイ,0
969,4060001034194,新規,0,2021-10-15,2021-10-15,株式会社ｅｐｉｃｅ,,株式会社,栃木県,宇都宮市,新里町丁１１１９番地８６,,09,201,3212118,,,,,,,2021-10-15,1,,,,,エピス,0
978,4080103002436,新規,0,2021-10-15,2021-10-15,サード・プレイス合同会社,,合同会社,静岡県,富士市,柚木１０８番地の３１,,22,210,4160908,,,,,,,2021-10-15,1,,,,,サードプレイス,0
999,4120001240777,新規,0,2021-10-15,2021-10-15,Ｔ　Ｈｏｌｄｉｎｇｓ株式会社,,株式会社,大阪府,大阪市都島区,善源寺町２丁目２番５－１０３５号,,27,102,5340015,,,,,,,2021-10-15,1,,,,,ティーホールディングス,0
1000,4120001241189,新規,0,2021-10-15,2021-10-15,株式会社ＰＯＷＥＲＨＯＵＳＥ　ＧＹＭ　ＯＳＡＫＡ　ＪＡＰＡＮ,,株式会社,大阪府,大阪市北区,西天満３丁目４番１４－１１０３号,,27,127,5300047,,,,,,,2021-10-15,1,,,,,パワーハウスジムオオサカジャパン,0
1001,4120001241197,新規,0,2021-10-15,2021-10-15,株式会社日建シンセリティー,,株式会社,大阪府,大阪市東淀川区,井高野２丁目４番５１号,,27,114,5330001,,,,,,,2021-10-15,1,,,,,ニッケンシンセリティー,0
1002,4120001241239,新規,0,2021-10-15,2021-10-15,株式会社Ｔ’ｓオフィス,,株式会社,大阪府,大阪市北区,梅田１丁目３番１－１０００号,,27,127,5300001,,,,,,,2021-10-15,1,,,,,ティーズオフィス,0
1003,4120001241247,新規,0,2021-10-15,2021-10-15,株式会社ＥＣＳグループ,,株式会社,大阪府,大阪市浪速区,湊町１丁目２番１７号,,27,111,5560017,,,,,,,2021-10-15,1,,,,,イーシーエスグループ,0
1006,4120003020426,新規,0,2021-10-15,2021-10-15,ＭｏｃｏｃｏＴＥＣＨ合同会社,,合同会社,大阪府,大阪市北区,角田町８－４７阪急グランドビル２０Ｆ,,27,127,5300017,,,,,,,2021-10-15,1,,,,,モココテック,0
1023,4140001123492,新規,0,2021-10-15,2021-10-15,株式会社好田工業,,株式会社,兵庫県,加古川市,志方町志方町１５８６－５,,28,210,6750321,,,,,,,2021-10-15,1,,,,,コウダコウギョウ,0
1034,4170001016826,新規,0,2021-10-15,2021-10-15,ＳＷ－ｍｏｌｄ株式会社,,株式会社,和歌山県,和歌山市,杭ノ瀬３２８番地３,,30,201,6410001,,,,,,,2021-10-15,1,,,,,エスダブリューモールド,0
1041,4180001148296,新規,0,2021-10-15,2021-10-15,株式会社Ａ・１インテリア,,株式会社,愛知県,愛西市,大井町同所１２５番地１,,23,232,4960921,,,,,,,2021-10-15,1,,,,,エイワンインテリア,0
1043,4180305009252,新規,0,2021-10-15,2021-10-15,行政書士法人Ｌｉｂｅｒｔｅ,,その他の設立登記法人,愛知県,豊橋市,向山台町１３番地の７,,23,201,4400865,,,,,,,2021-10-15,1,,,,,リベルテ,0
1044,4190003003787,新規,0,2021-10-15,2021-10-15,合同会社ｆｒｅｅｄｏｍ,,合同会社,三重県,津市,高茶屋小森町１８１３番地１２,,24,201,5140817,,,,,,,2021-10-15,1,,,,,フリーダム,0
1046,4200001039294,新規,0,2021-10-15,2021-10-15,株式会社Ｃｏｎｎｅｃｔ　Ｄｅｓｉｇｎ,,株式会社,岐阜県,岐阜市,鷺山北町４番７号,,21,201,5020872,,,,,,,2021-10-15,1,,,,,コネクトデザイン,0
1047,4200001039303,新規,0,2021-10-15,2021-10-15,ＳＰＣ株式会社,,株式会社,岐阜県,羽島市,正木町南及３丁目１１３番地,,21,209,5016211,,,,,,,2021-10-15,1,,,,,エスピーシー,0
1061,4250005008695,新規,0,2021-10-15,2021-10-15,一般社団法人ひなた,,その他の設立登記法人,山口県,宇部市,八王子町６番２０号,,35,202,7550007,,,,,,,2021-10-15,1,,,,,ヒナタ,0
1064,4260003003697,新規,0,2021-10-15,2021-10-15,合同会社健康増進・長寿社会研究所,,合同会社,岡山県,岡山市北区,芳賀５３０３岡山リサーチパークインキュベーションセンター,,33,101,7011221,,,,,,,2021-10-15,1,,,,,ケンコウゾウシンチョウジュシャカイケンキュウショ,0
1070,4290001094926,新規,0,2021-10-15,2021-10-15,株式会社マルアイ,,株式会社,福岡県,飯塚市,飯塚三丁目２,,40,205,8200041,,,,,,,2021-10-15,1,,,,,マルアイ,0
1076,4290003011706,新規,0,2021-10-15,2021-10-15,合同会社ＢＴＳ,,合同会社,福岡県,福岡市博多区,中洲１丁目４番９号,,40,132,8100801,,,,,,,2021-10-15,1,,,,,ビーティーエス,0
1081,4300001012670,新規,0,2021-10-15,2021-10-15,株式会社ＥＶＥＲ　ＢＬＵＥ,,株式会社,佐賀県,唐津市,原１２１２番地１８,,41,202,8470031,,,,,,,2021-10-15,1,,,,,エバーブルー,0
1086,4320003003633,新規,0,2021-10-15,2021-10-15,合同会社ワイケイファーム,,合同会社,大分県,大分市,富士見が丘東５丁目１１番１号,,44,201,8701176,,,,,,,2021-10-15,1,,,,,ワイケイファーム,0
1105,4390001016639,新規,0,2021-10-15,2021-10-15,株式会社たから,,株式会社,山形県,天童市,東本町２丁目５番２４号,,06,210,9940026,,,,,,,2021-10-15,1,,,,,タカラ,0
1121,4490001010020,新規,0,2021-10-15,2021-10-15,高知ファイティングドッグス株式会社,,株式会社,高知県,高知市,春野町東諸木３５２４,,39,201,7810315,,,,,,,2021-10-15,1,,,,,コウチファイティングドッグス,0
1140,5010001221754,新規,0,2021-10-15,2021-10-15,Ｓ．Ｒ．Ｌｅａｔｈｅｒ株式会社,,株式会社,東京都,中央区,日本橋本町４丁目４番２号,,13,102,1030023,,,,,,,2021-10-15,1,,,,,エスアールレザー,0
1141,5010001221804,新規,0,2021-10-15,2021-10-15,株式会社デンソ分割準備会社,,株式会社,東京都,千代田区,外神田２丁目３番６号,,13,101,1010021,,,,,,,2021-10-15,1,,,,,デンソブンカツジュンビガイシャ,0
1142,5010001221837,新規,0,2021-10-15,2021-10-15,株式会社サラタメ転職,,株式会社,東京都,中央区,銀座１丁目１２番４号Ｎ＆ＥＢＬＤ．７階,,13,102,1040061,,,,,,,2021-10-15,1,,,,,サラタメテンショク,0
1149,5010003036028,新規,0,2021-10-15,2021-10-15,Ｓｃｈｏｌｌ’ｓ　Ｗｅｌｌｎｅｓｓ　Ｃｏｍｐａｎｙ合同会社,,合同会社,東京都,千代田区,霞が関３丁目２番６号東京倶楽部ビルディング１１階,,13,101,1000013,,,,,,,2021-10-15,1,,,,,ショールズウェルネスカンパニー,0
1153,5010401163258,新規,0,2021-10-15,2021-10-15,優一名品株式会社,,株式会社,東京都,港区,浜松町２丁目２番１５号浜松町ダイヤビル２Ｆ,,13,103,1050013,,,,,,,2021-10-15,1,,,,,ユウイチメイヒン,0
1154,5010401163266,新規,0,2021-10-15,2021-10-15,株式会社Ｃ２マニュファクチュア,,株式会社,東京都,港区,芝１丁目２番地１号,,13,103,1050014,,,,,,,2021-10-15,1,,,,,シーツーマニュファクチュア,0
1155,5010405020281,新規,0,2021-10-15,2021-10-15,一般社団法人赤門アーカイブ倶楽部,,その他の設立登記法人,東京都,港区,赤坂８丁目５番４１号イースタン青山ビルＢ１合同会社ＦＴものづくり研究所内,,13,103,1070052,,,,,,,2021-10-15,1,,,,,アカモンアーカイブクラブ,0
1156,5010505003269,新規,0,2021-10-15,2021-10-15,一般社団法人笑友会,,その他の設立登記法人,東京都,台東区,東上野６丁目１９番１６号,,13,106,1100015,,,,,,,2021-10-15,1,,,,,ショウユウカイ,0
1162,5010701041650,新規,0,2021-10-15,2021-10-15,株式会社ＧＦＥ,,株式会社,東京都,品川区,西五反田６丁目２５番２号五反田ダイヤモンドマンション９１０,,13,109,1410031,,,,,,,2021-10-15,1,,,,,ジーエフイー,0
1167,5010801032401,新規,0,2021-10-15,2021-10-15,株式会社Ｈ，Ｍ　Ｐｌａｎｎｉｎｇ,,株式会社,東京都,大田区,中馬込２丁目１６番１－５１０号,,13,111,1430027,,,,,,,2021-10-15,1,,,,,エイチエムプランニング,0
1182,5011001143435,新規,0,2021-10-15,2021-10-15,株式会社ロバステクス,,株式会社,東京都,渋谷区,千駄ヶ谷１丁目１１番１２号,,13,113,1510051,,,,,,,2021-10-15,1,,,,,ロバステクス,0
1186,5011003013553,新規,0,2021-10-15,2021-10-15,合同会社ＭＥＨＥＲ,,合同会社,東京都,目黒区,五本木２丁目３番１２号クワッド五本木２０２,,13,110,1530053,,,,,,,2021-10-15,1,,,,,ミーハー,0
1196,5011203003668,新規,0,2021-10-15,2021-10-15,合同会社Ｉｃｈｉｙｏｕ,,合同会社,東京都,中野区,本町１丁目１４－１０－１１Ｃ,,13,114,1640012,,,,,,,2021-10-15,1,,,,,イチヨウ,0
1201,5011501027385,新規,0,2021-10-15,2021-10-15,株式会社光建装,,株式会社,東京都,荒川区,西日暮里５丁目２７番４号,,13,118,1160013,,,,,,,2021-10-15,1,,,,,ヒカリケンソウ,0
1202,5011603003409,新規,0,2021-10-15,2021-10-15,合同会社Ｓｉｌｋｙ,,合同会社,東京都,練馬区,三原台１丁目４２番７号,,13,120,1770031,,,,,,,2021-10-15,1,,,,,シルキー,0
1205,5011703002970,新規,0,2021-10-15,2021-10-15,合同会社三共商事,,合同会社,東京都,江戸川区,中葛西８丁目１６－１５第七コーポさくら１０２号室,,13,123,1340083,,,,,,,2021-10-15,1,,,,,サンキョウショウジ,0
1208,5011803004834,新規,0,2021-10-15,2021-10-15,アインホルン合同会社,,合同会社,東京都,葛飾区,西新小岩５丁目５－１０,,13,122,1240025,,,,,,,2021-10-15,1,,,,,アインホルン,0
1211,5012301012734,新規,0,2021-10-15,2021-10-15,株式会社ＳＴヘリテイジ,,株式会社,東京都,町田市,原町田４丁目１０番２０号,,13,209,1940013,,,,,,,2021-10-15,1,,,,,エスティヘリテイジ,0
1221,5020001143485,新規,0,2021-10-15,2021-10-15,株式会社エイエム,,株式会社,神奈川県,横浜市中区,北仲通５丁目５７番地２－１２０９号室,,14,104,2310003,,,,,,,2021-10-15,1,,,,,エイエム,0
1222,5020001143527,新規,0,2021-10-15,2021-10-15,アレリ株式会社,,株式会社,神奈川県,横浜市西区,高島２丁目１１－２スカイメナー横浜内,,14,103,2200011,,,,,,,2021-10-15,1,,,,,アレリ,0
1226,5021001074233,新規,0,2021-10-15,2021-10-15,株式会社ＡＬＬ　ＷＩＮ,,株式会社,神奈川県,藤沢市,鵠沼海岸２丁目７－６－３０３,,14,205,2510037,,,,,,,2021-10-15,1,,,,,オールウィン,0
1245,5030003018107,新規,0,2021-10-15,2021-10-15,３Ｃｅｅｄ合同会社,,合同会社,埼玉県,行田市,忍２丁目１９番６号,,11,206,3610077,,,,,,,2021-10-15,1,,,,,スリーシード,0
1252,5040001120607,新規,0,2021-10-15,2021-10-15,株式会社プラススタイル,,株式会社,千葉県,銚子市,中央町１３番地の６,,12,202,2880041,,,,,,,2021-10-15,1,,,,,プラススタイル,0
1258,5040003018766,新規,0,2021-10-15,2021-10-15,Ｓｐａｃｅ　Ｖｉｌｌａ合同会社,,合同会社,千葉県,船橋市,習志野台４丁目４５－１５ＴＨスクウェア習志野２０４,,12,204,2740063,,,,,,,2021-10-15,1,,,,,スペースヴィラ,0
1259,5040005021388,新規,0,2021-10-15,2021-10-15,医療法人社団Ｗｅｌｌ　ｂｅｉｎｇ,,その他の設立登記法人,千葉県,千葉市美浜区,真砂４丁目１番地１０ショッピングセンター「ＰＩＡ」３階,,12,106,2610011,,,,,,,2021-10-15,1,,,,,ウェルビーイング,0
1268,5060001034202,新規,0,2021-10-15,2021-10-15,株式会社ｈｅｒｖｅｎ－ａｕｄｉｔｏｒｉｏ,,株式会社,栃木県,足利市,野田町５３,,09,202,3260322,,,,,,,2021-10-15,1,,,,,エルヴェンオーディトリオ,0
1269,5060001034210,新規,0,2021-10-15,2021-10-15,株式会社ＡｄｄＦａｉｒ,,株式会社,栃木県,宇都宮市,屋板町５７８番地５７０,,09,201,3210112,,,,,,,2021-10-15,1,,,,,アドフェア,0
1274,5060003003832,新規,0,2021-10-15,2021-10-15,那須野書店合同会社,,合同会社,栃木県,那須郡那須町,大字高久丙１７９３番地１４１,,09,407,3250302,,,,,,,2021-10-15,1,,,,,ナスノショテン,0
1277,5070001038540,新規,0,2021-10-15,2021-10-15,株式会社ティートレーディング,,株式会社,群馬県,伊勢崎市,東小保方町３４８３番地１Ｋハイツ１０１,,10,204,3792234,,,,,,,2021-10-15,1,,,,,ティートレーディング,0
1280,5080001024515,新規,0,2021-10-15,2021-10-15,株式会社ＤｉｏＦｉｇ,,株式会社,静岡県,静岡市駿河区,富士見台３丁目１番１８号,,22,102,4228026,,,,,,,2021-10-15,1,,,,,ディオフィグ,0
1314,5120001241196,新規,0,2021-10-15,2021-10-15,株式会社ＬａｎｄＳｋｙ　ＥＳＣＡＬＡＤＥ,,株式会社,大阪府,寝屋川市,日之出町２番１４号,,27,215,5720835,,,,,,,2021-10-15,1,,,,,ランドスカイエスカレード,0
1315,5120001241221,新規,0,2021-10-15,2021-10-15,おおさかくすたに株式会社,,株式会社,大阪府,大阪市浪速区,恵美須東１丁目１６番１号,,27,111,5560002,,,,,,,2021-10-15,1,,,,,オオサカクスタニ,0
1318,5120003020409,新規,0,2021-10-15,2021-10-15,合同会社ＣｌｅａｎＵｐＰｌａｎｎｉｎｇ,,合同会社,大阪府,大阪市中央区,南船場２丁目７番１３号,,27,128,5420081,,,,,,,2021-10-15,1,,,,,クリーンアッププランニング,0
1319,5120003020425,新規,0,2021-10-15,2021-10-15,合同会社Ｄｒｅｅａｍ,,合同会社,大阪府,大阪市西成区,天下茶屋東２丁目３番２１号,,27,122,5570011,,,,,,,2021-10-15,1,,,,,ドリーム,0
1320,5120003020433,新規,0,2021-10-15,2021-10-15,アイクノン合同会社,,合同会社,大阪府,大阪市生野区,新今里１丁目７番１－４０６号,,27,116,5440001,,,,,,,2021-10-15,1,,,,,アイクノン,0
1323,5120101064489,新規,0,2021-10-15,2021-10-15,株式会社みのべ組,,株式会社,大阪府,岸和田市,池尻町７９４番地の６,,27,202,5960813,,,,,,,2021-10-15,1,,,,,ミノベグミ,0
1325,5120103004402,新規,0,2021-10-15,2021-10-15,合同会社サンクスホース,,合同会社,大阪府,松原市,河合３丁目４５番地の１８,,27,217,5800022,,,,,,,2021-10-15,1,,,,,サンクスホース,0
1331,5120903003875,新規,0,2021-10-15,2021-10-15,Ｔｏｋｉｗａ　Ｈｏｌｄｉｎｇ合同会社,,合同会社,大阪府,豊中市,上新田１丁目２４番Ｄ－３０７号,,27,203,5600085,,,,,,,2021-10-15,1,,,,,トキワホールディング,0
1338,5130001070330,新規,0,2021-10-15,2021-10-15,エトエワークス株式会社,,株式会社,京都府,京都市左京区,一乗寺高槻町１２番地５,,26,103,6068185,,,,,,,2021-10-15,1,,,,,エトエワークス,0
1341,5130005016296,新規,0,2021-10-15,2021-10-15,弁護士法人大久保総合法律事務所,,その他の設立登記法人,京都府,京都市中京区,三条通烏丸西入御倉町８５番地１ＫＤＸ烏丸ビル４階,,26,104,6048166,,,,,,,2021-10-15,1,,,,,オオクボソウゴウホウリツジムショ,0
1351,5140003016859,新規,0,2021-10-15,2021-10-15,合同会社ポケットスター,,合同会社,兵庫県,神戸市垂水区,下畑町字石畳１０５９番地の１０,,28,108,6550861,,,,,,,2021-10-15,1,,,,,ポケットスター,0
1356,5160001023731,新規,0,2021-10-15,2021-10-15,株式会社エヌシビル,,株式会社,滋賀県,野洲市,冨波甲１１８０番地６１,,25,210,5202351,,,,,,,2021-10-15,1,,,,,エヌシビル,0
1360,5180001148312,新規,0,2021-10-15,2021-10-15,株式会社ＨｉＸ,,株式会社,愛知県,名古屋市北区,安井１丁目７番３５号,,23,103,4620023,,,,,,,2021-10-15,1,,,,,ハイクロス,0
1361,5180001148320,新規,0,2021-10-15,2021-10-15,ＦＵＪＩＲＹＵ建設株式会社,,株式会社,愛知県,津島市,唐臼町大島７番地３,,23,208,4960026,,,,,,,2021-10-15,1,,,,,フジリュウケンセツ,0
1368,5180301035524,新規,0,2021-10-15,2021-10-15,株式会社ＫＴＱ,,株式会社,愛知県,安城市,箕輪町半夏６番地１,,23,212,4460051,,,,,,,2021-10-15,1,,,,,ケイティキュー,0
1370,5190003003794,新規,0,2021-10-15,2021-10-15,合同会社ＮＯ１３ＷＯＲＫＳ,,合同会社,三重県,津市,稲葉町３６２－３,,24,201,5141252,,,,,,,2021-10-15,1,,,,,ナンバーサーティーンワークス,0
1374,5200001039285,新規,0,2021-10-15,2021-10-15,株式会社ＬＩＦＥ　ＬＩＮＥ　ＳＹＳＴＥＭ,,株式会社,岐阜県,中津川市,蛭川２１５５番地８,,21,206,5098301,,,,,,,2021-10-15,1,,,,,ライフラインシステム,0
1378,5230001019037,新規,0,2021-10-15,2021-10-15,株式会社ワクリエ,,株式会社,富山県,高岡市,石瀬３２１番地１６,,16,202,9330011,,,,,,,2021-10-15,1,,,,,ワクリエ,0
1379,5230005009174,新規,0,2021-10-15,2021-10-15,一般社団法人日本バッハ協会,,その他の設立登記法人,富山県,富山市,総曲輪２丁目１番５号,,16,201,9300083,,,,,,,2021-10-15,1,,,,,ニホンバッハキョウカイ,0
1387,5260003003696,新規,0,2021-10-15,2021-10-15,ＡＦＩＴ‐ＬＡＢ合同会社,,合同会社,岡山県,倉敷市,本町６番４号,,33,202,7100054,,,,,,,2021-10-15,1,,,,,アフィットラボ,0
1394,5290001094958,新規,0,2021-10-15,2021-10-15,株式会社Ｎｅｗ　Ｓｈｉｐ,,株式会社,福岡県,福岡市博多区,相生町１丁目２－８アプローズ南福岡駅１０２２号,,40,132,8120885,,,,,,,2021-10-15,1,,,,,ニューシップ,0
1395,5290001095007,新規,0,2021-10-15,2021-10-15,Ｅｎａ株式会社,,株式会社,福岡県,福岡市早良区,百道３丁目１０番５７－９０９号,,40,137,8140006,,,,,,,2021-10-15,1,,,,,イーナ,0
1399,5310001017536,新規,0,2021-10-15,2021-10-15,株式会社大石保険事務所,,株式会社,長崎県,平戸市,宝亀町１３５１番地１,,42,207,8595366,,,,,,,2021-10-15,1,,,,,オオイシホケンジムショ,0
1401,5320003003632,新規,0,2021-10-15,2021-10-15,ＡＫＭ合同会社,,合同会社,大分県,大分市,上野丘西１７番１号,,44,201,8700834,,,,,,,2021-10-15,1,,,,,エーケーエム,0
1402,5330001029075,新規,0,2021-10-15,2021-10-15,株式会社岩竹工業,,株式会社,熊本県,人吉市,中青井町２９６番地ファースト中青井５０２号,,43,203,8680008,,,,,,,2021-10-15,1,,,,,イワタケコウギョウ,0
1418,5390001016638,新規,0,2021-10-15,2021-10-15,Ａ－Ｇｌｏｂａｌ　Ｓｅｒｖｉｃｅ株式会社,,株式会社,山形県,村山市,楯岡新町２丁目１０番１２号,,06,208,9950033,,,,,,,2021-10-15,1,,,,,エーグローバルサービス,0
1421,5430001085182,新規,0,2021-10-15,2021-10-15,株式会社ヴィジョン,,株式会社,北海道,札幌市豊平区,平岸六条１３丁目３番３２号,,01,105,0620936,,,,,,,2021-10-15,1,,,,,ヴィジョン,0
1422,5430001085190,新規,0,2021-10-15,2021-10-15,株式会社ＵＰＫＥＥＰ,,株式会社,北海道,札幌市中央区,南四条西２０丁目１番２３号５０１号室,,01,101,0640804,,,,,,,2021-10-15,1,,,,,アップキープ,0
1423,5430001085199,新規,0,2021-10-15,2021-10-15,晃栄コネクト株式会社,,株式会社,北海道,札幌市豊平区,豊平四条１０丁目３番３０号,,01,105,0620904,,,,,,,2021-10-15,1,,,,,コウエイコネクト,0
1453,6010001221745,新規,0,2021-10-15,2021-10-15,株式会社佑楽堂,,株式会社,東京都,中央区,銀座１丁目１２番４号Ｎ＆Ｅ．ＢＬＤ．７階,,13,102,1040061,,,,,,,2021-10-15,1,,,,,ユウラクドウ,0
1454,6010001221828,新規,0,2021-10-15,2021-10-15,株式会社アイドレス,,株式会社,東京都,中央区,築地２丁目１５番１５－８０７号,,13,102,1040045,,,,,,,2021-10-15,1,,,,,アイドレス,0
1456,6010003035994,新規,0,2021-10-15,2021-10-15,マミール合同会社,,合同会社,東京都,千代田区,一番町１６番地４フォーシーズンズグランデ一番町７０２号,,13,101,1020082,,,,,,,2021-10-15,1,,,,,マミール,0
1457,6010003036027,新規,0,2021-10-15,2021-10-15,合同会社ゴリちゃんカンパニー,,合同会社,東京都,千代田区,一ツ橋２丁目６番１０－２０２号,,13,101,1010003,,,,,,,2021-10-15,1,,,,,ゴリチャンカンパニー,0
1458,6010003036035,新規,0,2021-10-15,2021-10-15,合同会社西舞子ヘルスケア,,合同会社,東京都,中央区,銀座２丁目１０番８号マニエラ銀座ビル４階,,13,102,1040061,,,,,,,2021-10-15,1,,,,,ニシマイコヘルスケア,0
1470,6010405020289,新規,0,2021-10-15,2021-10-15,一般社団法人日本美容医療学会,,その他の設立登記法人,東京都,港区,西新橋３丁目２５番３３号,,13,103,1050003,,,,,,,2021-10-15,1,,,,,ニホンビヨウイリョウガッカイ,0
1472,6010601060089,新規,0,2021-10-15,2021-10-15,株式会社プロテリアル,,株式会社,東京都,江東区,豊洲５丁目６番３６号,,13,108,1350061,,,,,,,2021-10-15,1,,,,,プロテリアル,0
1479,6010801032409,新規,0,2021-10-15,2021-10-15,株式会社ＥＣＯＵＳ,,株式会社,東京都,大田区,東蒲田１丁目１８番７号,,13,111,1440031,,,,,,,2021-10-15,1,,,,,エコアス,0
1482,6010901049633,新規,0,2021-10-15,2021-10-15,株式会社オシアイ,,株式会社,東京都,世田谷区,下馬１丁目５番４号レ・サンスＴ３０３,,13,112,1540002,,,,,,,2021-10-15,1,,,,,オシアイ,0
1493,6011001143401,新規,0,2021-10-15,2021-10-15,株式会社ＥＵＰＨ,,株式会社,東京都,渋谷区,道玄坂１丁目１６番６号二葉ビル３階,,13,113,1500043,,,,,,,2021-10-15,1,,,,,ユーフ,0
1494,6011001143459,新規,0,2021-10-15,2021-10-15,株式会社ｄｅｓｉｉｇｎ,,株式会社,東京都,渋谷区,円山町５番５号Ｎａｖｉ渋谷Ｖ３階,,13,113,1500044,,,,,,,2021-10-15,1,,,,,デザイン,0
1498,6011003013569,新規,0,2021-10-15,2021-10-15,ａｌｔｅｒｅｇｏｓ合同会社,,合同会社,東京都,渋谷区,神宮前６丁目１８－３神宮前エスビル２Ｆ,,13,113,1500001,,,,,,,2021-10-15,1,,,,,アルタエゴス,0
1502,6011101096598,新規,0,2021-10-15,2021-10-15,ＥＰＳ創薬株式会社,,株式会社,東京都,新宿区,津久戸町１番８号,,13,104,1620821,,,,,,,2021-10-15,1,,,,,,0
1504,6011103011092,新規,0,2021-10-15,2021-10-15,合同会社アセットマネジメントＨＦ,,合同会社,東京都,新宿区,新宿６丁目２７番２９－４２３号,,13,104,1600022,,,,,,,2021-10-15,1,,,,,アセットマネジメントエイチエフ,0
1512,6011501027392,新規,0,2021-10-15,2021-10-15,株式会社Ｊ‐ＲＩＳＥ,,株式会社,東京都,北区,赤羽西６丁目２０番３号,,13,117,1150055,,,,,,,2021-10-15,1,,,,,ジェイライズ,0
1514,6011603003408,新規,0,2021-10-15,2021-10-15,藤広フードサービス合同会社,,合同会社,東京都,練馬区,高松４丁目１２番１７号,,13,120,1790075,,,,,,,2021-10-15,1,,,,,フジヒロフードサービス,0
1517,6011705001697,新規,0,2021-10-15,2021-10-15,一般社団法人亜塩素酸水・クロラス酸水普及協会,,その他の設立登記法人,東京都,江戸川区,西葛西６丁目２４－８尚伸ビル２Ｆ,,13,123,1340088,,,,,,,2021-10-15,1,,,,,アエンソサンスイクロラスサンスイフキュウキョウカイ,0
1530,6012803002629,新規,0,2021-10-15,2021-10-15,合同会社光山工業,,合同会社,東京都,昭島市,中神町２丁目３５番３９号シモンコーポ２０３号,,13,207,1960022,,,,,,,2021-10-15,1,,,,,ミツヤマコウギョウ,0
1534,6013301048148,新規,0,2021-10-15,2021-10-15,ＳＩＡＮ株式会社,,株式会社,東京都,豊島区,西池袋１丁目２５番１号恩田ビル１Ｆ－Ａ,,13,116,1710021,,,,,,,2021-10-15,1,,,,,シアン,0
1535,6013301048156,新規,0,2021-10-15,2021-10-15,森輝産業グループ株式会社,,株式会社,東京都,豊島区,北大塚２丁目１２番８号大星ビル３Ｆ,,13,116,1700004,,,,,,,2021-10-15,1,,,,,シンサキサンギョウグループ,0
1543,6020001143468,新規,0,2021-10-15,2021-10-15,株式会社ａｐｒｉｌ．ｓｅｖｅｎｔｈ,,株式会社,神奈川県,横浜市泉区,中田東１丁目２６番２８号,,14,116,2450013,,,,,,,2021-10-15,1,,,,,,0
1544,6020001143476,新規,0,2021-10-15,2021-10-15,株式会社はやてインターナショナル,,株式会社,神奈川県,横浜市戸塚区,吉田町３００１番地１クレヴィア戸塚４０１号,,14,110,2440817,,,,,,,2021-10-15,1,,,,,ハヤテインターナショナル,0
1545,6020001143501,新規,0,2021-10-15,2021-10-15,天桜綜業株式会社,,株式会社,神奈川県,横浜市中区,千歳町１番地２横浜ＴＨビル６０４,,14,104,2310035,,,,,,,2021-10-15,1,,,,,マユラソウギョウ,0
1548,6020003020665,新規,0,2021-10-15,2021-10-15,合同会社ｓ．ｉ．ｏ．ｎ．Ｓ,,合同会社,神奈川県,横浜市中区,西之谷町１０４番地８ヴィラージュ１０２号室,,14,104,2310844,,,,,,,2021-10-15,1,,,,,シオンズ,0
1551,6021001074216,新規,0,2021-10-15,2021-10-15,株式会社ＶＥＲＴＥＸ,,株式会社,神奈川県,横須賀市,野比３丁目２１番１７－６０３号,,14,201,2390841,,,,,,,2021-10-15,1,,,,,バーテックス,0
1552,6021001074232,新規,0,2021-10-15,2021-10-15,株式会社Ｄｒｅａｍ,,株式会社,神奈川県,厚木市,岡田２丁目１番１号,,14,212,2430021,,,,,,,2021-10-15,1,,,,,ドリーム,0
1564,6030001144804,新規,0,2021-10-15,2021-10-15,株式会社ソラリコ,,株式会社,埼玉県,さいたま市北区,本郷町１６１０番地２１,,11,102,3310802,,,,,,,2021-10-15,1,,,,,ソラリコ,0
1565,6030001144845,新規,0,2021-10-15,2021-10-15,株式会社ｓｌａｐｓ　ｗｏｒｋ,,株式会社,埼玉県,さいたま市西区,大字指扇２７１番地２　０エクセルヒル１０５号,,11,101,3310047,,,,,,,2021-10-15,1,,,,,スラップスワーク,0
1566,6030001144853,新規,0,2021-10-15,2021-10-15,株式会社９ＲＯＯＭ,,株式会社,埼玉県,熊谷市,玉井１４４８番地８,,11,202,3600853,,,,,,,2021-10-15,1,,,,,クルーム,0
1567,6030001144861,新規,0,2021-10-15,2021-10-15,株式会社ＡＡＡＡＡ,,株式会社,埼玉県,志木市,幸町３丁目４番１０号,,11,228,3530005,,,,,,,2021-10-15,1,,,,,ファイブエー,0
1571,6030003018139,新規,0,2021-10-15,2021-10-15,佐藤建築合同会社,,合同会社,埼玉県,春日部市,緑町５丁目７番１１号,,11,214,3440063,,,,,,,2021-10-15,1,,,,,サトウケンチク,0
1572,6030005020563,新規,0,2021-10-15,2021-10-15,医療法人社団貴聡会,,その他の設立登記法人,埼玉県,草加市,清門３丁目２５番地３大塚メディカルコミュニティ２階２０２号室,,11,221,3400055,,,,,,,2021-10-15,1,,,,,キソウカイ,0
1584,6050001049992,新規,0,2021-10-15,2021-10-15,株式会社想愛運送,,株式会社,茨城県,鹿嶋市,大字根三田１７４番地１,,08,222,3140035,,,,,,,2021-10-15,1,,,,,ソウアイウンソウ,0
1589,6070003004267,新規,0,2021-10-15,2021-10-15,ツーリズム開発合同会社,,合同会社,群馬県,高崎市,吉井町片山３０２番地１,,10,202,3702135,,,,,,,2021-10-15,1,,,,,ツーリズムカイハツ,0
1590,6080001024514,新規,0,2021-10-15,2021-10-15,株式会社ｆｅｅｅｌｓ,,株式会社,静岡県,静岡市葵区,安東１丁目１０番２３－３０２号,,22,101,4200882,,,,,,,2021-10-15,1,,,,,フィールズ,0
1596,6080101022839,新規,0,2021-10-15,2021-10-15,株式会社ＡＥＲＯ　ＢＲＩＮＧ　ＩＮＮＯＶＡＴＩＯＮ,,株式会社,静岡県,富士宮市,外神１５５８番地の１,,22,207,4180006,,,,,,,2021-10-15,1,,,,,エアロブリングイノベーション,0
1602,6110003004601,新規,0,2021-10-15,2021-10-15,Ａｖｅｎｉｒ　ＪＡＰＡＮ合同会社,,合同会社,新潟県,長岡市,城岡３丁目９番５１号,,15,202,9400021,,,,,,,2021-10-15,1,,,,,アベニールジャパン,0
1613,6120001241195,新規,0,2021-10-15,2021-10-15,バレル株式会社,,株式会社,大阪府,大阪市中央区,内本町１丁目１番６号ドリームスクエア,,27,128,5400026,,,,,,,2021-10-15,1,,,,,バレル,0
1614,6120001241204,新規,0,2021-10-15,2021-10-15,株式会社嶝口塗装,,株式会社,大阪府,枚方市,杉山手３丁目１９番１７号,,27,210,5730118,,,,,,,2021-10-15,1,,,,,サコグチトソウ,0
1615,6120001241212,新規,0,2021-10-15,2021-10-15,株式会社ＣＯＬＯＲＳ　ＣＲＥＡＴＩＯＮ,,株式会社,大阪府,寝屋川市,高柳２丁目８番５号,,27,215,5720051,,,,,,,2021-10-15,1,,,,,カラーズクリエイション,0
1616,6120001241237,新規,0,2021-10-15,2021-10-15,株式会社ＳＲＳ,,株式会社,大阪府,大阪市北区,西天満５丁目１４番７号,,27,127,5300047,,,,,,,2021-10-15,1,,,,,エスアールエス,0
1617,6120001241253,新規,0,2021-10-15,2021-10-15,株式会社ＬＡＯＮ,,株式会社,大阪府,大阪市天王寺区,味原町１４番４号レザックセントラルビル２階,,27,109,5430023,,,,,,,2021-10-15,1,,,,,ラオン,0
1640,6130001070338,新規,0,2021-10-15,2021-10-15,株式会社イーストック,,株式会社,京都府,京都市下京区,烏丸通四条下る水銀屋町６２０番地ＣＯＣＯＮ烏丸４階,,26,106,6008411,,,,,,,2021-10-15,1,,,,,イーストック,0
1649,6140001123490,新規,0,2021-10-15,2021-10-15,匠住設株式会社,,株式会社,兵庫県,伊丹市,荒牧６丁目２４番３０号,,28,207,6640001,,,,,,,2021-10-15,1,,,,,タクミジュウセツ,0
1652,6140003016866,新規,0,2021-10-15,2021-10-15,ｂｌｕｅｂｉｒｄ合同会社,,合同会社,兵庫県,神戸市長田区,宮川町１丁目８,,28,106,6530813,,,,,,,2021-10-15,1,,,,,ブルーバード,0
1656,6140005025857,新規,0,2021-10-15,2021-10-15,一般社団法人子どもの育ちと学び,,その他の設立登記法人,兵庫県,神戸市西区,糀台５丁目５番地の１・２１１号,,28,111,6512273,,,,,,,2021-10-15,1,,,,,コドモノソダチトマナビ,0
1661,6160001023730,新規,0,2021-10-15,2021-10-15,株式会社プラスワン,,株式会社,滋賀県,大津市,国分２丁目７番１－７号,,25,201,5200844,,,,,,,2021-10-15,1,,,,,プラスワン,0
1664,6180001148286,新規,0,2021-10-15,2021-10-15,株式会社ＥＩＴＥＣＨ　ＨＤ,,株式会社,愛知県,名古屋市守山区,川西２丁目１２０２番地,,23,113,4630080,,,,,,,2021-10-15,1,,,,,エイテックホールディングス,0
1665,6180001148328,新規,0,2021-10-15,2021-10-15,Ｈ＆Ｑ株式会社,,株式会社,愛知県,小牧市,大字二重堀２３０番地１,,23,219,4850021,,,,,,,2021-10-15,1,,,,,エイチアンドキュー,0
1670,6180003023090,新規,0,2021-10-15,2021-10-15,リバフィールド合同会社,,合同会社,愛知県,名古屋市昭和区,川名本町５丁目９番地の１,,23,107,4660855,,,,,,,2021-10-15,1,,,,,リバフィールド,0
1673,6180303005136,新規,0,2021-10-15,2021-10-15,合同会社ＳＥＫＩＲＹＯ,,合同会社,愛知県,岡崎市,上佐々木町字中切８番地５,,23,202,4440936,,,,,,,2021-10-15,1,,,,,セキリョウ,0
1684,6230001019036,新規,0,2021-10-15,2021-10-15,株式会社カミ,,株式会社,富山県,魚津市,新金屋１丁目４番２６号,,16,204,9370801,,,,,,,2021-10-15,1,,,,,カミ,0
1685,6230003001743,新規,0,2021-10-15,2021-10-15,Ｄｉａｍｏｎｄ　ｓｕｎｓｈｉｎｅ合同会社,,合同会社,富山県,富山市,月岡町６丁目４３番地２,,16,201,9398132,,,,,,,2021-10-15,1,,,,,ダイヤモンドサンシャイン,0
1695,6260003003695,新規,0,2021-10-15,2021-10-15,合同会社ＧｏｄＲｉｖｅｒ,,合同会社,岡山県,岡山市北区,芳賀１９０９番地２,,33,101,7011221,,,,,,,2021-10-15,1,,,,,,0
1704,6330001029074,新規,0,2021-10-15,2021-10-15,株式会社エンドイン,,株式会社,熊本県,天草市,五和町御領４６３番地,,43,215,8632201,,,,,,,2021-10-15,1,,,,,エンドイン,0
1707,6350001017366,新規,0,2021-10-15,2021-10-15,株式会社ウィットリンケージ,,株式会社,宮崎県,宮崎市,大字赤江７４番地１レジデンスエアポート５０５号,,45,201,8800912,,,,,,,2021-10-15,1,,,,,ウィットリンケージ,0
1713,6370001047717,新規,0,2021-10-15,2021-10-15,株式会社健栄,,株式会社,宮城県,仙台市太白区,袋原３丁目１０番２６号,,04,104,9811102,,,,,,,2021-10-15,1,,,,,ケンエイ,0
1717,6390001016637,新規,0,2021-10-15,2021-10-15,株式会社ＫＡＳＭＩＬＥ,,株式会社,山形県,米沢市,遠山町６２７番地の１,,06,202,9920066,,,,,,,2021-10-15,1,,,,,カスミル,0
1722,6410005006433,新規,0,2021-10-15,2021-10-15,ＮＰＯ法人あき活Ｌａｂ,,その他の設立登記法人,秋田県,大館市,字桂城２９番地,,05,204,0170893,,,,,,,2021-10-15,1,,,,,エヌピーオーホウジンアキカツラボ,0
1757,7010001221736,新規,0,2021-10-15,2021-10-15,ＵｎａＢｉｚ　Ｊａｐａｎ株式会社,,株式会社,東京都,中央区,日本橋本町２丁目２－２日本橋本町ＹＳビル在日フランス商工会議所内,,13,102,1030023,,,,,,,2021-10-15,1,,,,,ウナビズジャパン,0
1758,7010001221752,新規,0,2021-10-15,2021-10-15,株式会社Ａｍｉｔｙ　Ａｍｕｌｅｔ,,株式会社,東京都,中央区,銀座２丁目６番４号,,13,102,1040061,,,,,,,2021-10-15,1,,,,,アミティアミュレット,0
1759,7010001221843,新規,0,2021-10-15,2021-10-15,ＳＫＨ株式会社,,株式会社,東京都,文京区,西片２丁目２４番１０号,,13,105,1130024,,,,,,,2021-10-15,1,,,,,エスケイエイチ,0
1762,7010005034085,新規,0,2021-10-15,2021-10-15,東上インベストメントワン一般社団法人,,その他の設立登記法人,東京都,千代田区,九段南３丁目７番７号成和綜合会計事務所内,,13,101,1020074,,,,,,,2021-10-15,1,,,,,トウジョウインベストメントワン,0
1773,7010401163149,新規,0,2021-10-15,2021-10-15,株式会社ＲＨＣ,,株式会社,東京都,港区,西新橋３丁目２０番１号パークアクシス御成門１９０１,,13,103,1050003,,,,,,,2021-10-15,1,,,,,アールエイチシー,0
1775,7010405020288,新規,0,2021-10-15,2021-10-15,一般社団法人ハンドメイドワーキングシップ協会,,その他の設立登記法人,東京都,港区,港南５丁目１番４－１１０４号,,13,103,1080075,,,,,,,2021-10-15,1,,,,,ハンドメイドワーキングシップキョウカイ,0
1782,7010701041657,新規,0,2021-10-15,2021-10-15,株式会社アルカス,,株式会社,東京都,品川区,南品川５丁目１６番１４－４１２号,,13,109,1400004,,,,,,,2021-10-15,1,,,,,アルカス,0
1785,7010703005973,新規,0,2021-10-15,2021-10-15,キングストウキョウ合同会社,,合同会社,東京都,品川区,小山４丁目８番１２号清野ビル１Ｆ,,13,109,1420062,,,,,,,2021-10-15,1,,,,,キングストウキョウ,0
1791,7010803003919,新規,0,2021-10-15,2021-10-15,合同会社キメジ,,合同会社,東京都,大田区,東糀谷１丁目１４－１５ハネサム１６ビル１階,,13,111,1440033,,,,,,,2021-10-15,1,,,,,キメジ,0
1806,7011003013568,新規,0,2021-10-15,2021-10-15,ジャパンスターツ合同会社,,合同会社,東京都,渋谷区,桜丘町２３番１７号シティコート桜丘４０８,,13,113,1500031,,,,,,,2021-10-15,1,,,,,,0
1812,7011101096589,新規,0,2021-10-15,2021-10-15,Ｓ．Ｄ．リアルパートナーズ株式会社,,株式会社,東京都,新宿区,新宿１丁目３番４号ＧｙｏｅｎＲ３階,,13,104,1600022,,,,,,,2021-10-15,1,,,,,エスディリアルパートナーズ,0
1813,7011101096597,新規,0,2021-10-15,2021-10-15,株式会社ＳＩＭＡ,,株式会社,東京都,新宿区,左門町２－５ミクニ四谷ビル４階,,13,104,1600017,,,,,,,2021-10-15,1,,,,,シマ,0
1818,7011201023336,新規,0,2021-10-15,2021-10-15,株式会社ＳＫＬ,,株式会社,東京都,中野区,中央５丁目３番１１号,,13,114,1640011,,,,,,,2021-10-15,1,,,,,エスケーエル,0
1845,7013301048155,新規,0,2021-10-15,2021-10-15,株式会社ＳＥＩ,,株式会社,東京都,豊島区,南池袋２丁目８番５号ライオンズマンション南池袋３０４号,,13,116,1710022,,,,,,,2021-10-15,1,,,,,セイ,0
1846,7013303005856,新規,0,2021-10-15,2021-10-15,合同会社世昭マルチメディア,,合同会社,東京都,豊島区,東池袋２丁目６３番１－９０８号室,,13,116,1700013,,,,,,,2021-10-15,1,,,,,セイショウマルチメディア,0
1854,7020001143442,新規,0,2021-10-15,2021-10-15,株式会社ベイリンク,,株式会社,神奈川県,横浜市金沢区,六浦南１丁目２５番１１号,,14,108,2360038,,,,,,,2021-10-15,1,,,,,ベイリンク,0
1855,7020001143483,新規,0,2021-10-15,2021-10-15,株式会社ｔｅｔｏｗａ,,株式会社,神奈川県,横浜市磯子区,杉田１丁目１５番９号,,14,107,2350033,,,,,,,2021-10-15,1,,,,,テトワ,0
1856,7020001143517,新規,0,2021-10-15,2021-10-15,株式会社大晴,,株式会社,神奈川県,横浜市緑区,霧が丘６丁目１８番地９,,14,113,2260016,,,,,,,2021-10-15,1,,,,,タイセイ,0
1857,7020001143525,新規,0,2021-10-15,2021-10-15,株式会社ＭＹ　Ｊａｐａｎ,,株式会社,神奈川県,横浜市南区,真金町２丁目２１番３０号プラクティカルハイム１Ｆ,,14,105,2320021,,,,,,,2021-10-15,1,,,,,マイジャパン,0
1858,7020002019690,新規,0,2021-10-15,2021-10-15,有限会社ぶんえいどう,,有限会社,神奈川県,横浜市港南区,上永谷２丁目１１番１号,,14,111,2330012,,,,,,,2021-10-15,1,,,,,ブンエイドウ,0
1861,7020003020656,新規,0,2021-10-15,2021-10-15,合同会社バリアス,,合同会社,神奈川県,川崎市高津区,千年８９８番地１０３,,14,134,2130022,,,,,,,2021-10-15,1,,,,,バリアス,0
1880,7030001144828,新規,0,2021-10-15,2021-10-15,株式会社Ｎｅｘｔ　ｉｎｎｏｖａｔｉｏｎ,,株式会社,埼玉県,川口市,西川口１丁目１０番２０号２０２号室,,11,203,3320021,,,,,,,2021-10-15,1,,,,,ネクストイノベーション,0
1881,7030001144852,新規,0,2021-10-15,2021-10-15,ゲンデン株式会社,,株式会社,埼玉県,さいたま市浦和区,常盤９丁目１４番１　０号,,11,107,3300061,,,,,,,2021-10-15,1,,,,,ゲンデン,0
1888,7030003018138,新規,0,2021-10-15,2021-10-15,合同会社ｕｎｆｉｌ－ｓｉｎ,,合同会社,埼玉県,さいたま市浦和区,東仲町２５－２８ＴＭビル２Ｆ,,11,107,3300056,,,,,,,2021-10-15,1,,,,,アンフィルシン,0
1890,7030005020562,新規,0,2021-10-15,2021-10-15,医療法人社団ＮＥＸＴ,,その他の設立登記法人,埼玉県,越谷市,越ヶ谷１丁目３番２６号光ビル２階,,11,222,3430813,,,,,,,2021-10-15,1,,,,,ネクスト,0
1891,7030005020604,新規,0,2021-10-15,2021-10-15,医療法人双梢会,,その他の設立登記法人,埼玉県,富士見市,大字水子５０５３番地２テラシマビル１階,,11,235,3540011,,,,,,,2021-10-15,1,,,,,ソウショウカイ,0
1902,7040005021378,新規,0,2021-10-15,2021-10-15,医療法人社団幸道会,,その他の設立登記法人,千葉県,千葉市中央区,富士見２丁目１５番１号ワラビビル３階,,12,101,2600015,,,,,,,2021-10-15,1,,,,,コウドウカイ,0
1909,7060001034200,新規,0,2021-10-15,2021-10-15,株式会社あを,,株式会社,栃木県,栃木市,寄居町３２２番地,,09,203,3280005,,,,,,,2021-10-15,1,,,,,アヲ,0
1910,7060001034209,新規,0,2021-10-15,2021-10-15,株式会社Ｌｉｆｅ　Ｌｉｎｋ,,株式会社,栃木県,佐野市,石塚町１２９６番地３,,09,204,3270103,,,,,,,2021-10-15,1,,,,,ライフリンク,0
1911,7060003003822,新規,0,2021-10-15,2021-10-15,合同会社Ｗｏｒｌｄ　ｐｅａｃｅ３６９,,合同会社,栃木県,矢板市,乙畑１３９３番地２７８,,09,211,3291574,,,,,,,2021-10-15,1,,,,,ワールドピースミロク,0
1914,7080001024513,新規,0,2021-10-15,2021-10-15,株式会社ユタカ住設,,株式会社,静岡県,静岡市葵区,松野１１６１番地,,22,101,4212122,,,,,,,2021-10-15,1,,,,,ユタカジュウセツ,0
1934,7120001241194,新規,0,2021-10-15,2021-10-15,佳江株式会社,,株式会社,大阪府,大阪市中央区,上町１丁目１５番１５－９０４号,,27,128,5400005,,,,,,,2021-10-15,1,,,,,カコウ,0
1935,7120001241211,新規,0,2021-10-15,2021-10-15,山本交易株式会社,,株式会社,大阪府,大阪市此花区,春日出南３丁目３番４１－２０５号,,27,104,5540023,,,,,,,2021-10-15,1,,,,,,0
1942,7120003020423,新規,0,2021-10-15,2021-10-15,合同会社ｐａｔｉｓｓｅｒｉｅｇｕｒａ,,合同会社,大阪府,大阪市淀川区,塚本２丁目２６番４－１０４号,,27,123,5320026,,,,,,,2021-10-15,1,,,,,パティセリエグア,0
1948,7120101064487,新規,0,2021-10-15,2021-10-15,株式会社Ｃａｒｅ　Ｒｅｖｏ,,株式会社,大阪府,岸和田市,山直中町２１９番地の１,,27,202,5960102,,,,,,,2021-10-15,1,,,,,ケアレボ,0
1949,7120101064495,新規,0,2021-10-15,2021-10-15,大楊永業株式会社,,株式会社,大阪府,堺市北区,奥本町１丁７７番３３号,,27,146,5918007,,,,,,,2021-10-15,1,,,,,ダイヨウエイギョウ,0
1956,7120901045059,新規,0,2021-10-15,2021-10-15,株式会社ときこっこ,,株式会社,大阪府,茨木市,彩都あさぎ３丁目８番２７号,,27,211,5670085,,,,,,,2021-10-15,1,,,,,トキコッコ,0
1957,7120901045067,新規,0,2021-10-15,2021-10-15,株式会社ＭＡＳＡＫＩ　ＣＯＦＦＥＥ　ＪＡＰＡＮ,,株式会社,大阪府,豊中市,東寺内町１３－２３,,27,203,5610871,,,,,,,2021-10-15,1,,,,,マサキコーヒージャパン,0
1969,7140001123515,新規,0,2021-10-15,2021-10-15,ｃｏｎｓｔｒｖｉｖｏ株式会社,,株式会社,兵庫県,神戸市東灘区,北青木３丁目７－１３、２階北号,,28,101,6580014,,,,,,,2021-10-15,1,,,,,コンストリーヴィーヴォ,0
1971,7140005025856,新規,0,2021-10-15,2021-10-15,日本キリスト改革派西神協会,,その他の設立登記法人,兵庫県,神戸市西区,糀台２丁目２０番地７,,28,111,6512273,,,,,,,2021-10-15,1,,,,,ニホンキリストカイカクハセイシンキョウカイ,0
1978,7170005006928,新規,0,2021-10-15,2021-10-15,特定非営利活動法人更生サポート縁和会,,その他の設立登記法人,和歌山県,東牟婁郡串本町,串本４６４－７,,30,428,6493503,,,,,,,2021-10-15,1,,,,,コウセイサポートエンワカイ,0
1984,7180001148285,新規,0,2021-10-15,2021-10-15,株式会社建築設計ｇｏ,,株式会社,愛知県,名古屋市北区,大杉１丁目２２番３号,,23,103,4620837,,,,,,,2021-10-15,1,,,,,ケンチクセッケイゴー,0
1985,7180001148302,新規,0,2021-10-15,2021-10-15,株式会社Ｉ‐ＮＥＴ,,株式会社,愛知県,名古屋市緑区,六田２丁目２９番地,,23,114,4580036,,,,,,,2021-10-15,1,,,,,アイネット,0
1986,7180001148335,新規,0,2021-10-15,2021-10-15,株式会社Ｆａｃｔｏｒｉｅｓ　Ａｍｉ,,株式会社,愛知県,名古屋市熱田区,二番２丁目２０番４号,,23,109,4560052,,,,,,,2021-10-15,1,,,,,ファクトリーズアミ,0
1990,7180005019482,新規,0,2021-10-15,2021-10-15,一般社団法人リコンディショニング研究所,,その他の設立登記法人,愛知県,名古屋市緑区,鳴海町字三皿１８番地４鳴海最中マンション２Ｂ,,23,114,4580801,,,,,,,2021-10-15,1,,,,,リコンディショニングケンキュウジョ,0
1999,7220001024473,新規,0,2021-10-15,2021-10-15,ＨＥＲＯ株式会社,,株式会社,石川県,金沢市,京町２０番４１号（アベニューＩＩ・１０１号）,00124575,17,201,9200848,,,,,,,2021-10-15,1,,,,,ヒーロー,0
2001,7230001019035,新規,0,2021-10-15,2021-10-15,株式会社昇運興業,,株式会社,富山県,富山市,黒瀬２９８番地１,,16,201,9398213,,,,,,,2021-10-15,1,,,,,ショウウンコウギョウ,0
2004,7240001058759,新規,0,2021-10-15,2021-10-15,サンクストレーディング株式会社,,株式会社,広島県,福山市,駅家町大字近田１８８番地４,,34,207,7201133,,,,,,,2021-10-15,1,,,,,サンクストレーディング,0
2008,7250001019198,新規,0,2021-10-15,2021-10-15,株式会社拓,,株式会社,山口県,下松市,生野屋２丁目６番３号,,35,207,7440031,,,,,,,2021-10-15,1,,,,,ヒラク,0
2017,7290003011694,新規,0,2021-10-15,2021-10-15,ＲａｙＺｅｎアドバイザリー合同会社,,合同会社,福岡県,福岡市中央区,天神１丁目９番１７号１５階,,40,133,8100001,,,,,,,2021-10-15,1,,,,,レイゼンアドバイザリー,0
2043,7370001047716,新規,0,2021-10-15,2021-10-15,株式会社ＴＢＦ,,株式会社,宮城県,仙台市太白区,八本松２丁目６番２６号,,04,104,9820001,,,,,,,2021-10-15,1,,,,,ティービーエフ,0
2057,7410005006432,新規,0,2021-10-15,2021-10-15,農事組合法人あきた六金,,その他の設立登記法人,秋田県,仙北郡美郷町,六郷東根字一ツ屋９３番地,,05,434,0191403,,,,,,,2021-10-15,1,,,,,アキタムツガネ,0
2085,8010001221751,新規,0,2021-10-15,2021-10-15,おうち・ぷらす株式会社,,株式会社,東京都,中央区,銀座３丁目１３番１－７０２号,,13,102,1040061,,,,,,,2021-10-15,1,,,,,オウチプラス,0
2086,8010001221834,新規,0,2021-10-15,2021-10-15,株式会社インザパーク,,株式会社,東京都,中央区,日本橋馬喰町２丁目７番１５号,,13,102,1030002,,,,,,,2021-10-15,1,,,,,インザパーク,0
2087,8010003036009,新規,0,2021-10-15,2021-10-15,タカコン合同会社,,合同会社,東京都,千代田区,九段南１丁目４番１０号ｏｆｆｉｃｅｈｏｕｒＫｕｄａｎｓｈｉｔａ１０４,,13,101,1020074,,,,,,,2021-10-15,1,,,,,タカコン,0
2088,8010005034084,新規,0,2021-10-15,2021-10-15,一般社団法人日本おもいやり教育機構,,その他の設立登記法人,東京都,千代田区,九段南１丁目５番６号,,13,101,1020074,,,,,,,2021-10-15,1,,,,,ニッポンオモイヤリキョウイクキコウ,0
2100,8010403026352,新規,0,2021-10-15,2021-10-15,フューチャーコンセプト合同会社,,合同会社,東京都,港区,六本木３丁目１８番２号,,13,103,1060032,,,,,,,2021-10-15,1,,,,,フューチャーコンセプト,0
2102,8010405020287,新規,0,2021-10-15,2021-10-15,一般社団法人ＮｏＣｏｄｅ普及協会,,その他の設立登記法人,東京都,港区,虎ノ門５丁目１１番１５号虎ノ門ＫＴビル２階,,13,103,1050001,,,,,,,2021-10-15,1,,,,,ノーコードフキュウキョウカイ,0
2110,8010501047985,新規,0,2021-10-15,2021-10-15,株式会社ＥＭＡ設計,,株式会社,東京都,台東区,北上野２丁目９番１－５０１号,,13,106,1100014,,,,,,,2021-10-15,1,,,,,エマセッケイ,0
2114,8010701041648,新規,0,2021-10-15,2021-10-15,株式会社イエテリア,,株式会社,東京都,品川区,大井１丁目７番６号,,13,109,1400014,,,,,,,2021-10-15,1,,,,,イエテリア,0
2118,8010801032407,新規,0,2021-10-15,2021-10-15,株式会社リヤン,,株式会社,東京都,大田区,大森北３丁目２７－６,,13,111,1430016,,,,,,,2021-10-15,1,,,,,リヤン,0
2120,8010803003918,新規,0,2021-10-15,2021-10-15,合同会社アイガー,,合同会社,東京都,大田区,仲池上１丁目２３番１０号,,13,111,1460081,,,,,,,2021-10-15,1,,,,,アイガー,0
2127,8011001143416,新規,0,2021-10-15,2021-10-15,株式会社ＤＲＥＳＳＯＮ,,株式会社,東京都,渋谷区,円山町５番５号Ｎａｖｉ渋谷Ｖ３階,,13,113,1500044,,,,,,,2021-10-15,1,,,,,ドレスオン,0
2128,8011003013542,新規,0,2021-10-15,2021-10-15,Ｆｉｏｍ合同会社,,合同会社,東京都,渋谷区,神宮前６丁目２３番４号桑野ビル２階,,13,113,1500001,,,,,,,2021-10-15,1,,,,,フィオム,0
2129,8011003013559,新規,0,2021-10-15,2021-10-15,ｙａ合同会社,,合同会社,東京都,目黒区,目黒３丁目２－２１,,13,110,1530063,,,,,,,2021-10-15,1,,,,,ヤ,0
2135,8011101096596,新規,0,2021-10-15,2021-10-15,サウナイデア株式会社,,株式会社,東京都,新宿区,下落合３丁目２０番１６号１５１Ａ－１Ａ,,13,104,1610033,,,,,,,2021-10-15,1,,,,,サウナイデア,0
2137,8011103011090,新規,0,2021-10-15,2021-10-15,合同会社グローリー,,合同会社,東京都,新宿区,百人町１丁目１１番１９号Ｒｏｏｔ５０３,,13,104,1690073,,,,,,,2021-10-15,1,,,,,グローリー,0
2147,8011303004200,新規,0,2021-10-15,2021-10-15,合同会社アドバンス,,合同会社,東京都,杉並区,本天沼１丁目２０番３号プルミエール１０３,,13,115,1670031,,,,,,,2021-10-15,1,,,,,アドバンス,0
2151,8011501027390,新規,0,2021-10-15,2021-10-15,株式会社ＳＧＺ,,株式会社,東京都,北区,赤羽北３丁目２６番５－９１４号,,13,117,1150052,,,,,,,2021-10-15,1,,,,,エスジーゼット,0
2168,8013303005855,新規,0,2021-10-15,2021-10-15,合同会社Ｂｉｎｓｅｒｔ,,合同会社,東京都,豊島区,目白４丁目９番１７号ラモーヌ目白Ｃ号,,13,116,1710031,,,,,,,2021-10-15,1,,,,,ビンサート,0
2177,8021001074230,新規,0,2021-10-15,2021-10-15,株式会社Ｈ＆Ｙ,,株式会社,神奈川県,小田原市,南鴨宮３丁目３５番２０号,,14,206,2500875,,,,,,,2021-10-15,1,,,,,エイチアンドワイ,0
2187,8030001144851,新規,0,2021-10-15,2021-10-15,株式会社アズール,,株式会社,埼玉県,越谷市,大字大房９２１番地１,,11,222,3430027,,,,,,,2021-10-15,1,,,,,アズール,0
2190,8030005020603,新規,0,2021-10-15,2021-10-15,医療法人央友会,,その他の設立登記法人,埼玉県,久喜市,久喜東３丁目２２番２７号,,11,232,3460016,,,,,,,2021-10-15,1,,,,,オウユウカイ,0
2201,8040001120645,新規,0,2021-10-15,2021-10-15,株式会社ＷｅｓｔＰａｒｋ,,株式会社,千葉県,千葉市中央区,富士見２丁目７番９号富士見ビル６０９号,,12,101,2600015,,,,,,,2021-10-15,1,,,,,ウエストパーク,0
2211,8040005021385,新規,0,2021-10-15,2021-10-15,Ｊ．Ｍ．Ｈ．Ｒ協同組合,,その他の設立登記法人,千葉県,佐倉市,井野１４５５番地３,,12,212,2850855,,,,,,,2021-10-15,1,,,,,ジェイエムエイチアール,0
2218,8060001034190,新規,0,2021-10-15,2021-10-15,株式会社Ｔｏｍｍｙ,,株式会社,栃木県,栃木市,大平町富田５１０１番地２,,09,203,3294404,,,,,,,2021-10-15,1,,,,,トミー,0
2219,8060001034199,新規,0,2021-10-15,2021-10-15,株式会社Ａｗａｋｅ,,株式会社,栃木県,宇都宮市,馬場通り３丁目４番７号宇都宮ＰＥＡＫＳ５０３,,09,201,3200026,,,,,,,2021-10-15,1,,,,,アウェイク,0
2243,8120001091572,新規,0,2021-10-15,2021-10-15,株式会社ユージー,,株式会社,大阪府,大阪市中央区,鎗屋町２丁目１番５号,,27,128,5400027,,,,,,,2021-10-15,1,,,,,ユージー,0
2250,8120001241185,新規,0,2021-10-15,2021-10-15,ラクゴー株式会社,,株式会社,大阪府,大阪市浪速区,日本橋５丁目７－１０,,27,111,5560005,,,,,,,2021-10-15,1,,,,,ラクゴー,0
2251,8120001241202,新規,0,2021-10-15,2021-10-15,株式会社サンロード,,株式会社,大阪府,大阪市西区,南堀江２丁目１番１７－９０２号,,27,106,5500015,,,,,,,2021-10-15,1,,,,,サンロード,0
2252,8120001241210,新規,0,2021-10-15,2021-10-15,株式会社ネクセルジャパン,,株式会社,大阪府,大阪市西成区,南津守３丁目１番５１号,,27,122,5570063,,,,,,,2021-10-15,1,,,,,ネクセルジャパン,0
2253,8120001241219,新規,0,2021-10-15,2021-10-15,歓顔株式会社,,株式会社,大阪府,大阪市城東区,蒲生３丁目１５番１２号セザンヌ藤３０３Ｂ,,27,118,5360016,,,,,,,2021-10-15,1,,,,,カンガン,0
2257,8120003020422,新規,0,2021-10-15,2021-10-15,合同会社さくら家,,合同会社,大阪府,大阪市阿倍野区,桃ケ池町２丁目５番９号ロイヤル桃ヶ池１０２号,,27,119,5450012,,,,,,,2021-10-15,1,,,,,サクラヤ,0
2271,8120903003872,新規,0,2021-10-15,2021-10-15,ｂｕｕｒ合同会社,,合同会社,大阪府,高槻市,野田３丁目２５番２２号,,27,207,5690013,,,,,,,2021-10-15,1,,,,,ブール,0
2288,8140001123514,新規,0,2021-10-15,2021-10-15,株式会社Ｒｅ－ｇｒａｐｅｓ　ＯＮＥ,,株式会社,兵庫県,神戸市東灘区,北青木３丁目７－１３,,28,101,6580014,,,,,,,2021-10-15,1,,,,,リグレープスワン,0
2291,8150001025024,新規,0,2021-10-15,2021-10-15,ト代屋株式会社,,株式会社,奈良県,奈良市,右京３丁目２５番地の２,,29,201,6310805,,,,,,,2021-10-15,1,,,,,トヨヤ,0
2292,8150003002517,新規,0,2021-10-15,2021-10-15,サクラ通販商事合同会社,,合同会社,奈良県,桜井市,大字桜井９２７,,29,206,6330091,,,,,,,2021-10-15,1,,,,,サクラツウハンショウジ,0
2293,8160001023729,新規,0,2021-10-15,2021-10-15,Ｃｏｌｔｏｎ　Ｃａｒ　Ｃａｒｅ株式会社,,株式会社,滋賀県,彦根市,南川瀬町１４３０－１８,,25,202,5220222,,,,,,,2021-10-15,1,,,,,コルトンカーケア,0
2302,8180001148301,新規,0,2021-10-15,2021-10-15,株式会社ブリッジスカイ,,株式会社,愛知県,名古屋市中村区,乾出町３丁目４番地,,23,105,4530832,,,,,,,2021-10-15,1,,,,,ブリッジスカイ,0
2303,8180001148334,新規,0,2021-10-15,2021-10-15,株式会社Ｍｏｅ　Ｉｎｔｅｒｎａｔｉｏｎａｌ,,株式会社,愛知県,名古屋市熱田区,二番２丁目２０番４号,,23,109,4560052,,,,,,,2021-10-15,1,,,,,モエインターナショナル,0
2312,8200001039299,新規,0,2021-10-15,2021-10-15,株式会社フリークス,,株式会社,岐阜県,羽島郡笠松町,長池４７８番地２,,21,303,5016063,,,,,,,2021-10-15,1,,,,,フリークス,0
2313,8200003005349,新規,0,2021-10-15,2021-10-15,合同会社ＧＲＯＷＴＨ,,合同会社,岐阜県,可児市,川合２３４０番地１,,21,214,5090201,,,,,,,2021-10-15,1,,,,,グロース,0
2315,8220003003136,新規,0,2021-10-15,2021-10-15,合同会社Ｌｉｆｅ　ＱＵ,,合同会社,石川県,七尾市,本府中町エ部１１４番地２,,17,202,9260021,,,,,,,2021-10-15,1,,,,,ライフキューユー,0
2317,8230001019034,新規,0,2021-10-15,2021-10-15,株式会社たかた,,株式会社,富山県,高岡市,中保１３０４番地,,16,202,9330331,,,,,,,2021-10-15,1,,,,,タカタ,0
2318,8230003001741,新規,0,2021-10-15,2021-10-15,合同会社Ｌ＆Ｐ,,合同会社,富山県,富山市,八尾町田中１６０番地１,,16,201,9392371,,,,,,,2021-10-15,1,,,,,エルアンドピー,0
2332,8290001095004,新規,0,2021-10-15,2021-10-15,株式会社Ｖｅｇｇｉｅｕ,,株式会社,福岡県,久留米市,日吉町１５番地２５,,40,203,8300017,,,,,,,2021-10-15,1,,,,,ベジュー,0
2355,8360001029482,新規,0,2021-10-15,2021-10-15,株式会社盛工芸,,株式会社,沖縄県,糸満市,字阿波根８７３－１,,47,210,9010301,,,,,,,2021-10-15,1,,,,,モリゴウゲイ,0
2366,8410005006431,新規,0,2021-10-15,2021-10-15,特定非営利活動法人秋田県精神保健福祉会連合会,,その他の設立登記法人,秋田県,秋田市,旭北栄町１番５号秋田県社会福祉会館４階,,05,201,0100922,,,,,,,2021-10-15,1,,,,,アキタケンセイシンホケンフクシカイレンゴウカイ,0
2371,8450001013510,新規,0,2021-10-15,2021-10-15,株式会社スリーコモン,,株式会社,北海道,富良野市,山部南町２番６号,,01,229,0791565,,,,,,,2021-10-15,1,,,,,スリーコモン,0
2387,9010001221783,新規,0,2021-10-15,2021-10-15,株式会社ＭＥＴＡＣＯＭ,,株式会社,東京都,中央区,銀座１丁目２２番１１号銀座大竹ビジデンス２階,,13,102,1040061,,,,,,,2021-10-15,1,,,,,メタコム,0
2388,9010001221858,新規,0,2021-10-15,2021-10-15,株式会社７３,,株式会社,東京都,文京区,湯島３丁目３１－５ＹＵＳＨＩＭＡ３３１５ビル５Ｆ,,13,105,1130034,,,,,,,2021-10-15,1,,,,,セブンスリー,0
2393,9010003036016,新規,0,2021-10-15,2021-10-15,合同会社アーバンハピネス,,合同会社,東京都,中央区,日本橋１丁目４番１号,,13,102,1030027,,,,,,,2021-10-15,1,,,,,アーバンハピネス,0
2404,9010401163262,新規,0,2021-10-15,2021-10-15,株式会社ＭｏｄｅｒｎＺｅｎ,,株式会社,東京都,港区,虎ノ門１丁目１７番１号,,13,103,1050001,,,,,,,2021-10-15,1,,,,,モダンゼン,0
2406,9010403026269,新規,0,2021-10-15,2021-10-15,ＤＩＭＥＮＳＩＯＮ２号合同会社,,合同会社,東京都,港区,虎ノ門１丁目１７番１号,,13,103,1050001,,,,,,,2021-10-15,1,,,,,ディメンションニゴウ,0
2407,9010403026319,新規,0,2021-10-15,2021-10-15,合同会社ｍｏｍｏ,,合同会社,東京都,港区,赤坂３丁目１５番３号忍路ビル２Ｆあさり,,13,103,1070052,,,,,,,2021-10-15,1,,,,,モモ,0
2413,9010601060094,新規,0,2021-10-15,2021-10-15,保田会計コンサルティング株式会社,,株式会社,東京都,江東区,越中島１丁目３番１－２１６号,,13,108,1350044,,,,,,,2021-10-15,1,,,,,ヤスダカイケイコンサルティング,0
2416,9010701041663,新規,0,2021-10-15,2021-10-15,株式会社さんしょう不動産,,株式会社,東京都,品川区,東五反田５丁目１４番１４号,,13,109,1410022,,,,,,,2021-10-15,1,,,,,サンショウフドウサン,0
2424,9010801032406,新規,0,2021-10-15,2021-10-15,ＢＥＰ株式会社,,株式会社,東京都,大田区,田園調布３丁目２２番１３号,,13,111,1450071,,,,,,,2021-10-15,1,,,,,ビーイーピー,0
2427,9010903006869,新規,0,2021-10-15,2021-10-15,合同会社ＳＰＥＣＴ　ＭＯＲＡＬｉａ,,合同会社,東京都,世田谷区,野沢４丁目１番７－１３０３号,,13,112,1540003,,,,,,,2021-10-15,1,,,,,エスペクトモラリア,0
2432,9011003013558,新規,0,2021-10-15,2021-10-15,合同会社Ｐｒｏｆｅｓｓｉｏｎａｌ　Ｅｎｔｉｔｌｅｍｅｎｔ　Ｗｏｒｋｅｒ,,合同会社,東京都,渋谷区,神宮前６丁目２３番４号桑野ビル２階,,13,113,1500001,,,,,,,2021-10-15,1,,,,,プロフェッショナルエンタイトルメントワーカー,0
2454,9011801039837,新規,0,2021-10-15,2021-10-15,株式会社ＹＮ商事,,株式会社,東京都,足立区,本木西町８番１０号,,13,121,1230856,,,,,,,2021-10-15,1,,,,,ワイエヌショウジ,0
2455,9011803004830,新規,0,2021-10-15,2021-10-15,合同会社信和,,合同会社,東京都,足立区,谷中１丁目１０番３－２０３号,,13,121,1200006,,,,,,,2021-10-15,1,,,,,シンワ,0
2468,9013303005854,新規,0,2021-10-15,2021-10-15,ＫＩＮ合同会社,,合同会社,東京都,豊島区,南大塚２丁目４１番４号南大塚ビル３階,,13,116,1700005,,,,,,,2021-10-15,1,,,,,キン,0
2473,9020001143473,新規,0,2021-10-15,2021-10-15,株式会社Ｉｍｐｅｒｉａｌ　ＲＥＤ,,株式会社,神奈川県,横浜市西区,北幸１丁目１番８号,,14,103,2200004,,,,,,,2021-10-15,1,,,,,インペリアルレッド,0
2474,9020001143498,新規,0,2021-10-15,2021-10-15,株式会社ＵＰ＆ＤＯＷＮ,,株式会社,神奈川県,川崎市中原区,井田中ノ町四丁目２番,,14,133,2110034,,,,,,,2021-10-15,1,,,,,アッペンダウン,0
2475,9020001143507,新規,0,2021-10-15,2021-10-15,株式会社ＲｅＫ’ｓ,,株式会社,神奈川県,横浜市中区,港町５丁目１８,,14,104,2310017,,,,,,,2021-10-15,1,,,,,リケーズ,0
2477,9020003020638,新規,0,2021-10-15,2021-10-15,合同会社夢送企画,,合同会社,神奈川県,横浜市金沢区,釜利谷西３丁目２２番６号,,14,108,2360046,,,,,,,2021-10-15,1,,,,,ムソウキカク,0
2480,9021003010991,新規,0,2021-10-15,2021-10-15,ｅｖｅｒｆｒｅｅ合同会社,,合同会社,神奈川県,相模原市南区,上鶴間本町５丁目１９番５－４０２号,,14,153,2520318,,,,,,,2021-10-15,1,,,,,エバーフリー,0
2489,9030001144859,新規,0,2021-10-15,2021-10-15,株式会社アルフグループ建設,,株式会社,埼玉県,川口市,戸塚東１丁目７番１５号イーストハウス４０３号,,11,203,3330802,,,,,,,2021-10-15,1,,,,,アルフグループケンセツ,0
2493,9030003018004,新規,0,2021-10-15,2021-10-15,Ｅｔｈｉｃ＆Ｓｕｓｔａｉｎａ．合同会社,,合同会社,埼玉県,所沢市,旭町１５番１２号,,11,208,3590036,,,,,,,2021-10-15,1,,,,,エシックアンドサスティナ,0
2494,9030005020569,新規,0,2021-10-15,2021-10-15,医療法人社団朝柳会,,その他の設立登記法人,埼玉県,熊谷市,佐谷田字不動堂７４３番地,,11,202,3600023,,,,,,,2021-10-15,1,,,,,トキリュウカイ,0
2495,9030005020602,新規,0,2021-10-15,2021-10-15,医療法人結蒼会,,その他の設立登記法人,埼玉県,行田市,栄町１７番１１号１階,,11,206,3610071,,,,,,,2021-10-15,1,,,,,ユウソウカイ,0
2509,9060001034198,新規,0,2021-10-15,2021-10-15,株式会社丸高商店,00124581,株式会社,栃木県,大田原市,本町１丁目２７０７番地２,,09,210,3240041,,,,,,,2021-10-15,1,,,,,マルタカショウテン,0
2511,9070001038545,新規,0,2021-10-15,2021-10-15,株式会社ＴＥＴＯＲＩＳＩＡ,,株式会社,群馬県,太田市,飯塚町８６９－２,,10,205,3730817,,,,,,,2021-10-15,1,,,,,テトリシア,0
2514,9080001024511,新規,0,2021-10-15,2021-10-15,Ｙ．Ｓ．Ｈｏｎｅｓｔｙ株式会社,,株式会社,静岡県,藤枝市,駅前１丁目８番２２－１７０６号,,22,214,4260034,,,,,,,2021-10-15,1,,,,,ワイエスオネスティー,0
2521,9110005016724,新規,0,2021-10-15,2021-10-15,一般社団法人かえで,,その他の設立登記法人,新潟県,新潟市秋葉区,北上新田３７６番３号菜の花２階２号室,,15,105,9560021,,,,,,,2021-10-15,1,,,,,カエデ,0
2532,9120001241218,新規,0,2021-10-15,2021-10-15,ＯｓａｋａＭｏｔｏｒｓ株式会社,,株式会社,大阪府,大阪市中央区,西心斎橋２丁目１２番２２号,,27,128,5420086,,,,,,,2021-10-15,1,,,,,オーサカモーターズ,0
2533,9120001241226,新規,0,2021-10-15,2021-10-15,株式会社ＤＮＡ　ＷＯＲＫＳ,,株式会社,大阪府,大阪市西区,新町２丁目１番２－１８０４号,,27,106,5500013,,,,,,,2021-10-15,1,,,,,ディーエヌエーワークス,0
2534,9120001241250,新規,0,2021-10-15,2021-10-15,株式会社Ｔｈｉｒｄ　ｐｌａｃｅ,,株式会社,大阪府,大阪市浪速区,難波中３丁目６番３号Ｔ４ビルディング８０２号,,27,111,5560011,,,,,,,2021-10-15,1,,,,,サードプレイス,0
2540,9120003020421,新規,0,2021-10-15,2021-10-15,おもてなしマインド合同会社,,合同会社,大阪府,枚方市,招提中町２丁目２７番５号,,27,210,5731152,,,,,,,2021-10-15,1,,,,,オモテナシマインド,0
2546,9120005022548,新規,0,2021-10-15,2021-10-15,社会保険労務士法人ＡＬＬＲＯＵＮＤ大阪梅田,,その他の設立登記法人,大阪府,大阪市北区,梅田１丁目１番３号,,27,127,5300001,,,,,,,2021-10-15,1,,,,,オールラウンドオオサカウメダ,0
2547,9120103004398,新規,0,2021-10-15,2021-10-15,合同会社花笑み,,合同会社,大阪府,大阪狭山市,大野台５丁目１１番２号,,27,231,5890023,,,,,,,2021-10-15,1,,,,,ハナエミ,0
2551,9120901045057,新規,0,2021-10-15,2021-10-15,株式会社ＳＫコーポレーション,,株式会社,大阪府,吹田市,南正雀１丁目１１番１号,,27,205,5640012,,,,,,,2021-10-15,1,,,,,エスケーコーポレーション,0
2552,9120901045065,新規,0,2021-10-15,2021-10-15,株式会社舞空,,株式会社,大阪府,茨木市,大字桑原２０－２,,27,211,5680094,,,,,,,2021-10-15,1,,,,,マイクウ,0
2555,9120903003871,新規,0,2021-10-15,2021-10-15,ＩＴＯ　Ｆｕｎｄ　Ｍａｎａｇｅｍｅｎｔ合同会社,,合同会社,大阪府,吹田市,千里山虹が丘９－１シエリアシティ千里山Ａ棟３０１号,,27,205,5650846,,,,,,,2021-10-15,1,,,,,イトウファンドマネジメント,0
2557,9130005016292,新規,0,2021-10-15,2021-10-15,特定非営利活動法人ひと・まち・ジャンクション,,その他の設立登記法人,京都府,久世郡久御山町,西一口古城２７番地,,26,322,6130026,,,,,,,2021-10-15,1,,,,,ヒトマチジャンクション,0
2562,9140001123455,新規,0,2021-10-15,2021-10-15,株式会社里村建装,,株式会社,兵庫県,尼崎市,常松１丁目３０番２２号,,28,202,6610046,,,,,,,2021-10-15,1,,,,,サトムラケンソウ,0
2563,9140001123505,新規,0,2021-10-15,2021-10-15,白株式会社,,株式会社,兵庫県,姫路市,飾磨区中野田２丁目９８番地１階,,28,201,6728045,,,,,,,2021-10-15,1,,,,,ハク,0
2564,9140001123513,新規,0,2021-10-15,2021-10-15,本家嘉顯株式会社,,株式会社,兵庫県,西宮市,久出ケ谷町１番２３号,,28,204,6620077,,,,,,,2021-10-15,1,,,,,ホンケヨシアキ,0
2570,9140003016871,新規,0,2021-10-15,2021-10-15,合同会社サンティアン,,合同会社,兵庫県,洲本市,宇原１２８９,,28,205,6560054,,,,,,,2021-10-15,1,,,,,サンティアン,0
2575,9160001023728,新規,0,2021-10-15,2021-10-15,株式会社村忠不動産販売,,株式会社,滋賀県,大津市,大江５丁目１４番１３号,,25,201,5202141,,,,,,,2021-10-15,1,,,,,ムラチュウフドウサンハンバイ,0
2576,9160003002408,新規,0,2021-10-15,2021-10-15,合同会社ＹＭＤ,,合同会社,滋賀県,守山市,荒見町１９７－４,,25,207,5240016,,,,,,,2021-10-15,1,,,,,ワイエムディ,0
2577,9170003001648,新規,0,2021-10-15,2021-10-15,合同会社ペルシア,,合同会社,和歌山県,和歌山市,島９７番地２,,30,201,6496314,,,,,,,2021-10-15,1,,,,,ペルシア,0
2584,9180001148333,新規,0,2021-10-15,2021-10-15,株式会社フォーティエイト,,株式会社,愛知県,名古屋市熱田区,二番２丁目２０番４号,,23,109,4560052,,,,,,,2021-10-15,1,,,,,フォーティエイト,0
2590,9190001028781,新規,0,2021-10-15,2021-10-15,株式会社日総,,株式会社,三重県,四日市市,川島町６６１２番地２,,24,202,5120934,,,,,,,2021-10-15,1,,,,,ニッソウ,0
2592,9200001039307,新規,0,2021-10-15,2021-10-15,山美工業株式会社,,株式会社,岐阜県,多治見市,下沢町４丁目２７番地の２９,,21,204,5070812,,,,,,,2021-10-15,1,,,,,ヤマヨシコウギョウ,0
2617,9290001094830,新規,0,2021-10-15,2021-10-15,株式会社モン・クール,,株式会社,福岡県,福岡市中央区,平尾２丁目１３番２２号,,40,133,8100014,,,,,,,2021-10-15,1,,,,,モンクール,0
2618,9290001095044,新規,0,2021-10-15,2021-10-15,株式会社ＩＣＨＩＥＮ,,株式会社,福岡県,福岡市中央区,西中洲１－２１ＧＩＯビル２Ｆ,,40,133,8100002,,,,,,,2021-10-15,1,,,,,イチエン,0
2625,9290003011718,新規,0,2021-10-15,2021-10-15,ＡＧＡＩＮ合同会社,,合同会社,福岡県,福岡市博多区,中洲５丁目２番３号松居壱番館３Ｆ,,40,132,8100801,,,,,,,2021-10-15,1,,,,,アゲイン,0
2627,9310001017532,新規,0,2021-10-15,2021-10-15,株式会社高山,,株式会社,長崎県,東彼杵郡波佐見町,小樽郷７５７番地,00124573,42,323,8593704,,,,,,,2021-10-15,1,,,,,タカヤマ,0
2636,9340001024179,新規,0,2021-10-15,2021-10-15,株式会社ジェイジェイプランニン,,株式会社,鹿児島県,鹿児島市,松原町１１番１号アルファイムビル６０１号,,46,201,8920833,,,,,,,2021-10-15,1,,,,,ジェイジェイプランニン,0
2639,9340003003593,新規,0,2021-10-15,2021-10-15,合同会社ＬＩＮＫ,,合同会社,鹿児島県,姶良市,西餅田３３９７番地２４,,46,225,8995431,,,,,,,2021-10-15,1,,,,,リンク,0
2650,9380001032260,新規,0,2021-10-15,2021-10-15,株式会社ｃｖ　ｄｉｇｉｔａｌ,,株式会社,福島県,郡山市,安積荒井３丁目４９７Ｂ号ｃｖ－ｓｔｕｄｉｏ,,07,203,9630117,,,,,,,2021-10-15,1,,,,,シーブイデジタル,0
2654,9420003002397,新規,0,2021-10-15,2021-10-15,大間不動産合同会社,,合同会社,青森県,下北郡大間町,大字大間字中山２５番地４４,,02,423,0394601,,,,,,,2021-10-15,1,,,,,オオマフドウサン,0
2660,9460103001403,新規,0,2021-10-15,2021-10-15,合同会社Ｓｐｒｅａｄ,,合同会社,北海道,帯広市,西十八条南５丁目５２番地９,,01,207,0800028,,,,,,,2021-10-15,1,,,,,スプレッド,0
2664,9700150105346,新規,0,2021-10-15,2021-10-15,グリーンコーポ朝霞台第２マンション建替組合,,その他,東京都,江東区,東陽２丁目４番２４号,,13,108,1350016,,,,,,,2021-10-15,1,,,,,グリーンコーポアサカダイダイニマンシヨンタテカエクミアイ,0
