sequenceNumber,corporateNumber,process,correct,updateDate,changeDate,name,nameImageId,kind,prefectureName,cityName,streetNumber,addressImageId,prefectureCode,cityCode,postCode,addressOutside,addressOutsideImageId,closeDate,closeCause,successorCorporateNumber,changeCause,assignmentDate,latest,enName,enPrefectureName,enCityName,enAddressOutside,furigana,hihyoji
7,1010001231162,新規,0,2022-11-30,2022-11-30,株式会社轟屋,,株式会社,東京都,中央区,京橋１丁目１８番２－１５０４号,,13,102,1040031,,,,,,,2022-11-30,1,,,,,トドロキヤ,0
9,1010003039208,新規,0,2022-11-30,2022-11-30,合同会社オルタナ２１,,合同会社,東京都,千代田区,丸の内３丁目１番１号東京共同会計事務所内,,13,101,1000005,,,,,,,2022-11-30,1,,,,,オルタナトゥウェンティワン,0
18,1010403028999,新規,0,2022-11-30,2022-11-30,合同会社かすみ第８発電所,,合同会社,東京都,港区,六本木３丁目２番１号,,13,103,1060032,,,,,,,2022-11-30,1,,,,,カスミダイハチハツデンショ,0
19,1010403029015,新規,0,2022-11-30,2022-11-30,合同会社用山第一発電所,,合同会社,東京都,港区,六本木３丁目２番１号,,13,103,1060032,,,,,,,2022-11-30,1,,,,,モチヤマダイイチハツデンショ,0
20,1010403029023,新規,0,2022-11-30,2022-11-30,合同会社日向発電所,,合同会社,東京都,港区,六本木３丁目２番１号,,13,103,1060032,,,,,,,2022-11-30,1,,,,,ヒュウガハツデンショ,0
21,1010501049690,新規,0,2022-11-30,2022-11-30,株式会社和光一陽,,株式会社,東京都,台東区,千束３丁目９番５号浅草櫻の宮２０３号室,,13,106,1110031,,,,,,,2022-11-30,1,,,,,ワコウイチヨウ,0
22,1010503006797,新規,0,2022-11-30,2022-11-30,合同会社アトリエカラナ,,合同会社,東京都,台東区,上野３丁目１４番２号ＵＥＮＯＹＯＵＲ２ｎｄ,,13,106,1100005,,,,,,,2022-11-30,1,,,,,アトリエカラナ,0
28,1010601062214,新規,0,2022-11-30,2022-11-30,株式会社マルイチ,,株式会社,東京都,墨田区,八広２丁目５９番２号竹内工業株式会社,,13,107,1310041,,,,,,,2022-11-30,1,,,,,マルイチ,0
29,1010601062222,新規,0,2022-11-30,2022-11-30,御＿株式会社,00128630,株式会社,東京都,江東区,東砂５丁目５番６－２１２号,,13,108,1360074,,,,,,,2022-11-30,1,,,,,オンジュ,0
31,1010603009865,新規,0,2022-11-30,2022-11-30,合同会社ＧＲＯＯＷ,,合同会社,東京都,墨田区,文花１丁目１８－１３,,13,107,1310044,,,,,,,2022-11-30,1,,,,,グロー,0
35,1010701043535,新規,0,2022-11-30,2022-11-30,Ａｉｍ株式会社,,株式会社,東京都,品川区,上大崎２丁目１３番２９号ルミエール上大崎１００２,,13,109,1410021,,,,,,,2022-11-30,1,,,,,エイム,0
36,1010701043543,新規,0,2022-11-30,2022-11-30,Ｖｅｒｔｅｘ　Ｈ＆Ｍ株式会社,,株式会社,東京都,品川区,西五反田６丁目１４番１－３０２,,13,109,1410031,,,,,,,2022-11-30,1,,,,,バーテックスエイチアンドエム,0
40,1010901052055,新規,0,2022-11-30,2022-11-30,株式会社タラントン,,株式会社,東京都,世田谷区,上野毛３丁目１３－８秀和上野毛レジデンス１０２,,13,112,1580093,,,,,,,2022-11-30,1,,,,,,0
41,1010901052063,新規,0,2022-11-30,2022-11-30,株式会社トリコ,,株式会社,東京都,世田谷区,経堂４丁目３５番７号,,13,112,1560052,,,,,,,2022-11-30,1,,,,,,0
45,1011001151219,新規,0,2022-11-30,2022-11-30,株式会社Ｄｕａｌ　Ｂｒｉｄｇｅ　Ｃａｐｉｔａｌ,,株式会社,東京都,渋谷区,松濤１丁目２９番１号渋谷クロスロード６階,,13,113,1500046,,,,,,,2022-11-30,1,,,,,デュアルブリッジキャピタル,0
52,1011103012426,新規,0,2022-11-30,2022-11-30,合同会社センス,,合同会社,東京都,新宿区,西新宿６丁目１２番６号コアロード西新宿６０６,,13,104,1600023,,,,,,,2022-11-30,1,,,,,センス,0
53,1011103012442,新規,0,2022-11-30,2022-11-30,ＢＡＳＨＵＤＥＶ合同会社,,合同会社,東京都,新宿区,百人町２丁目１７番２４－５０７号,,13,104,1690073,,,,,,,2022-11-30,1,,,,,バスディバ,0
54,1011201024257,新規,0,2022-11-30,2022-11-30,株式会社ＨＥＸＥＬ　Ｃａｐｉｔａｌ　Ｍａｎａｇｅｍｅｎｔ,,株式会社,東京都,中野区,中央１丁目４４番８号,,13,114,1640011,,,,,,,2022-11-30,1,,,,,ヘクセルキャピタルマネジメント,0
62,1011701025820,新規,0,2022-11-30,2022-11-30,株式会社永幸工業,,株式会社,東京都,江戸川区,南葛西４丁目１番１１号,,13,123,1340085,,,,,,,2022-11-30,1,,,,,エイコウコウギョウ,0
66,1012301013224,新規,0,2022-11-30,2022-11-30,株式会社ゼニス,,株式会社,東京都,町田市,鶴川３丁目２１番地１０,,13,209,1950061,,,,,,,2022-11-30,1,,,,,ゼニス,0
68,1012403005706,新規,0,2022-11-30,2022-11-30,合同会社新未来,,合同会社,東京都,狛江市,中和泉２丁目１０番１４－１０６号,,13,219,2010012,,,,,,,2022-11-30,1,,,,,シンミライ,0
69,1012405004805,新規,0,2022-11-30,2022-11-30,一般社団法人ＣＯＭＨＣａ,,その他の設立登記法人,東京都,武蔵野市,西久保３丁目１９‐１０,,13,203,1800013,,,,,,,2022-11-30,1,,,,,コムカ,0
78,1020001149164,新規,0,2022-11-30,2022-11-30,株式会社西谷不動産,,株式会社,神奈川県,横浜市金沢区,釜利谷東１丁目１１番１２号,,14,108,2360042,,,,,,,2022-11-30,1,,,,,ニシヤフドウサン,0
79,1020001149189,新規,0,2022-11-30,2022-11-30,株式会社ｎｅｕｅｍｅ,,株式会社,神奈川県,川崎市高津区,下作延２丁目５－４３アールエービル２０３,,14,134,2130033,,,,,,,2022-11-30,1,,,,,ノイミー,0
89,1021001077578,新規,0,2022-11-30,2022-11-30,株式会社Ｈｉ建築設計,,株式会社,神奈川県,中郡二宮町,川匂２７番地,,14,342,2590125,,,,,,,2022-11-30,1,,,,,ハイケンチクセッケイ,0
104,1030001151251,新規,0,2022-11-30,2022-11-30,タカミソリューションズ株式会社,,株式会社,埼玉県,加須市,川口３丁目１１番地２６,,11,210,3470014,,,,,,,2022-11-30,1,,,,,タカミソリューションズ,0
116,1040001125980,新規,0,2022-11-30,2022-11-30,株式会社ＩＢＵＫＩ,,株式会社,千葉県,市原市,君塚２丁目１７番地８,,12,219,2900051,,,,,,,2022-11-30,1,,,,,イブキ,0
117,1040001126005,新規,0,2022-11-30,2022-11-30,株式会社ＬＯＣＡＬ　ＢＡＳＥ,,株式会社,千葉県,成田市,不動ケ岡２１１５番地３,,12,211,2860044,,,,,,,2022-11-30,1,,,,,ローカルベース,0
118,1040001126013,新規,0,2022-11-30,2022-11-30,Ａｎｏｔｈｅｒ　Ｐｌａｃｅ株式会社,,株式会社,千葉県,木更津市,金田東３丁目１番地３,,12,206,2920009,,,,,,,2022-11-30,1,,,,,アナザープレイス,0
119,1040001126021,新規,0,2022-11-30,2022-11-30,株式会社Ｓｔｙｌｅ,,株式会社,千葉県,成田市,郷部１４５０番地ファインビル２０２,,12,211,2860014,,,,,,,2022-11-30,1,,,,,スタイル,0
120,1040001126046,新規,0,2022-11-30,2022-11-30,株式会社Ｒａｖｅｎ,,株式会社,千葉県,市川市,田尻５丁目１３番１８－３０３号（ドエルウエスト）,,12,203,2720014,,,,,,,2022-11-30,1,,,,,レイヴン,0
134,1070001039864,新規,0,2022-11-30,2022-11-30,株式会社ＡＧ,,株式会社,群馬県,前橋市,大渡町１丁目１番地５８,,10,201,3710854,,,,,,,2022-11-30,1,,,,,エージー,0
155,1120001250580,新規,0,2022-11-30,2022-11-30,創火火株式会社,,株式会社,大阪府,大阪市中央区,高津３丁目８番１９号スター・レジデンス黒門６０３号室,,27,128,5420072,,,,,,,2022-11-30,1,,,,,ソウヒヒ,0
156,1120001250614,新規,0,2022-11-30,2022-11-30,株式会社三和ネクステージ,,株式会社,大阪府,大阪市浪速区,桜川２丁目７番１７号,,27,111,5560022,,,,,,,2022-11-30,1,,,,,サンワネクステージ,0
157,1120001250622,新規,0,2022-11-30,2022-11-30,福晟商事株式会社,,株式会社,大阪府,大阪市中央区,高津３丁目１番１号,,27,128,5420072,,,,,,,2022-11-30,1,,,,,フクセイショウジ,0
158,1120001250639,新規,0,2022-11-30,2022-11-30,株式会社Ｃｏｌｏｒｓ　Ｄｉａｍｏｎｄ,,株式会社,大阪府,大阪市中央区,備後町２丁目５番８号,,27,128,5410051,,,,,,,2022-11-30,1,,,,,カラーズダイアモンド,0
159,1120001250647,新規,0,2022-11-30,2022-11-30,大和開発株式会社,,株式会社,大阪府,大阪市北区,野崎町３番２号,,27,127,5300055,,,,,,,2022-11-30,1,,,,,ダイワカイハツ,0
160,1120003022953,新規,0,2022-11-30,2022-11-30,合同会社コラボレーション,,合同会社,大阪府,大阪市淀川区,木川東１丁目９番１４号,,27,123,5320012,,,,,,,2022-11-30,1,,,,,コラボレーション,0
161,1120003022961,新規,0,2022-11-30,2022-11-30,ＥＣＯ‐ＣＯＬＯＮＹ合同会社,,合同会社,大阪府,大阪市西区,新町１丁目６番２３号,,27,106,5500013,,,,,,,2022-11-30,1,,,,,エココロニー,0
162,1120005023314,新規,0,2022-11-30,2022-11-30,一般社団法人まにふぁーむ,,その他の設立登記法人,大阪府,大阪市東淀川区,大桐５丁目１－１９,,27,114,5330011,,,,,,,2022-11-30,1,,,,,マニファーム,0
177,1140001128206,新規,0,2022-11-30,2022-11-30,株式会社たるみ薬局,,株式会社,兵庫県,神戸市垂水区,歌敷山１丁目３番２９号,,28,108,6550037,,,,,,,2022-11-30,1,,,,,タルミヤッキョク,0
178,1140003018405,新規,0,2022-11-30,2022-11-30,Ａｒｗｉｄｓ合同会社,,合同会社,兵庫県,神戸市灘区,桜ケ丘町１５番５５号リビオ六甲高羽４２５号室,,28,102,6570021,,,,,,,2022-11-30,1,,,,,アーウィズ,0
179,1140003018421,新規,0,2022-11-30,2022-11-30,合同会社ホワイト,,合同会社,兵庫県,姫路市,東今宿１丁目５番１１号ネオハイツ今宿Ｂ棟６０１,,28,201,6700056,,,,,,,2022-11-30,1,,,,,ホワイト,0
183,1160003002745,新規,0,2022-11-30,2022-11-30,合同会社ＯＸＯＯＬ,,合同会社,滋賀県,大津市,大江７丁目８番５７号,,25,201,5202141,,,,,,,2022-11-30,1,,,,,オクソル,0
192,1180001153976,新規,0,2022-11-30,2022-11-30,株式会社かわでん,,株式会社,愛知県,名古屋市西区,名西１丁目４番１７号,,23,104,4510064,,,,,,,2022-11-30,1,,,,,カワデン,0
193,1180001154000,新規,0,2022-11-30,2022-11-30,エイトストルゲー株式会社,,株式会社,愛知県,名古屋市東区,泉２丁目２４番１９号,,23,102,4610001,,,,,,,2022-11-30,1,,,,,エイトストルゲー,0
196,1180003024548,新規,0,2022-11-30,2022-11-30,合同会社オフ・グリッド,,合同会社,愛知県,名古屋市熱田区,千代田町四丁目２１番地,,23,109,4560073,,,,,,,2022-11-30,1,,,,,オフグリッド,0
200,1180301036856,新規,0,2022-11-30,2022-11-30,ＣＨＩＭＥ株式会社,,株式会社,愛知県,岡崎市,大和町字荒田１１番地６,,23,202,4440931,,,,,,,2022-11-30,1,,,,,チャイム,0
217,1260001037444,新規,0,2022-11-30,2022-11-30,株式会社リーフ,,株式会社,岡山県,総社市,門田１５２番地,,33,208,7191156,,,,,,,2022-11-30,1,,,,,リーフ,0
218,1260001037452,新規,0,2022-11-30,2022-11-30,株式会社Ｓｃａｆｆｏｌｄ,,株式会社,岡山県,岡山市南区,植松１番地３,,33,104,7100151,,,,,,,2022-11-30,1,,,,,スカフォールド,0
221,1290001099688,新規,0,2022-11-30,2022-11-30,株式会社ヴォイスエフ,,株式会社,福岡県,福岡市博多区,博多駅中央街５番１１号,,40,132,8120012,,,,,,,2022-11-30,1,,,,,ヴォイスエフ,0
222,1290003013242,新規,0,2022-11-30,2022-11-30,Ｎ‐ＬＩＦＥ合同会社,,合同会社,福岡県,糸島市,高田４丁目４番１１号,,40,230,8191102,,,,,,,2022-11-30,1,,,,,エヌライフ,0
230,1340005009530,新規,0,2022-11-30,2022-11-30,種子島にしのおもて地域づくり協同組合,,その他の設立登記法人,鹿児島県,西之表市,池田９８６７番地２,,46,213,8913114,,,,,,,2022-11-30,1,,,,,タネガシマニシノオモテチイキヅクリ,0
233,1360001031263,新規,0,2022-11-30,2022-11-30,株式会社ピーシス,,株式会社,沖縄県,那覇市,東町１９番１７－１００３号エンゼルハイム東町,,47,201,9000034,,,,,,,2022-11-30,1,,,,,ピーシス,0
235,1370001049296,新規,0,2022-11-30,2022-11-30,ワイズクオリティ株式会社,,株式会社,宮城県,仙台市青葉区,大町２丁目１０番１４号,,04,101,9800804,,,,,,,2022-11-30,1,,,,,ワイズクオリティ,0
264,1700150112663,新規,0,2022-11-30,2022-11-08,みえ尾鷲海洋深層水利用協議会,,その他,三重県,尾鷲市,古江町８０６,,24,209,5193922,,,,,,,2022-11-08,1,,,,,ミエオワセカイヨウシンソウスイリヨウキヨウギカイ,0
271,2010001231203,新規,0,2022-11-30,2022-11-30,株式会社ＡＰＰＯＳＴＥＲ　ＪＡＰＡＮ,,株式会社,東京都,千代田区,霞が関３丁目２番５号霞が関ビル５階,,13,101,1000013,,,,,,,2022-11-30,1,,,,,アポスタージャパン,0
282,2010401171040,新規,0,2022-11-30,2022-11-30,株式会社ＨＯＵＳＹ,,株式会社,東京都,港区,六本木７丁目７番７号８階,,13,103,1060032,,,,,,,2022-11-30,1,,,,,ハウジー,0
285,2010403028998,新規,0,2022-11-30,2022-11-30,合同会社棚倉発電所,,合同会社,東京都,港区,六本木３丁目２番１号,,13,103,1060032,,,,,,,2022-11-30,1,,,,,タナクラハツデンショ,0
286,2010403029014,新規,0,2022-11-30,2022-11-30,合同会社東松島市大塩発電所,,合同会社,東京都,港区,六本木３丁目２番１号,,13,103,1060032,,,,,,,2022-11-30,1,,,,,ヒガシマツシマシオオシオハツデンショ,0
287,2010403029022,新規,0,2022-11-30,2022-11-30,合同会社日光市小林発電所,,合同会社,東京都,港区,六本木３丁目２番１号,,13,103,1060032,,,,,,,2022-11-30,1,,,,,ニッコウシコバヤシハツデンショ,0
302,2010901052021,新規,0,2022-11-30,2022-11-30,株式会社ＣＡＰＴ,,株式会社,東京都,世田谷区,喜多見６丁目１７番１２号,,13,112,1570067,,,,,,,2022-11-30,1,,,,,キャプト,0
303,2010901052046,新規,0,2022-11-30,2022-11-30,株式会社アトリエＲｏｓｅ成城,,株式会社,東京都,世田谷区,成城９丁目２６番５号,,13,112,1570066,,,,,,,2022-11-30,1,,,,,アトリエローズセイジョウ,0
309,2011001151192,新規,0,2022-11-30,2022-11-30,株式会社恵比寿企画,,株式会社,東京都,渋谷区,恵比寿西２丁目２０番５号代官山パーフェクトルーム２１５号室,,13,113,1500021,,,,,,,2022-11-30,1,,,,,エビスキカク,0
316,2011103012441,新規,0,2022-11-30,2022-11-30,ＭＳＰ　ＪＡＰＡＮ合同会社,,合同会社,東京都,新宿区,水道町４番１０号,,13,104,1620811,,,,,,,2022-11-30,1,,,,,エムエスピージャパン,0
318,2011201024264,新規,0,2022-11-30,2022-11-30,ＮＫパートナーズ株式会社,,株式会社,東京都,中野区,沼袋１丁目１４番１０－７０３号,,13,114,1650025,,,,,,,2022-11-30,1,,,,,エヌケーパートナーズ,0
325,2011601026406,新規,0,2022-11-30,2022-11-30,Ｌｉｎｋ株式会社,,株式会社,東京都,練馬区,大泉町１丁目４７番１２号,,13,120,1780062,,,,,,,2022-11-30,1,,,,,リンク,0
336,2013101009064,新規,0,2022-11-30,2022-11-30,株式会社ＴＫ　Ｇｒｏｕｐ,,株式会社,東京都,羽村市,小作台１丁目２番地１７紀ノ国屋小作ビル,,13,227,2050001,,,,,,,2022-11-30,1,,,,,ティーケーグループ,0
347,2020001149205,新規,0,2022-11-30,2022-11-30,株式会社ＴＫライン,,株式会社,神奈川県,横浜市西区,北幸２丁目１０番２８号むつみビル３階,,14,103,2200004,,,,,,,2022-11-30,1,,,,,ティーケイライン,0
367,2030001151275,新規,0,2022-11-30,2022-11-30,株式会社ＭＩＹＡＢＩ,,株式会社,埼玉県,川口市,大字新堀３１３,,11,203,3340061,,,,,,,2022-11-30,1,,,,,ミヤビ,0
384,2040001125947,新規,0,2022-11-30,2022-11-30,レックス労働再生株式会社,,株式会社,千葉県,松戸市,東松戸１丁目３番地の９ヴェリーニ東松戸１０１,,12,207,2702225,,,,,,,2022-11-30,1,,,,,レックスロウドウサイセイ,0
385,2040001126012,新規,0,2022-11-30,2022-11-30,株式会社岡澤商事,,株式会社,千葉県,千葉市中央区,末広４丁目１１番１５号,,12,101,2600843,,,,,,,2022-11-30,1,,,,,オカザワショウジ,0
386,2040001126020,新規,0,2022-11-30,2022-11-30,株式会社将耀,,株式会社,千葉県,松戸市,六実５丁目９番地の４,,12,207,2702204,,,,,,,2022-11-30,1,,,,,ショウヨウ,0
387,2040001126029,新規,0,2022-11-30,2022-11-30,三矢アセットマネジメント株式会社,,株式会社,千葉県,船橋市,前貝塚町２５５番地８０,,12,204,2730042,,,,,,,2022-11-30,1,,,,,ミツヤアセットマネジメント,0
388,2040001126037,新規,0,2022-11-30,2022-11-30,君津電設株式会社,,株式会社,千葉県,富津市,金谷３９０２番地の１,,12,226,2991861,,,,,,,2022-11-30,1,,,,,キミツデンセツ,0
394,2040003021319,新規,0,2022-11-30,2022-11-30,エトワールエトワ合同会社,,合同会社,千葉県,柏市,東中新宿３丁目１３番４号,,12,217,2770061,,,,,,,2022-11-30,1,,,,,エトワールエトワ,0
395,2040003021368,新規,0,2022-11-30,2022-11-30,翼建工合同会社,,合同会社,千葉県,茂原市,上永吉１４４１番地４,,12,210,2970036,,,,,,,2022-11-30,1,,,,,ツバサケンコウ,0
405,2060003004321,新規,0,2022-11-30,2022-11-30,ワンダーポット合同会社,,合同会社,栃木県,芳賀郡芳賀町,祖母井南３丁目８－２,,09,345,3213307,,,,,,,2022-11-30,1,,,,,ワンダーポット,0
407,2070001039855,新規,0,2022-11-30,2022-11-30,巡杢株式会社,,株式会社,群馬県,渋川市,横堀１６５９－２,,10,208,3770206,,,,,,,2022-11-30,1,,,,,ジュンモク,0
409,2070003004733,新規,0,2022-11-30,2022-11-30,合同会社前原企画ケアプランセンター晴れるや,,合同会社,群馬県,伊勢崎市,今泉町２丁目４９４番地１０サンシティＣ１０５号室,,10,204,3720031,,,,,,,2022-11-30,1,,,,,マエハラキカクケアプランセンターハレルヤ,0
413,2100003006783,新規,0,2022-11-30,2022-11-30,合同会社スギヤマ,,合同会社,長野県,諏訪郡下諏訪町,６１５３番地１７,,20,361,3930000,,,,,,,2022-11-30,1,,,,,スギヤマ,0
416,2110002035246,新規,0,2022-11-30,2022-11-30,有限会社大宰ビル,,有限会社,新潟県,上越市,中央２丁目１１番１２号,,15,222,9420001,,,,,,,2022-11-30,1,,,,,,0
423,2120001250588,新規,0,2022-11-30,2022-11-30,株式会社スカーレット,,株式会社,大阪府,大阪市中央区,北浜２丁目２番２１号北浜ミッドタワー１８０３,,27,128,5410041,,,,,,,2022-11-30,1,,,,,スカーレット,0
424,2120001250621,新規,0,2022-11-30,2022-11-30,株式会社ドリマックス,,株式会社,大阪府,大阪市港区,池島２丁目３番１３号１０２室,,27,107,5520015,,,,,,,2022-11-30,1,,,,,ドリマックス,0
425,2120001250638,新規,0,2022-11-30,2022-11-30,株式会社ＡＤＨ,,株式会社,大阪府,枚方市,長尾家具町４丁目５番３７号,,27,210,5730102,,,,,,,2022-11-30,1,,,,,エーディーエイチ,0
426,2120001250646,新規,0,2022-11-30,2022-11-30,株式会社武創,,株式会社,大阪府,大阪市住吉区,浅香２丁目２番４８号,,27,120,5580021,,,,,,,2022-11-30,1,,,,,タケソウ,0
427,2120003022894,新規,0,2022-11-30,2022-11-30,合同会社ＪＯＹ,,合同会社,大阪府,大阪市浪速区,桜川２丁目５番２号ＨｏｍｅＢｕｉｌｄｅｒＳａｋｕｒａｇａｗａ５０３号室,,27,111,5560022,,,,,,,2022-11-30,1,,,,,ジョイ,0
428,2120003022969,新規,0,2022-11-30,2022-11-30,ＭＡＬＬＡ　ＢＳＭ合同会社,,合同会社,大阪府,大阪市西淀川区,野里２丁目２２番８－３０６号,,27,113,5550024,,,,,,,2022-11-30,1,,,,,マラビーエスエム,0
433,2120903004389,新規,0,2022-11-30,2022-11-30,合同会社ＧＥＡＲ,,合同会社,大阪府,豊中市,上野東１丁目１７番８号,,27,203,5600013,,,,,,,2022-11-30,1,,,,,ギア,0
439,2130001073088,新規,0,2022-11-30,2022-11-30,三泰株式会社,,株式会社,京都府,京都市左京区,一乗寺向畑町１７番地４階,,26,103,6068126,,,,,,,2022-11-30,1,,,,,サンタイ,0
440,2130001073170,新規,0,2022-11-30,2022-11-30,株式会社東西哲学研究所,,株式会社,京都府,京都市山科区,御陵大津畑町２３－１３－３０１,,26,110,6078411,,,,,,,2022-11-30,1,,,,,トウザイテツガクケンキュウジョ,0
441,2130001073179,新規,0,2022-11-30,2022-11-30,株式会社装舎,,株式会社,京都府,京都市下京区,中堂寺南町１３４番地,,26,106,6008813,,,,,,,2022-11-30,1,,,,,ソウシャ,0
442,2130001073187,新規,0,2022-11-30,2022-11-30,株式会社Ｈｙｐｅ,,株式会社,京都府,京都市中京区,寺町通蛸薬師下る東側町５０１番地１０,,26,104,6048046,,,,,,,2022-11-30,1,,,,,ハイプ,0
443,2130001073195,新規,0,2022-11-30,2022-11-30,株式会社早工務店,,株式会社,京都府,京都市右京区,太秦一ノ井町４１番地３０,,26,108,6168107,,,,,,,2022-11-30,1,,,,,ハヤコウムテン,0
448,2140001128213,新規,0,2022-11-30,2022-11-30,株式会社さとしジャパン,,株式会社,兵庫県,加古郡播磨町,宮西２丁目７番１７号,,28,382,6750145,,,,,,,2022-11-30,1,,,,,サトシジャパン,0
454,2140003018420,新規,0,2022-11-30,2022-11-30,合同会社ＢＬＵＥ　ＣＲＯＳＳ,,合同会社,兵庫県,西宮市,和上町６番２４号オリーブハイツ３Ｆ,,28,204,6620971,,,,,,,2022-11-30,1,,,,,ブルークロス,0
455,2150001025979,新規,0,2022-11-30,2022-11-30,株式会社コバヤシ,,株式会社,奈良県,磯城郡田原本町,大字千代１１７３番地,,29,363,6360246,,,,,,,2022-11-30,1,,,,,コバヤシ,0
456,2150001025987,新規,0,2022-11-30,2022-11-30,株式会社Ｎａｔｕｕｒ　ｒａｐａ,,株式会社,奈良県,奈良市,押熊町６７９番地の６３,,29,201,6310011,,,,,,,2022-11-30,1,,,,,ナチュールラパ,0
463,2180001153942,新規,0,2022-11-30,2022-11-30,株式会社イノベＪＡＰＡＮ,,株式会社,愛知県,名古屋市中区,丸の内３丁目９番１１号,,23,106,4600002,,,,,,,2022-11-30,1,,,,,イノベジャパン,0
464,2180001153967,新規,0,2022-11-30,2022-11-30,株式会社マイナ,,株式会社,愛知県,名古屋市天白区,横町６０１番地天白住宅１１棟２０２号室,,23,116,4680054,,,,,,,2022-11-30,1,,,,,マイナ,0
468,2180003024539,新規,0,2022-11-30,2022-11-30,合同会社ＲＭシステムズ,,合同会社,愛知県,名古屋市守山区,森孝東１丁目６２０番地（ラ・クール藤が丘３１０号）,,23,113,4630033,,,,,,,2022-11-30,1,,,,,アールエムシステムズ,0
469,2180003024547,新規,0,2022-11-30,2022-11-30,合同会社キトー,,合同会社,愛知県,名古屋市北区,大杉１丁目１２番７号,,23,103,4620837,,,,,,,2022-11-30,1,,,,,キトー,0
472,2180301036863,新規,0,2022-11-30,2022-11-30,刈谷知立みらい電力株式会社,,株式会社,愛知県,刈谷市,幸町３丁目２番地９,,23,210,4480025,,,,,,,2022-11-30,1,,,,,カリヤチリュウミライデンリョク,0
488,2230003001937,新規,0,2022-11-30,2022-11-30,ミチツムギ合同会社,,合同会社,富山県,富山市,開ケ丘４３番地２８,,16,201,9300157,,,,,,,2022-11-30,1,,,,,ミチツムギ,0
503,2290001099704,新規,0,2022-11-30,2022-11-30,株式会社コウノ企画,,株式会社,福岡県,福岡市中央区,黒門６番１３－２０３号,,40,133,8100055,,,,,,,2022-11-30,1,,,,,コウノキカク,0
504,2290003013241,新規,0,2022-11-30,2022-11-30,合同会社ＡｎｙＬｉｋｅｓ,,合同会社,福岡県,福岡市中央区,天神４丁目６－２８天神ファーストビル７階,,40,133,8100001,,,,,,,2022-11-30,1,,,,,エニーライクス,0
505,2290003013258,新規,0,2022-11-30,2022-11-30,合同会社二丈発電所,,合同会社,福岡県,福岡市中央区,渡辺通３丁目１０番３９アクロス天神センタープラザ５０４号,,40,133,8100004,,,,,,,2022-11-30,1,,,,,ニジョウハツデンショ,0
517,2370001049320,新規,0,2022-11-30,2022-11-30,株式会社ハムヘイラボ,,株式会社,宮城県,仙台市青葉区,上杉５丁目８－１１,,04,101,9800011,,,,,,,2022-11-30,1,,,,,ハムヘイラボ,0
520,2370003005908,新規,0,2022-11-30,2022-11-30,合同会社望,,合同会社,宮城県,石巻市,住吉町２丁目１番２６号,,04,202,9860821,,,,,,,2022-11-30,1,,,,,ノゾミ,0
534,2430001087941,新規,0,2022-11-30,2022-11-30,株式会社ＥＹＮ,,株式会社,北海道,札幌市清田区,清田二条３丁目１番１号見光ビル２階,,01,110,0040842,,,,,,,2022-11-30,1,,,,,イーワイエヌ,0
538,2430003014497,新規,0,2022-11-30,2022-11-30,合同会社キュエル,,合同会社,北海道,札幌市中央区,南三条東３丁目５番地１－８０３号,,01,101,0600053,,,,,,,2022-11-30,1,,,,,キュエル,0
544,2470003002291,新規,0,2022-11-30,2022-11-30,合同会社ＲＳＣ,,合同会社,香川県,小豆郡小豆島町,馬木甲１０３９－１,,37,324,7614426,,,,,,,2022-11-30,1,,,,,アールエスシー,0
547,2500001024623,新規,0,2022-11-30,2022-11-30,株式会社ＨａｃｈｉＨａｃｈｉ８８,,株式会社,愛媛県,西条市,周布７１５番地１,,38,206,7991371,,,,,,,2022-11-30,1,,,,,ハチハチ,0
548,2700150108099,新規,0,2022-11-30,2022-04-18,ｃｉａｏ！ｃｉａｏ！,,その他,福岡県,福岡市博多区,下呉服町２－２－１３０２,,40,132,8120034,,,,,,,2022-04-18,1,,,,,チヤオチヤオ,0
549,2700150112745,新規,0,2022-11-30,2022-11-10,Ｐａｌｅｄｕｓｋ,,その他,福岡県,福岡市中央区,今川１丁目２７－４,,40,133,8100054,,,,,,,2022-11-10,1,,,,,ペイルダスク,0
550,2700150112794,新規,0,2022-11-30,2022-11-11,川崎・しんゆり芸術祭実行委員会,,その他,神奈川県,川崎市麻生区,万福寺１丁目１２－１クロスアベニューＩＩ　８Ｆ,00128323,14,137,2150004,,,,,,,2022-11-11,1,,,,,カワサキシンユリゲイジユツサイジツコウイインカイ,0
567,3010005035847,新規,0,2022-11-30,2022-11-30,一般社団法人ＭＡＹＯ,,その他の設立登記法人,東京都,千代田区,丸の内３丁目１番１号東京共同会計事務所内,,13,101,1000005,,,,,,,2022-11-30,1,,,,,エムエイワイオー,0
578,3010403028989,新規,0,2022-11-30,2022-11-30,日の出３号合同会社,,合同会社,東京都,港区,海岸１丁目７番１号,,13,103,1050022,,,,,,,2022-11-30,1,,,,,ヒノデサンゴウ,0
579,3010403029013,新規,0,2022-11-30,2022-11-30,合同会社安濃町草生発電所,,合同会社,東京都,港区,六本木３丁目２番１号,,13,103,1060032,,,,,,,2022-11-30,1,,,,,アノウチョウクサワハツデンショ,0
580,3010403029021,新規,0,2022-11-30,2022-11-30,合同会社美咲町発電所,,合同会社,東京都,港区,六本木３丁目２番１号,,13,103,1060032,,,,,,,2022-11-30,1,,,,,ミサキチョウハツデンショ,0
583,3010501049689,新規,0,2022-11-30,2022-11-30,株式会社ナノテック,,株式会社,東京都,台東区,浅草４丁目３３番９号,,13,106,1110032,,,,,,,2022-11-30,1,,,,,ナノテック,0
588,3010701043541,新規,0,2022-11-30,2022-11-30,株式会社メタスポーツ,,株式会社,東京都,品川区,東品川１丁目３－１５ＴｈｅＰａｒｋＲｅｘＴｅｎｎｏｚｔｈｅＤＯＣＫ,,13,109,1400002,,,,,,,2022-11-30,1,,,,,メタスポーツ,0
590,3010803004367,新規,0,2022-11-30,2022-11-30,ドン・コーポレーション合同会社,,合同会社,東京都,大田区,南六郷１丁目３０番３－１１０９号,,13,111,1440045,,,,,,,2022-11-30,1,,,,,ドンコーポレーション,0
593,3010901052053,新規,0,2022-11-30,2022-11-30,ＣＲＵＤＥ株式会社,,株式会社,東京都,世田谷区,代沢３丁目５番３号トライアッド２０４,,13,112,1550032,,,,,,,2022-11-30,1,,,,,,0
602,3011001151191,新規,0,2022-11-30,2022-11-30,株式会社ＬＯＣＳ,,株式会社,東京都,渋谷区,千駄ヶ谷１丁目２２－７,,13,113,1510051,,,,,,,2022-11-30,1,,,,,ロックス,0
604,3011003015808,新規,0,2022-11-30,2022-11-30,合同会社エイチツーオー,,合同会社,東京都,目黒区,目黒本町６丁目２番７号ライフスペース大岡マンション１０１号室,,13,110,1520002,,,,,,,2022-11-30,1,,,,,エイチツーオー,0
606,3011201024255,新規,0,2022-11-30,2022-11-30,株式会社Ｌｖｅ．,,株式会社,東京都,中野区,東中野５丁目１４－７木勢ビル２０１,,13,114,1640003,,,,,,,2022-11-30,1,,,,,エルヴィー,0
619,3012303001753,新規,0,2022-11-30,2022-11-30,Ｆｒｅｅ＆Ｅａｓｙ合同会社,,合同会社,東京都,町田市,鶴間３丁目４番１グランベリーパーク３階Ｌ３０２,,13,209,1940004,,,,,,,2022-11-30,1,,,,,フリーアンドイージー,0
634,3020005015732,新規,0,2022-11-30,2022-11-30,特定非営利活動法人かみすげた茶屋,,その他の設立登記法人,神奈川県,横浜市保土ケ谷区,上菅田町９２３,,14,106,2400051,,,,,,,2022-11-30,1,,,,,カミスゲタチャヤ,0
636,3021001077394,新規,0,2022-11-30,2022-11-30,株式会社スリーピース,,株式会社,神奈川県,海老名市,門沢橋５丁目７番３５号,,14,215,2430426,,,,,,,2022-11-30,1,,,,,スリーピース,0
649,3030001151241,新規,0,2022-11-30,2022-11-30,株式会社ＨＭＳ,,株式会社,埼玉県,さいたま市岩槻区,南平野３丁目２８番地４－２１３号,,11,110,3390051,,,,,,,2022-11-30,1,,,,,エイチエムエス,0
654,3030003020659,新規,0,2022-11-30,2022-11-30,バブナエンタープライズ合同会社,,合同会社,埼玉県,八潮市,八潮３丁目８番地６昼間第３ハイツ１０１,,11,234,3400815,,,,,,,2022-11-30,1,,,,,バブナエンタープライズ,0
664,3040001126011,新規,0,2022-11-30,2022-11-30,株式会社吉村建設,,株式会社,千葉県,白井市,冨士３０番地の８,,12,232,2701432,,,,,,,2022-11-30,1,,,,,ヨシムラケンセツ,0
665,3040001126028,新規,0,2022-11-30,2022-11-30,株式会社リバーソコンテクスト,,株式会社,千葉県,市川市,南八幡１丁目３番４－１０６号,,12,203,2720023,,,,,,,2022-11-30,1,,,,,リバーソコンテクスト,0
666,3040001126036,新規,0,2022-11-30,2022-11-30,千松堂株式会社,,株式会社,千葉県,松戸市,小金原９丁目３番地の９,,12,207,2700021,,,,,,,2022-11-30,1,,,,,センショウドウ,0
672,3060001035490,新規,0,2022-11-30,2022-11-30,株式会社ＮＯＭＩプランニング,,株式会社,栃木県,宇都宮市,宝木町２丁目２５５４番地８０,,09,201,3200061,,,,,,,2022-11-30,1,,,,,エヌオーエムアイプランニング,0
692,3120001250612,新規,0,2022-11-30,2022-11-30,わかな株式会社,,株式会社,大阪府,大阪市城東区,今福東１丁目８番３１号,,27,118,5360002,,,,,,,2022-11-30,1,,,,,ワカナ,0
695,3120003022943,新規,0,2022-11-30,2022-11-30,合同会社アシスト,,合同会社,大阪府,大阪市北区,梅田１丁目２番２号大阪駅前第２ビル１２－１２,,27,127,5300001,,,,,,,2022-11-30,1,,,,,アシスト,0
696,3120003022984,新規,0,2022-11-30,2022-11-30,合同会社ｉｋｅｍｏ,,合同会社,大阪府,大阪市北区,梅田１丁目２―２大阪駅前第２ビル１２―１２,,27,127,5300001,,,,,,,2022-11-30,1,,,,,イケモ,0
703,3122001036446,新規,0,2022-11-30,2022-11-30,億景株式会社,,株式会社,大阪府,東大阪市,森河内西２丁目１４番３号,,27,227,5770061,,,,,,,2022-11-30,1,,,,,イケイ,0
704,3122001036454,新規,0,2022-11-30,2022-11-30,株式会社吉田塗研,,株式会社,大阪府,大東市,学園町１番４４号,,27,218,5740001,,,,,,,2022-11-30,1,,,,,ヨシダトケン,0
708,3130003008355,新規,0,2022-11-30,2022-11-30,合同会社ソレイユ,,合同会社,京都府,京都市下京区,河原町通高辻上る富永町３６５番地,,26,106,6008023,,,,,,,2022-11-30,1,,,,,ソレイユ,0
715,3140001128204,新規,0,2022-11-30,2022-11-30,株式会社Ｔａｍａｓｈｉｉ　Ｊａｐａｎ,,株式会社,兵庫県,宝塚市,仁川北２丁目９番１２－１０５号,,28,214,6650061,,,,,,,2022-11-30,1,,,,,タマシイジャパン,0
716,3140001128220,新規,0,2022-11-30,2022-11-30,株式会社ｄａ　Ｖｉｎｃｉ,,株式会社,兵庫県,神戸市中央区,磯上通３丁目１－１３－９０４,,28,110,6510086,,,,,,,2022-11-30,1,,,,,ダヴィンチ,0
719,3150001025986,新規,0,2022-11-30,2022-11-30,株式会社栄圭建設,,株式会社,奈良県,大和高田市,西町３番１０号（Ｂ３）,,29,202,6350096,,,,,,,2022-11-30,1,,,,,エイカケンセツ,0
722,3150005009440,新規,0,2022-11-30,2022-11-30,司法書士法人よねだ事務所,,その他の設立登記法人,奈良県,宇陀市,室生三本松３１８３番地の１,,29,212,6330317,,,,,,,2022-11-30,1,,,,,ヨネダジムショ,0
723,3160001024673,新規,0,2022-11-30,2022-11-30,株式会社あまね,,株式会社,滋賀県,近江八幡市,西庄町６４６番地１２,,25,204,5230816,,,,,,,2022-11-30,1,,,,,アマネ,0
736,3180001153958,新規,0,2022-11-30,2022-11-30,株式会社セプト,,株式会社,愛知県,名古屋市西区,則武新町３丁目８番１１号,,23,104,4510051,,,,,,,2022-11-30,1,,,,,セプト,0
737,3180001153974,新規,0,2022-11-30,2022-11-30,株式会社ＴＦＣ,,株式会社,愛知県,名古屋市中村区,押木田町１丁目７番４号,,23,105,4530833,,,,,,,2022-11-30,1,,,,,ティーエフシー,0
738,3180003024546,新規,0,2022-11-30,2022-11-30,合同会社やよい,,合同会社,愛知県,名古屋市千種区,千種通７丁目１０１番地オオクラビル４Ｆ,,23,101,4640855,,,,,,,2022-11-30,1,,,,,ヤヨイ,0
754,3200001040708,新規,0,2022-11-30,2022-11-30,株式会社ＰＲＯＵＤ　ＷＯＲＫＳ,,株式会社,岐阜県,岐阜市,東金宝町１丁目１８番地,,21,201,5008167,,,,,,,2022-11-30,1,,,,,プラウドワークス,0
768,3290001099728,新規,0,2022-11-30,2022-11-30,ＭＯＧＡＢＩ　ＪＡＰＡＮ株式会社,,株式会社,福岡県,福岡市中央区,天神２丁目３番１０号,,40,133,8100001,,,,,,,2022-11-30,1,,,,,モガビジャパン,0
769,3290001099736,新規,0,2022-11-30,2022-11-30,株式会社ＩＪＩＥＳ,,株式会社,福岡県,福岡市中央区,大手門３丁目５番１８号１Ｆ１００号室,,40,133,8100074,,,,,,,2022-11-30,1,,,,,アイジェス,0
771,3290003013257,新規,0,2022-11-30,2022-11-30,合同会社雲仙開発,,合同会社,福岡県,福岡市博多区,祇園町８番２２号,,40,132,8120038,,,,,,,2022-11-30,1,,,,,ウンゼンカイハツ,0
779,3340003003979,新規,0,2022-11-30,2022-11-30,合同会社ＪＧＲ,,合同会社,鹿児島県,鹿屋市,浜田町２０３番地,,46,203,8930053,,,,,,,2022-11-30,1,,,,,ジェイジーアール,0
784,3360003012499,新規,0,2022-11-30,2022-11-30,合同会社はなむい,,合同会社,沖縄県,那覇市,古波蔵１丁目３番地３０号,,47,201,9000024,,,,,,,2022-11-30,1,,,,,ハナムイ,0
786,3370001049303,新規,0,2022-11-30,2022-11-30,株式会社土本サーマル工業,,株式会社,宮城県,仙台市宮城野区,岩切字鴻巣１８３番地の６,,04,102,9830821,,,,,,,2022-11-30,1,,,,,ツチモトサーマルコウギョウ,0
790,3370003005907,新規,0,2022-11-30,2022-11-30,合同会社ｎｏｒｔｈ　ｒｉｖｅｒ,,合同会社,宮城県,仙台市青葉区,上杉１丁目６番１０号,,04,101,9800011,,,,,,,2022-11-30,1,,,,,ノースリバー,0
801,3380001033289,新規,0,2022-11-30,2022-11-30,株式会社ＬｕＬｕ,,株式会社,福島県,いわき市,好間町中好間字照田１０番地の１,,07,204,9701152,,,,,,,2022-11-30,1,,,,,ルル,0
804,3400005008284,新規,0,2022-11-30,2022-11-30,特定非営利活動法人奏楽のたね,,その他の設立登記法人,岩手県,一関市,赤荻字月町３５番地１,,03,209,0210041,,,,,,,2022-11-30,1,,,,,ソラノタネ,0
815,3430001087957,新規,0,2022-11-30,2022-11-30,株式会社光,,株式会社,北海道,恵庭市,島松東町４丁目２番９号,,01,231,0611351,,,,,,,2022-11-30,1,,,,,ヒカリ,0
819,3430005014602,新規,0,2022-11-30,2022-11-30,一般社団法人北海道おたるの家,,その他の設立登記法人,北海道,札幌市北区,新川五条３丁目２番２７号２階,,01,102,0010925,,,,,,,2022-11-30,1,,,,,ホッカイドウオタルノイエ,0
823,3450001013845,新規,0,2022-11-30,2022-11-30,株式会社リングリサイクル,,株式会社,北海道,上川郡東神楽町,北一条東２丁目６番５号,,01,453,0711512,,,,,,,2022-11-30,1,,,,,リングリサイクル,0
828,3700150113164,新規,0,2022-11-30,2022-11-30,ＲＵＳＫＹ　ＩＮＶＥＳＴＭＥＮＴ　ＬＩＭＩＴＥＤ,,外国会社等,北海道,虻田郡倶知安町,字花園７９－２,,01,400,0440084,Ｍｏｒｇａｎ＆Ｍｏｒｇａｎ　Ｂｕｉｌｄｉｎｇ，Ｐａｓｅａ　Ｅｓｔａｔｅ，Ｒｏａｄ　Ｔｏｗｎ，Ｔｏｒｔｏｌａ，Ｂｒｉｔｉｓｈ　Ｖｉｒｇｉｎ　Ｉｓｌａｎｄｓ,,,,,,2022-11-30,1,,,,,ラスキーインベストメントリミテツド,0
838,4010001230921,新規,0,2022-11-30,2022-11-30,株式会社大江洋平投資顧問,,株式会社,東京都,千代田区,丸の内１丁目５番１号新丸の内ビルディング,,13,101,1000005,,,,,,,2022-11-30,1,,,,,オオエヨウヘイトウシコモン,0
839,4010001230995,新規,0,2022-11-30,2022-11-30,株式会社Ｒｅｂｕｉｌｄ,,株式会社,東京都,千代田区,九段南１丁目５－６りそな九段ビル５Ｆ,,13,101,1020074,,,,,,,2022-11-30,1,,,,,リビルド,0
840,4010001231127,新規,0,2022-11-30,2022-11-30,株式会社プリームス,,株式会社,東京都,中央区,晴海３丁目１３番１号ＤＥＵＸ＿ＴＯＵＲＳ＿ＥＡＳＴ棟１７１１号,,13,102,1040053,,,,,,,2022-11-30,1,,,,,プリームス,0
841,4010001231143,新規,0,2022-11-30,2022-11-30,株式会社カナタプラス,,株式会社,東京都,中央区,築地３丁目７番１号,,13,102,1040045,,,,,,,2022-11-30,1,,,,,カナタプラス,0
843,4010003039205,新規,0,2022-11-30,2022-11-30,３ｘ３ｆｏｕｎｄａｔｉｏｎ合同会社,,合同会社,東京都,中央区,日本橋本町１丁目８番１３号日本橋滄浪閣ビル２階西,,13,102,1030023,,,,,,,2022-11-30,1,,,,,スリーバイスリーファウンデーション,0
844,4010003039213,新規,0,2022-11-30,2022-11-30,Ｆｕｎｃｔｉｏｎ合同会社,,合同会社,東京都,中央区,佃２丁目１番２－３１０７号,,13,102,1040051,,,,,,,2022-11-30,1,,,,,ファンクション,0
854,4010403028988,新規,0,2022-11-30,2022-11-30,日の出２号合同会社,,合同会社,東京都,港区,海岸１丁目７番１号,,13,103,1050022,,,,,,,2022-11-30,1,,,,,ヒノデニゴウ,0
855,4010403029020,新規,0,2022-11-30,2022-11-30,合同会社東日笠発電所,,合同会社,東京都,港区,六本木３丁目２番１号,,13,103,1060032,,,,,,,2022-11-30,1,,,,,ヒガシヒカサハツデンショ,0
858,4010501049688,新規,0,2022-11-30,2022-11-30,株式会社ＴＹコンサルティング,,株式会社,東京都,台東区,東上野２丁目２番１号品田ビル３階,,13,106,1100015,,,,,,,2022-11-30,1,,,,,ティーワイコンサルティング,0
861,4010601062228,新規,0,2022-11-30,2022-11-30,コアスポーツマネージメント株式会社,,株式会社,東京都,墨田区,墨田５丁目５番２号,,13,107,1310031,,,,,,,2022-11-30,1,,,,,コアスポーツマネージメント,0
870,4010801033466,新規,0,2022-11-30,2022-11-30,株式会社ＦＵＴＵＲＥ　ＳＰＩＲＡＬ,,株式会社,東京都,大田区,中馬込１丁目１６番１０号,,13,111,1430027,,,,,,,2022-11-30,1,,,,,フューチャースパイラル,0
876,4010903007814,新規,0,2022-11-30,2022-11-30,合同会社ｍｉｎｅｔｔｅ,,合同会社,東京都,世田谷区,給田５丁目２番１３－１１０号,,13,112,1570064,,,,,,,2022-11-30,1,,,,,ミネット,0
879,4011003015807,新規,0,2022-11-30,2022-11-30,合同会社Ｎａｉｌ　Ａｎｇｅａｌ,,合同会社,東京都,目黒区,上目黒３丁目４－３小金井ビル５０２Ａ,,13,110,1530051,,,,,,,2022-11-30,1,,,,,ネイルアンジール,0
888,4011501028715,新規,0,2022-11-30,2022-11-30,株式会社ＹＥＬＬＯＷ　ＫＩＮＧ,,株式会社,東京都,荒川区,南千住４丁目７番３号,,13,118,1160003,,,,,,,2022-11-30,1,,,,,イエローキング,0
890,4011503005340,新規,0,2022-11-30,2022-11-30,鈞悦達合同会社,,合同会社,東京都,北区,田端新町１丁目７番１４号ビズフィールド西日暮里１０８,,13,117,1140012,,,,,,,2022-11-30,1,,,,,キンエツタツ,0
893,4011603003748,新規,0,2022-11-30,2022-11-30,合同会社ｅｎｂｅ,,合同会社,東京都,練馬区,石神井台５丁目１９番９号,,13,120,1770045,,,,,,,2022-11-30,1,,,,,エンビー,0
896,4011803005404,新規,0,2022-11-30,2022-11-30,合同会社永桂,,合同会社,東京都,足立区,西保木間１丁目１３番１６号,,13,121,1210812,,,,,,,2022-11-30,1,,,,,エイケイ,0
897,4012405004810,新規,0,2022-11-30,2022-11-30,ＳＷＣ事業協同組合,,その他の設立登記法人,東京都,調布市,深大寺東町７丁目４０番地１３,,13,208,1820012,,,,,,,2022-11-30,1,,,,,エスダブリューシー,0
901,4013301050007,新規,0,2022-11-30,2022-11-30,Ｋａｎｄａ　Ａｓｓｅｔ株式会社,,株式会社,東京都,豊島区,高田１丁目１８番６－２４５号,,13,116,1710033,,,,,,,2022-11-30,1,,,,,カンダアセット,0
910,4020001149203,新規,0,2022-11-30,2022-11-30,株式会社ＮＰＲ,,株式会社,神奈川県,横浜市港南区,丸山台３丁目２－５,,14,111,2330013,,,,,,,2022-11-30,1,,,,,エヌピーアール,0
912,4020003022804,新規,0,2022-11-30,2022-11-30,合同会社ＬＴＬＣ‐ＩＴ,,合同会社,神奈川県,横浜市西区,浅間町４丁目３４７番地４Ｂａｙ・Ｗｅｓｔ５０１号,,14,103,2200072,,,,,,,2022-11-30,1,,,,,エルティーエルシーアイティー,0
913,4020003022812,新規,0,2022-11-30,2022-11-30,合同会社水平線,,合同会社,神奈川県,横浜市西区,浅間町１丁目７番地１１－６号室,,14,103,2200072,,,,,,,2022-11-30,1,,,,,スイヘイセン,0
914,4020003022820,新規,0,2022-11-30,2022-11-30,合同会社アドバンス,,合同会社,神奈川県,川崎市多摩区,宿河原１丁目１７番６号,,14,135,2140021,,,,,,,2022-11-30,1,,,,,アドバンス,0
918,4021001077567,新規,0,2022-11-30,2022-11-30,株式会社ｌｉｆｅ　ｃｏｒａｌ,,株式会社,神奈川県,綾瀬市,深谷南３丁目１５番６号,,14,218,2521106,,,,,,,2022-11-30,1,,,,,ライフコーラル,0
929,4030001151174,新規,0,2022-11-30,2022-11-30,株式会社東邦物流,,株式会社,埼玉県,川口市,江戸３丁目１１番２１号,,11,203,3340074,,,,,,,2022-11-30,1,,,,,トウホウブツリュウ,0
930,4030001151257,新規,0,2022-11-30,2022-11-30,株式会社宮崎商事,00128638,株式会社,埼玉県,吉川市,高久１丁目３１番地１９,,11,243,3420035,,,,,,,2022-11-30,1,,,,,ミヤザキショウジ,0
933,4030003020641,新規,0,2022-11-30,2022-11-30,合同会社ＴＭＫコンサルティング,,合同会社,埼玉県,上尾市,仲町１丁目７番２７号アークエムビル７Ｆ,,11,219,3620035,,,,,,,2022-11-30,1,,,,,ティーエムケーコンサルティング,0
934,4030003020658,新規,0,2022-11-30,2022-11-30,合同会社ＩＳＥＳ,,合同会社,埼玉県,熊谷市,筑波１丁目１４２番地２,,11,202,3600037,,,,,,,2022-11-30,1,,,,,アイゼス,0
943,4040001126019,新規,0,2022-11-30,2022-11-30,株式会社ＳＳ,,株式会社,千葉県,船橋市,本町１丁目１１番２７号時田ビル２０１号,,12,204,2730005,,,,,,,2022-11-30,1,,,,,エスエス,0
944,4040001126035,新規,0,2022-11-30,2022-11-30,株式会社平匠,,株式会社,千葉県,船橋市,大穴北１丁目１３－１５,,12,204,2740068,,,,,,,2022-11-30,1,,,,,ヒラショウ,0
956,4060001035481,新規,0,2022-11-30,2022-11-30,株式会社大塚商事,,株式会社,栃木県,下都賀郡壬生町,大師町３４番３号リバーユＢ３０１,,09,361,3210228,,,,,,,2022-11-30,1,,,,,オオツカショウジ,0
960,4100003006798,新規,0,2022-11-30,2022-11-30,合同会社フィロ,,合同会社,長野県,松本市,大字里山辺３９７６番地２横山アパート１００号,,20,202,3900221,,,,,,,2022-11-30,1,,,,,フィロ,0
971,4120001250561,新規,0,2022-11-30,2022-11-30,株式会社ＹＵＧＡ＆ＣＯ．,,株式会社,大阪府,大阪市西区,京町堀２丁目６番２０－１８０６号,,27,106,5500003,,,,,,,2022-11-30,1,,,,,ユウガアンドシーオー,0
972,4120001250628,新規,0,2022-11-30,2022-11-30,株式会社ドットログ,,株式会社,大阪府,大阪市中央区,備後町３丁目６－２大雅ビル１０Ｆ,,27,128,5410051,,,,,,,2022-11-30,1,,,,,ドットログ,0
978,4120003022892,新規,0,2022-11-30,2022-11-30,合同会社ハルカス,,合同会社,大阪府,大阪市中央区,内淡路町１丁目３番６号片岡ビル５０２号室,,27,128,5400038,,,,,,,2022-11-30,1,,,,,ハルカス,0
979,4120003022959,新規,0,2022-11-30,2022-11-30,ＬＩＭＢＵ　ＧＲＯＵＰ合同会社,,合同会社,大阪府,大阪市淀川区,塚本２丁目１５番３－３０１号,,27,123,5320026,,,,,,,2022-11-30,1,,,,,リンブグループ,0
980,4120003022967,新規,0,2022-11-30,2022-11-30,合同会社サクセスマインド,,合同会社,大阪府,大阪市北区,梅田１丁目１１番４号大阪駅前第４ビル９Ｆ９２３－１６４９号,,27,127,5300001,,,,,,,2022-11-30,1,,,,,サクセスマインド,0
987,4130001073136,新規,0,2022-11-30,2022-11-30,株式会社グローアップ・ヒューマニティー,,株式会社,京都府,京都市下京区,七条通油小路東入大黒町２２７番地第２キョートビル４０２,,26,106,6008223,,,,,,,2022-11-30,1,,,,,グローアップヒューマニティー,0
988,4130001073169,新規,0,2022-11-30,2022-11-30,株式会社出雲路本制作所,,株式会社,京都府,京都市北区,出雲路立テ本町１０６番地１６,,26,101,6038134,,,,,,,2022-11-30,1,,,,,イズモジホンセイサクショ,0
989,4130001073185,新規,0,2022-11-30,2022-11-30,洛紡堂株式会社,,株式会社,京都府,京都市中京区,蛸薬師通西洞院東入不動町１６７番地４,,26,104,6048215,,,,,,,2022-11-30,1,,,,,ラクホウドウ,0
990,4130001073193,新規,0,2022-11-30,2022-11-30,ＫＹＯＴＯ　ＴＲＡＤＩＮＧ株式会社,,株式会社,京都府,八幡市,八幡土井５３－５,,26,210,6148002,,,,,,,2022-11-30,1,,,,,キョウトトレーディング,0
992,4130003008338,新規,0,2022-11-30,2022-11-30,合同会社Ｙｏｕｒ　Ｃｈｏｉｃｅ,,合同会社,京都府,京都市下京区,玉津島町２９４－４０５号室,,26,106,6008427,,,,,,,2022-11-30,1,,,,,ユアチョイス,0
995,4140001128186,新規,0,2022-11-30,2022-11-30,Ｋｉｎｎａｒａ株式会社,,株式会社,兵庫県,神戸市中央区,野崎通１丁目３番１９号,,28,110,6510054,,,,,,,2022-11-30,1,,,,,キナーラ,0
996,4150001025985,新規,0,2022-11-30,2022-11-30,株式会社ＳＩＯＲＵ,,株式会社,奈良県,奈良市,橋本町３番地の１,,29,201,6308217,,,,,,,2022-11-30,1,,,,,シオル,0
1006,4180001153957,新規,0,2022-11-30,2022-11-30,株式会社Ｇホールディングス,,株式会社,愛知県,名古屋市名東区,よもぎ台１丁目１６０５番地の２,,23,115,4650091,,,,,,,2022-11-30,1,,,,,ジーホールディングス,0
1007,4180001153981,新規,0,2022-11-30,2022-11-30,アセット・マークス株式会社,,株式会社,愛知県,名古屋市東区,古出来１丁目２番１６号マークススクエア,,23,102,4610049,,,,,,,2022-11-30,1,,,,,アセットマークス,0
1021,4240001060718,新規,0,2022-11-30,2022-11-30,株式会社Ａｕｔｏｌｉｅｂｈａｂｅｒ,,株式会社,広島県,廿日市市,大野中央４丁目８番３８－１号,,34,213,7390437,,,,,,,2022-11-30,1,,,,,アウトリープハーベル,0
1039,4290001099735,新規,0,2022-11-30,2022-11-30,株式会社いつつぼし,,株式会社,福岡県,大牟田市,大字橘１５４４番地１,,40,202,8370911,,,,,,,2022-11-30,1,,,,,イツツボシ,0
1041,4290003013264,新規,0,2022-11-30,2022-11-30,合同会社ｎｏｂｏｓｅＭｏｎ,,合同会社,福岡県,福岡市中央区,渡辺通１丁目１‐１,,40,133,8100004,,,,,,,2022-11-30,1,,,,,ノボセモン,0
1057,4370001049319,新規,0,2022-11-30,2022-11-30,株式会社ＬＩＮＤＯ,,株式会社,宮城県,黒川郡大和町,吉岡字上柴崎６番地の１サンハイツ大和１号棟１階Ｂ号,,04,421,9813621,,,,,,,2022-11-30,1,,,,,リンド,0
1059,4370005010557,新規,0,2022-11-30,2022-11-30,一般社団法人アトリエ虹色たまご,,その他の設立登記法人,宮城県,仙台市泉区,松森字鹿島４９番地の１２,,04,105,9813111,,,,,,,2022-11-30,1,,,,,アトリエニジイロタマゴ,0
1065,4380001033288,新規,0,2022-11-30,2022-11-30,株式会社エーアイテック,,株式会社,福島県,福島市,平石字古屋敷４番地の２,,07,201,9601103,,,,,,,2022-11-30,1,,,,,エーアイテック,0
1078,4430001087948,新規,0,2022-11-30,2022-11-30,株式会社アトラクリエイション,,株式会社,北海道,北広島市,里見町７丁目５番地４,,01,234,0611147,,,,,,,2022-11-30,1,,,,,アトラクリエイション,0
1084,4500001024621,新規,0,2022-11-30,2022-11-30,株式会社ＭＯＴＴＡＩＮＡＩ　ＣＯＣＯＬＯＦＡＲＭ,,株式会社,愛媛県,松山市,小山田甲１０６９－１,,38,201,7992410,,,,,,,2022-11-30,1,,,,,モッタイナイココロファーム,0
1085,4700150112272,新規,0,2022-11-30,2022-10-26,ｈａｐｐｙ　Ｆｒｉｄａｙ,,その他,岡山県,倉敷市,生坂２５０,,33,202,7100002,,,,,,,2022-10-26,1,,,,,ハツピーフライデー,0
1091,5010001231002,新規,0,2022-11-30,2022-11-30,株式会社ＨＡＮＡＭＩ　ＩＴＡＧＡＫＩ　ＤＥＳＩＧＮ,,株式会社,東京都,中央区,銀座１丁目１２－４Ｎ＆ＥＢＬＤ．６Ｆ,,13,102,1040061,,,,,,,2022-11-30,1,,,,,ハナミイタガキデザイン,0
1092,5010001231076,新規,0,2022-11-30,2022-11-30,株式会社ライフデザイン・ファクトリー,,株式会社,東京都,中央区,銀座７丁目１３番２０号銀座ＴＨビル９階,,13,102,1040061,,,,,,,2022-11-30,1,,,,,ライフデザインファクトリー,0
1093,5010001231134,新規,0,2022-11-30,2022-11-30,株式会社ＨＡＲＵＮＯＨＩ,,株式会社,東京都,中央区,銀座１丁目２２番１１号銀座大竹ビジデンス２階,,13,102,1040061,,,,,,,2022-11-30,1,,,,,ハルノヒ,0
1096,5010003039204,新規,0,2022-11-30,2022-11-30,ＷａｒｒｅｎＺ２２合同会社,,合同会社,東京都,文京区,湯島３丁目３５－８コア湯島ビル６０１,,13,105,1130034,,,,,,,2022-11-30,1,,,,,ワレンツトゥウェンティーツー,0
1102,5010401170865,新規,0,2022-11-30,2022-11-30,ＣＨＡＴＥＡＵ株式会社,,株式会社,東京都,港区,西麻布３丁目１７番３号,,13,103,1060031,,,,,,,2022-11-30,1,,,,,シャトー,0
1103,5010401171079,新規,0,2022-11-30,2022-11-30,株式会社ｂｅｆｏｒｅｇｒｅｅｎ,,株式会社,東京都,港区,麻布十番２丁目５番１１－３０１号,,13,103,1060045,,,,,,,2022-11-30,1,,,,,ビフォアグリーン,0
1108,5010501049679,新規,0,2022-11-30,2022-11-30,有楽株式会社,,株式会社,東京都,台東区,橋場２丁目２２－３,,13,106,1110023,,,,,,,2022-11-30,1,,,,,ユウラク,0
1109,5010501049687,新規,0,2022-11-30,2022-11-30,株式会社瑞洋貿易,,株式会社,東京都,台東区,上野６丁目７番１６号川久保ビル５０４号室,,13,106,1100005,,,,,,,2022-11-30,1,,,,,ズイヨウボウエキ,0
1112,5010601062219,新規,0,2022-11-30,2022-11-30,株式会社森田商事,,株式会社,東京都,江東区,東砂７丁目１５番４号,,13,108,1360074,,,,,,,2022-11-30,1,,,,,モリタショウジ,0
1113,5010601062227,新規,0,2022-11-30,2022-11-30,株式会社グリットウィン,,株式会社,東京都,江東区,富岡１丁目４番２－４０１号,,13,108,1350047,,,,,,,2022-11-30,1,,,,,グリットウィン,0
1134,5011001151207,新規,0,2022-11-30,2022-11-30,ＲＵＦＵ株式会社,,株式会社,東京都,渋谷区,恵比寿４丁目２０番３号恵比寿ガーデンプレイスタワー８階,,13,113,1500013,,,,,,,2022-11-30,1,,,,,ルフ,0
1135,5011001151231,新規,0,2022-11-30,2022-11-30,株式会社Ｆｏｒｔｕｎｉｏ　Ｊａｐａｎ,,株式会社,東京都,目黒区,洗足２丁目１６番１９号,,13,110,1520012,,,,,,,2022-11-30,1,,,,,フォーチュニオジャパン,0
1137,5011003015806,新規,0,2022-11-30,2022-11-30,パラレルデータジャパン合同会社,,合同会社,東京都,渋谷区,神宮前６丁目２３番４号桑野ビル２階,,13,113,1500001,,,,,,,2022-11-30,1,,,,,パラレルデータジャパン,0
1141,5011101101004,新規,0,2022-11-30,2022-11-30,株式会社ＴＯＶ,,株式会社,東京都,新宿区,北新宿３丁目２０番１－３０１号,,13,104,1690074,,,,,,,2022-11-30,1,,,,,トーヴ,0
1150,5011201024261,新規,0,2022-11-30,2022-11-30,株式会社Ａｒｇｏｓ,,株式会社,東京都,中野区,沼袋３丁目８番１２号,,13,114,1650025,,,,,,,2022-11-30,1,,,,,アルゴス,0
1153,5011501028706,新規,0,2022-11-30,2022-11-30,天造地社株式会社,,株式会社,東京都,北区,浮間１丁目７－２３兆豊浮間ビル４０２号室,,13,117,1150051,,,,,,,2022-11-30,1,,,,,テンゾウチシャ,0
1154,5011501028722,新規,0,2022-11-30,2022-11-30,株式会社ｒａｋｕｎａｎｊｉ,,株式会社,東京都,北区,十条仲原１丁目１６番３号,,13,117,1140031,,,,,,,2022-11-30,1,,,,,ラクナンジ,0
1155,5011503005380,新規,0,2022-11-30,2022-11-30,合同会社ベガフォレスト,,合同会社,東京都,荒川区,東日暮里２丁目２８－１メゾン戸田３０１,,13,118,1160014,,,,,,,2022-11-30,1,,,,,ベガフォレスト,0
1158,5011603003763,新規,0,2022-11-30,2022-11-30,合同会社ＡＬＬ　ＩＮ,,合同会社,東京都,練馬区,石神井町７丁目３番６号ＴＲＩＡ２０１,,13,120,1770041,,,,,,,2022-11-30,1,,,,,オールイン,0
1163,5012401039909,新規,0,2022-11-30,2022-11-30,株式会社Ｚｅｎｏｎ,,株式会社,東京都,稲城市,百村２４４番地２８,,13,225,2060804,,,,,,,2022-11-30,1,,,,,ゼノン,0
1168,5012803002935,新規,0,2022-11-30,2022-11-30,ｍａｉヘルスケア合同会社,,合同会社,東京都,昭島市,中神町１丁目１５番１０号,,13,207,1960022,,,,,,,2022-11-30,1,,,,,マイヘルスケア,0
1172,5013301050006,新規,0,2022-11-30,2022-11-30,株式会社バックス・Ｅ‐モビリティ,,株式会社,東京都,豊島区,要町１丁目２３番１号,,13,116,1710043,,,,,,,2022-11-30,1,,,,,バックスイーモビリティ,0
1181,5020001149185,新規,0,2022-11-30,2022-11-30,株式会社アップドラフト,,株式会社,神奈川県,横浜市中区,不老町１丁目２－１－３０２,,14,104,2310032,,,,,,,2022-11-30,1,,,,,アップドラフト,0
1182,5020001149193,新規,0,2022-11-30,2022-11-30,株式会社照陽建設,,株式会社,神奈川県,横浜市栄区,飯島町１５３０オオタハイツ,,14,115,2440842,,,,,,,2022-11-30,1,,,,,ショウヨウケンセツ,0
1192,5030001151256,新規,0,2022-11-30,2022-11-30,株式会社タッグチーム,,株式会社,埼玉県,吉川市,きよみ野３丁目２４番地３,,11,243,3420058,,,,,,,2022-11-30,1,,,,,タッグチーム,0
1207,5040003021357,新規,0,2022-11-30,2022-11-30,宍倉工業合同会社,,合同会社,千葉県,千葉市若葉区,千城台東１丁目８番８－２号,,12,104,2640002,,,,,,,2022-11-30,1,,,,,シシクラコウギョウ,0
1212,5050005013178,新規,0,2022-11-30,2022-11-30,一般社団法人茨城創生経営者連合会,,その他の設立登記法人,茨城県,水戸市,大塚町２４７番地の１,,08,201,3114143,,,,,,,2022-11-30,1,,,,,イバラキソウセイケイエイシャレンゴウカイ,0
1214,5070001039869,新規,0,2022-11-30,2022-11-30,株式会社新光,,株式会社,群馬県,太田市,新田木崎町６０２番地２ヴィラナリー太田２号棟２０５号室,,10,205,3700321,,,,,,,2022-11-30,1,,,,,シンコウ,0
1224,5100001035914,新規,0,2022-11-30,2022-11-30,株式会社レイニー,,株式会社,長野県,上田市,中央２丁目１０－１５千曲錦ビル１Ｆ,,20,203,3860012,,,,,,,2022-11-30,1,,,,,レイニー,0
1234,5120001250569,新規,0,2022-11-30,2022-11-30,君臨株式会社,,株式会社,大阪府,大阪市西成区,太子１丁目１２番１８号１０１号室,,27,122,5570002,,,,,,,2022-11-30,1,,,,,クンリン,0
1235,5120001250585,新規,0,2022-11-30,2022-11-30,美伊堂株式会社,,株式会社,大阪府,大阪市住吉区,杉本２丁目３１－５アスカ藤３０１号室,,27,120,5580022,,,,,,,2022-11-30,1,,,,,ビイドウ,0
1236,5120001250610,新規,0,2022-11-30,2022-11-30,株式会社Ｈ・Ｔ,,株式会社,大阪府,大阪市中央区,道頓堀１丁目東６番５号,,27,128,5420071,,,,,,,2022-11-30,1,,,,,エイチティ,0
1237,5120001250627,新規,0,2022-11-30,2022-11-30,株式会社ＢＳＳ谷町,,株式会社,大阪府,大阪市住吉区,山之内４丁目１４番１４号,,27,120,5580023,,,,,,,2022-11-30,1,,,,,ビーエスエスタニマチ,0
1238,5120001250651,新規,0,2022-11-30,2022-11-30,株式会社ＳｅｅｋｅｒＮｏｒｔｈＦｉｌｍ,,株式会社,大阪府,大阪市鶴見区,浜２丁目２番５３号,,27,124,5380035,,,,,,,2022-11-30,1,,,,,シーカーノースフィルム,0
1241,5120003022958,新規,0,2022-11-30,2022-11-30,合同会社トントゥ,,合同会社,大阪府,大阪市西区,北堀江１丁目２２番２－２０４号,,27,106,5500014,,,,,,,2022-11-30,1,,,,,トントゥ,0
1242,5120003022974,新規,0,2022-11-30,2022-11-30,合同会社ＴＢＢＣクリエイト,,合同会社,大阪府,守口市,祝町９番５号,,27,209,5700071,,,,,,,2022-11-30,1,,,,,ティビィビィシィクリエイト,0
1248,5120103004947,新規,0,2022-11-30,2022-11-30,みらいレシピ合同会社,,合同会社,大阪府,貝塚市,東山２丁目８番１１号,,27,208,5970046,,,,,,,2022-11-30,1,,,,,ミライレシピ,0
1254,5122001036444,新規,0,2022-11-30,2022-11-30,株式会社ＹＵ‐Ｓｐｒｅａｄ,,株式会社,大阪府,東大阪市,日下町４丁目２番１０－１０４号,,27,227,5798003,,,,,,,2022-11-30,1,,,,,ユースプレッド,0
1259,5130001073176,新規,0,2022-11-30,2022-11-30,株式会社ＲＥＳＥＮＳＥ,,株式会社,京都府,京都市北区,上賀茂桜井町３１番地１,,26,101,6038054,,,,,,,2022-11-30,1,,,,,レセンス,0
1263,5130003008353,新規,0,2022-11-30,2022-11-30,合同会社Ｆビレッジ１,,合同会社,京都府,京都市西京区,桂坤町３６－１１,,26,111,6158084,,,,,,,2022-11-30,1,,,,,エフビレッジワン,0
1271,5150001025984,新規,0,2022-11-30,2022-11-30,株式会社ＫＰＭ,,株式会社,奈良県,葛城市,薑７４番地２,,29,211,6392122,,,,,,,2022-11-30,1,,,,,ケーピーエム,0
1279,5180001153980,新規,0,2022-11-30,2022-11-30,株式会社ＴＥＮＤＡＮＣＥ,,株式会社,愛知県,名古屋市中村区,寿町２６番地カルティア名駅中村日赤８０１,,23,105,4530028,,,,,,,2022-11-30,1,,,,,テンダンス,0
1280,5180001154005,新規,0,2022-11-30,2022-11-30,株式会社ｐｉｎ．ｎｕｔ,,株式会社,愛知県,名古屋市中村区,大日町１２番２７号,,23,105,4530034,,,,,,,2022-11-30,1,,,,,ピンナッツ,0
1295,5220003003403,新規,0,2022-11-30,2022-11-30,合同会社サンワ,,合同会社,石川県,金沢市,進和町１０番地１３,,17,201,9218006,,,,,,,2022-11-30,1,,,,,サンワ,0
1301,5260001037449,新規,0,2022-11-30,2022-11-30,株式会社シェルズテクノサービス,,株式会社,岡山県,倉敷市,福田町古新田３８０番地２０,,33,202,7128046,,,,,,,2022-11-30,1,,,,,シェルズテクノサービス,0
1311,5290001099734,新規,0,2022-11-30,2022-11-30,株式会社ファミユ,,株式会社,福岡県,福岡市城南区,長尾３丁目２３番２１号,,40,136,8140123,,,,,,,2022-11-30,1,,,,,ファミユ,0
1313,5290003013263,新規,0,2022-11-30,2022-11-30,合同会社ナカ,,合同会社,福岡県,福岡市西区,小戸３丁目４０番１９号,,40,135,8190001,,,,,,,2022-11-30,1,,,,,ナカ,0
1316,5300001013148,新規,0,2022-11-30,2022-11-30,株式会社オーディーズ,,株式会社,佐賀県,唐津市,浜玉町浜崎１１３６－１,,41,202,8495131,,,,,,,2022-11-30,1,,,,,オーディーズ,0
1329,5360001031268,新規,0,2022-11-30,2022-11-30,ＨＵＢＳＴＡ株式会社,,株式会社,沖縄県,沖縄市,仲宗根町３１－６、２Ｆ,,47,211,9040014,,,,,,,2022-11-30,1,,,,,ハブスタ,0
1331,5360003012480,新規,0,2022-11-30,2022-11-30,ＯｋｉＮｉｓｈｉ．Ｇｒｏｕｐ合同会社,,合同会社,沖縄県,中頭郡嘉手納町,水釜６丁目１６番１２号タイラアパートＡ,,47,325,9040204,,,,,,,2022-11-30,1,,,,,オキニシグループ,0
1332,5360003012506,新規,0,2022-11-30,2022-11-30,合同会社オルデラン,,合同会社,沖縄県,那覇市,久米２丁目１０番２３号神村アパート３０１号室,,47,201,9000033,,,,,,,2022-11-30,1,,,,,オルデラン,0
1333,5360003012522,新規,0,2022-11-30,2022-11-30,合同会社ＫＡＮＳ,,合同会社,沖縄県,石垣市,字大川５７２番地きいやまハイツ２０１号,,47,207,9070022,,,,,,,2022-11-30,1,,,,,カンズ,0
1336,5370001049301,新規,0,2022-11-30,2022-11-30,株式会社ＩＮＦＩＮＩＴＩＡＬ,,株式会社,宮城県,仙台市青葉区,木町通１丁目１番２８－５０１号,,04,101,9800801,,,,,,,2022-11-30,1,,,,,インフィニシャル,0
1337,5370001049318,新規,0,2022-11-30,2022-11-30,株式会社ｓｈａｒｅｄ,,株式会社,宮城県,仙台市青葉区,本町１丁目５番２８号カーニープレイス仙台駅前通６０３号室,,04,101,9800014,,,,,,,2022-11-30,1,,,,,シェアード,0
1339,5370003005905,新規,0,2022-11-30,2022-11-30,合同会社ＣＡＮＥくりはら,,合同会社,宮城県,栗原市,志波姫南郷蓬田１２番地１０７,00128629,04,213,9895611,,,,,,,2022-11-30,1,,,,,ケインクリハラ,0
1352,5400003002997,新規,0,2022-11-30,2022-11-30,合同会社ＭＫＩ,,合同会社,岩手県,滝沢市,土沢４６５番地,,03,216,0200638,,,,,,,2022-11-30,1,,,,,エムケーアイ,0
1354,5420001018085,新規,0,2022-11-30,2022-11-30,株式会社ササキ,,株式会社,青森県,つがる市,柏玉水１９番地４,,02,209,0383106,,,,,,,2022-11-30,1,,,,,ササキ,0
1360,5430001087947,新規,0,2022-11-30,2022-11-30,株式会社１６８,,株式会社,北海道,札幌市中央区,南十七条西１２丁目２番３８－５０１号,,01,101,0640917,,,,,,,2022-11-30,1,,,,,イロハ,0
1361,5430001087963,新規,0,2022-11-30,2022-11-30,株式会社フェザー・プラス,,株式会社,北海道,札幌市南区,澄川二条１丁目４番１１号,,01,106,0050002,,,,,,,2022-11-30,1,,,,,フェザープラス,0
1367,5500001024612,新規,0,2022-11-30,2022-11-30,株式会社Ｓｅｔｏｎａ．,,株式会社,愛媛県,西条市,大町５８０番地５,,38,206,7930030,,,,,,,2022-11-30,1,,,,,セトナ,0
1370,5700150113162,新規,0,2022-11-30,2022-11-30,隣アニメーションインコーポレーテッド,,外国会社等,東京都,三鷹市,下連雀３丁目２－７ゲン・ハイム１０１号,,13,204,1810013,米国カリフォルニア州サンフランシスコ街２２６１番地マーケット通り４２９１,,,,,,2022-11-30,1,,,,,トナリアニメーシヨンインコーポレーテツド,0
1378,6010001231208,新規,0,2022-11-30,2022-11-30,サラブレッドパートナーズ株式会社,,株式会社,東京都,中央区,勝どき５丁目３－１－２９２２,,13,102,1040054,,,,,,,2022-11-30,1,,,,,サラブレッドパートナーズ,0
1382,6010401171037,新規,0,2022-11-30,2022-11-30,株式会社ライトハウス・グローバル,,株式会社,東京都,港区,六本木５丁目１８番１９－５０５号,,13,103,1060032,,,,,,,2022-11-30,1,,,,,ライトハウスグローバル,0
1383,6010401171094,新規,0,2022-11-30,2022-11-30,株式会社ＫＯＨＡ田,,株式会社,東京都,港区,元麻布３丁目２番１３号Ｓｔｙｌｅ元麻布１０２,,13,103,1060046,,,,,,,2022-11-30,1,,,,,コハダ,0
1386,6010403029002,新規,0,2022-11-30,2022-11-30,合同会社成沢発電所,,合同会社,東京都,港区,六本木３丁目２番１号,,13,103,1060032,,,,,,,2022-11-30,1,,,,,ナルサワハツデンショ,0
1387,6010403029019,新規,0,2022-11-30,2022-11-30,合同会社みなかみ町発電所,,合同会社,東京都,港区,六本木３丁目２番１号,,13,103,1060032,,,,,,,2022-11-30,1,,,,,ミナカミマチハツデンショ,0
1388,6010403029027,新規,0,2022-11-30,2022-11-30,合同会社武子北ノ台発電所,,合同会社,東京都,港区,六本木３丁目２番１号,,13,103,1060032,,,,,,,2022-11-30,1,,,,,タケシキタノダイハツデンショ,0
1391,6010703006485,新規,0,2022-11-30,2022-11-30,Ｘｅｎｉａｌ合同会社,,合同会社,東京都,品川区,上大崎２丁目１７番３号北斗目黒ビル５階Ｂ,,13,109,1410021,,,,,,,2022-11-30,1,,,,,ジニアル,0
1405,6011001151164,新規,0,2022-11-30,2022-11-30,カリナリーデザイン株式会社,,株式会社,東京都,渋谷区,道玄坂１丁目１０番８号渋谷道玄坂東急ビル２Ｆ－Ｃ,,13,113,1500043,,,,,,,2022-11-30,1,,,,,カリナリーデザイン,0
1406,6011001151222,新規,0,2022-11-30,2022-11-30,株式会社ＭＩＹＡ　ＬＡＢ,,株式会社,東京都,渋谷区,広尾４丁目１番１４,,13,113,1500012,,,,,,,2022-11-30,1,,,,,ミヤラボ,0
1408,6011101101003,新規,0,2022-11-30,2022-11-30,株式会社玄光,,株式会社,東京都,新宿区,新宿２丁目１５－２６第三玉屋ビル６Ｆ,,13,104,1600022,,,,,,,2022-11-30,1,,,,,ゲンコウ,0
1416,6011401024738,新規,0,2022-11-30,2022-11-30,星河産業株式会社,,株式会社,東京都,板橋区,小豆沢２丁目３－９－４０６,,13,119,1740051,,,,,,,2022-11-30,1,,,,,ホシカワサンギョウ,0
1420,6011603003762,新規,0,2022-11-30,2022-11-30,Ｍ２Ａ　Ｖａｃａｔｉｏｎ合同会社,,合同会社,東京都,練馬区,南田中３丁目２７番１０号セントヒルズＡ棟１０２,,13,120,1770035,,,,,,,2022-11-30,1,,,,,エムツーエーバケーション,0
1422,6011801041622,新規,0,2022-11-30,2022-11-30,株式会社ＭＡＫＵＡＩ,,株式会社,東京都,葛飾区,東金町３丁目７番４号,,13,122,1250041,,,,,,,2022-11-30,1,,,,,マクアイ,0
1427,6012401039899,新規,0,2022-11-30,2022-11-30,株式会社Ｊ・ＴＲＥＮＤ,,株式会社,東京都,調布市,布田５丁目５５番地６４,,13,208,1820024,,,,,,,2022-11-30,1,,,,,ジェイトレンド,0
1428,6012405004809,新規,0,2022-11-30,2022-11-30,一般財団法人上野千鶴子基金,,その他の設立登記法人,東京都,武蔵野市,中町１丁目１１番１６－２７０１号,,13,203,1800006,,,,,,,2022-11-30,1,,,,,ウエノチヅコキキン,0
1430,6012701017373,新規,0,2022-11-30,2022-11-30,ＵＤＫ株式会社,,株式会社,東京都,西東京市,南町２丁目１番１４号,,13,229,1880012,,,,,,,2022-11-30,1,,,,,ユーディーケー,0
1434,6013301050005,新規,0,2022-11-30,2022-11-30,ＢＩ‐Ｑ株式会社,,株式会社,東京都,豊島区,東池袋２丁目６３番１－７０６号,,13,116,1700013,,,,,,,2022-11-30,1,,,,,ビーキュー,0
1442,6020003022819,新規,0,2022-11-30,2022-11-30,合同会社広茂登,,合同会社,神奈川県,川崎市川崎区,殿町２丁目１４番７－２号,,14,131,2100821,,,,,,,2022-11-30,1,,,,,ヒロモト,0
1444,6020005015738,新規,0,2022-11-30,2022-11-30,医療法人よこはまＴＳＣ,,その他の設立登記法人,神奈川県,横浜市青葉区,美しが丘２丁目１４番地９ＭＭＰたまプラーザ１０１号室,,14,117,2250002,,,,,,,2022-11-30,1,,,,,,0
1457,6030001151239,新規,0,2022-11-30,2022-11-30,株式会社アンビション,,株式会社,埼玉県,和光市,白子３丁目３６番４６号,,11,229,3510101,,,,,,,2022-11-30,1,,,,,アンビション,0
1458,6030001151271,新規,0,2022-11-30,2022-11-30,スカイアットシー株式会社,,株式会社,埼玉県,三郷市,泉１丁目１４－１０,,11,237,3410054,,,,,,,2022-11-30,1,,,,,スカイアットシー,0
1463,6030003020656,新規,0,2022-11-30,2022-11-30,ＴＤ　ＴＲＡＤＩＮＧ合同会社,,合同会社,埼玉県,川口市,西川口１丁目２０－６ティアラ２１・６０１号,,11,203,3320021,,,,,,,2022-11-30,1,,,,,ティデートレーディング,0
1465,6030005021082,新規,0,2022-11-30,2022-11-30,一般社団法人風のオアシス,,その他の設立登記法人,埼玉県,さいたま市大宮区,上小町２２５番地８,,11,103,3300855,,,,,,,2022-11-30,1,,,,,カゼノオアシス,0
1472,6040001126017,新規,0,2022-11-30,2022-11-30,株式会社ｄｅａｒ　ｐｌａｃｅ,,株式会社,千葉県,松戸市,稔台７丁目１番地の３クミアイビル３０２号,,12,207,2702231,,,,,,,2022-11-30,1,,,,,ディアプレイス,0
1473,6040001126041,新規,0,2022-11-30,2022-11-30,株式会社優宝,,株式会社,千葉県,我孫子市,根戸３４４番地の２４８,,12,222,2701168,,,,,,,2022-11-30,1,,,,,ユウホウ,0
1476,6040003021356,新規,0,2022-11-30,2022-11-30,合同会社ＢＬＡＺＥ,,合同会社,千葉県,松戸市,八ケ崎８丁目３番地の２４,,12,207,2700023,,,,,,,2022-11-30,1,,,,,ブレイズ,0
1477,6040003021372,新規,0,2022-11-30,2022-11-30,合同会社Ｂｉｇ　ｆｉｅｌｄ,,合同会社,千葉県,香取郡神崎町,郡１０５２番地１,,12,342,2890202,,,,,,,2022-11-30,1,,,,,ビッグフィールド,0
1481,6050003007049,新規,0,2022-11-30,2022-11-30,合同会社ＦＬＯＣＨＥ,,合同会社,茨城県,水戸市,千波町４２３番地ドムス御茶園１０２,,08,201,3100851,,,,,,,2022-11-30,1,,,,,フロッシュ,0
1482,6060001035488,新規,0,2022-11-30,2022-11-30,株式会社ネクストエージェント,,株式会社,栃木県,宇都宮市,簗瀬町１５５３番地１,,09,201,3210933,,,,,,,2022-11-30,1,,,,,ネクストエージェント,0
1488,6080403004667,新規,0,2022-11-30,2022-11-30,合同会社辻琢磨建築企画事務所,00128639,合同会社,静岡県,浜松市浜北区,於呂２８２８番地の５８,,22,136,4340015,,,,,,,2022-11-30,1,,,,,ツジタクマケンチクキカクジムショ,0
1491,6100003006788,新規,0,2022-11-30,2022-11-30,合同会社Ｄａｍｉａ,,合同会社,長野県,安曇野市,三郷温１１１７－５,,20,220,3998102,,,,,,,2022-11-30,1,,,,,ダミア,0
1499,6120001250403,新規,0,2022-11-30,2022-11-30,株式会社Ｌｅ　Ｂａｎｎｅｒ,,株式会社,大阪府,大阪市中央区,日本橋２丁目１２番１４号,,27,128,5420073,,,,,,,2022-11-30,1,,,,,リバナー,0
1500,6120001250618,新規,0,2022-11-30,2022-11-30,株式会社ＫＫＫＫＫＫ,,株式会社,大阪府,大阪市中央区,千日前１丁目５－１９寿楽ビル２階,,27,128,5420074,,,,,,,2022-11-30,1,,,,,ケーケーケーケーケーケー,0
1501,6120001250626,新規,0,2022-11-30,2022-11-30,株式会社翔英,,株式会社,大阪府,大阪市西区,西本町１丁目７番２０号（８０３）,,27,106,5500005,,,,,,,2022-11-30,1,,,,,ショウエイ,0
1502,6120001250634,新規,0,2022-11-30,2022-11-30,ＭＩＹＡＫＯ株式会社,,株式会社,大阪府,大阪市西淀川区,大和田６丁目１０番９号,,27,113,5550032,,,,,,,2022-11-30,1,,,,,ミヤコ,0
1503,6120001250642,新規,0,2022-11-30,2022-11-30,尹君株式会社,,株式会社,大阪府,大阪市浪速区,下寺３丁目１－１４エクレール夕陽ケ丘５号２０９号室,,27,111,5560001,,,,,,,2022-11-30,1,,,,,インクン,0
1504,6120001250659,新規,0,2022-11-30,2022-11-30,艾夕株式会社,,株式会社,大阪府,大阪市西成区,旭１丁目９番４号カトレアマンション２０８号室,,27,122,5570032,,,,,,,2022-11-30,1,,,,,ガイユウ,0
1505,6120001250683,新規,0,2022-11-30,2022-11-30,株式会社エルシア,,株式会社,大阪府,大阪市中央区,淡路町３丁目５番１３号,,27,128,5410047,,,,,,,2022-11-30,1,,,,,エルシア,0
1510,6120003022916,新規,0,2022-11-30,2022-11-30,合同会社ＲＥＧＯＬＩＴＨ,,合同会社,大阪府,大阪市鶴見区,茨田大宮２丁目１番４号ＫＢＣマンション９０３,,27,124,5380031,,,,,,,2022-11-30,1,,,,,レゴリス,0
1511,6120003022957,新規,0,2022-11-30,2022-11-30,合同会社らふらふ,,合同会社,大阪府,大阪市住吉区,長居東４丁目１１番１９号ファミール長居３０２号,,27,120,5580004,,,,,,,2022-11-30,1,,,,,ラフラフ,0
1512,6120003022973,新規,0,2022-11-30,2022-11-30,春天合同会社,,合同会社,大阪府,大阪市西成区,千本南１丁目１６番１４号白雪マンション３０５号室,,27,122,5570055,,,,,,,2022-11-30,1,,,,,シュウテン,0
1520,6120101066600,新規,0,2022-11-30,2022-11-30,志村企画株式会社,,株式会社,大阪府,堺市堺区,出島海岸通１丁１６－１３,,27,141,5900833,,,,,,,2022-11-30,1,,,,,シムラキカク,0
1521,6120103004946,新規,0,2022-11-30,2022-11-30,合同会社Ｌｅ’ａ,,合同会社,大阪府,堺市堺区,北瓦町２丁３番２３号駅前第一ビル,,27,141,5900076,,,,,,,2022-11-30,1,,,,,レア,0
1524,6120901046801,新規,0,2022-11-30,2022-11-30,株式会社ＧｏｉｎｇＳｕｎ,,株式会社,大阪府,茨木市,中穂積１丁目６番４６号茨木松田ビル４階,,27,211,5670034,,,,,,,2022-11-30,1,,,,,ゴーイングサン,0
1529,6122001036451,新規,0,2022-11-30,2022-11-30,ＴＳアセット株式会社,,株式会社,大阪府,八尾市,木の本２丁目２３８番地,,27,212,5810044,,,,,,,2022-11-30,1,,,,,ティーエスアセット,0
1532,6130001073183,新規,0,2022-11-30,2022-11-30,株式会社ｃｉｚｕｃｕ,,株式会社,京都府,京都市下京区,二帖半敷町６４７オンリー烏丸ビルｅｎｇａｗａＫＹＯＴＯ,,26,106,6008412,,,,,,,2022-11-30,1,,,,,シズク,0
1533,6130001073191,新規,0,2022-11-30,2022-11-30,株式会社まりこ検査キット販売,,株式会社,京都府,京都市南区,吉祥院石原開町３５番地,,26,107,6018365,,,,,,,2022-11-30,1,,,,,マリコケンサキットハンバイ,0
1536,6130003008352,新規,0,2022-11-30,2022-11-30,合同会社まんま,,合同会社,京都府,京都市東山区,祇園町北側３４７番地１０８,,26,105,6050073,,,,,,,2022-11-30,1,,,,,マンマ,0
1540,6140001128218,新規,0,2022-11-30,2022-11-30,株式会社インプレッション,,株式会社,兵庫県,淡路市,浦９２２番地１メゾン橘５０１,,28,226,6562305,,,,,,,2022-11-30,1,,,,,インプレッション,0
1551,6180001153914,新規,0,2022-11-30,2022-11-30,株式会社ヤマガイ,,株式会社,愛知県,瀬戸市,下陣屋町１２５番地の１,,23,204,4890051,,,,,,,2022-11-30,1,,,,,ヤマガイ,0
1553,6180003024519,新規,0,2022-11-30,2022-11-30,合同会社ＲＭ,,合同会社,愛知県,丹羽郡扶桑町,大字柏森字郷前１６７,,23,362,4800103,,,,,,,2022-11-30,1,,,,,アールエム,0
1554,6180003024535,新規,0,2022-11-30,2022-11-30,合同会社Ｆ‐ＪＥＴ,,合同会社,愛知県,名古屋市中川区,富田町大字榎津字腰懸１８００番地,,23,110,4540953,,,,,,,2022-11-30,1,,,,,エフジェット,0
1557,6180303005524,新規,0,2022-11-30,2022-11-30,合同会社ＲｉＮｇ,,合同会社,愛知県,碧南市,立山町３丁目１８,,23,209,4470075,,,,,,,2022-11-30,1,,,,,リング,0
1560,6190003004156,新規,0,2022-11-30,2022-11-30,合同会社ＴＨＵＣＨＩＮ,,合同会社,三重県,桑名郡木曽岬町,大字栄２番地３,,24,303,4980811,,,,,,,2022-11-30,1,,,,,トゥチン,0
1584,6290003013254,新規,0,2022-11-30,2022-11-30,合同会社柏光,,合同会社,福岡県,福岡市南区,柏原４丁目１５番３２号,,40,134,8111353,,,,,,,2022-11-30,1,,,,,ハッコウ,0
1585,6290003013262,新規,0,2022-11-30,2022-11-30,合同会社ブック,,合同会社,福岡県,福岡市東区,香住ヶ丘４丁目３２番４０－２１２号サンライズ香住ヶ丘ＩＩ,00128640,40,131,8130003,,,,,,,2022-11-30,1,,,,,ブック,0
1593,6360001031267,新規,0,2022-11-30,2022-11-30,株式会社Ｃｒａｆｔｓｍａｎ,,株式会社,沖縄県,うるま市,字高江洲７９６番地１,,47,213,9042242,,,,,,,2022-11-30,1,,,,,クラフトマン,0
1594,6360003012505,新規,0,2022-11-30,2022-11-30,合同会社澪,,合同会社,沖縄県,那覇市,西２丁目１２番１－１２０３号,,47,201,9000036,,,,,,,2022-11-30,1,,,,,ミオ,0
1606,6400003002996,新規,0,2022-11-30,2022-11-30,合同会社ＨｉＴ＆ＲｉＣ,,合同会社,岩手県,盛岡市,向中野２丁目４７番２６号,,03,201,0200851,,,,,,,2022-11-30,1,,,,,ヒットアンドリック,0
1609,6420001018084,新規,0,2022-11-30,2022-11-30,株式会社健食サービス,,株式会社,青森県,青森市,大字新城字平岡２５８番地９,,02,201,0380042,,,,,,,2022-11-30,1,,,,,ケンショクサービス,0
1620,6430001087946,新規,0,2022-11-30,2022-11-30,勇払クリーン産業株式会社,,株式会社,北海道,千歳市,上長都１０３３番地の３,,01,224,0660077,,,,,,,2022-11-30,1,,,,,ユウフツクリーンサンギョウ,0
1626,6430003014485,新規,0,2022-11-30,2022-11-30,合同会社ＷＩＬＹ,,合同会社,北海道,札幌市豊平区,平岸二条８丁目５－４３レヴェントン２８　１０１号室,,01,105,0620932,,,,,,,2022-11-30,1,,,,,ウィーリー,0
1627,6430003014502,新規,0,2022-11-30,2022-11-30,合同会社Ｄ‐ｃａｒｅ,,合同会社,北海道,札幌市西区,宮の沢四条４丁目７番８号,,01,107,0630054,,,,,,,2022-11-30,1,,,,,ディーケア,0
1633,6700150112584,新規,0,2022-11-30,2022-11-04,旅立ちの会,,その他,東京都,江戸川区,松本１丁目５－４,,13,123,1330043,,,,,,,2022-11-04,1,,,,,タビダチノカイ,0
1634,6700150113161,新規,0,2022-11-30,2022-11-30,Ａｐｏｌｌｏ　Ｎｏ．１７　Ｌｉｍｉｔｅｄ,,外国会社等,東京都,千代田区,霞が関３丁目２－６東京倶楽部ビルディング６階　ロイズジャパン株式会社内,,13,101,1000013,Ｏｎｅ　Ｌｉｍｅ　Ｓｒｅｅｔ　Ｌｏｎｄｏｎ　ＥＣ３Ｍ　７ＨＡ　ＵＫ,,,,,,2022-11-30,1,,,,,アポロナンバーワンセブンリミテツド,0
1651,7010003039185,新規,0,2022-11-30,2022-11-30,合同会社ＲＣ１号,,合同会社,東京都,千代田区,丸の内３丁目１番１号東京共同会計事務所内,,13,101,1000005,,,,,,,2022-11-30,1,,,,,アールシーイチゴウ,0
1658,7010401171060,新規,0,2022-11-30,2022-11-30,株式会社博報堂キャビン,,株式会社,東京都,港区,赤坂５丁目３番１号,,13,103,1070052,,,,,,,2022-11-30,1,,,,,ハクホウドウキャビン,0
1659,7010403028952,新規,0,2022-11-30,2022-11-30,合同会社ＭＹＭ,,合同会社,東京都,港区,六本木４丁目１２番８号第六ＤＭＪビル地下１階,,13,103,1060032,,,,,,,2022-11-30,1,,,,,エムワイエム,0
1660,7010403028985,新規,0,2022-11-30,2022-11-30,Ｐｒｏｊｅｃｔ９０９合同会社,,合同会社,東京都,港区,三田１丁目３番４０号麻布十番ＢＵＳＩＮＥＳＳ・ＣＵＢＥ－Ｓ天翔オフィス麻布十番９階９０９号室,,13,103,1080073,,,,,,,2022-11-30,1,,,,,プロジェクトナインオーナイン,0
1661,7010403028993,新規,0,2022-11-30,2022-11-30,合同会社ＰＵＺＺＬＥ,,合同会社,東京都,港区,芝５丁目１４－１－５０１,,13,103,1080014,,,,,,,2022-11-30,1,,,,,パズル,0
1662,7010403029001,新規,0,2022-11-30,2022-11-30,合同会社ソーラーパーク４号,,合同会社,東京都,港区,六本木３丁目２番１号,,13,103,1060032,,,,,,,2022-11-30,1,,,,,ソーラーパークヨンゴウ,0
1663,7010403029018,新規,0,2022-11-30,2022-11-30,合同会社磐梯発電所,,合同会社,東京都,港区,六本木３丁目２番１号,,13,103,1060032,,,,,,,2022-11-30,1,,,,,バンダイハツデンショ,0
1664,7010403029026,新規,0,2022-11-30,2022-11-30,合同会社豊愛の里米山発電所,,合同会社,東京都,港区,六本木３丁目２番１号,,13,103,1060032,,,,,,,2022-11-30,1,,,,,ホウアイノサトヨネヤマハツデンショ,0
1667,7010601026477,新規,0,2022-11-30,2022-11-30,株式会社エム・シー・エム,,株式会社,東京都,江東区,豊洲３丁目３番３号,,13,108,1350061,,,,,,,2022-11-30,1,,,,,エムシーエム,0
1672,7010601062217,新規,0,2022-11-30,2022-11-30,株式会社盗宝屋,,株式会社,東京都,江東区,豊洲５丁目１－１３ブランズタワー豊洲２６２７号室,,13,108,1350061,,,,,,,2022-11-30,1,,,,,トウホウヤ,0
1673,7010601062225,新規,0,2022-11-30,2022-11-30,ＹＩＡＮ株式会社,,株式会社,東京都,江東区,東砂５丁目５番６号Ｋビル２１１,,13,108,1360074,,,,,,,2022-11-30,1,,,,,イアン,0
1675,7010703006492,新規,0,2022-11-30,2022-11-30,スケールアウト合同会社,,合同会社,東京都,品川区,東大井３丁目２２番３－２１８号,,13,109,1400011,,,,,,,2022-11-30,1,,,,,スケールアウト,0
1679,7010901052066,新規,0,2022-11-30,2022-11-30,株式会社ＧＲＩ,,株式会社,東京都,世田谷区,玉川台１丁目１－１５０１,,13,112,1580096,,,,,,,2022-11-30,1,,,,,ジーアールアイ,0
1685,7011001151213,新規,0,2022-11-30,2022-11-30,株式会社ＢＡＬＬ,,株式会社,東京都,渋谷区,神宮前４丁目１５番１６号,,13,113,1500001,,,,,,,2022-11-30,1,,,,,ビオール,0
1686,7011001151221,新規,0,2022-11-30,2022-11-30,株式会社ＢＬＡＮＣ＆ＥＣＬＡＲＥ　Ｊａｐａｎ,,株式会社,東京都,渋谷区,富ヶ谷１丁目９番１６号,,13,113,1510063,,,,,,,2022-11-30,1,,,,,ブランアンドエクレアジャパン,0
1691,7011503005379,新規,0,2022-11-30,2022-11-30,合同会社デパーチャー,,合同会社,東京都,荒川区,町屋５丁目１３番７号,,13,118,1160001,,,,,,,2022-11-30,1,,,,,デパーチャー,0
1693,7011603003761,新規,0,2022-11-30,2022-11-30,合同会社ＤＮＨｏｍｅｓ,,合同会社,東京都,練馬区,練馬３丁目１９番１７－６０３号,,13,120,1760001,,,,,,,2022-11-30,1,,,,,ディエヌホームズ,0
1702,7011801041613,新規,0,2022-11-30,2022-11-30,株式会社日向,,株式会社,東京都,葛飾区,小菅２丁目１５－８,,13,122,1240001,,,,,,,2022-11-30,1,,,,,ヒュウガ,0
1708,7012701017372,新規,0,2022-11-30,2022-11-30,株式会社ＣＡＰ　ＴＲＡＤＥ,,株式会社,東京都,小平市,鈴木町１丁目３５２－９－１０３,,13,211,1870011,,,,,,,2022-11-30,1,,,,,キャップトレード,0
1710,7012801021992,新規,0,2022-11-30,2022-11-30,株式会社ＫＥＩ,,株式会社,東京都,東大和市,桜が丘２丁目１４２番地の１２グランドメゾン玉川上水ノーススクエア１１０８,,13,220,2070022,,,,,,,2022-11-30,1,,,,,ケーイーアイ,0
1714,7020001149051,新規,0,2022-11-30,2022-11-30,ＵＮＥＸ株式会社,,株式会社,神奈川県,横浜市青葉区,新石川４丁目１１番１－２０１号,,14,117,2250003,,,,,,,2022-11-30,1,,,,,ユーネックス,0
1719,7020005015737,新規,0,2022-11-30,2022-11-30,一般社団法人エシカルビューティーＥＲｅＡ,,その他の設立登記法人,神奈川県,横浜市中区,元町１丁目１８番地５レフィナード元町３Ｆ,,14,104,2310861,,,,,,,2022-11-30,1,,,,,エシカルビューティーエリア,0
1735,7030001151221,新規,0,2022-11-30,2022-11-30,株式会社山一ＰＣ,,株式会社,埼玉県,本庄市,いまい台２丁目４７番地,,11,211,3670038,,,,,,,2022-11-30,1,,,,,ヤマイチピーシー,0
1736,7030001151254,新規,0,2022-11-30,2022-11-30,株式会社ひろた建築士事務所,,株式会社,埼玉県,草加市,清門１丁目３９８番地１２,,11,221,3400055,,,,,,,2022-11-30,1,,,,,ヒロタケンチクシジムショ,0
1737,7030001151270,新規,0,2022-11-30,2022-11-30,株式会社Ａ‐Ｄｒｅａｍ,,株式会社,埼玉県,上尾市,緑ケ丘三丁目３番１１－１号,,11,219,3620000,,,,,,,2022-11-30,1,,,,,エードリーム,0
1741,7030003020647,新規,0,2022-11-30,2022-11-30,合同会社ＮＥＸＴ,,合同会社,埼玉県,さいたま市南区,四谷１丁目２－１,,11,108,3360032,,,,,,,2022-11-30,1,,,,,ネクスト,0
1742,7030003020655,新規,0,2022-11-30,2022-11-30,ジップライン合同会社,,合同会社,埼玉県,さいたま市桜区,栄和５丁目４番９号,,11,106,3380823,,,,,,,2022-11-30,1,,,,,ジップライン,0
1756,7040003021355,新規,0,2022-11-30,2022-11-30,合同会社ＢＭソリューション,,合同会社,千葉県,松戸市,栗山２２８番地の６,,12,207,2710097,,,,,,,2022-11-30,1,,,,,ビーエムソリューション,0
1760,7050001052021,新規,0,2022-11-30,2022-11-30,ＲＡＮＡ　ＡＢＡＤ　ＴＲＡＤＩＮＧ株式会社,,株式会社,茨城県,筑西市,玉戸１３０９番地２７,,08,227,3080847,,,,,,,2022-11-30,1,,,,,ラナアバッドトレーディング,0
1778,7110003004930,新規,0,2022-11-30,2022-11-30,合同会社Ｅ‐Ｂａｓｅ,,合同会社,新潟県,佐渡市,羽茂大橋１０２４,,15,224,9520512,,,,,,,2022-11-30,1,,,,,イーベース,0
1787,7120001250591,新規,0,2022-11-30,2022-11-30,株式会社Ｓａｎｃｏ　Ａｄｍｉｎｉｓｔｒａｔｉｏｎ,,株式会社,大阪府,大阪市西淀川区,姫里１丁目７番１３号,,27,113,5550025,,,,,,,2022-11-30,1,,,,,サンコウアドミニストレーション,0
1788,7120001250609,新規,0,2022-11-30,2022-11-30,株式会社ＢＡＳＥ　ＣＵＢＥ　ＨＤ,,株式会社,大阪府,大阪市平野区,喜連西４丁目６番２７号,,27,126,5470026,,,,,,,2022-11-30,1,,,,,ベースキューブホールディングス,0
1789,7120001250625,新規,0,2022-11-30,2022-11-30,株式会社東方紅,,株式会社,大阪府,大阪市北区,堂山町１０番１５号Ｈ＆Ｉ天神ビル,,27,127,5300027,,,,,,,2022-11-30,1,,,,,トウホウコウ,0
1790,7120001250633,新規,0,2022-11-30,2022-11-30,株式会社ＪＥＥＲＵ,,株式会社,大阪府,大阪市中央区,難波４丁目１番１５号３０６号室,,27,128,5420076,,,,,,,2022-11-30,1,,,,,ジェール,0
1792,7120003022948,新規,0,2022-11-30,2022-11-30,合同会社ハヌル医療企画,,合同会社,大阪府,大阪市北区,梅田１丁目１－３大阪駅前第３ビル２９階１－１－１号室,,27,127,5300001,,,,,,,2022-11-30,1,,,,,ハヌルイリョウキカク,0
1793,7120003022964,新規,0,2022-11-30,2022-11-30,尚杉合同会社,,合同会社,大阪府,大阪市淀川区,塚本２丁目６－３デリート塚本駅前３０４号室,,27,123,5320026,,,,,,,2022-11-30,1,,,,,ナオスギ,0
1794,7120003022972,新規,0,2022-11-30,2022-11-30,出羽合同会社,,合同会社,大阪府,大阪市平野区,加美北１丁目２３番２７号４０１号室,,27,126,5470001,,,,,,,2022-11-30,1,,,,,デワ,0
1795,7120101066599,新規,0,2022-11-30,2022-11-30,潤愛株式会社,,株式会社,大阪府,貝塚市,王子８２８番地７９,,27,208,5970051,,,,,,,2022-11-30,1,,,,,ジュンアイ,0
1796,7120901046791,新規,0,2022-11-30,2022-11-30,株式会社ＬＩＴ,,株式会社,大阪府,池田市,豊島北２丁目８番５号,,27,204,5630036,,,,,,,2022-11-30,1,,,,,リット,0
1800,7122001036442,新規,0,2022-11-30,2022-11-30,株式会社ＴＯＭＩＴＡ,,株式会社,大阪府,東大阪市,渋川町２丁目２番１６号,,27,227,5770836,,,,,,,2022-11-30,1,,,,,トミタ,0
1807,7130001073208,新規,0,2022-11-30,2022-11-30,株式会社ふぁみりーぷらす,,株式会社,京都府,京都市南区,久世上久世町５４７番地１３,,26,107,6018212,,,,,,,2022-11-30,1,,,,,ファミリープラス,0
1817,7140003018416,新規,0,2022-11-30,2022-11-30,Ｃｏｕｒｉｅｒｅ合同会社,,合同会社,兵庫県,神戸市中央区,中山手通１丁目２２番１３号ヒルサイドテラスＢ１－２,,28,110,6500004,,,,,,,2022-11-30,1,,,,,クーリエール,0
1825,7170003001798,新規,0,2022-11-30,2022-11-30,合同会社デルタプラス,,合同会社,和歌山県,和歌山市,西浜１６６０番地６７４,,30,201,6410036,,,,,,,2022-11-30,1,,,,,デルタプラス,0
1834,7180001153970,新規,0,2022-11-30,2022-11-30,株式会社ガラピット,,株式会社,愛知県,名古屋市守山区,白山１丁目８１６番地メゾン宝樹１０１号,,23,113,4630032,,,,,,,2022-11-30,1,,,,,ガラピット,0
1835,7180001153995,新規,0,2022-11-30,2022-11-30,株式会社サウスヴィレッジ,,株式会社,愛知県,名古屋市瑞穂区,片坂町３丁目９番地の４,,23,108,4670052,,,,,,,2022-11-30,1,,,,,サウスヴィレッジ,0
1849,7210001019169,新規,0,2022-11-30,2022-11-30,ＲＹＳ株式会社,,株式会社,福井県,坂井市,丸岡町荒町５番,,18,210,9100227,,,,,,,2022-11-30,1,,,,,アールワイエス,0
1867,7290001099716,新規,0,2022-11-30,2022-11-30,株式会社ＭｙＬａｆｉｌｌ,,株式会社,福岡県,福岡市博多区,博多駅前１丁目２３番１号ＰａｒｋＦｒｏｎｔ博多駅前一丁目５Ｆ－Ｂ,,40,132,8120011,,,,,,,2022-11-30,1,,,,,ミラフィル,0
1868,7290001099724,新規,0,2022-11-30,2022-11-30,株式会社Ｅｘａ,,株式会社,福岡県,福岡市西区,内浜２丁目４番３４－１０２号ハイツ曽根原,,40,135,8190005,,,,,,,2022-11-30,1,,,,,エクサ,0
1869,7290003013261,新規,0,2022-11-30,2022-11-30,合同会社まりあ,,合同会社,福岡県,うきは市,吉井町新治１３１７番地１,,40,225,8391306,,,,,,,2022-11-30,1,,,,,マリア,0
1871,7290801029079,新規,0,2022-11-30,2022-11-30,株式会社福田産業,,株式会社,福岡県,遠賀郡岡垣町,大字戸切２７２番地１１,,40,383,8114222,,,,,,,2022-11-30,1,,,,,フクダサンギョウ,0
1878,7320003003952,新規,0,2022-11-30,2022-11-30,合同会社それがし,,合同会社,大分県,佐伯市,本匠大字因尾３１６番地,,44,205,8760212,,,,,,,2022-11-30,1,,,,,ソレガシ,0
1879,7330001030337,新規,0,2022-11-30,2022-11-30,ヒッツ舶用原動機設立準備株式会社,,株式会社,熊本県,玉名郡長洲町,大字有明１番地,,43,368,8690113,,,,,,,2022-11-30,1,,,,,ヒッツハクヨウゲンドウキセツリツジュンビ,0
1894,7380003005332,新規,0,2022-11-30,2022-11-30,合同会社睦月,,合同会社,福島県,喜多方市,高郷町大田賀字大原２８３５番地,,07,208,9694316,,,,,,,2022-11-30,1,,,,,ムツキ,0
1900,7420001018083,新規,0,2022-11-30,2022-11-30,４ＭＳ株式会社,,株式会社,青森県,青森市,問屋町２丁目１４番６号,,02,201,0300131,,,,,,,2022-11-30,1,,,,,フォーエムエス,0
1906,7430001087945,新規,0,2022-11-30,2022-11-30,ｐｌｕｓ　ｆｌｏｗｅｒ株式会社,,株式会社,北海道,札幌市北区,百合が原２丁目３番１４号,,01,102,0028081,,,,,,,2022-11-30,1,,,,,プラスフラワー,0
1907,7430001087953,新規,0,2022-11-30,2022-11-30,株式会社インビクタス,,株式会社,北海道,札幌市北区,北三十三条西２丁目１番２－１号,,01,102,0010033,,,,,,,2022-11-30,1,,,,,インビクタス,0
1910,7470001019358,新規,0,2022-11-30,2022-11-30,株式会社Ｓ．Ｃ．Ｍ,,株式会社,香川県,坂出市,富士見町２丁目３番５０号,,37,203,7620046,,,,,,,2022-11-30,1,,,,,エスシーエム,0
1913,7700150105802,新規,0,2022-11-30,2021-11-16,七つの月実行委員会,,その他,神奈川県,川崎市高津区,梶ケ谷６丁目１４－１２,,14,134,2130015,,,,,,,2021-11-16,1,,,,,ナナツノツキジツコウイインカイ,0
1914,7700150112154,新規,0,2022-11-30,2022-10-28,行政書士佐野自動車登録代行センター,,その他,栃木県,佐野市,下羽田町２００１－３,,09,204,3270044,,,,,,,2022-10-28,1,,,,,ギヨウセイシヨシサノジドウシヤトウロクダイコウセンター,0
1915,7700150112807,新規,0,2022-11-30,2022-11-11,青森県保護司会連合会,,その他,青森県,青森市,長島１丁目３－２５,,02,201,0300861,,,,,,,2022-11-11,1,,,,,アオモリケンホゴシカイレンゴウカイ,0
1928,8010401171010,新規,0,2022-11-30,2022-11-30,株式会社鵠,,株式会社,東京都,港区,虎ノ門１丁目１番２１号新虎ノ門実業会館５Ｆ,,13,103,1050001,,,,,,,2022-11-30,1,,,,,クグイ,0
1931,8010403029000,新規,0,2022-11-30,2022-11-30,合同会社新谷第３発電所,,合同会社,東京都,港区,六本木３丁目２番１号,,13,103,1060032,,,,,,,2022-11-30,1,,,,,シンタニダイサンハツデンショ,0
1932,8010403029017,新規,0,2022-11-30,2022-11-30,合同会社くすのき第４発電所,,合同会社,東京都,港区,六本木３丁目２番１号,,13,103,1060032,,,,,,,2022-11-30,1,,,,,クスノキダイヨンハツデンショ,0
1933,8010403029025,新規,0,2022-11-30,2022-11-30,合同会社壬生町助谷発電所,,合同会社,東京都,港区,六本木３丁目２番１号,,13,103,1060032,,,,,,,2022-11-30,1,,,,,ミブマチスケガイハツデンショ,0
1936,8010601062224,新規,0,2022-11-30,2022-11-30,コネコ株式会社,,株式会社,東京都,江東区,東砂５丁目５番６号Ｋビル３０３,,13,108,1360074,,,,,,,2022-11-30,1,,,,,コネコ,0
1940,8010703006491,新規,0,2022-11-30,2022-11-30,合同会社ＡＧＵＲＥ,,合同会社,東京都,品川区,上大崎３丁目１４番１号,,13,109,1410021,,,,,,,2022-11-30,1,,,,,アグレ,0
1952,8010901052049,新規,0,2022-11-30,2022-11-30,ジャパンファシリティサービス株式会社,,株式会社,東京都,世田谷区,給田４丁目１８番１－２０２号ライオンズガーデンテラス千歳烏山,,13,112,1570064,,,,,,,2022-11-30,1,,,,,ジャパンファシリティサービス,0
1953,8010901052065,新規,0,2022-11-30,2022-11-30,株式会社ＮＧＳＺ,,株式会社,東京都,世田谷区,赤堤５丁目３７番５号,,13,112,1560044,,,,,,,2022-11-30,1,,,,,エヌジーエスジィ,0
1961,8011001151204,新規,0,2022-11-30,2022-11-30,株式会社Ｍ２ＤＳ,,株式会社,東京都,渋谷区,神宮前６丁目２３番４号桑野ビル２階,,13,113,1500001,,,,,,,2022-11-30,1,,,,,メディカルエンドマーケットデータサイエンス,0
1963,8011003015811,新規,0,2022-11-30,2022-11-30,ａｊｉｓａｅ合同会社,,合同会社,東京都,渋谷区,恵比寿西２丁目１９番９号ＦｒａｎｃｅｓＢｕｉｌｄｉｎｇ１Ｆ,,13,113,1500021,,,,,,,2022-11-30,1,,,,,アジサイ,0
1972,8011201024250,新規,0,2022-11-30,2022-11-30,株式会社Ａ　ａｎｄ　Ｍｅ,,株式会社,東京都,中野区,上高田１丁目１－６,,13,114,1640002,,,,,,,2022-11-30,1,,,,,エーアンドミー,0
1973,8011201024259,新規,0,2022-11-30,2022-11-30,株式会社ＨＥＸＥＬ　Ａｓｓｅｔ　Ｍａｎａｇｅｍｅｎｔ,,株式会社,東京都,中野区,中央１丁目４４番８号,,13,114,1640011,,,,,,,2022-11-30,1,,,,,ヘクセルアセットマネジメント,0
1974,8011203003954,新規,0,2022-11-30,2022-11-30,合同会社ＳＧＩＮ,,合同会社,東京都,中野区,中野５丁目５８番９号ソシアルビル山田２０１,,13,114,1640001,,,,,,,2022-11-30,1,,,,,エスジーアイエヌ,0
1986,8011701025806,新規,0,2022-11-30,2022-11-30,株式会社Ｋ‐ＲＥＶＥＲＳＥ,,株式会社,東京都,江戸川区,南小岩３丁目５番１号,,13,123,1330056,,,,,,,2022-11-30,1,,,,,ケーリバース,0
1988,8011805003229,新規,0,2022-11-30,2022-11-30,一般社団法人ブリンク,,その他の設立登記法人,東京都,葛飾区,四つ木２丁目１８番２－４０１号,,13,122,1240011,,,,,,,2022-11-30,1,,,,,ブリンク,0
1990,8012403005708,新規,0,2022-11-30,2022-11-30,合同会社ＴＯＹ　ＢＯＸ,,合同会社,東京都,多摩市,落合５丁目２－６－２０２,,13,224,2060033,,,,,,,2022-11-30,1,,,,,トイボックス,0
2001,8020001149166,新規,0,2022-11-30,2022-11-30,フラットアドバイザーホールディングス株式会社,,株式会社,神奈川県,横浜市戸塚区,前田町５１１－２－３２３,,14,110,2440804,,,,,,,2022-11-30,1,,,,,フラットアドバイザーホールディングス,0
2008,8021001077555,新規,0,2022-11-30,2022-11-30,株式会社隆郎商店,,株式会社,神奈川県,鎌倉市,扇ガ谷１丁目１０番１５号,,14,204,2480011,,,,,,,2022-11-30,1,,,,,リュウロウショウテン,0
2009,8021001077571,新規,0,2022-11-30,2022-11-30,株式会社トミリナ,,株式会社,神奈川県,藤沢市,大庭５０４１番地の１４,,14,205,2510861,,,,,,,2022-11-30,1,,,,,トミリナ,0
2012,8021003012436,新規,0,2022-11-30,2022-11-30,Ｍ‐ｔｅｃｈ合同会社,,合同会社,神奈川県,厚木市,妻田西１丁目１７番４０号アルールＩ１０８,,14,212,2430815,,,,,,,2022-11-30,1,,,,,エムテック,0
2015,8030001151229,新規,0,2022-11-30,2022-11-30,株式会社ＯＲＵＮＡ,,株式会社,埼玉県,飯能市,征矢町２９番地６,,11,209,3570049,,,,,,,2022-11-30,1,,,,,オルナ,0
2016,8030001151253,新規,0,2022-11-30,2022-11-30,株式会社ＲＥＶＯ,,株式会社,埼玉県,さいたま市大宮区,宮町２丁目９３－２,,11,103,3300802,,,,,,,2022-11-30,1,,,,,リーボ,0
2022,8030003020654,新規,0,2022-11-30,2022-11-30,合同会社ＧＭクリーンサービスカワグチ,,合同会社,埼玉県,川口市,安行出羽１丁目１１番２６号,,11,203,3340052,,,,,,,2022-11-30,1,,,,,ジーエムクリーンサービスカワグチ,0
2023,8030003020662,新規,0,2022-11-30,2022-11-30,ＴＲアセットマネージメント合同会社,,合同会社,埼玉県,春日部市,増富２４４番地１６,,11,214,3440041,,,,,,,2022-11-30,1,,,,,ティーアールアセットマネージメント,0
2026,8040001126015,新規,0,2022-11-30,2022-11-30,株式会社Ｊ‐Ｓｐｅｃ,,株式会社,千葉県,野田市,関宿台町３１０５番地１,,12,208,2700202,,,,,,,2022-11-30,1,,,,,ジェイスペック,0
2027,8040001126031,新規,0,2022-11-30,2022-11-30,株式会社ＴＫホールディングス,,株式会社,千葉県,船橋市,二和西４丁目４番３３号,,12,204,2740806,,,,,,,2022-11-30,1,,,,,ティーケーホールディングス,0
2047,8100003006794,新規,0,2022-11-30,2022-11-30,合同会社ＳＥＳＳＩＯＮＳ,,合同会社,長野県,下高井郡野沢温泉村,大字豊郷秋葉９７０２番地,,20,563,3892502,,,,,,,2022-11-30,1,,,,,セッションズ,0
2062,8120001250574,新規,0,2022-11-30,2022-11-30,ＫＴ　ＢＡＢＩＥＳ株式会社,,株式会社,大阪府,大阪市西成区,天下茶屋１丁目８－１６シティプラザ花園２０４号室,,27,122,5570014,,,,,,,2022-11-30,1,,,,,ケイティーベイビーズ,0
2063,8120001250599,新規,0,2022-11-30,2022-11-30,株式会社サニープレイス,,株式会社,大阪府,大阪市浪速区,日本橋３丁目３－２１,,27,111,5560005,,,,,,,2022-11-30,1,,,,,サニープレイス,0
2064,8120001250624,新規,0,2022-11-30,2022-11-30,鳴亮株式会社,,株式会社,大阪府,大阪市浪速区,日本橋５丁目１３番２０－６０２号,,27,111,5560005,,,,,,,2022-11-30,1,,,,,メイリョウ,0
2065,8120001250632,新規,0,2022-11-30,2022-11-30,金田通商株式会社,,株式会社,大阪府,大阪市阿倍野区,松崎町２丁目１－４１篠崎ハイツ３０２号室,,27,119,5450053,,,,,,,2022-11-30,1,,,,,カネダツウショウ,0
2066,8120001250640,新規,0,2022-11-30,2022-11-30,株式会社アス・フィールド,,株式会社,大阪府,大阪市中央区,博労町１丁目８番１２－１１０６号,,27,128,5410059,,,,,,,2022-11-30,1,,,,,アスフィールド,0
2076,8120901046782,新規,0,2022-11-30,2022-11-30,創嘉株式会社,,株式会社,大阪府,吹田市,江坂町５丁目１１番１０号サンシャイン緑地公園２０２号室,,27,205,5640063,,,,,,,2022-11-30,1,,,,,ソウカ,0
2081,8130001073157,新規,0,2022-11-30,2022-11-30,Ｎ＆Ｎライフプランニングオフィス株式会社,,株式会社,京都府,南丹市,園部町城南町大領１５番地１,,26,213,6220044,,,,,,,2022-11-30,1,,,,,エヌアンドエヌライフプランニングオフィス,0
2083,8130003008342,新規,0,2022-11-30,2022-11-30,合同会社サンクス,,合同会社,京都府,京都市伏見区,醍醐下端山町１１番地３１,,26,109,6011332,,,,,,,2022-11-30,1,,,,,サンクス,0
2090,8140001128208,新規,0,2022-11-30,2022-11-30,株式会社Ｂｒｉｇｈｔｅｒ,,株式会社,兵庫県,川西市,鴬台２丁目３３番地の２,,28,217,6660133,,,,,,,2022-11-30,1,,,,,ブライター,0
2095,8140003018407,新規,0,2022-11-30,2022-11-30,合同会社アットエール,,合同会社,兵庫県,神戸市東灘区,向洋町中６丁目６－６１３－７２０,,28,101,6580032,,,,,,,2022-11-30,1,,,,,アットエール,0
2096,8140003018415,新規,0,2022-11-30,2022-11-30,合同会社ｎａｍｉｄａ‐ｅｉｚｏ,,合同会社,兵庫県,姫路市,飾磨区上野田５丁目１８２－２,,28,201,6728043,,,,,,,2022-11-30,1,,,,,ナミダエイゾウ,0
2097,8140005026390,新規,0,2022-11-30,2022-11-30,結協同組合,,その他の設立登記法人,兵庫県,豊岡市,出石町小人字山椒畑２３０番地,,28,209,6680256,,,,,,,2022-11-30,1,,,,,ムスブ,0
2099,8150001025981,新規,0,2022-11-30,2022-11-30,株式会社Ｔｓｕｋｉｎｏｍｉｙａ，ＦＴ,,株式会社,奈良県,生駒市,俵口町７９３番地１,,29,209,6300243,,,,,,,2022-11-30,1,,,,,ツキノミヤエフティー,0
2102,8160005011143,新規,0,2022-11-30,2022-11-30,一般社団法人動物愛護監視委員会,,その他の設立登記法人,滋賀県,高島市,今津町酒波１１８６番２,,25,212,5201651,,,,,,,2022-11-30,1,,,,,ドウブツアイゴカンシイインカイ,0
2108,8180001153986,新規,0,2022-11-30,2022-11-30,株式会社ＳＥＡ,,株式会社,愛知県,名古屋市昭和区,広路町字北石坂１０２番地７６,,23,107,4660834,,,,,,,2022-11-30,1,,,,,シー,0
2109,8180001153994,新規,0,2022-11-30,2022-11-30,キタリス株式会社,,株式会社,愛知県,岩倉市,曽野町下街道８２１番地３,,23,228,4820003,,,,,,,2022-11-30,1,,,,,キタリス,0
2110,8180001154002,新規,0,2022-11-30,2022-11-30,株式会社２３．４,,株式会社,愛知県,豊明市,三崎町中ノ坪２０番地６（２Ｆ）,,23,229,4701125,,,,,,,2022-11-30,1,,,,,ニジュウサンテンヨン,0
2112,8180003024533,新規,0,2022-11-30,2022-11-30,合同会社コミコレット,,合同会社,愛知県,名古屋市中区,栄２丁目２番地１号広小路伏見中駒ビル２Ｆ－９,,23,106,4600008,,,,,,,2022-11-30,1,,,,,コミコレット,0
2113,8180003024541,新規,0,2022-11-30,2022-11-30,フェリーチェ合同会社,,合同会社,愛知県,一宮市,木曽川町黒田字城東２３番地１グレース篠木Ｖ４０６号,,23,203,4930001,,,,,,,2022-11-30,1,,,,,フェリーチェ,0
2132,8260005011166,新規,0,2022-11-30,2022-11-30,医療法人社団優羽会,,その他の設立登記法人,岡山県,倉敷市,西阿知町西原１０７４番地１,,33,202,7100806,,,,,,,2022-11-30,1,,,,,ユウハカイ,0
2143,8290003013260,新規,0,2022-11-30,2022-11-30,ケセラ合同会社,,合同会社,福岡県,福岡市西区,野方５丁目７番９号,,40,135,8190043,,,,,,,2022-11-30,1,,,,,ケセラ,0
2145,8290803004277,新規,0,2022-11-30,2022-11-30,合同会社Ｌｉｖｅ　ｓｔａｃｋ,,合同会社,福岡県,北九州市小倉南区,下曽根新町６－３－２０２,,40,107,8000221,,,,,,,2022-11-30,1,,,,,リブスタック,0
2151,8360001031265,新規,0,2022-11-30,2022-11-30,株式会社エメラルド,,株式会社,沖縄県,中頭郡北中城村,字島袋３１１番地,,47,327,9012301,,,,,,,2022-11-30,1,,,,,エメラルド,0
2152,8360001031273,新規,0,2022-11-30,2022-11-30,株式会社Ｎ２,,株式会社,沖縄県,那覇市,宇栄原３丁目１６番１５号,,47,201,9010153,,,,,,,2022-11-30,1,,,,,エヌツー,0
2154,8360003012503,新規,0,2022-11-30,2022-11-30,合同会社Ｒｅｐｅａｔ,,合同会社,沖縄県,那覇市,前島２丁目１番５号,,47,201,9000016,,,,,,,2022-11-30,1,,,,,リピート,0
2156,8370001049307,新規,0,2022-11-30,2022-11-30,株式会社ＦＣＡＲホールディングス,,株式会社,宮城県,仙台市宮城野区,扇町１丁目８番３７号,,04,102,9830034,,,,,,,2022-11-30,1,,,,,エフカーホールディングス,0
2165,8400001016071,新規,0,2022-11-30,2022-11-30,株式会社ハセガワ・ホールディングス,,株式会社,岩手県,陸前高田市,横田町字志田実３番地１１,,03,210,0292202,,,,,,,2022-11-30,1,,,,,ハセガワホールディングス,0
2175,8430003014500,新規,0,2022-11-30,2022-11-30,合同会社イトゲン,,合同会社,北海道,札幌市南区,真駒内柏丘１丁目５番１０号,,01,106,0050022,,,,,,,2022-11-30,1,,,,,イトゲン,0
2178,8700150111543,新規,0,2022-11-30,2022-08-29,パラスト大森管理組合,,その他,東京都,大田区,大森北５丁目８－２６,,13,111,1430016,,,,,,,2022-08-29,1,,,,,パラストオオモリカンリクミアイ,0
2189,9010001231106,新規,0,2022-11-30,2022-11-30,株式会社小路工務店,,株式会社,東京都,千代田区,九段南１丁目５番６号りそな九段ビル５ＦＫＳフロア,,13,101,1020074,,,,,,,2022-11-30,1,,,,,ショウジコウムテン,0
2190,9010003039209,新規,0,2022-11-30,2022-11-30,合同会社バイオメディカルラボ,,合同会社,東京都,千代田区,麹町２丁目１０番地３,,13,101,1020083,,,,,,,2022-11-30,1,,,,,バイオメディカルラボ,0
2199,9010401171042,新規,0,2022-11-30,2022-11-30,株式会社ＡｄｄＳｔｒｉｄｅ,,株式会社,東京都,港区,南青山２丁目２番１５号,,13,103,1070062,,,,,,,2022-11-30,1,,,,,アドストライド,0
2200,9010401171050,新規,0,2022-11-30,2022-11-30,株式会社ユア・エース,,株式会社,東京都,港区,西麻布４丁目５番１０号ザ・パークハウス西麻布レジデンス４０７,,13,103,1060031,,,,,,,2022-11-30,1,,,,,ユアエース,0
2201,9010401171067,新規,0,2022-11-30,2022-11-30,株式会社ＮＯＴＡ,,株式会社,東京都,港区,赤坂４丁目１４番１４号,,13,103,1070052,,,,,,,2022-11-30,1,,,,,ノタ,0
2204,9010403028991,新規,0,2022-11-30,2022-11-30,ＡＩ　Ｍｏｎｔｅｌｅｎａ　Ｊａｐａｎ合同会社,,合同会社,東京都,港区,芝公園２丁目６番３号,,13,103,1050011,,,,,,,2022-11-30,1,,,,,エイアイモンテレーナジャパン,0
2205,9010403029016,新規,0,2022-11-30,2022-11-30,合同会社ソーラーパーク７号,,合同会社,東京都,港区,六本木３丁目２番１号,,13,103,1060032,,,,,,,2022-11-30,1,,,,,ソーラーパークナナゴウ,0
2206,9010403029024,新規,0,2022-11-30,2022-11-30,合同会社佐倉発電所,,合同会社,東京都,港区,六本木３丁目２番１号,,13,103,1060032,,,,,,,2022-11-30,1,,,,,サクラハツデンショ,0
2207,9010405021615,新規,0,2022-11-30,2022-11-30,一般社団法人危機管理広報普及協会,,その他の設立登記法人,東京都,港区,赤坂２丁目１２番２１－４０４号,,13,103,1070052,,,,,,,2022-11-30,1,,,,,キキカンリコウホウフキュウキョウカイ,0
2209,9010501049691,新規,0,2022-11-30,2022-11-30,株式会社台東警備,,株式会社,東京都,台東区,北上野２丁目６番１３号ダイアパレス上野３０２,,13,106,1100014,,,,,,,2022-11-30,1,,,,,タイトウケイビ,0
2211,9010601062223,新規,0,2022-11-30,2022-11-30,株式会社フォーユ,,株式会社,東京都,江東区,東砂５丁目５番６号Ｋビル２０９,,13,108,1360074,,,,,,,2022-11-30,1,,,,,フォーユ,0
2212,9010601062231,新規,0,2022-11-30,2022-11-30,株式会社ハンアリ,,株式会社,東京都,江東区,亀戸２丁目８番９号１Ｆ,,13,108,1360071,,,,,,,2022-11-30,1,,,,,ハンアリ,0
2213,9010603009866,新規,0,2022-11-30,2022-11-30,Ｔ‐Ｌｉｎｋアドバイザリー合同会社,,合同会社,東京都,江東区,豊洲４丁目１１番３５－８０７号,,13,108,1350061,,,,,,,2022-11-30,1,,,,,ティーリンクアドバイザリー,0
2219,9010901052048,新規,0,2022-11-30,2022-11-30,株式会社アルペジオ,,株式会社,東京都,世田谷区,玉川３丁目１番１６号,,13,112,1580094,,,,,,,2022-11-30,1,,,,,アルペジオ,0
2222,9011001151194,新規,0,2022-11-30,2022-11-30,株式会社ＳＴ,,株式会社,東京都,渋谷区,幡ヶ谷３丁目７３番５－４０５号,,13,113,1510072,,,,,,,2022-11-30,1,,,,,エスティー,0
2223,9011001151203,新規,0,2022-11-30,2022-11-30,株式会社ゆめみこ,,株式会社,東京都,渋谷区,笹塚３丁目３４番５－３０４号ＬａｐｅｒｌａＳａｓａｚｕｋａＩＩ,00128632,13,113,1510073,,,,,,,2022-11-30,1,,,,,ユメミコ,0
2228,9011005009843,新規,0,2022-11-30,2022-11-30,特定非営利活動法人そるな,,その他の設立登記法人,東京都,渋谷区,渋谷１丁目２３－２１渋谷キャスト１３１４,,13,113,1500002,,,,,,,2022-11-30,1,,,,,ソルナ,0
2230,9011101101009,新規,0,2022-11-30,2022-11-30,カムイ株式会社,,株式会社,東京都,新宿区,中井１丁目９番９号中井ハイツ３０３,,13,104,1610035,,,,,,,2022-11-30,1,,,,,カムイ,0
2232,9011201024258,新規,0,2022-11-30,2022-11-30,株式会社ＨＥＸＥＬ　Ｂｕｓｉｎｅｓｓ　Ｓｕｐｐｏｒｔ,,株式会社,東京都,中野区,中央１丁目４４番８号,,13,114,1640011,,,,,,,2022-11-30,1,,,,,ヘクセルビジネスサポート,0
2233,9011203003953,新規,0,2022-11-30,2022-11-30,合同会社ロングアイランド,,合同会社,東京都,中野区,本町１丁目２９番１１号グランシャリオ中野坂上１０１,,13,114,1640012,,,,,,,2022-11-30,1,,,,,ロングアイランド,0
2238,9011401024727,新規,0,2022-11-30,2022-11-30,海控株式会社,,株式会社,東京都,板橋区,大和町６番１２－５０２号,,13,119,1730012,,,,,,,2022-11-30,1,,,,,カイコウ,0
2247,9011703003313,新規,0,2022-11-30,2022-11-30,ＷＯＬＶＥＳＧＡＬＥ合同会社,,合同会社,東京都,江戸川区,江戸川２丁目１５番２４号,,13,123,1320013,,,,,,,2022-11-30,1,,,,,ウルブスガーレ,0
2249,9012401039913,新規,0,2022-11-30,2022-11-30,株式会社多摩企業,,株式会社,東京都,府中市,武蔵台１丁目１９－６０,,13,206,1830042,,,,,,,2022-11-30,1,,,,,タマキギョウ,0
2265,9020001149165,新規,0,2022-11-30,2022-11-30,株式会社ＷＯＲＫ　ＯＮ,,株式会社,神奈川県,横浜市旭区,市沢町５１２番地１８,,14,112,2410014,,,,,,,2022-11-30,1,,,,,ワークオン,0
2270,9020003022816,新規,0,2022-11-30,2022-11-30,風林火山合同会社,,合同会社,神奈川県,横浜市鶴見区,下末吉５丁目２３番１０号,,14,101,2300012,,,,,,,2022-11-30,1,,,,,フウリンカザン,0
2276,9021005012672,新規,0,2022-11-30,2022-11-30,一般社団法人ブルーカーボンベルト・リビエラ研究所,,その他の設立登記法人,神奈川県,逗子市,小坪５丁目２３番９号,,14,208,2490008,,,,,,,2022-11-30,1,,,,,ブルーカーボンベルトリビエラケンキュウジョ,0
2291,9030003020653,新規,0,2022-11-30,2022-11-30,ＣＹＢＥＲ　ＮＩＮＥ合同会社,,合同会社,埼玉県,鴻巣市,宮地５丁目２番２５号,,11,217,3650075,,,,,,,2022-11-30,1,,,,,サイバーナイン,0
2302,9040001126030,新規,0,2022-11-30,2022-11-30,株式会社ＳＬインベストリ,,株式会社,千葉県,船橋市,西浦３丁目４番２号,,12,204,2730017,,,,,,,2022-11-30,1,,,,,エスエルインベストリ,0
2311,9070001039865,新規,0,2022-11-30,2022-11-30,株式会社ゆーめいく,,株式会社,群馬県,高崎市,栄町３番１１号高崎バナーズビル３・５Ｆ,,10,202,3700841,,,,,,,2022-11-30,1,,,,,ユーメイク,0
2312,9070005010054,新規,0,2022-11-30,2022-11-30,医療法人あらた,,その他の設立登記法人,群馬県,みどり市,大間々町大間々１３８１番地,,10,212,3760101,,,,,,,2022-11-30,1,,,,,アラタ,0
2314,9080003002903,新規,0,2022-11-30,2022-11-30,合同会社四季,,合同会社,静岡県,焼津市,小土１２９２番地の１,,22,212,4250086,,,,,,,2022-11-30,1,,,,,シキ,0
2328,9120001250581,新規,0,2022-11-30,2022-11-30,銘莉株式会社,,株式会社,大阪府,大阪市北区,西天満３丁目６－１０リーガル西天満４０２,,27,127,5300047,,,,,,,2022-11-30,1,,,,,メイリ,0
2329,9120001250607,新規,0,2022-11-30,2022-11-30,株式会社Ｌａｖｉｅ　Ｗｏｒｋ,,株式会社,大阪府,大阪市中央区,北久宝寺町２丁目６番１号,,27,128,5410057,,,,,,,2022-11-30,1,,,,,,0
2330,9120001250615,新規,0,2022-11-30,2022-11-30,株式会社温世,,株式会社,大阪府,大阪市西区,新町１丁目３番１６号,,27,106,5500013,,,,,,,2022-11-30,1,,,,,オンゼ,0
2331,9120001250631,新規,0,2022-11-30,2022-11-30,人生設計ナビ株式会社,,株式会社,大阪府,大阪市西区,新町１丁目６番２２号,,27,106,5500013,,,,,,,2022-11-30,1,,,,,ジンセイセッケイナビ,0
2345,9130001073189,新規,0,2022-11-30,2022-11-30,ＩＮＥＸＵＳ株式会社,,株式会社,京都府,宇治市,六地蔵札ノ辻町１４番地の２,00128631,26,204,6110001,,,,,,,2022-11-30,1,,,,,アイネックス,0
2346,9130001073197,新規,0,2022-11-30,2022-11-30,株式会社ＧＦＫ,,株式会社,京都府,京都市中京区,堺町通夷川上る絹屋町１３５番地,,26,104,6040804,,,,,,,2022-11-30,1,,,,,ジーエフケー,0
2348,9130003008358,新規,0,2022-11-30,2022-11-30,ＫＥＶＹＴ．合同会社,,合同会社,京都府,京都市右京区,梅津大縄場町６－２４アルス京都嵐山,,26,108,6150925,,,,,,,2022-11-30,1,,,,,ケヴィット,0
2349,9140001128198,新規,0,2022-11-30,2022-11-30,株式会社フラワーロード青山ビル,,株式会社,兵庫県,神戸市中央区,八幡通４丁目２番１３号,,28,110,6510085,,,,,,,2022-11-30,1,,,,,フラワーロードアオヤマビル,0
2351,9150001025980,新規,0,2022-11-30,2022-11-30,株式会社ＣＲＡＦＴ．Ｎ,,株式会社,奈良県,奈良市,椿井町１０番地,,29,201,6308343,,,,,,,2022-11-30,1,,,,,クラフトエヌ,0
2353,9150003002821,新規,0,2022-11-30,2022-11-30,はんな通信テクノロジー合同会社,,合同会社,奈良県,大和高田市,今里町４番１３号,,29,202,6350031,,,,,,,2022-11-30,1,,,,,ハンナツウシンテクノロジー,0
2361,9180001153952,新規,0,2022-11-30,2022-11-30,株式会社ＭＩＮＡＭＩＲＡＩ企画,,株式会社,愛知県,名古屋市千種区,桜が丘５０番地２階,,23,101,4640025,,,,,,,2022-11-30,1,,,,,ミナミライキカク,0
2362,9180001153960,新規,0,2022-11-30,2022-11-30,株式会社ＳＹＭ,,株式会社,愛知県,一宮市,起字用水東９番地１,,23,203,4940006,,,,,,,2022-11-30,1,,,,,エスワイエム,0
2363,9180001153969,新規,0,2022-11-30,2022-11-30,株式会社ＬＩＦＩＸ,,株式会社,愛知県,春日井市,篠木町２丁目５番地,,23,206,4860851,,,,,,,2022-11-30,1,,,,,リフィックス,0
2364,9180001153977,新規,0,2022-11-30,2022-11-30,株式会社ＡＭＳ,,株式会社,愛知県,名古屋市中川区,服部１丁目３０７番地,,23,110,4540976,,,,,,,2022-11-30,1,,,,,エーエムエス,0
2365,9180001153985,新規,0,2022-11-30,2022-11-30,株式会社明進,,株式会社,愛知県,名古屋市南区,明治２丁目１０番７号,,23,112,4570861,,,,,,,2022-11-30,1,,,,,メイシン,0
2371,9180305009413,新規,0,2022-11-30,2022-11-30,一般社団法人ｌｉｆｅ‐ｂｅｓｔ,,その他の設立登記法人,愛知県,豊田市,若林東町棚田１２番地,,23,211,4730914,,,,,,,2022-11-30,1,,,,,ライフベスト,0
2377,9200003005752,新規,0,2022-11-30,2022-11-30,合同会社ＨＭＳ,,合同会社,岐阜県,羽島市,小熊町島前１７２５番地３,,21,209,5016252,,,,,,,2022-11-30,1,,,,,エイチエムエス,0
2398,9290001099739,新規,0,2022-11-30,2022-11-30,株式会社つばころ,,株式会社,福岡県,福岡市中央区,渡辺通４丁目４－１９－４０１,,40,133,8100004,,,,,,,2022-11-30,1,,,,,ツバコロ,0
2401,9300003001907,新規,0,2022-11-30,2022-11-30,合同会社タグチ,,合同会社,佐賀県,伊万里市,大川町大川野３８０７番地,,41,205,8495251,,,,,,,2022-11-30,1,,,,,,0
2402,9330001030343,新規,0,2022-11-30,2022-11-30,株式会社ｓａｌｕｔｅ,,株式会社,熊本県,熊本市北区,楠８丁目１１番８号,,43,105,8618003,,,,,,,2022-11-30,1,,,,,サルーテ,0
2406,9340005009531,新規,0,2022-11-30,2022-11-30,一般社団法人九州経営互助協会,,その他の設立登記法人,鹿児島県,鹿児島市,武岡４丁目２４番１１号,,46,201,8900031,,,,,,,2022-11-30,1,,,,,キュウシュウケイエイゴジョキョウカイ,0
2408,9360001031264,新規,0,2022-11-30,2022-11-30,ビルディング・テック株式会社,,株式会社,沖縄県,浦添市,勢理客４丁目１６番８号２Ｆ,,47,208,9012122,,,,,,,2022-11-30,1,,,,,ビルディングテック,0
2411,9370001049297,新規,0,2022-11-30,2022-11-30,Ａ＆Ｊ株式会社,,株式会社,宮城県,仙台市青葉区,大町２丁目１－７－５０３,,04,101,9800804,,,,,,,2022-11-30,1,,,,,エーアンドジェイ,0
2412,9370001049322,新規,0,2022-11-30,2022-11-30,高元建設株式会社,,株式会社,宮城県,岩沼市,三色吉字亀１４２－１サンライズパーク２０３,,04,211,9892464,,,,,,,2022-11-30,1,,,,,タカモトケンセツ,0
2416,9380003005330,新規,0,2022-11-30,2022-11-30,合同会社カネタカ建業,,合同会社,福島県,郡山市,字下亀田２３番地の１２,,07,203,9638032,,,,,,,2022-11-30,1,,,,,カネタカケンギョウ,0
2417,9390001017079,新規,0,2022-11-30,2022-11-30,株式会社ＣＨＡｉＮＯＮ,,株式会社,山形県,天童市,芳賀タウン北１丁目７番２２号,,06,210,9940082,,,,,,,2022-11-30,1,,,,,シェノン,0
2419,9390003002021,新規,0,2022-11-30,2022-11-30,博賛ジャパン合同会社,,合同会社,山形県,山形市,六日町６－４０,,06,201,9900054,,,,,,,2022-11-30,1,,,,,ボザンジャパン,0
2427,9430003014490,新規,0,2022-11-30,2022-11-30,合同会社ラフターケア,,合同会社,北海道,伊達市,西浜町９２番地３１，１階,,01,233,0520033,,,,,,,2022-11-30,1,,,,,ラフターケア,0
2428,9430003014499,新規,0,2022-11-30,2022-11-30,合同会社イケザキタイヤ,,合同会社,北海道,北広島市,輪厚６９１番５９,,01,234,0611264,,,,,,,2022-11-30,1,,,,,イケザキタイヤ,0
2435,9700150043728,新規,0,2022-11-30,2015-10-09,岡崎自家用自動車組合,,その他,愛知県,岡崎市,上六名１丁目１番地５,,23,202,4440858,,,,,,,2015-10-09,1,,,,,オカザキジカヨウジドウシヤクミアイ,0
2436,9700150112680,新規,0,2022-11-30,2022-11-10,ラ・コンパニー・ダッシュ,,その他,東京都,台東区,西浅草１丁目５－１４－３１２,,13,106,1110035,,,,,,,2022-11-10,1,,,,,ラコンパニーダツシユ,0
2437,9700150113159,新規,0,2022-11-30,2022-11-30,Ｊａｂｉｌ　Ｉｎｃ．　ＵＳＡ,,外国会社等,,,,,,,,ＴＨＥ　ＣＯＲＰＯＲＡＴＩＯＮ　ＴＲＵＳＴ　ＣＯＭＰＡＮＹ　１２０９　ＯＲＡＮＧＥ　ＳＴ　ＷＩＬＭＩＮＧＴＯＮ，ＤＥ　１９８０１,,,,,,2022-11-30,1,,,,,ジエイビルインクユーエスエー,0
