sequenceNumber,corporateNumber,process,correct,updateDate,changeDate,name,nameImageId,kind,prefectureName,cityName,streetNumber,addressImageId,prefectureCode,cityCode,postCode,addressOutside,addressOutsideImageId,closeDate,closeCause,successorCorporateNumber,changeCause,assignmentDate,latest,enName,enPrefectureName,enCityName,enAddressOutside,furigana,hihyoji
10,1010001232499,新規,0,2023-02-02,2023-02-02,株式会社ブライトクリエーション,,株式会社,東京都,中央区,銀座１丁目１２番４号Ｎ＆Ｅ、ＢＬＤ．６Ｆ,,13,102,1040061,,,,,,,2023-02-02,1,,,,,ブライトクリエーション,0
11,1010001232648,新規,0,2023-02-02,2023-02-02,株式会社オーガスタ,,株式会社,東京都,文京区,小石川３丁目８番７号,,13,105,1120002,,,,,,,2023-02-02,1,,,,,オーガスタ,0
12,1010001232680,新規,0,2023-02-02,2023-02-02,株式会社ＢＣＡＣ,,株式会社,東京都,中央区,八丁堀３丁目２４番１－７１４号,,13,102,1040032,,,,,,,2023-02-02,1,,,,,ビーシーエーシー,0
23,1010103002073,新規,0,2023-02-02,2023-02-02,合同会社ペアカインド・パートナーズ,,合同会社,東京都,八王子市,館町１７９９番地８,,13,201,1930944,,,,,,,2023-02-02,1,,,,,ペアカインドパートナーズ,0
30,1010401172147,新規,0,2023-02-02,2023-02-02,株式会社ｓａｔｉａｒｅ,,株式会社,東京都,港区,南青山３丁目１番３６号青山丸竹ビル６Ｆ,,13,103,1070062,,,,,,,2023-02-02,1,,,,,サチアレ,0
31,1010401172238,新規,0,2023-02-02,2023-02-02,株式会社ＴＴ,,株式会社,東京都,港区,六本木３丁目２番１号,,13,103,1060032,,,,,,,2023-02-02,1,,,,,ティーティー,0
32,1010403029436,新規,0,2023-02-02,2023-02-02,リンクキャピタル合同会社,,合同会社,東京都,港区,赤坂１丁目１２番３２号,,13,103,1070052,,,,,,,2023-02-02,1,,,,,リンクキャピタル,0
33,1010403029444,新規,0,2023-02-02,2023-02-02,Ａｌｌｇｏｏｄ合同会社,,合同会社,東京都,港区,南青山３丁目１番３６号青山丸竹ビル６Ｆ,,13,103,1070062,,,,,,,2023-02-02,1,,,,,オールグッド,0
38,1010501049963,新規,0,2023-02-02,2023-02-02,株式会社Ｓｔｙ,,株式会社,東京都,台東区,雷門２丁目１９番４号,,13,106,1110034,,,,,,,2023-02-02,1,,,,,エスティ,0
41,1010503006871,新規,0,2023-02-02,2023-02-02,合同会社ｗｉｔｈ　ＬＯＶＥ．ｉｎｋ,,合同会社,東京都,台東区,浅草２丁目１１番地７号和田ビル１階,,13,106,1110032,,,,,,,2023-02-02,1,,,,,ウィズラヴインク,0
46,1010601062536,新規,0,2023-02-02,2023-02-02,株式会社アンドマッシュ,,株式会社,東京都,江東区,有明３丁目７－２６有明フロンティアビルＢ棟９階,,13,108,1350063,,,,,,,2023-02-02,1,,,,,アンドマッシュ,0
47,1010701043799,新規,0,2023-02-02,2023-02-02,日鴻昇株式会社,,株式会社,東京都,品川区,南品川１丁目１番３号,,13,109,1400004,,,,,,,2023-02-02,1,,,,,ニッコウショウ,0
57,1010903007932,新規,0,2023-02-02,2023-02-02,合同会社Ｆ‐ＣｒｅａｔｉｖｅＭａｒｋｅｔｉｎｇ,,合同会社,東京都,世田谷区,北沢４丁目７－１５,,13,112,1550031,,,,,,,2023-02-02,1,,,,,,0
65,1011001152340,新規,0,2023-02-02,2023-02-02,株式会社Ｄｉｇｉｔａｌ　Ｓｔｏｎｅ,,株式会社,東京都,渋谷区,道玄坂１丁目１０番８号渋谷道玄坂東急ビル２Ｆ－Ｃ,,13,113,1500043,,,,,,,2023-02-02,1,,,,,デジタルストーン,0
66,1011001152365,新規,0,2023-02-02,2023-02-02,株式会社Ｓｔａｒｔａｌｅ　Ｌａｂｓ　Ｊａｐａｎ,,株式会社,東京都,渋谷区,千駄ヶ谷３丁目１１番８号（ＴＯＳグループ内）,,13,113,1510051,,,,,,,2023-02-02,1,,,,,スターテイルラボジャパン,0
67,1011003016213,新規,0,2023-02-02,2023-02-02,ｓｈａｒｅｙ合同会社,,合同会社,東京都,渋谷区,代々木５丁目２４番１０号,,13,113,1510053,,,,,,,2023-02-02,1,,,,,シェアリー,0
73,1011203004001,新規,0,2023-02-02,2023-02-02,合同会社上高田小林,,合同会社,東京都,中野区,上高田３丁目７番３号,,13,114,1640002,,,,,,,2023-02-02,1,,,,,カミタカダコバヤシ,0
97,1020001150072,新規,0,2023-02-02,2023-02-02,株式会社ＬａｎＤｙｍ,,株式会社,神奈川県,横浜市中区,根岸町２丁目８５番地５ハートビートベース横濱根岸２２４号室,,14,104,2310836,,,,,,,2023-02-02,1,,,,,ランディム,0
98,1020001150122,新規,0,2023-02-02,2023-02-02,株式会社ＬＡＴＩＫＡ,,株式会社,神奈川県,横浜市中区,元町３丁目１３１－１地下１階,,14,104,2310861,,,,,,,2023-02-02,1,,,,,ラティーカ,0
103,1020003023219,新規,0,2023-02-02,2023-02-02,合同会社Ｒｉｚ．Ｗｉｔ,,合同会社,神奈川県,横浜市都筑区,牛久保１丁目１６番１４号,,14,118,2240012,,,,,,,2023-02-02,1,,,,,リズウィット,0
104,1020003023227,新規,0,2023-02-02,2023-02-02,合同会社リエート,,合同会社,神奈川県,川崎市高津区,新作５丁目９番２－５０４号,,14,134,2130014,,,,,,,2023-02-02,1,,,,,リエート,0
106,1021001078106,新規,0,2023-02-02,2023-02-02,株式会社ＣｉＴＡＤＥＬ,,株式会社,神奈川県,鎌倉市,城廻７３１番地２２,,14,204,2470074,,,,,,,2023-02-02,1,,,,,シタデル,0
118,1030001152191,新規,0,2023-02-02,2023-02-02,株式会社Ｌｏｔｏｎｏ,,株式会社,埼玉県,さいたま市桜区,大字神田７５４番地２１,,11,106,3380812,,,,,,,2023-02-02,1,,,,,ロトノ,0
120,1030003021089,新規,0,2023-02-02,2023-02-02,合同会社ひかる６２６,,合同会社,埼玉県,上尾市,大字瓦葺１３９４番地１,,11,219,3620022,,,,,,,2023-02-02,1,,,,,ヒカルロクニロク,0
129,1040003021831,新規,0,2023-02-02,2023-02-02,Ａ．Ｒ．Ｍｏｔｏｒｓ合同会社,,合同会社,千葉県,山武市,松尾町借毛本郷２３００番地２,,12,237,2891537,,,,,,,2023-02-02,1,,,,,エイアールモータース,0
135,1050003007202,新規,0,2023-02-02,2023-02-02,ＤＩＮＡＲＡ　ＭＯＴＯＲＳ合同会社,,合同会社,茨城県,筑西市,海老ヶ島９４４－２リバティ１－１０１号室,,08,227,3004517,,,,,,,2023-02-02,1,,,,,ディナーラモーターズ,0
145,1080401026288,新規,0,2023-02-02,2023-02-02,株式会社ブルーグラス,,株式会社,静岡県,浜松市南区,米津町１１７１番地の２,,22,134,4328056,,,,,,,2023-02-02,1,,,,,ブルーグラス,0
162,1120001252156,新規,0,2023-02-02,2023-02-02,株式会社ＲＥＯＬ,,株式会社,大阪府,枚方市,楠葉中之芝２丁目２０番１４号,,27,210,5731101,,,,,,,2023-02-02,1,,,,,リオル,0
163,1120001252180,新規,0,2023-02-02,2023-02-02,似合株式会社,,株式会社,大阪府,大阪市生野区,小路東６丁目８番１７号昭和エクセルビュー東大阪１０３－Ｇ２７,,27,116,5440003,,,,,,,2023-02-02,1,,,,,ニアイ,0
164,1120001252239,新規,0,2023-02-02,2023-02-02,フォレストスタイル株式会社,,株式会社,大阪府,大阪市都島区,都島北通２丁目２４番１２号３０２号,,27,102,5340014,,,,,,,2023-02-02,1,,,,,フォレストスタイル,0
165,1120001252247,新規,0,2023-02-02,2023-02-02,株式会社つるはら工務店,,株式会社,大阪府,枚方市,茄子作１丁目１９番２２号,,27,210,5730071,,,,,,,2023-02-02,1,,,,,ツルハラコウムテン,0
166,1120001252255,新規,0,2023-02-02,2023-02-02,株式会社Ｇ＆Ｅジャパン,,株式会社,大阪府,守口市,桜町１－３０,,27,209,5700027,,,,,,,2023-02-02,1,,,,,ジーアンドイージャパン,0
171,1120003023340,新規,0,2023-02-02,2023-02-02,アドゥネット合同会社,,合同会社,大阪府,大阪市鶴見区,鶴見６丁目２番１‐１８０８号,,27,124,5380053,,,,,,,2023-02-02,1,,,,,アドゥネット,0
172,1120003023365,新規,0,2023-02-02,2023-02-02,合同会社ＭｉＭ,,合同会社,大阪府,大阪市住之江区,東加賀屋１丁目９番２６―６０６号,,27,125,5590012,,,,,,,2023-02-02,1,,,,,ミム,0
173,1120005023438,新規,0,2023-02-02,2023-02-02,一般社団法人高齢者雇用問題協議会,,その他の設立登記法人,大阪府,大阪市淀川区,西中島７丁目１４番３５号,,27,123,5320011,,,,,,,2023-02-02,1,,,,,コウレイシャコヨウモンダイキョウギカイ,0
183,1120905006418,新規,0,2023-02-02,2023-02-02,医療法人ｃｏｒｏ,,その他の設立登記法人,大阪府,吹田市,江坂町１丁目２１番３９号土泰第一ビル３０３号室,,27,205,5640063,,,,,,,2023-02-02,1,,,,,コロ,0
185,1122001036654,新規,0,2023-02-02,2023-02-02,株式会社トップミート,,株式会社,大阪府,東大阪市,菱江２丁目２番３１号,,27,227,5780984,,,,,,,2023-02-02,1,,,,,トップミート,0
188,1130001073618,新規,0,2023-02-02,2023-02-02,株式会社Ｌ．,,株式会社,京都府,相楽郡精華町,大字祝園小字砂子田８－２浦井Ｍビル１Ｆ中,,26,366,6190241,,,,,,,2023-02-02,1,,,,,エル,0
189,1130003008497,新規,0,2023-02-02,2023-02-02,合同会社ＳＭＫ,,合同会社,京都府,京都市北区,西賀茂円峰２番５０,,26,101,6038806,,,,,,,2023-02-02,1,,,,,エスエムケー,0
193,1150001026144,新規,0,2023-02-02,2023-02-02,株式会社奥寅石商,,株式会社,奈良県,葛城市,北道穗７番地５,,29,211,6392142,,,,,,,2023-02-02,1,,,,,オクトラセキショウ,0
194,1160005011158,新規,0,2023-02-02,2023-02-02,一般社団法人Ｓｔｕｄｉｏ　Ｂｉｗａｋｏ,,その他の設立登記法人,滋賀県,大津市,におの浜２丁目１番１－１６０１号,,25,201,5200801,,,,,,,2023-02-02,1,,,,,スタジオビワコ,0
195,1170001017463,新規,0,2023-02-02,2023-02-02,株式会社アルテリーヴォ和歌山,,株式会社,和歌山県,和歌山市,松江中３丁目２番２０号,,30,201,6408423,,,,,,,2023-02-02,1,,,,,アルテリーボワカヤマ,0
205,1180001154842,新規,0,2023-02-02,2023-02-02,株式会社Ｙ’ｓ,,株式会社,愛知県,名古屋市緑区,鳴海町字三王山１７番地の１ラフォーレ三王山１１０２号,,23,114,4580801,,,,,,,2023-02-02,1,,,,,ワイズ,0
207,1180301037045,新規,0,2023-02-02,2023-02-02,株式会社ＧＬＯＷ,,株式会社,愛知県,豊橋市,三ツ相町２０３番地２,,23,201,4418008,,,,,,,2023-02-02,1,,,,,グロー,0
213,1200003005826,新規,0,2023-02-02,2023-02-02,合同会社花杜の里,,合同会社,岐阜県,本巣市,根尾市場１２７番地有限会社住吉屋内,,21,218,5011521,,,,,,,2023-02-02,1,,,,,ハナモリノサト,0
222,1240003006003,新規,0,2023-02-02,2023-02-02,合同会社ライフワークサポート,,合同会社,広島県,広島市安佐北区,深川２丁目１０番６－６号,,34,106,7391751,,,,,,,2023-02-02,1,,,,,ライフワークサポート,0
225,1260001037618,新規,0,2023-02-02,2023-02-02,株式会社瀬戸内観光,,株式会社,岡山県,岡山市中区,江崎１１番地８,,33,102,7028005,,,,,,,2023-02-02,1,,,,,セトウチカンコウ,0
226,1260001037626,新規,0,2023-02-02,2023-02-02,株式会社ナインツリーズ,,株式会社,岡山県,赤磐市,桜が丘東１丁目１番地８２０,,33,213,7090721,,,,,,,2023-02-02,1,,,,,ナインツリーズ,0
229,1260003004186,新規,0,2023-02-02,2023-02-02,合同会社Ｓ坂本,,合同会社,岡山県,倉敷市,羽島７４６番地７,,33,202,7100043,,,,,,,2023-02-02,1,,,,,エスサカモト,0
230,1260005011189,新規,0,2023-02-02,2023-02-02,一般財団法人倉敷市勤労者福祉サービスセンター,,その他の設立登記法人,岡山県,倉敷市,稲荷町５番３８号,,33,202,7100822,,,,,,,2023-02-02,1,,,,,クラシキシキンロウシャフクシサービスセンター,0
234,1280003001693,新規,0,2023-02-02,2023-02-02,合同会社セイカツ,,合同会社,島根県,松江市,国屋町３３１番地６,,32,201,6900859,,,,,,,2023-02-02,1,,,,,セイカツ,0
236,1290001100422,新規,0,2023-02-02,2023-02-02,株式会社ＳＫＲ,,株式会社,福岡県,糸島市,志摩師吉２７０番地１２,,40,230,8191314,,,,,,,2023-02-02,1,,,,,エスケイアール,0
237,1290001100439,新規,0,2023-02-02,2023-02-02,株式会社プロフィットホールディングス,,株式会社,福岡県,福岡市博多区,吉塚４丁目１０番４６号,,40,132,8120041,,,,,,,2023-02-02,1,,,,,プロフィットホールディングス,0
238,1290001100447,新規,0,2023-02-02,2023-02-02,Ｎ‐ｓｔｙｌｅ株式会社,,株式会社,福岡県,福岡市早良区,有田５丁目２６番２５号,,40,137,8140033,,,,,,,2023-02-02,1,,,,,エヌスタイル,0
239,1290001100471,新規,0,2023-02-02,2023-02-02,株式会社ナリキ,,株式会社,福岡県,大野城市,つつじケ丘２丁目２０番８号,,40,219,8160962,,,,,,,2023-02-02,1,,,,,ナリキ,0
243,1290803004333,新規,0,2023-02-02,2023-02-02,フクライ合同会社,,合同会社,福岡県,北九州市小倉北区,砂津２丁目５番１７－２０１号,,40,106,8020014,,,,,,,2023-02-02,1,,,,,フクライ,0
251,1320002016250,新規,0,2023-02-02,2023-02-02,岐部三村開発有限会社,,有限会社,大分県,国東市,国見町岐部３６８８番地,,44,214,8721614,,,,,,,2023-02-02,1,,,,,,0
254,1330001030565,新規,0,2023-02-02,2023-02-02,Ｃｕｅ‐Ｔｅｃｈｎｏｌｏｇｉｅｓ　Ｊａｐａｎ株式会社,,株式会社,熊本県,荒尾市,大平町２丁目５１番３号,,43,204,8640005,,,,,,,2023-02-02,1,,,,,キューテクノロジーズジャパン,0
257,1340001025341,新規,0,2023-02-02,2023-02-02,ＧＢＵ株式会社,,株式会社,鹿児島県,鹿児島市,薬師１丁目６番８－８０７号,,46,201,8900042,,,,,,,2023-02-02,1,,,,,ジービーユー,0
259,1340003004038,新規,0,2023-02-02,2023-02-02,合同会社トルアス,,合同会社,鹿児島県,鹿児島市,西伊敷２丁目１１番１４－１号,,46,201,8900002,,,,,,,2023-02-02,1,,,,,トルアス,0
261,1350001018170,新規,0,2023-02-02,2023-02-02,アステック株式会社,,株式会社,宮崎県,宮崎市,神宮１丁目３０８番地,,45,201,8800053,,,,,,,2023-02-02,1,,,,,アステック,0
262,1350003004284,新規,0,2023-02-02,2023-02-02,合同会社Ｍ‐ＤＥＮ,,合同会社,宮崎県,宮崎市,大字本郷南方４４６０番地１スカイスター南宮Ｂ棟１０３号,,45,201,8800921,,,,,,,2023-02-02,1,,,,,エムデン,0
264,1360001031503,新規,0,2023-02-02,2023-02-02,株式会社ＲＥＤＧＥ,,株式会社,沖縄県,那覇市,字天久１１３１－９,,47,201,9000005,,,,,,,2023-02-02,1,,,,,レッジ,0
270,1370001049560,新規,0,2023-02-02,2023-02-02,株式会社トリプルビー,,株式会社,宮城県,仙台市青葉区,本町１丁目４番８－４０１号,,04,101,9800014,,,,,,,2023-02-02,1,,,,,トリプルビー,0
271,1370001049569,新規,0,2023-02-02,2023-02-02,株式会社ＹＯＬＯ,,株式会社,宮城県,仙台市泉区,明石南５丁目３番地１４号,,04,105,9813101,,,,,,,2023-02-02,1,,,,,ヨーロー,0
273,1370003005966,新規,0,2023-02-02,2023-02-02,合同会社Ｒ‐ＣＲＥＡＴＩＯＮＳ,,合同会社,宮城県,大崎市,古川福浦１丁目２１番６０号プラシード福浦Ｄ１０３号,,04,215,9896101,,,,,,,2023-02-02,1,,,,,アールクリエイションズ,0
279,1380005012670,新規,0,2023-02-02,2023-02-02,特定非営利活動法人学童保育すばる森合,,その他の設立登記法人,福島県,福島市,森合字中谷地１９番地の６,,07,201,9608003,,,,,,,2023-02-02,1,,,,,ガクドウホイクスバルモリアイ,0
280,1390003002045,新規,0,2023-02-02,2023-02-02,ｉ‐Ａｆｆｅｃｔ合同会社,,合同会社,山形県,鶴岡市,羽黒町町屋字六所８７番地２,,06,203,9970101,,,,,,,2023-02-02,1,,,,,アイアフェクト,0
287,1420001018147,新規,0,2023-02-02,2023-02-02,株式会社一誠,,株式会社,青森県,青森市,大字三内字丸山１４３番地４１,,02,201,0380031,,,,,,,2023-02-02,1,,,,,イッセイ,0
288,1430001088346,新規,0,2023-02-02,2023-02-02,株式会社Ｙｓワークス,,株式会社,北海道,北広島市,朝日町６丁目４－１０,,01,234,0611123,,,,,,,2023-02-02,1,,,,,ワイズワークス,0
292,1460101007327,新規,0,2023-02-02,2023-02-02,株式会社東匠工業,,株式会社,北海道,帯広市,西十八条南３丁目４１番１１号,,01,207,0800028,,,,,,,2023-02-02,1,,,,,トウショウコウギョウ,0
293,1470001019446,新規,0,2023-02-02,2023-02-02,株式会社オーシャン・プラス,,株式会社,香川県,東かがわ市,川東７６２番地４,,37,207,7692602,,,,,,,2023-02-02,1,,,,,オーシャンプラス,0
300,1490003001739,新規,0,2023-02-02,2023-02-02,合同会社島崎建物サービス,00129307,合同会社,高知県,南国市,駅前町３丁目３番２２号,,39,204,7830002,,,,,,,2023-02-02,1,,,,,シマサキタテモノサービス,0
305,1700150107696,新規,0,2023-02-02,2022-04-05,笑太夢マジック,,その他,神奈川県,横浜市神奈川区,浦島町５－１６－６０８,,14,102,2210042,,,,,,,2022-04-05,1,,,,,シヨウタイムマジツク,0
306,1700150113819,新規,0,2023-02-02,2023-01-18,いこいの杜,,その他,兵庫県,豊岡市,但東町久畑９５４－１,,28,209,6680373,,,,,,,2023-01-18,1,,,,,イコイノモリ,0
307,1700150114098,新規,0,2023-02-02,2023-02-02,ｓｈｅｎｚｈｅｎｓｈｉｓａｎｑｉｌｉａｎｈｅｓｈａｎｇｍａｏｙｏｕｘｉａｎｇｏｎｇｓｉ,,外国会社等,,,,,,,,ｂａｏａｎｑｕｘｉｘｉａｎｇｊｉｅｄａｏｇｏｎｇｌｅｓｈｅｑｕｇｏｎｇｈｅｇｏｎｇｙｅｌｕｍｉｎｇｙｕｅｈｕａｄｕＣ３－，ｓｈｅｎｚｈｅｎｓｈｉ，ｇｕａｎｇｄｏｎｇｓｈｅｎｇ，Ｃｈｉｎａ,,,,,,2023-02-02,1,,,,,シンセンシサンチショウボウユウゲンコウシ,0
308,1700150114107,新規,0,2023-02-02,2023-02-02,ｑｕａｎｚｈｏｕｑｉｎｇｊｉｎｄｉａｎｚｉｓｈａｎｇｗｕｙｏｕｘｉａｎｇｏｎｇｓｉ,,外国会社等,,,,,,,,ｆｅｎｇｚｅｑｕｄｏｎｇｈａｉｊｉｅｄａｏｂｉｎｃｈｅｎｇｓｈｅｑｕｘｉａｎｇｂｉｎｊｉｅ１８ｈａｏ，ｄｏｎｇｈａｉｋｕａｊｉｎｇｄｉａｎｓｈａｎｇｓｈｅｎｇｔａｉ９ｈａｏｌｏｕ５ｃｅｎｇ５０２，ｑｕａｎｚｈｏｕｓｈｉ，Ｆｕｊｉａｎｓｈｅｎｇ，Ｃｈｉｎａ,,,,,,2023-02-02,1,,,,,センシュウセイキンデンシショウムユウゲンコウシ,0
309,1700150114115,新規,0,2023-02-02,2023-02-02,Ｎａｎｊｉｎｇ　Ｔｉａｎｙｕａｎ　Ｎｅｔｗｏｒｋ　Ｔｅｃｈｎｏｌｏｇｙ　Ｃｏ．，Ｌｔｄ．,,外国会社等,,,,,,,,ｄｏｎｇｘｉｎｎａｎｌｕ　１５ｈａｏ　１－１０２ｓｈｉ，ｎａｎｊｉｎｇ，ｊｉａｎｇｓｕ，Ｃｈｉｎａ,,,,,,2023-02-02,1,,,,,ナンキンテンエンモウラクカギ,0
310,1700150114131,新規,0,2023-02-02,2023-02-02,深セン市欣路導科技有限公司,,外国会社等,,,,,,,,中国深セン市龍崗区坂田街道崗頭社区天安雲谷産業園一期３棟ＡＢＣＤ座Ｂ２２０４,,,,,,2023-02-02,1,,,,,シンセンシキンロドウカギユウゲンコウシ,0
311,1700150114148,新規,0,2023-02-02,2023-02-02,Ｃｈａｎｇｓｈａ　ＨｅｎｇＣｈｅｎｇＹｉＹｕａｎ　ＫｅＪｉＹｏｕＸｉａｎＧｏｎｇＳｉ,,外国会社等,,,,,,,,Ｙｉｎｇｐｅｎｇｌｉｎｇｊｉｅｄａｏ，Ｙｕｅｌｕｄａｄａｏ１５８ｈａｏ，Ｓｈｅｎｇｄａｚｅｘｉｃｈｅｎｇ，５ｄｏｎｇ１０１２，１０１３Ｆａｎｇ（Ｊｉ　Ｑｕｎ　Ｚｈｕ　Ｃｅ），Ｃｈａｎｇｓｈａｓｈｉ，Ｙｕｅｌｕｑｕ，Ｈｕｎａｎｓｈｅｎｇ，Ｃｈｉｎａ,,,,,,2023-02-02,1,,,,,チャンシャヘンチェンイユアンケジユウゲンコウシ,0
312,1700150114164,新規,0,2023-02-02,2023-02-02,Ｑｉｎｇｙｕａｎ　ＩＢｏｓｓ　Ｓｍａｒｔ　Ｔｅｃｈｎｏｌｏｇｙ　Ｃｏ．，Ｌｔｄ．,,外国会社等,,,,,,,,ｃｈｕａｎｇ　ｙｅ　ｙｉ　ｌｕ　６　ｈａｏ　ｈｕａ　ｎａｎ　８６３　ｋｅ　ｊｉ　ｃｈｕａｎｇ　ｘｉｎ　ｙｕａｎ　Ａ２　ｄｏｎｇ　７　ｃｅｎｇ　７０３　Ｑｉｎｇ　ｙｕａｎ　ｓｈｉ　Ｑｉｎｇ　ｃｈｅｎｇ　ｑｕ　Ｇｕａｎｇｄｏｎｇ　ＣＮ,,,,,,2023-02-02,1,,,,,キンギャンイボススマートテクノロジーカンパニーリミテッド,0
318,2010001232597,新規,0,2023-02-02,2023-02-02,株式会社Ｃｏ　Ｗｏｒｋｓ,,株式会社,東京都,千代田区,六番町１５番地２,,13,101,1020085,,,,,,,2023-02-02,1,,,,,コワークス,0
319,2010003039470,新規,0,2023-02-02,2023-02-02,Ｏｌｄ　Ｇｒｅａｔ　Ｔｒｅｅ合同会社,,合同会社,東京都,文京区,小石川１丁目３－２３,,13,105,1120002,,,,,,,2023-02-02,1,,,,,オールドグレートトゥリー,0
322,2010401172204,新規,0,2023-02-02,2023-02-02,株式会社ＨＨＫ,,株式会社,東京都,港区,浜松町１丁目１５番９号１０１,,13,103,1050013,,,,,,,2023-02-02,1,,,,,エイチエイチケー,0
323,2010401172212,新規,0,2023-02-02,2023-02-02,ウェイブ準備株式会社,,株式会社,東京都,港区,六本木７丁目１２番２号Ｒ７ビルディング六本木,,13,103,1060032,,,,,,,2023-02-02,1,,,,,ウェイブジュンビ,0
324,2010401172245,新規,0,2023-02-02,2023-02-02,ＭＣＨ　Ｇｒｏｕｐ　Ｊａｐａｎ株式会社,,株式会社,東京都,港区,東麻布１丁目２３番５号ＰＭＣビル２Ｆ,,13,103,1060044,,,,,,,2023-02-02,1,,,,,エムシーエイチグループジャパン,0
327,2010403029435,新規,0,2023-02-02,2023-02-02,合同会社ｙｏｒｕｂｅ,,合同会社,東京都,港区,麻布十番２丁目２１－１４－５０５,,13,103,1060045,,,,,,,2023-02-02,1,,,,,ヨルベ,0
329,2010501049954,新規,0,2023-02-02,2023-02-02,ＡＳＬＯＮＧ株式会社,,株式会社,東京都,台東区,下谷３丁目１番２４号,,13,106,1100004,,,,,,,2023-02-02,1,,,,,アスロング,0
330,2010501049962,新規,0,2023-02-02,2023-02-02,株式会社ＯＮＥ　ＢＥＡＴ,,株式会社,東京都,台東区,小島２丁目２０－１１ＬＩＧビル,,13,106,1110056,,,,,,,2023-02-02,1,,,,,ワンビート,0
334,2010701043798,新規,0,2023-02-02,2023-02-02,株式会社ＫＮＮ,,株式会社,東京都,品川区,西五反田３丁目９番１８号,,13,109,1410031,,,,,,,2023-02-02,1,,,,,ケーエヌエヌ,0
341,2010901052459,新規,0,2023-02-02,2023-02-02,ＮＫ　ＣＲＥＡＴＩＯＮ株式会社,,株式会社,東京都,世田谷区,上馬３丁目７番８号,,13,112,1540011,,,,,,,2023-02-02,1,,,,,エヌケイクリエイション,0
350,2011003016220,新規,0,2023-02-02,2023-02-02,合同会社ＯＮＥＢＲＩＩＩＤＧＥ,,合同会社,東京都,渋谷区,神宮前６丁目２３番４号桑野ビル２階,,13,113,1500001,,,,,,,2023-02-02,1,,,,,ワンブリッジ,0
355,2011101101709,新規,0,2023-02-02,2023-02-02,アンゲリオン株式会社,,株式会社,東京都,新宿区,歌舞伎町２丁目２５番８号－１１１,,13,104,1600021,,,,,,,2023-02-02,1,,,,,アンゲリオン,0
361,2011201024396,新規,0,2023-02-02,2023-02-02,株式会社ＭＥＩＧＨＴ,,株式会社,東京都,中野区,南台５丁目１４番３号,,13,114,1640014,,,,,,,2023-02-02,1,,,,,メイト,0
362,2011401024873,新規,0,2023-02-02,2023-02-02,新洋海運通商株式会社,,株式会社,東京都,板橋区,大山金井町５６番１１－７０１号,,13,119,1730024,,,,,,,2023-02-02,1,,,,,シンヨウカイウンツウショウ,0
363,2011505002528,新規,0,2023-02-02,2023-02-02,一般社団法人朗詠鳴鳳十華の会,,その他の設立登記法人,東京都,荒川区,東日暮里２丁目２０番８号,,13,118,1160014,,,,,,,2023-02-02,1,,,,,ロウエイメイホウトウカノカイ,0
368,2011801041857,新規,0,2023-02-02,2023-02-02,株式会社創合,,株式会社,東京都,足立区,東和２丁目１３番１５号,,13,121,1200003,,,,,,,2023-02-02,1,,,,,ソウゴウ,0
369,2011801041873,新規,0,2023-02-02,2023-02-02,ＮｅｗＩｎｆｏ株式会社,,株式会社,東京都,葛飾区,新宿６丁目２番１－１１０１シティタワー金町レジデンス棟,,13,122,1250051,,,,,,,2023-02-02,1,,,,,ニューインフォ,0
376,2012803002995,新規,0,2023-02-02,2023-02-02,ＮＳＣ企画合同会社,,合同会社,東京都,東大和市,立野１丁目２９番地の３,,13,220,2070021,,,,,,,2023-02-02,1,,,,,エヌエスシーキカク,0
381,2020001150055,新規,0,2023-02-02,2023-02-02,豊盛株式会社,,株式会社,神奈川県,横浜市南区,万世町２丁目２８ライオンズマンション万世町１階,,14,105,2320032,,,,,,,2023-02-02,1,,,,,ホウセイ,0
382,2020001150105,新規,0,2023-02-02,2023-02-02,株式会社ヴィエント,,株式会社,神奈川県,横浜市旭区,善部町３７番地１３６,,14,112,2410823,,,,,,,2023-02-02,1,,,,,ヴィエント,0
384,2021001078088,新規,0,2023-02-02,2023-02-02,株式会社言霊堂,,株式会社,神奈川県,平塚市,龍城ケ丘６番６－３０１号リブリ平塚,,14,203,2540814,,,,,,,2023-02-02,1,,,,,コトダマドウ,0
408,2040001126870,新規,0,2023-02-02,2023-02-02,ワイズホーム株式会社,,株式会社,千葉県,君津市,中野５丁目２番１０号,,12,225,2991151,,,,,,,2023-02-02,1,,,,,ワイズホーム,0
409,2040001126887,新規,0,2023-02-02,2023-02-02,ダイチメタルワークス株式会社,,株式会社,千葉県,印西市,木下東３丁目１４番地１３,,12,231,2701323,,,,,,,2023-02-02,1,,,,,ダイチメタルワークス,0
418,2040003021822,新規,0,2023-02-02,2023-02-02,合同会社水尾,,合同会社,千葉県,柏市,若柴１７８番地４柏の葉キャンパス１４８街区２ショップ＆オフィス棟６Ｆ,,12,217,2770871,,,,,,,2023-02-02,1,,,,,ミズオ,0
421,2050001052315,新規,0,2023-02-02,2023-02-02,株式会社ＡＱＣ,,株式会社,茨城県,坂東市,岩井２２３８番地２０アンジュ岩井２０４,,08,228,3060631,,,,,,,2023-02-02,1,,,,,エーキューシー,0
422,2050001052323,新規,0,2023-02-02,2023-02-02,株式会社ＳＴＣ,,株式会社,茨城県,小美玉市,中延２２６０番地１５,,08,236,3113422,,,,,,,2023-02-02,1,,,,,エスティーシー,0
424,2070001040086,新規,0,2023-02-02,2023-02-02,ミナテック株式会社,,株式会社,群馬県,前橋市,日吉町２丁目３１番地３,,10,201,3710017,,,,,,,2023-02-02,1,,,,,ミナテック,0
425,2080101023774,新規,0,2023-02-02,2023-02-02,株式会社貰賃,,株式会社,静岡県,沼津市,大岡３２９４番地１－１０１,,22,203,4100022,,,,,,,2023-02-02,1,,,,,モラチン,0
427,2080103002735,新規,0,2023-02-02,2023-02-02,合同会社工房ヤマダ,,合同会社,静岡県,裾野市,富沢４０４番地の１２,,22,220,4101125,,,,,,,2023-02-02,1,,,,,コウボウヤマダ,0
429,2080401026295,新規,0,2023-02-02,2023-02-02,株式会社村橋電気,,株式会社,静岡県,浜松市東区,神立町５７７番地,,22,132,4300801,,,,,,,2023-02-02,1,,,,,ムラハシデンキ,0
433,2100001036114,新規,0,2023-02-02,2023-02-02,あおばパートナーズ株式会社,,株式会社,長野県,長野市,大字中御所岡田町３番地２,,20,201,3800936,,,,,,,2023-02-02,1,,,,,アオバパートナーズ,0
441,2110001037268,新規,0,2023-02-02,2023-02-02,株式会社加島屋酒販,,株式会社,新潟県,新潟市西蒲区,越前浜５３５４番地,,15,108,9530012,,,,,,,2023-02-02,1,,,,,カシマヤシュハン,0
456,2120001252155,新規,0,2023-02-02,2023-02-02,株式会社ビリーヴ,,株式会社,大阪府,大阪市淀川区,塚本３丁目４番１号,,27,123,5320026,,,,,,,2023-02-02,1,,,,,ビリーヴ,0
457,2120001252163,新規,0,2023-02-02,2023-02-02,神建興業株式会社,,株式会社,大阪府,大阪市東淀川区,北江口４丁目３番３６号,,27,114,5330002,,,,,,,2023-02-02,1,,,,,カミケンコウギョウ,0
458,2120001252171,新規,0,2023-02-02,2023-02-02,株式会社Ｔｅａｃｈ,,株式会社,大阪府,大阪市中央区,谷町３丁目４番５号,,27,128,5400012,,,,,,,2023-02-02,1,,,,,ティーチ,0
459,2120001252196,新規,0,2023-02-02,2023-02-02,有誠リアルティ・ハウスマネジメント株式会社,,株式会社,大阪府,大阪市東淀川区,豊新４丁目２１番２４－３０１号,,27,114,5330014,,,,,,,2023-02-02,1,,,,,ユウセイリアルティハウスマネジメント,0
460,2120001252221,新規,0,2023-02-02,2023-02-02,大和財託レジデンシャル株式会社,,株式会社,大阪府,大阪市北区,大深町３番１号,,27,127,5300011,,,,,,,2023-02-02,1,,,,,ヤマトザイタクレジデンシャル,0
461,2120001252238,新規,0,2023-02-02,2023-02-02,株式会社ケーエスケー,,株式会社,大阪府,大阪市生野区,巽南５丁目７番４４号,00129294,27,116,5440015,,,,,,,2023-02-02,1,,,,,ケーエスケー,0
462,2120001252254,新規,0,2023-02-02,2023-02-02,株式会社ダイヤテクノ,,株式会社,大阪府,大阪市住吉区,清水丘３丁目１４番２７号,,27,120,5580033,,,,,,,2023-02-02,1,,,,,ダイヤテクノ,0
463,2120001252262,新規,0,2023-02-02,2023-02-02,株式会社ヘルプフル,,株式会社,大阪府,大阪市城東区,今福東３丁目１５番２２－８０４号,,27,118,5360002,,,,,,,2023-02-02,1,,,,,ヘルプフル,0
464,2120001252270,新規,0,2023-02-02,2023-02-02,株式会社Ｒ．Ｋ,,株式会社,大阪府,大阪市西区,西本町１丁目２番４号,,27,106,5500005,,,,,,,2023-02-02,1,,,,,アールケー,0
465,2120001252279,新規,0,2023-02-02,2023-02-02,株式会社Ａｏｉ,,株式会社,大阪府,枚方市,船橋本町１丁目７０３番地の２５,,27,210,5731116,,,,,,,2023-02-02,1,,,,,アオイ,0
470,2120103005064,新規,0,2023-02-02,2023-02-02,合同会社ｓｏｌｌｉｅｖｏ,,合同会社,大阪府,泉南郡熊取町,つばさが丘北２丁目２０番１５号,,27,361,5900444,,,,,,,2023-02-02,1,,,,,ソリエィヴォ,0
473,2120901047068,新規,0,2023-02-02,2023-02-02,光山工業株式会社,,株式会社,大阪府,摂津市,鳥飼新町１丁目９番１号,,27,224,5660065,,,,,,,2023-02-02,1,,,,,ミツヤマコウギョウ,0
478,2122001036629,新規,0,2023-02-02,2023-02-02,蔚亮株式会社,,株式会社,大阪府,東大阪市,高井田１番１０号２０５号室,,27,227,5770053,,,,,,,2023-02-02,1,,,,,イリャン,0
487,2130001073591,新規,0,2023-02-02,2023-02-02,株式会社Ｎｅｘｔ　Ｓｔｅｐ,,株式会社,京都府,長岡京市,奥海印寺谷田３７番地１９,,26,209,6170853,,,,,,,2023-02-02,1,,,,,ネクストステップ,0
488,2130003008505,新規,0,2023-02-02,2023-02-02,合同会社戎組機設,,合同会社,京都府,京都市山科区,小山小川町２８番地１０シュエット小川２０３,,26,110,6078107,,,,,,,2023-02-02,1,,,,,ヱビスグミキセツ,0
489,2130005016687,新規,0,2023-02-02,2023-02-02,医療法人健眞会,,その他の設立登記法人,京都府,京都市伏見区,深草出羽屋敷町２３番地６カナートモール伏見２階,,26,109,6120088,,,,,,,2023-02-02,1,,,,,ケンシンカイ,0
495,2140003018651,新規,0,2023-02-02,2023-02-02,合同会社タッカー姫路,,合同会社,兵庫県,姫路市,四郷町坂元２２１番地１０,,28,201,6710246,,,,,,,2023-02-02,1,,,,,タッカーヒメジ,0
497,2150001026135,新規,0,2023-02-02,2023-02-02,株式会社プロジェクトＯＮ,,株式会社,奈良県,奈良市,佐保台１丁目３５７１－２００,,29,201,6308105,,,,,,,2023-02-02,1,,,,,プロジェクトオン,0
499,2170001017462,新規,0,2023-02-02,2023-02-02,株式会社Ｆｅｒｎｗｅｈ,,株式会社,和歌山県,岩出市,川尻１４番地の１フォレストボックスＩ２－６,00129304,30,209,6496231,,,,,,,2023-02-02,1,,,,,フェアンヴェー,0
509,2180001154750,新規,0,2023-02-02,2023-02-02,ｑｕｉｎｘ株式会社,,株式会社,愛知県,名古屋市中村区,烏森町７丁目１８５番地,,23,105,4530855,,,,,,,2023-02-02,1,,,,,クインクス,0
510,2180001154775,新規,0,2023-02-02,2023-02-02,株式会社ＲＯＵＴＥ,,株式会社,愛知県,名古屋市中区,千代田２丁目１８番７号ライオンズマンション鶴舞２‐１４号,,23,106,4600012,,,,,,,2023-02-02,1,,,,,ルート,0
511,2180001154783,新規,0,2023-02-02,2023-02-02,日本卓佳株式会社,,株式会社,愛知県,名古屋市中村区,稲西町７２番地,,23,105,4530849,,,,,,,2023-02-02,1,,,,,ニホンタクカ,0
513,2180003024794,新規,0,2023-02-02,2023-02-02,合同会社フレンドシップ,,合同会社,愛知県,名古屋市熱田区,三本松町１８番１３号,,23,109,4560032,,,,,,,2023-02-02,1,,,,,フレンドシップ,0
518,2200001040915,新規,0,2023-02-02,2023-02-02,蕾蕾株式会社,,株式会社,岐阜県,下呂市,金山町金山字長洞２８７２番地２－Ａ室,,21,220,5091622,,,,,,,2023-02-02,1,,,,,レイレイ,0
519,2200001040923,新規,0,2023-02-02,2023-02-02,株式会社ＡＩＧＯ,,株式会社,岐阜県,揖斐郡揖斐川町,長良４８番地,,21,401,5010614,,,,,,,2023-02-02,1,,,,,アイゴ,0
520,2200001040931,新規,0,2023-02-02,2023-02-02,株式会社Ｈｉ‐Ｃｏｎｃｅｐｔ,,株式会社,岐阜県,多治見市,平井町４丁目６４番地の１,,21,204,5070058,,,,,,,2023-02-02,1,,,,,ハイコンセプト,0
522,2210001019223,新規,0,2023-02-02,2023-02-02,株式会社ＢＯＮＤ,,株式会社,福井県,鯖江市,下河端町２３１２番地,,18,207,9160038,,,,,,,2023-02-02,1,,,,,ボンド,0
524,2210003001609,新規,0,2023-02-02,2023-02-02,合同会社青昌,,合同会社,福井県,鯖江市,東鯖江２丁目９番２０号,,18,207,9160041,,,,,,,2023-02-02,1,,,,,アオマサ,0
525,2220001025253,新規,0,2023-02-02,2023-02-02,北川農産株式会社,,株式会社,石川県,金沢市,戸水１丁目１５３番地,,17,201,9208204,,,,,,,2023-02-02,1,,,,,キタガワノウサン,0
535,2260001037625,新規,0,2023-02-02,2023-02-02,倉敷保険事務所株式会社,,株式会社,岡山県,倉敷市,白楽町２２１番地６,,33,202,7100824,,,,,,,2023-02-02,1,,,,,クラシキホケンジムショ,0
536,2260001037633,新規,0,2023-02-02,2023-02-02,株式会社ＥＳＫＥＮ,,株式会社,岡山県,倉敷市,福田町福田２３３９番地４,,33,202,7128041,,,,,,,2023-02-02,1,,,,,エスケン,0
540,2260003004185,新規,0,2023-02-02,2023-02-02,合同会社四季美,,合同会社,岡山県,津山市,川崎１３４１番地,,33,203,7080841,,,,,,,2023-02-02,1,,,,,シキビ,0
544,2290001100462,新規,0,2023-02-02,2023-02-02,株式会社そんぽサポート,,株式会社,福岡県,福岡市博多区,東比恵２丁目７番１８号,,40,132,8120007,,,,,,,2023-02-02,1,,,,,ソンポサポート,0
546,2290003013489,新規,0,2023-02-02,2023-02-02,ＧＣ合同会社,,合同会社,福岡県,福岡市博多区,博多駅前２丁目１番１号,,40,132,8120011,,,,,,,2023-02-02,1,,,,,ジーシー,0
547,2290005018940,新規,0,2023-02-02,2023-02-02,医療法人健和会,,その他の設立登記法人,福岡県,福岡市早良区,田村５丁目１６番３８号,,40,137,8140175,,,,,,,2023-02-02,1,,,,,ケンワカイ,0
550,2310003004510,新規,0,2023-02-02,2023-02-02,合同会社Ｉ．Ｈ．Ｓ,,合同会社,長崎県,佐世保市,日宇町２８９３番地１０セジュール秋桜１０１号,,42,202,8571151,,,,,,,2023-02-02,1,,,,,アイエイチエス,0
555,2330001030548,新規,0,2023-02-02,2023-02-02,株式会社ＯＫＩＴＡ,,株式会社,熊本県,宇城市,松橋町久具３２８番地１,,43,213,8690532,,,,,,,2023-02-02,1,,,,,オキタ,0
556,2330001030564,新規,0,2023-02-02,2023-02-02,株式会社よもぎ動物病院,,株式会社,熊本県,熊本市北区,四方寄町１６３１番地１,,43,105,8615515,,,,,,,2023-02-02,1,,,,,ヨモギドウブツビョウイン,0
557,2330003009706,新規,0,2023-02-02,2023-02-02,合同会社アンド・クリエイト,,合同会社,熊本県,熊本市東区,長嶺東４丁目６番５７号,,43,102,8618038,,,,,,,2023-02-02,1,,,,,アンドクリエイト,0
569,2390002007465,新規,0,2023-02-02,2023-02-02,有限会社庄内パッケージ,,有限会社,山形県,酒田市,広野字福岡４８０番地の１０,,06,204,9980125,,,,,,,2023-02-02,1,,,,,ショウナイパッケージ,0
571,2400001016151,新規,0,2023-02-02,2023-02-02,エスケーサービス株式会社,,株式会社,岩手県,盛岡市,中央通２丁目７番１９号１階,,03,201,0200021,,,,,,,2023-02-02,1,,,,,エスケーサービス,0
575,2430003014695,新規,0,2023-02-02,2023-02-02,合同会社ＫＣ,,合同会社,北海道,札幌市清田区,清田八条２丁目７番１９号,,01,110,0040848,,,,,,,2023-02-02,1,,,,,ケーシー,0
577,2450001013895,新規,0,2023-02-02,2023-02-02,株式会社ＯＴＯ　Ｃｒｅａｔｅ．,,株式会社,北海道,旭川市,七条通８丁目３９番地１６スペースハルニレ２階,,01,204,0700037,,,,,,,2023-02-02,1,,,,,オトクリエイト,0
580,2470001019445,新規,0,2023-02-02,2023-02-02,株式会社猫又,,株式会社,香川県,高松市,屋島西町２４８６番地１　２階,,37,201,7610113,,,,,,,2023-02-02,1,,,,,ネコマタ,0
581,2470001019453,新規,0,2023-02-02,2023-02-02,株式会社ナンバー,,株式会社,香川県,高松市,寿町２丁目４番１１号ＧＴＳビル３０２,,37,201,7600023,,,,,,,2023-02-02,1,,,,,ナンバー,0
586,2490001010393,新規,0,2023-02-02,2023-02-02,株式会社ライブ,,株式会社,高知県,高知市,愛宕山７番２６号,,39,201,7800025,,,,,,,2023-02-02,1,,,,,ライブ,0
587,2490003001738,新規,0,2023-02-02,2023-02-02,合同会社スマイルフォーチュン,,合同会社,高知県,須崎市,妙見町９番２０号,,39,206,7850042,,,,,,,2023-02-02,1,,,,,スマイルフォーチュン,0
588,2500001024747,新規,0,2023-02-02,2023-02-02,トータルセキュリティ株式会社,,株式会社,愛媛県,松山市,安城寺町１２９０番地２,,38,201,7918006,,,,,,,2023-02-02,1,,,,,トータルセキュリティ,0
589,2700150114097,新規,0,2023-02-02,2023-02-02,Ｓｈｅｎｚｈｅｎ　ＸｉａｏｈａｉＯｒａｎｇｅ　Ｃｒｏｓｓ－ｂｏａｄｅｒ　Ｅｌｅｃｔｒｏｎｉｃ　Ｃｏ,,外国会社等,,,,,,,,Ｂｕｉｌｄｉｎｇ　９０３，Ｓｈｅｎｙｅ　Ｃｅｎｔｕｒｙ　Ｉｎｄｕｓｔｒｉａｌ　Ｃｅｎｔｅｒ　７４３　Ｈｅｚｈｏｕ　Ｃｏｍｍｕｎｉｔｙ　Ｉｓｌａｎｄ　Ｒｏａｄ，Ｈａｎｇｃｈｅｎｇ　Ｓｔｒｅｅｔ　Ｓｈｅｎｚｈｅｎ　ｇｕａｎｇｄｏｎｇ，Ｃｈｉｎａ,,,,,,2023-02-02,1,,,,,シンセンショウハイテイクロスボーダーイレクトニクユウゲンコウシ,0
590,2700150114106,新規,0,2023-02-02,2023-02-02,ＰＵＬＩ　ＧＵＡＮＧＺＨＯＵ　ＷＡＮＧＬＵＯ　ＸＩＮＸＩ　ＫＥＪＩ　ＹＯＵＸＩＡＮ　ＧＯＮＧＳＩ,,外国会社等,,,,,,,,Ａ１６４８，２８／Ｆ，Ｂｕｉｌｄｉｎｇ　３７１－１，Ｗｕｓｈａｎ　Ｒｏａｄ，Ｔｉａｎｈｅ　Ｄｉｓｔｒｉｃｔ，Ｇｕａｎｇｚｈｏｕ，Ｃｈｉｎａ,,,,,,2023-02-02,1,,,,,プリコウシュウワンロシンソクユウゲンコウシ,0
591,2700150114114,新規,0,2023-02-02,2023-02-02,ＯＳＡＳＩＬ　ＬＩＭＩＴＥＤ,,外国会社等,大阪府,吹田市,豊津町６０－３－５０２,,27,205,5640051,中華人民共和国香港特別行政区　ハッピーバレー６ブロードウッドロード・ロード・ビバリーヒルＪブロック３７階２,,,,,,2023-02-02,1,,,,,オサシルリミテツド,0
592,2700150114130,新規,0,2023-02-02,2023-02-02,深セン市通利撮影器材有限公司,,外国会社等,,,,,,,,中国深セン市龍華区龍華街道富康社区安錦恒伍屋科技工業園２号３層Ｂ区３０３,00129291,,,,,2023-02-02,1,,,,,シンセンシツウリサツエイキザイユウゲンコウシ,0
593,2700150114139,新規,0,2023-02-02,2023-02-02,人と人研究会,,その他,東京都,新宿区,戸山１丁目２－４－３０１,,13,104,1620052,,,,,,,2023-02-02,1,,,,,ヒトトヒトケンキュウカイ,0
594,2700150114147,新規,0,2023-02-02,2023-02-02,ｓｈｅｎｚｈｅｎｓｈｉ　ｊｉｎｓｉｄｉａｎｚｉ　ｓｈａｎｇｗｕｙｏｕｘｉａｎｇｏｎｇｓｉ,,外国会社等,,,,,,,,Ｃｈｉｎａ，ｇｕａｎｇｄｏｎｇｓｈｅｎｇ，ｓｈｅｎｚｈｅｎｓｈｉ，ｌｏｎｇｈｕａｑｕ，ｍｉｎｚｈｉｊｉｅｄａｏ，ｍｉｎｌｅｓｈｅｑｕ，ｘｉｎｇｈｅＷＯＲＬＤ　ｅｒｑｉ　Ｄ，ｄｏｎｇ８１３－２,,,,,,2023-02-02,1,,,,,シンセンシジンシデンシショウムユウゲンコウシ,0
595,2700150114163,新規,0,2023-02-02,2023-02-02,ＡＦＡＩＴＨ　ＴＲＡＤＩＮＧ　ＣＯ．，ＬＴＤ,,外国会社等,,,,,,,,ＨＥＮＮＥＳＳＹ　ＲＯＡＤ　ＥＡＳＥＹ　ＣＯＭＭＥＲＩＣＡＬ　ＢＵＩＬＤＩＮＧ，ＦＬＡＴ／ＲＭ　１５０２（０５），ＷＡＮＣＨＡＩ，ＨＯＮＨＫＯＮＧ,,,,,,2023-02-02,1,,,,,アフェイストレーディングカンパニーリミテッド,0
596,2700150114171,新規,0,2023-02-02,2023-02-02,Ｈａｎｇｚｈｏｕ　Ｍｕｄｉ　ＷａｎｇＬｕｏ　Ｋｅｊｉ　Ｙｏｕｘｉａｎｇｏｎｇｓｉ,,外国会社等,,,,,,,,Ｎｏ．１８８　Ｈｏｎｇｘｉｎｇ　Ｒｏａｄ，Ｅｃｏｎｏｍｉｃ＆Ｔｅｃｈｎｏｌｏｇｉｃａｌ　Ｄｅｖｅｌｏｐｍｅｎｔ　Ｈａｎｇｚｈｏｕ　Ｚｈｅｊｉａｎｇ　Ｃｈｉｎａ,,,,,,2023-02-02,1,,,,,ハンゾウムジワンルオケジユウゲンコウシ,0
606,3010001232654,新規,0,2023-02-02,2023-02-02,株式会社ＤＵＡＬ　ＭＯＶＥ,,株式会社,東京都,千代田区,東神田３丁目３番８号ＴＫＳ東神田ビルＢ１階,,13,101,1010031,,,,,,,2023-02-02,1,,,,,デュアルムーブ,0
607,3010001232704,新規,0,2023-02-02,2023-02-02,ルーキッド株式会社,,株式会社,東京都,中央区,銀座１丁目１２番４号Ｎ＆ＥＢＬＤ．７階,,13,102,1040061,,,,,,,2023-02-02,1,,,,,ルーキッド,0
620,3010401172211,新規,0,2023-02-02,2023-02-02,株式会社ＳＹ　Ｆａｍｉｌｙ,,株式会社,東京都,港区,浜松町２丁目２番１５号浜松町ダイヤビル２Ｆ,,13,103,1050013,,,,,,,2023-02-02,1,,,,,エスワイファミリー,0
621,3010401172228,新規,0,2023-02-02,2023-02-02,株式会社ＬａＴｏｗ,,株式会社,東京都,港区,北青山２丁目７番２０号猪瀬ビル２階,,13,103,1070061,,,,,,,2023-02-02,1,,,,,ラトー,0
622,3010401172236,新規,0,2023-02-02,2023-02-02,株式会社ＧｒａｕＢＥＬＳ,,株式会社,東京都,港区,南青山３丁目８番４０号,,13,103,1070062,,,,,,,2023-02-02,1,,,,,グラウベルス,0
623,3010401172244,新規,0,2023-02-02,2023-02-02,ＭＩ株式会社,,株式会社,東京都,港区,浜松町２丁目２番１５号浜松町ダイヤビル２Ｆ,,13,103,1050013,,,,,,,2023-02-02,1,,,,,エムアイ,0
624,3010401172252,新規,0,2023-02-02,2023-02-02,株式会社雨楽,,株式会社,東京都,港区,芝浦２丁目７番１１－１７０１号,,13,103,1080023,,,,,,,2023-02-02,1,,,,,ウラク,0
626,3010403029418,新規,0,2023-02-02,2023-02-02,合同会社リトル＆トレジャーカンパニー,,合同会社,東京都,港区,六本木３丁目１６番１９－１１０３号,,13,103,1060032,,,,,,,2023-02-02,1,,,,,リトルアンドトレジャーカンパニー,0
627,3010403029426,新規,0,2023-02-02,2023-02-02,Ｌｕｐｉｎｕｓ合同会社,,合同会社,東京都,港区,南青山２丁目２－１５ＷＩＮ青山５３１,,13,103,1070062,,,,,,,2023-02-02,1,,,,,ルピナス,0
633,3010601062526,新規,0,2023-02-02,2023-02-02,碩美株式会社,,株式会社,東京都,墨田区,両国２丁目１７番１７号両国ダイヤハイツ２０２－Ｐ,,13,107,1300026,,,,,,,2023-02-02,1,,,,,セキビ,0
634,3010601062542,新規,0,2023-02-02,2023-02-02,ＭＦＡコンサルティング株式会社,,株式会社,東京都,墨田区,錦糸４丁目１６－３,,13,107,1300013,,,,,,,2023-02-02,1,,,,,エムエフエーコンサルティング,0
656,3011301028420,新規,0,2023-02-02,2023-02-02,株式会社ＯｎｅＴｅａｍ,,株式会社,東京都,杉並区,浜田山４丁目１８番２４号,,13,115,1680065,,,,,,,2023-02-02,1,,,,,ワンチーム,0
659,3011303004659,新規,0,2023-02-02,2023-02-02,合同会社なりたいを叶える,,合同会社,東京都,杉並区,高円寺南４丁目５－１藤和シティホームズ高円寺５０２,,13,115,1660003,,,,,,,2023-02-02,1,,,,,ナリタイヲカナエル,0
680,3012803002994,新規,0,2023-02-02,2023-02-02,コウプラス合同会社,,合同会社,東京都,東大和市,桜が丘４丁目２９番の１４９,,13,220,2070022,,,,,,,2023-02-02,1,,,,,コウプラス,0
686,3013301050271,新規,0,2023-02-02,2023-02-02,伊原通商株式会社,,株式会社,東京都,豊島区,池袋１丁目７－２１,,13,116,1700014,,,,,,,2023-02-02,1,,,,,イハラツウショウ,0
689,3020001150054,新規,0,2023-02-02,2023-02-02,株式会社エムズ建工,,株式会社,神奈川県,横浜市南区,井土ケ谷下町４１番地１０ＡＫビル４０２,,14,105,2320053,,,,,,,2023-02-02,1,,,,,エムズケンコウ,0
690,3020001150112,新規,0,2023-02-02,2023-02-02,株式会社ＧＵＩＬＴＹ,,株式会社,神奈川県,横浜市神奈川区,東神奈川２丁目３９－１－１００２,,14,102,2210044,,,,,,,2023-02-02,1,,,,,ギルティ,0
696,3021001078112,新規,0,2023-02-02,2023-02-02,株式会社Ｌｉｂｅｒ,,株式会社,神奈川県,大和市,草柳２丁目１７番地１,,14,213,2420026,,,,,,,2023-02-02,1,,,,,リベロ,0
698,3021003012696,新規,0,2023-02-02,2023-02-02,合同会社Ｋ‐ＢＯＸ,,合同会社,神奈川県,藤沢市,本藤沢２丁目１４－１６Ａｃｃｅｓｓ藤沢本町１０２号室,,14,205,2510875,,,,,,,2023-02-02,1,,,,,ケーボックス,0
699,3021003012705,新規,0,2023-02-02,2023-02-02,合同会社フラタニティ,,合同会社,神奈川県,相模原市緑区,西橋本５丁目２―１３―９０８,,14,151,2520131,,,,,,,2023-02-02,1,,,,,フラタニティ,0
700,3021003012713,新規,0,2023-02-02,2023-02-02,湘南山手介護保険センター合同会社,,合同会社,神奈川県,横須賀市,吉井３丁目６番７号,,14,201,2390804,,,,,,,2023-02-02,1,,,,,ショウナンヤマテカイゴホケンセンター,0
709,3030001152207,新規,0,2023-02-02,2023-02-02,株式会社サワダ工業,,株式会社,埼玉県,さいたま市岩槻区,城町２丁目９番５２号,,11,110,3390053,,,,,,,2023-02-02,1,,,,,サワダコウギョウ,0
715,3040001126845,新規,0,2023-02-02,2023-02-02,株式会社藤秀,,株式会社,千葉県,千葉市中央区,道場北１丁目１１番３０号,,12,101,2600006,,,,,,,2023-02-02,1,,,,,フジヒデ,0
716,3040001126878,新規,0,2023-02-02,2023-02-02,Ｒ建築デザイン株式会社,,株式会社,千葉県,千葉市美浜区,中瀬１丁目３番地幕張テクノガーデンＣＢ棟３階,,12,106,2610023,,,,,,,2023-02-02,1,,,,,アールケンチクデザイン,0
720,3040003021755,新規,0,2023-02-02,2023-02-02,合同会社Ｓｕｎｆｌｏｗｅｒ,,合同会社,千葉県,木更津市,畑沢１丁目１１－７,,12,206,2920825,,,,,,,2023-02-02,1,,,,,,0
721,3040003021821,新規,0,2023-02-02,2023-02-02,Ｓｈｏｎａｎ　Ｔｒａｄｉｎｇ合同会社,,合同会社,千葉県,柏市,手賀の杜５丁目１３番地１９,,12,217,2701447,,,,,,,2023-02-02,1,,,,,ショーナントレーディング,0
725,3050001052314,新規,0,2023-02-02,2023-02-02,株式会社アリーナスチール,,株式会社,茨城県,日立市,中成沢町１丁目１７番１号,,08,202,3160033,,,,,,,2023-02-02,1,,,,,アリーナスチール,0
729,3080001025440,新規,0,2023-02-02,2023-02-02,株式会社村田,,株式会社,静岡県,静岡市葵区,足久保口組９６番地の５６,,22,101,4212124,,,,,,,2023-02-02,1,,,,,ムラタ,0
732,3080103002734,新規,0,2023-02-02,2023-02-02,合同会社ＨＫマセット,,合同会社,静岡県,伊豆の国市,寺家２０７番地の３アヴェニールステイブルＬＩ２０３号,00129298,22,225,4102122,,,,,,,2023-02-02,1,,,,,エイチケーマセット,0
733,3080401026294,新規,0,2023-02-02,2023-02-02,ＦＲＥＳＴ株式会社,,株式会社,静岡県,浜松市中区,富塚町２９１番地の４,,22,131,4328002,,,,,,,2023-02-02,1,,,,,フレスト,0
750,3120001252138,新規,0,2023-02-02,2023-02-02,至一株式会社,,株式会社,大阪府,大阪市中央区,中寺２丁目４番２２号１０１号室,,27,128,5420065,,,,,,,2023-02-02,1,,,,,シイチ,0
751,3120001252187,新規,0,2023-02-02,2023-02-02,株式会社エス,,株式会社,大阪府,大阪市北区,西天満４丁目５番２０号,,27,127,5300047,,,,,,,2023-02-02,1,,,,,エス,0
752,3120001252195,新規,0,2023-02-02,2023-02-02,ＵＳＬ大阪株式会社,,株式会社,大阪府,大阪市中央区,北久宝寺町４丁目４番１５号,,27,128,5410057,,,,,,,2023-02-02,1,,,,,ユーエスエルオオサカ,0
753,3120001252245,新規,0,2023-02-02,2023-02-02,株式会社八木創建,,株式会社,大阪府,大阪市住之江区,南加賀屋２丁目５番１９号,,27,125,5590015,,,,,,,2023-02-02,1,,,,,ヤギソウケン,0
754,3120001252253,新規,0,2023-02-02,2023-02-02,株式会社ワンモバイル,,株式会社,大阪府,大阪市中央区,安土町２丁目５－５本町明大ビル６Ｆ,,27,128,5410052,,,,,,,2023-02-02,1,,,,,ワンモバイル,0
774,3130003008504,新規,0,2023-02-02,2023-02-02,合同会社エクラ,,合同会社,京都府,京都市伏見区,桃山町養斉１５番地５,,26,109,6128016,,,,,,,2023-02-02,1,,,,,エクラ,0
781,3140001129020,新規,0,2023-02-02,2023-02-02,株式会社ＩＮＦＩＮＩＴＹ,,株式会社,兵庫県,姫路市,忍町１７２番地１ワコーレ姫路クロススクエア９０３,,28,201,6700917,,,,,,,2023-02-02,1,,,,,インフィニティ,0
799,3180001154683,新規,0,2023-02-02,2023-02-02,ＮＩＰＰＯＮ　ＰＲＩＤＥ　ＴＲＡＤＩＮＧ株式会社,,株式会社,愛知県,海部郡蟹江町,学戸６丁目２５８番地ファーストシティー１０２号室,,23,425,4970050,,,,,,,2023-02-02,1,,,,,ニッポンプライドトレーディング,0
800,3180001154717,新規,0,2023-02-02,2023-02-02,ハリネズミ株式会社,,株式会社,愛知県,半田市,向山町２丁目１１９番地,,23,205,4750084,,,,,,,2023-02-02,1,,,,,ハリネズミ,0
801,3180001154782,新規,0,2023-02-02,2023-02-02,株式会社ＭＹＵＤＥＳＴ,,株式会社,愛知県,名古屋市瑞穂区,汐路町５丁目２５番地の１,,23,108,4670003,,,,,,,2023-02-02,1,,,,,ミュデスト,0
802,3180001154824,新規,0,2023-02-02,2023-02-02,永健電機株式会社,,株式会社,愛知県,名古屋市西区,野南町８４番地,,23,104,4520847,,,,,,,2023-02-02,1,,,,,エイケンデンキ,0
806,3180003024793,新規,0,2023-02-02,2023-02-02,ＲＩＧＡＲＥ　ＺＥＲＯ合同会社,,合同会社,愛知県,名古屋市中川区,中花町２２１番地の２,,23,110,4540931,,,,,,,2023-02-02,1,,,,,リガーレゼロ,0
808,3180005020097,新規,0,2023-02-02,2023-02-02,一般社団法人梅の木,,その他の設立登記法人,愛知県,名古屋市熱田区,大宝４丁目１１番１０号－１,,23,109,4560062,,,,,,,2023-02-02,1,,,,,ウメノキ,0
813,3180303005592,新規,0,2023-02-02,2023-02-02,ＷＡＮ’Ｓ　ｔｅａｍ合同会社,,合同会社,愛知県,岡崎市,明大寺町字西郷中２８番地１０,,23,202,4440867,,,,,,,2023-02-02,1,,,,,ワンズチーム,0
821,3230001019699,新規,0,2023-02-02,2023-02-02,株式会社ＷＡＲＡＢＩ,,株式会社,富山県,富山市,八尾町福島上野１０１４番地３,,16,201,9392376,,,,,,,2023-02-02,1,,,,,ワラビ,0
822,3240001061048,新規,0,2023-02-02,2023-02-02,株式会社ｌｉｇｕｅ．ｃｕｌｔｕｒｅ,,株式会社,広島県,広島市南区,段原３丁目３番２６号ナカイビル１Ｆ,,34,103,7320811,,,,,,,2023-02-02,1,,,,,リグカルチャー,0
824,3240003006001,新規,0,2023-02-02,2023-02-02,合同会社輝星,,合同会社,広島県,世羅郡世羅町,大字田打４６７番地,,34,462,7221624,,,,,,,2023-02-02,1,,,,,コウセイ,0
828,3260001037624,新規,0,2023-02-02,2023-02-02,株式会社ボンズ,,株式会社,岡山県,岡山市中区,国富７６１番地３,,33,102,7038236,,,,,,,2023-02-02,1,,,,,ボンズ,0
830,3270001008723,新規,0,2023-02-02,2023-02-02,株式会社Ｐｓｙｃｈｏｒｏ,,株式会社,鳥取県,鳥取市,末広温泉町７０７大宏ビル３階,,31,201,6800833,,,,,,,2023-02-02,1,,,,,サイコロ,0
831,3270003001486,新規,0,2023-02-02,2023-02-02,合同会社Ｎゼミ,,合同会社,鳥取県,鳥取市,湯所町２丁目４２０番地１１,,31,201,6800007,,,,,,,2023-02-02,1,,,,,エヌゼミ,0
835,3290001100387,新規,0,2023-02-02,2023-02-02,株式会社ＥＮＯＧＵ,,株式会社,福岡県,福岡市博多区,上川端町１０－５ケイアンドオービル３Ｆ,,40,132,8120026,,,,,,,2023-02-02,1,,,,,エノグ,0
836,3290001100420,新規,0,2023-02-02,2023-02-02,株式会社インテリア・ユタカ,,株式会社,福岡県,糸島市,二丈福井４８８番地１カーサ希望ケ丘壱番館２０３号,,40,230,8191631,,,,,,,2023-02-02,1,,,,,インテリアユタカ,0
837,3290001100461,新規,0,2023-02-02,2023-02-02,株式会社ｆｕｍｅ,,株式会社,福岡県,飯塚市,幸袋５７６番地１４,,40,205,8200066,,,,,,,2023-02-02,1,,,,,フューム,0
838,3290001100478,新規,0,2023-02-02,2023-02-02,株式会社怡土苑総合設計事務所,,株式会社,福岡県,糸島市,曽根１２０番地１５,,40,230,8191561,,,,,,,2023-02-02,1,,,,,イトエンソウゴウセッケイジムショ,0
844,3330001030563,新規,0,2023-02-02,2023-02-02,株式会社三浦総業,,株式会社,熊本県,熊本市東区,小山４丁目２番７１－１号,,43,102,8618045,,,,,,,2023-02-02,1,,,,,ミウラソウギョウ,0
845,3330003009705,新規,0,2023-02-02,2023-02-02,合同会社アンビシャス,,合同会社,熊本県,熊本市東区,長嶺南６丁目１４番１７号,,43,102,8618039,,,,,,,2023-02-02,1,,,,,アンビシャス,0
846,3340001025348,新規,0,2023-02-02,2023-02-02,株式会社翔,,株式会社,鹿児島県,鹿児島市,吉野２丁目１７番２１号－１０１,,46,201,8920877,,,,,,,2023-02-02,1,,,,,ショウ,0
847,3340003004036,新規,0,2023-02-02,2023-02-02,合同会社ボウケン,,合同会社,鹿児島県,薩摩川内市,平佐町４２０３番地１５,,46,215,8950012,,,,,,,2023-02-02,1,,,,,ボウケン,0
849,3350001018160,新規,0,2023-02-02,2023-02-02,株式会社４５ｆａｃｔｏｒｙ,,株式会社,宮崎県,宮崎市,吉村町長田甲２３６０番地ＫｏＯｌｉｎａＹｏｓｈｉｍｕｒａＣ４,,45,201,8800841,,,,,,,2023-02-02,1,,,,,フォーティファイブファクトリー,0
851,3350003004282,新規,0,2023-02-02,2023-02-02,マハロレンタカー合同会社,,合同会社,宮崎県,宮崎市,潮見町１４９番地３,,45,201,8800862,,,,,,,2023-02-02,1,,,,,マハロレンタカー,0
856,3360003012689,新規,0,2023-02-02,2023-02-02,合同会社Ａｐｐｒｅｃｉａｔｉｏｎ,,合同会社,沖縄県,那覇市,首里末吉町１丁目１５２番地１５パークサイド末吉,,47,201,9030801,,,,,,,2023-02-02,1,,,,,アプリシエイション,0
861,3370001049559,新規,0,2023-02-02,2023-02-02,株式会社ハローグッバイ,,株式会社,宮城県,宮城郡七ヶ浜町,松ヶ浜字神明裏４３番地の１,,04,404,9850812,,,,,,,2023-02-02,1,,,,,ハローグッバイ,0
862,3370001049567,新規,0,2023-02-02,2023-02-02,株式会社笑福エステート,,株式会社,宮城県,仙台市青葉区,本町１丁目１４番１８－３０３号,,04,101,9800014,,,,,,,2023-02-02,1,,,,,ワラフクエステート,0
866,3400001016150,新規,0,2023-02-02,2023-02-02,株式会社助六園,,株式会社,岩手県,滝沢市,鵜飼白石６３－１,,03,216,0200661,,,,,,,2023-02-02,1,,,,,スケロクエン,0
872,3430003014694,新規,0,2023-02-02,2023-02-02,合同会社ＳＦＩＤＡ,,合同会社,北海道,札幌市豊平区,平岸三条７丁目６番２２号,,01,105,0620933,,,,,,,2023-02-02,1,,,,,スフィーダ,0
873,3450003002292,新規,0,2023-02-02,2023-02-02,合同会社スレト,,合同会社,北海道,上川郡東神楽町,ひじり野北二条９丁目１－３,,01,453,0711522,,,,,,,2023-02-02,1,,,,,スレト,0
876,3460103001508,新規,0,2023-02-02,2023-02-02,ケアライン合同会社,,合同会社,北海道,河東郡音更町,北鈴蘭南５丁目６番地２,,01,631,0800306,,,,,,,2023-02-02,1,,,,,ケアライン,0
882,3480003001928,新規,0,2023-02-02,2023-02-02,あゆみほーるでぃんぐす合同会社,,合同会社,徳島県,板野郡松茂町,笹木野字山南３９番地,,36,401,7710219,,,,,,,2023-02-02,1,,,,,アユミホールディングス,0
885,3500001024746,新規,0,2023-02-02,2023-02-02,株式会社ＲＳ工務店,,株式会社,愛媛県,松山市,鷹子町５５７番地６,,38,201,7900925,,,,,,,2023-02-02,1,,,,,アールエスコウムテン,0
887,3700150114096,新規,0,2023-02-02,2023-02-02,Ｃｈａｓｅ　Ｇｏａｌｓ　Ｊａｐａｎ,,外国会社等,,,,,,,,Ｃｈａｓｅ　Ｇｏａｌｓ　ＪａｐａｎＢ３－８１１，Ｂａｏｊｉ　Ｂａｎｄａｏ　Ｊｉｎｈｕａ　Ｗｕｃｈｅｎｇ　Ｚｈｅｊｉａｎｇ，Ｃｈｉｎａ,,,,,,2023-02-02,1,,,,,チャスゴーズジャパン,0
888,3700150114105,新規,0,2023-02-02,2023-02-02,ｓｈｅｎｚｈｅｎｓｈｉｊｉｅｙｕａｎｃｈｕａｎｇｘｉｎｋｅｊｉｙｏｕｘｉａｎｇｏｎｇｓｉ,,外国会社等,,,,,,,,ｂａｏａｎｑｕｘｉｎａｎｊｉｅｄａｏｈａｉｂｉｎｓｈｅｑｕｊｉａａｎｎａｎｌｕ２２ｈａｏ，ｙｉｓｈａｎｇｃｈｕａｎｇｙｉｋｅｊｉｄａｓｈａ２００３，ｓｈｅｎｚｈｅｎ，ｇｕａｎｇｄｏｎｇ，Ｃｈｉｎａ,,,,,,2023-02-02,1,,,,,シンセンシケツゲンソウシンカギユウゲンコウシ,0
889,3700150114146,新規,0,2023-02-02,2023-02-02,Ｇｕａｎｇｚｈｏｕ　Ｈｅｎｇｓｈｅｎｇ　Ｔｒａｄｉｎｇ　Ｃｏｍｐａｎｙ　Ｌｔｄ,,外国会社等,,,,,,,,Ｊｉｎｇｈｏｎｇ　ｓｔｒｅｅｔ　６１　Ｎ０１７０１　Ｈｕａｎｇｓｈｉ　ｌｏａｄ，Ｇｕａｎｇｚｈｏｕ，Ｂａｉｙｕｎ　Ｄｉｓｔｒｉｃｔ，Ｇｕａｎｇｄｏｎｇ，Ｃｈｉｎａ,,,,,,2023-02-02,1,,,,,ゴンジョウヘンシェントレーディングカンパニーリミテッド,0
890,3700150114162,新規,0,2023-02-02,2023-02-02,Ｓｈｅｎ　Ｚｈｅｎ　Ｓｈｉ　Ｌｅ　Ｊｉａ　Ｄａ　Ｋｅ　Ｊｉ　Ｙｏｕ　Ｘｉａｎ　Ｇｏｎｇ　Ｓｉ,,外国会社等,,,,,,,,Ｌｏｎｇ　Ｃｈｅｎｇ　Ｊｉｅ　Ｄａｏ　Ｃａｉ　Ｙｕｎ　Ｙｉ　Ｌｕ　４　Ｈａｏ，Ｌｏｎｇ　Ｇａｎｇ　Ｑｕ．Ｘｉｎ　Ｃｈａｏ　Ｇｏｎｇ　Ｙｅ　Ｙｕａｎ　Ｂ　Ｄｏｎｇ　４　Ｌｏｕ　４０２，Ｓｈｅｎｚｈｅｎ，Ｇｕａｎｇｄｏｎｇ，ＣＮ,,,,,,2023-02-02,1,,,,,シンセンシレジアダケジユウゲンコウシ,0
891,3700150114170,新規,0,2023-02-02,2023-02-02,ｓｈｅｎｚｈｅｎｓｈｉ　ｈａｉｆｅｉａｉ　ｄｉａｎｚｉｙｏｕｘｉａｎｇｏｎｇｓｉ,,外国会社等,,,,,,,,６Ｂ，Ｂｕｉｌｄｉｎｇ　４，Ｌｏｎｇｙｕａｎ，Ｔｉａｎａｎ　Ｇｏｌｆ　Ｇａｒｄｅｎ，Ｎｏ．９２８０　Ｂｉｎｈｅ　ｓｈｅｎｚｈｅｎ　ＧｕａｎｇＤｏｎｇ　Ｐｒｏｖｉｎｃｅ，Ｃｈｉｎａ,,,,,,2023-02-02,1,,,,,シンセンシハイフェイアイデンシユウゲンコウシ,0
898,4010001232703,新規,0,2023-02-02,2023-02-02,株式会社オートメーションエックス,,株式会社,東京都,千代田区,神田神保町２丁目８－２０－６Ｆ,,13,101,1010051,,,,,,,2023-02-02,1,,,,,オートメーションエックス,0
907,4010401172193,新規,0,2023-02-02,2023-02-02,コロムビア・クリエイティブ株式会社,,株式会社,東京都,港区,南青山６丁目１０番１２号,,13,103,1070062,,,,,,,2023-02-02,1,,,,,コロムビアクリエイティブ,0
908,4010401172219,新規,0,2023-02-02,2023-02-02,株式会社Ａ‐ｊｕｓｔ,,株式会社,東京都,港区,北青山１丁目２番３号青山ビル６階,,13,103,1070061,,,,,,,2023-02-02,1,,,,,アジャスト,0
909,4010401172243,新規,0,2023-02-02,2023-02-02,ＴｈｏｒＤｅｓｉｇｎ株式会社,,株式会社,東京都,港区,南青山２丁目２番１５号,,13,103,1070062,,,,,,,2023-02-02,1,,,,,トールデザイン,0
910,4010401172268,新規,0,2023-02-02,2023-02-02,株式会社インターアーム,,株式会社,東京都,港区,南青山６丁目７番８－１００２号,,13,103,1070062,,,,,,,2023-02-02,1,,,,,インターアーム,0
911,4010403029383,新規,0,2023-02-02,2023-02-02,ダブル・エー・ワークス合同会社,,合同会社,東京都,港区,港南４丁目７番５５号ブランファーレ３２０３,,13,103,1080075,,,,,,,2023-02-02,1,,,,,ダブルエーワークス,0
913,4010405021776,新規,0,2023-02-02,2023-02-02,ＰＭＦ２一般社団法人,,その他の設立登記法人,東京都,港区,虎ノ門３丁目２２番１０－２０１号,,13,103,1050001,,,,,,,2023-02-02,1,,,,,ピーエムエフトゥ,0
918,4010501049952,新規,0,2023-02-02,2023-02-02,株式会社ＮＩＮＯ　ＰＲＯＪＥＣＴ,,株式会社,東京都,台東区,寿１丁目１３番８号,,13,106,1110042,,,,,,,2023-02-02,1,,,,,ニノプロジェクト,0
919,4010503006869,新規,0,2023-02-02,2023-02-02,合同会社Ｈ＆Ｅシステムズ,,合同会社,東京都,台東区,三筋２丁目２０番５－５０２号シェモア,,13,106,1110055,,,,,,,2023-02-02,1,,,,,エイチアンドイーシステムズ,0
923,4010601062525,新規,0,2023-02-02,2023-02-02,芳華屋株式会社,,株式会社,東京都,墨田区,両国２丁目１７番１７号両国ダイヤハイツ２０２－Ｏ,,13,107,1300026,,,,,,,2023-02-02,1,,,,,ホウカヤ,0
929,4010803004440,新規,0,2023-02-02,2023-02-02,合同会社ＩＮＴＥＲＦＡＣＥＤＯＧＳ,,合同会社,東京都,大田区,北千束２丁目４８番９号,,13,111,1450062,,,,,,,2023-02-02,1,,,,,インターフェイスドッグス,0
933,4010901052440,新規,0,2023-02-02,2023-02-02,株式会社Ｆｅｍｌｏｇ,,株式会社,東京都,世田谷区,弦巻４丁目２０番１３－３０２号,,13,112,1540016,,,,,,,2023-02-02,1,,,,,フェムログ,0
934,4010901052457,新規,0,2023-02-02,2023-02-02,Ｃｏｏｐｅｒ．Ｗｏｎｄｅｒ．Ｌａｎｄ株式会社,,株式会社,東京都,世田谷区,宇奈根３丁目１３番２号奥ふたこビレッジＡ棟,,13,112,1570068,,,,,,,2023-02-02,1,,,,,クーパーワンダーランド,0
935,4010903007938,新規,0,2023-02-02,2023-02-02,合同会社ＳＴＹ,,合同会社,東京都,世田谷区,松原５丁目１０番１３号,,13,112,1560043,,,,,,,2023-02-02,1,,,,,エスティーワイ,0
943,4011001152346,新規,0,2023-02-02,2023-02-02,株式会社口,,株式会社,東京都,渋谷区,富ヶ谷２丁目１３番２１号,,13,113,1510063,,,,,,,2023-02-02,1,,,,,コウ,0
944,4011001152387,新規,0,2023-02-02,2023-02-02,株式会社ＡＲＣＡ,,株式会社,東京都,渋谷区,千駄ヶ谷３丁目１３番２２－２０４号室,,13,113,1510051,,,,,,,2023-02-02,1,,,,,アルカ,0
952,4011101101723,新規,0,2023-02-02,2023-02-02,ＰＲＩＭＥ　ＨＯＬＤＩＮＧＳ株式会社,,株式会社,東京都,新宿区,愛住町１９番地１３泰美ビル６階,,13,104,1600005,,,,,,,2023-02-02,1,,,,,プライムホールディングス,0
956,4011303004658,新規,0,2023-02-02,2023-02-02,Ａ＆Ｉ人事労務アドバイザリー合同会社,,合同会社,東京都,杉並区,下高井戸５丁目９―３２,,13,115,1680073,,,,,,,2023-02-02,1,,,,,エーアンドアイジンジロウムアドバイザリー,0
959,4011501028905,新規,0,2023-02-02,2023-02-02,株式会社フタバ興発,,株式会社,東京都,荒川区,東尾久５丁目２４番３号,,13,118,1160012,,,,,,,2023-02-02,1,,,,,フタバコウハツ,0
960,4011505002526,新規,0,2023-02-02,2023-02-02,一般社団法人東京都相談支援専門員ネットワーク,,その他の設立登記法人,東京都,荒川区,東日暮里１丁目１７番１２号二村ビル１階,,13,118,1160014,,,,,,,2023-02-02,1,,,,,トウキョウトソウダンシエンセンモンインネットワーク,0
963,4011701025982,新規,0,2023-02-02,2023-02-02,株式会社ＪｉＮＤｏ　ＣｒｅＡＣＴｉｏＮ,,株式会社,東京都,江戸川区,西葛西５丁目１番３号第６山秀ビル６０２,,13,123,1340088,,,,,,,2023-02-02,1,,,,,ジンドウクリアクション,0
965,4012301013295,新規,0,2023-02-02,2023-02-02,株式会社大曜ホームズ,,株式会社,東京都,町田市,山崎町６６８番地６,,13,209,1950074,,,,,,,2023-02-02,1,,,,,ダイヨウホームズ,0
966,4012305002039,新規,0,2023-02-02,2023-02-02,特定非営利活動法人マーチング祭,,その他の設立登記法人,東京都,町田市,つくし野１丁目４番地１３,,13,209,1940001,,,,,,,2023-02-02,1,,,,,マーチングマツリ,0
968,4012401040140,新規,0,2023-02-02,2023-02-02,株式会社ロウハリネン,,株式会社,東京都,調布市,深大寺北町４丁目６番地４,,13,208,1820011,,,,,,,2023-02-02,1,,,,,ロウハリネン,0
969,4012403005810,新規,0,2023-02-02,2023-02-02,合同会社Ａ．Ｍ‐ＲＩＳＥ,,合同会社,東京都,府中市,本町４丁目２６番地の１２コーポアイフル２０２,,13,206,1830027,,,,,,,2023-02-02,1,,,,,エーエムライズ,0
971,4012801022119,新規,0,2023-02-02,2023-02-02,株式会社Ｘｍａｋｅｒ,,株式会社,東京都,日野市,神明４丁目１０番地の８ハイム・ヴィラ１０２,,13,212,1910016,,,,,,,2023-02-02,1,,,,,クロスメーカー,0
972,4013301050262,新規,0,2023-02-02,2023-02-02,株式会社アジアジャパンマネジメント,,株式会社,東京都,豊島区,巣鴨１丁目２０番１２号冨貴ビル４Ｆ,,13,116,1700002,,,,,,,2023-02-02,1,,,,,アジアジャパンマネジメント,0
973,4013301050270,新規,0,2023-02-02,2023-02-02,株式会社自動車共済ＴＯＡ,,株式会社,東京都,豊島区,西池袋３丁目３０番１０号,,13,116,1710021,,,,,,,2023-02-02,1,,,,,ジドウシャキョウサイトーア,0
981,4020001150086,新規,0,2023-02-02,2023-02-02,株式会社ｅｓｔｒｅｌａ,,株式会社,神奈川県,川崎市高津区,溝口２丁目６番２号Ｋ’ＳＢＬＤ５０３,,14,134,2130001,,,,,,,2023-02-02,1,,,,,エストレーラ,0
985,4021001078086,新規,0,2023-02-02,2023-02-02,株式会社ＭＡＲＯ,,株式会社,神奈川県,茅ヶ崎市,東海岸北３丁目１４番２８号アルフラット１０２,,14,207,2530053,,,,,,,2023-02-02,1,,,,,マロ,0
988,4021003012704,新規,0,2023-02-02,2023-02-02,合同会社Ｇ‐０４６７,,合同会社,神奈川県,鎌倉市,材木座６丁目１３番５号,,14,204,2480013,,,,,,,2023-02-02,1,,,,,ジーゼロヨンロクナナ,0
1008,4040001126811,新規,0,2023-02-02,2023-02-02,株式会社ＭＤＫ,,株式会社,千葉県,市原市,五井西６丁目１２－１８,,12,219,2900038,,,,,,,2023-02-02,1,,,,,ミヤモトデンキコウギョウ,0
1009,4040001126877,新規,0,2023-02-02,2023-02-02,株式会社葵楓工業,,株式会社,千葉県,八千代市,神野１０７６番地２０,,12,221,2760016,,,,,,,2023-02-02,1,,,,,アオカコウギョウ,0
1010,4040001126885,新規,0,2023-02-02,2023-02-02,株式会社一託不動産,,株式会社,千葉県,千葉市花見川区,朝日ケ丘１丁目２８番１８号中台ビル２０１,,12,102,2620019,,,,,,,2023-02-02,1,,,,,イチタクフドウサン,0
1013,4050001052321,新規,0,2023-02-02,2023-02-02,株式会社ＡＵＴＯ　ＢＵＳＴＥＲ,,株式会社,茨城県,坂東市,逆井３５３６番地大東ビル１Ｆ,,08,228,3060501,,,,,,,2023-02-02,1,,,,,オートバスター,0
1016,4050003007190,新規,0,2023-02-02,2023-02-02,ニシキケンジャパン合同会社,,合同会社,茨城県,東茨城郡茨城町,大字飯沼５５３番地,,08,302,3113152,,,,,,,2023-02-02,1,,,,,ニシキケンジャパン,0
1021,4080001025448,新規,0,2023-02-02,2023-02-02,株式会社ｓｐａｃｅ１０８,,株式会社,静岡県,静岡市葵区,音羽町１２番１３号,,22,101,4200834,,,,,,,2023-02-02,1,,,,,スペースイチマルハチ,0
1023,4080101023780,新規,0,2023-02-02,2023-02-02,株式会社コアープリサイス,,株式会社,静岡県,裾野市,深良３６５０番地の１,,22,220,4101102,,,,,,,2023-02-02,1,,,,,コアープリサイス,0
1027,4080401026293,新規,0,2023-02-02,2023-02-02,黒田工業株式会社,,株式会社,静岡県,浜松市浜北区,宮口２２２３番地の１,,22,136,4340004,,,,,,,2023-02-02,1,,,,,クロダコウギョウ,0
1028,4080403004719,新規,0,2023-02-02,2023-02-02,合同会社ＳＤＭサービス,,合同会社,静岡県,浜松市南区,鼡野町９０番地１,,22,134,4300838,,,,,,,2023-02-02,1,,,,,エスディーエムサービス,0
1034,4110001037274,新規,0,2023-02-02,2023-02-02,株式会社光和堂,,株式会社,新潟県,新潟市西蒲区,巻甲５６６番地,,15,108,9530041,,,,,,,2023-02-02,1,,,,,コウワドウ,0
1035,4110005016893,新規,0,2023-02-02,2023-02-02,日本リーガル行政書士法人,,その他の設立登記法人,新潟県,新潟市中央区,関屋下川原町２丁目５１番地,,15,103,9518127,,,,,,,2023-02-02,1,,,,,ニホンリーガル,0
1049,4120001252120,新規,0,2023-02-02,2023-02-02,青山機械技術株式会社,,株式会社,大阪府,大阪市住吉区,万代東１丁目３－２２メゾン東和４０１号室,,27,120,5580056,,,,,,,2023-02-02,1,,,,,アオヤマキカイギジュツ,0
1050,4120001252153,新規,0,2023-02-02,2023-02-02,株式会社マルトク,,株式会社,大阪府,大阪市浪速区,元町２丁目２番１７号,,27,111,5560016,,,,,,,2023-02-02,1,,,,,マルトク,0
1051,4120001252161,新規,0,2023-02-02,2023-02-02,株式会社Ｌｏｇｉｃ　Ｃｒｅａｔｅ,,株式会社,大阪府,大阪市淀川区,西中島３丁目１８番２１号ＮＬＣ新大阪１８号館４階,,27,123,5320011,,,,,,,2023-02-02,1,,,,,ロジッククリエイト,0
1052,4120001252252,新規,0,2023-02-02,2023-02-02,エスバリューズ株式会社,,株式会社,大阪府,大阪市中央区,瓦屋町３丁目７番２０－８０７号,,27,128,5420066,,,,,,,2023-02-02,1,,,,,エスバリューズ,0
1058,4120003023354,新規,0,2023-02-02,2023-02-02,合同会社ＴＳＳ　Ｈｏｌｄｉｎｇｓ,,合同会社,大阪府,大阪市浪速区,桜川４丁目５－１４グランパシフィック桜川ＷＥＳＴ２０１号室,,27,111,5560022,,,,,,,2023-02-02,1,,,,,ティーエスエスホールディングス,0
1059,4120003023370,新規,0,2023-02-02,2023-02-02,望遠合同会社,,合同会社,大阪府,門真市,上野口町５２番４８－２号,,27,223,5710070,,,,,,,2023-02-02,1,,,,,ボウエン,0
1064,4120103005062,新規,0,2023-02-02,2023-02-02,合同会社河藤,,合同会社,大阪府,岸和田市,河合町４５３番地の２,,27,202,5960113,,,,,,,2023-02-02,1,,,,,カワトウ,0
1066,4120903004486,新規,0,2023-02-02,2023-02-02,合同会社一咲,,合同会社,大阪府,高槻市,富田町１丁目２６番２１号矢田マンション２０３号,,27,207,5690814,,,,,,,2023-02-02,1,,,,,ヒトサキ,0
1067,4120905006423,新規,0,2023-02-02,2023-02-02,医療法人形成外科・美容皮膚科とううちクリニック,,その他の設立登記法人,大阪府,豊中市,新千里西町１丁目１番１０号ディーグラフォート千里中央１階,,27,203,5600083,,,,,,,2023-02-02,1,,,,,ケイセイゲカビヨウヒフカトウウチクリニック,0
1068,4122001036635,新規,0,2023-02-02,2023-02-02,Ｕ‐ＲＩＭＳ株式会社,,株式会社,大阪府,東大阪市,菱江３丁目１６番１６号,,27,227,5780984,,,,,,,2023-02-02,1,,,,,ユーリムズ,0
1075,4130001073598,新規,0,2023-02-02,2023-02-02,株式会社クリーンホームサービス,,株式会社,京都府,京都市右京区,太秦棚森町１番地５,,26,108,6168141,,,,,,,2023-02-02,1,,,,,クリーンホームサービス,0
1076,4130001073607,新規,0,2023-02-02,2023-02-02,株式会社ＹＭＣエンジニアリング,,株式会社,京都府,久世郡久御山町,北浦５８番地,,26,322,6130000,,,,,,,2023-02-02,1,,,,,ワイエムシーエンジニアリング,0
1077,4130001073631,新規,0,2023-02-02,2023-02-02,株式会社ＭＯＮＬＡＰＩＮ,,株式会社,京都府,京都市中京区,柳馬場通夷川上る五町目２３９番地１,,26,104,6040000,,,,,,,2023-02-02,1,,,,,モンラパン,0
1079,4130003008494,新規,0,2023-02-02,2023-02-02,合同会社アジュール,,合同会社,京都府,京都市中京区,柏屋町１６８番地２先斗町会館２０１,,26,104,6048014,,,,,,,2023-02-02,1,,,,,アジュール,0
1083,4140001128962,新規,0,2023-02-02,2023-02-02,株式会社ＳＴＮ,,株式会社,兵庫県,神戸市灘区,備後町１丁目１番７号,,28,102,6570037,,,,,,,2023-02-02,1,,,,,エスティエヌ,0
1084,4140001128995,新規,0,2023-02-02,2023-02-02,株式会社ＲＬメンテナンスサービス,,株式会社,兵庫県,神戸市中央区,旭通２丁目７－５,,28,110,6510095,,,,,,,2023-02-02,1,,,,,アールエルメンテナンスサービス,0
1087,4140005026477,新規,0,2023-02-02,2023-02-02,社会福祉法人曽根サクラ園,,その他の設立登記法人,兵庫県,高砂市,曽根町７８８番地の１,,28,216,6760082,,,,,,,2023-02-02,1,,,,,ソネサクラエン,0
1088,4160003002791,新規,0,2023-02-02,2023-02-02,合同会社ひかる,,合同会社,滋賀県,甲賀市,甲賀町田堵野５４番地,,25,209,5203426,,,,,,,2023-02-02,1,,,,,ヒカル,0
1093,4180001154708,新規,0,2023-02-02,2023-02-02,株式会社テリトリー,,株式会社,愛知県,知多郡武豊町,字内鉋３８番地の２,,23,447,4702324,,,,,,,2023-02-02,1,,,,,テリトリー,0
1094,4180001154749,新規,0,2023-02-02,2023-02-02,株式会社ＮＯＥ,,株式会社,愛知県,名古屋市中村区,若宮町１丁目６番地の４（カーサ・フィオーレＲ１０２号）,,23,105,4530023,,,,,,,2023-02-02,1,,,,,ノイ,0
1095,4180001154773,新規,0,2023-02-02,2023-02-02,株式会社ＮＫアドバンス,,株式会社,愛知県,江南市,飛高町中町６‐１,,23,217,4838067,,,,,,,2023-02-02,1,,,,,エヌケイアドバンス,0
1102,4180301037059,新規,0,2023-02-02,2023-02-02,株式会社ＩＪＳ,,株式会社,愛知県,豊田市,堤町寺池１７番地１,,23,211,4730932,,,,,,,2023-02-02,1,,,,,アイジェイエス,0
1103,4180303005591,新規,0,2023-02-02,2023-02-02,合同会社利達,,合同会社,愛知県,豊田市,篠原町敷田３７番地１８,,23,211,4700352,,,,,,,2023-02-02,1,,,,,リタツ,0
1107,4200001040913,新規,0,2023-02-02,2023-02-02,株式会社星和建装,,株式会社,岐阜県,岐阜市,大福町７丁目２０番地１コーポセブン２０３,,21,201,5020934,,,,,,,2023-02-02,1,,,,,セイワケンソウ,0
1108,4200001040921,新規,0,2023-02-02,2023-02-02,株式会社ＫＯＫＥＮＯ,,株式会社,岐阜県,多治見市,池田町４丁目８番地,,21,204,5070048,,,,,,,2023-02-02,1,,,,,コケノ,0
1109,4200003005823,新規,0,2023-02-02,2023-02-02,ＫＡＮＳＡＩ　ＡＵＴＯ合同会社,,合同会社,岐阜県,安八郡安八町,大野３７番地の１ヴィラナリー安八ＩＩ１号棟１２１号室,00129297,21,383,5030128,,,,,,,2023-02-02,1,,,,,カンサイオート,0
1119,4280001008878,新規,0,2023-02-02,2023-02-02,株式会社ニューニュートラル,,株式会社,島根県,出雲市,今市町６２８番地１,,32,203,6930001,,,,,,,2023-02-02,1,,,,,ニューニュートラル,0
1128,4290001100428,新規,0,2023-02-02,2023-02-02,株式会社Ａｍａｖｅｌ,,株式会社,福岡県,福岡市中央区,六本松４丁目２番６－７１６号,,40,133,8100044,,,,,,,2023-02-02,1,,,,,アマーベル,0
1131,4290005018939,新規,0,2023-02-02,2023-02-02,一般社団法人共創経営推進機構,,その他の設立登記法人,福岡県,福岡市博多区,博多駅前４丁目１５番６号ＦＯ　ＨＡＫＡＴＡ５Ｆ,,40,132,8120011,,,,,,,2023-02-02,1,,,,,キョウソウケイエイスイシンキコウ,0
1135,4310001018246,新規,0,2023-02-02,2023-02-02,株式会社トラステック,,株式会社,長崎県,西彼杵郡長与町,三根郷５２０番地１６４,,42,307,8512125,,,,,,,2023-02-02,1,,,,,トラステック,0
1137,4310003004509,新規,0,2023-02-02,2023-02-02,合同会社シロ,,合同会社,長崎県,佐世保市,山県町７番５号－２０１,,42,202,8570878,,,,,,,2023-02-02,1,,,,,,0
1140,4330001030554,新規,0,2023-02-02,2023-02-02,株式会社ギフテッドスクール,,株式会社,熊本県,合志市,豊岡２０００番地９３６,,43,216,8611115,,,,,,,2023-02-02,1,,,,,ギフテッドスクール,0
1147,4370001049566,新規,0,2023-02-02,2023-02-02,中村不動産株式会社,,株式会社,宮城県,仙台市若林区,大和町４丁目１０番１号,,04,103,9840042,,,,,,,2023-02-02,1,,,,,ナカムラフドウサン,0
1150,4380001033453,新規,0,2023-02-02,2023-02-02,株式会社ガジュマル,,株式会社,福島県,南相馬市,鹿島区寺内字鷹巣２３０番地,,07,212,9792333,,,,,,,2023-02-02,1,,,,,ガジュマル,0
1159,4430001088327,新規,0,2023-02-02,2023-02-02,ジョイプレイス株式会社,,株式会社,北海道,札幌市厚別区,厚別町山本１０６６番９０,,01,108,0040069,,,,,,,2023-02-02,1,,,,,ジョイプレイス,0
1160,4430001088335,新規,0,2023-02-02,2023-02-02,セリナ株式会社,,株式会社,北海道,夕張市,清水沢２丁目６１番地,,01,209,0680531,,,,,,,2023-02-02,1,,,,,セリナ,0
1161,4430003014702,新規,0,2023-02-02,2023-02-02,合同会社ＭＩＹＡＢＩ,,合同会社,北海道,札幌市清田区,平岡公園東９丁目５番１０号,,01,110,0040882,,,,,,,2023-02-02,1,,,,,ミヤビ,0
1163,4450003002291,新規,0,2023-02-02,2023-02-02,ＢＡＳＩＣ　ＮＥＣＥＳＳＩＴＹ合同会社,,合同会社,北海道,富良野市,幸町７番２４号,,01,229,0760024,,,,,,,2023-02-02,1,,,,,ベーシックネセッシッティー,0
1168,4470001019451,新規,0,2023-02-02,2023-02-02,株式会社淑生,,株式会社,香川県,善通寺市,吉原町２２０１番地,,37,204,7650061,,,,,,,2023-02-02,1,,,,,シュクセイ,0
1170,4480001011993,新規,0,2023-02-02,2023-02-02,株式会社ｙ’ｓ　ｈｏｍｅ,,株式会社,徳島県,徳島市,大原町中須１４３番地,,36,201,7708012,,,,,,,2023-02-02,1,,,,,ワイズホーム,0
1173,4500003002971,新規,0,2023-02-02,2023-02-02,合同会社ダイコウ,,合同会社,愛媛県,四国中央市,金生町下分１９６番地１,,38,213,7990111,,,,,,,2023-02-02,1,,,,,ダイコウ,0
1174,4700150113782,新規,0,2023-02-02,2023-01-17,カツラギ企画,,その他,東京都,国立市,西１丁目１０－３１．１－１０２,,13,215,1860005,,,,,,,2023-01-17,1,,,,,カツラギキカク,0
1175,4700150113790,新規,0,2023-02-02,2023-01-18,Ｍｕｓｉｃａ　Ｓｏａｖｅ,,その他,千葉県,市川市,市川４丁目４－２２日神パレステージ市川９０１,,12,203,2720034,,,,,,,2023-01-18,1,,,,,ムジカソアーベ,0
1176,4700150114095,新規,0,2023-02-02,2023-02-02,ｘｉ’ａｎ　ｂｕ　ｎａ　ｎａ　ｄｉａｎ　ｚｉ　ｓｈａｎｇ　ｗｕ　ｙｏｕ　ｘｉａｎ　ｇｏｎｇ　ｓｉ,,外国会社等,,,,,,,,ｑｕｊｉａｎｇｘｉｎｑｕｇｏｎｇｊｉａｎｌｕ１ｈａｏｈｕａｎｑｉｕｚｈｏｎｇｘｉｎＡｄｏｎｇ１３ｃｅｎｇ１３１１ｓｈｉ　ｘｉ’ａｎ　ｓｈａｎｘｉ，Ｃｈｉｎａ,,,,,,2023-02-02,1,,,,,シアンブナナディンシショウムユウゲンコウシ,0
1177,4700150114104,新規,0,2023-02-02,2023-02-02,ｎｉｎｇｘｉａｙｕｎｚｈｉｇｅｋｅｊｉｙｏｕｘｉａｎｇｏｎｇｓｉ,,外国会社等,,,,,,,,ｈｅ　ｌａｎ　ｓｈａｎ　ｘｉ　ｌｕ　ｊｉｅ　ｄａｏ　ｙｉｎ　ｃｈｕａｎ　ｚｈｏｎｇ　ｇｕａｎ　ｃｕｎ　ｃｈｕａｎｇ　ｘｉｎ　ｚｈｏｎｇ　ｘｉｎ　Ｂｚｕｏ　ｅｒ　ｃｅｎｇ　Ｂ－３３１ＣＰ，ｙｉｎ　ｃｈｕａｎ　ｓｈｉ　ｎｉｎｇ　ｘｉａ　ｈｕｉ　ｚｕ　ｚｉ　ｚｈｉ　ｑｕ　ｘｉ　ｘｉａ　ｑｕ，Ｃｈｉｎａ,,,,,,2023-02-02,1,,,,,ネイカウンノカカギユウゲンコウシ,0
1178,4700150114112,新規,0,2023-02-02,2023-02-02,ｓｈｅｎｚｈｅｎ　ｌｅａｄｒｏａｄ　ｅｌｅｃｔｒｏｎｉｃ　ｃｏ．，ｌｔｄ,,外国会社等,,,,,,,,２ｎｄ　Ｆｌｏｏｒ，Ｂｕｉｌｄｉｎｇ　Ｇ，Ｗａｎｄａ　Ｉｎｄｕｓｔｒｉａｌ　Ｐａｒｋ，Ｚｈｏｕｓｈｉ　Ｒｏａｄ，Ｌａｎｇｘｉｎ　Ｃｏｍｍｕｎｉｔｙ，Ｓｈｉｙａｎ　Ｓｔｒｅｅｔ，Ｂａｏａｎ　Ｄｉｓｔｒｉｃｔ，Ｓｈｅｎｚｈｅｎ,,,,,,2023-02-02,1,,,,,シンセンリードロードイレクトニクユウゲンコウシ,0
1179,4700150114120,新規,0,2023-02-02,2023-02-02,カルム六本木マンション建替組合,,その他,東京都,港区,芝５丁目３０番１－６０２号,,13,103,1080014,,,,,,,2023-02-02,1,,,,,カルムロツポンギマンシヨンタテカエクミアイ,0
1180,4700150114129,新規,0,2023-02-02,2023-02-02,ＮＡＣ　Ａｖｉａｔｉｏｎ　３８　Ｌｔｄ,,外国会社等,,,,,,,,Ｇａｒｄｅｎｓ　Ｉｎｔｅｒｎａｔｉｏｎａｌ，Ｈｅｎｒｙ　Ｓｔｒｅｅｔ，Ｌｉｍｅｒｉｃｋ　Ｖ９４　４Ｄ８３,,,,,,2023-02-02,1,,,,,エヌエーシーエヴイエイシヨンサーテイエイトリミテツド,0
1181,4700150114145,新規,0,2023-02-02,2023-02-02,Ｓｈｅｎｚｈｅｎｓｈｉ　ｍａｉｇｏｕｃｈｕａｎｇｘｉｎ　ｋｅｊｉｙｏｕｘｉａｎｇｏｎｇｓｉ,,外国会社等,,,,,,,,Ｆｕｔｉａｎｑｕ，ｓｈａｔｏｕｊｉｅｄａｏ，ｆｕｑｉａｎｇｌｕ，ｊｉｎｄｉｈｕａｙｕａｎ３０９ｄｏｎｇ７１１，Ｓｈｅｎｚｈｅｎｓｈｉ，Ｇｕａｎｇｄｏｎｇｓｈｅｎｇ，Ｃｈｉｎａ,,,,,,2023-02-02,1,,,,,シンセンシマイゴウチャンシンケジユウゲンコウシ,0
1182,4700150114153,新規,0,2023-02-02,2023-02-02,水島コンビナート地区保安防災協議会,,その他,岡山県,倉敷市,潮通３丁目１０番地　三菱ケミカル（株）環境安全・品質保証部,,33,202,7128054,,,,,,,2023-02-02,1,,,,,ミズシマコンビナートチクホアンボウサイキョウギカイ,0
1183,4700150114161,新規,0,2023-02-02,2023-02-02,Ｓｈａｎｇｈａｉ　Ｃｏａｔｅｘ　Ｉｎｄｕｓｔｒｙ　Ｃｏ．，Ｌｔｄ,,外国会社等,,,,,,,,Ｒｏｏｍ　１２１２，９３９　Ｊｉｎｑｉａｏ　ｒｏａｄ，Ｓｈａｎｇｈａｉ　Ｓｈａｎｇｈａｉ，ｃｈｉｎａ,,,,,,2023-02-02,1,,,,,シャンハイコアテックスインダストリーカンパニーリミテッド,0
1186,5010001232702,新規,0,2023-02-02,2023-02-02,株式会社ＥＮＥＧＵＲＹ,,株式会社,東京都,中央区,銀座１丁目１２－４Ｎ＆ＥＢＬＤ．７階,,13,102,1040061,,,,,,,2023-02-02,1,,,,,エネグリー,0
1187,5010003039740,新規,0,2023-02-02,2023-02-02,合同会社ｉＡ,,合同会社,東京都,文京区,本駒込４丁目３１番９号２０２号室,,13,105,1130021,,,,,,,2023-02-02,1,,,,,アイエー,0
1198,5010401172201,新規,0,2023-02-02,2023-02-02,啓明株式会社,,株式会社,東京都,港区,赤坂４丁目７番６号,,13,103,1070052,,,,,,,2023-02-02,1,,,,,ケイメイ,0
1199,5010403029432,新規,0,2023-02-02,2023-02-02,ＢＰＭ１２８合同会社,,合同会社,東京都,港区,南青山２丁目２番１５号,,13,103,1070062,,,,,,,2023-02-02,1,,,,,,0
1201,5010501049951,新規,0,2023-02-02,2023-02-02,株式会社ランドスター,,株式会社,東京都,台東区,上野６丁目１番６号御徒町グリーンハイツ５１１号室,,13,106,1100005,,,,,,,2023-02-02,1,,,,,ランドスター,0
1204,5010601062516,新規,0,2023-02-02,2023-02-02,株式会社ＰｒｏＤｅｅｄ,,株式会社,東京都,江東区,豊洲４丁目９番１３－１６０１号,,13,108,1350061,,,,,,,2023-02-02,1,,,,,プロディード,0
1207,5010603009977,新規,0,2023-02-02,2023-02-02,合同会社ＨＭＣ,,合同会社,東京都,江東区,東砂７丁目１０－３ジオ南砂町６２０,,13,108,1360074,,,,,,,2023-02-02,1,,,,,エイチエムシー,0
1208,5010605004167,新規,0,2023-02-02,2023-02-02,一般社団法人東京ビジュアルアーカイブス,,その他の設立登記法人,東京都,江東区,富岡１丁目２２番１０号,,13,108,1350047,,,,,,,2023-02-02,1,,,,,トウキョウビジュアルアーカイブス,0
1221,5010901052431,新規,0,2023-02-02,2023-02-02,ティーケーラボ株式会社,,株式会社,東京都,世田谷区,世田谷４丁目５番２２号,,13,112,1540017,,,,,,,2023-02-02,1,,,,,ティーケーラボ,0
1223,5010903007937,新規,0,2023-02-02,2023-02-02,合同会社Ｒｏｏｔｓ‐Ｊ,,合同会社,東京都,世田谷区,北烏山１丁目４７番１４号,,13,112,1570061,,,,,,,2023-02-02,1,,,,,,0
1227,5011001152221,新規,0,2023-02-02,2023-02-02,株式会社ＰｒｏＮｅｓ,,株式会社,東京都,目黒区,碑文谷４丁目２４番１３－３０１号西悠ビル,,13,110,1520003,,,,,,,2023-02-02,1,,,,,プロネス,0
1228,5011001152337,新規,0,2023-02-02,2023-02-02,株式会社ｄｏｌｏｈ,,株式会社,東京都,渋谷区,鶯谷町２番９号クレセール代官山１階,,13,113,1500032,,,,,,,2023-02-02,1,,,,,ドロー,0
1234,5011101101722,新規,0,2023-02-02,2023-02-02,株式会社ＩＮＮＯＶＥＸＴ,,株式会社,東京都,新宿区,西新宿３丁目３番１３号西新宿水間ビル６階,,13,104,1600023,,,,,,,2023-02-02,1,,,,,イノベクスト,0
1240,5011401024879,新規,0,2023-02-02,2023-02-02,株式会社Ｋ．Ｙ．コーポレーション,,株式会社,東京都,板橋区,若木１丁目２７－１パークエステート５０９,,13,119,1740065,,,,,,,2023-02-02,1,,,,,ケーワイコーポレーション,0
1241,5011403003897,新規,0,2023-02-02,2023-02-02,ＳＳ　ＩＮＴＥＲＮＡＴＩＯＮＡＬ合同会社,,合同会社,東京都,板橋区,大山金井町４４－３八光荘１階１０５号室,,13,119,1730024,,,,,,,2023-02-02,1,,,,,エスエスインターナショナル,0
1244,5011503005463,新規,0,2023-02-02,2023-02-02,ＫＭ合同会社,,合同会社,東京都,北区,上十条３丁目２０番４号２０２号室,,13,117,1140034,,,,,,,2023-02-02,1,,,,,ケイエム,0
1249,5012701017457,新規,0,2023-02-02,2023-02-02,株式会社ソル・ラケット一級建築士事務所,,株式会社,東京都,西東京市,芝久保町３丁目１５番２１号,,13,229,1880014,,,,,,,2023-02-02,1,,,,,ソルラケットイッキュウケンチクシジムショ,0
1251,5012801022126,新規,0,2023-02-02,2023-02-02,株式会社紫龍設備,,株式会社,東京都,武蔵村山市,伊奈平５丁目１７番地の３２,,13,223,2080023,,,,,,,2023-02-02,1,,,,,シリュウセツビ,0
1265,5020001150003,新規,0,2023-02-02,2023-02-02,株式会社ＫＡＧＵ工房,,株式会社,神奈川県,川崎市宮前区,南野川２丁目２２番６号,,14,136,2160042,,,,,,,2023-02-02,1,,,,,カグコウボウ,0
1266,5020001150077,新規,0,2023-02-02,2023-02-02,株式会社アスライ,,株式会社,神奈川県,川崎市幸区,南加瀬４丁目２０番２５号プピレ・ＨＫ２０３,,14,132,2120055,,,,,,,2023-02-02,1,,,,,アスライ,0
1271,5021001078127,新規,0,2023-02-02,2023-02-02,株式会社トイセル,,株式会社,神奈川県,横須賀市,夏島町２番地１５,,14,201,2370061,,,,,,,2023-02-02,1,,,,,トイセル,0
1286,5040001126810,新規,0,2023-02-02,2023-02-02,株式会社ＳＩＷＯＯ,,株式会社,千葉県,千葉市稲毛区,稲毛東６丁目５番１６号ビューシティＩＮＡＧＥ２１０,,12,103,2630031,,,,,,,2023-02-02,1,,,,,シウ,0
1290,5040003021852,新規,0,2023-02-02,2023-02-02,合同会社Ｃｉｎｋａ,,合同会社,千葉県,松戸市,六高台９丁目７０番地８０２,,12,207,2702203,,,,,,,2023-02-02,1,,,,,シンカ,0
1295,5050001052320,新規,0,2023-02-02,2023-02-02,株式会社ＳＫＹ　ＷＯＲＫ　ＡＧＲＩＳＳ,,株式会社,茨城県,石岡市,鹿の子１丁目７番４４号,,08,205,3150005,,,,,,,2023-02-02,1,,,,,スカイワークアグリス,0
1302,5080001025447,新規,0,2023-02-02,2023-02-02,大森静興株式会社,,株式会社,静岡県,静岡市駿河区,東新田５丁目１３番１７号サニーサイドＡ１０１,,22,102,4210112,,,,,,,2023-02-02,1,,,,,オオモリセイコウ,0
1307,5080401026292,新規,0,2023-02-02,2023-02-02,株式会社中野建設,,株式会社,静岡県,浜松市天竜区,佐久間町川合７３８番地の３,,22,137,4313907,,,,,,,2023-02-02,1,,,,,ナカノケンセツ,0
1308,5080403004718,新規,0,2023-02-02,2023-02-02,Ｋ＆Ｋ合同会社,,合同会社,静岡県,浜松市東区,植松町５８番地の１０,,22,132,4300803,,,,,,,2023-02-02,1,,,,,ケーアンドケー,0
1311,5100001036111,新規,0,2023-02-02,2023-02-02,株式会社矢嶋地質,,株式会社,長野県,長野市,七二会乙２６３４番地,,20,201,3813164,,,,,,,2023-02-02,1,,,,,ヤジマチシツ,0
1316,5120001252103,新規,0,2023-02-02,2023-02-02,株式会社佳美天盛,,株式会社,大阪府,門真市,常称寺町２１番２号,,27,223,5710063,,,,,,,2023-02-02,1,,,,,ヨシミテンジョウ,0
1317,5120001252160,新規,0,2023-02-02,2023-02-02,株式会社ナイズオン,,株式会社,大阪府,大阪市西区,北堀江４丁目１４番１号旭ビル３Ｆ,,27,106,5500014,,,,,,,2023-02-02,1,,,,,ナイズオン,0
1318,5120001252185,新規,0,2023-02-02,2023-02-02,瑞諾株式会社,,株式会社,大阪府,大阪市城東区,蒲生３丁目１５番１２号セザンヌ藤２０３Ｂ,,27,118,5360016,,,,,,,2023-02-02,1,,,,,ズイダク,0
1319,5120001252202,新規,0,2023-02-02,2023-02-02,株式会社創生ビルダーズ,,株式会社,大阪府,大阪市東淀川区,南江口２丁目７番１９号３階,,27,114,5330003,,,,,,,2023-02-02,1,,,,,ソウセイビルダーズ,0
1325,5120003023345,新規,0,2023-02-02,2023-02-02,ｏｈａｎａ　ＭＰ合同会社,,合同会社,大阪府,大阪市住吉区,我孫子４丁目５番２８号,,27,120,5580014,,,,,,,2023-02-02,1,,,,,オハナエムピー,0
1328,5120103005061,新規,0,2023-02-02,2023-02-02,合同会社Ｂｅｌｌｅｚｅｌｌ,,合同会社,大阪府,堺市中区,辻之３６５番地２３,00129299,27,142,5998245,,,,,,,2023-02-02,1,,,,,ベルゼル,0
1335,5130001073606,新規,0,2023-02-02,2023-02-02,株式会社ＣＣＪ,,株式会社,京都府,京都市右京区,山ノ内荒木町１２番地１,,26,108,6150073,,,,,,,2023-02-02,1,,,,,シーシージェイ,0
1349,5150003002866,新規,0,2023-02-02,2023-02-02,合同会社よしのの森から,,合同会社,奈良県,吉野郡東吉野村,大字麥谷２３９－１,,29,453,6332443,,,,,,,2023-02-02,1,,,,,ヨシノノモリカラ,0
1350,5150003002874,新規,0,2023-02-02,2023-02-02,合同会社Ｃｒｕｘ,,合同会社,奈良県,生駒市,小明町９７０番地７,,29,209,6300201,,,,,,,2023-02-02,1,,,,,クラックス,0
1360,5180001154748,新規,0,2023-02-02,2023-02-02,グラストシンシア株式会社,,株式会社,愛知県,名古屋市千種区,春岡１丁目２番１９号（伊藤ビル７０２号）,,23,101,4640848,,,,,,,2023-02-02,1,,,,,グラストシンシア,0
1361,5180001154756,新規,0,2023-02-02,2023-02-02,株式会社大平工業,,株式会社,愛知県,名古屋市中川区,伏屋５丁目３０５番地,,23,110,4540996,,,,,,,2023-02-02,1,,,,,オオヒラコウギョウ,0
1362,5180001154772,新規,0,2023-02-02,2023-02-02,株式会社テイクアールズ,,株式会社,愛知県,清須市,阿原神門１９４番地８,,23,233,4520901,,,,,,,2023-02-02,1,,,,,テイクアールズ,0
1363,5180001154789,新規,0,2023-02-02,2023-02-02,株式会社ＫＴＬ,,株式会社,愛知県,知多郡東浦町,大字石浜字黒鳥５４番地の２,,23,442,4702103,,,,,,,2023-02-02,1,,,,,ケイティーエル,0
1369,5180003024809,新規,0,2023-02-02,2023-02-02,合同会社東海環境リサーチ,,合同会社,愛知県,小牧市,小松寺２丁目２５５番地１２,,23,219,4850828,,,,,,,2023-02-02,1,,,,,トウカイカンキョウリサーチ,0
1371,5180301037058,新規,0,2023-02-02,2023-02-02,株式会社アジャスト,,株式会社,愛知県,安城市,高棚町郷４７１番地,,23,212,4460053,,,,,,,2023-02-02,1,,,,,アジャスト,0
1380,5210001019220,新規,0,2023-02-02,2023-02-02,株式会社ＭＯＦ,,株式会社,福井県,坂井市,三国町北本町１丁目４番３８号,,18,210,9130046,,,,,,,2023-02-02,1,,,,,モフ,0
1384,5260003004190,新規,0,2023-02-02,2023-02-02,合同会社和希工業,,合同会社,岡山県,岡山市中区,乙多見３５２番地１７,,33,102,7038228,,,,,,,2023-02-02,1,,,,,カズキコウギョウ,0
1389,5290001100311,新規,0,2023-02-02,2023-02-02,株式会社野中産業,,株式会社,福岡県,久留米市,津福本町８６７番地１サンライトビル１０５号室,,40,203,8300047,,,,,,,2023-02-02,1,,,,,ノナカサンギョウ,0
1390,5290001100443,新規,0,2023-02-02,2023-02-02,株式会社銀翼荘,,株式会社,福岡県,糟屋郡篠栗町,和田４丁目１０番１２号,,40,342,8112414,,,,,,,2023-02-02,1,,,,,ギンヨクソウ,0
1391,5290001100451,新規,0,2023-02-02,2023-02-02,株式会社Ｌｉｓａ,,株式会社,福岡県,大野城市,牛頸２丁目４番２０号,,40,219,8160971,,,,,,,2023-02-02,1,,,,,リサ,0
1392,5290001100484,新規,0,2023-02-02,2023-02-02,株式会社懸け橋,,株式会社,福岡県,久留米市,東合川２丁目４番７号,,40,203,8390809,,,,,,,2023-02-02,1,,,,,カケハシ,0
1395,5310001018245,新規,0,2023-02-02,2023-02-02,株式会社オフィスリープ,,株式会社,長崎県,諫早市,多良見町化屋７６０番地１５－２０１号,,42,204,8590401,,,,,,,2023-02-02,1,,,,,,0
1398,5310005008655,新規,0,2023-02-02,2023-02-02,特定非営利活動法人つぼみの森,,その他の設立登記法人,長崎県,長崎市,昭和３丁目２２１番地３,,42,201,8528145,,,,,,,2023-02-02,1,,,,,,0
1399,5320001019548,新規,0,2023-02-02,2023-02-02,株式会社Ｐｌａｃｅ　Ｏｆ　Ｒｅｂｉｒｔｈ,,株式会社,大分県,大分市,王子中町８番４０号,,44,201,8700006,,,,,,,2023-02-02,1,,,,,プレイスオブリバース,0
1401,5330001030553,新規,0,2023-02-02,2023-02-02,株式会社アーデン,,株式会社,熊本県,熊本市東区,長嶺南４丁目１１番７９号,,43,102,8618039,,,,,,,2023-02-02,1,,,,,アーデン,0
1403,5340001025346,新規,0,2023-02-02,2023-02-02,株式会社岩川工業,,株式会社,鹿児島県,鹿児島市,清和３丁目２９番２１号,,46,201,8910109,,,,,,,2023-02-02,1,,,,,イワカワコウギョウ,0
1405,5350001018167,新規,0,2023-02-02,2023-02-02,株式会社コーガ,,株式会社,宮崎県,延岡市,長浜町３丁目４９９３番地２７０,,45,203,8820854,,,,,,,2023-02-02,1,,,,,コーガ,0
1409,5360003012679,新規,0,2023-02-02,2023-02-02,合同会社ｚｅｒｏ　ｓｔｅｐ,,合同会社,沖縄県,那覇市,鏡原町１６番１５号安仁屋アパート２０１,,47,201,9010151,,,,,,,2023-02-02,1,,,,,ゼロステップ,0
1410,5370001049565,新規,0,2023-02-02,2023-02-02,株式会社シュガー,,株式会社,宮城県,仙台市若林区,大和町５丁目８番２０－１２０５号,,04,103,9840042,,,,,,,2023-02-02,1,,,,,シュガー,0
1416,5390001017157,新規,0,2023-02-02,2023-02-02,ｓｐｉｃａ株式会社,,株式会社,山形県,天童市,東本町２丁目６番２４号,,06,210,9940026,,,,,,,2023-02-02,1,,,,,スピカ,0
1423,5430001088367,新規,0,2023-02-02,2023-02-02,株式会社パルテノス,,株式会社,北海道,札幌市東区,北三十三条東７丁目２番３号パルテノスＤ１０４号,,01,103,0650033,,,,,,,2023-02-02,1,,,,,パルテノス,0
1425,5430003014701,新規,0,2023-02-02,2023-02-02,合同会社プーピエンタ,,合同会社,北海道,札幌市北区,北三十七条西４丁目１番３０号,,01,102,0010037,,,,,,,2023-02-02,1,,,,,プーピエンタ,0
1443,5500001024744,新規,0,2023-02-02,2023-02-02,株式会社フィン・スタイル,,株式会社,愛媛県,松山市,鹿峰３６９番地４,,38,201,7992461,,,,,,,2023-02-02,1,,,,,フィンスタイル,0
1444,5500003002970,新規,0,2023-02-02,2023-02-02,合同会社匠桜工業,,合同会社,愛媛県,今治市,延喜甲５６２番地,,38,202,7940084,,,,,,,2023-02-02,1,,,,,ショウオウコウギョウ,0
1446,5700150114094,新規,0,2023-02-02,2023-02-02,ｓｈｅｎｚｈｅｎｓｈｉｙｉｎｇｃｈｕａｎｇｋｅｊｉｙｏｕｘｉａｎｇｏｎｇｓｉ,,外国会社等,,,,,,,,ｓｈｅｎｚｈｅｎｓｈｉｂａｏａｎｑｕｆｕｈａｉｊｉｅｄａｏｑｉａｏｔｏｕｓｈｅｑｕｌｉｘｉｎｌｕ２ｈａｏｔｉａｎｙｏｕｃｈｕａｎｇｋｅｃｈａｎｙｅｙｕａｎＦ１Ｆ３－１０１－２０１－Ｆ２－３０１，Ｃｈｉｎａ,,,,,,2023-02-02,1,,,,,シンセンシエイソウカギユウゲンコウシ,0
1447,5700150114103,新規,0,2023-02-02,2023-02-02,ＳＨＥＮＺＨＥＮ　ＨＵＡＳＨＡＮＧＰＡＩ　ＫＥＪＩ　ＹＯＵＸＩＡＮＧＯＮＧＳＩ,,外国会社等,,,,,,,,ｓｈｅｎｚｈｅｎｓｈｉ　ｌｏｎｇｈｕａｑｕ　ｌｏｎｇｈｕａｊｉｅｄａｏ　ｊｉｎｇｌｏｎｇｓｈｅｑｕｌｏｎｇｆａｌｕ，ｆｕｔｏｎｇｔｉａｎｊｕｎＡ１ｄａｎｙｕａｎ８０４，Ｃｈｉｎａ,,,,,,2023-02-02,1,,,,,シンセンシショウハイカギユウゲンコウシ,0
1448,5700150114111,新規,0,2023-02-02,2023-02-02,Ｃｈａｎ　Ｍａｏ　Ｔｅｃｈｎｏｌｏｇｙ　Ｌｔｄ．,,外国会社等,,,,,,,,４Ｆ－１．，Ｎｏ．２６，Ｗｕｑｕａｎ　２ｎｄ　Ｒｄ．，Ｘｉｎｚｈｕａｎｇ　Ｄｉｓｔ．，Ｎｅｗ　Ｔａｉｐｅｉ　Ｃｉｔｙ　２４２，Ｔａｉｗａｎ（Ｒ．Ｏ．Ｃ．）,,,,,,2023-02-02,1,,,,,テンモウテクノロジーユウゲンコウシ,0
1449,5700150114144,新規,0,2023-02-02,2023-02-02,Ｓｈｅｎｚｈｅｎ　Ｄｅｓｈｕｎｋｅ　Ｔｅｃｈｎｏｌｏｇｙ　Ｃｏ．，Ｌｔｄ,,外国会社等,,,,,,,,Ｒｏｏｍ２０９，Ｗｅｓｔ－Ｆｌｏｏｒ２，Ｂｕｉｌｄｉｎｇ１０，Ｙｉｎｈａｉ　Ｉｎｄｕｓｔｒｙ，Ｌｏｎｇｇａｎｇ　Ａｒｅａ　Ｓｈｅｎｚｈｅｎ　Ｇｕａｎｇｄｏｎｇ　Ｃｈｉｎａ,,,,,,2023-02-02,1,,,,,シンセンデシュンケテクノロジーカンパニーリミテッド,0
1450,5700150114160,新規,0,2023-02-02,2023-02-02,ｓｈｅｎｚｈｅｎｓｈｉ　ｙｉｆｅｉｘｕｎ　ｍａｏｙｉ　ｙｏｕｘｉａｎｇｏｎｇｓｉ,,外国会社等,,,,,,,,Ｘｉｎｍａｏ　ｘｉｅｚｉｌｏｕ　Ｂ－３０１８，Ｓｈｅｎｚｈｅｎ，Ｌｏｎｇｈｕａ，Ｍｉｎｚｈｉ，ＧｕａｎｇＤｏｎｇ，ＣＮ,,,,,,2023-02-02,1,,,,,シンセンシイフェイスンマオイユウゲンコウシ,0
1451,5700150114169,新規,0,2023-02-02,2023-02-02,Ｓｈｅｎｚｈｅｎ　Ｌｉａｎｙｉｎｇ　Ｉｎｔｅｒｎａｔｉｏｎａｌ　Ｔｒａｄｅ　Ｃｏ．，Ｌｔｄ．,,外国会社等,,,,,,,,Ｒｏｏｍ　１，Ｂｕｉｌｄｉｎｇ　６，Ｚｈｕｇｕｓｈｉ　Ｓｅｃｏｎｄ　Ｉｎｄｕｓｔｒｉａｌ　Ｚｏｎｅ，Ｗｕｌｉａ　Ｃｏｍｍｕｎｉｔｙ，Ｌｏｎｇｇａｎｇ　Ｓｔｒｅｅｔ，Ｌｏｎｇｇａｎｇ　Ｄｉｓｔｒｉｃｔ，Ｓｈｅｎｚｈｅｎ，Ｃｈｉｎａ,,,,,,2023-02-02,1,,,,,シンセンリアニングインターナショナルトレードカンパニーリミテッド,0
1452,5700150114177,新規,0,2023-02-02,2023-02-02,Ｇｕａｎｇｚｈｏｕ　Ｊｉｅｍｅｎｇ　Ｂｕｓｉｎｅｓｓ　Ｃｏｎｓｕｌｔｉｎｇ　Ｃｏ．，Ｌｔｄ．,,外国会社等,,,,,,,,Ｒｏｏｍ　１０１（Ｏｆｆｉｃｅ　ｕｓｅ　ｏｎｌｙ），Ｎｏ．６－２，Ｙｕｘｉ　Ｒｏａｄ，Ｔｉａｎｈｅ　Ｄｉｓｔｒｉｃｔ，Ｇｕａｎｇｚｈｏｕ，Ｇｕａｎｇｄｏｎｇ，ｃｈｉｎａ,,,,,,2023-02-02,1,,,,,ゴンジョウジエメンビジネスコンサルティングカンパニーリミテッド,0
1469,6010005036207,新規,0,2023-02-02,2023-02-02,一般社団法人遠隔集中治療サービス提供者協会,,その他の設立登記法人,東京都,文京区,湯島１丁目５番４５号ＭＤタワー１６階南Ｓ１６５３,,13,105,1130034,,,,,,,2023-02-02,1,,,,,エンカクシュウチュウチリョウサービステイキョウシャキョウカイ,0
1470,6010101015510,新規,0,2023-02-02,2023-02-02,Ｍ＆Ｈハウジングデザインオフィス株式会社,,株式会社,東京都,八王子市,元八王子町２丁目１９０６番地,,13,201,1930826,,,,,,,2023-02-02,1,,,,,エムアンドエイチハウジングデザインオフィス,0
1477,6010401172225,新規,0,2023-02-02,2023-02-02,株式会社えくすかりばあ,,株式会社,東京都,港区,南麻布４丁目２番１９号,,13,103,1060047,,,,,,,2023-02-02,1,,,,,エクスカリバア,0
1478,6010401172258,新規,0,2023-02-02,2023-02-02,株式会社トラスティブリッジ,,株式会社,東京都,港区,赤坂７丁目５番３４－５３８号インペリアル赤坂フォラム,,13,103,1070052,,,,,,,2023-02-02,1,,,,,トラスティブリッジ,0
1480,6010403029431,新規,0,2023-02-02,2023-02-02,合同会社赤坂会計事務所,,合同会社,東京都,港区,赤坂７丁目５番１０号,,13,103,1070052,,,,,,,2023-02-02,1,,,,,アカサカカイケイジムショ,0
1483,6010501049950,新規,0,2023-02-02,2023-02-02,株式会社ＳＴＯＲＩＥＳ,,株式会社,東京都,台東区,上野２丁目５番３号ＳＮビル３Ｆ,,13,106,1100005,,,,,,,2023-02-02,1,,,,,ストーリーズ,0
1494,6010901052422,新規,0,2023-02-02,2023-02-02,株式会社Ａｌｉｖｅ,,株式会社,東京都,世田谷区,深沢５丁目５番１６号,,13,112,1580081,,,,,,,2023-02-02,1,,,,,アライブ,0
1495,6010901052455,新規,0,2023-02-02,2023-02-02,株式会社ＴＥＮＣＨＩＬＬ,,株式会社,東京都,世田谷区,上用賀５丁目２７番２０号さくらレジデンスＡ,,13,112,1580098,,,,,,,2023-02-02,1,,,,,テンチル,0
1502,6011003016200,新規,0,2023-02-02,2023-02-02,合同会社ＯＹＡ商会,,合同会社,東京都,渋谷区,恵比寿南３丁目１番１号,,13,113,1500022,,,,,,,2023-02-02,1,,,,,オオヤショウカイ,0
1503,6011003016209,新規,0,2023-02-02,2023-02-02,エフ・アール・マネージメント合同会社,,合同会社,東京都,渋谷区,道玄坂１丁目１０番８号渋谷道玄坂東急ビル２Ｆ－Ｃ,,13,113,1500043,,,,,,,2023-02-02,1,,,,,エフアールマネージメント,0
1510,6011301028426,新規,0,2023-02-02,2023-02-02,株式会社センチュリーリアルティ,,株式会社,東京都,杉並区,荻窪３丁目４７番１７号,,13,115,1670051,,,,,,,2023-02-02,1,,,,,センチュリーリアルティ,0
1516,6011803005492,新規,0,2023-02-02,2023-02-02,虹の谷合同会社,,合同会社,東京都,葛飾区,新小岩２丁目３９番１０号,,13,122,1240024,,,,,,,2023-02-02,1,,,,,ニジノタニ,0
1520,6012403005809,新規,0,2023-02-02,2023-02-02,ＹＲＳ合同会社,,合同会社,東京都,三鷹市,新川４丁目３－３－４０７,,13,204,1810004,,,,,,,2023-02-02,1,,,,,ワイアールエス,0
1524,6013303006483,新規,0,2023-02-02,2023-02-02,合同会社金路,,合同会社,東京都,豊島区,池袋１丁目２番６号ベルメゾン池袋４０７室,,13,116,1700014,,,,,,,2023-02-02,1,,,,,キンロ,0
1529,6020003023230,新規,0,2023-02-02,2023-02-02,合同会社リテラシス,,合同会社,神奈川県,横浜市西区,浅間町１丁目４番地３,,14,103,2200072,,,,,,,2023-02-02,1,,,,,リテラシス,0
1532,6021001078084,新規,0,2023-02-02,2023-02-02,株式会社東亜住宅,,株式会社,神奈川県,相模原市緑区,橋本３丁目２７番６号Ｓ＆Ｙビル４Ｆ－０１,,14,151,2520143,,,,,,,2023-02-02,1,,,,,トウアジュウタク,0
1535,6021003012702,新規,0,2023-02-02,2023-02-02,ｂｌｏｏｍ合同会社,,合同会社,神奈川県,足柄下郡湯河原町,吉浜２０２１番地の１０５,,14,384,2590312,,,,,,,2023-02-02,1,,,,,ブルーム,0
1536,6021003012710,新規,0,2023-02-02,2023-02-02,合同会社あまなつ,,合同会社,神奈川県,厚木市,温水西１丁目２２番１８号,,14,212,2430039,,,,,,,2023-02-02,1,,,,,アマナツ,0
1539,6030001152170,新規,0,2023-02-02,2023-02-02,Ｋ‐ｓｋｙマネジメント株式会社,,株式会社,埼玉県,さいたま市浦和区,仲町２丁目１０番２０－６０２号,,11,107,3300062,,,,,,,2023-02-02,1,,,,,ケースカイ,0
1540,6030001152245,新規,0,2023-02-02,2023-02-02,株式会社ＮＳＳ,,株式会社,埼玉県,狭山市,富士見１丁目１４番６号速玉テラス１階,,11,215,3501306,,,,,,,2023-02-02,1,,,,,エヌエスエス,0
1545,6030003021092,新規,0,2023-02-02,2023-02-02,合同会社ＷＩＬＬ,,合同会社,埼玉県,所沢市,緑町３丁目４０番１０号,,11,208,3591111,,,,,,,2023-02-02,1,,,,,ウィル,0
1548,6040001126875,新規,0,2023-02-02,2023-02-02,株式会社スクエアサポート,,株式会社,千葉県,千葉市緑区,おゆみ野南６丁目４７番地１６２,,12,105,2660033,,,,,,,2023-02-02,1,,,,,スクエアサポート,0
1549,6040001126883,新規,0,2023-02-02,2023-02-02,株式会社ヤマグチセレクション,,株式会社,千葉県,市川市,広尾１丁目１６番２４号,,12,203,2720146,,,,,,,2023-02-02,1,,,,,ヤマグチセレクション,0
1550,6040001126925,新規,0,2023-02-02,2023-02-02,株式会社フルライフアグテック,,株式会社,千葉県,山武郡芝山町,山中４７２番地,,12,409,2891618,,,,,,,2023-02-02,1,,,,,フルライフアグテック,0
1553,6040003021851,新規,0,2023-02-02,2023-02-02,合同会社ＳＵＮＮＹ,,合同会社,千葉県,我孫子市,つくし野１丁目２２番１６号,,12,222,2701164,,,,,,,2023-02-02,1,,,,,サニー,0
1555,6040005021890,新規,0,2023-02-02,2023-02-02,特定非営利活動法人総連千葉支部蘇我分会,,その他の設立登記法人,千葉県,千葉市中央区,都町２丁目１７番１号,,12,101,2600001,,,,,,,2023-02-02,1,,,,,ソウレンチバシブソガブンカイ,0
1565,6080401026291,新規,0,2023-02-02,2023-02-02,株式会社フィリアルテック,,株式会社,静岡県,浜松市西区,舞阪町舞阪１７１３番地の１,,22,133,4310211,,,,,,,2023-02-02,1,,,,,フィリアルテック,0
1583,6120001252119,新規,0,2023-02-02,2023-02-02,株式会社８８８８,,株式会社,大阪府,大阪市北区,西天満３丁目１－２７メビウス西天満５０１,,27,127,5300047,,,,,,,2023-02-02,1,,,,,インフィニティ,0
1584,6120001252168,新規,0,2023-02-02,2023-02-02,朗元株式会社,,株式会社,大阪府,大阪市城東区,蒲生３丁目１５番１２号セザンヌ藤４０３Ａ,,27,118,5360016,,,,,,,2023-02-02,1,,,,,ロウゲン,0
1585,6120001252176,新規,0,2023-02-02,2023-02-02,銀＿株式会社,00129292,株式会社,大阪府,大阪市中央区,松屋町９番２０号ローレルステート松屋町７０６Ｂ,,27,128,5420067,,,,,,,2023-02-02,1,,,,,ギントウ,0
1586,6120001252192,新規,0,2023-02-02,2023-02-02,株式会社グローバルファイン,,株式会社,大阪府,大阪市中央区,本町２丁目３番４号アソルティ本町４Ｆ,,27,128,5410053,,,,,,,2023-02-02,1,,,,,グローバルファイン,0
1587,6120003023360,新規,0,2023-02-02,2023-02-02,合同会社Ｌａ・Ｂｒｉｌｌｅｒ,,合同会社,大阪府,大阪市阿倍野区,相生通１丁目４番２－８１２号,,27,119,5450033,,,,,,,2023-02-02,1,,,,,ラブルレ,0
1594,6120901047064,新規,0,2023-02-02,2023-02-02,株式会社Ｆｌｙｉｎｇ　Ｓｔａｒ,,株式会社,大阪府,池田市,豊島南１丁目１４番３号Ｂ－２,,27,204,5630035,,,,,,,2023-02-02,1,,,,,フライングスター,0
1595,6120901047072,新規,0,2023-02-02,2023-02-02,株式会社豊澤電気,,株式会社,大阪府,高槻市,清福寺町２０番３０号,,27,207,5691132,,,,,,,2023-02-02,1,,,,,トヨサワデンキ,0
1596,6122001036641,新規,0,2023-02-02,2023-02-02,株式会社換気設備,,株式会社,大阪府,柏原市,片山町１３番７１－５０８号,,27,221,5820020,,,,,,,2023-02-02,1,,,,,カンキセツビ,0
1607,6140001129034,新規,0,2023-02-02,2023-02-02,池田キャピタル株式会社,,株式会社,兵庫県,神戸市垂水区,西舞子９丁目１７番５号,,28,108,6550048,,,,,,,2023-02-02,1,,,,,イケダキャピタル,0
1609,6140005026475,新規,0,2023-02-02,2023-02-02,社会福祉法人あんさんぶる,,その他の設立登記法人,兵庫県,伊丹市,荒牧南３丁目４番３２号,,28,207,6640008,,,,,,,2023-02-02,1,,,,,アンサンブル,0
1610,6160001024794,新規,0,2023-02-02,2023-02-02,株式会社フロンティア,,株式会社,滋賀県,大津市,中央３丁目２番１１号,,25,201,5200043,,,,,,,2023-02-02,1,,,,,フロンティア,0
1617,6180001154763,新規,0,2023-02-02,2023-02-02,Ｌ＆Ｈ株式会社,,株式会社,愛知県,名古屋市千種区,桐林町２丁目２３番地３,,23,101,4640842,,,,,,,2023-02-02,1,,,,,エルアンドエイチ,0
1621,6180003024790,新規,0,2023-02-02,2023-02-02,合同会社サトモリ,,合同会社,愛知県,小牧市,大字小牧原新田１７５０番地１,,23,219,4850012,,,,,,,2023-02-02,1,,,,,サトモリ,0
1626,6200001040928,新規,0,2023-02-02,2023-02-02,株式会社スタジオいぶき,,株式会社,岐阜県,各務原市,鵜沼朝日町２丁目３５番地９,,21,213,5090145,,,,,,,2023-02-02,1,,,,,スタジオイブキ,0
1629,6230001019696,新規,0,2023-02-02,2023-02-02,株式会社皆良,,株式会社,富山県,富山市,公文名８番地３２,,16,201,9398002,,,,,,,2023-02-02,1,,,,,ミナヨシ,0
1636,6240001061061,新規,0,2023-02-02,2023-02-02,株式会社ＥＩＭＳ,,株式会社,広島県,広島市中区,堀川町１－１１仏壇通りビルＢ１Ｆ,,34,101,7300033,,,,,,,2023-02-02,1,,,,,エイムス,0
1638,6240003005999,新規,0,2023-02-02,2023-02-02,合同会社ＳＰコンサルティング,,合同会社,広島県,福山市,今町２番１８号,,34,207,7200046,,,,,,,2023-02-02,1,,,,,エスピーコンサルティング,0
1641,6260001037613,新規,0,2023-02-02,2023-02-02,株式会社ＺＥＲＯ,,株式会社,岡山県,倉敷市,中庄１１６４番地３－１０２号,,33,202,7100016,,,,,,,2023-02-02,1,,,,,ゼロ,0
1642,6260001037621,新規,0,2023-02-02,2023-02-02,株式会社ＰＲＥＣＩＯＵＳ　ＣＯＬＬＥＣＴＩＯＮＳ,,株式会社,岡山県,岡山市北区,平野１７４番地２２,,33,101,7010151,,,,,,,2023-02-02,1,,,,,プレシャスコレクションズ,0
1644,6270005005540,新規,0,2023-02-02,2023-02-02,医療法人聡優会,,その他の設立登記法人,鳥取県,鳥取市,湖山町東１丁目２５１番地１,,31,201,6800942,,,,,,,2023-02-02,1,,,,,ソウユウカイ,0
1658,6290001100418,新規,0,2023-02-02,2023-02-02,株式会社Ｃ．Ａｕｔｕｍｎ,,株式会社,福岡県,福岡市中央区,今泉１丁目２１番１０号ウイングボックス天神６０Ｂ,,40,133,8100021,,,,,,,2023-02-02,1,,,,,シーオータム,0
1659,6290001100426,新規,0,2023-02-02,2023-02-02,株式会社イケガミ,,株式会社,福岡県,太宰府市,大佐野５丁目５番１号,,40,221,8180134,,,,,,,2023-02-02,1,,,,,イケガミ,0
1660,6290001100450,新規,0,2023-02-02,2023-02-02,株式会社アディクト,,株式会社,福岡県,福岡市中央区,平尾３丁目１２番１５－６０３号,,40,133,8100014,,,,,,,2023-02-02,1,,,,,アディクト,0
1661,6290001100467,新規,0,2023-02-02,2023-02-02,ＭＩＳＡ株式会社,,株式会社,福岡県,うきは市,浮羽町朝田４０４－２,,40,225,8391401,,,,,,,2023-02-02,1,,,,,ミサ,0
1665,6310001018252,新規,0,2023-02-02,2023-02-02,株式会社デント,,株式会社,長崎県,長崎市,田上３丁目１８番２６号,,42,201,8510251,,,,,,,2023-02-02,1,,,,,デント,0
1666,6330001030552,新規,0,2023-02-02,2023-02-02,ハマダレクテック株式会社,,株式会社,熊本県,菊池郡大津町,大字高尾野２７２－８,,43,403,8691232,,,,,,,2023-02-02,1,,,,,ハマダレクテック,0
1670,6340001025345,新規,0,2023-02-02,2023-02-02,株式会社てとてを,,株式会社,鹿児島県,大島郡天城町,大字瀬滝１００６番地１,,46,531,8917623,,,,,,,2023-02-02,1,,,,,テトテヲ,0
1672,6360001031507,新規,0,2023-02-02,2023-02-02,株式会社ミラーフィールド,,株式会社,沖縄県,那覇市,字田原６２田原ハイツ１０１,,47,201,9010156,,,,,,,2023-02-02,1,,,,,ミラーフィールド,0
1675,6370001049556,新規,0,2023-02-02,2023-02-02,レックス株式会社,,株式会社,宮城県,仙台市青葉区,藤松３番２号,,04,101,9810921,,,,,,,2023-02-02,1,,,,,レックス,0
1678,6380001033443,新規,0,2023-02-02,2023-02-02,株式会社西村住設,,株式会社,福島県,いわき市,小名浜字吹松３番地の７,,07,204,9718101,,,,,,,2023-02-02,1,,,,,ニシムラジュウセツ,0
1680,6400001016148,新規,0,2023-02-02,2023-02-02,株式会社コントロール,,株式会社,岩手県,奥州市,胆沢小山字柴山１４３番地,,03,215,0230402,,,,,,,2023-02-02,1,,,,,コントロール,0
1683,6430001088341,新規,0,2023-02-02,2023-02-02,バンビーニカンパニー株式会社,,株式会社,北海道,札幌市西区,西野八条８丁目２番３５号,,01,107,0630038,,,,,,,2023-02-02,1,,,,,バンビーニカンパニー,0
1684,6430001088366,新規,0,2023-02-02,2023-02-02,株式会社トータル・エネルギー・プラン,,株式会社,北海道,札幌市南区,澄川三条５丁目４番５号,,01,106,0050003,,,,,,,2023-02-02,1,,,,,トータルエネルギープラン,0
1688,6460301005126,新規,0,2023-02-02,2023-02-02,株式会社友進工業,,株式会社,北海道,北見市,高栄西町１丁目１４番１３号,,01,208,0900058,,,,,,,2023-02-02,1,,,,,ユウシンコウギョウ,0
1692,6500001024743,新規,0,2023-02-02,2023-02-02,株式会社エコ・テクノ,,株式会社,愛媛県,新居浜市,久保田町２丁目１番３０号,,38,205,7920026,,,,,,,2023-02-02,1,,,,,,0
1693,6500001024751,新規,0,2023-02-02,2023-02-02,株式会社ｒｅｉｇａ,,株式会社,愛媛県,松山市,美沢１丁目８番５７号ハイム美沢５０７号,,38,201,7918022,,,,,,,2023-02-02,1,,,,,レイガ,0
1694,6700150114093,新規,0,2023-02-02,2023-02-02,Ｊｉａｎｇｓｕ　Ｚｈｅｎｃｈａｎｇ　Ｅｄｕｃａｔｉｏｎａｌ　Ｅｑｕｉｐｍｅｎｔ　Ｃｏ．，Ｌｔｄ,,外国会社等,,,,,,,,Ｔｉａｎｓｈｅｎｇｗｅｉ　ｖｉｌｌａｇｅ，Ｇａｏｃｈｅｎｇ　Ｔｏｗｎ　Ｙｉｘｉｎｇ　Ｃｉｔｙ　Ｊｉａｎｇｓｕ　Ｐｒｏｖｉｎｃｅ，Ｃｈｉｎａ,,,,,,2023-02-02,1,,,,,ジアンスゼンチャンエデウカションナルエクエプメントユウゲンコウシ,0
1695,6700150114102,新規,0,2023-02-02,2023-02-02,ｚｈｕ　ｈａｉ　ｘｉ　ｙｉ　ｃｈｅｎ　ｋｅ　ｊｉ　ｙｏｕ　ｘｉａｎ　ｇｏｎｇ　ｓｉ,,外国会社等,,,,,,,,ｘｉａｎｇｚｈｏｕｑｕｌｉｗｅｎｊｉｅ３３３ｈａｏ１ｄｏｎｇ２Ｆ－６３，ｚｈｕｈａｉｓｈｉ　ｇｕａｎｇｄｏｎｇ，Ｃｈｉｎａ,,,,,,2023-02-02,1,,,,,シュカイシイチェンカギユウゲンコウシ,0
1696,6700150114110,新規,0,2023-02-02,2023-02-02,ｓｈｅｎｚｈｅｎｓｈｉｘｉａｎｙｕｅｗａｎｇｌｕｏｋｅｊｉｙｏｕｘｉａｎｇｏｎｇｓｉ,,外国会社等,,,,,,,,ｌｏｎｇｇａｎｇｑｕｂａｎｔｉａｎｊｉｅｄａｏ，ｚｈｏｎｇｔｉｅｎｕｏｄｅｇｏｎｇｇｕａｎｙｉｑｉ１ｈａｏｌｏｕＢｄａｎｙｕａｎ１００１，Ｓｈｅｎｚｈｅｎ　Ｇｕａｎｇｄｏｎｇ，Ｃｈｉｎａ,,,,,,2023-02-02,1,,,,,シンセンシセンエイワンロカギユウゲンコウシ,0
1697,6700150114119,新規,0,2023-02-02,2023-02-02,ＨＡＮＹＯＵＮＧ　ＮＵＸ　ＣＯ．ＬＴＤ,,外国会社等,京都府,京都市中京区,御池通堀川西入池元町４０８番地５パレステージ二条２０２号,,26,104,6048302,大韓民国仁川弥鄒忽区吉波路７１番キル２８、朱安洞（チュアンドン）,,,,,,2023-02-02,1,,,,,ハンヨンナツクスカンパニーリミテイツド,0
1698,6700150114143,新規,0,2023-02-02,2023-02-02,ＷｕＡｉ　ＸｉｎＸＩ　ＫｅＪｉ（Ｓｈａｎｇｈａｉ）ＹｏｕＸｉａｎ　ＧｏｎｇＳｉ,,外国会社等,,,,,,,,Ｍｉｎｈａｎｇ　Ｄｉｓｔｒｉｃｔ　Ｊｉｎｇｌｉａｎ　Ｒｄ　ＮＯ．４３９　Ｂｕｉｌｄｉｎｇ　３　Ｒｏｏｍ　２１０，Ｒｏｏｍ　２１０．Ｂｕｉｌｄｉｎｇ　ＮＯ．３，Ｎｏ．４３９　Ｊｉｎｇｌｉａｎ　Ｒｏａｄ，Ｓｈａｎｇｈａｉ　Ｓｈａｎｇｈａｉ，Ｃｈｉｎａ,,,,,,2023-02-02,1,,,,,ウアイシンシケジシャンハイユウゲンコウシ,0
1699,6700150114168,新規,0,2023-02-02,2023-02-02,ＳｈｅｎＺｈｅｎＳｈｉ　ＭｅｉＳｈｉＡｏ　ＫｅＪｉ　ＹｏｕＸｉａｎＧｏｎｇＳｉ,,外国会社等,,,,,,,,Ｃｈｕａｎｇｋｅｇｏｎｇｇｕａｎ３０２，Ｃｈａｇｕａｎｇ　Ｒｏａｄ１０１８，Ｓｈｕｇｕａｎｇ　Ｃｏｍｍｕｎｉｔｙ　Ｘｉ　ＸｉＬｉ　Ｓｔｒｅｅｔ，ＮａｎＳｈａｎＤｉｓｔｒｉｃｔ，ＸｉＬｉ　Ｓｔｒｅｅｔ，ＳｈｅｎＺｈｅｎ，ｇｕａｎｇｄｏｎｇ，Ｃｈｉｎａ,,,,,,2023-02-02,1,,,,,シンセンシメイシアオケジユウゲンコウシ,0
1700,6700150114176,新規,0,2023-02-02,2023-02-02,ＡｎＹａｎｇＦａｎＨｕａ　ＳｈｅｎｇＪｉｎ　Ｉｎｆｏｒｍａｔｉｏｎ　Ｔｅｃｈｎｏｌｏｇｙ　Ｃｏ．Ｌｔｄ,,外国会社等,,,,,,,,ＢｅｉＧｕａｎＱｕ，ＹｏｎｇＭｉｎｇＬｕ，ＸｉｎｇＨｕａＸｉｎＣｕｎＸｉａＱｕ，１２　Ｈａｏ　Ｌｏｕ　２　Ｄａｎ　Ｙｕａｎ　１　Ｃｅｎｇ　Ｄｏｎｇ　Ａ１，Ａｎ　Ｙａｎｇ　Ｓｈｉ，Ｈｅ　Ｎａｎ　Ｓｈｅｎｇ，Ｃｈｉｎａ,,,,,,2023-02-02,1,,,,,アンヤンファンハシェンジンインフォメーションテクノロジーカンパニーリミテッド,0
1704,7010001232650,新規,0,2023-02-02,2023-02-02,株式会社シプリー,,株式会社,東京都,中央区,佃２丁目１番１号センチュリーパークタワー３０１１,,13,102,1040051,,,,,,,2023-02-02,1,,,,,シプリー,0
1708,7010003039730,新規,0,2023-02-02,2023-02-02,合同会社Ｏｖｅｒｄｒｉｖｅ,,合同会社,東京都,文京区,本駒込１丁目３番２１号,,13,105,1130021,,,,,,,2023-02-02,1,,,,,オーバードライヴ,0
1714,7010403029439,新規,0,2023-02-02,2023-02-02,合同会社Ｚｅｒｏｎｉｔｙ,,合同会社,東京都,港区,浜松町２丁目２番１５号浜松町ダイヤビル２Ｆ,,13,103,1050013,,,,,,,2023-02-02,1,,,,,ゼロニティー,0
1715,7010405021749,新規,0,2023-02-02,2023-02-02,一般社団法人未来あんしん終活相続支援協会,,その他の設立登記法人,東京都,港区,海岸３丁目１３－１２－１４０４,,13,103,1080022,,,,,,,2023-02-02,1,,,,,ミライアンシンシュウカツソウゾクシエンキョウカイ,0
1716,7010405021773,新規,0,2023-02-02,2023-02-02,ＭＦＴＪＰＮ５特定目的会社,,その他の設立登記法人,東京都,港区,虎ノ門３丁目２２番１０－２０１号,,13,103,1050001,,,,,,,2023-02-02,1,,,,,エムエフティージェイピーエヌファイブ,0
1719,7010601062522,新規,0,2023-02-02,2023-02-02,三略株式会社,,株式会社,東京都,墨田区,立花４丁目２３－７椎葉ビル３０２号室,,13,107,1310043,,,,,,,2023-02-02,1,,,,,サンリャク,0
1720,7010601062530,新規,0,2023-02-02,2023-02-02,四葉国際株式会社,,株式会社,東京都,江東区,亀戸３丁目２番１１－３０１号ライオンズマンション亀戸第６,,13,108,1360071,,,,,,,2023-02-02,1,,,,,ヨツバコクサイ,0
1721,7010601062539,新規,0,2023-02-02,2023-02-02,株式会社ＬＩＶＥＬＹ,,株式会社,東京都,江東区,大島２丁目２０－１６－３０１,,13,108,1360072,,,,,,,2023-02-02,1,,,,,ライブリー,0
1722,7010701043793,新規,0,2023-02-02,2023-02-02,ルートロニックエステティックスジャパン株式会社,,株式会社,東京都,品川区,東品川２丁目３番１４号,,13,109,1400002,,,,,,,2023-02-02,1,,,,,ルートロニックエステティックスジャパン,0
1733,7010901052421,新規,0,2023-02-02,2023-02-02,株式会社エムプラス,,株式会社,東京都,世田谷区,南烏山５丁目１７番１１号４０８,,13,112,1570062,,,,,,,2023-02-02,1,,,,,エムプラス,0
1735,7010903007943,新規,0,2023-02-02,2023-02-02,合同会社らぼこん,,合同会社,東京都,世田谷区,上北沢１丁目１―６,,13,112,1560057,,,,,,,2023-02-02,1,,,,,ラボコン,0
1737,7010905004427,新規,0,2023-02-02,2023-02-02,一般社団法人哲学のテーブル,,その他の設立登記法人,東京都,世田谷区,経堂４丁目３１番８号１Ｆ,,13,112,1560052,,,,,,,2023-02-02,1,,,,,テツガクノテーブル,0
1741,7011001152327,新規,0,2023-02-02,2023-02-02,株式会社ｆａｖ,,株式会社,東京都,渋谷区,西原１丁目２８番７－２０４号,,13,113,1510066,,,,,,,2023-02-02,1,,,,,ファヴ,0
1742,7011001152335,新規,0,2023-02-02,2023-02-02,株式会社ＬＹＬ,,株式会社,東京都,渋谷区,道玄坂１丁目１０番８号渋谷道玄坂東急ビル２Ｆ－Ｃ,,13,113,1500043,,,,,,,2023-02-02,1,,,,,リル,0
1747,7011101101712,新規,0,2023-02-02,2023-02-02,株式会社ヨシプラス,,株式会社,東京都,新宿区,新宿１丁目３６番２号新宿第七葉山ビル３Ｆ,,13,104,1600022,,,,,,,2023-02-02,1,,,,,ヨシプラス,0
1749,7011303004655,新規,0,2023-02-02,2023-02-02,合同会社ＹＭアセット,,合同会社,東京都,杉並区,久我山２丁目１４番１１号,,13,115,1680082,,,,,,,2023-02-02,1,,,,,ワイエムアセット,0
1750,7011503005461,新規,0,2023-02-02,2023-02-02,合同会社ひまわり,,合同会社,東京都,北区,浮間１丁目７番２３号兆豊浮間ビル,,13,117,1150051,,,,,,,2023-02-02,1,,,,,ヒマワリ,0
1759,7011801041877,新規,0,2023-02-02,2023-02-02,ＲＯ　Ｌａｂｏ株式会社,,株式会社,東京都,足立区,竹の塚３丁目５番２号ＧＬＰビル１Ｆ,,13,121,1210813,,,,,,,2023-02-02,1,,,,,アールオーラボ,0
1760,7012701017455,新規,0,2023-02-02,2023-02-02,株式会社安藤工務店,,株式会社,東京都,清瀬市,中里３丁目９５９番地７,,13,221,2040003,,,,,,,2023-02-02,1,,,,,アンドウコウムテン,0
1767,7020001150125,新規,0,2023-02-02,2023-02-02,株式会社Ｏｌｉｉｎａｓ,,株式会社,神奈川県,川崎市高津区,溝口１丁目１４番８号,,14,134,2130001,,,,,,,2023-02-02,1,,,,,オリナス,0
1771,7020003023246,新規,0,2023-02-02,2023-02-02,合同会社ナンブ運送,,合同会社,神奈川県,川崎市中原区,下小田中１丁目１５番３２－３０１号,,14,133,2110041,,,,,,,2023-02-02,1,,,,,ナンブウンソウ,0
1773,7021001078100,新規,0,2023-02-02,2023-02-02,株式会社オールモスト,,株式会社,神奈川県,鎌倉市,腰越１丁目９番２３号,,14,204,2480033,,,,,,,2023-02-02,1,,,,,オールモスト,0
1774,7021001078117,新規,0,2023-02-02,2023-02-02,株式会社雅,,株式会社,神奈川県,平塚市,中原３丁目５番３１号,,14,203,2540075,,,,,,,2023-02-02,1,,,,,ミヤビ,0
1775,7021001078125,新規,0,2023-02-02,2023-02-02,株式会社Ｎａｔｕｒｅ　Ｃｌａｓｓｉｃ,,株式会社,神奈川県,茅ヶ崎市,松が丘２丁目１０番４８号Ｔｈｅｗａｖｅ２－Ａ,,14,207,2530025,,,,,,,2023-02-02,1,,,,,ネイチャークラシック,0
1776,7021003012692,新規,0,2023-02-02,2023-02-02,合同会社Ｍ・Ｋ・Ｒ,,合同会社,神奈川県,大和市,福田５丁目１２番地９サニーハイツ１０３,,14,213,2420024,,,,,,,2023-02-02,1,,,,,エムケーアール,0
1780,7030001152236,新規,0,2023-02-02,2023-02-02,江渡不動産株式会社,,株式会社,埼玉県,本庄市,早稲田の杜１丁目１２番１２号,,11,211,3670030,,,,,,,2023-02-02,1,,,,,エトフドウサン,0
1784,7040001126866,新規,0,2023-02-02,2023-02-02,島田木工株式会社,,株式会社,千葉県,旭市,蛇園２８０７番地,,12,215,2892612,,,,,,,2023-02-02,1,,,,,シマダモッコウ,0
1785,7040001126882,新規,0,2023-02-02,2023-02-02,ＧＡＦＡ株式会社,,株式会社,千葉県,長生郡白子町,牛込３７５７番地２,,12,424,2994202,,,,,,,2023-02-02,1,,,,,ガーファ,0
1786,7040001126890,新規,0,2023-02-02,2023-02-02,ＴＦＴＮＣ株式会社,,株式会社,千葉県,松戸市,新松戸北２丁目１１番地の１新松戸ファミールハイツ４号棟７１２号室,,12,207,2700032,,,,,,,2023-02-02,1,,,,,ティーエフティーエヌシー,0
1792,7040003021842,新規,0,2023-02-02,2023-02-02,合同会社グリーン,,合同会社,千葉県,船橋市,松が丘２丁目４９番８号,,12,204,2740064,,,,,,,2023-02-02,1,,,,,グリーン,0
1794,7070001040081,新規,0,2023-02-02,2023-02-02,自然恵みファームズ株式会社,,株式会社,群馬県,沼田市,下川田町５１９２番地１,,10,206,3780024,,,,,,,2023-02-02,1,,,,,シゼンメグミファームズ,0
1796,7080001025445,新規,0,2023-02-02,2023-02-02,株式会社マーテル,,株式会社,静岡県,藤枝市,藤枝２丁目５番１９号,,22,214,4260025,,,,,,,2023-02-02,1,,,,,マーテル,0
1803,7080401026290,新規,0,2023-02-02,2023-02-02,スマイルライフパートナーズ株式会社,,株式会社,静岡県,浜松市中区,高林４丁目４番１１号,,22,131,4300907,,,,,,,2023-02-02,1,,,,,スマイルライフパートナーズ,0
1804,7080403004716,新規,0,2023-02-02,2023-02-02,合同会社ＭＯＬＴＯ,,合同会社,静岡県,浜松市中区,松城町２１４番地の１０,,22,131,4300947,,,,,,,2023-02-02,1,,,,,モルト,0
1805,7080405007527,新規,0,2023-02-02,2023-02-02,特定非営利活動法人バーチャルクロスリンク,,その他の設立登記法人,静岡県,浜松市中区,富塚町３１７３番地の１グランデージ弥生２０１,,22,131,4328002,,,,,,,2023-02-02,1,,,,,バーチャルクロスリンク,0
1810,7100001036118,新規,0,2023-02-02,2023-02-02,仁中工業株式会社,,株式会社,長野県,須坂市,大字仁礼４８５番地の１,,20,207,3820000,,,,,,,2023-02-02,1,,,,,ジンチュウコウギョウ,0
1813,7110003004971,新規,0,2023-02-02,2023-02-02,合同会社ハチロ,,合同会社,新潟県,佐渡市,住吉１５８番地,,15,224,9520015,,,,,,,2023-02-02,1,,,,,ハチロ,0
1827,7120001252035,新規,0,2023-02-02,2023-02-02,Ｉ．Ｆ株式会社,,株式会社,大阪府,大阪市中央区,東心斎橋１丁目３番１０号富士通商ビル６０２,,27,128,5420083,,,,,,,2023-02-02,1,,,,,アイエフ,0
1828,7120001252150,新規,0,2023-02-02,2023-02-02,株式会社三ツ屋,,株式会社,大阪府,大阪市浪速区,難波中３丁目１６番４－２０１号,,27,111,5560011,,,,,,,2023-02-02,1,,,,,ミツヤ,0
1829,7120001252175,新規,0,2023-02-02,2023-02-02,燕生活販売株式会社,,株式会社,大阪府,大阪市東住吉区,鷹合２丁目１番２２号,,27,121,5460014,,,,,,,2023-02-02,1,,,,,ツバメセイカツハンバイ,0
1830,7120001252191,新規,0,2023-02-02,2023-02-02,株式会社スパークルレッカー,,株式会社,大阪府,枚方市,大垣内町３丁目３番５号石田ビル２０１,,27,210,5730027,,,,,,,2023-02-02,1,,,,,スパークルレッカー,0
1831,7120001252274,新規,0,2023-02-02,2023-02-02,株式会社ＡＯＩ,,株式会社,大阪府,大阪市東淀川区,下新庄４丁目１９番９号ハイツヒライ２０４号室,,27,114,5330021,,,,,,,2023-02-02,1,,,,,アオイ,0
1836,7120103005043,新規,0,2023-02-02,2023-02-02,合同会社ＴＷＩＮＫＬＥ,,合同会社,大阪府,和泉市,池上町１丁目４番１９号,,27,219,5940083,,,,,,,2023-02-02,1,,,,,トゥインクル,0
1840,7122001036665,新規,0,2023-02-02,2023-02-02,株式会社イグジスト,,株式会社,大阪府,大東市,御領３丁目１３番９号,,27,218,5740064,,,,,,,2023-02-02,1,,,,,イグジスト,0
1844,7130001073595,新規,0,2023-02-02,2023-02-02,株式会社１８,,株式会社,京都府,京都市中京区,橋弁慶町２３４番地ＭＪＰＫＡＲＡＳＵＭＡＢＬＤＳ４階,,26,104,6048151,,,,,,,2023-02-02,1,,,,,イチハチ,0
1856,7140001128943,新規,0,2023-02-02,2023-02-02,株式会社Ｃｕｎｉｃｕｌｕｓ,,株式会社,兵庫県,宝塚市,野上４丁目２番２１号,,28,214,6650022,,,,,,,2023-02-02,1,,,,,クニークルス,0
1857,7140001128951,新規,0,2023-02-02,2023-02-02,株式会社Ｕ．Ｐ．Ｔ,,株式会社,兵庫県,神戸市中央区,港島中町３丁目２番地の１ポートアイランド団地６４棟２１０号,,28,110,6500046,,,,,,,2023-02-02,1,,,,,ユーピーティー,0
1861,7170003001831,新規,0,2023-02-02,2023-02-02,合同会社グラシアス,,合同会社,和歌山県,和歌山市,神波３０番地１１９,,30,201,6496315,,,,,,,2023-02-02,1,,,,,グラシアス,0
1867,7180001154754,新規,0,2023-02-02,2023-02-02,株式会社Ｐｒｉｍａ,,株式会社,愛知県,名古屋市東区,芳野１丁目１３番２４号,,23,102,4610027,,,,,,,2023-02-02,1,,,,,プリマ,0
1868,7180001154779,新規,0,2023-02-02,2023-02-02,株式会社ソービー,,株式会社,愛知県,常滑市,大野町１丁目２３番地,,23,216,4790866,,,,,,,2023-02-02,1,,,,,ソービー,0
1869,7180001154837,新規,0,2023-02-02,2023-02-02,株式会社ワイズナビ,,株式会社,愛知県,名古屋市中区,新栄２丁目１４番２８号,,23,106,4600007,,,,,,,2023-02-02,1,,,,,ワイズナビ,0
1874,7180003024773,新規,0,2023-02-02,2023-02-02,合同会社ＫＡＫＥＨＡＳＨＩ,,合同会社,愛知県,名古屋市千種区,池下１丁目８番１８号仲田ビル２階,,23,101,4640067,,,,,,,2023-02-02,1,,,,,カケハシ,0
1875,7180003024781,新規,0,2023-02-02,2023-02-02,合同会社ｗａｒｍｌｙ,,合同会社,愛知県,名古屋市名東区,新宿１丁目１３３番地（ルミアージュ３０４号）,,23,115,4650063,,,,,,,2023-02-02,1,,,,,ウォームリー,0
1879,7180301037064,新規,0,2023-02-02,2023-02-02,株式会社Ｔ・Ｓｃｏｍｍｕｎｉｔｙ,,株式会社,愛知県,知立市,西１丁目１番地９クレセント２０３号,,23,225,4720057,,,,,,,2023-02-02,1,,,,,ティーエスコミュニティ,0
1880,7180303005589,新規,0,2023-02-02,2023-02-02,合同会社ショニチ,,合同会社,愛知県,豊田市,保見町起間２６－１,,23,211,4700344,,,,,,,2023-02-02,1,,,,,ショニチ,0
1881,7180303005597,新規,0,2023-02-02,2023-02-02,合同会社悠ららぎ,,合同会社,愛知県,岡崎市,若宮町１丁目１９番地１,,23,202,4440014,,,,,,,2023-02-02,1,,,,,ユララギ,0
1891,7230001019704,新規,0,2023-02-02,2023-02-02,株式会社ネクストライフステージ,,株式会社,富山県,富山市,婦中町上轡田８０番地１５６,,16,201,9392713,,,,,,,2023-02-02,1,,,,,ネクストライフステージ,0
1894,7240003006006,新規,0,2023-02-02,2023-02-02,すみだ会計合同会社,,合同会社,広島県,広島市中区,鉄砲町１番１８号,,34,101,7300017,,,,,,,2023-02-02,1,,,,,スミダカイケイ,0
1903,7260003004189,新規,0,2023-02-02,2023-02-02,合同会社ツインリンク,,合同会社,岡山県,倉敷市,昭和１丁目１‐３８,,33,202,7100057,,,,,,,2023-02-02,1,,,,,ツインリンク,0
1906,7280001008875,新規,0,2023-02-02,2023-02-02,ＣＡＭＵＳＡ株式会社,,株式会社,島根県,松江市,東出雲町出雲郷１６９０番地,,32,201,6990108,,,,,,,2023-02-02,1,,,,,カムサ,0
1908,7290001100441,新規,0,2023-02-02,2023-02-02,株式会社ＯＭＰ,,株式会社,福岡県,福岡市南区,高宮３丁目９番３号ホットスタッフビル５０２号,,40,134,8150083,,,,,,,2023-02-02,1,,,,,オーエムピー,0
1909,7290001100466,新規,0,2023-02-02,2023-02-02,株式会社川はら,,株式会社,福岡県,福岡市南区,若久６丁目６番２０－１号,,40,134,8150042,,,,,,,2023-02-02,1,,,,,カワハラ,0
1910,7290001100474,新規,0,2023-02-02,2023-02-02,株式会社ＦＡＲＭ　ＣＲＥＡＴ,,株式会社,福岡県,久留米市,北野町高良２３７７番地２,,40,203,8301114,,,,,,,2023-02-02,1,,,,,ファームクリエイト,0
1912,7290005018944,新規,0,2023-02-02,2023-02-02,医療法人Ｍａｈｉｎａ,,その他の設立登記法人,福岡県,久留米市,津福今町３６１番地３５,,40,203,8300061,,,,,,,2023-02-02,1,,,,,マヒナ,0
1914,7320001019554,新規,0,2023-02-02,2023-02-02,株式会社ＮＯＭＡ,,株式会社,大分県,佐伯市,大字長谷１０２６０番地１,,44,205,8760037,,,,,,,2023-02-02,1,,,,,ノマ,0
1917,7330001030527,新規,0,2023-02-02,2023-02-02,株式会社アライブ,,株式会社,熊本県,水俣市,百間町１丁目２番１７号,,43,205,8670049,,,,,,,2023-02-02,1,,,,,アライブ,0
1918,7330001030568,新規,0,2023-02-02,2023-02-02,株式会社サクラマチ経済研究所,,株式会社,熊本県,熊本市中央区,桜町３番３０－１４０８号,,43,101,8600805,,,,,,,2023-02-02,1,,,,,サクラマチケイザイケンキュウショ,0
1920,7330005010616,新規,0,2023-02-02,2023-02-02,一般社団法人リトくま,,その他の設立登記法人,熊本県,熊本市東区,小山２丁目２４番６０号,,43,102,8618045,,,,,,,2023-02-02,1,,,,,リトクマ,0
1922,7340001025344,新規,0,2023-02-02,2023-02-02,株式会社プロテクト屋久島,,株式会社,鹿児島県,鹿児島市,新屋敷町２５番６３号,,46,201,8920838,,,,,,,2023-02-02,1,,,,,プロテクトヤクシマ,0
1930,7370001049563,新規,0,2023-02-02,2023-02-02,クリーンアセス株式会社,,株式会社,宮城県,登米市,迫町佐沼字大網２８番地１,,04,212,9870511,,,,,,,2023-02-02,1,,,,,クリーンアセス,0
1935,7380001033442,新規,0,2023-02-02,2023-02-02,株式会社Ｕｎｉｔｅ,,株式会社,福島県,郡山市,安積荒井本町４４１番地安積サンシャイン３０７号,,07,203,9630116,,,,,,,2023-02-02,1,,,,,ユナイト,0
1936,7380001033450,新規,0,2023-02-02,2023-02-02,株式会社ラディカルオート,,株式会社,福島県,郡山市,田村町御代田字古町１４－１,,07,203,9631164,,,,,,,2023-02-02,1,,,,,ラディカルオート,0
1937,7380003005381,新規,0,2023-02-02,2023-02-02,合同会社いいたてムシムシビレッジ,,合同会社,福島県,相馬郡飯舘村,臼石字田尻１２７番地の１,,07,564,9601633,,,,,,,2023-02-02,1,,,,,イイタテムシムシビレッジ,0
1938,7390001017155,新規,0,2023-02-02,2023-02-02,アートデザイン株式会社,,株式会社,山形県,山形市,十日町１丁目２番３０‐２３０２号Ｄ’グラフォート十日町タワー,,06,201,9900031,,,,,,,2023-02-02,1,,,,,アートデザイン,0
1943,7400001016147,新規,0,2023-02-02,2023-02-02,株式会社ＥＮＣＨＵホールディングス,,株式会社,岩手県,八幡平市,大更第２４地割８番地の１の５,,03,214,0287111,,,,,,,2023-02-02,1,,,,,エンチュウホールディングス,0
1949,7430001088340,新規,0,2023-02-02,2023-02-02,株式会社スリーピース,,株式会社,北海道,札幌市西区,琴似三条２丁目８番１８号,,01,107,0630813,,,,,,,2023-02-02,1,,,,,スリーピース,0
1954,7470003002345,新規,0,2023-02-02,2023-02-02,合同会社ＴＫルーフ,,合同会社,香川県,坂出市,林田町３３４番地１,,37,203,7620012,,,,,,,2023-02-02,1,,,,,ティーケールーフ,0
1957,7480001011999,新規,0,2023-02-02,2023-02-02,Ｋｉｔａｇａｗａ　Ｍｏｔｏｒｓ株式会社,,株式会社,徳島県,那賀郡那賀町,木頭出原字ヨコマチ３０番地１,,36,368,7716402,,,,,,,2023-02-02,1,,,,,キタガワモータース,0
1966,7500001024750,新規,0,2023-02-02,2023-02-02,Ｚｔｗｏ株式会社,,株式会社,愛媛県,松山市,清水町１丁目８番地１４,,38,201,7900823,,,,,,,2023-02-02,1,,,,,ゼットトゥー,0
1967,7700150113953,新規,0,2023-02-02,2023-01-25,静岡県地域活性化協議会,,その他,静岡県,静岡市駿河区,南町１４－２５,,22,102,4228067,,,,,,,2023-01-25,1,,,,,シズオカケンチイキカツセイカキヨウギカイ,0
1968,7700150114092,新規,0,2023-02-02,2023-02-02,ＬｉａｏｃｈｅｎｇＣｈａｏｘｉｎｇｙｉｔｅｎｇｄｉａｎｚｉｓｈａｎｇｗｕｙｏｕｘｉａｎｇｏｎｇｓｉ,,外国会社等,,,,,,,,ｚｈｅｎｘｉｎｇｊｉｅｄａｏｄｏｎｇｌｕ，ｙａｎｇｇｕａｎｇｓｈｉｄａｉｘｉａｏｑｕ１３ｈａｏｌｏｕ１ｄａｎｙｕａｎ５０２ｓｈｉｆｕｆａｎｇ０５，ｓｈａｎｄｏｎｇｓｈｅｎｇ，ｃｈｉｐｉｎｇｑｕ，ｌｉａｏｃｈｅｎｇｓｈｉ，Ｃｈｉｎａ,,,,,,2023-02-02,1,,,,,リョウチンチョウシンイデンシショウムユウゲンコウシ,0
1969,7700150114101,新規,0,2023-02-02,2023-02-02,ｓｈａｎｇｈａｉｙｏｎｇｇｕａｎｚｈｏｎｇｃｈｅｎｇｘｉｎｃａｉｌｉａｏｋｅｊｉＣｏ．Ｌｔｄ．,,外国会社等,,,,,,,,ｑｉｎｇ　ｐｕ　ｑｕ　ｚｈｕ　ｊｉａ　ｊｉａｏ　ｇｏｎｇ　ｙｅ　ｙｕａｎ　ｑｕ　ｋａｎｇ　ｇｏｎｇ　ｌｕ　１５　ｈａｏ，ｓｈａｎｇ　ｈａｉ　ｓｈｉ，Ｃｈｉｎａ,,,,,,2023-02-02,1,,,,,シャンハイエイカンゾンテイシンザイリョウケイジユウゲンコウシ,0
1970,7700150114134,新規,0,2023-02-02,2023-02-02,Ｓｈｅｎｚｈｅｎｓｈｉ　Ｒｕｏｒａｎ　Ｋｅｊｉ　Ｙｏｕｘｉａｎ　Ｇｏｎｇｓｉ,,外国会社等,,,,,,,,Ｘｉｎａｎｊｉｅｄａｏ　Ｆａｎｓｈｅｎｓｈｅｑｕ　４９ｑｕ，Ｓｈｅｎｚｈｅｎ，Ｂａｏａｎ　Ｄｉｓｔｒｉｃｔ，Ｇｕａｎｇｄｏｎｇ　Ｐｒｏｖｉｎｃｅ，Ｃｈｉｎａ,,,,,,2023-02-02,1,,,,,シンセンシロウランケジユウゲンコウシ,0
1971,7700150114142,新規,0,2023-02-02,2023-02-02,ｗｅｉｌａｉｃｈｕａｎｇｊｉａｎ（ｓｈｅｎｚｈｅｎ）ｋｅｊｉｙｏｕｘｉａｎｇｏｎｇｓｉ,,外国会社等,,,,,,,,Ｒｏｏｍ　２０１，Ｂｕｉｌｄｉｎｇ　Ａ　１ｓｔ　Ｑｉａｎ　Ｗａｎ　Ｒｏａｄ，Ｑｉａｎｈａｉ　Ｓｈｅｎｚｈｅｎ　ａｎｄ　Ｈｏｎｇ　Ｋｏｎｇ　Ｃｏｏｐｅｒａｔｉｏｎ　ｄｉｓｔｒｉｃｔ，Ｓｈｅｎｚｈｅｎ　ｃｉｔｙ，Ｇｕａｎｇｄｏｎｇ，Ｃｈｉｎａ,,,,,,2023-02-02,1,,,,,ウェイライチャンジアンシンセンケジユウゲンコウシ,0
1972,7700150114159,新規,0,2023-02-02,2023-02-02,ＷＥＶＡＣ　ＴＥＣＨＮＯＬＯＧＹ　ＣＯ．，ＬＩＭＩＴＥＤ,,外国会社等,,,,,,,,ＳＵＩＴＥ　Ａ１，１２／Ｆ　ＲＩＴＺ　ＰＬＡＺＡ　１２２　ＡＵＳＴＩＮ　ＲＤ　ＴＳＴ　ＫＬ　ＨＫ,,,,,,2023-02-02,1,,,,,ウェバックテクノロジーカンパニーリミテッド,0
1973,7700150114167,新規,0,2023-02-02,2023-02-02,ＳｈｅｎＺｈｅｎＳｈｉ　ＱｕａｎＺｈｅｎＫｅＪｉ　ＹｏｕＸｉａｎＧｏｎｇＳｉ,,外国会社等,,,,,,,,Ｎｏ．２３０，Ｘｉｘｉａｎｇ　Ａｖｅｎｕｅ，Ｌｏｎｇｔｅｎｇ　Ｃｏｍｍｕｎｉｔｙ，Ｘｉｘｉａｎｇ　Ｓｔｒｅｅｔ　Ｒｏｏｍ　１５０６，Ｂｌｏｃｋ　２，Ｍａｎｊｉｎｇｈｕａ　Ｙｉｌｕａｎ　Ｂｕｉｌｄｉｎｇ　Ｂａｏ’ａｎ　Ｄｉｓｔｒｉｃｔ，Ｓｈｅｎｚｈｅｎ　Ｃｉｔｙ，Ｇｕａｎｇｄｏｎｇ　Ｐｒｏｖｉｎｃｅ　Ｃｈｉｎａ,,,,,,2023-02-02,1,,,,,シンセンシカンセンケジユウゲンコウシ,0
1974,7700150114175,新規,0,2023-02-02,2023-02-02,Ｓｈｅｎｚｈｅｎ　Ｓｈｉ　Ｓｈｅｎｇｂｏｎａ　Ｉｎｔｅｒｎａｔｉｏｎａｌ　Ｅ－ｃｏｍｍｅｒｃｅ　Ｃｏ,,外国会社等,,,,,,,,Ｒ１０３５，ＢＬＤ　Ａ，ＪｉａｎｇｙａｄａｓｈａＮｏ．７，Ｎｏｎｇｌｉｎｇｌｕ，Ｆｕｔｉａｎ　Ｊｉａｄａｏ，Ｆｕｔｉａｎ　Ｄｉｓｔｒｉｃｔ，Ｓｈｅｎｚｈｅｎ，Ｃｈｉｎａ,,,,,,2023-02-02,1,,,,,シンセンシシェングボナインターナショナルイーコマースカンパニー,0
1981,8010001232690,新規,0,2023-02-02,2023-02-02,株式会社ワークアンコンシャスリー,,株式会社,東京都,中央区,銀座１丁目２２番１１号銀座大竹ビジデンス２Ｆ,,13,102,1040061,,,,,,,2023-02-02,1,,,,,ワークアンコンシャスリー,0
1982,8010001232708,新規,0,2023-02-02,2023-02-02,株式会社ミチビト,,株式会社,東京都,中央区,銀座１丁目２２番１１号銀座大竹ビジデンス２Ｆ,,13,102,1040061,,,,,,,2023-02-02,1,,,,,ミチビト,0
1994,8010401172090,新規,0,2023-02-02,2023-02-02,株式会社みなたい,,株式会社,東京都,港区,六本木６丁目１５番１号,,13,103,1060032,,,,,,,2023-02-02,1,,,,,ミナタイ,0
1995,8010401172215,新規,0,2023-02-02,2023-02-02,株式会社ＧＮＵ,,株式会社,東京都,港区,芝浦１丁目６－４１,,13,103,1050023,,,,,,,2023-02-02,1,,,,,ヌー,0
1996,8010401172289,新規,0,2023-02-02,2023-02-02,株式会社スカイブリッジ,,株式会社,東京都,港区,六本木５丁目１６番５号,,13,103,1060032,,,,,,,2023-02-02,1,,,,,スカイブリッジ,0
1999,8010403029421,新規,0,2023-02-02,2023-02-02,合同会社ＡＭＴ,,合同会社,東京都,港区,芝浦１丁目６番４１号,,13,103,1050023,,,,,,,2023-02-02,1,,,,,エーエムティー,0
2000,8010403029454,新規,0,2023-02-02,2023-02-02,合同会社ＺＥＫＫＡ,,合同会社,東京都,港区,浜松町２丁目２番１５号浜松町ダイヤビル２Ｆ,,13,103,1050013,,,,,,,2023-02-02,1,,,,,ゼッカ,0
2003,8010603009958,新規,0,2023-02-02,2023-02-02,合同会社ｕｎ,,合同会社,東京都,墨田区,京島２丁目２５番３号,,13,107,1310046,,,,,,,2023-02-02,1,,,,,アン,0
2004,8010603009974,新規,0,2023-02-02,2023-02-02,合同会社ｃｏ‐ｔａｋｅ,,合同会社,東京都,江東区,南砂４丁目４番２０－６０１号,,13,108,1360076,,,,,,,2023-02-02,1,,,,,コタケ,0
2006,8010901052445,新規,0,2023-02-02,2023-02-02,Ｏｎｅ　Ｆｏｒ　Ｏｎｅ　Ｃｏｎｓｕｌｔｉｎｇ株式会社,,株式会社,東京都,世田谷区,等々力１丁目１６番１５－３０７号,,13,112,1580082,,,,,,,2023-02-02,1,,,,,ワンフォーワンコンサルティング,0
2007,8010901052461,新規,0,2023-02-02,2023-02-02,株式会社ＧＧＷ,,株式会社,東京都,世田谷区,経堂１丁目２２番２０号経堂森ビル３０３,,13,112,1560052,,,,,,,2023-02-02,1,,,,,ジージーダブル,0
2012,8010903007942,新規,0,2023-02-02,2023-02-02,合同会社リベルタス,,合同会社,東京都,世田谷区,代田５丁目３４－１５－４０４,,13,112,1550033,,,,,,,2023-02-02,1,,,,,リベルタス,0
2015,8011001151864,新規,0,2023-02-02,2023-02-02,ツクヨミダイニングカンパニージャパン株式会社,,株式会社,東京都,目黒区,目黒本町２丁目１番１８－９０３号,,13,110,1520002,,,,,,,2023-02-02,1,,,,,ツクヨミダイニングカンパニージャパン,0
2018,8011005009927,新規,0,2023-02-02,2023-02-02,一般社団法人ＲＰＩＩ　Ｊａｐａｎ,,その他の設立登記法人,東京都,渋谷区,元代々木町３３番８号,,13,113,1510062,,,,,,,2023-02-02,1,,,,,アールピーアイアイジャパン,0
2020,8011101101678,新規,0,2023-02-02,2023-02-02,株式会社ＬＡ,,株式会社,東京都,新宿区,歌舞伎町１丁目１０－３Ｇ３ビル１Ｆ,,13,104,1600021,,,,,,,2023-02-02,1,,,,,エルエー,0
2023,8011303004654,新規,0,2023-02-02,2023-02-02,ＧＮ　Ｐａｒｔｎｅｒｓ合同会社,,合同会社,東京都,杉並区,高井戸東３丁目１番４号,,13,115,1680072,,,,,,,2023-02-02,1,,,,,ジーエヌパートナーズ,0
2029,8011501028926,新規,0,2023-02-02,2023-02-02,日本云楓全球購株式会社,,株式会社,東京都,荒川区,南千住３丁目２７－２浅草ビル,,13,118,1160003,,,,,,,2023-02-02,1,,,,,ニホンウンフウゼンキュウコウ,0
2038,8011801041876,新規,0,2023-02-02,2023-02-02,株式会社Ａｔｅｌｉｅｒ,,株式会社,東京都,葛飾区,亀有５丁目１９番７号,,13,122,1250061,,,,,,,2023-02-02,1,,,,,アトリエ,0
2040,8011803005490,新規,0,2023-02-02,2023-02-02,合同会社ｌｉｂｅｒｏｐｌｕｓ,,合同会社,東京都,足立区,新田３丁目２－１６グランスクエア２０５,,13,121,1230865,,,,,,,2023-02-02,1,,,,,リベロプラス,0
2041,8012401040153,新規,0,2023-02-02,2023-02-02,株式会社将士産業,,株式会社,東京都,稲城市,東長沼１００３番地ロイヤル稲城１０４,,13,225,2060802,,,,,,,2023-02-02,1,,,,,ショウジサンギョウ,0
2043,8012701017454,新規,0,2023-02-02,2023-02-02,Ｔｒｉｐｅａｋｓ株式会社,,株式会社,東京都,西東京市,下保谷１丁目６番１５号,,13,229,2020004,,,,,,,2023-02-02,1,,,,,トライピークス,0
2044,8012701017462,新規,0,2023-02-02,2023-02-02,株式会社ＣＯＣＯＮ,,株式会社,東京都,東村山市,富士見町１丁目１番地４１,,13,213,1890024,,,,,,,2023-02-02,1,,,,,ココン,0
2045,8012801022115,新規,0,2023-02-02,2023-02-02,株式会社Ｆｕｂｂ　ｉｎｔｅｒｎａｔｉｏｎａｌ,,株式会社,東京都,立川市,一番町４丁目３９番地の３正光平成ビル３０２,,13,202,1900033,,,,,,,2023-02-02,1,,,,,ファブインターナショナル,0
2046,8012801022123,新規,0,2023-02-02,2023-02-02,株式会社ＡＫＩ　ＦＬＯＷＥＲＳ,,株式会社,東京都,国立市,東２丁目１９番地の３４,,13,215,1860002,,,,,,,2023-02-02,1,,,,,アキフラワーズ,0
2054,8013303006481,新規,0,2023-02-02,2023-02-02,合同会社ホリマサ,,合同会社,東京都,豊島区,池袋１丁目３番７号プルミエル２０２号,,13,116,1700014,,,,,,,2023-02-02,1,,,,,ホリマサ,0
2059,8020001150066,新規,0,2023-02-02,2023-02-02,Ｍ‐システムコンサルティング株式会社,,株式会社,神奈川県,川崎市高津区,久本３丁目６番３－１４１５号,,14,134,2130011,,,,,,,2023-02-02,1,,,,,エムシステムコンサルティング,0
2060,8020001150082,新規,0,2023-02-02,2023-02-02,株式会社牧野経営企画,,株式会社,神奈川県,横浜市南区,南吉田町４丁目３７番地,,14,105,2320012,,,,,,,2023-02-02,1,,,,,マキノケイエイキカク,0
2061,8020001150132,新規,0,2023-02-02,2023-02-02,株式会社ＳＴＩ,,株式会社,神奈川県,川崎市多摩区,中野島６丁目４番３－３１４号,,14,135,2140012,,,,,,,2023-02-02,1,,,,,エスティアイ,0
2064,8020003023105,新規,0,2023-02-02,2023-02-02,合同会社ＬＡＣＣＩ,,合同会社,神奈川県,横浜市神奈川区,片倉１丁目３０－５サンハイツ１０１,,14,102,2210865,,,,,,,2023-02-02,1,,,,,ラッチ,0
2065,8020003023229,新規,0,2023-02-02,2023-02-02,売上倍増計画プロジェクト合同会社,,合同会社,神奈川県,川崎市高津区,子母口４３６番地９,,14,134,2130023,,,,,,,2023-02-02,1,,,,,ウリアゲバイゾウケイカクプロジェクト,0
2066,8020003023245,新規,0,2023-02-02,2023-02-02,合同会社オフィス今井,,合同会社,神奈川県,横浜市鶴見区,市場下町７－６,,14,101,2300024,,,,,,,2023-02-02,1,,,,,オフィスイマイ,0
2067,8021001078124,新規,0,2023-02-02,2023-02-02,株式会社ハーバーマネジメント,,株式会社,神奈川県,三浦市,三崎町城ケ島３３７,,14,210,2380237,,,,,,,2023-02-02,1,,,,,ハーバーマネジメント,0
2069,8021003012709,新規,0,2023-02-02,2023-02-02,合同会社キタムラ,,合同会社,神奈川県,鎌倉市,御成町５番３５号,,14,204,2480012,,,,,,,2023-02-02,1,,,,,キタムラ,0
2074,8030001152193,新規,0,2023-02-02,2023-02-02,株式会社ＯＫ,,株式会社,埼玉県,久喜市,久喜東１丁目５番２７号,,11,232,3460016,,,,,,,2023-02-02,1,,,,,オーケー,0
2077,8030003021082,新規,0,2023-02-02,2023-02-02,Ｅｍｍｙ合同会社,,合同会社,埼玉県,さいたま市桜区,大字白鍬９４－１チサンマンション浦和西１０１,,11,106,3380811,,,,,,,2023-02-02,1,,,,,エミー,0
2078,8030003021099,新規,0,2023-02-02,2023-02-02,合同会社Ｍｉｃｒｏ　Ｃｏｍｐａｎｙ,,合同会社,埼玉県,さいたま市浦和区,仲町３丁目１－１－９０４,,11,107,3300062,,,,,,,2023-02-02,1,,,,,マイクロカンパニー,0
2085,8040001126832,新規,0,2023-02-02,2023-02-02,株式会社ＴＯＵＳＥＮ,,株式会社,千葉県,君津市,人見４丁目８番３４号２０１,,12,225,2991147,,,,,,,2023-02-02,1,,,,,トウセン,0
2086,8040001126873,新規,0,2023-02-02,2023-02-02,株式会社要工業,,株式会社,千葉県,千葉市緑区,あすみが丘８丁目６番地５,,12,105,2670066,,,,,,,2023-02-02,1,,,,,カナメコウギョウ,0
2088,8040003021825,新規,0,2023-02-02,2023-02-02,合同会社ＥＹＬ,,合同会社,千葉県,松戸市,小金原８丁目８番地の１８,,12,207,2700021,,,,,,,2023-02-02,1,,,,,エイル,0
2089,8040003021833,新規,0,2023-02-02,2023-02-02,合同会社ＨＯＰＥ,,合同会社,千葉県,千葉市稲毛区,小仲台２丁目６番１号京成稲毛ビル２階,,12,103,2630043,,,,,,,2023-02-02,1,,,,,ホープ,0
2094,8050003007195,新規,0,2023-02-02,2023-02-02,合同会社ハートソナー奏,,合同会社,茨城県,日立市,相田町１丁目１０番２０号,,08,202,3191415,,,,,,,2023-02-02,1,,,,,ハートソナーカナデ,0
2098,8080001025444,新規,0,2023-02-02,2023-02-02,株式会社ＮＪＴ新日本トラベル,,株式会社,静岡県,静岡市清水区,蜂ヶ谷南町７番５号,,22,103,4240004,,,,,,,2023-02-02,1,,,,,エヌジェイティーシンニホントラベル,0
2100,8080003002929,新規,0,2023-02-02,2023-02-02,合同会社なのはな,,合同会社,静岡県,静岡市葵区,昭府１丁目１６番５号－１０２号室,,22,101,4200871,,,,,,,2023-02-02,1,,,,,ナノハナ,0
2102,8080101023777,新規,0,2023-02-02,2023-02-02,株式会社松下創建,,株式会社,静岡県,御殿場市,萩原２７０番地の１６,,22,215,4120042,,,,,,,2023-02-02,1,,,,,マツシタソウケン,0
2121,8120001252174,新規,0,2023-02-02,2023-02-02,株式会社ＫＡＮＡＵ,,株式会社,大阪府,大阪市天王寺区,南河堀町１番１４号ＬＮ南河堀４０１号,,27,109,5430054,,,,,,,2023-02-02,1,,,,,カナウ,0
2122,8120001252182,新規,0,2023-02-02,2023-02-02,Ｎｅｗ　Ａｄｖｅｎｔｕｒｅ株式会社,,株式会社,大阪府,大阪市生野区,小路東６丁目８番１７号昭和エクセルビュー東大阪１０３－Ｇ２６,,27,116,5440003,,,,,,,2023-02-02,1,,,,,ニューアドベンチャー,0
2123,8120001252190,新規,0,2023-02-02,2023-02-02,株式会社エラン,,株式会社,大阪府,大阪市北区,天満４丁目１７番６－２０４号,,27,127,5300043,,,,,,,2023-02-02,1,,,,,エラン,0
2124,8120001252257,新規,0,2023-02-02,2023-02-02,そうま株式会社,,株式会社,大阪府,大阪市東淀川区,西淡路１丁目１番３５号ＩＭＣ国際医療センタービル８Ｆ,,27,114,5330031,,,,,,,2023-02-02,1,,,,,ソウマ,0
2125,8120001252265,新規,0,2023-02-02,2023-02-02,株式会社Ｅｌｉｓｔａ,,株式会社,大阪府,大阪市淀川区,西中島４丁目４番２５号１０１２,,27,123,5320011,,,,,,,2023-02-02,1,,,,,エリスタ,0
2126,8120001252273,新規,0,2023-02-02,2023-02-02,株式会社スターク,,株式会社,大阪府,大阪市北区,梅田１丁目２番２号大阪駅前第２ビル１２－１２,,27,127,5300001,,,,,,,2023-02-02,1,,,,,スターク,0
2134,8122001036656,新規,0,2023-02-02,2023-02-02,株式会社福山商社,,株式会社,大阪府,東大阪市,菱屋西２丁目１番１２号,,27,227,5770807,,,,,,,2023-02-02,1,,,,,フクヤマショウシャ,0
2137,8130001073594,新規,0,2023-02-02,2023-02-02,株式会社メタ・メタル京都,,株式会社,京都府,京都市北区,上賀茂岩ケ垣内町５３番地１,,26,101,6038053,,,,,,,2023-02-02,1,,,,,メタメタルキョウト,0
2153,8180001154695,新規,0,2023-02-02,2023-02-02,株式会社サンクルー,,株式会社,愛知県,名古屋市東区,徳川２丁目２１番６号,,23,102,4610025,,,,,,,2023-02-02,1,,,,,サンクルー,0
2154,8180001154712,新規,0,2023-02-02,2023-02-02,株式会社スターライフ,,株式会社,愛知県,名古屋市天白区,福池１丁目２６番地の４,,23,116,4680049,,,,,,,2023-02-02,1,,,,,スターライフ,0
2155,8180001154737,新規,0,2023-02-02,2023-02-02,株式会社メビウス,,株式会社,愛知県,名古屋市中区,錦３丁目１８番１６号,,23,106,4600003,,,,,,,2023-02-02,1,,,,,メビウス,0
2156,8180001154778,新規,0,2023-02-02,2023-02-02,株式会社グリード,,株式会社,愛知県,名古屋市中村区,名駅３丁目４番１０号アルティメイト名駅１ｓｔ２階,,23,105,4500002,,,,,,,2023-02-02,1,,,,,グリード,0
2157,8180001154786,新規,0,2023-02-02,2023-02-02,株式会社Ａ‐Ｂｌｏｏｍ,,株式会社,愛知県,小牧市,古雅４丁目１０３番地６,,23,219,4850814,,,,,,,2023-02-02,1,,,,,エーブルーム,0
2160,8180003024789,新規,0,2023-02-02,2023-02-02,エージャンシステム合同会社,,合同会社,愛知県,名古屋市守山区,天子田２丁目１０９番地の２,,23,113,4630037,,,,,,,2023-02-02,1,,,,,エージャンシステム,0
2165,8180301037055,新規,0,2023-02-02,2023-02-02,株式会社寿,,株式会社,愛知県,蒲郡市,緑町１８番４号,,23,214,4430048,,,,,,,2023-02-02,1,,,,,コトブキ,0
2169,8200001040926,新規,0,2023-02-02,2023-02-02,株式会社ワンエイトフォー,,株式会社,岐阜県,瑞穂市,田之上１６９番地３,,21,216,5010304,,,,,,,2023-02-02,1,,,,,ワンエイトフォー,0
2175,8230001019703,新規,0,2023-02-02,2023-02-02,株式会社ｕｆｃｃａ,,株式会社,富山県,富山市,下新北町１８番１３号,,16,201,9300802,,,,,,,2023-02-02,1,,,,,ユフカ,0
2180,8260001037628,新規,0,2023-02-02,2023-02-02,株式会社ぴっぐむぅ,,株式会社,岡山県,瀬戸内市,長船町長船７８８－１,,33,212,7014271,,,,,,,2023-02-02,1,,,,,ピッグムゥ,0
2183,8260003004188,新規,0,2023-02-02,2023-02-02,タイガー運送合同会社,,合同会社,岡山県,倉敷市,真備町箭田１２２６番地１,00129295,33,202,7101301,,,,,,,2023-02-02,1,,,,,タイガーウンソウ,0
2184,8270005005539,新規,0,2023-02-02,2023-02-02,智頭倉庫販賣利用農業協同組合連合會,,その他の設立登記法人,鳥取県,八頭郡智頭町,大字智頭１８１１番地４,,31,328,6891402,,,,,,,2023-02-02,1,,,,,,0
2192,8290001100432,新規,0,2023-02-02,2023-02-02,株式会社Ｇ・Ｈ・Ｓ,,株式会社,福岡県,福岡市中央区,薬院２丁目２番３３号ＯＡＳ薬院ビル１Ｆ,,40,133,8100022,,,,,,,2023-02-02,1,,,,,ジーエイチエス,0
2193,8290001100457,新規,0,2023-02-02,2023-02-02,株式会社Ｐｏｌａｎｅｙ,,株式会社,福岡県,福岡市中央区,大名２丁目６番１１号ＦｕｋｕｏｋａＧｒｏｗｔｈＮｅｘｔ,,40,133,8100041,,,,,,,2023-02-02,1,,,,,ポラニー,0
2194,8290001100465,新規,0,2023-02-02,2023-02-02,株式会社ＣｉｅｌｏＢｌｕ,,株式会社,福岡県,福岡市中央区,舞鶴３丁目２番３２号,,40,133,8100073,,,,,,,2023-02-02,1,,,,,シエロブルー,0
2195,8290001100481,新規,0,2023-02-02,2023-02-02,株式会社東盛パートナーズ,,株式会社,福岡県,福岡市西区,石丸２丁目２９番２２号,,40,135,8190025,,,,,,,2023-02-02,1,,,,,トウセイパートナーズ,0
2196,8290003013483,新規,0,2023-02-02,2023-02-02,ＶＪ　ＬＩＧＨＴ合同会社,,合同会社,福岡県,福岡市博多区,博多駅東２丁目５番１号アーバンネット博多ビル４階,,40,132,8120013,,,,,,,2023-02-02,1,,,,,ブイジェイライト,0
2197,8290003013491,新規,0,2023-02-02,2023-02-02,合同会社８２７３企画室,,合同会社,福岡県,糟屋郡宇美町,障子岳２丁目１４番１８号,,40,341,8112127,,,,,,,2023-02-02,1,,,,,ヤツナミキカクシツ,0
2201,8290005018943,新規,0,2023-02-02,2023-02-02,医療法人明和会,,その他の設立登記法人,福岡県,太宰府市,青山２丁目２５番１号,,40,221,8180121,,,,,,,2023-02-02,1,,,,,メイワカイ,0
2207,8340001025351,新規,0,2023-02-02,2023-02-02,株式会社萩原塗装,,株式会社,鹿児島県,姶良市,平松４６１０－３,,46,225,8995652,,,,,,,2023-02-02,1,,,,,,0
2210,8350001018164,新規,0,2023-02-02,2023-02-02,株式会社ピア７,,株式会社,宮崎県,宮崎市,永楽町１７番地,,45,201,8800872,,,,,,,2023-02-02,1,,,,,ピアセブン,0
2214,8370001049570,新規,0,2023-02-02,2023-02-02,株式会社Ｐ．Ｉ．Ａｒｔ,,株式会社,宮城県,仙台市宮城野区,榴岡５丁目３番１号松本ビル１階,,04,102,9830852,,,,,,,2023-02-02,1,,,,,ピーアイアート,0
2216,8370003005976,新規,0,2023-02-02,2023-02-02,Ｂｉｎｈ　Ｍｉｎｈ合同会社,,合同会社,宮城県,仙台市青葉区,一番町１丁目１３番２０号１０２号室,,04,101,9800811,,,,,,,2023-02-02,1,,,,,ビンミン,0
2218,8390003002047,新規,0,2023-02-02,2023-02-02,合同会社Ｋｏｕｋａｎｄｏ,,合同会社,山形県,山形市,荒楯町２丁目６番５号,,06,201,9902432,,,,,,,2023-02-02,1,,,,,コウカンドウ,0
2224,8410003003752,新規,0,2023-02-02,2023-02-02,合同会社鈴木商店,,合同会社,秋田県,横手市,赤坂字上後野１３－１３３,,05,203,0130064,,,,,,,2023-02-02,1,,,,,スズキショウテン,0
2234,8460301005124,新規,0,2023-02-02,2023-02-02,株式会社松永水産,,株式会社,北海道,常呂郡佐呂間町,字幌岩１番地の９,,01,552,0930422,,,,,,,2023-02-02,1,,,,,マツナガスイサン,0
2240,8480001011998,新規,0,2023-02-02,2023-02-02,株式会社ＬｕｘｕｒｅｅＨｏｍｅ,,株式会社,徳島県,名東郡佐那河内村,下字丸田５３番地,,36,321,7714101,,,,,,,2023-02-02,1,,,,,ラグジュリーホーム,0
2243,8500003002968,新規,0,2023-02-02,2023-02-02,合同会社アイトレンド,,合同会社,愛媛県,松山市,正円寺２丁目１２番２６号,,38,201,7900904,,,,,,,2023-02-02,1,,,,,アイトレンド,0
2244,8700150040973,新規,0,2023-02-02,2015-10-09,鶴岡食文化創造都市推進協議会,,その他,山形県,鶴岡市,馬場町９－２５,,06,203,9970035,,,,,,,2015-10-09,1,,,,,ツルオカシヨクブンカソウゾウトシスイシンキヨウギカイ,0
2245,8700150114091,新規,0,2023-02-02,2023-02-02,Ｓｈｅｎｚｈｅｎ　ｏｕｍｍｉｔ　ｔｒａｄｉｎｇ　ｃｏ．ＬＴＤ,,外国会社等,,,,,,,,Ａ１００９，Ｇａｏｓｈｅｎｇ　ｂｕｉｌｄｉｎｇ，Ｓｈａｊｉｎｇ　ｒｏａｄ，ｓｈｅｎｚｈｅｎｓｈｉ，Ｃｈｉｎａ,,,,,,2023-02-02,1,,,,,シンセンオウメイテイショウボウユウゲンコウシ,0
2246,8700150114100,新規,0,2023-02-02,2023-02-02,Ｑｕａｎｚｈｏｕ　Ｍａｉｊｉｎｇ　Ｂｕｓｉｎｅｓｓ　Ｄｅｖｅｌｏｐｍｅｎｔ　Ｃｏ　Ｌｔｄ,,外国会社等,,,,,,,,Ｒｏｏｍ　６０６，Ｃ２，Ｎｏ．１５８，Ｎａｎｊｕｎ　Ｎｏｒｔｈ　Ｒｏａｄ，Ｄｏｎｇｓｈｅｎｇ　Ｃｏｍｍｕｎｉｔ，Ｋａｉｙｕａｎ　Ｓｔｒｅｅｔ，Ｗｕｃｈｅｎｇ　Ｄｉｓｔｒｉｃｔ，Ｑｕａｎｚｈｏｕ，Ｆｕｊｉａｎ，Ｃｈｉｎａ,,,,,,2023-02-02,1,,,,,チイエンゾウマイジンビジネスデベロップメントユウゲンコウシ,0
2247,8700150114109,新規,0,2023-02-02,2023-02-02,ｘｉｎｙｉｓｈｉｈｅｙｕａｎｚｈｕａｎｇｓｈｉｓｈｅｊｉｇｏｎｇｃｈｅｎｇｙｏｕｘｉａｎｇｏｎｇｓｉ,,外国会社等,,,,,,,,ｇｕａｎｇｄｏｎｇｓｈｅｎｇｍａｏｍｉｎｇｓｈｉｘｉｎｙｉｓｈｉｊｉｎｈｕｈｕａｙｕａｎｌｉｕｇｕｏｑｉａｎｇｗｕｅｒｌ，ｘｉｎｙｉ，ｇｕａｎｇｄｏｎｇ，Ｃｈｉｎａ,,,,,,2023-02-02,1,,,,,シンイシヘエンソウシセッケイコウテイユウゲンコウシ,0
2248,8700150114117,新規,0,2023-02-02,2023-02-02,ＮＡＣ　Ａｖｉａｔｉｏｎ　３７　Ｌｔｄ,,外国会社等,,,,,,,,Ｇａｒｄｅｎｓ　Ｉｎｔｅｒｎａｔｉｏｎａｌ，Ｈｅｎｒｙ　Ｓｔｒｅｅｔ，Ｌｉｍｅｒｉｃｋ　Ｖ９４　４Ｄ８３,,,,,,2023-02-02,1,,,,,エヌエーシーエヴイエイシヨンサーテイセブンリミテツド,0
2249,8700150114133,新規,0,2023-02-02,2023-02-02,深セン市南鳳凰科技有限公司,,外国会社等,,,,,,,,中国深セン市龍華区民治街道万衆城万衆潤豊工業区Ｂ棟Ａ－１１室,,,,,,2023-02-02,1,,,,,シンセンシナンホウオウカギユウゲンコウシ,0
2250,8700150114141,新規,0,2023-02-02,2023-02-02,ｚｈｕｊｉｍｅｎｇｇｕｏ　ｄｉａｎｚｉｓｈａｎｇｗｕ　ｙｏｕｘｉａｎｇｏｎｇｓｉ,,外国会社等,,,,,,,,ｊｉｙａｎｇｊｉｅｄａｏ，ｊｉｎａｎｃｕｎ７２ｚｈｕａｎｇ５５８ｈａｏ１０１ｓｈｉ，ｚｈｕｊｉｓｈｉ，ｚｈｅｊｉａｎｇｓｈｅｎｇ，ｃｈｉｎａ,,,,,,2023-02-02,1,,,,,ズジメングオデンシショウムユウゲンコウシ,0
2251,8700150114158,新規,0,2023-02-02,2023-02-02,Ｆｕｎ　Ｔｅｃｈｎｏｌｏｇｙ　Ｉｎｎｏｖａｔｉｏｎ　Ｉｎｃ．,,外国会社等,,,,,,,,１８Ｆ．－３，Ｎｏ．９３，Ｓｅｃ．１，Ｓｉｎｔａｉ　５ｔｈ　Ｒｄ．，Ｓｉｊｈｉｈ　Ｄｉｓｔ．，Ｎｅｗ　Ｔａｉｐｅｉ　Ｃｉｔｙ　２２１４１６，Ｔａｉｗａｎ（Ｒ．Ｏ．Ｃ．）,,,,,,2023-02-02,1,,,,,ファンテクノロジーイノベーションインク,0
2252,8700150114166,新規,0,2023-02-02,2023-02-02,ａｌｆａ　ｍａｒｉｎｅ　Ｓｈａｎｇｈａｉ　Ｃｏ．，Ｌｔｄ,,外国会社等,,,,,,,,Ｚｈａｎｇｙａｎｇ　Ｒｏａｄ　１２６９，Ｓｈａｎｇｈａｉ，Ｐｕｄｏｎｇ，Ｃｈｉｎａ,,,,,,2023-02-02,1,,,,,アルファマリンシャンハイカンパニーリミテッド,0
2253,8700150114174,新規,0,2023-02-02,2023-02-02,ｊｉｕｊｉａｎｇ　ｂａｉｚｉｓｈｕｓｈａｎｇｍａｏ　ｙｏｕｘｉａｎｇｏｎｇｓｉ,,外国会社等,,,,,,,,３／Ｆ，Ｂｕｉｌｄｉｎｇ　１，Ｓｏｎｇｊｉａ　Ｐａｉｌｏｕ　Ｒｅｓｉｄｅｎｔｉａｌ　Ａｒｅａ，Ｓｏｎｇｊｉａ　Ｐａｉ　Ｃｏｍｍｕｎｉｔｙ，Ｗｕｌｉ　Ｓｔｒｅｅｔ　Ｌｉａｎｘｉ　Ｄｉｓｔｒｉｃｔ，Ｊｉｕｊｉａｎｇ　Ｃｉｔｙ，Ｊｉａｎｇｘｉ　Ｐｒｏｖｉｎｃｅ，Ｃｈｉｎａ,,,,,,2023-02-02,1,,,,,ジウジャンバイジシュシャンマオユウゲンコウシ,0
2270,9010003039737,新規,0,2023-02-02,2023-02-02,ＡＰＡＶＥ　ＴＩＶ　ＪＡＰＡＮ合同会社,,合同会社,東京都,中央区,日本橋３丁目９番１号日本橋三丁目スクエア１１階,,13,102,1030027,,,,,,,2023-02-02,1,,,,,アパブティーアイヴィージャパン,0
2271,9010005036170,新規,0,2023-02-02,2023-02-02,一般社団法人シニアｅスポーツ協会,,その他の設立登記法人,東京都,中央区,八丁堀４丁目８番１０号,,13,102,1040032,,,,,,,2023-02-02,1,,,,,シニアイースポーツキョウカイ,0
2283,9010401172156,新規,0,2023-02-02,2023-02-02,株式会社レナウディア,,株式会社,東京都,港区,南青山２丁目２番１５号ウィン青山９４２,,13,103,1070062,,,,,,,2023-02-02,1,,,,,レナウディア,0
2284,9010401172180,新規,0,2023-02-02,2023-02-02,１０５ＶＭ株式会社,,株式会社,東京都,港区,麻布十番４丁目１番１０－７０７号,,13,103,1060045,,,,,,,2023-02-02,1,,,,,ワンオーファイブブイエム,0
2285,9010403029420,新規,0,2023-02-02,2023-02-02,大江戸合同会社,,合同会社,東京都,港区,虎ノ門３丁目２２番１０－２０１号,,13,103,1050001,,,,,,,2023-02-02,1,,,,,オオエド,0
2286,9010403029429,新規,0,2023-02-02,2023-02-02,ＡＥＪ麓山風力合同会社,,合同会社,東京都,港区,新橋５丁目２３番７号三栄ビル４階エーアンドシー総合事務所内,,13,103,1050004,,,,,,,2023-02-02,1,,,,,エーイージェーハヤマフウリョク,0
2289,9010501049956,新規,0,2023-02-02,2023-02-02,河川環境保全株式会社,,株式会社,東京都,台東区,浅草１丁目４１番５号浅草シミズビル３０５号室,,13,106,1110032,,,,,,,2023-02-02,1,,,,,カセンカンキョウホゼン,0
2291,9010601062537,新規,0,2023-02-02,2023-02-02,Ｎｅｗｂｅｅ株式会社,,株式会社,東京都,墨田区,文花１丁目３４番１１－３０１号,,13,107,1310044,,,,,,,2023-02-02,1,,,,,ニュービー,0
2294,9010901052460,新規,0,2023-02-02,2023-02-02,株式会社レポロ,,株式会社,東京都,世田谷区,岡本３丁目２７番１３－４０４号,,13,112,1570076,,,,,,,2023-02-02,1,,,,,レポロ,0
2297,9010903007941,新規,0,2023-02-02,2023-02-02,合同会社ＲＳＡ,,合同会社,東京都,世田谷区,北沢５丁目２番１３－１０３号,,13,112,1550031,,,,,,,2023-02-02,1,,,,,アールエスエー,0
2304,9011003015827,新規,0,2023-02-02,2023-02-02,合同会社Ｍａｖｅｒｉｃｋｓ．ｌｔｄ,,合同会社,東京都,渋谷区,神宮前６丁目２３番４号桑野ビル２階,,13,113,1500001,,,,,,,2023-02-02,1,,,,,マーベリクスエルティーディー,0
2305,9011003016222,新規,0,2023-02-02,2023-02-02,ＮｅｗＶａｌｌｅｙ　Ｃｏｎｓｕｌｔｉｎｇ合同会社,,合同会社,東京都,渋谷区,神宮前６丁目２３番４号桑野ビル２階,,13,113,1500001,,,,,,,2023-02-02,1,,,,,ニューバレーコンサルティング,0
2306,9011005009934,新規,0,2023-02-02,2023-02-02,ＫＩＺＡＳＨＩ社会保険労務士法人,,その他の設立登記法人,東京都,渋谷区,渋谷３丁目２７番１５号４Ｆ,,13,113,1500002,,,,,,,2023-02-02,1,,,,,キザシ,0
2312,9011101101669,新規,0,2023-02-02,2023-02-02,株式会社ｂｅ　ａ　ｌａｗｙｅｒ,,株式会社,東京都,新宿区,南山伏町３－３パークスフィア牛込神楽坂２０７号,,13,104,1620854,,,,,,,2023-02-02,1,,,,,ビーアロイヤー,0
2313,9011101101727,新規,0,2023-02-02,2023-02-02,株式会社三和不動産,,株式会社,東京都,新宿区,高田馬場２丁目８番２６号興和ビルディング２Ｆ,,13,104,1690075,,,,,,,2023-02-02,1,,,,,サンワフドウサン,0
2316,9011401024875,新規,0,2023-02-02,2023-02-02,津久井工業株式会社,,株式会社,東京都,板橋区,高島平２丁目１６番１号,,13,119,1750082,,,,,,,2023-02-02,1,,,,,ツクイコウギョウ,0
2320,9011501028818,新規,0,2023-02-02,2023-02-02,株式会社フォート,,株式会社,東京都,荒川区,東日暮里４丁目３１番１５－７０３号,,13,118,1160014,,,,,,,2023-02-02,1,,,,,フォート,0
2321,9011501028925,新規,0,2023-02-02,2023-02-02,日本安可多株式会社,,株式会社,東京都,荒川区,南千住３丁目２７－２浅草ビル５０８,,13,118,1160003,,,,,,,2023-02-02,1,,,,,ニホンアンカタ,0
2323,9011601026556,新規,0,2023-02-02,2023-02-02,株式会社設備王,,株式会社,東京都,練馬区,貫井４丁目１０番９－１０２号,,13,120,1760021,,,,,,,2023-02-02,1,,,,,セツビオウ,0
2328,9012401040152,新規,0,2023-02-02,2023-02-02,株式会社セーフティ,,株式会社,東京都,稲城市,平尾１丁目５１番地の１コーポ白井１－２０３,,13,225,2060823,,,,,,,2023-02-02,1,,,,,セーフティ,0
2340,9020001150107,新規,0,2023-02-02,2023-02-02,株式会社ＤＯＣＫＬＡＮＤＳ,,株式会社,神奈川県,横浜市都筑区,中川２丁目９番６－５０１号,,14,118,2240001,,,,,,,2023-02-02,1,,,,,ドックランズ,0
2342,9021001078107,新規,0,2023-02-02,2023-02-02,シーエスオー株式会社,,株式会社,神奈川県,座間市,入谷西５丁目２３－３,,14,216,2520029,,,,,,,2023-02-02,1,,,,,シーエスオー,0
2367,9060001035667,新規,0,2023-02-02,2023-02-02,アグリ装設株式会社,,株式会社,栃木県,宇都宮市,宝木本町１２３３番地３６,,09,201,3200075,,,,,,,2023-02-02,1,,,,,アグリソウセツ,0
2371,9080101023776,新規,0,2023-02-02,2023-02-02,株式会社インテリアコジマ,,株式会社,静岡県,駿東郡長泉町,下土狩１３９５番地,,22,342,4110943,,,,,,,2023-02-02,1,,,,,インテリアコジマ,0
2372,9080401026289,新規,0,2023-02-02,2023-02-02,株式会社Ｒｕｓｏｍａ,,株式会社,静岡県,浜松市南区,小沢渡町１２９６番地の１,,22,134,4328063,,,,,,,2023-02-02,1,,,,,ルソマ,0
2373,9080401026297,新規,0,2023-02-02,2023-02-02,ＫＡＩエンジニアリング株式会社,,株式会社,静岡県,浜松市中区,早出町１０４８番地の６,,22,131,4350054,,,,,,,2023-02-02,1,,,,,カイエンジニアリング,0
2375,9100001036090,新規,0,2023-02-02,2023-02-02,日本ライフサイクルフォーラム株式会社,,株式会社,長野県,伊那市,美篶５４２７番地２,,20,209,3960111,,,,,,,2023-02-02,1,,,,,ニホンライフサイクルフォーラム,0
2376,9110001037278,新規,0,2023-02-02,2023-02-02,新潟総合シャッター株式会社,,株式会社,新潟県,長岡市,両高１２６３,,15,202,9494524,,,,,,,2023-02-02,1,,,,,,0
2395,9120001252181,新規,0,2023-02-02,2023-02-02,謙言株式会社,,株式会社,大阪府,大阪市天王寺区,寺田町２丁目２番３号Ｍヴィレッヂ寺田町８０３Ａ,,27,109,5430045,,,,,,,2023-02-02,1,,,,,ケンゲン,0
2396,9120001252256,新規,0,2023-02-02,2023-02-02,株式会社爆益,,株式会社,大阪府,大阪市北区,西天満６丁目３－１６－３０３号,,27,127,5300047,,,,,,,2023-02-02,1,,,,,バクエキ,0
2400,9120003023366,新規,0,2023-02-02,2023-02-02,合同会社サイバーコネクト,,合同会社,大阪府,大阪市西成区,玉出西１丁目４番６号,,27,122,5570045,,,,,,,2023-02-02,1,,,,,サイバーコネクト,0
2402,9120005023447,新規,0,2023-02-02,2023-02-02,行政書士法人のりやす事務所,,その他の設立登記法人,大阪府,寝屋川市,高宮栄町２５番２１号,,27,215,5720846,,,,,,,2023-02-02,1,,,,,ノリヤスジムショ,0
2411,9130001073627,新規,0,2023-02-02,2023-02-02,鳶裕株式会社,,株式会社,京都府,舞鶴市,北浜町１６－８,,26,202,6250050,,,,,,,2023-02-02,1,,,,,トビヒロ,0
2414,9140001128982,新規,0,2023-02-02,2023-02-02,株式会社ＪＤＭ　Ｇｕｍｉ,,株式会社,兵庫県,神戸市中央区,磯辺通３丁目２番４－９０３号,,28,110,6510084,,,,,,,2023-02-02,1,,,,,ジェーディーエムグミ,0
2418,9140003018678,新規,0,2023-02-02,2023-02-02,合同会社Ｍｏｍｅｎｔ,,合同会社,兵庫県,加古川市,平岡町山之上６６１番地の１,,28,210,6750112,,,,,,,2023-02-02,1,,,,,モーメント,0
2436,9180001154760,新規,0,2023-02-02,2023-02-02,株式会社グッドハウス,,株式会社,愛知県,名古屋市瑞穂区,彌富町字月見ケ岡４番地の３,,23,108,4670035,,,,,,,2023-02-02,1,,,,,グッドハウス,0
2437,9180001154785,新規,0,2023-02-02,2023-02-02,株式会社ＴＪ,,株式会社,愛知県,津島市,宇治町字旭１０６番地１,,23,208,4960008,,,,,,,2023-02-02,1,,,,,ティージェー,0
2441,9180005020100,新規,0,2023-02-02,2023-02-02,司法書士法人セントリーガル事務所,,その他の設立登記法人,愛知県,名古屋市西区,平中町３４８番地,,23,104,4520843,,,,,,,2023-02-02,1,,,,,セントリーガルジムショ,0
2452,9200003005827,新規,0,2023-02-02,2023-02-02,合同会社みなみ事務所,,合同会社,岐阜県,岐阜市,領下１４９２番地４,,21,201,5008241,,,,,,,2023-02-02,1,,,,,ミナミジムショ,0
2457,9230001019702,新規,0,2023-02-02,2023-02-02,株式会社ビューディカル,,株式会社,富山県,高岡市,福岡町福岡新１４７番地,,16,202,9390117,,,,,,,2023-02-02,1,,,,,ビューディカル,0
2463,9250003003215,新規,0,2023-02-02,2023-02-02,合同会社ＷＢＴ,,合同会社,山口県,下関市,上田中町２丁目１７番２９号,,35,201,7500009,,,,,,,2023-02-02,1,,,,,ダブリュビーティー,0
2465,9260001037627,新規,0,2023-02-02,2023-02-02,株式会社坪井,,株式会社,岡山県,岡山市南区,中畦２４０番地,,33,104,7010213,,,,,,,2023-02-02,1,,,,,ツボイ,0
2468,9270003001480,新規,0,2023-02-02,2023-02-02,アシストファーム合同会社,,合同会社,鳥取県,西伯郡南部町,鴨部７０４番地１３,,31,389,6830341,,,,,,,2023-02-02,1,,,,,アシストファーム,0
2471,9280001008873,新規,0,2023-02-02,2023-02-02,Ｃｏ・Ｔｅｒｒａ株式会社,,株式会社,島根県,出雲市,湖陵町板津５７番地１,,32,203,6990817,,,,,,,2023-02-02,1,,,,,コテラ,0
2472,9280005007533,新規,0,2023-02-02,2023-02-02,医療法人フロンティア,,その他の設立登記法人,島根県,松江市,宍道町佐々布２１１番地８,,32,201,6990406,,,,,,,2023-02-02,1,,,,,フロンティア,0
2475,9290001100423,新規,0,2023-02-02,2023-02-02,株式会社ユーティライズＷＥＳＴ,,株式会社,福岡県,福岡市中央区,薬院３丁目１６番２７号,,40,133,8100022,,,,,,,2023-02-02,1,,,,,ユーティライズウエスト,0
2476,9290001100431,新規,0,2023-02-02,2023-02-02,株式会社Ｍｍｅｎｕ　Ｊａｐａｎ,,株式会社,福岡県,福岡市中央区,天神２丁目５番２８号天神西通りセンタービル６Ｆ,,40,133,8100001,,,,,,,2023-02-02,1,,,,,エムメニュージャパン,0
2477,9290001100448,新規,0,2023-02-02,2023-02-02,株式会社Ｆｅｅｌｅｎｓｅ．,,株式会社,福岡県,福岡市中央区,渡辺通１丁目１番１号,,40,133,8100004,,,,,,,2023-02-02,1,,,,,フィーレンス,0
2478,9290001100464,新規,0,2023-02-02,2023-02-02,株式会社レペル,,株式会社,福岡県,糟屋郡志免町,南里６丁目１番１５号,,40,343,8112207,,,,,,,2023-02-02,1,,,,,レペル,0
2481,9290003013490,新規,0,2023-02-02,2023-02-02,川原板金合同会社,,合同会社,福岡県,飯塚市,庄司２０２０番地３,,40,205,8200051,,,,,,,2023-02-02,1,,,,,カワハラバンキン,0
2482,9290801029250,新規,0,2023-02-02,2023-02-02,株式会社良工業,,株式会社,福岡県,遠賀郡水巻町,二西２丁目２番５号,,40,382,8070055,,,,,,,2023-02-02,1,,,,,リョウコウギョウ,0
2485,9300003001931,新規,0,2023-02-02,2023-02-02,とまと訪問介護ステーション合同会社,,合同会社,佐賀県,佐賀市,鍋島１丁目１３番２２号グリーンビレッジＡ１０１,,41,201,8490937,,,,,,,2023-02-02,1,,,,,トマトホウモンカイゴステーション,0
2487,9330001030541,新規,0,2023-02-02,2023-02-02,ＺＧホールディングス株式会社,,株式会社,熊本県,熊本市中央区,新市街１番１１号スターライトビルＩＩ２Ｆ,00129293,43,101,8600803,,,,,,,2023-02-02,1,,,,,ゼットジーホールディングス,0
2491,9340001025342,新規,0,2023-02-02,2023-02-02,株式会社プレテックス,,株式会社,鹿児島県,鹿児島市,西伊敷７丁目３４番１１号２Ｆ,,46,201,8911202,,,,,,,2023-02-02,1,,,,,プレテックス,0
2492,9350001018163,新規,0,2023-02-02,2023-02-02,株式会社井晶,,株式会社,宮崎県,宮崎市,大字本郷南方２６３４番地,,45,201,8800921,,,,,,,2023-02-02,1,,,,,イショウ,0
2493,9350001018171,新規,0,2023-02-02,2023-02-02,ヤマブルー株式会社,,株式会社,宮崎県,宮崎市,橘通東５丁目４番１４号,,45,201,8800805,,,,,,,2023-02-02,1,,,,,ヤマブルー,0
2496,9360001031504,新規,0,2023-02-02,2023-02-02,株式会社ＥＤＩＴＩＮＧ,,株式会社,沖縄県,宜野湾市,長田１丁目１９番１０号,,47,205,9012212,,,,,,,2023-02-02,1,,,,,エディシング,0
2501,9370003005975,新規,0,2023-02-02,2023-02-02,合同会社ＯＮＪ’ｓ,,合同会社,宮城県,仙台市青葉区,双葉ケ丘１丁目３８番３号,,04,101,9810924,,,,,,,2023-02-02,1,,,,,オーエヌジェーズ,0
2507,9390003002046,新規,0,2023-02-02,2023-02-02,合同会社ＭＷＴ,,合同会社,山形県,東置賜郡川西町,大字高山２８０５番地,,06,382,9990141,,,,,,,2023-02-02,1,,,,,エムダブルティ,0
2515,9430001088330,新規,0,2023-02-02,2023-02-02,北広スタジアム・ネクスト株式会社,,株式会社,北海道,苫小牧市,字樽前１５９番地の１９６,,01,213,0591265,,,,,,,2023-02-02,1,,,,,キタヒロスタジアムネクスト,0
2519,9470001019455,新規,0,2023-02-02,2023-02-02,株式会社ハイテック,,株式会社,香川県,坂出市,西大浜北２丁目４番１７号,,37,203,7620053,,,,,,,2023-02-02,1,,,,,ハイテック,0
2520,9470003002343,新規,0,2023-02-02,2023-02-02,マハロサービス合同会社,,合同会社,香川県,高松市,番町３丁目１２番７号,,37,201,7600017,,,,,,,2023-02-02,1,,,,,マハロサービス,0
2521,9480001011997,新規,0,2023-02-02,2023-02-02,株式会社創和建築設計,,株式会社,徳島県,徳島市,国府町花園７６番地の３,,36,201,7793106,,,,,,,2023-02-02,1,,,,,ソウワケンチクセッケイ,0
2523,9480003001930,新規,0,2023-02-02,2023-02-02,合同会社司興業,,合同会社,徳島県,小松島市,和田島町字遠見３５番地の１０,,36,203,7730025,,,,,,,2023-02-02,1,,,,,ツカサコウギョウ,0
2525,9500001024749,新規,0,2023-02-02,2023-02-02,日将警備株式会社,,株式会社,愛媛県,松山市,来住町１４３２番地,,38,201,7911102,,,,,,,2023-02-02,1,,,,,ニッショウケイビ,0
2527,9500003002967,新規,0,2023-02-02,2023-02-02,合同会社ＴＨ企画,,合同会社,愛媛県,松山市,来住町９８４番地２３,,38,201,7911102,,,,,,,2023-02-02,1,,,,,ティーエイチキカク,0
2528,9700150114099,新規,0,2023-02-02,2023-02-02,Ｆｕｊｉａｎ　Ｙｉｎｇｈａｏ　ＷｅｎｈｕａＣｈｕａｎｇｙｉ　Ｇｕｆｅｎ　ＹｏｕＸｉａｎ　ＧｏｎｇＳｉ,,外国会社等,,,,,,,,ＮＯ．１２，Ｓｈｕａｎｇｙｕｅ　Ｒｏａｄ，Ｓｈｕａｎｇｙｕｅ　Ｉｎｄｕｓｔｒｉａｌ　Ｚｏｎｅ，Ｆｕｄｉｎｇ　Ｆｕｊｉａｎ　Ｐｒｏｖｉｎｃｅ，Ｃｈｉｎａ,,,,,,2023-02-02,1,,,,,フウジアンインハオウンファチウアンイグウフンユウゲンコウシ,0
2529,9700150114108,新規,0,2023-02-02,2023-02-02,Ｔａｉｗａｎ　Ｈｏｎｇ　Ｃｈｅｎ　Ｈａｒｄｗａｒｅ　Ｉｎｄｕｓｔｒｙ　Ｌｔｄ,,外国会社等,,,,,,,,Ｎｏ．８０１，Ｌｎ．２，Ｓｅｃ．７，Ｅｒｘｉ　Ｒｄ．，Ｅｒｌｉｎ　Ｔｏｗｎｓｈｉｐ，Ｃｈａｎｇｈｕａ　Ｃｏｕｎｔｙ　５２６，Ｔａｉｗａｎ（Ｒ．Ｏ．Ｃ）,,,,,,2023-02-02,1,,,,,タイワンコンセイハードウェアインダストリーリミテッド,0
2530,9700150114116,新規,0,2023-02-02,2023-02-02,Ｇｕａｎｇｚｈｏｕ　Ｎｅｔｕｍ　Ｅｌｅｃｔｒｏｎｉｃ　Ｔｅｃｈｎｏｌｏｇｙ　Ｃｏ．，Ｌｔｄ．,,外国会社等,,,,,,,,Ｒｏｏｍ　３０１，６ｔｈ　Ｆｌｏｏｒ　ａｎｄ　ｆｕｌｌ　３ｒｄ　Ｆｌｏｏｒ，Ｂｕｉｌｄｉｎｇ　Ａ，Ｎｏ．５１　Ｘｉａｎｇｓｈａｎ　Ａｖｅｎｕｅ，Ｎｉｎｇｘｉ　Ｓｔｒｅｅｔ，ＣＮ,,,,,,2023-02-02,1,,,,,ジンライチノウカギ,0
2531,9700150114132,新規,0,2023-02-02,2023-02-02,深セン市日月佳和科技有限公司,,外国会社等,,,,,,,,中国深セン市龍崗区坂田街道崗頭社区天安雲谷産業園二期（０２－０８地塊）１１棟１００２,,,,,,2023-02-02,1,,,,,シンセンシジツゲツカワカギユウゲンコウシ,0
2532,9700150114140,新規,0,2023-02-02,2023-02-02,ｊｉｎｊｉａｎｇａｉｌａｉ　ｆｕｚｈｕａｎｇｙｏｕｘｉａｎ　ｇｏｎｇｓｉ,,外国会社等,,,,,,,,ｊｉｎｊｉａｎｇｓｈｉ，ｙｏｎｇｈｅｚｈｅｎ，ｍａｐｉｎｇｇｏｎｇｙｅｑｕ，ｓｈｕｎｙｉｄａｓｈａ，ｊｉｎｊｉａｎｇｓｈｉ　ｆｕｊｉａｎｓｈｅｎｇ，ｃｈｉｎａ,,,,,,2023-02-02,1,,,,,ジンジャンガイライフツアンユウゲンコウシ,0
2533,9700150114157,新規,0,2023-02-02,2023-02-02,ＭａｘｘＭＭＡ　Ｇｌｏｂａｌ　Ｃｏ．，Ｌｔｄ．,,外国会社等,,,,,,,,２０Ｆ．－６，Ｎｏ．１５５，Ｚｈｏｎｇｙａｎｇ　Ｒｄ．，Ｘｉｎｄｉａｎ　Ｄｉｓｔ．，Ｎｅｗ　Ｔａｉｐｅｉ　Ｃｉｔｙ２３１５０，Ｔａｉｗａｎ（Ｒ．Ｏ．Ｃ．）,,,,,,2023-02-02,1,,,,,マックスマグローバルカンパニーリミティッド,0
2534,9700150114165,新規,0,2023-02-02,2023-02-02,ｈｅｎａｎｙｉｎｈｕａｒｕｉｊｉｎ　ｄｉａｎｚｉｓｈａｎｇｗｕ　ｙｏｕｘｉａｎｇｏｎｇｓｉ,,外国会社等,,,,,,,,Ｒｏｏｍ　１９０５，１９ｔｈ　Ｆｌｏｏｒ，ｕｎｉｔ　２，ＮＯ．５３，Ｓｏｕｔｈ　ｏｆ　Ｄｏｎｇｍｉｎｇ　Ｒｏａｄ，Ｇｕａｎｃｈｅｎｇ　Ｈｕｉｚｕ　Ｄｉｓｔｒｉｃｔ，Ｚｈｅｎｇｚｈｏｕ，Ｈｅｎａｎ　Ｐｒｏｖｉｎｃｅ，Ｃｈｉｎａ,,,,,,2023-02-02,1,,,,,ヘナインフアルジンデンシショウムユウゲンコウシ,0
2535,9700150114173,新規,0,2023-02-02,2023-02-02,Ｓｈｅｎｚｈｅｎ　Ｘｉａｎｇｄａｎｇｗｅｎ　Ｔｅｃｈｎｏｌｏｇｙ　Ｃｏ．，Ｌｔｄ,,外国会社等,,,,,,,,１０６，１Ｆ，３１３－４　Ｈｕａｃｈａｎｇ　Ｒｏａｄ，Ｌａｎｇｋｏｕ　Ｃｏｍｍｕｎｉｔｙ，Ｄａｌａｎｇ　Ｓｔｒｅｅｔ，Ｌｏｎｇｈｕａ　Ｄｉｓｔｒｉｃｔ，Ｓｈｅｎｚｈｅｎ，Ｇｕａｎｇｄｏｎｇ，Ｃｈｉｎａ,,,,,,2023-02-02,1,,,,,シンセンシャンダンウェンテクノロジーカンパニーリミテッド,0
