sequenceNumber,corporateNumber,process,correct,updateDate,changeDate,name,nameImageId,kind,prefectureName,cityName,streetNumber,addressImageId,prefectureCode,cityCode,postCode,addressOutside,addressOutsideImageId,closeDate,closeCause,successorCorporateNumber,changeCause,assignmentDate,latest,enName,enPrefectureName,enCityName,enAddressOutside,furigana,hihyoji
1,1010001059983,登記記録の閉鎖等,0,2021-09-22,2021-09-13,株式会社吉田印刷所,,株式会社,東京都,中央区,入船３丁目４番９号,,13,102,1040042,,,2021-09-13,清算の結了等,,,2015-10-05,1,,,,,ヨシダインサツジョ,0
7,1010002027312,登記記録の閉鎖等,0,2021-09-22,2021-09-13,有限会社山本動物病院,,有限会社,東京都,文京区,千石３丁目３番３号,,13,105,1120011,,,2021-09-13,清算の結了等,,,2015-10-05,1,,,,,ヤマモトドウブツビョウイン,0
12,1010005004779,登記記録の閉鎖等,0,2021-09-22,2021-09-14,特定非営利活動法人国際文化学究協会,,その他の設立登記法人,東京都,千代田区,神田神保町１丁目１４番地,,13,101,1010051,,,2021-09-14,清算の結了等,,,2015-10-05,1,,,,,,0
17,1010401133669,登記記録の閉鎖等,0,2021-09-22,2021-09-13,興亜貿易株式会社,,株式会社,東京都,港区,浜松町１丁目１８番１３号,,13,103,1050013,,,2021-09-13,清算の結了等,,,2017-09-12,1,,,,,コウアボウエキ,0
22,1010405016597,登記記録の閉鎖等,0,2021-09-22,2021-09-13,一般社団法人ノード医療マネジメント,,その他の設立登記法人,東京都,港区,東新橋２丁目７番３号昭和アステック１号館,,13,103,1050021,,,2021-09-13,清算の結了等,,,2018-04-02,1,,,,,ノードイリョウマネジメント,0
33,1010802017479,登記記録の閉鎖等,0,2021-09-22,2021-09-10,ヤナカ・インベストメント有限会社,,有限会社,東京都,大田区,大森本町１丁目８番１２－Ｅ－１０２号,,13,111,1430011,,,2021-09-10,清算の結了等,,,2015-10-05,1,,,,,,0
42,1011001121386,登記記録の閉鎖等,0,2021-09-22,2021-09-16,株式会社Ｆｌｕｘｕｓ,,株式会社,東京都,港区,赤坂４丁目２番３号ディライトビル３Ｆ,,13,103,1070052,,,2021-09-16,合併による解散等,6010001195568,令和３年９月１日東京都千代田区神田小川町二丁目１番地２株式会社ソトコト・プラネット（6010001195568）に合併し解散,2018-04-06,1,,,,,フルクサス,0
47,1011003010042,登記記録の閉鎖等,0,2021-09-22,2021-09-03,ＧＬＯＢＡＬ　ＧＡＴＥ合同会社,,合同会社,東京都,渋谷区,代々木１丁目３０－１４,,13,113,1510053,,,2021-09-03,清算の結了等,,,2019-06-10,1,,,,,グローバルゲート,0
59,1011701013197,登記記録の閉鎖等,0,2021-09-22,2021-09-14,エフピーウィング株式会社,,株式会社,東京都,江戸川区,篠崎町１丁目９番１３号,,13,123,1330061,,,2021-09-14,清算の結了等,,,2015-10-05,1,,,,,エフピーウィング,0
69,1020001106322,登記記録の閉鎖等,0,2021-09-22,2021-09-16,ＹｏｃＴｏ株式会社,,株式会社,神奈川県,横浜市栄区,笠間３丁目６番１５号,,14,115,2470006,,,2021-09-16,清算の結了等,,,2015-10-05,1,,,,,ヨクト,0
72,1020001112097,登記記録の閉鎖等,0,2021-09-22,2021-09-16,株式会社ＭＥＩＲＩＮ,,株式会社,神奈川県,横浜市旭区,鶴ケ峰１丁目２７番地６,,14,112,2410022,,,2021-09-16,清算の結了等,,,2015-10-05,1,,,,,メイリン,0
77,1020002032781,登記記録の閉鎖等,0,2021-09-22,2021-09-15,有限会社エムケー化成,,有限会社,神奈川県,横浜市都筑区,茅ケ崎南４丁目１２番４－４０８号,,14,118,2240037,,,2021-09-15,清算の結了等,,,2015-10-05,1,,,,,エムケーカセイ,0
79,1020002063736,登記記録の閉鎖等,0,2021-09-22,2021-09-15,有限会社モールリサーチ,,有限会社,神奈川県,横浜市栄区,庄戸４丁目１９番９号,,14,115,2470022,,,2021-09-15,清算の結了等,,,2015-10-05,1,,,,,モールリサーチ,0
87,1030001067118,登記記録の閉鎖等,0,2021-09-22,2021-09-08,株式会社Ｒｉ・Ｔｏｍｏ,,株式会社,埼玉県,越谷市,赤山町１丁目１１６番地１Ｄ’レスティア越谷赤山町１０２号,,11,222,3430807,,,2021-09-08,清算の結了等,,,2015-10-05,1,,,,,,0
92,1030002028003,登記記録の閉鎖等,0,2021-09-22,2021-09-08,有限会社アクト工業,,有限会社,埼玉県,所沢市,小手指町３丁目３２番地６の４－２０２号,,11,208,3591141,,,2021-09-08,清算の結了等,,,2015-10-05,1,,,,,アクトコウギョウ,0
93,1030002032327,登記記録の閉鎖等,0,2021-09-22,2021-09-08,有限会社スピリッツ,,有限会社,埼玉県,所沢市,小手指町３丁目３１番地４,,11,208,3591141,,,2021-09-08,清算の結了等,,,2015-10-05,1,,,,,スピリッツ,0
96,1030002091587,登記記録の閉鎖等,0,2021-09-22,2021-09-09,有限会社東彩プロパティ,,有限会社,埼玉県,吉川市,木売２丁目４番３号倉本ビル１階,,11,243,3420045,,,2021-09-09,清算の結了等,,,2015-10-05,1,,,,,トウサイプロパティ,0
109,1050001030957,登記記録の閉鎖等,0,2021-09-22,2021-09-15,ダイコーサイエンス株式会社,,株式会社,茨城県,守谷市,本町３２９２番地の３,,08,224,3020109,,,2021-09-15,清算の結了等,,,2015-10-05,1,,,,,ダイコーサイエンス,0
121,1080105005646,登記記録の閉鎖等,0,2021-09-22,2021-09-15,一般社団法人グローバルフィジカルセラピー協会,,その他の設立登記法人,静岡県,御殿場市,萩原１５４９番地の３２,,22,215,4120042,,,2021-09-15,清算の結了等,,,2016-05-12,1,,,,,グローバルフィジカルセラピーキョウカイ,0
130,1110002006495,登記記録の閉鎖等,0,2021-09-22,2021-09-17,有限会社宮島家具工芸,,有限会社,新潟県,新潟市東区,豊３丁目１番２２号,,15,102,9500812,,,2021-09-17,清算の結了等,,,2015-10-05,1,,,,,ミヤジマカグコウゲイ,0
131,1120001068619,登記記録の閉鎖等,0,2021-09-22,2021-09-14,株式会社日展クラフト,,株式会社,大阪府,大阪市北区,万歳町３番７号,,27,127,5300028,,,2021-09-14,清算の結了等,,,2015-10-05,1,,,,,ニッテンクラフト,0
149,1120002009431,登記記録の閉鎖等,0,2021-09-22,2021-09-14,ケーエヌ商亊有限会社,,有限会社,大阪府,大阪市生野区,舎利寺３丁目６番２７号,,27,116,5440022,,,2021-09-14,清算の結了等,,,2015-10-05,1,,,,,ケーエヌショウジ,0
159,1120901039826,登記記録の閉鎖等,0,2021-09-22,2021-09-17,株式会社グローバル,,株式会社,大阪府,豊中市,東豊中町１丁目３２番３３号,,27,203,5600003,,,2021-09-17,清算の結了等,,,2018-04-26,1,,,,,グローバル,0
174,1140005001292,登記記録の閉鎖等,0,2021-09-22,2021-07-28,天理教都神分教会,,その他の設立登記法人,兵庫県,神戸市兵庫区,鵯越筋２番地の６１,,28,105,6520052,,,2021-07-28,合併による解散等,7150005000503,令和３年７月１６日奈良市山陵町２３５番地の５天理教南都分教会（7150005000503）に合併し解散,2015-10-05,1,,,,,,0
177,1150001001320,登記記録の閉鎖等,0,2021-09-22,2021-09-21,株式会社谷口総合研究所,,株式会社,奈良県,奈良市,恋の窪２丁目１４番１３号,,29,201,6308136,,,2021-09-21,清算の結了等,,,2015-10-05,1,,,,,タニグチソウゴウケンキュウジョ,0
183,1180001007554,登記記録の閉鎖等,0,2021-09-22,2021-09-16,名洋工業株式会社,,株式会社,愛知県,名古屋市港区,宝神２丁目４０２番地,,23,111,4550832,,,2021-09-16,清算の結了等,,,2015-10-05,1,,,,,メイヨウコウギョウ,0
186,1180005007402,登記記録の閉鎖等,0,2021-09-22,2021-09-14,特定非営利活動法人金曜グループ,,その他の設立登記法人,愛知県,愛知郡東郷町,和合ケ丘１丁目１２番地１８,,23,302,4700154,,,2021-09-14,清算の結了等,,,2015-10-05,1,,,,,キンヨウグループ,0
192,1240001009164,登記記録の閉鎖等,0,2021-09-22,2021-09-21,廣島ケイソウ株式会社,,株式会社,広島県,広島市南区,的場町１丁目４番８号,,34,103,7320824,,,2021-09-21,清算の結了等,,,2015-10-05,1,,,,,ヒロシマケイソウ,0
205,1290002042052,登記記録の閉鎖等,0,2021-09-22,2021-09-03,有限会社宝や亭,,有限会社,福岡県,春日市,春日４丁目９４番地,,40,218,8160814,,,2021-09-03,清算の結了等,,,2015-10-05,1,,,,,,0
214,1310002002607,登記記録の閉鎖等,0,2021-09-22,2021-09-21,有限会社スティルム,,有限会社,長崎県,長崎市,泉１丁目１８番１１号,,42,201,8528151,,,2021-09-21,清算の結了等,,,2015-10-05,1,,,,,ステイルム,0
223,1370001042565,登記記録の閉鎖等,0,2021-09-22,2021-09-13,株式会社コトミカ,,株式会社,宮城県,仙台市青葉区,宮町３丁目８番３８－２１１号,,04,101,9800004,,,2021-09-13,清算の結了等,,,2018-01-17,1,,,,,コトミカ,0
224,1370601002415,登記記録の閉鎖等,0,2021-09-22,2021-09-13,株式会社タカリュウー,,株式会社,宮城県,多賀城市,大代５丁目１２番２３号,,04,209,9850832,,,2021-09-13,清算の結了等,,,2015-10-05,1,,,,,タカリュウー,0
231,1380002006568,登記記録の閉鎖等,0,2021-09-22,2021-09-16,有限会社シノブ設計,,有限会社,福島県,伊達市,梁川町字大町１丁目４８番地,,07,213,9600741,,,2021-09-16,清算の結了等,,,2015-10-05,1,,,,,シノブセッケイ,0
238,1430001060222,登記記録の閉鎖等,0,2021-09-22,2021-09-21,北海道ＴＭ株式会社,,株式会社,北海道,札幌市西区,西野三条１０丁目１番７号,,01,107,0630033,,,2021-09-21,清算の結了等,,,2015-10-05,1,,,,,ホッカイドウティエム,0
265,2010005023051,登記記録の閉鎖等,0,2021-09-22,2021-09-13,一般財団法人電池推進船普及研究財団,,その他の設立登記法人,東京都,中央区,銀座７丁目１５番３号,,13,102,1040061,,,2021-09-13,清算の結了等,,,2015-10-05,1,,,,,デンチスイシンセンフキュウケンキュウザイダン,0
270,2010401144070,登記記録の閉鎖等,0,2021-09-22,2021-09-10,Ｃ４株式会社,,株式会社,東京都,千代田区,麹町４丁目５番２１号紀尾井町ＰＲＥＸ１２階,,13,101,1020083,,,2021-09-10,清算の結了等,,,2019-02-27,1,,,,,シーフォー,0
272,2010405015185,登記記録の閉鎖等,0,2021-09-22,2021-09-16,一般社団法人おもてなしマイスター協会,,その他の設立登記法人,東京都,千代田区,大手町２丁目６番２号,,13,101,1000004,,,2021-09-16,清算の結了等,,,2016-10-13,1,,,,,オモテナシマイスターキョウカイ,0
280,2010801015796,登記記録の閉鎖等,0,2021-09-22,2021-09-10,ＫＪ，ＥＮＴＥＲＰＲＩＳＥＳ株式会社,,株式会社,東京都,大田区,田園調布４丁目１６番１６号,,13,111,1450071,,,2021-09-10,清算の結了等,,,2015-10-05,1,,,,,ケージェイエンタープライシス,0
289,2011001073536,登記記録の閉鎖等,0,2021-09-22,2021-09-10,株式会社スマートソーシング,,株式会社,東京都,品川区,上大崎２丁目１３番３０号,,13,109,1410021,,,2021-09-10,合併による解散等,7011001053434,令和３年９月７日東京都品川区上大崎二丁目１３番３０号株式会社オークファン（7011001053434）に合併し解散,2015-10-05,1,,,,,スマートソーシング,0
303,2011401020195,登記記録の閉鎖等,0,2021-09-22,2021-09-15,株式会社Ｋ’ｓグラフィティ,,株式会社,東京都,板橋区,相生町５番１０号,,13,119,1740044,,,2021-09-15,清算の結了等,,,2017-04-19,1,,,,,ケーズグラフィティ,0
313,2012402002653,登記記録の閉鎖等,0,2021-09-22,2021-09-15,有限会社水谷内,,有限会社,東京都,府中市,是政５丁目８番地の２１,,13,206,1830014,,,2021-09-15,清算の結了等,,,2015-10-05,1,,,,,ミズヤウチ,0
316,2013301036569,登記記録の閉鎖等,0,2021-09-22,2021-09-15,テクニカルイースト・ホールディングス株式会社,,株式会社,東京都,豊島区,南大塚２丁目４６番１号,,13,116,1700005,,,2021-09-15,清算の結了等,,,2015-10-05,1,,,,,テクニカルイーストホールディングス,0
319,2020001056797,登記記録の閉鎖等,0,2021-09-22,2021-09-13,株式会社アオバ貿易,,株式会社,神奈川県,横浜市青葉区,奈良５丁目３４番地１,,14,117,2270038,,,2021-09-13,清算の結了等,,,2015-10-05,1,,,,,アオバボウエキ,0
341,2030001051260,登記記録の閉鎖等,0,2021-09-22,2021-09-08,株式会社東武セラミック,,株式会社,埼玉県,春日部市,西八木崎３丁目１０番２１号,,11,214,3440059,,,2021-09-08,清算の結了等,,,2015-10-05,1,,,,,トウブセラミック,0
342,2030001122722,登記記録の閉鎖等,0,2021-09-22,2021-09-08,株式会社アメイズロジ,,株式会社,埼玉県,さいたま市大宮区,桜木町２丁目３番地大宮マルイ７階,,11,103,3300854,,,2021-09-08,清算の結了等,,,2017-10-27,1,,,,,アメイズロジ,0
345,2030002080993,登記記録の閉鎖等,0,2021-09-22,2021-09-09,有限会社矢野間商店,,有限会社,埼玉県,本庄市,若泉３丁目１９番８号,,11,211,3670055,,,2021-09-09,清算の結了等,,,2015-10-05,1,,,,,ヤノマショウテン,0
352,2040001117515,登記記録の閉鎖等,0,2021-09-22,2021-07-27,恒和工業株式会社,,株式会社,千葉県,茂原市,中の島町５９９番地,,12,210,2970034,,,2021-07-27,清算の結了等,,,2021-03-17,1,,,,,コウワコウギョウ,0
363,2080002014253,登記記録の閉鎖等,0,2021-09-22,2021-09-21,有限会社川根工務店,,有限会社,静岡県,榛原郡川根本町,下長尾２１８番地の６,,22,429,4280314,,,2021-09-21,清算の結了等,,,2015-10-05,1,,,,,カワネコウムテン,0
373,2100002023532,登記記録の閉鎖等,0,2021-09-22,2021-09-17,有限会社玄蕃ダルマ工房,,有限会社,長野県,安曇野市,豊科南穂高４１３６番地,,20,220,3998201,,,2021-09-17,清算の結了等,,,2015-10-05,1,,,,,ゲンバダルマコウボウ,0
375,2110005006418,登記記録の閉鎖等,0,2021-09-22,2021-09-17,高巖寺,00071431,その他の設立登記法人,新潟県,燕市,小高５４４６番地,,15,213,9591241,,,2021-09-17,清算の結了等,,,2015-10-05,1,,,,,コウガンジ,0
387,2120001152891,登記記録の閉鎖等,0,2021-09-22,2021-09-13,株式会社桜井ＩＴ研究所,,株式会社,大阪府,交野市,私部５丁目３番２号,,27,230,5760052,,,2021-09-13,清算の結了等,,,2015-10-05,1,,,,,サクライアイティーケンキュウショ,0
412,2130001044460,登記記録の閉鎖等,0,2021-09-22,2021-09-13,株式会社ケー・エム・アール,,株式会社,京都府,京都市中京区,西ノ京中御門東町４０番地６,,26,104,6048471,,,2021-09-13,清算の結了等,,,2015-10-05,1,,,,,ケーエムアール,0
440,2190001028359,登記記録の閉鎖等,0,2021-09-22,2021-09-16,株式会社ＺＥＥ,,株式会社,三重県,津市,栄町３丁目１２３番地１,,24,201,5140004,,,2021-09-16,合併による解散等,7030001142600,令和３年９月１日埼玉県川越市南台一丁目９番ゼノア環境装置株式会社（7030001142600）に合併し解散,2021-05-27,1,,,,,ジー,0
441,2190002004086,登記記録の閉鎖等,0,2021-09-22,2021-09-21,有限会社すばる,,有限会社,三重県,津市,高茶屋４丁目３３－１７メゾンアミアミ２Ｂ,,24,201,5140819,,,2021-09-21,清算の結了等,,,2015-10-05,1,,,,,スバル,0
450,2240002044192,登記記録の閉鎖等,0,2021-09-22,2021-09-16,有限会社サクライ内装,,有限会社,広島県,福山市,曙町５丁目２４番３８号,00001539,34,207,7210952,,,2021-09-16,清算の結了等,,,2015-10-05,1,,,,,サクライナイソウ,0
456,2270002005522,登記記録の閉鎖等,0,2021-09-22,2021-09-15,有限会社岡崎印刷,,有限会社,鳥取県,米子市,長砂町４３８番地５,,31,202,6830033,,,2021-09-15,清算の結了等,,,2015-10-05,1,,,,,オカザキインサツ,0
463,2290003005024,登記記録の閉鎖等,0,2021-09-22,2021-09-03,合同会社幸栄テクニカルサービス,,合同会社,福岡県,飯塚市,秋松３０９番地６,,40,205,8200083,,,2021-09-03,清算の結了等,,,2015-10-05,1,,,,,コウエイテクニカルサービス,0
469,2320002001375,登記記録の閉鎖等,0,2021-09-22,2021-09-17,有限会社エフ水産,,有限会社,大分県,大分市,大字細１６６３番地の１,,44,201,8700305,,,2021-09-17,清算の結了等,,,2015-10-05,1,,,,,エフスイサン,0
477,2370302000741,登記記録の閉鎖等,0,2021-09-22,2021-09-13,有限会社かりの商事,,有限会社,宮城県,石巻市,中屋敷１丁目８番１２号,,04,202,9860849,,,2021-09-13,清算の結了等,,,2015-10-05,1,,,,,カリノショウジ,0
484,2420001011522,登記記録の閉鎖等,0,2021-09-22,2021-09-17,株式会社吉義建設,,株式会社,青森県,三沢市,下久保３丁目２０番地６,,02,207,0330023,,,2021-09-17,清算の結了等,,,2015-10-05,1,,,,,ヨシギケンセツ,0
500,3010001124257,登記記録の閉鎖等,0,2021-09-22,2021-09-14,株式会社ブライト,,株式会社,東京都,中央区,新川１丁目１５番１１号,,13,102,1040033,,,2021-09-14,清算の結了等,,,2015-10-05,1,,,,,ブライト,0
501,3010001192642,登記記録の閉鎖等,0,2021-09-22,2021-09-15,株式会社Ｂｒａｉｎ　Ｐｒｏｆｉｌｅ,,株式会社,東京都,中央区,銀座５丁目６番１２号,,13,102,1040061,,,2021-09-15,清算の結了等,,,2018-06-19,1,,,,,ブレインプロファイル,0
518,3010401113982,登記記録の閉鎖等,0,2021-09-22,2021-08-10,株式会社Ｄ．Ａ．Ｂ．ＰＡＳＴＲＹ,,株式会社,東京都,中央区,銀座７丁目１５番８号タウンハイツ銀座４０６,,13,102,1040061,,,2021-08-10,清算の結了等,,,2015-10-05,1,,,,,ディーエービーペイストリー,0
528,3010501005519,登記記録の閉鎖等,0,2021-09-22,2021-09-13,株式会社正宝堂,,株式会社,東京都,台東区,台東１丁目３番１号,,13,106,1100016,,,2021-09-13,清算の結了等,,,2015-10-05,1,,,,,ショウホウドウ,0
531,3010505002553,登記記録の閉鎖等,0,2021-09-22,2021-09-14,一般社団法人市民自治政策研究センター,,その他の設立登記法人,東京都,台東区,台東１丁目２番１－２５０５号タワーレジデンストーキョー,,13,106,1100016,,,2021-09-14,清算の結了等,,,2015-10-05,1,,,,,シミンジチセイサクケンキュウセンター,0
544,3011001003756,登記記録の閉鎖等,0,2021-09-22,2021-09-02,株式会社エス・ティー・エー・コーポレイション,,株式会社,東京都,渋谷区,千駄ヶ谷３丁目５５番１１号,,13,113,1510051,,,2021-09-02,合併による解散等,9011001020886,令和３年９月１日東京都渋谷区千駄ヶ谷三丁目５５番地９株式会社ベラ（9011001020886）に合併し解散,2015-10-05,1,,,,,エスティーエーコーポレイション,0
566,3011402009880,登記記録の閉鎖等,0,2021-09-22,2021-09-21,ルナ電子工業有限会社,,有限会社,東京都,板橋区,大谷口上町４番地,,13,119,1730032,,,2021-09-21,清算の結了等,,,2015-10-05,1,,,,,ルナデンシコウギョウ,0
575,3011802003153,登記記録の閉鎖等,0,2021-09-22,2021-09-16,有限会社三光電気設備,,有限会社,東京都,葛飾区,細田４丁目２０番１号,,13,122,1240021,,,2021-09-16,清算の結了等,,,2015-10-05,1,,,,,,0
578,3012403003914,登記記録の閉鎖等,0,2021-09-22,2021-09-13,ＡＪ　Ｌｅｖｏｎａ　Ｊａｐａｎ合同会社,,合同会社,東京都,武蔵野市,吉祥寺本町２丁目８番４号,,13,203,1800004,,,2021-09-13,清算の結了等,,,2019-06-12,1,,,,,エイジェイレボナジャパン,0
582,3013301005309,登記記録の閉鎖等,0,2021-09-22,2021-09-07,新都心興産株式会社,,株式会社,東京都,新宿区,新宿５丁目９番２４号,,13,104,1600022,,,2021-09-07,合併による解散等,9011102006611,令和３年９月７日東京都新宿区新宿五丁目９番２４号株式会社白鳳ビル（9011102006611）に合併し解散,2015-10-05,1,,,,,シントシンコウサン,0
589,3020001026130,登記記録の閉鎖等,0,2021-09-22,2021-08-10,清高商事株式会社,00009369,株式会社,神奈川県,横浜市旭区,左近山１番地の２左近山団地２－４－１０６,,14,112,2410831,,,2021-08-10,清算の結了等,,,2015-10-05,1,,,,,キヨタカショウジ,0
604,3020002050955,登記記録の閉鎖等,0,2021-09-22,2021-09-16,有限会社白霊社,,有限会社,神奈川県,横浜市泉区,和泉町５９９２番地の５,,14,116,2450016,,,2021-09-16,清算の結了等,,,2015-10-05,1,,,,,ハクレイシャ,0
626,3030002076644,登記記録の閉鎖等,0,2021-09-22,2021-09-09,有限会社同和電設,,有限会社,埼玉県,ふじみ野市,東久保１丁目３０番６号,,11,245,3560042,,,2021-09-09,清算の結了等,,,2015-10-05,1,,,,,ドウワデンセツ,0
630,3030003012730,登記記録の閉鎖等,0,2021-09-22,2021-09-08,リッチクローバー合同会社,,合同会社,埼玉県,さいたま市南区,四谷１丁目８番５－１号,,11,108,3360032,,,2021-09-08,清算の結了等,,,2018-11-28,1,,,,,リッチクローバー,0
648,3060001022836,登記記録の閉鎖等,0,2021-09-22,2021-09-14,株式会社カーディナル,,株式会社,栃木県,日光市,今市本町３１番地６,,09,206,3211272,,,2021-09-14,清算の結了等,,,2015-10-05,1,,,,,カーディナル,0
663,3090002011595,登記記録の閉鎖等,0,2021-09-22,2021-09-09,有限会社天野建材,,有限会社,山梨県,南都留郡忍野村,内野４７０３番地,,19,424,4010512,,,2021-09-09,清算の結了等,,,2015-10-05,1,,,,,アマノケンザイ,0
683,3120002005271,登記記録の閉鎖等,0,2021-09-22,2021-09-16,有限会社エグジットコーポレーション,,有限会社,大阪府,大阪市東住吉区,南田辺１丁目６番１８号,,27,121,5460033,,,2021-09-16,清算の結了等,,,2015-10-05,1,,,,,エグジットコーポレーション,0
684,3120002015023,登記記録の閉鎖等,0,2021-09-22,2021-09-13,有限会社二美興産,,有限会社,大阪府,大阪市大正区,三軒家東５丁目５番２３号,,27,108,5510002,,,2021-09-13,清算の結了等,,,2015-10-05,1,,,,,フタミコウサン,0
691,3120102006582,登記記録の閉鎖等,0,2021-09-22,2021-09-17,有限会社伊佐重機建設,,有限会社,大阪府,堺市堺区,柏木町２丁１番２０－７１５号,,27,141,5900837,,,2021-09-17,清算の結了等,,,2015-10-05,1,,,,,イサジュウキケンセツ,0
697,3120903002862,登記記録の閉鎖等,0,2021-09-22,2021-09-17,合同会社ＹＵＫＩ,,合同会社,大阪府,茨木市,彩都あさぎ１丁目３番６－２０６号,,27,211,5670085,,,2021-09-17,清算の結了等,,,2019-06-10,1,,,,,ユキ,0
705,3130002003927,登記記録の閉鎖等,0,2021-09-22,2021-09-16,ソアーエンタープライズ有限会社,,有限会社,京都府,京都市上京区,今出川通智恵光院西入西北小路町２４１番地２クレステージ今出川通り東館２０２号室,,26,102,6028444,,,2021-09-16,清算の結了等,,,2015-10-05,1,,,,,ソアーエンタープライズ,0
721,3160002011448,登記記録の閉鎖等,0,2021-09-22,2021-09-22,箱館オート総業有限会社,,有限会社,滋賀県,高島市,今津町日置前３１０番地２,,25,212,5201655,,,2021-09-22,清算の結了等,,,2015-10-05,1,,,,,ハコダテオートソウギョウ,0
733,3180301018282,登記記録の閉鎖等,0,2021-09-22,2021-09-17,三エス自動車株式会社,,株式会社,愛知県,豊田市,下市場町６丁目２８番地,,23,211,4710875,,,2021-09-17,清算の結了等,,,2015-10-05,1,,,,,サンエスジドウシャ,0
749,3240005012336,登記記録の閉鎖等,0,2021-09-22,2021-09-14,特定非営利活動法人メセナＳＵＮ－ＣＬＵＢ学びの森,,その他の設立登記法人,広島県,東広島市,志和町志和東２８８３番地,,34,212,7390262,,,2021-09-14,清算の結了等,,,2015-10-05,1,,,,,メセナサンクラブマナビノモリ,0
751,3250005005438,登記記録の閉鎖等,0,2021-09-22,2021-07-26,天理教理愛分教会,,その他の設立登記法人,山口県,周南市,相生町２丁目１０番地,,35,215,7450055,,,2021-07-26,合併による解散等,7250005005434,令和３年７月２６日山口県周南市二番町二丁目８番地天理教都山分教会（7250005005434）に合併し解散,2015-10-05,1,,,,,テンリキョウリアイブンキョウカイ,0
753,3270002001405,登記記録の閉鎖等,0,2021-09-22,2021-09-16,有限会社北洋建築工業,,有限会社,鳥取県,鳥取市,卯垣４丁目２０１番地,,31,201,6800074,,,2021-09-16,清算の結了等,,,2015-10-05,1,,,,,ホクヨウケンチクコウギョウ,0
754,3290001015610,登記記録の閉鎖等,0,2021-09-22,2021-09-02,株式会社ニュートップ,,株式会社,福岡県,福岡市博多区,博多駅前４丁目１８番１７号,,40,132,8120011,,,2021-09-02,清算の結了等,,,2015-10-05,1,,,,,ニュートップ,0
763,3290005005599,登記記録の閉鎖等,0,2021-09-22,2021-07-12,天理教西海道分教会,,その他の設立登記法人,福岡県,福津市,福間駅東３丁目１９番１８号,,40,224,8113208,,,2021-07-12,合併による解散等,5290005005548,令和３年７月１２日福岡県福津市日蒔野四丁目１６番地の４天理教津屋崎町分教会（5290005005548）に合併し解散,2015-10-05,1,,,,,,0
764,3290801011742,登記記録の閉鎖等,0,2021-09-22,2021-09-07,株式会社拓電,,株式会社,福岡県,遠賀郡遠賀町,蓮角１７番１５号,,40,384,8114334,,,2021-09-07,清算の結了等,,,2015-10-05,1,,,,,タクデン,0
767,3300002004148,登記記録の閉鎖等,0,2021-09-22,2021-09-17,有限会社芙奈津商事,,有限会社,佐賀県,神埼市,神埼町本告牟田３１１３番地３,,41,210,8420013,,,2021-09-17,清算の結了等,,,2015-10-05,1,,,,,フナツショウジ,0
772,3340002011116,登記記録の閉鎖等,0,2021-09-22,2021-09-14,有限会社さんこう堂,,有限会社,鹿児島県,鹿児島市,郡山町１４１９番地２,,46,201,8911105,,,2021-09-14,清算の結了等,,,2015-10-05,1,,,,,サンコウドウ,0
790,3430001056862,登記記録の閉鎖等,0,2021-09-22,2021-09-10,藤栄設備工業株式会社,,株式会社,北海道,室蘭市,御前水町１丁目１０番３０号,,01,205,0510002,,,2021-09-10,清算の結了等,,,2015-10-05,1,,,,,トウエイセツビコウギョウ,0
794,3430005005023,登記記録の閉鎖等,0,2021-09-22,2021-09-13,特定非営利活動法人公共政策研究所,,その他の設立登記法人,北海道,札幌市白石区,栄通１２丁目４番５－４０１号,,01,104,0030021,,,2021-09-13,清算の結了等,,,2015-10-05,1,,,,,コウキョウセイサクケンキュウショ,0
801,3500002017724,登記記録の閉鎖等,0,2021-09-22,2021-09-17,有限会社伊藤海運,,有限会社,愛媛県,今治市,恵美須町２丁目４番地１３,,38,202,7940031,,,2021-09-17,清算の結了等,,,2015-10-05,1,,,,,イトウカイウン,0
813,4010401153111,登記記録の閉鎖等,0,2021-09-22,2021-09-10,株式会社承知しました,,株式会社,東京都,品川区,上大崎２丁目１３番３０号,,13,109,1410021,,,2021-09-10,合併による解散等,7011001053434,令和３年９月７日東京都品川区上大崎二丁目１３番３０号株式会社オークファン（7011001053434）に合併し解散,2020-06-02,1,,,,,ショウチシマシタ,0
823,4010505002676,登記記録の閉鎖等,0,2021-09-22,2021-09-13,特定非営利活動法人さくらサポートセンター,,その他の設立登記法人,東京都,台東区,入谷２丁目３６番１０号,,13,106,1100013,,,2021-09-13,清算の結了等,,,2016-06-22,1,,,,,サクラサポートセンター,0
833,4011001012599,登記記録の閉鎖等,0,2021-09-22,2021-08-31,善隣興業株式会社,,株式会社,東京都,渋谷区,代々木１丁目２８番１６号,,13,113,1510053,,,2021-08-31,清算の結了等,,,2015-10-05,1,,,,,ゼンリンコウギョウ,0
848,4011101068087,登記記録の閉鎖等,0,2021-09-22,2021-08-02,スケルトニクス株式会社,,株式会社,東京都,八王子市,下恩方町１１００番地１６,,13,201,1920154,,,2021-08-02,清算の結了等,,,2015-10-05,1,,,,,,0
866,4012301012280,登記記録の閉鎖等,0,2021-09-22,2021-09-16,経理記帳・給与計算代行株式会社,,株式会社,東京都,町田市,原町田６丁目９番８号ＡＥＴＡ町田４階,,13,209,1940013,,,2021-09-16,清算の結了等,,,2020-09-18,1,,,,,ケイリキチョウキュウヨケイサンダイコウ,0
891,4030001046358,登記記録の閉鎖等,0,2021-09-22,2021-09-06,渡辺石油株式会社,,株式会社,埼玉県,新座市,菅沢２丁目１番５号,,11,230,3520017,,,2021-09-06,清算の結了等,,,2015-10-05,1,,,,,ワタナベセキユ,0
893,4030001083335,登記記録の閉鎖等,0,2021-09-22,2021-09-09,株式会社ハードプロテクトシステムズ,,株式会社,埼玉県,川口市,柳崎５丁目２０番１３号,,11,203,3330861,,,2021-09-09,清算の結了等,,,2015-10-05,1,,,,,ハードプロテクトシステムズ,0
905,4030002044220,登記記録の閉鎖等,0,2021-09-22,2021-09-09,有限会社三幸設備工事,,有限会社,埼玉県,草加市,柿木町２１０６番地,,11,221,3400001,,,2021-09-09,清算の結了等,,,2015-10-05,1,,,,,サンコウセツビコウジ,0
907,4030002120450,登記記録の閉鎖等,0,2021-09-22,2021-09-09,有限会社堀口製材,,有限会社,埼玉県,日高市,大字梅原６８番地,,11,242,3501246,,,2021-09-09,清算の結了等,,,2015-10-05,1,,,,,ホリグチセイザイ,0
920,4050001014016,登記記録の閉鎖等,0,2021-09-22,2021-09-15,株式会社石神家具センター,,株式会社,茨城県,坂東市,生子１４２８番地の１,,08,228,3060504,,,2021-09-15,清算の結了等,,,2015-10-05,1,,,,,イシガミカグセンター,0
935,4070002016827,登記記録の閉鎖等,0,2021-09-22,2021-09-16,有限会社澤田屋,,有限会社,群馬県,甘楽郡南牧村,大字檜沢７５３番地,,10,383,3702805,,,2021-09-16,清算の結了等,,,2015-10-05,1,,,,,サワダヤ,0
939,4080401011403,登記記録の閉鎖等,0,2021-09-22,2021-09-17,アイエム株式会社,,株式会社,静岡県,浜松市北区,三方原町１０９番地の２,,22,135,4338105,,,2021-09-17,清算の結了等,,,2015-10-05,1,,,,,アイエム,0
942,4100001023358,登記記録の閉鎖等,0,2021-09-22,2021-09-17,株式会社おさひめ書房,,株式会社,長野県,飯田市,主税町２３番地,,20,205,3950032,,,2021-09-17,清算の結了等,,,2015-10-05,1,,,,,オサヒメショボウ,0
946,4100005008264,登記記録の閉鎖等,0,2021-09-22,2021-07-21,天理教ちの分教会,,その他の設立登記法人,長野県,茅野市,本町西３番８号,,20,214,3910003,,,2021-07-21,合併による解散等,4013305000239,令和３年７月１２日東京都豊島区千早二丁目６番５号天理教伊豆島分教会（4013305000239）に合併し解散,2015-10-05,1,,,,,テンリキョウチノブンキョウカイ,0
949,4120001013662,登記記録の閉鎖等,0,2021-09-22,2021-09-13,松本鉄工建設株式会社,,株式会社,大阪府,大阪市東成区,東小橋１丁目７番２１号,,27,115,5370024,,,2021-09-13,清算の結了等,,,2015-10-05,1,,,,,マツモトテッコウケンセツ,0
986,4122003001678,登記記録の閉鎖等,0,2021-09-22,2021-09-21,ＥＸＣＥＬ合同会社,,合同会社,大阪府,東大阪市,若江南町３丁目８番３９号,,27,227,5780943,,,2021-09-21,清算の結了等,,,2019-05-17,1,,,,,,0
988,4130001037330,登記記録の閉鎖等,0,2021-09-22,2021-09-15,株式会社リバティ建設,,株式会社,京都府,相楽郡精華町,大字南稲八妻小字塚本３番地の２,,26,366,6190243,,,2021-09-15,清算の結了等,,,2015-10-05,1,,,,,リバティケンセツ,0
995,4140001048401,登記記録の閉鎖等,0,2021-09-22,2021-09-15,株式会社近畿ツー・ワン,,株式会社,兵庫県,尼崎市,東園田町９丁目１８番地の５,,28,202,6610953,,,2021-09-15,清算の結了等,,,2015-10-05,1,,,,,キンキツーワン,0
1005,4150001013032,登記記録の閉鎖等,0,2021-09-22,2021-09-15,タツミセンイ株式会社,,株式会社,奈良県,北葛城郡広陵町,大字安部６０９番地,,29,426,6350825,,,2021-09-15,清算の結了等,,,2015-10-05,1,,,,,タツミセンイ,0
1019,4180005000643,登記記録の閉鎖等,0,2021-09-22,2021-07-20,天理教本八田分教会,,その他の設立登記法人,愛知県,名古屋市中川区,小本本町１丁目９４番地,,23,110,4540826,,,2021-07-20,合併による解散等,2180005000463,令和３年７月２０日名古屋市熱田区大宝三丁目１３番８号天理教本豊田分教会（2180005000463）に合併し解散,2015-10-05,1,,,,,テンリキョウホンハッタブンキョウカイ,0
1042,4290001059763,登記記録の閉鎖等,0,2021-09-22,2021-08-31,株式会社岡事務所,,株式会社,福岡県,太宰府市,青葉台４丁目２０番１２号,,40,221,8180137,,,2021-08-31,清算の結了等,,,2015-10-05,1,,,,,オカジムショ,0
1044,4290801016889,登記記録の閉鎖等,0,2021-09-22,2021-09-08,株式会社ａｃｔ,,株式会社,福岡県,田川市,大字川宮１２００番地,,40,206,8260042,,,2021-09-08,清算の結了等,,,2015-10-05,1,,,,,アクト,0
1049,4290802018182,登記記録の閉鎖等,0,2021-09-22,2021-09-09,有限会社ケイズ,,有限会社,福岡県,北九州市八幡西区,田町２丁目４番２５号,,40,109,8060003,,,2021-09-09,清算の結了等,,,2015-10-05,1,,,,,ケイズ,0
1060,4360002009768,登記記録の閉鎖等,0,2021-09-22,2021-07-16,有限会社アルプ,,有限会社,沖縄県,那覇市,金城５丁目１６番５ステーション１０１ビル１Ｆ,,47,201,9010155,,,2021-07-16,合併による解散等,2010001053795,令和３年７月１日東京都中央区八丁堀三丁目２５番７号ニッポンメンテナンスシステム株式会社（2010001053795）に合併し解散,2015-10-05,1,,,,,アルプ,0
1065,4380002023214,登記記録の閉鎖等,0,2021-09-22,2021-09-17,有限会社木村建設,,有限会社,福島県,いわき市,江名字走出１５６番地の４,,07,204,9700311,,,2021-09-17,清算の結了等,,,2015-10-05,1,,,,,,0
1071,4400005003425,登記記録の閉鎖等,0,2021-09-22,2021-07-27,稲荷神社,,その他の設立登記法人,岩手県,和賀郡西和賀町,沢内字長瀬野１２地割１２２番地,,03,366,0295617,,,2021-07-27,合併による解散等,5400005003424,令和３年７月２７日岩手県和賀郡西和賀町沢内字泉沢１１地割１１番地稲荷神社（5400005003424）に合併し解散,2015-10-05,1,,,,,イナリジンジャ,0
1072,4410001007668,登記記録の閉鎖等,0,2021-09-22,2021-09-16,株式会社モードひまわり,,株式会社,秋田県,能代市,二ツ井町字比井野１８番地１,,05,202,0183155,,,2021-09-16,清算の結了等,,,2015-10-05,1,,,,,モードヒマワリ,0
1079,4430005002837,登記記録の閉鎖等,0,2021-09-22,2021-09-13,サンシティ藻岩管理組合法人,,その他の設立登記法人,北海道,札幌市南区,北ノ沢４丁目１番４０号,,01,106,0050832,,,2021-09-13,清算の結了等,,,2015-10-05,1,,,,,,0
1097,5010401077615,登記記録の閉鎖等,0,2021-09-22,2021-09-10,株式会社シフトエス,,株式会社,東京都,港区,赤坂２丁目２１番５号,,13,103,1070052,,,2021-09-10,清算の結了等,,,2015-10-05,1,,,,,シフトエス,0
1100,5010401119524,登記記録の閉鎖等,0,2021-09-22,2021-09-02,株式会社Ｇｅｎｔｉｃｅ,,株式会社,福岡県,宗像市,日の里９丁目３番地１８,,40,220,8113425,,,2021-09-02,清算の結了等,,,2015-10-05,1,,,,,ジェンティス,0
1101,5010401128054,登記記録の閉鎖等,0,2021-09-22,2021-09-14,株式会社センチュリオンホテルズ美ら海,,株式会社,東京都,台東区,上野６丁目９番７号,,13,106,1100005,,,2021-09-14,合併による解散等,3010401123882,令和３年９月１４日東京都台東区上野六丁目９番７号株式会社センチュリオンインターナショナル（3010401123882）に合併し解散,2016-11-08,1,,,,,センチュリオンホテルズチュラウミ,0
1111,5010802020058,登記記録の閉鎖等,0,2021-09-22,2021-09-10,有限会社名鉄自工,,有限会社,東京都,大田区,大森中１丁目１７番２６－６０１号,,13,111,1430014,,,2021-09-10,清算の結了等,,,2015-10-05,1,,,,,メイテツジコウ,0
1121,5011102010947,登記記録の閉鎖等,0,2021-09-22,2021-09-14,有限会社文学堂書店,,有限会社,東京都,新宿区,上落合２丁目１０番１３号,,13,104,1610034,,,2021-09-14,清算の結了等,,,2015-10-05,1,,,,,ブンガクドウショテン,0
1126,5011301002381,登記記録の閉鎖等,0,2021-09-22,2021-09-16,株式会社港北,,株式会社,東京都,杉並区,和田１丁目２９番５号,,13,115,1660012,,,2021-09-16,合併による解散等,6011001007804,令和３年９月１日東京都渋谷区渋谷二丁目７番７号港北出版印刷株式会社（6011001007804）に合併し解散,2015-10-05,1,,,,,コウホク,0
1135,5011801004596,登記記録の閉鎖等,0,2021-09-22,2021-09-17,丸清株式会社,,株式会社,東京都,葛飾区,水元２丁目２０番１６号,,13,122,1250032,,,2021-09-17,清算の結了等,,,2015-10-05,1,,,,,マルセイ,0
1142,5012301009318,登記記録の閉鎖等,0,2021-09-22,2021-09-13,株式会社Ｂ＆Ｎ,,株式会社,東京都,町田市,成瀬６丁目１０番１６－２０９号,,13,209,1940044,,,2021-09-13,清算の結了等,,,2015-10-05,1,,,,,ビーアンドエヌ,0
1149,5012702005444,登記記録の閉鎖等,0,2021-09-22,2021-09-16,有限会社五城,,有限会社,東京都,西東京市,向台町３丁目１番３０－１０１号,,13,229,1880013,,,2021-09-16,清算の結了等,,,2015-10-05,1,,,,,ゴジョウ,0
1172,5021002037718,登記記録の閉鎖等,0,2021-09-22,2021-09-16,有限会社カナヤ社,,有限会社,神奈川県,秦野市,南矢名字西切ヶ谷９２３番４,,14,211,2570003,,,2021-09-16,清算の結了等,,,2015-10-05,1,,,,,カナヤシャ,0
1175,5021002046157,登記記録の閉鎖等,0,2021-09-22,2021-09-13,有限会社金森工業所,,有限会社,東京都,町田市,金森東２丁目１８番７号,,13,209,1940015,,,2021-09-13,清算の結了等,,,2015-10-05,1,,,,,カナモリコウギョウショ,0
1182,5030001135639,登記記録の閉鎖等,0,2021-09-22,2021-09-08,株式会社ナティブ,,株式会社,埼玉県,蕨市,塚越４丁目１２番３２号ウェリス蕨市民公園２０３号,,11,223,3350002,,,2021-09-08,清算の結了等,,,2020-03-18,1,,,,,ナティブ,0
1192,5040001008364,登記記録の閉鎖等,0,2021-09-22,2021-09-13,エアーテクノ株式会社,,株式会社,大阪府,大阪市都島区,中野町５丁目１０番１２号,,27,102,5340027,,,2021-09-13,清算の結了等,,,2015-10-05,1,,,,,エアーテクノ,0
1205,5050001015046,登記記録の閉鎖等,0,2021-09-22,2021-09-15,ミヤビメタル株式会社,,株式会社,茨城県,結城郡八千代町,大字菅谷字向根ノ谷８９０番地１２,,08,521,3003572,,,2021-09-15,清算の結了等,,,2015-10-05,1,,,,,,0
1209,5060001014807,登記記録の閉鎖等,0,2021-09-22,2021-09-16,株式会社コスモ通信,,株式会社,栃木県,小山市,城東１丁目２番３０号,,09,208,3230807,,,2021-09-16,清算の結了等,,,2015-10-05,1,,,,,コスモツウシン,0
1211,5060005004011,登記記録の閉鎖等,0,2021-09-22,2021-07-08,一心教会,,その他の設立登記法人,栃木県,那須塩原市,塩原２９９番地,,09,213,3292921,,,2021-07-08,合併による解散等,5060005004556,令和３年７月８日栃木県大田原市久野又４６７番地不動院（5060005004556）に合併し解散,2015-10-05,1,,,,,イッシンキョウカイ,0
1217,5070005005719,登記記録の閉鎖等,0,2021-09-22,2021-09-16,特定非営利活動法人桃の井,,その他の設立登記法人,群馬県,北群馬郡榛東村,大字山子田１２０８番地,,10,344,3703502,,,2021-09-16,清算の結了等,,,2015-10-05,1,,,,,モモノイ,0
1228,5110002016482,登記記録の閉鎖等,0,2021-09-22,2021-09-17,有限会社相互流通サービス,,有限会社,新潟県,新発田市,五十公野４６７３番地,,15,206,9570021,,,2021-09-17,清算の結了等,,,2015-10-05,1,,,,,ソウゴリュウツウサービス,0
1229,5110003002151,登記記録の閉鎖等,0,2021-09-22,2021-09-16,合資会社渡辺薬局,,合資会社,新潟県,長岡市,東川口６０１番地３,,15,202,9497504,,,2021-09-16,清算の結了等,,,2015-10-05,1,,,,,ワタナベヤッキョク,0
1247,5120102001061,登記記録の閉鎖等,0,2021-09-22,2021-09-17,有限会社オネスト,,有限会社,大阪府,堺市西区,鳳中町５丁１８５番地,,27,144,5938327,,,2021-09-17,清算の結了等,,,2015-10-05,1,,,,,オネスト,0
1262,5130001019385,登記記録の閉鎖等,0,2021-09-22,2021-09-15,株式会社京都河出本店,,株式会社,京都府,京都市下京区,朱雀宝蔵町１１７番地,,26,106,6008846,,,2021-09-15,清算の結了等,,,2015-10-05,1,,,,,キョウトカワデホンテン,0
1268,5140001041611,登記記録の閉鎖等,0,2021-09-22,2021-09-09,井上電器工業株式会社,,株式会社,兵庫県,丹波市,市島町梶原２０３番地,,28,223,6694323,,,2021-09-09,清算の結了等,,,2015-10-05,1,,,,,,0
1271,5140001092258,登記記録の閉鎖等,0,2021-09-22,2021-09-16,株式会社由良,,株式会社,兵庫県,丹波市,市島町梶原３８５番地,,28,223,6694323,,,2021-09-16,清算の結了等,,,2015-10-05,1,,,,,,0
1284,5160001001893,登記記録の閉鎖等,0,2021-09-22,2021-09-21,株式会社三星設備工業社,,株式会社,滋賀県,大津市,三井寺町３番３９号,,25,201,5200034,,,2021-09-21,清算の結了等,,,2015-10-05,1,,,,,,0
1288,5160001001984,登記記録の閉鎖等,0,2021-09-22,2021-09-17,山口興業株式会社,,株式会社,滋賀県,大津市,坂本６丁目３２番５２号,,25,201,5200113,,,2021-09-17,清算の結了等,,,2015-10-05,1,,,,,ヤマグチコウギョウ,0
1290,5180001098937,登記記録の閉鎖等,0,2021-09-22,2021-09-17,株式会社セブンプランニング,,株式会社,愛知県,あま市,坂牧西之宮２４番地の３,,23,237,4901115,,,2021-09-17,清算の結了等,,,2015-10-05,1,,,,,セブンプランニング,0
1299,5180002074499,登記記録の閉鎖等,0,2021-09-22,2021-09-16,有限会社古橋ガラス工業,,有限会社,愛知県,犬山市,大字塔野地字杉ノ山１２６番地の１１,,23,215,4840094,,,2021-09-16,清算の結了等,,,2015-10-05,1,,,,,フルハシガラスコウギョウ,0
1309,5200002006978,登記記録の閉鎖等,0,2021-09-22,2021-09-21,有限会社伊神工業,00076878,有限会社,岐阜県,各務原市,鵜沼大伊木町３丁目１１番地,,21,213,5090144,,,2021-09-21,清算の結了等,,,2015-10-05,1,,,,,,0
1337,5330002005109,登記記録の閉鎖等,0,2021-09-22,2021-09-21,有限会社市民調剤センター,,有限会社,熊本県,熊本市東区,山ノ神２丁目９番１９号,,43,102,8620915,,,2021-09-21,清算の結了等,,,2015-10-05,1,,,,,シミンチョウザイセンター,0
1341,5350002016962,登記記録の閉鎖等,0,2021-09-22,2021-09-17,有限会社渡辺商事,,有限会社,宮崎県,日南市,中央通１丁目２番地２０,,45,204,8870021,,,2021-09-17,清算の結了等,,,2015-10-05,1,,,,,ワタナベショウジ,0
1353,5370002006243,登記記録の閉鎖等,0,2021-09-22,2021-09-13,有限会社裕和,,有限会社,宮城県,仙台市若林区,中倉２丁目２２番地の１５号６０４号室,,04,103,9840821,,,2021-09-13,清算の結了等,,,2015-10-05,1,,,,,ユウワ,0
1362,5430001007418,登記記録の閉鎖等,0,2021-09-22,2021-09-15,株式会社新さっぽろパーキングシステム,,株式会社,北海道,札幌市厚別区,厚別中央二条５丁目７番２号,,01,108,0040052,,,2021-09-15,清算の結了等,,,2015-10-05,1,,,,,シンサッポロパーキングシステム,0
1371,5450002001814,登記記録の閉鎖等,0,2021-09-22,2021-09-21,有限会社くすりやさん,,有限会社,北海道,旭川市,春光五条３丁目６番１２号,,01,204,0700875,,,2021-09-21,清算の結了等,,,2015-10-05,1,,,,,クスリヤサン,0
1383,6010001063989,登記記録の閉鎖等,0,2021-09-22,2021-09-03,エイテック株式会社,,株式会社,東京都,渋谷区,渋谷３丁目１番８号オーベル渋谷４０３,,13,113,1500002,,,2021-09-03,清算の結了等,,,2015-10-05,1,,,,,エイテック,0
1384,6010001070977,登記記録の閉鎖等,0,2021-09-22,2021-09-08,防災技術株式会社,,株式会社,埼玉県,さいたま市見沼区,東大宮４丁目２６番地３,,11,104,3370051,,,2021-09-08,清算の結了等,,,2015-10-05,1,,,,,ボウサイギジュツ,0
1393,6010005014625,登記記録の閉鎖等,0,2021-09-22,2021-09-13,銀座六丁目オフィス特定目的会社,,その他の設立登記法人,東京都,港区,元赤坂１丁目１番８号株式会社赤坂国際会計内,,13,103,1070051,,,2021-09-13,清算の結了等,,,2015-10-05,1,,,,,ギンザロクチョウメオフィス,0
1395,6010401072607,登記記録の閉鎖等,0,2021-09-22,2021-09-16,株式会社グローバルテクニカ,,株式会社,東京都,中央区,銀座１丁目３番３号Ｇ１ビル７階,,13,102,1040061,,,2021-09-16,清算の結了等,,,2015-10-05,1,,,,,グローバルテクニカ,0
1399,6010503005893,登記記録の閉鎖等,0,2021-09-22,2021-09-14,合同会社Ｄｅｊａｖｕ,,合同会社,東京都,台東区,清川２丁目３６－１２朝日グリーンハイツ２０１号室,,13,106,1110022,,,2021-09-14,清算の結了等,,,2020-04-20,1,,,,,ディシャーヴュ,0
1410,6010801016873,登記記録の閉鎖等,0,2021-09-22,2021-09-10,森隆商事株式会社,,株式会社,東京都,大田区,蒲田１丁目４番１９号,,13,111,1440052,,,2021-09-10,清算の結了等,,,2015-10-05,1,,,,,,0
1412,6010803002913,登記記録の閉鎖等,0,2021-09-22,2021-09-10,合同会社ユースコネクト,,合同会社,東京都,大田区,蒲田５丁目９番１５号２階,,13,111,1440052,,,2021-09-10,清算の結了等,,,2019-01-31,1,,,,,ユースコネクト,0
1418,6011001110599,登記記録の閉鎖等,0,2021-09-22,2021-09-02,株式会社ＡＭＡＬＯ,,株式会社,東京都,渋谷区,渋谷３丁目１３番１１号,,13,113,1500002,,,2021-09-02,清算の結了等,,,2016-04-22,1,,,,,アマロ,0
1449,6013201007443,登記記録の閉鎖等,0,2021-09-22,2021-09-03,株式会社ワイ・エムフーズ,,株式会社,東京都,目黒区,大岡山１丁目６番５号,,13,110,1520033,,,2021-09-03,清算の結了等,,,2015-10-05,1,,,,,ワイエムフーズ,0
1451,6013402001732,登記記録の閉鎖等,0,2021-09-22,2021-08-25,安全福祉技術開発有限会社,,有限会社,東京都,多摩市,落合５丁目９番地２３－１０６,,13,224,2060033,,,2021-08-25,清算の結了等,,,2015-10-05,1,,,,,,0
1487,6030002078687,登記記録の閉鎖等,0,2021-09-22,2021-09-09,有限会社三豊,,有限会社,埼玉県,ふじみ野市,上福岡２丁目６番１０号,,11,245,3560004,,,2021-09-09,清算の結了等,,,2015-10-05,1,,,,,サンポウ,0
1490,6040002049539,登記記録の閉鎖等,0,2021-09-22,2021-09-14,有限会社吉野屋運輸,,有限会社,千葉県,柏市,花野井７２８－７３,,12,217,2770812,,,2021-09-14,清算の結了等,,,2015-10-05,1,,,,,ヨシノヤウンユ,0
1491,6040002089089,登記記録の閉鎖等,0,2021-09-22,2021-09-13,有限会社エピドール,,有限会社,千葉県,柏市,増尾台４丁目１番４号,,12,217,2770052,,,2021-09-13,清算の結了等,,,2015-10-05,1,,,,,エピドール,0
1506,6080102007855,登記記録の閉鎖等,0,2021-09-22,2021-09-17,有限会社エイアンドエム,,有限会社,静岡県,御殿場市,新橋８４７番地,,22,215,4120043,,,2021-09-17,清算の結了等,,,2015-10-05,1,,,,,エイアンドエム,0
1514,6110002031092,登記記録の閉鎖等,0,2021-09-22,2021-09-16,有限会社オフィス・フルール,,有限会社,新潟県,長岡市,金沢１丁目９番８号,,15,202,9400135,,,2021-09-16,清算の結了等,,,2015-10-05,1,,,,,オフィスフルール,0
1553,6180002082484,登記記録の閉鎖等,0,2021-09-22,2021-09-16,有限会社東興商会,,有限会社,愛知県,岩倉市,神野町川添７２番地,,23,228,4820033,,,2021-09-16,清算の結了等,,,2015-10-05,1,,,,,トウコウショウカイ,0
1554,6180002084803,登記記録の閉鎖等,0,2021-09-22,2021-09-16,有限会社三榮商會,,有限会社,愛知県,大府市,横根町坊主山１番地の２６８,,23,223,4740011,,,2021-09-16,清算の結了等,,,2015-10-05,1,,,,,サンエイショウカイ,0
1555,6180002092228,登記記録の閉鎖等,0,2021-09-22,2021-09-13,愛測エンジニアリング有限会社,,有限会社,愛知県,あま市,七宝町下之森河原５番地,,23,237,4970006,,,2021-09-13,清算の結了等,,,2015-10-05,1,,,,,アイソクエンジニアリング,0
1564,6190002008075,登記記録の閉鎖等,0,2021-09-22,2021-09-16,有限会社藤建,,有限会社,三重県,鈴鹿市,徳田町９１９番地の２,,24,207,5100251,,,2021-09-16,清算の結了等,,,2015-10-05,1,,,,,フジケン,0
1567,6200002003867,登記記録の閉鎖等,0,2021-09-22,2021-09-17,有限会社ヒラタ,,有限会社,岐阜県,大垣市,旭町８丁目１３番地,,21,202,5030824,,,2021-09-17,清算の結了等,,,2015-10-05,1,,,,,ヒラタ,0
1606,6290002010194,登記記録の閉鎖等,0,2021-09-22,2021-09-02,有限会社笠原商事,,有限会社,福岡県,福岡市中央区,平尾２丁目３番２３号笠原ビル１０２号,,40,133,8100014,,,2021-09-02,清算の結了等,,,2015-10-05,1,,,,,カサハラショウジ,0
1607,6290002011102,登記記録の閉鎖等,0,2021-09-22,2021-09-02,有限会社しんかい,,有限会社,福岡県,福岡市中央区,六本松４丁目９番１５号,,40,133,8100044,,,2021-09-02,清算の結了等,,,2015-10-05,1,,,,,シンカイ,0
1621,6360001026449,登記記録の閉鎖等,0,2021-09-22,2021-09-15,小春日和株式会社,,株式会社,沖縄県,那覇市,松川３丁目１８番３５号１０６号室,,47,201,9020062,,,2021-09-15,清算の結了等,,,2019-11-11,1,,,,,コハルビヨリ,0
1635,6430001042819,登記記録の閉鎖等,0,2021-09-22,2021-09-21,株式会社メルヘン,,株式会社,北海道,江別市,野幌町４６番地１２,,01,217,0690813,,,2021-09-21,清算の結了等,,,2015-10-05,1,,,,,メルヘン,0
1642,6430005012454,登記記録の閉鎖等,0,2021-09-22,2021-09-10,協同組合ＮＰグループ,,その他の設立登記法人,北海道,小樽市,銭函３丁目２６３番地７,,01,203,0470261,,,2021-09-10,清算の結了等,,,2015-10-05,1,,,,,エヌピーグループ,0
1652,7010001030757,登記記録の閉鎖等,0,2021-09-22,2021-09-13,株式会社メディアハウス,,株式会社,東京都,中央区,日本橋人形町２丁目３３番８号,,13,102,1030013,,,2021-09-13,清算の結了等,,,2015-10-05,1,,,,,メディアハウス,0
1656,7010001186005,登記記録の閉鎖等,0,2021-09-22,2021-09-06,株式会社テレパシージャパン,,株式会社,東京都,文京区,湯島２丁目３１番２２号,,13,105,1130034,,,2021-09-06,合併による解散等,9010001116075,令和３年９月１日東京都文京区湯島二丁目３１番２２号湯島アーバンビル７階Ｆａｉｒｙ　Ｄｅｖｉｃｅｓ株式会社（9010001116075）に合併し解散,2017-09-06,1,,,,,テレパシージャパン,0
1694,7010701037993,登記記録の閉鎖等,0,2021-09-22,2021-09-21,株式会社ＡＮＤ　ＣＯＬＯＲ,,株式会社,東京都,品川区,東大井５丁目２５番１５号,,13,109,1400011,,,2021-09-21,清算の結了等,,,2019-08-07,1,,,,,アンドカラー,0
1696,7010701039940,登記記録の閉鎖等,0,2021-09-22,2021-09-21,カンテックグループ株式会社,,株式会社,東京都,品川区,西五反田１丁目２６番２号２階,,13,109,1410031,,,2021-09-21,清算の結了等,,,2020-10-09,1,,,,,カンテックグループ,0
1712,7011005006347,登記記録の閉鎖等,0,2021-09-22,2021-09-03,一般社団法人動脈硬化予防啓発センター,,その他の設立登記法人,東京都,渋谷区,代々木２丁目２６番４号ドゥ・クロイワビル４０１号室,,13,113,1510053,,,2021-09-03,清算の結了等,,,2015-10-05,1,,,,,ドウミャクコウカヨボウケイハツセンター,0
1718,7011102022949,登記記録の閉鎖等,0,2021-09-22,2021-09-16,有限会社グリーンワークス,,有限会社,東京都,新宿区,住吉町２番１８号,,13,104,1620065,,,2021-09-16,合併による解散等,5011001035178,令和３年９月１日東京都渋谷区神宮前二丁目５番１０号株式会社キーワーク（5011001035178）に合併し解散,2015-10-05,1,,,,,,0
1719,7011102027452,登記記録の閉鎖等,0,2021-09-22,2021-09-14,有限会社美装きもの学院関東,,有限会社,東京都,新宿区,上落合２丁目１５番１７号,,13,104,1610034,,,2021-09-14,清算の結了等,,,2015-10-05,1,,,,,ビソウキモノガクインカントウ,0
1731,7012301011800,登記記録の閉鎖等,0,2021-09-22,2021-09-09,株式会社オアシス,,株式会社,東京都,町田市,原町田１丁目１５番１９号,,13,209,1940013,,,2021-09-09,清算の結了等,,,2019-07-04,1,,,,,オアシス,0
1742,7020001031589,登記記録の閉鎖等,0,2021-09-22,2021-09-16,恵建設株式会社,,株式会社,神奈川県,横浜市都筑区,加賀原２丁目１０番１７号,,14,118,2240055,,,2021-09-16,清算の結了等,,,2015-10-05,1,,,,,,0
1743,7020001033024,登記記録の閉鎖等,0,2021-09-22,2021-09-15,株式会社カイラ,,株式会社,神奈川県,横浜市青葉区,大場町１５６番地４９,,14,117,2250023,,,2021-09-15,清算の結了等,,,2015-10-05,1,,,,,カイラ,0
1763,7021002059982,登記記録の閉鎖等,0,2021-09-22,2021-09-17,有限会社保田建具店,,有限会社,神奈川県,平塚市,宮の前９番４号,,14,203,2540035,,,2021-09-17,清算の結了等,,,2015-10-05,1,,,,,ヤスダケングテン,0
1764,7021002070717,登記記録の閉鎖等,0,2021-09-22,2021-09-15,有限会社ニュー・ライフ,,有限会社,群馬県,高崎市,若田町６３番地３,,10,202,3700885,,,2021-09-15,清算の結了等,,,2015-10-05,1,,,,,ニューライフ,0
1766,7030001040754,登記記録の閉鎖等,0,2021-09-22,2021-09-09,関東設備エンジニアリング株式会社,,株式会社,埼玉県,八潮市,大字大曽根１５９１,,11,234,3400834,,,2021-09-09,清算の結了等,,,2015-10-05,1,,,,,,0
1769,7030001065611,登記記録の閉鎖等,0,2021-09-22,2021-09-09,株式会社清拓工業,,株式会社,埼玉県,吉川市,二ツ沼２丁目５５番地３,,11,243,3420032,,,2021-09-09,清算の結了等,,,2015-10-05,1,,,,,セイタクコウギョウ,0
1796,7080102021797,登記記録の閉鎖等,0,2021-09-22,2021-09-14,有限会社島田ふとん店,,有限会社,静岡県,賀茂郡西伊豆町,仁科１２６番地の２,,22,306,4103514,,,2021-09-14,清算の結了等,,,2015-10-05,1,,,,,シマダフトンテン,0
1799,7090001004761,登記記録の閉鎖等,0,2021-09-22,2021-09-13,株式会社伊東メディカル,,株式会社,山梨県,南アルプス市,野牛島１９０３番地１３,,19,208,4000205,,,2021-09-13,清算の結了等,,,2015-10-05,1,,,,,イトウメディカル,0
1800,7090001007657,登記記録の閉鎖等,0,2021-09-22,2021-09-15,株式会社オフィスＫ．,,株式会社,山梨県,甲府市,上今井町１５１１番地１２,,19,201,4000845,,,2021-09-15,清算の結了等,,,2015-10-05,1,,,,,オフィスケイ,0
1807,7120001071600,登記記録の閉鎖等,0,2021-09-22,2021-09-13,祐美商事株式会社,,株式会社,大阪府,大阪市北区,兎我野町１３番１３号,00028503,27,127,5300056,,,2021-09-13,清算の結了等,,,2015-10-05,1,,,,,ユウビショウジ,0
1809,7120001092563,登記記録の閉鎖等,0,2021-09-22,2021-09-10,株式会社ワカボ,,株式会社,大阪府,大阪市阿倍野区,松崎町２丁目３番６３号,,27,119,5450053,,,2021-09-10,合併による解散等,6120001136057,令和３年９月１日大阪市阿倍野区松崎町二丁目３番６３号株式会社レックス（6120001136057）に合併し解散,2015-10-05,1,,,,,ワカボ,0
1824,7120101007553,登記記録の閉鎖等,0,2021-09-22,2021-09-17,株式会社ユニオン・ニツト,,株式会社,大阪府,堺市南区,和田東９４８－４－１０３,,27,145,5900102,,,2021-09-17,清算の結了等,,,2015-10-05,1,,,,,ユニオンニツト,0
1839,7130005005207,登記記録の閉鎖等,0,2021-09-22,2021-09-15,特定非営利活動法人アート・プランまぜまぜ,,その他の設立登記法人,京都府,京都市中京区,岩上通六角下る岩上町７４９番地ルミエール堀川３０２,,26,104,6048341,,,2021-09-15,清算の結了等,,,2015-10-05,1,,,,,アートプランマゼマゼ,0
1846,7140001115801,登記記録の閉鎖等,0,2021-09-22,2021-09-13,株式会社エバーグリーン,,株式会社,兵庫県,神戸市東灘区,甲南町５丁目２番１３－７０２号,,28,101,6580084,,,2021-09-13,清算の結了等,,,2019-12-11,1,,,,,エバーグリーン,0
1873,7240002041945,登記記録の閉鎖等,0,2021-09-22,2021-09-17,有限会社トータルビューティーミドリ,,有限会社,広島県,福山市,今津町３丁目３番１６号,,34,207,7290111,,,2021-09-17,清算の結了等,,,2015-10-05,1,,,,,トータルビューティーミドリ,0
1881,7290001017636,登記記録の閉鎖等,0,2021-09-22,2021-09-13,平島建設株式会社,,株式会社,福岡県,福岡市博多区,東月隈５丁目２１番１２号,,40,132,8120854,,,2021-09-13,清算の結了等,,,2015-10-05,1,,,,,ヒラシマケンセツ,0
1883,7290002010227,登記記録の閉鎖等,0,2021-09-22,2021-09-02,有限会社金子エンジニアリング,,有限会社,福岡県,福岡市中央区,薬院２丁目１１番３３号薬院三井ハイツ３０３号,,40,133,8100022,,,2021-09-02,清算の結了等,,,2015-10-05,1,,,,,カネコエンジニアリング,0
1892,7290802015532,登記記録の閉鎖等,0,2021-09-22,2021-09-07,有限会社百田,,有限会社,福岡県,北九州市八幡西区,東鳴水４丁目３番２２号,,40,109,8060051,,,2021-09-07,清算の結了等,,,2015-10-05,1,,,,,モモタ,0
1893,7310001001380,登記記録の閉鎖等,0,2021-09-22,2021-09-17,株式会社ＮＢＨ,,株式会社,長崎県,長崎市,茂里町３番１号,,42,201,8528104,,,2021-09-17,清算の結了等,,,2015-10-05,1,,,,,エヌビーエイチ,0
1895,7320002007161,登記記録の閉鎖等,0,2021-09-22,2021-09-17,有限会社吉野屋商店,,有限会社,大分県,大分市,大字三芳４６０番地の１,,44,201,8700030,,,2021-09-17,清算の結了等,,,2015-10-05,1,,,,,ヨシノヤショウテン,0
1903,7370001023510,登記記録の閉鎖等,0,2021-09-22,2021-09-13,株式会社畠山デザイン事務所,,株式会社,宮城県,仙台市太白区,長町字越路１９番地の１３９３コープ野村八木山公園弐番館５１０号室,,04,104,9820837,,,2021-09-13,清算の結了等,,,2015-10-05,1,,,,,ハタケヤマデザインジムショ,0
1908,7370102002297,登記記録の閉鎖等,0,2021-09-22,2021-09-10,有限会社小野企画,,有限会社,宮城県,白石市,字不澄ケ池９７番地１,,04,206,9890271,,,2021-09-10,清算の結了等,,,2015-10-05,1,,,,,オノキカク,0
1913,7390001015919,登記記録の閉鎖等,0,2021-09-22,2021-09-09,なつ株式会社,,株式会社,山形県,鶴岡市,末広町２７番５号,,06,203,9970015,,,2021-09-09,清算の結了等,,,2019-12-23,1,,,,,ナツ,0
1921,7430002050175,登記記録の閉鎖等,0,2021-09-22,2021-09-21,有限会社ホンダ自動車美唄,,有限会社,北海道,美唄市,字美唄１０５６番地,,01,215,0720000,,,2021-09-21,清算の結了等,,,2015-10-05,1,,,,,,0
1925,7430005010044,登記記録の閉鎖等,0,2021-09-22,2021-09-10,室蘭中央町三丁目商店街振興組合,,その他の設立登記法人,北海道,室蘭市,中央町３丁目６番５号,,01,205,0510011,,,2021-09-10,清算の結了等,,,2015-10-05,1,,,,,ムロランチュウオウチョウサンチョウメ,0
1929,7490002011428,登記記録の閉鎖等,0,2021-09-22,2021-09-17,有限会社よろづや呉服店,,有限会社,高知県,香美市,土佐山田町東本町４丁目１番１３号,,39,212,7820031,,,2021-09-17,清算の結了等,,,2015-10-05,1,,,,,ヨロヅヤゴフクテン,0
1931,7500002019469,登記記録の閉鎖等,0,2021-09-22,2021-09-17,浅野自動車電機有限会社,,有限会社,愛媛県,今治市,美須賀町１丁目１番地１,,38,202,7940034,,,2021-09-17,清算の結了等,,,2015-10-05,1,,,,,アサノジドウシャデンキ,0
1979,8011101006893,登記記録の閉鎖等,0,2021-09-22,2021-09-13,株式会社越路建設,,株式会社,東京都,新宿区,神楽坂６丁目７６番地,,13,104,1620825,,,2021-09-13,清算の結了等,,,2015-10-05,1,,,,,コシジケンセツ,0
1992,8012302005791,登記記録の閉鎖等,0,2021-09-22,2021-09-10,有限会社サイトウ・サポート・オフィス,,有限会社,東京都,町田市,薬師台１丁目２１番地５,,13,209,1950073,,,2021-09-10,清算の結了等,,,2015-10-05,1,,,,,サイトウサポートオフィス,0
1997,8013302020640,登記記録の閉鎖等,0,2021-09-22,2021-09-15,有限会社アーバン・アミューズメント,,有限会社,東京都,豊島区,東池袋１丁目３９番１５号,,13,116,1700013,,,2021-09-15,清算の結了等,,,2015-10-05,1,,,,,アーバンアミューズメント,0
2021,8030001094997,登記記録の閉鎖等,0,2021-09-22,2021-09-09,株式会社ＲｉｓｉｎｇーＳｔａｒｌ,,株式会社,埼玉県,さいたま市緑区,大字中尾１１４７番地,,11,109,3360932,,,2021-09-09,清算の結了等,,,2015-10-05,1,,,,,,0
2033,8040002046666,登記記録の閉鎖等,0,2021-09-22,2021-09-13,有限会社ステップ企画,,有限会社,千葉県,松戸市,小根本８４番地の９,,12,207,2710073,,,2021-09-13,清算の結了等,,,2015-10-05,1,,,,,ステップキカク,0
2038,8050001020126,登記記録の閉鎖等,0,2021-09-22,2021-09-08,かやば工業株式会社,,株式会社,茨城県,鹿嶋市,大字沼尾１９３番地２６,,08,222,3140041,,,2021-09-08,清算の結了等,,,2015-10-05,1,,,,,カヤバコウギョウ,0
2052,8110002013881,登記記録の閉鎖等,0,2021-09-22,2021-09-16,有限会社明宝不動産,,有限会社,新潟県,五泉市,曙町６番２０号,,15,218,9591831,,,2021-09-16,清算の結了等,,,2015-10-05,1,,,,,メイホウフドウサン,0
2057,8120001214216,登記記録の閉鎖等,0,2021-09-22,2021-09-07,株式会社天六リフト,,株式会社,大阪府,大阪市北区,長柄東１丁目４番２６－７０５号,,27,127,5310063,,,2021-09-07,清算の結了等,,,2018-06-22,1,,,,,テンロクリフト,0
2071,8120101026619,登記記録の閉鎖等,0,2021-09-22,2021-09-17,大建ハウス販売株式会社,,株式会社,大阪府,大阪狭山市,岩室２丁目２２３番地,,27,231,5890032,,,2021-09-17,清算の結了等,,,2015-10-05,1,,,,,ダイケンハウスハンバイ,0
2084,8122002011212,登記記録の閉鎖等,0,2021-09-22,2021-09-21,有限会社三栄事務機,,有限会社,大阪府,大東市,西楠の里町１１番２６号,,27,218,5740005,,,2021-09-21,清算の結了等,,,2015-10-05,1,,,,,サンエイジムキ,0
2116,8220005008273,登記記録の閉鎖等,0,2021-09-22,2021-09-15,医療法人社団しおはま矯正歯科クリニック,,その他の設立登記法人,石川県,加賀市,大聖寺荒町６１番地８,,17,206,9220034,,,2021-09-15,清算の結了等,,,2018-03-15,1,,,,,シオハマキョウセイシカクリニック,0
2121,8260001003514,登記記録の閉鎖等,0,2021-09-22,2021-09-21,株式会社末藤不動産鑑定事務所,,株式会社,岡山県,岡山市南区,泉田３丁目７番２８－４号,,33,104,7000944,,,2021-09-21,清算の結了等,,,2015-10-05,1,,,,,スエトウフドウサンカンテイジムショ,0
2124,8260002021721,登記記録の閉鎖等,0,2021-09-22,2021-09-21,有限会社もりもと食料品店,,有限会社,岡山県,倉敷市,亀島１丁目２４番１３号,,33,202,7128013,,,2021-09-21,清算の結了等,,,2015-10-05,1,,,,,,0
2142,8330005005391,登記記録の閉鎖等,0,2021-09-22,2021-09-17,小川茶商協同組合,,その他の設立登記法人,熊本県,宇城市,小川町小川１００番地７,,43,213,8690621,,,2021-09-17,清算の結了等,,,2015-10-05,1,,,,,オガワチャショウ,0
2157,8380005000834,登記記録の閉鎖等,0,2021-09-22,2021-07-27,天理教北福島分教会,,その他の設立登記法人,福島県,福島市,坂登７番地の９,,07,201,9608242,,,2021-07-27,合併による解散等,2080405003811,令和３年７月２０日静岡県浜松市天竜区二俣町二俣９２９番地１天理教二俣分教会（2080405003811）に合併し解散,2015-10-05,1,,,,,テンリキョウキタフクシマブンキョウカイ,0
2225,9010501044494,登記記録の閉鎖等,0,2021-09-22,2021-09-14,富士株式会社,,株式会社,東京都,豊島区,西池袋１丁目２９－１４オリエント池袋４０３号室,,13,116,1710021,,,2021-09-14,清算の結了等,,,2019-08-08,1,,,,,フジ,0
2234,9010901021424,登記記録の閉鎖等,0,2021-09-22,2021-09-15,ベンチャー・ナビゲーション株式会社,,株式会社,東京都,世田谷区,弦巻２丁目１８番２２－５０７号,,13,112,1540016,,,2021-09-15,清算の結了等,,,2015-10-05,1,,,,,ベンチャーナビゲーション,0
2258,9011401004852,登記記録の閉鎖等,0,2021-09-22,2021-09-17,株式会社中野建工,,株式会社,東京都,板橋区,大和町３１番６号,,13,119,1730012,,,2021-09-17,清算の結了等,,,2015-10-05,1,,,,,ナカノケンコウ,0
2281,9013101003829,登記記録の閉鎖等,0,2021-09-22,2021-09-03,テストデータシステム株式会社,,株式会社,東京都,青梅市,二俣尾３丁目８４１番地１,,13,205,1980171,,,2021-09-03,清算の結了等,,,2015-10-05,1,,,,,テストデータシステム,0
2293,9020002089022,登記記録の閉鎖等,0,2021-09-22,2021-09-16,有限会社サカエ産業,,有限会社,神奈川県,川崎市高津区,北見方２丁目３３番２２号,,14,134,2130005,,,2021-09-16,清算の結了等,,,2015-10-05,1,,,,,サカエサンギョウ,0
2308,9030001001069,登記記録の閉鎖等,0,2021-09-22,2021-09-08,株式会社エスケー物流,,株式会社,埼玉県,さいたま市浦和区,本太１丁目２５番５号,,11,107,3300052,,,2021-09-08,清算の結了等,,,2015-10-05,1,,,,,エスケーブツリュウ,0
2312,9030001070337,登記記録の閉鎖等,0,2021-09-22,2021-09-09,アガワ工業株式会社,,株式会社,埼玉県,鶴ヶ島市,大字下新田２０番地１８,,11,241,3502222,,,2021-09-09,清算の結了等,,,2015-10-05,1,,,,,アガワコウギョウ,0
2320,9030002059214,登記記録の閉鎖等,0,2021-09-22,2021-09-08,有限会社町田電機,,有限会社,埼玉県,朝霞市,朝志ケ丘４丁目１５番９号,,11,227,3510035,,,2021-09-08,清算の結了等,,,2015-10-05,1,,,,,マチダデンキ,0
2321,9030002066458,登記記録の閉鎖等,0,2021-09-22,2021-07-09,株式会社そとあそび,,株式会社,東京都,渋谷区,神宮前２丁目７番７号,,13,113,1500001,,,2021-07-09,合併による解散等,1040001042350,令和３年７月１日東京都渋谷区神宮前二丁目７番７号アソビュー株式会社（1040001042350）に合併し、解散,2015-10-05,1,,,,,ソトアソビ,0
2325,9030002068371,登記記録の閉鎖等,0,2021-09-22,2021-09-08,有限会社坂巻金型製作所,,有限会社,埼玉県,春日部市,藤塚１５１４番地３,,11,214,3440011,,,2021-09-08,清算の結了等,,,2015-10-05,1,,,,,サカマキカナガタセイサクショ,0
2335,9050003004786,登記記録の閉鎖等,0,2021-09-22,2021-09-15,合同会社エバステンツァ,,合同会社,茨城県,水戸市,五軒町１丁目３番１１号,,08,201,3100063,,,2021-09-15,清算の結了等,,,2019-08-13,1,,,,,エバステンツァ,0
2343,9060005004536,登記記録の閉鎖等,0,2021-09-22,2021-07-08,眞言宗寿照派,,その他の設立登記法人,栃木県,大田原市,久野又４６７番地,,09,210,3240205,,,2021-07-08,合併による解散等,5060005004556,令和３年７月８日栃木県大田原市久野又４６７番地不動院（5060005004556）に合併し解散,2015-10-05,1,,,,,シンゴンシュウジュショウハ,0
2347,9070002017804,登記記録の閉鎖等,0,2021-09-22,2021-09-16,有限会社松葉屋酒店,,有限会社,群馬県,藤岡市,上大塚２５０番地,,10,209,3750054,,,2021-09-16,清算の結了等,,,2015-10-05,1,,,,,マツバヤサケテン,0
2349,9080002017902,登記記録の閉鎖等,0,2021-09-22,2021-09-07,有限会社別所鉄工所,,有限会社,静岡県,藤枝市,中ノ合２１７番地の１,,22,214,4260213,,,2021-09-07,清算の結了等,,,2015-10-05,1,,,,,ベッショテッコウジョ,0
2357,9100002031909,登記記録の閉鎖等,0,2021-09-22,2021-09-17,美篶産業有限会社,,有限会社,長野県,岡谷市,成田町２丁目６番１５号,,20,204,3940042,,,2021-09-17,清算の結了等,,,2015-10-05,1,,,,,ミスズサンギョウ,0
2360,9110002011637,登記記録の閉鎖等,0,2021-09-22,2021-09-17,有限会社加藤商事,,有限会社,新潟県,新潟市西区,寺地４９４番地１４,,15,107,9501104,,,2021-09-17,清算の結了等,,,2015-10-05,1,,,,,カトウショウジ,0
2379,9120001216129,登記記録の閉鎖等,0,2021-09-22,2021-09-10,日本天源株式会社,,株式会社,大阪府,大阪市平野区,背戸口１丁目１２番２８号,,27,126,5470034,,,2021-09-10,清算の結了等,,,2018-10-02,1,,,,,ニホンテンゲン,0
2387,9122001016327,登記記録の閉鎖等,0,2021-09-22,2021-09-16,阪奈瓦斯株式会社,,株式会社,大阪府,四條畷市,雁屋西町１３番２号,,27,229,5750045,,,2021-09-16,合併による解散等,5140001077993,令和３年９月１日兵庫県伊丹市中央五丁目５番１０号伊丹産業株式会社（5140001077993）に合併し解散,2015-10-05,1,,,,,ハンナガス,0
2388,9122002012894,登記記録の閉鎖等,0,2021-09-22,2021-09-17,有限会社ヨミシゲ,,有限会社,大阪府,大東市,諸福３丁目２番７１号,,27,218,5740044,,,2021-09-17,清算の結了等,,,2015-10-05,1,,,,,ヨミシゲ,0
2407,9160005004591,登記記録の閉鎖等,0,2021-09-22,2021-07-21,八幡神社,,その他の設立登記法人,滋賀県,長浜市,余呉町今市５６３番地,,25,203,5290535,,,2021-07-21,合併による解散等,3160005004556,令和３年７月２１日滋賀県長浜市余呉町今市３３９番地佐味神社（3160005004556）に合併し解散,2015-10-05,1,,,,,ハチマンジンジャ,0
2408,9160005004930,登記記録の閉鎖等,0,2021-09-22,2021-09-21,彦根たばこ商業協同組合,,その他の設立登記法人,滋賀県,彦根市,和田町４１番地彦根たばこ会館,,25,202,5220039,,,2021-09-21,合併による解散等,7160005000246,令和３年９月１３日滋賀県大津市御殿浜６番２２号大津たばこ商業協同組合（7160005000246）に合併し解散,2015-10-05,1,,,,,ヒコネタバコショウギョウ,0
2415,9180002024104,登記記録の閉鎖等,0,2021-09-22,2021-09-16,有限会社ドラッグ健奉堂,,有限会社,愛知県,名古屋市西区,中小田井５丁目２８９番地,,23,104,4520822,,,2021-09-16,清算の結了等,,,2015-10-05,1,,,,,ドラックケンポウドウ,0
2426,9200005000883,登記記録の閉鎖等,0,2021-09-22,2021-07-21,松月庵,,その他の設立登記法人,岐阜県,岐阜市,長良３丁目３０番１,,21,201,5020081,,,2021-07-21,合併による解散等,6200005000911,令和３年７月２１日岐阜市加納清水町一丁目３２番地宝樹院（6200005000911）に合併し解散,2015-10-05,1,,,,,ショウゲツアン,0
2447,9260002030259,登記記録の閉鎖等,0,2021-09-22,2021-09-17,有限会社バイオシリカ,,有限会社,岡山県,津山市,加茂町中原２７番地,,33,203,7093931,,,2021-09-17,清算の結了等,,,2015-10-05,1,,,,,バイオシリカ,0
2460,9290005009834,登記記録の閉鎖等,0,2021-09-22,2021-09-08,久留米市植木農業協同組合,,その他の設立登記法人,福岡県,久留米市,山本町耳納２９番地の３,,40,203,8390826,,,2021-09-08,清算の結了等,,,2015-10-05,1,,,,,クルメシウエキ,0
2474,9360001024400,登記記録の閉鎖等,0,2021-09-22,2021-07-19,株式会社ストレンジフルーツヤンバル,,株式会社,沖縄県,那覇市,字天久１００３番地,,47,201,9000005,,,2021-07-19,合併による解散等,3011001011949,令和３年６月３０日東京都大田区田園調布二丁目２４番１７号株式会社ストレンジフルーツ（3011001011949）に合併し解散,2018-08-03,1,,,,,ストレンジフルーツヤンバル,0
2481,9380002012030,登記記録の閉鎖等,0,2021-09-22,2021-09-16,有限会社福島ジーエッチピーサービス,,有限会社,福島県,郡山市,片平町字鍛治田１５０番地,,07,203,9630211,,,2021-09-16,清算の結了等,,,2015-10-05,1,,,,,フクシマジーエッチピーサービス,0
2483,9390002005801,登記記録の閉鎖等,0,2021-09-22,2021-09-16,みのり商事有限会社,,有限会社,山形県,天童市,中里７丁目４番４６号,,06,210,9940064,,,2021-09-16,清算の結了等,,,2015-10-05,1,,,,,ミノリショウジ,0
2499,9460001005142,登記記録の閉鎖等,0,2021-09-22,2021-09-13,株式会社Ｙｏｎｉ　Ｙｏｎｉ　Ｃｏ．Ｌｔｄ．,,株式会社,東京都,港区,六本木４丁目８番７号六本木三河台ビル７階,,13,103,1060032,,,2021-09-13,清算の結了等,,,2017-04-26,1,,,,,,0
2500,9460301004307,登記記録の閉鎖等,0,2021-09-22,2021-09-17,株式会社ナルセ,,株式会社,北海道,網走市,台町２丁目１番１号,,01,211,0930031,,,2021-09-17,清算の結了等,,,2015-10-05,1,,,,,,0
2505,9480005000352,登記記録の閉鎖等,0,2021-09-22,2021-09-06,医療法人冨塚診療所,,その他の設立登記法人,徳島県,徳島市,南二軒屋町３丁目２番１号,,36,201,7708063,,,2021-09-06,清算の結了等,,,2015-10-05,1,,,,,トミヅカシンリョウショ,0
