sequenceNumber,corporateNumber,process,correct,updateDate,changeDate,name,nameImageId,kind,prefectureName,cityName,streetNumber,addressImageId,prefectureCode,cityCode,postCode,addressOutside,addressOutsideImageId,closeDate,closeCause,successorCorporateNumber,changeCause,assignmentDate,latest,enName,enPrefectureName,enCityName,enAddressOutside,furigana,hihyoji
8,1010001222112,新規,0,2021-10-29,2021-10-29,ファイブ・エス企画株式会社,,株式会社,東京都,中央区,月島１丁目８番１－１６０４号,,13,102,1040052,,,,,,,2021-10-29,1,,,,,ファイブエスキカク,0
13,1010003036122,新規,0,2021-10-29,2021-10-29,トガシデータ合同会社,,合同会社,東京都,中央区,銀座１丁目１２番４号Ｎ＆Ｅ－ＢＬＤ．７階,,13,102,1040061,,,,,,,2021-10-29,1,,,,,トガシデータ,0
14,1010005034149,新規,0,2021-10-29,2021-10-29,小山開発特定目的会社,,その他の設立登記法人,東京都,千代田区,霞が関３丁目２番５号,,13,101,1000013,,,,,,,2021-10-29,1,,,,,オヤマカイハツ,0
25,1010401163435,新規,0,2021-10-29,2021-10-29,株式会社ＳＯＬＩＤＵＸ,,株式会社,東京都,港区,南青山６丁目１番３２－７０２号,,13,103,1070062,,,,,,,2021-10-29,1,,,,,ソリダックス,0
26,1010401163476,新規,0,2021-10-29,2021-10-29,株式会社Ｒａｐｔｏｒｓ,,株式会社,東京都,港区,芝４丁目７番６号芝ビルディング７０４,,13,103,1080014,,,,,,,2021-10-29,1,,,,,ラプターズ,0
27,1010401163518,新規,0,2021-10-29,2021-10-29,株式会社Ａｋａｒｉｒｅｌｅａｓｅ,,株式会社,東京都,港区,南青山７丁目１０番６－１２０１号,,13,103,1070062,,,,,,,2021-10-29,1,,,,,アカリリリース,0
28,1010401163526,新規,0,2021-10-29,2021-10-29,株式会社ｏｂａｔａ　ｄｒａｗｉｎｇ　ｆａｒｍ,,株式会社,東京都,港区,南青山２丁目２番１５号ウィン青山９４２,,13,103,1070062,,,,,,,2021-10-29,1,,,,,オバタドローウィングファーム,0
29,1010401163534,新規,0,2021-10-29,2021-10-29,Ｓｅｎｔｅｃ　Ｍｏｎｉｔｏｒｉｎｇ株式会社,,株式会社,東京都,港区,元麻布３丁目１番６号,,13,103,1060046,,,,,,,2021-10-29,1,,,,,センテックモニタリング,0
34,1010601060151,新規,0,2021-10-29,2021-10-29,株式会社Ｌｏｃｕｓ,,株式会社,東京都,江東区,有明３丁目７－２６有明フロンティアビルＢ棟９階,,13,108,1350063,,,,,,,2021-10-29,1,,,,,ローカス,0
41,1010901049695,新規,0,2021-10-29,2021-10-29,株式会社ＤＥＬＴＡ　Ｎｅｔｗｏｒｋｓ,,株式会社,東京都,世田谷区,下馬６丁目２０番１６号サウンドプルーフプロ学芸大学１０２,,13,112,1540002,,,,,,,2021-10-29,1,,,,,デルタネットワークス,0
43,1010903006901,新規,0,2021-10-29,2021-10-29,ＲＡＤＩＥＵＸ合同会社,,合同会社,東京都,世田谷区,成城４丁目５番１７号,,13,112,1570066,,,,,,,2021-10-29,1,,,,,ラデュ,0
51,1011001143678,新規,0,2021-10-29,2021-10-29,株式会社タミゼ,,株式会社,東京都,渋谷区,恵比寿２丁目３８番１７号１２月森スタシオン２０１,,13,113,1500013,,,,,,,2021-10-29,1,,,,,,0
52,1011001143711,新規,0,2021-10-29,2021-10-29,株式会社月導天,,株式会社,東京都,渋谷区,恵比寿４丁目２０番３号恵比寿ガーデンプレイスタワー１８階,,13,113,1500013,,,,,,,2021-10-29,1,,,,,ツキミチ,0
55,1011003013623,新規,0,2021-10-29,2021-10-29,Ｓｕｐｅｒｂ．ｔｏｋｙｏ合同会社,,合同会社,東京都,渋谷区,神宮前４丁目２６番地２６号,,13,113,1500001,,,,,,,2021-10-29,1,,,,,スパーブトウキョウ,0
56,1011003013648,新規,0,2021-10-29,2021-10-29,Ｄｅｓｓｅｒｔ合同会社,,合同会社,東京都,渋谷区,広尾１丁目７番２０号ＤＯＴ１１０３,,13,113,1500012,,,,,,,2021-10-29,1,,,,,デザート,0
68,1011701024814,新規,0,2021-10-29,2021-10-29,株式会社ＮＯ　Ｌｉｍｉｔｓ,,株式会社,東京都,江戸川区,北篠崎２丁目４番３６号クレセントハウス１０１,,13,123,1330053,,,,,,,2021-10-29,1,,,,,ノーリミッツ,0
76,1012701016743,新規,0,2021-10-29,2021-10-29,株式会社創建工業,,株式会社,東京都,東久留米市,八幡町３丁目２番９号,,13,222,2030042,,,,,,,2021-10-29,1,,,,,ソウケンコウギョウ,0
79,1013101008760,新規,0,2021-10-29,2021-10-29,株式会社アプローズ,,株式会社,東京都,青梅市,長淵４丁目４８０番地の５,,13,205,1980052,,,,,,,2021-10-29,1,,,,,アプローズ,0
84,1013301048210,新規,0,2021-10-29,2021-10-29,株式会社ｍｉｋｋａ,,株式会社,東京都,豊島区,東池袋５丁目７番３号リードシー東池袋ビル２Ｆ,,13,116,1700013,,,,,,,2021-10-29,1,,,,,ミッカ,0
93,1020001143654,新規,0,2021-10-29,2021-10-29,株式会社ｍｅｌｔｙ,,株式会社,神奈川県,川崎市高津区,諏訪３丁目１８番６－１０１号,,14,134,2130004,,,,,,,2021-10-29,1,,,,,メルティー,0
102,1021001074328,新規,0,2021-10-29,2021-10-29,ＩＫＫ　ＪＡＰＡＮ株式会社,,株式会社,神奈川県,平塚市,山下８９番地の２,,14,203,2540911,,,,,,,2021-10-29,1,,,,,アイケーケージャパン,0
103,1021001074344,新規,0,2021-10-29,2021-10-29,株式会社中宣,,株式会社,神奈川県,平塚市,岡崎２８１９番地の７,,14,203,2591212,,,,,,,2021-10-29,1,,,,,チュウセン,0
104,1021001074352,新規,0,2021-10-29,2021-10-29,エル株式会社,,株式会社,神奈川県,伊勢原市,善波１００１番地の３,,14,214,2591106,,,,,,,2021-10-29,1,,,,,エル,0
108,1021003011015,新規,0,2021-10-29,2021-10-29,合同会社Ｔｅｎ,,合同会社,神奈川県,南足柄市,飯沢６９４－８,,14,217,2500122,,,,,,,2021-10-29,1,,,,,テン,0
109,1021003011023,新規,0,2021-10-29,2021-10-29,禾田貿易合同会社,,合同会社,神奈川県,相模原市中央区,横山１丁目３番１７号,,14,152,2520242,,,,,,,2021-10-29,1,,,,,ワダボウエキ,0
118,1030001145030,新規,0,2021-10-29,2021-10-29,株式会社イレブン,,株式会社,埼玉県,三郷市,三郷１丁目１番地１２セレノビル２０２,,11,237,3410024,,,,,,,2021-10-29,1,,,,,イレブン,0
119,1030001145063,新規,0,2021-10-29,2021-10-29,株式会社ＴＯ　ｐｌａｓｔｅｒ,,株式会社,埼玉県,新座市,畑中１丁目１６番４２号,,11,230,3520012,,,,,,,2021-10-29,1,,,,,ティーオープラスター,0
120,1030001145071,新規,0,2021-10-29,2021-10-29,株式会社Ｐｒｏｇｒｅｓｓ,,株式会社,埼玉県,川口市,江戸３丁目３０番１号１階,,11,203,3340074,,,,,,,2021-10-29,1,,,,,プログレス,0
123,1030003018218,新規,0,2021-10-29,2021-10-29,合同会社Ｂａｔｃｈ,,合同会社,埼玉県,さいたま市浦和区,領家２丁目１１番１５号アン・ファミーユ西１０２,,11,107,3300072,,,,,,,2021-10-29,1,,,,,バッチ,0
124,1030003018226,新規,0,2021-10-29,2021-10-29,ｌ’ｏｒｔｏ合同会社,,合同会社,埼玉県,さいたま市緑区,芝原１丁目５番１６号イーストパークＵＲＡＷＡＩＩＩＣ号室,00124701,11,109,3360917,,,,,,,2021-10-29,1,,,,,ロルト,0
136,1040003018828,新規,0,2021-10-29,2021-10-29,ＴＨＸ　ＷＯＲＫＳ合同会社,,合同会社,千葉県,千葉市稲毛区,柏台２７７－３,,12,103,2630053,,,,,,,2021-10-29,1,,,,,ティーエッチエックスワークス,0
137,1050001050055,新規,0,2021-10-29,2021-10-29,株式会社ＨＴ,,株式会社,茨城県,水戸市,千波町１２７番地の２,,08,201,3100851,,,,,,,2021-10-29,1,,,,,エイチティー,0
141,1060001034239,新規,0,2021-10-29,2021-10-29,株式会社クレアス,,株式会社,栃木県,那須塩原市,南郷屋１丁目１４８番地１０４コーポしらかば１０２,,09,213,3292705,,,,,,,2021-10-29,1,,,,,クレアス,0
160,1120001241423,新規,0,2021-10-29,2021-10-29,ゾリステン株式会社,,株式会社,大阪府,大阪市城東区,関目２丁目３番２号,,27,118,5360008,,,,,,,2021-10-29,1,,,,,ゾリステン,0
161,1120001241456,新規,0,2021-10-29,2021-10-29,株式会社ワオホールディングス,,株式会社,大阪府,大阪市北区,中崎西１丁目５番１４号,,27,127,5300015,,,,,,,2021-10-29,1,,,,,ワオホールディングス,0
162,1120001241472,新規,0,2021-10-29,2021-10-29,株式会社ＬＡＣＱ,,株式会社,大阪府,大阪市西区,川口２丁目７番５号福楽ビル１Ｆ,,27,106,5500021,,,,,,,2021-10-29,1,,,,,ラシク,0
163,1120001241480,新規,0,2021-10-29,2021-10-29,株式会社ハウスサポートアゼテック,,株式会社,大阪府,枚方市,田口１丁目６６番９号,,27,210,5731162,,,,,,,2021-10-29,1,,,,,ハウスサポートアゼテック,0
164,1120001241489,新規,0,2021-10-29,2021-10-29,株式会社Ｓｋｙ　Ｓｕｎ,,株式会社,大阪府,大阪市福島区,野田２丁目１２番１０号,,27,103,5530005,,,,,,,2021-10-29,1,,,,,スカイサン,0
165,1120001241497,新規,0,2021-10-29,2021-10-29,ＮＡＴＹ株式会社,,株式会社,大阪府,大阪市浪速区,日本橋東３丁目１６番２６－１４０４号,,27,111,5560006,,,,,,,2021-10-29,1,,,,,ナッティー,0
166,1120001241506,新規,0,2021-10-29,2021-10-29,株式会社ＡＣＴ,,株式会社,大阪府,大阪市生野区,中川１丁目１番７号今里オーオービル,,27,116,5440005,,,,,,,2021-10-29,1,,,,,アクト,0
171,1120003020494,新規,0,2021-10-29,2021-10-29,合同会社Ｋｒａｂｅｒ,,合同会社,大阪府,大阪市北区,天神橋３丁目６－５－７０４,,27,127,5300041,,,,,,,2021-10-29,1,,,,,クレーバー,0
172,1120003020503,新規,0,2021-10-29,2021-10-29,ホワイト企画合同会社,,合同会社,大阪府,大阪市旭区,新森５丁目１６番１１号パークヴェール新森５０５,,27,117,5350022,,,,,,,2021-10-29,1,,,,,ホワイトキカク,0
181,1122001035301,新規,0,2021-10-29,2021-10-29,株式会社翔栄,,株式会社,大阪府,東大阪市,菱屋東２丁目４番１８号,,27,227,5780948,,,,,,,2021-10-29,1,,,,,ショウエイ,0
186,1130003007565,新規,0,2021-10-29,2021-10-29,ライフミル合同会社,,合同会社,京都府,京都市中京区,御池通東洞院東入笹屋町４３６番地永和御池ビル６０６号,,26,104,6048187,,,,,,,2021-10-29,1,,,,,ライフミル,0
193,1140001123636,新規,0,2021-10-29,2021-10-29,株式会社ＨＯＲＴＩＦＵＴＵＲＥ,,株式会社,兵庫県,三木市,吉川町上荒川７４８番地２５,,28,215,6731111,,,,,,,2021-10-29,1,,,,,ホルティフューチャー,0
194,1140001123644,新規,0,2021-10-29,2021-10-29,株式会社ＳＮＡサービス,,株式会社,兵庫県,神戸市西区,桜が丘中町２丁目４番地の７,,28,111,6512226,,,,,,,2021-10-29,1,,,,,エスエヌエーサービス,0
196,1140003016904,新規,0,2021-10-29,2021-10-29,ＪＯＹＭＯＲ合同会社,,合同会社,兵庫県,芦屋市,大原町２番４号,,28,206,6590092,,,,,,,2021-10-29,1,,,,,ジョイモア,0
197,1140003016912,新規,0,2021-10-29,2021-10-29,合同会社ＳＡＮＮＡＮＡ,,合同会社,兵庫県,神戸市中央区,北長狭通４丁目２－１９,,28,110,6500012,,,,,,,2021-10-29,1,,,,,サンナナ,0
198,1160003002415,新規,0,2021-10-29,2021-10-29,合同会社ＲＯＩＣＥ,,合同会社,滋賀県,大津市,長等１丁目２番４３号２０２号室,,25,201,5200046,,,,,,,2021-10-29,1,,,,,,0
209,1180001148489,新規,0,2021-10-29,2021-10-29,株式会社Ｋａｋｕｈａｒｕ,,株式会社,愛知県,名古屋市緑区,大高町字鶴田１１５－１ＬａＬｕｃｅ３０２号,,23,114,4598001,,,,,,,2021-10-29,1,,,,,カクハル,0
218,1180303005149,新規,0,2021-10-29,2021-10-29,合同会社Ｄａｎｋｅｓｃｈｏｎ,,合同会社,愛知県,豊橋市,東光町８番地の３,,23,201,4400036,,,,,,,2021-10-29,1,,,,,ダンケシェン,0
228,1220003003142,新規,0,2021-10-29,2021-10-29,ペパープロモーション合同会社,,合同会社,石川県,金沢市,寺町５丁目１番１８号,,17,201,9218033,,,,,,,2021-10-29,1,,,,,ペパープロモーション,0
230,1230001019057,新規,0,2021-10-29,2021-10-29,株式会社Ｌｕｎａ,,株式会社,富山県,富山市,新庄町１８番地３Ｌｕｎａ新庄１０１号,,16,201,9300992,,,,,,,2021-10-29,1,,,,,,0
234,1240001058830,新規,0,2021-10-29,2021-10-29,グローリッチマネジメント株式会社,,株式会社,広島県,広島市西区,南観音４丁目１番２２号,,34,104,7330035,,,,,,,2021-10-29,1,,,,,,0
240,1260001036140,新規,0,2021-10-29,2021-10-29,株式会社せきしんの才,,株式会社,岡山県,岡山市北区,表町１丁目３番９号,,33,101,7000822,,,,,,,2021-10-29,1,,,,,セキシンノサイ,0
251,1290801027939,新規,0,2021-10-29,2021-10-29,株式会社アリエナジー,,株式会社,福岡県,北九州市若松区,北浜２丁目４番８号,,40,103,8080023,,,,,,,2021-10-29,1,,,,,アリエナジー,0
252,1290801027947,新規,0,2021-10-29,2021-10-29,株式会社Ｆ２ｃｏｎｎｅｃｔ,,株式会社,福岡県,鞍手郡小竹町,大字南良津１６２３,,40,401,8201106,,,,,,,2021-10-29,1,,,,,エフツーコネクト,0
256,1310001017548,新規,0,2021-10-29,2021-10-29,アサヒミライズ株式会社,,株式会社,長崎県,佐世保市,桑木場町３３０番地,,42,202,8593157,,,,,,,2021-10-29,1,,,,,アサヒミライズ,0
260,1320001018693,新規,0,2021-10-29,2021-10-29,株式会社マルヨシ建築,,株式会社,大分県,玖珠郡九重町,大字松木４８８２番地の２,,44,461,8794632,,,,,,,2021-10-29,1,,,,,マルヨシケンチク,0
266,1330003009112,新規,0,2021-10-29,2021-10-29,合同会社ＳＴＡＢＬＥ,,合同会社,熊本県,玉名市,松木１番地６,,43,206,8650052,,,,,,,2021-10-29,1,,,,,ステイブル,0
268,1340005009365,新規,0,2021-10-29,2021-10-29,一般社団法人ＡＲＵ,,その他の設立登記法人,鹿児島県,姶良市,平松５７７６番地,,46,225,8995652,,,,,,,2021-10-29,1,,,,,アル,0
273,1370003005462,新規,0,2021-10-29,2021-10-29,合同会社神尾商店,,合同会社,宮城県,白石市,大鷹沢大町字横根９９番地２,,04,206,9890212,,,,,,,2021-10-29,1,,,,,カミオショウテン,0
282,1430001085269,新規,0,2021-10-29,2021-10-29,株式会社Ｋ３１,,株式会社,北海道,札幌市白石区,東札幌二条５丁目６番１０号エステラ東札幌１Ｆ,,01,104,0030002,,,,,,,2021-10-29,1,,,,,ケースリーワン,0
284,1430003013293,新規,0,2021-10-29,2021-10-29,門脇漁業部合同会社,,合同会社,北海道,石狩市,浜益区浜益３６番地１,,01,235,0613101,,,,,,,2021-10-29,1,,,,,カドワキギョギョウブ,0
285,1430003013310,新規,0,2021-10-29,2021-10-29,合同会社ＲＥＭ,,合同会社,北海道,小樽市,幸３丁目２４－１,,01,203,0470037,,,,,,,2021-10-29,1,,,,,レム,0
309,2010001222111,新規,0,2021-10-29,2021-10-29,株式会社Ｃｏｎｏｍｅｅ,,株式会社,東京都,中央区,築地１丁目４番８－９０１号,,13,102,1040045,,,,,,,2021-10-29,1,,,,,コノミー,0
310,2010001222144,新規,0,2021-10-29,2021-10-29,ＷｈａｌｅＦｉｎ　Ｈｏｌｄｉｎｇｓ　Ｊａｐａｎ株式会社,,株式会社,東京都,千代田区,大手町１丁目６番１号大手町ビルヂング,,13,101,1000004,,,,,,,2021-10-29,1,,,,,ホエールフィンホールディングスジャパン,0
314,2010003036121,新規,0,2021-10-29,2021-10-29,合同会社ＨＡＬ,,合同会社,東京都,千代田区,岩本町１丁目５番８号,,13,101,1010032,,,,,,,2021-10-29,1,,,,,ハール,0
317,2010103001801,新規,0,2021-10-29,2021-10-29,合同会社優楽園,,合同会社,東京都,八王子市,三崎町５番１７号鷹野ビル７階,,13,201,1920084,,,,,,,2021-10-29,1,,,,,ユウラクエン,0
322,2010401163509,新規,0,2021-10-29,2021-10-29,株式会社ＴＷＹ,,株式会社,東京都,港区,南青山２丁目２番１５号ウィン青山９４２,,13,103,1070062,,,,,,,2021-10-29,1,,,,,ティーダブリュワイ,0
323,2010401163566,新規,0,2021-10-29,2021-10-29,株式会社Ｔｅｎｇｃｌｅ,,株式会社,東京都,港区,高輪２丁目１９－２０,,13,103,1080074,,,,,,,2021-10-29,1,,,,,テンクル,0
336,2010603009229,新規,0,2021-10-29,2021-10-29,合同会社啓蒙義塾,,合同会社,東京都,江東区,塩浜２丁目１８－５－４０３,,13,108,1350043,,,,,,,2021-10-29,1,,,,,ケイモウギジュク,0
340,2010903006900,新規,0,2021-10-29,2021-10-29,ジーエーディースタジオ合同会社,,合同会社,東京都,世田谷区,下馬３丁目３０番４号,,13,112,1540002,,,,,,,2021-10-29,1,,,,,ジーエーディースタジオ,0
343,2011001143504,新規,0,2021-10-29,2021-10-29,株式会社ＦＭＡ,,株式会社,東京都,渋谷区,広尾５丁目２３－５長谷部第１ビル１階,,13,113,1500012,,,,,,,2021-10-29,1,,,,,エフエムエー,0
344,2011001143611,新規,0,2021-10-29,2021-10-29,株式会社エスプリワークス,,株式会社,東京都,渋谷区,神宮前５丁目４７番８号,,13,113,1500001,,,,,,,2021-10-29,1,,,,,,0
345,2011001143710,新規,0,2021-10-29,2021-10-29,株式会社ｌｉｎｅｌａｂｏ,,株式会社,東京都,渋谷区,道玄坂２丁目１５番１号,,13,113,1500043,,,,,,,2021-10-29,1,,,,,ラインラボ,0
348,2011003013622,新規,0,2021-10-29,2021-10-29,合同会社ブリリアント,,合同会社,東京都,渋谷区,千駄ヶ谷５丁目３２番５－１００４号,,13,113,1510051,,,,,,,2021-10-29,1,,,,,ブリリアント,0
349,2011003013647,新規,0,2021-10-29,2021-10-29,クロビシステムズ合同会社,,合同会社,東京都,渋谷区,恵比寿４丁目２０番３号ガーデンプレイスタワー１８階,,13,113,1500013,,,,,,,2021-10-29,1,,,,,クロビシステムズ,0
356,2011501027438,新規,0,2021-10-29,2021-10-29,株式会社ｍａｐｌｅｓ,,株式会社,東京都,荒川区,東尾久５丁目３７番１４号ドリームハウス熊野前２０１,,13,118,1160012,,,,,,,2021-10-29,1,,,,,メイプルズ,0
361,2011601025507,新規,0,2021-10-29,2021-10-29,株式会社ルーフズ,,株式会社,東京都,練馬区,土支田３丁目１１番１５号,,13,120,1790076,,,,,,,2021-10-29,1,,,,,ルーフズ,0
362,2011701024813,新規,0,2021-10-29,2021-10-29,ＧＳクリエイト株式会社,,株式会社,東京都,江戸川区,平井６丁目３７番１２号,,13,123,1320035,,,,,,,2021-10-29,1,,,,,ジーエスクリエイト,0
366,2011801039901,新規,0,2021-10-29,2021-10-29,心大商事株式会社,,株式会社,東京都,葛飾区,新小岩１丁目３８－１１－１１０２メイツ新小岩,,13,122,1240024,,,,,,,2021-10-29,1,,,,,シンダイショウジ,0
367,2011805003119,新規,0,2021-10-29,2021-10-29,特定非営利活動法人けだ・まも,,その他の設立登記法人,東京都,足立区,花畑１丁目７番３号,,13,121,1210061,,,,,,,2021-10-29,1,,,,,ケダマモ,0
369,2012401038467,新規,0,2021-10-29,2021-10-29,ＷｅＣｈａｉｎ株式会社,,株式会社,東京都,武蔵野市,御殿山２丁目６番１２号御殿山ウイスタリア２０１,,13,203,1800005,,,,,,,2021-10-29,1,,,,,ウィチェーン,0
372,2013105001785,新規,0,2021-10-29,2021-10-29,特定非営利活動法人ブラウグラーナ総合スポーツクラブ,,その他の設立登記法人,東京都,西多摩郡瑞穂町,大字高根１５９番地１２,,13,303,1901203,,,,,,,2021-10-29,1,,,,,ブラウグラーナソウゴウスポーツクラブ,0
383,2020001143629,新規,0,2021-10-29,2021-10-29,セブンシーズ株式会社,,株式会社,神奈川県,横浜市中区,不老町３丁目１２番地９,,14,104,2310032,,,,,,,2021-10-29,1,,,,,セブンシーズ,0
392,2021001074351,新規,0,2021-10-29,2021-10-29,株式会社Ｂｒｉｌｌｉａｎｔ,,株式会社,神奈川県,平塚市,中堂１３番４４号,,14,203,2540026,,,,,,,2021-10-29,1,,,,,ブリリアント,0
395,2021003011030,新規,0,2021-10-29,2021-10-29,４４＆Ｃｏ合同会社,,合同会社,神奈川県,茅ヶ崎市,東海岸南６丁目５番１１－７号,,14,207,2530054,,,,,,,2021-10-29,1,,,,,シシアンドコー,0
402,2030001145038,新規,0,2021-10-29,2021-10-29,株式会社ＯＤＡ警備,,株式会社,埼玉県,八潮市,中央１丁目３番地１３,,11,234,3400816,,,,,,,2021-10-29,1,,,,,オダケイビ,0
403,2030001145062,新規,0,2021-10-29,2021-10-29,株式会社高倉サービス,,株式会社,埼玉県,鶴ヶ島市,大字高倉６０９－１,,11,241,3502223,,,,,,,2021-10-29,1,,,,,タカクラサービス,0
410,2030003018209,新規,0,2021-10-29,2021-10-29,ｈａｒｕｓｕｉ合同会社,,合同会社,埼玉県,さいたま市北区,櫛引町２丁目５８９番地１ロイヤルシード１０３,,11,102,3310825,,,,,,,2021-10-29,1,,,,,ハルスイ,0
411,2030003018217,新規,0,2021-10-29,2021-10-29,Ｍｏｎ‐ＢＭ合同会社,,合同会社,埼玉県,川口市,芝新町１２番２７－５０２号サンハイツ平成,,11,203,3330851,,,,,,,2021-10-29,1,,,,,モンビーエム,0
420,2040003018827,新規,0,2021-10-29,2021-10-29,ＳＥＬＰＦＵＬＪＡＰＡＮ合同会社,,合同会社,千葉県,鎌ケ谷市,鎌ケ谷８丁目７番３６号,,12,224,2730105,,,,,,,2021-10-29,1,,,,,セルプフルジャパン,0
421,2050001050046,新規,0,2021-10-29,2021-10-29,株式会社ＡＣ．ＪＡＰＡＮ,,株式会社,茨城県,常総市,山口２３７番地３エクセドミール１０６号室,,08,211,3002715,,,,,,,2021-10-29,1,,,,,エーシージャパン,0
423,2050003006161,新規,0,2021-10-29,2021-10-29,合同会社エス・エム・エイチ,,合同会社,茨城県,水戸市,新荘２丁目１番１２－２０１号パステルハイム新荘,,08,201,3100036,,,,,,,2021-10-29,1,,,,,エスエムエイチ,0
432,2110001036146,新規,0,2021-10-29,2021-10-29,ｃｏｆｆｅｅ　ｔｏ　ｕｎａｇｉ株式会社,,株式会社,新潟県,長岡市,古正寺３丁目３９２番地２コーポラス和１号室,,15,202,9402106,,,,,,,2021-10-29,1,,,,,コーヒートウナギ,0
446,2120001241447,新規,0,2021-10-29,2021-10-29,株式会社友生,,株式会社,大阪府,寝屋川市,萱島信和町２１番２６号萱島駅前ビル２Ｆ,,27,215,5720829,,,,,,,2021-10-29,1,,,,,ユウセイ,0
447,2120001241463,新規,0,2021-10-29,2021-10-29,株式会社デジタルビルド,,株式会社,大阪府,大阪市東成区,東中本２丁目２番９号,,27,115,5370021,,,,,,,2021-10-29,1,,,,,デジタルビルド,0
448,2120001241496,新規,0,2021-10-29,2021-10-29,株式会社シャイカ,,株式会社,大阪府,大阪市中央区,船越町１丁目１番１－８０１号,,27,128,5400036,,,,,,,2021-10-29,1,,,,,シャイカ,0
451,2120003020477,新規,0,2021-10-29,2021-10-29,合同会社ＲＥＧＬＯＷ,,合同会社,大阪府,大阪市住吉区,遠里小野３丁目５番９号,,27,120,5580032,,,,,,,2021-10-29,1,,,,,リグロー,0
452,2120003020485,新規,0,2021-10-29,2021-10-29,合同会社ＥＩＧＨＴ,,合同会社,大阪府,大阪市北区,大淀南２丁目８番１１－２０３号,,27,127,5310075,,,,,,,2021-10-29,1,,,,,エイト,0
467,2130001070408,新規,0,2021-10-29,2021-10-29,ＮＫクリート株式会社,,株式会社,京都府,木津川市,山城町平尾南払戸１０９番地,,26,214,6190202,,,,,,,2021-10-29,1,,,,,エヌケイクリート,0
476,2170003001654,新規,0,2021-10-29,2021-10-29,わんおく合同会社,,合同会社,和歌山県,紀の川市,桃山町調月７６９番地１４８,,30,208,6496112,,,,,,,2021-10-29,1,,,,,ワンオク,0
482,2180005019495,新規,0,2021-10-29,2021-10-29,一般社団法人Ｈｉｍａｗａｒｉ,,その他の設立登記法人,愛知県,名古屋市港区,入場１丁目１４０５番地,,23,111,4550803,,,,,,,2021-10-29,1,,,,,ヒマワリ,0
484,2180301035568,新規,0,2021-10-29,2021-10-29,ＲＩＵＮＩＯＮＥ株式会社,,株式会社,愛知県,西尾市,家武町落合１２９番地,,23,213,4450031,,,,,,,2021-10-29,1,,,,,リユニオン,0
486,2180303005148,新規,0,2021-10-29,2021-10-29,合同会社リアン,,合同会社,愛知県,岡崎市,大西３丁目２番地１６,,23,202,4440871,,,,,,,2021-10-29,1,,,,,リアン,0
497,2220001024494,新規,0,2021-10-29,2021-10-29,クルーズ株式会社,,株式会社,石川県,野々市市,堀内３丁目１５５番地１０１号,,17,212,9218844,,,,,,,2021-10-29,1,,,,,クルーズ,0
512,2260001036131,新規,0,2021-10-29,2021-10-29,株式会社小原農場,,株式会社,岡山県,津山市,川崎１９７９番地１,,33,203,7080841,,,,,,,2021-10-29,1,,,,,オハラノウジョウ,0
513,2260003003708,新規,0,2021-10-29,2021-10-29,合同会社ウィズウイングス,,合同会社,岡山県,岡山市北区,芳賀５１１３番地１３２,,33,101,7011221,,,,,,,2021-10-29,1,,,,,ウィズウイングス,0
514,2270003001363,新規,0,2021-10-29,2021-10-29,合同会社加藤,,合同会社,鳥取県,鳥取市,南安長３丁目５３番地２,,31,201,6800914,,,,,,,2021-10-29,1,,,,,カトウ,0
523,2290001095166,新規,0,2021-10-29,2021-10-29,ＩＤＲ株式会社,,株式会社,福岡県,福岡市中央区,地行浜２丁目２番４－１７１０号,,40,133,8100065,,,,,,,2021-10-29,1,,,,,アイディアール,0
524,2290001095174,新規,0,2021-10-29,2021-10-29,ＣｌｉｎｉｃＸ株式会社,,株式会社,福岡県,福岡市中央区,薬院３丁目１３番１１号,,40,133,8100022,,,,,,,2021-10-29,1,,,,,クリニックエックス,0
525,2290001095182,新規,0,2021-10-29,2021-10-29,株式会社西都建装,,株式会社,福岡県,福岡市西区,大字徳永５４５番４７,,40,135,8190375,,,,,,,2021-10-29,1,,,,,サイトケンソウ,0
526,2290001095190,新規,0,2021-10-29,2021-10-29,井上建物株式会社,,株式会社,福岡県,糟屋郡志免町,志免２丁目７番５号,,40,343,8112202,,,,,,,2021-10-29,1,,,,,イノウエタテモノ,0
527,2290003011765,新規,0,2021-10-29,2021-10-29,ＩＮＱＲＵＤＥＲ合同会社,,合同会社,福岡県,福岡市早良区,室見４丁目１０番１５－２号,,40,137,8140015,,,,,,,2021-10-29,1,,,,,インクルーダー,0
536,2310001017547,新規,0,2021-10-29,2021-10-29,株式会社アイ・ビー・エヌ,,株式会社,長崎県,長崎市,桜馬場１丁目１２番２６号,,42,201,8500015,,,,,,,2021-10-29,1,,,,,アイビーエヌ,0
540,2330003009111,新規,0,2021-10-29,2021-10-29,合同会社いぶき,,合同会社,熊本県,熊本市中央区,帯山１丁目３３番６１号Ａ号,,43,101,8620924,,,,,,,2021-10-29,1,,,,,イブキ,0
541,2340001024210,新規,0,2021-10-29,2021-10-29,株式会社グローバルエージェント,,株式会社,鹿児島県,鹿屋市,打馬２丁目２２番１３－１号ボヌール打馬Ｂ棟２０２号,,46,203,8930011,,,,,,,2021-10-29,1,,,,,グローバルエージェント,0
542,2340005009364,新規,0,2021-10-29,2021-10-29,鹿児島黒和牛繁殖事業協同組合,,その他の設立登記法人,鹿児島県,薩摩川内市,中村町吉野山７０９３番地１,,46,215,8950003,,,,,,,2021-10-29,1,,,,,カゴシマクロワギュウハンショク,0
544,2360003011527,新規,0,2021-10-29,2021-10-29,合同会社ピコ保険サービス,,合同会社,沖縄県,名護市,城２丁目５番２０号１０２,,47,209,9050013,,,,,,,2021-10-29,1,,,,,ピコホケンサービス,0
545,2360005006541,新規,0,2021-10-29,2021-10-29,一般社団法人子どもの居場所こばんち,,その他の設立登記法人,沖縄県,那覇市,古波蔵２丁目１５番１２号,,47,201,9000024,,,,,,,2021-10-29,1,,,,,コドモノイバショコバンチ,0
547,2370001047761,新規,0,2021-10-29,2021-10-29,株式会社ＨＭ　ｉｎｔｅｒｎａｔｉｏｎａｌ,,株式会社,宮城県,刈田郡蔵王町,宮字古川１０９番地１,,04,301,9890701,,,,,,,2021-10-29,1,,,,,エイチエムインターナショナル,0
553,2430001085251,新規,0,2021-10-29,2021-10-29,三禾貿易株式会社,,株式会社,北海道,苫小牧市,字錦岡１９３番地の４,,01,213,0591275,,,,,,,2021-10-29,1,,,,,ミイナボウエキ,0
554,2430001085268,新規,0,2021-10-29,2021-10-29,株式会社リプラス,,株式会社,北海道,札幌市中央区,大通東２丁目１５番地１,,01,101,0600041,,,,,,,2021-10-29,1,,,,,リプラス,0
555,2430003013301,新規,0,2021-10-29,2021-10-29,合同会社サークルムーン,,合同会社,北海道,札幌市中央区,南二条西７丁目１番５号２・７ビル２階,,01,101,0600062,,,,,,,2021-10-29,1,,,,,サークルムーン,0
556,2460105002224,新規,0,2021-10-29,2021-10-29,一般社団法人十勝スタイル,,その他の設立登記法人,北海道,帯広市,西一条南１６丁目１４－１－２０１,,01,207,0800011,,,,,,,2021-10-29,1,,,,,トカチスタイル,0
577,3010001222110,新規,0,2021-10-29,2021-10-29,株式会社星宇,,株式会社,東京都,中央区,晴海２丁目２番４２－１３２３号,,13,102,1040053,,,,,,,2021-10-29,1,,,,,セイウ,0
578,3010001222143,新規,0,2021-10-29,2021-10-29,ＷｈａｌｅＦｉｎ　Ｔｅｃｈｎｏｌｏｇｉｅｓ　Ｊａｐａｎ株式会社,,株式会社,東京都,千代田区,大手町１丁目６番１号大手町ビルヂング,,13,101,1000004,,,,,,,2021-10-29,1,,,,,ホエールフィンテクノロジーズジャパン,0
579,3010001222168,新規,0,2021-10-29,2021-10-29,ｔｈｅｔｒａｄｅｒ株式会社,,株式会社,東京都,中央区,銀座１丁目１２－４Ｎ＆ＥＢＬＤ．７階,,13,102,1040061,,,,,,,2021-10-29,1,,,,,ザトレーダー,0
580,3010001222176,新規,0,2021-10-29,2021-10-29,株式会社みろく,,株式会社,東京都,千代田区,外神田４丁目４番３号小木曽ビル５階,,13,101,1010021,,,,,,,2021-10-29,1,,,,,ミロク,0
584,3010003036129,新規,0,2021-10-29,2021-10-29,ジャスト・ナウ・コンサルティング合同会社,,合同会社,東京都,千代田区,一番町９－１４,,13,101,1020082,,,,,,,2021-10-29,1,,,,,ジャストナウコンサルティング,0
599,3010401163433,新規,0,2021-10-29,2021-10-29,株式会社ラスカルチーム,,株式会社,東京都,港区,麻布十番２丁目４番１－４０５,,13,103,1060045,,,,,,,2021-10-29,1,,,,,ラスカルチーム,0
600,3010401163508,新規,0,2021-10-29,2021-10-29,株式会社Ｐｏｏｌ＆Ｓｅａ,,株式会社,東京都,港区,南青山５丁目６番９号,,13,103,1070062,,,,,,,2021-10-29,1,,,,,プールアンドシー,0
601,3010401163581,新規,0,2021-10-29,2021-10-29,株式会社ネオ・ホールディングス,,株式会社,東京都,港区,虎ノ門４丁目１番２８号虎ノ門タワーズオフィス１７階,,13,103,1050001,,,,,,,2021-10-29,1,,,,,ネオホールディングス,0
606,3010501048030,新規,0,2021-10-29,2021-10-29,大柳株式会社,,株式会社,東京都,台東区,台東２丁目２７番３号ＮＳＫビル１０Ｆ,,13,106,1100016,,,,,,,2021-10-29,1,,,,,オオヤナギ,0
612,3010601060141,新規,0,2021-10-29,2021-10-29,株式会社エス・エス・ジェイ,,株式会社,東京都,江東区,豊洲３丁目５番３－１４１７号,,13,108,1350061,,,,,,,2021-10-29,1,,,,,エスエスジェイ,0
613,3010603009228,新規,0,2021-10-29,2021-10-29,合同会社サクセライズ,,合同会社,東京都,墨田区,立花２丁目６－１１－３０１,,13,107,1310043,,,,,,,2021-10-29,1,,,,,サクセライズ,0
631,3011101096725,新規,0,2021-10-29,2021-10-29,株式会社看護の科学新社,,株式会社,東京都,新宿区,上落合２丁目１７番４号,,13,104,1610034,,,,,,,2021-10-29,1,,,,,カンゴノカガクシンシャ,0
632,3011101096733,新規,0,2021-10-29,2021-10-29,株式会社Ｏｐｐｔｙ,,株式会社,東京都,新宿区,西新宿３丁目２番９号新宿ワシントンホテルビル本館ＴＨＥＨＵＢ新宿ワシントン２３５号室,,13,104,1600023,,,,,,,2021-10-29,1,,,,,オプティ,0
637,3011103011104,新規,0,2021-10-29,2021-10-29,合同会社ＴＡＹＵ,,合同会社,東京都,新宿区,横寺町５８番地３ザ・パークハビオ神楽坂１００２,,13,104,1620831,,,,,,,2021-10-29,1,,,,,タユ,0
647,3011603003427,新規,0,2021-10-29,2021-10-29,合同会社Ｂａｉｏｎ,,合同会社,東京都,練馬区,石神井台２丁目３５番３３号ＣＲＥＳＴＳｈａｋｕｊｉｉ１０１,,13,120,1770045,,,,,,,2021-10-29,1,,,,,バイオン,0
658,3011801039900,新規,0,2021-10-29,2021-10-29,株式会社吉岡商事,,株式会社,東京都,足立区,南花畑５丁目８番６－２０３号,,13,121,1210062,,,,,,,2021-10-29,1,,,,,ヨシオカショウジ,0
660,3012301012752,新規,0,2021-10-29,2021-10-29,株式会社ＬＡＮＤＳＣＡＰＥ,,株式会社,東京都,町田市,森野２丁目２６番１８号ロワールガーデン町田ＩＩ２０３号室,00124702,13,209,1940022,,,,,,,2021-10-29,1,,,,,ランドスケープ,0
664,3012403005084,新規,0,2021-10-29,2021-10-29,小川商店合同会社,,合同会社,東京都,三鷹市,井口１丁目１３－３８－１０１,,13,204,1810011,,,,,,,2021-10-29,1,,,,,オガワショウテン,0
668,3013301048217,新規,0,2021-10-29,2021-10-29,株式会社エアルーム,,株式会社,東京都,豊島区,千早２丁目２７番４号,,13,116,1710044,,,,,,,2021-10-29,1,,,,,エアルーム,0
672,3020001143660,新規,0,2021-10-29,2021-10-29,株式会社ＴＡＳ,,株式会社,神奈川県,横浜市金沢区,西柴１丁目３４番２１号,,14,108,2360017,,,,,,,2021-10-29,1,,,,,ティーエーエス,0
675,3020003020718,新規,0,2021-10-29,2021-10-29,合同会社シャンテ,,合同会社,神奈川県,横浜市金沢区,富岡東１丁目１７番１１号スギタハウス４０１,,14,108,2360051,,,,,,,2021-10-29,1,,,,,シャンテ,0
676,3020003020726,新規,0,2021-10-29,2021-10-29,合同会社Ｌｕｃａ,,合同会社,神奈川県,横浜市港南区,上大岡西１丁目１２番２号パルポート上大岡４０４,,14,111,2330002,,,,,,,2021-10-29,1,,,,,ルーカ,0
680,3021001074342,新規,0,2021-10-29,2021-10-29,株式会社ＫＹＴ　ｃｌａｓｓ,,株式会社,神奈川県,相模原市南区,上鶴間１丁目２番１号ファミール相模大野１０９,,14,153,2520302,,,,,,,2021-10-29,1,,,,,ケーワイティークラス,0
692,3030001145061,新規,0,2021-10-29,2021-10-29,株式会社江川サービス,,株式会社,埼玉県,熊谷市,小江川１８９９－１３,,11,202,3600103,,,,,,,2021-10-29,1,,,,,エガワサービス,0
702,3040001120781,新規,0,2021-10-29,2021-10-29,株式会社浜野内装,,株式会社,千葉県,松戸市,東平賀２６５番地の１パラスト北小金４０２,,12,207,2700003,,,,,,,2021-10-29,1,,,,,ハマノナイソウ,0
703,3040001120807,新規,0,2021-10-29,2021-10-29,株式会社Ｌｉｎｋ　Ｖａｌｕｅ,,株式会社,千葉県,八千代市,村上１１１３－１－１－６,,12,221,2760028,,,,,,,2021-10-29,1,,,,,リンクバリュー,0
705,3040003018826,新規,0,2021-10-29,2021-10-29,合同会社Ｃｏｒｏｔ,,合同会社,千葉県,柏市,十余二２５４番地の１８１,,12,217,2770872,,,,,,,2021-10-29,1,,,,,コロー,0
707,3050001050061,新規,0,2021-10-29,2021-10-29,田林工業株式会社,,株式会社,茨城県,水戸市,吉沢町１２５番地,,08,201,3100845,,,,,,,2021-10-29,1,,,,,タバヤシコウギョウ,0
712,3050003006160,新規,0,2021-10-29,2021-10-29,合同会社岡崎,00124708,合同会社,茨城県,筑西市,宮後９２番地２,,08,227,3004503,,,,,,,2021-10-29,1,,,,,オカザキ,0
714,3060001034237,新規,0,2021-10-29,2021-10-29,ＭＧ株式会社,,株式会社,栃木県,栃木市,箱森町４５番３１号イソハイツＡ棟１０５,,09,203,3280075,,,,,,,2021-10-29,1,,,,,エムジー,0
718,3060003003842,新規,0,2021-10-29,2021-10-29,合同会社サクセスプラス,,合同会社,栃木県,宇都宮市,御幸本町４７３３番地１ニューマリッチ平３０３,,09,201,3210983,,,,,,,2021-10-29,1,,,,,サクセスプラス,0
721,3070001038575,新規,0,2021-10-29,2021-10-29,株式会社ファイバース,,株式会社,群馬県,太田市,吉沢町１０５８番地５太田市産業支援センター２０６－Ｆ,,10,205,3730019,,,,,,,2021-10-29,1,,,,,ファイバース,0
744,3120001241421,新規,0,2021-10-29,2021-10-29,ココモ株式会社,,株式会社,大阪府,大阪市東住吉区,山坂４丁目１番３０号プラザ鶴ヶ丘マンション２０６号,,27,121,5460035,,,,,,,2021-10-29,1,,,,,ココモ,0
745,3120001241438,新規,0,2021-10-29,2021-10-29,株式会社誠工業,,株式会社,大阪府,大阪市生野区,巽南２丁目４番２９号,00124703,27,116,5440015,,,,,,,2021-10-29,1,,,,,マコトコウギョウ,0
746,3120001241446,新規,0,2021-10-29,2021-10-29,株式会社Ｌｉｌｙ　Ｌｕｘｅ,,株式会社,大阪府,大阪市北区,大淀南２丁目８番１１－２０３号,,27,127,5310075,,,,,,,2021-10-29,1,,,,,リリーリュクス,0
747,3120001241470,新規,0,2021-10-29,2021-10-29,株式会社東土地建物,,株式会社,大阪府,大阪市東住吉区,湯里１丁目１３番４１号,,27,121,5460013,,,,,,,2021-10-29,1,,,,,アズマトチタテモノ,0
748,3120001241504,新規,0,2021-10-29,2021-10-29,ミヤビコンサルティング株式会社,,株式会社,大阪府,枚方市,香里ケ丘６丁目１３番地の６３,,27,210,5730084,,,,,,,2021-10-29,1,,,,,ミヤビコンサルティング,0
753,3120003020492,新規,0,2021-10-29,2021-10-29,合同会社新幸,,合同会社,大阪府,大阪市浪速区,湊町２丁目１番３４－８２３号,,27,111,5560017,,,,,,,2021-10-29,1,,,,,シンコウ,0
754,3120005022578,新規,0,2021-10-29,2021-10-29,一般社団法人葬儀ネットワーク協会,,その他の設立登記法人,大阪府,大阪市西区,南堀江１丁目２６番２７号南堀江スカイハイツ５０３号,,27,106,5500015,,,,,,,2021-10-29,1,,,,,ソウギネットワークキョウカイ,0
755,3120101064557,新規,0,2021-10-29,2021-10-29,株式会社ブルーホエール,,株式会社,大阪府,堺市南区,竹城台３丁７番１１号,,27,145,5900105,,,,,,,2021-10-29,1,,,,,ブルーホエール,0
756,3120103004420,新規,0,2021-10-29,2021-10-29,合同会社アスナル,,合同会社,大阪府,和泉市,青葉台２丁目２番１８号,,27,219,5941153,,,,,,,2021-10-29,1,,,,,アスナル,0
758,3120901045112,新規,0,2021-10-29,2021-10-29,株式会社ＫＴＷ,,株式会社,大阪府,豊中市,日出町１丁目１番４号,,27,203,5610821,,,,,,,2021-10-29,1,,,,,,0
770,3140001123634,新規,0,2021-10-29,2021-10-29,株式会社ｉｔｏｆｕｋｕ．,,株式会社,兵庫県,神戸市中央区,八幡通４丁目２－２４セビーヌ神戸三宮ビル,,28,110,6510085,,,,,,,2021-10-29,1,,,,,イトフク,0
771,3140001123650,新規,0,2021-10-29,2021-10-29,株式会社エスシーエス,,株式会社,兵庫県,伊丹市,荒牧南３丁目８番３８号,,28,207,6640008,,,,,,,2021-10-29,1,,,,,エスシーエス,0
775,3150005009341,新規,0,2021-10-29,2021-10-29,特定非営利活動法人アットリンク奈良,,その他の設立登記法人,奈良県,生駒市,あすか野北３丁目６番１１号,,29,209,6300134,,,,,,,2021-10-29,1,,,,,アットリンクナラ,0
778,3160001023758,新規,0,2021-10-29,2021-10-29,株式会社Ｋｏｃｈｉ　Ｋｏｃｈｉ,,株式会社,滋賀県,大津市,坂本７丁目２９番３５号,,25,201,5200113,,,,,,,2021-10-29,1,,,,,コチコチ,0
780,3170001016843,新規,0,2021-10-29,2021-10-29,株式会社杢美,,株式会社,和歌山県,新宮市,千穂１丁目７番２２号,,30,207,6470015,,,,,,,2021-10-29,1,,,,,モクハル,0
784,3170003001653,新規,0,2021-10-29,2021-10-29,合同会社ウィンクルム,,合同会社,和歌山県,和歌山市,美園町２丁目１０９番地グランメール美園ＩＩ６０１,00124704,30,201,6408331,,,,,,,2021-10-29,1,,,,,ウィンクルム,0
795,3180003023135,新規,0,2021-10-29,2021-10-29,合同会社ＳＴＳ,,合同会社,愛知県,海部郡大治町,大字西條字城前田１９番１０号,,23,424,4901144,,,,,,,2021-10-29,1,,,,,エスティエス,0
796,3180005019494,新規,0,2021-10-29,2021-10-29,行政書士法人ひびきグループ,,その他の設立登記法人,愛知県,名古屋市緑区,亀が洞１丁目７０７番地,,23,114,4580804,,,,,,,2021-10-29,1,,,,,ヒビキグループ,0
800,3190001028804,新規,0,2021-10-29,2021-10-29,ナガノ工業株式会社,,株式会社,三重県,津市,高茶屋小森町１５７３番地１０,,24,201,5140817,,,,,,,2021-10-29,1,,,,,ナガノコウギョウ,0
802,3200003005353,新規,0,2021-10-29,2021-10-29,合同会社ききょう,,合同会社,岐阜県,多治見市,希望ケ丘３丁目６８番地,,21,204,5070008,,,,,,,2021-10-29,1,,,,,キキョウ,0
804,3220001024502,新規,0,2021-10-29,2021-10-29,株式会社リバース,,株式会社,石川県,白山市,横江町２０１３番地,,17,210,9240011,,,,,,,2021-10-29,1,,,,,リバース,0
816,3260001036147,新規,0,2021-10-29,2021-10-29,株式会社Ｔｒｕｍｐ　Ｏｋａｙａｍａ,,株式会社,岡山県,岡山市中区,小橋町１丁目２番８‐１号,,33,102,7038293,,,,,,,2021-10-29,1,,,,,トランプオカヤマ,0
821,3290001095157,新規,0,2021-10-29,2021-10-29,株式会社メディジャー,,株式会社,福岡県,福岡市西区,愛宕浜２丁目３－１０マリナタウンリベーラガーデンイーストタワー１９０２号室,,40,135,8190013,,,,,,,2021-10-29,1,,,,,メディジャー,0
840,3330003009110,新規,0,2021-10-29,2021-10-29,合同会社フレンドリー,,合同会社,熊本県,宇城市,松橋町久具１８８８番地１,,43,213,8690532,,,,,,,2021-10-29,1,,,,,フレンドリー,0
854,3370001047752,新規,0,2021-10-29,2021-10-29,株式会社Ｒｉｚｅ　ｏｎｅホールディングス,,株式会社,宮城県,仙台市太白区,西多賀１丁目１番３０号,,04,104,9820034,,,,,,,2021-10-29,1,,,,,ライズワンホールディングス,0
855,3370001047760,新規,0,2021-10-29,2021-10-29,株式会社イツキ,,株式会社,宮城県,仙台市青葉区,栗生１丁目８番地の２,,04,101,9893122,,,,,,,2021-10-29,1,,,,,イツキ,0
862,3390005008922,新規,0,2021-10-29,2021-10-29,叶理家協同組合,,その他の設立登記法人,山形県,東根市,大字六田字楯ノ越７６３番地２,,06,211,9993709,,,,,,,2021-10-29,1,,,,,カナリエ,0
866,3410001012999,新規,0,2021-10-29,2021-10-29,株式会社淡路林業土木,,株式会社,秋田県,潟上市,飯田川和田妹川字山下３番地１,,05,211,0181503,,,,,,,2021-10-29,1,,,,,アワジリンギョウドボク,0
869,3420003002403,新規,0,2021-10-29,2021-10-29,スター合同会社,,合同会社,青森県,青森市,大字三内字沢部３６８番地１８,,02,201,0380031,,,,,,,2021-10-29,1,,,,,スター,0
871,3430003013300,新規,0,2021-10-29,2021-10-29,Ｇｅｎｋｉ　Ｇａｒｄｅｎ合同会社,,合同会社,北海道,日高郡新ひだか町,三石鳧舞３４４－６,,01,610,0593233,,,,,,,2021-10-29,1,,,,,ゲンキガーデン,0
872,3430003013309,新規,0,2021-10-29,2021-10-29,合同会社Ａ　Ｓｅａ,,合同会社,北海道,札幌市中央区,南十三条西１３丁目１－３３コローレ伏見３０５,,01,101,0640913,,,,,,,2021-10-29,1,,,,,エーシー,0
874,3430005014321,新規,0,2021-10-29,2021-10-29,一般社団法人ＶＩＶＡＣＥ,,その他の設立登記法人,北海道,苫小牧市,東開町５丁目９番１１号,,01,213,0591301,,,,,,,2021-10-29,1,,,,,ビバーチェ,0
884,3470001018801,新規,0,2021-10-29,2021-10-29,フードサービス小豆島株式会社,,株式会社,香川県,高松市,サンポート８番２８号,,37,201,7600019,,,,,,,2021-10-29,1,,,,,フードサービスショウドシマ,0
910,4010001222084,新規,0,2021-10-29,2021-10-29,ＭＯＯＮＳＨＯＴ株式会社,,株式会社,東京都,中央区,日本橋兜町９番５号ＪＷＳ兜町ビル１０１１号,,13,102,1030026,,,,,,,2021-10-29,1,,,,,ムーンショット,0
911,4010001222183,新規,0,2021-10-29,2021-10-29,株式会社Ｂｅｌｌｆｏｘ,,株式会社,東京都,中央区,銀座１丁目２２番１１号銀座大竹ビジデンス２階,,13,102,1040061,,,,,,,2021-10-29,1,,,,,ベルフォックス,0
913,4010003036136,新規,0,2021-10-29,2021-10-29,合同会社ファミーユ,,合同会社,東京都,千代田区,神田佐久間町３丁目３８番地第５東ビル５階,,13,101,1010025,,,,,,,2021-10-29,1,,,,,,0
921,4010401163515,新規,0,2021-10-29,2021-10-29,スターリング船舶ファンド１Ｂ号株式会社,,株式会社,東京都,港区,赤坂８丁目１０番２４号スターリング証券内,,13,103,1070052,,,,,,,2021-10-29,1,,,,,スターリングセンパクファンドイチビーゴウ,0
922,4010403026414,新規,0,2021-10-29,2021-10-29,ＩＤＳ６号合同会社,,合同会社,東京都,港区,虎ノ門１丁目１番１２号１０Ｆ,,13,103,1050001,,,,,,,2021-10-29,1,,,,,アイディーエスロクゴウ,0
932,4010601060140,新規,0,2021-10-29,2021-10-29,レコネ株式会社,,株式会社,東京都,江東区,深川１丁目７番６号,,13,108,1350033,,,,,,,2021-10-29,1,,,,,レコネ,0
933,4010601060149,新規,0,2021-10-29,2021-10-29,ＥＧＡＯ　ＴＯＫＹＯ株式会社,,株式会社,東京都,江東区,森下１丁目１６番７号岩橋ビル２Ｆ,,13,108,1350004,,,,,,,2021-10-29,1,,,,,エガオトーキョー,0
935,4010605004011,新規,0,2021-10-29,2021-10-29,ジーテン・ジャパン・フォー特定目的会社,,その他の設立登記法人,東京都,江東区,亀戸６丁目５６番１５号,,13,108,1360071,,,,,,,2021-10-29,1,,,,,ジーテンジャパンフォー,0
938,4010801032435,新規,0,2021-10-29,2021-10-29,オーネストラン株式会社,,株式会社,東京都,大田区,中央７丁目１７番１９号第７２シンエイビル１０４,,13,111,1430024,,,,,,,2021-10-29,1,,,,,オーネストラン,0
941,4011001143650,新規,0,2021-10-29,2021-10-29,株式会社チェリッシュ,,株式会社,東京都,渋谷区,広尾５丁目１４番２号,,13,113,1500012,,,,,,,2021-10-29,1,,,,,チェリッシュ,0
942,4011001143691,新規,0,2021-10-29,2021-10-29,アイオープレイス株式会社,,株式会社,東京都,渋谷区,渋谷１丁目１９番１８－３２０６号,,13,113,1500002,,,,,,,2021-10-29,1,,,,,アイオープレイス,0
952,4011105010029,新規,0,2021-10-29,2021-10-29,一般社団法人Ｅｖｅｒｇｒｅｅｎ,,その他の設立登記法人,東京都,新宿区,四谷４丁目３２番８号ＹＫＢサニービル６階,,13,104,1600004,,,,,,,2021-10-29,1,,,,,エヴァーグリーン,0
953,4011201023363,新規,0,2021-10-29,2021-10-29,株式会社ＡＩＰＳ,,株式会社,東京都,中野区,江原町２丁目２９番８号,,13,114,1650023,,,,,,,2021-10-29,1,,,,,エイプス,0
984,4020001143651,新規,0,2021-10-29,2021-10-29,株式会社エイチエム・パートナーズ,,株式会社,神奈川県,横浜市中区,長者町４丁目１１番地１ルリエ横浜長者町７０４,,14,104,2310033,,,,,,,2021-10-29,1,,,,,エイチエムパートナーズ,0
985,4020001143668,新規,0,2021-10-29,2021-10-29,株式会社ＵＱ,,株式会社,神奈川県,横浜市西区,高島２丁目１１番２号スカイメナー横浜５１９,,14,103,2200011,,,,,,,2021-10-29,1,,,,,ユーキュー,0
986,4020001143684,新規,0,2021-10-29,2021-10-29,青木物産株式会社,,株式会社,神奈川県,横浜市戸塚区,戸塚町３９４１番地５,,14,110,2440003,,,,,,,2021-10-29,1,,,,,アオキブッサン,0
992,4021001074300,新規,0,2021-10-29,2021-10-29,致銘株式会社,,株式会社,神奈川県,相模原市中央区,共和２丁目１７番１号,,14,152,2520234,,,,,,,2021-10-29,1,,,,,チメイ,0
993,4021001074325,新規,0,2021-10-29,2021-10-29,株式会社志紀,,株式会社,神奈川県,相模原市中央区,宮下本町１丁目７番１７号ジュネスハイムＤ２０２,,14,152,2520211,,,,,,,2021-10-29,1,,,,,シキ,0
994,4021001074333,新規,0,2021-10-29,2021-10-29,株式会社相模建設ツクルンジャー,,株式会社,神奈川県,相模原市中央区,千代田１丁目３番１３－２号,,14,152,2520237,,,,,,,2021-10-29,1,,,,,サガミケンセツツクルンジャー,0
995,4021001074341,新規,0,2021-10-29,2021-10-29,株式会社Ｔ・Ｍ・Ａ・Ｒ,,株式会社,神奈川県,相模原市中央区,相模原３丁目８番２６号,,14,152,2520231,,,,,,,2021-10-29,1,,,,,ティーエムエーアール,0
996,4021001074358,新規,0,2021-10-29,2021-10-29,株式会社ＢＡＺ,,株式会社,神奈川県,相模原市中央区,陽光台１丁目２番６－５号,,14,152,2520226,,,,,,,2021-10-29,1,,,,,バズ,0
1006,4030001144979,新規,0,2021-10-29,2021-10-29,株式会社お届けネット,,株式会社,埼玉県,川口市,大字西立野４３２番地１１,,11,203,3330813,,,,,,,2021-10-29,1,,,,,オトドケネット,0
1007,4030001145060,新規,0,2021-10-29,2021-10-29,株式会社鷹巣サービス,,株式会社,埼玉県,深谷市,本田５８３９－８,,11,218,3691105,,,,,,,2021-10-29,1,,,,,タカスノサービス,0
1017,4030003018215,新規,0,2021-10-29,2021-10-29,合同会社ファーストゲート,,合同会社,埼玉県,川越市,旭町１丁目１０番地１２川越丸栄ビル１Ｆ,,11,201,3501126,,,,,,,2021-10-29,1,,,,,ファーストゲート,0
1018,4030003018223,新規,0,2021-10-29,2021-10-29,合同会社５Ｆｏｒ　Ａｕｔｏｎｏｍｙ,,合同会社,埼玉県,幸手市,大字幸手４７７５番地１０,,11,240,3400113,,,,,,,2021-10-29,1,,,,,ファイブフォーオートノミー,0
1025,4040003018809,新規,0,2021-10-29,2021-10-29,合同会社Ｓｔｒａｔｆｏｒｄ,,合同会社,千葉県,柏市,南柏１丁目５番２号ＭＣ南柏ビル４Ｆ,,12,217,2770855,,,,,,,2021-10-29,1,,,,,ストラトフォード,0
1026,4040003018833,新規,0,2021-10-29,2021-10-29,ブザービーター合同会社,,合同会社,千葉県,千葉市中央区,富士見２丁目７番９号富士見ビル６０９号,,12,101,2600015,,,,,,,2021-10-29,1,,,,,ブザービーター,0
1028,4050001050052,新規,0,2021-10-29,2021-10-29,ＴＩＬｅ株式会社,,株式会社,茨城県,かすみがうら市,東野寺７３５番地,,08,230,3150072,,,,,,,2021-10-29,1,,,,,,0
1030,4060001034228,新規,0,2021-10-29,2021-10-29,ディープアウェイク株式会社,,株式会社,栃木県,佐野市,堀米町４２４番地１,,09,204,3270843,,,,,,,2021-10-29,1,,,,,,0
1031,4060001034236,新規,0,2021-10-29,2021-10-29,株式会社ワイエムティー,,株式会社,栃木県,小山市,城東１丁目５番２０号－１０１,,09,208,3230807,,,,,,,2021-10-29,1,,,,,ワイエムティー,0
1034,4080001024532,新規,0,2021-10-29,2021-10-29,株式会社健介,,株式会社,静岡県,静岡市葵区,銭座町２１番地の１ＩコートＢ号,,22,101,4200842,,,,,,,2021-10-29,1,,,,,ケンスケ,0
1035,4080101022873,新規,0,2021-10-29,2021-10-29,美建工業株式会社,,株式会社,静岡県,三島市,谷田７４番地の６,,22,206,4110801,,,,,,,2021-10-29,1,,,,,ビケンコウギョウ,0
1040,4100005012786,新規,0,2021-10-29,2021-10-29,医療法人薫洋会,,その他の設立登記法人,長野県,諏訪市,湯の脇２丁目６番３号,,20,206,3920002,,,,,,,2021-10-29,1,,,,,クンヨウカイ,0
1048,4120001241494,新規,0,2021-10-29,2021-10-29,株式会社アールズ,,株式会社,大阪府,大阪市阿倍野区,北畠３丁目８番３号,,27,119,5450035,,,,,,,2021-10-29,1,,,,,アールズ,0
1049,4120001241503,新規,0,2021-10-29,2021-10-29,株式会社ＭＧＬＡＢ,,株式会社,大阪府,大阪市北区,梅田１丁目３番１－１０００号大阪駅前第１ビル１０階,,27,127,5300001,,,,,,,2021-10-29,1,,,,,エムジーラボ,0
1050,4120003020500,新規,0,2021-10-29,2021-10-29,合同会社大阪ゆでたまご,,合同会社,大阪府,大阪市中央区,東心斎橋２丁目８番１９号サンプラザ１２８畳屋ビル４０３号,,27,128,5420083,,,,,,,2021-10-29,1,,,,,オオサカユデタマゴ,0
1051,4120005022577,新規,0,2021-10-29,2021-10-29,一般社団法人インクルーシブ・サポート,,その他の設立登記法人,大阪府,大阪市旭区,新森２丁目２４番６号,,27,117,5350022,,,,,,,2021-10-29,1,,,,,インクルーシブサポート,0
1055,4120903003892,新規,0,2021-10-29,2021-10-29,合同会社トライエス,,合同会社,大阪府,吹田市,古江台３丁目５番ジオ北千里古江台１－７０１,,27,205,5650874,,,,,,,2021-10-29,1,,,,,トライエス,0
1058,4130001070422,新規,0,2021-10-29,2021-10-29,ヒーローズコンサルティング株式会社,,株式会社,京都府,京都市下京区,四条通室町東入函谷鉾町１０１番地アーバンネット四条烏丸６Ｆ,,26,106,6008009,,,,,,,2021-10-29,1,,,,,ヒーローズコンサルティング,0
1062,4140001123633,新規,0,2021-10-29,2021-10-29,株式会社志,,株式会社,兵庫県,神戸市中央区,北長狭通２丁目３番７号松本ビルＩＩ,00124713,28,110,6500012,,,,,,,2021-10-29,1,,,,,ココロザシ,0
1066,4140005025875,新規,0,2021-10-29,2021-10-29,弁護士法人レクシード,,その他の設立登記法人,兵庫県,姫路市,南駅前町１００番地パラシオ第２ビル,,28,201,6700962,,,,,,,2021-10-29,1,,,,,レクシード,0
1068,4160001023757,新規,0,2021-10-29,2021-10-29,株式会社楠工建,,株式会社,滋賀県,長浜市,内保町２５６２番地３,,25,203,5260244,,,,,,,2021-10-29,1,,,,,クスノキコウケン,0
1081,4180301035566,新規,0,2021-10-29,2021-10-29,株式会社レボテクノ,,株式会社,愛知県,知立市,昭和１丁目３番地９,,23,225,4720011,,,,,,,2021-10-29,1,,,,,レボテクノ,0
1082,4190001028803,新規,0,2021-10-29,2021-10-29,株式会社永和,,株式会社,三重県,松阪市,垣鼻町１０７８番地,,24,204,5150033,,,,,,,2021-10-29,1,,,,,エイワ,0
1087,4200001039328,新規,0,2021-10-29,2021-10-29,株式会社柴技研,,株式会社,岐阜県,中津川市,苗木７２０番地３,,21,206,5080101,,,,,,,2021-10-29,1,,,,,シバギケン,0
1088,4200001039336,新規,0,2021-10-29,2021-10-29,株式会社市橋の農園,,株式会社,岐阜県,岐阜市,東島１丁目１１番５号,,21,201,5020913,,,,,,,2021-10-29,1,,,,,イチハシノノウエン,0
1091,4200005013270,新規,0,2021-10-29,2021-10-29,一般社団法人中部地域ＳＩｅｒ連携会,,その他の設立登記法人,岐阜県,大垣市,中曽根町３１９番地１,,21,202,5030986,,,,,,,2021-10-29,1,,,,,チュウブチイキエスアイヤーレンケイカイ,0
1108,4290001095156,新規,0,2021-10-29,2021-10-29,すみれ不動産株式会社,,株式会社,福岡県,福岡市南区,高宮２丁目３－４,,40,134,8150083,,,,,,,2021-10-29,1,,,,,スミレフドウサン,0
1109,4290001095164,新規,0,2021-10-29,2021-10-29,株式会社ＳＥＫＩ企画,,株式会社,福岡県,糟屋郡篠栗町,大字乙犬１０４７番地,,40,342,8112412,,,,,,,2021-10-29,1,,,,,セキキカク,0
1110,4290001095180,新規,0,2021-10-29,2021-10-29,株式会社Ｐａｃｅｌｍｅ,,株式会社,福岡県,福岡市南区,那の川１丁目２３－２４小江ビル１０２,,40,134,8150081,,,,,,,2021-10-29,1,,,,,パスルム,0
1119,4300003001738,新規,0,2021-10-29,2021-10-29,合同会社暁総研,,合同会社,佐賀県,佐賀市,材木２丁目１番４号,,41,201,8400055,,,,,,,2021-10-29,1,,,,,アカツキソウケン,0
1120,4310001017545,新規,0,2021-10-29,2021-10-29,株式会社濱水産,,株式会社,長崎県,雲仙市,小浜町北野４９２番地１,,42,213,8540515,,,,,,,2021-10-29,1,,,,,ハマスイサン,0
1127,4340005009362,新規,0,2021-10-29,2021-10-29,一般社団法人鹿児島ＳＤＧｓと食品ロス削減推進協会,,その他の設立登記法人,鹿児島県,鹿児島市,坂之上６丁目３０－２６,,46,201,8910150,,,,,,,2021-10-29,1,,,,,カゴシマエスディージーズトショクヒンロスサクゲンスイシンキョウカイ,0
1128,4350003003960,新規,0,2021-10-29,2021-10-29,バックオフィス合同会社,,合同会社,宮崎県,都城市,中町７街区１９号１０２,,45,202,8850071,,,,,,,2021-10-29,1,,,,,バックオフィス,0
1146,4410001012998,新規,0,2021-10-29,2021-10-29,株式会社達人,,株式会社,秋田県,能代市,明治町５番３号,,05,202,0160833,,,,,,,2021-10-29,1,,,,,タツジン,0
1150,4420003002402,新規,0,2021-10-29,2021-10-29,合同会社高橋内装,00124716,合同会社,青森県,八戸市,大字大久保字下大久保２６番地６,,02,203,0310833,,,,,,,2021-10-29,1,,,,,タカハシナイソウ,0
1158,4430001085266,新規,0,2021-10-29,2021-10-29,株式会社パートナー,,株式会社,北海道,札幌市中央区,南九条西１５丁目２番２号,,01,101,0640809,,,,,,,2021-10-29,1,,,,,パートナー,0
1178,5010001222158,新規,0,2021-10-29,2021-10-29,アンドビルド株式会社,,株式会社,東京都,中央区,銀座１丁目２２番１１号銀座大竹ビジデンス２階,,13,102,1040061,,,,,,,2021-10-29,1,,,,,アンドビルド,0
1179,5010001222182,新規,0,2021-10-29,2021-10-29,株式会社フードアンドヘルスラボ,,株式会社,東京都,中央区,銀座１丁目３番３号Ｇ１ビル７階,,13,102,1040061,,,,,,,2021-10-29,1,,,,,フードアンドヘルスラボ,0
1185,5010003036077,新規,0,2021-10-29,2021-10-29,ＧｒｉｎＧｒａｎｔ合同会社,,合同会社,東京都,中央区,銀座１丁目１２－４Ｎ＆Ｅ．ＢＬＤ．７階,,13,102,1040061,,,,,,,2021-10-29,1,,,,,グリングラント,0
1186,5010101014934,新規,0,2021-10-29,2021-10-29,株式会社三維,,株式会社,東京都,八王子市,散田町４丁目１番９号,,13,201,1930832,,,,,,,2021-10-29,1,,,,,ミツイ,0
1189,5010401163514,新規,0,2021-10-29,2021-10-29,スターリング船舶ファンド１Ａ号株式会社,,株式会社,東京都,港区,赤坂８丁目１０番２４号スターリング証券内,,13,103,1070052,,,,,,,2021-10-29,1,,,,,スターリングセンパクファンドイチエーゴウ,0
1190,5010401163522,新規,0,2021-10-29,2021-10-29,株式会社アロード,,株式会社,東京都,港区,南青山２丁目２－１５ＷＩＮ青山５３１,,13,103,1070062,,,,,,,2021-10-29,1,,,,,アロード,0
1191,5010401163539,新規,0,2021-10-29,2021-10-29,株式会社Ｍａｒｂｌｅ,,株式会社,東京都,港区,麻布十番２丁目２１番１４－４０２号,,13,103,1060045,,,,,,,2021-10-29,1,,,,,マーブル,0
1194,5010403026363,新規,0,2021-10-29,2021-10-29,Ｐａｒａｄｉｇｍ合同会社,,合同会社,東京都,港区,南青山２丁目２－１５,,13,103,1070062,,,,,,,2021-10-29,1,,,,,パラダイム,0
1196,5010501048020,新規,0,2021-10-29,2021-10-29,株式会社ＡＳＨＩＹＡＮＡ,,株式会社,東京都,台東区,台東３丁目４０番６号ＰＫビル２Ｆ,,13,106,1100016,,,,,,,2021-10-29,1,,,,,アシヤナ,0
1200,5010701041709,新規,0,2021-10-29,2021-10-29,株式会社ロジスラボ,,株式会社,東京都,品川区,東品川４丁目１３番３４号,,13,109,1400002,,,,,,,2021-10-29,1,,,,,ロジスラボ,0
1201,5010701041717,新規,0,2021-10-29,2021-10-29,株式会社カロコ,,株式会社,東京都,品川区,東品川１丁目３－１５,,13,109,1400002,,,,,,,2021-10-29,1,,,,,カロコ,0
1207,5011001143674,新規,0,2021-10-29,2021-10-29,ノーテッド株式会社,,株式会社,東京都,渋谷区,神宮前６丁目２３番４号桑野ビル２Ｆ,,13,113,1500001,,,,,,,2021-10-29,1,,,,,ノーテッド,0
1208,5011001143690,新規,0,2021-10-29,2021-10-29,ＰＯＰＩＮ２ＡＳＩＡ株式会社,,株式会社,東京都,渋谷区,広尾３丁目１７番８号広尾ハウスＦ,,13,113,1500012,,,,,,,2021-10-29,1,,,,,ポップインツーアジア,0
1209,5011001143724,新規,0,2021-10-29,2021-10-29,イアー株式会社,,株式会社,東京都,渋谷区,渋谷２丁目１９番１５－６０９号宮益坂ビルディング,,13,113,1500002,,,,,,,2021-10-29,1,,,,,イアー,0
1213,5011101096723,新規,0,2021-10-29,2021-10-29,株式会社ノナプル,,株式会社,東京都,新宿区,愛住町２３番地１４ベルックス新宿６階,,13,104,1600005,,,,,,,2021-10-29,1,,,,,ノナプル,0
1214,5011201023362,新規,0,2021-10-29,2021-10-29,株式会社ＴＡＫＥＮＯ,,株式会社,東京都,中野区,弥生町１丁目３０番６号,,13,114,1640013,,,,,,,2021-10-29,1,,,,,タケノ,0
1215,5011201023370,新規,0,2021-10-29,2021-10-29,ＤＯＲＥＭＯ株式会社,,株式会社,東京都,中野区,中野１丁目２１番２２号,,13,114,1640001,,,,,,,2021-10-29,1,,,,,ドレモ,0
1218,5011301027247,新規,0,2021-10-29,2021-10-29,ｓｏｒｅｎａ株式会社,,株式会社,東京都,杉並区,浜田山１丁目１８番１８号,,13,115,1680065,,,,,,,2021-10-29,1,,,,,ソレナ,0
1225,5011601025504,新規,0,2021-10-29,2021-10-29,株式会社ＵＰｎＵＰ,,株式会社,東京都,練馬区,中村２丁目９－３,,13,120,1760024,,,,,,,2021-10-29,1,,,,,アップアンドアップ,0
1226,5011603003425,新規,0,2021-10-29,2021-10-29,合同会社ＡＬＢＡ,,合同会社,東京都,練馬区,高野台１丁目９番２２号２０３,,13,120,1770033,,,,,,,2021-10-29,1,,,,,アルバ,0
1228,5011701024810,新規,0,2021-10-29,2021-10-29,株式会社クローバー,,株式会社,東京都,江戸川区,東小松川４丁目２２番１１号,,13,123,1320033,,,,,,,2021-10-29,1,,,,,クローバー,0
1229,5011703002962,新規,0,2021-10-29,2021-10-29,Ｃｏｔｅ　Ｓｕｃｒｅｅ合同会社,,合同会社,東京都,江戸川区,本一色２丁目２７番１８号,,13,123,1330044,,,,,,,2021-10-29,1,,,,,コテシュクレ,0
1243,5013303005882,新規,0,2021-10-29,2021-10-29,合同会社彩鳳,,合同会社,東京都,豊島区,巣鴨５丁目４番１号,,13,116,1700002,,,,,,,2021-10-29,1,,,,,サイホウ,0
1247,5020001143659,新規,0,2021-10-29,2021-10-29,株式会社イーワンエンジニアリング,,株式会社,神奈川県,横浜市鶴見区,北寺尾６丁目２４番１６－１号,,14,101,2300074,,,,,,,2021-10-29,1,,,,,イーワンエンジニアリング,0
1248,5020001143667,新規,0,2021-10-29,2021-10-29,株式会社ＡＲＴＩＣＴ,,株式会社,神奈川県,横浜市青葉区,美しが丘１丁目１３番地１０吉村ビル１０７号,,14,117,2250002,,,,,,,2021-10-29,1,,,,,アーティクト,0
1252,5021001074332,新規,0,2021-10-29,2021-10-29,株式会社Ｆｉｒｓｔ　Ｓｔｅｐ,,株式会社,神奈川県,愛甲郡愛川町,中津９６４番地の１３,,14,401,2430303,,,,,,,2021-10-29,1,,,,,ファーストステップ,0
1253,5021001074357,新規,0,2021-10-29,2021-10-29,株式会社オアシス貿易,,株式会社,神奈川県,相模原市南区,西大沼１丁目９番２６号,,14,153,2520332,,,,,,,2021-10-29,1,,,,,オアシスボウエキ,0
1257,5021003011036,新規,0,2021-10-29,2021-10-29,合同会社一諾,,合同会社,神奈川県,相模原市南区,相模大野８丁目２番１１号ＳＫビル３０３,,14,153,2520303,,,,,,,2021-10-29,1,,,,,イチダク,0
1273,5040001120805,新規,0,2021-10-29,2021-10-29,株式会社Ｍｉｌｉｋｅ,,株式会社,千葉県,千葉市美浜区,磯辺５丁目１５－３－３０４,,12,106,2610012,,,,,,,2021-10-29,1,,,,,ミライク,0
1281,5040003018808,新規,0,2021-10-29,2021-10-29,合同会社ｄｉｎｏｖａ,,合同会社,千葉県,松戸市,新松戸７丁目２３９番地リヴェールＡ１０２号,,12,207,2700034,,,,,,,2021-10-29,1,,,,,ディノーヴァ,0
1288,5050001050051,新規,0,2021-10-29,2021-10-29,株式会社日本環境,,株式会社,茨城県,牛久市,小坂町１９３９番地３２,,08,219,3001286,,,,,,,2021-10-29,1,,,,,ニホンカンキョウ,0
1289,5050003006167,新規,0,2021-10-29,2021-10-29,Ｃｈｉｌｌａｘ　Ｊａｐａｎ合同会社,,合同会社,茨城県,つくば市,上横場２６７－５,,08,220,3050854,,,,,,,2021-10-29,1,,,,,チラックスジャパン,0
1290,5060001034235,新規,0,2021-10-29,2021-10-29,株式会社大也,,株式会社,栃木県,宇都宮市,兵庫塚３丁目４６番１０号,,09,201,3210138,,,,,,,2021-10-29,1,,,,,ダイヤ,0
1291,5060001034243,新規,0,2021-10-29,2021-10-29,株式会社ｉｎｔｅｒｅｓｔｉｎｇ,,株式会社,栃木県,宇都宮市,屋板町５７８番地８４,,09,201,3210112,,,,,,,2021-10-29,1,,,,,インタレスティング,0
1295,5080401025443,新規,0,2021-10-29,2021-10-29,自笑亭株式会社,,株式会社,静岡県,浜松市中区,神田町５１８番地,,22,131,4328047,,,,,,,2021-10-29,1,,,,,ジショウテイ,0
1296,5090003001981,新規,0,2021-10-29,2021-10-29,合同会社ひまわり,,合同会社,山梨県,北杜市,須玉町東向２１１８番地,,19,209,4080105,,,,,,,2021-10-29,1,,,,,ヒマワリ,0
1304,5100005012785,新規,0,2021-10-29,2021-10-29,一般社団法人信州あそびの学園虹ｃａｆｅ,,その他の設立登記法人,長野県,上伊那郡南箕輪村,６９５３番地１,,20,385,3994511,,,,,,,2021-10-29,1,,,,,シンシュウアソビノガクエンニジカフェ,0
1306,5110001036143,新規,0,2021-10-29,2021-10-29,株式会社チャンスメイク,,株式会社,新潟県,新潟市秋葉区,程島２０４５番地２,,15,105,9560035,,,,,,,2021-10-29,1,,,,,チャンスメイク,0
1318,5120001241444,新規,0,2021-10-29,2021-10-29,株式会社Ｒｅｎｅｗ,,株式会社,大阪府,大阪市福島区,玉川２丁目６－２－４０３,,27,103,5530004,,,,,,,2021-10-29,1,,,,,リニュー,0
1319,5120001241477,新規,0,2021-10-29,2021-10-29,株式会社流桜,,株式会社,大阪府,大阪市西成区,鶴見橋２丁目３番１７号,,27,122,5570031,,,,,,,2021-10-29,1,,,,,リュウオウ,0
1322,5120003020474,新規,0,2021-10-29,2021-10-29,合同会社マツモト,,合同会社,大阪府,大阪市北区,同心２丁目３番２３号ファミール扇町アーバンステージ２０９号室,,27,127,5300035,,,,,,,2021-10-29,1,,,,,マツモト,0
1323,5120003020508,新規,0,2021-10-29,2021-10-29,ドラコロッソ合同会社,,合同会社,大阪府,大阪市中央区,本町橋８番３－２０１号,,27,128,5400029,,,,,,,2021-10-29,1,,,,,ドラコロッソ,0
1324,5120101064563,新規,0,2021-10-29,2021-10-29,株式会社新誠,,株式会社,大阪府,堺市中区,深井清水町３４２５番地,,27,142,5998273,,,,,,,2021-10-29,1,,,,,シンセイ,0
1332,5130003007561,新規,0,2021-10-29,2021-10-29,合同会社ＣＳＮドリームス,,合同会社,京都府,京都市伏見区,新町４丁目４７４番地１,,26,109,6128081,,,,,,,2021-10-29,1,,,,,シーエスエヌドリームス,0
1336,5140001123632,新規,0,2021-10-29,2021-10-29,株式会社エコバルン,,株式会社,兵庫県,西宮市,甲子園六番町１５番２０－１０１号,,28,204,6638176,,,,,,,2021-10-29,1,,,,,エコバルン,0
1349,5180301035565,新規,0,2021-10-29,2021-10-29,株式会社リプログ,,株式会社,愛知県,岡崎市,稲熊町字山神戸１５番地３１,,23,202,4440071,,,,,,,2021-10-29,1,,,,,リプログ,0
1365,5260001036145,新規,0,2021-10-29,2021-10-29,路美商事株式会社,,株式会社,岡山県,倉敷市,南畝６丁目１番２０号,,33,202,7128055,,,,,,,2021-10-29,1,,,,,ルミショウジ,0
1385,5330003009109,新規,0,2021-10-29,2021-10-29,合同会社クロスフィールズ,,合同会社,熊本県,熊本市東区,栄町３番９号,,43,102,8620904,,,,,,,2021-10-29,1,,,,,クロスフィールズ,0
1387,5340003003614,新規,0,2021-10-29,2021-10-29,合同会社キャトルクリニックＲｕｎ,,合同会社,鹿児島県,鹿児島市,吉野町９３７４番地１,,46,201,8920871,,,,,,,2021-10-29,1,,,,,キャトルクリニックラン,0
1391,5370001047750,新規,0,2021-10-29,2021-10-29,株式会社トラベルｅ旅,,株式会社,宮城県,仙台市青葉区,木町通２丁目５番１８号大熊ビル４０１号室,,04,101,9800801,,,,,,,2021-10-29,1,,,,,トラベルイータビ,0
1392,5370001047767,新規,0,2021-10-29,2021-10-29,株式会社玄道建設,,株式会社,宮城県,名取市,相互台３丁目１４－３,,04,207,9811246,,,,,,,2021-10-29,1,,,,,ゲンドウケンセツ,0
1393,5390001016654,新規,0,2021-10-29,2021-10-29,株式会社ＳＯＬＩＤＯ,,株式会社,山形県,天童市,東芳賀３丁目３番２４号,,06,210,9940061,,,,,,,2021-10-29,1,,,,,ソリド,0
1394,5390005008920,新規,0,2021-10-29,2021-10-29,特定非営利活動法人ＫＳクラブ,,その他の設立登記法人,山形県,東田川郡庄内町,余目字月屋敷１８７番地１,,06,428,9997781,,,,,,,2021-10-29,1,,,,,ケイエスクラブ,0
1407,5430001085265,新規,0,2021-10-29,2021-10-29,株式会社Ｑｕａｌｉａ,,株式会社,北海道,札幌市南区,川沿八条３丁目６番２２号,,01,106,0050808,,,,,,,2021-10-29,1,,,,,クオリア,0
1408,5430003013298,新規,0,2021-10-29,2021-10-29,合同会社いちのて,,合同会社,北海道,札幌市東区,北三十七条東２９丁目１４番８号,,01,103,0070837,,,,,,,2021-10-29,1,,,,,イチノテ,0
1409,5430003013307,新規,0,2021-10-29,2021-10-29,合同会社ウガヤ,,合同会社,北海道,札幌市南区,南三十八条西１１丁目２番１号,,01,106,0050038,,,,,,,2021-10-29,1,,,,,ウガヤ,0
1410,5430003013315,新規,0,2021-10-29,2021-10-29,合同会社濱口建設,,合同会社,北海道,札幌市東区,中沼二条１丁目３番１２号,,01,103,0070002,,,,,,,2021-10-29,1,,,,,ハマグチケンセツ,0
1412,5470001018799,新規,0,2021-10-29,2021-10-29,アドバリュー建築工房株式会社,,株式会社,香川県,高松市,三谷町１４６５番地７,,37,201,7610450,,,,,,,2021-10-29,1,,,,,アドバリューケンチクコウボウ,0
1415,5490003001594,新規,0,2021-10-29,2021-10-29,Ｈａｒｍｏｎｉｚｅｄ　Ｕｌｔｉｍａｔｅ　Ｂｅｉｎｇ合同会社,,合同会社,高知県,高知市,西久万６９番地１５,,39,201,7800984,,,,,,,2021-10-29,1,,,,,ハーモナイズドアルティメイトビーング,0
1417,5500001023762,新規,0,2021-10-29,2021-10-29,株式会社トラスト,,株式会社,愛媛県,新居浜市,多喜浜６丁目７６－８２,,38,205,7920893,,,,,,,2021-10-29,1,,,,,トラスト,0
1421,5700150105548,新規,0,2021-10-29,2021-10-29,ＪＴＯＷＮ　ＩＮＶＥＳＴＭＥＮＴＳ　ＰＴＥ．ＬＴＤ．,,外国会社等,東京都,千代田区,丸の内２丁目２番３号丸の内仲通りビル６階,,13,101,1000005,シンガポール共和国、０６８９１２、ロビンソン・ロード１６８、キャピタル・タワー＃３０－０１,,,,,,2021-10-29,1,,,,,ジエイタウンインベツトメンツピーテイーイーエルテイーデイー,0
1422,5700150105556,新規,0,2021-10-29,2021-10-29,Ｒｅｐｏｗｅｒ　Ｄｅｉｓｅｌ　Ｅｎｇｉｎｅｅｒｓ,,外国会社等,千葉県,大網白里市,南今泉３８０番地６－１階,,12,239,2993202,スリランカ民主社会主義共和国、キャンディ、テンネクンブラ、クンダサラロード、１２－１,,,,,,2021-10-29,1,,,,,リパワーデイーゼルエンジニアーズ,0
1439,6010001222090,新規,0,2021-10-29,2021-10-29,株式会社ジャスミンパートナーズ,,株式会社,東京都,中央区,銀座１丁目２３番１０－２０４号,,13,102,1040061,,,,,,,2021-10-29,1,,,,,ジャスミンパートナーズ,0
1440,6010001222173,新規,0,2021-10-29,2021-10-29,株式会社ロチェ,,株式会社,東京都,中央区,銀座１丁目１２番４号Ｎ＆Ｅ・ＢＬＤ．７階,,13,102,1040061,,,,,,,2021-10-29,1,,,,,ロチェ,0
1448,6010003036126,新規,0,2021-10-29,2021-10-29,上野２丁目合同会社,,合同会社,東京都,中央区,築地３丁目１番１号築地ＦＡビル６階,,13,102,1040045,,,,,,,2021-10-29,1,,,,,ウエノニチョウメ,0
1449,6010003036134,新規,0,2021-10-29,2021-10-29,合同会社ｍｉｌ,,合同会社,東京都,中央区,銀座１丁目２２番１１号銀座大竹ビジデンス２階,,13,102,1040061,,,,,,,2021-10-29,1,,,,,ミル,0
1456,6010401163538,新規,0,2021-10-29,2021-10-29,ＡＴＴＯＩＣＨＩ株式会社,,株式会社,東京都,港区,浜松町２丁目２番１５号浜松町ダイヤビル２Ｆ,,13,103,1050013,,,,,,,2021-10-29,1,,,,,アットイチ,0
1460,6010403026420,新規,0,2021-10-29,2021-10-29,合同会社ｇｌｏｂｓ,,合同会社,東京都,港区,西麻布１丁目１０番地７号ＦＴＩＩＢ１,00124709,13,103,1060031,,,,,,,2021-10-29,1,,,,,グローブズ,0
1464,6010601060106,新規,0,2021-10-29,2021-10-29,株式会社ｉｃｈｉ－ｉｃｈｉ,,株式会社,東京都,江東区,東雲１丁目９－１１－４０６,,13,108,1350062,,,,,,,2021-10-29,1,,,,,イチノイチ,0
1465,6010601060139,新規,0,2021-10-29,2021-10-29,株式会社ＫＢＳ,,株式会社,東京都,江東区,大島６丁目１５番１－３０５号,,13,108,1360072,,,,,,,2021-10-29,1,,,,,ケービーエス,0
1466,6010601060147,新規,0,2021-10-29,2021-10-29,株式会社遊楽商店,,株式会社,東京都,江東区,辰巳１丁目７番２８－５０３号,,13,108,1350053,,,,,,,2021-10-29,1,,,,,ユウラクショウテン,0
1467,6010601060155,新規,0,2021-10-29,2021-10-29,Ｂｅｙｏｎｄ　Ｊａｐａｎ株式会社,,株式会社,東京都,墨田区,太平１丁目１４番１－８０９号ライオンズマンション錦糸町第２,,13,107,1300012,,,,,,,2021-10-29,1,,,,,ビヨンドジャパン,0
1470,6010603009225,新規,0,2021-10-29,2021-10-29,ヤマダ・インセンティブ・リミテッドビジネス合同会社,,合同会社,東京都,墨田区,横川５丁目２番９号,,13,107,1300003,,,,,,,2021-10-29,1,,,,,ヤマダインセンティブリミテッドビジネス,0
1474,6010803003936,新規,0,2021-10-29,2021-10-29,合同会社Ｐｒｏｇｒｅｓｓ　Ｌｉｂｅｒｔｙ,,合同会社,東京都,大田区,西蒲田６丁目３５番１１号プライマル西蒲田５０５号室,,13,111,1440051,,,,,,,2021-10-29,1,,,,,プログレスリバティ,0
1477,6010903006905,新規,0,2021-10-29,2021-10-29,ＬＣｄＳ合同会社,,合同会社,東京都,世田谷区,南烏山１丁目１６番２２－７１１号,,13,112,1570062,,,,,,,2021-10-29,1,,,,,エルシーディーエス,0
1481,6011001143698,新規,0,2021-10-29,2021-10-29,株式会社ｃｏｔｔｏｎ,,株式会社,東京都,目黒区,上目黒２丁目２４番３号メリンレジデンス２０１,,13,110,1530051,,,,,,,2021-10-29,1,,,,,コットン,0
1484,6011003013627,新規,0,2021-10-29,2021-10-29,Ｉｎｔｅｒｐｌａｙ合同会社,,合同会社,東京都,渋谷区,渋谷２丁目１９－１５宮益坂ビルディング６０９,,13,113,1500002,,,,,,,2021-10-29,1,,,,,インタープレイ,0
1485,6011003013651,新規,0,2021-10-29,2021-10-29,合同会社Ｐｌａｎｔｅｄ,,合同会社,東京都,目黒区,柿の木坂２丁目８番８号,,13,110,1520022,,,,,,,2021-10-29,1,,,,,プランテッド,0
1509,6013301048222,新規,0,2021-10-29,2021-10-29,株式会社スターライト,,株式会社,東京都,豊島区,南池袋１丁目２１番５号第７野萩ビルＴＨＥＨＵＢ池袋ＳＯＵＴＨＢ１－０５号室,,13,116,1710022,,,,,,,2021-10-29,1,,,,,スターライト,0
1511,6013303005881,新規,0,2021-10-29,2021-10-29,アステールオフィス合同会社,,合同会社,東京都,豊島区,南池袋２丁目４９－７池袋パークビル１Ｆ,,13,116,1710022,,,,,,,2021-10-29,1,,,,,アステールオフィス,0
1517,6020001143666,新規,0,2021-10-29,2021-10-29,ロジカルプロセス株式会社,,株式会社,神奈川県,横浜市鶴見区,小野町２５番地２２エスタシオンＭＴ３０１,,14,101,2300046,,,,,,,2021-10-29,1,,,,,ロジカルプロセス,0
1518,6020001143690,新規,0,2021-10-29,2021-10-29,株式会社ア－ルソリュ－ションズ,,株式会社,神奈川県,川崎市多摩区,登戸３２０４番地クリオ登戸５０２,,14,135,2140014,,,,,,,2021-10-29,1,,,,,アールソリューションズ,0
1529,6021003011035,新規,0,2021-10-29,2021-10-29,マークスプランニング合同会社,,合同会社,神奈川県,藤沢市,藤が岡１丁目１３番１号エアヒルズ藤沢５２０,,14,205,2510004,,,,,,,2021-10-29,1,,,,,マークスプランニング,0
1539,6030001145026,新規,0,2021-10-29,2021-10-29,株式会社ワーカー,,株式会社,埼玉県,所沢市,緑町３丁目３４番３号,,11,208,3591111,,,,,,,2021-10-29,1,,,,,ワーカー,0
1551,6040001120770,新規,0,2021-10-29,2021-10-29,株式会社アルファ,,株式会社,千葉県,野田市,桜の里１丁目１番地の８エテルナＩ２０１号室,00124715,12,208,2780048,,,,,,,2021-10-29,1,,,,,アルファ,0
1558,6050003006166,新規,0,2021-10-29,2021-10-29,合同会社ダブルピートレイディング,,合同会社,茨城県,古河市,東山田４１５７番地２,,08,204,3060112,,,,,,,2021-10-29,1,,,,,ダブルピートレイディング,0
1560,6060001034234,新規,0,2021-10-29,2021-10-29,株式会社エルエム商事,,株式会社,栃木県,那須塩原市,東大和町１番２９号,,09,213,3250041,,,,,,,2021-10-29,1,,,,,エルエムショウジ,0
1566,6080001024530,新規,0,2021-10-29,2021-10-29,わくわく開発株式会社,,株式会社,静岡県,焼津市,石津８０３番地の３サンハイツ協和３０２号室,,22,212,4250041,,,,,,,2021-10-29,1,,,,,ワクワクカイハツ,0
1567,6080101022871,新規,0,2021-10-29,2021-10-29,株式会社ＳＫＭ,,株式会社,静岡県,富士宮市,淀師６９３番地の１,,22,207,4180051,,,,,,,2021-10-29,1,,,,,エスケーエム,0
1568,6080103002442,新規,0,2021-10-29,2021-10-29,合同会社湧希,,合同会社,静岡県,駿東郡清水町,徳倉５９０番地,,22,341,4110917,,,,,,,2021-10-29,1,,,,,ユウキ,0
1587,6120001241451,新規,0,2021-10-29,2021-10-29,株式会社ｎａｏｃｏ,,株式会社,大阪府,大阪市住吉区,我孫子４丁目８番１４号コンフォート７０１号,,27,120,5580014,,,,,,,2021-10-29,1,,,,,ナオコ,0
1589,6120003020507,新規,0,2021-10-29,2021-10-29,合同会社ｒｅ．ＳＴＡＲ,,合同会社,大阪府,大阪市北区,曾根崎２丁目１－１２国道ビル８０５,,27,127,5300057,,,,,,,2021-10-29,1,,,,,リスター,0
1590,6120101064562,新規,0,2021-10-29,2021-10-29,株式会社アクシアス,,株式会社,大阪府,岸和田市,荒木町１丁目２７番４６号,,27,202,5960004,,,,,,,2021-10-29,1,,,,,アクシアス,0
1594,6122001035305,新規,0,2021-10-29,2021-10-29,株式会社Ｓｅｖｅｎ　Ｓｅａｓ,,株式会社,大阪府,東大阪市,吉田７丁目１－１０東花園セントラルビル２０１号,,27,227,5780924,,,,,,,2021-10-29,1,,,,,セブンシーズ,0
1604,6140001123648,新規,0,2021-10-29,2021-10-29,株式会社アップラック,,株式会社,兵庫県,加古郡稲美町,岡２２１２番地の１１,,28,381,6751113,,,,,,,2021-10-29,1,,,,,アップラック,0
1610,6140005025873,新規,0,2021-10-29,2021-10-29,一般財団法人ｅスポーツ・兵庫伝統工芸振興財団,,その他の設立登記法人,兵庫県,神戸市中央区,脇浜海岸通１丁目５番１号国際健康開発センタービル５階,,28,110,6510073,,,,,,,2021-10-29,1,,,,,イースポーツヒョウゴデントウコウゲイシンコウザイダン,0
1611,6150001025059,新規,0,2021-10-29,2021-10-29,株式会社ジェイ・アライアンス・メディアサービス,,株式会社,奈良県,奈良市,芝辻町５００－１,00124705,29,201,6308114,,,,,,,2021-10-29,1,,,,,ジェイアライアンスメディアサービス,0
1613,6160001023755,新規,0,2021-10-29,2021-10-29,株式会社杉原建設,,株式会社,滋賀県,近江八幡市,北津田町１０３８番地,,25,204,5230087,,,,,,,2021-10-29,1,,,,,スギハラケンセツ,0
1614,6160003002419,新規,0,2021-10-29,2021-10-29,高由テック合同会社,,合同会社,滋賀県,長浜市,木之本町木之本８１６番地２,,25,203,5290425,,,,,,,2021-10-29,1,,,,,,0
1621,6180001148402,新規,0,2021-10-29,2021-10-29,株式会社リベルタ,,株式会社,愛知県,江南市,山尻町本丸西５８番地,,23,217,4838036,,,,,,,2021-10-29,1,,,,,リベルタ,0
1622,6180301035564,新規,0,2021-10-29,2021-10-29,株式会社ルミナーチ,,株式会社,愛知県,岡崎市,明大寺町字出口６０番地２,,23,202,4440869,,,,,,,2021-10-29,1,,,,,ルミナーチ,0
1623,6180305009259,新規,0,2021-10-29,2021-10-29,ニューベース税理士法人,,その他の設立登記法人,愛知県,豊田市,陣中町１丁目２０番地５,,23,211,4710079,,,,,,,2021-10-29,1,,,,,ニューベース,0
1626,6190003003810,新規,0,2021-10-29,2021-10-29,合同会社しるし,,合同会社,三重県,四日市市,楠町南五味塚１０６１番地,,24,202,5100104,,,,,,,2021-10-29,1,,,,,シルシ,0
1633,6220001024499,新規,0,2021-10-29,2021-10-29,株式会社調和商会,,株式会社,石川県,金沢市,西念３丁目２０番１１号,,17,201,9200024,,,,,,,2021-10-29,1,,,,,チョウワショウカイ,0
1635,6230001019060,新規,0,2021-10-29,2021-10-29,株式会社ＳＡＫＵＲＡ　ＷＯＲＫＳ,,株式会社,富山県,富山市,五福５区１９１０番地２,,16,201,9300887,,,,,,,2021-10-29,1,,,,,サクラワークス,0
1640,6250001019216,新規,0,2021-10-29,2021-10-29,株式会社内山工業所,,株式会社,山口県,周南市,野村１丁目１７番１７号,,35,215,7460022,,,,,,,2021-10-29,1,,,,,ウチヤマコウギョウショ,0
1641,6260001036144,新規,0,2021-10-29,2021-10-29,株式会社ＰＣ．,,株式会社,岡山県,岡山市東区,竹原６２０番地,,33,103,7090614,,,,,,,2021-10-29,1,,,,,ピーシー,0
1642,6260003003704,新規,0,2021-10-29,2021-10-29,合同会社ＳＵＮ,,合同会社,岡山県,瀬戸内市,長船町服部６６２番地１１,,33,212,7014276,,,,,,,2021-10-29,1,,,,,サン,0
1648,6290001095179,新規,0,2021-10-29,2021-10-29,株式会社セイント・オフィス,,株式会社,福岡県,福岡市中央区,警固２丁目１７番２６号秀和警固レジデンス１０３,,40,133,8100023,,,,,,,2021-10-29,1,,,,,セイントオフィス,0
1649,6290003011761,新規,0,2021-10-29,2021-10-29,合同会社竜王開発,,合同会社,福岡県,福岡市南区,横手１丁目１５番７号,,40,134,8111311,,,,,,,2021-10-29,1,,,,,リュウオウカイハツ,0
1653,6290801027942,新規,0,2021-10-29,2021-10-29,株式会社ライフ,,株式会社,福岡県,北九州市八幡西区,里中１丁目４番２３－２０２号,,40,109,8070846,,,,,,,2021-10-29,1,,,,,ライフ,0
1656,6310001017551,新規,0,2021-10-29,2021-10-29,株式会社ＴＯＧ　ＬＡＢＯ,,株式会社,長崎県,佐世保市,光月町１番２３号,,42,202,8570805,,,,,,,2021-10-29,1,,,,,ティーオージーラボ,0
1661,6320005009932,新規,0,2021-10-29,2021-10-29,一般社団法人大分終活協会,,その他の設立登記法人,大分県,大分市,長浜町１丁目７番８号,,44,201,8700023,,,,,,,2021-10-29,1,,,,,オオイタシュウカツキョウカイ,0
1666,6350001017382,新規,0,2021-10-29,2021-10-29,中原造園建設株式会社,,株式会社,宮崎県,宮崎市,田野町甲５６９７番地１,,45,201,8891701,,,,,,,2021-10-29,1,,,,,ナカハラゾウエンケンセツ,0
1672,6370001047766,新規,0,2021-10-29,2021-10-29,株式会社ＫＡＣＰ,,株式会社,宮城県,角田市,角田字田町１２３番地の６,,04,208,9811505,,,,,,,2021-10-29,1,,,,,ケーエーシーピー,0
1685,6430003013297,新規,0,2021-10-29,2021-10-29,合同会社宇田商会,,合同会社,北海道,札幌市白石区,菊水上町三条３丁目３８０番地３ローズガーデン壱番館１０４号,,01,104,0030813,,,,,,,2021-10-29,1,,,,,ウダショウカイ,0
1686,6430003013306,新規,0,2021-10-29,2021-10-29,合同会社Ｖ．Ｐ,,合同会社,北海道,北広島市,西の里北４丁目５番地６,,01,234,0611104,,,,,,,2021-10-29,1,,,,,ブイピー,0
1687,6430003013314,新規,0,2021-10-29,2021-10-29,合同会社タカハシシステム,,合同会社,北海道,札幌市手稲区,星置三条１丁目１５番２３号,,01,109,0060853,,,,,,,2021-10-29,1,,,,,タカハシシステム,0
1691,6470001018798,新規,0,2021-10-29,2021-10-29,株式会社ＧＯＬＦ　ｓｔｕｄｉｏ　Ｋ,,株式会社,香川県,善通寺市,生野町２７６３－２７,,37,204,7650053,,,,,,,2021-10-29,1,,,,,ゴルフスタジオケイ,0
1697,6700150105555,新規,0,2021-10-29,2021-10-29,Ｋｗｉｋ－Ｆｉｔ　Ｍｏｔｏｒｓ,,外国会社等,千葉県,大網白里市,南今泉３８０番地６－２階,,12,239,2993202,スリランカ民主社会主義共和国、キャンディ、マダワラバザール、キャンディロード、６ｔｈマイルポスト、１９５－５,,,,,,2021-10-29,1,,,,,クイツクフイツトモータース,0
1716,7010001222107,新規,0,2021-10-29,2021-10-29,株式会社プルーボ,,株式会社,東京都,中央区,銀座１丁目１２番４号Ｎ＆ＥＢＬＤ．７階,,13,102,1040061,,,,,,,2021-10-29,1,,,,,プルーボ,0
1717,7010001222131,新規,0,2021-10-29,2021-10-29,株式会社Ｓｈｕｍｅｉ　Ｆａｃｔｏｒｙ,,株式会社,東京都,中央区,新川２丁目１８番４号,,13,102,1040033,,,,,,,2021-10-29,1,,,,,シューメイファクトリー,0
1718,7010001222164,新規,0,2021-10-29,2021-10-29,株式会社ＭＧＫｃｏｍｐａｎｙ,,株式会社,東京都,中央区,銀座７丁目６番９号銀座誠和ビル２階,,13,102,1040061,,,,,,,2021-10-29,1,,,,,エムジーケイカンパニー,0
1722,7010003036125,新規,0,2021-10-29,2021-10-29,合同会社ＥＲＫ,,合同会社,東京都,中央区,銀座１丁目２２番１１号銀座大竹ビジデンス２階,,13,102,1040061,,,,,,,2021-10-29,1,,,,,イーアールケー,0
1723,7010003036133,新規,0,2021-10-29,2021-10-29,合同会社Ａｍｅｌｉａ,,合同会社,東京都,中央区,銀座４丁目１０番１４号,,13,102,1040061,,,,,,,2021-10-29,1,,,,,アメリア,0
1726,7010101014932,新規,0,2021-10-29,2021-10-29,Ｄａｉｓｙ株式会社,,株式会社,東京都,八王子市,明神町１丁目１１番８号堀内ハイツ２０２号,,13,201,1920046,,,,,,,2021-10-29,1,,,,,ダイシー,0
1731,7010401163388,新規,0,2021-10-29,2021-10-29,株式会社エコ配,,株式会社,東京都,港区,西新橋２丁目８番１２号,,13,103,1050003,,,,,,,2021-10-29,1,,,,,エコハイ,0
1732,7010401163512,新規,0,2021-10-29,2021-10-29,プラスライフ株式会社,,株式会社,東京都,港区,浜松町２丁目２番１５号浜松町ダイヤビル２階,,13,103,1050013,,,,,,,2021-10-29,1,,,,,プラスライフ,0
1733,7010401163520,新規,0,2021-10-29,2021-10-29,レグリー株式会社,,株式会社,東京都,港区,南青山３丁目１５－９ＭＩＮＯＷＡ表参道３階,,13,103,1070062,,,,,,,2021-10-29,1,,,,,レグリー,0
1734,7010401163529,新規,0,2021-10-29,2021-10-29,株式会社イノベーターワン,,株式会社,東京都,港区,港南２丁目１６番１号,,13,103,1080075,,,,,,,2021-10-29,1,,,,,イノベーターワン,0
1735,7010401163545,新規,0,2021-10-29,2021-10-29,ＬＳ－ＳＨＩＰ第１９号株式会社,,株式会社,東京都,港区,六本木１丁目６番１号,,13,103,1060032,,,,,,,2021-10-29,1,,,,,エルエスシップダイジュウキュウゴウ,0
1738,7010405020362,新規,0,2021-10-29,2021-10-29,一般社団法人アプレフ・ジャパン・ツー,,その他の設立登記法人,東京都,港区,虎ノ門３丁目２２番１０－２０１号,,13,103,1050001,,,,,,,2021-10-29,1,,,,,アプレフジャパンツー,0
1740,7010501048027,新規,0,2021-10-29,2021-10-29,株式会社ＫＳＢ,,株式会社,東京都,台東区,小島２丁目２１番１２号,,13,106,1110056,,,,,,,2021-10-29,1,,,,,ケーエスビー,0
1741,7010501048035,新規,0,2021-10-29,2021-10-29,株式会社サクセス,,株式会社,東京都,台東区,元浅草１丁目１５－９ＳＡＫＵＲＡビル,,13,106,1110041,,,,,,,2021-10-29,1,,,,,サクセス,0
1744,7010503006420,新規,0,2021-10-29,2021-10-29,ｗｅａｖｅ　ａｓ合同会社,,合同会社,東京都,台東区,三ノ輪１丁目２８－９－９０３,,13,106,1100011,,,,,,,2021-10-29,1,,,,,,0
1747,7010701041715,新規,0,2021-10-29,2021-10-29,株式会社ｇｒａｃｉａｓ,,株式会社,東京都,品川区,西五反田８丁目２番６号クリオ五反田３０２,,13,109,1410031,,,,,,,2021-10-29,1,,,,,グラシアス,0
1748,7010801032424,新規,0,2021-10-29,2021-10-29,株式会社Ｔｏｄｏ　Ｂｉｅｎ,,株式会社,東京都,大田区,仲六郷２丁目４４番１号,,13,111,1440055,,,,,,,2021-10-29,1,,,,,トドビエン,0
1752,7010901049698,新規,0,2021-10-29,2021-10-29,ベルソリーソ株式会社,,株式会社,東京都,世田谷区,三宿２丁目１０番１６号,,13,112,1540005,,,,,,,2021-10-29,1,,,,,ベルソリーソ,0
1753,7010903006904,新規,0,2021-10-29,2021-10-29,合同会社Ｔｅａｍ　ＴＫ　Ｌａｂ,,合同会社,東京都,世田谷区,赤堤３丁目２４番１８号,,13,112,1560044,,,,,,,2021-10-29,1,,,,,チームティーケーラボ,0
1757,7011001143672,新規,0,2021-10-29,2021-10-29,株式会社まるで,,株式会社,東京都,渋谷区,宇田川町１３－８ちとせ会館２階,,13,113,1500042,,,,,,,2021-10-29,1,,,,,マルデ,0
1758,7011001143697,新規,0,2021-10-29,2021-10-29,株式会社ＣＲＯＳＳ　ＳＩＤＥ　ＭＵＳＩＣ,,株式会社,東京都,渋谷区,千駄ヶ谷３丁目３番１３号Ｒ．ｃｏｒｅ原宿２階,,13,113,1510051,,,,,,,2021-10-29,1,,,,,クロスサイドミュージック,0
1761,7011003013642,新規,0,2021-10-29,2021-10-29,合同会社Ｇｉｒａｓｏｌ,,合同会社,東京都,渋谷区,神宮前２丁目２番３９－１５０９号ＴＨＥＣＯＵＲＴ神宮外苑,,13,113,1500001,,,,,,,2021-10-29,1,,,,,ヒラソル,0
1766,7011501027441,新規,0,2021-10-29,2021-10-29,株式会社サンライド,,株式会社,東京都,荒川区,西日暮里６丁目３７番１号,,13,118,1160013,,,,,,,2021-10-29,1,,,,,サンライド,0
1776,7012401038470,新規,0,2021-10-29,2021-10-29,株式会社ソレックスルナ,,株式会社,東京都,武蔵野市,吉祥寺北町１丁目２５番２号,,13,203,1800001,,,,,,,2021-10-29,1,,,,,ソレックスルナ,0
1777,7012403005089,新規,0,2021-10-29,2021-10-29,合同会社ファーム・オンディーヌ,,合同会社,東京都,調布市,調布ケ丘３丁目５２番地１ファミール調布ケ丘２１３,,13,208,1820021,,,,,,,2021-10-29,1,,,,,ファームオンディーヌ,0
1782,7013303005880,新規,0,2021-10-29,2021-10-29,合同会社エイティポイント,,合同会社,東京都,豊島区,西池袋５丁目２４番１２－６０５号,,13,116,1710021,,,,,,,2021-10-29,1,,,,,エイティポイント,0
1786,7020001143657,新規,0,2021-10-29,2021-10-29,ＬＯＶＥＳＯＵＰ株式会社,,株式会社,神奈川県,横浜市中区,桜木町１丁目１０１番地１クロスゲート７階,,14,104,2310062,,,,,,,2021-10-29,1,,,,,ラブスープ,0
1787,7020001143665,新規,0,2021-10-29,2021-10-29,ＢｅｓｔＣｏｎｎｅｃｔｉｏｎ株式会社,,株式会社,神奈川県,川崎市宮前区,宮崎２６７番地エステート１０３,,14,136,2160033,,,,,,,2021-10-29,1,,,,,ベストコネクション,0
1790,7020003020714,新規,0,2021-10-29,2021-10-29,合同会社システマちっく不動産,,合同会社,神奈川県,横浜市南区,永田北１丁目１４番１７号,,14,105,2320071,,,,,,,2021-10-29,1,,,,,システマッチックフドウサン,0
1799,7021003011034,新規,0,2021-10-29,2021-10-29,合同会社ＬｅａｄＵ,,合同会社,神奈川県,平塚市,四之宮１丁目８番２０－１号,,14,203,2540014,,,,,,,2021-10-29,1,,,,,リードユー,0
1810,7030001145041,新規,0,2021-10-29,2021-10-29,大野造園株式会社,,株式会社,埼玉県,八潮市,大字鶴ケ曽根８６０番地１８,,11,234,3400802,,,,,,,2021-10-29,1,,,,,オオノゾウエン,0
1811,7030001145074,新規,0,2021-10-29,2021-10-29,株式会社ＮＮライズ,,株式会社,埼玉県,さいたま市南区,鹿手袋６丁目６番５号,,11,108,3360031,,,,,,,2021-10-29,1,,,,,エヌエヌライズ,0
1814,7030003018220,新規,0,2021-10-29,2021-10-29,合同会社オリンピックゴールド,,合同会社,埼玉県,幸手市,平須賀２丁目４９８番地３,,11,240,3400145,,,,,,,2021-10-29,1,,,,,オリンピックゴールド,0
1826,7040003018814,新規,0,2021-10-29,2021-10-29,合同会社ＩＴ技術者支援機構,,合同会社,千葉県,八千代市,ゆりのき台４丁目５－２,,12,221,2760042,,,,,,,2021-10-29,1,,,,,,0
1830,7050003006173,新規,0,2021-10-29,2021-10-29,宿谷薬局合同会社,,合同会社,茨城県,猿島郡境町,１６８番地２５,,08,546,3060433,,,,,,,2021-10-29,1,,,,,シュクヤヤッキョク,0
1831,7060001034233,新規,0,2021-10-29,2021-10-29,株式会社ＨＩＲＵＮＩＭＡ　ＥＮＴＥＲＰＲＩＳＥＳ,,株式会社,栃木県,栃木市,岩舟町曲ケ島４７０番地３,,09,203,3294306,,,,,,,2021-10-29,1,,,,,ヒルニマエンタープライジズ,0
1833,7060003003847,新規,0,2021-10-29,2021-10-29,合同会社ＳＴＡＧＥ　ＥＥＣ,,合同会社,栃木県,塩谷郡高根沢町,大字下柏崎８番地,,09,386,3291213,,,,,,,2021-10-29,1,,,,,ステージイーイーシー,0
1853,7120001241450,新規,0,2021-10-29,2021-10-29,株式会社駒井,,株式会社,大阪府,大阪市天王寺区,空清町７番２０号コティマ真田山８０２,,27,109,5430018,,,,,,,2021-10-29,1,,,,,コマイ,0
1854,7120001241459,新規,0,2021-10-29,2021-10-29,株式会社みたすタイム,,株式会社,大阪府,大阪市西区,南堀江２丁目９番２７－５０３号,,27,106,5500015,,,,,,,2021-10-29,1,,,,,ミタスタイム,0
1855,7120001241467,新規,0,2021-10-29,2021-10-29,株式会社ナニワクオリティ,,株式会社,大阪府,大阪市北区,西天満４丁目６番４号,,27,127,5300047,,,,,,,2021-10-29,1,,,,,ナニワクオリティ,0
1856,7120001241475,新規,0,2021-10-29,2021-10-29,株式会社フラット・８,,株式会社,大阪府,大阪市北区,天神橋２丁目５番２２号佐藤ビル２Ｆ,,27,127,5300041,,,,,,,2021-10-29,1,,,,,フラットエイト,0
1857,7120001241483,新規,0,2021-10-29,2021-10-29,萬晟産業株式会社,,株式会社,大阪府,大阪市西成区,北津守４丁目５番３号,,27,122,5570061,,,,,,,2021-10-29,1,,,,,マンセイサンギョウ,0
1858,7120001241491,新規,0,2021-10-29,2021-10-29,株式会社ＡＲＣ　ｓｔｙｌｅ,,株式会社,大阪府,大阪市鶴見区,横堤２丁目５番１１号,,27,124,5380052,,,,,,,2021-10-29,1,,,,,アークスタイル,0
1862,7120003020472,新規,0,2021-10-29,2021-10-29,Ｃｕｌｔｕｒｅ　Ｂａｎｋ合同会社,,合同会社,大阪府,大阪市北区,東天満１丁目３番８－２０１号,,27,127,5300044,,,,,,,2021-10-29,1,,,,,カルチャーバンク,0
1863,7120005022566,新規,0,2021-10-29,2021-10-29,ＮＰＯ法人よつばの庭,,その他の設立登記法人,大阪府,大阪市生野区,小路３丁目９番１２号,,27,116,5440002,,,,,,,2021-10-29,1,,,,,ヨツバノニワ,0
1865,7120101064553,新規,0,2021-10-29,2021-10-29,株式会社ＭＹＫ,,株式会社,大阪府,堺市北区,北花田町４丁９１番地１４,,27,146,5918002,,,,,,,2021-10-29,1,,,,,エムワイケー,0
1866,7120101064561,新規,0,2021-10-29,2021-10-29,株式会社Ｄａｎｄｅｌｉｏｎ,,株式会社,大阪府,泉佐野市,高松西１丁目２７４３番地の１３,,27,213,5980016,,,,,,,2021-10-29,1,,,,,ダンデライオン,0
1868,7120901045117,新規,0,2021-10-29,2021-10-29,株式会社トウカ,,株式会社,大阪府,吹田市,江坂町１丁目２番６号,,27,205,5640063,,,,,,,2021-10-29,1,,,,,トウカ,0
1869,7122001035304,新規,0,2021-10-29,2021-10-29,株式会社アルク,,株式会社,大阪府,東大阪市,弥生町８－３０,,27,227,5798026,,,,,,,2021-10-29,1,,,,,アルク,0
1880,7140003016915,新規,0,2021-10-29,2021-10-29,チアフルパートナーズ合同会社,,合同会社,兵庫県,明石市,大久保町駅前１丁目１８番地の１９,,28,203,6740058,,,,,,,2021-10-29,1,,,,,チアフルパートナーズ,0
1895,7190003003801,新規,0,2021-10-29,2021-10-29,Ｍｏｏｎ　Ｌｉｇｈｔ合同会社,,合同会社,三重県,津市,白山町二本木３７３６番地１２,,24,201,5152602,,,,,,,2021-10-29,1,,,,,ムーンライト,0
1897,7200001039333,新規,0,2021-10-29,2021-10-29,株式会社Ｐｅａｃｅ　ｈｅａｒｔ,,株式会社,岐阜県,岐阜市,平和通１丁目１７番地１,,21,201,5020827,,,,,,,2021-10-29,1,,,,,ピースハート,0
1898,7200003005366,新規,0,2021-10-29,2021-10-29,合同会社大晃,,合同会社,岐阜県,多治見市,脇之島町８丁目７８番地エスポアホワイトタウンＩＩ－８０６,00124699,21,204,5070826,,,,,,,2021-10-29,1,,,,,タイコウ,0
1900,7220001024498,新規,0,2021-10-29,2021-10-29,株式会社ふくべ鍛冶,,株式会社,石川県,鳳珠郡能登町,字宇出津新２３番地,,17,463,9270432,,,,,,,2021-10-29,1,,,,,フクベカジ,0
1903,7240003005338,新規,0,2021-10-29,2021-10-29,合同会社ｈ＆ｍ,,合同会社,広島県,広島市南区,松原町５－２シティタワー広島４７０５,,34,103,7320822,,,,,,,2021-10-29,1,,,,,エッチアンドエム,0
1925,7290001095145,新規,0,2021-10-29,2021-10-29,株式会社ＦｅｅｌＬｏｇｉ,,株式会社,福岡県,糟屋郡宇美町,原田２丁目５番２６号,,40,341,8112132,,,,,,,2021-10-29,1,,,,,フィールロジ,0
1926,7290003011769,新規,0,2021-10-29,2021-10-29,合同会社ミルキータント,,合同会社,福岡県,久留米市,上津２丁目２１－１２－１中村ビル１０１,,40,203,8300055,,,,,,,2021-10-29,1,,,,,ミルキータント,0
1928,7290005018408,新規,0,2021-10-29,2021-10-29,一般社団法人らぶはーと,,その他の設立登記法人,福岡県,福岡市中央区,渡辺通５丁目１４番１２号,,40,133,8100004,,,,,,,2021-10-29,1,,,,,ラブハート,0
1930,7290803003965,新規,0,2021-10-29,2021-10-29,デザインエム合同会社,,合同会社,福岡県,北九州市小倉北区,浅野２丁目１５番１５－３０２号,,40,106,8020001,,,,,,,2021-10-29,1,,,,,デザインエム,0
1935,7320003003647,新規,0,2021-10-29,2021-10-29,合同会社Ｈｅｌｌｏ，Ｌｏｎｄｏｎ,,合同会社,大分県,別府市,大字鶴見３５９３番地の８ルーチェＩＩ番館２０３号,00124717,44,202,8740840,,,,,,,2021-10-29,1,,,,,ハローロンドン,0
1938,7330001029123,新規,0,2021-10-29,2021-10-29,株式会社アスフィル,,株式会社,熊本県,阿蘇郡産山村,大字田尻６８番１,,43,425,8692704,,,,,,,2021-10-29,1,,,,,アスフィル,0
1939,7330003009107,新規,0,2021-10-29,2021-10-29,合同会社マスターズ経理代行センター,,合同会社,熊本県,菊池郡菊陽町,大字久保田２８０８－１８,,43,404,8691103,,,,,,,2021-10-29,1,,,,,マスターズケイリダイコウセンター,0
1950,7370001047740,新規,0,2021-10-29,2021-10-29,株式会社しあわせのひとさじ,,株式会社,宮城県,仙台市宮城野区,福室２丁目５番８－５１１号,,04,102,9830005,,,,,,,2021-10-29,1,,,,,シアワセノヒトサジ,0
1951,7370001047749,新規,0,2021-10-29,2021-10-29,アカシエンジニアリング株式会社,,株式会社,宮城県,富谷市,明石台７丁目２９番地５,,04,216,9813332,,,,,,,2021-10-29,1,,,,,アカシエンジニアリング,0
1969,7430003013305,新規,0,2021-10-29,2021-10-29,合同会社Ｄａｖｉｄ,,合同会社,北海道,札幌市中央区,南七条西１８丁目３番１６号グレイシャス幌彩,,01,101,0640807,,,,,,,2021-10-29,1,,,,,ダビデ,0
1971,7460103001405,新規,0,2021-10-29,2021-10-29,合同会社Ａｇｕｒｉ　ｂｙ　ｂｉｅｇｉｅ,,合同会社,北海道,河東郡音更町,ひびき野西町１丁目１番地５,,01,631,0800163,,,,,,,2021-10-29,1,,,,,アグリバイビージー,0
1972,7470001018797,新規,0,2021-10-29,2021-10-29,中央メディカル株式会社,,株式会社,香川県,丸亀市,綾歌町栗熊西１４５９番地２,,37,202,7612405,,,,,,,2021-10-29,1,,,,,チュウオウメディカル,0
1983,7700150105554,新規,0,2021-10-29,2021-10-29,中國航信國際有限公司,,外国会社等,東京都,千代田区,麹町４丁目５番地２０ＫＳビル８階,,13,101,1020083,中華人民共和国香港特別行政区湾仔港湾道２６号華潤大厦３６楼３６０６室,,,,,,2021-10-29,1,,,,,チユウゴクコウシンコクサイユウゲンコウシ,0
2002,8010001222097,新規,0,2021-10-29,2021-10-29,株式会社ＬｅｍｅＸｓ,,株式会社,東京都,千代田区,九段南２丁目４－１６パレス２１・２Ｆ,,13,101,1020074,,,,,,,2021-10-29,1,,,,,レメックス,0
2014,8010401163536,新規,0,2021-10-29,2021-10-29,Ｓｙｓｔｕｍ　Ｃｏｍｍｕｎｉｃａｔｉｏｎｓ株式会社,,株式会社,東京都,港区,赤坂２丁目８－１５オリエントニュー赤坂３０２,,13,103,1070052,,,,,,,2021-10-29,1,,,,,シスタムコミュニケーションズ,0
2015,8010401163544,新規,0,2021-10-29,2021-10-29,ＬＳ－ＳＨＩＰ第２０号株式会社,,株式会社,東京都,港区,六本木１丁目６番１号,,13,103,1060032,,,,,,,2021-10-29,1,,,,,エルエスシップダイニジュウゴウ,0
2016,8010401163552,新規,0,2021-10-29,2021-10-29,株式会社アースシェア,,株式会社,東京都,港区,麻布台２丁目２番１４－６０１号,,13,103,1060041,,,,,,,2021-10-29,1,,,,,アースシェア,0
2021,8010501048018,新規,0,2021-10-29,2021-10-29,株式会社Ａｓｈ,,株式会社,東京都,台東区,根岸１丁目１０番１３号福田ビル,,13,106,1100003,,,,,,,2021-10-29,1,,,,,アッシュ,0
2022,8010601060137,新規,0,2021-10-29,2021-10-29,ＭＲ　ＧＬＯＢＡＬ株式会社,,株式会社,東京都,墨田区,錦糸４丁目４－４アーバンハイム江渡４０１,,13,107,1300013,,,,,,,2021-10-29,1,,,,,エムアールグローバル,0
2023,8010601060145,新規,0,2021-10-29,2021-10-29,株式会社コロナックス,,株式会社,東京都,墨田区,京島３丁目６２番３号,,13,107,1310046,,,,,,,2021-10-29,1,,,,,コロナックス,0
2024,8010601060153,新規,0,2021-10-29,2021-10-29,株式会社萬兆豊,,株式会社,東京都,江東区,亀戸５丁目３７－６１０２,,13,108,1360071,,,,,,,2021-10-29,1,,,,,マンチョウホウ,0
2025,8010701041722,新規,0,2021-10-29,2021-10-29,株式会社ＹＯＵ,,株式会社,東京都,品川区,大崎２丁目６番１２号ヱクタスビル４０３,,13,109,1410032,,,,,,,2021-10-29,1,,,,,ユー,0
2031,8010901049697,新規,0,2021-10-29,2021-10-29,株式会社ミラクルボイスター,,株式会社,東京都,世田谷区,赤堤１丁目３８番７－２０８号,,13,112,1560044,,,,,,,2021-10-29,1,,,,,ミラクルボイスター,0
2032,8010901049706,新規,0,2021-10-29,2021-10-29,株式会社ＲＥＧＡＬＯ,,株式会社,東京都,世田谷区,池尻２丁目７－２０ＰＲＥＭＩＵＭＣＵＢＥ三宿３０２号室,,13,112,1540001,,,,,,,2021-10-29,1,,,,,レガロ,0
2033,8010903006903,新規,0,2021-10-29,2021-10-29,合同会社Ｌｉｎｏ　ｎｅｔ,,合同会社,東京都,世田谷区,世田谷４丁目３番１６号,,13,112,1540017,,,,,,,2021-10-29,1,,,,,リノネット,0
2044,8011101096720,新規,0,2021-10-29,2021-10-29,株式会社ｅｎａ,,株式会社,東京都,新宿区,原町１丁目８番地,,13,104,1620053,,,,,,,2021-10-29,1,,,,,エナ,0
2051,8011501027432,新規,0,2021-10-29,2021-10-29,ＬＩＲ株式会社,,株式会社,東京都,北区,田端新町１丁目１４番地６,,13,117,1140012,,,,,,,2021-10-29,1,,,,,エルアイアール,0
2052,8011501027440,新規,0,2021-10-29,2021-10-29,好茶株式会社,,株式会社,東京都,北区,田端１丁目１９番２１－３０９号,,13,117,1140014,,,,,,,2021-10-29,1,,,,,ホチャ,0
2056,8011603003430,新規,0,2021-10-29,2021-10-29,合同会社ジェンバルゾイ,,合同会社,東京都,練馬区,西大泉１丁目３６番２１号,,13,120,1780065,,,,,,,2021-10-29,1,,,,,ジェンバルゾイ,0
2057,8011801039912,新規,0,2021-10-29,2021-10-29,Ｎ．Ｖ株式会社,,株式会社,東京都,足立区,東伊興３丁目３－２０－３０７,,13,121,1210801,,,,,,,2021-10-29,1,,,,,エヌブイ,0
2068,8013301048212,新規,0,2021-10-29,2021-10-29,株式会社ネクストアトラス,,株式会社,東京都,豊島区,東池袋４丁目５番１－３９０１号,,13,116,1700013,,,,,,,2021-10-29,1,,,,,ネクストアトラス,0
2074,8020001143664,新規,0,2021-10-29,2021-10-29,Ｓｅａ　Ｋｉｄｓ株式会社,,株式会社,神奈川県,横浜市中区,柏葉１３番地５,,14,104,2310866,,,,,,,2021-10-29,1,,,,,シーキッズ,0
2075,8020001143689,新規,0,2021-10-29,2021-10-29,チヨダＨＤ株式会社,,株式会社,神奈川県,横浜市保土ケ谷区,保土ケ谷町１丁目１番地４,,14,106,2400021,,,,,,,2021-10-29,1,,,,,チヨダホールディングス,0
2092,8040001120769,新規,0,2021-10-29,2021-10-29,石井商事株式会社,,株式会社,千葉県,浦安市,猫実５丁目７－１５リバーサイドオリモト１０２,,12,227,2790004,,,,,,,2021-10-29,1,,,,,イシイショウジ,0
2100,8050001050049,新規,0,2021-10-29,2021-10-29,株式会社疋田商事,,株式会社,茨城県,常陸大宮市,長倉２０９７番地,,08,225,3114613,,,,,,,2021-10-29,1,,,,,ヒキタショウジ,0
2101,8050001050057,新規,0,2021-10-29,2021-10-29,株式会社ラシック,,株式会社,茨城県,水戸市,中原町５３１番地,,08,201,3190305,,,,,,,2021-10-29,1,,,,,ラシック,0
2104,8050003006164,新規,0,2021-10-29,2021-10-29,合同会社Ｈａｌｎｅｒｖｅ,,合同会社,茨城県,守谷市,松前台７丁目１４番地１０,,08,224,3020102,,,,,,,2021-10-29,1,,,,,ハルナーブ,0
2109,8070001038579,新規,0,2021-10-29,2021-10-29,株式会社Ｐｈａｎｔｏｍ　ｅｉｇｈｔ,,株式会社,群馬県,太田市,大原町２２５６番地１８,,10,205,3792304,,,,,,,2021-10-29,1,,,,,ファントムエイト,0
2113,8080003002672,新規,0,2021-10-29,2021-10-29,合同会社エクリヴ,,合同会社,静岡県,静岡市葵区,南瀬名町１５番１２号,,22,101,4200915,,,,,,,2021-10-29,1,,,,,エクリヴ,0
2122,8090003001979,新規,0,2021-10-29,2021-10-29,合同会社増田エンジニアリング,,合同会社,山梨県,甲斐市,下今井３６８１－１,,19,210,4000105,,,,,,,2021-10-29,1,,,,,マスダエンジニアリング,0
2136,8120001241383,新規,0,2021-10-29,2021-10-29,Ｃｒａｃｋ株式会社,,株式会社,大阪府,大阪市中央区,道修町３丁目３番１０号,,27,128,5410045,,,,,,,2021-10-29,1,,,,,クラック,0
2137,8120001241482,新規,0,2021-10-29,2021-10-29,株式会社ＰＡＬＵＥ,,株式会社,大阪府,大阪市中央区,法円坂１丁目５番３５号,,27,128,5400006,,,,,,,2021-10-29,1,,,,,パリュー,0
2138,8120001241499,新規,0,2021-10-29,2021-10-29,株式会社Ｖａｌｌｅｙ　Ｖｉｌｌａｇｅ,,株式会社,大阪府,枚方市,伊加賀西町２番４号,,27,210,5730066,,,,,,,2021-10-29,1,,,,,バレイビレッジ,0
2139,8120001241508,新規,0,2021-10-29,2021-10-29,ＲＩＮＡＫＳ株式会社,,株式会社,大阪府,大阪市北区,豊崎２丁目９番１６号２０２号室,,27,127,5310072,,,,,,,2021-10-29,1,,,,,リナックス,0
2144,8120003020488,新規,0,2021-10-29,2021-10-29,合同会社チルフ,,合同会社,大阪府,寝屋川市,成田南町５番１２号１Ｆ,,27,215,5720003,,,,,,,2021-10-29,1,,,,,チルフ,0
2153,8122001035303,新規,0,2021-10-29,2021-10-29,株式会社関西エース不動産,,株式会社,大阪府,東大阪市,鷹殿町４－２６,,27,227,5798036,,,,,,,2021-10-29,1,,,,,カンサイエースフドウサン,0
2155,8122003002202,新規,0,2021-10-29,2021-10-29,合同会社ｓｔｒａｗ．Ｍ,,合同会社,大阪府,八尾市,西久宝寺６番地の４エバーグリーン３Ｂ号,,27,212,5810077,,,,,,,2021-10-29,1,,,,,ストローエム,0
2158,8130005016302,新規,0,2021-10-29,2021-10-29,一般社団法人女性技能者協会,,その他の設立登記法人,京都府,八幡市,男山八望１番地－Ｃ１－４０７,,26,210,6148373,,,,,,,2021-10-29,1,,,,,ジョセイギノウシャキョウカイ,0
2164,8140001123621,新規,0,2021-10-29,2021-10-29,株式会社フィット,,株式会社,兵庫県,尼崎市,東園田町９丁目２１－１メゾンモンブラン２０２号室,,28,202,6610953,,,,,,,2021-10-29,1,,,,,フィット,0
2170,8160001023761,新規,0,2021-10-29,2021-10-29,株式会社環業堂,,株式会社,滋賀県,大津市,西の庄１９番１０号リンクスビル３Ｆ,,25,201,5200818,,,,,,,2021-10-29,1,,,,,カンギョウドウ,0
2179,8180001148474,新規,0,2021-10-29,2021-10-29,株式会社Ａ＆Ｄパートナー,,株式会社,愛知県,名古屋市瑞穂区,雁道町２丁目２１番地の８,,23,108,4670877,,,,,,,2021-10-29,1,,,,,エーアンドディーパートナー,0
2180,8180001148490,新規,0,2021-10-29,2021-10-29,株式会社幸,,株式会社,愛知県,名古屋市昭和区,阿由知通５丁目１４番地ＦＢ恵方マンション１０２号室,,23,107,4660027,,,,,,,2021-10-29,1,,,,,コウ,0
2186,8180301035562,新規,0,2021-10-29,2021-10-29,株式会社三鉱,,株式会社,愛知県,西尾市,吉良町上横須賀六石目５番地,,23,213,4440521,,,,,,,2021-10-29,1,,,,,サンコウ,0
2187,8190001028808,新規,0,2021-10-29,2021-10-29,伊勢ワイン株式会社,,株式会社,三重県,伊勢市,村松町１３７５番地６,,24,203,5150507,,,,,,,2021-10-29,1,,,,,イセワイン,0
2192,8200001039332,新規,0,2021-10-29,2021-10-29,株式会社アド・クリックス,,株式会社,岐阜県,岐阜市,加納八幡町５２番地１,,21,201,5008431,,,,,,,2021-10-29,1,,,,,アドクリックス,0
2193,8200001039340,新規,0,2021-10-29,2021-10-29,株式会社ＬＡ　ＢＥＬＬ,,株式会社,岐阜県,大垣市,静里町８１５番地２メゾン３、２０１号室,,21,202,5030983,,,,,,,2021-10-29,1,,,,,ラベル,0
2200,8220001024497,新規,0,2021-10-29,2021-10-29,株式会社畠キャリアサポート,,株式会社,石川県,金沢市,疋田１丁目３３番地,,17,201,9200003,,,,,,,2021-10-29,1,,,,,ハタケキャリアサポート,0
2208,8240001058816,新規,0,2021-10-29,2021-10-29,株式会社昴正,,株式会社,広島県,広島市南区,向洋新町３丁目１６番３３号,,34,103,7340055,,,,,,,2021-10-29,1,,,,,コウセイ,0
2209,8240001058824,新規,0,2021-10-29,2021-10-29,株式会社勇誠,,株式会社,広島県,東広島市,西条町助実１７４０番地１ルミナス２０３号,,34,212,7390021,,,,,,,2021-10-29,1,,,,,ユウセイ,0
2210,8240001058832,新規,0,2021-10-29,2021-10-29,メディカルマーケティング株式会社,,株式会社,広島県,福山市,神辺町字道上２０２３番地１,,34,207,7202104,,,,,,,2021-10-29,1,,,,,メディカルマーケティング,0
2211,8250001019214,新規,0,2021-10-29,2021-10-29,株式会社Ｆｉｎａｎｃｉａｌ　Ｔｉｍｅｓ,,株式会社,山口県,山口市,米屋町２番１号ウッズビル１Ｆ,,35,203,7530087,,,,,,,2021-10-29,1,,,,,フィナンシャルタイムズ,0
2212,8250003002928,新規,0,2021-10-29,2021-10-29,瀬戸内ビーファーム合同会社,,合同会社,山口県,下関市,東大和町１丁目１番３－３０１号丸福ビル,,35,201,7500066,,,,,,,2021-10-29,1,,,,,セトウチビーファーム,0
2222,8290001095152,新規,0,2021-10-29,2021-10-29,株式会社ｋｉｒｉ．ｈｏｌｄｉｎｇｓ,,株式会社,福岡県,福岡市東区,香椎照葉３丁目２番７号,,40,131,8130017,,,,,,,2021-10-29,1,,,,,キリホールディングス,0
2223,8290001095185,新規,0,2021-10-29,2021-10-29,株式会社グリーンエネルギー,,株式会社,福岡県,福岡市博多区,竹下５丁目４番５号,,40,132,8120895,,,,,,,2021-10-29,1,,,,,グリーンエネルギー,0
2225,8290003011768,新規,0,2021-10-29,2021-10-29,グッドオン合同会社,,合同会社,福岡県,朝倉市,福光４１８番３,,40,228,8380034,,,,,,,2021-10-29,1,,,,,グッドオン,0
2228,8290801027940,新規,0,2021-10-29,2021-10-29,株式会社林田工業,,株式会社,福岡県,田川郡福智町,赤池２４７番地１,,40,610,8221101,,,,,,,2021-10-29,1,,,,,ハヤシダコウギョウ,0
2230,8300001012683,新規,0,2021-10-29,2021-10-29,ｔｕｉｉ株式会社,,株式会社,佐賀県,佐賀市,松原１丁目３番１５号,,41,201,8400831,,,,,,,2021-10-29,1,,,,,ツイ,0
2234,8320001018695,新規,0,2021-10-29,2021-10-29,株式会社ほたるの里,,株式会社,大分県,大分市,大字市２８３番地,,44,201,8701151,,,,,,,2021-10-29,1,,,,,ホタルノサト,0
2240,8330003009106,新規,0,2021-10-29,2021-10-29,合同会社Ｌｉｆｅ　ＵＰ,,合同会社,熊本県,熊本市中央区,帯山５丁目１２番３１号,,43,101,8620924,,,,,,,2021-10-29,1,,,,,ライフアップ,0
2242,8340003003611,新規,0,2021-10-29,2021-10-29,合同会社Ｒｉｄｉｃｏｌｏ．,,合同会社,鹿児島県,薩摩川内市,東郷町斧渕４３５０番地４,,46,215,8951106,,,,,,,2021-10-29,1,,,,,リディーコロ,0
2243,8360001029565,新規,0,2021-10-29,2021-10-29,株式会社トラストファイブ,,株式会社,沖縄県,那覇市,小禄４丁目８番地１４－７０１,,47,201,9010152,,,,,,,2021-10-29,1,,,,,トラストファイブ,0
2245,8360005006536,新規,0,2021-10-29,2021-10-29,ＮＰＯ法人ヒーリング・沖縄,,その他の設立登記法人,沖縄県,那覇市,首里石嶺町２丁目２５８番地２号,,47,201,9030804,,,,,,,2021-10-29,1,,,,,ヒーリングオキナワ,0
2246,8360005006544,新規,0,2021-10-29,2021-10-29,特定非営利活動法人みちくさ,,その他の設立登記法人,沖縄県,沖縄市,美原１丁目１３番６号２階,,47,211,9042155,,,,,,,2021-10-29,1,,,,,ミチクサ,0
2247,8370001047748,新規,0,2021-10-29,2021-10-29,株式会社高橋保険,00124714,株式会社,宮城県,栗原市,築館藤木６番１７号,,04,213,9872251,,,,,,,2021-10-29,1,,,,,タカハシホケン,0
2248,8370001047756,新規,0,2021-10-29,2021-10-29,株式会社ラナクリエイト,,株式会社,宮城県,仙台市青葉区,郷六字葛岡下１番地の４,,04,101,9893121,,,,,,,2021-10-29,1,,,,,ラナクリエイト,0
2249,8370001047764,新規,0,2021-10-29,2021-10-29,オーリナス株式会社,,株式会社,宮城県,仙台市宮城野区,銀杏町５番２２号フラワーコーポＢ棟２０２号,,04,102,9830047,,,,,,,2021-10-29,1,,,,,オーリナス,0
2257,8430001085262,新規,0,2021-10-29,2021-10-29,ＮＯＳ　ＬＩＮＥ株式会社,,株式会社,北海道,北広島市,大曲工業団地６丁目２番地５,,01,234,0611274,,,,,,,2021-10-29,1,,,,,エヌオーエスライン,0
2258,8430001085270,新規,0,2021-10-29,2021-10-29,株式会社リティーク,,株式会社,北海道,千歳市,末広４丁目３－３アルファシティ末広３０１,,01,224,0660027,,,,,,,2021-10-29,1,,,,,リティーク,0
2259,8430003013304,新規,0,2021-10-29,2021-10-29,ティープライム合同会社,,合同会社,北海道,札幌市厚別区,厚別中央三条３丁目７番２６－２０２号,,01,108,0040053,,,,,,,2021-10-29,1,,,,,ティープライム,0
2262,8460003000869,新規,0,2021-10-29,2021-10-29,合同会社Ｃ・Ｖ・Ｓ北海道,,合同会社,北海道,釧路市,昭和町４丁目８番２号,,01,206,0840903,,,,,,,2021-10-29,1,,,,,シーブイエスホッカイドウ,0
2263,8470003002063,新規,0,2021-10-29,2021-10-29,ＨＯＴ合同会社,,合同会社,香川県,丸亀市,垂水町８９７番地３３,,37,202,7630095,,,,,,,2021-10-29,1,,,,,エイチオーティー,0
2275,9010001222022,新規,0,2021-10-29,2021-10-29,株式会社共同ソリューションズ,,株式会社,東京都,千代田区,神田猿楽町２丁目６－７,,13,101,1010064,,,,,,,2021-10-29,1,,,,,キョウドウソリューションズ,0
2276,9010001222113,新規,0,2021-10-29,2021-10-29,株式会社イーエスエスマネジメント,,株式会社,東京都,文京区,湯島２丁目１０番１０号,,13,105,1130034,,,,,,,2021-10-29,1,,,,,イーエスエスマネジメント,0
2277,9010001222146,新規,0,2021-10-29,2021-10-29,株式会社ＵＨＡＵＨＡ　Ｆｉｎａｎｃｅ,,株式会社,東京都,中央区,銀座１丁目２２番１１号銀座大竹ビジデンス２階,,13,102,1040061,,,,,,,2021-10-29,1,,,,,ウハウハファイナンス,0
2281,9010003036131,新規,0,2021-10-29,2021-10-29,オオテマチプロパティーズ合同会社,,合同会社,東京都,中央区,日本橋１丁目４番１号,,13,102,1030027,,,,,,,2021-10-29,1,,,,,オオテマチプロパティーズ,0
2287,9010401163535,新規,0,2021-10-29,2021-10-29,株式会社ラナン,,株式会社,東京都,港区,三田１丁目４番８０号タワーズ三田１０３,,13,103,1080073,,,,,,,2021-10-29,1,,,,,ラナン,0
2291,9010601060144,新規,0,2021-10-29,2021-10-29,株式会社幸野,,株式会社,東京都,墨田区,江東橋５丁目２番２－３０１号,,13,107,1300022,,,,,,,2021-10-29,1,,,,,コウノ,0
2308,9011001143695,新規,0,2021-10-29,2021-10-29,株式会社ＳＩＦＩＮＧ,,株式会社,東京都,渋谷区,上原２丁目３２番５号,,13,113,1510064,,,,,,,2021-10-29,1,,,,,シフィング,0
2309,9011001143729,新規,0,2021-10-29,2021-10-29,株式会社Ｊａｐａｎｔｉｃｋｅｔ,,株式会社,東京都,渋谷区,恵比寿４丁目５番２７号パティオクアトロ３階,,13,113,1500013,,,,,,,2021-10-29,1,,,,,ジャパンチケット,0
2313,9011101096728,新規,0,2021-10-29,2021-10-29,株式会社Ｍｏｖｅ,,株式会社,東京都,新宿区,水道町１番２１号陽成ビル５０１,,13,104,1620811,,,,,,,2021-10-29,1,,,,,,0
2324,9011701024807,新規,0,2021-10-29,2021-10-29,バリューアップラボ株式会社,,株式会社,東京都,江戸川区,清新町１丁目４番１２号,,13,123,1340087,,,,,,,2021-10-29,1,,,,,バリューアップラボ,0
2329,9012401038477,新規,0,2021-10-29,2021-10-29,株式会社ＢＥ－ＴＥＣＴ,,株式会社,東京都,三鷹市,牟礼６丁目１４番４－８０４号,,13,204,1810002,,,,,,,2021-10-29,1,,,,,ビーテクト,0
2331,9012701016744,新規,0,2021-10-29,2021-10-29,株式会社あすか治療院,,株式会社,東京都,小平市,喜平町３丁目３番８－１０６号,,13,211,1870044,,,,,,,2021-10-29,1,,,,,アスカチリョウイン,0
2341,9020001143663,新規,0,2021-10-29,2021-10-29,株式会社コンクエスト,,株式会社,神奈川県,横浜市金沢区,釜利谷東８丁目１６番２１号,,14,108,2360042,,,,,,,2021-10-29,1,,,,,コンクエスト,0
2348,9021001074304,新規,0,2021-10-29,2021-10-29,株式会社ｆｊコンサルティング,,株式会社,神奈川県,藤沢市,鵠沼石上２丁目４番１１号ＨＰＳビル１０１,00124706,14,205,2510025,,,,,,,2021-10-29,1,,,,,エフジェーコンサルティング,0
2349,9021001074329,新規,0,2021-10-29,2021-10-29,株式会社ＮＥＸＵＳ,,株式会社,神奈川県,横須賀市,内川１丁目７番１号,,14,201,2390836,,,,,,,2021-10-29,1,,,,,ネクサス,0
2351,9021003011040,新規,0,2021-10-29,2021-10-29,合同会社ＬＵＢ,,合同会社,神奈川県,相模原市南区,相模大野２丁目６番１２号トレアーラＢ,,14,153,2520303,,,,,,,2021-10-29,1,,,,,エルユービー,0
2360,9030001145031,新規,0,2021-10-29,2021-10-29,株式会社ケリー,,株式会社,埼玉県,さいたま市緑区,大字大間木１８３２番地２ドエルコマ東浦和２０２,,11,109,3360923,,,,,,,2021-10-29,1,,,,,ケリー,0
2361,9030001145048,新規,0,2021-10-29,2021-10-29,ミックプランニング株式会社,,株式会社,埼玉県,さいたま市浦和区,領家３丁目１３番１６号,,11,107,3300072,,,,,,,2021-10-29,1,,,,,ミックプランニング,0
2366,9030005020610,新規,0,2021-10-29,2021-10-29,土地家屋調査士法人ＺＴＳ,,その他の設立登記法人,埼玉県,さいたま市南区,別所７丁目１８番１０号－４０３,,11,108,3360021,,,,,,,2021-10-29,1,,,,,ゼットティーエス,0
2370,9040001120735,新規,0,2021-10-29,2021-10-29,株式会社Ｆｕｔｕｒｅ　Ｄｉｖｅｒ,,株式会社,千葉県,習志野市,本大久保４丁目１６番１１－３１１号,,12,216,2750012,,,,,,,2021-10-29,1,,,,,フューチャーダイバー,0
2371,9040001120792,新規,0,2021-10-29,2021-10-29,株式会社ＳＭＰ,,株式会社,千葉県,市川市,相之川１丁目５番２６－４０６号,,12,203,2720143,,,,,,,2021-10-29,1,,,,,エスエムピー,0
2375,9040003018820,新規,0,2021-10-29,2021-10-29,ジェイマーケティング合同会社,,合同会社,千葉県,船橋市,金杉７丁目２０番９号,,12,204,2730853,,,,,,,2021-10-29,1,,,,,ジェイマーケティング,0
2376,9040003018829,新規,0,2021-10-29,2021-10-29,合同会社福栄,,合同会社,千葉県,八街市,八街い１７６番地５４,,12,230,2891143,,,,,,,2021-10-29,1,,,,,フクエイ,0
2379,9050003006163,新規,0,2021-10-29,2021-10-29,ＳＤＳ合同会社,,合同会社,茨城県,守谷市,けやき台６丁目１８番地１３,,08,224,3020128,,,,,,,2021-10-29,1,,,,,エスディーエス,0
2381,9070001038578,新規,0,2021-10-29,2021-10-29,株式会社グランディア介護,,株式会社,群馬県,館林市,美園町２３番２５号１０３,,10,207,3740039,,,,,,,2021-10-29,1,,,,,グランディアカイゴ,0
2383,9070003004280,新規,0,2021-10-29,2021-10-29,ルーブル合同会社,,合同会社,群馬県,太田市,新田瑞木町５３－５,,10,205,3700311,,,,,,,2021-10-29,1,,,,,ルーブル,0
2394,9080405007401,新規,0,2021-10-29,2021-10-29,一般社団法人パーソナリティネクストプラットフォーム,,その他の設立登記法人,静岡県,浜松市中区,田町２２３番地の２１ビオラ田町３Ｆ,,22,131,4300944,,,,,,,2021-10-29,1,,,,,パーソナリティネクストプラットフォーム,0
2417,9120001241481,新規,0,2021-10-29,2021-10-29,株式会社蔵商会,,株式会社,大阪府,門真市,上野口町３７番２号,,27,223,5710070,,,,,,,2021-10-29,1,,,,,クラショウカイ,0
2418,9120001241498,新規,0,2021-10-29,2021-10-29,株式会社ユーアイヒルズ,,株式会社,大阪府,大阪市中央区,久太郎町１丁目５番３１号リアライズ堺筋本町ビル３０７,,27,128,5410056,,,,,,,2021-10-29,1,,,,,ユーアイヒルズ,0
2419,9120001241507,新規,0,2021-10-29,2021-10-29,株式会社Ｇ－ｐｌａｔｅ,,株式会社,大阪府,大阪市北区,曾根崎新地１丁目７番２５号,,27,127,5300002,,,,,,,2021-10-29,1,,,,,ジープレート,0
2422,9120101064551,新規,0,2021-10-29,2021-10-29,株式会社西川工務店,,株式会社,大阪府,河内長野市,市町１０９７－１,,27,216,5860002,,,,,,,2021-10-29,1,,,,,ニシカワコウムテン,0
2423,9120105009461,新規,0,2021-10-29,2021-10-29,一般社団法人ウムロアット,,その他の設立登記法人,大阪府,堺市北区,新金岡町１丁７番６－３０９号,,27,146,5918021,,,,,,,2021-10-29,1,,,,,ウムロアット,0
2429,9122001035302,新規,0,2021-10-29,2021-10-29,松田塗装株式会社,,株式会社,大阪府,東大阪市,箱殿町１０番１８号,,27,227,5798038,,,,,,,2021-10-29,1,,,,,マツダトソウ,0
2433,9130001070434,新規,0,2021-10-29,2021-10-29,株式会社ケアフィ,,株式会社,京都府,京都市伏見区,納所和泉屋１２,,26,109,6128273,,,,,,,2021-10-29,1,,,,,ケアフィ,0
2441,9140001123637,新規,0,2021-10-29,2021-10-29,株式会社ＴＲＹ,,株式会社,兵庫県,高砂市,荒井町小松原４丁目１０６６番地の３,,28,216,6760011,,,,,,,2021-10-29,1,,,,,トライ,0
2444,9140003016830,新規,0,2021-10-29,2021-10-29,ＫＳＨＭ合同会社,,合同会社,兵庫県,宝塚市,山本東１丁目１番１８号レジデンスＫＭ２号館２０７号室,,28,214,6650881,,,,,,,2021-10-29,1,,,,,ケイエスエイチエム,0
2448,9160001023760,新規,0,2021-10-29,2021-10-29,株式会社スリースターズ,,株式会社,滋賀県,大津市,仰木の里東８丁目８番８号,,25,201,5200248,,,,,,,2021-10-29,1,,,,,スリースターズ,0
2462,9180301035561,新規,0,2021-10-29,2021-10-29,株式会社Ｋｃｏｘ,,株式会社,愛知県,豊橋市,菰口町６丁目１５番地１・２Ｆ,,23,201,4418011,,,,,,,2021-10-29,1,,,,,ケーコックス,0
2473,9220001024496,新規,0,2021-10-29,2021-10-29,ＨＴＲ株式会社,,株式会社,石川県,金沢市,新神田４丁目１４番１５号,,17,201,9218013,,,,,,,2021-10-29,1,,,,,ヒテンリュウ,0
2476,9220003003143,新規,0,2021-10-29,2021-10-29,パール合同会社,,合同会社,石川県,野々市市,矢作４丁目４５番地２６,,17,212,9218822,,,,,,,2021-10-29,1,,,,,パール,0
2479,9230001019058,新規,0,2021-10-29,2021-10-29,株式会社ＡＩ　ＣＯＲＰＯＲＡＴＩＯＮ,,株式会社,富山県,射水市,三ケ４８７番地,,16,211,9390341,,,,,,,2021-10-29,1,,,,,エーアイコーポレーション,0
2483,9240001058823,新規,0,2021-10-29,2021-10-29,株式会社陽だまり,,株式会社,広島県,福山市,千田町大字千田２４７２番地５,,34,207,7200013,,,,,,,2021-10-29,1,,,,,ヒダマリ,0
2490,9250003002927,新規,0,2021-10-29,2021-10-29,合同会社Ｔ,,合同会社,山口県,岩国市,昭和町１丁目４番２５－３０３号Ｋ８,,35,208,7400004,,,,,,,2021-10-29,1,,,,,ティー,0
2501,9290001095085,新規,0,2021-10-29,2021-10-29,株式会社ｓｏｂｏｒｏ,,株式会社,福岡県,福岡市中央区,大手門３丁目１４番２７号,,40,133,8100074,,,,,,,2021-10-29,1,,,,,ソボロ,0
2502,9290001095168,新規,0,2021-10-29,2021-10-29,Ｐｌａｓｔａｎｔ株式会社,,株式会社,福岡県,福岡市博多区,祇園町８番１３号１Ｆ,,40,132,8120038,,,,,,,2021-10-29,1,,,,,プラスタント,0
2503,9290001095176,新規,0,2021-10-29,2021-10-29,株式会社アレントラ,,株式会社,福岡県,嘉麻市,鴨生２８５番１１号,,40,227,8200206,,,,,,,2021-10-29,1,,,,,アレントラ,0
2504,9290001095192,新規,0,2021-10-29,2021-10-29,株式会社Ｍ’ｓ,,株式会社,福岡県,飯塚市,弁分１７０番地１,,40,205,8200088,,,,,,,2021-10-29,1,,,,,エムズ,0
2508,9290801027948,新規,0,2021-10-29,2021-10-29,株式会社ＬＢＳ,,株式会社,福岡県,北九州市八幡西区,萩原１丁目１１番２５号,,40,109,8060059,,,,,,,2021-10-29,1,,,,,エルビーエス,0
2510,9290803003971,新規,0,2021-10-29,2021-10-29,合同会社ＳＷＡＮ,,合同会社,福岡県,北九州市小倉北区,浅野３丁目８番１号ＡＩＭビル６階,,40,106,8020001,,,,,,,2021-10-29,1,,,,,スワン,0
2511,9300001012682,新規,0,2021-10-29,2021-10-29,株式会社佐賀自動車,,株式会社,佐賀県,佐賀市,与賀町１３５５番地１４,,41,201,8400047,,,,,,,2021-10-29,1,,,,,サガジドウシャ,0
2515,9320001018694,新規,0,2021-10-29,2021-10-29,株式会社スイシャ,,株式会社,大分県,由布市,庄内町平石６３３番地,,44,213,8795437,,,,,,,2021-10-29,1,,,,,スイシャ,0
2518,9330001029121,新規,0,2021-10-29,2021-10-29,株式会社エスイーディ,,株式会社,熊本県,熊本市西区,島崎２丁目３６番６号,,43,103,8600073,,,,,,,2021-10-29,1,,,,,エスイーディ,0
2524,9380001032293,新規,0,2021-10-29,2021-10-29,株式会社ＩｇＡ・ＪＡＰＡＮ,,株式会社,福島県,郡山市,久留米６丁目９１－３,,07,203,9638846,,,,,,,2021-10-29,1,,,,,アイジーエージャパン,0
2530,9410001013001,新規,0,2021-10-29,2021-10-29,株式会社登録有形文化財酒造住宅・文庫蔵,,株式会社,秋田県,南秋田郡五城目町,字鵜ノ木８８番地２,,05,361,0181722,,,,,,,2021-10-29,1,,,,,,0
2535,9430003013294,新規,0,2021-10-29,2021-10-29,合同会社結家,,合同会社,北海道,札幌市手稲区,新発寒四条３丁目２番１８号,,01,109,0060804,,,,,,,2021-10-29,1,,,,,ユイヤ,0
2538,9450001013518,新規,0,2021-10-29,2021-10-29,美瑛矢澤牧場株式会社,,株式会社,北海道,上川郡美瑛町,字福富間宮,,01,459,0710243,,,,,,,2021-10-29,1,,,,,ビエイヤザワボクジョウ,0
2541,9470001018795,新規,0,2021-10-29,2021-10-29,株式会社ＨМＴ,,株式会社,香川県,丸亀市,垂水町８９７番地３３,,37,202,7630095,,,,,,,2021-10-29,1,,,,,エイチエムティー,0
2543,9480001011535,新規,0,2021-10-29,2021-10-29,株式会社トミテック,,株式会社,徳島県,阿波市,吉野町西条字原市１８３番３,,36,206,7711402,,,,,,,2021-10-29,1,,,,,トミテック,0
