sequenceNumber,corporateNumber,process,correct,updateDate,changeDate,name,nameImageId,kind,prefectureName,cityName,streetNumber,addressImageId,prefectureCode,cityCode,postCode,addressOutside,addressOutsideImageId,closeDate,closeCause,successorCorporateNumber,changeCause,assignmentDate,latest,enName,enPrefectureName,enCityName,enAddressOutside,furigana,hihyoji
2,1010001141683,登記記録の閉鎖等,0,2024-03-15,2024-03-12,株式会社扶堂ネットワークセキュリティ,,株式会社,千葉県,千葉市美浜区,中瀬２丁目６番地１ワールドビジネスガーデン,,12,106,2610023,,,2024-03-12,清算の結了等,,,2015-10-05,1,,,,,タスクドウネットワークセキュリティ,0
3,1010001200200,登記記録の閉鎖等,0,2024-03-15,2024-03-11,株式会社Ｓｈｅｌｆ　ＡＰ,,株式会社,東京都,港区,港南２丁目１６番４号,,13,103,1080075,,,2024-03-11,清算の結了等,,,2019-04-16,1,,,,,シェルフエーピー,0
5,1010003027022,登記記録の閉鎖等,0,2024-03-15,2024-03-08,合同会社ｈｉｇｅ,,合同会社,東京都,中央区,新川１丁目２０－４新川アネックス５０２,,13,102,1040033,,,2024-03-08,清算の結了等,,,2018-02-27,1,,,,,ヒゲ,0
20,1010702005591,登記記録の閉鎖等,0,2024-03-15,2024-03-13,株式会社トラスト建設,,株式会社,東京都,品川区,西五反田４丁目３番６号ブロードサニーＢ１号室,,13,109,1410031,,,2024-03-13,清算の結了等,,,2015-10-05,1,,,,,トラストケンセツ,0
25,1010902005532,登記記録の閉鎖等,0,2024-03-15,2024-03-13,有限会社劇団白鳥座,,有限会社,東京都,世田谷区,北沢２丁目５番７号,,13,112,1550031,,,2024-03-13,清算の結了等,,,2015-10-05,1,,,,,ゲキダンハクチョウザ,0
45,1011501015716,登記記録の閉鎖等,0,2024-03-15,2024-03-07,タンポップ工業株式会社,,株式会社,東京都,荒川区,東日暮里３丁目４２番８－２０９号,,13,118,1160014,,,2024-03-07,清算の結了等,,,2015-10-05,1,,,,,タンポップコウギョウ,0
51,1012801009275,登記記録の閉鎖等,0,2024-03-15,2024-03-01,株式会社セレモア仏壇販売,,株式会社,東京都,立川市,柏町１丁目２７番地の１３,,13,202,1900004,,,2024-03-01,合併による解散等,8012801009302,令和６年３月１日東京都立川市柏町一丁目２６番地の４株式会社セレモア（8012801009302）に合併し解散,2015-10-05,1,,,,,セレモアブツダンハンバイ,0
54,1020001037328,登記記録の閉鎖等,0,2024-03-15,2024-03-08,株式会社Ｖａｎテクノス,,株式会社,神奈川県,横浜市港南区,野庭町８６番地１,,14,111,2340056,,,2024-03-08,清算の結了等,,,2015-10-05,1,,,,,バンテクノス,0
57,1020002092495,登記記録の閉鎖等,0,2024-03-15,2024-03-12,有限会社大雅工務店,,有限会社,神奈川県,川崎市多摩区,菅稲田堤１丁目８番１２号,,14,135,2140003,,,2024-03-12,清算の結了等,,,2015-10-05,1,,,,,タイガコウムテン,0
65,1021001034430,登記記録の閉鎖等,0,2024-03-15,2024-03-13,株式会社小嶋板金工業,,株式会社,神奈川県,足柄上郡中井町,松本４０６番地２,,14,361,2590155,,,2024-03-13,清算の結了等,,,2015-10-05,1,,,,,コジマバンキンコウギョウ,0
73,1030001100308,登記記録の閉鎖等,0,2024-03-15,2024-03-13,株式会社オンライン企画,,株式会社,埼玉県,さいたま市南区,別所３丁目１７番２４号岡安ビル２階Ａ号室,,11,108,3360021,,,2024-03-13,清算の結了等,,,2015-10-05,1,,,,,,0
97,1070001022655,登記記録の閉鎖等,0,2024-03-15,2024-03-11,株式会社フジタ,,株式会社,群馬県,みどり市,笠懸町阿左美１７６番地８,,10,212,3792311,,,2024-03-11,清算の結了等,,,2015-10-05,1,,,,,フジタ,0
106,1120001011306,登記記録の閉鎖等,0,2024-03-15,2024-03-14,株式会社山武,,株式会社,大阪府,大阪市東住吉区,公園南矢田３丁目１１番１２号,,27,121,5460024,,,2024-03-14,清算の結了等,,,2015-10-05,1,,,,,ヤマタケ,0
147,1180001074033,登記記録の閉鎖等,0,2024-03-15,2024-03-08,株式会社熊谷製作所,,株式会社,愛知県,春日井市,気噴町北１丁目２２２番１,,23,206,4870015,,,2024-03-08,清算の結了等,,,2015-10-05,1,,,,,クマガイセイサクジョ,0
155,1180302003632,登記記録の閉鎖等,0,2024-03-15,2024-03-11,有限会社樫山製作所,,有限会社,愛知県,岡崎市,山綱町字上中野５番地１１３,,23,202,4443513,,,2024-03-11,清算の結了等,,,2015-10-05,1,,,,,カシヤマセイサクショ,0
162,1210001003723,登記記録の閉鎖等,0,2024-03-15,2024-03-12,株式会社マーモツク,,株式会社,福井県,福井市,大町２丁目１１２番,,18,201,9188116,,,2024-03-12,清算の結了等,,,2015-10-05,1,,,,,マーモツク,0
168,1240001031795,登記記録の閉鎖等,0,2024-03-15,2024-03-12,株式会社岡田食品,,株式会社,広島県,福山市,柳津町１丁目４番３１号,,34,207,7290114,,,2024-03-12,清算の結了等,,,2015-10-05,1,,,,,オカダショクヒン,0
202,1430001086762,登記記録の閉鎖等,0,2024-03-15,2024-03-11,わゆあ株式会社,,株式会社,北海道,石狩郡当別町,スウェーデンヒルズ２２６８番地５１,,01,303,0613777,,,2024-03-11,清算の結了等,,,2022-06-08,1,,,,,ワユア,0
219,2010001061856,登記記録の閉鎖等,0,2024-03-15,2024-03-08,株式会社エステートマネッジメント,,株式会社,東京都,中央区,日本橋蛎殻町１丁目３番５号,,13,102,1030014,,,2024-03-08,清算の結了等,,,2015-10-05,1,,,,,エステートマネッジメント,0
220,2010001135882,登記記録の閉鎖等,0,2024-03-15,2024-03-12,株式会社カーボン,,株式会社,東京都,渋谷区,千駄ヶ谷５丁目２７－５リンクスクエア新宿１６階,,13,113,1510051,,,2024-03-12,清算の結了等,,,2015-10-05,1,,,,,カーボン,0
231,2010003022542,登記記録の閉鎖等,0,2024-03-15,2024-03-11,合同会社ウェストゴールドリーシング,,合同会社,東京都,港区,六本木１丁目９番１０号アークヒルズ仙石山森タワー４０階,,13,103,1060032,,,2024-03-11,清算の結了等,,,2015-10-22,1,,,,,ウエストゴールドリーシング,0
309,2021003009462,登記記録の閉鎖等,0,2024-03-15,2024-03-11,ＲＥＮ合同会社,,合同会社,神奈川県,横須賀市,若宮台２８番１９号,,14,201,2390829,,,2024-03-11,清算の結了等,,,2020-07-07,1,,,,,レン,0
316,2030001082314,登記記録の閉鎖等,0,2024-03-15,2024-03-12,株式会社西川口ホンダ,,株式会社,埼玉県,川口市,並木町三丁目２４番地２,,11,203,3320000,,,2024-03-12,清算の結了等,,,2015-10-05,1,,,,,ニシカワグチホンダ,0
324,2040001051111,登記記録の閉鎖等,0,2024-03-15,2024-03-11,株式会社主婦の店,,株式会社,千葉県,袖ケ浦市,神納１丁目２番地１１,,12,229,2990257,,,2024-03-11,合併による解散等,6040001075156,令和６年３月１日千葉県夷隅郡大多喜町大多喜６１番地１宍倉株式会社（6040001075156）に合併し解散,2015-10-05,1,,,,,シュフノミセ,0
353,2110005015963,登記記録の閉鎖等,0,2024-03-15,2024-03-13,一般社団法人グリーンパワー,,その他の設立登記法人,新潟県,新潟市西区,関屋堀割町１番６号,,15,107,9518155,,,2024-03-13,清算の結了等,,,2016-07-12,1,,,,,グリーンパワー,0
369,2120003014198,登記記録の閉鎖等,0,2024-03-15,2024-03-12,合同会社プレジール,,合同会社,大阪府,大阪市東淀川区,豊新２丁目６番６－２０６号,,27,114,5330014,,,2024-03-12,清算の結了等,,,2018-04-23,1,,,,,プレジール,0
410,2260001022247,登記記録の閉鎖等,0,2024-03-15,2024-03-13,瀬戸瓦斯管工株式会社,,株式会社,岡山県,玉野市,田井４丁目４４５８番地,,33,204,7060001,,,2024-03-13,清算の結了等,,,2015-10-05,1,,,,,セトガスカンコウ,0
449,2470002008595,登記記録の閉鎖等,0,2024-03-15,2024-03-13,有限会社かがわ保健企画,,有限会社,香川県,高松市,栗林町１丁目６番１号,,37,201,7600073,,,2024-03-13,清算の結了等,,,2015-10-05,1,,,,,カガワホケンキカク,0
460,3010001172727,登記記録の閉鎖等,0,2024-03-15,2024-03-11,株式会社インフィック・コミュニケーションズ,,株式会社,東京都,千代田区,丸の内３丁目３番１号,,13,101,1000005,,,2024-03-11,合併による解散等,6080001011017,令和６年３月１日静岡市葵区古庄六丁目１４番３号インフィック株式会社（6080001011017）に合併し解散,2016-01-12,1,,,,,インフィックコミュニケーションズ,0
461,3010001196073,登記記録の閉鎖等,0,2024-03-15,2024-03-13,株式会社マチルダ,,株式会社,東京都,江戸川区,中葛西３丁目３番１３号,,13,123,1340083,,,2024-03-13,清算の結了等,,,2018-11-06,1,,,,,マチルダ,0
468,3010005024684,登記記録の閉鎖等,0,2024-03-15,2024-03-13,一般社団法人味覚カウンセラー協会,,その他の設立登記法人,東京都,中央区,銀座７丁目１３番６号サガミビル２階,,13,102,1040061,,,2024-03-13,清算の結了等,,,2015-12-02,1,,,,,ミカクカウンセラーキョウカイ,0
471,3010401033339,登記記録の閉鎖等,0,2024-03-15,2024-03-11,株式会社エッグ・コーポレーション,,株式会社,東京都,港区,白金台１丁目１番１５号,,13,103,1080071,,,2024-03-11,清算の結了等,,,2015-10-05,1,,,,,エッグコーポレーション,0
475,3010401108041,登記記録の閉鎖等,0,2024-03-15,2024-02-29,株式会社ＨＡＲＶＥＳＴ　ＰＬＡＮＮＩＮＧ,,株式会社,東京都,港区,西麻布３丁目２番９号,,13,103,1060031,,,2024-02-29,清算の結了等,,,2015-10-05,1,,,,,,0
512,3011301014230,登記記録の閉鎖等,0,2024-03-15,2024-03-07,ＵＳＡＭＩブランディング株式会社,,株式会社,東京都,杉並区,久我山４丁目３４番８号,,13,115,1680082,,,2024-03-07,清算の結了等,,,2015-10-05,1,,,,,ウサミブランディング,0
522,3012401029829,登記記録の閉鎖等,0,2024-03-15,2024-03-12,株式会社ＨＳＳ企画,,株式会社,東京都,小金井市,前原町３丁目４１番９号,,13,210,1840013,,,2024-03-12,清算の結了等,,,2015-10-05,1,,,,,エイチエスエスキカク,0
531,3020001140022,登記記録の閉鎖等,0,2024-03-15,2024-03-11,株式会社ＬＡＸＩＮＡ,,株式会社,神奈川県,川崎市高津区,子母口４４番地,,14,134,2130023,,,2024-03-11,清算の結了等,,,2021-02-17,1,,,,,ラクシナ,0
534,3020003007376,登記記録の閉鎖等,0,2024-03-15,2024-03-13,ヒカリレンタ首都圏株式会社,,株式会社,東京都,渋谷区,南平台町１６番２８号Ｄａｉｗａ渋谷スクエア６Ｆ,,13,113,1500036,,,2024-03-13,清算の結了等,,,2015-10-05,1,,,,,ヒカリレンタシュトケン,0
544,3030002020222,登記記録の閉鎖等,0,2024-03-15,2024-03-13,有限会社中村工業,,有限会社,埼玉県,戸田市,下前１丁目１１番２０－６４３号,,11,224,3350016,,,2024-03-13,清算の結了等,,,2015-10-05,1,,,,,ナカムラコウギョウ,0
558,3040003005394,登記記録の閉鎖等,0,2024-03-15,2024-03-07,Ｊ＆Ｋ合同会社,,合同会社,東京都,荒川区,東日暮里５丁目５２番１２号,,13,118,1160014,,,2024-03-07,清算の結了等,,,2015-10-05,1,,,,,ジェイアンドケイ,0
601,3122003000623,登記記録の閉鎖等,0,2024-03-15,2024-03-05,ダンススクール香歩合同会社,,合同会社,大阪府,八尾市,安中町３丁目８番１６－４０３号,,27,212,5810085,,,2024-03-05,清算の結了等,,,2015-10-05,1,,,,,ダンススクールカホ,0
630,3220002013181,登記記録の閉鎖等,0,2024-03-15,2024-03-13,有限会社丸嘉,,有限会社,石川県,加賀市,山中温泉中田町ホ５３番地１,,17,206,9220101,,,2024-03-13,清算の結了等,,,2015-10-05,1,,,,,マルヨシ,0
641,3290001089943,登記記録の閉鎖等,0,2024-03-15,2024-03-07,株式会社Ｐｕｓｈ　Ｏｎ,,株式会社,福岡県,春日市,須玖北７丁目１２０番地シティパル春日２０５号,,40,218,8160864,,,2024-03-07,清算の結了等,,,2020-08-31,1,,,,,プッシュオン,0
682,4010001204009,登記記録の閉鎖等,0,2024-03-15,2024-03-13,株式会社ＳｙｍｐｈｏｎｉａＷｏｒｋｓ,,株式会社,東京都,目黒区,中目黒１丁目８番３号,,13,110,1530061,,,2024-03-13,清算の結了等,,,2019-09-24,1,,,,,シンフォニアワークス,0
688,4010401064820,登記記録の閉鎖等,0,2024-03-15,2024-03-11,株式会社住まいの図書館,,株式会社,東京都,港区,赤坂４丁目１５番１号,,13,103,1070052,,,2024-03-11,清算の結了等,,,2015-10-05,1,,,,,スマイノトショカン,0
693,4010501020087,登記記録の閉鎖等,0,2024-03-15,2024-03-08,イシマキ株式会社,,株式会社,東京都,荒川区,荒川４丁目１０番１号宮地イトウビル８Ｆ,,13,118,1160002,,,2024-03-08,清算の結了等,,,2015-10-05,1,,,,,イシマキ,0
724,4011101068938,登記記録の閉鎖等,0,2024-03-15,2024-03-11,株式会社Ｂｉｒｔｈ,,株式会社,東京都,新宿区,富久町１６番１５号,,13,104,1620067,,,2024-03-11,清算の結了等,,,2015-10-05,1,,,,,バース,0
732,4011501025992,登記記録の閉鎖等,0,2024-03-15,2024-03-06,株式会社ＵＰＳＴＡＲＴ,,株式会社,東京都,北区,岩淵町２５番３－３０１号ロイレジデンス清水,,13,117,1150041,,,2024-03-06,清算の結了等,,,2020-07-09,1,,,,,アップスタート,0
747,4013301045213,登記記録の閉鎖等,0,2024-03-15,2024-03-11,株式会社Ｏｌｄ　Ｃｕｔｔｉｎｇ　Ｅｄｇｅ,,株式会社,東京都,豊島区,西池袋５丁目５番２１号ザ・タワーグランディア２８０４,,13,116,1710021,,,2024-03-11,清算の結了等,,,2020-02-14,1,,,,,オールドカッティングエッジ,0
761,4021001036226,登記記録の閉鎖等,0,2024-03-15,2024-03-12,株式会社エス・エルよこはま,,株式会社,神奈川県,平塚市,馬入本町１３番２号,,14,203,2540024,,,2024-03-12,清算の結了等,,,2015-10-05,1,,,,,エスエルヨコハマ,0
776,4030002023315,登記記録の閉鎖等,0,2024-03-15,2024-03-11,有限会社ＫＳ,,有限会社,埼玉県,さいたま市岩槻区,大字黒谷１２４０番地５,,11,110,3390033,,,2024-03-11,清算の結了等,,,2015-10-05,1,,,,,ケイエス,0
781,4040001038420,登記記録の閉鎖等,0,2024-03-15,2024-03-11,宝来商事株式会社,,株式会社,千葉県,流山市,南流山５丁目３番地の２,,12,220,2700163,,,2024-03-11,清算の結了等,,,2015-10-05,1,,,,,ホウライショウジ,0
796,4050001001435,登記記録の閉鎖等,0,2024-03-15,2024-03-11,成彰建設株式会社,,株式会社,茨城県,水戸市,見川３丁目８０５番地１,,08,201,3100912,,,2024-03-11,清算の結了等,,,2015-10-05,1,,,,,セイショウケンセツ,0
798,4050001037330,登記記録の閉鎖等,0,2024-03-15,2024-03-11,株式会社石塚物産,,株式会社,茨城県,坂東市,岩井４５５５番地,,08,228,3060631,,,2024-03-11,清算の結了等,,,2015-10-05,1,,,,,,0
806,4080101008088,登記記録の閉鎖等,0,2024-03-15,2024-03-13,株式会社イカイ九州,,株式会社,静岡県,沼津市,松長７８７番地,,22,203,4100874,,,2024-03-13,合併による解散等,8080101000132,令和６年３月１３日静岡県沼津市松長７８７番地株式会社イカイ（8080101000132）に合併し解散,2015-10-05,1,,,,,イカイキュウシュウ,0
809,4080102007907,登記記録の閉鎖等,0,2024-03-15,2024-03-14,有限会社天城の里,,有限会社,静岡県,伊豆の国市,吉田３６３番地の４５,,22,225,4102322,,,2024-03-14,清算の結了等,,,2015-10-05,1,,,,,アマギノサト,0
815,4080402004307,登記記録の閉鎖等,0,2024-03-15,2024-03-11,有限会社正幸,,有限会社,愛知県,岡崎市,北野町字西山畔１０番地１,,23,202,4440951,,,2024-03-11,清算の結了等,,,2015-10-05,1,,,,,セイコウ,0
819,4120001138781,登記記録の閉鎖等,0,2024-03-15,2024-03-12,株式会社ＲＥＴＯＷＮ　ＨＵＭＡＮ,,株式会社,大阪府,大阪市浪速区,湊町１丁目４番１号,,27,111,5560017,,,2024-03-12,清算の結了等,,,2015-10-05,1,,,,,リタウンヒューマン,0
831,4120001243730,登記記録の閉鎖等,0,2024-03-15,2024-03-13,株式会社ボルト,,株式会社,大阪府,大阪市北区,西天満５丁目９－１０－３０４号,,27,127,5300047,,,2024-03-13,清算の結了等,,,2022-02-08,1,,,,,ボルト,0
833,4120001254455,登記記録の閉鎖等,0,2024-03-15,2024-03-11,株式会社ノンスタイル,,株式会社,大阪府,枚方市,長尾谷町２丁目２番地の１９,,27,210,5730164,,,2024-03-11,清算の結了等,,,2023-04-27,1,,,,,ノンスタイル,0
852,4140002061394,登記記録の閉鎖等,0,2024-03-15,2024-03-05,有限会社フィールドスタンド,,有限会社,兵庫県,加東市,河高２４７１番地の１１,,28,228,6790221,,,2024-03-05,清算の結了等,,,2015-10-05,1,,,,,フィールドスタンド,0
855,4150003002966,登記記録の閉鎖等,0,2024-03-15,2024-03-13,グローバルリサーチ＆コミュニケーションズ合同会社,,合同会社,奈良県,奈良市,学園朝日元町１丁目６０６番地の１３,,29,201,6310015,,,2024-03-13,清算の結了等,,,2023-05-19,1,,,,,グローバルリサーチアンドコミュニケーションズ,0
874,4200001022250,登記記録の閉鎖等,0,2024-03-15,2024-03-12,株式会社丸英陶料,,株式会社,岐阜県,土岐市,鶴里町柿野９２５番地の４,,21,212,5095312,,,2024-03-12,清算の結了等,,,2015-10-05,1,,,,,マルヒデトリョウ,0
875,4200002012093,登記記録の閉鎖等,0,2024-03-15,2024-03-13,有限会社三慶,,有限会社,岐阜県,羽島市,正木町森１０丁目１２９番地,,21,209,5016221,,,2024-03-13,清算の結了等,,,2015-10-05,1,,,,,サンケイ,0
887,4250001014557,登記記録の閉鎖等,0,2024-03-15,2024-03-13,株式会社キロクサービスセンター,,株式会社,山口県,下関市,秋根北町８番１号,,35,201,7510876,,,2024-03-13,清算の結了等,,,2015-10-05,1,,,,,キロクサービスセンター,0
895,4290003010113,登記記録の閉鎖等,0,2024-03-15,2024-03-07,サンセン九州合同会社,,合同会社,福岡県,福岡市城南区,樋井川２丁目２番５－５０１号,,40,136,8140153,,,2024-03-07,清算の結了等,,,2020-06-24,1,,,,,,0
923,4450001006773,登記記録の閉鎖等,0,2024-03-15,2024-03-13,株式会社ＩＬＤ,,株式会社,北海道,旭川市,五条通６丁目４番地５７,,01,204,0700035,,,2024-03-13,清算の結了等,,,2015-10-05,1,,,,,アイエルディー,0
935,5010001055104,登記記録の閉鎖等,0,2024-03-15,2024-03-08,株式会社ビースタッフカンパニー,,株式会社,東京都,中央区,銀座８丁目１８番７号,,13,102,1040061,,,2024-03-08,清算の結了等,,,2015-10-05,1,,,,,ビースタッフカンパニー,0
936,5010001103795,登記記録の閉鎖等,0,2024-03-15,2024-03-08,ＭＹフロンティア株式会社,,株式会社,東京都,中央区,八丁堀４丁目２番８号喜地ビル２Ｆ,,13,102,1040032,,,2024-03-08,清算の結了等,,,2015-10-05,1,,,,,,0
939,5010001207019,登記記録の閉鎖等,0,2024-03-15,2024-03-11,株式会社ごましお,,株式会社,東京都,千代田区,神田練塀町３００番３階,,13,101,1010022,,,2024-03-11,清算の結了等,,,2020-01-30,1,,,,,ゴマシオ,0
943,5010003033520,登記記録の閉鎖等,0,2024-03-15,2024-03-11,ＢＥＡＮＳ合同会社,,合同会社,東京都,港区,虎ノ門５丁目１番４号,,13,103,1050001,,,2024-03-11,清算の結了等,,,2020-11-13,1,,,,,ビーンズ,0
948,5010401094908,登記記録の閉鎖等,0,2024-03-15,2024-03-08,株式会社Ｐ＆Ｅ　ＡＤＶＩＳＯＲＹ,,株式会社,東京都,港区,新橋２丁目１６番１号ニュー新橋ビル７０２,,13,103,1050004,,,2024-03-08,清算の結了等,,,2015-10-05,1,,,,,ピーアンドイーアドバイザリー,0
985,5011201012828,登記記録の閉鎖等,0,2024-03-15,2024-03-08,株式会社オフィスクリエイト,,株式会社,大阪府,大阪市中央区,釣鐘町１丁目５－７－１００３,,27,128,5400035,,,2024-03-08,清算の結了等,,,2015-10-05,1,,,,,オフィスクリエイト,0
997,5012401036419,登記記録の閉鎖等,0,2024-03-15,2024-03-08,ＶＬエステート株式会社,,株式会社,東京都,多摩市,乞田８９５番地,,13,224,2060014,,,2024-03-08,清算の結了等,,,2020-04-07,1,,,,,ビイエルエステート,0
1000,5013301028687,登記記録の閉鎖等,0,2024-03-15,2024-03-06,株式会社ショプソル,,株式会社,東京都,豊島区,西池袋１丁目４番１０号,,13,116,1710021,,,2024-03-06,合併による解散等,1013301022784,令和６年３月１日東京都豊島区西池袋一丁目４番１０号株式会社ＨＢＤ（1013301022784）に合併し解散,2015-10-05,1,,,,,ショプソル,0
1049,5080001011851,登記記録の閉鎖等,0,2024-03-15,2024-03-13,株式会社ビジネスサポート,,株式会社,静岡県,静岡市葵区,千代田４丁目７番２号,,22,101,4200803,,,2024-03-13,清算の結了等,,,2015-10-05,1,,,,,ビジネスサポート,0
1056,5120001188058,登記記録の閉鎖等,0,2024-03-15,2024-03-12,株式会社ジー・ワイ・リアルエステート,,株式会社,大阪府,大阪市東淀川区,豊新２丁目６番６－２０６号,,27,114,5330014,,,2024-03-12,清算の結了等,,,2015-10-05,1,,,,,ジーワイリアルエステート,0
1062,5120002048161,登記記録の閉鎖等,0,2024-03-15,2024-03-12,中之島建設有限会社,,有限会社,大阪府,大阪市北区,中之島５丁目３番９２－２１１号,,27,127,5300005,,,2024-03-12,清算の結了等,,,2015-10-05,1,,,,,ナカノシマケンセツ,0
1075,5130001049671,登記記録の閉鎖等,0,2024-03-15,2024-03-12,株式会社イーグルジャパン,,株式会社,千葉県,鎌ケ谷市,新鎌ケ谷１丁目１０－２６新鎌スカイタワー４０５号室,,12,224,2730107,,,2024-03-12,清算の結了等,,,2015-10-05,1,,,,,イーグルジャパン,0
1079,5140002005383,登記記録の閉鎖等,0,2024-03-15,2024-03-11,有限会社山本建材工業,,有限会社,兵庫県,神戸市西区,櫨谷町池谷２５番地,,28,111,6512234,,,2024-03-11,清算の結了等,,,2015-10-05,1,,,,,ヤマモトケンザイコウギョウ,0
1080,5140002010210,登記記録の閉鎖等,0,2024-03-15,2024-03-11,有限会社デンタルプロ,,有限会社,兵庫県,神戸市北区,山田町下谷上字宮の前８番地の１,,28,109,6511243,,,2024-03-11,清算の結了等,,,2015-10-05,1,,,,,デンタルプロ,0
1082,5140002065254,登記記録の閉鎖等,0,2024-03-15,2024-03-11,有限会社マツモト,,有限会社,兵庫県,川西市,久代１丁目１４番９号,,28,217,6660024,,,2024-03-11,清算の結了等,,,2015-10-05,1,,,,,マツモト,0
1088,5180001034248,登記記録の閉鎖等,0,2024-03-15,2024-03-08,株式会社伊藤経営研究所,,株式会社,愛知県,名古屋市中区,栄２丁目４番１１号,,23,106,4600008,,,2024-03-08,清算の結了等,,,2015-10-05,1,,,,,イトウケイエイケンキュウジョ,0
1091,5180001097559,登記記録の閉鎖等,0,2024-03-15,2024-03-08,株式会社熱田木型製作所,,株式会社,愛知県,愛西市,西保町南川原１１４番地,,23,232,4960911,,,2024-03-08,清算の結了等,,,2015-10-05,1,,,,,アツタキガタセイサクショ,0
1092,5180001104983,登記記録の閉鎖等,0,2024-03-15,2024-03-06,株式会社オッジ,,株式会社,愛知県,名古屋市東区,泉１丁目２１番２９号ＩＺＵＭＩ桜鈴館４０１,,23,102,4610001,,,2024-03-06,清算の結了等,,,2015-10-05,1,,,,,オッジ,0
1099,5180301005221,登記記録の閉鎖等,0,2024-03-15,2024-03-08,株式会社追分清工業,,株式会社,愛知県,豊橋市,曙町字南松原８８番地の６,,23,201,4418151,,,2024-03-08,清算の結了等,,,2015-10-05,1,,,,,オイワケセイコウギョウ,0
1100,5180301008736,登記記録の閉鎖等,0,2024-03-15,2024-03-13,株式会社サクセス,,株式会社,愛知県,豊橋市,西岩田３丁目８番地９,,23,201,4400831,,,2024-03-13,清算の結了等,,,2015-10-05,1,,,,,サクセス,0
1156,5430001012129,登記記録の閉鎖等,0,2024-03-15,2024-03-08,株式会社とうしょう,,株式会社,北海道,札幌市白石区,北郷五条１０丁目２３７４番地１２７,,01,104,0030835,,,2024-03-08,清算の結了等,,,2015-10-05,1,,,,,トウショウ,0
1163,5470002007512,登記記録の閉鎖等,0,2024-03-15,2024-03-12,有限会社リリーフ,,有限会社,香川県,高松市,天神前３番１４号,,37,201,7600018,,,2024-03-12,清算の結了等,,,2015-10-05,1,,,,,リリーフ,0
1172,5500002003722,登記記録の閉鎖等,0,2024-03-15,2024-03-12,有限会社スポーツブイ,,有限会社,愛媛県,松山市,桑原３丁目４番２号,,38,201,7900911,,,2024-03-12,清算の結了等,,,2015-10-05,1,,,,,スポーツブイ,0
1177,6010001101575,登記記録の閉鎖等,0,2024-03-15,2024-03-08,バーンズバーンズ株式会社,,株式会社,東京都,千代田区,神田小川町１丁目１１番地１４ローレルアイ千代田淡路町４０１号,,13,101,1010052,,,2024-03-08,清算の結了等,,,2015-10-05,1,,,,,バーンズバーンズ,0
1202,6010405019232,登記記録の閉鎖等,0,2024-03-15,2024-03-11,一般社団法人Ｂｒｏｏｋ　Ｈｏｌｄｉｎｇ,,その他の設立登記法人,東京都,港区,六本木１丁目９番１０号アークヒルズ仙石山森タワー４０階,,13,103,1060032,,,2024-03-11,清算の結了等,,,2020-11-02,1,,,,,ブルックホールディング,0
1209,6010701011363,登記記録の閉鎖等,0,2024-03-15,2024-03-11,株式会社スミノエワークス,,株式会社,東京都,品川区,西五反田２丁目３０番４号,,13,109,1410031,,,2024-03-11,清算の結了等,,,2015-10-05,1,,,,,スミノエワークス,0
1228,6011302002000,登記記録の閉鎖等,0,2024-03-15,2024-03-04,有限会社小野ホームサービス,,有限会社,東京都,杉並区,阿佐谷北６丁目２４番１７号,,13,115,1660001,,,2024-03-04,清算の結了等,,,2015-10-05,1,,,,,,0
1237,6013202006741,登記記録の閉鎖等,0,2024-03-15,2024-03-13,有限会社吉田牛乳店,,有限会社,東京都,目黒区,中町２丁目４番４号,,13,110,1530065,,,2024-03-13,清算の結了等,,,2015-10-05,1,,,,,ヨシダギュウニュウテン,0
1252,6030001043997,登記記録の閉鎖等,0,2024-03-15,2024-03-14,株式会社フロンティア,,株式会社,埼玉県,上尾市,小泉４丁目１０番地１,,11,219,3620063,,,2024-03-14,清算の結了等,,,2015-10-05,1,,,,,フロンティア,0
1255,6030001106085,登記記録の閉鎖等,0,2024-03-15,2024-03-12,株式会社スカイコーポレーション,,株式会社,埼玉県,草加市,青柳３丁目４番１８号,,11,221,3400002,,,2024-03-12,清算の結了等,,,2015-10-05,1,,,,,スカイコーポレーション,0
1293,6080101016766,登記記録の閉鎖等,0,2024-03-15,2024-03-11,レモンホーム静岡株式会社,,株式会社,静岡県,三島市,徳倉４丁目２４番１６号,,22,206,4110044,,,2024-03-11,清算の結了等,,,2015-10-05,1,,,,,レモンホームシズオカ,0
1296,6080102017722,登記記録の閉鎖等,0,2024-03-15,2024-03-11,有限会社アンシンホケン,,有限会社,静岡県,富士宮市,舟久保町１４番地の１１,,22,207,4180017,,,2024-03-11,清算の結了等,,,2015-10-05,1,,,,,アンシンホケン,0
1297,6080103002938,登記記録の閉鎖等,0,2024-03-15,2024-03-13,合同会社ブランシュ,,合同会社,静岡県,富士市,松岡１３５番地の６,,22,210,4160909,,,2024-03-13,清算の結了等,,,2023-12-08,1,,,,,ブランシュ,0
1303,6120001045489,登記記録の閉鎖等,0,2024-03-15,2024-03-12,株式会社津田製作所,,株式会社,大阪府,大阪市港区,市岡３丁目１０番４号,,27,107,5520012,,,2024-03-12,清算の結了等,,,2015-10-05,1,,,,,ツダセイサクショ,0
1322,6120901031233,登記記録の閉鎖等,0,2024-03-15,2024-03-12,株式会社アイルビー,,株式会社,大阪府,大阪市淀川区,西中島３丁目２１番１３号,,27,123,5320011,,,2024-03-12,清算の結了等,,,2015-10-05,1,,,,,アイルビー,0
1341,6180001114429,登記記録の閉鎖等,0,2024-03-15,2024-03-08,株式会社Ａｓｕｎａｒｏ,,株式会社,愛知県,名古屋市中区,大須４丁目１番２号三玉ビル４階,,23,106,4600011,,,2024-03-08,清算の結了等,,,2015-10-05,1,,,,,アスナロ,0
1368,6260002006105,登記記録の閉鎖等,0,2024-03-15,2024-03-13,有限会社高橋建装,,有限会社,岡山県,岡山市南区,浦安南町１７３番地の１,,33,104,7028024,,,2024-03-13,清算の結了等,,,2015-10-05,1,,,,,タカハシケンソウ,0
1395,6430002066247,登記記録の閉鎖等,0,2024-03-15,2024-03-13,有限会社誠翔工業,,有限会社,北海道,伊達市,館山下町１５番地７,,01,233,0520034,,,2024-03-13,清算の結了等,,,2015-10-05,1,,,,,,0
1400,6470001016364,登記記録の閉鎖等,0,2024-03-15,2024-03-14,株式会社来来ファーム,,株式会社,香川県,高松市,塩江町安原下第３号６９４番地２,,37,201,7611503,,,2024-03-14,清算の結了等,,,2017-06-13,1,,,,,ライライファーム,0
1407,6500002001667,登記記録の閉鎖等,0,2024-03-15,2024-03-13,有限会社大澤印刷所,,有限会社,愛媛県,松山市,三津２丁目１６番２６号,,38,201,7918061,,,2024-03-13,清算の結了等,,,2015-10-05,1,,,,,オオサワインサツジョ,0
1416,7010001237856,登記記録の閉鎖等,0,2024-03-15,2024-03-07,株式会社幸栄社,,株式会社,東京都,文京区,春日２丁目２２番５号,,13,105,1120003,,,2024-03-07,清算の結了等,,,2023-08-21,1,,,,,コウエイシャ,0
1418,7010003027339,登記記録の閉鎖等,0,2024-03-15,2024-03-11,合同会社西金アライアンス,,合同会社,東京都,港区,六本木１丁目９番１０号アークヒルズ仙石山森タワー４０階,,13,103,1060032,,,2024-03-11,清算の結了等,,,2018-04-13,1,,,,,サイキンアライアンス,0
1426,7010401139371,登記記録の閉鎖等,0,2024-03-15,2024-03-11,株式会社Ｍｕｔｕｒａ,,株式会社,東京都,港区,浜松町２丁目２番１５号２Ｆ,,13,103,1050013,,,2024-03-11,清算の結了等,,,2018-07-05,1,,,,,ムーツラ,0
1428,7010401162654,登記記録の閉鎖等,0,2024-03-15,2024-03-01,ＷＯＫＥ株式会社,,株式会社,東京都,港区,東麻布２丁目３２－７－３Ｆ,,13,103,1060044,,,2024-03-01,合併による解散等,9010401165374,令和６年３月１日東京都港区東麻布２－３２－７－３Ｆｄｉｖｉ株式会社（9010401165374）に合併し解散,2021-09-13,1,,,,,ウォーク,0
1434,7010801002740,登記記録の閉鎖等,0,2024-03-15,2024-03-13,蒲田自動車株式会社,,株式会社,東京都,大田区,南蒲田３丁目１番６号,,13,111,1440035,,,2024-03-13,清算の結了等,,,2015-10-05,1,,,,,カマタジドウシャ,0
1454,7011301000573,登記記録の閉鎖等,0,2024-03-15,2024-03-07,株式会社井口興業,,株式会社,東京都,杉並区,荻窪１丁目５６番３２号,,13,115,1670051,,,2024-03-07,清算の結了等,,,2015-10-05,1,,,,,イグチコウギョウ,0
1461,7012801000798,登記記録の閉鎖等,0,2024-03-15,2024-03-01,セレモアホールディングス株式会社,,株式会社,東京都,立川市,柏町１丁目２７番地の１３,,13,202,1900004,,,2024-03-01,合併による解散等,8012801009302,令和６年３月１日東京都立川市柏町一丁目２６番地の４株式会社セレモア（8012801009302）に合併し解散,2015-10-05,1,,,,,セレモアホールディングス,0
1473,7021001013593,登記記録の閉鎖等,0,2024-03-15,2024-03-12,株式会社野村商事,,株式会社,神奈川県,座間市,相模が丘１丁目１６番６号,,14,216,2520001,,,2024-03-12,清算の結了等,,,2015-10-05,1,,,,,ノムラショウジ,0
1503,7040003022279,登記記録の閉鎖等,0,2024-03-15,2024-03-11,合同会社ジオ,,合同会社,千葉県,千葉市中央区,南生実町８６３番地,,12,101,2600814,,,2024-03-11,清算の結了等,,,2023-03-28,1,,,,,ジオ,0
1510,7050002025414,登記記録の閉鎖等,0,2024-03-15,2024-03-11,有限会社朝日堂商店,,有限会社,茨城県,古河市,諸川３４５番地４,,08,204,3060126,,,2024-03-11,清算の結了等,,,2015-10-05,1,,,,,,0
1518,7080105005822,登記記録の閉鎖等,0,2024-03-15,2024-03-13,特定非営利活動法人フジスタイル,,その他の設立登記法人,静岡県,富士市,柚木４２８番地の５,,22,210,4160908,,,2024-03-13,清算の結了等,,,2018-02-02,1,,,,,フジスタイル,0
1525,7120001020615,登記記録の閉鎖等,0,2024-03-15,2024-03-12,サンフィールドエレクトリック株式会社,,株式会社,大阪府,大阪市平野区,長吉長原４丁目１４番２３号,,27,126,5470016,,,2024-03-12,清算の結了等,,,2015-10-05,1,,,,,サンフィールドエレクトリック,0
1526,7120001055116,登記記録の閉鎖等,0,2024-03-15,2024-03-14,株式会社コイケ,,株式会社,大阪府,大阪市淀川区,三津屋北２丁目１５番３９号,,27,123,5320032,,,2024-03-14,清算の結了等,,,2015-10-05,1,,,,,コイケ,0
1551,7122002006064,登記記録の閉鎖等,0,2024-03-15,2024-03-13,有限会社福井文財堂,,有限会社,大阪府,東大阪市,長田中３丁目５番４４号,,27,227,5770013,,,2024-03-13,清算の結了等,,,2015-10-05,1,,,,,フクイブンザイドウ,0
1566,7180001067849,登記記録の閉鎖等,0,2024-03-15,2024-03-06,株式会社ジャパンペットサービス,,株式会社,愛知県,長久手市,根の神２０６番地,,23,238,4801141,,,2024-03-06,清算の結了等,,,2015-10-05,1,,,,,ジャパンペットサービス,0
1588,7250001001874,登記記録の閉鎖等,0,2024-03-15,2024-03-13,内崎建設株式会社,,株式会社,山口県,防府市,大字浜方９２４番地,,35,206,7470833,,,2024-03-13,清算の結了等,,,2015-10-05,1,,,,,,0
1612,7330003008174,登記記録の閉鎖等,0,2024-03-15,2024-03-08,合同会社住宅研究社,,合同会社,熊本県,山鹿市,山鹿３７９番地４,,43,208,8610501,,,2024-03-08,清算の結了等,,,2019-12-04,1,,,,,ジュウタクケンキュウシャ,0
1626,7370002001738,登記記録の閉鎖等,0,2024-03-15,2024-03-11,有限会社マスダビークル,,有限会社,宮城県,仙台市泉区,虹の丘２丁目１番地の１３,,04,105,9818007,,,2024-03-11,清算の結了等,,,2015-10-05,1,,,,,マスダビークル,0
1657,8010001119830,登記記録の閉鎖等,0,2024-03-15,2024-03-11,株式会社ＪＡＫ,,株式会社,東京都,千代田区,神田鍛冶町３丁目５番地４号,,13,101,1010045,,,2024-03-11,清算の結了等,,,2015-10-05,1,,,,,ジェーエーケー,0
1659,8010001127478,登記記録の閉鎖等,0,2024-03-15,2024-03-07,株式会社アスカロン,,株式会社,東京都,中央区,日本橋兜町１７番２号兜町第６葉山ビル４階,,13,102,1030026,,,2024-03-07,清算の結了等,,,2015-10-05,1,,,,,アスカロン,0
1662,8010001208022,登記記録の閉鎖等,0,2024-03-15,2024-03-12,株式会社ＮＥＳＴＯ,,株式会社,東京都,千代田区,平河町２丁目５番３号,,13,101,1020093,,,2024-03-12,清算の結了等,,,2020-03-06,1,,,,,ネスト,0
1669,8010003034433,登記記録の閉鎖等,0,2024-03-15,2024-03-11,Ｆ．Ｇ．Ｍ合同会社,,合同会社,東京都,港区,赤坂７丁目５番６－６０１号,,13,103,1070052,,,2024-03-11,清算の結了等,,,2021-03-19,1,,,,,エフジーエム,0
1683,8011001000484,登記記録の閉鎖等,0,2024-03-15,2024-03-13,株式会社アイ・ビイ・イイ,,株式会社,東京都,渋谷区,千駄ヶ谷２丁目３９番３号,,13,113,1510051,,,2024-03-13,清算の結了等,,,2015-10-05,1,,,,,アイビイイイ,0
1719,8020001126264,登記記録の閉鎖等,0,2024-03-15,2024-03-11,株式会社康栄,,株式会社,神奈川県,横浜市鶴見区,豊岡町１７番５号,,14,101,2300062,,,2024-03-11,清算の結了等,,,2018-05-11,1,,,,,コウエイ,0
1721,8020003013353,登記記録の閉鎖等,0,2024-03-15,2024-03-13,ウノ・グローバル・メディア合同会社,,合同会社,神奈川県,横浜市神奈川区,橋本町２丁目５番３ＳＥ１００２,,14,102,2210053,,,2024-03-13,清算の結了等,,,2017-09-28,1,,,,,ウノグローバルメディア,0
1733,8030002093503,登記記録の閉鎖等,0,2024-03-15,2024-03-11,有限会社南蛮家,,有限会社,埼玉県,鶴ヶ島市,富士見１丁目９番１０号,,11,241,3502201,,,2024-03-11,清算の結了等,,,2015-10-05,1,,,,,ナンバンヤ,0
1762,8080401002514,登記記録の閉鎖等,0,2024-03-15,2024-03-13,株式会社菅野人形,,株式会社,静岡県,浜松市中央区,龍禅寺町２９１番地,,22,138,4300924,,,2024-03-13,清算の結了等,,,2015-10-05,1,,,,,,0
1765,8080405004688,登記記録の閉鎖等,0,2024-03-15,2024-03-13,大浜給食協同組合,,その他の設立登記法人,静岡県,掛川市,三俣１３５０番地の１,,22,213,4371416,,,2024-03-13,清算の結了等,,,2015-10-05,1,,,,,オオハマキュウショク,0
1790,8140002043447,登記記録の閉鎖等,0,2024-03-15,2024-03-13,有限会社シオザキ,,有限会社,兵庫県,尼崎市,富松町１丁目２４番６号,,28,202,6610003,,,2024-03-13,清算の結了等,,,2015-10-05,1,,,,,シオザキ,0
1795,8180001081320,登記記録の閉鎖等,0,2024-03-15,2024-03-12,株式会社モノリス空間設計研究所,,株式会社,奈良県,奈良市,左京１丁目６番地の２０,,29,201,6310801,,,2024-03-12,清算の結了等,,,2015-10-05,1,,,,,モノリスクウカンセッケイケンキュウショ,0
1797,8180002020979,登記記録の閉鎖等,0,2024-03-15,2024-03-07,有限会社ワイズクリエイティブ,,有限会社,愛知県,名古屋市東区,泉１丁目１３番２５号,,23,102,4610001,,,2024-03-07,清算の結了等,,,2015-10-05,1,,,,,ワイズクリエイティブ,0
1799,8180002071312,登記記録の閉鎖等,0,2024-03-15,2024-03-11,有限会社大和,,有限会社,愛知県,春日井市,東野町９丁目１５番地１,,23,206,4860817,,,2024-03-11,清算の結了等,,,2015-10-05,1,,,,,ダイワ,0
1804,8190002002398,登記記録の閉鎖等,0,2024-03-15,2024-03-11,有限会社ミツワ化成,,有限会社,三重県,津市,安濃町野口字船山１０６０番地の１,,24,201,5142321,,,2024-03-11,清算の結了等,,,2015-10-05,1,,,,,ミツワカセイ,0
1805,8200002004021,登記記録の閉鎖等,0,2024-03-15,2024-03-13,有限会社ふとんの兄弟屋,,有限会社,岐阜県,岐阜市,加納朝日町２丁目３７番地,,21,201,5008452,,,2024-03-13,清算の結了等,,,2015-10-05,1,,,,,フトンノキョウダイヤ,0
1811,8240002002112,登記記録の閉鎖等,0,2024-03-15,2024-03-13,有限会社栄徳興産,,有限会社,広島県,広島市中区,江波栄町４番３０号,,34,101,7300836,,,2024-03-13,清算の結了等,,,2015-10-05,1,,,,,,0
1812,8240002036647,登記記録の閉鎖等,0,2024-03-15,2024-03-13,有限会社設計室原本,,有限会社,広島県,廿日市市,四季が丘１１丁目２番地の７,,34,213,7380036,,,2024-03-13,清算の結了等,,,2015-10-05,1,,,,,セッケイシツハラモト,0
1864,8460302001080,登記記録の閉鎖等,0,2024-03-15,2024-03-14,有限会社道東非破壊検査,,有限会社,北海道,北見市,北進町１丁目１５番２０号,,01,208,0900052,,,2024-03-14,清算の結了等,,,2015-10-05,1,,,,,ドウトウヒハカイケンサ,0
1890,9010401093674,登記記録の閉鎖等,0,2024-03-15,2024-03-12,ソフィア株式会社,,株式会社,東京都,港区,海岸１丁目１番１号,,13,103,1050022,,,2024-03-12,清算の結了等,,,2015-10-05,1,,,,,ソフィア,0
1935,9013301028849,登記記録の閉鎖等,0,2024-03-15,2024-03-04,株式会社ベストワン,,株式会社,東京都,豊島区,池袋２丁目３６番１号,,13,116,1710014,,,2024-03-04,清算の結了等,,,2015-10-05,1,,,,,ベストワン,0
1938,9013301047709,登記記録の閉鎖等,0,2024-03-15,2024-03-11,株式会社ズームファースト,,株式会社,東京都,豊島区,南長崎４丁目１６番１４号,,13,116,1710052,,,2024-03-11,清算の結了等,,,2021-07-09,1,,,,,ズームファースト,0
1955,9021005002145,登記記録の閉鎖等,0,2024-03-15,2024-03-05,特定非営利活動法人ＺＥＲＩエデュケーション・ジャパン,,その他の設立登記法人,神奈川県,鎌倉市,小町２丁目１８番９号,,14,204,2480006,,,2024-03-05,清算の結了等,,,2015-10-05,1,,,,,ゼリエデュケーションジャパン,0
1958,9030001050149,登記記録の閉鎖等,0,2024-03-15,2024-03-13,株式会社ＴＡＰクリエーション,,株式会社,埼玉県,朝霞市,田島２丁目１４番２２号,,11,227,3510032,,,2024-03-13,清算の結了等,,,2015-10-05,1,,,,,,0
1969,9030002096083,登記記録の閉鎖等,0,2024-03-15,2024-03-07,有限会社つきもと,,有限会社,埼玉県,東松山市,神明町１丁目５番２号,,11,212,3550021,,,2024-03-07,清算の結了等,,,2015-10-05,1,,,,,ツキモト,0
1977,9040001065344,登記記録の閉鎖等,0,2024-03-15,2024-03-11,株式会社オチアイセラミック,,株式会社,千葉県,柏市,花野井７３８番地１７,,12,217,2770812,,,2024-03-11,清算の結了等,,,2015-10-05,1,,,,,オチアイセラミック,0
1980,9040002049552,登記記録の閉鎖等,0,2024-03-15,2024-03-12,有限会社ヨネザワ塗装,,有限会社,千葉県,松戸市,主水新田４７９番地の４,,12,207,2710042,,,2024-03-12,清算の結了等,,,2015-10-05,1,,,,,ヨネザワトソウ,0
1991,9070002003580,登記記録の閉鎖等,0,2024-03-15,2024-03-12,有限会社中央謄写堂,,有限会社,群馬県,前橋市,南町２丁目６９番地１,,10,201,3710805,,,2024-03-12,清算の結了等,,,2015-10-05,1,,,,,,0
1992,9070002021839,登記記録の閉鎖等,0,2024-03-15,2024-03-12,有限会社ワイジーケイ,,有限会社,群馬県,伊勢崎市,日乃出町９５２番地２,,10,204,3720022,,,2024-03-12,清算の結了等,,,2015-10-05,1,,,,,,0
1999,9080103002497,登記記録の閉鎖等,0,2024-03-15,2024-03-12,熱海開発合同会社,,合同会社,静岡県,熱海市,東海岸町３番地１９号,,22,205,4130012,,,2024-03-12,清算の結了等,,,2022-01-18,1,,,,,アタミカイハツ,0
2015,9120001223777,登記記録の閉鎖等,0,2024-03-15,2024-03-12,株式会社ちゅうりっぷケアセンター,,株式会社,大阪府,大阪市西成区,千本北２丁目１３番１号２Ｆ,,27,122,5570053,,,2024-03-12,清算の結了等,,,2019-09-13,1,,,,,チュウリップケアセンター,0
2024,9120902007576,登記記録の閉鎖等,0,2024-03-15,2024-03-13,有限会社物理療法中村,,有限会社,大阪府,吹田市,原町１丁目６番１３号,,27,205,5640004,,,2024-03-13,清算の結了等,,,2015-10-05,1,,,,,ブツリリョウホウナカムラ,0
2032,9140001015438,登記記録の閉鎖等,0,2024-03-15,2024-03-08,株式会社まさえもん,,株式会社,兵庫県,神戸市北区,南五葉２丁目１番２８号,,28,109,6511132,,,2024-03-08,清算の結了等,,,2015-10-05,1,,,,,マサエモン,0
2033,9140001078658,登記記録の閉鎖等,0,2024-03-15,2024-03-11,東洋ミネラルウール株式会社,,株式会社,兵庫県,伊丹市,桑津１丁目６番１号,,28,207,6640839,,,2024-03-11,清算の結了等,,,2015-10-05,1,,,,,トウヨウミネラルウール,0
2049,9180002022272,登記記録の閉鎖等,0,2024-03-15,2024-03-06,有限会社水野リース工業,,有限会社,愛知県,名古屋市緑区,鳥澄２丁目１０４,,23,114,4580025,,,2024-03-06,清算の結了等,,,2015-10-05,1,,,,,ミズノリースコウギョウ,0
2067,9230005003487,登記記録の閉鎖等,0,2024-03-15,2024-03-12,魚津食糧販売企業組合,,その他の設立登記法人,富山県,魚津市,中央通り１丁目３番３０号,,16,204,9370055,,,2024-03-12,清算の結了等,,,2015-10-05,1,,,,,ウオヅショクリョウハンバイ,0
2070,9240002006178,登記記録の閉鎖等,0,2024-03-15,2024-03-12,有限会社小林蒲鉾店,,有限会社,広島県,広島市西区,草津南１丁目１２番１２号,,34,104,7330863,,,2024-03-12,清算の結了等,,,2015-10-05,1,,,,,コバヤシカマボコテン,0
2079,9290001067712,登記記録の閉鎖等,0,2024-03-15,2024-03-07,株式会社管原コーポレーション,,株式会社,福岡県,福岡市東区,香椎駅前２丁目４番４号,,40,131,8130013,,,2024-03-07,清算の結了等,,,2015-10-05,1,,,,,スガワラコーポレーション,0
2085,9290802023830,登記記録の閉鎖等,0,2024-03-15,2024-03-13,有限会社添田鉄工,,有限会社,福岡県,京都郡苅田町,長浜町３５番地,,40,621,8000311,,,2024-03-13,清算の結了等,,,2015-10-05,1,,,,,ソエダテッコウ,0
2089,9320001014561,登記記録の閉鎖等,0,2024-03-15,2024-03-13,株式会社美農里,,株式会社,大分県,臼杵市,大字臼杵字田町３３０番地１,,44,206,8750041,,,2024-03-13,合併による解散等,4310001009518,令和６年３月１日長崎県諫早市東小路町２番２８号株式会社温仙堂（4310001009518）に合併し解散,2015-11-12,1,,,,,ミノリ,0
2099,9370301003524,登記記録の閉鎖等,0,2024-03-15,2024-03-06,テック東日本株式会社,,株式会社,宮城県,石巻市,松並１丁目１４番５号,,04,202,9860028,,,2024-03-06,清算の結了等,,,2015-10-05,1,,,,,テックヒガシニホン,0
2107,9430001051073,登記記録の閉鎖等,0,2024-03-15,2024-03-08,北進鉱業株式会社,,株式会社,北海道,余市郡仁木町,然別国有地内,,01,407,0482403,,,2024-03-08,清算の結了等,,,2015-10-05,1,,,,,ホクシンコウギョウ,0
2113,9430003012008,登記記録の閉鎖等,0,2024-03-15,2024-03-11,合同会社小樽屋運河本店,,合同会社,北海道,小樽市,港町６番５号,,01,203,0470007,,,2024-03-11,清算の結了等,,,2020-10-05,1,,,,,オタルウンガヤホンテン,0
