sequenceNumber,corporateNumber,process,correct,updateDate,changeDate,name,nameImageId,kind,prefectureName,cityName,streetNumber,addressImageId,prefectureCode,cityCode,postCode,addressOutside,addressOutsideImageId,closeDate,closeCause,successorCorporateNumber,changeCause,assignmentDate,latest,enName,enPrefectureName,enCityName,enAddressOutside,furigana,hihyoji
11,1010003038655,登記記録の閉鎖等,0,2025-01-09,2024-12-20,ドゥロワー合同会社,,合同会社,東京都,中央区,銀座７丁目１３番２１号銀座ｓｉｎｒｏｋｕｓｙｕビル２階,,13,102,1040061,,,2024-12-20,清算の結了等,,,2022-09-14,1,,,,,ドゥロワー,0
15,1010005028308,登記記録の閉鎖等,0,2025-01-09,2025-01-06,ＨＡＭ一般社団法人,,その他の設立登記法人,東京都,千代田区,丸の内１丁目４番１号東京共同会計事務所内,,13,101,1000005,,,2025-01-06,清算の結了等,,,2018-04-02,1,,,,,エイチエーエム,0
50,1011003005133,登記記録の閉鎖等,0,2025-01-09,2024-12-23,合同会社フットフォレスト,,合同会社,東京都,品川区,小山６丁目２４番９号,,13,109,1420062,,,2024-12-23,清算の結了等,,,2015-10-05,1,,,,,フットフォレスト,0
59,1011301020362,登記記録の閉鎖等,0,2025-01-09,2024-12-24,株式会社メジロ,,株式会社,東京都,新宿区,西新宿７丁目１６番３号,,13,104,1600023,,,2024-12-24,清算の結了等,,,2015-10-05,1,,,,,メジロ,0
70,1013201015888,登記記録の閉鎖等,0,2025-01-09,2024-12-16,株式会社ザイヤ,,株式会社,東京都,目黒区,下目黒１丁目１番１４号,,13,110,1530064,,,2024-12-16,清算の結了等,,,2015-10-05,1,,,,,ザイヤ,0
77,1020001076086,登記記録の閉鎖等,0,2025-01-09,2025-01-06,株式会社湘南企画,,株式会社,神奈川県,秦野市,大秦町１番７号半田ビル１Ｆ,,14,211,2570034,,,2025-01-06,合併による解散等,5021001054755,令和６年１２月３１日神奈川県秦野市鶴巻南四丁目２０番１号株式会社アーニー（5021001054755）に合併し解散,2015-10-05,1,,,,,ショウナンキカク,0
78,1020001091259,登記記録の閉鎖等,0,2025-01-09,2024-12-18,株式会社シーホークジャパン,,株式会社,神奈川県,川崎市高津区,北見方２丁目６番２２－２３６号,,14,134,2130005,,,2024-12-18,清算の結了等,,,2015-10-05,1,,,,,シーホークジャパン,0
95,1030001038481,登記記録の閉鎖等,0,2025-01-09,2024-12-27,株式会社中村電設,,株式会社,埼玉県,三郷市,岩野木１７５番地５,,11,237,3410031,,,2024-12-27,清算の結了等,,,2015-10-05,1,,,,,ナカムラデンセツ,0
137,1100002005481,登記記録の閉鎖等,0,2025-01-09,2025-01-06,有限会社山広広木屋商店,,有限会社,長野県,長野市,三輪１丁目２３番７号,,20,201,3800803,,,2025-01-06,清算の結了等,,,2015-10-05,1,,,,,ヤマヒロヒロキヤショウテン,0
145,1120001022807,登記記録の閉鎖等,0,2025-01-09,2025-01-08,奥留興産株式会社,,株式会社,大阪府,大阪市天王寺区,勝山４丁目２番１２号,,27,109,5430043,,,2025-01-08,清算の結了等,,,2015-10-05,1,,,,,オクドメコウサン,0
147,1120001185447,登記記録の閉鎖等,0,2025-01-09,2025-01-08,岡田建設株式会社,,株式会社,大阪府,枚方市,大垣内町３丁目３番６号,,27,210,5730027,,,2025-01-08,清算の結了等,,,2015-10-05,1,,,,,オカダケンセツ,0
173,1130001017624,登記記録の閉鎖等,0,2025-01-09,2025-01-06,株式会社ＫＩＮＳＨＡオプティムス,,株式会社,京都府,京都市下京区,室町通五条上る坂東屋町２６７番,,26,106,6008439,,,2025-01-06,合併による解散等,2130001020536,令和６年１２月３１日京都市下京区室町通五条上る坂東屋町２６７番株式会社ＫＩＮＳＨＡ（2130001020536）に合併し解散,2015-10-05,1,,,,,キンシャオプティムス,0
186,1140002038791,登記記録の閉鎖等,0,2025-01-09,2024-12-26,有限会社Ｋ．Ｔ．Ｋ,,有限会社,兵庫県,加古川市,新神野５丁目７番２号,,28,210,6750008,,,2024-12-26,清算の結了等,,,2015-10-05,1,,,,,ケーティーケー,0
204,1180003024275,登記記録の閉鎖等,0,2025-01-09,2024-12-24,ハクスイマシンサービス合同会社,,合同会社,愛知県,名古屋市港区,船見町３０番地,,23,111,4550027,,,2024-12-24,清算の結了等,,,2022-09-20,1,,,,,ハクスイマシンサービス,0
215,1230001013134,登記記録の閉鎖等,0,2025-01-09,2025-01-06,株式会社とやまベイマリーナ,,株式会社,富山県,射水市,海竜新町２番地,,16,211,9390300,,,2025-01-06,清算の結了等,,,2015-10-05,1,,,,,トヤマベイマリーナ,0
216,1230002011021,登記記録の閉鎖等,0,2025-01-09,2025-01-06,有限会社宏南,,有限会社,富山県,高岡市,京田２８０番地,,16,202,9330874,,,2025-01-06,清算の結了等,,,2015-10-05,1,,,,,コウナン,0
217,1240001020377,登記記録の閉鎖等,0,2025-01-09,2025-01-06,株式会社グリーンエンジニア,,株式会社,広島県,広島市安佐北区,亀山南２丁目７０番１号,,34,106,7310232,,,2025-01-06,清算の結了等,,,2015-10-05,1,,,,,グリーンエンジニア,0
233,1310002006401,登記記録の閉鎖等,0,2025-01-09,2024-12-26,有限会社森和建設,,有限会社,長崎県,諫早市,貝津町２８９９番地５,,42,204,8540063,,,2024-12-26,清算の結了等,,,2015-10-05,1,,,,,シンワケンセツ,0
234,1320001017571,登記記録の閉鎖等,0,2025-01-09,2025-01-06,株式会社エヌ・エー・テック,,株式会社,大分県,大分市,大字東上野１０番地の１０,,44,201,8700306,,,2025-01-06,清算の結了等,,,2020-03-02,1,,,,,エヌエーテック,0
238,1330001021044,登記記録の閉鎖等,0,2025-01-09,2024-12-26,株式会社ＫＭＭプランニング,,株式会社,熊本県,熊本市中央区,新屋敷１丁目１３番１３号,,43,101,8620975,,,2024-12-26,清算の結了等,,,2015-10-05,1,,,,,ケイエムエムプランニング,0
257,1390002012615,登記記録の閉鎖等,0,2025-01-09,2024-12-27,有限会社一楽荘,,有限会社,山形県,米沢市,中央２丁目２番１９号,,06,202,9920045,,,2024-12-27,清算の結了等,,,2015-10-05,1,,,,,イチラクソウ,0
259,1420002000896,登記記録の閉鎖等,0,2025-01-09,2024-12-27,有限会社北日本商事,,有限会社,青森県,青森市,青柳１丁目１０番３号,,02,201,0300811,,,2024-12-27,清算の結了等,,,2015-10-05,1,,,,,キタニホンショウジ,0
262,1430001018419,登記記録の閉鎖等,0,2025-01-09,2024-12-27,株式会社陸王,,株式会社,北海道,札幌市中央区,南二十一条西１１丁目１番１号,,01,101,0640921,,,2024-12-27,清算の結了等,,,2022-06-07,1,,,,,リクオウ,0
274,1500001008552,登記記録の閉鎖等,0,2025-01-09,2025-01-06,ランドアート株式会社,,株式会社,広島県,廿日市市,陽光台１丁目８番地１９,,34,213,7380060,,,2025-01-06,合併による解散等,6240002023894,令和７年１月１日広島県廿日市市陽光台一丁目８番地１９時の花産業株式会社（6240002023894）に合併し解散,2015-10-05,1,,,,,ランドアート,0
280,2010001175862,登記記録の閉鎖等,0,2025-01-09,2024-12-09,株式会社パークフロンティア,,株式会社,東京都,渋谷区,恵比寿１丁目２１番１７号,,13,113,1500013,,,2024-12-09,清算の結了等,,,2016-05-24,1,,,,,パークフロンティア,0
293,2010002015778,登記記録の閉鎖等,0,2025-01-09,2024-12-26,有限会社東京保険リサーチオフィス,,有限会社,栃木県,宇都宮市,上桑島町８００番２,,09,201,3210913,,,2024-12-26,清算の結了等,,,2015-10-05,1,,,,,トウキョウホケンリサーチオフィス,0
295,2010005024710,登記記録の閉鎖等,0,2025-01-09,2024-12-11,一般社団法人個人の尊厳を護るための財産管理を考える会,,その他の設立登記法人,東京都,港区,芝５丁目３０番６号３階３０１号室,,13,103,1080014,,,2024-12-11,清算の結了等,,,2015-12-09,1,,,,,コジンノソンゲンヲマモルタメノザイサンカンリヲカンガエルカイ,0
336,2011802027459,登記記録の閉鎖等,0,2025-01-09,2024-12-25,有限会社アンクコーポレーション,,有限会社,東京都,葛飾区,西水元３丁目３３番３号,,13,122,1250031,,,2024-12-25,清算の結了等,,,2015-10-05,1,,,,,アンクコーポレーション,0
342,2012802010396,登記記録の閉鎖等,0,2025-01-09,2024-12-24,有限会社スマイルワン,,有限会社,東京都,立川市,幸町２丁目４３番地７,,13,202,1900002,,,2024-12-24,清算の結了等,,,2015-10-05,1,,,,,スマイルワン,0
347,2013301043210,登記記録の閉鎖等,0,2025-01-09,2024-12-20,株式会社ジャパンコンテンツファクトリープロダクション,,株式会社,東京都,千代田区,紀尾井町３番１２号,,13,101,1020094,,,2024-12-20,清算の結了等,,,2018-12-11,1,,,,,ジャパンコンテンツファクトリープロダクション,0
349,2013303002313,登記記録の閉鎖等,0,2025-01-09,2024-12-25,合同会社エスコーポレーション,,合同会社,東京都,豊島区,池袋２丁目４番３号,,13,116,1710014,,,2024-12-25,清算の結了等,,,2015-10-05,1,,,,,エスコーポレーション,0
351,2020001060626,登記記録の閉鎖等,0,2025-01-09,2024-12-18,株式会社ミレディヨコハマ,,株式会社,神奈川県,横浜市金沢区,福浦１丁目２番地１３,,14,108,2360004,,,2024-12-18,清算の結了等,,,2015-10-05,1,,,,,ミレディヨコハマ,0
359,2020003015850,登記記録の閉鎖等,0,2025-01-09,2025-01-07,合同会社フューチャー・ヴィジョン,,合同会社,神奈川県,相模原市中央区,宮下本町１丁目４４番１５号,,14,152,2520211,,,2025-01-07,清算の結了等,,,2019-04-03,1,,,,,フューチャーヴィジョン,0
370,2030001140823,登記記録の閉鎖等,0,2025-01-09,2024-12-27,株式会社ウィズホーム,,株式会社,埼玉県,川口市,戸塚東１丁目１１番６号,,11,203,3330802,,,2024-12-27,清算の結了等,,,2021-02-18,1,,,,,ウィズホーム,0
392,2050001053271,登記記録の閉鎖等,0,2025-01-09,2024-12-26,株式会社スッキリ,,株式会社,茨城県,水戸市,河和田町３８９１番地５９０,,08,201,3114153,,,2024-12-26,清算の結了等,,,2023-08-14,1,,,,,スッキリ,0
396,2060002033998,登記記録の閉鎖等,0,2025-01-09,2024-12-27,有限会社麺ズ倶楽部,,有限会社,栃木県,栃木市,惣社町１７８５番地,,09,203,3280002,,,2024-12-27,清算の結了等,,,2015-10-05,1,,,,,メンズクラブ,0
410,2080002016737,登記記録の閉鎖等,0,2025-01-09,2024-12-27,有限会社ツカサ,,有限会社,静岡県,焼津市,大島８４５番地,,22,212,4250066,,,2024-12-27,清算の結了等,,,2015-10-05,1,,,,,ツカサ,0
419,2090002003932,登記記録の閉鎖等,0,2025-01-09,2024-12-25,名大電気工事有限会社,,有限会社,山梨県,甲斐市,西八幡３５２９番地１,,19,210,4000117,,,2024-12-25,清算の結了等,,,2015-10-05,1,,,,,メイダイデンキコウジ,0
424,2110001036039,登記記録の閉鎖等,0,2025-01-09,2025-01-06,株式会社エマリー,,株式会社,新潟県,五泉市,五泉２４８７番地６,,15,218,9591851,,,2025-01-06,清算の結了等,,,2021-09-13,1,,,,,エマリー,0
426,2120001070796,登記記録の閉鎖等,0,2025-01-09,2025-01-06,圓見工業株式会社,,株式会社,大阪府,大阪市北区,中崎１丁目６番２５号,,27,127,5300016,,,2025-01-06,清算の結了等,,,2015-10-05,1,,,,,エンミコウギョウ,0
467,2140002020360,登記記録の閉鎖等,0,2025-01-09,2024-12-27,有限会社オーエス・センサ,,有限会社,兵庫県,神戸市北区,桂木２丁目１０番地の２,,28,109,6511223,,,2024-12-27,清算の結了等,,,2015-10-05,1,,,,,オーエスセンサ,0
468,2140002038048,登記記録の閉鎖等,0,2025-01-09,2024-12-27,有限会社プロテック,,有限会社,兵庫県,加古郡播磨町,古宮３丁目１番３６号,,28,382,6750163,,,2024-12-27,清算の結了等,,,2015-10-05,1,,,,,プロテック,0
471,2140005022024,登記記録の閉鎖等,0,2025-01-09,2025-01-06,一般社団法人社員の絆協会,,その他の設立登記法人,兵庫県,神戸市中央区,八幡通４丁目２番１８号,,28,110,6510085,,,2025-01-06,合併による解散等,7140005005040,令和７年１月５日神戸市中央区八幡通四丁目２番１８号一般社団法人日本定年力検定協会（7140005005040）に合併し解散,2015-10-05,1,,,,,シャインノキズナキョウカイ,0
481,2180001040001,登記記録の閉鎖等,0,2025-01-09,2024-12-25,株式会社ひかりタイプ,,株式会社,愛知県,名古屋市東区,泉１丁目１４番２３号,,23,102,4610001,,,2024-12-25,清算の結了等,,,2015-10-05,1,,,,,ヒカリタイプ,0
493,2180002011769,登記記録の閉鎖等,0,2025-01-09,2024-12-23,有限会社瀬川建材,,有限会社,愛知県,小牧市,大字二重堀４７６番地１,,23,219,4850021,,,2024-12-23,清算の結了等,,,2015-10-05,1,,,,,セガワケンザイ,0
499,2180005019256,登記記録の閉鎖等,0,2025-01-09,2024-12-25,一般社団法人国際力創造協会５Ｃｓ,,その他の設立登記法人,愛知県,名古屋市瑞穂区,下山町１丁目２１番地の４０,,23,108,4670049,,,2024-12-25,清算の結了等,,,2021-04-20,1,,,,,コクサイリョクソウゾウキョウカイファイブシィズ,0
507,2220003002531,登記記録の閉鎖等,0,2025-01-09,2025-01-06,合同会社ユニオンライン,,合同会社,石川県,金沢市,泉本町４丁目３３番地６,,17,201,9218042,,,2025-01-06,合併による解散等,5220001019855,令和７年１月１日石川県金沢市八日市二丁目３９３番地株式会社ユニオン（5220001019855）に合併し解散,2019-01-08,1,,,,,ユニオンライン,0
512,2240001011771,登記記録の閉鎖等,0,2025-01-09,2025-01-06,株式会社元山,,株式会社,広島県,広島市中区,大手町３丁目２番１９号パーソンライフビル２Ｆ,,34,101,7300051,,,2025-01-06,清算の結了等,,,2015-10-05,1,,,,,モトヤマ,0
524,2260002023500,登記記録の閉鎖等,0,2025-01-09,2024-12-23,有限会社英明工業,,有限会社,岡山県,総社市,清音軽部５１２番地,,33,208,7191172,,,2024-12-23,清算の結了等,,,2015-10-05,1,,,,,エイメイコウギョウ,0
526,2290001000860,登記記録の閉鎖等,0,2025-01-09,2024-12-16,栄日測量設計株式会社,,株式会社,福岡県,福岡市南区,長住６丁目７番１２号,,40,134,8111362,,,2024-12-16,清算の結了等,,,2015-10-05,1,,,,,エイニチソクリョウセッケイ,0
541,2300001013431,登記記録の閉鎖等,0,2025-01-09,2025-01-06,株式会社ユニホーム,,株式会社,佐賀県,佐賀市,若宮１丁目９番１０－１号,,41,201,8490926,,,2025-01-06,合併による解散等,8300001005076,令和６年１２月３１日佐賀県杵島郡江北町大字惣領分１８０７番地株式会社三根（8300001005076）に合併し解散,2023-08-14,1,,,,,ユニホーム,0
545,2320002009328,登記記録の閉鎖等,0,2025-01-09,2025-01-06,有限会社大分ツアーシステム,,有限会社,大分県,大分市,城崎町２丁目２番１８号,,44,201,8700045,,,2025-01-06,清算の結了等,,,2015-10-05,1,,,,,オオイタツアーシステム,0
566,2390002013843,登記記録の閉鎖等,0,2025-01-09,2024-12-27,有限会社エス・アンド・イー,,有限会社,山形県,東置賜郡高畠町,大字福沢６６３番地１,,06,381,9992174,,,2024-12-27,清算の結了等,,,2015-10-05,1,,,,,エスアンドイー,0
567,2400002004709,登記記録の閉鎖等,0,2025-01-09,2024-12-25,有限会社エフピー・ステーション,,有限会社,岩手県,盛岡市,盛岡駅前北通７番２２号イノカツビル１０３,,03,201,0200033,,,2024-12-25,清算の結了等,,,2015-10-05,1,,,,,エフピーステーション,0
570,2430001061302,登記記録の閉鎖等,0,2025-01-09,2024-12-27,フォルムデザイン株式会社,,株式会社,北海道,恵庭市,黄金北４丁目３番地７,,01,231,0611407,,,2024-12-27,清算の結了等,,,2015-10-05,1,,,,,フォルムデザイン,0
579,2500005004002,登記記録の閉鎖等,0,2025-01-09,2025-01-06,天台寺門宗石鎚修験派総本山明王院仙徳寺,,その他の設立登記法人,愛媛県,西条市,中奥１号１番地,,38,206,7930214,,,2025-01-06,清算の結了等,,,2015-10-05,1,,,,,テンダイジモンシュウイシヅチシュウゲンハソウホンザンミョウオウインセントクジ,0
581,3010001145385,登記記録の閉鎖等,0,2025-01-09,2024-12-20,株式会社ＦＰＧ保険サービス,,株式会社,東京都,千代田区,丸の内２丁目７番２号,,13,101,1000005,,,2024-12-20,清算の結了等,,,2015-10-05,1,,,,,エフピージーホケンサービス,0
594,3010003024273,登記記録の閉鎖等,0,2025-01-09,2024-12-26,合同会社ホース,,合同会社,千葉県,流山市,大字木５０５番地ウエリス南流山１００９,,12,220,2700162,,,2024-12-26,清算の結了等,,,2016-10-18,1,,,,,ホース,0
603,3010601009873,登記記録の閉鎖等,0,2025-01-09,2025-01-06,奥日光開発株式会社,,株式会社,東京都,墨田区,押上２丁目１８番１２号,,13,107,1310045,,,2025-01-06,合併による解散等,4010601014476,令和７年１月１日東京都墨田区押上二丁目１８番１２号東武興業株式会社（4010601014476）に合併し解散,2015-10-05,1,,,,,オクニッコウカイハツ,0
607,3010901047689,登記記録の閉鎖等,0,2025-01-09,2024-12-27,株式会社フォエラ,,株式会社,東京都,世田谷区,駒沢２丁目７番１－４１０号,,13,112,1540012,,,2024-12-27,清算の結了等,,,2020-12-21,1,,,,,フォエラ,0
614,3011001092064,登記記録の閉鎖等,0,2025-01-09,2024-12-25,ＩｎｎｏＣｅｌｌｅｎｃｅ　Ｓｙｓｔｅｍｓ　Ｊａｐａｎ株式会社,,株式会社,東京都,新宿区,西新宿３丁目７番１号新宿パークタワーＮ棟３０階,,13,104,1600023,,,2024-12-25,清算の結了等,,,2015-10-05,1,,,,,イノセレンスシステムズジャパン,0
618,3011001135104,登記記録の閉鎖等,0,2025-01-09,2024-12-16,ＵＣクリエイティブ株式会社,,株式会社,東京都,渋谷区,松濤１丁目２８番５号,,13,113,1500046,,,2024-12-16,清算の結了等,,,2020-08-04,1,,,,,ユーシークリエイティブ,0
619,3011001138791,登記記録の閉鎖等,0,2025-01-09,2024-12-16,株式会社ＵＮＥＲＯＳＥ,,株式会社,東京都,渋谷区,恵比寿４丁目２０－３恵比寿ガーデンプレイス１８階,,13,113,1500013,,,2024-12-16,清算の結了等,,,2021-03-03,1,,,,,ユヌローズ,0
630,3011101009678,登記記録の閉鎖等,0,2025-01-09,2024-12-24,株式会社シュミット物産,,株式会社,東京都,新宿区,矢来町１１０番地,,13,104,1620805,,,2024-12-24,清算の結了等,,,2015-10-05,1,,,,,シュミットブッサン,0
633,3011102002491,登記記録の閉鎖等,0,2025-01-09,2024-12-24,有限会社大茂青果,,有限会社,東京都,新宿区,百人町１丁目９番地１９,,13,104,1690073,,,2024-12-24,清算の結了等,,,2024-08-13,1,,,,,オオシゲセイカ,0
635,3011103011401,登記記録の閉鎖等,0,2025-01-09,2024-12-25,ｎｉｃｅ　ａｎｄ　ｓｌｏｗ合同会社,,合同会社,東京都,新宿区,若松町９番１４－１１０３号,,13,104,1620056,,,2024-12-25,清算の結了等,,,2022-01-28,1,,,,,ナイスアンドスロー,0
637,3011205000335,登記記録の閉鎖等,0,2025-01-09,2024-11-14,天理教徳町分教会,00054365,その他の設立登記法人,東京都,中野区,若宮１丁目８番１３号,,13,114,1650033,,,2024-11-14,合併による解散等,8011505000253,令和６年１１月７日東京都北区滝野川一丁目８６番１号天理教麹町大教会（8011505000253）に合併し解散,2015-10-05,1,,,,,テンリキョウトクマチブンキョウカイ,0
639,3011401026472,登記記録の閉鎖等,0,2025-01-09,2024-12-24,西川食品株式会社,,株式会社,東京都,板橋区,高島平７丁目１４番４号,,13,119,1750082,,,2024-12-24,清算の結了等,,,2024-10-16,1,,,,,ニシカワショクヒン,0
643,3011701019250,登記記録の閉鎖等,0,2025-01-09,2025-01-06,株式会社ライブリー,,株式会社,東京都,江戸川区,西葛西３丁目３番１３号,,13,123,1340088,,,2025-01-06,清算の結了等,,,2015-10-05,1,,,,,,0
649,3012302000260,登記記録の閉鎖等,0,2025-01-09,2024-12-25,有限会社アルガ企画,,有限会社,東京都,町田市,玉川学園４丁目１５番４５号,,13,209,1940041,,,2024-12-25,清算の結了等,,,2015-10-05,1,,,,,アルガキカク,0
652,3012401031818,登記記録の閉鎖等,0,2025-01-09,2025-01-06,株式会社バケット・ティ,,株式会社,東京都,調布市,菊野台１丁目３２番地３４土屋ハイツ２０１,,13,208,1820007,,,2025-01-06,合併による解散等,1012401035184,令和７年１月１日東京都調布市菊野台一丁目３２番地３４土屋ハイツ２０１株式会社ＣＳＰジャパン（1012401035184）に合併し解散,2016-09-08,1,,,,,バケットティ,0
653,3012401036197,登記記録の閉鎖等,0,2025-01-09,2025-01-06,株式会社ＭＯＪＪＯ　Ｊａｐａｎ,,株式会社,岐阜県,岐阜市,長良大路１丁目１６番地２,,21,201,5020031,,,2025-01-06,清算の結了等,,,2020-01-27,1,,,,,モジョジャパン,0
672,3020002061671,登記記録の閉鎖等,0,2025-01-09,2024-12-25,有限会社遊楽舎,,有限会社,神奈川県,横浜市青葉区,大場町３８８番地６５,,14,117,2250023,,,2024-12-25,清算の結了等,,,2015-10-05,1,,,,,ユウラクシャ,0
675,3020003018852,登記記録の閉鎖等,0,2025-01-09,2024-12-18,ＨＣサービス合同会社,,合同会社,神奈川県,横浜市緑区,白山３丁目１８番１４号,,14,113,2260006,,,2024-12-18,清算の結了等,,,2020-11-27,1,,,,,エイチシーサービス,0
685,3030001009506,登記記録の閉鎖等,0,2025-01-09,2025-01-06,株式会社なかやま理化製作所,,株式会社,埼玉県,さいたま市南区,曲本５丁目３番８号,,11,108,3360033,,,2025-01-06,清算の結了等,,,2015-10-05,1,,,,,ナカヤマリカセイサクショ,0
692,3030002089118,登記記録の閉鎖等,0,2025-01-09,2024-12-26,有限会社秋地盤調査事務所,,有限会社,埼玉県,さいたま市見沼区,片柳１丁目２６２番地１４,,11,104,3370024,,,2024-12-26,清算の結了等,,,2015-10-05,1,,,,,アキジバンチョウサジムショ,0
707,3060002007365,登記記録の閉鎖等,0,2025-01-09,2024-12-27,有限会社浜野工業,,有限会社,栃木県,宇都宮市,宮本町４番１号,,09,201,3210163,,,2024-12-27,清算の結了等,,,2015-10-05,1,,,,,ハマノコウギョウ,0
720,3080401005570,登記記録の閉鎖等,0,2025-01-09,2024-12-26,株式会社ヤマダイ,,株式会社,静岡県,浜松市中央区,三方原町１７４２番地の４,,22,138,4338105,,,2024-12-26,清算の結了等,,,2015-10-05,1,,,,,ヤマダイ,0
728,3090002000549,登記記録の閉鎖等,0,2025-01-09,2024-12-25,有限会社大堀服地店,,有限会社,山梨県,甲府市,丸の内２丁目１番９号,,19,201,4000031,,,2024-12-25,清算の結了等,,,2015-10-05,1,,,,,オオホリフクチテン,0
730,3100001025462,登記記録の閉鎖等,0,2025-01-09,2025-01-06,サムタイム株式会社,,株式会社,長野県,松本市,井川城３丁目１１番３号Ｅ,,20,202,3900831,,,2025-01-06,清算の結了等,,,2015-10-05,1,,,,,サムタイム,0
754,3120003010428,登記記録の閉鎖等,0,2025-01-09,2024-12-18,Ｔ・Ｋ・Ｎ合同会社,,合同会社,大阪府,大阪市平野区,平野上町２丁目１番３号,,27,126,5470045,,,2024-12-18,清算の結了等,,,2015-10-05,1,,,,,ティーケーエヌ,0
759,3120101065209,登記記録の閉鎖等,0,2025-01-09,2025-01-06,マテックスアドバンスドエンジニアリング株式会社,,株式会社,大阪府,泉南市,りんくう南浜３番３,,27,228,5900535,,,2025-01-06,合併による解散等,4120101044161,令和７年１月１日大阪府泉南市りんくう南浜４番３３ジャパンマテックス株式会社（4120101044161）に合併し解散,2022-03-10,1,,,,,マテックスアドバンスドエンジニアリング,0
768,3130001024759,登記記録の閉鎖等,0,2025-01-09,2025-01-06,株式会社界グラフィックス,,株式会社,京都府,京都市下京区,不明門通万寿寺上る吉水町４６３番地ＡＫＥＺＵビル,,26,106,6008403,,,2025-01-06,合併による解散等,2130001020536,令和６年１２月３１日京都市下京区室町通五条上る坂東屋町２６７番株式会社ＫＩＮＳＨＡ（2130001020536）に合併し解散,2015-10-05,1,,,,,カイグラフィックス,0
784,3170002003171,登記記録の閉鎖等,0,2025-01-09,2025-01-06,有限会社広谷商会,,有限会社,和歌山県,和歌山市,西浜１６６０番地１３８,,30,201,6410036,,,2025-01-06,合併による解散等,7170002003069,令和７年１月１日和歌山県岩出市山崎２３８番地の１株式会社ヒロテック（7170002003069）に合併し解散,2015-10-05,1,,,,,ヒロタニショウカイ,0
786,3180001069782,登記記録の閉鎖等,0,2025-01-09,2024-12-24,合同エンジニアリング株式会社,,株式会社,愛知県,豊明市,阿野町稲葉１１番地１,,23,229,4701144,,,2024-12-24,清算の結了等,,,2015-10-05,1,,,,,ゴウドウエンジニアリング,0
788,3180001117582,登記記録の閉鎖等,0,2025-01-09,2024-12-25,ワイ・ケイ・エヌ株式会社,,株式会社,愛知県,名古屋市中川区,下之一色町字操出１２番地の２ラ・ラ・キャメロン１０１号,,23,110,4540945,,,2024-12-25,清算の結了等,,,2015-10-05,1,,,,,ワイケイエヌ,0
792,3180002074815,登記記録の閉鎖等,0,2025-01-09,2024-12-24,有限会社ケット,,有限会社,愛知県,犬山市,大字犬山字西古券２番地１,,23,215,4840085,,,2024-12-24,清算の結了等,,,2015-10-05,1,,,,,ケット,0
795,3180301035261,登記記録の閉鎖等,0,2025-01-09,2024-12-25,株式会社シンセイ建築,,株式会社,愛知県,岡崎市,上地１丁目２番地８,,23,202,4440823,,,2024-12-25,清算の結了等,,,2021-08-10,1,,,,,シンセイケンチク,0
806,3200001029123,登記記録の閉鎖等,0,2025-01-09,2025-01-06,株式会社マサヒロ,,株式会社,岐阜県,可児市,桜ケ丘４丁目１２２番地,,21,214,5090235,,,2025-01-06,清算の結了等,,,2015-10-05,1,,,,,マサヒロ,0
809,3200005005715,登記記録の閉鎖等,0,2025-01-09,2024-12-27,農事組合法人平田南部トマト生産施設組合,,その他の設立登記法人,岐阜県,海津市,平田町高田６１８番地の２,,21,221,5030313,,,2024-12-27,清算の結了等,,,2015-10-05,1,,,,,ヒラタナンブトマトセイサンシセツクミアイ,0
846,3380002007762,登記記録の閉鎖等,0,2025-01-09,2024-12-24,有限会社飯村電気,,有限会社,福島県,郡山市,久留米６丁目６２番地１,,07,203,9638846,,,2024-12-24,清算の結了等,,,2015-10-05,1,,,,,イイムラデンキ,0
850,3400502000644,登記記録の閉鎖等,0,2025-01-09,2024-12-24,丸八有限会社,,有限会社,岩手県,一関市,中央町２丁目６番１２号,,03,209,0210021,,,2024-12-24,清算の結了等,,,2015-10-05,1,,,,,マルハチ,0
853,3420002016032,登記記録の閉鎖等,0,2025-01-09,2024-12-27,有限会社小野養豚,,有限会社,青森県,南津軽郡藤崎町,大字常盤字五宮本４０番地２,,02,361,0381214,,,2024-12-27,清算の結了等,,,2015-10-05,1,,,,,オノヨウトン,0
864,3470002006747,登記記録の閉鎖等,0,2025-01-09,2025-01-07,有限会社三村米穀店,,有限会社,香川県,高松市,中野町１４番１５号,,37,201,7600008,,,2025-01-07,清算の結了等,,,2015-10-05,1,,,,,ミムラベイコクテン,0
868,4010001129313,登記記録の閉鎖等,0,2025-01-09,2024-12-16,Ｇｌｏｂａｌ　Ｃｏｌｌｅｃｔ　Ｊａｐａｎ株式会社,,株式会社,東京都,港区,虎ノ門１丁目２番８号虎ノ門琴平タワー４階,,13,103,1050001,,,2024-12-16,清算の結了等,,,2015-10-05,1,,,,,グローバルコレクトジャパン,0
881,4010003040872,登記記録の閉鎖等,0,2025-01-09,2024-12-20,合同会社ＮＥＷ　ＰＥＲＩＯＤ,,合同会社,東京都,中央区,銀座１丁目１２番４号,,13,102,1040061,,,2024-12-20,清算の結了等,,,2023-06-14,1,,,,,ニューピリオド,0
892,4010401150645,登記記録の閉鎖等,0,2025-01-09,2024-12-16,株式会社エーエス,,株式会社,東京都,渋谷区,道玄坂１丁目１０番８号渋谷道玄坂東急ビル２Ｆ－Ｃ,,13,113,1500043,,,2024-12-16,清算の結了等,,,2020-01-28,1,,,,,エーエス,0
924,4011005008461,登記記録の閉鎖等,0,2025-01-09,2024-12-26,税理士法人デジタルフォース,,その他の設立登記法人,東京都,新宿区,西新宿８丁目３番３０号,,13,104,1600023,,,2024-12-26,清算の結了等,,,2020-02-10,1,,,,,デジタルフォース,0
932,4011203002142,登記記録の閉鎖等,0,2025-01-09,2025-01-07,合同会社アジアパワー,,合同会社,東京都,中野区,中央５丁目１４番４号モンテベルデ新中野２０８,,13,114,1640011,,,2025-01-07,清算の結了等,,,2015-10-05,1,,,,,アジアパワー,0
936,4011301029228,登記記録の閉鎖等,0,2025-01-09,2025-01-06,株式会社ジェイプラス,,株式会社,東京都,杉並区,西荻北３丁目１１番３－１０２号,,13,115,1670042,,,2025-01-06,清算の結了等,,,2023-12-07,1,,,,,ジェイプラス,0
938,4011402008163,登記記録の閉鎖等,0,2025-01-09,2024-12-26,有限会社マコー,,有限会社,東京都,板橋区,高島平１丁目３３番１３号,,13,119,1750082,,,2024-12-26,清算の結了等,,,2015-10-05,1,,,,,マコー,0
946,4011603003145,登記記録の閉鎖等,0,2025-01-09,2024-12-24,オズラック合同会社,,合同会社,東京都,練馬区,練馬２丁目３４番４号,,13,120,1760001,,,2024-12-24,清算の結了等,,,2020-12-04,1,,,,,オズラック,0
951,4012702008200,登記記録の閉鎖等,0,2025-01-09,2024-12-23,有限会社丸栄ベーカリー,,有限会社,東京都,清瀬市,松山３丁目１７番１５号,,13,221,2040022,,,2024-12-23,清算の結了等,,,2015-10-05,1,,,,,マルエイベーカリー,0
967,4021003004593,登記記録の閉鎖等,0,2025-01-09,2025-01-08,合同会社布田浩二事務所,,合同会社,神奈川県,藤沢市,亀井野４５６番地の２２,,14,205,2520813,,,2025-01-08,清算の結了等,,,2015-10-05,1,,,,,フダコウジジムショ,0
968,4021003012670,登記記録の閉鎖等,0,2025-01-09,2025-01-08,合同会社板垣管理,,合同会社,神奈川県,座間市,入谷東４丁目４２番１８‐７０２号グリーンコート座間,,14,216,2520028,,,2025-01-08,清算の結了等,,,2023-01-27,1,,,,,イタガキカンリ,0
989,4040002055539,登記記録の閉鎖等,0,2025-01-09,2024-12-25,有限会社成商,,有限会社,千葉県,成田市,上町６６７番地,,12,211,2860032,,,2024-12-25,清算の結了等,,,2015-10-05,1,,,,,ナリショウ,0
999,4070001024450,登記記録の閉鎖等,0,2025-01-09,2025-01-08,株式会社じん,,株式会社,群馬県,高崎市,金古町１３４９番地７,,10,202,3703511,,,2025-01-08,清算の結了等,,,2015-10-05,1,,,,,ジン,0
1007,4090002006842,登記記録の閉鎖等,0,2025-01-09,2024-12-23,有限会社峡北アポロガス,,有限会社,山梨県,甲府市,青葉町７番３０号,,19,201,4000828,,,2024-12-23,清算の結了等,,,2015-10-05,1,,,,,キョウホクアポロガス,0
1011,4100003002194,登記記録の閉鎖等,0,2025-01-09,2025-01-06,西浦合同会社,,合同会社,長野県,松本市,野溝西２丁目１０番１４号,,20,202,3990006,,,2025-01-06,清算の結了等,,,2015-10-05,1,,,,,ニシウラ,0
1018,4120001192110,登記記録の閉鎖等,0,2025-01-09,2024-12-26,リアンジュ株式会社,,株式会社,大阪府,大阪市浪速区,日本橋東３丁目１０番１９号,,27,111,5560006,,,2024-12-26,清算の結了等,,,2015-10-05,1,,,,,リアンジュ,0
1020,4120001241742,登記記録の閉鎖等,0,2025-01-09,2025-01-07,株式会社マイビット,,株式会社,大阪府,大阪市中央区,東心斎橋１丁目９番２０号３Ｆ,,27,128,5420083,,,2025-01-07,清算の結了等,,,2021-11-10,1,,,,,マイビット,0
1057,4140001101218,登記記録の閉鎖等,0,2025-01-09,2024-12-27,株式会社Ｄｓｔｙｌｅ,,株式会社,兵庫県,明石市,大久保町山手台２丁目８５－１４,,28,203,6740056,,,2024-12-27,清算の結了等,,,2016-03-02,1,,,,,ディースタイル,0
1062,4140002015920,登記記録の閉鎖等,0,2025-01-09,2024-12-27,有限会社穂積デザイン事務所,,有限会社,兵庫県,西宮市,名塩さくら台４丁目１２－８,,28,204,6691146,,,2024-12-27,清算の結了等,,,2015-10-05,1,,,,,ホヅミデザインジムショ,0
1070,4160001006241,登記記録の閉鎖等,0,2025-01-09,2025-01-06,美松不動産株式会社,,株式会社,滋賀県,湖南市,平松北２丁目１番地,,25,211,5203235,,,2025-01-06,合併による解散等,4160001014748,令和７年１月１日滋賀県湖南市平松北二丁目３番地美松株式会社（4160001014748）に合併し解散,2015-10-05,1,,,,,ミマツフドウサン,0
1082,4180002077981,登記記録の閉鎖等,0,2025-01-09,2024-12-26,有限会社リッシュー美装,,有限会社,愛知県,一宮市,大和町妙興寺字中之町４６番地,,23,203,4910922,,,2024-12-26,清算の結了等,,,2015-10-05,1,,,,,リッシュービソウ,0
1088,4180301022804,登記記録の閉鎖等,0,2025-01-09,2024-12-25,株式会社ミエマル,,株式会社,愛知県,西尾市,鶴舞町１３番地１,,23,213,4450845,,,2024-12-25,清算の結了等,,,2015-10-05,1,,,,,ミエマル,0
1090,4180302010956,登記記録の閉鎖等,0,2025-01-09,2024-12-25,小川漬物有限会社,,有限会社,愛知県,田原市,小中山町田端１６８・１６９番合筆地,,23,231,4413618,,,2024-12-25,清算の結了等,,,2015-10-05,1,,,,,オガワツケモノ,0
1094,4200001031722,登記記録の閉鎖等,0,2025-01-09,2025-01-06,養老の郷づくり株式会社,,株式会社,岐阜県,養老郡養老町,飯ノ木１０１０番地１,,21,341,5031325,,,2025-01-06,清算の結了等,,,2015-10-05,1,,,,,ヨウロウノサトヅクリ,0
1096,4200002003365,登記記録の閉鎖等,0,2025-01-09,2025-01-06,有限会社ロゴス,,有限会社,岐阜県,各務原市,テクノプラザ１丁目１番地,,21,213,5090109,,,2025-01-06,清算の結了等,,,2015-10-05,1,,,,,ロゴス,0
1097,4200002005915,登記記録の閉鎖等,0,2025-01-09,2025-01-08,有限会社カノウプラニング,,有限会社,岐阜県,岐阜市,昭和町２丁目９番地,,21,201,5008865,,,2025-01-08,清算の結了等,,,2015-10-05,1,,,,,カノウプラニング,0
1106,4240001047087,登記記録の閉鎖等,0,2025-01-09,2025-01-06,株式会社ヤママサ興業,,株式会社,広島県,神石郡神石高原町,油木甲７６４１番地１４,,34,545,7201812,,,2025-01-06,清算の結了等,,,2015-10-05,1,,,,,ヤママサコウギョウ,0
1111,4240002011422,登記記録の閉鎖等,0,2025-01-09,2025-01-07,有限会社巴建設,,有限会社,広島県,広島市東区,福田７丁目１８番２号,,34,102,7320029,,,2025-01-07,清算の結了等,,,2015-10-05,1,,,,,トモエケンセツ,0
1157,4390001012803,登記記録の閉鎖等,0,2025-01-09,2025-01-06,株式会社ウインドパワーさかた,,株式会社,山形県,酒田市,東町１丁目１番地の８,,06,204,9980875,,,2025-01-06,合併による解散等,7390001006141,令和７年１月１日山形県酒田市東町一丁目１番地の８加藤総業株式会社（7390001006141）に合併し解散,2015-10-05,1,,,,,ウインドパワーサカタ,0
1159,4430001010620,登記記録の閉鎖等,0,2025-01-09,2025-01-06,株式会社オレンジ・キャスト,,株式会社,北海道,札幌市西区,八軒一条東２丁目２番３４－４０７号,,01,107,0630861,,,2025-01-06,清算の結了等,,,2015-10-05,1,,,,,オレンジキャスト,0
1172,4470003002538,登記記録の閉鎖等,0,2025-01-09,2025-01-06,合同会社Ｍｕｎｉ,,合同会社,香川県,高松市,朝日新町１４番１５号,,37,201,7600064,,,2025-01-06,清算の結了等,,,2023-12-19,1,,,,,ムニ,0
1174,4500001014829,登記記録の閉鎖等,0,2025-01-09,2024-12-27,株式会社やまき,,株式会社,愛媛県,四国中央市,川之江町２０３８番地,,38,213,7990101,,,2024-12-27,清算の結了等,,,2015-10-05,1,,,,,ヤマキ,0
1178,5010001040139,登記記録の閉鎖等,0,2025-01-09,2024-12-19,株式会社カクダイ,,株式会社,東京都,中央区,日本橋人形町３丁目１３番２号,,13,102,1030013,,,2024-12-19,清算の結了等,,,2015-10-05,1,,,,,カクダイ,0
1186,5010001247907,登記記録の閉鎖等,0,2025-01-09,2024-12-20,千鳥科技株式会社,,株式会社,東京都,千代田区,神田佐久間町３丁目２８星野ビル５０５号,,13,101,1010025,,,2024-12-20,清算の結了等,,,2024-09-04,1,,,,,チドリカギ,0
1197,5010002009100,登記記録の閉鎖等,0,2025-01-09,2024-12-20,有限会社北鎌倉設計,,有限会社,東京都,千代田区,神田岩本町１番地,,13,101,1010033,,,2024-12-20,清算の結了等,,,2015-10-05,1,,,,,キタカマクラセッケイ,0
1199,5010002010520,登記記録の閉鎖等,0,2025-01-09,2024-12-20,有限会社志村印刷所,,有限会社,東京都,千代田区,神田司町２丁目１０番地１,,13,101,1010048,,,2024-12-20,清算の結了等,,,2015-10-05,1,,,,,シムラインサツショ,0
1206,5010005028766,登記記録の閉鎖等,0,2025-01-09,2025-01-08,特定目的会社ホーク,,その他の設立登記法人,東京都,千代田区,丸の内１丁目４番１号東京共同会計事務所内,,13,101,1000005,,,2025-01-08,清算の結了等,,,2018-07-09,1,,,,,ホーク,0
1219,5010501012843,登記記録の閉鎖等,0,2025-01-09,2024-12-24,株式会社松浦電化ストア,,株式会社,東京都,台東区,日本堤１丁目７番１号,,13,106,1110021,,,2024-12-24,清算の結了等,,,2015-10-05,1,,,,,マツウラデンカストア,0
1226,5010701034332,登記記録の閉鎖等,0,2025-01-09,2025-01-06,株式会社ゼロディバイド,,株式会社,東京都,港区,新橋５丁目１２番１１号天翔新橋５丁目ビル２０８,,13,103,1050004,,,2025-01-06,合併による解散等,9010401165333,令和６年１２月１日東京都千代田区神田和泉町１－３－１３Ｉ・Ｔ秋葉原ビル３Ｆ株式会社Ｓｅｔｔｌｅｒ（9010401165333）に合併し解散,2017-06-20,1,,,,,ゼロディバイド,0
1231,5010705002715,登記記録の閉鎖等,0,2025-01-09,2025-01-06,一般社団法人日本社員教育高度化機構,,その他の設立登記法人,東京都,千代田区,神田多町２丁目１神田東山ビル７Ｆ,,13,101,1010046,,,2025-01-06,清算の結了等,,,2018-01-16,1,,,,,ニホンシャインキョウイクコウドカキコウ,0
1236,5011001050838,登記記録の閉鎖等,0,2025-01-09,2024-12-09,ヒューマンライン株式会社,,株式会社,東京都,渋谷区,渋谷３丁目２７番１４号藤本ビル８階,,13,113,1500002,,,2024-12-09,清算の結了等,,,2015-10-05,1,,,,,ヒューマンライン,0
1240,5011001066867,登記記録の閉鎖等,0,2025-01-09,2024-12-16,株式会社光花利,,株式会社,東京都,渋谷区,神宮前２丁目１９番８号,,13,113,1500001,,,2024-12-16,清算の結了等,,,2015-10-05,1,,,,,,0
1247,5011005008460,登記記録の閉鎖等,0,2025-01-09,2024-12-26,社会保険労務士法人デジタルフォース,,その他の設立登記法人,東京都,新宿区,西新宿８丁目３番３０号,,13,104,1600023,,,2024-12-26,清算の結了等,,,2020-02-10,1,,,,,デジタルフォース,0
1254,5011501002768,登記記録の閉鎖等,0,2025-01-09,2025-01-06,瀧野川種苗株式会社,,株式会社,東京都,北区,滝野川６丁目６１番１４号,,13,117,1140023,,,2025-01-06,清算の結了等,,,2015-10-05,1,,,,,タキノガワシュビョウ,0
1264,5012401018301,登記記録の閉鎖等,0,2025-01-09,2024-12-25,エイト株式会社,,株式会社,東京都,国分寺市,本多３丁目５番３６号,,13,214,1850011,,,2024-12-25,清算の結了等,,,2015-10-05,1,,,,,エイト,0
1271,5013201017666,登記記録の閉鎖等,0,2025-01-09,2024-12-16,株式会社ラグー,,株式会社,東京都,目黒区,青葉台１丁目１６番１２号,,13,110,1530042,,,2024-12-16,清算の結了等,,,2015-10-05,1,,,,,ラグー,0
1274,5013401005636,登記記録の閉鎖等,0,2025-01-09,2024-12-25,株式会社ホームメイク,,株式会社,東京都,日野市,多摩平５丁目１１番地の３,,13,212,1910062,,,2024-12-25,清算の結了等,,,2015-10-05,1,,,,,ホームメイク,0
1282,5020002028776,登記記録の閉鎖等,0,2025-01-09,2024-12-19,有限会社介護サービスまつの実,,有限会社,神奈川県,横浜市南区,六ツ川２丁目７４番地２号ライオンズマンション六ッ川Ｂ棟３０１号室,,14,105,2320066,,,2024-12-19,清算の結了等,,,2015-10-05,1,,,,,,0
1286,5021001008950,登記記録の閉鎖等,0,2025-01-09,2025-01-07,株式会社カネ石商事,,株式会社,神奈川県,鎌倉市,材木座１丁目４番８号,,14,204,2480013,,,2025-01-07,清算の結了等,,,2015-10-05,1,,,,,カネイシショウジ,0
1293,5030001015601,登記記録の閉鎖等,0,2025-01-09,2024-12-27,株式会社アットイーズ,,株式会社,埼玉県,さいたま市見沼区,大字風渡野２６７番地１,,11,104,3370017,,,2024-12-27,清算の結了等,,,2015-10-05,1,,,,,アットイーズ,0
1307,5030002008422,登記記録の閉鎖等,0,2025-01-09,2024-12-27,有限会社滝沢運送店,,有限会社,埼玉県,さいたま市中央区,上落合８丁目１番５号,,11,105,3380001,,,2024-12-27,清算の結了等,,,2015-10-05,1,,,,,タキザワウンソウテン,0
1308,5030002038254,登記記録の閉鎖等,0,2025-01-09,2024-12-24,中村建設有限会社,,有限会社,埼玉県,久喜市,南４丁目４番３号,,11,232,3460004,,,2024-12-24,清算の結了等,,,2015-10-05,1,,,,,ナカムラケンセツ,0
1336,5070002034456,登記記録の閉鎖等,0,2025-01-09,2024-12-27,有限会社泉房,,有限会社,群馬県,館林市,北成島町１８０８番地１,,10,207,3740057,,,2024-12-27,清算の結了等,,,2015-10-05,1,,,,,センボウ,0
1341,5080401001064,登記記録の閉鎖等,0,2025-01-09,2025-01-06,小楠熱処理工業株式会社,,株式会社,静岡県,浜松市中央区,篠原町１０８１２番地,,22,138,4310201,,,2025-01-06,合併による解散等,8080401001061,令和７年１月１日静岡県浜松市中央区篠原町１０８３８番地株式会社小楠金属工業所（8080401001061）に合併し解散,2015-10-05,1,,,,,オグスネツショリコウギョウ,0
1349,5110002020583,登記記録の閉鎖等,0,2025-01-09,2025-01-06,有限会社サン・レンタル,,有限会社,新潟県,柏崎市,南半田１８番７５号,,15,205,9450813,,,2025-01-06,清算の結了等,,,2015-10-05,1,,,,,サンレンタル,0
1353,5120001028313,登記記録の閉鎖等,0,2025-01-09,2024-12-27,株式会社ユキモト,,株式会社,大阪府,大阪市大正区,三軒家東１丁目１２番２９号,,27,108,5510002,,,2024-12-27,清算の結了等,,,2015-10-05,1,,,,,ユキモト,0
1362,5120002056412,登記記録の閉鎖等,0,2025-01-09,2024-12-26,有限会社家和万,,有限会社,大阪府,柏原市,片山町１７番３０号,,27,221,5820020,,,2024-12-26,清算の結了等,,,2015-10-05,1,,,,,カワマン,0
1373,5130001067946,登記記録の閉鎖等,0,2025-01-09,2025-01-06,株式会社ＫＩＮＳＨＡクリエイションズ,,株式会社,京都府,京都市下京区,不明門通万寿寺上る吉水町４６３番地ＡＫＥＺＵビル,,26,106,6008403,,,2025-01-06,合併による解散等,2130001020536,令和６年１２月３１日京都市下京区室町通五条上る坂東屋町２６７番株式会社ＫＩＮＳＨＡ（2130001020536）に合併し解散,2020-11-06,1,,,,,キンシャクリエイションズ,0
1378,5140001002456,登記記録の閉鎖等,0,2025-01-09,2025-01-06,ベル管理株式会社,,株式会社,兵庫県,神戸市東灘区,住吉浜町１５番１,,28,101,6580042,,,2025-01-06,合併による解散等,3140001021383,令和６年１２月３１日神戸市東灘区住吉浜町１５番１株式会社ベル（3140001021383）に合併し解散,2015-10-05,1,,,,,ベルカンリ,0
1387,5140002054208,登記記録の閉鎖等,0,2025-01-09,2024-12-26,有限会社シンコートレーディング,,有限会社,兵庫県,姫路市,白浜町寺家１丁目２１７番地,,28,201,6728012,,,2024-12-26,清算の結了等,,,2015-10-05,1,,,,,シンコートレーディング,0
1388,5140003001984,登記記録の閉鎖等,0,2025-01-09,2025-01-06,合資会社ベル不動産,,合資会社,兵庫県,神戸市東灘区,住吉浜町１５番１,,28,101,6580042,,,2025-01-06,合併による解散等,3140001021383,令和６年１２月３１日神戸市東灘区住吉浜町１５番１株式会社ベル（3140001021383）に合併し解散,2015-10-05,1,,,,,ベルフドウサン,0
1389,5140003005754,登記記録の閉鎖等,0,2025-01-09,2024-12-26,合資会社吉田瓦工業所,,合資会社,兵庫県,明石市,大久保町谷八木６９６番地の１,,28,203,6740062,,,2024-12-26,清算の結了等,,,2015-10-05,1,,,,,ヨシダカワラコウギョウショ,0
1397,5180001120329,登記記録の閉鎖等,0,2025-01-09,2024-12-24,株式会社Ｆ・サポートナガエ,,株式会社,愛知県,瀬戸市,下陣屋町２６番地,,23,204,4890051,,,2024-12-24,清算の結了等,,,2015-10-05,1,,,,,エフサポートナガエ,0
1405,5180301013785,登記記録の閉鎖等,0,2025-01-09,2024-12-25,株式会社岡本邦雄商店,,株式会社,愛知県,刈谷市,泉田町大木屋６６番地２,,23,210,4480004,,,2024-12-25,清算の結了等,,,2015-10-05,1,,,,,オカモトクニオショウテン,0
1413,5190001015560,登記記録の閉鎖等,0,2025-01-09,2025-01-06,チヨダグリーンセラ株式会社,,株式会社,三重県,三重郡川越町,大字高松９２８番地,,24,344,5108121,,,2025-01-06,合併による解散等,1190001015556,令和７年１月１日三重県四日市市住吉町１５番２号チヨダウーテ株式会社（1190001015556）に合併し解散,2015-10-05,1,,,,,チヨダグリーンセラ,0
1415,5210002005062,登記記録の閉鎖等,0,2025-01-09,2024-12-27,幸豊建設有限会社,,有限会社,福井県,福井市,花月４丁目４番１５号イトー硝ビル２階,,18,201,9100022,,,2024-12-27,清算の結了等,,,2015-10-05,1,,,,,コウホウケンセツ,0
1417,5220001003446,登記記録の閉鎖等,0,2025-01-09,2025-01-06,菓心庵株式会社,,株式会社,石川県,金沢市,下堤町１７番地１朝日プラザプレステージュ金沢近江町１０１,,17,201,9200917,,,2025-01-06,合併による解散等,4220001007118,令和７年１月１日石川県金沢市大手町１０番１５号株式会社森八（4220001007118）に合併し解散,2015-10-05,1,,,,,カシンアン,0
1429,5250001007857,登記記録の閉鎖等,0,2025-01-09,2024-12-13,株式会社スペックデザイン,,株式会社,山口県,下関市,彦島福浦町１丁目１３番１２号,,35,201,7500087,,,2024-12-13,清算の結了等,,,2015-10-05,1,,,,,スペックデザイン,0
1430,5250003002360,登記記録の閉鎖等,0,2025-01-09,2024-12-27,合同会社ＣＲＡＦＴＳＭＡＮ,,合同会社,山口県,下関市,山の田本町７番５号,,35,201,7510838,,,2024-12-27,清算の結了等,,,2018-12-06,1,,,,,クラフツマン,0
1467,5380002011531,登記記録の閉鎖等,0,2025-01-09,2024-12-23,有限会社橋本燃料,,有限会社,福島県,郡山市,若葉町１７番１１号,,07,203,9638011,,,2024-12-23,清算の結了等,,,2015-10-05,1,,,,,ハシモトネンリョウ,0
1469,5380002022578,登記記録の閉鎖等,0,2025-01-09,2024-12-24,有限会社エスエス工業,,有限会社,福島県,いわき市,小名浜字隼人４番地５,,07,204,9718101,,,2024-12-24,清算の結了等,,,2015-10-05,1,,,,,エスエスコウギョウ,0
1471,5380002025325,登記記録の閉鎖等,0,2025-01-09,2024-12-24,有限会社光大,,有限会社,福島県,いわき市,平下荒川字久世原３８番地の３６,,07,204,9708032,,,2024-12-24,清算の結了等,,,2015-10-05,1,,,,,コウダイ,0
1476,5430001011700,登記記録の閉鎖等,0,2025-01-09,2024-12-27,東和自動車販売株式会社,,株式会社,北海道,札幌市白石区,平和通１５丁目南１番１７号,,01,104,0030028,,,2024-12-27,清算の結了等,,,2015-10-05,1,,,,,,0
1479,5430002049748,登記記録の閉鎖等,0,2025-01-09,2025-01-07,有限会社池田商事,,有限会社,北海道,岩見沢市,幌向南三条２丁目２３１番地１２１,,01,210,0690373,,,2025-01-07,清算の結了等,,,2015-10-05,1,,,,,イケダショウジ,0
1485,5430005010517,登記記録の閉鎖等,0,2025-01-09,2025-01-06,医療法人かなざわクリニック,,その他の設立登記法人,北海道,札幌市中央区,南一条西２丁目南１条ｋビル４階,,01,101,0600061,,,2025-01-06,清算の結了等,,,2015-10-05,1,,,,,カナザワクリニック,0
1490,5490002001100,登記記録の閉鎖等,0,2025-01-09,2025-01-06,有限会社川田建材店,,有限会社,高知県,高知市,中久万２３３番地,,39,201,7800983,,,2025-01-06,清算の結了等,,,2015-10-05,1,,,,,カワダケンザイテン,0
1492,5500002014835,登記記録の閉鎖等,0,2025-01-09,2024-12-27,有限会社大西製材所,,有限会社,愛媛県,西条市,丹原町志川４４１番地,,38,206,7910535,,,2024-12-27,清算の結了等,,,2015-10-05,1,,,,,オオニシセイザイショ,0
1493,5500002020214,登記記録の閉鎖等,0,2025-01-09,2024-12-27,有限会社御島農園,,有限会社,愛媛県,今治市,大三島町台３８１番地,,38,202,7941305,,,2024-12-27,清算の結了等,,,2015-10-05,1,,,,,ミシマノウエン,0
1496,6010001028109,登記記録の閉鎖等,0,2025-01-09,2024-12-26,ブイアイエス株式会社,,株式会社,茨城県,古河市,北利根７番地,,08,204,3060213,,,2024-12-26,清算の結了等,,,2015-10-05,1,,,,,ブイアイエス,0
1516,6010401133326,登記記録の閉鎖等,0,2025-01-09,2024-12-06,ＪＷＧキャプティブマネジメント株式会社,,株式会社,東京都,港区,新橋６丁目９番２号,,13,103,1050004,,,2024-12-06,合併による解散等,6010401089766,令和６年１２月１日東京都港区新橋六丁目９番２号株式会社ＪＷＧコンサルティング（6010401089766）に合併し解散,2017-08-24,1,,,,,ジェイダブリュージーキャプティブマネジメント,0
1541,6011001018339,登記記録の閉鎖等,0,2025-01-09,2024-12-09,株式会社ノブ・インターナショナル,,株式会社,東京都,渋谷区,笹塚３丁目５２番１０号,00064383,13,113,1510073,,,2024-12-09,清算の結了等,,,2015-10-05,1,,,,,ノブインターナショナル,0
1542,6011001093968,登記記録の閉鎖等,0,2025-01-09,2024-12-16,株式会社イノセンス,,株式会社,東京都,渋谷区,幡ヶ谷２丁目２４番１号遠山ビル６階,,13,113,1510072,,,2024-12-16,清算の結了等,,,2015-10-05,1,,,,,イノセンス,0
1548,6011001138211,登記記録の閉鎖等,0,2025-01-09,2024-12-06,株式会社ＭＤＳ,,株式会社,東京都,渋谷区,神南１丁目６－１４ジョルディビルＢ１,,13,113,1500041,,,2024-12-06,清算の結了等,,,2021-01-28,1,,,,,エムディエス,0
1556,6011101014774,登記記録の閉鎖等,0,2025-01-09,2024-12-20,東洋建物株式会社,,株式会社,東京都,新宿区,西新宿４丁目１７番１２号,,13,104,1600023,,,2024-12-20,清算の結了等,,,2015-10-05,1,,,,,トウヨウタテモノ,0
1569,6011501014300,登記記録の閉鎖等,0,2025-01-09,2024-12-25,株式会社ブロードエッジ・インベストメント,,株式会社,東京都,港区,白金台４丁目１９番５号,,13,103,1080071,,,2024-12-25,合併による解散等,1011001046633,令和６年１２月１日東京都渋谷区代官山町２０番９号株式会社ブロードエッジ・アドバイザーズ（1011001046633）に合併し解散,2015-10-05,1,,,,,ブロードエッジインベストメント,0
1573,6011601006164,登記記録の閉鎖等,0,2025-01-09,2024-12-24,株式会社プラム・ロック・シザース,,株式会社,東京都,練馬区,氷川台３丁目２５番１号,,13,120,1790084,,,2024-12-24,清算の結了等,,,2015-10-05,1,,,,,プラムロックシザース,0
1589,6020001059020,登記記録の閉鎖等,0,2025-01-09,2024-12-25,株式会社アスクミー,,株式会社,神奈川県,横浜市青葉区,藤が丘２丁目２番地１藤が丘ハイツ６０１号,,14,117,2270043,,,2024-12-25,清算の結了等,,,2015-10-05,1,,,,,アスクミー,0
1615,6040001102694,登記記録の閉鎖等,0,2025-01-09,2024-12-26,株式会社ネイジン,,株式会社,千葉県,千葉市花見川区,横戸台４７番２,,12,102,2620006,,,2024-12-26,清算の結了等,,,2017-12-05,1,,,,,ネイジン,0
1622,6040003007974,登記記録の閉鎖等,0,2025-01-09,2024-12-25,合同会社ＨＡＮＴＥＣ,,合同会社,千葉県,千葉市花見川区,花園町２４７０番２号,,12,102,2620021,,,2024-12-25,清算の結了等,,,2015-12-04,1,,,,,ハンテック,0
1623,6040003016190,登記記録の閉鎖等,0,2025-01-09,2024-12-23,ライツェム合同会社,,合同会社,千葉県,我孫子市,寿１丁目４番１８号,,12,222,2701152,,,2024-12-23,清算の結了等,,,2020-10-02,1,,,,,ライツェム,0
1624,6040003025638,登記記録の閉鎖等,0,2025-01-09,2024-12-24,ＮＩＹ合同会社,,合同会社,千葉県,柏市,手賀の杜５丁目３２番地１スウィングビート２０３号,,12,217,2701447,,,2024-12-24,清算の結了等,,,2024-08-21,1,,,,,エヌアイワイ,0
1658,6120001097489,登記記録の閉鎖等,0,2025-01-09,2024-12-26,株式会社エイケイインターナショナル,,株式会社,大阪府,大阪市西区,京町堀１丁目１７番７号京町パートナーズビル３階,,27,106,5500003,,,2024-12-26,清算の結了等,,,2015-10-05,1,,,,,エイケイインターナショナル,0
1673,6130001014988,登記記録の閉鎖等,0,2025-01-09,2025-01-07,株式会社竹内工務店,,株式会社,京都府,京都市伏見区,北寝小屋町２７番地,,26,109,6128388,,,2025-01-07,清算の結了等,,,2015-10-05,1,,,,,タケウチコウムテン,0
1688,6140002026362,登記記録の閉鎖等,0,2025-01-09,2024-12-27,有限会社みやび商会,,有限会社,兵庫県,神戸市中央区,熊内町１丁目６番２－８０１号,,28,110,6510056,,,2024-12-27,清算の結了等,,,2015-10-05,1,,,,,ミヤビショウカイ,0
1690,6150002000267,登記記録の閉鎖等,0,2025-01-09,2025-01-06,有限会社宇和島商会,,有限会社,奈良県,奈良市,鳥見町１丁目２番地の１,,29,201,6310065,,,2025-01-06,清算の結了等,,,2015-10-05,1,,,,,ウワジマショウカイ,0
1703,6180001149747,登記記録の閉鎖等,0,2025-01-09,2024-12-23,高木マネージメントサービス株式会社,00125536,株式会社,愛知県,名古屋市中村区,名駅４丁目２番７号,,23,105,4500002,,,2024-12-23,清算の結了等,,,2022-01-27,1,,,,,タカギマネージメントサービス,0
1713,6180302002489,登記記録の閉鎖等,0,2025-01-09,2024-12-26,有限会社のぞみ企画岡崎,,有限会社,愛知県,岡崎市,福岡町字河原２番地,,23,202,4440825,,,2024-12-26,清算の結了等,,,2015-10-05,1,,,,,ノゾミキカクオカザキ,0
1716,6190005007900,登記記録の閉鎖等,0,2025-01-09,2024-12-23,員弁鉄工鋳造協同組合,,その他の設立登記法人,三重県,いなべ市,員弁町上笠田１１８８番地,,24,214,5110207,,,2024-12-23,清算の結了等,,,2015-10-05,1,,,,,イナベテッコウチュウゾウ,0
1718,6200001007646,登記記録の閉鎖等,0,2025-01-09,2025-01-06,株式会社リビエール,,株式会社,岐阜県,各務原市,那加桜町２丁目１４６番地,,21,213,5040912,,,2025-01-06,清算の結了等,,,2015-10-05,1,,,,,リビエール,0
1721,6200002007389,登記記録の閉鎖等,0,2025-01-09,2024-12-26,有限会社佐藤商事,,有限会社,岐阜県,各務原市,つつじが丘７丁目３１番地,,21,213,5090131,,,2024-12-26,清算の結了等,,,2015-10-05,1,,,,,サトウショウジ,0
1727,6240001018375,登記記録の閉鎖等,0,2025-01-09,2025-01-06,株式会社キートス事業コンサルタンツ,,株式会社,広島県,広島市南区,段原南２丁目４番２２号,,34,103,7320814,,,2025-01-06,合併による解散等,6240002023894,令和７年１月１日広島県廿日市市陽光台一丁目８番地１９時の花産業株式会社（6240002023894）に合併し解散,2015-10-05,1,,,,,キートスジギョウコンサルタンツ,0
1728,6240002025032,登記記録の閉鎖等,0,2025-01-09,2025-01-06,有限会社スミダ総合保険事務所,,有限会社,広島県,広島市西区,古江西町１４番３３－１０２号,,34,104,7330874,,,2025-01-06,清算の結了等,,,2015-10-05,1,,,,,スミダソウゴウホケンジムショ,0
1729,6240002033712,登記記録の閉鎖等,0,2025-01-09,2025-01-06,有限会社橋本組,,有限会社,広島県,呉市,阿賀北５丁目３３番４号,,34,202,7370001,,,2025-01-06,清算の結了等,,,2015-10-05,1,,,,,ハシモトグミ,0
1730,6240002035849,登記記録の閉鎖等,0,2025-01-09,2025-01-06,丸万眞珠有限会社,,有限会社,広島県,江田島市,沖美町岡大王７０７番地,,34,215,7372311,,,2025-01-06,清算の結了等,,,2015-10-05,1,,,,,マルマンシンジュ,0
1732,6250002014091,登記記録の閉鎖等,0,2025-01-09,2024-12-27,有限会社大嶋商店,,有限会社,山口県,長門市,三隅下２６５６番地の１０,,35,211,7593803,,,2024-12-27,清算の結了等,,,2015-10-05,1,,,,,,0
1741,6290002046338,登記記録の閉鎖等,0,2025-01-09,2024-12-16,有限会社加藤建築工務,,有限会社,福岡県,飯塚市,柏の森１０３番地１,,40,205,8200011,,,2024-12-16,清算の結了等,,,2015-10-05,1,,,,,カトウケンチクコウム,0
1758,6380001019590,登記記録の閉鎖等,0,2025-01-09,2024-12-23,株式会社中央システムロングラン,,株式会社,福島県,郡山市,安積町笹川字北向６３番地の６,,07,203,9630102,,,2024-12-23,清算の結了等,,,2015-10-05,1,,,,,チュウオウシステムロングラン,0
1790,6500001001024,登記記録の閉鎖等,0,2025-01-09,2025-01-06,株式会社エムズブレーン,,株式会社,愛媛県,松山市,竹原３丁目３番１１号,,38,201,7900053,,,2025-01-06,清算の結了等,,,2015-10-05,1,,,,,エムズブレーン,0
1795,6500005008478,登記記録の閉鎖等,0,2025-01-09,2025-01-06,一般社団法人中四国地域経済協議会,,その他の設立登記法人,愛媛県,今治市,中浜町４丁目１１６番地,,38,202,7940016,,,2025-01-06,清算の結了等,,,2022-04-05,1,,,,,チュウシコクチイキケイザイキョウギカイ,0
1805,7010003030227,登記記録の閉鎖等,0,2025-01-09,2024-12-20,合同会社ヴァイオレット,,合同会社,東京都,千代田区,丸の内１丁目４番１号東京共同会計事務所内,,13,101,1000005,,,2024-12-20,清算の結了等,,,2019-07-23,1,,,,,ヴァイオレット,0
1813,7010403013392,登記記録の閉鎖等,0,2025-01-09,2024-12-27,合同会社アポロ,,合同会社,栃木県,宇都宮市,石井町３７２番地,,09,201,3210912,,,2024-12-27,清算の結了等,,,2015-10-05,1,,,,,アポロ,0
1817,7010501011216,登記記録の閉鎖等,0,2025-01-09,2024-12-24,株式会社廣電,,株式会社,東京都,台東区,東上野３丁目１５番１４号,,13,106,1100015,,,2024-12-24,清算の結了等,,,2015-10-05,1,,,,,ヒロデン,0
1834,7011001092309,登記記録の閉鎖等,0,2025-01-09,2024-12-16,株式会社パピルス,,株式会社,東京都,渋谷区,代々木１丁目４４番９号,,13,113,1510053,,,2024-12-16,清算の結了等,,,2015-10-05,1,,,,,パピルス,0
1847,7011601006691,登記記録の閉鎖等,0,2025-01-09,2024-12-24,株式会社ミツワ,,株式会社,東京都,練馬区,豊玉中２丁目２５番１８号,,13,120,1760013,,,2024-12-24,清算の結了等,,,2015-10-05,1,,,,,ミツワ,0
1854,7012701008842,登記記録の閉鎖等,0,2025-01-09,2024-12-20,リスタ株式会社,,株式会社,東京都,東久留米市,南町１丁目３番１２号,,13,222,2030031,,,2024-12-20,清算の結了等,,,2015-10-05,1,,,,,リスタ,0
1857,7012801014055,登記記録の閉鎖等,0,2025-01-09,2024-12-25,株式会社アイリス,,株式会社,東京都,国分寺市,本多３丁目５番３６号,,13,214,1850011,,,2024-12-25,清算の結了等,,,2015-10-05,1,,,,,アイリス,0
1884,7030002109202,登記記録の閉鎖等,0,2025-01-09,2024-12-26,有限会社ＳＵＮ設計事務所,,有限会社,東京都,北区,浮間２丁目１０番２７号,,13,117,1150051,,,2024-12-26,清算の結了等,,,2015-10-05,1,,,,,サンセッケイジムショ,0
1899,7050001018674,登記記録の閉鎖等,0,2025-01-09,2024-12-04,株式会社全農・キユーピー・エツグステーシヨン,,株式会社,茨城県,猿島郡五霞町,大字元栗橋４０３番地の２,,08,542,3060313,,,2024-12-04,合併による解散等,4012401007544,令和６年１２月１日東京都調布市仙川町二丁目５番地７キユーピータマゴ株式会社（4012401007544）に合併し解散,2015-10-05,1,,,,,ゼンノウキユーピーエツグステーシヨン,0
1919,7100001027868,登記記録の閉鎖等,0,2025-01-09,2025-01-06,エムエー株式会社,,株式会社,長野県,須坂市,臥竜１丁目８番４号,,20,207,3820028,,,2025-01-06,清算の結了等,,,2015-10-05,1,,,,,エムエー,0
1922,7110001032850,登記記録の閉鎖等,0,2025-01-09,2024-12-27,株式会社ＴＨＲＥＥ　ＰＩＧＳ,,株式会社,新潟県,新潟市中央区,川端町６丁目３９番地８,,15,103,9518053,,,2024-12-27,清算の結了等,,,2017-12-05,1,,,,,スリーピッグス,0
1925,7110002009278,登記記録の閉鎖等,0,2025-01-09,2025-01-06,有限会社吉田電気,,有限会社,新潟県,新潟市西区,小新１２６４番地５,,15,107,9502023,,,2025-01-06,清算の結了等,,,2015-10-05,1,,,,,,0
1929,7120001052534,登記記録の閉鎖等,0,2025-01-09,2025-01-06,中嶋電工株式会社,,株式会社,大阪府,大阪市東淀川区,小松２丁目３番８号,,27,114,5330004,,,2025-01-06,清算の結了等,,,2015-10-05,1,,,,,ナカジマデンコウ,0
1948,7130001073942,登記記録の閉鎖等,0,2025-01-09,2025-01-06,日本和＿株式会社,00129913,株式会社,京都府,京都市南区,上鳥羽南唐戸町７番地５０４号室,,26,107,6018107,,,2025-01-06,清算の結了等,,,2023-03-31,1,,,,,ニホンワキン,0
1963,7150002001470,登記記録の閉鎖等,0,2025-01-09,2025-01-07,有限会社ピー・エム・エス,,有限会社,奈良県,奈良市,西大寺赤田町１丁目７番１号,,29,201,6310818,,,2025-01-07,清算の結了等,,,2015-10-05,1,,,,,ピーエムエス,0
1977,7180002058434,登記記録の閉鎖等,0,2025-01-09,2024-12-25,有限会社大豊,,有限会社,愛知県,名古屋市守山区,川宮町４４０番地,,23,113,4630081,,,2024-12-25,清算の結了等,,,2015-10-05,1,,,,,タイホウ,0
1981,7180005016109,登記記録の閉鎖等,0,2025-01-09,2024-12-27,特定非営利活動法人えがお,,その他の設立登記法人,愛知県,名古屋市瑞穂区,関取町６４番地白水荘１２号室,,23,108,4670058,,,2024-12-27,清算の結了等,,,2015-10-05,1,,,,,エガオ,0
1982,7180005018162,登記記録の閉鎖等,0,2025-01-09,2025-01-06,一般社団法人日本健診協会,,その他の設立登記法人,岐阜県,羽島郡岐南町,伏屋５丁目１番地,,21,302,5016006,,,2025-01-06,清算の結了等,,,2019-03-11,1,,,,,ニホンケンシンキョウカイ,0
1990,7200001014476,登記記録の閉鎖等,0,2025-01-09,2025-01-07,料和株式会社,,株式会社,岐阜県,大垣市,郭町東２丁目２９番地,,21,202,5030886,,,2025-01-07,清算の結了等,,,2015-10-05,1,,,,,リョウワ,0
2005,7250005008453,登記記録の閉鎖等,0,2025-01-09,2024-12-25,ＮＰＯ法人ことの葉７４１Ｈｚ,,その他の設立登記法人,山口県,岩国市,中津町２丁目１６番４５号,,35,208,7400027,,,2024-12-25,清算の結了等,,,2018-10-17,1,,,,,コトノハヘルツ,0
2010,7290001047096,登記記録の閉鎖等,0,2025-01-09,2024-12-16,株式会社市川板金,,株式会社,福岡県,八女市,蒲原１９４５番地の２５,,40,210,8340064,,,2024-12-16,清算の結了等,,,2015-10-05,1,,,,,イチカワバンキン,0
2023,7320001001347,登記記録の閉鎖等,0,2025-01-09,2025-01-06,株式会社シンコーデック,,株式会社,大分県,大分市,大字曲８５１番地の８,,44,201,8700946,,,2025-01-06,清算の結了等,,,2015-10-05,1,,,,,シンコーデック,0
2024,7320001013540,登記記録の閉鎖等,0,2025-01-09,2025-01-06,株式会社豊後クリーンエナジー,,株式会社,大分県,別府市,大字鶴見６７６番地２,,44,202,8740840,,,2025-01-06,合併による解散等,5320001003700,令和７年１月１日大分市横田二丁目１０番２８号株式会社秀観（5320001003700）に合併し解散,2015-10-05,1,,,,,,0
2032,7370001005145,登記記録の閉鎖等,0,2025-01-09,2024-12-26,佐々良建設株式会社,,株式会社,宮城県,仙台市宮城野区,二十人町３０８番地の５,,04,102,9830862,,,2024-12-26,清算の結了等,,,2015-10-05,1,,,,,ササリョウケンセツ,0
2036,7380002028409,登記記録の閉鎖等,0,2025-01-09,2024-12-24,有限会社ピースストーン,,有限会社,福島県,南相馬市,原町区東町１丁目８９番地,,07,212,9750002,,,2024-12-24,清算の結了等,,,2015-10-05,1,,,,,ピースストーン,0
2041,7430001004173,登記記録の閉鎖等,0,2025-01-09,2024-12-27,株式会社カナマキ,,株式会社,北海道,札幌市中央区,南五条西３丁目１番地,,01,101,0640805,,,2024-12-27,清算の結了等,,,2015-10-05,1,,,,,カナマキ,0
2045,7430002033683,登記記録の閉鎖等,0,2025-01-09,2025-01-06,有限会社さんもと,,有限会社,北海道,石狩市,花川南一条１丁目３２７番地,,01,235,0613201,,,2025-01-06,清算の結了等,,,2015-10-05,1,,,,,サンモト,0
2051,7470001016842,登記記録の閉鎖等,0,2025-01-09,2025-01-06,株式会社アイグループ,,株式会社,香川県,綾歌郡綾川町,北１２５０番地６,,37,387,7612306,,,2025-01-06,合併による解散等,9470001007030,令和７年１月１日香川県綾歌郡綾川町北１２５０番地６株式会社綾川葬祭（9470001007030）に合併し解散,2018-04-19,1,,,,,アイグループ,0
2054,7480005000420,登記記録の閉鎖等,0,2025-01-09,2025-01-07,医療法人元木小児科,,その他の設立登記法人,徳島県,徳島市,大和町２丁目２番６４号,,36,201,7700864,,,2025-01-07,清算の結了等,,,2015-10-05,1,,,,,モトキショウニカ,0
2065,8010001240330,登記記録の閉鎖等,0,2025-01-09,2024-12-20,株式会社ＫＳＴ８,,株式会社,東京都,千代田区,内幸町２丁目１番６号,,13,101,1000011,,,2024-12-20,清算の結了等,,,2023-11-27,1,,,,,ケイエスティーエイト,0
2073,8010005029415,登記記録の閉鎖等,0,2025-01-09,2025-01-07,一般社団法人全日本不動産支援協会,,その他の設立登記法人,東京都,中央区,日本橋２丁目１番３号,,13,102,1030027,,,2025-01-07,清算の結了等,,,2018-12-07,1,,,,,ゼンニホンフドウサンシエンキョウカイ,0
2079,8010102006606,登記記録の閉鎖等,0,2025-01-09,2025-01-06,有限会社三日月庵,,有限会社,東京都,八王子市,散田町２丁目７番３７号,,13,201,1930832,,,2025-01-06,清算の結了等,,,2015-10-05,1,,,,,ミカヅキアン,0
2080,8010401153140,登記記録の閉鎖等,0,2025-01-09,2024-12-16,アグラジャパン株式会社,,株式会社,東京都,渋谷区,道玄坂２丁目２５番５号島田ビル５階,,13,113,1500043,,,2024-12-16,清算の結了等,,,2020-06-04,1,,,,,アグラジャパン,0
2089,8010403011206,登記記録の閉鎖等,0,2025-01-09,2025-01-06,ＧＰ　ＳＴＲＡＴＥＧＩＥＳ　ＪＡＰＡＮ合同会社,,合同会社,東京都,江東区,青海２丁目７番４号ｔｈｅＳＯＨＯ４１３号室,,13,108,1350064,,,2025-01-06,合併による解散等,1010601036861,令和７年１月１日東京都江東区青海二丁目７番４号ｔｈｅＳＯＨＯ４１３号室ティティアイ・ジャパン株式会社（1010601036861）に合併し解散,2015-10-05,1,,,,,ジーピーストラテジーズジャパン,0
2108,8011001117353,登記記録の閉鎖等,0,2025-01-09,2024-12-25,株式会社ｚｅｒｏ,,株式会社,東京都,新宿区,神楽坂６丁目４２神楽坂喜多川ビル３Ｆ,,13,104,1620825,,,2024-12-25,合併による解散等,3011001069046,令和６年１２月２５日東京都新宿区神楽坂６－４２神楽坂喜多川ビル３Ｆ株式会社ｏｎｅ（3011001069046）に合併し解散,2017-07-11,1,,,,,ゼロ,0
2109,8011001131833,登記記録の閉鎖等,0,2025-01-09,2024-12-06,株式会社Ｕｎｌａｃｅ,,株式会社,東京都,渋谷区,渋谷３丁目９－１０渋谷アサヒビル６階,,13,113,1500002,,,2024-12-06,清算の結了等,,,2020-01-16,1,,,,,アンレース,0
2112,8011001148646,登記記録の閉鎖等,0,2025-01-09,2024-12-06,株式会社ＦＡＴＢＯＹ,,株式会社,東京都,渋谷区,神宮前６丁目２３番４号桑野ビル２階,,13,113,1500001,,,2024-12-06,清算の結了等,,,2022-07-15,1,,,,,ファットボーイ,0
2115,8011003013162,登記記録の閉鎖等,0,2025-01-09,2024-12-06,合同会社ｋｔｋｒ,,合同会社,東京都,渋谷区,神宮前６丁目２３番４号桑野ビル２階,,13,113,1500001,,,2024-12-06,清算の結了等,,,2021-08-06,1,,,,,キタコレ,0
2122,8011105008416,登記記録の閉鎖等,0,2025-01-09,2024-12-25,一般社団法人重炭酸温浴ＮＯ療法普及協会,,その他の設立登記法人,東京都,新宿区,西新宿８丁目１４番１８号７Ｆ,,13,104,1600023,,,2024-12-25,清算の結了等,,,2018-08-03,1,,,,,ジュウタンサンオンヨクエヌオーリョウホウフキュウキョウカイ,0
2128,8011502002013,登記記録の閉鎖等,0,2025-01-09,2024-12-27,有限会社建築総合計画高橋事務所,,有限会社,東京都,北区,赤羽２丁目６０番８号,,13,117,1150045,,,2024-12-27,清算の結了等,,,2015-10-05,1,,,,,ケンチクソウゴウケイカクタカハシジムショ,0
2147,8020001141032,登記記録の閉鎖等,0,2025-01-09,2024-12-19,株式会社東海美術加工,,株式会社,神奈川県,横浜市港南区,港南台５丁目６番３７号,,14,111,2340054,,,2024-12-19,清算の結了等,,,2021-04-22,1,,,,,トウカイビジュツカコウ,0
2181,8040001117039,登記記録の閉鎖等,0,2025-01-09,2024-12-26,アプリエイト株式会社,,株式会社,千葉県,習志野市,東習志野２丁目１８番３９号,,12,216,2750001,,,2024-12-26,清算の結了等,,,2021-02-05,1,,,,,アプリエイト,0
2182,8040001133705,登記記録の閉鎖等,0,2025-01-09,2024-12-25,株式会社和進,,株式会社,千葉県,安房郡鋸南町,下佐久間３５５０－１,,12,463,2992115,,,2024-12-25,清算の結了等,,,2024-05-22,1,,,,,ワシン,0
2195,8060001032855,登記記録の閉鎖等,0,2025-01-09,2024-12-26,しょう和株式会社,,株式会社,栃木県,宇都宮市,江曽島町１０９６番地１,,09,201,3210102,,,2024-12-26,清算の結了等,,,2020-08-17,1,,,,,ショウワ,0
2200,8070001036987,登記記録の閉鎖等,0,2025-01-09,2025-01-06,株式会社煌,,株式会社,群馬県,邑楽郡板倉町,大字飯野２０３８番地コムハウス‐２０７,,10,521,3740123,,,2025-01-06,清算の結了等,,,2020-07-06,1,,,,,カガヤキ,0
2206,8080401013882,登記記録の閉鎖等,0,2025-01-09,2024-12-27,株式会社ＪＡＰＡＮ　Ｆ・Ｐ・Ｋ,,株式会社,静岡県,浜松市中央区,大人見町１２番地の４５,,22,138,4311112,,,2024-12-27,清算の結了等,,,2015-10-05,1,,,,,ジャパンエフピーケー,0
2216,8120001151681,登記記録の閉鎖等,0,2025-01-09,2025-01-07,株式会社ホマレコーポレーション,,株式会社,大阪府,大阪市中央区,玉造１丁目２２番１８号グランピア豊崎４０１号,,27,128,5400004,,,2025-01-07,清算の結了等,,,2015-10-05,1,,,,,ホマレコーポレーション,0
2236,8140001067620,登記記録の閉鎖等,0,2025-01-09,2024-12-27,株式会社Ｄｅｌｆｉｏｒｅ,,株式会社,兵庫県,神戸市須磨区,多井畑南町３番地の５デルフィオーレ須磨２０３,,28,107,6540132,,,2024-12-27,清算の結了等,,,2015-10-05,1,,,,,デルフィオーレ,0
2266,8200001032568,登記記録の閉鎖等,0,2025-01-09,2025-01-07,株式会社ＹＵＴＥＣ,,株式会社,岐阜県,不破郡垂井町,綾戸１５７番地の１,,21,361,5032112,,,2025-01-07,清算の結了等,,,2016-02-15,1,,,,,ユーテック,0
2275,8240002005940,登記記録の閉鎖等,0,2025-01-09,2025-01-06,有限会社光和電設,,有限会社,広島県,広島市佐伯区,五日市中央２丁目１番２５－７号,,34,108,7315128,,,2025-01-06,清算の結了等,,,2015-10-05,1,,,,,コウワデンセツ,0
2281,8250005003486,登記記録の閉鎖等,0,2025-01-09,2024-12-26,観音寺,,その他の設立登記法人,山口県,下関市,西観音町５番１号,,35,201,7520905,,,2024-12-26,清算の結了等,,,2015-10-05,1,,,,,カンノンジ,0
2286,8290001084023,登記記録の閉鎖等,0,2025-01-09,2024-12-16,株式会社ＢＡＳＥ,,株式会社,福岡県,福岡市西区,小戸４丁目１６番１５号３０２,,40,135,8190001,,,2024-12-16,清算の結了等,,,2019-01-24,1,,,,,ベース,0
2299,8340001011913,登記記録の閉鎖等,0,2025-01-09,2024-12-26,パイオニアプラズマディスプレイ株式会社,,株式会社,鹿児島県,出水市,大野原町２０８０番地,,46,208,8990216,,,2024-12-26,清算の結了等,,,2015-10-05,1,,,,,パイオニアプラズマディスプレイ,0
2310,8380003005827,登記記録の閉鎖等,0,2025-01-09,2024-12-24,合同会社みらいエナジーワークス,,合同会社,福島県,郡山市,御前南４丁目３６番地ウィンザー大槻Ｂ３０３,,07,203,9630209,,,2024-12-24,清算の結了等,,,2024-07-29,1,,,,,ミライエナジーワークス,0
2314,8410001004034,登記記録の閉鎖等,0,2025-01-09,2024-12-27,男鹿寒風石工業株式会社,,株式会社,秋田県,男鹿市,脇本脇本字上野１１５番地,,05,206,0100342,,,2024-12-27,清算の結了等,,,2015-10-05,1,,,,,オガカンプウセキコウギョウ,0
2318,8430002039135,登記記録の閉鎖等,0,2025-01-09,2025-01-06,有限会社健創舎,,有限会社,北海道,札幌市中央区,南十六条西７丁目２番８号,,01,101,0640916,,,2025-01-06,清算の結了等,,,2015-10-05,1,,,,,ケンソウシャ,0
2333,8470002017748,登記記録の閉鎖等,0,2025-01-09,2025-01-06,有限会社前田組,,有限会社,香川県,さぬき市,寒川町石田西４２２番地,,37,206,7692322,,,2025-01-06,清算の結了等,,,2015-10-05,1,,,,,マエダグミ,0
2336,8500001020410,登記記録の閉鎖等,0,2025-01-09,2024-12-25,株式会社新和住宅,,株式会社,愛媛県,松山市,枝松６丁目１５番地１,,38,201,7900962,,,2024-12-25,清算の結了等,,,2017-02-15,1,,,,,シンワジュウタク,0
2341,9010001241237,登記記録の閉鎖等,0,2025-01-09,2024-12-20,株式会社ＫＳＴ９,,株式会社,東京都,千代田区,内幸町２丁目１番６号,,13,101,1000011,,,2024-12-20,清算の結了等,,,2024-01-05,1,,,,,ケイエスティーナイン,0
2355,9010102005887,登記記録の閉鎖等,0,2025-01-09,2025-01-06,有限会社ファインテック,,有限会社,東京都,八王子市,諏訪町１０８番地６,,13,201,1930812,,,2025-01-06,清算の結了等,,,2015-10-05,1,,,,,ファインテック,0
2377,9010901024583,登記記録の閉鎖等,0,2025-01-09,2024-12-18,丸和産商株式会社,,株式会社,東京都,世田谷区,世田谷３丁目８番５号,,13,112,1540017,,,2024-12-18,清算の結了等,,,2015-10-05,1,,,,,マルワサンショウ,0
2383,9011001137466,登記記録の閉鎖等,0,2025-01-09,2024-12-09,株式会社ＲＥＩＭＡＧＩＮＥＳ,,株式会社,東京都,渋谷区,渋谷１丁目１番３号アミーホール３階,,13,113,1500002,,,2024-12-09,清算の結了等,,,2020-12-14,1,,,,,リイマジンズ,0
2425,9013303005375,登記記録の閉鎖等,0,2025-01-09,2024-12-16,合同会社カラベル,,合同会社,東京都,港区,南青山２丁目２番１５号,,13,103,1070062,,,2024-12-16,清算の結了等,,,2020-10-27,1,,,,,カラベル,0
2428,9020001080048,登記記録の閉鎖等,0,2025-01-09,2025-01-06,株式会社エス・プランニング,,株式会社,岡山県,岡山市北区,中山下１丁目６番４５号－６０４号,,33,101,7000821,,,2025-01-06,清算の結了等,,,2015-10-05,1,,,,,エスプランニング,0
2438,9020002029151,登記記録の閉鎖等,0,2025-01-09,2024-12-25,有限会社浦部クリーニング,,有限会社,神奈川県,横浜市南区,通町３丁目５４番地,,14,105,2320056,,,2024-12-25,清算の結了等,,,2015-10-05,1,,,,,ウラベクリーニング,0
2449,9030001050371,登記記録の閉鎖等,0,2025-01-09,2024-12-25,株式会社ドットプレミアム,,株式会社,東京都,豊島区,目白２丁目３－２２クレスト目白１０２,,13,116,1710031,,,2024-12-25,清算の結了等,,,2015-10-05,1,,,,,ドットプレミアム,0
2451,9030001085806,登記記録の閉鎖等,0,2025-01-09,2024-12-26,株式会社ゼットスタッフ,,株式会社,埼玉県,熊谷市,江南中央２丁目１５番地１,,11,202,3600114,,,2024-12-26,清算の結了等,,,2015-10-05,1,,,,,ゼットスタッフ,0
2461,9030003023103,登記記録の閉鎖等,0,2025-01-09,2024-12-24,合同会社Ｈ＆Ｃ　Ｌｏｇｉｓｔｉｃｓ,,合同会社,埼玉県,草加市,吉町３丁目６－４６,,11,221,3400017,,,2024-12-24,清算の結了等,,,2023-12-08,1,,,,,エイチアンドシーロジスティクス,0
2468,9040002041666,登記記録の閉鎖等,0,2025-01-09,2024-12-26,有限会社ホームドライ,,有限会社,千葉県,浦安市,北栄４丁目３番２３号,,12,227,2790002,,,2024-12-26,清算の結了等,,,2015-10-05,1,,,,,ホームドライ,0
2474,9050001026048,登記記録の閉鎖等,0,2025-01-09,2024-12-26,株式会社サプライサービス,,株式会社,茨城県,龍ケ崎市,上町４１１２番地,,08,208,3010012,,,2024-12-26,清算の結了等,,,2015-10-05,1,,,,,サプライサービス,0
2480,9060002002947,登記記録の閉鎖等,0,2025-01-09,2024-12-26,有限会社カー用品川上,,有限会社,栃木県,宇都宮市,柳田町５７３番地１,,09,201,3210902,,,2024-12-26,清算の結了等,,,2015-10-05,1,,,,,カーヨウヒンカワカミ,0
2484,9070002023414,登記記録の閉鎖等,0,2025-01-09,2025-01-08,有限会社小柴製作所,,有限会社,群馬県,桐生市,広沢町４丁目４５９１番地７,,10,203,3760013,,,2025-01-08,清算の結了等,,,2015-10-05,1,,,,,コシバセイサクショ,0
2489,9090001012671,登記記録の閉鎖等,0,2025-01-09,2024-12-25,株式会社アルファプラス・サービス,,株式会社,山梨県,甲府市,南口町２番７号,,19,201,4000863,,,2024-12-25,合併による解散等,6090002002071,令和６年１２月２５日山梨県甲府市南口町２番７号株式会社アルファケア（6090002002071）に合併し解散,2015-10-05,1,,,,,アルファプラスサービス,0
2493,9090002015772,登記記録の閉鎖等,0,2025-01-09,2024-12-25,有限会社秋山木材工業所,,有限会社,山梨県,南巨摩郡富士川町,最勝寺２５番地,,19,368,4000502,,,2024-12-25,清算の結了等,,,2023-04-28,1,,,,,アキヤマモクザイコウギョウショ,0
2526,9140001036442,登記記録の閉鎖等,0,2025-01-09,2024-12-27,千草工業株式会社,,株式会社,兵庫県,三木市,志染町西自由が丘１丁目６６９番地,,28,215,6730551,,,2024-12-27,清算の結了等,,,2015-10-05,1,,,,,チグサコウギョウ,0
2527,9140001044214,登記記録の閉鎖等,0,2025-01-09,2024-12-27,福田石油株式会社,,株式会社,兵庫県,高砂市,高砂町藍屋町１６９０番地の９３,,28,216,6760037,,,2024-12-27,清算の結了等,,,2015-10-05,1,,,,,フクダセキユ,0
2538,9140005021770,登記記録の閉鎖等,0,2025-01-09,2024-12-27,一般社団法人ケアサポートふぁーすと,,その他の設立登記法人,兵庫県,三木市,緑が丘町東４丁目１３－９,,28,215,6730533,,,2024-12-27,清算の結了等,,,2015-10-05,1,,,,,ケアサポートファースト,0
2541,9160003002671,登記記録の閉鎖等,0,2025-01-09,2025-01-06,合同会社フィールド,,合同会社,滋賀県,大津市,滋賀里４丁目７番３９－３０１号,,25,201,5200006,,,2025-01-06,清算の結了等,,,2022-09-22,1,,,,,フィールド,0
2545,9180001126875,登記記録の閉鎖等,0,2025-01-09,2024-12-24,株式会社レンタカーの窓口,,株式会社,愛知県,名古屋市千種区,内山２丁目１４番４号,,23,101,4640075,,,2024-12-24,清算の結了等,,,2017-03-06,1,,,,,レンタカーノマドグチ,0
2556,9180301010151,登記記録の閉鎖等,0,2025-01-09,2024-12-25,日伸プラスチック株式会社,,株式会社,愛知県,豊川市,御津町下佐脇洗出８２番地の１６,,23,207,4410302,,,2024-12-25,清算の結了等,,,2015-10-05,1,,,,,ニッシンプラスチック,0
2558,9200001003980,登記記録の閉鎖等,0,2025-01-09,2025-01-06,日本蜂業株式会社,,株式会社,岐阜県,岐阜市,白山町３丁目４番地,,21,201,5008172,,,2025-01-06,合併による解散等,4200001000099,令和７年１月１日岐阜市加納富士町一丁目１番地株式会社秋田屋本店（4200001000099）に合併し解散,2015-10-05,1,,,,,ニホンホウギョウ,0
2562,9200002017591,登記記録の閉鎖等,0,2025-01-09,2025-01-08,有限会社ティーエイティーエレクト,,有限会社,岐阜県,可児市,徳野南２丁目５６番地の２,,21,214,5090205,,,2025-01-08,清算の結了等,,,2015-10-05,1,,,,,ティーエイティーエレクト,0
2571,9230002010321,登記記録の閉鎖等,0,2025-01-09,2025-01-06,有限会社アグリ・プラン,,有限会社,富山県,小矢部市,福上２２６番地,,16,209,9320823,,,2025-01-06,清算の結了等,,,2015-10-05,1,,,,,アグリプラン,0
2577,9260001016977,登記記録の閉鎖等,0,2025-01-09,2024-12-26,株式会社はぁもにぃ倉敷,,株式会社,岡山県,倉敷市,幸町２番３０号,,33,202,7100051,,,2024-12-26,清算の結了等,,,2015-10-05,1,,,,,ハァモニィクラシキ,0
2579,9260002014534,登記記録の閉鎖等,0,2025-01-09,2024-12-27,賀陽タクシー有限会社,,有限会社,岡山県,加賀郡吉備中央町,竹荘７９１番地１,,33,681,7161122,,,2024-12-27,清算の結了等,,,2015-10-05,1,,,,,カヨウタクシー,0
2605,9370002019885,登記記録の閉鎖等,0,2025-01-09,2024-12-27,有限会社石川建築,,有限会社,宮城県,富谷市,東向陽台３丁目３３番３号,,04,216,9813331,,,2024-12-27,清算の結了等,,,2015-10-05,1,,,,,イシカワケンチク,0
2606,9380001029793,登記記録の閉鎖等,0,2025-01-09,2024-12-24,金澤板金工業株式会社,,株式会社,福島県,東白川郡矢祭町,大字下石井字若宮２３番地１５,,07,482,9635202,,,2024-12-24,清算の結了等,,,2019-02-20,1,,,,,カナザワバンキンコウギョウ,0
2612,9410005004070,登記記録の閉鎖等,0,2025-01-09,2024-12-27,大曲市大曲牧野農業協同組合,,その他の設立登記法人,秋田県,大仙市,飯田字屋舗通７番地,,05,212,0140067,,,2024-12-27,清算の結了等,,,2015-10-05,1,,,,,オオマガリシオオマガリボクヤ,0
2614,9420003001498,登記記録の閉鎖等,0,2025-01-09,2024-12-24,合同会社撫子,,合同会社,青森県,弘前市,大字撫牛子２丁目４番地２４,,02,202,0368075,,,2024-12-24,清算の結了等,,,2015-10-05,1,,,,,ナデシコ,0
2633,9500002006110,登記記録の閉鎖等,0,2025-01-09,2025-01-06,有限会社松山エムエス,,有限会社,愛媛県,松山市,萱町６丁目１６９番地２,,38,201,7900813,,,2025-01-06,清算の結了等,,,2015-10-05,1,,,,,マツヤマエムエス,0
