sequenceNumber,corporateNumber,process,correct,updateDate,changeDate,name,nameImageId,kind,prefectureName,cityName,streetNumber,addressImageId,prefectureCode,cityCode,postCode,addressOutside,addressOutsideImageId,closeDate,closeCause,successorCorporateNumber,changeCause,assignmentDate,latest,enName,enPrefectureName,enCityName,enAddressOutside,furigana,hihyoji
5,1010001247514,新規,0,2024-08-16,2024-08-16,菱能量工業株式会社,,株式会社,東京都,文京区,千石４丁目１４番９号,,13,105,1120011,,,,,,,2024-08-16,1,,,,,ヒシノウリョウコウギョウ,0
12,1010101016281,新規,0,2024-08-16,2024-08-16,株式会社いろあそび,,株式会社,東京都,八王子市,鹿島９４５番地１４４,,13,201,1920353,,,,,,,2024-08-16,1,,,,,イロアソビ,0
19,1010401184472,新規,0,2024-08-16,2024-08-16,ＥＮ株式会社,,株式会社,東京都,港区,赤坂３丁目１１番１４号,,13,103,1070052,,,,,,,2024-08-16,1,,,,,エン,0
20,1010401184506,新規,0,2024-08-16,2024-08-16,株式会社ペンタゴン,,株式会社,東京都,港区,高輪４丁目２３－６ハイホーム高輪１００１号室,,13,103,1080074,,,,,,,2024-08-16,1,,,,,ペンタゴン,0
31,1010903009284,新規,0,2024-08-16,2024-08-16,合同会社Ｔｏｋｙｏ　Ｈｕｄｄｌｅ,,合同会社,東京都,世田谷区,北沢２丁目２７番９号ユープレイス下北沢２階１－１１号,,13,112,1550031,,,,,,,2024-08-16,1,,,,,トーキョーハドル,0
39,1011101108432,新規,0,2024-08-16,2024-08-16,株式会社ＡＬｖａｒｒｉｏ,,株式会社,東京都,新宿区,大京町３１番地,,13,104,1600015,,,,,,,2024-08-16,1,,,,,アルバリオ,0
40,1011101108473,新規,0,2024-08-16,2024-08-16,株式会社オフィスＮｅｋｏ,,株式会社,東京都,新宿区,新宿５丁目１１番１３号富士新宿ビル４階,,13,104,1600022,,,,,,,2024-08-16,1,,,,,オフィスネコ,0
42,1011103014810,新規,0,2024-08-16,2024-08-16,０１１０Ｊａｐａｎ合同会社,,合同会社,東京都,新宿区,北新宿１丁目２番１７－４０１号,,13,104,1690074,,,,,,,2024-08-16,1,,,,,ゼロイチイチゼロジャパン,0
43,1011103014819,新規,0,2024-08-16,2024-08-16,合同会社５ＤＡＹＳＰＬＵＳ,,合同会社,東京都,新宿区,新宿２丁目１５－８,,13,104,1600022,,,,,,,2024-08-16,1,,,,,ファイブデイズプラス,0
45,1011301029924,新規,0,2024-08-16,2024-08-16,百年計画株式会社,,株式会社,東京都,杉並区,西荻南４丁目２６－１０,,13,115,1670053,,,,,,,2024-08-16,1,,,,,ヒャクネンケイカク,0
50,1011303005262,新規,0,2024-08-16,2024-08-16,ＳＨＩＮＩＮＧ　ＳＴＡＲ合同会社,,合同会社,東京都,杉並区,天沼１丁目９番４号コーポラス清和１０３,,13,115,1670032,,,,,,,2024-08-16,1,,,,,,0
53,1011501031052,新規,0,2024-08-16,2024-08-16,祥和国際医療株式会社,,株式会社,東京都,北区,浮間１丁目１－１４リムジンビル２１５号,,13,117,1150051,,,,,,,2024-08-16,1,,,,,ショウワコクサイイリョウ,0
57,1011801044704,新規,0,2024-08-16,2024-08-16,株式会社ＲＯＳ,,株式会社,東京都,足立区,平野３丁目７番２６号,,13,121,1210076,,,,,,,2024-08-16,1,,,,,アールオーエス,0
58,1011803006405,新規,0,2024-08-16,2024-08-16,合同会社ＫｕＲｏＲａ,,合同会社,東京都,足立区,竹の塚３丁目１７番６－３０５号,,13,121,1210813,,,,,,,2024-08-16,1,,,,,クロラ,0
60,1012301014049,新規,0,2024-08-16,2024-08-16,株式会社Ｇｌｏｂａｌ　Ｃａｒｅｅｒ　Ｌａｂ,,株式会社,東京都,町田市,野津田町３６０２－１,,13,209,1950063,,,,,,,2024-08-16,1,,,,,グローバルキャリアラボ,0
63,1020001158413,新規,0,2024-08-16,2024-08-16,ワイズドリーム株式会社,,株式会社,神奈川県,横浜市港北区,高田東４丁目１６番３７号カーサＡ１０１,,14,109,2230065,,,,,,,2024-08-16,1,,,,,ワイズドリーム,0
65,1020003026634,新規,0,2024-08-16,2024-08-16,合同会社ＳＡＴＩＹＯ,,合同会社,神奈川県,川崎市中原区,井田三舞町１４番２２号フォルム元住吉２０２,,14,133,2110037,,,,,,,2024-08-16,1,,,,,サチヨ,0
67,1021001083023,新規,0,2024-08-16,2024-08-16,株式会社ＶＥＡＭ,,株式会社,神奈川県,綾瀬市,小園２６５番地１クレールコート２０１,,14,218,2521121,,,,,,,2024-08-16,1,,,,,ヴィーム,0
68,1021001083031,新規,0,2024-08-16,2024-08-16,株式会社たからもの,,株式会社,神奈川県,小田原市,国府津５丁目１２番４号,,14,206,2560812,,,,,,,2024-08-16,1,,,,,タカラモノ,0
70,1021003014884,新規,0,2024-08-16,2024-08-16,合同会社ふくまち企画,,合同会社,神奈川県,相模原市中央区,横山２丁目１４番２１号,,14,152,2520242,,,,,,,2024-08-16,1,,,,,フクマチキカク,0
77,1030001161754,新規,0,2024-08-16,2024-08-16,株式会社Ｋ‐ＮＥＸＴ,,株式会社,埼玉県,川口市,大字西新井宿２７０番地の３５,,11,203,3330833,,,,,,,2024-08-16,1,,,,,ケーネクスト,0
81,1030003024942,新規,0,2024-08-16,2024-08-16,合同会社ＨＯＭｉＥｓ,,合同会社,埼玉県,越谷市,レイクタウン２丁目４番地５ブローテ２０５,,11,222,3430828,,,,,,,2024-08-16,1,,,,,ホーミーズ,0
88,1040003025618,新規,0,2024-08-16,2024-08-16,合同会社Ｈｏｎｅｙ　ｂｅｅ,,合同会社,千葉県,千葉市稲毛区,長沼原町３１７番地１ヴィルフォーレ稲毛１番館３１１号,,12,103,2630001,,,,,,,2024-08-16,1,,,,,ハニービー,0
89,1050001055260,新規,0,2024-08-16,2024-08-16,ＩｎｎｏｖａｔｅＸ株式会社,,株式会社,茨城県,東茨城郡城里町,大字下古内１６８２番地の６,,08,310,3114314,,,,,,,2024-08-16,1,,,,,イノベートエックス,0
90,1050003008588,新規,0,2024-08-16,2024-08-16,合同会社事上磨錬,,合同会社,茨城県,牛久市,女化町３８番地,,08,219,3001214,,,,,,,2024-08-16,1,,,,,ジジョウマレン,0
94,1070001042075,新規,0,2024-08-16,2024-08-16,株式会社ＳＨＩＮＫＯ,,株式会社,群馬県,太田市,新田市野井町３０６６番地２,,10,205,3700314,,,,,,,2024-08-16,1,,,,,シンコー,0
106,1100003007717,新規,0,2024-08-16,2024-08-16,合同会社ＮＥＲＯ,,合同会社,長野県,諏訪市,大字豊田１２２５番地１０,,20,206,3920016,,,,,,,2024-08-16,1,,,,,ネロ,0
110,1110001038647,新規,0,2024-08-16,2024-08-16,株式会社Ｗａｎｄｅｒｉｎｇ　Ｓｅａｇｕｌｌ,,株式会社,新潟県,新潟市中央区,南笹口１丁目４番１０号８ラ・カシェット南笹口２０３号,,15,103,9500912,,,,,,,2024-08-16,1,,,,,ワンダリングシーガル,0
120,1120001267807,新規,0,2024-08-16,2024-08-16,Ｒａｄｗａｒｅ　Ｓｙｓｔｅｍ株式会社,,株式会社,大阪府,大阪市淀川区,新北野１丁目１２番１０－７０５号,,27,123,5320025,,,,,,,2024-08-16,1,,,,,ラドウェアシステム,0
121,1120001267831,新規,0,2024-08-16,2024-08-16,茂林株式会社,,株式会社,大阪府,大阪市中央区,本町４丁目４番１２－２０１号,,27,128,5410053,,,,,,,2024-08-16,1,,,,,モリン,0
122,1120001267856,新規,0,2024-08-16,2024-08-16,乾元正和株式会社,,株式会社,大阪府,大阪市西淀川区,姫島４丁目１０番２４号ユニオンビル３－４０２号室,,27,113,5550033,,,,,,,2024-08-16,1,,,,,カンゲンセイワ,0
128,1120003027317,新規,0,2024-08-16,2024-08-16,合同会社ハイライト,,合同会社,大阪府,大阪市北区,天満３丁目５－６－４０５,,27,127,5300043,,,,,,,2024-08-16,1,,,,,ハイライト,0
135,1120103006006,新規,0,2024-08-16,2024-08-16,合同会社八代,,合同会社,大阪府,松原市,北新町１丁目３番３号２０３号室,,27,217,5800025,,,,,,,2024-08-16,1,,,,,ヤシロ,0
138,1122001038353,新規,0,2024-08-16,2024-08-16,株式会社イケウチ,,株式会社,大阪府,東大阪市,俊徳町１丁目３番２３号桜ガーデン１０１,,27,227,5770831,,,,,,,2024-08-16,1,,,,,イケウチ,0
142,1130001077718,新規,0,2024-08-16,2024-08-16,株式会社福裕工業,,株式会社,京都府,宇治市,宇治大谷２６番地の６４,,26,204,6110021,,,,,,,2024-08-16,1,,,,,フクユウコウギョウ,0
148,1140001135549,新規,0,2024-08-16,2024-08-16,海鷹商事株式会社,,株式会社,兵庫県,神戸市中央区,波止場町６番５号上屋ＳＯ－ＫＯオフィス０８,,28,110,6500042,,,,,,,2024-08-16,1,,,,,カイヨウショウジ,0
149,1140003020955,新規,0,2024-08-16,2024-08-16,ＡＶＡＮＴＩ合同会社,,合同会社,兵庫県,神戸市中央区,北長狭通３丁目９番１０－３０４号,,28,110,6500012,,,,,,,2024-08-16,1,,,,,アヴァンティ,0
160,1180003027245,新規,0,2024-08-16,2024-08-16,合同会社今枝撚糸工場,,合同会社,愛知県,一宮市,今伊勢町馬寄字東瀬古６６番地１,,23,203,4910051,,,,,,,2024-08-16,1,,,,,イマエダネンシコウジョウ,0
161,1180005020735,新規,0,2024-08-16,2024-08-16,一般社団法人Ｃｉｒｃｕｌａｒ　Ｃｏｒｅ,,その他の設立登記法人,愛知県,名古屋市中村区,名駅４丁目９番８号,,23,105,4500002,,,,,,,2024-08-16,1,,,,,サーキュラーコア,0
172,1220001026161,新規,0,2024-08-16,2024-08-16,株式会社高能商事,,株式会社,石川県,七尾市,和倉町ワ部６５番地１ハーバーハウス８０２号,,17,202,9260175,,,,,,,2024-08-16,1,,,,,コウノウショウジ,0
175,1230003002275,新規,0,2024-08-16,2024-08-16,Ａ‐ｇｒｏｕｐ合同会社,,合同会社,富山県,中新川郡立山町,向新庄８２番地６,,16,323,9300255,,,,,,,2024-08-16,1,,,,,エーグループ,0
184,1260003004863,新規,0,2024-08-16,2024-08-16,合同会社ＨＡＳＥ,,合同会社,岡山県,岡山市中区,土田１５４３番地２,,33,102,7038217,,,,,,,2024-08-16,1,,,,,ハズ,0
188,1290001106667,新規,0,2024-08-16,2024-08-16,株式会社Ｅｖｅ,,株式会社,福岡県,福岡市博多区,博多駅前１丁目２３番２号ＰａｒｋＦｒｏｎｔ博多駅前１丁目５Ｆ－Ｂ,,40,132,8120011,,,,,,,2024-08-16,1,,,,,イヴ,0
189,1290001106997,新規,0,2024-08-16,2024-08-16,株式会社ＧＲＥＥＮ　ＨＩＬＬ,,株式会社,福岡県,福岡市中央区,薬院４丁目１３番６１号,,40,133,8100022,,,,,,,2024-08-16,1,,,,,グリーンヒル,0
191,1290003015627,新規,0,2024-08-16,2024-08-16,ＳＫ　Ａｃｃｏｕｎｔｉｎｇ合同会社,,合同会社,福岡県,福岡市中央区,渡辺通５丁目１４－１２南天神ビル３Ｆ,,40,133,8100004,,,,,,,2024-08-16,1,,,,,エスケーアカウンティング,0
194,1290801030810,新規,0,2024-08-16,2024-08-16,株式会社ＯＴＴＯ,,株式会社,福岡県,北九州市小倉北区,熊谷４丁目１番３１号,,40,106,8030864,,,,,,,2024-08-16,1,,,,,オット,0
196,1300003002169,新規,0,2024-08-16,2024-08-16,合同会社さんだた,,合同会社,佐賀県,唐津市,菜畑３３７５番地,,41,202,8470844,,,,,,,2024-08-16,1,,,,,サンダタ,0
202,1330001032363,新規,0,2024-08-16,2024-08-16,株式会社濱田水産,00135977,株式会社,熊本県,宇土市,戸口町８９１番地２,,43,211,8693174,,,,,,,2024-08-16,1,,,,,ハマダスイサン,0
204,1330003010516,新規,0,2024-08-16,2024-08-16,合同会社Ｍｏｒｅ　Ｌｉｆｅ,,合同会社,熊本県,上益城郡嘉島町,大字上島１６９２番地１０,,43,442,8613106,,,,,,,2024-08-16,1,,,,,モアライフ,0
205,1330003010524,新規,0,2024-08-16,2024-08-16,合同会社ＣＲＯ,,合同会社,熊本県,熊本市北区,清水新地６丁目５番４６－２号,,43,105,8618075,,,,,,,2024-08-16,1,,,,,シーアールオー,0
206,1350001019144,新規,0,2024-08-16,2024-08-16,株式会社ＮＫＹＴコーポレーション,,株式会社,宮崎県,宮崎市,恒久５丁目２４番地４,,45,201,8800913,,,,,,,2024-08-16,1,,,,,エヌケイワイティー,0
211,1370001051665,新規,0,2024-08-16,2024-08-16,セカンドステージ株式会社,,株式会社,宮城県,仙台市若林区,六丁の目南町１番１６号,,04,103,9840013,,,,,,,2024-08-16,1,,,,,セカンドステージ,0
227,1430001092455,新規,0,2024-08-16,2024-08-16,株式会社ＰＲＯＵＳＴ,,株式会社,北海道,札幌市東区,東雁来九条４丁目５番１２号,,01,103,0070829,,,,,,,2024-08-16,1,,,,,プルースト,0
228,1430001092488,新規,0,2024-08-16,2024-08-16,株式会社ラストヒット,,株式会社,北海道,札幌市北区,北七条西４丁目１番地１トーカン札幌第一キャステール６０７,,01,102,0600807,,,,,,,2024-08-16,1,,,,,ラストヒット,0
229,1430001092505,新規,0,2024-08-16,2024-08-16,株式会社Ｃａｒ　Ｍｏｔｉｏｎ,,株式会社,北海道,札幌市北区,篠路町拓北３０番地６７３,,01,102,0028054,,,,,,,2024-08-16,1,,,,,カーモーション,0
230,1430003016684,新規,0,2024-08-16,2024-08-16,合同会社ＤＩＤ,,合同会社,北海道,札幌市厚別区,厚別中央三条４丁目２２－２３－９０１,,01,108,0040053,,,,,,,2024-08-16,1,,,,,ディーアイディー,0
231,1430003016701,新規,0,2024-08-16,2024-08-16,合同会社丸セ出口商店,,合同会社,北海道,札幌市中央区,大通西２２丁目２番１号インフィニティ２２　２０１号室,,01,101,0640820,,,,,,,2024-08-16,1,,,,,マルセデグチショウテン,0
234,1460003001007,新規,0,2024-08-16,2024-08-16,合同会社幸喜,,合同会社,北海道,釧路市,中園町２２－１１１シャンテ中園１０１,,01,206,0850052,,,,,,,2024-08-16,1,,,,,コウキ,0
249,2010001247190,新規,0,2024-08-16,2024-08-16,シックスハンドレッドホールディングス株式会社,,株式会社,東京都,千代田区,内神田１丁目２番４号,,13,101,1010047,,,,,,,2024-08-16,1,,,,,シックスハンドレッドホールディングス,0
250,2010001247397,新規,0,2024-08-16,2024-08-16,株式会社朝日フロントメディック,,株式会社,東京都,中央区,日本橋茅場町２丁目１番１１号,,13,102,1030025,,,,,,,2024-08-16,1,,,,,アサヒフロントメディック,0
251,2010001247447,新規,0,2024-08-16,2024-08-16,株式会社ネクストスキルアカデミー,,株式会社,東京都,千代田区,神田三崎町３丁目３番２０号ＶＯＲＴ水道橋ＩＩ６階,00135986,13,101,1010061,,,,,,,2024-08-16,1,,,,,ネクストスキルアカデミー,0
252,2010001247521,新規,0,2024-08-16,2024-08-16,ウイニングサポート株式会社,,株式会社,東京都,千代田区,大手町１丁目６番１号,,13,101,1000004,,,,,,,2024-08-16,1,,,,,ウイニングサポート,0
254,2010003044611,新規,0,2024-08-16,2024-08-16,Ｔｅｓｉｓ　Ｊａｐａｎ　Ａｉｒ　Ｃａｒｇｏ　Ａｇｅｎｃｙ合同会社,,合同会社,東京都,千代田区,五番町１２番地７－２０４３,,13,101,1020076,,,,,,,2024-08-16,1,,,,,テシスジャパンエアカーゴエージェンシー,0
255,2010003044652,新規,0,2024-08-16,2024-08-16,合同会社ヘルスケアアセット・シグマ,,合同会社,東京都,千代田区,平河町２丁目４番５号,,13,101,1020093,,,,,,,2024-08-16,1,,,,,ヘルスケアアセットシグマ,0
258,2010005038644,新規,0,2024-08-16,2024-08-16,一般社団法人ＩＧＲＯＵＮＤ,,その他の設立登記法人,東京都,千代田区,神田猿楽町２丁目２番８号ＩＬＬＵＭＩＲＩＳＥ神保町６Ｆ,,13,101,1010064,,,,,,,2024-08-16,1,,,,,アイグラウンド,0
264,2010401184505,新規,0,2024-08-16,2024-08-16,ＷＥＤＷＵ株式会社,,株式会社,東京都,港区,芝５丁目１９－７－３０８,,13,103,1080014,,,,,,,2024-08-16,1,,,,,ウィドゥー,0
265,2010401184604,新規,0,2024-08-16,2024-08-16,株式会社アドバンス,,株式会社,東京都,港区,三田４丁目１番１６号小阪邸１号室,,13,103,1080073,,,,,,,2024-08-16,1,,,,,アドバンス,0
269,2010601065769,新規,0,2024-08-16,2024-08-16,株式会社テント,,株式会社,東京都,墨田区,亀沢３丁目１２番１号スガタミビル６０３号,,13,107,1300014,,,,,,,2024-08-16,1,,,,,テント,0
270,2010603011028,新規,0,2024-08-16,2024-08-16,合同会社ＰＲＥＰ,,合同会社,東京都,江東区,塩浜１丁目４番３３－３４５号,,13,108,1350043,,,,,,,2024-08-16,1,,,,,プレップ,0
272,2010701046405,新規,0,2024-08-16,2024-08-16,株式会社ＯＭＮＩ産業保健サポート,,株式会社,東京都,品川区,東五反田２丁目５番地２号ＴＨＥＣＡＳＫＧＯＴＡＮＤＡＦＤ－０５,,13,109,1410022,,,,,,,2024-08-16,1,,,,,オムニサンギョウホケンサポート,0
274,2010801035332,新規,0,2024-08-16,2024-08-16,株式会社アート,,株式会社,東京都,大田区,多摩川１丁目２１番３号プチ・メゾン３０２,,13,111,1460095,,,,,,,2024-08-16,1,,,,,アート,0
277,2010903009283,新規,0,2024-08-16,2024-08-16,Ｂｅａｕｔｉｆｕｌ　ｆｒｏｍ　Ｗｉｔｈｉｎ合同会社,,合同会社,東京都,世田谷区,代沢２丁目２１番２号Ｍ’ｓレジデンス代沢２０３,,13,112,1550032,,,,,,,2024-08-16,1,,,,,ビューティフルフロムウィズイン,0
282,2011001164153,新規,0,2024-08-16,2024-08-16,Ｕｎｌｅａｓｈ株式会社,,株式会社,東京都,渋谷区,道玄坂１丁目１０番８号渋谷道玄坂東急ビル２Ｆ－Ｃ,,13,113,1500043,,,,,,,2024-08-16,1,,,,,アンリーシュ,0
286,2011101108431,新規,0,2024-08-16,2024-08-16,株式会社インテグロース,,株式会社,東京都,新宿区,西新宿３丁目３番１３号西新宿水間ビル６階,,13,104,1600023,,,,,,,2024-08-16,1,,,,,インテグロース,0
287,2011101108448,新規,0,2024-08-16,2024-08-16,株式会社ＮＯＢＵＮＡＧＡ,,株式会社,東京都,新宿区,新宿５丁目１５番６号新宿光陽ビル１００２,,13,104,1600022,,,,,,,2024-08-16,1,,,,,ノブナガ,0
288,2011101108456,新規,0,2024-08-16,2024-08-16,株式会社ＴＡＦＦＹ　ＰＬＡＮＮＩＮＧ,,株式会社,東京都,新宿区,舟町９番地３豊田ビル２１２,,13,104,1600006,,,,,,,2024-08-16,1,,,,,タフィープランニング,0
289,2011101108464,新規,0,2024-08-16,2024-08-16,本味旬食株式会社,,株式会社,東京都,新宿区,百人町１丁目１８番８号大久保カドビル２階ＬｉｎｋＳｐａｃｅ百人町Ｗ０２号室,,13,104,1690073,,,,,,,2024-08-16,1,,,,,ホンミシュンショク,0
290,2011201025709,新規,0,2024-08-16,2024-08-16,株式会社初尚,,株式会社,東京都,中野区,鷺宮５丁目７番１１号１０４室,,13,114,1650032,,,,,,,2024-08-16,1,,,,,ショショウ,0
292,2011301029931,新規,0,2024-08-16,2024-08-16,株式会社ＮＲＳ　Ａｓｓｅｔｓ　Ｐｌｕｓ,,株式会社,東京都,杉並区,西荻北２丁目２２番１５号,,13,115,1670042,,,,,,,2024-08-16,1,,,,,,0
297,2011601027981,新規,0,2024-08-16,2024-08-16,株式会社Ｒｅｉｓｔｙｌｅ,,株式会社,東京都,練馬区,貫井２丁目３番１号練月館２階,,13,120,1760021,,,,,,,2024-08-16,1,,,,,レイスタイル,0
301,2011701027527,新規,0,2024-08-16,2024-08-16,謙一株式会社,,株式会社,東京都,江戸川区,小松川４丁目５７－１,,13,123,1320034,,,,,,,2024-08-16,1,,,,,ケンイチ,0
303,2011801044703,新規,0,2024-08-16,2024-08-16,株式会社エスロード,,株式会社,東京都,足立区,綾瀬３丁目１６番４号とうしんビル２Ｆ,,13,121,1200005,,,,,,,2024-08-16,1,,,,,エスロード,0
305,2012303002034,新規,0,2024-08-16,2024-08-16,合同会社東京,,合同会社,東京都,町田市,玉川学園７丁目３番１２号２,,13,209,1940041,,,,,,,2024-08-16,1,,,,,トウキョウ,0
307,2012405005034,新規,0,2024-08-16,2024-08-16,一般財団法人ＵＭＥＺＺ,,その他の設立登記法人,東京都,武蔵野市,吉祥寺南町１丁目２７０３番１４,,13,203,1800003,,,,,,,2024-08-16,1,,,,,ウメズ,0
316,2020001158478,新規,0,2024-08-16,2024-08-16,株式会社リバティー,,株式会社,神奈川県,横浜市神奈川区,六角橋６丁目１５－１３－２０１,,14,102,2210802,,,,,,,2024-08-16,1,,,,,リバティー,0
317,2020001158486,新規,0,2024-08-16,2024-08-16,株式会社ＫａｍａＫｕｗａｉ,,株式会社,神奈川県,横浜市神奈川区,金港町５－１４クアドリフォリオ８階,,14,102,2210056,,,,,,,2024-08-16,1,,,,,カマクワイ,0
319,2020003026633,新規,0,2024-08-16,2024-08-16,合同会社ビッグトラウト,,合同会社,神奈川県,横浜市南区,弘明寺町７７－４２ユニーブル弘明寺１０３,,14,105,2320067,,,,,,,2024-08-16,1,,,,,ビッグトラウト,0
320,2021001083039,新規,0,2024-08-16,2024-08-16,株式会社ジーバレイ,,株式会社,神奈川県,横須賀市,佐島の丘２丁目１５番１０号,,14,201,2400108,,,,,,,2024-08-16,1,,,,,ジーバレイ,0
324,2021003014909,新規,0,2024-08-16,2024-08-16,合同会社ＡＲＴＥＯ,,合同会社,神奈川県,藤沢市,葛原２２８６－１７葛原貸事務所１Ｆ,,14,205,2520822,,,,,,,2024-08-16,1,,,,,アルテオ,0
332,2030001162000,新規,0,2024-08-16,2024-08-16,聖達株式会社,,株式会社,埼玉県,川口市,中青木３丁目１０番３３－４号,,11,203,3320032,,,,,,,2024-08-16,1,,,,,セイタツ,0
333,2030001162009,新規,0,2024-08-16,2024-08-16,化生糖株式会社,,株式会社,埼玉県,川口市,飯原町１１番９号,,11,203,3320024,,,,,,,2024-08-16,1,,,,,カセイトウ,0
338,2030003024933,新規,0,2024-08-16,2024-08-16,ＴＳ　Ａｓｉａ合同会社,,合同会社,埼玉県,川口市,並木２丁目３９－１レーベン川口並木ＶＥＲＴＥＡ４０４号室,,11,203,3320034,,,,,,,2024-08-16,1,,,,,ティーエスアジア,0
339,2030003024941,新規,0,2024-08-16,2024-08-16,合同会社ゼロネップス,,合同会社,埼玉県,さいたま市大宮区,宮町４丁目１７－１ヴェルステージ大宮８０１,,11,103,3300802,,,,,,,2024-08-16,1,,,,,ゼロネップス,0
340,2040001134956,新規,0,2024-08-16,2024-08-16,株式会社ケーズノア,,株式会社,千葉県,市原市,中高根１１６８番地１０６,,12,219,2900242,,,,,,,2024-08-16,1,,,,,ケーズノア,0
341,2040001134980,新規,0,2024-08-16,2024-08-16,株式会社ＡＬＳＩＳ,,株式会社,千葉県,我孫子市,泉１３番８号１Ｆ,,12,222,2701142,,,,,,,2024-08-16,1,,,,,アルシス,0
342,2040001134989,新規,0,2024-08-16,2024-08-16,ブライトテック株式会社,,株式会社,千葉県,茂原市,茂原１６２２番地１８,,12,210,2970026,,,,,,,2024-08-16,1,,,,,ブライトテック,0
343,2040001135005,新規,0,2024-08-16,2024-08-16,スプリングヘラ株式会社,,株式会社,千葉県,市川市,東菅野３丁目１１番９号,,12,203,2720823,,,,,,,2024-08-16,1,,,,,スプリングヘラ,0
345,2040002096972,新規,0,2024-08-16,2024-08-16,有限会社小沼工務店,,有限会社,千葉県,野田市,春日町１番地３,,12,208,2780052,,,,,,,2024-08-16,1,,,,,コヌマコウムテン,0
349,2050001055210,新規,0,2024-08-16,2024-08-16,株式会社須藤商事,,株式会社,茨城県,筑西市,藤ケ谷１１８４番地２,,08,227,3080112,,,,,,,2024-08-16,1,,,,,ストウショウジ,0
357,2070001042090,新規,0,2024-08-16,2024-08-16,株式会社寿々木工務店,,株式会社,群馬県,吾妻郡長野原町,大字応桑１５４４番地１０１４,,10,424,3771411,,,,,,,2024-08-16,1,,,,,スズキコウムテン,0
359,2080101024954,新規,0,2024-08-16,2024-08-16,株式会社西伊豆・森のエナジー,,株式会社,静岡県,賀茂郡西伊豆町,宇久須２番地の７,,22,306,4103501,,,,,,,2024-08-16,1,,,,,ニシイズモリノエナジー,0
380,2120001267789,新規,0,2024-08-16,2024-08-16,株式会社ＴＥＮ．ＩＺＡ,,株式会社,大阪府,大阪市北区,茶屋町８番２１号,,27,127,5300013,,,,,,,2024-08-16,1,,,,,テンイザ,0
381,2120001267839,新規,0,2024-08-16,2024-08-16,ＪＵＮ　ＹＡＮ　ＩＮＶＥＳＴＭＥＮＴ株式会社,,株式会社,大阪府,大阪市生野区,新今里６丁目５番７号３０１室,,27,116,5440001,,,,,,,2024-08-16,1,,,,,ジュンヤンインベストメント,0
383,2120003027290,新規,0,2024-08-16,2024-08-16,合同会社ＤＩＡＩＬＥＳ,,合同会社,大阪府,大阪市中央区,東心斎橋１丁目８－１１アルグラッドザ・タワー心斎橋７０６,,27,128,5420083,,,,,,,2024-08-16,1,,,,,ディエール,0
384,2120003027316,新規,0,2024-08-16,2024-08-16,Ｊ‐ＴＨＵＫＨＡ合同会社,,合同会社,大阪府,大阪市阿倍野区,阪南町５丁目２４番２５号,,27,119,5450021,,,,,,,2024-08-16,1,,,,,ジェースカ,0
392,2120101070168,新規,0,2024-08-16,2024-08-16,廣澤工業株式会社,,株式会社,大阪府,富田林市,桜井町１丁目１２番２５号,,27,214,5840013,,,,,,,2024-08-16,1,,,,,ヒロサワコウギョウ,0
403,2130001077691,新規,0,2024-08-16,2024-08-16,株式会社一,,株式会社,京都府,京都市伏見区,竹田浄菩提院町６６番地,,26,109,6128445,,,,,,,2024-08-16,1,,,,,ヒトツ,0
404,2130001077700,新規,0,2024-08-16,2024-08-16,アサノ精密株式会社,,株式会社,京都府,京都市北区,紫竹上緑町６０番地１,,26,101,6038427,,,,,,,2024-08-16,1,,,,,アサノセイミツ,0
405,2130001077725,新規,0,2024-08-16,2024-08-16,ＺＥＲＯ株式会社,,株式会社,京都府,京都市伏見区,竹田浄菩提院町２９８－１,,26,109,6128445,,,,,,,2024-08-16,1,,,,,ゼロ,0
411,2140001135515,新規,0,2024-08-16,2024-08-16,東尾工業株式会社,,株式会社,兵庫県,川辺郡猪名川町,上阿古谷字町田６４７番地,,28,301,6660231,,,,,,,2024-08-16,1,,,,,ヒガシオコウギョウ,0
416,2140003020913,新規,0,2024-08-16,2024-08-16,合同会社ＭＩＬＬＥ,,合同会社,兵庫県,洲本市,物部２５９－１３,,28,205,6560051,,,,,,,2024-08-16,1,,,,,ミル,0
417,2140003020979,新規,0,2024-08-16,2024-08-16,合同会社ＮＥＰＴＵＮＥ,,合同会社,兵庫県,神戸市長田区,長尾町１丁目６番２７号,,28,106,6530855,,,,,,,2024-08-16,1,,,,,ネプチューン,0
425,2180001162860,新規,0,2024-08-16,2024-08-16,株式会社ＳＤＡホールディングス,,株式会社,愛知県,名古屋市北区,清水３丁目１８番２６号,,23,103,4620844,,,,,,,2024-08-16,1,,,,,エスディーエーホールディングス,0
426,2180001162869,新規,0,2024-08-16,2024-08-16,株式会社スカイジャパン,,株式会社,愛知県,丹羽郡扶桑町,大字高雄字下山４１２番地１,,23,362,4800102,,,,,,,2024-08-16,1,,,,,スカイジャパン,0
427,2180001162893,新規,0,2024-08-16,2024-08-16,株式会社ｗｉｎｘｓ,,株式会社,愛知県,瀬戸市,汗干町１２－１,,23,204,4890801,,,,,,,2024-08-16,1,,,,,ウインクス,0
428,2180001162910,新規,0,2024-08-16,2024-08-16,株式会社ＣＩＥＬＴＥ,,株式会社,愛知県,名古屋市中村区,名駅南２丁目２番２４号（プレサンス名駅南エディフィス１４０１号）,,23,105,4500003,,,,,,,2024-08-16,1,,,,,シエルテ,0
431,2180003027244,新規,0,2024-08-16,2024-08-16,合同会社ＩＮＯ,,合同会社,愛知県,愛知郡東郷町,三ツ池４丁目８番地３,,23,302,4700164,,,,,,,2024-08-16,1,,,,,アイエヌオー,0
432,2180005020734,新規,0,2024-08-16,2024-08-16,特定非営利活動法人日本みらい開拓機構,,その他の設立登記法人,愛知県,名古屋市中区,錦２丁目８番２３号キタムラビル５０２,,23,106,4600003,,,,,,,2024-08-16,1,,,,,ニホンミライカイタクキコウ,0
435,2180301038975,新規,0,2024-08-16,2024-08-16,株式会社誠組,,株式会社,愛知県,豊田市,若林東町下外根４２番地６,,23,211,4730914,,,,,,,2024-08-16,1,,,,,セイグミ,0
438,2210001019842,新規,0,2024-08-16,2024-08-16,武瀬鉄工株式会社,,株式会社,福井県,福井市,上中町第２６号１８番地,,18,201,9100826,,,,,,,2024-08-16,1,,,,,タケセテッコウ,0
441,2220001026169,新規,0,2024-08-16,2024-08-16,かがやき不動産株式会社,,株式会社,石川県,野々市市,藤平田１丁目６０番地,,17,212,9218832,,,,,,,2024-08-16,1,,,,,カガヤキフドウサン,0
443,2240001063722,新規,0,2024-08-16,2024-08-16,株式会社フォーエバーソフト,,株式会社,広島県,三原市,西町２丁目５番１５号コンセルジュ曙１０１号,,34,204,7230063,,,,,,,2024-08-16,1,,,,,フォーエバーソフト,0
447,2260001039381,新規,0,2024-08-16,2024-08-16,株式会社エスティーケー,,株式会社,岡山県,倉敷市,中島２２８８番地１,,33,202,7100803,,,,,,,2024-08-16,1,,,,,エスティーケー,0
455,2290001106682,新規,0,2024-08-16,2024-08-16,Ｗａｎｄｅｒｖｏｇｅｌ株式会社,,株式会社,福岡県,福岡市博多区,博多駅前１丁目２３番２号ＰａｒｋＦｒｏｎｔ博多駅前１丁目５Ｆ－Ｂ,,40,132,8120011,,,,,,,2024-08-16,1,,,,,ワンダーフォーゲル,0
459,2320003004451,新規,0,2024-08-16,2024-08-16,合同会社ＲＹＵＳＨＩＮ,,合同会社,大分県,別府市,大字北石垣１４３１番地の４,,44,202,8740000,,,,,,,2024-08-16,1,,,,,リュウシン,0
463,2330001032362,新規,0,2024-08-16,2024-08-16,フナダ水産株式会社,,株式会社,熊本県,宇土市,長浜町１６番地１,,43,211,8693171,,,,,,,2024-08-16,1,,,,,フナダスイサン,0
464,2330001032379,新規,0,2024-08-16,2024-08-16,株式会社ＲＥＲＩＳＥ,,株式会社,熊本県,玉名市,岩崎８４７番地１上田アパート２０２号,,43,206,8650016,,,,,,,2024-08-16,1,,,,,リライズ,0
465,2330003010523,新規,0,2024-08-16,2024-08-16,ＩＯＮ工業合同会社,,合同会社,熊本県,熊本市中央区,出水６丁目３４－６,,43,101,8620941,,,,,,,2024-08-16,1,,,,,アイオンコウギョウ,0
469,2340001026735,新規,0,2024-08-16,2024-08-16,株式会社ＢＥＬＬＡＶＩＳＴＡ,,株式会社,鹿児島県,霧島市,国分広瀬４丁目２８番２２－９号,,46,218,8994321,,,,,,,2024-08-16,1,,,,,ベラビスタ,0
480,2400003003313,新規,0,2024-08-16,2024-08-16,合同会社ＰＲＯ・ＳＴＡＧＥ,,合同会社,岩手県,紫波郡矢巾町,大字高田第１５地割２４番地１７,,03,322,0283601,,,,,,,2024-08-16,1,,,,,プロステージ,0
481,2400005008434,新規,0,2024-08-16,2024-08-16,医療法人Ａｋａｈａｉ,,その他の設立登記法人,岩手県,盛岡市,永井１７地割３６番地１,,03,201,0200834,,,,,,,2024-08-16,1,,,,,アカハイ,0
482,2410001013916,新規,0,2024-08-16,2024-08-16,Ｔｒｅｅ株式会社,,株式会社,秋田県,秋田市,将軍野南５丁目９番１号,,05,201,0110936,,,,,,,2024-08-16,1,,,,,ツリー,0
486,2420005007921,新規,0,2024-08-16,2024-08-16,一般社団法人Ｃｈｅｅｒ　Ｕｐ　ＴＳＵＧＡＲＵ,,その他の設立登記法人,青森県,つがる市,木造千代町６６番地１,,02,209,0383145,,,,,,,2024-08-16,1,,,,,チアアップツガル,0
487,2430001092487,新規,0,2024-08-16,2024-08-16,株式会社ＰＲＯＴＯＮ,,株式会社,北海道,登別市,美園町２丁目１７番地９,,01,230,0590036,,,,,,,2024-08-16,1,,,,,プロトン,0
488,2430001092504,新規,0,2024-08-16,2024-08-16,Ｇｒｅｅｎ　Ｒｉｄｇｅ株式会社,,株式会社,北海道,虻田郡ニセコ町,字本通２３７番地７,,01,395,0481502,,,,,,,2024-08-16,1,,,,,グリーンリッジ,0
490,2470001020345,新規,0,2024-08-16,2024-08-16,株式会社エイクティオール,,株式会社,香川県,坂出市,元町４丁目１番２２号,,37,203,7620045,,,,,,,2024-08-16,1,,,,,エイクティオール,0
504,3010001247405,新規,0,2024-08-16,2024-08-16,株式会社シトルラス,,株式会社,東京都,千代田区,平河町２丁目５番３号ＭＩＤＯＲＩ．ｓｏ５Ｆ,,13,101,1020093,,,,,,,2024-08-16,1,,,,,シトルラス,0
505,3010001247454,新規,0,2024-08-16,2024-08-16,株式会社ナンバーホテルズ,,株式会社,東京都,千代田区,平河町２丁目７番５号,,13,101,1020093,,,,,,,2024-08-16,1,,,,,ナンバーホテルズ,0
506,3010001247504,新規,0,2024-08-16,2024-08-16,株式会社ＡｌｐｈａＤＸ,,株式会社,東京都,中央区,銀座１丁目１２番４号Ｎ＆ＥＢＬＤ．６Ｆ,,13,102,1040061,,,,,,,2024-08-16,1,,,,,アルファディーエックス,0
509,3010003044643,新規,0,2024-08-16,2024-08-16,ＮａｇａｒｅＬａｂ合同会社,,合同会社,東京都,中央区,日本橋室町１丁目１１番１２号日本橋水野ビル７階,,13,102,1030022,,,,,,,2024-08-16,1,,,,,ナガレラボ,0
518,3010401184470,新規,0,2024-08-16,2024-08-16,キッコーマンレストランコルザ株式会社,,株式会社,東京都,港区,西新橋２丁目１番１号,,13,103,1050003,,,,,,,2024-08-16,1,,,,,キッコーマンレストランコルザ,0
519,3010401184495,新規,0,2024-08-16,2024-08-16,株式会社Ｄｅｘｃｅｌ,,株式会社,東京都,港区,赤坂２丁目２１番４号天翔赤坂ＡＮＮＥＸビル２階２０６－Ｄ号,,13,103,1070052,,,,,,,2024-08-16,1,,,,,デクスセル,0
520,3010401184504,新規,0,2024-08-16,2024-08-16,株式会社ＲＹサービス,,株式会社,東京都,港区,新橋３丁目１１－８,,13,103,1050004,,,,,,,2024-08-16,1,,,,,アールワイサービス,0
522,3010405023451,新規,0,2024-08-16,2024-08-16,一般社団法人日本学生油絵会,,その他の設立登記法人,東京都,港区,港南３丁目７番１０号１４０４号室,,13,103,1080075,,,,,,,2024-08-16,1,,,,,ニホンガクセイアブラエカイ,0
528,3010701046404,新規,0,2024-08-16,2024-08-16,株式会社Ｂｅｅｅｑｓ,,株式会社,東京都,品川区,西五反田１丁目１１番１号,,13,109,1410031,,,,,,,2024-08-16,1,,,,,ビークス,0
529,3010701046412,新規,0,2024-08-16,2024-08-16,株式会社Ｓｏｙｍｉｌｋ　Ｓｔａｇｅ,,株式会社,東京都,品川区,西五反田２丁目１７番８号,,13,109,1410031,,,,,,,2024-08-16,1,,,,,ソイミルクステージ,0
531,3010703007305,新規,0,2024-08-16,2024-08-16,Ｆｉｒｓｔミャンマー合同会社,,合同会社,東京都,品川区,豊町２丁目１３番５号コーポ松尾２０１,,13,109,1420042,,,,,,,2024-08-16,1,,,,,ファーストミャンマー,0
536,3010901055790,新規,0,2024-08-16,2024-08-16,株式会社ＧＳ　ｃｏｎｎｅｃｔｉｏｎ,,株式会社,東京都,世田谷区,深沢４丁目３０番２６号,,13,112,1580081,,,,,,,2024-08-16,1,,,,,ジーエスコネクション,0
537,3010901055808,新規,0,2024-08-16,2024-08-16,株式会社ＲＨ,,株式会社,東京都,世田谷区,成城６丁目２９番１２号,,13,112,1570066,,,,,,,2024-08-16,1,,,,,アールエッチ,0
539,3010903009290,新規,0,2024-08-16,2024-08-16,合同会社Ｆｉｔ　Ｍａｔｅ,,合同会社,東京都,世田谷区,代沢４丁目４０－１０－Ｅ,,13,112,1550032,,,,,,,2024-08-16,1,,,,,フィットメイト,0
545,3011001163492,新規,0,2024-08-16,2024-08-16,株式会社ムート,,株式会社,東京都,渋谷区,渋谷２丁目１９－１５宮益坂ビルディング６０９,,13,113,1500002,,,,,,,2024-08-16,1,,,,,ムート,0
546,3011001164144,新規,0,2024-08-16,2024-08-16,株式会社タカハシアセット,,株式会社,東京都,渋谷区,渋谷２丁目１９番１５－６０９号宮益坂ビルディング,,13,113,1500002,,,,,,,2024-08-16,1,,,,,タカハシアセット,0
547,3011003019742,新規,0,2024-08-16,2024-08-16,合同会社バロン,,合同会社,東京都,目黒区,中町２丁目１９－５ｃｏｚｙｐｌａｃｅＩＩ１０２,00135973,13,110,1530065,,,,,,,2024-08-16,1,,,,,バロン,0
549,3011101017367,新規,0,2024-08-16,2024-08-16,株式会社半澤,,株式会社,東京都,新宿区,高田馬場２丁目１４番５号,,13,104,1690075,,,,,,,2024-08-16,1,,,,,ハンザワ,0
550,3011101108439,新規,0,2024-08-16,2024-08-16,株式会社ｌｉｆｅｅａｒ,,株式会社,東京都,新宿区,西新宿６丁目２５番８－１００１号,,13,104,1600023,,,,,,,2024-08-16,1,,,,,ライフイヤー,0
551,3011101108471,新規,0,2024-08-16,2024-08-16,株式会社ｅ‐ｚｅ,,株式会社,東京都,新宿区,百人町１丁目２２番１号ＮＳＫビル６０２,,13,104,1690073,,,,,,,2024-08-16,1,,,,,イーゼ,0
552,3011103014809,新規,0,2024-08-16,2024-08-16,合同会社ミストコンサルティング,,合同会社,東京都,新宿区,高田馬場２丁目１９番８号ダイヤモンドビル高田馬場,,13,104,1690075,,,,,,,2024-08-16,1,,,,,ミストコンサルティング,0
553,3011201025708,新規,0,2024-08-16,2024-08-16,株式会社山海集,,株式会社,東京都,中野区,鷺宮５丁目７番１１号１０２室,,13,114,1650032,,,,,,,2024-08-16,1,,,,,サンカイシュウ,0
555,3011203004453,新規,0,2024-08-16,2024-08-16,スマイルひとつなぎ合同会社,,合同会社,東京都,中野区,中央３丁目４１番８号小峯ハイツ２０１号,,13,114,1640011,,,,,,,2024-08-16,1,,,,,スマイルヒトツナギ,0
557,3011305002999,新規,0,2024-08-16,2024-08-16,一般社団法人牛のあゆみ,,その他の設立登記法人,東京都,杉並区,松庵２丁目２３番２６号,,13,115,1670054,,,,,,,2024-08-16,1,,,,,ウシノアユミ,0
558,3011501031050,新規,0,2024-08-16,2024-08-16,ＢＥＡＵＴＩＦＵＬ　ＴＲＥＥ　ＥＮＴＥＲＴＡＩＮＭＥＮＴ株式会社,,株式会社,東京都,北区,堀船２丁目２６番１４号,,13,117,1140004,,,,,,,2024-08-16,1,,,,,ビューティフルツリーエンターテインメント,0
559,3011601027980,新規,0,2024-08-16,2024-08-16,株式会社Ｔｅｒｉｏｓ,,株式会社,東京都,練馬区,北町１丁目１１－２３タイムメゾン１０２,,13,120,1790081,,,,,,,2024-08-16,1,,,,,テリオス,0
560,3011701027542,新規,0,2024-08-16,2024-08-16,正天株式会社,,株式会社,東京都,江戸川区,東小岩４丁目２４番１４号,,13,123,1330052,,,,,,,2024-08-16,1,,,,,ショウテン,0
562,3011801044693,新規,0,2024-08-16,2024-08-16,メンフィスリンクアソシエイツ株式会社,,株式会社,東京都,足立区,伊興５丁目２２番７－２０７号室,,13,121,1210823,,,,,,,2024-08-16,1,,,,,メンフィスリンクアソシエイツ,0
563,3011803006394,新規,0,2024-08-16,2024-08-16,Ｂｅａｒ　Ｍａｎａｇｅｍｅｎｔ合同会社,,合同会社,東京都,足立区,千住緑町２丁目５番２０号,,13,121,1200044,,,,,,,2024-08-16,1,,,,,ベアマネジメント,0
566,3012703003077,新規,0,2024-08-16,2024-08-16,合同会社徳川パートナーズ,,合同会社,東京都,西東京市,下保谷３丁目１８－４,,13,229,2020004,,,,,,,2024-08-16,1,,,,,トクガワパートナーズ,0
571,3012803003489,新規,0,2024-08-16,2024-08-16,合同会社Ｋｅｍｌｉｓｔ,,合同会社,東京都,立川市,高松町３丁目２５番１０号１階,,13,202,1900011,,,,,,,2024-08-16,1,,,,,ケムリスト,0
577,3020001158353,新規,0,2024-08-16,2024-08-16,リンク株式会社,,株式会社,神奈川県,横浜市青葉区,すみよし台９－５１,,14,117,2270035,,,,,,,2024-08-16,1,,,,,リンク,0
582,3020003026599,新規,0,2024-08-16,2024-08-16,合同会社へいわ興業,,合同会社,神奈川県,横浜市都筑区,中川５丁目２９番２号,,14,118,2240001,,,,,,,2024-08-16,1,,,,,ヘイワコウギョウ,0
583,3021001082997,新規,0,2024-08-16,2024-08-16,株式会社ＭＩＧＨＴＹ,,株式会社,神奈川県,座間市,ひばりが丘３丁目５２番６－２号,,14,216,2520003,,,,,,,2024-08-16,1,,,,,マイティー,0
584,3021001083021,新規,0,2024-08-16,2024-08-16,株式会社ＨＩＣＥ,,株式会社,神奈川県,藤沢市,辻堂３丁目４番２９～３号,,14,205,2510047,,,,,,,2024-08-16,1,,,,,ハイク,0
586,3021003014882,新規,0,2024-08-16,2024-08-16,ちむぐくる３４合同会社,,合同会社,神奈川県,中郡二宮町,山西９３４番地の４西山ビル２Ｆ,,14,342,2590124,,,,,,,2024-08-16,1,,,,,チムグクルミヨ,0
587,3021003014899,新規,0,2024-08-16,2024-08-16,合同会社２０,,合同会社,神奈川県,鎌倉市,鎌倉山４丁目１０番５号,,14,204,2480031,,,,,,,2024-08-16,1,,,,,ニジュー,0
593,3030001162008,新規,0,2024-08-16,2024-08-16,株式会社ワイ・イー・エックス,,株式会社,埼玉県,狭山市,根岸２丁目２番２１号,,11,215,3501325,,,,,,,2024-08-16,1,,,,,ワイイーエックス,0
594,3030001162024,新規,0,2024-08-16,2024-08-16,株式会社島田商事,,株式会社,埼玉県,越谷市,大字向畑８８０番３,,11,222,3430007,,,,,,,2024-08-16,1,,,,,シマダショウジ,0
601,3030003024940,新規,0,2024-08-16,2024-08-16,合同会社テラソーレ,,合同会社,埼玉県,川口市,西青木２丁目４番４１－２０２号,,11,203,3320035,,,,,,,2024-08-16,1,,,,,テラソーレ,0
605,3040001134897,新規,0,2024-08-16,2024-08-16,株式会社彩夢,,株式会社,千葉県,千葉市花見川区,幕張本郷１丁目２５番１号マリンシティ１０５号,,12,102,2620033,,,,,,,2024-08-16,1,,,,,アヤム,0
608,3050001055259,新規,0,2024-08-16,2024-08-16,ＦＴＣセラエデュメント株式会社,,株式会社,茨城県,牛久市,ひたち野東２丁目２５番地４３,,08,219,3001207,,,,,,,2024-08-16,1,,,,,エフティーシーセラエデュメント,0
609,3070001042073,新規,0,2024-08-16,2024-08-16,浦野企画株式会社,,株式会社,群馬県,高崎市,栄町１７番２６－３０４号,,10,202,3700841,,,,,,,2024-08-16,1,,,,,ウラノキカク,0
615,3080101024961,新規,0,2024-08-16,2024-08-16,株式会社飯塚,,株式会社,静岡県,富士市,松岡４５０番地の９,,22,210,4160909,,,,,,,2024-08-16,1,,,,,イイヅカ,0
624,3090003002619,新規,0,2024-08-16,2024-08-16,合同会社渡邉塗装,,合同会社,山梨県,西八代郡市川三郷町,印沢１７０番地３,,19,346,4093607,,,,,,,2024-08-16,1,,,,,ワタナベトソウ,0
625,3100001037747,新規,0,2024-08-16,2024-08-16,Ｔｈｅ　Ｍｏｏ　Ｈｏｌｄｉｎｇｓ株式会社,,株式会社,長野県,北安曇郡白馬村,大字北城３０２０番地６０４,,20,485,3999301,,,,,,,2024-08-16,1,,,,,ザムーホールディングス,0
628,3100003007723,新規,0,2024-08-16,2024-08-16,合同会社Ｈａｎａｓａｋｕ　ｆｌｏｗｅｒｃａｋｅ,,合同会社,長野県,須坂市,大字亀倉２２１番地６,,20,207,3820000,,,,,,,2024-08-16,1,,,,,ハナサクフラワーケーキ,0
629,3110001038653,新規,0,2024-08-16,2024-08-16,はりきゅあ株式会社,,株式会社,新潟県,新潟市東区,中山５丁目６－１１,,15,102,9500861,,,,,,,2024-08-16,1,,,,,ハリキュア,0
635,3120001267664,新規,0,2024-08-16,2024-08-16,正和鼎盛株式会社,,株式会社,大阪府,大阪市中央区,瓦町４丁目３番１４ー６１８号,,27,128,5410048,,,,,,,2024-08-16,1,,,,,セイワテイセイ,0
636,3120001267706,新規,0,2024-08-16,2024-08-16,株式会社オーネスト,,株式会社,大阪府,大阪市阿倍野区,松崎町３丁目６番３２－４０９号,,27,119,5450053,,,,,,,2024-08-16,1,,,,,オーネスト,0
637,3120001267821,新規,0,2024-08-16,2024-08-16,財上株式会社,,株式会社,大阪府,大阪市城東区,関目５丁目１９番９号関目花博公館５０３Ａ,,27,118,5360008,,,,,,,2024-08-16,1,,,,,ザイジョウ,0
638,3120001267838,新規,0,2024-08-16,2024-08-16,萬秀株式会社,,株式会社,大阪府,守口市,京阪本通１丁目１－６バイリンクビル守口１Ｆ,,27,209,5700083,,,,,,,2024-08-16,1,,,,,マンシュウ,0
645,3120003027315,新規,0,2024-08-16,2024-08-16,合同会社ピノキオ,,合同会社,大阪府,大阪市西成区,鶴見橋１丁目１７番１４号２０１,,27,122,5570031,,,,,,,2024-08-16,1,,,,,ピノキオ,0
646,3120003027331,新規,0,2024-08-16,2024-08-16,Ｏｐｅｎ　Ｆｉｅｌｄｓ合同会社,,合同会社,大阪府,大阪市西成区,鶴見橋２丁目３番１９－１０２号,,27,122,5570031,,,,,,,2024-08-16,1,,,,,オープンフィールズ,0
649,3120005024500,新規,0,2024-08-16,2024-08-16,一般社団法人つむぐ和,,その他の設立登記法人,大阪府,大阪市西成区,潮路１丁目９番１９－２０７,,27,122,5570052,,,,,,,2024-08-16,1,,,,,ツムグワ,0
657,3122001038351,新規,0,2024-08-16,2024-08-16,株式会社Ｚｉｏ,,株式会社,大阪府,東大阪市,足代北２丁目１１番３号,,27,227,5770058,,,,,,,2024-08-16,1,,,,,ジオ,0
660,3130001077724,新規,0,2024-08-16,2024-08-16,ＴＩＭＥ　ＡＮＤ　ＰＬＡＣＥ株式会社,,株式会社,京都府,京都市西京区,川島北裏町３１山口ハイツ２０１号室,,26,111,6158107,,,,,,,2024-08-16,1,,,,,タイムアンドプレイス,0
661,3130001077732,新規,0,2024-08-16,2024-08-16,株式会社アンサーライズ,,株式会社,京都府,京都市左京区,吉田中阿達町２４番地５ザクセル３０９号,,26,103,6068306,,,,,,,2024-08-16,1,,,,,アンサーライズ,0
667,3140001135547,新規,0,2024-08-16,2024-08-16,株式会社ＴＲＳ,,株式会社,兵庫県,伊丹市,西台３丁目２－２７－７０８,,28,207,6640858,,,,,,,2024-08-16,1,,,,,ティーアールエス,0
668,3140003020978,新規,0,2024-08-16,2024-08-16,コーヨーファイブ合同会社,,合同会社,兵庫県,芦屋市,陽光町６番６－６０５号,,28,206,6590034,,,,,,,2024-08-16,1,,,,,コーヨーファイブ,0
680,3180001162851,新規,0,2024-08-16,2024-08-16,株式会社サワ,,株式会社,愛知県,名古屋市名東区,高針台２丁目１０１番地,,23,115,4650054,,,,,,,2024-08-16,1,,,,,サワ,0
681,3180001162876,新規,0,2024-08-16,2024-08-16,株式会社クオリス,,株式会社,愛知県,名古屋市中区,新栄２丁目１番９号雲竜ビル７階７０１号,,23,106,4600007,,,,,,,2024-08-16,1,,,,,クオリス,0
682,3180001162892,新規,0,2024-08-16,2024-08-16,株式会社ＭＳＡ,,株式会社,愛知県,名古屋市緑区,潮見が丘３丁目１番地の３６,,23,114,4580037,,,,,,,2024-08-16,1,,,,,エムエスエー,0
688,3180003027243,新規,0,2024-08-16,2024-08-16,Ｗａｎｄｅｒｅｒ合同会社,,合同会社,愛知県,名古屋市西区,枇杷島２丁目６番２４号ユーハウス東枇杷島９Ａ号,,23,104,4510053,,,,,,,2024-08-16,1,,,,,ワンダラー,0
696,3200001042836,新規,0,2024-08-16,2024-08-16,株式会社ｐｌｕｓ,,株式会社,岐阜県,瑞穂市,十九条２４３番地８,,21,216,5010235,,,,,,,2024-08-16,1,,,,,プリュス,0
699,3210001019882,新規,0,2024-08-16,2024-08-16,株式会社若泉Ｌ＆Ｌ,,株式会社,福井県,鯖江市,小黒町１丁目１５番８号,,18,207,9160028,,,,,,,2024-08-16,1,,,,,ワカイズミエルアンドエル,0
701,3220001026168,新規,0,2024-08-16,2024-08-16,株式会社ＦＯＲＣＥ,,株式会社,石川県,金沢市,畝田中２丁目１９８番地３,,17,201,9200343,,,,,,,2024-08-16,1,,,,,フォース,0
708,3240001063630,新規,0,2024-08-16,2024-08-16,協立エンジニアリング株式会社,,株式会社,広島県,山県郡北広島町,新氏神３５番地,,34,369,7311514,,,,,,,2024-08-16,1,,,,,キョウリツエンジニアリング,0
713,3260001039380,新規,0,2024-08-16,2024-08-16,パステル株式会社,,株式会社,岡山県,倉敷市,呼松３丁目１－１８,,33,202,7128053,,,,,,,2024-08-16,1,,,,,パステル,0
721,3290001106673,新規,0,2024-08-16,2024-08-16,株式会社大福,,株式会社,福岡県,福岡市博多区,博多駅前３丁目１０－３０河野ビル５Ｆ,,40,132,8120011,,,,,,,2024-08-16,1,,,,,,0
728,3330001032361,新規,0,2024-08-16,2024-08-16,株式会社龍皇水産,,株式会社,熊本県,宇土市,戸口町２７番地１１,,43,211,8693174,,,,,,,2024-08-16,1,,,,,リュウオウスイサン,0
733,3360003014231,新規,0,2024-08-16,2024-08-16,合同会社きんじょうトータルヘルスケア,,合同会社,沖縄県,うるま市,字喜屋武４３２番地１,,47,213,9042225,,,,,,,2024-08-16,1,,,,,キンジョウトータルヘルスケア,0
751,3430001092429,新規,0,2024-08-16,2024-08-16,株式会社絢心会,,株式会社,北海道,札幌市中央区,南五条西３丁目１－３ダイメックスプラザ３番館２階,,01,101,0640805,,,,,,,2024-08-16,1,,,,,ケンシンカイ,0
752,3430001092494,新規,0,2024-08-16,2024-08-16,株式会社丸栄成田,,株式会社,北海道,古平郡古平町,大字浜町４１９番地２,,01,406,0460121,,,,,,,2024-08-16,1,,,,,マルエイナリタ,0
753,3430001092503,新規,0,2024-08-16,2024-08-16,株式会社セブンスディレクション,,株式会社,北海道,札幌市中央区,界川２丁目５番６号,,01,101,0640943,,,,,,,2024-08-16,1,,,,,セブンスディレクション,0
757,3430003016682,新規,0,2024-08-16,2024-08-16,合同会社ＥＨＴ　Ｍｕｓｉｃ　Ｅｎｔｅｒｔａｉｎｍｅｎｔ,,合同会社,北海道,札幌市東区,北十五条東７丁目１番２０号ＫＡＮＴＩＮＥ　Ｎ１５－４階,,01,103,0650015,,,,,,,2024-08-16,1,,,,,イーエイチティーミュージックエンターテインメント,0
761,3470001020328,新規,0,2024-08-16,2024-08-16,株式会社今日と音楽室,,株式会社,香川県,香川郡直島町,２３１０番地１３１,,37,364,7613110,,,,,,,2024-08-16,1,,,,,キョウトオンガクシツ,0
762,3470001020344,新規,0,2024-08-16,2024-08-16,株式会社エイトヴィレッジ,,株式会社,香川県,高松市,鬼無町是竹２２７番地２,,37,201,7618021,,,,,,,2024-08-16,1,,,,,エイトヴィレッジ,0
774,4010001247437,新規,0,2024-08-16,2024-08-16,株式会社ＪＹＵ,,株式会社,東京都,中央区,日本橋兜町１７番１号日本橋ロイヤルプラザ７０６,,13,102,1030026,,,,,,,2024-08-16,1,,,,,ジェイワイユウ,0
775,4010001247503,新規,0,2024-08-16,2024-08-16,株式会社Ｇｕｉｄｅ　Ｒｕｎｎｅｒ,,株式会社,東京都,千代田区,神田須田町１丁目２番地７淡路町駅前ビル３階,,13,101,1010041,,,,,,,2024-08-16,1,,,,,ガイドランナー,0
776,4010001247528,新規,0,2024-08-16,2024-08-16,株式会社ＳＴＡＲ,,株式会社,東京都,文京区,千石４丁目２６番２号ＳＡＮＳＡＮ千石ビル４Ｂ０２,,13,105,1120011,,,,,,,2024-08-16,1,,,,,スター,0
777,4010001247569,新規,0,2024-08-16,2024-08-16,株式会社ＭＡＳＵＴＯ,,株式会社,東京都,千代田区,麹町５丁目３番地６第７秋山ビルディングＢ１,,13,101,1020083,,,,,,,2024-08-16,1,,,,,マスト,0
778,4010001247619,新規,0,2024-08-16,2024-08-16,トウキョウ・アウトフィット株式会社,,株式会社,東京都,千代田区,九段南１丁目５番６号,,13,101,1020074,,,,,,,2024-08-16,1,,,,,トウキョウアウトフィット,0
781,4010005038642,新規,0,2024-08-16,2024-08-16,アザレア特定目的会社,,その他の設立登記法人,東京都,千代田区,丸の内１丁目４番１号東京共同会計事務所内,,13,101,1000005,,,,,,,2024-08-16,1,,,,,アザレア,0
783,4010105002291,新規,0,2024-08-16,2024-08-16,一般社団法人運動アカデミーＴＵＴｓ,,その他の設立登記法人,東京都,八王子市,下柚木３丁目７番地３－６０７,,13,201,1920372,,,,,,,2024-08-16,1,,,,,ウンドウアカデミータッツ,0
790,4010401184321,新規,0,2024-08-16,2024-08-16,ＭＩＫＯＴＯ株式会社,,株式会社,東京都,港区,三田３丁目１番１６号田端ビル２階,,13,103,1080073,,,,,,,2024-08-16,1,,,,,ミコト,0
791,4010401184544,新規,0,2024-08-16,2024-08-16,株式会社ＳＴ,,株式会社,東京都,港区,白金６丁目１６番２４号－１Ｆ,,13,103,1080072,,,,,,,2024-08-16,1,,,,,エスティー,0
792,4010401184552,新規,0,2024-08-16,2024-08-16,株式会社Ｂｅｅｔｌｅｊｕｉｃｅ,,株式会社,東京都,港区,南麻布１丁目１５－２－３０５,,13,103,1060047,,,,,,,2024-08-16,1,,,,,ビートルジュース,0
793,4010401184602,新規,0,2024-08-16,2024-08-16,株式会社ＱｕｅｔｔａＡＩ,,株式会社,東京都,港区,南麻布５丁目１０番３０号,,13,103,1060047,,,,,,,2024-08-16,1,,,,,クエタエーアイ,0
802,4010901055807,新規,0,2024-08-16,2024-08-16,株式会社ＫＨ,,株式会社,東京都,世田谷区,成城６丁目２９番１２号,,13,112,1570066,,,,,,,2024-08-16,1,,,,,ケーエッチ,0
814,4011003019766,新規,0,2024-08-16,2024-08-16,スノーボルト合同会社,,合同会社,東京都,渋谷区,道玄坂１丁目１０番８号渋谷道玄坂東急ビル２Ｆ－Ｃ,,13,113,1500043,,,,,,,2024-08-16,1,,,,,スノーボルト,0
815,4011003019799,新規,0,2024-08-16,2024-08-16,ＳＡＫＥＩ合同会社,,合同会社,東京都,渋谷区,初台２丁目３１－９,,13,113,1510061,,,,,,,2024-08-16,1,,,,,サケイ,0
819,4011101108438,新規,0,2024-08-16,2024-08-16,株式会社ハウジング・ウィズ,,株式会社,東京都,新宿区,新宿２丁目１３番１０号武蔵野ビル５階１４号室,,13,104,1600022,,,,,,,2024-08-16,1,,,,,ハウジングウィズ,0
820,4011101108446,新規,0,2024-08-16,2024-08-16,株式会社ＤＭＣＹ,,株式会社,東京都,新宿区,榎町３４番３号榎町ビル６階,,13,104,1620806,,,,,,,2024-08-16,1,,,,,ディーエムシーワイ,0
822,4011103014808,新規,0,2024-08-16,2024-08-16,合同会社ｍｅｇ　ｍｅ,,合同会社,東京都,新宿区,西早稲田２丁目１０番１８号ＫＨハイツ２０３,,13,104,1690051,,,,,,,2024-08-16,1,,,,,メグミー,0
823,4011103014816,新規,0,2024-08-16,2024-08-16,成幸会グループ合同会社,,合同会社,東京都,新宿区,新宿７丁目２６－７－４０２,,13,104,1600022,,,,,,,2024-08-16,1,,,,,セイコウカイグループ,0
824,4011203004469,新規,0,2024-08-16,2024-08-16,合同会社スリーエス,,合同会社,東京都,中野区,鷺宮４丁目１４－３,,13,114,1650032,,,,,,,2024-08-16,1,,,,,スリーエス,0
825,4011305002998,新規,0,2024-08-16,2024-08-16,一般社団法人革新的医療開発研究所,,その他の設立登記法人,東京都,杉並区,阿佐谷南３丁目３７番１号ＰＬＡＮＯ５階,,13,115,1660004,,,,,,,2024-08-16,1,,,,,カクシンテキイリョウカイハツケンキュウショ,0
830,4011601027996,新規,0,2024-08-16,2024-08-16,Ｇａｒｄｅｎ　Ｆｏｒｔ株式会社,,株式会社,東京都,練馬区,南大泉５丁目３９番７号,,13,120,1780064,,,,,,,2024-08-16,1,,,,,ガーデンフォート,0
833,4011701027533,新規,0,2024-08-16,2024-08-16,株式会社Ｎｏ．８,,株式会社,東京都,江戸川区,平井７丁目３２番６号,,13,123,1320035,,,,,,,2024-08-16,1,,,,,ナンバーエイト,0
834,4011801044692,新規,0,2024-08-16,2024-08-16,株式会社ｃｏｍｍｉｔ,,株式会社,東京都,足立区,千住旭町１３番１７－２０３号メゾンアルピナ北千住,,13,121,1200026,,,,,,,2024-08-16,1,,,,,コミット,0
844,4012701018407,新規,0,2024-08-16,2024-08-16,株式会社ＳＴＡＲＴ,,株式会社,東京都,東久留米市,中央町５丁目４番６号,,13,222,2030054,,,,,,,2024-08-16,1,,,,,スタート,0
856,4020003026615,新規,0,2024-08-16,2024-08-16,合同会社翔雷製作所,,合同会社,神奈川県,横浜市西区,浅間町１丁目４番３号ウィザードビル４０２,,14,103,2200072,,,,,,,2024-08-16,1,,,,,ショウライセイサクジョ,0
859,4021001083029,新規,0,2024-08-16,2024-08-16,株式会社想歩,,株式会社,神奈川県,相模原市緑区,広田２番３２号,,14,151,2520106,,,,,,,2024-08-16,1,,,,,ソウホ,0
860,4021001083037,新規,0,2024-08-16,2024-08-16,株式会社おむあぽ生活くるみ倶楽部,,株式会社,神奈川県,相模原市中央区,上溝２丁目４番２６号,,14,152,2520243,,,,,,,2024-08-16,1,,,,,オムアポセイカツクルミクラブ,0
869,4030001161990,新規,0,2024-08-16,2024-08-16,トライベンチャーグループ株式会社,,株式会社,埼玉県,川越市,東田町８番地１２,,11,201,3501114,,,,,,,2024-08-16,1,,,,,トライベンチャーグループ,0
870,4030001161999,新規,0,2024-08-16,2024-08-16,株式会社ＭＳＫ電制,,株式会社,埼玉県,川口市,大字榛松１８５４番地の１,,11,203,3340062,,,,,,,2024-08-16,1,,,,,,0
871,4030001162023,新規,0,2024-08-16,2024-08-16,株式会社ＭＥＩＣＥＬＥＳＴＥ,,株式会社,埼玉県,坂戸市,大字森戸５９１番地５,,11,239,3500244,,,,,,,2024-08-16,1,,,,,メイセレスト,0
872,4030002001122,新規,0,2024-08-16,2024-08-16,有限会社伊藤リアルエージェント,,有限会社,埼玉県,さいたま市緑区,大字大牧字和田７７４番地,,11,109,3360922,,,,,,,2024-08-16,1,,,,,イトウリアルエージェント,0
878,4030005021811,新規,0,2024-08-16,2024-08-16,一般社団法人セントポールズラグビーネクスト,,その他の設立登記法人,埼玉県,富士見市,大字下南畑字沼口１３４３番地１,,11,235,3540004,,,,,,,2024-08-16,1,,,,,セントポールズラグビーネクスト,0
884,4050003008585,新規,0,2024-08-16,2024-08-16,マルハバ合同会社,,合同会社,茨城県,坂東市,岩井４２９４－１８大山住宅１,,08,228,3060631,,,,,,,2024-08-16,1,,,,,マルハバ,0
885,4050003008619,新規,0,2024-08-16,2024-08-16,合同会社ＢＡＳＥ,,合同会社,茨城県,那珂市,菅谷３４６５番地１,,08,226,3110105,,,,,,,2024-08-16,1,,,,,ベース,0
893,4060001037404,新規,0,2024-08-16,2024-08-16,株式会社華匠工務店,,株式会社,栃木県,足利市,借宿町３４３番地１,,09,202,3260826,,,,,,,2024-08-16,1,,,,,ハナショウコウムテン,0
895,4070003005548,新規,0,2024-08-16,2024-08-16,きらり合同会社,,合同会社,群馬県,太田市,藪塚町１９６７番地３１,,10,205,3792301,,,,,,,2024-08-16,1,,,,,キラリ,0
896,4070005010307,新規,0,2024-08-16,2024-08-16,一般社団法人アロマ腸セラピー協会,,その他の設立登記法人,群馬県,前橋市,六供町４丁目８番地８ビバーチェＣ,,10,201,3710804,,,,,,,2024-08-16,1,,,,,アロマチョウセラピーキョウカイ,0
908,4110005017124,新規,0,2024-08-16,2024-08-16,一般社団法人橋梁等構造物メンテナンス技術研究会,,その他の設立登記法人,新潟県,新潟市中央区,美咲町１丁目５番５号,,15,103,9500954,,,,,,,2024-08-16,1,,,,,キョウリョウトウコウゾウブツメンテナンスギジュツケンキュウカイ,0
924,4120001267655,新規,0,2024-08-16,2024-08-16,中正堂株式会社,,株式会社,大阪府,大阪市阿倍野区,昭和町５丁目１０番２４－３１２号,,27,119,5450011,,,,,,,2024-08-16,1,,,,,チュウセイトウ,0
925,4120001267696,新規,0,2024-08-16,2024-08-16,株式会社Ｆｅｌｔｙ,,株式会社,大阪府,大阪市中央区,南船場３丁目５－２８富士ビル南船場４階,,27,128,5420081,,,,,,,2024-08-16,1,,,,,フェルティ,0
926,4120001267787,新規,0,2024-08-16,2024-08-16,株式会社ｊａｐａｎ　ｔｏｐ　ｔｅａｍ,,株式会社,大阪府,大阪市浪速区,恵美須西３丁目１３番１８号天川レジデンス・難波南７０２号,,27,111,5560003,,,,,,,2024-08-16,1,,,,,ジャパントップチーム,0
927,4120001267812,新規,0,2024-08-16,2024-08-16,スターテンコンサルティング株式会社,,株式会社,大阪府,大阪市浪速区,元町１丁目１０番６号８階,,27,111,5560016,,,,,,,2024-08-16,1,,,,,スターテンコンサルティング,0
928,4120001267829,新規,0,2024-08-16,2024-08-16,ＳＳ株式会社,,株式会社,大阪府,大阪市生野区,小路３丁目４－１７,,27,116,5440002,,,,,,,2024-08-16,1,,,,,エスエス,0
929,4120001267837,新規,0,2024-08-16,2024-08-16,株式会社ＢＵＤＤＹ,,株式会社,大阪府,大阪市阿倍野区,阪南町５丁目２２番８号,,27,119,5450021,,,,,,,2024-08-16,1,,,,,バディ,0
930,4120001267853,新規,0,2024-08-16,2024-08-16,株式会社ＭｉＴＳ,,株式会社,大阪府,大阪市浪速区,日本橋東３丁目１４番１０－１３１２号,,27,111,5560006,,,,,,,2024-08-16,1,,,,,エムアイティエス,0
931,4120001267878,新規,0,2024-08-16,2024-08-16,株式会社Ｐ’ｓ,,株式会社,大阪府,大阪市北区,梅田１丁目１－３大阪駅前第３ビル２３０７,,27,127,5300001,,,,,,,2024-08-16,1,,,,,ピース,0
936,4120003027314,新規,0,2024-08-16,2024-08-16,合同会社Ｌａｌａ７７,,合同会社,大阪府,大阪市中央区,内淡路町２丁目２番１１－４０１号,,27,128,5400038,,,,,,,2024-08-16,1,,,,,ララ,0
937,4120101070133,新規,0,2024-08-16,2024-08-16,株式会社碧,,株式会社,大阪府,堺市中区,深阪４丁１６番２号,,27,142,5998253,,,,,,,2024-08-16,1,,,,,アオ,0
938,4120103006011,新規,0,2024-08-16,2024-08-16,合同会社アドレボリューション,,合同会社,大阪府,堺市南区,城山台３丁１番１０棟２１０号,,27,145,5900137,,,,,,,2024-08-16,1,,,,,アドレボリューション,0
942,4120901049624,新規,0,2024-08-16,2024-08-16,ＲＡＫＡ株式会社,,株式会社,大阪府,吹田市,津雲台２丁目８番１３号,,27,205,5650862,,,,,,,2024-08-16,1,,,,,ラカ,0
945,4122001038367,新規,0,2024-08-16,2024-08-16,株式会社ｌｉｋｅｌｙ,,株式会社,大阪府,八尾市,志紀町１丁目１０番２０３号室,,27,212,5810031,,,,,,,2024-08-16,1,,,,,ライクリー,0
946,4130001020088,新規,0,2024-08-16,2024-08-16,株式会社エンデバー二一,,株式会社,京都府,京都市中京区,岩上通錦小路下る松浦町８６１番地,,26,104,6048362,,,,,,,2024-08-16,1,,,,,エンデバーニジュウイチ,0
952,4130001077616,新規,0,2024-08-16,2024-08-16,ｗｈｙｓｅｌｌ株式会社,,株式会社,京都府,京都市上京区,新烏丸通丸太町上る信富町３３１ＣＡＬＭ御所南・４０１,,26,102,6020875,,,,,,,2024-08-16,1,,,,,ワイセル,0
953,4130001077624,新規,0,2024-08-16,2024-08-16,株式会社京都研究所,,株式会社,京都府,京都市中京区,岩上町７５３－１－５０２,,26,104,6040000,,,,,,,2024-08-16,1,,,,,キョウトケンキュウジョ,0
954,4130001077698,新規,0,2024-08-16,2024-08-16,株式会社イッケン設計室,,株式会社,京都府,京都市左京区,田中里ノ前町８９未生会館本館２階,,26,103,6068227,,,,,,,2024-08-16,1,,,,,イッケンセッケイシツ,0
955,4130001077715,新規,0,2024-08-16,2024-08-16,株式会社Ｂｚ　Ｃｏ．，Ｌｔｄ．,,株式会社,京都府,京都市伏見区,南寝小屋町９２番地,,26,109,6128379,,,,,,,2024-08-16,1,,,,,ビーズシーオードットカンマエルティディドット,0
966,4180001162818,新規,0,2024-08-16,2024-08-16,株式会社ＥＶＯＬ,,株式会社,愛知県,名古屋市中区,大須２丁目１番４１号塚本ビル２階,,23,106,4600011,,,,,,,2024-08-16,1,,,,,エヴォル,0
967,4180001162891,新規,0,2024-08-16,2024-08-16,株式会社ボアーズ不動産,,株式会社,愛知県,瀬戸市,若宮町２丁目２７２番地,,23,204,4890864,,,,,,,2024-08-16,1,,,,,ボアーズフドウサン,0
968,4180001162909,新規,0,2024-08-16,2024-08-16,株式会社エイム,,株式会社,愛知県,名古屋市中区,丸の内２丁目１６番８号２Ｆ,,23,106,4600002,,,,,,,2024-08-16,1,,,,,エイム,0
969,4180001162933,新規,0,2024-08-16,2024-08-16,株式会社シンエイプランナー,,株式会社,愛知県,名古屋市緑区,久方３丁目２４番地,,23,114,4580012,,,,,,,2024-08-16,1,,,,,シンエイプランナー,0
973,4190001031575,新規,0,2024-08-16,2024-08-16,株式会社片岡商事,,株式会社,三重県,桑名市,大字上深谷部１７５４番地２,,24,205,5110809,,,,,,,2024-08-16,1,,,,,カタオカショウジ,0
974,4190005011978,新規,0,2024-08-16,2024-08-16,一般社団法人おうばいとうり,,その他の設立登記法人,三重県,津市,久居幸町１１１６番地,,24,201,5141132,,,,,,,2024-08-16,1,,,,,オウバイトウリ,0
995,4260001039388,新規,0,2024-08-16,2024-08-16,株式会社ウインテック,,株式会社,岡山県,備前市,伊里中２７４,,33,211,7050023,,,,,,,2024-08-16,1,,,,,ウインテック,0
1000,4290001106607,新規,0,2024-08-16,2024-08-16,株式会社エルトス,,株式会社,福岡県,福岡市博多区,博多駅前１丁目２３番２号ＰａｒｋＦｒｏｎｔ博多駅前１丁目５Ｆ－Ｂ,,40,132,8120011,,,,,,,2024-08-16,1,,,,,エルトス,0
1001,4290001106689,新規,0,2024-08-16,2024-08-16,順航貿易株式会社,,株式会社,福岡県,久留米市,国分町１５２５番地４川野第一ビル４０１号,,40,203,8390863,,,,,,,2024-08-16,1,,,,,ジュンコウボウエキ,0
1007,4330001032369,新規,0,2024-08-16,2024-08-16,株式会社ＤＩＶＯスポーツ,,株式会社,熊本県,熊本市北区,室園町９番１０－５０５号,,43,105,8618072,,,,,,,2024-08-16,1,,,,,ディーボスポーツ,0
1011,4350001019141,新規,0,2024-08-16,2024-08-16,カネナ醸造株式会社,,株式会社,宮崎県,宮崎市,橘通西３丁目１０番３２号８階,,45,201,8800001,,,,,,,2024-08-16,1,,,,,カネナジョウゾウ,0
1012,4350003004711,新規,0,2024-08-16,2024-08-16,合同会社チャーム,,合同会社,宮崎県,東諸県郡国富町,大字深年５５８７－３,,45,382,8801224,,,,,,,2024-08-16,1,,,,,チャーム,0
1015,4370001051646,新規,0,2024-08-16,2024-08-16,株式会社クサカ通信,,株式会社,宮城県,柴田郡大河原町,字広表２番地４,,04,321,9891225,,,,,,,2024-08-16,1,,,,,クサカツウシン,0
1016,4370001051654,新規,0,2024-08-16,2024-08-16,株式会社川嶋不動産,,株式会社,宮城県,仙台市若林区,なないろの里２丁目１７番地の１６,,04,103,9840017,,,,,,,2024-08-16,1,,,,,カワシマフドウサン,0
1022,4390001017711,新規,0,2024-08-16,2024-08-16,株式会社ＴＯＧ,,株式会社,山形県,新庄市,常葉町３番４９－７号,,06,205,9960021,,,,,,,2024-08-16,1,,,,,ティーオージー,0
1026,4410001013914,新規,0,2024-08-16,2024-08-16,ＧＭＴＢ株式会社,,株式会社,秋田県,由利本荘市,岩城勝手字石長根１番地１００,,05,210,0181302,,,,,,,2024-08-16,1,,,,,ジーエムティービー,0
1032,4430001092493,新規,0,2024-08-16,2024-08-16,株式会社Ｓｈｏｒｔｅｎ,,株式会社,北海道,札幌市西区,二十四軒三条４丁目６番７号第三栄輪ビル２階Ａ号室,,01,107,0630803,,,,,,,2024-08-16,1,,,,,ショーテン,0
1033,4430001092502,新規,0,2024-08-16,2024-08-16,株式会社ＣＣＦ,,株式会社,北海道,夕張郡長沼町,東４線北１３番地,,01,428,0691317,,,,,,,2024-08-16,1,,,,,シーシーエフ,0
1035,4430003016681,新規,0,2024-08-16,2024-08-16,合同会社Ｌａｃｅｒ,,合同会社,北海道,札幌市南区,澄川三条４丁目７番４８－２０１号,,01,106,0050003,,,,,,,2024-08-16,1,,,,,レイサー,0
1042,4470001020343,新規,0,2024-08-16,2024-08-16,株式会社平井製作所,,株式会社,香川県,高松市,多肥上町２３９９番地８,,37,201,7618076,,,,,,,2024-08-16,1,,,,,ヒライセイサクショ,0
1043,4490003001926,新規,0,2024-08-16,2024-08-16,合同会社Ｈａｎｄｓ’Ｈｅａｒｔ,,合同会社,高知県,高知市,梅ノ辻２番４号,,39,201,7808011,,,,,,,2024-08-16,1,,,,,,0
1058,5010001247568,新規,0,2024-08-16,2024-08-16,鴻明株式会社,,株式会社,東京都,中央区,入船１丁目９番８号,,13,102,1040042,,,,,,,2024-08-16,1,,,,,コウメイ,0
1064,5010401184527,新規,0,2024-08-16,2024-08-16,株式会社ＮＮ総研,,株式会社,東京都,港区,南青山３丁目１番３６号青山丸竹ビル６Ｆ,,13,103,1070062,,,,,,,2024-08-16,1,,,,,エヌエヌソウケン,0
1070,5010501052773,新規,0,2024-08-16,2024-08-16,株式会社ＭＦＰ,,株式会社,東京都,台東区,浅草１丁目３番７号－１,,13,106,1110032,,,,,,,2024-08-16,1,,,,,エムエフピー,0
1074,5010601065766,新規,0,2024-08-16,2024-08-16,株式会社パーソンフッド,,株式会社,東京都,江東区,青海２丁目７番４号ｔｈｅＳＯＨＯ,,13,108,1350064,,,,,,,2024-08-16,1,,,,,パーソンフッド,0
1075,5010601065774,新規,0,2024-08-16,2024-08-16,株式会社ピーチ,,株式会社,東京都,墨田区,京島１丁目８－８,,13,107,1310046,,,,,,,2024-08-16,1,,,,,ピーチ,0
1077,5010703007303,新規,0,2024-08-16,2024-08-16,佐世保市鹿町町風力発電合同会社,,合同会社,東京都,品川区,大崎１丁目６番１号ＴＯＣ大崎ビルディング,,13,109,1410032,,,,,,,2024-08-16,1,,,,,サセボシシカマチチョウフウリョクハツデン,0
1080,5010803005058,新規,0,2024-08-16,2024-08-16,合同会社ＡＱＵＡ‐Ｍ,,合同会社,東京都,大田区,中馬込３丁目２１番３号,,13,111,1430027,,,,,,,2024-08-16,1,,,,,アクアエム,0
1082,5010903009289,新規,0,2024-08-16,2024-08-16,合同会社Ｇｒｅａｔ　Ｆｒｕｉｔｓ,,合同会社,東京都,世田谷区,下馬１丁目６番６－３０７号,,13,112,1540002,,,,,,,2024-08-16,1,,,,,グレートフルーツ,0
1086,5011001163838,新規,0,2024-08-16,2024-08-16,株式会社ＢＦＣ,,株式会社,東京都,渋谷区,東３丁目２５番８号,,13,113,1500011,,,,,,,2024-08-16,1,,,,,ビーエフシー,0
1091,5011101108420,新規,0,2024-08-16,2024-08-16,Ｙ＆ｉ株式会社,,株式会社,東京都,新宿区,百人町１丁目１２番２号セイザ新宿７０１,,13,104,1690073,,,,,,,2024-08-16,1,,,,,ワイアンドアイ,0
1092,5011101108429,新規,0,2024-08-16,2024-08-16,株式会社絆,,株式会社,東京都,新宿区,山吹町３３５番地３階,,13,104,1620801,,,,,,,2024-08-16,1,,,,,キズナ,0
1093,5011101108437,新規,0,2024-08-16,2024-08-16,株式会社未来鍛工,,株式会社,東京都,新宿区,高田馬場４丁目３８番１９号ハンビルディング,,13,104,1690075,,,,,,,2024-08-16,1,,,,,ミライタンコウ,0
1094,5011101108445,新規,0,2024-08-16,2024-08-16,株式会社Ｋａｎｄｏ,,株式会社,東京都,新宿区,新宿５丁目７番９－６０２号,,13,104,1600022,,,,,,,2024-08-16,1,,,,,カンド,0
1096,5011103014807,新規,0,2024-08-16,2024-08-16,合同会社魔女の指南広場,,合同会社,東京都,新宿区,新宿２丁目１２番１３号新宿アントレサロン２階,,13,104,1600022,,,,,,,2024-08-16,1,,,,,マジョノシナンヒロバ,0
1100,5011305002997,新規,0,2024-08-16,2024-08-16,特定非営利活動法人菊水連,,その他の設立登記法人,東京都,杉並区,梅里２丁目２８番７号,,13,115,1660011,,,,,,,2024-08-16,1,,,,,キクスイレン,0
1105,5011503006189,新規,0,2024-08-16,2024-08-16,ＪＰＳＭアセットマネジメント合同会社,,合同会社,東京都,荒川区,西日暮里２丁目２２番３号ＡｎｎｅｘＷｅｓｔ４階,,13,118,1160013,,,,,,,2024-08-16,1,,,,,ジェイピーエスエムアセットマネジメント,0
1106,5011601027979,新規,0,2024-08-16,2024-08-16,株式会社サウス,,株式会社,東京都,練馬区,南田中３丁目２８番６号,,13,120,1770035,,,,,,,2024-08-16,1,,,,,サウス,0
1107,5011601027987,新規,0,2024-08-16,2024-08-16,株式会社Ｅ　ＮＥＸＴ,,株式会社,東京都,練馬区,北町１丁目１番３－４０２号,,13,120,1790081,,,,,,,2024-08-16,1,,,,,イーネクスト,0
1112,5011701027532,新規,0,2024-08-16,2024-08-16,株式会社鈴谷商店,,株式会社,東京都,江戸川区,瑞江ニ丁目２番３号,,13,123,1320000,,,,,,,2024-08-16,1,,,,,スズヤショウテン,0
1115,5011801044691,新規,0,2024-08-16,2024-08-16,株式会社Ｎｅｗ　Ｇａｔｅ,,株式会社,東京都,足立区,大谷田３丁目２２番１５－８０２号,,13,121,1200001,,,,,,,2024-08-16,1,,,,,ニューゲート,0
1116,5011801044709,新規,0,2024-08-16,2024-08-16,大鵬商事株式会社,,株式会社,東京都,足立区,梅島２丁目１０番５号,,13,121,1210816,,,,,,,2024-08-16,1,,,,,タイホウショウジ,0
1119,5012301014045,新規,0,2024-08-16,2024-08-16,三井萬興株式会社,,株式会社,東京都,町田市,鶴間６丁目４０番１２号ファインヴィラ井上２０４,,13,209,1940004,,,,,,,2024-08-16,1,,,,,ミツイマンコウ,0
1120,5012703003075,新規,0,2024-08-16,2024-08-16,スーカス合同会社,,合同会社,東京都,東村山市,野口町１丁目２４番地３グレーゲーブルス２０３,,13,213,1890022,,,,,,,2024-08-16,1,,,,,スーカス,0
1125,5020001158582,新規,0,2024-08-16,2024-08-16,株式会社Ｅｄｙ,,株式会社,神奈川県,横浜市西区,浅間町４丁目３３３－１１ネオステージ横浜１０２号,,14,103,2200072,,,,,,,2024-08-16,1,,,,,,0
1130,5021001083028,新規,0,2024-08-16,2024-08-16,Ｔａｃｔｉｓ株式会社,,株式会社,神奈川県,小田原市,栄町１丁目１４－２８ＢＩＺｃｏｍｆｏｒｔ小田原Ｃ－３３,,14,206,2500011,,,,,,,2024-08-16,1,,,,,タクティス,0
1139,5030001162006,新規,0,2024-08-16,2024-08-16,アトラスネクスト株式会社,,株式会社,埼玉県,三郷市,早稲田１丁目１８番地２２,,11,237,3410018,,,,,,,2024-08-16,1,,,,,アトラスネクスト,0
1140,5030003024947,新規,0,2024-08-16,2024-08-16,ＫＤＡＣ合同会社,,合同会社,埼玉県,飯能市,大字笠縫３８８番地７,,11,209,3570045,,,,,,,2024-08-16,1,,,,,ケーディーエーシー,0
1141,5030005021810,新規,0,2024-08-16,2024-08-16,一般社団法人ＭＭ,,その他の設立登記法人,埼玉県,新座市,新堀１丁目６番２５号,,11,230,3520032,,,,,,,2024-08-16,1,,,,,エムエム,0
1143,5040001134978,新規,0,2024-08-16,2024-08-16,株式会社染谷興業,,株式会社,千葉県,船橋市,習志野台６丁目８番１２棟１０３号,,12,204,2740063,,,,,,,2024-08-16,1,,,,,ソメヤコウギョウ,0
1144,5040001135010,新規,0,2024-08-16,2024-08-16,晴工業株式会社,,株式会社,千葉県,野田市,目吹２５３７番地の１０９,,12,208,2780001,,,,,,,2024-08-16,1,,,,,セイコウギョウ,0
1147,5050001055273,新規,0,2024-08-16,2024-08-16,株式会社エヌマエコファシリティーズ,,株式会社,茨城県,水戸市,加倉井町６６７番地１,,08,201,3114163,,,,,,,2024-08-16,1,,,,,エヌマエコファシリティーズ,0
1148,5050003008618,新規,0,2024-08-16,2024-08-16,マトマ合同会社,,合同会社,茨城県,水戸市,千波町２５９６番地の６,,08,201,3100851,,,,,,,2024-08-16,1,,,,,マトマ,0
1151,5050005013475,新規,0,2024-08-16,2024-08-16,一般社団法人ＧｒａｓｓＲｏｏｍ,,その他の設立登記法人,茨城県,ひたちなか市,西十三奉行１１６４９番地３、２Ｆ,,08,221,3111206,,,,,,,2024-08-16,1,,,,,グラスルーム,0
1154,5070001042022,新規,0,2024-08-16,2024-08-16,株式会社ＭＩＲＯＫＵ,,株式会社,群馬県,高崎市,井野町３６９番地３,,10,202,3700004,,,,,,,2024-08-16,1,,,,,ミロク,0
1157,5070005010306,新規,0,2024-08-16,2024-08-16,みどり社会保険労務士法人,,その他の設立登記法人,群馬県,みどり市,笠懸町鹿３８９番地５,,10,212,3792313,,,,,,,2024-08-16,1,,,,,ミドリ,0
1162,5090001018854,新規,0,2024-08-16,2024-08-16,株式会社ＳｈｅｅｐＷｉｎｇ,,株式会社,山梨県,中巨摩郡昭和町,河西９１３－１－２０１,,19,384,4093851,,,,,,,2024-08-16,1,,,,,シープウィング,0
1183,5120001267761,新規,0,2024-08-16,2024-08-16,マージナルゲイン株式会社,,株式会社,大阪府,大阪市中央区,備後町３丁目６－２大雅ビル１０階,,27,128,5410051,,,,,,,2024-08-16,1,,,,,マージナルゲイン,0
1184,5120001267811,新規,0,2024-08-16,2024-08-16,株式会社未来戦略室,,株式会社,大阪府,枚方市,楠葉中之芝１丁目１５番４号,,27,210,5731101,,,,,,,2024-08-16,1,,,,,ミライセンリャクシツ,0
1185,5120001267869,新規,0,2024-08-16,2024-08-16,株式会社あきよし,,株式会社,大阪府,大阪市福島区,鷺洲４丁目４番２６号,,27,103,5530002,,,,,,,2024-08-16,1,,,,,アキヨシ,0
1187,5120003027296,新規,0,2024-08-16,2024-08-16,高菱リアルティ合同会社,,合同会社,大阪府,大阪市中央区,本町橋５－１４オージービル本町橋１００２,,27,128,5400029,,,,,,,2024-08-16,1,,,,,タカビシリアルティ,0
1188,5120003027305,新規,0,2024-08-16,2024-08-16,合同会社ＳＥＬＥＮＥ,,合同会社,大阪府,大阪市西成区,鶴見橋３丁目７番３１号,,27,122,5570031,,,,,,,2024-08-16,1,,,,,セレーネ,0
1189,5120003027313,新規,0,2024-08-16,2024-08-16,合同会社Ｐｏｉ,,合同会社,大阪府,大阪市北区,梅田１丁目２番２号大阪駅前第２ビル１２－１２,,27,127,5300001,,,,,,,2024-08-16,1,,,,,ポイ,0
1190,5120003027321,新規,0,2024-08-16,2024-08-16,合同会社ｆｏｒｔｕｎｅ,,合同会社,大阪府,大阪市生野区,中川西２丁目１９番９－３０２号,,27,116,5440032,,,,,,,2024-08-16,1,,,,,フォーチューン,0
1197,5120901049607,新規,0,2024-08-16,2024-08-16,株式会社Ｂ‐Ｎｅｘｔ,,株式会社,大阪府,豊中市,中桜塚１丁目１２番２４号,00135975,27,203,5610881,,,,,,,2024-08-16,1,,,,,ビィネクスト,0
1203,5122003002964,新規,0,2024-08-16,2024-08-16,合同会社ＫＡＮＡＤＥ,,合同会社,大阪府,東大阪市,西岩田２丁目７番２５－１３３号,,27,227,5780947,,,,,,,2024-08-16,1,,,,,カナデ,0
1207,5130001077714,新規,0,2024-08-16,2024-08-16,株式会社ヤマトセレモニーサービス,,株式会社,京都府,京都市下京区,七条御所ノ内西町３番地１,,26,106,6008865,,,,,,,2024-08-16,1,,,,,ヤマトセレモニーサービス,0
1208,5130003009748,新規,0,2024-08-16,2024-08-16,合同会社Ｇｅｌ‐ｂａｎａｎａ,,合同会社,京都府,福知山市,南本町２６４－５、２階,,26,201,6200000,,,,,,,2024-08-16,1,,,,,ゲルバナナ,0
1213,5140003008146,新規,0,2024-08-16,2024-08-16,合名会社浅野組,,合名会社,兵庫県,川西市,小花１丁目９番１３号,,28,217,6660015,,,,,,,2024-08-16,1,,,,,アサノグミ,0
1219,5180001162833,新規,0,2024-08-16,2024-08-16,株式会社サンスマイル,,株式会社,愛知県,春日井市,中央通２丁目８６テトラ中央通Ｂ,,23,206,4860825,,,,,,,2024-08-16,1,,,,,サンスマイル,0
1220,5180001162866,新規,0,2024-08-16,2024-08-16,豪美ホールディングス株式会社,,株式会社,愛知県,春日井市,弥生町１４７０番地４,,23,206,4860838,,,,,,,2024-08-16,1,,,,,タケトミホールディングス,0
1221,5180001162899,新規,0,2024-08-16,2024-08-16,中科摩通日本株式会社,,株式会社,愛知県,一宮市,萩原町西御堂字郷西切８７４－１,,23,203,4910365,,,,,,,2024-08-16,1,,,,,チュウカマツウニホン,0
1222,5180001162908,新規,0,2024-08-16,2024-08-16,ＶＥＲＤＡＤ株式会社,,株式会社,愛知県,日進市,折戸町中屋敷６４番地６,,23,230,4700115,,,,,,,2024-08-16,1,,,,,ベルダ,0
1227,5180003027200,新規,0,2024-08-16,2024-08-16,Ｗｈｉｔｅ　Ｓｐａｃｅ合同会社,,合同会社,愛知県,名古屋市千種区,高見２丁目１－３－１０３,,23,101,4640073,,,,,,,2024-08-16,1,,,,,ホワイトスペース,0
1228,5180003027241,新規,0,2024-08-16,2024-08-16,合同会社おうんぺーす,,合同会社,愛知県,名古屋市緑区,桃山１丁目１５４番地,,23,114,4580002,,,,,,,2024-08-16,1,,,,,オウンペース,0
1233,5200001042826,新規,0,2024-08-16,2024-08-16,株式会社飛騨高山市場,,株式会社,岐阜県,高山市,問屋町６番地,,21,203,5060002,,,,,,,2024-08-16,1,,,,,ヒダタカヤマイチバ,0
1236,5210001019880,新規,0,2024-08-16,2024-08-16,三玄環境株式会社,,株式会社,福井県,福井市,大宮６丁目１７番３５号,,18,201,9100016,,,,,,,2024-08-16,1,,,,,ミゲンカンキョウ,0
1244,5260001039346,新規,0,2024-08-16,2024-08-16,岡栄ホールディングス株式会社,,株式会社,岡山県,岡山市北区,津島京町３丁目３番１３号,,33,101,7000087,,,,,,,2024-08-16,1,,,,,オカエイホールディングス,0
1254,5290001106696,新規,0,2024-08-16,2024-08-16,株式会社景和,,株式会社,福岡県,福岡市東区,香椎照葉３丁目１番１３－２１２号アーバンパレス香椎照葉,,40,131,8130017,,,,,,,2024-08-16,1,,,,,ケイワ,0
1255,5290001106911,新規,0,2024-08-16,2024-08-16,株式会社フロンテック,,株式会社,福岡県,福岡市東区,二又瀬１８番１９号,,40,131,8120066,,,,,,,2024-08-16,1,,,,,フロンテック,0
1257,5290005019457,新規,0,2024-08-16,2024-08-16,一般社団法人ＳＩＳＲＡ,,その他の設立登記法人,福岡県,福岡市東区,社領２丁目１２番２３号,,40,131,8120068,,,,,,,2024-08-16,1,,,,,シスラ,0
1258,5290005019465,新規,0,2024-08-16,2024-08-16,一般社団法人新体操芸術アカデミー,,その他の設立登記法人,福岡県,福岡市中央区,小笹４丁目５番５０－８０２号,,40,133,8100033,,,,,,,2024-08-16,1,,,,,シンタイソウゲイジュツアカデミー,0
1263,5330001032368,新規,0,2024-08-16,2024-08-16,株式会社３５,,株式会社,熊本県,玉名市,滑石４８７番地,,43,206,8650056,,,,,,,2024-08-16,1,,,,,サンゴ,0
1265,5340001026740,新規,0,2024-08-16,2024-08-16,株式会社ＣＥＣホールディングス,,株式会社,鹿児島県,鹿児島市,伊敷台１丁目２２番１号,,46,201,8900007,,,,,,,2024-08-16,1,,,,,シーイーシーホールディングス,0
1270,5360003014238,新規,0,2024-08-16,2024-08-16,和産業合同会社,,合同会社,沖縄県,糸満市,字兼城３５２番地の１シャトレハピネスＩＩ１０３,00135985,47,210,9010303,,,,,,,2024-08-16,1,,,,,カズサンギョウ,0
1274,5370005010829,新規,0,2024-08-16,2024-08-16,特定非営利活動法人キンダーフォーラム,,その他の設立登記法人,宮城県,富谷市,東向陽台２丁目２１番１２号,,04,216,9813331,,,,,,,2024-08-16,1,,,,,キンダーフォーラム,0
1285,5410001010935,新規,0,2024-08-16,2024-08-16,同和住研工業株式会社,,株式会社,秋田県,秋田市,千秋矢留町９番４号,,05,201,0100877,,,,,,,2024-08-16,1,,,,,,0
1289,5420005007919,新規,0,2024-08-16,2024-08-16,一般社団法人安藤昌益資料館,,その他の設立登記法人,青森県,八戸市,大字八日町３番地,,02,203,0310086,,,,,,,2024-08-16,1,,,,,アンドウショウエキシリョウカン,0
1291,5430001092451,新規,0,2024-08-16,2024-08-16,株式会社Ｒｅｆｉｎｅ,,株式会社,北海道,札幌市豊平区,月寒東五条９丁目４番３号ＨｏｔＷｏｒｋ’ｓ５９　１階,,01,105,0620055,,,,,,,2024-08-16,1,,,,,リファイン,0
1293,5430003016697,新規,0,2024-08-16,2024-08-16,旅の里合同会社,,合同会社,北海道,札幌市北区,北七条西４丁目１番地１トーカン札幌第一キャステール６０７,,01,102,0600807,,,,,,,2024-08-16,1,,,,,タビノサト,0
1295,5440003001616,新規,0,2024-08-16,2024-08-16,合同会社末永家畜人工授精所,,合同会社,北海道,二海郡八雲町,栄町２２番地３,,01,346,0493117,,,,,,,2024-08-16,1,,,,,スエナガカチクジンコウジュセイジョ,0
1298,5470001020350,新規,0,2024-08-16,2024-08-16,株式会社ＯＣＴＯＧＥＮＯＭＥ,,株式会社,香川県,高松市,天神前１０番５号高松セントラルスカイビルディング８階,,37,201,7600018,,,,,,,2024-08-16,1,,,,,オクトゲノム,0
1301,5490001010853,新規,0,2024-08-16,2024-08-16,株式会社荒波,,株式会社,高知県,土佐市,北地２０２５番地２,,39,205,7811111,,,,,,,2024-08-16,1,,,,,アラナミ,0
1304,5500005008727,新規,0,2024-08-16,2024-08-16,一般社団法人えひめＥｍｐｏｗｅｒプロジェクト,,その他の設立登記法人,愛媛県,松山市,古川西３丁目９番３号,,38,201,7900944,,,,,,,2024-08-16,1,,,,,エヒメエンパワープロジェクト,0
1305,5700150034334,新規,0,2024-08-16,2015-10-09,枝幸町観光協会,,その他,北海道,枝幸郡枝幸町,三笠町３０１－７枝幸バスタ－ミナル内,,01,514,0985823,,,,,,,2015-10-09,1,,,,,エサシチヨウカンコウキヨウカイ,0
1319,6010001247518,新規,0,2024-08-16,2024-08-16,エターナルホームズ株式会社,,株式会社,東京都,千代田区,飯田橋４丁目５－１６－３０１号室,,13,101,1020072,,,,,,,2024-08-16,1,,,,,エターナルホームズ,0
1321,6010003044566,新規,0,2024-08-16,2024-08-16,合同会社ＳＵＮＮＹ　ＢＩＴＥ,,合同会社,東京都,中央区,銀座６丁目１０番１号８階,,13,102,1040061,,,,,,,2024-08-16,1,,,,,サニーバイト,0
1323,6010101016285,新規,0,2024-08-16,2024-08-16,株式会社叶勝,,株式会社,東京都,八王子市,中野上町１丁目２１番５号国際会館別館１階,,13,201,1920041,,,,,,,2024-08-16,1,,,,,カナタ,0
1326,6010401184443,新規,0,2024-08-16,2024-08-16,株式会社仁,,株式会社,東京都,港区,南麻布５丁目２番２２号,,13,103,1060047,,,,,,,2024-08-16,1,,,,,ジン,0
1327,6010401184468,新規,0,2024-08-16,2024-08-16,株式会社ルピナスロゼ,,株式会社,東京都,港区,南青山２丁目２番１５号,,13,103,1070062,,,,,,,2024-08-16,1,,,,,ルピナスロゼ,0
1328,6010401184484,新規,0,2024-08-16,2024-08-16,株式会社ｆｌｕｔｔｅｒｉｎｇ　ｃｈｅｒｒｙ,,株式会社,東京都,港区,虎ノ門１丁目１番１２号－８０２,,13,103,1050001,,,,,,,2024-08-16,1,,,,,フラッタリングチェリー,0
1335,6010601065773,新規,0,2024-08-16,2024-08-16,ロットテクノロジー株式会社,,株式会社,東京都,江東区,深川１丁目１番２号協和ビル２階,,13,108,1350033,,,,,,,2024-08-16,1,,,,,ロットテクノロジー,0
1339,6010603011032,新規,0,2024-08-16,2024-08-16,結城ＩＦＡトラスター合同会社,,合同会社,東京都,江東区,辰巳１丁目５番１７号,,13,108,1350053,,,,,,,2024-08-16,1,,,,,ユウキアイエフエートラスター,0
1343,6010703007302,新規,0,2024-08-16,2024-08-16,合同会社オムニシンク,,合同会社,東京都,品川区,西五反田１丁目２６－２五反田サンハイツ９１１,,13,109,1410031,,,,,,,2024-08-16,1,,,,,オムニシンク,0
1345,6010803005065,新規,0,2024-08-16,2024-08-16,合同会社ＭＭＨＵ,,合同会社,東京都,大田区,西糀谷２丁目２番９－１０２号,,13,111,1440034,,,,,,,2024-08-16,1,,,,,エムエムエイチユー,0
1348,6010901055813,新規,0,2024-08-16,2024-08-16,株式会社ＣＥＬＩＣＡ　ＴＯＵＲＩＳＭ,,株式会社,東京都,世田谷区,北沢４丁目２０番４号,,13,112,1550031,,,,,,,2024-08-16,1,,,,,セリカツーリズム,0
1353,6010903009288,新規,0,2024-08-16,2024-08-16,ｓｉｎｔｏ合同会社,,合同会社,東京都,世田谷区,池尻２丁目３１－２３ニュー池尻ビル２階,,13,112,1540001,,,,,,,2024-08-16,1,,,,,シントウ,0
1354,6010903009296,新規,0,2024-08-16,2024-08-16,合同会社にゃんこサービっす,,合同会社,東京都,世田谷区,桜上水３丁目３－２２,,13,112,1560045,,,,,,,2024-08-16,1,,,,,ニャンコサービッス,0
1363,6011001164141,新規,0,2024-08-16,2024-08-16,株式会社Ｃｒｏｗｄ　Ｊｏｙ,,株式会社,東京都,渋谷区,神山町１８番７－２０３号ザ・パークハウスグラン神山町,,13,113,1500047,,,,,,,2024-08-16,1,,,,,クラウドジョイ,0
1371,6011101108452,新規,0,2024-08-16,2024-08-16,ミッドブルー株式会社,,株式会社,東京都,新宿区,高田馬場１丁目２５番３３号,,13,104,1690075,,,,,,,2024-08-16,1,,,,,ミッドブルー,0
1373,6011103014806,新規,0,2024-08-16,2024-08-16,合同会社プロパティ,,合同会社,東京都,新宿区,西新宿３丁目３番１３号西新宿水間ビル２Ｆ,,13,104,1600023,,,,,,,2024-08-16,1,,,,,プロパティ,0
1382,6011601027978,新規,0,2024-08-16,2024-08-16,株式会社オークホールディングス,,株式会社,東京都,練馬区,田柄１丁目２番２２号,,13,120,1790073,,,,,,,2024-08-16,1,,,,,オークホールディングス,0
1383,6011601027986,新規,0,2024-08-16,2024-08-16,変なホールティングス株式会社,,株式会社,東京都,練馬区,小竹町２丁目８番８号変なヒルズ,,13,120,1760004,,,,,,,2024-08-16,1,,,,,ヘンナホールディングス,0
1386,6011801044690,新規,0,2024-08-16,2024-08-16,株式会社エムアンドユー,,株式会社,東京都,葛飾区,立石６丁目８番１－３０１号,,13,122,1240012,,,,,,,2024-08-16,1,,,,,エムアンドユー,0
1390,6012703003074,新規,0,2024-08-16,2024-08-16,合同会社マウンタリー,,合同会社,東京都,東村山市,野口町１丁目２４番地３、２０３,,13,213,1890022,,,,,,,2024-08-16,1,,,,,マウンタリー,0
1391,6012801023404,新規,0,2024-08-16,2024-08-16,ＳＴＩコンサルタンツ株式会社,,株式会社,東京都,立川市,錦町１丁目４番４号サニービル２階ＣＳ２１６,,13,202,1900022,,,,,,,2024-08-16,1,,,,,エスティーアイコンサルタンツ,0
1400,6020003026621,新規,0,2024-08-16,2024-08-16,合同会社ＡＲＴ,,合同会社,神奈川県,横浜市中区,初音町１丁目２１番地１サンライズ福清ビル３０２,,14,104,2310053,,,,,,,2024-08-16,1,,,,,アート,0
1405,6021003014896,新規,0,2024-08-16,2024-08-16,合同会社Ｈｏｌｙｅｄｇｅ,,合同会社,神奈川県,平塚市,明石町１６番１８号,,14,203,2540042,,,,,,,2024-08-16,1,,,,,ホーリーエッジ,0
1409,6030001162005,新規,0,2024-08-16,2024-08-16,株式会社ＭＴＧｒｏｕｐ,,株式会社,埼玉県,所沢市,大字荒幡５２１番地の１,,11,208,3591133,,,,,,,2024-08-16,1,,,,,,0
1410,6030001162021,新規,0,2024-08-16,2024-08-16,株式会社オネイロス,,株式会社,埼玉県,越谷市,蒲生西町１丁目３番６８号５０２,,11,222,3430835,,,,,,,2024-08-16,1,,,,,オネイロス,0
1414,6030003024938,新規,0,2024-08-16,2024-08-16,合同会社アトランティス,,合同会社,埼玉県,春日部市,一ノ割３丁目８－３８,,11,214,3440031,,,,,,,2024-08-16,1,,,,,アトランティス,0
1415,6030003024954,新規,0,2024-08-16,2024-08-16,合同会社クリアシステム,,合同会社,埼玉県,加須市,三俣２丁目１７番地１３,,11,210,3470009,,,,,,,2024-08-16,1,,,,,クリアシステム,0
1418,6040001134969,新規,0,2024-08-16,2024-08-16,株式会社青木自動車工業,,株式会社,千葉県,市川市,宮久保３丁目２番１６号,,12,203,2720822,,,,,,,2024-08-16,1,,,,,アオキジドウシャコウギョウ,0
1419,6040001134977,新規,0,2024-08-16,2024-08-16,株式会社ＳＵＮＧＲＩＴ,,株式会社,千葉県,市川市,宮久保２丁目６－１３プランドールＫ１０５,,12,203,2720822,,,,,,,2024-08-16,1,,,,,,0
1420,6040001135018,新規,0,2024-08-16,2024-08-16,ｗｅａｋｎｅｓｓ株式会社,,株式会社,千葉県,山武郡横芝光町,横芝１４９３－５,,12,410,2891732,,,,,,,2024-08-16,1,,,,,ウィークネス,0
1422,6040003025596,新規,0,2024-08-16,2024-08-16,Ｄａ‐ｗｉｎ合同会社,,合同会社,千葉県,旭市,イ４３３７－１イオンタウン旭２階,,12,215,2892511,,,,,,,2024-08-16,1,,,,,ダーウィン,0
1431,6070001042070,新規,0,2024-08-16,2024-08-16,株式会社３ＳＫ　Ｈｉｍａｌａｙａｎ,,株式会社,群馬県,前橋市,本町２丁目３番５号ＴＫＹ前橋市本町ビル１Ｆ,,10,201,3710023,,,,,,,2024-08-16,1,,,,,スリーエスケーヒマラヤン,0
1432,6070001042095,新規,0,2024-08-16,2024-08-16,アイジス株式会社,,株式会社,群馬県,高崎市,石原町３２９８番地５,,10,202,3700864,,,,,,,2024-08-16,1,,,,,アイジス,0
1442,6100001037744,新規,0,2024-08-16,2024-08-16,株式会社ＯＮＥ　ＥＩＧＨＴ　ｉｎｆｏｒｍａｔｉｏｎ,,株式会社,長野県,長野市,大字鶴賀１３２４番地１０,,20,201,3800907,,,,,,,2024-08-16,1,,,,,ワンエイトインフォメーション,0
1444,6100003007720,新規,0,2024-08-16,2024-08-16,合同会社Ｃａｆｕ,,合同会社,長野県,飯田市,上郷別府１５９番地１,,20,205,3950003,,,,,,,2024-08-16,1,,,,,カフー,0
1446,6110001038650,新規,0,2024-08-16,2024-08-16,株式会社フルカウント,,株式会社,新潟県,新潟市西区,新通西１丁目１番１号Ｓ＆Ｆ新通Ａ号,,15,107,9502036,,,,,,,2024-08-16,1,,,,,フルカウント,0
1447,6110003005491,新規,0,2024-08-16,2024-08-16,合同会社胡結,,合同会社,新潟県,新潟市北区,上土地亀２４１７番地,,15,101,9503343,,,,,,,2024-08-16,1,,,,,コユウ,0
1452,6120001267810,新規,0,2024-08-16,2024-08-16,株式会社水と土,,株式会社,大阪府,交野市,私部５丁目２１番５号,,27,230,5760052,,,,,,,2024-08-16,1,,,,,ミズトツチ,0
1453,6120001267827,新規,0,2024-08-16,2024-08-16,株式会社グロース,,株式会社,大阪府,大阪市生野区,新今里７丁目２－３エルシティ新今里３０５号,,27,116,5440001,,,,,,,2024-08-16,1,,,,,グロース,0
1462,6120003027097,新規,0,2024-08-16,2024-08-16,ＡＮＨ合同会社,,合同会社,大阪府,大阪市中央区,常盤町１丁目１－９－３０５,,27,128,5400028,,,,,,,2024-08-16,1,,,,,エーエヌエイチ,0
1463,6120003027320,新規,0,2024-08-16,2024-08-16,合同会社ＫＢＤ,,合同会社,大阪府,大阪市平野区,長吉川辺１丁目１番１５－６０２号,,27,126,5470014,,,,,,,2024-08-16,1,,,,,ケービーディー,0
1467,6120101070148,新規,0,2024-08-16,2024-08-16,株式会社Ｆｒｅｅｓｉａ　ｈａｎａ,,株式会社,大阪府,堺市西区,上１７３番地４５,,27,144,5938311,,,,,,,2024-08-16,1,,,,,フリージアハナ,0
1468,6120101070164,新規,0,2024-08-16,2024-08-16,一方株式会社,,株式会社,大阪府,泉佐野市,長滝９２４－１ミヤコピア長滝２０７号室,,27,213,5980034,,,,,,,2024-08-16,1,,,,,イチホウ,0
1474,6122001038349,新規,0,2024-08-16,2024-08-16,株式会社漸新,,株式会社,大阪府,東大阪市,小若江３丁目６番９号近畿大学ＫＩＮＣＵＢＡＢａｓｅｃａｍｐ,,27,227,5770818,,,,,,,2024-08-16,1,,,,,ゼンシン,0
1476,6130001077696,新規,0,2024-08-16,2024-08-16,株式会社長野電気,,株式会社,京都府,南丹市,美山町上平屋溝中１４番地１１,,26,213,6010721,,,,,,,2024-08-16,1,,,,,ナガノデンキ,0
1477,6130001077705,新規,0,2024-08-16,2024-08-16,株式会社京采,,株式会社,京都府,京都市南区,東九条西河辺町４１番地３コープ野村京都南１００３,,26,107,6018037,,,,,,,2024-08-16,1,,,,,キョウサイ,0
1482,6140001135494,新規,0,2024-08-16,2024-08-16,株式会社Ｊ＆Ｃ,,株式会社,兵庫県,神戸市中央区,磯上通８丁目１番１９号７Ｆ７－Ｈ室,,28,110,6510086,,,,,,,2024-08-16,1,,,,,ジェイアンドシー,0
1483,6140001135503,新規,0,2024-08-16,2024-08-16,株式会社Ｒｏｏｆ１０,,株式会社,兵庫県,加古郡稲美町,印南１０５８番地の１０,,28,381,6751111,,,,,,,2024-08-16,1,,,,,ルーフテン,0
1484,6140001135544,新規,0,2024-08-16,2024-08-16,新アンクルセブン株式会社,,株式会社,兵庫県,神戸市東灘区,向洋町中１丁目１７,,28,101,6580032,,,,,,,2024-08-16,1,,,,,シンアンクルセブン,0
1495,6180001162808,新規,0,2024-08-16,2024-08-16,株式会社ｆａｍ,,株式会社,愛知県,知多市,西巽が丘２丁目３番地の２４,00135976,23,224,4780014,,,,,,,2024-08-16,1,,,,,ファム,0
1496,6180001162816,新規,0,2024-08-16,2024-08-16,株式会社リッチコネクション,,株式会社,愛知県,一宮市,千秋町加納馬場字大塚２３番地２,,23,203,4910811,,,,,,,2024-08-16,1,,,,,リッチコネクション,0
1497,6180001162840,新規,0,2024-08-16,2024-08-16,株式会社ｆｏｒＵｓ,,株式会社,愛知県,名古屋市東区,豊前町２丁目７７番地の４アビターレ豊前２０６号,,23,102,4610034,,,,,,,2024-08-16,1,,,,,フォーラス,0
1498,6180001162907,新規,0,2024-08-16,2024-08-16,株式会社リフ,,株式会社,愛知県,名古屋市南区,立脇町２丁目５番地１スターハイツ笠寺Ｃ号室,,23,112,4570077,,,,,,,2024-08-16,1,,,,,リフ,0
1499,6180001162915,新規,0,2024-08-16,2024-08-16,株式会社ＲＩｍｅ　Ｈｏｍｅ,,株式会社,愛知県,海部郡大治町,大字砂子字尾崎５０番地２,,23,424,4901143,,,,,,,2024-08-16,1,,,,,ライムホーム,0
1500,6180001162923,新規,0,2024-08-16,2024-08-16,株式会社ポテチル,,株式会社,愛知県,名古屋市北区,黒川本通１丁目３３－３シェソワ黒川１０１,,23,103,4620841,,,,,,,2024-08-16,1,,,,,ポテチル,0
1501,6180001162931,新規,0,2024-08-16,2024-08-16,株式会社Ｄａｉｓｙ,,株式会社,愛知県,尾張旭市,平子町長池上６２６３番地２,,23,226,4880872,,,,,,,2024-08-16,1,,,,,デイジー,0
1504,6180003027224,新規,0,2024-08-16,2024-08-16,合同会社ＴＩＳＡ,,合同会社,愛知県,名古屋市昭和区,元宮町４丁目６４番地の３,,23,107,4660851,,,,,,,2024-08-16,1,,,,,ティーサ,0
1514,6220001026165,新規,0,2024-08-16,2024-08-16,株式会社ＳＲＴ,,株式会社,石川県,金沢市,上荒屋２丁目１８番地,,17,201,9218065,,,,,,,2024-08-16,1,,,,,エスアールティー,0
1520,6240003006816,新規,0,2024-08-16,2024-08-16,Ｓｕｒｇｅ　Ｃｏｎｎｅｃｔ合同会社,,合同会社,広島県,広島市中区,宝町９番３０－１０２号,,34,101,7300044,,,,,,,2024-08-16,1,,,,,サージコネクト,0
1524,6250001020776,新規,0,2024-08-16,2024-08-16,株式会社ＩＭＳクリエイト,,株式会社,山口県,岩国市,瓦谷１１６番地１,,35,208,7400311,,,,,,,2024-08-16,1,,,,,アイエムエスクリエイト,0
1525,6250005008941,新規,0,2024-08-16,2024-08-16,医療法人一心会,,その他の設立登記法人,山口県,岩国市,尾津町２丁目１４番５９号,,35,208,7400032,,,,,,,2024-08-16,1,,,,,イッシンカイ,0
1531,6260003004850,新規,0,2024-08-16,2024-08-16,合同会社Ａｄｄ　Ｖａｌｕｅ　Ｆａｃｔｏｒｙ,,合同会社,岡山県,真庭市,中３５４－６,,33,214,7193115,,,,,,,2024-08-16,1,,,,,アドバリューファクトリー,0
1537,6290001106695,新規,0,2024-08-16,2024-08-16,丸美コンサル株式会社,,株式会社,福岡県,福岡市南区,長丘１丁目２０番５－１０１号,,40,134,8150075,,,,,,,2024-08-16,1,,,,,マルビコンサル,0
1541,6290005019464,新規,0,2024-08-16,2024-08-16,一般社団法人健康増進スポーツ支援協会,,その他の設立登記法人,福岡県,福岡市早良区,城西２丁目１０番３４－５号,,40,137,8140003,,,,,,,2024-08-16,1,,,,,ケンコウゾウシンスポーツシエンキョウカイ,0
1542,6290801030806,新規,0,2024-08-16,2024-08-16,株式会社リッチメント,,株式会社,福岡県,田川市,大字伊田４４１５－１ＧｅｎｔｌｅＤ号室,,40,206,8250002,,,,,,,2024-08-16,1,,,,,リッチメント,0
1553,6370001051660,新規,0,2024-08-16,2024-08-16,キッチンワークス株式会社,,株式会社,宮城県,石巻市,鋳銭場８－１,,04,202,9860826,,,,,,,2024-08-16,1,,,,,キッチンワークス,0
1557,6380001034730,新規,0,2024-08-16,2024-08-16,株式会社グランツ不動産,,株式会社,福島県,いわき市,常磐下湯長谷町道下２４番地の１,,07,204,9728317,,,,,,,2024-08-16,1,,,,,グランツフドウサン,0
1559,6380003005845,新規,0,2024-08-16,2024-08-16,合同会社グリーンファーム,,合同会社,福島県,郡山市,大槻町字北洞９３番地の２,,07,203,9630201,,,,,,,2024-08-16,1,,,,,グリーンファーム,0
1569,6430001092500,新規,0,2024-08-16,2024-08-16,五陽株式会社,,株式会社,北海道,札幌市白石区,平和通４丁目北２番２６号,,01,104,0030029,,,,,,,2024-08-16,1,,,,,ゴヨウ,0
1570,6430002002482,新規,0,2024-08-16,2024-08-16,有限会社うさぎ薬店,,有限会社,北海道,札幌市手稲区,手稲本町三条２丁目１番１３号,,01,109,0060023,,,,,,,2024-08-16,1,,,,,ウサギヤクテン,0
1577,6480003002171,新規,0,2024-08-16,2024-08-16,合同会社ＮＳＳ,,合同会社,徳島県,三好郡東みよし町,加茂４５５０番地４三三住宅２号室,,36,489,7794701,,,,,,,2024-08-16,1,,,,,エヌエスエス,0
1578,6490001010828,新規,0,2024-08-16,2024-08-16,株式会社ＢＵＮＪＩ　ＧＡＴＥ,,株式会社,高知県,高知市,本町２丁目２－３１,,39,201,7800870,,,,,,,2024-08-16,1,,,,,ブンジゲイト,0
1584,7010001247401,新規,0,2024-08-16,2024-08-16,株式会社ＴｒｅｅＴｒｕｎｋ,,株式会社,東京都,文京区,小石川２丁目２番１３－８０８号,,13,105,1120002,,,,,,,2024-08-16,1,,,,,ツリートランク,0
1585,7010001247434,新規,0,2024-08-16,2024-08-16,株式会社クローバーズ,,株式会社,東京都,千代田区,神田佐久間町２丁目１８番地１秋葉原ＳＴＮフロント１０階,,13,101,1010025,,,,,,,2024-08-16,1,,,,,クローバーズ,0
1586,7010001247475,新規,0,2024-08-16,2024-08-16,株式会社Ｈｕｉｔ,,株式会社,東京都,中央区,銀座６丁目６番１号銀座風月堂ビル５Ｆ,,13,102,1040061,,,,,,,2024-08-16,1,,,,,ユイット,0
1587,7010001247500,新規,0,2024-08-16,2024-08-16,株式会社Ｔｈｅ　Ｒｈｙｔｈｍ,,株式会社,東京都,中央区,銀座１丁目１２－４Ｎ＆ＥＢＬＤ．７階,,13,102,1040061,,,,,,,2024-08-16,1,,,,,ザリズム,0
1588,7010001247541,新規,0,2024-08-16,2024-08-16,ｔａｏｔａｏ株式会社,,株式会社,東京都,千代田区,岩本町２丁目１７番４号泰合ビルＩＩ５０３号室,,13,101,1010032,,,,,,,2024-08-16,1,,,,,タオタオ,0
1597,7010401184500,新規,0,2024-08-16,2024-08-16,Ｔｅｍａｋｉ　Ｓｔｕｄｉｏ株式会社,,株式会社,東京都,港区,南青山３丁目１番３６号青山丸竹ビル６Ｆ,,13,103,1070062,,,,,,,2024-08-16,1,,,,,テマキスタジオ,0
1599,7010403033242,新規,0,2024-08-16,2024-08-16,合同会社アモーレ赤坂,,合同会社,東京都,港区,赤坂７丁目５番４０号カーサプラヤ１０１,,13,103,1070052,,,,,,,2024-08-16,1,,,,,アモーレアカサカ,0
1600,7010405023480,新規,0,2024-08-16,2024-08-16,弁護士法人ユーパートナーズ,,その他の設立登記法人,東京都,港区,虎ノ門３丁目８番８号ＮＴＴ虎ノ門ビル６階,,13,103,1050001,,,,,,,2024-08-16,1,,,,,ユーパートナーズ,0
1602,7010501052755,新規,0,2024-08-16,2024-08-16,株式会社新日本富士フードサービス,,株式会社,東京都,台東区,台東４丁目３１番７－２０３号,,13,106,1100016,,,,,,,2024-08-16,1,,,,,シンニホンフジフードサービス,0
1603,7010505003548,新規,0,2024-08-16,2024-08-16,一般社団法人日本中古奢侈品協会,,その他の設立登記法人,東京都,台東区,東上野３丁目１５－１２エムプレイス東上野４階,,13,106,1100015,,,,,,,2024-08-16,1,,,,,ニホンチュウコシャシヒンキョウカイ,0
1605,7010603011031,新規,0,2024-08-16,2024-08-16,ＭＹＭ合同会社,,合同会社,東京都,江東区,有明２丁目１番２－１２１７号,,13,108,1350063,,,,,,,2024-08-16,1,,,,,エムワイエム,0
1606,7010701046400,新規,0,2024-08-16,2024-08-16,ＳＩＮソリューションズ株式会社,,株式会社,東京都,品川区,東品川４丁目１２番８号品川シーサイドイーストタワー１５Ｆ,,13,109,1400002,,,,,,,2024-08-16,1,,,,,エスアイエヌソリューションズ,0
1607,7010703007301,新規,0,2024-08-16,2024-08-16,合同会社ルート,,合同会社,東京都,品川区,西五反田３丁目１２－１－２０１,,13,109,1410031,,,,,,,2024-08-16,1,,,,,ルート,0
1609,7010801035328,新規,0,2024-08-16,2024-08-16,エナジーセービングシステム株式会社,,株式会社,東京都,大田区,大森南４丁目６番１５号テクノＦＲＯＮＴ森ヶ崎３０６,,13,111,1430013,,,,,,,2024-08-16,1,,,,,エナジーセービングシステム,0
1611,7010901055812,新規,0,2024-08-16,2024-08-16,株式会社ゴリラ不動産,,株式会社,東京都,世田谷区,赤堤５丁目２６番９号,,13,112,1560044,,,,,,,2024-08-16,1,,,,,ゴリラフドウサン,0
1619,7011101108443,新規,0,2024-08-16,2024-08-16,整体研究所株式会社,,株式会社,東京都,新宿区,西新宿３丁目３番１３号西新宿水間ビル２階,,13,104,1600023,,,,,,,2024-08-16,1,,,,,セイタイケンキュウジョ,0
1620,7011101108468,新規,0,2024-08-16,2024-08-16,ＮＤＡ　Ｃａｐｉｔａｌ株式会社,,株式会社,東京都,新宿区,新宿７丁目３番５号ヴィラ・サンベルナール３０６,,13,104,1600022,,,,,,,2024-08-16,1,,,,,エヌディーエーキャピタル,0
1621,7011101108492,新規,0,2024-08-16,2024-08-16,株式会社シナクトジャパン,,株式会社,東京都,新宿区,西新宿６丁目５番１号新宿アイランドタワー２階,,13,104,1600023,,,,,,,2024-08-16,1,,,,,シナクトジャパン,0
1623,7011103014805,新規,0,2024-08-16,2024-08-16,ＮＥＸＴ合同会社,,合同会社,東京都,新宿区,四谷４丁目７番地,,13,104,1600004,,,,,,,2024-08-16,1,,,,,ネクスト,0
1624,7011103014813,新規,0,2024-08-16,2024-08-16,合同会社ＬＹＳＥＬＡ,,合同会社,東京都,新宿区,西新宿３丁目３番地１３、６Ｆ,,13,104,1600023,,,,,,,2024-08-16,1,,,,,リセラ,0
1626,7011201025720,新規,0,2024-08-16,2024-08-16,中野ホールディングス株式会社,,株式会社,東京都,中野区,本町２丁目２８番１４号ＲＩＳＯＳＡＫＡＵＥ３０３,,13,114,1640012,,,,,,,2024-08-16,1,,,,,ナカノホールディングス,0
1627,7011205002617,新規,0,2024-08-16,2024-08-16,一般社団法人清文会,,その他の設立登記法人,東京都,中野区,白鷺２丁目２６番１２号,,13,114,1650035,,,,,,,2024-08-16,1,,,,,セイブンカイ,0
1629,7011501031030,新規,0,2024-08-16,2024-08-16,株式会社アンリグレット,,株式会社,東京都,北区,赤羽１丁目３６番１１号シンエイ赤羽マンション１０３号室,,13,117,1150045,,,,,,,2024-08-16,1,,,,,アンリグレット,0
1633,7011701027530,新規,0,2024-08-16,2024-08-16,株式会社ローズピア,,株式会社,東京都,江戸川区,上篠崎２丁目９番１６号,,13,123,1330054,,,,,,,2024-08-16,1,,,,,ローズピア,0
1634,7011701027539,新規,0,2024-08-16,2024-08-16,株式会社Ｍ２プランニング,,株式会社,東京都,江戸川区,南葛西３丁目１９番１１号－５０１,,13,123,1340085,,,,,,,2024-08-16,1,,,,,エムツープランニング,0
1637,7012401042191,新規,0,2024-08-16,2024-08-16,ウィンドリンク株式会社,,株式会社,東京都,多摩市,南野２丁目６番地の３,,13,224,2060032,,,,,,,2024-08-16,1,,,,,ウィンドリンク,0
1638,7012403006715,新規,0,2024-08-16,2024-08-16,合同会社プリズム,,合同会社,東京都,府中市,日新町１丁目７番地の１６,,13,206,1830036,,,,,,,2024-08-16,1,,,,,プリズム,0
1651,7020005016512,新規,0,2024-08-16,2024-08-16,一般社団法人シニアエンタテイメント認知症予防協会,,その他の設立登記法人,神奈川県,横浜市青葉区,荏田西５丁目５番地１ビアス市ケ尾Ａ－１０１,,14,117,2250014,,,,,,,2024-08-16,1,,,,,シニアエンタテイメントニンチショウヨボウキョウカイ,0
1656,7030001161988,新規,0,2024-08-16,2024-08-16,株式会社ｉｔｓｕｍｏ,,株式会社,埼玉県,上尾市,中妻１丁目５－５,,11,219,3620072,,,,,,,2024-08-16,1,,,,,イツモ,0
1657,7030001162004,新規,0,2024-08-16,2024-08-16,花花株式会社,,株式会社,埼玉県,越谷市,大成町１丁目１９１－３,,11,222,3430825,,,,,,,2024-08-16,1,,,,,ハナハナ,0
1658,7030001162012,新規,0,2024-08-16,2024-08-16,株式会社華泰商事,,株式会社,埼玉県,川口市,並木２丁目１２番２２号,,11,203,3320034,,,,,,,2024-08-16,1,,,,,カタイショウジ,0
1659,7030001162020,新規,0,2024-08-16,2024-08-16,ＮＥＸＴ　ＲＥＶＥＮＧＥホールディングス株式会社,,株式会社,埼玉県,春日部市,梅田本町２丁目１７番１号３階,,11,214,3440053,,,,,,,2024-08-16,1,,,,,ネクストリベンジホールディングス,0
1665,7030003024937,新規,0,2024-08-16,2024-08-16,ロゴスキャピタル合同会社,,合同会社,埼玉県,川口市,青木３丁目１２番９号青木ヴィレッジ１０１号,,11,203,3320031,,,,,,,2024-08-16,1,,,,,ロゴスキャピタル,0
1666,7030003024953,新規,0,2024-08-16,2024-08-16,中競グローバル合同会社,,合同会社,埼玉県,飯能市,本町１９番２号ＫＩＶ－Ｗｅｌｆａｒｅ会館飯能７号室,,11,209,3570032,,,,,,,2024-08-16,1,,,,,チュウキョウグローバル,0
1667,7030005021809,新規,0,2024-08-16,2024-08-16,一般社団法人ＴＡＧ,,その他の設立登記法人,埼玉県,さいたま市見沼区,大字南中丸２３６番地９,,11,104,3370041,,,,,,,2024-08-16,1,,,,,ティーエージー,0
1671,7040001134976,新規,0,2024-08-16,2024-08-16,株式会社リタシン,,株式会社,千葉県,浦安市,東野１丁目１３番２９号,,12,227,2790042,,,,,,,2024-08-16,1,,,,,リタシン,0
1672,7040001134984,新規,0,2024-08-16,2024-08-16,株式会社ＺＡＮＳＨＩＮ,,株式会社,千葉県,千葉市美浜区,稲毛海岸１丁目４番９号,,12,106,2610005,,,,,,,2024-08-16,1,,,,,ザンシン,0
1673,7040001135000,新規,0,2024-08-16,2024-08-16,株式会社東洋建設,,株式会社,千葉県,木更津市,大久保３丁目３番３号,,12,206,2920815,,,,,,,2024-08-16,1,,,,,トウヨウケンセツ,0
1675,7040003025612,新規,0,2024-08-16,2024-08-16,合同会社豊和,,合同会社,千葉県,成田市,公津の杜２丁目１８番地７,,12,211,2860048,,,,,,,2024-08-16,1,,,,,ホウワ,0
1680,7060003005199,新規,0,2024-08-16,2024-08-16,リボーン合同会社,,合同会社,栃木県,足利市,雪輪町２５２６番地１,,09,202,3260804,,,,,,,2024-08-16,1,,,,,リボーン,0
1682,7070003005545,新規,0,2024-08-16,2024-08-16,ごりら合同会社,,合同会社,群馬県,前橋市,古市町４７１番地,,10,201,3710844,,,,,,,2024-08-16,1,,,,,ゴリラ,0
1687,7100001037751,新規,0,2024-08-16,2024-08-16,株式会社ＫＯＢＡＲＴＳ,,株式会社,長野県,伊那市,手良沢岡５６６－１,,20,209,3960002,,,,,,,2024-08-16,1,,,,,コバーツ,0
1699,7120001267727,新規,0,2024-08-16,2024-08-16,ＬＳ桜株式会社,,株式会社,大阪府,大阪市大正区,北村２丁目１４番２２号,,27,108,5510032,,,,,,,2024-08-16,1,,,,,エルエスサクラ,0
1700,7120001267751,新規,0,2024-08-16,2024-08-16,株式会社ワイズホーム,,株式会社,大阪府,大阪市都島区,都島本通３丁目２２番１５号,,27,102,5340021,,,,,,,2024-08-16,1,,,,,ワイズホーム,0
1701,7120001267826,新規,0,2024-08-16,2024-08-16,藤次郎株式会社,,株式会社,大阪府,大阪市中央区,北久宝寺町１丁目５－６－４０３,,27,128,5410057,,,,,,,2024-08-16,1,,,,,トウジロウ,0
1702,7120001267875,新規,0,2024-08-16,2024-08-16,株式会社Ｒｅｊｕ,,株式会社,大阪府,大阪市中央区,西心斎橋２丁目２番７号御堂筋ジュンアシダビル５Ｃ,,27,128,5420086,,,,,,,2024-08-16,1,,,,,リジュ,0
1703,7120001267883,新規,0,2024-08-16,2024-08-16,Ｈ＆Ｅホライズングループ株式会社,,株式会社,大阪府,大阪市中央区,東平２丁目５番５号盛川ビル３Ｆ,,27,128,5420063,,,,,,,2024-08-16,1,,,,,エイチアンドイーホライズングループ,0
1706,7120003027096,新規,0,2024-08-16,2024-08-16,ＤＴＤ合同会社,,合同会社,大阪府,大阪市中央区,常盤町１丁目１－９－６０６,,27,128,5400028,,,,,,,2024-08-16,1,,,,,ディーティーディー,0
1709,7120101070163,新規,0,2024-08-16,2024-08-16,株式会社エスコム,,株式会社,大阪府,和泉市,伯太町３丁目１番４９号,,27,219,5940023,,,,,,,2024-08-16,1,,,,,エスコム,0
1711,7120105009901,新規,0,2024-08-16,2024-08-16,一般社団法人あかつき,,その他の設立登記法人,大阪府,富田林市,寺池台３丁目２番１５号,,27,214,5840073,,,,,,,2024-08-16,1,,,,,アカツキ,0
1717,7120901049613,新規,0,2024-08-16,2024-08-16,ＶｅｎｔＥａｓｅ株式会社,,株式会社,大阪府,吹田市,南吹田５丁目１番１７号,,27,205,5640043,,,,,,,2024-08-16,1,,,,,ベントイーズ,0
1721,7122005003777,新規,0,2024-08-16,2024-08-16,一般社団法人日越経済協力促進協会,,その他の設立登記法人,大阪府,東大阪市,西堤本通東１丁目３番１０号,,27,227,5770045,,,,,,,2024-08-16,1,,,,,ニチエツケイザイキョウリョクソクシンキョウカイ,0
1724,7130001077687,新規,0,2024-08-16,2024-08-16,ＭＡＨＡＲＯ．株式会社,,株式会社,京都府,京都市右京区,西京極午塚町１３１－３、３０３号,,26,108,6150885,,,,,,,2024-08-16,1,,,,,マハロ,0
1725,7130001077695,新規,0,2024-08-16,2024-08-16,株式会社ＫＤ,,株式会社,京都府,京都市中京区,壬生土居ノ内町２３番地１,,26,104,6048842,,,,,,,2024-08-16,1,,,,,ケーディー,0
1726,7130001077712,新規,0,2024-08-16,2024-08-16,住まいるエナジー株式会社,,株式会社,京都府,京田辺市,三山木北垣内３番地２,,26,211,6100313,,,,,,,2024-08-16,1,,,,,スマイルエナジー,0
1727,7130001077720,新規,0,2024-08-16,2024-08-16,株式会社ＡＭＩＤＡＳ,,株式会社,京都府,京都市南区,久世中久世町２丁目１１２番地１３、１０３号室,,26,107,6018213,,,,,,,2024-08-16,1,,,,,アミダス,0
1734,7140001135543,新規,0,2024-08-16,2024-08-16,四維商事株式会社,,株式会社,兵庫県,神戸市灘区,灘北通１０丁目２－２３ストランドパレー３０５,,28,102,6570835,,,,,,,2024-08-16,1,,,,,ヨンイショウジ,0
1735,7140001135551,新規,0,2024-08-16,2024-08-16,株式会社Ｒ．Ｙ,,株式会社,兵庫県,西宮市,小曽根町３丁目５－２５－４,,28,204,6638122,,,,,,,2024-08-16,1,,,,,アールワイ,0
1738,7140003020966,新規,0,2024-08-16,2024-08-16,Ｈｕｇ　Ｍｅｅｔｓ合同会社,,合同会社,兵庫県,神戸市北区,上津台３丁目６－１,,28,109,6511515,,,,,,,2024-08-16,1,,,,,ハグミーツ,0
1739,7140003020982,新規,0,2024-08-16,2024-08-16,ＡＫＯＣＲＥＡＴＥ合同会社,,合同会社,兵庫県,姫路市,飾磨区加茂１３５番地９リリーベル２０４,,28,201,6728074,,,,,,,2024-08-16,1,,,,,アコクリエイト,0
1740,7150003003342,新規,0,2024-08-16,2024-08-16,合同会社ＦＲＡＴ,,合同会社,奈良県,奈良市,法蓮町６４３番地,,29,201,6308113,,,,,,,2024-08-16,1,,,,,フラット,0
1750,7180001162906,新規,0,2024-08-16,2024-08-16,株式会社ＬａＬａ,,株式会社,愛知県,名古屋市中区,丸の内３丁目７番２６号ＡＣＡビル５Ｆ,,23,106,4600002,,,,,,,2024-08-16,1,,,,,ララ,0
1751,7180001162914,新規,0,2024-08-16,2024-08-16,株式会社たかこさん,,株式会社,愛知県,名古屋市中区,丸の内ニ丁目１３番１６号丸の内スクエア,,23,106,4600000,,,,,,,2024-08-16,1,,,,,タカコサン,0
1752,7180001162922,新規,0,2024-08-16,2024-08-16,株式会社ＳＤＳ,,株式会社,愛知県,名古屋市中村区,名駅５丁目４番１４号,,23,105,4500002,,,,,,,2024-08-16,1,,,,,エスディーエス,0
1753,7180001162939,新規,0,2024-08-16,2024-08-16,株式会社ものづくりコンサルティンググループ,,株式会社,愛知県,名古屋市瑞穂区,村上町３丁目１５番地,,23,108,4670008,,,,,,,2024-08-16,1,,,,,モノヅクリコンサルティンググループ,0
1758,7180003027248,新規,0,2024-08-16,2024-08-16,合同会社エムズサポート,,合同会社,愛知県,名古屋市名東区,猪子石原３丁目１００１番地フローラル香流１０１号,,23,115,4650008,,,,,,,2024-08-16,1,,,,,エムズサポート,0
1761,7200003006463,新規,0,2024-08-16,2024-08-16,合同会社リネンコーク,,合同会社,岐阜県,高山市,久々野町久々野２４２０番地１,,21,203,5093205,,,,,,,2024-08-16,1,,,,,リネンコーク,0
1776,7280003001878,新規,0,2024-08-16,2024-08-16,合同会社すえつぐ,,合同会社,島根県,安来市,広瀬町広瀬７５４番地２７,,32,206,6920404,,,,,,,2024-08-16,1,,,,,スエツグ,0
1781,7290001106587,新規,0,2024-08-16,2024-08-16,福島菓子舗株式会社,,株式会社,福岡県,福岡市博多区,博多駅前３丁目６番２０号,,40,132,8120011,,,,,,,2024-08-16,1,,,,,フクシマカシホ,0
1782,7290001106678,新規,0,2024-08-16,2024-08-16,株式会社ＬＩＦＡＣＴ,,株式会社,福岡県,嘉麻市,口春５０２番地１５,,40,227,8200207,,,,,,,2024-08-16,1,,,,,リファクト,0
1794,7360001034087,新規,0,2024-08-16,2024-08-16,株式会社渚Ｈｏｕｓｅ,,株式会社,沖縄県,那覇市,前島３丁目２５番２号泊ポートビル２階２０５号室,,47,201,9000016,,,,,,,2024-08-16,1,,,,,ナギサハウス,0
1801,7380003005844,新規,0,2024-08-16,2024-08-16,合同会社リベスト,,合同会社,福島県,郡山市,富久山町久保田字古町２５０－１－２０１,,07,203,9638071,,,,,,,2024-08-16,1,,,,,リベスト,0
1806,7420001018835,新規,0,2024-08-16,2024-08-16,株式会社合カギの山谷,,株式会社,青森県,青森市,旭町２丁目５番１０号,,02,201,0300851,,,,,,,2024-08-16,1,,,,,アイカギノヤマヤ,0
1809,7430003016687,新規,0,2024-08-16,2024-08-16,合同会社北海道インベストメント,,合同会社,北海道,札幌市中央区,南五条西１５丁目２－３リズム医大前５０３号室,,01,101,0640805,,,,,,,2024-08-16,1,,,,,ホッカイドウインベストメント,0
1810,7430003016695,新規,0,2024-08-16,2024-08-16,合同会社Ｒ＆Ｂパートナー,,合同会社,北海道,札幌市中央区,北一条東１０丁目１５番地８２ライオンズマンション札幌スカイタワー１７０８号,,01,101,0600031,,,,,,,2024-08-16,1,,,,,アールアンドビーパートナー,0
1812,7500001025831,新規,0,2024-08-16,2024-08-16,株式会社ワークプロ,,株式会社,愛媛県,松山市,来住町１２５０番地,,38,201,7911102,,,,,,,2024-08-16,1,,,,,ワークプロ,0
1826,8010001247128,新規,0,2024-08-16,2024-08-16,さのきや商店株式会社,,株式会社,東京都,中央区,勝どき３丁目１番７－９０６号,,13,102,1040054,,,,,,,2024-08-16,1,,,,,サノキヤショウテン,0
1827,8010001247391,新規,0,2024-08-16,2024-08-16,Ｋ．Ｋ．ｏｎｅホールディングス株式会社,,株式会社,東京都,千代田区,鍛冶町１丁目４番３号,,13,101,1010044,,,,,,,2024-08-16,1,,,,,ケーケーワンホールディングス,0
1828,8010001247417,新規,0,2024-08-16,2024-08-16,日本みらいエナジー開発株式会社,,株式会社,東京都,千代田区,霞が関３丁目２番５号,,13,101,1000013,,,,,,,2024-08-16,1,,,,,ニホンミライエナジーカイハツ,0
1829,8010001247433,新規,0,2024-08-16,2024-08-16,エクストーリー株式会社,,株式会社,東京都,千代田区,富士見１丁目３番１１号富士見デュープレックスＢ’ｓ４Ｆ,,13,101,1020071,,,,,,,2024-08-16,1,,,,,エクストーリー,0
1830,8010001247474,新規,0,2024-08-16,2024-08-16,株式会社ｍｏｃｃｏｓ,,株式会社,東京都,文京区,湯島３丁目４４番３号湯島目黒ビル２階,,13,105,1130034,,,,,,,2024-08-16,1,,,,,モッコス,0
1831,8010001247482,新規,0,2024-08-16,2024-08-16,株式会社ビスカリア,,株式会社,東京都,千代田区,神田松永町１３番地ＶＯＲＴ秋葉原ＩＩ,00135978,13,101,1010023,,,,,,,2024-08-16,1,,,,,ビスカリア,0
1833,8010003044597,新規,0,2024-08-16,2024-08-16,合同会社Ｕｎｉｔｙ,,合同会社,東京都,中央区,銀座１丁目２２番１１号銀座大竹ビジデンス２階,,13,102,1040061,,,,,,,2024-08-16,1,,,,,ユニティー,0
1834,8010003044622,新規,0,2024-08-16,2024-08-16,合同会社カタリスト,,合同会社,東京都,中央区,佃１丁目１１番３－４０６号,,13,102,1040051,,,,,,,2024-08-16,1,,,,,カタリスト,0
1835,8010003044630,新規,0,2024-08-16,2024-08-16,合同会社ＨＭＺＥＨ２,,合同会社,東京都,中央区,銀座４丁目６番１号三幸アセットマネジメント株式会社内,,13,102,1040061,,,,,,,2024-08-16,1,,,,,エイチエムゼッチツー,0
1836,8010005038647,新規,0,2024-08-16,2024-08-16,Ｇｒｅｅｎ監査法人,,その他の設立登記法人,東京都,文京区,本郷１丁目２５－５見学ビル６階,,13,105,1130033,,,,,,,2024-08-16,1,,,,,グリーン,0
1843,8010401184474,新規,0,2024-08-16,2024-08-16,株式会社ＭＥＭ＆Ｃｏ．,,株式会社,東京都,港区,三田２丁目２番１５号３階,,13,103,1080073,,,,,,,2024-08-16,1,,,,,エムイーエムアンドコー,0
1845,8010403033241,新規,0,2024-08-16,2024-08-16,合同会社モソロ,,合同会社,東京都,港区,六本木３丁目１６－１３－２０７,,13,103,1060032,,,,,,,2024-08-16,1,,,,,モソロ,0
1846,8010405023455,新規,0,2024-08-16,2024-08-16,一般社団法人日本ゴルフプロピラティス協会,,その他の設立登記法人,東京都,港区,芝大門１丁目４番７号アルファビル６０２,,13,103,1050012,,,,,,,2024-08-16,1,,,,,ニホンゴルフプロピラティスキョウカイ,0
1847,8010501052770,新規,0,2024-08-16,2024-08-16,株式会社ジャパンクラシックウイスキー,,株式会社,東京都,台東区,上野７丁目１０番９号,,13,106,1100005,,,,,,,2024-08-16,1,,,,,ジャパンクラシックウイスキー,0
1849,8010601065763,新規,0,2024-08-16,2024-08-16,株式会社オーサムクルー,,株式会社,東京都,江東区,深川２丁目４番５－２０１号,,13,108,1350033,,,,,,,2024-08-16,1,,,,,オーサムクルー,0
1852,8010701046408,新規,0,2024-08-16,2024-08-16,株式会社オレンジン,,株式会社,東京都,品川区,東五反田５丁目２１番４号,,13,109,1410022,,,,,,,2024-08-16,1,,,,,オレンジン,0
1853,8010801035327,新規,0,2024-08-16,2024-08-16,Ｆｅｅｄｂａｃｋ　Ｔｅｃｈｎｏｌｏｇｙ　Ｊａｐａｎ株式会社,,株式会社,東京都,大田区,矢口２丁目２番５号,,13,111,1460093,,,,,,,2024-08-16,1,,,,,フィードバックテクノロジージャパン,0
1863,8011001164040,新規,0,2024-08-16,2024-08-16,株式会社ゲームプランナー,,株式会社,東京都,渋谷区,代官山町２０番２３号ＦｏｒｅｓｔｇａｔｅＤａｉｋａｎｙａｍａＭＡＩＮ棟３Ｆ,,13,113,1500034,,,,,,,2024-08-16,1,,,,,ゲームプランナー,0
1865,8011003019820,新規,0,2024-08-16,2024-08-16,合同会社Ｓｔｅｐ,,合同会社,東京都,渋谷区,恵比寿西２丁目４番８号ウィンド恵比寿ビル８Ｆ,,13,113,1500021,,,,,,,2024-08-16,1,,,,,ステップ,0
1869,8011101108211,新規,0,2024-08-16,2024-08-16,オクダエンタープライズ株式会社,,株式会社,東京都,新宿区,西新宿３丁目３番１３号西新宿水間ビル２Ｆ,,13,104,1600023,,,,,,,2024-08-16,1,,,,,オクダエンタープライズ,0
1870,8011101108327,新規,0,2024-08-16,2024-08-16,Ｂｌａｚｅ　ａ　Ｔｒａｉｌ株式会社,,株式会社,東京都,新宿区,新宿１丁目３６番２号新宿第七葉山ビル３階,,13,104,1600022,,,,,,,2024-08-16,1,,,,,ブレイズアトレイル,0
1871,8011101108467,新規,0,2024-08-16,2024-08-16,ＡｉＤ　ｃｏｍｍｏｎｓ株式会社,,株式会社,東京都,新宿区,水道町４番２９号宝ビル４Ｆ,,13,104,1620811,,,,,,,2024-08-16,1,,,,,アイディーコモンズ,0
1872,8011101108491,新規,0,2024-08-16,2024-08-16,株式会社Ｄｉｇ　Ｄｕｇ,,株式会社,東京都,新宿区,西新宿３丁目３番１３号西新宿水間ビル６階,,13,104,1600023,,,,,,,2024-08-16,1,,,,,ディグダグ,0
1875,8011103014795,新規,0,2024-08-16,2024-08-16,戸松コンサルティング合同会社,,合同会社,東京都,新宿区,西落合４丁目１７番１８号,,13,104,1610031,,,,,,,2024-08-16,1,,,,,トマツコンサルティング,0
1879,8011501031046,新規,0,2024-08-16,2024-08-16,一拾青嵐株式会社,,株式会社,東京都,北区,志茂４丁目３４－７－４０６号アクエアリバージュ東京,,13,117,1150042,,,,,,,2024-08-16,1,,,,,イッシュウセイラン,0
1880,8011501031054,新規,0,2024-08-16,2024-08-16,株式会社マジェラード,,株式会社,東京都,荒川区,西尾久１丁目３０番４号セレンディピティ田端１０２,,13,118,1160011,,,,,,,2024-08-16,1,,,,,マジェラード,0
1884,8011601027984,新規,0,2024-08-16,2024-08-16,株式会社フェーデ,,株式会社,東京都,練馬区,石神井台６丁目７番２７号富士見マンション３０２,,13,120,1770045,,,,,,,2024-08-16,1,,,,,フェーデ,0
1885,8011801044706,新規,0,2024-08-16,2024-08-16,円住宅設備株式会社,,株式会社,東京都,足立区,古千谷本町３丁目９番１０－３０４号,,13,121,1210832,,,,,,,2024-08-16,1,,,,,エンジュウタクセツビ,0
1888,8012701018403,新規,0,2024-08-16,2024-08-16,Ｋ‐ＳＴＹＬＥ株式会社,,株式会社,東京都,東久留米市,南沢４丁目９番５号,,13,222,2030023,,,,,,,2024-08-16,1,,,,,ケースタイル,0
1890,8012801023402,新規,0,2024-08-16,2024-08-16,株式会社ＳＴＩＬＬ　ＷＡＴＥＲＳ,,株式会社,東京都,国分寺市,本町４丁目１０－１２パレモナーク１０１,,13,214,1850012,,,,,,,2024-08-16,1,,,,,スティルウォーターズ,0
1905,8021001083041,新規,0,2024-08-16,2024-08-16,株式会社ロングホース,,株式会社,神奈川県,逗子市,新宿１丁目４番１７－２０１号,,14,208,2490007,,,,,,,2024-08-16,1,,,,,ロングホース,0
1912,8030001162044,新規,0,2024-08-16,2024-08-16,株式会社四季総合事務所,,株式会社,埼玉県,さいたま市南区,白幡４丁目５－１８,,11,108,3360022,,,,,,,2024-08-16,1,,,,,シキソウゴウジムショ,0
1917,8030003024936,新規,0,2024-08-16,2024-08-16,会津インターナショナル合同会社,,合同会社,埼玉県,ふじみ野市,上ノ原２丁目５番地１－２０２号,,11,245,3560021,,,,,,,2024-08-16,1,,,,,アイヅインターナショナル,0
1919,8030005021808,新規,0,2024-08-16,2024-08-16,税理士法人沼田会計,,その他の設立登記法人,埼玉県,川越市,大字砂９３４番地１５,,11,201,3501133,,,,,,,2024-08-16,1,,,,,ヌマタカイケイ,0
1922,8040001134942,新規,0,2024-08-16,2024-08-16,株式会社ＭＯＭＯ建設,,株式会社,千葉県,船橋市,二和東６丁目１６番地９みさと店舗１０２,,12,204,2740805,,,,,,,2024-08-16,1,,,,,モモケンセツ,0
1923,8040001134975,新規,0,2024-08-16,2024-08-16,株式会社青沼不動産鑑定,,株式会社,千葉県,木更津市,中央２丁目４番１１号北川レジデンス７０４号室,,12,206,2920067,,,,,,,2024-08-16,1,,,,,アオヌマフドウサンカンテイ,0
1927,8040005022466,新規,0,2024-08-16,2024-08-16,一般社団法人美容教育サポート協会,,その他の設立登記法人,千葉県,柏市,中央町五丁目１６番地穂高第２ブラザーズ柏２０５,,12,217,2770021,,,,,,,2024-08-16,1,,,,,ビヨウキョウイクサポートキョウカイ,0
1944,8070001042093,新規,0,2024-08-16,2024-08-16,白鷺株式会社,,株式会社,群馬県,伊勢崎市,東小保方町３７９８番地１９,,10,204,3792234,,,,,,,2024-08-16,1,,,,,シラサギ,0
1951,8100001037684,新規,0,2024-08-16,2024-08-16,株式会社ｏｎｔｈｅｓｌｏｐｅ,,株式会社,長野県,北安曇郡小谷村,大字千国乙１２８５６番地１４２,,20,486,3999422,,,,,,,2024-08-16,1,,,,,オンザスロープ,0
1953,8100003007702,新規,0,2024-08-16,2024-08-16,合同会社ＴＡＭＥＳ,,合同会社,長野県,安曇野市,堀金烏川４６６５番地１,,20,220,3998211,,,,,,,2024-08-16,1,,,,,タメズ,0
1963,8120001267809,新規,0,2024-08-16,2024-08-16,Ａｄａｍａｓ株式会社,,株式会社,大阪府,大阪市北区,梅田１丁目１－３大阪駅前第３ビル２９階１－１－１号室,,27,127,5300001,,,,,,,2024-08-16,1,,,,,アダマス,0
1964,8120001267825,新規,0,2024-08-16,2024-08-16,株式会社ＲＥＣＲＥＡＴＥ,,株式会社,大阪府,大阪市浪速区,桜川１丁目１番２５－７０２号,,27,111,5560022,,,,,,,2024-08-16,1,,,,,リクリエイト,0
1980,8120101070162,新規,0,2024-08-16,2024-08-16,株式会社８９ＣＥＮＴＥＲ,,株式会社,大阪府,貝塚市,久保１丁目１７－３２２,,27,208,5970031,,,,,,,2024-08-16,1,,,,,ハチキュウセンター,0
1988,8120903005308,新規,0,2024-08-16,2024-08-16,合同会社ブライトリー,,合同会社,大阪府,茨木市,山手台新町１丁目４番１４号,,27,211,5670010,,,,,,,2024-08-16,1,,,,,ブライトリー,0
1999,8130001077686,新規,0,2024-08-16,2024-08-16,株式会社Ｎ・Ａ・Ｗ,,株式会社,京都府,京都市下京区,都市町１４１－２,,26,106,6008111,,,,,,,2024-08-16,1,,,,,ナウ,0
2000,8130001077694,新規,0,2024-08-16,2024-08-16,株式会社Ｏｕｔｄｉｓｔａｎｃｅ,,株式会社,京都府,京都市北区,大宮東小野堀町２７番地１－１０１号,,26,101,6038406,,,,,,,2024-08-16,1,,,,,アウトディスタンス,0
2001,8130003009794,新規,0,2024-08-16,2024-08-16,合同会社ＢＵＬ,,合同会社,京都府,京都市南区,久世大藪町２５５番地,,26,107,6010000,,,,,,,2024-08-16,1,,,,,ブル,0
2010,8170001018273,新規,0,2024-08-16,2024-08-16,株式会社三佐木企画,,株式会社,和歌山県,新宮市,神倉１丁目４番３号,,30,207,6470044,,,,,,,2024-08-16,1,,,,,ミサキキカク,0
2016,8180001162830,新規,0,2024-08-16,2024-08-16,株式会社丸辰ホールディングス,,株式会社,愛知県,名古屋市瑞穂区,牛巻町１２番１４号,,23,108,4670863,,,,,,,2024-08-16,1,,,,,マルタツホールディングス,0
2017,8180001162888,新規,0,2024-08-16,2024-08-16,Ｈ７ＲＵＮＡ株式会社,,株式会社,愛知県,常滑市,本郷町４丁目１４６番地（カーサプリート２０１号）,,23,216,4790853,,,,,,,2024-08-16,1,,,,,エイチセブンルナ,0
2018,8180001162896,新規,0,2024-08-16,2024-08-16,株式会社大福,,株式会社,愛知県,名古屋市昭和区,滝川町７９番地,,23,107,4660826,,,,,,,2024-08-16,1,,,,,ダイフク,0
2019,8180001162921,新規,0,2024-08-16,2024-08-16,ＴＨＵＨ・ＯＷＡＲＩ株式会社,,株式会社,愛知県,清須市,春日寺廻り９番地２,,23,233,4520961,,,,,,,2024-08-16,1,,,,,ザオワリ,0
2023,8180005020737,新規,0,2024-08-16,2024-08-16,一般社団法人自営業ライフサポート協会,,その他の設立登記法人,愛知県,名古屋市中区,丸の内３丁目７番２６号ＡＣＡビル５Ｆ,,23,106,4600002,,,,,,,2024-08-16,1,,,,,ジエイギョウライフサポートキョウカイ,0
2026,8180303006231,新規,0,2024-08-16,2024-08-16,合同会社加藤製作所,,合同会社,愛知県,豊川市,足山田町上平８番地,,23,207,4411203,,,,,,,2024-08-16,1,,,,,カトウセイサクショ,0
2044,8280003001877,新規,0,2024-08-16,2024-08-16,オータムハウスサービス合同会社,,合同会社,島根県,松江市,大輪町３９２－６,,32,201,6900882,,,,,,,2024-08-16,1,,,,,オータムハウスサービス,0
2050,8330001032365,新規,0,2024-08-16,2024-08-16,株式会社満楽,,株式会社,熊本県,宇土市,下網田町１９３７番地１,,43,211,8693173,,,,,,,2024-08-16,1,,,,,マンラク,0
2054,8340001026746,新規,0,2024-08-16,2024-08-16,株式会社Ｋｉｗｉｓ．Ｉｎｃ,,株式会社,鹿児島県,鹿児島市,鴨池１丁目４番２３号,,46,201,8900063,,,,,,,2024-08-16,1,,,,,キウイーズインク,0
2073,8430003016703,新規,0,2024-08-16,2024-08-16,合同会社一蔵,,合同会社,北海道,札幌市中央区,南六条西６丁目ライオンビル太陽館１階,,01,101,0640806,,,,,,,2024-08-16,1,,,,,イチクラ,0
2076,8440001009484,新規,0,2024-08-16,2024-08-16,株式会社Ｒｏｍａｌｏ,,株式会社,北海道,函館市,千歳町３番１３号,,01,202,0400033,,,,,,,2024-08-16,1,,,,,ロマロ,0
2081,8500001025822,新規,0,2024-08-16,2024-08-16,ｐｏｌｉｄｅｓｉｇｎ　ｊａｐａｎ株式会社,,株式会社,愛媛県,今治市,波方町樋口甲３５３番地１,,38,202,7992102,,,,,,,2024-08-16,1,,,,,ポリデザインジャパン,0
2094,9010005038654,新規,0,2024-08-16,2024-08-16,一般社団法人福島小高ソーラーホールディングス,,その他の設立登記法人,東京都,中央区,京橋２丁目１２番６号ＡＯＪ税理士法人内,,13,102,1040031,,,,,,,2024-08-16,1,,,,,フクシマオダカソーラーホールディングス,0
2097,9010101016282,新規,0,2024-08-16,2024-08-16,日本三禾国際医療株式会社,,株式会社,東京都,八王子市,寺町４３－９,,13,201,1920073,,,,,,,2024-08-16,1,,,,,ニホンミツイコクサイイリョウ,0
2104,9010403033190,新規,0,2024-08-16,2024-08-16,宮崎県都農町バッテリー合同会社,,合同会社,東京都,港区,浜松町２丁目２番１５号浜松町ダイヤビル２Ｆ,,13,103,1050013,,,,,,,2024-08-16,1,,,,,ミヤザキケンツノチョウバッテリー,0
2105,9010403033257,新規,0,2024-08-16,2024-08-16,みつばち１０１合同会社,,合同会社,東京都,港区,浜松町２丁目２番１５号,,13,103,1050013,,,,,,,2024-08-16,1,,,,,ミツバチワンゼロワン,0
2112,9010601065754,新規,0,2024-08-16,2024-08-16,株式会社ＷＧＡ,,株式会社,東京都,江東区,新砂２丁目５番２８号,,13,108,1360075,,,,,,,2024-08-16,1,,,,,ダブリュージーエー,0
2113,9010601065762,新規,0,2024-08-16,2024-08-16,株式会社Ｍｕｓｕｂｉ,,株式会社,東京都,江東区,大島８丁目４－２－１階,,13,108,1360072,,,,,,,2024-08-16,1,,,,,ムスビ,0
2116,9010703007299,新規,0,2024-08-16,2024-08-16,Ｂｅｌｌｅｚａ　Ｓａｎａ合同会社,,合同会社,東京都,品川区,小山７丁目１５番２１号プレミール洗足Ｂ１Ｆ,,13,109,1420062,,,,,,,2024-08-16,1,,,,,ベレッザサナ,0
2119,9010901055802,新規,0,2024-08-16,2024-08-16,株式会社竹ＣＯＭＰＡＮＹ,,株式会社,東京都,世田谷区,千歳台６丁目１６番６－３１６号,,13,112,1570071,,,,,,,2024-08-16,1,,,,,タケカンパニー,0
2120,9010905004656,新規,0,2024-08-16,2024-08-16,一般社団法人子どものための不動産活用機構,,その他の設立登記法人,東京都,世田谷区,上用賀５丁目２１番１７号,,13,112,1580098,,,,,,,2024-08-16,1,,,,,コドモノタメノフドウサンカツヨウキコウ,0
2125,9011001164130,新規,0,2024-08-16,2024-08-16,株式会社ＷＡＶＥ＆ＣＡＬＭ,,株式会社,東京都,目黒区,青葉台２丁目５番１４号,,13,110,1530042,,,,,,,2024-08-16,1,,,,,ウェーブアンドカーム,0
2136,9011101108425,新規,0,2024-08-16,2024-08-16,株式会社ＹＭＴＳ,,株式会社,東京都,新宿区,若葉３丁目９番地１１号山崎ビル２階,,13,104,1600011,,,,,,,2024-08-16,1,,,,,ワイエムティエス,0
2137,9011101108433,新規,0,2024-08-16,2024-08-16,株式会社Ｃｙｂｅｒｚｅａｌ,,株式会社,東京都,新宿区,新宿４丁目３番１５号レイフラット新宿Ｂ棟３Ｆ,,13,104,1600022,,,,,,,2024-08-16,1,,,,,サイバージール,0
2138,9011101108441,新規,0,2024-08-16,2024-08-16,株式会社東京おこめ研究所,,株式会社,東京都,新宿区,百人町１丁目１０－１５新大久保駅ビル４Ｆ,,13,104,1690073,,,,,,,2024-08-16,1,,,,,トウキョウオコメケンキュウジョ,0
2139,9011101108458,新規,0,2024-08-16,2024-08-16,株式会社フィレイン,,株式会社,東京都,新宿区,西新宿３丁目２番９号,,13,104,1600023,,,,,,,2024-08-16,1,,,,,フィレイン,0
2141,9011103014753,新規,0,2024-08-16,2024-08-16,合同会社ＳＵＮＮＹ＆ＳＵＮＮＹ,,合同会社,東京都,新宿区,西新宿３丁目３番１３号西新宿水間ビル２Ｆ,,13,104,1600023,,,,,,,2024-08-16,1,,,,,サニーアンドサニー,0
2142,9011103014811,新規,0,2024-08-16,2024-08-16,ｙｚｋ合同会社,,合同会社,東京都,新宿区,西五軒町８－８サンセール神楽坂６０１,,13,104,1620812,,,,,,,2024-08-16,1,,,,,ワイジーケー,0
2149,9011601027983,新規,0,2024-08-16,2024-08-16,ＶＪ‐Ｔｅａｍｓ株式会社,,株式会社,東京都,練馬区,東大泉４丁目２３番５号,,13,120,1780063,,,,,,,2024-08-16,1,,,,,ブイジェイチームズ,0
2150,9011601027991,新規,0,2024-08-16,2024-08-16,混沌株式会社,,株式会社,東京都,練馬区,北町５丁目５番７号かぼちゃの馬車平和台Ｖ１０２号室,,13,120,1790081,,,,,,,2024-08-16,1,,,,,コントン,0
2151,9011603004428,新規,0,2024-08-16,2024-08-16,合同会社クロスワン,,合同会社,東京都,練馬区,南田中２丁目１番７号アルベール・Ｂ１０３号室,,13,120,1770035,,,,,,,2024-08-16,1,,,,,クロスワン,0
2152,9011701027537,新規,0,2024-08-16,2024-08-16,株式会社ＳＨＩＭＩＩ’Ｓ,,株式会社,東京都,江戸川区,西瑞江４丁目２２－２コスモ一之江７０５,,13,123,1340015,,,,,,,2024-08-16,1,,,,,シミズ,0
2153,9011703003940,新規,0,2024-08-16,2024-08-16,合同会社Ｓａｋｕｒａ　Ｔｒａｄｉｎｇ,,合同会社,東京都,江戸川区,上一色３丁目２４番９号,,13,123,1330041,,,,,,,2024-08-16,1,,,,,サクラトレーディング,0
2154,9011801044688,新規,0,2024-08-16,2024-08-16,株式会社ＩＭＡＡＲ,,株式会社,東京都,足立区,千住２丁目５２番地,,13,121,1200034,,,,,,,2024-08-16,1,,,,,イマール,0
2156,9012703003071,新規,0,2024-08-16,2024-08-16,合同会社ＡＺＵＬ,,合同会社,東京都,西東京市,芝久保町１丁目２３－５,,13,229,1880014,,,,,,,2024-08-16,1,,,,,アズール,0
2163,9020001158406,新規,0,2024-08-16,2024-08-16,ＹｕｚｕＴｅｎ株式会社,,株式会社,神奈川県,川崎市高津区,下作延１丁目１－７,,14,134,2130033,,,,,,,2024-08-16,1,,,,,ユズテン,0
2164,9020001158471,新規,0,2024-08-16,2024-08-16,株式会社Ａｌｌ　Ａｄｖａｎｃｅ,,株式会社,神奈川県,横浜市中区,福富町東通３８番地１,,14,104,2310044,,,,,,,2024-08-16,1,,,,,オールアドバンス,0
2165,9020001158769,新規,0,2024-08-16,2024-08-16,川崎緑化株式会社,,株式会社,神奈川県,川崎市宮前区,潮見台６番５号,,14,136,2160013,,,,,,,2024-08-16,1,,,,,カワサキリョッカ,0
2171,9021003014902,新規,0,2024-08-16,2024-08-16,東京モデルズ合同会社,,合同会社,神奈川県,足柄上郡松田町,松田庶子１４３２番地２３,,14,363,2580004,,,,,,,2024-08-16,1,,,,,トウキョウモデルズ,0
2172,9021003014910,新規,0,2024-08-16,2024-08-16,プランニング合同会社,,合同会社,神奈川県,平塚市,纒３１２番地の２２,,14,203,2540901,,,,,,,2024-08-16,1,,,,,プランニング,0
2179,9030001162019,新規,0,2024-08-16,2024-08-16,株式会社はなとら,,株式会社,埼玉県,ふじみ野市,鶴ケ岡１丁目１６番１６－２１０号山崎第６ビル,,11,245,3560045,,,,,,,2024-08-16,1,,,,,ハナトラ,0
2187,9040001134941,新規,0,2024-08-16,2024-08-16,株式会社ＣＡ＆Ｃ,,株式会社,千葉県,茂原市,千沢５番地１８,,12,210,2994103,,,,,,,2024-08-16,1,,,,,シーエーアンドシー,0
2188,9040001134974,新規,0,2024-08-16,2024-08-16,雅株式会社,,株式会社,千葉県,袖ケ浦市,神納１１８５番地１,,12,229,2990257,,,,,,,2024-08-16,1,,,,,ミヤビ,0
2189,9040001135023,新規,0,2024-08-16,2024-08-16,ニス商事株式会社,,株式会社,千葉県,市川市,湊１０番９号,,12,203,2720131,,,,,,,2024-08-16,1,,,,,ニスショウジ,0
2190,9040003025569,新規,0,2024-08-16,2024-08-16,合同会社ＷｅｅＤ,,合同会社,千葉県,我孫子市,南青山１－３リビングタウンＡ２０１,,12,222,2701178,,,,,,,2024-08-16,1,,,,,ウィード,0
2193,9050001055261,新規,0,2024-08-16,2024-08-16,株式会社Ｎ＆Ｎ,,株式会社,茨城県,水戸市,新荘１丁目４番１５号ヴェールポルテ希代２０１号,,08,201,3100036,,,,,,,2024-08-16,1,,,,,エヌアンドエヌ,0
2197,9050003008564,新規,0,2024-08-16,2024-08-16,Ｒｅａｌｉｓｅｒ合同会社,,合同会社,茨城県,水戸市,青柳町２２５－１,,08,201,3100004,,,,,,,2024-08-16,1,,,,,レアリゼ,0
2204,9070001042035,新規,0,2024-08-16,2024-08-16,ＧＩホールディングス株式会社,,株式会社,群馬県,太田市,山之神町６１１番地６３,,10,205,3792302,,,,,,,2024-08-16,1,,,,,ジーアイホールディングス,0
2206,9070003005543,新規,0,2024-08-16,2024-08-16,Ｊａｐａｎ　Ｕｎ　Ｌｉｍｉｔｅｄ合同会社,,合同会社,群馬県,伊勢崎市,赤堀今井町１丁目１７９番地２,,10,204,3792215,,,,,,,2024-08-16,1,,,,,ジャパンアンリミテッド,0
2215,9100003007718,新規,0,2024-08-16,2024-08-16,合同会社ＮＡＰＡ,,合同会社,長野県,須坂市,大字中島９８８番地,,20,207,3820000,,,,,,,2024-08-16,1,,,,,ナパ,0
2223,9120001267782,新規,0,2024-08-16,2024-08-16,株式会社ｓａｎｉ　ｆｏｏｄｄｅｓｉｇｎ,,株式会社,大阪府,大阪市都島区,高倉町２丁目７番１１号,,27,102,5340011,,,,,,,2024-08-16,1,,,,,サニーフードデザイン,0
2224,9120001267808,新規,0,2024-08-16,2024-08-16,Ｓｏａｒｃ　Ｓｙｓｔｅｍｓ株式会社,,株式会社,大阪府,大阪市淀川区,新北野１丁目１２番１０－３０３号,,27,123,5320025,,,,,,,2024-08-16,1,,,,,ソアークシステムズ,0
2225,9120001267824,新規,0,2024-08-16,2024-08-16,株式会社イマイソ,,株式会社,大阪府,大阪市西区,西本町１丁目８－２三晃ビル７０２,,27,106,5500005,,,,,,,2024-08-16,1,,,,,イマイソ,0
2226,9120001267840,新規,0,2024-08-16,2024-08-16,株式会社Ｏｎｅビリー,,株式会社,大阪府,枚方市,伊加賀南町１０番１－８０６号,,27,210,5730053,,,,,,,2024-08-16,1,,,,,ワンビリー,0
2227,9120001267857,新規,0,2024-08-16,2024-08-16,株式会社ＡＵＲＡ,,株式会社,大阪府,大阪市中央区,心斎橋筋２丁目３番７号ロイヤル北川ビル３階,,27,128,5420085,,,,,,,2024-08-16,1,,,,,オーラ,0
2231,9120003027292,新規,0,2024-08-16,2024-08-16,ＲＰＧ合同会社,,合同会社,大阪府,寝屋川市,池田３丁目２番１４号,,27,215,5720039,,,,,,,2024-08-16,1,,,,,アールピージー,0
2232,9120003027318,新規,0,2024-08-16,2024-08-16,合同会社ＩｎｎｏＢＥＥｔｉｏｎｓ,,合同会社,大阪府,大阪市天王寺区,勝山４丁目６－１０－４０２,,27,109,5430043,,,,,,,2024-08-16,1,,,,,イノビーション,0
2238,9130001077693,新規,0,2024-08-16,2024-08-16,株式会社四神相応,,株式会社,京都府,京都市上京区,宮垣町９１－１０２,,26,102,6020853,,,,,,,2024-08-16,1,,,,,シジンソウオウ,0
2239,9130001077743,新規,0,2024-08-16,2024-08-16,株式会社ｅｎＷｏｒｋｓ,,株式会社,京都府,京都市上京区,智恵光院通中立売下る山里町２３７番地３,,26,102,6028268,,,,,,,2024-08-16,1,,,,,エンワークス,0
2242,9140003020964,新規,0,2024-08-16,2024-08-16,エースＪａｐａｎフィールド合同会社,,合同会社,兵庫県,神戸市中央区,北長狭通５丁目８番１２号,,28,110,6500012,,,,,,,2024-08-16,1,,,,,エースジャパンフィールド,0
2243,9140003020980,新規,0,2024-08-16,2024-08-16,ＩＨＳＡＮ　ＴＲＡＤＩＮＧ合同会社,,合同会社,兵庫県,赤穂市,有年楢原２５５番地,,28,212,6781181,,,,,,,2024-08-16,1,,,,,イハサントレーディング,0
2244,9140005027181,新規,0,2024-08-16,2024-08-16,戊亥神社,00135788,その他の設立登記法人,兵庫県,加古川市,加古川町北在家字中曾根９５番地,00135789,28,210,6750031,,,,,,,2024-08-16,1,,,,,,0
2246,9150005009617,新規,0,2024-08-16,2024-08-16,一般社団法人やまぞえハイジ,,その他の設立登記法人,奈良県,山辺郡山添村,大字毛原１１１５番地,,29,322,6302233,,,,,,,2024-08-16,1,,,,,ヤマゾエハイジ,0
2258,9180001162813,新規,0,2024-08-16,2024-08-16,株式会社Ｋｏｋｏｒｏ,,株式会社,愛知県,名古屋市中村区,岩塚町字郷中１０８番地３Ｅｓｐｒｅｓｓｏ岩塚１Ｂ号室,,23,105,4530862,,,,,,,2024-08-16,1,,,,,ココロ,0
2259,9180001162895,新規,0,2024-08-16,2024-08-16,株式会社ＦＩＴ,,株式会社,愛知県,名古屋市中村区,名駅４丁目２４番５号第２森ビル４０１,,23,105,4500002,,,,,,,2024-08-16,1,,,,,フィット,0
2264,9180003027205,新規,0,2024-08-16,2024-08-16,合同会社月あかり,,合同会社,愛知県,知多郡東浦町,大字緒川字西本坪８番地の１４,,23,442,4702102,,,,,,,2024-08-16,1,,,,,ツキアカリ,0
2265,9180005020736,新規,0,2024-08-16,2024-08-16,一般社団法人日本総合住宅保安協会,,その他の設立登記法人,愛知県,名古屋市西区,天神山町１番２１号,,23,104,4510065,,,,,,,2024-08-16,1,,,,,ニホンソウゴウジュウタクホアンキョウカイ,0
2270,9190001031570,新規,0,2024-08-16,2024-08-16,株式会社シモサトホールディングス,,株式会社,三重県,多気郡明和町,大字佐田２１８３番地３,,24,442,5150331,,,,,,,2024-08-16,1,,,,,シモサトホールディングス,0
2271,9200001042839,新規,0,2024-08-16,2024-08-16,ミヨシホールディングス株式会社,,株式会社,岐阜県,大垣市,領家町３丁目６５１番１,,21,202,5030014,,,,,,,2024-08-16,1,,,,,ミヨシホールディングス,0
2274,9230001020494,新規,0,2024-08-16,2024-08-16,株式会社馬の靴屋さん,,株式会社,富山県,南砺市,高宮１２８４番地,,16,210,9391741,,,,,,,2024-08-16,1,,,,,ウマノクツヤサン,0
2278,9240003006813,新規,0,2024-08-16,2024-08-16,合同会社わんわん,,合同会社,広島県,広島市安佐北区,口田２丁目２７－１２－７,,34,106,7391734,,,,,,,2024-08-16,1,,,,,ワンワン,0
2286,9290001106668,新規,0,2024-08-16,2024-08-16,株式会社拳聖工業,,株式会社,福岡県,福岡市博多区,住吉３丁目９番１６－７０１号,,40,132,8120018,,,,,,,2024-08-16,1,,,,,ケンセイコウギョウ,0
2287,9290001106684,新規,0,2024-08-16,2024-08-16,Ｓｏｃｉａｌ　Ｚｅｒｏ株式会社,,株式会社,福岡県,福岡市中央区,天神２丁目２番１２号Ｔ＆Ｊビルディング７Ｆ,,40,133,8100001,,,,,,,2024-08-16,1,,,,,ソーシャルゼロ,0
2290,9290003015719,新規,0,2024-08-16,2024-08-16,合同会社福岡資産管理,,合同会社,福岡県,福岡市東区,青葉３丁目３１番１２号,,40,131,8130025,,,,,,,2024-08-16,1,,,,,フクオカシサンカンリ,0
2291,9290005019453,新規,0,2024-08-16,2024-08-16,一般社団法人ＳＴＥＰ,,その他の設立登記法人,福岡県,久留米市,野中町３２９番地４,,40,203,8390862,,,,,,,2024-08-16,1,,,,,ステップ,0
2296,9310005008791,新規,0,2024-08-16,2024-08-16,ＮＭＩ協同組合,,その他の設立登記法人,長崎県,長崎市,小江町２７３４番地８５,,42,201,8511133,,,,,,,2024-08-16,1,,,,,エヌエムアイ,0
2300,9340001026737,新規,0,2024-08-16,2024-08-16,株式会社宮下瓦工業,,株式会社,鹿児島県,出水市,高尾野町下水流２５９２番地２,,46,208,8990405,,,,,,,2024-08-16,1,,,,,ミヤシタカワラコウギョウ,0
2305,9360003014234,新規,0,2024-08-16,2024-08-16,合同会社Ｃｏｍｐｌｅｘ,,合同会社,沖縄県,石垣市,字桃里１９６－４６,,47,207,9070241,,,,,,,2024-08-16,1,,,,,コンプレックス,0
2316,9390005009080,新規,0,2024-08-16,2024-08-16,一般社団法人国際研究機構,,その他の設立登記法人,山形県,鶴岡市,大宝寺字日本国３８８番地５－４０１,,06,203,9970017,,,,,,,2024-08-16,1,,,,,コクサイケンキュウキコウ,0
2318,9400005008436,新規,0,2024-08-16,2024-08-16,医療法人白翔会,,その他の設立登記法人,岩手県,花巻市,星が丘１丁目２０番１１号,,03,205,0250065,,,,,,,2024-08-16,1,,,,,ハクショウカイ,0
2325,9420003002975,新規,0,2024-08-16,2024-08-16,ＷＩＮＥＸ合同会社,,合同会社,青森県,十和田市,東四番町６番４０号,,02,206,0340032,,,,,,,2024-08-16,1,,,,,ウィネックス,0
2328,9430001092423,新規,0,2024-08-16,2024-08-16,株式会社倖暉,,株式会社,北海道,石狩市,花川南七条１丁目８９番地,,01,235,0613207,,,,,,,2024-08-16,1,,,,,コウキ,0
2332,9430003016693,新規,0,2024-08-16,2024-08-16,合同会社亀井青果,,合同会社,北海道,札幌市西区,二十四軒二条１丁目１－５　２Ｆ,,01,107,0630802,,,,,,,2024-08-16,1,,,,,カメイセイカ,0
2333,9440001009483,新規,0,2024-08-16,2024-08-16,株式会社ＬＡＮＤＳ．,,株式会社,北海道,函館市,本町２８番１４号,,01,202,0400011,,,,,,,2024-08-16,1,,,,,ランズ,0
2334,9460101007591,新規,0,2024-08-16,2024-08-16,株式会社十勝バース,,株式会社,北海道,帯広市,東九条南１３丁目２番地,,01,207,0800809,,,,,,,2024-08-16,1,,,,,トカチバース,0
2341,9490003001921,新規,0,2024-08-16,2024-08-16,空と水と大地合同会社,,合同会社,高知県,南国市,岡豊町笠ノ川２７８－１,,39,204,7830051,,,,,,,2024-08-16,1,,,,,ソラトミズトダイチ,0
