sequenceNumber,corporateNumber,process,correct,updateDate,changeDate,name,nameImageId,kind,prefectureName,cityName,streetNumber,addressImageId,prefectureCode,cityCode,postCode,addressOutside,addressOutsideImageId,closeDate,closeCause,successorCorporateNumber,changeCause,assignmentDate,latest,enName,enPrefectureName,enCityName,enAddressOutside,furigana,hihyoji
8,1010001156673,登記記録の閉鎖等,0,2021-11-10,2021-11-04,株式会社クラムス,,株式会社,東京都,文京区,後楽２丁目３－１３ディアハイム飯田橋８０２,,13,105,1120004,,,2021-11-04,清算の結了等,,,2015-10-05,1,,,,,クラムス,0
31,1010702002622,登記記録の閉鎖等,0,2021-11-10,2021-11-08,有限会社クリタインシュランス,,有限会社,東京都,品川区,平塚３丁目１番２１号,,13,109,1420051,,,2021-11-08,清算の結了等,,,2015-10-05,1,,,,,クリタインシュランス,0
58,1011101039990,登記記録の閉鎖等,0,2021-11-10,2021-11-04,株式会社司企画ティ・ケイ・カンパニー,,株式会社,東京都,新宿区,下落合３丁目１７番３２号スエナガビル二階,,13,104,1610033,,,2021-11-04,清算の結了等,,,2015-10-05,1,,,,,,0
62,1011105004818,登記記録の閉鎖等,0,2021-11-10,2021-11-01,一般財団法人日本生涯学習総合研究所,,その他の設立登記法人,東京都,新宿区,早稲田鶴巻町１１０番地２２,,13,104,1620041,,,2021-11-01,合併による解散等,5011105005382,令和３年１１月１日東京都新宿区早稲田鶴巻町１１０番地２２一般財団法人日本生涯学習総合研究所（5011105005382）に合併し解散,2015-10-05,1,,,,,ニホンショウガイガクシュウソウゴウケンキュウジョ,0
64,1011302002500,登記記録の閉鎖等,0,2021-11-10,2021-11-08,有限会社桂産業,,有限会社,東京都,杉並区,下井草２丁目１８番１６号,,13,115,1670022,,,2021-11-08,清算の結了等,,,2015-10-05,1,,,,,カツラサンギョウ,0
67,1011303000206,登記記録の閉鎖等,0,2021-11-10,2021-11-08,合資会社三河屋酒店,,合資会社,東京都,杉並区,和田３丁目１８番５号,,13,115,1660012,,,2021-11-08,清算の結了等,,,2015-10-05,1,,,,,ミカワヤサケテン,0
102,1021002040015,登記記録の閉鎖等,0,2021-11-10,2021-11-04,有限会社イザワ,,有限会社,神奈川県,大和市,上和田４３５番地の１０,,14,213,2420014,,,2021-11-04,清算の結了等,,,2015-10-05,1,,,,,イザワ,0
105,1021003007599,登記記録の閉鎖等,0,2021-11-10,2021-11-05,合同会社Ｓ・Ｙ・Ｓ・Ｈ,,合同会社,神奈川県,大和市,福田５５１５番地１,,14,213,2420024,,,2021-11-05,清算の結了等,,,2018-06-22,1,,,,,エスワイエスエイチ,0
112,1030001092165,登記記録の閉鎖等,0,2021-11-10,2021-11-02,株式会社東合,,株式会社,埼玉県,上尾市,浅間台４丁目５番地１３,,11,219,3620073,,,2021-11-02,清算の結了等,,,2015-10-05,1,,,,,トウゴウ,0
119,1030001116502,登記記録の閉鎖等,0,2021-11-10,2021-11-02,株式会社五光,,株式会社,埼玉県,所沢市,榎町４番７号,,11,208,3591104,,,2021-11-02,清算の結了等,,,2016-10-03,1,,,,,ゴコウ,0
120,1030001129264,登記記録の閉鎖等,0,2021-11-10,2021-11-02,株式会社トリップレンタカー,,株式会社,埼玉県,八潮市,大字伊勢野３２,,11,234,3400821,,,2021-11-02,清算の結了等,,,2019-01-28,1,,,,,トリップレンタカー,0
128,1040001033473,登記記録の閉鎖等,0,2021-11-10,2021-11-04,株式会社レイビ,,株式会社,千葉県,市川市,市川１丁目２５番２－２０２号セゾン冨士,,12,203,2720034,,,2021-11-04,清算の結了等,,,2015-10-05,1,,,,,レイビ,0
132,1040002081645,登記記録の閉鎖等,0,2021-11-10,2021-11-04,有限会社丸大酒店,,有限会社,千葉県,茂原市,町保字高師野７番地１０５,,12,210,2970022,,,2021-11-04,清算の結了等,,,2015-10-05,1,,,,,マルダイサケテン,0
135,1040005018834,登記記録の閉鎖等,0,2021-11-10,2021-11-02,特定非営利活動法人かもがわ市場,,その他の設立登記法人,千葉県,鴨川市,東町６６６番地,,12,223,2960041,,,2021-11-02,清算の結了等,,,2015-11-24,1,,,,,カモガワシジョウ,0
139,1050002014281,登記記録の閉鎖等,0,2021-11-10,2021-11-04,有限会社鶴観光,,有限会社,茨城県,かすみがうら市,稲吉東１丁目８番１２号,,08,230,3150053,,,2021-11-04,清算の結了等,,,2015-10-05,1,,,,,ツルカンコウ,0
146,1070001013010,登記記録の閉鎖等,0,2021-11-10,2021-11-08,株式会社赤城高原フーズ,,株式会社,群馬県,甘楽郡甘楽町,大字小幡２０４番地１,,10,384,3702202,,,2021-11-08,清算の結了等,,,2015-10-05,1,,,,,アカギコウゲンフーズ,0
190,1122001027463,登記記録の閉鎖等,0,2021-11-10,2021-11-08,株式会社政和工業,,株式会社,大阪府,東大阪市,東石切町４丁目１４番３８号,,27,227,5798011,,,2021-11-08,清算の結了等,,,2015-10-05,1,,,,,セイワコウギョウ,0
195,1130002033760,登記記録の閉鎖等,0,2021-11-10,2021-11-05,有限会社稲虎織物工場,,有限会社,京都府,京丹後市,網野町掛津４６０番地,,26,212,6293112,,,2021-11-05,清算の結了等,,,2015-10-05,1,,,,,イナトラオリモノコウジョウ,0
198,1140001103373,登記記録の閉鎖等,0,2021-11-10,2021-11-01,ＯＮＧＡＥＳＨＩ　ＣＯＭＰＡＮＹ株式会社,,株式会社,兵庫県,豊岡市,立野町９番２４号,,28,209,6680046,,,2021-11-01,合併による解散等,9140001100058,令和３年１０月２９日兵庫県豊岡市中陰６３８番地の１株式会社こうのとり不動産（9140001100058）に合併し解散,2016-09-15,1,,,,,オンガエシカンパニー,0
202,1140002053774,登記記録の閉鎖等,0,2021-11-10,2021-11-05,有限会社アサヒエネック,,有限会社,兵庫県,姫路市,飾磨区恵美酒１４３番地１パレロワイヤル飾磨６０２,,28,201,6728057,,,2021-11-05,清算の結了等,,,2015-10-05,1,,,,,アサヒエネック,0
208,1180001011597,登記記録の閉鎖等,0,2021-11-10,2021-11-05,伊藤転写株式会社,,株式会社,愛知県,名古屋市千種区,光が丘１丁目１３番７号,,23,101,4640006,,,2021-11-05,清算の結了等,,,2015-10-05,1,,,,,イトウテンシャ,0
235,1220005005161,登記記録の閉鎖等,0,2021-11-10,2021-11-05,医療法人社団長光会,,その他の設立登記法人,石川県,七尾市,国分町ラ部１３番地の９,,17,202,9260821,,,2021-11-05,清算の結了等,,,2015-10-05,1,,,,,チョウコウカイ,0
238,1230001006212,登記記録の閉鎖等,0,2021-11-10,2021-11-01,株式会社富山アメニティシステム,,株式会社,富山県,富山市,桜木町１０番１０号,,16,201,9300082,,,2021-11-01,合併による解散等,8230001016080,令和３年１１月１日富山県高岡市内島３５５０番地ＧＲＮ株式会社（8230001016080）に合併し解散,2015-10-05,1,,,,,トヤマアメニティシステム,0
243,1240001007770,登記記録の閉鎖等,0,2021-11-10,2021-11-09,株式会社遊美,,株式会社,広島県,廿日市市,深江３丁目３番１５号,,34,213,7390421,,,2021-11-09,清算の結了等,,,2015-10-05,1,,,,,ユウビ,0
253,1260001014740,登記記録の閉鎖等,0,2021-11-10,2021-11-09,株式会社トモエ,,株式会社,岡山県,倉敷市,児島稗田町２７８７番地,00003189,33,202,7110937,,,2021-11-09,清算の結了等,,,2015-10-05,1,,,,,トモエ,0
267,1290002007872,登記記録の閉鎖等,0,2021-11-10,2021-11-04,有限会社ガレージマツイ,,有限会社,福岡県,福岡市早良区,有田２丁目２４番６号,,40,137,8140033,,,2021-11-04,清算の結了等,,,2015-10-05,1,,,,,ガレージマツイ,0
273,1290801023260,登記記録の閉鎖等,0,2021-11-10,2021-11-01,エムケイ興産株式会社,,株式会社,福岡県,北九州市八幡西区,夕原町６番１号,,40,109,8070813,,,2021-11-01,合併による解散等,4290801018332,令和３年１１月１日北九州市八幡西区夕原町６番１号ＭＫＦホールディングス株式会社（4290801018332）に合併し解散,2017-02-03,1,,,,,エムケイコウサン,0
279,1340001018329,登記記録の閉鎖等,0,2021-11-10,2021-11-09,株式会社あすなろ,,株式会社,鹿児島県,鹿児島市,清和１丁目２９番１７号,,46,201,8910109,,,2021-11-09,清算の結了等,,,2015-10-05,1,,,,,アスナロ,0
280,1340001019616,登記記録の閉鎖等,0,2021-11-10,2021-11-01,株式会社オクトファーム,,株式会社,鹿児島県,いちき串木野市,羽島８６９９番地１０,,46,219,8960064,,,2021-11-01,合併による解散等,9340001013223,令和３年１１月１日鹿児島県いちき串木野市羽島８６９９番地１０株式会社オクトファーム（9340001013223）に合併し解散,2016-08-30,1,,,,,オクトファーム,0
289,1370001010002,登記記録の閉鎖等,0,2021-11-10,2021-10-28,株式会社算円舎,,株式会社,宮城県,仙台市宮城野区,萩野町４丁目５番１６号,,04,102,9830043,,,2021-10-28,清算の結了等,,,2015-10-05,1,,,,,サンエンシャ,0
303,1430002059123,登記記録の閉鎖等,0,2021-11-10,2021-10-26,有限会社田辺本店,,有限会社,北海道,白老郡白老町,大町２丁目３番２０号,,01,578,0590905,,,2021-10-26,清算の結了等,,,2015-10-05,1,,,,,タナベホンテン,0
308,1450001009283,登記記録の閉鎖等,0,2021-11-10,2021-11-08,株式会社鳳＿,00090650,株式会社,北海道,留萌郡小平町,字大椴２９７番地の９,,01,482,0783457,,,2021-11-08,清算の結了等,,,2015-10-05,1,,,,,オオシュン,0
320,2010401038108,登記記録の閉鎖等,0,2021-11-10,2021-11-05,ヒカワ石油株式会社,,株式会社,東京都,品川区,東品川２丁目２番２０号天王洲オーシャンスクエア９階,,13,109,1400002,,,2021-11-05,清算の結了等,,,2015-10-05,1,,,,,ヒカワセキユ,0
338,2010601051348,登記記録の閉鎖等,0,2021-11-10,2021-11-01,ビブメント株式会社,,株式会社,東京都,墨田区,錦糸２丁目４番６号,,13,107,1300013,,,2021-11-01,清算の結了等,,,2017-04-04,1,,,,,ビブメント,0
351,2011001101412,登記記録の閉鎖等,0,2021-11-10,2021-10-15,株式会社グッズラボ,,株式会社,東京都,港区,赤坂１丁目１１番４０,,13,103,1070052,,,2021-10-15,清算の結了等,,,2015-10-05,1,,,,,グッズラボ,0
353,2011001129346,登記記録の閉鎖等,0,2021-11-10,2021-10-25,株式会社ＬＯＶＥ　ＳＭＩＬＥ,,株式会社,東京都,渋谷区,東１丁目２７番１号,,13,113,1500011,,,2021-10-25,清算の結了等,,,2019-08-13,1,,,,,ラブスマイル,0
384,2012701011140,登記記録の閉鎖等,0,2021-11-10,2021-11-08,株式会社クラーニヒ,,株式会社,東京都,東村山市,秋津町１丁目３１番地１８トゥインクル秋津５０４,,13,213,1890001,,,2021-11-08,清算の結了等,,,2015-10-05,1,,,,,クラーニヒ,0
400,2020001026189,登記記録の閉鎖等,0,2021-11-10,2021-11-08,クリエイテイブコンサルタンツ株式会社,,株式会社,神奈川県,横浜市神奈川区,栗田谷６番６１号,,14,102,2210804,,,2021-11-08,清算の結了等,,,2015-10-05,1,,,,,クリエイテイブコンサルタンツ,0
406,2020001112798,登記記録の閉鎖等,0,2021-11-10,2021-11-08,株式会社ＣＤ倉庫,,株式会社,東京都,八王子市,椚田町５５２番９号グリーンハウス大巻１０６,,13,201,1930942,,,2021-11-08,清算の結了等,,,2015-10-05,1,,,,,,0
408,2020001133299,登記記録の閉鎖等,0,2021-11-10,2021-11-04,株式会社ラインランド,,株式会社,神奈川県,川崎市川崎区,本町２丁目５番地１１本町ビックガーデン３０２号室,,14,131,2100001,,,2021-11-04,清算の結了等,,,2019-10-18,1,,,,,ラインランド,0
409,2020001137837,登記記録の閉鎖等,0,2021-11-10,2021-11-05,匠デバイス株式会社,,株式会社,神奈川県,横浜市中区,桜木町１丁目１番８号,,14,104,2310062,,,2021-11-05,清算の結了等,,,2020-09-25,1,,,,,タクミデバイス,0
422,2030001140187,登記記録の閉鎖等,0,2021-11-10,2021-11-01,株式会社矢部電気管理事務所,,株式会社,埼玉県,坂戸市,伊豆の山町１０番地（６－３０２）,,11,239,3500275,,,2021-11-01,清算の結了等,,,2021-01-14,1,,,,,ヤベデンキカンリジムショ,0
431,2040001046219,登記記録の閉鎖等,0,2021-11-10,2021-11-01,株式会社アクティベイエリア,,株式会社,千葉県,成田市,囲護台１丁目１番地２,,12,211,2860035,,,2021-11-01,合併による解散等,9040001012404,令和３年１１月１日千葉市中央区新町４番地７クレインヒルズ２Ｆ株式会社ビクトリー（9040001012404）に合併し解散,2015-10-05,1,,,,,アクティベイエリア,0
441,2050002020089,登記記録の閉鎖等,0,2021-11-10,2021-11-04,有限会社張替工建,,有限会社,茨城県,坂東市,岩井１２３２番地,,08,228,3060631,,,2021-11-04,清算の結了等,,,2015-10-05,1,,,,,,0
451,2080101012876,登記記録の閉鎖等,0,2021-11-10,2021-11-02,丸観食品株式会社,,株式会社,静岡県,熱海市,下多賀１３４番地,,22,205,4130102,,,2021-11-02,清算の結了等,,,2015-10-05,1,,,,,マルカンショクヒン,0
454,2080401018383,登記記録の閉鎖等,0,2021-11-10,2021-11-05,株式会社矢口東邦電機製作所,,株式会社,神奈川県,横浜市都筑区,牛久保東２丁目１５番１９号,,14,118,2240014,,,2021-11-05,清算の結了等,,,2015-10-05,1,,,,,ヤグチトウホウデンキセイサクジョ,0
475,2130001016922,登記記録の閉鎖等,0,2021-11-10,2021-11-08,株式会社川端商会,,株式会社,京都府,京都市下京区,西七条北東野町１１２番地,,26,106,6008871,,,2021-11-08,清算の結了等,,,2015-10-05,1,,,,,カワバタショウカイ,0
485,2140001025856,登記記録の閉鎖等,0,2021-11-10,2021-11-05,株式会社大園鉄工所,,株式会社,兵庫県,明石市,大久保町高丘３丁目１番地の２大久保東第２団地２９号棟１０２号室,,28,203,6740057,,,2021-11-05,清算の結了等,,,2015-10-05,1,,,,,オオゾノテッコウショ,0
487,2140001066636,登記記録の閉鎖等,0,2021-11-10,2021-11-05,株式会社ユタカコーポレーション,,株式会社,兵庫県,三田市,富士が丘４丁目１２番２号,,28,219,6691547,,,2021-11-05,清算の結了等,,,2015-10-05,1,,,,,ユタカコーポレーション,0
490,2140002018751,登記記録の閉鎖等,0,2021-11-10,2021-11-05,有限会社サンミハール,,有限会社,兵庫県,神戸市中央区,三宮町１丁目４番１３号,,28,110,6500021,,,2021-11-05,清算の結了等,,,2015-10-05,1,,,,,サンミハール,0
517,2220005003635,登記記録の閉鎖等,0,2021-11-10,2021-11-05,聖光寺,00078652,その他の設立登記法人,石川県,小松市,波佐谷町ナ２３番地,,17,203,9230182,,,2021-11-05,清算の結了等,,,2015-10-05,1,,,,,ショウコウジ,0
522,2240001032933,登記記録の閉鎖等,0,2021-11-10,2021-11-05,松永電機工業株式会社,,株式会社,広島県,福山市,今津町２丁目２番１４号,,34,207,7290111,,,2021-11-05,清算の結了等,,,2015-10-05,1,,,,,マツナガデンキコウギョウ,0
547,2290801013211,登記記録の閉鎖等,0,2021-11-10,2021-10-15,株式会社創務課,,株式会社,福岡県,北九州市八幡西区,春日台６丁目４番１号,,40,109,8070844,,,2021-10-15,清算の結了等,,,2015-10-05,1,,,,,ソウムカ,0
565,2430001076969,登記記録の閉鎖等,0,2021-11-10,2021-11-05,株式会社マックスエクスプレス北海道,,株式会社,北海道,北広島市,大曲５９０番地１１,,01,234,0611270,,,2021-11-05,合併による解散等,1290001022732,令和３年１１月１日福岡市中央区那の津三丁目６番５号株式会社マックスエクスプレス（1290001022732）に合併し解散,2018-07-09,1,,,,,マックスエクスプレスホッカイドウ,0
569,2480001002144,登記記録の閉鎖等,0,2021-11-10,2021-11-09,吉野川ヒューム工業株式会社,,株式会社,徳島県,徳島市,富田橋７丁目１７番地,,36,201,7700937,,,2021-11-09,清算の結了等,,,2015-10-05,1,,,,,ヨシノガワヒュームコウギョウ,0
580,3010002006578,登記記録の閉鎖等,0,2021-11-10,2021-11-05,有限会社渡辺商店,,有限会社,東京都,文京区,小石川１丁目２７番９号,,13,105,1120002,,,2021-11-05,清算の結了等,,,2015-10-05,1,,,,,ワタナベショウテン,0
586,3010102003120,登記記録の閉鎖等,0,2021-11-10,2021-11-08,有限会社澤田プラザ,,有限会社,東京都,八王子市,館町２１１番地,,13,201,1930944,,,2021-11-08,清算の結了等,,,2015-10-05,1,,,,,,0
595,3010401116639,登記記録の閉鎖等,0,2021-11-10,2021-10-27,株式会社ソフィア研究所,,株式会社,東京都,港区,芝公園２丁目６番８号,,13,103,1050011,,,2021-10-27,清算の結了等,,,2015-10-05,1,,,,,ソフィアケンキュウジョ,0
611,3010602000591,登記記録の閉鎖等,0,2021-11-10,2021-11-01,有限会社栄久木工所,,有限会社,東京都,江東区,森下４丁目１１番２号,,13,108,1350004,,,2021-11-01,清算の結了等,,,2015-10-05,1,,,,,エイキュウモッコウショ,0
613,3010605003666,登記記録の閉鎖等,0,2021-11-10,2021-10-11,特定非営利活動法人日本アセアンスポーツ協力センター,,その他の設立登記法人,東京都,渋谷区,渋谷４丁目３番１０－５０３号,,13,113,1500002,,,2021-10-11,清算の結了等,,,2019-03-07,1,,,,,ニホンアセアンスポーツキョウリョクセンター,0
628,3011101063502,登記記録の閉鎖等,0,2021-11-10,2021-11-05,アバンダンスパートナーズ株式会社,,株式会社,東京都,千代田区,九段南１丁目５番６号りそな九段ビル５階,,13,101,1020074,,,2021-11-05,清算の結了等,,,2015-10-05,1,,,,,アバンダンスパートナーズ,0
630,3011401006490,登記記録の閉鎖等,0,2021-11-10,2021-11-08,株式会社やまさ書房,,株式会社,東京都,板橋区,本町２５番９号,,13,119,1730001,,,2021-11-08,清算の結了等,,,2015-10-05,1,,,,,ヤマサショボウ,0
631,3011501024483,登記記録の閉鎖等,0,2021-11-10,2021-11-09,富士商城株式会社,,株式会社,東京都,小平市,鈴木町２丁目１５６－５２,,13,211,1870011,,,2021-11-09,清算の結了等,,,2019-02-08,1,,,,,フジショウジョウ,0
635,3011602005052,登記記録の閉鎖等,0,2021-11-10,2021-11-08,有限会社上新パーク,,有限会社,東京都,練馬区,大泉学園町２丁目２２番６号,,13,120,1780061,,,2021-11-08,清算の結了等,,,2015-10-05,1,,,,,ジョウシンパーク,0
642,3012402015019,登記記録の閉鎖等,0,2021-11-10,2021-11-04,有限会社大森茶屋,,有限会社,東京都,府中市,紅葉丘３丁目３３番地の２１,,13,206,1830004,,,2021-11-04,清算の結了等,,,2015-10-05,1,,,,,オオモリチャヤ,0
646,3013101006746,登記記録の閉鎖等,0,2021-11-10,2021-11-05,株式会社夕日,,株式会社,東京都,あきる野市,二宮１１２５番地６,,13,228,1970814,,,2021-11-05,清算の結了等,,,2015-10-05,1,,,,,ユウヒ,0
654,3020001052374,登記記録の閉鎖等,0,2021-11-10,2021-11-04,株式会社アクアシステム,,株式会社,神奈川県,横浜市泉区,上飯田町１０１０番地１,,14,116,2450018,,,2021-11-04,清算の結了等,,,2015-10-05,1,,,,,アクアシステム,0
679,3030002095792,登記記録の閉鎖等,0,2021-11-10,2021-11-02,有限会社小柳製作所,,有限会社,埼玉県,東松山市,大字松山２３０５番地,,11,212,3550005,,,2021-11-02,清算の結了等,,,2015-10-05,1,,,,,コヤナギセイサクジョ,0
686,3040001012913,登記記録の閉鎖等,0,2021-11-10,2021-11-01,株式会社ケーアイプロジェクト,,株式会社,千葉県,東金市,東金５４９番地２ヴィーナスビル２Ｆ,,12,213,2830802,,,2021-11-01,合併による解散等,9040001012404,令和３年１１月１日千葉市中央区新町４番地７クレインヒルズ２Ｆ株式会社ビクトリー（9040001012404）に合併し解散,2015-10-05,1,,,,,ケーアイプロジェクト,0
692,3040002010164,登記記録の閉鎖等,0,2021-11-10,2021-11-04,有限会社ブレーン,,有限会社,千葉県,千葉市中央区,新宿２丁目５番地９号８０１号,,12,101,2600021,,,2021-11-04,清算の結了等,,,2015-10-05,1,,,,,ブレーン,0
708,3080101009194,登記記録の閉鎖等,0,2021-11-10,2021-11-02,鳥居自動車工業株式会社,,株式会社,静岡県,富士市,柚木３９０番地の２,,22,210,4160908,,,2021-11-02,清算の結了等,,,2015-10-05,1,,,,,トリイジドウシャコウギョウ,0
754,3130001021657,登記記録の閉鎖等,0,2021-11-10,2021-11-05,株式会社ミクロ電子製作所,,株式会社,京都府,京都市中京区,聚楽廻南町２４番地,,26,104,6048411,,,2021-11-05,清算の結了等,,,2015-10-05,1,,,,,ミクロデンシセイサクショ,0
810,3240002023096,登記記録の閉鎖等,0,2021-11-10,2021-11-08,有限会社大西電業,,有限会社,広島県,広島市南区,宇品御幸５丁目１８番４号,,34,103,7340015,,,2021-11-08,清算の結了等,,,2015-10-05,1,,,,,オオニシデンギョウ,0
815,3250002015852,登記記録の閉鎖等,0,2021-11-10,2021-11-05,有限会社ハラダモータース,,有限会社,山口県,下松市,南花岡３丁目１０番１号,,35,207,7440027,,,2021-11-05,清算の結了等,,,2015-10-05,1,,,,,ハラダモータース,0
826,3290002022102,登記記録の閉鎖等,0,2021-11-10,2021-11-04,有限会社クルメシティコーポレーション,,有限会社,福岡県,久留米市,御井旗崎３丁目１番３９号,,40,203,8390841,,,2021-11-04,清算の結了等,,,2015-10-05,1,,,,,クルメシティコーポレーション,0
833,3340001015043,登記記録の閉鎖等,0,2021-11-10,2021-11-08,株式会社長野組,,株式会社,鹿児島県,志布志市,有明町野井倉６０３８番地２０,,46,221,8997402,,,2021-11-08,清算の結了等,,,2015-10-05,1,,,,,ナガノグミ,0
834,3340002019563,登記記録の閉鎖等,0,2021-11-10,2021-11-05,有限会社エースワン,,有限会社,鹿児島県,西之表市,鴨女町１９８番地,,46,213,8913116,,,2021-11-05,清算の結了等,,,2015-10-05,1,,,,,エースワン,0
839,3370301002812,登記記録の閉鎖等,0,2021-11-10,2021-11-04,東日本ホテルマネジメント株式会社,,株式会社,東京都,港区,赤坂３丁目２番３号,,13,103,1070052,,,2021-11-04,合併による解散等,3220001008158,令和３年１１月１日石川県金沢市大和町１番５号アパホーム株式会社（3220001008158）に合併し解散,2015-10-05,1,,,,,ヒガシニホンホテルマネジメント,0
868,3490005001925,登記記録の閉鎖等,0,2021-11-10,2021-11-08,特定非営利活動法人高知県排水機設備技術者ネットワーク,,その他の設立登記法人,高知県,高知市,高須砂地２７５番地,,39,201,7818101,,,2021-11-08,清算の結了等,,,2015-10-05,1,,,,,コウチケンハイスイキセツビギジュツシャネットワーク,0
872,4010001097725,登記記録の閉鎖等,0,2021-11-10,2021-11-05,エヌディソフト株式会社,,株式会社,東京都,中央区,東日本橋２丁目８番５号,,13,102,1030004,,,2021-11-05,清算の結了等,,,2015-10-05,1,,,,,エヌディソフト,0
878,4010002003608,登記記録の閉鎖等,0,2021-11-10,2021-11-05,有限会社大平製作所,,有限会社,東京都,文京区,本駒込３丁目２４番６号,,13,105,1130021,,,2021-11-05,清算の結了等,,,2015-10-05,1,,,,,オオヒラセイサクショ,0
882,4010003028876,登記記録の閉鎖等,0,2021-11-10,2021-11-05,合同会社ＡＬＥＲＯ３６,,合同会社,東京都,千代田区,神田美土代町９番１号,,13,101,1010053,,,2021-11-05,清算の結了等,,,2018-12-12,1,,,,,アレーロサーティシックス,0
885,4010005025649,登記記録の閉鎖等,0,2021-11-10,2021-11-08,一般社団法人ＭＢキャピタル,,その他の設立登記法人,東京都,千代田区,丸の内３丁目１番１号東京共同会計事務所内,,13,101,1000005,,,2021-11-08,清算の結了等,,,2016-08-10,1,,,,,エムビーキャピタル,0
897,4010401142031,登記記録の閉鎖等,0,2021-11-10,2021-11-05,株式会社ＦＯＲ　ＹＯＵ　ＪＡＰＡＮ,,株式会社,東京都,港区,東麻布３丁目８番３号ミランジェ麻布十番６０１,,13,103,1060044,,,2021-11-05,合併による解散等,5320001011406,令和３年１１月１日大分県中津市大字一ツ松１６３番地１株式会社人財育成ＪＡＰＡＮ（5320001011406）に合併し解散,2018-11-15,1,,,,,フォーユージャパン,0
911,4010601049183,登記記録の閉鎖等,0,2021-11-10,2021-11-08,株式会社ＪＥＴコーポレーション,,株式会社,東京都,台東区,上野５丁目１６番９号,,13,106,1100005,,,2021-11-08,清算の結了等,,,2016-02-08,1,,,,,ジェットコーポレーション,0
915,4010901002321,登記記録の閉鎖等,0,2021-11-10,2021-10-27,オオミエステート株式会社,,株式会社,東京都,港区,赤坂６丁目１９番５３号,,13,103,1070052,,,2021-10-27,清算の結了等,,,2015-10-05,1,,,,,オオミエステート,0
921,4011001072602,登記記録の閉鎖等,0,2021-11-10,2021-11-05,セールスクリエイション株式会社,,株式会社,東京都,品川区,西五反田２丁目１９番２号,,13,109,1410031,,,2021-11-05,清算の結了等,,,2015-10-05,1,,,,,セールスクリエイション,0
926,4011101031508,登記記録の閉鎖等,0,2021-11-10,2021-11-04,株式会社麗プランニング,,株式会社,東京都,新宿区,西新宿４丁目１９番１号,,13,104,1600023,,,2021-11-04,清算の結了等,,,2015-10-05,1,,,,,,0
935,4011105003775,登記記録の閉鎖等,0,2021-11-10,2021-11-05,特定非営利活動法人フォトカルチャー倶楽部,,その他の設立登記法人,東京都,千代田区,三番町１－５－Ｂ１,,13,101,1020075,,,2021-11-05,清算の結了等,,,2015-10-05,1,,,,,フォトカルチャークラブ,0
943,4011402019680,登記記録の閉鎖等,0,2021-11-10,2021-11-05,有限会社ＹＳＳ,,有限会社,東京都,板橋区,上板橋３丁目５番９号,,13,119,1740076,,,2021-11-05,清算の結了等,,,2015-10-05,1,,,,,ワイエスエス,0
968,4013301035412,登記記録の閉鎖等,0,2021-11-10,2021-11-05,宜しくエネルギー株式会社,,株式会社,東京都,豊島区,北大塚１丁目２３番１８－１０１号,,13,116,1700004,,,2021-11-05,清算の結了等,,,2015-10-05,1,,,,,,0
993,4030001041219,登記記録の閉鎖等,0,2021-11-10,2021-11-02,株式会社エベ,,株式会社,埼玉県,上尾市,春日１丁目１８番地１,,11,219,3620074,,,2021-11-02,清算の結了等,,,2015-10-05,1,,,,,エベ,0
1006,4030002056653,登記記録の閉鎖等,0,2021-11-10,2021-11-02,有限会社高橋電気,,有限会社,埼玉県,桶川市,大字加納１１０５番地の１,,11,231,3630001,,,2021-11-02,清算の結了等,,,2015-10-05,1,,,,,タカハシデンキ,0
1008,4030002104180,登記記録の閉鎖等,0,2021-11-10,2021-11-05,有限会社関口製作所,,有限会社,埼玉県,川口市,弥平４丁目１０番８号,,11,203,3320002,,,2021-11-05,清算の結了等,,,2015-10-05,1,,,,,セキグチセイサクショ,0
1010,4040001010692,登記記録の閉鎖等,0,2021-11-10,2021-11-04,株式会社光林堂,,株式会社,千葉県,千葉市中央区,富士見２丁目１４番４号,,12,101,2600015,,,2021-11-04,清算の結了等,,,2015-10-05,1,,,,,,0
1016,4040002001724,登記記録の閉鎖等,0,2021-11-10,2021-11-02,有限会社エス・アール・エス,,有限会社,千葉県,千葉市中央区,要町２番２号,,12,101,2600017,,,2021-11-02,清算の結了等,,,2015-10-05,1,,,,,エスアールエス,0
1018,4040002037207,登記記録の閉鎖等,0,2021-11-10,2021-11-04,株式会社遊友,,株式会社,千葉県,市川市,宮久保３丁目３０番１３号,,12,203,2720822,,,2021-11-04,清算の結了等,,,2015-10-05,1,,,,,,0
1020,4040002064630,登記記録の閉鎖等,0,2021-11-10,2021-11-02,有限会社ＭＳコンサルタント,,有限会社,千葉県,佐倉市,ユーカリが丘４丁目１番Ｗ－６０４号,,12,212,2850858,,,2021-11-02,清算の結了等,,,2015-10-05,1,,,,,エムエスコンサルタント,0
1022,4050001030095,登記記録の閉鎖等,0,2021-11-10,2021-10-28,株式会社筑波製作所,,株式会社,茨城県,常総市,篠山１４８５番地２,,08,211,3002721,,,2021-10-28,清算の結了等,,,2015-10-05,1,,,,,ツクバセイサクジョ,0
1032,4060002037196,登記記録の閉鎖等,0,2021-11-10,2021-11-02,深津編織有限会社,,有限会社,栃木県,足利市,百頭町２１１５番地,,09,202,3260336,,,2021-11-02,清算の結了等,,,2015-10-05,1,,,,,フカツヘンショク,0
1047,4120001115995,登記記録の閉鎖等,0,2021-11-10,2021-11-08,株式会社アルファー技研,,株式会社,大阪府,大阪市生野区,林寺６丁目７番２１号,,27,116,5440023,,,2021-11-08,清算の結了等,,,2015-10-05,1,,,,,,0
1061,4120005021629,登記記録の閉鎖等,0,2021-11-10,2021-11-05,税理士法人Ａ＆Ｗ,,その他の設立登記法人,大阪府,大阪市中央区,南本町２丁目２番９号辰野南本町ビル７階,,27,128,5410054,,,2021-11-05,清算の結了等,,,2020-06-09,1,,,,,エーアンドダブリュー,0
1069,4120102015186,登記記録の閉鎖等,0,2021-11-10,2021-11-05,有限会社恒和工業,,有限会社,大阪府,堺市美原区,青南台１丁目４－５,,27,147,5870043,,,2021-11-05,清算の結了等,,,2015-10-05,1,,,,,コウワコウギョウ,0
1082,4140001008000,登記記録の閉鎖等,0,2021-11-10,2021-11-08,株式会社ｂｌｕｅ　ｃａｐｅ,,株式会社,大阪府,大阪市中央区,南本町１丁目４番１０号ストークビル４階,,27,128,5410054,,,2021-11-08,清算の結了等,,,2015-10-05,1,,,,,,0
1121,4180301004166,登記記録の閉鎖等,0,2021-11-10,2021-11-04,株式会社ホクリン,,株式会社,愛知県,岡崎市,井田町字４丁目１３０番地,,23,202,4440076,,,2021-11-04,清算の結了等,,,2015-10-05,1,,,,,ホクリン,0
1128,4190001014919,登記記録の閉鎖等,0,2021-11-10,2021-11-09,寿陶器株式会社,,株式会社,三重県,四日市市,京町１５番３４号,,24,202,5100032,,,2021-11-09,清算の結了等,,,2015-10-05,1,,,,,コトブキトウキ,0
1137,4220002016968,登記記録の閉鎖等,0,2021-11-10,2021-11-08,有限会社宝商店,,有限会社,石川県,かほく市,木津ニの３８番地,,17,209,9291171,,,2021-11-08,清算の結了等,,,2015-10-05,1,,,,,タカラショウテン,0
1142,4230002005623,登記記録の閉鎖等,0,2021-11-10,2021-11-02,有限会社ＳＳＣ,,有限会社,富山県,富山市,小杉１００９番地２,,16,201,9398063,,,2021-11-02,清算の結了等,,,2015-10-05,1,,,,,エスエスシー,0
1147,4240001040471,登記記録の閉鎖等,0,2021-11-10,2021-11-08,株式会社ひろしま弐番,,株式会社,広島県,広島市西区,井口５丁目１３番１９号,,34,104,7330842,,,2021-11-08,清算の結了等,,,2015-10-05,1,,,,,ヒロシマニバン,0
1149,4240002033730,登記記録の閉鎖等,0,2021-11-10,2021-11-05,有限会社原田商店,,有限会社,広島県,呉市,阿賀北９丁目４番１号,,34,202,7370001,,,2021-11-05,清算の結了等,,,2015-10-05,1,,,,,ハラダショウテン,0
1159,4290001087244,登記記録の閉鎖等,0,2021-11-10,2021-11-01,３ｒｄコンサルティング株式会社,,株式会社,福岡県,福岡市中央区,天神１丁目９番１７号福岡天神フコク生命ビル１５階,,40,133,8100001,,,2021-11-01,合併による解散等,4290001094513,令和３年１１月１日福岡市中央区天神一丁目９番１７号福岡天神フコク生命ビル１５階株式会社フライク（4290001094513）に合併し解散,2019-11-27,1,,,,,スリーアールディーコンサルティング,0
1205,4430002029197,登記記録の閉鎖等,0,2021-11-10,2021-11-04,有限会社クリショウ,,有限会社,北海道,札幌市北区,新琴似九条１６丁目１番１８号,,01,102,0010909,,,2021-11-04,清算の結了等,,,2015-10-05,1,,,,,クリショウ,0
1214,4440002008480,登記記録の閉鎖等,0,2021-11-10,2021-11-05,有限会社岡島ハウス,,有限会社,北海道,二海郡八雲町,富士見町１３６番地の１,,01,346,0493106,,,2021-11-05,清算の結了等,,,2015-10-05,1,,,,,オカジマハウス,0
1216,4460105000440,登記記録の閉鎖等,0,2021-11-10,2021-11-09,学校法人多田学園,,その他の設立登記法人,北海道,中川郡幕別町,字依田１０１番地１,,01,643,0890571,,,2021-11-09,清算の結了等,,,2015-10-05,1,,,,,タダガクエン,0
1226,4500002021972,登記記録の閉鎖等,0,2021-11-10,2021-11-09,有限会社ロゼセレクション,,有限会社,愛媛県,四国中央市,川之江町１８５６番地の１３,,38,213,7990101,,,2021-11-09,清算の結了等,,,2015-10-05,1,,,,,,0
1247,5010401136981,登記記録の閉鎖等,0,2021-11-10,2021-11-02,株式会社リアルＸ,,株式会社,東京都,渋谷区,幡ヶ谷１丁目３０番８号,,13,113,1510072,,,2021-11-02,合併による解散等,1240001016202,令和３年１０月２９日東京都港区南青山二丁目２番１５号株式会社サイブリッジ（1240001016202）に合併し解散,2018-03-02,1,,,,,リアルエックス,0
1253,5010405011842,登記記録の閉鎖等,0,2021-11-10,2021-10-22,一般社団法人次世代エネルギー資源研究所,,その他の設立登記法人,東京都,港区,虎ノ門１丁目１１番１４号第２ジェスペールビル４Ｆ,,13,103,1050001,,,2021-10-22,清算の結了等,,,2015-10-05,1,,,,,ジセダイエネルギーシゲンケンキュウジョ,0
1275,5011001107893,登記記録の閉鎖等,0,2021-11-10,2021-11-05,株式会社ジーディーエムジャパン,,株式会社,東京都,品川区,上大崎２丁目１４番５号,,13,109,1410021,,,2021-11-05,清算の結了等,,,2015-10-26,1,,,,,ジーディーエムジャパン,0
1276,5011101057502,登記記録の閉鎖等,0,2021-11-10,2021-11-04,ＨＡＧＥＲＴＹ　ＪＡＰＡＮ株式会社,,株式会社,東京都,新宿区,納戸町４０番地３０６,,13,104,1620837,,,2021-11-04,清算の結了等,,,2015-10-05,1,,,,,ハガティジャパン,0
1280,5011101088448,登記記録の閉鎖等,0,2021-11-10,2021-11-04,株式会社Ｙ＆Ｉメディアソリューションズ,,株式会社,東京都,新宿区,新宿５丁目１８番２１号,,13,104,1600022,,,2021-11-04,清算の結了等,,,2019-07-31,1,,,,,ワイアンドアイメディアソリューションズ,0
1289,5011401004823,登記記録の閉鎖等,0,2021-11-10,2021-11-02,ナカ工業株式会社,,株式会社,埼玉県,入間郡三芳町,大字藤久保２２９番地１６,,11,324,3540041,,,2021-11-02,清算の結了等,,,2015-10-05,1,,,,,ナカコウギョウ,0
1299,5011802025897,登記記録の閉鎖等,0,2021-11-10,2021-11-08,有限会社ジェルム,,有限会社,東京都,足立区,千住１丁目３１番６号,,13,121,1200034,,,2021-11-08,清算の結了等,,,2015-10-05,1,,,,,ジェルム,0
1314,5020001105196,登記記録の閉鎖等,0,2021-11-10,2021-11-05,株式会社テクノロジ・ラボ,,株式会社,神奈川県,川崎市幸区,新小倉１番１号,,14,132,2120031,,,2021-11-05,清算の結了等,,,2015-10-05,1,,,,,テクノロジラボ,0
1315,5020001129187,登記記録の閉鎖等,0,2021-11-10,2021-11-04,マックス・バイオケア・ジャパン株式会社,,株式会社,神奈川県,横浜市中区,住吉町２丁目２２番地松栄関内ビル２階,,14,104,2310013,,,2021-11-04,清算の結了等,,,2018-12-18,1,,,,,マックスバイオケアジャパン,0
1318,5020002031805,登記記録の閉鎖等,0,2021-11-10,2021-11-05,有限会社ヤシマ紙工,,有限会社,神奈川県,横浜市南区,睦町１丁目２０番地の１８,,14,105,2320041,,,2021-11-05,清算の結了等,,,2015-10-05,1,,,,,ヤシマシコウ,0
1326,5021001053501,登記記録の閉鎖等,0,2021-11-10,2021-11-04,株式会社クリエイティブ教育開発,,株式会社,神奈川県,逗子市,小坪７丁目１１番１４号,,14,208,2490008,,,2021-11-04,清算の結了等,,,2015-10-05,1,,,,,クリエイティブキョウイクカイハツ,0
1329,5021003006432,登記記録の閉鎖等,0,2021-11-10,2021-10-25,合同会社ＬＩＥＮ,,合同会社,東京都,町田市,原町田６丁目１８番１７号,,13,209,1940013,,,2021-10-25,清算の結了等,,,2017-01-24,1,,,,,リアン,0
1331,5021005010754,登記記録の閉鎖等,0,2021-11-10,2021-11-04,協同組合首都圏ビル・マンション・建物維持管理建築推進協会,,その他の設立登記法人,神奈川県,藤沢市,稲荷１丁目２番３号,,14,205,2510862,,,2021-11-04,清算の結了等,,,2016-10-18,1,,,,,シュトケンビルマンションタテモノイジカンリケンチクスイシンキョウカイ,0
1335,5030001062346,登記記録の閉鎖等,0,2021-11-10,2021-11-02,川里ガス株式会社,,株式会社,埼玉県,鴻巣市,北根１６４３番地,,11,217,3650003,,,2021-11-02,清算の結了等,,,2015-10-05,1,,,,,カワサトガス,0
1345,5030002071057,登記記録の閉鎖等,0,2021-11-10,2021-11-02,有限会社春日部介護福祉サービス,,有限会社,埼玉県,春日部市,谷原２丁目５番地４０,,11,214,3440065,,,2021-11-02,清算の結了等,,,2015-10-05,1,,,,,カスカベカイゴフクシサービス,0
1373,5080402010097,登記記録の閉鎖等,0,2021-11-10,2021-11-08,有限会社ナンバーエイト,,有限会社,静岡県,浜松市北区,三幸町２１６番地の５,,22,135,4338101,,,2021-11-08,清算の結了等,,,2015-10-05,1,,,,,ナンバーエイト,0
1398,5122001002124,登記記録の閉鎖等,0,2021-11-10,2021-11-05,株式会社兼六,,株式会社,大阪府,東大阪市,柏田西２丁目９番１号,,27,227,5770835,,,2021-11-05,清算の結了等,,,2015-10-05,1,,,,,ケンロク,0
1406,5140001033749,登記記録の閉鎖等,0,2021-11-10,2021-11-05,株式会社キタミ電機製作所,,株式会社,兵庫県,神戸市中央区,加納町６丁目３番１－３３０３号,,28,110,6500001,,,2021-11-05,清算の結了等,,,2015-10-05,1,,,,,キタミデンキセイサクショ,0
1428,5180001137348,登記記録の閉鎖等,0,2021-11-10,2021-11-05,株式会社カルナベイル,,株式会社,愛知県,江南市,宮後町砂場西８７番地,,23,217,4838044,,,2021-11-05,清算の結了等,,,2019-07-12,1,,,,,カルナベイル,0
1458,5240002049016,登記記録の閉鎖等,0,2021-11-10,2021-11-08,有限会社新井設備,,有限会社,広島県,安芸郡坂町,植田４丁目１２番２号,,34,309,7314321,,,2021-11-08,清算の結了等,,,2015-10-05,1,,,,,アライセツビ,0
1460,5240002051475,登記記録の閉鎖等,0,2021-11-10,2021-11-05,丸水技研産業有限会社,,有限会社,広島県,尾道市,美ノ郷町三成１５１番地の２,,34,205,7220215,,,2021-11-05,清算の結了等,,,2015-10-05,1,,,,,マルスイギケンサンギョウ,0
1462,5240003003649,登記記録の閉鎖等,0,2021-11-10,2021-11-09,ＰＦＣコンサルタント合同会社,,合同会社,広島県,広島市西区,庚午南２丁目２２番１２－１０２号,,34,104,7330823,,,2021-11-09,清算の結了等,,,2017-08-09,1,,,,,ピーエフシーコンサルタント,0
1494,5330001024530,登記記録の閉鎖等,0,2021-11-10,2021-11-05,株式会社環境シェアリング,,株式会社,熊本県,熊本市西区,花園７丁目１３番３１号,,43,103,8600072,,,2021-11-05,清算の結了等,,,2017-09-19,1,,,,,カンキョウシェアリング,0
1538,6010003031143,登記記録の閉鎖等,0,2021-11-10,2021-11-04,合同会社アイリス,,合同会社,東京都,千代田区,丸の内３丁目１番１号東京共同会計事務所内,,13,101,1000005,,,2021-11-04,清算の結了等,,,2019-11-27,1,,,,,アイリス,0
1555,6010403021925,登記記録の閉鎖等,0,2021-11-10,2021-10-27,合同会社アイリスＡ号,,合同会社,東京都,港区,北青山１丁目２番３号,,13,103,1070061,,,2021-10-27,清算の結了等,,,2019-11-29,1,,,,,アイリスエーゴウ,0
1607,6011802014767,登記記録の閉鎖等,0,2021-11-10,2021-11-09,有限会社セントポール,,有限会社,東京都,足立区,竹の塚１丁目４０番１０号,,13,121,1210813,,,2021-11-09,清算の結了等,,,2015-10-05,1,,,,,セントポール,0
1613,6013301022334,登記記録の閉鎖等,0,2021-11-10,2021-11-04,株式会社アルバ,,株式会社,東京都,豊島区,東池袋１丁目４７番２号サニーハイム池袋５０７号室,,13,116,1700013,,,2021-11-04,清算の結了等,,,2015-10-05,1,,,,,アルバ,0
1618,6020001063088,登記記録の閉鎖等,0,2021-11-10,2021-11-04,株式会社エスペランサ,,株式会社,神奈川県,横浜市栄区,飯島町８２２番地６,,14,115,2440842,,,2021-11-04,清算の結了等,,,2015-10-05,1,,,,,エスペランサ,0
1635,6021005004714,登記記録の閉鎖等,0,2021-11-10,2021-11-08,医療法人たちばなクリニック,,その他の設立登記法人,神奈川県,海老名市,浜田町２３番１５号,,14,215,2430412,,,2021-11-08,清算の結了等,,,2015-10-05,1,,,,,タチバナクリニック,0
1643,6030001118205,登記記録の閉鎖等,0,2021-11-10,2021-11-01,株式会社メディアループス,,株式会社,埼玉県,入間市,大字小谷田１５１８番地５２１,,11,225,3580026,,,2021-11-01,清算の結了等,,,2017-01-18,1,,,,,メディアループス,0
1649,6030003002943,登記記録の閉鎖等,0,2021-11-10,2021-11-04,メグライフ総合サービス合同会社,,合同会社,埼玉県,比企郡川島町,大字上八ツ林４０５番地１,,11,346,3500121,,,2021-11-04,清算の結了等,,,2015-10-05,1,,,,,,0
1659,6040002042097,登記記録の閉鎖等,0,2021-11-10,2021-11-04,有限会社ノアスクエア,,有限会社,千葉県,市川市,宮久保３丁目３０番１３号,,12,203,2720822,,,2021-11-04,清算の結了等,,,2015-10-05,1,,,,,ノアスクエア,0
1666,6060002009887,登記記録の閉鎖等,0,2021-11-10,2021-10-29,有限会社バード,,有限会社,栃木県,宇都宮市,簗瀬町１７６４番地,,09,201,3210933,,,2021-10-29,清算の結了等,,,2015-10-05,1,,,,,,0
1675,6080101007360,登記記録の閉鎖等,0,2021-11-10,2021-11-04,株式会社さかもと,,株式会社,静岡県,三島市,谷田１９７５番地の１１,,22,206,4110801,,,2021-11-04,清算の結了等,,,2015-10-05,1,,,,,サカモト,0
1685,6100002016441,登記記録の閉鎖等,0,2021-11-10,2021-11-08,有限会社丸光商店,,有限会社,長野県,上田市,鹿教湯温泉１２８２番地,,20,203,3860323,,,2021-11-08,清算の結了等,,,2015-10-05,1,,,,,マルミツショウテン,0
1708,6122001020546,登記記録の閉鎖等,0,2021-11-10,2021-11-08,株式会社ユーロジャパンコーポレーション,,株式会社,大阪府,八尾市,宮町５丁目１番３２号,,27,212,5810815,,,2021-11-08,清算の結了等,,,2015-10-05,1,,,,,ユーロジャパンコーポレーション,0
1709,6122002012542,登記記録の閉鎖等,0,2021-11-10,2021-11-08,有限会社メディケアセンターふくい,,有限会社,大阪府,大東市,諸福１丁目１３番６号,,27,218,5740044,,,2021-11-08,清算の結了等,,,2015-10-05,1,,,,,メディケアセンターフクイ,0
1713,6140001019730,登記記録の閉鎖等,0,2021-11-10,2021-11-05,株式会社エドワードジャパン,,株式会社,兵庫県,神戸市東灘区,青木２丁目３番２１－６０５号,,28,101,6580027,,,2021-11-05,清算の結了等,,,2015-10-05,1,,,,,エドワードジャパン,0
1715,6140001067093,登記記録の閉鎖等,0,2021-11-10,2021-11-04,株式会社共栄,,株式会社,兵庫県,三田市,大原１番地９,,28,219,6691515,,,2021-11-04,清算の結了等,,,2015-10-05,1,,,,,キョウエイ,0
1753,6220002012008,登記記録の閉鎖等,0,2021-11-10,2021-11-04,有限会社藤島組,,有限会社,石川県,能美市,東任田町ハ１１５番地３,,17,211,9231122,,,2021-11-04,清算の結了等,,,2015-10-05,1,,,,,フジシマグミ,0
1761,6240001033886,登記記録の閉鎖等,0,2021-11-10,2021-11-08,株式会社大英,,株式会社,広島県,福山市,引野町５丁目４６番１７号,,34,207,7210942,,,2021-11-08,清算の結了等,,,2015-10-05,1,,,,,ダイエイ,0
1765,6240002004449,登記記録の閉鎖等,0,2021-11-10,2021-11-08,有限会社木崎タイル,00000738,有限会社,広島県,広島市西区,三滝本町１丁目３２番１４号,,34,104,7330802,,,2021-11-08,清算の結了等,,,2015-10-05,1,,,,,キザキタイル,0
1775,6290002023089,登記記録の閉鎖等,0,2021-11-10,2021-11-04,有限会社伊比井新聞販売店,,有限会社,福岡県,福岡市西区,石丸２丁目４１番１２号,,40,135,8190025,,,2021-11-04,清算の結了等,,,2015-10-05,1,,,,,イビイシンブンハンバイテン,0
1786,6330002026673,登記記録の閉鎖等,0,2021-11-10,2021-11-05,有限会社木下食品,,有限会社,熊本県,八代郡氷川町,大野１９２０番地の１,,43,468,8694804,,,2021-11-05,清算の結了等,,,2015-10-05,1,,,,,キノシタショクヒン,0
1793,6370001020491,登記記録の閉鎖等,0,2021-11-10,2021-11-01,株式会社アールアンドエム,,株式会社,宮城県,仙台市青葉区,国分町２丁目１５番１６号,,04,101,9800803,,,2021-11-01,合併による解散等,7370201003221,令和３年１０月３１日宮城県栗原市築館藤木４８番地１２株式会社ＤＡＩＡＮ（7370201003221）に合併し解散,2015-10-05,1,,,,,アールアンドエム,0
1795,6370101000006,登記記録の閉鎖等,0,2021-11-10,2021-11-01,秋本木材株式会社,,株式会社,宮城県,柴田郡柴田町,船岡中央２丁目５番３１号,,04,323,9891601,,,2021-11-01,清算の結了等,,,2015-10-05,1,,,,,アキモトモクザイ,0
1799,6400002011610,登記記録の閉鎖等,0,2021-11-10,2021-11-08,有限会社佐藤酒店,,有限会社,岩手県,釜石市,源太沢町２丁目１番１３号,,03,211,0260042,,,2021-11-08,清算の結了等,,,2015-10-05,1,,,,,サトウサケテン,0
1814,6460302001933,登記記録の閉鎖等,0,2021-11-10,2021-11-08,有限会社トータル・コンサルティング,,有限会社,北海道,北見市,高栄東町１丁目１１番４３号,,01,208,0900051,,,2021-11-08,清算の結了等,,,2015-10-05,1,,,,,トータルコンサルティング,0
1821,6700150085038,登記記録の閉鎖等,0,2021-11-10,2021-10-29,被相続人亡関吉昭相続財産,,その他,富山県,高岡市,本町２番１１号大井ビル２階,,16,202,9330913,,,2021-10-29,その他の清算の結了等,,,2017-09-08,1,,,,,ヒソウゾクニンボウセキヨシアキソウゾクザイサン,0
1828,7010001195724,登記記録の閉鎖等,0,2021-11-10,2021-11-05,ＡＣＡＳ４株式会社,,株式会社,埼玉県,さいたま市西区,宮前町８２１番地,,11,101,3310046,,,2021-11-05,合併による解散等,2010401157790,令和３年１１月１日東京都港区浜松町二丁目２番１５号浜松町ダイヤビル２階株式会社日新化成（2010401157790）に合併し解散,2018-10-23,1,,,,,エーシーエーエスフォー,0
1830,7010002027983,登記記録の閉鎖等,0,2021-11-10,2021-11-09,有限会社丸古,,有限会社,東京都,千代田区,二番町１０番地４３,,13,101,1020084,,,2021-11-09,清算の結了等,,,2015-10-05,1,,,,,マルコ,0
1832,7010003027248,登記記録の閉鎖等,0,2021-11-10,2021-11-05,合同会社ＡＬＥＲＯ３３,,合同会社,東京都,千代田区,神田美土代町９番１号,,13,101,1010053,,,2021-11-05,清算の結了等,,,2018-03-30,1,,,,,アレーロサーティスリー,0
1891,7011802009907,登記記録の閉鎖等,0,2021-11-10,2021-11-08,有限会社今井製本所,,有限会社,東京都,足立区,本木西町７番１９号,,13,121,1230856,,,2021-11-08,清算の結了等,,,2015-10-05,1,,,,,イマイセイホンジョ,0
1903,7013302010270,登記記録の閉鎖等,0,2021-11-10,2021-11-02,有限会社や＿重,00060073,有限会社,東京都,豊島区,目白３丁目４番１３号,,13,116,1710031,,,2021-11-02,清算の結了等,,,2015-10-05,1,,,,,ヤブジュウ,0
1913,7020002003785,登記記録の閉鎖等,0,2021-11-10,2021-11-05,有限会社石綿建築設計室,,有限会社,神奈川県,横浜市緑区,鴨居５丁目５番１１号,,14,113,2260003,,,2021-11-05,清算の結了等,,,2015-10-05,1,,,,,イシワタケンチクセッケイシツ,0
1917,7020005011265,登記記録の閉鎖等,0,2021-11-10,2021-11-05,一般社団法人日本システムバス・キッチン認定資格者協会,,その他の設立登記法人,神奈川県,横浜市青葉区,市ケ尾町１１７０番地１,,14,117,2250024,,,2021-11-05,清算の結了等,,,2015-10-05,1,,,,,ニホンシステムバスキッチンニンテイシカクシャキョウカイ,0
1918,7020005013443,登記記録の閉鎖等,0,2021-11-10,2021-11-05,一般社団法人患者安全開発センター,,その他の設立登記法人,神奈川県,横浜市青葉区,藤が丘２丁目８番地２－５０２,,14,117,2270043,,,2021-11-05,清算の結了等,,,2017-12-25,1,,,,,カンジャアンゼンカイハツセンター,0
1922,7021002033228,登記記録の閉鎖等,0,2021-11-10,2021-11-05,有限会社マルイチ商店,,有限会社,神奈川県,厚木市,妻田東３丁目１３番１２号,,14,212,2430813,,,2021-11-05,清算の結了等,,,2015-10-05,1,,,,,マルイチショウテン,0
1929,7030001041645,登記記録の閉鎖等,0,2021-11-10,2021-11-02,正和鉄工株式会社,,株式会社,埼玉県,上尾市,大字領家字中井１１２９番地１,,11,219,3620066,,,2021-11-02,清算の結了等,,,2015-10-05,1,,,,,ショウテッコウ,0
1937,7040001042469,登記記録の閉鎖等,0,2021-11-10,2021-11-04,株式会社オーケードリーム,,株式会社,千葉県,習志野市,大久保２丁目４番３号,,12,216,2750011,,,2021-11-04,清算の結了等,,,2015-10-05,1,,,,,オーケードリーム,0
1942,7050001000153,登記記録の閉鎖等,0,2021-11-10,2021-11-05,株式会社茨城経営コンサルティング,00021771,株式会社,茨城県,水戸市,柵町１丁目５番１３号,,08,201,3100802,,,2021-11-05,清算の結了等,,,2015-10-05,1,,,,,イバラキケイエイコンサルティング,0
1947,7050003005761,登記記録の閉鎖等,0,2021-11-10,2021-11-04,ホサインインターナショナル合同会社,,合同会社,茨城県,稲敷郡阿見町,大字小池２番地,,08,443,3001157,,,2021-11-04,清算の結了等,,,2021-04-09,1,,,,,ホサインインターナショナル,0
1950,7060001022337,登記記録の閉鎖等,0,2021-11-10,2021-11-01,北関東新聞販売株式会社,,株式会社,栃木県,さくら市,氏家３２７０番地４７,,09,214,3291311,,,2021-11-01,合併による解散等,2060001019511,令和３年１１月１日栃木県足利市堀込町２９１２番地北関東新聞販売株式会社（2060001019511）に合併し解散,2015-10-05,1,,,,,キタカントウシンブンハンバイ,0
1960,7080401020186,登記記録の閉鎖等,0,2021-11-10,2021-11-08,株式会社デイズ,,株式会社,静岡県,浜松市中区,瓜内町１８８２番地,,22,131,4300854,,,2021-11-08,清算の結了等,,,2015-10-05,1,,,,,デイズ,0
1978,7120101038078,登記記録の閉鎖等,0,2021-11-10,2021-11-04,株式会社共栄技研,,株式会社,大阪府,岸和田市,西大路町８３番地の２４,,27,202,5960802,,,2021-11-04,清算の結了等,,,2015-10-05,1,,,,,キョウエイギケン,0
2003,7130005006171,登記記録の閉鎖等,0,2021-11-10,2021-11-05,特定非営利活動法人京都親と子さぽーとあんの会,,その他の設立登記法人,京都府,京都市西京区,大枝西新林町３丁目３番地の５３,,26,111,6101141,,,2021-11-05,清算の結了等,,,2015-10-05,1,,,,,キョウトオヤトコサポートアンノカイ,0
2023,7180001121903,登記記録の閉鎖等,0,2021-11-10,2021-11-05,株式会社トリニテート,,株式会社,愛知県,名古屋市天白区,焼山２丁目８０１番地の１,,23,116,4680002,,,2021-11-05,清算の結了等,,,2016-01-28,1,,,,,トリニテート,0
2032,7180002086336,登記記録の閉鎖等,0,2021-11-10,2021-11-04,有限会社ミモザ,,有限会社,愛知県,半田市,有楽町６丁目２０番地,,23,205,4750837,,,2021-11-04,清算の結了等,,,2015-10-05,1,,,,,ミモザ,0
2037,7190001010700,登記記録の閉鎖等,0,2021-11-10,2021-11-04,株式会社レボルテ,,株式会社,三重県,松阪市,垣鼻町１０３４番地の５,,24,204,5150033,,,2021-11-04,清算の結了等,,,2015-10-05,1,,,,,レボルテ,0
2045,7220001002396,登記記録の閉鎖等,0,2021-11-10,2021-11-05,協伸産業株式会社,,株式会社,石川県,金沢市,桂町ロ２５９番地,,17,201,9200334,,,2021-11-05,清算の結了等,,,2015-10-05,1,,,,,キョウシンサンギョウ,0
2067,7260001029691,登記記録の閉鎖等,0,2021-11-10,2021-11-09,株式会社平翠軒,,株式会社,岡山県,倉敷市,本町８番８号,,33,202,7100054,,,2021-11-09,清算の結了等,,,2016-06-13,1,,,,,ヘイスイケン,0
2095,7350001005056,登記記録の閉鎖等,0,2021-11-10,2021-11-05,株式会社三和テクニカル,,株式会社,宮崎県,宮崎市,清水１丁目１３番２２号,,45,201,8800021,,,2021-11-05,清算の結了等,,,2015-10-05,1,,,,,サンワテクニカル,0
2097,7360001024666,登記記録の閉鎖等,0,2021-11-10,2021-11-04,株式会社大和設備興業,,株式会社,沖縄県,沖縄市,安慶田１丁目１７番２６号,,47,211,9040012,,,2021-11-04,清算の結了等,,,2018-10-03,1,,,,,ダイワセツビコウギョウ,0
2119,7430001005741,登記記録の閉鎖等,0,2021-11-10,2021-11-04,株式会社興伸電設,,株式会社,北海道,札幌市西区,西野三条１丁目２番１３号,,01,107,0630033,,,2021-11-04,清算の結了等,,,2015-10-05,1,,,,,コウシンデンセツ,0
2128,7470002003518,登記記録の閉鎖等,0,2021-11-10,2021-11-08,有限会社静,,有限会社,香川県,高松市,中野町４番１０号,,37,201,7600008,,,2021-11-08,清算の結了等,,,2015-10-05,1,,,,,シズカ,0
2144,8010003030597,登記記録の閉鎖等,0,2021-11-10,2021-11-05,ＭＣＤ代田橋アセット合同会社,,合同会社,東京都,千代田区,大手町１丁目５番１号,,13,101,1000004,,,2021-11-05,清算の結了等,,,2019-09-18,1,,,,,エムシーディーダイタバシアセット,0
2147,8010005024317,登記記録の閉鎖等,0,2021-11-10,2021-11-08,一般社団法人さきがけホールディングス・ワン,,その他の設立登記法人,東京都,千代田区,丸の内３丁目１番１号東京共同会計事務所内,,13,101,1000005,,,2021-11-08,清算の結了等,,,2015-10-05,1,,,,,サキガケホールディングスワン,0
2154,8010401159682,登記記録の閉鎖等,0,2021-11-10,2021-10-27,株式会社ヘアバスター,,株式会社,東京都,港区,芝浦２丁目１４番１８号サカイビル４Ｆ,,13,103,1080023,,,2021-10-27,清算の結了等,,,2021-04-19,1,,,,,ヘアバスター,0
2188,8011303001924,登記記録の閉鎖等,0,2021-11-10,2021-11-05,合同会社ｎａｎｉｉｒｏ,,合同会社,神奈川県,厚木市,恩名１丁目７番６５号,,14,212,2430032,,,2021-11-05,清算の結了等,,,2015-10-05,1,,,,,,0
2197,8011805002131,登記記録の閉鎖等,0,2021-11-10,2021-11-09,特定非営利活動法人嬉泉会,,その他の設立登記法人,東京都,葛飾区,東金町１丁目３５番１０号,,13,122,1250041,,,2021-11-09,清算の結了等,,,2015-10-05,1,,,,,キセンカイ,0
2208,8020001006549,登記記録の閉鎖等,0,2021-11-10,2021-11-05,株式会社トレックス,,株式会社,神奈川県,横浜市港南区,日限山１丁目３８番９号,,14,111,2330015,,,2021-11-05,清算の結了等,,,2015-10-05,1,,,,,トレックス,0
2215,8020002053012,登記記録の閉鎖等,0,2021-11-10,2021-11-08,有限会社清裕事務所,,有限会社,神奈川県,横浜市保土ケ谷区,境木本町１５番１号,,14,106,2400033,,,2021-11-08,清算の結了等,,,2015-10-05,1,,,,,セイユウジムショ,0
2219,8021002070303,登記記録の閉鎖等,0,2021-11-10,2021-11-05,宝飾久本有限会社,,有限会社,神奈川県,逗子市,逗子５丁目１１－７,,14,208,2490006,,,2021-11-05,清算の結了等,,,2015-10-05,1,,,,,ホウショクヒサモト,0
2220,8030001006663,登記記録の閉鎖等,0,2021-11-10,2021-11-05,株式会社日新化成,,株式会社,埼玉県,さいたま市西区,宮前町８２１番地,,11,101,3310046,,,2021-11-05,合併による解散等,2010401157790,令和３年１１月１日東京都港区浜松町二丁目２番１５号浜松町ダイヤビル２階株式会社日新化成（2010401157790）に合併し解散,2015-10-05,1,,,,,ニッシンカセイ,0
2223,8030001054844,登記記録の閉鎖等,0,2021-11-10,2021-11-01,株式会社莎芭,,株式会社,埼玉県,川越市,大字鯨井１３８番地,,11,201,3500815,,,2021-11-01,合併による解散等,1030001054958,令和３年１１月１日埼玉県川越市大字鯨井１３８番地株式会社壽（1030001054958）に合併し解散,2015-10-05,1,,,,,サバ,0
2225,8030001063911,登記記録の閉鎖等,0,2021-11-10,2021-11-01,株式会社幸栄観光,,株式会社,埼玉県,越谷市,大字大杉９０９番地,,11,222,3430005,,,2021-11-01,清算の結了等,,,2015-10-05,1,,,,,コウエイカンコウ,0
2226,8030001081954,登記記録の閉鎖等,0,2021-11-10,2021-11-02,レンウィット株式会社,,株式会社,埼玉県,川口市,川口１丁目５番１４号スカイフロントタワー川口２７０３号室,,11,203,3320015,,,2021-11-02,清算の結了等,,,2015-10-05,1,,,,,レンウィット,0
2232,8030002122393,登記記録の閉鎖等,0,2021-11-10,2021-11-02,有限会社山中ハウジング,,有限会社,埼玉県,秩父郡横瀬町,大字横瀬６４３３番地３,,11,361,3680072,,,2021-11-02,清算の結了等,,,2015-10-05,1,,,,,ヤマナカハウジング,0
2238,8040005015981,登記記録の閉鎖等,0,2021-11-10,2021-11-02,特定非営利活動法人都市動物協会,,その他の設立登記法人,千葉県,鴨川市,前原３５９番地７１,,12,223,2960002,,,2021-11-02,清算の結了等,,,2015-10-05,1,,,,,トシドウブツキョウカイ,0
2244,8060002009101,登記記録の閉鎖等,0,2021-11-10,2021-11-02,有限会社野州プラント工業,,有限会社,栃木県,宇都宮市,田野町８４７番地４,,09,201,3210344,,,2021-11-02,清算の結了等,,,2015-10-05,1,,,,,ヤシュウプラントコウギョウ,0
2254,8080005004469,登記記録の閉鎖等,0,2021-11-10,2021-11-09,丸十鵜網茶農業協同組合,,その他の設立登記法人,静岡県,島田市,鵜網９２番地,,22,209,4270031,,,2021-11-09,清算の結了等,,,2015-10-05,1,,,,,マルジュウウアミチャ,0
2262,8090005000632,登記記録の閉鎖等,0,2021-11-10,2021-11-04,山梨報徳機工協同組合,,その他の設立登記法人,山梨県,甲府市,住吉４丁目６番２４号古守工業株式会社内,,19,201,4000851,,,2021-11-04,清算の結了等,,,2015-10-05,1,,,,,ヤマナシホウトクキコウ,0
2263,8100002023543,登記記録の閉鎖等,0,2021-11-10,2021-11-04,有限会社コリンヌ,,有限会社,長野県,安曇野市,穂高有明２１０５番地５７５,,20,220,3998301,,,2021-11-04,清算の結了等,,,2015-10-05,1,,,,,コリンヌ,0
2288,8120101034324,登記記録の閉鎖等,0,2021-11-10,2021-11-05,株式会社アニック,,株式会社,大阪府,河内長野市,千代田南町１４番１６号,,27,216,5860018,,,2021-11-05,清算の結了等,,,2015-10-05,1,,,,,アニック,0
2294,8122001021014,登記記録の閉鎖等,0,2021-11-10,2021-11-08,橘商事株式会社,,株式会社,大阪府,柏原市,大正３丁目１番３８号,,27,221,5820009,,,2021-11-08,清算の結了等,,,2015-10-05,1,,,,,,0
2300,8140001004210,登記記録の閉鎖等,0,2021-11-10,2021-11-04,株式会社ユメフル,,株式会社,兵庫県,神戸市灘区,八幡町２丁目６番１２号,,28,102,6570051,,,2021-11-04,清算の結了等,,,2015-10-05,1,,,,,ユメフル,0
2307,8140005002895,登記記録の閉鎖等,0,2021-11-10,2021-11-08,特定非営利活動法人輝ナビ北神,,その他の設立登記法人,兵庫県,神戸市北区,藤原台中町６丁目４番６号,,28,109,6511302,,,2021-11-08,清算の結了等,,,2015-10-05,1,,,,,カガヤキナビホクシン,0
2309,8170002004693,登記記録の閉鎖等,0,2021-11-10,2021-11-09,有限会社ディアライフコーポレーション,,有限会社,和歌山県,和歌山市,屋形町５丁目１７番地,,30,201,6408151,,,2021-11-09,清算の結了等,,,2015-10-05,1,,,,,ディアライフコーポレーション,0
2313,8180001129301,登記記録の閉鎖等,0,2021-11-10,2021-11-04,株式会社メビアーク,,株式会社,愛知県,春日井市,味美上ノ町２２５９番地１,,23,206,4860965,,,2021-11-04,清算の結了等,,,2017-09-06,1,,,,,メビアーク,0
2349,8290001034960,登記記録の閉鎖等,0,2021-11-10,2021-11-02,株式会社ブラザーコーポレーション,,株式会社,福岡県,福岡市早良区,飯倉８丁目２７番８号,,40,137,8140161,,,2021-11-02,清算の結了等,,,2015-10-05,1,,,,,ブラザーコーポレーション,0
2372,8380005011311,登記記録の閉鎖等,0,2021-11-10,2021-11-08,大熊町復興建設協同組合,,その他の設立登記法人,福島県,いわき市,平字四町目１８番地いわき相双ビル２階,,07,204,9708026,,,2021-11-08,清算の結了等,,,2015-10-05,1,,,,,オオクママチフッコウケンセツ,0
2376,8410002006153,登記記録の閉鎖等,0,2021-11-10,2021-11-04,有限会社男鹿中央代行,,有限会社,秋田県,男鹿市,船川港船川字小沢田３０番地１３,,05,206,0100511,,,2021-11-04,清算の結了等,,,2015-10-05,1,,,,,オガチュウオウダイコウ,0
2384,8430002018997,登記記録の閉鎖等,0,2021-11-10,2021-11-04,有限会社松田クリーニング,,有限会社,北海道,札幌市中央区,南七条西１１丁目１番１６号,,01,101,0640807,,,2021-11-04,清算の結了等,,,2015-10-05,1,,,,,マツダクリーニング,0
2386,8430005000250,登記記録の閉鎖等,0,2021-11-10,2021-11-04,大法山慈眼寺,,その他の設立登記法人,北海道,札幌市北区,篠路一条８丁目２番１７号,,01,102,0028021,,,2021-11-04,清算の結了等,,,2015-10-05,1,,,,,ダイホウサンジゲンジ,0
2398,9010001193890,登記記録の閉鎖等,0,2021-11-10,2021-11-04,株式会社ＢＯＮＤ　ＵＰ,,株式会社,東京都,中央区,新川２丁目２１番１０号,,13,102,1040033,,,2021-11-04,合併による解散等,6290001022488,令和３年１０月３１日福岡市博多区博多駅前三丁目１３番１８号株式会社ホゼナル（6290001022488）に合併し解散,2018-08-08,1,,,,,ボンドアップ,0
2451,9011502014602,登記記録の閉鎖等,0,2021-11-10,2021-11-04,有限会社三恵社,,有限会社,東京都,北区,神谷１丁目２番３－９０３号,,13,117,1150043,,,2021-11-04,清算の結了等,,,2015-10-05,1,,,,,サンケイシャ,0
2463,9012802002445,登記記録の閉鎖等,0,2021-11-10,2021-11-09,豊地質有限会社,,有限会社,東京都,立川市,西砂町６丁目９番地の５,,13,202,1900034,,,2021-11-09,清算の結了等,,,2015-10-05,1,,,,,ユタカチシツ,0
2467,9013303005383,登記記録の閉鎖等,0,2021-11-10,2021-11-02,Ｓｕｐｅｒｉｏｒ　Ｄｉｇｉｔａｌ合同会社,,合同会社,東京都,豊島区,南池袋１丁目１１番１９号グランドミレーニア５０９号,,13,116,1710022,,,2021-11-02,清算の結了等,,,2020-10-30,1,,,,,スーペリアデジタル,0
2474,9020003004392,登記記録の閉鎖等,0,2021-11-10,2021-11-05,合資会社ＥＩＳＨＩＮ,,合資会社,神奈川県,横浜市青葉区,すすき野２丁目５番地すすき野第二団地４棟２０４号,,14,117,2250021,,,2021-11-05,清算の結了等,,,2015-10-05,1,,,,,エイシン,0
2482,9021002045361,登記記録の閉鎖等,0,2021-11-10,2021-11-04,東和水道有限会社,,有限会社,神奈川県,海老名市,柏ケ谷５８２番地,,14,215,2430402,,,2021-11-04,清算の結了等,,,2015-10-05,1,,,,,トウワスイドウ,0
2490,9030001126691,登記記録の閉鎖等,0,2021-11-10,2021-11-09,浅倉建工株式会社,,株式会社,埼玉県,川口市,上青木西４丁目１６番３号,,11,203,3330845,,,2021-11-09,清算の結了等,,,2018-07-24,1,,,,,アサクラケンコウ,0
2508,9050002023977,登記記録の閉鎖等,0,2021-11-10,2021-11-05,有限会社柴被服縫製所,,有限会社,茨城県,古河市,錦町３番２０号,,08,204,3060037,,,2021-11-05,清算の結了等,,,2015-10-05,1,,,,,,0
2511,9060001025858,登記記録の閉鎖等,0,2021-11-10,2021-11-02,株式会社須永製作所,,株式会社,栃木県,足利市,西新井町３２４８番地,,09,202,3260837,,,2021-11-02,清算の結了等,,,2015-10-05,1,,,,,スナガセイサクショ,0
2533,9120001163858,登記記録の閉鎖等,0,2021-11-10,2021-11-08,株式会社ネオライファ,,株式会社,大阪府,大阪市中央区,南船場４丁目４番３号心斎橋東急ビル５階５０７号室,,27,128,5420081,,,2021-11-08,清算の結了等,,,2015-10-05,1,,,,,,0
2545,9120002012758,登記記録の閉鎖等,0,2021-11-10,2021-11-04,有限会社河村開建築研究所,,有限会社,大阪府,堺市北区,東上野芝町２丁３３３－５,,27,146,5918035,,,2021-11-04,清算の結了等,,,2015-10-05,1,,,,,カワムラヒラクケンチクケンキュウショ,0
2556,9120905001997,登記記録の閉鎖等,0,2021-11-10,2021-11-04,特定非営利活動法人アジア教育施設支援協会,,その他の設立登記法人,大阪府,高槻市,野見町５番１５号,,27,207,5690077,,,2021-11-04,清算の結了等,,,2015-10-05,1,,,,,アジアキョウイクシセツシエンキョウカイ,0
2579,9170002001070,登記記録の閉鎖等,0,2021-11-10,2021-11-09,有限会社紀州テック,,有限会社,和歌山県,和歌山市,栗栖字中須１０８４番地の１,,30,201,6408305,,,2021-11-09,清算の結了等,,,2015-10-05,1,,,,,キシュウテック,0
2600,9200003002923,登記記録の閉鎖等,0,2021-11-10,2021-11-09,おおすがケアプランサービス合同会社,,合同会社,岐阜県,岐阜市,大菅南６番１１号,,21,201,5010119,,,2021-11-09,清算の結了等,,,2015-10-05,1,,,,,オオスガケアプランサービス,0
2609,9240001046019,登記記録の閉鎖等,0,2021-11-10,2021-11-09,岡本保温株式会社,,株式会社,広島県,呉市,西惣付町１２番３号,,34,202,7370062,,,2021-11-09,清算の結了等,,,2015-10-05,1,,,,,オカモトホオン,0
2610,9240001048576,登記記録の閉鎖等,0,2021-11-10,2021-11-08,成亘工業株式会社,,株式会社,広島県,広島市西区,井口２丁目５番２３－３０２号,,34,104,7330842,,,2021-11-08,清算の結了等,,,2015-12-08,1,,,,,,0
2614,9240002052750,登記記録の閉鎖等,0,2021-11-10,2021-11-05,有限会社則末工務店,,有限会社,広島県,世羅郡世羅町,大字小谷３４３番地の１,,34,462,7293301,,,2021-11-05,清算の結了等,,,2015-10-05,1,,,,,ノリスエコウムテン,0
2643,9340002022553,登記記録の閉鎖等,0,2021-11-10,2021-11-04,コウユウ建設有限会社,,有限会社,鹿児島県,出水市,西出水町１２７７番地,,46,208,8990213,,,2021-11-04,清算の結了等,,,2015-10-05,1,,,,,コウユウケンセツ,0
2653,9380001027335,登記記録の閉鎖等,0,2021-11-10,2021-11-05,株式会社成梁,,株式会社,福島県,郡山市,備前舘１丁目５０,,07,203,9638044,,,2021-11-05,清算の結了等,,,2016-09-26,1,,,,,セイリョウ,0
2655,9400002011021,登記記録の閉鎖等,0,2021-11-10,2021-11-05,有限会社花崎自動車鈑金塗装,00085653,有限会社,岩手県,下閉伊郡山田町,船越第９地割５番地２,,03,482,0281371,,,2021-11-05,清算の結了等,,,2015-10-05,1,,,,,ハナザキジドウシャバンキントソウ,0
2656,9402702000014,登記記録の閉鎖等,0,2021-11-10,2021-11-05,有限会社あべや,,有限会社,岩手県,大船渡市,大船渡町字茶屋前５６番地５,,03,203,0220002,,,2021-11-05,清算の結了等,,,2015-10-05,1,,,,,アベヤ,0
2658,9430001052179,登記記録の閉鎖等,0,2021-11-10,2021-11-02,株式会社市原,,株式会社,北海道,岩内郡共和町,ワイス２５６番地３５,,01,401,0482141,,,2021-11-02,清算の結了等,,,2015-10-05,1,,,,,イチハラ,0
2665,9470002001701,登記記録の閉鎖等,0,2021-11-10,2021-11-08,有限会社尾崎翠香園,00005239,有限会社,香川県,高松市,西ハゼ町１９６番地,,37,201,7618053,,,2021-11-08,清算の結了等,,,2015-10-05,1,,,,,オザキスイコウエン,0
