sequenceNumber,corporateNumber,process,correct,updateDate,changeDate,name,nameImageId,kind,prefectureName,cityName,streetNumber,addressImageId,prefectureCode,cityCode,postCode,addressOutside,addressOutsideImageId,closeDate,closeCause,successorCorporateNumber,changeCause,assignmentDate,latest,enName,enPrefectureName,enCityName,enAddressOutside,furigana,hihyoji
12,1010002003841,登記記録の閉鎖等,0,2022-06-24,2022-06-16,有限会社田村産業,,有限会社,東京都,文京区,本駒込６丁目９番２号,,13,105,1130021,,,2022-06-16,清算の結了等,,,2015-10-05,1,,,,,タムラサンギョウ,0
13,1010002030506,登記記録の閉鎖等,0,2022-06-24,2022-06-16,有限会社ケー・エヌ・ピー,,有限会社,東京都,千代田区,外神田５丁目５番７号佐野ビル,,13,101,1010021,,,2022-06-16,清算の結了等,,,2015-10-05,1,,,,,ケーエヌピー,0
14,1010002040959,登記記録の閉鎖等,0,2022-06-24,2022-06-17,有限会社藍建築工房,,有限会社,東京都,千代田区,神田佐久間町３丁目２１番７号,,13,101,1010025,,,2022-06-17,清算の結了等,,,2015-10-05,1,,,,,アイケンチクコウボウ,0
19,1010005026105,登記記録の閉鎖等,0,2022-06-24,2022-06-22,一般社団法人板橋本蓮沼開発,,その他の設立登記法人,東京都,千代田区,平河町１丁目６番１５号シルスフィア会計事務所内,,13,101,1020093,,,2022-06-22,清算の結了等,,,2016-12-09,1,,,,,イタバシモトハスヌマカイハツ,0
31,1010402012863,登記記録の閉鎖等,0,2022-06-24,2022-06-08,有限会社目黒ホーム,,有限会社,東京都,港区,白金台５丁目２２番１１号,,13,103,1080071,,,2022-06-08,清算の結了等,,,2015-10-05,1,,,,,メグロホーム,0
35,1010403023835,登記記録の閉鎖等,0,2022-06-24,2022-06-08,合同会社ナイス,,合同会社,東京都,港区,六本木３丁目１４番１２号六本木３丁目ビル７０７号室,,13,103,1060032,,,2022-06-08,清算の結了等,,,2020-10-02,1,,,,,ナイス,0
55,1011102011511,登記記録の閉鎖等,0,2022-06-24,2022-06-22,有限会社平成企画,,有限会社,東京都,新宿区,早稲田鶴巻町５１８番地牛島ハウス４０１,,13,104,1620041,,,2022-06-22,清算の結了等,,,2015-10-05,1,,,,,ヘイセイキカク,0
89,1020003015728,登記記録の閉鎖等,0,2022-06-24,2022-06-16,合同会社六二カンパニー,,合同会社,神奈川県,川崎市多摩区,長沢１丁目２６番１号,,14,135,2140035,,,2022-06-16,清算の結了等,,,2019-03-07,1,,,,,ロクニカンパニー,0
93,1021001046970,登記記録の閉鎖等,0,2022-06-24,2022-06-17,株式会社総設工業,,株式会社,神奈川県,相模原市中央区,中央３丁目８番２号,,14,152,2520239,,,2022-06-17,清算の結了等,,,2015-10-05,1,,,,,ソウセツコウギョウ,0
100,1021002050889,登記記録の閉鎖等,0,2022-06-24,2022-06-20,有限会社新江自動車修理工場,,有限会社,神奈川県,小田原市,飯田岡８６番地ハイツ飯田岡ＩＩ－１０８号,00124664,14,206,2500854,,,2022-06-20,清算の結了等,,,2015-10-05,1,,,,,アラエジドウシャシュウリコウジョウ,0
101,1021002059443,登記記録の閉鎖等,0,2022-06-24,2022-06-21,有限会社府川建設重機,,有限会社,神奈川県,平塚市,寺田縄８３７番地の１,,14,203,2591215,,,2022-06-21,清算の結了等,,,2015-10-05,1,,,,,フカワケンセツジュウキ,0
113,1030001126402,登記記録の閉鎖等,0,2022-06-24,2022-06-14,ダイヤ・ラバー・パートナーズ株式会社,,株式会社,埼玉県,春日部市,栄町１丁目２３１番地１,,11,214,3440058,,,2022-06-14,清算の結了等,,,2018-07-03,1,,,,,ダイヤラバーパートナーズ,0
130,1090002011952,登記記録の閉鎖等,0,2022-06-24,2022-06-17,有限会社クリーン渡辺,,有限会社,山梨県,南都留郡鳴沢村,３５４番地,,19,429,4010320,,,2022-06-17,清算の結了等,,,2015-10-05,1,,,,,クリーンワタナベ,0
132,1100002013518,登記記録の閉鎖等,0,2022-06-24,2022-06-21,有限会社アタック工業,,有限会社,長野県,上田市,諏訪形５１０番地３,,20,203,3860032,,,2022-06-21,清算の結了等,,,2015-10-05,1,,,,,アタックコウギョウ,0
134,1110002011586,登記記録の閉鎖等,0,2022-06-24,2022-06-20,有限会社荒井電気,,有限会社,新潟県,新潟市西蒲区,赤鏥９３４番地１７,,15,108,9530042,,,2022-06-20,清算の結了等,,,2015-10-05,1,,,,,アライデンキ,0
135,1110002022311,登記記録の閉鎖等,0,2022-06-24,2022-06-20,有限会社いまい電装,,有限会社,新潟県,上越市,東本町２丁目５番２４号,,15,222,9430825,,,2022-06-20,清算の結了等,,,2015-10-05,1,,,,,イマイデンソウ,0
160,1120105009254,登記記録の閉鎖等,0,2022-06-24,2022-06-22,特定非営利活動法人さんらい,,その他の設立登記法人,大阪府,堺市西区,浜寺元町４丁４８０－１,,27,144,5928343,,,2022-06-22,清算の結了等,,,2020-07-29,1,,,,,サンライ,0
174,1140001115955,登記記録の閉鎖等,0,2022-06-24,2022-06-21,株式会社タイヨー,,株式会社,兵庫県,尼崎市,水堂町３丁目１５番１９号,,28,202,6610026,,,2022-06-21,清算の結了等,,,2019-12-26,1,,,,,タイヨー,0
209,1240001002912,登記記録の閉鎖等,0,2022-06-24,2022-06-21,株式会社クリエイトシステム,,株式会社,広島県,広島市西区,横川新町６番６－１９１０号,,34,104,7330013,,,2022-06-21,清算の結了等,,,2015-10-05,1,,,,,クリエイトシステム,0
234,1310005007784,登記記録の閉鎖等,0,2022-06-24,2022-06-20,一般社団法人ささえ愛ネット長崎,,その他の設立登記法人,長崎県,長崎市,手熊町２３１番地,,42,201,8511135,,,2022-06-20,清算の結了等,,,2015-10-05,1,,,,,ササエアイネットナガサキ,0
238,1340001000195,登記記録の閉鎖等,0,2022-06-24,2022-06-22,アイ技研株式会社,,株式会社,鹿児島県,鹿児島市,東坂元２丁目６１番２号,,46,201,8920861,,,2022-06-22,清算の結了等,,,2015-10-05,1,,,,,,0
255,1380002025287,登記記録の閉鎖等,0,2022-06-24,2022-06-14,有限会社西山商店,,有限会社,福島県,いわき市,四倉町山田小湊字反沼６番地の１,,07,204,9790223,,,2022-06-14,清算の結了等,,,2015-10-05,1,,,,,ニシヤマショウテン,0
266,1430002048712,登記記録の閉鎖等,0,2022-06-24,2022-06-13,有限会社ハムソフト,,有限会社,北海道,恵庭市,美咲野４丁目６番６号,,01,231,0611427,,,2022-06-13,清算の結了等,,,2015-10-05,1,,,,,ハムソフト,0
279,1500001012083,登記記録の閉鎖等,0,2022-06-24,2022-06-22,ナルミ電機株式会社,,株式会社,愛媛県,今治市,郷新屋敷町４丁目２番２２号,,38,202,7940826,,,2022-06-22,清算の結了等,,,2015-10-05,1,,,,,ナルミデンキ,0
287,2010003028878,登記記録の閉鎖等,0,2022-06-24,2022-06-17,合同会社ＡＬＥＲＯ３８,,合同会社,東京都,千代田区,神田美土代町９番１号,,13,101,1010053,,,2022-06-17,清算の結了等,,,2018-12-12,1,,,,,アレーロサーティーエイト,0
291,2010005026104,登記記録の閉鎖等,0,2022-06-24,2022-06-22,一般社団法人横浜鶴見開発,,その他の設立登記法人,東京都,千代田区,平河町１丁目６番１５号シルスフィア会計事務所内,,13,101,1020093,,,2022-06-22,清算の結了等,,,2016-12-09,1,,,,,ヨコハマツルミカイハツ,0
292,2010005026475,登記記録の閉鎖等,0,2022-06-24,2022-06-22,一般社団法人西船橋スリー開発,,その他の設立登記法人,東京都,千代田区,平河町１丁目６番１５号シルスフィア会計事務所内,,13,101,1020093,,,2022-06-22,清算の結了等,,,2017-02-23,1,,,,,ニシフナバシスリーカイハツ,0
293,2010005026616,登記記録の閉鎖等,0,2022-06-24,2022-06-22,一般社団法人武蔵浦和開発,,その他の設立登記法人,東京都,千代田区,平河町１丁目６番１５号シルスフィア会計事務所内,,13,101,1020093,,,2022-06-22,清算の結了等,,,2017-03-17,1,,,,,ムサシウラワカイハツ,0
302,2010401144590,登記記録の閉鎖等,0,2022-06-24,2022-06-08,ＢＩＧＬＩＦＥ　Ｊａｐａｎ株式会社,,株式会社,東京都,港区,南麻布３丁目１９番２３号オーク南麻布ビル２階,,13,103,1060047,,,2022-06-08,清算の結了等,,,2019-03-26,1,,,,,ビッグライフジャパン,0
317,2010901006150,登記記録の閉鎖等,0,2022-06-24,2022-06-23,株式会社スタジオ・リフ,,株式会社,東京都,狛江市,猪方４丁目２番１４号,,13,219,2010015,,,2022-06-23,清算の結了等,,,2015-10-05,1,,,,,スタジオリフ,0
327,2011003007401,登記記録の閉鎖等,0,2022-06-24,2022-06-15,Ｄａｔａ　Ｇｌｏｖｅ　ＩＴ　Ｓｏｌｕｔｉｏｎｓ合同会社,,合同会社,東京都,渋谷区,桜丘町２６番１号セルリアンタワー１５階,,13,113,1500031,,,2022-06-15,清算の結了等,,,2017-01-31,1,,,,,データグローブアイティーソリューション,0
333,2011005008174,登記記録の閉鎖等,0,2022-06-24,2022-06-14,花房・広田税理士法人,,その他の設立登記法人,東京都,渋谷区,道玄坂１丁目１５番７号セントラル道玄坂７Ｆ,,13,113,1500043,,,2022-06-14,清算の結了等,,,2019-07-05,1,,,,,ハナフサヒロタ,0
374,2030003012913,登記記録の閉鎖等,0,2022-06-24,2022-06-23,合同会社サンライズ,,合同会社,東京都,清瀬市,野塩２丁目３８７番地,,13,221,2040004,,,2022-06-23,清算の結了等,,,2019-01-15,1,,,,,サンライズ,0
388,2040003009363,登記記録の閉鎖等,0,2022-06-24,2022-06-21,ワンアセットマネジメント合同会社,,合同会社,千葉県,市川市,宮久保１丁目９番１－４１２号,,12,203,2720822,,,2022-06-21,清算の結了等,,,2016-11-30,1,,,,,ワンアセットマネジメント,0
389,2040003009859,登記記録の閉鎖等,0,2022-06-24,2022-06-15,合同会社田澤工務店,,合同会社,千葉県,四街道市,美しが丘２丁目４番３号,,12,228,2840045,,,2022-06-15,清算の結了等,,,2017-03-27,1,,,,,タザワコウムテン,0
412,2100002010786,登記記録の閉鎖等,0,2022-06-24,2022-06-20,有限会社コイケ住宅,,有限会社,長野県,佐久市,原１７０番地の５,,20,217,3850052,,,2022-06-20,清算の結了等,,,2015-10-05,1,,,,,コイケジュウタク,0
413,2110002031105,登記記録の閉鎖等,0,2022-06-24,2022-06-20,有限会社小林興産,,有限会社,新潟県,長岡市,東町９番３号,,15,202,9400224,,,2022-06-20,清算の結了等,,,2015-10-05,1,,,,,コバヤシコウサン,0
505,2340001012495,登記記録の閉鎖等,0,2022-06-24,2022-06-22,株式会社阿久根商店,,株式会社,鹿児島県,南さつま市,加世田小湊９０３５番地１,,46,220,8971122,,,2022-06-22,清算の結了等,,,2015-10-05,1,,,,,アクネショウテン,0
523,2380001017193,登記記録の閉鎖等,0,2022-06-24,2022-06-17,会津若松水産物精算株式会社,,株式会社,福島県,会津若松市,一箕町大字鶴賀字船ケ森東４７０番地,,07,202,9650006,,,2022-06-17,清算の結了等,,,2015-10-05,1,,,,,アイヅワカマツスイサンブツセイサン,0
544,2480002011796,登記記録の閉鎖等,0,2022-06-24,2022-06-23,有限会社昭和不動産,,有限会社,徳島県,板野郡板野町,大寺字高樹１４５番地４,,36,404,7790105,,,2022-06-23,清算の結了等,,,2015-10-05,1,,,,,ショウワフドウサン,0
546,2490002012174,登記記録の閉鎖等,0,2022-06-24,2022-06-15,有限会社サン設備機工,,有限会社,高知県,香南市,香我美町上分１０６７番地５１,,39,211,7815451,,,2022-06-15,清算の結了等,,,2015-10-05,1,,,,,サンセツビキコウ,0
570,3010401129905,登記記録の閉鎖等,0,2022-06-24,2022-06-08,株式会社Ｎｅｘｔ　Ｇｅｎｅｒａｔｉｏｎ,,株式会社,東京都,港区,西新橋１丁目２番地９日比谷セントラルビル１４階,,13,103,1050003,,,2022-06-08,清算の結了等,,,2017-02-27,1,,,,,ネクストジェネレーション,0
578,3010405018781,登記記録の閉鎖等,0,2022-06-24,2022-06-07,渋谷プロパティ一般社団法人,,その他の設立登記法人,東京都,港区,六本木１丁目６番１号泉ガーデンタワー,,13,103,1060032,,,2022-06-07,清算の結了等,,,2020-05-29,1,,,,,シブヤプロパティ,0
612,3011202004033,登記記録の閉鎖等,0,2022-06-24,2022-06-14,有限会社デジコム,,有限会社,東京都,中野区,中央１丁目１番３号,,13,114,1640011,,,2022-06-14,清算の結了等,,,2015-10-05,1,,,,,デジコム,0
613,3011402001516,登記記録の閉鎖等,0,2022-06-24,2022-06-22,有限会社遠藤工業所,,有限会社,東京都,板橋区,舟渡２丁目２０番７号,,13,119,1740041,,,2022-06-22,清算の結了等,,,2015-10-05,1,,,,,エンドウコウギョウショ,0
627,3012402010184,登記記録の閉鎖等,0,2022-06-24,2022-06-21,有限会社東塗装工業所,,有限会社,東京都,調布市,調布ケ丘３丁目６７番地４,,13,208,1820021,,,2022-06-21,清算の結了等,,,2015-10-05,1,,,,,アズマトソウコウギョウショ,0
628,3012801016369,登記記録の閉鎖等,0,2022-06-24,2022-06-20,株式会社アローズスリー,,株式会社,東京都,立川市,錦町２丁目２番３号,,13,202,1900022,,,2022-06-20,清算の結了等,,,2015-10-05,1,,,,,アローズスリー,0
633,3020001018334,登記記録の閉鎖等,0,2022-06-24,2022-06-20,株式会社成田組,,株式会社,神奈川県,横浜市鶴見区,栄町通４丁目４８番地の１,,14,101,2300038,,,2022-06-20,清算の結了等,,,2015-10-05,1,,,,,ナリタグミ,0
660,3040001042118,登記記録の閉鎖等,0,2022-06-24,2022-06-14,株式会社高橋建設,00019082,株式会社,千葉県,船橋市,飯山満町１丁目１００番地１０,,12,204,2740822,,,2022-06-14,清算の結了等,,,2015-10-05,1,,,,,タカハシケンセツ,0
664,3040002005362,登記記録の閉鎖等,0,2022-06-24,2022-06-13,有限会社新星薬品商会,,有限会社,千葉県,市原市,潤井戸１３３５番地１,,12,219,2900171,,,2022-06-13,清算の結了等,,,2015-10-05,1,,,,,シンセイヤクヒンショウカイ,0
682,3100001009705,登記記録の閉鎖等,0,2022-06-24,2022-06-21,株式会社川上糸店,,株式会社,長野県,上田市,中央２丁目１２番７号,,20,203,3860012,,,2022-06-21,清算の結了等,,,2015-10-05,1,,,,,カワカミイトテン,0
693,3120001166791,登記記録の閉鎖等,0,2022-06-24,2022-06-21,株式会社マキサンコム,,株式会社,大阪府,大阪市中央区,農人橋１丁目４番３４号信金中央金庫ビル７階,,27,128,5400011,,,2022-06-21,合併による解散等,3010401147741,令和４年６月１日東京都港区南青山三丁目１０番４０号株式会社ＭＡＫＩＫＯＭＵ（3010401147741）に合併し解散,2015-10-05,1,,,,,,0
707,3120101028966,登記記録の閉鎖等,0,2022-06-24,2022-06-23,株式会社ゼネラルネットワーク,,株式会社,大阪府,堺市北区,百舌鳥梅町１丁５番地６,,27,146,5918032,,,2022-06-23,清算の結了等,,,2015-10-05,1,,,,,ゼネラルネットワーク,0
709,3120901017243,登記記録の閉鎖等,0,2022-06-24,2022-06-22,サン・トップ株式会社,,株式会社,大阪府,高槻市,赤大路町４４番２－５０３号,,27,207,5691146,,,2022-06-22,清算の結了等,,,2015-10-05,1,,,,,サントップ,0
718,3130001030162,登記記録の閉鎖等,0,2022-06-24,2022-06-17,株式会社ジェイグレイス,,株式会社,京都府,向日市,物集女町長野４番地の３４３,,26,208,6170001,,,2022-06-17,清算の結了等,,,2015-10-05,1,,,,,ジェイグレイス,0
728,3140002001896,登記記録の閉鎖等,0,2022-06-24,2022-06-15,有限会社タナカ,,有限会社,兵庫県,神戸市東灘区,住吉宮町２丁目５番１３号,,28,101,6580053,,,2022-06-15,清算の結了等,,,2015-10-05,1,,,,,タナカ,0
747,3180301033538,登記記録の閉鎖等,0,2022-06-24,2022-06-16,吉田匠材株式会社,,株式会社,愛知県,豊田市,小坂本町１丁目５番地５,,23,211,4710034,,,2022-06-16,清算の結了等,,,2020-03-30,1,,,,,ヨシダショウザイ,0
752,3200002003886,登記記録の閉鎖等,0,2022-06-24,2022-06-22,有限会社フィオーレタナカ,,有限会社,岐阜県,岐阜市,長良福光２６７５番地の１１,,21,201,5020817,,,2022-06-22,清算の結了等,,,2015-10-05,1,,,,,フィオーレタナカ,0
769,3260001029811,登記記録の閉鎖等,0,2022-06-24,2022-06-22,株式会社しえん生活,,株式会社,岡山県,倉敷市,玉島１２６８番地５,,33,202,7138102,,,2022-06-22,清算の結了等,,,2016-07-27,1,,,,,シエンセイカツ,0
774,3290001031104,登記記録の閉鎖等,0,2022-06-24,2022-06-15,フィールドリバー株式会社,,株式会社,福岡県,福岡市博多区,諸岡５丁目２５番５号,,40,132,8120894,,,2022-06-15,清算の結了等,,,2015-10-05,1,,,,,,0
777,3290001076925,登記記録の閉鎖等,0,2022-06-24,2022-06-14,ＣｔｏＣ　ＪＡＰＡＮ株式会社,,株式会社,福岡県,福岡市中央区,天神２丁目３番１０号天神パインクレスト７１６,,40,133,8100001,,,2022-06-14,清算の結了等,,,2017-03-06,1,,,,,シートゥシージャパン,0
787,3320002001762,登記記録の閉鎖等,0,2022-06-24,2022-06-21,有限会社開成不動産,,有限会社,大分県,大分市,大字下判田１７０４番地の１,,44,201,8701112,,,2022-06-21,清算の結了等,,,2015-10-05,1,,,,,カイセイフドゥサン,0
794,3370102000734,登記記録の閉鎖等,0,2022-06-24,2022-06-17,有限会社ネット冷熱,,有限会社,宮城県,柴田郡柴田町,槻木下町１丁目１番７号,,04,323,9891752,,,2022-06-17,清算の結了等,,,2015-10-05,1,,,,,ネットレイネツ,0
798,3410001007074,登記記録の閉鎖等,0,2022-06-24,2022-06-20,株式会社ケンユウ,,株式会社,秋田県,能代市,万町４番２９号,,05,202,0160804,,,2022-06-20,清算の結了等,,,2015-10-05,1,,,,,ケンユウ,0
802,3430001008871,登記記録の閉鎖等,0,2022-06-24,2022-06-13,株式会社セツト兵吾,,株式会社,北海道,札幌市手稲区,前田八条１８丁目１１番１５号,,01,109,0060818,,,2022-06-13,清算の結了等,,,2015-10-05,1,,,,,セツトヒョウゴ,0
806,3430002011098,登記記録の閉鎖等,0,2022-06-24,2022-06-07,有限会社セントラル企画,,有限会社,北海道,札幌市東区,北三十三条東１６丁目２番１８－４０１号,,01,103,0650033,,,2022-06-07,清算の結了等,,,2015-10-05,1,,,,,,0
813,3440002008639,登記記録の閉鎖等,0,2022-06-24,2022-06-13,有限会社マルヤスヤスダ,,有限会社,北海道,二海郡八雲町,本町１２７番地,,01,346,0493107,,,2022-06-13,清算の結了等,,,2015-10-05,1,,,,,マルヤスヤスダ,0
816,3470002002250,登記記録の閉鎖等,0,2022-06-24,2022-06-20,有限会社北四国サービス,,有限会社,香川県,高松市,宮脇町１丁目９番１８号,,37,201,7600005,,,2022-06-20,清算の結了等,,,2015-10-05,1,,,,,キタシコクサービス,0
818,3480001006895,登記記録の閉鎖等,0,2022-06-24,2022-06-22,吉田罐詰株式会社,,株式会社,徳島県,阿南市,福井町中内１０８番地,,36,204,7791620,,,2022-06-22,清算の結了等,,,2015-10-05,1,,,,,ヨシダカンヅメ,0
827,4010001115676,登記記録の閉鎖等,0,2022-06-24,2022-06-17,ケーアンドエー株式会社,,株式会社,東京都,千代田区,外神田２丁目１０番７号,,13,101,1010021,,,2022-06-17,清算の結了等,,,2015-10-05,1,,,,,ケーアンドエー,0
829,4010001140195,登記記録の閉鎖等,0,2022-06-24,2022-06-21,株式会社サン・マル・サン,,株式会社,東京都,中央区,築地７丁目３番１０－４１１号,,13,102,1040045,,,2022-06-21,合併による解散等,5010601047252,令和４年５月２６日千葉県浦安市舞浜三丁目２８番６号ＮＳＫ株式会社（5010601047252）に合併し解散,2015-10-05,1,,,,,サンマルサン,0
840,4010005027629,登記記録の閉鎖等,0,2022-06-24,2022-06-22,一般社団法人八王子万町開発,,その他の設立登記法人,東京都,千代田区,平河町１丁目６番１５号シルスフィア会計事務所内,,13,101,1020093,,,2022-06-22,清算の結了等,,,2017-10-23,1,,,,,ハチオウジヨロズチョウカイハツ,0
841,4010005029071,登記記録の閉鎖等,0,2022-06-24,2022-06-22,一般社団法人調布国領開発,,その他の設立登記法人,東京都,千代田区,平河町１丁目６番１５号シルスフィア会計事務所内,,13,101,1020093,,,2022-06-22,清算の結了等,,,2018-09-10,1,,,,,チョウフコクリョウカイハツ,0
866,4010702012767,登記記録の閉鎖等,0,2022-06-24,2022-06-08,有限会社ホームベース,,有限会社,東京都,品川区,荏原６丁目５番１０号,,13,109,1420063,,,2022-06-08,清算の結了等,,,2015-10-05,1,,,,,ホームベース,0
931,4030002122744,登記記録の閉鎖等,0,2022-06-24,2022-06-15,有限会社みやぎホーム,,有限会社,埼玉県,秩父市,相生町２番２号,,11,207,3680026,,,2022-06-15,清算の結了等,,,2015-10-05,1,,,,,ミヤギホーム,0
937,4040002049490,登記記録の閉鎖等,0,2022-06-24,2022-06-14,有限会社横川商店,,有限会社,千葉県,松戸市,馬橋１９６１番地,,12,207,2710051,,,2022-06-14,清算の結了等,,,2015-10-05,1,,,,,ヨコカワショウテン,0
942,4040005002868,登記記録の閉鎖等,0,2022-06-24,2022-06-14,医療法人社団岡本歯科医院,,その他の設立登記法人,千葉県,船橋市,前原東２丁目１９番２号,,12,204,2740824,,,2022-06-14,清算の結了等,,,2015-10-05,1,,,,,オカモトシカイイン,0
993,4140001007324,登記記録の閉鎖等,0,2022-06-24,2022-06-21,株式会社クリタ,,株式会社,兵庫県,神戸市中央区,生田町１丁目１番２２号ニッシンビル,,28,110,6510092,,,2022-06-21,清算の結了等,,,2015-10-05,1,,,,,クリタ,0
996,4140001040829,登記記録の閉鎖等,0,2022-06-24,2022-06-21,ケミテックジャパン株式会社,,株式会社,兵庫県,揖保郡太子町,東南７３０番地１,,28,464,6711523,,,2022-06-21,清算の結了等,,,2015-10-05,1,,,,,ケミテックジャパン,0
1001,4140002006473,登記記録の閉鎖等,0,2022-06-24,2022-06-17,有限会社ヒカリ住宅,,有限会社,兵庫県,神戸市垂水区,仲田１丁目１番３７号,,28,108,6550034,,,2022-06-17,清算の結了等,,,2015-10-05,1,,,,,ヒカリジュウタク,0
1007,4180001005811,登記記録の閉鎖等,0,2022-06-24,2022-06-21,吉森商事株式会社,,株式会社,愛知県,名古屋市千種区,春岡１丁目１７番２号,,23,101,4640848,,,2022-06-21,清算の結了等,,,2015-10-05,1,,,,,ヨシモリショウジ,0
1045,4260001015793,登記記録の閉鎖等,0,2022-06-24,2022-06-22,朝日アルミ産業株式会社,,株式会社,岡山県,総社市,下原１４３０番地の１,,33,208,7191145,,,2022-06-22,清算の結了等,,,2015-10-05,1,,,,,,0
1051,4280005007125,登記記録の閉鎖等,0,2022-06-24,2022-06-20,一般社団法人統合医療ケア協会,,その他の設立登記法人,静岡県,浜松市中区,蜆塚４丁目４番２７号,,22,131,4328018,,,2022-06-20,清算の結了等,,,2016-04-06,1,,,,,トウゴウイリョウケアキョウカイ,0
1066,4330001008732,登記記録の閉鎖等,0,2022-06-24,2022-06-16,潮崎水産株式会社,,株式会社,熊本県,熊本市西区,河内町船津９８２番地１５７,,43,103,8615347,,,2022-06-16,清算の結了等,,,2015-10-05,1,,,,,シオサキスイサン,0
1111,5010001209477,登記記録の閉鎖等,0,2022-06-24,2022-06-17,株式会社ＧｒａｎＥｓｔ　Ｊａｐａｎ,,株式会社,東京都,中央区,日本橋室町１丁目１０番１０号,,13,102,1030022,,,2022-06-17,清算の結了等,,,2020-05-08,1,,,,,グラネストジャパン,0
1115,5010003002590,登記記録の閉鎖等,0,2022-06-24,2022-06-10,合資会社みどり看護婦家政婦紹介所,,合資会社,東京都,文京区,本郷５丁目２５番１４号,,13,105,1130033,,,2022-06-10,清算の結了等,,,2015-10-05,1,,,,,ミドリカンゴフカセイフショウカイジョ,0
1116,5010003023307,登記記録の閉鎖等,0,2022-06-24,2022-06-17,合同会社サステナブルプロパティ,,合同会社,東京都,中央区,日本橋１丁目４番１号,,13,102,1030027,,,2022-06-17,清算の結了等,,,2016-03-25,1,,,,,サステナブルプロパティ,0
1134,5010601003552,登記記録の閉鎖等,0,2022-06-24,2022-06-21,株式会社クロースタジオ,,株式会社,東京都,千代田区,麹町１丁目８番地８,,13,101,1020083,,,2022-06-21,合併による解散等,5010601047252,令和４年５月３１日千葉県浦安市舞浜三丁目２８番６号ＮＳＫ株式会社（5010601047252）に合併し解散,2015-10-05,1,,,,,クロースタジオ,0
1184,5020001084481,登記記録の閉鎖等,0,2022-06-24,2022-06-17,株式会社岡野開発,,株式会社,神奈川県,横浜市旭区,今宿西町１９５６番地,,14,112,2410031,,,2022-06-17,清算の結了等,,,2015-10-05,1,,,,,,0
1207,5030001110352,登記記録の閉鎖等,0,2022-06-24,2022-04-18,株式会社ＩＴＣ,,株式会社,北海道,札幌市中央区,南三条東３丁目８番地ラフィネタワー札幌南３条９０７号,,01,101,0600053,,,2022-04-18,清算の結了等,,,2015-10-05,1,,,,,アイティーシー,0
1210,5030001116102,登記記録の閉鎖等,0,2022-06-24,2022-06-14,株式会社北関東企画,,株式会社,埼玉県,熊谷市,筑波１丁目１４６番地つくばねビル４階,,11,202,3600037,,,2022-06-14,清算の結了等,,,2016-08-31,1,,,,,キタカントウキカク,0
1241,5100002002194,登記記録の閉鎖等,0,2022-06-24,2022-06-22,有限会社信越流通,,有限会社,長野県,長野市,西和田１丁目２９番４０号,,20,201,3810037,,,2022-06-22,清算の結了等,,,2015-10-05,1,,,,,シンエツリュウツウ,0
1242,5100002017085,登記記録の閉鎖等,0,2022-06-24,2022-06-20,有限会社岸田綿店,,有限会社,長野県,飯山市,大字野坂田４３６番地,,20,213,3892233,,,2022-06-20,清算の結了等,,,2015-10-05,1,,,,,キシダメンテン,0
1249,5120001107026,登記記録の閉鎖等,0,2022-06-24,2022-06-23,株式会社サブ,,株式会社,大阪府,大阪市中央区,南新町１丁目２番４号,,27,128,5400024,,,2022-06-23,清算の結了等,,,2015-10-05,1,,,,,サブ,0
1267,5130001057162,登記記録の閉鎖等,0,2022-06-24,2022-06-17,足羽造園株式会社,,株式会社,京都府,宇治市,炭山滝ノ元３４－１５,,26,204,6011395,,,2022-06-17,清算の結了等,,,2016-04-07,1,,,,,アスワゾウエン,0
1298,5180001023184,登記記録の閉鎖等,0,2022-06-24,2022-06-21,株式会社アクティム,,株式会社,愛知県,名古屋市天白区,中平３丁目１７０１番地,,23,116,4680014,,,2022-06-21,清算の結了等,,,2015-10-05,1,,,,,アクティム,0
1310,5180003004158,登記記録の閉鎖等,0,2022-06-24,2022-06-21,合資会社堀田商店,,合資会社,愛知県,名古屋市緑区,鳴海町字作町４９番地,,23,114,4580801,,,2022-06-21,清算の結了等,,,2015-10-05,1,,,,,ホッタショウテン,0
1314,5180301032703,登記記録の閉鎖等,0,2022-06-24,2022-06-20,ミューエス不動産株式会社,,株式会社,愛知県,豊田市,若林東町石根３０番地５５,,23,211,4730914,,,2022-06-20,清算の結了等,,,2019-06-21,1,,,,,ミューエスフドウサン,0
1315,5200001019675,登記記録の閉鎖等,0,2022-06-24,2022-06-23,美濃ファッション株式会社,,株式会社,岐阜県,美濃市,上野３２０番地の４,,21,207,5013787,,,2022-06-23,清算の結了等,,,2015-10-05,1,,,,,ミノファッション,0
1318,5200002015839,登記記録の閉鎖等,0,2022-06-24,2022-06-22,有限会社孫兵衛,,有限会社,岐阜県,揖斐郡揖斐川町,脛永４２５番地の１,00081040,21,401,5010622,,,2022-06-22,清算の結了等,,,2015-10-05,1,,,,,マゴベエ,0
1322,5220002000624,登記記録の閉鎖等,0,2022-06-24,2022-06-20,有限会社ブライダルミニストリー北陸,,有限会社,石川県,野々市市,高橋町１４番４３号,,17,212,9218811,,,2022-06-20,清算の結了等,,,2015-10-05,1,,,,,ブライダルミニストリーホクリク,0
1330,5240001034811,登記記録の閉鎖等,0,2022-06-24,2022-06-13,株式会社秀和,,株式会社,広島県,福山市,津之郷町津之郷８５７番地の１,,34,207,7210000,,,2022-06-13,清算の結了等,,,2015-10-05,1,,,,,シュウワ,0
1355,5330001011479,登記記録の閉鎖等,0,2022-06-24,2022-06-14,株式会社野田商会,,株式会社,熊本県,玉名市,築地１４０番地の２,,43,206,8650065,,,2022-06-14,清算の結了等,,,2015-10-05,1,,,,,ノダショウカイ,0
1373,5380002006201,登記記録の閉鎖等,0,2022-06-24,2022-06-20,有限会社ケーディテック,,有限会社,福島県,伊達市,保原町所沢字根子屋４８番地,,07,213,9600681,,,2022-06-20,清算の結了等,,,2015-10-05,1,,,,,ケーディテックカイシャ,0
1407,6010001139608,登記記録の閉鎖等,0,2022-06-24,2022-06-20,株式会社うぶすな,,株式会社,新潟県,佐渡市,浦川８７－１,,15,224,9523114,,,2022-06-20,清算の結了等,,,2015-10-05,1,,,,,ウブスナ,0
1411,6010001198133,登記記録の閉鎖等,0,2022-06-24,2022-06-21,株式会社クロースタジオ,,株式会社,東京都,中央区,築地７丁目３番１０－４１１号,,13,102,1040045,,,2022-06-21,合併による解散等,5010601047252,令和４年５月２５日千葉県浦安市舞浜三丁目２８番６号ＮＳＫ株式会社（5010601047252）に合併し解散,2019-01-31,1,,,,,クロースタジオ,0
1428,6010602023623,登記記録の閉鎖等,0,2022-06-24,2022-06-17,有限会社カシワギ・ワークプレイス,,有限会社,東京都,墨田区,東向島２丁目４６番１１号,,13,107,1310032,,,2022-06-17,清算の結了等,,,2015-10-05,1,,,,,カシワギワークプレイス,0
1450,6011103008601,登記記録の閉鎖等,0,2022-06-24,2022-06-22,合同会社Ｇｒａｖｉｔａｓ３,,合同会社,東京都,新宿区,四谷２丁目９番地１５東京ユナイテッド綜合事務所内,,13,104,1600004,,,2022-06-22,清算の結了等,,,2019-02-19,1,,,,,グラヴィタススリー,0
1473,6020001062528,登記記録の閉鎖等,0,2022-06-24,2022-06-17,株式会社アイワークス,,株式会社,神奈川県,横浜市泉区,和泉中央北６丁目２番１０号,,14,116,2450024,,,2022-06-17,清算の結了等,,,2015-10-05,1,,,,,アイワークス,0
1479,6021001029780,登記記録の閉鎖等,0,2022-06-24,2022-06-17,株式会社ＮＥＸＥＮ,,株式会社,神奈川県,横浜市都筑区,川和町１６２９番地２,,14,118,2240057,,,2022-06-17,清算の結了等,,,2015-10-05,1,,,,,,0
1481,6021002006390,登記記録の閉鎖等,0,2022-06-24,2022-06-21,有限会社オー・アール・エー,,有限会社,神奈川県,藤沢市,本藤沢２丁目２番９－３０２号,,14,205,2510875,,,2022-06-21,清算の結了等,,,2015-10-05,1,,,,,オーアールエー,0
1499,6040005002049,登記記録の閉鎖等,0,2022-06-24,2022-06-21,特定非営利活動法人チャレンジドファミリア,,その他の設立登記法人,千葉県,木更津市,清見台南２丁目４番６号メゾンドポムＡ２０２,,12,206,2920042,,,2022-06-21,清算の結了等,,,2015-10-05,1,,,,,チャレンジドファミリア,0
1504,6050002042856,登記記録の閉鎖等,0,2022-06-24,2022-06-15,有限会社渡辺冨造石材,,有限会社,茨城県,桜川市,真壁町山尾５１０番地の１,,08,231,3004406,,,2022-06-15,清算の結了等,,,2015-10-05,1,,,,,ワタナベトミゾウセキザイ,0
1519,6090002013630,登記記録の閉鎖等,0,2022-06-24,2022-06-20,有限会社櫻井電気製作所,,有限会社,山梨県,北杜市,須玉町藤田７６５番地,,19,209,4080114,,,2022-06-20,清算の結了等,,,2015-10-05,1,,,,,サクライデンキセイサクジョ,0
1522,6100005009491,登記記録の閉鎖等,0,2022-06-24,2022-06-17,医療法人源正会,,その他の設立登記法人,長野県,飯田市,東和町２丁目１８番地,,20,205,3950086,,,2022-06-17,清算の結了等,,,2015-10-05,1,,,,,ゲンセイカイ,0
1536,6120101027981,登記記録の閉鎖等,0,2022-06-24,2022-06-22,株式会社Ｃｈｅｆｉ,,株式会社,大阪府,大阪狭山市,西山台６丁目１番１５号,,27,231,5890022,,,2022-06-22,合併による解散等,1122001031944,令和４年５月３１日大阪府東大阪市若江西新町三丁目２番９号株式会社グローリージャパン（1122001031944）に合併し解散,2015-10-05,1,,,,,シェフィ,0
1541,6122001002461,登記記録の閉鎖等,0,2022-06-24,2022-06-21,株式会社香梅園,,株式会社,大阪府,東大阪市,池之端町９番１６号,,27,227,5798002,,,2022-06-21,清算の結了等,,,2015-10-05,1,,,,,コウバイエン,0
1614,6320002011230,登記記録の閉鎖等,0,2022-06-24,2022-06-21,紀野屋有限会社,,有限会社,大分県,別府市,石垣東３丁目３番１３号,,44,202,8740919,,,2022-06-21,清算の結了等,,,2015-10-05,1,,,,,キノヤ,0
1623,6380001011028,登記記録の閉鎖等,0,2022-06-24,2022-06-16,株式会社シンワ,,株式会社,福島県,白河市,西三坂２２番地３,,07,205,9610834,,,2022-06-16,清算の結了等,,,2015-10-05,1,,,,,シンワ,0
1633,6400001005084,登記記録の閉鎖等,0,2022-06-24,2022-06-20,株式会社シースリー,,株式会社,岩手県,盛岡市,下太田沢田２１番地２４ブランシェ澤田Ｂ－２０２号,,03,201,0200051,,,2022-06-20,清算の結了等,,,2015-10-05,1,,,,,シースリー,0
1644,6430003008710,登記記録の閉鎖等,0,2022-06-24,2022-06-13,ワールド合同会社,,合同会社,北海道,札幌市厚別区,もみじ台南３丁目１１番２４号,,01,108,0040012,,,2022-06-13,清算の結了等,,,2017-09-21,1,,,,,ワールド,0
1649,6480005000727,登記記録の閉鎖等,0,2022-06-24,2022-06-22,蔵本パティオ事業協同組合,,その他の設立登記法人,徳島県,徳島市,蔵本町２丁目３０番１,,36,201,7700042,,,2022-06-22,清算の結了等,,,2015-10-05,1,,,,,,0
1651,6500001016971,登記記録の閉鎖等,0,2022-06-24,2022-06-22,ぬこファクトリー株式会社,,株式会社,愛媛県,松山市,湊町４丁目５－６プログレッソ松山,,38,201,7900012,,,2022-06-22,清算の結了等,,,2015-10-05,1,,,,,ヌコファクトリー,0
1663,7010002006145,登記記録の閉鎖等,0,2022-06-24,2022-06-20,有限会社八百久,,有限会社,東京都,文京区,小日向２丁目７番３号,,13,105,1120006,,,2022-06-20,清算の結了等,,,2015-10-05,1,,,,,ヤオヒサ,0
1666,7010002025062,登記記録の閉鎖等,0,2022-06-24,2022-06-17,有限会社松山自転車店,,有限会社,東京都,中央区,湊２丁目３番４号,,13,102,1040043,,,2022-06-17,清算の結了等,,,2015-10-05,1,,,,,マツヤマジテンシャテン,0
1764,7030001125860,登記記録の閉鎖等,0,2022-06-24,2022-06-20,ミナナインターナショナル株式会社,,株式会社,東京都,葛飾区,堀切２丁目６６－１６ｂｌｏｏｍｉｎｇＨＯＲＩＫＩＲＩ－４階,,13,122,1240006,,,2022-06-20,清算の結了等,,,2018-05-28,1,,,,,ミナナインターナショナル,0
1775,7040002007116,登記記録の閉鎖等,0,2022-06-24,2022-06-16,有限会社高柳産業,00019740,有限会社,千葉県,千葉市花見川区,さつきが丘１丁目２９番１０棟５０４号,,12,102,2620014,,,2022-06-16,清算の結了等,,,2015-10-05,1,,,,,タカヤナギサンギョウ,0
1783,7060002015653,登記記録の閉鎖等,0,2022-06-24,2022-06-16,有限会社小久保商会,,有限会社,栃木県,宇都宮市,西原３丁目６番２５号,,09,201,3200862,,,2022-06-16,清算の結了等,,,2015-10-05,1,,,,,コクボショウカイ,0
1787,7080002017870,登記記録の閉鎖等,0,2022-06-24,2022-06-21,有限会社博多っ子,,有限会社,静岡県,藤枝市,岡出山３丁目４番８号,,22,214,4260026,,,2022-06-21,清算の結了等,,,2015-10-05,1,,,,,ハカタッコ,0
1792,7080402019657,登記記録の閉鎖等,0,2022-06-24,2022-06-20,有限会社鈴勝産業,,有限会社,静岡県,磐田市,見付５９９９番地,,22,211,4380086,,,2022-06-20,清算の結了等,,,2015-10-05,1,,,,,スズカツサンギョウ,0
1795,7100002018692,登記記録の閉鎖等,0,2022-06-24,2022-06-20,有限会社アジア企画,,有限会社,長野県,下高井郡山ノ内町,大字平穏２９４３番地８,,20,561,3810401,,,2022-06-20,清算の結了等,,,2015-10-05,1,,,,,アジアキカク,0
1796,7110001025672,登記記録の閉鎖等,0,2022-06-24,2022-06-20,株式会社暮らしの通信社,,株式会社,新潟県,長岡市,喜多町３８６番地,,15,202,9402121,,,2022-06-20,清算の結了等,,,2015-10-05,1,,,,,クラシノツウシンシャ,0
1797,7110005014952,登記記録の閉鎖等,0,2022-06-24,2022-06-20,特定非営利活動法人佐渡地域医療連携推進協議会,,その他の設立登記法人,新潟県,佐渡市,千種１６１番地,,15,224,9521209,,,2022-06-20,清算の結了等,,,2015-10-05,1,,,,,サドチイキイリョウレンケイスイシンキョウギカイ,0
1801,7120001130967,登記記録の閉鎖等,0,2022-06-24,2022-06-22,株式会社Ｋ・Ｙ三信,,株式会社,大阪府,大阪市北区,曾根崎新地１丁目４番１０号,,27,127,5300002,,,2022-06-22,清算の結了等,,,2015-10-05,1,,,,,ケイワイサンシン,0
1823,7122002014190,登記記録の閉鎖等,0,2022-06-24,2022-06-17,有限会社高篠機械,,有限会社,大阪府,八尾市,刑部２丁目４７番地,,27,212,5810015,,,2022-06-17,清算の結了等,,,2015-10-05,1,,,,,タカシノキカイ,0
1830,7140001008600,登記記録の閉鎖等,0,2022-06-24,2022-06-21,株式会社シンワホーム,,株式会社,兵庫県,神戸市中央区,下山手通４丁目１０番２１号,,28,110,6500011,,,2022-06-21,清算の結了等,,,2015-10-05,1,,,,,シンワホーム,0
1846,7180001082253,登記記録の閉鎖等,0,2022-06-24,2022-06-20,株式会社エフエムローゼ,,株式会社,愛知県,一宮市,東印田町１番地,,23,203,4910863,,,2022-06-20,清算の結了等,,,2015-10-05,1,,,,,エフエムローゼ,0
1848,7180001122785,登記記録の閉鎖等,0,2022-06-24,2022-06-22,株式会社ネクストプロデュース,,株式会社,愛知県,名古屋市名東区,高針荒田１２０１番の４,,23,115,4650069,,,2022-06-22,清算の結了等,,,2016-04-12,1,,,,,ネクストプロデュース,0
1856,7190005011240,登記記録の閉鎖等,0,2022-06-24,2022-06-17,特定非営利活動法人ヒカロニ,,その他の設立登記法人,三重県,津市,一志町高野１６０番地１６８,,24,201,5152504,,,2022-06-17,清算の結了等,,,2018-10-23,1,,,,,ヒカロニ,0
1896,7320005009469,登記記録の閉鎖等,0,2022-06-24,2022-06-22,フォーライフシステム協同組合,,その他の設立登記法人,大分県,大分市,大道町２丁目３番１２号－３階,,44,201,8700822,,,2022-06-22,清算の結了等,,,2017-04-04,1,,,,,フォーライフシステム,0
1903,7350001006871,登記記録の閉鎖等,0,2022-06-24,2022-06-20,株式会社天照土木,,株式会社,宮崎県,延岡市,川島町９０３番地,,45,203,8820017,,,2022-06-20,清算の結了等,,,2015-10-05,1,,,,,テンショウドボク,0
1916,7410002011690,登記記録の閉鎖等,0,2022-06-24,2022-06-21,有限会社寺山新聞店,,有限会社,秋田県,仙北郡美郷町,六郷字西高方町１００番地の３,,05,434,0191404,,,2022-06-21,清算の結了等,,,2015-10-05,1,,,,,テラヤマシンブンテン,0
1945,8010001088027,登記記録の閉鎖等,0,2022-06-24,2022-06-17,エスアンドケイ投資顧問株式会社,,株式会社,東京都,中央区,新川２丁目３番４号新川田所ビル５階,,13,102,1040033,,,2022-06-17,清算の結了等,,,2015-10-05,1,,,,,エスアンドケイトウシコモン,0
1954,8010005026081,登記記録の閉鎖等,0,2022-06-24,2022-06-22,一般社団法人西船橋ツー開発,,その他の設立登記法人,東京都,千代田区,平河町１丁目６番１５号シルスフィア会計事務所内,,13,101,1020093,,,2022-06-22,清算の結了等,,,2016-12-02,1,,,,,ニシフナバシツーカイハツ,0
1955,8010005028623,登記記録の閉鎖等,0,2022-06-24,2022-06-22,一般社団法人大和東開発,,その他の設立登記法人,東京都,千代田区,平河町１丁目６番１５号シルスフィア会計事務所内,,13,101,1020093,,,2022-06-22,清算の結了等,,,2018-06-06,1,,,,,ヤマトヒガシカイハツ,0
1971,8010601055772,登記記録の閉鎖等,0,2022-06-24,2022-06-17,ＪＳデリバリー株式会社,,株式会社,東京都,江東区,有明３丁目７番２６号有明フロンティアビルＢ棟９階,,13,108,1350063,,,2022-06-17,清算の結了等,,,2019-07-04,1,,,,,ジェイエスデリバリー,0
1991,8011101003833,登記記録の閉鎖等,0,2022-06-24,2022-06-21,株式会社オー・テイー・オー・リサーチコーポレーシヨン,,株式会社,東京都,新宿区,高田馬場１丁目３４番１２号（竹内ビル）,,13,104,1690075,,,2022-06-21,清算の結了等,,,2015-10-05,1,,,,,オーテイーオーリサーチコーポレーシヨン,0
1996,8011201005226,登記記録の閉鎖等,0,2022-06-24,2022-06-16,丸安青果株式会社,,株式会社,東京都,中野区,中野５丁目６０番１０号,,13,114,1640001,,,2022-06-16,清算の結了等,,,2015-10-05,1,,,,,マルヤスセイカ,0
2013,8011802018411,登記記録の閉鎖等,0,2022-06-24,2022-06-21,有限会社星野タイル工業所,,有限会社,東京都,足立区,谷在家２丁目１４番２号,,13,121,1230863,,,2022-06-21,清算の結了等,,,2015-10-05,1,,,,,ホシノタイルコウギョウショ,0
2017,8012801020721,登記記録の閉鎖等,0,2022-06-24,2022-06-20,レンズファーマ株式会社,,株式会社,東京都,昭島市,宮沢町２丁目２８番３１号,,13,207,1960024,,,2022-06-20,清算の結了等,,,2021-03-19,1,,,,,レンズファーマ,0
2029,8020001015797,登記記録の閉鎖等,0,2022-06-24,2022-06-20,ハマ・プラントシステム株式会社,,株式会社,神奈川県,横浜市保土ケ谷区,岩井町２４５番地３,,14,106,2400023,,,2022-06-20,清算の結了等,,,2015-10-05,1,,,,,ハマプラントシステム,0
2060,8080001016146,登記記録の閉鎖等,0,2022-06-24,2022-06-22,株式会社粉川商会,,株式会社,静岡県,焼津市,三ケ名７１９番地の１,,22,212,4250071,,,2022-06-22,清算の結了等,,,2015-10-05,1,,,,,コガワショウカイ,0
2069,8100001014262,登記記録の閉鎖等,0,2022-06-24,2022-06-21,株式会社宮下清志商店,,株式会社,長野県,松本市,大字笹賀７６００番地４１,,20,202,3990033,,,2022-06-21,清算の結了等,,,2015-10-05,1,,,,,ミヤシタキヨシショウテン,0
2070,8100002020557,登記記録の閉鎖等,0,2022-06-24,2022-06-21,有限会社ダイマル,,有限会社,長野県,松本市,大字笹賀７６００番地４１,,20,202,3990033,,,2022-06-21,清算の結了等,,,2015-10-05,1,,,,,ダイマル,0
2089,8120005001296,登記記録の閉鎖等,0,2022-06-24,2022-06-22,善光寺,,その他の設立登記法人,大阪府,大阪市此花区,梅香３丁目１２番１４号,,27,104,5540013,,,2022-06-22,清算の結了等,,,2015-10-05,1,,,,,ゼンコウジ,0
2098,8120905001916,登記記録の閉鎖等,0,2022-06-24,2022-06-21,農事組合法人せせらぎの里,,その他の設立登記法人,大阪府,高槻市,大字出灰小字二ノ瀬１８番地,,27,207,5691003,,,2022-06-21,清算の結了等,,,2015-10-05,1,,,,,セセラギノサト,0
2123,8180001138401,登記記録の閉鎖等,0,2022-06-24,2022-06-21,株式会社Ｒｏｏｔ　Ｏ．Ｚ,,株式会社,愛知県,名古屋市中区,新栄１丁目４６番５号ハイウッド栄７Ｆ,,23,106,4600007,,,2022-06-21,清算の結了等,,,2019-10-04,1,,,,,ルートオージー,0
2130,8190002013511,登記記録の閉鎖等,0,2022-06-24,2022-06-17,有限会社青木倉庫,,有限会社,三重県,松阪市,春日町３丁目１０４番地の１,,24,204,5150078,,,2022-06-17,清算の結了等,,,2015-10-05,1,,,,,アオキソウコ,0
2163,8290001004716,登記記録の閉鎖等,0,2022-06-24,2022-06-15,中野建築システム株式会社,,株式会社,福岡県,福岡市東区,松島５丁目１８番１６号,,40,131,8130062,,,2022-06-15,清算の結了等,,,2015-10-05,1,,,,,ナカノケンチクシステム,0
2167,8300002000258,登記記録の閉鎖等,0,2022-06-24,2022-06-20,有限会社香月ソノ倉庫,,有限会社,佐賀県,佐賀市,本庄町大字鹿子２００番地１,,41,201,8400025,,,2022-06-20,清算の結了等,,,2022-06-02,1,,,,,カツキソノソウコ,0
2186,8430002005186,登記記録の閉鎖等,0,2022-06-24,2022-06-13,有限会社金満資源,,有限会社,北海道,札幌市東区,中沼西一条１丁目５番７号,,01,103,0070891,,,2022-06-13,清算の結了等,,,2015-10-05,1,,,,,カネマンシゲン,0
2187,8430002007050,登記記録の閉鎖等,0,2022-06-24,2022-06-10,有限会社景観資材,,有限会社,北海道,札幌市北区,北二十二条西８丁目２番３号,,01,102,0010022,,,2022-06-10,清算の結了等,,,2015-10-05,1,,,,,ケイカンシザイ,0
2188,8430002009773,登記記録の閉鎖等,0,2022-06-24,2022-06-10,有限会社勝研,,有限会社,北海道,札幌市清田区,北野二条３丁目６番１８号,,01,110,0040862,,,2022-06-10,清算の結了等,,,2015-10-05,1,,,,,ショウケン,0
2190,8430002056378,登記記録の閉鎖等,0,2022-06-24,2022-06-13,有限会社修建,,有限会社,北海道,余市郡余市町,黒川町１０丁目３番地１０,,01,408,0460003,,,2022-06-13,清算の結了等,,,2015-10-05,1,,,,,シュウケン,0
2205,9010001072756,登記記録の閉鎖等,0,2022-06-24,2022-06-15,エンジェルアソシエイツ株式会社,,株式会社,東京都,千代田区,九段北４丁目１番１号,,13,101,1020073,,,2022-06-15,清算の結了等,,,2015-10-05,1,,,,,エンジェルアソシエイツ,0
2207,9010001100995,登記記録の閉鎖等,0,2022-06-24,2022-06-16,株式会社エスケーイー,,株式会社,東京都,中央区,銀座７丁目６番６号,,13,102,1040061,,,2022-06-16,清算の結了等,,,2015-10-05,1,,,,,エスケーイー,0
2212,9010005027054,登記記録の閉鎖等,0,2022-06-24,2022-06-22,一般社団法人中野新橋開発,,その他の設立登記法人,東京都,千代田区,平河町１丁目６番１５号シルスフィア会計事務所内,,13,101,1020093,,,2022-06-22,清算の結了等,,,2017-07-04,1,,,,,ナカノシンバシカイハツ,0
2218,9010402033258,登記記録の閉鎖等,0,2022-06-24,2022-06-08,有限会社フィンテック,,有限会社,東京都,港区,西麻布４丁目１６番１４号,,13,103,1060031,,,2022-06-08,清算の結了等,,,2015-10-05,1,,,,,フィンテック,0
2220,9010403023043,登記記録の閉鎖等,0,2022-06-24,2022-06-07,奈良中央ファシリティ合同会社,,合同会社,東京都,港区,六本木１丁目６番１号泉ガーデンタワー,,13,103,1060032,,,2022-06-07,清算の結了等,,,2020-05-27,1,,,,,ナラチュウオウファシリティ,0
2253,9011202003095,登記記録の閉鎖等,0,2022-06-24,2022-06-17,有限会社シヤレード,,有限会社,東京都,中野区,新井２丁目２４－３,,13,114,1650026,,,2022-06-17,清算の結了等,,,2015-10-05,1,,,,,シヤレード,0
2263,9012402005823,登記記録の閉鎖等,0,2022-06-24,2022-06-20,有限会社石井商会,,有限会社,東京都,国立市,富士見台２丁目２２番８号,,13,215,1860003,,,2022-06-20,清算の結了等,,,2015-10-05,1,,,,,イシイショウカイ,0
2293,9030001065171,登記記録の閉鎖等,0,2022-06-24,2022-06-17,アピカ株式会社,,株式会社,東京都,江東区,冬木１１番１７号,,13,108,1350041,,,2022-06-17,清算の結了等,,,2015-10-05,1,,,,,アピカ,0
2319,9090001012399,登記記録の閉鎖等,0,2022-06-24,2022-06-17,株式会社サポート富士川,,株式会社,山梨県,南巨摩郡富士川町,舂米３７４番地,00080264,19,368,4000515,,,2022-06-17,清算の結了等,,,2015-10-05,1,,,,,サポートフジカワ,0
2342,9120101048091,登記記録の閉鎖等,0,2022-06-24,2022-06-22,株式会社わくわく商会,,株式会社,大阪府,羽曳野市,はびきの２丁目７番１７－８１６号,,27,222,5830872,,,2022-06-22,清算の結了等,,,2015-10-05,1,,,,,ワクワクショウカイ,0
2348,9130001065285,登記記録の閉鎖等,0,2022-06-24,2022-06-22,株式会社ＫＴコーポレーション,,株式会社,京都府,京都市伏見区,桃山町金森出雲３番地３１,,26,109,6128088,,,2022-06-22,清算の結了等,,,2019-09-13,1,,,,,ケーティーコーポレーション,0
2354,9140001042705,登記記録の閉鎖等,0,2022-06-24,2022-06-21,協同液化石油ガス株式会社,,株式会社,兵庫県,加古川市,加古川町粟津８０５番地の３,,28,210,6750039,,,2022-06-21,清算の結了等,,,2015-10-05,1,,,,,キョウドウエキカセキユガス,0
2361,9140003015329,登記記録の閉鎖等,0,2022-06-24,2022-06-20,合同会社Ｌ．Ｐ．Ｓ,,合同会社,兵庫県,伊丹市,西台１丁目７番２１－７０３号,,28,207,6640858,,,2022-06-20,清算の結了等,,,2020-09-01,1,,,,,エルピーエス,0
2403,9240001025088,登記記録の閉鎖等,0,2022-06-24,2022-06-20,株式会社ヒラタ,,株式会社,広島県,庄原市,東城町川西８５９番地の３,,34,210,7295125,,,2022-06-20,清算の結了等,,,2015-10-05,1,,,,,ヒラタ,0
2422,9290002038687,登記記録の閉鎖等,0,2022-06-24,2022-06-15,有限会社エイエイシイ,,有限会社,福岡県,春日市,大土居３丁目１３７番地１サンルージュ春日３０１号,,40,218,8160847,,,2022-06-15,清算の結了等,,,2015-10-05,1,,,,,エイエイシイ,0
2439,9360001014112,登記記録の閉鎖等,0,2022-06-24,2022-06-17,株式会社うみいろ,,株式会社,沖縄県,宮古島市,平良字下里２０５３番地１０ガーデンハイツ３－Ａ号室,,47,214,9060013,,,2022-06-17,清算の結了等,,,2015-10-05,1,,,,,ウミイロ,0
2442,9360003008343,登記記録の閉鎖等,0,2022-06-24,2022-06-16,合同会社Ｎ．ウェルネス,,合同会社,沖縄県,豊見城市,字高安１番地３－１Ｆ,,47,212,9010242,,,2022-06-16,清算の結了等,,,2017-08-09,1,,,,,エムウェルネス,0
2445,9380002008854,登記記録の閉鎖等,0,2022-06-24,2022-06-22,有限会社共栄塗装店,,有限会社,福島県,郡山市,大槻町字久助林６番地の３,,07,203,9630201,,,2022-06-22,清算の結了等,,,2015-10-05,1,,,,,,0
2449,9390002002195,登記記録の閉鎖等,0,2022-06-24,2022-06-21,白山建設有限会社,,有限会社,山形県,山形市,白山２丁目７番２３号,,06,201,9902446,,,2022-06-21,清算の結了等,,,2015-10-05,1,,,,,ハクサンケンセツ,0
2456,9400502001364,登記記録の閉鎖等,0,2022-06-24,2022-06-14,有限会社小藤牧場,,有限会社,岩手県,一関市,藤沢町藤沢字町６０番地,,03,209,0293405,,,2022-06-14,清算の結了等,,,2015-10-05,1,,,,,コフジボクジョウ,0
2458,9410002003199,登記記録の閉鎖等,0,2022-06-24,2022-06-20,有限会社藤工商事,,有限会社,秋田県,秋田市,広面字板橋添４０番地１６,,05,201,0100041,,,2022-06-20,清算の結了等,,,2015-10-05,1,,,,,フジコウショウジ,0
