sequenceNumber,corporateNumber,process,correct,updateDate,changeDate,name,nameImageId,kind,prefectureName,cityName,streetNumber,addressImageId,prefectureCode,cityCode,postCode,addressOutside,addressOutsideImageId,closeDate,closeCause,successorCorporateNumber,changeCause,assignmentDate,latest,enName,enPrefectureName,enCityName,enAddressOutside,furigana,hihyoji
1,1010001052501,登記記録の閉鎖等,0,2022-11-30,2022-11-25,株式会社トミタテキスタイル,,株式会社,東京都,中央区,京橋２丁目２番１号,,13,102,1040031,,,2022-11-25,清算の結了等,,,2015-10-05,1,,,,,トミタテキスタイル,0
2,1010001062087,登記記録の閉鎖等,0,2022-11-30,2022-11-25,日本コンピューターマネジメント株式会社,,株式会社,東京都,中央区,八丁堀１丁目８番３号,,13,102,1040032,,,2022-11-25,清算の結了等,,,2015-10-05,1,,,,,ニホンコンピューターマネジメント,0
10,1010005031096,登記記録の閉鎖等,0,2022-11-30,2022-11-24,プラチナ・レジデンシャル特定目的会社,,その他の設立登記法人,東京都,千代田区,丸の内１丁目８番２号鉄鋼ビルディング４階,,13,101,1000005,,,2022-11-24,清算の結了等,,,2019-11-25,1,,,,,プラチナレジデンシャル,0
14,1010401136168,登記記録の閉鎖等,0,2022-11-30,2022-11-24,株式会社トリニティホールディングス,,株式会社,東京都,港区,新橋２丁目１番１号山口ビルディング９階,,13,103,1050004,,,2022-11-24,清算の結了等,,,2018-01-24,1,,,,,トリニティホールディングス,0
23,1010601044055,登記記録の閉鎖等,0,2022-11-30,2022-11-24,株式会社レッドオーレ,,株式会社,東京都,墨田区,墨田１丁目７番２号,,13,107,1310031,,,2022-11-24,清算の結了等,,,2015-10-05,1,,,,,レッドオーレ,0
25,1010601049847,登記記録の閉鎖等,0,2022-11-30,2022-11-24,株式会社ナチュラルビューティー,,株式会社,東京都,墨田区,墨田１丁目７番２号,,13,107,1310031,,,2022-11-24,清算の結了等,,,2016-06-09,1,,,,,,0
60,1011501023330,登記記録の閉鎖等,0,2022-11-30,2022-11-17,東京岩町株式会社,,株式会社,東京都,荒川区,東日暮里５丁目４８番３－６０６号,,13,118,1160014,,,2022-11-17,清算の結了等,,,2018-01-04,1,,,,,トウキョウイワマチ,0
64,1011801038540,登記記録の閉鎖等,0,2022-11-30,2022-11-25,株式会社ＤａｔａＰｌｕｓ,,株式会社,東京都,葛飾区,新宿６丁目２番１－１７２４号シティタワー金町タワー棟,,13,122,1250051,,,2022-11-25,清算の結了等,,,2020-12-21,1,,,,,データプラス,0
77,1020001081895,登記記録の閉鎖等,0,2022-11-30,2022-11-28,株式会社ＳＰＣ川崎モデル,,株式会社,神奈川県,川崎市川崎区,貝塚１丁目１番３号,,14,131,2100014,,,2022-11-28,清算の結了等,,,2015-10-05,1,,,,,エスピーシーカワサキモデル,0
80,1020002006141,登記記録の閉鎖等,0,2022-11-30,2022-11-28,有限会社篠崎木工,,有限会社,神奈川県,横浜市都筑区,荏田東町４３９５番地１,,14,118,2240004,,,2022-11-28,清算の結了等,,,2015-10-05,1,,,,,シノザキモッコウ,0
83,1021001008335,登記記録の閉鎖等,0,2022-11-30,2022-11-28,株式会社青蛾,,株式会社,神奈川県,茅ヶ崎市,松が丘２丁目１２番３８,,14,207,2530025,,,2022-11-28,清算の結了等,,,2015-10-05,1,,,,,セイガ,0
85,1021001012270,登記記録の閉鎖等,0,2022-11-30,2022-11-25,株式会社ケーアンドエスコーポレーション,,株式会社,神奈川県,相模原市南区,松が枝町５番５－４０３号,,14,153,2520313,,,2022-11-25,清算の結了等,,,2015-10-05,1,,,,,ケーアンドエスコーポレーション,0
88,1021001060328,登記記録の閉鎖等,0,2022-11-30,2022-11-28,フロンティアサイエンス株式会社,,株式会社,神奈川県,相模原市南区,大野台３丁目２９番２１号,,14,153,2520331,,,2022-11-28,清算の結了等,,,2016-09-30,1,,,,,フロンティアサイエンス,0
90,1021002009976,登記記録の閉鎖等,0,2022-11-30,2022-11-25,有限会社渡辺工業,,有限会社,神奈川県,高座郡寒川町,倉見３３９番地の４,,14,321,2530101,,,2022-11-25,清算の結了等,,,2015-10-05,1,,,,,ワタナベコウギョウ,0
108,1040001005381,登記記録の閉鎖等,0,2022-11-30,2022-11-22,東葉装業株式会社,,株式会社,千葉県,千葉市中央区,新宿２丁目１番２０号,,12,101,2600021,,,2022-11-22,清算の結了等,,,2015-10-05,1,,,,,トウヨウソウギョウ,0
136,1080102011853,登記記録の閉鎖等,0,2022-11-30,2022-11-22,有限会社森ガス店,,有限会社,静岡県,三島市,大社町１４番１１号,,22,206,4110853,,,2022-11-22,清算の結了等,,,2015-10-05,1,,,,,モリガステン,0
141,1090002002547,登記記録の閉鎖等,0,2022-11-30,2022-11-25,有限会社ビックストリーム,,有限会社,山梨県,甲府市,元紺屋町１１２番地の２,,19,201,4000022,,,2022-11-25,清算の結了等,,,2015-10-05,1,,,,,ビックストリーム,0
146,1120001032772,登記記録の閉鎖等,0,2022-11-30,2022-11-24,坂田文化住宅株式会社,,株式会社,大阪府,大阪市住吉区,我孫子４丁目１２番１２号,,27,120,5580014,,,2022-11-24,合併による解散等,9120001032773,令和４年１１月２２日大阪市住吉区我孫子三丁目１２番７号株式会社坂田屋（9120001032773）に合併し解散,2015-10-05,1,,,,,サカタブンカジュウタク,0
174,1130002005834,登記記録の閉鎖等,0,2022-11-30,2022-11-24,有限会社中崎特殊工芸,,有限会社,滋賀県,大津市,京町４丁目５番９－７０２号穴澤敬子方,,25,201,5200044,,,2022-11-24,清算の結了等,,,2015-10-05,1,,,,,ナカザキトクシュコウゲイ,0
180,1160001009255,登記記録の閉鎖等,0,2022-11-30,2022-11-25,株式会社ビッグワイズ,,株式会社,滋賀県,犬上郡甲良町,大字小川原７７０番地１７,,25,442,5220243,,,2022-11-25,清算の結了等,,,2015-10-05,1,,,,,ビッグワイズ,0
188,1180001097950,登記記録の閉鎖等,0,2022-11-30,2022-11-25,株式会社トヨタツ,,株式会社,愛知県,あま市,森３丁目９番地１３,,23,237,4901107,,,2022-11-25,清算の結了等,,,2015-10-05,1,,,,,トヨタツ,0
208,1240001000692,登記記録の閉鎖等,0,2022-11-30,2022-11-25,株式会社いこい,,株式会社,広島県,広島市安佐北区,可部７丁目７番１４号,,34,106,7310221,,,2022-11-25,清算の結了等,,,2015-10-05,1,,,,,イコイ,0
240,1370602001556,登記記録の閉鎖等,0,2022-11-30,2022-11-24,ファミリー建設有限会社,,有限会社,宮城県,塩竈市,花立町２番７号,,04,203,9850023,,,2022-11-24,清算の結了等,,,2015-10-05,1,,,,,ファミリーケンセツ,0
241,1380003002161,登記記録の閉鎖等,0,2022-11-30,2022-11-25,合同会社ＯＫＡＭＯＴＯ,,合同会社,福島県,いわき市,平字梅香町３番地の１４,,07,204,9708026,,,2022-11-25,清算の結了等,,,2015-10-05,1,,,,,オカモト,0
247,1400005000185,登記記録の閉鎖等,0,2022-11-30,2022-11-28,一般財団法人岩手経済研究所,,その他の設立登記法人,岩手県,盛岡市,中ノ橋通１丁目２番１６号,,03,201,0200871,,,2022-11-28,清算の結了等,,,2015-10-05,1,,,,,イワテケイザイケンキュウショ,0
248,1420002002372,登記記録の閉鎖等,0,2022-11-30,2022-11-28,有限会社東日本グラウト工業,,有限会社,青森県,青森市,大字諏訪沢字桜川７７番地,,02,201,0300933,,,2022-11-28,清算の結了等,,,2015-10-05,1,,,,,ヒガシニホングラウトコウギョウ,0
255,1430001086837,登記記録の閉鎖等,0,2022-11-30,2022-11-24,株式会社青山家具製作所,,株式会社,北海道,小樽市,相生町９番６号,,01,203,0470028,,,2022-11-24,清算の結了等,,,2022-06-28,1,,,,,アオヤマカグセイサクショ,0
259,1450001001224,登記記録の閉鎖等,0,2022-11-30,2022-11-28,株式会社小井田工務店,,株式会社,北海道,旭川市,永山八条２丁目３番７号,,01,204,0798418,,,2022-11-28,清算の結了等,,,2015-10-05,1,,,,,コイダコウムテン,0
272,2010002042731,登記記録の閉鎖等,0,2022-11-30,2022-11-22,有限会社コレクト,,有限会社,東京都,千代田区,丸の内１丁目１番３号,,13,101,1000005,,,2022-11-22,清算の結了等,,,2015-10-05,1,,,,,コレクト,0
296,2010701000353,登記記録の閉鎖等,0,2022-11-30,2022-11-25,株式会社アクセス国際ネットワーク,,株式会社,東京都,品川区,東品川２丁目４番１１号,,13,109,1400002,,,2022-11-25,清算の結了等,,,2015-10-05,1,AXESS INTERNATIONAL NETWORK INC.,,,,アクセスコクサイネットワーク,0
299,2010702002927,登記記録の閉鎖等,0,2022-11-30,2022-11-24,有限会社コーエー,,有限会社,東京都,品川区,小山台１丁目１３番７号,,13,109,1420061,,,2022-11-24,清算の結了等,,,2015-10-05,1,,,,,コーエー,0
313,2011005007705,登記記録の閉鎖等,0,2022-11-30,2022-11-22,一般社団法人研修事業支援協会,,その他の設立登記法人,東京都,渋谷区,南平台町６－１６アクセリス渋谷南平台３０３,,13,113,1500036,,,2022-11-22,清算の結了等,,,2018-06-08,1,,,,,ケンシュウジギョウシエンキョウカイ,0
315,2011102003714,登記記録の閉鎖等,0,2022-11-30,2022-11-24,有限会社キュービックハウスインターナショナル,,有限会社,埼玉県,久喜市,南栗橋２丁目１番５号,,11,232,3491117,,,2022-11-24,清算の結了等,,,2015-10-05,1,,,,,キュービックハウスインターナショナル,0
319,2011205000336,登記記録の閉鎖等,0,2022-11-30,2022-11-14,天理教小滝橋分教会,,その他の設立登記法人,東京都,中野区,東中野５丁目２０番９号,,13,114,1640003,,,2022-11-14,合併による解散等,3130005006480,令和４年１１月２日京都府向日市寺戸町東野辺１５・１６番合地天理教乙訓分教会（3130005006480）に合併し解散,2015-10-05,1,,,,,,0
334,2012401031959,登記記録の閉鎖等,0,2022-11-30,2022-11-28,株式会社ミノワ興業,,株式会社,東京都,府中市,武蔵台１丁目３０番地の１２,,13,206,1830042,,,2022-11-28,清算の結了等,,,2016-10-20,1,,,,,ミノワコウギョウ,0
345,2020001108656,登記記録の閉鎖等,0,2022-11-30,2022-11-28,株式会社ＮＥＸＴ,,株式会社,神奈川県,横浜市鶴見区,駒岡４丁目３５番１６号,,14,101,2300071,,,2022-11-28,清算の結了等,,,2015-10-05,1,,,,,ネクスト,0
370,2030002096602,登記記録の閉鎖等,0,2022-11-30,2022-11-24,有限会社田中建設工業,,有限会社,埼玉県,比企郡吉見町,大字大串２３２０番地,,11,347,3550134,,,2022-11-24,清算の結了等,,,2015-10-05,1,,,,,タナカケンセツコウギョウ,0
402,2060002002929,登記記録の閉鎖等,0,2022-11-30,2022-11-25,有限会社かみよし,,有限会社,栃木県,宇都宮市,峰１丁目１５番５号,,09,201,3210942,,,2022-11-25,清算の結了等,,,2015-10-05,1,,,,,カミヨシ,0
410,2080001002275,登記記録の閉鎖等,0,2022-11-30,2022-11-28,鈴木建機株式会社,,株式会社,静岡県,静岡市駿河区,中吉田１３番１３号,,22,102,4228001,,,2022-11-28,清算の結了等,,,2015-10-05,1,,,,,スズキケンキ,0
421,2120001235713,登記記録の閉鎖等,0,2022-11-30,2022-11-28,ＡＫＩＲＯＮ株式会社,,株式会社,大阪府,大阪市阿倍野区,阿倍野筋４丁目１３番１９－１０１号,,27,119,5450052,,,2022-11-28,清算の結了等,,,2021-03-08,1,,,,,アキロン,0
431,2120105007505,登記記録の閉鎖等,0,2022-11-30,2022-11-28,特定非営利活動法人人・地球・未来クラブ,,その他の設立登記法人,大阪府,貝塚市,半田６３番地の３,,27,208,5970033,,,2022-11-28,清算の結了等,,,2015-10-05,1,,,,,ヒトチキュウミライ,0
438,2122002000559,登記記録の閉鎖等,0,2022-11-30,2022-11-28,有限会社いとや,,有限会社,大阪府,東大阪市,御厨東２丁目１０番１４号,,27,227,5770033,,,2022-11-28,清算の結了等,,,2015-10-05,1,,,,,イトヤ,0
462,2180001116073,登記記録の閉鎖等,0,2022-11-30,2022-11-21,株式会社名南交易,,株式会社,愛知県,名古屋市瑞穂区,井戸田町２丁目４８番地の７,,23,108,4670835,,,2022-11-21,清算の結了等,,,2015-10-05,1,,,,,メイナンコウエキ,0
466,2180002052607,登記記録の閉鎖等,0,2022-11-30,2022-11-22,有限会社カミック,,有限会社,愛知県,名古屋市緑区,西神の倉１丁目６０５番地,,23,114,4580809,,,2022-11-22,清算の結了等,,,2015-10-05,1,,,,,カミック,0
489,2240001024410,登記記録の閉鎖等,0,2022-11-30,2022-11-25,株式会社菓子太郎,,株式会社,広島県,三次市,十日市中１丁目１番１０号,,34,209,7280012,,,2022-11-25,清算の結了等,,,2015-10-05,1,,,,,カシタロウ,0
494,2240002029012,登記記録の閉鎖等,0,2022-11-30,2022-11-25,有限会社久保ハウジング,,有限会社,広島県,東広島市,志和町別府１９４番地の１,,34,212,7390267,,,2022-11-25,清算の結了等,,,2015-10-05,1,,,,,クボハウジング,0
500,2290001043793,登記記録の閉鎖等,0,2022-11-30,2022-11-28,株式会社盛達,,株式会社,福岡県,遠賀郡遠賀町,大字若松４４５－１,,40,384,8114304,,,2022-11-28,清算の結了等,,,2015-10-05,1,,,,,セイタツ,0
515,2350001014656,登記記録の閉鎖等,0,2022-11-30,2022-11-28,株式会社鐵真,,株式会社,宮崎県,延岡市,川原崎町４５５番地３,,45,203,8820033,,,2022-11-28,清算の結了等,,,2017-05-15,1,,,,,テツシン,0
518,2370002011527,登記記録の閉鎖等,0,2022-11-30,2022-11-25,有限会社シバコーポレーシヨン,,有限会社,宮城県,仙台市青葉区,吉成台２丁目４番３号,,04,101,9893206,,,2022-11-25,清算の結了等,,,2015-10-05,1,,,,,シバコーポレーション,0
537,2430003008276,登記記録の閉鎖等,0,2022-11-30,2022-11-22,合同会社笹嘉,,合同会社,北海道,札幌市東区,北二十条東１９丁目１番１１号,,01,103,0650020,,,2022-11-22,清算の結了等,,,2017-03-15,1,,,,,ササヨシ,0
551,3010001155442,登記記録の閉鎖等,0,2022-11-30,2022-11-24,株式会社ＡＬＵＫＯ　ＪＡＰＡＮ,,株式会社,東京都,千代田区,麹町１丁目６番９号ＤＩＫ麹町ビル８階８０３号室,,13,101,1020083,,,2022-11-24,清算の結了等,,,2015-10-05,1,,,,,アルコジャパン,0
568,3010401091122,登記記録の閉鎖等,0,2022-11-30,2022-11-22,コンシリアジャパン株式会社,,株式会社,東京都,港区,南青山１丁目２１番２号,,13,103,1070062,,,2022-11-22,清算の結了等,,,2015-10-05,1,,,,,,0
623,3020001005002,登記記録の閉鎖等,0,2022-11-30,2022-11-25,厚和建設株式会社,,株式会社,神奈川県,横浜市旭区,上白根町１３５４番地１７,,14,112,2410001,,,2022-11-25,清算の結了等,,,2015-10-05,1,,,,,コウワケンセツ,0
637,3021002046209,登記記録の閉鎖等,0,2022-11-30,2022-11-25,有限会社共立精機,,有限会社,神奈川県,綾瀬市,上土棚中２丁目１４番１２号,,14,218,2521113,,,2022-11-25,清算の結了等,,,2015-10-05,1,,,,,キョウリツセイキ,0
640,3030001008177,登記記録の閉鎖等,0,2022-11-30,2022-11-24,株式会社湊川工務店,,株式会社,埼玉県,さいたま市西区,塚本町３丁目２０番地の２,,11,101,3310060,,,2022-11-24,清算の結了等,,,2015-10-05,1,,,,,ミナトガワコウムテン,0
644,3030001023432,登記記録の閉鎖等,0,2022-11-30,2022-11-24,株式会社シンク,,株式会社,埼玉県,蕨市,中央４丁目１１－４,,11,223,3350004,,,2022-11-24,清算の結了等,,,2015-10-05,1,,,,,シンク,0
655,3030005017760,登記記録の閉鎖等,0,2022-11-30,2022-11-24,ＮＰＯ法人さやま日本語塾,,その他の設立登記法人,埼玉県,狭山市,柏原３１６１番地の１１９狭山ニュータウン５２－４,,11,215,3501335,,,2022-11-24,清算の結了等,,,2016-01-13,1,,,,,サヤマニホンゴジュク,0
673,3060002005055,登記記録の閉鎖等,0,2022-11-30,2022-11-28,有限会社鈴源,,有限会社,栃木県,宇都宮市,一番町３番１２号,,09,201,3200812,,,2022-11-28,清算の結了等,,,2015-10-05,1,,,,,スズゲン,0
684,3110005015616,登記記録の閉鎖等,0,2022-11-30,2022-11-24,三条市建築協同組合,,その他の設立登記法人,新潟県,三条市,下保内２８３番地１,,15,204,9550021,,,2022-11-24,清算の結了等,,,2015-10-05,1,,,,,サンジョウシケンチク,0
688,3120001126548,登記記録の閉鎖等,0,2022-11-30,2022-11-28,株式会社ケーシーエノモトグループ,,株式会社,東京都,港区,浜松町２丁目２－１４,,13,103,1050013,,,2022-11-28,合併による解散等,7120001096390,令和４年１１月２４日大阪市西区江戸堀一丁目２３番１９号株式会社ユージックインターナショナル（7120001096390）に合併し解散,2015-10-05,1,,,,,ケーシーエノモトグループ,0
691,3120001179406,登記記録の閉鎖等,0,2022-11-30,2022-11-28,ＴＥＳＬＡ株式会社,,株式会社,大阪府,大阪市西区,新町１丁目３番１２号,,27,106,5500013,,,2022-11-28,清算の結了等,,,2015-10-05,1,,,,,テスラ,0
718,3140003016373,登記記録の閉鎖等,0,2022-11-30,2022-11-24,合同会社Ｒａｙ,,合同会社,兵庫県,尼崎市,塚口町６丁目３８－１,,28,202,6610002,,,2022-11-24,清算の結了等,,,2021-06-21,1,,,,,レイ,0
726,3160005002188,登記記録の閉鎖等,0,2022-11-30,2022-11-28,特定非営利活動法人滋賀教育サポート,,その他の設立登記法人,滋賀県,大津市,本丸町１番４号,,25,201,5200814,,,2022-11-28,清算の結了等,,,2015-10-05,1,,,,,シガキョウイクサポート,0
728,3180001046831,登記記録の閉鎖等,0,2022-11-30,2022-11-24,株式会社綜研名古屋,,株式会社,愛知県,名古屋市千種区,内山３丁目１８番１０号,,23,101,4640075,,,2022-11-24,清算の結了等,,,2015-10-05,1,,,,,ソウケンナゴヤ,0
731,3180001101198,登記記録の閉鎖等,0,2022-11-30,2022-11-24,エムズマネジメント株式会社,,株式会社,愛知県,名古屋市西区,山木１丁目１２１番地,,23,104,4520833,,,2022-11-24,清算の結了等,,,2015-10-05,1,,,,,エムズマネジメント,0
740,3180301013226,登記記録の閉鎖等,0,2022-11-30,2022-11-25,株式会社ハラダ石油,,株式会社,愛知県,安城市,百石町２丁目２０番地１３,,23,212,4460044,,,2022-11-25,清算の結了等,,,2015-10-05,1,,,,,ハラダセキユ,0
757,3220002006012,登記記録の閉鎖等,0,2022-11-30,2022-11-29,有限会社山内建装,,有限会社,石川県,金沢市,昌永町６番２号,,17,201,9200846,,,2022-11-29,清算の結了等,,,2015-10-05,1,,,,,ヤマウチケンソウ,0
758,3220005003535,登記記録の閉鎖等,0,2022-11-30,2022-11-25,小松中心商店街振興組合連合会,,その他の設立登記法人,石川県,小松市,三日市町３７番地,,17,203,9230924,,,2022-11-25,清算の結了等,,,2015-10-05,1,,,,,コマツチュウシンショウテンガイ,0
781,3360001021626,登記記録の閉鎖等,0,2022-11-30,2022-11-25,株式会社コバケン,,株式会社,沖縄県,那覇市,字安里１５番地ティーダカン・館３０１,,47,201,9020067,,,2022-11-25,清算の結了等,,,2016-12-07,1,,,,,コバケン,0
782,3360001026427,登記記録の閉鎖等,0,2022-11-30,2022-11-14,イグニション・ポイントオペレーションズ株式会社,,株式会社,沖縄県,那覇市,久茂地２丁目２番２号,,47,201,9000015,,,2022-11-14,合併による解散等,9011001131717,令和４年１１月１日東京都渋谷区東一丁目３２番１２号イグニション・ポイントフォース株式会社（9011001131717）に合併し解散,2019-11-11,1,,,,,イグニションポイントオペレーションズ,0
797,3370505000208,登記記録の閉鎖等,0,2022-11-30,2022-11-28,気仙沼地方再生資源事業協同組合,,その他の設立登記法人,宮城県,気仙沼市,魚市場前４番４５号,,04,205,9880037,,,2022-11-28,清算の結了等,,,2015-10-05,1,,,,,ケセンヌマチホウサイセイシゲン,0
832,4010001118704,登記記録の閉鎖等,0,2022-11-30,2022-11-21,株式会社Ｃａｎ　ｄＥ,,株式会社,東京都,千代田区,四番町９番地１３,,13,101,1020081,,,2022-11-21,清算の結了等,,,2015-10-05,1,,,,,キャンドゥイー,0
835,4010001190835,登記記録の閉鎖等,0,2022-11-30,2022-11-18,株式会社アディス,,株式会社,東京都,千代田区,外神田６丁目１４番７号ＶＯＲＴ末広町７階,,13,101,1010021,,,2022-11-18,清算の結了等,,,2018-04-09,1,,,,,アディス,0
845,4010005014189,登記記録の閉鎖等,0,2022-11-30,2022-11-28,特定非営利活動法人こくみん再生支援ネットワーク,,その他の設立登記法人,東京都,千代田区,丸の内３丁目１番１号国際ビル６階,,13,101,1000005,,,2022-11-28,清算の結了等,,,2015-10-05,1,,,,,コクミンサイセイシエンネットワーク,0
852,4010401101160,登記記録の閉鎖等,0,2022-11-30,2022-11-21,株式会社ＡＤＳ,,株式会社,千葉県,船橋市,日の出１丁目１７番１号,,12,204,2730015,,,2022-11-21,清算の結了等,,,2015-10-05,1,,,,,エーディーエス,0
863,4010602027733,登記記録の閉鎖等,0,2022-11-30,2022-11-24,ソフトブレインコンサルティング有限会社,,有限会社,東京都,江東区,豊洲２丁目５番１号,,13,108,1350061,,,2022-11-24,清算の結了等,,,2015-10-05,1,,,,,ソフトブレインコンサルティング,0
877,4011001000133,登記記録の閉鎖等,0,2022-11-30,2022-11-28,株式会社愛光堂,,株式会社,東京都,渋谷区,道玄坂２丁目２９番１号,,13,113,1500043,,,2022-11-28,清算の結了等,,,2015-10-05,1,,,,,アイコウドウ,0
902,4020001034727,登記記録の閉鎖等,0,2022-11-30,2022-11-28,株式会社プロストサイト,,株式会社,神奈川県,横浜市南区,弘明寺町字北ノ前７７番地の２２,,14,105,2320067,,,2022-11-28,清算の結了等,,,2015-10-05,1,,,,,プロストサイト,0
921,4030001050500,登記記録の閉鎖等,0,2022-11-30,2022-11-24,株式会社日翔,,株式会社,埼玉県,富士見市,大字水子６３２番地２,,11,235,3540011,,,2022-11-24,清算の結了等,,,2015-10-05,1,,,,,ニッショウ,0
922,4030001063948,登記記録の閉鎖等,0,2022-11-30,2022-11-24,株式会社ゴトー,,株式会社,埼玉県,越谷市,登戸町４５番１３号,,11,222,3430846,,,2022-11-24,清算の結了等,,,2015-10-05,1,,,,,ゴトー,0
950,4050002012150,登記記録の閉鎖等,0,2022-11-30,2022-11-18,有限会社羊産業,,有限会社,茨城県,取手市,ゆめみ野１丁目１６番地８,,08,217,3020039,,,2022-11-18,清算の結了等,,,2015-10-05,1,,,,,ヒツジサンギョウ,0
957,4080105002814,登記記録の閉鎖等,0,2022-11-30,2022-11-28,特定非営利活動法人ケアウィング,,その他の設立登記法人,静岡県,富士市,中野４９０番地の９５,,22,210,4170809,,,2022-11-28,清算の結了等,,,2015-10-05,1,,,,,,0
959,4080402006583,登記記録の閉鎖等,0,2022-11-30,2022-11-29,有限会社ビー・シー・ネズ,,有限会社,静岡県,浜松市東区,有玉台２丁目５番１７号,,22,132,4313126,,,2022-11-29,清算の結了等,,,2015-10-05,1,,,,,ビーシーネズ,0
961,4110001003103,登記記録の閉鎖等,0,2022-11-30,2022-11-29,株式会社タケウチ,,株式会社,新潟県,新潟市東区,津島屋７丁目１０４番地３,,15,102,9500801,,,2022-11-29,清算の結了等,,,2015-10-05,1,,,,,タケウチ,0
998,4160001018798,登記記録の閉鎖等,0,2022-11-30,2022-11-28,株式会社村河商事,,株式会社,滋賀県,大津市,螢谷１番３７－２０３号,,25,201,5200853,,,2022-11-28,清算の結了等,,,2015-10-05,1,,,,,ムラカワショウジ,0
1001,4170005003770,登記記録の閉鎖等,0,2022-11-30,2022-11-16,天理教日置濱分教会,,その他の設立登記法人,和歌山県,西牟婁郡白浜町,日置６１１番地,,30,401,6492511,,,2022-11-16,合併による解散等,9170005003782,令和４年１１月１６日和歌山県西牟婁郡白浜町日置１２７番地天理教三舞分教会（9170005003782）に合併し解散,2015-10-05,1,,,,,テンリキョウヒキハマブンキョウカイ,0
1004,4180001135105,登記記録の閉鎖等,0,2022-11-30,2022-11-25,三洋鋼材トレーディング株式会社,,株式会社,愛知県,名古屋市瑞穂区,堀田通５丁目８番地,,23,108,4670862,,,2022-11-25,清算の結了等,,,2019-01-11,1,,,,,サンヨウコウザイトレーディング,0
1017,4240001054026,登記記録の閉鎖等,0,2022-11-30,2022-11-29,株式会社広島セラミック工芸,,株式会社,広島県,広島市南区,東雲３丁目１１番３６号,,34,103,7340022,,,2022-11-29,清算の結了等,,,2019-03-05,1,,,,,ヒロシマセラミックコウゲイ,0
1022,4240002004450,登記記録の閉鎖等,0,2022-11-30,2022-11-28,有限会社喜助デザイン,,有限会社,広島県,広島市中区,三川町１０番１３号,,34,101,7300029,,,2022-11-28,清算の結了等,,,2015-10-05,1,,,,,キスケデザイン,0
1025,4250002003229,登記記録の閉鎖等,0,2022-11-30,2022-11-22,天神酒類販売有限会社,,有限会社,山口県,防府市,大字高井５６８番地の１,,35,206,7470064,,,2022-11-22,清算の結了等,,,2015-10-05,1,,,,,テンジンシュルイハンバイ,0
1027,4260002000175,登記記録の閉鎖等,0,2022-11-30,2022-11-29,有限会社フジイ・エステートプランニング,,有限会社,岡山県,岡山市中区,長岡６７番地の５５,,33,102,7038221,,,2022-11-29,清算の結了等,,,2015-10-05,1,,,,,フジイエステートプランニング,0
1044,4290801018588,登記記録の閉鎖等,0,2022-11-30,2022-11-28,九州図書センター株式会社,,株式会社,福岡県,北九州市八幡東区,荒生田１丁目６番７号,,40,108,8050015,,,2022-11-28,清算の結了等,,,2015-10-05,1,,,,,キュウシュウトショセンター,0
1047,4310002003354,登記記録の閉鎖等,0,2022-11-30,2022-11-29,有限会社ティ・エス元気商会,,有限会社,長崎県,長崎市,浜口町１番６号,,42,201,8528107,,,2022-11-29,清算の結了等,,,2015-10-05,1,,,,,ティエスゲンキショウカイ,0
1048,4310002005813,登記記録の閉鎖等,0,2022-11-30,2022-11-29,有限会社相川青果,,有限会社,長崎県,長崎市,田中町２７９番地４,,42,201,8510134,,,2022-11-29,清算の結了等,,,2015-10-05,1,,,,,アイカワセイカ,0
1050,4330002010299,登記記録の閉鎖等,0,2022-11-30,2022-11-28,有限会社ミナミ美術工芸,,有限会社,熊本県,熊本市中央区,水前寺２丁目５番２６号,,43,101,8620950,,,2022-11-28,清算の結了等,,,2015-10-05,1,,,,,ミナミビジュツコウゲイ,0
1083,4500001013574,登記記録の閉鎖等,0,2022-11-30,2022-11-29,株式会社さいじょう太陽の郷,,株式会社,愛媛県,西条市,港２９３番地１,,38,206,7930046,,,2022-11-29,清算の結了等,,,2015-10-05,1,,,,,サイジョウタイヨウノサト,0
1098,5010005031233,登記記録の閉鎖等,0,2022-11-30,2022-11-24,プラチナ・レジデンシャル２特定目的会社,,その他の設立登記法人,東京都,千代田区,丸の内１丁目８番２号鉄鋼ビルディング４階,,13,101,1000005,,,2022-11-24,清算の結了等,,,2019-12-23,1,,,,,プラチナレジデンシャルツー,0
1138,5011101073565,登記記録の閉鎖等,0,2022-11-30,2022-11-28,株式会社しんくうかん,,株式会社,東京都,新宿区,新宿２丁目８番６号,,13,104,1600022,,,2022-11-28,清算の結了等,,,2015-10-05,1,,,,,シンクウカン,0
1169,5013105000198,登記記録の閉鎖等,0,2022-11-30,2022-11-14,天理教大久野分教会,,その他の設立登記法人,東京都,あきる野市,舘谷１９９番地,,13,228,1900163,,,2022-11-14,合併による解散等,6013105000981,令和４年１１月１４日東京都青梅市小曾木四丁目２５３８番地天理教西多摩分教会（6013105000981）に合併し解散,2015-10-05,1,,,,,,0
1170,5013201011818,登記記録の閉鎖等,0,2022-11-30,2022-11-21,株式会社ＧＯＤＡＩＹＡ,,株式会社,東京都,目黒区,中目黒１丁目１番７１号,,13,110,1530061,,,2022-11-21,清算の結了等,,,2015-10-05,1,,,,,ゴダイヤ,0
1183,5020002064838,登記記録の閉鎖等,0,2022-11-30,2022-11-25,有限会社別所建材,,有限会社,神奈川県,横浜市神奈川区,菅田町１６２２番地市営菅田ハイツ６棟１０４号,,14,102,2210864,,,2022-11-25,清算の結了等,,,2015-10-05,1,,,,,ベッショケンザイ,0
1186,5021001072864,登記記録の閉鎖等,0,2022-11-30,2022-11-25,株式会社ｑｕａｄ　ｋｅｙｓ,,株式会社,神奈川県,相模原市南区,相模台５丁目３－１６,,14,153,2520321,,,2022-11-25,清算の結了等,,,2021-05-11,1,,,,,クアドキーズ,0
1187,5021003009773,登記記録の閉鎖等,0,2022-11-30,2022-11-25,合同会社昭和の家,,合同会社,神奈川県,厚木市,中町４丁目１番１３号,,14,212,2430018,,,2022-11-25,清算の結了等,,,2020-10-15,1,,,,,ショウワノイエ,0
1193,5030002105319,登記記録の閉鎖等,0,2022-11-30,2022-11-24,藤和建興有限会社,,有限会社,埼玉県,川口市,大字木曽呂６７０番地の１５,,11,203,3330831,,,2022-11-24,清算の結了等,,,2015-10-05,1,,,,,トウワケンコウ,0
1194,5030003016886,登記記録の閉鎖等,0,2022-11-30,2022-11-24,合同会社ＭＩＲ,,合同会社,埼玉県,桶川市,坂田東３丁目６番７号セルバカーサ２０２,,11,231,3630009,,,2022-11-24,清算の結了等,,,2021-03-18,1,,,,,ミール,0
1260,5130002002076,登記記録の閉鎖等,0,2022-11-30,2022-11-24,有限会社栄光電子,,有限会社,京都府,京都市上京区,御前通西裏上の下立売上る北町５７４番地,,26,102,6028368,,,2022-11-24,清算の結了等,,,2015-10-05,1,,,,,,0
1265,5130005006479,登記記録の閉鎖等,0,2022-11-30,2022-11-02,天理教今里分教会,,その他の設立登記法人,京都府,長岡京市,長岡３丁目５番８号,,26,209,6170823,,,2022-11-02,合併による解散等,3130005006480,令和４年１１月２日京都府向日市寺戸町東野辺１５・１６番合地天理教乙訓分教会（3130005006480）に合併し解散,2015-10-05,1,,,,,テンリキョウイマザトブンキョウカイ,0
1272,5160001014697,登記記録の閉鎖等,0,2022-11-30,2022-11-29,株式会社ワイエイチエス,,株式会社,滋賀県,草津市,渋川１丁目２番２６－１５０８号,,25,206,5250026,,,2022-11-29,清算の結了等,,,2015-10-05,1,,,,,ワイエイチエス,0
1281,5180002064236,登記記録の閉鎖等,0,2022-11-30,2022-11-28,有限会社ヒグチ電設,,有限会社,愛知県,豊明市,二村台２丁目８番地の１０,,23,229,4701131,,,2022-11-28,清算の結了等,,,2015-10-05,1,,,,,ヒグチデンセツ,0
1296,5240001037574,登記記録の閉鎖等,0,2022-11-30,2022-11-28,株式会社オーエスイー,,株式会社,広島県,広島市東区,牛田早稲田４丁目１０番２０－２０２号,,34,102,7320062,,,2022-11-28,清算の結了等,,,2015-10-05,1,,,,,オーエスイー,0
1319,5310002009540,登記記録の閉鎖等,0,2022-11-30,2022-11-28,有限会社鑑定評価研究所,,有限会社,長崎県,佐世保市,山祇町２３０番地８,,42,202,8570822,,,2022-11-28,清算の結了等,,,2015-10-05,1,,,,,カンテイヒョウカケンキュウショ,0
1321,5310005001668,登記記録の閉鎖等,0,2022-11-30,2022-11-29,パトリエ浜町マンション管理組合法人,,その他の設立登記法人,長崎県,長崎市,浜町３番５－１００６号,,42,201,8500853,,,2022-11-29,清算の結了等,,,2015-10-05,1,,,,,パトリエハマノマチマンション,0
1348,5390002012628,登記記録の閉鎖等,0,2022-11-30,2022-11-25,有限会社植野製函所,,有限会社,山形県,米沢市,中央７丁目６番１６号,,06,202,9920045,,,2022-11-25,清算の結了等,,,2015-10-05,1,,,,,ウエノセイカンジョ,0
1380,6010401096143,登記記録の閉鎖等,0,2022-11-30,2022-11-22,株式会社アクトビラ,,株式会社,東京都,港区,赤坂５丁目２番２０号,,13,103,1070052,,,2022-11-22,清算の結了等,,,2015-10-05,1,,,,,アクトビラ,0
1429,6012701013810,登記記録の閉鎖等,0,2022-11-30,2022-11-28,株式会社浜中,,株式会社,東京都,小平市,花小金井４丁目３４番６－６０５号,,13,211,1870002,,,2022-11-28,清算の結了等,,,2016-07-06,1,,,,,ハマナカ,0
1445,6021001041249,登記記録の閉鎖等,0,2022-11-30,2022-11-25,株式会社山半商会,,株式会社,神奈川県,横須賀市,大矢部１丁目９番８号,,14,201,2380024,,,2022-11-25,清算の結了等,,,2015-10-05,1,,,,,ヤマハンショウカイ,0
1447,6021002032800,登記記録の閉鎖等,0,2022-11-30,2022-11-28,有限会社羽鳥製作所,,有限会社,神奈川県,厚木市,下川入８６４番地,,14,212,2430206,,,2022-11-28,清算の結了等,,,2015-10-05,1,,,,,ハトリセイサクショ,0
1455,6030001120838,登記記録の閉鎖等,0,2022-11-30,2022-11-22,株式会社ガスサポート,,株式会社,埼玉県,さいたま市南区,南本町１丁目５番６号,,11,108,3360018,,,2022-11-22,清算の結了等,,,2017-06-08,1,,,,,ガスサポート,0
1459,6030002101127,登記記録の閉鎖等,0,2022-11-30,2022-11-24,有限会社ケー・ビー・システム,,有限会社,埼玉県,川口市,芝下２丁目４番１３号,,11,203,3330848,,,2022-11-24,清算の結了等,,,2015-10-05,1,,,,,ケービーシステム,0
1475,6040003014822,登記記録の閉鎖等,0,2022-11-30,2022-11-21,合同会社カネサダ,,合同会社,千葉県,木更津市,請西東３丁目１１番地９,,12,206,2920806,,,2022-11-21,清算の結了等,,,2020-02-10,1,,,,,カネサダ,0
1483,6060005000934,登記記録の閉鎖等,0,2022-11-30,2022-11-28,医療法人社団清愛会,,その他の設立登記法人,栃木県,宇都宮市,西一の沢町２番１０号,,09,201,3200046,,,2022-11-28,清算の結了等,,,2015-10-05,1,,,,,シャダンセイアイカイ,0
1497,6120001152780,登記記録の閉鎖等,0,2022-11-30,2022-11-28,株式会社山真,,株式会社,大阪府,枚方市,杉責谷１丁目４６１２番地の６１,,27,210,5730116,,,2022-11-28,清算の結了等,,,2015-10-05,1,,,,,,0
1568,6240002006214,登記記録の閉鎖等,0,2022-11-30,2022-11-29,有限会社米路屋工務店,,有限会社,広島県,広島市安佐南区,伴東３丁目５番３４－６号,,34,105,7313164,,,2022-11-29,清算の結了等,,,2015-10-05,1,,,,,コメジヤコウムテン,0
1572,6250002003094,登記記録の閉鎖等,0,2022-11-30,2022-11-22,有限会社尚栄,,有限会社,山口県,防府市,車塚町９番１０号,,35,206,7470811,,,2022-11-22,清算の結了等,,,2015-10-05,1,,,,,ショウエイ,0
1582,6290002050141,登記記録の閉鎖等,0,2022-11-30,2022-11-25,有限会社ミヤザワ,,有限会社,福岡県,久留米市,津福本町７５番地の４,,40,203,8300047,,,2022-11-25,清算の結了等,,,2015-10-05,1,,,,,ミヤザワ,0
1599,6370402001520,登記記録の閉鎖等,0,2022-11-30,2022-11-22,有限会社エム・テイ・エス,,有限会社,宮城県,登米市,迫町佐沼字中江４丁目５番地６,,04,212,9870511,,,2022-11-22,清算の結了等,,,2015-10-05,1,,,,,エムテイエス,0
1622,6430002014825,登記記録の閉鎖等,0,2022-11-30,2022-11-22,有限会社西岡測量設計事務所,,有限会社,北海道,札幌市北区,篠路十条２丁目６番３号,,01,102,0028030,,,2022-11-22,清算の結了等,,,2015-10-05,1,,,,,ニシオカソクリョウセッケイジムショ,0
1623,6430003008487,登記記録の閉鎖等,0,2022-11-30,2022-11-24,合同会社ホスピタリティ,,合同会社,北海道,札幌市白石区,北郷九条７丁目２番１１号,,01,104,0030839,,,2022-11-24,清算の結了等,,,2017-06-13,1,,,,,ホスピタリティ,0
1650,7010003032272,登記記録の閉鎖等,0,2022-11-30,2022-11-28,合同会社ピーアニー,,合同会社,東京都,千代田区,丸の内３丁目１番１号東京共同会計事務所内,,13,101,1000005,,,2022-11-28,清算の結了等,,,2020-05-25,1,,,,,ピーアニー,0
1674,7010603007269,登記記録の閉鎖等,0,2022-11-30,2022-11-24,スタディールーツ合同会社,,合同会社,東京都,江東区,有明３丁目７－２６有明フロンティアビルＢ棟９階,,13,108,1350063,,,2022-11-24,清算の結了等,,,2018-05-30,1,,,,,スタディールーツ,0
1690,7011302010679,登記記録の閉鎖等,0,2022-11-30,2022-11-24,有限会社ぱとらん,,有限会社,東京都,杉並区,上高井戸１丁目２３番７－８０１号,,13,115,1680074,,,2022-11-24,清算の結了等,,,2015-10-05,1,,,,,パトラン,0
1695,7011801011847,登記記録の閉鎖等,0,2022-11-30,2022-11-25,株式会社越谷管理,,株式会社,東京都,葛飾区,東金町５丁目８番１４号,,13,122,1250041,,,2022-11-25,清算の結了等,,,2015-10-05,1,,,,,コシガヤカンリ,0
1707,7012403004982,登記記録の閉鎖等,0,2022-11-30,2022-11-29,合同会社ハイブリッジ,,合同会社,東京都,調布市,調布ケ丘１丁目１４番２１号パレス調布ヶ丘３０３号室,,13,208,1820021,,,2022-11-29,清算の結了等,,,2021-08-11,1,,,,,ハイブリッジ,0
1724,7021002054892,登記記録の閉鎖等,0,2022-11-30,2022-11-25,有限会社大雄設備,,有限会社,神奈川県,南足柄市,怒田３１４番地１,,14,217,2500106,,,2022-11-25,清算の結了等,,,2015-10-05,1,,,,,ダイユウセツビ,0
1774,7090001015255,登記記録の閉鎖等,0,2022-11-30,2022-11-10,株式会社ＢＡＭＢＯＯ山梨,,株式会社,山梨県,甲府市,下石田２丁目１７番２２号ボヌール石田１０２号,,19,201,4000046,,,2022-11-10,合併による解散等,9120901031081,令和４年１１月１日静岡県静岡市葵区伝馬町９－７塚本ビル１Ｆ株式会社ＢＡＭＢＯＯ（9120901031081）に合併し解散,2017-09-06,1,,,,,バンブーヤマナシ,0
1791,7120002035752,登記記録の閉鎖等,0,2022-11-30,2022-11-28,有限会社コンテイキ堂,,有限会社,大阪府,大阪市中央区,南船場３丁目７番２４号,,27,128,5420081,,,2022-11-28,清算の結了等,,,2015-10-05,1,,,,,コンテイキドウ,0
1802,7122005001806,登記記録の閉鎖等,0,2022-11-30,2022-11-21,一般社団法人遊技球製造協会,,その他の設立登記法人,大阪府,大東市,新田境町３番４６号,,27,218,5740051,,,2022-11-21,清算の結了等,,,2015-10-05,1,,,,,ユウギキュウセイゾウキョウカイ,0
1806,7130001062763,登記記録の閉鎖等,0,2022-11-30,2022-11-22,ネクスト京都株式会社,,株式会社,京都府,宇治市,槇島町吹前１７番地の３,,26,204,6110041,,,2022-11-22,清算の結了等,,,2018-08-16,1,,,,,ネクスト,0
1841,7180005010251,登記記録の閉鎖等,0,2022-11-30,2022-11-11,天理教起分教会,,その他の設立登記法人,愛知県,一宮市,冨田１９１３番地の７,,23,203,4940018,,,2022-11-11,合併による解散等,6180005010252,令和４年１１月１１日愛知県一宮市明地字寺前８８番地の１天理教中島分教会（6180005010252）に合併し解散,2015-10-05,1,,,,,テンリキョウキブンキョウカイ,0
1862,7280005000259,登記記録の閉鎖等,0,2022-11-30,2022-11-30,島根県金物商業協同組合,,その他の設立登記法人,島根県,松江市,嫁島町２番２７号,,32,201,6900047,,,2022-11-30,清算の結了等,,,2015-10-05,1,,,,,シマネケンカナモノショウギョウ,0
1899,7420001016764,登記記録の閉鎖等,0,2022-11-30,2022-11-28,山下商事株式会社,,株式会社,青森県,青森市,大字三内字稲元１０７番地,,02,201,0380031,,,2022-11-28,清算の結了等,,,2019-11-01,1,,,,,ヤマシタショウジ,0
1927,8010401146994,登記記録の閉鎖等,0,2022-11-30,2022-11-17,リーディングベンチャーマネジメント株式会社,,株式会社,東京都,港区,六本木４丁目２番３５号,,13,103,1060032,,,2022-11-17,清算の結了等,,,2019-07-26,1,,,,,リーディングベンチャーマネジメント,0
1950,8010901034947,登記記録の閉鎖等,0,2022-11-30,2022-11-29,株式会社Ｊ－Ｓｔａｒ　Ｃｏｒｐｏｒａｔｉｏｎ,,株式会社,東京都,世田谷区,深沢２丁目１番１３－１３０４号,,13,112,1580081,,,2022-11-29,清算の結了等,,,2015-10-05,1,,,,,ジェイスターコーポレーション,0
1965,8011101025877,登記記録の閉鎖等,0,2022-11-30,2022-11-24,株式会社キュービックハウス,,株式会社,埼玉県,久喜市,南栗橋２丁目１番５号,,11,232,3491117,,,2022-11-24,清算の結了等,,,2015-10-05,1,,,,,キュービックハウス,0
1971,8011103010423,登記記録の閉鎖等,0,2022-11-30,2022-11-28,ハイドゥ合同会社,,合同会社,福井県,福井市,菅谷１丁目５－３,,18,201,9100034,,,2022-11-28,清算の結了等,,,2021-02-25,1,,,,,ハイドゥ,0
1989,8012302003548,登記記録の閉鎖等,0,2022-11-30,2022-11-24,有限会社中村強建築設計事務所,,有限会社,神奈川県,相模原市中央区,千代田１丁目７番７号メゾン相模原２０１,,14,152,2520237,,,2022-11-24,清算の結了等,,,2015-10-05,1,,,,,ナカムラツヨシケンチクセッケイジムショ,0
1991,8012701001813,登記記録の閉鎖等,0,2022-11-30,2022-11-25,古酒建設工業株式会社,,株式会社,東京都,東村山市,青葉町１丁目２３番地１２,,13,213,1890002,,,2022-11-25,清算の結了等,,,2015-10-05,1,,,,,フルサカケンセツコウギョウ,0
1999,8020001054647,登記記録の閉鎖等,0,2022-11-30,2022-11-28,株式会社ファルコン,,株式会社,神奈川県,横浜市港北区,新横浜１丁目２７番地３－９０２,,14,109,2220033,,,2022-11-28,清算の結了等,,,2015-10-05,1,,,,,ファルコン,0
2002,8020002005649,登記記録の閉鎖等,0,2022-11-30,2022-11-28,有限会社岡重,,有限会社,神奈川県,横浜市都筑区,牛久保西３丁目５番８号,,14,118,2240015,,,2022-11-28,清算の結了等,,,2015-10-05,1,,,,,オカシゲ,0
2007,8021001072903,登記記録の閉鎖等,0,2022-11-30,2022-11-25,株式会社スプレンドーレ,,株式会社,神奈川県,海老名市,門沢橋２丁目１８番４６号,,14,215,2430426,,,2022-11-25,清算の結了等,,,2021-05-14,1,,,,,スプレンドーレ,0
2011,8021003008293,登記記録の閉鎖等,0,2022-11-30,2022-11-24,合同会社ミノル,,合同会社,神奈川県,愛甲郡愛川町,中津４０６１番地の１３桜台ハイム１０６,,14,401,2430303,,,2022-11-24,清算の結了等,,,2019-04-11,1,,,,,ミノル,0
2025,8040001088585,登記記録の閉鎖等,0,2022-11-30,2022-11-24,株式会社ジンエナジー,,株式会社,千葉県,印旛郡栄町,南ケ丘２丁目２番１１号,,12,329,2701533,,,2022-11-24,清算の結了等,,,2015-10-05,1,,,,,ジンエナジー,0
2048,8110001004634,登記記録の閉鎖等,0,2022-11-30,2022-11-29,株式会社畑山整備,,株式会社,新潟県,新潟市東区,南紫竹２丁目１０番３号,,15,102,9500854,,,2022-11-29,清算の結了等,,,2015-10-05,1,,,,,ハタケヤマセイビ,0
2053,8120001165426,登記記録の閉鎖等,0,2022-11-30,2022-11-25,株式会社ＦＭＣ,,株式会社,大阪府,大阪市西区,北堀江１丁目１番７号,,27,106,5500014,,,2022-11-25,清算の結了等,,,2015-10-05,1,,,,,エフエムシー,0
2092,8140002007732,登記記録の閉鎖等,0,2022-11-30,2022-11-28,有限会社ひのでや,,有限会社,兵庫県,神戸市須磨区,飛松町２丁目１番１２号,,28,107,6540012,,,2022-11-28,清算の結了等,,,2015-10-05,1,,,,,ヒノデヤ,0
2131,8240002009842,登記記録の閉鎖等,0,2022-11-30,2022-11-28,有限会社田川製麺,,有限会社,広島県,広島市西区,中広町３丁目２７番１９号,,34,104,7330012,,,2022-11-28,清算の結了等,,,2015-10-05,1,,,,,タガワセイメン,0
2140,8290002055733,登記記録の閉鎖等,0,2022-11-30,2022-11-24,有限会社大和製餡所,,有限会社,福岡県,大牟田市,本町４丁目４番地の１,,40,202,8360046,,,2022-11-24,清算の結了等,,,2015-10-05,1,,,,,ヤマトセイアンショ,0
2147,8330002010923,登記記録の閉鎖等,0,2022-11-30,2022-11-28,有限会社山田屋,,有限会社,熊本県,熊本市中央区,帯山２丁目４番２８号,,43,101,8620924,,,2022-11-28,清算の結了等,,,2015-10-05,1,,,,,ヤマダヤ,0
2150,8350001007274,登記記録の閉鎖等,0,2022-11-30,2022-11-28,株式会社橋本建装,,株式会社,宮崎県,西臼杵郡高千穂町,大字上野６５０番地１,,45,441,8821411,,,2022-11-28,清算の結了等,,,2015-10-05,1,,,,,ハシモトケンソウ,0
2160,8370003004144,登記記録の閉鎖等,0,2022-11-30,2022-11-28,合同会社栗原フードサービス,,合同会社,宮城県,栗原市,築館薬師４丁目８番５０号,,04,213,9872252,,,2022-11-28,清算の結了等,,,2018-05-22,1,,,,,,0
2167,8410001007722,登記記録の閉鎖等,0,2022-11-30,2022-11-25,秋田翔信株式会社,,株式会社,秋田県,由利本荘市,水林２５８番地５,,05,210,0150885,,,2022-11-25,清算の結了等,,,2015-10-05,1,,,,,アキタショウシン,0
2169,8420001008199,登記記録の閉鎖等,0,2022-11-30,2022-11-28,鶴田温泉株式会社,,株式会社,青森県,北津軽郡鶴田町,大字鶴田字早瀬１６８番地１,,02,384,0383503,,,2022-11-28,清算の結了等,,,2015-10-05,1,,,,,,0
2203,9010403025403,登記記録の閉鎖等,0,2022-11-30,2022-11-11,ＲＢソーラーヤマブキ合同会社,,合同会社,東京都,港区,虎ノ門３丁目２２番１０－２０１号,,13,103,1050001,,,2022-11-11,清算の結了等,,,2021-05-28,1,,,,,アールビーソーラーヤマブキ,0
2240,9011502011665,登記記録の閉鎖等,0,2022-11-30,2022-11-22,有限会社山善工務店,,有限会社,東京都,荒川区,南千住２丁目１２番２号,,13,118,1160003,,,2022-11-22,清算の結了等,,,2015-10-05,1,,,,,ヤマゼンコウムテン,0
2250,9012803000786,登記記録の閉鎖等,0,2022-11-30,2022-11-28,合同会社マーケティングリサーチ,,合同会社,東京都,世田谷区,等々力２丁目６－９－１０３,,13,112,1580082,,,2022-11-28,清算の結了等,,,2015-10-05,1,,,,,マーケティングリサーチ,0
2255,9020001028369,登記記録の閉鎖等,0,2022-11-30,2022-11-28,株式会社パイロツトカンパニー,,株式会社,神奈川県,横浜市中区,海岸通１丁目１番地,,14,104,2310002,,,2022-11-28,清算の結了等,,,2015-10-05,1,,,,,パイロツトカンパニー,0
2258,9020001050496,登記記録の閉鎖等,0,2022-11-30,2022-11-10,株式会社カレントテックセンター,,株式会社,神奈川県,川崎市宮前区,水沢２丁目１７番１０号,,14,136,2160012,,,2022-11-10,合併による解散等,8020001043253,令和４年１０月３１日横浜市港北区新横浜二丁目５番地１１カレント自動車株式会社（8020001043253）に合併し解散,2015-10-05,1,,,,,カレントテックセンター,0
2267,9020002056237,登記記録の閉鎖等,0,2022-11-30,2022-11-25,有限会社オムニ,,有限会社,神奈川県,横浜市緑区,長津田町４１９９番地１,,14,113,2260026,,,2022-11-25,清算の結了等,,,2015-10-05,1,,,,,オムニ,0
2271,9021001066945,登記記録の閉鎖等,0,2022-11-30,2022-11-25,株式会社宏心貿易,,株式会社,神奈川県,小田原市,成田５４０番地の１,,14,206,2500862,,,2022-11-25,清算の結了等,,,2019-04-05,1,,,,,コウシンボウエキ,0
2275,9021002037994,登記記録の閉鎖等,0,2022-11-30,2022-11-25,有限会社三立設備,,有限会社,神奈川県,秦野市,下大槻４１０番地１－６－５０６,,14,211,2570004,,,2022-11-25,清算の結了等,,,2015-10-05,1,,,,,,0
2290,9030002111981,登記記録の閉鎖等,0,2022-11-30,2022-11-21,有限会社ステラハウス,,有限会社,埼玉県,川口市,前川３丁目２８番１８号前三ハイツ１０２号,,11,203,3330842,,,2022-11-21,清算の結了等,,,2015-10-05,1,,,,,ステラハウス,0
2313,9080001012697,登記記録の閉鎖等,0,2022-11-30,2022-11-28,ビアンコネロ株式会社,,株式会社,静岡県,静岡市駿河区,高松１丁目２０番６号,,22,102,4228034,,,2022-11-28,清算の結了等,,,2015-10-05,1,,,,,ビアンコネロ,0
2347,9130002001719,登記記録の閉鎖等,0,2022-11-30,2022-11-24,有限会社山善,,有限会社,京都府,京都市右京区,西院上花田町３６番地,,26,108,6150007,,,2022-11-24,清算の結了等,,,2015-10-05,1,,,,,,0
2366,9180002043269,登記記録の閉鎖等,0,2022-11-30,2022-11-24,有限会社アドバンスサービス,,有限会社,愛知県,岡崎市,細川町字山ノ神５３番地,,23,202,4442149,,,2022-11-24,清算の結了等,,,2015-10-05,1,,,,,アドバンスサービス,0
2367,9180003019210,登記記録の閉鎖等,0,2022-11-30,2022-11-21,ＲＡＮＧＥ合同会社,,合同会社,愛知県,知多市,日長字坂根１番地の４７,,23,224,4780041,,,2022-11-21,清算の結了等,,,2018-08-20,1,,,,,レンジ,0
2376,9200002024852,登記記録の閉鎖等,0,2022-11-30,2022-11-28,有限会社朝日会館,,有限会社,岐阜県,高山市,朝日町１３番地の５,,21,203,5060017,,,2022-11-28,清算の結了等,,,2015-10-05,1,,,,,アサヒカイカン,0
2393,9270005000381,登記記録の閉鎖等,0,2022-11-30,2022-11-09,鳥取県信用漁業協同組合連合会,,その他の設立登記法人,鳥取県,鳥取市,青葉町３丁目１１１番地,,31,201,6800802,,,2022-11-09,合併による解散等,6470005000513,令和４年１１月１日香川県高松市北浜町９番１２号西日本信用漁業協同組合連合会（6470005000513）に合併し解散,2015-10-05,1,,,,,トットリケンシンヨウ,0
2399,9290002017328,登記記録の閉鎖等,0,2022-11-30,2022-11-25,有限会社ファクトリー・オム,,有限会社,福岡県,福岡市東区,土井４丁目１３番６号,,40,131,8130032,,,2022-11-25,清算の結了等,,,2015-10-05,1,,,,,ファクトリーオム,0
2410,9360005000397,登記記録の閉鎖等,0,2022-11-30,2022-11-28,医療法人島袋内科胃腸科,,その他の設立登記法人,沖縄県,那覇市,首里鳥堀町４丁目７番地,,47,201,9030805,,,2022-11-28,清算の結了等,,,2015-10-05,1,,,,,シマブクロナイカイチョウカ,0
2423,9420005004532,登記記録の閉鎖等,0,2022-11-30,2022-11-09,天理教岳分教会,,その他の設立登記法人,青森県,弘前市,大字駒越字高田９１番地２,,02,202,0361322,,,2022-11-09,合併による解散等,7420005002216,令和４年１１月９日青森県青森市浪岡大字細野字目倉石４２番地天理教津軽野分教会（7420005002216）に合併し解散,2015-10-05,1,,,,,テンリキョウダケブンキョウカイ,0
2431,9460102000711,登記記録の閉鎖等,0,2022-11-30,2022-11-25,有限会社カシマ写真,,有限会社,北海道,中川郡幕別町,本町４１番地,,01,643,0890603,,,2022-11-25,清算の結了等,,,2015-10-05,1,,,,,カシマシャシン,0
