sequenceNumber,corporateNumber,process,correct,updateDate,changeDate,name,nameImageId,kind,prefectureName,cityName,streetNumber,addressImageId,prefectureCode,cityCode,postCode,addressOutside,addressOutsideImageId,closeDate,closeCause,successorCorporateNumber,changeCause,assignmentDate,latest,enName,enPrefectureName,enCityName,enAddressOutside,furigana,hihyoji
18,1010001227359,新規,0,2022-06-17,2022-06-17,株式会社はなえみ,,株式会社,東京都,中央区,銀座１丁目１２番４号Ｎ＆Ｅ・ＢＬＤ．７階,,13,102,1040061,,,,,,,2022-06-17,1,,,,,ハナエミ,0
22,1010005035147,新規,0,2022-06-17,2022-06-17,Ａｂｅｏｎａ特定目的会社,,その他の設立登記法人,東京都,中央区,銀座１丁目６番１１号土志田ビルディング３Ｆ,,13,102,1040061,,,,,,,2022-06-17,1,,,,,アベオナ,0
36,1010401167923,新規,0,2022-06-17,2022-06-17,株式会社シーナリバー,,株式会社,東京都,港区,港南２丁目１６番２号太陽生命品川ビル２８階,,13,103,1080075,,,,,,,2022-06-17,1,,,,,シーナリバー,0
37,1010401167931,新規,0,2022-06-17,2022-06-17,アセロラ株式会社,,株式会社,東京都,港区,浜松町２丁目２番１５号浜松町ダイヤビル２Ｆ,,13,103,1050013,,,,,,,2022-06-17,1,,,,,アセロラ,0
38,1010401167972,新規,0,2022-06-17,2022-06-17,ＢＬＥＳＳＥＤ　ＪＡＰＡＮ株式会社,,株式会社,東京都,港区,西麻布３丁目１３番３－７０２号,,13,103,1060031,,,,,,,2022-06-17,1,,,,,ブレストジャパン,0
39,1010401168062,新規,0,2022-06-17,2022-06-17,ＴＫＬＨ株式会社,,株式会社,東京都,港区,赤坂２丁目１１番７号ＡＴＴ新館１１階マザージャパン株式会社内,,13,103,1070052,,,,,,,2022-06-17,1,,,,,ティーケーエルエイチ,0
41,1010405021077,新規,0,2022-06-17,2022-06-17,一般財団法人木梨憲武財団,,その他の設立登記法人,東京都,港区,麻布十番３丁目１１番６号,,13,103,1060045,,,,,,,2022-06-17,1,,,,,キナシノリタケザイダン,0
43,1010501048949,新規,0,2022-06-17,2022-06-17,ＴｅｃＺｏｏｍ株式会社,,株式会社,東京都,台東区,池之端２丁目１－３９－９０３シティタワー上野池之端,,13,106,1100008,,,,,,,2022-06-17,1,,,,,テックズーム,0
57,1011001148124,新規,0,2022-06-17,2022-06-17,株式会社美サーチ,,株式会社,東京都,渋谷区,恵比寿１丁目１５番９号日宝恵比寿ビル４０３,,13,113,1500013,,,,,,,2022-06-17,1,,,,,ビサーチ,0
61,1011003014860,新規,0,2022-06-17,2022-06-17,ＴＡＧＡＤＡ合同会社,,合同会社,東京都,目黒区,自由が丘３丁目１７－９,,13,110,1520035,,,,,,,2022-06-17,1,,,,,タガダ,0
70,1011201023894,新規,0,2022-06-17,2022-06-17,株式会社ジャッジメントエンターテインメント,,株式会社,東京都,中野区,東中野１丁目５７番６号,,13,114,1640003,,,,,,,2022-06-17,1,,,,,ジャッジメントエンターテインメント,0
78,1011801040868,新規,0,2022-06-17,2022-06-17,株式会社優,,株式会社,東京都,足立区,興野２丁目３１番５７号,,13,121,1230844,,,,,,,2022-06-17,1,,,,,ユウ,0
79,1011801040876,新規,0,2022-06-17,2022-06-17,株式会社コップ,,株式会社,東京都,葛飾区,柴又５丁目２９番１９号エレガントロイヤル２０３,,13,122,1250052,,,,,,,2022-06-17,1,,,,,コップ,0
81,1011803005134,新規,0,2022-06-17,2022-06-17,合同会社松田社,,合同会社,東京都,葛飾区,青戸７丁目３７番５－４０１号亀有リバーサイドダイヤモンドパレス,,13,122,1250062,,,,,,,2022-06-17,1,,,,,マツダシャ,0
94,1020001146913,新規,0,2022-06-17,2022-06-17,株式会社オトモジ,,株式会社,神奈川県,川崎市高津区,上作延１３９－５－６０５,,14,134,2130034,,,,,,,2022-06-17,1,,,,,オトモジ,0
97,1020003021924,新規,0,2022-06-17,2022-06-17,ＳＨＵＮＩ合同会社,,合同会社,神奈川県,川崎市中原区,小杉町２丁目２２８番地１Ｗ４２０３,,14,133,2110063,,,,,,,2022-06-17,1,,,,,シュンイ,0
98,1020003021965,新規,0,2022-06-17,2022-06-17,合同会社スモールサプライズ,,合同会社,神奈川県,横浜市神奈川区,白幡西町９番９号,,14,102,2210074,,,,,,,2022-06-17,1,,,,,スモールサプライズ,0
100,1020005015577,新規,0,2022-06-17,2022-06-17,一般社団法人Ｅｎｊｏｙ　Ｊｕｄｏ,,その他の設立登記法人,神奈川県,横浜市青葉区,つつじが丘１番地１２,,14,117,2270055,,,,,,,2022-06-17,1,,,,,エンジョイジュードー,0
103,1021003011840,新規,0,2022-06-17,2022-06-17,イリア・インターナショナル合同会社,,合同会社,神奈川県,茅ヶ崎市,緑が浜８番２４－７０３号,,14,207,2530034,,,,,,,2022-06-17,1,,,,,イリアインターナショナル,0
113,1030001148743,新規,0,2022-06-17,2022-06-17,株式会社フォー・ユー,,株式会社,埼玉県,熊谷市,村岡１７８２番地１,,11,202,3600162,,,,,,,2022-06-17,1,,,,,フォーユー,0
114,1030001148751,新規,0,2022-06-17,2022-06-17,波濤株式会社,,株式会社,埼玉県,狭山市,大字東三ツ木３３５番地の３トップ狭山４０９号室,,11,215,3501302,,,,,,,2022-06-17,1,,,,,ハトウ,0
115,1030001148776,新規,0,2022-06-17,2022-06-17,カスタムフーズ株式会社,,株式会社,埼玉県,行田市,大字南河原８８３番地の１,,11,206,3610084,,,,,,,2022-06-17,1,,,,,カスタムフーズ,0
121,1030003019629,新規,0,2022-06-17,2022-06-17,合同会社エムズカンパニー,,合同会社,埼玉県,さいたま市南区,別所３丁目１１番８号,,11,108,3360021,,,,,,,2022-06-17,1,,,,,エムズカンパニー,0
122,1030005020898,新規,0,2022-06-17,2022-06-17,特定非営利活動法人障がい者雇用支援戦略会議,,その他の設立登記法人,埼玉県,北足立郡伊奈町,栄３丁目１９６番地２,,11,301,3620805,,,,,,,2022-06-17,1,,,,,ショウガイシャコヨウシエンセンリャクカイギ,0
126,1040001123893,新規,0,2022-06-17,2022-06-17,齋藤商会株式会社,,株式会社,千葉県,柏市,旭町１丁目１４番８号日の出ビル１Ｆ,,12,217,2770852,,,,,,,2022-06-17,1,,,,,サイトウショウカイ,0
130,1040003020189,新規,0,2022-06-17,2022-06-17,合同会社ブライトサイド,,合同会社,千葉県,柏市,北柏２丁目２０―２２,,12,217,2770832,,,,,,,2022-06-17,1,,,,,ブライトサイド,0
131,1050001051243,新規,0,2022-06-17,2022-06-17,株式会社Ｔ．Ｓ．Ｎ．Ｊ　ＨＤ,,株式会社,茨城県,龍ケ崎市,八代町２９７０番地,,08,208,3010842,,,,,,,2022-06-17,1,,,,,トサニジ,0
132,1050001051251,新規,0,2022-06-17,2022-06-17,株式会社大串運送,,株式会社,茨城県,稲敷郡河内町,生板丁７２５７番地５,,08,447,3001331,,,,,,,2022-06-17,1,,,,,オオグシウンソウ,0
134,1050003006617,新規,0,2022-06-17,2022-06-17,合同会社ｒａｆｅｓｐａｃｅ,,合同会社,茨城県,笠間市,下郷５０６４番地３,,08,216,3190202,,,,,,,2022-06-17,1,,,,,ラフエスパース,0
135,1050003006625,新規,0,2022-06-17,2022-06-17,ＥＡＳＴ　ＢＬＵＥ合同会社,,合同会社,茨城県,古河市,常盤町５番２６号,,08,204,3060007,,,,,,,2022-06-17,1,,,,,イーストブルー,0
143,1090001017629,新規,0,2022-06-17,2022-06-17,中部グリッドリノベーション株式会社,,株式会社,山梨県,笛吹市,一宮町坪井１３５５番地２,,19,211,4050077,,,,,,,2022-06-17,1,,,,,チュウブグリッドリノベーション,0
144,1090003002109,新規,0,2022-06-17,2022-06-17,合同会社はぴねすくろーばー,,合同会社,山梨県,南アルプス市,あやめが丘１９４４番地２５,,19,208,4000319,,,,,,,2022-06-17,1,,,,,ハピネスクローバー,0
155,1110003004795,新規,0,2022-06-17,2022-06-17,ＢＳＲ合同会社,,合同会社,新潟県,長岡市,曙３丁目３番地４５,,15,202,9400832,,,,,,,2022-06-17,1,,,,,ビーエスアール,0
169,1120001246744,新規,0,2022-06-17,2022-06-17,株式会社つるみコンタクト,,株式会社,大阪府,大阪市鶴見区,今津中５丁目１番３３号,,27,124,5380042,,,,,,,2022-06-17,1,,,,,ツルミコンタクト,0
177,1120003021906,新規,0,2022-06-17,2022-06-17,福雅合同会社,,合同会社,大阪府,大阪市北区,天神橋６丁目２番２５－Ａ号室,,27,127,5300041,,,,,,,2022-06-17,1,,,,,フクガ,0
178,1120003021922,新規,0,2022-06-17,2022-06-17,合同会社一,,合同会社,大阪府,大阪市生野区,林寺６丁目３番１４号,,27,116,5440023,,,,,,,2022-06-17,1,,,,,イチ,0
190,1130001071968,新規,0,2022-06-17,2022-06-17,新和株式会社,,株式会社,京都府,京都市下京区,西洞院通高辻下る高辻西洞院町８１０番１,,26,106,6008465,,,,,,,2022-06-17,1,,,,,シンワ,0
191,1130001071976,新規,0,2022-06-17,2022-06-17,株式会社双葉,,株式会社,京都府,長岡京市,開田２丁目８－２１－１０７,,26,209,6170826,,,,,,,2022-06-17,1,,,,,フタバ,0
192,1130001072009,新規,0,2022-06-17,2022-06-17,ビズエイト株式会社,,株式会社,京都府,京都市西京区,大枝北沓掛町４丁目１４番地１,,26,111,6101101,,,,,,,2022-06-17,1,,,,,ビズエイト,0
195,1140001126374,新規,0,2022-06-17,2022-06-17,株式会社Ｊ・Ｈ　ＴＲＵＳＴ,,株式会社,兵庫県,神戸市北区,ひよどり台３丁目１２番地の１１,,28,109,6511123,,,,,,,2022-06-17,1,,,,,ジェイエイチトラスト,0
196,1140001126416,新規,0,2022-06-17,2022-06-17,株式会社Ｋ‐ｓｔｕｄｉｏ,,株式会社,兵庫県,加古川市,米田町平津４５６番地４,,28,210,6750054,,,,,,,2022-06-17,1,,,,,ケースタジオ,0
198,1150001025625,新規,0,2022-06-17,2022-06-17,株式会社Ｊソフィア,,株式会社,奈良県,奈良市,油阪地方町１１番地植原梅月堂ビル２階,,29,201,6308246,,,,,,,2022-06-17,1,,,,,ジェイソフィア,0
208,1180001151699,新規,0,2022-06-17,2022-06-17,ｉ統合医療株式会社,,株式会社,愛知県,名古屋市東区,泉１丁目２２番２６号,,23,102,4610001,,,,,,,2022-06-17,1,,,,,アイトウゴウイリョウ,0
209,1180001151708,新規,0,2022-06-17,2022-06-17,株式会社徳美,,株式会社,愛知県,名古屋市東区,東桜２丁目３－７,,23,102,4610005,,,,,,,2022-06-17,1,,,,,トクビ,0
210,1180001151716,新規,0,2022-06-17,2022-06-17,株式会社オネストリ,,株式会社,愛知県,名古屋市中区,丸の内３丁目７番２６号ＡＣＡビル５階,,23,106,4600002,,,,,,,2022-06-17,1,,,,,オネストリ,0
211,1180001151724,新規,0,2022-06-17,2022-06-17,株式会社クリエイティブショー,,株式会社,愛知県,名古屋市西区,中小田井２丁目２０５番地,,23,104,4520822,,,,,,,2022-06-17,1,,,,,クリエイティブショー,0
212,1180001151781,新規,0,2022-06-17,2022-06-17,株式会社たにでん,,株式会社,愛知県,西春日井郡豊山町,大字豊場字志水１３番地,,23,342,4800202,,,,,,,2022-06-17,1,,,,,タニデン,0
213,1180001151798,新規,0,2022-06-17,2022-06-17,株式会社銀雪,,株式会社,愛知県,名古屋市名東区,朝日が丘５１番地の３,,23,115,4650041,,,,,,,2022-06-17,1,,,,,シロガネユキ,0
218,1180003023938,新規,0,2022-06-17,2022-06-17,合同会社原設備工業,,合同会社,愛知県,北名古屋市,法成寺八竜１０９番地２,,23,234,4810039,,,,,,,2022-06-17,1,,,,,ハラセツビコウギョウ,0
219,1180003023946,新規,0,2022-06-17,2022-06-17,合同会社Ｇｒｅｅｎ　Ｓｔｏｒａｇｅ,,合同会社,愛知県,名古屋市西区,枇杷島１丁目６番１７号ＦＬＡＴ－１８　３０１号,,23,104,4510053,,,,,,,2022-06-17,1,,,,,グリーンストレージ,0
222,1180301036336,新規,0,2022-06-17,2022-06-17,株式会社ケー・プラス,,株式会社,愛知県,岡崎市,赤渋町字寺前４８番地１,,23,202,4440241,,,,,,,2022-06-17,1,,,,,ケープラス,0
226,1200001040189,新規,0,2022-06-17,2022-06-17,株式会社ナマステニッポン,,株式会社,岐阜県,高山市,山田町３１８番地１,,21,203,5060058,,,,,,,2022-06-17,1,,,,,ナマステニッポン,0
252,1260003003948,新規,0,2022-06-17,2022-06-17,合同会社ダイバージェンス,,合同会社,岡山県,倉敷市,玉島上成５０６－１,,33,202,7138101,,,,,,,2022-06-17,1,,,,,ダイバージェンス,0
278,1330001029830,新規,0,2022-06-17,2022-06-17,株式会社ＴＡＩＧＡ,,株式会社,熊本県,熊本市南区,田井島３丁目１０番４６号,,43,104,8620965,,,,,,,2022-06-17,1,,,,,タイガ,0
282,1340001024822,新規,0,2022-06-17,2022-06-17,株式会社フィロソフィア,,株式会社,鹿児島県,鹿児島市,西陵２丁目２４番３号セジュール西陵Ｂ２０３号,,46,201,8900032,,,,,,,2022-06-17,1,,,,,フィロソフィア,0
285,1360001030562,新規,0,2022-06-17,2022-06-17,株式会社ボースグローイング,,株式会社,沖縄県,那覇市,泊１丁目７番地１０,,47,201,9000012,,,,,,,2022-06-17,1,,,,,ボースグローイング,0
315,1430001086853,新規,0,2022-06-17,2022-06-17,シールドコンサルティング株式会社,,株式会社,北海道,札幌市東区,北二十四条東１０丁目３番９号,,01,103,0650024,,,,,,,2022-06-17,1,,,,,シールドコンサルティング,0
324,1700150025221,新規,0,2022-06-17,2015-10-09,摂津市職員労働組合,,その他,大阪府,摂津市,三島１丁目１－１,,27,224,5660022,,,,,,,2015-10-09,1,,,,,セツツシシヨクインロウドウクミアイ,0
325,1700150109197,新規,0,2022-06-17,2022-06-06,Ｍｏｕｖｅｍｅｎｔ　ｐｅｒｐｅｔｕｅｌ,,その他,東京都,北区,東十条３丁目９－１３ルネッサンスベアー３０３,,13,117,1140001,,,,,,,2022-06-06,1,,,,,ムーヴマンペルペチユエル,0
331,2010001227317,新規,0,2022-06-17,2022-06-17,株式会社三ツ木商事,,株式会社,東京都,中央区,新富１丁目４番５号東銀座ビル３Ｆ,,13,102,1040041,,,,,,,2022-06-17,1,,,,,ミツギショウジ,0
341,2010401167939,新規,0,2022-06-17,2022-06-17,株式会社トレイスタ,,株式会社,東京都,港区,南青山３丁目８番４０号青山センタービル２階,,13,103,1070062,,,,,,,2022-06-17,1,,,,,トレイスタ,0
342,2010401167947,新規,0,2022-06-17,2022-06-17,ａｌｔｆｏｏｄｉｅｓ株式会社,,株式会社,東京都,港区,浜松町２丁目２－１５浜松町ダイヤビル２階,,13,103,1050013,,,,,,,2022-06-17,1,,,,,オルトフーディーズ,0
343,2010401167971,新規,0,2022-06-17,2022-06-17,株式会社ＤＭ,,株式会社,東京都,港区,南青山２丁目２番１５号ＷｉｎＡｏｙａｍａビルＵＣＦ６階,,13,103,1070062,,,,,,,2022-06-17,1,,,,,ディーエム,0
347,2010403027884,新規,0,2022-06-17,2022-06-17,ル・バティ合同会社,,合同会社,東京都,港区,南青山２丁目１５番５号ＦＡＲＯ青山１階,,13,103,1070062,,,,,,,2022-06-17,1,,,,,ルバティ,0
354,2010701042817,新規,0,2022-06-17,2022-06-17,株式会社ＲｅＬｉｆｅ,,株式会社,東京都,品川区,大井４丁目２番４－９０４号,,13,109,1400014,,,,,,,2022-06-17,1,,,,,リライフ,0
359,2010901051048,新規,0,2022-06-17,2022-06-17,結コンサルティングファーム株式会社,,株式会社,東京都,世田谷区,三宿２丁目１６番１０号,,13,112,1540005,,,,,,,2022-06-17,1,,,,,ユイコンサルティングファーム,0
360,2010901051064,新規,0,2022-06-17,2022-06-17,ネッスー株式会社,,株式会社,東京都,世田谷区,太子堂２丁目１７－５佐藤ビル３階,,13,112,1540004,,,,,,,2022-06-17,1,,,,,ネッスー,0
366,2011003014843,新規,0,2022-06-17,2022-06-17,合同会社吉祥,,合同会社,東京都,渋谷区,神宮前６丁目２３番４号桑野ビル２階,,13,113,1500001,,,,,,,2022-06-17,1,,,,,キッショウ,0
369,2011101099225,新規,0,2022-06-17,2022-06-17,株式会社Ｒｅ．ＡＭ,,株式会社,東京都,新宿区,西新宿８丁目８番２０－７０７号,,13,104,1600023,,,,,,,2022-06-17,1,,,,,リアム,0
374,2011201023893,新規,0,2022-06-17,2022-06-17,Ｆｕｋｕｙａｍａ　Ｂｅａｕｔｙ　Ｉｎｔｅｒｉｏｒ株式会社,,株式会社,東京都,中野区,中野１丁目５４番１－１０１号,,13,114,1640001,,,,,,,2022-06-17,1,,,,,フクヤマビューティーインテリア,0
376,2011501028155,新規,0,2022-06-17,2022-06-17,恒一株式会社,,株式会社,東京都,荒川区,南千住１丁目４５番８－４０３号Ｄ,,13,118,1160003,,,,,,,2022-06-17,1,,,,,コウイチ,0
378,2011605002460,新規,0,2022-06-17,2022-06-17,一般社団法人日本ナチュラルピラティス協会,,その他の設立登記法人,東京都,練馬区,大泉学園町５丁目６番２４号ＭＫビルＢ１,,13,120,1780061,,,,,,,2022-06-17,1,,,,,ニホンナチュラルピラティスキョウカイ,0
381,2011801040859,新規,0,2022-06-17,2022-06-17,株式会社コンサルティング不動産,,株式会社,東京都,足立区,栗原３丁目１９番１７号,,13,121,1230842,,,,,,,2022-06-17,1,,,,,コンサルティングフドウサン,0
384,2011803005133,新規,0,2022-06-17,2022-06-17,合同会社田村社,,合同会社,東京都,葛飾区,青戸７丁目３７番５－４０１号亀有リバーサイドダイヤモンドパレス,,13,122,1250062,,,,,,,2022-06-17,1,,,,,タムラシャ,0
387,2012403005424,新規,0,2022-06-17,2022-06-17,合同会社ミコク,,合同会社,東京都,調布市,仙川町３丁目４番１号,,13,208,1820002,,,,,,,2022-06-17,1,,,,,ミコク,0
392,2012801021659,新規,0,2022-06-17,2022-06-17,株式会社キズナフーズ,,株式会社,東京都,日野市,神明３丁目７番１９－２１１号,,13,212,1910016,,,,,,,2022-06-17,1,,,,,キズナフーズ,0
400,2020001146953,新規,0,2022-06-17,2022-06-17,株式会社オーディンエンタープライズ,,株式会社,神奈川県,川崎市川崎区,大島上町６番１号,,14,131,2100836,,,,,,,2022-06-17,1,,,,,オーディンエンタープライズ,0
409,2021001076281,新規,0,2022-06-17,2022-06-17,マイドリ株式会社,,株式会社,神奈川県,藤沢市,善行坂２丁目８番２１号,,14,205,2510876,,,,,,,2022-06-17,1,,,,,マイドリ,0
411,2021003011749,新規,0,2022-06-17,2022-06-17,合同会社ＰＥＲＣＥＰＴ　ＥＮＴＥＲＰＲＩＳＥ,,合同会社,神奈川県,愛甲郡愛川町,中津３４８４番地の３大森ハイツ２０５,,14,401,2430303,,,,,,,2022-06-17,1,,,,,パーセプトエンタープライス,0
417,2030001148775,新規,0,2022-06-17,2022-06-17,株式会社ソレアード,,株式会社,埼玉県,所沢市,大字下富１０４３番地の１２８,,11,208,3590001,,,,,,,2022-06-17,1,,,,,ソレアード,0
418,2030003019636,新規,0,2022-06-17,2022-06-17,ＤＯＡＮ　ＤＵＯＮＧ合同会社,,合同会社,埼玉県,蕨市,塚越５丁目８番２４号ハイパレス弐番館２０６号室,,11,223,3350002,,,,,,,2022-06-17,1,,,,,ジアンズオン,0
421,2040001123851,新規,0,2022-06-17,2022-06-17,株式会社スケールテック,,株式会社,千葉県,市川市,相之川１丁目１１番１６号２１０号室,,12,203,2720143,,,,,,,2022-06-17,1,,,,,スケールテック,0
423,2040003020287,新規,0,2022-06-17,2022-06-17,合同会社富美,,合同会社,千葉県,富里市,立沢新田１０２番地１,,12,233,2860215,,,,,,,2022-06-17,1,,,,,トミ,0
426,2050003006616,新規,0,2022-06-17,2022-06-17,合同会社ＴＷＳ,,合同会社,茨城県,土浦市,大町１０番１６号,,08,203,3000038,,,,,,,2022-06-17,1,,,,,ティーダブリューエス,0
447,2110005016821,新規,0,2022-06-17,2022-06-17,一般社団法人新発田まちなみネットワーク,,その他の設立登記法人,新潟県,新発田市,諏訪町２丁目３番２７号,,15,206,9570055,,,,,,,2022-06-17,1,,,,,シバタマチナミネットワーク,0
455,2120001246743,新規,0,2022-06-17,2022-06-17,アシスト株式会社,,株式会社,大阪府,大阪市東淀川区,東中島１丁目６番１４号,,27,114,5330033,,,,,,,2022-06-17,1,,,,,アシスト,0
456,2120001246768,新規,0,2022-06-17,2022-06-17,株式会社フイユヴェルト,,株式会社,大阪府,大阪市西成区,橘１丁目３番６号,,27,122,5570051,,,,,,,2022-06-17,1,,,,,フイユヴェルト,0
460,2120003021905,新規,0,2022-06-17,2022-06-17,合同会社ＹＫ,,合同会社,大阪府,大阪市中央区,谷町８丁目１番４３－１２０６号,,27,128,5420012,,,,,,,2022-06-17,1,,,,,ワイケー,0
461,2120003021921,新規,0,2022-06-17,2022-06-17,合同会社Ｓ‐Ｐｌｕｓ,,合同会社,大阪府,大阪市西成区,聖天下２丁目３番９号エイト聖天下２０１号,,27,122,5570012,,,,,,,2022-06-17,1,,,,,エスプラス,0
466,2120903004190,新規,0,2022-06-17,2022-06-17,ホトプラストレード合同会社,,合同会社,大阪府,豊中市,永楽荘１丁目５番１９の１号,,27,203,5600051,,,,,,,2022-06-17,1,,,,,ホトプラストレード,0
469,2122001035977,新規,0,2022-06-17,2022-06-17,株式会社ジェニック,,株式会社,大阪府,東大阪市,長栄寺１１番２２号,,27,227,5770055,,,,,,,2022-06-17,1,,,,,ジェニック,0
474,2140001126349,新規,0,2022-06-17,2022-06-17,本川特殊鋼株式会社,,株式会社,兵庫県,揖保郡太子町,阿曽４４３番地,,28,464,6711557,,,,,,,2022-06-17,1,,,,,ホンカワトクシュコウ,0
475,2140001126373,新規,0,2022-06-17,2022-06-17,株式会社宮設備,,株式会社,兵庫県,多可郡多可町,加美区豊部５８１番地１,,28,365,6791201,,,,,,,2022-06-17,1,,,,,ミヤセツビ,0
479,2140003017785,新規,0,2022-06-17,2022-06-17,ＡＨＡレアルティ・マネジメント合同会社,,合同会社,兵庫県,神戸市東灘区,御影中町８丁目４番１０号,,28,101,6580054,,,,,,,2022-06-17,1,,,,,アエィチアレアルティマネジメント,0
480,2140003017793,新規,0,2022-06-17,2022-06-17,合同会社フォーサム,,合同会社,兵庫県,宝塚市,武庫川町６番２６号,,28,214,6650844,,,,,,,2022-06-17,1,,,,,フォーサム,0
483,2150001025632,新規,0,2022-06-17,2022-06-17,株式会社ＵｎｉＴＹ,,株式会社,奈良県,奈良市,東向南町２３番地の２,,29,201,6308216,,,,,,,2022-06-17,1,,,,,ユニティ,0
485,2150003002704,新規,0,2022-06-17,2022-06-17,Ｌａｎｄ　Ｍａｎａｇｅｍｅｎｔ　Ｍａｔｓｕｍｏｔｏ合同会社,,合同会社,奈良県,香芝市,上中３５９番地,,29,210,6390265,,,,,,,2022-06-17,1,,,,,ランドマネジメントマツモト,0
525,2290001097963,新規,0,2022-06-17,2022-06-17,株式会社一正塗装工業,,株式会社,福岡県,糟屋郡粕屋町,甲仲原４丁目７番３号,,40,349,8112315,,,,,,,2022-06-17,1,,,,,カズマサトソウコウギョウ,0
532,2290801028647,新規,0,2022-06-17,2022-06-17,株式会社メディカル・Ｒｅ‐コンディショニング・中尾,,株式会社,福岡県,北九州市八幡西区,馬場山東１丁目９番２０号,,40,109,8071131,,,,,,,2022-06-17,1,,,,,メデイカルアールイコンデイショニングナカオ,0
541,2330001029813,新規,0,2022-06-17,2022-06-17,株式会社Ｇｒａｚｉａ,,株式会社,熊本県,熊本市東区,三郎１丁目１２番６５号,,43,102,8620922,,,,,,,2022-06-17,1,,,,,グラジア,0
542,2330001029846,新規,0,2022-06-17,2022-06-17,株式会社ワイズエステート,,株式会社,熊本県,八代市,海士江町３１１７番地８,,43,202,8660893,,,,,,,2022-06-17,1,,,,,ワイズエステート,0
567,2430001086844,新規,0,2022-06-17,2022-06-17,株式会社キボロコ,,株式会社,北海道,札幌市中央区,南二条東２丁目７－１ＳＡＬＭＯＮビル２Ｆ,,01,101,0600052,,,,,,,2022-06-17,1,,,,,キボロコ,0
579,2470001019123,新規,0,2022-06-17,2022-06-17,株式会社秋山モータース,,株式会社,香川県,仲多度郡琴平町,五條６３８番地４,,37,403,7660003,,,,,,,2022-06-17,1,,,,,アキヤマモータース,0
583,2700150109584,新規,0,2022-06-17,2022-06-14,京都新祝祭管弦楽団,,その他,兵庫県,宝塚市,栄町３丁目９－２１－１３０７,,28,214,6650845,,,,,,,2022-06-14,1,,,,,キヨウトシンシユクサイカンゲンガクダン,0
584,2700150109997,新規,0,2022-06-17,2022-06-17,ＡＵＴＯ　ＣＡＲ　ＷＯＲＬＤ,,外国会社等,千葉県,山武市,椎崎１１３０番地３,,12,237,2891205,スリランカ民主社会主義共和国、中央州、キャンディ地区、リーマガハコトゥワ、バトゥピティヤ、１５９,,,,,,2022-06-17,1,,,,,オートカーワールド,0
597,3010001227448,新規,0,2022-06-17,2022-06-17,ＹＴヘリテージ株式会社,,株式会社,東京都,千代田区,二番町８番地１,,13,101,1020084,,,,,,,2022-06-17,1,,,,,ワイティーヘリテージ,0
606,3010401167946,新規,0,2022-06-17,2022-06-17,Ｆａｃｅｔ　Ｂｒｉｄｇｅ株式会社,,株式会社,東京都,港区,東新橋１丁目６番３号ザロイヤルパークホテルアイコニック東京汐留２４Ｆ,,13,103,1050021,,,,,,,2022-06-17,1,,,,,ファセットブリッジ,0
607,3010401167954,新規,0,2022-06-17,2022-06-17,株式会社神殿,,株式会社,東京都,港区,赤坂６丁目１０番３９号,,13,103,1070052,,,,,,,2022-06-17,1,,,,,コドン,0
609,3010403027883,新規,0,2022-06-17,2022-06-17,合同会社Ｎａｔｕｒａｌ,,合同会社,東京都,港区,南青山７丁目５番１４－４０１号,,13,103,1070062,,,,,,,2022-06-17,1,,,,,ナチュラル,0
611,3010503006614,新規,0,2022-06-17,2022-06-17,ポムウネカンパニー合同会社,,合同会社,東京都,台東区,竜泉２丁目１２番１０－１１０１号,,13,106,1100012,,,,,,,2022-06-17,1,,,,,ポムウネカンパニー,0
619,3010805002947,新規,0,2022-06-17,2022-06-17,一般財団法人山本財団,,その他の設立登記法人,東京都,大田区,仲池上２丁目１９番１５号,,13,111,1460081,,,,,,,2022-06-17,1,,,,,ヤマモトザイダン,0
622,3010901051047,新規,0,2022-06-17,2022-06-17,株式会社ｆｏｎｏｔｏ,,株式会社,東京都,世田谷区,代田５丁目３５－１７－１０１,,13,112,1550033,,,,,,,2022-06-17,1,,,,,フォノト,0
623,3010901051071,新規,0,2022-06-17,2022-06-17,株式会社アジュールスカイ,,株式会社,東京都,世田谷区,松原２丁目１０番９号,,13,112,1560043,,,,,,,2022-06-17,1,,,,,アジュールスカイ,0
624,3010903007468,新規,0,2022-06-17,2022-06-17,ベースステーション合同会社,,合同会社,東京都,世田谷区,弦巻５丁目７番３０－６０２号,,13,112,1540016,,,,,,,2022-06-17,1,,,,,,0
633,3011001148171,新規,0,2022-06-17,2022-06-17,株式会社ＥＤＥＬ　ＩＤ,,株式会社,東京都,渋谷区,千駄ヶ谷３丁目１６番１３号,,13,113,1510051,,,,,,,2022-06-17,1,,,,,エーデルアイディー,0
636,3011003014859,新規,0,2022-06-17,2022-06-17,合同会社はれかな,,合同会社,東京都,渋谷区,本町３丁目２８番１５号アオキハイツ１０２,,13,113,1510071,,,,,,,2022-06-17,1,,,,,ハレカナ,0
637,3011003014883,新規,0,2022-06-17,2022-06-17,合同会社Ｒｅｖｉａ,,合同会社,東京都,渋谷区,代々木２丁目３９番１０号,,13,113,1510053,,,,,,,2022-06-17,1,,,,,レヴィア,0
639,3011101099265,新規,0,2022-06-17,2022-06-17,Ｖｉｖａ　ｌａ　Ｖｉｄａ株式会社,,株式会社,東京都,新宿区,新宿２丁目１２番１３号新宿アントレサロンビル２階,,13,104,1600022,,,,,,,2022-06-17,1,,,,,ヴィバラヴィダ,0
645,3011501028154,新規,0,2022-06-17,2022-06-17,明心株式会社,,株式会社,東京都,荒川区,南千住１丁目４５番８－４０３号Ｇ,,13,118,1160003,,,,,,,2022-06-17,1,,,,,メイシン,0
649,3011801040874,新規,0,2022-06-17,2022-06-17,株式会社Ｈ‐ｄｏｂｌｅ,,株式会社,東京都,葛飾区,水元１丁目７番４号ウエハラレジデンス２０２,,13,122,1250032,,,,,,,2022-06-17,1,,,,,アチェドブレ,0
650,3011801040882,新規,0,2022-06-17,2022-06-17,株式会社いづみ住宅設備,,株式会社,東京都,足立区,鹿浜４丁目１７番２０号,,13,121,1230864,,,,,,,2022-06-17,1,,,,,イヅミジュウタクセツビ,0
666,3020001146886,新規,0,2022-06-17,2022-06-17,三協株式会社,,株式会社,神奈川県,横浜市中区,山下町１番地シルクセンター９２１,,14,104,2310023,,,,,,,2022-06-17,1,,,,,,0
667,3020001146911,新規,0,2022-06-17,2022-06-17,株式会社Ｓｎｕｇｇｌｅ‐ｔｏｐ,,株式会社,神奈川県,川崎市幸区,河原町一番地河原町団地１３－８０７,,14,132,2120007,,,,,,,2022-06-17,1,,,,,スナグルトップ,0
674,3021001076256,新規,0,2022-06-17,2022-06-17,株式会社Ｄ‐Ｂｒｉｄｇｅ,,株式会社,神奈川県,藤沢市,辻堂３丁目１６番１～１０３号,,14,205,2510047,,,,,,,2022-06-17,1,,,,,ディーブリッジ,0
675,3021001076272,新規,0,2022-06-17,2022-06-17,株式会社Ｐ．Ｓ．Ｌｏｇｉｓｔｉｃｓ,,株式会社,神奈川県,相模原市緑区,相原４丁目２４番２０－１号,,14,151,2520141,,,,,,,2022-06-17,1,,,,,ピーエスロジスティックス,0
682,3030001148618,新規,0,2022-06-17,2022-06-17,福銘国際株式会社,,株式会社,埼玉県,川口市,幸町３丁目３番２２－３号,,11,203,3320016,,,,,,,2022-06-17,1,,,,,フクメイコクサイ,0
683,3030001148758,新規,0,2022-06-17,2022-06-17,株式会社ｓｐｌｅｎｄｏｒ,,株式会社,埼玉県,北足立郡伊奈町,栄１丁目１１１番地３,,11,301,3620805,,,,,,,2022-06-17,1,,,,,スプレンダー,0
684,3030001148766,新規,0,2022-06-17,2022-06-17,株式会社ＫＵ商事,,株式会社,埼玉県,川口市,本町４丁目３番６号－７０９室,,11,203,3320012,,,,,,,2022-06-17,1,,,,,ケイユーショウジ,0
688,3040001123859,新規,0,2022-06-17,2022-06-17,株式会社美浜ライフデザイン４５,,株式会社,千葉県,柏市,青葉台１丁目１８番１１号,,12,217,2770055,,,,,,,2022-06-17,1,,,,,ミハマライフデザインヨンジュウゴ,0
689,3040001123909,新規,0,2022-06-17,2022-06-17,園部商会株式会社,,株式会社,千葉県,山武郡九十九里町,小関１８６１番地５８,,12,403,2830102,,,,,,,2022-06-17,1,,,,,ソノベショウカイ,0
694,3040003020229,新規,0,2022-06-17,2022-06-17,ＭＤＰ合同会社,,合同会社,千葉県,松戸市,新松戸２丁目２１５番地の３サントピア新松戸参番館３０１号,,12,207,2700034,,,,,,,2022-06-17,1,,,,,エムディーピー,0
695,3040003020278,新規,0,2022-06-17,2022-06-17,合同会社Ｋ・Ｔ・Ｓ　ＩＮＴＥＲＮＡＴＩＯＮＡＬ,,合同会社,千葉県,山武市,松尾町猿尾１４１番地３大柴ハイツ１０３号室,,12,237,2891513,,,,,,,2022-06-17,1,,,,,ケーティーエスインターナショナル,0
710,3090003002107,新規,0,2022-06-17,2022-06-17,合同会社Ｍｅｇ,,合同会社,山梨県,甲府市,宝１丁目２３－３,,19,201,4000034,,,,,,,2022-06-17,1,,,,,メグ,0
735,3120001246767,新規,0,2022-06-17,2022-06-17,サンブライトフーズ株式会社,,株式会社,大阪府,枚方市,東香里南町一丁目３７番,,27,210,5730074,,,,,,,2022-06-17,1,,,,,サンブライトフーズ,0
740,3120003021929,新規,0,2022-06-17,2022-06-17,タケヤ合同会社,,合同会社,大阪府,大阪市淀川区,東三国２丁目９番２０－７０６号,,27,123,5320002,,,,,,,2022-06-17,1,,,,,タケヤ,0
747,3122001035976,新規,0,2022-06-17,2022-06-17,株式会社ワイズデコ,,株式会社,大阪府,東大阪市,宝持２丁目８番８号,,27,227,5770805,,,,,,,2022-06-17,1,,,,,ワイズデコ,0
749,3130001071990,新規,0,2022-06-17,2022-06-17,ウェルスタック株式会社,,株式会社,京都府,京都市下京区,玉津島町２９４,,26,106,6008427,,,,,,,2022-06-17,1,,,,,ウェルスタック,0
750,3130001072007,新規,0,2022-06-17,2022-06-17,ＲＥＥＭＡＮ　ＪＡＰＡＮ　ＩＮＴＥＬＬＩＧＥＮＴ　ＥＱＵＩＰＭＥＮＴ株式会社,,株式会社,京都府,宇治市,志津川南組２３,,26,204,6110015,,,,,,,2022-06-17,1,,,,,リーマンジャパンインテリジェントイクイップメント,0
754,3140001126380,新規,0,2022-06-17,2022-06-17,株式会社ニシムラ,,株式会社,兵庫県,尼崎市,塚口町２丁目３７番地の９,,28,202,6610002,,,,,,,2022-06-17,1,,,,,ニシムラ,0
755,3140001126397,新規,0,2022-06-17,2022-06-17,ｔｒａｎｓｐｏｒｔｅｒ株式会社,,株式会社,兵庫県,尼崎市,南城内１４７番地の１９,,28,202,6600825,,,,,,,2022-06-17,1,,,,,トランスポーター,0
758,3140003017784,新規,0,2022-06-17,2022-06-17,合同会社Ｌｉｅｎ,,合同会社,兵庫県,神戸市兵庫区,西上橘通２丁目５番１６号メゾンティファニー４０２号室,,28,105,6520033,,,,,,,2022-06-17,1,,,,,リアン,0
761,3150001025631,新規,0,2022-06-17,2022-06-17,株式会社Ｐ＆Ｄチェックアップ,,株式会社,奈良県,生駒市,鹿ノ台西２丁目４番地３,,29,209,6300114,,,,,,,2022-06-17,1,,,,,ピーアンドディーチェックアップ,0
762,3160001024293,新規,0,2022-06-17,2022-06-17,株式会社山清商店,,株式会社,滋賀県,長浜市,湖北町尾上１０７番地,,25,203,5290364,,,,,,,2022-06-17,1,,,,,ヤマセイショウテン,0
763,3160003002594,新規,0,2022-06-17,2022-06-17,Ｇｏｌｄｅｎ　Ｆｏｒｅｓｔ合同会社,,合同会社,滋賀県,守山市,今宿４丁目３番２７号,,25,207,5240046,,,,,,,2022-06-17,1,,,,,ゴールデンフォレスト,0
768,3180001151763,新規,0,2022-06-17,2022-06-17,株式会社プエオジャパン,,株式会社,愛知県,名古屋市中区,丸の内２丁目１５番４号,,23,106,4600002,,,,,,,2022-06-17,1,,,,,プエオジャパン,0
769,3180001151805,新規,0,2022-06-17,2022-06-17,ＴＯＰ株式会社,,株式会社,愛知県,名古屋市北区,金城町２丁目２１番地の１,,23,103,4620047,,,,,,,2022-06-17,1,,,,,トップ,0
770,3180003023944,新規,0,2022-06-17,2022-06-17,合同会社ママンチャイズ,,合同会社,愛知県,西春日井郡豊山町,大字豊場字和合５４番地１,,23,342,4800202,,,,,,,2022-06-17,1,,,,,ママンチャイズ,0
771,3180003023952,新規,0,2022-06-17,2022-06-17,桃憲ファンド合同会社,,合同会社,愛知県,日進市,藤枝町奥狭間１２０１－５３,,23,230,4700112,,,,,,,2022-06-17,1,,,,,モモケンファンド,0
820,3290001097970,新規,0,2022-06-17,2022-06-17,株式会社フラップ,,株式会社,福岡県,福岡市中央区,谷１丁目９番１９号メディカルビル谷ＩＩ,00126913,40,133,8100031,,,,,,,2022-06-17,1,,,,,フラップ,0
827,3290003012647,新規,0,2022-06-17,2022-06-17,合同会社ＡＮＧＥ,,合同会社,福岡県,福岡市城南区,長尾２丁目３番住宅２４５号下長尾住宅２,,40,136,8140123,,,,,,,2022-06-17,1,,,,,アンジュ,0
838,3330003009408,新規,0,2022-06-17,2022-06-17,Ｆｕｍｉｎｇ合同会社,,合同会社,熊本県,熊本市西区,上高橋１丁目９番１－６０４号,,43,103,8600061,,,,,,,2022-06-17,1,,,,,フーミング,0
839,3330003009424,新規,0,2022-06-17,2022-06-17,合同会社ＴＥＲＲＡ,,合同会社,熊本県,玉名市,築地８０番地,,43,206,8650065,,,,,,,2022-06-17,1,,,,,テラ,0
845,3360001030560,新規,0,2022-06-17,2022-06-17,株式会社Ｌａｎａ,,株式会社,沖縄県,那覇市,久米２丁目３－１５・５階,,47,201,9000033,,,,,,,2022-06-17,1,,,,,ラナ,0
846,3360001030577,新規,0,2022-06-17,2022-06-17,登越株式会社,,株式会社,沖縄県,島尻郡南風原町,字与那覇４８番地３－２０２号室,,47,350,9011103,,,,,,,2022-06-17,1,,,,,トゴシ,0
853,3390001016929,新規,0,2022-06-17,2022-06-17,株式会社ツチヤ施工,,株式会社,山形県,山形市,あこや町３丁目１６番９号,,06,201,9900025,,,,,,,2022-06-17,1,,,,,ツチヤセコウ,0
863,3420001017898,新規,0,2022-06-17,2022-06-17,株式会社ａｎｄ　ｍｏｒｅ,,株式会社,青森県,三沢市,平畑２丁目１番３８号,,02,207,0330012,,,,,,,2022-06-17,1,,,,,アンドモア,0
864,3420001017907,新規,0,2022-06-17,2022-06-17,仲村工業株式会社,,株式会社,青森県,上北郡六ヶ所村,大字尾駮字野附１３１６番地１,,02,411,0393212,,,,,,,2022-06-17,1,,,,,ナカムラコウギョウ,0
870,3430001086851,新規,0,2022-06-17,2022-06-17,株式会社Ｔａｂｌｉｓｓ,,株式会社,北海道,岩内郡岩内町,字大浜１番地１０,,01,402,0450001,,,,,,,2022-06-17,1,,,,,テーブリス,0
882,3700150109518,新規,0,2022-06-17,2022-06-13,Ｃｈｅｅｋｙ☆Ｑｕｅｅｎｓ,,その他,大阪府,大阪市浪速区,日本橋東２丁目９－１６オリエンタル日本橋Ｂ１－１　ＳＴＡＲ☆ＪＡＣＫＳオフィス内,,27,111,5560006,,,,,,,2022-06-13,1,,,,,チーキークイーンズ,0
903,4010401167953,新規,0,2022-06-17,2022-06-17,株式会社プラン,,株式会社,東京都,港区,六本木３丁目８番１２号ゲッツビル２Ｆ,,13,103,1060032,,,,,,,2022-06-17,1,,,,,プラン,0
904,4010403027890,新規,0,2022-06-17,2022-06-17,Ｈａｒｖｅｙｉｎｇ合同会社,,合同会社,東京都,港区,南青山３丁目１０番４１号ジュエル青山ビル２０２号,,13,103,1070062,,,,,,,2022-06-17,1,,,,,ハーヴィング,0
905,4010403027908,新規,0,2022-06-17,2022-06-17,Ｓｔ．ｃｏｍｐａｎｙ合同会社,,合同会社,東京都,港区,赤坂３丁目７番１７－３ＢＣ室,,13,103,1070052,,,,,,,2022-06-17,1,,,,,,0
907,4010405021025,新規,0,2022-06-17,2022-06-17,一般社団法人次世代教育研究協会,,その他の設立登記法人,東京都,港区,南青山２丁目１１番１４号青山コシビル６階,,13,103,1070062,,,,,,,2022-06-17,1,,,,,ジセダイキョウイクケンキュウキョウカイ,0
908,4010501048987,新規,0,2022-06-17,2022-06-17,株式会社ＢｌｏＯｍｉｎｇ,,株式会社,東京都,台東区,小島１丁目１７－１０－２０２,,13,106,1110056,,,,,,,2022-06-17,1,,,,,ブルーミング,0
913,4010801033053,新規,0,2022-06-17,2022-06-17,株式会社Ｄｒｉｐｓｔａｒ　Ｒｅｃｏｒｄｓ,,株式会社,東京都,大田区,北馬込１丁目２９番９号,,13,111,1430021,,,,,,,2022-06-17,1,,,,,ドリップスターレコード,0
922,4011001148154,新規,0,2022-06-17,2022-06-17,サラブリード株式会社,,株式会社,東京都,渋谷区,恵比寿１丁目１５番９号日宝恵比寿ビル４０３,,13,113,1500013,,,,,,,2022-06-17,1,,,,,サラブリード,0
923,4011001148162,新規,0,2022-06-17,2022-06-17,株式会社タスキ,,株式会社,東京都,渋谷区,上原３丁目６番１１－６０３号,,13,113,1510064,,,,,,,2022-06-17,1,,,,,タスキ,0
926,4011005009617,新規,0,2022-06-17,2022-06-17,税理士法人ＴＵＫＩＹＯＭＩ,,その他の設立登記法人,東京都,渋谷区,恵比寿４丁目２０番３号恵比寿ガーデンプレイスタワー１８階,,13,113,1500013,,,,,,,2022-06-17,1,,,,,ツキヨミ,0
931,4011103011862,新規,0,2022-06-17,2022-06-17,Ｌｏｖｅｖｅｒｙ　Ｊａｐａｎ合同会社,,合同会社,東京都,新宿区,西新宿１丁目４番１１号全研プラザビル,,13,104,1600023,,,,,,,2022-06-17,1,,,,,ラブエブリジャパン,0
934,4011203003842,新規,0,2022-06-17,2022-06-17,黒保合同会社,,合同会社,東京都,中野区,中央３丁目２６－１－１０２,,13,114,1640011,,,,,,,2022-06-17,1,,,,,クロホ,0
935,4011301027850,新規,0,2022-06-17,2022-06-17,株式会社ホームポジション,,株式会社,東京都,杉並区,今川１丁目１５番１３号,,13,115,1670035,,,,,,,2022-06-17,1,,,,,ホームポジション,0
936,4011301027867,新規,0,2022-06-17,2022-06-17,株式会社Ｇｒｅｅｎ　Ｐａｐａｙａ,,株式会社,東京都,杉並区,和泉３丁目５６番５号,,13,115,1680063,,,,,,,2022-06-17,1,,,,,グリーンパパイヤ,0
937,4011403003691,新規,0,2022-06-17,2022-06-17,Ｈｏｗ’Ｕｓｅ合同会社,,合同会社,東京都,板橋区,赤塚６丁目３４番７号,,13,119,1750092,,,,,,,2022-06-17,1,,,,,ハウユーズ,0
939,4011501028153,新規,0,2022-06-17,2022-06-17,草木株式会社,,株式会社,東京都,荒川区,南千住１丁目４５番８－４０３号Ｂ,,13,118,1160003,,,,,,,2022-06-17,1,,,,,クサキ,0
940,4011601026040,新規,0,2022-06-17,2022-06-17,株式会社Ｏｆｆｉｃｅ　ＫＡＴＡ,,株式会社,東京都,練馬区,石神井台８丁目１８番４９号,,13,120,1770045,,,,,,,2022-06-17,1,,,,,オフィスカタ,0
943,4011801040865,新規,0,2022-06-17,2022-06-17,株式会社サインデイズ,,株式会社,東京都,葛飾区,堀切８丁目３番１号,,13,122,1240006,,,,,,,2022-06-17,1,,,,,サインデイズ,0
944,4011801040873,新規,0,2022-06-17,2022-06-17,株式会社Ｕ．Ｋ,,株式会社,東京都,足立区,綾瀬３丁目２１番６号アトランティス綾瀬４０１,,13,121,1200005,,,,,,,2022-06-17,1,,,,,ユーケー,0
948,4012401039307,新規,0,2022-06-17,2022-06-17,株式会社ほほえみ,,株式会社,東京都,調布市,深大寺元町１丁目８番地１,,13,208,1820017,,,,,,,2022-06-17,1,,,,,ホホエミ,0
949,4012401039315,新規,0,2022-06-17,2022-06-17,株式会社Ｒｕｎ　ｆｒｅｅ,,株式会社,東京都,多摩市,諏訪２丁目３番地３－１０３,,13,224,2060024,,,,,,,2022-06-17,1,,,,,ランフリー,0
955,4012403005439,新規,0,2022-06-17,2022-06-17,カタアマ光画設計合同会社,,合同会社,東京都,三鷹市,上連雀８丁目２番４１号,,13,204,1810012,,,,,,,2022-06-17,1,,,,,カタアマコウガセッケイ,0
969,4020001146935,新規,0,2022-06-17,2022-06-17,株式会社ｅｌｅ,,株式会社,神奈川県,川崎市幸区,小向西町１丁目７７番地,,14,132,2120004,,,,,,,2022-06-17,1,,,,,エレ,0
970,4020001146951,新規,0,2022-06-17,2022-06-17,マーズ株式会社,,株式会社,神奈川県,横浜市中区,滝之上１３５番地根岸台第一マンションズ８０３号室,,14,104,2310837,,,,,,,2022-06-17,1,,,,,マーズ,0
971,4020001146976,新規,0,2022-06-17,2022-06-17,株式会社慧金,,株式会社,神奈川県,横浜市磯子区,丸山１丁目３４番２号,,14,107,2350011,,,,,,,2022-06-17,1,,,,,ケイキン,0
973,4020003021938,新規,0,2022-06-17,2022-06-17,Ａｇｅ‐ｆｒｅｅ合同会社,,合同会社,神奈川県,横浜市中区,本牧町１丁目４０番地３,,14,104,2310806,,,,,,,2022-06-17,1,,,,,エイジフリー,0
974,4020003021946,新規,0,2022-06-17,2022-06-17,Ｉｇｎｉｔｉｏｎ合同会社,,合同会社,神奈川県,横浜市緑区,中山３丁目３５番１－２２３号,,14,113,2260019,,,,,,,2022-06-17,1,,,,,イグニッション,0
975,4020005015574,新規,0,2022-06-17,2022-06-17,一般社団法人まごころラボ,,その他の設立登記法人,神奈川県,横浜市神奈川区,金港町７－３金港ビル７階７０８号室,,14,102,2210056,,,,,,,2022-06-17,1,,,,,マゴコロラボ,0
977,4021001076263,新規,0,2022-06-17,2022-06-17,株式会社鳶藤,,株式会社,神奈川県,厚木市,三田１丁目１５番３３号,,14,212,2430211,,,,,,,2022-06-17,1,,,,,トビフジ,0
978,4021001076288,新規,0,2022-06-17,2022-06-17,エムジェーコーポレーション株式会社,,株式会社,神奈川県,厚木市,恩名２丁目２３番３０－５０４号,,14,212,2430032,,,,,,,2022-06-17,1,,,,,エムジェーコーポレーション,0
994,4030001148757,新規,0,2022-06-17,2022-06-17,株式会社ｔｗｏｍａｋｅ,,株式会社,埼玉県,さいたま市南区,南浦和２丁目１８番１８号（１０３）,,11,108,3360017,,,,,,,2022-06-17,1,,,,,トゥーメイク,0
995,4030001148773,新規,0,2022-06-17,2022-06-17,株式会社ランドアーク,,株式会社,埼玉県,さいたま市北区,宮原町１丁目１８５番地１－１９０９号,,11,102,3310812,,,,,,,2022-06-17,1,,,,,ランドアーク,0
999,4030003019626,新規,0,2022-06-17,2022-06-17,カベキング合同会社,,合同会社,埼玉県,所沢市,和ケ原３丁目２８７番地の３２－２Ｆ,,11,208,3591162,,,,,,,2022-06-17,1,,,,,カベキング,0
1006,4040001123890,新規,0,2022-06-17,2022-06-17,株式会社Ｋ‐Ｆａｒｍ,,株式会社,千葉県,鎌ケ谷市,中沢３７５番地２,,12,224,2730118,,,,,,,2022-06-17,1,,,,,ケーファーム,0
1009,4040003020244,新規,0,2022-06-17,2022-06-17,合同会社Ｋ,,合同会社,千葉県,いすみ市,大原１００９５番地,,12,238,2980004,,,,,,,2022-06-17,1,,,,,ケイ,0
1010,4040003020285,新規,0,2022-06-17,2022-06-17,カナエ塾合同会社,,合同会社,千葉県,千葉市花見川区,宮野木台１丁目４番１０号,,12,102,2620015,,,,,,,2022-06-17,1,,,,,カナエジュク,0
1017,4050003006606,新規,0,2022-06-17,2022-06-17,達爾漢日本合同会社,,合同会社,茨城県,つくば市,天久保４丁目５番２号,,08,220,3050005,,,,,,,2022-06-17,1,,,,,ダルハンニホン,0
1018,4050003006622,新規,0,2022-06-17,2022-06-17,合同会社山田住設,,合同会社,茨城県,北茨城市,磯原町豊田２９番地３,,08,215,3191543,,,,,,,2022-06-17,1,,,,,ヤマダジュウセツ,0
1053,4120001246568,新規,0,2022-06-17,2022-06-17,株式会社ＩＮＩ,,株式会社,大阪府,大阪市中央区,東心斎橋２丁目６－５エイトワンビル１０１－Ｂ,,27,128,5420083,,,,,,,2022-06-17,1,,,,,アイエヌアイ,0
1054,4120001246650,新規,0,2022-06-17,2022-06-17,株式会社Ｓｕｎ　ｉｎ　Ａｕｔｏ,,株式会社,大阪府,大阪市中央区,南船場４丁目４番１０号辰野心斎橋ビル８階,,27,128,5420081,,,,,,,2022-06-17,1,,,,,サンインオート,0
1055,4120001246683,新規,0,2022-06-17,2022-06-17,株式会社共栄,,株式会社,大阪府,大阪市此花区,梅香３丁目３０番２２号,,27,104,5540013,,,,,,,2022-06-17,1,,,,,キョウエイ,0
1056,4120001246691,新規,0,2022-06-17,2022-06-17,百益株式会社,,株式会社,大阪府,大阪市淀川区,田川北２丁目５－３４・Ａ棟２０１号室,,27,123,5320021,,,,,,,2022-06-17,1,,,,,ヒャクエキ,0
1057,4120001246774,新規,0,2022-06-17,2022-06-17,タクミヤ株式会社,,株式会社,大阪府,大阪市西成区,天神ノ森２丁目１－１１,,27,122,5570013,,,,,,,2022-06-17,1,,,,,タクミヤ,0
1064,4120003021928,新規,0,2022-06-17,2022-06-17,合同会社角刈りほくろ,,合同会社,大阪府,大阪市北区,大淀南３丁目１１－１５－３０７,,27,127,5310075,,,,,,,2022-06-17,1,,,,,カクガリホクロ,0
1070,4122001035967,新規,0,2022-06-17,2022-06-17,株式会社創轍,,株式会社,大阪府,大東市,諸福２丁目５番６号リバーサイドＭＩＩ１０１号,00126906,27,218,5740044,,,,,,,2022-06-17,1,,,,,ソウテツ,0
1071,4122001035975,新規,0,2022-06-17,2022-06-17,株式会社ＫＹＡＭＯＮＤＥ,,株式会社,大阪府,八尾市,跡部本町１丁目１番１７号,,27,212,5810064,,,,,,,2022-06-17,1,,,,,キャモンド,0
1074,4130001071965,新規,0,2022-06-17,2022-06-17,株式会社ｎａｓｃｅｎｔ,,株式会社,京都府,京都市左京区,高野泉町１－１６,,26,103,6068111,,,,,,,2022-06-17,1,,,,,ナセント,0
1075,4130001071981,新規,0,2022-06-17,2022-06-17,株式会社ゼロキューイチデザイン,,株式会社,京都府,京都市中京区,竹屋町通麩屋町東入笹屋町４４７,,26,104,6040983,,,,,,,2022-06-17,1,,,,,ゼロキューイチデザイン,0
1076,4130001072014,新規,0,2022-06-17,2022-06-17,株式会社ＣＲＡＦＴＭＡＮ,,株式会社,京都府,京都市北区,小松原北町２６－５,,26,101,6038341,,,,,,,2022-06-17,1,,,,,クラフトマン,0
1079,4130003008008,新規,0,2022-06-17,2022-06-17,合同会社ＭＲＨメディカルサービス,,合同会社,京都府,相楽郡精華町,光台６丁目３３番地２４,,26,366,6190237,,,,,,,2022-06-17,1,,,,,エムアールエイチメディカルサービス,0
1089,4150001025630,新規,0,2022-06-17,2022-06-17,北和商事株式会社,,株式会社,奈良県,奈良市,三碓５丁目１３番１０号,,29,201,6310061,,,,,,,2022-06-17,1,,,,,ホクワショウジ,0
1101,4180001151770,新規,0,2022-06-17,2022-06-17,株式会社オンヴォーク,,株式会社,愛知県,名古屋市東区,葵３丁目２３番３号第１４オーシャンビル４階,,23,102,4610004,,,,,,,2022-06-17,1,,,,,オンヴォーク,0
1102,4180001151779,新規,0,2022-06-17,2022-06-17,株式会社Ｂｏｄｙ　ｅｄｕｃａｔｉｏｎ,,株式会社,愛知県,春日井市,二子町１丁目５－８,,23,206,4860955,,,,,,,2022-06-17,1,,,,,ボディエデュケイション,0
1103,4180001151820,新規,0,2022-06-17,2022-06-17,株式会社ＺＭＳ　ＴＲＡＤＩＮＧ,,株式会社,愛知県,春日井市,朝宮町２丁目２番地６,,23,206,4860846,,,,,,,2022-06-17,1,,,,,ゼットエムエストレーディング,0
1105,4180003023943,新規,0,2022-06-17,2022-06-17,合同会社ティム・クリエイト・プラス,,合同会社,愛知県,名古屋市西区,幅下２丁目１０番３号ダイアパレス三の丸西１３０４号,,23,104,4510041,,,,,,,2022-06-17,1,,,,,ティムクリエイトプラス,0
1106,4180003023951,新規,0,2022-06-17,2022-06-17,合同会社Ｋ＆Ｋ,,合同会社,愛知県,名古屋市北区,東大杉四丁目３９番地２,,23,103,4620000,,,,,,,2022-06-17,1,,,,,ケイアンドケイ,0
1111,4190001029529,新規,0,2022-06-17,2022-06-17,株式会社Ｃａｒｐｅｄｉｅｓｔｅｒ,,株式会社,三重県,鈴鹿市,神戸９丁目２５－１６,,24,207,5130801,,,,,,,2022-06-17,1,,,,,カーペディエスター,0
1116,4200001040186,新規,0,2022-06-17,2022-06-17,株式会社むぎ,,株式会社,岐阜県,美濃市,蕨生４３６番地,,21,207,5013788,,,,,,,2022-06-17,1,,,,,ムギ,0
1127,4240001059958,新規,0,2022-06-17,2022-06-17,株式会社もあう,,株式会社,広島県,広島市中区,上幟町７番１０－１００１号,,34,101,7300014,,,,,,,2022-06-17,1,,,,,モアウ,0
1139,4290003012638,新規,0,2022-06-17,2022-06-17,合同会社Ｂｉｒｔｈ,,合同会社,福岡県,福岡市城南区,南片江３丁目１６番１７―３０１号龍ハイツ,,40,136,8140143,,,,,,,2022-06-17,1,,,,,バース,0
1145,4320001019128,新規,0,2022-06-17,2022-06-17,株式会社神田屋,,株式会社,大分県,玖珠郡九重町,大字田野１６１３番地,,44,461,8794911,,,,,,,2022-06-17,1,,,,,カンダヤ,0
1146,4330003009423,新規,0,2022-06-17,2022-06-17,Ｈｅａｒｔ２３合同会社,,合同会社,熊本県,熊本市北区,麻生田３丁目７番３７号,,43,105,8618081,,,,,,,2022-06-17,1,,,,,ハートニジュウサン,0
1157,4370005010490,新規,0,2022-06-17,2022-06-17,医療法人永身会,,その他の設立登記法人,宮城県,仙台市青葉区,木町通１丁目１－１８Ｒｙ　ｔｈｅ　Ｏｖａｌ　３階,,04,101,9800801,,,,,,,2022-06-17,1,,,,,エイシンカイ,0
1158,4370005010499,新規,0,2022-06-17,2022-06-17,医療法人蓮実会,,その他の設立登記法人,宮城県,富谷市,明石台７丁目１番地２２,,04,216,9813332,,,,,,,2022-06-17,1,,,,,ハスミカイ,0
1164,4380003005203,新規,0,2022-06-17,2022-06-17,合同会社千年,,合同会社,福島県,福島市,立子山字折戸１７番地の１,,07,201,9601321,,,,,,,2022-06-17,1,,,,,チトセ,0
1196,4700150109517,新規,0,2022-06-17,2022-06-13,ＳＴＡＲ☆ＪＡＣＫＳ,,その他,大阪府,大阪市浪速区,日本橋東２丁目９－１６オリエンタル日本橋Ｂ１－１,,27,111,5560006,,,,,,,2022-06-13,1,,,,,スタージヤツクス,0
1225,5010401167754,新規,0,2022-06-17,2022-06-17,ＳＴＲＡＴＯＳ株式会社,,株式会社,東京都,港区,虎ノ門４丁目１番１号神谷町トラストタワー２３階,,13,103,1050001,,,,,,,2022-06-17,1,,,,,ストラトス,0
1226,5010401167944,新規,0,2022-06-17,2022-06-17,株式会社Ｄｅａｒ　Ｆｕｔｕｒｅ,,株式会社,東京都,港区,南青山２丁目２番１５号ウィン青山９４２,,13,103,1070062,,,,,,,2022-06-17,1,,,,,ディアフューチャー,0
1227,5010401167969,新規,0,2022-06-17,2022-06-17,株式会社Ｍ２,,株式会社,東京都,港区,海岸１丁目４－２２・１０階,,13,103,1050022,,,,,,,2022-06-17,1,,,,,エムツー,0
1228,5010401168001,新規,0,2022-06-17,2022-06-17,株式会社美点凝視,,株式会社,東京都,港区,虎ノ門５丁目１番４号,,13,103,1050001,,,,,,,2022-06-17,1,,,,,ビテンギョウシ,0
1229,5010401168018,新規,0,2022-06-17,2022-06-17,株式会社Ａｄｌｉｂ　Ｔｅｃｈ　Ｖｅｎｔｕｒｅｓ,,株式会社,東京都,港区,赤坂９丁目７番１号ミッドタウン・タワー３５Ｆ,,13,103,1070052,,,,,,,2022-06-17,1,,,,,アドリブテックベンチャーズ,0
1230,5010401168042,新規,0,2022-06-17,2022-06-17,ウッドストック株式会社,,株式会社,東京都,港区,新橋６丁目１７番２１号住友不動産御成門駅前ビル１０階,,13,103,1050004,,,,,,,2022-06-17,1,,,,,ウッドストック,0
1231,5010403027898,新規,0,2022-06-17,2022-06-17,エクストラクトクリエイティブ合同会社,,合同会社,東京都,港区,南青山２丁目２番１５号,,13,103,1070062,,,,,,,2022-06-17,1,,,,,エクストラクトクリエイティブ,0
1232,5010403027915,新規,0,2022-06-17,2022-06-17,合同会社ティアクラフト,,合同会社,東京都,港区,浜松町２丁目２番１５号浜松町ダイヤビル２Ｆ,,13,103,1050013,,,,,,,2022-06-17,1,,,,,ティアクラフト,0
1233,5010403027923,新規,0,2022-06-17,2022-06-17,Ｓｈｉｊｏ　Ｉｎｖｅｓｔｍｅｎｔ合同会社,,合同会社,東京都,港区,虎ノ門３丁目２２番１０－２０１号,,13,103,1050001,,,,,,,2022-06-17,1,,,,,シジョウインベストメント,0
1234,5010405021123,新規,0,2022-06-17,2022-06-17,松江ソーラープラント一般社団法人,,その他の設立登記法人,東京都,港区,虎ノ門４丁目１番２８号,,13,103,1050001,,,,,,,2022-06-17,1,,,,,マツエソーラープラント,0
1236,5010501048986,新規,0,2022-06-17,2022-06-17,株式会社ライフメンテナンス,,株式会社,東京都,台東区,上野３丁目１６番２号天翔オフィス２０４号,,13,106,1100005,,,,,,,2022-06-17,1,,,,,ライフメンテナンス,0
1240,5010801033060,新規,0,2022-06-17,2022-06-17,株式会社サムシングオールド,,株式会社,東京都,大田区,久が原３丁目３８番８号,,13,111,1460085,,,,,,,2022-06-17,1,,,,,サムシングオールド,0
1249,5011001147997,新規,0,2022-06-17,2022-06-17,株式会社ＡＲＩ３,,株式会社,東京都,渋谷区,広尾５丁目１－４０プラスリノ広尾４Ｆ,,13,113,1500012,,,,,,,2022-06-17,1,,,,,エーアールアイスリー,0
1250,5011001148153,新規,0,2022-06-17,2022-06-17,株式会社ＯＴＡＮＡＢＥ,,株式会社,東京都,渋谷区,渋谷２丁目１９番１５－６０９号宮益坂ビルディング,,13,113,1500002,,,,,,,2022-06-17,1,,,,,オタナベ,0
1254,5011101099263,新規,0,2022-06-17,2022-06-17,ロクシーカンパニー株式会社,,株式会社,東京都,新宿区,四谷３丁目１３番地ＳＥＡＢＩＲＤビル２階,,13,104,1600004,,,,,,,2022-06-17,1,,,,,ロクシーカンパニー,0
1256,5011103011853,新規,0,2022-06-17,2022-06-17,合同会社Ｓ．Ｒ,,合同会社,東京都,新宿区,新宿１丁目３５番９号カテリーナ新宿蔵王１０２,,13,104,1600022,,,,,,,2022-06-17,1,,,,,エスアール,0
1257,5011201023899,新規,0,2022-06-17,2022-06-17,株式会社ＴＯＫＵＫＵＭＡ,,株式会社,東京都,中野区,中央２丁目２番５号コンチェルト中野坂上４０３,,13,114,1640011,,,,,,,2022-06-17,1,,,,,トククマ,0
1263,5011501028152,新規,0,2022-06-17,2022-06-17,松本株式会社,,株式会社,東京都,荒川区,南千住１丁目４５番８－４０３号Ｃ,,13,118,1160003,,,,,,,2022-06-17,1,,,,,マツモト,0
1266,5011801040864,新規,0,2022-06-17,2022-06-17,株式会社天栄工業,,株式会社,東京都,葛飾区,細田５丁目５番５号グランメール・ドルチェ１０３,,13,122,1240021,,,,,,,2022-06-17,1,,,,,テンエイコウギョウ,0
1267,5011801040872,新規,0,2022-06-17,2022-06-17,株式会社ＧＲＡＮＴ,,株式会社,東京都,葛飾区,東金町１丁目１２番８号,,13,122,1250041,,,,,,,2022-06-17,1,,,,,グラント,0
1270,5011803005139,新規,0,2022-06-17,2022-06-17,合同会社ヒロクリーン,,合同会社,東京都,足立区,六町３丁目５番４号,,13,121,1210073,,,,,,,2022-06-17,1,,,,,ヒロクリーン,0
1273,5012403005438,新規,0,2022-06-17,2022-06-17,合同会社シアラント,,合同会社,東京都,府中市,是政１丁目１０－１２スリーヒルズ２０５号,,13,206,1830014,,,,,,,2022-06-17,1,,,,,,0
1274,5012405004751,新規,0,2022-06-17,2022-06-17,一般社団法人アソビズ,,その他の設立登記法人,東京都,小金井市,関野町２丁目４番２１号,,13,210,1840001,,,,,,,2022-06-17,1,,,,,アソビズ,0
1286,5020001146934,新規,0,2022-06-17,2022-06-17,株式会社カリスマコーポレーション,,株式会社,神奈川県,川崎市幸区,柳町５８番１,,14,132,2120015,,,,,,,2022-06-17,1,,,,,カリスマコーポレーション,0
1287,5020001146950,新規,0,2022-06-17,2022-06-17,株式会社ＴＫＳ,,株式会社,神奈川県,横浜市保土ケ谷区,川島町７６５番地５６,,14,106,2400045,,,,,,,2022-06-17,1,,,,,ティーケイエス,0
1288,5020001146975,新規,0,2022-06-17,2022-06-17,ＴｙＢａｓｅ株式会社,,株式会社,神奈川県,横浜市南区,六ツ川２丁目２番地１サウス・スクエア１００横浜・弘明寺６１２号,,14,105,2320066,,,,,,,2022-06-17,1,,,,,ティーワイベース,0
1289,5020001146983,新規,0,2022-06-17,2022-06-17,株式会社キューズファクトリー,,株式会社,神奈川県,川崎市高津区,溝口３丁目１６番１１号,,14,134,2130001,,,,,,,2022-06-17,1,,,,,キューズファクトリー,0
1290,5020001146991,新規,0,2022-06-17,2022-06-17,株式会社Ｆｒｉｄａｙ,,株式会社,神奈川県,川崎市川崎区,駅前本町１１番地２川崎フロンティアビル４階,,14,131,2100007,,,,,,,2022-06-17,1,,,,,フライデー,0
1295,5020005015581,新規,0,2022-06-17,2022-06-17,一般社団法人ホリスティックウィメンズケア協会,,その他の設立登記法人,神奈川県,横浜市旭区,鶴ケ峰本町２丁目２９番１３号,,14,112,2410021,,,,,,,2022-06-17,1,,,,,ホリスティックウィメンズケアキョウカイ,0
1300,5021001076254,新規,0,2022-06-17,2022-06-17,株式会社Ｈｅａｌｔｈｂｕｉｌｄ,,株式会社,神奈川県,逗子市,久木４丁目６番１９号ＫＡハウスＢ,,14,208,2490001,,,,,,,2022-06-17,1,,,,,ヘルスビルド,0
1309,5030001148764,新規,0,2022-06-17,2022-06-17,株式会社ＭＡＲ,,株式会社,埼玉県,新座市,片山１丁目１３番２８号,,11,230,3520025,,,,,,,2022-06-17,1,,,,,,0
1316,5030003019591,新規,0,2022-06-17,2022-06-17,合同会社Ａｓｈｉｍｏｔｏ,,合同会社,埼玉県,さいたま市浦和区,岸町１丁目７番１８号,,11,107,3300064,,,,,,,2022-06-17,1,,,,,アシモト,0
1317,5030003019633,新規,0,2022-06-17,2022-06-17,文一合同会社,,合同会社,埼玉県,坂戸市,三光町３番２７号ホワイトハウス１０３号室,,11,239,3500235,,,,,,,2022-06-17,1,,,,,ブンイチ,0
1321,5040001123907,新規,0,2022-06-17,2022-06-17,株式会社ＨＡＴＳＵＥ,,株式会社,千葉県,山武市,松尾町五反田２１３７番地,,12,237,2891523,,,,,,,2022-06-17,1,,,,,ハツエ,0
1322,5040001123915,新規,0,2022-06-17,2022-06-17,ミヤマエホールディングス株式会社,,株式会社,千葉県,千葉市中央区,都町２丁目２４番１０号,,12,101,2600001,,,,,,,2022-06-17,1,,,,,ミヤマエホールディングス,0
1329,5040003020235,新規,0,2022-06-17,2022-06-17,合同会社りすりすマーケット,,合同会社,千葉県,館山市,広瀬８７６番地２,,12,205,2940008,,,,,,,2022-06-17,1,,,,,リスリスマーケット,0
1342,5080103002609,新規,0,2022-06-17,2022-06-17,合同会社森のたね,,合同会社,静岡県,富士宮市,大鹿窪９４０番地の２１,,22,207,4190303,,,,,,,2022-06-17,1,,,,,モリノタネ,0
1347,5100001035451,新規,0,2022-06-17,2022-06-17,株式会社ｌｅａｌｅａ,,株式会社,長野県,長野市,大字大豆島４１９５番地,,20,201,3810022,,,,,,,2022-06-17,1,,,,,レアレア,0
1361,5120001246591,新規,0,2022-06-17,2022-06-17,株式会社ＹＫＴ．Ａｓｓｅｔ,,株式会社,大阪府,大阪市東住吉区,照ケ丘矢田３丁目１５番６号,,27,121,5460021,,,,,,,2022-06-17,1,,,,,ワイケイティーアセット,0
1362,5120001246682,新規,0,2022-06-17,2022-06-17,株式会社華帆国際,,株式会社,大阪府,大阪市北区,西天満５丁目１０番１６号植月ビル４階,,27,127,5300047,,,,,,,2022-06-17,1,,,,,カホコクサイ,0
1363,5120001246765,新規,0,2022-06-17,2022-06-17,四季寧静株式会社,,株式会社,大阪府,大阪市西成区,花園南１丁目１１番１８号１０１号室,,27,122,5570015,,,,,,,2022-06-17,1,,,,,シキネイセイ,0
1366,5120003021902,新規,0,2022-06-17,2022-06-17,プラントレジデンス合同会社,,合同会社,大阪府,大阪市北区,天満３丁目６番１４－３０１号,,27,127,5300043,,,,,,,2022-06-17,1,,,,,プラントレジデンス,0
1369,5120901046117,新規,0,2022-06-17,2022-06-17,株式会社豊栄ビルド,,株式会社,大阪府,豊中市,庄内栄町１丁目２２番９号,,27,203,5610834,,,,,,,2022-06-17,1,,,,,ホウエイビルド,0
1372,5122001035974,新規,0,2022-06-17,2022-06-17,株式会社アクア設備工業,,株式会社,大阪府,東大阪市,中石切町４丁目１０番２０号,,27,227,5798014,,,,,,,2022-06-17,1,,,,,アクアセツビコウギョウ,0
1374,5130003007999,新規,0,2022-06-17,2022-06-17,ことくらす合同会社,,合同会社,京都府,京都市下京区,中堂寺庄ノ内町３２番地１,,26,106,6008814,,,,,,,2022-06-17,1,,,,,コトクラス,0
1375,5130003008007,新規,0,2022-06-17,2022-06-17,合同会社ステップ京都,,合同会社,京都府,京都市中京区,西ノ京南両町７０番地,,26,104,6048493,,,,,,,2022-06-17,1,,,,,ステップキョウト,0
1378,5140001126354,新規,0,2022-06-17,2022-06-17,ユースフルデザイン株式会社,,株式会社,兵庫県,尼崎市,崇徳院２丁目１８番地の５,,28,202,6600071,,,,,,,2022-06-17,1,,,,,ユースフルデザイン,0
1386,5180001151761,新規,0,2022-06-17,2022-06-17,株式会社ｍｏｎ　ｔｒｅｓｏｒ,,株式会社,愛知県,名古屋市中区,栄３丁目６番２０号辰晃ビル５Ｆ,,23,106,4600008,,,,,,,2022-06-17,1,,,,,モントレゾール,0
1387,5180001151803,新規,0,2022-06-17,2022-06-17,タカラプロント株式会社,,株式会社,愛知県,名古屋市中川区,打出１丁目２１番地,,23,110,4540926,,,,,,,2022-06-17,1,,,,,タカラプロント,0
1391,5180003023934,新規,0,2022-06-17,2022-06-17,ＫＥＹＴＥＣ合同会社,,合同会社,愛知県,江南市,古知野町熱田６７番地,,23,217,4838207,,,,,,,2022-06-17,1,,,,,キーテック,0
1405,5240001059957,新規,0,2022-06-17,2022-06-17,株式会社ＴＯＫＫＯ,,株式会社,広島県,広島市安佐北区,安佐町鈴張５０４７番地９,,34,106,7391700,,,,,,,2022-06-17,1,,,,,トッコー,0
1411,5260001036962,新規,0,2022-06-17,2022-06-17,株式会社志成,,株式会社,岡山県,岡山市北区,宿４００－８－１０５室,,33,101,7000001,,,,,,,2022-06-17,1,,,,,シセイ,0
1413,5280001008720,新規,0,2022-06-17,2022-06-17,株式会社田部竹下酒造,,株式会社,島根県,雲南市,掛合町掛合９５５番地５,,32,209,6902701,,,,,,,2022-06-17,1,,,,,,0
1419,5290001097960,新規,0,2022-06-17,2022-06-17,株式会社ｓｔｙｌｅ,,株式会社,福岡県,福岡市博多区,東光２丁目６－１０,,40,132,8120008,,,,,,,2022-06-17,1,,,,,スタイル,0
1420,5290001097969,新規,0,2022-06-17,2022-06-17,景行株式会社,,株式会社,福岡県,福岡市中央区,渡辺通２丁目３番１９号,,40,133,8100004,,,,,,,2022-06-17,1,,,,,ケイコウ,0
1423,5290003012645,新規,0,2022-06-17,2022-06-17,合同会社Ｐｒｅｍｉｅｒ　Ｆｉｅｌｄ,,合同会社,福岡県,福岡市中央区,地行浜２丁目２番５号,,40,133,8100065,,,,,,,2022-06-17,1,,,,,プレミアフィールド,0
1431,5310003004383,新規,0,2022-06-17,2022-06-17,合同会社ＬＲ,,合同会社,長崎県,南島原市,有家町山川３７８番地１,,42,214,8592202,,,,,,,2022-06-17,1,,,,,エルアール,0
1434,5320001019143,新規,0,2022-06-17,2022-06-17,株式会社猪俣建設,,株式会社,大分県,大分市,萩原４丁目１０番１－５０１号サーパス萩原,,44,201,8700921,,,,,,,2022-06-17,1,,,,,イノマタケンセツ,0
1436,5330001029843,新規,0,2022-06-17,2022-06-17,株式会社ひとしな,,株式会社,熊本県,熊本市中央区,大江２丁目１３番８号,,43,101,8620971,,,,,,,2022-06-17,1,,,,,ヒトシナ,0
1444,5350005006077,新規,0,2022-06-17,2022-06-17,特定非営利活動法人陽の環,,その他の設立登記法人,宮崎県,延岡市,北浦町古江４６３番地２,,45,203,8890301,,,,,,,2022-06-17,1,,,,,ヒノワ,0
1446,5360001030559,新規,0,2022-06-17,2022-06-17,株式会社叶虎興業,,株式会社,沖縄県,うるま市,みどり町４丁目６番３－３０２号サンライフマンション,,47,213,9042215,,,,,,,2022-06-17,1,,,,,カナトコウギョウ,0
1447,5360003012092,新規,0,2022-06-17,2022-06-17,ＦＩＳＴＢＵＭＰ合同会社,,合同会社,沖縄県,中頭郡読谷村,字高志保９１５番地Ｇａｌａ内,,47,324,9040323,,,,,,,2022-06-17,1,,,,,フィストバンプ,0
1451,5380003005202,新規,0,2022-06-17,2022-06-17,ＰＡＰＡ　ＴＲＡＤＩＮＧ合同会社,,合同会社,福島県,いわき市,常磐長孫町星谷３番地の３,,07,204,9728315,,,,,,,2022-06-17,1,,,,,パパトレーディング,0
1464,5430001086841,新規,0,2022-06-17,2022-06-17,株式会社黎明,,株式会社,北海道,札幌市中央区,北一条西３丁目３番２７号札幌北１条駅前通りビル９階,,01,101,0600001,,,,,,,2022-06-17,1,,,,,,0
1470,5470001019120,新規,0,2022-06-17,2022-06-17,株式会社ライフユニバース,,株式会社,香川県,東かがわ市,白鳥１０９－２エスポワールラトＢ１０１,,37,207,7692705,,,,,,,2022-06-17,1,,,,,ライフユニバース,0
1471,5480003001843,新規,0,2022-06-17,2022-06-17,エネコ合同会社,,合同会社,徳島県,徳島市,徳島本町３丁目６番地,,36,201,7700854,,,,,,,2022-06-17,1,,,,,エネコ,0
1472,5700150109516,新規,0,2022-06-17,2022-06-13,Ｒｉｓｉｎｇ　Ｇｅｎｅｒａｔｉｏｎ’ｓ　Ａｃｔ,,その他,大阪府,大阪市浪速区,日本橋東２丁目９－１６オリエンタル日本橋Ｂ１－１　ＳＴＡＲ☆ＪＡＣＫＳオフィス内,,27,111,5560006,,,,,,,2022-06-13,1,,,,,ライジングジエネレーシヨンズアクト,0
1473,5700150109986,新規,0,2022-06-17,2022-06-17,Ｎ．Ｍ．ＥＮＴＥＲＰＲＩＳＥＳ,,外国会社等,千葉県,袖ケ浦市,長浦駅前７丁目８番地１５,,12,229,2990246,スリランカ民主社会主義共和国、コロンボ１２、ペーラサヒブストリト、６４／２,,,,,,2022-06-17,1,,,,,エヌエムエンタープライズ,0
1474,5700150110003,新規,0,2022-06-17,2022-06-17,ＩＭＣ　Ａｓｉａ　Ｐａｃｉｆｉｃ　Ｌｉｍｉｔｅｄ,,外国会社等,東京都,中央区,日本橋室町４丁目３番９号,,13,102,1030022,中華人民共和国香港特別行政区クイーンズ・ロード・セントラル１００、２０階２００１号室,,,,,,2022-06-17,1,,,,,アイエムシーアジアパシフイツクリミテツド,0
1481,6010001227379,新規,0,2022-06-17,2022-06-17,株式会社ＴＯＫＩＭＥＫＩ,,株式会社,東京都,千代田区,神田猿楽町２丁目８番１１号ＶＯＲＴ水道橋ＩＩＩ,00126914,13,101,1010064,,,,,,,2022-06-17,1,,,,,トキメキ,0
1482,6010001227437,新規,0,2022-06-17,2022-06-17,ＫＡＷＯＷ株式会社,,株式会社,東京都,千代田区,神田須田町１丁目７番１号,,13,101,1010041,,,,,,,2022-06-17,1,,,,,カワオ,0
1483,6010001227503,新規,0,2022-06-17,2022-06-17,株式会社ＺＥＩＭＵＵ,,株式会社,東京都,中央区,銀座１丁目１２－４Ｎ＆ＥＢＬＤ．７階,,13,102,1040061,,,,,,,2022-06-17,1,,,,,ゼイムー,0
1488,6010003037891,新規,0,2022-06-17,2022-06-17,合同会社Ｋプランニング,,合同会社,東京都,中央区,銀座１丁目２２－１１銀座大竹ビジデンス２Ｆ,,13,102,1040061,,,,,,,2022-06-17,1,,,,,ケープランニング,0
1489,6010003037925,新規,0,2022-06-17,2022-06-17,合同会社ＥＷ藤沢,,合同会社,東京都,千代田区,九段北３丁目２番４号,,13,101,1020073,,,,,,,2022-06-17,1,,,,,イーダブリューフジサワ,0
1492,6010101015213,新規,0,2022-06-17,2022-06-17,株式会社ＴＥＲＡＳ,,株式会社,東京都,八王子市,大楽寺町１８９番地９第２江塚ビル２０２号,,13,201,1930816,,,,,,,2022-06-17,1,,,,,テラス,0
1504,6010401168009,新規,0,2022-06-17,2022-06-17,ＮＬＳパートナーズ株式会社,,株式会社,東京都,港区,虎ノ門５丁目１３－１,,13,103,1050001,,,,,,,2022-06-17,1,,,,,エヌエルエスパートナーズ,0
1505,6010403027889,新規,0,2022-06-17,2022-06-17,霊視経営コンサルタント合同会社,,合同会社,東京都,港区,浜松町２丁目２番１５号浜松町ダイヤビル２Ｆ,,13,103,1050013,,,,,,,2022-06-17,1,,,,,レイシケイエイコンサルタント,0
1506,6010403027906,新規,0,2022-06-17,2022-06-17,合同会社家の前,,合同会社,東京都,港区,浜松町２丁目２番１５号浜松町ダイヤビル２Ｆ,,13,103,1050013,,,,,,,2022-06-17,1,,,,,イエノマエ,0
1507,6010403027914,新規,0,2022-06-17,2022-06-17,合同会社Ｍａｚａｊ,,合同会社,東京都,港区,南青山３丁目８－２青山ＯＧビル３階,,13,103,1070062,,,,,,,2022-06-17,1,,,,,マザージ,0
1508,6010405021080,新規,0,2022-06-17,2022-06-17,一般社団法人全日本エンターテイメント協会,,その他の設立登記法人,東京都,港区,芝１丁目９番２号,,13,103,1050014,,,,,,,2022-06-17,1,,,,,ゼンニホンエンターテイメントキョウカイ,0
1509,6010405021122,新規,0,2022-06-17,2022-06-17,周防ソーラープラント一般社団法人,,その他の設立登記法人,東京都,港区,虎ノ門４丁目１番２８号,,13,103,1050001,,,,,,,2022-06-17,1,,,,,スオウソーラープラント,0
1515,6010701042838,新規,0,2022-06-17,2022-06-17,株式会社ｅ‐ｍｏｅｒ,,株式会社,東京都,品川区,上大崎３丁目１番２－１８１３号,,13,109,1410021,,,,,,,2022-06-17,1,,,,,イーモア,0
1519,6010805002952,新規,0,2022-06-17,2022-06-17,一般社団法人ＣＨＡＮＧＥ　ＹＯＵＲ　ＬＩＦＥ,,その他の設立登記法人,東京都,大田区,北嶺町３９番６－１０２号,,13,111,1450073,,,,,,,2022-06-17,1,,,,,チェンジユアライフ,0
1523,6010903007457,新規,0,2022-06-17,2022-06-17,合同会社ＡＣ’ｏｍｐａｎｙ,,合同会社,東京都,世田谷区,太子堂３丁目１９番７号,,13,112,1540004,,,,,,,2022-06-17,1,,,,,アカンパニー,0
1524,6010903007465,新規,0,2022-06-17,2022-06-17,合同会社オフィス・ランナウェイズ,,合同会社,東京都,世田谷区,奥沢６丁目１９番１６－２０２号,,13,112,1580083,,,,,,,2022-06-17,1,,,,,オフィスランナウェイズ,0
1529,6011001147930,新規,0,2022-06-17,2022-06-17,株式会社ｒａｔｈｅｒｂｅ,,株式会社,東京都,渋谷区,神宮前１丁目７－６－１Ｃ,,13,113,1500001,,,,,,,2022-06-17,1,,,,,ラザビー,0
1530,6011001148152,新規,0,2022-06-17,2022-06-17,株式会社Ａｓｈｉｂａｓ,,株式会社,東京都,目黒区,目黒２丁目１２番１６号,,13,110,1530063,,,,,,,2022-06-17,1,,,,,アシバス,0
1540,6011103011852,新規,0,2022-06-17,2022-06-17,合同会社皆楽,,合同会社,東京都,新宿区,北新宿１丁目４－９柏木ＶＬ１０２,,13,104,1690074,,,,,,,2022-06-17,1,,,,,ミナタノ,0
1541,6011103011860,新規,0,2022-06-17,2022-06-17,合同会社ＬｉｇｈｔＨｏｕｓｅｓ,,合同会社,東京都,新宿区,富久町２３番１２号,,13,104,1620067,,,,,,,2022-06-17,1,,,,,ライトハウズ,0
1542,6011201023907,新規,0,2022-06-17,2022-06-17,ＪＥＣＫ国際商務株式会社,,株式会社,東京都,中野区,弥生町２丁目６－９タケダビル４０１号室,,13,114,1640013,,,,,,,2022-06-17,1,,,,,ジェーイーシーケーコクサイショウム,0
1545,6011301027865,新規,0,2022-06-17,2022-06-17,ヴィシャエル株式会社,,株式会社,東京都,杉並区,上高井戸１丁目４番１６号ルーブル上高井戸７０１,,13,115,1680074,,,,,,,2022-06-17,1,,,,,ヴィシャエル,0
1547,6011501028151,新規,0,2022-06-17,2022-06-17,甜甜株式会社,,株式会社,東京都,荒川区,南千住１丁目４５番８－４０３号Ａ,,13,118,1160003,,,,,,,2022-06-17,1,,,,,テンテン,0
1550,6011801040863,新規,0,2022-06-17,2022-06-17,株式会社歩登ホーミーズ,,株式会社,東京都,葛飾区,青戸５丁目２２番１０号,,13,122,1250062,,,,,,,2022-06-17,1,,,,,アユトホーミーズ,0
1551,6011801040871,新規,0,2022-06-17,2022-06-17,株式会社ＢＥ　ＴＨＥ　ＣＨＡＮＧＥ,,株式会社,東京都,足立区,西伊興２丁目２番２０－７０６号,,13,121,1210824,,,,,,,2022-06-17,1,,,,,ビーザチェンジ,0
1552,6011803005138,新規,0,2022-06-17,2022-06-17,スマートインフラ合同会社,,合同会社,東京都,足立区,小台１丁目２１番１－１３１０号,,13,121,1200046,,,,,,,2022-06-17,1,,,,,スマートインフラ,0
1553,6011805003180,新規,0,2022-06-17,2022-06-17,一般社団法人日本起業家支援機構,,その他の設立登記法人,東京都,葛飾区,奥戸５丁目５番１０号,,13,122,1240022,,,,,,,2022-06-17,1,,,,,ニホンキギョウカシエンキコウ,0
1558,6012801021663,新規,0,2022-06-17,2022-06-17,株式会社彩創,,株式会社,東京都,昭島市,郷地町２丁目１５番１５号,,13,207,1960032,,,,,,,2022-06-17,1,,,,,サイソウ,0
1559,6012803002810,新規,0,2022-06-17,2022-06-17,合同会社ＷＥＬＬ,,合同会社,東京都,国分寺市,光町１丁目４１－６,,13,214,1850034,,,,,,,2022-06-17,1,,,,,ウェル,0
1567,6020001146966,新規,0,2022-06-17,2022-06-17,株式会社ユーエムエス,,株式会社,神奈川県,横浜市鶴見区,東寺尾東台９番１９号,,14,101,2300018,,,,,,,2022-06-17,1,,,,,ユーエムエス,0
1568,6020001146999,新規,0,2022-06-17,2022-06-17,株式会社ナセナル・テクノ,,株式会社,神奈川県,横浜市戸塚区,上柏尾町４６５番地３,,14,110,2440811,,,,,,,2022-06-17,1,,,,,ナセナルテクノ,0
1578,6020003021936,新規,0,2022-06-17,2022-06-17,クラウドオフィス合同会社,,合同会社,神奈川県,横浜市都筑区,中川中央１丁目３０－１プレミア横浜３階－６３号室,,14,118,2240003,,,,,,,2022-06-17,1,,,,,クラウドオフィス,0
1584,6021003011836,新規,0,2022-06-17,2022-06-17,合同会社藤むら,,合同会社,神奈川県,秦野市,戸川１０６－１０,,14,211,2591306,,,,,,,2022-06-17,1,,,,,,0
1590,6030001148771,新規,0,2022-06-17,2022-06-17,株式会社Ｓｏｉｎ,,株式会社,埼玉県,三郷市,高州１丁目１２２番地１１,,11,237,3410037,,,,,,,2022-06-17,1,,,,,ソワン,0
1595,6030003019624,新規,0,2022-06-17,2022-06-17,合同会社ＴＡＫＵＭＡ,,合同会社,埼玉県,さいたま市北区,奈良町１０７－２,,11,102,3310822,,,,,,,2022-06-17,1,,,,,タクマ,0
1606,6040001123856,新規,0,2022-06-17,2022-06-17,株式会社本のにほひ,,株式会社,千葉県,習志野市,香澄５丁目７番１３号,,12,216,2750022,,,,,,,2022-06-17,1,,,,,ホンノニオイ,0
1607,6040001123889,新規,0,2022-06-17,2022-06-17,エークレスト株式会社,,株式会社,千葉県,木更津市,金田東６丁目３１番地８フレラックス木更津１号棟２号室,,12,206,2920009,,,,,,,2022-06-17,1,,,,,エークレスト,0
1610,6040003020275,新規,0,2022-06-17,2022-06-17,興隆合同会社,,合同会社,千葉県,千葉市稲毛区,稲毛３丁目７番７号新富第一１０２号室,,12,103,2630034,,,,,,,2022-06-17,1,,,,,コウリュウ,0
1611,6040003020283,新規,0,2022-06-17,2022-06-17,Ｍｅｌｌｍａｎｏｒ合同会社,,合同会社,千葉県,柏市,高南台３丁目１０番地４６,,12,217,2770942,,,,,,,2022-06-17,1,,,,,メルマノア,0
1613,6050001051214,新規,0,2022-06-17,2022-06-17,株式会社Ｔｒｙ　ｂｅｓｔ,,株式会社,茨城県,牛久市,田宮町２８３番１号ラフランスＡ１０３,,08,219,3001236,,,,,,,2022-06-17,1,,,,,トライベスト,0
1617,6060001034977,新規,0,2022-06-17,2022-06-17,株式会社加藤ペット紹介,,株式会社,栃木県,塩谷郡高根沢町,大字石末３６７９番地２１,,09,386,3291225,,,,,,,2022-06-17,1,,,,,カトウペットショウカイ,0
1630,6090001017624,新規,0,2022-06-17,2022-06-17,山本工業株式会社,,株式会社,山梨県,南都留郡忍野村,内野２７０番地８,,19,424,4010512,,,,,,,2022-06-17,1,,,,,ヤマモトコウギョウ,0
1631,6090003002112,新規,0,2022-06-17,2022-06-17,ＫＡＮＡＪＩ　Ｉｎｔｅｒｎａｔｉｏｎａｌ合同会社,,合同会社,山梨県,中巨摩郡昭和町,河東中島２０７０番地コーポルビー２０４号,,19,384,4093863,,,,,,,2022-06-17,1,,,,,カナジインターナショナル,0
1644,6120001246756,新規,0,2022-06-17,2022-06-17,ｉＬｉｎｋ株式会社,,株式会社,大阪府,大阪市港区,市岡元町２丁目６番１１－３０６号,,27,107,5520002,,,,,,,2022-06-17,1,,,,,アイリンク,0
1645,6120001246764,新規,0,2022-06-17,2022-06-17,株式会社阪連,,株式会社,大阪府,大阪市住吉区,清水丘３丁目１０番１４号,,27,120,5580033,,,,,,,2022-06-17,1,,,,,ハンレン,0
1646,6120001246772,新規,0,2022-06-17,2022-06-17,株式会社皓月,,株式会社,大阪府,大阪市大正区,小林東３丁目１４番１７号,,27,108,5510011,,,,,,,2022-06-17,1,,,,,コウゲツ,0
1651,6120003021926,新規,0,2022-06-17,2022-06-17,ＫＰ　Ｃｒａｆｔ合同会社,,合同会社,大阪府,大阪市中央区,谷町７丁目６－３２,,27,128,5420012,,,,,,,2022-06-17,1,,,,,ケーピークラフト,0
1652,6120903004195,新規,0,2022-06-17,2022-06-17,合同会社スキタス,,合同会社,大阪府,高槻市,城北町１丁目５番５号,,27,207,5690071,,,,,,,2022-06-17,1,,,,,スキタス,0
1657,6130003007998,新規,0,2022-06-17,2022-06-17,茶香茶香合同会社,,合同会社,京都府,京都市東山区,堀池町３８３番地,,26,105,6050038,,,,,,,2022-06-17,1,,,,,チャカチャカ,0
1658,6130003008006,新規,0,2022-06-17,2022-06-17,合同会社Ｓｈｕｔｃｈｏｈｏｉｋｕ,,合同会社,京都府,京都市中京区,西ノ京永本町１４,,26,104,6048421,,,,,,,2022-06-17,1,,,,,シュッチョウホイク,0
1664,6140001126378,新規,0,2022-06-17,2022-06-17,株式会社アールライン,,株式会社,兵庫県,高砂市,北浜町牛谷３８４番地,,28,216,6710121,,,,,,,2022-06-17,1,,,,,アールライン,0
1670,6140005026211,新規,0,2022-06-17,2022-06-17,ジュリオ朝霧管理組合法人,,その他の設立登記法人,兵庫県,明石市,大蔵谷奥３番３号,,28,203,6730867,,,,,,,2022-06-17,1,,,,,ジュリオアサギリ,0
1672,6150001025629,新規,0,2022-06-17,2022-06-17,株式会社ａｉｌｅｓ,,株式会社,奈良県,橿原市,葛本町７３番地の１－１０７,,29,205,6340007,,,,,,,2022-06-17,1,,,,,エルス,0
1678,6180001151810,新規,0,2022-06-17,2022-06-17,株式会社あおば,,株式会社,愛知県,一宮市,冨田字牛池２８３,,23,203,4940018,,,,,,,2022-06-17,1,,,,,アオバ,0
1679,6180001151819,新規,0,2022-06-17,2022-06-17,株式会社エレトム,,株式会社,愛知県,名古屋市中区,丸の内２丁目１８番２０号ＤＫ丸の内ビル３０１号室,,23,106,4600002,,,,,,,2022-06-17,1,,,,,エレトム,0
1685,6180005019797,新規,0,2022-06-17,2022-06-17,アルヴァリンク弁理士法人,,その他の設立登記法人,愛知県,名古屋市中区,丸の内３丁目６－２７ＥＢＳビル５階Ａ１２,,23,106,4600002,,,,,,,2022-06-17,1,,,,,アルヴァリンク,0
1701,6240001059956,新規,0,2022-06-17,2022-06-17,ＪＩＮ株式会社,,株式会社,広島県,広島市安芸区,矢野東６丁目８番１９号,,34,107,7360083,,,,,,,2022-06-17,1,,,,,ジン,0
1705,6240003005669,新規,0,2022-06-17,2022-06-17,合同会社ＳｕｎＲｉｓｅ,,合同会社,広島県,広島市中区,紙屋町２丁目２番２号,,34,101,7300031,,,,,,,2022-06-17,1,,,,,サンライズ,0
1717,6290001097885,新規,0,2022-06-17,2022-06-17,株式会社ＳＹＮ,,株式会社,福岡県,福岡市中央区,鳥飼３丁目６番１８－２０５号,,40,133,8100053,,,,,,,2022-06-17,1,,,,,サイン,0
1718,6290001097984,新規,0,2022-06-17,2022-06-17,株式会社糸島農園,,株式会社,福岡県,糸島市,志摩新町１２７番地,,40,230,8191333,,,,,,,2022-06-17,1,,,,,イトシマノウエン,0
1721,6300001012974,新規,0,2022-06-17,2022-06-17,株式会社ＡＬＢＡ,,株式会社,佐賀県,佐賀市,兵庫南２丁目１番１８号,,41,201,8490918,,,,,,,2022-06-17,1,,,,,アルバ,0
1726,6330001029850,新規,0,2022-06-17,2022-06-17,株式会社サカモーター,,株式会社,熊本県,熊本市北区,大窪４丁目３番１７号,,43,105,8600083,,,,,,,2022-06-17,1,,,,,サカモーター,0
1731,6360001030566,新規,0,2022-06-17,2022-06-17,レクサスＥＶレンタカー株式会社,,株式会社,沖縄県,那覇市,久茂地１丁目１番１号,,47,201,9000015,,,,,,,2022-06-17,1,,,,,レクサスイーブイレンタカー,0
1732,6360003012083,新規,0,2022-06-17,2022-06-17,合同会社ゼロファイター,,合同会社,沖縄県,那覇市,久茂地１丁目１番１号９Ｆ,,47,201,9000015,,,,,,,2022-06-17,1,,,,,,0
1733,6360005006678,新規,0,2022-06-17,2022-06-17,一般社団法人ＯＥＮおきなわ,,その他の設立登記法人,沖縄県,浦添市,仲間１丁目２７番２号,,47,208,9012103,,,,,,,2022-06-17,1,,,,,オーエンオキナワ,0
1744,6380003005201,新規,0,2022-06-17,2022-06-17,にぐらや不動産合同会社,,合同会社,福島県,福島市,松川町関谷字大窪２９番地の１,,07,201,9601244,,,,,,,2022-06-17,1,,,,,ニグラヤフドウサン,0
1764,6430001086849,新規,0,2022-06-17,2022-06-17,株式会社ＳＫＹ,,株式会社,北海道,千歳市,信濃２丁目４番１３号,,01,224,0660038,,,,,,,2022-06-17,1,,,,,スカイ,0
1781,6490001010209,新規,0,2022-06-17,2022-06-17,株式会社Ｏｐｔｗｏｒｋｓ,,株式会社,高知県,高知市,薊野中町３３番２５－２号,,39,201,7810013,,,,,,,2022-06-17,1,,,,,オプトワークス,0
1783,6700150109102,新規,0,2022-06-17,2022-05-27,湯沢町地域公共交通活性化協議会,,その他,新潟県,南魚沼郡湯沢町,大字神立３００,,15,461,9496102,,,,,,,2022-05-27,1,,,,,ユザワマチチイキコウキヨウコウツウカツセイカキヨウギカイ,0
1806,7010003037874,新規,0,2022-06-17,2022-06-17,サーシティ合同会社,,合同会社,東京都,千代田区,二番町７番地１,,13,101,1020084,,,,,,,2022-06-17,1,,,,,サーシティ,0
1807,7010003037899,新規,0,2022-06-17,2022-06-17,チェントミリアルド３号合同会社,,合同会社,東京都,中央区,日本橋１丁目４番１号日本橋一丁目ビルディング,,13,102,1030027,,,,,,,2022-06-17,1,,,,,チェントミリアルドサンゴウ,0
1816,7010401167892,新規,0,2022-06-17,2022-06-17,株式会社Ｍａｉｓｏｎ　ｄｅ　ＨＥＲＢ,,株式会社,東京都,港区,白金台５丁目５－８ＩＳＯＲＥＴＴＡ５Ｆ,,13,103,1080071,,,,,,,2022-06-17,1,,,,,メゾンドハーブ,0
1817,7010401167950,新規,0,2022-06-17,2022-06-17,株式会社山口達也,,株式会社,東京都,港区,赤坂６丁目１０番３９号,,13,103,1070052,,,,,,,2022-06-17,1,,,,,ヤマグチタツヤ,0
1818,7010401167959,新規,0,2022-06-17,2022-06-17,メンタルノイズ株式会社,,株式会社,東京都,港区,赤坂３丁目２１番１６号,,13,103,1070052,,,,,,,2022-06-17,1,,,,,メンタルノイズ,0
1819,7010401167983,新規,0,2022-06-17,2022-06-17,株式会社ＩＣ．,,株式会社,東京都,港区,南青山６丁目３－１１ＰＡＮ南青山９０１,,13,103,1070062,,,,,,,2022-06-17,1,,,,,アイシー,0
1824,7010403027888,新規,0,2022-06-17,2022-06-17,合同会社Ｍｅｔａ　Ｅｓｔａｔｅ,,合同会社,東京都,港区,麻布十番１丁目５番１３号ニュー高雄ハイツ６０２号室,,13,103,1060045,,,,,,,2022-06-17,1,,,,,メタエステイト,0
1842,7010903007472,新規,0,2022-06-17,2022-06-17,ＹＧＣ合同会社,,合同会社,東京都,世田谷区,上野毛４丁目３９番１８号,,13,112,1580093,,,,,,,2022-06-17,1,,,,,ワイジーシー,0
1856,7011003014871,新規,0,2022-06-17,2022-06-17,Ｃｏｃｏｒｏ　Ｃｒｅａｔｉｏｎ　Ｌａｂ合同会社,,合同会社,東京都,渋谷区,道玄坂１丁目１０番８号渋谷道玄坂東急ビル２Ｆ‐Ｃ,,13,113,1500043,,,,,,,2022-06-17,1,,,,,ココロクリエーションラボ,0
1860,7011101099261,新規,0,2022-06-17,2022-06-17,株式会社産業医Ｌｉｎｘ,,株式会社,東京都,新宿区,新宿３丁目２３番１２号新宿パンドラビル,,13,104,1600022,,,,,,,2022-06-17,1,,,,,サンギョウイリンクス,0
1868,7011501028150,新規,0,2022-06-17,2022-06-17,光遠株式会社,,株式会社,東京都,荒川区,南千住１丁目４５番８－４０３号Ｅ,,13,118,1160003,,,,,,,2022-06-17,1,,,,,コウエン,0
1881,7020001146833,新規,0,2022-06-17,2022-06-17,株式会社すまい学舎,,株式会社,神奈川県,横浜市中区,扇町１丁目１番地２５,,14,104,2310027,,,,,,,2022-06-17,1,,,,,スマイガクシャ,0
1882,7020001146916,新規,0,2022-06-17,2022-06-17,株式会社メタメンター,,株式会社,神奈川県,横浜市中区,北仲通５丁目５７番地２－１３０４号室,,14,104,2310003,,,,,,,2022-06-17,1,,,,,メタメンター,0
1883,7020001146940,新規,0,2022-06-17,2022-06-17,株式会社Ｓｈａｄｅｓ,,株式会社,神奈川県,川崎市宮前区,土橋４丁目４番地３,,14,136,2160005,,,,,,,2022-06-17,1,,,,,シェイズ,0
1884,7020001146965,新規,0,2022-06-17,2022-06-17,株式会社Ｋ,,株式会社,神奈川県,横浜市旭区,二俣川１丁目９番地６,,14,112,2410821,,,,,,,2022-06-17,1,,,,,ケー,0
1885,7020001146973,新規,0,2022-06-17,2022-06-17,株式会社ゲームアートミュージアム,,株式会社,神奈川県,横浜市港北区,日吉本町１丁目４番２４号,,14,109,2230062,,,,,,,2022-06-17,1,,,,,ゲームアートミュージアム,0
1886,7020001146981,新規,0,2022-06-17,2022-06-17,株式会社ファースト,,株式会社,神奈川県,横浜市西区,浅間町１番１１号１０－５０３号,,14,103,2200000,,,,,,,2022-06-17,1,,,,,ファースト,0
1889,7020003021902,新規,0,2022-06-17,2022-06-17,合同会社ＫＵＬＴ,,合同会社,神奈川県,川崎市多摩区,西生田１丁目１２－４－１０８,,14,135,2140037,,,,,,,2022-06-17,1,,,,,クルト,0
1890,7020003021910,新規,0,2022-06-17,2022-06-17,合同会社観光ラボ,,合同会社,神奈川県,横浜市西区,高島２丁目１番１８－３０３号,,14,103,2200011,,,,,,,2022-06-17,1,,,,,カンコウラボ,0
1891,7020003021935,新規,0,2022-06-17,2022-06-17,ＷＨＢコンサルティング合同会社,,合同会社,神奈川県,横浜市栄区,庄戸３丁目５番１３号,,14,115,2470022,,,,,,,2022-06-17,1,,,,,ダブリューエイチビーコンサルティング,0
1892,7020003021943,新規,0,2022-06-17,2022-06-17,合同会社ＴＥＣＴ電気,,合同会社,神奈川県,川崎市高津区,千年８９８番地マンションカシワギ１０３,,14,134,2130022,,,,,,,2022-06-17,1,,,,,テクトデンキ,0
1895,7021001076260,新規,0,2022-06-17,2022-06-17,株式会社ベジフルゼネラル,,株式会社,神奈川県,相模原市南区,上鶴間１丁目１６－１,,14,153,2520302,,,,,,,2022-06-17,1,,,,,ベジフルゼネラル,0
1896,7021003011835,新規,0,2022-06-17,2022-06-17,合同会社アクア,,合同会社,神奈川県,相模原市緑区,橋本３丁目９番９号,,14,151,2520143,,,,,,,2022-06-17,1,,,,,アクア,0
1897,7030001148738,新規,0,2022-06-17,2022-06-17,ＹＯＭｉＴＯＫ株式会社,,株式会社,埼玉県,さいたま市浦和区,上木崎６丁目３３番１８号セルティスＩＩＩ１０３号室,00126908,11,107,3300071,,,,,,,2022-06-17,1,,,,,ヨミトク,0
1906,7030003019631,新規,0,2022-06-17,2022-06-17,合同会社金森,,合同会社,埼玉県,所沢市,松が丘１丁目３４番地の１８,,11,208,3591132,,,,,,,2022-06-17,1,,,,,カナモリ,0
1916,7040001123855,新規,0,2022-06-17,2022-06-17,株式会社古都錦堂,,株式会社,千葉県,松戸市,日暮３丁目１０番地の１０,,12,207,2702253,,,,,,,2022-06-17,1,,,,,コトニシキドウ,0
1917,7040001123863,新規,0,2022-06-17,2022-06-17,株式会社スリーツリーズ,,株式会社,千葉県,船橋市,飯山満町３丁目１９３５番地９,,12,204,2740822,,,,,,,2022-06-17,1,,,,,スリーツリーズ,0
1918,7040001123896,新規,0,2022-06-17,2022-06-17,株式会社上野総建,,株式会社,千葉県,松戸市,古ケ崎２５７０番地の４５,,12,207,2710068,,,,,,,2022-06-17,1,,,,,ウエノソウケン,0
1919,7040001123913,新規,0,2022-06-17,2022-06-17,株式会社Ｃ＆Ｃ,,株式会社,千葉県,市川市,塩焼３丁目１９番３－１０５号,,12,203,2720114,,,,,,,2022-06-17,1,,,,,シーアンドシー,0
1920,7040001123921,新規,0,2022-06-17,2022-06-17,株式会社テイラー,,株式会社,千葉県,柏市,柏７丁目５番５７号ソフィアビル柏七番街２０１号室,,12,217,2770005,,,,,,,2022-06-17,1,,,,,テイラー,0
1925,7040005021650,新規,0,2022-06-17,2022-06-17,社会福祉法人大裕会,,その他の設立登記法人,千葉県,成田市,不動ケ岡２０１２番地３,,12,211,2860044,,,,,,,2022-06-17,1,,,,,ダイユウカイ,0
1950,7090001017623,新規,0,2022-06-17,2022-06-17,株式会社Ｈ’ｓ,,株式会社,山梨県,笛吹市,御坂町井之上１４６４番地,,19,211,4060803,,,,,,,2022-06-17,1,,,,,エイチズ,0
1975,7120001246714,新規,0,2022-06-17,2022-06-17,盈順株式会社,,株式会社,大阪府,大阪市淀川区,田川北２丁目５－３４・Ｂ棟３０１号室,,27,123,5320021,,,,,,,2022-06-17,1,,,,,インジュン,0
1976,7120001246755,新規,0,2022-06-17,2022-06-17,株式会社グリーン・メタネーション研究所,,株式会社,大阪府,大阪市西区,北堀江１丁目２０番１５号,,27,106,5500014,,,,,,,2022-06-17,1,,,,,グリーンメタネーションケンキュウショ,0
1979,7120003021917,新規,0,2022-06-17,2022-06-17,合同会社ＳＯＵＰ　ＰＬＡＮＮＩＮＧ,,合同会社,大阪府,大阪市浪速区,塩草３丁目３－２０,,27,111,5560024,,,,,,,2022-06-17,1,,,,,スーププランニング,0
1980,7120003021933,新規,0,2022-06-17,2022-06-17,キッズバトラー合同会社,,合同会社,大阪府,大阪市福島区,福島６丁目１５番５－８０２号,,27,103,5530003,,,,,,,2022-06-17,1,,,,,キッズバトラー,0
1989,7120901046107,新規,0,2022-06-17,2022-06-17,株式会社Ｓｕｎ　ｉｎ　Ａｕｔｏ,,株式会社,大阪府,豊中市,庄内栄町４丁目１７番１０号,,27,203,5610834,,,,,,,2022-06-17,1,,,,,サンインオート,0
1990,7122001035972,新規,0,2022-06-17,2022-06-17,グッドモア株式会社,,株式会社,大阪府,東大阪市,高井田８番７－６１０号,,27,227,5770053,,,,,,,2022-06-17,1,,,,,グッドモア,0
1993,7130001071987,新規,0,2022-06-17,2022-06-17,Ｂｅｙｏｎｄ株式会社,,株式会社,京都府,京都市中京区,烏丸通御池上る二条殿町５４２番地リーガル京都烏丸御池８０１号,,26,104,6040845,,,,,,,2022-06-17,1,,,,,ビヨンド,0
1994,7130003007997,新規,0,2022-06-17,2022-06-17,ＫＲＣビジネスサポート合同会社,,合同会社,京都府,京都市中京区,六角通堀川東入下る越後突抜町２９７番地２,,26,104,6048252,,,,,,,2022-06-17,1,,,,,ケイアールシービジネスサポート,0
1998,7140001126344,新規,0,2022-06-17,2022-06-17,エコリラボ株式会社,,株式会社,兵庫県,姫路市,田寺東３丁目３３番１号,,28,201,6700081,,,,,,,2022-06-17,1,,,,,エコリラボ,0
1999,7140001126352,新規,0,2022-06-17,2022-06-17,株式会社北極星の見つけ方,,株式会社,兵庫県,川西市,松が丘町９番８号,,28,217,6660037,,,,,,,2022-06-17,1,,,,,ホッキョクセイノミツケカタ,0
2000,7140001126369,新規,0,2022-06-17,2022-06-17,株式会社ａｎｄＣ３,,株式会社,兵庫県,神戸市東灘区,岡本１丁目１１番１８号甲南ライフ３０５号,,28,101,6580072,,,,,,,2022-06-17,1,,,,,アンドシースリー,0
2001,7140003017797,新規,0,2022-06-17,2022-06-17,ｌａ　ｖｉｅ　ｓｍｉｌｅ合同会社,,合同会社,兵庫県,伊丹市,荒牧５丁目１１番１８－２号,,28,207,6640001,,,,,,,2022-06-17,1,,,,,ラヴィスマイル,0
2003,7150001025611,新規,0,2022-06-17,2022-06-17,ラディカルキュアラボ株式会社,,株式会社,奈良県,香芝市,穴虫８２－１シティレジデンス二上１０３号室,,29,210,6390252,,,,,,,2022-06-17,1,,,,,ラディカルキュアラボ,0
2004,7150001025628,新規,0,2022-06-17,2022-06-17,株式会社一総建,,株式会社,奈良県,奈良市,法華寺町１２２７番地の２,,29,201,6308001,,,,,,,2022-06-17,1,,,,,ハジメソウケン,0
2015,7180001151751,新規,0,2022-06-17,2022-06-17,株式会社東宏園,,株式会社,愛知県,丹羽郡扶桑町,大字高雄字北東川３４２番地１５,,23,362,4800102,,,,,,,2022-06-17,1,,,,,トウコウエン,0
2023,7210003001521,新規,0,2022-06-17,2022-06-17,合同会社北潟,,合同会社,福井県,あわら市,北潟第１７号８番地,,18,208,9104272,,,,,,,2022-06-17,1,,,,,キタガタキタガタ,0
2033,7240003005668,新規,0,2022-06-17,2022-06-17,合同会社Ｕｔａｔａｎｅ,,合同会社,広島県,府中市,栗柄町３１８５－１,,34,208,7260023,,,,,,,2022-06-17,1,,,,,ウタタネ,0
2037,7260001036960,新規,0,2022-06-17,2022-06-17,藤田クープル株式会社,,株式会社,岡山県,倉敷市,児島田の口１丁目１番２３号３号棟,,33,202,7110903,,,,,,,2022-06-17,1,,,,,フジタクープル,0
2052,7300003001859,新規,0,2022-06-17,2022-06-17,アイディーズ合同会社,,合同会社,佐賀県,佐賀市,久保田町久保田６９－１０,,41,201,8490000,,,,,,,2022-06-17,1,,,,,アイディーズ,0
2053,7320001019141,新規,0,2022-06-17,2022-06-17,株式会社ＪＡＰＡＮ　ＴＯＵＲ　ＧＵＩＤＥ,,株式会社,大分県,大分市,大道町１丁目３番３号,,44,201,8700822,,,,,,,2022-06-17,1,,,,,ジャパンツアーガイド,0
2061,7360001030573,新規,0,2022-06-17,2022-06-17,株式会社リフォームの図書館,,株式会社,沖縄県,沖縄市,知花５丁目１７番２０号,,47,211,9042143,,,,,,,2022-06-17,1,,,,,リフォームノトショカン,0
2062,7360003012082,新規,0,2022-06-17,2022-06-17,合同会社Ｙ’ｚ,,合同会社,沖縄県,那覇市,字天久７９８番地２１,,47,201,9000005,,,,,,,2022-06-17,1,,,,,ワイズ,0
2063,7360003012090,新規,0,2022-06-17,2022-06-17,ロックペイント具志川販売合同会社,,合同会社,沖縄県,うるま市,字赤道７３５番地,,47,213,9042245,,,,,,,2022-06-17,1,,,,,ロックペイントグシカワハンバイ,0
2068,7370003005738,新規,0,2022-06-17,2022-06-17,合同会社不動産開発,,合同会社,宮城県,仙台市青葉区,大町１丁目１番６号第１青葉ビル３階,,04,101,9800804,,,,,,,2022-06-17,1,,,,,フドウサンカイハツ,0
2075,7380003005200,新規,0,2022-06-17,2022-06-17,合同会社ＹＫＴ・優,,合同会社,福島県,会津若松市,桧町３番２８号,,07,202,9650008,,,,,,,2022-06-17,1,,,,,ワイケーティユウ,0
2090,7430001086807,新規,0,2022-06-17,2022-06-17,株式会社可否茶館,,株式会社,北海道,札幌市中央区,南四条西９丁目１００６番地１２,,01,101,0640804,,,,,,,2022-06-17,1,,,,,カヒサカン,0
2093,7430003014006,新規,0,2022-06-17,2022-06-17,合同会社パートナー,,合同会社,北海道,札幌市中央区,大通西１６丁目３番３２号大通ハイチ４階,,01,101,0600042,,,,,,,2022-06-17,1,,,,,パートナー,0
2096,7460001005706,新規,0,2022-06-17,2022-06-17,株式会社藪谷工業,,株式会社,北海道,釧路市,鳥取北９丁目１１番９号,,01,206,0840907,,,,,,,2022-06-17,1,,,,,ヤブヤコウギョウ,0
2100,7480003001841,新規,0,2022-06-17,2022-06-17,ＨＩカンパニー合同会社,,合同会社,徳島県,徳島市,徳島本町３丁目６番地,,36,201,7700854,,,,,,,2022-06-17,1,,,,,エイチアイカンパニー,0
2101,7700150109308,新規,0,2022-06-17,2022-06-08,れん乃会,,その他,東京都,目黒区,八雲２丁目１１－１２－２０２,,13,110,1520023,,,,,,,2022-06-08,1,,,,,レンノカイ,0
2102,7700150110001,新規,0,2022-06-17,2022-06-17,浜松市浜北中央北土地区画整理組合,,その他,静岡県,浜松市中区,中央１丁目２番１号イーステージ浜松　オフィス棟７階,,22,131,4300929,,,,,,,2022-06-17,1,,,,,ハママツシハマキタチユウオウキタトチクカクセイリクミアイ,0
2107,8010003037923,新規,0,2022-06-17,2022-06-17,合同会社東京モーター,,合同会社,東京都,中央区,銀座１丁目２２番１１号銀座大竹ビジデンス２階,,13,102,1040061,,,,,,,2022-06-17,1,,,,,トウキョウモーター,0
2108,8010005035132,新規,0,2022-06-17,2022-06-17,一般財団法人ＡｓｓｅｔＢａｎｋ,,その他の設立登記法人,東京都,千代田区,神田練塀町３,,13,101,1010022,,,,,,,2022-06-17,1,,,,,アセットバンク,0
2115,8010401167925,新規,0,2022-06-17,2022-06-17,株式会社アサラボ,,株式会社,東京都,港区,浜松町２丁目２番１５号浜松町ダイヤビル２Ｆ,,13,103,1050013,,,,,,,2022-06-17,1,,,,,アサラボ,0
2116,8010401167999,新規,0,2022-06-17,2022-06-17,株式会社申申,,株式会社,東京都,港区,西麻布３丁目１３番２１号,,13,103,1060031,,,,,,,2022-06-17,1,,,,,シンシン,0
2117,8010401168015,新規,0,2022-06-17,2022-06-17,ＨＩＳテクノロジーズ株式会社,,株式会社,東京都,港区,虎ノ門４丁目１番１号,,13,103,1050001,,,,,,,2022-06-17,1,,,,,エイチアイエステクノロジーズ,0
2118,8010403027887,新規,0,2022-06-17,2022-06-17,合同会社Ｌ．Ｌｕｍｉｎａｒｅ,,合同会社,東京都,港区,六本木２丁目２番２－４０４号イトーピア六本木,,13,103,1060032,,,,,,,2022-06-17,1,,,,,エルルミナーレ,0
2119,8010403027904,新規,0,2022-06-17,2022-06-17,合同会社ＬＹＳ,,合同会社,東京都,港区,赤坂８丁目４－１４青山タワープレイス８Ｆ,,13,103,1070052,,,,,,,2022-06-17,1,,,,,エルワイエス,0
2120,8010403027912,新規,0,2022-06-17,2022-06-17,ウィンドファーム野辺地合同会社,,合同会社,東京都,港区,南青山１丁目１２番３号Ｎ２１５,,13,103,1070062,,,,,,,2022-06-17,1,,,,,ウィンドファームノヘジ,0
2124,8010405021079,新規,0,2022-06-17,2022-06-17,一般社団法人温活マイスター協会,,その他の設立登記法人,東京都,港区,三田３丁目７番１８号ＴＨＥ．ＩＴＯＹＡＭＡ．ＴＯＷＥＲ５階,,13,103,1080073,,,,,,,2022-06-17,1,,,,,オンカツマイスターキョウカイ,0
2125,8010501048983,新規,0,2022-06-17,2022-06-17,泉溪株式会社,,株式会社,東京都,台東区,千束３丁目２１－１２－２０２号室,,13,106,1110031,,,,,,,2022-06-17,1,,,,,センケイ,0
2126,8010503006618,新規,0,2022-06-17,2022-06-17,鑑心合同会社,,合同会社,東京都,台東区,上野６丁目７番１６号川久保ビル７１１号室,,13,106,1100005,,,,,,,2022-06-17,1,,,,,カンシン,0
2132,8010603009553,新規,0,2022-06-17,2022-06-17,ＡＮＴＩ合同会社,,合同会社,東京都,江東区,平野３丁目２－１３－１１０６,,13,108,1350023,,,,,,,2022-06-17,1,,,,,アンティ,0
2134,8010801033058,新規,0,2022-06-17,2022-06-17,株式会社ＧＴＭ,,株式会社,東京都,大田区,南馬込６丁目６番１５号,,13,111,1430025,,,,,,,2022-06-17,1,,,,,ジーティーエム,0
2138,8010901051059,新規,0,2022-06-17,2022-06-17,株式会社寅桜,,株式会社,東京都,世田谷区,北沢５丁目２７番１８号,,13,112,1550031,,,,,,,2022-06-17,1,,,,,トラサクラ,0
2139,8010903007463,新規,0,2022-06-17,2022-06-17,合同会社遊林,,合同会社,東京都,世田谷区,代田６丁目３４番地１７号ＳＵＮＭＡＬＬ下北沢１０５,,13,112,1550033,,,,,,,2022-06-17,1,,,,,ユウリン,0
2140,8010903007471,新規,0,2022-06-17,2022-06-17,合同会社ミツイキヨウ,,合同会社,東京都,世田谷区,砧４丁目２０－７－２０４,,13,112,1570073,,,,,,,2022-06-17,1,,,,,ミツイキヨウ,0
2149,8011001148159,新規,0,2022-06-17,2022-06-17,株式会社カンゲキエクスアール,,株式会社,東京都,渋谷区,代々木２丁目２７番１６号,,13,113,1510053,,,,,,,2022-06-17,1,,,,,カンゲキエクスアール,0
2150,8011001148183,新規,0,2022-06-17,2022-06-17,Ｐｒｉｎｃｉｐｉａ株式会社,,株式会社,東京都,渋谷区,渋谷２丁目１９番１５号宮益坂ビルディング６０９,,13,113,1500002,,,,,,,2022-06-17,1,,,,,プリンキピア,0
2151,8011001148200,新規,0,2022-06-17,2022-06-17,株式会社ＭＯＣＨＩ,,株式会社,東京都,渋谷区,元代々木町５２番５号コロムビア代々木公園ビル５Ｆ,,13,113,1510062,,,,,,,2022-06-17,1,,,,,モチ,0
2154,8011103011867,新規,0,2022-06-17,2022-06-17,合同会社エーシーズプロジェクト,,合同会社,東京都,新宿区,西新宿３丁目３番１３号西新宿水間ビル６階,,13,104,1600023,,,,,,,2022-06-17,1,,,,,エーシーズプロジェクト,0
2159,8011201023905,新規,0,2022-06-17,2022-06-17,株式会社ロングテイル,,株式会社,東京都,中野区,本町４丁目３０番２１－７１２号,,13,114,1640012,,,,,,,2022-06-17,1,,,,,ロングテイル,0
2161,8011203003847,新規,0,2022-06-17,2022-06-17,合同会社Ｒｉｎｇｓ．,,合同会社,東京都,中野区,中央２丁目３０番９号ツバセスＰＡＲＴ１８中野坂上２２４号室,,13,114,1640011,,,,,,,2022-06-17,1,,,,,リングス,0
2164,8011303004448,新規,0,2022-06-17,2022-06-17,アクイース合同会社,,合同会社,東京都,杉並区,宮前４丁目２９番５号コーポ西宮４０１,,13,115,1680081,,,,,,,2022-06-17,1,,,,,アクイース,0
2171,8011803005136,新規,0,2022-06-17,2022-06-17,合同会社早川皇慶,,合同会社,東京都,葛飾区,青戸７丁目３７番５－４０１号亀有リバーサイドダイヤモンドパレス,,13,122,1250062,,,,,,,2022-06-17,1,,,,,ハヤカワキミヤス,0
2175,8012401039311,新規,0,2022-06-17,2022-06-17,株式会社ｅ‐Ｒｅ．ｃｒｅａｔｉｖｅ,,株式会社,東京都,多摩市,和田４９９番地の１ツインハウスＩＩ１０２,00126907,13,224,2060001,,,,,,,2022-06-17,1,,,,,イーリクリエイティブ,0
2178,8012701017108,新規,0,2022-06-17,2022-06-17,株式会社ＭＴＫ,,株式会社,東京都,小平市,花小金井６丁目２０番８号,,13,211,1870002,,,,,,,2022-06-17,1,,,,,エムティーケイ,0
2187,8020001146898,新規,0,2022-06-17,2022-06-17,株式会社ＩＳＯＬＶＥ,,株式会社,神奈川県,横浜市西区,東久保町２１番２６号レガーロ西横浜２０３,,14,103,2200062,,,,,,,2022-06-17,1,,,,,イソルブ,0
2188,8020001146907,新規,0,2022-06-17,2022-06-17,株式会社エフジェイティホールディングス,,株式会社,神奈川県,横浜市西区,みなとみらい２丁目２番地１号ランドマークタワー２０階,,14,103,2200012,,,,,,,2022-06-17,1,,,,,エフジェイティホールディングス,0
2189,8020001146915,新規,0,2022-06-17,2022-06-17,株式会社グローカルアクト,,株式会社,神奈川県,川崎市麻生区,上麻生５丁目３６番２１号,,14,137,2150021,,,,,,,2022-06-17,1,,,,,グローカルアクト,0
2191,8020003021950,新規,0,2022-06-17,2022-06-17,直未コンサルティング合同会社,,合同会社,神奈川県,横浜市青葉区,市ケ尾町４７８番地１９,,14,117,2250024,,,,,,,2022-06-17,1,,,,,ナオミコンサルティング,0
2193,8020005015579,新規,0,2022-06-17,2022-06-17,一般社団法人きたかなＲｅ‐Ｌｉｆｅサポーターズ,,その他の設立登記法人,神奈川県,川崎市中原区,木月１丁目３２番３号内田マンション２階,,14,133,2110025,,,,,,,2022-06-17,1,,,,,キタカナリライフサポーターズ,0
2194,8021001076251,新規,0,2022-06-17,2022-06-17,株式会社石井ファーム葉山マルシェ,,株式会社,神奈川県,三浦郡葉山町,上山口１０３９番地,,14,301,2400115,,,,,,,2022-06-17,1,,,,,イシイファームハヤママルシェ,0
2195,8021001076268,新規,0,2022-06-17,2022-06-17,株式会社ｃｈｉｃ,,株式会社,神奈川県,茅ヶ崎市,東海岸北２丁目８番１６号２階,,14,207,2530053,,,,,,,2022-06-17,1,,,,,シック,0
2203,8030001148761,新規,0,2022-06-17,2022-06-17,株式会社Ｐｌｕｓ　ＯＮＥ．,,株式会社,埼玉県,春日部市,大場１２３１番地１,,11,214,3440021,,,,,,,2022-06-17,1,,,,,プラスワン,0
2209,8040001123879,新規,0,2022-06-17,2022-06-17,エム・コーポレーション株式会社,,株式会社,千葉県,船橋市,夏見５丁目３２番１１号,,12,204,2730865,,,,,,,2022-06-17,1,,,,,エムコーポレーション,0
2212,8040003020257,新規,0,2022-06-17,2022-06-17,合同会社Ｇｏ　ｓｔｒａｉｇｈｔ,,合同会社,千葉県,千葉市中央区,富士見２丁目１２番１号,,12,101,2600015,,,,,,,2022-06-17,1,,,,,ゴーストレート,0
2213,8040003020281,新規,0,2022-06-17,2022-06-17,合同会社夢神縁,,合同会社,千葉県,市原市,若宮１丁目１１番地９,,12,219,2900006,,,,,,,2022-06-17,1,,,,,ムカエ,0
2219,8050003006619,新規,0,2022-06-17,2022-06-17,合同会社プチほっと,,合同会社,茨城県,神栖市,土合本町３丁目９８０９番地２０１,,08,232,3140343,,,,,,,2022-06-17,1,,,,,プチホット,0
2224,8080003002821,新規,0,2022-06-17,2022-06-17,カーム合同会社,,合同会社,静岡県,榛原郡吉田町,神戸６０９番地の３３,,22,424,4210304,,,,,,,2022-06-17,1,,,,,カーム,0
2227,8090003002102,新規,0,2022-06-17,2022-06-17,百年ソーラー山梨合同会社,,合同会社,山梨県,甲府市,下向山町３２１６,,19,201,4001507,,,,,,,2022-06-17,1,,,,,ヒャクネンソーラーヤマナシ,0
2228,8090003002110,新規,0,2022-06-17,2022-06-17,ＭＣＡ合同会社,,合同会社,山梨県,甲府市,堀之内町１番地２１,,19,201,4000056,,,,,,,2022-06-17,1,,,,,エムシーエー,0
2243,8120001246688,新規,0,2022-06-17,2022-06-17,株式会社ＷＥＬＬＯＲＤ,,株式会社,大阪府,大阪市中央区,心斎橋筋１丁目８－３心斎橋ＰＡＲＣＯ４階ＳＫｉｉＭａＳＨＩＮＳＡＩＢＡＳＨＩ内,,27,128,5420085,,,,,,,2022-06-17,1,,,,,ウェロード,0
2244,8120001246713,新規,0,2022-06-17,2022-06-17,ＳＰＡＮ株式会社,,株式会社,大阪府,大阪市淀川区,田川北２丁目５－３４・Ｂ棟２０２号室,,27,123,5320021,,,,,,,2022-06-17,1,,,,,スパン,0
2245,8120001246738,新規,0,2022-06-17,2022-06-17,株式会社ビースリー,,株式会社,大阪府,大阪市中央区,安土町３丁目４番９－１６０５号,,27,128,5410052,,,,,,,2022-06-17,1,,,,,ビースリー,0
2246,8120001246754,新規,0,2022-06-17,2022-06-17,株式会社アンファング,,株式会社,大阪府,大阪市城東区,今福南２丁目２１番１号,,27,118,5360003,,,,,,,2022-06-17,1,,,,,アンファング,0
2247,8120001246787,新規,0,2022-06-17,2022-06-17,株式会社キミシダイ世界,,株式会社,大阪府,大阪市城東区,諏訪２丁目７番２０号,,27,118,5360021,,,,,,,2022-06-17,1,,,,,キミシダイセカイ,0
2248,8120003021924,新規,0,2022-06-17,2022-06-17,合同会社潤長,,合同会社,大阪府,大阪市此花区,梅香１丁目１９番１２号ボンジュール梅香３０５号室,,27,104,5540013,,,,,,,2022-06-17,1,,,,,ジュンチョウ,0
2252,8120905006337,新規,0,2022-06-17,2022-06-17,一般社団法人ハッピーラボラトリー,,その他の設立登記法人,大阪府,吹田市,藤白台４丁目１６番９号,,27,205,5650873,,,,,,,2022-06-17,1,,,,,ハッピーラボラトリー,0
2256,8130001072010,新規,0,2022-06-17,2022-06-17,株式会社まろ,,株式会社,京都府,京都市山科区,音羽西林１番地４,,26,110,6078073,,,,,,,2022-06-17,1,,,,,マロ,0
2257,8130003008020,新規,0,2022-06-17,2022-06-17,合同会社古美術颯花,,合同会社,京都府,京都市北区,上賀茂榊田町５７番地１,00126915,26,101,6038051,,,,,,,2022-06-17,1,,,,,コビジュツサッカ,0
2261,8140001126376,新規,0,2022-06-17,2022-06-17,株式会社Ｙ’ｓ,,株式会社,兵庫県,姫路市,夢前町菅生澗５３４番地７,,28,201,6712134,,,,,,,2022-06-17,1,,,,,ワイズ,0
2265,8140003017788,新規,0,2022-06-17,2022-06-17,合同会社ｋ‐ｔｒｅｅ,,合同会社,兵庫県,川西市,湯山台２丁目３４番地の３,,28,217,6660137,,,,,,,2022-06-17,1,,,,,ケーツリー,0
2266,8140003017813,新規,0,2022-06-17,2022-06-17,合同会社Ｖｉｌｌａ　Ｂｌｕｅ,,合同会社,兵庫県,神戸市長田区,高東町２丁目４番２１号,,28,106,6530867,,,,,,,2022-06-17,1,,,,,ヴィラブルー,0
2271,8150001025627,新規,0,2022-06-17,2022-06-17,株式会社新海工業,,株式会社,奈良県,北葛城郡広陵町,大字南１０７番地５,,29,426,6350818,,,,,,,2022-06-17,1,,,,,シンカイコウギョウ,0
2272,8150003002707,新規,0,2022-06-17,2022-06-17,みくに合同会社,,合同会社,奈良県,奈良市,中登美ヶ丘６丁目１３番１－３０１号,,29,201,6310003,,,,,,,2022-06-17,1,,,,,ミクニ,0
2282,8180001151718,新規,0,2022-06-17,2022-06-17,株式会社明信,,株式会社,愛知県,名古屋市千種区,南明町３丁目１１－３－１Ｆ,,23,101,4640845,,,,,,,2022-06-17,1,,,,,メイシン,0
2283,8180001151734,新規,0,2022-06-17,2022-06-17,株式会社ＫＭマリンエンバイロメント,,株式会社,愛知県,名古屋市港区,東茶屋２丁目２９０番地,,23,111,4550851,,,,,,,2022-06-17,1,,,,,ケイエムマリンエンバイロメント,0
2284,8180001151759,新規,0,2022-06-17,2022-06-17,株式会社Ｄ‐ｃｏｌｏｒｓ,,株式会社,愛知県,名古屋市東区,大幸４丁目２０番４号ファミリアーレ砂田橋７０５号,,23,102,4610043,,,,,,,2022-06-17,1,,,,,ディーカラーズ,0
2285,8180001151783,新規,0,2022-06-17,2022-06-17,株式会社仲谷電工,,株式会社,愛知県,津島市,南本町６丁目１番地３,,23,208,4960834,,,,,,,2022-06-17,1,,,,,ナカヤデンコウ,0
2286,8180001151809,新規,0,2022-06-17,2022-06-17,株式会社ゴリカッパラー,,株式会社,愛知県,日進市,岩崎町南口２３番地,,23,230,4700131,,,,,,,2022-06-17,1,,,,,ゴリカッパラー,0
2292,8190003004014,新規,0,2022-06-17,2022-06-17,合同会社一松,,合同会社,三重県,津市,一身田豊野１４０６番地５３８,,24,201,5140115,,,,,,,2022-06-17,1,,,,,イチマツ,0
2302,8240001059954,新規,0,2022-06-17,2022-06-17,株式会社アートプラスター,,株式会社,広島県,呉市,川尻町西３丁目１番３１号,,34,202,7372603,,,,,,,2022-06-17,1,,,,,アートプラスター,0
2313,8290003012618,新規,0,2022-06-17,2022-06-17,合同会社ＴＵＭＵＧＩ,,合同会社,福岡県,太宰府市,宰府１丁目３番１３号長谷ビル３０３号,,40,221,8180117,,,,,,,2022-06-17,1,,,,,ツムギ,0
2316,8290805009563,新規,0,2022-06-17,2022-06-17,特定非営利活動法人アニマルホームｏｈａｎａ,,その他の設立登記法人,福岡県,北九州市八幡西区,上上津役３丁目１０番３０号,,40,109,8070072,,,,,,,2022-06-17,1,,,,,アニマルホームオハナ,0
2327,8340003003826,新規,0,2022-06-17,2022-06-17,合同会社ゆとり,,合同会社,鹿児島県,姶良市,脇元１９５７重富ビル２０１,,46,225,8995651,,,,,,,2022-06-17,1,,,,,ユトリ,0
2330,8360001030515,新規,0,2022-06-17,2022-06-17,株式会社この美かん,,株式会社,沖縄県,豊見城市,字高安１０９５番地１パティオス宜保２０３,,47,212,9010242,,,,,,,2022-06-17,1,,,,,コノビカン,0
2331,8360001030556,新規,0,2022-06-17,2022-06-17,株式会社浦和工業,,株式会社,沖縄県,島尻郡八重瀬町,字東風平１４１１番地２,,47,362,9010401,,,,,,,2022-06-17,1,,,,,ウラワコウギョウ,0
2332,8360001030564,新規,0,2022-06-17,2022-06-17,Ｑｕａｌｉｔｙ　ｏｆ　ｌｉｆｅ株式会社,,株式会社,沖縄県,那覇市,曙２丁目１７番７号３階,,47,201,9000002,,,,,,,2022-06-17,1,,,,,クオリティオブライフ,0
2333,8360003012098,新規,0,2022-06-17,2022-06-17,ＪＰプロダクトリテイリング合同会社,,合同会社,沖縄県,中頭郡北谷町,字伊平２０４番地ベアーズコート桑江タウンリゾート８０１,,47,326,9040102,,,,,,,2022-06-17,1,,,,,ジャパンプロダクトリテイリング,0
2338,8380001032906,新規,0,2022-06-17,2022-06-17,株式会社Ｂｅ　Ｔｈｅ　Ｈａｐｐｉｅｓｔ,,株式会社,福島県,いわき市,小名浜西君ケ塚町７番地の１０,,07,204,9718167,,,,,,,2022-06-17,1,,,,,ビーザハピエスト,0
2346,8400005008247,新規,0,2022-06-17,2022-06-17,特定非営利活動法人イーハトーブ地域情報マネジメント,,その他の設立登記法人,岩手県,滝沢市,巣子１５２番地８９,,03,216,0200611,,,,,,,2022-06-17,1,,,,,イーハトーブチイキジョウホウマネジメント,0
2351,8410005006472,新規,0,2022-06-17,2022-06-17,医療法人えがお,,その他の設立登記法人,秋田県,秋田市,仁井田本町５丁目７番地５号,,05,201,0101421,,,,,,,2022-06-17,1,,,,,エガオ,0
2360,8430001086839,新規,0,2022-06-17,2022-06-17,株式会社頼音,,株式会社,北海道,札幌市中央区,北一条西３丁目３番２７号札幌北１条駅前通りビル９階,,01,101,0600001,,,,,,,2022-06-17,1,,,,,ライオン,0
2361,8430003013997,新規,0,2022-06-17,2022-06-17,合同会社Ａｒｔｙ,,合同会社,北海道,札幌市厚別区,もみじ台南２丁目４番２１－５０８号,,01,108,0040012,,,,,,,2022-06-17,1,,,,,アーティ,0
2370,8480001011767,新規,0,2022-06-17,2022-06-17,株式会社ＢＡＳＥ,,株式会社,徳島県,板野郡北島町,鯛浜字西ノ須６４番地１１,,36,402,7710204,,,,,,,2022-06-17,1,,,,,ベース,0
2395,9010003037914,新規,0,2022-06-17,2022-06-17,合同会社ＭＩＣＨＩＳ　ＬＩＦＥ,,合同会社,東京都,中央区,銀座１丁目２２番１１号銀座大竹ビジデンス２階,,13,102,1040061,,,,,,,2022-06-17,1,,,,,ミチスライフ,0
2397,9010005035148,新規,0,2022-06-17,2022-06-17,Ｄｉｏｎｙｓｕｓ特定目的会社,,その他の設立登記法人,東京都,中央区,銀座１丁目６番１１号土志田ビルディング３Ｆ,,13,102,1040061,,,,,,,2022-06-17,1,,,,,ディオニソス,0
2407,9010401167890,新規,0,2022-06-17,2022-06-17,豊益株式会社,,株式会社,東京都,港区,麻布十番３丁目６番６号麻布十番ハイツ３０１,,13,103,1060045,,,,,,,2022-06-17,1,,,,,ホウエキ,0
2408,9010401167949,新規,0,2022-06-17,2022-06-17,株式会社リブロン・レジデンシャル・サービス,,株式会社,東京都,港区,南青山６丁目７番５－１１０１号,,13,103,1070062,,,,,,,2022-06-17,1,,,,,リブロンレジデンシャルサービス,0
2409,9010401168006,新規,0,2022-06-17,2022-06-17,株式会社ＭＲ８,,株式会社,東京都,港区,東麻布１丁目９番１１号ＧＲＯＷＴＨＢＹＩＯＱ・Ｗ－１１,,13,103,1060044,,,,,,,2022-06-17,1,,,,,エムアールエイト,0
2410,9010401168014,新規,0,2022-06-17,2022-06-17,ニブリック株式会社,,株式会社,東京都,港区,赤坂３丁目１９番１号,,13,103,1070052,,,,,,,2022-06-17,1,,,,,ニブリック,0
2419,9010801033057,新規,0,2022-06-17,2022-06-17,株式会社イッチーズ,,株式会社,東京都,大田区,田園調布南１８番４号,,13,111,1450076,,,,,,,2022-06-17,1,,,,,イッチーズ,0
2427,9011001148117,新規,0,2022-06-17,2022-06-17,株式会社ＧＤＫ,,株式会社,東京都,目黒区,目黒３丁目５番１２－３０２号,,13,110,1530063,,,,,,,2022-06-17,1,,,,,ジーディーケー,0
2431,9011003014820,新規,0,2022-06-17,2022-06-17,ＭＳＰＪ合同会社,,合同会社,東京都,渋谷区,神宮前６丁目２３番４号桑野ビル２階,,13,113,1500001,,,,,,,2022-06-17,1,,,,,エムエスピージェー,0
2432,9011003014845,新規,0,2022-06-17,2022-06-17,ＹＯＵＴＯＷＮ合同会社,,合同会社,東京都,渋谷区,道玄坂１丁目１０番８号渋谷道玄坂東急ビル２Ｆ―Ｃ,,13,113,1500043,,,,,,,2022-06-17,1,,,,,ユータウン,0
2436,9011101099235,新規,0,2022-06-17,2022-06-17,株式会社Ｐｈｉｌｏｓ,,株式会社,東京都,新宿区,西新宿５丁目５－１ザ・パークハウス西新宿タワー６０，２９０４号,,13,104,1600023,,,,,,,2022-06-17,1,,,,,フィロス,0
2439,9011501028149,新規,0,2022-06-17,2022-06-17,映山社株式会社,,株式会社,東京都,荒川区,南千住１丁目４５番８－４０３号Ｆ,,13,118,1160003,,,,,,,2022-06-17,1,,,,,エイザンシャ,0
2440,9011601026044,新規,0,2022-06-17,2022-06-17,株式会社Ｋコーポレーション,,株式会社,東京都,練馬区,光が丘３丁目８番９－８０３号,,13,120,1790072,,,,,,,2022-06-17,1,,,,,,0
2443,9011703003172,新規,0,2022-06-17,2022-06-17,合同会社学校経営支援研究所,,合同会社,東京都,江戸川区,西小岩４丁目１０－１１,,13,123,1330057,,,,,,,2022-06-17,1,,,,,ガッコウケイエイシエンケンキュウジョ,0
2446,9011801040860,新規,0,2022-06-17,2022-06-17,株式会社つむぐ設計,,株式会社,東京都,足立区,千住１丁目４番１号東京芸術センター１２０４号,,13,121,1200034,,,,,,,2022-06-17,1,,,,,ツムグセッケイ,0
2447,9011801040877,新規,0,2022-06-17,2022-06-17,株式会社ＩＫＡ,,株式会社,東京都,足立区,千住３丁目６番地１２ツオード千住壱番館１２０１号室,,13,121,1200034,,,,,,,2022-06-17,1,,,,,イカ,0
2448,9011803005135,新規,0,2022-06-17,2022-06-17,合同会社森社,,合同会社,東京都,葛飾区,青戸７丁目３７番５－４０１号亀有リバーサイドダイヤモンドパレス,,13,122,1250062,,,,,,,2022-06-17,1,,,,,モリシャ,0
2450,9012401039293,新規,0,2022-06-17,2022-06-17,株式会社Ｌｅ　ｃｉｅｌ,,株式会社,東京都,多摩市,永山１丁目２－１０クレッシェ１０１,,13,224,2060025,,,,,,,2022-06-17,1,,,,,ルシエル,0
2452,9012403005442,新規,0,2022-06-17,2022-06-17,合同会社点滅社,,合同会社,東京都,小金井市,前原町５丁目９番１９号,,13,210,1840013,,,,,,,2022-06-17,1,,,,,テンメツシャ,0
2459,9020001146922,新規,0,2022-06-17,2022-06-17,株式会社ＬＡＵＬＥ’Ａ,,株式会社,神奈川県,川崎市多摩区,登戸２４３２番地１ＢｌｕｅｗａｔｅｒＢｕｉｌｄｉｎｇ６Ｆ,,14,135,2140014,,,,,,,2022-06-17,1,,,,,ラウレア,0
2460,9020001146963,新規,0,2022-06-17,2022-06-17,株式会社太田組,,株式会社,神奈川県,横浜市港南区,日野中央２丁目１９番２５号,,14,111,2340053,,,,,,,2022-06-17,1,,,,,,0
2461,9020001146996,新規,0,2022-06-17,2022-06-17,アナトリアン・スタイル株式会社,,株式会社,神奈川県,横浜市都筑区,葛が谷５番１９－２０２号,,14,118,2240062,,,,,,,2022-06-17,1,,,,,アナトリアンスタイル,0
2464,9020003021958,新規,0,2022-06-17,2022-06-17,合同会社Ｌｅａｄ,,合同会社,神奈川県,横浜市西区,北幸１丁目１－８エキニア横浜５階ＨａｍａＰｏｒｔ内,,14,103,2200004,,,,,,,2022-06-17,1,,,,,リード,0
2465,9020005015578,新規,0,2022-06-17,2022-06-17,一般社団法人ヨコハマＳＤＧｓデザインセンター,,その他の設立登記法人,神奈川県,横浜市西区,高島１丁目２－５横濱ゲートタワー３階,,14,103,2200011,,,,,,,2022-06-17,1,,,,,ヨコハマエスディージーズデザインセンター,0
2468,9021001076259,新規,0,2022-06-17,2022-06-17,株式会社月麒麟,,株式会社,神奈川県,逗子市,久木８丁目１９番１１号,,14,208,2490001,,,,,,,2022-06-17,1,,,,,ツキキリン,0
2479,9030001148661,新規,0,2022-06-17,2022-06-17,株式会社Ｓ．Ｋオフィス,,株式会社,埼玉県,さいたま市大宮区,桜木町１丁目３７８番地ＢＩＺｃｏｍｆｏｒｔ大宮西口５Ｆ－１１,,11,103,3300854,,,,,,,2022-06-17,1,,,,,エスケーオフィス,0
2480,9030001148744,新規,0,2022-06-17,2022-06-17,株式会社愛工,,株式会社,埼玉県,川口市,大字石神１番地の３,,11,203,3330823,,,,,,,2022-06-17,1,,,,,アイコウ,0
2481,9030001148752,新規,0,2022-06-17,2022-06-17,新日システム株式会社,,株式会社,埼玉県,熊谷市,中西２丁目３番７号第一ＴＭＣビル２Ｆ,,11,202,3600013,,,,,,,2022-06-17,1,,,,,シンニチシステム,0
2482,9030001148760,新規,0,2022-06-17,2022-06-17,株式会社アルズホーム,,株式会社,埼玉県,春日部市,内牧４０２６番地１９,,11,214,3440051,,,,,,,2022-06-17,1,,,,,アルズホーム,0
2483,9030001148785,新規,0,2022-06-17,2022-06-17,株式会社大昭建設,,株式会社,埼玉県,新座市,西堀２丁目１７番２７－２７号,,11,230,3520031,,,,,,,2022-06-17,1,,,,,ダイショウケンセツ,0
2489,9040001123829,新規,0,2022-06-17,2022-06-17,株式会社２ｎｄ．ＮＥＴ,,株式会社,千葉県,千葉市花見川区,朝日ケ丘２丁目２番２７棟８０１号,,12,102,2620019,,,,,,,2022-06-17,1,,,,,セカンドネット,0
2490,9040001123861,新規,0,2022-06-17,2022-06-17,株式会社創伸,,株式会社,千葉県,市原市,古市場３４９番地１７,,12,219,2900008,,,,,,,2022-06-17,1,,,,,ソウシン,0
2491,9040001123911,新規,0,2022-06-17,2022-06-17,株式会社ＲＡＰＩＤ　ＳＷＥＬＬ,,株式会社,千葉県,船橋市,東船橋３丁目４５番４棟３０４号,,12,204,2730002,,,,,,,2022-06-17,1,,,,,ラピッドスウェル,0
2496,9040003020248,新規,0,2022-06-17,2022-06-17,合同会社スマイル,,合同会社,千葉県,流山市,西初石４丁目１４２３番地の１１ベリーナ３０１,,12,220,2700121,,,,,,,2022-06-17,1,,,,,スマイル,0
2497,9040003020280,新規,0,2022-06-17,2022-06-17,合同会社アンナポール,,合同会社,千葉県,柏市,南増尾１丁目２５番３８号,,12,217,2770054,,,,,,,2022-06-17,1,,,,,アンナポール,0
2499,9040005021649,新規,0,2022-06-17,2022-06-17,高塚団地管理組合法人,,その他の設立登記法人,千葉県,松戸市,高塚新田１２３番地２,,12,207,2702222,,,,,,,2022-06-17,1,,,,,タカツカ,0
2508,9060001034999,新規,0,2022-06-17,2022-06-17,株式会社シービーファーム,,株式会社,栃木県,栃木市,西方町真名子５１７番地１,,09,203,3220605,,,,,,,2022-06-17,1,,,,,シービーファーム,0
2509,9060003004109,新規,0,2022-06-17,2022-06-17,合同会社ＢＡＳＥ,,合同会社,栃木県,宇都宮市,東峰町３４４２－１０５,,09,201,3210944,,,,,,,2022-06-17,1,,,,,ベイス,0
2518,9080003002820,新規,0,2022-06-17,2022-06-17,合同会社Ｍｏｍｏ’ｓ　Ｇｒｏｕｐ,,合同会社,静岡県,静岡市清水区,相生町９－２５ワタナベビル４階,,22,103,4240821,,,,,,,2022-06-17,1,,,,,モモズグループ,0
2523,9080103002605,新規,0,2022-06-17,2022-06-17,合同会社インサイト,,合同会社,静岡県,伊東市,八幡野１１０３番地１１５,,22,208,4130232,,,,,,,2022-06-17,1,,,,,インサイト,0
2525,9090001017621,新規,0,2022-06-17,2022-06-17,Ａｎｌｕｃｅ株式会社,,株式会社,山梨県,甲府市,長松寺町１０番１号,,19,201,4000067,,,,,,,2022-06-17,1,,,,,アンルーチェ,0
2529,9100003006570,新規,0,2022-06-17,2022-06-17,合同会社Ｐｒｏｓｐｅｃｔ,,合同会社,長野県,安曇野市,堀金烏川２７９１－３,,20,220,3998211,,,,,,,2022-06-17,1,,,,,プロスペクト,0
2546,9120001246753,新規,0,2022-06-17,2022-06-17,株式会社ＳＥＯＬＡＷ　ＨＯＬＤＩＮＧＳ,,株式会社,大阪府,大阪市住吉区,大領５丁目１０番３３－１０３号,,27,120,5580001,,,,,,,2022-06-17,1,,,,,セロウホールディングス,0
2548,9120103004737,新規,0,2022-06-17,2022-06-17,Ｂａｎｓｏ合同会社,,合同会社,大阪府,堺市北区,新金岡町２丁５番３－１１１５号,,27,146,5918021,,,,,,,2022-06-17,1,,,,,バンソウ,0
2549,9120905006336,新規,0,2022-06-17,2022-06-17,宗教法人チャーチ・オブ・プレイズ・インターナショナル,,その他の設立登記法人,大阪府,池田市,神田２丁目１１番５号,,27,204,5630043,,,,,,,2022-06-17,1,,,,,チャーチオブプレイズインターナショナル,0
2552,9122001035970,新規,0,2022-06-17,2022-06-17,株式会社ハウスオーシャン,,株式会社,大阪府,東大阪市,長堂１丁目６番４号,,27,227,5770056,,,,,,,2022-06-17,1,,,,,ハウスオーシャン,0
2553,9122001035979,新規,0,2022-06-17,2022-06-17,株式会社Ｍｏｄ’ｓ,,株式会社,大阪府,東大阪市,森河内西２丁目１４番４１号,,27,227,5770061,,,,,,,2022-06-17,1,,,,,モッズ,0
2556,9130003008003,新規,0,2022-06-17,2022-06-17,合同会社ワインスキャン,,合同会社,京都府,京都市中京区,御池通東洞院東入笹屋町４３６永和御池ビル６０６号,,26,104,6048187,,,,,,,2022-06-17,1,,,,,ワインスキャン,0
2561,9140001126375,新規,0,2022-06-17,2022-06-17,株式会社ＴＭＣ,,株式会社,兵庫県,加古川市,加古川町北在家２０２５番地,,28,210,6750031,,,,,,,2022-06-17,1,,,,,ティエムシー,0
2562,9140001126383,新規,0,2022-06-17,2022-06-17,株式会社ユウ建装,,株式会社,兵庫県,尼崎市,神崎町２６番１０号,,28,202,6610964,,,,,,,2022-06-17,1,,,,,ユウケンソウ,0
2563,9140001126400,新規,0,2022-06-17,2022-06-17,株式会社ｒｏｂｅ,,株式会社,兵庫県,神戸市中央区,栄町通２丁目７番４号３Ｆ,,28,110,6500023,,,,,,,2022-06-17,1,,,,,ローブ,0
2565,9140003017795,新規,0,2022-06-17,2022-06-17,美和サービス合同会社,,合同会社,兵庫県,尼崎市,西難波町４丁目８番１７－５０８号,,28,202,6600893,,,,,,,2022-06-17,1,,,,,ミワサービス,0
2567,9150001025626,新規,0,2022-06-17,2022-06-17,株式会社ディアライフ,,株式会社,奈良県,奈良市,富雄北３丁目６番３０号,,29,201,6310076,,,,,,,2022-06-17,1,,,,,ディアライフ,0
2568,9150003002706,新規,0,2022-06-17,2022-06-17,合同会社ｎｅｃｃｏ,,合同会社,奈良県,奈良市,青山２丁目１番地の３２,,29,201,6308101,,,,,,,2022-06-17,1,,,,,ネッコ,0
2574,9160001024288,新規,0,2022-06-17,2022-06-17,株式会社ＡＤＶＡＮＣＥ,,株式会社,滋賀県,草津市,追分８丁目１５番７号,,25,206,5250047,,,,,,,2022-06-17,1,,,,,アドバンス,0
2575,9170001017159,新規,0,2022-06-17,2022-06-17,翔テクノス株式会社,,株式会社,和歌山県,和歌山市,中之島４６８番地１６,,30,201,6408392,,,,,,,2022-06-17,1,,,,,ショウテクノス,0
2583,9180001151725,新規,0,2022-06-17,2022-06-17,愛岐土地株式会社,,株式会社,愛知県,名古屋市西区,平中町２７７番地,,23,104,4520843,,,,,,,2022-06-17,1,,,,,アイギトチ,0
2584,9180001151790,新規,0,2022-06-17,2022-06-17,ＳＳＴ株式会社,,株式会社,愛知県,名古屋市昭和区,石仏町２丁目１番地の４０（グランカーサ御器所８０３号）,,23,107,4660023,,,,,,,2022-06-17,1,,,,,エスエスティー,0
2593,9180003023939,新規,0,2022-06-17,2022-06-17,ＡＫＳ　Ｉｎｔｅｒｎａｔｉｏｎａｌ合同会社,,合同会社,愛知県,名古屋市西区,香呑町６丁目６番地の２（グランプレイス庄内通５０２号）,,23,104,4510015,,,,,,,2022-06-17,1,,,,,エーケーエスインターナショナル,0
2594,9180003023947,新規,0,2022-06-17,2022-06-17,合同会社ＤＡＩＣＨＩ,,合同会社,愛知県,犬山市,大字木津字西ノ山６４番地５０,,23,215,4840079,,,,,,,2022-06-17,1,,,,,ダイチ,0
2599,9190001029516,新規,0,2022-06-17,2022-06-17,ｎｏｂｉ電気工事株式会社,,株式会社,三重県,尾鷲市,大滝町９番１１号,,24,209,5193642,,,,,,,2022-06-17,1,,,,,ノビデンキコウジ,0
2601,9230003001872,新規,0,2022-06-17,2022-06-17,合同会社天晴,,合同会社,富山県,下新川郡朝日町,窪田３６９番地,,16,343,9390728,,,,,,,2022-06-17,1,,,,,アッパレ,0
2605,9240001059953,新規,0,2022-06-17,2022-06-17,株式会社ヤマネデンキ,,株式会社,広島県,広島市南区,段原２丁目１番５号,,34,103,7320811,,,,,,,2022-06-17,1,,,,,ヤマネデンキ,0
2622,9290001097965,新規,0,2022-06-17,2022-06-17,日本瑞工株式会社,,株式会社,福岡県,福岡市中央区,渡辺通１丁目１番２号,,40,133,8100004,,,,,,,2022-06-17,1,,,,,ニホンミズコウ,0
2623,9290001097973,新規,0,2022-06-17,2022-06-17,宝頼株式会社,,株式会社,福岡県,大川市,大字向島７３８番地１１,,40,212,8310005,,,,,,,2022-06-17,1,,,,,ホウライ,0
2624,9290001097981,新規,0,2022-06-17,2022-06-17,株式会社アマビエ,,株式会社,福岡県,福岡市中央区,白金１丁目１２番２９－３０６号,,40,133,8100012,,,,,,,2022-06-17,1,,,,,アマビエ,0
2630,9290003012625,新規,0,2022-06-17,2022-06-17,合同会社Ｂｅｌｌｉｓｓｉｍｏ,,合同会社,福岡県,福岡市東区,土井４丁目２５－２３,,40,131,8130032,,,,,,,2022-06-17,1,,,,,ベリッシモ,0
2631,9290003012641,新規,0,2022-06-17,2022-06-17,Ａｕｔｏ　Ｚｏｏ　Ｊａｐａｎ合同会社,,合同会社,福岡県,宗像市,陵厳寺３丁目８番２７号グランエスポワール赤間１０１,,40,220,8114145,,,,,,,2022-06-17,1,,,,,オートズージャパン,0
2653,9390003001972,新規,0,2022-06-17,2022-06-17,合同会社ヘキサテック,,合同会社,山形県,鶴岡市,切添町１８番１８号,,06,203,9970022,,,,,,,2022-06-17,1,,,,,ヘキサテック,0
2662,9430001086854,新規,0,2022-06-17,2022-06-17,株式会社開封,,株式会社,北海道,虻田郡喜茂別町,字喜茂別２５－２９,,01,398,0440201,,,,,,,2022-06-17,1,,,,,カイフウ,0
2666,9430003014037,新規,0,2022-06-17,2022-06-17,合同会社ｃｉｐｏｌｌａ,,合同会社,北海道,札幌市南区,澄川一条２丁目７番１号,,01,106,0050001,,,,,,,2022-06-17,1,,,,,チポッラ,0
2669,9440005002724,新規,0,2022-06-17,2022-06-17,特定非営利活動法人函館地域猫・保護猫活動陽だまり,,その他の設立登記法人,北海道,函館市,青柳町３３番３号,,01,202,0400044,,,,,,,2022-06-17,1,,,,,ハコダテチイキネコホゴネコカツドウヒダマリ,0
2673,9700150027631,新規,0,2022-06-17,2015-10-09,京丹後市国際交流協会,,その他,京都府,京丹後市,峰山町杉谷８８９京丹後市市長公室政策企画課　内,,26,212,6270012,,,,,,,2015-10-09,1,,,,,キヨウタンゴシコクサイコウリユウキヨウカイ,0
2675,9700150106765,新規,0,2022-06-17,2022-01-21,アービング川口管理組合,,その他,大阪府,大阪市西区,川口４丁目２番１１号,,27,106,5500021,,,,,,,2022-01-21,1,,,,,アービングカワグチカンリクミアイ,0
