sequenceNumber,corporateNumber,process,correct,updateDate,changeDate,name,nameImageId,kind,prefectureName,cityName,streetNumber,addressImageId,prefectureCode,cityCode,postCode,addressOutside,addressOutsideImageId,closeDate,closeCause,successorCorporateNumber,changeCause,assignmentDate,latest,enName,enPrefectureName,enCityName,enAddressOutside,furigana,hihyoji
18,1010102001761,登記記録の閉鎖等,0,2025-12-26,2025-12-24,有限会社カジヤマ,,有限会社,東京都,八王子市,別所１丁目４８番地１（４－５０４）,,13,201,1920363,,,2025-12-24,清算の結了等,,,2015-10-05,1,,,,,カジヤマ,0
34,1010905001818,登記記録の閉鎖等,0,2025-12-26,2025-12-24,特定非営利活動法人トムソー自然塾ネット,,その他の設立登記法人,東京都,世田谷区,奥沢７丁目１８番７号,,13,112,1580083,,,2025-12-24,清算の結了等,,,2015-10-05,1,,,,,トムソーシゼンジュクネット,0
35,1011001137416,登記記録の閉鎖等,0,2025-12-26,2025-12-19,株式会社つらなり,,株式会社,兵庫県,神戸市中央区,新港町７番１号,,28,110,6500041,,,2025-12-19,清算の結了等,,,2020-12-11,1,,,,,ツラナリ,0
40,1011002026386,登記記録の閉鎖等,0,2025-12-26,2025-11-28,ソルトクチュール株式会社,,株式会社,東京都,港区,西麻布３丁目２４番２０号,,13,103,1060031,,,2025-11-28,合併による解散等,4010401151255,令和７年１１月１日東京都渋谷区広尾五丁目４番１６号ＥＡＴＰＬＡＹＷＯＲＫＳ・ＳＡＬＴ　ＦＡＣＴＯＲＹ株式会社（4010401151255）に合併し解散,2015-10-05,1,,,,,ソルトクチュール,0
47,1011201016320,登記記録の閉鎖等,0,2025-12-26,2025-12-22,株式会社アドナイン,,株式会社,東京都,中野区,本町３丁目８番３号,,13,114,1640012,,,2025-12-22,清算の結了等,,,2015-10-05,1,,,,,アドナイン,0
49,1011302002418,登記記録の閉鎖等,0,2025-12-26,2025-12-11,有限会社春日,,有限会社,東京都,杉並区,宮前４丁目２９番１５号,,13,115,1680081,,,2025-12-11,清算の結了等,,,2015-10-05,1,,,,,カスガ,0
58,1011801005020,登記記録の閉鎖等,0,2025-12-26,2025-12-24,ヤマト・シルバーウェア株式会社,,株式会社,東京都,葛飾区,東四つ木２丁目２番２３号（ヤマトビル４Ｆ）,,13,122,1240014,,,2025-12-24,清算の結了等,,,2015-10-05,1,,,,,ヤマトシルバーウェア,0
64,1012401016985,登記記録の閉鎖等,0,2025-12-26,2025-12-24,株式会社カイロス,,株式会社,東京都,武蔵野市,吉祥寺本町１丁目２１番２－１１０５号,,13,203,1800004,,,2025-12-24,清算の結了等,,,2015-10-05,1,,,,,カイロス,0
69,1013301031281,登記記録の閉鎖等,0,2025-12-26,2025-12-11,株式会社プライム建築都市研究所,,株式会社,東京都,豊島区,高田３丁目３６番１２号,,13,116,1710033,,,2025-12-11,合併による解散等,9011103015652,令和７年１２月１日東京都豊島区高田三丁目３６番１２号合同会社アトリエ尖（9011103015652）に合併し解散,2015-10-05,1,,,,,プライムケンチクトシケンキュウジョ,0
78,1020001129356,登記記録の閉鎖等,0,2025-12-26,2025-12-19,株式会社ＮＫキャピタル,,株式会社,大阪府,枚方市,星丘２丁目１３番１１号,,27,210,5730013,,,2025-12-19,清算の結了等,,,2018-12-28,1,,,,,エヌケーキャピタル,0
88,1021002053603,登記記録の閉鎖等,0,2025-12-26,2025-12-10,有限会社都城設備工業,,有限会社,神奈川県,小田原市,東大友２３４番地の１,,14,206,2500213,,,2025-12-10,清算の結了等,,,2015-10-05,1,,,,,,0
89,1021002056878,登記記録の閉鎖等,0,2025-12-26,2025-12-10,有限会社岩元商会,,有限会社,神奈川県,平塚市,四之宮５丁目２６番２１号,,14,203,2540014,,,2025-12-10,清算の結了等,,,2015-10-05,1,,,,,,0
96,1030003025767,登記記録の閉鎖等,0,2025-12-26,2025-12-19,ＦＵＴＵＲＥ　ＭＩＮＤ合同会社,,合同会社,埼玉県,所沢市,緑町４丁目２８番３９－２０３号,,11,208,3591111,,,2025-12-19,清算の結了等,,,2024-12-27,1,,,,,フューチャーマインド,0
97,1040001105603,登記記録の閉鎖等,0,2025-12-26,2025-12-05,株式会社ＳＡＮＳＵＩ,,株式会社,千葉県,山武市,松尾町八田１５７番地１,,12,237,2891512,,,2025-12-05,清算の結了等,,,2018-08-02,1,,,,,サンスイ,0
107,1060001022771,登記記録の閉鎖等,0,2025-12-26,2025-12-24,株式会社サンエナジー,,株式会社,栃木県,宇都宮市,下栗町５０７番地６,,09,201,3210923,,,2025-12-24,清算の結了等,,,2015-10-05,1,,,,,サンエナジー,0
112,1090001007919,登記記録の閉鎖等,0,2025-12-26,2025-12-23,株式会社小泉不動産鑑定事務所,,株式会社,山梨県,大月市,御太刀２丁目９番４号,,19,206,4010012,,,2025-12-23,清算の結了等,,,2015-10-05,1,,,,,コイズミフドウサンカンテイジムショ,0
113,1090001018255,登記記録の閉鎖等,0,2025-12-26,2025-12-23,株式会社ぬり太郎,,株式会社,山梨県,甲府市,後屋町３２３番地４‐Ｂ１０２,,19,201,4000045,,,2025-12-23,清算の結了等,,,2023-08-08,1,,,,,ヌリタロウ,0
114,1090002000633,登記記録の閉鎖等,0,2025-12-26,2025-12-22,有限会社憶良館,,有限会社,山梨県,甲府市,朝日１丁目７番１号,,19,201,4000025,,,2025-12-22,清算の結了等,,,2015-10-05,1,,,,,オクラカン,0
117,1100002025216,登記記録の閉鎖等,0,2025-12-26,2025-12-24,有限会社福井商店,,有限会社,長野県,塩尻市,大門八番町５番２号,,20,215,3990737,,,2025-12-24,清算の結了等,,,2015-10-05,1,,,,,フクイショウテン,0
118,1100002030637,登記記録の閉鎖等,0,2025-12-26,2025-12-23,有限会社矢沢建設,,有限会社,長野県,茅野市,宮川５０１０番地８３,,20,214,3910013,,,2025-12-23,清算の結了等,,,2015-10-05,1,,,,,ヤザワケンセツ,0
123,1110002014003,登記記録の閉鎖等,0,2025-12-26,2025-12-19,有限会社斎藤工業所,,有限会社,新潟県,五泉市,村松乙２８２番地,,15,218,9591705,,,2025-12-19,清算の結了等,,,2015-10-05,1,,,,,サイトウコウギョウショ,0
124,1110003004317,登記記録の閉鎖等,0,2025-12-26,2025-12-22,合同会社巣鴨出版会,,合同会社,新潟県,新潟市中央区,女池７丁目６番９号,,15,103,9500941,,,2025-12-22,清算の結了等,,,2020-11-18,1,,,,,スガモシュッパンカイ,0
125,1120001108886,登記記録の閉鎖等,0,2025-12-26,2025-12-23,アクセルトレーディング株式会社,,株式会社,兵庫県,神戸市西区,池上４丁目９－１０ピアハイツＢ棟３－Ｃ号室,,28,111,6512111,,,2025-12-23,清算の結了等,,,2015-10-05,1,,,,,アクセルトレーディング,0
127,1120001202185,登記記録の閉鎖等,0,2025-12-26,2025-12-19,株式会社ＴＴ,,株式会社,大阪府,枚方市,星丘２丁目１３番１１号,,27,210,5730013,,,2025-12-19,清算の結了等,,,2016-12-01,1,,,,,ティーティー,0
130,1120001236407,登記記録の閉鎖等,0,2025-12-26,2025-12-10,株式会社ＭＯＮＪＵ,,株式会社,大阪府,大阪市北区,堂島１丁目６番２０号,,27,127,5300003,,,2025-12-10,合併による解散等,1120001221937,令和７年１２月１日大阪市北区堂島一丁目６番２０号シナジーマーケティング株式会社（1120001221937）に合併し解散,2021-04-02,1,,,,,モンジュ,0
141,1120105006945,登記記録の閉鎖等,0,2025-12-26,2025-12-18,医療法人三瀬医院,,その他の設立登記法人,大阪府,泉大津市,東豊中町３丁目１８番１号,,27,206,5950021,,,2025-12-18,清算の結了等,,,2015-10-05,1,,,,,ミセイイン,0
144,1120901036559,登記記録の閉鎖等,0,2025-12-26,2025-12-25,株式会社裕建,,株式会社,大阪府,摂津市,鳥飼野々１丁目１４番８号,,27,224,5660053,,,2025-12-25,清算の結了等,,,2016-02-23,1,,,,,,0
147,1130001070714,登記記録の閉鎖等,0,2025-12-26,2025-12-24,ｅｎｉｓｈｉ株式会社,,株式会社,大阪府,大阪市城東区,成育４丁目２８番１８号,,27,118,5360007,,,2025-12-24,清算の結了等,,,2021-12-14,1,,,,,エニシ,0
171,1180003003386,登記記録の閉鎖等,0,2025-12-26,2025-12-24,伊藤運送合名会社,,合名会社,愛知県,名古屋市中川区,東中島町４丁目２７番地,,23,110,4540866,,,2025-12-24,清算の結了等,,,2015-10-05,1,,,,,イトウウンソウ,0
180,1250001015376,登記記録の閉鎖等,0,2025-12-26,2025-12-24,株式会社マコト商会,,株式会社,山口県,防府市,大字富海１２６３番地の２,,35,206,7471111,,,2025-12-24,清算の結了等,,,2015-10-05,1,,,,,マコトショウカイ,0
194,1290805003754,登記記録の閉鎖等,0,2025-12-26,2025-12-01,北九州東部漁業協同組合,,その他の設立登記法人,福岡県,北九州市小倉南区,大字吉田２７７８番地の２,,40,107,8000202,,,2025-12-01,合併による解散等,9290805009884,令和７年１２月１日北九州市小倉南区曽根新田北三丁目１３番７号曽根漁業協同組合（5290805000905）と合併して北九州市小倉南区曽根新田北三丁目１３番７号曽根・北九州東部漁業協同組合（9290805009884）を設立し解散,2015-10-05,1,,,,,キタキュウシュウトウブギョギョウ,0
210,1400002004627,登記記録の閉鎖等,0,2025-12-26,2025-12-22,有限会社イーブレインズ,,有限会社,岩手県,盛岡市,三ツ割５丁目１９番８号,,03,201,0200011,,,2025-12-22,清算の結了等,,,2015-10-05,1,,,,,イーブレインズ,0
211,1410003003726,登記記録の閉鎖等,0,2025-12-26,2025-12-22,合同会社ＣＡＲ‐ｂｅｅ,,合同会社,岩手県,岩手郡雫石町,西安庭４１－１８－２７,,03,301,0200572,,,2025-12-22,清算の結了等,,,2022-12-15,1,,,,,カービィー,0
213,1410005004029,登記記録の閉鎖等,0,2025-12-26,2025-12-22,農事組合法人今泉みらいファーム,,その他の設立登記法人,秋田県,北秋田市,今泉字上野２番地１,,05,213,0183343,,,2025-12-22,清算の結了等,,,2015-10-05,1,,,,,イマイズミミライファーム,0
229,2010005034263,登記記録の閉鎖等,0,2025-12-26,2025-12-12,御岳４特定目的会社,,その他の設立登記法人,東京都,千代田区,丸の内２丁目２番３号丸の内仲通りビル６階,,13,101,1000005,,,2025-12-12,清算の結了等,,,2021-11-30,1,,,,,ミタケフォー,0
230,2010005035807,登記記録の閉鎖等,0,2025-12-26,2025-12-12,御岳５特定目的会社,,その他の設立登記法人,東京都,千代田区,丸の内２丁目２番３号丸の内仲通りビル６階,,13,101,1000005,,,2025-12-12,清算の結了等,,,2022-11-17,1,,,,,ミタケファイブ,0
249,2010701036678,登記記録の閉鎖等,0,2025-12-26,2025-12-05,ＩＰトランス株式会社,,株式会社,東京都,中央区,日本橋人形町３丁目１２番９－１００２号,,13,102,1030013,,,2025-12-05,清算の結了等,,,2018-11-02,1,,,,,,0
264,2011101089572,登記記録の閉鎖等,0,2025-12-26,2025-12-02,株式会社ビジョナリーエイト,,株式会社,東京都,新宿区,西新宿１丁目２２番２号,,13,104,1600023,,,2025-12-02,清算の結了等,,,2019-11-15,1,,,,,ビジョナリーエイト,0
268,2011301024453,登記記録の閉鎖等,0,2025-12-26,2025-12-23,株式会社アンリティー,,株式会社,神奈川県,横浜市港北区,大曽根３丁目７番１９号,,14,109,2220003,,,2025-12-23,清算の結了等,,,2018-09-11,1,,,,,アンリティー,0
269,2011501004643,登記記録の閉鎖等,0,2025-12-26,2025-12-24,株式会社ムラハシ,,株式会社,東京都,北区,赤羽西１丁目３１番５－２０７号,,13,117,1150055,,,2025-12-24,清算の結了等,,,2015-10-05,1,,,,,ムラハシ,0
278,2012401020061,登記記録の閉鎖等,0,2025-12-26,2025-12-23,株式会社アライブ,,株式会社,東京都,三鷹市,野崎２丁目６番９号,,13,204,1810014,,,2025-12-23,清算の結了等,,,2015-10-05,1,,,,,アライブ,0
290,2020003006271,登記記録の閉鎖等,0,2025-12-26,2025-12-22,合同会社フレンド,,合同会社,神奈川県,川崎市中原区,新丸子町９１１番地１－６０５,,14,133,2110005,,,2025-12-22,清算の結了等,,,2015-10-05,1,,,,,フレンド,0
294,2021002037902,登記記録の閉鎖等,0,2025-12-26,2025-12-09,有限会社小室自動車整備工場,,有限会社,神奈川県,秦野市,鈴張町７番１４号,,14,211,2570055,,,2025-12-09,清算の結了等,,,2015-10-05,1,,,,,コムロジドウシャセイビコウジョウ,0
311,2040002030270,登記記録の閉鎖等,0,2025-12-26,2025-12-08,有限会社ミーノ産業,,有限会社,千葉県,八千代市,勝田台５丁目２９番地３,,12,221,2760023,,,2025-12-08,清算の結了等,,,2015-10-05,1,,,,,,0
318,2060001008885,登記記録の閉鎖等,0,2025-12-26,2025-12-01,株式会社こまどり交通,,株式会社,栃木県,日光市,鬼怒川温泉滝１２３番地,,09,206,3212526,,,2025-12-01,合併による解散等,9060001008664,令和７年１２月１日栃木県日光市鬼怒川温泉滝３７番地株式会社おおるり（9060001008664）に合併し解散,2015-10-05,1,,,,,コマドリコウツウ,0
320,2070001033874,登記記録の閉鎖等,0,2025-12-26,2025-12-24,株式会社テック製作所,,株式会社,群馬県,太田市,鳥山下町４８６番地,,10,205,3730063,,,2025-12-24,清算の結了等,,,2017-08-24,1,,,,,テックセイサクショ,0
325,2080101003859,登記記録の閉鎖等,0,2025-12-26,2025-12-24,株式会社岡本ふとん店,,株式会社,静岡県,沼津市,町方町２９番地,,22,203,4100882,,,2025-12-24,清算の結了等,,,2015-10-05,1,,,,,オカモトフトンテン,0
335,2100001031734,登記記録の閉鎖等,0,2025-12-26,2025-12-01,ＳＵＮＲＩＳＥ株式会社,,株式会社,長野県,松本市,寿中１丁目９番２５号,,20,202,3990026,,,2025-12-01,合併による解散等,5100001034684,令和７年１２月１日長野県松本市寿中一丁目９番２５号ＳＵＮＲＩＳＥ‐ａｒｃ株式会社（5100001034684）に合併し解散,2018-11-06,1,,,,,サンライズ,0
337,2100002010514,登記記録の閉鎖等,0,2025-12-26,2025-12-23,有限会社梅屋味噌,,有限会社,長野県,佐久市,中込５９９番地,,20,217,3850051,,,2025-12-23,清算の結了等,,,2015-10-05,1,,,,,ウメヤミソ,0
339,2100005010222,登記記録の閉鎖等,0,2025-12-26,2025-11-25,梅林寺,,その他の設立登記法人,長野県,下伊那郡阿南町,富草７６４０番地,,20,404,3991505,,,2025-11-25,合併による解散等,8100005010167,令和７年１１月２５日長野県下伊那郡阿南町富草字野上原４３４２番地関昌寺（8100005010167）に合併し解散,2015-10-05,1,,,,,バイリンジ,0
340,2110001010225,登記記録の閉鎖等,0,2025-12-26,2025-12-22,株式会社ブルーウエイ,,株式会社,新潟県,新発田市,大手町４丁目３番２２号,,15,206,9570052,,,2025-12-22,清算の結了等,,,2015-10-05,1,,,,,ブルーウエイ,0
341,2110002006016,登記記録の閉鎖等,0,2025-12-26,2025-12-19,有限会社本長,,有限会社,新潟県,新潟市東区,中山７丁目２９番１０号,,15,102,9500861,,,2025-12-19,清算の結了等,,,2015-10-05,1,,,,,ホンチョウ,0
345,2120001226547,登記記録の閉鎖等,0,2025-12-26,2025-12-25,株式会社ｄｉｍ　ｓｕｍ,,株式会社,大阪府,大阪市北区,角田町３番２５号Ｅ３０,,27,127,5300017,,,2025-12-25,清算の結了等,,,2020-01-17,1,,,,,ディムサム,0
364,2140001075843,登記記録の閉鎖等,0,2025-12-26,2025-12-22,株式会社多可観光バス,,株式会社,兵庫県,多可郡多可町,中区中村町１６４番地１,,28,365,6791113,,,2025-12-22,清算の結了等,,,2015-10-05,1,,,,,タカカンコウバス,0
397,2200002003210,登記記録の閉鎖等,0,2025-12-26,2025-12-23,有限会社道徳建設,,有限会社,岐阜県,岐阜市,黒野南３丁目３９番地の１,,21,201,5011136,,,2025-12-23,清算の結了等,,,2015-10-05,1,,,,,ドウトクケンセツ,0
403,2240002005269,登記記録の閉鎖等,0,2025-12-26,2025-12-25,有限会社クリバヤシ,,有限会社,広島県,広島市中区,西川口町１７番１８号,,34,101,7300846,,,2025-12-25,清算の結了等,,,2015-10-05,1,,,,,クリバヤシ,0
409,2260002009747,登記記録の閉鎖等,0,2025-12-26,2025-12-19,有限会社ミツワ商会,,有限会社,大阪府,堺市南区,御池台２丁６番１２－１０７号,,27,145,5900134,,,2025-12-19,清算の結了等,,,2015-10-05,1,,,,,ミツワショウカイ,0
412,2270002002288,登記記録の閉鎖等,0,2025-12-26,2025-12-25,有限会社宮脇重機建設,,有限会社,鳥取県,鳥取市,湖山町南３丁目４１１番地５９,,31,201,6800945,,,2025-12-25,清算の結了等,,,2015-10-05,1,,,,,ミヤワキジュウキケンセツ,0
423,2310001005725,登記記録の閉鎖等,0,2025-12-26,2025-12-23,株式会社ツルタ,,株式会社,長崎県,佐世保市,広田３丁目３番１９号,,42,202,8593223,,,2025-12-23,合併による解散等,4310001013742,令和７年１２月１日東京都渋谷区恵比寿南一丁目１番１２号フロンティア恵比寿４０１号室株式会社Ｎクリエイト（4310001013742）に合併し解散,2015-10-05,1,,,,,ツルタ,0
426,2330002000814,登記記録の閉鎖等,0,2025-12-26,2025-12-22,一富有限会社,,有限会社,熊本県,熊本市北区,楠野町字古閑屋敷１３８２番地,,43,105,8615511,,,2025-12-22,清算の結了等,,,2015-10-05,1,,,,,イチトミ,0
427,2330002001424,登記記録の閉鎖等,0,2025-12-26,2025-12-16,有限会社エスボン,,有限会社,熊本県,熊本市東区,湖東３丁目２０番４８号,,43,102,8620909,,,2025-12-16,清算の結了等,,,2015-10-05,1,,,,,エスボン,0
429,2340001006332,登記記録の閉鎖等,0,2025-12-26,2025-12-24,アイホーム２１株式会社,,株式会社,鹿児島県,薩摩川内市,東大小路町６２番地２,,46,215,8950075,,,2025-12-24,清算の結了等,,,2015-10-05,1,,,,,,0
431,2340002026635,登記記録の閉鎖等,0,2025-12-26,2025-12-19,有限会社森山水産,,有限会社,鹿児島県,垂水市,牛根麓１３０６番地,,46,214,8994632,,,2025-12-19,清算の結了等,,,2015-10-05,1,,,,,モリヤマスイサン,0
433,2350002016412,登記記録の閉鎖等,0,2025-12-26,2025-12-22,健康食菌有限会社,,有限会社,宮崎県,都城市,上川東１丁目１３号８番地,,45,202,8850012,,,2025-12-22,清算の結了等,,,2015-10-05,1,,,,,ケンコウショクキン,0
434,2370001001784,登記記録の閉鎖等,0,2025-12-26,2025-12-24,新栄商事株式会社,,株式会社,宮城県,仙台市若林区,文化町３番２０号,,04,103,9840815,,,2025-12-24,清算の結了等,,,2015-10-05,1,,,,,シンエイショウジ,0
441,2390001007994,登記記録の閉鎖等,0,2025-12-26,2025-12-25,株式会社渡部工業,,株式会社,山形県,鶴岡市,羽黒町荒川字西田５２番地の３,,06,203,9970141,,,2025-12-25,清算の結了等,,,2015-10-05,1,,,,,ワタナベコウギョウ,0
443,2390002011079,登記記録の閉鎖等,0,2025-12-26,2025-12-24,有限会社渡辺ソーイング,,有限会社,山形県,新庄市,十日町７１５番地の１,,06,205,9960091,,,2025-12-24,清算の結了等,,,2015-10-05,1,,,,,ワタナベソーイング,0
446,2400001013669,登記記録の閉鎖等,0,2025-12-26,2025-12-22,株式会社エスツー,,株式会社,岩手県,盛岡市,みたけ４丁目１４番３３号,,03,201,0200122,,,2025-12-22,清算の結了等,,,2017-05-10,1,,,,,エスツー,0
448,2400502001296,登記記録の閉鎖等,0,2025-12-26,2025-12-18,有限会社日昇,,有限会社,岩手県,一関市,千厩町千厩字東小田２８４番地１,00085852,03,209,0290803,,,2025-12-18,清算の結了等,,,2015-10-05,1,,,,,ニッショウ,0
449,2410001013718,登記記録の閉鎖等,0,2025-12-26,2025-12-26,株式会社切文字や,,株式会社,秋田県,秋田市,横森５丁目１９番２４号サンパレス長谷川１号,,05,201,0100044,,,2025-12-26,清算の結了等,,,2024-01-30,1,,,,,キリモジヤ,0
450,2420002006067,登記記録の閉鎖等,0,2025-12-26,2025-12-22,有限会社赤坂建鉄工業,,有限会社,青森県,八戸市,大字尻内町字高田４番地１０,,02,203,0391101,,,2025-12-22,清算の結了等,,,2015-10-05,1,,,,,アカサカケンテツコウギョウ,0
461,2500001020192,登記記録の閉鎖等,0,2025-12-26,2025-12-24,株式会社愛染工業,,株式会社,愛媛県,大洲市,東大洲７１５番地,,38,207,7950064,,,2025-12-24,清算の結了等,,,2016-11-09,1,,,,,アイゼンコウギョウ,0
474,3010005035137,登記記録の閉鎖等,0,2025-12-26,2025-12-22,特定目的会社Ｃｙａｎ　Ｈｏｌｄｉｎｇｓ１,,その他の設立登記法人,東京都,千代田区,丸の内１丁目４番１号東京共同会計事務所内,,13,101,1000005,,,2025-12-22,清算の結了等,,,2022-06-15,1,,,,,シアンホールディングスワン,0
499,3011001092428,登記記録の閉鎖等,0,2025-12-26,2025-12-19,遊技機ファンド１号株式会社,,株式会社,大阪府,枚方市,星丘２丁目１３番１１号,,27,210,5730013,,,2025-12-19,清算の結了等,,,2015-10-05,1,,,,,ユウギキファンドイチゴウ,0
522,3011701003915,登記記録の閉鎖等,0,2025-12-26,2025-12-16,清水造園株式会社,,株式会社,東京都,江戸川区,平井７丁目２４番１２号,,13,123,1320035,,,2025-12-16,清算の結了等,,,2015-10-05,1,,,,,シミズゾウエン,0
523,3011701021223,登記記録の閉鎖等,0,2025-12-26,2025-12-16,株式会社ガイア,,株式会社,東京都,江戸川区,平井６丁目５１番２号,,13,123,1320035,,,2025-12-16,清算の結了等,,,2017-10-05,1,,,,,ガイア,0
526,3012402004921,登記記録の閉鎖等,0,2025-12-26,2025-12-22,有限会社公地解体,,有限会社,東京都,小金井市,中町１丁目５番４４号,,13,210,1840012,,,2025-12-22,清算の結了等,,,2015-10-05,1,,,,,コウチカイタイ,0
559,3030002121945,登記記録の閉鎖等,0,2025-12-26,2025-12-19,黒沢音工有限会社,,有限会社,埼玉県,秩父郡小鹿野町,小鹿野８２１番地の５,,11,365,3680105,,,2025-12-19,清算の結了等,,,2015-10-05,1,,,,,クロサワオンコウ,0
560,3030005005419,登記記録の閉鎖等,0,2025-12-26,2025-12-19,特定非営利活動法人論壇不無庵,,その他の設立登記法人,埼玉県,加須市,鴻茎３２０２番地１株式会社電硝エンジニアリング内,,11,210,3470111,,,2025-12-19,清算の結了等,,,2015-10-05,1,,,,,ロンダンフブアン,0
562,3030005013867,登記記録の閉鎖等,0,2025-12-26,2025-11-19,天理教北埼分教会,,その他の設立登記法人,埼玉県,行田市,本丸９番３９号,,11,206,3610052,,,2025-11-19,合併による解散等,6030005013856,令和７年１１月１９日埼玉県行田市佐間一丁目４番２５号天理教忍町分教会（6030005013856）に合併し解散,2015-10-05,1,,,,,テンリキョウホクサイブンキョウカイ,0
577,3060005002660,登記記録の閉鎖等,0,2025-12-26,2025-11-28,箒根神社,,その他の設立登記法人,栃木県,塩谷郡塩谷町,大字喜佐見７１７番地,,09,384,3292212,,,2025-11-28,合併による解散等,9060005002671,令和７年１１月２８日栃木県塩谷郡塩谷町大字上寺島１２６９番地高原山神社（9060005002671）に合併し解散,2015-10-05,1,,,,,ホウキネジンジャ,0
578,3080001014179,登記記録の閉鎖等,0,2025-12-26,2025-12-18,株式会社沢入電気,,株式会社,静岡県,牧之原市,波津８２０番地の１,,22,226,4210523,,,2025-12-18,清算の結了等,,,2015-10-05,1,,,,,サワイリデンキ,0
587,3090002012718,登記記録の閉鎖等,0,2025-12-26,2025-12-23,有限会社ミシマソフトドリンク,,有限会社,山梨県,南都留郡富士河口湖町,船津５６８８番地１,,19,430,4010301,,,2025-12-23,清算の結了等,,,2015-10-05,1,,,,,ミシマソフトドリンク,0
589,3110002011147,登記記録の閉鎖等,0,2025-12-26,2025-12-19,有限会社富士電機,,有限会社,新潟県,新潟市西蒲区,升潟４８６５番地２,,15,108,9590413,,,2025-12-19,清算の結了等,,,2015-10-05,1,,,,,フジデンキ,0
595,3110005010204,登記記録の閉鎖等,0,2025-12-26,2025-12-23,塩ノ又生産森林組合,,その他の設立登記法人,新潟県,十日町市,庚５５３番地,,15,210,9480000,,,2025-12-23,清算の結了等,,,2015-10-05,1,,,,,シオノマタ,0
596,3120001059368,登記記録の閉鎖等,0,2025-12-26,2025-12-24,株式会社ＮＣＴ,,株式会社,大阪府,大阪市淀川区,西中島４丁目９番２８号,,27,123,5320011,,,2025-12-24,清算の結了等,,,2015-10-05,1,,,,,エヌシーティー,0
608,3120003022662,登記記録の閉鎖等,0,2025-12-26,2025-12-24,合同会社古延,,合同会社,大阪府,大阪市西区,西本町１丁目５番１３号山本ビル４０４号,,27,106,5500005,,,2025-12-24,清算の結了等,,,2022-10-14,1,,,,,コエン,0
618,3120105000426,登記記録の閉鎖等,0,2025-12-26,2025-12-18,一般財団法人羽衣会館,,その他の設立登記法人,大阪府,高石市,羽衣１丁目２１番５号,,27,225,5920002,,,2025-12-18,清算の結了等,,,2015-10-05,1,,,,,ハゴロモカイカン,0
620,3120901027416,登記記録の閉鎖等,0,2025-12-26,2025-12-23,株式会社ハグアグリ,,株式会社,大阪府,豊中市,浜１丁目２６番２１号,,27,203,5610817,,,2025-12-23,清算の結了等,,,2015-10-05,1,,,,,ハグアグリ,0
621,3120902011170,登記記録の閉鎖等,0,2025-12-26,2025-12-24,福栄住宅有限会社,,有限会社,大阪府,高槻市,西冠２丁目１１番３１号,,27,207,5690055,,,2025-12-24,清算の結了等,,,2015-10-05,1,,,,,フクエイジュウタク,0
624,3130002009024,登記記録の閉鎖等,0,2025-12-26,2025-12-23,ＨＵＳＫＹ　ＪＰ有限会社,,有限会社,京都府,京都市西京区,山田中吉見町１９番地の８,,26,111,6158237,,,2025-12-23,清算の結了等,,,2015-10-05,1,,,,,ハスキージェイピー,0
629,3140001051901,登記記録の閉鎖等,0,2025-12-26,2025-12-22,和敬興産株式会社,,株式会社,兵庫県,尼崎市,大庄西町１丁目３１番６号,,28,202,6600077,,,2025-12-22,清算の結了等,,,2015-10-05,1,,,,,ワケイコウサン,0
631,3140001109583,登記記録の閉鎖等,0,2025-12-26,2025-12-24,株式会社ＣＨＥＡＴ,,株式会社,兵庫県,神戸市中央区,御幸通４丁目１番１０号,,28,110,6510087,,,2025-12-24,清算の結了等,,,2018-04-06,1,,,,,チート,0
634,3140005009986,登記記録の閉鎖等,0,2025-12-26,2025-12-22,特定非営利活動法人まちづくりサポートはりま,,その他の設立登記法人,兵庫県,加古郡播磨町,東本荘１丁目５番４０号,,28,382,6750156,,,2025-12-22,清算の結了等,,,2015-10-05,1,,,,,マチヅクリサポートハリマ,0
640,3180001082637,登記記録の閉鎖等,0,2025-12-26,2025-12-24,上本町ビル株式会社,,株式会社,愛知県,一宮市,本町１丁目２番２号,,23,203,4910859,,,2025-12-24,清算の結了等,,,2015-10-05,1,,,,,カミホンマチビル,0
641,3180001130073,登記記録の閉鎖等,0,2025-12-26,2025-12-10,株式会社プリート,,株式会社,愛知県,名古屋市西区,歌里町３７２番地,,23,104,4520807,,,2025-12-10,清算の結了等,,,2017-11-08,1,,,,,プリート,0
645,3180002033473,登記記録の閉鎖等,0,2025-12-26,2025-12-23,有限会社らいらっく,,有限会社,愛知県,名古屋市中区,錦３丁目１３番３２号,,23,106,4600003,,,2025-12-23,清算の結了等,,,2015-10-05,1,,,,,ライラック,0
649,3180301002336,登記記録の閉鎖等,0,2025-12-26,2025-11-11,レッドバロン茨城株式会社,00074414,株式会社,愛知県,岡崎市,大平町字市木２８番地,,23,202,4440007,,,2025-11-11,合併による解散等,7180301002266,令和７年１１月１日愛知県岡崎市藤川町字境松西１番地株式会社レッドバロン（7180301002266）に合併し解散,2015-10-05,1,,,,,レッドバロンイバラキ,0
659,3210005000252,登記記録の閉鎖等,0,2025-12-26,2025-12-22,福井県道路公社,,その他の設立登記法人,福井県,福井市,松本３丁目１６番１０号,,18,201,9100003,,,2025-12-22,清算の結了等,,,2015-10-05,1,,,,,フクイケン,0
665,3240005013499,登記記録の閉鎖等,0,2025-12-26,2025-11-28,医療法人医真会,,その他の設立登記法人,広島県,広島市安佐南区,祇園２丁目１３番２０号,,34,105,7310138,,,2025-11-28,合併による解散等,8240005015648,令和７年１１月２８日広島市安佐南区西原五丁目５番１０号医療法人広島ハートセンター（8240005015648）に合併し解散,2015-10-05,1,,,,,イシンカイ,0
666,3250001000657,登記記録の閉鎖等,0,2025-12-26,2025-12-23,株式会社福屋呉服店,,株式会社,山口県,山口市,湯田温泉１丁目１１番２０号,,35,203,7530056,,,2025-12-23,清算の結了等,,,2015-10-05,1,,,,,フクヤゴフクテン,0
671,3290001006147,登記記録の閉鎖等,0,2025-12-26,2025-12-16,求人ふくおか株式会社,,株式会社,福岡県,福岡市中央区,薬院２丁目１３番３３号,,40,133,8100022,,,2025-12-16,清算の結了等,,,2015-10-05,1,,,,,キュウジンフクオカ,0
675,3290001059979,登記記録の閉鎖等,0,2025-12-26,2025-12-24,株式会社ルームウェア,,株式会社,福岡県,大川市,大字一木５６番地１,,40,212,8310034,,,2025-12-24,清算の結了等,,,2015-10-05,1,,,,,ルームウェア,0
683,3290805003232,登記記録の閉鎖等,0,2025-12-26,2025-11-18,本願寺門司教堂,,その他の設立登記法人,福岡県,北九州市門司区,庄司町４番３号,,40,101,8010865,,,2025-11-18,合併による解散等,2290805003233,令和７年１１月１８日北九州市門司区別院６番１号本願寺鎮西別院（2290805003233）に合併し解散,2015-10-05,1,,,,,ホンガンジモジキョウドウ,0
684,3310001003587,登記記録の閉鎖等,0,2025-12-26,2025-12-25,Ｃ・Ｒ・Ｄ株式会社,,株式会社,長崎県,長崎市,蚊焼町６４９番地１,,42,201,8510401,,,2025-12-25,清算の結了等,,,2015-10-05,1,,,,,シーアールディー,0
690,3350002011726,登記記録の閉鎖等,0,2025-12-26,2025-12-22,有限会社岩屋酒店,,有限会社,宮崎県,延岡市,博労町２番地の３４,,45,203,8820044,,,2025-12-22,清算の結了等,,,2015-10-05,1,,,,,イワヤサケテン,0
691,3350002012609,登記記録の閉鎖等,0,2025-12-26,2025-12-23,有限会社ブランシェ,,有限会社,宮崎県,延岡市,中川原町３丁目５０１７番地２,,45,203,8820031,,,2025-12-23,清算の結了等,,,2015-10-05,1,,,,,ブランシェ,0
692,3360001000844,登記記録の閉鎖等,0,2025-12-26,2025-12-08,株式会社倉吉産業,,株式会社,沖縄県,那覇市,三原１丁目１１番１９号,,47,201,9020063,,,2025-12-08,清算の結了等,,,2025-06-25,1,,,,,クラヨシサンギョウ,0
711,3440001007427,登記記録の閉鎖等,0,2025-12-26,2025-12-25,株式会社Ｔ‐Ｋ企画,,株式会社,北海道,函館市,桔梗４丁目１９番１０号,,01,202,0410808,,,2025-12-25,清算の結了等,,,2015-10-05,1,,,,,ティーケーキカク,0
724,4010005028585,登記記録の閉鎖等,0,2025-12-26,2025-12-19,一般社団法人郷什塾,,その他の設立登記法人,東京都,千代田区,神田佐久間町３丁目３８番地太陽ビル２０５号,,13,101,1010025,,,2025-12-19,清算の結了等,,,2018-05-29,1,,,,,ゴジュウジュク,0
725,4010005034757,登記記録の閉鎖等,0,2025-12-26,2025-12-23,一般社団法人ジャングル,,その他の設立登記法人,東京都,千代田区,丸の内１丁目４番１号東京共同会計事務所内,,13,101,1000005,,,2025-12-23,清算の結了等,,,2022-03-22,1,,,,,ジャングル,0
730,4010401098620,登記記録の閉鎖等,0,2025-12-26,2025-12-18,株式会社グローメディックス,,株式会社,東京都,西東京市,田無町５丁目４番１３－３０２号,,13,229,1880011,,,2025-12-18,清算の結了等,,,2015-10-05,1,,,,,グローメディックス,0
754,4011005008387,登記記録の閉鎖等,0,2025-12-26,2025-12-02,監査法人奏令,,その他の設立登記法人,東京都,渋谷区,桜丘町２５番１８号ＮＴ渋谷ビル７階,,13,113,1500031,,,2025-12-02,合併による解散等,1010005037135,令和７年１１月２５日東京都千代田区丸の内二丁目２番１号ななつぼし監査法人（1010005037135）に合併し解散,2019-12-09,1,,,,,ソウレイ,0
796,4030002033710,登記記録の閉鎖等,0,2025-12-26,2025-12-19,有限会社三ゆう,,有限会社,埼玉県,狭山市,狭山台２丁目６番地の９,,11,215,3501304,,,2025-12-19,清算の結了等,,,2015-10-05,1,,,,,サンユウ,0
797,4030002034031,登記記録の閉鎖等,0,2025-12-26,2025-12-18,有限会社武山自動車工業,,有限会社,埼玉県,狭山市,広瀬東３丁目６番１０号,,11,215,3501320,,,2025-12-18,清算の結了等,,,2015-10-05,1,,,,,タケヤマジドウシャコウギョウ,0
798,4030002042224,登記記録の閉鎖等,0,2025-12-26,2025-12-19,松井産業有限会社,,有限会社,埼玉県,加須市,上崎２６５５番地,,11,210,3470125,,,2025-12-19,清算の結了等,,,2015-10-05,1,,,,,マツイサンギョウ,0
799,4030003025236,登記記録の閉鎖等,0,2025-12-26,2025-12-22,ＳＡＹＡＩＮＴＥＲＮＡＴＩＯＮＡＬ合同会社,,合同会社,埼玉県,飯能市,栄町１０番地２０小峯ハイツ２０３号室,,11,209,3570025,,,2025-12-22,清算の結了等,,,2024-10-03,1,,,,,サヤインターナショナル,0
804,4040001122513,登記記録の閉鎖等,0,2025-12-26,2025-11-19,株式会社ニセンゴヒャク,,株式会社,千葉県,成田市,新妻１３６番地,,12,211,2860837,,,2025-11-19,清算の結了等,,,2022-03-04,1,,,,,ニセンゴヒャク,0
811,4070002017362,登記記録の閉鎖等,0,2025-12-26,2025-12-24,有限会社久保組,,有限会社,群馬県,藤岡市,立石１５３８番地の３９,,10,209,3750002,,,2025-12-24,清算の結了等,,,2015-10-05,1,,,,,クボグミ,0
817,4100005011020,登記記録の閉鎖等,0,2025-12-26,2025-12-22,医療法人中村歯科医院,,その他の設立登記法人,長野県,長野市,大字上駒沢新町１３０番地１,,20,201,3810082,,,2025-12-22,清算の結了等,,,2015-10-05,1,,,,,ナカムラシカイイン,0
818,4100005012852,登記記録の閉鎖等,0,2025-12-26,2025-12-18,一般社団法人Ｅｉｒ,,その他の設立登記法人,長野県,上田市,上田原５０１番地１８,,20,203,3861102,,,2025-12-18,清算の結了等,,,2022-04-12,1,,,,,エール,0
821,4110005001350,登記記録の閉鎖等,0,2025-12-26,2025-11-21,豊照稲荷神社,,その他の設立登記法人,新潟県,新潟市中央区,東湊町通１ノ町２５４５番地の甲４甲,,15,103,9518028,,,2025-11-21,合併による解散等,3110005001426,令和７年１１月２１日新潟市中央区稲荷町３４８２番地湊稻荷神社（3110005001426）に合併し解散,2015-10-05,1,,,,,トヨテルイナリジンジャ,0
850,4140001041331,登記記録の閉鎖等,0,2025-12-26,2025-12-24,株式会社丸参,,株式会社,兵庫県,丹波市,氷上町成松２０５番地１,,28,223,6693601,,,2025-12-24,清算の結了等,,,2015-10-05,1,,,,,マルサン,0
851,4140001079999,登記記録の閉鎖等,0,2025-12-26,2025-12-22,株式会社アイ波動経済研究所,,株式会社,兵庫県,伊丹市,大鹿２丁目１１番地,,28,207,6640899,,,2025-12-22,清算の結了等,,,2015-10-05,1,,,,,アイハドウケイザイケンキュウジョ,0
857,4140001128104,登記記録の閉鎖等,0,2025-12-26,2025-12-24,株式会社ＮＡコーポレーション,,株式会社,兵庫県,尼崎市,築地２丁目１１番３号,,28,202,6600858,,,2025-12-24,清算の結了等,,,2022-11-15,1,,,,,エヌエイコーポレーション,0
862,4160001020382,登記記録の閉鎖等,0,2025-12-26,2025-12-23,山田電工株式会社,,株式会社,滋賀県,大津市,日吉台３丁目１８番１０号,,25,201,5200112,,,2025-12-23,清算の結了等,,,2017-08-04,1,,,,,ヤマダデンコウ,0
866,4180001087750,登記記録の閉鎖等,0,2025-12-26,2025-12-22,愛国機械株式会社,,株式会社,愛知県,岩倉市,東町藤塚７７番地,,23,228,4820041,,,2025-12-22,清算の結了等,,,2015-10-05,1,,,,,,0
869,4180001113985,登記記録の閉鎖等,0,2025-12-26,2025-12-23,アックスデザインリンク株式会社,,株式会社,愛知県,名古屋市中区,丸の内２丁目１７番４号ＭＩＷＡ第一ビル６０５,,23,106,4600002,,,2025-12-23,清算の結了等,,,2015-10-05,1,,,,,アックスデザインリンク,0
872,4180002017509,登記記録の閉鎖等,0,2025-12-26,2025-12-22,有限会社エーシーシー,,有限会社,愛知県,名古屋市中村区,五反城町８丁目１７番地,,23,105,4530836,,,2025-12-22,清算の結了等,,,2015-10-05,1,,,,,エーシーシー,0
875,4180002091636,登記記録の閉鎖等,0,2025-12-26,2025-12-22,有限会社竹田プレス工業,,有限会社,愛知県,あま市,西今宿郷内二１６番地,,23,237,4901104,,,2025-12-22,清算の結了等,,,2015-10-05,1,,,,,タケダプレスコウギョウ,0
877,4180301007895,登記記録の閉鎖等,0,2025-12-26,2025-12-24,原農機株式会社,,株式会社,愛知県,田原市,福江町浜田１９番地の１,,23,231,4413617,,,2025-12-24,清算の結了等,,,2015-10-05,1,,,,,ハラノウキ,0
883,4200001015122,登記記録の閉鎖等,0,2025-12-26,2025-12-22,株式会社若山組,,株式会社,岐阜県,養老郡養老町,明徳１９０番地,,21,341,5031252,,,2025-12-22,清算の結了等,,,2015-10-05,1,,,,,ワカヤマグミ,0
887,4220005000226,登記記録の閉鎖等,0,2025-12-26,2025-12-24,一般財団法人石川自治労働文化会館,,その他の設立登記法人,石川県,金沢市,菊川２丁目２６番１８号,,17,201,9200967,,,2025-12-24,清算の結了等,,,2015-10-05,1,,,,,イシカワジチロウドウブンカカイカン,0
896,4250002015802,登記記録の閉鎖等,0,2025-12-26,2025-12-24,有限会社高橋建設,00002771,有限会社,山口県,下松市,瑞穂町４丁目１１番６号,,35,207,7440075,,,2025-12-24,清算の結了等,,,2015-10-05,1,,,,,タカハシケンセツ,0
898,4260001020604,登記記録の閉鎖等,0,2025-12-26,2025-12-18,ビジネスクリエイト株式会社,,株式会社,岡山県,津山市,河辺４２８番地７,,33,203,7080842,,,2025-12-18,清算の結了等,,,2015-10-05,1,,,,,ビジネスクリエイト,0
908,4290003016259,登記記録の閉鎖等,0,2025-12-26,2025-12-12,合同会社ＭｅｍｏｒｙＦｉｌｍＣｏｍｐａｎｙ,,合同会社,福岡県,福岡市中央区,天神２丁目２番１２号Ｔ＆Ｊビルディング７Ｆ,,40,133,8100001,,,2025-12-12,清算の結了等,,,2025-02-10,1,,,,,メモリーフィルムカンパニー,0
915,4350002004695,登記記録の閉鎖等,0,2025-12-26,2025-12-22,有限会社宮崎川越建販,,有限会社,宮崎県,宮崎市,丸山２丁目１１５番地１プレタメゾン丸山４０２号,,45,201,8800052,,,2025-12-22,清算の結了等,,,2015-10-05,1,,,,,ミヤザキカワゴエケンパン,0
916,4350002006147,登記記録の閉鎖等,0,2025-12-26,2025-12-23,有限会社エスケー・システム,,有限会社,宮崎県,宮崎市,月見ケ丘４丁目２７番２１号,,45,201,8800926,,,2025-12-23,清算の結了等,,,2015-10-05,1,,,,,エスケーシステム,0
919,4370001010750,登記記録の閉鎖等,0,2025-12-26,2025-12-24,株式会社ＹＩ管財,,株式会社,宮城県,仙台市青葉区,作並字元木１６番地,,04,101,9893431,,,2025-12-24,清算の結了等,,,2015-10-05,1,,,,,ワイアイカンザイ,0
925,4380001019428,登記記録の閉鎖等,0,2025-12-26,2025-12-22,いわき計装株式会社,,株式会社,福島県,いわき市,四倉町上仁井田字鰻沼２１番地の８,,07,204,9790202,,,2025-12-22,清算の結了等,,,2015-10-05,1,,,,,イワキケイソウ,0
928,4390001007225,登記記録の閉鎖等,0,2025-12-26,2025-12-25,株式会社ブラッサム,,株式会社,山形県,酒田市,幸町１丁目９番１３号,,06,204,9980023,,,2025-12-25,清算の結了等,,,2015-10-05,1,,,,,,0
944,4430002063725,登記記録の閉鎖等,0,2025-12-26,2025-12-23,有限会社洞爺パーク,,有限会社,北海道,虻田郡洞爺湖町,洞爺町５４番地,,01,584,0495802,,,2025-12-23,清算の結了等,,,2015-10-05,1,,,,,トウヤパーク,0
948,4460402000267,登記記録の閉鎖等,0,2025-12-26,2025-12-25,有限会社根室舶用機器,,有限会社,北海道,根室市,穂香１０５番地,,01,223,0870037,,,2025-12-25,清算の結了等,,,2015-10-05,1,,,,,,0
951,4490002004780,登記記録の閉鎖等,0,2025-12-26,2025-12-24,益幸商事有限会社,,有限会社,高知県,高知市,五台山２８番地１０,,39,201,7818125,,,2025-12-24,清算の結了等,,,2015-10-05,1,,,,,マスコウショウジ,0
963,5010001143858,登記記録の閉鎖等,0,2025-12-26,2025-12-19,株式会社セントラルシティ,,株式会社,兵庫県,神戸市中央区,加納町３丁目１番２６号,,28,110,6500001,,,2025-12-19,清算の結了等,,,2015-10-05,1,,,,,セントラルシティ,0
992,5010701004830,登記記録の閉鎖等,0,2025-12-26,2025-12-22,株式会社ジューダ建装,,株式会社,東京都,品川区,西中延２丁目１５番２３号,,13,109,1420054,,,2025-12-22,清算の結了等,,,2015-10-05,1,,,,,ジューダケンソウ,0
999,5011001154523,登記記録の閉鎖等,0,2025-12-26,2025-12-02,フォーシロージー株式会社,,株式会社,東京都,新宿区,高田馬場２丁目８番５号凛ビル,,13,104,1690075,,,2025-12-02,清算の結了等,,,2023-05-18,1,,,,,フォーシロージー,0
1010,5011601028705,登記記録の閉鎖等,0,2025-12-26,2025-12-19,株式会社ＨＡＯ,,株式会社,東京都,練馬区,春日町６丁目１６－１１フォーチュン光が丘２８３号室,,13,120,1790074,,,2025-12-19,清算の結了等,,,2025-06-10,1,,,,,エイチエーオー,0
1011,5011602005975,登記記録の閉鎖等,0,2025-12-26,2025-12-19,有限会社大成住建,,有限会社,東京都,練馬区,大泉町４丁目１０番３号,,13,120,1780062,,,2025-12-19,清算の結了等,,,2015-10-05,1,,,,,タイセイジュウケン,0
1018,5012402007732,登記記録の閉鎖等,0,2025-12-26,2025-12-24,有限会社川内鉄筋,,有限会社,東京都,調布市,柴崎２丁目１９番地５,,13,208,1820014,,,2025-12-24,清算の結了等,,,2015-10-05,1,,,,,カワウチテッキン,0
1034,5020003027612,登記記録の閉鎖等,0,2025-12-26,2025-12-23,ＳＡＴ１合同会社,,合同会社,神奈川県,川崎市川崎区,東田町２番１９号エステムプラザ川崎９０１号室,,14,131,2100005,,,2025-12-23,清算の結了等,,,2025-01-17,1,,,,,エスエーティーワン,0
1036,5020005015210,登記記録の閉鎖等,0,2025-12-26,2025-12-22,一般社団法人直流機・高圧電動機修理・保守技術研究会,,その他の設立登記法人,神奈川県,横浜市青葉区,荏田北２丁目１９番地１２,,14,117,2250015,,,2025-12-22,清算の結了等,,,2021-09-17,1,,,,,チョクリュウキコウアツデンドウキシュウリホシュギジュツケンキュウカイ,0
1037,5021001006525,登記記録の閉鎖等,0,2025-12-26,2025-12-08,暁建設株式会社,,株式会社,神奈川県,茅ヶ崎市,香川１丁目４１番５号,,14,207,2530082,,,2025-12-08,清算の結了等,,,2015-10-05,1,,,,,アカツキケンセツ,0
1043,5030001022291,登記記録の閉鎖等,0,2025-12-26,2025-12-18,道株式会社,,株式会社,埼玉県,蕨市,中央１丁目１４番１０号,,11,223,3350004,,,2025-12-18,清算の結了等,,,2015-10-05,1,,,,,ミチ,0
1047,5030001118684,登記記録の閉鎖等,0,2025-12-26,2025-12-19,株式会社サンティエ,,株式会社,埼玉県,所沢市,小手指町１丁目２６番地の１サンクレイドルはなみずき通りレジデンス４１４,,11,208,3591141,,,2025-12-19,清算の結了等,,,2017-02-15,1,,,,,サンティエ,0
1054,5030002120846,登記記録の閉鎖等,0,2025-12-26,2025-12-22,有限会社テッヅコーポレーション,,有限会社,埼玉県,日高市,高萩東３丁目１０番２２号,,11,242,3501215,,,2025-12-22,清算の結了等,,,2015-10-05,1,,,,,テッヅコーポレーション,0
1059,5030005005136,登記記録の閉鎖等,0,2025-12-26,2025-11-19,天理教志多見分教会,,その他の設立登記法人,埼玉県,加須市,阿良川６３６番地,,11,210,3470047,,,2025-11-19,合併による解散等,6030005013856,令和７年１１月１９日埼玉県行田市佐間一丁目４番２５号天理教忍町分教会（6030005013856）に合併し解散,2015-10-05,1,,,,,テンリキョウシダミブンキョウカイ,0
1064,5040002058094,登記記録の閉鎖等,0,2025-12-26,2025-12-08,有限会社ケイアンドケイ物流サービス,,有限会社,千葉県,成田市,本三里塚１００１番地１２９１,,12,211,2860118,,,2025-12-08,清算の結了等,,,2015-10-05,1,,,,,,0
1066,5040005019564,登記記録の閉鎖等,0,2025-12-26,2025-12-08,特定非営利活動法人パシフィックバスケットボールアソシエーション,,その他の設立登記法人,千葉県,鎌ケ谷市,南鎌ケ谷４丁目１２番７２号,,12,224,2730106,,,2025-12-08,清算の結了等,,,2017-06-05,1,,,,,パシフィックバスケットボールアソシエーション,0
1067,5050001027925,登記記録の閉鎖等,0,2025-12-26,2025-12-19,なかむら興業株式会社,,株式会社,茨城県,取手市,双葉３丁目３７番１号,,08,217,3001501,,,2025-12-19,清算の結了等,,,2015-10-05,1,,,,,ナカムラコウギョウ,0
1071,5060001020111,登記記録の閉鎖等,0,2025-12-26,2025-12-23,株式会社ラスティング,,株式会社,栃木県,足利市,八幡町２丁目２番地９,,09,202,3260824,,,2025-12-23,清算の結了等,,,2015-10-05,1,,,,,ラスティング,0
1078,5060002035892,登記記録の閉鎖等,0,2025-12-26,2025-12-23,有限会社菊地電設,,有限会社,栃木県,足利市,助戸３丁目５２１番地６,,09,202,3260044,,,2025-12-23,清算の結了等,,,2015-10-05,1,,,,,キクチデンセツ,0
1083,5080001018211,登記記録の閉鎖等,0,2025-12-26,2025-12-22,株式会社牧田架設,,株式会社,静岡県,藤枝市,南新屋２６１番地の１２,,22,214,4260072,,,2025-12-22,清算の結了等,,,2015-10-05,1,,,,,マキタカセツ,0
1096,5100001011015,登記記録の閉鎖等,0,2025-12-26,2025-12-22,関電機株式会社,,株式会社,長野県,上田市,中丸子１２２５番地３,,20,203,3860405,,,2025-12-22,清算の結了等,,,2015-10-05,1,,,,,セキデンキ,0
1099,5110005015903,登記記録の閉鎖等,0,2025-12-26,2025-12-19,一般社団法人佐渡を世界遺産にする会,,その他の設立登記法人,新潟県,佐渡市,河原田本町３９４番地,,15,224,9521314,,,2025-12-19,清算の結了等,,,2016-04-12,1,,,,,サドヲセカイイサンニスルカイ,0
1128,5140001039168,登記記録の閉鎖等,0,2025-12-26,2025-12-22,松下工業株式会社,,株式会社,兵庫県,宍粟市,山崎町山田２４８番地１２,,28,227,6712575,,,2025-12-22,清算の結了等,,,2015-10-05,1,,,,,マツシタコウギョウ,0
1139,5160002000358,登記記録の閉鎖等,0,2025-12-26,2025-12-24,有限会社オルト,,有限会社,滋賀県,大津市,一里山４丁目２７番２１号,,25,201,5202153,,,2025-12-24,清算の結了等,,,2015-10-05,1,,,,,オルト,0
1140,5170002004928,登記記録の閉鎖等,0,2025-12-26,2025-12-25,有限会社クシモト建設,,有限会社,和歌山県,和歌山市,小雑賀５７５番地,,30,201,6410007,,,2025-12-25,清算の結了等,,,2015-10-05,1,,,,,クシモトケンセツ,0
1143,5180001074459,登記記録の閉鎖等,0,2025-12-26,2025-12-24,中京断熱株式会社,,株式会社,愛知県,春日井市,篠木町５丁目２４７５番地８,,23,206,4860851,,,2025-12-24,清算の結了等,,,2015-10-05,1,,,,,チュウキョウダンネツ,0
1146,5180001131805,登記記録の閉鎖等,0,2025-12-26,2025-12-24,株式会社グローバルパートナーズ,,株式会社,愛知県,名古屋市昭和区,緑町２丁目２０番地,,23,107,4660013,,,2025-12-24,清算の結了等,,,2018-04-09,1,,,,,グローバルパートナーズ,0
1150,5180002089720,登記記録の閉鎖等,0,2025-12-26,2025-12-22,有限会社粉忠食品,,有限会社,愛知県,海部郡蟹江町,舟入４丁目１３２番地,,23,425,4970048,,,2025-12-22,清算の結了等,,,2015-10-05,1,,,,,コチュウショクヒン,0
1152,5180301023727,登記記録の閉鎖等,0,2025-12-26,2025-12-19,エイコウ産業株式会社,,株式会社,愛知県,西尾市,吉良町駮馬丸山８６番地１,,23,213,4440501,,,2025-12-19,清算の結了等,,,2015-10-05,1,,,,,エイコウサンギョウ,0
1158,5220001025952,登記記録の閉鎖等,0,2025-12-26,2025-12-24,株式会社ＭＧＫ,,株式会社,石川県,羽咋市,本町エ１７番地３,,17,207,9250035,,,2025-12-24,清算の結了等,,,2024-04-19,1,,,,,エムジーケー,0
1164,5240002043472,登記記録の閉鎖等,0,2025-12-26,2025-12-23,有限会社モリタコーポレーション,,有限会社,広島県,福山市,光南町２丁目３番３号,,34,207,7200814,,,2025-12-23,清算の結了等,,,2015-10-05,1,,,,,モリタコーポレーション,0
1165,5240003003822,登記記録の閉鎖等,0,2025-12-26,2025-12-25,合同会社ＯＳビジネスサポート,,合同会社,広島県,廿日市市,城内１丁目９番１２号,,34,213,7380007,,,2025-12-25,清算の結了等,,,2018-02-28,1,,,,,オーエスビジネスサポート,0
1174,5290001077186,登記記録の閉鎖等,0,2025-12-26,2025-12-12,笠瀬建塗株式会社,00109624,株式会社,福岡県,那珂川市,大字別所３７９番地４８,,40,231,8111245,,,2025-12-12,清算の結了等,,,2017-03-22,1,,,,,カサセケント,0
1176,5290001088778,登記記録の閉鎖等,0,2025-12-26,2025-12-24,株式会社関家具工房木馬,,株式会社,福岡県,大川市,大字三丸１７７８番地３,,40,212,8310026,,,2025-12-24,清算の結了等,,,2020-05-26,1,,,,,セキカグコウボウモクバ,0
1180,5290805000905,登記記録の閉鎖等,0,2025-12-26,2025-12-01,曽根漁業協同組合,,その他の設立登記法人,福岡県,北九州市小倉南区,曽根新田北３丁目１３番７号,,40,107,8000219,,,2025-12-01,合併による解散等,9290805009884,令和７年１２月１日北九州市小倉南区大字吉田２７７８番地の２北九州東部漁業協同組合（1290805003754）と合併して北九州市小倉南区曽根新田北三丁目１３番７号曽根・北九州東部漁業協同組合（9290805009884）を設立し解散,2015-10-05,1,,,,,キタキュウシュウトウブギョギョウ,0
1181,5320001006744,登記記録の閉鎖等,0,2025-12-26,2025-12-22,株式会社アイ・ティ・エス,,株式会社,大分県,別府市,汐見町７番４３号,,44,202,8740918,,,2025-12-22,清算の結了等,,,2015-10-05,1,,,,,アイティエス,0
1196,5402705000329,登記記録の閉鎖等,0,2025-12-26,2025-12-19,特定非営利活動法人あんしん生活,,その他の設立登記法人,岩手県,陸前高田市,高田町字中宿１０番地１,,03,210,0292205,,,2025-12-19,清算の結了等,,,2015-10-05,1,,,,,アンシンセイカツ,0
1199,5420001008160,登記記録の閉鎖等,0,2025-12-26,2025-12-22,株式会社きもの処京禅,,株式会社,青森県,北津軽郡板柳町,大字福野田字実田１０８番地２,,02,381,0383661,,,2025-12-22,清算の結了等,,,2015-10-05,1,,,,,キモノドコロキョウゼン,0
1204,5430002045482,登記記録の閉鎖等,0,2025-12-26,2025-12-23,有限会社金子美装ボデー,,有限会社,北海道,江別市,大麻泉町５０番地の１１,,01,217,0690864,,,2025-12-23,清算の結了等,,,2015-10-05,1,,,,,カネコビソウボデー,0
1219,6010002038008,登記記録の閉鎖等,0,2025-12-26,2025-12-08,有限会社ファンズ・ファクトリー,,有限会社,東京都,江戸川区,松江７丁目３２番４号,,13,123,1320025,,,2025-12-08,清算の結了等,,,2015-10-05,1,,,,,ファンズファクトリー,0
1227,6010403030067,登記記録の閉鎖等,0,2025-12-26,2025-12-05,合同会社新大阪リーシング,,合同会社,東京都,港区,虎ノ門２丁目６番１号虎ノ門ヒルズステーションタワー,,13,103,1050001,,,2025-12-05,清算の結了等,,,2023-05-09,1,,,,,シンオオサカリーシング,0
1232,6010705000255,登記記録の閉鎖等,0,2025-12-26,2025-11-28,天理教荏原町分教会,,その他の設立登記法人,東京都,品川区,豊町４丁目１９番１６号,,13,109,1420042,,,2025-11-28,合併による解散等,4380005006265,令和７年１１月１０日福島県いわき市平字古鍜冶町１２番地の１天理教磐城平大教会（4380005006265）に合併し解散,2015-10-05,1,,,,,テンリキョウエバラマチブンキョウカイ,0
1233,6010801006131,登記記録の閉鎖等,0,2025-12-26,2025-12-17,株式会社清和科学,,株式会社,東京都,大田区,南雪谷５丁目１９番１２号,,13,111,1450066,,,2025-12-17,清算の結了等,,,2015-10-05,1,,,,,セイワカガク,0
1249,6011203002421,登記記録の閉鎖等,0,2025-12-26,2025-12-22,合同会社ＣＲＥＡＯ,,合同会社,東京都,中野区,中野３丁目３０番１５号ヴィラバンテ松島２０１,,13,114,1640001,,,2025-12-22,清算の結了等,,,2016-09-26,1,,,,,クレアオ,0
1255,6011502009324,登記記録の閉鎖等,0,2025-12-26,2025-12-11,有限会社セイワ・コンピューター,,有限会社,東京都,荒川区,西尾久４丁目７番６号,,13,118,1160011,,,2025-12-11,清算の結了等,,,2015-10-05,1,,,,,セイワコンピューター,0
1262,6012701002128,登記記録の閉鎖等,0,2025-12-26,2025-12-17,かんの工業株式会社,,株式会社,東京都,西東京市,田無町３丁目７番３１－８０１号,,13,229,1880011,,,2025-12-17,清算の結了等,,,2015-10-05,1,,,,,カンノコウギョウ,0
1270,6013401000033,登記記録の閉鎖等,0,2025-12-26,2025-12-25,朝日運輸株式会社,,株式会社,東京都,日野市,大字日野７７７３番地,,13,212,1910012,,,2025-12-25,清算の結了等,,,2015-10-05,1,,,,,アサヒウンユ,0
1289,6021002003363,登記記録の閉鎖等,0,2025-12-26,2025-12-04,有限会社辻堂紙器製作所,00012945,有限会社,神奈川県,藤沢市,辻堂新町２丁目１３番６号,,14,205,2510042,,,2025-12-04,清算の結了等,,,2015-10-05,1,,,,,ツジドウシッキセイサクジョシカク,0
1305,6030002038724,登記記録の閉鎖等,0,2025-12-26,2025-12-17,有限会社富樫商店,,有限会社,埼玉県,白岡市,新白岡３丁目１６番地５,,11,246,3490212,,,2025-12-17,清算の結了等,,,2015-10-05,1,,,,,トガシショウテン,0
1319,6050001016423,登記記録の閉鎖等,0,2025-12-26,2025-12-19,株式会社ニューズボックス,,株式会社,茨城県,つくば市,赤塚６１０番地５７,,08,220,3050062,,,2025-12-19,清算の結了等,,,2024-11-11,1,,,,,ニューズボックス,0
1324,6050003001984,登記記録の閉鎖等,0,2025-12-26,2025-12-17,合同会社あんどう居宅介護支援事業所,,合同会社,茨城県,龍ケ崎市,藤ケ丘５丁目１１番地３,,08,208,3010855,,,2025-12-17,清算の結了等,,,2015-10-05,1,,,,,アンドウキョタクカイゴシエンジギョウショ,0
1331,6070005005767,登記記録の閉鎖等,0,2025-12-26,2025-12-22,医療法人石川皮膚泌尿器科,,その他の設立登記法人,群馬県,太田市,東本町５３番６５号,,10,205,3730026,,,2025-12-22,清算の結了等,,,2015-10-05,1,,,,,イシカワヒフヒニョウキカ,0
1333,6080001012007,登記記録の閉鎖等,0,2025-12-26,2025-12-22,三陽工芸株式会社,,株式会社,静岡県,藤枝市,岡部町三輪４３６番地の１,,22,214,4211132,,,2025-12-22,清算の結了等,,,2015-10-05,1,,,,,サンヨウコウゲイ,0
1336,6080102006254,登記記録の閉鎖等,0,2025-12-26,2025-12-23,有限会社オン・ザ・スクエア,,有限会社,静岡県,沼津市,大諏訪３１１番地の３,,22,203,4100873,,,2025-12-23,清算の結了等,,,2015-10-05,1,,,,,オンザスクエア,0
1338,6080105006012,登記記録の閉鎖等,0,2025-12-26,2025-12-22,米久労働組合,,その他の設立登記法人,静岡県,沼津市,岡宮寺林１２５９番地,,22,203,4100011,,,2025-12-22,清算の結了等,,,2020-01-24,1,,,,,ヨネキュウ,0
1342,6110003001177,登記記録の閉鎖等,0,2025-12-26,2025-12-22,合資会社渡辺塗装店,,合資会社,新潟県,岩船郡関川村,大字上関５１１番地２,,15,581,9593264,,,2025-12-22,清算の結了等,,,2015-10-05,1,,,,,ワタナベトソウテン,0
1368,6130002026181,登記記録の閉鎖等,0,2025-12-26,2025-12-23,有限会社岡市鉄工建設,,有限会社,京都府,宇治市,木幡陣ノ内３８番地の１１,,26,204,6110002,,,2025-12-23,清算の結了等,,,2015-10-05,1,,,,,オカイチテッコウケンセツ,0
1371,6140001135619,登記記録の閉鎖等,0,2025-12-26,2025-12-01,Ｔａｒｏ．Ｅ．Ｓ株式会社,,株式会社,兵庫県,芦屋市,上宮川町１番５－７０４号,,28,206,6590061,,,2025-12-01,合併による解散等,7140001135618,令和７年１１月３０日兵庫県芦屋市上宮川町１番５－７０４号Ｋｏｈｅｉ．Ｅ．Ｓ株式会社（7140001135618）に合併し解散,2024-08-29,1,,,,,タロウイーエス,0
1375,6140003020918,登記記録の閉鎖等,0,2025-12-26,2025-12-22,Ｆｌｙ　ｔｏ　ｔｈｅ　ｆｕｔｕｒｅ合同会社,,合同会社,兵庫県,姫路市,岡田４２３番地,,28,201,6700982,,,2025-12-22,清算の結了等,,,2024-08-06,1,,,,,フライトゥーザフューチャー,0
1384,6180001051432,登記記録の閉鎖等,0,2025-12-26,2025-12-22,株式会社ティーマインド,,株式会社,愛知県,名古屋市中区,丸の内３丁目４番３０号クエスト丸の内ビル７Ｆ,,23,106,4600002,,,2025-12-22,清算の結了等,,,2015-10-05,1,,,,,,0
1390,6180001119881,登記記録の閉鎖等,0,2025-12-26,2025-12-24,株式会社やとみや,,株式会社,愛知県,名古屋市昭和区,東畑町２丁目３９番地の１アークブレイン４Ｂ,,23,107,4660014,,,2025-12-24,清算の結了等,,,2015-10-05,1,,,,,ヤトミヤ,0
1392,6180001140895,登記記録の閉鎖等,0,2025-12-26,2025-12-22,ＰＯＳＩＴＩＶＥ　ＣＨＡＮＧＥＳ株式会社,,株式会社,愛知県,名古屋市瑞穂区,白砂町３丁目２４－１,,23,108,4670056,,,2025-12-22,清算の結了等,,,2020-04-13,1,,,,,ポジティブチェンジズ,0
1397,6180002021814,登記記録の閉鎖等,0,2025-12-26,2025-12-23,有限会社ティアイオー,,有限会社,愛知県,名古屋市天白区,池場２丁目３２０２番地,,23,116,4680055,,,2025-12-23,清算の結了等,,,2015-10-05,1,,,,,ティアイオー,0
1401,6180305003658,登記記録の閉鎖等,0,2025-12-26,2025-11-25,海會寺,,その他の設立登記法人,愛知県,豊川市,御津町下佐脇御所３２の２番地,,23,207,4410302,,,2025-11-25,合併による解散等,8180305003771,令和７年１１月２５日愛知県豊川市御津町下佐脇北浦１７番地長松寺（8180305003771）に合併し解散,2015-10-05,1,,,,,カイエイジ,0
1402,6190001007581,登記記録の閉鎖等,0,2025-12-26,2025-12-23,株式会社エスアールプロ,,株式会社,三重県,度会郡玉城町,佐田６８８番地１,,24,461,5190414,,,2025-12-23,清算の結了等,,,2015-10-05,1,,,,,エスアールプロ,0
1405,6210001003099,登記記録の閉鎖等,0,2025-12-26,2025-12-24,福井山下繊維株式会社,,株式会社,福井県,福井市,春山１丁目８番５号,,18,201,9100019,,,2025-12-24,清算の結了等,,,2015-10-05,1,,,,,フクイヤマシタセンイ,0
1409,6220001025233,登記記録の閉鎖等,0,2025-12-26,2025-12-17,株式会社加賀製陶所,,株式会社,石川県,能美市,湯谷町チ５番地,,17,211,9231104,,,2025-12-17,清算の結了等,,,2023-01-25,1,,,,,,0
1413,6240005009354,登記記録の閉鎖等,0,2025-12-26,2025-12-04,八幡神社,,その他の設立登記法人,広島県,神石郡神石高原町,高蓋２７８６番地,,34,545,7201410,,,2025-12-04,合併による解散等,4240005009356,令和７年１２月４日広島県神石郡神石高原町高蓋５９２番地日吉神社（4240005009356）に合併し解散,2015-10-05,1,,,,,ハチマンジンジャ,0
1414,6250001008697,登記記録の閉鎖等,0,2025-12-26,2025-12-23,株式会社ウエダ洋装,,株式会社,山口県,周南市,銀南街５５番地,,35,215,7450031,,,2025-12-23,清算の結了等,,,2015-10-05,1,,,,,ウエダヨウソウ,0
1417,6290001083596,登記記録の閉鎖等,0,2025-12-26,2025-12-24,オール大川株式会社,,株式会社,福岡県,大川市,大字幡保２０１番地１,,40,212,8310033,,,2025-12-24,清算の結了等,,,2018-12-10,1,,,,,オールオオカワ,0
1424,6320201000133,登記記録の閉鎖等,0,2025-12-26,2025-12-22,株式会社サン企画,,株式会社,大分県,臼杵市,大字臼杵字洲崎７２番地の２０８,,44,206,8750041,,,2025-12-22,清算の結了等,,,2015-10-05,1,,,,,サンキカク,0
1427,6350001013745,登記記録の閉鎖等,0,2025-12-26,2025-12-22,株式会社ファンミール,,株式会社,鹿児島県,鹿児島市,春山町９７８番地１,,46,201,8992704,,,2025-12-22,清算の結了等,,,2015-11-25,1,,,,,ファンミール,0
1430,6350003001021,登記記録の閉鎖等,0,2025-12-26,2025-12-22,合名会社さわたり楽器店,,合名会社,宮崎県,延岡市,祇園町１丁目３番地９,,45,203,8820043,,,2025-12-22,清算の結了等,,,2015-10-05,1,,,,,サワタリガッキテン,0
1431,6360001019535,登記記録の閉鎖等,0,2025-12-26,2025-12-12,株式会社ナギ,,株式会社,沖縄県,国頭郡恩納村,字山田５０１番地の３,,47,311,9040416,,,2025-12-12,合併による解散等,3360002019966,令和７年１２月１２日沖縄県国頭郡恩納村字山田５０１番地の３株式会社ナギホールディングス（3360002019966）に合併し解散,2015-10-05,1,,,,,ナギ,0
1434,6360003009567,登記記録の閉鎖等,0,2025-12-26,2025-12-22,合同会社Ｑｕａｌｉｔｙ　Ｓｔａｆｆｉｎｇ,,合同会社,沖縄県,うるま市,石川東恩納１６７９番地４、３階,,47,213,9041111,,,2025-12-22,清算の結了等,,,2019-06-11,1,,,,,クオリティースタッフィング,0
1437,6370001040457,登記記録の閉鎖等,0,2025-12-26,2025-12-23,株式会社都市づくりｏｆｆｉｃｅ,,株式会社,宮城県,仙台市青葉区,柏木１丁目１番４５－６０５号,,04,101,9810933,,,2025-12-23,清算の結了等,,,2016-11-08,1,,,,,,0
1440,6370102002414,登記記録の閉鎖等,0,2025-12-26,2025-12-17,有限会社白石デザインセンター,,有限会社,宮城県,白石市,郡山字花見平６番地の１０,,04,206,9890203,,,2025-12-17,清算の結了等,,,2023-10-02,1,,,,,シロイシデザインセンター,0
1442,6380002005078,登記記録の閉鎖等,0,2025-12-26,2025-12-23,有限会社田中一心堂新聞店,,有限会社,福島県,伊達市,片町３６番地,,07,213,9600461,,,2025-12-23,清算の結了等,,,2015-10-05,1,,,,,タナカイッシンドウシンブンテン,0
1446,6400602000789,登記記録の閉鎖等,0,2025-12-26,2025-12-19,有限会社リード・エーワン,,有限会社,岩手県,奥州市,水沢真城字杉ノ下１１２番地,,03,215,0230841,,,2025-12-19,清算の結了等,,,2015-10-05,1,,,,,リードエーワン,0
1447,6410002013184,登記記録の閉鎖等,0,2025-12-26,2025-12-23,有限会社ビューティーアルファ,,有限会社,秋田県,横手市,平鹿町醍醐字本堂尻６番地１,,05,203,0130102,,,2025-12-23,清算の結了等,,,2015-10-05,1,,,,,ビューティーアルファ,0
1455,6430002048765,登記記録の閉鎖等,0,2025-12-26,2025-12-25,有限会社エス産業,,有限会社,北海道,千歳市,幸福３丁目９番６号,,01,224,0660082,,,2025-12-25,清算の結了等,,,2015-10-05,1,,,,,,0
1460,6440002008322,登記記録の閉鎖等,0,2025-12-26,2025-12-25,有限会社ＭＴ水島興業,,有限会社,北海道,函館市,栄町１４番１９号,,01,202,0400041,,,2025-12-25,清算の結了等,,,2015-10-05,1,,,,,エムティーミズシマコウギョウ,0
1461,6440005000838,登記記録の閉鎖等,0,2025-12-26,2025-12-23,宗教法人専稱寺,00090526,その他の設立登記法人,北海道,松前郡福島町,字吉岡１８３番地,,01,332,0491453,,,2025-12-23,清算の結了等,,,2015-10-05,1,,,,,センショウジ,0
1464,6480001000425,登記記録の閉鎖等,0,2025-12-26,2025-12-24,株式会社柏原工作所,,株式会社,徳島県,徳島市,八万町橋本２６番地の４,,36,201,7708078,,,2025-12-24,清算の結了等,,,2015-10-05,1,,,,,カシハラコウサクショ,0
1465,6480002000127,登記記録の閉鎖等,0,2025-12-26,2025-12-24,有限会社インテリア館,,有限会社,徳島県,徳島市,南田宮２丁目３番１１４号,,36,201,7700004,,,2025-12-24,清算の結了等,,,2015-10-05,1,,,,,インテリアカン,0
1468,6500003001195,登記記録の閉鎖等,0,2025-12-26,2025-12-25,合同会社まねき猫,,合同会社,愛媛県,松山市,食場町乙１０２番地１３３,,38,201,7910104,,,2025-12-25,清算の結了等,,,2015-10-05,1,,,,,マネキネコ,0
1471,7010001005932,登記記録の閉鎖等,0,2025-12-26,2025-12-09,日本テンサー株式会社,,株式会社,東京都,文京区,湯島３丁目３９番１０号,,13,105,1130034,,,2025-12-09,合併による解散等,6010001007624,令和７年１２月１日東京都文京区湯島三丁目３９番１０号前田工繊産資株式会社（6010001007624）に合併し解散,2015-10-05,1,,,,,ニッポンテンサー,0
1498,7010401128820,登記記録の閉鎖等,0,2025-12-26,2025-11-04,株式会社クロブチ,,株式会社,東京都,港区,浜松町２丁目２番１５号,,13,103,1050013,,,2025-11-04,合併による解散等,5010403020754,令和７年１１月１日東京都港区浜松町二丁目２番１５号合同会社千葉エステート（5010403020754）に合併し解散,2016-12-16,1,,,,,クロブチ,0
1509,7010702010396,登記記録の閉鎖等,0,2025-12-26,2025-12-22,有限会社ワールドダイニング,,有限会社,東京都,品川区,上大崎２丁目１３番２２号１Ｆ,,13,109,1410021,,,2025-12-22,清算の結了等,,,2015-10-05,1,,,,,,0
1510,7010801009389,登記記録の閉鎖等,0,2025-12-26,2025-12-17,株式会社日商企画,,株式会社,東京都,大田区,池上８丁目１８番４号,,13,111,1460082,,,2025-12-17,清算の結了等,,,2015-10-05,1,,,,,ニッショウキカク,0
1542,7011701000413,登記記録の閉鎖等,0,2025-12-26,2025-12-18,株式会社アルバ,,株式会社,東京都,江戸川区,西小岩１丁目２０番８号,,13,123,1330057,,,2025-12-18,清算の結了等,,,2015-10-05,1,,,,,アルバ,0
1546,7012701009411,登記記録の閉鎖等,0,2025-12-26,2025-12-18,株式会社Ｎｕｒｓｉｎｇ,,株式会社,東京都,西東京市,南町６丁目１１番１１号,,13,229,1880012,,,2025-12-18,清算の結了等,,,2015-10-05,1,,,,,ナーシング,0
1559,7030001145264,登記記録の閉鎖等,0,2025-12-26,2025-12-03,株式会社ＣＣＣ,,株式会社,東京都,渋谷区,道玄坂１丁目１０番８号渋谷道玄坂東急ビル２Ｆ－Ｃ,,13,113,1500043,,,2025-12-03,清算の結了等,,,2021-11-09,1,,,,,シーシーシー,0
1563,7030002107049,登記記録の閉鎖等,0,2025-12-26,2025-12-19,有限会社益子鉄工所,,有限会社,埼玉県,川口市,本蓮１丁目８番１２号,00017804,11,203,3340076,,,2025-12-19,清算の結了等,,,2015-10-05,1,,,,,マシコテッコウジョ,0
1566,7040001032767,登記記録の閉鎖等,0,2025-12-26,2025-12-08,株式会社清輝,,株式会社,千葉県,市川市,曽谷３丁目１８番２１号,,12,203,2720832,,,2025-12-08,清算の結了等,,,2015-10-05,1,,,,,キヨテル,0
1567,7040001093883,登記記録の閉鎖等,0,2025-12-26,2025-12-25,株式会社フリーダム,,株式会社,広島県,広島市中区,八丁堀５番２２号,,34,101,7300013,,,2025-12-25,清算の結了等,,,2016-01-28,1,,,,,フリーダム,0
1569,7040002022156,登記記録の閉鎖等,0,2025-12-26,2025-12-08,有限会社駒水商事さつまや,,有限会社,千葉県,船橋市,大穴南２丁目３５番５号,,12,204,2740067,,,2025-12-08,清算の結了等,,,2015-10-05,1,,,,,,0
1574,7050001010103,登記記録の閉鎖等,0,2025-12-26,2025-12-22,株式会社ＨＦ,,株式会社,茨城県,土浦市,沢辺字下原５７番地２９,,08,203,3004104,,,2025-12-22,清算の結了等,,,2015-10-05,1,,,,,ヒロフーズ,0
1576,7070001002998,登記記録の閉鎖等,0,2025-12-26,2025-12-22,前橋ボイラー工業株式会社,,株式会社,群馬県,前橋市,龍蔵寺町２７３番地６,,10,201,3710057,,,2025-12-22,清算の結了等,,,2015-10-05,1,,,,,マエバシボイラーコウギョウ,0
1577,7070001023045,登記記録の閉鎖等,0,2025-12-26,2025-12-22,株式会社羽鳥設備,,株式会社,群馬県,沼田市,善桂寺町１８７番地１,,10,206,3780064,,,2025-12-22,清算の結了等,,,2015-10-05,1,,,,,ハトリセツビ,0
1580,7080102012078,登記記録の閉鎖等,0,2025-12-26,2025-12-23,有限会社ワールドリビング,,有限会社,静岡県,三島市,東本町２丁目４番３５号,,22,206,4110831,,,2025-12-23,清算の結了等,,,2015-10-05,1,,,,,ワールドリビング,0
1581,7090005005665,登記記録の閉鎖等,0,2025-12-26,2025-11-27,医療法人財団交道会しもべ病院,,その他の設立登記法人,山梨県,南巨摩郡身延町,下部１０６３番地,,19,365,4092942,,,2025-11-27,合併による解散等,1090005002577,令和７年１１月２７日山梨県笛吹市一宮町坪井１７４５番地医療法人桃花会（1090005002577）に合併し解散,2015-10-05,1,,,,,コウドウカイシモベビョウイン,0
1587,7120001033261,登記記録の閉鎖等,0,2025-12-26,2025-12-24,富永電気工業株式会社,,株式会社,大阪府,寝屋川市,木田元宮１丁目８番１号,,27,215,5720822,,,2025-12-24,清算の結了等,,,2015-10-05,1,,,,,トミナガデンキコウギョウ,0
1595,7120001261060,登記記録の閉鎖等,0,2025-12-26,2025-12-12,森金株式会社,,株式会社,福岡県,福岡市東区,御島崎２丁目２１－１８エメラルドマンション香椎Ａ棟５０４号,,40,131,8130005,,,2025-12-12,清算の結了等,,,2024-01-15,1,,,,,モリカネ,0
1599,7120002016158,登記記録の閉鎖等,0,2025-12-26,2025-12-25,有限会社上田工業,,有限会社,大阪府,大阪市住之江区,南港東１丁目６番３－１２０２号,,27,125,5590031,,,2025-12-25,清算の結了等,,,2015-10-05,1,,,,,ウエダコウギョウ,0
1610,7120901021092,登記記録の閉鎖等,0,2025-12-26,2025-12-25,株式会社理喜,,株式会社,大阪府,箕面市,船場東２丁目３番５０号,,27,220,5620035,,,2025-12-25,清算の結了等,,,2015-10-05,1,,,,,,0
1612,7120901028518,登記記録の閉鎖等,0,2025-12-26,2025-12-25,株式会社アイ・ケア,,株式会社,大阪府,豊中市,三国１丁目８番２３－３０１号,,27,203,5610822,,,2025-12-25,清算の結了等,,,2015-10-05,1,,,,,,0
1617,7130001045743,登記記録の閉鎖等,0,2025-12-26,2025-12-24,株式会社シンユーコンサルティング,,株式会社,大阪府,大阪市中央区,内久宝寺町４丁目１－７－４０２,,27,128,5400013,,,2025-12-24,清算の結了等,,,2015-10-05,1,,,,,シンユーコンサルティング,0
1630,7140002069294,登記記録の閉鎖等,0,2025-12-26,2025-12-22,有限会社たかた,,有限会社,兵庫県,淡路市,志筑３２６６番地の１,,28,226,6562131,,,2025-12-22,清算の結了等,,,2015-10-05,1,,,,,タカタ,0
1632,7140003015470,登記記録の閉鎖等,0,2025-12-26,2025-12-23,合同会社いやさか,,合同会社,兵庫県,西宮市,中浜町２番２５－５０３号,,28,204,6620952,,,2025-12-23,清算の結了等,,,2020-10-08,1,,,,,イヤサカ,0
1645,7180003025202,登記記録の閉鎖等,0,2025-12-26,2025-12-24,合同会社ＰＲＯ　ＳＴＡＦＦ,,合同会社,愛知県,小牧市,大字南外山２３１番地Ｒｅｓｔｉａ１０２,,23,219,4850024,,,2025-12-24,清算の結了等,,,2023-05-11,1,,,,,プロスタッフ,0
1647,7180301034136,登記記録の閉鎖等,0,2025-12-26,2025-12-19,株式会社ａｋａｎｅｄ,,株式会社,愛知県,豊川市,本野町北貝津４６番地の１,,23,207,4420062,,,2025-12-19,清算の結了等,,,2020-09-29,1,,,,,アカネド,0
1662,7230003001445,登記記録の閉鎖等,0,2025-12-26,2025-12-24,ＥＸＰ合同会社,,合同会社,富山県,富山市,黒崎６６,,16,201,9398214,,,2025-12-24,清算の結了等,,,2020-03-05,1,,,,,イーエックスピー,0
1665,7230005000759,登記記録の閉鎖等,0,2025-12-26,2025-12-22,富山港北洋材荷受協同組合,,その他の設立登記法人,富山県,富山市,上冨居１１８番地２７,,16,201,9300835,,,2025-12-22,清算の結了等,,,2015-10-05,1,,,,,トヤマコウホクヨウザイニウケ,0
1666,7260002022670,登記記録の閉鎖等,0,2025-12-26,2025-12-24,有限会社栄協開発,,有限会社,岡山県,倉敷市,玉島道口３８８０番地１,,33,202,7138115,,,2025-12-24,清算の結了等,,,2015-10-05,1,,,,,エイキョウカイハツ,0
1680,7290802012934,登記記録の閉鎖等,0,2025-12-26,2025-12-12,有限会社フジタ事務機,,有限会社,福岡県,北九州市小倉北区,田町８番９号,,40,106,8030817,,,2025-12-12,清算の結了等,,,2015-10-05,1,,,,,,0
1711,7450001009856,登記記録の閉鎖等,0,2025-12-26,2025-12-24,株式会社ＨＪＡ,,株式会社,北海道,旭川市,末広東二条３丁目４番７号,,01,204,0718122,,,2025-12-24,清算の結了等,,,2015-10-05,1,,,,,エイチジェーエー,0
1716,7500001013852,登記記録の閉鎖等,0,2025-12-26,2025-12-25,株式会社喜ｄｅ,,株式会社,愛媛県,松山市,三番町２丁目６番地１８参番館ビル１Ｆ,,38,201,7900003,,,2025-12-25,清算の結了等,,,2015-10-05,1,,,,,ヨロコンデ,0
1730,8010005035322,登記記録の閉鎖等,0,2025-12-26,2025-12-24,Ｔｈｏｒ特定目的会社,,その他の設立登記法人,東京都,千代田区,丸の内２丁目２番３号丸の内仲通りビル６階,,13,101,1000005,,,2025-12-24,清算の結了等,,,2022-07-25,1,,,,,ソアー,0
1733,8010402010753,登記記録の閉鎖等,0,2025-12-26,2025-12-05,有限会社百姓家,,有限会社,東京都,港区,新橋２丁目１０番１号,,13,103,1050004,,,2025-12-05,清算の結了等,,,2015-10-05,1,,,,,ヒャクショウヤ,0
1755,8011001161062,登記記録の閉鎖等,0,2025-12-26,2025-12-19,株式会社ＭｉＫｅホールディングス,,株式会社,東京都,渋谷区,渋谷２丁目１９－１５宮益坂ビルディング６０９,,13,113,1500002,,,2025-12-19,清算の結了等,,,2024-04-04,1,,,,,ミケホールディングス,0
1767,8011103006883,登記記録の閉鎖等,0,2025-12-26,2025-12-18,合同会社武蔵野環境都市開発,,合同会社,東京都,新宿区,新宿５丁目１８番２０号ルックハイツ新宿８０３号,,13,104,1600022,,,2025-12-18,合併による解散等,6010003024139,令和７年１２月１日東京都中央区銀座七丁目１３番６号サガミビル２階合同会社大和都市開発ＡＡ（6010003024139）に合併し解散,2017-03-09,1,,,,,ムサシノカンキョウトシカイハツ,0
1780,8012401039559,登記記録の閉鎖等,0,2025-12-26,2025-12-24,株式会社遠藤,,株式会社,東京都,調布市,富士見町１丁目６番地２,,13,208,1820033,,,2025-12-24,清算の結了等,,,2022-08-22,1,,,,,エンドウ,0
1782,8012403003653,登記記録の閉鎖等,0,2025-12-26,2025-12-24,環境技研合同会社,,合同会社,東京都,調布市,柴崎２丁目１４番地２７,,13,208,1820014,,,2025-12-24,清算の結了等,,,2018-11-07,1,,,,,カンキョウギケン,0
1795,8021002059981,登記記録の閉鎖等,0,2025-12-26,2025-12-05,有限会社保田商店,,有限会社,神奈川県,平塚市,見附町４０番１７号,,14,203,2540045,,,2025-12-05,清算の結了等,,,2015-10-05,1,,,,,ヤスダショウテン,0
1813,8040002005093,登記記録の閉鎖等,0,2025-12-26,2025-12-08,有限会社三和クリーニング,,有限会社,千葉県,千葉市若葉区,千城台東２丁目２４番１０号,,12,104,2640002,,,2025-12-08,清算の結了等,,,2015-10-05,1,,,,,サンワクリーニング,0
1819,8060001003071,登記記録の閉鎖等,0,2025-12-26,2025-12-24,株式会社東海,,株式会社,栃木県,宇都宮市,大寛２丁目１番２４号,,09,201,3200867,,,2025-12-24,清算の結了等,,,2015-10-05,1,,,,,トウカイ,0
1829,8070002037811,登記記録の閉鎖等,0,2025-12-26,2025-12-22,山口林業有限会社,,有限会社,群馬県,利根郡みなかみ町,藤原３７６５番地,,10,449,3791721,,,2025-12-22,清算の結了等,,,2025-06-17,1,,,,,ヤマグチリンギョウ,0
1836,8100001018321,登記記録の閉鎖等,0,2025-12-26,2025-12-24,株式会社サトー,,株式会社,長野県,諏訪郡下諏訪町,５７３６番地,,20,361,3930000,,,2025-12-24,清算の結了等,,,2015-10-05,1,,,,,サトー,0
1839,8110002019193,登記記録の閉鎖等,0,2025-12-26,2025-12-22,とやの清算株式会社,,株式会社,新潟県,新潟市中央区,上所１丁目１番２４号Ｎビル４階とやの総合法律事務所内,,15,103,9500994,,,2025-12-22,清算の結了等,,,2015-10-05,1,,,,,トヤノセイサン,0
1840,8110002025183,登記記録の閉鎖等,0,2025-12-26,2025-12-22,有限会社シロキヤ,,有限会社,新潟県,妙高市,大字関山３０２８番地１,,15,217,9492235,,,2025-12-22,清算の結了等,,,2015-10-05,1,,,,,シロキヤ,0
1855,8120101048167,登記記録の閉鎖等,0,2025-12-26,2025-12-24,株式会社ＢＣＧＡ　Ｊａｐａｎ,,株式会社,大阪府,堺市中区,東八田２６３番地５,,27,142,5998275,,,2025-12-24,清算の結了等,,,2015-10-05,1,,,,,ビーシージーエイジャパン,0
1858,8120901005391,登記記録の閉鎖等,0,2025-12-26,2025-12-22,いわた寝具株式会社,,株式会社,大阪府,吹田市,豊津町５６番１６号,,27,205,5640051,,,2025-12-22,清算の結了等,,,2015-10-05,1,,,,,イワタシング,0
1862,8130003008094,登記記録の閉鎖等,0,2025-12-26,2025-12-22,合同会社すごす,,合同会社,京都府,京都市南区,東九条東岩本町１８,,26,107,6018006,,,2025-12-22,清算の結了等,,,2022-08-02,1,,,,,スゴス,0
1864,8130005000669,登記記録の閉鎖等,0,2025-12-26,2025-12-19,天理教開京分教会,,その他の設立登記法人,京都府,京都市右京区,鳴滝松本町８番地９,,26,108,6168256,,,2025-12-19,合併による解散等,5120005000417,令和７年１２月１８日大阪市東住吉区照ケ丘矢田二丁目１９番１６号天理教阪南分教会（5120005000417）に合併し解散,2015-10-05,1,,,,,テンリキョウカイキョウブンキョウカイ,0
1866,8140001004937,登記記録の閉鎖等,0,2025-12-26,2025-12-22,西神衛生興業株式会社,,株式会社,兵庫県,神戸市西区,平野町堅田９２４番地,,28,111,6512261,,,2025-12-22,清算の結了等,,,2015-10-05,1,,,,,セイシンエイセイコウギョウ,0
1872,8160001019248,登記記録の閉鎖等,0,2025-12-26,2025-12-25,株式会社アージュ,,株式会社,滋賀県,大津市,仰木の里１丁目１５番７号,,25,201,5200246,,,2025-12-25,清算の結了等,,,2016-01-15,1,,,,,アージュ,0
1893,8180002066551,登記記録の閉鎖等,0,2025-12-26,2025-12-22,有限会社タカハシプラント,,有限会社,愛知県,春日井市,東野町５丁目２８番地８,,23,206,4860817,,,2025-12-22,清算の結了等,,,2015-10-05,1,,,,,,0
1894,8180003026298,登記記録の閉鎖等,0,2025-12-26,2025-12-19,合同会社ＰＩＸＹ　Ｗｉｚ,,合同会社,愛知県,名古屋市中村区,名駅４丁目２４番５号第２森ビル４０１,,23,105,4500002,,,2025-12-19,清算の結了等,,,2024-02-02,1,,,,,ピクシーウィズ,0
1897,8180005002990,登記記録の閉鎖等,0,2025-12-26,2025-12-24,全国金属機械労働組合愛知地方本部木村刃物支部,,その他の設立登記法人,愛知県,名古屋市瑞穂区,塩入町１６番１８号,,23,108,4670851,,,2025-12-24,清算の結了等,,,2015-10-05,1,,,,,ゼンコクキンゾクキカイアイチチホウホンブキムラハモノシブ,0
1902,8190001023866,登記記録の閉鎖等,0,2025-12-26,2025-12-19,パワーホーム三重株式会社,,株式会社,三重県,津市,修成町１８番２８号,,24,201,5140837,,,2025-12-19,合併による解散等,7190001000065,令和７年１２月１９日三重県津市修成町１８番２８号株式会社アルフレッシュ（7190001000065）に合併し解散,2016-07-27,1,,,,,パワーホームミエ,0
1913,8290001043235,登記記録の閉鎖等,0,2025-12-26,2025-12-12,株式会社アルカ,,株式会社,福岡県,大野城市,白木原１丁目１２番３４号,,40,219,8160943,,,2025-12-12,清算の結了等,,,2015-10-05,1,,,,,アルカ,0
1931,8350002013073,登記記録の閉鎖等,0,2025-12-26,2025-12-22,有限会社イナモファーマシー,,有限会社,宮崎県,延岡市,北浦町古江２３３８番地２,,45,203,8890301,,,2025-12-22,清算の結了等,,,2015-10-05,1,,,,,イナモファーマシー,0
1932,8350003003916,登記記録の閉鎖等,0,2025-12-26,2025-12-24,合同会社Ｓ＆Ｎコーポレーション,,合同会社,宮崎県,宮崎市,永楽町１８４番地２西下コーポ２０３号室,,45,201,8800872,,,2025-12-24,清算の結了等,,,2021-09-02,1,,,,,エスアンドエヌコーポレーション,0
1939,8380005010338,登記記録の閉鎖等,0,2025-12-26,2025-12-19,一般社団法人森林調査の会,,その他の設立登記法人,福島県,東白川郡棚倉町,大字棚倉字中居野６５番地,,07,481,9636131,,,2025-12-19,清算の結了等,,,2015-10-05,1,,,,,シンリンチョウサノカイ,0
1941,8390003002047,登記記録の閉鎖等,0,2025-12-26,2025-12-25,合同会社Ｋｏｕｋａｎｄｏ,,合同会社,山形県,山形市,荒楯町２丁目６番５号,,06,201,9902432,,,2025-12-25,清算の結了等,,,2023-02-02,1,,,,,コウカンドウ,0
1943,8400001007384,登記記録の閉鎖等,0,2025-12-26,2025-12-22,株式会社ちばや商会,,株式会社,岩手県,釜石市,大町１丁目８番７号,,03,211,0260024,,,2025-12-22,清算の結了等,,,2015-10-05,1,,,,,チバヤショウカイ,0
1946,8400501000814,登記記録の閉鎖等,0,2025-12-26,2025-12-19,株式会社千葉米穀店,,株式会社,岩手県,一関市,川崎町薄衣字諏訪前１０２番地１,,03,209,0290202,,,2025-12-19,清算の結了等,,,2015-10-05,1,,,,,チバベイコクテン,0
1950,8440001002118,登記記録の閉鎖等,0,2025-12-26,2025-12-25,株式会社北海農産,,株式会社,北海道,函館市,石川町４６１番地２５,,01,202,0410802,,,2025-12-25,清算の結了等,,,2015-10-05,1,,,,,ホッカイノウサン,0
1953,8440002006027,登記記録の閉鎖等,0,2025-12-26,2025-12-23,有限会社リプロ建工,,有限会社,北海道,函館市,高丘町４２番１３号,,01,202,0420955,,,2025-12-23,清算の結了等,,,2015-10-05,1,,,,,リプロケンコウ,0
1955,8450005003516,登記記録の閉鎖等,0,2025-12-26,2025-12-23,雄武町大通り商店街協同組合,,その他の設立登記法人,北海道,紋別郡雄武町,字雄武１８８５番地１４,,01,563,0981702,,,2025-12-23,清算の結了等,,,2015-10-05,1,,,,,オウムチョウオオドオリショウテンガイ,0
1956,8470001004978,登記記録の閉鎖等,0,2025-12-26,2025-12-23,アースハウジング株式会社,,株式会社,香川県,高松市,伏石町２１４０番地１,,37,201,7618071,,,2025-12-23,清算の結了等,,,2015-10-05,1,,,,,アースハウジング,0
1959,8500001015534,登記記録の閉鎖等,0,2025-12-26,2025-12-03,三好造船株式会社,,株式会社,愛媛県,宇和島市,弁天町２丁目１番１３号,,38,203,7980006,,,2025-12-03,合併による解散等,1500001008296,令和７年１２月１日愛媛県八幡浜市栗野浦３６５番地株式会社栗之浦ドック（1500001008296）に合併し解散,2015-10-05,1,,,,,ミヨシゾウセン,0
1962,9010001162920,登記記録の閉鎖等,0,2025-12-26,2025-12-11,株式会社月島エンタテインメント,,株式会社,東京都,中央区,月島３丁目６番７号,,13,102,1040052,,,2025-12-11,清算の結了等,,,2015-10-05,1,,,,,ツキシマエンタテインメント,0
1972,9010003024714,登記記録の閉鎖等,0,2025-12-26,2025-12-02,合同会社ＫＨリアルエステート,,合同会社,東京都,中央区,銀座１丁目１５番７号МＡＣ銀座ビル３階,,13,102,1040061,,,2025-12-02,合併による解散等,8011103006883,令和７年１１月１日東京都新宿区新宿五丁目１８番２０号ルックハイツ新宿８０３号合同会社武蔵野環境都市開発（8011103006883）に合併し解散,2017-01-20,1,,,,,ケイエイチリアルエステート,0
1979,9010401160020,登記記録の閉鎖等,0,2025-12-26,2025-12-05,株式会社ＢＹＡＲＤ,,株式会社,東京都,港区,六本木３丁目２－１住友不動産六本木グランドタワー,,13,103,1060032,,,2025-12-05,清算の結了等,,,2021-05-14,1,,,,,バイアード,0
2010,9011303003052,登記記録の閉鎖等,0,2025-12-26,2025-12-22,合同会社アオパカ,,合同会社,東京都,杉並区,高円寺南１丁目２４番１９－２０２号,,13,115,1660003,,,2025-12-22,清算の結了等,,,2018-06-22,1,,,,,アオパカ,0
2011,9011501020213,登記記録の閉鎖等,0,2025-12-26,2025-12-23,株式会社Ｂｅａｔｗａｌｋ,,株式会社,東京都,荒川区,西尾久１丁目９番地１４,,13,118,1160011,,,2025-12-23,清算の結了等,,,2015-10-05,1,,,,,ビートウォーク,0
2022,9013301038063,登記記録の閉鎖等,0,2025-12-26,2025-12-12,エスワン・トレイディング株式会社,,株式会社,東京都,豊島区,雑司が谷３丁目７番１５号,,13,116,1710032,,,2025-12-12,清算の結了等,,,2015-12-09,1,,,,,,0
2041,9030003007873,登記記録の閉鎖等,0,2025-12-26,2025-12-19,合同会社マミ保育園,,合同会社,埼玉県,川口市,上青木３丁目２０番４号,,11,203,3330844,,,2025-12-19,清算の結了等,,,2015-10-05,1,,,,,マミホイクエン,0
2046,9040002023466,登記記録の閉鎖等,0,2025-12-26,2025-12-05,有限会社武田製作所,,有限会社,千葉県,船橋市,習志野４丁目１４番６号,,12,204,2740071,,,2025-12-05,清算の結了等,,,2015-10-05,1,,,,,,0
2047,9050001010002,登記記録の閉鎖等,0,2025-12-26,2025-12-23,日興商事株式会社,,株式会社,茨城県,稲敷郡阿見町,大字青宿５９１番地,,08,443,3000301,,,2025-12-23,合併による解散等,9011001016224,令和７年１２月１日東京都渋谷区渋谷一丁目９番８号東京高圧山崎株式会社（9011001016224）に合併し解散,2015-10-05,1,,,,,ニッコウショウジ,0
2053,9050002031856,登記記録の閉鎖等,0,2025-12-26,2025-12-22,有限会社ネクスト,,有限会社,茨城県,日立市,久慈町５丁目４５番２２号,,08,202,3191222,,,2025-12-22,清算の結了等,,,2015-10-05,1,,,,,ネクスト,0
2080,9110002021108,登記記録の閉鎖等,0,2025-12-26,2025-12-19,有限会社柳製缶所,,有限会社,新潟県,柏崎市,幸町７番１９号,,15,205,9450821,,,2025-12-19,清算の結了等,,,2015-10-05,1,,,,,ヤナギセイカンショ,0
2081,9120001051328,登記記録の閉鎖等,0,2025-12-26,2025-12-24,株式会社エルマック,,株式会社,大阪府,大阪市東淀川区,東中島１丁目２０番１２号,,27,114,5330033,,,2025-12-24,清算の結了等,,,2015-10-05,1,,,,,エルマック,0
2083,9120001091357,登記記録の閉鎖等,0,2025-12-26,2025-12-24,山田マンション株式会社,,株式会社,大阪府,大阪市中央区,十二軒町７番１１号,,27,128,5400015,,,2025-12-24,清算の結了等,,,2015-10-05,1,,,,,ヤマダマンション,0
2086,9120001262073,登記記録の閉鎖等,0,2025-12-26,2025-12-22,ＴＨＥ　ＢＵＴＴＥＲ＆ＳＣＯＮＥ株式会社,,株式会社,大阪府,大阪市福島区,吉野２丁目１３番１０号,,27,103,5530006,,,2025-12-22,清算の結了等,,,2024-02-13,1,,,,,ザバターアンドスコーン,0
2092,9120002030727,登記記録の閉鎖等,0,2025-12-26,2025-12-22,有限会社産業情報新聞社,,有限会社,兵庫県,尼崎市,北竹谷町１丁目１８－３,,28,202,6600878,,,2025-12-22,清算の結了等,,,2015-10-05,1,,,,,サンギョウジョウホウシンブンシャ,0
2093,9120002032681,登記記録の閉鎖等,0,2025-12-26,2025-12-23,有限会社イルピス,,有限会社,大阪府,大阪市北区,西天満６丁目４番８号,,27,127,5300047,,,2025-12-23,清算の結了等,,,2015-10-05,1,,,,,イルピス,0
2097,9122001021888,登記記録の閉鎖等,0,2025-12-26,2025-12-15,株式会社ファイン,,株式会社,大阪府,八尾市,青山町４丁目５番２２号,,27,212,5810018,,,2025-12-15,清算の結了等,,,2015-10-05,1,,,,,ファイン,0
2102,9140001036062,登記記録の閉鎖等,0,2025-12-26,2025-12-24,森田造園土木株式会社,,株式会社,兵庫県,三木市,宿原４３３番地の３,,28,215,6730423,,,2025-12-24,清算の結了等,,,2015-10-05,1,,,,,モリタゾウエンドボク,0
2107,9140001089770,登記記録の閉鎖等,0,2025-12-26,2025-12-23,株式会社アトリエ４ｔｋ,,株式会社,兵庫県,宝塚市,南口１丁目６番２８号,,28,214,6650011,,,2025-12-23,清算の結了等,,,2015-10-05,1,,,,,アトリエフォーティケイ,0
2109,9140001129675,登記記録の閉鎖等,0,2025-12-26,2025-12-22,株式会社ＪＯ,,株式会社,兵庫県,尼崎市,東難波町５丁目１２番４号アリビオ１０５,,28,202,6600892,,,2025-12-22,清算の結了等,,,2023-04-10,1,,,,,ジェイオー,0
2112,9140002018200,登記記録の閉鎖等,0,2025-12-26,2025-12-23,有限会社丸寛興業,,有限会社,兵庫県,神戸市垂水区,千代が丘２丁目３番１２号,,28,108,6550018,,,2025-12-23,清算の結了等,,,2015-10-05,1,,,,,マルカンコウギョウ,0
2117,9150002001592,登記記録の閉鎖等,0,2025-12-26,2025-12-25,有限会社福田麿寿美建築設計室,,有限会社,奈良県,奈良市,法華寺町１２０番１,,29,201,6308001,,,2025-12-25,清算の結了等,,,2015-10-05,1,,,,,フクダマスミケンチクセッケイシツ,0
2129,9180002034862,登記記録の閉鎖等,0,2025-12-26,2025-12-23,有限会社ナイス,,有限会社,愛知県,名古屋市西区,城西３丁目２１番１７号,,23,104,4510031,,,2025-12-23,清算の結了等,,,2015-10-05,1,,,,,ナイス,0
2140,9200002003261,登記記録の閉鎖等,0,2025-12-26,2025-12-22,有限会社戸川新聞店,,有限会社,岐阜県,岐阜市,黒野１３番地１,,21,201,5011131,,,2025-12-22,清算の結了等,,,2015-10-05,1,,,,,トガワシンブンテン,0
2149,9240003004032,登記記録の閉鎖等,0,2025-12-26,2025-12-15,合同会社ベストアローズ,,合同会社,広島県,広島市安芸区,畑賀町４０３８番地１６,,34,107,7360089,,,2025-12-15,清算の結了等,,,2018-10-16,1,,,,,ベストアローズ,0
2153,9260002002489,登記記録の閉鎖等,0,2025-12-26,2025-12-23,有限会社カガワ,,有限会社,岡山県,岡山市北区,庭瀬７４４番地の３,,33,101,7010153,,,2025-12-23,清算の結了等,,,2015-10-05,1,,,,,カガワ,0
2169,9350001018782,登記記録の閉鎖等,0,2025-12-26,2025-12-22,株式会社オアシス不動産,,株式会社,宮崎県,宮崎市,浮城町１番地２,,45,201,8800821,,,2025-12-22,清算の結了等,,,2024-02-08,1,,,,,オアシスフドウサン,0
2172,9370005001254,登記記録の閉鎖等,0,2025-12-26,2025-12-22,医療法人社団杉山内科消化器科医院,,その他の設立登記法人,宮城県,仙台市若林区,中倉２丁目１番２０号,,04,103,9840821,,,2025-12-22,清算の結了等,,,2015-10-05,1,,,,,スギヤマナイカショウカキカイイン,0
2175,9390002012459,登記記録の閉鎖等,0,2025-12-26,2025-12-25,有限会社中野電気工事,,有限会社,山形県,東根市,神町中央２丁目９番２７号,,06,211,9993763,,,2025-12-25,清算の結了等,,,2015-10-05,1,,,,,,0
2178,9400502001331,登記記録の閉鎖等,0,2025-12-26,2025-11-21,有限会社ラスカル,,有限会社,岩手県,一関市,千厩町千厩字中木六３０番地,00085877,03,209,0290803,,,2025-11-21,合併による解散等,6400501000527,令和７年１１月２１日岩手県一関市千厩町千厩字中木六３０番地株式会社千厩自動車学校（6400501000527）に合併し、解散,2015-10-05,1,,,,,ラスカル,0
2189,9460102006626,登記記録の閉鎖等,0,2025-12-26,2025-12-19,中村水産有限会社,,有限会社,北海道,中川郡豊頃町,大津港町２１番地２,,01,645,0895464,,,2025-12-19,清算の結了等,,,2015-10-05,1,,,,,ナカムラスイサン,0
2192,9490002002499,登記記録の閉鎖等,0,2025-12-26,2025-12-24,有限会社昭和塗装,,有限会社,高知県,高知市,針木本町６番１４号,,39,201,7808088,,,2025-12-24,清算の結了等,,,2015-10-05,1,,,,,,0
2193,9500001019047,登記記録の閉鎖等,0,2025-12-26,2025-12-01,株式会社西四国鉄工所,,株式会社,愛媛県,東温市,則之内乙２３０９番地４,,38,215,7910312,,,2025-12-01,合併による解散等,6500001007392,令和７年１２月１日愛媛県東温市則之内字段乙２３０９番地株式会社フジコソ（6500001007392）に合併し解散,2015-10-05,1,,,,,ニシシコクテッコウショ,0
