sequenceNumber,corporateNumber,process,correct,updateDate,changeDate,name,nameImageId,kind,prefectureName,cityName,streetNumber,addressImageId,prefectureCode,cityCode,postCode,addressOutside,addressOutsideImageId,closeDate,closeCause,successorCorporateNumber,changeCause,assignmentDate,latest,enName,enPrefectureName,enCityName,enAddressOutside,furigana,hihyoji
7,1010001251202,新規,0,2025-01-27,2025-01-27,恒冠投資株式会社,,株式会社,東京都,中央区,日本橋馬喰町２丁目５番２号２階２０２号,,13,102,1030002,,,,,,,2025-01-27,1,,,,,コウカントウシ,0
8,1010001251689,新規,0,2025-01-27,2025-01-27,ＪＩＡＲＥ第５号株式会社,,株式会社,東京都,千代田区,霞が関３丁目２番１号,,13,101,1000013,,,,,,,2025-01-27,1,,,,,ジェイアイエーアールイーダイゴゴウ,0
9,1010003046113,新規,0,2025-01-27,2025-01-27,睦凜合同会社,,合同会社,東京都,千代田区,二番町７番地１ミレニアムガーデンコート１００４号,,13,101,1020084,,,,,,,2025-01-27,1,,,,,ムツリン,0
10,1010003046146,新規,0,2025-01-27,2025-01-27,青葉元石川開発合同会社,,合同会社,東京都,中央区,明石町１－２９,,13,102,1040044,,,,,,,2025-01-27,1,,,,,アオバモトイシカワ,0
11,1010003046170,新規,0,2025-01-27,2025-01-27,合同会社ＮＮ,,合同会社,東京都,中央区,晴海３丁目１３番地１ドゥトゥールイーストタワー４９１０号室,,13,102,1040053,,,,,,,2025-01-27,1,,,,,エヌエヌ,0
12,1010003046179,新規,0,2025-01-27,2025-01-27,熱海２合同会社,,合同会社,東京都,中央区,日本橋３丁目９番１号日本橋三丁目スクエア１１階,,13,102,1030027,,,,,,,2025-01-27,1,,,,,アタミツー,0
16,1010401187847,新規,0,2025-01-27,2025-01-27,株式会社允と鳥,,株式会社,東京都,港区,麻布十番１丁目５番１０号,,13,103,1060045,,,,,,,2025-01-27,1,,,,,イントチョウ,0
20,1010405024030,新規,0,2025-01-27,2025-01-27,Ｎｏｚｏｍｉ一般社団法人,,その他の設立登記法人,東京都,港区,六本木１丁目９番１０号アークヒルズ仙石山森タワー４０階,,13,103,1060032,,,,,,,2025-01-27,1,,,,,ノゾミ,0
23,1010501053511,新規,0,2025-01-27,2025-01-27,株式会社ガラ,,株式会社,東京都,台東区,台東４丁目２６番１号東和ビル２Ｆ,,13,106,1100016,,,,,,,2025-01-27,1,,,,,ガラ,0
28,1010701047156,新規,0,2025-01-27,2025-01-27,株式会社エグゼクティブサーチファーム,,株式会社,東京都,品川区,上大崎２丁目１３番３０号,,13,109,1410021,,,,,,,2025-01-27,1,,,,,エグゼクティブサーチファーム,0
30,1010903009656,新規,0,2025-01-27,2025-01-27,ファクタスコンサルティング合同会社,,合同会社,東京都,世田谷区,千歳台６丁目１６番５－６１２号,,13,112,1570071,,,,,,,2025-01-27,1,,,,,ファクタスコンサルティング,0
39,1011101110388,新規,0,2025-01-27,2025-01-27,株式会社ＳＨＯ,,株式会社,東京都,新宿区,歌舞伎町２丁目１１番４号Ｌｅｅ３ビル８階,,13,104,1600021,,,,,,,2025-01-27,1,,,,,エスエイチオー,0
40,1011101110396,新規,0,2025-01-27,2025-01-27,東臨商事株式会社,,株式会社,東京都,新宿区,高田馬場３丁目１４番２号佐成屋ビル３階,,13,104,1690075,,,,,,,2025-01-27,1,,,,,トウリンショウジ,0
44,1011103015420,新規,0,2025-01-27,2025-01-27,合同会社ＴＥＳエデュケーションサービス,,合同会社,東京都,新宿区,高田馬場２丁目１７番３号東京三協信用金庫本店ビル６階,,13,104,1690075,,,,,,,2025-01-27,1,,,,,テスエデュケーションサービス,0
45,1011103015445,新規,0,2025-01-27,2025-01-27,合同会社ＬＩＮＥＳ,,合同会社,東京都,新宿区,高田馬場２丁目１９－８－３０３,,13,104,1690075,,,,,,,2025-01-27,1,,,,,ラインズ,0
46,1011203004587,新規,0,2025-01-27,2025-01-27,合同会社リープフロー,,合同会社,東京都,中野区,中央２丁目５９番１５号Ｓｆｉｄａ・Ｋ６０１,,13,114,1640011,,,,,,,2025-01-27,1,,,,,リープフロー,0
50,1011401026755,新規,0,2025-01-27,2025-01-27,英光パッケージ株式会社,,株式会社,東京都,板橋区,徳丸２丁目３番４号カンダビル４Ｆ,,13,119,1750083,,,,,,,2025-01-27,1,,,,,エイコウパッケージ,0
53,1011501031597,新規,0,2025-01-27,2025-01-27,榎本マネジメント株式会社,,株式会社,東京都,北区,上十条５丁目９番５号,,13,117,1140034,,,,,,,2025-01-27,1,,,,,エノモトマネジメント,0
57,1011701028014,新規,0,2025-01-27,2025-01-27,株式会社ＴＨＲＹＶＥ,,株式会社,東京都,江戸川区,東葛西６丁目９番６－２０５号デュオフラッツ葛西,,13,123,1340084,,,,,,,2025-01-27,1,,,,,スライブ,0
58,1011801045520,新規,0,2025-01-27,2025-01-27,株式会社Ｂｒｏ,,株式会社,東京都,足立区,西新井５丁目２９番５－６０２号,,13,121,1230841,,,,,,,2025-01-27,1,,,,,ブロ,0
59,1011801045529,新規,0,2025-01-27,2025-01-27,株式会社ＴＳＲ,,株式会社,東京都,足立区,梅島３丁目８番１３号メイソンリー梅島４０２,,13,121,1210816,,,,,,,2025-01-27,1,,,,,ティーエスアール,0
61,1012403006935,新規,0,2025-01-27,2025-01-27,合同会社とんぼの家,,合同会社,東京都,府中市,新町３丁目８番地の１５,,13,206,1830052,,,,,,,2025-01-27,1,,,,,トンボノヤ,0
62,1012405005076,新規,0,2025-01-27,2025-01-27,一般社団法人ジャパンフットボールセブンリーグ,,その他の設立登記法人,東京都,多摩市,落合１丁目４７番地,,13,224,2060033,,,,,,,2025-01-27,1,,,,,ジャパンフットボールセブンリーグ,0
67,1013301053672,新規,0,2025-01-27,2025-01-27,株式会社クレイシア,,株式会社,東京都,豊島区,東池袋１丁目３４番５号いちご東池袋ビル６階,,13,116,1700013,,,,,,,2025-01-27,1,,,,,クレイシア,0
75,1020001161202,新規,0,2025-01-27,2025-01-27,株式会社ＡｒｒａｙＶｅｎｔｕｒｅ,,株式会社,神奈川県,川崎市幸区,幸町１丁目７７３－１１ヴィルヌーブ川崎・幸町２０６,,14,132,2120011,,,,,,,2025-01-27,1,,,,,アレイベンチャー,0
82,1021001084302,新規,0,2025-01-27,2025-01-27,株式会社ＥＳＳＥＮＳＥ,,株式会社,神奈川県,藤沢市,南藤沢３番１２,,14,205,2510055,,,,,,,2025-01-27,1,,,,,エッセンス,0
83,1021001084310,新規,0,2025-01-27,2025-01-27,国吉衛生設備株式会社,,株式会社,神奈川県,南足柄市,壗下１０９番地１１,,14,217,2500103,,,,,,,2025-01-27,1,,,,,クニヨシエイセイセツビ,0
88,1030001164550,新規,0,2025-01-27,2025-01-27,ＣＭ　ＬＵＸＵＲＹ　ＩＮＴＥＲＮＡＴＩＯＮＡＬ株式会社,,株式会社,埼玉県,春日部市,備後東７丁目１４番６号,,11,214,3440032,,,,,,,2025-01-27,1,,,,,シーエムラグジュアリーインターナショナル,0
95,1040001137118,新規,0,2025-01-27,2025-01-27,株式会社ＵＮＫＹ,,株式会社,千葉県,千葉市稲毛区,宮野木町１８０６番地７１－７０２,,12,103,2630054,,,,,,,2025-01-27,1,,,,,アンキー,0
108,1050003008951,新規,0,2025-01-27,2025-01-27,合同会社常北ファーム,,合同会社,茨城県,東茨城郡城里町,大字石塚１１７４番地５,,08,310,3114303,,,,,,,2025-01-27,1,,,,,ジョウホクファーム,0
109,1050003008968,新規,0,2025-01-27,2025-01-27,合同会社ＫＹＯ商会,,合同会社,茨城県,常総市,杉山１６５９－２,,08,211,3002744,,,,,,,2025-01-27,1,,,,,キョウショウカイ,0
134,1070003005765,新規,0,2025-01-27,2025-01-27,遊プランニング合同会社,,合同会社,群馬県,渋川市,中郷２３３６番地１,,10,208,3770202,,,,,,,2025-01-27,1,,,,,ユウプランニング,0
135,1070005010350,新規,0,2025-01-27,2025-01-27,医療法人崇彩会,,その他の設立登記法人,群馬県,前橋市,天川大島町３３番地１,,10,201,3792154,,,,,,,2025-01-27,1,,,,,スウサイカイ,0
137,1080401027708,新規,0,2025-01-27,2025-01-27,株式会社ニュートレイル,,株式会社,静岡県,浜松市中央区,伊左地町８８８５,,22,138,4311111,,,,,,,2025-01-27,1,,,,,ニュートレイル,0
144,1100005013283,新規,0,2025-01-27,2025-01-27,税理士法人楯会計事務所,,その他の設立登記法人,長野県,飯田市,時又３４４番地２,,20,205,3992563,,,,,,,2025-01-27,1,,,,,タテカイケイジムショ,0
146,1110001039018,新規,0,2025-01-27,2025-01-27,株式会社Ｍ＆Ｚ,,株式会社,新潟県,新潟市中央区,水道町１丁目５３２３番地１５７,,15,103,9518121,,,,,,,2025-01-27,1,,,,,エムアンドゼット,0
159,1120005024758,新規,0,2025-01-27,2025-01-27,一般社団法人チイキスタイル,,その他の設立登記法人,大阪府,大阪市北区,梅田１丁目２－２大阪駅前第２ビル１２－１２,,27,127,5300001,,,,,,,2025-01-27,1,,,,,チイキスタイル,0
162,1120101070953,新規,0,2025-01-27,2025-01-27,株式会社大福不動産,,株式会社,大阪府,堺市堺区,香ヶ丘町１丁３番２１号,,27,141,5900011,,,,,,,2025-01-27,1,,,,,ダイフクフドウサン,0
165,1120103006253,新規,0,2025-01-27,2025-01-27,合同会社縁,,合同会社,大阪府,泉南市,信達大苗代１２７９番地の５,,27,228,5900505,,,,,,,2025-01-27,1,,,,,エニシ,0
167,1122001038832,新規,0,2025-01-27,2025-01-27,株式会社Ｌｉｅｒｎｄｅ,,株式会社,大阪府,八尾市,高安町北２丁目９３番地の１コスモ５０３号,,27,212,5810871,,,,,,,2025-01-27,1,,,,,リエンデ,0
170,1130001078856,新規,0,2025-01-27,2025-01-27,株式会社大向デザイン事務所,,株式会社,京都府,京都市中京区,富小路通三条上る福長町１０９番地,,26,104,6048084,,,,,,,2025-01-27,1,,,,,オオムカイデザインジムショ,0
171,1130001078872,新規,0,2025-01-27,2025-01-27,株式会社Ｒ．ｂａｎｄ,,株式会社,京都府,京都市伏見区,羽束師古川町２９３－２,,26,109,6128486,,,,,,,2025-01-27,1,,,,,アールドットバンド,0
175,1140001137207,新規,0,2025-01-27,2025-01-27,株式会社ラピエール,,株式会社,兵庫県,神戸市兵庫区,上祇園町９番６号,00137791,28,105,6520008,,,,,,,2025-01-27,1,,,,,ラピエール,0
176,1140001137215,新規,0,2025-01-27,2025-01-27,株式会社山内設計事務所,,株式会社,兵庫県,神戸市兵庫区,西出町１丁目１４番２号,,28,105,6520822,,,,,,,2025-01-27,1,,,,,ヤマウチセッケイジムショ,0
179,1140003021573,新規,0,2025-01-27,2025-01-27,合同会社ｅｃｏ．Ｒ,,合同会社,兵庫県,姫路市,青山南４丁目１２番１８号,,28,201,6712223,,,,,,,2025-01-27,1,,,,,エコアール,0
181,1150001027844,新規,0,2025-01-27,2025-01-27,株式会社チルパートナー,,株式会社,奈良県,大和高田市,幸町１２番１５号,,29,202,6350015,,,,,,,2025-01-27,1,,,,,チルパートナー,0
186,1160003003388,新規,0,2025-01-27,2025-01-27,合同会社ＫＫＳ,,合同会社,滋賀県,長浜市,四ツ塚町２２６番地,,25,203,5260041,,,,,,,2025-01-27,1,,,,,ケイケイエス,0
188,1170001018453,新規,0,2025-01-27,2025-01-27,株式会社白浜別荘地管理,,株式会社,和歌山県,西牟婁郡白浜町,２９２６番地の５９４,,30,401,6492211,,,,,,,2025-01-27,1,,,,,シラハマベッソウチカンリ,0
189,1170003002158,新規,0,2025-01-27,2025-01-27,Ａ＆Ｒ合同会社,,合同会社,和歌山県,東牟婁郡串本町,串本４０番地６９,,30,428,6493503,,,,,,,2025-01-27,1,,,,,エーアンドアール,0
207,1190001031958,新規,0,2025-01-27,2025-01-27,株式会社将栄,,株式会社,三重県,四日市市,あかつき台１丁目３番地２１,,24,202,5128046,,,,,,,2025-01-27,1,,,,,ショウエイ,0
208,1190005012013,新規,0,2025-01-27,2025-01-27,一般社団法人ハレノウズメ,,その他の設立登記法人,三重県,鈴鹿市,小岐須町９９０番地,,24,207,5190316,,,,,,,2025-01-27,1,,,,,ハレノウズメ,0
209,1200001043373,新規,0,2025-01-27,2025-01-27,アイダ産業株式会社,,株式会社,岐阜県,可児市,菅刈２４番地４,,21,214,5090262,,,,,,,2025-01-27,1,,,,,アイダサンギョウ,0
210,1200001043381,新規,0,2025-01-27,2025-01-27,株式会社ＭＯＵＮＤ,,株式会社,岐阜県,岐阜市,八幡町３５番地３,,21,201,5008838,,,,,,,2025-01-27,1,,,,,マウンド,0
211,1200003006675,新規,0,2025-01-27,2025-01-27,合同会社縁結,,合同会社,岐阜県,郡上市,八幡町島谷１４３４番地４,,21,219,5014222,,,,,,,2025-01-27,1,,,,,エンユウ,0
212,1200005013711,新規,0,2025-01-27,2025-01-27,医療法人社団和仁会,,その他の設立登記法人,岐阜県,大垣市,上面２丁目６１番地,,21,202,5030817,,,,,,,2025-01-27,1,,,,,ワジンカイ,0
259,1240001064432,新規,0,2025-01-27,2025-01-27,株式会社ＹＳＤ　Ｃｒａｆｔ,,株式会社,広島県,呉市,焼山中央３丁目８番１１－２号,,34,202,7370935,,,,,,,2025-01-27,1,,,,,ワイエスディークラフト,0
261,1260001039845,新規,0,2025-01-27,2025-01-27,株式会社環星,,株式会社,岡山県,岡山市北区,清輝橋１丁目５番１７号ラメールリアンビル５０２室,,33,101,7000861,,,,,,,2025-01-27,1,,,,,カンセイ,0
262,1260001039853,新規,0,2025-01-27,2025-01-27,株式会社ＧＬＡＮＧＥ,,株式会社,岡山県,倉敷市,林２０２３番地８,,33,202,7100142,,,,,,,2025-01-27,1,,,,,グランジ,0
263,1260003005044,新規,0,2025-01-27,2025-01-27,合同会社あくら土人形,,合同会社,岡山県,笠岡市,大島中２４０５番地,,33,205,7140033,,,,,,,2025-01-27,1,,,,,アクラツチニンギョウ,0
273,1290001108713,新規,0,2025-01-27,2025-01-27,株式会社海徳海山,,株式会社,福岡県,福岡市早良区,百道１丁目２５番４２－１２０１号,,40,137,8140006,,,,,,,2025-01-27,1,,,,,カイトクカイザン,0
274,1290001108812,新規,0,2025-01-27,2025-01-27,株式会社Ｆｉｇｓｅｅ,,株式会社,福岡県,福岡市博多区,博多駅前１丁目２３番２号ＰａｒｋＦｒｏｎｔ博多駅前１丁目５Ｆ－Ｂ,,40,132,8120011,,,,,,,2025-01-27,1,,,,,フィグシー,0
328,1320001020906,新規,0,2025-01-27,2025-01-27,株式会社まきこ,,株式会社,大分県,大分市,元町７番４号,,44,201,8700843,,,,,,,2025-01-27,1,,,,,マキコ,0
342,1360001034704,新規,0,2025-01-27,2025-01-27,株式会社胡屋製麺,,株式会社,沖縄県,沖縄市,胡屋６丁目１２番１号,,47,211,9040021,,,,,,,2025-01-27,1,,,,,ゴヤセイメン,0
343,1360001034712,新規,0,2025-01-27,2025-01-27,株式会社沖縄サクラアルカス,,株式会社,沖縄県,那覇市,古波蔵４丁目１３番９号ＳＳＫビル２階,,47,201,9000024,,,,,,,2025-01-27,1,,,,,オキナワサクラアルカス,0
344,1360001034720,新規,0,2025-01-27,2025-01-27,株式会社ＫＪ・Ｇｒｏｕｐ,,株式会社,沖縄県,那覇市,山下町３０番１－１１０３号フレスコア山下,,47,201,9000027,,,,,,,2025-01-27,1,,,,,ケージェーグループ,0
350,1370001052168,新規,0,2025-01-27,2025-01-27,株式会社ＮＥＣＴ,,株式会社,宮城県,白石市,旭町１丁目８番１４号,,04,206,9890223,,,,,,,2025-01-27,1,,,,,ネクト,0
359,1390001017862,新規,0,2025-01-27,2025-01-27,株式会社Ｍｏｎ　ｃｈｅｒｉ,,株式会社,山形県,寒河江市,幸町１番３５号,,06,206,9910035,,,,,,,2025-01-27,1,,,,,モンシェリ,0
361,1400001016920,新規,0,2025-01-27,2025-01-27,株式会社小松,,株式会社,岩手県,北上市,和賀町藤根１７地割７８番地１,,03,206,0240334,,,,,,,2025-01-27,1,,,,,コマツ,0
364,1420001018997,新規,0,2025-01-27,2025-01-27,株式会社大成園,,株式会社,青森県,弘前市,大字下湯口字青柳６８番地,,02,202,0368265,,,,,,,2025-01-27,1,,,,,タイセイエン,0
659,1430001093536,新規,0,2025-01-27,2025-01-27,株式会社ＢＩＳ,,株式会社,北海道,札幌市北区,篠路八条６丁目９番１号ブランシェＣ１号,,01,102,0028028,,,,,,,2025-01-27,1,,,,,ビィス,0
660,1430001093544,新規,0,2025-01-27,2025-01-27,株式会社ノースクラフト,,株式会社,北海道,江別市,文京台東町１０番地の１５,,01,217,0690834,,,,,,,2025-01-27,1,,,,,ノースクラフト,0
661,1430001093560,新規,0,2025-01-27,2025-01-27,Ｕｌｕ株式会社,,株式会社,北海道,札幌市中央区,南二条西１丁目８番地２,,01,101,0600062,,,,,,,2025-01-27,1,,,,,ウル,0
679,1430003017204,新規,0,2025-01-27,2025-01-27,合同会社清稀,,合同会社,北海道,苫小牧市,新明町４丁目１７－７,,01,213,0530055,,,,,,,2025-01-27,1,,,,,シキ,0
680,1430003017212,新規,0,2025-01-27,2025-01-27,合同会社ＳｏｕｔｈＣｒｅａｔｉｖｅ,,合同会社,北海道,札幌市西区,福井３丁目１番５３号,,01,107,0630012,,,,,,,2025-01-27,1,,,,,サウスクリエイティブ,0
687,1460001005967,新規,0,2025-01-27,2025-01-27,株式会社ティーダ,,株式会社,北海道,釧路市,文苑３丁目１１番８号,,01,206,0850063,,,,,,,2025-01-27,1,,,,,ティーダ,0
690,1480001012730,新規,0,2025-01-27,2025-01-27,ＩＮＳＩＤＥＰＲＯ株式会社,,株式会社,徳島県,徳島市,南昭和町４丁目６２番地の４,,36,201,7700944,,,,,,,2025-01-27,1,,,,,インサイドプロ,0
695,1480005007058,新規,0,2025-01-27,2025-01-27,一般社団法人アワテラス歴史文化研究所,,その他の設立登記法人,徳島県,徳島市,北矢三町１丁目２番１１号株式会社Ｄライフサポート内,,36,201,7700006,,,,,,,2025-01-27,1,,,,,アワテラスレキシブンカケンキュウジョ,0
718,1500001026117,新規,0,2025-01-27,2025-01-27,はじめ興産株式会社,,株式会社,愛媛県,松山市,立花３丁目８番２８号６１２号室,,38,201,7900966,,,,,,,2025-01-27,1,,,,,ハジメコウサン,0
720,1700150128957,新規,0,2025-01-27,2025-01-27,Ｈｙｇｇｅ　Ｌｉｆｅｓｔｙｌｅ　Ｇｒｏｕｐ　Ｐｔｙ　Ｌｔｄ,,外国会社等,長野県,上水内郡信濃町,大字古海２２５９－１０,,20,583,3891302,オーストラリア連邦、クイーンズランド州、オーモー、キルキバン・ドライブ１０,,,,,,2025-01-27,1,,,,,ヒユツゲライフスタイルグループリミテツド,0
721,1700150128965,新規,0,2025-01-27,2025-01-27,Ｓｈｅｎｚｈｅｎｓｈｉ　Ｄｉａｎｊｉａ　Ｔｅｃｈｎｏｌｏｇｙ　Ｃｏ．，Ｌｔｄ．,,外国会社等,,,,,,,,ｄａｌａｎｇｊｉｅｄａｏ，ｔｏｎｇｓｈｅｎｇｓｈｅｑｕ，ｓａｎｊｉａｏｓｈａｎｙｉｈａｏ，７　ｄｏｎｇ　４０２　ｓｈｅｎｚｈｅｎ　ｌｏｎｇｈｕａ　ｇｕａｎｇｄｏｎｇ,,,,,,2025-01-27,1,,,,,シンセンシーデイアンジアテクノロジーカンパニーリミテド,0
722,1700150128973,新規,0,2025-01-27,2025-01-27,ＩＮＦＩＮＩＴＹ　ＳＰＡＲＥ　ＳＯＬＵＴＩＯＮ,,外国会社等,千葉県,山武市,木原２０３１番地２１－１Ｄ,,12,237,2891212,スリランカ民主社会主義共和国、カトゥガストタ、マダワラロード、Ｎｏ．２７５／４Ａ,,,,,,2025-01-27,1,,,,,インフイニテイスペアソリユーシヨン,0
725,2010001251688,新規,0,2025-01-27,2025-01-27,ＪＩＡＲＥ第４号株式会社,,株式会社,東京都,千代田区,霞が関３丁目２番１号,,13,101,1000013,,,,,,,2025-01-27,1,,,,,ジェイアイエーアールイーダイヨンゴウ,0
726,2010001251705,新規,0,2025-01-27,2025-01-27,Ｘ　Ａｓｓｅｔ株式会社,,株式会社,東京都,中央区,銀座１丁目１２番４号Ｎ＆ＥＢＬＤ．６Ｆ,,13,102,1040061,,,,,,,2025-01-27,1,,,,,エックスアセット,0
727,2010001251779,新規,0,2025-01-27,2025-01-27,株式会社Ｏｎ　ＥＳＴコンサルティング,,株式会社,東京都,中央区,銀座１丁目２２番１１号銀座大竹ビジデンス２Ｆ,,13,102,1040061,,,,,,,2025-01-27,1,,,,,オンエストコンサルティング,0
739,2010401187697,新規,0,2025-01-27,2025-01-27,株式会社ビーストテクノロジー,,株式会社,東京都,港区,六本木６丁目１０－１六本木ヒルズ森タワー１６Ｆ,,13,103,1060032,,,,,,,2025-01-27,1,,,,,,0
741,2010403034195,新規,0,2025-01-27,2025-01-27,アロウイミューン合同会社,,合同会社,東京都,港区,六本木６丁目１０－１六本木ヒルズ森タワー１５ＦＣＩＲＣＬＥｂｙＡＮＲＩ,,13,103,1060032,,,,,,,2025-01-27,1,,,,,アロウイミューン,0
742,2010403034204,新規,0,2025-01-27,2025-01-27,ＮＹパートナーズ合同会社,,合同会社,東京都,港区,浜松町２丁目２番１５号浜松町ダイヤビル２Ｆ,,13,103,1050013,,,,,,,2025-01-27,1,,,,,エヌワイパートナーズ,0
743,2010403034253,新規,0,2025-01-27,2025-01-27,Ｎｏｚｏｍｉ合同会社,,合同会社,東京都,港区,六本木１丁目９番１０号アークヒルズ仙石山森タワー４０階,,13,103,1060032,,,,,,,2025-01-27,1,,,,,ノゾミ,0
745,2010501053502,新規,0,2025-01-27,2025-01-27,株式会社ＴＤＣホールディングス,,株式会社,東京都,台東区,元浅草４丁目９番１４号イマス元浅草ビル５Ｆ,,13,106,1110041,,,,,,,2025-01-27,1,,,,,ティーディーシーホールディングス,0
753,2010901056699,新規,0,2025-01-27,2025-01-27,株式会社Ｌｉｎｏ　Ｌａｂｅｌ,,株式会社,東京都,世田谷区,代沢３丁目１６番２３号,,13,112,1550032,,,,,,,2025-01-27,1,,,,,リノレーベル,0
761,2011001167362,新規,0,2025-01-27,2025-01-27,株式会社Ｕｎｔｉｔｌｅｄ,,株式会社,東京都,渋谷区,恵比寿西２丁目４番８号ウィンド恵比寿ビル８Ｆ,,13,113,1500021,,,,,,,2025-01-27,1,,,,,アンタイトル,0
764,2011003020874,新規,0,2025-01-27,2025-01-27,合同会社ティースリー,,合同会社,東京都,目黒区,上目黒４丁目１７番５号,,13,110,1530051,,,,,,,2025-01-27,1,,,,,ティースリー,0
768,2011103015444,新規,0,2025-01-27,2025-01-27,合同会社ＲＯＭＡＮＣＥ,,合同会社,東京都,新宿区,高田馬場２丁目１９－８－３０３,,13,104,1690075,,,,,,,2025-01-27,1,,,,,ロマンス,0
776,2011501031605,新規,0,2025-01-27,2025-01-27,株式会社ココナッツマトリックス,,株式会社,東京都,北区,赤羽台２丁目１番１６－７０７号,,13,117,1150053,,,,,,,2025-01-27,1,,,,,ココナッツマトリックス,0
777,2011501031613,新規,0,2025-01-27,2025-01-27,ＲＧＢ　ＬＡＢＯ株式会社,,株式会社,東京都,北区,滝野川２丁目２１番８号,,13,117,1140023,,,,,,,2025-01-27,1,,,,,アールジービーラボ,0
784,2011703004103,新規,0,2025-01-27,2025-01-27,Ｓｍａｒｔ　Ｔｏｕｃｈ合同会社,,合同会社,東京都,江戸川区,東葛西４丁目１１―２グランヴィア６０１,,13,123,1340084,,,,,,,2025-01-27,1,,,,,スマートタッチ,0
788,2012401042709,新規,0,2025-01-27,2025-01-27,株式会社加藤環境ホールディングス,,株式会社,東京都,狛江市,東野川２丁目１４番２号,,13,219,2010002,,,,,,,2025-01-27,1,,,,,カトウカンキョウホールディングス,0
790,2012403006926,新規,0,2025-01-27,2025-01-27,ＫＫ・リアルエステート合同会社,,合同会社,東京都,調布市,佐須町３丁目２８番地３,,13,208,1820016,,,,,,,2025-01-27,1,,,,,ケーケーリアルエステート,0
791,2012403006934,新規,0,2025-01-27,2025-01-27,合同会社エンパワーメント,,合同会社,東京都,調布市,深大寺東町７丁目４番地３０,,13,208,1820012,,,,,,,2025-01-27,1,,,,,エンパワーメント,0
802,2020001160995,新規,0,2025-01-27,2025-01-27,株式会社めだか興業,,株式会社,神奈川県,川崎市高津区,久地２丁目１７番３２号,,14,134,2130032,,,,,,,2025-01-27,1,,,,,メダカコウギョウ,0
803,2020001161011,新規,0,2025-01-27,2025-01-27,ＫＯＩＮＵテクノロジーズ株式会社,,株式会社,神奈川県,横浜市神奈川区,青木町３番地２１インペリアル横浜ベイヴュー１０６号,,14,102,2210057,,,,,,,2025-01-27,1,,,,,コイヌテクノロジーズ,0
804,2020001161044,新規,0,2025-01-27,2025-01-27,Ｂａｙ３株式会社,,株式会社,神奈川県,川崎市川崎区,中瀬３丁目２０番１９－７１３号,,14,131,2100818,,,,,,,2025-01-27,1,,,,,ベイスリー,0
805,2020001161052,新規,0,2025-01-27,2025-01-27,株式会社トレシュルテン,,株式会社,神奈川県,横浜市南区,永楽町１丁目９番地１ランドステージ横濱関内１０７,,14,105,2320031,,,,,,,2025-01-27,1,,,,,トレシュルテン,0
811,2021001084301,新規,0,2025-01-27,2025-01-27,株式会社はなやま,,株式会社,神奈川県,平塚市,大神５丁目２５番２１号,,14,203,2540012,,,,,,,2025-01-27,1,,,,,ハナヤマ,0
812,2021001084334,新規,0,2025-01-27,2025-01-27,株式会社奏学社,,株式会社,神奈川県,相模原市中央区,光が丘２丁目１２番１２号,,14,152,2520227,,,,,,,2025-01-27,1,,,,,ソウガクシャ,0
813,2021003015428,新規,0,2025-01-27,2025-01-27,品田きかい合同会社,,合同会社,神奈川県,横須賀市,佐原４丁目４０２番３号,,14,201,2390835,,,,,,,2025-01-27,1,,,,,シナダキカイ,0
814,2021003015510,新規,0,2025-01-27,2025-01-27,ＲＩＳＥ合同会社,,合同会社,神奈川県,平塚市,高村２６番地・４７－４０２,,14,203,2540914,,,,,,,2025-01-27,1,,,,,ライズ,0
819,2030001164608,新規,0,2025-01-27,2025-01-27,株式会社プレイブ不動産,,株式会社,埼玉県,白岡市,白岡１００９番地５,,11,246,3490218,,,,,,,2025-01-27,1,,,,,プレイブフドウサン,0
822,2030003025956,新規,0,2025-01-27,2025-01-27,合同会社ＦＭＲ,,合同会社,埼玉県,上尾市,大字原市２６３番地２７,,11,219,3620021,,,,,,,2025-01-27,1,,,,,エフエムアール,0
835,2040003026697,新規,0,2025-01-27,2025-01-27,Ｇｌｏｂａｌ　Ｖｉｓｉｏｎ合同会社,,合同会社,千葉県,市原市,ちはら台東５丁目１２番地１３,,12,219,2900141,,,,,,,2025-01-27,1,,,,,グローバルビジョン,0
837,2050001056035,新規,0,2025-01-27,2025-01-27,株式会社ＴＡＫＵＭＩ,,株式会社,茨城県,下妻市,黒駒１０７６番地９,,08,210,3040007,,,,,,,2025-01-27,1,,,,,タクミ,0
839,2050003008967,新規,0,2025-01-27,2025-01-27,合同会社松風,,合同会社,茨城県,筑西市,玉戸１２７０番地１８５,,08,227,3080847,,,,,,,2025-01-27,1,,,,,マツカゼ,0
845,2060001037868,新規,0,2025-01-27,2025-01-27,株式会社ガクポン,,株式会社,栃木県,宇都宮市,峰３丁目３－５,,09,201,3210942,,,,,,,2025-01-27,1,,,,,ガクポン,0
858,2070001042578,新規,0,2025-01-27,2025-01-27,ＬＬＥ株式会社,,株式会社,群馬県,前橋市,千代田町１丁目１４番１８号,,10,201,3710022,,,,,,,2025-01-27,1,,,,,エルエルイー,0
866,2110003005644,新規,0,2025-01-27,2025-01-27,合同会社匠空調,,合同会社,新潟県,南魚沼市,樺野沢３０４番地１,,15,226,9496431,,,,,,,2025-01-27,1,,,,,タクミクウチョウ,0
867,2110005017175,新規,0,2025-01-27,2025-01-27,一般社団法人ＡＮサポーターズアソシエーション,,その他の設立登記法人,新潟県,新潟市中央区,清五郎６７番地１２,,15,103,9500933,,,,,,,2025-01-27,1,,,,,エーエヌサポーターズアソシエーション,0
873,2120001272228,新規,0,2025-01-27,2025-01-27,奴瑪株式会社,,株式会社,大阪府,大阪市西成区,萩之茶屋１丁目１２番７号万葉ビル６６号室,,27,122,5570004,,,,,,,2025-01-27,1,,,,,ドマ,0
874,2120001272252,新規,0,2025-01-27,2025-01-27,ＭＡＫＥ　ＰＬＡＣＥ株式会社,,株式会社,大阪府,大阪市中央区,南本町１丁目３－１４ＨＰ本町ビル３階,,27,128,5410054,,,,,,,2025-01-27,1,,,,,メイクプレイス,0
875,2120101070977,新規,0,2025-01-27,2025-01-27,株式会社エース,,株式会社,大阪府,河内長野市,楠ケ丘４１番２２号,,27,216,5860039,,,,,,,2025-01-27,1,,,,,エース,0
876,2120105009963,新規,0,2025-01-27,2025-01-27,医療法人吉村えみレディースクリニック,,その他の設立登記法人,大阪府,松原市,高見の里４丁目２番１７号Ｍ＆Ｉビル３Ｆ,,27,217,5800021,,,,,,,2025-01-27,1,,,,,ヨシムラエミレディースクリニック,0
879,2122001038831,新規,0,2025-01-27,2025-01-27,株式会社岡田建設,,株式会社,大阪府,東大阪市,日下町３丁目６番６７号,,27,227,5798003,,,,,,,2025-01-27,1,,,,,オカダケンセツ,0
882,2130001078871,新規,0,2025-01-27,2025-01-27,株式会社ブループリント,,株式会社,京都府,京都市中京区,烏丸通夷川上る少将井町２４５番地１藤和シティスクエア烏丸丸太町７０４号室,,26,104,6040862,,,,,,,2025-01-27,1,,,,,ブループリント,0
884,2130003010163,新規,0,2025-01-27,2025-01-27,合同会社Ｌｉｂｒｏ＆Ｉｎｎｏｖａｒｅ,,合同会社,京都府,京都市右京区,嵯峨大覚寺門前堂ノ前町２２番地６０,,26,108,6168413,,,,,,,2025-01-27,1,,,,,リブロアンドイノヴァーレ,0
885,2140001137148,新規,0,2025-01-27,2025-01-27,株式会社りるる,,株式会社,兵庫県,尼崎市,三反田町３丁目１２番１２号４０１,,28,202,6610024,,,,,,,2025-01-27,1,,,,,リルル,0
886,2140001137189,新規,0,2025-01-27,2025-01-27,株式会社ＦＵＮ　ＳＴＹＬＥ,,株式会社,兵庫県,伊丹市,寺本３丁目３１番,,28,207,6640026,,,,,,,2025-01-27,1,,,,,ファンスタイル,0
892,2140003021580,新規,0,2025-01-27,2025-01-27,合同会社Ｏｒｉｋａｎ,,合同会社,兵庫県,神戸市長田区,雲雀ヶ丘１丁目１０番１８号,,28,106,6530879,,,,,,,2025-01-27,1,,,,,オリカン,0
893,2140005027361,新規,0,2025-01-27,2025-01-27,アトム神戸法律事務所弁護士法人,,その他の設立登記法人,兵庫県,神戸市中央区,八幡通３丁目２－５ＩＮ東洋ビル５０１,,28,110,6510085,,,,,,,2025-01-27,1,,,,,アトムコウベホウリツジムショ,0
896,2160001026506,新規,0,2025-01-27,2025-01-27,株式会社ＮＴハウス,,株式会社,滋賀県,大津市,大萱６丁目１番６５号,,25,201,5202144,,,,,,,2025-01-27,1,,,,,エヌティーハウス,0
901,2180001165228,新規,0,2025-01-27,2025-01-27,株式会社Ｄａｒｕｍａ,,株式会社,愛知県,名古屋市西区,歌里町３１４番地,,23,104,4520807,,,,,,,2025-01-27,1,,,,,ダルマ,0
908,2180301039461,新規,0,2025-01-27,2025-01-27,株式会社宇井設備,,株式会社,愛知県,豊田市,泉町１丁目４番地６,,23,211,4710803,,,,,,,2025-01-27,1,,,,,ウイセツビ,0
909,2190001031957,新規,0,2025-01-27,2025-01-27,株式会社ヒルカワホールディングス,,株式会社,三重県,桑名市,陽だまりの丘６丁目８０１番地,,24,205,5110867,,,,,,,2025-01-27,1,,,,,ヒルカワホールディングス,0
910,2190005012012,新規,0,2025-01-27,2025-01-27,土地家屋調査士法人伊賀中央,,その他の設立登記法人,三重県,伊賀市,服部町３丁目１１７番地の５,,24,216,5180007,,,,,,,2025-01-27,1,,,,,イガチュウオウ,0
911,2200001043372,新規,0,2025-01-27,2025-01-27,株式会社Ｇｒｅｅｎ,,株式会社,岐阜県,羽島市,正木町曲利１１２９番地,,21,209,5016227,,,,,,,2025-01-27,1,,,,,グリーン,0
912,2200005013710,新規,0,2025-01-27,2025-01-27,一般社団法人Ｂｅｇｉｎｎｉｎｇ,,その他の設立登記法人,岐阜県,高山市,清見町大原９２３番地,,21,203,5092702,,,,,,,2025-01-27,1,,,,,ビギニング,0
958,2230005009433,新規,0,2025-01-27,2025-01-27,一般社団法人日本気密測定協会,,その他の設立登記法人,富山県,富山市,野口８１２番地,,16,201,9300173,,,,,,,2025-01-27,1,,,,,ニホンキミツソクテイキョウカイ,0
963,2260001039844,新規,0,2025-01-27,2025-01-27,Ｒ．Ｏコーポレーション株式会社,,株式会社,岡山県,倉敷市,水島明神町５番４８号,,33,202,7128003,,,,,,,2025-01-27,1,,,,,アールオーコーポレーション,0
964,2260003005043,新規,0,2025-01-27,2025-01-27,ＰｒｉｍｅＷｏｒｋｓＪａｐａｎ合同会社,,合同会社,岡山県,倉敷市,広江６丁目１番１５号片岡ビル２階,,33,202,7128043,,,,,,,2025-01-27,1,,,,,プライムワークスジャパン,0
967,2280003001916,新規,0,2025-01-27,2025-01-27,合同会社チャーム．３２,,合同会社,島根県,浜田市,相生町１３９１‐８シティパルク２Ｆ石見産業支援センター,,32,202,6970034,,,,,,,2025-01-27,1,,,,,チャームドットサンジュウニ,0
974,2290001108811,新規,0,2025-01-27,2025-01-27,株式会社チヨダホールディングス,,株式会社,福岡県,糟屋郡粕屋町,大字上大隈２０２番地１,,40,349,8112301,,,,,,,2025-01-27,1,,,,,チヨダホールディングス,0
979,2310003004931,新規,0,2025-01-27,2025-01-27,ＴＯＹＯ合同会社,,合同会社,長崎県,対馬市,上県町佐須奈乙９２３番地　２階,,42,209,8171602,,,,,,,2025-01-27,1,,,,,トヨ,0
1036,2330001032841,新規,0,2025-01-27,2025-01-27,株式会社大心,,株式会社,熊本県,熊本市東区,新南部５丁目７番２５－１００４号,,43,102,8618028,,,,,,,2025-01-27,1,,,,,ダイシン,0
1045,2360001034703,新規,0,2025-01-27,2025-01-27,株式会社塩川重機,,株式会社,沖縄県,石垣市,字真栄里１２９番地２,,47,207,9070002,,,,,,,2025-01-27,1,,,,,シオカワジュウキ,0
1046,2360001034711,新規,0,2025-01-27,2025-01-27,エム・エフ・ケア株式会社,,株式会社,沖縄県,中頭郡読谷村,字渡慶次４番地３,,47,324,9040326,,,,,,,2025-01-27,1,,,,,エムエフケア,0
1050,2360003014629,新規,0,2025-01-27,2025-01-27,合同会社たけちゃん,,合同会社,沖縄県,石垣市,字登野城１２７２番地５,,47,207,9070004,,,,,,,2025-01-27,1,,,,,タケチャン,0
1051,2360003014637,新規,0,2025-01-27,2025-01-27,合同会社Ｍａｌｉｅｌａｎｉ,,合同会社,沖縄県,那覇市,長田２丁目２４番５７－１００４号プライムレジデンス長田,,47,201,9020077,,,,,,,2025-01-27,1,,,,,マリエラニ,0
1058,2370001052175,新規,0,2025-01-27,2025-01-27,株式会社明治堂,,株式会社,宮城県,仙台市青葉区,台原１丁目７番２１号,,04,101,9810911,,,,,,,2025-01-27,1,,,,,メイジドウ,0
1059,2370003006914,新規,0,2025-01-27,2025-01-27,合同会社ＫＥＬＬＹ,,合同会社,宮城県,仙台市青葉区,国分町２丁目１－１７－４Ｆ,,04,101,9800803,,,,,,,2025-01-27,1,,,,,ケリー,0
1061,2380001035039,新規,0,2025-01-27,2025-01-27,株式会社くじらＲｅ．ｆｏｒｍ,,株式会社,福島県,郡山市,安積町日出山字神明下４４番地７リィスタイルビル１Ｆ,,07,203,9630101,,,,,,,2025-01-27,1,,,,,クジラリフォーム,0
1067,2420001018996,新規,0,2025-01-27,2025-01-27,株式会社ＳＯＫＥＮ,,株式会社,青森県,南津軽郡田舎館村,大字川部字上船橋４１番地４,,02,367,0381141,,,,,,,2025-01-27,1,,,,,ソーケン,0
1348,2430001093527,新規,0,2025-01-27,2025-01-27,グリーンサポート株式会社,,株式会社,北海道,札幌市北区,新琴似六条１３丁目６番１５号,,01,102,0010906,,,,,,,2025-01-27,1,,,,,グリーンサポート,0
1349,2430001093543,新規,0,2025-01-27,2025-01-27,株式会社十一,,株式会社,北海道,札幌市中央区,南二十一条西９丁目２番６号,,01,101,0640921,,,,,,,2025-01-27,1,,,,,トイチ,0
1357,2430003017203,新規,0,2025-01-27,2025-01-27,合同会社１ＬＤＫ　Ｈａｉｒ,,合同会社,北海道,札幌市中央区,大通西２４丁目２番３号プレミュール円山１０５,,01,101,0640820,,,,,,,2025-01-27,1,,,,,ワンエルディーケーヘアー,0
1365,2460305002024,新規,0,2025-01-27,2025-01-27,特定非営利活動法人佐呂間町観光協会,,その他の設立登記法人,北海道,常呂郡佐呂間町,字宮前町１１番地の１,,01,552,0930501,,,,,,,2025-01-27,1,,,,,サロマチョウカンコウキョウカイ,0
1392,2700150128956,新規,0,2025-01-27,2025-01-27,ＪＡＮＧＬＥＳ　ＨＯＬＤＩＮＧＳ　ＰＴＹ　ＬＴＤ,,外国会社等,,,,,,,,ＬＥＶＥＬ　１，’ＡＳＩＣ　ＭＡＩＬ　ＲＥＴＵＲＮＥＤ　０６／０７／２０２１’，１５　＊＊ＮＩＣＫＬＩＮ　ＷＡＹ，ＭＩＮＹＡＭＡ　ＱＬＤ　４５７５,,,,,,2025-01-27,1,,,,,ジヤングルズホールデイングスピーテイワイエルテイデイ,0
1393,2700150128964,新規,0,2025-01-27,2025-01-27,ＴＬＹ（ＸＩＡＭＥＮ）Ｅ－ＣＯＭＭＥＲＣＥ　ＣＯ．，ＬＴＤ．,,外国会社等,,,,,,,,Ｔｈｅ　９ｔｈ　Ｆｌｏｏｒ　ｏｆ　ｔｈｅ　Ｘｔｅｐ　Ｏｐｅｒａｔｉｏｎ　Ｃｅｎｔｅｒ，Ｎｏ．８９，ＪｉａＹｉ　Ｒｏａｄ，Ｓｉｍｉｎｇ　Ｄｉｓｔｒｉｃｔ，Ｘｉａｍｅｎ　Ｃｉｔｙ，Ｃｈｉｎａ,,,,,,2025-01-27,1,,,,,テイーエルワイアモイイーコマスカンパニーリミテツド,0
1394,2700150128972,新規,0,2025-01-27,2025-01-27,ＣＩＴＹ　ＡＵＴＯ　ＭＡＲＴ,,外国会社等,千葉県,山武市,木原２０３１番地２１－１Ｅ,,12,237,2891212,スリランカ民主社会主義共和国、アクラナ、マタレロード、Ｎｏ．１／Ａ１,,,,,,2025-01-27,1,,,,,シテイオートマート,0
1403,3010001251489,新規,0,2025-01-27,2025-01-27,株式会社Ｍｙ　Ｂｕｓｉｎｅｓｓ　Ｃｒｅａｔｏｒｓ,,株式会社,東京都,中央区,銀座６丁目６番１号銀座風月堂ビル５階,,13,102,1040061,,,,,,,2025-01-27,1,,,,,マイビジネスクリエーターズ,0
1404,3010001251605,新規,0,2025-01-27,2025-01-27,フロンティア・キャピタル・パートナーズ株式会社,,株式会社,東京都,千代田区,丸の内２丁目７番２号ＪＰタワー１４階,,13,101,1000005,,,,,,,2025-01-27,1,,,,,フロンティアキャピタルパートナーズ,0
1405,3010001251670,新規,0,2025-01-27,2025-01-27,株式会社ＳＨＩＮＦＵ,,株式会社,東京都,中央区,日本橋室町１丁目１１番１２号日本橋水野ビル７階,,13,102,1030022,,,,,,,2025-01-27,1,,,,,シンフー,0
1406,3010001251687,新規,0,2025-01-27,2025-01-27,ＪＩＡＲＥ第３号株式会社,,株式会社,東京都,千代田区,霞が関３丁目２番１号,,13,101,1000013,,,,,,,2025-01-27,1,,,,,ジェイアイエーアールイーダイサンゴウ,0
1407,3010001251695,新規,0,2025-01-27,2025-01-27,元豊健康株式会社,,株式会社,東京都,文京区,白山１丁目６番４号文京ＶｅｎｔｕｒｅＢａｓｅＡ０４,,13,105,1130001,,,,,,,2025-01-27,1,,,,,ゲンホウケンコウ,0
1408,3010001251720,新規,0,2025-01-27,2025-01-27,株式会社ｏｎｅｎｅｓｓ,,株式会社,東京都,千代田区,九段南２丁目３番２５号平安堂ビル４階,,13,101,1020074,,,,,,,2025-01-27,1,,,,,ワンネス,0
1412,3010003046185,新規,0,2025-01-27,2025-01-27,武蔵小山マネージメント合同会社,,合同会社,東京都,千代田区,丸の内１丁目１１番１号,,13,101,1000005,,,,,,,2025-01-27,1,,,,,ムサシコヤママネージメント,0
1417,3010401187696,新規,0,2025-01-27,2025-01-27,佳乃和株式会社,,株式会社,東京都,港区,南青山２丁目２番１５号ウィン青山１２１４号,,13,103,1070062,,,,,,,2025-01-27,1,,,,,カノア,0
1418,3010401187754,新規,0,2025-01-27,2025-01-27,ＨＡＴＴＯ　ＣＯＭＰＡＮＹ株式会社,,株式会社,東京都,港区,南青山２丁目２番１５号ウィン青山,,13,103,1070062,,,,,,,2025-01-27,1,,,,,ハットカンパニー,0
1419,3010401187861,新規,0,2025-01-27,2025-01-27,全芯光株式会社,,株式会社,東京都,港区,新橋１丁目１２－９新橋プレイス８階,,13,103,1050004,,,,,,,2025-01-27,1,,,,,ゼンシンコウ,0
1423,3010405023955,新規,0,2025-01-27,2025-01-27,一般社団法人通信型デジタル式業務・運行記録計等推進協議会,,その他の設立登記法人,東京都,港区,六本木３丁目２番１号一般社団法人運輸デジタルビジネス協議会内,,13,103,1060032,,,,,,,2025-01-27,1,,,,,ツウシンガタデジタルシキギョウムウンコウキロクケイトウスイシンキョウギカイ,0
1435,3010803005258,新規,0,2025-01-27,2025-01-27,合同会社ＫＷＤ,,合同会社,東京都,大田区,南六郷２丁目３１番１４号,,13,111,1440045,,,,,,,2025-01-27,1,,,,,ケーダブルディー,0
1442,3011001166974,新規,0,2025-01-27,2025-01-27,東京マイクラブ株式会社,,株式会社,東京都,渋谷区,広尾１丁目１０番４号越山ＬＫビルＢ１Ｆ,,13,113,1500012,,,,,,,2025-01-27,1,,,,,トウキョウマイクラブ,0
1443,3011001167378,新規,0,2025-01-27,2025-01-27,株式会社パブリッシング・ブランディング,,株式会社,東京都,目黒区,洗足１丁目２８番２号ハートランドテラス３Ｆ,,13,110,1520012,,,,,,,2025-01-27,1,,,,,パブリッシングブランディング,0
1444,3011005010831,新規,0,2025-01-27,2025-01-27,一般社団法人カオスキャンプ,,その他の設立登記法人,東京都,渋谷区,渋谷２丁目１０番６号,,13,113,1500002,,,,,,,2025-01-27,1,,,,,カオスキャンプ,0
1451,3011103015443,新規,0,2025-01-27,2025-01-27,合同会社ＮＯ　ＳＥＮＳＥ,,合同会社,東京都,新宿区,高田馬場２丁目１９－８－３０３,,13,104,1690075,,,,,,,2025-01-27,1,,,,,ノーセンス,0
1466,3011803006634,新規,0,2025-01-27,2025-01-27,合同会社Ｇｌａｔｔｐａｒｋ,,合同会社,東京都,葛飾区,新小岩２丁目２１番３号,,13,122,1240024,,,,,,,2025-01-27,1,,,,,グラットパーク,0
1467,3011803006659,新規,0,2025-01-27,2025-01-27,合同会社あおい未来クリエイト,,合同会社,東京都,足立区,青井４丁目３０番１６－８０８号,,13,121,1210012,,,,,,,2025-01-27,1,,,,,アオイミライクリエイト,0
1472,3013301053670,新規,0,2025-01-27,2025-01-27,株式会社Ｎｏｂａｔｏ,,株式会社,東京都,豊島区,南大塚２丁目３８番１号リードシー大塚ビル６Ｆ－２０,,13,116,1700005,,,,,,,2025-01-27,1,,,,,ノバト,0
1473,3013301053679,新規,0,2025-01-27,2025-01-27,ＡＭＢＲＡ株式会社,,株式会社,東京都,豊島区,池袋２丁目１４番１０号ミゾタビル５・７Ｆ,,13,116,1710014,,,,,,,2025-01-27,1,,,,,アンブラ,0
1474,3013303007501,新規,0,2025-01-27,2025-01-27,合同会社メガプロ,,合同会社,東京都,豊島区,東池袋１丁目３３番４－３１０号,,13,116,1700013,,,,,,,2025-01-27,1,,,,,メガプロ,0
1480,3020001160854,新規,0,2025-01-27,2025-01-27,ＢＩＴ株式会社,,株式会社,神奈川県,横浜市瀬谷区,南台２丁目５番地４,,14,114,2460032,,,,,,,2025-01-27,1,,,,,ビーアイティー,0
1481,3020001161002,新規,0,2025-01-27,2025-01-27,株式会社ふくろう堂,,株式会社,神奈川県,横浜市泉区,上飯田町３５９０番地の１,,14,116,2450018,,,,,,,2025-01-27,1,,,,,フクロウドウ,0
1482,3020001161051,新規,0,2025-01-27,2025-01-27,株式会社ウィズロード,,株式会社,神奈川県,横浜市西区,浅間町１丁目４番地３ウィザードビル４０２,,14,103,2200072,,,,,,,2025-01-27,1,,,,,ウィズロード,0
1483,3020001161159,新規,0,2025-01-27,2025-01-27,株式会社クリーフ,,株式会社,神奈川県,横浜市港北区,日吉２丁目２７番１－４０６号,,14,109,2230061,,,,,,,2025-01-27,1,,,,,クリーフ,0
1486,3020003027580,新規,0,2025-01-27,2025-01-27,合同会社ＥＮＥＲＧＹ,,合同会社,神奈川県,川崎市川崎区,渡田向町２２－３－５０４ユニテ大森,,14,131,2100841,,,,,,,2025-01-27,1,,,,,エナジー,0
1487,3020003027597,新規,0,2025-01-27,2025-01-27,ＴＧＬジャパン合同会社,,合同会社,神奈川県,横浜市西区,北幸１丁目１１番１号水信ビル７階,,14,103,2200004,,,,,,,2025-01-27,1,,,,,ティージーエルジャパン,0
1488,3020003027622,新規,0,2025-01-27,2025-01-27,合同会社ＴｉｎｙＧｒｏｗｓ,,合同会社,神奈川県,川崎市川崎区,砂子２丁目１０番２カワサキ・ミッドマークタワー７１０,,14,131,2100006,,,,,,,2025-01-27,1,,,,,タイニーグロース,0
1493,3021001084317,新規,0,2025-01-27,2025-01-27,株式会社ＬＩＫ,,株式会社,神奈川県,茅ヶ崎市,中海岸４丁目１番２号,,14,207,2530055,,,,,,,2025-01-27,1,,,,,エルアイケー,0
1494,3021001084333,新規,0,2025-01-27,2025-01-27,株式会社ＫＩＮＣＯＢＡＮ,,株式会社,神奈川県,小田原市,前川４７４番地の１,,14,206,2560813,,,,,,,2025-01-27,1,,,,,キンコバン,0
1502,3030001164391,新規,0,2025-01-27,2025-01-27,株式会社勇工業,,株式会社,埼玉県,狭山市,大字北入曽７３５番地の３,,11,215,3501315,,,,,,,2025-01-27,1,,,,,イサミコウギョウ,0
1505,3030003025930,新規,0,2025-01-27,2025-01-27,通商貿易合同会社,,合同会社,埼玉県,川口市,西川口１丁目３０－２０Ｔ・Ｂ・Ｓ企画ビル３階１３号室,,11,203,3320021,,,,,,,2025-01-27,1,,,,,ツウショウボウエキ,0
1507,3040001137108,新規,0,2025-01-27,2025-01-27,株式会社Ａｔｅ　ｔｈａｔ,,株式会社,千葉県,松戸市,小根本５１－２レジデンスユーカリ２０２,,12,207,2710073,,,,,,,2025-01-27,1,,,,,エイトザット,0
1508,3040001137157,新規,0,2025-01-27,2025-01-27,株式会社マロンホームス,,株式会社,千葉県,柏市,豊四季６０８番地１ヴェル・クレージュ３０５,,12,217,2770863,,,,,,,2025-01-27,1,,,,,マロンホームス,0
1509,3040001137173,新規,0,2025-01-27,2025-01-27,潤徳デジタル株式会社,,株式会社,千葉県,松戸市,松戸新田１６８番地の６６,,12,207,2702241,,,,,,,2025-01-27,1,,,,,ジュントクデジタル,0
1514,3040003026696,新規,0,2025-01-27,2025-01-27,合同会社龍翔建設,,合同会社,千葉県,木更津市,八幡台７丁目１－６,,12,206,2920814,,,,,,,2025-01-27,1,,,,,リュウショウケンセツ,0
1516,3040005022644,新規,0,2025-01-27,2025-01-27,一般社団法人ＲＥＶＥ千葉スポーツクラブ,,その他の設立登記法人,千葉県,千葉市稲毛区,園生町５６３番地７,,12,103,2630051,,,,,,,2025-01-27,1,,,,,レーヴチバスポーツクラブ,0
1538,3070001042585,新規,0,2025-01-27,2025-01-27,株式会社ファーム・ファースト,,株式会社,群馬県,館林市,つつじ町１３番３号,,10,207,3740017,,,,,,,2025-01-27,1,,,,,ファームファースト,0
1542,3080003003378,新規,0,2025-01-27,2025-01-27,Ｎｉｔａｋａ　ａｃｃｏｕｎｔｉｎｇ合同会社,,合同会社,静岡県,静岡市駿河区,中田２丁目２番１０‐６０３号,,22,102,4228041,,,,,,,2025-01-27,1,,,,,ニタカアカウンティング,0
1546,3080401027706,新規,0,2025-01-27,2025-01-27,株式会社ＮＡＮＥＡ,,株式会社,静岡県,浜松市中央区,鍛冶町１００－１ザザシティ浜松中央館Ｂ１Ｆ,,22,138,4300933,,,,,,,2025-01-27,1,,,,,ナネア,0
1548,3080403005189,新規,0,2025-01-27,2025-01-27,合同会社Ａｌｇｏｍｕｓｉｃａ,,合同会社,静岡県,浜松市中央区,千歳町９１番地１,,22,138,4300934,,,,,,,2025-01-27,1,,,,,アルゴムジカ,0
1554,3090003002726,新規,0,2025-01-27,2025-01-27,合同会社ＩＨＫ,,合同会社,山梨県,南都留郡山中湖村,平野５１９－１－Ｂ４０１,,19,425,4010502,,,,,,,2025-01-27,1,,,,,アイエイチケー,0
1564,3110001039016,新規,0,2025-01-27,2025-01-27,株式会社ｃｏｚｙ　ｄａｙｓ,,株式会社,新潟県,上越市,大字滝寺１７１０番地１,,15,222,9430897,,,,,,,2025-01-27,1,,,,,コージーデイズ,0
1574,3120001272227,新規,0,2025-01-27,2025-01-27,歓喜株式会社,,株式会社,大阪府,大阪市北区,天満２丁目１番１２号天満橋ＳＥビル４階,,27,127,5300043,,,,,,,2025-01-27,1,,,,,カンキ,0
1575,3120001272284,新規,0,2025-01-27,2025-01-27,日本正源株式会社,,株式会社,大阪府,大阪市西成区,花園北１丁目７番１４号５０２－Ｂ号室,,27,122,5570016,,,,,,,2025-01-27,1,,,,,ニホンマサモト,0
1578,3120105009962,新規,0,2025-01-27,2025-01-27,一般社団法人泉州南メディカルネットワーク,,その他の設立登記法人,大阪府,泉佐野市,りんくう往来北２番地の２３,,27,213,5980048,,,,,,,2025-01-27,1,,,,,センシュウミナミメディカルネットワーク,0
1585,3130001078854,新規,0,2025-01-27,2025-01-27,井手金属株式会社,,株式会社,京都府,綴喜郡井手町,大字井手小字浜田３９番地の１０,,26,343,6100302,,,,,,,2025-01-27,1,,,,,イデキンゾク,0
1589,3140001137205,新規,0,2025-01-27,2025-01-27,株式会社ミライトサポート,,株式会社,兵庫県,姫路市,花田町高木１０９番地１,,28,201,6710256,,,,,,,2025-01-27,1,,,,,ミライトサポート,0
1593,3140005027360,新規,0,2025-01-27,2025-01-27,医療法人さつき会,,その他の設立登記法人,兵庫県,川西市,火打１丁目１６番６号オアシスタウンキセラ川西２階,,28,217,6660017,,,,,,,2025-01-27,1,,,,,サツキカイ,0
1597,3170001018468,新規,0,2025-01-27,2025-01-27,エスケアリンクス株式会社,,株式会社,和歌山県,和歌山市,三木町堀詰２番地グランディレジデンス１３０１号,,30,201,6408107,,,,,,,2025-01-27,1,,,,,エスケアリンクス,0
1602,3180003027912,新規,0,2025-01-27,2025-01-27,トミーメディカル合同会社,,合同会社,愛知県,名古屋市天白区,焼山１丁目１０１番地東山イーストＢ－Ｇ,,23,116,4680002,,,,,,,2025-01-27,1,,,,,トミーメディカル,0
1604,3190001031964,新規,0,2025-01-27,2025-01-27,株式会社Ａ＆Ｓ,,株式会社,三重県,鈴鹿市,道伯町２１３９番地の１０５,,24,207,5130824,,,,,,,2025-01-27,1,,,,,エーアンドエス,0
1607,3200001043371,新規,0,2025-01-27,2025-01-27,ｔｅｒｒａ株式会社,,株式会社,岐阜県,岐阜市,西川手５丁目１００番地,,21,201,5008258,,,,,,,2025-01-27,1,,,,,テッラ,0
1608,3200001043388,新規,0,2025-01-27,2025-01-27,株式会社グットバード,,株式会社,岐阜県,土岐市,下石町２９２番地の２７,,21,212,5095202,,,,,,,2025-01-27,1,,,,,グットバード,0
1639,3230001020723,新規,0,2025-01-27,2025-01-27,マネジャー株式会社,,株式会社,富山県,富山市,清風町２０４,,16,201,9318409,,,,,,,2025-01-27,1,,,,,マネジャー,0
1641,3240001064430,新規,0,2025-01-27,2025-01-27,比治山社中株式会社,,株式会社,広島県,広島市安佐南区,山本新町３丁目３０番１号,,34,105,7310139,,,,,,,2025-01-27,1,,,,,ヒジヤマシャチュウ,0
1643,3240003007032,新規,0,2025-01-27,2025-01-27,合同会社ｒｅａｌｉｓｅ,,合同会社,広島県,広島市安佐北区,可部南１丁目１９番１９－３号,,34,106,7310223,,,,,,,2025-01-27,1,,,,,リアライズ,0
1646,3260001039843,新規,0,2025-01-27,2025-01-27,株式会社Ｇ‐ＬＩＮＥ中四国,,株式会社,岡山県,岡山市南区,郡２９８０番地１２３,,33,104,7028011,,,,,,,2025-01-27,1,,,,,,0
1647,3260001039851,新規,0,2025-01-27,2025-01-27,株式会社サポベース,,株式会社,岡山県,岡山市東区,西大寺上１丁目３番５－３号,,33,103,7048112,,,,,,,2025-01-27,1,,,,,サポベース,0
1665,3290801031229,新規,0,2025-01-27,2025-01-27,株式会社ＧＲＭＰ,,株式会社,福岡県,北九州市八幡西区,折尾４丁目８番１０－１３０２号,,40,109,8070825,,,,,,,2025-01-27,1,,,,,グランプ,0
1666,3300001014057,新規,0,2025-01-27,2025-01-27,株式会社手塚電気,00137785,株式会社,佐賀県,神埼市,神埼町竹３３０番地,,41,210,8420011,,,,,,,2025-01-27,1,,,,,テツカデンキ,0
1667,3310003004922,新規,0,2025-01-27,2025-01-27,合同会社エイト,,合同会社,長崎県,諫早市,飯盛町里１０４１,,42,204,8541123,,,,,,,2025-01-27,1,,,,,エイト,0
1709,3320001020912,新規,0,2025-01-27,2025-01-27,株式会社スマイルテック,,株式会社,大分県,大分市,大字葛木１３７番地の３６,,44,201,8700133,,,,,,,2025-01-27,1,,,,,スマイルテック,0
1714,3320003004566,新規,0,2025-01-27,2025-01-27,合同会社ＭＤＫ,,合同会社,大分県,別府市,浜脇３丁目２番１０号,,44,202,8740947,,,,,,,2025-01-27,1,,,,,エムディケイ,0
1715,3320005010216,新規,0,2025-01-27,2025-01-27,農事組合法人麦友会,,その他の設立登記法人,大分県,大分市,大字松岡１５０２番地の３,,44,201,8700125,,,,,,,2025-01-27,1,,,,,バクユウカイ,0
1720,3330001032840,新規,0,2025-01-27,2025-01-27,株式会社ＣＲＥＶＩＡ,,株式会社,熊本県,熊本市中央区,下通１丁目１２－２７下通ビル５Ｆ,,43,101,8600807,,,,,,,2025-01-27,1,,,,,クレビア,0
1722,3340001027088,新規,0,2025-01-27,2025-01-27,株式会社ＯＭトレーディング,,株式会社,鹿児島県,日置市,東市来町美山１５４２番地Ｂ棟１０３号室,,46,216,8992431,,,,,,,2025-01-27,1,,,,,オーエムトレーディング,0
1724,3360001034710,新規,0,2025-01-27,2025-01-27,株式会社チョンダラーｉｓｌａｎｄ,,株式会社,沖縄県,宮古島市,平良字西里２４１番地友利ビル３Ｆ,,47,214,9060012,,,,,,,2025-01-27,1,,,,,チョンダラーアイランド,0
1725,3360001034719,新規,0,2025-01-27,2025-01-27,株式会社薩那社中,,株式会社,沖縄県,沖縄市,中央１丁目７－８,,47,211,9040004,,,,,,,2025-01-27,1,,,,,サツナシャチュウ,0
1740,3380001035046,新規,0,2025-01-27,2025-01-27,株式会社ふくしま未来サポート,,株式会社,福島県,福島市,笹谷字南一本松２番地の４,,07,201,9600241,,,,,,,2025-01-27,1,,,,,フクシマミライサポート,0
1743,3380005012909,新規,0,2025-01-27,2025-01-27,一般社団法人日本臨床統合医療学会,,その他の設立登記法人,福島県,双葉郡大熊町,大字下野上字清水２３０,,07,545,9791308,,,,,,,2025-01-27,1,,,,,ニホンリンショウトウゴウイリョウガッカイ,0
2030,3430001093534,新規,0,2025-01-27,2025-01-27,株式会社ＮＯＢ’Ｓ　ＣＯＭＰＡＮＹ,,株式会社,北海道,札幌市豊平区,中の島二条６丁目１番５号,,01,105,0620922,,,,,,,2025-01-27,1,,,,,ノブズカンパニー,0
2031,3430001093542,新規,0,2025-01-27,2025-01-27,株式会社スカイウィッシュ,,株式会社,北海道,江別市,東光町６番地の６,,01,217,0670023,,,,,,,2025-01-27,1,,,,,スカイウォッシュ,0
2044,3430003017219,新規,0,2025-01-27,2025-01-27,合同会社ニセコグローバルサポート,,合同会社,北海道,虻田郡ニセコ町,字ニセコ３８６番地２４ニセコヴィレッジ４０３号室,,01,395,0481511,,,,,,,2025-01-27,1,,,,,ニセコグローバルサポート,0
2049,3440001009555,新規,0,2025-01-27,2025-01-27,株式会社勇進建設,,株式会社,北海道,函館市,東山町１５７番地１９２,,01,202,0410834,,,,,,,2025-01-27,1,,,,,ユウシンケンセツ,0
2050,3440003001659,新規,0,2025-01-27,2025-01-27,合同会社ダイエー,,合同会社,北海道,亀田郡七飯町,字峠下３３０番地２,,01,337,0411102,,,,,,,2025-01-27,1,,,,,ダイエー,0
2051,3450001014513,新規,0,2025-01-27,2025-01-27,武田ファーム株式会社,,株式会社,北海道,旭川市,永山町９丁目６０番地２３,,01,204,0798431,,,,,,,2025-01-27,1,,,,,タケダファーム,0
2053,3470001020550,新規,0,2025-01-27,2025-01-27,株式会社ＳＦＬ,,株式会社,香川県,高松市,出作町６２５番地３ＳＦＬビル,,37,201,7618077,,,,,,,2025-01-27,1,,,,,エスエフエル,0
2054,3480001012729,新規,0,2025-01-27,2025-01-27,株式会社兼光不動産,,株式会社,徳島県,徳島市,中島田町３丁目１１番地１３,,36,201,7700052,,,,,,,2025-01-27,1,,,,,カネミツフドウサン,0
2071,3500001026057,新規,0,2025-01-27,2025-01-27,株式会社ＯＭＩＳＯ,,株式会社,愛媛県,西予市,宇和町下松葉３８番１号,,38,214,7970018,,,,,,,2025-01-27,1,,,,,オミソ,0
2072,3500001026115,新規,0,2025-01-27,2025-01-27,株式会社絆,,株式会社,愛媛県,松山市,日の出町８番３８号,,38,201,7900961,,,,,,,2025-01-27,1,,,,,キズナ,0
2073,3700150128963,新規,0,2025-01-27,2025-01-27,ＯＤＯＲＳＥＡＬ　ＰＴＥ．ＬＴＤ．,,外国会社等,,,,,,,,６　Ｒａｆｆｌｅｓ　Ｑｕａｙ，＃１４－０６，Ｓｉｎｇａｐｏｒｅ　０４８５８０　Ｓｉｎｇａｐｏｒｅ　０４８５８０　ＳＧ,,,,,,2025-01-27,1,,,,,オダシールプライベートリミテツド,0
2074,3700150128971,新規,0,2025-01-27,2025-01-27,ＥＶＯＬＵＴＩＯＮ　ＡＵＴＯ　ＬＡＮＫＡ,,外国会社等,千葉県,山武市,木原１４０１番地オフィス４,,12,237,2891212,スリランカ民主社会主義共和国、カトゥガストタ、マダワラロード、Ｎｏ．２７２,,,,,,2025-01-27,1,,,,,エボリユーシヨンオートランカ,0
2078,4010001251273,新規,0,2025-01-27,2025-01-27,株式会社ストリームテック,,株式会社,東京都,千代田区,神田須田町１丁目７番地８ＶＯＲＴ秋葉原ＩＶ２Ｆ,00137777,13,101,1010041,,,,,,,2025-01-27,1,,,,,ストリームテック,0
2079,4010001251637,新規,0,2025-01-27,2025-01-27,株式会社以友社,,株式会社,東京都,千代田区,神田神保町２丁目１２番地２,,13,101,1010051,,,,,,,2025-01-27,1,,,,,イユウシャ,0
2080,4010001251653,新規,0,2025-01-27,2025-01-27,株式会社ＸｅｎｏＡＩ,,株式会社,東京都,中央区,日本橋室町１丁目１１番１２号日本橋水野ビル７階,,13,102,1030022,,,,,,,2025-01-27,1,,,,,ゼノエーアイ,0
2081,4010001251711,新規,0,2025-01-27,2025-01-27,ＨＴ　Ｐｌｕｓコーポレーション株式会社,,株式会社,東京都,千代田区,飯田橋２丁目３番１号東京フジビル４０２号室,,13,101,1020072,,,,,,,2025-01-27,1,,,,,エイチティープラスコーポレーション,0
2085,4010101016493,新規,0,2025-01-27,2025-01-27,株式会社エタニティ,,株式会社,東京都,八王子市,下柚木２丁目２７番地５（２０３号）,,13,201,1920372,,,,,,,2025-01-27,1,,,,,エタニティ,0
2087,4010401187679,新規,0,2025-01-27,2025-01-27,株式会社インスウェーブジャパン,,株式会社,東京都,港区,三田１丁目４番２８号三田国際ビル２Ｆ,,13,103,1080073,,,,,,,2025-01-27,1,,,,,インスウェーブジャパン,0
2088,4010401187704,新規,0,2025-01-27,2025-01-27,株式会社ミツチ,,株式会社,東京都,港区,芝５丁目３２－１２シャーメゾンステージ田町３Ｆ－７ＦＴＨＥＨＵＢ田町,,13,103,1080014,,,,,,,2025-01-27,1,,,,,ミツチ,0
2089,4010401187712,新規,0,2025-01-27,2025-01-27,株式会社ＫＩＭＥＩ,,株式会社,東京都,港区,北青山１丁目３番１号アールキューブ青山３階,,13,103,1070061,,,,,,,2025-01-27,1,,,,,キメイ,0
2090,4010401187729,新規,0,2025-01-27,2025-01-27,株式会社ＤＭＬ,,株式会社,東京都,港区,高輪１丁目４番８－９０１号,,13,103,1080074,,,,,,,2025-01-27,1,,,,,ディーエムエル,0
2091,4010401187761,新規,0,2025-01-27,2025-01-27,株式会社芝リアルエステート,,株式会社,東京都,港区,芝２丁目１番３０号,,13,103,1050014,,,,,,,2025-01-27,1,,,,,シバリアルエステート,0
2095,4010403034202,新規,0,2025-01-27,2025-01-27,合同会社ＹＡＯＹＡ　ＴＯＫＹＯ,,合同会社,東京都,港区,南青山２丁目２番１５号,,13,103,1070062,,,,,,,2025-01-27,1,,,,,ヤオヤトーキョー,0
2097,4010405023962,新規,0,2025-01-27,2025-01-27,一般社団法人日本パーソナルカラースタイル協会,,その他の設立登記法人,東京都,港区,南青山２丁目２番６号,,13,103,1070062,,,,,,,2025-01-27,1,,,,,ニホンパーソナルカラースタイルキョウカイ,0
2098,4010405023970,新規,0,2025-01-27,2025-01-27,一般社団法人麻布十番倶楽部,,その他の設立登記法人,東京都,港区,麻布十番３丁目１３番５－２０２号,,13,103,1060045,,,,,,,2025-01-27,1,,,,,アザブジュウバンクラブ,0
2099,4010501053500,新規,0,2025-01-27,2025-01-27,株式会社金葉,,株式会社,東京都,台東区,上野５丁目１８番４号ダイヤオフィスビル５０４号室,,13,106,1100005,,,,,,,2025-01-27,1,,,,,キンヨウ,0
2101,4010705003722,新規,0,2025-01-27,2025-01-27,一般社団法人ＪＯＮＡＮ　Ｈｅａｒｔ　Ｆａｉｌｕｒｅ　Ｍｅｄｉｃａｌ　Ｃｏｌｌａｂｏｒａｔｉｏｎ,,その他の設立登記法人,東京都,品川区,東五反田５丁目９番２２号,,13,109,1410022,,,,,,,2025-01-27,1,,,,,ジョウナンハートフェイラーメディカルコラボレイション,0
2102,4010801035784,新規,0,2025-01-27,2025-01-27,クロスレモン株式会社,,株式会社,東京都,大田区,鵜の木２丁目１５－１７,,13,111,1460091,,,,,,,2025-01-27,1,,,,,クロスレモン,0
2103,4010803005257,新規,0,2025-01-27,2025-01-27,合同会社Ｌｉｅｎｋｓ,,合同会社,東京都,大田区,蒲田４丁目１０－１４－１６１４,,13,111,1440052,,,,,,,2025-01-27,1,,,,,リエンクス,0
2110,4011001167385,新規,0,2025-01-27,2025-01-27,株式会社ｈｅａｒｔｙ,,株式会社,東京都,渋谷区,代々木３丁目４９番６号フォレスト代々木Ｃ１０１,,13,113,1510053,,,,,,,2025-01-27,1,,,,,ハーティー,0
2113,4011101110385,新規,0,2025-01-27,2025-01-27,Ｓｕｎｃｌｏｔｈｉｎｇ株式会社,,株式会社,東京都,新宿区,西新宿６丁目１２番７号ストーク新宿,,13,104,1600023,,,,,,,2025-01-27,1,,,,,サンクロージング,0
2117,4011501031603,新規,0,2025-01-27,2025-01-27,翔正国際株式会社,,株式会社,東京都,北区,浮間１丁目１－１４リムジンビル３４２号,,13,117,1150051,,,,,,,2025-01-27,1,,,,,ショウセイコクサイ,0
2120,4011703004092,新規,0,2025-01-27,2025-01-27,合同会社猫だらけ,,合同会社,東京都,江戸川区,東小岩３丁目２４番９号,,13,123,1330052,,,,,,,2025-01-27,1,,,,,ネコダラケ,0
2125,4012403006932,新規,0,2025-01-27,2025-01-27,富樫不動産合同会社,,合同会社,東京都,三鷹市,井の頭２丁目２０番２４号ソーラーコーポ２０１,,13,204,1810001,,,,,,,2025-01-27,1,,,,,トガシフドウサン,0
2128,4013301053678,新規,0,2025-01-27,2025-01-27,株式会社明治館,,株式会社,東京都,豊島区,西池袋２丁目４３番５－２０１号,,13,116,1710021,,,,,,,2025-01-27,1,,,,,メイジカン,0
2140,4020001160969,新規,0,2025-01-27,2025-01-27,株式会社かねさわ,,株式会社,神奈川県,川崎市中原区,下新城１丁目８－６－１０１,,14,133,2110042,,,,,,,2025-01-27,1,,,,,カネサワ,0
2142,4020003027621,新規,0,2025-01-27,2025-01-27,合同会社エムビーエス,,合同会社,神奈川県,横浜市西区,北幸２丁目１０番４８号むつみビル３階,,14,103,2200004,,,,,,,2025-01-27,1,,,,,エムビーエス,0
2143,4020003027654,新規,0,2025-01-27,2025-01-27,合同会社ＴＣＭ,,合同会社,神奈川県,横浜市西区,西平沼町１番２２－９０１号,,14,103,2200024,,,,,,,2025-01-27,1,,,,,ティーシーエム,0
2144,4021001084316,新規,0,2025-01-27,2025-01-27,株式会社ナーブレイン,,株式会社,神奈川県,藤沢市,鵠沼橘１丁目１７番４号第一興産２８号館４０２号室,,14,205,2510024,,,,,,,2025-01-27,1,,,,,ナーブレイン,0
2145,4021001084324,新規,0,2025-01-27,2025-01-27,株式会社ＫＯＹＯＲＩ,,株式会社,神奈川県,鎌倉市,台１９３６番地,,14,204,2470061,,,,,,,2025-01-27,1,,,,,コヨリ,0
2146,4021001084332,新規,0,2025-01-27,2025-01-27,はたらぼ株式会社,,株式会社,神奈川県,相模原市南区,鵜野森２丁目２５番１２号,,14,153,2520301,,,,,,,2025-01-27,1,,,,,ハタラボ,0
2150,4021003015500,新規,0,2025-01-27,2025-01-27,ＧＡＫＵ総合マネジメントサービス合同会社,,合同会社,神奈川県,藤沢市,白旗３丁目３―Ｄ,,14,205,2510051,,,,,,,2025-01-27,1,,,,,ガクソウゴウマネジメントサービス,0
2159,4030003025954,新規,0,2025-01-27,2025-01-27,祐祥合同会社,,合同会社,埼玉県,川口市,前川２丁目４１番７号,,11,203,3330842,,,,,,,2025-01-27,1,,,,,ユウショウ,0
2168,4040001137156,新規,0,2025-01-27,2025-01-27,いちかわクリーンエネルギー株式会社,,株式会社,千葉県,市川市,八幡１丁目１番１号,,12,203,2720021,,,,,,,2025-01-27,1,,,,,イチカワクリーンエネルギー,0
2169,4040001137172,新規,0,2025-01-27,2025-01-27,株式会社ＳＨＩ‐ＫＯＵ,,株式会社,千葉県,千葉市美浜区,中瀬１丁目３番地,,12,106,2610023,,,,,,,2025-01-27,1,,,,,シコウ,0
2173,4040003026695,新規,0,2025-01-27,2025-01-27,ＷｏＷ合同会社,,合同会社,千葉県,船橋市,前原西１丁目３７番１－８０３号,,12,204,2740825,,,,,,,2025-01-27,1,,,,,ワオ,0
2174,4040005022643,新規,0,2025-01-27,2025-01-27,一般社団法人運転と作業療法学会,,その他の設立登記法人,千葉県,大網白里市,南横川１６５６番地,,12,239,2993223,,,,,,,2025-01-27,1,,,,,ウンテントサギョウリョウホウガッカイ,0
2175,4050003008965,新規,0,2025-01-27,2025-01-27,合同会社三輪,,合同会社,茨城県,常陸大宮市,南町１１０５番地の５コーポちのねＣ棟１０７号室,,08,225,3192263,,,,,,,2025-01-27,1,,,,,ミワ,0
2176,4050003008973,新規,0,2025-01-27,2025-01-27,ＡＰＬＵＳ　ＪＡＰＡＮ合同会社,,合同会社,茨城県,水戸市,百合が丘町１番地の１２,,08,201,3111134,,,,,,,2025-01-27,1,,,,,アプラスジャパン,0
2200,4080403005188,新規,0,2025-01-27,2025-01-27,合同会社ＨＩＲＹＵ,,合同会社,静岡県,浜松市中央区,天龍川町５１番地の１,,22,138,4350013,,,,,,,2025-01-27,1,,,,,ヒリュウ,0
2211,4120001272226,新規,0,2025-01-27,2025-01-27,ＣａｓｅＳｔａｔｉｏｎ株式会社,,株式会社,大阪府,大阪市天王寺区,伶人町２番３１号ＳｔａｒＯｆｆｉｃｅ大阪天王寺北６０５号室,,27,109,5430061,,,,,,,2025-01-27,1,,,,,ケースステーション,0
2212,4120001272267,新規,0,2025-01-27,2025-01-27,さくらエレベーター株式会社,,株式会社,大阪府,大阪市西成区,南津守７丁目４番１２－５０３号,,27,122,5570063,,,,,,,2025-01-27,1,,,,,サクラエレベーター,0
2213,4120001272283,新規,0,2025-01-27,2025-01-27,株式会社こころ,,株式会社,大阪府,大阪市淀川区,西中島７丁目１番３号チサンマンション第８新大阪９０７号室,,27,123,5320011,,,,,,,2025-01-27,1,,,,,ココロ,0
2214,4120001272358,新規,0,2025-01-27,2025-01-27,デジタル革命株式会社,,株式会社,大阪府,大阪市中央区,南本町３丁目３番２５－９０４号,,27,128,5410054,,,,,,,2025-01-27,1,,,,,デジタルカクメイ,0
2216,4120005024739,新規,0,2025-01-27,2025-01-27,医療法人健晶会,,その他の設立登記法人,大阪府,大阪市都島区,友渕町２丁目１５番２８ベルファ２、１階,,27,102,5340016,,,,,,,2025-01-27,1,,,,,ケンショウカイ,0
2217,4120005024755,新規,0,2025-01-27,2025-01-27,医療法人北野歯科医院,,その他の設立登記法人,大阪府,大阪市旭区,中宮３丁目８番２１号,,27,117,5350003,,,,,,,2025-01-27,1,,,,,キタノシカイイン,0
2218,4120101070950,新規,0,2025-01-27,2025-01-27,株式会社Ｌｙｎｘ,,株式会社,大阪府,羽曳野市,島泉９丁目１４－８シャルマンコーポ高鷲２０７,,27,222,5830881,,,,,,,2025-01-27,1,,,,,リンクス,0
2219,4120101070967,新規,0,2025-01-27,2025-01-27,株式会社ＳＳＲ,,株式会社,大阪府,松原市,松ケ丘３丁目１番４号,,27,217,5800042,,,,,,,2025-01-27,1,,,,,エスエスアール,0
2220,4120101070975,新規,0,2025-01-27,2025-01-27,株式会社ＭＡＨＩＮＡ,,株式会社,大阪府,岸和田市,宮本町１７９－１,,27,202,5960054,,,,,,,2025-01-27,1,,,,,マヒナ,0
2221,4120103006250,新規,0,2025-01-27,2025-01-27,合同会社Ｌｉｆｅ　Ｒｅｌａｔｉｏｎｓ,,合同会社,大阪府,堺市西区,津久野町１丁７番４０－７０５号,,27,144,5938322,,,,,,,2025-01-27,1,,,,,ライフリレーションズ,0
2222,4120105009961,新規,0,2025-01-27,2025-01-27,医療法人皐鳳会,,その他の設立登記法人,大阪府,堺市西区,鳳南町３丁１９９番地１２アリオ鳳アリオモール２階２５４０,,27,144,5938325,,,,,,,2025-01-27,1,,,,,コウオウカイ,0
2225,4130001078861,新規,0,2025-01-27,2025-01-27,株式会社ＴＡＫ　ＪＡＰＡＮ,,株式会社,京都府,京都市下京区,御影町４５５番地５０４号,,26,106,6008447,,,,,,,2025-01-27,1,,,,,ティーエーケージャパン,0
2226,4130001078878,新規,0,2025-01-27,2025-01-27,株式会社スリーエス京都,,株式会社,京都府,京都市下京区,小稲荷町８５－２Ｇｒａｎｄ－Ｋ京都駅前ビル２０１,,26,106,6008208,,,,,,,2025-01-27,1,,,,,スリーエスキョウト,0
2227,4130003010161,新規,0,2025-01-27,2025-01-27,合同会社ＳＷ　ｐａｒｔｎｅｒｓ,,合同会社,京都府,京都市下京区,七条通油小路東入大黒町２２７番地第２キョートビル４０２,,26,106,6008223,,,,,,,2025-01-27,1,,,,,エスダブルパートナーズ,0
2230,4140001137162,新規,0,2025-01-27,2025-01-27,ファウンドリー株式会社,,株式会社,兵庫県,伊丹市,鋳物師１丁目７７番地,,28,207,6640011,,,,,,,2025-01-27,1,,,,,ファウンドリー,0
2231,4140001137204,新規,0,2025-01-27,2025-01-27,株式会社ＭＯＲＩＴＡ　Ｇｒｏｕｐ,,株式会社,兵庫県,淡路市,長畠５７２番地,,28,226,6561733,,,,,,,2025-01-27,1,,,,,モリタグループ,0
2235,4160001026512,新規,0,2025-01-27,2025-01-27,Ａｓｏｂｉ　ＶＡＣ株式会社,,株式会社,滋賀県,草津市,南草津プリムタウン４丁目２２番地５,,25,206,5250068,,,,,,,2025-01-27,1,,,,,アソビブイエーシー,0
2291,4240001064421,新規,0,2025-01-27,2025-01-27,株式会社ストックラボ,,株式会社,広島県,福山市,手城町４丁目３３番２９号,,34,207,7210966,,,,,,,2025-01-27,1,,,,,ストックラボ,0
2293,4260001039850,新規,0,2025-01-27,2025-01-27,株式会社ＳＳブルー,,株式会社,岡山県,倉敷市,下津井２丁目７番１８号,,33,202,7110927,,,,,,,2025-01-27,1,,,,,エスエスブルー,0
2294,4280003001914,新規,0,2025-01-27,2025-01-27,合同会社海ぷろ,,合同会社,島根県,松江市,菅田町２１６－１－２０１,,32,201,6900824,,,,,,,2025-01-27,1,,,,,,0
2296,4290001108776,新規,0,2025-01-27,2025-01-27,株式会社ＣＯＣＯＲＯ,,株式会社,福岡県,福岡市南区,寺塚１丁目１５番９号－１Ｆ,,40,134,8150074,,,,,,,2025-01-27,1,,,,,ココロ,0
2302,4290003016341,新規,0,2025-01-27,2025-01-27,合同会社ＳＫラボ,,合同会社,福岡県,大野城市,乙金台３丁目２番２９号,,40,219,8160903,,,,,,,2025-01-27,1,,,,,エスケイラボ,0
2352,4330001032831,新規,0,2025-01-27,2025-01-27,株式会社エンハンス,,株式会社,熊本県,玉名郡南関町,大字関町２００番地新大津山団地２２３,,43,367,8610803,,,,,,,2025-01-27,1,,,,,エンハンス,0
2354,4330003010744,新規,0,2025-01-27,2025-01-27,合同会社マイショップ熊本,,合同会社,熊本県,熊本市西区,二本木５丁目６番７号,,43,103,8600051,,,,,,,2025-01-27,1,,,,,マイショップクマモト,0
2358,4340001027070,新規,0,2025-01-27,2025-01-27,日高工業株式会社,00137786,株式会社,鹿児島県,日置市,伊集院町下谷口１０２７番地１Ｓｕｎｆｌｏｗｅｒｈｉｌｌｓ２０３,,46,216,8992501,,,,,,,2025-01-27,1,,,,,ヒダカコウギョウ,0
2360,4340005009809,新規,0,2025-01-27,2025-01-27,一般社団法人ともいき,,その他の設立登記法人,鹿児島県,大島郡瀬戸内町,大字阿木名４２９番地,,46,525,8941511,,,,,,,2025-01-27,1,,,,,トモイキ,0
2366,4360003014635,新規,0,2025-01-27,2025-01-27,琉球ケーアンドケー合同会社,,合同会社,沖縄県,那覇市,泊１丁目５番地７コーラルストーン泊８０５,,47,201,9000012,,,,,,,2025-01-27,1,,,,,リュウキュウケーアンドケー,0
2367,4360003014643,新規,0,2025-01-27,2025-01-27,合同会社琉球みらい電力,,合同会社,沖縄県,中頭郡中城村,字添石３１１番地,,47,328,9012404,,,,,,,2025-01-27,1,,,,,リュウキュウミライデンリョク,0
2373,4370001052173,新規,0,2025-01-27,2025-01-27,株式会社ＡＰＢｒａｉｎ,,株式会社,宮城県,仙台市宮城野区,榴岡４丁目３番１０号,,04,102,9830852,,,,,,,2025-01-27,1,,,,,エーピーブレーン,0
2374,4370001052181,新規,0,2025-01-27,2025-01-27,株式会社ＡＢＩＬＩＴ,,株式会社,宮城県,仙台市泉区,明石南５丁目１９番地の４,,04,105,9813101,,,,,,,2025-01-27,1,,,,,アビリット,0
2375,4370003006912,新規,0,2025-01-27,2025-01-27,ｅ‐ｇａｒｄｅｎ　ｆａｒｍ合同会社,,合同会社,宮城県,富谷市,成田６丁目８―２,,04,216,9813341,,,,,,,2025-01-27,1,,,,,イーガーデンファーム,0
2386,4420001018994,新規,0,2025-01-27,2025-01-27,株式会社エール,,株式会社,青森県,上北郡おいらせ町,緑ヶ丘６丁目５０番地２０１０,,02,412,0392187,,,,,,,2025-01-27,1,,,,,エール,0
2677,4430001093525,新規,0,2025-01-27,2025-01-27,Ｅ‐プロテック株式会社,,株式会社,北海道,札幌市南区,川沿八条４丁目５番２７号,,01,106,0050808,,,,,,,2025-01-27,1,,,,,イープロテック,0
2678,4430001093533,新規,0,2025-01-27,2025-01-27,株式会社今日よりあした,,株式会社,北海道,札幌市中央区,南二条東１丁目１番１３号南２条ビル４０３,,01,101,0600052,,,,,,,2025-01-27,1,,,,,キョウヨリアシタ,0
2690,4450001014512,新規,0,2025-01-27,2025-01-27,株式会社栄真設備,,株式会社,北海道,旭川市,北門町１４丁目２１４５番地１２７,,01,204,0700825,,,,,,,2025-01-27,1,,,,,エイシンセツビ,0
2691,4480001012728,新規,0,2025-01-27,2025-01-27,やまもと工業株式会社,,株式会社,徳島県,吉野川市,山川町八幡１２３番地２,,36,205,7793403,,,,,,,2025-01-27,1,,,,,ヤマモトコウギョウ,0
2692,4480003002215,新規,0,2025-01-27,2025-01-27,合同会社藍鷺,,合同会社,徳島県,徳島市,中央通３丁目８－４,,36,201,7700936,,,,,,,2025-01-27,1,,,,,アイル,0
2709,4490003001975,新規,0,2025-01-27,2025-01-27,合同会社スマネク,,合同会社,高知県,室戸市,室戸岬町４９１９番地,,39,202,7817101,,,,,,,2025-01-27,1,,,,,,0
2712,4700150128962,新規,0,2025-01-27,2025-01-27,Ｆｏｓｈａｎｓｈｉｈｕａｙｕｋｅｊｉｙｏｕｘｉａｎｇｏｎｇｓｉ,,外国会社等,,,,,,,,Ｓｔａｒｌｉｇｈｔ　Ｐｌａｚａ，Ｎｏ．Ｂ２７０　Ｅａｓｔ　Ｌｅｃｏｎｇ　Ａｖｅｎｕｅ，Ｌｅｃｏｎｇ　Ｔｏｗｎ，Ｓｈｕｎｄｅ　Ｄｉｓｔｒｉｃｔ　２９１２　Ｂｌｏｃｋ　Ｂ　Ｆｏｓｈａｎ　ｃｉｔｙ　Ｇｕａｎｇｄｏｎｇ,,,,,,2025-01-27,1,,,,,フオーシヤンシーホワユーコウジヨウユウゲンガイシヤ,0
2713,4700150128970,新規,0,2025-01-27,2025-01-27,ＭＯＴＯＲＢＡＹ　ＣＯＲＰＯＲＡＴＩＯＮ,,外国会社等,千葉県,山武市,木原２０３１番地１５、Ｄ２０,,12,237,2891212,スリランカ民主社会主義共和国、キャンディ、アラワトゥゴダ、マタレロード、Ｎｏ．１７１／３／４２,,,,,,2025-01-27,1,,,,,モーターベイコーポレーシヨン,0
2722,5010001251669,新規,0,2025-01-27,2025-01-27,株式会社ｏｎｌｙ　ｏｎｅ,,株式会社,東京都,中央区,京橋２丁目７－８,,13,102,1040031,,,,,,,2025-01-27,1,,,,,オンリーワン,0
2723,5010001251727,新規,0,2025-01-27,2025-01-27,ユマニタス株式会社,,株式会社,東京都,中央区,八重洲２丁目１－１ＹＡＮＭＡＲ・ＴＯＫＹＯ１２階,,13,102,1040028,,,,,,,2025-01-27,1,,,,,ユマニタス,0
2726,5010003046159,新規,0,2025-01-27,2025-01-27,合同会社こよみ,,合同会社,東京都,中央区,銀座１丁目１２－４Ｎ＆ＥＢＬＤ．７階,,13,102,1040061,,,,,,,2025-01-27,1,,,,,コヨミ,0
2727,5010005039474,新規,0,2025-01-27,2025-01-27,トリピックル一般社団法人,,その他の設立登記法人,東京都,千代田区,丸の内１丁目４番１号東京共同会計事務所内,,13,101,1000005,,,,,,,2025-01-27,1,,,,,トリピックル,0
2730,5010401187703,新規,0,2025-01-27,2025-01-27,株式会社ラチカル,,株式会社,東京都,港区,南青山２丁目２番１５号ウィン青山９４２,,13,103,1070062,,,,,,,2025-01-27,1,,,,,ラチカル,0
2731,5010401187777,新規,0,2025-01-27,2025-01-27,ブルーペンシル株式会社,,株式会社,東京都,港区,麻布十番４丁目３番１－１０４５号,,13,103,1060045,,,,,,,2025-01-27,1,,,,,ブルーペンシル,0
2733,5010403034218,新規,0,2025-01-27,2025-01-27,Ｆｌｕｅｎｃｅ　Ｅｎｅｒｇｙ　Ｊａｐａｎ合同会社,,合同会社,東京都,港区,六本木１丁目９番１０号アークヒルズ仙石山森タワー２８Ｆベーカー＆マッケンジー法律事務所内,,13,103,1060032,,,,,,,2025-01-27,1,,,,,フルーエンスエナジージャパン,0
2736,5010405023978,新規,0,2025-01-27,2025-01-27,一般社団法人ｍｅｎ’ｓ　ｅｙｅｂｒｏｗｓ協会,,その他の設立登記法人,東京都,港区,新橋１丁目８番６号近江ビル６階,,13,103,1050004,,,,,,,2025-01-27,1,,,,,ニホンメンズアイブロウズキョウカイ,0
2737,5010601066665,新規,0,2025-01-27,2025-01-27,株式会社ｚｉｕｎｉ,,株式会社,東京都,墨田区,錦糸１丁目１７番９－６１２号パークタウンＩＩ,00137788,13,107,1300013,,,,,,,2025-01-27,1,,,,,ジユーニ,0
2739,5010703007542,新規,0,2025-01-27,2025-01-27,合同会社東京フォーチル,,合同会社,東京都,品川区,西五反田４丁目１１番８－３０１号,,13,109,1410031,,,,,,,2025-01-27,1,,,,,トウキョウフォーチル,0
2740,5010803005256,新規,0,2025-01-27,2025-01-27,合同会社天,,合同会社,東京都,大田区,蒲田１丁目２４番１６号シャトー蒲田第８ビル３０５号,,13,111,1440052,,,,,,,2025-01-27,1,,,,,テン,0
2741,5010901056713,新規,0,2025-01-27,2025-01-27,株式会社ＳＴＵＤＩＯ　ＣＩＴＹ,,株式会社,東京都,世田谷区,経堂５丁目３３番１３－５０２号,,13,112,1560052,,,,,,,2025-01-27,1,,,,,スタジオシティ,0
2742,5010903009669,新規,0,2025-01-27,2025-01-27,嘉帆合同会社,,合同会社,東京都,世田谷区,松原４丁目４番２号－４,,13,112,1560043,,,,,,,2025-01-27,1,,,,,カホ,0
2745,5011001167384,新規,0,2025-01-27,2025-01-27,株式会社ＲＩＳＥＯＮＥ,,株式会社,東京都,目黒区,自由が丘１丁目１４番１５号,,13,110,1520035,,,,,,,2025-01-27,1,,,,,ライズワン,0
2746,5011001167392,新規,0,2025-01-27,2025-01-27,株式会社１０ｓｅｎｓｅ,,株式会社,東京都,渋谷区,神宮前３丁目１４―１７神宮苑３０２,,13,113,1500001,,,,,,,2025-01-27,1,,,,,テンセンス,0
2747,5011003020830,新規,0,2025-01-27,2025-01-27,アドバリュー経営コンサルタンツ合同会社,,合同会社,東京都,渋谷区,西原１丁目４５－１４,,13,113,1510066,,,,,,,2025-01-27,1,,,,,アドバリューケイエイコンサルタンツ,0
2755,5011103015474,新規,0,2025-01-27,2025-01-27,合同会社イフリタ,,合同会社,東京都,新宿区,西新宿３丁目３番１３号西新宿水間ビル２Ｆ,,13,104,1600023,,,,,,,2025-01-27,1,,,,,イフリタ,0
2756,5011201026084,新規,0,2025-01-27,2025-01-27,株式会社スカラネクスト,,株式会社,東京都,中野区,東中野１丁目３５番１４号,,13,114,1640003,,,,,,,2025-01-27,1,,,,,スカラネクスト,0
2757,5011203004583,新規,0,2025-01-27,2025-01-27,合同会社ＫＭＮＰ,,合同会社,東京都,中野区,本町３丁目１９－２４ＬＥＧＡＬＡＮＤ中野本町３０３,,13,114,1640012,,,,,,,2025-01-27,1,,,,,ケーエムエヌピー,0
2758,5011501031602,新規,0,2025-01-27,2025-01-27,全日通国際旅行日本株式会社,,株式会社,東京都,北区,浮間１丁目１－１４リムジンビル３３０号,,13,117,1150051,,,,,,,2025-01-27,1,,,,,ゼンニッツウコクサイリョコウ,0
2760,5011603004588,新規,0,2025-01-27,2025-01-27,レイレゾン合同会社,,合同会社,東京都,練馬区,下石神井５丁目４番２３号,,13,120,1770042,,,,,,,2025-01-27,1,,,,,レイレゾン,0
2766,5011801045525,新規,0,2025-01-27,2025-01-27,株式会社Ｒｏｏｍｙ’ｓ,,株式会社,東京都,葛飾区,東立石３丁目３２番１号,,13,122,1240013,,,,,,,2025-01-27,1,,,,,ルーミーズ,0
2772,5012403006931,新規,0,2025-01-27,2025-01-27,グローバルコンシェルジュ合同会社,,合同会社,東京都,稲城市,東長沼１番地の２,,13,225,2060802,,,,,,,2025-01-27,1,,,,,グローバルコンシェルジュ,0
2786,5020001160877,新規,0,2025-01-27,2025-01-27,株式会社コンフラン・サント・ノリーヌ,,株式会社,神奈川県,川崎市中原区,下小田中２丁目８－１－１０１,,14,133,2110041,,,,,,,2025-01-27,1,,,,,コンフランサントノリーヌ,0
2787,5020001160976,新規,0,2025-01-27,2025-01-27,アントニオ保証株式会社,,株式会社,神奈川県,横浜市中区,黄金町２丁目８番地６ＹＡＲＤビル６Ｆ,,14,104,2310054,,,,,,,2025-01-27,1,,,,,アントニオホショウ,0
2788,5020001161058,新規,0,2025-01-27,2025-01-27,株式会社アースブルーム,,株式会社,神奈川県,横浜市中区,尾上町５丁目８０番地７０４号,,14,104,2310015,,,,,,,2025-01-27,1,,,,,アースブルーム,0
2789,5020001161066,新規,0,2025-01-27,2025-01-27,人財ジャパン株式会社,,株式会社,神奈川県,横浜市鶴見区,駒岡２丁目１６番１９号,,14,101,2300071,,,,,,,2025-01-27,1,,,,,ジンザイジャパン,0
2794,5020003027570,新規,0,2025-01-27,2025-01-27,ＰＩＬＯＴＡＧＥ合同会社,,合同会社,神奈川県,横浜市港北区,鳥山町２５４番地４,,14,109,2220035,,,,,,,2025-01-27,1,,,,,パイロテージ,0
2798,5021001084307,新規,0,2025-01-27,2025-01-27,株式会社Ｇｒａｎｄ　Ｐｒｉｍｏ,,株式会社,神奈川県,鎌倉市,城廻６６３番地,,14,204,2470074,,,,,,,2025-01-27,1,,,,,グランプリモ,0
2802,5030001164613,新規,0,2025-01-27,2025-01-27,株式会社Ｆｉｌｉａ,,株式会社,埼玉県,狭山市,大字水野１３９番地の５,,11,215,3501317,,,,,,,2025-01-27,1,,,,,フィーリア,0
2808,5040001137130,新規,0,2025-01-27,2025-01-27,株式会社コタロウ,,株式会社,千葉県,船橋市,東船橋３丁目４５番８棟１０３号,,12,204,2730002,,,,,,,2025-01-27,1,,,,,コタロウ,0
2835,5070001042583,新規,0,2025-01-27,2025-01-27,株式会社Ｂｅ　ｄｉｆｆｅｒｅｎｔ,,株式会社,群馬県,伊勢崎市,連取町３２８６番地１８,,10,204,3720812,,,,,,,2025-01-27,1,,,,,,0
2837,5070003005761,新規,0,2025-01-27,2025-01-27,合同会社ファースト,,合同会社,群馬県,太田市,長手町３８１番地１吉田ハイツ２０２号,,10,205,3730054,,,,,,,2025-01-27,1,,,,,ファースト,0
2842,5080401027704,新規,0,2025-01-27,2025-01-27,株式会社ホンタニーズ,,株式会社,静岡県,掛川市,山崎６１４６番地,,22,213,4371305,,,,,,,2025-01-27,1,,,,,ホンタニーズ,0
2843,5080403005187,新規,0,2025-01-27,2025-01-27,麦風ライフ合同会社,,合同会社,静岡県,掛川市,家代の里２丁目１０番７号,,22,213,4360227,,,,,,,2025-01-27,1,,,,,ムギカゼライフ,0
2845,5110001039014,新規,0,2025-01-27,2025-01-27,株式会社ＫＲホールディングス,,株式会社,新潟県,長岡市,浦９８９５番地,,15,202,9495406,,,,,,,2025-01-27,1,,,,,ケーアールホールディングス,0
2852,5120001272282,新規,0,2025-01-27,2025-01-27,株式会社ＡＯＩ,,株式会社,大阪府,大阪市福島区,福島５丁目１０番１３号,,27,103,5530003,,,,,,,2025-01-27,1,,,,,エーオーアイ,0
2853,5120001272308,新規,0,2025-01-27,2025-01-27,株式会社ＥＴＯＦ,,株式会社,大阪府,大阪市中央区,南船場２丁目１０番１７号,,27,128,5420081,,,,,,,2025-01-27,1,,,,,エトフ,0
2854,5120001272316,新規,0,2025-01-27,2025-01-27,羽潤国際株式会社,,株式会社,大阪府,大阪市住之江区,西加賀屋４丁目５番８号,,27,125,5590016,,,,,,,2025-01-27,1,,,,,ウジュンコクサイ,0
2856,5120003028468,新規,0,2025-01-27,2025-01-27,８８Ｎａｍｂａ合同会社,,合同会社,大阪府,大阪市西成区,天下茶屋北１丁目２－１６－１００号,,27,122,5570003,,,,,,,2025-01-27,1,,,,,ハチハチナンバ,0
2858,5120005024762,新規,0,2025-01-27,2025-01-27,医療法人博芳会,,その他の設立登記法人,大阪府,大阪市旭区,高殿７丁目１８番２７号,,27,117,5350031,,,,,,,2025-01-27,1,,,,,ハクホウカイ,0
2867,5122001038829,新規,0,2025-01-27,2025-01-27,申達株式会社,,株式会社,大阪府,東大阪市,若江西新町４丁目６番１０－２０６号,,27,227,5780944,,,,,,,2025-01-27,1,,,,,シンタツ,0
2870,5140001137244,新規,0,2025-01-27,2025-01-27,株式会社Ｎｏｓｔａｌｇｉａ,,株式会社,兵庫県,加古川市,神野町石守１１５０番地,,28,210,6750005,,,,,,,2025-01-27,1,,,,,ノスタルジア,0
2872,5140003021578,新規,0,2025-01-27,2025-01-27,合同会社みつぼし,,合同会社,兵庫県,神戸市西区,玉津町新方５１８番地の４,,28,111,6512125,,,,,,,2025-01-27,1,,,,,ミツボシ,0
2875,5150001027840,新規,0,2025-01-27,2025-01-27,株式会社池田造園土木,,株式会社,奈良県,生駒市,有里町４４９番地３,,29,209,6300233,,,,,,,2025-01-27,1,,,,,イケダゾウエンドボク,0
2876,5150003003484,新規,0,2025-01-27,2025-01-27,合同会社ジョイプランニング,,合同会社,奈良県,大和高田市,片塩町１０番２６号,,29,202,6350085,,,,,,,2025-01-27,1,,,,,ジョイプランニング,0
2883,5180001165233,新規,0,2025-01-27,2025-01-27,和泉エステート株式会社,,株式会社,愛知県,名古屋市中区,丸の内３丁目６番３３号２１０４,,23,106,4600002,,,,,,,2025-01-27,1,,,,,イズミエステート,0
2889,5180003027927,新規,0,2025-01-27,2025-01-27,合同会社ＮＯＲＩＮＯ,,合同会社,愛知県,名古屋市中区,新栄１丁目１４番２４号第３和光ビルＢ１,,23,106,4600007,,,,,,,2025-01-27,1,,,,,ノリノ,0
2893,5180301039467,新規,0,2025-01-27,2025-01-27,株式会社白川不動産,,株式会社,愛知県,豊田市,白川町上ノ山６４２,,23,211,4700403,,,,,,,2025-01-27,1,,,,,シラカワフドウサン,0
2895,5180303006440,新規,0,2025-01-27,2025-01-27,合同会社ＭｉＫａｎ,,合同会社,愛知県,安城市,箕輪町神戸１０２番地,,23,212,4460051,,,,,,,2025-01-27,1,,,,,ミカン,0
2933,5240001064445,新規,0,2025-01-27,2025-01-27,ＮＩカンパニー株式会社,,株式会社,広島県,広島市東区,若草町１８番１９号ＮＩビル１Ｆ,,34,102,7320053,,,,,,,2025-01-27,1,,,,,エヌアイカンパニー,0
2941,5280003001913,新規,0,2025-01-27,2025-01-27,合同会社ｋａｈａｎａ,,合同会社,島根県,出雲市,天神町８８８番地２ラポール天神１０１,,32,203,6930005,,,,,,,2025-01-27,1,,,,,カハナ,0
2946,5290001108718,新規,0,2025-01-27,2025-01-27,株式会社ウエストヴィラージュ,,株式会社,福岡県,春日市,宝町４丁目３０番地１,,40,218,8160807,,,,,,,2025-01-27,1,,,,,ウエストヴィラージュ,0
2998,5330003010743,新規,0,2025-01-27,2025-01-27,ｅ・Ｍａｉｎｔ合同会社,,合同会社,熊本県,合志市,御代志１６５６番地２４８,,43,216,8611104,,,,,,,2025-01-27,1,,,,,イーメント,0
3004,5350003004834,新規,0,2025-01-27,2025-01-27,合同会社Ａｎｎａ,,合同会社,宮崎県,宮崎市,新栄町１番地,,45,201,8800831,,,,,,,2025-01-27,1,,,,,アンナ,0
3011,5360001034683,新規,0,2025-01-27,2025-01-27,ＳＫＹ　ＣＬＥＡＮＩＮＧ　ＳＥＲＶＩＣＥＳ株式会社,,株式会社,沖縄県,国頭郡恩納村,字冨着９５４番地１スカイテラス２０３号,,47,311,9040413,,,,,,,2025-01-27,1,,,,,スカイクリーニングサービス,0
3012,5360001034709,新規,0,2025-01-27,2025-01-27,株式会社あとりえそら,,株式会社,沖縄県,那覇市,長田１丁目１２番３２号しゃとれ８８・１０１,,47,201,9020077,,,,,,,2025-01-27,1,,,,,アトリエソラ,0
3018,5360003014626,新規,0,2025-01-27,2025-01-27,合同会社アトリエ沖縄・マム,,合同会社,沖縄県,中頭郡北谷町,字上勢頭６２６番地１（１Ｆ－Ｂ）,,47,326,9040101,,,,,,,2025-01-27,1,,,,,アトリエオキナワマム,0
3019,5360003014634,新規,0,2025-01-27,2025-01-27,合同会社よんな,,合同会社,沖縄県,うるま市,字大田２５５番地３,,47,213,9042224,,,,,,,2025-01-27,1,,,,,ヨンナ,0
3020,5360003014642,新規,0,2025-01-27,2025-01-27,ふーちばー合同会社,,合同会社,沖縄県,浦添市,屋富祖２丁目２４番７号中村ビル４階,,47,208,9012127,,,,,,,2025-01-27,1,,,,,フーチバー,0
3024,5360005007165,新規,0,2025-01-27,2025-01-27,一般社団法人ＡＴＥＬＩＥＲ　ＩＫＩＧＡＩ,,その他の設立登記法人,沖縄県,うるま市,字喜屋武６２６番地８,,47,213,9042225,,,,,,,2025-01-27,1,,,,,アトリエイキガイ,0
3026,5370001052172,新規,0,2025-01-27,2025-01-27,株式会社だいゆう,,株式会社,宮城県,登米市,米山町中津山字猪込１０２番地,,04,212,9870331,,,,,,,2025-01-27,1,,,,,ダイユウ,0
3333,5430001093508,新規,0,2025-01-27,2025-01-27,Ｔ＆Ｔ株式会社,,株式会社,北海道,石狩郡当別町,末広３８０番地１,,01,303,0610224,,,,,,,2025-01-27,1,,,,,テーアンドテー,0
3334,5430001093524,新規,0,2025-01-27,2025-01-27,ピクチャーナイン株式会社,,株式会社,北海道,札幌市中央区,南六条西３丁目１０番１４号ススキノ中央ビル６Ａ,,01,101,0640806,,,,,,,2025-01-27,1,,,,,ピクチャーナイン,0
3335,5430001093540,新規,0,2025-01-27,2025-01-27,株式会社スタジオヤマス,,株式会社,北海道,札幌市中央区,南五条西１５丁目２番３号リズム医大前５０３号室,,01,101,0640805,,,,,,,2025-01-27,1,,,,,スタジオヤマス,0
3350,5450001014511,新規,0,2025-01-27,2025-01-27,ひとさじ農場株式会社,,株式会社,北海道,上川郡美瑛町,字大村大久保協生,,01,459,0710216,,,,,,,2025-01-27,1,,,,,ヒトサジノウジョウ,0
3365,5490001010952,新規,0,2025-01-27,2025-01-27,ＦＵＫＵＪＹＵ株式会社,,株式会社,高知県,南国市,稲生７０１番地,,39,204,7830084,,,,,,,2025-01-27,1,,,,,フクジュウ,0
3371,5500001026113,新規,0,2025-01-27,2025-01-27,ｅｌｅｃｔｂｒｉｇｈｔ株式会社,,株式会社,愛媛県,喜多郡内子町,知清６番地４,,38,422,7913322,,,,,,,2025-01-27,1,,,,,エレクトブライト,0
3386,6010001251635,新規,0,2025-01-27,2025-01-27,Ｄｅｓｉｇｎ　ＫｏＴｏ株式会社,,株式会社,東京都,文京区,本郷３丁目３８－１０さかえビル２Ｆ,,13,105,1130033,,,,,,,2025-01-27,1,,,,,デザインコト,0
3387,6010003046174,新規,0,2025-01-27,2025-01-27,合同会社順悦,,合同会社,東京都,中央区,日本橋室町１丁目１１番１２号日本橋水野ビル７階,,13,102,1030022,,,,,,,2025-01-27,1,,,,,ジュンエツ,0
3389,6010005039465,新規,0,2025-01-27,2025-01-27,一般財団法人古宮誠一記念教育財団,,その他の設立登記法人,東京都,千代田区,内神田３丁目２０番７号,,13,101,1010047,,,,,,,2025-01-27,1,,,,,コミヤセイイチキネンキョウイクザイダン,0
3394,6010401187529,新規,0,2025-01-27,2025-01-27,なぎなるホールディングス株式会社,,株式会社,東京都,港区,南青山３丁目１番３６号青山丸竹ビル６Ｆ,,13,103,1070062,,,,,,,2025-01-27,1,,,,,ナギナルホールディングス,0
3395,6010401187751,新規,0,2025-01-27,2025-01-27,株式会社ＤＨＪ,,株式会社,東京都,港区,赤坂２丁目１６番１９号,,13,103,1070052,,,,,,,2025-01-27,1,,,,,ディーエイチジェイ,0
3399,6010601066664,新規,0,2025-01-27,2025-01-27,Ｚｅｎ　Ｍａｒｋｅｔｉｎｇ株式会社,,株式会社,東京都,江東区,豊洲６丁目２番３１－２５１７号,,13,108,1350061,,,,,,,2025-01-27,1,,,,,ゼンマーケティング,0
3415,6011001167292,新規,0,2025-01-27,2025-01-27,株式会社Ｐａｎｏｍａグループ,,株式会社,東京都,渋谷区,東３丁目１３－１１Ａ－ＰＬＡＣＥ恵比寿東８Ｆ,,13,113,1500011,,,,,,,2025-01-27,1,,,,,パノマグループ,0
3416,6011005010845,新規,0,2025-01-27,2025-01-27,一般社団法人Ｌｕｃｋｓ,,その他の設立登記法人,東京都,渋谷区,恵比寿４丁目２０番３号恵比寿ガーデンプレイスタワー,,13,113,1500013,,,,,,,2025-01-27,1,,,,,ラックス,0
3422,6011103015449,新規,0,2025-01-27,2025-01-27,合同会社ＲｉｖｅｒＳｈｉｎｅ,,合同会社,東京都,新宿区,高田馬場２丁目１９－８－３０３,,13,104,1690075,,,,,,,2025-01-27,1,,,,,リバーシャイン,0
3424,6011501031634,新規,0,2025-01-27,2025-01-27,株式会社ＳＯＧＡＬＡＢＯ,,株式会社,東京都,荒川区,東日暮里５丁目７番３－３０１号,,13,118,1160014,,,,,,,2025-01-27,1,,,,,ソガラボ,0
3425,6011505002672,新規,0,2025-01-27,2025-01-27,一般社団法人和泉教育文化振興協会,,その他の設立登記法人,東京都,北区,浮間１丁目１番６号時屋ビル,,13,117,1150051,,,,,,,2025-01-27,1,,,,,イズミキョウイクブンカシンコウキョウカイ,0
3426,6011601028381,新規,0,2025-01-27,2025-01-27,カーボンエージェント株式会社,,株式会社,東京都,練馬区,下石神井５丁目９番２０－１０２号,,13,120,1770042,,,,,,,2025-01-27,1,,,,,カーボンエージェント,0
3429,6011701028018,新規,0,2025-01-27,2025-01-27,株式会社ｉＦａｍ,,株式会社,東京都,江戸川区,松島３丁目４０番４号ロイヤル第一マンションビル２階,,13,123,1320031,,,,,,,2025-01-27,1,,,,,アイファム,0
3430,6011703004090,新規,0,2025-01-27,2025-01-27,ＮＯＢＵ　ＩＮＴＥＲＮＡＴＩＯＮＡＬ合同会社,,合同会社,東京都,江戸川区,東葛西６丁目１０－１２－４０１,,13,123,1340084,,,,,,,2025-01-27,1,,,,,ノブインターナショナル,0
3431,6011703004099,新規,0,2025-01-27,2025-01-27,サイシャ合同会社,,合同会社,東京都,江戸川区,平井７丁目３４－３７,,13,123,1320035,,,,,,,2025-01-27,1,,,,,サイシャ,0
3437,6011801045482,新規,0,2025-01-27,2025-01-27,野東株式会社,,株式会社,東京都,足立区,梅島１丁目５－１９小鳥ハウス２０２号,,13,121,1210816,,,,,,,2025-01-27,1,,,,,ノトウ,0
3438,6011801045508,新規,0,2025-01-27,2025-01-27,株式会社欣家,,株式会社,東京都,足立区,足立４丁目３３番１－１０５号室,,13,121,1200015,,,,,,,2025-01-27,1,,,,,キンカ,0
3446,6013301053676,新規,0,2025-01-27,2025-01-27,要トータルリホーム株式会社,,株式会社,東京都,豊島区,要町３丁目１番１３号,,13,116,1710043,,,,,,,2025-01-27,1,,,,,カナメトータルリホーム,0
3452,6020001161008,新規,0,2025-01-27,2025-01-27,サイコロジー・デザイン・ワークス株式会社,,株式会社,神奈川県,横浜市港北区,綱島東１丁目５番１７－１１０４号,,14,109,2230052,,,,,,,2025-01-27,1,,,,,サイコロジーデザインワークス,0
3453,6020001161057,新規,0,2025-01-27,2025-01-27,株式会社Ｓｍｉｌｅ　Ｒｏｏｍ,,株式会社,神奈川県,川崎市川崎区,砂子１丁目４番地２,,14,131,2100006,,,,,,,2025-01-27,1,,,,,スマイルルーム,0
3460,6020003027702,新規,0,2025-01-27,2025-01-27,合同会社ＭＯＵ,,合同会社,神奈川県,横浜市青葉区,大場町３９１番地７０,,14,117,2250023,,,,,,,2025-01-27,1,,,,,モウ,0
3462,6021001084306,新規,0,2025-01-27,2025-01-27,いろは株式会社,,株式会社,神奈川県,厚木市,妻田北４丁目８番１１号森電機ビル１階Ａ号室,,14,212,2430812,,,,,,,2025-01-27,1,,,,,イロハ,0
3463,6021001084314,新規,0,2025-01-27,2025-01-27,株式会社ＪＪ商会,,株式会社,神奈川県,相模原市緑区,下九沢３２２番地１３,,14,151,2520134,,,,,,,2025-01-27,1,,,,,ジェイジェイショウカイ,0
3465,6030001164595,新規,0,2025-01-27,2025-01-27,株式会社森山内装,,株式会社,埼玉県,さいたま市北区,日進町２丁目４１１番地１０,,11,102,3310823,,,,,,,2025-01-27,1,,,,,モリヤマナイソウ,0
3467,6030003025936,新規,0,2025-01-27,2025-01-27,パキラ合同会社,,合同会社,埼玉県,川口市,並木２丁目１６番１３－９０２号ヴィアーレタワー西川口,,11,203,3320034,,,,,,,2025-01-27,1,,,,,パキラ,0
3471,6040001137138,新規,0,2025-01-27,2025-01-27,株式会社カナエルホーム,,株式会社,千葉県,千葉市若葉区,桜木５丁目１５番１１号,,12,104,2640028,,,,,,,2025-01-27,1,,,,,カナエルホーム,0
3472,6040001137154,新規,0,2025-01-27,2025-01-27,株式会社眞光,,株式会社,千葉県,旭市,ニの６４５８番地２７,,12,215,2892504,,,,,,,2025-01-27,1,,,,,シンコウ,0
3477,6050001056072,新規,0,2025-01-27,2025-01-27,株式会社カープロショップＫｏｕ,,株式会社,茨城県,守谷市,中央２丁目１７番地１フィネストリーノ１Ｆ,,08,224,3020115,,,,,,,2025-01-27,1,,,,,カープロショップコウ,0
3500,6070001010218,新規,0,2025-01-27,2025-01-27,米田林業株式会社,,株式会社,群馬県,高崎市,貝沢町１０２番地,,10,202,3700042,,,,,,,2025-01-27,1,,,,,ヨネダリンギョウ,0
3502,6070001042582,新規,0,2025-01-27,2025-01-27,株式会社ｃｏｅｕｒ．ａ．ｃｏｅｕｒ,,株式会社,群馬県,邑楽郡千代田町,大字赤岩２３０番地の１,,10,523,3700503,,,,,,,2025-01-27,1,,,,,クーラクー,0
3509,6090003002723,新規,0,2025-01-27,2025-01-27,ＭＩＣ合同会社,,合同会社,山梨県,甲斐市,富竹新田２４５番地２昭和土地ビル２号館３階６,,19,210,4000113,,,,,,,2025-01-27,1,,,,,エムアイシー,0
3513,6110001039013,新規,0,2025-01-27,2025-01-27,株式会社山崎板金,,株式会社,新潟県,新潟市江南区,直り山１２番地,,15,104,9500111,,,,,,,2025-01-27,1,,,,,ヤマザキバンキン,0
3524,6120001272281,新規,0,2025-01-27,2025-01-27,株式会社万逹福禄,,株式会社,大阪府,大阪市淀川区,塚本３丁目１６番４号２Ｆ,,27,123,5320026,,,,,,,2025-01-27,1,,,,,ワンダフル,0
3528,6120003028450,新規,0,2025-01-27,2025-01-27,合同会社ユー,,合同会社,大阪府,大阪市東成区,東中本３丁目１番３０号,,27,115,5370021,,,,,,,2025-01-27,1,,,,,ユー,0
3529,6120003028459,新規,0,2025-01-27,2025-01-27,合同会社Ｈ＆Ｆ,,合同会社,大阪府,大阪市東淀川区,豊里７丁目１６－１９,,27,114,5330013,,,,,,,2025-01-27,1,,,,,エイチアンドエフ,0
3531,6120005024753,新規,0,2025-01-27,2025-01-27,一般社団法人鳳凰学,,その他の設立登記法人,大阪府,大阪市北区,梅田１丁目２番２号大阪駅前第２ビル１２－１２,,27,127,5300001,,,,,,,2025-01-27,1,,,,,ホウオウガク,0
3532,6120101070932,新規,0,2025-01-27,2025-01-27,恵比須興産株式会社,,株式会社,大阪府,堺市堺区,三条通１番２号,,27,141,5900046,,,,,,,2025-01-27,1,,,,,エビスコウサン,0
3533,6120103006249,新規,0,2025-01-27,2025-01-27,インコム堺合同会社,,合同会社,大阪府,大阪狭山市,池尻中１丁目３０番１５号,,27,231,5890007,,,,,,,2025-01-27,1,,,,,インコムサカイ,0
3538,6122001038836,新規,0,2025-01-27,2025-01-27,株式会社エミサイト,,株式会社,大阪府,大東市,大東町８番１６号,,27,218,5740061,,,,,,,2025-01-27,1,,,,,エミサイト,0
3547,6140001137185,新規,0,2025-01-27,2025-01-27,株式会社セイバンスマイルこども園,,株式会社,兵庫県,たつの市,龍野町片山３７９番地１,,28,229,6794123,,,,,,,2025-01-27,1,,,,,セイバンスマイルコドモエン,0
3548,6140001137193,新規,0,2025-01-27,2025-01-27,株式会社アンビションプラス,,株式会社,兵庫県,尼崎市,南塚口町１丁目６番９号塚口ビル３階,,28,202,6610012,,,,,,,2025-01-27,1,,,,,アンビションプラス,0
3553,6170001018465,新規,0,2025-01-27,2025-01-27,株式会社松勝,,株式会社,和歌山県,日高郡美浜町,大字吉原１０９４番地の４,,30,381,6440043,,,,,,,2025-01-27,1,,,,,マツカツ,0
3554,6170003002161,新規,0,2025-01-27,2025-01-27,合同会社吉翔,,合同会社,和歌山県,和歌山市,西浜９７８番地１１,,30,201,6410036,,,,,,,2025-01-27,1,,,,,キット,0
3564,6180001165125,新規,0,2025-01-27,2025-01-27,愛信ファシリティーズ株式会社,,株式会社,愛知県,名古屋市中区,新栄１丁目２８番６号,,23,106,4600007,,,,,,,2025-01-27,1,,,,,アイシンファシリティーズ,0
3568,6190001031961,新規,0,2025-01-27,2025-01-27,リージョン・トラスト株式会社,,株式会社,三重県,四日市市,河原田町１５７１番地１２,,24,202,5100874,,,,,,,2025-01-27,1,,,,,リージョントラスト,0
3571,6200001043369,新規,0,2025-01-27,2025-01-27,信星商事株式会社,,株式会社,岐阜県,可児市,大森１５０１番地６５６２,,21,214,5090238,,,,,,,2025-01-27,1,,,,,シンセイショウジ,0
3572,6200001043377,新規,0,2025-01-27,2025-01-27,神農アグリ株式会社,,株式会社,岐阜県,下呂市,御厩野２２３５番地,00137789,21,220,5092312,,,,,,,2025-01-27,1,,,,,シンノウアグリ,0
3573,6200003006679,新規,0,2025-01-27,2025-01-27,サンナチュレ合同会社,,合同会社,岐阜県,中津川市,加子母５４９０番地,,21,206,5080421,,,,,,,2025-01-27,1,,,,,サンナチュレ,0
3611,6220001026462,新規,0,2025-01-27,2025-01-27,アール・スタイル株式会社,,株式会社,石川県,金沢市,しじま台１丁目５番地５,,17,201,9218132,,,,,,,2025-01-27,1,,,,,アールスタイル,0
3613,6240001064444,新規,0,2025-01-27,2025-01-27,株式会社ひろしま技研,,株式会社,広島県,広島市佐伯区,楽々園３丁目４番６号,,34,108,7315136,,,,,,,2025-01-27,1,,,,,ヒロシマギケン,0
3614,6250001020982,新規,0,2025-01-27,2025-01-27,株式会社山口県東部生活サポートセンター,,株式会社,山口県,岩国市,山手町２丁目６２番７号,,35,208,7400022,,,,,,,2025-01-27,1,,,,,ヤマグチケントウブセイカツサポートセンター,0
3680,6330003010742,新規,0,2025-01-27,2025-01-27,合同会社林田ＪＡＰＡＮ,,合同会社,熊本県,熊本市南区,城南町永３６２番地５,,43,104,8614234,,,,,,,2025-01-27,1,,,,,ハヤシダジャパン,0
3682,6340003004719,新規,0,2025-01-27,2025-01-27,合同会社クローバー,,合同会社,鹿児島県,霧島市,国分中央３丁目１２－９－１,,46,218,8994332,,,,,,,2025-01-27,1,,,,,クローバー,0
3683,6340003004727,新規,0,2025-01-27,2025-01-27,合同会社ヘルシーダイエット,,合同会社,鹿児島県,出水郡長島町,城川内１６５１番地１１６,,46,404,8991304,,,,,,,2025-01-27,1,,,,,ヘルシーダイエット,0
3685,6350001019379,新規,0,2025-01-27,2025-01-27,株式会社Ｌｉｆｅ　Ｇｒｏｏｖｅ　Ｓｏｌｕｔｉｏｎｓ,,株式会社,宮崎県,宮崎市,清武町加納甲２７１８番地５,,45,201,8891605,,,,,,,2025-01-27,1,,,,,ライフグルーヴソリューションズ,0
3688,6360001034708,新規,0,2025-01-27,2025-01-27,株式会社リオニー,,株式会社,沖縄県,浦添市,当山２丁目１５番９号,,47,208,9012104,,,,,,,2025-01-27,1,,,,,リオニー,0
3695,6360003014625,新規,0,2025-01-27,2025-01-27,リペアオート合同会社,,合同会社,沖縄県,石垣市,字大浜１７１１番地１１１,,47,207,9070001,,,,,,,2025-01-27,1,,,,,リペアオート,0
3712,6400001016924,新規,0,2025-01-27,2025-01-27,株式会社一大,,株式会社,岩手県,盛岡市,高松４丁目１３番４７号,,03,201,0200114,,,,,,,2025-01-27,1,,,,,イチダイ,0
3715,6420001019000,新規,0,2025-01-27,2025-01-27,株式会社ＥＹＬ,,株式会社,青森県,弘前市,大字館野２丁目８番地１２,,02,202,0368234,,,,,,,2025-01-27,1,,,,,イーワイエル,0
3996,6430001093523,新規,0,2025-01-27,2025-01-27,株式会社アイプランニング,,株式会社,北海道,札幌市中央区,南九条西６丁目２番３０－８０９,,01,101,0640809,,,,,,,2025-01-27,1,,,,,アイプランニング,0
4003,6430003017199,新規,0,2025-01-27,2025-01-27,合同会社優,,合同会社,北海道,札幌市西区,二十四軒三条６丁目２番１０－１０３号,,01,107,0630803,,,,,,,2025-01-27,1,,,,,ユウ,0
4008,6450001014519,新規,0,2025-01-27,2025-01-27,株式会社ジェヌイン,,株式会社,北海道,旭川市,高砂台３丁目７番２４号,,01,204,0708061,,,,,,,2025-01-27,1,,,,,ジェヌイン,0
4009,6460101007660,新規,0,2025-01-27,2025-01-27,株式会社ワイケースタイル,,株式会社,北海道,帯広市,西十条南２８丁目７番地１　ベルズハイツＤ号,,01,207,0800020,,,,,,,2025-01-27,1,,,,,ワイケースタイル,0
4010,6460103001678,新規,0,2025-01-27,2025-01-27,合同会社樺仲舎,,合同会社,北海道,帯広市,西二十条南５丁目６番地２,,01,207,0802470,,,,,,,2025-01-27,1,,,,,カチュウシャ,0
4033,6700150128960,新規,0,2025-01-27,2025-01-27,盛達電業股斌有限公司,00137738,外国会社等,,,,,,,,台湾新北市新店区中興路二段１９２號８樓,,,,,,2025-01-27,1,,,,,モリタツデンギヨウ,0
4034,6700150128969,新規,0,2025-01-27,2025-01-27,ＣＡＲＦＩＸＥＲＳ　ＡＵＴＯ,,外国会社等,千葉県,山武市,木原２０３１番地１５－Ｚ５,,12,237,2891212,スリランカ民主社会主義共和国、キャンディ、アクラナ、クルンドゥガハエラ、Ｎｏ．９８／Ｂ／６,,,,,,2025-01-27,1,,,,,カーフイクサーオート,0
4040,7010001251691,新規,0,2025-01-27,2025-01-27,ＵＲＩＭ株式会社,,株式会社,東京都,中央区,日本橋小網町８番２号ＢＩＺＭＡＲＫＳ日本橋茅場町７０２号室,,13,102,1030016,,,,,,,2025-01-27,1,,,,,ユーリム,0
4041,7010001251725,新規,0,2025-01-27,2025-01-27,麦禾株式会社,,株式会社,東京都,文京区,千石４丁目２６番２－４Ａ０２,,13,105,1120011,,,,,,,2025-01-27,1,,,,,マイカ,0
4042,7010001251774,新規,0,2025-01-27,2025-01-27,株式会社縁日,,株式会社,東京都,千代田区,九段南３丁目８番２号ライオンズマンション九段第２－７０５号,,13,101,1020074,,,,,,,2025-01-27,1,,,,,エンニチ,0
4043,7010003046181,新規,0,2025-01-27,2025-01-27,合同会社ＢｉＴｅｃｈ　Ｏｒｔｈｏ,,合同会社,東京都,中央区,銀座３丁目３番１４号銀座グランディアＩＩビル６階,00137781,13,102,1040061,,,,,,,2025-01-27,1,,,,,バイテックオルソ,0
4045,7010005039456,新規,0,2025-01-27,2025-01-27,一般社団法人厚木インベストメント,,その他の設立登記法人,東京都,中央区,日本橋１丁目４番１号日本橋一丁目ビルディング,,13,102,1030027,,,,,,,2025-01-27,1,,,,,アツギインベストメント,0
4046,7010005039472,新規,0,2025-01-27,2025-01-27,一般財団法人Ｔｏｋｙｏ　Ｅｑｕｅｓｔｒｉａｎ　Ｆｅｓｔｉｖａｌ,,その他の設立登記法人,東京都,中央区,銀座１丁目１２番４号Ｎ＆ＥＢＬＤ．７階,,13,102,1040061,,,,,,,2025-01-27,1,,,,,トーキョーエクエストリアンフェスティバル,0
4053,7010403034216,新規,0,2025-01-27,2025-01-27,Ａｌｏｎｅ　Ｔｏｇｅｔｈｅｒ合同会社,,合同会社,東京都,港区,南麻布１丁目６番６－１３０２号,,13,103,1060047,,,,,,,2025-01-27,1,,,,,アローントゥギャザー,0
4054,7010403034232,新規,0,2025-01-27,2025-01-27,クレド・コンプライアンス・マネジメント合同会社,,合同会社,東京都,港区,南青山２丁目２番１５号,,13,103,1070062,,,,,,,2025-01-27,1,,,,,クレドコンプライアンスマネジメント,0
4057,7010501053506,新規,0,2025-01-27,2025-01-27,株式会社見延商店,,株式会社,東京都,台東区,東上野５丁目１０番１１号,,13,106,1100015,,,,,,,2025-01-27,1,,,,,ミノベショウテン,0
4060,7010803005254,新規,0,2025-01-27,2025-01-27,合同会社ＴＥＡＭ　ＤＲＡＧＯＮ,,合同会社,東京都,大田区,鵜の木２丁目３５番６号,,13,111,1460091,,,,,,,2025-01-27,1,,,,,チームドラゴン,0
4061,7010803005262,新規,0,2025-01-27,2025-01-27,合同会社Ｓｃｈａｎｚｅ,,合同会社,東京都,大田区,田園調布１丁目６２番６－１０１号,,13,111,1450071,,,,,,,2025-01-27,1,,,,,シャンツェ,0
4062,7010901056686,新規,0,2025-01-27,2025-01-27,株式会社デモニアク,,株式会社,東京都,世田谷区,桜上水３丁目２２番５号,,13,112,1560045,,,,,,,2025-01-27,1,,,,,デモニアク,0
4063,7010901056728,新規,0,2025-01-27,2025-01-27,ＨＯＭＡＲＥ株式会社,,株式会社,東京都,世田谷区,用賀４丁目９番１２号Ｂ１,,13,112,1580097,,,,,,,2025-01-27,1,,,,,ホマレ,0
4064,7010903009667,新規,0,2025-01-27,2025-01-27,合同会社ＪＫＦ　Ａｄｖｉｓｏｒｓ,,合同会社,東京都,世田谷区,砧６丁目２３番２号,,13,112,1570073,,,,,,,2025-01-27,1,,,,,ジェイケイエフアドバイザーズ,0
4068,7011003020820,新規,0,2025-01-27,2025-01-27,合同会社Ｆｏｒｔｅ　Ｃｏｍｐａｎｙ,,合同会社,東京都,渋谷区,千駄ヶ谷３丁目３７－８－１０２,,13,113,1510051,,,,,,,2025-01-27,1,,,,,,0
4076,7011501031600,新規,0,2025-01-27,2025-01-27,中友建設株式会社,,株式会社,東京都,北区,上十条１丁目２９－１０,,13,117,1140034,,,,,,,2025-01-27,1,,,,,ナカトモケンセツ,0
4083,7012401042704,新規,0,2025-01-27,2025-01-27,株式会社Ｆ＆Ｆ,,株式会社,東京都,調布市,仙川町３丁目１－２２,,13,208,1820002,,,,,,,2025-01-27,1,,,,,エフアンドエフ,0
4085,7012403006938,新規,0,2025-01-27,2025-01-27,優合同会社,,合同会社,東京都,府中市,宮西町２丁目８番地２,,13,206,1830022,,,,,,,2025-01-27,1,,,,,ユウ,0
4093,7020001160958,新規,0,2025-01-27,2025-01-27,株式会社ＭＥＩＫＩＳＥＩ,,株式会社,神奈川県,横浜市鶴見区,栄町通１丁目５番地４１,,14,101,2300038,,,,,,,2025-01-27,1,,,,,メイキセイ,0
4094,7020001160982,新規,0,2025-01-27,2025-01-27,ゴールドファーム株式会社,,株式会社,神奈川県,横浜市中区,元浜町３丁目２１番２号ヘリオス関内ビル１２階,,14,104,2310004,,,,,,,2025-01-27,1,,,,,ゴールドファーム,0
4095,7020001161056,新規,0,2025-01-27,2025-01-27,株式会社パシモ,,株式会社,神奈川県,横浜市瀬谷区,阿久和東３丁目１２番地４,,14,114,2460023,,,,,,,2025-01-27,1,,,,,パシモ,0
4096,7020001161147,新規,0,2025-01-27,2025-01-27,株式会社モアナルアホールディングス,,株式会社,神奈川県,横浜市港北区,日吉４丁目９－１４－１－２Ａ,,14,109,2230061,,,,,,,2025-01-27,1,,,,,モアナルアホールディングス,0
4100,7020003027619,新規,0,2025-01-27,2025-01-27,合同会社エトワール,,合同会社,神奈川県,横浜市磯子区,森３丁目４番１７号,,14,107,2350023,,,,,,,2025-01-27,1,,,,,エトワール,0
4101,7020003027701,新規,0,2025-01-27,2025-01-27,合同会社ハピネスペース,,合同会社,神奈川県,川崎市中原区,井田３丁目４３―１０,,14,133,2110035,,,,,,,2025-01-27,1,,,,,ハピネスペース,0
4102,7021001084305,新規,0,2025-01-27,2025-01-27,株式会社ヒマリテック,,株式会社,神奈川県,小田原市,鬼柳７９９番地の１０,,14,206,2500211,,,,,,,2025-01-27,1,,,,,ヒマリテック,0
4105,7021003015506,新規,0,2025-01-27,2025-01-27,合同会社ＭＩＨＡＲＡ,,合同会社,神奈川県,厚木市,山際１０５９―５,,14,212,2430803,,,,,,,2025-01-27,1,,,,,ミハラ,0
4110,7030001164553,新規,0,2025-01-27,2025-01-27,株式会社ＦＵＫＵＷＡ,,株式会社,埼玉県,蕨市,南町１丁目１１番１３号－１Ｆ,,11,223,3350003,,,,,,,2025-01-27,1,,,,,フクワ,0
4116,7040001137145,新規,0,2025-01-27,2025-01-27,株式会社関東トレイディング,,株式会社,千葉県,八街市,沖３１３番地,,12,230,2891126,,,,,,,2025-01-27,1,,,,,カントウトレイディング,0
4117,7040001137178,新規,0,2025-01-27,2025-01-27,株式会社ＭＡＳＵＹＡＭＡ‐Ｐｌａｎ,,株式会社,千葉県,船橋市,三咲６丁目１３番２４号,,12,204,2740812,,,,,,,2025-01-27,1,,,,,マスヤマプラン,0
4118,7040001137194,新規,0,2025-01-27,2025-01-27,リーカ株式会社,,株式会社,千葉県,千葉市中央区,本町２丁目２番１０号,,12,101,2600012,,,,,,,2025-01-27,1,,,,,リーカ,0
4123,7040003026692,新規,0,2025-01-27,2025-01-27,トレーディングアセット合同会社,,合同会社,千葉県,千葉市稲毛区,轟町２丁目１番５号石井マンション１１号室,,12,103,2630021,,,,,,,2025-01-27,1,,,,,トレーディングアセット,0
4141,7070001042581,新規,0,2025-01-27,2025-01-27,株式会社ＯＶＥＲＡＬＬ,,株式会社,群馬県,前橋市,後家町６３番地１８,,10,201,3710834,,,,,,,2025-01-27,1,,,,,オーバーオール,0
4144,7080005007670,新規,0,2025-01-27,2025-01-27,弁護士法人追手町法律事務所,,その他の設立登記法人,静岡県,静岡市葵区,追手町１番１３号アゴラ静岡ビル４階,,22,101,4200853,,,,,,,2025-01-27,1,,,,,オウテマチホウリツジムショ,0
4148,7080401027710,新規,0,2025-01-27,2025-01-27,株式会社めるしい,,株式会社,静岡県,浜松市浜名区,貴布祢５３５－１４,,22,139,4340038,,,,,,,2025-01-27,1,,,,,メルシイ,0
4159,7120001272256,新規,0,2025-01-27,2025-01-27,株式会社ＡＫＩＲＡ　ＴＲＡＤＥ,,株式会社,大阪府,大阪市西区,南堀江２丁目２番６－４０２号,,27,106,5500015,,,,,,,2025-01-27,1,,,,,アキラトレード,0
4160,7120001272280,新規,0,2025-01-27,2025-01-27,禾青株式会社,,株式会社,大阪府,大阪市大正区,三軒家西３丁目４番１６号中山ビル３０７Ｂ,,27,108,5510001,,,,,,,2025-01-27,1,,,,,カセイ,0
4161,7120001272347,新規,0,2025-01-27,2025-01-27,株式会社セフラ,,株式会社,大阪府,大阪市東住吉区,杭全１丁目１５番１８号,,27,121,5460002,,,,,,,2025-01-27,1,,,,,セフラ,0
4164,7120003028458,新規,0,2025-01-27,2025-01-27,合同会社ウィンクルム,,合同会社,大阪府,大阪市北区,南扇町２－１ＡＸＩＳ南扇町オーパスビル３Ｆ,,27,127,5300052,,,,,,,2025-01-27,1,,,,,ウィンクルム,0
4165,7120003028474,新規,0,2025-01-27,2025-01-27,合同会社ＪＯＹＯＵＳ,,合同会社,大阪府,大阪市東成区,大今里西２丁目１６番９－１０１５号,,27,115,5370014,,,,,,,2025-01-27,1,,,,,ジョイアス,0
4167,7120005024760,新規,0,2025-01-27,2025-01-27,特定非営利活動法人ドローン．ロボットこども未来教育振興協会,,その他の設立登記法人,大阪府,大阪市此花区,春日出中２丁目１５番６号プチメゾン此花１階,,27,104,5540022,,,,,,,2025-01-27,1,,,,,ドローンロボットコドモミライキョウイクシンコウキョウカイ,0
4168,7120101070948,新規,0,2025-01-27,2025-01-27,株式会社ＡＱＵＡＬＲＹ　Ｍｔ．,,株式会社,大阪府,堺市堺区,少林寺町東１丁２番２６号,,27,141,5900963,,,,,,,2025-01-27,1,,,,,アクアリーマウント,0
4169,7120105009959,新規,0,2025-01-27,2025-01-27,一般社団法人あしたみっけ,,その他の設立登記法人,大阪府,富田林市,須賀１丁目１４番２２号,,27,214,5840062,,,,,,,2025-01-27,1,,,,,アシタミッケ,0
4173,7122001038827,新規,0,2025-01-27,2025-01-27,株式会社ｏｍｏｒｏ,,株式会社,大阪府,東大阪市,小阪２丁目１３番２６号,,27,227,5770801,,,,,,,2025-01-27,1,,,,,オモロ,0
4176,7130001078859,新規,0,2025-01-27,2025-01-27,株式会社らーめん屋には夢がある,,株式会社,京都府,京都市伏見区,桃山南大島町９７番地４９,,26,109,6128017,,,,,,,2025-01-27,1,,,,,ラーメンヤニハユメガアル,0
4178,7130005017276,新規,0,2025-01-27,2025-01-27,特定非営利活動法人まなびー,,その他の設立登記法人,京都府,京都市南区,久世上久世町６０番地１４,,26,107,6018212,,,,,,,2025-01-27,1,,,,,マナビー,0
4182,7140003021527,新規,0,2025-01-27,2025-01-27,合同会社ｕｎｄａ,,合同会社,兵庫県,神戸市長田区,大塚町１丁目８番１１号プレノ長田７０１号室,,28,106,6530811,,,,,,,2025-01-27,1,,,,,アンダ,0
4186,7160001026501,新規,0,2025-01-27,2025-01-27,株式会社ヤマミツ,,株式会社,滋賀県,長浜市,神照町７４３番地３,,25,203,5260015,,,,,,,2025-01-27,1,,,,,ヤマミツ,0
4190,7170005007125,新規,0,2025-01-27,2025-01-27,一般社団法人メンタルケア・サポート,,その他の設立登記法人,和歌山県,和歌山市,杉ノ馬場１丁目２２番地,,30,201,6408212,,,,,,,2025-01-27,1,,,,,メンタルケアサポート,0
4198,7180001165017,新規,0,2025-01-27,2025-01-27,株式会社Ｈｉ‐ｐｉｎｅｓｓ,,株式会社,愛知県,名古屋市東区,矢田南３丁目４番８号ラ・ヴァンスナゴヤドーム前５０３号,,23,102,4610048,,,,,,,2025-01-27,1,,,,,ハピネス,0
4199,7180001165165,新規,0,2025-01-27,2025-01-27,株式会社ザキプロ,,株式会社,愛知県,春日井市,神屋町６９８番地５６,,23,206,4800304,,,,,,,2025-01-27,1,,,,,ザキプロ,0
4202,7200001043368,新規,0,2025-01-27,2025-01-27,株式会社デザインギフト,,株式会社,岐阜県,岐阜市,清住町２丁目４番地１,,21,201,5008178,,,,,,,2025-01-27,1,,,,,デザインギフト,0
4203,7200001043376,新規,0,2025-01-27,2025-01-27,平成サンケイＨＤ株式会社,,株式会社,岐阜県,多治見市,山吹町１丁目４番地の７,,21,204,5070802,,,,,,,2025-01-27,1,,,,,ヘイセイサンケイホールディングス,0
4204,7200001043384,新規,0,2025-01-27,2025-01-27,株式会社ＫＥＩＪＩ　ＩＴＯ,,株式会社,岐阜県,土岐市,泉島田町３丁目１８番地,,21,212,5095134,,,,,,,2025-01-27,1,,,,,ケイジイトウ,0
4205,7200003006678,新規,0,2025-01-27,2025-01-27,合同会社ＹＯＫＵＳＵＬ,,合同会社,岐阜県,土岐市,泉岩畑町４丁目９番地,,21,212,5095141,,,,,,,2025-01-27,1,,,,,ヨクスル,0
4249,7210005010181,新規,0,2025-01-27,2025-01-27,一般社団法人ｚｕｔｔｏ１２３,,その他の設立登記法人,福井県,越前市,押田２丁目９Ｅうのビル２階,,18,209,9150083,,,,,,,2025-01-27,1,,,,,ズットワンツースリー,0
4250,7220001026461,新規,0,2025-01-27,2025-01-27,株式会社ｒｕｒｉｂｉｔａｋｉ,,株式会社,石川県,金沢市,窪１丁目８１番地３,,17,201,9218151,,,,,,,2025-01-27,1,,,,,ルリビタキ,0
4251,7220005008919,新規,0,2025-01-27,2025-01-27,一般社団法人石川県工務店協会,,その他の設立登記法人,石川県,金沢市,湊２丁目１１１番地（ジオフィット株式会社内）,,17,201,9200211,,,,,,,2025-01-27,1,,,,,イシカワケンコウムテンキョウカイ,0
4253,7240001064443,新規,0,2025-01-27,2025-01-27,株式会社リアン,,株式会社,広島県,東広島市,西条町御薗宇６７９５番地２,,34,212,7390024,,,,,,,2025-01-27,1,,,,,リアン,0
4258,7260001039856,新規,0,2025-01-27,2025-01-27,株式会社栄楽,,株式会社,岡山県,岡山市南区,藤田１６１０番地２,,33,104,7010221,,,,,,,2025-01-27,1,,,,,エイラク,0
4260,7260003005039,新規,0,2025-01-27,2025-01-27,葵や不動産合同会社,,合同会社,岡山県,倉敷市,昭和１丁目１番３８ー２０１号,,33,202,7100057,,,,,,,2025-01-27,1,,,,,アオイヤフドウサン,0
4269,7290001108773,新規,0,2025-01-27,2025-01-27,株式会社健康クラブ,,株式会社,福岡県,福岡市博多区,博多駅前１丁目２３番２号ＰａｒｋＦｒｏｎｔ５Ｆ―Ｂ,,40,132,8120011,,,,,,,2025-01-27,1,,,,,ケンコウクラブ,0
4272,7290803004955,新規,0,2025-01-27,2025-01-27,合同会社イノベーションアップ,,合同会社,福岡県,京都郡苅田町,新津１丁目４番地６（カリブ７０３）,,40,621,8000344,,,,,,,2025-01-27,1,,,,,イノベーションアップ,0
4273,7300001014061,新規,0,2025-01-27,2025-01-27,Ａｓｃｅｎｔｉａ株式会社,,株式会社,佐賀県,三養基郡基山町,大字宮浦９９１－１０,,41,341,8410204,,,,,,,2025-01-27,1,,,,,アセンティア,0
4319,7320001020909,新規,0,2025-01-27,2025-01-27,株式会社Ｓａｋａｍｏｔｏ,,株式会社,大分県,日田市,大字西有田５２４番地８,,44,204,8770000,,,,,,,2025-01-27,1,,,,,サカモト,0
4326,7330001032837,新規,0,2025-01-27,2025-01-27,バイオエネルギー九州株式会社,,株式会社,熊本県,熊本市西区,新港１丁目４番１７号,,43,103,8615274,,,,,,,2025-01-27,1,,,,,バイオエネルギーキュウシュウ,0
4337,7360003014608,新規,0,2025-01-27,2025-01-27,オキナワグロサリー合同会社,,合同会社,沖縄県,那覇市,松尾２丁目７－１公設市場,,47,201,9000014,,,,,,,2025-01-27,1,,,,,オキナワグロサリー,0
4338,7360003014624,新規,0,2025-01-27,2025-01-27,合同会社ｅ．ｓｅｒｖｉｃｅ,,合同会社,沖縄県,浦添市,安波茶１丁目８番１６号當銘氏店舗１Ｆ,,47,208,9012114,,,,,,,2025-01-27,1,,,,,イーサービス,0
4339,7360003014640,新規,0,2025-01-27,2025-01-27,合同会社ＹＧＫ,,合同会社,沖縄県,島尻郡与那原町,字板良敷６５９番地の１５,,47,348,9011301,,,,,,,2025-01-27,1,,,,,ワイジーケー,0
4347,7370001052170,新規,0,2025-01-27,2025-01-27,株式会社ＮＥＸＴ　ＳＴＡＧＥ,,株式会社,宮城県,仙台市青葉区,国分町２丁目１０番１９号邦栄ビル４階,,04,101,9800803,,,,,,,2025-01-27,1,,,,,ネクストステージ,0
4351,7370005010901,新規,0,2025-01-27,2025-01-27,特定非営利活動法人里山保全会,,その他の設立登記法人,宮城県,仙台市泉区,長命ケ丘６丁目２番地の２１,,04,105,9813212,,,,,,,2025-01-27,1,,,,,サトヤマホゼンカイ,0
4357,7390001017865,新規,0,2025-01-27,2025-01-27,光商事株式会社,,株式会社,山形県,酒田市,ゆたか２丁目９番地の１,,06,204,9980006,,,,,,,2025-01-27,1,,,,,ヒカリショウジ,0
4363,7390003002345,新規,0,2025-01-27,2025-01-27,合同会社いろは亭,,合同会社,山形県,西村山郡河北町,谷地字月山堂４１１番地３,,06,321,9993511,,,,,,,2025-01-27,1,,,,,イロハテイ,0
4365,7400001016923,新規,0,2025-01-27,2025-01-27,株式会社丸吉水産,,株式会社,岩手県,陸前高田市,米崎町字松峰２６番地１,,03,210,0292206,,,,,,,2025-01-27,1,,,,,マルキチスイサン,0
4368,7400003003382,新規,0,2025-01-27,2025-01-27,合同会社笑門来福,,合同会社,岩手県,盛岡市,境田町４番７６号,,03,201,0200041,,,,,,,2025-01-27,1,,,,,ショウモンライフク,0
4656,7430001093522,新規,0,2025-01-27,2025-01-27,＿初株式会社,00137782,株式会社,北海道,札幌市白石区,南郷通１５丁目北８番１１－３号室,,01,104,0030023,,,,,,,2025-01-27,1,,,,,イクショ,0
4657,7430001093530,新規,0,2025-01-27,2025-01-27,株式会社Ａｓｌｉｇｈｔ,,株式会社,北海道,札幌市北区,新琴似三条１３丁目２番１８号,,01,102,0010903,,,,,,,2025-01-27,1,,,,,アスライト,0
4658,7430001093539,新規,0,2025-01-27,2025-01-27,株式会社ｅｈａｍｏ,,株式会社,北海道,札幌市白石区,北郷五条５丁目７番２２号,,01,104,0030835,,,,,,,2025-01-27,1,,,,,エハモ,0
4659,7430001093563,新規,0,2025-01-27,2025-01-27,株式会社ｔｏｍｉｈａｎａ,,株式会社,北海道,江別市,弥生町２５－１,,01,217,0670073,,,,,,,2025-01-27,1,,,,,トミハナ,0
4671,7430003017198,新規,0,2025-01-27,2025-01-27,合同会社ＭＴＡ,,合同会社,北海道,札幌市北区,あいの里三条６丁目９番１０－４０６号,,01,102,0028073,,,,,,,2025-01-27,1,,,,,エムティーエー,0
4678,7460103001677,新規,0,2025-01-27,2025-01-27,合同会社ＨＩＳ　ＲＥＣＯＲＤＳ,,合同会社,北海道,帯広市,公園東町１丁目５番地６,,01,207,0800847,,,,,,,2025-01-27,1,,,,,,0
4701,7500001026111,新規,0,2025-01-27,2025-01-27,株式会社ＴＤＭ,,株式会社,愛媛県,松山市,福音寺町５８５番地１０Ｍｔｏｗｎ・ｉｎ福音寺４,,38,201,7900921,,,,,,,2025-01-27,1,,,,,ティーディーエム,0
4702,7700150128200,新規,0,2025-01-27,2025-01-27,Ｃａｎｙｏｎ　Ｂｉｃｙｃｌｅｓ　ＧｍｂＨ,,外国会社等,,,,,,,,Ｋａｒｌ－Ｔｅｓｃｈｅ－Ｓｔｒａｓｓｅ　１２，５６０７３　Ｋｏｂｌｅｎｚ，Ｇｅｒｍａｎｙ,,,,,,2025-01-27,1,,,,,キヤニオンバイシクルズゲーエムベーハー,0
4707,8010001251204,新規,0,2025-01-27,2025-01-27,ＢＢｙｏｍｙ株式会社,,株式会社,東京都,中央区,銀座６丁目６番１号銀座風月堂ビル５Ｆ,,13,102,1040061,,,,,,,2025-01-27,1,,,,,ビビユミ,0
4708,8010001251658,新規,0,2025-01-27,2025-01-27,三建マネジメント株式会社,,株式会社,東京都,中央区,新川１丁目１７番２１号,,13,102,1040033,,,,,,,2025-01-27,1,,,,,サンケンマネジメント,0
4709,8010001251682,新規,0,2025-01-27,2025-01-27,オンラインフィットネス株式会社,,株式会社,東京都,中央区,日本橋富沢町１１－１９・ＳＯＨＯ３０・７０６号室,,13,102,1030006,,,,,,,2025-01-27,1,,,,,オンラインフィットネス,0
4715,8010003046156,新規,0,2025-01-27,2025-01-27,合同会社ＳＯＵ,,合同会社,東京都,中央区,八丁堀２丁目２７番６号,,13,102,1040032,,,,,,,2025-01-27,1,,,,,ソウ,0
4721,8010401187733,新規,0,2025-01-27,2025-01-27,イノベストメントソリューションズ株式会社,,株式会社,東京都,港区,六本木６丁目１０番１号六本木ヒルズ森タワー１６階,,13,103,1060032,,,,,,,2025-01-27,1,,,,,イノベストメントソリューションズ,0
4722,8010401187741,新規,0,2025-01-27,2025-01-27,株式会社Ｍｅｄｉｃａｌ　Ｔｒｕｎｋ,,株式会社,東京都,港区,南青山３丁目８番４０号青山センタービル２Ｆ,,13,103,1070062,,,,,,,2025-01-27,1,,,,,メディカルトランク,0
4723,8010401187766,新規,0,2025-01-27,2025-01-27,ＷＯＲＬＤ株式会社,,株式会社,東京都,港区,南青山２丁目１０番１４号ＡｏｙａｍａＡｎｎｅｘ３階,,13,103,1070062,,,,,,,2025-01-27,1,,,,,ワールド,0
4724,8010401187782,新規,0,2025-01-27,2025-01-27,株式会社Ｅｔｈｏｓ　ａｎｄ　Ｐａｒｔｎｅｒｓ,,株式会社,東京都,港区,六本木３丁目７番１－５１３号,,13,103,1060032,,,,,,,2025-01-27,1,,,,,エトスアンドパートナーズ,0
4726,8010403034207,新規,0,2025-01-27,2025-01-27,合同会社ピコラ,,合同会社,東京都,港区,港南２丁目１６番７号品川Ｖタワー２７１３号,,13,103,1080075,,,,,,,2025-01-27,1,,,,,ピコラ,0
4727,8010403034231,新規,0,2025-01-27,2025-01-27,永泰プロパティ合同会社,,合同会社,東京都,港区,高輪３丁目１１番１－５０４号,,13,103,1080074,,,,,,,2025-01-27,1,,,,,ナガタイプロパティ,0
4728,8010403034289,新規,0,2025-01-27,2025-01-27,合同会社ムーム,,合同会社,東京都,港区,南青山２丁目２番１５号ウィン青山９４２,,13,103,1070062,,,,,,,2025-01-27,1,,,,,ムーム,0
4733,8010501053521,新規,0,2025-01-27,2025-01-27,天馬科技株式会社,,株式会社,東京都,台東区,上野６丁目１－６御徒町グリーンハイツ６０９号室,,13,106,1100005,,,,,,,2025-01-27,1,,,,,テンマカギ,0
4734,8010503007715,新規,0,2025-01-27,2025-01-27,合同会社スターブリッジ,,合同会社,東京都,台東区,上野５丁目１０番１１号,,13,106,1100005,,,,,,,2025-01-27,1,,,,,スターブリッジ,0
4735,8010603011344,新規,0,2025-01-27,2025-01-27,合同会社ＳＷＳ管理,,合同会社,東京都,江東区,東陽２丁目４番２号新宮ビル２階,,13,108,1350016,,,,,,,2025-01-27,1,,,,,エスダブリューエスカンリ,0
4736,8010701047141,新規,0,2025-01-27,2025-01-27,株式会社Ｃｒｅａｔｏｒ・Ｖｏｌｅｒ,,株式会社,東京都,品川区,荏原２丁目１６番４号ケルミス１号室,,13,109,1420063,,,,,,,2025-01-27,1,,,,,クリエイターヴォレ,0
4740,8010905004723,新規,0,2025-01-27,2025-01-27,一般社団法人ＣＯＭＯＤＩＳ,,その他の設立登記法人,東京都,世田谷区,太子堂４丁目１８番１５号マガザン三軒茶屋２－３Ｆ－３,,13,112,1540004,,,,,,,2025-01-27,1,,,,,コモディス,0
4743,8011003020860,新規,0,2025-01-27,2025-01-27,合同会社シルラボ,,合同会社,東京都,渋谷区,桜丘町１８番４号二宮ビル１Ｆ－７２,,13,113,1500031,,,,,,,2025-01-27,1,,,,,シルラボ,0
4748,8011101110373,新規,0,2025-01-27,2025-01-27,Ｃａｓｈ　Ｃａｐｉｔａｌ株式会社,,株式会社,東京都,新宿区,西早稲田１丁目１１－１１－４０６号,,13,104,1690051,,,,,,,2025-01-27,1,,,,,キャッシュキャピタル,0
4749,8011103015455,新規,0,2025-01-27,2025-01-27,合同会社Ｆｕｎｎｙ　ｌａｂ,,合同会社,東京都,新宿区,西新宿３丁目３番１３号西新宿水間ビル６階,,13,104,1600023,,,,,,,2025-01-27,1,,,,,ファニーラボ,0
4750,8011201026081,新規,0,2025-01-27,2025-01-27,株式会社ユーオフィス,,株式会社,東京都,中野区,中野２丁目３番６号,,13,114,1640001,,,,,,,2025-01-27,1,,,,,ユーオフィス,0
4753,8011701028016,新規,0,2025-01-27,2025-01-27,株式会社平新総合管理,,株式会社,東京都,江戸川区,西一之江３丁目４５番３号,,13,123,1320023,,,,,,,2025-01-27,1,,,,,ヒラシンソウゴウカンリ,0
4755,8011803006662,新規,0,2025-01-27,2025-01-27,味仙ハウス合同会社,,合同会社,東京都,足立区,東綾瀬２丁目１－４,,13,121,1200004,,,,,,,2025-01-27,1,,,,,ミセン,0
4758,8012401042711,新規,0,2025-01-27,2025-01-27,シュガー株式会社,,株式会社,東京都,稲城市,押立８５８番地の１５,,13,225,2060811,,,,,,,2025-01-27,1,,,,,シュガー,0
4760,8012403006937,新規,0,2025-01-27,2025-01-27,合同会社グレイトクオリティ,,合同会社,東京都,武蔵野市,緑町２丁目６番５－４０７号武蔵野緑町二丁目第３アパート,,13,203,1800012,,,,,,,2025-01-27,1,,,,,グレイトクオリティ,0
4761,8013301053674,新規,0,2025-01-27,2025-01-27,株式会社ＣＡＮＤＩＤ,,株式会社,東京都,豊島区,西池袋２丁目３１－１７－３０５,,13,116,1710021,,,,,,,2025-01-27,1,,,,,キャンディッド,0
4771,8020001160874,新規,0,2025-01-27,2025-01-27,株式会社ＮＡＮＡＩＲＯ,,株式会社,神奈川県,横浜市保土ケ谷区,岩井町１－７,,14,106,2400023,,,,,,,2025-01-27,1,,,,,ナナイロ,0
4772,8020001160973,新規,0,2025-01-27,2025-01-27,株式会社横浜経営サポート,,株式会社,神奈川県,横浜市神奈川区,鶴屋町３丁目２９番地９タクエー横浜西口第６ビル６階,,14,102,2210835,,,,,,,2025-01-27,1,,,,,ヨコハマケイエイサポート,0
4773,8020001161063,新規,0,2025-01-27,2025-01-27,株式会社ＳＥＩＴＥＮ,,株式会社,神奈川県,横浜市西区,みなとみらい４丁目９番２－Ｃ２２０９号,,14,103,2200012,,,,,,,2025-01-27,1,,,,,セイテン,0
4778,8020003027618,新規,0,2025-01-27,2025-01-27,合同会社ｍａｒｕｃｏｒｏ,,合同会社,神奈川県,横浜市神奈川区,金港町５－１４クアドリフォリオ８階,,14,102,2210056,,,,,,,2025-01-27,1,,,,,マルコロ,0
4779,8020003027626,新規,0,2025-01-27,2025-01-27,ＭＩＮＨ　ＣＨＩ合同会社,,合同会社,神奈川県,横浜市瀬谷区,中屋敷１丁目３４番地１コーポ・ナケイＢ棟１０２,,14,114,2460004,,,,,,,2025-01-27,1,,,,,ミンチー,0
4781,8021001084304,新規,0,2025-01-27,2025-01-27,株式会社Ｒｙｕ　ｐｒｏｐｅｒｔｙ　Ａｇｅｎｃｙ,,株式会社,神奈川県,平塚市,西八幡３丁目３番１１－２号,,14,203,2540073,,,,,,,2025-01-27,1,,,,,リュウプロパティエージェンシー,0
4798,8040001137169,新規,0,2025-01-27,2025-01-27,株式会社アッカ,,株式会社,千葉県,船橋市,習志野台１丁目３４番１５号,,12,204,2740063,,,,,,,2025-01-27,1,,,,,アッカ,0
4833,8070001042580,新規,0,2025-01-27,2025-01-27,株式会社Ｔ’ｓ,,株式会社,群馬県,前橋市,後閑町３７１番地１,,10,201,3710813,,,,,,,2025-01-27,1,,,,,ティーズ,0
4834,8070003005767,新規,0,2025-01-27,2025-01-27,ＮＬＫ日本合同会社,,合同会社,群馬県,伊勢崎市,今泉町１丁目１４９１番地２,,10,204,3720031,,,,,,,2025-01-27,1,,,,,エヌエルケイニホン,0
4845,8110001039011,新規,0,2025-01-27,2025-01-27,株式会社ＡＫコーポレーション,,株式会社,新潟県,五泉市,赤海１丁目１番１号,,15,218,9591821,,,,,,,2025-01-27,1,,,,,エイケイコーポレーション,0
4855,8120001272222,新規,0,2025-01-27,2025-01-27,銘輝株式会社,,株式会社,大阪府,大阪市浪速区,日本橋東１丁目２－１７遥華ビル２０１,,27,111,5560006,,,,,,,2025-01-27,1,,,,,メイキ,0
4856,8120001272288,新規,0,2025-01-27,2025-01-27,株式会社Ｈｏｏｋｕｐ,,株式会社,大阪府,大阪市北区,梅田１丁目２番２号大阪駅前第２ビル１２－１２,,27,127,5300001,,,,,,,2025-01-27,1,,,,,フックアップ,0
4861,8120005024727,新規,0,2025-01-27,2025-01-27,医療法人佑希会,,その他の設立登記法人,大阪府,大阪市福島区,福島５丁目１８番２５号３階,,27,103,5530003,,,,,,,2025-01-27,1,,,,,ユウキカイ,0
4862,8120101070939,新規,0,2025-01-27,2025-01-27,株式会社ＦＵＫ深井,,株式会社,大阪府,堺市中区,深井沢町３２７７番地プログレスビル１０１号室,,27,142,5998236,,,,,,,2025-01-27,1,,,,,エフユーケーフカイ,0
4863,8120101070947,新規,0,2025-01-27,2025-01-27,株式会社エムテック,,株式会社,大阪府,和泉市,幸２丁目１２番２０号,,27,219,5940005,,,,,,,2025-01-27,1,,,,,エムテック,0
4864,8120101070963,新規,0,2025-01-27,2025-01-27,ユウキ工業株式会社,,株式会社,大阪府,堺市堺区,戎之町東５丁５番９－２０５号,,27,141,5900945,,,,,,,2025-01-27,1,,,,,ユウキコウギョウ,0
4866,8120103006247,新規,0,2025-01-27,2025-01-27,合同会社ＩＴサービス,,合同会社,大阪府,藤井寺市,大井１丁目４番３３号己波ビル２階,,27,226,5830008,,,,,,,2025-01-27,1,,,,,アイティーサービス,0
4867,8120103006255,新規,0,2025-01-27,2025-01-27,合同会社ＫＹＴ,,合同会社,大阪府,泉大津市,東豊中町３丁目２－１,,27,206,5950021,,,,,,,2025-01-27,1,,,,,ケイワイティ,0
4872,8120901050347,新規,0,2025-01-27,2025-01-27,株式会社コムプロテクション,,株式会社,大阪府,吹田市,泉町４丁目３５番２０号,,27,205,5640041,,,,,,,2025-01-27,1,,,,,コムプロテクション,0
4882,8140001137191,新規,0,2025-01-27,2025-01-27,株式会社Ｌｉｍ,,株式会社,兵庫県,神戸市中央区,磯辺通２丁目２番１０－１００３号,,28,110,6510084,,,,,,,2025-01-27,1,,,,,リム,0
4883,8140001137209,新規,0,2025-01-27,2025-01-27,株式会社甲陽ビル,,株式会社,兵庫県,西宮市,甲陽園目神山町２３番４５号,,28,204,6620011,,,,,,,2025-01-27,1,,,,,コウヨウビル,0
4885,8140005027364,新規,0,2025-01-27,2025-01-27,一般財団法人ゆきかぜ,,その他の設立登記法人,兵庫県,神戸市長田区,大橋町５丁目３番１号アスタプラザイースト２２０,,28,106,6530037,,,,,,,2025-01-27,1,,,,,ユキカゼ,0
4887,8150003003481,新規,0,2025-01-27,2025-01-27,合同会社ウェルハウジング,,合同会社,奈良県,吉野郡東吉野村,大字小川１７８１番地,,29,453,6332421,,,,,,,2025-01-27,1,,,,,ウェルハウジング,0
4901,8200001043375,新規,0,2025-01-27,2025-01-27,株式会社聖木,,株式会社,岐阜県,各務原市,川島松倉町２２０２番地１５,,21,213,5016022,,,,,,,2025-01-27,1,,,,,ショウキ,0
4938,8220001026460,新規,0,2025-01-27,2025-01-27,ＹＥＬＬＯＷ　ＬＩＯＮ　ＪＡＰＡＮ株式会社,,株式会社,石川県,加賀市,別所町漆器団地１４番地４,,17,206,9220274,,,,,,,2025-01-27,1,,,,,イエローライオンジャパン,0
4939,8230001020719,新規,0,2025-01-27,2025-01-27,叶音商会株式会社,,株式会社,富山県,射水市,七美２丁目２番地７,,16,211,9330252,,,,,,,2025-01-27,1,,,,,カオンショウカイ,0
4943,8240001064442,新規,0,2025-01-27,2025-01-27,株式会社サファルタ,,株式会社,広島県,広島市中区,八丁堀１２番２０－８０２号,,34,101,7300013,,,,,,,2025-01-27,1,,,,,サファルタ,0
4944,8240001064450,新規,0,2025-01-27,2025-01-27,株式会社ＡＳＵＳＥＥＤ,,株式会社,広島県,広島市中区,鉄砲町６－１,,34,101,7300017,,,,,,,2025-01-27,1,,,,,アスシード,0
4945,8240003007028,新規,0,2025-01-27,2025-01-27,合同会社島の屋,,合同会社,広島県,呉市,下蒲刈町下島２２２９－９,,34,202,7370303,,,,,,,2025-01-27,1,,,,,シマノヤ,0
4951,8290801031232,新規,0,2025-01-27,2025-01-27,株式会社ＳＧＭ,,株式会社,福岡県,北九州市門司区,黄金町７番３２－２号（ひとみの森Ｂ棟２０１号）,,40,101,8000027,,,,,,,2025-01-27,1,,,,,エスジーエム,0
4953,8300001014060,新規,0,2025-01-27,2025-01-27,株式会社茅縫,,株式会社,佐賀県,佐賀市,諸富町大字為重４１０番地４アクアバージョン１０２号室,,41,201,8402102,,,,,,,2025-01-27,1,,,,,カヤヌイ,0
4981,8320001020908,新規,0,2025-01-27,2025-01-27,株式会社ホームドクター光リフォーム,,株式会社,大分県,佐伯市,城南町２９番２３号,,44,205,8760834,,,,,,,2025-01-27,1,,,,,ホームドクターヒカリリフォーム,0
4990,8330001032836,新規,0,2025-01-27,2025-01-27,くまもと地域みらいエネルギー株式会社,,株式会社,熊本県,上益城郡益城町,大字宮園４０４番地１,,43,443,8612241,,,,,,,2025-01-27,1,,,,,クマモトチイキミライエネルギー,0
4992,8330003010765,新規,0,2025-01-27,2025-01-27,合同会社真咲工業,,合同会社,熊本県,宇城市,小川町東小川１２６２番地,,43,213,8690613,,,,,,,2025-01-27,1,,,,,マサキコウギョウ,0
5006,8360001034706,新規,0,2025-01-27,2025-01-27,株式会社ワードネクスト,,株式会社,沖縄県,名護市,宇茂佐の森４丁目１３番地３,,47,209,9050009,,,,,,,2025-01-27,1,,,,,ワードネクスト,0
5007,8360001034714,新規,0,2025-01-27,2025-01-27,ＵＲ　Ｃｏｍｐａｎｙ株式会社,,株式会社,沖縄県,国頭郡今帰仁村,字玉城１０１番地,,47,306,9050415,,,,,,,2025-01-27,1,,,,,ユーアールカンパニー,0
5010,8360003014631,新規,0,2025-01-27,2025-01-27,合同会社ＳＵＮＲＩＳＥ７,,合同会社,沖縄県,中頭郡読谷村,字比謝３６５番地３,,47,324,9040311,,,,,,,2025-01-27,1,,,,,サンライズセブン,0
5015,8370001052161,新規,0,2025-01-27,2025-01-27,株式会社ジョイスト,,株式会社,宮城県,仙台市泉区,泉中央１丁目２８番地の１３,,04,105,9813133,,,,,,,2025-01-27,1,,,,,ジョイスト,0
5021,8380003005942,新規,0,2025-01-27,2025-01-27,合同会社ＨＦＰ,,合同会社,福島県,福島市,陣場町５番１５号舟山ビル１階,,07,201,9608032,,,,,,,2025-01-27,1,,,,,エイチエフピー,0
5023,8390001017864,新規,0,2025-01-27,2025-01-27,株式会社村尾旅館,,株式会社,山形県,上山市,新湯１番２８号,,06,207,9993141,,,,,,,2025-01-27,1,,,,,ムラオリョカン,0
5027,8400001016922,新規,0,2025-01-27,2025-01-27,盛岡買取不動産株式会社,,株式会社,岩手県,盛岡市,本宮２丁目１６番１号,,03,201,0200866,,,,,,,2025-01-27,1,,,,,モリオカカイトリフドウサン,0
5323,8430001093521,新規,0,2025-01-27,2025-01-27,梅花株式会社,,株式会社,北海道,札幌市中央区,南五条東１丁目５番地１エシール南５条９０２号室,,01,101,0600055,,,,,,,2025-01-27,1,,,,,バイカ,0
5324,8430001093538,新規,0,2025-01-27,2025-01-27,株式会社パンダダイレクト,,株式会社,北海道,札幌市南区,真駒内緑町３丁目２番４－１０５号,,01,106,0050013,,,,,,,2025-01-27,1,,,,,パンダダイレクト,0
5325,8430001093554,新規,0,2025-01-27,2025-01-27,株式会社ＥＺＯＯＮ,,株式会社,北海道,札幌市中央区,北八条西１３丁目２８番地２１,,01,101,0600008,,,,,,,2025-01-27,1,,,,,エゾーン,0
5335,8430003017206,新規,0,2025-01-27,2025-01-27,合同会社ギアギア,,合同会社,北海道,札幌市手稲区,富丘一条５丁目１１－１－１０１,,01,109,0060011,,,,,,,2025-01-27,1,,,,,ギアギア,0
5340,8450001014509,新規,0,2025-01-27,2025-01-27,株式会社エディー,,株式会社,北海道,旭川市,大町二条１８丁目２３４番地の１３２,,01,204,0700842,,,,,,,2025-01-27,1,,,,,エディー,0
5345,8460301005272,新規,0,2025-01-27,2025-01-27,株式会社ノースホライズン,,株式会社,北海道,北見市,三楽町２００番地１２,,01,208,0900019,,,,,,,2025-01-27,1,,,,,ノースホライズン,0
5346,8480001012732,新規,0,2025-01-27,2025-01-27,株式会社Ｈｙｐｅｒｉｏｎ,,株式会社,徳島県,徳島市,東船場町１丁目１２番地斎藤ビル２階,,36,201,7700911,,,,,,,2025-01-27,1,,,,,ハイペリオン,0
5370,8500001026110,新規,0,2025-01-27,2025-01-27,株式会社松山だんだんの杜,,株式会社,愛媛県,松山市,天山１丁目２番３１号,,38,201,7900951,,,,,,,2025-01-27,1,,,,,マツヤマダンダンノモリ,0
5371,8700150128967,新規,0,2025-01-27,2025-01-27,Ｒａｋｕｔｅｎ　Ｉｎｄｉａ　Ｅｎｔｅｒｐｒｉｓｅ　Ｐｒｉｖａｔｅ　Ｌｉｍｉｔｅｄ,,外国会社等,東京都,世田谷区,玉川１丁目１４－１,,13,112,1580094,Ｎｏ．２０，ＢａｇｍａｎｅＰａｌｌａｖｉＴｏｗｅｒ，１Ｃｒｏｓｓ，ＲａｊａＲａｍＭｏｈａｎＲｏｙＲｏａｄ，Ｓａｍｐａｎｇｉｒａｍｎａｇａｒ，Ｂａｎｇａｌｏｒｅ,,,,,,2025-01-27,1,,,,,ラクテンインデイアエンタプライズプライベートリミテツド,0
5377,9010001251203,新規,0,2025-01-27,2025-01-27,恒聚置業株式会社,,株式会社,東京都,中央区,日本橋馬喰町２丁目５番２号２階２０１号,,13,102,1030002,,,,,,,2025-01-27,1,,,,,コウジュチギョウ,0
5378,9010001251376,新規,0,2025-01-27,2025-01-27,Ｚ企画株式会社,,株式会社,東京都,中央区,日本橋室町１丁目１１番１２号日本橋水野ビル７階,,13,102,1030022,,,,,,,2025-01-27,1,,,,,ゼットキカク,0
5379,9010001251632,新規,0,2025-01-27,2025-01-27,＿昇科技株式会社,00137790,株式会社,東京都,千代田区,九段北１丁目６番６号,,13,101,1020073,,,,,,,2025-01-27,1,,,,,コウショウカギ,0
5380,9010001251640,新規,0,2025-01-27,2025-01-27,株式会社Ｋｅｙｓｔｏｎｅ　Ｗｏｒｋｓ,,株式会社,東京都,中央区,銀座６丁目６－１銀座風月堂ビル５Ｆ,,13,102,1040061,,,,,,,2025-01-27,1,,,,,キーストーンワークス,0
5381,9010001251665,新規,0,2025-01-27,2025-01-27,株式会社ＷＨＩＴＥ＆ＰＥＰＰＥＲ,,株式会社,東京都,中央区,銀座１丁目１２番４号Ｎ＆ＥＢＬＤ．６Ｆ,,13,102,1040061,,,,,,,2025-01-27,1,,,,,ホワイトアンドペッパー,0
5384,9010003046163,新規,0,2025-01-27,2025-01-27,合同会社ＥＮＫＯＰＡ　Ｌａｂ,,合同会社,東京都,中央区,日本橋茅場町１丁目８－１茅場町一丁目平和ビル,,13,102,1030025,,,,,,,2025-01-27,1,,,,,エンコパラボ,0
5385,9010003046171,新規,0,2025-01-27,2025-01-27,合同会社Ｋ‐Ｄｏｕｂｌｅ,,合同会社,東京都,中央区,日本橋横山町７－１０第２７イチオクビル３階３－Ｂ,,13,102,1030003,,,,,,,2025-01-27,1,,,,,ケイダブル,0
5386,9010003046188,新規,0,2025-01-27,2025-01-27,晴海２合同会社,,合同会社,東京都,千代田区,神田小川町３丁目２６番８号神田小川町三丁目ビル６階,,13,101,1010052,,,,,,,2025-01-27,1,,,,,ハルミツー,0
5387,9010105002320,新規,0,2025-01-27,2025-01-27,社会保険労務士法人だいち,,その他の設立登記法人,東京都,八王子市,元本郷町３丁目１５番７号,,13,201,1920051,,,,,,,2025-01-27,1,,,,,ダイチ,0
5390,9010401187699,新規,0,2025-01-27,2025-01-27,株式会社ＡＮＵ,,株式会社,東京都,港区,麻布十番２丁目３番６号,,13,103,1060045,,,,,,,2025-01-27,1,,,,,アヌウ,0
5391,9010401187708,新規,0,2025-01-27,2025-01-27,株式会社ＤＳＰマーケティング,,株式会社,東京都,港区,虎ノ門１丁目１７番１号虎ノ門ヒルズビジネスタワー１５階,,13,103,1050001,,,,,,,2025-01-27,1,,,,,ディーエスピーマーケティング,0
5395,9010405023966,新規,0,2025-01-27,2025-01-27,一般社団法人日本家業承継協会,,その他の設立登記法人,東京都,港区,高輪１丁目２番１６号６階,,13,103,1080074,,,,,,,2025-01-27,1,,,,,ニホンカギョウショウケイキョウカイ,0
5405,9010803005260,新規,0,2025-01-27,2025-01-27,合同会社関,,合同会社,東京都,大田区,仲六郷１丁目３６－７,,13,111,1440055,,,,,,,2025-01-27,1,,,,,セキ,0
5407,9010901056701,新規,0,2025-01-27,2025-01-27,株式会社ＧｒｏｗｔｈＰａｔｈ,,株式会社,東京都,世田谷区,弦巻１丁目４３－１３,,13,112,1540016,,,,,,,2025-01-27,1,,,,,グロウスパス,0
5411,9011001167199,新規,0,2025-01-27,2025-01-27,株式会社ユンカース,,株式会社,東京都,渋谷区,恵比寿西２丁目４番８号ウィンド恵比寿ビル８階,,13,113,1500021,,,,,,,2025-01-27,1,,,,,ユンカース,0
5412,9011001167397,新規,0,2025-01-27,2025-01-27,株式会社ラムダリンクス,,株式会社,東京都,渋谷区,代々木２丁目２６番１１号,,13,113,1510053,,,,,,,2025-01-27,1,,,,,ラムダリンクス,0
5415,9011005010834,新規,0,2025-01-27,2025-01-27,特定非営利活動法人日本テレ・リハビリテーション研究所,,その他の設立登記法人,東京都,渋谷区,道玄坂１丁目１０番８号渋谷道玄坂東急ビル２Ｆ－Ｃ,,13,113,1500043,,,,,,,2025-01-27,1,,,,,ニホンテレリハビリテーションケンキュウジョ,0
5424,9011101110389,新規,0,2025-01-27,2025-01-27,おうちの相談株式会社,,株式会社,東京都,新宿区,袋町５番地１ＦＡＲＯ神楽坂１階,,13,104,1620828,,,,,,,2025-01-27,1,,,,,オウチノソウダン,0
5427,9011103015446,新規,0,2025-01-27,2025-01-27,合同会社Ｐｕｌｌ　Ｂａｃｋｓ,,合同会社,東京都,新宿区,高田馬場２丁目１９－８－３０３,,13,104,1690075,,,,,,,2025-01-27,1,,,,,プルバックス,0
5428,9011201026072,新規,0,2025-01-27,2025-01-27,株式会社ＩＣＨＩ,,株式会社,東京都,中野区,野方１丁目４番１６号ＭＮビル,,13,114,1650027,,,,,,,2025-01-27,1,,,,,イチ,0
5443,9012401042685,新規,0,2025-01-27,2025-01-27,ＭＹ　ＦＵＴＵＲＥ株式会社,,株式会社,東京都,三鷹市,上連雀５丁目１４番２２号,,13,204,1810012,,,,,,,2025-01-27,1,,,,,マイフューチャー,0
5444,9012401042710,新規,0,2025-01-27,2025-01-27,ｉ‐Ｒｅｄｅｓｉｇｎ株式会社,,株式会社,東京都,武蔵野市,吉祥寺南町２丁目２６番２０号,,13,203,1800003,,,,,,,2025-01-27,1,,,,,アイリデザイン,0
5445,9012403006928,新規,0,2025-01-27,2025-01-27,合同会社ＭＡＹマネジメント,,合同会社,東京都,小金井市,東町３丁目１７番３号（２０）,,13,210,1840011,,,,,,,2025-01-27,1,,,,,エムエイワイマネジメント,0
5446,9012403006936,新規,0,2025-01-27,2025-01-27,合同会社ＧＭ,,合同会社,東京都,調布市,多摩川１丁目２９番地１５調布ザ・センチュリー３３２,,13,208,1820025,,,,,,,2025-01-27,1,,,,,ジーエム,0
5465,9021001084113,新規,0,2025-01-27,2025-01-27,株式会社ＫＡＺＵＴＯ,,株式会社,神奈川県,藤沢市,善行１丁目１０番地の２８ジュネパレス第二１０１,,14,205,2510871,,,,,,,2025-01-27,1,,,,,カズト,0
5466,9021001084303,新規,0,2025-01-27,2025-01-27,株式会社Ｌｏｋａｈｉ,,株式会社,神奈川県,三浦郡葉山町,長柄１６０１番地の２６,,14,301,2400113,,,,,,,2025-01-27,1,,,,,ロカヒ,0
5467,9021001084328,新規,0,2025-01-27,2025-01-27,澤口商事株式会社,,株式会社,神奈川県,藤沢市,辻堂西海岸２丁目１３番２～１２０号,,14,205,2510046,,,,,,,2025-01-27,1,,,,,サワグチショウジ,0
5476,9030001164568,新規,0,2025-01-27,2025-01-27,ＺＭ株式会社,,株式会社,埼玉県,川口市,西川口１丁目３０番２０－１０１号室,,11,203,3320021,,,,,,,2025-01-27,1,,,,,ジーエム,0
5483,9040001137168,新規,0,2025-01-27,2025-01-27,株式会社ＳＨＯＴ,,株式会社,千葉県,千葉市中央区,仁戸名町９番地４６,,12,101,2600801,,,,,,,2025-01-27,1,,,,,ショット,0
5491,9050005013546,新規,0,2025-01-27,2025-01-27,一般社団法人接友会,,その他の設立登記法人,茨城県,常総市,向石下１０５３番地１,,08,211,3002742,,,,,,,2025-01-27,1,,,,,セツユウカイ,0
5521,9070001042563,新規,0,2025-01-27,2025-01-27,株式会社ＤＡＲＵＭＡＤＥＮＫＯ,,株式会社,群馬県,佐波郡玉村町,大字上新田１１１４番地４,,10,464,3701133,,,,,,,2025-01-27,1,,,,,ダルマデンコー,0
5525,9080101025260,新規,0,2025-01-27,2025-01-27,株式会社日誠フーズ,,株式会社,静岡県,駿東郡清水町,玉川２２８番地の３,,22,341,4110902,,,,,,,2025-01-27,1,,,,,ニッセイフーズ,0
5526,9080401027709,新規,0,2025-01-27,2025-01-27,株式会社ＧＳＳ研究所,,株式会社,静岡県,浜松市中央区,常盤町１４４番地の６常盤町レジデンス８０４号,,22,138,4300917,,,,,,,2025-01-27,1,,,,,ゴールシークサポートケンキュウジョ,0
5529,9090003002729,新規,0,2025-01-27,2025-01-27,合同会社Ｔａｋｉｚａｗａ　Ｋｏｎｚｅｒｎ,,合同会社,山梨県,甲府市,千塚３丁目４番２３号,,19,201,4000074,,,,,,,2025-01-27,1,,,,,タキザワコンツェルン,0
5536,9110003005646,新規,0,2025-01-27,2025-01-27,Ｗａｔｅｒ　Ｔｒｅａｔｍｅｎｔ　Ｓｅｒｖｉｃｅ合同会社,,合同会社,新潟県,長岡市,豊２丁目３番１３号,,15,202,9400867,,,,,,,2025-01-27,1,,,,,ウオータートリートメントサービス,0
5546,9120001272163,新規,0,2025-01-27,2025-01-27,富山郁美株式会社,,株式会社,大阪府,大阪市生野区,田島５丁目１５番１７－１０２号室,,27,116,5440011,,,,,,,2025-01-27,1,,,,,トヤマイクミ,0
5547,9120001272196,新規,0,2025-01-27,2025-01-27,森三木商事株式会社,,株式会社,大阪府,大阪市中央区,南本町２丁目５番１３－３４０４号,,27,128,5410054,,,,,,,2025-01-27,1,,,,,モリミキショウジ,0
5548,9120001272238,新規,0,2025-01-27,2025-01-27,奕和株式会社,,株式会社,大阪府,大阪市天王寺区,玉造元町３－１６アプローズサンライズ玉造５０５号室,,27,109,5430014,,,,,,,2025-01-27,1,,,,,エキワ,0
5549,9120001272279,新規,0,2025-01-27,2025-01-27,株式会社ＩＶＹ,,株式会社,大阪府,大阪市浪速区,難波中２丁目８番６５号新光ビル,,27,111,5560011,,,,,,,2025-01-27,1,,,,,アイビー,0
5550,9120001272304,新規,0,2025-01-27,2025-01-27,株式会社クロスイブ,,株式会社,大阪府,大阪市北区,角田町８番１号大阪梅田ツインタワーズ・ノース１９階,,27,127,5300017,,,,,,,2025-01-27,1,,,,,クロスイブ,0
5553,9120003028472,新規,0,2025-01-27,2025-01-27,合同会社ＨＯＲＩＺＯＮ,,合同会社,大阪府,大阪市北区,梅田１丁目２番２号大阪駅前第２ビル１２－１２,,27,127,5300001,,,,,,,2025-01-27,1,,,,,ホライズン,0
5556,9120101070946,新規,0,2025-01-27,2025-01-27,泰達国際株式会社,,株式会社,大阪府,和泉市,国分町１６２３,,27,219,5941114,,,,,,,2025-01-27,1,,,,,タイタツコクサイ,0
5557,9120101070979,新規,0,2025-01-27,2025-01-27,福ハウジング株式会社,,株式会社,大阪府,堺市中区,深阪１丁１６番１５号,,27,142,5998253,,,,,,,2025-01-27,1,,,,,フクハウジング,0
5562,9122001038833,新規,0,2025-01-27,2025-01-27,株式会社マナベ,,株式会社,大阪府,八尾市,長池町４丁目１００番地の１１,,27,212,5810836,,,,,,,2025-01-27,1,,,,,マナベ,0
5563,9122001038841,新規,0,2025-01-27,2025-01-27,株式会社Ｓｍｉｌｅ　ｅｎｖｉｓｉｏｎ,,株式会社,大阪府,東大阪市,稲田本町３丁目６番２号,,27,227,5770007,,,,,,,2025-01-27,1,,,,,スマイルエンビジョン,0
5568,9130001078849,新規,0,2025-01-27,2025-01-27,株式会社Ｎフィールド,,株式会社,京都府,宇治市,木幡御蔵山３９番地の４９４,,26,204,6110002,,,,,,,2025-01-27,1,,,,,エヌフィールド,0
5581,9140001137182,新規,0,2025-01-27,2025-01-27,株式会社ＦＫＨ,,株式会社,兵庫県,芦屋市,山芦屋町６番２号－２０１号室,00137787,28,206,6590082,,,,,,,2025-01-27,1,,,,,エフケイエイチ,0
5586,9150003003480,新規,0,2025-01-27,2025-01-27,さくらんぼ合同会社,,合同会社,奈良県,北葛城郡上牧町,葛城台２丁目１番１２号,,29,424,6390215,,,,,,,2025-01-27,1,,,,,サクランボ,0
5588,9160001026508,新規,0,2025-01-27,2025-01-27,株式会社叶総業,,株式会社,滋賀県,湖南市,菩提寺１６３０番地１,,25,211,5203242,,,,,,,2025-01-27,1,,,,,カナウソウギョウ,0
5608,9190001031959,新規,0,2025-01-27,2025-01-27,株式会社Ｓａｚｏｙａ,,株式会社,三重県,伊勢市,馬瀬町４４９番地２,,24,203,5160002,,,,,,,2025-01-27,1,,,,,サゾヤ,0
5610,9190005012014,新規,0,2025-01-27,2025-01-27,特定非営利活動法人多気の郷元気づくり協議会,,その他の設立登記法人,三重県,津市,美杉町下多気２８８３番地,,24,201,5153311,,,,,,,2025-01-27,1,,,,,タゲノサトゲンキヅクリキョウギカイ,0
5611,9200001043374,新規,0,2025-01-27,2025-01-27,株式会社ＷＡＳＳＨＯＩ,,株式会社,岐阜県,美濃加茂市,本郷町７丁目８番１３－３号,,21,211,5050027,,,,,,,2025-01-27,1,,,,,ワッショイ,0
5612,9200001043382,新規,0,2025-01-27,2025-01-27,株式会社フィールドパートナーズ,,株式会社,岐阜県,羽島郡岐南町,伏屋９丁目１６７番地,,21,302,5016006,,,,,,,2025-01-27,1,,,,,フィールドパートナーズ,0
5613,9200003006676,新規,0,2025-01-27,2025-01-27,ＬＩＧＨＴ　ＵＰ合同会社,,合同会社,岐阜県,恵那市,山岡町馬場山田１５０９番地１－１－３,,21,210,5097602,,,,,,,2025-01-27,1,,,,,ライトアップ,0
5614,9200005013712,新規,0,2025-01-27,2025-01-27,土地家屋調査士法人ジャムズ,,その他の設立登記法人,岐阜県,関市,平和通１丁目１１番地,,21,205,5013874,,,,,,,2025-01-27,1,,,,,ジャムズ,0
5656,9260001039854,新規,0,2025-01-27,2025-01-27,株式会社香春商事,,株式会社,岡山県,岡山市南区,芳泉４丁目６番５０号,,33,104,7028027,,,,,,,2025-01-27,1,,,,,カワラショウジ,0
5658,9290001108714,新規,0,2025-01-27,2025-01-27,株式会社天元突破,,株式会社,福岡県,糸島市,浦志３丁目３番７号,,40,230,8191112,,,,,,,2025-01-27,1,,,,,テンゲントッパ,0
5661,9290003016320,新規,0,2025-01-27,2025-01-27,山下米商合同会社,,合同会社,福岡県,久留米市,長門石１丁目９番２１号,,40,203,8300027,,,,,,,2025-01-27,1,,,,,ヤマシタベイショウ,0
5720,9330001032835,新規,0,2025-01-27,2025-01-27,株式会社ガレージＯＧＡＴＡ,,株式会社,熊本県,上益城郡甲佐町,大字府領２２２７番地１,,43,444,8614615,,,,,,,2025-01-27,1,,,,,ガレージオガタ,0
5722,9330003010764,新規,0,2025-01-27,2025-01-27,合同会社ＪＵＮ,,合同会社,熊本県,八代市,竹原町１５２０番地５,,43,202,8660826,,,,,,,2025-01-27,1,,,,,ジュン,0
5724,9340001027082,新規,0,2025-01-27,2025-01-27,株式会社髭リズム,,株式会社,鹿児島県,霧島市,国分中央３丁目９番１０号エコービル３階,,46,218,8994332,,,,,,,2025-01-27,1,,,,,ヒゲリズム,0
5737,9360003014614,新規,0,2025-01-27,2025-01-27,Ｗｅｌｉｎａ合同会社,,合同会社,沖縄県,浦添市,港川１丁目１５番３号ＫＵＲＡＳＵ２Ｆ,,47,208,9012134,,,,,,,2025-01-27,1,,,,,ウェリナ,0
5738,9360003014639,新規,0,2025-01-27,2025-01-27,合同会社ステラ,,合同会社,沖縄県,浦添市,宮城６丁目１番１１号,,47,208,9012126,,,,,,,2025-01-27,1,,,,,ステラ,0
5740,9370001052111,新規,0,2025-01-27,2025-01-27,株式会社ストライブｐｌｕｓ,,株式会社,宮城県,仙台市若林区,南小泉２丁目３番８号,,04,103,9840827,,,,,,,2025-01-27,1,,,,,ストライブプラス,0
5741,9370001052169,新規,0,2025-01-27,2025-01-27,藤橋エンジニアリング株式会社,,株式会社,宮城県,仙台市泉区,福岡字岳山７番地の１８８,,04,105,9813225,,,,,,,2025-01-27,1,,,,,フジハシエンジニアリング,0
5743,9380001035065,新規,0,2025-01-27,2025-01-27,株式会社Ｓ＆Ｗ,,株式会社,福島県,本宮市,本宮字塩田入９９番地１,,07,214,9691153,,,,,,,2025-01-27,1,,,,,エスアンドダブリュー,0
5748,9390001017863,新規,0,2025-01-27,2025-01-27,株式会社建貴,,株式会社,山形県,東置賜郡川西町,大字洲島３０８４番地,,06,382,9990211,,,,,,,2025-01-27,1,,,,,ケンキ,0
5750,9400001016921,新規,0,2025-01-27,2025-01-27,株式会社オーヤ不動産,,株式会社,岩手県,盛岡市,盛岡駅前北通９番４４号,,03,201,0200033,,,,,,,2025-01-27,1,,,,,オーヤフドウサン,0
5752,9400003003380,新規,0,2025-01-27,2025-01-27,合同会社ＤＦＫ,,合同会社,岩手県,北上市,村崎野１８地割３１３－１,,03,206,0240004,,,,,,,2025-01-27,1,,,,,ディーエフケー,0
6029,9430001093545,新規,0,2025-01-27,2025-01-27,株式会社一生懸命生きてます,,株式会社,北海道,札幌市北区,新琴似十一条１丁目１番４号,,01,102,0010911,,,,,,,2025-01-27,1,,,,,イッショウケンメイイキテマス,0
6051,9450001014516,新規,0,2025-01-27,2025-01-27,株式会社Ｆａｒｍ六花,,株式会社,北海道,旭川市,東鷹栖十線十六号３２６０番地の２３,,01,204,0718160,,,,,,,2025-01-27,1,,,,,ファームリッカ,0
6053,9480001012723,新規,0,2025-01-27,2025-01-27,株式会社後藤石油,,株式会社,徳島県,徳島市,万代町５丁目８番地の３,,36,201,7700941,,,,,,,2025-01-27,1,,,,,ゴトウセキユ,0
6054,9480001012731,新規,0,2025-01-27,2025-01-27,株式会社空き家ＺＥＲＯ,,株式会社,徳島県,徳島市,国府町桜間字万ノ内７１番地１,,36,201,7793114,,,,,,,2025-01-27,1,,,,,アキヤゼロ,0
6073,9500001026118,新規,0,2025-01-27,2025-01-27,株式会社蒼和,,株式会社,愛媛県,今治市,玉川町中村甲７９８番地１,,38,202,7940111,,,,,,,2025-01-27,1,,,,,ソウワ,0
6074,9500003003420,新規,0,2025-01-27,2025-01-27,合同会社チェンジ,,合同会社,愛媛県,松山市,桑原２丁目７番２０号セレネ三番館４０７,,38,201,7900911,,,,,,,2025-01-27,1,,,,,チェンジ,0
6075,9700150128958,新規,0,2025-01-27,2025-01-27,地縁法人小川上公会堂,,その他,静岡県,焼津市,西小川４丁目４番地の１１,,22,212,4250036,,,,,,,2025-01-27,1,,,,,チエンホウジンコガワカミコウカイドウ,0
6076,9700150128966,新規,0,2025-01-27,2025-01-27,ＭＩＨＩＲＡ　ＳＴＵＤＩＯ　ＡＮＤ　ＳＴＯＲＥＳ,,外国会社等,茨城県,龍ケ崎市,佐貫４丁目１８番地３　ウイングＢ－Ａ,,08,208,3010032,スリランカ民主社会主義共和国パレベッダ、メインストリート、ミヒラスタジオ、Ｎｏ３／１,,,,,,2025-01-27,1,,,,,ミラスタジオアンドストアズ,0
