sequenceNumber,corporateNumber,process,correct,updateDate,changeDate,name,nameImageId,kind,prefectureName,cityName,streetNumber,addressImageId,prefectureCode,cityCode,postCode,addressOutside,addressOutsideImageId,closeDate,closeCause,successorCorporateNumber,changeCause,assignmentDate,latest,enName,enPrefectureName,enCityName,enAddressOutside,furigana,hihyoji
29,1010405017843,登記記録の閉鎖等,0,2025-11-21,2025-11-17,一般社団法人事業承継はファミリーミーティングで解決推進協議会,,その他の設立登記法人,東京都,中野区,東中野４丁目２番１９号コンフォリア東中野ＤＥＵＸ９０３,,13,114,1640003,,,2025-11-17,清算の結了等,,,2019-07-17,1,,,,,ジギョウショウケイハファミリーミーティングデカイケツスイシンキョウギカイ,0
43,1011101016949,登記記録の閉鎖等,0,2025-11-21,2025-11-19,株式会社Ｃｌａｙ　Ｓｃｉｅｎｃｅ,,株式会社,東京都,新宿区,新宿１丁目１９番１０号,,13,104,1600022,,,2025-11-19,清算の結了等,,,2015-10-05,1,,,,,クレイサイエンス,0
55,1011602021687,登記記録の閉鎖等,0,2025-11-21,2025-11-17,有限会社オグチ薬局,,有限会社,東京都,練馬区,関町北５丁目１５番２６号,,13,120,1770051,,,2025-11-17,清算の結了等,,,2015-10-05,1,,,,,オグチヤッキョク,0
58,1011701013726,登記記録の閉鎖等,0,2025-11-21,2025-11-18,富士重株式会社,,株式会社,長崎県,対馬市,上対馬町鰐浦９２１番地,,42,209,8171723,,,2025-11-18,清算の結了等,,,2015-10-05,1,,,,,フジシゲ,0
79,1030002005076,登記記録の閉鎖等,0,2025-11-21,2025-11-14,有限会社小泉機材,,有限会社,埼玉県,さいたま市北区,奈良町９８番地の８,,11,102,3310822,,,2025-11-14,清算の結了等,,,2015-10-05,1,,,,,コイズミキザイ,0
81,1030002104233,登記記録の閉鎖等,0,2025-11-21,2025-11-14,有限会社セントラル富士,,有限会社,埼玉県,川口市,戸塚３丁目２８番２７号,,11,203,3330811,,,2025-11-14,清算の結了等,,,2015-10-05,1,,,,,セントラルフジ,0
82,1030002114348,登記記録の閉鎖等,0,2025-11-21,2025-11-17,有限会社ヤジマメンテナンス,,有限会社,埼玉県,熊谷市,瀬南２４７番地,,11,202,3600834,,,2025-11-17,清算の結了等,,,2015-10-05,1,,,,,ヤジマメンテナンス,0
106,1100001030472,登記記録の閉鎖等,0,2025-11-21,2025-11-19,エムズファースト株式会社,,株式会社,長野県,松本市,井川城３丁目９番１０号,,20,202,3900831,,,2025-11-19,清算の結了等,,,2017-07-24,1,,,,,エムズファースト,0
111,1120001000416,登記記録の閉鎖等,0,2025-11-21,2025-11-19,株式会社興津建材店,,株式会社,大阪府,大阪市旭区,森小路１丁目８番１８号,,27,117,5350013,,,2025-11-19,清算の結了等,,,2015-10-05,1,,,,,オキツケンザイテン,0
112,1120001126450,登記記録の閉鎖等,0,2025-11-21,2025-11-18,株式会社マーベル企画,,株式会社,大阪府,大阪市平野区,加美正覚寺３丁目１１番３－７１３号,,27,126,5470006,,,2025-11-18,清算の結了等,,,2015-10-05,1,,,,,マーベルキカク,0
115,1120001275958,登記記録の閉鎖等,0,2025-11-21,2025-11-18,蕾吉株式会社,,株式会社,大阪府,大阪市西成区,天下茶屋北１丁目５－１１－２Ｆ８室,,27,122,5570003,,,2025-11-18,清算の結了等,,,2025-05-21,1,,,,,ツボミヨシ,0
125,1120101056011,登記記録の閉鎖等,0,2025-11-21,2025-11-05,株式会社Ｒ’ｓ,,株式会社,大阪府,泉佐野市,野出町７番１１号,,27,213,5980041,,,2025-11-05,清算の結了等,,,2017-02-06,1,,,,,アールズ,0
131,1120902018275,登記記録の閉鎖等,0,2025-11-21,2025-11-06,有限会社ケイ・クリエイト,,有限会社,大阪府,豊中市,稲津町２丁目１１番１１号,,27,203,5610854,,,2025-11-06,清算の結了等,,,2015-10-05,1,,,,,ケイクリエイト,0
135,1130001027499,登記記録の閉鎖等,0,2025-11-21,2025-11-18,株式会社京都みさき屋,,株式会社,京都府,京都市西京区,川島粟田町３９番地４,,26,111,6158194,,,2025-11-18,清算の結了等,,,2015-10-05,1,,,,,キョウトミサキヤ,0
174,1180303005826,登記記録の閉鎖等,0,2025-11-21,2025-11-20,合同会社三制メンテナンス,,合同会社,愛知県,安城市,東栄町４丁目６番１５号,,23,212,4460007,,,2025-11-20,清算の結了等,,,2023-09-07,1,,,,,サンセイメンテナンス,0
178,1210001011321,登記記録の閉鎖等,0,2025-11-21,2025-11-17,株式会社ライフサポート,,株式会社,福井県,敦賀市,木崎１３号１番地１,,18,202,9140814,,,2025-11-17,清算の結了等,,,2015-10-05,1,,,,,ライフサポート,0
180,1220002007937,登記記録の閉鎖等,0,2025-11-21,2025-11-19,有限会社シンセイエステート,,有限会社,石川県,金沢市,泉野町１丁目８番１０号,,17,201,9218034,,,2025-11-19,清算の結了等,,,2015-10-05,1,,,,,,0
193,1290002019851,登記記録の閉鎖等,0,2025-11-21,2025-11-14,有限会社栗屋酒販,,有限会社,福岡県,福岡市博多区,美野島３丁目１９番３号,,40,132,8120017,,,2025-11-14,清算の結了等,,,2015-10-05,1,,,,,クリヤシュハン,0
198,1300001007806,登記記録の閉鎖等,0,2025-11-21,2025-11-19,株式会社ありがとう,,株式会社,佐賀県,唐津市,相知町牟田部１５５４番地１,,41,202,8493231,,,2025-11-19,清算の結了等,,,2015-10-05,1,,,,,アリガトウ,0
199,1310005001300,登記記録の閉鎖等,0,2025-11-21,2025-11-18,医療法人中島医院,,その他の設立登記法人,長崎県,長崎市,小瀬戸町１３４番地,,42,201,8500077,,,2025-11-18,清算の結了等,,,2015-10-05,1,,,,,ナカシマイイン,0
206,1330002025432,登記記録の閉鎖等,0,2025-11-21,2025-11-12,有限会社白山通商,,有限会社,熊本県,熊本市西区,沖新町１３２５番地,,43,103,8615273,,,2025-11-12,清算の結了等,,,2015-10-05,1,,,,,シラヤマツウショウ,0
219,1390001006188,登記記録の閉鎖等,0,2025-11-21,2025-11-19,株式会社小林信太郎商店,,株式会社,山形県,酒田市,本町２丁目４番５号,,06,204,9980043,,,2025-11-19,清算の結了等,,,2015-10-05,1,,,,,コバヤシシンタロウショウテン,0
222,1410002003636,登記記録の閉鎖等,0,2025-11-21,2025-11-18,有限会社三平光一建築設計事務所,,有限会社,秋田県,秋田市,旭南３丁目７番１４号,,05,201,0100925,,,2025-11-18,清算の結了等,,,2015-10-05,1,,,,,ミヒラコウイチケンチクセッケイジムショ,0
223,1410002012397,登記記録の閉鎖等,0,2025-11-21,2025-11-18,有限会社竹村保険事務所,,有限会社,秋田県,大仙市,大曲川原町７番３２－１号,,05,212,0140052,,,2025-11-18,清算の結了等,,,2015-10-05,1,,,,,タケムラホケンジムショ,0
238,1490002013074,登記記録の閉鎖等,0,2025-11-21,2025-11-19,有限会社サンジュウセイ,,有限会社,高知県,安芸市,川北乙１７４９番地７,,39,203,7840044,,,2025-11-19,清算の結了等,,,2015-10-05,1,,,,,サンジュウセイ,0
245,2010001205925,登記記録の閉鎖等,0,2025-11-21,2025-11-07,入金不要ボーナス株式会社,,株式会社,東京都,中央区,晴海３丁目６番８号,,13,102,1040053,,,2025-11-07,清算の結了等,,,2019-12-09,1,,,,,ニュウキンフヨウボーナス,0
247,2010001234429,登記記録の閉鎖等,0,2025-11-21,2025-11-18,Ｋｕｍａｍｅｎｓ株式会社,,株式会社,東京都,千代田区,内神田１丁目１１番１２号,,13,101,1010047,,,2025-11-18,合併による解散等,4330001017452,令和７年１１月１日熊本県玉名市天水町小天７７１６ものがたりＪＡＰＡＮ株式会社（4330001017452）に合併し解散,2023-04-11,1,,,,,クマメンズ,0
275,2010701039912,登記記録の閉鎖等,0,2025-11-21,2025-10-27,株式会社カチカチ,,株式会社,東京都,渋谷区,恵比寿西２丁目４番８号ウィンド恵比寿ビル８Ｆ,,13,113,1500021,,,2025-10-27,清算の結了等,,,2020-10-08,1,,,,,カチカチ,0
276,2010703004451,登記記録の閉鎖等,0,2025-11-21,2025-11-18,合同会社クローバー,,合同会社,東京都,品川区,大井５丁目２４番８号,,13,109,1400014,,,2025-11-18,合併による解散等,7010701025809,令和７年１１月１日東京都大田区蒲田五丁目２１－１３－５０２株式会社ウイナ・コーポレーション（7010701025809）に合併し解散,2018-09-18,1,,,,,クローバー,0
277,2010801000889,登記記録の閉鎖等,0,2025-11-21,2025-11-13,株式会社石川製作所,,株式会社,東京都,大田区,矢口３丁目５番８号,,13,111,1460093,,,2025-11-13,清算の結了等,,,2015-10-05,1,,,,,イシカワセイサクショ,0
279,2010802006084,登記記録の閉鎖等,0,2025-11-21,2025-11-11,有限会社さくら住設,,有限会社,東京都,大田区,中央３丁目１２番８号,,13,111,1430024,,,2025-11-11,清算の結了等,,,2015-10-05,1,,,,,サクラジュウセツ,0
280,2010901009335,登記記録の閉鎖等,0,2025-11-21,2025-11-14,日東石油株式会社,,株式会社,東京都,大田区,平和島５丁目２番２８号,,13,111,1430006,,,2025-11-14,清算の結了等,,,2015-10-05,1,,,,,ニットウセキユ,0
295,2011102016815,登記記録の閉鎖等,0,2025-11-21,2025-11-05,有限会社ケイジェイコーポレーション,,有限会社,東京都,新宿区,新宿７丁目９番２号,,13,104,1600022,,,2025-11-05,清算の結了等,,,2015-10-05,1,,,,,ケイジェイコーポレーション,0
315,2020001112526,登記記録の閉鎖等,0,2025-11-21,2025-10-29,株式会社サニー,,株式会社,東京都,渋谷区,恵比寿４丁目１８番１号,,13,113,1500013,,,2025-10-29,清算の結了等,,,2015-10-05,1,,,,,サニー,0
326,2020002079764,登記記録の閉鎖等,0,2025-11-21,2025-11-11,有限会社ケーツー,,有限会社,神奈川県,横浜市鶴見区,東寺尾２丁目２０番９－３０２号,,14,101,2300077,,,2025-11-11,清算の結了等,,,2015-10-05,1,,,,,ケーツー,0
346,2030002071142,登記記録の閉鎖等,0,2025-11-21,2025-11-07,有限会社三浦設備,,有限会社,埼玉県,春日部市,不動院野１２７６番地３,,11,214,3440001,,,2025-11-07,清算の結了等,,,2015-10-05,1,,,,,ミウラセツビ,0
347,2030002115782,登記記録の閉鎖等,0,2025-11-21,2025-11-14,有限会社小池運送,,有限会社,埼玉県,大里郡寄居町,大字寄居１０９０番地６,,11,408,3691203,,,2025-11-14,清算の結了等,,,2015-10-05,1,,,,,コイケウンソウ,0
364,2080102012248,登記記録の閉鎖等,0,2025-11-21,2025-11-18,有限会社スルガ食品,,有限会社,静岡県,三島市,塚原新田４９２番地の１,,22,206,4110016,,,2025-11-18,清算の結了等,,,2015-10-05,1,,,,,スルガショクヒン,0
369,2100001012866,登記記録の閉鎖等,0,2025-11-21,2025-11-19,株式会社太田製作所,,株式会社,長野県,松本市,白板１丁目４番４５号,,20,202,3900863,,,2025-11-19,清算の結了等,,,2015-10-05,1,,,,,オオタセイサクショ,0
370,2110002020702,登記記録の閉鎖等,0,2025-11-21,2025-11-13,有限会社高橋ホーム企画,00070892,有限会社,新潟県,柏崎市,大字下田尻２４５６番地,,15,205,9451345,,,2025-11-13,清算の結了等,,,2015-10-05,1,,,,,タカハシホームキカク,0
375,2120001238872,登記記録の閉鎖等,0,2025-11-21,2025-07-01,栄１丁目ホテルシステムズ株式会社,,株式会社,大阪府,大阪市北区,大淀中１丁目１番８８号,,27,127,5310076,,,2025-07-01,合併による解散等,8120001216583,令和７年７月１日大阪市北区大淀中一丁目１番８８号トリップベースホテルマネジメント株式会社（8120001216583）に合併し解散,2021-07-13,1,,,,,サカエイッチョウメホテルシステムズ,0
389,2120101021303,登記記録の閉鎖等,0,2025-11-21,2025-11-11,株式会社高正,00032242,株式会社,大阪府,堺市西区,鳳西町２丁１３番地の２,,27,144,5938326,,,2025-11-11,清算の結了等,,,2015-10-05,1,,,,,コウセイ,0
392,2120901025321,登記記録の閉鎖等,0,2025-11-21,2025-11-13,株式会社ビオテック,,株式会社,大阪府,豊中市,西泉丘１丁目６番５号,,27,203,5610862,,,2025-11-13,清算の結了等,,,2015-10-05,1,,,,,ビオテック,0
405,2140002059028,登記記録の閉鎖等,0,2025-11-21,2025-11-17,有限会社楽果,,有限会社,兵庫県,芦屋市,山芦屋町８－２２－１０２,00134335,28,206,6590082,,,2025-11-17,清算の結了等,,,2015-10-05,1,,,,,ラッカ,0
407,2150002009857,登記記録の閉鎖等,0,2025-11-21,2025-11-20,広南警備保障有限会社,,有限会社,奈良県,葛城市,北花内６２２番地の１,,29,211,6392113,,,2025-11-20,清算の結了等,,,2015-10-05,1,,,,,コウナンケイビホショウ,0
416,2180001134488,登記記録の閉鎖等,0,2025-11-21,2025-11-14,株式会社フミテック中部,,株式会社,愛知県,名古屋市天白区,久方１丁目１５１番地,,23,116,4680034,,,2025-11-14,清算の結了等,,,2018-11-20,1,,,,,,0
434,2200001018440,登記記録の閉鎖等,0,2025-11-21,2025-11-17,株式会社ヤイリ,,株式会社,岐阜県,可児市,下恵土１６９６番地１,,21,214,5090203,,,2025-11-17,清算の結了等,,,2015-10-05,1,,,,,ヤイリ,0
439,2210001014158,登記記録の閉鎖等,0,2025-11-21,2025-11-14,昭立鋼産株式会社,,株式会社,福井県,大飯郡おおい町,山田９号３番地,,18,483,9192112,,,2025-11-14,清算の結了等,,,2015-10-05,1,,,,,ショウリツコウサン,0
449,2240001001822,登記記録の閉鎖等,0,2025-11-21,2025-11-17,大盛建設コンサルタント株式会社,,株式会社,広島県,広島市中区,東千田町２丁目３番２６号,,34,101,7300053,,,2025-11-17,清算の結了等,,,2015-10-05,1,,,,,オオモリケンセツコンサルタント,0
454,2240002022933,登記記録の閉鎖等,0,2025-11-21,2025-11-18,有限会社オフィスプランニング,,有限会社,広島県,広島市佐伯区,河内南１丁目２３番７号,,34,108,7315153,,,2025-11-18,清算の結了等,,,2015-10-26,1,,,,,オフィスプランニング,0
457,2250001007463,登記記録の閉鎖等,0,2025-11-21,2025-11-17,新田設備株式会社,,株式会社,山口県,下関市,彦島江の浦町１丁目１２番１１号,,35,201,7500075,,,2025-11-17,清算の結了等,,,2015-10-05,1,,,,,ニッタセツビ,0
473,2310001002004,登記記録の閉鎖等,0,2025-11-21,2025-11-18,株式会社松崎組,,株式会社,長崎県,長崎市,香焼町２２３番地３,,42,201,8510310,,,2025-11-18,清算の結了等,,,2015-10-05,1,,,,,マツザキグミ,0
479,2330003004616,登記記録の閉鎖等,0,2025-11-21,2025-11-17,梢原農産合同会社,,合同会社,熊本県,人吉市,鬼木町１８４６番地,,43,203,8680021,,,2025-11-17,清算の結了等,,,2015-10-05,1,,,,,,0
491,2380003002227,登記記録の閉鎖等,0,2025-11-21,2025-11-14,合同会社コンフォート,,合同会社,福島県,いわき市,小川町関場字前田１３３番地,,07,204,9793114,,,2025-11-14,清算の結了等,,,2015-10-05,1,,,,,コンフォート,0
492,2380003004396,登記記録の閉鎖等,0,2025-11-21,2025-11-13,合同会社サイドジョブ,,合同会社,福島県,西白河郡中島村,大字滑津字愛宕山４２番地の３,,07,465,9610102,,,2025-11-13,清算の結了等,,,2019-01-16,1,,,,,サイドジョブ,0
495,2390002011327,登記記録の閉鎖等,0,2025-11-21,2025-11-19,有限会社幸富石材販売,,有限会社,山形県,最上郡最上町,大字富沢２５４番地の８,,06,362,9996100,,,2025-11-19,清算の結了等,,,2015-10-05,1,,,,,コウフセキザイハンバイ,0
513,2450002010330,登記記録の閉鎖等,0,2025-11-21,2025-11-18,有限会社カーアンドカー,,有限会社,北海道,士別市,大通東１４丁目３１４４番地６７,,01,220,0950019,,,2025-11-18,清算の結了等,,,2015-10-05,1,,,,,カーアンドカー,0
514,2460001000240,登記記録の閉鎖等,0,2025-11-21,2025-11-17,株式会社環境機器,,株式会社,北海道,釧路市,春採４丁目２６番３２号,,01,206,0850813,,,2025-11-17,清算の結了等,,,2015-10-05,1,,,,,カンキョウキキ,0
523,3010001131781,登記記録の閉鎖等,0,2025-11-21,2025-11-06,株式会社鈴木システム設計事務所,,株式会社,東京都,文京区,大塚４丁目１９番５号２階,,13,105,1120012,,,2025-11-06,清算の結了等,,,2015-10-05,1,,,,,スズキシステムセッケイジムショ,0
547,3010601023247,登記記録の閉鎖等,0,2025-11-21,2025-11-18,ナカテンテクノ株式会社,,株式会社,東京都,墨田区,立花６丁目４番３号,,13,107,1310043,,,2025-11-18,合併による解散等,3010501009486,令和７年１０月２７日東京都台東区三筋一丁目２番２号中村展設株式会社（3010501009486）に合併し解散,2015-10-05,1,,,,,ナカテンテクノ,0
549,3010601036133,登記記録の閉鎖等,0,2025-11-21,2025-11-17,株式会社音羽工業,,株式会社,東京都,墨田区,東墨田２丁目２０番１４号,,13,107,1310042,,,2025-11-17,清算の結了等,,,2015-10-05,1,,,,,,0
568,3011101101947,登記記録の閉鎖等,0,2025-11-21,2025-10-20,ＮｉｈｏｎｇｏｎｏｍｏｒｉＸ株式会社,,株式会社,東京都,新宿区,西新宿３丁目７－２１陽輪台１１０２号,,13,104,1600023,,,2025-10-20,清算の結了等,,,2023-03-01,1,,,,,ニホンゴノモリエックス,0
573,3011302016639,登記記録の閉鎖等,0,2025-11-21,2025-11-20,有限会社やなか事務所,,有限会社,栃木県,芳賀郡益子町,大字大沢２７９８番地１,,09,342,3214104,,,2025-11-20,清算の結了等,,,2015-10-05,1,,,,,ヤナカジムショ,0
582,3011803005677,登記記録の閉鎖等,0,2025-11-21,2025-11-17,合同会社ｎａｒｉａ,,合同会社,東京都,足立区,栗原２丁目８番２－２０３号,,13,121,1230842,,,2025-11-17,清算の結了等,,,2023-06-07,1,,,,,ナリア,0
585,3012302001639,登記記録の閉鎖等,0,2025-11-21,2025-11-06,有限会社栗原表具店,,有限会社,東京都,町田市,図師町１７６１番地８,,13,209,1940203,,,2025-11-06,清算の結了等,,,2015-10-05,1,,,,,クリハラヒョウグテン,0
591,3013201012966,登記記録の閉鎖等,0,2025-11-21,2025-10-29,株式会社サワラビ,,株式会社,東京都,目黒区,中根２丁目１２番２２号,,13,110,1520031,,,2025-10-29,清算の結了等,,,2015-10-05,1,,,,,サワラビ,0
599,3020002025131,登記記録の閉鎖等,0,2025-11-21,2025-11-04,有限会社唯美,,有限会社,神奈川県,横浜市保土ケ谷区,上星川３丁目４番１号,,14,106,2400042,,,2025-11-04,清算の結了等,,,2015-10-05,1,,,,,ユイビ,0
607,3021002050540,登記記録の閉鎖等,0,2025-11-21,2025-11-04,有限会社関所乃茶屋,,有限会社,神奈川県,足柄下郡箱根町,箱根１４番地,,14,382,2500521,,,2025-11-04,清算の結了等,,,2015-10-05,1,,,,,セキショノチャヤ,0
609,3030001065623,登記記録の閉鎖等,0,2025-11-21,2025-11-14,株式会社大成綜合印刷,,株式会社,埼玉県,三郷市,谷口９０１番地２３,,11,237,3410042,,,2025-11-14,清算の結了等,,,2015-10-05,1,,,,,タイセイソウゴウインサツ,0
631,3070001016226,登記記録の閉鎖等,0,2025-11-21,2025-11-17,大地住販株式会社,,株式会社,群馬県,桐生市,相生町５丁目４９６番地２,,10,203,3760011,,,2025-11-17,清算の結了等,,,2015-10-05,1,,,,,ダイチジュウハン,0
635,3070002030630,登記記録の閉鎖等,0,2025-11-21,2025-11-17,有限会社美顔堂,,有限会社,群馬県,太田市,西本町２４番３号,,10,205,3730033,,,2025-11-17,清算の結了等,,,2015-10-05,1,,,,,ビガンドウ,0
644,3080401012831,登記記録の閉鎖等,0,2025-11-21,2025-11-10,株式会社辻村,00068288,株式会社,静岡県,浜松市中央区,湖東町５５７２番地の２,,22,138,4311103,,,2025-11-10,清算の結了等,,,2015-10-05,1,,,,,ツジムラ,0
646,3110001015586,登記記録の閉鎖等,0,2025-11-21,2025-11-18,株式会社アイリック,,株式会社,新潟県,燕市,小関８２９番地２０,,15,213,9591286,,,2025-11-18,清算の結了等,,,2015-10-05,1,,,,,アイリック,0
647,3120001037803,登記記録の閉鎖等,0,2025-11-21,2025-11-14,株式会社関西ワークセンター,,株式会社,大阪府,大阪市西成区,花園北１丁目４番１７号,,27,122,5570016,,,2025-11-14,清算の結了等,,,2015-10-05,1,,,,,カンサイワークセンター,0
650,3120001146810,登記記録の閉鎖等,0,2025-11-21,2025-11-18,株式会社タイヘイ倉庫,,株式会社,大阪府,大阪市大正区,泉尾６丁目６番２３号,,27,108,5510031,,,2025-11-18,合併による解散等,7010801005735,令和７年１１月１日東京都大田区西糀谷三丁目７番１０号シャフトセンター株式会社（7010801005735）に合併し解散,2015-10-05,1,,,,,タイヘイソウコ,0
652,3120001203512,登記記録の閉鎖等,0,2025-11-21,2025-11-11,株式会社Ｍｏａ,,株式会社,大阪府,大阪市淀川区,宮原１丁目２番１０号ハシモトビル２階,,27,123,5320003,,,2025-11-11,合併による解散等,2120001237321,令和７年１１月１１日大阪市淀川区宮原一丁目２番１０号ハシモトビル２階株式会社Ａｔｈｈａ（2120001237321）に合併し解散,2017-02-03,1,,,,,モア,0
668,3120901022103,登記記録の閉鎖等,0,2025-11-21,2025-11-10,セレクト不動産株式会社,,株式会社,大阪府,豊中市,蛍池東町四丁目７番１３号,,27,203,5600000,,,2025-11-10,清算の結了等,,,2015-10-05,1,,,,,セレクトフドウサン,0
673,3120902001320,登記記録の閉鎖等,0,2025-11-21,2025-11-12,羽星フーズ有限会社,,有限会社,大阪府,茨木市,鮎川３丁目２番１６号,,27,211,5670831,,,2025-11-12,清算の結了等,,,2015-10-05,1,,,,,ハボシフーズ,0
686,3130005017098,登記記録の閉鎖等,0,2025-11-21,2025-11-20,一般社団法人日本ローズパレード後援会,,その他の設立登記法人,京都府,京都市左京区,岡崎東福ノ川町１０番地,,26,103,6068321,,,2025-11-20,清算の結了等,,,2024-05-17,1,,,,,ニッポンローズパレードコウエンカイ,0
698,3140002037081,登記記録の閉鎖等,0,2025-11-21,2025-11-19,リチクロ有限会社,,有限会社,兵庫県,姫路市,別所町別所２丁目５５番地,,28,201,6710221,,,2025-11-19,清算の結了等,,,2015-10-05,1,,,,,リチクロ,0
706,3180001132078,登記記録の閉鎖等,0,2025-11-21,2025-11-13,株式会社ＴＳＰ‐Ｅｎｇｉｎｅｅｒｉｎｇ,,株式会社,愛知県,知多市,にしの台４丁目１番地１,,23,224,4780055,,,2025-11-13,清算の結了等,,,2018-05-01,1,,,,,,0
715,3180303005824,登記記録の閉鎖等,0,2025-11-21,2025-11-20,合同会社三制設備,,合同会社,愛知県,安城市,東栄町４丁目６番１５号,,23,212,4460007,,,2025-11-20,清算の結了等,,,2023-09-07,1,,,,,サンセイセツビ,0
723,3210002008810,登記記録の閉鎖等,0,2025-11-21,2025-11-18,有限会社ファーム,,有限会社,福井県,坂井市,坂井町長畑第２３号４番地１,,18,210,9190511,,,2025-11-18,清算の結了等,,,2015-10-05,1,,,,,ファーム,0
725,3220001017588,登記記録の閉鎖等,0,2025-11-21,2025-11-06,株式会社ダイエー,,株式会社,東京都,千代田区,丸の内１丁目９番２号グラントウキョウサウスタワー１３階,,13,101,1000005,,,2025-11-06,清算の結了等,,,2015-10-05,1,,,,,ダイエー,0
726,3220001021045,登記記録の閉鎖等,0,2025-11-21,2025-11-18,Ｙｅｌｌｏｗ　Ｈｏｕｓｅ株式会社,,株式会社,石川県,河北郡内灘町,字鶴ケ丘１丁目１３５番地,,17,365,9200271,,,2025-11-18,清算の結了等,,,2016-06-09,1,,,,,イエローハウス,0
737,3260001023459,登記記録の閉鎖等,0,2025-11-21,2025-11-17,株式会社三篠,,株式会社,岡山県,倉敷市,東塚５丁目１１番２１号,,33,202,7128044,,,2025-11-17,清算の結了等,,,2015-10-05,1,,,,,サンサ,0
739,3260002022831,登記記録の閉鎖等,0,2025-11-21,2025-11-17,有限会社美和コーポレーション,,有限会社,岡山県,倉敷市,西尾３４番地３,,33,202,7010103,,,2025-11-17,清算の結了等,,,2015-10-05,1,,,,,ミワコーポレーション,0
750,3330003005638,登記記録の閉鎖等,0,2025-11-21,2025-11-11,グレース合同会社,,合同会社,熊本県,熊本市東区,戸島１丁目１５番７０号,,43,102,8618041,,,2025-11-11,清算の結了等,,,2015-10-05,1,,,,,グレース,0
759,3370801001982,登記記録の閉鎖等,0,2025-11-21,2025-11-14,フェニックス株式会社,,株式会社,宮城県,名取市,田高字原５３６番地１,,04,207,9811221,,,2025-11-14,清算の結了等,,,2015-10-05,1,,,,,フェニックス,0
770,3420001001258,登記記録の閉鎖等,0,2025-11-21,2025-11-14,大栄タクシー株式会社,,株式会社,青森県,青森市,大字荒川字藤戸１３４番地１０,,02,201,0300111,,,2025-11-14,清算の結了等,,,2015-10-05,1,,,,,ダイエイタクシー,0
772,3420002013252,登記記録の閉鎖等,0,2025-11-21,2025-11-12,有限会社コバ設備,,有限会社,青森県,弘前市,大字川先２丁目５番地８,,02,202,0368103,,,2025-11-12,清算の結了等,,,2015-10-05,1,,,,,コバセツビ,0
789,4010001096355,登記記録の閉鎖等,0,2025-11-21,2025-11-06,株式会社スペースクリエイツブレーン,,株式会社,東京都,中央区,日本橋本町３丁目２番１３号,,13,102,1030023,,,2025-11-06,清算の結了等,,,2015-10-05,1,,,,,スペースクリエイツブレーン,0
815,4010801000656,登記記録の閉鎖等,0,2025-11-21,2025-11-11,新井商事株式会社,,株式会社,東京都,大田区,大森西３丁目３２番６号,,13,111,1430015,,,2025-11-11,清算の結了等,,,2015-10-05,1,,,,,アライショウジ,0
824,4011001170505,登記記録の閉鎖等,0,2025-11-21,2025-10-29,株式会社和豊コンサルティング,,株式会社,東京都,渋谷区,道玄坂１丁目１０番８号渋谷道玄坂東急ビル２Ｆ－Ｃ,,13,113,1500043,,,2025-10-29,清算の結了等,,,2025-06-11,1,,,,,カズトヨコンサルティング,0
825,4011003005428,登記記録の閉鎖等,0,2025-11-21,2025-11-04,エンパワージャパン合同会社,,合同会社,神奈川県,藤沢市,藤沢１００３番地１バウス藤沢１４０５号室,,14,205,2510052,,,2025-11-04,清算の結了等,,,2015-10-05,1,,,,,エンパワージャパン,0
839,4011801010942,登記記録の閉鎖等,0,2025-11-21,2025-11-17,株式会社清掃屋キャプテン,,株式会社,東京都,足立区,花畑１丁目３４番４号３０１,,13,121,1210061,,,2025-11-17,清算の結了等,,,2015-10-05,1,,,,,セイソウヤキャプテン,0
849,4020001021205,登記記録の閉鎖等,0,2025-11-21,2025-11-17,中野梱包材料株式会社,,株式会社,神奈川県,川崎市中原区,木月３丁目２２番１０号マインドハイム２０３,,14,133,2110025,,,2025-11-17,清算の結了等,,,2015-10-05,1,,,,,ナカノコンポウザイリョウ,0
850,4020001041533,登記記録の閉鎖等,0,2025-11-21,2025-11-13,共栄産業株式会社,,株式会社,神奈川県,横浜市金沢区,金沢町８８番地の１１,,14,108,2360015,,,2025-11-13,清算の結了等,,,2015-10-05,1,,,,,キョウエイサンギョウ,0
851,4020001070722,登記記録の閉鎖等,0,2025-11-21,2025-11-17,株式会社カナイ,,株式会社,神奈川県,川崎市川崎区,小島町４番３号,,14,131,2100861,,,2025-11-17,清算の結了等,,,2015-10-05,1,,,,,カナイ,0
854,4020001141671,登記記録の閉鎖等,0,2025-11-21,2025-11-14,株式会社ＲＩＯ,,株式会社,神奈川県,川崎市麻生区,千代ケ丘３丁目７番地１２,,14,137,2150005,,,2025-11-14,清算の結了等,,,2021-06-07,1,,,,,リオ,0
870,4030005020219,登記記録の閉鎖等,0,2025-11-21,2025-11-17,特定非営利活動法人見沼田圃オールドタウン,,その他の設立登記法人,埼玉県,さいたま市見沼区,大字南中野３１２番地１,,11,104,3370042,,,2025-11-17,清算の結了等,,,2021-01-13,1,,,,,ミヌマタンボオールドタウン,0
876,4040002095171,登記記録の閉鎖等,0,2025-11-21,2025-10-28,有限会社ケーエス工業,,有限会社,千葉県,柏市,高南台２丁目４番地１２,,12,217,2770942,,,2025-10-28,清算の結了等,,,2015-10-05,1,,,,,,0
890,4080101011810,登記記録の閉鎖等,0,2025-11-21,2025-11-18,株式会社豊和建設,,株式会社,静岡県,富士宮市,西小泉町１１番地の２,,22,207,4180026,,,2025-11-18,清算の結了等,,,2015-10-05,1,,,,,ホウワケンセツ,0
916,4120101042009,登記記録の閉鎖等,0,2025-11-21,2025-11-10,株式会社山内造園土木,,株式会社,大阪府,和泉市,伯太町４丁目１０番４３号,,27,219,5940023,,,2025-11-10,清算の結了等,,,2015-10-05,1,,,,,ヤマウチゾウエンドボク,0
921,4120901030567,登記記録の閉鎖等,0,2025-11-21,2025-11-17,サンキ産業株式会社,,株式会社,兵庫県,西宮市,浜脇町６番２３号,,28,204,6620941,,,2025-11-17,清算の結了等,,,2015-10-05,1,,,,,サンキサンギョウ,0
923,4120902007440,登記記録の閉鎖等,0,2025-11-21,2025-11-11,有限会社平山経営計算センター,,有限会社,大阪府,吹田市,片山町１丁目１２番１０号,,27,205,5640082,,,2025-11-11,清算の結了等,,,2015-10-05,1,,,,,ヒラヤマケイエイケイサンセンター,0
928,4130002013421,登記記録の閉鎖等,0,2025-11-21,2025-11-19,有限会社大崎清治商店,,有限会社,京都府,京都市伏見区,平戸町７３６番地,,26,109,6128222,,,2025-11-19,清算の結了等,,,2015-10-05,1,,,,,オオサキキヨハルショウテン,0
929,4140001018949,登記記録の閉鎖等,0,2025-11-21,2025-11-17,株式会社神戸インサイドプレイン,,株式会社,兵庫県,神戸市兵庫区,神田町３３番１号,,28,105,6520006,,,2025-11-17,清算の結了等,,,2015-10-05,1,,,,,,0
930,4140001022612,登記記録の閉鎖等,0,2025-11-21,2025-11-17,サトミ産業株式会社,,株式会社,兵庫県,神戸市東灘区,御影山手２丁目１６番１７号,,28,101,6580065,,,2025-11-17,清算の結了等,,,2015-10-05,1,,,,,サトミサンギョウ,0
931,4140001028411,登記記録の閉鎖等,0,2025-11-21,2025-11-18,株式会社フキ東京事業部,,株式会社,兵庫県,神戸市兵庫区,西多聞通１丁目３番３１－１０１号,,28,105,6520035,,,2025-11-18,清算の結了等,,,2015-10-05,1,,,,,フキトウキョウジギョウブ,0
947,4180001084566,登記記録の閉鎖等,0,2025-11-21,2025-11-14,渥美繊維株式会社,,株式会社,愛知県,一宮市,木曽川町黒田字妙見廻１５６番地,,23,203,4930001,,,2025-11-14,清算の結了等,,,2015-10-05,1,,,,,,0
951,4180001148172,登記記録の閉鎖等,0,2025-11-21,2025-11-13,株式会社Ｊ　Ｓｕｐｐｏｒｔ,,株式会社,愛知県,名古屋市熱田区,沢上１丁目７番７号,,23,109,4560012,,,2025-11-13,清算の結了等,,,2021-10-11,1,,,,,,0
963,4190001009175,登記記録の閉鎖等,0,2025-11-21,2025-11-11,株式会社光商事,,株式会社,三重県,伊賀市,上野田端町１０９３番地１,,24,216,5180839,,,2025-11-11,清算の結了等,,,2015-10-05,1,,,,,ヒカリショウジ,0
968,4210002002069,登記記録の閉鎖等,0,2025-11-21,2025-11-17,有限会社タイラ,,有限会社,福井県,福井市,花月５丁目５番２号,,18,201,9100022,,,2025-11-17,清算の結了等,,,2015-10-05,1,,,,,タイラ,0
972,4230001019054,登記記録の閉鎖等,0,2025-11-21,2025-11-14,株式会社エーエムレンタリース,,株式会社,富山県,滑川市,上島１２４１番地,,16,206,9360852,,,2025-11-14,清算の結了等,,,2021-10-27,1,,,,,エーエムレンタリース,0
977,4250005008258,登記記録の閉鎖等,0,2025-11-21,2025-11-18,特定非営利活動法人タイガーフークプロジェクト,,その他の設立登記法人,山口県,下関市,向洋町１丁目１５番４１号,,35,201,7500041,,,2025-11-18,清算の結了等,,,2016-10-04,1,,,,,タイガーフークプロジェクト,0
992,4330001031247,登記記録の閉鎖等,0,2025-11-21,2025-11-12,株式会社尾崎,,株式会社,熊本県,八代市,坂本町葉木１６１１番地,,43,202,8696111,,,2025-11-12,清算の結了等,,,2023-09-19,1,,,,,オザキ,0
994,4330002022468,登記記録の閉鎖等,0,2025-11-21,2025-11-17,有限会社スカラベ九州,,有限会社,熊本県,玉名市,岱明町下前原１８番地,,43,206,8690221,,,2025-11-17,清算の結了等,,,2015-10-05,1,,,,,スカラベキュウシュウ,0
1008,4420005000676,登記記録の閉鎖等,0,2025-11-21,2025-11-13,学校法人大谷学園,,その他の設立登記法人,青森県,青森市,長島３丁目９番１号,,02,201,0300861,,,2025-11-13,清算の結了等,,,2015-10-05,1,,,,,オオタニガクエン,0
1023,5010001000183,登記記録の閉鎖等,0,2025-11-21,2025-11-04,アイビー・ライフ株式会社,,株式会社,東京都,渋谷区,代々木１丁目５７番２号,,13,113,1510053,,,2025-11-04,合併による解散等,7011001041240,令和７年１１月１日東京都渋谷区代々木一丁目５７番２号株式会社協立サエラ（7011001041240）に合併し解散,2015-10-05,1,,,,,アイビーライフ,0
1025,5010001009885,登記記録の閉鎖等,0,2025-11-21,2025-11-06,株式会社アタックス,,株式会社,東京都,千代田区,九段北１丁目２番２号,,13,101,1020073,,,2025-11-06,清算の結了等,,,2015-10-05,1,,,,,アタックス,0
1058,5010802015652,登記記録の閉鎖等,0,2025-11-21,2025-11-14,有限会社菱和製作所,,有限会社,東京都,大田区,上池台５丁目３３番１４号,,13,111,1450064,,,2025-11-14,清算の結了等,,,2015-10-05,1,,,,,リョウワセイサクショ,0
1064,5011001001114,登記記録の閉鎖等,0,2025-11-21,2025-10-28,アツコグローイング株式会社,,株式会社,東京都,渋谷区,恵比寿南１丁目１４番３号株式会社エスエスビル内,,13,113,1500022,,,2025-10-28,清算の結了等,,,2015-10-05,1,,,,,アツコグローイング,0
1069,5011001121531,登記記録の閉鎖等,0,2025-11-21,2025-10-28,株式会社ＬＯＯＰ,,株式会社,東京都,渋谷区,神南１丁目１４－７ワイズ神南ビル４階,,13,113,1500041,,,2025-10-28,清算の結了等,,,2018-04-06,1,,,,,ループ,0
1082,5011502011058,登記記録の閉鎖等,0,2025-11-21,2025-11-18,有限会社前田鉛筆製作所,,有限会社,東京都,荒川区,町屋３丁目２６番２号,,13,118,1160001,,,2025-11-18,清算の結了等,,,2015-10-05,1,,,,,マエダエンピツセイサクショ,0
1083,5011503005488,登記記録の閉鎖等,0,2025-11-21,2025-11-17,合同会社リボーンズ,,合同会社,東京都,荒川区,東日暮里５丁目５４番４号ＳＣＥＮＡ日暮里３０５,,13,118,1160014,,,2025-11-17,清算の結了等,,,2023-02-22,1,,,,,リボーンズ,0
1085,5011701026014,登記記録の閉鎖等,0,2025-11-21,2025-11-13,Ｐｒｏｔｏｓｔｏｒｍ株式会社,,株式会社,東京都,江戸川区,平井７丁目２０番１３－３０１,,13,123,1320035,,,2025-11-13,清算の結了等,,,2023-02-21,1,,,,,プロトストーム,0
1087,5011801024784,登記記録の閉鎖等,0,2025-11-21,2025-11-17,株式会社Ｐ＆Ｐ,,株式会社,東京都,足立区,綾瀬３丁目１６番４号とうしんビル２０１号,,13,121,1200005,,,2025-11-17,清算の結了等,,,2015-10-05,1,,,,,ピーアンドピー,0
1114,5020005010376,登記記録の閉鎖等,0,2025-11-21,2025-11-12,特定非営利活動法人エンジョイ・シニアライフ,,その他の設立登記法人,神奈川県,横浜市神奈川区,斎藤分町３２番２５号,,14,102,2210811,,,2025-11-12,清算の結了等,,,2015-10-05,1,,,,,エンジョイシニアライフ,0
1134,5030002053385,登記記録の閉鎖等,0,2025-11-21,2025-11-14,有限会社オオハシ金物,,有限会社,埼玉県,上尾市,浅間台４丁目２０番地５,,11,219,3620073,,,2025-11-14,清算の結了等,,,2015-10-05,1,,,,,オオハシカナモノ,0
1153,5060002015705,登記記録の閉鎖等,0,2025-11-21,2025-11-19,有限会社新月,,有限会社,栃木県,日光市,中宮祠２４７８番地,,09,206,3211661,,,2025-11-19,清算の結了等,,,2015-10-05,1,,,,,シンゲツ,0
1156,5080401015411,登記記録の閉鎖等,0,2025-11-21,2025-11-14,株式会社ＮＫ,,株式会社,静岡県,掛川市,家代４９番地の１,,22,213,4360225,,,2025-11-14,清算の結了等,,,2015-10-05,1,,,,,エヌケー,0
1167,5120001160041,登記記録の閉鎖等,0,2025-11-21,2025-11-17,株式会社クローバー,,株式会社,大阪府,守口市,大久保町４丁目２５番１０号,,27,209,5700012,,,2025-11-17,清算の結了等,,,2015-10-05,1,,,,,クローバー,0
1211,5170001000589,登記記録の閉鎖等,0,2025-11-21,2025-11-20,株式会社オカヘイ本店,,株式会社,和歌山県,和歌山市,匠町３１番地,,30,201,6408028,,,2025-11-20,清算の結了等,,,2015-10-05,1,,,,,オカヘイホンテン,0
1213,5180001020108,登記記録の閉鎖等,0,2025-11-21,2025-11-13,中部サービス株式会社,,株式会社,愛知県,名古屋市中川区,八熊１丁目６番９号,,23,110,4540013,,,2025-11-13,清算の結了等,,,2015-10-05,1,,,,,,0
1215,5180001074855,登記記録の閉鎖等,0,2025-11-21,2025-11-17,富士商事株式会社,,株式会社,愛知県,春日井市,六軒屋町３丁目１５５番地,,23,206,4860842,,,2025-11-17,清算の結了等,,,2015-10-05,1,,,,,,0
1221,5180001157073,登記記録の閉鎖等,0,2025-11-21,2025-11-14,株式会社ｉｒｏｄｏｒｉ　ｗｏｒｋｓ,,株式会社,愛知県,名古屋市中村区,名駅４丁目２４番５号第２森ビル４０１,,23,105,4500002,,,2025-11-14,清算の結了等,,,2023-07-11,1,,,,,イロドリワークス,0
1224,5180003017044,登記記録の閉鎖等,0,2025-11-21,2025-11-13,サンノーアライアンス合同会社,,合同会社,愛知県,名古屋市名東区,亀の井１丁目７２番地１,,23,115,4650094,,,2025-11-13,清算の結了等,,,2016-04-22,1,,,,,サンノーアライアンス,0
1228,5180301033148,登記記録の閉鎖等,0,2025-11-21,2025-11-20,ＴＡＫＥＭＡ建設株式会社,,株式会社,愛知県,豊田市,四郷町西山２７番地２,,23,211,4700373,,,2025-11-20,清算の結了等,,,2019-11-18,1,,,,,タケマケンセツ,0
1240,5240002012114,登記記録の閉鎖等,0,2025-11-21,2025-11-18,有限会社西川工業,,有限会社,広島県,広島市東区,戸坂くるめ木２丁目１番４－１号,,34,102,7320008,,,2025-11-18,清算の結了等,,,2015-10-05,1,,,,,ニシカワコウギョウ,0
1243,5250001012626,登記記録の閉鎖等,0,2025-11-21,2025-11-12,朝日建設株式会社,,株式会社,山口県,熊毛郡平生町,大字宇佐木１４２５番地の２,,35,344,7421104,,,2025-11-12,清算の結了等,,,2015-10-05,1,,,,,アサヒケンセツ,0
1248,5260005006672,登記記録の閉鎖等,0,2025-11-21,2025-11-13,医療法人瑞生会,,その他の設立登記法人,岡山県,津山市,沼８５７番地の１,,33,203,7080824,,,2025-11-13,清算の結了等,,,2015-10-05,1,,,,,ミズキカイ,0
1259,5300001008602,登記記録の閉鎖等,0,2025-11-21,2025-11-18,株式会社みやび,,株式会社,佐賀県,伊万里市,立花町２２６８番地５３,,41,205,8480027,,,2025-11-18,清算の結了等,,,2015-10-05,1,,,,,ミヤビ,0
1265,5320002012097,登記記録の閉鎖等,0,2025-11-21,2025-11-20,有限会社博文社印刷所,,有限会社,大分県,別府市,若草町５番２９号,,44,202,8740925,,,2025-11-20,清算の結了等,,,2015-10-05,1,,,,,ハクブンシャインサツジョ,0
1268,5340002000348,登記記録の閉鎖等,0,2025-11-21,2025-11-13,サツマポリマー技研有限会社,,有限会社,鹿児島県,鹿児島市,春山町１６６２番地４６,,46,201,8992704,,,2025-11-13,清算の結了等,,,2015-10-05,1,,,,,サツマポリマーギケン,0
1269,5340002018357,登記記録の閉鎖等,0,2025-11-21,2025-11-13,有限会社西別府商店,,有限会社,鹿児島県,薩摩郡さつま町,宮之城屋地１５４２番地,,46,392,8951803,,,2025-11-13,清算の結了等,,,2015-10-05,1,,,,,ニシベップショウテン,0
1278,5360005000789,登記記録の閉鎖等,0,2025-11-21,2025-11-17,特定非営利活動法人おきなわ環境クラブ,,その他の設立登記法人,沖縄県,那覇市,字国場３７０番地マル嘉アパート３０７号室,,47,201,9020075,,,2025-11-17,清算の結了等,,,2015-10-05,1,,,,,オキナワカンキョウクラブ,0
1279,5370002008900,登記記録の閉鎖等,0,2025-11-21,2025-11-13,有限会社山鐵工業,,有限会社,宮城県,仙台市宮城野区,福室３丁目３番２０－１０１号,,04,102,9830005,,,2025-11-13,清算の結了等,,,2015-10-05,1,,,,,ヤマテツコウギョウ,0
1287,5410001001141,登記記録の閉鎖等,0,2025-11-21,2025-11-19,小松住研株式会社,,株式会社,秋田県,秋田市,牛島東６丁目３番１号,,05,201,0100062,,,2025-11-19,清算の結了等,,,2015-10-05,1,,,,,コマツジュウケン,0
1298,5490001009202,登記記録の閉鎖等,0,2025-11-21,2025-11-19,株式会社ウェルハートカンパニー,,株式会社,高知県,高岡郡佐川町,甲１１２８番地１８,,39,402,7891201,,,2025-11-19,清算の結了等,,,2019-03-05,1,,,,,ウェルハートカンパニー,0
1307,6010001217066,登記記録の閉鎖等,0,2025-11-21,2025-11-17,株式会社ｆｏｒ‐ｗｏｍａｎ,,株式会社,東京都,町田市,中町１丁目２番５号ＳＨＥＬＬ・ＭＩＹＡＫＯ・Ｖ３Ｆ,,13,209,1940021,,,2025-11-17,合併による解散等,2290001087130,令和７年１０月２９日福岡市中央区小笹四丁目５番３－１００９号ビックビジョン株式会社（2290001087130）に合併し解散,2021-04-12,1,,,,,フォーウーマン,0
1316,6010005023923,登記記録の閉鎖等,0,2025-11-21,2025-11-10,一般社団法人エフ・オー・ダブリュー整理法人,,その他の設立登記法人,福島県,郡山市,駅前２丁目３番７号エリート３０ビル３階３０２号室,,07,203,9638002,,,2025-11-10,清算の結了等,,,2015-10-05,1,,,,,エフオーダブリューセイリホウジン,0
1325,6010401189194,登記記録の閉鎖等,0,2025-11-21,2025-11-19,ＮＭ株式会社,,株式会社,東京都,港区,西麻布１丁目４番１７号,,13,103,1060031,,,2025-11-19,合併による解散等,1011001169426,令和７年１０月１７日東京都渋谷区道玄坂一丁目１２番１号渋谷マークシティ１１階Ｅ３ＧｒｏｕｐＸ株式会社（1011001169426）に合併し解散,2025-04-01,1,,,,,エヌエム,0
1330,6010501004939,登記記録の閉鎖等,0,2025-11-21,2025-11-10,株式会社斉鏝,,株式会社,東京都,千代田区,東神田３丁目３番５号,,13,101,1010031,,,2025-11-10,清算の結了等,,,2015-10-05,1,,,,,サイマン,0
1332,6010602010927,登記記録の閉鎖等,0,2025-11-21,2025-11-14,有限会社シカタニ製作所,,有限会社,東京都,江東区,石島１１番１６号コウノビル１階,,13,108,1350014,,,2025-11-14,清算の結了等,,,2015-10-05,1,,,,,シカタニセイサクショ,0
1367,6012301010068,登記記録の閉鎖等,0,2025-11-21,2025-11-07,株式会社アイテリジェンス,,株式会社,東京都,町田市,能ヶ谷５丁目１８番１号,,13,209,1950053,,,2025-11-07,清算の結了等,,,2015-10-05,1,,,,,アイテリジェンス,0
1368,6012301012320,登記記録の閉鎖等,0,2025-11-21,2025-11-07,株式会社ＴＯＰＳ,,株式会社,東京都,町田市,相原町１２１４番地７,,13,209,1940211,,,2025-11-07,清算の結了等,,,2020-10-21,1,,,,,トプス,0
1375,6020001002970,登記記録の閉鎖等,0,2025-11-21,2025-11-11,株式会社ユース,,株式会社,神奈川県,横浜市港北区,大豆戸町４８０番地１菊名ハイツ１－７０６,,14,109,2220032,,,2025-11-11,清算の結了等,,,2015-10-05,1,,,,,ユース,0
1421,6070001016017,登記記録の閉鎖等,0,2025-11-21,2025-11-17,サカエ電子株式会社,,株式会社,群馬県,桐生市,境野町７丁目１８１３番地１８３,,10,203,3760002,,,2025-11-17,清算の結了等,,,2015-10-05,1,,,,,サカエデンシ,0
1422,6070001020794,登記記録の閉鎖等,0,2025-11-21,2025-11-18,株式会社金谷計画,,株式会社,群馬県,太田市,浜町５６番地７,,10,205,3730853,,,2025-11-18,清算の結了等,,,2015-10-05,1,,,,,カナヤケイカク,0
1424,6070001024812,登記記録の閉鎖等,0,2025-11-21,2025-11-17,株式会社ステイ,,株式会社,群馬県,前橋市,東金丸町１７１番地８,,10,201,3710234,,,2025-11-17,清算の結了等,,,2015-10-05,1,,,,,ステイ,0
1427,6080002001520,登記記録の閉鎖等,0,2025-11-21,2025-11-19,有限会社蒲藤,,有限会社,静岡県,静岡市駿河区,西脇７０８番地の１,,22,102,4228044,,,2025-11-19,清算の結了等,,,2015-10-05,1,,,,,カマフジ,0
1431,6080401002251,登記記録の閉鎖等,0,2025-11-21,2025-11-13,新タコー総合設備株式会社,,株式会社,静岡県,浜松市中央区,植松町２５５番地の３,,22,138,4300803,,,2025-11-13,清算の結了等,,,2015-10-05,1,,,,,シンタコーソウゴウセツビ,0
1438,6110005011463,登記記録の閉鎖等,0,2025-11-21,2025-11-17,御嶽教関原教會,,その他の設立登記法人,新潟県,長岡市,関原町１丁目１０５９番地１,,15,202,9402035,,,2025-11-17,清算の結了等,,,2015-10-05,1,,,,,,0
1460,6120001268775,登記記録の閉鎖等,0,2025-11-21,2025-11-18,ｉ楽一株式会社,,株式会社,大阪府,大阪市東淀川区,北江口２丁目１０番１８号１０４室,,27,114,5330002,,,2025-11-18,清算の結了等,,,2024-09-27,1,,,,,アイラクイチ,0
1468,6120101068935,登記記録の閉鎖等,0,2025-11-21,2025-11-10,株式会社絢,,株式会社,大阪府,羽曳野市,羽曳が丘５丁目１７番９号,,27,222,5830864,,,2025-11-10,清算の結了等,,,2024-01-24,1,,,,,,0
1483,6122002004655,登記記録の閉鎖等,0,2025-11-21,2025-11-04,株式会社新翔,,株式会社,大阪府,東大阪市,喜里川町１１番３号,,27,227,5798041,,,2025-11-04,合併による解散等,2122001025128,令和７年１１月１日大阪府東大阪市喜里川町１１番３号株式会社飛翔エステート（2122001025128）に合併し解散,2015-10-05,1,,,,,シンショウ,0
1484,6130001000542,登記記録の閉鎖等,0,2025-11-21,2025-11-18,株式会社ギャラリーちはた,,株式会社,京都府,京都市右京区,嵯峨天龍寺瀬戸川町７番地１３,,26,108,6168376,,,2025-11-18,清算の結了等,,,2015-10-05,1,,,,,ギャラリーチハタ,0
1490,6130005011263,登記記録の閉鎖等,0,2025-11-21,2025-11-13,寶珠寺,,その他の設立登記法人,京都府,京丹後市,丹後町谷内３３５番地,,26,212,6270246,,,2025-11-13,清算の結了等,,,2015-10-05,1,,,,,ホウジュジ,0
1493,6140001066293,登記記録の閉鎖等,0,2025-11-21,2025-11-18,株式会社エフ商会,,株式会社,兵庫県,三田市,あかしあ台３丁目１７番地の１,,28,219,6691323,,,2025-11-18,清算の結了等,,,2015-10-05,1,,,,,エフショウカイ,0
1494,6140001073703,登記記録の閉鎖等,0,2025-11-21,2025-11-17,株式会社らしく,,株式会社,兵庫県,尼崎市,大庄中通１丁目１０１番地,,28,202,6600075,,,2025-11-17,清算の結了等,,,2015-10-05,1,,,,,ラシク,0
1497,6140001116494,登記記録の閉鎖等,0,2025-11-21,2025-11-17,株式会社ＫＩＣＨＩＪＩＲＯ,,株式会社,兵庫県,加古川市,平岡町新在家２丁目２７３番地２モリタトレードビル４０７号室,,28,210,6750101,,,2025-11-17,清算の結了等,,,2020-02-13,1,,,,,キチジロー,0
1545,6290001085246,登記記録の閉鎖等,0,2025-11-21,2025-08-01,株式会社ＲＥＣＬＲＥＡ,,株式会社,福岡県,福岡市中央区,渡辺通５丁目２４番３０号,,40,133,8100004,,,2025-08-01,合併による解散等,6290001017199,令和７年８月１日福岡市中央区渡辺通五丁目２４番３０号株式会社ユーコーリプロ（6290001017199）に合併し解散,2019-05-20,1,,,,,リクリア,0
1553,6310001011991,登記記録の閉鎖等,0,2025-11-21,2025-11-18,アイテック株式会社,,株式会社,長崎県,西彼杵郡時津町,久留里郷２８０番地１０,,42,308,8512107,,,2025-11-18,清算の結了等,,,2015-10-05,1,,,,,アイテック,0
1562,6340001002419,登記記録の閉鎖等,0,2025-11-21,2025-11-10,そうしんファイナンス株式会社,,株式会社,鹿児島県,鹿児島市,泉町３番１１号,,46,201,8920822,,,2025-11-10,清算の結了等,,,2024-07-31,1,,,,,ソウシンファイナンス,0
1571,6420001013952,登記記録の閉鎖等,0,2025-11-21,2025-11-14,株式会社Ｃ－Ｄｒｅａｍ,,株式会社,青森県,弘前市,大字新寺町３４番地７０,,02,202,0368214,,,2025-11-14,清算の結了等,,,2015-10-05,1,,,,,シードリーム,0
1572,6420002005965,登記記録の閉鎖等,0,2025-11-21,2025-11-14,有限会社アートブンセン,,有限会社,青森県,八戸市,江陽２丁目１０番５０号,,02,203,0310801,,,2025-11-14,清算の結了等,,,2015-10-05,1,,,,,アートブンセン,0
1583,6480005004281,登記記録の閉鎖等,0,2025-11-21,2025-11-19,協業組合阿南自動車総合センター,,その他の設立登記法人,徳島県,阿南市,長生町大津田１番地２０,,36,204,7740046,,,2025-11-19,清算の結了等,,,2015-10-05,1,,,,,アナンジドウシャソウゴウセンター,0
1584,6490002008895,登記記録の閉鎖等,0,2025-11-21,2025-11-20,有限会社ファクトリーコスモ,,有限会社,高知県,幡多郡黒潮町,佐賀２９８８番地６,,39,428,7891720,,,2025-11-20,清算の結了等,,,2015-10-05,1,,,,,,0
1585,6500005008643,登記記録の閉鎖等,0,2025-11-21,2025-11-19,一般社団法人千代丸水産,,その他の設立登記法人,愛媛県,宇和島市,吉田町南君８１番地,,38,203,7993771,,,2025-11-19,清算の結了等,,,2023-10-04,1,,,,,チヨマルスイサン,0
1589,7010001151256,登記記録の閉鎖等,0,2025-11-21,2025-11-10,株式会社日本マスクパック,,株式会社,東京都,千代田区,内神田１丁目８番９号,,13,101,1010047,,,2025-11-10,清算の結了等,,,2015-10-05,1,,,,,ニホンマスクパック,0
1604,7010102002119,登記記録の閉鎖等,0,2025-11-21,2025-11-20,有限会社木村屋酒店,,有限会社,東京都,八王子市,西浅川町８２番地２,,13,201,1930842,,,2025-11-20,清算の結了等,,,2015-10-05,1,,,,,キムラヤサケテン,0
1623,7010802004505,登記記録の閉鎖等,0,2025-11-21,2025-11-14,有限会社久保井ビル,,有限会社,東京都,大田区,鵜の木１丁目４番１３号,,13,111,1460091,,,2025-11-14,清算の結了等,,,2015-10-05,1,,,,,クボイビル,0
1645,7011501030313,登記記録の閉鎖等,0,2025-11-21,2025-10-22,壹窯株式会社,,株式会社,東京都,新宿区,西早稲田１丁目１１番６号華青会ビル３０４,,13,104,1690051,,,2025-10-22,清算の結了等,,,2024-02-13,1,,,,,イチョウ,0
1653,7011802025524,登記記録の閉鎖等,0,2025-11-21,2025-11-17,有限会社ひまわり堂グループ,,有限会社,東京都,葛飾区,東金町１丁目１－１ＫＳＣ１Ｆ,,13,122,1250041,,,2025-11-17,清算の結了等,,,2015-10-05,1,,,,,ヒマワリドウグループ,0
1654,7011802027495,登記記録の閉鎖等,0,2025-11-21,2025-11-14,有限会社高橋メディカルサービス,00057580,有限会社,東京都,葛飾区,東立石４丁目４３番７号,,13,122,1240013,,,2025-11-14,清算の結了等,,,2015-10-05,1,,,,,タカハシメディカルサービス,0
1657,7012403005675,登記記録の閉鎖等,0,2025-11-21,2025-11-06,エアトン合同会社,,合同会社,東京都,調布市,調布ケ丘２丁目２９番地１８,,13,208,1820021,,,2025-11-06,清算の結了等,,,2022-11-10,1,,,,,エアトン,0
1665,7020001037867,登記記録の閉鎖等,0,2025-11-21,2025-11-10,株式会社イー・ティックス,,株式会社,東京都,町田市,つくし野１丁目１番地６,,13,209,1940001,,,2025-11-10,清算の結了等,,,2015-10-05,1,,,,,イーティックス,0
1670,7020002028147,登記記録の閉鎖等,0,2025-11-21,2025-11-14,有限会社マキコーポレーション,,有限会社,神奈川県,横浜市神奈川区,片倉４丁目２２番１６号,,14,102,2210865,,,2025-11-14,清算の結了等,,,2015-10-05,1,,,,,マキコーポレーション,0
1671,7020002082053,登記記録の閉鎖等,0,2025-11-21,2025-11-12,有限会社東栄化学,,有限会社,神奈川県,川崎市幸区,小倉３丁目２４番２８号,,14,132,2120054,,,2025-11-12,清算の結了等,,,2015-10-05,1,,,,,トウエイカガク,0
1677,7030001042189,登記記録の閉鎖等,0,2025-11-21,2025-11-13,株式会社日興電機製作所,,株式会社,埼玉県,桶川市,坂田西３丁目３番地の４６,,11,231,3630018,,,2025-11-13,清算の結了等,,,2015-10-05,1,,,,,ニッコウデンキセイサクショ,0
1685,7030002020524,登記記録の閉鎖等,0,2025-11-21,2025-11-14,有限会社アイダ商事,,有限会社,埼玉県,さいたま市岩槻区,美園東１丁目６番地１３,,11,110,3390028,,,2025-11-14,清算の結了等,,,2015-10-05,1,,,,,アイダショウジ,0
1687,7030002100747,登記記録の閉鎖等,0,2025-11-21,2025-11-14,有限会社内田丸内工機製作所,,有限会社,埼玉県,川口市,西青木３丁目１３番３０号,,11,203,3320035,,,2025-11-14,清算の結了等,,,2015-10-05,1,,,,,ウチダマルウチコウキセイサクジョ,0
1698,7040002041668,登記記録の閉鎖等,0,2025-11-21,2025-11-19,有限会社豊和,,有限会社,千葉県,浦安市,富士見２丁目５番１９号,,12,227,2790043,,,2025-11-19,清算の結了等,,,2015-10-05,1,,,,,ホウワ,0
1699,7040002068380,登記記録の閉鎖等,0,2025-11-21,2025-10-27,有限会社光和建設,,有限会社,千葉県,袖ケ浦市,三箇５７９番地１０,,12,229,2990212,,,2025-10-27,清算の結了等,,,2015-10-05,1,,,,,,0
1705,7040005019942,登記記録の閉鎖等,0,2025-11-21,2025-10-14,ＮＰＯ法人仮り暮らし,,その他の設立登記法人,千葉県,松戸市,稔台７丁目６２－１針ビル１０２号,,12,207,2702231,,,2025-10-14,清算の結了等,,,2018-04-13,1,,,,,カリグラシ,0
1709,7080001017442,登記記録の閉鎖等,0,2025-11-21,2025-11-17,株式会社さくら,,株式会社,静岡県,藤枝市,八幡４１７番地,,22,214,4260009,,,2025-11-17,清算の結了等,,,2015-10-05,1,,,,,サクラ,0
1711,7080103002961,登記記録の閉鎖等,0,2025-11-21,2025-11-18,いずしば合同会社,,合同会社,静岡県,伊豆市,上船原１１２０番地の３,,22,222,4103216,,,2025-11-18,清算の結了等,,,2024-01-17,1,,,,,イズシバ,0
1716,7090002011286,登記記録の閉鎖等,0,2025-11-21,2025-11-18,有限会社広瀬,,有限会社,山梨県,甲州市,塩山三日市場２８２３番地,,19,213,4040047,,,2025-11-18,清算の結了等,,,2015-10-05,1,,,,,ヒロセ,0
1717,7110002023618,登記記録の閉鎖等,0,2025-11-21,2025-11-19,有限会社柳崎商店,,有限会社,新潟県,上越市,北城町３丁目８番１１号,,15,222,9430824,,,2025-11-19,清算の結了等,,,2015-10-05,1,,,,,ヤナギサキショウテン,0
1718,7120001135933,登記記録の閉鎖等,0,2025-11-21,2025-11-20,株式会社グローバルエール,,株式会社,大阪府,大阪市浪速区,難波中３丁目９番３号,,27,111,5560011,,,2025-11-20,清算の結了等,,,2015-10-05,1,,,,,グローバルエール,0
1719,7120001151542,登記記録の閉鎖等,0,2025-11-21,2025-11-19,株式会社ボーグ,,株式会社,大阪府,寝屋川市,桜木町１１番１１号,,27,215,5720041,,,2025-11-19,清算の結了等,,,2015-10-05,1,,,,,ボーグ,0
1723,7120001238026,登記記録の閉鎖等,0,2025-11-21,2025-11-19,株式会社クレステート,,株式会社,大阪府,枚方市,星丘３丁目１番２７号メゾンエトワール１０１,,27,210,5730013,,,2025-11-19,清算の結了等,,,2021-06-08,1,,,,,クレステート,0
1730,7120003005812,登記記録の閉鎖等,0,2025-11-21,2025-11-17,ポラリス合資会社,,合資会社,大阪府,大阪市東成区,深江南１丁目９番２８号ジョイフル深江南４０２号,,27,115,5370002,,,2025-11-17,清算の結了等,,,2015-10-05,1,,,,,ポラリス,0
1746,7120903003428,登記記録の閉鎖等,0,2025-11-21,2025-11-11,合同会社あすかウィングス,,合同会社,大阪府,高槻市,安岡寺町５丁目４６番１１号,,27,207,5691029,,,2025-11-11,清算の結了等,,,2020-11-17,1,,,,,アスカウィングス,0
1749,7130001076458,登記記録の閉鎖等,0,2025-11-21,2025-11-19,Ｈｏｕｓｅ　ｏｆ　Ｕｎｉｖｅｒｓｅ　Ｊｏｙ株式会社,,株式会社,京都府,京都市伏見区,深草願成町４３番地５,,26,109,6120809,,,2025-11-19,清算の結了等,,,2024-02-29,1,,,,,ハウスオブユニバースジョイ,0
1762,7140002056458,登記記録の閉鎖等,0,2025-11-21,2025-11-14,有限会社香林坊,,有限会社,兵庫県,西宮市,池田町１２番３３－１８０３号,,28,204,6620911,,,2025-11-14,清算の結了等,,,2015-10-05,1,,,,,コウリンボウ,0
1763,7140002063792,登記記録の閉鎖等,0,2025-11-21,2025-11-10,有限会社豊中金型製作所,,有限会社,大阪府,豊中市,熊野町３丁目１３番８号,,27,203,5600014,,,2025-11-10,清算の結了等,,,2015-10-05,1,,,,,トヨナカカナガタセイサクショ,0
1773,7180001115153,登記記録の閉鎖等,0,2025-11-21,2025-11-17,株式会社バズワード,,株式会社,愛知県,名古屋市昭和区,檀溪通２丁目３４番地,,23,107,4660842,,,2025-11-17,清算の結了等,,,2015-10-05,1,,,,,バズワード,0
1781,7180002026696,登記記録の閉鎖等,0,2025-11-21,2025-11-17,有限会社村瀬製作所,,有限会社,愛知県,名古屋市緑区,東神の倉３丁目１０５８番地,,23,114,4580808,,,2025-11-17,清算の結了等,,,2015-10-05,1,,,,,ムラセセイサクショ,0
1794,7260001033017,登記記録の閉鎖等,0,2025-11-21,2025-11-14,株式会社おかやまバイオマス化学研究所,,株式会社,岡山県,赤磐市,桜が丘西１丁目２３番１号,,33,213,7090802,,,2025-11-14,清算の結了等,,,2019-04-10,1,,,,,オカヤマバイオマスカガクケンキュウショ,0
1795,7260001039146,登記記録の閉鎖等,0,2025-11-21,2025-11-17,株式会社日本あにまるラボ,,株式会社,岡山県,井原市,東江原町４２番地１,,33,207,7150003,,,2025-11-17,清算の結了等,,,2024-06-05,1,,,,,ニホンアニマルラボ,0
1797,7290001039449,登記記録の閉鎖等,0,2025-11-21,2025-11-05,株式会社ＤＲＥＡＭ　ＰＬＡＮ,,株式会社,福岡県,糟屋郡志免町,志免中央２丁目２番１号,,40,343,8112244,,,2025-11-05,清算の結了等,,,2015-10-05,1,,,,,ドリームプラン,0
1804,7290803001011,登記記録の閉鎖等,0,2025-11-21,2025-11-10,合資会社松代,,合資会社,福岡県,北九州市八幡西区,陣原２丁目７番２３号,,40,109,8070821,,,2025-11-10,合併による解散等,3290801010645,令和７年１１月１０日北九州市八幡西区陣原二丁目７番２３号株式会社松岡（3290801010645）に合併し解散,2015-10-05,1,,,,,マツダイ,0
1822,7400002012921,登記記録の閉鎖等,0,2025-11-21,2025-11-13,有限会社滝澤建設,,有限会社,岩手県,久慈市,宇部町第４地割３１番地１,,03,207,0288111,,,2025-11-13,清算の結了等,,,2015-10-05,1,,,,,タキサワケンセツ,0
1826,7430001018090,登記記録の閉鎖等,0,2025-11-21,2025-11-19,株式会社ライビック,,株式会社,北海道,札幌市中央区,北三条東１２丁目９９番地２－５０２,,01,101,0600033,,,2025-11-19,清算の結了等,,,2015-10-05,1,,,,,ライビック,0
1832,7450003001571,登記記録の閉鎖等,0,2025-11-21,2025-11-19,合同会社塚田事務所,,合同会社,北海道,士別市,朝日町中央３８２１番地,,01,220,0950401,,,2025-11-19,清算の結了等,,,2016-10-07,1,,,,,ツカダジムショ,0
1841,8010001143335,登記記録の閉鎖等,0,2025-11-21,2025-11-06,株式会社ＴＬＤワークス,,株式会社,神奈川県,横浜市青葉区,桂台１丁目１７番地５２,,14,117,2270034,,,2025-11-06,清算の結了等,,,2015-10-05,1,,,,,ティエルディワークス,0
1866,8010701001528,登記記録の閉鎖等,0,2025-11-21,2025-11-17,株式会社ＤＮＰエスピーイノベーション,,株式会社,東京都,北区,神谷２丁目３９番３号,,13,117,1150043,,,2025-11-17,合併による解散等,2060001016888,令和７年１０月１日東京都新宿区市谷加賀町一丁目１番１号株式会社ＤＮＰマーコムプロダクツ（2060001016888）に合併し解散,2015-10-05,1,,,,,ディーエヌピーエスピーイノベーション,0
1867,8010701032993,登記記録の閉鎖等,0,2025-11-21,2025-10-01,日本ソーラーホールディングス株式会社,,株式会社,東京都,品川区,東五反田５丁目２７番１０号野村ビル８階,,13,109,1410022,,,2025-10-01,合併による解散等,8010701034544,令和７年１０月１日東京都品川区東五反田五丁目２７番１０号野村ビル８階ＣＰｏｗｅｒ株式会社（8010701034544）に合併し解散,2016-09-09,1,,,,,ニホンソーラーホールディングス,0
1877,8011001165501,登記記録の閉鎖等,0,2025-11-21,2025-11-18,株式会社フジ未来共創,,株式会社,東京都,渋谷区,神宮前１丁目５番８号,,13,113,1500001,,,2025-11-18,合併による解散等,7011101051354,令和７年９月３０日東京都新宿区北新宿一丁目７番２１号株式会社フジ国際交流センター（7011101051354）に合併し解散,2024-10-28,1,,,,,フジミライキョウソウ,0
1886,8011103007849,登記記録の閉鎖等,0,2025-11-21,2025-10-22,Ｈａｎｏｉ　Ｔｅｌｅｃｏｍ　Ｊａｐａｎ合同会社,,合同会社,東京都,新宿区,西新宿８丁目１１番１０号星野ビル３Ｆ,,13,104,1600023,,,2025-10-22,清算の結了等,,,2018-04-20,1,,,,,ハノイテレコムジャパン,0
1892,8011301028143,登記記録の閉鎖等,0,2025-11-21,2025-10-10,株式会社Ｐｉｅｔｙ,,株式会社,東京都,新宿区,上落合１丁目２１－３オセアーノ１０２号,,13,104,1610034,,,2025-10-10,清算の結了等,,,2022-10-05,1,,,,,ピエティー,0
1899,8011705001712,登記記録の閉鎖等,0,2025-11-21,2025-11-18,一般社団法人ＧＨＦＡ,,その他の設立登記法人,長崎県,対馬市,上対馬町鰐浦９２１番地,,42,209,8171723,,,2025-11-18,清算の結了等,,,2022-01-20,1,,,,,ジーエイチエフエイ,0
1900,8011801014485,登記記録の閉鎖等,0,2025-11-21,2025-11-19,クリーンテックシオガイ東京株式会社,,株式会社,東京都,足立区,宮城１丁目６番１５号,,13,121,1200047,,,2025-11-19,合併による解散等,5013301033951,令和７年１０月２３日東京都目黒区上目黒四丁目３６番２２－４０１号ＮＫジューク株式会社（5013301033951）に合併し解散,2015-10-05,1,,,,,クリーンテックシオガイトウキョウ,0
1901,8011802029573,登記記録の閉鎖等,0,2025-11-21,2025-11-17,有限会社コムテックス,,有限会社,東京都,足立区,六月３丁目１１番４号,,13,121,1210814,,,2025-11-17,清算の結了等,,,2015-10-05,1,,,,,,0
1917,8020001125448,登記記録の閉鎖等,0,2025-11-21,2025-11-07,あせまねライフ株式会社,,株式会社,神奈川県,横浜市神奈川区,斎藤分町４番１５号,,14,102,2210811,,,2025-11-07,清算の結了等,,,2018-03-12,1,,,,,アセマネライフ,0
1922,8020002096688,登記記録の閉鎖等,0,2025-11-21,2025-11-14,有限会社ケイエム商事,,有限会社,神奈川県,川崎市川崎区,大師駅前１丁目１４番４号,,14,131,2100802,,,2025-11-14,清算の結了等,,,2015-10-05,1,,,,,ケイエムショウジ,0
1927,8021001046403,登記記録の閉鎖等,0,2025-11-21,2025-11-19,株式会社テクプロ,,株式会社,沖縄県,豊見城市,字豊崎１番地５４０,,47,212,9010225,,,2025-11-19,清算の結了等,,,2015-10-05,1,,,,,テクプロ,0
1937,8030002001985,登記記録の閉鎖等,0,2025-11-21,2025-11-13,有限会社エス・エー・イー,,有限会社,埼玉県,さいたま市浦和区,本太４丁目１５番１号,,11,107,3300052,,,2025-11-13,清算の結了等,,,2015-10-05,1,,,,,エスエーイー,0
1943,8040002003601,登記記録の閉鎖等,0,2025-11-21,2025-11-19,有限会社グローベル,,有限会社,千葉県,千葉市若葉区,西都賀３丁目９番１号,,12,104,2640026,,,2025-11-19,清算の結了等,,,2015-10-05,1,,,,,グローベル,0
1945,8040002022964,登記記録の閉鎖等,0,2025-11-21,2025-10-27,有限会社スギハウス,,有限会社,千葉県,船橋市,西習志野２丁目２４番８号,,12,204,2740815,,,2025-10-27,清算の結了等,,,2015-10-05,1,,,,,スギハウス,0
1951,8050001020456,登記記録の閉鎖等,0,2025-11-21,2025-11-13,株式会社市村建設工業,,株式会社,茨城県,神栖市,知手字和手３１５６番地３７,,08,232,3140115,,,2025-11-13,清算の結了等,,,2015-10-05,1,,,,,イチムラケンセツコウギョウ,0
1952,8050002027987,登記記録の閉鎖等,0,2025-11-21,2025-11-14,有限会社川崎電機,00023004,有限会社,茨城県,鹿嶋市,大字宮中８１６番地３,,08,222,3140031,,,2025-11-14,清算の結了等,,,2015-10-05,1,,,,,,0
1958,8080101000108,登記記録の閉鎖等,0,2025-11-21,2025-11-14,株式会社アム,,株式会社,静岡県,沼津市,花園町１７番地の１０,,22,203,4100065,,,2025-11-14,清算の結了等,,,2015-10-05,1,,,,,,0
1962,8110001002893,登記記録の閉鎖等,0,2025-11-21,2025-11-18,株式会社早福モーター商会,,株式会社,新潟県,新潟市中央区,花町１９８４番地,,15,103,9518056,,,2025-11-18,清算の結了等,,,2015-10-05,1,,,,,ソウフクモーターショウカイ,0
1968,8120001054926,登記記録の閉鎖等,0,2025-11-21,2025-11-19,株式会社楠木衣料,,株式会社,大阪府,大阪市福島区,海老江３丁目４番２０号,,27,103,5530001,,,2025-11-19,清算の結了等,,,2015-10-05,1,,,,,クスノキイリョウ,0
1971,8120001133317,登記記録の閉鎖等,0,2025-11-21,2025-11-12,ＦＭＣ株式会社,,株式会社,大阪府,大阪市住之江区,南港中３丁目８番２２－７０１号,,27,125,5590033,,,2025-11-12,清算の結了等,,,2015-10-05,1,,,,,エフエムシー,0
1987,8120901023393,登記記録の閉鎖等,0,2025-11-21,2025-11-06,北大阪空調株式会社,,株式会社,大阪府,豊中市,浜３丁目６番２８号,,27,203,5610817,,,2025-11-06,清算の結了等,,,2015-10-05,1,,,,,キタオオサカクウチョウ,0
1992,8120901049777,登記記録の閉鎖等,0,2025-11-21,2025-11-10,株式会社ＱＵＥＥＮＳ＆ＣＯ．,,株式会社,大阪府,高槻市,城北町２丁目６番１９号,,27,207,5690071,,,2025-11-10,清算の結了等,,,2024-09-19,1,,,,,クイーンズアンドコー,0
1994,8130001007073,登記記録の閉鎖等,0,2025-11-21,2025-11-19,花倶楽部株式会社,,株式会社,京都府,京都市左京区,一乗寺里ノ西町１８番地の２,,26,103,6068115,,,2025-11-19,清算の結了等,,,2015-10-05,1,,,,,ハナクラブ,0
2024,8230001010091,登記記録の閉鎖等,0,2025-11-21,2025-11-14,株式会社桜井鋳造,,株式会社,富山県,高岡市,長慶寺１０００番地,,16,202,9330951,,,2025-11-14,清算の結了等,,,2015-10-05,1,,,,,サクライチュウゾウ,0
2037,8290002053497,登記記録の閉鎖等,0,2025-11-21,2025-11-18,有限会社セレクトやまおく柳川,,有限会社,福岡県,柳川市,三橋町柳河５７４番地１,,40,207,8320806,,,2025-11-18,清算の結了等,,,2015-10-05,1,,,,,セレクトヤマオクヤナガワ,0
2042,8290802019474,登記記録の閉鎖等,0,2025-11-21,2025-11-10,丸王運輸有限会社,,有限会社,福岡県,北九州市戸畑区,川代２丁目４番３号,,40,105,8040071,,,2025-11-10,合併による解散等,9290801011910,令和７年１１月１日北九州市若松区本町一丁目１４番１４号第一港運株式会社（9290801011910）に合併し解散,2015-10-05,1,,,,,マルオウウンユ,0
2057,8380001023772,登記記録の閉鎖等,0,2025-11-21,2025-11-14,株式会社水野介護,,株式会社,福島県,いわき市,小名浜字平蔵塚５２番地の５,,07,204,9718101,,,2025-11-14,清算の結了等,,,2015-10-05,1,,,,,ミズノカイゴ,0
2058,8380002021288,登記記録の閉鎖等,0,2025-11-21,2025-11-13,有限会社グリーンサブナラ,,有限会社,福島県,石川郡古殿町,大字山上字三本楢２７番地,00083780,07,505,9638302,,,2025-11-13,清算の結了等,,,2015-10-05,1,,,,,グリーンサブナラ,0
2062,8420002011284,登記記録の閉鎖等,0,2025-11-21,2025-11-13,有限会社成吉住建,,有限会社,青森県,五所川原市,みどり町３丁目４６番地,,02,205,0370024,,,2025-11-13,清算の結了等,,,2015-10-05,1,,,,,ナリヨシジュウケン,0
2073,8450005004365,登記記録の閉鎖等,0,2025-11-21,2025-10-06,一般社団法人カミフラノミライ,,その他の設立登記法人,北海道,空知郡上富良野町,丘町１丁目２番９号,,01,460,0710565,,,2025-10-06,清算の結了等,,,2023-03-24,1,,,,,カミフラノミライ,0
2095,9010501025131,登記記録の閉鎖等,0,2025-11-21,2025-11-18,株式会社サンエービル,,株式会社,東京都,足立区,南花畑３丁目２０番１７号,,13,121,1210062,,,2025-11-18,清算の結了等,,,2015-10-05,1,,,,,サンエービル,0
2102,9010802004949,登記記録の閉鎖等,0,2025-11-21,2025-11-12,有限会社ケイワイパレット,,有限会社,東京都,大田区,南馬込３丁目１６番１５号,,13,111,1430025,,,2025-11-12,清算の結了等,,,2015-10-05,1,,,,,ケイワイパレット,0
2110,9011001012982,登記記録の閉鎖等,0,2025-11-21,2025-10-28,大栄通信システム株式会社,,株式会社,東京都,渋谷区,笹塚１丁目５７番１０笹塚駅前ビル９１０号,00064336,13,113,1510073,,,2025-10-28,清算の結了等,,,2015-10-05,1,,,,,ダイエイツウシンシステム,0
2119,9011302016682,登記記録の閉鎖等,0,2025-11-21,2025-11-14,有限会社志水,,有限会社,東京都,国分寺市,南町１丁目１１番２２号,,13,214,1850021,,,2025-11-14,清算の結了等,,,2015-10-05,1,,,,,シミズ,0
2123,9011502006855,登記記録の閉鎖等,0,2025-11-21,2025-11-19,有限会社雨宮商会,,有限会社,東京都,北区,田端新町３丁目１３番１号,,13,117,1140012,,,2025-11-19,清算の結了等,,,2015-10-05,1,,,,,アメミヤショウカイ,0
2128,9011802012413,登記記録の閉鎖等,0,2025-11-21,2025-11-19,有限会社小泉駐車場,,有限会社,東京都,足立区,梅島２丁目８番５号,,13,121,1210816,,,2025-11-19,清算の結了等,,,2015-10-05,1,,,,,コイズミチュウシャジョウ,0
2154,9030002099251,登記記録の閉鎖等,0,2025-11-21,2025-11-14,有限会社西野工業,,有限会社,埼玉県,川口市,坂下町１丁目１２番１１号,,11,203,3340003,,,2025-11-14,清算の結了等,,,2015-10-05,1,,,,,ニシノコウギョウ,0
2165,9050002014893,登記記録の閉鎖等,0,2025-11-21,2025-11-14,有限会社石岡ゴルフセンター,,有限会社,茨城県,石岡市,八軒台１６番６４号,,08,205,3150024,,,2025-11-14,清算の結了等,,,2015-10-05,1,,,,,イシオカゴルフセンター,0
2166,9060001020215,登記記録の閉鎖等,0,2025-11-21,2025-11-19,阿部織物株式会社,,株式会社,栃木県,佐野市,高萩町１３４１番地２,,09,204,3270821,,,2025-11-19,清算の結了等,,,2015-10-05,1,,,,,アベオリモノ,0
2167,9060002009554,登記記録の閉鎖等,0,2025-11-21,2025-11-20,有限会社ワタナベ,,有限会社,栃木県,宇都宮市,兵庫塚１丁目４番１１号,,09,201,3210138,,,2025-11-20,清算の結了等,,,2015-10-05,1,,,,,ワタナベ,0
2171,9080101015055,登記記録の閉鎖等,0,2025-11-21,2025-11-18,株式会社伊豆ライフ,,株式会社,静岡県,賀茂郡東伊豆町,奈良本１４０５番地,,22,301,4130302,,,2025-11-18,清算の結了等,,,2015-10-05,1,,,,,イズライフ,0
2173,9080102009064,登記記録の閉鎖等,0,2025-11-21,2025-11-19,有限会社修栄工業,,有限会社,静岡県,伊豆の国市,中４８４番地,,22,225,4102113,,,2025-11-19,清算の結了等,,,2015-10-05,1,,,,,,0
2202,9120101002585,登記記録の閉鎖等,0,2025-11-21,2025-11-11,株式会社栄工作所,,株式会社,大阪府,堺市北区,南花田町１１５番地４６,,27,146,5918011,,,2025-11-11,清算の結了等,,,2015-10-05,1,,,,,サカエコウサクショ,0
2205,9120101046541,登記記録の閉鎖等,0,2025-11-21,2025-11-17,ケアベル株式会社,,株式会社,大阪府,和泉市,和気町１丁目１０番地１６号Ａ２０１号室,,27,219,5940073,,,2025-11-17,清算の結了等,,,2015-10-05,1,,,,,ケアベル,0
2206,9120101068115,登記記録の閉鎖等,0,2025-11-21,2025-11-18,株式会社サブツアー,,株式会社,大阪府,和泉市,尾井町２丁目４番１１－１号,,27,219,5940006,,,2025-11-18,清算の結了等,,,2023-08-28,1,,,,,サブツアー,0
2216,9130001059972,登記記録の閉鎖等,0,2025-11-21,2025-11-19,株式会社Ｇｏｏｄ　Ｄａｙ　Ｋｙｏｔｏ,,株式会社,京都府,京都市南区,東九条上殿田町４１番地１ファミネス上殿田１階,,26,107,6018002,,,2025-11-19,清算の結了等,,,2017-06-07,1,,,,,グッデイキョウト,0
2218,9140001072215,登記記録の閉鎖等,0,2025-11-21,2025-11-18,デイ・オレゴン株式会社,,株式会社,兵庫県,西宮市,高松町７番２６－３０２号,,28,204,6638204,,,2025-11-18,清算の結了等,,,2015-10-05,1,,,,,デイオレゴン,0
2227,9180301004046,登記記録の閉鎖等,0,2025-11-21,2025-11-20,株式会社シーズ,,株式会社,愛知県,岡崎市,在家町字社口１９番地,,23,202,4440245,,,2025-11-20,清算の結了等,,,2015-10-05,1,,,,,,0
2228,9180301008575,登記記録の閉鎖等,0,2025-11-21,2025-11-14,株式会社若泉保険事務所,,株式会社,愛知県,豊橋市,東脇１丁目１０番地の２,,23,201,4418083,,,2025-11-14,清算の結了等,,,2015-10-05,1,,,,,ワカイズミホケンジムショ,0
2231,9180301027716,登記記録の閉鎖等,0,2025-11-21,2025-11-20,株式会社ウエストヴィレッジ２４,,株式会社,愛知県,豊田市,宮上町６丁目７１番地,,23,211,4710038,,,2025-11-20,清算の結了等,,,2015-10-05,1,,,,,,0
2234,9180303006065,登記記録の閉鎖等,0,2025-11-21,2025-11-18,西谷システムズ合同会社,,合同会社,愛知県,豊田市,鴛鴨町下高根１０４番地６,,23,211,4701207,,,2025-11-18,清算の結了等,,,2024-04-16,1,,,,,ニシタニシステムズ,0
2244,9240002001187,登記記録の閉鎖等,0,2025-11-21,2025-11-18,有限会社イシダ,,有限会社,広島県,広島市安佐南区,大町西３丁目１２番２１号,,34,105,7310125,,,2025-11-18,清算の結了等,,,2015-10-05,1,,,,,イシダ,0
2249,9280002011249,登記記録の閉鎖等,0,2025-11-21,2025-11-19,有限会社エイコーエンジニア,,有限会社,島根県,雲南市,加茂町東谷１３４４番地,,32,209,6991113,,,2025-11-19,清算の結了等,,,2015-10-05,1,,,,,エイコーエンジニア,0
2267,9340001011029,登記記録の閉鎖等,0,2025-11-21,2025-11-13,株式会社社会開発センター,,株式会社,鹿児島県,大島郡喜界町,大字中里２０３番地４,,46,529,8916203,,,2025-11-13,清算の結了等,,,2015-10-05,1,,,,,シャカイカイハツセンター,0
2278,9370602000360,登記記録の閉鎖等,0,2025-11-21,2025-11-14,有限会社大湯工務店,,有限会社,宮城県,宮城郡利府町,青山３丁目１４番地２１,,04,406,9810131,,,2025-11-14,清算の結了等,,,2015-10-05,1,,,,,オオユコウムテン,0
2279,9380001015331,登記記録の閉鎖等,0,2025-11-21,2025-11-14,株式会社金光堂,,株式会社,福島県,いわき市,平北白土字上平３０番地の３,,07,204,9708024,,,2025-11-14,清算の結了等,,,2015-10-05,1,,,,,キンコウドウ,0
2286,9430001029524,登記記録の閉鎖等,0,2025-11-21,2025-09-30,北海道フードフロンティア株式会社,,株式会社,東京都,千代田区,神田小川町１丁目１番１５号,,13,101,1010052,,,2025-09-30,合併による解散等,6020001096088,令和７年９月３０日東京都千代田区神田小川町一丁目１番１５号株式会社みなとみらいＤｒｅａｍ（6020001096088）に合併し解散,2015-10-05,1,,,,,ホッカイドウフードフロンティア,0
2293,9440005001370,登記記録の閉鎖等,0,2025-11-21,2025-11-18,一般社団法人シーサイドメンバー会,,その他の設立登記法人,北海道,函館市,豊原町２３７番地,,01,202,0410263,,,2025-11-18,清算の結了等,,,2015-10-05,1,,,,,シーサイドメンバーカイ,0
2296,9480002016285,登記記録の閉鎖等,0,2025-11-21,2025-11-20,有限会社渡辺ブロック,,有限会社,徳島県,板野郡北島町,中村字東開３４番地,,36,402,7710203,,,2025-11-20,清算の結了等,,,2025-08-01,1,,,,,ワタナベブロック,0
