sequenceNumber,corporateNumber,process,correct,updateDate,changeDate,name,nameImageId,kind,prefectureName,cityName,streetNumber,addressImageId,prefectureCode,cityCode,postCode,addressOutside,addressOutsideImageId,closeDate,closeCause,successorCorporateNumber,changeCause,assignmentDate,latest,enName,enPrefectureName,enCityName,enAddressOutside,furigana,hihyoji
9,1010002052954,登記記録の閉鎖等,0,2024-08-30,2024-08-19,有限会社エヌ・ティー・ケイ・エンタープライズ,,有限会社,東京都,千代田区,紀尾井町４－１ホテルニューオータニガーデンコート４階,,13,101,1020094,,,2024-08-19,清算の結了等,,,2015-10-05,1,,,,,エヌティーケイエンタープライズ,0
14,1010005025800,登記記録の閉鎖等,0,2024-08-30,2024-08-26,一般社団法人山武・姫路,,その他の設立登記法人,東京都,千代田区,一番町９番地８ノザワビルディング６階税理士法人シリウス内,,13,101,1020082,,,2024-08-26,清算の結了等,,,2016-09-14,1,,,,,ヤマタケヒメジ,0
19,1010105002187,登記記録の閉鎖等,0,2024-08-30,2024-08-26,特定非営利活動法人はるぞら,,その他の設立登記法人,東京都,八王子市,上野町３４番地７,,13,201,1920902,,,2024-08-26,清算の結了等,,,2022-10-21,1,,,,,ハルゾラ,0
30,1010501008259,登記記録の閉鎖等,0,2024-08-30,2024-08-26,アバンス株式会社,,株式会社,東京都,台東区,東浅草１丁目１１番７号,,13,106,1110025,,,2024-08-26,清算の結了等,,,2015-10-05,1,,,,,アバンス,0
33,1010502000603,登記記録の閉鎖等,0,2024-08-30,2024-08-26,有限会社安藤商店,,有限会社,東京都,台東区,浅草橋５丁目３番１号,,13,106,1110053,,,2024-08-26,清算の結了等,,,2015-10-05,1,,,,,アンドウショウテン,0
41,1010603010526,登記記録の閉鎖等,0,2024-08-30,2024-08-29,合同会社デジタルディスカバリー,,合同会社,東京都,江東区,亀戸９丁目１９番７－５０１号,,13,108,1360071,,,2024-08-29,清算の結了等,,,2023-12-21,1,,,,,デジタルディスカバリー,0
53,1011101075417,登記記録の閉鎖等,0,2024-08-30,2024-08-15,リベルタス株式会社,,株式会社,東京都,新宿区,早稲田南町３４番地,,13,104,1620043,,,2024-08-15,清算の結了等,,,2015-12-15,1,,,,,リベルタス,0
54,1011101092395,登記記録の閉鎖等,0,2024-08-30,2024-08-15,株式会社Ａｋｉｂａ　Ｇｒｏｕｎｄ．,,株式会社,東京都,新宿区,新宿５丁目１０番８号４０１,,13,104,1600022,,,2024-08-15,清算の結了等,,,2020-09-07,1,,,,,アキバグラウンド,0
65,1012401013165,登記記録の閉鎖等,0,2024-08-30,2024-08-27,株式会社吉建築設計,,株式会社,東京都,三鷹市,野崎３丁目２０番２１号,,13,204,1810014,,,2024-08-27,清算の結了等,,,2015-10-05,1,,,,,キチケンチクセッケイ,0
71,1013302017461,登記記録の閉鎖等,0,2024-08-30,2024-08-23,有限会社エーツープロダクション,,有限会社,東京都,豊島区,高田２丁目４番２２号桜プレイス５０３号,,13,116,1710033,,,2024-08-23,清算の結了等,,,2015-10-05,1,,,,,エーツープロダクション,0
77,1021001021866,登記記録の閉鎖等,0,2024-08-30,2024-08-28,株式会社楽住リフォーム,,株式会社,東京都,足立区,西新井２丁目２２番５－１０５号,,13,121,1230841,,,2024-08-28,清算の結了等,,,2015-10-05,1,,,,,ラクジュウリフォーム,0
78,1021001025149,登記記録の閉鎖等,0,2024-08-30,2024-08-29,クラフトエンジニアリング株式会社,,株式会社,神奈川県,大和市,林間１丁目１５番３１号サンマンションアトレ南林間１０３号,,14,213,2420003,,,2024-08-29,清算の結了等,,,2015-10-05,1,,,,,クラフトエンジニアリング,0
79,1021001079129,登記記録の閉鎖等,0,2024-08-30,2024-08-26,株式会社Ｈｏｇｇｅｔ,,株式会社,神奈川県,藤沢市,鵠沼東２番３～８０１号,,14,205,2510026,,,2024-08-26,清算の結了等,,,2023-05-25,1,,,,,ホゲット,0
94,1040001023268,登記記録の閉鎖等,0,2024-08-30,2024-08-21,株式会社蕾,,株式会社,千葉県,船橋市,三山５丁目１４番３棟２０２号,,12,204,2740072,,,2024-08-21,清算の結了等,,,2015-10-05,1,,,,,ツボミ,0
95,1040001057423,登記記録の閉鎖等,0,2024-08-30,2024-08-20,株式会社桜井売場,,株式会社,千葉県,山武郡九十九里町,真亀４３３２番地,,12,403,2830114,,,2024-08-20,清算の結了等,,,2015-10-05,1,,,,,サクライウリバ,0
100,1040002000010,登記記録の閉鎖等,0,2024-08-30,2024-08-22,有限会社葵ウエルディング,,有限会社,千葉県,千葉市中央区,浜野町３６０番地５,,12,101,2600824,,,2024-08-22,清算の結了等,,,2015-10-05,1,,,,,アオイウエルディング,0
102,1040002034875,登記記録の閉鎖等,0,2024-08-30,2024-08-21,有限会社セマンティクス,,有限会社,千葉県,市川市,北方１丁目１４番１号,,12,203,2720815,,,2024-08-21,清算の結了等,,,2015-10-05,1,,,,,セマンティクス,0
106,1050001048470,登記記録の閉鎖等,0,2024-08-30,2024-08-26,株式会社海食,,株式会社,茨城県,日立市,弁天町１丁目４－９ＤＩビル３０５,,08,202,3170072,,,2024-08-26,清算の結了等,,,2020-12-14,1,,,,,カイショク,0
113,1080001004818,登記記録の閉鎖等,0,2024-08-30,2024-08-26,株式会社マスダ・エイ・シー・イー,,株式会社,静岡県,静岡市葵区,駒形通６丁目１４番８号,,22,101,4200042,,,2024-08-26,清算の結了等,,,2015-10-05,1,,,,,マスダエイシーイー,0
114,1080002009840,登記記録の閉鎖等,0,2024-08-30,2024-08-26,有限会社幸和観光,,有限会社,静岡県,静岡市清水区,庵原町８３９番地の２,,22,103,4240114,,,2024-08-26,清算の結了等,,,2015-10-05,1,,,,,コウワカンコウ,0
115,1080003001540,登記記録の閉鎖等,0,2024-08-30,2024-08-26,合同会社シンバ,,合同会社,静岡県,静岡市清水区,庵原町８３９番地の２,,22,103,4240114,,,2024-08-26,清算の結了等,,,2015-10-05,1,,,,,シンバ,0
129,1120005007597,登記記録の閉鎖等,0,2024-08-30,2024-08-29,特定非営利活動法人地域デザイン研究会,,その他の設立登記法人,大阪府,大阪市淀川区,西中島６丁目７番８号,,27,123,5320011,,,2024-08-29,清算の結了等,,,2015-10-05,1,,,,,チイキデザインケンキュウカイ,0
142,1140001050269,登記記録の閉鎖等,0,2024-08-30,2024-08-26,富林電気株式会社,,株式会社,兵庫県,三田市,富士が丘３丁目１６－１,,28,219,6691547,,,2024-08-26,清算の結了等,,,2015-10-05,1,,,,,トミバヤシデンキ,0
145,1140001122167,登記記録の閉鎖等,0,2024-08-30,2024-08-26,株式会社あさひ薬局,,株式会社,兵庫県,神戸市中央区,元町通６丁目２番２－２０１号,,28,110,6500022,,,2024-08-26,合併による解散等,6030001066965,令和６年８月１日埼玉県北葛飾郡松伏町築比地７９５番地１株式会社ウィーズ（6030001066965）に合併し解散,2021-07-05,1,,,,,アサヒヤッキョク,0
155,1180001068984,登記記録の閉鎖等,0,2024-08-30,2024-08-20,株式会社シズマオフィス,,株式会社,愛知県,名古屋市中川区,十番町１丁目１９番地,,23,110,4540055,,,2024-08-20,清算の結了等,,,2015-10-05,1,,,,,シズマオフィス,0
156,1180001122576,登記記録の閉鎖等,0,2024-08-30,2024-08-21,株式会社Ｗｅｌｌａ　Ａｇｅｎｃｙ　Ｃｏｒｐｏｒａｔｉｏｎ,,株式会社,愛知県,名古屋市名東区,一社３丁目６９番地の１グランドメゾン一社レジデンスシティ６１０号,,23,115,4650093,,,2024-08-21,清算の結了等,,,2016-03-23,1,,,,,ウエラエイジェンシーコーポレーション,0
164,1180302012889,登記記録の閉鎖等,0,2024-08-30,2024-08-27,大井木材有限会社,,有限会社,愛知県,豊川市,千両町糸宅７７番地３,,23,207,4420001,,,2024-08-27,清算の結了等,,,2015-10-05,1,,,,,オオイモクザイ,0
167,1200001018689,登記記録の閉鎖等,0,2024-08-30,2024-08-27,株式会社エスエス保険事務所,,株式会社,岐阜県,可児市,兼山６６８番地７,,21,214,5050130,,,2024-08-27,清算の結了等,,,2015-10-05,1,,,,,エスエスホケンジムショ,0
168,1200001024431,登記記録の閉鎖等,0,2024-08-30,2024-08-26,株式会社エム・ズィー・キュー,,株式会社,岐阜県,中津川市,駒場１６６６番地の３０６,,21,206,5080011,,,2024-08-26,清算の結了等,,,2015-10-05,1,,,,,エムズィーキュー,0
169,1200002023201,登記記録の閉鎖等,0,2024-08-30,2024-08-23,有限会社エハラ美容室,,有限会社,岐阜県,中津川市,本町３丁目１番３号,,21,206,5080041,,,2024-08-23,清算の結了等,,,2015-10-05,1,,,,,エハラビヨウシツ,0
171,1200003006130,登記記録の閉鎖等,0,2024-08-30,2024-08-16,合同会社ルナクレシェンテ,,合同会社,岐阜県,岐阜市,六条北４丁目１４－１,,21,201,5008359,,,2024-08-16,清算の結了等,,,2023-10-27,1,,,,,ルナクレシェンテ,0
173,1210001013160,登記記録の閉鎖等,0,2024-08-30,2024-08-29,株式会社博眼,,株式会社,福井県,鯖江市,河和田町第１９号１番地７,,18,207,9161222,,,2024-08-29,清算の結了等,,,2015-10-05,1,,,,,ハクガン,0
181,1230003002218,登記記録の閉鎖等,0,2024-08-30,2024-08-26,ＡＩ　Ｌａｂｏｒａｔｏｒｙ合同会社,,合同会社,富山県,富山市,高木南１０８－９,,16,201,9300106,,,2024-08-26,清算の結了等,,,2024-05-31,1,,,,,エーアイラボラトリー,0
189,1300001012459,登記記録の閉鎖等,0,2024-08-30,2024-08-28,株式会社トヨウケフーズ,,株式会社,佐賀県,佐賀市,長瀬町５番１２号,,41,201,8400853,,,2024-08-28,清算の結了等,,,2021-04-19,1,,,,,トヨウケフーズ,0
190,1310001014553,登記記録の閉鎖等,0,2024-08-30,2024-08-27,株式会社ＹＭコーポレーション,,株式会社,大阪府,大阪市阿倍野区,松崎町２丁目３番２６号アズヴェール阿倍野４０１号,,27,119,5450053,,,2024-08-27,清算の結了等,,,2016-11-15,1,,,,,ワイエムコーポレーション,0
191,1330003005631,登記記録の閉鎖等,0,2024-08-30,2024-08-22,合同会社暁,,合同会社,熊本県,人吉市,東漆田町２１８７番地,,43,203,8680823,,,2024-08-22,清算の結了等,,,2015-10-05,1,,,,,アカツキ,0
201,1390001005586,登記記録の閉鎖等,0,2024-08-30,2024-08-20,株式会社静乃園,,株式会社,山形県,山形市,江俣４丁目３番３８号,,06,201,9900861,,,2024-08-20,清算の結了等,,,2015-10-05,1,,,,,シズノエン,0
202,1390001008333,登記記録の閉鎖等,0,2024-08-30,2024-08-16,株式会社トモエ自動車,,株式会社,山形県,鶴岡市,錦町１７番３５号,,06,203,9970031,,,2024-08-16,清算の結了等,,,2015-10-05,1,,,,,トモエジドウシャ,0
205,1430003013731,登記記録の閉鎖等,0,2024-08-30,2024-08-28,合同会社知津研,,合同会社,北海道,札幌市北区,新琴似九条１丁目４番１－５０３号,,01,102,0010909,,,2024-08-28,清算の結了等,,,2022-03-23,1,,,,,トモツケン,0
213,2010001129975,登記記録の閉鎖等,0,2024-08-30,2024-08-21,メイクホーム株式会社,,株式会社,千葉県,松戸市,大金平１丁目１５番地ライフピア北小金１Ｆ,,12,207,2700006,,,2024-08-21,清算の結了等,,,2015-10-05,1,,,,,メイクホーム,0
218,2010001166374,登記記録の閉鎖等,0,2024-08-30,2024-08-13,株式会社Ａ－スタイル水戸発電,,株式会社,東京都,千代田区,大手町２丁目１－１野村ビル１６Ｆ,,13,101,1000004,,,2024-08-13,清算の結了等,,,2015-10-05,1,,,,,エースタイルミトハツデン,0
228,2010005023324,登記記録の閉鎖等,0,2024-08-30,2024-08-26,一般社団法人鹿嶋・姫路,,その他の設立登記法人,東京都,千代田区,二番町３番地麹町スクエア株式会社シリウス・アドバイザリー内,,13,101,1020084,,,2024-08-26,清算の結了等,,,2015-10-05,1,,,,,カシマヒメジ,0
229,2010005027655,登記記録の閉鎖等,0,2024-08-30,2024-08-23,一般社団法人ストック・ファイブ,,その他の設立登記法人,東京都,千代田区,霞が関３丁目２番５号,,13,101,1000013,,,2024-08-23,清算の結了等,,,2017-10-27,1,,,,,ストックファイブ,0
251,2010802012594,登記記録の閉鎖等,0,2024-08-30,2024-08-26,有限会社藤田鉄工,,有限会社,東京都,大田区,東糀谷３丁目１８番１１－１０１号,,13,111,1440033,,,2024-08-26,清算の結了等,,,2015-10-05,1,,,,,フジタテッコウ,0
258,2011003009083,登記記録の閉鎖等,0,2024-08-30,2024-08-29,合同会社はじめ,,合同会社,東京都,江東区,豊洲３丁目５－２１ロイヤルパークス豊洲１２０５,,13,108,1350061,,,2024-08-29,清算の結了等,,,2018-08-20,1,,,,,ハジメ,0
264,2011301000058,登記記録の閉鎖等,0,2024-08-30,2024-08-26,株式会社アイズーム,,株式会社,東京都,杉並区,上井草２丁目３１番２２号,,13,115,1670023,,,2024-08-26,清算の結了等,,,2015-10-05,1,,,,,アイズーム,0
288,2012702007121,登記記録の閉鎖等,0,2024-08-30,2024-08-22,有限会社野瀬物産,00058499,有限会社,東京都,東久留米市,浅間町３丁目７番９号,,13,222,2030012,,,2024-08-22,清算の結了等,,,2015-10-05,1,,,,,ノセブッサン,0
296,2020002097733,登記記録の閉鎖等,0,2024-08-30,2024-08-07,有限会社田代商店,,有限会社,神奈川県,川崎市川崎区,浅田２丁目１６番８号,,14,131,2100847,,,2024-08-07,清算の結了等,,,2015-10-05,1,,,,,タシロショウテン,0
304,2030001076035,登記記録の閉鎖等,0,2024-08-30,2024-08-27,谷口工業株式会社,,株式会社,埼玉県,さいたま市北区,日進町１丁目１８６番地１,,11,102,3310823,,,2024-08-27,清算の結了等,,,2015-10-05,1,,,,,タニグチコウギョウ,0
308,2030002018168,登記記録の閉鎖等,0,2024-08-30,2024-08-29,有限会社町田光学,,有限会社,埼玉県,さいたま市緑区,大字大間木８１８番地１,,11,109,3360923,,,2024-08-29,清算の結了等,,,2015-10-05,1,,,,,マチダコウガク,0
324,2110001021461,登記記録の閉鎖等,0,2024-08-30,2024-08-23,株式会社とびたり,,株式会社,新潟県,十日町市,中条戊８２０番地,,15,210,9498618,,,2024-08-23,清算の結了等,,,2015-10-05,1,,,,,トビタリ,0
325,2110002004713,登記記録の閉鎖等,0,2024-08-30,2024-08-28,有限会社新潟光糧,,有限会社,新潟県,新潟市東区,卸新町３丁目６１番地,,15,102,9500863,,,2024-08-28,清算の結了等,,,2015-10-05,1,,,,,ニイガタコウリョウ,0
326,2110005011070,登記記録の閉鎖等,0,2024-08-30,2024-08-28,医療法人社団谷小児科医院,,その他の設立登記法人,新潟県,糸魚川市,大町１丁目６番３３号,,15,216,9410061,,,2024-08-28,清算の結了等,,,2015-10-05,1,,,,,タニショウニカイイン,0
329,2120001242049,登記記録の閉鎖等,0,2024-08-30,2024-08-29,ＳｕｎＬｕｃｋｙ株式会社,,株式会社,大阪府,大阪市東淀川区,西淡路４丁目１５番２３－７１３号,,27,114,5330031,,,2024-08-29,清算の結了等,,,2021-11-26,1,,,,,サンラッキー,0
339,2120003012375,登記記録の閉鎖等,0,2024-08-30,2024-08-27,合同会社ＣＹコーポレーション,,合同会社,大阪府,大阪市生野区,田島２丁目９番１３号,,27,116,5440011,,,2024-08-27,清算の結了等,,,2017-01-17,1,,,,,シーワイコーポレーション,0
346,2120901019125,登記記録の閉鎖等,0,2024-08-30,2024-08-26,株式会社エスエスビー,,株式会社,大阪府,摂津市,鶴野３丁目３番２４号,,27,224,5660035,,,2024-08-26,清算の結了等,,,2015-10-05,1,,,,,エスエスビー,0
378,2230002010195,登記記録の閉鎖等,0,2024-08-30,2024-08-27,有限会社やまだカントリー・オヤベ,,有限会社,富山県,小矢部市,道林寺４２５番地,,16,209,9320841,,,2024-08-27,清算の結了等,,,2015-10-05,1,,,,,ヤマダカントリーオヤベ,0
379,2240001018123,登記記録の閉鎖等,0,2024-08-30,2024-08-27,株式会社広栄海運,,株式会社,広島県,広島市南区,似島町字家下６２１番地,,34,103,7340017,,,2024-08-27,清算の結了等,,,2015-10-05,1,,,,,コウエイカイウン,0
386,2240002051420,登記記録の閉鎖等,0,2024-08-30,2024-08-29,ほそや工業有限会社,,有限会社,広島県,尾道市,山波町４９７番地の６,,34,205,7220052,,,2024-08-29,清算の結了等,,,2015-10-05,1,,,,,,0
387,2240005007155,登記記録の閉鎖等,0,2024-08-30,2024-08-29,協同組合廿日市市防災保守管理センター,,その他の設立登記法人,広島県,廿日市市,大野１１２６番地,,34,213,7390488,,,2024-08-29,清算の結了等,,,2015-10-05,1,,,,,ハツカイチシボウサイホシュカンリセンター,0
388,2240005015562,登記記録の閉鎖等,0,2024-08-30,2024-08-29,一般社団法人第２０回国際有害有毒藻類学会実行委員会,,その他の設立登記法人,広島県,東広島市,鏡山１丁目４番４号,,34,212,7390046,,,2024-08-29,清算の結了等,,,2023-04-14,1,,,,,ダイニジュッカイコクサイユウガイユウドクソウルイガッカイジッコウイインカイ,0
391,2280002009877,登記記録の閉鎖等,0,2024-08-30,2024-08-28,有限会社オカコーポレーション,,有限会社,島根県,益田市,幸町ロ２０９８番地１,,32,204,6980021,,,2024-08-28,清算の結了等,,,2015-10-05,1,,,,,オカコーポレーション,0
397,2330002025893,登記記録の閉鎖等,0,2024-08-30,2024-08-26,有限会社セイフティー企画,,有限会社,熊本県,八代市,古城町２２３２番地の９,,43,202,8660043,,,2024-08-26,清算の結了等,,,2015-10-05,1,,,,,セイフティーキカク,0
403,2370105001532,登記記録の閉鎖等,0,2024-08-30,2024-08-09,特定非営利活動法人大河原町スポーツ振興アカデミー,,その他の設立登記法人,宮城県,柴田郡大河原町,字緑町１９番地２,,04,321,9891221,,,2024-08-09,清算の結了等,,,2015-10-05,1,,,,,オオガワラマチスポーツシンコウアカデミー,0
405,2390002001971,登記記録の閉鎖等,0,2024-08-30,2024-08-05,有限会社トムソーヤ,,有限会社,山形県,山形市,青田２丁目３番３号,,06,201,9902435,,,2024-08-05,清算の結了等,,,2015-10-05,1,,,,,トムソーヤ,0
406,2410002005516,登記記録の閉鎖等,0,2024-08-30,2024-08-28,有限会社菊地商事,,有限会社,秋田県,潟上市,天王字児玉２８番地１,,05,211,0100201,,,2024-08-28,清算の結了等,,,2015-10-05,1,,,,,キクチショウジ,0
409,2430001024127,登記記録の閉鎖等,0,2024-08-30,2024-08-29,株式会社メディック,,株式会社,北海道,小樽市,望洋台１丁目１番３２号,,01,203,0470155,,,2024-08-29,清算の結了等,,,2015-10-05,1,,,,,メディック,0
416,2460305001975,登記記録の閉鎖等,0,2024-08-30,2024-08-29,えんがるサンキュー協同組合,,その他の設立登記法人,北海道,紋別郡遠軽町,大通南２丁目５番地１９,,01,555,0990416,,,2024-08-29,清算の結了等,,,2022-04-05,1,,,,,エンガルサンキュー,0
436,3010005027720,登記記録の閉鎖等,0,2024-08-30,2024-08-26,一般社団法人開発４１号,,その他の設立登記法人,東京都,千代田区,一番町９番地８ノザワビルディング６階税理士法人シリウス内,,13,101,1020082,,,2024-08-26,清算の結了等,,,2017-11-10,1,,,,,カイハツヨンジュウイチゴウ,0
443,3010403012217,登記記録の閉鎖等,0,2024-08-30,2024-08-07,Ｄａｃｉａ合同会社,,合同会社,東京都,港区,西新橋１丁目１番１号ＥＰコンサルティングサービス内,,13,103,1050003,,,2024-08-07,清算の結了等,,,2015-10-05,1,,,,,ダキア,0
445,3010501024460,登記記録の閉鎖等,0,2024-08-30,2024-08-21,オーナーズアーム株式会社,,株式会社,千葉県,千葉市緑区,あすみが丘８丁目３８番地１７,,12,105,2670066,,,2024-08-21,清算の結了等,,,2015-10-05,1,,,,,オーナーズアーム,0
449,3010502018008,登記記録の閉鎖等,0,2024-08-30,2024-08-27,有限会社ティーアイコーポレーション,,有限会社,東京都,台東区,上野６丁目１３番４号,,13,106,1100005,,,2024-08-27,清算の結了等,,,2015-10-05,1,,,,,ティーアイコーポレーション,0
466,3011302016548,登記記録の閉鎖等,0,2024-08-30,2024-08-27,有限会社協同真珠工房,00054595,有限会社,東京都,杉並区,宮前５丁目７番１６号,,13,115,1680081,,,2024-08-27,清算の結了等,,,2015-10-05,1,,,,,,0
467,3011305001489,登記記録の閉鎖等,0,2024-08-30,2024-08-27,特定非営利活動法人シンブル高齢者健康福祉研究所,,その他の設立登記法人,東京都,杉並区,清水２丁目１０番１７号,,13,115,1670033,,,2024-08-27,清算の結了等,,,2015-10-05,1,,,,,シンブルコウレイシャケンコウフクシケンキュウショ,0
470,3011501007736,登記記録の閉鎖等,0,2024-08-30,2024-08-28,株式会社アーバンプランニング,,株式会社,東京都,荒川区,西尾久７丁目３番１６号,,13,118,1160011,,,2024-08-28,清算の結了等,,,2015-10-05,1,,,,,アーバンプランニング,0
472,3011601018666,登記記録の閉鎖等,0,2024-08-30,2024-08-15,株式会社マルヨシ,,株式会社,東京都,新宿区,大久保１丁目１７番３号大久保ガーデンハイム３０２,,13,104,1690072,,,2024-08-15,清算の結了等,,,2015-10-05,1,,,,,マルヨシ,0
480,3020001025124,登記記録の閉鎖等,0,2024-08-30,2024-08-08,株式会社アール二十,,株式会社,神奈川県,横浜市中区,住吉町１丁目８番地,,14,104,2310013,,,2024-08-08,清算の結了等,,,2015-10-05,1,,,,,アールニジュウ,0
504,3030002097657,登記記録の閉鎖等,0,2024-08-30,2024-08-27,有限会社内田通信機器製作所,,有限会社,埼玉県,比企郡嵐山町,大字平澤６０７番地,,11,342,3550215,,,2024-08-27,清算の結了等,,,2015-10-05,1,,,,,ウチダツウシンキキセイサクジョ,0
541,3120901016303,登記記録の閉鎖等,0,2024-08-30,2024-08-23,株式会社アトリエＴ,,株式会社,大阪府,高槻市,宮田町２丁目３番７号,,27,207,5691142,,,2024-08-23,清算の結了等,,,2015-10-05,1,,,,,アトリエティー,0
570,3180002039132,登記記録の閉鎖等,0,2024-08-30,2024-08-21,有限会社新和,,有限会社,愛知県,名古屋市中村区,則武１丁目７番１５号ダイソー１８号館,,23,105,4530014,,,2024-08-21,清算の結了等,,,2015-10-05,1,,,,,シンワ,0
582,3200002020873,登記記録の閉鎖等,0,2024-08-30,2024-08-27,有限会社山利,,有限会社,岐阜県,多治見市,滝呂町８丁目１番地の３８,,21,204,5070813,,,2024-08-27,清算の結了等,,,2015-10-05,1,,,,,ヤマリ,0
583,3210002010469,登記記録の閉鎖等,0,2024-08-30,2024-08-27,有限会社那須商店,,有限会社,福井県,敦賀市,津内町３丁目３番６号,,18,202,9140056,,,2024-08-27,清算の結了等,,,2015-10-05,1,,,,,ナスショウテン,0
593,3260001025356,登記記録の閉鎖等,0,2024-08-30,2024-08-29,斎藤産業株式会社,,株式会社,岡山県,浅口市,寄島町１２５３番地７,,33,216,7140101,,,2024-08-29,清算の結了等,,,2015-10-05,1,,,,,サイトウサンギョウ,0
609,3350002009126,登記記録の閉鎖等,0,2024-08-30,2024-08-27,有限会社みどり調剤薬局,,有限会社,宮崎県,児湯郡高鍋町,大字北高鍋１２５８番地２,,45,401,8840002,,,2024-08-27,清算の結了等,,,2015-10-05,1,,,,,ミドリチョウザイヤッキョク,0
612,3360005006301,登記記録の閉鎖等,0,2024-08-30,2024-08-27,一般社団法人パニパニエンタテインメント,,その他の設立登記法人,沖縄県,宮古島市,伊良部字長浜１９０番地の１,,47,214,9060506,,,2024-08-27,清算の結了等,,,2020-09-29,1,,,,,パニパニエンタテインメント,0
614,3370002010767,登記記録の閉鎖等,0,2024-08-30,2024-08-13,有限会社グラン・テル,,有限会社,宮城県,仙台市青葉区,中山６丁目１１番３１号,,04,101,9810952,,,2024-08-13,清算の結了等,,,2015-10-05,1,,,,,グランテル,0
619,3430001048777,登記記録の閉鎖等,0,2024-08-30,2024-08-27,山口石油株式会社,,株式会社,北海道,滝川市,空知町１丁目１番１０号,,01,225,0730034,,,2024-08-27,清算の結了等,,,2015-10-05,1,,,,,ヤマグチセキユ,0
624,3430001079673,登記記録の閉鎖等,0,2024-08-30,2024-08-29,株式会社ジャパントレード,,株式会社,北海道,札幌市白石区,南郷通７丁目北５番１号,,01,104,0030023,,,2024-08-29,清算の結了等,,,2019-08-16,1,,,,,ジャパントレード,0
627,3470003000369,登記記録の閉鎖等,0,2024-08-30,2024-08-26,こんぴら街道合同会社,,合同会社,香川県,善通寺市,大麻町１２９６番地１,,37,204,7650052,,,2024-08-26,清算の結了等,,,2015-10-05,1,,,,,コンピラカイドウ,0
629,3490001000278,登記記録の閉鎖等,0,2024-08-30,2024-08-28,株式会社岡部,,株式会社,高知県,高知市,新屋敷１丁目５番１５号,,39,201,7800911,,,2024-08-28,清算の結了等,,,2015-10-05,1,,,,,オカベ,0
633,4010001133422,登記記録の閉鎖等,0,2024-08-30,2024-08-20,ＮＡＴＵＲＥ株式会社,,株式会社,東京都,中央区,銀座１丁目１２番４号Ｎ＆ＥＢＬＤ．６Ｆ,,13,102,1040061,,,2024-08-20,清算の結了等,,,2015-10-05,1,,,,,ネイチャー,0
634,4010001136284,登記記録の閉鎖等,0,2024-08-30,2024-08-27,ビービーピーワン株式会社,,株式会社,東京都,台東区,台東１丁目２番１－１６０５号,,13,106,1100016,,,2024-08-27,合併による解散等,8010402028886,令和６年８月１日東京都渋谷区代官山町２０番９号ガンマ株式会社（8010402028886）に合併し解散,2015-10-05,1,,,,,,0
647,4010005020880,登記記録の閉鎖等,0,2024-08-30,2024-08-26,一般社団法人ＴＳＵＢＡＫＩ,,その他の設立登記法人,東京都,千代田区,一番町９番地８ノザワビルディング６階税理士法人シリウス内,,13,101,1020082,,,2024-08-26,清算の結了等,,,2015-10-05,1,,,,,ツバキ,0
655,4010403027230,登記記録の閉鎖等,0,2024-08-30,2024-08-07,ＳＨＣ合同会社,,合同会社,東京都,港区,新橋３丁目１１－８,,13,103,1050004,,,2024-08-07,清算の結了等,,,2022-03-08,1,,,,,エスエイチシー,0
659,4010502019194,登記記録の閉鎖等,0,2024-08-30,2024-08-26,有限会社トゥインクル,,有限会社,東京都,台東区,上野６丁目９番４号,,13,106,1100005,,,2024-08-26,合併による解散等,8010502001685,令和６年８月２６日東京都台東区上野二丁目６番１２号株式会社エッグ（8010502001685）に合併し解散,2015-10-05,1,,,,,トゥインクル,0
662,4010605003756,登記記録の閉鎖等,0,2024-08-30,2024-08-26,一般社団法人地方創生太陽光発電所４号,,その他の設立登記法人,東京都,千代田区,平河町１丁目３番１３号平河町フロントビル７Ｆ税理士法人シリウス内,,13,101,1020093,,,2024-08-26,清算の結了等,,,2019-11-01,1,,,,,チホウソウセイタイヨウコウハツデンショヨンゴウ,0
663,4010701033665,登記記録の閉鎖等,0,2024-08-30,2024-08-26,株式会社スカイファルマ,,株式会社,神奈川県,横浜市港北区,新横浜２丁目５番１０号楓第２ビル７階,,14,109,2220033,,,2024-08-26,合併による解散等,6030001066965,令和６年８月１日埼玉県北葛飾郡松伏町築比地７９５番地１株式会社ウィーズ（6030001066965）に合併し解散,2017-02-02,1,,,,,スカイファルマ,0
665,4010801028334,登記記録の閉鎖等,0,2024-08-30,2024-08-26,Ｒｅｖｅ　Ｐｌａｎｎｉｎｇ株式会社,,株式会社,東京都,葛飾区,東新小岩７丁目３２番１６－１０１号,,13,122,1240023,,,2024-08-26,清算の結了等,,,2017-11-21,1,,,,,レーブプランニング,0
671,4011101021574,登記記録の閉鎖等,0,2024-08-30,2024-08-27,株式会社ユー・エス・ピー都市空間研究所,,株式会社,東京都,練馬区,下石神井５丁目８番２４号,,13,120,1770042,,,2024-08-27,清算の結了等,,,2015-10-05,1,,,,,ユーエスピートシクウカンケンキュウジョ,0
683,4011403003031,登記記録の閉鎖等,0,2024-08-30,2024-08-23,合同会社クリペロ,,合同会社,東京都,板橋区,板橋１丁目１６番地３号ＪＲ板橋駅前ビルＢ１,,13,119,1730004,,,2024-08-23,清算の結了等,,,2020-06-12,1,,,,,クリペロ,0
698,4013303002889,登記記録の閉鎖等,0,2024-08-30,2024-08-23,合同会社ＹＦＡ,,合同会社,東京都,豊島区,池袋３丁目４２番５号－１０３号,,13,116,1710014,,,2024-08-23,清算の結了等,,,2015-10-05,1,,,,,ワイエフエー,0
706,4020002049600,登記記録の閉鎖等,0,2024-08-30,2024-08-09,有限会社旭総業,,有限会社,神奈川県,横浜市神奈川区,西神奈川１丁目１０番地５,,14,102,2210822,,,2024-08-09,清算の結了等,,,2015-10-05,1,,,,,アサヒソウギョウ,0
714,4021001065976,登記記録の閉鎖等,0,2024-08-30,2024-08-28,株式会社坂口商事,,株式会社,神奈川県,相模原市中央区,矢部１丁目２番１号ブルージュビル７Ｆ,,14,152,2520232,,,2024-08-28,清算の結了等,,,2018-11-06,1,,,,,サカグチショウジ,0
723,4030002112522,登記記録の閉鎖等,0,2024-08-30,2024-08-08,有限会社セルフセキュリティ,,有限会社,神奈川県,横浜市金沢区,釜利谷南４丁目２８番Ｄ－１０４号,,14,108,2360045,,,2024-08-08,清算の結了等,,,2015-10-05,1,,,,,セルフセキュリティ,0
729,4040001122488,登記記録の閉鎖等,0,2024-08-30,2024-08-21,株式会社ＷＥＡＲＥ,,株式会社,千葉県,松戸市,六実１丁目１５番地の１０,,12,207,2702204,,,2024-08-21,清算の結了等,,,2022-03-04,1,,,,,ウィーアー,0
731,4040003018049,登記記録の閉鎖等,0,2024-08-30,2024-08-22,ＢＩＧＣ　ＪＡＰＡＮ合同会社,,合同会社,茨城県,下妻市,下妻乙３５３番地１３日本総研下妻賃店舗,,08,210,3040067,,,2024-08-22,清算の結了等,,,2021-06-28,1,,,,,ビッグシージャパン,0
747,4120001016723,登記記録の閉鎖等,0,2024-08-30,2024-08-29,愛鷹電機株式会社,,株式会社,大阪府,大阪市生野区,巽中１丁目１２番２４号,00027179,27,116,5440013,,,2024-08-29,清算の結了等,,,2015-10-05,1,,,,,アシタカデンキ,0
757,4120002042058,登記記録の閉鎖等,0,2024-08-30,2024-08-28,株式会社ディレクション,,株式会社,大阪府,大阪市城東区,中央１丁目８番２４号,,27,118,5360005,,,2024-08-28,清算の結了等,,,2015-10-05,1,,,,,ディレクション,0
782,4160001013790,登記記録の閉鎖等,0,2024-08-30,2024-08-26,ミナミフードサービス株式会社,,株式会社,滋賀県,草津市,大路３丁目５番６４号,,25,206,5250032,,,2024-08-26,清算の結了等,,,2015-10-05,1,,,,,ミナミフードサービス,0
784,4180001022303,登記記録の閉鎖等,0,2024-08-30,2024-08-26,鶴田特殊鋼株式会社,,株式会社,愛知県,名古屋市南区,豊田２丁目４番１８号,,23,112,4570841,,,2024-08-26,清算の結了等,,,2015-10-05,1,,,,,ツルタトクシュコウ,0
794,4180002029941,登記記録の閉鎖等,0,2024-08-30,2024-08-26,有限会社ウィズ,,有限会社,愛知県,名古屋市中区,千代田３丁目２４番１１号,,23,106,4600012,,,2024-08-26,清算の結了等,,,2015-10-05,1,,,,,ウィズ,0
798,4180302017340,登記記録の閉鎖等,0,2024-08-30,2024-08-27,有限会社名研,,有限会社,愛知県,安城市,東栄町２丁目６番１０号,,23,212,4460007,,,2024-08-27,清算の結了等,,,2015-10-05,1,,,,,メイケン,0
800,4200003000782,登記記録の閉鎖等,0,2024-08-30,2024-08-26,合資会社マルセン,,合資会社,岐阜県,岐阜市,日ノ出町２丁目８番地,,21,201,5008876,,,2024-08-26,清算の結了等,,,2015-10-05,1,,,,,マルセン,0
801,4220003002447,登記記録の閉鎖等,0,2024-08-30,2024-08-22,ＲＭＣ合同会社,,合同会社,石川県,金沢市,薬師町ロ１１１番地２６,,17,201,9200174,,,2024-08-22,清算の結了等,,,2018-06-29,1,,,,,アールエムシー,0
802,4240002053778,登記記録の閉鎖等,0,2024-08-30,2024-08-29,保道美容室有限会社,,有限会社,広島県,三原市,城町１丁目２０番１１号,,34,204,7230014,,,2024-08-29,清算の結了等,,,2015-10-05,1,,,,,ヤスミチビヨウシツ,0
803,4250002003377,登記記録の閉鎖等,0,2024-08-30,2024-08-27,有限会社ぴあらいぶ山口,,有限会社,山口県,防府市,岸津２丁目９番５号,,35,206,7470011,,,2024-08-27,清算の結了等,,,2015-10-05,1,,,,,ピアライブヤマグチ,0
825,4380001033957,登記記録の閉鎖等,0,2024-08-30,2024-08-22,株式会社ＳＫサービス,,株式会社,福島県,いわき市,小名浜花畑町１６番地の２６,,07,204,9718162,,,2024-08-22,清算の結了等,,,2023-09-08,1,,,,,エスケイサービス,0
826,4380002022760,登記記録の閉鎖等,0,2024-08-30,2024-08-22,有限会社オオフジ,,有限会社,福島県,いわき市,好間町下好間字手倉５２番地の８,,07,204,9701151,,,2024-08-22,清算の結了等,,,2015-10-05,1,,,,,オオフジ,0
830,4430001054956,登記記録の閉鎖等,0,2024-08-30,2024-08-28,株式会社ＺＥＮ,,株式会社,北海道,苫小牧市,新中野町２丁目１２番１７号,,01,213,0530006,,,2024-08-28,清算の結了等,,,2015-10-05,1,,,,,ゼン,0
832,4430002026995,登記記録の閉鎖等,0,2024-08-30,2024-08-27,有限会社リーフ,,有限会社,北海道,札幌市中央区,南二条西７丁目２番地２,,01,101,0600062,,,2024-08-27,清算の結了等,,,2015-10-05,1,,,,,リーフ,0
862,5010005027462,登記記録の閉鎖等,0,2024-08-30,2024-08-26,一般社団法人開発４３号,,その他の設立登記法人,東京都,千代田区,飯田橋１丁目３番２号曙杉館４階ＲＳＭ清和コンサルティング株式会社内,,13,101,1020072,,,2024-08-26,清算の結了等,,,2017-09-19,1,,,,,カイハツヨンジュウサンゴウ,0
863,5010005027842,登記記録の閉鎖等,0,2024-08-30,2024-08-23,一般社団法人日英教育交流機構,,その他の設立登記法人,岡山県,岡山市北区,白石３２８番地,,33,101,7010143,,,2024-08-23,清算の結了等,,,2017-12-11,1,,,,,ニチエイキョウイクコウリュウキコウ,0
864,5010401098330,登記記録の閉鎖等,0,2024-08-30,2024-08-26,株式会社ＮＡＯ国際建築設計,,株式会社,東京都,世田谷区,池尻２丁目３５番７号,,13,112,1540001,,,2024-08-26,清算の結了等,,,2015-10-05,1,,,,,エヌエーオーコクサイケンチクセッケイ,0
871,5010501037832,登記記録の閉鎖等,0,2024-08-30,2024-08-23,株式会社横超社,,株式会社,東京都,台東区,北上野１丁目９番１３号高松ビル３Ａ,,13,106,1100014,,,2024-08-23,清算の結了等,,,2015-10-05,1,,,,,オウチョウシャ,0
884,5011101089586,登記記録の閉鎖等,0,2024-08-30,2024-08-07,株式会社ティルティルジャパン,,株式会社,東京都,港区,東麻布１丁目２８番１２号ＶＯＲＴ麻布ｍａｘｉｍ６階Ｂ,,13,103,1060044,,,2024-08-07,合併による解散等,2011101083567,令和６年８月１日東京都港区東麻布一丁目２８番１２号株式会社Ｄ＆ＡＣＥ（2011101083567）に合併し解散,2019-11-18,1,,,,,ティルティルジャパン,0
891,5011801037497,登記記録の閉鎖等,0,2024-08-30,2024-08-28,アート工房株式会社,,株式会社,東京都,葛飾区,東新小岩５丁目１７番２６号二興コーポ新小岩１０３,,13,122,1240023,,,2024-08-28,清算の結了等,,,2020-04-07,1,,,,,アートコウボウ,0
892,5011801039452,登記記録の閉鎖等,0,2024-08-30,2024-08-26,株式会社Ｃｏｎｔｉｎｅｎｔａｌ　Ｊａｐａｎ,,株式会社,東京都,足立区,六木４丁目６番３２号,,13,121,1210052,,,2024-08-26,清算の結了等,,,2021-07-12,1,,,,,コンチネンタルジャパン,0
899,5013401005990,登記記録の閉鎖等,0,2024-08-30,2024-08-29,ＪＵＫＩ家庭製品お客様センター株式会社,,株式会社,東京都,多摩市,鶴牧２丁目１１番地の１,,13,224,2060034,,,2024-08-29,清算の結了等,,,2015-10-05,1,,,,,ジューキカテイセイヒンオキャクサマセンター,0
901,5020001081264,登記記録の閉鎖等,0,2024-08-30,2024-07-16,東京梱包輸倉株式会社,,株式会社,神奈川県,横浜市金沢区,鳥浜町４番地１１,,14,108,2360002,,,2024-07-16,合併による解散等,6010801008086,令和６年７月１日神奈川県横浜市戸塚区品濃町５４９番地２株式会社トーコン（6010801008086）に合併し解散,2015-10-05,1,,,,,トウキョウコンポウユソウ,0
907,5020002017168,登記記録の閉鎖等,0,2024-08-30,2024-08-08,有限会社シャンボール,,有限会社,神奈川県,横浜市西区,南幸１丁目５番２４号,,14,103,2200005,,,2024-08-08,清算の結了等,,,2015-10-05,1,,,,,シャンボール,0
912,5021001074027,登記記録の閉鎖等,0,2024-08-30,2024-08-28,株式会社クールナッツ,,株式会社,神奈川県,鎌倉市,植木４３６番地１鎌倉グリーンマンション４１５号,,14,204,2470073,,,2024-08-28,清算の結了等,,,2021-09-28,1,,,,,クールナッツ,0
919,5030002016664,登記記録の閉鎖等,0,2024-08-30,2024-08-27,有限会社片藤設備,,有限会社,埼玉県,白岡市,西３丁目１番４,,11,246,3490205,,,2024-08-27,清算の結了等,,,2015-10-05,1,,,,,カタフジセツビ,0
925,5040001041943,登記記録の閉鎖等,0,2024-08-30,2024-08-22,株式会社酒屋,,株式会社,千葉県,松戸市,松戸１２２８番地１,,12,207,2710092,,,2024-08-22,清算の結了等,,,2015-10-05,1,,,,,サカヤ,0
928,5040002021201,登記記録の閉鎖等,0,2024-08-30,2024-08-21,有限会社オセアニアライン,,有限会社,千葉県,船橋市,坪井町６００番地６３,,12,204,2740062,,,2024-08-21,清算の結了等,,,2015-10-05,1,,,,,オセアニアライン,0
929,5040002045398,登記記録の閉鎖等,0,2024-08-30,2024-08-22,有限会社久保タイル工事店,,有限会社,千葉県,松戸市,金ケ作５８番地の４４,,12,207,2702251,,,2024-08-22,清算の結了等,,,2015-10-05,1,,,,,クボタイルコウジテン,0
950,5120001247177,登記記録の閉鎖等,0,2024-08-30,2024-08-26,株式会社アピス,,株式会社,大阪府,茨木市,西駅前町１３番２５,,27,211,5670032,,,2024-08-26,合併による解散等,6030001066965,令和６年８月１日埼玉県北葛飾郡松伏町築比地７９５番地１株式会社ウィーズ（6030001066965）に合併し解散,2022-07-06,1,,,,,アピス,0
971,5140001006143,登記記録の閉鎖等,0,2024-08-30,2024-08-28,株式会社伊東建築設計事務所,,株式会社,兵庫県,神戸市中央区,元町通１丁目７番２号,,28,110,6500022,,,2024-08-28,清算の結了等,,,2015-10-05,1,,,,,イトウケンチクセッケイジムショ,0
992,5190001011411,登記記録の閉鎖等,0,2024-08-30,2024-08-26,株式会社エムワン,,株式会社,三重県,松阪市,小黒田町２５１番地６,,24,204,5150062,,,2024-08-26,合併による解散等,6030001066965,令和６年８月１日埼玉県北葛飾郡松伏町築比地７９５番地１株式会社ウィーズ（6030001066965）に合併し解散,2015-10-05,1,,,,,エムワン,0
993,5200002004445,登記記録の閉鎖等,0,2024-08-30,2024-08-27,有限会社マルカ明和建設,,有限会社,岐阜県,岐阜市,正木４３０番地の２,,21,201,5020857,,,2024-08-27,清算の結了等,,,2015-10-05,1,,,,,マルカメイワケンセツ,0
999,5230001007116,登記記録の閉鎖等,0,2024-08-30,2024-08-27,ダイセイ商事株式会社,,株式会社,富山県,魚津市,上村木２丁目３番２２号,,16,204,9370046,,,2024-08-27,清算の結了等,,,2015-10-05,1,,,,,ダイセイショウジ,0
1000,5240001052474,登記記録の閉鎖等,0,2024-08-30,2024-08-28,株式会社小沢電工,,株式会社,広島県,広島市南区,大州５丁目２－２６－８０２,,34,103,7320802,,,2024-08-28,清算の結了等,,,2018-03-02,1,,,,,オザワデンコウ,0
1015,5290001052065,登記記録の閉鎖等,0,2024-08-30,2024-07-16,アイエムティー株式会社,,株式会社,福岡県,小郡市,小郡２５０９番地３,,40,216,8380141,,,2024-07-16,清算の結了等,,,2015-10-05,1,,,,,アイエムティー,0
1027,5330002009737,登記記録の閉鎖等,0,2024-08-30,2024-08-23,有限会社ますだ,,有限会社,熊本県,熊本市西区,高橋町２丁目３番５号,,43,103,8600062,,,2024-08-23,清算の結了等,,,2015-10-05,1,,,,,マスダ,0
1028,5350002012359,登記記録の閉鎖等,0,2024-08-30,2024-08-26,有限会社東洋林研,,有限会社,宮崎県,延岡市,稲葉崎町１丁目１６０４番地２,,45,203,8820003,,,2024-08-26,清算の結了等,,,2015-10-05,1,,,,,トウヨウリンケン,0
1040,5430001013135,登記記録の閉鎖等,0,2024-08-30,2024-08-29,野口燃料株式会社,,株式会社,北海道,札幌市北区,北二十四条西６丁目２番２号,,01,102,0010024,,,2024-08-29,清算の結了等,,,2015-10-05,1,,,,,ノグチネンリョウ,0
1041,5430001057124,登記記録の閉鎖等,0,2024-08-30,2024-08-27,室蘭グリーン観光株式会社,,株式会社,北海道,室蘭市,中島町１丁目２５番７号,,01,205,0500074,,,2024-08-27,清算の結了等,,,2015-10-05,1,,,,,ムロラングリーンカンコウ,0
1053,5450005004038,登記記録の閉鎖等,0,2024-08-30,2024-08-29,特定非営利活動法人盲導犬育成サポートきなこの会,,その他の設立登記法人,北海道,旭川市,忠和六条１丁目５番９号,,01,204,0708046,,,2024-08-29,清算の結了等,,,2016-01-08,1,,,,,キナコノカイ,0
1060,6010001191170,登記記録の閉鎖等,0,2024-08-30,2024-08-28,株式会社ダイヤモンドミスト,,株式会社,東京都,豊島区,東池袋１丁目３４－５いちご東池袋ビル６階,,13,116,1700013,,,2024-08-28,清算の結了等,,,2018-04-16,1,,,,,ダイヤモンドミスト,0
1089,6010701005448,登記記録の閉鎖等,0,2024-08-30,2024-08-27,株式会社泰正,,株式会社,東京都,品川区,西品川３丁目９番１２号,,13,109,1410033,,,2024-08-27,清算の結了等,,,2015-10-05,1,,,,,タイセイ,0
1091,6010702008185,登記記録の閉鎖等,0,2024-08-30,2024-08-27,有限会社村上商店,,有限会社,東京都,品川区,西五反田３丁目１２番１５号,,13,109,1410031,,,2024-08-27,清算の結了等,,,2015-10-05,1,,,,,ムラカミショウテン,0
1101,6011105009639,登記記録の閉鎖等,0,2024-08-30,2024-08-13,特定非営利活動法人世田谷あすなろ福祉会,,その他の設立登記法人,東京都,新宿区,河田町３番５１－２２０６号,,13,104,1620054,,,2024-08-13,清算の結了等,,,2021-01-06,1,,,,,セタガヤアスナロフクシカイ,0
1111,6011801023158,登記記録の閉鎖等,0,2024-08-30,2024-08-26,株式会社サヘル,,株式会社,東京都,足立区,東和４丁目８番１７号,,13,121,1200003,,,2024-08-26,清算の結了等,,,2015-10-05,1,,,,,サヘル,0
1116,6013405000830,登記記録の閉鎖等,0,2024-08-30,2024-08-29,特定非営利活動法人交通事故被害者支援センター,,その他の設立登記法人,東京都,稲城市,長峰２丁目２１番地の５,,13,225,2060821,,,2024-08-29,清算の結了等,,,2015-10-05,1,,,,,コウツウジコヒガイシャシエンセンター,0
1117,6020001033850,登記記録の閉鎖等,0,2024-08-30,2024-08-08,株式会社連合エージェンシー,,株式会社,神奈川県,横浜市中区,太田町１丁目１０番地ＮＧＳ太田町ビル３階,,14,104,2310011,,,2024-08-08,清算の結了等,,,2015-10-05,1,,,,,レンゴウエージェンシー,0
1123,6020002066230,登記記録の閉鎖等,0,2024-08-30,2024-08-07,有限会社オシカワ物産,,有限会社,神奈川県,横浜市青葉区,大場町７００番地７２,,14,117,2250023,,,2024-08-07,清算の結了等,,,2015-10-05,1,,,,,オシカワブッサン,0
1124,6020002068193,登記記録の閉鎖等,0,2024-08-30,2024-08-08,有限会社アバンテック・アイ,,有限会社,神奈川県,横浜市泉区,和泉中央北１丁目１７番１号,,14,116,2450024,,,2024-08-08,清算の結了等,,,2015-10-05,1,,,,,アバンテックアイ,0
1139,6040001012076,登記記録の閉鎖等,0,2024-08-30,2024-08-22,宮入産業株式会社,,株式会社,千葉県,千葉市中央区,矢作町３２８番地１,,12,101,2600851,,,2024-08-22,清算の結了等,,,2015-10-05,1,,,,,ミヤイリサンギョウ,0
1155,6050003007949,登記記録の閉鎖等,0,2024-08-30,2024-08-22,ＭＩＮＨ　ＫＨＯＩ合同会社,,合同会社,茨城県,下妻市,下妻乙３５３番地１３,,08,210,3040067,,,2024-08-22,清算の結了等,,,2023-11-16,1,,,,,ミンコーイ,0
1168,6100002010072,登記記録の閉鎖等,0,2024-08-30,2024-08-20,マチイ出版企画有限会社,,有限会社,長野県,千曲市,大字稲荷山２１１番地５,,20,218,3870021,,,2024-08-20,清算の結了等,,,2015-10-05,1,,,,,マチイシュッパンキカク,0
1170,6110002034707,登記記録の閉鎖等,0,2024-08-30,2024-08-27,有限会社中川建具,,有限会社,新潟県,佐渡市,真野新町２７６番地,,15,224,9520318,,,2024-08-27,清算の結了等,,,2015-10-05,1,,,,,ナカガワタテグ,0
1178,6120002059158,登記記録の閉鎖等,0,2024-08-30,2024-08-28,有限会社前川建装,,有限会社,大阪府,大阪市住吉区,南住吉３丁目１３番１０号,,27,120,5580041,,,2024-08-28,清算の結了等,,,2015-10-05,1,,,,,マエカワケンソウ,0
1183,6140002003007,登記記録の閉鎖等,0,2024-08-30,2024-08-26,有限会社河田タイル,,有限会社,兵庫県,神戸市灘区,城内通４丁目６番１０号,,28,102,6570836,,,2024-08-26,清算の結了等,,,2015-10-05,1,,,,,,0
1197,6210002007520,登記記録の閉鎖等,0,2024-08-30,2024-08-27,有限会社みのるモータース,,有限会社,福井県,坂井市,坂井町大味第５４号２４番地３,,18,210,9190547,,,2024-08-27,清算の結了等,,,2015-10-05,1,,,,,ミノルモータース,0
1200,6260001016757,登記記録の閉鎖等,0,2024-08-30,2024-08-26,株式会社ＢＣＭ,,株式会社,岡山県,倉敷市,児島駅前２丁目１０番地１３,,33,202,7110921,,,2024-08-26,清算の結了等,,,2015-10-05,1,,,,,ビーシーエム,0
1218,6370001038600,登記記録の閉鎖等,0,2024-08-30,2024-08-15,雅観日金堂株式会社,,株式会社,宮城県,柴田郡大河原町,字東桜町１０番１５,,04,321,9891271,,,2024-08-15,清算の結了等,,,2015-10-05,1,,,,,ミヤミニッキンドウ,0
1226,6440002008990,登記記録の閉鎖等,0,2024-08-30,2024-08-26,有限会社由浅食堂,,有限会社,北海道,瀬棚郡今金町,字今金２２７番地,,01,370,0494308,,,2024-08-26,清算の結了等,,,2015-10-05,1,,,,,ユアサショクドウ,0
1239,7010001182664,登記記録の閉鎖等,0,2024-08-30,2024-08-21,蜜兔株式会社,,株式会社,京都府,京都市中京区,壬生中川町９番地２－２２,,26,104,6048863,,,2024-08-21,清算の結了等,,,2017-04-11,1,,,,,ミートゥー,0
1271,7010901042125,登記記録の閉鎖等,0,2024-08-30,2024-08-26,株式会社ケーアイ,,株式会社,東京都,世田谷区,赤堤３丁目１７番１５号,,13,112,1560044,,,2024-08-26,清算の結了等,,,2018-05-25,1,,,,,ケーアイ,0
1277,7011003011704,登記記録の閉鎖等,0,2024-08-30,2024-08-07,Ｋ＆Ｎ　Ｃｏｎｓｕｌｔｉｎｇ合同会社,,合同会社,東京都,渋谷区,代々木４丁目３４番１０号レジディア代々木４０３,,13,113,1510053,,,2024-08-07,清算の結了等,,,2020-10-05,1,,,,,ケーアンドエヌコンサルティング,0
1281,7011101085600,登記記録の閉鎖等,0,2024-08-30,2024-08-15,株式会社アードコレクト,,株式会社,東京都,新宿区,新宿５丁目１５番６－８０４号新宿光陽ビル,,13,104,1600022,,,2024-08-15,清算の結了等,,,2018-10-09,1,,,,,アードコレクト,0
1282,7011101089485,登記記録の閉鎖等,0,2024-08-30,2024-08-15,株式会社アドファクトリー,,株式会社,東京都,新宿区,新宿５丁目１５番６－８０４号新宿光陽ビル,,13,104,1600022,,,2024-08-15,清算の結了等,,,2019-11-11,1,,,,,アドファクトリー,0
1285,7011103011422,登記記録の閉鎖等,0,2024-08-30,2024-08-14,合同会社ＦＯＵＲＳＩＤＥ,,合同会社,東京都,新宿区,大久保１丁目９番６号,,13,104,1690072,,,2024-08-14,清算の結了等,,,2022-02-08,1,,,,,フォーサイド,0
1292,7011702005923,登記記録の閉鎖等,0,2024-08-30,2024-08-27,有限会社社本製作所,,有限会社,東京都,江戸川区,松島１丁目１３番１１号,,13,123,1320031,,,2024-08-27,清算の結了等,,,2015-10-05,1,,,,,,0
1329,7040001002984,登記記録の閉鎖等,0,2024-08-30,2024-08-21,株式会社シーエムエヌ,,株式会社,千葉県,千葉市中央区,問屋町１番３５号千葉ポートサイドタワー１５階,,12,101,2600025,,,2024-08-21,清算の結了等,,,2015-10-05,1,,,,,シーエムエヌ,0
1338,7040003009904,登記記録の閉鎖等,0,2024-08-30,2024-08-22,合同会社塚本企画,,合同会社,千葉県,銚子市,松本町３丁目５９０番地の２,,12,202,2880802,,,2024-08-22,清算の結了等,,,2017-04-11,1,,,,,ツカモトキカク,0
1341,7060001015992,登記記録の閉鎖等,0,2024-08-30,2024-08-26,株式会社ウェルネス,,株式会社,栃木県,真岡市,中郷２７５番地,,09,209,3214308,,,2024-08-26,合併による解散等,6030001066965,令和６年８月１日埼玉県北葛飾郡松伏町築比地７９５番地１株式会社ウィーズ（6030001066965）に合併し解散,2015-10-05,1,,,,,ウェルネス,0
1345,7070003005025,登記記録の閉鎖等,0,2024-08-30,2024-08-28,合同会社令和農業,,合同会社,群馬県,甘楽郡甘楽町,大字白倉３３６４番地１,,10,384,3702213,,,2024-08-28,清算の結了等,,,2023-07-11,1,,,,,レイワノウギョウ,0
1348,7080402010120,登記記録の閉鎖等,0,2024-08-30,2024-08-26,有限会社ファームトラスト,,有限会社,静岡県,浜松市中央区,神田町４９９番地２,,22,138,4328047,,,2024-08-26,合併による解散等,6030001066965,令和６年８月１日埼玉県北葛飾郡松伏町築比地７９５番地１株式会社ウィーズ（6030001066965）に合併し解散,2015-10-05,1,,,,,ファームトラスト,0
1351,7110002005814,登記記録の閉鎖等,0,2024-08-30,2024-08-27,有限会社フロム,,有限会社,新潟県,新潟市中央区,上大川前通９番町１２８０番地,,15,103,9518068,,,2024-08-27,清算の結了等,,,2015-10-05,1,,,,,フロム,0
1376,7160003001774,登記記録の閉鎖等,0,2024-08-30,2024-08-29,合同会社シーズ,,合同会社,滋賀県,大津市,大石中４丁目１１番８号,,25,201,5202263,,,2024-08-29,清算の結了等,,,2019-01-18,1,,,,,シーズ,0
1378,7180001089554,登記記録の閉鎖等,0,2024-08-30,2024-08-26,株式会社黄門さま,,株式会社,愛知県,名古屋市港区,宝神１丁目２１２番地,,23,111,4550832,,,2024-08-26,清算の結了等,,,2015-10-05,1,,,,,コウモンサマ,0
1384,7180002017662,登記記録の閉鎖等,0,2024-08-30,2024-08-23,有限会社奥田電気工事,,有限会社,愛知県,名古屋市中川区,三ツ屋町１丁目１３番地,,23,110,4540831,,,2024-08-23,清算の結了等,,,2015-10-05,1,,,,,オクダデンキコウジ,0
1385,7180002029261,登記記録の閉鎖等,0,2024-08-30,2024-08-22,有限会社名藤設備,,有限会社,愛知県,名古屋市中村区,稲上町１丁目３４番地,,23,105,4530066,,,2024-08-22,清算の結了等,,,2015-10-05,1,,,,,メイトウセツビ,0
1389,7180005017552,登記記録の閉鎖等,0,2024-08-30,2024-08-22,特定非営利活動法人ａｌｉｖｅ,,その他の設立登記法人,愛知県,尾張旭市,緑町緑ケ丘５２番地,,23,226,4880822,,,2024-08-22,清算の結了等,,,2017-11-09,1,,,,,アライブ,0
1396,7200002003544,登記記録の閉鎖等,0,2024-08-30,2024-08-28,有限会社日本インテリア総合研究所,,有限会社,岐阜県,岐阜市,岩井３８０番地の１７７,,21,201,5013101,,,2024-08-28,清算の結了等,,,2015-10-05,1,,,,,ニホンインテリアソウゴウケンキュウジョ,0
1404,7220003001306,登記記録の閉鎖等,0,2024-08-30,2024-08-21,合資会社スズ・ソーイング,,合資会社,石川県,珠洲市,正院町正院二丁目１番地４,,17,205,9271206,,,2024-08-21,清算の結了等,,,2015-10-05,1,,,,,スズソーイング,0
1413,7260002025797,登記記録の閉鎖等,0,2024-08-30,2024-08-27,有限会社西山車輌,,有限会社,岡山県,井原市,下出部町２丁目２１番地の７,,33,207,7150022,,,2024-08-27,清算の結了等,,,2015-10-05,1,,,,,ニシヤマシャリョウ,0
1416,7290001055842,登記記録の閉鎖等,0,2024-08-30,2024-08-21,株式会社エムジェーケー,,株式会社,東京都,東久留米市,中央町３丁目１５番１８号,,13,222,2030054,,,2024-08-21,清算の結了等,,,2015-10-05,1,,,,,エムジェーケー,0
1425,7320002005834,登記記録の閉鎖等,0,2024-08-30,2024-08-28,有限会社福は家グループ,,有限会社,大分県,大分市,中央町２丁目６番２６号,,44,201,8700035,,,2024-08-28,清算の結了等,,,2015-10-05,1,,,,,フクハウチグループ,0
1426,7330001007913,登記記録の閉鎖等,0,2024-08-30,2024-08-23,株式会社エル・シー・フード,,株式会社,熊本県,熊本市東区,榎町７番８号,,43,102,8620917,,,2024-08-23,清算の結了等,,,2015-10-05,1,,,,,,0
1428,7350002015624,登記記録の閉鎖等,0,2024-08-30,2024-08-27,有限会社松原ファーム,,有限会社,宮崎県,都城市,野々美谷町３４３４番地２,,45,202,8851104,,,2024-08-27,清算の結了等,,,2015-10-05,1,,,,,マツバラファーム,0
1436,7430002016424,登記記録の閉鎖等,0,2024-08-30,2024-08-27,有限会社ビッグ,,有限会社,北海道,札幌市中央区,南七条西１１丁目２番１９号,,01,101,0640807,,,2024-08-27,清算の結了等,,,2015-10-05,1,,,,,ビッグ,0
1456,8010005026882,登記記録の閉鎖等,0,2024-08-30,2024-08-26,一般社団法人開発３３号,,その他の設立登記法人,東京都,千代田区,飯田橋１丁目３番２号曙杉館４階ＲＳＭ清和コンサルティング株式会社内,,13,101,1020072,,,2024-08-26,清算の結了等,,,2017-05-18,1,,,,,カイハツサンジュウサンゴウ,0
1459,8010401031536,登記記録の閉鎖等,0,2024-08-30,2024-08-07,株式会社リバーフィールド社,,株式会社,東京都,港区,芝大門２丁目１２番３号共生ビル２号館５階,,13,103,1050012,,,2024-08-07,清算の結了等,,,2015-10-05,1,,,,,リバーフィールドシャ,0
1478,8010901044327,登記記録の閉鎖等,0,2024-08-30,2024-08-26,グッドベット株式会社,,株式会社,東京都,世田谷区,北烏山８丁目２４番４号,,13,112,1570061,,,2024-08-26,清算の結了等,,,2019-06-12,1,,,,,グッドベット,0
1481,8011003005465,登記記録の閉鎖等,0,2024-08-30,2024-08-06,トランスパレント合同会社,,合同会社,東京都,目黒区,緑が丘１丁目１６番１７号グリーンガーデン自由が丘１０２,,13,110,1520034,,,2024-08-06,清算の結了等,,,2015-10-05,1,,,,,トランスパレント,0
1484,8011101091184,登記記録の閉鎖等,0,2024-08-30,2024-08-15,株式会社サンブリッジ,,株式会社,東京都,新宿区,住吉町３番７号スカイヴィレジ１階,,13,104,1620065,,,2024-08-15,清算の結了等,,,2020-05-12,1,,,,,サンブリッジ,0
1489,8011201015019,登記記録の閉鎖等,0,2024-08-30,2024-08-27,株式会社ＴＯＰＡＮＧＡ,,株式会社,東京都,中央区,東日本橋２丁目２５番４号第３シラカワビル２階,,13,102,1030004,,,2024-08-27,合併による解散等,1011001134875,令和６年６月３０日神奈川県横浜市西区浅間町一丁目４番３号ウィザードビル４０２株式会社ＣＥＬＬＯＲＢ（1011001134875）に合併し解散,2015-10-05,1,,,,,,0
1516,8030001103023,登記記録の閉鎖等,0,2024-08-30,2024-08-27,株式会社コーシン,,株式会社,埼玉県,春日部市,備後東１丁目１３番３号,,11,214,3440032,,,2024-08-27,清算の結了等,,,2015-10-05,1,,,,,コーシン,0
1524,8040001018897,登記記録の閉鎖等,0,2024-08-30,2024-08-22,株式会社メディカルスポーツプラザ,,株式会社,千葉県,船橋市,丸山４丁目５２番１０号,,12,204,2730048,,,2024-08-22,清算の結了等,,,2015-10-05,1,,,,,メディカルスポーツプラザ,0
1532,8040002022139,登記記録の閉鎖等,0,2024-08-30,2024-08-22,有限会社小林製作所,,有限会社,千葉県,船橋市,栄町２丁目１４番１０号,,12,204,2730018,,,2024-08-22,清算の結了等,,,2015-10-05,1,,,,,コバヤシセイサクショ,0
1533,8040003020769,登記記録の閉鎖等,0,2024-08-30,2024-08-21,合同会社Ｔｈｉｎｋ　Ｇｏｏｄ,,合同会社,千葉県,千葉市美浜区,幸町１丁目１－１－１４１３,,12,106,2610001,,,2024-08-21,清算の結了等,,,2022-09-06,1,,,,,シンクグッド,0
1550,8090001017317,登記記録の閉鎖等,0,2024-08-30,2024-07-25,株式会社Ｎｏｒｌａｎｄ,,株式会社,山梨県,甲府市,大手１丁目２番２１号イノベーションベースＳｏｉｅ１０３,,19,201,4000015,,,2024-07-25,清算の結了等,,,2021-12-15,1,,,,,ノーランド,0
1552,8110002000509,登記記録の閉鎖等,0,2024-08-30,2024-08-27,有限会社アサヒホーム,,有限会社,新潟県,新潟市西区,五十嵐中島２丁目１２番７号,,15,107,9502162,,,2024-08-27,清算の結了等,,,2015-10-05,1,,,,,アサヒホーム,0
1584,8130002001389,登記記録の閉鎖等,0,2024-08-30,2024-08-28,有限会社廣部商店,00036831,有限会社,京都府,京都市右京区,西院西田町６８番地,,26,108,6150055,,,2024-08-28,清算の結了等,,,2015-10-05,1,,,,,ヒロベショウテン,0
1597,8180002052691,登記記録の閉鎖等,0,2024-08-30,2024-08-26,有限会社マルコシステム,,有限会社,愛知県,名古屋市天白区,高島２丁目６０７番地,,23,116,4680022,,,2024-08-26,清算の結了等,,,2015-10-05,1,,,,,マルコシステム,0
1604,8200002023021,登記記録の閉鎖等,0,2024-08-30,2024-08-27,有限会社オフィス加藤,,有限会社,岐阜県,多治見市,精華町５７番地の３,,21,204,5070031,,,2024-08-27,清算の結了等,,,2015-10-05,1,,,,,オフィスカトウ,0
1608,8220001010786,登記記録の閉鎖等,0,2024-08-30,2024-08-20,吉田綿木商店株式会社,00078312,株式会社,石川県,金沢市,野町３丁目１番１０号,,17,201,9218031,,,2024-08-20,清算の結了等,,,2015-10-05,1,,,,,ヨシダワタキショウテン,0
1612,8260003003702,登記記録の閉鎖等,0,2024-08-30,2024-08-27,一合同会社,,合同会社,岡山県,倉敷市,林２１７１－３,,33,202,7100142,,,2024-08-27,清算の結了等,,,2021-10-26,1,,,,,ハジメ,0
1623,8360001012364,登記記録の閉鎖等,0,2024-08-30,2024-08-23,株式会社シーガーデンオキナワ,,株式会社,沖縄県,国頭郡本部町,字豊原３３２番地の１,,47,308,9050204,,,2024-08-23,清算の結了等,,,2015-10-05,1,,,,,シーガーデンオキナワ,0
1625,8370001020184,登記記録の閉鎖等,0,2024-08-30,2024-08-16,株式会社カクタ,,株式会社,宮城県,仙台市太白区,八本松２丁目２番１５－９０１号,,04,104,9820001,,,2024-08-16,清算の結了等,,,2015-10-05,1,,,,,カクタ,0
1631,8380002009119,登記記録の閉鎖等,0,2024-08-30,2024-08-23,有限会社コーエン,,有限会社,福島県,郡山市,堤下町１番２０号ポレスター郡山パークサイド２０１号,,07,203,9638878,,,2024-08-23,清算の結了等,,,2015-10-05,1,,,,,コーエン,0
1635,8390003001461,登記記録の閉鎖等,0,2024-08-30,2024-08-27,合同会社サトウ,,合同会社,山形県,酒田市,十里塚字村東山北８３番地の１,00111043,06,204,9980114,,,2024-08-27,清算の結了等,,,2017-08-08,1,,,,,,0
1637,8420001018347,登記記録の閉鎖等,0,2024-08-30,2024-08-27,株式会社いちおか,,株式会社,青森県,むつ市,大曲２丁目１４番２５号,,02,208,0350042,,,2024-08-27,清算の結了等,,,2023-08-03,1,,,,,イチオカ,0
1644,9010001151964,登記記録の閉鎖等,0,2024-08-30,2024-08-21,株式会社レイヤー,,株式会社,東京都,文京区,向丘２丁目２９番５－４０２号,,13,105,1130023,,,2024-08-21,清算の結了等,,,2015-10-05,1,,,,,レイヤー,0
1645,9010001177456,登記記録の閉鎖等,0,2024-08-30,2024-08-21,株式会社ＳＡＶＥ　ＴＨＥ　ＣＡＲＥ,,株式会社,東京都,中央区,日本橋３丁目２番９号,,13,102,1030027,,,2024-08-21,清算の結了等,,,2016-08-04,1,,,,,セーブザケア,0
1649,9010005028515,登記記録の閉鎖等,0,2024-08-30,2024-08-20,一般社団法人日露ユーラシア交流振興協会,,その他の設立登記法人,東京都,中央区,日本橋浜町２丁目２７番１号浜町ビル３階,,13,102,1030007,,,2024-08-20,清算の結了等,,,2018-05-15,1,,,,,ニチロユーラシアコウリュウシンコウキョウカイ,0
1650,9010005030512,登記記録の閉鎖等,0,2024-08-30,2024-08-26,一般社団法人開発７４号,,その他の設立登記法人,東京都,千代田区,飯田橋１丁目３番２号曙杉館４階清和コンサルティング株式会社内,,13,101,1020072,,,2024-08-26,清算の結了等,,,2019-07-25,1,,,,,カイハツナナジュウヨンゴウ,0
1674,9010703005856,登記記録の閉鎖等,0,2024-08-30,2024-08-29,合同会社Ｋｅｅｓ,,合同会社,東京都,品川区,西五反田８丁目２－１２アール五反田７Ａ,,13,109,1410031,,,2024-08-29,清算の結了等,,,2021-07-19,1,,,,,キース,0
1687,9011101044439,登記記録の閉鎖等,0,2024-08-30,2024-08-15,株式会社オーパス,,株式会社,東京都,新宿区,西新宿７丁目５番５号Ｐｌａｚａ西新宿ＵＣＦ４階,,13,104,1600023,,,2024-08-15,清算の結了等,,,2015-10-05,1,,,,,オーパス,0
1694,9011802013527,登記記録の閉鎖等,0,2024-08-30,2024-08-26,有限会社サンライト,,有限会社,東京都,足立区,西保木間１丁目１４番１６号,,13,121,1210812,,,2024-08-26,清算の結了等,,,2015-10-05,1,,,,,サンライト,0
1706,9020001107362,登記記録の閉鎖等,0,2024-08-30,2024-08-26,株式会社ウィネットソリューションズ,,株式会社,神奈川県,横浜市港北区,新横浜２丁目５番１０号第二楓ビル９Ｆ,,14,109,2220033,,,2024-08-26,合併による解散等,6030001066965,令和６年８月１日埼玉県北葛飾郡松伏町築比地７９５番地１株式会社ウィーズ（6030001066965）に合併し解散,2015-10-05,1,,,,,ウィネットソリューションズ,0
1738,9040002048281,登記記録の閉鎖等,0,2024-08-30,2024-08-22,有限会社藤枝工務店,,有限会社,千葉県,松戸市,竹ケ花１４５番地,,12,207,2710072,,,2024-08-22,清算の結了等,,,2015-10-05,1,,,,,フジエダコウムテン,0
1741,9050001000333,登記記録の閉鎖等,0,2024-08-30,2024-08-27,株式会社茨城用地補償,00021821,株式会社,茨城県,水戸市,酒門町１６２番地２,,08,201,3100841,,,2024-08-27,清算の結了等,,,2015-10-05,1,,,,,イバラキヨウチホショウ,0
1755,9080002000965,登記記録の閉鎖等,0,2024-08-30,2024-08-26,有限会社エトワール静岡,,有限会社,静岡県,静岡市清水区,庵原町１５２番地の２,,22,103,4240114,,,2024-08-26,清算の結了等,,,2015-10-05,1,,,,,エトワールシズオカ,0
1756,9080003001541,登記記録の閉鎖等,0,2024-08-30,2024-08-26,合同会社エルイーオー,,合同会社,静岡県,静岡市清水区,庵原町１５２番地の２,,22,103,4240114,,,2024-08-26,清算の結了等,,,2015-10-05,1,,,,,エルイーオー,0
1757,9080102015062,登記記録の閉鎖等,0,2024-08-30,2024-08-26,有限会社松本工務店,,有限会社,静岡県,富士市,比奈１４９７番地の１,,22,210,4170847,,,2024-08-26,清算の結了等,,,2015-10-05,1,,,,,マツモトコウムテン,0
1759,9090001012622,登記記録の閉鎖等,0,2024-08-30,2024-08-26,シャンドフルール株式会社,,株式会社,山梨県,笛吹市,境川町寺尾３９５４－２,,19,211,4060854,,,2024-08-26,清算の結了等,,,2015-10-05,1,,,,,シャンドフルール,0
1763,9100002014797,登記記録の閉鎖等,0,2024-08-30,2024-08-20,有限会社松原美容院,,有限会社,長野県,上田市,中央６丁目１５番１２号,,20,203,3860012,,,2024-08-20,清算の結了等,,,2015-10-05,1,,,,,マツバラビヨウイン,0
1765,9110002002314,登記記録の閉鎖等,0,2024-08-30,2024-08-28,有限会社コートロティ,,有限会社,新潟県,新潟市東区,紫竹７丁目８番１０号,,15,102,9500864,,,2024-08-28,清算の結了等,,,2015-10-05,1,,,,,コートロティ,0
1786,9120103001577,登記記録の閉鎖等,0,2024-08-30,2024-08-29,銀杏ゼミナール合同会社,,合同会社,大阪府,岸和田市,下松町１丁目１７番１１号,,27,202,5960823,,,2024-08-29,清算の結了等,,,2015-10-05,1,,,,,イチョウゼミナール,0
1791,9130002028563,登記記録の閉鎖等,0,2024-08-30,2024-08-28,有限会社村おこしセンター知井の里,,有限会社,京都府,南丹市,美山町中上前８３－１番地,,26,213,6010713,,,2024-08-28,清算の結了等,,,2015-10-05,1,,,,,ムラオコシセンターチイノサト,0
1798,9140002048461,登記記録の閉鎖等,0,2024-08-30,2024-08-28,有限会社広商機材,,有限会社,兵庫県,姫路市,四郷町見野８７０番地の８,,28,201,6710244,,,2024-08-28,清算の結了等,,,2015-10-05,1,,,,,ヒロショウキザイ,0
1805,9180001098982,登記記録の閉鎖等,0,2024-08-30,2024-08-26,株式会社樋口工業,00072535,株式会社,愛知県,海部郡蟹江町,大字新千秋字後西２３番地１,,23,425,4970043,,,2024-08-26,清算の結了等,,,2015-10-05,1,,,,,ヒグチコウギョウ,0
1806,9180001100203,登記記録の閉鎖等,0,2024-08-30,2024-08-23,株式会社ＴＷドリーム,,株式会社,愛知県,名古屋市千種区,内山３丁目１７番１１号,,23,101,4640075,,,2024-08-23,清算の結了等,,,2015-10-05,1,,,,,ティーダブリュードリーム,0
1816,9200002012452,登記記録の閉鎖等,0,2024-08-30,2024-08-27,有限会社カットハウスアップ,,有限会社,岐阜県,大垣市,美和町１８１２番地の１,,21,202,5030857,,,2024-08-27,清算の結了等,,,2015-10-05,1,,,,,カットハウスアップ,0
1822,9250001003019,登記記録の閉鎖等,0,2024-08-30,2024-08-28,株式会社ユービーイーホテルズ,,株式会社,山口県,宇部市,相生町８番１号,,35,202,7550043,,,2024-08-28,清算の結了等,,,2015-10-05,1,,,,,ユービーイーホテルズ,0
1835,9350002001507,登記記録の閉鎖等,0,2024-08-30,2024-08-26,有限会社黒木製版,,有限会社,宮崎県,宮崎市,広島１丁目４番２号,,45,201,8800806,,,2024-08-26,清算の結了等,,,2015-10-05,1,,,,,クロキセイハン,0
1846,9380001011421,登記記録の閉鎖等,0,2024-08-30,2024-08-20,株式会社ヤマ久薄井青果,,株式会社,福島県,須賀川市,栄町２７８番地,,07,207,9620858,,,2024-08-20,清算の結了等,,,2015-10-05,1,,,,,ヤマキュウウスイセイカ,0
