sequenceNumber,corporateNumber,process,correct,updateDate,changeDate,name,nameImageId,kind,prefectureName,cityName,streetNumber,addressImageId,prefectureCode,cityCode,postCode,addressOutside,addressOutsideImageId,closeDate,closeCause,successorCorporateNumber,changeCause,assignmentDate,latest,enName,enPrefectureName,enCityName,enAddressOutside,furigana,hihyoji
10,1010001240931,新規,0,2023-12-21,2023-12-21,株式会社ＳｕｒＦｒｏｎｔ,,株式会社,東京都,中央区,日本橋室町１丁目１１番１２号日本橋水野ビル７階,,13,102,1030022,,,,,,,2023-12-21,1,,,,,サーフロント,0
11,1010001240948,新規,0,2023-12-21,2023-12-21,株式会社リビュージョン,,株式会社,東京都,中央区,日本橋２丁目１－３アーバンネット日本橋二丁目ビル１０階,,13,102,1030027,,,,,,,2023-12-21,1,,,,,リビュージョン,0
12,1010001240972,新規,0,2023-12-21,2023-12-21,ＫＲＲ株式会社,,株式会社,東京都,中央区,築地７丁目１０番８号ＳＥＡビル５０１号室,,13,102,1040045,,,,,,,2023-12-21,1,,,,,ケイアールアール,0
13,1010001240997,新規,0,2023-12-21,2023-12-21,株式会社ミラーエンタープライズ,,株式会社,東京都,中央区,日本橋小伝馬町１４番５号,,13,102,1030001,,,,,,,2023-12-21,1,,,,,ミラーエンタープライズ,0
14,1010001241013,新規,0,2023-12-21,2023-12-21,東進パートナーズ株式会社,,株式会社,東京都,中央区,新川１丁目１－３－６Ｆ,,13,102,1040033,,,,,,,2023-12-21,1,,,,,トウシンパートナーズ,0
18,1010003042483,新規,0,2023-12-21,2023-12-21,バルタスロール・プロパティー合同会社,,合同会社,東京都,千代田区,九段南３丁目７番７号,,13,101,1020074,,,,,,,2023-12-21,1,,,,,バルタスロールプロパティー,0
22,1010005037663,新規,0,2023-12-21,2023-12-21,一般社団法人Ｌｉｆｅ　Ａｎｃｈｏｒ,,その他の設立登記法人,東京都,千代田区,内神田３丁目１２番４号第一岸ビル３階,,13,101,1010047,,,,,,,2023-12-21,1,,,,,ライフアンカー,0
24,1010401179398,新規,0,2023-12-21,2023-12-21,株式会社オルタナティブインベストメント,,株式会社,東京都,港区,六本木４丁目１２番８号,,13,103,1060032,,,,,,,2023-12-21,1,,,,,オルタナティブインベストメント,0
26,1010405022793,新規,0,2023-12-21,2023-12-21,一般社団法人中央義士会,,その他の設立登記法人,東京都,港区,高輪２丁目１１番１号泉岳寺講堂,,13,103,1080074,,,,,,,2023-12-21,1,,,,,チュウオウギシカイ,0
27,1010405022810,新規,0,2023-12-21,2023-12-21,一般社団法人ＧＳＦＲ３,,その他の設立登記法人,東京都,港区,西新橋３丁目５番２号,,13,103,1050003,,,,,,,2023-12-21,1,,,,,ジーエスエフアールスリー,0
34,1010603010526,新規,0,2023-12-21,2023-12-21,合同会社デジタルディスカバリー,,合同会社,東京都,江東区,亀戸９丁目１９番７－５０１号,,13,108,1360071,,,,,,,2023-12-21,1,,,,,デジタルディスカバリー,0
39,1011001158981,新規,0,2023-12-21,2023-12-21,株式会社Ｎｅｕｔｈａｌ,,株式会社,東京都,渋谷区,渋谷２丁目１９番１５号宮益坂ビルディング６０９,,13,113,1500002,,,,,,,2023-12-21,1,,,,,ニューサル,0
41,1011101105561,新規,0,2023-12-21,2023-12-21,株式会社ユナイトライ,,株式会社,東京都,新宿区,新宿１丁目２５番１４号第二関根ビル５Ｆ,,13,104,1600022,,,,,,,2023-12-21,1,,,,,ユナイトライ,0
47,1011501030129,新規,0,2023-12-21,2023-12-21,Ｚｅｎｌａｙｅｒ　Ｎｅｔｗｏｒｋｓ　Ｊａｐａｎ株式会社,,株式会社,東京都,北区,中里１丁目２１番２号中里ビル１Ｆ,,13,117,1140015,,,,,,,2023-12-21,1,,,,,ゼンレイヤーネットワークスジャパン,0
48,1011501030137,新規,0,2023-12-21,2023-12-21,Ｂｒａｎｄ　ｈａｒｂｏｒ株式会社,,株式会社,東京都,荒川区,町屋３丁目２４番２号面川ビル３０８号室,,13,118,1160001,,,,,,,2023-12-21,1,,,,,ブランドハーバー,0
49,1011601027388,新規,0,2023-12-21,2023-12-21,株式会社ＭＹファッション,,株式会社,東京都,練馬区,中村２丁目１５番９号ライフピアメヌエート１０６号室,,13,120,1760024,,,,,,,2023-12-21,1,,,,,エムワイファッション,0
50,1011603004179,新規,0,2023-12-21,2023-12-21,合同会社Ｃライフ,,合同会社,東京都,練馬区,高野台１丁目１２－１４スプリングコート５０２,,13,120,1770033,,,,,,,2023-12-21,1,,,,,シーライフ,0
51,1011701026868,新規,0,2023-12-21,2023-12-21,株式会社勝商事,,株式会社,東京都,江戸川区,宇喜田町１３０８番１号,,13,123,1340082,,,,,,,2023-12-21,1,,,,,カツショウジ,0
55,1011801043540,新規,0,2023-12-21,2023-12-21,金泰国際株式会社,,株式会社,東京都,葛飾区,四つ木５丁目５番７－１０４号,,13,122,1240011,,,,,,,2023-12-21,1,,,,,キンタイコクサイ,0
56,1011801043549,新規,0,2023-12-21,2023-12-21,ユニバース株式会社,,株式会社,東京都,葛飾区,新小岩３丁目２６－１３シャルマンフルールＩＩ２０１,00133070,13,122,1240024,,,,,,,2023-12-21,1,,,,,ユニバース,0
59,1011803006000,新規,0,2023-12-21,2023-12-21,ｔｕｍｆ合同会社,,合同会社,東京都,足立区,青井２丁目１６番４ー１００４号,,13,121,1200012,,,,,,,2023-12-21,1,,,,,ティユーエムエフ,0
61,1012803003268,新規,0,2023-12-21,2023-12-21,合同会社ｍａｎｏ　ａ　ｍａｎｏ,,合同会社,東京都,立川市,上砂町５丁目５７番地の３０,,13,202,1900032,,,,,,,2023-12-21,1,,,,,マノアマノ,0
69,1020001154981,新規,0,2023-12-21,2023-12-21,株式会社ＤＩＭＥ,,株式会社,神奈川県,横浜市神奈川区,金港町１－４横浜イーストスクエア４Ｆ,,14,102,2210056,,,,,,,2023-12-21,1,,,,,ダイム,0
70,1020001155006,新規,0,2023-12-21,2023-12-21,ＨＡＳＵＩ商事株式会社,,株式会社,神奈川県,横浜市中区,桜木町１丁目１－７ヒューリックみなとみらい１０階,,14,104,2310062,,,,,,,2023-12-21,1,,,,,ハスイショウジ,0
71,1020001155014,新規,0,2023-12-21,2023-12-21,ＫｅｉＳｙｏｈ株式会社,,株式会社,神奈川県,川崎市宮前区,有馬１丁目１１番５－３０２号グリーンオークス,,14,136,2160003,,,,,,,2023-12-21,1,,,,,ケイショウ,0
74,1021001081019,新規,0,2023-12-21,2023-12-21,株式会社ウェラップ,,株式会社,神奈川県,相模原市中央区,東淵野辺４丁目９番３号ルネ古淵１０２号室,,14,152,2520203,,,,,,,2023-12-21,1,,,,,ウェラップ,0
78,1021003013928,新規,0,2023-12-21,2023-12-21,合同会社ｃｏｃｏａ,,合同会社,神奈川県,鎌倉市,雪ノ下４丁目３番１３号,,14,204,2480005,,,,,,,2023-12-21,1,,,,,ココア,0
84,1030001157793,新規,0,2023-12-21,2023-12-21,ＨＡＰＩＸ株式会社,,株式会社,埼玉県,川口市,戸塚東４丁目４‐９,,11,203,3330802,,,,,,,2023-12-21,1,,,,,ハピックス,0
85,1030001157810,新規,0,2023-12-21,2023-12-21,プレシア不動産株式会社,,株式会社,埼玉県,熊谷市,新島３９３番地１,,11,202,3600817,,,,,,,2023-12-21,1,,,,,プレシアフドウサン,0
86,1030001157827,新規,0,2023-12-21,2023-12-21,株式会社アシーナ,,株式会社,埼玉県,さいたま市南区,南浦和１丁目１番４－３号,,11,108,3360017,,,,,,,2023-12-21,1,,,,,アシーナ,0
87,1030001157835,新規,0,2023-12-21,2023-12-21,株式会社エイチキューブ,,株式会社,埼玉県,さいたま市大宮区,吉敷町２丁目８６番地１,,11,103,3300843,,,,,,,2023-12-21,1,,,,,エイチキューブ,0
96,1030003023275,新規,0,2023-12-21,2023-12-21,ボンドワークス合同会社,,合同会社,埼玉県,児玉郡美里町,大字小茂田７６５番地２,,11,381,3670101,,,,,,,2023-12-21,1,,,,,ボンドワークス,0
100,1040001131450,新規,0,2023-12-21,2023-12-21,ＥＧＡＯ人材サービス株式会社,,株式会社,千葉県,鎌ケ谷市,南初富６丁目２番地７１の２,,12,224,2730123,,,,,,,2023-12-21,1,,,,,エガオジンザイサービス,0
107,1050003008010,新規,0,2023-12-21,2023-12-21,合同会社ＭＩＺＡ　ＴＲＡＤＩＮＧ,,合同会社,茨城県,古河市,東山田５８１番地８,,08,204,3060112,,,,,,,2023-12-21,1,,,,,,0
109,1080001026044,新規,0,2023-12-21,2023-12-21,株式会社ＨＮＷ,,株式会社,静岡県,静岡市駿河区,南町３番２５号ＳＯＺＯＳＹＡ南町ビル１階,,22,102,4228067,,,,,,,2023-12-21,1,,,,,エイチエヌダブリュー,0
110,1080101024410,新規,0,2023-12-21,2023-12-21,株式会社クボタ,,株式会社,静岡県,田方郡函南町,間宮１８０番地,,22,325,4190123,,,,,,,2023-12-21,1,,,,,クボタ,0
116,1100001037063,新規,0,2023-12-21,2023-12-21,白馬光年株式会社,,株式会社,長野県,北安曇郡白馬村,大字北城９４６４－４０１,,20,485,3999301,,,,,,,2023-12-21,1,,,,,ハクバコウネン,0
117,1100001037071,新規,0,2023-12-21,2023-12-21,Ｎ‐ＱＲＥＥＴＥ株式会社,,株式会社,長野県,下高井郡野沢温泉村,大字豊郷６５７３番地１,,20,563,3892502,,,,,,,2023-12-21,1,,,,,エヌクリート,0
119,1110001038052,新規,0,2023-12-21,2023-12-21,株式会社ヤオヨロズ,,株式会社,新潟県,新潟市東区,竹尾３丁目１９番３号ウィンド・フィル１０１号,,15,102,9500862,,,,,,,2023-12-21,1,,,,,ヤオヨロズ,0
124,1120001260778,新規,0,2023-12-21,2023-12-21,Ｓａｔｕｒｄａｙ株式会社,,株式会社,大阪府,守口市,外島町６番西１－１６１４号,,27,209,5700096,,,,,,,2023-12-21,1,,,,,サタデー,0
125,1120001260836,新規,0,2023-12-21,2023-12-21,株式会社ＶＩＳＴＡ,,株式会社,大阪府,大阪市港区,市岡２丁目２番４－１０３号,,27,107,5520012,,,,,,,2023-12-21,1,,,,,ビスタ,0
130,1120901048505,新規,0,2023-12-21,2023-12-21,株式会社ｓｏｌ,,株式会社,大阪府,茨木市,双葉町７－１－２Ｆ,,27,211,5670829,,,,,,,2023-12-21,1,,,,,ソル,0
131,1122001037685,新規,0,2023-12-21,2023-12-21,株式会社ＢＵＮＣＨ　ＷＯＲＫＳ,,株式会社,大阪府,東大阪市,古箕輪１丁目６番６１号,,27,227,5780915,,,,,,,2023-12-21,1,,,,,バンチワークス,0
135,1130001075985,新規,0,2023-12-21,2023-12-21,株式会社ＳＰｌｕｓ．Ｃｏ,,株式会社,京都府,京都市上京区,笹屋町通智恵光院西入笹屋町１丁目５２９番地,,26,102,6028453,,,,,,,2023-12-21,1,,,,,エスプリュスカンパニー,0
141,1140001132752,新規,0,2023-12-21,2023-12-21,株式会社ｔｏｍｏｎｉ,,株式会社,兵庫県,西宮市,上甲子園３丁目９番１２－１０６号,,28,204,6638114,,,,,,,2023-12-21,1,,,,,トモニ,0
147,1180001159404,新規,0,2023-12-21,2023-12-21,アイリエ株式会社,,株式会社,愛知県,名古屋市緑区,大高町字東正地９番地,,23,114,4598001,,,,,,,2023-12-21,1,,,,,アイリエ,0
152,1180003026148,新規,0,2023-12-21,2023-12-21,スズキレスピ合同会社,,合同会社,愛知県,名古屋市千種区,山門町２丁目２番地の２プラッツ覚王山１０１号,,23,101,4640064,,,,,,,2023-12-21,1,,,,,スズキレスピ,0
155,1180301038142,新規,0,2023-12-21,2023-12-21,株式会社ＪＯＹ,,株式会社,愛知県,知立市,南陽１丁目２３３番地ダイアパレス知立８０８号,,23,225,4720004,,,,,,,2023-12-21,1,,,,,ジョイ,0
156,1190001030968,新規,0,2023-12-21,2023-12-21,株式会社まちの,,株式会社,三重県,四日市市,久保田２丁目１４番１４号,,24,202,5100821,,,,,,,2023-12-21,1,,,,,マチノ,0
160,1210003001733,新規,0,2023-12-21,2023-12-21,合同会社ＦＵＴ,,合同会社,福井県,福井市,石盛町９０５号,,18,201,9100122,,,,,,,2023-12-21,1,,,,,フット,0
173,1290001104101,新規,0,2023-12-21,2023-12-21,株式会社ＭＩＫＫ,,株式会社,福岡県,糟屋郡粕屋町,大字仲原２６２５番地１ルネッサンス２１福岡東７０１号,,40,349,8112304,,,,,,,2023-12-21,1,,,,,エムアイケイケイ,0
174,1290001104118,新規,0,2023-12-21,2023-12-21,ＦＵＫＵＲＯ株式会社,,株式会社,福岡県,那珂川市,片縄北２丁目１番３１号,,40,231,8111203,,,,,,,2023-12-21,1,,,,,フクロウ,0
175,1290001104126,新規,0,2023-12-21,2023-12-21,Ｃｏｎｃｉｅｒｇｅ．ＯＷＬ株式会社,,株式会社,福岡県,福岡市東区,香椎駅前２丁目９番１５号,,40,131,8130013,,,,,,,2023-12-21,1,,,,,コンシェルジュアウル,0
179,1290003014777,新規,0,2023-12-21,2023-12-21,Ａｂｌｏｏｍ合同会社,,合同会社,福岡県,福岡市博多区,博多駅中央街５番１１号,,40,132,8120012,,,,,,,2023-12-21,1,,,,,アブルーム,0
191,1360001032988,新規,0,2023-12-21,2023-12-21,株式会社エンターズラボ,,株式会社,沖縄県,那覇市,牧志２丁目１７－２７－４０１,,47,201,9000013,,,,,,,2023-12-21,1,,,,,エンターズラボ,0
205,1430001090681,新規,0,2023-12-21,2023-12-21,株式会社ＥＴＳ,,株式会社,北海道,札幌市中央区,南一条西１０丁目４愛知電機札幌ビル３階,,01,101,0600061,,,,,,,2023-12-21,1,,,,,イーティーエス,0
214,1500001025374,新規,0,2023-12-21,2023-12-21,株式会社ＧＯＪＯ．,,株式会社,愛媛県,松山市,久谷町７６８番地,,38,201,7911132,,,,,,,2023-12-21,1,,,,,ゴジョウ,0
220,2010001240930,新規,0,2023-12-21,2023-12-21,株式会社知的財産権価値算定研究所,,株式会社,東京都,千代田区,一番町３番地７カーサ一番町２０１号,,13,101,1020082,,,,,,,2023-12-21,1,,,,,チテキザイサンケンカチサンテイケンキュウショ,0
221,2010001240939,新規,0,2023-12-21,2023-12-21,株式会社Ｌｉｎｋ‐Ｕ　Ｔｅｃｈｎｏｌｏｇｉｅｓ,,株式会社,東京都,千代田区,外神田２丁目２番３号,,13,101,1010021,,,,,,,2023-12-21,1,,,,,リンクユーテクノロジーズ,0
222,2010001240963,新規,0,2023-12-21,2023-12-21,株式会社ＧＯＥＮ,,株式会社,東京都,中央区,佃２丁目６－４ベルナハイム１０２,,13,102,1040051,,,,,,,2023-12-21,1,,,,,ゴエン,0
237,2010403031614,新規,0,2023-12-21,2023-12-21,合同会社アンビエンス,,合同会社,東京都,港区,芝２丁目３番２０－３０４号,,13,103,1050014,,,,,,,2023-12-21,1,,,,,アンビエンス,0
240,2010501051539,新規,0,2023-12-21,2023-12-21,パインツリー株式会社,,株式会社,東京都,台東区,池之端１丁目５番１号,,13,106,1100008,,,,,,,2023-12-21,1,,,,,パインツリー,0
242,2010503007266,新規,0,2023-12-21,2023-12-21,合同会社事事如意,,合同会社,東京都,台東区,東上野３丁目３６番１０号,,13,106,1100015,,,,,,,2023-12-21,1,,,,,コトゴトヨイ,0
247,2010601064374,新規,0,2023-12-21,2023-12-21,明治トラベルサービス株式会社,,株式会社,東京都,墨田区,両国２丁目７番１１号,,13,107,1300026,,,,,,,2023-12-21,1,,,,,メイジトラベルサービス,0
248,2010603010541,新規,0,2023-12-21,2023-12-21,ＫＩ．ｎｅｘｔｅｃｈ合同会社,,合同会社,東京都,墨田区,東向島５丁目３２‐３ルネスカンタービレ５０２,,13,107,1310032,,,,,,,2023-12-21,1,,,,,ケーアイネクステック,0
256,2011001158980,新規,0,2023-12-21,2023-12-21,Ｔｒｉｐｌｅｘ株式会社,,株式会社,東京都,目黒区,自由が丘３丁目１５番１６号,,13,110,1520035,,,,,,,2023-12-21,1,,,,,トリプレックス,0
258,2011003018142,新規,0,2023-12-21,2023-12-21,合同会社ＭＩＫＡＴＡ,,合同会社,東京都,渋谷区,道玄坂１丁目１０－８渋谷道玄坂東急ビル２Ｆ－Ｃ,,13,113,1500043,,,,,,,2023-12-21,1,,,,,ミカタ,0
259,2011003018167,新規,0,2023-12-21,2023-12-21,合同会社ＪＡＮＵ,,合同会社,東京都,渋谷区,笹塚１丁目５２番６号千葉ビル１００２,,13,113,1510073,,,,,,,2023-12-21,1,,,,,ジャヌ,0
264,2011101105577,新規,0,2023-12-21,2023-12-21,株式会社ランドリープログレス,,株式会社,東京都,新宿区,神楽坂３丁目４番地神楽坂山本ビル６階,,13,104,1620825,,,,,,,2023-12-21,1,,,,,ランドリープログレス,0
265,2011101105585,新規,0,2023-12-21,2023-12-21,株式会社Ｒｅ　ＦＡＣＴＯＲＹ,,株式会社,東京都,新宿区,新宿７丁目２６番７－４０４号,,13,104,1600022,,,,,,,2023-12-21,1,,,,,リファクトリー,0
268,2011105010889,新規,0,2023-12-21,2023-12-21,一般社団法人省エネ電力推進機構,,その他の設立登記法人,東京都,新宿区,西新宿３丁目３番１３号西新宿水間ビル６Ｆ,,13,104,1600023,,,,,,,2023-12-21,1,,,,,ショウエネデンリョクスイシンキコウ,0
269,2011301029262,新規,0,2023-12-21,2023-12-21,株式会社らくだ,,株式会社,東京都,杉並区,高井戸東２丁目６番８号,,13,115,1680072,,,,,,,2023-12-21,1,,,,,ラクダ,0
273,2011701026867,新規,0,2023-12-21,2023-12-21,ＫＡＬＥＩＤＯＳＣＯＰＥ株式会社,,株式会社,東京都,江戸川区,平井５丁目１１番５号コスタシティ平井２０１,,13,123,1320035,,,,,,,2023-12-21,1,,,,,カレイドスコープ,0
276,2011803006008,新規,0,2023-12-21,2023-12-21,ＲＮＳ合同会社,,合同会社,東京都,葛飾区,白鳥１丁目２‐１３‐２０３,,13,122,1250063,,,,,,,2023-12-21,1,,,,,アールエヌエス,0
290,2013303006925,新規,0,2023-12-21,2023-12-21,合同会社ジョイント,,合同会社,東京都,豊島区,長崎４丁目８番１３号,,13,116,1710051,,,,,,,2023-12-21,1,,,,,ジョイント,0
299,2020001154989,新規,0,2023-12-21,2023-12-21,株式会社リバティ,,株式会社,神奈川県,川崎市高津区,久地３丁目３番４６号１０１,,14,134,2130032,,,,,,,2023-12-21,1,,,,,リバティ,0
300,2020001155005,新規,0,2023-12-21,2023-12-21,株式会社ＭＯＴＴＯ,,株式会社,神奈川県,川崎市多摩区,東三田２丁目４番１号日神パレステージ向ヶ丘遊園４０２号,,14,135,2140033,,,,,,,2023-12-21,1,,,,,,0
305,2021005012976,新規,0,2023-12-21,2023-12-21,医療法人芳源,,その他の設立登記法人,神奈川県,相模原市緑区,東橋本２丁目１９－９,,14,151,2520144,,,,,,,2023-12-21,1,,,,,ホウゲン,0
323,2040001131433,新規,0,2023-12-21,2023-12-21,株式会社ＡｒＤ,,株式会社,千葉県,船橋市,田喜野井４丁目２９番１０棟５０７号,,12,204,2740073,,,,,,,2023-12-21,1,,,,,エーアールディー,0
327,2050001053998,新規,0,2023-12-21,2023-12-21,晨興商事株式会社,,株式会社,茨城県,高萩市,大字上手綱１３５７番地の１８,,08,214,3180004,,,,,,,2023-12-21,1,,,,,シンコウショウジ,0
332,2070001041209,新規,0,2023-12-21,2023-12-21,株式会社ＭＮＲＫ　ＳＰＯＲＴＳ,,株式会社,群馬県,渋川市,八木原１１９３番地６,,10,208,3770003,,,,,,,2023-12-21,1,,,,,エムエヌアールケースポーツ,0
336,2090005007600,新規,0,2023-12-21,2023-12-21,一般財団法人杜の財団,,その他の設立登記法人,山梨県,上野原市,大倉７９番地,,19,212,4090138,,,,,,,2023-12-21,1,,,,,モリノザイダン,0
337,2100001037070,新規,0,2023-12-21,2023-12-21,株式会社大和,,株式会社,長野県,佐久市,野沢１９５番地２４,,20,217,3850053,,,,,,,2023-12-21,1,,,,,ヤマト,0
340,2110001038051,新規,0,2023-12-21,2023-12-21,株式会社ＮｉＫｏ,,株式会社,新潟県,新潟市南区,下山崎７０５番地２０,,15,106,9501246,,,,,,,2023-12-21,1,,,,,ニコ,0
356,2120001260298,新規,0,2023-12-21,2023-12-21,株式会社ＡＮＩ　ＴＥＲＲＡＳ,,株式会社,大阪府,大阪市中央区,南船場２丁目１番９－１００２号,,27,128,5420081,,,,,,,2023-12-21,1,,,,,アニテラス,0
357,2120001260802,新規,0,2023-12-21,2023-12-21,株式会社ＹＡＭＯＮ,,株式会社,大阪府,大阪市西淀川区,姫島３丁目７番２０号,,27,113,5550033,,,,,,,2023-12-21,1,,,,,ヤモン,0
358,2120001260934,新規,0,2023-12-21,2023-12-21,株式会社グランフィリア,,株式会社,大阪府,大阪市中央区,森ノ宮中央２丁目７番２０号,,27,128,5400003,,,,,,,2023-12-21,1,,,,,グランフィリア,0
361,2120101068732,新規,0,2023-12-21,2023-12-21,株式会社みらい,,株式会社,大阪府,松原市,柴垣１丁目１番３１－８０１号,,27,217,5800017,,,,,,,2023-12-21,1,,,,,ミライ,0
376,2150001026952,新規,0,2023-12-21,2023-12-21,双田株式会社,,株式会社,奈良県,大和高田市,礒野南町６番２６号,,29,202,6350062,,,,,,,2023-12-21,1,,,,,ソウダ,0
383,2180001159403,新規,0,2023-12-21,2023-12-21,Ｌｕｃｋｙ　Ｃａｔｓ株式会社,,株式会社,愛知県,知多市,南粕谷東坂２丁目１８番地の１,,23,224,4780023,,,,,,,2023-12-21,1,,,,,ラッキーキャッツ,0
386,2180301038158,新規,0,2023-12-21,2023-12-21,株式会社井上,,株式会社,愛知県,豊川市,市田町中之島８４番地の２,,23,207,4420862,,,,,,,2023-12-21,1,,,,,イノウエ,0
388,2180303005940,新規,0,2023-12-21,2023-12-21,洋王合同会社,,合同会社,愛知県,みよし市,三好町中鯰ヶ池８８番地の１,,23,236,4700224,,,,,,,2023-12-21,1,,,,,ヨウオウ,0
389,2180303005949,新規,0,2023-12-21,2023-12-21,合同会社Ｎ＆カンパニー,,合同会社,愛知県,碧南市,石橋町１丁目６２番地３,,23,209,4470858,,,,,,,2023-12-21,1,,,,,エヌアンドカンパニー,0
390,2190001030967,新規,0,2023-12-21,2023-12-21,Ｋａｌａ　ｍａｃｒｏ　ｗｏｒｋｓ株式会社,,株式会社,三重県,伊勢市,小木町４９３番地,,24,203,5160007,,,,,,,2023-12-21,1,,,,,カラマクロワークス,0
391,2200005013553,新規,0,2023-12-21,2023-12-21,一般財団法人岐阜ビジネスフューチャーズ,,その他の設立登記法人,岐阜県,岐阜市,茜部菱野４丁目７９番地の１,,21,201,5008268,,,,,,,2023-12-21,1,,,,,ギフビジネスフューチャーズ,0
392,2210003001732,新規,0,2023-12-21,2023-12-21,合同会社トータルサポート,,合同会社,福井県,福井市,足羽１丁目１５番２１号,,18,201,9188007,,,,,,,2023-12-21,1,,,,,トータルサポート,0
396,2230001020146,新規,0,2023-12-21,2023-12-21,株式会社ＬＯＪ,,株式会社,富山県,富山市,南田町１丁目２番９ダイアパレス南田町５０５,,16,201,9300056,,,,,,,2023-12-21,1,,,,,エルオージェイ,0
400,2240001062575,新規,0,2023-12-21,2023-12-21,株式会社Ｌｕｍｉｒｉｓｅ,,株式会社,広島県,広島市中区,銀山町１１番２５号第一ダイヤモンドビル２０７,,34,101,7300022,,,,,,,2023-12-21,1,,,,,ルミライズ,0
405,2240003006456,新規,0,2023-12-21,2023-12-21,合同会社ベルス,,合同会社,広島県,東広島市,西条町御薗宇３２８６番地４号－Ｂ号室,,34,212,7390024,,,,,,,2023-12-21,1,,,,,ベルス,0
410,2250001020441,新規,0,2023-12-21,2023-12-21,株式会社ハビタブル,,株式会社,山口県,大島郡周防大島町,大字地家室８０９番地４,,35,305,7422923,,,,,,,2023-12-21,1,,,,,ハビタブル,0
427,2290001104117,新規,0,2023-12-21,2023-12-21,一瀬汽船株式会社,,株式会社,福岡県,福岡市博多区,御供所町３番３０－３０３号,,40,132,8120037,,,,,,,2023-12-21,1,,,,,イチノセキセン,0
428,2290001104125,新規,0,2023-12-21,2023-12-21,株式会社リンダリンダリンダ,,株式会社,福岡県,福岡市中央区,天神４丁目２番３８号,,40,133,8100001,,,,,,,2023-12-21,1,,,,,リンダリンダリンダ,0
435,2330003010127,新規,0,2023-12-21,2023-12-21,合同会社宝栄福島建設,,合同会社,熊本県,玉名郡長洲町,大字長洲３２９１番地３,,43,368,8690123,,,,,,,2023-12-21,1,,,,,ホウエイフクシマケンセツ,0
437,2340001026157,新規,0,2023-12-21,2023-12-21,株式会社周防建設,,株式会社,鹿児島県,霧島市,国分新町２丁目７番１４号,,46,218,8994351,,,,,,,2023-12-21,1,,,,,スホウケンセツ,0
438,2340003004334,新規,0,2023-12-21,2023-12-21,合同会社ＹＭＰ,,合同会社,鹿児島県,鹿児島市,真砂本町１２番地４ベルメゾン真砂４０５号室,,46,201,8900067,,,,,,,2023-12-21,1,,,,,ワイエムピー,0
442,2360001032962,新規,0,2023-12-21,2023-12-21,株式会社ユーザーシップ,,株式会社,沖縄県,那覇市,高良３丁目６番５号リッチモンドビル４Ｆ,,47,201,9010145,,,,,,,2023-12-21,1,,,,,ユーザーシップ,0
443,2360003013564,新規,0,2023-12-21,2023-12-21,合同会社ハッピースマイル,,合同会社,沖縄県,浦添市,城間４丁目３６番１０－１０１ゼファー浦添学園通り,,47,208,9012133,,,,,,,2023-12-21,1,,,,,ハッピースマイル,0
447,2370001050765,新規,0,2023-12-21,2023-12-21,勝飛機械株式会社,,株式会社,宮城県,石巻市,中里６丁目６番４号,,04,202,9860815,,,,,,,2023-12-21,1,,,,,カツトビキカイ,0
458,2420001018518,新規,0,2023-12-21,2023-12-21,株式会社ファームパートナー,,株式会社,青森県,三戸郡田子町,大字田子字喜助ケ沢４２番地１,,02,443,0390201,,,,,,,2023-12-21,1,,,,,ファームパートナー,0
461,2430001090623,新規,0,2023-12-21,2023-12-21,株式会社ＢｅＡＲＴ　Ｗｏｒｌｄ　ＪＡＰＡＮ,,株式会社,北海道,札幌市中央区,北五条西１１丁目１５番４号,,01,101,0600005,,,,,,,2023-12-21,1,,,,,ビーアートワールドシャパン,0
462,2430001090664,新規,0,2023-12-21,2023-12-21,株式会社上杉装建,,株式会社,北海道,札幌市東区,北四十七条東１９丁目２－１５,,01,103,0070847,,,,,,,2023-12-21,1,,,,,ウエスギソウケン,0
463,2430001090680,新規,0,2023-12-21,2023-12-21,Ａ・ＴＨＥＩＮ株式会社,,株式会社,北海道,札幌市西区,二十四軒一条４丁目２番１号,,01,107,0630801,,,,,,,2023-12-21,1,,,,,エーテイン,0
465,2430003015727,新規,0,2023-12-21,2023-12-21,合同会社えぞまつ,,合同会社,北海道,札幌市中央区,南十一条西９丁目２番１１－４０３号,,01,101,0640811,,,,,,,2023-12-21,1,,,,,エゾマツ,0
466,2430003015776,新規,0,2023-12-21,2023-12-21,合同会社ＷｏｎｄｅｒＷａｌｌ,,合同会社,北海道,札幌市手稲区,新発寒七条８丁目６番１７号,,01,109,0060807,,,,,,,2023-12-21,1,,,,,ワンダーウォール,0
467,2470001019949,新規,0,2023-12-21,2023-12-21,株式会社アルヴェル,,株式会社,香川県,綾歌郡綾川町,滝宮５１９番地１０,,37,387,7612305,,,,,,,2023-12-21,1,,,,,アルヴェル,0
471,2700150024437,新規,0,2023-12-21,2015-10-09,労働福祉センターＳＬＭ大阪,,その他,大阪府,大阪市阿倍野区,阪南町１丁目４７－１松井ビル４Ｆ,,27,119,5450021,,,,,,,2015-10-09,1,,,,,ロウドウフクシセンターエスエルエムオオサカ,0
472,2700150121936,新規,0,2023-12-21,2023-11-09,いきいき深山郷　のどか村,,その他,山形県,西置賜郡白鷹町,大字深山２５３７,,06,402,9920776,,,,,,,2023-11-09,1,,,,,イキイキミヤマゴウノドカムラ,0
473,2700150122356,新規,0,2023-12-21,2023-11-28,公明党長野県議団,,その他,長野県,長野市,大字南長野字幅下６９２－２,,20,201,3800837,,,,,,,2023-11-28,1,,,,,コウメイトウナガノケンギダン,0
474,2700150122975,新規,0,2023-12-21,2023-12-21,下安松東土地区画整理組合,,その他,埼玉県,所沢市,大字下安松９２２－５,,11,208,3590024,,,,,,,2023-12-21,1,,,,,シモヤスマツヒガシトチクカクセイリクミアイ,0
479,3010001240938,新規,0,2023-12-21,2023-12-21,株式会社和傑,,株式会社,東京都,千代田区,神田三崎町２丁目１０番１１号６Ａ－７,,13,101,1010061,,,,,,,2023-12-21,1,,,,,ワケツ,0
480,3010001240954,新規,0,2023-12-21,2023-12-21,Ｃ＆Ｃ　Ｃａｐｉｔａｌ　Ｊａｐａｎ株式会社,,株式会社,東京都,千代田区,丸の内１丁目８番３号,,13,101,1000005,,,,,,,2023-12-21,1,,,,,シーアンドシーキャピタルジャパン,0
484,3010003042515,新規,0,2023-12-21,2023-12-21,オスカーＵＳファンディング１６合同会社,,合同会社,東京都,千代田区,丸の内３丁目１番１号東京共同会計事務所内,,13,101,1000005,,,,,,,2023-12-21,1,,,,,オスカーユーエスファンディングシックスティーン,0
497,3010401179371,新規,0,2023-12-21,2023-12-21,Ｂｌｕｅ　Ｗｈａｌｅ株式会社,,株式会社,東京都,港区,浜松町２丁目２番１５号浜松町ダイヤビル２Ｆ,,13,103,1050013,,,,,,,2023-12-21,1,,,,,ブルーホエール,0
499,3010403031638,新規,0,2023-12-21,2023-12-21,合同会社ＧＳＦＲ４,,合同会社,東京都,港区,西新橋３丁目５番２号,,13,103,1050003,,,,,,,2023-12-21,1,,,,,ジーエスエフアールフォー,0
501,3010405022809,新規,0,2023-12-21,2023-12-21,一般社団法人ＧＳＦＲ２,,その他の設立登記法人,東京都,港区,西新橋３丁目５番２号,,13,103,1050003,,,,,,,2023-12-21,1,,,,,ジーエスエフアールツー,0
503,3010503007257,新規,0,2023-12-21,2023-12-21,合同会社ＺＥＲＯ,,合同会社,東京都,台東区,根岸３丁目２４番１４号アネラコート２０１号室,,13,106,1100003,,,,,,,2023-12-21,1,,,,,ゼロ,0
505,3010701045307,新規,0,2023-12-21,2023-12-21,株式会社ベストスカウト,,株式会社,東京都,品川区,西五反田３丁目１５番６号リードシー目黒不動前ビル６階,,13,109,1410031,,,,,,,2023-12-21,1,,,,,ベストスカウト,0
510,3010903008680,新規,0,2023-12-21,2023-12-21,合同会社ＡＭＯＮＥ,,合同会社,東京都,世田谷区,玉堤１丁目２０－１ＴフラットＢ１Ｆ,,13,112,1580087,,,,,,,2023-12-21,1,,,,,アモネ,0
520,3011001158889,新規,0,2023-12-21,2023-12-21,株式会社Ｎ＆Ｓ,,株式会社,東京都,渋谷区,広尾３丁目８番１３号,,13,113,1500012,,,,,,,2023-12-21,1,,,,,エヌアンドエス,0
521,3011003018117,新規,0,2023-12-21,2023-12-21,合同会社大津町半導体物流開発,,合同会社,東京都,渋谷区,神宮前２丁目４番１８号,,13,113,1500001,,,,,,,2023-12-21,1,,,,,オオズマチハンドウタイブツリュウカイハツ,0
522,3011003018141,新規,0,2023-12-21,2023-12-21,合同会社マウンテンフィールド,,合同会社,東京都,渋谷区,恵比寿西２丁目８－４ＥＸ恵比寿西ビル５階,,13,113,1500021,,,,,,,2023-12-21,1,,,,,マウンテンフィールド,0
523,3011101105576,新規,0,2023-12-21,2023-12-21,株式会社ランドリーアクセス,,株式会社,東京都,新宿区,神楽坂３丁目４番地神楽坂山本ビル６階,,13,104,1620825,,,,,,,2023-12-21,1,,,,,ランドリーアクセス,0
524,3011101105592,新規,0,2023-12-21,2023-12-21,株式会社ＣｙＰｈｏｅｎｉｘ,,株式会社,東京都,新宿区,西新宿３丁目３番１３号西新宿水間ビル６階,,13,104,1600023,,,,,,,2023-12-21,1,,,,,サイフェニックス,0
526,3011203004263,新規,0,2023-12-21,2023-12-21,ＶＡＨＣＧ合同会社,,合同会社,東京都,中野区,中野１丁目４６番４号龍幸ハイム２０３,,13,114,1640001,,,,,,,2023-12-21,1,,,,,ヴィエイエチシィジー,0
532,3011701026866,新規,0,2023-12-21,2023-12-21,ＳＦＫＴ００１株式会社,,株式会社,東京都,江戸川区,北小岩８丁目２番３号,,13,123,1330051,,,,,,,2023-12-21,1,,,,,エスエフケイティゼロゼロイチ,0
533,3011801043555,新規,0,2023-12-21,2023-12-21,株式会社ＨａＮｙａ,,株式会社,東京都,葛飾区,東新小岩７丁目２７－１６日正ハイム２０１号室,,13,122,1240023,,,,,,,2023-12-21,1,,,,,ハンニャ,0
535,3012805003248,新規,0,2023-12-21,2023-12-21,一般社団法人ＥＤＵの杜アカデミー,,その他の設立登記法人,東京都,立川市,柴崎町２丁目６番１２号,,13,202,1900023,,,,,,,2023-12-21,1,,,,,エデューノモリアカデミー,0
537,3013103001290,新規,0,2023-12-21,2023-12-21,ＰｒｏＤｉｇｉｔａｌ　Ｔｏｋｙｏ合同会社,,合同会社,東京都,福生市,大字熊川６７番地１ニューシティーコープ７－３０３号室,,13,218,1970003,,,,,,,2023-12-21,1,,,,,,0
539,3013303006924,新規,0,2023-12-21,2023-12-21,合同会社ＴｅｃＨ‐Ｘ,,合同会社,東京都,豊島区,高松３丁目６番１３号,,13,116,1710042,,,,,,,2023-12-21,1,,,,,テックエックス,0
540,3013305003556,新規,0,2023-12-21,2023-12-21,一般社団法人一帯一路日本研究センター,,その他の設立登記法人,東京都,豊島区,池袋２丁目７８－１０,,13,116,1710014,,,,,,,2023-12-21,1,,,,,イッタイイチロニホンケンキュウセンター,0
550,3021001081017,新規,0,2023-12-21,2023-12-21,株式会社ＡＩＣ,,株式会社,神奈川県,座間市,栗原中央１丁目３４番２９号,,14,216,2520014,,,,,,,2023-12-21,1,,,,,エーアイシー,0
553,3021003013918,新規,0,2023-12-21,2023-12-21,ドッジ合同会社,,合同会社,神奈川県,小田原市,小八幡１丁目９－２３,,14,206,2560815,,,,,,,2023-12-21,1,,,,,ドッジ,0
554,3021005012975,新規,0,2023-12-21,2023-12-21,一般社団法人日中青少年友好フォーラム,,その他の設立登記法人,神奈川県,伊勢原市,伊勢原３丁目４番２号,,14,214,2591131,,,,,,,2023-12-21,1,,,,,ニッチュウセイショウネンユウコウフォーラム,0
558,3030001157817,新規,0,2023-12-21,2023-12-21,高田ヘルスケアソリューションズ株式会社,,株式会社,埼玉県,さいたま市南区,沼影１丁目１１番１号,,11,108,3360027,,,,,,,2023-12-21,1,,,,,タカタヘルスケアソリューションズ,0
559,3030001157833,新規,0,2023-12-21,2023-12-21,ＬＩＳクリーンテック株式会社,,株式会社,埼玉県,越谷市,蒲生寿町９番４８－２号,,11,222,3430836,,,,,,,2023-12-21,1,,,,,リスクリーンテック,0
564,3040001131432,新規,0,2023-12-21,2023-12-21,株式会社ユウプラス,,株式会社,千葉県,柏市,逆井２６５ー１,,12,217,2770042,,,,,,,2023-12-21,1,,,,,ユウプラス,0
565,3040001131457,新規,0,2023-12-21,2023-12-21,株式会社ＨＸＨ,,株式会社,千葉県,松戸市,本町２０番地の１７新角ビル５階Ｃ室,,12,207,2710091,,,,,,,2023-12-21,1,,,,,エイチエックスエイチ,0
571,3070001041216,新規,0,2023-12-21,2023-12-21,株式会社Ｇｒａｃｅ,,株式会社,群馬県,高崎市,宮原町１１番地Ｔ－ｏｎｅＭＩＹＡＨＡＲＡＥａｓｔＡ５０１号,,10,202,3701202,,,,,,,2023-12-21,1,,,,,グレイス,0
575,3080001026042,新規,0,2023-12-21,2023-12-21,株式会社ａｃｔ３,,株式会社,静岡県,静岡市駿河区,大谷１丁目１３番３号パークサイドおおやＡ２０１,,22,102,4228017,,,,,,,2023-12-21,1,,,,,アクトスリー,0
579,3080401026906,新規,0,2023-12-21,2023-12-21,株式会社あかりのいえ,,株式会社,静岡県,浜松市南区,新橋町４２１番地の３,,22,134,4328058,,,,,,,2023-12-21,1,,,,,アカリノイエ,0
584,3110001038050,新規,0,2023-12-21,2023-12-21,株式会社ＧＩＦＴ,,株式会社,新潟県,長岡市,花園２丁目６番６号,,15,202,9400845,,,,,,,2023-12-21,1,,,,,ジーアイエフティ,0
596,3120001260826,新規,0,2023-12-21,2023-12-21,八尾重量株式会社,,株式会社,大阪府,大阪市住吉区,墨江４丁目７番８号メゾン・ド・ヴィラ住吉３０２号,,27,120,5580043,,,,,,,2023-12-21,1,,,,,ヤオジュウリョウ,0
601,3120101068731,新規,0,2023-12-21,2023-12-21,株式会社タクト,,株式会社,大阪府,泉南郡熊取町,自由が丘２丁目４番１５号,,27,361,5900423,,,,,,,2023-12-21,1,,,,,タクト,0
606,3130001075991,新規,0,2023-12-21,2023-12-21,株式会社Ｏｎｅ　Ｗｏｒｌｄ,,株式会社,京都府,京都市南区,吉祥院流作町３７番地３,,26,107,6018390,,,,,,,2023-12-21,1,,,,,ワンワールド,0
614,3140001132775,新規,0,2023-12-21,2023-12-21,ＸＤＥＳＩＧＮ株式会社,,株式会社,兵庫県,宝塚市,切畑字長尾山５番地の６２９,,28,214,6650808,,,,,,,2023-12-21,1,,,,,エックスデザイン,0
616,3160001025580,新規,0,2023-12-21,2023-12-21,株式会社Ｏｆｆｉｃｅ　Ｍｉｄｖａｌｅ,,株式会社,滋賀県,大津市,青山６丁目２番２６号,,25,201,5202101,,,,,,,2023-12-21,1,,,,,オフィスミッドヴェール,0
622,3180001159484,新規,0,2023-12-21,2023-12-21,株式会社フライハイト,,株式会社,愛知県,名古屋市緑区,滝ノ水４丁目２１０１,,23,114,4580021,,,,,,,2023-12-21,1,,,,,フライハイト,0
627,3190001030966,新規,0,2023-12-21,2023-12-21,株式会社ＳＵＮＳＥＴ,,株式会社,三重県,桑名市,大字江場４０６番地フェリシアスＩＩ棟,00133071,24,205,5110836,,,,,,,2023-12-21,1,,,,,サンセット,0
628,3190005011896,新規,0,2023-12-21,2023-12-21,一般社団法人アマネクサポート,,その他の設立登記法人,三重県,鈴鹿市,岸岡町２６２６番地の１５７,,24,207,5100226,,,,,,,2023-12-21,1,,,,,アマネクサポート,0
630,3200003006186,新規,0,2023-12-21,2023-12-21,合同会社Ｃｏｎｎｅｃｔｉｏｎ,,合同会社,岐阜県,多治見市,池田町１丁目３７番地,,21,204,5070048,,,,,,,2023-12-21,1,,,,,コネクション,0
640,3240001062582,新規,0,2023-12-21,2023-12-21,株式会社祇園地所,,株式会社,広島県,広島市安佐南区,東原３丁目２２番１－３０５号,,34,105,7310112,,,,,,,2023-12-21,1,,,,,ギオンジショ,0
647,3260001038580,新規,0,2023-12-21,2023-12-21,株式会社ＴＲトラスト,,株式会社,岡山県,倉敷市,中島１５４１番地４（１階南）,,33,202,7100803,,,,,,,2023-12-21,1,,,,,ティーアールトラスト,0
648,3260001038597,新規,0,2023-12-21,2023-12-21,株式会社一鈴グループ,,株式会社,岡山県,岡山市南区,築港栄町２８番５号ポレスターブロードシティ岡山南６０３,,33,104,7028053,,,,,,,2023-12-21,1,,,,,イチリングループ,0
657,3290001104149,新規,0,2023-12-21,2023-12-21,株式会社Ｓｈｉｐ　Ｃｅｌｌａｒ　Ｃｏｎｓｕｌｔｉｎｇ,,株式会社,福岡県,福岡市東区,香椎照葉５丁目１番１２－３３０２号,,40,131,8130017,,,,,,,2023-12-21,1,,,,,シップセラーコンサルティング,0
664,3290803004570,新規,0,2023-12-21,2023-12-21,合同会社ラートリー,,合同会社,福岡県,北九州市小倉北区,馬借３丁目４番４号（リバーサイドヴィラ１０１）,,40,106,8020077,,,,,,,2023-12-21,1,,,,,ラートリー,0
666,3310001018750,新規,0,2023-12-21,2023-12-21,株式会社Ｒｅ,,株式会社,長崎県,佐世保市,若竹台町２１２番地,,42,202,8593204,,,,,,,2023-12-21,1,,,,,,0
667,3310001018759,新規,0,2023-12-21,2023-12-21,株式会社Ｂｒｕｓｈ　ｕｐ企画,,株式会社,長崎県,長崎市,船大工町５番２７号銀河ビル４階,,42,201,8500904,,,,,,,2023-12-21,1,,,,,ブラッシュアップキカク,0
669,3310003004699,新規,0,2023-12-21,2023-12-21,Ｏｐｅｎ　ｂａｓｅ合同会社,,合同会社,長崎県,松浦市,志佐町庄野免１８４番地４,,42,208,8594507,,,,,,,2023-12-21,1,,,,,オープンベース,0
676,3340001026148,新規,0,2023-12-21,2023-12-21,トラストリース株式会社,,株式会社,鹿児島県,鹿児島市,西千石町１７番２７号,,46,201,8920847,,,,,,,2023-12-21,1,,,,,トラストリース,0
677,3360001032945,新規,0,2023-12-21,2023-12-21,株式会社ティダグレイス,,株式会社,沖縄県,石垣市,美崎町１１番地５メゾンノア３Ｂ,,47,207,9070012,,,,,,,2023-12-21,1,,,,,ティダグレイス,0
692,3430003015767,新規,0,2023-12-21,2023-12-21,ハウスマネージメント合同会社,,合同会社,北海道,札幌市中央区,南三条西９丁目９９８－３－１９０１,,01,101,0600063,,,,,,,2023-12-21,1,,,,,ハウスマネージメント,0
693,3430003015775,新規,0,2023-12-21,2023-12-21,合同会社ｍｍｉｎｇ,,合同会社,北海道,札幌市厚別区,厚別中央三条５丁目５－１ＯＨＡＮＡ新さっぽろ３０１号室,,01,108,0040053,,,,,,,2023-12-21,1,,,,,ミング,0
697,3470001019948,新規,0,2023-12-21,2023-12-21,株式会社ダイコク,,株式会社,香川県,高松市,上在川窪町２１番地７,,37,201,7600000,,,,,,,2023-12-21,1,,,,,ダイコク,0
702,3500001025372,新規,0,2023-12-21,2023-12-21,株式会社中平新聞店,,株式会社,愛媛県,宇和島市,津島町岩松甲７６０番地１６,,38,203,7983301,,,,,,,2023-12-21,1,,,,,ナカヒラシンブンテン,0
703,3700150122363,新規,0,2023-12-21,2023-11-28,東アジア脳血管内治療会議２０２３,,その他,新潟県,新潟市西区,新通南３丁目３－１１信楽園病院脳神経外科内,,15,107,9502038,,,,,,,2023-11-28,1,,,,,ヒガシアジアノウケツカンナイチリヨウカイギニセンニジユウサン,0
704,3700150122933,新規,0,2023-12-21,2023-12-21,ＳＩＧＭＡ　ＭＯＴＯＲＳ,,外国会社等,茨城県,古河市,上和田２２６－１２,,08,204,3060122,パキスタン・イスラム共和国、ラホール、ジョハルタウン、大通り、ユシピ、オピピ、２２－キャバ－エ－ジンナー,,,,,,2023-12-21,1,,,,,シグマモーター,0
708,4010001240961,新規,0,2023-12-21,2023-12-21,イドマーニ株式会社,,株式会社,東京都,文京区,大塚２丁目１６番３－８０３号,00133063,13,105,1120012,,,,,,,2023-12-21,1,,,,,イドマーニ,0
709,4010001241019,新規,0,2023-12-21,2023-12-21,株式会社ｍｙｂａｓｅ,,株式会社,東京都,中央区,銀座１丁目１２番４号Ｎ＆ＥＢＬＤ．６Ｆ,,13,102,1040061,,,,,,,2023-12-21,1,,,,,マイベース,0
714,4010003042497,新規,0,2023-12-21,2023-12-21,ガドレマリンジャパン合同会社,,合同会社,東京都,千代田区,霞が関３丁目２番６号東京倶楽部ビルディング１１階,,13,101,1000013,,,,,,,2023-12-21,1,,,,,ガドレマリンジャパン,0
715,4010003042514,新規,0,2023-12-21,2023-12-21,ＶａｌＶ　Ｄｅｓｉｇｎ合同会社,,合同会社,東京都,千代田区,神田和泉町１番地６－１６ヤマトビル４０５,,13,101,1010024,,,,,,,2023-12-21,1,,,,,バルブデザイン,0
722,4010401179313,新規,0,2023-12-21,2023-12-21,株式会社ＴＭ,,株式会社,東京都,港区,南青山５丁目４－５１シャトー青山第一５０１,,13,103,1070062,,,,,,,2023-12-21,1,,,,,ティーエム,0
724,4010403031612,新規,0,2023-12-21,2023-12-21,白金台アセットマネジメント合同会社,,合同会社,東京都,港区,白金台３丁目７番１８号,,13,103,1080071,,,,,,,2023-12-21,1,,,,,シロカネダイアセットマネジメント,0
725,4010403031637,新規,0,2023-12-21,2023-12-21,合同会社ＧＳＦＲ３,,合同会社,東京都,港区,西新橋３丁目５番２号,,13,103,1050003,,,,,,,2023-12-21,1,,,,,ジーエスエフアールスリー,0
726,4010405022808,新規,0,2023-12-21,2023-12-21,一般社団法人ＧＳＦＲ１,,その他の設立登記法人,東京都,港区,西新橋３丁目５番２号,,13,103,1050003,,,,,,,2023-12-21,1,,,,,ジーエスエフアールワン,0
729,4010501051537,新規,0,2023-12-21,2023-12-21,株式会社Ａｔｔｉｃ,,株式会社,東京都,台東区,三筋１丁目７番２－５０１号,,13,106,1110055,,,,,,,2023-12-21,1,,,,,アティック,0
730,4010503007264,新規,0,2023-12-21,2023-12-21,合同会社ｙｕｉｎｏｙａ,,合同会社,東京都,台東区,浅草２丁目７－２１,,13,106,1110032,,,,,,,2023-12-21,1,,,,,ユイノヤ,0
735,4010601064364,新規,0,2023-12-21,2023-12-21,永楽株式会社,,株式会社,東京都,江東区,東砂５丁目５番６－４０６号,,13,108,1360074,,,,,,,2023-12-21,1,,,,,エイラク,0
738,4010603010531,新規,0,2023-12-21,2023-12-21,プルーツガール合同会社,,合同会社,東京都,江東区,豊洲３丁目５番３－１００８号,,13,108,1350061,,,,,,,2023-12-21,1,,,,,プルーツガール,0
740,4010701045306,新規,0,2023-12-21,2023-12-21,株式会社ＤＥＰ　ｆ,,株式会社,東京都,品川区,東五反田４丁目８－１１,,13,109,1410022,,,,,,,2023-12-21,1,,,,,デップエフ,0
752,4011003018116,新規,0,2023-12-21,2023-12-21,ＦＴＬ合同会社,,合同会社,東京都,渋谷区,鶯谷町１９－３ＦＩＮＯ渋谷１０８号室,,13,113,1500032,,,,,,,2023-12-21,1,,,,,エフティーエル,0
757,4011101105575,新規,0,2023-12-21,2023-12-21,株式会社ランドリーアイテック,,株式会社,東京都,新宿区,神楽坂３丁目４番地神楽坂山本ビル６階,,13,104,1620825,,,,,,,2023-12-21,1,,,,,ランドリーアイテック,0
759,4011103013891,新規,0,2023-12-21,2023-12-21,Ｂｏｏｋｍａｒｋ＆Ｌｉｇｈｔ合同会社,,合同会社,東京都,新宿区,西新宿３丁目３番１３号西新宿水間ビル２Ｆ,,13,104,1600023,,,,,,,2023-12-21,1,,,,,ブックマークアンドライト,0
760,4011201025129,新規,0,2023-12-21,2023-12-21,株式会社アイクレイト,,株式会社,東京都,中野区,中野５丁目６７番７号プラザ中野８０１,,13,114,1640001,,,,,,,2023-12-21,1,,,,,アイクレイト,0
763,4011401025721,新規,0,2023-12-21,2023-12-21,株式会社イーリス,,株式会社,東京都,板橋区,三園１丁目４４番２１号,,13,119,1750091,,,,,,,2023-12-21,1,,,,,イーリス,0
765,4011501030126,新規,0,2023-12-21,2023-12-21,株式会社Ｍｉｒａｉｎｅｔ　Ｙ,,株式会社,東京都,北区,赤羽１丁目７－９赤羽第一葉山ビル４Ｆ,,13,117,1150045,,,,,,,2023-12-21,1,,,,,ミライネットユウ,0
771,4012401041345,新規,0,2023-12-21,2023-12-21,株式会社アイテック,,株式会社,東京都,稲城市,東長沼５５０－１,,13,225,2060802,,,,,,,2023-12-21,1,,,,,アイテック,0
774,4012705002381,新規,0,2023-12-21,2023-12-21,行政書士法人大沢栄一事務所,,その他の設立登記法人,東京都,東久留米市,東本町１４番１７号ファーストパレス,,13,222,2030014,,,,,,,2023-12-21,1,,,,,オオサワエイイチジムショ,0
776,4013303006931,新規,0,2023-12-21,2023-12-21,ＫＵＭＡＲＩ合同会社,,合同会社,東京都,豊島区,目白４丁目３６番８号目白ハイム１０２号,,13,116,1710031,,,,,,,2023-12-21,1,,,,,クマリ,0
781,4020001154995,新規,0,2023-12-21,2023-12-21,株式会社ビットマネジメント,,株式会社,神奈川県,川崎市幸区,鹿島田１丁目１番５－１８１６号,,14,132,2120058,,,,,,,2023-12-21,1,,,,,,0
784,4020003025229,新規,0,2023-12-21,2023-12-21,合同会社ミスト,,合同会社,神奈川県,横浜市港北区,大曽根２丁目２４－４５,,14,109,2220003,,,,,,,2023-12-21,1,,,,,ミスト,0
795,4021001080975,新規,0,2023-12-21,2023-12-21,株式会社ブリッジ,,株式会社,神奈川県,大和市,中央４丁目１番２４号５Ｆ,,14,213,2420021,,,,,,,2023-12-21,1,,,,,ブリッジ,0
796,4021001081024,新規,0,2023-12-21,2023-12-21,株式会社エヌイチ,,株式会社,神奈川県,大和市,下鶴間２７７７－５－６－６１２,,14,213,2420001,,,,,,,2023-12-21,1,,,,,エヌイチ,0
800,4021003013933,新規,0,2023-12-21,2023-12-21,さいかわ経営サポート合同会社,,合同会社,神奈川県,相模原市中央区,鹿沼台１丁目１５－１,,14,152,2520233,,,,,,,2023-12-21,1,,,,,サイカワケイエイサポート,0
810,4040001131456,新規,0,2023-12-21,2023-12-21,株式会社Ｂｕｉｌｄ,,株式会社,千葉県,船橋市,前原東５丁目７番９号,,12,204,2740824,,,,,,,2023-12-21,1,,,,,ビルド,0
812,4040003023949,新規,0,2023-12-21,2023-12-21,合同会社ｃｈａｍｅｌｅｏｎ,,合同会社,千葉県,千葉市中央区,東千葉１丁目２番２１号,,12,101,2600041,,,,,,,2023-12-21,1,,,,,カメレオン,0
813,4040003023973,新規,0,2023-12-21,2023-12-21,合同会社雲竜,,合同会社,千葉県,松戸市,新松戸２丁目２１５番地１ルリコーポ松戸１０２号室,,12,207,2700034,,,,,,,2023-12-21,1,,,,,ウンリュウ,0
818,4050001054004,新規,0,2023-12-21,2023-12-21,株式会社Ｉ,,株式会社,茨城県,猿島郡境町,大字内門５４７,,08,546,3060414,,,,,,,2023-12-21,1,,,,,,0
819,4050003008016,新規,0,2023-12-21,2023-12-21,Ｄａｗｏｏｄ　Ｔｒａｄｅｒｓ合同会社,,合同会社,茨城県,筑西市,藤ケ谷２０９１番地ロマ１０２号,,08,227,3080112,,,,,,,2023-12-21,1,,,,,ダウッドトレーダーズ,0
826,4070001041124,新規,0,2023-12-21,2023-12-21,ＦＯＲＺＡ　ＴＲＡＤＩＮＧ株式会社,,株式会社,群馬県,太田市,浜町３０番地１２竹川ハイツ３０８,,10,205,3730853,,,,,,,2023-12-21,1,,,,,,0
834,4090001018467,新規,0,2023-12-21,2023-12-21,株式会社ｍａｕｖｅ　ｒｏａｄ,,株式会社,山梨県,大月市,七保町林６５７番地,,19,206,4090624,,,,,,,2023-12-21,1,,,,,モーブロード,0
837,4100003007318,新規,0,2023-12-21,2023-12-21,合同会社松本ベース,,合同会社,長野県,塩尻市,大字旧塩尻５５６番地１,,20,215,3990723,,,,,,,2023-12-21,1,,,,,マツモトベース,0
848,4120001260800,新規,0,2023-12-21,2023-12-21,株式会社ウィルフリーキャリア,,株式会社,大阪府,大阪市住吉区,我孫子３丁目１番２９－５０５号,,27,120,5580014,,,,,,,2023-12-21,1,,,,,ウィルフリーキャリア,0
849,4120001260809,新規,0,2023-12-21,2023-12-21,株式会社ＳＴｅＬＡ,,株式会社,大阪府,大阪市阿倍野区,天王寺町南３丁目１番１１－８０４号,,27,119,5450002,,,,,,,2023-12-21,1,,,,,ステラ,0
850,4120001260817,新規,0,2023-12-21,2023-12-21,株式会社Ｌ’ｓ　ｃｏｍｐａｎｙ,,株式会社,大阪府,大阪市大正区,泉尾５丁目１番１０－７０１号,,27,108,5510031,,,,,,,2023-12-21,1,,,,,エルズカンパニー,0
860,4120003025557,新規,0,2023-12-21,2023-12-21,合同会社ＣＨＩＫＡＹＡ,,合同会社,大阪府,大阪市北区,本庄西１丁目１番７－３３０９号,,27,127,5310073,,,,,,,2023-12-21,1,,,,,チカヤ,0
861,4120003025581,新規,0,2023-12-21,2023-12-21,合同会社社,,合同会社,大阪府,大阪市東成区,東小橋１丁目４－１２コスモレジデンス玉造,,27,115,5370024,,,,,,,2023-12-21,1,,,,,ヤシロ,0
867,4120101068747,新規,0,2023-12-21,2023-12-21,株式会社Ａ‐ｃｒｅｗ,,株式会社,大阪府,泉南郡岬町,深日３２７６－６２,,27,366,5990303,,,,,,,2023-12-21,1,,,,,エークルー,0
870,4120901048519,新規,0,2023-12-21,2023-12-21,株式会社アール＆ジェイ,,株式会社,大阪府,箕面市,小野原西３丁目２０番３２号,,27,220,5620032,,,,,,,2023-12-21,1,,,,,アールアンドジェイ,0
872,4122001037674,新規,0,2023-12-21,2023-12-21,株式会社リーゼン,,株式会社,大阪府,東大阪市,小阪本町２丁目１番５号,,27,227,5770802,,,,,,,2023-12-21,1,,,,,リーゼン,0
878,4140001132741,新規,0,2023-12-21,2023-12-21,株式会社ジェムサイ,,株式会社,兵庫県,神戸市東灘区,魚崎南町４丁目１０番８号１０３,,28,101,6580025,,,,,,,2023-12-21,1,,,,,ジェムサイ,0
880,4140005026849,新規,0,2023-12-21,2023-12-21,医療法人社団たつの南眼科,,その他の設立登記法人,兵庫県,たつの市,揖保川町神戸北山２２３番地３,,28,229,6711643,,,,,,,2023-12-21,1,,,,,タツノミナミガンカ,0
881,4140005026857,新規,0,2023-12-21,2023-12-21,ＮＰＯ法人ある,,その他の設立登記法人,兵庫県,西宮市,大屋町３２番２１号ムーンパレス１０１号,,28,204,6638106,,,,,,,2023-12-21,1,,,,,,0
882,4160003003071,新規,0,2023-12-21,2023-12-21,合同会社ｖｏｌｅｔ,,合同会社,滋賀県,大津市,際川２丁目２１番２５号,,25,201,5200002,,,,,,,2023-12-21,1,,,,,ヴォレット,0
885,4180001159401,新規,0,2023-12-21,2023-12-21,光輝インターナショナル株式会社,,株式会社,愛知県,名古屋市熱田区,二番２丁目１１番１号あつた荘南館１５号室,,23,109,4560052,,,,,,,2023-12-21,1,,,,,コウキインターナショナル,0
886,4180001159442,新規,0,2023-12-21,2023-12-21,株式会社ＰＥＰ,,株式会社,愛知県,名古屋市港区,稲永１丁目１０番８号,,23,111,4550842,,,,,,,2023-12-21,1,,,,,ペップ,0
887,4180001159459,新規,0,2023-12-21,2023-12-21,株式会社ｂｅｎｃｈ,,株式会社,愛知県,北名古屋市,熊之庄江川６９番地サンファミリア１０１,,23,234,4810006,,,,,,,2023-12-21,1,,,,,ベンチ,0
895,4180003026137,新規,0,2023-12-21,2023-12-21,合同会社ＳＴサービス,,合同会社,愛知県,名古屋市南区,呼続４丁目２１番３号ＣＨＥＺＭＯＩ桜２０５号,,23,112,4570014,,,,,,,2023-12-21,1,,,,,エスティサービス,0
897,4180005020468,新規,0,2023-12-21,2023-12-21,医療法人ＭＰＣ,,その他の設立登記法人,愛知県,名古屋市緑区,梅里２丁目５番１,,23,114,4580001,,,,,,,2023-12-21,1,,,,,エムピーシー,0
898,4180301038156,新規,0,2023-12-21,2023-12-21,株式会社しあわせのえき,,株式会社,愛知県,安城市,桜井町三度山５９,,23,212,4441154,,,,,,,2023-12-21,1,,,,,シアワセノエキ,0
899,4180303005939,新規,0,2023-12-21,2023-12-21,松金合同会社,,合同会社,愛知県,みよし市,三好町中鯰ヶ池８８番地の１,,23,236,4700224,,,,,,,2023-12-21,1,,,,,マツキン,0
900,4190001030973,新規,0,2023-12-21,2023-12-21,ＮＥＯＳｔｒａｄｉｎｇ株式会社,,株式会社,三重県,四日市市,堀木１丁目２番２５－４０７号コープ野村四日市,,24,202,5100076,,,,,,,2023-12-21,1,,,,,ネオストレーディング,0
910,4240001062581,新規,0,2023-12-21,2023-12-21,株式会社玖島,,株式会社,広島県,広島市中区,東千田町２丁目６番１３－１号,,34,101,7300053,,,,,,,2023-12-21,1,,,,,クジマ,0
916,4260005011302,新規,0,2023-12-21,2023-12-21,ロイヤルガーデン東古松管理組合法人,,その他の設立登記法人,岡山県,岡山市北区,東古松２丁目１２番２６号,,33,101,7000921,,,,,,,2023-12-21,1,,,,,ロイヤルガーデンヒガシフルマツ,0
921,4290001104148,新規,0,2023-12-21,2023-12-21,Ｒ＆Ｃエステート株式会社,,株式会社,福岡県,福岡市南区,平和２丁目１番１０－２０５号,,40,134,8150071,,,,,,,2023-12-21,1,,,,,アールアンドシーエステート,0
923,4290003014766,新規,0,2023-12-21,2023-12-21,合同会社Ａｎｇｅｌ,,合同会社,福岡県,福岡市西区,姪の浜６丁目１番７－１１０号ウェストハイツナラザキＢ,,40,135,8190002,,,,,,,2023-12-21,1,,,,,,0
924,4290003014782,新規,0,2023-12-21,2023-12-21,プロジェクトエイス合同会社,,合同会社,福岡県,糟屋郡宇美町,貴船３丁目６番８号,,40,341,8112131,,,,,,,2023-12-21,1,,,,,プロジェクトエイス,0
936,4320001020192,新規,0,2023-12-21,2023-12-21,株式会社リイトル,,株式会社,大分県,別府市,田の湯町１２番２５号,,44,202,8740909,,,,,,,2023-12-21,1,,,,,リイトル,0
937,4340001026147,新規,0,2023-12-21,2023-12-21,株式会社ＢＩ‐ＮＩ,,株式会社,鹿児島県,鹿屋市,寿４丁目３０９６番４号,,46,203,8930014,,,,,,,2023-12-21,1,,,,,ビーニ,0
941,4360001032969,新規,0,2023-12-21,2023-12-21,株式会社かむなで,,株式会社,沖縄県,うるま市,みどり町５丁目１９番１号１Ｆ,,47,213,9042215,,,,,,,2023-12-21,1,,,,,カムナデ,0
942,4360003013562,新規,0,2023-12-21,2023-12-21,合同会社Ｋａｎｏａ　Ｎａｈａ,,合同会社,沖縄県,那覇市,泊１丁目４－７中之橋桜マンション７０１,,47,201,9000012,,,,,,,2023-12-21,1,,,,,カノアナハ,0
946,4380001034204,新規,0,2023-12-21,2023-12-21,株式会社ＣｌｅａｒＶｉｌｌａ,,株式会社,福島県,郡山市,駅前２丁目７番１０号,,07,203,9638002,,,,,,,2023-12-21,1,,,,,クリアヴィラ,0
953,4410001013674,新規,0,2023-12-21,2023-12-21,株式会社ｅｔｏ,,株式会社,秋田県,秋田市,東通８丁目２－８ワオタスビル２号室,,05,201,0100003,,,,,,,2023-12-21,1,,,,,エト,0
957,4430003015766,新規,0,2023-12-21,2023-12-21,合同会社マルハ橋本,,合同会社,北海道,札幌市中央区,南三条東１丁目７,,01,101,0600053,,,,,,,2023-12-21,1,,,,,マルハハシモト,0
960,4430005014849,新規,0,2023-12-21,2023-12-21,特定非営利活動法人文化向上心倶楽部,,その他の設立登記法人,北海道,札幌市中央区,南六条西３丁目６－１０第１ススキノビル４Ｆ,,01,101,0640806,,,,,,,2023-12-21,1,,,,,ブンカコウジョウシンクラブ,0
961,4470001019947,新規,0,2023-12-21,2023-12-21,株式会社Ｃｉｇａｒ　Ｖｉｓｉｏｎ,,株式会社,香川県,高松市,亀井町４番地３,,37,201,7600050,,,,,,,2023-12-21,1,,,,,シガーヴィジョン,0
966,4500001025363,新規,0,2023-12-21,2023-12-21,株式会社ｍｉｇｎｏｎ,,株式会社,愛媛県,松山市,祝谷東町乙７３７番地１,,38,201,7900835,,,,,,,2023-12-21,1,,,,,ミニョン,0
967,4700150122932,新規,0,2023-12-21,2023-12-21,ＭＡＬＩＫ　ＩＯＬ,,外国会社等,茨城県,猿島郡境町,大字栗山大字向山４９０－７,,08,546,3060412,パキスタン・イスラム共和国、ＫＰＫ－２５０００、ペシャワル、メインユニバースティーロード、パヤン、テカル、テマスカーンビルディング、番号Ｂ－１４－１７、スート,,,,,,2023-12-21,1,,,,,マリクイオル,0
978,5010003042496,新規,0,2023-12-21,2023-12-21,合同会社ＳＯＳｉＬＡプライベートファンド１,,合同会社,東京都,中央区,八丁堀４丁目２番１０号ＡＯＪ税理士法人内,,13,102,1040032,,,,,,,2023-12-21,1,,,,,ソシラプライベートファンドファースト,0
979,5010003042513,新規,0,2023-12-21,2023-12-21,合同会社ＲＹＭ．ａｇｅｎｃｙ,,合同会社,東京都,中央区,銀座１丁目１２番４号,,13,102,1040061,,,,,,,2023-12-21,1,,,,,リムエージェンシー,0
980,5010003042521,新規,0,2023-12-21,2023-12-21,キラリズム合同会社,,合同会社,東京都,中央区,日本橋室町１丁目１１番１２号日本橋水野ビル７階,,13,102,1030022,,,,,,,2023-12-21,1,,,,,キラリズム,0
994,5010401179361,新規,0,2023-12-21,2023-12-21,株式会社シグサ．,,株式会社,東京都,港区,南青山４丁目１１番３号ドルチェ青山３０２号室,,13,103,1070062,,,,,,,2023-12-21,1,,,,,シグサ,0
995,5010403031611,新規,0,2023-12-21,2023-12-21,合同会社ＮＪＣ,,合同会社,東京都,港区,芝浦４丁目２番２２－９０３号,,13,103,1080023,,,,,,,2023-12-21,1,,,,,エヌジェーシー,0
996,5010403031636,新規,0,2023-12-21,2023-12-21,合同会社ＧＳＦＲ２,,合同会社,東京都,港区,西新橋３丁目５番２号,,13,103,1050003,,,,,,,2023-12-21,1,,,,,ジーエスエフアールツー,0
997,5010405022781,新規,0,2023-12-21,2023-12-21,一般社団法人エイエイチ,,その他の設立登記法人,東京都,港区,赤坂５丁目３番１号赤坂Ｂｉｚタワーアネックス２階,,13,103,1070052,,,,,,,2023-12-21,1,,,,,エイエイチ,0
1003,5010601064371,新規,0,2023-12-21,2023-12-21,株式会社ａｄｄｉｃｔ,,株式会社,東京都,江東区,東陽４丁目２番５号小林ビル３Ｆ,,13,108,1350016,,,,,,,2023-12-21,1,,,,,アディクト,0
1006,5010603010539,新規,0,2023-12-21,2023-12-21,合同会社エキゾチックピーポーズ,,合同会社,東京都,墨田区,太平１丁目２５－７メゾンドソレイユＩＩ２０１,00133065,13,107,1300012,,,,,,,2023-12-21,1,,,,,エキゾチックピーポーズ,0
1007,5010605004274,新規,0,2023-12-21,2023-12-21,一般社団法人Ｎｅｐａｌｉ　Ｐｅｏｐｌｅ　Ｓｕｐｐｏｒｔ　Ｃｅｎｔｅｒ,,その他の設立登記法人,東京都,江東区,亀戸４丁目２３番２－１１０１号,,13,108,1360071,,,,,,,2023-12-21,1,,,,,ネパリピープルサポートセンター,0
1010,5010701045305,新規,0,2023-12-21,2023-12-21,株式会社７ｓｈｏｔ,,株式会社,東京都,品川区,西品川１丁目１－１住友不動産大崎ガーデンタワー９階,,13,109,1410033,,,,,,,2023-12-21,1,,,,,セブンショット,0
1017,5010903008670,新規,0,2023-12-21,2023-12-21,合同会社ｇｒｅｅｎｒｏｏｍ,,合同会社,東京都,世田谷区,祖師谷６丁目１４番２１号,,13,112,1570072,,,,,,,2023-12-21,1,,,,,グリーンルーム,0
1026,5011001158994,新規,0,2023-12-21,2023-12-21,ＨＩＧＨＴＩＤＥ株式会社,,株式会社,東京都,渋谷区,神宮前２丁目３１番７号,,13,113,1500001,,,,,,,2023-12-21,1,,,,,ハイタイド,0
1027,5011001159002,新規,0,2023-12-21,2023-12-21,ミークインターナショナル株式会社,,株式会社,東京都,渋谷区,恵比寿南１丁目１４番２号,,13,113,1500022,,,,,,,2023-12-21,1,,,,,ミークインターナショナル,0
1030,5011003018131,新規,0,2023-12-21,2023-12-21,Ａｃａｄｉａ　Ｌａｂｓ合同会社,,合同会社,東京都,渋谷区,神宮前６丁目２９－４原宿Ｋｏｍｉｙａビル６階,,13,113,1500001,,,,,,,2023-12-21,1,,,,,アケイディアラボ,0
1031,5011003018156,新規,0,2023-12-21,2023-12-21,ＨｏｌｌｏｗＢｙｔｅ合同会社,,合同会社,東京都,渋谷区,渋谷２丁目１９－１５宮益坂ビルディング６０９,,13,113,1500002,,,,,,,2023-12-21,1,,,,,ホロウバイト,0
1038,5011403004210,新規,0,2023-12-21,2023-12-21,合同会社テラジ,,合同会社,東京都,板橋区,高島平７丁目１６－１,,13,119,1750082,,,,,,,2023-12-21,1,,,,,テラジ,0
1040,5011601027401,新規,0,2023-12-21,2023-12-21,株式会社Ｆｏｒｅｓｔ　Ｌａｋｅ,,株式会社,東京都,練馬区,石神井町８丁目４２番９号,,13,120,1770041,,,,,,,2023-12-21,1,,,,,フォレストレイク,0
1042,5011701026872,新規,0,2023-12-21,2023-12-21,株式会社Ｏｎｌｙ　Ｄｒｅａｍ,,株式会社,東京都,江戸川区,松江５丁目９番４号サニー松江７０５,,13,123,1320025,,,,,,,2023-12-21,1,,,,,オンリードリーム,0
1043,5011703003696,新規,0,2023-12-21,2023-12-21,合同会社西田工業,,合同会社,東京都,江戸川区,東葛西６丁目２５番１８－６０１号ＫＳドリームウィング,,13,123,1340084,,,,,,,2023-12-21,1,,,,,ニシダコウギョウ,0
1046,5012401041352,新規,0,2023-12-21,2023-12-21,株式会社きらくに,,株式会社,東京都,三鷹市,井の頭４丁目１９番２号,,13,204,1810001,,,,,,,2023-12-21,1,,,,,キラクニ,0
1048,5013301051796,新規,0,2023-12-21,2023-12-21,株式会社大久保グループ,,株式会社,東京都,豊島区,東池袋１丁目３４番５号いちご東池袋ビル６階,,13,116,1700013,,,,,,,2023-12-21,1,,,,,オオクボグループ,0
1064,5020001155035,新規,0,2023-12-21,2023-12-21,株式会社ＴＯＭＵＲ　ＤＡＷＡＭＡＴ,,株式会社,神奈川県,横浜市港北区,綱島東２丁目６－３－２０２,,14,109,2230052,,,,,,,2023-12-21,1,,,,,トムルダワマト,0
1066,5020003025228,新規,0,2023-12-21,2023-12-21,合同会社Ｓｉｅｓｔａ　ｇａｒｄｅｎ,,合同会社,神奈川県,横浜市神奈川区,新子安１丁目１７番１－１０１号,,14,102,2210013,,,,,,,2023-12-21,1,,,,,シエスタガーデン,0
1069,5021001081023,新規,0,2023-12-21,2023-12-21,株式会社ｈｙｒｅｓ１,,株式会社,神奈川県,平塚市,北金目３丁目３１番６号,,14,203,2591207,,,,,,,2023-12-21,1,,,,,ハイレーズワン,0
1073,5021003013924,新規,0,2023-12-21,2023-12-21,合同会社ＬＩ,,合同会社,神奈川県,大和市,南林間５丁目３番１７号,,14,213,2420006,,,,,,,2023-12-21,1,,,,,エルアイ,0
1081,5030001157807,新規,0,2023-12-21,2023-12-21,株式会社相模装建,,株式会社,埼玉県,さいたま市大宮区,桜木町１丁目２６６番地３シンワＫＩビル２Ｆ,,11,103,3300854,,,,,,,2023-12-21,1,,,,,サガミソウケン,0
1085,5030003023263,新規,0,2023-12-21,2023-12-21,四ツ目菌床合同会社,,合同会社,埼玉県,久喜市,菖蒲町菖蒲１２１４番地,,11,232,3460106,,,,,,,2023-12-21,1,,,,,ヨツメキンショウ,0
1086,5030003023288,新規,0,2023-12-21,2023-12-21,合同会社Ｒｅｌｉｆｅ,,合同会社,埼玉県,さいたま市中央区,上落合７丁目７‐２‐２８０６,,11,105,3380001,,,,,,,2023-12-21,1,,,,,リライフ,0
1090,5040001131430,新規,0,2023-12-21,2023-12-21,株式会社ブルーバード,,株式会社,千葉県,千葉市緑区,古市場町９０７番地１５,,12,105,2660026,,,,,,,2023-12-21,1,,,,,ブルーバード,0
1091,5040001131447,新規,0,2023-12-21,2023-12-21,株式会社デンタルクラス,,株式会社,千葉県,千葉市中央区,登戸１丁目１４番２１－１００１号,,12,101,2600032,,,,,,,2023-12-21,1,,,,,デンタルクラス,0
1094,5040003023948,新規,0,2023-12-21,2023-12-21,合同会社Ｆｏｒｍａｔ,,合同会社,千葉県,市川市,新田３丁目２１番３号,,12,203,2720035,,,,,,,2023-12-21,1,,,,,フォーマット,0
1095,5040003023956,新規,0,2023-12-21,2023-12-21,合同会社エコグリーン,,合同会社,千葉県,柏市,柏の葉３丁目２番地２１,,12,217,2770882,,,,,,,2023-12-21,1,,,,,エコグリーン,0
1097,5050001054003,新規,0,2023-12-21,2023-12-21,株式会社エイチワイ,,株式会社,茨城県,小美玉市,小川１３９番地１８,,08,236,3113423,,,,,,,2023-12-21,1,,,,,エイチワイ,0
1098,5060001036636,新規,0,2023-12-21,2023-12-21,株式会社ツクモ設計,,株式会社,栃木県,足利市,大沼田町３０９番地,,09,202,3260011,,,,,,,2023-12-21,1,,,,,ツクモセッケイ,0
1103,5070001041214,新規,0,2023-12-21,2023-12-21,株式会社ｊ．ｃｏｎｎｅｃｔ　ａｎｄ　ｈａｒｍｏｎｙ,,株式会社,群馬県,高崎市,上中居町２８０番地２,,10,202,3700851,,,,,,,2023-12-21,1,,,,,ジェイコネクトアンドハーモニー,0
1109,5090001018474,新規,0,2023-12-21,2023-12-21,株式会社五成,,株式会社,山梨県,中巨摩郡昭和町,飯喰１３５４番地１ウイングタウン３号室,,19,384,4093852,,,,,,,2023-12-21,1,,,,,ゴセイ,0
1114,5110001038049,新規,0,2023-12-21,2023-12-21,株式会社ｒｅｖｅｉｎ,,株式会社,新潟県,南蒲原郡田上町,大字田上丁１９１８番地４８,,15,361,9591502,,,,,,,2023-12-21,1,,,,,リヴェイン,0
1128,5120001260741,新規,0,2023-12-21,2023-12-21,株式会社桃太郎カンパーニ,,株式会社,大阪府,大阪市東成区,大今里南６丁目２番２号,,27,115,5370013,,,,,,,2023-12-21,1,,,,,モモタロウカンパーニ,0
1129,5120001260816,新規,0,2023-12-21,2023-12-21,喜楽株式会社,,株式会社,大阪府,大阪市淀川区,西中島５丁目１番８－４０３号,,27,123,5320011,,,,,,,2023-12-21,1,,,,,キラク,0
1137,5120101068713,新規,0,2023-12-21,2023-12-21,株式会社ｍａｎｙ　ｃｈｉｌｄｒｅｎ,,株式会社,大阪府,堺市南区,三原台３丁４０番４－４０１号,,27,145,5900111,,,,,,,2023-12-21,1,,,,,メニーチルドレン,0
1142,5122003002758,新規,0,2023-12-21,2023-12-21,合同会社Ａｉｗａ,,合同会社,大阪府,東大阪市,西堤１丁目１番１２号,,27,227,5770042,,,,,,,2023-12-21,1,,,,,アイワ,0
1151,5140003019952,新規,0,2023-12-21,2023-12-21,合同会社ａｍａｎｅ,,合同会社,兵庫県,西宮市,甲子園浜田町四丁目１８ラ．マドレー甲子園００１,,28,204,6638167,,,,,,,2023-12-21,1,,,,,アマネ,0
1152,5140005026848,新規,0,2023-12-21,2023-12-21,一般社団法人加古川フラッグフットボール協会,,その他の設立登記法人,兵庫県,加古川市,野口町古大内３４９番地の１６,,28,210,6750014,,,,,,,2023-12-21,1,,,,,カコガワフラッグフットボールキョウカイ,0
1153,5140005026856,新規,0,2023-12-21,2023-12-21,一般社団法人アメノヒボコ土木サロン,,その他の設立登記法人,兵庫県,豊岡市,出石町宮内９９番地出石神社社務所内,,28,209,6680204,,,,,,,2023-12-21,1,,,,,,0
1163,5170001017939,新規,0,2023-12-21,2023-12-21,株式会社ｓｔａｒ　ｌｉｎｋ,,株式会社,和歌山県,海南市,且来４３９－１,,30,202,6420015,,,,,,,2023-12-21,1,,,,,スターリンク,0
1166,5180001159441,新規,0,2023-12-21,2023-12-21,株式会社ＯｒｉｇｉＮｅ,,株式会社,愛知県,東海市,加木屋町論田５番地１５８,,23,222,4770032,,,,,,,2023-12-21,1,,,,,オリジン,0
1167,5180001159458,新規,0,2023-12-21,2023-12-21,株式会社りゅう龍,,株式会社,愛知県,半田市,岩滑東町１丁目１１９番地の１,,23,205,4750905,,,,,,,2023-12-21,1,,,,,リュウリュウ,0
1168,5180001159466,新規,0,2023-12-21,2023-12-21,ミズノＢ‐ＺＯＮＥ株式会社,,株式会社,愛知県,名古屋市中区,大須２丁目３０番７号２Ｆ,,23,106,4600011,,,,,,,2023-12-21,1,,,,,ミズノビーゾーン,0
1171,5180005020467,新規,0,2023-12-21,2023-12-21,一般社団法人オリ猫シェルター,,その他の設立登記法人,愛知県,名古屋市守山区,瀬古東３丁目１１８４番地,,23,113,4630090,,,,,,,2023-12-21,1,,,,,オリネコシェルター,0
1172,5180303005938,新規,0,2023-12-21,2023-12-21,竜一合同会社,,合同会社,愛知県,みよし市,三好町中鯰ヶ池８８番地の１,,23,236,4700224,,,,,,,2023-12-21,1,,,,,リュウイチ,0
1173,5180305009540,新規,0,2023-12-21,2023-12-21,医療法人安良会,,その他の設立登記法人,愛知県,豊橋市,二川町字中町５６番地,,23,201,4413155,,,,,,,2023-12-21,1,,,,,アンリョウカイ,0
1175,5190001030972,新規,0,2023-12-21,2023-12-21,株式会社倫駆,,株式会社,三重県,四日市市,七つ屋町７２番地Ｂ,,24,202,5100856,,,,,,,2023-12-21,1,,,,,リンク,0
1181,5230003002123,新規,0,2023-12-21,2023-12-21,合同会社佐藤施工サービス,,合同会社,富山県,富山市,萩原２３８番地３ラ・ページブル２０４号,,16,201,9398261,,,,,,,2023-12-21,1,,,,,サトウセコウサービス,0
1183,5240001062572,新規,0,2023-12-21,2023-12-21,株式会社えんがわ,,株式会社,広島県,広島市南区,松原町５番２－４２０６号,,34,103,7320822,,,,,,,2023-12-21,1,,,,,エンガワ,0
1185,5240003006461,新規,0,2023-12-21,2023-12-21,園山工業合同会社,,合同会社,広島県,福山市,瀬戸町大字長和１４９３番地９,,34,207,7200836,,,,,,,2023-12-21,1,,,,,ソノヤマコウギョウ,0
1194,5260001038579,新規,0,2023-12-21,2023-12-21,株式会社Ｋ・Ｒｅｂｏｒｎ,,株式会社,岡山県,岡山市北区,延友３２９番地１,,33,101,7010152,,,,,,,2023-12-21,1,,,,,ケイリボーン,0
1204,5290001104139,新規,0,2023-12-21,2023-12-21,株式会社九ちゃん,,株式会社,福岡県,福岡市早良区,城西３丁目１２番２１号,,40,137,8140003,,,,,,,2023-12-21,1,,,,,キュウチャン,0
1205,5290003014773,新規,0,2023-12-21,2023-12-21,合同会社Ｓｋｙｗａｌｋ,,合同会社,福岡県,糟屋郡粕屋町,酒殿２丁目１９番１５－４０５号メゾン・プルミエ,,40,349,8112303,,,,,,,2023-12-21,1,,,,,スカイウォーク,0
1211,5290803004569,新規,0,2023-12-21,2023-12-21,合同会社Ｏｎｅｓｔｅｐｆｏｗａｒｄ,,合同会社,福岡県,田川郡福智町,伊方２４３１－１５,,40,610,8221211,,,,,,,2023-12-21,1,,,,,ワンステップフォワード,0
1214,5330001031584,新規,0,2023-12-21,2023-12-21,株式会社一丸工研,,株式会社,熊本県,上天草市,大矢野町中９７３４番地３,,43,212,8693603,,,,,,,2023-12-21,1,,,,,イチマルコウケン,0
1215,5330001031592,新規,0,2023-12-21,2023-12-21,株式会社Ｋ＆Ｈ,,株式会社,熊本県,熊本市中央区,坪井６丁目３７番１１号,,43,101,8600863,,,,,,,2023-12-21,1,,,,,ケーアンドエイチ,0
1226,5370005010738,新規,0,2023-12-21,2023-12-21,一般社団法人ひっぽのみらい,,その他の設立登記法人,宮城県,伊具郡丸森町,筆甫字和田井４５,,04,341,9812201,,,,,,,2023-12-21,1,,,,,ヒッポノミライ,0
1227,5380001034203,新規,0,2023-12-21,2023-12-21,株式会社磐教,,株式会社,福島県,いわき市,平下平窪字鍛冶内２６番地,,07,204,9708003,,,,,,,2023-12-21,1,,,,,バンキョウ,0
1228,5390001017454,新規,0,2023-12-21,2023-12-21,株式会社東昇,,株式会社,山形県,山形市,大野目４丁目２番７号,,06,201,9900073,,,,,,,2023-12-21,1,,,,,トウショウ,0
1233,5430001090686,新規,0,2023-12-21,2023-12-21,株式会社ＳＥＣＯＮＤ　ＬＩＦＥ,,株式会社,北海道,札幌市手稲区,新発寒五条５丁目１２番６号,,01,109,0060805,,,,,,,2023-12-21,1,,,,,セカンドライフ,0
1234,5430001090694,新規,0,2023-12-21,2023-12-21,株式会社ＨＯＴＥＬ　ＳＴＵＤＩＯ,,株式会社,北海道,札幌市中央区,南八条西６丁目２８９－３０－１Ｆ,,01,101,0640808,,,,,,,2023-12-21,1,,,,,ホテルスタジオ,0
1245,5490001010663,新規,0,2023-12-21,2023-12-21,株式会社ジオ高知,,株式会社,高知県,香南市,野市町東野５５９番地５,,39,211,7815213,,,,,,,2023-12-21,1,,,,,ジオコウチ,0
1247,5700150112247,新規,0,2023-12-21,2023-12-21,Ｓｈｅｎｚｈｅｎ　ｅＭｅｅｔ　Ｔｅｃｈｎｏｌｏｇｙ　Ｃｏ　Ｌｔｄ,,外国会社等,,,,,,,,Ｚｈａｏｓｈａｎｇｊｕｇｕａｎｇｍｉｎｇｋｅｊｉｙｕａｎ　Ａ６ｄｏｎｇ２Ｃｄａｎｙｕａｎ　Ｆｅｎｇｈｕａｎｇｊｉｅｄａｏ　ｇｕａｎｇｕａｎｇｌｕ３００９ｈａｏ　Ｓｈｅｎｚｈｅｎｓｈｉ　Ｇｕａｎｇｍｉｎｇｑｕ,,,,,,2023-12-21,1,,,,,シェンジェンイーミートテクノロジーカンパニーリミテッド,0
1249,5700150122923,新規,0,2023-12-21,2023-12-21,ＲＡＫＳＵＬ　ＩＮＤＩＡ　ＰＲＩＶＡＴＥ　ＬＩＭＩＴＥＤ,,外国会社等,,,,,,,,１ｓｔ　＆　２ｎｄ　Ｆｌｏｏｒ，ＩＢＩＳ　Ｈｏｔｅｌ，Ｈｏｓｕｒ　Ｒｏａｄ，Ｂｏｍｍａｎａｈａｌｌｉ，Ｂｅｎｇａｌｕｒｕ,,,,,,2023-12-21,1,,,,,ラクスルインデイアプライベートリミテツド,0
1268,6010003042512,新規,0,2023-12-21,2023-12-21,Ｐｒｏｃｈｅ合同会社,,合同会社,東京都,中央区,銀座１丁目１２番４号Ｎ＆Ｅ．ＢＬＤ．６Ｆ,,13,102,1040061,,,,,,,2023-12-21,1,,,,,プロシュ,0
1270,6010105002240,新規,0,2023-12-21,2023-12-21,一般社団法人日本認知症美容協会,,その他の設立登記法人,東京都,八王子市,兵衛２丁目１０番５号,,13,201,1920918,,,,,,,2023-12-21,1,,,,,ニホンニンチショウビヨウキョウカイ,0
1276,6010403031635,新規,0,2023-12-21,2023-12-21,合同会社ＧＳＦＲ１,,合同会社,東京都,港区,西新橋３丁目５番２号,,13,103,1050003,,,,,,,2023-12-21,1,,,,,ジーエスエフアールワン,0
1278,6010501051535,新規,0,2023-12-21,2023-12-21,永晨株式会社,,株式会社,東京都,台東区,雷門２丁目６番２号マーナマリー浅草雷門ビル５階,,13,106,1110034,,,,,,,2023-12-21,1,,,,,エイシン,0
1279,6010503007262,新規,0,2023-12-21,2023-12-21,清紫堂合同会社,,合同会社,東京都,台東区,下谷２丁目２１番１４号,,13,106,1100004,,,,,,,2023-12-21,1,,,,,シムラサキドウ,0
1282,6010601064370,新規,0,2023-12-21,2023-12-21,株式会社Ｅｉｎ　Ｓｃｈａｔｚ,,株式会社,東京都,江東区,大島２丁目１０－２４,,13,108,1360072,,,,,,,2023-12-21,1,,,,,エインシャッツ,0
1284,6010603010538,新規,0,2023-12-21,2023-12-21,メガゲート合同会社,,合同会社,東京都,江東区,東砂２丁目１３番８－１０７号,,13,108,1360074,,,,,,,2023-12-21,1,,,,,メガゲート,0
1288,6010701045295,新規,0,2023-12-21,2023-12-21,株式会社Ｌｉｖｅｒｏ,,株式会社,東京都,品川区,上大崎３丁目３番９号秀和目黒駅前レジデンス１１０３号室,,13,109,1410021,,,,,,,2023-12-21,1,,,,,リベロ,0
1289,6010701045312,新規,0,2023-12-21,2023-12-21,株式会社ＢＯＮ,,株式会社,東京都,品川区,西品川１丁目２９番１２号ＣＳＲ品川,,13,109,1410033,,,,,,,2023-12-21,1,,,,,ボン,0
1301,6011001158977,新規,0,2023-12-21,2023-12-21,株式会社ＨＡ・ＲＵ,,株式会社,東京都,渋谷区,宇田川町２番１－１１２１号,,13,113,1500042,,,,,,,2023-12-21,1,,,,,ハル,0
1302,6011001158985,新規,0,2023-12-21,2023-12-21,株式会社ＳＵＮ,,株式会社,東京都,目黒区,目黒本町２丁目２８番１２－６０１号ドゥーエ学芸大学,,13,110,1520002,,,,,,,2023-12-21,1,,,,,サン,0
1303,6011003018139,新規,0,2023-12-21,2023-12-21,合同会社ＢＲＯＯＫ,,合同会社,東京都,目黒区,自由が丘１丁目２４－６ウィットゾン１Ｆ・ＢＲＯＯＫ,,13,110,1520035,,,,,,,2023-12-21,1,,,,,ブルック,0
1304,6011003018155,新規,0,2023-12-21,2023-12-21,合同会社ミムリー,,合同会社,東京都,渋谷区,道玄坂１丁目１０番８号渋谷道玄坂東急ビル２Ｆ－Ｃ,,13,113,1500043,,,,,,,2023-12-21,1,,,,,ミムリー,0
1305,6011003018171,新規,0,2023-12-21,2023-12-21,ＢＯＷ合同会社,,合同会社,東京都,渋谷区,元代々木町４－６ＴＭＫビル３階,,13,113,1510062,,,,,,,2023-12-21,1,,,,,バウ,0
1308,6011101105549,新規,0,2023-12-21,2023-12-21,株式会社ＹＧＤ‐Ｏ‐ＳＯＬＩＴＡＲＹ,,株式会社,東京都,新宿区,歌舞伎町２丁目２４番７号エコロ新宿第２ビル５０１号室,,13,104,1600021,,,,,,,2023-12-21,1,,,,,ワイジーディーオーソリタリー,0
1315,6011105010885,新規,0,2023-12-21,2023-12-21,一般社団法人ＴｒａｎｓｇｅｎｄｅｒＪａｐａｎ,,その他の設立登記法人,東京都,新宿区,西新宿３丁目３番１３号西新宿水間ビル６階,,13,104,1600023,,,,,,,2023-12-21,1,,,,,トランスジェンダージャパン,0
1321,6011701026871,新規,0,2023-12-21,2023-12-21,株式会社ルクシブ,,株式会社,東京都,江戸川区,西葛西６丁目１５番１１－４０６号,,13,123,1340088,,,,,,,2023-12-21,1,,,,,ルクシブ,0
1323,6011803006004,新規,0,2023-12-21,2023-12-21,ＭＵＳＫＡＮ合同会社,,合同会社,東京都,葛飾区,新小岩３丁目１０番２号有坂荘２０５号室,,13,122,1240024,,,,,,,2023-12-21,1,,,,,ムスカン,0
1324,6012401041351,新規,0,2023-12-21,2023-12-21,株式会社Ａｐｏｒｉａ,,株式会社,東京都,三鷹市,上連雀１丁目１２－１７三鷹ビジネスパーク１号館Ｂ１ＦＭｕｓａｓｈｉｎｏＶａｌｌｅｙ,,13,204,1810012,,,,,,,2023-12-21,1,,,,,アポリア,0
1337,6020001154977,新規,0,2023-12-21,2023-12-21,Ｓｕｎ＆Ｂｅａｍ株式会社,,株式会社,神奈川県,横浜市港北区,仲手原１丁目８－３３－１０４号室,,14,109,2220023,,,,,,,2023-12-21,1,,,,,サンアンドビーム,0
1344,6021003013873,新規,0,2023-12-21,2023-12-21,合同会社フラット,,合同会社,神奈川県,相模原市緑区,下九沢２９５８番地７プレンティーハイム２０５,,14,151,2520134,,,,,,,2023-12-21,1,,,,,フラット,0
1348,6030001157806,新規,0,2023-12-21,2023-12-21,ＣＲＯＭＡＲＴＩＥ　ＧＲＯＵＰ株式会社,,株式会社,埼玉県,越谷市,大字大松８６番地２,,11,222,3430004,,,,,,,2023-12-21,1,,,,,クロマティグループ,0
1349,6030001157822,新規,0,2023-12-21,2023-12-21,株式会社Ｃｈａｉｎ　Ａｆｆｅｃｔｉｏｎ,,株式会社,埼玉県,八潮市,大字南川崎５６０番地５,,11,234,3400814,,,,,,,2023-12-21,1,,,,,チェインアフェクション,0
1350,6030001157830,新規,0,2023-12-21,2023-12-21,株式会社ＩＭＳ,,株式会社,埼玉県,蕨市,錦町１丁目１番３号レオネクストペンタス１０２号,,11,223,3350005,,,,,,,2023-12-21,1,,,,,アイエムエス,0
1355,6030003023270,新規,0,2023-12-21,2023-12-21,合同会社ライト,,合同会社,埼玉県,狭山市,入間川３丁目１番７号ライオンズ狭山グランテラス９０８,,11,215,3501305,,,,,,,2023-12-21,1,,,,,ライト,0
1361,6040003023963,新規,0,2023-12-21,2023-12-21,合同会社ＭＩＹＵＫＩＴＣＨＥＮ,,合同会社,千葉県,千葉市若葉区,桜木北１丁目３１－１０,,12,104,2640029,,,,,,,2023-12-21,1,,,,,ミユキッチン,0
1364,6050001054002,新規,0,2023-12-21,2023-12-21,株式会社エイチエス,,株式会社,茨城県,小美玉市,小川１３９番地１８,,08,236,3113423,,,,,,,2023-12-21,1,,,,,エイチエス,0
1371,6080401026903,新規,0,2023-12-21,2023-12-21,株式会社ＳＥＧＮＡＨＣ,,株式会社,静岡県,袋井市,湊５２４番地の１,,22,216,4371115,,,,,,,2023-12-21,1,,,,,セグナーク,0
1372,6080401026911,新規,0,2023-12-21,2023-12-21,株式会社住工房スパイス,,株式会社,静岡県,浜松市中区,高丘北２丁目５６番２１号,,22,131,4338119,,,,,,,2023-12-21,1,,,,,ジュウコウボウスパイス,0
1380,6090001018473,新規,0,2023-12-21,2023-12-21,甲斐フルーツ株式会社,,株式会社,山梨県,山梨市,正徳寺５０８番地１,,19,205,4050032,,,,,,,2023-12-21,1,,,,,カイフルーツ,0
1381,6100003007316,新規,0,2023-12-21,2023-12-21,森の響きを纏う合同会社,,合同会社,長野県,塩尻市,大字洗馬字上小曽部４１０６番１,,20,215,3996462,,,,,,,2023-12-21,1,,,,,モリノヒビキヲマトウ,0
1390,6120001260781,新規,0,2023-12-21,2023-12-21,ＡＡＯ株式会社,,株式会社,大阪府,大阪市東住吉区,桑津１丁目１８番１５号太平パシフィック桑津４０１号,,27,121,5460041,,,,,,,2023-12-21,1,,,,,アーオ,0
1392,6120003025563,新規,0,2023-12-21,2023-12-21,合同会社Ｂｕｉｌｂｒａｃｅ,,合同会社,大阪府,大阪市北区,梅田１丁目１番３号大阪駅前第３ビル２９階１－１－１号室,,27,127,5300001,,,,,,,2023-12-21,1,,,,,ビルブレイス,0
1400,6120101068737,新規,0,2023-12-21,2023-12-21,株式会社ＡＧ設備,,株式会社,大阪府,藤井寺市,古室３丁目１番１５号（Ｄ号室）,,27,226,5830013,,,,,,,2023-12-21,1,,,,,エージーセツビ,0
1401,6120101068753,新規,0,2023-12-21,2023-12-21,株式会社ＳＫＭ,,株式会社,大阪府,堺市西区,鳳南町５丁４８６番地７ルイシャトレ鳳８１２号,,27,144,5938325,,,,,,,2023-12-21,1,,,,,エスケーエム,0
1403,6120901048500,新規,0,2023-12-21,2023-12-21,株式会社ＰＯＮ,,株式会社,大阪府,箕面市,船場西１丁目１３番２０号,,27,220,5620036,,,,,,,2023-12-21,1,,,,,ピーオーエヌ,0
1404,6120901048509,新規,0,2023-12-21,2023-12-21,株式会社エヌケイ,,株式会社,大阪府,茨木市,郡３丁目１２番２９号,,27,211,5670072,,,,,,,2023-12-21,1,,,,,エヌケイ,0
1415,6140005026847,新規,0,2023-12-21,2023-12-21,医療法人三剛,,その他の設立登記法人,兵庫県,加西市,北条町古坂７丁目２３番地,,28,220,6752303,,,,,,,2023-12-21,1,,,,,サンゴウ,0
1422,6180001159432,新規,0,2023-12-21,2023-12-21,株式会社ｎｅｇａｏｌｔａ,,株式会社,愛知県,名古屋市千種区,内山３丁目２５番６号一光千種ターミナルビルＢ１Ｆ,,23,101,4640075,,,,,,,2023-12-21,1,,,,,ネガオルタ,0
1423,6180001159449,新規,0,2023-12-21,2023-12-21,株式会社アイコムパス,,株式会社,愛知県,名古屋市中村区,岩塚町字小池１番地の９７,,23,105,4530862,,,,,,,2023-12-21,1,,,,,アイコムパス,0
1424,6180001159465,新規,0,2023-12-21,2023-12-21,株式会社ｋｉｂｏｋｏ,,株式会社,愛知県,名古屋市東区,東桜２丁目９番３４号成田ビル１Ｆ,,23,102,4610005,,,,,,,2023-12-21,1,,,,,キボコ,0
1425,6180001159481,新規,0,2023-12-21,2023-12-21,株式会社Ｍｕｕｍｕ,,株式会社,愛知県,名古屋市守山区,小幡３丁目１番２号,,23,113,4630011,,,,,,,2023-12-21,1,,,,,ムウム,0
1428,6180003026143,新規,0,2023-12-21,2023-12-21,ＫＡＹＡＬＩ合同会社,,合同会社,愛知県,津島市,越津町字中之郷５２番地,,23,208,4960022,,,,,,,2023-12-21,1,,,,,カヤリ,0
1429,6180303005945,新規,0,2023-12-21,2023-12-21,野木合同会社,,合同会社,愛知県,みよし市,三好町中鯰ヶ池８８番地の１,,23,236,4700224,,,,,,,2023-12-21,1,,,,,ノキ,0
1430,6190001030971,新規,0,2023-12-21,2023-12-21,株式会社ＢＳＳ松阪,,株式会社,三重県,松阪市,曽原町６６９番地１０フラワーヒルズ天白Ａ１０３,,24,204,5152112,,,,,,,2023-12-21,1,,,,,ビーエスエスマツサカ,0
1440,6250001020438,新規,0,2023-12-21,2023-12-21,ＹＫＳ株式会社,,株式会社,山口県,玖珂郡和木町,和木５丁目２番４１－９号,,35,321,7400061,,,,,,,2023-12-21,1,,,,,ワイケイエス,0
1441,6250001020446,新規,0,2023-12-21,2023-12-21,株式会社Ｌａｌｅ,,株式会社,山口県,山口市,小郡明治１丁目４番１－１３０６号,,35,203,7540043,,,,,,,2023-12-21,1,,,,,ラーレ,0
1442,6260001038594,新規,0,2023-12-21,2023-12-21,株式会社美空建設,,株式会社,岡山県,倉敷市,福田町浦田２４６１番地５９,,33,202,7128031,,,,,,,2023-12-21,1,,,,,ミソラケンセツ,0
1444,6270001008893,新規,0,2023-12-21,2023-12-21,株式会社Ｍ＆Ｋ,,株式会社,鳥取県,米子市,日ノ出町１丁目６－４７,,31,202,6830803,,,,,,,2023-12-21,1,,,,,エムアンドケイ,0
1451,6290001104154,新規,0,2023-12-21,2023-12-21,株式会社ＫＫＮＢ,,株式会社,福岡県,福岡市博多区,博多駅前１丁目２３番２号ＰａｒｋＦｒｏｎｔ博多駅前一丁目５Ｆ－Ｂ,,40,132,8120011,,,,,,,2023-12-21,1,,,,,ケーケーエヌビー,0
1452,6290001104162,新規,0,2023-12-21,2023-12-21,Ｃｏｒ．株式会社,,株式会社,福岡県,福岡市中央区,天神２丁目３－１０天神パインクレスト７１９号,,40,133,8100001,,,,,,,2023-12-21,1,,,,,コー,0
1464,6340001026145,新規,0,2023-12-21,2023-12-21,株式会社ＭＡＪＩＤＥ,,株式会社,鹿児島県,鹿児島市,宇宿２丁目２３番３号,,46,201,8900073,,,,,,,2023-12-21,1,,,,,マジデ,0
1465,6340001026161,新規,0,2023-12-21,2023-12-21,株式会社Ｍｉｃｈｉ,,株式会社,鹿児島県,鹿児島市,城山２丁目９番１６号,,46,201,8920813,,,,,,,2023-12-21,1,,,,,ミチ,0
1469,6360001032959,新規,0,2023-12-21,2023-12-21,サウスマリン株式会社,,株式会社,沖縄県,那覇市,字天久９２３番地コーポ天久５０５,,47,201,9000005,,,,,,,2023-12-21,1,,,,,サウスマリン,0
1470,6360001032975,新規,0,2023-12-21,2023-12-21,月光酒造株式会社,,株式会社,沖縄県,那覇市,松川３丁目２２番１４号,,47,201,9020062,,,,,,,2023-12-21,1,,,,,ゲッコウシュゾウ,0
1490,6420001018522,新規,0,2023-12-21,2023-12-21,株式会社ａｎｄ　ｈｅａｒｔ,,株式会社,青森県,青森市,自由ケ丘１丁目３番地１,,02,201,0300941,,,,,,,2023-12-21,1,,,,,アンドハート,0
1495,6430001090693,新規,0,2023-12-21,2023-12-21,株式会社セキュリティＬＲ,,株式会社,北海道,札幌市豊平区,美園三条７丁目１番２２号,,01,105,0620003,,,,,,,2023-12-21,1,,,,,セキュリティエルアール,0
1496,6430003015748,新規,0,2023-12-21,2023-12-21,Ａｅｒｏｄｙｎａｍｉｃ　Ｉｎｔｅｌｌｉｇｅｎｃｅ　Ｊａｐａｎ合同会社,,合同会社,北海道,札幌市北区,あいの里三条４丁目９番３号,,01,102,0028073,,,,,,,2023-12-21,1,,,,,エアロダイナミックインテリジェンスジャパン,0
1497,6430003015772,新規,0,2023-12-21,2023-12-21,合同会社Ｔｈｒｅｅ‐Ｔｗｏ,,合同会社,北海道,札幌市東区,北十六条東２丁目１－１５－４０２,,01,103,0650016,,,,,,,2023-12-21,1,,,,,スリーツー,0
1498,6490001010662,新規,0,2023-12-21,2023-12-21,ＦＵＤＯ　ＤＥＳＩＧＮ株式会社,,株式会社,高知県,高知市,万々４２３番地１－２０５号,,39,201,7800973,,,,,,,2023-12-21,1,,,,,フードデザイン,0
1503,6700150122988,新規,0,2023-12-21,2023-12-21,儷星企業有限公司,,外国会社等,大阪府,大阪市中央区,南船場２丁目１１番９－７０７号,,27,128,5420081,台湾基隆市安樂区五福里樂利三街３２巷４１号,,,,,,2023-12-21,1,,,,,レイセイキギョウユウゲンコウシ,0
1509,7010001240918,新規,0,2023-12-21,2023-12-21,ダイコーアペックス株式会社,,株式会社,東京都,千代田区,神田錦町３丁目９番地２ダイコービル５階,,13,101,1010054,,,,,,,2023-12-21,1,,,,,ダイコーアペックス,0
1510,7010001240942,新規,0,2023-12-21,2023-12-21,株式会社スマイルネット,,株式会社,東京都,中央区,銀座１丁目１２－４Ｎ＆ＥＢＬＤＧ．７階,,13,102,1040061,,,,,,,2023-12-21,1,,,,,スマイルネット,0
1511,7010001240975,新規,0,2023-12-21,2023-12-21,カイショーグループ株式会社,,株式会社,東京都,千代田区,神田神保町３丁目１２番地３神保町スリービル８階,,13,101,1010051,,,,,,,2023-12-21,1,,,,,カイショーグループ,0
1512,7010001241040,新規,0,2023-12-21,2023-12-21,株式会社ＳＯ２Ｈｏｌｄｉｎｇｓ,,株式会社,東京都,千代田区,霞が関３丁目２番５号,,13,101,1000013,,,,,,,2023-12-21,1,,,,,エスオーツーホールディングス,0
1517,7010003042461,新規,0,2023-12-21,2023-12-21,福田商事合同会社,,合同会社,東京都,中央区,日本橋２丁目１－１７,,13,102,1030027,,,,,,,2023-12-21,1,,,,,フクダショウジ,0
1518,7010003042486,新規,0,2023-12-21,2023-12-21,Ｍｙｓｔｅｎ　Ｌａｂｓ　Ｊａｐａｎ合同会社,,合同会社,東京都,中央区,日本橋３丁目９番１号日本橋三丁目スクエア１１階,,13,102,1030027,,,,,,,2023-12-21,1,,,,,ミステンラボスジャパン,0
1519,7010003042494,新規,0,2023-12-21,2023-12-21,合同会社Ｔｈｉｒｄ　Ｄｏｏｒ,,合同会社,東京都,千代田区,神田和泉町１番地６－１６ヤマトビル４０５,,13,101,1010024,,,,,,,2023-12-21,1,,,,,サードドア,0
1526,7010401179302,新規,0,2023-12-21,2023-12-21,株式会社リアルワン,,株式会社,東京都,港区,芝２丁目２８番１１号ＬｉｎｋＳｐａｃｅ芝３０４号室,,13,103,1050014,,,,,,,2023-12-21,1,,,,,リアルワン,0
1527,7010401179310,新規,0,2023-12-21,2023-12-21,株式会社マイニンク,,株式会社,東京都,港区,新橋５丁目７番１３号ビュロー新橋１０１号,,13,103,1050004,,,,,,,2023-12-21,1,,,,,マイニンク,0
1528,7010401179335,新規,0,2023-12-21,2023-12-21,ｓｉｍｐｌｉｎｅ株式会社,,株式会社,東京都,港区,高輪２丁目１４番１７号,,13,103,1080074,,,,,,,2023-12-21,1,,,,,シンプライン,0
1533,7010403031634,新規,0,2023-12-21,2023-12-21,合同会社ｂｌｕｅ,,合同会社,東京都,港区,南麻布１丁目８番１６－４０２号,,13,103,1060047,,,,,,,2023-12-21,1,,,,,ブルー,0
1534,7010405022796,新規,0,2023-12-21,2023-12-21,一般社団法人トキワテラス,,その他の設立登記法人,東京都,港区,虎ノ門３丁目２２番１０－２０１号,,13,103,1050001,,,,,,,2023-12-21,1,,,,,トキワテラス,0
1535,7010501051542,新規,0,2023-12-21,2023-12-21,京華株式会社,,株式会社,東京都,台東区,上野３丁目５番６号Ｊ’ＳビルＢ１,,13,106,1100005,,,,,,,2023-12-21,1,,,,,キョウカ,0
1538,7010503007261,新規,0,2023-12-21,2023-12-21,合同会社ｓｋプロジェクト,,合同会社,東京都,台東区,東浅草１丁目４番２サンクレイドル浅草６０２号,,13,106,1110025,,,,,,,2023-12-21,1,,,,,エスケープロジェクト,0
1543,7010603010545,新規,0,2023-12-21,2023-12-21,サンダーソン・ワークス合同会社,,合同会社,東京都,江東区,門前仲町２丁目１１番６号ハニーもんなか３０４,,13,108,1350048,,,,,,,2023-12-21,1,,,,,サンダーソンワークス,0
1546,7010701045303,新規,0,2023-12-21,2023-12-21,株式会社ラティオ,,株式会社,東京都,品川区,東五反田５丁目２２－３３ＴＫ池田山ビル２Ｆ,,13,109,1410022,,,,,,,2023-12-21,1,,,,,ラティオ,0
1547,7010703006996,新規,0,2023-12-21,2023-12-21,ブルー・コンパス合同会社,,合同会社,東京都,品川区,東五反田１丁目１１番８号大阪屋ビル９階,,13,109,1410022,,,,,,,2023-12-21,1,,,,,ブルーコンパス,0
1561,7011001158968,新規,0,2023-12-21,2023-12-21,株式会社ｉｉｔｏｃｏｒｏ,,株式会社,東京都,目黒区,碑文谷２丁目６番１５－２０４号パークステージ碑文谷,,13,110,1520003,,,,,,,2023-12-21,1,,,,,イイトコロ,0
1562,7011001158992,新規,0,2023-12-21,2023-12-21,株式会社パンとサーカス,,株式会社,東京都,渋谷区,代々木２丁目３７番１５－６１１号,,13,113,1510053,,,,,,,2023-12-21,1,,,,,パントサーカス,0
1573,7011101105548,新規,0,2023-12-21,2023-12-21,凌云株式会社,,株式会社,東京都,新宿区,新宿２丁目１３番１０号５階３６号室,,13,104,1600022,,,,,,,2023-12-21,1,,,,,リョウウン,0
1574,7011101105564,新規,0,2023-12-21,2023-12-21,株式会社セカンドプレイス,,株式会社,東京都,新宿区,歌舞伎町１丁目１７番１３号新宿Ｊ１ビル２階,,13,104,1600021,,,,,,,2023-12-21,1,,,,,セカンドプレイス,0
1576,7011103013880,新規,0,2023-12-21,2023-12-21,合同会社ネクストレベル,,合同会社,東京都,新宿区,下落合１丁目１１番６－８０８号,,13,104,1610033,,,,,,,2023-12-21,1,,,,,ネクストレベル,0
1578,7011201025126,新規,0,2023-12-21,2023-12-21,ＭＩＮ企画株式会社,,株式会社,東京都,中野区,中野５丁目６１－３中野駅北口ビル３Ｆ,,13,114,1640001,,,,,,,2023-12-21,1,,,,,ミンキカク,0
1579,7011403004209,新規,0,2023-12-21,2023-12-21,合同会社轟天,,合同会社,東京都,板橋区,大山東町２番１３－１００３号,,13,119,1730014,,,,,,,2023-12-21,1,,,,,ゴウテン,0
1581,7011501030131,新規,0,2023-12-21,2023-12-21,株式会社楽山水,,株式会社,東京都,荒川区,東日暮里５丁目１６番１－９０３号,,13,118,1160014,,,,,,,2023-12-21,1,,,,,ラクサンスイ,0
1584,7011701026870,新規,0,2023-12-21,2023-12-21,日内瓦株式会社,,株式会社,東京都,江戸川区,平井５丁目４５番５号渡辺ハイツ１０１,,13,123,1320035,,,,,,,2023-12-21,1,,,,,ニチナイガ,0
1593,7012401041350,新規,0,2023-12-21,2023-12-21,株式会社Ｕｎｉ　Ｗｏｒｋｓ,,株式会社,東京都,多摩市,鶴牧５丁目２８番地の１,,13,224,2060034,,,,,,,2023-12-21,1,,,,,ユニワークス,0
1596,7012803003270,新規,0,2023-12-21,2023-12-21,Ａｃｔｉｖｅ　Ｉｎｆｅｒｅｎｃｅ合同会社,,合同会社,東京都,国分寺市,東恋ヶ窪１丁目２８０－４－Ｉ－２４８,,13,214,1850014,,,,,,,2023-12-21,1,,,,,アクティブインファレンス,0
1616,7020001154844,新規,0,2023-12-21,2023-12-21,株式会社Ｃｒｅｓｃ,,株式会社,神奈川県,川崎市中原区,宮内３丁目８番１２‐１０５号,,14,133,2110051,,,,,,,2023-12-21,1,,,,,クレスク,0
1617,7020001155000,新規,0,2023-12-21,2023-12-21,株式会社シンクス,,株式会社,神奈川県,横浜市港北区,大倉山１丁目３番１－４号,,14,109,2220037,,,,,,,2023-12-21,1,,,,,シンクス,0
1626,7021001081021,新規,0,2023-12-21,2023-12-21,株式会社Ｃ．Ｎ,,株式会社,神奈川県,平塚市,城所５６６番地,,14,203,2540005,,,,,,,2023-12-21,1,,,,,シーエヌ,0
1628,7021003013914,新規,0,2023-12-21,2023-12-21,Ｏｒｉｅｎｔａｌ　Ｓｅｌｅｃｔｉｏｎｓ合同会社,,合同会社,神奈川県,大和市,中央林間２丁目４番６－２号,,14,213,2420007,,,,,,,2023-12-21,1,,,,,オリエンタルセレクションズ,0
1634,7030001157838,新規,0,2023-12-21,2023-12-21,株式会社シンカ,,株式会社,埼玉県,川口市,大字里５番地の１５,,11,203,3340005,,,,,,,2023-12-21,1,,,,,シンカ,0
1641,7040001131420,新規,0,2023-12-21,2023-12-21,ＫＳＣ株式会社,,株式会社,千葉県,千葉市中央区,蘇我５丁目１１番６号,,12,101,2600822,,,,,,,2023-12-21,1,,,,,ケーエスシー,0
1642,7040001131437,新規,0,2023-12-21,2023-12-21,株式会社ことり,,株式会社,千葉県,松戸市,小金清志町３丁目２７番地の４,,12,207,2700016,,,,,,,2023-12-21,1,,,,,コトリ,0
1643,7040003023954,新規,0,2023-12-21,2023-12-21,合同会社ＫＥＮ’Ｓ,,合同会社,千葉県,松戸市,小金４４４番地の６２北小金ハイツＣ－８０３号,,12,207,2700014,,,,,,,2023-12-21,1,,,,,ケンズ,0
1644,7040003023970,新規,0,2023-12-21,2023-12-21,合同会社ＡＳＡちはら台,,合同会社,千葉県,市原市,ちはら台西５丁目１７番地３,,12,219,2900143,,,,,,,2023-12-21,1,,,,,エイエスエイチハラダイ,0
1648,7050001053977,新規,0,2023-12-21,2023-12-21,株式会社Ａｎｓｗｅｒ,,株式会社,茨城県,土浦市,虫掛３３７５番地,,08,203,3000066,,,,,,,2023-12-21,1,,,,,アンサー,0
1649,7050001054001,新規,0,2023-12-21,2023-12-21,株式会社サニーサイド,,株式会社,茨城県,ひたちなか市,大字高野２４３８番地１２,,08,221,3120002,,,,,,,2023-12-21,1,,,,,サニーサイド,0
1652,7050005013366,新規,0,2023-12-21,2023-12-21,一般社団法人日本プロフェッショナルセラピスト協会,,その他の設立登記法人,茨城県,牛久市,猪子町９９２番地６９５,,08,219,3001231,,,,,,,2023-12-21,1,,,,,ニホンプロフェッショナルセラピストキョウカイ,0
1653,7060001036642,新規,0,2023-12-21,2023-12-21,株式会社やまけい,,株式会社,栃木県,さくら市,櫻野１６３５－１,,09,214,3291312,,,,,,,2023-12-21,1,,,,,ヤマケイ,0
1656,7070001041212,新規,0,2023-12-21,2023-12-21,株式会社コニシ建設,,株式会社,群馬県,安中市,松井田町人見７９５番地,,10,211,3790224,,,,,,,2023-12-21,1,,,,,コニシケンセツ,0
1660,7080101024413,新規,0,2023-12-21,2023-12-21,富士正酒造株式会社,,株式会社,静岡県,富士宮市,根原４５０番地の１,,22,207,4180101,,,,,,,2023-12-21,1,,,,,フジマサシュゾウ,0
1661,7080401026893,新規,0,2023-12-21,2023-12-21,株式会社森下商店,,株式会社,静岡県,浜松市天竜区,水窪町奥領家３４６３番地の１０,,22,137,4314101,,,,,,,2023-12-21,1,,,,,モリシタショウテン,0
1662,7080405007601,新規,0,2023-12-21,2023-12-21,報徳遠譲社第三分社船明西社,,その他の設立登記法人,静岡県,浜松市天竜区,船明２９１番地,,22,137,4313306,,,,,,,2023-12-21,1,,,,,ホウトクエンジョウシャダイサンブンシャフナギラニシシャ,0
1663,7100001037066,新規,0,2023-12-21,2023-12-21,株式会社ＣＲＥＷ‐ＨＥＡＴ,,株式会社,長野県,長野市,三輪１丁目１０番１５－３号,,20,201,3800803,,,,,,,2023-12-21,1,,,,,クルーヒート,0
1665,7110003005243,新規,0,2023-12-21,2023-12-21,合同会社イロニイガタ,,合同会社,新潟県,新潟市中央区,鐙西１丁目１７番２８号第一鐙ビル２０３,,15,103,9500915,,,,,,,2023-12-21,1,,,,,イロニイガタ,0
1682,7120001260905,新規,0,2023-12-21,2023-12-21,盛軒株式会社,,株式会社,大阪府,門真市,島頭４丁目１番２０号,,27,223,5710016,,,,,,,2023-12-21,1,,,,,モリケン,0
1685,7120003025554,新規,0,2023-12-21,2023-12-21,合同会社カナデ,,合同会社,大阪府,大阪市北区,芝田２丁目８番１１号共栄ビル３階,,27,127,5300012,,,,,,,2023-12-21,1,,,,,カナデ,0
1686,7120003025570,新規,0,2023-12-21,2023-12-21,合同会社Ｍ．Ｙ．Ｔ,,合同会社,大阪府,大阪市天王寺区,烏ケ辻２丁目１０番４－８０６号,00133064,27,109,5430042,,,,,,,2023-12-21,1,,,,,エムワイティー,0
1689,7120101068744,新規,0,2023-12-21,2023-12-21,株式会社エムピー,,株式会社,大阪府,堺市西区,神野町１丁１０番２号,,27,144,5938308,,,,,,,2023-12-21,1,,,,,エムピー,0
1698,7140001132714,新規,0,2023-12-21,2023-12-21,株式会社ＷＪＬホールディングス,,株式会社,兵庫県,三木市,別所町下石野１４１５番地５,,28,215,6730453,,,,,,,2023-12-21,1,,,,,ダブルジェイエルホールディングス,0
1699,7140001132747,新規,0,2023-12-21,2023-12-21,Ｎａｗａｂ　Ｃｈｅｅｍａ　Ｔｒａｄｉｎｇ株式会社,,株式会社,兵庫県,神戸市西区,岩岡町岩岡１６１－５,,28,111,6512401,,,,,,,2023-12-21,1,,,,,ナワブチーマトレーディング,0
1703,7140005026846,新規,0,2023-12-21,2023-12-21,医療法人社団山河,,その他の設立登記法人,兵庫県,神戸市垂水区,天ノ下町５番３号,,28,108,6550029,,,,,,,2023-12-21,1,,,,,サンガ,0
1704,7160003003069,新規,0,2023-12-21,2023-12-21,合同会社Ｇ‐ＳＴＹＬＥ,,合同会社,滋賀県,甲賀市,水口町春日８２３番地１,,25,209,5280065,,,,,,,2023-12-21,1,,,,,ジースタイル,0
1708,7180001159456,新規,0,2023-12-21,2023-12-21,ＮｉｐｐｏｎＥＶ株式会社,,株式会社,愛知県,名古屋市中区,栄２丁目２番１号広小路伏見中駒ビル２Ｆ－９,,23,106,4600008,,,,,,,2023-12-21,1,,,,,ニッポンイーブイ,0
1711,7180003026134,新規,0,2023-12-21,2023-12-21,合同会社Ｃｕｄｄｌｅ　ｕｐ,,合同会社,愛知県,一宮市,長島町３丁目１３番地１,,23,203,4910071,,,,,,,2023-12-21,1,,,,,カドルアップ,0
1712,7180003026142,新規,0,2023-12-21,2023-12-21,合同会社Ｙ２,,合同会社,愛知県,一宮市,萩原町戸苅字杉林５番地１,,23,203,4910375,,,,,,,2023-12-21,1,,,,,ワイツー,0
1713,7180301038145,新規,0,2023-12-21,2023-12-21,株式会社７１６ＬＡＢ．,,株式会社,愛知県,豊田市,桝塚西町南山１３１番地７,,23,211,4701213,,,,,,,2023-12-21,1,,,,,ナナイロラボ,0
1714,7180303005944,新規,0,2023-12-21,2023-12-21,清葉合同会社,,合同会社,愛知県,みよし市,三好町中鯰ヶ池８８番地の１,,23,236,4700224,,,,,,,2023-12-21,1,,,,,セイヨウ,0
1719,7220001025744,新規,0,2023-12-21,2023-12-21,株式会社ｌｏａｗ,,株式会社,石川県,金沢市,木倉町２番１号,,17,201,9200988,,,,,,,2023-12-21,1,,,,,ロウ,0
1728,7270001008892,新規,0,2023-12-21,2023-12-21,株式会社ヒカリエステート,,株式会社,鳥取県,米子市,皆生５丁目１７番３号,,31,202,6830003,,,,,,,2023-12-21,1,,,,,ヒカリエステート,0
1737,7290001104137,新規,0,2023-12-21,2023-12-21,株式会社ＬＡＦ　Ｔｉｍｅ,,株式会社,福岡県,福岡市東区,雁の巣２丁目７番３６号,,40,131,8110206,,,,,,,2023-12-21,1,,,,,ラフタイム,0
1738,7290001104145,新規,0,2023-12-21,2023-12-21,株式会社ＬＵＸ,,株式会社,福岡県,福岡市中央区,天神１丁目９番１７号福岡天神フコク生命ビル１５階,,40,133,8100001,,,,,,,2023-12-21,1,,,,,ラグ,0
1744,7290003014755,新規,0,2023-12-21,2023-12-21,ＢＩＲＤＮＥＣＫ合同会社,,合同会社,福岡県,福岡市中央区,天神４丁目３番８号ミーナ天神８階ＴｈｅＣｏｍｐａｎｙミーナ天神,,40,133,8100001,,,,,,,2023-12-21,1,,,,,バードネック,0
1745,7290003014771,新規,0,2023-12-21,2023-12-21,オフィスファイン合同会社,,合同会社,福岡県,福岡市博多区,博多駅前１丁目２３番２号ＰａｒｋＦｒｏｎｔ博多駅前一丁目５Ｆ－Ｂ,,40,132,8120011,,,,,,,2023-12-21,1,,,,,オフィスファイン,0
1746,7310001018755,新規,0,2023-12-21,2023-12-21,株式会社真緑会,,株式会社,長崎県,佐世保市,潜木町７５０番地１,,42,202,8570121,,,,,,,2023-12-21,1,,,,,マミドリカイ,0
1752,7350001018719,新規,0,2023-12-21,2023-12-21,株式会社ミュージアムピック,,株式会社,宮崎県,宮崎市,江平東町１１番地６フラワーマンション江平４０４,,45,201,8800817,,,,,,,2023-12-21,1,,,,,ミュージアムピック,0
1754,7360005006958,新規,0,2023-12-21,2023-12-21,一般社団法人じのん子どもの家,,その他の設立登記法人,沖縄県,宜野湾市,伊佐２丁目８番１９号２階,,47,205,9012221,,,,,,,2023-12-21,1,,,,,ジノンコドモノイエ,0
1757,7370001050769,新規,0,2023-12-21,2023-12-21,株式会社ＳＯＧ,,株式会社,宮城県,仙台市若林区,南小泉１丁目５番１７号キャトルセゾン南小泉１０３,,04,103,9840827,,,,,,,2023-12-21,1,,,,,エスオージー,0
1767,7430001090676,新規,0,2023-12-21,2023-12-21,株式会社キンテック,,株式会社,北海道,登別市,若草町１丁目１１番地１１,,01,230,0590035,,,,,,,2023-12-21,1,,,,,キンテック,0
1771,7450001014179,新規,0,2023-12-21,2023-12-21,株式会社ＮＯＢＬＥ．,,株式会社,北海道,旭川市,台場一条４丁目１番４３号,,01,204,0708071,,,,,,,2023-12-21,1,,,,,,0
1773,7500001025377,新規,0,2023-12-21,2023-12-21,株式会社天乃音,,株式会社,愛媛県,松山市,立花５丁目６番２４号,,38,201,7900966,,,,,,,2023-12-21,1,,,,,アマノネ,0
1776,7700150122475,新規,0,2023-12-21,2023-12-21,ＱｉａｎＳｈａｎＸｉａｎＸｕＸｉａｎｇＤｉａｎＺｉＳｈａｎｇＷｕＹｏｕＸｉａｎＧｏｎｇＳｉ,,外国会社等,,,,,,,,ｑｉａｎｓｈａｎｘｉａｎ　ｈｅｋｏｕｚｈｅｎ　ｊｉｕｙａｎｇｄａｄａｏ　２８ｈａｏ　ｓｈａｎｇｒａｏ　ｊｉａｎｇｘｉ　ＣＮ,,,,,,2023-12-21,1,,,,,チエンシヤンシエンシユイシアンデイエンズシヤンウ,0
1777,7700150122987,新規,0,2023-12-21,2023-12-21,Ｎｉｎｇｂｏａｏｘｉｎｊｉｎｃｈｕｋｏｕｙｏｕｘｉａｎｇｏｎｇｓｉ,,外国会社等,,,,,,,,Ｚｈｏｎｇｇｏｎｇｍｉａｏｊｉｅｄａｏ，Ｍａｏｃｈｅｎｇｘｉｌｕ，１５７ｈａｏ，２３１３ｓｈｉ，ｎｉｎｇｂｏｓｈｉ，Ｙｉｎｚｈｏｕｑｕ，ｚｈｅｊｉａｎｇｓｈｅｎｇ,,,,,,2023-12-21,1,,,,,ネイハオクシンシンシュツコウユウゲンコウシ,0
1782,8010001240941,新規,0,2023-12-21,2023-12-21,株式会社日本ゴールデンレイン,,株式会社,東京都,中央区,日本橋茅場町２丁目１７番６号いづみハイツニュー茅場町６０３Ｂ,,13,102,1030025,,,,,,,2023-12-21,1,,,,,ニッポンゴールデンレイン,0
1783,8010001240974,新規,0,2023-12-21,2023-12-21,株式会社Ｆｉｒｓｔ,,株式会社,東京都,中央区,銀座８丁目５番１号,,13,102,1040061,,,,,,,2023-12-21,1,,,,,ファースト,0
1784,8010001240982,新規,0,2023-12-21,2023-12-21,Ｃｏｒｅ　Ｉｍｐａｑｔ株式会社,,株式会社,東京都,中央区,日本橋本町３丁目３番６号ワカ末ビル７階,,13,102,1030023,,,,,,,2023-12-21,1,,,,,コルインパクト,0
1786,8010003042477,新規,0,2023-12-21,2023-12-21,合同会社ｙｕｅｎ,,合同会社,東京都,中央区,銀座１丁目１２－４Ｎ＆ＥＢＬＤ．７階,,13,102,1040061,,,,,,,2023-12-21,1,,,,,ユエン,0
1800,8010403031609,新規,0,2023-12-21,2023-12-21,合同会社バトン,,合同会社,東京都,港区,白金１丁目６－１４－３階,,13,103,1080072,,,,,,,2023-12-21,1,,,,,バトン,0
1804,8010501051541,新規,0,2023-12-21,2023-12-21,株式会社ホワイト,,株式会社,東京都,台東区,台東２丁目７－１３島村ビル１Ｆ,,13,106,1100016,,,,,,,2023-12-21,1,,,,,ホワイト,0
1805,8010601064369,新規,0,2023-12-21,2023-12-21,ネロ株式会社,,株式会社,東京都,江東区,東陽５丁目２６番１４号,,13,108,1350016,,,,,,,2023-12-21,1,,,,,ネロ,0
1806,8010603010544,新規,0,2023-12-21,2023-12-21,ＫＯＳＥ合同会社,,合同会社,東京都,江東区,亀戸５丁目１２－７第一木村ビル１Ｆ,,13,108,1360071,,,,,,,2023-12-21,1,,,,,コーセー,0
1810,8010703006995,新規,0,2023-12-21,2023-12-21,合同会社Ｔｅｒｒａｃｅ,,合同会社,東京都,品川区,中延６丁目９番３－６０４号,,13,109,1420053,,,,,,,2023-12-21,1,,,,,テラス,0
1819,8011001158967,新規,0,2023-12-21,2023-12-21,株式会社ＭＰ３,,株式会社,東京都,目黒区,柿の木坂２丁目１３番１３号柿の木坂ヴォーンＩＩＩＡ－１０２,00133066,13,110,1520022,,,,,,,2023-12-21,1,,,,,エムピースリー,0
1820,8011003018153,新規,0,2023-12-21,2023-12-21,ＶＩＧＮＥＴＴＥ合同会社,,合同会社,東京都,渋谷区,恵比寿西２丁目４番８号ウィンド恵比寿ビル８Ｆ,,13,113,1500021,,,,,,,2023-12-21,1,,,,,ビネット,0
1832,8011401025651,新規,0,2023-12-21,2023-12-21,株式会社ＡＮ．ｇ,,株式会社,東京都,板橋区,徳丸１丁目３３番１４号,,13,119,1750083,,,,,,,2023-12-21,1,,,,,アンジー,0
1833,8011403004208,新規,0,2023-12-21,2023-12-21,ステラートレード合同会社,,合同会社,東京都,板橋区,弥生町６８－１１ＫＤＸレジデンス中板橋８０２,,13,119,1730021,,,,,,,2023-12-21,1,,,,,ステラートレード,0
1837,8011603004172,新規,0,2023-12-21,2023-12-21,ＨＳＩ合同会社,,合同会社,東京都,練馬区,光が丘１丁目２－３１６,,13,120,1790072,,,,,,,2023-12-21,1,,,,,エイチエスアイ,0
1843,8011801043542,新規,0,2023-12-21,2023-12-21,株式会社京奈電気工業,,株式会社,東京都,足立区,青井３丁目６番７号第六タカサハイム２０２,,13,121,1200012,,,,,,,2023-12-21,1,,,,,キョウナデンキコウギョウ,0
1855,8020001154991,新規,0,2023-12-21,2023-12-21,株式会社大地建設,,株式会社,神奈川県,横浜市中区,相生町４丁目６５番地２シティビル３階,,14,104,2310012,,,,,,,2023-12-21,1,,,,,ダイチケンセツ,0
1857,8020003025233,新規,0,2023-12-21,2023-12-21,ＲＩＮＧアセット合同会社,,合同会社,神奈川県,横浜市都筑区,茅ケ崎東４丁目４番１号,,14,118,2240033,,,,,,,2023-12-21,1,,,,,リングアセット,0
1860,8021001081029,新規,0,2023-12-21,2023-12-21,株式会社９９９ｐｒｏｄｕｃｔｉｏｎ,,株式会社,神奈川県,藤沢市,土棚４５８‐３ラモアニ２０１,,14,205,2520806,,,,,,,2023-12-21,1,,,,,スリーナインプロダクション,0
1874,8030003023277,新規,0,2023-12-21,2023-12-21,合同会社メディカルサンテ,,合同会社,埼玉県,飯能市,大字上直竹下分３４番地,,11,209,3570055,,,,,,,2023-12-21,1,,,,,メディカルサンテ,0
1881,8040001131353,新規,0,2023-12-21,2023-12-21,寰球雲倉株式会社,,株式会社,千葉県,野田市,野田８１５番地１豊進ビル２０１,,12,208,2780037,,,,,,,2023-12-21,1,,,,,カンキュウウンソウ,0
1882,8040001131428,新規,0,2023-12-21,2023-12-21,株式会社エヌティ,,株式会社,千葉県,松戸市,北松戸３丁目２番１５－２０１号,,12,207,2710063,,,,,,,2023-12-21,1,,,,,エヌティ,0
1883,8040001131444,新規,0,2023-12-21,2023-12-21,株式会社Ｓｕａｖｅ,,株式会社,千葉県,四街道市,吉岡１７４０番地３３,,12,228,2840032,,,,,,,2023-12-21,1,,,,,シュアーブ,0
1884,8040001131452,新規,0,2023-12-21,2023-12-21,株式会社コクニシデンキ,,株式会社,千葉県,流山市,江戸川台東４丁目３８４,,12,220,2700111,,,,,,,2023-12-21,1,,,,,コクニシデンキ,0
1887,8050001053992,新規,0,2023-12-21,2023-12-21,ＡＭＢＡＮＳＡＩＤ株式会社,,株式会社,茨城県,つくば市,中野１４７番地４１,,08,220,3050873,,,,,,,2023-12-21,1,,,,,,0
1892,8070003005206,新規,0,2023-12-21,2023-12-21,合同会社ＣｏｎｎｅｃｔＤｅｓｉｇｎ,,合同会社,群馬県,太田市,新田市野井町５９０番地５,,10,205,3700314,,,,,,,2023-12-21,1,,,,,コネクトデザイン,0
1895,8080101024412,新規,0,2023-12-21,2023-12-21,株式会社Ｆ＆Ａ,,株式会社,静岡県,富士市,厚原６８８番地の３,,22,210,4190201,,,,,,,2023-12-21,1,,,,,エフアンドエー,0
1903,8110001038054,新規,0,2023-12-21,2023-12-21,株式会社ビィオントレード,,株式会社,新潟県,長岡市,日赤町２丁目２番１３号,,15,202,9400095,,,,,,,2023-12-21,1,,,,,ビィオントレード,0
1911,8120001260573,新規,0,2023-12-21,2023-12-21,株式会社むすひの家,,株式会社,大阪府,大阪市阿倍野区,相生通２丁目１０番７号,,27,119,5450033,,,,,,,2023-12-21,1,,,,,ムスヒノイエ,0
1912,8120001260821,新規,0,2023-12-21,2023-12-21,ＪＴ株式会社,,株式会社,大阪府,大阪市中央区,東心斎橋１丁目３番３－２２０３号,,27,128,5420083,,,,,,,2023-12-21,1,,,,,ジェイティー,0
1926,8122001037679,新規,0,2023-12-21,2023-12-21,株式会社Ｈｏｊｏ　ＨＲ,,株式会社,大阪府,大東市,北条６丁目３番２５号,,27,218,5740011,,,,,,,2023-12-21,1,,,,,ホージョーエイチアール,0
1928,8130001075987,新規,0,2023-12-21,2023-12-21,株式会社ＳＥＩＳＨＩＮ,,株式会社,京都府,京都市下京区,西七条西八反田町１番地２９,,26,106,6008892,,,,,,,2023-12-21,1,,,,,セイシン,0
1935,8140001132746,新規,0,2023-12-21,2023-12-21,六甲アソシエイツ株式会社,,株式会社,兵庫県,姫路市,田寺東４丁目１９番１７号,,28,201,6700081,,,,,,,2023-12-21,1,,,,,ロッコウアソシエイツ,0
1936,8140001132770,新規,0,2023-12-21,2023-12-21,株式会社ｌａ　Ｒｉｎａｓｃｅｎｔｅ,,株式会社,兵庫県,神戸市東灘区,向洋町東４丁目１６番地,,28,101,6580031,,,,,,,2023-12-21,1,,,,,ラリナシェンテ,0
1939,8150001026955,新規,0,2023-12-21,2023-12-21,株式会社Ｓｉｌｅｎｔ　Ｆｕｔｕｒｅ,,株式会社,奈良県,奈良市,西大寺南町５番２９号－２Ｆ,,29,201,6310824,,,,,,,2023-12-21,1,,,,,サイレントフューチャー,0
1940,8150001026963,新規,0,2023-12-21,2023-12-21,株式会社ｂｉｂｉｔｔｔ,,株式会社,奈良県,桜井市,大字桜井１２５９エルト桜井７０７,,29,206,6330091,,,,,,,2023-12-21,1,,,,,ビビット,0
1941,8150003003151,新規,0,2023-12-21,2023-12-21,合同会社木漏れ日,,合同会社,奈良県,生駒郡三郷町,立野南２丁目１２番４－２０２号,,29,343,6360822,,,,,,,2023-12-21,1,,,,,コモレビ,0
1942,8160003003068,新規,0,2023-12-21,2023-12-21,サンフィールド合同会社,,合同会社,滋賀県,栗東市,野尻４２５番地２,,25,208,5203027,,,,,,,2023-12-21,1,,,,,サンフィールド,0
1944,8180001159455,新規,0,2023-12-21,2023-12-21,らふ株式会社,,株式会社,愛知県,大府市,中央町２丁目２０９番地の２,,23,223,4740025,,,,,,,2023-12-21,1,,,,,ラフ,0
1949,8180003026141,新規,0,2023-12-21,2023-12-21,合同会社スタジオグラブ,,合同会社,愛知県,名古屋市千種区,香流橋２丁目２番１２号ユーステージ香流壱番館８０８号,,23,101,4640002,,,,,,,2023-12-21,1,,,,,スタジオグラブ,0
1952,8180301038144,新規,0,2023-12-21,2023-12-21,株式会社オズマート,,株式会社,愛知県,安城市,古井町新道２７番地９,,23,212,4460025,,,,,,,2023-12-21,1,,,,,オズマート,0
1953,8180301038152,新規,0,2023-12-21,2023-12-21,ヴィーヴォ株式会社,,株式会社,愛知県,豊橋市,井原町４７番地５,,23,201,4400025,,,,,,,2023-12-21,1,,,,,ヴィーヴォ,0
1954,8180303005943,新規,0,2023-12-21,2023-12-21,江永合同会社,,合同会社,愛知県,みよし市,三好町中鯰ヶ池８８番地の１,,23,236,4700224,,,,,,,2023-12-21,1,,,,,コウエイ,0
1955,8180303005951,新規,0,2023-12-21,2023-12-21,ＨＴＳＴ合同会社,,合同会社,愛知県,岡崎市,北本郷町字下寄３番地１０６,,23,202,4440944,,,,,,,2023-12-21,1,,,,,エイチティエスティ,0
1957,8190003004542,新規,0,2023-12-21,2023-12-21,合同会社温,,合同会社,三重県,伊勢市,小俣町明野１０５５番地１,,24,203,5190501,,,,,,,2023-12-21,1,,,,,ツツム,0
1959,8200001042006,新規,0,2023-12-21,2023-12-21,株式会社ＳＧ,,株式会社,岐阜県,多治見市,美坂町８丁目１２番地の２,,21,204,5070803,,,,,,,2023-12-21,1,,,,,エスジー,0
1962,8230001020149,新規,0,2023-12-21,2023-12-21,ななほし塗装株式会社,,株式会社,富山県,富山市,犬島２丁目１番９１号,,16,201,9318321,,,,,,,2023-12-21,1,,,,,ナナホシトソウ,0
1967,8260001038584,新規,0,2023-12-21,2023-12-21,株式会社ＥｒｉｎＷａｌｋｓ,,株式会社,岡山県,岡山市北区,中山下１丁目１１番１５号新田第１ビル４０２,,33,101,7000821,,,,,,,2023-12-21,1,,,,,エリンウォークス,0
1975,8290001104128,新規,0,2023-12-21,2023-12-21,株式会社まねき,,株式会社,福岡県,宗像市,緑町１６５番地,,40,220,8114172,,,,,,,2023-12-21,1,,,,,,0
1976,8290001104136,新規,0,2023-12-21,2023-12-21,株式会社アイタイム,,株式会社,福岡県,糟屋郡粕屋町,花ヶ浦３丁目７－６－１０２,,40,349,8112310,,,,,,,2023-12-21,1,,,,,アイタイム,0
1977,8290001104152,新規,0,2023-12-21,2023-12-21,株式会社Ｌｉｍ,,株式会社,福岡県,福岡市博多区,竹下４丁目１－８第６竹下ＩＲＢＬＤ３号室,,40,132,8120895,,,,,,,2023-12-21,1,,,,,リム,0
1978,8290003014770,新規,0,2023-12-21,2023-12-21,合同会社７６５ＬＴ,,合同会社,福岡県,福岡市西区,姪の浜１丁目１７－２６,,40,135,8190002,,,,,,,2023-12-21,1,,,,,,0
1979,8290003014787,新規,0,2023-12-21,2023-12-21,大財商事合同会社,,合同会社,福岡県,大野城市,中央１丁目３番３８号伊藤コーポ１０２号,,40,219,8160942,,,,,,,2023-12-21,1,,,,,ダイザイショウジ,0
1996,8350001018726,新規,0,2023-12-21,2023-12-21,株式会社ＴＡＫＡＴＯＵ,,株式会社,宮崎県,宮崎市,佐土原町下田島２０２９６番地４３,,45,201,8800211,,,,,,,2023-12-21,1,,,,,タカトウ,0
1997,8360001032949,新規,0,2023-12-21,2023-12-21,オディシス恩納オペレーションズ株式会社,,株式会社,沖縄県,国頭郡恩納村,字名嘉真２６２０番地,,47,311,9040401,,,,,,,2023-12-21,1,,,,,オディシスオンナオペレーションズ,0
1998,8360003013559,新規,0,2023-12-21,2023-12-21,合同会社ハッピーフレンド,,合同会社,沖縄県,南城市,知念字久高８０番地,,47,215,9011501,,,,,,,2023-12-21,1,,,,,ハッピーフレンド,0
2001,8370001050768,新規,0,2023-12-21,2023-12-21,株式会社おともＭａｄｅ,,株式会社,宮城県,気仙沼市,磯草５８番地１,,04,205,9880606,,,,,,,2023-12-21,1,,,,,オトモメイド,0
2003,8420001018520,新規,0,2023-12-21,2023-12-21,株式会社Ｍａｋｅ　Ｏｎｅ,,株式会社,青森県,十和田市,西十五番町２６番１３号,,02,206,0340087,,,,,,,2023-12-21,1,,,,,メイクワン,0
2010,8430001090683,新規,0,2023-12-21,2023-12-21,株式会社コスモロードサービスプラス,,株式会社,北海道,小樽市,オタモイ１丁目３４番８号,,01,203,0482671,,,,,,,2023-12-21,1,,,,,コスモロードサービスプラス,0
2012,8430003015762,新規,0,2023-12-21,2023-12-21,合同会社Ｋｉｎｄ　Ｈｏｐｅ,,合同会社,北海道,札幌市中央区,大通東４丁目４番地４４,,01,101,0600041,,,,,,,2023-12-21,1,,,,,カインドホープ,0
2013,8430003015770,新規,0,2023-12-21,2023-12-21,合同会社有翔,,合同会社,北海道,札幌市北区,新川一条６丁目２番１５－１０３号,,01,102,0010921,,,,,,,2023-12-21,1,,,,,ユウト,0
2014,8430005014853,新規,0,2023-12-21,2023-12-21,環境福祉推進協同組合,,その他の設立登記法人,北海道,札幌市北区,北七条西４丁目４番地１第五北海道通信ビル４階,,01,102,0600807,,,,,,,2023-12-21,1,,,,,カンキョウフクシスイシン,0
2015,8450001014178,新規,0,2023-12-21,2023-12-21,株式会社アイ建設,,株式会社,北海道,深川市,一条２５番２号,,01,228,0740001,,,,,,,2023-12-21,1,,,,,アイケンセツ,0
2016,8450003002420,新規,0,2023-12-21,2023-12-21,合同会社めいわ産業,,合同会社,北海道,枝幸郡枝幸町,梅ヶ枝町１５６３番地８,,01,514,0985806,,,,,,,2023-12-21,1,,,,,メイワサンギョウ,0
2017,8460001005853,新規,0,2023-12-21,2023-12-21,株式会社きたむら美装,,株式会社,北海道,釧路市,美原２丁目４３番１２号,,01,206,0850065,,,,,,,2023-12-21,1,,,,,キタムラビソウ,0
2023,8700150122986,新規,0,2023-12-21,2023-12-21,ＧｕＣｈｅｎｇＸｉａｎＪｉｕＭｅｉＳｈａｎｇＭａｏＹｏｕＸｉａｎＧｏｎｇＳｉ,,外国会社等,,,,,,,,ｈｕ　ｂｅｉ　ｓｈｅｎｇ　ｘｉａｎｇ　ｙａｎｇ　ｓｈｉ　ｇｕ　ｃｈｅｎｇ　ｘｉａｎ　ｓｈｉ　ｈｕａ　ｚｈｅｎ　ｙａｎｇ　ｘｉ　ｄｏｎｇ　ｌｕ　ｙａｎｇ　ｘｉ　ｗａｎ　ｇｏｎｇ　ｙｅ　ｙｕａｎ　Ａ１－１７５,,,,,,2023-12-21,1,,,,,コクジョウケンキュウビショウボウユウゲンコウシ,0
2030,9010001240924,新規,0,2023-12-21,2023-12-21,Ａｒｔ　Ｇｅａｒ　Ｃａｐｉｔａｌ株式会社,,株式会社,東京都,中央区,銀座７丁目８番４号ＩＡＮＤＩ銀座８ビル,,13,102,1040061,,,,,,,2023-12-21,1,,,,,アートギアキャピタル,0
2031,9010001240981,新規,0,2023-12-21,2023-12-21,Ｓａｌｅｓ　Ｒｅｔｒｉｅｖｅｒ株式会社,,株式会社,東京都,千代田区,神田和泉町１番地６－１６ヤマトビル４０５,,13,101,1010024,,,,,,,2023-12-21,1,,,,,セールスレトリーバー,0
2032,9010001241047,新規,0,2023-12-21,2023-12-21,Ｇｃｏｒｅ　Ｊａｐａｎ株式会社,,株式会社,東京都,中央区,新富１丁目１５番３号新富ミハマビル４階ジパング,,13,102,1040041,,,,,,,2023-12-21,1,,,,,ジーコアジャパン,0
2039,9010401179275,新規,0,2023-12-21,2023-12-21,株式会社ＥＬＥＰＨＡＮＴ,,株式会社,東京都,港区,南青山２丁目１５番５号ＦＡＲＯ青山１階,,13,103,1070062,,,,,,,2023-12-21,1,,,,,エレファント,0
2040,9010401179283,新規,0,2023-12-21,2023-12-21,株式会社ＣＯ,,株式会社,東京都,港区,芝２丁目５番１５号ライオンズプラザ芝公園５０６,,13,103,1050014,,,,,,,2023-12-21,1,,,,,シーオー,0
2041,9010401179309,新規,0,2023-12-21,2023-12-21,株式会社Ｊ　Ｐｒｉｎｃｉｐｌｅ,,株式会社,東京都,港区,港南４丁目２番２５号ソーラーハウス港南４０３,,13,103,1080075,,,,,,,2023-12-21,1,,,,,ジェイプリンシプル,0
2044,9010403031616,新規,0,2023-12-21,2023-12-21,合同会社Ｔ３ｓ,,合同会社,東京都,港区,南青山２丁目２番１５号,,13,103,1070062,,,,,,,2023-12-21,1,,,,,ティースリーズ,0
2045,9010405022811,新規,0,2023-12-21,2023-12-21,一般社団法人ＧＳＦＲ４,,その他の設立登記法人,東京都,港区,西新橋３丁目５番２号,,13,103,1050003,,,,,,,2023-12-21,1,,,,,ジーエスエフアールフォー,0
2047,9010501051532,新規,0,2023-12-21,2023-12-21,株式会社ＩＤＭ事務センター,,株式会社,東京都,台東区,台東２丁目１８番９号長島エレガンス第５ビル５Ｆ,,13,106,1100016,,,,,,,2023-12-21,1,,,,,アイディーエムジムセンター,0
2055,9010701045301,新規,0,2023-12-21,2023-12-21,株式会社Ｆｅｌｉｘ,,株式会社,東京都,品川区,小山３丁目１５番２－１３１０号,,13,109,1420062,,,,,,,2023-12-21,1,,,,,フェリックス,0
2070,9011101105562,新規,0,2023-12-21,2023-12-21,株式会社ＷＡＩ,,株式会社,東京都,新宿区,弁天町１番地１０サンイング早稲田３Ｆ,,13,104,1620851,,,,,,,2023-12-21,1,,,,,ワイ,0
2071,9011101105579,新規,0,2023-12-21,2023-12-21,カワノＫＫキャピタル株式会社,,株式会社,東京都,新宿区,新宿３丁目２６番１８号,,13,104,1600022,,,,,,,2023-12-21,1,,,,,カワノケーケーキャピタル,0
2073,9011105010890,新規,0,2023-12-21,2023-12-21,一般社団法人児童福祉サポート協会,,その他の設立登記法人,東京都,新宿区,四谷４丁目３０番２３号,,13,104,1600004,,,,,,,2023-12-21,1,,,,,ジドウフクシサポートキョウカイ,0
2076,9011203004258,新規,0,2023-12-21,2023-12-21,合同会社ＯＮＥ　ＴＡＢＬＥ,,合同会社,東京都,中野区,東中野１丁目６番１２号フォレスト東中野１階,,13,114,1640003,,,,,,,2023-12-21,1,,,,,ワンテーブル,0
2078,9011403004198,新規,0,2023-12-21,2023-12-21,ＴＫ合同会社,,合同会社,東京都,板橋区,南常盤台１丁目１１－６レフア南常盤台１０１号室,,13,119,1740072,,,,,,,2023-12-21,1,,,,,ティケイ,0
2080,9011501030138,新規,0,2023-12-21,2023-12-21,小微共生株式会社,,株式会社,東京都,荒川区,町屋３丁目２４番２号面川ビル３１６号室,,13,118,1160001,,,,,,,2023-12-21,1,,,,,ショウビキョウセイ,0
2088,9011801043467,新規,0,2023-12-21,2023-12-21,暖藤株式会社,,株式会社,東京都,足立区,伊興４丁目２番２７号ＯｎｅＰｏｉｎｔＦｉｖｅ１０２,,13,121,1210823,,,,,,,2023-12-21,1,,,,,ダントウ,0
2090,9012403006341,新規,0,2023-12-21,2023-12-21,合同会社ｂａｌａｎｃｅ　ｍｅ,,合同会社,東京都,小金井市,貫井北町２丁目１番３号,,13,210,1840015,,,,,,,2023-12-21,1,,,,,バランスミー,0
2091,9012803003269,新規,0,2023-12-21,2023-12-21,アイエイエム合同会社,,合同会社,東京都,立川市,曙町２丁目４２番２３号アーバンライフ立川５０９,,13,202,1900012,,,,,,,2023-12-21,1,,,,,アイエイエム,0
2095,9013301051792,新規,0,2023-12-21,2023-12-21,株式会社ＣＬＡＮ,,株式会社,東京都,豊島区,池袋３丁目２３番３号,,13,116,1710014,,,,,,,2023-12-21,1,,,,,クラン,0
2102,9020001155007,新規,0,2023-12-21,2023-12-21,株式会社ＢＯセキュリティーサービス,,株式会社,神奈川県,川崎市川崎区,砂子２丁目８番地１シャンボール互恵ビル１００２,,14,131,2100006,,,,,,,2023-12-21,1,,,,,ビーオーセキュリティーサービス,0
2105,9020003025208,新規,0,2023-12-21,2023-12-21,ｔｎｋ　ｆｉｔｎｅｓｓ合同会社,,合同会社,神奈川県,横浜市瀬谷区,阿久和東２丁目４９‐１４,,14,114,2460023,,,,,,,2023-12-21,1,,,,,ティーエヌケーフィットネス,0
2112,9030001157811,新規,0,2023-12-21,2023-12-21,ＨＳ工業株式会社,,株式会社,埼玉県,加須市,土手２丁目９番５３号,,11,210,3470056,,,,,,,2023-12-21,1,,,,,エイチエスコウギョウ,0
2116,9030003023284,新規,0,2023-12-21,2023-12-21,合同会社英設備,,合同会社,埼玉県,川口市,北原台１丁目１３番２１－３０３号アビテ東川口,,11,203,3330815,,,,,,,2023-12-21,1,,,,,ハナブサセツビ,0
2121,9040001131451,新規,0,2023-12-21,2023-12-21,株式会社月組,,株式会社,千葉県,野田市,清水４０３－６朝日ビル１階,,12,208,2780043,,,,,,,2023-12-21,1,,,,,ツキグミ,0
2124,9040003023969,新規,0,2023-12-21,2023-12-21,合同会社ＡＳＡ印旛,,合同会社,千葉県,印西市,山田３６２１番地,,12,231,2701604,,,,,,,2023-12-21,1,,,,,エイエスエイインバ,0
2141,9100001037072,新規,0,2023-12-21,2023-12-21,株式会社つながり,,株式会社,長野県,塩尻市,大字広丘吉田１７５９番地,,20,215,3990701,,,,,,,2023-12-21,1,,,,,ツナガリ,0
2144,9110001038053,新規,0,2023-12-21,2023-12-21,株式会社ＵＮＤＥＲ　ＳＰＥＬＬ,,株式会社,新潟県,新潟市中央区,笹口３丁目１６番地１０,,15,103,9500911,,,,,,,2023-12-21,1,,,,,アンダースペル,0
2156,9120001260795,新規,0,2023-12-21,2023-12-21,株式会社メイクリアリティ,,株式会社,大阪府,大阪市中央区,宗右衛門町１番６号アズガーデン日本橋１階１０２,,27,128,5420084,,,,,,,2023-12-21,1,,,,,メイクリアリティ,0
2159,9120003025577,新規,0,2023-12-21,2023-12-21,合同会社津田,,合同会社,大阪府,大阪市東成区,深江北２丁目１２番１８号,,27,115,5370001,,,,,,,2023-12-21,1,,,,,ツダ,0
2161,9120101068734,新規,0,2023-12-21,2023-12-21,株式会社共存共栄,,株式会社,大阪府,松原市,田井城１丁目２３０番地２,,27,217,5800044,,,,,,,2023-12-21,1,,,,,キョウゾンキョウエイ,0
2162,9120103005586,新規,0,2023-12-21,2023-12-21,ＭＩＫＯ合同会社,,合同会社,大阪府,堺市堺区,三宝町３丁２０６番地,,27,141,5900906,,,,,,,2023-12-21,1,,,,,ミコ,0
2165,9122001037678,新規,0,2023-12-21,2023-12-21,株式会社林工務店,,株式会社,大阪府,東大阪市,西石切町６丁目３号３４号,,27,227,5798013,,,,,,,2023-12-21,1,,,,,ハヤシコウムテン,0
2174,9140003019957,新規,0,2023-12-21,2023-12-21,合同会社多助,,合同会社,兵庫県,川西市,栄根２丁目１－１８－３,,28,217,6660021,,,,,,,2023-12-21,1,,,,,タスケ,0
2175,9150003003142,新規,0,2023-12-21,2023-12-21,アフソニア合同会社,,合同会社,奈良県,吉野郡大淀町,大字土田５０７－８９,,29,442,6380811,,,,,,,2023-12-21,1,,,,,アフソニア,0
2177,9160001025575,新規,0,2023-12-21,2023-12-21,株式会社Ｕ・Ｐ,,株式会社,滋賀県,近江八幡市,桜宮町１番地,,25,204,5230893,,,,,,,2023-12-21,1,,,,,ユーピー,0
2178,9160005011258,新規,0,2023-12-21,2023-12-21,一般社団法人香友会,,その他の設立登記法人,滋賀県,長浜市,地福寺町５番３８－５号,,25,203,5260036,,,,,,,2023-12-21,1,,,,,コウユウカイ,0
2184,9180001159462,新規,0,2023-12-21,2023-12-21,株式会社オルパス,,株式会社,愛知県,名古屋市中川区,新家３丁目６０１番地,,23,110,4540972,,,,,,,2023-12-21,1,,,,,オルパス,0
2185,9180001159495,新規,0,2023-12-21,2023-12-21,株式会社前田樹苗園,,株式会社,愛知県,丹羽郡大口町,大御堂１丁目２２０番地４,,23,361,4800138,,,,,,,2023-12-21,1,,,,,マエダジュビョウエン,0
2189,9180301038143,新規,0,2023-12-21,2023-12-21,株式会社ＣＲＥＡＭ,,株式会社,愛知県,安城市,桜町４番２８号パレス安城２０１,,23,212,4460041,,,,,,,2023-12-21,1,,,,,クリーム,0
2190,9180303005942,新規,0,2023-12-21,2023-12-21,菊山合同会社,,合同会社,愛知県,みよし市,三好町中鯰ヶ池８８番地の１,,23,236,4700224,,,,,,,2023-12-21,1,,,,,キクヤマ,0
2191,9180303005950,新規,0,2023-12-21,2023-12-21,合同会社ｂｅ‐ｐｈａｃｔ,,合同会社,愛知県,田原市,大草町北山寺３９‐１０,,23,231,4413425,,,,,,,2023-12-21,1,,,,,ビーファクト,0
2193,9200005013555,新規,0,2023-12-21,2023-12-21,ＴＴＴＨＲＥＥ協同組合,,その他の設立登記法人,岐阜県,多治見市,虎渓山町５丁目６０番地の１５,,21,204,5070014,,,,,,,2023-12-21,1,,,,,ティティスリー,0
2196,9230001020148,新規,0,2023-12-21,2023-12-21,ＦＩＲＳＴ・ＴＪ株式会社,,株式会社,富山県,高岡市,戸出市野瀬７５８番地,,16,202,9391101,,,,,,,2023-12-21,1,,,,,ファーストティージェイ,0
2207,9290001103995,新規,0,2023-12-21,2023-12-21,株式会社福成ホールディングス,,株式会社,福岡県,福岡市南区,長丘４丁目８番３２号,,40,134,8150075,,,,,,,2023-12-21,1,,,,,フクセイホールディングス,0
2208,9290001104119,新規,0,2023-12-21,2023-12-21,電工ヒグチ株式会社,,株式会社,福岡県,糟屋郡宇美町,貴船１丁目２８番２４号,,40,341,8112131,,,,,,,2023-12-21,1,,,,,デンコウヒグチ,0
2209,9290001104135,新規,0,2023-12-21,2023-12-21,株式会社ＢＲＩＧＨＴＺ,,株式会社,福岡県,福岡市中央区,薬院２丁目２番３３号ＯＡＳ薬院ビル１Ｆ,,40,133,8100022,,,,,,,2023-12-21,1,,,,,ブライツ,0
2210,9290003014745,新規,0,2023-12-21,2023-12-21,合同会社ｏａｓｉｓ,,合同会社,福岡県,八女市,室岡１２５５－９,,40,210,8340066,,,,,,,2023-12-21,1,,,,,オアシス,0
2214,9290005019222,新規,0,2023-12-21,2023-12-21,ＮＰＯ法人福岡ファミリーハウス,,その他の設立登記法人,福岡県,福岡市東区,馬出２丁目３番２７号シバタハウス２Ｆ,,40,131,8120054,,,,,,,2023-12-21,1,,,,,,0
2215,9290005019230,新規,0,2023-12-21,2023-12-21,医療法人しまだ内科・循環器クリニック,,その他の設立登記法人,福岡県,福岡市中央区,六本松４丁目２番２号六本松４２１クリニックゾーン,,40,133,8100044,,,,,,,2023-12-21,1,,,,,シマダナイカジュンカンキクリニック,0
2216,9290801030150,新規,0,2023-12-21,2023-12-21,株式会社ＧｏｏＴｒｕｃｋ,,株式会社,福岡県,行橋市,大字福丸７６１番地１,,40,213,8240073,,,,,,,2023-12-21,1,,,,,グットラック,0
2217,9300003002054,新規,0,2023-12-21,2023-12-21,合同会社Ｍｏｖｉｎｇ,,合同会社,佐賀県,鳥栖市,田代昌町４２２番地１,,41,203,8410012,,,,,,,2023-12-21,1,,,,,ムービング,0
2222,9330001031589,新規,0,2023-12-21,2023-12-21,株式会社不知火創建,,株式会社,熊本県,熊本市南区,近見８丁目１１番３１号ＳＥＰＴ近見３０５,,43,104,8614101,,,,,,,2023-12-21,1,,,,,シラヌヒソウケン,0
2224,9340001026150,新規,0,2023-12-21,2023-12-21,株式会社ジャパンエネルギー九州,,株式会社,鹿児島県,曽於郡大崎町,假宿１０４５番地４,,46,468,8997305,,,,,,,2023-12-21,1,,,,,ジャパンエネルギーキュウシュウ,0
2225,9340001026159,新規,0,2023-12-21,2023-12-21,株式会社レガート,,株式会社,鹿児島県,霧島市,国分府中町２４番３０号,,46,218,8994346,,,,,,,2023-12-21,1,,,,,レガート,0
2229,9360003013566,新規,0,2023-12-21,2023-12-21,合同会社いーじゅハウジング,,合同会社,沖縄県,浦添市,伊祖４丁目９番３号Ｋ・Ｍグランドマンション１０１,,47,208,9012132,,,,,,,2023-12-21,1,,,,,イージュハウジング,0
2235,9370001050759,新規,0,2023-12-21,2023-12-21,Ａｂｓｏｌｕｔｅ株式会社,,株式会社,宮城県,名取市,本郷字矢口４５番地の３,,04,207,9892411,,,,,,,2023-12-21,1,,,,,アブソリュート,0
2247,9400003003190,新規,0,2023-12-21,2023-12-21,合同会社ＪＷＢ,,合同会社,岩手県,奥州市,水沢佐倉河字後樋４１番地１,00133072,03,215,0230003,,,,,,,2023-12-21,1,,,,,ジェイダブリュービー,0
2255,9430003015753,新規,0,2023-12-21,2023-12-21,合同会社ＬＬＧＺ,,合同会社,北海道,札幌市北区,北四十条西５丁目５番２５山晃ハイツ麻生７０１号,,01,102,0010040,,,,,,,2023-12-21,1,,,,,エルエルジーゼット,0
2256,9430005014844,新規,0,2023-12-21,2023-12-21,一般財団法人みらい環境,,その他の設立登記法人,北海道,石狩市,新港中央３丁目７５０番地６,,01,235,0613242,,,,,,,2023-12-21,1,,,,,ミライカンキョウ,0
2258,9460103001584,新規,0,2023-12-21,2023-12-21,合同会社エムエスレンタル,,合同会社,北海道,帯広市,西二条南３４丁目２３番地１,,01,207,0800012,,,,,,,2023-12-21,1,,,,,エムエスレンタル,0
2260,9470001019950,新規,0,2023-12-21,2023-12-21,株式会社西山組,,株式会社,香川県,高松市,香川町川東上１８２１番地６,,37,201,7611706,,,,,,,2023-12-21,1,,,,,ニシヤマグミ,0
2263,9500001025375,新規,0,2023-12-21,2023-12-21,株式会社ＭＰＥＣ,,株式会社,愛媛県,松山市,道後多幸町５番２６号シャワーズビル３階,,38,201,7900841,,,,,,,2023-12-21,1,,,,,エムペック,0
2267,9700150122928,新規,0,2023-12-21,2023-12-21,宮若市吉川土地改良区,,その他,福岡県,宮若市,宮田２９番地１,,40,226,8230011,,,,,,,2023-12-21,1,,,,,ミヤワカシヨシカワトチカイリヨウク,0
2268,9700150122985,新規,0,2023-12-21,2023-12-21,ｅｎｓｈｉｚｈｏｕｍｉｎｇｆｅｉｙａｎｇｓｈａｎｇｍａｏｙｏｕｘｉａｎｇｏｎｇｓｉ,,外国会社等,,,,,,,,ｃｈａｎｇｌｉａｎｇｚｈｅｎｔｉａｎｓｈｅｎｇｑｉａｏｓｈｅｑｕ８ｚｕ８ｈａｏ，ｊｉａｎｓｈｉｘｉａｎ，ｅｎｓｈｉｔｕｊｉａｚｕｍｉａｏｚｕｚｉｚｈｉｚｈｏｕ，ｈｕｂｅｉｓｈｅｎｇ,,,,,,2023-12-21,1,,,,,オンシシュウメイヒヨウショウボウユウゲンコウシ,0
