sequenceNumber,corporateNumber,process,correct,updateDate,changeDate,name,nameImageId,kind,prefectureName,cityName,streetNumber,addressImageId,prefectureCode,cityCode,postCode,addressOutside,addressOutsideImageId,closeDate,closeCause,successorCorporateNumber,changeCause,assignmentDate,latest,enName,enPrefectureName,enCityName,enAddressOutside,furigana,hihyoji
5,1010003039876,登記記録の閉鎖等,0,2026-01-06,2025-12-15,合同会社ＭＹＧＫ５号,,合同会社,東京都,千代田区,丸の内１丁目４番１号東京共同会計事務所内,,13,101,1000005,,,2025-12-15,清算の結了等,,,2023-02-20,1,,,,,マイジーケーゴゴウ,0
6,1010005007831,登記記録の閉鎖等,0,2026-01-06,2025-12-26,特定非営利活動法人組込みソフトウェア管理者・技術者育成研究会,,その他の設立登記法人,東京都,中央区,入船１丁目５－１１弘報ビル５階一般社団法人組込みシステム技術協会内,,13,102,1040042,,,2025-12-26,清算の結了等,,,2015-10-05,1,,,,,クミコミソフトウェアカンリシャギジュツシャイクセイケンキュウカイ,0
7,1010005038711,登記記録の閉鎖等,0,2026-01-06,2025-12-25,一般社団法人中野プロパティ,,その他の設立登記法人,東京都,千代田区,神田小川町３丁目２６番８号神田小川町三丁目ビル６階,,13,101,1010052,,,2025-12-25,清算の結了等,,,2024-08-28,1,,,,,ナカノプロパティ,0
22,1010601014859,登記記録の閉鎖等,0,2026-01-06,2025-12-18,株式会社長谷川モータース,,株式会社,東京都,墨田区,墨田２丁目２９番１４号,,13,107,1310031,,,2025-12-18,清算の結了等,,,2015-10-05,1,,,,,ハセガワモータース,0
32,1010902007215,登記記録の閉鎖等,0,2026-01-06,2025-12-26,有限会社シェリーハイツ石田,,有限会社,東京都,世田谷区,桜新町１丁目３８番１３号,,13,112,1540015,,,2025-12-26,清算の結了等,,,2015-10-05,1,,,,,シェリーハイツイシダ,0
50,1011105008703,登記記録の閉鎖等,0,2026-01-06,2025-12-03,一般社団法人任意売却相談テラス,,その他の設立登記法人,東京都,新宿区,新宿２丁目２番１号ビューシティ新宿御苑７０６号室,,13,104,1600022,,,2025-12-03,清算の結了等,,,2019-02-28,1,,,,,ニンイバイキャクソウダンテラス,0
78,1030001146202,登記記録の閉鎖等,0,2026-01-06,2025-12-23,八雲メタル株式会社,,株式会社,埼玉県,川口市,本町２丁目１０番２２－５０３号,,11,203,3320012,,,2025-12-23,清算の結了等,,,2022-01-07,1,,,,,ヤクモメタル,0
79,1030002106931,登記記録の閉鎖等,0,2026-01-06,2025-12-22,有限会社本田特殊印刷,,有限会社,埼玉県,川口市,上青木西１丁目１３番１９号,,11,203,3330845,,,2025-12-22,清算の結了等,,,2015-10-05,1,,,,,ホンダトクシュインサツ,0
82,1030005008448,登記記録の閉鎖等,0,2026-01-06,2025-12-22,医療法人旭町耳鼻咽喉科診療所,,その他の設立登記法人,埼玉県,川越市,旭町２丁目７番地１４,,11,201,3501126,,,2025-12-22,清算の結了等,,,2015-10-05,1,,,,,アサヒマチジビインコウカシンリョウジョ,0
92,1050002034313,登記記録の閉鎖等,0,2026-01-06,2025-12-22,有限会社マツタセツビ工業,,有限会社,茨城県,稲敷市,浮島８５０番地の１,,08,229,3000641,,,2025-12-22,清算の結了等,,,2015-10-05,1,,,,,マツタセツビコウギョウ,0
132,1140001070168,登記記録の閉鎖等,0,2026-01-06,2025-12-22,株式会社福徳ハウジング,,株式会社,兵庫県,西宮市,鳴尾町３丁目７番１号,,28,204,6638184,,,2025-12-22,清算の結了等,,,2015-10-05,1,,,,,フクトクハウジング,0
139,1150001006922,登記記録の閉鎖等,0,2026-01-06,2026-01-05,株式会社上野商会,,株式会社,奈良県,生駒郡平群町,竜田川１丁目３番地１２号,,29,342,6360912,,,2026-01-05,登記官による閉鎖,,,2015-10-05,1,,,,,,0
140,1150001007029,登記記録の閉鎖等,0,2026-01-06,2026-01-05,株式会社水車屋,,株式会社,奈良県,生駒郡斑鳩町,龍田西１丁目１番２５号,00042792,29,344,6360154,,,2026-01-05,登記官による閉鎖,,,2015-10-05,1,,,,,,0
141,1150001007210,登記記録の閉鎖等,0,2026-01-06,2026-01-05,株式会社山本木工,,株式会社,奈良県,生駒郡斑鳩町,目安北１丁目５番１２号,,29,344,6360133,,,2026-01-05,登記官による閉鎖,,,2015-10-05,1,,,,,,0
142,1150001009363,登記記録の閉鎖等,0,2026-01-06,2026-01-05,株式会社島こうじ音楽事務所,,株式会社,奈良県,桜井市,大字川合８７番地の６,,29,206,6330063,,,2026-01-05,登記官による閉鎖,,,2015-10-05,1,,,,,,0
143,1150001009652,登記記録の閉鎖等,0,2026-01-06,2026-01-05,株式会社三京興産,,株式会社,奈良県,桜井市,大字辻２１番地の１,00042906,29,206,6330083,,,2026-01-05,登記官による閉鎖,,,2015-10-05,1,,,,,,0
144,1150001011212,登記記録の閉鎖等,0,2026-01-06,2026-01-05,大光産業株式会社,,株式会社,奈良県,磯城郡川西町,大字保田４８番地の５,,29,361,6360205,,,2026-01-05,登記官による閉鎖,,,2015-10-05,1,,,,,,0
145,1150001012177,登記記録の閉鎖等,0,2026-01-06,2026-01-05,株式会社ＴＡＮＣＨＩ,,株式会社,奈良県,高市郡高取町,大字観覚寺８２４番地３,,29,401,6350154,,,2026-01-05,登記官による閉鎖,,,2015-10-05,1,,,,,,0
146,1150001012821,登記記録の閉鎖等,0,2026-01-06,2026-01-05,信永実業株式会社,,株式会社,奈良県,大和高田市,本郷町１０番２９号,,29,202,6350082,,,2026-01-05,登記官による閉鎖,,,2015-10-05,1,,,,,,0
147,1150001014438,登記記録の閉鎖等,0,2026-01-06,2026-01-05,阪奈産業株式会社,,株式会社,奈良県,御所市,大字東松本３１２番地,,29,208,6392302,,,2026-01-05,登記官による閉鎖,,,2015-10-05,1,,,,,,0
148,1150001019461,登記記録の閉鎖等,0,2026-01-06,2026-01-05,株式会社エスシーソリューション,,株式会社,奈良県,奈良市,佐紀町２７５９番地の１,,29,201,6308003,,,2026-01-05,登記官による閉鎖,,,2015-10-05,1,,,,,,0
149,1150002006483,登記記録の閉鎖等,0,2026-01-06,2026-01-05,有限会社マニーフィコ,,有限会社,奈良県,生駒郡斑鳩町,神南３丁目１６番４号,,29,344,6360143,,,2026-01-05,登記官による閉鎖,,,2015-10-05,1,,,,,,0
150,1150005004658,登記記録の閉鎖等,0,2026-01-06,2026-01-05,中井建設協力企業協同組合,,その他の設立登記法人,奈良県,橿原市,葛本町５１６番地,,29,205,6340007,,,2026-01-05,登記官による閉鎖,,,2015-10-05,1,,,,,,0
151,1150005007231,登記記録の閉鎖等,0,2026-01-06,2026-01-05,大淀町造園協同組合,,その他の設立登記法人,奈良県,吉野郡大淀町,大字馬佐１０００番地の３,,29,442,6393127,,,2026-01-05,登記官による閉鎖,,,2015-10-05,1,,,,,,0
155,1160005010250,登記記録の閉鎖等,0,2026-01-06,2025-12-26,一般社団法人日本中国美術家協会,,その他の設立登記法人,滋賀県,大津市,今堅田３丁目１２番４５－１２０６号,,25,201,5200241,,,2025-12-26,清算の結了等,,,2016-04-19,1,,,,,ニホンチュウゴクビジュツカキョウカイ,0
157,1180001069306,登記記録の閉鎖等,0,2026-01-06,2025-12-25,株式会社健陽社,,株式会社,愛知県,豊明市,三崎町ゆたか台８番地の４,,23,229,4701127,,,2025-12-25,清算の結了等,,,2015-10-05,1,,,,,ケンヨウシャ,0
168,1190002001943,登記記録の閉鎖等,0,2026-01-06,2025-12-26,有限会社西浦建設,,有限会社,三重県,津市,高茶屋６丁目７番５号,,24,201,5140819,,,2025-12-26,清算の結了等,,,2015-10-05,1,,,,,ニシウラケンセツ,0
171,1210001010653,登記記録の閉鎖等,0,2026-01-06,2025-12-22,株式会社ツルデン,,株式会社,福井県,敦賀市,三島町１丁目１番７号,,18,202,9140058,,,2025-12-22,清算の結了等,,,2015-10-05,1,,,,,ツルデン,0
181,1280001000045,登記記録の閉鎖等,0,2026-01-06,2026-01-05,株式会社アテネ商事,,株式会社,島根県,松江市,東津田町１６１３番地,,32,201,6900011,,,2026-01-05,登記官による閉鎖,,,2015-10-05,1,,,,,,0
182,1280001000210,登記記録の閉鎖等,0,2026-01-06,2026-01-05,株式会社コスモ海事,,株式会社,島根県,松江市,下東川津町５５番地９,,32,201,6900822,,,2026-01-05,登記官による閉鎖,,,2015-10-05,1,,,,,,0
183,1280001000219,登記記録の閉鎖等,0,2026-01-06,2026-01-05,小山株式会社,,株式会社,島根県,松江市,嫁島町１２番２号,,32,201,6900047,,,2026-01-05,登記官による閉鎖,,,2015-10-05,1,,,,,,0
184,1280001000227,登記記録の閉鎖等,0,2026-01-06,2026-01-05,山陰オフ輪印刷株式会社,,株式会社,島根県,松江市,魚町７１番地,,32,201,6900062,,,2026-01-05,登記官による閉鎖,,,2015-10-05,1,,,,,,0
185,1280001000425,登記記録の閉鎖等,0,2026-01-06,2026-01-05,ジェー・シー・エム関西株式会社,,株式会社,島根県,松江市,浜乃木７丁目１番１２号,,32,201,6900044,,,2026-01-05,登記官による閉鎖,,,2015-10-05,1,,,,,,0
186,1280001000516,登記記録の閉鎖等,0,2026-01-06,2026-01-05,株式会社南海,,株式会社,島根県,松江市,千鳥町４６番地,,32,201,6900852,,,2026-01-05,登記官による閉鎖,,,2015-10-05,1,,,,,,0
187,1280001000532,登記記録の閉鎖等,0,2026-01-06,2026-01-05,株式会社ナンヨー米子,,株式会社,島根県,松江市,西津田８丁目１３番１９号,,32,201,6900017,,,2026-01-05,登記官による閉鎖,,,2015-10-05,1,,,,,,0
188,1280001000978,登記記録の閉鎖等,0,2026-01-06,2026-01-05,アプサラス株式会社,,株式会社,島根県,松江市,菅田町１番地３,,32,201,6900824,,,2026-01-05,登記官による閉鎖,,,2015-10-05,1,,,,,,0
189,1280001003650,登記記録の閉鎖等,0,2026-01-06,2026-01-05,新興漁業株式会社,,株式会社,島根県,出雲市,小津町８６番地,,32,203,6910041,,,2026-01-05,登記官による閉鎖,,,2015-10-05,1,,,,,,0
190,1280001004533,登記記録の閉鎖等,0,2026-01-06,2026-01-05,青笹木材工業株式会社,,株式会社,島根県,江津市,浅利町１９６０番地２,,32,207,6950002,,,2026-01-05,登記官による閉鎖,,,2015-10-05,1,,,,,,0
195,1290002041533,登記記録の閉鎖等,0,2026-01-06,2025-12-25,有限会社フルヤ内装,,有限会社,福岡県,春日市,松ヶ丘３丁目９７番地,,40,218,8160843,,,2025-12-25,清算の結了等,,,2015-10-05,1,,,,,フルヤナイソウ,0
215,1390002000479,登記記録の閉鎖等,0,2026-01-06,2025-12-26,有限会社エフピーエスカワセ,,有限会社,山形県,山形市,七日町４丁目１４番２６号,,06,201,9900042,,,2025-12-26,清算の結了等,,,2015-10-05,1,,,,,,0
221,1430001059660,登記記録の閉鎖等,0,2026-01-06,2025-12-25,朝日プラントサービス株式会社,,株式会社,北海道,小樽市,銭函３丁目５１９番１,,01,203,0470261,,,2025-12-25,清算の結了等,,,2015-10-05,1,,,,,アサヒプラントサービス,0
245,2010001041544,登記記録の閉鎖等,0,2026-01-06,2025-12-08,キッコーマンレストラン株式会社,,株式会社,東京都,港区,西新橋２丁目１番１号,,13,103,1050003,,,2025-12-08,清算の結了等,,,2015-10-05,1,,,,,キッコーマンレストラン,0
258,2010005031921,登記記録の閉鎖等,0,2026-01-06,2025-12-26,一般社団法人日本医療受診支援研究機構,,その他の設立登記法人,東京都,世田谷区,祖師谷６丁目３２番１６号,,13,112,1570072,,,2025-12-26,清算の結了等,,,2020-06-18,1,,,,,ニホンイリョウジュシンシエンケンキュウキコウ,0
265,2010401188753,登記記録の閉鎖等,0,2026-01-06,2025-12-08,株式会社ＭＩＴＳＵＧＵ,,株式会社,東京都,港区,南青山３丁目１番３６号青山丸竹ビル６Ｆ,,13,103,1070062,,,2025-12-08,清算の結了等,,,2025-03-11,1,,,,,ミツグ,0
266,2010501002665,登記記録の閉鎖等,0,2026-01-06,2025-12-22,アデナック株式会社,,株式会社,東京都,台東区,鳥越２丁目１２番６号,,13,106,1110054,,,2025-12-22,清算の結了等,,,2015-10-05,1,,,,,アデナック,0
268,2010501032472,登記記録の閉鎖等,0,2026-01-06,2025-12-22,株式会社グレビス,,株式会社,東京都,台東区,三筋１丁目６番２号,,13,106,1110055,,,2025-12-22,清算の結了等,,,2015-10-05,1,,,,,,0
283,2011101037556,登記記録の閉鎖等,0,2026-01-06,2025-12-03,株式会社アイ・オウ・エム,,株式会社,東京都,新宿区,西新宿３丁目１３番１１－７０３号,,13,104,1600023,,,2025-12-03,清算の結了等,,,2015-10-05,1,,,,,アイオウエム,0
287,2011302016458,登記記録の閉鎖等,0,2026-01-06,2025-12-24,有限会社片山,,有限会社,東京都,杉並区,和泉４丁目１７番３３号,,13,115,1680063,,,2025-12-24,清算の結了等,,,2015-10-05,1,,,,,カタヤマ,0
305,2020001060023,登記記録の閉鎖等,0,2026-01-06,2025-12-24,株式会社Ｈ＆Ｄ,,株式会社,神奈川県,横浜市港北区,新横浜３丁目２０番地８ベネックスＳ－３ビル,,14,109,2220033,,,2025-12-24,清算の結了等,,,2015-10-05,1,,,,,エイチアンドディー,0
308,2020001106214,登記記録の閉鎖等,0,2026-01-06,2026-01-05,株式会社ＫＭＲ,,株式会社,神奈川県,川崎市幸区,中幸町４丁目９番地５ウエストコート中幸町３０１,,14,132,2120012,,,2026-01-05,清算の結了等,,,2015-10-05,1,,,,,,0
316,2020002014143,登記記録の閉鎖等,0,2026-01-06,2025-12-25,エクセテックジャパン有限会社,,有限会社,神奈川県,横浜市青葉区,新石川２丁目１４番１４号ルミエール・アイ・たまプラーザ１０１号,,14,117,2250003,,,2025-12-25,清算の結了等,,,2015-10-05,1,,,,,エクセテックジャパン,0
319,2020002085787,登記記録の閉鎖等,0,2026-01-06,2026-01-05,有限会社宇賀村冷熱,,有限会社,神奈川県,川崎市宮前区,南野川３丁目３２番２７－１０５号サザンコート,,14,136,2160042,,,2026-01-05,清算の結了等,,,2015-10-05,1,,,,,,0
320,2020003010868,登記記録の閉鎖等,0,2026-01-06,2025-12-26,合同会社ＫＺＫ,,合同会社,神奈川県,横浜市旭区,笹野台１丁目４２番１７号,,14,112,2410816,,,2025-12-26,清算の結了等,,,2016-01-26,1,,,,,ケージーケー,0
321,2020003013615,登記記録の閉鎖等,0,2026-01-06,2026-01-05,合同会社高尾,,合同会社,神奈川県,横浜市保土ケ谷区,今井町７８４番地１,,14,106,2400035,,,2026-01-05,清算の結了等,,,2017-12-12,1,,,,,タカオ,0
322,2020003015479,登記記録の閉鎖等,0,2026-01-06,2025-12-26,株式会社Ｇｉｆｔｅｄ　Ｎｏｔｅ,,株式会社,東京都,渋谷区,恵比寿４丁目２０－４恵比寿ガーデンプレイスグラススクエア内,,13,113,1500013,,,2025-12-26,合併による解散等,7120901022181,令和７年１２月２１日大阪市福島区福島一丁目４番４０号株式会社サムシングファン（7120901022181）に合併し解散,2019-01-21,1,,,,,ギフテッドノート,0
329,2030001045072,登記記録の閉鎖等,0,2026-01-06,2025-12-22,株式会社本多オート・サービス,,株式会社,埼玉県,朝霞市,根岸台６丁目１０番４０号,,11,227,3510005,,,2025-12-22,清算の結了等,,,2015-10-05,1,,,,,ホンダオートサービス,0
330,2030001050816,登記記録の閉鎖等,0,2026-01-06,2025-12-22,株式会社一紘ビジネスシステム,,株式会社,埼玉県,春日部市,緑町１丁目６番１５号,,11,214,3440063,,,2025-12-22,清算の結了等,,,2015-10-05,1,,,,,イチコウビジネスシステム,0
342,2040002081438,登記記録の閉鎖等,0,2026-01-06,2025-12-18,有限会社ヌーボー,,有限会社,千葉県,茂原市,高師１７３５番地,,12,210,2970029,,,2025-12-18,清算の結了等,,,2015-10-05,1,,,,,ヌーボー,0
350,2050002024024,登記記録の閉鎖等,0,2026-01-06,2025-12-22,有限会社セバタ時計店,,有限会社,茨城県,古河市,中央町１丁目５番４号,,08,204,3060033,,,2025-12-22,清算の結了等,,,2015-10-05,1,,,,,セバタトケイテン,0
352,2060001032290,登記記録の閉鎖等,0,2026-01-06,2025-12-26,株式会社ブラン,,株式会社,栃木県,宇都宮市,宿郷５丁目１８番３号,,09,201,3210945,,,2025-12-26,清算の結了等,,,2020-02-04,1,,,,,ブラン,0
367,2120001198514,登記記録の閉鎖等,0,2026-01-06,2025-12-25,株式会社トータルヘルスプランニング,,株式会社,大阪府,大阪市天王寺区,石ケ辻町１８番２４号リバーライズ上本町７０５号,00140883,27,109,5430031,,,2025-12-25,清算の結了等,,,2016-06-01,1,,,,,トータルヘルスプランニング,0
369,2120001258086,登記記録の閉鎖等,0,2026-01-06,2025-12-26,株式会社Ｌｅｏｎ,,株式会社,大阪府,大阪市北区,梅田１丁目１－３大阪駅前第３ビル２９階１－１－１号室,,27,127,5300001,,,2025-12-26,清算の結了等,,,2023-09-19,1,,,,,レオン,0
376,2120003013539,登記記録の閉鎖等,0,2026-01-06,2025-12-24,合同会社ｉｎｎｏｃｅｎｃｅ,,合同会社,東京都,葛飾区,東金町２丁目２６番１１号,,13,122,1250041,,,2025-12-24,清算の結了等,,,2017-11-15,1,,,,,イノセンス,0
382,2120101006683,登記記録の閉鎖等,0,2026-01-06,2025-12-08,株式会社ホテル大阪,,株式会社,大阪府,大阪市西成区,萩之茶屋２丁目１番２３号,,27,122,5570004,,,2025-12-08,清算の結了等,,,2015-10-05,1,,,,,ホテルオオサカ,0
385,2120901001727,登記記録の閉鎖等,0,2026-01-06,2026-01-05,播磨運輸株式会社,,株式会社,大阪府,茨木市,宮島３丁目２番３６号,,27,211,5670853,,,2026-01-05,清算の結了等,,,2015-10-05,1,,,,,,0
401,2140001081437,登記記録の閉鎖等,0,2026-01-06,2025-12-25,株式会社楠住建,,株式会社,兵庫県,宝塚市,安倉南１丁目１２番３号,,28,214,6650823,,,2025-12-25,清算の結了等,,,2015-10-05,1,,,,,クスノキジュウケン,0
405,2150001000478,登記記録の閉鎖等,0,2026-01-06,2026-01-05,株式会社カタリス,,株式会社,奈良県,奈良市,朝日町１丁目２番３３号,,29,201,6310014,,,2026-01-05,登記官による閉鎖,,,2015-10-05,1,,,,,,0
406,2150001001113,登記記録の閉鎖等,0,2026-01-06,2026-01-05,株式会社セキセイ,,株式会社,奈良県,奈良市,登大路町５７番地,,29,201,6308213,,,2026-01-05,登記官による閉鎖,,,2015-10-05,1,,,,,,0
407,2150001001195,登記記録の閉鎖等,0,2026-01-06,2026-01-05,株式会社大成産業,,株式会社,奈良県,奈良市,七条１丁目９番３１号,,29,201,6308053,,,2026-01-05,登記官による閉鎖,,,2015-10-05,1,,,,,,0
408,2150001001542,登記記録の閉鎖等,0,2026-01-06,2026-01-05,株式会社ならメイズ・パーク,,株式会社,奈良県,奈良市,西大寺南町１番３号,,29,201,6310824,,,2026-01-05,登記官による閉鎖,,,2015-10-05,1,,,,,,0
409,2150001002986,登記記録の閉鎖等,0,2026-01-06,2026-01-05,株式会社イーズ・ソリューションズ,,株式会社,奈良県,奈良市,油阪町４４６番地の１６,,29,201,6308247,,,2026-01-05,登記官による閉鎖,,,2015-10-05,1,,,,,,0
410,2150001003027,登記記録の閉鎖等,0,2026-01-06,2026-01-05,株式会社新光社,,株式会社,奈良県,奈良市,佐紀町２６８０番地,,29,201,6308003,,,2026-01-05,登記官による閉鎖,,,2015-10-05,1,,,,,,0
411,2150001005287,登記記録の閉鎖等,0,2026-01-06,2026-01-05,株式会社料亭古賀,,株式会社,奈良県,生駒市,門前町１０番８号,,29,209,6300266,,,2026-01-05,登記官による閉鎖,,,2015-10-05,1,,,,,,0
412,2150001005824,登記記録の閉鎖等,0,2026-01-06,2026-01-05,株式会社三有,,株式会社,奈良県,大和郡山市,南井町１９番地の９８,,29,203,6391024,,,2026-01-05,登記官による閉鎖,,,2015-10-05,1,,,,,,0
413,2150001005948,登記記録の閉鎖等,0,2026-01-06,2026-01-05,徳本産業株式会社,,株式会社,奈良県,大和郡山市,井戸野町３４４番地の１,,29,203,6391104,,,2026-01-05,登記官による閉鎖,,,2015-10-05,1,,,,,,0
414,2150001006161,登記記録の閉鎖等,0,2026-01-06,2026-01-05,株式会社吉川モータース,,株式会社,奈良県,大和郡山市,柳町９６番地の１,,29,203,6391134,,,2026-01-05,登記官による閉鎖,,,2015-10-05,1,,,,,,0
415,2150001006863,登記記録の閉鎖等,0,2026-01-06,2026-01-05,旭産業株式会社,,株式会社,奈良県,生駒郡斑鳩町,神南３丁目２０番７号,,29,344,6360143,,,2026-01-05,登記官による閉鎖,,,2015-10-05,1,,,,,,0
416,2150001007151,登記記録の閉鎖等,0,2026-01-06,2026-01-05,フジ照明株式会社,,株式会社,奈良県,生駒郡平群町,竜田川１丁目１１番１６号,,29,342,6360912,,,2026-01-05,登記官による閉鎖,,,2015-10-05,1,,,,,,0
417,2150001009263,登記記録の閉鎖等,0,2026-01-06,2026-01-05,株式会社かわち洋装店,,株式会社,奈良県,桜井市,大字桜井１６７番地,,29,206,6330091,,,2026-01-05,登記官による閉鎖,,,2015-10-05,1,,,,,,0
418,2150001009321,登記記録の閉鎖等,0,2026-01-06,2026-01-05,三共自動車株式会社,,株式会社,奈良県,桜井市,大字忍阪１２３９番地の１,,29,206,6330005,,,2026-01-05,登記官による閉鎖,,,2015-10-05,1,,,,,,0
419,2150001010411,登記記録の閉鎖等,0,2026-01-06,2026-01-05,株式会社川口電器,,株式会社,奈良県,橿原市,四条町８２０番地,,29,205,6340813,,,2026-01-05,登記官による閉鎖,,,2015-10-05,1,,,,,,0
420,2150001010907,登記記録の閉鎖等,0,2026-01-06,2026-01-05,福岡建設株式会社,,株式会社,奈良県,橿原市,葛本町６５番地の１,,29,205,6340007,,,2026-01-05,登記官による閉鎖,,,2015-10-05,1,,,,,,0
421,2150001011087,登記記録の閉鎖等,0,2026-01-06,2026-01-05,株式会社レンタルハウス日興,,株式会社,奈良県,橿原市,新賀町２３４番地の２,,29,205,6340006,,,2026-01-05,登記官による閉鎖,,,2015-10-05,1,,,,,,0
422,2150001011475,登記記録の閉鎖等,0,2026-01-06,2026-01-05,株式会社アット・ワークス,,株式会社,奈良県,橿原市,八木町１丁目８番１８号,,29,205,6340078,,,2026-01-05,登記官による閉鎖,,,2015-10-05,1,,,,,,0
423,2150001012300,登記記録の閉鎖等,0,2026-01-06,2026-01-05,アイリスゴルフ株式会社,,株式会社,奈良県,北葛城郡上牧町,大字上牧３９２３番地,,29,424,6390214,,,2026-01-05,登記官による閉鎖,,,2015-10-05,1,,,,,,0
424,2150001012317,登記記録の閉鎖等,0,2026-01-06,2026-01-05,株式会社アートワーク,,株式会社,奈良県,葛城市,忍海字五反田１４５番地の１,,29,211,6392123,,,2026-01-05,登記官による閉鎖,,,2015-10-05,1,,,,,,0
425,2150001012481,登記記録の閉鎖等,0,2026-01-06,2026-01-05,株式会社おくりゅう,,株式会社,奈良県,香芝市,逢坂３丁目４３６番地,00042966,29,210,6390251,,,2026-01-05,登記官による閉鎖,,,2015-10-05,1,,,,,,0
426,2150001014255,登記記録の閉鎖等,0,2026-01-06,2026-01-05,アクティサン・ユカ株式会社,,株式会社,奈良県,北葛城郡上牧町,滝川台２丁目８番２５号,,29,424,6390211,,,2026-01-05,登記官による閉鎖,,,2015-10-05,1,,,,,,0
427,2150001015625,登記記録の閉鎖等,0,2026-01-06,2026-01-05,山一木材株式会社,,株式会社,奈良県,五條市,住川町８８９番地,,29,207,6370014,,,2026-01-05,登記官による閉鎖,,,2015-10-05,1,,,,,,0
429,2150002000246,登記記録の閉鎖等,0,2026-01-06,2026-01-05,有限会社ウチダ,,有限会社,奈良県,奈良市,川上町６６番地の４,,29,201,6308202,,,2026-01-05,登記官による閉鎖,,,2015-10-05,1,,,,,,0
430,2150002003430,登記記録の閉鎖等,0,2026-01-06,2026-01-05,有限会社懸尾電気,,有限会社,奈良県,奈良市,高天町５番地の４,,29,201,6308241,,,2026-01-05,登記官による閉鎖,,,2015-10-05,1,,,,,,0
431,2150002009700,登記記録の閉鎖等,0,2026-01-06,2026-01-05,有限会社松本クリエイト,,有限会社,奈良県,香芝市,今泉７９２番地の２０,,29,210,6390264,,,2026-01-05,登記官による閉鎖,,,2015-10-05,1,,,,,,0
432,2150005003774,登記記録の閉鎖等,0,2026-01-06,2026-01-05,一般社団法人ジャパンユナイテッドピュアセラピスト協会,,その他の設立登記法人,奈良県,生駒市,門前町１２－１２,,29,209,6300266,,,2026-01-05,登記官による閉鎖,,,2015-10-05,1,,,,,,0
433,2150005005622,登記記録の閉鎖等,0,2026-01-06,2026-01-05,一般社団法人バーリャ南妃式予防医学研究会,,その他の設立登記法人,奈良県,奈良市,内侍原町２７番地の１,,29,201,6308253,,,2026-01-05,登記官による閉鎖,,,2015-10-05,1,,,,,,0
434,2150005005861,登記記録の閉鎖等,0,2026-01-06,2026-01-05,香芝中央デパート商業協同組合,,その他の設立登記法人,奈良県,香芝市,磯壁４１番地の１香芝中央デパート内,,29,210,6390236,,,2026-01-05,登記官による閉鎖,,,2015-10-05,1,,,,,,0
435,2150005005936,登記記録の閉鎖等,0,2026-01-06,2026-01-05,西教寺,,その他の設立登記法人,奈良県,北葛城郡広陵町,大字沢８６４番地,,29,426,6350804,,,2026-01-05,登記官による閉鎖,,,2015-10-05,1,,,,,,0
436,2150005006579,登記記録の閉鎖等,0,2026-01-06,2026-01-05,旭畜産農業協同組合,,その他の設立登記法人,奈良県,御所市,大字柏原１４７９番地,,29,208,6392244,,,2026-01-05,登記官による閉鎖,,,2015-10-05,1,,,,,,0
437,2150005007247,登記記録の閉鎖等,0,2026-01-06,2026-01-05,吉野町養蚕農業協同組合,,その他の設立登記法人,奈良県,吉野郡吉野町,大字上市８０番地の１,,29,441,6393111,,,2026-01-05,登記官による閉鎖,,,2015-10-05,1,,,,,,0
438,2150005007263,登記記録の閉鎖等,0,2026-01-06,2026-01-05,下市農産物加工農業協同組合,,その他の設立登記法人,奈良県,吉野郡下市町,大字＿邑２２８番地,00044071,29,443,6380011,,,2026-01-05,登記官による閉鎖,,,2015-10-05,1,,,,,,0
442,2170002004914,登記記録の閉鎖等,0,2026-01-06,2025-12-26,有限会社あおいヘルパー,,有限会社,和歌山県,和歌山市,和歌浦中１丁目２番１１号,,30,201,6410025,,,2025-12-26,清算の結了等,,,2015-10-05,1,,,,,アオイヘルパー,0
448,2180002081671,登記記録の閉鎖等,0,2026-01-06,2025-12-25,有限会社エムアンドエス,,有限会社,愛知県,犬山市,上坂町５丁目１３８番地,,23,215,4840059,,,2025-12-25,清算の結了等,,,2015-10-05,1,,,,,エムアンドエス,0
452,2180301021898,登記記録の閉鎖等,0,2026-01-06,2025-12-22,株式会社日本スチールチエイン製作所,,株式会社,愛知県,刈谷市,神明町４丁目５１７番地,,23,210,4480034,,,2025-12-22,清算の結了等,,,2015-10-05,1,,,,,ニホンスチールチエインセイサクジョ,0
453,2180302026632,登記記録の閉鎖等,0,2026-01-06,2025-12-23,有限会社中新鋳造所,,有限会社,愛知県,西尾市,田貫町東山５３番地,,23,213,4440301,,,2025-12-23,清算の結了等,,,2015-10-05,1,,,,,ナカシンチュウゾウショ,0
455,2200001038901,登記記録の閉鎖等,0,2026-01-06,2025-12-24,株式会社不破製作所,,株式会社,岐阜県,不破郡垂井町,１６０８番地,,21,361,5032121,,,2025-12-24,清算の結了等,,,2021-07-29,1,,,,,フワセイサクショ,0
459,2200002016088,登記記録の閉鎖等,0,2026-01-06,2025-12-25,有限会社白木ブルドーザー,,有限会社,岐阜県,美濃加茂市,下米田町今３７０番地,,21,211,5050015,,,2025-12-25,清算の結了等,,,2015-10-05,1,,,,,シラキブルドーザー,0
466,2280001000085,登記記録の閉鎖等,0,2026-01-06,2026-01-05,株式会社井原商店,,株式会社,島根県,松江市,魚町１番地,,32,201,6900062,,,2026-01-05,登記官による閉鎖,,,2015-10-05,1,,,,,,0
467,2280001002486,登記記録の閉鎖等,0,2026-01-06,2026-01-05,タカハラ島根株式会社,,株式会社,島根県,安来市,伯太町西母里１０番地,,32,206,6920212,,,2026-01-05,登記官による閉鎖,,,2015-10-05,1,,,,,,0
468,2280001003947,登記記録の閉鎖等,0,2026-01-06,2026-01-05,石州木材株式会社,,株式会社,島根県,大田市,鳥井町鳥越４１３番地７,,32,205,6940053,,,2026-01-05,登記官による閉鎖,,,2015-10-05,1,,,,,,0
469,2280001004433,登記記録の閉鎖等,0,2026-01-06,2026-01-05,三宅建設株式会社,,株式会社,島根県,浜田市,黒川町２１７番地１,,32,202,6970024,,,2026-01-05,登記官による閉鎖,,,2015-10-05,1,,,,,,0
470,2280001004961,登記記録の閉鎖等,0,2026-01-06,2026-01-05,アクシス株式会社,,株式会社,島根県,益田市,高津町イ１７４３番８,,32,204,6980041,,,2026-01-05,登記官による閉鎖,,,2015-10-05,1,,,,,,0
472,2280002004696,登記記録の閉鎖等,0,2026-01-06,2026-01-05,有限会社サカタ技研,,有限会社,島根県,安来市,広瀬町石原３２７番地２,,32,206,6920401,,,2026-01-05,登記官による閉鎖,,,2015-10-05,1,,,,,,0
473,2280005004000,登記記録の閉鎖等,0,2026-01-06,2026-01-05,一般社団法人グラビア図書館,,その他の設立登記法人,島根県,出雲市,大社町杵築西２０７８番地,,32,203,6990751,,,2026-01-05,登記官による閉鎖,,,2015-10-05,1,,,,,,0
493,2380002022580,登記記録の閉鎖等,0,2026-01-06,2025-12-24,有限会社エス・エス精機,,有限会社,福島県,いわき市,小名浜大原字富岡前５１番地の１,,07,204,9718111,,,2025-12-24,清算の結了等,,,2015-10-05,1,,,,,エスエスセイキ,0
513,3010001220353,登記記録の閉鎖等,0,2026-01-06,2025-12-11,ルイーダ株式会社,,株式会社,東京都,千代田区,外神田３丁目１５番６号小暮末広ビル４階,,13,101,1010021,,,2025-12-11,清算の結了等,,,2021-08-12,1,,,,,ルイーダ,0
521,3010005026664,登記記録の閉鎖等,0,2026-01-06,2025-12-25,一般社団法人産業ソーシャルワーカー協会,,その他の設立登記法人,東京都,千代田区,有楽町１丁目９番１号日比谷サンケイビル５階・小笠原国際総合法律事務所内,,13,101,1000006,,,2025-12-25,清算の結了等,,,2017-04-05,1,,,,,サンギョウソーシャルワーカーキョウカイ,0
541,3010902014606,登記記録の閉鎖等,0,2026-01-06,2025-12-25,有限会社三浦塗装店,,有限会社,東京都,世田谷区,北沢３丁目３４番７号,,13,112,1550031,,,2025-12-25,清算の結了等,,,2015-10-05,1,,,,,ミウラトソウテン,0
542,3010903007732,登記記録の閉鎖等,0,2026-01-06,2025-12-26,合同会社ＳＴＯＮＥＳ,,合同会社,東京都,世田谷区,中町５丁目９－６ブランズシティ世田谷中町２０６,,13,112,1580091,,,2025-12-26,清算の結了等,,,2022-10-26,1,,,,,ストーンズ,0
548,3011101052059,登記記録の閉鎖等,0,2026-01-06,2025-12-04,株式会社中央舎,,株式会社,東京都,新宿区,西新宿７丁目１８番７号,,13,104,1600023,,,2025-12-04,清算の結了等,,,2015-10-05,1,,,,,チュウオウシャ,0
549,3011101103555,登記記録の閉鎖等,0,2026-01-06,2025-12-04,株式会社ＮＢ,,株式会社,東京都,新宿区,西新宿７丁目５番５号Ｐｌａｚａ西新宿ＵＣＦ４階,,13,104,1600023,,,2025-12-04,清算の結了等,,,2023-07-11,1,,,,,エヌビー,0
552,3011105010384,登記記録の閉鎖等,0,2026-01-06,2025-12-03,一般社団法人チアフル,,その他の設立登記法人,東京都,新宿区,早稲田鶴巻町５５３番地牛山第２ビル２０１,,13,104,1620041,,,2025-12-03,清算の結了等,,,2022-08-30,1,,,,,チアフル,0
555,3011701002776,登記記録の閉鎖等,0,2026-01-06,2025-12-22,株式会社興運社,,株式会社,東京都,江戸川区,西葛西６丁目２８番１３号,,13,123,1340088,,,2025-12-22,清算の結了等,,,2015-10-05,1,,,,,コウウンシャ,0
568,3020001069096,登記記録の閉鎖等,0,2026-01-06,2025-12-26,株式会社春日建設,,株式会社,神奈川県,川崎市中原区,下小田中２丁目１８番７号,,14,133,2110041,,,2025-12-26,清算の結了等,,,2015-10-05,1,,,,,カスガケンセツ,0
578,3030002000645,登記記録の閉鎖等,0,2026-01-06,2025-12-22,アイル・ホームサービス有限会社,,有限会社,埼玉県,さいたま市大宮区,大門町３丁目２０５番地,,11,103,3300846,,,2025-12-22,清算の結了等,,,2015-10-05,1,,,,,アイルホームサービス,0
592,3060001027884,登記記録の閉鎖等,0,2026-01-06,2025-12-26,株式会社チェリッシュ,,株式会社,栃木県,宇都宮市,平松本町８３１番地９,,09,201,3210932,,,2025-12-26,清算の結了等,,,2016-01-22,1,,,,,チェリッシュ,0
596,3070001043047,登記記録の閉鎖等,0,2026-01-06,2025-12-25,株式会社ｖｅｇａ,,株式会社,群馬県,高崎市,栄町１４番１１号,,10,202,3700841,,,2025-12-25,清算の結了等,,,2025-06-18,1,,,,,ベガ,0
599,3080102021751,登記記録の閉鎖等,0,2026-01-06,2025-12-25,有限会社山本印刷,,有限会社,静岡県,賀茂郡松崎町,松崎３９３番地の１,,22,305,4103611,,,2025-12-25,清算の結了等,,,2015-10-05,1,,,,,ヤマモトインサツ,0
600,3080105005660,登記記録の閉鎖等,0,2026-01-06,2025-12-24,一般社団法人自然治癒力の学校やすらぎ,,その他の設立登記法人,静岡県,田方郡函南町,平井１７５３番地の１８２,,22,325,4190107,,,2025-12-24,清算の結了等,,,2016-07-15,1,,,,,シゼンチユリョクノガッコウヤスラギ,0
602,3100002003211,登記記録の閉鎖等,0,2026-01-06,2025-12-25,有限会社蔦連酒店,,有限会社,長野県,長野市,若里５丁目１２番４３号,,20,201,3800928,,,2025-12-25,清算の結了等,,,2015-10-05,1,,,,,ツタレンサケテン,0
611,3120001025865,登記記録の閉鎖等,0,2026-01-06,2025-12-26,和歌浦屋食品株式会社,,株式会社,大阪府,大阪市天王寺区,味原町７番１７号,,27,109,5430023,,,2025-12-26,清算の結了等,,,2015-10-05,1,,,,,ワカウラヤショクヒン,0
625,3122002013287,登記記録の閉鎖等,0,2026-01-06,2026-01-05,有限会社栄和金属,,有限会社,奈良県,北葛城郡広陵町,大字古寺６１６番地,,29,426,6350815,,,2026-01-05,登記官による閉鎖,,,2015-10-05,1,,,,,,0
632,3130002000057,登記記録の閉鎖等,0,2026-01-06,2025-12-25,有限会社梓,,有限会社,京都府,京都市右京区,鳴滝川西町３５番地の８,,26,108,6168246,,,2025-12-25,清算の結了等,,,2015-10-05,1,,,,,アズサ,0
649,3150001000312,登記記録の閉鎖等,0,2026-01-06,2026-01-05,株式会社エス・ワイ・システムズ,,株式会社,奈良県,奈良市,朱雀６丁目１９番地の１４Ｃ－１０１,,29,201,6310806,,,2026-01-05,登記官による閉鎖,,,2015-10-05,1,,,,,,0
650,3150001000477,登記記録の閉鎖等,0,2026-01-06,2026-01-05,株式会社カタヒラ,,株式会社,奈良県,奈良市,帝塚山南４丁目１４番１６号,,29,201,6310064,,,2026-01-05,登記官による閉鎖,,,2015-10-05,1,,,,,,0
651,3150001000691,登記記録の閉鎖等,0,2026-01-06,2026-01-05,株式会社クラケン,,株式会社,奈良県,奈良市,五条２丁目２０番２３号,,29,201,6308033,,,2026-01-05,登記官による閉鎖,,,2015-10-05,1,,,,,,0
652,3150001001153,登記記録の閉鎖等,0,2026-01-06,2026-01-05,株式会社ソフィア教育アカデミー,,株式会社,奈良県,奈良市,富雄元町２丁目６番３３号奈良富雄郵便局ビル２階,,29,201,6310078,,,2026-01-05,登記官による閉鎖,,,2015-10-05,1,,,,,,0
653,3150001001533,登記記録の閉鎖等,0,2026-01-06,2026-01-05,ナラニチ建物管理株式会社,,株式会社,奈良県,奈良市,西大寺南町１番３号,,29,201,6310824,,,2026-01-05,登記官による閉鎖,,,2015-10-05,1,,,,,,0
654,3150001001657,登記記録の閉鎖等,0,2026-01-06,2026-01-05,奈良興発株式会社,,株式会社,奈良県,奈良市,柏木町３９８番地,,29,201,6308031,,,2026-01-05,登記官による閉鎖,,,2015-10-05,1,,,,,,0
655,3150001001665,登記記録の閉鎖等,0,2026-01-06,2026-01-05,大和大宮自動車株式会社,,株式会社,奈良県,奈良市,三条大宮町１番５号,,29,201,6308123,,,2026-01-05,登記官による閉鎖,,,2015-10-05,1,,,,,,0
656,3150001002102,登記記録の閉鎖等,0,2026-01-06,2026-01-05,株式会社福徳建設,,株式会社,奈良県,奈良市,芝辻町４丁目１１番地の１０,00042638,29,201,6308114,,,2026-01-05,登記官による閉鎖,,,2015-10-05,1,,,,,,0
657,3150001002309,登記記録の閉鎖等,0,2026-01-06,2026-01-05,株式会社丸福大森商店,,株式会社,奈良県,奈良市,四条大路南町２４番５号,,29,201,6308015,,,2026-01-05,登記官による閉鎖,,,2015-10-05,1,,,,,,0
658,3150001003026,登記記録の閉鎖等,0,2026-01-06,2026-01-05,株式会社みやと,,株式会社,奈良県,奈良市,佐紀町２６８０番地,,29,201,6308003,,,2026-01-05,登記官による閉鎖,,,2015-10-05,1,,,,,,0
659,3150001004890,登記記録の閉鎖等,0,2026-01-06,2026-01-05,株式会社信和,,株式会社,奈良県,生駒市,北新町１２番３１号,,29,209,6300245,,,2026-01-05,登記官による閉鎖,,,2015-10-05,1,,,,,,0
660,3150001004957,登記記録の閉鎖等,0,2026-01-06,2026-01-05,新星商事株式会社,,株式会社,奈良県,生駒市,さつき台２丁目４５０番地７８,,29,209,6300221,,,2026-01-05,登記官による閉鎖,,,2015-10-05,1,,,,,,0
661,3150001005030,登記記録の閉鎖等,0,2026-01-06,2026-01-05,株式会社トキ,,株式会社,奈良県,生駒市,鹿ノ台北１丁目２番地の７,,29,209,6300111,,,2026-01-05,登記官による閉鎖,,,2015-10-05,1,,,,,,0
662,3150001005708,登記記録の閉鎖等,0,2026-01-06,2026-01-05,光洋運輸株式会社,,株式会社,奈良県,大和郡山市,杉町４１番地の１,,29,203,6391121,,,2026-01-05,登記官による閉鎖,,,2015-10-05,1,,,,,,0
663,3150001006763,登記記録の閉鎖等,0,2026-01-06,2026-01-05,株式会社ムック,,株式会社,奈良県,天理市,石上町３６３番地１,,29,204,6320011,,,2026-01-05,登記官による閉鎖,,,2015-10-05,1,,,,,,0
664,3150001006788,登記記録の閉鎖等,0,2026-01-06,2026-01-05,株式会社ヤマシタ,,株式会社,奈良県,天理市,二階堂上ノ庄町１７３番地の７９,,29,204,6320081,,,2026-01-05,登記官による閉鎖,,,2015-10-05,1,,,,,,0
665,3150001006904,登記記録の閉鎖等,0,2026-01-06,2026-01-05,株式会社イケダ商事,,株式会社,奈良県,生駒郡安堵町,大字東安堵１１２番地の１,,29,345,6391061,,,2026-01-05,登記官による閉鎖,,,2015-10-05,1,,,,,,0
666,3150001009790,登記記録の閉鎖等,0,2026-01-06,2026-01-05,西光毛皮株式会社,,株式会社,奈良県,宇陀市,菟田野岩崎５９２番地の１,00048894,29,212,6332227,,,2026-01-05,登記官による閉鎖,,,2015-10-05,1,,,,,,0
667,3150001010682,登記記録の閉鎖等,0,2026-01-06,2026-01-05,株式会社ダイコク,,株式会社,奈良県,橿原市,東竹田町４９７番地の２,,29,205,6340002,,,2026-01-05,登記官による閉鎖,,,2015-10-05,1,,,,,,0
668,3150001011508,登記記録の閉鎖等,0,2026-01-06,2026-01-05,株式会社モモヤ工務店,,株式会社,奈良県,磯城郡三宅町,大字屏風６６番地３,,29,362,6360217,,,2026-01-05,登記官による閉鎖,,,2015-10-05,1,,,,,,0
669,3150001012745,登記記録の閉鎖等,0,2026-01-06,2026-01-05,三和ニット株式会社,,株式会社,奈良県,大和高田市,大字西坊城２３０番地の１,,29,202,6350058,,,2026-01-05,登記官による閉鎖,,,2015-10-05,1,,,,,,0
670,3150001015418,登記記録の閉鎖等,0,2026-01-06,2026-01-05,株式会社オーシャン企画,,株式会社,奈良県,五條市,田園４丁目３１番地の５,,29,207,6370093,,,2026-01-05,登記官による閉鎖,,,2015-10-05,1,,,,,,0
671,3150001015442,登記記録の閉鎖等,0,2026-01-06,2026-01-05,近畿工業採石株式会社,,株式会社,奈良県,五條市,今井２丁目３番３２号,,29,207,6370004,,,2026-01-05,登記官による閉鎖,,,2015-10-05,1,,,,,,0
672,3150001015491,登記記録の閉鎖等,0,2026-01-06,2026-01-05,島村建設株式会社,,株式会社,奈良県,五條市,二見１丁目１１番１５号,,29,207,6370071,,,2026-01-05,登記官による閉鎖,,,2015-10-05,1,,,,,,0
673,3150001015574,登記記録の閉鎖等,0,2026-01-06,2026-01-05,ノーザンウール株式會社,,株式会社,奈良県,五條市,東阿田町７８番地,,29,207,6370021,,,2026-01-05,登記官による閉鎖,,,2015-10-05,1,,,,,,0
674,3150001015590,登記記録の閉鎖等,0,2026-01-06,2026-01-05,株式会社ぽぷら企画,,株式会社,奈良県,五條市,生子町１７２番地,,29,207,6370053,,,2026-01-05,登記官による閉鎖,,,2015-10-05,1,,,,,,0
676,3150001022694,登記記録の閉鎖等,0,2026-01-06,2025-12-24,株式会社ＤＳトレーディング,,株式会社,奈良県,橿原市,石原田町１０８番地の３８,,29,205,6340014,,,2025-12-24,清算の結了等,,,2018-12-14,1,,,,,ディーエストレーディング,0
677,3150001023890,登記記録の閉鎖等,0,2026-01-06,2026-01-05,株式会社サトー,,株式会社,奈良県,奈良市,西大寺国見町１丁目２番２号,,29,201,6310823,,,2026-01-05,登記官による閉鎖,,,2020-07-07,1,,,,,サトー,0
678,3150002005293,登記記録の閉鎖等,0,2026-01-06,2026-01-05,有限会社明晃電設,,有限会社,奈良県,大和郡山市,城北町５番１８号,,29,203,6391004,,,2026-01-05,登記官による閉鎖,,,2015-10-05,1,,,,,,0
679,3150002007067,登記記録の閉鎖等,0,2026-01-06,2026-01-05,有限会社ケアーセンターフォー，ユー,,有限会社,奈良県,宇陀郡御杖村,大字土屋原１４４番地,,29,386,6331303,,,2026-01-05,登記官による閉鎖,,,2015-10-05,1,,,,,ケアーセンターフォーユー,0
680,3150005000837,登記記録の閉鎖等,0,2026-01-06,2026-01-05,奈良県増改新築協同組合,,その他の設立登記法人,奈良県,奈良市,西大寺赤田町１丁目２番１２号,,29,201,6310818,,,2026-01-05,登記官による閉鎖,,,2015-10-05,1,,,,,,0
681,3150005000861,登記記録の閉鎖等,0,2026-01-06,2026-01-05,奈良自動車解体資源協同組合,,その他の設立登記法人,奈良県,奈良市,杏町２３３番地の３森島商店内,,29,201,6308454,,,2026-01-05,登記官による閉鎖,,,2015-10-05,1,,,,,,0
682,3150005000878,登記記録の閉鎖等,0,2026-01-06,2026-01-05,奈良防護柵協同組合,,その他の設立登記法人,奈良県,奈良市,三条大路１丁目５番３８号,,29,201,6308013,,,2026-01-05,登記官による閉鎖,,,2015-10-05,1,,,,,,0
683,3150005000894,登記記録の閉鎖等,0,2026-01-06,2026-01-05,大安寺商業協同組合,,その他の設立登記法人,奈良県,奈良市,大安寺５丁目６番２号,,29,201,6308133,,,2026-01-05,登記官による閉鎖,,,2015-10-05,1,,,,,,0
684,3150005003765,登記記録の閉鎖等,0,2026-01-06,2026-01-05,一般社団法人森羅万象委員会,,その他の設立登記法人,奈良県,生駒市,西旭ケ丘１８番２０号,,29,209,6300261,,,2026-01-05,登記官による閉鎖,,,2015-10-05,1,,,,,,0
685,3150005003798,登記記録の閉鎖等,0,2026-01-06,2026-01-05,桜井運輸事業協同組合,,その他の設立登記法人,奈良県,桜井市,大字吉備４６８番地の３,,29,206,6330065,,,2026-01-05,登記官による閉鎖,,,2015-10-05,1,,,,,,0
686,3150005006330,登記記録の閉鎖等,0,2026-01-06,2026-01-05,奈良県小売市場協同組合連合会,,その他の設立登記法人,奈良県,御所市,西柏通１３１４番地,,29,208,6392200,,,2026-01-05,登記官による閉鎖,,,2015-10-05,1,,,,,,0
687,3150005007262,登記記録の閉鎖等,0,2026-01-06,2026-01-05,下市町養蚕農業協同組合,,その他の設立登記法人,奈良県,吉野郡下市町,大字下市１２５番地,,29,443,6380041,,,2026-01-05,登記官による閉鎖,,,2015-10-05,1,,,,,,0
690,3180001062259,登記記録の閉鎖等,0,2026-01-06,2025-12-25,カツラ工業株式会社,,株式会社,愛知県,北名古屋市,法成寺法師堂８番地,,23,234,4810039,,,2025-12-25,清算の結了等,,,2015-10-05,1,,,,,カツラコウギョウ,0
700,3180003017962,登記記録の閉鎖等,0,2026-01-06,2025-12-25,株式会社ケイジェイ,,株式会社,愛知県,尾張旭市,桜ケ丘町１丁目２３０番地,,23,226,4880859,,,2025-12-25,清算の結了等,,,2017-05-23,1,,,,,ケイジェイ,0
716,3250005007260,登記記録の閉鎖等,0,2026-01-06,2025-12-25,農事組合法人国木,,その他の設立登記法人,山口県,熊毛郡田布施町,大字上田布施２０２６番地,,35,343,7421515,,,2025-12-25,清算の結了等,,,2015-10-05,1,,,,,クニキ,0
717,3260001000029,登記記録の閉鎖等,0,2026-01-06,2025-12-24,アサヒ総業株式会社,,株式会社,岡山県,岡山市北区,表町３丁目５番１号,,33,101,7000822,,,2025-12-24,合併による解散等,9240001001527,令和７年１２月１日広島市南区大州五丁目２番１０号株式会社エバルス（9240001001527）に合併し解散,2015-10-05,1,,,,,アサヒソウギョウ,0
718,3260001032047,登記記録の閉鎖等,0,2026-01-06,2025-12-25,株式会社高谷工業,00113449,株式会社,岡山県,岡山市北区,島田本町１丁目６番１８号５０２,,33,101,7000033,,,2025-12-25,清算の結了等,,,2018-05-17,1,,,,,タカヤコウギョウ,0
722,3280001000225,登記記録の閉鎖等,0,2026-01-06,2026-01-05,山陰エプソンシステム株式会社,,株式会社,島根県,松江市,上乃木３丁目１４番２３号,,32,201,6900015,,,2026-01-05,登記官による閉鎖,,,2015-10-05,1,,,,,,0
723,3280001000968,登記記録の閉鎖等,0,2026-01-06,2026-01-05,株式会社エコウェーブ,,株式会社,島根県,松江市,浜乃木２丁目４番３０号,,32,201,6900044,,,2026-01-05,登記官による閉鎖,,,2015-10-05,1,,,,,,0
724,3280001001009,登記記録の閉鎖等,0,2026-01-06,2026-01-05,株式会社グリーンアースガード,,株式会社,島根県,松江市,東津田町１０４４番地１,,32,201,6900011,,,2026-01-05,登記官による閉鎖,,,2015-10-05,1,,,,,,0
725,3280001004275,登記記録の閉鎖等,0,2026-01-06,2026-01-05,株式会社広榮企画,,株式会社,島根県,浜田市,浅井町９０４番地７,,32,202,6970022,,,2026-01-05,登記官による閉鎖,,,2015-10-05,1,,,,,,0
726,3280001004960,登記記録の閉鎖等,0,2026-01-06,2026-01-05,朝日産業株式会社,,株式会社,島根県,益田市,赤雁町ロ５５５番地,,32,204,6993672,,,2026-01-05,登記官による閉鎖,,,2015-10-05,1,,,,,,0
727,3280001004993,登記記録の閉鎖等,0,2026-01-06,2026-01-05,鴨山酒類販売株式会社,,株式会社,島根県,益田市,高津８丁目６番２５号,,32,204,6980041,,,2026-01-05,登記官による閉鎖,,,2015-10-05,1,,,,,,0
728,3280001005422,登記記録の閉鎖等,0,2026-01-06,2026-01-05,株式会社センチュリー・オキ,,株式会社,島根県,隠岐郡隠岐の島町,港町天神原８０番地２７,,32,528,6850015,,,2026-01-05,登記官による閉鎖,,,2015-10-05,1,,,,,,0
729,3280001005439,登記記録の閉鎖等,0,2026-01-06,2026-01-05,株式会社プラッツ,,株式会社,島根県,隠岐郡隠岐の島町,津戸塩尾１５３７番地１,,32,528,6850105,,,2026-01-05,登記官による閉鎖,,,2015-10-05,1,,,,,,0
730,3280001005521,登記記録の閉鎖等,0,2026-01-06,2026-01-05,株式会社新栄ホーム,,株式会社,島根県,出雲市,地合町３７６番地１,,32,203,6910071,,,2026-01-05,登記官による閉鎖,,,2015-10-05,1,,,,,,0
731,3280002002666,登記記録の閉鎖等,0,2026-01-06,2026-01-05,有限会社長谷川工業所,,有限会社,島根県,松江市,鹿島町名分１３５６番地６,,32,201,6900803,,,2026-01-05,登記官による閉鎖,,,2015-10-05,1,,,,,ハセガワコウギョウショ,0
732,3280002002996,登記記録の閉鎖等,0,2026-01-06,2026-01-05,有限会社山崎商店,,有限会社,島根県,松江市,八雲町熊野７７６番地１,,32,201,6902104,,,2026-01-05,登記官による閉鎖,,,2015-10-05,1,,,,,,0
733,3280002004290,登記記録の閉鎖等,0,2026-01-06,2026-01-05,有限会社ハラダ企画山陰販売,,有限会社,島根県,松江市,美保関町福浦１番地,,32,201,6901504,,,2026-01-05,登記官による閉鎖,,,2015-10-05,1,,,,,,0
734,3280002004555,登記記録の閉鎖等,0,2026-01-06,2026-01-05,有限会社岩崎建材店,00004692,有限会社,島根県,安来市,安来町１１３３番地,,32,206,6920011,,,2026-01-05,登記官による閉鎖,,,2015-10-05,1,,,,,,0
735,3280003000347,登記記録の閉鎖等,0,2026-01-06,2026-01-05,滝川塗工合同会社,,合同会社,島根県,出雲市,大津町２３１２番地８,,32,203,6930011,,,2026-01-05,登記官による閉鎖,,,2015-10-05,1,,,,,,0
745,3320001017000,登記記録の閉鎖等,0,2026-01-06,2026-01-05,株式会社ＤＫＳ,,株式会社,大分県,大分市,畑中１丁目１０番４０号,,44,201,8700856,,,2026-01-05,合併による解散等,1320001013554,令和８年１月１日大分市畑中一丁目１０番４０号株式会社電建サービス（1320001013554）に合併し解散,2019-04-04,1,,,,,デイケイエス,0
759,3380002010089,登記記録の閉鎖等,0,2026-01-06,2025-12-23,有限会社寿芳園,,有限会社,福島県,郡山市,富久山町福原字泉崎２６番地の５５,,07,203,9638061,,,2025-12-23,清算の結了等,,,2015-10-05,1,,,,,ジュホウエン,0
760,3380002011863,登記記録の閉鎖等,0,2026-01-06,2025-12-25,有限会社藤嵜電設,,有限会社,福島県,郡山市,富久山町久保田字三御堂２０番２号,,07,203,9638071,,,2025-12-25,清算の結了等,,,2015-10-05,1,,,,,フジサキデンセツ,0
771,3490001004460,登記記録の閉鎖等,0,2026-01-06,2025-12-26,株式会社翼高知,,株式会社,高知県,高知市,介良乙１０２７番地５,,39,201,7815106,,,2025-12-26,清算の結了等,,,2015-10-05,1,,,,,ツバサコウチ,0
785,4010001202193,登記記録の閉鎖等,0,2026-01-06,2025-12-18,株式会社モノエナ,,株式会社,群馬県,太田市,飯塚町１４５８番地１,,10,205,3730817,,,2025-12-18,清算の結了等,,,2019-07-05,1,,,,,モノエナ,0
797,4010401142428,登記記録の閉鎖等,0,2026-01-06,2025-12-08,株式会社レセプションズ,,株式会社,東京都,渋谷区,広尾４丁目１番２７－５０８号,,13,113,1500012,,,2025-12-08,清算の結了等,,,2018-12-06,1,,,,,レセプションズ,0
799,4010401173027,登記記録の閉鎖等,0,2026-01-06,2025-12-10,ｉｍｍｉ株式会社,,株式会社,東京都,港区,台場２丁目２－２,,13,103,1350091,,,2025-12-10,清算の結了等,,,2023-03-14,1,,,,,イミー,0
806,4010602007058,登記記録の閉鎖等,0,2026-01-06,2025-12-18,有限会社ナガモリ,,有限会社,東京都,江東区,亀戸９丁目３６番１７号,,13,108,1360071,,,2025-12-18,清算の結了等,,,2015-10-05,1,,,,,ナガモリ,0
810,4011001020478,登記記録の閉鎖等,0,2026-01-06,2025-12-04,株式会社ファーマシーアキヤマ,,株式会社,東京都,新宿区,西新宿３丁目３番１３号西新宿水間ビル２Ｆ,,13,104,1600023,,,2025-12-04,清算の結了等,,,2015-10-05,1,,,,,ファーマシーアキヤマ,0
827,4011102012829,登記記録の閉鎖等,0,2026-01-06,2025-12-22,有限会社メディーク,,有限会社,東京都,台東区,寿２丁目１０番１５号,,13,106,1110042,,,2025-12-22,清算の結了等,,,2015-10-05,1,,,,,メディーク,0
829,4011402009418,登記記録の閉鎖等,0,2026-01-06,2025-12-24,芳沢商事不動産有限会社,,有限会社,東京都,板橋区,仲宿５５番２号,,13,119,1730005,,,2025-12-24,清算の結了等,,,2015-10-05,1,,,,,ヨシザワショウジフドウサン,0
835,4013301030751,登記記録の閉鎖等,0,2026-01-06,2025-12-01,株式会社バイナリースターデベロップメント,,株式会社,東京都,港区,元赤坂１丁目２番７号,,13,103,1070051,,,2025-12-01,合併による解散等,7011101059496,令和７年１２月１日東京都港区元赤坂一丁目２番７号株式会社ユビセンス（7011101059496）に合併し解散,2015-10-05,1,,,,,バイナリースターデベロップメント,0
845,4020001120733,登記記録の閉鎖等,0,2026-01-06,2026-01-05,株式会社横浜佐藤工務店,,株式会社,神奈川県,横浜市保土ケ谷区,藤塚町１０番４３号,,14,106,2400031,,,2026-01-05,清算の結了等,,,2017-04-13,1,,,,,,0
848,4020002103299,登記記録の閉鎖等,0,2026-01-06,2025-12-25,有限会社ビー・エス・アイ,,有限会社,神奈川県,川崎市中原区,新丸子東３丁目１１００番地１２,,14,133,2110004,,,2025-12-25,清算の結了等,,,2015-10-05,1,,,,,ビーエスアイ,0
854,4030001103456,登記記録の閉鎖等,0,2026-01-06,2025-12-22,株式会社メルシー,,株式会社,埼玉県,川口市,並木２丁目１１番－９－７０１号,,11,203,3320034,,,2025-12-22,清算の結了等,,,2015-10-05,1,,,,,メルシー,0
857,4030001152024,登記記録の閉鎖等,0,2026-01-06,2025-12-12,マタケ企画株式会社,,株式会社,埼玉県,志木市,本町４丁目７－２０,,11,228,3530004,,,2025-12-12,清算の結了等,,,2023-01-20,1,,,,,マタケキカク,0
859,4030002026334,登記記録の閉鎖等,0,2026-01-06,2025-12-24,有限会社丸善,,有限会社,埼玉県,蕨市,北町２丁目１０番８号,,11,223,3350001,,,2025-12-24,清算の結了等,,,2015-10-05,1,,,,,マルゼン,0
863,4050001026184,登記記録の閉鎖等,0,2026-01-06,2025-12-22,関東工業株式会社,,株式会社,茨城県,龍ケ崎市,佐貫町５５５番地１,,08,208,3010033,,,2025-12-22,清算の結了等,,,2015-10-05,1,,,,,カントウコウギョウ,0
870,4060002033897,登記記録の閉鎖等,0,2026-01-06,2026-01-05,有限会社渡辺製作所,,有限会社,栃木県,栃木市,都賀町家中２００番地,,09,203,3280111,,,2026-01-05,清算の結了等,,,2015-10-05,1,,,,,ワタナベセイサクショ,0
883,4100001012393,登記記録の閉鎖等,0,2026-01-06,2026-01-05,富士重機株式会社,,株式会社,長野県,下高井郡野沢温泉村,大字坪山２２０番地,,20,563,3892501,,,2026-01-05,清算の結了等,,,2015-10-05,1,,,,,フジジュウキ,0
894,4120002038485,登記記録の閉鎖等,0,2026-01-06,2025-12-26,有限会社ベルキャッツコーポレイション,,有限会社,大阪府,大阪市中央区,本町１丁目５番６号,,27,128,5410053,,,2025-12-26,清算の結了等,,,2015-10-05,1,,,,,ベルキャッツコーポレイション,0
895,4120002074951,登記記録の閉鎖等,0,2026-01-06,2025-12-25,有限会社ぷらにんぐあーと設計事務所,,有限会社,大阪府,枚方市,新町１丁目１３番３５号ネオライフ枚方５０３号室,,27,210,5731191,,,2025-12-25,清算の結了等,,,2015-10-05,1,,,,,プラニングアートセッケイジムショ,0
904,4130001073136,登記記録の閉鎖等,0,2026-01-06,2025-12-24,株式会社グローアップ・ヒューマニティー,,株式会社,京都府,京都市下京区,七条通油小路東入大黒町２２７番地第２キョートビル４０２,,26,106,6008223,,,2025-12-24,清算の結了等,,,2022-11-30,1,,,,,グローアップヒューマニティー,0
915,4140002051916,登記記録の閉鎖等,0,2026-01-06,2025-12-23,有限会社村角造船所,,有限会社,兵庫県,姫路市,家島町真浦２００１番地,,28,201,6720101,,,2025-12-23,清算の結了等,,,2015-10-05,1,,,,,ムラズミゾウセンショ,0
919,4150001000063,登記記録の閉鎖等,0,2026-01-06,2026-01-05,株式会社アネックスコーポレーション,,株式会社,奈良県,奈良市,三条大路１丁目１０番４３号,,29,201,6308013,,,2026-01-05,登記官による閉鎖,,,2015-10-05,1,,,,,,0
920,4150001000303,登記記録の閉鎖等,0,2026-01-06,2026-01-05,エイム株式会社,,株式会社,奈良県,奈良市,油阪町４２１番地,,29,201,6308247,,,2026-01-05,登記官による閉鎖,,,2015-10-05,1,,,,,,0
921,4150001000377,登記記録の閉鎖等,0,2026-01-06,2026-01-05,株式会社オンアンドオフ,,株式会社,奈良県,奈良市,西大寺栄町３番１２号,,29,201,6310822,,,2026-01-05,登記官による閉鎖,,,2015-10-05,1,,,,,,0
922,4150001000939,登記記録の閉鎖等,0,2026-01-06,2026-01-05,ジェイシィートレード株式会社,,株式会社,奈良県,奈良市,学園南３丁目９番３号,,29,201,6310034,,,2026-01-05,登記官による閉鎖,,,2015-10-05,1,,,,,,0
923,4150001002448,登記記録の閉鎖等,0,2026-01-06,2026-01-05,株式会社ヤマト,,株式会社,奈良県,奈良市,餅飯殿町１２番地,00042655,29,201,6308222,,,2026-01-05,登記官による閉鎖,,,2015-10-05,1,,,,,,0
924,4150001004923,登記記録の閉鎖等,0,2026-01-06,2026-01-05,株式会社スターウッド,,株式会社,奈良県,生駒市,南田原町１０９４番地,,29,209,6300135,,,2026-01-05,登記官による閉鎖,,,2015-10-05,1,,,,,,0
925,4150001005814,登記記録の閉鎖等,0,2026-01-06,2026-01-05,株式会社サカエ,,株式会社,奈良県,大和郡山市,泉原町６２番地の２,,29,203,6391056,,,2026-01-05,登記官による閉鎖,,,2015-10-05,1,,,,,,0
926,4150001006614,登記記録の閉鎖等,0,2026-01-06,2026-01-05,テコム株式会社,,株式会社,奈良県,天理市,櫟本町１４７６番地の５,,29,204,6320004,,,2026-01-05,登記官による閉鎖,,,2015-10-05,1,,,,,,0
927,4150001006861,登記記録の閉鎖等,0,2026-01-06,2026-01-05,飛鳥建設工業株式会社,,株式会社,奈良県,生駒郡斑鳩町,興留５丁目４番１０号,,29,344,6360123,,,2026-01-05,登記官による閉鎖,,,2015-10-05,1,,,,,,0
928,4150001006928,登記記録の閉鎖等,0,2026-01-06,2026-01-05,株式会社エキステック,,株式会社,奈良県,生駒郡平群町,若葉台４丁目９番１８号,,29,342,6360938,,,2026-01-05,登記官による閉鎖,,,2015-10-05,1,,,,,,0
929,4150001007042,登記記録の閉鎖等,0,2026-01-06,2026-01-05,株式会社セイノエンジニアリング,,株式会社,奈良県,生駒郡斑鳩町,法隆寺北１丁目１４番５号,00048861,29,344,6360111,,,2026-01-05,登記官による閉鎖,,,2015-10-05,1,,,,,,0
930,4150001011102,登記記録の閉鎖等,0,2026-01-06,2026-01-05,ありかわ石油株式会社,,株式会社,奈良県,磯城郡川西町,大字結崎４５２番地の８１,,29,361,6360202,,,2026-01-05,登記官による閉鎖,,,2015-10-05,1,,,,,,0
931,4150001011325,登記記録の閉鎖等,0,2026-01-06,2026-01-05,株式会社マキノ工務店,,株式会社,奈良県,磯城郡田原本町,大字藥王寺３２０番地,,29,363,6360341,,,2026-01-05,登記官による閉鎖,,,2015-10-05,1,,,,,,0
932,4150001011507,登記記録の閉鎖等,0,2026-01-06,2026-01-05,万葉薬品株式会社,,株式会社,奈良県,磯城郡三宅町,大字但馬５２０番地,,29,362,6360214,,,2026-01-05,登記官による閉鎖,,,2015-10-05,1,,,,,,0
933,4150001014443,登記記録の閉鎖等,0,2026-01-06,2026-01-05,麻布建設株式会社,,株式会社,奈良県,大和高田市,蔵之宮町１２番８号,,29,202,6350044,,,2026-01-05,登記官による閉鎖,,,2015-10-05,1,,,,,,0
934,4150001015474,登記記録の閉鎖等,0,2026-01-06,2026-01-05,五條銘木株式会社,,株式会社,奈良県,五條市,住川町３４２番地の１,,29,207,6370014,,,2026-01-05,登記官による閉鎖,,,2015-10-05,1,,,,,,0
935,4150001016407,登記記録の閉鎖等,0,2026-01-06,2026-01-05,株式会社今任空間工作所,,株式会社,奈良県,生駒市,俵口町２１７番地１－４０４,,29,209,6300243,,,2026-01-05,登記官による閉鎖,,,2015-10-05,1,,,,,,0
936,4150002010326,登記記録の閉鎖等,0,2026-01-06,2026-01-05,吉本莫大小有限会社,,有限会社,奈良県,大和高田市,大字野口１２２番地,,29,202,6350075,,,2026-01-05,登記官による閉鎖,,,2020-06-16,1,,,,,ヨシモトメリヤス,0
937,4150005000893,登記記録の閉鎖等,0,2026-01-06,2026-01-05,協同組合増改築センター,,その他の設立登記法人,奈良県,奈良市,西木辻八軒町２００番地の６２,00048964,29,201,6300000,,,2026-01-05,登記官による閉鎖,,,2015-10-05,1,,,,,,0
938,4150005000902,登記記録の閉鎖等,0,2026-01-06,2026-01-05,都建設協同組合,,その他の設立登記法人,奈良県,奈良市,古市町１４０８番地,,29,201,6308424,,,2026-01-05,登記官による閉鎖,,,2015-10-05,1,,,,,,0
939,4150005002510,登記記録の閉鎖等,0,2026-01-06,2025-12-23,医療法人壽康会,,その他の設立登記法人,奈良県,大和郡山市,下三橋町４３５番地の３,,29,203,6391101,,,2025-12-23,清算の結了等,,,2015-10-05,1,,,,,ジュコウカイ,0
940,4150005002865,登記記録の閉鎖等,0,2026-01-06,2026-01-05,特定非営利活動法人国際キャリア支援協会,,その他の設立登記法人,奈良県,大和郡山市,稗田町４７６－１４－２０４,,29,203,6391108,,,2026-01-05,登記官による閉鎖,,,2015-10-05,1,,,,,,0
941,4150005004647,登記記録の閉鎖等,0,2026-01-06,2026-01-05,大容デパート協同組合,,その他の設立登記法人,奈良県,橿原市,南八木町２丁目３番１０号大容デパート内,,29,205,6340077,,,2026-01-05,登記官による閉鎖,,,2015-10-05,1,,,,,,0
942,4150005005901,登記記録の閉鎖等,0,2026-01-06,2026-01-05,奈良県ミシン商工業協同組合,,その他の設立登記法人,奈良県,大和高田市,大字大中１６番地の４,,29,202,6350095,,,2026-01-05,登記官による閉鎖,,,2015-10-05,1,,,,,,0
943,4150005006619,登記記録の閉鎖等,0,2026-01-06,2026-01-05,特定非営利活動法人障害関係施設経営者協議会,,その他の設立登記法人,奈良県,葛城市,寺口１６８９－１,,29,211,6392135,,,2026-01-05,登記官による閉鎖,,,2015-10-05,1,,,,,,0
944,4150005007220,登記記録の閉鎖等,0,2026-01-06,2026-01-05,十津川村椎茸農業協同組合,,その他の設立登記法人,奈良県,吉野郡十津川村,大字小原２２５番地の１,,29,449,6371333,,,2026-01-05,登記官による閉鎖,,,2015-10-05,1,,,,,,0
945,4150005007609,登記記録の閉鎖等,0,2026-01-06,2026-01-05,吉野郡畜産農業協同組合,,その他の設立登記法人,奈良県,吉野郡大淀町,大字下渕８０６番地,,29,442,6380821,,,2026-01-05,登記官による閉鎖,,,2015-10-05,1,,,,,,0
947,4160002002066,登記記録の閉鎖等,0,2026-01-06,2025-12-24,有限会社インポートシステム,,有限会社,滋賀県,大津市,八屋戸１４７６番地の３,,25,201,5200515,,,2025-12-24,清算の結了等,,,2015-10-05,1,,,,,インポートシステム,0
964,4240001048192,登記記録の閉鎖等,0,2026-01-06,2025-12-25,株式会社コンヴィッチ,,株式会社,広島県,府中市,中須町１３３番地４,,34,208,7260012,,,2025-12-25,清算の結了等,,,2015-10-05,1,,,,,コンヴィッチ,0
968,4240002034885,登記記録の閉鎖等,0,2026-01-06,2025-12-23,有限会社七福海運,,有限会社,広島県,呉市,倉橋町７８５番地の２,,34,202,7371377,,,2025-12-23,合併による解散等,4240001026834,令和７年１２月２３日広島県呉市倉橋町７８５番地の２株式会社七福組（4240001026834）に合併し解散,2015-10-05,1,,,,,シチフクカイウン,0
975,4260001032649,登記記録の閉鎖等,0,2026-01-06,2025-12-26,株式会社坂手ファーム,,株式会社,岡山県,津山市,加茂町原口４６７番地,,33,203,7093908,,,2025-12-26,清算の結了等,,,2018-12-05,1,,,,,サカテファーム,0
978,4280001000001,登記記録の閉鎖等,0,2026-01-06,2026-01-05,中国鹿島工業株式会社,,株式会社,島根県,松江市,鹿島町古浦１５５番地,,32,201,6900333,,,2026-01-05,登記官による閉鎖,,,2015-10-05,1,,,,,,0
979,4280001000026,登記記録の閉鎖等,0,2026-01-06,2026-01-05,アイズミ建設株式会社,,株式会社,島根県,松江市,嫁島町９番２８号,,32,201,6900047,,,2026-01-05,登記官による閉鎖,,,2015-10-05,1,,,,,,0
980,4280001000100,登記記録の閉鎖等,0,2026-01-06,2026-01-05,株式会社エイブル,,株式会社,島根県,松江市,東津田町１８２３番地,,32,201,6900011,,,2026-01-05,登記官による閉鎖,,,2015-10-05,1,,,,,,0
981,4280001000496,登記記録の閉鎖等,0,2026-01-06,2026-01-05,株式会社テクノニシタニ,,株式会社,島根県,松江市,母衣町１８７番地,,32,201,6900886,,,2026-01-05,登記官による閉鎖,,,2015-10-05,1,,,,,テクノニシタニ,0
982,4280001000538,登記記録の閉鎖等,0,2026-01-06,2026-01-05,株式会社西日本プラント,,株式会社,島根県,松江市,東朝日町２４９番地１,,32,201,6900001,,,2026-01-05,登記官による閉鎖,,,2015-10-05,1,,,,,,0
983,4280001000629,登記記録の閉鎖等,0,2026-01-06,2026-01-05,株式会社藤森商店,,株式会社,島根県,松江市,大草町６５０番地２,,32,201,6900032,,,2026-01-05,登記官による閉鎖,,,2015-10-05,1,,,,,,0
984,4280001003094,登記記録の閉鎖等,0,2026-01-06,2026-01-05,出雲ナカオ株式会社,,株式会社,島根県,出雲市,長浜町６５９番地３７,,32,203,6930043,,,2026-01-05,登記官による閉鎖,,,2015-10-05,1,,,,,,0
985,4280001005181,登記記録の閉鎖等,0,2026-01-06,2026-01-05,株式会社新和貿易,,株式会社,島根県,鹿足郡津和野町,日原６８番地５,,32,501,6995221,,,2026-01-05,登記官による閉鎖,,,2015-10-05,1,,,,,,0
986,4280002000248,登記記録の閉鎖等,0,2026-01-06,2026-01-05,井上木材有限会社,,有限会社,島根県,松江市,竹矢町１７７１番地,,32,201,6900023,,,2026-01-05,登記官による閉鎖,,,2015-10-05,1,,,,,,0
987,4280002001881,登記記録の閉鎖等,0,2026-01-06,2026-01-05,有限会社ファミリードライだんだん,,有限会社,島根県,松江市,浜乃木４丁目５番４３号,,32,201,6900044,,,2026-01-05,登記官による閉鎖,,,2015-10-05,1,,,,,,0
1005,4290803003002,登記記録の閉鎖等,0,2026-01-06,2025-12-11,ネクスタジオ合同会社,,合同会社,福岡県,遠賀郡芦屋町,高浜町２３番５５号,,40,381,8070122,,,2025-12-11,清算の結了等,,,2017-10-06,1,,,,,ネクスタジオ,0
1013,4340002009530,登記記録の閉鎖等,0,2026-01-06,2025-12-25,有限会社南日本新聞郡元南販売所,,有限会社,鹿児島県,鹿児島市,東郡元町５番３３号,,46,201,8900068,,,2025-12-25,清算の結了等,,,2015-10-05,1,,,,,ミナミニホンシンブンコオリモトミナミハンバイショ,0
1014,4350002018217,登記記録の閉鎖等,0,2026-01-06,2025-12-25,有限会社ボデーショップ大迫,,有限会社,宮崎県,西諸県郡高原町,大字西麓１１１９番地２,,45,361,8894412,,,2025-12-25,清算の結了等,,,2015-10-05,1,,,,,ボデーショップオオサコ,0
1017,4380001017761,登記記録の閉鎖等,0,2026-01-06,2025-12-25,浅沼不動産保証コンサルティング株式会社,,株式会社,福島県,会津若松市,山鹿町６番６２号,,07,202,9650876,,,2025-12-25,清算の結了等,,,2015-10-05,1,,,,,アサヌマフドウサンホショウコンサルティング,0
1018,4380002002449,登記記録の閉鎖等,0,2026-01-06,2025-12-23,有限会社トーホーグラビア,,有限会社,福島県,福島市,鳥谷野字芝切２３番地,,07,201,9608152,,,2025-12-23,清算の結了等,,,2015-10-05,1,,,,,トーホーグラビア,0
1019,4380002014931,登記記録の閉鎖等,0,2026-01-06,2025-12-24,有限会社隼運送,,有限会社,福島県,郡山市,安積町南長久保１丁目１９６番地,,07,203,9630104,,,2025-12-24,清算の結了等,,,2015-10-05,1,,,,,,0
1020,4380002022397,登記記録の閉鎖等,0,2026-01-06,2025-12-25,有限会社インテリアコヤマ,,有限会社,福島県,いわき市,草木台４丁目４番地の１０,,07,204,9728301,,,2025-12-25,清算の結了等,,,2015-10-05,1,,,,,インテリアコヤマ,0
1022,4380005002776,登記記録の閉鎖等,0,2026-01-06,2025-12-24,医療法人恵俊会,,その他の設立登記法人,福島県,郡山市,桑野２丁目２１番１２号,,07,203,9638025,,,2025-12-24,清算の結了等,,,2015-10-05,1,,,,,ケイシュンカイ,0
1030,4430001037374,登記記録の閉鎖等,0,2026-01-06,2025-12-26,株式会社オールデンタルマート,,株式会社,北海道,札幌市白石区,本通４丁目北５番３１号,,01,104,0030027,,,2025-12-26,清算の結了等,,,2015-10-05,1,,,,,オールデンタルマート,0
1039,4470001012778,登記記録の閉鎖等,0,2026-01-06,2025-12-26,株式会社ヒガサエンタープライズ,,株式会社,香川県,高松市,浜ノ町６９番４３－５０３号,,37,201,7600011,,,2025-12-26,清算の結了等,,,2015-10-05,1,,,,,,0
1042,4490002007528,登記記録の閉鎖等,0,2026-01-06,2025-12-25,有限会社み・ら・い,,有限会社,高知県,高知市,朝倉西町１丁目７番１０号,,39,201,7808077,,,2025-12-25,清算の結了等,,,2015-10-05,1,,,,,ミライ,0
1068,5010503008022,登記記録の閉鎖等,0,2026-01-06,2025-12-15,ＢＮＡ合同会社,,合同会社,東京都,台東区,浅草橋５丁目８－４,,13,106,1110053,,,2025-12-15,清算の結了等,,,2025-10-07,1,,,,,ビーエヌエー,0
1073,5010603010290,登記記録の閉鎖等,0,2026-01-06,2025-12-18,海田豊合同会社,,合同会社,東京都,墨田区,向島４丁目３番８号グレイス向島２０１Ｆ号室,,13,107,1310033,,,2025-12-18,清算の結了等,,,2023-08-22,1,,,,,カイダユタカ,0
1075,5010701043457,登記記録の閉鎖等,0,2026-01-06,2025-12-23,株式会社ダージリン,,株式会社,東京都,品川区,旗の台３丁目１２番３号,,13,109,1420064,,,2025-12-23,清算の結了等,,,2022-11-10,1,,,,,ダージリン,0
1093,5011101024444,登記記録の閉鎖等,0,2026-01-06,2025-12-01,ユビセンス・ジャパン株式会社,,株式会社,東京都,港区,元赤坂１丁目２番７号,,13,103,1070051,,,2025-12-01,合併による解散等,7011101059496,令和７年１２月１日東京都港区元赤坂一丁目２番７号株式会社ユビセンス（7011101059496）に合併し解散,2015-10-05,1,,,,,ユビセンスジャパン,0
1094,5011101044145,登記記録の閉鎖等,0,2026-01-06,2025-12-23,株式会社日本総合医療研究所,,株式会社,福島県,いわき市,常磐下湯長谷町町下８９番地,,07,204,9728317,,,2025-12-23,清算の結了等,,,2015-10-05,1,,,,,ニホンソウゴウイリョウケンキュウショ,0
1095,5011101073747,登記記録の閉鎖等,0,2026-01-06,2025-12-04,円相株式会社,,株式会社,東京都,新宿区,北町３番地,,13,104,1620834,,,2025-12-04,清算の結了等,,,2015-10-05,1,,,,,エンソウ,0
1107,5012401022393,登記記録の閉鎖等,0,2026-01-06,2025-12-25,ｔｏｙａｊｕ株式会社,,株式会社,東京都,国立市,北１丁目２番の５３,,13,215,1860001,,,2025-12-25,清算の結了等,,,2015-10-05,1,,,,,トヤジュ,0
1113,5013103000992,登記記録の閉鎖等,0,2026-01-06,2025-12-17,株式会社あきる野土地建物,,株式会社,東京都,あきる野市,野辺１０７０番地２,,13,228,1970823,,,2025-12-17,清算の結了等,,,2020-09-14,1,,,,,アキルノトチタテモノ,0
1116,5020001121763,登記記録の閉鎖等,0,2026-01-06,2026-01-05,株式会社ＡＬＡＳＴ,,株式会社,神奈川県,川崎市多摩区,中野島３丁目５番２１－２０５号,,14,135,2140012,,,2026-01-05,清算の結了等,,,2017-06-13,1,,,,,,0
1122,5020002102102,登記記録の閉鎖等,0,2026-01-06,2025-12-23,有限会社クロスポイント,,有限会社,神奈川県,川崎市中原区,小杉町２丁目２７１番地４,,14,133,2110063,,,2025-12-23,清算の結了等,,,2015-10-05,1,,,,,クロスポイント,0
1124,5030001007895,登記記録の閉鎖等,0,2026-01-06,2025-12-19,株式会社マークエンジニアリング,,株式会社,埼玉県,さいたま市大宮区,天沼町２丁目１０３４番地の２,,11,103,3300834,,,2025-12-19,清算の結了等,,,2015-10-05,1,,,,,マークエンジニアリング,0
1125,5030001028677,登記記録の閉鎖等,0,2026-01-06,2025-12-23,株式会社コスモプラン,,株式会社,埼玉県,所沢市,上新井１丁目３６番地の８,,11,208,3591142,,,2025-12-23,清算の結了等,,,2015-10-05,1,,,,,コスモプラン,0
1128,5030002017423,登記記録の閉鎖等,0,2026-01-06,2025-12-23,有限会社シュウエイスタッフ,,有限会社,埼玉県,さいたま市大宮区,桜木町２丁目３３７番地１,,11,103,3300854,,,2025-12-23,清算の結了等,,,2015-10-05,1,,,,,シュウエイスタッフ,0
1137,5060001000988,登記記録の閉鎖等,0,2026-01-06,2025-12-26,大橋株式会社,,株式会社,栃木県,宇都宮市,上戸祭町２９３６番地２００,,09,201,3200051,,,2025-12-26,清算の結了等,,,2015-10-05,1,,,,,オオハシ,0
1141,5060002000789,登記記録の閉鎖等,0,2026-01-06,2025-12-26,有限会社アサヒ商事,,有限会社,栃木県,宇都宮市,中央本町１番１２号,,09,201,3200805,,,2025-12-26,清算の結了等,,,2015-10-05,1,,,,,アサヒショウジ,0
1163,5120001236618,登記記録の閉鎖等,0,2026-01-06,2025-12-26,株式会社おやこサポート,,株式会社,大阪府,大阪市淀川区,三国本町１丁目１４番３２－１２１０号,,27,123,5320005,,,2025-12-26,清算の結了等,,,2021-04-12,1,,,,,オヤコサポート,0
1178,5120101057022,登記記録の閉鎖等,0,2026-01-06,2025-12-24,株式会社加賀塗装,,株式会社,大阪府,堺市北区,百舌鳥梅町３丁５２番地３,,27,146,5918032,,,2025-12-24,清算の結了等,,,2017-08-25,1,,,,,カガトソウ,0
1187,5130005015760,登記記録の閉鎖等,0,2026-01-06,2025-11-17,特定非営利活動法人京都シェアバイク協会,,その他の設立登記法人,京都府,京都市左京区,一乗寺赤ノ宮町１－３－４０３,,26,103,6068182,,,2025-11-17,清算の結了等,,,2019-11-25,1,,,,,キョウトシェアバイクキョウカイ,0
1196,5150001001184,登記記録の閉鎖等,0,2026-01-06,2026-01-05,株式会社大建設,,株式会社,奈良県,奈良市,菅原町４７４番地の５,,29,201,6310842,,,2026-01-05,登記官による閉鎖,,,2015-10-05,1,,,,,,0
1197,5150001001449,登記記録の閉鎖等,0,2026-01-06,2026-01-05,株式会社帝塚山土地,00042612,株式会社,奈良県,奈良市,帝塚山１丁目１３番１８号,,29,201,6310062,,,2026-01-05,登記官による閉鎖,,,2015-10-05,1,,,,,,0
1198,5150001001580,登記記録の閉鎖等,0,2026-01-06,2026-01-05,株式会社中村書店,,株式会社,奈良県,奈良市,大宮町２丁目９８番地４奈良パークビレッジマンション１０１０３,,29,201,6308115,,,2026-01-05,登記官による閉鎖,,,2015-10-05,1,,,,,,0
1199,5150001001820,登記記録の閉鎖等,0,2026-01-06,2026-01-05,株式会社西窪工務店,,株式会社,奈良県,奈良市,四条大路１丁目６番３０－３号,,29,201,6308014,,,2026-01-05,登記官による閉鎖,,,2015-10-05,1,,,,,,0
1200,5150001001886,登記記録の閉鎖等,0,2026-01-06,2026-01-05,日本プリンスフーズ株式会社,,株式会社,奈良県,奈良市,大宮町６丁目３番地の９,,29,201,6308115,,,2026-01-05,登記官による閉鎖,,,2015-10-05,1,,,,,,0
1201,5150001002901,登記記録の閉鎖等,0,2026-01-06,2026-01-05,株式会社エフ・エム・シー,,株式会社,奈良県,奈良市,高天町３２番地,,29,201,6308241,,,2026-01-05,登記官による閉鎖,,,2015-10-05,1,,,,,,0
1202,5150001004385,登記記録の閉鎖等,0,2026-01-06,2026-01-05,タマルテック株式会社,,株式会社,奈良県,奈良市,秋篠三和町２丁目８番１８号,,29,201,6310814,,,2026-01-05,登記官による閉鎖,,,2015-10-05,1,,,,,,0
1203,5150001005441,登記記録の閉鎖等,0,2026-01-06,2026-01-05,名阪国際株式会社,,株式会社,奈良県,奈良市,荻町７０９番地,,29,201,6320103,,,2026-01-05,登記官による閉鎖,,,2015-10-05,1,,,,,,0
1204,5150001005615,登記記録の閉鎖等,0,2026-01-06,2026-01-05,縁昌栄運送株式会社,,株式会社,奈良県,大和郡山市,小泉町３１３７番地の９,,29,203,6391042,,,2026-01-05,登記官による閉鎖,,,2015-10-05,1,,,,,,0
1205,5150001006893,登記記録の閉鎖等,0,2026-01-06,2026-01-05,池尻重機建設株式会社,,株式会社,奈良県,生駒郡平群町,大字椿井２７２番地の４,,29,342,6360911,,,2026-01-05,登記官による閉鎖,,,2015-10-05,1,,,,,,0
1206,5150001006927,登記記録の閉鎖等,0,2026-01-06,2026-01-05,株式会社エイジ,,株式会社,奈良県,生駒郡斑鳩町,大字三井１３８１番地の１,,29,344,6360101,,,2026-01-05,登記官による閉鎖,,,2015-10-05,1,,,,,,0
1207,5150001010499,登記記録の閉鎖等,0,2026-01-06,2026-01-05,三和産業株式会社,,株式会社,奈良県,橿原市,今井町１丁目４番６号,,29,205,6340812,,,2026-01-05,登記官による閉鎖,,,2015-10-05,1,,,,,,0
1208,5150001011489,登記記録の閉鎖等,0,2026-01-06,2026-01-05,ミヤコ建設株式会社,,株式会社,奈良県,橿原市,内膳町３丁目７番１０号,,29,205,6340804,,,2026-01-05,登記官による閉鎖,,,2015-10-05,1,,,,,,0
1209,5150001012520,登記記録の閉鎖等,0,2026-01-06,2026-01-05,株式会社カツラギ,,株式会社,奈良県,北葛城郡広陵町,大字三吉１６４番地の２,,29,426,6350823,,,2026-01-05,登記官による閉鎖,,,2015-10-05,1,,,,,,0
1210,5150001013089,登記記録の閉鎖等,0,2026-01-06,2026-01-05,出井センイ株式会社,,株式会社,奈良県,北葛城郡広陵町,大字三吉５２番地の１,,29,426,6350823,,,2026-01-05,登記官による閉鎖,,,2015-10-05,1,,,,,,0
1211,5150001014079,登記記録の閉鎖等,0,2026-01-06,2026-01-05,株式会社森村開発,,株式会社,奈良県,大和高田市,大字大中１６番地の４,,29,202,6350095,,,2026-01-05,登記官による閉鎖,,,2015-10-05,1,,,,,,0
1212,5150002007057,登記記録の閉鎖等,0,2026-01-06,2026-01-05,有限会社ライフ阿騎野,,有限会社,奈良県,宇陀市,大宇陀栗野１０２２番地の１の１,,29,212,6332144,,,2026-01-05,登記官による閉鎖,,,2015-10-05,1,,,,,,0
1214,5150005000819,登記記録の閉鎖等,0,2026-01-06,2026-01-05,奈良県ギフト協同組合,,その他の設立登記法人,奈良県,奈良市,二条大路南３丁目１番１２号,,29,201,6308012,,,2026-01-05,登記官による閉鎖,,,2015-10-05,1,,,,,,0
1215,5150005000901,登記記録の閉鎖等,0,2026-01-06,2026-01-05,丸富デパート商業協同組合,,その他の設立登記法人,奈良県,奈良市,井上町２５番地,,29,201,6308317,,,2026-01-05,登記官による閉鎖,,,2015-10-05,1,,,,,,0
1216,5150005002146,登記記録の閉鎖等,0,2026-01-06,2026-01-05,協同組合大樹,,その他の設立登記法人,奈良県,奈良市,法華寺町１５７２番地１,,29,201,6308001,,,2026-01-05,登記官による閉鎖,,,2015-10-05,1,,,,,,0
1217,5150005002393,登記記録の閉鎖等,0,2026-01-06,2026-01-05,協同組合生駒ニューデパート,,その他の設立登記法人,奈良県,生駒市,谷田町１３６９番地,,29,209,6300251,,,2026-01-05,登記官による閉鎖,,,2015-10-05,1,,,,,,0
1218,5150005004159,登記記録の閉鎖等,0,2026-01-06,2026-01-05,東吉野養蚕農業協同組合,,その他の設立登記法人,奈良県,吉野郡東吉野村,大字小川７７９番地の２,,29,453,6332421,,,2026-01-05,登記官による閉鎖,,,2015-10-05,1,,,,,,0
1219,5150005007087,登記記録の閉鎖等,0,2026-01-06,2026-01-05,南和建設協同組合,,その他の設立登記法人,奈良県,五條市,今井４丁目３８１番１号,,29,207,6370004,,,2026-01-05,登記官による閉鎖,,,2015-10-05,1,,,,,,0
1220,5150005007608,登記記録の閉鎖等,0,2026-01-06,2026-01-05,大和果樹園藝農業協同組合,,その他の設立登記法人,奈良県,吉野郡大淀町,大字土田９６番地,,29,442,6380811,,,2026-01-05,登記官による閉鎖,,,2015-10-05,1,,,,,,0
1224,5180001028935,登記記録の閉鎖等,0,2026-01-06,2025-12-25,満産業株式会社,,株式会社,愛知県,名古屋市緑区,鳴海町字尾崎山４３番地の３４５,,23,114,4580821,,,2025-12-25,清算の結了等,,,2015-10-05,1,,,,,ミツルサンギョウ,0
1237,5220002002843,登記記録の閉鎖等,0,2026-01-06,2025-12-26,有限会社三水社,,有限会社,石川県,金沢市,泉１丁目７番１号,,17,201,9218041,,,2025-12-26,清算の結了等,,,2015-10-05,1,,,,,サンスイシャ,0
1250,5280001000082,登記記録の閉鎖等,0,2026-01-06,2026-01-05,株式会社イノーダ,,株式会社,島根県,松江市,坂本町３６６番地１,,32,201,6900813,,,2026-01-05,登記官による閉鎖,,,2015-10-05,1,,,,,,0
1251,5280001000215,登記記録の閉鎖等,0,2026-01-06,2026-01-05,株式会社湖北観光,,株式会社,島根県,松江市,千鳥町２６番地１,,32,201,6900852,,,2026-01-05,登記官による閉鎖,,,2015-10-05,1,,,,,,0
1252,5280001000520,登記記録の閉鎖等,0,2026-01-06,2026-01-05,株式会社南海商事,,株式会社,島根県,松江市,千鳥町４６番地,,32,201,6900852,,,2026-01-05,登記官による閉鎖,,,2015-10-05,1,,,,,,0
1253,5280001000834,登記記録の閉鎖等,0,2026-01-06,2026-01-05,七類漁業株式会社,,株式会社,島根県,松江市,美保関町七類１９２３番地,,32,201,6901311,,,2026-01-05,登記官による閉鎖,,,2015-10-05,1,,,,,,0
1254,5280001000990,登記記録の閉鎖等,0,2026-01-06,2026-01-05,株式会社ワールド通信,,株式会社,島根県,松江市,鹿島町名分１１２７番地９,,32,201,6900803,,,2026-01-05,登記官による閉鎖,,,2015-10-05,1,,,,,,0
1255,5280001001007,登記記録の閉鎖等,0,2026-01-06,2026-01-05,株式会社ジュエリーパートナー,,株式会社,島根県,松江市,和多見町１８４番地,,32,201,6900005,,,2026-01-05,登記官による閉鎖,,,2015-10-05,1,,,,,,0
1256,5280001002426,登記記録の閉鎖等,0,2026-01-06,2026-01-05,日本メンズスーツ株式会社,,株式会社,島根県,安来市,西赤江町６４３番地,,32,206,6920003,,,2026-01-05,登記官による閉鎖,,,2015-10-05,1,,,,,,0
1257,5280001003143,登記記録の閉鎖等,0,2026-01-06,2026-01-05,株式会社ケー・ツー,,株式会社,島根県,出雲市,白枝町字壱丁田６７７番地６,,32,203,6930006,,,2026-01-05,登記官による閉鎖,,,2015-10-05,1,,,,,,0
1258,5280001003242,登記記録の閉鎖等,0,2026-01-06,2026-01-05,株式会社大東亜建設,,株式会社,島根県,出雲市,今市町６２番地３,,32,203,6930001,,,2026-01-05,登記官による閉鎖,,,2015-10-05,1,,,,,,0
1259,5280001003358,登記記録の閉鎖等,0,2026-01-06,2026-01-05,株式会社ハウジングサービス,,株式会社,島根県,出雲市,松寄下町１７０５番地３,,32,203,6930052,,,2026-01-05,登記官による閉鎖,,,2015-10-05,1,,,,,ハウジングサービス,0
1260,5280001003952,登記記録の閉鎖等,0,2026-01-06,2026-01-05,株式会社リニューアル島根,,株式会社,島根県,大田市,波根町１２１番地１,,32,205,6992211,,,2026-01-05,登記官による閉鎖,,,2015-10-05,1,,,,,,0
1261,5280001003969,登記記録の閉鎖等,0,2026-01-06,2026-01-05,株式会社富士ドライ,,株式会社,島根県,大田市,久手町刺鹿３２９番地４,,32,205,6940052,,,2026-01-05,登記官による閉鎖,,,2015-10-05,1,,,,,,0
1262,5280001004331,登記記録の閉鎖等,0,2026-01-06,2026-01-05,株式会社太陽堂,,株式会社,島根県,浜田市,新町６０番地,,32,202,6970037,,,2026-01-05,登記官による閉鎖,,,2015-10-05,1,,,,,,0
1263,5280001004348,登記記録の閉鎖等,0,2026-01-06,2026-01-05,株式会社寺田洋服店,,株式会社,島根県,浜田市,紺屋町７０番地１,,32,202,6970031,,,2026-01-05,登記官による閉鎖,,,2015-10-05,1,,,,,,0
1264,5280001005081,登記記録の閉鎖等,0,2026-01-06,2026-01-05,株式会社七尾商事,,株式会社,島根県,益田市,高津町イ２５３８番地３４,,32,204,6980041,,,2026-01-05,登記官による閉鎖,,,2015-10-05,1,,,,,,0
1265,5280001005593,登記記録の閉鎖等,0,2026-01-06,2026-01-05,株式会社コードルコバヤシ,,株式会社,島根県,雲南市,大東町飯田１３０番地２,,32,209,6991221,,,2026-01-05,登記官による閉鎖,,,2015-10-05,1,,,,,,0
1266,5280002006418,登記記録の閉鎖等,0,2026-01-06,2026-01-05,有限会社ヒカワ武志屋,,有限会社,島根県,出雲市,斐川町上直江２０２番地,,32,203,6990624,,,2026-01-05,登記官による閉鎖,,,2015-10-05,1,,,,,,0
1267,5280002007498,登記記録の閉鎖等,0,2026-01-06,2026-01-05,有限会社岩谷商事,,有限会社,島根県,大田市,川合町吉永１２３２番地１,,32,205,6940013,,,2026-01-05,登記官による閉鎖,,,2015-10-05,1,,,,,,0
1270,5280005005020,登記記録の閉鎖等,0,2026-01-06,2026-01-05,一般社団法人日本技術検定協会,,その他の設立登記法人,島根県,松江市,美保関町森山５３９番地３,,32,201,6901312,,,2026-01-05,登記官による閉鎖,,,2015-10-05,1,,,,,,0
1294,5370001009651,登記記録の閉鎖等,0,2026-01-06,2025-12-24,株式会社日興ビジネス,,株式会社,宮城県,仙台市太白区,長町南３丁目１２番１２号,,04,104,9820012,,,2025-12-24,清算の結了等,,,2015-10-05,1,,,,,ニッコウビジネス,0
1297,5390001016274,登記記録の閉鎖等,0,2026-01-06,2025-12-25,ＧＯＺＥＮ株式会社,,株式会社,山形県,鶴岡市,安丹丙４４番地,,06,203,9970057,,,2025-12-25,清算の結了等,,,2020-11-27,1,,,,,ゴゼン,0
1299,5400001005366,登記記録の閉鎖等,0,2026-01-06,2025-12-16,株式会社高民商店,,株式会社,岩手県,花巻市,鍛治町４番６号,,03,205,0250086,,,2025-12-16,清算の結了等,,,2015-10-05,1,,,,,タカタミショウテン,0
1318,6010001242650,登記記録の閉鎖等,0,2026-01-06,2025-12-10,株式会社岡本企画,,株式会社,東京都,千代田区,富士見１丁目３番１１号富士見デュープレックスＢ’ｓ４階,,13,101,1020071,,,2025-12-10,清算の結了等,,,2024-02-29,1,,,,,オカモトキカク,0
1330,6010402025605,登記記録の閉鎖等,0,2026-01-06,2025-12-23,有限会社グリッド,,有限会社,東京都,足立区,伊興５丁目１番６号,,13,121,1210823,,,2025-12-23,清算の結了等,,,2015-10-05,1,,,,,グリッド,0
1347,6011003021927,登記記録の閉鎖等,0,2026-01-06,2025-12-08,ＫＵワーク合同会社,,合同会社,東京都,渋谷区,神南１丁目１１－４ＦＰＧリンクス神南５階,,13,113,1500041,,,2025-12-08,清算の結了等,,,2025-07-14,1,,,,,ケーユーワーク,0
1349,6011005006364,登記記録の閉鎖等,0,2026-01-06,2025-12-25,一般社団法人自立のための生活経済教育推進協議会,,その他の設立登記法人,愛知県,豊橋市,前田南町１丁目３番地の１,,23,201,4400851,,,2025-12-25,清算の結了等,,,2015-10-05,1,,,,,ジリツノタメノセイカツケイザイキョウイクスイシンキョウギカイ,0
1359,6011402009143,登記記録の閉鎖等,0,2026-01-06,2025-12-25,有限会社山崎製作所,,有限会社,東京都,板橋区,仲宿１５番１号,,13,119,1730005,,,2025-12-25,清算の結了等,,,2015-10-05,1,,,,,ヤマザキセイサクジョ,0
1365,6011701023241,登記記録の閉鎖等,0,2026-01-06,2025-12-22,ランドマーク警備保障株式会社,,株式会社,東京都,江戸川区,西小岩３丁目３１番１０,,13,123,1330057,,,2025-12-22,清算の結了等,,,2020-01-17,1,,,,,ランドマークケイビホショウ,0
1367,6011801018918,登記記録の閉鎖等,0,2026-01-06,2025-12-22,株式会社都市デザインコントラ,,株式会社,東京都,足立区,梅田７丁目２５番１３－７０３号,,13,121,1230851,,,2025-12-22,清算の結了等,,,2015-10-05,1,,,,,トシデザインコントラ,0
1372,6012701009362,登記記録の閉鎖等,0,2026-01-06,2025-12-22,株式会社草花,,株式会社,東京都,東村山市,本町２丁目８番地２プライムビル４０５,,13,213,1890014,,,2025-12-22,清算の結了等,,,2015-10-05,1,,,,,クサバナ,0
1376,6020001005734,登記記録の閉鎖等,0,2026-01-06,2026-01-05,株式会社横浜園,,株式会社,神奈川県,横浜市旭区,中沢３丁目１６番２８号,,14,112,2410814,,,2026-01-05,清算の結了等,,,2015-10-05,1,,,,,,0
1378,6020001069374,登記記録の閉鎖等,0,2026-01-06,2025-12-22,株式会社白鳥機械製作所,,株式会社,神奈川県,川崎市中原区,中丸子１６７番地,,14,133,2110012,,,2025-12-22,清算の結了等,,,2015-10-05,1,,,,,シラトリキカイセイサクショ,0
1384,6020001131613,登記記録の閉鎖等,0,2026-01-06,2025-12-25,株式会社楽行,,株式会社,神奈川県,川崎市高津区,久地１丁目２８番４０号,,14,134,2130032,,,2025-12-25,清算の結了等,,,2019-06-13,1,,,,,ラクコウ,0
1389,6021002041578,登記記録の閉鎖等,0,2026-01-06,2025-12-11,有限会社多島塗装,,有限会社,神奈川県,大和市,深見東１丁目６番２２号,,14,213,2420012,,,2025-12-11,清算の結了等,,,2015-10-05,1,,,,,タジマトソウ,0
1403,6030002058111,登記記録の閉鎖等,0,2026-01-06,2025-12-22,有限会社安藤産業,,有限会社,埼玉県,朝霞市,朝志ケ丘１丁目２番１－１１２号,,11,227,3510035,,,2025-12-22,清算の結了等,,,2015-10-05,1,,,,,アンドウサンギョウ,0
1409,6040001003562,登記記録の閉鎖等,0,2026-01-06,2025-12-09,株式会社鈴木商会,,株式会社,千葉県,千葉市中央区,新宿２丁目２－９ひぐらしビル１０２号室,,12,101,2600021,,,2025-12-09,清算の結了等,,,2015-10-05,1,,,,,スズキショウカイ,0
1413,6040001067211,登記記録の閉鎖等,0,2026-01-06,2025-12-08,株式会社南部商会,,株式会社,千葉県,柏市,柏４丁目６番１３号ホワイトパレスコミゾ７０６,,12,217,2770005,,,2025-12-08,清算の結了等,,,2015-10-05,1,,,,,ナンブショウカイ,0
1426,6080101025503,登記記録の閉鎖等,0,2026-01-06,2025-12-25,通達商事株式会社,,株式会社,静岡県,賀茂郡東伊豆町,大川３９６－２,,22,301,4130301,,,2025-12-25,清算の結了等,,,2025-05-16,1,,,,,ツウタツショウジ,0
1429,6100001002319,登記記録の閉鎖等,0,2026-01-06,2025-12-26,株式会社タケムラ,,株式会社,長野県,長野市,篠ノ井塩崎４０４３番地,,20,201,3888014,,,2025-12-26,清算の結了等,,,2015-10-05,1,,,,,タケムラ,0
1430,6100001027992,登記記録の閉鎖等,0,2026-01-06,2025-12-25,株式会社トライアングル,,株式会社,長野県,上田市,常田３丁目５番５５号,,20,203,3860018,,,2025-12-25,清算の結了等,,,2015-10-05,1,,,,,トライアングル,0
1432,6100002011079,登記記録の閉鎖等,0,2026-01-06,2025-12-24,有限会社日鵬住建,,有限会社,長野県,佐久市,上平尾８５１番地１,,20,217,3850002,,,2025-12-24,清算の結了等,,,2015-10-05,1,,,,,ニッポウジュウケン,0
1437,6120001173307,登記記録の閉鎖等,0,2026-01-06,2025-12-26,株式会社隼,,株式会社,大阪府,大阪市此花区,梅香２丁目１番１５号,,27,104,5540013,,,2025-12-26,清算の結了等,,,2015-10-05,1,,,,,ハヤブサ,0
1438,6120001177381,登記記録の閉鎖等,0,2026-01-06,2025-12-26,ＮＥＸＴ　ＳＥＲＶＩＣＥ株式会社,,株式会社,大阪府,大阪市浪速区,恵美須西１丁目３番３号恵美須ビル７階,,27,111,5560003,,,2025-12-26,清算の結了等,,,2015-10-05,1,,,,,ネクストサービス,0
1449,6120002007562,登記記録の閉鎖等,0,2026-01-06,2025-12-25,有限会社レコルテ,,有限会社,大阪府,大阪市東成区,大今里南１丁目１７番２２－３０２号,,27,115,5370013,,,2025-12-25,清算の結了等,,,2015-10-05,1,,,,,レコルテ,0
1453,6120101067904,登記記録の閉鎖等,0,2026-01-06,2025-12-24,誠偉貿易株式会社,,株式会社,大阪府,大阪市浪速区,敷津西１丁目５－１１新浪速ビル３０３号室,,27,111,5560015,,,2025-12-24,清算の結了等,,,2023-07-18,1,,,,,セイイボウエキ,0
1466,6130001058960,登記記録の閉鎖等,0,2026-01-06,2025-12-24,株式会社イー・エフ・ワークス,,株式会社,岐阜県,土岐市,下石町６６１番地の３７,,21,212,5095202,,,2025-12-24,清算の結了等,,,2016-12-28,1,,,,,イーエフワークス,0
1467,6130001069124,登記記録の閉鎖等,0,2026-01-06,2025-12-22,株式会社ＲＥＰＳ,,株式会社,京都府,京都市上京区,中立売通松屋町東入る新白水丸町４６０番地の１,,26,102,6020000,,,2025-12-22,清算の結了等,,,2021-04-16,1,,,,,リプス,0
1473,6140001072309,登記記録の閉鎖等,0,2026-01-06,2025-12-24,株式会社テイト,,株式会社,兵庫県,西宮市,苦楽園五番町２番３６－１０４号,,28,204,6620087,,,2025-12-24,清算の結了等,,,2015-10-05,1,,,,,テイト,0
1475,6140001123706,登記記録の閉鎖等,0,2026-01-06,2025-12-22,株式会社ＪＵＮ,,株式会社,兵庫県,姫路市,飾磨区上野田３丁目１１９番地,,28,201,6728043,,,2025-12-22,清算の結了等,,,2021-11-05,1,,,,,ジュン,0
1480,6150001000466,登記記録の閉鎖等,0,2026-01-06,2026-01-05,株式会社カイボリ,,株式会社,奈良県,奈良市,山陵町１０５５番地の２６,,29,201,6310803,,,2026-01-05,登記官による閉鎖,,,2015-10-05,1,,,,,,0
1481,6150001001679,登記記録の閉鎖等,0,2026-01-06,2026-01-05,株式会社奈良ギフト,,株式会社,奈良県,奈良市,法華寺町１２６番地の１,,29,201,6308001,,,2026-01-05,登記官による閉鎖,,,2015-10-05,1,,,,,,0
1482,6150001001720,登記記録の閉鎖等,0,2026-01-06,2026-01-05,株式会社奈良シルクロードホテル,,株式会社,奈良県,奈良市,西大寺南町１番３号,,29,201,6310824,,,2026-01-05,登記官による閉鎖,,,2015-10-05,1,,,,,,0
1483,6150001004657,登記記録の閉鎖等,0,2026-01-06,2026-01-05,株式会社アートホーム,,株式会社,奈良県,生駒市,谷田町８７０番地２,,29,209,6300251,,,2026-01-05,登記官による閉鎖,,,2015-10-05,1,,,,,,0
1484,6150001005143,登記記録の閉鎖等,0,2026-01-06,2026-01-05,株式会社東出工務店,,株式会社,奈良県,生駒市,小明町４９５番地の２０,,29,209,6300201,,,2026-01-05,登記官による閉鎖,,,2015-10-05,1,,,,,,0
1485,6150001005515,登記記録の閉鎖等,0,2026-01-06,2026-01-05,株式会社ジュール,,株式会社,奈良県,生駒市,山崎町５番２－３０５号,,29,209,6300252,,,2026-01-05,登記官による閉鎖,,,2015-10-05,1,,,,,,0
1486,6150001006975,登記記録の閉鎖等,0,2026-01-06,2026-01-05,株式会社キッズランド,,株式会社,奈良県,生駒郡安堵町,大字東安堵２２８番地の１,,29,345,6391061,,,2026-01-05,登記官による閉鎖,,,2015-10-05,1,,,,,,0
1487,6150001009953,登記記録の閉鎖等,0,2026-01-06,2026-01-05,東亜建設工業株式会社,,株式会社,奈良県,宇陀市,室生無山７８９番地,,29,212,6320207,,,2026-01-05,登記官による閉鎖,,,2015-10-05,1,,,,,,0
1488,6150001010341,登記記録の閉鎖等,0,2026-01-06,2026-01-05,株式会社映像企画ライカ,,株式会社,奈良県,橿原市,西池尻町２７０番４号,,29,205,6340821,,,2026-01-05,登記官による閉鎖,,,2015-10-05,1,,,,,,0
1489,6150001014268,登記記録の閉鎖等,0,2026-01-06,2026-01-05,株式会社インテリア西川,,株式会社,奈良県,葛城市,北花内７２４番地の４,,29,211,6392113,,,2026-01-05,登記官による閉鎖,,,2015-10-05,1,,,,,,0
1490,6150001015448,登記記録の閉鎖等,0,2026-01-06,2026-01-05,株式会社共栄建設,,株式会社,奈良県,五條市,野原西２丁目４番２４号,,29,207,6370036,,,2026-01-05,登記官による閉鎖,,,2015-10-05,1,,,,,,0
1491,6150001017114,登記記録の閉鎖等,0,2026-01-06,2026-01-05,株式会社ＲＩＯ,,株式会社,奈良県,生駒市,北新町１２－３８ビアンプラッセ１０１号,,29,209,6300245,,,2026-01-05,登記官による閉鎖,,,2015-10-05,1,,,,,,0
1493,6150002000548,登記記録の閉鎖等,0,2026-01-06,2026-01-05,有限会社木村食料品店,,有限会社,奈良県,奈良市,北向町１９番地,,29,201,6308232,,,2026-01-05,登記官による閉鎖,,,2015-10-05,1,,,,,,0
1494,6150005000891,登記記録の閉鎖等,0,2026-01-06,2026-01-05,協同組合建築技術センター,,その他の設立登記法人,奈良県,奈良市,大安寺町２１０番地の２５,,29,201,6308134,,,2026-01-05,登記官による閉鎖,,,2015-10-05,1,,,,,,0
1495,6150005002401,登記記録の閉鎖等,0,2026-01-06,2026-01-05,生駒電気設備業協同組合,,その他の設立登記法人,奈良県,生駒市,俵口町１９０６番地２,,29,209,6300243,,,2026-01-05,登記官による閉鎖,,,2015-10-05,1,,,,,,0
1496,6150005003746,登記記録の閉鎖等,0,2026-01-06,2026-01-05,特定非営利活動法人アイ・ハーモニー,,その他の設立登記法人,奈良県,奈良市,西大寺栄町２２９６番地５シャンティー西大寺７０３号,,29,201,6310822,,,2026-01-05,登記官による閉鎖,,,2015-10-05,1,,,,,,0
1497,6150005004661,登記記録の閉鎖等,0,2026-01-06,2026-01-05,奈良県建設基礎工事協同組合,,その他の設立登記法人,奈良県,橿原市,内膳町５丁目５番９号,,29,205,6340804,,,2026-01-05,登記官による閉鎖,,,2015-10-05,1,,,,,,0
1498,6150005008076,登記記録の閉鎖等,0,2026-01-06,2026-01-05,飛鳥農事組合法人,,その他の設立登記法人,奈良県,高市郡明日香村,大字奥山６３０番地,,29,402,6340102,,,2026-01-05,登記官による閉鎖,,,2015-10-05,1,,,,,,0
1499,6150005008134,登記記録の閉鎖等,0,2026-01-06,2026-01-05,ＮＰＯ法人奈良アスリートプロジェクト,,その他の設立登記法人,奈良県,香芝市,関屋北３丁目３番６号,,29,210,6390254,,,2026-01-05,登記官による閉鎖,,,2015-10-05,1,,,,,,0
1500,6150005009157,登記記録の閉鎖等,0,2026-01-06,2026-01-05,宇陀吉野木材協同組合,,その他の設立登記法人,奈良県,宇陀市,大宇陀出新１８３４番地,,29,212,6332162,,,2026-01-05,登記官による閉鎖,,,2020-03-27,1,,,,,ウダヨシノモクザイ,0
1501,6160001012576,登記記録の閉鎖等,0,2026-01-06,2026-01-05,株式会社ボンズ,,株式会社,滋賀県,米原市,朝日１２７番地１,,25,214,5210226,,,2026-01-05,清算の結了等,,,2015-10-05,1,,,,,ボンズ,0
1503,6160001024118,登記記録の閉鎖等,0,2026-01-06,2025-12-24,株式会社甚太郎,,株式会社,滋賀県,高島市,安曇川町北船木１８１２番地１,,25,212,5201232,,,2025-12-24,清算の結了等,,,2022-04-11,1,,,,,ジンタロウ,0
1510,6180302002530,登記記録の閉鎖等,0,2026-01-06,2025-12-23,有限会社早川建材,,有限会社,愛知県,岡崎市,渡町字頓堀２５番地７,,23,202,4440933,,,2025-12-23,清算の結了等,,,2015-10-05,1,,,,,ハヤカワケンザイ,0
1512,6190001001279,登記記録の閉鎖等,0,2026-01-06,2025-12-26,株式会社エノキ,,株式会社,三重県,津市,久居野村町５３７番地の２,,24,201,5141113,,,2025-12-26,清算の結了等,,,2015-10-05,1,,,,,エノキ,0
1519,6220001026438,登記記録の閉鎖等,0,2026-01-06,2025-12-17,株式会社緋梅,,株式会社,石川県,金沢市,田上本町２丁目７９番地２,,17,201,9201155,,,2025-12-17,清算の結了等,,,2025-01-21,1,,,,,アケウメ,0
1533,6280001000511,登記記録の閉鎖等,0,2026-01-06,2026-01-05,株式会社トムシステム,,株式会社,島根県,松江市,雑賀町１９９番地,,32,201,6900056,,,2026-01-05,登記官による閉鎖,,,2015-10-05,1,,,,,,0
1534,6280001001014,登記記録の閉鎖等,0,2026-01-06,2026-01-05,株式会社中国バネックス,,株式会社,島根県,松江市,平成町１８２番地１９,,32,201,6900038,,,2026-01-05,登記官による閉鎖,,,2015-10-05,1,,,,,,0
1535,6280001003357,登記記録の閉鎖等,0,2026-01-06,2026-01-05,株式会社ハイプレウッド,,株式会社,島根県,出雲市,長浜町３０５７番地１２,,32,203,6930043,,,2026-01-05,登記官による閉鎖,,,2015-10-05,1,,,,,,0
1536,6280001003902,登記記録の閉鎖等,0,2026-01-06,2026-01-05,株式会社ウエル,,株式会社,島根県,大田市,大田町大田ハ１１８番地,,32,205,6940064,,,2026-01-05,登記官による閉鎖,,,2015-10-05,1,,,,,,0
1537,6280001003968,登記記録の閉鎖等,0,2026-01-06,2026-01-05,フジタ食品工業株式会社,,株式会社,島根県,大田市,大田町大田ロ１１８６番地６,,32,205,6940064,,,2026-01-05,登記官による閉鎖,,,2015-10-05,1,,,,,,0
1538,6280001004396,登記記録の閉鎖等,0,2026-01-06,2026-01-05,株式会社はせがわ,,株式会社,島根県,浜田市,新町２９番地２,,32,202,6970037,,,2026-01-05,登記官による閉鎖,,,2015-10-05,1,,,,,ハセガワ,0
1539,6280001005048,登記記録の閉鎖等,0,2026-01-06,2026-01-05,株式会社秀栄,,株式会社,島根県,益田市,東町１番３３号,,32,204,6980004,,,2026-01-05,登記官による閉鎖,,,2015-10-05,1,,,,,,0
1540,6280001005114,登記記録の閉鎖等,0,2026-01-06,2026-01-05,株式会社益田土建,,株式会社,島根県,益田市,大草町７５０番地１,,32,204,6993674,,,2026-01-05,登記官による閉鎖,,,2015-10-05,1,,,,,,0
1541,6280001005122,登記記録の閉鎖等,0,2026-01-06,2026-01-05,株式会社益田テキスタイルセンター,,株式会社,島根県,益田市,あけぼの西町２番地１３,,32,204,6980025,,,2026-01-05,登記官による閉鎖,,,2015-10-05,1,,,,,,0
1542,6280001005601,登記記録の閉鎖等,0,2026-01-06,2026-01-05,松和株式会社,,株式会社,島根県,雲南市,大東町上久野１２１１番地,,32,209,6991211,,,2026-01-05,登記官による閉鎖,,,2015-10-05,1,,,,,,0
1543,6280001005741,登記記録の閉鎖等,0,2026-01-06,2026-01-05,八代物産株式会社,,株式会社,島根県,仁多郡奥出雲町,八代２９４番地,,32,343,6991433,,,2026-01-05,登記官による閉鎖,,,2015-10-05,1,,,,,,0
1544,6280002003273,登記記録の閉鎖等,0,2026-01-06,2026-01-05,有限会社渡建,,有限会社,島根県,松江市,幸町１５７１番地,,32,201,6900041,,,2026-01-05,登記官による閉鎖,,,2015-10-05,1,,,,,,0
1545,6280002010848,登記記録の閉鎖等,0,2026-01-06,2026-01-05,有限会社池田運送,,有限会社,島根県,隠岐郡隠岐の島町,城北町１０１番地,,32,528,6850016,,,2026-01-05,登記官による閉鎖,,,2015-10-05,1,,,,,,0
1573,6430001046349,登記記録の閉鎖等,0,2026-01-06,2025-12-22,入丸東田商事株式会社,,株式会社,北海道,岩見沢市,五条西１６丁目５番地１６,,01,210,0680025,,,2025-12-22,清算の結了等,,,2015-10-05,1,,,,,イリマルヒガシダショウジ,0
1581,6460302003046,登記記録の閉鎖等,0,2026-01-06,2025-12-25,有限会社枝松重機,,有限会社,北海道,紋別郡遠軽町,清川５４番地４,,01,555,0990422,,,2025-12-25,清算の結了等,,,2015-10-05,1,,,,,エダマツジュウキ,0
1582,6480002005893,登記記録の閉鎖等,0,2026-01-06,2025-12-26,有限会社河野石油,,有限会社,徳島県,名西郡神山町,阿野字五反地２８４番地１,,36,342,7713201,,,2025-12-26,清算の結了等,,,2015-10-05,1,,,,,カワノセキユ,0
1584,6500002003399,登記記録の閉鎖等,0,2026-01-06,2026-01-05,島津会計コンサルティング有限会社,,有限会社,愛媛県,松山市,久万ノ台１２４３番地７,,38,201,7918016,,,2026-01-05,清算の結了等,,,2015-10-05,1,,,,,シマヅカイケイコンサルティング,0
1600,7010401160773,登記記録の閉鎖等,0,2026-01-06,2025-12-11,Ｃｏｖａｔｉｏｎ　Ｂｉｏｍａｔｅｒｉａｌ　Ｊａｐａｎ株式会社,,株式会社,東京都,千代田区,丸の内１丁目６番５号丸の内北口ビルディング９階,,13,101,1000005,,,2025-12-11,清算の結了等,,,2021-06-11,1,,,,,コベーションバイオマテリアルジャパン,0
1612,7010901020329,登記記録の閉鎖等,0,2026-01-06,2025-12-01,株式会社ＴＹ,,株式会社,東京都,港区,白金５丁目８番１２号,,13,103,1080072,,,2025-12-01,合併による解散等,3010901019770,令和７年１２月１日東京都港区白金五丁目８番１２号株式会社ＲＧ（3010901019770）に合併し解散,2015-10-05,1,,,,,ティーワイ,0
1648,7030003026743,登記記録の閉鎖等,0,2026-01-06,2025-12-23,合同会社ｌｉｎｋ　ｕｐ．,,合同会社,埼玉県,飯能市,大字岩沢６２７番地５,,11,209,3570023,,,2025-12-23,清算の結了等,,,2025-05-09,1,,,,,リンクアップ,0
1655,7040001137426,登記記録の閉鎖等,0,2026-01-06,2025-12-09,ＡＭ　Ｇｌｏｂａｌ株式会社,,株式会社,千葉県,習志野市,花咲１丁目２１番１５－２号,,12,216,2750013,,,2025-12-09,清算の結了等,,,2025-02-18,1,,,,,エイエムグローバル,0
1673,7100005006356,登記記録の閉鎖等,0,2026-01-06,2025-12-24,安曇産業協同組合,,その他の設立登記法人,長野県,安曇野市,穂高８１６９番地２,,20,220,3998303,,,2025-12-24,清算の結了等,,,2015-10-05,1,,,,,アズミサンギョウ,0
1677,7120001131107,登記記録の閉鎖等,0,2026-01-06,2025-12-24,株式会社ＴＢＴ商会,,株式会社,兵庫県,西宮市,小松西町２丁目６番１７－４０５号,,28,204,6638125,,,2025-12-24,清算の結了等,,,2015-10-05,1,,,,,ティービーティーショウカイ,0
1700,7140001082926,登記記録の閉鎖等,0,2026-01-06,2026-01-05,イーライフストア株式会社,,株式会社,大阪府,大阪市西区,立売堀２丁目４番１５号,,27,106,5500012,,,2026-01-05,合併による解散等,8140001066291,令和７年１２月２０日兵庫県三田市沢谷７６６番地株式会社エルアンドティエムエス（8140001066291）に合併し解散,2015-10-05,1,,,,,イーライフストア,0
1707,7150001000242,登記記録の閉鎖等,0,2026-01-06,2026-01-05,株式会社ウエガキ,,株式会社,奈良県,奈良市,東九条町１４番地の１シャトー東九条２１０号,,29,201,6308144,,,2026-01-05,登記官による閉鎖,,,2015-10-05,1,,,,,,0
1708,7150001001661,登記記録の閉鎖等,0,2026-01-06,2026-01-05,株式会社奈良観光ビル,,株式会社,奈良県,奈良市,池之町１２番地,,29,201,6308361,,,2026-01-05,登記官による閉鎖,,,2015-10-05,1,,,,,,0
1709,7150001002973,登記記録の閉鎖等,0,2026-01-06,2026-01-05,三河テック株式会社,,株式会社,奈良県,奈良市,疋田町４０７番地の４１,,29,201,6310843,,,2026-01-05,登記官による閉鎖,,,2015-10-05,1,,,,,,0
1710,7150001004433,登記記録の閉鎖等,0,2026-01-06,2026-01-05,株式会社ＯＲＩＧＩＮ,,株式会社,奈良県,奈良市,南半田東町１８番地の２,,29,201,6308277,,,2026-01-05,登記官による閉鎖,,,2015-10-05,1,,,,,,0
1711,7150001004441,登記記録の閉鎖等,0,2026-01-06,2026-01-05,株式会社柿本,,株式会社,奈良県,奈良市,白毫寺町５３番地の５,,29,201,6308302,,,2026-01-05,登記官による閉鎖,,,2015-10-05,1,,,,,,0
1712,7150001005258,登記記録の閉鎖等,0,2026-01-06,2026-01-05,株式会社ヤマテック,,株式会社,奈良県,生駒市,小平尾町１５７７番地１,,29,209,6300226,,,2026-01-05,登記官による閉鎖,,,2015-10-05,1,,,,,,0
1713,7150001005646,登記記録の閉鎖等,0,2026-01-06,2026-01-05,株式会社カーシティ奈良,,株式会社,奈良県,大和郡山市,大江町１７１番地の１,,29,203,6391106,,,2026-01-05,登記官による閉鎖,,,2015-10-05,1,,,,,,0
1714,7150001006875,登記記録の閉鎖等,0,2026-01-06,2026-01-05,旭不動産株式会社,,株式会社,奈良県,生駒郡斑鳩町,神南３丁目１８番地の２５,,29,344,6360143,,,2026-01-05,登記官による閉鎖,,,2015-10-05,1,,,,,,0
1715,7150001009366,登記記録の閉鎖等,0,2026-01-06,2026-01-05,スノーマン株式会社,,株式会社,奈良県,桜井市,朝倉台東１丁目５６０番地の４６,,29,206,6330003,,,2026-01-05,登記官による閉鎖,,,2015-10-05,1,,,,,,0
1716,7150001009440,登記記録の閉鎖等,0,2026-01-06,2026-01-05,株式会社トータルマネージメント,,株式会社,奈良県,桜井市,大字戒重２５０番地の５,,29,206,6330064,,,2026-01-05,登記官による閉鎖,,,2015-10-05,1,,,,,,0
1717,7150001010035,登記記録の閉鎖等,0,2026-01-06,2026-01-05,万葉ツーリストサービス株式会社,,株式会社,奈良県,桜井市,大字河西７２５番地の２６,,29,206,6330051,,,2026-01-05,登記官による閉鎖,,,2015-10-05,1,,,,,,0
1718,7150001013426,登記記録の閉鎖等,0,2026-01-06,2026-01-05,丸野商行株式会社,,株式会社,奈良県,大和高田市,大字市場８０８番地の５,,29,202,6350074,,,2026-01-05,登記官による閉鎖,,,2015-10-05,1,,,,,,0
1719,7150001015876,登記記録の閉鎖等,0,2026-01-06,2026-01-05,奈良新和通信株式会社,,株式会社,奈良県,吉野郡大淀町,大字畑屋５９番地,,29,442,6380802,,,2026-01-05,登記官による閉鎖,,,2015-10-05,1,,,,,,0
1720,7150001019522,登記記録の閉鎖等,0,2026-01-06,2026-01-05,綜合商事株式会社,,株式会社,奈良県,奈良市,秋篠町１３７５－１,,29,201,6310811,,,2026-01-05,登記官による閉鎖,,,2015-10-05,1,,,,,,0
1723,7150005003308,登記記録の閉鎖等,0,2026-01-06,2026-01-05,いかるがデパート協同組合,,その他の設立登記法人,奈良県,生駒郡斑鳩町,興留５丁目１１番２４号,,29,344,6360123,,,2026-01-05,登記官による閉鎖,,,2015-10-05,1,,,,,,0
1724,7150005004157,登記記録の閉鎖等,0,2026-01-06,2026-01-05,小川製茶農業協同組合,,その他の設立登記法人,奈良県,吉野郡東吉野村,大字小５４５番地の１,,29,453,6332431,,,2026-01-05,登記官による閉鎖,,,2015-10-05,1,,,,,,0
1725,7150005006509,登記記録の閉鎖等,0,2026-01-06,2026-01-05,紀和集成材協同組合,,その他の設立登記法人,奈良県,大和高田市,材木町２番５号,,29,202,6350011,,,2026-01-05,登記官による閉鎖,,,2015-10-05,1,,,,,,0
1726,7150005007317,登記記録の閉鎖等,0,2026-01-06,2026-01-05,池原農業協同組合,,その他の設立登記法人,奈良県,吉野郡下北山村,大字上池原９９４番地,,29,450,6393805,,,2026-01-05,登記官による閉鎖,,,2015-10-05,1,,,,,,0
1729,7160002011287,登記記録の閉鎖等,0,2026-01-06,2026-01-05,木津農機有限会社,,有限会社,滋賀県,高島市,永田３３８番地１,,25,212,5201112,,,2026-01-05,清算の結了等,,,2015-10-05,1,,,,,キヅノウキ,0
1732,7180001094942,登記記録の閉鎖等,0,2026-01-06,2025-12-25,株式会社ケー・ブロス,,株式会社,愛知県,半田市,柊町４丁目２０４番地の１０,,23,205,4750916,,,2025-12-25,清算の結了等,,,2015-10-05,1,,,,,ケーブロス,0
1735,7180002091303,登記記録の閉鎖等,0,2026-01-06,2025-12-25,有限会社パラメディカルサービス,,有限会社,愛知県,愛西市,西保町北川原１７９番地の１４５,,23,232,4960911,,,2025-12-25,清算の結了等,,,2015-10-05,1,,,,,パラメディカルサービス,0
1736,7180003022488,登記記録の閉鎖等,0,2026-01-06,2025-12-25,合同会社１３０Ｒ,,合同会社,愛知県,尾張旭市,西大道町前田３８０４番地９（１Ｂ）,,23,226,4880814,,,2025-12-25,清算の結了等,,,2021-05-12,1,,,,,ヒャクサンジュウアール,0
1745,7220001000508,登記記録の閉鎖等,0,2026-01-06,2026-01-05,株式会社本城,,株式会社,石川県,野々市市,上林４丁目５５２番地,,17,212,9218835,,,2026-01-05,清算の結了等,,,2015-10-05,1,,,,,ホンジョウ,0
1756,7280001000312,登記記録の閉鎖等,0,2026-01-06,2026-01-05,サンライトネットワークス株式会社,,株式会社,島根県,松江市,東本町２丁目４番地,,32,201,6900842,,,2026-01-05,登記官による閉鎖,,,2015-10-05,1,,,,,,0
1757,7280001000469,登記記録の閉鎖等,0,2026-01-06,2026-01-05,株式会社チェスコム山陰,,株式会社,島根県,松江市,東朝日町２１０番地１,,32,201,6900001,,,2026-01-05,登記官による閉鎖,,,2015-10-05,1,,,,,,0
1758,7280001000502,登記記録の閉鎖等,0,2026-01-06,2026-01-05,東和地建株式会社,,株式会社,島根県,松江市,雑賀町２３７番地,,32,201,6900056,,,2026-01-05,登記官による閉鎖,,,2015-10-05,1,,,,,,0
1759,7280001002226,登記記録の閉鎖等,0,2026-01-06,2026-01-05,株式会社ＳＹＳカンパニー,,株式会社,島根県,松江市,伊勢宮町５１７番地７ビックボーイビル２階,,32,201,6900006,,,2026-01-05,登記官による閉鎖,,,2015-10-05,1,,,,,,0
1760,7280001003158,登記記録の閉鎖等,0,2026-01-06,2026-01-05,株式会社里家,,株式会社,島根県,出雲市,里方町４６３番地,,32,203,6930064,,,2026-01-05,登記官による閉鎖,,,2015-10-05,1,,,,,,0
1761,7280001003950,登記記録の閉鎖等,0,2026-01-06,2026-01-05,株式会社だいこう興産,,株式会社,島根県,大田市,大田町大田ロ１１８５番地１１,,32,205,6940064,,,2026-01-05,登記官による閉鎖,,,2015-10-05,1,,,,,,0
1762,7280001004627,登記記録の閉鎖等,0,2026-01-06,2026-01-05,株式会社らいふ,,株式会社,島根県,江津市,和木町５７１番地２,,32,207,6950017,,,2026-01-05,登記官による閉鎖,,,2015-10-05,1,,,,,ライフ,0
1763,7280001005022,登記記録の閉鎖等,0,2026-01-06,2026-01-05,三和実業株式会社,,株式会社,島根県,益田市,須子町ロ３７８番地,,32,204,6980036,,,2026-01-05,登記官による閉鎖,,,2015-10-05,1,,,,,,0
1764,7280001005220,登記記録の閉鎖等,0,2026-01-06,2026-01-05,匹見産業開発株式会社,,株式会社,島根県,益田市,匹見町匹見イ９１５番地,,32,204,6981211,,,2026-01-05,登記官による閉鎖,,,2015-10-05,1,,,,,,0
1765,7280001005600,登記記録の閉鎖等,0,2026-01-06,2026-01-05,新日本技研工業株式会社,,株式会社,島根県,雲南市,三刀屋町古城１２０３番地２,,32,209,6902405,,,2026-01-05,登記官による閉鎖,,,2015-10-05,1,,,,,,0
1766,7280001005625,登記記録の閉鎖等,0,2026-01-06,2026-01-05,かめだけ株式会社,,株式会社,島根県,仁多郡奥出雲町,亀嵩２２４８番地,,32,343,6991701,,,2026-01-05,登記官による閉鎖,,,2015-10-05,1,,,,,,0
1767,7280001005740,登記記録の閉鎖等,0,2026-01-06,2026-01-05,日光金属工業株式会社,,株式会社,島根県,仁多郡奥出雲町,亀嵩１５４２番地,,32,343,6991701,,,2026-01-05,登記官による閉鎖,,,2015-10-05,1,,,,,,0
1768,7280002005673,登記記録の閉鎖等,0,2026-01-06,2026-01-05,大宣建設有限会社,,有限会社,島根県,出雲市,知井宮町１０２１番地,,32,203,6930033,,,2026-01-05,登記官による閉鎖,,,2015-10-05,1,,,,,,0
1769,7280002007918,登記記録の閉鎖等,0,2026-01-06,2026-01-05,有限会社小林工務店,,有限会社,島根県,大田市,温泉津町温泉津イ６６５番地８５,,32,205,6992501,,,2026-01-05,登記官による閉鎖,,,2015-10-05,1,,,,,,0
1770,7280005005869,登記記録の閉鎖等,0,2026-01-06,2026-01-05,一般社団法人ＪＩＣ日本統合医療・美容ケア協会,,その他の設立登記法人,島根県,松江市,西津田６丁目８番１号東ビル２Ｆ,,32,201,6900017,,,2026-01-05,登記官による閉鎖,,,2015-10-05,1,,,,,,0
1772,7290001022446,登記記録の閉鎖等,0,2026-01-06,2025-12-15,株式会社リンク,,株式会社,福岡県,福岡市博多区,三筑１丁目１１番２１号,,40,132,8120887,,,2025-12-15,清算の結了等,,,2015-10-05,1,,,,,リンク,0
1789,7290805008814,登記記録の閉鎖等,0,2026-01-06,2025-12-16,一般社団法人ふるさと北九州空き家対策推進センター,,その他の設立登記法人,福岡県,北九州市小倉南区,北方２丁目２４番６号,,40,107,8020841,,,2025-12-16,清算の結了等,,,2016-02-09,1,,,,,フルサトキタキュウシュウアキヤタイサクスイシンセンター,0
1794,7310001004334,登記記録の閉鎖等,0,2026-01-06,2026-01-06,株式会社栄農場,,株式会社,長崎県,長崎市,油木町３９番２５号,,42,201,8528035,,,2026-01-06,清算の結了等,,,2015-10-05,1,,,,,サカエノウジョウ,0
1802,7350002009675,登記記録の閉鎖等,0,2026-01-06,2025-12-24,有限会社本田商店,,有限会社,宮崎県,児湯郡高鍋町,大字持田５６５６番地３８,,45,401,8840005,,,2025-12-24,清算の結了等,,,2015-10-05,1,,,,,ホンダショウテン,0
1803,7350002010022,登記記録の閉鎖等,0,2026-01-06,2025-12-25,有限会社オレンジ,,有限会社,宮崎県,児湯郡木城町,大字椎木４５５０番地２,,45,404,8840102,,,2025-12-25,清算の結了等,,,2015-10-05,1,,,,,オレンジ,0
1810,7390002009993,登記記録の閉鎖等,0,2026-01-06,2025-12-23,有限会社羽越グリーンサービス,,有限会社,山形県,鶴岡市,湯温海字湯之里１５１番地の８,,06,203,9997204,,,2025-12-23,清算の結了等,,,2015-10-05,1,,,,,ウエツグリーンサービス,0
1814,7460101007296,登記記録の閉鎖等,0,2026-01-06,2025-12-23,株式会社Ｇｒｉｚｚｌｙ,,株式会社,北海道,河西郡芽室町,東三条南２丁目８番地１レオパレスメムロ１０６号室,,01,637,0820053,,,2025-12-23,清算の結了等,,,2022-12-14,1,,,,,グリズリー,0
1818,7500001026045,登記記録の閉鎖等,0,2026-01-06,2025-12-25,伊予縫製株式会社,,株式会社,愛媛県,今治市,近見町３丁目１番１６号,,38,202,7940007,,,2025-12-25,清算の結了等,,,2024-12-27,1,,,,,イヨホウセイ,0
1833,8010005029217,登記記録の閉鎖等,0,2026-01-06,2025-12-25,一般社団法人ＡＦ１７,,その他の設立登記法人,東京都,中央区,京橋１丁目１１番１号,,13,102,1040031,,,2025-12-25,清算の結了等,,,2018-10-15,1,,,,,エーエフセブンティーン,0
1845,8010602017862,登記記録の閉鎖等,0,2026-01-06,2025-12-18,有限会社鬼島商店,,有限会社,東京都,江東区,亀戸６丁目４６番１号,,13,108,1360071,,,2025-12-18,清算の結了等,,,2015-10-05,1,,,,,キジマショウテン,0
1846,8010602021022,登記記録の閉鎖等,0,2026-01-06,2025-12-22,有限会社真葵エンタープライズ,,有限会社,東京都,江東区,南砂６丁目７番５０－１８０２号,,13,108,1360076,,,2025-12-22,清算の結了等,,,2015-10-05,1,,,,,マキエンタープライズ,0
1852,8010901027208,登記記録の閉鎖等,0,2026-01-06,2025-12-26,株式会社フロラ,,株式会社,東京都,世田谷区,北沢４丁目３番３号,,13,112,1550031,,,2025-12-26,清算の結了等,,,2015-10-05,1,,,,,フロラ,0
1856,8010902005220,登記記録の閉鎖等,0,2026-01-06,2025-12-26,有限会社倉部不動産鑑定,,有限会社,東京都,世田谷区,上北沢１丁目３４番１８号,,13,112,1560057,,,2025-12-26,清算の結了等,,,2015-10-05,1,,,,,クラベフドウサンカンテイ,0
1864,8011103013649,登記記録の閉鎖等,0,2026-01-06,2025-12-04,合同会社ＷＯＲＲＹ,,合同会社,東京都,新宿区,西新宿３丁目３－１３西新宿水間ビル６階,,13,104,1600023,,,2025-12-04,清算の結了等,,,2023-10-23,1,,,,,ウォーリー,0
1870,8011601013588,登記記録の閉鎖等,0,2026-01-06,2025-12-25,株式会社坂下企画,,株式会社,東京都,練馬区,谷原５丁目７番１３号,,13,120,1770032,,,2025-12-25,清算の結了等,,,2015-10-05,1,,,,,サカシタキカク,0
1875,8012401016731,登記記録の閉鎖等,0,2026-01-06,2025-12-18,株式会社隆アソシエイツ,,株式会社,東京都,墨田区,墨田１丁目１５番１５号,,13,107,1310031,,,2025-12-18,清算の結了等,,,2015-10-05,1,,,,,リュウアソシエイツ,0
1882,8020001051173,登記記録の閉鎖等,0,2026-01-06,2025-12-26,株式会社新協コンサルタント,,株式会社,神奈川県,横浜市西区,戸部本町４５番４号髭内ビル２０１,,14,103,2200041,,,2025-12-26,清算の結了等,,,2015-10-05,1,,,,,シンキョウコンサルタント,0
1889,8020002039481,登記記録の閉鎖等,0,2026-01-06,2025-12-26,生麦運送有限会社,,有限会社,神奈川県,横浜市鶴見区,東寺尾６丁目１３番２０号,,14,101,2300077,,,2025-12-26,清算の結了等,,,2015-10-05,1,,,,,,0
1898,8021005011386,登記記録の閉鎖等,0,2026-01-06,2025-12-12,一般社団法人プレカットリフォーム研究協会,,その他の設立登記法人,神奈川県,座間市,相模が丘６丁目３０番２号,,14,216,2520001,,,2025-12-12,清算の結了等,,,2018-08-24,1,,,,,プレカットリフォームケンキュウキョウカイ,0
1904,8040001034366,登記記録の閉鎖等,0,2026-01-06,2025-12-09,株式会社クリエイト,,株式会社,千葉県,千葉市花見川区,千種町１０７番地３１,,12,102,2620012,,,2025-12-09,清算の結了等,,,2015-10-05,1,,,,,クリエイト,0
1907,8040001102180,登記記録の閉鎖等,0,2026-01-06,2025-12-09,サンウエスト株式会社,,株式会社,千葉県,柏市,柏２丁目１０番２－１６０７号,,12,217,2770005,,,2025-12-09,清算の結了等,,,2017-10-25,1,,,,,サンウエスト,0
1916,8060001003674,登記記録の閉鎖等,0,2026-01-06,2026-01-05,八光薬品株式会社,,株式会社,栃木県,宇都宮市,陽東５丁目５番３９号,,09,201,3210904,,,2026-01-05,清算の結了等,,,2015-10-05,1,,,,,ハッコウヤクヒン,0
1917,8060001029901,登記記録の閉鎖等,0,2026-01-06,2025-12-26,株式会社ラックラス,,株式会社,栃木県,宇都宮市,西川田本町４丁目２３番３号,,09,201,3210158,,,2025-12-26,清算の結了等,,,2017-10-20,1,,,,,ラックラス,0
1923,8100001021366,登記記録の閉鎖等,0,2026-01-06,2025-12-26,株式会社ビルト,,株式会社,長野県,駒ヶ根市,赤穂１２７９８番地３,,20,210,3994117,,,2025-12-26,清算の結了等,,,2015-10-05,1,,,,,ビルト,0
1928,8110001031117,登記記録の閉鎖等,0,2026-01-06,2025-12-19,金平工業株式会社,,株式会社,新潟県,糸魚川市,一の宮５丁目９番３１号,,15,216,9410056,,,2025-12-19,清算の結了等,,,2015-12-04,1,,,,,カネヒラコウギョウ,0
1934,8120001128440,登記記録の閉鎖等,0,2026-01-06,2025-12-19,株式会社インフォスタイル,,株式会社,滋賀県,大津市,京町４丁目５－１３,,25,201,5200044,,,2025-12-19,清算の結了等,,,2015-10-05,1,,,,,インフォスタイル,0
1945,8120005015866,登記記録の閉鎖等,0,2026-01-06,2025-12-24,一般社団法人萬雀の会,,その他の設立登記法人,大阪府,大阪市西区,靱本町２丁目３番７号,,27,106,5500004,,,2025-12-24,清算の結了等,,,2015-10-05,1,,,,,バンジャクノカイ,0
1953,8120102017880,登記記録の閉鎖等,0,2026-01-06,2025-12-25,有限会社宇田木材工芸,,有限会社,大阪府,羽曳野市,大黒１４３番地１,,27,222,5830847,,,2025-12-25,清算の結了等,,,2015-10-05,1,,,,,ウダモクザイコウゲイ,0
1959,8140001016123,登記記録の閉鎖等,0,2026-01-06,2025-12-23,株式会社サントス,,株式会社,兵庫県,神戸市長田区,駒ケ林南町２番２４号,,28,106,6530045,,,2025-12-23,清算の結了等,,,2015-10-05,1,,,,,,0
1967,8140002029223,登記記録の閉鎖等,0,2026-01-06,2025-12-24,有限会社ティーエス技研,,有限会社,兵庫県,明石市,藤が丘２丁目２７番１９号,,28,203,6730046,,,2025-12-24,清算の結了等,,,2015-10-05,1,,,,,ティーエスギケン,0
1970,8150001000679,登記記録の閉鎖等,0,2026-01-06,2026-01-05,株式会社清澄,,株式会社,奈良県,奈良市,高樋町８４３番地,00042573,29,201,6308411,,,2026-01-05,登記官による閉鎖,,,2015-10-05,1,,,,,,0
1971,8150001001082,登記記録の閉鎖等,0,2026-01-06,2026-01-05,株式会社スマイル,,株式会社,奈良県,奈良市,朱雀５丁目６番地の１１,,29,201,6310806,,,2026-01-05,登記官による閉鎖,,,2015-10-05,1,,,,,スマイル,0
1972,8150001001719,登記記録の閉鎖等,0,2026-01-06,2026-01-05,株式会社奈良シルクロード・カントリークラブ,,株式会社,奈良県,奈良市,西大寺南町１番３号,,29,201,6310824,,,2026-01-05,登記官による閉鎖,,,2015-10-05,1,,,,,,0
1973,8150001002056,登記記録の閉鎖等,0,2026-01-06,2026-01-05,株式会社フォルテシモ,,株式会社,奈良県,奈良市,三碓１丁目９番２２－２号,,29,201,6310061,,,2026-01-05,登記官による閉鎖,,,2015-10-05,1,,,,,,0
1974,8150001002205,登記記録の閉鎖等,0,2026-01-06,2026-01-05,株式会社本田青紫園,,株式会社,奈良県,奈良市,東向中町１６番地,,29,201,6308215,,,2026-01-05,登記官による閉鎖,,,2015-10-05,1,,,,,ホンダセイシエン,0
1975,8150001004473,登記記録の閉鎖等,0,2026-01-06,2026-01-05,株式会社テンマ,,株式会社,奈良県,奈良市,西大寺小坊町１番６号,,29,201,6310827,,,2026-01-05,登記官による閉鎖,,,2015-10-05,1,,,,,,0
1976,8150001004630,登記記録の閉鎖等,0,2026-01-06,2026-01-05,株式会社アーティー,,株式会社,奈良県,生駒市,谷田町７８２番地の２３,,29,209,6300251,,,2026-01-05,登記官による閉鎖,,,2015-10-05,1,,,,,,0
1977,8150001004754,登記記録の閉鎖等,0,2026-01-06,2026-01-05,岡田商事株式会社,,株式会社,奈良県,生駒市,東生駒１丁目５０７番地,,29,209,6300213,,,2026-01-05,登記官による閉鎖,,,2015-10-05,1,,,,,,0
1978,8150001006362,登記記録の閉鎖等,0,2026-01-06,2026-01-05,乾産業株式会社,,株式会社,奈良県,天理市,櫟本町３０３４番地,,29,204,6320004,,,2026-01-05,登記官による閉鎖,,,2015-10-05,1,,,,,,0
1979,8150001006866,登記記録の閉鎖等,0,2026-01-06,2026-01-05,株式会社アナカリス,,株式会社,奈良県,生駒郡三郷町,立野北２丁目１７番２０号,,29,343,6360821,,,2026-01-05,登記官による閉鎖,,,2015-10-05,1,,,,,,0
1980,8150001006890,登記記録の閉鎖等,0,2026-01-06,2026-01-05,斑鳩運送株式会社,,株式会社,奈良県,生駒郡斑鳩町,法隆寺東１丁目１番６号,00048841,29,344,6360112,,,2026-01-05,登記官による閉鎖,,,2015-10-05,1,,,,,,0
1981,8150001014217,登記記録の閉鎖等,0,2026-01-06,2026-01-05,株式会社シマダ,,株式会社,奈良県,北葛城郡王寺町,葛下１丁目３番４号,,29,425,6360011,,,2026-01-05,登記官による閉鎖,,,2015-10-05,1,,,,,,0
1982,8150001014241,登記記録の閉鎖等,0,2026-01-06,2026-01-05,株式会社エムノーボ,,株式会社,奈良県,大和高田市,大字池田５３０番地の３,,29,202,6350077,,,2026-01-05,登記官による閉鎖,,,2015-10-05,1,,,,,,0
1983,8150001015446,登記記録の閉鎖等,0,2026-01-06,2026-01-05,喜多建設株式会社,,株式会社,奈良県,五條市,今井２丁目８番２５号,,29,207,6370004,,,2026-01-05,登記官による閉鎖,,,2015-10-05,1,,,,,,0
1984,8150001016114,登記記録の閉鎖等,0,2026-01-06,2026-01-05,橋本木材株式会社,,株式会社,奈良県,吉野郡吉野町,大字飯貝１５１番地の２,,29,441,6393113,,,2026-01-05,登記官による閉鎖,,,2015-10-05,1,,,,,,0
1985,8150002006832,登記記録の閉鎖等,0,2026-01-06,2026-01-05,三東運輸有限会社,,有限会社,奈良県,桜井市,大字三輪１０９２番地の１１,,29,206,6330001,,,2026-01-05,登記官による閉鎖,,,2015-10-05,1,,,,,,0
1986,8150002007789,登記記録の閉鎖等,0,2026-01-06,2026-01-05,有限会社八木商事,,有限会社,奈良県,橿原市,小槻町２６６番地の１０,,29,205,6340846,,,2026-01-05,登記官による閉鎖,,,2015-10-05,1,,,,,,0
1987,8150002009612,登記記録の閉鎖等,0,2026-01-06,2026-01-05,有限会社ニシカワドラッグ,,有限会社,奈良県,御所市,大字樋野２４２番地,00043571,29,208,6392252,,,2026-01-05,登記官による閉鎖,,,2015-10-05,1,,,,,,0
1988,8150005004081,登記記録の閉鎖等,0,2026-01-06,2026-01-05,大和造園工事業協同組合,,その他の設立登記法人,奈良県,桜井市,大字大泉１１８番地の１,,29,206,6330076,,,2026-01-05,登記官による閉鎖,,,2015-10-05,1,,,,,,0
1989,8150005005518,登記記録の閉鎖等,0,2026-01-06,2026-01-05,多村育苗農業協同組合,,その他の設立登記法人,奈良県,橿原市,大字西新堂１７５番地,,29,205,6340000,,,2026-01-05,登記官による閉鎖,,,2015-10-05,1,,,,,,0
1990,8150005005617,登記記録の閉鎖等,0,2026-01-06,2026-01-05,一般社団法人クローバー経営研究会,,その他の設立登記法人,奈良県,橿原市,曽我町３３９番地の７,,29,205,6340831,,,2026-01-05,登記官による閉鎖,,,2015-10-05,1,,,,,,0
1991,8150005005906,登記記録の閉鎖等,0,2026-01-06,2026-01-05,真美建設協同組合,,その他の設立登記法人,奈良県,北葛城郡広陵町,大字古寺４８１番地,,29,426,6350815,,,2026-01-05,登記官による閉鎖,,,2015-10-05,1,,,,,,0
1992,8150005007191,登記記録の閉鎖等,0,2026-01-06,2026-01-05,宇智郡養蚕農業協同組合,,その他の設立登記法人,奈良県,五條市,二見町１０３１番地,,29,207,6370000,,,2026-01-05,登記官による閉鎖,,,2015-10-05,1,,,,,,0
1993,8150005007613,登記記録の閉鎖等,0,2026-01-06,2026-01-05,吉野緬羊農業協同組合,,その他の設立登記法人,奈良県,吉野郡大淀町,大字新野６８番地,,29,442,6393126,,,2026-01-05,登記官による閉鎖,,,2015-10-05,1,,,,,,0
1996,8160002007631,登記記録の閉鎖等,0,2026-01-06,2026-01-05,有限会社パワーブルーム,,有限会社,滋賀県,長浜市,新庄中町３０２番地の７,,25,203,5260012,,,2026-01-05,清算の結了等,,,2015-10-05,1,,,,,パワーブルーム,0
1997,8160003002722,登記記録の閉鎖等,0,2026-01-06,2025-12-25,ｐｏｃｋｅｔ合同会社,,合同会社,滋賀県,大津市,尾花川１１番３１－７０７号,,25,201,5200031,,,2025-12-25,清算の結了等,,,2022-11-08,1,,,,,ポケット,0
2009,8200001033863,登記記録の閉鎖等,0,2026-01-06,2025-12-24,株式会社Ｓｔｕｔｔｅｒｉｎｇ,,株式会社,福島県,郡山市,駅前２丁目３－７エリート３０ビル２Ｆ,,07,203,9638002,,,2025-12-24,清算の結了等,,,2017-03-23,1,,,,,,0
2024,8280001000113,登記記録の閉鎖等,0,2026-01-06,2026-01-05,株式会社エフ・ケー・ケー,,株式会社,島根県,松江市,上乃木８丁目４番３号,,32,201,6900015,,,2026-01-05,登記官による閉鎖,,,2015-10-05,1,,,,,,0
2025,8280001000369,登記記録の閉鎖等,0,2026-01-06,2026-01-05,株式会社しんじ湖,,株式会社,島根県,松江市,乃木福富町３４０番地,,32,201,6900046,,,2026-01-05,登記官による閉鎖,,,2015-10-05,1,,,,,,0
2026,8280001000534,登記記録の閉鎖等,0,2026-01-06,2026-01-05,西日本総合開発株式会社,,株式会社,島根県,松江市,学園２丁目１２番１０号,,32,201,6900825,,,2026-01-05,登記官による閉鎖,,,2015-10-05,1,,,,,,0
2027,8280001000971,登記記録の閉鎖等,0,2026-01-06,2026-01-05,株式会社コンフォート,,株式会社,島根県,松江市,西津田４丁目１番２号,,32,201,6900017,,,2026-01-05,登記官による閉鎖,,,2015-10-05,1,,,,,,0
2028,8280001002456,登記記録の閉鎖等,0,2026-01-06,2026-01-05,株式会社ミユキ建機,,株式会社,島根県,安来市,安来町７６５番地８,,32,206,6920011,,,2026-01-05,登記官による閉鎖,,,2015-10-05,1,,,,,,0
2029,8280001004279,登記記録の閉鎖等,0,2026-01-06,2026-01-05,コザワ藥品株式会社,,株式会社,島根県,浜田市,新町４８番地,,32,202,6970037,,,2026-01-05,登記官による閉鎖,,,2015-10-05,1,,,,,,0
2030,8280001004832,登記記録の閉鎖等,0,2026-01-06,2026-01-05,株式会社フタバ,,株式会社,島根県,邑智郡川本町,大字因原６３５番地,,32,441,6960003,,,2026-01-05,登記官による閉鎖,,,2015-10-05,1,,,,,,0
2031,8280001005509,登記記録の閉鎖等,0,2026-01-06,2026-01-05,Ｔ＆Ｓ株式会社,,株式会社,島根県,松江市,大正町４８７番地１２松江大正町中村コーポ４０８号室,,32,201,6900002,,,2026-01-05,登記官による閉鎖,,,2015-10-05,1,,,,,,0
2032,8280002003288,登記記録の閉鎖等,0,2026-01-06,2026-01-05,有限会社クレフォート,,有限会社,島根県,松江市,南田町１２４番地７３,,32,201,6900884,,,2026-01-05,登記官による閉鎖,,,2015-10-05,1,,,,,,0
2033,8280002010920,登記記録の閉鎖等,0,2026-01-06,2026-01-05,有限会社齋藤建工,,有限会社,島根県,隠岐郡隠岐の島町,城北町２０番地,,32,528,6850016,,,2026-01-05,登記官による閉鎖,,,2015-10-05,1,,,,,,0
2034,8280005006494,登記記録の閉鎖等,0,2026-01-06,2026-01-05,シームアート協同組合,,その他の設立登記法人,島根県,仁多郡奥出雲町,大馬木５１２番地１０,,32,343,6991941,,,2026-01-05,登記官による閉鎖,,,2015-10-05,1,,,,,,0
2035,8290001045801,登記記録の閉鎖等,0,2026-01-06,2025-12-16,渡辺商事株式会社,,株式会社,福岡県,飯塚市,花瀬７０番地,,40,205,8200045,,,2025-12-16,清算の結了等,,,2015-10-05,1,,,,,ワタナベショウジ,0
2044,8340001021128,登記記録の閉鎖等,0,2026-01-06,2025-12-23,株式会社Ｌｉｎｄｅｎ,,株式会社,鹿児島県,南さつま市,加世田村原１丁目２－１加世田グランドハイツ１０３号,,46,220,8970001,,,2025-12-23,清算の結了等,,,2018-04-19,1,,,,,リンデン,0
2054,8380001014862,登記記録の閉鎖等,0,2026-01-06,2025-12-24,笑顔世界株式会社,,株式会社,福島県,いわき市,東田町２丁目１８番地の２,,07,204,9748212,,,2025-12-24,清算の結了等,,,2015-10-05,1,,,,,エガオセカイ,0
2061,8390002010042,登記記録の閉鎖等,0,2026-01-06,2025-12-24,有限会社鼡ケ関五十嵐工務店,,有限会社,山形県,鶴岡市,鼠ケ関丙１０番地,,06,203,9997126,,,2025-12-24,清算の結了等,,,2015-10-05,1,,,,,ネズガセキイガラシコウムテン,0
2062,8390005005898,登記記録の閉鎖等,0,2026-01-06,2025-12-25,特定非営利活動法人健康さくらんぼ２１,,その他の設立登記法人,山形県,東根市,四ツ家１丁目１番１４－７号,,06,211,9993718,,,2025-12-25,清算の結了等,,,2015-10-05,1,,,,,ケンコウサクランボニジュウイチ,0
2068,8430002037469,登記記録の閉鎖等,0,2026-01-06,2025-12-25,有限会社マルカメ技建,,有限会社,北海道,札幌市豊平区,平岸三条１３丁目８番８号,,01,105,0620933,,,2025-12-25,清算の結了等,,,2015-10-05,1,,,,,マルカメギケン,0
2074,8500005005960,登記記録の閉鎖等,0,2026-01-06,2025-12-25,丸住製紙新労働組合,,その他の設立登記法人,愛媛県,四国中央市,金生町下分８６番地７,,38,213,7990111,,,2025-12-25,清算の結了等,,,2015-10-05,1,,,,,マルスミセイシシン,0
2076,9010001042073,登記記録の閉鎖等,0,2026-01-06,2025-12-10,株式会社クリエイトリキ,,株式会社,東京都,中央区,銀座１丁目１８番６号,,13,102,1040061,,,2025-12-10,清算の結了等,,,2015-10-05,1,,,,,クリエイトリキ,0
2079,9010001250436,登記記録の閉鎖等,0,2026-01-06,2025-12-10,株式会社ベガスフーズ,,株式会社,東京都,中央区,銀座１丁目２２番１１号銀座大竹ビジデンス２Ｆ,,13,102,1040061,,,2025-12-10,清算の結了等,,,2024-12-05,1,,,,,ベガスフーズ,0
2084,9010002032899,登記記録の閉鎖等,0,2026-01-06,2025-12-10,有限会社ミュウズイデア,,有限会社,東京都,中央区,新富２丁目７番,,13,102,1040041,,,2025-12-10,清算の結了等,,,2015-10-05,1,,,,,ミュウズイデア,0
2089,9010403019917,登記記録の閉鎖等,0,2026-01-06,2025-12-09,アルマス株式会社,,株式会社,東京都,港区,北青山１丁目３番１号,,13,103,1070061,,,2025-12-09,清算の結了等,,,2019-01-08,1,,,,,アルマス,0
2097,9010601052661,登記記録の閉鎖等,0,2026-01-06,2025-12-22,株式会社ＬＴＶマーケティング,,株式会社,東京都,台東区,台東１丁目９－４松浦ビル５Ｆ,,13,106,1100016,,,2025-12-22,清算の結了等,,,2017-12-26,1,,,,,エルティーブイマーケティング,0
2105,9011001115298,登記記録の閉鎖等,0,2026-01-06,2025-12-24,株式会社チアーサービス,,株式会社,神奈川県,横浜市港北区,菊名３丁目４番２２号,,14,109,2220011,,,2025-12-24,清算の結了等,,,2017-03-09,1,,,,,チアーサービス,0
2112,9011101107014,登記記録の閉鎖等,0,2026-01-06,2025-12-04,株式会社ＳＧＮ,,株式会社,東京都,新宿区,四谷４丁目１０番地２７プリンセスライン四谷四丁目ＥＡＳＴ３０３,,13,104,1600004,,,2025-12-04,清算の結了等,,,2024-04-18,1,,,,,エスジーエヌ,0
2127,9020002025209,登記記録の閉鎖等,0,2026-01-06,2025-12-25,有限会社吉井商会,,有限会社,神奈川県,横浜市中区,長者町５丁目７５番地１スクエア長者町４１３号,,14,104,2310033,,,2025-12-25,清算の結了等,,,2015-10-05,1,,,,,ヨシイショウカイ,0
2128,9020003028202,登記記録の閉鎖等,0,2026-01-06,2025-12-24,合同会社ＮＥＸＴ,,合同会社,神奈川県,横浜市青葉区,荏子田２丁目２番地１４－３０５,,14,117,2250005,,,2025-12-24,清算の結了等,,,2025-04-02,1,,,,,ネクスト,0
2134,9030001145196,登記記録の閉鎖等,0,2026-01-06,2025-12-22,株式会社ライジング,,株式会社,埼玉県,草加市,柳島町８４６番地,,11,221,3400033,,,2025-12-22,清算の結了等,,,2021-11-02,1,,,,,ライジング,0
2144,9040002105396,登記記録の閉鎖等,0,2026-01-06,2025-12-10,有限会社成和ハウジング,,有限会社,千葉県,佐倉市,南臼井台１８番１０号,,12,212,2850865,,,2025-12-10,清算の結了等,,,2025-01-24,1,,,,,セイワハウジング,0
2158,9100001013701,登記記録の閉鎖等,0,2026-01-06,2026-01-05,株式会社長野銀行,,株式会社,長野県,松本市,渚２丁目９番３８号,,20,202,3900841,,,2026-01-05,合併による解散等,3100001002833,令和８年１月１日長野市大字中御所字岡田１７８番地８株式会社八十二長野銀行（3100001002833）に合併し解散,2015-10-05,1,,,,,ナガノギンコウ,0
2159,9100001020185,登記記録の閉鎖等,0,2026-01-06,2025-12-26,株式会社フォルクスガーデン,,株式会社,長野県,諏訪市,上川３丁目２２１９番地１１,,20,206,3920021,,,2025-12-26,清算の結了等,,,2015-10-05,1,,,,,フォルクスガーデン,0
2175,9120102018052,登記記録の閉鎖等,0,2026-01-06,2025-12-25,有限会社サムディ,,有限会社,大阪府,羽曳野市,高鷲９丁目１番１－７０１号,,27,222,5830882,,,2025-12-25,清算の結了等,,,2015-10-05,1,,,,,サムディ,0
2182,9130001021536,登記記録の閉鎖等,0,2026-01-06,2025-12-24,多田産業株式会社,,株式会社,京都府,京都市中京区,西ノ京小堀町２番地,,26,104,6048383,,,2025-12-24,清算の結了等,,,2015-10-05,1,,,,,タダサンギョウ,0
2184,9130001055963,登記記録の閉鎖等,0,2026-01-06,2025-12-26,株式会社ＧＬＯＢＡＬ　ＶＩＳＩＯＮ,,株式会社,京都府,京都市中京区,烏丸通二条上る蒔絵屋町２６５番地２ＳＣＧビル,,26,104,6040857,,,2025-12-26,合併による解散等,1130001003203,令和７年１２月２６日京都市中京区烏丸通二条上ル蒔絵屋町２６５番地２ＳＣＧビル株式会社成基（1130001003203）に合併し解散,2015-10-05,1,,,,,グローバルビジョン,0
2188,9140001058890,登記記録の閉鎖等,0,2026-01-06,2025-12-22,株式会社サンヨー,,株式会社,兵庫県,姫路市,飾東町庄１０７番地１,,28,201,6710218,,,2025-12-22,合併による解散等,4140001061049,令和７年１２月２１日兵庫県姫路市北条宮の町３８５番地株式会社姫路ロジスティクス（4140001061049）に合併し解散,2015-10-05,1,,,,,サンヨー,0
2194,9140002010289,登記記録の閉鎖等,0,2026-01-06,2025-12-25,有限会社ハイポ,,有限会社,兵庫県,神戸市北区,鹿の子台北町３丁目１番１－１０４号,,28,109,6511513,,,2025-12-25,清算の結了等,,,2015-10-05,1,,,,,ハイポ,0
2199,9150001000562,登記記録の閉鎖等,0,2026-01-06,2026-01-05,株式会社河合ビルデイング,,株式会社,奈良県,奈良市,西登美ヶ丘４丁目１１番２３号,,29,201,6310006,,,2026-01-05,登記官による閉鎖,,,2015-10-05,1,,,,,,0
2200,9150001000587,登記記録の閉鎖等,0,2026-01-06,2026-01-05,株式会社キシモト,,株式会社,奈良県,奈良市,法華寺町４６８番地の３,,29,201,6308001,,,2026-01-05,登記官による閉鎖,,,2015-10-05,1,,,,,,0
2201,9150001001263,登記記録の閉鎖等,0,2026-01-06,2026-01-05,株式会社たむら,,株式会社,奈良県,奈良市,西大寺国見町１丁目１番１３０号,,29,201,6310823,,,2026-01-05,登記官による閉鎖,,,2015-10-05,1,,,,,,0
2202,9150001001602,登記記録の閉鎖等,0,2026-01-06,2026-01-05,平城山開発株式会社,,株式会社,奈良県,奈良市,佐保台西町８５番地,,29,201,6308106,,,2026-01-05,登記官による閉鎖,,,2015-10-05,1,,,,,,0
2203,9150001002583,登記記録の閉鎖等,0,2026-01-06,2026-01-05,株式会社吉忠建設,,株式会社,奈良県,奈良市,横井５丁目４６０番地,,29,201,6308422,,,2026-01-05,登記官による閉鎖,,,2015-10-05,1,,,,,,0
2204,9150001004646,登記記録の閉鎖等,0,2026-01-06,2026-01-05,アシビ株式会社,,株式会社,奈良県,生駒市,鹿ノ台南１丁目５番地の７,,29,209,6300113,,,2026-01-05,登記官による閉鎖,,,2015-10-05,1,,,,,,0
2205,9150001004951,登記記録の閉鎖等,0,2026-01-06,2026-01-05,高松テキスタイル株式会社,,株式会社,奈良県,生駒市,鹿ノ台西３丁目２２番地の２３,,29,209,6300114,,,2026-01-05,登記官による閉鎖,,,2015-10-05,1,,,,,,0
2206,9150001005867,登記記録の閉鎖等,0,2026-01-06,2026-01-05,株式会社人財,,株式会社,奈良県,大和郡山市,井戸野町１０５番地の１,,29,203,6391104,,,2026-01-05,登記官による閉鎖,,,2015-10-05,1,,,,,,0
2207,9150001006097,登記記録の閉鎖等,0,2026-01-06,2026-01-05,株式会社法魚,,株式会社,奈良県,大和郡山市,馬司町６４２番地の２,,29,203,6391124,,,2026-01-05,登記官による閉鎖,,,2015-10-05,1,,,,,,0
2208,9150001006865,登記記録の閉鎖等,0,2026-01-06,2026-01-05,株式会社あすか,,株式会社,奈良県,生駒郡斑鳩町,興留４丁目１０番１４号,,29,344,6360123,,,2026-01-05,登記官による閉鎖,,,2015-10-05,1,,,,,,0
2209,9150001006915,登記記録の閉鎖等,0,2026-01-06,2026-01-05,株式会社瓜生工務店,,株式会社,奈良県,生駒郡三郷町,勢野東２丁目５番１５号,,29,343,6360811,,,2026-01-05,登記官による閉鎖,,,2015-10-05,1,,,,,,0
2210,9150001006964,登記記録の閉鎖等,0,2026-01-06,2026-01-05,株式会社家恋人,,株式会社,奈良県,生駒郡斑鳩町,法隆寺２丁目３番４号,00048853,29,344,6360116,,,2026-01-05,登記官による閉鎖,,,2015-10-05,1,,,,,,0
2211,9150001009645,登記記録の閉鎖等,0,2026-01-06,2026-01-05,株式会社ヒロコンセプト,,株式会社,奈良県,桜井市,大字谷５２６番地,,29,206,6330053,,,2026-01-05,登記官による閉鎖,,,2015-10-05,1,,,,,,0
2212,9150001009819,登記記録の閉鎖等,0,2026-01-06,2026-01-05,株式会社向本,,株式会社,奈良県,宇陀市,菟田野古市場１４４８番地,,29,212,6332226,,,2026-01-05,登記官による閉鎖,,,2015-10-05,1,,,,,,0
2213,9150001010264,登記記録の閉鎖等,0,2026-01-06,2026-01-05,株式会社明日香化工,,株式会社,奈良県,高市郡明日香村,大字奥山１８番地の１,,29,402,6340102,,,2026-01-05,登記官による閉鎖,,,2015-10-05,1,,,,,アスカカコウ,0
2214,9150001010801,登記記録の閉鎖等,0,2026-01-06,2026-01-05,奈光電気工事株式会社,,株式会社,奈良県,橿原市,五井町２１９番地,,29,205,6340832,,,2026-01-05,登記官による閉鎖,,,2015-10-05,1,,,,,,0
2215,9150001011502,登記記録の閉鎖等,0,2026-01-06,2026-01-05,ＴＩＮＹコミュニケーションズ株式会社,,株式会社,奈良県,橿原市,中曽司町３１９番地の９,,29,205,6340845,,,2026-01-05,登記官による閉鎖,,,2015-10-05,1,,,,,,0
2216,9150001012500,登記記録の閉鎖等,0,2026-01-06,2026-01-05,大阪通信工事株式会社,,株式会社,奈良県,葛城市,太田５５７番地,,29,211,6392153,,,2026-01-05,登記官による閉鎖,,,2015-10-05,1,,,,,,0
2217,9150002007747,登記記録の閉鎖等,0,2026-01-06,2026-01-05,有限会社マリオ自動車,,有限会社,奈良県,橿原市,古川町２８５番地,,29,205,6340828,,,2026-01-05,登記官による閉鎖,,,2015-10-05,1,,,,,,0
2218,9150005000889,登記記録の閉鎖等,0,2026-01-06,2026-01-05,尼ケ辻ショッピングセンター協同組合,00043762,その他の設立登記法人,奈良県,奈良市,三条大路５丁目６番１７号,,29,201,6308013,,,2026-01-05,登記官による閉鎖,,,2015-10-05,1,,,,,,0
2219,9150005003553,登記記録の閉鎖等,0,2026-01-06,2026-01-05,特定非営利活動法人子どもの安全を守る政策研究会,,その他の設立登記法人,奈良県,奈良市,法蓮町１４９番地の６清川ビル２０２号,,29,201,6308113,,,2026-01-05,登記官による閉鎖,,,2015-10-05,1,,,,,,0
2220,9150005003768,登記記録の閉鎖等,0,2026-01-06,2026-01-05,一般社団法人おやまと,,その他の設立登記法人,奈良県,天理市,成願寺町４３９番地,,29,204,6320058,,,2026-01-05,登記官による閉鎖,,,2015-10-05,1,,,,,,0
2221,9150005003784,登記記録の閉鎖等,0,2026-01-06,2026-01-05,一般社団法人日露プロジェクト日本奈良推進機構,,その他の設立登記法人,奈良県,奈良市,あやめ池南７丁目８６１－３,,29,201,6310033,,,2026-01-05,登記官による閉鎖,,,2015-10-05,1,,,,,,0
2222,9150005005426,登記記録の閉鎖等,0,2026-01-06,2026-01-05,中和相互土木建築協同組合,,その他の設立登記法人,奈良県,橿原市,中曽司町４７３番地の５２,,29,205,6340845,,,2026-01-05,登記官による閉鎖,,,2015-10-05,1,,,,,,0
2223,9150005005517,登記記録の閉鎖等,0,2026-01-06,2026-01-05,畝傍開拓農業協同組合,,その他の設立登記法人,奈良県,橿原市,大字久米８２２番地,,29,205,6340000,,,2026-01-05,登記官による閉鎖,,,2015-10-05,1,,,,,,0
2224,9150005005871,登記記録の閉鎖等,0,2026-01-06,2026-01-05,協同組合ジャンボフードたから,,その他の設立登記法人,奈良県,大和高田市,本郷町２番２０号,,29,202,6350082,,,2026-01-05,登記官による閉鎖,,,2015-10-05,1,,,,,,0
2225,9150005006580,登記記録の閉鎖等,0,2026-01-06,2026-01-05,高天畜産農業協同組合,,その他の設立登記法人,奈良県,御所市,大字高天１７１番地,,29,208,6392336,,,2026-01-05,登記官による閉鎖,,,2015-10-05,1,,,,,,0
2226,9150005006705,登記記録の閉鎖等,0,2026-01-06,2026-01-05,一般社団法人ジャパンケーナインユニオン,,その他の設立登記法人,奈良県,北葛城郡広陵町,大字中７８番地,,29,426,6350816,,,2026-01-05,登記官による閉鎖,,,2015-10-05,1,,,,,,0
2227,9150005009377,登記記録の閉鎖等,0,2026-01-06,2025-12-18,一般社団法人優,,その他の設立登記法人,奈良県,奈良市,三碓３丁目２番１８号,,29,201,6310061,,,2025-12-18,清算の結了等,,,2022-03-03,1,,,,,ユウ,0
2248,9230002013860,登記記録の閉鎖等,0,2026-01-06,2026-01-05,有限会社由魚問屋,,有限会社,富山県,射水市,本町３丁目８番１７号,,16,211,9340011,,,2026-01-05,清算の結了等,,,2015-10-05,1,,,,,ヨシウオドンヤ,0
2252,9250005008567,登記記録の閉鎖等,0,2026-01-06,2025-12-22,農事組合法人たたファーム,,その他の設立登記法人,山口県,周南市,大字垰１４３２番地,,35,215,7460103,,,2025-12-22,清算の結了等,,,2020-04-21,1,,,,,タタファーム,0
2259,9280001000021,登記記録の閉鎖等,0,2026-01-06,2026-01-05,アイエン株式会社,,株式会社,島根県,松江市,雑賀町８７６番地１,,32,201,6900056,,,2026-01-05,登記官による閉鎖,,,2015-10-05,1,,,,,,0
2260,9280001000186,登記記録の閉鎖等,0,2026-01-06,2026-01-05,株式会社グリッド,,株式会社,島根県,松江市,浜乃木７丁目５番１５号,,32,201,6900044,,,2026-01-05,登記官による閉鎖,,,2015-10-05,1,,,,,,0
2261,9280001000442,登記記録の閉鎖等,0,2026-01-06,2026-01-05,株式会社大翔建設,,株式会社,島根県,松江市,殿町２５４番地,,32,201,6900887,,,2026-01-05,登記官による閉鎖,,,2015-10-05,1,,,,,,0
2262,9280001001011,登記記録の閉鎖等,0,2026-01-06,2026-01-05,株式会社シー・エス・ハウジング,,株式会社,島根県,松江市,上乃木７丁目１４番１２号,,32,201,6900015,,,2026-01-05,登記官による閉鎖,,,2015-10-05,1,,,,,,0
2263,9280001002439,登記記録の閉鎖等,0,2026-01-06,2026-01-05,株式会社トヨテックインターナショナル,,株式会社,島根県,安来市,黒井田町７３６番地５,,32,206,6920023,,,2026-01-05,登記官による閉鎖,,,2015-10-05,1,,,,,,0
2264,9280001003305,登記記録の閉鎖等,0,2026-01-06,2026-01-05,株式会社日本電研,,株式会社,島根県,出雲市,斐川町神氷２５３５番地１,,32,203,6990613,,,2026-01-05,登記官による閉鎖,,,2015-10-05,1,,,,,,0
2265,9280001003387,登記記録の閉鎖等,0,2026-01-06,2026-01-05,株式会社ふるさと新聞編集会議,,株式会社,島根県,出雲市,里方町５４４番地１,,32,203,6930064,,,2026-01-05,登記官による閉鎖,,,2015-10-05,1,,,,,,0
2266,9280001003536,登記記録の閉鎖等,0,2026-01-06,2026-01-05,株式会社ピクセル,,株式会社,島根県,出雲市,平野町２０番地１,,32,203,6930065,,,2026-01-05,登記官による閉鎖,,,2015-10-05,1,,,,,,0
2267,9280001003635,登記記録の閉鎖等,0,2026-01-06,2026-01-05,株式会社川瀬商事,,株式会社,島根県,出雲市,平田町１４３番地１０,,32,203,6910001,,,2026-01-05,登記官による閉鎖,,,2015-10-05,1,,,,,,0
2268,9280001003643,登記記録の閉鎖等,0,2026-01-06,2026-01-05,ジーシーイー株式会社,,株式会社,島根県,出雲市,平田町２６１番地４,,32,203,6910001,,,2026-01-05,登記官による閉鎖,,,2015-10-05,1,,,,,,0
2269,9280001004278,登記記録の閉鎖等,0,2026-01-06,2026-01-05,株式会社小越商店,,株式会社,島根県,浜田市,京町９４番地１,,32,202,6970045,,,2026-01-05,登記官による閉鎖,,,2015-10-05,1,,,,,,0
2270,9280001004435,登記記録の閉鎖等,0,2026-01-06,2026-01-05,宮本環境サービス株式会社,,株式会社,島根県,浜田市,原井町３０５０番地１,,32,202,6970017,,,2026-01-05,登記官による閉鎖,,,2015-10-05,1,,,,,,0
2271,9280001005243,登記記録の閉鎖等,0,2026-01-06,2026-01-05,株式会社ケイエスコーポレーション,,株式会社,島根県,益田市,幸町１１番３８号,,32,204,6980021,,,2026-01-05,登記官による閉鎖,,,2015-10-05,1,,,,,,0
2272,9280001005409,登記記録の閉鎖等,0,2026-01-06,2026-01-05,株式会社隠岐食品,,株式会社,島根県,隠岐郡隠岐の島町,港町塩口３８番地１,,32,528,6850015,,,2026-01-05,登記官による閉鎖,,,2015-10-05,1,,,,,,0
2273,9280001005623,登記記録の閉鎖等,0,2026-01-06,2026-01-05,株式会社アビテ,,株式会社,島根県,仁多郡奥出雲町,亀嵩２３７５番地の２,,32,343,6991701,,,2026-01-05,登記官による閉鎖,,,2015-10-05,1,,,,,,0
2274,9280002001365,登記記録の閉鎖等,0,2026-01-06,2026-01-05,有限会社高橋呉服店,,有限会社,島根県,松江市,中原町１５４番地,,32,201,6900874,,,2026-01-05,登記官による閉鎖,,,2015-10-05,1,,,,,,0
2275,9280002004384,登記記録の閉鎖等,0,2026-01-06,2026-01-05,有限会社赤木総合保険,,有限会社,島根県,松江市,砂子町２００番地１２,,32,201,6900878,,,2026-01-05,登記官による閉鎖,,,2015-10-05,1,,,,,,0
2276,9280002009466,登記記録の閉鎖等,0,2026-01-06,2026-01-05,ＪＯＳシステム有限会社,,有限会社,島根県,浜田市,弥栄町大坪１６２番地,,32,202,6971214,,,2026-01-05,登記官による閉鎖,,,2015-10-05,1,,,,,,0
2288,9320005002554,登記記録の閉鎖等,0,2026-01-06,2025-12-23,特定非営利活動法人川添なのはなクラブ,,その他の設立登記法人,大分県,大分市,大字宮河内４５４７番地の１,,44,201,8700276,,,2025-12-23,清算の結了等,,,2015-10-05,1,,,,,カワゾエナノハナクラブ,0
2291,9340002000204,登記記録の閉鎖等,0,2026-01-06,2025-12-26,有限会社野田地研,,有限会社,鹿児島県,日置市,日吉町吉利１２０４番地１,,46,216,8993203,,,2025-12-26,清算の結了等,,,2015-10-05,1,,,,,ノダチケン,0
2292,9340002026018,登記記録の閉鎖等,0,2026-01-06,2025-12-24,南国プロパン瓦斯有限会社,,有限会社,鹿児島県,鹿屋市,寿２丁目９番２４号,,46,203,8930014,,,2025-12-24,清算の結了等,,,2015-10-05,1,,,,,ナンゴクプロパンガス,0
2301,9380001026089,登記記録の閉鎖等,0,2026-01-06,2025-12-24,ヤマキエンジニアリング株式会社,,株式会社,福島県,福島市,本内字西町２８番地の４０,,07,201,9600103,,,2025-12-24,清算の結了等,,,2015-10-29,1,,,,,ヤマキエンジニアリング,0
2307,9380005002672,登記記録の閉鎖等,0,2026-01-06,2025-12-24,株式会社地域活性化フォーラム,,株式会社,福島県,福島市,東浜町２４番１３号,,07,201,9608132,,,2025-12-24,清算の結了等,,,2015-10-05,1,,,,,チイキカッセイカフォーラム,0
2308,9390002015899,登記記録の閉鎖等,0,2026-01-06,2025-12-26,有限会社河北建商,,有限会社,山形県,西村山郡河北町,谷地字嶋２６８番地の１,,06,321,9993511,,,2025-12-26,清算の結了等,,,2015-10-05,1,,,,,カホクケンショウ,0
2311,9420001013396,登記記録の閉鎖等,0,2026-01-06,2025-12-24,ケアライト株式会社,,株式会社,青森県,八戸市,諏訪２丁目１４番１０号,,02,203,0310803,,,2025-12-24,清算の結了等,,,2015-10-05,1,,,,,ケアライト,0
2321,9450002001694,登記記録の閉鎖等,0,2026-01-06,2025-12-26,有限会社木地のかみむら,,有限会社,北海道,旭川市,永山北一条１０丁目３番５０号,,01,204,0798451,,,2025-12-26,清算の結了等,,,2015-10-05,1,,,,,キヂノカミムラ,0
2327,9500001001384,登記記録の閉鎖等,0,2026-01-06,2026-01-05,共栄防災株式会社,,株式会社,愛媛県,松山市,鷹子町６８１番地５,,38,201,7900925,,,2026-01-05,清算の結了等,,,2015-10-05,1,,,,,キョウエイボウサイ,0
