sequenceNumber,corporateNumber,process,correct,updateDate,changeDate,name,nameImageId,kind,prefectureName,cityName,streetNumber,addressImageId,prefectureCode,cityCode,postCode,addressOutside,addressOutsideImageId,closeDate,closeCause,successorCorporateNumber,changeCause,assignmentDate,latest,enName,enPrefectureName,enCityName,enAddressOutside,furigana,hihyoji
30,1010602022547,登記記録の閉鎖等,0,2023-03-31,2023-03-27,有限会社カスミ商会,,有限会社,東京都,江東区,千石２丁目９番４号シティーハイツ深川１００１,,13,108,1350015,,,2023-03-27,清算の結了等,,,2015-10-05,1,,,,,カスミショウカイ,0
62,1012401036240,登記記録の閉鎖等,0,2023-03-31,2023-03-29,株式会社ＬｉｆｅＵｎｉｃｕｍ,,株式会社,東京都,武蔵野市,吉祥寺北町４丁目１３番５号,,13,203,1800001,,,2023-03-29,清算の結了等,,,2020-02-10,1,,,,,ライフユニカム,0
74,1030001077876,登記記録の閉鎖等,0,2023-03-31,2023-03-29,株式会社龍宮,,株式会社,埼玉県,川口市,東川口２丁目１番１号,,11,203,3330801,,,2023-03-29,清算の結了等,,,2015-10-05,1,,,,,リュウグウ,0
75,1030001087082,登記記録の閉鎖等,0,2023-03-31,2023-03-29,株式会社堀切,,株式会社,埼玉県,行田市,城西２丁目１番３９号,,11,206,3610057,,,2023-03-29,清算の結了等,,,2015-10-05,1,,,,,ホリキリ,0
78,1030002033449,登記記録の閉鎖等,0,2023-03-31,2023-03-29,有限会社カスヤ,,有限会社,埼玉県,狭山市,大字青柳４７８番地の１,,11,215,3501301,,,2023-03-29,清算の結了等,,,2015-10-05,1,,,,,カスヤ,0
82,1030003001603,登記記録の閉鎖等,0,2023-03-31,2023-03-29,合資会社横山製＿所,00018197,合資会社,埼玉県,幸手市,中３丁目１９番２６号,,11,240,3400115,,,2023-03-29,清算の結了等,,,2015-10-05,1,,,,,ヨコヤマセイアンジョ,0
93,1040001105099,登記記録の閉鎖等,0,2023-03-31,2023-03-28,株式会社一条千葉分譲住宅,,株式会社,千葉県,市原市,青葉台３丁目１番地２,,12,219,2990117,,,2023-03-28,清算の結了等,,,2018-06-19,1,,,,,イチジョウチバブンジョウジュウタク,0
102,1060002001329,登記記録の閉鎖等,0,2023-03-31,2023-03-29,有限会社インテリアオグラ,,有限会社,栃木県,宇都宮市,鶴田町２６２３番地４,,09,201,3200851,,,2023-03-29,清算の結了等,,,2015-10-05,1,,,,,インテリアオグラ,0
112,1110001011380,登記記録の閉鎖等,0,2023-03-31,2023-03-29,株式会社マエタ,,株式会社,新潟県,阿賀野市,中央町１丁目７番１５号,,15,223,9592021,,,2023-03-29,清算の結了等,,,2015-10-05,1,,,,,マエタ,0
114,1110002030900,登記記録の閉鎖等,0,2023-03-31,2023-03-30,有限会社惠比仁,,有限会社,新潟県,長岡市,谷内２丁目１番３０号,,15,202,9400227,,,2023-03-30,清算の結了等,,,2015-10-05,1,,,,,,0
120,1120001225368,登記記録の閉鎖等,0,2023-03-31,2023-03-30,株式会社誠心土地建物,,株式会社,大阪府,大阪市中央区,南船場１丁目１３番１５号長堀三栄プラザ４１０,,27,128,5420081,,,2023-03-30,清算の結了等,,,2019-11-26,1,,,,,セイシントチタテモノ,0
124,1120002067108,登記記録の閉鎖等,0,2023-03-31,2023-03-29,株式会社ＮＯＡＨ　ＺＯＮＥ,,株式会社,大阪府,大阪市都島区,中野町５丁目９番１６号,,27,102,5340027,,,2023-03-29,清算の結了等,,,2015-10-05,1,,,,,,0
134,1140001004126,登記記録の閉鎖等,0,2023-03-31,2023-03-24,株式会社三宅製針商会,,株式会社,兵庫県,神戸市兵庫区,築地町３２番地,,28,105,6520845,,,2023-03-24,清算の結了等,,,2015-10-05,1,,,,,ミヤケセイシンショウカイ,0
138,1140001034750,登記記録の閉鎖等,0,2023-03-31,2023-03-27,株式会社技研開発,,株式会社,兵庫県,明石市,大久保町福田２丁目１番１８号,,28,203,6740066,,,2023-03-27,合併による解散等,2140001114122,令和５年３月２５日兵庫県明石市大久保町駅前一丁目５番地の８晏如ビル５０３兵庫新生株式会社（2140001114122）に合併し解散,2015-10-05,1,,,,,ギケンカイハツ,0
157,1180002002273,登記記録の閉鎖等,0,2023-03-31,2023-03-27,有限会社サンスターストロボ,,有限会社,愛知県,名古屋市名東区,上社２丁目１３９番地,,23,115,4650025,,,2023-03-27,清算の結了等,,,2015-10-05,1,,,,,サンスターストロボ,0
169,1240001058582,登記記録の閉鎖等,0,2023-03-31,2023-03-29,ＩＴｂｏｏｋひろしま株式会社,,株式会社,広島県,山県郡安芸太田町,大字津浪７８５番地２,,34,368,7313502,,,2023-03-29,清算の結了等,,,2021-09-16,1,,,,,アイティーブックヒロシマ,0
181,1300001000372,登記記録の閉鎖等,0,2023-03-31,2023-03-28,株式会社新栄基礎工業,,株式会社,佐賀県,佐賀市,兵庫町大字若宮８番地２,,41,201,8490911,,,2023-03-28,清算の結了等,,,2015-10-05,1,,,,,シンエイキソコウギョウ,0
185,1320002010872,登記記録の閉鎖等,0,2023-03-31,2023-03-29,有限会社池邊経営労務管理センター,,有限会社,大分県,別府市,大字鶴見４５４６番地の４２０,,44,202,8740840,,,2023-03-29,清算の結了等,,,2015-10-05,1,,,,,,0
199,1370005000305,登記記録の閉鎖等,0,2023-03-31,2023-03-28,一般財団法人宮城県下水道公社,,その他の設立登記法人,宮城県,仙台市青葉区,堤通雨宮町４番１７号,,04,101,9810914,,,2023-03-28,清算の結了等,,,2015-10-05,1,,,,,ミヤギケンゲスイドウコウシャ,0
204,1390005008057,登記記録の閉鎖等,0,2023-03-31,2023-03-27,一般社団法人卯埜ＬＡＮＤ,,その他の設立登記法人,山形県,鶴岡市,羽黒町手向字手向３１５番地１,,06,203,9970211,,,2023-03-27,清算の結了等,,,2015-10-05,1,,,,,ウノランド,0
211,1440001001902,登記記録の閉鎖等,0,2023-03-31,2023-03-29,株式会社フアースト工房,,株式会社,北海道,函館市,日吉町１丁目６番３－６０４号,,01,202,0410841,,,2023-03-29,清算の結了等,,,2015-10-05,1,,,,,フアーストコウボウ,0
238,2010701033238,登記記録の閉鎖等,0,2023-03-31,2023-03-29,株式会社オイズ,,株式会社,神奈川県,横浜市港北区,新横浜２丁目３番地４－９０６号,,14,109,2220033,,,2023-03-29,清算の結了等,,,2016-11-07,1,,,,,オイズ,0
242,2011001050543,登記記録の閉鎖等,0,2023-03-31,2023-03-29,株式会社スペースセレクトジャパン,,株式会社,東京都,足立区,綾瀬５丁目１３番９号,,13,121,1200005,,,2023-03-29,清算の結了等,,,2015-10-05,1,,,,,スペースセレクトジャパン,0
251,2011102009513,登記記録の閉鎖等,0,2023-03-31,2023-03-28,有限会社夏目坂ビル,,有限会社,東京都,新宿区,喜久井町５５番地,,13,104,1620044,,,2023-03-28,清算の結了等,,,2015-10-05,1,,,,,ナツメザカビル,0
254,2011103010924,登記記録の閉鎖等,0,2023-03-31,2023-03-29,合同会社Ｑｓｔｏｎｅ,,合同会社,東京都,新宿区,下落合１丁目１４番７号,,13,104,1610033,,,2023-03-29,清算の結了等,,,2021-08-11,1,,,,,キューストーン,0
262,2011701022874,登記記録の閉鎖等,0,2023-03-31,2023-03-28,ジェイキャンプ株式会社,,株式会社,東京都,江戸川区,南小岩７丁目２９番１４号エクセレントシティ小岩２０４,,13,123,1330056,,,2023-03-28,清算の結了等,,,2019-08-09,1,,,,,ジェイキャンプ,0
268,2012401025580,登記記録の閉鎖等,0,2023-03-31,2023-03-30,Ｆａｍｓ株式会社,,株式会社,東京都,調布市,菊野台１丁目１１－１－４０５,,13,208,1820007,,,2023-03-30,清算の結了等,,,2015-10-05,1,,,,,ファムズ,0
275,2020001072605,登記記録の閉鎖等,0,2023-03-31,2023-03-28,共栄輸送株式会社,,株式会社,神奈川県,川崎市川崎区,渡田山王町２５番４号,,14,131,2100845,,,2023-03-28,清算の結了等,,,2015-10-05,1,,,,,キョウエイユソウ,0
279,2020001137829,登記記録の閉鎖等,0,2023-03-31,2023-03-28,建設・改修株式会社,,株式会社,神奈川県,横浜市保土ケ谷区,瀬戸ケ谷町１３２番地１,,14,106,2400024,,,2023-03-28,清算の結了等,,,2020-09-28,1,,,,,ケンセツカイシュウ,0
285,2020005012549,登記記録の閉鎖等,0,2023-03-31,2023-03-22,一般社団法人ぴぐまりおん,,その他の設立登記法人,神奈川県,横浜市戸塚区,戸塚町１４３番地４富士開発第２ビル４階,,14,110,2440003,,,2023-03-22,清算の結了等,,,2016-04-13,1,,,,,ピグマリオン,0
291,2021002044295,登記記録の閉鎖等,0,2023-03-31,2023-03-29,有限会社ミノリ,,有限会社,神奈川県,座間市,立野台２丁目１８番３５号,,14,216,2520023,,,2023-03-29,清算の結了等,,,2015-10-05,1,,,,,ミノリ,0
304,2040002008589,登記記録の閉鎖等,0,2023-03-31,2023-03-22,有限会社ナカザワ,,有限会社,千葉県,千葉市中央区,東千葉２丁目６番１－８０２号,,12,101,2600041,,,2023-03-22,清算の結了等,,,2015-10-05,1,,,,,ナカザワ,0
325,2080403004299,登記記録の閉鎖等,0,2023-03-31,2023-03-28,合同会社折り鶴,,合同会社,静岡県,浜松市西区,大平台４丁目３７番１号,,22,133,4328068,,,2023-03-28,清算の結了等,,,2021-06-18,1,,,,,オリヅル,0
337,2120005007737,登記記録の閉鎖等,0,2023-03-31,2023-03-29,特定非営利活動法人アカウンティング・サポート,,その他の設立登記法人,大阪府,大阪市北区,堂島１丁目５番２号,,27,127,5300003,,,2023-03-29,清算の結了等,,,2015-10-05,1,,,,,アカウンティングサポート,0
349,2140001040038,登記記録の閉鎖等,0,2023-03-31,2023-03-28,オートリバー株式会社,,株式会社,兵庫県,赤穂市,元町６番の６,,28,212,6780203,,,2023-03-28,清算の結了等,,,2015-10-05,1,,,,,オートリバー,0
350,2140001044253,登記記録の閉鎖等,0,2023-03-31,2023-03-29,松景精麦株式会社,,株式会社,兵庫県,高砂市,高砂町藍屋町１６９２番地,,28,216,6760037,,,2023-03-29,清算の結了等,,,2022-11-29,1,,,,,マツカゲセイバク,0
368,2180001128630,登記記録の閉鎖等,0,2023-03-31,2023-03-23,生物環境調査株式会社,,株式会社,愛知県,名古屋市緑区,尾崎山２丁目２１１１番地,,23,114,4580024,,,2023-03-23,清算の結了等,,,2017-07-19,1,,,,,セイブツカンキョウチョウサ,0
385,2190005000958,登記記録の閉鎖等,0,2023-03-31,2023-03-20,エホバの証人・亀山市亀山会衆,,その他の設立登記法人,三重県,津市,芸濃町林字切畑２３９４番地１,,24,201,5142202,,,2023-03-20,合併による解散等,3190005004116,令和５年３月２０日三重県鈴鹿市石薬師町字東裏３４７番の１エホバの証人鈴鹿石薬師会衆（3190005004116）に合併し解散,2015-10-05,1,,,,,,0
390,2230001015311,登記記録の閉鎖等,0,2023-03-31,2023-03-30,エース機電株式会社,,株式会社,富山県,滑川市,大窪３番地,,16,206,9360805,,,2023-03-30,清算の結了等,,,2015-10-05,1,,,,,,0
426,2430001077538,登記記録の閉鎖等,0,2023-03-31,2023-03-30,ウルトラブレイン株式会社,,株式会社,北海道,札幌市中央区,北八条西１３丁目１番地１アーバンコート２１２,,01,101,0600008,,,2023-03-30,清算の結了等,,,2018-10-10,1,,,,,ウルトラブレイン,0
429,2460101006303,登記記録の閉鎖等,0,2023-03-31,2023-03-30,十勝大正ＳＫファーム株式会社,,株式会社,北海道,帯広市,大正町東１線９８,,01,207,0891242,,,2023-03-30,清算の結了等,,,2018-01-24,1,,,,,トカチタイショウエスケーファーム,0
439,3010003036161,登記記録の閉鎖等,0,2023-03-31,2023-03-28,黒崎バイオエナジー合同会社,,合同会社,東京都,千代田区,丸の内２丁目６番１号,,13,101,1000005,,,2023-03-28,清算の結了等,,,2021-11-05,1,,,,,クロサキバイオエナジー,0
442,3010401045243,登記記録の閉鎖等,0,2023-03-31,2023-03-28,ＰａｙＰａｙインベストメンツ株式会社,,株式会社,東京都,千代田区,紀尾井町１番３号,,13,101,1020094,,,2023-03-28,清算の結了等,,,2015-10-05,1,,,,,ペイペイインベストメンツ,0
449,3010501015055,登記記録の閉鎖等,0,2023-03-31,2023-03-29,株式会社リカーズショップ小川,,株式会社,東京都,台東区,西浅草１丁目１番１６号,,13,106,1110035,,,2023-03-29,清算の結了等,,,2015-10-05,1,,,,,リカーズショップオガワ,0
460,3010801030431,登記記録の閉鎖等,0,2023-03-31,2023-03-29,株式会社ＲＩＣＥＴ,,株式会社,東京都,品川区,北品川５丁目７番１４－６０４号,,13,109,1410001,,,2023-03-29,清算の結了等,,,2019-12-11,1,,,,,リセット,0
486,3011801037177,登記記録の閉鎖等,0,2023-03-31,2023-03-30,ＣＬＡＳＳＹ　ＪＡＰＡＮ株式会社,,株式会社,東京都,葛飾区,立石６丁目２３番１７号,,13,122,1240012,,,2023-03-30,清算の結了等,,,2020-01-22,1,,,,,クラッシージャパン,0
487,3011802027177,登記記録の閉鎖等,0,2023-03-31,2023-03-28,アネスコ有限会社,,有限会社,東京都,足立区,足立３丁目１３番１１－４１２号,,13,121,1200015,,,2023-03-28,清算の結了等,,,2015-10-05,1,,,,,アネスコ,0
501,3021002024362,登記記録の閉鎖等,0,2023-03-31,2023-03-29,有限会社松屋呉服店,00013236,有限会社,神奈川県,相模原市緑区,橋本６丁目３７番１６号,,14,151,2520143,,,2023-03-29,清算の結了等,,,2015-10-05,1,,,,,マツヤゴフクテン,0
510,3030002083748,登記記録の閉鎖等,0,2023-03-31,2023-03-27,榎本紙工有限会社,,有限会社,埼玉県,鴻巣市,筑波１丁目６番１７号,,11,217,3690114,,,2023-03-27,清算の結了等,,,2015-10-05,1,,,,,エノモトシコウ,0
518,3040002039071,登記記録の閉鎖等,0,2023-03-31,2023-03-27,有限会社フリーズ,,有限会社,千葉県,市川市,河原１３番１７号,,12,203,2720101,,,2023-03-27,清算の結了等,,,2015-10-05,1,,,,,フリーズ,0
522,3040005005401,登記記録の閉鎖等,0,2023-03-31,2023-03-24,特定非営利活動法人はなまる,,その他の設立登記法人,千葉県,松戸市,日暮５丁目１９７－３０３,,12,207,2702253,,,2023-03-24,清算の結了等,,,2015-10-05,1,,,,,ハナマル,0
531,3070001017083,登記記録の閉鎖等,0,2023-03-31,2023-03-24,株式会社ケーセブン,,株式会社,群馬県,桐生市,広沢町６丁目２２３番地１,,10,203,3760013,,,2023-03-24,清算の結了等,,,2015-10-05,1,,,,,ケーセブン,0
532,3070001017397,登記記録の閉鎖等,0,2023-03-31,2023-03-29,株式会社クリスタルメイク,,株式会社,群馬県,桐生市,堤町１丁目８番２号,,10,203,3760042,,,2023-03-29,清算の結了等,,,2015-10-05,1,,,,,クリスタルメイク,0
558,3130001057684,登記記録の閉鎖等,0,2023-03-31,2023-03-29,株式会社大山工業,,株式会社,京都府,京都市伏見区,醍醐切レ戸町３番地カルム・ベル・メゾン２０１号,,26,109,6011327,,,2023-03-29,清算の結了等,,,2016-06-14,1,,,,,オオヤマコウギョウ,0
589,3200002013654,登記記録の閉鎖等,0,2023-03-31,2023-03-29,有限会社エコ・リサイクル,,有限会社,岐阜県,不破郡垂井町,宮代１７８３番地の２,,21,361,5032124,,,2023-03-29,清算の結了等,,,2015-10-05,1,,,,,エコリサイクル,0
594,3220001024122,登記記録の閉鎖等,0,2023-03-31,2023-03-30,ＢａｍｂｏｏＲｅａｌ株式会社,,株式会社,石川県,金沢市,岸川町チ８番地１,,17,201,9200102,,,2023-03-30,清算の結了等,,,2021-04-20,1,,,,,バンブーリアル,0
595,3220005007362,登記記録の閉鎖等,0,2023-03-31,2023-03-29,公益社団法人石川県脳卒中リハビリテーション協会,,その他の設立登記法人,石川県,金沢市,平和町１丁目３番１号,,17,201,9218105,,,2023-03-29,清算の結了等,,,2015-10-05,1,,,,,イシカワケンノウソッチュウリハビリテーションキョウカイ,0
599,3250002004178,登記記録の閉鎖等,0,2023-03-31,2023-03-24,有限会社衣集館いろいろ,,有限会社,山口県,宇部市,大字東須恵７７３番地の４,,35,202,7590206,,,2023-03-24,清算の結了等,,,2015-10-05,1,,,,,イシュウカンイロイロ,0
614,3340001006653,登記記録の閉鎖等,0,2023-03-31,2023-03-30,向陽工業株式会社,,株式会社,鹿児島県,鹿児島市,坂之上３丁目２１番５３号,,46,201,8910150,,,2023-03-30,清算の結了等,,,2015-10-05,1,,,,,コウヨウコウギョウ,0
647,4010003023885,登記記録の閉鎖等,0,2023-03-31,2023-03-28,フューチャークリエイト合同会社,,合同会社,東京都,中央区,銀座１丁目１５番７号ＭＡＣ銀座ビル３階,,13,102,1040061,,,2023-03-28,清算の結了等,,,2016-07-28,1,,,,,フューチャークリエイト,0
669,4010802013046,登記記録の閉鎖等,0,2023-03-31,2023-03-23,有限会社豊友印刷,,有限会社,東京都,大田区,蒲田１丁目１８番１号,,13,111,1440052,,,2023-03-23,清算の結了等,,,2015-10-05,1,,,,,ホウユウインサツ,0
670,4010901018012,登記記録の閉鎖等,0,2023-03-31,2023-03-30,株式会社リトルウッズ,,株式会社,東京都,足立区,千住曙町５番４号１０２,,13,121,1200023,,,2023-03-30,清算の結了等,,,2015-10-05,1,,,,,,0
690,4011702002312,登記記録の閉鎖等,0,2023-03-31,2023-03-28,有限会社大谷屋,,有限会社,東京都,江戸川区,南小岩６丁目２８番１０号,,13,123,1330056,,,2023-03-28,清算の結了等,,,2015-10-05,1,,,,,オオタニヤ,0
691,4011802016542,登記記録の閉鎖等,0,2023-03-31,2023-03-30,有限会社ドミニオン,,有限会社,東京都,足立区,梅田２丁目１３番７－１号,,13,121,1230851,,,2023-03-30,清算の結了等,,,2015-10-05,1,,,,,ドミニオン,0
700,4020001029215,登記記録の閉鎖等,0,2023-03-31,2023-03-27,ヤマキ商事株式会社,,株式会社,神奈川県,横浜市中区,山元町２丁目９７番地,,14,104,2310851,,,2023-03-27,清算の結了等,,,2015-10-05,1,,,,,ヤマキショウジ,0
705,4020001111006,登記記録の閉鎖等,0,2023-03-31,2023-03-28,株式会社ＡＬＴＲＵＩＳＭ,,株式会社,神奈川県,横浜市青葉区,みすずが丘２４番地４,,14,117,2250016,,,2023-03-28,清算の結了等,,,2015-10-05,1,,,,,アルトゥルイズム,0
724,4030002046035,登記記録の閉鎖等,0,2023-03-31,2023-03-28,有限会社モネット,,有限会社,埼玉県,草加市,稲荷３丁目１３番２６号,,11,221,3400003,,,2023-03-28,清算の結了等,,,2015-10-05,1,,,,,モネット,0
726,4030003004520,登記記録の閉鎖等,0,2023-03-31,2023-03-29,合資会社埼玉物産,,合資会社,埼玉県,熊谷市,熊谷２４６６番地,,11,202,3600016,,,2023-03-29,清算の結了等,,,2015-10-05,1,,,,,サイタマブッサン,0
734,4040002081733,登記記録の閉鎖等,0,2023-03-31,2023-03-27,有限会社メガネのタカシ,,有限会社,千葉県,茂原市,国府関１９３４番地６,,12,210,2970067,,,2023-03-27,清算の結了等,,,2015-10-05,1,,,,,メガネノタカシ,0
737,4050002033213,登記記録の閉鎖等,0,2023-03-31,2023-03-28,有限会社シモムラ,,有限会社,茨城県,龍ケ崎市,久保台４丁目１番地１０（４－３０３）,,08,208,3010001,,,2023-03-28,清算の結了等,,,2015-10-05,1,,,,,シモムラ,0
741,4050005012536,登記記録の閉鎖等,0,2023-03-31,2023-03-29,グローバル開発協同組合,,その他の設立登記法人,茨城県,水戸市,千波町４６１番地８,,08,201,3100851,,,2023-03-29,清算の結了等,,,2019-07-02,1,,,,,グローバルカイハツ,0
761,4120001202364,登記記録の閉鎖等,0,2023-03-31,2023-03-30,株式会社扶桑住宅流通,,株式会社,大阪府,箕面市,箕面１丁目９番２１号,,27,220,5620001,,,2023-03-30,清算の結了等,,,2016-12-13,1,,,,,フソウジュウタクリュウツウ,0
768,4120101045201,登記記録の閉鎖等,0,2023-03-31,2023-03-29,株式会社藤原,,株式会社,大阪府,和泉市,鶴山台４丁目１３番１２号,,27,219,5940013,,,2023-03-29,清算の結了等,,,2015-10-05,1,,,,,フジワラ,0
781,4140001013363,登記記録の閉鎖等,0,2023-03-31,2023-03-28,株式会社精文舎,,株式会社,兵庫県,神戸市北区,唐櫃台１丁目４３番３５号,,28,109,6511332,,,2023-03-28,清算の結了等,,,2015-10-05,1,,,,,セイブンシャ,0
783,4140001026349,登記記録の閉鎖等,0,2023-03-31,2023-03-23,東灘リース株式会社,00105290,株式会社,兵庫県,神戸市東灘区,深江北町３丁目９番１１号,,28,101,6580013,,,2023-03-23,清算の結了等,,,2015-10-05,1,,,,,ヒガシナダリース,0
791,4140005024679,登記記録の閉鎖等,0,2023-03-31,2023-03-29,一般社団法人日本災害調査支援機構,,その他の設立登記法人,兵庫県,尼崎市,東難波町５丁目８番２６号,,28,202,6600892,,,2023-03-29,清算の結了等,,,2019-06-24,1,,,,,ニホンサイガイチョウサシエンキコウ,0
824,4350002017623,登記記録の閉鎖等,0,2023-03-31,2023-03-28,株式会社チェアフル・カウズ,,株式会社,宮崎県,串間市,大字北方１２９５番地,,45,207,8880005,,,2023-03-28,清算の結了等,,,2015-10-05,1,,,,,チェアフルカウズ,0
831,4380002024360,登記記録の閉鎖等,0,2023-03-31,2023-03-28,有限会社鈴弘電業,,有限会社,福島県,いわき市,常磐下湯長谷町１丁目３４番地,,07,204,9728317,,,2023-03-28,清算の結了等,,,2015-10-05,1,,,,,ズズヒロデンギョウ,0
832,4380002030920,登記記録の閉鎖等,0,2023-03-31,2023-03-28,有限会社ライフサポート,,有限会社,福島県,会津若松市,東千石１丁目１番３２号,,07,202,9650818,,,2023-03-28,清算の結了等,,,2015-10-05,1,,,,,ライフサポート,0
864,5010501008684,登記記録の閉鎖等,0,2023-03-31,2023-03-30,株式会社豊島昭三商店,,株式会社,東京都,台東区,小島１丁目９番１２号,,13,106,1110056,,,2023-03-30,清算の結了等,,,2015-10-05,1,,,,,トヨシマショウゾウショウテン,0
870,5010901011825,登記記録の閉鎖等,0,2023-03-31,2023-03-28,株式会社宮崎正弘デザインワークス,,株式会社,東京都,世田谷区,上北沢１丁目１８番１６号,,13,112,1560057,,,2023-03-28,清算の結了等,,,2015-10-05,1,,,,,,0
872,5010901019307,登記記録の閉鎖等,0,2023-03-31,2023-03-29,株式会社豊国コーポレーション,,株式会社,東京都,世田谷区,等々力８丁目２５番１６号,,13,112,1580082,,,2023-03-29,清算の結了等,,,2015-10-05,1,,,,,,0
895,5011402004087,登記記録の閉鎖等,0,2023-03-31,2023-03-29,有限会社三陽精機,,有限会社,東京都,板橋区,舟渡１丁目１７番７号,,13,119,1740041,,,2023-03-29,清算の結了等,,,2015-10-05,1,,,,,サンヨウセイキ,0
905,5011803004479,登記記録の閉鎖等,0,2023-03-31,2023-03-29,ザイモサイト合同会社,,合同会社,東京都,葛飾区,青戸３丁目３０番５号,,13,122,1250062,,,2023-03-29,清算の結了等,,,2021-02-24,1,,,,,ザイモサイト,0
914,5020001048701,登記記録の閉鎖等,0,2023-03-31,2023-03-27,株式会社恵比寿,,株式会社,神奈川県,横浜市金沢区,釜利谷南２丁目１６番３９－６０５号,,14,108,2360045,,,2023-03-27,清算の結了等,,,2015-10-05,1,,,,,,0
923,5020002077369,登記記録の閉鎖等,0,2023-03-31,2023-03-28,有限会社武かつ,,有限会社,神奈川県,横浜市旭区,柏町４１番地の１１,,14,112,2410835,,,2023-03-28,清算の結了等,,,2015-10-05,1,,,,,タケカツ,0
929,5030002011748,登記記録の閉鎖等,0,2023-03-31,2023-03-28,有限会社ファープラン,,有限会社,埼玉県,さいたま市西区,大字宝来１５６４番地の２,,11,101,3310074,,,2023-03-28,清算の結了等,,,2015-10-05,1,,,,,ファープラン,0
930,5030002054490,登記記録の閉鎖等,0,2023-03-31,2023-03-29,有限会社徳田眞空機械,00016781,有限会社,埼玉県,上尾市,大字畔吉１１０８番地,,11,219,3620065,,,2023-03-29,清算の結了等,,,2015-10-05,1,,,,,トクダシンクウキカイ,0
935,5040005015893,登記記録の閉鎖等,0,2023-03-31,2023-03-24,医療法人社団清川整形外科,,その他の設立登記法人,千葉県,館山市,国分９０９番地の１,,12,205,2940018,,,2023-03-24,清算の結了等,,,2015-10-05,1,,,,,キヨカワセイケイゲカ,0
968,5140001026348,登記記録の閉鎖等,0,2023-03-31,2023-03-23,甲南リース株式会社,,株式会社,兵庫県,神戸市東灘区,深江北町３丁目９番１１号,,28,101,6580013,,,2023-03-23,清算の結了等,,,2015-10-05,1,,,,,コウナンリース,0
980,5180001129709,登記記録の閉鎖等,0,2023-03-31,2023-03-29,株式会社ＹＳエンジニアリング,,株式会社,愛知県,名古屋市緑区,大根山２丁目１４６番地,,23,114,4598007,,,2023-03-29,清算の結了等,,,2017-10-17,1,,,,,ワイエスエンジニアリング,0
981,5180001140640,登記記録の閉鎖等,0,2023-03-31,2023-03-29,株式会社ビーエス・ジェイ,,株式会社,愛知県,名古屋市中区,栄２丁目９番３０号,,23,106,4600008,,,2023-03-29,清算の結了等,,,2020-04-06,1,,,,,ビーエスジェイ,0
1016,5290001074126,登記記録の閉鎖等,0,2023-03-31,2023-03-28,株式会社因幡うどん,,株式会社,福岡県,福岡市博多区,上牟田１丁目１６番２０号,,40,132,8120006,,,2023-03-28,合併による解散等,6290001064472,令和５年３月１６日福岡市中央区大名一丁目１３番１４号株式会社力の源カンパニー（6290001064472）に合併し解散,2016-06-06,1,,,,,イナバウドン,0
1023,5290802009577,登記記録の閉鎖等,0,2023-03-31,2023-03-30,有限会社誠心紙工,,有限会社,福岡県,北九州市門司区,新門司３丁目４５番４号,,40,101,8000115,,,2023-03-30,清算の結了等,,,2015-10-05,1,,,,,セイシンシコウ,0
1026,5320001005878,登記記録の閉鎖等,0,2023-03-31,2023-03-29,株式会社大甲水産,,株式会社,大分県,大分市,大字永興８７２番地の１０,,44,201,8700883,,,2023-03-29,清算の結了等,,,2015-10-05,1,,,,,タイコウスイサン,0
1049,5450001012424,登記記録の閉鎖等,0,2023-03-31,2023-03-29,びえい食品株式会社,,株式会社,北海道,上川郡美瑛町,字藤野第１,,01,459,0710238,,,2023-03-29,清算の結了等,,,2018-05-02,1,,,,,ビエイショクヒン,0
1052,5500001012880,登記記録の閉鎖等,0,2023-03-31,2023-03-29,三和建設株式会社,,株式会社,愛媛県,今治市,吉海町本庄６８２番地１,,38,202,7942112,,,2023-03-29,清算の結了等,,,2015-10-05,1,,,,,サンワケンセツ,0
1060,6010001182582,登記記録の閉鎖等,0,2023-03-31,2023-03-28,株式会社Ｎ－Ｖｉｌｌａｇｅ,,株式会社,東京都,千代田区,大手町２丁目２番２号,,13,101,1000004,,,2023-03-28,清算の結了等,,,2017-04-07,1,,,,,エヌビレッジ,0
1066,6010102006450,登記記録の閉鎖等,0,2023-03-31,2023-03-27,有限会社松本石材工業,,有限会社,東京都,八王子市,東浅川町５５６番地の２,,13,201,1930834,,,2023-03-27,清算の結了等,,,2015-10-05,1,,,,,マツモトセキザイ,0
1078,6010503005670,登記記録の閉鎖等,0,2023-03-31,2023-03-29,合同会社池之端会計センター,,合同会社,東京都,台東区,池之端２丁目１番３５－１００１号ルネッサンスタワー上野池之端,,13,106,1100008,,,2023-03-29,清算の結了等,,,2019-08-15,1,,,,,イケノハタカイケイセンター,0
1091,6011102015020,登記記録の閉鎖等,0,2023-03-31,2023-03-29,有限会社情報環境研究所,,有限会社,東京都,新宿区,新宿１丁目３６番２号新宿第七葉山ビル３階,,13,104,1600022,,,2023-03-29,清算の結了等,,,2015-10-05,1,,,,,ジョウホウカンキョウケンキュウジョ,0
1109,6013305000451,登記記録の閉鎖等,0,2023-03-31,2023-03-24,城北建設業協同組合,,その他の設立登記法人,東京都,豊島区,南大塚２丁目２番１４号,,13,116,1700005,,,2023-03-24,清算の結了等,,,2015-10-05,1,,,,,ジョウホクケンセツギョウ,0
1111,6020001068120,登記記録の閉鎖等,0,2023-03-31,2023-03-28,株式会社露木商事,,株式会社,神奈川県,川崎市宮前区,野川台１丁目２２番３号,,14,136,2160043,,,2023-03-28,清算の結了等,,,2015-10-05,1,,,,,ツユキショウジ,0
1112,6020001142024,登記記録の閉鎖等,0,2023-03-31,2023-03-28,ＦＩＶＥ－ＳＴＥＰ株式会社,,株式会社,神奈川県,横浜市南区,永田台２番１２－６３０号,,14,105,2320076,,,2023-03-28,清算の結了等,,,2021-07-02,1,,,,,ファイブステップ,0
1125,6030001050060,登記記録の閉鎖等,0,2023-03-31,2023-03-29,アクアビジネス株式会社,,株式会社,埼玉県,新座市,大和田１丁目２８番３号,,11,230,3520004,,,2023-03-29,清算の結了等,,,2015-10-05,1,,,,,アクアビジネス,0
1158,6110001031556,登記記録の閉鎖等,0,2023-03-31,2023-03-28,株式会社マインツ,,株式会社,東京都,中央区,日本橋小伝馬町１４番４号,,13,102,1030001,,,2023-03-28,清算の結了等,,,2016-06-08,1,,,,,マインツ,0
1178,6122001007270,登記記録の閉鎖等,0,2023-03-31,2023-03-30,株式会社ミズホコーポレーション,,株式会社,大阪府,東大阪市,新庄１丁目１１番９号,,27,227,5780963,,,2023-03-30,清算の結了等,,,2015-10-05,1,,,,,ミズホコーポレーション,0
1199,6180002076511,登記記録の閉鎖等,0,2023-03-31,2023-03-23,有限会社ジーエステート,,有限会社,愛知県,一宮市,平島２丁目９番３０号,,23,203,4910833,,,2023-03-23,清算の結了等,,,2015-10-05,1,,,,,ジーエステート,0
1212,6260001000760,登記記録の閉鎖等,0,2023-03-31,2023-03-30,株式会社エクスプレス,,株式会社,岡山県,岡山市南区,西市６５１番地,,33,104,7000953,,,2023-03-30,清算の結了等,,,2015-10-05,1,,,,,エクスプレス,0
1226,6350002008950,登記記録の閉鎖等,0,2023-03-31,2023-03-29,有限会社エムアールソーイング,,有限会社,宮崎県,児湯郡高鍋町,大字北高鍋３２９８番地,,45,401,8840002,,,2023-03-29,清算の結了等,,,2015-10-05,1,,,,,エムアールソーイング,0
1236,6370401000622,登記記録の閉鎖等,0,2023-03-31,2023-03-29,株式会社オジマスカイサービス,,株式会社,宮城県,登米市,中田町浅水字小島１３番地,,04,212,9870611,,,2023-03-29,清算の結了等,,,2015-10-05,1,,,,,オジマスカイサービス,0
1238,6380002030951,登記記録の閉鎖等,0,2023-03-31,2023-03-24,有限会社アイエフ商会,,有限会社,福島県,会津若松市,宝町４番３号,,07,202,9650806,,,2023-03-24,清算の結了等,,,2015-10-05,1,,,,,アイエフショウカイ,0
1240,6390001012545,登記記録の閉鎖等,0,2023-03-31,2023-03-27,株式会社アフティク,,株式会社,山形県,最上郡最上町,大字法田３６３番地,,06,362,9996213,,,2023-03-27,清算の結了等,,,2015-10-05,1,,,,,,0
1257,6500002022077,登記記録の閉鎖等,0,2023-03-31,2023-03-27,有限会社高石酒店,,有限会社,愛媛県,四国中央市,土居町中村１２８５番地,,38,213,7990701,,,2023-03-27,清算の結了等,,,2015-10-05,1,,,,,タカイシサケテン,0
1263,7010001125160,登記記録の閉鎖等,0,2023-03-31,2023-03-28,日本橋不動産株式会社,,株式会社,東京都,中央区,日本橋３丁目８番３号,,13,102,1030027,,,2023-03-28,清算の結了等,,,2015-10-05,1,,,,,ニホンバシフドウサン,0
1328,7020005002891,登記記録の閉鎖等,0,2023-03-31,2023-03-28,一般財団法人横浜市道路建設事業団,,その他の設立登記法人,神奈川県,横浜市金沢区,幸浦２丁目１番地１,,14,108,2360003,,,2023-03-28,清算の結了等,,,2015-10-05,1,,,,,ヨコハマシドウロケンセツジギョウダン,0
1360,7070002026955,登記記録の閉鎖等,0,2023-03-31,2023-03-27,有限会社明聖商会,,有限会社,群馬県,渋川市,渋川２１９４番地３,,10,208,3770008,,,2023-03-27,清算の結了等,,,2015-10-05,1,,,,,メイセイショウカイ,0
1364,7100002017091,登記記録の閉鎖等,0,2023-03-31,2023-03-28,有限会社北島屋,,有限会社,長野県,飯山市,大字常郷５４３番地,,20,213,3892412,,,2023-03-28,清算の結了等,,,2015-10-05,1,,,,,キタジマヤ,0
1365,7110002000492,登記記録の閉鎖等,0,2023-03-31,2023-03-27,有限会社アサヒ興産,,有限会社,新潟県,新潟市中央区,上近江３丁目２７番２０号,,15,103,9500973,,,2023-03-27,清算の結了等,,,2015-10-05,1,,,,,アサヒコウサン,0
1374,7120002020762,登記記録の閉鎖等,0,2023-03-31,2023-03-30,有限会社村田電業社,,有限会社,大阪府,大阪市浪速区,恵美須西３丁目９番５号,,27,111,5560003,,,2023-03-30,清算の結了等,,,2015-10-05,1,,,,,ムラタデンギョウシャ,0
1391,7140001110653,登記記録の閉鎖等,0,2023-03-31,2023-03-30,北鈴蘭台駅前再開発株式会社,,株式会社,兵庫県,神戸市長田区,二葉町５丁目１番３２号,,28,106,6530042,,,2023-03-30,清算の結了等,,,2018-07-09,1,,,,,キタスズランダイエキマエサイカイハツ,0
1398,7180001136091,登記記録の閉鎖等,0,2023-03-31,2023-03-24,株式会社Ｒｉｃｅ　ｎａｔｕｒａｌ,,株式会社,愛知県,名古屋市中村区,名楽町２丁目３３番地,,23,105,4530024,,,2023-03-24,清算の結了等,,,2019-04-09,1,,,,,ライスナチュラル,0
1414,7200001021324,登記記録の閉鎖等,0,2023-03-31,2023-03-30,株式会社主婦の店土岐店,,株式会社,岐阜県,土岐市,泉町久尻４０番地,,21,212,5095142,,,2023-03-30,清算の結了等,,,2015-10-05,1,,,,,シュフノミセトキテン,0
1422,7240002003474,登記記録の閉鎖等,0,2023-03-31,2023-03-30,有限会社小野造園,,有限会社,広島県,広島市安佐南区,中須１丁目４４番１７号,,34,105,7310121,,,2023-03-30,清算の結了等,,,2015-10-05,1,,,,,オノゾウエン,0
1445,7310002020594,登記記録の閉鎖等,0,2023-03-31,2023-03-29,丸二鋼材有限会社,,有限会社,長崎県,五島市,東浜町１丁目８番１０号,,42,211,8530015,,,2023-03-29,清算の結了等,,,2015-10-05,1,,,,,マルニコウザイ,0
1450,7330003007580,登記記録の閉鎖等,0,2023-03-31,2023-03-29,合同会社東区友の会,,合同会社,熊本県,熊本市中央区,新市街９番４号熊本第１ファームＢ１,,43,101,8600803,,,2023-03-29,清算の結了等,,,2018-07-23,1,,,,,ヒガシクトモノカイ,0
1458,7380002028508,登記記録の閉鎖等,0,2023-03-31,2023-03-29,有限会社サトー電機,,有限会社,福島県,南相馬市,原町区錦町１丁目５９番地,,07,212,9750031,,,2023-03-29,清算の結了等,,,2015-10-05,1,,,,,サトーデンキ,0
1466,7440002009121,登記記録の閉鎖等,0,2023-03-31,2023-03-27,有限会社田原板金工業所,,有限会社,北海道,久遠郡せたな町,大成区都２４２番地の１,,01,371,0430504,,,2023-03-27,清算の結了等,,,2015-10-05,1,,,,,タハラバンキンコウギョウショ,0
1467,7470001001596,登記記録の閉鎖等,0,2023-03-31,2023-03-29,株式会社三溪建設,,株式会社,香川県,高松市,三谷町２３７７番地６,,37,201,7610450,,,2023-03-29,清算の結了等,,,2015-10-05,1,,,,,サンケイケンセツ,0
1483,8010003013998,登記記録の閉鎖等,0,2023-03-31,2023-03-27,リブラ合同会社,,合同会社,東京都,千代田区,内神田２丁目５番６号,,13,101,1010047,,,2023-03-27,清算の結了等,,,2015-10-05,1,,,,,リブラ,0
1509,8010902021135,登記記録の閉鎖等,0,2023-03-31,2023-03-09,株式会社モードスタジオ,,株式会社,東京都,世田谷区,松原６丁目５－２０ＨＡＮＥＧＩＴＥＲＲＡＣＥ１０２,,13,112,1560043,,,2023-03-09,清算の結了等,,,2015-10-05,1,,,,,モードスタジオ,0
1545,8021001056815,登記記録の閉鎖等,0,2023-03-31,2023-03-29,株式会社ミノリ,,株式会社,神奈川県,座間市,立野台２丁目１８番３５号,,14,216,2520023,,,2023-03-29,清算の結了等,,,2015-10-05,1,,,,,ミノリ,0
1550,8030001087885,登記記録の閉鎖等,0,2023-03-31,2023-03-29,株式会社ビーヴイネット,,株式会社,埼玉県,熊谷市,円光２丁目４番３４号,,11,202,3600813,,,2023-03-29,清算の結了等,,,2015-10-05,1,,,,,ビーヴイネット,0
1589,8080402014888,登記記録の閉鎖等,0,2023-03-31,2023-03-29,有限会社菊屋洋品店,,有限会社,静岡県,浜松市浜北区,小松８７６番地,,22,136,4340042,,,2023-03-29,清算の結了等,,,2015-10-05,1,,,,,キクヤヨウヒンテン,0
1598,8120001035694,登記記録の閉鎖等,0,2023-03-31,2023-03-28,中外産業株式会社,,株式会社,兵庫県,宝塚市,宝松苑１番７号,,28,214,6650016,,,2023-03-28,清算の結了等,,,2015-10-05,1,,,,,,0
1618,8140001071325,登記記録の閉鎖等,0,2023-03-31,2023-03-29,株式会社ファーム,,株式会社,兵庫県,西宮市,南越木岩町５番２０－３０２号,,28,204,6620075,,,2023-03-29,清算の結了等,,,2015-10-05,1,,,,,ファーム,0
1621,8150005002127,登記記録の閉鎖等,0,2023-03-31,2023-03-24,特定非営利活動法人都南地域教育振興会,,その他の設立登記法人,奈良県,奈良市,南永井町９８番地の１,,29,201,6308443,,,2023-03-24,清算の結了等,,,2015-10-05,1,,,,,トナンチイキキョウイクシンコウカイ,0
1626,8180001112629,登記記録の閉鎖等,0,2023-03-31,2023-03-27,株式会社そら,,株式会社,愛知県,名古屋市北区,楠２丁目５１９番地,,23,103,4620012,,,2023-03-27,清算の結了等,,,2015-10-05,1,,,,,ソラ,0
1632,8180002055447,登記記録の閉鎖等,0,2023-03-31,2023-03-27,有限会社ソリューション,,有限会社,愛知県,名古屋市守山区,緑ヶ丘１０１０番地,,23,113,4630009,,,2023-03-27,清算の結了等,,,2015-10-05,1,,,,,ソリューション,0
1647,8200005011725,登記記録の閉鎖等,0,2023-03-31,2023-03-29,一般社団法人Ｍ＆Ｆ,,その他の設立登記法人,岐阜県,多治見市,音羽町４丁目４４番地の２,,21,204,5070037,,,2023-03-29,清算の結了等,,,2015-10-05,1,,,,,エムアンドエフ,0
1651,8220001019514,登記記録の閉鎖等,0,2023-03-31,2023-03-29,株式会社Ｐａｐａ’ｓ４０,,株式会社,石川県,能美市,粟生町オ４８番地１,,17,211,9231101,,,2023-03-29,清算の結了等,,,2015-10-05,1,,,,,パパズフォーティ,0
1677,8290002033747,登記記録の閉鎖等,0,2023-03-31,2023-03-30,有限会社渋田酒店,,有限会社,福岡県,古賀市,花見東２丁目３番３号,,40,223,8113112,,,2023-03-30,清算の結了等,,,2015-10-05,1,,,,,シブタサケテン,0
1680,8290005016369,登記記録の閉鎖等,0,2023-03-31,2023-03-31,司法書士法人中央ライズアクロス,,その他の設立登記法人,福岡県,大牟田市,浜町７番地１大幸ビル１Ｆ,,40,202,8360021,,,2023-03-31,清算の結了等,,,2017-04-24,1,,,,,チュウオウライズアクロス,0
1692,8360005005554,登記記録の閉鎖等,0,2023-03-31,2023-03-20,一般社団法人ウィッシュ,,その他の設立登記法人,沖縄県,浦添市,字経塚４５０番地當間アパートＢ－１,,47,208,9012111,,,2023-03-20,清算の結了等,,,2017-04-06,1,,,,,,0
1695,8370002004962,登記記録の閉鎖等,0,2023-03-31,2023-03-28,有限会社現金問屋ワカバ,,有限会社,宮城県,仙台市若林区,中倉３丁目２番１号,,04,103,9840821,,,2023-03-28,清算の結了等,,,2015-10-05,1,,,,,ゲンキンドンヤワカバ,0
1705,8380001031429,登記記録の閉鎖等,0,2023-03-31,2023-03-28,Ｄｉｇｉｔａｌ　Ｇｏｖｅｒｎａｎｃｅ　Ａｃａｄｅｍｙ　Ａｓｉａ－Ｐａｃｉｆｉｃ株式会社,,株式会社,福島県,会津若松市,東栄町１番７７号会津若松市ＩＣＴオフィスビル２Ｆ、２－５,,07,202,9650872,,,2023-03-28,清算の結了等,,,2020-12-16,1,,,,,デジタルガヴァナンスアカデミアジアパシフィック,0
1706,8380002003947,登記記録の閉鎖等,0,2023-03-31,2023-03-29,有限会社リアルエステイト,,有限会社,福島県,福島市,渡利字金山下１３番地の２,,07,201,9608141,,,2023-03-29,清算の結了等,,,2015-10-05,1,,,,,リアルエステイト,0
1730,9010401154294,登記記録の閉鎖等,0,2023-03-31,2023-03-22,株式会社ユニマットミライオフィス,,株式会社,東京都,港区,南青山２丁目１２番１４号,,13,103,1070062,,,2023-03-22,合併による解散等,9010401030487,令和５年３月２０日東京都港区南青山二丁目１２番１４号株式会社ユニマットライフ（9010401030487）に合併し解散,2020-07-31,1,,,,,ユニマットミライオフィス,0
1755,9011102010398,登記記録の閉鎖等,0,2023-03-31,2023-03-28,有限会社パワーハウス,,有限会社,東京都,新宿区,大久保２丁目３番６号,,13,104,1690072,,,2023-03-28,清算の結了等,,,2015-10-05,1,,,,,パワーハウス,0
1761,9011701002861,登記記録の閉鎖等,0,2023-03-31,2023-03-28,株式会社コードテック,,株式会社,東京都,江戸川区,西葛西６丁目１０番５号,,13,123,1340088,,,2023-03-28,清算の結了等,,,2015-10-05,1,,,,,コードテック,0
1764,9011702017710,登記記録の閉鎖等,0,2023-03-31,2023-03-29,有限会社アトリエワークス,,有限会社,東京都,江戸川区,中葛西１丁目３６番１０号愛幸中葛西マンション３０３,,13,123,1340083,,,2023-03-29,清算の結了等,,,2015-10-05,1,,,,,アトリエワークス,0
1787,9030002096042,登記記録の閉鎖等,0,2023-03-31,2023-03-29,有限会社高田企画,,有限会社,埼玉県,東松山市,幸町３番１２号,,11,212,3550025,,,2023-03-29,清算の結了等,,,2015-10-05,1,,,,,タカダキカク,0
1792,9040001114860,登記記録の閉鎖等,0,2023-03-31,2023-03-27,株式会社Ｌａｂｒｏ　ｃｏｍｐａｎｙ,,株式会社,千葉県,船橋市,三咲５丁目３２番１０号４号室,,12,204,2740812,,,2023-03-27,清算の結了等,,,2020-09-01,1,,,,,ラブロカンパニー,0
1861,9170001013463,登記記録の閉鎖等,0,2023-03-31,2023-03-30,株式会社七色畑ファーム,,株式会社,和歌山県,紀の川市,粉河２２番地２０,,30,208,6496531,,,2023-03-30,清算の結了等,,,2015-10-05,1,,,,,,0
1863,9180001051677,登記記録の閉鎖等,0,2023-03-31,2023-03-27,株式会社ＮＫＧ,,株式会社,愛知県,名古屋市熱田区,桜田町１５番８－１１０１号,,23,109,4560004,,,2023-03-27,清算の結了等,,,2015-10-05,1,,,,,エヌケィジィ,0
1888,9190001016778,登記記録の閉鎖等,0,2023-03-31,2023-03-30,ＲＩ株式会社,,株式会社,大阪府,大阪市中央区,道修町１丁目６番７号ＪＭＦビル北浜０１（９階）,,27,128,5410045,,,2023-03-30,清算の結了等,,,2015-10-05,1,,,,,,0
1896,9240001052603,登記記録の閉鎖等,0,2023-03-31,2023-03-30,ＳＳ加工株式会社,,株式会社,広島県,広島市南区,山城町１２番４－８号,,34,103,7340035,,,2023-03-30,清算の結了等,,,2018-04-06,1,,,,,エスエスカコウ,0
1899,9260002003883,登記記録の閉鎖等,0,2023-03-31,2023-03-30,有限会社壽工務店,,有限会社,岡山県,岡山市南区,下中野４８番地の２０,,33,104,7000973,,,2023-03-30,清算の結了等,,,2015-10-05,1,,,,,コトブキコウムテン,0
1932,9380002026682,登記記録の閉鎖等,0,2023-03-31,2023-03-29,有限会社吉田設計,,有限会社,福島県,いわき市,四倉町戸田字水押１３番地,,07,204,9790212,,,2023-03-29,清算の結了等,,,2015-10-05,1,,,,,ヨシダセッケイ,0
1936,9390001009984,登記記録の閉鎖等,0,2023-03-31,2023-03-28,株式会社テクノプラザ米沢,,株式会社,山形県,米沢市,八幡原５丁目４１４９番地８,,06,202,9921128,,,2023-03-28,清算の結了等,,,2015-10-05,1,,,,,テクノプラザヨネザワ,0
1938,9450005000941,登記記録の閉鎖等,0,2023-03-31,2023-03-28,天理教東一路分教会,,その他の設立登記法人,北海道,旭川市,豊岡四条２丁目２番２０号,,01,204,0788234,,,2023-03-28,合併による解散等,6011005000482,令和５年３月１７日東京都渋谷区神宮前五丁目１４番２号天理教東中央大教会（6011005000482）に合併し解散,2015-10-05,1,,,,,,0
