sequenceNumber,corporateNumber,process,correct,updateDate,changeDate,name,nameImageId,kind,prefectureName,cityName,streetNumber,addressImageId,prefectureCode,cityCode,postCode,addressOutside,addressOutsideImageId,closeDate,closeCause,successorCorporateNumber,changeCause,assignmentDate,latest,enName,enPrefectureName,enCityName,enAddressOutside,furigana,hihyoji
6,1010001256985,新規,0,2025-07-17,2025-07-17,株式会社くらしデザイン,,株式会社,東京都,中央区,銀座６丁目１３番１６号銀座ＷａｌｌビルＵＣＦ５０１,,13,102,1040061,,,,,,,2025-07-17,1,,,,,クラシデザイン,0
7,1010003047912,新規,0,2025-07-17,2025-07-17,合同会社Ｉｗａｏ　Ｃａｃａｏ,,合同会社,東京都,中央区,日本橋蛎殻町２丁目５－４パークハイツ日本橋蛎殻町９０２,,13,102,1030014,,,,,,,2025-07-17,1,,,,,イワオカカオ,0
8,1010005040361,新規,0,2025-07-17,2025-07-17,一般社団法人ＤＥＣＯＤＥ　Ｌａｂ,,その他の設立登記法人,東京都,千代田区,富士見１丁目３番１１号,,13,101,1020071,,,,,,,2025-07-17,1,,,,,デコードラボ,0
9,1010005040386,新規,0,2025-07-17,2025-07-17,東京レジＳＲ９一般社団法人,,その他の設立登記法人,東京都,千代田区,丸の内１丁目４番１号東京共同会計事務所内,,13,101,1000005,,,,,,,2025-07-17,1,,,,,トウキョウレジエスアールナイン,0
10,1010005040394,新規,0,2025-07-17,2025-07-17,東京レジＳＲ１７一般社団法人,,その他の設立登記法人,東京都,千代田区,丸の内１丁目４番１号東京共同会計事務所内,,13,101,1000005,,,,,,,2025-07-17,1,,,,,トウキョウレジエスアールセブンティーン,0
21,1010401191725,新規,0,2025-07-17,2025-07-17,株式会社ＮＯＴ　ＥＱＵＡＬ,,株式会社,東京都,港区,浜松町２丁目２－１５浜松町ダイヤビル２階,,13,103,1050013,,,,,,,2025-07-17,1,,,,,ノットイコール,0
25,1010403035590,新規,0,2025-07-17,2025-07-17,中央みなとコンサルティング合同会社,,合同会社,東京都,港区,北青山１丁目３番１号アールキューブ青山３階,,13,103,1070061,,,,,,,2025-07-17,1,,,,,チュウオウミナトコンサルティング,0
27,1010501054427,新規,0,2025-07-17,2025-07-17,株式会社佳家ホーム,,株式会社,東京都,台東区,元浅草４丁目８番５号泉コーポ２０１号,,13,106,1110041,,,,,,,2025-07-17,1,,,,,ヨイカホーム,0
33,1010901057756,新規,0,2025-07-17,2025-07-17,オンユアサイド株式会社,,株式会社,東京都,世田谷区,下馬２丁目１０番１２号,,13,112,1540002,,,,,,,2025-07-17,1,,,,,オンユアサイド,0
40,1011001170821,新規,0,2025-07-17,2025-07-17,ミセス株式会社,,株式会社,東京都,渋谷区,渋谷２丁目１９－１５宮益坂ビルディング６０９,,13,113,1500002,,,,,,,2025-07-17,1,,,,,ミセス,0
41,1011001170887,新規,0,2025-07-17,2025-07-17,株式会社ＨＹＰＥ,,株式会社,東京都,渋谷区,円山町５番３号ＭＩＥＵＸ渋谷ビル８階,,13,113,1500044,,,,,,,2025-07-17,1,,,,,ハイプ,0
43,1011003021997,新規,0,2025-07-17,2025-07-17,合同会社Ｓａｇａｅ,,合同会社,東京都,目黒区,柿の木坂１丁目３０番１９号グレース柿の木坂６０１,,13,110,1520022,,,,,,,2025-07-17,1,,,,,サガエ,0
44,1011003022161,新規,0,2025-07-17,2025-07-17,リップル・コレクティブ合同会社,,合同会社,東京都,渋谷区,神南１丁目１３番８号パーク・アヴェニュー神南９０１,,13,113,1500041,,,,,,,2025-07-17,1,,,,,リップルコレクティブ,0
50,1011101112475,新規,0,2025-07-17,2025-07-17,株式会社ＳＵＮ　ＮＥＴＷＯＲＫ,,株式会社,東京都,新宿区,百人町１丁目８番１１号オリエンタルビル２０３,,13,104,1690073,,,,,,,2025-07-17,1,,,,,サンネットワーク,0
55,1011301030733,新規,0,2025-07-17,2025-07-17,株式会社三和,,株式会社,東京都,杉並区,荻窪３丁目４５番２号オーチャード・コート１０１,,13,115,1670051,,,,,,,2025-07-17,1,,,,,サンワ,0
58,1011403004759,新規,0,2025-07-17,2025-07-17,合同会社木の芽,,合同会社,東京都,板橋区,舟渡２丁目７番５号メゾンドマキ舟渡４０２,,13,119,1740041,,,,,,,2025-07-17,1,,,,,キノメ,0
62,1011801046469,新規,0,2025-07-17,2025-07-17,株式会社Ｋｉｋｉｂｌｕｅ,,株式会社,東京都,足立区,東伊興２丁目１６番３号,,13,121,1210801,,,,,,,2025-07-17,1,,,,,キキブル,0
63,1011803006974,新規,0,2025-07-17,2025-07-17,合同会社タバカンス,,合同会社,東京都,足立区,千住旭町２５番５号,,13,121,1200026,,,,,,,2025-07-17,1,,,,,タバカンス,0
65,1012305002140,新規,0,2025-07-17,2025-07-17,弁護士法人守屋綜合法律事務所,,その他の設立登記法人,東京都,町田市,中町１丁目５番３号ＣＬＡ司法関連・公証センタービル２階,,13,209,1940021,,,,,,,2025-07-17,1,,,,,モリヤソウゴウホウリツジムショ,0
67,1013101009750,新規,0,2025-07-17,2025-07-17,株式会社ＡＤＶＡＮＣＥ,,株式会社,東京都,青梅市,藤橋２丁目２７番地３９,,13,205,1980022,,,,,,,2025-07-17,1,,,,,アドヴァンス,0
68,1013301054613,新規,0,2025-07-17,2025-07-17,株式会社イッカンサイ,,株式会社,東京都,豊島区,東池袋２丁目６２番８号ＢＩＧオフィスプラザ池袋１２０６,,13,116,1700013,,,,,,,2025-07-17,1,,,,,イッカンサイ,0
69,1013303007767,新規,0,2025-07-17,2025-07-17,合同会社ＯＤＮ,,合同会社,東京都,豊島区,西池袋５丁目１２番３号,,13,116,1710021,,,,,,,2025-07-17,1,,,,,オーディーエヌ,0
74,1020003028969,新規,0,2025-07-17,2025-07-17,合同会社矢嶋企画,,合同会社,神奈川県,横浜市神奈川区,松見町３丁目９１１番地の１５朝日プラザ妙蓮寺ＩＩ５０１号,00139969,14,102,2210005,,,,,,,2025-07-17,1,,,,,ヤジマキカク,0
81,1021003016237,新規,0,2025-07-17,2025-07-17,合同会社ＧＯ　ＯＮ,,合同会社,神奈川県,高座郡寒川町,宮山３５９９－２１,,14,321,2530106,,,,,,,2025-07-17,1,,,,,ゴーオン,0
82,1021003016303,新規,0,2025-07-17,2025-07-17,合同会社Ｇｉｎａ,,合同会社,神奈川県,厚木市,関口１５８番地７,,14,212,2430804,,,,,,,2025-07-17,1,,,,,ジーナ,0
90,1030001167710,新規,0,2025-07-17,2025-07-17,株式会社ＤａｖｉｎｃｉＸ,,株式会社,埼玉県,羽生市,大字下羽生１０３１番地２,,11,216,3480026,,,,,,,2025-07-17,1,,,,,ダヴィンチエックス,0
91,1030001167735,新規,0,2025-07-17,2025-07-17,株式会社サンサンリペア,,株式会社,埼玉県,さいたま市西区,大字土屋２８－１,,11,101,3310062,,,,,,,2025-07-17,1,,,,,サンサンリペア,0
99,1040001139691,新規,0,2025-07-17,2025-07-17,ヴェクノック株式会社,,株式会社,千葉県,柏市,若柴２２７番地６柏の葉キャンパス１４７街区Ｆ－３１２号,,12,217,2770871,,,,,,,2025-07-17,1,,,,,ヴェクノック,0
100,1040001139725,新規,0,2025-07-17,2025-07-17,株式会社ｒｅｇｉｏ,,株式会社,千葉県,松戸市,上本郷２６７７番地の７７,,12,207,2710064,,,,,,,2025-07-17,1,,,,,レギオ,0
105,1050001056969,新規,0,2025-07-17,2025-07-17,株式会社東京警備センター,,株式会社,茨城県,稲敷市,佐倉２６２７番地１朝比奈アパート１０６号室,,08,229,3000508,,,,,,,2025-07-17,1,,,,,トウキョウケイビセンター,0
108,1060001038396,新規,0,2025-07-17,2025-07-17,株式会社ピース不動産,,株式会社,栃木県,足利市,迫間町５１８番地１,,09,202,3294216,,,,,,,2025-07-17,1,,,,,ピースフドウサン,0
113,1080101025664,新規,0,2025-07-17,2025-07-17,株式会社スモビジ,,株式会社,静岡県,沼津市,庄栄町１０番３１号,,22,203,4100047,,,,,,,2025-07-17,1,,,,,スモビジ,0
114,1080103003379,新規,0,2025-07-17,2025-07-17,合同会社Ｗｉｔｈ　ｂｅａｕｔｙ,,合同会社,静岡県,熱海市,泉３４番地の１７号ライオンズマンション湯河原万葉公園８０５,,22,205,4130001,,,,,,,2025-07-17,1,,,,,ウイズビューティー,0
115,1080401028029,新規,0,2025-07-17,2025-07-17,ＯＫＡＮＯ．ＨＤ株式会社,,株式会社,静岡県,周智郡森町,飯田４０５９番地,,22,461,4370222,,,,,,,2025-07-17,1,,,,,オカノホールディングス,0
116,1080401028037,新規,0,2025-07-17,2025-07-17,株式会社Ｄｉｓｈ,,株式会社,静岡県,掛川市,高御所１９８番地,,22,213,4360031,,,,,,,2025-07-17,1,,,,,ディッシュ,0
120,1110001039422,新規,0,2025-07-17,2025-07-17,ＭＫホールディングス株式会社,,株式会社,新潟県,長岡市,曙２丁目４番地２０,,15,202,9400832,,,,,,,2025-07-17,1,,,,,エムケーホールディングス,0
121,1110001039430,新規,0,2025-07-17,2025-07-17,株式会社クローバフォーホールディングス,,株式会社,新潟県,十日町市,山野田２６８番地２,,15,210,9480143,,,,,,,2025-07-17,1,,,,,クローバフォーホールディングス,0
125,1120001277863,新規,0,2025-07-17,2025-07-17,株式会社ＹＥＬＬサービス,,株式会社,大阪府,寝屋川市,高柳７丁目１番８号,,27,215,5720051,,,,,,,2025-07-17,1,,,,,エールサービス,0
126,1120001277938,新規,0,2025-07-17,2025-07-17,株式会社福瑞興業,,株式会社,大阪府,大阪市鶴見区,横堤４丁目１１番４１号,,27,124,5380052,,,,,,,2025-07-17,1,,,,,フクズイコウギョウ,0
127,1120001277946,新規,0,2025-07-17,2025-07-17,金成株式会社,,株式会社,大阪府,大阪市生野区,巽中２丁目２２番１９－６３０号,,27,116,5440013,,,,,,,2025-07-17,1,,,,,キンセイ,0
128,1120001277954,新規,0,2025-07-17,2025-07-17,株式会社Ｌｉａ,,株式会社,大阪府,大阪市港区,八幡屋１丁目１６－２,,27,107,5520014,,,,,,,2025-07-17,1,,,,,リア,0
129,1120001278044,新規,0,2025-07-17,2025-07-17,オネスト株式会社,,株式会社,大阪府,大阪市生野区,巽中２丁目４番１５－３０２号,,27,116,5440013,,,,,,,2025-07-17,1,,,,,オネスト,0
130,1120001278052,新規,0,2025-07-17,2025-07-17,株式会社セントロイソラ,,株式会社,大阪府,大阪市北区,豊崎６丁目１１番１６号,,27,127,5310072,,,,,,,2025-07-17,1,,,,,セントロイソラ,0
131,1120003029973,新規,0,2025-07-17,2025-07-17,合同会社ＹｏｕｒＳ,,合同会社,大阪府,大阪市西淀川区,姫島２丁目１０番３３号１階,,27,113,5550033,,,,,,,2025-07-17,1,,,,,ユアーズ,0
132,1120003030064,新規,0,2025-07-17,2025-07-17,合同会社オールハッピー,,合同会社,大阪府,大阪市淀川区,十三東３丁目１－２Ｂ－ＦＬＡＴビル１Ｆ,,27,123,5320023,,,,,,,2025-07-17,1,,,,,オールハッピー,0
136,1120005025046,新規,0,2025-07-17,2025-07-17,一般社団法人つながるＭＵＧＥＮ,,その他の設立登記法人,大阪府,大阪市天王寺区,東高津町３番２６号リベラルパレス桂７０２号,,27,109,5430021,,,,,,,2025-07-17,1,,,,,ツナガルムゲン,0
138,1120101072099,新規,0,2025-07-17,2025-07-17,プリズムＵＰ株式会社,,株式会社,大阪府,堺市美原区,大保１２８番地３,,27,147,5870001,,,,,,,2025-07-17,1,,,,,プリズムアップ,0
139,1120103006575,新規,0,2025-07-17,2025-07-17,荘園Ｓｔｕｄｉｏ合同会社,,合同会社,大阪府,羽曳野市,はびきの４丁目４番１４号,,27,222,5830872,,,,,,,2025-07-17,1,,,,,ショウエンスタジオ,0
140,1120905006756,新規,0,2025-07-17,2025-07-17,医療法人友継会,,その他の設立登記法人,大阪府,豊中市,浜１丁目２５番３２ハイツノア１０７号,,27,203,5610817,,,,,,,2025-07-17,1,,,,,ユウケイカイ,0
143,1130001080119,新規,0,2025-07-17,2025-07-17,株式会社ＭＧＨ,,株式会社,京都府,京都市山科区,御陵封ジ山町７番地５７,,26,110,6078422,,,,,,,2025-07-17,1,,,,,エムジーエイチ,0
144,1130001080168,新規,0,2025-07-17,2025-07-17,株式会社善之,,株式会社,京都府,木津川市,木津宮ノ裏２００番地１３,,26,214,6190214,,,,,,,2025-07-17,1,,,,,ゼンノ,0
145,1130003010602,新規,0,2025-07-17,2025-07-17,合同会社ＴＭＥＲ,,合同会社,京都府,京都市右京区,梅津南広町８２番地１１,,26,108,6150901,,,,,,,2025-07-17,1,,,,,ティーエムイーアール,0
148,1140001139269,新規,0,2025-07-17,2025-07-17,株式会社３３９,,株式会社,兵庫県,加古川市,加古川町稲屋１０４９番地の２２,,28,210,6750034,,,,,,,2025-07-17,1,,,,,ミサキ,0
149,1140001139302,新規,0,2025-07-17,2025-07-17,株式会社Ｎａｇａｔａ,,株式会社,兵庫県,尼崎市,下坂部４丁目７番４号,,28,202,6610975,,,,,,,2025-07-17,1,,,,,ナガタ,0
150,1140001139335,新規,0,2025-07-17,2025-07-17,ＴＥＣＨＬＥＡ株式会社,,株式会社,兵庫県,西宮市,甲子園口１丁目１１番２７号,,28,204,6638113,,,,,,,2025-07-17,1,,,,,テクレア,0
156,1150001028272,新規,0,2025-07-17,2025-07-17,株式会社チーターコーポレーション,,株式会社,奈良県,吉野郡天川村,大字川合１０３番地６,,29,446,6380301,,,,,,,2025-07-17,1,,,,,チーターコーポレーション,0
173,1180003028747,新規,0,2025-07-17,2025-07-17,合同会社ｇｒａｃｅ　ｇａｒｄｅｎ　ＺＥＮ,,合同会社,愛知県,名古屋市名東区,山の手１丁目１１０２－７,,23,115,4650011,,,,,,,2025-07-17,1,,,,,グレイスガーデンゼン,0
190,1230003002465,新規,0,2025-07-17,2025-07-17,合同会社丸の内不動産研究所,,合同会社,富山県,富山市,西中野町２丁目７番２号,,16,201,9398084,,,,,,,2025-07-17,1,,,,,マルノウチフドウサンケンキュウジョ,0
195,1260001040357,新規,0,2025-07-17,2025-07-17,株式会社フジタ設備,,株式会社,岡山県,岡山市東区,中尾１３０番地１サンシャイン上道７０３,,33,103,7090626,,,,,,,2025-07-17,1,,,,,フジタセツビ,0
196,1280005007664,新規,0,2025-07-17,2025-07-17,一般社団法人葬祭アドバイザー協会,,その他の設立登記法人,島根県,出雲市,大社町北荒木１１２７番地４,,32,203,6990722,,,,,,,2025-07-17,1,,,,,ソウサイアドバイザーキョウカイ,0
198,1290001110842,新規,0,2025-07-17,2025-07-17,株式会社Ｄｉａｎａ,,株式会社,福岡県,福岡市博多区,博多駅前２丁目１０番１２号ハイラーク博多駅前６０９,,40,132,8120011,,,,,,,2025-07-17,1,,,,,ディアナ,0
202,1310001019692,新規,0,2025-07-17,2025-07-17,株式会社吉田ファーム,,株式会社,長崎県,雲仙市,国見町多比良甲６５３番地イ,,42,213,8591321,,,,,,,2025-07-17,1,,,,,ヨシダファーム,0
205,1330003011126,新規,0,2025-07-17,2025-07-17,Ｌ．Ｌ．Ｌ．ＦＸ合同会社,,合同会社,熊本県,熊本市中央区,出水７丁目３４―９１セブンフィールドＡ２０１,,43,101,8620941,,,,,,,2025-07-17,1,,,,,エルエルエルエフエックス,0
211,1360001035446,新規,0,2025-07-17,2025-07-17,株式会社ミカレ,,株式会社,沖縄県,浦添市,城間２丁目１９番２号,,47,208,9012133,,,,,,,2025-07-17,1,,,,,ミカレ,0
233,1470003002937,新規,0,2025-07-17,2025-07-17,合同会社フードサービス,,合同会社,香川県,丸亀市,大手町３丁目７番地９,,37,202,7630034,,,,,,,2025-07-17,1,,,,,,0
235,1490001011112,新規,0,2025-07-17,2025-07-17,溝渕塗装株式会社,,株式会社,高知県,高知市,塩屋崎町２丁目１２番７号,,39,201,7808014,,,,,,,2025-07-17,1,,,,,ミゾブチトソウ,0
236,1500001026422,新規,0,2025-07-17,2025-07-17,七豊工業株式会社,,株式会社,愛媛県,八幡浜市,保内町宮内２番耕地６４番地,,38,204,7960202,,,,,,,2025-07-17,1,,,,,ナナトコウギョウ,0
237,1700150014083,新規,0,2025-07-17,2015-10-09,寒川町シニアクラブ連合会,,その他,神奈川県,高座郡寒川町,小動９８２－２,,14,321,2530102,,,,,,,2015-10-09,1,,,,,サムカワマチシニアクラブレンゴウカイ,0
254,2010001256935,新規,0,2025-07-17,2025-07-17,株式会社ＹＴＡｊｐ一級建築士事務所,,株式会社,東京都,中央区,築地６丁目３番７号,,13,102,1040045,,,,,,,2025-07-17,1,,,,,ワイティーエージェーピーイッキュウケンチクシジムショ,0
256,2010003048067,新規,0,2025-07-17,2025-07-17,合同会社ＳＥＩ‐ＤＯ,,合同会社,東京都,中央区,銀座１丁目１２番４号Ｎ＆Ｅ　ＢＬＤ．６Ｆ,,13,102,1040061,,,,,,,2025-07-17,1,,,,,セイドゥ,0
257,2010005040352,新規,0,2025-07-17,2025-07-17,一般社団法人ＡＲＫ０３,,その他の設立登記法人,東京都,千代田区,霞が関３丁目２番５号,,13,101,1000013,,,,,,,2025-07-17,1,,,,,アークゼロスリー,0
258,2010005040385,新規,0,2025-07-17,2025-07-17,東京レジＳＲ８一般社団法人,,その他の設立登記法人,東京都,千代田区,丸の内１丁目４番１号東京共同会計事務所内,,13,101,1000005,,,,,,,2025-07-17,1,,,,,トウキョウレジエスアールエイト,0
259,2010005040393,新規,0,2025-07-17,2025-07-17,東京レジＳＲ１６一般社団法人,,その他の設立登記法人,東京都,千代田区,丸の内１丁目４番１号東京共同会計事務所内,,13,101,1000005,,,,,,,2025-07-17,1,,,,,トウキョウレジエスアールシックスティーン,0
265,2010401191609,新規,0,2025-07-17,2025-07-17,株式会社ＩＬＩＳＯＭ,,株式会社,東京都,港区,北青山１丁目３－１アールキューブ青山３階,,13,103,1070061,,,,,,,2025-07-17,1,,,,,イリソム,0
266,2010401191674,新規,0,2025-07-17,2025-07-17,株式会社Ｆｅｎｒｉｒ　Ｄｒｉｖｅ,,株式会社,東京都,港区,南青山３丁目１番３６号青山丸竹ビル６Ｆ,,13,103,1070062,,,,,,,2025-07-17,1,,,,,フェンリルドライブ,0
267,2010401191807,新規,0,2025-07-17,2025-07-17,株式会社Ｊ‐ＮＥＸＴ,,株式会社,東京都,港区,新橋１丁目９番２号新橋二光ビル６Ｆ,,13,103,1050004,,,,,,,2025-07-17,1,,,,,ジェイネクスト,0
268,2010403035565,新規,0,2025-07-17,2025-07-17,対旋律合同会社,,合同会社,東京都,港区,南青山２丁目２番１５号,,13,103,1070062,,,,,,,2025-07-17,1,,,,,タイセンリツ,0
269,2010403035607,新規,0,2025-07-17,2025-07-17,ＲＣＳ合同会社,,合同会社,東京都,港区,新橋２丁目１１番１０号,,13,103,1050004,,,,,,,2025-07-17,1,,,,,アールシーエス,0
274,2010501054426,新規,0,2025-07-17,2025-07-17,株式会社三本グループ,,株式会社,東京都,台東区,台東３丁目５番１０号－１０２－Ｑ号室ダイアパレス御徒町第３,,13,106,1100016,,,,,,,2025-07-17,1,,,,,ミモトグループ,0
283,2010801036388,新規,0,2025-07-17,2025-07-17,富士川テクノロジー株式会社,,株式会社,東京都,大田区,東雪谷１丁目２番３－１０２号,,13,111,1450065,,,,,,,2025-07-17,1,,,,,フジカワテクノロジー,0
287,2010903010101,新規,0,2025-07-17,2025-07-17,合同会社ＰＯＳＴ,,合同会社,東京都,世田谷区,代田３丁目１２番５号,,13,112,1550033,,,,,,,2025-07-17,1,,,,,ポスト,0
293,2011001170853,新規,0,2025-07-17,2025-07-17,ステッチワン株式会社,,株式会社,東京都,渋谷区,千駄ヶ谷５丁目２番４号千駄ヶ谷シルクハイツ１１１号,,13,113,1510051,,,,,,,2025-07-17,1,,,,,ステッチワン,0
294,2011001171075,新規,0,2025-07-17,2025-07-17,株式会社Ｔｅｒｒａ,,株式会社,東京都,渋谷区,恵比寿西２丁目８番４号ＥＸ恵比寿西ビル５階,,13,113,1500021,,,,,,,2025-07-17,1,,,,,テラ,0
295,2011003021963,新規,0,2025-07-17,2025-07-17,Ａｎｎｉｂｏｏｋ合同会社,,合同会社,東京都,渋谷区,恵比寿西２丁目４番８号ウィンド恵比寿ビル８Ｆ,,13,113,1500021,,,,,,,2025-07-17,1,,,,,アニブック,0
296,2011003021996,新規,0,2025-07-17,2025-07-17,合同会社ＳｉａＰｌａｃｅ,,合同会社,東京都,渋谷区,道玄坂１丁目１０番８号渋谷道玄坂東急ビル２Ｆ－Ｃ,,13,113,1500043,,,,,,,2025-07-17,1,,,,,シアプレイス,0
297,2011003022004,新規,0,2025-07-17,2025-07-17,合同会社ｍｉｓｏａｓａ,,合同会社,東京都,渋谷区,恵比寿西２丁目８番４号ＥＸ恵比寿西ビル５階,,13,113,1500021,,,,,,,2025-07-17,1,,,,,ミソアサ,0
305,2011201026500,新規,0,2025-07-17,2025-07-17,恩澤株式会社,,株式会社,東京都,中野区,鷺宮１丁目５番７号オリエンタルビル,,13,114,1650032,,,,,,,2025-07-17,1,,,,,オンサワ,0
306,2011201026517,新規,0,2025-07-17,2025-07-17,ＡＲＴＩＣＬ株式会社,,株式会社,東京都,中野区,本町５丁目３３－３５レジデンス坂の上４０３,,13,114,1640012,,,,,,,2025-07-17,1,,,,,アーティクル,0
310,2011801046451,新規,0,2025-07-17,2025-07-17,株式会社ＰＹＮ,,株式会社,東京都,足立区,保木間５丁目２４－３７,,13,121,1210064,,,,,,,2025-07-17,1,,,,,ピーワイエヌ,0
311,2011801046468,新規,0,2025-07-17,2025-07-17,川岐楽株式会社,,株式会社,東京都,足立区,西新井１丁目２１－３アークトップ西新井３１０号室,,13,121,1230841,,,,,,,2025-07-17,1,,,,,カワキラク,0
316,2012801024117,新規,0,2025-07-17,2025-07-17,株式会社ＡＬＥＳ‐ＺＯＯ,,株式会社,東京都,立川市,曙町２丁目１７番５号杉田ビル４Ｆ,,13,202,1900012,,,,,,,2025-07-17,1,,,,,アレスズー,0
319,2013301054604,新規,0,2025-07-17,2025-07-17,株式会社ミチアス,,株式会社,東京都,豊島区,西巣鴨１丁目１２－６シャリエ西巣鴨１００６,,13,116,1700001,,,,,,,2025-07-17,1,,,,,ミチアス,0
320,2013301054620,新規,0,2025-07-17,2025-07-17,株式会社ＰＬＴ,,株式会社,東京都,豊島区,東池袋１丁目１７番１１－１１０５号パークハイツ池袋,,13,116,1700013,,,,,,,2025-07-17,1,,,,,ピーエルティー,0
321,2013301054629,新規,0,2025-07-17,2025-07-17,朝日大成株式会社,,株式会社,東京都,豊島区,東池袋１丁目４４－２－８０４号,,13,116,1700013,,,,,,,2025-07-17,1,,,,,アサヒタイセイ,0
325,2020001162050,新規,0,2025-07-17,2025-07-17,Ｚｙｎｅｃｔ　Ｍｅｄｉａ株式会社,,株式会社,神奈川県,横浜市港北区,日吉本町２丁目１２－９リッツハイム１０１号室,,14,109,2230062,,,,,,,2025-07-17,1,,,,,ザイネクトメディア,0
326,2020001163940,新規,0,2025-07-17,2025-07-17,輝きメディカル株式会社,,株式会社,神奈川県,横浜市南区,井土ケ谷上町３８番１３号,,14,105,2320051,,,,,,,2025-07-17,1,,,,,カガヤキメディカル,0
327,2020003028976,新規,0,2025-07-17,2025-07-17,合同会社ＨＫＹ,,合同会社,神奈川県,横浜市神奈川区,片倉３丁目３４番６号,,14,102,2210865,,,,,,,2025-07-17,1,,,,,エイチケイワイ,0
329,2021001085729,新規,0,2025-07-17,2025-07-17,株式会社ユリエル工業,,株式会社,神奈川県,座間市,ひばりが丘２丁目２１番６号,,14,216,2520003,,,,,,,2025-07-17,1,,,,,ユリエルコウギョウ,0
330,2021001085786,新規,0,2025-07-17,2025-07-17,株式会社岡本倉庫,,株式会社,神奈川県,藤沢市,菖蒲沢１１４６番地,,14,205,2520823,,,,,,,2025-07-17,1,,,,,オカモトソウコ,0
331,2021001085794,新規,0,2025-07-17,2025-07-17,矩形波株式会社,,株式会社,神奈川県,平塚市,明石町２７－２相湘明石町ビル６－７階,,14,203,2540042,,,,,,,2025-07-17,1,,,,,クケイハ,0
336,2021003016260,新規,0,2025-07-17,2025-07-17,合同会社ｌｉｂｅｒｄａｄｅ,,合同会社,神奈川県,海老名市,杉久保北２丁目９番５－６号,,14,215,2430410,,,,,,,2025-07-17,1,,,,,リベルダージ,0
340,2030003027184,新規,0,2025-07-17,2025-07-17,ＡＮＨ　ＰＨＡＴ合同会社,,合同会社,埼玉県,坂戸市,浅羽野３丁目２番地７ＫＩＳ亜州商会館坂戸Ｂ号室,,11,239,3500237,,,,,,,2025-07-17,1,,,,,アインファット,0
341,2030003027218,新規,0,2025-07-17,2025-07-17,にほんばれ合同会社,,合同会社,埼玉県,川口市,本町４丁目８番３－８０１号,,11,203,3320012,,,,,,,2025-07-17,1,,,,,ニホンバレ,0
346,2040001139690,新規,0,2025-07-17,2025-07-17,株式会社Ｓｔｙｌｅ７８,,株式会社,千葉県,木更津市,長須賀１３５０番地１０,,12,206,2920054,,,,,,,2025-07-17,1,,,,,スタイルナナハチ,0
352,2050001056968,新規,0,2025-07-17,2025-07-17,株式会社ゆにこ企画,,株式会社,茨城県,取手市,新町１丁目９番１号５０１区画,,08,217,3020024,,,,,,,2025-07-17,1,,,,,ユニコキカク,0
354,2060001038404,新規,0,2025-07-17,2025-07-17,進和設備工業株式会社,,株式会社,栃木県,佐野市,植野町２２８５番地１０浅野ビル１０３,,09,204,3270837,,,,,,,2025-07-17,1,,,,,シンワセツビコウギョウ,0
360,2100001038770,新規,0,2025-07-17,2025-07-17,株式会社Ｉｔａｒｕ,,株式会社,長野県,茅野市,豊平４７３４－２６８２,,20,214,3910213,,,,,,,2025-07-17,1,,,,,イタル,0
372,2120001277945,新規,0,2025-07-17,2025-07-17,朱雀映創株式会社,,株式会社,大阪府,大阪市港区,弁天３丁目１０－２０港ＯＧＩビル４階４０６号室,,27,107,5520007,,,,,,,2025-07-17,1,,,,,スザクエイソウ,0
373,2120001277953,新規,0,2025-07-17,2025-07-17,株式会社Ｂｕｌａｌｉ,,株式会社,大阪府,大阪市北区,西天満６丁目８－７ＤＫビル７０１,,27,127,5300047,,,,,,,2025-07-17,1,,,,,ブラリ,0
374,2120001277978,新規,0,2025-07-17,2025-07-17,株式会社テックブリッジ,,株式会社,大阪府,大阪市淀川区,西宮原３丁目２番１－７２７号,,27,123,5320004,,,,,,,2025-07-17,1,,,,,テックブリッジ,0
375,2120001278035,新規,0,2025-07-17,2025-07-17,創引堂株式会社,,株式会社,大阪府,大阪市城東区,成育４丁目２４番３号２０１,,27,118,5360007,,,,,,,2025-07-17,1,,,,,ソウインドウ,0
376,2120001278043,新規,0,2025-07-17,2025-07-17,中金集団株式会社,,株式会社,大阪府,大阪市大正区,三軒家西３丁目４番１６号中山ビル１０５４,,27,108,5510001,,,,,,,2025-07-17,1,,,,,チュウキンシュウダン,0
380,2120005025045,新規,0,2025-07-17,2025-07-17,特定非営利活動法人磯路みどりの会,,その他の設立登記法人,大阪府,大阪市港区,磯路３丁目３番２０号,,27,107,5520003,,,,,,,2025-07-17,1,,,,,イソジミドリノカイ,0
388,2120901051202,新規,0,2025-07-17,2025-07-17,株式会社ＲＥＣＯ　ＰＬＵＳ,,株式会社,大阪府,吹田市,広芝町１０番地８江坂董友ビル４０１号室,,27,205,5640052,,,,,,,2025-07-17,1,,,,,リコプラス,0
389,2120903005759,新規,0,2025-07-17,2025-07-17,合同会社エール研究所,,合同会社,大阪府,三島郡島本町,水無瀬２丁目８番２－３０２号,,27,301,6180014,,,,,,,2025-07-17,1,,,,,エールケンキュウショ,0
390,2122001039433,新規,0,2025-07-17,2025-07-17,株式会社武田ホールディングス,,株式会社,大阪府,八尾市,水越５丁目５１,,27,212,5810856,,,,,,,2025-07-17,1,,,,,タケダホールディングス,0
394,2140001139334,新規,0,2025-07-17,2025-07-17,株式会社ＫＡＭＥＳＥＮＲＹＵ,,株式会社,兵庫県,神戸市兵庫区,新開地５丁目１番７号,,28,105,6520811,,,,,,,2025-07-17,1,,,,,カメセンリュウ,0
398,2140003022331,新規,0,2025-07-17,2025-07-17,合同会社ＵＰ　ＹＯＵ,,合同会社,兵庫県,神戸市東灘区,本山中町３丁目４番１８号,,28,101,6580016,,,,,,,2025-07-17,1,,,,,アップユー,0
402,2150001028271,新規,0,2025-07-17,2025-07-17,株式会社ヤマヒロ,,株式会社,奈良県,桜井市,大字粟殿６１７番地の１０,,29,206,6330062,,,,,,,2025-07-17,1,,,,,ヤマヒロ,0
408,2180001167793,新規,0,2025-07-17,2025-07-17,ＬＩＶ株式会社,,株式会社,愛知県,名古屋市北区,上飯田南町３丁目５０番地２－４棟４０６室,,23,103,4620804,,,,,,,2025-07-17,1,,,,,ラアイブ,0
410,2180003028746,新規,0,2025-07-17,2025-07-17,合同会社まんまる工房,,合同会社,愛知県,名古屋市西区,中小田井５丁目２０ＯＳ・ＳＫＹマンション中小田井４０１,,23,104,4520822,,,,,,,2025-07-17,1,,,,,マンマルコウボウ,0
432,2220003004081,新規,0,2025-07-17,2025-07-17,合同会社こねっと,,合同会社,石川県,白山市,博労３丁目３２番地１Ｂ,,17,210,9240863,,,,,,,2025-07-17,1,,,,,コネット,0
439,2260001040364,新規,0,2025-07-17,2025-07-17,株式会社ＮｅｘｔＰｌｕｓ　Ｘ,,株式会社,岡山県,岡山市北区,昭和町４番１７号プレミスト岡山ザ・レジデンス１２１１号室,,33,101,7000032,,,,,,,2025-07-17,1,,,,,ネクストプラスエックス,0
442,2270003001768,新規,0,2025-07-17,2025-07-17,合同会社日吉津うなばら荘,,合同会社,鳥取県,西伯郡日吉津村,大字今吉２１８番地,,31,384,6893551,,,,,,,2025-07-17,1,,,,,ヒエヅウナバラソウ,0
447,2290803005108,新規,0,2025-07-17,2025-07-17,合同会社ＭＯＡＮＡ,,合同会社,福岡県,北九州市小倉北区,黒原３丁目１２番２－２０６号,,40,106,8020051,,,,,,,2025-07-17,1,,,,,モアナ,0
448,2310001019691,新規,0,2025-07-17,2025-07-17,株式会社クロスパートアグリ,,株式会社,長崎県,雲仙市,南串山町乙５８４４番地３８,,42,213,8540702,,,,,,,2025-07-17,1,,,,,クロスパートアグリ,0
449,2310001019709,新規,0,2025-07-17,2025-07-17,ごとう・ながさき株式会社,,株式会社,長崎県,長崎市,江里町１９－２５,,42,201,8528032,,,,,,,2025-07-17,1,,,,,ゴトウナガサキ,0
451,2320001021218,新規,0,2025-07-17,2025-07-17,ＮＦＡホールディングス株式会社,,株式会社,大分県,別府市,大字北石垣８２５番地の１０,,44,202,8740000,,,,,,,2025-07-17,1,,,,,エヌエフエーホールディングス,0
459,2330003011125,新規,0,2025-07-17,2025-07-17,合同会社ＲＡＧ　ＳＰＡＣＥ,,合同会社,熊本県,合志市,須屋２０７０番地５クレール須屋１０２号,,43,216,8611102,,,,,,,2025-07-17,1,,,,,ラグスペース,0
460,2340001027519,新規,0,2025-07-17,2025-07-17,株式会社ＤＮＫ,,株式会社,鹿児島県,鹿児島市,西千石町１１番２１号,,46,201,8920847,,,,,,,2025-07-17,1,,,,,ディエヌケイ,0
464,2360003015107,新規,0,2025-07-17,2025-07-17,合同会社ＮＦ　Ｐｌｕｓ,,合同会社,沖縄県,宜野湾市,大謝名５丁目２番１６カサブランカ３０１号,,47,205,9012225,,,,,,,2025-07-17,1,,,,,エヌエフプラス,0
467,2370001052852,新規,0,2025-07-17,2025-07-17,椿メディカルパートナーズ株式会社,,株式会社,宮城県,仙台市青葉区,中央２丁目１１－１９仙南ビル４階－Ａ,,04,101,9800021,,,,,,,2025-07-17,1,,,,,ツバキメディカルパートナーズ,0
472,2380003006079,新規,0,2025-07-17,2025-07-17,合同会社誠塗装,,合同会社,福島県,会津若松市,門田町大字日吉字丑渕４９番地県営住宅５棟１０７,,07,202,9650841,,,,,,,2025-07-17,1,,,,,マコトトソウ,0
476,2400003003503,新規,0,2025-07-17,2025-07-17,合同会社ｉ．ｃｒｅａｔｅ,,合同会社,岩手県,奥州市,江刺川原町４－１８,,03,215,0231114,,,,,,,2025-07-17,1,,,,,アイクリエイト,0
480,2430001094871,新規,0,2025-07-17,2025-07-17,株式会社伍縁工業,,株式会社,北海道,札幌市西区,発寒七条１１丁目３番１号レジデンス清水１階,,01,107,0630827,,,,,,,2025-07-17,1,,,,,ゴエンコウギョウ,0
488,2470001020808,新規,0,2025-07-17,2025-07-17,株式会社コンテクシア,,株式会社,香川県,高松市,大工町１番地１１－１０１,,37,201,7600042,,,,,,,2025-07-17,1,,,,,コンテクシア,0
490,2500001026405,新規,0,2025-07-17,2025-07-17,ＡＣＴ株式会社,,株式会社,愛媛県,松山市,井門町４９０番３号,,38,201,7911114,,,,,,,2025-07-17,1,,,,,アクト,0
501,3010001256884,新規,0,2025-07-17,2025-07-17,ＮＥＸＴＢＬＵＥ株式会社,,株式会社,東京都,中央区,日本橋３丁目１番３号ｘＢｒｉｄｇｅ－Ｇｌｏｂａｌ,,13,102,1030027,,,,,,,2025-07-17,1,,,,,ネクストブルー,0
502,3010001256942,新規,0,2025-07-17,2025-07-17,株式会社Ｄ＆Ａ,,株式会社,東京都,中央区,築地６丁目２番１２号,,13,102,1040045,,,,,,,2025-07-17,1,,,,,ディーアンドエー,0
503,3010001256959,新規,0,2025-07-17,2025-07-17,ジャパン・ネクスト・デザイン株式会社,,株式会社,東京都,中央区,日本橋大伝馬町１３－７,,13,102,1030011,,,,,,,2025-07-17,1,,,,,ジャパンネクストデザイン,0
508,3010005040384,新規,0,2025-07-17,2025-07-17,東京レジＳＲ７一般社団法人,,その他の設立登記法人,東京都,千代田区,丸の内１丁目４番１号東京共同会計事務所内,,13,101,1000005,,,,,,,2025-07-17,1,,,,,トウキョウレジエスアールセブン,0
509,3010005040392,新規,0,2025-07-17,2025-07-17,東京レジＳＲ１５一般社団法人,,その他の設立登記法人,東京都,千代田区,丸の内１丁目４番１号東京共同会計事務所内,,13,101,1000005,,,,,,,2025-07-17,1,,,,,トウキョウレジエスアールフィフティーン,0
516,3010401191698,新規,0,2025-07-17,2025-07-17,ミノリアコンサルティング株式会社,,株式会社,東京都,港区,六本木３丁目１６番１２号六本木ＫＳビル５階,,13,103,1060032,,,,,,,2025-07-17,1,,,,,ミノリアコンサルティング,0
517,3010403035606,新規,0,2025-07-17,2025-07-17,ＬＳ‐ＡＦＲ第１５号合同会社,,合同会社,東京都,港区,六本木１丁目６番１号,,13,103,1060032,,,,,,,2025-07-17,1,,,,,エルエスエーエフアールダイジュウゴゴウ,0
520,3010501054441,新規,0,2025-07-17,2025-07-17,株式会社Ｂ‐Ｆｕｓｉｏｎ,,株式会社,東京都,台東区,柳橋２丁目２１番４－２０２号シーズンフラッツ浅草橋,,13,106,1110052,,,,,,,2025-07-17,1,,,,,ビーフュージョン,0
522,3010505003618,新規,0,2025-07-17,2025-07-17,一般社団法人どこでも美術館,,その他の設立登記法人,東京都,台東区,上野２丁目１２番１８号池之端ヒロハイツ２階,,13,106,1100005,,,,,,,2025-07-17,1,,,,,ドコデモビジュツカン,0
543,3011001170877,新規,0,2025-07-17,2025-07-17,ＯＫＮＹ株式会社,,株式会社,東京都,渋谷区,代々木３丁目３１－１２代々木ハイツ１号館３０８号,,13,113,1510053,,,,,,,2025-07-17,1,,,,,オーケーニューヨーク,0
544,3011001170943,新規,0,2025-07-17,2025-07-17,株式会社ＺＯＮＫｓ．,,株式会社,東京都,目黒区,八雲１丁目１１番８号,,13,110,1520023,,,,,,,2025-07-17,1,,,,,ゾンク,0
545,3011001171025,新規,0,2025-07-17,2025-07-17,ｔｍｒコンサル株式会社,,株式会社,東京都,渋谷区,道玄坂１丁目１０番８号渋谷道玄坂東急ビル２Ｆ－Ｃ,,13,113,1500043,,,,,,,2025-07-17,1,,,,,ティーエムアールコンサル,0
549,3011003021979,新規,0,2025-07-17,2025-07-17,合同会社Ｓｅｃｏｎｄ　Ｖｅｒｓｅ,,合同会社,東京都,渋谷区,道玄坂１丁目１０番８号渋谷道玄坂東急ビル２Ｆ－Ｃ,,13,113,1500043,,,,,,,2025-07-17,1,,,,,セカンドヴァース,0
552,3011101112481,新規,0,2025-07-17,2025-07-17,株式会社ＮＥＳＴ,,株式会社,東京都,新宿区,高田馬場１丁目１０番１０号ＰＡＲＫＳＩＤＥＭＡＢＵＣＨＩ１０１,,13,104,1690075,,,,,,,2025-07-17,1,,,,,ネスト,0
558,3011301030731,新規,0,2025-07-17,2025-07-17,株式会社ミウラプランニング,,株式会社,東京都,杉並区,下高井戸１丁目１０番３号ハイツプルメリア２０１,,13,115,1680073,,,,,,,2025-07-17,1,,,,,ミウラプランニング,0
561,3011601028789,新規,0,2025-07-17,2025-07-17,株式会社Ｎｏｘ,,株式会社,東京都,練馬区,羽沢１丁目１８－１４ディアコート１０３,,13,120,1760003,,,,,,,2025-07-17,1,,,,,ノックス,0
564,3011701028524,新規,0,2025-07-17,2025-07-17,株式会社ＯＨ,,株式会社,東京都,江戸川区,瑞江２丁目１３番５号プチセゾン２０１,,13,123,1320011,,,,,,,2025-07-17,1,,,,,オーエイチ,0
576,3013301054628,新規,0,2025-07-17,2025-07-17,株式会社佐藤工業,,株式会社,東京都,豊島区,池袋３丁目３９－２,,13,116,1710014,,,,,,,2025-07-17,1,,,,,サトウコウギョウ,0
582,3020001163923,新規,0,2025-07-17,2025-07-17,株式会社ＯｔｏＣｈｅｃｋ,,株式会社,神奈川県,川崎市川崎区,中島３丁目１３番４号,,14,131,2100806,,,,,,,2025-07-17,1,,,,,オトチェック,0
586,3021001085793,新規,0,2025-07-17,2025-07-17,株式会社ステラスター,,株式会社,神奈川県,厚木市,愛甲西２丁目２０番１５号ＬＴＩビル３Ｆ,,14,212,2430028,,,,,,,2025-07-17,1,,,,,ステラスター,0
591,3021003016284,新規,0,2025-07-17,2025-07-17,合同会社Ｕｍｉｂｅ,,合同会社,神奈川県,茅ヶ崎市,香川１丁目２１－４３,,14,207,2530082,,,,,,,2025-07-17,1,,,,,ウミベ,0
600,3050001056959,新規,0,2025-07-17,2025-07-17,株式会社タケダ鉱物標本,,株式会社,茨城県,守谷市,久保ケ丘２丁目３番地１４,,08,224,3020104,,,,,,,2025-07-17,1,,,,,タケダコウブツヒョウホン,0
604,3080001027040,新規,0,2025-07-17,2025-07-17,株式会社Ｒｅ　ｔｏｏｌ,,株式会社,静岡県,静岡市葵区,伝馬町１－２ホテルシティオ静岡３Ｆ,,22,101,4200858,,,,,,,2025-07-17,1,,,,,リツール,0
606,3100003008300,新規,0,2025-07-17,2025-07-17,合同会社マイティージー,,合同会社,長野県,東御市,滋野乙１１１－３,,20,219,3890512,,,,,,,2025-07-17,1,,,,,マイティージー,0
607,3110003005825,新規,0,2025-07-17,2025-07-17,合同会社ビー＆ヘルスラボ,,合同会社,新潟県,上越市,頸城区下吉１６４３,,15,222,9420146,,,,,,,2025-07-17,1,,,,,ビーアンドヘルスラボ,0
611,3120001277944,新規,0,2025-07-17,2025-07-17,株式会社ＪＥＣ,,株式会社,大阪府,大阪市中央区,南船場４丁目１０番５号南船場ＳＯＨＯビル７０２,,27,128,5420081,,,,,,,2025-07-17,1,,,,,ジェーイーシー,0
612,3120001277993,新規,0,2025-07-17,2025-07-17,株式会社エイドパートナーズ,,株式会社,大阪府,大阪市北区,梅田１丁目２番２号大阪駅前第２ビル１２－１２,,27,127,5300001,,,,,,,2025-07-17,1,,,,,エイドパートナーズ,0
618,3120903005758,新規,0,2025-07-17,2025-07-17,玉手バコ合同会社,,合同会社,大阪府,吹田市,垂水町２丁目１４番１－３０７号,,27,205,5640062,,,,,,,2025-07-17,1,,,,,タマテバコ,0
620,3130001080166,新規,0,2025-07-17,2025-07-17,株式会社Ｇ‐ｓｐａｃｅ渡辺園芸,,株式会社,京都府,南丹市,日吉町上胡麻木戸ノ下８番地１,,26,213,6290312,,,,,,,2025-07-17,1,,,,,ジースペースワタナベエンゲイ,0
623,3130005017395,新規,0,2025-07-17,2025-07-17,一般社団法人京都ヒューマニティーズ,,その他の設立登記法人,京都府,京都市左京区,山端川端町３２番地ウェリス京都修学院２０２号,,26,103,6068004,,,,,,,2025-07-17,1,,,,,キョウトヒューマニティーズ,0
626,3140001139291,新規,0,2025-07-17,2025-07-17,株式会社ＢＡＮＡＮＡ,,株式会社,兵庫県,西宮市,甲子園洲鳥町２番５－５０２号,,28,204,6638151,,,,,,,2025-07-17,1,,,,,バナナ,0
635,3170003002247,新規,0,2025-07-17,2025-07-17,ＳＯＲＡＥ合同会社,,合同会社,和歌山県,橋本市,橋本１丁目１０３１番地,,30,203,6480064,,,,,,,2025-07-17,1,,,,,ソラエ,0
640,3180001167792,新規,0,2025-07-17,2025-07-17,ＫＹＨ株式会社,,株式会社,愛知県,小牧市,大字池之内３２００番地３,,23,219,4850804,,,,,,,2025-07-17,1,,,,,ケイワイエイチ,0
648,3190001032376,新規,0,2025-07-17,2025-07-17,株式会社ゆとり,,株式会社,三重県,度会郡玉城町,久保２０８番地,,24,461,5190411,,,,,,,2025-07-17,1,,,,,ユトリ,0
652,3200001044048,新規,0,2025-07-17,2025-07-17,株式会社ＺＥＲＯ,,株式会社,岐阜県,岐阜市,北一色７丁目２４番２７号,,21,201,5008227,,,,,,,2025-07-17,1,,,,,ゼロ,0
661,3250001021257,新規,0,2025-07-17,2025-07-17,アドストーリーズ株式会社,,株式会社,山口県,山口市,米屋町２番７号,,35,203,7530087,,,,,,,2025-07-17,1,,,,,アドストーリーズ,0
664,3260001040363,新規,0,2025-07-17,2025-07-17,ＳＯＥシステムズ株式会社,,株式会社,岡山県,岡山市東区,西大寺東１丁目４番３０－１１号,,33,103,7048114,,,,,,,2025-07-17,1,,,,,エスオーイーシステムズ,0
665,3260001040371,新規,0,2025-07-17,2025-07-17,ＷＥ　ＬＥＡＤ株式会社,,株式会社,岡山県,都窪郡早島町,若宮１２番地４,,33,423,7010302,,,,,,,2025-07-17,1,,,,,ウィーリード,0
672,3290001110725,新規,0,2025-07-17,2025-07-17,株式会社ＣｏＣｏ　Ｌｕｓｈ,,株式会社,福岡県,柳川市,三橋町蒲船津５０８番地１,,40,207,8320827,,,,,,,2025-07-17,1,,,,,ココラッシュ,0
673,3290001110758,新規,0,2025-07-17,2025-07-17,株式会社オックスリンクス,,株式会社,福岡県,福岡市早良区,次郎丸２丁目１４番２－１３号,,40,137,8140165,,,,,,,2025-07-17,1,,,,,オックスリンクス,0
674,3290005019797,新規,0,2025-07-17,2025-07-17,一般社団法人九州予防医学研究所,,その他の設立登記法人,福岡県,福岡市東区,松島３丁目２９番１８号,,40,131,8130062,,,,,,,2025-07-17,1,,,,,キュウシュウヨボウイガクケンキュウショ,0
676,3290803005107,新規,0,2025-07-17,2025-07-17,合同会社福智加工,,合同会社,福岡県,田川郡福智町,弁城２３７１番地１,,40,610,8221212,,,,,,,2025-07-17,1,,,,,フクチカコウ,0
680,3320001021217,新規,0,2025-07-17,2025-07-17,株式会社道明,,株式会社,大分県,国東市,武蔵町麻田５６６,,44,214,8730405,,,,,,,2025-07-17,1,,,,,ミチアキ,0
693,3430003017895,新規,0,2025-07-17,2025-07-17,合同会社Ｆｉｒｓｔ,,合同会社,北海道,札幌市手稲区,前田八条１４丁目２番１７号,,01,109,0060818,,,,,,,2025-07-17,1,,,,,ファースト,0
698,3470001020807,新規,0,2025-07-17,2025-07-17,株式会社碧一,,株式会社,香川県,高松市,牟礼町原８３３番地１,,37,201,7610123,,,,,,,2025-07-17,1,,,,,アオイ,0
701,3470003002935,新規,0,2025-07-17,2025-07-17,合同会社ケアプランセンターみきの里,,合同会社,香川県,木田郡三木町,大字田中９２番地２１,,37,341,7610611,,,,,,,2025-07-17,1,,,,,ケアプランセンターミキノサト,0
713,4010001256636,新規,0,2025-07-17,2025-07-17,株式会社ＮＥＯＭＩＺＭ,,株式会社,東京都,中央区,日本橋本町２丁目３－１１日本橋サイエンスビルディング株式会社インディージャパン内,,13,102,1030023,,,,,,,2025-07-17,1,,,,,ネオミズム,0
714,4010001256958,新規,0,2025-07-17,2025-07-17,株式会社ミズノチカラ,,株式会社,東京都,中央区,日本橋室町１丁目１１番１２号日本橋水野ビル７階,,13,102,1030022,,,,,,,2025-07-17,1,,,,,ミズノチカラ,0
717,4010003048081,新規,0,2025-07-17,2025-07-17,合同会社ＯｆｆｉｃｅＯＳＥＴＩ,,合同会社,東京都,中央区,日本橋室町１丁目１１番１２号日本橋水野ビル７階,,13,102,1030022,,,,,,,2025-07-17,1,,,,,オフィスオセチ,0
719,4010005040383,新規,0,2025-07-17,2025-07-17,東京レジＳＲ６一般社団法人,,その他の設立登記法人,東京都,千代田区,丸の内１丁目４番１号東京共同会計事務所内,,13,101,1000005,,,,,,,2025-07-17,1,,,,,トウキョウレジエスアールシックス,0
720,4010005040391,新規,0,2025-07-17,2025-07-17,東京レジＳＲ１４一般社団法人,,その他の設立登記法人,東京都,千代田区,丸の内１丁目４番１号東京共同会計事務所内,,13,101,1000005,,,,,,,2025-07-17,1,,,,,トウキョウレジエスアールフォーティーン,0
726,4010401191722,新規,0,2025-07-17,2025-07-17,株式会社クナッフェ,,株式会社,東京都,港区,北青山１丁目３番１号アールキューブ青山３階,,13,103,1070061,,,,,,,2025-07-17,1,,,,,クナッフェ,0
727,4010401191747,新規,0,2025-07-17,2025-07-17,株式会社Ｈｉｇｈ　Ｖａｌｌｅｙ,,株式会社,東京都,港区,南麻布４丁目５－６３ラトゥール南麻布Ｃ１０２,,13,103,1060047,,,,,,,2025-07-17,1,,,,,ハイバレー,0
728,4010401191771,新規,0,2025-07-17,2025-07-17,かなでき株式会社,,株式会社,東京都,港区,六本木７丁目１７－１０－４０２,,13,103,1060032,,,,,,,2025-07-17,1,,,,,カナデキ,0
729,4010403035605,新規,0,2025-07-17,2025-07-17,ＬＳ‐ＡＦＲ第１４号合同会社,,合同会社,東京都,港区,六本木１丁目６番１号,,13,103,1060032,,,,,,,2025-07-17,1,,,,,エルエスエーエフアールダイジュウヨンゴウ,0
738,4010903010099,新規,0,2025-07-17,2025-07-17,合同会社フルスイング,,合同会社,東京都,世田谷区,東玉川２丁目１番１２－１０４号,,13,112,1580084,,,,,,,2025-07-17,1,,,,,フルスイング,0
746,4011003021920,新規,0,2025-07-17,2025-07-17,合同会社日本エネルギーキャピタル,,合同会社,東京都,渋谷区,桜丘町２７－１エグゼクティブ渋谷２０３,,13,113,1500031,,,,,,,2025-07-17,1,,,,,ニホンエネルギーキャピタル,0
747,4011003022019,新規,0,2025-07-17,2025-07-17,オージージー合同会社,,合同会社,東京都,渋谷区,神宮前６丁目２３番４号,,13,113,1500001,,,,,,,2025-07-17,1,,,,,オージージー,0
753,4011301030730,新規,0,2025-07-17,2025-07-17,アーカイブズプロダクション株式会社,,株式会社,東京都,杉並区,井草１丁目１６番３号,,13,115,1670021,,,,,,,2025-07-17,1,,,,,アーカイブズプロダクション,0
756,4011801046474,新規,0,2025-07-17,2025-07-17,株式会社ＡｔｔＮｏｗ,,株式会社,東京都,足立区,舎人１丁目１３－２５,,13,121,1210831,,,,,,,2025-07-17,1,,,,,アットナウ,0
758,4013301054585,新規,0,2025-07-17,2025-07-17,株式会社ＳＹＲメディカル,,株式会社,東京都,豊島区,高田１丁目３６番１３－４０８号,,13,116,1710033,,,,,,,2025-07-17,1,,,,,エスワイアールメディカル,0
759,4013301054602,新規,0,2025-07-17,2025-07-17,株式会社ＢＰＫ,,株式会社,東京都,豊島区,池袋２丁目４１番１号,,13,116,1710014,,,,,,,2025-07-17,1,,,,,ビーピーケー,0
762,4020001163906,新規,0,2025-07-17,2025-07-17,エコライズ株式会社,,株式会社,神奈川県,横浜市戸塚区,汲沢町２１９番地３,,14,110,2450062,,,,,,,2025-07-17,1,,,,,エコライズ,0
764,4020003028974,新規,0,2025-07-17,2025-07-17,Ｔ＆Ｓ合同会社,,合同会社,神奈川県,横浜市港北区,篠原東２丁目１３－３０,,14,109,2220022,,,,,,,2025-07-17,1,,,,,ティーアンドエス,0
766,4021001085710,新規,0,2025-07-17,2025-07-17,株式会社Ｍｉｒｏｋｕ,,株式会社,神奈川県,秦野市,柳川５６番地の９,,14,211,2591334,,,,,,,2025-07-17,1,,,,,ミロク,0
767,4021001085768,新規,0,2025-07-17,2025-07-17,株式会社ＮＮファイナンシャルアセット,,株式会社,神奈川県,中郡大磯町,西小磯５６番地１大磯プレイス１－５１０号,,14,341,2550005,,,,,,,2025-07-17,1,,,,,エヌエヌファイナンシャルアセット,0
768,4021001085792,新規,0,2025-07-17,2025-07-17,株式会社ＫＳＰ,,株式会社,神奈川県,厚木市,林５丁目１８番１０号,,14,212,2430816,,,,,,,2025-07-17,1,,,,,ケーエスピー,0
770,4021003016275,新規,0,2025-07-17,2025-07-17,合同会社Ｂｏｎｄｉ,,合同会社,神奈川県,鎌倉市,笛田２丁目３６番１０号,,14,204,2480027,,,,,,,2025-07-17,1,,,,,ボンダイ,0
771,4021003016283,新規,0,2025-07-17,2025-07-17,合同会社美彩,,合同会社,神奈川県,足柄上郡開成町,宮台５１８番地,,14,366,2580023,,,,,,,2025-07-17,1,,,,,ビサイ,0
774,4030001167492,新規,0,2025-07-17,2025-07-17,株式会社藤花,,株式会社,埼玉県,越谷市,蒲生西町１丁目８番１０号,,11,222,3430835,,,,,,,2025-07-17,1,,,,,,0
775,4030001167666,新規,0,2025-07-17,2025-07-17,株式会社トルチェ,,株式会社,埼玉県,所沢市,大字山口２７０５番地の１３,,11,208,3591145,,,,,,,2025-07-17,1,,,,,トルチェ,0
785,4030003027199,新規,0,2025-07-17,2025-07-17,合同会社シュノン,,合同会社,埼玉県,川口市,江戸袋１丁目３番９号ネオレア３０３号,,11,203,3340075,,,,,,,2025-07-17,1,,,,,シュノン,0
786,4030003027216,新規,0,2025-07-17,2025-07-17,合同会社ラピスラズリ,,合同会社,埼玉県,戸田市,本町５丁目１２－３３－３０３,,11,224,3350023,,,,,,,2025-07-17,1,,,,,ラピスラズリ,0
790,4040001139722,新規,0,2025-07-17,2025-07-17,株式会社Ｕｐｂｅａｔ,,株式会社,千葉県,八千代市,緑が丘西６丁目１２番地９,,12,221,2760040,,,,,,,2025-07-17,1,,,,,アップビート,0
793,4040005022825,新規,0,2025-07-17,2025-07-17,ＮＰＯ法人フェスのまち蘇我,,その他の設立登記法人,千葉県,千葉市中央区,今井１丁目２３番地１１,,12,101,2600834,,,,,,,2025-07-17,1,,,,,フェスノマチソガ,0
800,4050003009419,新規,0,2025-07-17,2025-07-17,クロッパリソースマネジメント合同会社,,合同会社,茨城県,つくば市,竹園１丁目９番地５、１００２号,,08,220,3050032,,,,,,,2025-07-17,1,,,,,クロッパリソースマネジメント,0
819,4120001277695,新規,0,2025-07-17,2025-07-17,株式会社山下連合會,,株式会社,大阪府,大阪市生野区,舎利寺１丁目１３番２１号,,27,116,5440022,,,,,,,2025-07-17,1,,,,,ヤマシタレンゴウカイ,0
820,4120001277910,新規,0,2025-07-17,2025-07-17,政興株式会社,,株式会社,大阪府,大阪市天王寺区,勝山４丁目２番１５号,,27,109,5430043,,,,,,,2025-07-17,1,,,,,セイキョウ,0
821,4120001277951,新規,0,2025-07-17,2025-07-17,株式会社カムルファースト,,株式会社,大阪府,大阪市北区,梅田１丁目１－３大阪駅前第３ビル２９階１－１－１号室,,27,127,5300001,,,,,,,2025-07-17,1,,,,,カムルファースト,0
822,4120001277976,新規,0,2025-07-17,2025-07-17,吉安株式会社,,株式会社,大阪府,大阪市住吉区,我孫子西２丁目７－２４－３０２号室,,27,120,5580015,,,,,,,2025-07-17,1,,,,,キチアン,0
825,4120103006580,新規,0,2025-07-17,2025-07-17,合同会社ｏｒｉｇｉｎ,,合同会社,大阪府,堺市堺区,少林寺町東１丁２番２３号,,27,141,5900963,,,,,,,2025-07-17,1,,,,,オリジン,0
826,4120105010036,新規,0,2025-07-17,2025-07-17,医療法人ここはれて,,その他の設立登記法人,大阪府,堺市東区,日置荘西町４丁３５番１０号メディカルスクエア初芝駅前２０５,,27,143,5998114,,,,,,,2025-07-17,1,,,,,ココハレテ,0
828,4120903005757,新規,0,2025-07-17,2025-07-17,合同会社すわん,,合同会社,大阪府,豊中市,熊野町４丁目７番１９号,,27,203,5600014,,,,,,,2025-07-17,1,,,,,スワン,0
831,4122001039456,新規,0,2025-07-17,2025-07-17,藤川不動産株式会社,,株式会社,大阪府,八尾市,佐堂町１丁目２番２２号,,27,212,5810816,,,,,,,2025-07-17,1,,,,,フジカワフドウサン,0
836,4130003010599,新規,0,2025-07-17,2025-07-17,合同会社ＲＥＸＩＯＮ,,合同会社,京都府,京都市下京区,間之町通高辻下る稲荷町５４３番地１シャーメゾン花咲２０２,00139970,26,106,6008098,,,,,,,2025-07-17,1,,,,,レクシオン,0
842,4140001139225,新規,0,2025-07-17,2025-07-17,エヌ・エス・コンサルティング株式会社,,株式会社,兵庫県,西宮市,上大市２丁目３番１５－３号,,28,204,6638003,,,,,,,2025-07-17,1,,,,,エヌエスコンサルティング,0
850,4180003028744,新規,0,2025-07-17,2025-07-17,合同会社大山塗装,,合同会社,愛知県,名古屋市中村区,松原町４丁目１８番地の１（クレストタップ名古屋ウエスト２０３号）,,23,105,4530021,,,,,,,2025-07-17,1,,,,,オオヤマトソウ,0
851,4180003028752,新規,0,2025-07-17,2025-07-17,ＩＬＭ　ＨＯＬＤＩＮＧＳ合同会社,,合同会社,愛知県,名古屋市港区,九番町５丁目２エミール１ｓｔ４０３,,23,111,4550008,,,,,,,2025-07-17,1,,,,,アイエルエムホールディングス,0
853,4180301040021,新規,0,2025-07-17,2025-07-17,株式会社祭家,,株式会社,愛知県,安城市,花ノ木町６番３号,,23,212,4460039,,,,,,,2025-07-17,1,,,,,マツリヤ,0
875,4240005015965,新規,0,2025-07-17,2025-07-17,一般財団法人山木勝記念盆栽財団,,その他の設立登記法人,広島県,広島市西区,己斐中１丁目８番４７号,,34,104,7330813,,,,,,,2025-07-17,1,,,,,ヤマキマサルキネンボンサイザイダン,0
887,4290801031723,新規,0,2025-07-17,2025-07-17,株式会社ＭＩＲＡＩＥ,,株式会社,福岡県,北九州市小倉南区,志井１丁目１８－２９エル・デ・ルポ志井１０３号,,40,107,8020985,,,,,,,2025-07-17,1,,,,,ミライエ,0
889,4310003005044,新規,0,2025-07-17,2025-07-17,合同会社常磐,,合同会社,長崎県,長崎市,岩瀬道町１３番１０号,,42,201,8500072,,,,,,,2025-07-17,1,,,,,トキハ,0
891,4320001021216,新規,0,2025-07-17,2025-07-17,株式会社ｎｉｃｏ,,株式会社,大分県,大分市,大字森１０２６番地の６,,44,201,8700128,,,,,,,2025-07-17,1,,,,,ニコ,0
912,4430001094829,新規,0,2025-07-17,2025-07-17,株式会社Ｉｎｃｌｕｓｉｖｅ　Ｐａｒｔｎｅｒ,,株式会社,北海道,札幌市西区,発寒十四条３丁目３番１,,01,107,0630834,,,,,,,2025-07-17,1,,,,,インクルーシブパートナー,0
913,4430001094837,新規,0,2025-07-17,2025-07-17,株式会社Ｃｏｚｙ　Ｐｅｎｇｕｉｎ　Ｈｏｕｓｅ,,株式会社,北海道,砂川市,東五条南１１丁目１番２号,,01,226,0730135,,,,,,,2025-07-17,1,,,,,コージーペンギンハウス,0
922,4470001020806,新規,0,2025-07-17,2025-07-17,株式会社Ｒ．Ａ．Ｓ,,株式会社,香川県,さぬき市,志度１８８３番地１,,37,206,7692101,,,,,,,2025-07-17,1,,,,,アールエーエス,0
935,5010001256445,新規,0,2025-07-17,2025-07-17,ＤＡＶＩＤ株式会社,,株式会社,東京都,千代田区,飯田橋２丁目１６－４九段下コート２Ｆ－２０９号,,13,101,1020072,,,,,,,2025-07-17,1,,,,,デイビッド,0
936,5010001256949,新規,0,2025-07-17,2025-07-17,株式会社自游倶楽部,,株式会社,東京都,千代田区,丸の内１丁目１１番１号パシフィックセンチュリープレイス丸の内,,13,101,1000005,,,,,,,2025-07-17,1,,,,,ジユウクラブ,0
937,5010001256957,新規,0,2025-07-17,2025-07-17,株式会社デントレイズ,,株式会社,東京都,中央区,銀座７丁目１５番８号タウンハイツ銀座４０６号,,13,102,1040061,,,,,,,2025-07-17,1,,,,,デントレイズ,0
938,5010001256965,新規,0,2025-07-17,2025-07-17,株式会社ミノリアル,,株式会社,東京都,中央区,銀座１丁目１２番４号Ｎ＆ＥＢＬＤ．６Ｆ,,13,102,1040061,,,,,,,2025-07-17,1,,,,,ミノリアル,0
942,5010003048007,新規,0,2025-07-17,2025-07-17,東ノ宮ソーラー合同会社,,合同会社,東京都,千代田区,霞が関３丁目２番５号霞が関ビルディング３１階,,13,101,1000013,,,,,,,2025-07-17,1,,,,,ヒガシノミヤソーラー,0
944,5010005040390,新規,0,2025-07-17,2025-07-17,東京レジＳＲ１３一般社団法人,,その他の設立登記法人,東京都,千代田区,丸の内１丁目４番１号東京共同会計事務所内,,13,101,1000005,,,,,,,2025-07-17,1,,,,,トウキョウレジエスアールサーティーン,0
953,5010403035562,新規,0,2025-07-17,2025-07-17,合同会社Ｓｉｒ．,,合同会社,東京都,港区,西麻布３丁目１７番地１１号ＣＡＬＭ麻布２階,,13,103,1060031,,,,,,,2025-07-17,1,,,,,サー,0
958,5010501054431,新規,0,2025-07-17,2025-07-17,小野メディカル株式会社,,株式会社,東京都,台東区,浅草橋３丁目３３番６－２０１号,,13,106,1110053,,,,,,,2025-07-17,1,,,,,オノメディカル,0
959,5010501054448,新規,0,2025-07-17,2025-07-17,株式会社ＳＰＯＡＬＬ,,株式会社,東京都,台東区,北上野８－９ＶＥＱＢＬＤ６階,,13,106,1100000,,,,,,,2025-07-17,1,,,,,スポオール,0
960,5010503007924,新規,0,2025-07-17,2025-07-17,合同会社アウトソーシング会計社,,合同会社,東京都,台東区,元浅草３丁目１４番１２号ＮＷビル３Ｆ,,13,106,1110041,,,,,,,2025-07-17,1,,,,,アウトソーシングカイケイシャ,0
964,5010901057711,新規,0,2025-07-17,2025-07-17,株式会社トラワレズ,,株式会社,東京都,世田谷区,松原１丁目３６番９号白川ビル４Ｆ,,13,112,1560043,,,,,,,2025-07-17,1,,,,,トラワレズ,0
973,5011001170719,新規,0,2025-07-17,2025-07-17,Ｙ株式会社,,株式会社,東京都,渋谷区,渋谷３丁目１番９号ＹＡＺＡＷＡビル３階,,13,113,1500002,,,,,,,2025-07-17,1,,,,,ワイ,0
974,5011001170826,新規,0,2025-07-17,2025-07-17,株式会社ｔａｎｔａｎ,,株式会社,東京都,渋谷区,道玄坂１丁目１６－６二葉ビル８ｂ,,13,113,1500043,,,,,,,2025-07-17,1,,,,,タンタン,0
975,5011001170883,新規,0,2025-07-17,2025-07-17,株式会社Ｓ．Ｒ．Ｄｅｌｉｇｈｔ,,株式会社,東京都,渋谷区,恵比寿西２丁目３－１５エビスエイトビル７階,,13,113,1500021,,,,,,,2025-07-17,1,,,,,エスアールディライト,0
976,5011001170966,新規,0,2025-07-17,2025-07-17,ＳＲ　ＣＯＭＰＡＮＹ株式会社,,株式会社,東京都,渋谷区,初台１丁目５１番１号,,13,113,1510061,,,,,,,2025-07-17,1,,,,,エスアールカンパニー,0
977,5011003022001,新規,0,2025-07-17,2025-07-17,水の合同会社,,合同会社,東京都,渋谷区,道玄坂１丁目１０－８東急ビル２－ｃ,,13,113,1500043,,,,,,,2025-07-17,1,,,,,ミズノ,0
980,5011101112471,新規,0,2025-07-17,2025-07-17,株式会社ＩＮＩＦＩＡ,,株式会社,東京都,新宿区,新宿６丁目２８番１０号シルバーマンション新宿１１０１,,13,104,1600022,,,,,,,2025-07-17,1,,,,,イニフィア,0
981,5011103016092,新規,0,2025-07-17,2025-07-17,合同会社ＨＩＴ,,合同会社,東京都,新宿区,北新宿１丁目３４番３号,,13,104,1690074,,,,,,,2025-07-17,1,,,,,ヒット,0
982,5011103016142,新規,0,2025-07-17,2025-07-17,合同会社マル,,合同会社,東京都,新宿区,西新宿６丁目１２番６号コアロード西新宿６０６,,13,104,1600023,,,,,,,2025-07-17,1,,,,,マル,0
983,5011201026514,新規,0,2025-07-17,2025-07-17,株式会社リール,,株式会社,東京都,中野区,南台２丁目４６番１号,,13,114,1640014,,,,,,,2025-07-17,1,,,,,リール,0
985,5011203004765,新規,0,2025-07-17,2025-07-17,サクラクレストインベストメンツ合同会社,,合同会社,東京都,中野区,中央１丁目３４番１－３０７号,,13,114,1640011,,,,,,,2025-07-17,1,,,,,サクラクレストインベストメンツ,0
989,5011801046473,新規,0,2025-07-17,2025-07-17,嘉瑞株式会社,,株式会社,東京都,足立区,一ツ家２丁目１番７－５０４号,,13,121,1210075,,,,,,,2025-07-17,1,,,,,カズイ,0
992,5012703003315,新規,0,2025-07-17,2025-07-17,合同会社ｎ　ｆｌａｔ,,合同会社,東京都,西東京市,ひばりが丘北３丁目６番４号ｎｆｌａｔ１Ｆ,,13,229,2020002,,,,,,,2025-07-17,1,,,,,エヌフラット,0
1005,5020001163731,新規,0,2025-07-17,2025-07-17,１ＦＩＮＩＴＹ株式会社,,株式会社,神奈川県,川崎市中原区,上小田中４丁目１番１号,,14,133,2110053,,,,,,,2025-07-17,1,,,,,ワンフィニティ,0
1008,5020003028940,新規,0,2025-07-17,2025-07-17,合同会社ミハナ,,合同会社,神奈川県,横浜市西区,北幸２丁目１０番４８号むつみビル３階,,14,103,2200004,,,,,,,2025-07-17,1,,,,,ミハナ,0
1009,5020003028949,新規,0,2025-07-17,2025-07-17,Ｅｓｃｈ合同会社,,合同会社,神奈川県,横浜市港北区,綱島東２丁目６－２１－２０１,,14,109,2230052,,,,,,,2025-07-17,1,,,,,エッシュ,0
1011,5021001085809,新規,0,2025-07-17,2025-07-17,株式会社ＡＰＥＸ,,株式会社,神奈川県,相模原市南区,旭町９－５－１０１,,14,153,2520304,,,,,,,2025-07-17,1,,,,,エイペックス,0
1019,5030001167715,新規,0,2025-07-17,2025-07-17,芸台株式会社,,株式会社,埼玉県,さいたま市南区,太田窪５丁目８番５－２号,,11,108,3360015,,,,,,,2025-07-17,1,,,,,ウンダイ,0
1029,5040001139713,新規,0,2025-07-17,2025-07-17,ＹＲＣ株式会社,,株式会社,千葉県,船橋市,習志野台３丁目１３番３２号,,12,204,2740063,,,,,,,2025-07-17,1,,,,,ワイアールシー,0
1040,5080001027039,新規,0,2025-07-17,2025-07-17,株式会社ハミングバード,,株式会社,静岡県,静岡市駿河区,大谷３丁目１４番１２号,,22,102,4228017,,,,,,,2025-07-17,1,,,,,ハミングバード,0
1043,5080005007706,新規,0,2025-07-17,2025-07-17,一般社団法人ｋｅｉｋａｎ,,その他の設立登記法人,静岡県,静岡市清水区,船越南町７９１番地の１Ａ－３,,22,103,4240863,,,,,,,2025-07-17,1,,,,,ケイカン,0
1044,5080401028033,新規,0,2025-07-17,2025-07-17,株式会社モコモコイベント,,株式会社,静岡県,磐田市,小中瀬７３５番地１,,22,211,4380215,,,,,,,2025-07-17,1,,,,,モコモコイベント,0
1045,5090003002856,新規,0,2025-07-17,2025-07-17,合同会社岩下不動産測量企画,,合同会社,山梨県,甲府市,上今井８５０番地７,,19,201,4000000,,,,,,,2025-07-17,1,,,,,,0
1049,5110001039443,新規,0,2025-07-17,2025-07-17,株式会社オヒラ商会,,株式会社,新潟県,新潟市南区,白根３０４１番地６,,15,106,9501217,,,,,,,2025-07-17,1,,,,,オヒラショウカイ,0
1056,5120001277901,新規,0,2025-07-17,2025-07-17,ＳＡＩＡＩ株式会社,,株式会社,大阪府,大阪市淀川区,塚本２丁目２６番１０号,,27,123,5320026,,,,,,,2025-07-17,1,,,,,サイアイ,0
1057,5120001277926,新規,0,2025-07-17,2025-07-17,チョイスパートナーズ株式会社,,株式会社,大阪府,大阪市中央区,平野町４丁目７番８号,,27,128,5410046,,,,,,,2025-07-17,1,,,,,チョイスパートナーズ,0
1058,5120001277934,新規,0,2025-07-17,2025-07-17,株式会社クロノス,,株式会社,大阪府,大阪市北区,梅田１丁目１番３号大阪駅前第３ビル２９階１－１－１号室,,27,127,5300001,,,,,,,2025-07-17,1,,,,,クロノス,0
1061,5120003030028,新規,0,2025-07-17,2025-07-17,合同会社ＰＡＣ,,合同会社,大阪府,大阪市西区,江戸堀１丁目６番１７－２９０３号,,27,106,5500002,,,,,,,2025-07-17,1,,,,,ピーエーシー,0
1065,5120901051199,新規,0,2025-07-17,2025-07-17,株式会社ＰａｎｄＡ　Ｐｌａｙｗｏｒｋｓ,,株式会社,大阪府,吹田市,豊津町１－１８エクラート江坂ビル３－５Ｆ,,27,205,5640051,,,,,,,2025-07-17,1,,,,,パンダプレイワークス,0
1066,5122001039439,新規,0,2025-07-17,2025-07-17,株式会社サンエーパーツ,,株式会社,大阪府,東大阪市,花園一丁目１６番１６号,,27,227,5770000,,,,,,,2025-07-17,1,,,,,サンエーパーツ,0
1068,5122005003837,新規,0,2025-07-17,2025-07-17,医療法人玄樹会,,その他の設立登記法人,大阪府,八尾市,東本町３丁目６番２６号レークランド喜多１階,,27,212,5810004,,,,,,,2025-07-17,1,,,,,ゲンジュカイ,0
1071,5130001080197,新規,0,2025-07-17,2025-07-17,写字台株式会社,,株式会社,京都府,京都市西京区,川島北裏町３１山口ハイツ２０１号室,,26,111,6158107,,,,,,,2025-07-17,1,,,,,シャジダイ,0
1076,5140001139331,新規,0,2025-07-17,2025-07-17,株式会社藤本開発企画,,株式会社,兵庫県,明石市,明南町１丁目１０番２号,,28,203,6730001,,,,,,,2025-07-17,1,,,,,フジモトカイハツキカク,0
1079,5140003022329,新規,0,2025-07-17,2025-07-17,ＲＵＮＧＢＵ合同会社,,合同会社,兵庫県,尼崎市,西立花町３丁目７番６号,,28,202,6600054,,,,,,,2025-07-17,1,,,,,ルングブ,0
1080,5140005027565,新規,0,2025-07-17,2025-07-17,行政書士法人ノブマツ,,その他の設立登記法人,兵庫県,尼崎市,大庄西町１丁目４０番１８－１号,,28,202,6600077,,,,,,,2025-07-17,1,,,,,ノブマツ,0
1087,5160001026916,新規,0,2025-07-17,2025-07-17,友幸貿易株式会社,,株式会社,滋賀県,彦根市,肥田町９８１－１－２０３号室,,25,202,5211123,,,,,,,2025-07-17,1,,,,,ユウコウボウエキ,0
1090,5180001167824,新規,0,2025-07-17,2025-07-17,株式会社Ｒｅａｒｉｓｅ,,株式会社,愛知県,名古屋市西区,鳥見町２丁目２２番地の１パークシティ鳥見Ｄ棟４０６号,,23,104,4510071,,,,,,,2025-07-17,1,,,,,リアライズ,0
1094,5180005021135,新規,0,2025-07-17,2025-07-17,特定非営利活動法人ＧＬＯＢＡＬ　ＫＩＤＳ　ＳＱＵＡＲＥ,,その他の設立登記法人,愛知県,名古屋市緑区,鳴海町字有松裏１０４番地の７,,23,114,4580824,,,,,,,2025-07-17,1,,,,,グローバルキッズスクウェア,0
1106,5200001044046,新規,0,2025-07-17,2025-07-17,Ａｂｏｄｅ株式会社,,株式会社,岐阜県,高山市,吹屋町１７１－１９,,21,203,5060831,,,,,,,2025-07-17,1,,,,,アボード,0
1110,5220003004079,新規,0,2025-07-17,2025-07-17,合同会社みつる建築,,合同会社,石川県,金沢市,横枕町ロ３６番地５,,17,201,9203135,,,,,,,2025-07-17,1,,,,,ミツルケンチク,0
1131,5290003017099,新規,0,2025-07-17,2025-07-17,合同会社ユニーク,,合同会社,福岡県,福岡市早良区,原８丁目３１番６－１０４号プレジデント白水ＩＩ,00139974,40,137,8140022,,,,,,,2025-07-17,1,,,,,ユニーク,0
1135,5310003005043,新規,0,2025-07-17,2025-07-17,合同会社セレンシア,,合同会社,長崎県,長崎市,坂本１丁目８番４号７０５号,,42,201,8528102,,,,,,,2025-07-17,1,,,,,セレンシア,0
1138,5320003004721,新規,0,2025-07-17,2025-07-17,合同会社Ｐｅａｃｅ　Ｏｆ　Ｍｉｎｄ,,合同会社,大分県,大分市,大字宮崎１５４８番地の６６,,44,201,8701133,,,,,,,2025-07-17,1,,,,,ピースオブマインド,0
1139,5330003011130,新規,0,2025-07-17,2025-07-17,合同会社ＳＫ企画,,合同会社,熊本県,熊本市東区,御領５丁目９番１０号,,43,102,8618035,,,,,,,2025-07-17,1,,,,,エスケーキカク,0
1144,5340001027490,新規,0,2025-07-17,2025-07-17,株式会社ＷｅｓｔＶｉｌｌａｇｅ,,株式会社,鹿児島県,熊毛郡中種子町,野間５１０５番地６,,46,501,8913604,,,,,,,2025-07-17,1,,,,,ウエストビレッジ,0
1146,5340003004901,新規,0,2025-07-17,2025-07-17,グッドア合同会社,,合同会社,鹿児島県,指宿市,十二町２５６０番地４,,46,210,8910403,,,,,,,2025-07-17,1,,,,,グッドア,0
1150,5360003015062,新規,0,2025-07-17,2025-07-17,合同会社ＣＨＵＲＡＯＫＩ,,合同会社,沖縄県,浦添市,字港川２７６－２－７０５,,47,208,9012134,,,,,,,2025-07-17,1,,,,,チュラオキ,0
1151,5360003015079,新規,0,2025-07-17,2025-07-17,合同会社マーケティングサポート,,合同会社,沖縄県,宜野湾市,宇地泊１丁目７－２０レキオススクエア２－Ｄ,,47,205,9012227,,,,,,,2025-07-17,1,,,,,マーケティングサポート,0
1155,5380001035465,新規,0,2025-07-17,2025-07-17,株式会社Ｇｒｅｅｔｈ,,株式会社,福島県,田村市,船引町石森字舘１０８番地,,07,211,9634313,,,,,,,2025-07-17,1,,,,,グリース,0
1168,5450001014676,新規,0,2025-07-17,2025-07-17,株式会社ミツイマップ,,株式会社,北海道,旭川市,末広一条９丁目３番７号,,01,204,0718131,,,,,,,2025-07-17,1,,,,,ミツイマップ,0
1170,5470001020796,新規,0,2025-07-17,2025-07-17,株式会社コトのはじまり,,株式会社,香川県,高松市,上林町５１０－３０エニシア高松,,37,201,7610302,,,,,,,2025-07-17,1,,,,,,0
1181,6010001256948,新規,0,2025-07-17,2025-07-17,株式会社イトキンサービス,,株式会社,東京都,中央区,銀座１丁目２２番１１号銀座大竹ビジデンス２Ｆ,,13,102,1040061,,,,,,,2025-07-17,1,,,,,イトキンサービス,0
1182,6010001256964,新規,0,2025-07-17,2025-07-17,株式会社セオラ,,株式会社,東京都,千代田区,神田神保町２丁目１０番地３１ＩＷビル１Ｆ,,13,101,1010051,,,,,,,2025-07-17,1,,,,,セオラ,0
1183,6010003048055,新規,0,2025-07-17,2025-07-17,Ｋｏａｌａ　Ｎｅｓｔ　Ｌｉｆｅ合同会社,,合同会社,東京都,文京区,本郷２丁目１５－１クレール本郷３０６号室,,13,105,1130033,,,,,,,2025-07-17,1,,,,,コアラネストライフ,0
1190,6010401191729,新規,0,2025-07-17,2025-07-17,株式会社ＢｉｚＳｏｎｇ,,株式会社,東京都,港区,北青山１丁目３番１号アールキューブ青山３階,,13,103,1070061,,,,,,,2025-07-17,1,,,,,ビズソング,0
1191,6010401191778,新規,0,2025-07-17,2025-07-17,東京鉄板ベース株式会社,,株式会社,東京都,港区,南麻布１丁目８番１６－１５０６号,,13,103,1060047,,,,,,,2025-07-17,1,,,,,トウキョウテッパンベース,0
1193,6010403035561,新規,0,2025-07-17,2025-07-17,セブンズ合同会社,,合同会社,東京都,港区,六本木７丁目７－７,,13,103,1060032,,,,,,,2025-07-17,1,,,,,セブンズ,0
1194,6010501054356,新規,0,2025-07-17,2025-07-17,株式会社ダイワホールディングス,,株式会社,東京都,台東区,池之端２丁目９番７号,,13,106,1100008,,,,,,,2025-07-17,1,,,,,ダイワホールディングス,0
1195,6010501054439,新規,0,2025-07-17,2025-07-17,ステイメイト株式会社,,株式会社,東京都,台東区,東上野６丁目１－１４コンフォリア東上野１３０７,,13,106,1100015,,,,,,,2025-07-17,1,,,,,ステイメイト,0
1202,6011001170742,新規,0,2025-07-17,2025-07-17,株式会社ｌｉｔ,,株式会社,東京都,渋谷区,恵比寿西２丁目８番４号ＥＸ恵比寿西ビル５階,,13,113,1500021,,,,,,,2025-07-17,1,,,,,リット,0
1203,6011001170833,新規,0,2025-07-17,2025-07-17,ＲＯＨＡＮＣＯ株式会社,,株式会社,東京都,渋谷区,神山町１６－４ヴィラメトロポリス３Ｆ,,13,113,1500047,,,,,,,2025-07-17,1,,,,,ロハンコ,0
1204,6011001170899,新規,0,2025-07-17,2025-07-17,株式会社ＧＬＯＢＥＳＴ,,株式会社,東京都,目黒区,上目黒５丁目１６番１２－２０５号グランドエクセル祐天寺,,13,110,1530051,,,,,,,2025-07-17,1,,,,,グローベスト,0
1205,6011001170965,新規,0,2025-07-17,2025-07-17,株式会社ａｎｉｓａｆｅ,,株式会社,東京都,渋谷区,円山町５番５号Ｎａｖｉ渋谷Ｖ３階,,13,113,1500044,,,,,,,2025-07-17,1,,,,,アニセフ,0
1206,6011001171294,新規,0,2025-07-17,2025-07-17,ＶＡＬＡＮＣＥ株式会社,,株式会社,東京都,渋谷区,元代々木町４６番４号プラウド元代々木町３０５,,13,113,1510062,,,,,,,2025-07-17,1,,,,,バランス,0
1210,6011101112487,新規,0,2025-07-17,2025-07-17,株式会社ファイン,,株式会社,東京都,新宿区,歌舞伎町２丁目１０番４号,,13,104,1600021,,,,,,,2025-07-17,1,,,,,ファイン,0
1213,6011401027261,新規,0,2025-07-17,2025-07-17,ＧＲＥＥ　ＧＬＥＥ株式会社,,株式会社,東京都,板橋区,赤塚新町１丁目２１番１号豊嶋屋ビル４階,,13,119,1750093,,,,,,,2025-07-17,1,,,,,グリーグリー,0
1220,6011803006961,新規,0,2025-07-17,2025-07-17,アイラフ合同会社,,合同会社,東京都,葛飾区,堀切４丁目２３番５号,,13,122,1240006,,,,,,,2025-07-17,1,,,,,アイラフ,0
1227,6013305003735,新規,0,2025-07-17,2025-07-17,一般社団法人志業サポート協会,,その他の設立登記法人,東京都,豊島区,東池袋２丁目６２番８号ＢＩＧオフィスプラザ池袋１２０６,,13,116,1700013,,,,,,,2025-07-17,1,,,,,シギョウサポートキョウカイ,0
1230,6020003028956,新規,0,2025-07-17,2025-07-17,合同会社ＳＵＭＯＡＩ,,合同会社,神奈川県,川崎市宮前区,犬蔵１丁目３１番１０号,,14,136,2160011,,,,,,,2025-07-17,1,,,,,スモアイ,0
1235,6021001085733,新規,0,2025-07-17,2025-07-17,株式会社明和リビングホーム,,株式会社,神奈川県,厚木市,飯山南２丁目２１番３号サンハイム駒ヶ原Ａ－２０１,,14,212,2430218,,,,,,,2025-07-17,1,,,,,メイワリビングホーム,0
1236,6021001085741,新規,0,2025-07-17,2025-07-17,相模原デジタルコンサルティング株式会社,,株式会社,神奈川県,相模原市緑区,橋本２丁目１８番１４号ＤＲＡＧＯＮ橋本六番館３０５号,,14,151,2520143,,,,,,,2025-07-17,1,,,,,サガミハラデジタルコンサルティング,0
1237,6021001085799,新規,0,2025-07-17,2025-07-17,株式会社Ｇｏｒｉｌｌａ　Ｆａｍｉｌｙ,,株式会社,神奈川県,大和市,南林間６丁目２２番１８－６０５号,,14,213,2420006,,,,,,,2025-07-17,1,,,,,ゴリラファミリー,0
1238,6021003016281,新規,0,2025-07-17,2025-07-17,合同会社トーワベーカリー,,合同会社,神奈川県,相模原市中央区,中央４丁目１２－１,,14,152,2520239,,,,,,,2025-07-17,1,,,,,トーワベーカリー,0
1239,6021003016298,新規,0,2025-07-17,2025-07-17,合同会社ＫＡＴＳＵ,,合同会社,神奈川県,藤沢市,片瀬５丁目１１番７号,,14,205,2510032,,,,,,,2025-07-17,1,,,,,カツ,0
1249,6050001056857,新規,0,2025-07-17,2025-07-17,加中通コンサルティング株式会社,,株式会社,茨城県,鉾田市,青柳字下野原２７２７番地９８,,08,234,3111535,,,,,,,2025-07-17,1,,,,,,0
1250,6050001056964,新規,0,2025-07-17,2025-07-17,株式会社ジーク,,株式会社,茨城県,常陸大宮市,宮の郷２１５３番地の２７,,08,225,3192205,,,,,,,2025-07-17,1,,,,,ジーク,0
1264,6100003008280,新規,0,2025-07-17,2025-07-17,合同会社つみきのじかん,,合同会社,長野県,飯田市,龍江３９６２－２,,20,205,3992221,,,,,,,2025-07-17,1,,,,,ツミキノジカン,0
1267,6120001277438,新規,0,2025-07-17,2025-07-17,株式会社ＡＰＬＡＹＭ,,株式会社,大阪府,大阪市東淀川区,豊里４丁目２番２７号,,27,114,5330013,,,,,,,2025-07-17,1,,,,,アプレイム,0
1269,6120003030035,新規,0,2025-07-17,2025-07-17,合同会社ＫＳ．Ｐｒｏ,,合同会社,大阪府,枚方市,中宮東之町９番４０号,,27,210,5731195,,,,,,,2025-07-17,1,,,,,ケーエスプロ,0
1270,6120005025025,新規,0,2025-07-17,2025-07-17,一般社団法人あみり,,その他の設立登記法人,大阪府,大阪市中央区,内本町１丁目４－３－３Ｆ,,27,128,5400026,,,,,,,2025-07-17,1,,,,,アミリ,0
1277,6120901051198,新規,0,2025-07-17,2025-07-17,株式会社ＰｅｔＢｏｎｄ,,株式会社,大阪府,高槻市,安岡寺町１丁目６７番７号,,27,207,5691029,,,,,,,2025-07-17,1,,,,,ペットボンド,0
1279,6120905006751,新規,0,2025-07-17,2025-07-17,一般社団法人茨木陸上ＤＲＥＡＭ　Ｐｒｏｇｒａｍ,,その他の設立登記法人,大阪府,吹田市,山田東４丁目１番３９号,,27,205,5650821,,,,,,,2025-07-17,1,,,,,イバラキリクジョウドリームプログラム,0
1280,6122003003251,新規,0,2025-07-17,2025-07-17,合同会社ゆうりんかん,,合同会社,大阪府,東大阪市,花園本町２丁目７５番１号,,27,227,5780937,,,,,,,2025-07-17,1,,,,,ユウリンカン,0
1282,6130001080106,新規,0,2025-07-17,2025-07-17,株式会社ＳＵＮＲＩＳＥ,,株式会社,京都府,京都市伏見区,小栗栖中山田町１６番地５７,,26,109,6011463,,,,,,,2025-07-17,1,,,,,サンライズ,0
1291,6140001139339,新規,0,2025-07-17,2025-07-17,愛詩美業株式会社,,株式会社,兵庫県,神戸市北区,有野町唐櫃４０２９番３－３０３号室,,28,109,6511331,,,,,,,2025-07-17,1,,,,,アイシビギョウ,0
1301,6180001167724,新規,0,2025-07-17,2025-07-17,むらとホールディングス株式会社,,株式会社,愛知県,名古屋市中村区,名駅３丁目２０－２０名駅錦ビル６Ｆ,,23,105,4500002,,,,,,,2025-07-17,1,,,,,ムラトホールディングス,0
1304,6180005021167,新規,0,2025-07-17,2025-07-17,一般社団法人名古屋地域療養支援協会,,その他の設立登記法人,愛知県,名古屋市瑞穂区,関取町５９番地,,23,108,4670058,,,,,,,2025-07-17,1,,,,,ナゴヤチイキリョウヨウシエンキョウカイ,0
1319,6240001065236,新規,0,2025-07-17,2025-07-17,株式会社ｎｅｘｔ　ｔｒｅｅ’ｓ,,株式会社,広島県,東広島市,西条町御薗宇５４８９番地６フィリア御薗宇１号室,,34,212,7390024,,,,,,,2025-07-17,1,,,,,ネクストツリーズ,0
1321,6260001040360,新規,0,2025-07-17,2025-07-17,Ｓｃｉｅｎｃｅ　Ｂｒａｎｄｉｎｇ株式会社,,株式会社,岡山県,岡山市北区,津島中３丁目１番１号岡山大学共創イノベーションラボＫＩＢＩＮＯＶＥ,,33,101,7000082,,,,,,,2025-07-17,1,,,,,サイエンスブランディング,0
1322,6260001040369,新規,0,2025-07-17,2025-07-17,株式会社ＡＭＩ‐ＫＥＮ,,株式会社,岡山県,岡山市東区,金岡西町６０６番地４,,33,103,7048193,,,,,,,2025-07-17,1,,,,,アミケン,0
1323,6260001040377,新規,0,2025-07-17,2025-07-17,株式会社オカコンＨＤ,,株式会社,岡山県,岡山市北区,富田一丁目２番２１号,,33,101,7000936,,,,,,,2025-07-17,1,,,,,オカコンエイチディ,0
1325,6260003005270,新規,0,2025-07-17,2025-07-17,合同会社ゼロ,,合同会社,岡山県,倉敷市,堀南８６０番地１　ＩＢＩＺＡ　ＲＥＳＩＤＥＮＣＥ１０３号,,33,202,7100841,,,,,,,2025-07-17,1,,,,,ゼロ,0
1326,6280001009461,新規,0,2025-07-17,2025-07-17,株式会社ｔｅｔｏｔｅ,,株式会社,島根県,益田市,中島町イ１６２４番地７,,32,204,6980043,,,,,,,2025-07-17,1,,,,,テトテ,0
1329,6290001110722,新規,0,2025-07-17,2025-07-17,株式会社リアライズコンサルティング,,株式会社,福岡県,福岡市博多区,中呉服町２ー７博多村山ビル４階,,40,132,8120035,,,,,,,2025-07-17,1,,,,,リアライズコンサルティング,0
1330,6290005019786,新規,0,2025-07-17,2025-07-17,一般社団法人二瀬まちづくり協議会,,その他の設立登記法人,福岡県,飯塚市,横田８０９番地,,40,205,8200044,,,,,,,2025-07-17,1,,,,,フタセマチヅクリキョウギカイ,0
1332,6290803005104,新規,0,2025-07-17,2025-07-17,ＡｐｐＳｔｕｄｉｏＯｎｅ合同会社,,合同会社,福岡県,北九州市八幡西区,町上津役西２丁目１０番１４号,,40,109,8070074,,,,,,,2025-07-17,1,,,,,アップスタジオワン,0
1339,6330001033357,新規,0,2025-07-17,2025-07-17,株式会社江南電機ホールディングス,,株式会社,熊本県,熊本市北区,植木町山本８８５番地,,43,105,8610101,,,,,,,2025-07-17,1,,,,,コウナンデンキホールディングス,0
1345,6360003015094,新規,0,2025-07-17,2025-07-17,合同会社Ｌｕｍｉｎａｓ,,合同会社,沖縄県,那覇市,古波蔵２丁目４番１５号第二開邦ビル１０２号室,,47,201,9000024,,,,,,,2025-07-17,1,,,,,ルミナス,0
1346,6360003015103,新規,0,2025-07-17,2025-07-17,合同会社Ｋ・Ｓ・Ｚ,,合同会社,沖縄県,宜野湾市,宜野湾３丁目２３番１号,,47,205,9012211,,,,,,,2025-07-17,1,,,,,ケイエスゼット,0
1348,6390001018055,新規,0,2025-07-17,2025-07-17,株式会社加地建設,,株式会社,山形県,米沢市,下花沢３丁目８番２－４号,,06,202,9920023,,,,,,,2025-07-17,1,,,,,カジケンセツ,0
1356,6430001094819,新規,0,2025-07-17,2025-07-17,株式会社ＦＵＪＩＴＡ,,株式会社,北海道,石狩市,緑苑台東三条３丁目４８番地,,01,235,0613223,,,,,,,2025-07-17,1,,,,,フジタ,0
1370,7010001256682,新規,0,2025-07-17,2025-07-17,菁嘆時光株式会社,,株式会社,東京都,中央区,日本橋茅場町２丁目１２番地１０号Ｈ１Ｏ－２階,,13,102,1030025,,,,,,,2025-07-17,1,,,,,ジンタンタイムズ,0
1371,7010001256947,新規,0,2025-07-17,2025-07-17,株式会社ＹＳアカウンティング,,株式会社,東京都,文京区,白山１丁目２６番５号,,13,105,1130001,,,,,,,2025-07-17,1,,,,,ワイエスアカウンティング,0
1372,7010001256988,新規,0,2025-07-17,2025-07-17,株式会社Ｆｌｕｆｆ,,株式会社,東京都,中央区,日本橋茅場町２丁目８－１ＢＲＩＣＫＧＡＴＥ茅場町Ｂ１階,,13,102,1030025,,,,,,,2025-07-17,1,,,,,フラッフ,0
1373,7010001257004,新規,0,2025-07-17,2025-07-17,コロンビアシップマネジメントジャパン株式会社,,株式会社,東京都,千代田区,内神田３丁目２番１２号,,13,101,1010047,,,,,,,2025-07-17,1,,,,,コロンビアシップマネジメントジャパン,0
1376,7010005040389,新規,0,2025-07-17,2025-07-17,東京レジＳＲ１２一般社団法人,,その他の設立登記法人,東京都,千代田区,丸の内１丁目４番１号東京共同会計事務所内,,13,101,1000005,,,,,,,2025-07-17,1,,,,,トウキョウレジエスアールトゥエルブ,0
1387,7010401191752,新規,0,2025-07-17,2025-07-17,株式会社ｚｅｎ９１,,株式会社,東京都,港区,赤坂８丁目５番８号ＴＥＲＲＡＣＥＨＩＬＬＡＯＹＡＭＡ３Ｆ,,13,103,1070052,,,,,,,2025-07-17,1,,,,,ゼンナインティワン,0
1391,7010403035544,新規,0,2025-07-17,2025-07-17,此花合同会社,,合同会社,東京都,港区,白金６丁目１７番２号,,13,103,1080072,,,,,,,2025-07-17,1,,,,,コノハナ,0
1392,7010403035585,新規,0,2025-07-17,2025-07-17,合同会社Ｅｃｏｈａｋｏ,,合同会社,東京都,港区,赤坂７丁目４番１８－５０２号,,13,103,1070052,,,,,,,2025-07-17,1,,,,,エコハコ,0
1402,7010901057750,新規,0,2025-07-17,2025-07-17,株式会社エボリューショナリー・デイズ,,株式会社,東京都,世田谷区,喜多見６丁目６番６号,,13,112,1570067,,,,,,,2025-07-17,1,,,,,エボリューショナリーデイズ,0
1403,7010901057759,新規,0,2025-07-17,2025-07-17,ＧｒｅｅｎＧｒｅｅｎＧｒｅｅｎ株式会社,,株式会社,東京都,世田谷区,代沢１丁目２９番５－３０３号,,13,112,1550032,,,,,,,2025-07-17,1,,,,,グリーングリーングリーン,0
1410,7011001170766,新規,0,2025-07-17,2025-07-17,ＲＥＯ眼鏡株式会社,,株式会社,東京都,渋谷区,富ヶ谷１丁目１４番１４号３Ｆ,,13,113,1510063,,,,,,,2025-07-17,1,,,,,アールイーオーメガネ,0
1411,7011101112461,新規,0,2025-07-17,2025-07-17,カームシー株式会社,,株式会社,東京都,新宿区,横寺町７番地,,13,104,1620831,,,,,,,2025-07-17,1,,,,,カームシー,0
1419,7012301014464,新規,0,2025-07-17,2025-07-17,株式会社ステラコメット,,株式会社,東京都,町田市,野津田町３７１６番地５,,13,209,1950063,,,,,,,2025-07-17,1,,,,,ステラコメット,0
1422,7013301054599,新規,0,2025-07-17,2025-07-17,株式会社ｐａｇｅ　ｄｅｕｘ,,株式会社,東京都,豊島区,南池袋２丁目６番１１号リヴァティ南池袋,,13,116,1710022,,,,,,,2025-07-17,1,,,,,パージュドゥ,0
1423,7013301054608,新規,0,2025-07-17,2025-07-17,株式会社かもあきカンパニー,,株式会社,東京都,豊島区,南池袋１丁目２６番６号,,13,116,1710022,,,,,,,2025-07-17,1,,,,,カモアキカンパニー,0
1428,7020003028947,新規,0,2025-07-17,2025-07-17,合同会社越智事務所,,合同会社,神奈川県,横浜市保土ケ谷区,初音ケ丘３４番６２号,,14,106,2400016,,,,,,,2025-07-17,1,,,,,,0
1429,7020003028955,新規,0,2025-07-17,2025-07-17,合同会社かいぞく,,合同会社,神奈川県,横浜市栄区,笠間４丁目９－１サングレイス大船４０４,,14,115,2470006,,,,,,,2025-07-17,1,,,,,カイゾク,0
1433,7021001085716,新規,0,2025-07-17,2025-07-17,株式会社大和エクステリア,,株式会社,神奈川県,大和市,深見３６００番地２ロイヤルプラザ大和６０６号室,,14,213,2420011,,,,,,,2025-07-17,1,,,,,ヤマトエクステリア,0
1436,7021003016215,新規,0,2025-07-17,2025-07-17,テラスワークス合同会社,,合同会社,神奈川県,藤沢市,弥勒寺３丁目４－２５,,14,205,2510016,,,,,,,2025-07-17,1,,,,,テラスワークス,0
1437,7021003016297,新規,0,2025-07-17,2025-07-17,合同会社富貿易,,合同会社,神奈川県,大和市,南林間２丁目１７番１５号,,14,213,2420006,,,,,,,2025-07-17,1,,,,,トミボウエキ,0
1446,7030003027221,新規,0,2025-07-17,2025-07-17,合同会社キタハル,,合同会社,埼玉県,川越市,大字笠幡７６２番地１６,,11,201,3501175,,,,,,,2025-07-17,1,,,,,キタハル,0
1451,7050001056963,新規,0,2025-07-17,2025-07-17,ホライズンインベストメント株式会社,,株式会社,茨城県,つくば市,みどりの南２８番地１０,,08,220,3050884,,,,,,,2025-07-17,1,,,,,ホライズンインベストメント,0
1452,7050001056971,新規,0,2025-07-17,2025-07-17,ＳＥＩＴＥＣＨ株式会社,,株式会社,茨城県,潮来市,日の出２丁目８番地３,,08,223,3112423,,,,,,,2025-07-17,1,,,,,,0
1454,7050003009432,新規,0,2025-07-17,2025-07-17,合同会社誉,,合同会社,茨城県,古河市,諸川字大竹１８０８番地４サンワハイツ６、２０２号室,,08,204,3060126,,,,,,,2025-07-17,1,,,,,ホマレ,0
1456,7070001043159,新規,0,2025-07-17,2025-07-17,株式会社ｍｏｊａｍｏｊａ　ａｐｐｓ,,株式会社,群馬県,北群馬郡吉岡町,大字大久保１６５６番地１,,10,345,3703602,,,,,,,2025-07-17,1,,,,,モジャモジャアップス,0
1458,7080101025659,新規,0,2025-07-17,2025-07-17,株式会社ＩＬＳＨＤ,,株式会社,静岡県,伊東市,玖須美元和田７３０番地の４８,,22,208,4140045,,,,,,,2025-07-17,1,,,,,アイエルエスエイチディー,0
1464,7120001277940,新規,0,2025-07-17,2025-07-17,株式会社ＶｉａＤｒｉｖｅ,,株式会社,大阪府,大阪市北区,西天満６丁目８番７号ＤＫビル７０３,,27,127,5300047,,,,,,,2025-07-17,1,,,,,ヴィアドライブ,0
1465,7120001277949,新規,0,2025-07-17,2025-07-17,路喜株式会社,,株式会社,大阪府,大阪市西区,本田４丁目９番２３号プレステア九条４０３号室,,27,106,5500022,,,,,,,2025-07-17,1,,,,,ロヨシ,0
1466,7120001278014,新規,0,2025-07-17,2025-07-17,株式会社仁,,株式会社,大阪府,大阪市港区,南市岡１丁目６番２号,,27,107,5520011,,,,,,,2025-07-17,1,,,,,ジン,0
1467,7120003030026,新規,0,2025-07-17,2025-07-17,合同会社ＯＭＣプロジェクト,,合同会社,大阪府,大阪市淀川区,東三国２丁目７番１６号１１号室,,27,123,5320002,,,,,,,2025-07-17,1,,,,,オーエムシープロジェクト,0
1468,7120003030034,新規,0,2025-07-17,2025-07-17,合同会社ヒデリンク,,合同会社,大阪府,大阪市淀川区,十三本町１丁目１６番１０－２０２号,,27,123,5320024,,,,,,,2025-07-17,1,,,,,ヒデリンク,0
1469,7120003030050,新規,0,2025-07-17,2025-07-17,瑞雲合同会社,,合同会社,大阪府,大阪市西成区,萩之茶屋２丁目６番４号ニューかめや２７５号,,27,122,5570004,,,,,,,2025-07-17,1,,,,,ズイウン,0
1471,7120005025049,新規,0,2025-07-17,2025-07-17,医療法人悠太会,,その他の設立登記法人,大阪府,大阪市浪速区,幸町２丁目８番１０,,27,111,5560021,,,,,,,2025-07-17,1,,,,,ユウタカイ,0
1474,7120103006578,新規,0,2025-07-17,2025-07-17,合同会社ナガタニ,,合同会社,大阪府,泉南市,中小路１丁目３－６,,27,228,5900533,,,,,,,2025-07-17,1,,,,,ナガタニ,0
1484,7140001139271,新規,0,2025-07-17,2025-07-17,株式会社ＫＫｗｏｒｋ’ｓ,,株式会社,兵庫県,神戸市西区,伊川谷町有瀬１４１４番地２,,28,111,6512113,,,,,,,2025-07-17,1,,,,,ケーケーワークス,0
1485,7140001139288,新規,0,2025-07-17,2025-07-17,株式会社ランズ,,株式会社,兵庫県,神戸市中央区,三宮町２丁目２番３号,,28,110,6500021,,,,,,,2025-07-17,1,,,,,ランズ,0
1486,7170001018720,新規,0,2025-07-17,2025-07-17,株式会社梅丸本舗松本紘斉堂,,株式会社,和歌山県,和歌山市,新和歌浦３番４５号,,30,201,6410023,,,,,,,2025-07-17,1,,,,,ウメマルホンポマツモトコウサイドウ,0
1502,7200001044052,新規,0,2025-07-17,2025-07-17,株式会社ＡＵＲＥＬＩＯ,,株式会社,岐阜県,岐阜市,菅生８丁目４番地９,,21,201,5020914,,,,,,,2025-07-17,1,,,,,アウレリオ,0
1505,7220001026809,新規,0,2025-07-17,2025-07-17,株式会社みたす,,株式会社,石川県,河北郡津幡町,字潟端４７９番地７,,17,361,9290346,,,,,,,2025-07-17,1,,,,,ミタス,0
1522,7250003003778,新規,0,2025-07-17,2025-07-17,ＳＥＷＡ　ＭＡＲＴ合同会社,,合同会社,山口県,周南市,入船町１５番地,,35,215,7450047,,,,,,,2025-07-17,1,,,,,セーワマート,0
1525,7280001009460,新規,0,2025-07-17,2025-07-17,株式会社Ｇｏｌｄ　ｃｏｍｐａｎｙ,,株式会社,島根県,益田市,本俣賀町３９５番地３,,32,204,6995122,,,,,,,2025-07-17,1,,,,,ゴールドカンパニー,0
1531,7290003017097,新規,0,2025-07-17,2025-07-17,Ｏｒａｎｇｅ合同会社,,合同会社,福岡県,久留米市,篠原町３－１７久留米篠原ビル３０１,,40,203,8300036,,,,,,,2025-07-17,1,,,,,オレンジ,0
1543,7340001027506,新規,0,2025-07-17,2025-07-17,株式会社ＨＹＴ,,株式会社,鹿児島県,鹿児島市,高麗町２３－１３,,46,201,8900051,,,,,,,2025-07-17,1,,,,,エイチワイティー,0
1547,7360001035457,新規,0,2025-07-17,2025-07-17,株式会社ＡＩＣＯ,,株式会社,沖縄県,那覇市,字国場１９０番地２,,47,201,9020075,,,,,,,2025-07-17,1,,,,,アイコ,0
1548,7360001035507,新規,0,2025-07-17,2025-07-17,株式会社栄行エステート,,株式会社,沖縄県,浦添市,港川２丁目２６番１号,,47,208,9012134,,,,,,,2025-07-17,1,,,,,エイコウエステート,0
1554,7380001035463,新規,0,2025-07-17,2025-07-17,株式会社三木建設工業,,株式会社,福島県,相馬市,尾浜字二合田１８０番地の２,,07,209,9760022,,,,,,,2025-07-17,1,,,,,ミキケンセツコウギョウ,0
1563,7430001094834,新規,0,2025-07-17,2025-07-17,ＨＯＫＫＡＩＤＯ　ＨＯＢＢＹ　ＨＯＭＥＳ株式会社,,株式会社,北海道,札幌市西区,西野八条３丁目１０番２３号,,01,107,0630038,,,,,,,2025-07-17,1,,,,,ホッカイドウホビーホームズ,0
1564,7430001094875,新規,0,2025-07-17,2025-07-17,株式会社エルアルコバレノ,,株式会社,北海道,札幌市中央区,宮の森二条１０丁目１番４０－３０２号,,01,101,0640952,,,,,,,2025-07-17,1,,,,,エルアルコバレノ,0
1569,7450003002693,新規,0,2025-07-17,2025-07-17,Ｆｅｌｉｃｉｄａｄ合同会社,,合同会社,北海道,旭川市,豊岡二条８丁目１番１０号,,01,204,0788232,,,,,,,2025-07-17,1,,,,,フェリシダド,0
1577,8010001256731,新規,0,2025-07-17,2025-07-17,ＲＢＳ株式会社,,株式会社,東京都,千代田区,神田錦町３丁目６番地７,,13,101,1010054,,,,,,,2025-07-17,1,,,,,アールビーエス,0
1578,8010001256946,新規,0,2025-07-17,2025-07-17,株式会社ＩＣＨＩＲＯＫＵ,,株式会社,東京都,千代田区,内神田２丁目１５番４号,,13,101,1010047,,,,,,,2025-07-17,1,,,,,イチロク,0
1579,8010001256979,新規,0,2025-07-17,2025-07-17,株式会社ＴＨＥ　ＣＯＲＥ,,株式会社,東京都,千代田区,神田錦町３丁目１５番地,,13,101,1010054,,,,,,,2025-07-17,1,,,,,ザコア,0
1580,8010001256987,新規,0,2025-07-17,2025-07-17,株式会社ＱＯＬＰａｔｈ,,株式会社,東京都,中央区,銀座１丁目２２番１１号銀座大竹ビジデンス２Ｆ,,13,102,1040061,,,,,,,2025-07-17,1,,,,,クオルパス,0
1581,8010001256995,新規,0,2025-07-17,2025-07-17,株式会社Ｊブライトコスメティクス,,株式会社,東京都,中央区,銀座１丁目１２番４号Ｎ＆ＥＢＬＤ．６Ｆ,,13,102,1040061,,,,,,,2025-07-17,1,,,,,,0
1583,8010003048004,新規,0,2025-07-17,2025-07-17,楚々合同会社,,合同会社,東京都,中央区,銀座７丁目１３番６号サガミビル２階,,13,102,1040061,,,,,,,2025-07-17,1,,,,,ソソ,0
1585,8010005040388,新規,0,2025-07-17,2025-07-17,東京レジＳＲ１１一般社団法人,,その他の設立登記法人,東京都,千代田区,丸の内１丁目４番１号東京共同会計事務所内,,13,101,1000005,,,,,,,2025-07-17,1,,,,,トウキョウレジエスアールイレブン,0
1595,8010401191545,新規,0,2025-07-17,2025-07-17,株式会社ＭＩＴＳＵＫＥＴＡ,,株式会社,東京都,港区,港南３丁目９番３３－６０８号,,13,103,1080075,,,,,,,2025-07-17,1,,,,,ミツケタ,0
1596,8010401191628,新規,0,2025-07-17,2025-07-17,香翠珠パシフィック株式会社,,株式会社,東京都,港区,六本木３丁目１６番１２号六本木ＫＳビル５Ｆ,,13,103,1060032,,,,,,,2025-07-17,1,,,,,ホンミドリタマパシフィック,0
1597,8010401191867,新規,0,2025-07-17,2025-07-17,株式会社ザイマックスカレス東京,,株式会社,東京都,港区,赤坂１丁目１番１号,,13,103,1070052,,,,,,,2025-07-17,1,,,,,ザイマックスカレストウキョウ,0
1600,8010403035568,新規,0,2025-07-17,2025-07-17,合同会社ヨシナリ,,合同会社,東京都,港区,白金１丁目１４－１Ｂｒｉｌｌｉａｉｓｔ白金高輪６０４,,13,103,1080072,,,,,,,2025-07-17,1,,,,,ヨシナリ,0
1601,8010403035576,新規,0,2025-07-17,2025-07-17,イブニングスター合同会社,,合同会社,東京都,港区,赤坂２丁目２３番１号アークヒルズ・フロントタワーＩｎＣｏｎｔｒｏｌ内,,13,103,1070052,,,,,,,2025-07-17,1,,,,,イブニングスター,0
1604,8010501054437,新規,0,2025-07-17,2025-07-17,リズミイ株式会社,,株式会社,東京都,台東区,浅草橋２丁目６番２号,,13,106,1110053,,,,,,,2025-07-17,1,,,,,リズミイ,0
1613,8010901057766,新規,0,2025-07-17,2025-07-17,ＩＲ　ＳＥＣＵＲＩＴＹ株式会社,,株式会社,東京都,世田谷区,宇奈根２丁目１６番９号コンフォートテラスＡｒａｉ－Ｂ１０２,,13,112,1570068,,,,,,,2025-07-17,1,,,,,アイアールセキュリティ,0
1614,8010901057774,新規,0,2025-07-17,2025-07-17,株式会社ＦＯＩ,,株式会社,東京都,世田谷区,梅丘２丁目１６－７,,13,112,1540022,,,,,,,2025-07-17,1,,,,,エフオーアイ,0
1622,8011001170848,新規,0,2025-07-17,2025-07-17,株式会社Ｍａｉｓｏｎ　Ａｍｏｕｒ,,株式会社,東京都,渋谷区,渋谷１丁目１番３号アミーホール３Ｆ,,13,113,1500002,,,,,,,2025-07-17,1,,,,,メゾンアムール,0
1624,8011003021990,新規,0,2025-07-17,2025-07-17,合同会社Ｒｅ．Ｌｉｆｅ　Ｃａｒｅｅｒ,,合同会社,東京都,渋谷区,神南１丁目１１番４号ＦＰＧリンクス神南５階,,13,113,1500041,,,,,,,2025-07-17,1,,,,,リライフキャリア,0
1627,8011101112485,新規,0,2025-07-17,2025-07-17,株式会社ＲＡＬＩＢＬＥ,,株式会社,東京都,新宿区,若葉１丁目１４－７四ツ谷ＨＯＵＳＥ１０３,,13,104,1600011,,,,,,,2025-07-17,1,,,,,ラリブル,0
1630,8011403004760,新規,0,2025-07-17,2025-07-17,合同会社ＬｕｘｅＡｓｃｅｎｄ,,合同会社,東京都,板橋区,徳丸４丁目４－５,,13,119,1750083,,,,,,,2025-07-17,1,,,,,ラックスアセンド,0
1639,8012301014463,新規,0,2025-07-17,2025-07-17,南町田レストラシオン株式会社,,株式会社,東京都,町田市,南町田１丁目４番９号,,13,209,1940005,,,,,,,2025-07-17,1,,,,,ミナミマチダレストラシオン,0
1641,8013301054623,新規,0,2025-07-17,2025-07-17,曜居不動産株式会社,,株式会社,東京都,豊島区,池袋３丁目１番１－２００４号,,13,116,1710014,,,,,,,2025-07-17,1,,,,,ヨウキョフドウサン,0
1642,8013303007760,新規,0,2025-07-17,2025-07-17,７７７合同会社,,合同会社,東京都,豊島区,東池袋１丁目４４－１０,,13,116,1700013,,,,,,,2025-07-17,1,,,,,ナナナナナナ,0
1643,8020001163919,新規,0,2025-07-17,2025-07-17,株式会社ＮＵＵＷＡ,,株式会社,神奈川県,横浜市西区,西平沼町１番２２－１０１４号,,14,103,2200024,,,,,,,2025-07-17,1,,,,,ニューワ,0
1647,8020003028938,新規,0,2025-07-17,2025-07-17,合同会社ＶａｌｕｅＱＡ,,合同会社,神奈川県,川崎市中原区,宮内４丁目２１番２３号プレシス等々力緑地グリーンパークス３０６,,14,133,2110051,,,,,,,2025-07-17,1,,,,,バリューキューエー,0
1648,8020003028954,新規,0,2025-07-17,2025-07-17,合同会社Ｍ＆Ｔ,,合同会社,神奈川県,横浜市鶴見区,矢向４丁目２８番１０号ＷｅｌｌＨｏｐｅＢ号室,,14,101,2300001,,,,,,,2025-07-17,1,,,,,エムアンドティ,0
1650,8021003016247,新規,0,2025-07-17,2025-07-17,ＴＲＥＮＤ‐ＳＨＩＦＴ合同会社,,合同会社,神奈川県,秦野市,寺山８６９番地の３,,14,211,2570023,,,,,,,2025-07-17,1,,,,,トレンドシフト,0
1651,8021003016255,新規,0,2025-07-17,2025-07-17,合同会社ファーストエコーズ,,合同会社,神奈川県,鎌倉市,腰越５丁目１８－１０－１,,14,204,2480033,,,,,,,2025-07-17,1,,,,,ファーストエコーズ,0
1655,8030001167613,新規,0,2025-07-17,2025-07-17,斉藤外装株式会社,,株式会社,埼玉県,川口市,戸塚南３丁目７番１６号,,11,203,3330817,,,,,,,2025-07-17,1,,,,,サイトウガイソウ,0
1658,8030005022211,新規,0,2025-07-17,2025-07-17,一般社団法人まちなかコミュニティアセットマネジメント,,その他の設立登記法人,埼玉県,熊谷市,筑波２丁目６９番地１,,11,202,3600037,,,,,,,2025-07-17,1,,,,,マチナカコミュニティアセットマネジメント,0
1670,8040003028060,新規,0,2025-07-17,2025-07-17,合同会社ＫＯＫＯＲＯ　ｓｃｉｅｎｃｅ,,合同会社,千葉県,浦安市,入船４丁目１７番２７－１Ｆ,,12,227,2790012,,,,,,,2025-07-17,1,,,,,ココロサイエンス,0
1673,8050005013670,新規,0,2025-07-17,2025-07-17,一般社団法人外食エリアマネージャー協会,,その他の設立登記法人,茨城県,古河市,東本町３丁目９番４６号,,08,204,3060013,,,,,,,2025-07-17,1,,,,,ガイショクエリアマネージャーキョウカイ,0
1676,8070001043158,新規,0,2025-07-17,2025-07-17,ｇｍｙ株式会社,,株式会社,群馬県,前橋市,若宮町１丁目１３－１（２ｆ）,,10,201,3710032,,,,,,,2025-07-17,1,,,,,ジーエムワイ,0
1681,8080401028039,新規,0,2025-07-17,2025-07-17,株式会社ツカサ,,株式会社,静岡県,浜松市浜名区,新原１６７７番地,,22,139,4340003,,,,,,,2025-07-17,1,,,,,ツカサ,0
1682,8080403005309,新規,0,2025-07-17,2025-07-17,合同会社コサト,,合同会社,静岡県,湖西市,利木１３６番地の７,,22,221,4310402,,,,,,,2025-07-17,1,,,,,コサト,0
1683,8080405007749,新規,0,2025-07-17,2025-07-17,特定非営利活動法人はままつ全快地蔵の会,,その他の設立登記法人,静岡県,浜松市中央区,半田山１丁目２０番１号,,22,138,4313125,,,,,,,2025-07-17,1,,,,,ハママツゼンカイジゾウノカイ,0
1693,8120001277741,新規,0,2025-07-17,2025-07-17,ｉｎｒｙｏｋｕ株式会社,,株式会社,大阪府,大阪市中央区,南船場３丁目２番２２号おおきに南船場ビル２０５,,27,128,5420081,,,,,,,2025-07-17,1,,,,,インリョク,0
1694,8120001277915,新規,0,2025-07-17,2025-07-17,安航株式会社,,株式会社,大阪府,大阪市西区,江之子島２丁目２番２１号レジスコート阿波座８０５号,,27,106,5500006,,,,,,,2025-07-17,1,,,,,アンコウ,0
1695,8120001277948,新規,0,2025-07-17,2025-07-17,株式会社ｇａｋｕ,,株式会社,大阪府,大阪市中央区,南本町１丁目６番７－２４０７号,,27,128,5410054,,,,,,,2025-07-17,1,,,,,ガク,0
1696,8120001278021,新規,0,2025-07-17,2025-07-17,ＢｉＢｉキャリア株式会社,,株式会社,大阪府,大阪市中央区,南船場３丁目７番２７号,,27,128,5420081,,,,,,,2025-07-17,1,,,,,ビビキャリア,0
1698,8120003030025,新規,0,2025-07-17,2025-07-17,合同会社ＯＭＣグループホーム,,合同会社,大阪府,大阪市淀川区,東三国２丁目７番１６号１１号室,,27,123,5320002,,,,,,,2025-07-17,1,,,,,オーエムシーグループホーム,0
1704,8120103006577,新規,0,2025-07-17,2025-07-17,Ｎｅｗ　Ｔｒｅｎｄ合同会社,,合同会社,大阪府,貝塚市,麻生中７５２－６－２０３号,,27,208,5970081,,,,,,,2025-07-17,1,,,,,ニュートレンド,0
1706,8120901051205,新規,0,2025-07-17,2025-07-17,株式会社ヒラックスエンジョイ,,株式会社,大阪府,高槻市,松が丘１丁目８番３号,,27,207,5691031,,,,,,,2025-07-17,1,,,,,ヒラックスエンジョイ,0
1707,8120903005778,新規,0,2025-07-17,2025-07-17,合同会社ＡＢＥＤＥＮＫＩ,,合同会社,大阪府,高槻市,深沢町２丁目２番８－２０１号,,27,207,5690035,,,,,,,2025-07-17,1,,,,,アベデンキ,0
1709,8130001080104,新規,0,2025-07-17,2025-07-17,株式会社自然とエネルギー,,株式会社,京都府,向日市,上植野町下川原３１－２,,26,208,6170006,,,,,,,2025-07-17,1,,,,,シゼントエネルギー,0
1712,8140001139287,新規,0,2025-07-17,2025-07-17,株式会社ＢＥＲＹＬ,,株式会社,兵庫県,西宮市,鷲林寺南町２３番２９号,,28,204,6620002,,,,,,,2025-07-17,1,,,,,ベリル,0
1716,8140003022318,新規,0,2025-07-17,2025-07-17,合同会社ＶＩＳＨＷＡＳ　ＩＣＨＩＢＡＮ,,合同会社,兵庫県,尼崎市,戸ノ内町２丁目１－７,,28,202,6610961,,,,,,,2025-07-17,1,,,,,ビスワスイチバン,0
1717,8150001028274,新規,0,2025-07-17,2025-07-17,株式会社Ｂｉｏｎｄｏ,,株式会社,奈良県,橿原市,内膳町１丁目４番１５号２階,,29,205,6340804,,,,,,,2025-07-17,1,,,,,ビヨンド,0
1721,8180001167755,新規,0,2025-07-17,2025-07-17,株式会社朱龍美,,株式会社,愛知県,海部郡大治町,大字長牧字浦畑３０番地,,23,424,4901131,,,,,,,2025-07-17,1,,,,,タツミ,0
1722,8180003028740,新規,0,2025-07-17,2025-07-17,合同会社Ｓｅｃｏｎｄｓ,,合同会社,愛知県,名古屋市緑区,鳴子町４丁目３２番地の１,,23,114,4580041,,,,,,,2025-07-17,1,,,,,セカンズ,0
1747,8240001065218,新規,0,2025-07-17,2025-07-17,株式会社ゼリアトピア,,株式会社,広島県,福山市,幕山台８丁目３番２３号,,34,207,7210913,,,,,,,2025-07-17,1,,,,,ゼリアトピア,0
1749,8260001040367,新規,0,2025-07-17,2025-07-17,株式会社はためき,,株式会社,岡山県,岡山市北区,駅元町２５－１４,,33,101,7000024,,,,,,,2025-07-17,1,,,,,ハタメキ,0
1750,8260001040375,新規,0,2025-07-17,2025-07-17,株式会社地域のミカタ,,株式会社,岡山県,津山市,東新町２すえひろビル２階,,33,203,7080832,,,,,,,2025-07-17,1,,,,,チイキノミカタ,0
1754,8290001110695,新規,0,2025-07-17,2025-07-17,炎和商事株式会社,,株式会社,福岡県,糟屋郡志免町,別府北２丁目１１番６号,,40,343,8112233,,,,,,,2025-07-17,1,,,,,エンワショウジ,0
1756,8290003017105,新規,0,2025-07-17,2025-07-17,合同会社菜の花会計コンサル,,合同会社,福岡県,筑紫野市,針摺東２丁目１０番３号,00139973,40,217,8180081,,,,,,,2025-07-17,1,,,,,ナノハナカイケイコンサル,0
1761,8320001021220,新規,0,2025-07-17,2025-07-17,コツコツ不動産株式会社,,株式会社,大分県,大分市,賀来北１丁目３－１６,,44,201,8700848,,,,,,,2025-07-17,1,,,,,コツコツフドウサン,0
1773,8370003007196,新規,0,2025-07-17,2025-07-17,合同会社Ｆｏｏｔｒａ,,合同会社,宮城県,仙台市青葉区,赤坂２丁目２８番地の１４,,04,101,9893211,,,,,,,2025-07-17,1,,,,,フートラ,0
1786,8430003017866,新規,0,2025-07-17,2025-07-17,合同会社ティーファミリー,,合同会社,北海道,札幌市東区,北四十九条東４丁目１番１５号,,01,103,0070849,,,,,,,2025-07-17,1,,,,,ティーファミリー,0
1787,8430003017908,新規,0,2025-07-17,2025-07-17,合同会社Ｇｒｏｏｖｅ　Ｗｏｒｋｓ,,合同会社,北海道,札幌市中央区,北二条東１丁目５番２号イーホライズン北２条ビルＢ１,,01,101,0600032,,,,,,,2025-07-17,1,,,,,グルーヴワークス,0
1793,8500001026416,新規,0,2025-07-17,2025-07-17,株式会社Ｋ．Ｓカンパニー,,株式会社,愛媛県,松山市,古川南１丁目２０番２２号,,38,201,7900943,,,,,,,2025-07-17,1,,,,,ケイエスカンパニー,0
1794,8700150047192,新規,0,2025-07-17,2015-10-09,第二地区まちづくり協議会,,その他,三重県,松阪市,垣鼻町６３３松阪市第二公民館内,,24,204,5150033,,,,,,,2015-10-09,1,,,,,ダイニチクマチヅクリキヨウギカイ,0
1813,9010001256945,新規,0,2025-07-17,2025-07-17,Ｍｉ‐ＳＯＲＡ株式会社,,株式会社,東京都,中央区,日本橋室町１丁目１１番１２号日本橋水野ビル７階,,13,102,1030022,,,,,,,2025-07-17,1,,,,,ミソラ,0
1814,9010001256986,新規,0,2025-07-17,2025-07-17,株式会社ｎｉｃａ　ｃｏｎｎｅｃｔ,,株式会社,東京都,中央区,銀座７丁目３番１３号ニューギンザビル１号館１階２号室,,13,102,1040061,,,,,,,2025-07-17,1,,,,,ニカコネクト,0
1817,9010003048028,新規,0,2025-07-17,2025-07-17,ジャパントレーディング合同会社,,合同会社,東京都,中央区,日本橋室町１丁目１１番１２号,,13,102,1030022,,,,,,,2025-07-17,1,,,,,ジャパントレーディング,0
1818,9010005040387,新規,0,2025-07-17,2025-07-17,東京レジＳＲ１０一般社団法人,,その他の設立登記法人,東京都,千代田区,丸の内１丁目４番１号東京共同会計事務所内,,13,101,1000005,,,,,,,2025-07-17,1,,,,,トウキョウレジエスアールテン,0
1830,9010401191718,新規,0,2025-07-17,2025-07-17,株式会社ＴＥＣＯ,,株式会社,東京都,港区,新橋５丁目２４番８号パークハビオ新橋１５０１,,13,103,1050004,,,,,,,2025-07-17,1,,,,,テコ,0
1831,9010401191726,新規,0,2025-07-17,2025-07-17,株式会社ホームテック,,株式会社,東京都,港区,高輪４丁目２３番６号ハイホーム高輪７０８,,13,103,1080074,,,,,,,2025-07-17,1,,,,,ホームテック,0
1832,9010401191750,新規,0,2025-07-17,2025-07-17,ＡＡ　Ｔｒａｄｉｎｇ株式会社,,株式会社,東京都,港区,浜松町２丁目３番８号,,13,103,1050013,,,,,,,2025-07-17,1,,,,,エーエートレーディング,0
1838,9010403035567,新規,0,2025-07-17,2025-07-17,合同会社ロウジャポン,,合同会社,東京都,港区,北青山１丁目３－１アールキューブ青山３階,,13,103,1070061,,,,,,,2025-07-17,1,,,,,ロウジャポン,0
1852,9010801036381,新規,0,2025-07-17,2025-07-17,株式会社Ｇｒｅａｔ　Ｃｏｍｂｏ,,株式会社,東京都,大田区,羽田１丁目１５番７号,,13,111,1440043,,,,,,,2025-07-17,1,,,,,グレイトコンボ,0
1853,9010901057765,新規,0,2025-07-17,2025-07-17,ＧＪＪ　Ｊａｐａｎ株式会社,,株式会社,東京都,世田谷区,等々力６丁目３７番１２号,,13,112,1580082,,,,,,,2025-07-17,1,,,,,ジージェージェージャパン,0
1862,9011001170756,新規,0,2025-07-17,2025-07-17,ウィステリアコード株式会社,,株式会社,東京都,渋谷区,恵比寿西２丁目４番８号ウィンド恵比寿ビル８Ｆ,,13,113,1500021,,,,,,,2025-07-17,1,,,,,ウィステリアコード,0
1863,9011001170888,新規,0,2025-07-17,2025-07-17,株式会社ＳｔｙｌＥｚｅ,,株式会社,東京都,渋谷区,恵比寿西２丁目４番８号ウィンド恵比寿ビル８Ｆ,,13,113,1500021,,,,,,,2025-07-17,1,,,,,スタイルエズ,0
1864,9011001171226,新規,0,2025-07-17,2025-07-17,株式会社ＴａｂｌｅＷｉｎ,,株式会社,東京都,渋谷区,恵比寿西２丁目８番４号ＥＸ恵比寿西ビル５階,,13,113,1500021,,,,,,,2025-07-17,1,,,,,テーブルウィン,0
1865,9011001171317,新規,0,2025-07-17,2025-07-17,株式会社ＳＫＲ,,株式会社,東京都,渋谷区,渋谷４丁目３番６号青山Ｋハイツ３０１,,13,113,1500002,,,,,,,2025-07-17,1,,,,,エスケーアール,0
1866,9011001171325,新規,0,2025-07-17,2025-07-17,株式会社Ｒｅｄｅｇｇ,,株式会社,東京都,渋谷区,道玄坂２丁目２０番２６号藤和エクシール１０７号室,,13,113,1500043,,,,,,,2025-07-17,1,,,,,レッドエッグ,0
1868,9011003021998,新規,0,2025-07-17,2025-07-17,合同会社アリゴー,,合同会社,東京都,渋谷区,円山町５番３号ＭＩＥＵＸ渋谷ビル８階,,13,113,1500044,,,,,,,2025-07-17,1,,,,,アリゴー,0
1874,9011301030742,新規,0,2025-07-17,2025-07-17,株式会社ディーア,,株式会社,東京都,杉並区,松庵１丁目５番８号,,13,115,1670054,,,,,,,2025-07-17,1,,,,,ディーア,0
1875,9011303005635,新規,0,2025-07-17,2025-07-17,合同会社和の志,,合同会社,東京都,杉並区,高円寺北２丁目１番１８号グリーンウェイブ高円寺１０１,,13,115,1660002,,,,,,,2025-07-17,1,,,,,ワノココロザシ,0
1876,9011401027259,新規,0,2025-07-17,2025-07-17,株式会社Ｅｎｍｏｉ,,株式会社,東京都,板橋区,常盤台１丁目４１－１０武蔵野ビル１階,,13,119,1740071,,,,,,,2025-07-17,1,,,,,エンモア,0
1882,9011701028535,新規,0,2025-07-17,2025-07-17,株式会社シホウヨシ,,株式会社,東京都,江戸川区,中葛西４丁目７番１－２０６号,,13,123,1340083,,,,,,,2025-07-17,1,,,,,シホウヨシ,0
1890,9013301054606,新規,0,2025-07-17,2025-07-17,株式会社ＮＯＸ,,株式会社,東京都,豊島区,東池袋５丁目７番２号ＣＩＴＹＰＲＩＭＥ池袋９０１,,13,116,1700013,,,,,,,2025-07-17,1,,,,,ノックス,0
1891,9013303007768,新規,0,2025-07-17,2025-07-17,合同会社Ｈｅｎａｒｅ,,合同会社,東京都,豊島区,上池袋４丁目１１－１４ＳＵＮＲＩＳＥ上池袋１Ｆ,,13,116,1700012,,,,,,,2025-07-17,1,,,,,ヘナーレ,0
1895,9020001163884,新規,0,2025-07-17,2025-07-17,株式会社ＢＷＣ,,株式会社,神奈川県,横浜市中区,伊勢佐木町５丁目１３０番地２福田ビル３Ｆ,,14,104,2310045,,,,,,,2025-07-17,1,,,,,ビーダブリューシー,0
1896,9020001163918,新規,0,2025-07-17,2025-07-17,株式会社ＳＡＩＮＴＳ　ＯＦ　ＷＯＲＫ,,株式会社,神奈川県,横浜市西区,北幸２丁目１０番４８号むつみビル３階,,14,103,2200004,,,,,,,2025-07-17,1,,,,,セインツオブワーク,0
1904,9021001085672,新規,0,2025-07-17,2025-07-17,株式会社和順工業,,株式会社,神奈川県,大和市,下和田２３番地７,,14,213,2420015,,,,,,,2025-07-17,1,,,,,カズノリコウギョウ,0
1909,9030003027203,新規,0,2025-07-17,2025-07-17,合同会社櫻澤笑会,,合同会社,埼玉県,和光市,白子１丁目１９－１,,11,229,3510101,,,,,,,2025-07-17,1,,,,,サクラザワショウカイ,0
1918,9070001043157,新規,0,2025-07-17,2025-07-17,株式会社Ｅｅｌデンキ,,株式会社,群馬県,前橋市,上泉町１０４６番地１,,10,201,3710007,,,,,,,2025-07-17,1,,,,,イールデンキ,0
1919,9070003006005,新規,0,2025-07-17,2025-07-17,合同会社会議室,,合同会社,群馬県,太田市,龍舞町５４２７番地２,,10,205,3730806,,,,,,,2025-07-17,1,,,,,カイギシツ,0
1921,9080401028038,新規,0,2025-07-17,2025-07-17,株式会社ｍａｈａｎａ,,株式会社,静岡県,浜松市中央区,有玉西町２４１５番地の２,,22,138,4313123,,,,,,,2025-07-17,1,,,,,マハナ,0
1924,9090001019386,新規,0,2025-07-17,2025-07-17,株式会社ＲＡＵＭ,,株式会社,山梨県,甲府市,国母５丁目１番１９号,,19,201,4000043,,,,,,,2025-07-17,1,,,,,ラウム,0
1926,9100003008278,新規,0,2025-07-17,2025-07-17,合同会社三輪車Ｄｕｃｋ,,合同会社,長野県,長野市,三輪３丁目１番１号,,20,201,3800803,,,,,,,2025-07-17,1,,,,,サンリンシャダック,0
1931,9120001277526,新規,0,2025-07-17,2025-07-17,株式会社Ｉ・ＴＯ・ＨＡＮ,,株式会社,大阪府,守口市,大枝南町１４番１２号,,27,209,5700051,,,,,,,2025-07-17,1,,,,,イトハン,0
1932,9120001277914,新規,0,2025-07-17,2025-07-17,ＳＡＨ株式会社,,株式会社,大阪府,大阪市中央区,糸屋町１丁目１番,,27,128,5400022,,,,,,,2025-07-17,1,,,,,エスエーエイチ,0
1933,9120001277947,新規,0,2025-07-17,2025-07-17,株式会社くじらの家建築・不動産,,株式会社,大阪府,大阪市港区,市岡４丁目５番４号,,27,107,5520012,,,,,,,2025-07-17,1,,,,,クジラノイエケンチクフドウサン,0
1934,9120001277988,新規,0,2025-07-17,2025-07-17,アイオンフューチャー株式会社,,株式会社,大阪府,大阪市西区,南堀江４丁目２９番１９号朝日プラザ南堀江５０４号,,27,106,5500015,,,,,,,2025-07-17,1,,,,,アイオンフューチャー,0
1936,9120003030024,新規,0,2025-07-17,2025-07-17,合同会社Ｒｅｅｅｋｅｎ,,合同会社,大阪府,大阪市西区,南堀江３丁目１４番３２－１１０１号,,27,106,5500015,,,,,,,2025-07-17,1,,,,,リーケン,0
1937,9120003030049,新規,0,2025-07-17,2025-07-17,合同会社Ｈａｒｒｙ　Ｍａｒｔ,,合同会社,大阪府,大阪市住吉区,東粉浜２丁目２１－１４Ｒｅ－ｈｏｍｅ東粉浜,,27,120,5580051,,,,,,,2025-07-17,1,,,,,ハリーマート,0
1938,9120003030057,新規,0,2025-07-17,2025-07-17,ＳＰ　ＥＳＳ２合同会社,,合同会社,大阪府,大阪市中央区,南船場２丁目６－３第２ＢＳビル６０１号室,,27,128,5420081,,,,,,,2025-07-17,1,,,,,エスピーイーエスエスツー,0
1940,9120005025030,新規,0,2025-07-17,2025-07-17,土地家屋調査士法人ＨＹＭＹ,,その他の設立登記法人,大阪府,大阪市淀川区,十三東３丁目２４番４司ビル６０２号,,27,123,5320023,,,,,,,2025-07-17,1,,,,,ヒミー,0
1943,9120903005760,新規,0,2025-07-17,2025-07-17,Ｙｏｓｈｉｍｕｒａ合同会社,,合同会社,大阪府,吹田市,千里丘北１－２２－１００８,,27,205,5650815,,,,,,,2025-07-17,1,,,,,ヨシムラ,0
1944,9120905006757,新規,0,2025-07-17,2025-07-17,医療法人憲理会,,その他の設立登記法人,大阪府,池田市,石橋１丁目１１番７号,,27,204,5630032,,,,,,,2025-07-17,1,,,,,ケンリカイ,0
1947,9130001080094,新規,0,2025-07-17,2025-07-17,株式会社Ｋ　Ｓｏｌｕｔｉｏｎ,,株式会社,京都府,亀岡市,本梅町平松谷ケ奥１０番地２３,,26,206,6210251,,,,,,,2025-07-17,1,,,,,ケーソリューション,0
1948,9130003010603,新規,0,2025-07-17,2025-07-17,合同会社ＡＳＡＤＡ,,合同会社,京都府,京都市伏見区,舞台町３５番地２ディオ・フェルティ丹波橋右芳館６１２号室,,26,109,6128338,,,,,,,2025-07-17,1,,,,,アサダ,0
1953,9140001139286,新規,0,2025-07-17,2025-07-17,コルディアル神戸株式会社,,株式会社,兵庫県,三田市,大原１５３２番地１２,,28,219,6691515,,,,,,,2025-07-17,1,,,,,コルディアルコウベ,0
1954,9140001139393,新規,0,2025-07-17,2025-07-17,株式会社サピクト,,株式会社,兵庫県,神戸市中央区,下山手通２丁目１３－３,,28,110,6500011,,,,,,,2025-07-17,1,,,,,サピクト,0
1968,9180001167663,新規,0,2025-07-17,2025-07-17,東大国際医療株式会社,,株式会社,愛知県,名古屋市瑞穂区,瑞穂通７丁目１番地ライオンズガーデン瑞穂通１２０１号,,23,108,4670806,,,,,,,2025-07-17,1,,,,,トウダイコクサイイリョウ,0
1972,9180005021164,新規,0,2025-07-17,2025-07-17,医療法人英,,その他の設立登記法人,愛知県,名古屋市千種区,南明町３丁目６０－６,,23,101,4640845,,,,,,,2025-07-17,1,,,,,ハナブサ,0
1977,9200003006924,新規,0,2025-07-17,2025-07-17,合同会社ＮＡＴ．,,合同会社,岐阜県,郡上市,大和町栗巣１４８７番地,,21,219,5014603,,,,,,,2025-07-17,1,,,,,エヌエーティー,0
1986,9230001020998,新規,0,2025-07-17,2025-07-17,ハナガタカンパニー株式会社,,株式会社,富山県,富山市,横内４１７番地,,16,201,9398033,,,,,,,2025-07-17,1,,,,,ハナガタカンパニー,0
1991,9240001065241,新規,0,2025-07-17,2025-07-17,株式会社Ｙ’ｓ建築工房,,株式会社,広島県,広島市中区,舟入川口町４番２８号・１０１,,34,101,7300845,,,,,,,2025-07-17,1,,,,,ユズケンチクコウボウ,0
1993,9250003003776,新規,0,2025-07-17,2025-07-17,合同会社メゾンデュラパレット,,合同会社,山口県,周南市,原宿町４番３号メゾンデュラパレット,,35,215,7450065,,,,,,,2025-07-17,1,,,,,メゾンデュラパレット,0
1995,9260001040374,新規,0,2025-07-17,2025-07-17,岡山テクノス株式会社,,株式会社,岡山県,岡山市北区,津高７８２番地６,,33,101,7011152,,,,,,,2025-07-17,1,,,,,オカヤマテクノス,0
1999,9290001110769,新規,0,2025-07-17,2025-07-17,株式会社ＥｆｆｅｃｔＭａｎ　Ｓｔｕｄｉｏ,,株式会社,福岡県,福津市,西福間３丁目３４番２２号,,40,224,8113219,,,,,,,2025-07-17,1,,,,,エフェクトマンスタジオ,0
2002,9290801031719,新規,0,2025-07-17,2025-07-17,株式会社肉のハッピー,,株式会社,福岡県,直方市,大字山部２４４番地１４　７０７号,,40,204,8220034,,,,,,,2025-07-17,1,,,,,ニクノハッピー,0
2008,9330001033370,新規,0,2025-07-17,2025-07-17,株式会社尾里農園,,株式会社,熊本県,球磨郡錦町,大字一武３４９０番地１,,43,501,8680302,,,,,,,2025-07-17,1,,,,,オザトノウエン,0
2009,9340001027512,新規,0,2025-07-17,2025-07-17,株式会社昭和施工,,株式会社,鹿児島県,鹿児島市,和田２丁目２５番１８番,,46,201,8910143,,,,,,,2025-07-17,1,,,,,ショウワセコウ,0
2010,9350001019665,新規,0,2025-07-17,2025-07-17,株式会社ＩＩＳ,,株式会社,宮崎県,宮崎市,松橋２丁目１２番１７号ヴィラＫ′ｓ４０７号,,45,201,8800013,,,,,,,2025-07-17,1,,,,,アイアイエス,0
2011,9360001035496,新規,0,2025-07-17,2025-07-17,ＳＫ　ｒａｐｐｏｒｔ株式会社,,株式会社,沖縄県,那覇市,首里儀保町３丁目１５番地丸真ビル２階,,47,201,9030821,,,,,,,2025-07-17,1,,,,,エスケイラポール,0
2013,9370001052846,新規,0,2025-07-17,2025-07-17,株式会社野遊,,株式会社,宮城県,宮城郡七ヶ浜町,汐見台南１丁目２６番地の１,,04,404,9850822,,,,,,,2025-07-17,1,,,,,ヤユウ,0
2028,9430001094816,新規,0,2025-07-17,2025-07-17,株式会社北賢,,株式会社,北海道,札幌市北区,篠路七条５丁目６番２５号,,01,102,0028027,,,,,,,2025-07-17,1,,,,,ホッケン,0
2035,9700150131417,新規,0,2025-07-17,2025-07-17,三田市広野駅西土地区画整理組合,,その他,兵庫県,三田市,三輪２丁目１番１号,,28,219,6691513,,,,,,,2025-07-17,1,,,,,サンダシヒロノエキニシトチクカクセイリクミアイ,0
