sequenceNumber,corporateNumber,process,correct,updateDate,changeDate,name,nameImageId,kind,prefectureName,cityName,streetNumber,addressImageId,prefectureCode,cityCode,postCode,addressOutside,addressOutsideImageId,closeDate,closeCause,successorCorporateNumber,changeCause,assignmentDate,latest,enName,enPrefectureName,enCityName,enAddressOutside,furigana,hihyoji
13,1010003036064,登記記録の閉鎖等,0,2024-02-29,2024-02-26,合同会社加須ディベロップメント,,合同会社,東京都,千代田区,丸の内３丁目１番１号東京共同会計事務所内,,13,101,1000005,,,2024-02-26,清算の結了等,,,2021-10-20,1,,,,,カゾディベロップメント,0
19,1010401144897,登記記録の閉鎖等,0,2024-02-29,2024-02-27,株式会社インヴィニオＸ,,株式会社,東京都,港区,浜松町２丁目２番１５号,,13,103,1050013,,,2024-02-27,清算の結了等,,,2019-04-19,1,,,,,インヴィニオクロス,0
25,1010403011360,登記記録の閉鎖等,0,2024-02-29,2024-02-27,合同会社麻布会計事務所,,合同会社,東京都,港区,虎ノ門３丁目１８番１２－１００１号,,13,103,1050001,,,2024-02-27,清算の結了等,,,2015-10-05,1,,,,,アザブカイケイジムショ,0
33,1010602018719,登記記録の閉鎖等,0,2024-02-29,2024-02-22,ケニーズリアルステイト有限会社,,有限会社,東京都,墨田区,東向島５丁目３番８号,,13,107,1310032,,,2024-02-22,合併による解散等,5010601008691,令和６年２月２２日東京都墨田区東向島五丁目３番８号株式会社イシス（5010601008691）に合併し解散,2015-10-05,1,,,,,,0
40,1010802012554,登記記録の閉鎖等,0,2024-02-29,2024-02-22,有限会社藤江フーズ,,有限会社,東京都,大田区,東蒲田２丁目１９番３号,,13,111,1440031,,,2024-02-22,清算の結了等,,,2015-10-05,1,,,,,,0
46,1011001063257,登記記録の閉鎖等,0,2024-02-29,2024-02-13,株式会社サイブリッジ,,株式会社,東京都,新宿区,新宿３丁目１２番４号,,13,104,1600022,,,2024-02-13,合併による解散等,7011003005276,令和６年２月１日東京都渋谷区渋谷三丁目１番９号ＤＸエンゲージメントパートナーズ合同会社（7011003005276）に合併し解散,2015-10-05,1,,,,,サイブリッジ,0
50,1011001149709,登記記録の閉鎖等,0,2024-02-29,2024-02-20,株式会社ＣＨＡＰＩＣ,,株式会社,東京都,渋谷区,道玄坂１丁目１０番８号渋谷道玄坂東急ビル２Ｆ－Ｃ,,13,113,1500043,,,2024-02-20,清算の結了等,,,2022-09-13,1,,,,,チャピック,0
59,1011203003911,登記記録の閉鎖等,0,2024-02-29,2024-02-27,合同会社ＳＫＴ,,合同会社,東京都,中野区,野方６丁目３６番１５号レオのがた１０１,,13,114,1650027,,,2024-02-27,清算の結了等,,,2022-09-20,1,,,,,エスケイティ,0
60,1011401010874,登記記録の閉鎖等,0,2024-02-29,2024-02-27,株式会社ビューフロンティア,,株式会社,埼玉県,川口市,戸塚東３丁目３３番１号,,11,203,3330802,,,2024-02-27,清算の結了等,,,2015-10-05,1,,,,,ビューフロンティア,0
65,1011801024912,登記記録の閉鎖等,0,2024-02-29,2024-02-27,株式会社オオモリ,,株式会社,東京都,葛飾区,水元３丁目１５番８号,,13,122,1250032,,,2024-02-27,清算の結了等,,,2015-10-05,1,,,,,オオモリ,0
76,1013102003125,登記記録の閉鎖等,0,2024-02-29,2024-02-27,有限会社マックス,,有限会社,東京都,西多摩郡瑞穂町,箱根ケ崎西松原４４番地４５,,13,303,1901223,,,2024-02-27,清算の結了等,,,2015-10-05,1,,,,,マックス,0
85,1020003023573,登記記録の閉鎖等,0,2024-02-29,2024-02-15,合同会社しんともり,,合同会社,神奈川県,横浜市神奈川区,松見町２丁目４１９－３１,,14,102,2210005,,,2024-02-15,清算の結了等,,,2023-03-23,1,,,,,シントモリ,0
100,1030001117970,登記記録の閉鎖等,0,2024-02-29,2024-02-27,光コーポレーション株式会社,,株式会社,埼玉県,春日部市,一ノ割１丁目１０番２９号,,11,214,3440031,,,2024-02-27,清算の結了等,,,2017-01-11,1,,,,,ヒカリコーポレーション,0
127,1060005002415,登記記録の閉鎖等,0,2024-02-29,2024-02-05,金光教日光教会,,その他の設立登記法人,栃木県,日光市,稲荷町２丁目３６８番地の１０,,09,206,3211411,,,2024-02-05,合併による解散等,5060005000134,令和６年２月５日栃木県宇都宮市昭和二丁目４番２９号金光教宇都宮教会（5060005000134）に合併し解散,2015-10-05,1,,,,,コンコウキョウニッコウキョウカイ,0
128,1070001027893,登記記録の閉鎖等,0,2024-02-29,2024-02-27,株式会社トリンプル,,株式会社,群馬県,高崎市,白銀町９番地,,10,202,3700825,,,2024-02-27,清算の結了等,,,2015-10-05,1,,,,,トリンプル,0
135,1080102001680,登記記録の閉鎖等,0,2024-02-29,2024-02-27,有限会社清水畳店,,有限会社,静岡県,沼津市,双葉町７番４５号,,22,203,4100005,,,2024-02-27,清算の結了等,,,2015-10-05,1,,,,,シミズタタミテン,0
137,1080103000649,登記記録の閉鎖等,0,2024-02-29,2024-02-26,合資会社富士商事,,合資会社,静岡県,富士市,天間１３番地の２,,22,210,4190205,,,2024-02-26,清算の結了等,,,2015-10-05,1,,,,,フジショウジ,0
165,1122001032257,登記記録の閉鎖等,0,2024-02-29,2024-02-28,株式会社龍門,,株式会社,大阪府,八尾市,東本町３丁目５番７号,,27,212,5810004,,,2024-02-28,清算の結了等,,,2019-01-08,1,,,,,リュウモン,0
180,1180002067382,登記記録の閉鎖等,0,2024-02-29,2024-02-26,有限会社マルニシ商事,,有限会社,愛知県,名古屋市中川区,万場４丁目１０４番地,,23,110,4540997,,,2024-02-26,清算の結了等,,,2015-10-05,1,,,,,マルニシショウジ,0
189,1200001035222,登記記録の閉鎖等,0,2024-02-29,2024-02-28,株式会社デュアルマーケティング,,株式会社,岐阜県,各務原市,蘇原希望町３丁目１３番地２,,21,213,5040829,,,2024-02-28,清算の結了等,,,2018-05-31,1,,,,,デュアルマーケティング,0
222,1370001005745,登記記録の閉鎖等,0,2024-02-29,2024-02-27,株式会社長瀬ボーリング,,株式会社,宮城県,仙台市宮城野区,日の出町２丁目５番１０号,,04,102,9830035,,,2024-02-27,清算の結了等,,,2015-10-05,1,,,,,ナガセボーリング,0
236,1430005007062,登記記録の閉鎖等,0,2024-02-29,2024-02-01,神道大教南大夕張神社,,その他の設立登記法人,北海道,夕張市,南部大宮町１１９番地,,01,209,0680544,,,2024-02-01,合併による解散等,3430005004801,令和６年２月１日北海道北広島市輪厚中央五丁目３番地１６神道大教札幌八幡宮（3430005004801）に合併し解散,2015-10-05,1,,,,,シントウダイキョウミナミオオユバリジンジャ,0
240,1500005007526,登記記録の閉鎖等,0,2024-02-29,2024-02-13,ＮＰＯ法人四国青年ＮＧＯ　ＨＯＰＥ,,その他の設立登記法人,高知県,高知市,土居町５－１３杉本ビル土居町１０２,,39,201,7818001,,,2024-02-13,清算の結了等,,,2015-10-05,1,,,,,シコクセイネンエヌジーオーホープ,0
250,2010005018984,登記記録の閉鎖等,0,2024-02-29,2024-02-28,弁護士法人東京ミネルヴァ法律事務所,,その他の設立登記法人,東京都,港区,新橋２丁目１２番１７号新橋Ｉ－Ｎビル９階,,13,103,1050004,,,2024-02-28,清算の結了等,,,2015-10-05,1,,,,,トウキョウミネルヴァホウリツジムショ,0
252,2010005033042,登記記録の閉鎖等,0,2024-02-29,2024-02-28,一般社団法人ムーンサルト,,その他の設立登記法人,東京都,千代田区,丸の内３丁目１番１号東京共同会計事務所内,,13,101,1000005,,,2024-02-28,清算の結了等,,,2021-03-09,1,,,,,ムーンサルト,0
253,2010401121284,登記記録の閉鎖等,0,2024-02-29,2024-02-07,ヴェンティ株式会社,,株式会社,東京都,港区,麻布十番２丁目８番１５号,,13,103,1060045,,,2024-02-07,清算の結了等,,,2015-10-30,1,,,,,ヴェンティ,0
256,2010401160167,登記記録の閉鎖等,0,2024-02-29,2024-02-26,株式会社イプサージュ,,株式会社,茨城県,常総市,大塚戸町５４９－１,,08,211,3030045,,,2024-02-26,清算の結了等,,,2021-05-19,1,,,,,イプサージュ,0
266,2010702007323,登記記録の閉鎖等,0,2024-02-29,2024-02-28,有限会社プレゼント,,有限会社,神奈川県,大和市,中央林間５丁目７番２０号杉田ビル２階,,14,213,2420007,,,2024-02-28,清算の結了等,,,2015-10-05,1,,,,,プレゼント,0
293,2012301007902,登記記録の閉鎖等,0,2024-02-29,2024-02-20,株式会社レインボーハウス,,株式会社,東京都,町田市,原町田４丁目５番１８号,,13,209,1940013,,,2024-02-20,清算の結了等,,,2015-10-05,1,,,,,レインボーハウス,0
298,2020001140733,登記記録の閉鎖等,0,2024-02-29,2024-02-26,めぐみ自然食品株式会社,,株式会社,神奈川県,川崎市高津区,新作５丁目３番２８号,,14,134,2130014,,,2024-02-26,清算の結了等,,,2021-04-06,1,,,,,メグミシゼンショクヒン,0
308,2021001057728,登記記録の閉鎖等,0,2024-02-29,2024-02-20,ＳＥＣプランニング株式会社,,株式会社,東京都,町田市,森野１丁目２２番１４号,,13,209,1940022,,,2024-02-20,清算の結了等,,,2015-11-09,1,,,,,エスイーシープランニング,0
330,2050001029049,登記記録の閉鎖等,0,2024-02-29,2024-02-26,株式会社アイバフードサービス,,株式会社,茨城県,取手市,取手２丁目１５番１９－１０３号,,08,217,3020004,,,2024-02-26,清算の結了等,,,2015-10-05,1,,,,,,0
340,2080102012256,登記記録の閉鎖等,0,2024-02-29,2024-02-28,有限会社エムアンドイー,,有限会社,静岡県,駿東郡長泉町,中土狩８８８番地の１１,,22,342,4110942,,,2024-02-28,清算の結了等,,,2015-10-05,1,,,,,エムアンドイー,0
343,2100002033127,登記記録の閉鎖等,0,2024-02-29,2024-02-21,有限会社二幸,,有限会社,長野県,上伊那郡南箕輪村,９５５６番地１０,,20,385,3994511,,,2024-02-21,清算の結了等,,,2015-10-05,1,,,,,ニコウ,0
344,2100003004597,登記記録の閉鎖等,0,2024-02-29,2024-02-20,センサー・ラボ合同会社,,合同会社,長野県,飯田市,上郷飯沼３１９２番地１３,,20,205,3950002,,,2024-02-20,清算の結了等,,,2017-02-20,1,,,,,センサーラボ,0
347,2120001010034,登記記録の閉鎖等,0,2024-02-29,2024-02-29,シンコーエンジニアリング株式会社,,株式会社,大阪府,大阪市東住吉区,田辺６丁目４番２２号,,27,121,5460031,,,2024-02-29,清算の結了等,,,2015-10-05,1,,,,,シンコーエンジニアリング,0
372,2140001046381,登記記録の閉鎖等,0,2024-02-29,2024-02-26,エム・コーポレーション株式会社,,株式会社,兵庫県,加古郡稲美町,国安４１１番地,,28,381,6751114,,,2024-02-26,清算の結了等,,,2015-10-05,1,,,,,エムコーポレーション,0
376,2140001082625,登記記録の閉鎖等,0,2024-02-29,2024-02-21,株式会社森原システムエンジニアリング,,株式会社,兵庫県,神戸市中央区,中町通２丁目１番１８号ＪＲ神戸駅ＮＫビル６階,,28,110,6500027,,,2024-02-21,清算の結了等,,,2015-10-05,1,,,,,モリハラシステムエンジニアリング,0
399,2200001008623,登記記録の閉鎖等,0,2024-02-29,2024-02-26,株式会社ＣＵＥ,,株式会社,岐阜県,岐阜市,一日市場３丁目７９番地１,,21,201,5010103,,,2024-02-26,清算の結了等,,,2015-10-05,1,,,,,シーユーイー,0
402,2200003000512,登記記録の閉鎖等,0,2024-02-29,2024-02-29,合資会社エス・ディー・シー,,合資会社,岐阜県,岐阜市,神室町３丁目１０番地,,21,201,5008878,,,2024-02-29,清算の結了等,,,2015-10-05,1,,,,,エスディーシー,0
417,2250002017949,登記記録の閉鎖等,0,2024-02-29,2024-02-27,有限会社釘屋商店,,有限会社,山口県,岩国市,今津町５丁目４番１９号,,35,208,7400017,,,2024-02-27,清算の結了等,,,2015-10-05,1,,,,,クギヤショウテン,0
447,2350002001331,登記記録の閉鎖等,0,2024-02-29,2024-02-22,有限会社久工務店,,有限会社,宮崎県,宮崎市,大字瓜生野１５６０番地,,45,201,8800044,,,2024-02-22,清算の結了等,,,2015-10-05,1,,,,,キュウコウムテン,0
450,2360002009324,登記記録の閉鎖等,0,2024-02-29,2024-02-26,有限会社Ｒｕｒｉａｎ,,有限会社,沖縄県,糸満市,字福地１６９番地２階,,47,210,9010345,,,2024-02-26,清算の結了等,,,2015-10-05,1,,,,,ルリアン,0
461,2450001009877,登記記録の閉鎖等,0,2024-02-29,2024-02-27,スパイシーボックス株式会社,,株式会社,北海道,上川郡美瑛町,字辺別太５３６番地１７０,,01,459,0710200,,,2024-02-27,清算の結了等,,,2015-10-05,1,,,,,スパイシーボックス,0
463,2480005000334,登記記録の閉鎖等,0,2024-02-29,2024-02-26,医療法人関内科・消化器科,,その他の設立登記法人,徳島県,徳島市,仲之町４丁目５番地,,36,201,7700932,,,2024-02-26,清算の結了等,,,2015-10-05,1,,,,,セキナイカショウカキカ,0
469,3010001195380,登記記録の閉鎖等,0,2024-02-29,2024-02-21,株式会社セルビューティ,,株式会社,東京都,中央区,銀座１丁目２２番１１号銀座大竹ビジデンス２階,,13,102,1040061,,,2024-02-21,清算の結了等,,,2018-10-09,1,,,,,セルビューティ,0
478,3010003031699,登記記録の閉鎖等,0,2024-02-29,2024-02-22,中日本ロジ合同会社,,合同会社,東京都,千代田区,平河町１丁目６番１５号シルスフィア会計事務所内,,13,101,1020093,,,2024-02-22,清算の結了等,,,2020-02-21,1,,,,,ナカニホンロジ,0
491,3010405019292,登記記録の閉鎖等,0,2024-02-29,2024-02-26,多摩センター特定目的会社,,その他の設立登記法人,東京都,港区,元赤坂１丁目１番８号赤坂コミュニティビル４階,,13,103,1070051,,,2024-02-26,清算の結了等,,,2020-11-27,1,,,,,タマセンター,0
501,3010503004568,登記記録の閉鎖等,0,2024-02-29,2024-02-26,Ｙ．Ｋインフォテック株式会社,,株式会社,東京都,足立区,竹の塚５丁目１６－１５たかむれビル３階,,13,121,1210813,,,2024-02-26,清算の結了等,,,2016-01-08,1,,,,,ワイケーインフォテック,0
506,3010705002238,登記記録の閉鎖等,0,2024-02-29,2024-02-27,次世代海洋資源調査技術研究組合,,その他の設立登記法人,東京都,文京区,大塚１丁目５番２１号（株式会社地球科学総合研究所内）,,13,105,1120012,,,2024-02-27,清算の結了等,,,2015-10-05,1,,,,,ジセダイカイヨウシゲンチョウサ,0
513,3011001150417,登記記録の閉鎖等,0,2024-02-29,2024-02-20,株式会社ＬＩＦＥ,,株式会社,東京都,渋谷区,代々木５丁目３６番８－１０４号ＥＸＡＭ代々木八幡,,13,113,1510053,,,2024-02-20,清算の結了等,,,2022-10-24,1,,,,,ライフ,0
520,3011301004025,登記記録の閉鎖等,0,2024-02-29,2024-02-21,シンクライフ株式会社,,株式会社,東京都,杉並区,高円寺南２丁目３４番１６号,,13,115,1660003,,,2024-02-21,清算の結了等,,,2015-10-05,1,,,,,シンクライフ,0
522,3011303002019,登記記録の閉鎖等,0,2024-02-29,2024-02-22,合同会社ぴすたちお,,合同会社,東京都,世田谷区,代沢４丁目２８番１２号ＫＳハイム３Ｄ,,13,112,1550032,,,2024-02-22,清算の結了等,,,2015-10-05,1,,,,,ピスタチオ,0
523,3011501022586,登記記録の閉鎖等,0,2024-02-29,2024-02-19,株式会社赤穂七,,株式会社,東京都,北区,赤羽北２丁目３５番５号,,13,117,1150052,,,2024-02-19,清算の結了等,,,2017-04-25,1,,,,,セスナ,0
532,3011802011619,登記記録の閉鎖等,0,2024-02-29,2024-02-26,有限会社川和興業,,有限会社,東京都,足立区,竹の塚３丁目５番８号,,13,121,1210813,,,2024-02-26,清算の結了等,,,2015-10-05,1,,,,,カワワコウギョウ,0
534,3012402012255,登記記録の閉鎖等,0,2024-02-29,2024-02-26,有限会社ヒルズ御台橋,,有限会社,東京都,調布市,布田５丁目５３－２９調布ハウスＨ２４,,13,208,1820024,,,2024-02-26,清算の結了等,,,2015-10-05,1,,,,,ヒルズミダイバシ,0
556,3021003009478,登記記録の閉鎖等,0,2024-02-29,2024-02-27,合同会社Ｙｕｍｅａｂｌｅ,,合同会社,神奈川県,小田原市,国府津１７６９番地田代テラスハウス１号,,14,206,2560812,,,2024-02-27,清算の結了等,,,2020-06-29,1,,,,,ユメーブル,0
559,3030001148824,登記記録の閉鎖等,0,2024-02-29,2024-02-28,Ｙ＆Ｓ　Ｂｕｓｉｎｅｓｓ　Ｓｅｒｖｉｃｅ株式会社,,株式会社,東京都,国分寺市,東戸倉１丁目１６－４３,,13,214,1850002,,,2024-02-28,清算の結了等,,,2022-06-23,1,,,,,ワイエンドエスビジネスサービス,0
565,3030002059129,登記記録の閉鎖等,0,2024-02-29,2024-02-26,有限会社ノムラプラスチック工芸,,有限会社,埼玉県,朝霞市,膝折町３丁目２番６８号,,11,227,3510014,,,2024-02-26,清算の結了等,,,2015-10-05,1,,,,,ノムラプラスチックコウゲイ,0
582,3040005018163,登記記録の閉鎖等,0,2024-02-29,2024-02-22,長生地域商工振興協同組合,,その他の設立登記法人,千葉県,長生郡長生村,岩沼８２２番地,,12,423,2994336,,,2024-02-22,清算の結了等,,,2015-10-05,1,,,,,チョウセイチイキショウコウシンコウ,0
598,3100001002321,登記記録の閉鎖等,0,2024-02-29,2024-02-21,長野貨物ネット株式会社,,株式会社,長野県,長野市,大字大豆島２９５７番地１,,20,201,3810022,,,2024-02-21,清算の結了等,,,2015-10-05,1,,,,,ナガノカモツネット,0
605,3120001113315,登記記録の閉鎖等,0,2024-02-29,2024-02-22,株式会社日本合繊,,株式会社,大阪府,大阪市西区,江之子島１丁目２番１０－５０２号,,27,106,5500006,,,2024-02-22,清算の結了等,,,2015-10-05,1,,,,,ニホンゴウセン,0
606,3120001114263,登記記録の閉鎖等,0,2024-02-29,2024-02-26,株式会社トゥルーアイ,,株式会社,大阪府,大阪市西区,北堀江１丁目５番２号,,27,106,5500014,,,2024-02-26,清算の結了等,,,2015-10-05,1,,,,,,0
607,3120001115360,登記記録の閉鎖等,0,2024-02-29,2024-02-26,株式会社関西ケアサービス,,株式会社,大阪府,大阪市生野区,巽南５丁目１７番３６号,00028896,27,116,5440015,,,2024-02-26,清算の結了等,,,2015-10-05,1,,,,,,0
611,3120001203462,登記記録の閉鎖等,0,2024-02-29,2024-02-15,株式会社スタジオ・ドン,,株式会社,大阪府,大阪市西区,立売堀４丁目５番１１－１０３号,,27,106,5500012,,,2024-02-15,清算の結了等,,,2017-02-07,1,,,,,スタジオドン,0
639,3150001014130,登記記録の閉鎖等,0,2024-02-29,2024-02-07,椿鋼球株式会社,,株式会社,奈良県,葛城市,尺土１９番地,,29,211,6392162,,,2024-02-07,合併による解散等,2150001014908,令和６年２月１日奈良県葛城市尺土１９番地株式会社ツバキ・ナカシマ（2150001014908）に合併し解散,2015-10-05,1,,,,,ツバキコウキュウ,0
643,3180001033342,登記記録の閉鎖等,0,2024-02-29,2024-02-26,株式会社ヨコマク,,株式会社,愛知県,名古屋市中村区,道下町５丁目７番地,,23,105,4530046,,,2024-02-26,清算の結了等,,,2015-10-05,1,,,,,ヨコマク,0
645,3180001149337,登記記録の閉鎖等,0,2024-02-29,2024-02-26,株式会社ＢＥＳＴＩＴＡ,,株式会社,愛知県,名古屋市西区,名駅２丁目３４番１７号セントラル名古屋１１０８,,23,104,4510045,,,2024-02-26,清算の結了等,,,2022-01-06,1,,,,,ベスティータ,0
647,3180002050056,登記記録の閉鎖等,0,2024-02-29,2024-02-21,有限会社西祐建設,,有限会社,愛知県,名古屋市熱田区,高蔵町６番１１号,,23,109,4560015,,,2024-02-21,清算の結了等,,,2015-10-05,1,,,,,セイユウケンセツ,0
649,3180002055055,登記記録の閉鎖等,0,2024-02-29,2024-02-26,有限会社かがやき,,有限会社,愛知県,名古屋市千種区,茶屋が坂通一丁目１１番地１,,23,101,4640000,,,2024-02-26,清算の結了等,,,2015-10-05,1,,,,,カガヤキ,0
668,3260002033903,登記記録の閉鎖等,0,2024-02-29,2024-02-26,有限会社松田工業所,,有限会社,岡山県,真庭市,落合垂水４２１番地,,33,214,7193144,,,2024-02-26,清算の結了等,,,2015-10-05,1,,,,,マツダコウギョウショ,0
696,3430001077669,登記記録の閉鎖等,0,2024-02-29,2024-02-22,株式会社さくらい,,株式会社,北海道,釧路市,愛国東２丁目２１番１９号,,01,206,0850058,,,2024-02-22,清算の結了等,,,2018-11-02,1,,,,,サクライ,0
701,3440001007856,登記記録の閉鎖等,0,2024-02-29,2024-02-26,株式会社スリー・プラス,,株式会社,北海道,檜山郡厚沢部町,赤沼町１７６番地１９,,01,363,0431111,,,2024-02-26,清算の結了等,,,2016-03-10,1,,,,,スリープラス,0
706,3480001006862,登記記録の閉鎖等,0,2024-02-29,2024-02-27,山桝電子株式会社,,株式会社,徳島県,阿南市,見能林町林崎１３番地の４,,36,204,7740017,,,2024-02-27,清算の結了等,,,2015-10-05,1,,,,,ヤママスデンシ,0
724,4010401138830,登記記録の閉鎖等,0,2024-02-29,2024-02-22,株式会社Ｃｏｎｎｅｃｔ　Ｃｈａｎｇｅ,,株式会社,石川県,加賀市,片山津温泉ア－６０番地,,17,206,9220412,,,2024-02-22,清算の結了等,,,2018-06-08,1,,,,,,0
727,4010601031141,登記記録の閉鎖等,0,2024-02-29,2024-02-26,株式会社トータル,,株式会社,東京都,墨田区,業平３丁目８番１５号,,13,107,1300002,,,2024-02-26,清算の結了等,,,2015-10-05,1,,,,,,0
737,4010803001000,登記記録の閉鎖等,0,2024-02-29,2024-02-22,合同会社クレアシスト,,合同会社,東京都,大田区,仲六郷４丁目３番１６号,,13,111,1440055,,,2024-02-22,清算の結了等,,,2015-10-05,1,,,,,クレアシスト,0
759,4011501006885,登記記録の閉鎖等,0,2024-02-29,2024-02-19,新富商事株式会社,,株式会社,東京都,荒川区,町屋５丁目１番１号,,13,118,1160001,,,2024-02-19,清算の結了等,,,2015-10-05,1,,,,,シントミショウジ,0
766,4011802008044,登記記録の閉鎖等,0,2024-02-29,2024-02-27,有限会社山口製作所,,有限会社,東京都,葛飾区,西新小岩５丁目１７番１９号,,13,122,1240025,,,2024-02-27,清算の結了等,,,2015-10-05,1,,,,,ヤマグチセイサクショ,0
767,4011802028083,登記記録の閉鎖等,0,2024-02-29,2024-02-28,有限会社エコプランニング,,有限会社,東京都,葛飾区,お花茶屋３丁目２４番２号,,13,122,1240003,,,2024-02-28,清算の結了等,,,2015-10-05,1,,,,,,0
792,4020002018209,登記記録の閉鎖等,0,2024-02-29,2024-02-26,有限会社エヌ・ワイ商事,,有限会社,神奈川県,横浜市港南区,日野南５丁目１２番６号,,14,111,2340055,,,2024-02-26,清算の結了等,,,2015-10-05,1,,,,,エヌワイショウジ,0
795,4020003013761,登記記録の閉鎖等,0,2024-02-29,2024-02-26,ＨＹフーズ合同会社,,合同会社,神奈川県,横浜市南区,唐沢３２番地,,14,105,2320034,,,2024-02-26,清算の結了等,,,2018-01-15,1,,,,,,0
817,4040001013092,登記記録の閉鎖等,0,2024-02-29,2024-02-26,株式会社ａｍ－ＦＩＤ,,株式会社,千葉県,千葉市中央区,富士見２丁目１７番６号,,12,101,2600015,,,2024-02-26,清算の結了等,,,2015-10-05,1,,,,,アーフィッド,0
820,4040002009230,登記記録の閉鎖等,0,2024-02-29,2024-02-26,有限会社長谷川逸治酒店,,有限会社,千葉県,千葉市中央区,仁戸名町３５７番地,,12,101,2600801,,,2024-02-26,清算の結了等,,,2015-10-05,1,,,,,ハセガワミツハルサケテン,0
834,4080403003638,登記記録の閉鎖等,0,2024-02-29,2024-02-26,合同会社トマトの光,,合同会社,静岡県,浜松市浜名区,内野台２丁目３１番７号,,22,139,4340045,,,2024-02-26,清算の結了等,,,2018-03-27,1,,,,,トマトノヒカリ,0
841,4100002037539,登記記録の閉鎖等,0,2024-02-29,2024-02-21,有限会社ヤマザキ鈑金,,有限会社,長野県,飯田市,座光寺４８１５番地９,,20,205,3950001,,,2024-02-21,清算の結了等,,,2015-10-05,1,,,,,ヤマザキバンキン,0
857,4120901044666,登記記録の閉鎖等,0,2024-02-29,2024-02-22,株式会社アイリステック,,株式会社,大阪府,吹田市,豊津町１番１８号,,27,205,5640051,,,2024-02-22,清算の結了等,,,2021-07-26,1,,,,,アイリステック,0
858,4120902005452,登記記録の閉鎖等,0,2024-02-29,2024-02-28,有限会社エヌコーポレーション,,有限会社,大阪府,吹田市,高城町１１番３号,,27,205,5640024,,,2024-02-28,清算の結了等,,,2015-10-05,1,,,,,エヌコーポレーション,0
871,4140002018493,登記記録の閉鎖等,0,2024-02-29,2024-02-26,有限会社ジェマ,,有限会社,兵庫県,西宮市,樋之池町６番５－４０６号,00115042,28,204,6620084,,,2024-02-26,清算の結了等,,,2015-10-05,1,,,,,ジェマ,0
886,4180002083484,登記記録の閉鎖等,0,2024-02-29,2024-02-22,有限会社ジーダッシュ,,有限会社,愛知県,半田市,瑞穂町７丁目２番地の６,,23,205,4750828,,,2024-02-22,清算の結了等,,,2015-10-05,1,,,,,ジーダッシュ,0
889,4180301000090,登記記録の閉鎖等,0,2024-02-29,2024-02-26,アウベルクラフト株式会社,,株式会社,愛知県,岡崎市,栄町４丁目８７番地,,23,202,4440012,,,2024-02-26,清算の結了等,,,2015-10-05,1,,,,,アウベルクラフト,0
892,4200001019263,登記記録の閉鎖等,0,2024-02-29,2024-02-26,関建材株式会社,,株式会社,岐阜県,関市,小瀬２７６３番地１,,21,205,5013265,,,2024-02-26,合併による解散等,6200002002547,令和６年２月２１日岐阜市入舟町二丁目２７番地の４関建材株式会社（6200002002547）に合併し解散,2015-10-05,1,,,,,セキケンザイ,0
908,4290002003852,登記記録の閉鎖等,0,2024-02-29,2024-02-26,有限会社モリヤマ,,有限会社,福岡県,福岡市南区,屋形原５丁目７番５４号,,40,134,8111351,,,2024-02-26,清算の結了等,,,2015-10-05,1,,,,,モリヤマ,0
909,4290002016400,登記記録の閉鎖等,0,2024-02-29,2024-02-21,有限会社デンタルサポート,,有限会社,福岡県,福岡市博多区,博多駅前２丁目１９番１７号,,40,132,8120011,,,2024-02-21,清算の結了等,,,2015-10-05,1,,,,,デンタルサポート,0
911,4290002037413,登記記録の閉鎖等,0,2024-02-29,2024-02-22,有限会社正大技建,,有限会社,福岡県,糟屋郡篠栗町,大字尾仲３９５番地２,,40,342,8112413,,,2024-02-22,清算の結了等,,,2015-10-05,1,,,,,ショウダイギケン,0
921,4360002019998,登記記録の閉鎖等,0,2024-02-29,2024-02-26,株式会社新風,,株式会社,沖縄県,名護市,大東２丁目２２番２８号,,47,209,9050016,,,2024-02-26,清算の結了等,,,2015-10-05,1,,,,,ミーカジ,0
953,5010402026570,登記記録の閉鎖等,0,2024-02-29,2024-02-26,有限会社アイ・エス・パテント・リサーチ,,有限会社,神奈川県,横浜市南区,大岡１丁目６６番２７号,,14,105,2320061,,,2024-02-26,清算の結了等,,,2015-10-05,1,,,,,アイエスパテントリサーチ,0
960,5010801027921,登記記録の閉鎖等,0,2024-02-29,2024-02-22,株式会社アドバンス,,株式会社,東京都,大田区,東六郷３丁目１６番２－２１１号,,13,111,1440046,,,2024-02-22,清算の結了等,,,2017-06-30,1,,,,,アドバンス,0
967,5011001037901,登記記録の閉鎖等,0,2024-02-29,2024-02-26,三共開発株式会社,,株式会社,東京都,渋谷区,宇田川町４番７号,,13,113,1500042,,,2024-02-26,清算の結了等,,,2019-04-09,1,,,,,サンキョウカイハツ,0
969,5011001133816,登記記録の閉鎖等,0,2024-02-29,2024-02-13,ｓｅｌｆＬｅｇａｌ株式会社,,株式会社,東京都,中央区,日本橋室町１丁目１３番１号ＤＫノア４階,,13,102,1030022,,,2024-02-13,合併による解散等,7011003005276,令和６年２月１日東京都渋谷区渋谷三丁目１番９号ＤＸエンゲージメントパートナーズ合同会社（7011003005276）に合併し解散,2020-05-27,1,,,,,セルフリーガル,0
984,5011305000563,登記記録の閉鎖等,0,2024-02-29,2024-02-21,特定非営利活動法人全国パニック障害患者の会,,その他の設立登記法人,東京都,杉並区,久我山３丁目１７番１９号,,13,115,1680082,,,2024-02-21,清算の結了等,,,2015-10-05,1,,,,,ゼンコクパニックショウガイカンジャノカイ,0
989,5011801001338,登記記録の閉鎖等,0,2024-02-29,2024-02-27,けいせい家電株式会社,,株式会社,東京都,葛飾区,お花茶屋１丁目２５番２号,,13,122,1240003,,,2024-02-27,清算の結了等,,,2015-10-05,1,,,,,ケイセイカデン,0
1000,5013201001257,登記記録の閉鎖等,0,2024-02-29,2024-02-22,株式会社コドルス,,株式会社,東京都,目黒区,下目黒２丁目３番２３号,,13,110,1530064,,,2024-02-22,清算の結了等,,,2015-10-05,1,,,,,コドルス,0
1003,5020001012731,登記記録の閉鎖等,0,2024-02-29,2024-02-26,株式会社モリ,,株式会社,神奈川県,横浜市旭区,中沢１丁目９番４０－１０１号,,14,112,2410814,,,2024-02-26,清算の結了等,,,2015-10-05,1,,,,,モリ,0
1023,5040001014536,登記記録の閉鎖等,0,2024-02-29,2024-02-26,株式会社菅原電気事務所,,株式会社,千葉県,習志野市,谷津４丁目７番２８号,,12,216,2750026,,,2024-02-26,清算の結了等,,,2015-10-05,1,,,,,スガワラデンキジムショ,0
1026,5040001107785,登記記録の閉鎖等,0,2024-02-29,2024-02-26,株式会社ＧＫ,,株式会社,千葉県,柏市,柏２５３番地１号,,12,217,2770005,,,2024-02-26,清算の結了等,,,2019-01-23,1,,,,,ジーケー,0
1039,5070003002585,登記記録の閉鎖等,0,2024-02-29,2024-02-26,クィーン合同会社,,合同会社,群馬県,前橋市,樋越町７３９番地１１,,10,201,3710221,,,2024-02-26,清算の結了等,,,2016-02-23,1,,,,,クィーン,0
1041,5080101001100,登記記録の閉鎖等,0,2024-02-29,2024-02-26,千鳥観光汽船株式会社,,株式会社,静岡県,沼津市,内浦三津４３番地の７,,22,203,4100223,,,2024-02-26,清算の結了等,,,2015-10-05,1,,,,,チドリカンコウキセン,0
1043,5080102003095,登記記録の閉鎖等,0,2024-02-29,2024-02-28,株式会社水月堂,,株式会社,静岡県,沼津市,千本西町３０番,,22,203,4100848,,,2024-02-28,清算の結了等,,,2015-10-05,1,,,,,スイゲツドウ,0
1053,5110002004124,登記記録の閉鎖等,0,2024-02-29,2024-01-31,有限会社中央保温工業,,有限会社,新潟県,新潟市,太夫浜１８１９番地７,,15,201,9503112,,,2024-01-31,清算の結了等,,,2023-09-01,1,,,,,チュウオウホオンコウギョウ,0
1056,5120001164629,登記記録の閉鎖等,0,2024-02-29,2024-02-26,株式会社リプラス,,株式会社,大阪府,大阪市東住吉区,中野４丁目８番４号,,27,121,5460012,,,2024-02-26,清算の結了等,,,2015-10-05,1,,,,,リプラス,0
1072,5122002013145,登記記録の閉鎖等,0,2024-02-29,2024-02-26,有限会社井上賢,,有限会社,大阪府,八尾市,新家町１丁目５０番地の２,,27,212,5810811,,,2024-02-26,清算の結了等,,,2015-10-05,1,,,,,イノウエケン,0
1107,5240002026122,登記記録の閉鎖等,0,2024-02-29,2024-02-20,有限会社ＴＨＩＮＫ,,有限会社,広島県,広島市南区,丹那町１番３９号,,34,103,7340034,,,2024-02-20,清算の結了等,,,2015-10-05,1,,,,,シンク,0
1109,5260001021031,登記記録の閉鎖等,0,2024-02-29,2024-02-26,株式会社京美,,株式会社,岡山県,苫田郡鏡野町,入６６７番地,,33,606,7080351,,,2024-02-26,清算の結了等,,,2015-10-05,1,,,,,キョウビ,0
1127,5320002016676,登記記録の閉鎖等,0,2024-02-29,2024-02-27,有限会社五城物産,,有限会社,大分県,佐伯市,蟹田８番１３号,,44,205,8760804,,,2024-02-27,清算の結了等,,,2015-10-05,1,,,,,ゴジョウブッサン,0
1136,5360001032200,登記記録の閉鎖等,0,2024-02-29,2024-02-27,沖縄ドルフィンレンタカー株式会社,,株式会社,沖縄県,那覇市,宇栄原３丁目３３－５小禄マンション２０７号,,47,201,9010153,,,2024-02-27,清算の結了等,,,2023-06-23,1,,,,,オキナワドルフィンレンタカー,0
1137,5360001032407,登記記録の閉鎖等,0,2024-02-29,2024-02-27,株式会社ａｔａｒ,,株式会社,沖縄県,中頭郡嘉手納町,字嘉手納４８１番地,,47,325,9040203,,,2024-02-27,清算の結了等,,,2023-08-09,1,,,,,アタール,0
1141,5370102001796,登記記録の閉鎖等,0,2024-02-29,2024-02-27,有限会社梅寿司,,有限会社,宮城県,角田市,角田字町２４５番地,,04,208,9811505,,,2024-02-27,清算の結了等,,,2015-10-05,1,,,,,ウメズシ,0
1143,5370602000926,登記記録の閉鎖等,0,2024-02-29,2024-02-26,有限会社松陽台酒店,,有限会社,宮城県,塩竈市,松陽台２丁目９番１０号,,04,203,9850071,,,2024-02-26,清算の結了等,,,2015-10-05,1,,,,,ショウヨウダイサケテン,0
1144,5380002001292,登記記録の閉鎖等,0,2024-02-29,2024-02-27,有限会社児玉測量事務所,,有限会社,福島県,福島市,笹木野字町裏２７番地１３,,07,201,9608057,,,2024-02-27,清算の結了等,,,2015-10-05,1,,,,,コダマソクリョウジムショ,0
1157,6010001106376,登記記録の閉鎖等,0,2024-02-29,2024-02-26,株式会社五島トラベル,,株式会社,東京都,中央区,新川２丁目１２番１３号,,13,102,1040033,,,2024-02-26,清算の結了等,,,2015-10-05,1,,,,,ゴシマトラベル,0
1182,6010401155717,登記記録の閉鎖等,0,2024-02-29,2024-02-27,ＺＯＸ株式会社,,株式会社,東京都,港区,虎ノ門４丁目１－４０,,13,103,1050001,,,2024-02-27,清算の結了等,,,2020-10-12,1,,,,,ゾックス,0
1190,6010601037450,登記記録の閉鎖等,0,2024-02-29,2024-02-22,株式会社オカダ,,株式会社,東京都,江東区,大島１丁目３９番１８－１２０４号,,13,108,1360072,,,2024-02-22,清算の結了等,,,2015-10-05,1,,,,,オカダ,0
1195,6010902006856,登記記録の閉鎖等,0,2024-02-29,2024-02-22,有限会社三雄工務店,,有限会社,東京都,世田谷区,世田谷４丁目１２番１０号,,13,112,1540017,,,2024-02-22,清算の結了等,,,2015-10-05,1,,,,,,0
1196,6010902011484,登記記録の閉鎖等,0,2024-02-29,2024-02-27,株式会社ＡＬＣＨＥＭＡＴＩＯＮ,,株式会社,山梨県,南都留郡富士河口湖町,小立２２５３番地１,,19,430,4010302,,,2024-02-27,合併による解散等,6011101091632,令和６年２月２７日山梨県南都留郡富士河口湖町小立２２５３番地１株式会社命（6011101091632）に合併し解散,2015-10-05,1,,,,,アルケメーション,0
1204,6011001127453,登記記録の閉鎖等,0,2024-02-29,2024-02-22,株式会社ｗｅｌｌｄａｙ,,株式会社,東京都,中央区,銀座１丁目１２番４号Ｎ＆ＥＢＬＤ．６Ｆ,,13,102,1040061,,,2024-02-22,清算の結了等,,,2019-04-09,1,,,,,ウェルデイ,0
1220,6011403002948,登記記録の閉鎖等,0,2024-02-29,2024-02-27,クリエイティブスタイル合同会社,,合同会社,東京都,板橋区,板橋２丁目６４番２－８０５号,,13,119,1730004,,,2024-02-27,清算の結了等,,,2020-03-26,1,,,,,クリエイティブスタイル,0
1237,6020001019338,登記記録の閉鎖等,0,2024-02-29,2024-02-27,アイ・エス株式会社,,株式会社,神奈川県,横浜市港北区,日吉本町１丁目２０番５号,,14,109,2230062,,,2024-02-27,清算の結了等,,,2015-10-05,1,,,,,アイエス,0
1241,6020002036951,登記記録の閉鎖等,0,2024-02-29,2024-02-26,有限会社飯嶋精機製作所,,有限会社,神奈川県,横浜市鶴見区,尻手１丁目１０番１号,,14,101,2300003,,,2024-02-26,清算の結了等,,,2015-10-05,1,,,,,イイジマセイキセイサクジョ,0
1242,6020003010682,登記記録の閉鎖等,0,2024-02-29,2024-02-26,神奈川不動産管理合同会社,,合同会社,神奈川県,横浜市神奈川区,菅田町１８２５番地,,14,102,2210864,,,2024-02-26,清算の結了等,,,2015-12-07,1,,,,,カナガワフドウサンカンリ,0
1243,6021001034343,登記記録の閉鎖等,0,2024-02-29,2024-02-26,株式会社高橋製作所,,株式会社,神奈川県,南足柄市,飯沢１７３番地の３,,14,217,2500122,,,2024-02-26,清算の結了等,,,2015-10-05,1,,,,,タカハシセイサクショ,0
1250,6021002004717,登記記録の閉鎖等,0,2024-02-29,2024-02-28,丸隆水産有限会社,,有限会社,神奈川県,藤沢市,遠藤２０２１番地の２２,,14,205,2520816,,,2024-02-28,清算の結了等,,,2015-10-05,1,,,,,,0
1252,6030001050804,登記記録の閉鎖等,0,2024-02-29,2024-02-26,石河産業株式会社,,株式会社,埼玉県,春日部市,備後東８丁目３４番３号,,11,214,3440032,,,2024-02-26,清算の結了等,,,2015-10-05,1,,,,,イシカワサンギョウ,0
1259,6030003022529,登記記録の閉鎖等,0,2024-02-29,2024-02-26,合同会社みろく,,合同会社,埼玉県,比企郡吉見町,大字北吉見１６１３－１２３,,11,347,3550155,,,2024-02-26,清算の結了等,,,2023-10-20,1,,,,,ミロク,0
1263,6040001031051,登記記録の閉鎖等,0,2024-02-29,2024-02-22,株式会社わん,,株式会社,千葉県,鎌ケ谷市,くぬぎ山５丁目４番４０号,,12,224,2730128,,,2024-02-22,清算の結了等,,,2015-10-05,1,,,,,ワン,0
1272,6040003012256,登記記録の閉鎖等,0,2024-02-29,2024-02-21,合同会社植巳造園,,合同会社,千葉県,山武市,松尾町下大蔵３８２番地,,12,237,2891517,,,2024-02-21,清算の結了等,,,2018-10-09,1,,,,,ウエミゾウエン,0
1273,6040003016406,登記記録の閉鎖等,0,2024-02-29,2024-02-19,合同会社スリーパール,,合同会社,千葉県,千葉市緑区,おゆみ野南２丁目２３番地８,,12,105,2660033,,,2024-02-19,清算の結了等,,,2020-11-11,1,,,,,スリーパール,0
1277,6050001026496,登記記録の閉鎖等,0,2024-02-29,2024-02-26,株式会社大森組,,株式会社,茨城県,常陸太田市,新宿町３０３番地の１,,08,212,3130007,,,2024-02-26,清算の結了等,,,2015-10-05,1,,,,,オオモリグミ,0
1278,6050001031067,登記記録の閉鎖等,0,2024-02-29,2024-02-26,日研管理サービス株式会社,,株式会社,茨城県,牛久市,栄町６丁目３５番地５,,08,219,3001233,,,2024-02-26,清算の結了等,,,2015-10-05,1,,,,,,0
1306,6120901001608,登記記録の閉鎖等,0,2024-02-29,2024-02-28,株式会社ノマド,,株式会社,大阪府,茨木市,寺田町２１番１６号,,27,211,5670823,,,2024-02-28,清算の結了等,,,2015-10-05,1,,,,,ノマド,0
1314,6130001072251,登記記録の閉鎖等,0,2024-02-29,2024-02-27,浅嶼株式会社,,株式会社,京都府,京都市伏見区,深草ススハキ町２２－４－１,,26,109,6120000,,,2024-02-27,清算の結了等,,,2022-07-25,1,,,,,アサシマ,0
1316,6140001118193,登記記録の閉鎖等,0,2024-02-29,2024-02-26,オールズ株式会社,,株式会社,兵庫県,明石市,大明石町２丁目４番１８号信友ビルディング３階,,28,203,6730891,,,2024-02-26,清算の結了等,,,2020-07-28,1,,,,,オールズ,0
1321,6180001081578,登記記録の閉鎖等,0,2024-02-29,2024-02-21,株式会社ブレイズコーポレーション,,株式会社,愛知県,丹羽郡大口町,秋田２丁目２番地,,23,361,4800132,,,2024-02-21,清算の結了等,,,2015-10-05,1,,,,,ブレイズコーポレーション,0
1322,6180001095784,登記記録の閉鎖等,0,2024-02-29,2024-02-21,株式会社あした,,株式会社,愛知県,半田市,郷中町１丁目３６番地の３,,23,205,4750842,,,2024-02-21,清算の結了等,,,2015-10-05,1,,,,,アシタ,0
1323,6180001125277,登記記録の閉鎖等,0,2024-02-29,2024-02-26,株式会社ＣＨＯ－ＷＡ,,株式会社,愛知県,名古屋市南区,中江２丁目１０番１５号,,23,112,4570004,,,2024-02-26,清算の結了等,,,2016-10-27,1,,,,,チョーワ,0
1328,6180002039897,登記記録の閉鎖等,0,2024-02-29,2024-02-16,有限会社メイセーテック,,有限会社,愛知県,名古屋市北区,大曽根２丁目１０番２２号,,23,103,4620825,,,2024-02-16,清算の結了等,,,2015-10-05,1,,,,,メイセーテック,0
1329,6180002044963,登記記録の閉鎖等,0,2024-02-29,2024-02-26,有限会社荒武設備,,有限会社,愛知県,名古屋市西区,こも原町１７番地,,23,104,4520824,,,2024-02-26,清算の結了等,,,2015-10-05,1,,,,,アラタケセツビ,0
1335,6190001008646,登記記録の閉鎖等,0,2024-02-29,2024-02-20,株式会社福田工業,,株式会社,三重県,伊賀市,大内岩根６３４番地の８,,24,216,5180034,,,2024-02-20,清算の結了等,,,2015-10-05,1,,,,,フクダコウギョウ,0
1349,6240002050220,登記記録の閉鎖等,0,2024-02-29,2024-02-26,有限会社尾道カーリフレッシュセンター,,有限会社,広島県,世羅郡世羅町,大字小谷１５０番地,,34,462,7293301,,,2024-02-26,清算の結了等,,,2015-10-05,1,,,,,オノミチカーリフレッシュセンター,0
1351,6260005006580,登記記録の閉鎖等,0,2024-02-29,2024-02-28,社会福祉法人菜花の里,,その他の設立登記法人,岡山県,津山市,林田１６９５番地の３,,33,203,7080822,,,2024-02-28,清算の結了等,,,2015-10-05,1,,,,,サイカノサト,0
1361,6310001003972,登記記録の閉鎖等,0,2024-02-29,2024-02-28,カツビジネスコンサルティング株式会社,,株式会社,長崎県,西彼杵郡時津町,西時津郷１８１番地４－２０５号,,42,308,8512101,,,2024-02-28,清算の結了等,,,2015-10-05,1,,,,,,0
1371,6350001013258,登記記録の閉鎖等,0,2024-02-29,2024-02-21,株式会社ケアサポ天神,,株式会社,宮崎県,宮崎市,佐土原町下田島７８４３番地１３,,45,201,8800211,,,2024-02-21,清算の結了等,,,2015-10-05,1,,,,,,0
1374,6370002011556,登記記録の閉鎖等,0,2024-02-29,2024-02-27,有限会社ジーエス興産,,有限会社,宮城県,仙台市宮城野区,萩野町４丁目３番３３－１１０５号,,04,102,9830043,,,2024-02-27,清算の結了等,,,2015-10-05,1,,,,,ジーエスコウサン,0
1382,6410002010099,登記記録の閉鎖等,0,2024-02-29,2024-02-22,有限会社浅田工務店,,有限会社,秋田県,能代市,末広町１９番８号,,05,202,0160895,,,2024-02-22,清算の結了等,,,2015-10-05,1,,,,,アサダコウムテン,0
1392,6480005005271,登記記録の閉鎖等,0,2024-02-29,2024-02-26,農事組合法人長峯肉牛生産組合,,その他の設立登記法人,徳島県,美馬市,脇町字拝原１１３１番地,,36,207,7793601,,,2024-02-26,清算の結了等,,,2015-10-05,1,,,,,,0
1408,7010003034228,登記記録の閉鎖等,0,2024-02-29,2024-01-23,合同会社とはいえ,,合同会社,東京都,中央区,銀座１丁目２２番１１号,,13,102,1040061,,,2024-01-23,清算の結了等,,,2021-02-26,1,,,,,トハイエ,0
1409,7010005033599,登記記録の閉鎖等,0,2024-02-29,2024-02-28,一般社団法人ＤＳＢ－７,,その他の設立登記法人,東京都,千代田区,丸の内３丁目１番１号東京共同会計事務所内,,13,101,1000005,,,2024-02-28,清算の結了等,,,2021-07-05,1,,,,,ディーエスビーセブン,0
1425,7010602022384,登記記録の閉鎖等,0,2024-02-29,2024-02-26,有限会社いずみ友,,有限会社,東京都,江東区,亀戸３丁目４３番２６号,,13,108,1360071,,,2024-02-26,清算の結了等,,,2015-10-05,1,,,,,イズミトモ,0
1432,7011001067194,登記記録の閉鎖等,0,2024-02-29,2024-02-26,株式会社エデュチャイム,,株式会社,東京都,江東区,永代２丁目３１番１５号,,13,108,1350034,,,2024-02-26,清算の結了等,,,2015-10-05,1,,,,,エデュチャイム,0
1457,7011801003530,登記記録の閉鎖等,0,2024-02-29,2024-02-26,株式会社ナガイ,,株式会社,千葉県,佐倉市,染井野５丁目４８番地２,,12,212,2850831,,,2024-02-26,清算の結了等,,,2015-10-05,1,,,,,ナガイ,0
1464,7012402013159,登記記録の閉鎖等,0,2024-02-29,2024-02-20,有限会社長田電気,,有限会社,東京都,狛江市,岩戸南３丁目１０番３号,,13,219,2010005,,,2024-02-20,清算の結了等,,,2015-10-05,1,,,,,,0
1477,7020002105037,登記記録の閉鎖等,0,2024-02-29,2024-02-26,有限会社平松建設,,有限会社,神奈川県,川崎市幸区,戸手本町２丁目２０７番地３０,,14,132,2120023,,,2024-02-26,清算の結了等,,,2015-10-05,1,,,,,ヒラマツケンセツ,0
1492,7040001098197,登記記録の閉鎖等,0,2024-02-29,2024-02-28,プラット＆ホイットニー・ミリタリー・ジャパン株式会社,,株式会社,東京都,港区,虎ノ門４丁目３番１号城山トラストタワー３０階,,13,103,1050001,,,2024-02-28,清算の結了等,,,2016-12-22,1,,,,,プラットアンドホイットニーミリタリージャパン,0
1504,7080101001172,登記記録の閉鎖等,0,2024-02-29,2024-02-15,東洋シャッター沼津販売株式会社,,株式会社,静岡県,沼津市,大諏訪７３７番地の１,,22,203,4100873,,,2024-02-15,清算の結了等,,,2015-10-05,1,,,,,トウヨウシャッターヌマヅハンバイ,0
1507,7080401021977,登記記録の閉鎖等,0,2024-02-29,2024-02-28,株式会社濱松縫製,,株式会社,静岡県,浜松市中央区,卸本町２０００番地の２０,,22,138,4328055,,,2024-02-28,清算の結了等,,,2017-01-31,1,,,,,ハママツホウセイ,0
1532,7130001047772,登記記録の閉鎖等,0,2024-02-29,2024-02-26,株式会社微利軒,,株式会社,京都府,亀岡市,宮前町宮川大端３２番地,,26,206,6210243,,,2024-02-26,清算の結了等,,,2015-10-05,1,,,,,,0
1563,7180001139540,登記記録の閉鎖等,0,2024-02-29,2024-02-21,株式会社Ｃ＆Ａ,,株式会社,愛知県,東海市,南柴田町イノ割８０番地１５,,23,222,4760001,,,2024-02-21,清算の結了等,,,2020-01-10,1,,,,,シーアンドエー,0
1569,7180002060596,登記記録の閉鎖等,0,2024-02-29,2024-02-26,有限会社モデル・トライアル,,有限会社,愛知県,清須市,朝日貝塚１２３番地,,23,233,4520932,,,2024-02-26,清算の結了等,,,2015-10-05,1,,,,,モデルトライアル,0
1570,7180002061289,登記記録の閉鎖等,0,2024-02-29,2024-02-26,有限会社ＤＯＬＣＥＶＩＴＡ,,有限会社,愛知県,名古屋市昭和区,曙町２丁目１０－１,,23,107,4660003,,,2024-02-26,清算の結了等,,,2015-10-05,1,,,,,ドルチェヴィータ,0
1580,7240002039254,登記記録の閉鎖等,0,2024-02-29,2024-02-22,粟村造園有限会社,,有限会社,広島県,福山市,高西町川尻４０７８番地,,34,207,7290101,,,2024-02-22,清算の結了等,,,2015-10-05,1,,,,,アワムラゾウエン,0
1621,7390002002346,登記記録の閉鎖等,0,2024-02-29,2024-02-27,有限会社札野木工所,,有限会社,山形県,山形市,宮町５丁目１０番２０号,,06,201,9900057,,,2024-02-27,清算の結了等,,,2015-10-05,1,,,,,フダノモッコウショ,0
1634,7430005013641,登記記録の閉鎖等,0,2024-02-29,2024-02-26,一般社団法人北海道相続出張サポートセンター,,その他の設立登記法人,北海道,札幌市北区,北三十二条西５丁目３番２８号,,01,102,0010032,,,2024-02-26,清算の結了等,,,2019-04-10,1,,,,,ホッカイドウソウゾクシュッチョウサポートセンター,0
1641,7500001002021,登記記録の閉鎖等,0,2024-02-29,2024-02-28,新栄塗装工業株式会社,,株式会社,愛媛県,松山市,土居田町５７５番地３,,38,201,7900056,,,2024-02-28,清算の結了等,,,2015-10-05,1,,,,,シンエイトソウコウギョウ,0
1645,8010001160033,登記記録の閉鎖等,0,2024-02-29,2024-02-26,株式会社ベルサポ,,株式会社,東京都,中央区,日本橋３丁目２番１４号新槇町ビル別館第一１階,,13,102,1030027,,,2024-02-26,清算の結了等,,,2015-10-05,1,,,,,ベルサポ,0
1658,8010005030934,登記記録の閉鎖等,0,2024-02-29,2024-02-28,浦和美園特定目的会社,,その他の設立登記法人,東京都,千代田区,飯田橋４丁目７番１号結和税理士法人内,,13,101,1020072,,,2024-02-28,清算の結了等,,,2019-10-25,1,,,,,ウラワミソノ,0
1679,8010901027488,登記記録の閉鎖等,0,2024-02-29,2024-02-27,データ通信株式会社,,株式会社,東京都,世田谷区,上用賀５丁目５番２号,,13,112,1580098,,,2024-02-27,清算の結了等,,,2015-10-05,1,,,,,データツウシン,0
1693,8011101089807,登記記録の閉鎖等,0,2024-02-29,2024-02-28,株式会社ＩＴＯ,,株式会社,東京都,新宿区,中落合１丁目２番２２－３０３号,,13,104,1610032,,,2024-02-28,清算の結了等,,,2019-12-09,1,,,,,アイティーオー,0
1697,8011102028029,登記記録の閉鎖等,0,2024-02-29,2024-02-27,有限会社ニチプロセス,,有限会社,東京都,新宿区,原町１丁目４９番地アミティ・ヒル２０３,,13,104,1620053,,,2024-02-27,清算の結了等,,,2015-10-05,1,,,,,ニチプロセス,0
1711,8012805001296,登記記録の閉鎖等,0,2024-02-29,2024-02-27,特定非営利活動法人環境発明機構,,その他の設立登記法人,東京都,昭島市,玉川町２丁目８番４号,,13,207,1960034,,,2024-02-27,清算の結了等,,,2015-10-05,1,,,,,カンキョウハツメイキコウ,0
1724,8021002039216,登記記録の閉鎖等,0,2024-02-29,2024-02-26,有限会社安加賀興産,,有限会社,神奈川県,秦野市,渋沢１丁目２８番１１号,,14,211,2591322,,,2024-02-26,清算の結了等,,,2015-10-05,1,,,,,ヤスカガコウサン,0
1763,8070001027425,登記記録の閉鎖等,0,2024-02-29,2024-02-26,タマファーム株式会社,,株式会社,群馬県,伊勢崎市,日乃出町３６６番地５,,10,204,3720022,,,2024-02-26,清算の結了等,,,2015-10-05,1,,,,,タマファーム,0
1765,8070002024157,登記記録の閉鎖等,0,2024-02-29,2024-02-27,有限会社常見捺染工場,,有限会社,群馬県,桐生市,境野町４丁目５５８番地,,10,203,3760002,,,2024-02-27,清算の結了等,,,2015-10-05,1,,,,,,0
1771,8100002011762,登記記録の閉鎖等,0,2024-02-29,2024-02-21,有限会社すずらん,,有限会社,長野県,佐久市,根々井５１９番地２,,20,217,3850012,,,2024-02-21,清算の結了等,,,2015-10-05,1,,,,,スズラン,0
1779,8120001159403,登記記録の閉鎖等,0,2024-02-29,2024-02-26,セラミカ・フタバ株式会社,,株式会社,大阪府,守口市,大日町３丁目１番９号（大日フクダビル４Ｆ）,,27,209,5700003,,,2024-02-26,清算の結了等,,,2015-10-05,1,,,,,セラミカフタバ,0
1800,8140001006181,登記記録の閉鎖等,0,2024-02-29,2024-02-26,いづみエステート株式会社,,株式会社,兵庫県,神戸市中央区,旗塚通５丁目４番２３号,,28,110,6510068,,,2024-02-26,清算の結了等,,,2015-10-05,1,,,,,イズミエステート,0
1801,8140001036939,登記記録の閉鎖等,0,2024-02-29,2024-02-26,株式会社大書堂,,株式会社,兵庫県,明石市,二見町東二見４０９番地の１７,,28,203,6740092,,,2024-02-26,清算の結了等,,,2015-10-05,1,,,,,ダイショドウ,0
1802,8140001087965,登記記録の閉鎖等,0,2024-02-29,2024-02-26,株式会社アーチテックアドバンス,,株式会社,兵庫県,神戸市北区,山田町原野字城ケ岡２番地６,,28,109,6511252,,,2024-02-26,清算の結了等,,,2015-10-05,1,,,,,アーチテックアドバンス,0
1841,8290001100770,登記記録の閉鎖等,0,2024-02-29,2024-02-22,ＶＩＶＡ　ＪＡＰＡＮ株式会社,,株式会社,福岡県,福岡市中央区,天神４丁目６番２８号天神ファーストビル７階,,40,133,8100001,,,2024-02-22,清算の結了等,,,2023-03-02,1,,,,,ビバジャパン,0
1845,8290003010877,登記記録の閉鎖等,0,2024-02-29,2024-02-22,合同会社ｌｉｅｎ　ｄｅｓｉｇｎ,,合同会社,福岡県,福岡市南区,野間３丁目２１番４－６０１号,,40,134,8150041,,,2024-02-22,合併による解散等,3290001096436,令和６年２月２２日福岡市中央区高砂二丁目１２番１３－１０２号ｌｉｅｎ　ｄｅｓｉｇｎ株式会社（3290001096436）に合併し解散,2021-02-05,1,,,,,リアンデザイン,0
1867,8410001008480,登記記録の閉鎖等,0,2024-02-29,2024-02-26,角館興業株式会社,,株式会社,宮城県,仙台市若林区,かすみ町１１番３１号,,04,103,9840822,,,2024-02-26,清算の結了等,,,2015-10-05,1,,,,,カクノダテコウギョウ,0
1869,8430001085650,登記記録の閉鎖等,0,2024-02-29,2024-02-22,株式会社カトウ,,株式会社,北海道,岩見沢市,五条西１８丁目４番地５,,01,210,0680025,,,2024-02-22,清算の結了等,,,2021-12-23,1,,,,,カトウ,0
1881,8470002001058,登記記録の閉鎖等,0,2024-02-29,2024-02-27,有限会社稲井造型,,有限会社,香川県,高松市,三谷町１２７０番地８,,37,201,7610450,,,2024-02-27,清算の結了等,,,2015-10-05,1,,,,,イナイゾウケイ,0
1886,9010001102835,登記記録の閉鎖等,0,2024-02-29,2024-02-27,株式会社新宿書房,,株式会社,東京都,中野区,白鷺３丁目１９番１５号,,13,114,1650035,,,2024-02-27,清算の結了等,,,2015-10-05,1,,,,,シンジュクショボウ,0
1889,9010001134275,登記記録の閉鎖等,0,2024-02-29,2024-02-27,株式会社ドットクルー,,株式会社,東京都,文京区,本郷１丁目２１番３号テック本郷５Ｆ,,13,105,1130033,,,2024-02-27,清算の結了等,,,2015-10-05,1,,,,,ドットクルー,0
1896,9010401080251,登記記録の閉鎖等,0,2024-02-29,2024-02-28,ティエラ・ファイナンシャル・アドバイザーズ株式会社,,株式会社,東京都,港区,赤坂７丁目６番４１号,,13,103,1070052,,,2024-02-28,清算の結了等,,,2015-10-05,1,,,,,ティエラファイナンシャルアドバイザーズ,0
1905,9010601046003,登記記録の閉鎖等,0,2024-02-29,2024-02-28,株式会社三拝云,,株式会社,東京都,葛飾区,亀有３丁目４４－２バルビスパーク３０３,,13,122,1250061,,,2024-02-28,清算の結了等,,,2015-10-05,1,,,,,ミーファイユー,0
1976,9030005021360,登記記録の閉鎖等,0,2024-02-29,2024-02-27,一般社団法人ニャンクチュアリ,,その他の設立登記法人,埼玉県,越谷市,北越谷４丁目４番１６号エスポワール０１号室,,11,222,3430026,,,2024-02-27,清算の結了等,,,2023-08-16,1,,,,,ニャンクチュアリ,0
1983,9040002017674,登記記録の閉鎖等,0,2024-02-29,2024-02-26,有限会社メイプル・ブリング,,有限会社,千葉県,千葉市稲毛区,稲毛東２丁目３番３２号,,12,103,2630031,,,2024-02-26,清算の結了等,,,2015-10-05,1,,,,,メイプルブリング,0
1984,9040005021194,登記記録の閉鎖等,0,2024-02-29,2024-02-26,一般社団法人日本ライフスタイル・ビズ,,その他の設立登記法人,千葉県,千葉市中央区,本千葉町９番１２号アンビシャスプラザ千葉中央１２０６号,,12,101,2600014,,,2024-02-26,清算の結了等,,,2021-04-21,1,,,,,ニホンライフスタイルビズ,0
1986,9050001028044,登記記録の閉鎖等,0,2024-02-29,2024-02-26,株式会社ｅｍｉ・ｐａｒｋ国分建設,,株式会社,茨城県,牛久市,田宮２丁目２７番地３,,08,219,3001237,,,2024-02-26,清算の結了等,,,2015-10-05,1,,,,,エミパークコクブンケンセツ,0
1996,9070003002581,登記記録の閉鎖等,0,2024-02-29,2024-02-26,キング合同会社,,合同会社,群馬県,伊勢崎市,三光町１６番２１号セシーズ１１０４,,10,204,3720046,,,2024-02-26,清算の結了等,,,2016-02-18,1,,,,,キング,0
2000,9080101009627,登記記録の閉鎖等,0,2024-02-29,2024-02-26,株式会社平和商会,,株式会社,静岡県,富士市,平垣４８５番地の１５,,22,210,4160916,,,2024-02-26,清算の結了等,,,2015-10-05,1,,,,,ヘイワショウカイ,0
2026,9120001186495,登記記録の閉鎖等,0,2024-02-29,2024-02-26,レッツお部屋さがし株式会社,,株式会社,大阪府,大阪市西成区,玉出中２丁目１６番１１号辰巳ビル１階,,27,122,5570044,,,2024-02-26,清算の結了等,,,2015-10-05,1,,,,,,0
2028,9120001203960,登記記録の閉鎖等,0,2024-02-29,2024-02-26,株式会社なごみ,,株式会社,大阪府,寝屋川市,高柳４丁目４番１４号,,27,215,5720051,,,2024-02-26,清算の結了等,,,2017-02-24,1,,,,,,0
2048,9140001061011,登記記録の閉鎖等,0,2024-02-29,2024-02-26,姫路ピーシーサービス株式会社,,株式会社,兵庫県,姫路市,飾磨区中島６５０番地,,28,201,6728035,,,2024-02-26,清算の結了等,,,2015-10-05,1,,,,,ヒメジピーシーサービス,0
2056,9140005024930,登記記録の閉鎖等,0,2024-02-29,2024-02-26,特定非営利活動法人そなえる救急医療情報,,その他の設立登記法人,兵庫県,明石市,鷹匠町２番３２号,,28,203,6730848,,,2024-02-26,清算の結了等,,,2019-12-18,1,,,,,ソナエルキュウキュウイリョウジョウホウ,0
2061,9180001075387,登記記録の閉鎖等,0,2024-02-29,2024-02-26,菊水電工株式会社,,株式会社,愛知県,春日井市,西本町３丁目１８９番地２,,23,206,4860958,,,2024-02-26,清算の結了等,,,2015-10-05,1,,,,,キクスイデンコウ,0
2069,9190002017593,登記記録の閉鎖等,0,2024-02-29,2024-02-26,有限会社オオタエンジニアリング,,有限会社,三重県,桑名郡木曽岬町,大字源緑輪中８３番地の３,,24,303,4980816,,,2024-02-26,清算の結了等,,,2015-10-05,1,,,,,オオタエンジニアリング,0
2072,9200005005156,登記記録の閉鎖等,0,2024-02-29,2024-02-15,八幡神社,,その他の設立登記法人,岐阜県,養老郡養老町,鷲巣７９２番地,,21,341,5031261,,,2024-02-15,合併による解散等,8200005005181,令和６年２月１５日岐阜県養老郡養老町鷲巣１３００番地の１白山神社（8200005005181）に合併し解散,2015-10-05,1,,,,,,0
2074,9230001016162,登記記録の閉鎖等,0,2024-02-29,2024-02-27,株式会社坂井フーズ,,株式会社,富山県,富山市,布瀬町１丁目３番７号,,16,201,9398206,,,2024-02-27,清算の結了等,,,2015-11-09,1,,,,,サカイフーズ,0
2075,9240001015452,登記記録の閉鎖等,0,2024-02-29,2024-02-22,株式会社トライシクル,,株式会社,広島県,広島市中区,十日市町２丁目４番１号,,34,101,7300805,,,2024-02-22,清算の結了等,,,2015-10-05,1,,,,,トライシクル,0
2101,9360001012116,登記記録の閉鎖等,0,2024-02-29,2024-02-26,株式会社名護出雲殿,,株式会社,沖縄県,名護市,大東２丁目２２番２８号,,47,209,9050016,,,2024-02-26,清算の結了等,,,2015-10-05,1,,,,,ナゴイズモデン,0
2106,9360002020183,登記記録の閉鎖等,0,2024-02-29,2024-02-27,有限会社アイ・イー重機,,有限会社,沖縄県,国頭郡本部町,字崎本部４２９番地,,47,308,9050225,,,2024-02-27,清算の結了等,,,2015-10-05,1,,,,,アイイージュウキ,0
2107,9360002022139,登記記録の閉鎖等,0,2024-02-29,2024-02-22,有限会社シャローム電水,,有限会社,沖縄県,宮古島市,平良字下里１１４６番地の５,,47,214,9060013,,,2024-02-22,清算の結了等,,,2015-10-05,1,,,,,シャロームデンスイ,0
2113,9410001003324,登記記録の閉鎖等,0,2024-02-29,2024-02-26,株式会社グリーンケアガーデン,,株式会社,秋田県,秋田市,外旭川字堂ノ前１７４番地１,,05,201,0100802,,,2024-02-26,清算の結了等,,,2015-10-05,1,,,,,グリーンケアガーデン,0
2123,9440002009053,登記記録の閉鎖等,0,2024-02-29,2024-02-26,有限会社松井重機,,有限会社,北海道,久遠郡せたな町,北檜山区若松４４１番地,,01,371,0494752,,,2024-02-26,清算の結了等,,,2015-10-05,1,,,,,マツイジュウキ,0
2130,9500001014519,登記記録の閉鎖等,0,2024-02-29,2024-02-27,株式会社渡辺商会,,株式会社,愛媛県,四国中央市,村松町１８１番地,,38,213,7990401,,,2024-02-27,清算の結了等,,,2015-10-05,1,,,,,ワタナベショウカイ,0
