sequenceNumber,corporateNumber,process,correct,updateDate,changeDate,name,nameImageId,kind,prefectureName,cityName,streetNumber,addressImageId,prefectureCode,cityCode,postCode,addressOutside,addressOutsideImageId,closeDate,closeCause,successorCorporateNumber,changeCause,assignmentDate,latest,enName,enPrefectureName,enCityName,enAddressOutside,furigana,hihyoji
9,1010001257769,新規,0,2025-08-19,2025-08-19,株式会社Ｄｒｉｖｅ　Ｌｉｎｋ,,株式会社,東京都,千代田区,神田和泉町１番地６－１６ヤマトビル４０５,,13,101,1010024,,,,,,,2025-08-19,1,,,,,ドライブリンク,0
12,1010003048340,新規,0,2025-08-19,2025-08-19,Ｈｙｏｚａｎ　Ｌａｂｓ合同会社,,合同会社,東京都,中央区,八丁堀３丁目５番４号ＮＯＶＥＬＷＯＲＫ京橋,,13,102,1040032,,,,,,,2025-08-19,1,,,,,ヒョウザンラブス,0
13,1010003048398,新規,0,2025-08-19,2025-08-19,合同会社Ｌ．Ｊ．Ｂ　ＷＯＲＫＳ,,合同会社,東京都,中央区,銀座１丁目１０－１６－１００７,,13,102,1040061,,,,,,,2025-08-19,1,,,,,エルジェービーワークス,0
14,1010003048456,新規,0,2025-08-19,2025-08-19,Ｓｐｒｉｎｔ　ＭＬ２合同会社,,合同会社,東京都,千代田区,霞が関３丁目２番５号,,13,101,1000013,,,,,,,2025-08-19,1,,,,,スプリントエムエルツー,0
28,1010401192459,新規,0,2025-08-19,2025-08-19,アートテラ株式会社,,株式会社,東京都,港区,南青山６丁目８番２号エス・テラス南青山５０３,,13,103,1070062,,,,,,,2025-08-19,1,,,,,アートテラ,0
30,1010501054542,新規,0,2025-08-19,2025-08-19,顧家豊谷株式会社,,株式会社,東京都,台東区,下谷１丁目１３番８号４０４室,,13,106,1100004,,,,,,,2025-08-19,1,,,,,コカトヨタニ,0
31,1010501054567,新規,0,2025-08-19,2025-08-19,若康株式会社,,株式会社,東京都,台東区,松が谷２丁目１５番８号浅草Ｋ２ビル３０５号室,,13,106,1110036,,,,,,,2025-08-19,1,,,,,ジャクコウ,0
35,1010601067824,新規,0,2025-08-19,2025-08-19,株式会社タベルヨ,,株式会社,東京都,江東区,東陽１丁目３１番３－４０５号,,13,108,1350016,,,,,,,2025-08-19,1,,,,,タベルヨ,0
42,1010803005508,新規,0,2025-08-19,2025-08-19,合同会社Ｉ．Ｙ．＆Ｃｏ．,,合同会社,東京都,大田区,田園調布２丁目３９番５号,,13,111,1450071,,,,,,,2025-08-19,1,,,,,アイワイアンドコー,0
44,1010901057938,新規,0,2025-08-19,2025-08-19,株式会社Ｔａｋｅ　Ｂａｃｋ,,株式会社,東京都,世田谷区,奥沢４丁目３１番６号,,13,112,1580083,,,,,,,2025-08-19,1,,,,,テイクバック,0
46,1011001171415,新規,0,2025-08-19,2025-08-19,株式会社Ｔｏｋｙｏ　Ｗｅｌｌｎｅｓｓ　Ｃｌｕｂ,,株式会社,東京都,渋谷区,恵比寿西１丁目３６番２号ＴｈｅＣｏｎｏｅ代官山７１０,,13,113,1500021,,,,,,,2025-08-19,1,,,,,トウキョウウェルネスクラブ,0
47,1011001171547,新規,0,2025-08-19,2025-08-19,株式会社ｎｏｗ,,株式会社,東京都,渋谷区,笹塚２丁目３９番３号アーバンハウス１０７,,13,113,1510073,,,,,,,2025-08-19,1,,,,,ナウ,0
48,1011001171943,新規,0,2025-08-19,2025-08-19,株式会社ＮＩＴＯＧＯ,,株式会社,東京都,目黒区,中町２丁目４７番５ー４１３号,,13,110,1530065,,,,,,,2025-08-19,1,,,,,ニトゴ,0
53,1011101112756,新規,0,2025-08-19,2025-08-19,株式会社Ｓｙｐｈｅｒ,,株式会社,東京都,新宿区,西新宿３丁目３番１３号西新宿水間ビル２Ｆ,,13,104,1600023,,,,,,,2025-08-19,1,,,,,サイファー,0
54,1011101112871,新規,0,2025-08-19,2025-08-19,ＪＶＲ株式会社,,株式会社,東京都,新宿区,四谷３丁目１１,,13,104,1600004,,,,,,,2025-08-19,1,,,,,ジェイブイアール,0
61,1011303005667,新規,0,2025-08-19,2025-08-19,ゴールデンフォレスト合同会社,,合同会社,東京都,杉並区,堀ノ内１丁目８番３－８１５号,,13,115,1660013,,,,,,,2025-08-19,1,,,,,ゴールデンフォレスト,0
64,1011501032447,新規,0,2025-08-19,2025-08-19,宝珠ダイナミクス株式会社,,株式会社,東京都,荒川区,東尾久８丁目３８－１５,,13,118,1160012,,,,,,,2025-08-19,1,,,,,ホウジュダイナミクス,0
67,1011801046626,新規,0,2025-08-19,2025-08-19,株式会社みらいファーム,,株式会社,東京都,葛飾区,東新小岩１丁目１７番１２号,,13,122,1240023,,,,,,,2025-08-19,1,,,,,ミライファーム,0
70,1012403007289,新規,0,2025-08-19,2025-08-19,合同会社キョウカチ,,合同会社,東京都,三鷹市,上連雀２丁目１０番１２号,,13,204,1810012,,,,,,,2025-08-19,1,,,,,キョウカチ,0
73,1013303007809,新規,0,2025-08-19,2025-08-19,合同会社未来,,合同会社,東京都,豊島区,池袋２丁目１４番４号池袋ＴＡビル６階,,13,116,1710014,,,,,,,2025-08-19,1,,,,,ミライ,0
74,1013303007817,新規,0,2025-08-19,2025-08-19,ＡＲＨＡＭ合同会社,,合同会社,東京都,豊島区,南大塚３丁目４５－４ドエル朝日２０１,,13,116,1700005,,,,,,,2025-08-19,1,,,,,アルハム,0
77,1020001164320,新規,0,2025-08-19,2025-08-19,株式会社アテナ総合研究所,,株式会社,神奈川県,川崎市川崎区,駅前本町１１番地２川崎フロンティアビル４階,,14,131,2100007,,,,,,,2025-08-19,1,,,,,アテナソウゴウケンキュウジョ,0
78,1020001164337,新規,0,2025-08-19,2025-08-19,Ｐａｃｉｆｉｃ　Ｌｉｎｋ株式会社,,株式会社,神奈川県,横浜市保土ケ谷区,瀬戸ケ谷町２４３番地１１９,,14,106,2400024,,,,,,,2025-08-19,1,,,,,パシフィックリンク,0
79,1020001164345,新規,0,2025-08-19,2025-08-19,株式会社Ｆａｓｔｏｒａ,,株式会社,神奈川県,横浜市旭区,今宿西町３５４番地,,14,112,2410031,,,,,,,2025-08-19,1,,,,,ファストラ,0
80,1020001164353,新規,0,2025-08-19,2025-08-19,株式会社ＶＯＩＣＥ,,株式会社,神奈川県,川崎市麻生区,百合丘２丁目１１番地１プレシス新百合ヶ丘４０４,,14,137,2150011,,,,,,,2025-08-19,1,,,,,ボイス,0
81,1020001164361,新規,0,2025-08-19,2025-08-19,株式会社オニデン,,株式会社,神奈川県,川崎市川崎区,浅田２丁目１６番１９－１,,14,131,2100847,,,,,,,2025-08-19,1,,,,,オニデン,0
82,1020001164394,新規,0,2025-08-19,2025-08-19,株式会社医科歯科マーケティング,,株式会社,神奈川県,横浜市戸塚区,上倉田町３７８番地２号,,14,110,2440816,,,,,,,2025-08-19,1,,,,,イカシカマーケティング,0
86,1020003029174,新規,0,2025-08-19,2025-08-19,ウェルミナ合同会社,,合同会社,神奈川県,横浜市都筑区,北山田２丁目２７－２－１０６,,14,118,2240021,,,,,,,2025-08-19,1,,,,,ウェルミナ,0
92,1021001085894,新規,0,2025-08-19,2025-08-19,新株式会社,,株式会社,神奈川県,大和市,柳橋４丁目３番９号,,14,213,2420022,,,,,,,2025-08-19,1,,,,,アラタ,0
93,1021001086059,新規,0,2025-08-19,2025-08-19,株式会社サザンプランニング,,株式会社,神奈川県,茅ヶ崎市,赤羽根１４２番地,,14,207,2530001,,,,,,,2025-08-19,1,,,,,サザンプランニング,0
94,1021005013414,新規,0,2025-08-19,2025-08-19,ＮＰＯ法人ははことファミリー,,その他の設立登記法人,神奈川県,大和市,西鶴間２丁目４番１７号,,14,213,2420005,,,,,,,2025-08-19,1,,,,,ハハコトファミリー,0
98,1030003027441,新規,0,2025-08-19,2025-08-19,合同会社ＲｅｌｉｅｒＭ,,合同会社,埼玉県,所沢市,緑町４丁目１５番２８号－３０２,,11,208,3591111,,,,,,,2025-08-19,1,,,,,ルリエム,0
108,1050001057091,新規,0,2025-08-19,2025-08-19,株式会社いしり,,株式会社,茨城県,つくば市,東光台３丁目１２番地１２,,08,220,3002635,,,,,,,2025-08-19,1,,,,,イシリ,0
109,1050001057117,新規,0,2025-08-19,2025-08-19,株式会社Ｌａｓｔ　Ｗｉｎ,,株式会社,茨城県,土浦市,川口１丁目３番－１０７号,,08,203,3000033,,,,,,,2025-08-19,1,,,,,ラストウィン,0
119,1080003003529,新規,0,2025-08-19,2025-08-19,嘉木Ｔｅａ＆Ｈｅｒｂ合同会社,,合同会社,静岡県,藤枝市,音羽町１丁目１４番１５ー１号,,22,214,4260087,,,,,,,2025-08-19,1,,,,,カボクティーアンドハーブ,0
121,1080103003395,新規,0,2025-08-19,2025-08-19,Ｅｎｔｅｒｐｒｉｓｅ　Ｎｅｔｗｏｒｋｉｎｇ　Ｃｏｍｍｅｒｃｅ合同会社,,合同会社,静岡県,富士市,松岡４０－１－１０５号,,22,210,4160909,,,,,,,2025-08-19,1,,,,,エンタプライズネトワーキングコマース,0
122,1080105006529,新規,0,2025-08-19,2025-08-19,タックスＦｕｊｉ税理士法人,,その他の設立登記法人,静岡県,富士市,今泉３丁目１３番４号,,22,210,4170001,,,,,,,2025-08-19,1,,,,,タックスフジ,0
125,1090001019468,新規,0,2025-08-19,2025-08-19,株式会社Ｔ２,,株式会社,山梨県,甲州市,塩山上塩後４５５番地１,,19,213,4040045,,,,,,,2025-08-19,1,,,,,ティーツー,0
127,1100001038879,新規,0,2025-08-19,2025-08-19,株式会社ｓｍａｌｌｖｉｌｌａｇｅ,,株式会社,長野県,長野市,川中島町原１２６４番地１,,20,201,3812224,,,,,,,2025-08-19,1,,,,,スモールヴィレッジ,0
140,1120001278845,新規,0,2025-08-19,2025-08-19,株式会社ＹＡＲＤ,,株式会社,大阪府,大阪市東成区,東今里１丁目７番１２号,,27,115,5370011,,,,,,,2025-08-19,1,,,,,ヤード,0
141,1120001278861,新規,0,2025-08-19,2025-08-19,向日葵株式会社,,株式会社,大阪府,大阪市東住吉区,南田辺１丁目５番１号ヴェルドール南田辺２０２号,,27,121,5460033,,,,,,,2025-08-19,1,,,,,ヒマワリ,0
142,1120001278894,新規,0,2025-08-19,2025-08-19,株式会社セカンド,,株式会社,大阪府,大阪市中央区,高津３丁目１５番６－７１３号,,27,128,5420072,,,,,,,2025-08-19,1,,,,,セカンド,0
145,1120101072289,新規,0,2025-08-19,2025-08-19,株式会社ユーティライ,,株式会社,大阪府,堺市南区,豊田５２－２１,,27,145,5900106,,,,,,,2025-08-19,1,,,,,ユーティライ,0
146,1120105010055,新規,0,2025-08-19,2025-08-19,ＮＰＯ法人Ｂｒｅａｋ　Ｓｐｏｒｔｓ　Ａｃａｄｅｍｙ,,その他の設立登記法人,大阪府,堺市南区,三原台２－７－２ヴェーイスト泉ヶ丘３０３号室,,27,145,5900100,,,,,,,2025-08-19,1,,,,,ブレイクスポーツアカデミー,0
153,1130001080291,新規,0,2025-08-19,2025-08-19,株式会社ＩＡＭ,,株式会社,京都府,舞鶴市,字浜７２６番地,,26,202,6250036,,,,,,,2025-08-19,1,,,,,アイエイエム,0
154,1130001080300,新規,0,2025-08-19,2025-08-19,株式会社ＭＴ．ベスト,,株式会社,京都府,京都市下京区,西七条比輪田町４,,26,106,6008882,,,,,,,2025-08-19,1,,,,,エムティベスト,0
164,1140001139673,新規,0,2025-08-19,2025-08-19,株式会社サツキ重機,,株式会社,兵庫県,揖保郡太子町,老原１５番地２,,28,464,6711553,,,,,,,2025-08-19,1,,,,,サツキジュウキ,0
165,1140001139707,新規,0,2025-08-19,2025-08-19,株式会社Ｙ’ｓ　Ｐｌｕｍｂｉｎｇ　ｗｏｒｋｓ,,株式会社,兵庫県,神戸市北区,ひよどり台１丁目２０番地の９,,28,109,6511123,,,,,,,2025-08-19,1,,,,,ワイズプラミングワークス,0
166,1140001139715,新規,0,2025-08-19,2025-08-19,株式会社Ｍｏｎｔ　Ｂｌａｎｃ,,株式会社,兵庫県,姫路市,苫編４０５－１－１０２,,28,201,6700986,,,,,,,2025-08-19,1,,,,,モンブラン,0
169,1140003022456,新規,0,2025-08-19,2025-08-19,Ｔ＆Ｐ合同会社,,合同会社,兵庫県,明石市,魚住町清水２２７１番地の１サンライフ土山Ａ－１０１号,,28,203,6740074,,,,,,,2025-08-19,1,,,,,ティーアンドピー,0
179,1180001167927,新規,0,2025-08-19,2025-08-19,株式会社ゆたかＨＲテック,,株式会社,愛知県,名古屋市東区,東外堀町６０番地ＡＧビル５Ｆ,,23,102,4610017,,,,,,,2025-08-19,1,,,,,ユタカエイチアールテック,0
180,1180001168165,新規,0,2025-08-19,2025-08-19,ミライズコンサルティング株式会社,,株式会社,愛知県,名古屋市中村区,名駅３丁目４番１０号アルティメイト名駅１ｓｔ８階,,23,105,4500002,,,,,,,2025-08-19,1,,,,,ミライズコンサルティング,0
181,1180001168198,新規,0,2025-08-19,2025-08-19,株式会社山翔工業,,株式会社,愛知県,丹羽郡大口町,余野３丁目３番地カラバコＥ,,23,361,4800146,,,,,,,2025-08-19,1,,,,,ヤマトコウギョウ,0
182,1180001168264,新規,0,2025-08-19,2025-08-19,一宮コンサルティング株式会社,,株式会社,愛知県,一宮市,大和町苅安賀３０１５,,23,203,4910934,,,,,,,2025-08-19,1,,,,,イチノミヤコンサルティング,0
185,1180003028813,新規,0,2025-08-19,2025-08-19,ＭＥＮＡ合同会社,,合同会社,愛知県,名古屋市中川区,供米田２丁目７１３番地,,23,110,4540984,,,,,,,2025-08-19,1,,,,,メナ,0
186,1180003028887,新規,0,2025-08-19,2025-08-19,合同会社Ｎｙａｌｅｉｌ,,合同会社,愛知県,春日井市,中央台３丁目１－４－３０５,,23,206,4870011,,,,,,,2025-08-19,1,,,,,ニャレイユ,0
202,1240001065389,新規,0,2025-08-19,2025-08-19,株式会社ＯＮＥ　ＥＩＧＨＴ,,株式会社,広島県,広島市南区,皆実町１丁目１番３１号,,34,103,7340007,,,,,,,2025-08-19,1,,,,,ワンエイト,0
204,1240003007372,新規,0,2025-08-19,2025-08-19,弥栄産業合同会社,,合同会社,広島県,福山市,郷分町１０６８番地,,34,207,7200093,,,,,,,2025-08-19,1,,,,,イヤサカサンギョウ,0
205,1260001040448,新規,0,2025-08-19,2025-08-19,株式会社ＳＫＹ,,株式会社,岡山県,倉敷市,東塚７丁目１１番２０号,,33,202,7128044,,,,,,,2025-08-19,1,,,,,スカイ,0
212,1290001111023,新規,0,2025-08-19,2025-08-19,株式会社ＳＡＳカンパニー,,株式会社,福岡県,福岡市中央区,今泉２丁目３番２３号,,40,133,8100021,,,,,,,2025-08-19,1,,,,,エスエーエスカンパニー,0
213,1290001111097,新規,0,2025-08-19,2025-08-19,株式会社ＫＦＧ,,株式会社,福岡県,福岡市中央区,平尾３丁目１４番２５号,,40,133,8100014,,,,,,,2025-08-19,1,,,,,ケイエフジー,0
214,1290001111114,新規,0,2025-08-19,2025-08-19,株式会社ＡｒｋＬｉｎｅ,,株式会社,福岡県,古賀市,青柳１２９２番地４,,40,223,8113134,,,,,,,2025-08-19,1,,,,,アークライン,0
215,1290001111122,新規,0,2025-08-19,2025-08-19,ＡｒｃＫ株式会社,,株式会社,福岡県,大野城市,中３丁目１５番１２号,,40,219,8160906,,,,,,,2025-08-19,1,,,,,アークケイ,0
216,1290001111130,新規,0,2025-08-19,2025-08-19,株式会社ＨＥＹ　ＬＵＣＫＹ,,株式会社,福岡県,糟屋郡久山町,大字久原４１８８番地６,,40,348,8112501,,,,,,,2025-08-19,1,,,,,ヘイラッキー,0
219,1290003017177,新規,0,2025-08-19,2025-08-19,合同会社九州ドローン総合サービス,,合同会社,福岡県,柳川市,立石２０８,,40,207,8320003,,,,,,,2025-08-19,1,,,,,キュウシュウドローンソウゴウサービス,0
220,1290003017235,新規,0,2025-08-19,2025-08-19,合同会社旭志開発,,合同会社,福岡県,福岡市博多区,冷泉町２番９号,,40,132,8120039,,,,,,,2025-08-19,1,,,,,キョクシカイハツ,0
221,1290003017243,新規,0,2025-08-19,2025-08-19,合同会社ａｍａｒｏｃａ,,合同会社,福岡県,福岡市中央区,大名１丁目１２番３号,,40,133,8100041,,,,,,,2025-08-19,1,,,,,アマロカ,0
222,1290003017251,新規,0,2025-08-19,2025-08-19,合同会社Ｇｏｌｄｍａｎ,,合同会社,福岡県,久留米市,日吉町７４番地１グランフォーレ日吉プレミアム２０５号,,40,203,8300017,,,,,,,2025-08-19,1,,,,,ゴールドマン,0
223,1290003017268,新規,0,2025-08-19,2025-08-19,合同会社Ｒａｂｂｉｔ,,合同会社,福岡県,福岡市西区,富士見２丁目１７番２２号,,40,135,8190387,,,,,,,2025-08-19,1,,,,,ラビット,0
245,1430001095020,新規,0,2025-08-19,2025-08-19,株式会社月陽舎,,株式会社,北海道,札幌市中央区,南五条西１５丁目２番３－５０３号,,01,101,0640805,,,,,,,2025-08-19,1,,,,,ゲツヨウシャ,0
251,1700150131837,新規,0,2025-08-19,2025-08-19,ＳＨＥＮＺＨＥＮ　ＢＡＯＪＩＡ　ＢＡＴＴＥＲＹ　ＴＥＣＨＮＯＬＯＧＹ　ＣＯ．，ＬＴＤ,,外国会社等,,,,,,,,Ｒｏｏｍ　２０１，　Ｂｕｉｌｄｉｎｇ　Ａ，　Ｂｌｏｃｋ６，　Ｎａｎａｎ　Ｓｑｕａｒｅ，　Ｈｕｉｚｈａｎ　Ｂａｙ，　Ｚｈａｎｃｈｅｎｇ　Ｃｏｍｍｕｎｉｔｙ，　Ｆｕｈａｉ　Ｓｔｒｅｅｔ，　Ｂａｏ’ａｎ　Ｄｉｓｔｒｉｃｔ，　Ｓｈｅｎｚｈｅｎ　Ｃｉｔｙ,,,,,,2025-08-19,1,,,,,シンセンバオジャバッテリーテクノロジーカンパニーリミテッド,0
257,2010001257727,新規,0,2025-08-19,2025-08-19,株式会社Ｎｏｖａｃｕｒｅ,,株式会社,東京都,千代田区,丸の内２丁目７番２号ＪＰタワー１４階,,13,101,1000005,,,,,,,2025-08-19,1,,,,,ノヴァキュア,0
258,2010001257784,新規,0,2025-08-19,2025-08-19,Ｉｋｏｎ　Ｓｏｌｕｔｉｏｎｓ株式会社,,株式会社,東京都,千代田区,丸の内１丁目６－５,,13,101,1000005,,,,,,,2025-08-19,1,,,,,アイコンソリューションズ,0
259,2010001257792,新規,0,2025-08-19,2025-08-19,株式会社ミライズ,,株式会社,東京都,文京区,向丘１丁目１０番２号ＴＨＥＰＬＡＺＡオーベル白山１２０５号,,13,105,1130023,,,,,,,2025-08-19,1,,,,,ミライズ,0
260,2010001257834,新規,0,2025-08-19,2025-08-19,Ｌｏｇｅｎｃｅ株式会社,,株式会社,東京都,中央区,日本橋室町１丁目１１番１２号日本橋水野ビル７階,,13,102,1030022,,,,,,,2025-08-19,1,,,,,ロジェンス,0
261,2010001257842,新規,0,2025-08-19,2025-08-19,株式会社ＩＳＵスペシャルティケミカルジャパン,,株式会社,東京都,千代田区,麹町２丁目２番２２号（Ｃ／ＯＪｏｏ－ｒｅａｌｅｓｔａｔｅ－ｏｆｆｉｃｅ）,,13,101,1020083,,,,,,,2025-08-19,1,,,,,イススペシャルティケミカルジャパン,0
265,2010003048380,新規,0,2025-08-19,2025-08-19,合同会社ＰＯＩＥＳＩＳ,,合同会社,東京都,中央区,銀座１丁目２２番１１号銀座大竹ビジデンス２Ｆ,,13,102,1040061,,,,,,,2025-08-19,1,,,,,ポイエーシス,0
266,2010003048455,新規,0,2025-08-19,2025-08-19,合同会社Ｂａｃｋｃｒａｆｔ,,合同会社,東京都,中央区,銀座１丁目２２番１１号,,13,102,1040061,,,,,,,2025-08-19,1,,,,,バッククラフト,0
267,2010003048463,新規,0,2025-08-19,2025-08-19,ハーモニックインサイト合同会社,,合同会社,東京都,中央区,銀座１丁目１２番４号Ｎ＆ＥＢＬＤ．６Ｆ,,13,102,1040061,,,,,,,2025-08-19,1,,,,,ハーモニックインサイト,0
270,2010005040550,新規,0,2025-08-19,2025-08-19,一般社団法人再生医療品質基準協議会,,その他の設立登記法人,東京都,中央区,銀座６丁目１３番１６号銀座ＷａｌｌビルＵＣＦ５０１,,13,102,1040061,,,,,,,2025-08-19,1,,,,,サイセイイリョウヒンシツキジュンキョウギカイ,0
274,2010401192383,新規,0,2025-08-19,2025-08-19,株式会社星名,,株式会社,東京都,港区,南青山３丁目１番３６号青山丸竹ビル６Ｆ,,13,103,1070062,,,,,,,2025-08-19,1,,,,,ホシナ,0
275,2010401192466,新規,0,2025-08-19,2025-08-19,未来教育インターナショナル株式会社,,株式会社,東京都,港区,浜松町２丁目２番１５号浜松町ダイヤビル２Ｆ,,13,103,1050013,,,,,,,2025-08-19,1,,,,,ミライキョウイクインターナショナル,0
276,2010401192482,新規,0,2025-08-19,2025-08-19,株式会社木潤,,株式会社,東京都,港区,南青山３丁目１番３６号青山丸竹ビル６Ｆ,,13,103,1070062,,,,,,,2025-08-19,1,,,,,キジュン,0
279,2010403035788,新規,0,2025-08-19,2025-08-19,ＧＸコンサルテイング合同会社,,合同会社,東京都,港区,北青山１丁目３番１号アールキューブ青山３階,,13,103,1070061,,,,,,,2025-08-19,1,,,,,ジーエックスコンサルティング,0
281,2010501054509,新規,0,2025-08-19,2025-08-19,株式会社アイコー,,株式会社,東京都,台東区,池之端２丁目１番３９－６０１号,,13,106,1100008,,,,,,,2025-08-19,1,,,,,アイコー,0
282,2010501054525,新規,0,2025-08-19,2025-08-19,晴海株式会社,,株式会社,東京都,台東区,東上野３丁目１８番１号ＴＨＥ・ＢＬＯＯＭ・ＵＥＮＯ３２２号室,,13,106,1100015,,,,,,,2025-08-19,1,,,,,ハルミ,0
283,2010501054558,新規,0,2025-08-19,2025-08-19,株式会社ＯＭＯＩＤＥ,,株式会社,東京都,台東区,浅草４丁目１－７,,13,106,1110032,,,,,,,2025-08-19,1,,,,,オモイデ,0
284,2010501054566,新規,0,2025-08-19,2025-08-19,永誉株式会社,,株式会社,東京都,台東区,松が谷２丁目１５番８号浅草Ｋ２ビル３０４号室,,13,106,1110036,,,,,,,2025-08-19,1,,,,,エイヨ,0
285,2010501054574,新規,0,2025-08-19,2025-08-19,拓思文化株式会社,,株式会社,東京都,台東区,北上野１丁目５番２号２Ｆ,,13,106,1100014,,,,,,,2025-08-19,1,,,,,タクシブンカ,0
286,2010503007951,新規,0,2025-08-19,2025-08-19,東京櫻福国際合同会社,,合同会社,東京都,台東区,西浅草２丁目１６－９小泉ビル１０１,,13,106,1110035,,,,,,,2025-08-19,1,,,,,トウキョウオウフクコクサイ,0
294,2010605004491,新規,0,2025-08-19,2025-08-19,一般社団法人日本国際教育水準評定委員会,,その他の設立登記法人,東京都,江東区,南砂２丁目５－１４東陽町ぐりんたす４０２,,13,108,1360076,,,,,,,2025-08-19,1,,,,,ニホンコクサイキョウイクスイジュンヒョウテイイインカイ,0
296,2010801036504,新規,0,2025-08-19,2025-08-19,株式会社Ｓ‐ＣＯＲＴ,,株式会社,東京都,大田区,蒲田５丁目２７番１１－２０６号,,13,111,1440052,,,,,,,2025-08-19,1,,,,,エスコート,0
298,2010803005507,新規,0,2025-08-19,2025-08-19,合同会社Ｍ＆Ｙ,,合同会社,東京都,大田区,鵜の木２丁目１１番１２号,,13,111,1460091,,,,,,,2025-08-19,1,,,,,エムアンドワイ,0
303,2010901057929,新規,0,2025-08-19,2025-08-19,株式会社Ｂｌｏｏｍｉｎｇ　Ｈｏｒｉｚｏｎ,,株式会社,東京都,世田谷区,代田３丁目２３番３７号,,13,112,1550033,,,,,,,2025-08-19,1,,,,,ブルーミングホライズン,0
304,2010901057937,新規,0,2025-08-19,2025-08-19,株式会社Ｇｒｏｖｅ　Ｐａｒｔｎｅｒ,,株式会社,東京都,世田谷区,北烏山９丁目２－８篠田荘２０５号,,13,112,1570061,,,,,,,2025-08-19,1,,,,,グローブパートナー,0
306,2011001171240,新規,0,2025-08-19,2025-08-19,株式会社Ｂｏｏｓｔｅｒｓ　ＪＰ,,株式会社,東京都,渋谷区,代々木４丁目３１番４号キャッスル新宿１１０２,,13,113,1510053,,,,,,,2025-08-19,1,,,,,ブースターズジェイピー,0
307,2011001171372,新規,0,2025-08-19,2025-08-19,株式会社シティ,,株式会社,東京都,目黒区,青葉台３丁目５番９号,,13,110,1530042,,,,,,,2025-08-19,1,,,,,シティ,0
309,2011003022210,新規,0,2025-08-19,2025-08-19,合同会社コアパス,,合同会社,東京都,渋谷区,道玄坂１丁目１０番８号渋谷道玄坂東急ビル２Ｆ－Ｃ,,13,113,1500043,,,,,,,2025-08-19,1,,,,,コアパス,0
315,2011101112598,新規,0,2025-08-19,2025-08-19,株式会社ＰＬＡＮ　ＴＷＯ,,株式会社,東京都,新宿区,西新宿６丁目２１番１－８０４号,,13,104,1600023,,,,,,,2025-08-19,1,,,,,プランツー,0
316,2011101112739,新規,0,2025-08-19,2025-08-19,株式会社さくらＩＴ,,株式会社,東京都,新宿区,新宿２丁目１２番１３号新宿アントレサロンビル２階,,13,104,1600022,,,,,,,2025-08-19,1,,,,,サクラアイティー,0
317,2011101112920,新規,0,2025-08-19,2025-08-19,新宿蒸留株式会社,,株式会社,東京都,新宿区,新宿１丁目３６番２号新宿第七葉山ビル３階,,13,104,1600022,,,,,,,2025-08-19,1,,,,,シンジュクジョウリュウ,0
318,2011105011540,新規,0,2025-08-19,2025-08-19,行政書士法人新沼綜合法務事務所,,その他の設立登記法人,東京都,新宿区,西新宿３丁目７番３３号ミツワバイナリー７０１,,13,104,1600023,,,,,,,2025-08-19,1,,,,,ニイヌマソウゴウホウムジムショ,0
329,2011601028906,新規,0,2025-08-19,2025-08-19,株式会社Ｎ２,,株式会社,東京都,練馬区,栄町３１番７号,,13,120,1760006,,,,,,,2025-08-19,1,,,,,エヌツー,0
334,2012401043500,新規,0,2025-08-19,2025-08-19,株式会社サムライエッグ,,株式会社,東京都,武蔵野市,境南町２丁目１０番２１号,,13,203,1800023,,,,,,,2025-08-19,1,,,,,サムライエッグ,0
340,2013301054752,新規,0,2025-08-19,2025-08-19,アクアフロー株式会社,,株式会社,東京都,豊島区,西池袋４丁目３２番地４号,,13,116,1710021,,,,,,,2025-08-19,1,,,,,アクアフロー,0
343,2013303007808,新規,0,2025-08-19,2025-08-19,合同会社ゼロスタ,,合同会社,東京都,豊島区,池袋２丁目１４番４号池袋ＴＡビル６階,,13,116,1710014,,,,,,,2025-08-19,1,,,,,ゼロスタ,0
346,2020001164336,新規,0,2025-08-19,2025-08-19,株式会社ケインマン,,株式会社,神奈川県,横浜市金沢区,富岡西２丁目７番２６号アリスガーデンＳ棟１０１号室,,14,108,2360052,,,,,,,2025-08-19,1,,,,,ケインマン,0
347,2020001164344,新規,0,2025-08-19,2025-08-19,株式会社ＭＡＲＲＴＥ,,株式会社,神奈川県,横浜市中区,豆口台１４４番地１,,14,104,2310838,,,,,,,2025-08-19,1,,,,,マーテ,0
348,2020001164402,新規,0,2025-08-19,2025-08-19,株式会社みのわプロパティーズ,,株式会社,神奈川県,横浜市港北区,箕輪町１丁目１４番１－２０１号,,14,109,2230051,,,,,,,2025-08-19,1,,,,,ミノワプロパティーズ,0
349,2020001164419,新規,0,2025-08-19,2025-08-19,株式会社レゾナテック,,株式会社,神奈川県,川崎市高津区,梶ケ谷４丁目１番地４プランドール梶ヶ谷２０４,,14,134,2130015,,,,,,,2025-08-19,1,,,,,レゾナテック,0
350,2020001164427,新規,0,2025-08-19,2025-08-19,株式会社ルートメディカル,,株式会社,神奈川県,川崎市麻生区,百合丘１丁目２３番地２百合ヶ丘ステーションテラス３０２,,14,137,2150011,,,,,,,2025-08-19,1,,,,,ルートメディカル,0
351,2020001164443,新規,0,2025-08-19,2025-08-19,株式会社クイックリペアサービス,,株式会社,神奈川県,横浜市神奈川区,金港町５－１４クアドリフォリオ８階,,14,102,2210056,,,,,,,2025-08-19,1,,,,,クイックリペアサービス,0
355,2020003029132,新規,0,2025-08-19,2025-08-19,ピボットビズコンサルティング合同会社,,合同会社,神奈川県,横浜市港北区,大豆戸町８０３番地２大倉山ハイム７－２０７,,14,109,2220032,,,,,,,2025-08-19,1,,,,,ピボットビズコンサルティング,0
356,2020003029198,新規,0,2025-08-19,2025-08-19,ＥＭＩ合同会社,,合同会社,神奈川県,川崎市川崎区,渡田２丁目１８番１６－７号,,14,131,2100837,,,,,,,2025-08-19,1,,,,,エミ,0
360,2021001086058,新規,0,2025-08-19,2025-08-19,株式会社恩信道,,株式会社,神奈川県,大和市,つきみ野５丁目１８番地２レクセルマンションつきみ野５０６号,,14,213,2420002,,,,,,,2025-08-19,1,,,,,オンシンドウ,0
361,2021001086066,新規,0,2025-08-19,2025-08-19,株式会社グリーンヒルズ,,株式会社,神奈川県,横須賀市,浜見台１丁目３番２号,,14,201,2370077,,,,,,,2025-08-19,1,,,,,グリーンヒルズ,0
362,2021001086099,新規,0,2025-08-19,2025-08-19,株式会社アストレア,,株式会社,神奈川県,藤沢市,湘南台２丁目１７番地の２８Ｓコート湘南２Ｆ,,14,205,2520804,,,,,,,2025-08-19,1,,,,,アストレア,0
363,2021001086140,新規,0,2025-08-19,2025-08-19,ピックナコ株式会社,,株式会社,神奈川県,鎌倉市,大船２丁目１７番２０号,,14,204,2470056,,,,,,,2025-08-19,1,,,,,ピックナコ,0
373,2030001168245,新規,0,2025-08-19,2025-08-19,宏図株式会社,,株式会社,埼玉県,さいたま市見沼区,大字大谷２６番地１８,,11,104,3370014,,,,,,,2025-08-19,1,,,,,コウズ,0
374,2030001168261,新規,0,2025-08-19,2025-08-19,株式会社Ｍｏｏｎ　Ｔｅｃｈｎｉｃａ,,株式会社,埼玉県,さいたま市大宮区,下町１丁目２１番地１－６０８号,,11,103,3300844,,,,,,,2025-08-19,1,,,,,ムーンテクニカ,0
377,2030003027440,新規,0,2025-08-19,2025-08-19,合同会社ダイシュウ,,合同会社,埼玉県,熊谷市,田島２４０番地７,,11,202,3600215,,,,,,,2025-08-19,1,,,,,ダイシュウ,0
378,2040001139971,新規,0,2025-08-19,2025-08-19,安順株式会社,,株式会社,千葉県,千葉市中央区,中央４丁目１３番２号,,12,101,2600013,,,,,,,2025-08-19,1,,,,,アンジュン,0
379,2040001140095,新規,0,2025-08-19,2025-08-19,Ａｌｔｕｓｐａｒｋ株式会社,,株式会社,千葉県,茂原市,早野新田４１―１３サンヴェール長者ヶ台Ｃ２０１号室,,12,210,2970031,,,,,,,2025-08-19,1,,,,,アルタスパーク,0
380,2040001140112,新規,0,2025-08-19,2025-08-19,株式会社ナカムラ研究所,,株式会社,千葉県,千葉市美浜区,真砂３丁目１７番４棟５０７号,,12,106,2610011,,,,,,,2025-08-19,1,,,,,ナカムラケンキュウショ,0
383,2040003028314,新規,0,2025-08-19,2025-08-19,合同会社陸離企画,,合同会社,千葉県,館山市,湊１３７番地の１ミナトバラックス２Ｄ号室,,12,205,2940054,,,,,,,2025-08-19,1,,,,,リクリキカク,0
384,2050001057124,新規,0,2025-08-19,2025-08-19,株式会社Ｅｗａｌｕｔｈ,,株式会社,茨城県,つくば市,みどりの南１０５番地９,,08,220,3050884,,,,,,,2025-08-19,1,,,,,エヴァルス,0
395,2070001043262,新規,0,2025-08-19,2025-08-19,株式会社シルクエステート,,株式会社,群馬県,太田市,大原町８２番地５９,,10,205,3792304,,,,,,,2025-08-19,1,,,,,シルクエステート,0
400,2080003003528,新規,0,2025-08-19,2025-08-19,Ｄ＆Ｐ合同会社,,合同会社,静岡県,静岡市葵区,幸町５３番地１マンションサイワイ１Ｆ－Ｂ,,22,101,4200067,,,,,,,2025-08-19,1,,,,,ディーアンドピー,0
406,2110001039520,新規,0,2025-08-19,2025-08-19,森と暮らす株式会社,,株式会社,新潟県,長岡市,小国町桐沢２０１４番地１,,15,202,9495212,,,,,,,2025-08-19,1,,,,,モリトクラス,0
417,2120001278786,新規,0,2025-08-19,2025-08-19,株式会社ハミガキドッグ,,株式会社,大阪府,大阪市天王寺区,石ケ辻町３－１０－１０１,00140341,27,109,5430031,,,,,,,2025-08-19,1,,,,,ハミガキドッグ,0
418,2120001278836,新規,0,2025-08-19,2025-08-19,株式会社ＧＩＭ　ＣＯＭＰＡＮＹ,,株式会社,大阪府,大阪市淀川区,塚本５丁目９－１８－１階,00140337,27,123,5320026,,,,,,,2025-08-19,1,,,,,ジムカンパニー,0
419,2120001278852,新規,0,2025-08-19,2025-08-19,株式会社ダブルエイト,,株式会社,大阪府,大阪市西区,江戸堀３丁目８－８－９０２,,27,106,5500002,,,,,,,2025-08-19,1,,,,,ダブルエイト,0
420,2120001278860,新規,0,2025-08-19,2025-08-19,株式会社ＤＥＬＰＡＳＳＯ,,株式会社,大阪府,大阪市阿倍野区,阿倍野筋３丁目５番１７－２５０２号,,27,119,5450052,,,,,,,2025-08-19,1,,,,,デルパッソ,0
421,2120001278919,新規,0,2025-08-19,2025-08-19,株式会社ＷＡＮ貿易,,株式会社,大阪府,大阪市淀川区,西中島６丁目６番９－４０５号,,27,123,5320011,,,,,,,2025-08-19,1,,,,,ワンボウエキ,0
427,2120003030352,新規,0,2025-08-19,2025-08-19,合同会社ＨＡＲＵ,,合同会社,大阪府,大阪市北区,梅田１丁目２番２号大阪駅前第２ビル１２‐１２,,27,127,5300001,,,,,,,2025-08-19,1,,,,,ハル,0
430,2120901051326,新規,0,2025-08-19,2025-08-19,株式会社ＴＧＶ,,株式会社,大阪府,池田市,住吉１丁目２番６号,,27,204,5630033,,,,,,,2025-08-19,1,,,,,ティージーブイ,0
435,2130001080290,新規,0,2025-08-19,2025-08-19,株式会社森司防災,,株式会社,京都府,京都市右京区,西京極北庄境町１４番地８,,26,108,6150802,,,,,,,2025-08-19,1,,,,,モリツカサボウサイ,0
442,2150001028338,新規,0,2025-08-19,2025-08-19,株式会社翔花,,株式会社,奈良県,天理市,和爾町１１７１番地,,29,204,6320002,,,,,,,2025-08-19,1,,,,,ショウカ,0
451,2180001168180,新規,0,2025-08-19,2025-08-19,株式会社ＦＩＦＴＹ,,株式会社,愛知県,日進市,香久山３丁目７０１番地１３,,23,230,4700134,,,,,,,2025-08-19,1,,,,,フィフティ,0
456,2180003028878,新規,0,2025-08-19,2025-08-19,合同会社コル,,合同会社,愛知県,名古屋市東区,東外堀町１７番地,,23,102,4610017,,,,,,,2025-08-19,1,,,,,コル,0
457,2180003028886,新規,0,2025-08-19,2025-08-19,ゆきあり安心サポート合同会社,,合同会社,愛知県,名古屋市中村区,大日町１番５号,,23,105,4530034,,,,,,,2025-08-19,1,,,,,ユキアリアンシンサポート,0
467,2190001032476,新規,0,2025-08-19,2025-08-19,株式会社西美装,,株式会社,三重県,鈴鹿市,長太新町２丁目１３番２８－１号,,24,207,5130041,,,,,,,2025-08-19,1,,,,,サイビソウ,0
476,2200001044156,新規,0,2025-08-19,2025-08-19,株式会社グローブ,,株式会社,岐阜県,大垣市,加賀野３丁目５２番地５,,21,202,5030006,,,,,,,2025-08-19,1,,,,,グローブ,0
483,2230001021037,新規,0,2025-08-19,2025-08-19,株式会社勝,,株式会社,富山県,高岡市,西田２３４番地１,,16,202,9330137,,,,,,,2025-08-19,1,,,,,カツ,0
491,2250001021299,新規,0,2025-08-19,2025-08-19,スィエル株式会社,,株式会社,山口県,下関市,王司川端１丁目７番２４号,,35,201,7520912,,,,,,,2025-08-19,1,,,,,スィエル,0
502,2290001111014,新規,0,2025-08-19,2025-08-19,株式会社ＢＵＤＤＹ　ＨＯＭＥ,,株式会社,福岡県,福岡市東区,八田１丁目１番１－４１１号,,40,131,8130031,,,,,,,2025-08-19,1,,,,,バディホーム,0
503,2290001111039,新規,0,2025-08-19,2025-08-19,株式会社ｙｏｕｓｈｉｎ,,株式会社,福岡県,筑紫野市,大字下見５３２番地４,,40,217,8180021,,,,,,,2025-08-19,1,,,,,ユウシン,0
504,2290001111055,新規,0,2025-08-19,2025-08-19,株式会社ゆい,,株式会社,福岡県,福岡市東区,奈多１丁目２番５９－１０４号ヴィラージュ奈多,,40,131,8110204,,,,,,,2025-08-19,1,,,,,ユイ,0
505,2290001111063,新規,0,2025-08-19,2025-08-19,長成株式会社,,株式会社,福岡県,飯塚市,楽市４８７番地１－１０３号,,40,205,8200074,,,,,,,2025-08-19,1,,,,,チョウセイ,0
506,2290001111088,新規,0,2025-08-19,2025-08-19,株式会社ＳｅｃｕｒｉｔｙＯｆＮｅｗＹｏｒｋ,,株式会社,福岡県,福岡市博多区,奈良屋町１４－２０ベスト大博ビル７０１,,40,132,8120023,,,,,,,2025-08-19,1,,,,,,0
507,2290001111096,新規,0,2025-08-19,2025-08-19,株式会社Ｏａｓｉｓ,,株式会社,福岡県,福岡市博多区,博多駅前２丁目１７番１号,,40,132,8120011,,,,,,,2025-08-19,1,,,,,オアシス,0
508,2290001111105,新規,0,2025-08-19,2025-08-19,株式会社ＳＲＣ２５,,株式会社,福岡県,福岡市東区,舞松原２丁目２０番２９号,,40,131,8130042,,,,,,,2025-08-19,1,,,,,エスアールシーニジュウゴ,0
509,2290001111113,新規,0,2025-08-19,2025-08-19,株式会社ＭｉＶｉ,,株式会社,福岡県,福岡市中央区,天神４丁目６番２８号いちご天神ノースビル７階,,40,133,8100001,,,,,,,2025-08-19,1,,,,,ミヴィ,0
510,2290001111121,新規,0,2025-08-19,2025-08-19,株式会社Ｃｈｅｅｒｆｕｌ,,株式会社,福岡県,福岡市中央区,薬院２丁目１３番１－９０４号,,40,133,8100022,,,,,,,2025-08-19,1,,,,,チアフル,0
512,2290003017242,新規,0,2025-08-19,2025-08-19,合同会社アトリエフィフィ,,合同会社,福岡県,福岡市東区,箱崎３丁目６番１５－１０１号,,40,131,8120053,,,,,,,2025-08-19,1,,,,,アトリエフィフィ,0
513,2290003017250,新規,0,2025-08-19,2025-08-19,合同会社タナカヤ,,合同会社,福岡県,福岡市中央区,警固２丁目９番１６号,,40,133,8100023,,,,,,,2025-08-19,1,,,,,タナカヤ,0
536,2430001094962,新規,0,2025-08-19,2025-08-19,株式会社Ｕｎｉｑｕｅ,,株式会社,北海道,札幌市白石区,東札幌四条４丁目５番２５－３０２号,,01,104,0030004,,,,,,,2025-08-19,1,,,,,ユニーク,0
537,2430001095044,新規,0,2025-08-19,2025-08-19,ＮＥＸＺＵＫＵ　ＪＡＰＡＮ株式会社,,株式会社,北海道,札幌市白石区,東札幌五条１丁目１番１号,,01,104,0030005,,,,,,,2025-08-19,1,,,,,ネクスズク,0
541,2700150131836,新規,0,2025-08-19,2025-08-19,ｓｈａｎｘｉｚｈｕａｎｘｉｎｇｚｏｎｇｈｅｇａｉｇｅｓｈｉｆａｎｑｕｑｉｙｕｅｓｈａｎｇｍａｏＬｔｄ,,外国会社等,,,,,,,,Ｒｏｏｍ　９０１，　Ｎｏ．８８，　Ｆａｚｈａｎ　Ｒｏａｄ，　Ｘｕｅｆｕ　Ｉｎｄｕｓｔｒｉａｌ　Ｐａｒｋ，　Ｓｈａｎｘｉ　Ｔｒａｎｓｆｏｒｍａｔｉｏｎ　ａｎｄ　Ｃｏｍｐｒｅｈｅｎｓｉｖｅ　Ｒｅｆｏｒｍ　Ｄｅｍｏｎｓｔｒａｔｉｏｎ　Ｚｏｎｅ,,,,,,2025-08-19,1,,,,,サンシズゥアンシンゾンヘガイゲシファンクチユエシャンマオリミテッド,0
544,3010001257692,新規,0,2025-08-19,2025-08-19,株式会社ＳＺＫ,,株式会社,東京都,中央区,銀座８丁目６－５－１０階,,13,102,1040061,,,,,,,2025-08-19,1,,,,,エスズィーケー,0
545,3010001257791,新規,0,2025-08-19,2025-08-19,株式会社こだま,,株式会社,東京都,中央区,日本橋室町１丁目１１番１２号日本橋水野ビル７階,,13,102,1030022,,,,,,,2025-08-19,1,,,,,コダマ,0
546,3010003048413,新規,0,2025-08-19,2025-08-19,合同会社オフィス７１０３,,合同会社,東京都,千代田区,神田和泉町１番地６－１６ヤマトビル４０５,,13,101,1010024,,,,,,,2025-08-19,1,,,,,オフィス,0
547,3010003048454,新規,0,2025-08-19,2025-08-19,ＨＥＩＣＨＩ　ＡＧＥ合同会社,,合同会社,東京都,文京区,千石４丁目１４番９号,,13,105,1120011,,,,,,,2025-08-19,1,,,,,ヘイチエイジ,0
548,3010003048462,新規,0,2025-08-19,2025-08-19,合同会社ＹＳ１アカウンティング,,合同会社,東京都,中央区,銀座１丁目１２番４号Ｎ＆ＥＢＬＤ．６Ｆ,,13,102,1040061,,,,,,,2025-08-19,1,,,,,ワイエスワンアカウンティング,0
552,3010101016817,新規,0,2025-08-19,2025-08-19,株式会社ＴＨＤ,,株式会社,東京都,八王子市,打越町２００２番７,,13,201,1920911,,,,,,,2025-08-19,1,,,,,ティエイチディ,0
560,3010401192052,新規,0,2025-08-19,2025-08-19,Ｍ＆Ｋソリューションズ株式会社,,株式会社,東京都,港区,白金２丁目１番２６－５０１号,,13,103,1080072,,,,,,,2025-08-19,1,,,,,エムアンドケーソリューションズ,0
562,3010401192341,新規,0,2025-08-19,2025-08-19,ＳｕｇａｒＳｏｆｔ株式会社,,株式会社,東京都,港区,六本木３丁目１６－１２ＫＳビル５Ｆ,,13,103,1060032,,,,,,,2025-08-19,1,,,,,シュガーソフト,0
563,3010401192374,新規,0,2025-08-19,2025-08-19,株式会社ＫＡＢＵＫＩ,,株式会社,東京都,港区,赤坂３丁目１５番８号,,13,103,1070052,,,,,,,2025-08-19,1,,,,,カブキ,0
564,3010403035746,新規,0,2025-08-19,2025-08-19,合同会社Ｒｅ，ＴＨ,,合同会社,東京都,港区,北青山１丁目３－３三橋ビル３階,,13,103,1070061,,,,,,,2025-08-19,1,,,,,リス,0
565,3010501054499,新規,0,2025-08-19,2025-08-19,ＭＩＡ　ＵＮ株式会社,,株式会社,東京都,台東区,蔵前３丁目９－３臼井ビル５階,,13,106,1110051,,,,,,,2025-08-19,1,,,,,ミアユン,0
566,3010501054524,新規,0,2025-08-19,2025-08-19,株式会社Ｃｒｅａｍ　Ｃａｆｅ　Ｃｏｍｐａｎｙ,,株式会社,東京都,台東区,浅草橋２丁目２９番１５号須賀ビル１０２号,,13,106,1110053,,,,,,,2025-08-19,1,,,,,クリームカフェカンパニー,0
567,3010501054557,新規,0,2025-08-19,2025-08-19,中日亜太宇隆株式会社,,株式会社,東京都,台東区,台東２丁目３１番１０号第２掛川ビル１２０号室,,13,106,1100016,,,,,,,2025-08-19,1,,,,,チュウニチアタウリュウ,0
573,3011001016709,新規,0,2025-08-19,2025-08-19,株式会社中条,,株式会社,東京都,渋谷区,広尾５丁目２３番１０号,,13,113,1500012,,,,,,,2025-08-19,1,,,,,ナカジョウ,0
575,3011001171421,新規,0,2025-08-19,2025-08-19,株式会社ハチケン,,株式会社,東京都,渋谷区,幡ヶ谷３丁目１３番９号,,13,113,1510072,,,,,,,2025-08-19,1,,,,,ハチケン,0
576,3011001171495,新規,0,2025-08-19,2025-08-19,株式会社ＰｒｉｍｅＺｏｎｅ,,株式会社,東京都,目黒区,中目黒１丁目１番１７号,,13,110,1530061,,,,,,,2025-08-19,1,,,,,プライムゾーン,0
577,3011001171850,新規,0,2025-08-19,2025-08-19,株式会社ｈａ,,株式会社,東京都,渋谷区,恵比寿西２丁目４番８号ウィンド恵比寿ビル８Ｆ,,13,113,1500021,,,,,,,2025-08-19,1,,,,,エイチエー,0
578,3011001171966,新規,0,2025-08-19,2025-08-19,Ａｓｃｅｎｔ株式会社,,株式会社,東京都,渋谷区,道玄坂１丁目１０番渋谷道玄坂東急ビル２Ｆ―Ｃ,,13,113,1500043,,,,,,,2025-08-19,1,,,,,アセント,0
588,3011501032445,新規,0,2025-08-19,2025-08-19,安藤技術研究所株式会社,,株式会社,東京都,荒川区,南千住３丁目２７－２浅草ビル５０８,,13,118,1160003,,,,,,,2025-08-19,1,,,,,アントウギジュツケンキュウショ,0
590,3011801046582,新規,0,2025-08-19,2025-08-19,ＮＯＡＨアート株式会社,,株式会社,東京都,足立区,新田３丁目３７番１１号,,13,121,1230865,,,,,,,2025-08-19,1,,,,,ノアアート,0
591,3011801046616,新規,0,2025-08-19,2025-08-19,株式会社ＫＭＭ,,株式会社,東京都,葛飾区,新小岩１丁目１４番１０号,,13,122,1240024,,,,,,,2025-08-19,1,,,,,ケーエムエム,0
602,3012403007262,新規,0,2025-08-19,2025-08-19,合同会社メタリーチ,,合同会社,東京都,多摩市,聖ヶ丘１丁目３０番３２号,,13,224,2060022,,,,,,,2025-08-19,1,,,,,メタリーチ,0
606,3013303007807,新規,0,2025-08-19,2025-08-19,合同会社大洋産業,,合同会社,東京都,豊島区,池袋４丁目１９番４号ライフメゾン１Ｆ,,13,116,1710014,,,,,,,2025-08-19,1,,,,,タイヨウサンギョウ,0
607,3013303007815,新規,0,2025-08-19,2025-08-19,ＵＬａｂｅｌ合同会社,,合同会社,東京都,豊島区,南大塚３丁目２１番２号,,13,116,1700005,,,,,,,2025-08-19,1,,,,,ユーレーベル,0
613,3020001164327,新規,0,2025-08-19,2025-08-19,日本東昇産業株式会社,,株式会社,神奈川県,横浜市青葉区,千草台２２番地１８,,14,117,2270051,,,,,,,2025-08-19,1,,,,,ニホントウショウサンギョウ,0
614,3020001164335,新規,0,2025-08-19,2025-08-19,株式会社ＮｅｏＴｅｃｈ　Ｉｎｎｏｖａｔｉｏｎ,,株式会社,神奈川県,横浜市港北区,新横浜２丁目５番２号,,14,109,2220033,,,,,,,2025-08-19,1,,,,,ネオテックイノベーション,0
615,3020001164351,新規,0,2025-08-19,2025-08-19,月ｔｓｕｋｉ株式会社,,株式会社,神奈川県,川崎市多摩区,宿河原６丁目１番１４－１号,,14,135,2140021,,,,,,,2025-08-19,1,,,,,ツキツキ,0
616,3020001164376,新規,0,2025-08-19,2025-08-19,ＭＣａｒｒｙＥｘｐｒｅｓｓ株式会社,,株式会社,神奈川県,横浜市青葉区,美しが丘西３丁目５４番地２１,,14,117,2250001,,,,,,,2025-08-19,1,,,,,エムキャリーエクスプレス,0
617,3020001164392,新規,0,2025-08-19,2025-08-19,株式会社Ｅテック,,株式会社,神奈川県,横浜市中区,根岸旭台２４番地トーカン旭台マンション１０５,,14,104,2310854,,,,,,,2025-08-19,1,,,,,イーテック,0
618,3020001164418,新規,0,2025-08-19,2025-08-19,株式会社小高ホールディングス,,株式会社,神奈川県,川崎市高津区,末長２丁目２１番２７号,,14,134,2130013,,,,,,,2025-08-19,1,,,,,オダカホールディングス,0
619,3020001164442,新規,0,2025-08-19,2025-08-19,株式会社ワークネスト,,株式会社,神奈川県,横浜市中区,簑沢１００番２３号ネルソンパートＶ１０８,,14,104,2310856,,,,,,,2025-08-19,1,,,,,ワークネスト,0
624,3021001086057,新規,0,2025-08-19,2025-08-19,株式会社Ａ・Ｒ・Ｐホールディングス,,株式会社,神奈川県,秦野市,堀川１６６番地の１,,14,211,2591305,,,,,,,2025-08-19,1,,,,,エーアールピーホールディングス,0
625,3021001086065,新規,0,2025-08-19,2025-08-19,株式会社アナベル,,株式会社,神奈川県,相模原市緑区,原宿南２丁目４０番地８,,14,151,2520103,,,,,,,2025-08-19,1,,,,,アナベル,0
626,3021003016417,新規,0,2025-08-19,2025-08-19,Ｎ２エムエスシー合同会社,,合同会社,神奈川県,逗子市,逗子６丁目４番９,,14,208,2490006,,,,,,,2025-08-19,1,,,,,エヌツーエムエスシー,0
639,3040001140053,新規,0,2025-08-19,2025-08-19,株式会社山善,,株式会社,千葉県,長生郡長南町,岩川７５０番地１１,,12,427,2970101,,,,,,,2025-08-19,1,,,,,ヤマゼン,0
640,3040001140111,新規,0,2025-08-19,2025-08-19,株式会社Ｗａｔａｎａｂｅ,,株式会社,千葉県,松戸市,五香３丁目６番地２１ホワイトテラス２,,12,207,2702213,,,,,,,2025-08-19,1,,,,,ワタナベ,0
645,3040003028271,新規,0,2025-08-19,2025-08-19,合同会社みーつラボ,,合同会社,千葉県,千葉市中央区,中央２丁目５ー１千葉中央ツインビル２号館７階,,12,101,2600013,,,,,,,2025-08-19,1,,,,,ミーツラボ,0
648,3050001057065,新規,0,2025-08-19,2025-08-19,しまだファーム株式会社,,株式会社,茨城県,稲敷郡河内町,手栗１６１８番地,,08,447,3001323,,,,,,,2025-08-19,1,,,,,シマダファーム,0
650,3050003009493,新規,0,2025-08-19,2025-08-19,ＫＭ　ＪＡＰＡＮ　ＴＲＡＤＩＮＧ合同会社,,合同会社,茨城県,つくば市,吾妻１丁目５番地７ダイワロイネットホテルつくばビル１階１１０号室,,08,220,3050031,,,,,,,2025-08-19,1,,,,,ケーエムジャパントレーディング,0
651,3050003009502,新規,0,2025-08-19,2025-08-19,ＡＬ　ＡＳＡＤ　ＴＲＡＤＩＮＧ合同会社,,合同会社,茨城県,結城市,大字上山川６０１８番地,,08,207,3070021,,,,,,,2025-08-19,1,,,,,アルアサドトレーディング,0
656,3060001038502,新規,0,2025-08-19,2025-08-19,株式会社パイン,,株式会社,栃木県,那須塩原市,青木２７番地２１３９,,09,213,3250103,,,,,,,2025-08-19,1,,,,,パイン,0
661,3070003006051,新規,0,2025-08-19,2025-08-19,晨達合同会社,,合同会社,群馬県,高崎市,浜川町１４５－１７,,10,202,3700081,,,,,,,2025-08-19,1,,,,,シンダツ,0
663,3080101025729,新規,0,2025-08-19,2025-08-19,株式会社Ｌｉｂｅｒｔｙ,,株式会社,静岡県,沼津市,大手町４丁目８－３ＫＵＲＩＯ,,22,203,4100801,,,,,,,2025-08-19,1,,,,,,0
670,3110001039503,新規,0,2025-08-19,2025-08-19,株式会社ＡＱＵＡ,,株式会社,新潟県,南魚沼郡湯沢町,大字湯沢２５１３番地３－１階,,15,461,9496101,,,,,,,2025-08-19,1,,,,,アクア,0
671,3110003005858,新規,0,2025-08-19,2025-08-19,合同会社リンクベース,,合同会社,新潟県,長岡市,柏町２丁目６－１２ホポロ柏町６０４,,15,202,9400088,,,,,,,2025-08-19,1,,,,,リンクベース,0
678,3120001278810,新規,0,2025-08-19,2025-08-19,株式会社リセック,,株式会社,大阪府,大阪市天王寺区,石ケ辻町二丁目８番地ラ・スタジオ石ヶ辻７０１号,,27,109,5430031,,,,,,,2025-08-19,1,,,,,リセック,0
679,3120001278851,新規,0,2025-08-19,2025-08-19,株式会社風のしごと舎,,株式会社,大阪府,大阪市浪速区,敷津西１丁目２番３号,,27,111,5560015,,,,,,,2025-08-19,1,,,,,カゼノシゴトシャ,0
680,3120001278892,新規,0,2025-08-19,2025-08-19,株式会社メディックプラス,,株式会社,大阪府,大阪市北区,梅田１丁目２番２号大阪駅前第２ビル１２－１２,,27,127,5300001,,,,,,,2025-08-19,1,,,,,メディックプラス,0
681,3120001278901,新規,0,2025-08-19,2025-08-19,星河株式会社,,株式会社,大阪府,大阪市淀川区,三津屋南２丁目５番１５号,,27,123,5320035,,,,,,,2025-08-19,1,,,,,セイガ,0
682,3120001278918,新規,0,2025-08-19,2025-08-19,株式会社ＤＡＮ建設工業,,株式会社,大阪府,枚方市,東田宮１丁目８番１３号,,27,210,5730023,,,,,,,2025-08-19,1,,,,,ダンケンセツコウギョウ,0
683,3120003030302,新規,0,2025-08-19,2025-08-19,合同会社グラトリ,,合同会社,大阪府,大阪市中央区,高麗橋４丁目６番１４号エス・アイ横堀９０３号室,,27,128,5410043,,,,,,,2025-08-19,1,,,,,グラトリ,0
684,3120003030327,新規,0,2025-08-19,2025-08-19,ｃｏｍｏｄｏ合同会社,,合同会社,大阪府,大阪市中央区,南船場３丁目２番２２号おおきに南船場ビル２０５,,27,128,5420081,,,,,,,2025-08-19,1,,,,,コモド,0
695,3122001039523,新規,0,2025-08-19,2025-08-19,ＥＶＬＶ株式会社,,株式会社,大阪府,東大阪市,柏田本町２番１５号,,27,227,5770834,,,,,,,2025-08-19,1,,,,,エブラブ,0
709,3140001139671,新規,0,2025-08-19,2025-08-19,株式会社スターセブン,,株式会社,兵庫県,神戸市東灘区,北青木１丁目２番４－４０３号,,28,101,6580014,,,,,,,2025-08-19,1,,,,,スターセブン,0
710,3140001139713,新規,0,2025-08-19,2025-08-19,Ａｓｇａｒｄ株式会社,,株式会社,兵庫県,宝塚市,野上３丁目４番３４号,,28,214,6650022,,,,,,,2025-08-19,1,,,,,アスガルド,0
711,3140001139721,新規,0,2025-08-19,2025-08-19,株式会社ゴールドシップ,,株式会社,兵庫県,尼崎市,水堂町２丁目４０番１号,,28,202,6610026,,,,,,,2025-08-19,1,,,,,ゴールドシップ,0
714,3140003022462,新規,0,2025-08-19,2025-08-19,みどり合同会社,,合同会社,兵庫県,神戸市灘区,八幡町４丁目８番３０－４０２号,,28,102,6570051,,,,,,,2025-08-19,1,,,,,ミドリ,0
720,3180001168147,新規,0,2025-08-19,2025-08-19,株式会社ＲＯＯＶＥ,,株式会社,愛知県,名古屋市中川区,服部３丁目２０１番地シャンポールミユキ１０１,,23,110,4540976,,,,,,,2025-08-19,1,,,,,ルーヴ,0
721,3180001168213,新規,0,2025-08-19,2025-08-19,株式会社佐々木工業,,株式会社,愛知県,春日井市,東野町３丁目３番地１３,,23,206,4860817,,,,,,,2025-08-19,1,,,,,ササキコウギョウ,0
722,3180001168238,新規,0,2025-08-19,2025-08-19,株式会社イータス,,株式会社,愛知県,津島市,牧野町字浪寄２７番地２,,23,208,4960002,,,,,,,2025-08-19,1,,,,,イータス,0
727,3180003028877,新規,0,2025-08-19,2025-08-19,ＳＨＡＭ　ＴＲＡＤＩＮＧ合同会社,,合同会社,愛知県,名古屋市中川区,供米田２丁目２００５番地（コーポラス第一２０２号）,,23,110,4540984,,,,,,,2025-08-19,1,,,,,シャムトレーディング,0
733,3200005013791,新規,0,2025-08-19,2025-08-19,一般社団法人ｆｒｏｌｉｃ　ｄｅｓｉｇｎ,,その他の設立登記法人,岐阜県,岐阜市,早田大通２丁目８番地１,,21,201,5020902,,,,,,,2025-08-19,1,,,,,フロリックデザイン,0
748,3290001111038,新規,0,2025-08-19,2025-08-19,株式会社Ｍｏｒｅ,,株式会社,福岡県,福岡市中央区,今泉１丁目１３番５号ブルク今泉４階,,40,133,8100021,,,,,,,2025-08-19,1,,,,,モア,0
749,3290001111087,新規,0,2025-08-19,2025-08-19,株式会社ＫＪキャピタル,,株式会社,福岡県,福岡市中央区,天神１丁目９－７福岡フコク生命ビル１５階,,40,133,8100001,,,,,,,2025-08-19,1,,,,,ケージェーキャピタル,0
750,3290001111104,新規,0,2025-08-19,2025-08-19,株式会社ふぐ大将,,株式会社,福岡県,福岡市中央区,春吉３丁目１２番２４号,,40,133,8100003,,,,,,,2025-08-19,1,,,,,フグタイショウ,0
753,3290003017200,新規,0,2025-08-19,2025-08-19,Ｎｏｍｉｎ　Ｔｅｒｅｃｏｍ合同会社,,合同会社,福岡県,福岡市中央区,天神３丁目１６番１７号イエローベース天神３階,,40,133,8100001,,,,,,,2025-08-19,1,,,,,ノーミンテレコム,0
754,3290003017241,新規,0,2025-08-19,2025-08-19,合同会社ＨＯＳＨＩ,,合同会社,福岡県,福岡市博多区,博多駅前１丁目２３番２号ＰａｒｋＦｒｏｎｔ博多駅前１丁目５Ｆ－Ｂ,,40,132,8120011,,,,,,,2025-08-19,1,,,,,ホシ,0
755,3290003017258,新規,0,2025-08-19,2025-08-19,合同会社ＭＡＺＵＷＡ,,合同会社,福岡県,福岡市中央区,天神４丁目６－２８いちご天神ノースビル７階,,40,133,8100001,,,,,,,2025-08-19,1,,,,,マズワ,0
761,3330001033500,新規,0,2025-08-19,2025-08-19,株式会社Ｃｏｌｏｒｓ,,株式会社,熊本県,熊本市東区,新外３丁目１番９７－２０２号,,43,102,8620921,,,,,,,2025-08-19,1,,,,,カラーズ,0
763,3350003005009,新規,0,2025-08-19,2025-08-19,九恒通商合同会社,,合同会社,宮崎県,宮崎市,大字熊野６３７－１,,45,201,8892151,,,,,,,2025-08-19,1,,,,,キュウコウツウショウ,0
768,3370001052967,新規,0,2025-08-19,2025-08-19,株式会社ＯＮＥ,,株式会社,宮城県,塩竈市,千賀の台３丁目１５番３号,,04,203,9850086,,,,,,,2025-08-19,1,,,,,ワン,0
770,3370003007250,新規,0,2025-08-19,2025-08-19,合同会社彩虹社,,合同会社,宮城県,仙台市青葉区,本町１丁目５番２８号カーニープレイス仙台駅前通６０３号室,,04,101,9800014,,,,,,,2025-08-19,1,,,,,サイコウシャ,0
774,3390003002431,新規,0,2025-08-19,2025-08-19,合同会社紡,,合同会社,山形県,山形市,陣場南１５番２２号,,06,201,9900860,,,,,,,2025-08-19,1,,,,,ツムギ,0
777,3430001095035,新規,0,2025-08-19,2025-08-19,スリーエフシー株式会社,,株式会社,北海道,札幌市東区,北二十五条東１８丁目３番１０号フタバスクエア元町１階,,01,103,0650025,,,,,,,2025-08-19,1,,,,,スリーエフシー,0
782,3480003002307,新規,0,2025-08-19,2025-08-19,合同会社アイクラウド,,合同会社,徳島県,阿波市,吉野町西条字床石２０番地５,,36,206,7711402,,,,,,,2025-08-19,1,,,,,アイクラウド,0
784,3700150126224,新規,0,2025-08-19,2024-06-26,北海道労災職業病対策労働組合,,その他,北海道,釧路市,富士見２丁目３－４,,01,206,0850832,,,,,,,2024-06-26,1,,,,,ホツカイドウロウサイシヨクギヨウビヨウタイサクロウドウクミアイ,0
785,3700150131835,新規,0,2025-08-19,2025-08-19,ｓｈｅｎｚｈｅｎｓｈｉｓｈｅｎｇｇｕａｎｇｑｉｃｈｅｎｍａｏｙｉｙｏｕｘｉａｎｇｏｎｇｓｉ,,外国会社等,,,,,,,,ｆｕｔｉａｎｑｕｓｈａｔｏｕｊｉｅｄａｏｔｉａｎａｎｓｈｅｑｕｔａｉｒａｎｊｉｕｌｕ１１ｈａｏ，ｈａｉｓｏｎｇｄａｓｈａＢｚｕｏ１１０５Ｄ５，ｓｈｅｎｚｈｅｎｓｈｉ,,,,,,2025-08-19,1,,,,,シンセンシセングゥアンチチェンマオイユウゲンコウシ,0
790,4010001257353,新規,0,2025-08-19,2025-08-19,株式会社リベルタ,,株式会社,東京都,千代田区,神田和泉町１番地６－１６ヤマトビル４０５,,13,101,1010024,,,,,,,2025-08-19,1,,,,,リベルタ,0
791,4010001257592,新規,0,2025-08-19,2025-08-19,あいテクノロジー研究所株式会社,,株式会社,東京都,中央区,日本橋箱崎町１９番２１号,,13,102,1030015,,,,,,,2025-08-19,1,,,,,アイテクノロジーケンキュウジョ,0
792,4010001257774,新規,0,2025-08-19,2025-08-19,株式会社ＺＦＴ,,株式会社,東京都,中央区,銀座１丁目１２番４号Ｎ＆ＥＢＬＤ．６Ｆ,,13,102,1040061,,,,,,,2025-08-19,1,,,,,ゼットエフティー,0
794,4010003048404,新規,0,2025-08-19,2025-08-19,ＭＯＮ合同会社,,合同会社,東京都,文京区,本郷２丁目９－９－８０１,,13,105,1130033,,,,,,,2025-08-19,1,,,,,モン,0
795,4010003048453,新規,0,2025-08-19,2025-08-19,合同会社リルーム,,合同会社,東京都,中央区,銀座１丁目２２番１１号銀座大竹ビジデンス２階,,13,102,1040061,,,,,,,2025-08-19,1,,,,,リルーム,0
796,4010003048461,新規,0,2025-08-19,2025-08-19,Ｗ’ｄＢＥＬＬ合同会社,,合同会社,東京都,中央区,日本橋３丁目７－７日本橋アーバンビルディング５階Ｗ’ｄＢＥＬＬ東京駅前店,,13,102,1030027,,,,,,,2025-08-19,1,,,,,ウッドベル,0
801,4010005040549,新規,0,2025-08-19,2025-08-19,久慈戸呂一般社団法人,,その他の設立登記法人,東京都,千代田区,内神田１丁目３番７号４０１あすな会計事務所内,,13,101,1010047,,,,,,,2025-08-19,1,,,,,クジヘロ,0
807,4010401192448,新規,0,2025-08-19,2025-08-19,株式会社Ｓｈｕｎ　Ｅｓｔａｔｅ,,株式会社,東京都,港区,赤坂２丁目１７番５０－６０８号,,13,103,1070052,,,,,,,2025-08-19,1,,,,,シュンエステート,0
808,4010401192456,新規,0,2025-08-19,2025-08-19,株式会社Ｌｙｎｏａ,,株式会社,東京都,港区,浜松町２丁目２番１５号浜松町ダイヤビル２Ｆ,,13,103,1050013,,,,,,,2025-08-19,1,,,,,リノア,0
809,4010403035720,新規,0,2025-08-19,2025-08-19,合同会社Ｃｅｎｄｒｉｌｌｏｎ,,合同会社,東京都,港区,北青山１丁目３番１号アールキューブ青山３階,,13,103,1070061,,,,,,,2025-08-19,1,,,,,サンドリヨン,0
810,4010403035786,新規,0,2025-08-19,2025-08-19,合同会社ＯＣＴＯＰＵＳ,,合同会社,東京都,港区,西麻布１丁目３番１６号池田ビル３Ｆ,,13,103,1060031,,,,,,,2025-08-19,1,,,,,オクトパス,0
812,4010501054523,新規,0,2025-08-19,2025-08-19,江崎株式会社,,株式会社,東京都,台東区,上野６丁目１６番１８号ＴＨＥ・ＢＬＯＯＭ・ＵＥＮＯ２ｎｄ７１１号室,,13,106,1100005,,,,,,,2025-08-19,1,,,,,エザキ,0
813,4010501054531,新規,0,2025-08-19,2025-08-19,株式会社次世代材料ラボ,,株式会社,東京都,台東区,浅草橋２丁目２５－１３,,13,106,1110053,,,,,,,2025-08-19,1,,,,,ジセダイザイリョウラボ,0
824,4010901057927,新規,0,2025-08-19,2025-08-19,株式会社くろねこホームズ,,株式会社,東京都,世田谷区,松原４丁目２１番２６号,,13,112,1560043,,,,,,,2025-08-19,1,,,,,クロネコホームズ,0
825,4010901057935,新規,0,2025-08-19,2025-08-19,株式会社１０３３,,株式会社,東京都,世田谷区,弦巻３丁目３０番５号,,13,112,1540016,,,,,,,2025-08-19,1,,,,,イチゼロサンサン,0
835,4011001171701,新規,0,2025-08-19,2025-08-19,愛文株式会社,,株式会社,東京都,渋谷区,神宮前６丁目１３番９号ＯｍｏｔｅｓａｎｄｏＢｒａｎｃｈｅｓ４階,,13,113,1500001,,,,,,,2025-08-19,1,,,,,アイブン,0
836,4011101112737,新規,0,2025-08-19,2025-08-19,株式会社Ｓｋｙｂｒｉｄｇｅ,,株式会社,東京都,新宿区,百人町２丁目６番６号クレアトゥール新宿２１－４０４,,13,104,1690073,,,,,,,2025-08-19,1,,,,,スカイブリッジ,0
838,4011201026572,新規,0,2025-08-19,2025-08-19,株式会社ＫＳＫ,,株式会社,東京都,中野区,本町１丁目１６番６号サンオーレ中野坂上１０２,,13,114,1640012,,,,,,,2025-08-19,1,,,,,ケーエスケー,0
842,4011501032452,新規,0,2025-08-19,2025-08-19,零点株式会社,,株式会社,東京都,荒川区,町屋３丁目１８－１２ＮＤビル２０４,,13,118,1160001,,,,,,,2025-08-19,1,,,,,レイテン,0
845,4011801046623,新規,0,2025-08-19,2025-08-19,株式会社ディアンケト,,株式会社,東京都,足立区,千住橋戸町６６西村ビル１０２,,13,121,1200038,,,,,,,2025-08-19,1,,,,,ディアンケト,0
850,4012401043498,新規,0,2025-08-19,2025-08-19,株式会社Ｏｒｓａｙ,,株式会社,東京都,三鷹市,下連雀５丁目１番１号,,13,204,1810013,,,,,,,2025-08-19,1,,,,,オルセー,0
853,4012703003349,新規,0,2025-08-19,2025-08-19,合同会社Ａａ．ｂｉｊｏｕ東京,,合同会社,東京都,小平市,大沼町２丁目１番２３号,,13,211,1870001,,,,,,,2025-08-19,1,,,,,エイエービジュートウキョウ,0
855,4013301054759,新規,0,2025-08-19,2025-08-19,株式会社Ａｎｙｓｅａ,,株式会社,東京都,豊島区,東池袋２丁目６２番８号ＢＩＧオフィスプラザ池袋１２０６,,13,116,1700013,,,,,,,2025-08-19,1,,,,,エニシー,0
856,4013301054767,新規,0,2025-08-19,2025-08-19,ＸＩＡＰＬＵＳ株式会社,,株式会社,東京都,豊島区,東池袋１丁目１７番１１号パークハイツ池袋１１０５号,,13,116,1700013,,,,,,,2025-08-19,1,,,,,シアプラス,0
866,4020001164359,新規,0,2025-08-19,2025-08-19,Ｖｃｈｉｐ　Ｊａｐａｎ株式会社,,株式会社,神奈川県,横浜市神奈川区,金港町５－１４クアドリフォリオ８階,,14,102,2210056,,,,,,,2025-08-19,1,,,,,ウィーチップジャパン,0
867,4020001164417,新規,0,2025-08-19,2025-08-19,株式会社ばんば,,株式会社,神奈川県,川崎市中原区,宮内３丁目１１番２３号,,14,133,2110051,,,,,,,2025-08-19,1,,,,,バンバ,0
871,4020003029171,新規,0,2025-08-19,2025-08-19,ホームメンテナンス合同会社,,合同会社,神奈川県,横浜市旭区,鶴ケ峰２丁目１０番地２１,,14,112,2410022,,,,,,,2025-08-19,1,,,,,ホームメンテナンス,0
872,4020003029188,新規,0,2025-08-19,2025-08-19,合同会社ＡＩＴＹ,,合同会社,神奈川県,川崎市麻生区,片平１丁目１８番７号,,14,137,2150023,,,,,,,2025-08-19,1,,,,,アイティ,0
875,4021001086064,新規,0,2025-08-19,2025-08-19,株式会社ＨＩＮＡＴＡ,,株式会社,神奈川県,茅ヶ崎市,赤羽根８１番地８,,14,207,2530001,,,,,,,2025-08-19,1,,,,,ヒナタ,0
876,4021001086097,新規,0,2025-08-19,2025-08-19,株式会社Ｕｎｄｅｒ　Ｔｈｅ　Ｄｏｇ,,株式会社,神奈川県,三浦郡葉山町,長柄１２４０番地コートビラ葉山１０３号,,14,301,2400113,,,,,,,2025-08-19,1,,,,,アンダーザドッグ,0
877,4021001086139,新規,0,2025-08-19,2025-08-19,株式会社ココファス,,株式会社,神奈川県,相模原市緑区,東橋本３丁目１４番２３号,,14,151,2520144,,,,,,,2025-08-19,1,,,,,ココファス,0
880,4021003016449,新規,0,2025-08-19,2025-08-19,合同会社ビッグバン,,合同会社,神奈川県,厚木市,中町４丁目１６番７号厚木ＨＡＢＩＴＥビル１Ｆ,,14,212,2430018,,,,,,,2025-08-19,1,,,,,ビッグバン,0
887,4030003027439,新規,0,2025-08-19,2025-08-19,ＹＺ．ｗｏｒｋｓ合同会社,,合同会社,埼玉県,さいたま市大宮区,堀の内町１丁目１７５番地６,,11,103,3300804,,,,,,,2025-08-19,1,,,,,,0
892,4040001140110,新規,0,2025-08-19,2025-08-19,Ｔａｓｏ株式会社,,株式会社,千葉県,松戸市,栗山９８番地テラスアゼリアＡ棟,,12,207,2710097,,,,,,,2025-08-19,1,,,,,タソ,0
896,4050001057097,新規,0,2025-08-19,2025-08-19,株式会社ＲＡＵＬ　ＣＯＭＰＡＮＹ,,株式会社,茨城県,常陸太田市,中利員町２９７５番地の２,,08,212,3130105,,,,,,,2025-08-19,1,,,,,ラウルカンパニー,0
899,4070003006050,新規,0,2025-08-19,2025-08-19,Ｓｈｏｐ３４８合同会社,,合同会社,群馬県,高崎市,山名町４６０番地６,,10,202,3701213,,,,,,,2025-08-19,1,,,,,,0
905,4090003002873,新規,0,2025-08-19,2025-08-19,Ｈ・Ｒ・Ｅ合同会社,,合同会社,山梨県,南都留郡山中湖村,山中８６５番地９３７,,19,425,4010501,,,,,,,2025-08-19,1,,,,,エイチアールイー,0
907,4110001039519,新規,0,2025-08-19,2025-08-19,株式会社水の都の漢方薬局,,株式会社,新潟県,新潟市東区,藤見町１丁目１１番１１,,15,102,9500025,,,,,,,2025-08-19,1,,,,,ミズノミヤコノカンポウヤッキョク,0
915,4120001278801,新規,0,2025-08-19,2025-08-19,日新株式会社,,株式会社,大阪府,大阪市都島区,都島本通３丁目１８番４号サニータウン日新２０８－２０号室,,27,102,5340021,,,,,,,2025-08-19,1,,,,,ニッシン,0
916,4120001278826,新規,0,2025-08-19,2025-08-19,ＡＲＲＯＷＳ株式会社,,株式会社,大阪府,門真市,江端町６番２５号,,27,223,5710012,,,,,,,2025-08-19,1,,,,,アローズ,0
917,4120001278850,新規,0,2025-08-19,2025-08-19,Ｙｉｎ　Ｇｌｏｂａｌ　Ｓｕｐｐｌｙ株式会社,,株式会社,大阪府,大阪市東住吉区,矢田４丁目９番１５－３０２号,,27,121,5460023,,,,,,,2025-08-19,1,,,,,イングローバルサプライ,0
918,4120001278867,新規,0,2025-08-19,2025-08-19,友誼株式会社,,株式会社,大阪府,大阪市西成区,岸里２丁目２－４－２０２,,27,122,5570041,,,,,,,2025-08-19,1,,,,,ユウギ,0
919,4120001278900,新規,0,2025-08-19,2025-08-19,麟旭国際株式会社,,株式会社,大阪府,大阪市大正区,小林西２丁目１５－３－２０８,,27,108,5510013,,,,,,,2025-08-19,1,,,,,リンキョクコクサイ,0
920,4120001278925,新規,0,2025-08-19,2025-08-19,株式会社ＨＹＡＫＫＡ,,株式会社,大阪府,交野市,倉治５丁目１番２６号,,27,230,5760051,,,,,,,2025-08-19,1,,,,,ヒャッカ,0
923,4120003030276,新規,0,2025-08-19,2025-08-19,科創合同会社,,合同会社,大阪府,大阪市中央区,難波４丁目１番１５号,,27,128,5420076,,,,,,,2025-08-19,1,,,,,カソウ,0
924,4120003030292,新規,0,2025-08-19,2025-08-19,合同会社ＡＩサービス,,合同会社,大阪府,大阪市生野区,新今里３丁目１３番５号ハイツプリウスビル１０１号,,27,116,5440001,,,,,,,2025-08-19,1,,,,,アイサービス,0
925,4120003030334,新規,0,2025-08-19,2025-08-19,デュープ合同会社,,合同会社,大阪府,大阪市浪速区,湊町２丁目２番４０号３０８,,27,111,5560017,,,,,,,2025-08-19,1,,,,,デュープ,0
926,4120003030342,新規,0,2025-08-19,2025-08-19,クラシオン合同会社,,合同会社,大阪府,大阪市西区,京町堀３丁目１番３－１８０４号,,27,106,5500003,,,,,,,2025-08-19,1,,,,,クラシオン,0
933,4120903005798,新規,0,2025-08-19,2025-08-19,合同会社藤井測量設計事務所,,合同会社,大阪府,茨木市,天王２丁目７番１７号サンエイビル２０６,,27,211,5670876,,,,,,,2025-08-19,1,,,,,フジイソクリョウセッケイジムショ,0
935,4122001039563,新規,0,2025-08-19,2025-08-19,株式会社Ｈ・Ｍコーティング,,株式会社,大阪府,八尾市,竹渕２丁目１０５番地,,27,212,5810052,,,,,,,2025-08-19,1,,,,,エイチエムコーティング,0
943,4140001139679,新規,0,2025-08-19,2025-08-19,久保工務店株式会社,,株式会社,兵庫県,西宮市,青木町１１番３７号,,28,204,6620862,,,,,,,2025-08-19,1,,,,,クボコウムテン,0
944,4140001139704,新規,0,2025-08-19,2025-08-19,株式会社ＢＲＩＧＡＤＥ　ＤＥＳＩＧＮ,,株式会社,兵庫県,神戸市灘区,森後町２丁目１番地９号３Ｆ,,28,102,6570028,,,,,,,2025-08-19,1,,,,,ブリゲイドデザイン,0
945,4140001139712,新規,0,2025-08-19,2025-08-19,株式会社ＥｎｅｒｇｙＣａｒｒｙ,,株式会社,兵庫県,神戸市北区,有野台６丁目２０番地Ｂ１１棟２０６号,,28,109,6511321,,,,,,,2025-08-19,1,,,,,エナジーキャリー,0
946,4140001139729,新規,0,2025-08-19,2025-08-19,株式会社ＳＰＰ,,株式会社,兵庫県,神戸市中央区,二宮町４丁目６番４号,,28,110,6510093,,,,,,,2025-08-19,1,,,,,エスピーピー,0
950,4140003022461,新規,0,2025-08-19,2025-08-19,海成合同会社,,合同会社,兵庫県,神戸市長田区,萩乃町３丁目３番１２号,,28,106,6530873,,,,,,,2025-08-19,1,,,,,カイセイ,0
958,4180001168063,新規,0,2025-08-19,2025-08-19,株式会社クワッズ,,株式会社,愛知県,名古屋市名東区,平和が丘３丁目８８番地の３,,23,115,4650097,,,,,,,2025-08-19,1,,,,,クワッズ,0
959,4180001168187,新規,0,2025-08-19,2025-08-19,株式会社ＨＧＭＲ,,株式会社,愛知県,岩倉市,栄町２丁目７９番地２０２号,,23,228,4820022,,,,,,,2025-08-19,1,,,,,エイチジーエムアール,0
960,4180001168212,新規,0,2025-08-19,2025-08-19,株式会社車味,,株式会社,愛知県,江南市,上奈良町豊里９８番地,,23,217,4838257,,,,,,,2025-08-19,1,,,,,シャミ,0
961,4180001168220,新規,0,2025-08-19,2025-08-19,クロノトリガー株式会社,,株式会社,愛知県,名古屋市中区,栄３丁目３０番２８号岩田サカエビル５階,,23,106,4600008,,,,,,,2025-08-19,1,,,,,クロノトリガー,0
964,4180301040120,新規,0,2025-08-19,2025-08-19,株式会社三河冷熱,,株式会社,愛知県,豊橋市,小島町字西縄口２１７番地８,,23,201,4413122,,,,,,,2025-08-19,1,,,,,ミカワレイネツ,0
974,4200001044146,新規,0,2025-08-19,2025-08-19,株式会社ＡＬＬＧＴ,,株式会社,岐阜県,美濃加茂市,森山町４丁目５番１号,,21,211,5050021,,,,,,,2025-08-19,1,,,,,オールジーティ,0
990,4290001110955,新規,0,2025-08-19,2025-08-19,株式会社トーラスラボ,,株式会社,福岡県,福岡市中央区,天神２丁目３番１０号天神パインクレスト１００４,,40,133,8100001,,,,,,,2025-08-19,1,,,,,トーラスラボ,0
991,4290001110971,新規,0,2025-08-19,2025-08-19,株式会社ｒｅｃｏｖｅｒ,,株式会社,福岡県,筑後市,大字山ノ井１９６番地１－７０３号,,40,211,8330031,,,,,,,2025-08-19,1,,,,,リカバー,0
992,4290001111004,新規,0,2025-08-19,2025-08-19,株式会社ＲＵＶ,,株式会社,福岡県,福岡市中央区,天神２丁目２番１２号Ｔ＆Ｊビルディング７Ｆ,,40,133,8100001,,,,,,,2025-08-19,1,,,,,ルブ,0
993,4290001111012,新規,0,2025-08-19,2025-08-19,株式会社ＳＡＩＳＨＯ,,株式会社,福岡県,筑後市,大字馬間田４３６番地１,,40,211,8330023,,,,,,,2025-08-19,1,,,,,サイショウ,0
994,4290001111029,新規,0,2025-08-19,2025-08-19,株式会社禾,,株式会社,福岡県,福岡市西区,大字羽根戸８０３番地９,,40,135,8190038,,,,,,,2025-08-19,1,,,,,ノギ,0
995,4290001111045,新規,0,2025-08-19,2025-08-19,株式会社大野環境ホールディングス,,株式会社,福岡県,大野城市,筒井３丁目６番１８号,,40,219,8160931,,,,,,,2025-08-19,1,,,,,オオノカンキョウホールディングス,0
996,4290001111061,新規,0,2025-08-19,2025-08-19,株式会社キーテイル,,株式会社,福岡県,福岡市中央区,天神２丁目２番１２号Ｔ＆Ｊビルディング７Ｆ,,40,133,8100001,,,,,,,2025-08-19,1,,,,,キーテイル,0
997,4290001111086,新規,0,2025-08-19,2025-08-19,株式会社センテイ,,株式会社,福岡県,福岡市中央区,天神４丁目６－２８いちご天神ノースビル７階,,40,133,8100001,,,,,,,2025-08-19,1,,,,,センテイ,0
998,4290001111103,新規,0,2025-08-19,2025-08-19,株式会社フェードアウト,,株式会社,福岡県,福岡市博多区,博多駅南２丁目１－９,,40,132,8120016,,,,,,,2025-08-19,1,,,,,フェードアウト,0
999,4290001111111,新規,0,2025-08-19,2025-08-19,株式会社りぶらホールディングス,,株式会社,福岡県,福岡市南区,塩原１丁目２９番１７号,,40,134,8150032,,,,,,,2025-08-19,1,,,,,リブラホールディングス,0
1000,4290001111210,新規,0,2025-08-19,2025-08-19,セカンドキャリア株式会社,,株式会社,福岡県,福岡市早良区,原６丁目９－１７,,40,137,8140022,,,,,,,2025-08-19,1,,,,,セカンドキャリア,0
1001,4290003017240,新規,0,2025-08-19,2025-08-19,合同会社こだま屋,,合同会社,福岡県,福岡市東区,名島２丁目８番２１－５０３名島コーポ,,40,131,8130043,,,,,,,2025-08-19,1,,,,,コダマヤ,0
1002,4290003017249,新規,0,2025-08-19,2025-08-19,合同会社陽真,,合同会社,福岡県,福岡市中央区,大名１丁目８番１２号,,40,133,8100041,,,,,,,2025-08-19,1,,,,,ハルマ,0
1003,4290003017257,新規,0,2025-08-19,2025-08-19,合同会社Ｓｉｌｓｉｌａｈ,,合同会社,福岡県,福岡市中央区,地行４丁目８番２号,,40,133,8100064,,,,,,,2025-08-19,1,,,,,シルシラ,0
1011,4340001027574,新規,0,2025-08-19,2025-08-19,株式会社ＲＳＭ,,株式会社,鹿児島県,肝属郡錦江町,城元４９４７番地,,46,490,8932302,,,,,,,2025-08-19,1,,,,,リズム,0
1012,4340001027590,新規,0,2025-08-19,2025-08-19,株式会社ＺｏＮｏ・Ｒｅ,,株式会社,鹿児島県,志布志市,有明町野井倉７７２１番地,,46,221,8997402,,,,,,,2025-08-19,1,,,,,ゾノリ,0
1023,4360005007273,新規,0,2025-08-19,2025-08-19,一般社団法人郷音,,その他の設立登記法人,沖縄県,宮古島市,下地字川満８００番地７４,,47,214,9060301,,,,,,,2025-08-19,1,,,,,キョウオン,0
1025,4370001052941,新規,0,2025-08-19,2025-08-19,株式会社ＬＵＸＥＮ,,株式会社,宮城県,仙台市青葉区,一番町１丁目１１－１７ＣＣＲ一番町３０５,,04,101,9800811,,,,,,,2025-08-19,1,,,,,ルクセン,0
1037,4430001095042,新規,0,2025-08-19,2025-08-19,株式会社ＴＡＫＥ　Ｇｒｏｕｐ,,株式会社,北海道,札幌市中央区,南五条西５丁目１９番地３ＬＣ六番館５Ｆ,,01,101,0640805,,,,,,,2025-08-19,1,,,,,テイクグループ,0
1042,4700150131710,新規,0,2025-08-19,2025-08-08,各務原市消防協会,,その他,岐阜県,各務原市,那加桜町１丁目６９番地,,21,213,5040912,,,,,,,2025-08-08,1,,,,,カカミガハラシシヨウボウキヨウカイ,0
1043,4700150131834,新規,0,2025-08-19,2025-08-19,ｓｈａｎｘｉｔａｏｈｕａｘｉｕｗｅｎｈｕａｃｈｕａｎｍｅｉｙｏｕｘｉａｎｇｏｎｇｓｉ,,外国会社等,,,,,,,,ｘｉａｏｄｉａｎｑｕｃｈａｎｇｚｈｉｌｕ１１１ｈａｏｓｈａｎｘｉｓｈｉｍａｏｚｈｏｎｇｘｉｎ２ｃｅｎｇ２０３ｓｈｉ，ｔａｉｙｕａｎｓｈｉ，ｓｈａｎｘｉｓｈｅｎｇ,,,,,,2025-08-19,1,,,,,サンシタオホゥアシュウウェンホゥアツゥアンメイユウゲンコウシ,0
1047,5010001257451,新規,0,2025-08-19,2025-08-19,ゼブラホールディングス株式会社,,株式会社,東京都,中央区,銀座１丁目１２－４Ｎ＆Ｅビル７階,,13,102,1040061,,,,,,,2025-08-19,1,,,,,ゼブラホールディングス,0
1051,5010003048394,新規,0,2025-08-19,2025-08-19,合同会社ＪＩＮ　ＭＥＤＯＣ,,合同会社,東京都,千代田区,九段南１丁目５－６りそな九段ビル５Ｆ,,13,101,1020074,,,,,,,2025-08-19,1,,,,,ジンメドック,0
1052,5010003048411,新規,0,2025-08-19,2025-08-19,合同会社Ｓｔｅｐｌｅａｐ,,合同会社,東京都,中央区,銀座１丁目１２－４Ｎ＆ＥＢＬＤ．７階,,13,102,1040061,,,,,,,2025-08-19,1,,,,,ステップリープ,0
1054,5010005040548,新規,0,2025-08-19,2025-08-19,軽米一般社団法人,,その他の設立登記法人,東京都,千代田区,内神田１丁目３番７号４０１あすな会計事務所内,,13,101,1010047,,,,,,,2025-08-19,1,,,,,カルマイ,0
1055,5010101016823,新規,0,2025-08-19,2025-08-19,株式会社ユニティブ,,株式会社,東京都,八王子市,大和田町１丁目３１－７,,13,201,1920045,,,,,,,2025-08-19,1,,,,,ユニティブ,0
1056,5010103002631,新規,0,2025-08-19,2025-08-19,ユーアンドアイ合同会社,,合同会社,東京都,八王子市,松木８０－７－２－３１２,,13,201,1920362,,,,,,,2025-08-19,1,,,,,ユーアンドアイ,0
1066,5010401192083,新規,0,2025-08-19,2025-08-19,株式会社ＭＦＣ,,株式会社,東京都,港区,北青山１丁目３番１号アールキューブ青山３階,,13,103,1070061,,,,,,,2025-08-19,1,,,,,エムエフシー,0
1067,5010401192216,新規,0,2025-08-19,2025-08-19,瑞和株式会社,,株式会社,東京都,港区,芝浦４丁目２１番１号芝浦アイランドグローヴタワー１１１７号室,,13,103,1080023,,,,,,,2025-08-19,1,,,,,ズイワ,0
1068,5010401192463,新規,0,2025-08-19,2025-08-19,株式会社サイファ,,株式会社,東京都,港区,西麻布１丁目１５－１－２Ｆ,,13,103,1060031,,,,,,,2025-08-19,1,,,,,サイファ,0
1069,5010401192471,新規,0,2025-08-19,2025-08-19,株式会社Ｌｉｒ,,株式会社,東京都,港区,南青山２丁目２番１５号,,13,103,1070062,,,,,,,2025-08-19,1,,,,,リル,0
1072,5010501054555,新規,0,2025-08-19,2025-08-19,医翔株式会社,,株式会社,東京都,台東区,上野５丁目１６番１６号天美ビル２階,,13,106,1100005,,,,,,,2025-08-19,1,,,,,,0
1074,5010503007940,新規,0,2025-08-19,2025-08-19,合同会社かねこねこ,,合同会社,東京都,台東区,東上野６丁目１０番７－３０１号,,13,106,1100015,,,,,,,2025-08-19,1,,,,,カネコネコ,0
1075,5010503007957,新規,0,2025-08-19,2025-08-19,ＷＰＳ総合管理合同会社,,合同会社,東京都,台東区,浅草５丁目３番１号,,13,106,1110032,,,,,,,2025-08-19,1,,,,,ダブリューピーエスソウゴウカンリ,0
1077,5010601067812,新規,0,2025-08-19,2025-08-19,唯可株式会社,,株式会社,東京都,墨田区,千歳３丁目１８番１２－４０３号室,,13,107,1300025,,,,,,,2025-08-19,1,,,,,ウェーカー,0
1078,5010801036501,新規,0,2025-08-19,2025-08-19,株式会社稗田石材店,,株式会社,東京都,大田区,南馬込５丁目３０番５－３０１号,,13,111,1430025,,,,,,,2025-08-19,1,,,,,ヒエダセキザイテン,0
1079,5010803005495,新規,0,2025-08-19,2025-08-19,合同会社スアン,,合同会社,東京都,大田区,西糀谷３丁目４番５号,,13,111,1440034,,,,,,,2025-08-19,1,,,,,スアン,0
1080,5010803005504,新規,0,2025-08-19,2025-08-19,合同会社シンタス,,合同会社,東京都,大田区,仲池上１丁目１０番２号,,13,111,1460081,,,,,,,2025-08-19,1,,,,,シンタス,0
1084,5010901057926,新規,0,2025-08-19,2025-08-19,株式会社渡辺組,,株式会社,東京都,世田谷区,岡本３丁目１０番４号,,13,112,1570076,,,,,,,2025-08-19,1,,,,,ワタナベグミ,0
1087,5010905004817,新規,0,2025-08-19,2025-08-19,一般社団法人ウーマンズライフキャリア,,その他の設立登記法人,東京都,世田谷区,粕谷４丁目２０番１８号第一幸栄マンション３０７号室,,13,112,1570063,,,,,,,2025-08-19,1,,,,,ウーマンズライフキャリア,0
1091,5011001171221,新規,0,2025-08-19,2025-08-19,株式会社Ａｄａｐｔ　Ｊａｐａｎ,,株式会社,東京都,渋谷区,代々木４丁目３１番４号キャッスル新宿１１０２,,13,113,1510053,,,,,,,2025-08-19,1,,,,,アダプトジャパン,0
1092,5011001171493,新規,0,2025-08-19,2025-08-19,株式会社ＧｅｎＺ,,株式会社,東京都,渋谷区,神宮前４丁目１４番１３号ハイシティ表参道１１５号,,13,113,1500001,,,,,,,2025-08-19,1,,,,,ジェンズ,0
1093,5011001171907,新規,0,2025-08-19,2025-08-19,グッドセーフティ株式会社,,株式会社,東京都,渋谷区,渋谷３丁目２番３号,,13,113,1500002,,,,,,,2025-08-19,1,,,,,グッドセーフティ,0
1095,5011003022208,新規,0,2025-08-19,2025-08-19,合同会社ソルテラ,,合同会社,東京都,渋谷区,西原３丁目４４番２０号ＡＺＡＬＥＡＨＩＬＬＳ２０２,,13,113,1510066,,,,,,,2025-08-19,1,,,,,ソルテラ,0
1102,5011601028911,新規,0,2025-08-19,2025-08-19,日本大研株式会社,,株式会社,東京都,練馬区,三原台１丁目４２－７,,13,120,1770031,,,,,,,2025-08-19,1,,,,,ニホンタイケン,0
1107,5011803006970,新規,0,2025-08-19,2025-08-19,合同会社ＯｐｔｉｍｉｓｔｉｃＴｅｃｈｎｏｌｏｇｙ,,合同会社,東京都,足立区,西加平１丁目６番７号,,13,121,1210074,,,,,,,2025-08-19,1,,,,,オプティミスティックテクノロジー,0
1109,5012301014508,新規,0,2025-08-19,2025-08-19,やまてん不動産株式会社,,株式会社,東京都,町田市,高ヶ坂７丁目４１番１２号,,13,209,1940014,,,,,,,2025-08-19,1,,,,,ヤマテンフドウサン,0
1110,5012303002205,新規,0,2025-08-19,2025-08-19,Ｗｉｌｌ　Ｌｉｎｋ合同会社,,合同会社,東京都,町田市,原町田６丁目２１番２３号ＫＵＢＯＴＡＢＬＤＧ３Ｆ,,13,209,1940013,,,,,,,2025-08-19,1,,,,,ウィルリンク,0
1117,5013301054758,新規,0,2025-08-19,2025-08-19,リーブルプランタン株式会社,,株式会社,東京都,豊島区,東池袋３丁目１番１号サンシャイン６０、１２階,,13,116,1700013,,,,,,,2025-08-19,1,,,,,リーブルプランタン,0
1118,5013301054766,新規,0,2025-08-19,2025-08-19,ＦＵＩ株式会社,,株式会社,東京都,豊島区,西巣鴨１丁目２番２２号ＷＡＮＤＡビル２階,,13,116,1700001,,,,,,,2025-08-19,1,,,,,エフユーアイ,0
1119,5013303007813,新規,0,2025-08-19,2025-08-19,合同会社ＡＤＤ．ＬＩＶＥ　Ａｒｃｈｉｔｅｃｔｓ,,合同会社,東京都,豊島区,要町１丁目１０－７,,13,116,1710043,,,,,,,2025-08-19,1,,,,,アドリブアーキテクツ,0
1129,5020001164283,新規,0,2025-08-19,2025-08-19,株式会社Ｎｏｒｔｈ　Ｓｔａｒ,,株式会社,神奈川県,川崎市宮前区,水沢３丁目２番３号８号室,,14,136,2160012,,,,,,,2025-08-19,1,,,,,ノーススター,0
1130,5020001164399,新規,0,2025-08-19,2025-08-19,株式会社明治屋,,株式会社,神奈川県,川崎市高津区,梶ケ谷２丁目９番地４,,14,134,2130015,,,,,,,2025-08-19,1,,,,,メイジヤ,0
1131,5020001164449,新規,0,2025-08-19,2025-08-19,株式会社ＳＡＮ・Ｋ,,株式会社,神奈川県,川崎市高津区,新作２丁目１６番１０号ベルコリーヌ梶ヶ谷２０６,,14,134,2130014,,,,,,,2025-08-19,1,,,,,サンケー,0
1133,5020003029146,新規,0,2025-08-19,2025-08-19,合同会社横浜剥製,,合同会社,神奈川県,横浜市青葉区,美しが丘１丁目１３番地１０吉村ビル１０７号,,14,117,2250002,,,,,,,2025-08-19,1,,,,,ヨコハマハクセイ,0
1134,5020003029154,新規,0,2025-08-19,2025-08-19,合同会社Ｆｏｘｌａｂ,,合同会社,神奈川県,横浜市神奈川区,三枚町５０７－１５,,14,102,2210862,,,,,,,2025-08-19,1,,,,,フォックスラボ,0
1138,5020005016951,新規,0,2025-08-19,2025-08-19,プラウド青葉台管理組合法人,,その他の設立登記法人,神奈川県,横浜市青葉区,青葉台２丁目２８番地３,,14,117,2270062,,,,,,,2025-08-19,1,,,,,プラウドアオバダイ,0
1147,5021001085973,新規,0,2025-08-19,2025-08-19,Ｎｏｒｉｏ　Ｈｏｌｄｉｎｇｓ株式会社,,株式会社,神奈川県,綾瀬市,寺尾西２丁目１３番１３号シティハイム１０１号,,14,218,2521136,,,,,,,2025-08-19,1,,,,,,0
1148,5021001086055,新規,0,2025-08-19,2025-08-19,株式会社匠美建装,,株式会社,神奈川県,相模原市緑区,根小屋１５１７番地１２,,14,151,2520153,,,,,,,2025-08-19,1,,,,,タクミケンソウ,0
1151,5021003016415,新規,0,2025-08-19,2025-08-19,Ｗａｒｂｌｅｒ合同会社,,合同会社,神奈川県,高座郡寒川町,岡田２丁目１番２４号,,14,321,2530105,,,,,,,2025-08-19,1,,,,,ウォーブラー,0
1152,5021003016448,新規,0,2025-08-19,2025-08-19,合同会社サルー,,合同会社,神奈川県,厚木市,中町３丁目４番７号－４０１,,14,212,2430018,,,,,,,2025-08-19,1,,,,,サルー,0
1157,5030001168218,新規,0,2025-08-19,2025-08-19,環青海株式会社,,株式会社,埼玉県,加須市,大越１４９８番地,,11,210,3470001,,,,,,,2025-08-19,1,,,,,カンセイカイ,0
1160,5030003027314,新規,0,2025-08-19,2025-08-19,合同会社千葉,,合同会社,埼玉県,上尾市,小泉９丁目１６－１６,,11,219,3620063,,,,,,,2025-08-19,1,,,,,チバ,0
1161,5030005022247,新規,0,2025-08-19,2025-08-19,一般社団法人Ｂｅｓｈａ埼玉Ｋ,,その他の設立登記法人,埼玉県,上尾市,壱丁目北１３番地２８,,11,219,3620081,,,,,,,2025-08-19,1,,,,,ビーシャサイタマケイ,0
1168,5050001057055,新規,0,2025-08-19,2025-08-19,株式会社永田,,株式会社,茨城県,守谷市,中央２丁目１６番地１アワーズもりや２Ｆ,,08,224,3020115,,,,,,,2025-08-19,1,,,,,ナガタ,0
1169,5050001057105,新規,0,2025-08-19,2025-08-19,株式会社石毛建農,,株式会社,茨城県,稲敷市,町田乙２４０９番地,,08,229,3000615,,,,,,,2025-08-19,1,,,,,イシゲケンノウ,0
1176,5070005010421,新規,0,2025-08-19,2025-08-19,一般社団法人ぐんまってイイよね,,その他の設立登記法人,群馬県,桐生市,元宿町６番２号,,10,203,3760027,,,,,,,2025-08-19,1,,,,,,0
1184,5080401028074,新規,0,2025-08-19,2025-08-19,株式会社トモニティ,,株式会社,静岡県,菊川市,高橋３４８２番地の３,,22,224,4371505,,,,,,,2025-08-19,1,,,,,トモニティ,0
1185,5080403005336,新規,0,2025-08-19,2025-08-19,合同会社はままつコンシェルジュ,,合同会社,静岡県,浜松市中央区,曳馬２丁目１４番２９号,,22,138,4300901,,,,,,,2025-08-19,1,,,,,ハママツコンシェルジュ,0
1196,5120001278800,新規,0,2025-08-19,2025-08-19,アーク株式会社,,株式会社,大阪府,大阪市西区,北堀江２丁目９－２０ノバカネイチ四ツ橋３０１号室,,27,106,5500014,,,,,,,2025-08-19,1,,,,,アーク,0
1197,5120001278817,新規,0,2025-08-19,2025-08-19,鴻鉅株式会社,,株式会社,大阪府,大阪市西区,江之子島１丁目１番９－９０９号,,27,106,5500006,,,,,,,2025-08-19,1,,,,,コーギョ,0
1198,5120001278866,新規,0,2025-08-19,2025-08-19,ＳＳＲＹ株式会社,,株式会社,大阪府,大阪市港区,八幡屋３丁目５－１－２０２,,27,107,5520014,,,,,,,2025-08-19,1,,,,,エスエスアールワイ,0
1199,5120001278890,新規,0,2025-08-19,2025-08-19,株式会社ちゃうなぁ,,株式会社,大阪府,大阪市北区,曾根崎新地１丁目７番３号,,27,127,5300002,,,,,,,2025-08-19,1,,,,,チャウナァ,0
1202,5120003030300,新規,0,2025-08-19,2025-08-19,合同会社Ｄｏｔ　Ｃｒｅａｔｅ,,合同会社,大阪府,大阪市東淀川区,淡路５丁目２１番１３号アメニティ淡路２０３号室,,27,114,5330032,,,,,,,2025-08-19,1,,,,,ドットクリエイト,0
1203,5120003030317,新規,0,2025-08-19,2025-08-19,合同会社ホープサポート,,合同会社,大阪府,大阪市西区,西本町１丁目２番４号,,27,106,5500005,,,,,,,2025-08-19,1,,,,,ホープサポート,0
1204,5120003030325,新規,0,2025-08-19,2025-08-19,ＶＩＥＴ　ＦＯＯＤＳ合同会社,,合同会社,大阪府,大阪市東住吉区,杭全６丁目６番１０号３Ｆ,,27,121,5460002,,,,,,,2025-08-19,1,,,,,ビエットフォッド,0
1206,5120101072277,新規,0,2025-08-19,2025-08-19,株式会社Ｅｔｅｒｎａｌ,,株式会社,大阪府,堺市北区,百舌鳥梅町３丁４７番地１－２Ａ,,27,146,5918032,,,,,,,2025-08-19,1,,,,,エターナル,0
1219,5140001139703,新規,0,2025-08-19,2025-08-19,株式会社ＩＧＡ　ＦＯＯＤＳ,,株式会社,兵庫県,神戸市灘区,森後町２丁目１番地９号３Ｆ,,28,102,6570028,,,,,,,2025-08-19,1,,,,,イガフーズ,0
1220,5140003022444,新規,0,2025-08-19,2025-08-19,合同会社新開,,合同会社,兵庫県,伊丹市,荻野１丁目１３１番地３,,28,207,6640002,,,,,,,2025-08-19,1,,,,,シンカイ,0
1227,5180001168145,新規,0,2025-08-19,2025-08-19,株式会社ユウト,,株式会社,愛知県,名古屋市中区,錦３丁目１番１４号,,23,106,4600003,,,,,,,2025-08-19,1,,,,,ユウト,0
1228,5180001168194,新規,0,2025-08-19,2025-08-19,株式会社ミライベートＨＤ,,株式会社,愛知県,名古屋市守山区,瀬古３丁目１４０８番,,23,113,4630068,,,,,,,2025-08-19,1,,,,,ミライベートホールディングス,0
1229,5180001168203,新規,0,2025-08-19,2025-08-19,株式会社イーケン,,株式会社,愛知県,名古屋市中川区,かの里２丁目６１０番地の４,,23,110,4540957,,,,,,,2025-08-19,1,,,,,イーケン,0
1230,5180001168211,新規,0,2025-08-19,2025-08-19,株式会社ＧＡＤＧＥＴ‐ＰＬＵＳ,,株式会社,愛知県,春日井市,如意申町５丁目９番地１,,23,206,4860918,,,,,,,2025-08-19,1,,,,,ガジェットプラス,0
1231,5180001168244,新規,0,2025-08-19,2025-08-19,株式会社エスブロード,,株式会社,愛知県,尾張旭市,印場元町１丁目１５番地１４,,23,226,4880840,,,,,,,2025-08-19,1,,,,,エスブロード,0
1232,5180001168302,新規,0,2025-08-19,2025-08-19,株式会社Ｎ‐ＴＲＵＳＴ,,株式会社,愛知県,名古屋市西区,又穂町３丁目１－３,,23,104,4510014,,,,,,,2025-08-19,1,,,,,エヌトラスト,0
1239,5180003028875,新規,0,2025-08-19,2025-08-19,合同会社ＷＥＬＬＶＯ,,合同会社,愛知県,北名古屋市,九之坪市場６番地３,,23,234,4810041,,,,,,,2025-08-19,1,,,,,ウェルヴォ,0
1240,5180003028883,新規,0,2025-08-19,2025-08-19,合同会社おすぎ,,合同会社,愛知県,名古屋市西区,枇杷島３丁目１番３６号－２,,23,104,4510053,,,,,,,2025-08-19,1,,,,,オスギ,0
1241,5180003028891,新規,0,2025-08-19,2025-08-19,合同会社スタートサポート,,合同会社,愛知県,名古屋市緑区,四本木６０７番地の１,,23,114,4580039,,,,,,,2025-08-19,1,,,,,スタートサポート,0
1253,5220001026876,新規,0,2025-08-19,2025-08-19,株式会社額三,,株式会社,石川県,白山市,鶴来本町４丁目チ１０２番地,,17,210,9202121,,,,,,,2025-08-19,1,,,,,ガクゾウ,0
1269,5290001111102,新規,0,2025-08-19,2025-08-19,株式会社モットラスト,,株式会社,福岡県,春日市,昇町３丁目１１３番地,,40,218,8160851,,,,,,,2025-08-19,1,,,,,モットラスト,0
1270,5290001111119,新規,0,2025-08-19,2025-08-19,株式会社エースアシバ,,株式会社,福岡県,久留米市,安武町安武本２９３０番地１,,40,203,8300072,,,,,,,2025-08-19,1,,,,,エースアシバ,0
1271,5290003017256,新規,0,2025-08-19,2025-08-19,合同会社ＳＭＫ,,合同会社,福岡県,福岡市博多区,住吉４丁目９番１０号,,40,132,8120018,,,,,,,2025-08-19,1,,,,,エスエムケイ,0
1276,5310003005068,新規,0,2025-08-19,2025-08-19,合同会社ＳＡＩＫＯＵＳＯＵ,,合同会社,長崎県,五島市,三井楽町濱ノ畔２９７３－２,,42,211,8530601,,,,,,,2025-08-19,1,,,,,サイコウソウ,0
1286,5370003007249,新規,0,2025-08-19,2025-08-19,合同会社仙台商店,,合同会社,宮城県,仙台市若林区,成田町１６－２ロイヤルヒルズ成田町２０５,,04,103,9840056,,,,,,,2025-08-19,1,,,,,センダイショウテン,0
1287,5380001035531,新規,0,2025-08-19,2025-08-19,株式会社佐藤創建,,株式会社,福島県,福島市,北原３番地の８３,,07,201,9608231,,,,,,,2025-08-19,1,,,,,サトウソウケン,0
1290,5380005012997,新規,0,2025-08-19,2025-08-19,社会保険労務士法人岩瀬労務管理事務所,,その他の設立登記法人,福島県,須賀川市,西山寺町２９３番地アーク山寺１０２号室,,07,207,9620063,,,,,,,2025-08-19,1,,,,,イワセロウムカンリジムショ,0
1300,5430001095000,新規,0,2025-08-19,2025-08-19,Ｅｌａｒａ　Ｃａｐｉｔａｌ　Ｊａｐａｎ株式会社,,株式会社,北海道,虻田郡倶知安町,南一条東３丁目３番地４７,,01,400,0440011,,,,,,,2025-08-19,1,,,,,エラーラキャピタルジャパン,0
1301,5430003017968,新規,0,2025-08-19,2025-08-19,合同会社ＩＣＨＩ,,合同会社,北海道,札幌市白石区,本通１５丁目北２番２６－６０５号,,01,104,0030027,,,,,,,2025-08-19,1,,,,,イチ,0
1307,5700150131833,新規,0,2025-08-19,2025-08-19,善盈實業有限公司,,外国会社等,,,,,,,,香港香港島東區寶馬山天后廟道７０號威景臺Ｂ座１１１０室,,,,,,2025-08-19,1,,,,,ゼンエイジツギヨウユウゲンコウシ,0
1314,6010001257764,新規,0,2025-08-19,2025-08-19,ＡＦＧソリューションズ株式会社,,株式会社,東京都,千代田区,九段南３丁目８－１４カーサ九段坂５０１,,13,101,1020074,,,,,,,2025-08-19,1,,,,,エーエフジーソリューションズ,0
1315,6010001257789,新規,0,2025-08-19,2025-08-19,金麟株式会社,,株式会社,東京都,千代田区,神田神保町２丁目２８キガワビル５０１,,13,101,1010051,,,,,,,2025-08-19,1,,,,,キンリン,0
1316,6010001257839,新規,0,2025-08-19,2025-08-19,株式会社Ｍ．Ｉ．Ｃ．Ｈ,,株式会社,東京都,中央区,銀座３丁目４番１号大倉別館５階,,13,102,1040061,,,,,,,2025-08-19,1,,,,,エムアイシーエイチ,0
1317,6010003048154,新規,0,2025-08-19,2025-08-19,合同会社ＣＯＮＥＥ　Ｎｅｘｕｓ研究所,,合同会社,東京都,中央区,銀座１丁目１２－４Ｎ＆ＥＢＬＤ．６階,,13,102,1040061,,,,,,,2025-08-19,1,,,,,コニーネクサスケンキュウショ,0
1318,6010003048369,新規,0,2025-08-19,2025-08-19,Ｂｒｉｄｇｅｐｉａ合同会社,,合同会社,東京都,中央区,銀座１丁目１２番４号Ｎ＆ＥＢＬＤ．６Ｆ,,13,102,1040061,,,,,,,2025-08-19,1,,,,,,0
1319,6010003048393,新規,0,2025-08-19,2025-08-19,和みエンタープライズ合同会社,,合同会社,東京都,中央区,日本橋茅場町２丁目３番３号,,13,102,1030025,,,,,,,2025-08-19,1,,,,,ナゴミエンタープライズ,0
1320,6010003048402,新規,0,2025-08-19,2025-08-19,合同会社ブレーン,,合同会社,東京都,中央区,銀座６丁目１３番１６号銀座Ｗａｌｌビル５階,,13,102,1040061,,,,,,,2025-08-19,1,,,,,ブレーン,0
1321,6010003048451,新規,0,2025-08-19,2025-08-19,合同会社エンターＫ企画,,合同会社,東京都,中央区,日本橋２丁目１６－４ｒｅｍｉｘ日本橋６階,,13,102,1030027,,,,,,,2025-08-19,1,,,,,エンターケーキカク,0
1324,6010005040547,新規,0,2025-08-19,2025-08-19,一般社団法人トリニティネパール,,その他の設立登記法人,東京都,中央区,日本橋１丁目４番１号,,13,102,1030027,,,,,,,2025-08-19,1,,,,,トリニティネパール,0
1330,6010401192446,新規,0,2025-08-19,2025-08-19,株式会社かなえる木,,株式会社,東京都,港区,六本木３丁目１－３０ＡＢビル７Ｆ,,13,103,1060032,,,,,,,2025-08-19,1,,,,,カナエルキ,0
1331,6010401192454,新規,0,2025-08-19,2025-08-19,株式会社ＦＡＭＨインベストメント,,株式会社,東京都,港区,虎ノ門１丁目２３番２号,,13,103,1050001,,,,,,,2025-08-19,1,,,,,ファムインベストメント,0
1332,6010401192462,新規,0,2025-08-19,2025-08-19,ヒトアンド株式会社,,株式会社,東京都,港区,六本木３丁目１番３０号Ａ・Ｂビル６階,,13,103,1060032,,,,,,,2025-08-19,1,,,,,ヒトアンド,0
1333,6010403035834,新規,0,2025-08-19,2025-08-19,シェアハウス麻布十番ガーデニア合同会社,,合同会社,東京都,港区,六本木５丁目１２番１１号,,13,103,1060032,,,,,,,2025-08-19,1,,,,,シェアハウスアザブジュウバンガーデニア,0
1336,6010501054513,新規,0,2025-08-19,2025-08-19,株式会社Ｂｉｇ　Ｃｒｙ　Ｂａｂｙ,,株式会社,東京都,台東区,松が谷２丁目１５番８号浅草Ｋ２ビル３０１号室,,13,106,1110036,,,,,,,2025-08-19,1,,,,,ビッグクライベイビィ,0
1337,6010501054579,新規,0,2025-08-19,2025-08-19,株式会社自分塾,,株式会社,東京都,台東区,北上野２丁目２４－１２ピュア北上野１Ｆ,,13,106,1100014,,,,,,,2025-08-19,1,,,,,ジブンジュク,0
1338,6010501054587,新規,0,2025-08-19,2025-08-19,九牧株式会社,,株式会社,東京都,台東区,台東３丁目５番１０号－１０２－Ｇ号室,,13,106,1100016,,,,,,,2025-08-19,1,,,,,キュウボク,0
1340,6010601067778,新規,0,2025-08-19,2025-08-19,カンニン株式会社,,株式会社,東京都,墨田区,立花５丁目３１番４号,,13,107,1310043,,,,,,,2025-08-19,1,,,,,カンニン,0
1345,6010903010205,新規,0,2025-08-19,2025-08-19,ＣＧＦｌｏｗ合同会社,,合同会社,東京都,世田谷区,下馬３丁目２４番１６号エスパスピサロ下馬２０２,,13,112,1540002,,,,,,,2025-08-19,1,,,,,シージーフロー,0
1350,6011001171402,新規,0,2025-08-19,2025-08-19,株式会社ムルーム,,株式会社,東京都,渋谷区,道玄坂１丁目１０番８号渋谷道玄坂東急ビル２Ｆ－Ｃ,,13,113,1500043,,,,,,,2025-08-19,1,,,,,ムルーム,0
1351,6011001171872,新規,0,2025-08-19,2025-08-19,株式会社コブネ,,株式会社,東京都,渋谷区,千駄ヶ谷３丁目３０番４号ホワイトキャッスル５０２,,13,113,1510051,,,,,,,2025-08-19,1,,,,,コブネ,0
1352,6011001171906,新規,0,2025-08-19,2025-08-19,株式会社ＨＡＮＭＩ,,株式会社,東京都,渋谷区,神宮前６丁目８番４,,13,113,1500001,,,,,,,2025-08-19,1,,,,,ハンミ,0
1360,6011101112735,新規,0,2025-08-19,2025-08-19,株式会社Ｙ’ｓホームグループ,,株式会社,東京都,新宿区,西新宿７丁目１０番１２号田邊ビル１階,,13,104,1600023,,,,,,,2025-08-19,1,,,,,ワイズホームグループ,0
1361,6011101112776,新規,0,2025-08-19,2025-08-19,株式会社Ｇｌｏｂｅｘａ,,株式会社,東京都,新宿区,西新宿３丁目３番１３号西新宿水間ビル２Ｆ,,13,104,1600023,,,,,,,2025-08-19,1,,,,,グロベクサ,0
1364,6011501032459,新規,0,2025-08-19,2025-08-19,株式会社Ｎ．ｃｌｏｓｅｒ,,株式会社,東京都,北区,岩淵町５番３号,,13,117,1150041,,,,,,,2025-08-19,1,,,,,エヌクローサー,0
1365,6011503006642,新規,0,2025-08-19,2025-08-19,セイニジャパン合同会社,,合同会社,東京都,北区,浮間１丁目１－１４－３５０,,13,117,1150051,,,,,,,2025-08-19,1,,,,,セイニジャパン,0
1371,6011801046605,新規,0,2025-08-19,2025-08-19,Ｃｒｙｓｔａｌｌａｎｄ株式会社,,株式会社,東京都,葛飾区,鎌倉４丁目１２番８号,,13,122,1250053,,,,,,,2025-08-19,1,,,,,クリスタルランド,0
1372,6011803007027,新規,0,2025-08-19,2025-08-19,合同会社ＧＭＰＬＡＮ,,合同会社,東京都,葛飾区,新小岩１丁目２５番６号持田ビル４Ｆ,,13,122,1240024,,,,,,,2025-08-19,1,,,,,ジーエムプラン,0
1375,6012403007292,新規,0,2025-08-19,2025-08-19,合同会社しじみエンタープライズ,,合同会社,東京都,調布市,布田１丁目９－３プレイス調布Ｂ１０２,,13,208,1820024,,,,,,,2025-08-19,1,,,,,シジミエンタープライズ,0
1378,6013301054757,新規,0,2025-08-19,2025-08-19,株式会社ＫＡＧＥＹＵ,,株式会社,東京都,豊島区,目白２丁目１９番７号,,13,116,1710031,,,,,,,2025-08-19,1,,,,,カゲユ,0
1379,6013301054765,新規,0,2025-08-19,2025-08-19,株式会社黒澤,,株式会社,東京都,豊島区,北大塚２丁目２４番２０号７０３室,,13,116,1700004,,,,,,,2025-08-19,1,,,,,クロザワ,0
1385,6020001164365,新規,0,2025-08-19,2025-08-19,ＨＡＭＡＫＯＳＨＩ株式会社,,株式会社,神奈川県,横浜市保土ケ谷区,岩井町３４８－１ユナイト保土ヶ谷レオン・クーパー１０８号,,14,106,2400023,,,,,,,2025-08-19,1,,,,,ハマコシ,0
1386,6020001164381,新規,0,2025-08-19,2025-08-19,株式会社エフロン,,株式会社,神奈川県,横浜市西区,西戸部町１丁目７７番地２９,,14,103,2200046,,,,,,,2025-08-19,1,,,,,エフロン,0
1387,6020001164398,新規,0,2025-08-19,2025-08-19,株式会社秦野学園,,株式会社,神奈川県,横浜市金沢区,富岡東４丁目１０番３－４０１号,,14,108,2360051,,,,,,,2025-08-19,1,,,,,ハタノガクエン,0
1388,6021001086054,新規,0,2025-08-19,2025-08-19,株式会社ＡＬＬ　ＩＮ,,株式会社,神奈川県,相模原市南区,相模台２丁目２－２ガーデンビルＩＩ３階フェルゴ内,00140346,14,153,2520321,,,,,,,2025-08-19,1,,,,,オールイン,0
1389,6021003016406,新規,0,2025-08-19,2025-08-19,オフィス・サトウ合同会社,,合同会社,神奈川県,藤沢市,大鋸３丁目４番３７－３０１号,,14,205,2510002,,,,,,,2025-08-19,1,,,,,オフィスサトウ,0
1390,6021003016447,新規,0,2025-08-19,2025-08-19,合同会社サイドレイズ,,合同会社,神奈川県,厚木市,中町３丁目４番７号－４０１,,14,212,2430018,,,,,,,2025-08-19,1,,,,,サイドレイズ,0
1394,6030001168241,新規,0,2025-08-19,2025-08-19,株式会社サンインターナショナル,,株式会社,埼玉県,春日部市,中央１丁目８－１５春日部セントラル,,11,214,3440067,,,,,,,2025-08-19,1,,,,,サンインターナショナル,0
1396,6030003027429,新規,0,2025-08-19,2025-08-19,ＭＤ　ＩＮＴＥＲＮＡＴＩＯＮＡＬ合同会社,,合同会社,埼玉県,入間市,東藤沢３丁目２番１３号ＫＩＶ商会館入間Ｋ号室,,11,225,3580012,,,,,,,2025-08-19,1,,,,,エムディインターナショナル,0
1400,6040001140109,新規,0,2025-08-19,2025-08-19,株式会社繋盛デザイン,00140347,株式会社,千葉県,鎌ケ谷市,東初富４丁目５番９０号,,12,224,2730122,,,,,,,2025-08-19,1,,,,,ハンジョウデザイン,0
1404,6050001057095,新規,0,2025-08-19,2025-08-19,株式会社Ｗｉｎ　Ｇｒａｐｈｉｔｅ,,株式会社,茨城県,つくば市,吾妻１丁目５番地７ダイワロイネットホテルつくばビル２Ｆ,,08,220,3050031,,,,,,,2025-08-19,1,,,,,ウイングラファイト,0
1411,6070005010420,新規,0,2025-08-19,2025-08-19,特定非営利活動法人Ｄｅｌａｃｒｏｉｘ　Ｄｏｇ　Ｒａｎｃｈ,,その他の設立登記法人,群馬県,館林市,新宿２丁目１番１号,,10,207,3740026,,,,,,,2025-08-19,1,,,,,,0
1420,6080401028123,新規,0,2025-08-19,2025-08-19,クールエナジーシステム株式会社,,株式会社,静岡県,浜松市中央区,初生町１１７６番地の１３,,22,138,4338112,,,,,,,2025-08-19,1,,,,,クールエナジーシステム,0
1421,6080403005335,新規,0,2025-08-19,2025-08-19,合同会社すいこうえん,,合同会社,静岡県,袋井市,浅名１３７２番地,,22,216,4371102,,,,,,,2025-08-19,1,,,,,スイコウエン,0
1433,6110005017262,新規,0,2025-08-19,2025-08-19,医療法人社団栗田クリニック,,その他の設立登記法人,新潟県,新潟市江南区,荻曽根４丁目１番７号,,15,104,9500154,,,,,,,2025-08-19,1,,,,,クリタクリニック,0
1445,6120001278849,新規,0,2025-08-19,2025-08-19,盛唐貿易株式会社,,株式会社,大阪府,大阪市西成区,萩之茶屋２丁目６－４ニューかめや２１６号室,,27,122,5570004,,,,,,,2025-08-19,1,,,,,セイトウボウエキ,0
1446,6120001278931,新規,0,2025-08-19,2025-08-19,株式会社芽衣,,株式会社,大阪府,大阪市住吉区,苅田１０丁目３番１６号,,27,120,5580011,,,,,,,2025-08-19,1,,,,,メイ,0
1447,6120001278948,新規,0,2025-08-19,2025-08-19,株式会社龍佑会,,株式会社,大阪府,大阪市北区,梅田２丁目２番２号ヒルトンプラザウエスト４階,,27,127,5300001,,,,,,,2025-08-19,1,,,,,リュウユウカイ,0
1450,6120003030324,新規,0,2025-08-19,2025-08-19,ＪＰ　ＨＯＭＥ合同会社,,合同会社,大阪府,大阪市中央区,北久宝寺町１丁目５－８－５Ａ,,27,128,5410057,,,,,,,2025-08-19,1,,,,,ジェイピーホーム,0
1452,6120005025116,新規,0,2025-08-19,2025-08-19,一般社団法人日本カニパニオン協会,,その他の設立登記法人,大阪府,大阪市西区,北堀江１丁目３番１０－５０２号,,27,106,5500014,,,,,,,2025-08-19,1,,,,,ニホンカニパニオンキョウカイ,0
1455,6122001039545,新規,0,2025-08-19,2025-08-19,Ｎ‐Ｌｉｎｋｓ株式会社,,株式会社,大阪府,東大阪市,瓢箪山町１７番２号,,27,227,5798051,,,,,,,2025-08-19,1,,,,,エヌリンクス,0
1460,6130003010671,新規,0,2025-08-19,2025-08-19,錦鯉合同会社,,合同会社,京都府,京都市下京区,大宮２丁目６０１番地５,,26,106,6008363,,,,,,,2025-08-19,1,,,,,ニシキゴイ,0
1461,6130003010713,新規,0,2025-08-19,2025-08-19,合同会社Ｍａｒｉｓ,,合同会社,京都府,京都市右京区,嵯峨苅分町１１,,26,108,6168342,,,,,,,2025-08-19,1,,,,,マリス,0
1469,6140001139545,新規,0,2025-08-19,2025-08-19,株式会社ＪＦラボ,,株式会社,兵庫県,川西市,新田２丁目１番１２号,,28,217,6660125,,,,,,,2025-08-19,1,,,,,ジェイエフラボ,0
1470,6140001139628,新規,0,2025-08-19,2025-08-19,ＦＡＩＴＨ株式会社,,株式会社,兵庫県,神戸市兵庫区,南仲町１番５号南仲ＴＯビル３０７,,28,105,6520841,,,,,,,2025-08-19,1,,,,,フェイス,0
1471,6140001139652,新規,0,2025-08-19,2025-08-19,株式会社Ｔｅｎ,,株式会社,兵庫県,宝塚市,雲雀丘３丁目６番２４号,,28,214,6650805,,,,,,,2025-08-19,1,,,,,テン,0
1472,6140001139727,新規,0,2025-08-19,2025-08-19,株式会社パッシング,,株式会社,兵庫県,伊丹市,荒牧５丁目４番３号,,28,207,6640001,,,,,,,2025-08-19,1,,,,,パッシング,0
1478,6140005027606,新規,0,2025-08-19,2025-08-19,一般社団法人ナーシングカンパニー,,その他の設立登記法人,兵庫県,西宮市,北昭和町１０－９－１０２,,28,204,6620833,,,,,,,2025-08-19,1,,,,,ナーシングカンパニー,0
1481,6180001168210,新規,0,2025-08-19,2025-08-19,株式会社プライムホーム,,株式会社,愛知県,日進市,赤池町箕ノ手２番地６１２,,23,230,4700126,,,,,,,2025-08-19,1,,,,,プライムホーム,0
1484,6180003028882,新規,0,2025-08-19,2025-08-19,アカウンティングファームＵＭＩ合同会社,,合同会社,愛知県,名古屋市中村区,名駅４丁目２４番５号第２森ビル４０１,,23,105,4500002,,,,,,,2025-08-19,1,,,,,アカウンティングファームウミ,0
1485,6180003028890,新規,0,2025-08-19,2025-08-19,Ｂｅｔｗｅｅｎ　Ｍｏｍｅｎｔｓ合同会社,,合同会社,愛知県,名古屋市中村区,名駅４丁目２４番５号第２森ビル４０１,,23,105,4500002,,,,,,,2025-08-19,1,,,,,ビトウィーンモーメンツ,0
1487,6180301040119,新規,0,2025-08-19,2025-08-19,株式会社ｔｈｒｅｅＢ,,株式会社,愛知県,豊橋市,芦原町字芦原１１６番地６,,23,201,4418155,,,,,,,2025-08-19,1,,,,,スリービー,0
1504,6260001040468,新規,0,2025-08-19,2025-08-19,株式会社ＳｈｕＬａｂｏ,,株式会社,岡山県,岡山市北区,津島西坂２丁目１番３０－８号,,33,101,7000086,,,,,,,2025-08-19,1,,,,,シュウラボ,0
1516,6290001111002,新規,0,2025-08-19,2025-08-19,株式会社杉山慎悟,,株式会社,福岡県,福岡市南区,長住２丁目１３番２７号,,40,134,8111362,,,,,,,2025-08-19,1,,,,,スギヤマシンゴ,0
1517,6290001111019,新規,0,2025-08-19,2025-08-19,株式会社ＣＡＳＫＥＴ,,株式会社,福岡県,春日市,春日原北町１丁目３番地１０,,40,218,8160802,,,,,,,2025-08-19,1,,,,,カスケット,0
1518,6290001111051,新規,0,2025-08-19,2025-08-19,株式会社ＴＹＣ,,株式会社,福岡県,福岡市博多区,麦野４丁目２９－２８Ｗｉｎｇ雑餉隈１０２,,40,132,8120882,,,,,,,2025-08-19,1,,,,,ティーワイシー,0
1519,6290001111101,新規,0,2025-08-19,2025-08-19,ＯＮＥ　ＦＬＡＴジャパンホールディングス株式会社,,株式会社,福岡県,福岡市中央区,天神３丁目７番１７号,,40,133,8100001,,,,,,,2025-08-19,1,,,,,ワンフラットジャパンホールディングス,0
1520,6290001111118,新規,0,2025-08-19,2025-08-19,株式会社ＺＵＭＥ,,株式会社,福岡県,福岡市城南区,樋井川２丁目１番６２号,,40,136,8140153,,,,,,,2025-08-19,1,,,,,ズメ,0
1524,6290003017214,新規,0,2025-08-19,2025-08-19,合同会社Ｍｅｒａｋｉ,,合同会社,福岡県,福岡市西区,姪の浜１丁目１０番１－４０６号,,40,135,8190002,,,,,,,2025-08-19,1,,,,,メラキ,0
1525,6290003017239,新規,0,2025-08-19,2025-08-19,合同会社ピックセン,,合同会社,福岡県,福岡市博多区,博多駅前１丁目２３番２号,,40,132,8120011,,,,,,,2025-08-19,1,,,,,ピックセン,0
1526,6290003017255,新規,0,2025-08-19,2025-08-19,合同会社デイジー,,合同会社,福岡県,福岡市博多区,住吉４丁目９番１０号,,40,132,8120018,,,,,,,2025-08-19,1,,,,,デイジー,0
1528,6290005019803,新規,0,2025-08-19,2025-08-19,日本キリスト改革派長丘教会,,その他の設立登記法人,福岡県,福岡市南区,長丘１丁目１５番５号,,40,134,8150075,,,,,,,2025-08-19,1,,,,,ニホンキリストカイカクハナガオカキョウカイ,0
1529,6290805009854,新規,0,2025-08-19,2025-08-19,ＮＰＯ法人蓮の会,,その他の設立登記法人,福岡県,北九州市八幡西区,永犬丸１丁目１４番２７号,,40,109,8070851,,,,,,,2025-08-19,1,,,,,ハスノカイ,0
1541,6360001035664,新規,0,2025-08-19,2025-08-19,株式会社ヤマトネクスト,,株式会社,沖縄県,浦添市,内間５丁目９番１０号グランデュオカーサ４０２号,,47,208,9012121,,,,,,,2025-08-19,1,,,,,ヤマトネクスト,0
1543,6360003014930,新規,0,2025-08-19,2025-08-19,やいまＤＡＯ合同会社,,合同会社,沖縄県,石垣市,字登野城５１０チャレンジ石垣,,47,207,9070004,,,,,,,2025-08-19,1,,,,,ヤイマダオ,0
1546,6370003007256,新規,0,2025-08-19,2025-08-19,ＴａｓＮｅｓ合同会社,,合同会社,宮城県,岩沼市,阿武隈２丁目１番１８号ＶｉｌｌａＲｉｖｅｒ－ＳｉｄｅＢ２０３号,,04,211,9892435,,,,,,,2025-08-19,1,,,,,タスネス,0
1547,6380001003834,新規,0,2025-08-19,2025-08-19,中央不動産株式会社,,株式会社,福島県,福島市,北五老内町１番３号,,07,201,9608131,,,,,,,2025-08-19,1,,,,,チュウオウフドウサン,0
1548,6380001035530,新規,0,2025-08-19,2025-08-19,株式会社吉成農園,,株式会社,福島県,岩瀬郡天栄村,大字大里字愛宕下５番地,,07,344,9620504,,,,,,,2025-08-19,1,,,,,ヨシナリノウエン,0
1556,6430001095049,新規,0,2025-08-19,2025-08-19,株式会社ＨＩＮＧ,,株式会社,北海道,札幌市中央区,大通西２６丁目２番１０－６０１号,,01,101,0640820,,,,,,,2025-08-19,1,,,,,ハイング,0
1558,6430003017991,新規,0,2025-08-19,2025-08-19,ノインベスト合同会社,,合同会社,北海道,札幌市豊平区,月寒中央通１１丁目７－２２　１００２,,01,105,0620020,,,,,,,2025-08-19,1,,,,,ノインベスト,0
1561,6470003002957,新規,0,2025-08-19,2025-08-19,合同会社Ｏｎ　Ｙｏｕｒ　Ｓｉｄｅ　Ｐａｒｔｎｅｒｓ,,合同会社,香川県,綾歌郡綾川町,畑田３４０５番地６７,,37,387,7612101,,,,,,,2025-08-19,1,,,,,オンヨアサイドパートナーズ,0
1562,6490001011140,新規,0,2025-08-19,2025-08-19,株式会社おとたまかぜ,,株式会社,高知県,高知市,帯屋町１丁目１４－２０ＳＴ柳町Ｉ３階北室,00140344,39,201,7800841,,,,,,,2025-08-19,1,,,,,オトタマカゼ,0
1565,6700150090582,新規,0,2025-08-19,2018-08-27,Ｇｅｎｋｉ　Ｇｌｏｂａｌ　Ｄｉｎｉｎｇ　Ｃｏｎｃｅｐｔｓ取引先持株会,,その他,東京都,台東区,上野３丁目２４－６　上野フロンティアタワー１９階,,13,106,1100005,,,,,,,2018-08-27,1,,,,,ゲンキグローバルダイニングコンセプツトリヒキサキモチカブカイ,0
1568,6700150131832,新規,0,2025-08-19,2025-08-19,國宇股分有限公司,,外国会社等,,,,,,,,台北市中山区敬業一路１１号６楼,,,,,,2025-08-19,1,,,,,コクウコブンユウゲンコウシ,0
1574,7010001257838,新規,0,2025-08-19,2025-08-19,ＫＡＧＥ株式会社,,株式会社,東京都,中央区,銀座２丁目１５－２ＫＲＧｉｎｚａＩＩ４Ｆ,00140345,13,102,1040061,,,,,,,2025-08-19,1,,,,,カゲ,0
1575,7010001257854,新規,0,2025-08-19,2025-08-19,雷電株式会社,,株式会社,東京都,千代田区,平河町２丁目１１番１０号パークウエストひらかわ１０２号室,,13,101,1020093,,,,,,,2025-08-19,1,,,,,ライデン,0
1579,7010005040546,新規,0,2025-08-19,2025-08-19,一般社団法人鶴見港湾開発,,その他の設立登記法人,東京都,中央区,日本橋１丁目４番１号日本橋一丁目ビルディング,,13,102,1030027,,,,,,,2025-08-19,1,,,,,ツルミコウワンカイハツ,0
1586,7010401192296,新規,0,2025-08-19,2025-08-19,株式会社トライブフォース,,株式会社,東京都,港区,浜松町２丁目４番１号世界貿易センタービルディング南館１７階,,13,103,1050013,,,,,,,2025-08-19,1,,,,,トライブフォース,0
1587,7010401192445,新規,0,2025-08-19,2025-08-19,株式会社ＴＨＰワイン,,株式会社,東京都,港区,赤坂５丁目２番２０号,,13,103,1070052,,,,,,,2025-08-19,1,,,,,ティーエイチピーワイン,0
1593,7010501054545,新規,0,2025-08-19,2025-08-19,株式会社ＣＲＯＷＮ　ＤＩＡＭ,,株式会社,東京都,台東区,台東３丁目１３番５号ＧＴビル４階,,13,106,1100016,,,,,,,2025-08-19,1,,,,,,0
1594,7010501054553,新規,0,2025-08-19,2025-08-19,小島星株式会社,,株式会社,東京都,台東区,蔵前４丁目１６－６ストーク蔵前Ｍ＆Ｋ４階４１６,,13,106,1110051,,,,,,,2025-08-19,1,,,,,,0
1595,7010505003622,新規,0,2025-08-19,2025-08-19,一般財団法人滝川グループ奨学金財団,,その他の設立登記法人,東京都,台東区,元浅草３丁目２番１号,,13,106,1110041,,,,,,,2025-08-19,1,,,,,タキガワグループショウガクキンザイダン,0
1596,7010505003630,新規,0,2025-08-19,2025-08-19,一般社団法人還暦花火の日,,その他の設立登記法人,東京都,台東区,柳橋１丁目５番地６,,13,106,1110052,,,,,,,2025-08-19,1,,,,,カンレキハナビノヒ,0
1606,7010901057924,新規,0,2025-08-19,2025-08-19,フレームスラボ株式会社,,株式会社,東京都,世田谷区,玉川台２丁目１９番１０号,,13,112,1580096,,,,,,,2025-08-19,1,,,,,フレームスラボ,0
1607,7010901057940,新規,0,2025-08-19,2025-08-19,株式会社ＰＯＲＴＡＮＣＥ,,株式会社,東京都,世田谷区,中町５丁目１番１６号,,13,112,1580091,,,,,,,2025-08-19,1,,,,,ポータンス,0
1615,7011001171442,新規,0,2025-08-19,2025-08-19,株式会社エンフォリア,,株式会社,東京都,渋谷区,渋谷２丁目１９番１９号ワコー宮益坂ビル５階,,13,113,1500002,,,,,,,2025-08-19,1,,,,,エンフォリア,0
1617,7011003022073,新規,0,2025-08-19,2025-08-19,Ｎｅｘｔ　Ｄｉｍｅｎｓｉｏｎ　Ｍａｎａｇｅｍｅｎｔ合同会社,,合同会社,東京都,渋谷区,道玄坂丁目１０番８号渋谷道玄坂東急ビル２Ｆ‐Ｃ,,13,113,1500000,,,,,,,2025-08-19,1,,,,,ネクストディメンションマネジメント,0
1618,7011003022172,新規,0,2025-08-19,2025-08-19,Ｐａｒａｌｌａｘ　ＡＩ合同会社,,合同会社,東京都,渋谷区,神南１丁目１２番１４号渋谷宮田ビル６Ｆ、７Ｆ、８Ｆ,,13,113,1500041,,,,,,,2025-08-19,1,,,,,パララックスエーアイ,0
1625,7011405002400,新規,0,2025-08-19,2025-08-19,東京キリスト恵み教会,,その他の設立登記法人,東京都,板橋区,大原町２３番１号,,13,119,1740061,,,,,,,2025-08-19,1,,,,,トウキョウキリストメグミキョウカイ,0
1630,7011601028901,新規,0,2025-08-19,2025-08-19,地域法人タオスポーツ株式会社,,株式会社,東京都,練馬区,練馬１丁目２０番８号日建練馬ビル２Ｆ,,13,120,1760001,,,,,,,2025-08-19,1,,,,,チイキホウジンタオスポーツ,0
1631,7011701028636,新規,0,2025-08-19,2025-08-19,呉歌株式会社,,株式会社,東京都,江戸川区,南小岩３丁目１番１４－１２７,,13,123,1330056,,,,,,,2025-08-19,1,,,,,ゴカ,0
1634,7012301014497,新規,0,2025-08-19,2025-08-19,パートナーマネジメント株式会社,,株式会社,東京都,町田市,鶴間４丁目１９番１－２０８号,,13,209,1940004,,,,,,,2025-08-19,1,,,,,パートナーマネジメント,0
1645,7013303007811,新規,0,2025-08-19,2025-08-19,０１Ｘ合同会社,,合同会社,東京都,豊島区,目白２丁目３番１５号,,13,116,1710031,,,,,,,2025-08-19,1,,,,,ゼロワンエックス,0
1655,7020001164422,新規,0,2025-08-19,2025-08-19,株式会社エイト,,株式会社,神奈川県,横浜市西区,中央２丁目３６番１２－１００３号,,14,103,2200051,,,,,,,2025-08-19,1,,,,,エイト,0
1656,7020001164455,新規,0,2025-08-19,2025-08-19,株式会社Ｓｈｉｎｋａ　Ｒｉｓｅ,,株式会社,神奈川県,横浜市中区,本牧町１丁目１０８番地４０１号室,,14,104,2310806,,,,,,,2025-08-19,1,,,,,シンカライズ,0
1658,7020003029136,新規,0,2025-08-19,2025-08-19,合同会社横浜クラス,,合同会社,神奈川県,横浜市中区,宮川町２丁目５７－２,,14,104,2310065,,,,,,,2025-08-19,1,,,,,ヨコハマクラス,0
1659,7020003029193,新規,0,2025-08-19,2025-08-19,合同会社マノア,,合同会社,神奈川県,川崎市多摩区,三田１丁目１１番地４,,14,135,2140034,,,,,,,2025-08-19,1,,,,,マノア,0
1663,7021001086053,新規,0,2025-08-19,2025-08-19,株式会社めぐるわーくす,,株式会社,神奈川県,相模原市緑区,東橋本４丁目７番１号,,14,151,2520144,,,,,,,2025-08-19,1,,,,,メグルワークス,0
1664,7021001086061,新規,0,2025-08-19,2025-08-19,ユニテックス株式会社,,株式会社,神奈川県,秦野市,南矢名２２２３番地の４東海ビル１０１Ａ,,14,211,2570003,,,,,,,2025-08-19,1,,,,,ユニテックス,0
1665,7021001086078,新規,0,2025-08-19,2025-08-19,株式会社プレシャスハート,,株式会社,神奈川県,小田原市,中里８３番地の２０,,14,206,2500872,,,,,,,2025-08-19,1,,,,,プレシャスハート,0
1668,7021005013417,新規,0,2025-08-19,2025-08-19,一般社団法人近藤蟻蜘蛛研究所,,その他の設立登記法人,神奈川県,小田原市,城山１丁目９番４５号,,14,206,2500045,,,,,,,2025-08-19,1,,,,,コンドウアリクモケンキュウジョ,0
1683,7040001140108,新規,0,2025-08-19,2025-08-19,日本遠揚新材株式会社,,株式会社,千葉県,木更津市,伊豆島１１２３－１,,12,206,2920034,,,,,,,2025-08-19,1,,,,,ニホンエンヨウシンザイ,0
1685,7040003028292,新規,0,2025-08-19,2025-08-19,合同会社ＮＯＨｖａ,,合同会社,千葉県,松戸市,和名ケ谷６０８－２５,,12,207,2702232,,,,,,,2025-08-19,1,,,,,ノヴァ,0
1686,7040003028301,新規,0,2025-08-19,2025-08-19,合同会社ｓｔａｙｗｅｌｌ,,合同会社,千葉県,船橋市,西習志野２丁目２４－８，Ｂ号室,,12,204,2740815,,,,,,,2025-08-19,1,,,,,ステイウェル,0
1703,7080003003531,新規,0,2025-08-19,2025-08-19,ＬＹＮファッション合同会社,,合同会社,静岡県,静岡市清水区,八木間町４３９番地の７ラシーヌ１０５,,22,103,4240212,,,,,,,2025-08-19,1,,,,,リンファッション,0
1705,7080103003398,新規,0,2025-08-19,2025-08-19,ＭＩＴ合同会社,,合同会社,静岡県,沼津市,大手町４丁目４番７号３階,,22,203,4100801,,,,,,,2025-08-19,1,,,,,エムアイティ,0
1709,7100003008346,新規,0,2025-08-19,2025-08-19,佳宸合同会社,,合同会社,長野県,北安曇郡白馬村,大字神城２４１９３番地３３,,20,485,3999211,,,,,,,2025-08-19,1,,,,,カシン,0
1712,7110003005862,新規,0,2025-08-19,2025-08-19,合同会社クルマサポート,,合同会社,新潟県,佐渡市,達者４８１番地,,15,224,9522135,,,,,,,2025-08-19,1,,,,,クルマサポート,0
1724,7120001278666,新規,0,2025-08-19,2025-08-19,株式会社ＤＩＶＡ,,株式会社,大阪府,大阪市大正区,南恩加島５丁目９番７号,,27,108,5510021,,,,,,,2025-08-19,1,,,,,ディーヴァ,0
1725,7120001278807,新規,0,2025-08-19,2025-08-19,株式会社アクアフィックス,,株式会社,大阪府,守口市,南寺方東通２丁目８－６,,27,209,5700043,,,,,,,2025-08-19,1,,,,,アクアフィックス,0
1726,7120001278872,新規,0,2025-08-19,2025-08-19,株式会社アルミライ,,株式会社,大阪府,大阪市中央区,南船場１丁目３番１７号,,27,128,5420081,,,,,,,2025-08-19,1,,,,,アルミライ,0
1727,7120001278880,新規,0,2025-08-19,2025-08-19,東昇商事株式会社,,株式会社,大阪府,大阪市浪速区,大国１丁目９番１３号マンション鷹４０３Ａ号室,,27,111,5560014,,,,,,,2025-08-19,1,,,,,トウショウショウジ,0
1728,7120001278897,新規,0,2025-08-19,2025-08-19,株式会社Ｍａｅｉｃｈｉ　Ｗｏｒｋｓ,,株式会社,大阪府,大阪市北区,梅田１丁目１－３大阪駅前第３ビル２９階１－１－１号室,,27,127,5300001,,,,,,,2025-08-19,1,,,,,マエイチワークス,0
1729,7120001278914,新規,0,2025-08-19,2025-08-19,Ｌｉｇｈｔｈｏｕｓｅ株式会社,,株式会社,大阪府,大阪市天王寺区,味原町７番７－５０１号,,27,109,5430023,,,,,,,2025-08-19,1,,,,,ライトハウス,0
1732,7120005025115,新規,0,2025-08-19,2025-08-19,一般社団法人関西ＧＸ推進協議会,,その他の設立登記法人,大阪府,大阪市中央区,瓦町１丁目６－１シティタワー大阪２２０８,,27,128,5410048,,,,,,,2025-08-19,1,,,,,カンサイジーエックススイシンキョウギカイ,0
1734,7120101072283,新規,0,2025-08-19,2025-08-19,遠元株式会社,,株式会社,大阪府,堺市西区,原田１２７－１,,27,144,5938317,,,,,,,2025-08-19,1,,,,,トオモト,0
1737,7122003003291,新規,0,2025-08-19,2025-08-19,１０ａｍ合同会社,,合同会社,大阪府,柏原市,安堂町２８番地の１４,,27,221,5820016,,,,,,,2025-08-19,1,,,,,テンエーエム,0
1741,7130001080294,新規,0,2025-08-19,2025-08-19,多田設備株式会社,,株式会社,京都府,城陽市,平川野原２２－１１,,26,207,6100101,,,,,,,2025-08-19,1,,,,,タダセツビ,0
1742,7130003010687,新規,0,2025-08-19,2025-08-19,合同会社ビートカンパニー,,合同会社,京都府,京都市南区,久世上久世町４５６番地７８,,26,107,6018212,,,,,,,2025-08-19,1,,,,,ビートカンパニー,0
1760,7170001018761,新規,0,2025-08-19,2025-08-19,株式会社Ｗｉｓｔｅｒｉａ　Ｄｏｇ,,株式会社,和歌山県,和歌山市,伊太祈曽４２番地７,,30,201,6400361,,,,,,,2025-08-19,1,,,,,ウィステリアドッグ,0
1770,7180001168218,新規,0,2025-08-19,2025-08-19,株式会社＿,00140339,株式会社,愛知県,名古屋市北区,楠味鋺４丁目８０７番地,,23,103,4620014,,,,,,,2025-08-19,1,,,,,ジン,0
1771,7180001168226,新規,0,2025-08-19,2025-08-19,ＴＷＯ　ＳＫＹ株式会社,,株式会社,愛知県,名古屋市中区,丸の内２丁目１８－２２名古屋三博ビル４階,,23,106,4600002,,,,,,,2025-08-19,1,,,,,トゥースカイ,0
1772,7180001168242,新規,0,2025-08-19,2025-08-19,株式会社とんとんびょうし,,株式会社,愛知県,名古屋市中区,栄２丁目２番１号広小路伏見中駒ビル２Ｆ－９,,23,106,4600008,,,,,,,2025-08-19,1,,,,,トントンビョウシ,0
1777,7180003028857,新規,0,2025-08-19,2025-08-19,合同会社ＦＴＡ,,合同会社,愛知県,名古屋市中区,栄３丁目２５番７号食器ビル２階,,23,106,4600008,,,,,,,2025-08-19,1,,,,,エフティーエー,0
1778,7180003028881,新規,0,2025-08-19,2025-08-19,合同会社秋の夜,,合同会社,愛知県,愛西市,町方町彦作堤内５０番地２９,,23,232,4968014,,,,,,,2025-08-19,1,,,,,アキノヨル,0
1779,7180003028907,新規,0,2025-08-19,2025-08-19,合同会社ＢＥＳＥＬ,,合同会社,愛知県,名古屋市中村区,名駅４丁目２４番５号第２森ビル４０１,,23,105,4500002,,,,,,,2025-08-19,1,,,,,ベゼル,0
1785,7220003004102,新規,0,2025-08-19,2025-08-19,ひとり安心合同会社,,合同会社,石川県,金沢市,畝田中４丁目１番地１１,,17,201,9200343,,,,,,,2025-08-19,1,,,,,ヒトリアンシン,0
1798,7290001111018,新規,0,2025-08-19,2025-08-19,株式会社ｗｅｌｏｔｔ,,株式会社,福岡県,福岡市中央区,今泉１丁目２番２０－１３０６号,,40,133,8100021,,,,,,,2025-08-19,1,,,,,ウィロット,0
1799,7290001111075,新規,0,2025-08-19,2025-08-19,株式会社ｍｅｔａｎｏｉａ,,株式会社,福岡県,福岡市博多区,博多駅前１丁目２３番２号ＰａｒｋＦｒｏｎｔ博多駅前１丁目５Ｆ－Ｂ,,40,132,8120011,,,,,,,2025-08-19,1,,,,,メタノイア,0
1800,7290001111109,新規,0,2025-08-19,2025-08-19,株式会社ＯＲＳ,,株式会社,福岡県,福岡市南区,平和２丁目６番３９－１０１号,,40,134,8150071,,,,,,,2025-08-19,1,,,,,オーアールエス,0
1801,7290001111117,新規,0,2025-08-19,2025-08-19,株式会社ｍｉｅｌ,,株式会社,福岡県,糸島市,志摩岐志６４番地１,,40,230,8191334,,,,,,,2025-08-19,1,,,,,ミエル,0
1802,7290001111125,新規,0,2025-08-19,2025-08-19,株式会社ｋｅｉｔｏ,,株式会社,福岡県,福岡市東区,雁の巣２丁目４８番２７－４号,,40,131,8110206,,,,,,,2025-08-19,1,,,,,ケイト,0
1803,7290003017246,新規,0,2025-08-19,2025-08-19,日本百亜貿易合同会社,,合同会社,福岡県,福岡市南区,多賀１丁目４－２５－２０１号,,40,134,8150072,,,,,,,2025-08-19,1,,,,,ニホンヒャクアボウエキ,0
1804,7290003017279,新規,0,2025-08-19,2025-08-19,合同会社ＺＥＮ,,合同会社,福岡県,福岡市西区,大字飯盛２１８－１,,40,135,8190037,,,,,,,2025-08-19,1,,,,,ゼン,0
1811,7350001019700,新規,0,2025-08-19,2025-08-19,ＭＳＧリンクス株式会社,,株式会社,宮崎県,宮崎市,別府町４番１９号,,45,201,8800802,,,,,,,2025-08-19,1,,,,,エムエスジーリンクス,0
1815,7360001035663,新規,0,2025-08-19,2025-08-19,株式会社富山晃一建築事務所,,株式会社,沖縄県,那覇市,前島２丁目７番１号,,47,201,9000016,,,,,,,2025-08-19,1,,,,,トミヤマコウイチケンチクジムショ,0
1817,7370003007255,新規,0,2025-08-19,2025-08-19,結膳合同会社,,合同会社,宮城県,気仙沼市,唐桑町中２０５番地４,,04,205,9880542,,,,,,,2025-08-19,1,,,,,ユイゼン,0
1823,7420003003174,新規,0,2025-08-19,2025-08-19,タートル設備合同会社,,合同会社,青森県,青森市,大字新城字平岡１６０番地１５９８,,02,201,0380042,,,,,,,2025-08-19,1,,,,,タートルセツビ,0
1826,7430001095089,新規,0,2025-08-19,2025-08-19,株式会社小川防水工業,,株式会社,北海道,札幌市中央区,南十一条西１３丁目１番３２－７０２号,,01,101,0640811,,,,,,,2025-08-19,1,,,,,オガワボウスイコウギョウ,0
1829,7470001020860,新規,0,2025-08-19,2025-08-19,株式会社愛真興業,,株式会社,香川県,高松市,勅使町２１５番地１,,37,201,7618058,,,,,,,2025-08-19,1,,,,,アイシンコウギョウ,0
1841,8010001257564,新規,0,2025-08-19,2025-08-19,株式会社ｓｉｓｉｇｕｍｉ,,株式会社,東京都,中央区,銀座１丁目１２番４号Ｎ＆ＥＢＬＤ．６Ｆ,,13,102,1040061,,,,,,,2025-08-19,1,,,,,シシグミ,0
1842,8010001257663,新規,0,2025-08-19,2025-08-19,Ｓｔａｒ　Ｐａｒｔｙ株式会社,,株式会社,東京都,千代田区,丸の内２丁目２－１岸本ビルヂング７階２０６室,,13,101,1000005,,,,,,,2025-08-19,1,,,,,スターパーティ,0
1843,8010001257688,新規,0,2025-08-19,2025-08-19,株式会社ＫＡＫＵＳＨＩＮ,,株式会社,東京都,中央区,築地６丁目５－５－１１０３,,13,102,1040045,,,,,,,2025-08-19,1,,,,,カクシン,0
1844,8010003047880,新規,0,2025-08-19,2025-08-19,合同会社Ｇｏｏｄ　Ｗｏｒｌｄ,,合同会社,東京都,中央区,晴海３丁目１３－１ドゥトゥールイーストタワーＥ９１５,,13,102,1040053,,,,,,,2025-08-19,1,,,,,グッドワールド,0
1845,8010003048458,新規,0,2025-08-19,2025-08-19,Ｓｐｒｉｎｔ　Ｈｏｌｄｉｎｇｓ２合同会社,,合同会社,東京都,千代田区,霞が関３丁目２番５号,,13,101,1000013,,,,,,,2025-08-19,1,,,,,スプリントホールディングスツー,0
1854,8010401192329,新規,0,2025-08-19,2025-08-19,株式会社常磐堂,,株式会社,東京都,港区,新橋４丁目１４番１号新橋ＡＵＮＢＬＤＧ．４階,,13,103,1050004,,,,,,,2025-08-19,1,,,,,ジョウバンドウ,0
1855,8010401192378,新規,0,2025-08-19,2025-08-19,株式会社ＷｅｂＡｃｅ,,株式会社,東京都,港区,北青山１丁目３－１アールキューブ青山３階,,13,103,1070061,,,,,,,2025-08-19,1,,,,,ウェブエース,0
1856,8010401192444,新規,0,2025-08-19,2025-08-19,鉄友ホールディングス株式会社,,株式会社,東京都,港区,北青山１丁目３番１号アールキューブ青山３階,,13,103,1070061,,,,,,,2025-08-19,1,,,,,テツユウホールディングス,0
1857,8010401192452,新規,0,2025-08-19,2025-08-19,株式会社Ｏｒｉｈｉｍｅ,,株式会社,東京都,港区,赤坂９丁目７番７－１７０７号,,13,103,1070052,,,,,,,2025-08-19,1,,,,,オリヒメ,0
1859,8010403035881,新規,0,2025-08-19,2025-08-19,合同会社小笹俊一事務所,,合同会社,東京都,港区,南青山２丁目２番１５号ウィン青山９４２,,13,103,1070062,,,,,,,2025-08-19,1,,,,,オザサシュンイチジムショ,0
1860,8010501054544,新規,0,2025-08-19,2025-08-19,ＳＢ重機工株式会社,,株式会社,東京都,台東区,浅草５丁目６番１０－７０２号,,13,106,1110032,,,,,,,2025-08-19,1,,,,,エスビージュウキコウ,0
1861,8010501054569,新規,0,2025-08-19,2025-08-19,ＤＣＳ　Ｆｉｎｔｅｃｈ　Ｊａｐａｎ株式会社,,株式会社,東京都,台東区,松が谷２丁目１５番８号浅草Ｋ２ビル２０４号室,,13,106,1110036,,,,,,,2025-08-19,1,,,,,ディーシーエスフィンテックジャパン,0
1862,8010503007962,新規,0,2025-08-19,2025-08-19,合同会社ビッグサクセス,,合同会社,東京都,台東区,蔵前３丁目９番４－７０２号カスタリア蔵前,,13,106,1110051,,,,,,,2025-08-19,1,,,,,ビッグサクセス,0
1863,8010601067818,新規,0,2025-08-19,2025-08-19,株式会社マイルストーン,,株式会社,東京都,江東区,東雲１丁目９番２２－４１８号,,13,108,1350062,,,,,,,2025-08-19,1,,,,,マイルストーン,0
1866,8010801036507,新規,0,2025-08-19,2025-08-19,株式会社タミアートホーム,,株式会社,東京都,大田区,矢口２丁目１９番１３号,,13,111,1460093,,,,,,,2025-08-19,1,,,,,タミアートホーム,0
1869,8010903010161,新規,0,2025-08-19,2025-08-19,ＮＳ　Ｈｏｌｄｉｎｇｓ合同会社,,合同会社,東京都,世田谷区,野沢１丁目３５番６－６０８号,,13,112,1540003,,,,,,,2025-08-19,1,,,,,エヌエスホールディングス,0
1870,8010903010178,新規,0,2025-08-19,2025-08-19,ＭＵＳＣＬＥ　ＢＡＳＥ合同会社,,合同会社,東京都,世田谷区,弦巻１丁目２５－１４－２０３,,13,112,1540016,,,,,,,2025-08-19,1,,,,,マッスルベース,0
1871,8010903010203,新規,0,2025-08-19,2025-08-19,ＪＡＥＮコーディネーター合同会社,,合同会社,東京都,世田谷区,代沢１丁目２７－１－４０２,,13,112,1550032,,,,,,,2025-08-19,1,,,,,ジェーンコーディネーター,0
1879,8011001171391,新規,0,2025-08-19,2025-08-19,ＰＵＧＥＴ　ＰＡＣＫＩＮＧ株式会社,,株式会社,東京都,目黒区,目黒３丁目１５番５号,,13,110,1530063,,,,,,,2025-08-19,1,,,,,ピュージットパッキング,0
1880,8011001171400,新規,0,2025-08-19,2025-08-19,株式会社マエストロ,,株式会社,東京都,目黒区,下目黒５丁目３６番２９号,,13,110,1530064,,,,,,,2025-08-19,1,,,,,マエストロ,0
1881,8011001171540,新規,0,2025-08-19,2025-08-19,ＧＬＥＡＭ株式会社,,株式会社,東京都,渋谷区,東１丁目２７番７号,,13,113,1500011,,,,,,,2025-08-19,1,,,,,グリーム,0
1894,8011501032432,新規,0,2025-08-19,2025-08-19,比隣国際株式会社,,株式会社,東京都,北区,豊島１丁目２２－４ウチダマンション１Ｆ,,13,117,1140003,,,,,,,2025-08-19,1,,,,,ヒリンコクサイ,0
1898,8011801046611,新規,0,2025-08-19,2025-08-19,株式会社ビルドラック,,株式会社,東京都,足立区,花畑３丁目１２番４号メゾンクレール２０１,,13,121,1210061,,,,,,,2025-08-19,1,,,,,ビルドラック,0
1900,8011803007025,新規,0,2025-08-19,2025-08-19,合同会社ＭＩＲＡＩバリューＨＤ,,合同会社,東京都,足立区,六町４丁目２番２９号,,13,121,1210073,,,,,,,2025-08-19,1,,,,,ミライバリューホールディング,0
1901,8011803007033,新規,0,2025-08-19,2025-08-19,Ｓａｗａｉ　Ｃａｐｉｔａｌ合同会社,,合同会社,東京都,足立区,島根４丁目８番１３－５０３号,,13,121,1210815,,,,,,,2025-08-19,1,,,,,サワイキャピタル,0
1903,8012401043503,新規,0,2025-08-19,2025-08-19,株式会社ＫＯＵ,,株式会社,東京都,府中市,寿町１丁目９番地の１寿チェリーマンション２０１,,13,206,1830056,,,,,,,2025-08-19,1,,,,,コウ,0
1906,8012403007290,新規,0,2025-08-19,2025-08-19,合同会社ＢＯＬＥＲＯ,,合同会社,東京都,稲城市,坂浜５９３－８,,13,225,2060822,,,,,,,2025-08-19,1,,,,,ボレロ,0
1909,8013101009769,新規,0,2025-08-19,2025-08-19,ＡＤテクノロジーズ株式会社,,株式会社,東京都,西多摩郡瑞穂町,長岡３丁目９番地１１,,13,303,1901232,,,,,,,2025-08-19,1,,,,,エーディーテクノロジーズ,0
1910,8013301054755,新規,0,2025-08-19,2025-08-19,株式会社Ｙ．Ｕ,,株式会社,東京都,豊島区,池袋１丁目２番６－５０３号,,13,116,1700014,,,,,,,2025-08-19,1,,,,,ワイユー,0
1911,8013301054763,新規,0,2025-08-19,2025-08-19,ＸＭ　Ｆｉｎａｎｃｅ株式会社,,株式会社,東京都,豊島区,高田３丁目８番５号セントラル・ワセダ３０１Ｂ,,13,116,1710033,,,,,,,2025-08-19,1,,,,,エックスエムファイナンス,0
1912,8013303007810,新規,0,2025-08-19,2025-08-19,合同会社ＮＣＫビル管理,,合同会社,東京都,豊島区,目白３丁目４番１１号ＮＣＫビル,,13,116,1710031,,,,,,,2025-08-19,1,,,,,エヌシーケービルカンリ,0
1916,8020001164347,新規,0,2025-08-19,2025-08-19,イーネッソ株式会社,,株式会社,神奈川県,横浜市栄区,笠間２丁目２番２－１９０１号,,14,115,2470006,,,,,,,2025-08-19,1,,,,,イーネッソ,0
1917,8020001164355,新規,0,2025-08-19,2025-08-19,鈴木建設株式会社,,株式会社,神奈川県,横浜市戸塚区,戸塚町１８６２番地６８アーウィン戸塚ヒルズ４０３号,,14,110,2440003,,,,,,,2025-08-19,1,,,,,スズキケンセツ,0
1918,8020001164446,新規,0,2025-08-19,2025-08-19,Ｂｏｔｔｌｅｃａｐ株式会社,,株式会社,神奈川県,横浜市青葉区,青葉台１丁目５番地４青葉台サンクスビル３Ｆ,,14,117,2270062,,,,,,,2025-08-19,1,,,,,ボトルキャップ,0
1922,8020003029151,新規,0,2025-08-19,2025-08-19,ＮＥＷ　ＥＡＲＴＨ　ＣＨＩＬＤＲＥＮ合同会社,,合同会社,神奈川県,川崎市川崎区,日進町１７－１スプリングハイツ２階Ａ,,14,131,2100024,,,,,,,2025-08-19,1,,,,,ニューアースチルドレン,0
1924,8021001086052,新規,0,2025-08-19,2025-08-19,株式会社ルートライズ,,株式会社,神奈川県,鎌倉市,今泉台１丁目２１番１７号,,14,204,2470053,,,,,,,2025-08-19,1,,,,,ルートライズ,0
1925,8021001086060,新規,0,2025-08-19,2025-08-19,株式会社Ｋ４,,株式会社,神奈川県,平塚市,万田１丁目２７番４－４０４号ヴァンハウス湘南平塚,,14,203,2540913,,,,,,,2025-08-19,1,,,,,ケイフォー,0
1939,8030003027419,新規,0,2025-08-19,2025-08-19,ＧＯＬＤ＆ＯＣＥＡＮ合同会社,,合同会社,埼玉県,飯能市,本町１番１１号ＫＩＶオフィス飯能Ａ号室,,11,209,3570032,,,,,,,2025-08-19,1,,,,,ゴールドアンドオーシャン,0
1940,8030005022244,新規,0,2025-08-19,2025-08-19,一般社団法人にじこどもホスピス,,その他の設立登記法人,埼玉県,北葛飾郡松伏町,田中２丁目２番地１１,,11,465,3430117,,,,,,,2025-08-19,1,,,,,ニジコドモホスピス,0
1949,8040003028291,新規,0,2025-08-19,2025-08-19,合同会社ネクサム,,合同会社,千葉県,四街道市,栗山１０５５番地３２－２０２号室,,12,228,2840027,,,,,,,2025-08-19,1,,,,,ネクサム,0
1950,8040005022854,新規,0,2025-08-19,2025-08-19,共栄サポート協同組合,,その他の設立登記法人,千葉県,千葉市若葉区,東寺山町１０６９番地８－１０１号,,12,104,2640035,,,,,,,2025-08-19,1,,,,,キョウエイサポート,0
1952,8050001056970,新規,0,2025-08-19,2025-08-19,ライジングパールグループ株式会社,,株式会社,茨城県,取手市,東３丁目４番１５号,,08,217,3020005,,,,,,,2025-08-19,1,,,,,ライジングパールグループ,0
1953,8050001057102,新規,0,2025-08-19,2025-08-19,株式会社奉,,株式会社,茨城県,古河市,東牛谷３４０番地２,,08,204,3060232,,,,,,,2025-08-19,1,,,,,ササゲル,0
1967,8070005010419,新規,0,2025-08-19,2025-08-19,一般社団法人ぐんま車いすスポーツ,,その他の設立登記法人,群馬県,太田市,大原町２３４０番地１,,10,205,3792304,,,,,,,2025-08-19,1,,,,,グンマクルマイススポーツ,0
1970,8080003003530,新規,0,2025-08-19,2025-08-19,合同会社ヤマトツーリスト,,合同会社,静岡県,藤枝市,茶町２丁目１５－７,,22,214,4260023,,,,,,,2025-08-19,1,,,,,ヤマトツーリスト,0
1980,8090005007727,新規,0,2025-08-19,2025-08-19,一般社団法人やまなしライフプランＬａｂ,,その他の設立登記法人,山梨県,甲府市,丸の内２丁目２番１号,,19,201,4000031,,,,,,,2025-08-19,1,,,,,ヤマナシライフプランラボ,0
1990,8120001278707,新規,0,2025-08-19,2025-08-19,Ｏｍｏｔｅｎａｓｈｉ　Ｉｎｔｅｒｎａｔｉｏｎａｌ株式会社,,株式会社,大阪府,大阪市西淀川区,竹島３丁目１３番１号,,27,113,5550011,,,,,,,2025-08-19,1,,,,,オモテナシインターナショナル,0
1991,8120001278806,新規,0,2025-08-19,2025-08-19,株式会社ヤマトロックサービス,,株式会社,大阪府,大阪市北区,梅田１丁目２番２号大阪駅前第２ビル１２－１２,,27,127,5300001,,,,,,,2025-08-19,1,,,,,ヤマトロックサービス,0
1992,8120001278839,新規,0,2025-08-19,2025-08-19,千代宝石株式会社,,株式会社,大阪府,大阪市中央区,平野町１丁目８番１３号平野町八千代ビル３階,,27,128,5410046,,,,,,,2025-08-19,1,,,,,チヨホウセキ,0
1993,8120001278896,新規,0,2025-08-19,2025-08-19,志成株式会社,,株式会社,大阪府,大阪市中央区,南船場１丁目３番１４号ストークビル南船場７０９室,,27,128,5420081,,,,,,,2025-08-19,1,,,,,シセイ,0
1998,8120003030280,新規,0,2025-08-19,2025-08-19,ＬＯＶＥＮＥＳＳ合同会社,,合同会社,大阪府,大阪市北区,梅田１丁目１－３大阪駅前第３ビル２９階１－１－１号室,,27,127,5300001,,,,,,,2025-08-19,1,,,,,ラブネス,0
1999,8120003030289,新規,0,2025-08-19,2025-08-19,合同会社ホーリーマーケット,,合同会社,大阪府,大阪市城東区,今福東１丁目１３番２２－１３０３号,,27,118,5360002,,,,,,,2025-08-19,1,,,,,ホーリーマーケット,0
2002,8120101072290,新規,0,2025-08-19,2025-08-19,はなまるアップ株式会社,,株式会社,大阪府,阪南市,箱の浦５０番地の１４,,27,232,5990235,,,,,,,2025-08-19,1,,,,,ハナマルアップ,0
2003,8120901051320,新規,0,2025-08-19,2025-08-19,株式会社ＴＳＵＢＡＳＡ,,株式会社,大阪府,吹田市,江坂町１丁目２３番１９号米澤ビル第五江坂７０５号室,,27,205,5640063,,,,,,,2025-08-19,1,,,,,ツバサ,0
2008,8130001080376,新規,0,2025-08-19,2025-08-19,Ｊｔｔ関西株式会社,,株式会社,京都府,八幡市,男山長沢１３番地１４,,26,210,6148367,,,,,,,2025-08-19,1,,,,,ジェイティーティーカンサイ,0
2009,8130001080392,新規,0,2025-08-19,2025-08-19,株式会社ＫＩＭＯＮＯＶＡ,,株式会社,京都府,京都市下京区,小稲荷町８５－２Ｇｒａｎｄ－Ｋ京都駅前ビル２０１,,26,106,6008208,,,,,,,2025-08-19,1,,,,,キモノヴァ,0
2021,8140001139675,新規,0,2025-08-19,2025-08-19,株式会社ＬｕＭｅｔｉｓｓ,,株式会社,兵庫県,宝塚市,野上１丁目１－８,,28,214,6650022,,,,,,,2025-08-19,1,,,,,ルメティス,0
2022,8140001139683,新規,0,2025-08-19,2025-08-19,株式会社Ｇセキュリティ,,株式会社,兵庫県,姫路市,青山西３丁目１１番２７号,,28,201,6712224,,,,,,,2025-08-19,1,,,,,ジーセキュリティ,0
2023,8140001139709,新規,0,2025-08-19,2025-08-19,株式会社ルームディー,,株式会社,兵庫県,神戸市垂水区,本多聞２丁目７番２２号,,28,108,6550006,,,,,,,2025-08-19,1,,,,,ルームディー,0
2024,8140001139717,新規,0,2025-08-19,2025-08-19,株式会社ＭＪ　Ｐｌａｎｎｉｎｇ,,株式会社,兵庫県,川西市,花屋敷１丁目３１－２５－８,,28,217,6660035,,,,,,,2025-08-19,1,,,,,エムジェイプランニング,0
2027,8140003022458,新規,0,2025-08-19,2025-08-19,ｅｍｕ‐ＬＡＢＯ合同会社,,合同会社,兵庫県,加古郡稲美町,六分一１１８６－４７,,28,381,6751112,,,,,,,2025-08-19,1,,,,,イーエムーユーラボ,0
2029,8140005027595,新規,0,2025-08-19,2025-08-19,ＮＰＯ法人丹生山田の農地を守る会,,その他の設立登記法人,兵庫県,神戸市北区,山田町原野字大滝口７番地の１,,28,109,6511252,,,,,,,2025-08-19,1,,,,,タンジョウヤマダノノウチヲマモルカイ,0
2032,8160005011432,新規,0,2025-08-19,2025-08-19,一般社団法人すまいる広場,,その他の設立登記法人,滋賀県,草津市,南草津５丁目７番地１,,25,206,5250050,,,,,,,2025-08-19,1,,,,,スマイルヒロバ,0
2042,8180001168183,新規,0,2025-08-19,2025-08-19,株式会社ＫＢＣ,,株式会社,愛知県,名古屋市中区,栄２丁目２番１号,,23,106,4600008,,,,,,,2025-08-19,1,,,,,ケービーシー,0
2043,8180001168191,新規,0,2025-08-19,2025-08-19,株式会社ＶＥＬＱＡ,,株式会社,愛知県,春日井市,熊野町１６８４番地,,23,206,4860822,,,,,,,2025-08-19,1,,,,,ヴェルカ,0
2044,8180001168200,新規,0,2025-08-19,2025-08-19,株式会社シェリー,,株式会社,愛知県,長久手市,中池３４番地１,,23,238,4801108,,,,,,,2025-08-19,1,,,,,シェリー,0
2045,8180001168209,新規,0,2025-08-19,2025-08-19,ケーアクシア株式会社,,株式会社,愛知県,北名古屋市,法成寺法師堂１１３番,,23,234,4810039,,,,,,,2025-08-19,1,,,,,ケーアクシア,0
2046,8180001168217,新規,0,2025-08-19,2025-08-19,株式会社ＴＳＦ,,株式会社,愛知県,名古屋市昭和区,福江２丁目９番３３号,,23,107,4660059,,,,,,,2025-08-19,1,,,,,ティーエスエフ,0
2048,8180003028864,新規,0,2025-08-19,2025-08-19,プロモートプラス合同会社,,合同会社,愛知県,名古屋市中区,新栄２丁目３７番９号（ザ・シンフォニア新栄７０４号）,,23,106,4600007,,,,,,,2025-08-19,1,,,,,プロモートプラス,0
2049,8180003028880,新規,0,2025-08-19,2025-08-19,合同会社ルヌーヴォー,,合同会社,愛知県,春日井市,松新町３丁目２１番地,,23,206,4860931,,,,,,,2025-08-19,1,,,,,ルヌーヴォー,0
2062,8220003004101,新規,0,2025-08-19,2025-08-19,コードネク合同会社,,合同会社,石川県,小松市,八里台３０番地５,,17,203,9230056,,,,,,,2025-08-19,1,,,,,コードネク,0
2076,8290001111009,新規,0,2025-08-19,2025-08-19,株式会社ルミライト,,株式会社,福岡県,福岡市博多区,住吉２丁目１５番１０号,,40,132,8120018,,,,,,,2025-08-19,1,,,,,ルミライト,0
2077,8290001111090,新規,0,2025-08-19,2025-08-19,株式会社カガヤク薬剤師,,株式会社,福岡県,福岡市中央区,地行１丁目６番２号ｗｉｌｌＤｏ唐人町７０１,,40,133,8100064,,,,,,,2025-08-19,1,,,,,カガヤクヤクザイシ,0
2078,8290001111099,新規,0,2025-08-19,2025-08-19,株式会社寿創,,株式会社,福岡県,福岡市早良区,室見３丁目４番２４号,,40,137,8140015,,,,,,,2025-08-19,1,,,,,ジュソウ,0
2079,8290001111108,新規,0,2025-08-19,2025-08-19,株式会社ＵＦパートナーズ博多,,株式会社,福岡県,福岡市中央区,春吉３丁目２３番２７号,,40,133,8100003,,,,,,,2025-08-19,1,,,,,ユーエフパートナーズハカタ,0
2080,8290001111116,新規,0,2025-08-19,2025-08-19,株式会社Ｙｏｋｏｌｏｇｉ,,株式会社,福岡県,糸島市,志摩桜井４２６３,,40,230,8191304,,,,,,,2025-08-19,1,,,,,ヨコロジ,0
2081,8290001111165,新規,0,2025-08-19,2025-08-19,株式会社月徳,,株式会社,福岡県,福岡市博多区,博多駅中央街５－１１,,40,132,8120012,,,,,,,2025-08-19,1,,,,,ツキトク,0
2085,8290003017195,新規,0,2025-08-19,2025-08-19,合同会社ＢｉａｎｃｏＲｏｏｍ,,合同会社,福岡県,小郡市,三沢６２番地３こうらハイツ１０３号室,,40,216,8380106,,,,,,,2025-08-19,1,,,,,ビアンコルーム,0
2086,8290003017245,新規,0,2025-08-19,2025-08-19,ＺＥＲＯ　ＩＮＦＩＮＩＴＹ合同会社,,合同会社,福岡県,久留米市,大善寺南１丁目４－１６,,40,203,8300070,,,,,,,2025-08-19,1,,,,,ゼロインフィニティ,0
2087,8290003017253,新規,0,2025-08-19,2025-08-19,シャン＆ミューモン合同会社,,合同会社,福岡県,福岡市南区,柏原５丁目２番３８号,,40,134,8111353,,,,,,,2025-08-19,1,,,,,シャンアンドミューモン,0
2098,8360001035662,新規,0,2025-08-19,2025-08-19,株式会社ひだまり,,株式会社,沖縄県,那覇市,松川１丁目５番２１号コーポカトレア３－Ａ,,47,201,9020062,,,,,,,2025-08-19,1,,,,,ヒダマリ,0
2113,8440003001704,新規,0,2025-08-19,2025-08-19,合同会社ＳＡ　Ｗｏｒｋｓ,,合同会社,北海道,函館市,本町１８番２０－Ａ１０２号,,01,202,0400011,,,,,,,2025-08-19,1,,,,,エスエーワークス,0
2125,9010001257828,新規,0,2025-08-19,2025-08-19,株式会社Ｇｒｉｚｚｌａｒｉｔｙ,,株式会社,東京都,千代田区,神田和泉町１番地６－１６ヤマトビル４０５,,13,101,1010024,,,,,,,2025-08-19,1,,,,,グリズラリティ,0
2126,9010001257860,新規,0,2025-08-19,2025-08-19,株式会社Ｅｎｄｌｅｓｓ　Ｓｈｉｎｅ,,株式会社,東京都,中央区,銀座１丁目１２番４号Ｎ＆ＥＢＬＤ．６Ｆ,,13,102,1040061,,,,,,,2025-08-19,1,,,,,エンドレスシャイン,0
2131,9010003048374,新規,0,2025-08-19,2025-08-19,Ｍｉｒ‐ＡＩ合同会社,,合同会社,東京都,中央区,銀座１丁目１２番４号Ｎ＆ＥＢＬＤ．６Ｆ,,13,102,1040061,,,,,,,2025-08-19,1,,,,,ミルアイ,0
2132,9010003048457,新規,0,2025-08-19,2025-08-19,Ｓｐｒｉｎｔ　Ａｓｓｅｔ２ＧＫ合同会社１,,合同会社,東京都,千代田区,霞が関３丁目２番５号,,13,101,1000013,,,,,,,2025-08-19,1,,,,,スプリントアセットツージーケーワン,0
2148,9010401192369,新規,0,2025-08-19,2025-08-19,結乃社株式会社,,株式会社,東京都,港区,赤坂３丁目１３－３赤坂セントラルビル６Ｆ,,13,103,1070052,,,,,,,2025-08-19,1,,,,,ユイノヤシロ,0
2149,9010401192468,新規,0,2025-08-19,2025-08-19,株式会社祝言日和,,株式会社,東京都,港区,赤坂２丁目４－１白亜ビルＢ１Ｆ,,13,103,1070052,,,,,,,2025-08-19,1,,,,,シュウゲンビヨリ,0
2153,9010503007953,新規,0,2025-08-19,2025-08-19,合同会社Ｏｌｌｅｇｅｎｔ,,合同会社,東京都,台東区,東上野３丁目３７－５サニーコートアベ２０２,,13,106,1100015,,,,,,,2025-08-19,1,,,,,オルゲント,0
2154,9010601067800,新規,0,2025-08-19,2025-08-19,橙日株式会社,,株式会社,東京都,江東区,東砂７丁目１０番３－１３３０号,,13,108,1360074,,,,,,,2025-08-19,1,,,,,トウカ,0
2156,9010901057939,新規,0,2025-08-19,2025-08-19,株式会社ＭＳＧＢアセットマネジメント,,株式会社,東京都,世田谷区,北沢１丁目４５番３６号,,13,112,1550031,,,,,,,2025-08-19,1,,,,,エムエスジービーアセットマネジメント,0
2164,9011001171399,新規,0,2025-08-19,2025-08-19,株式会社デイエンドナイト,,株式会社,東京都,目黒区,平一丁目１番１７号ガーデンヒルズ柿ノ木坂７０１,,13,110,1520000,,,,,,,2025-08-19,1,,,,,デイエンドナイト,0
2165,9011001171960,新規,0,2025-08-19,2025-08-19,株式会社Ｒｅｆａｉｒ,,株式会社,東京都,渋谷区,広尾１丁目２番地１号ヒカリビル４階,,13,113,1500012,,,,,,,2025-08-19,1,,,,,リフェア,0
2166,9011001171985,新規,0,2025-08-19,2025-08-19,株式会社ＰＡＮＩＣ　ＳＰＯＯＮ,,株式会社,東京都,渋谷区,道玄坂１丁目１０番８号渋谷道玄坂東急ビル２Ｆ－Ｃ,,13,113,1500043,,,,,,,2025-08-19,1,,,,,パニックスプーン,0
2171,9011003022187,新規,0,2025-08-19,2025-08-19,ＵＳ　Ｗｅａｌｔｈ　Ｐａｒｔｎｅｒｓ合同会社,,合同会社,東京都,渋谷区,桜丘町１番４号ＳＨＩＢＵＹＡタワー７階,,13,113,1500031,,,,,,,2025-08-19,1,,,,,ユーエスウェルスパートナーズ,0
2173,9011101112559,新規,0,2025-08-19,2025-08-19,博遠株式会社,,株式会社,東京都,新宿区,富久町３２－３東新富久町ビル３０８号室,,13,104,1620067,,,,,,,2025-08-19,1,,,,,ハクエン,0
2174,9011101112658,新規,0,2025-08-19,2025-08-19,株式会社Ｆｏｕｒ　ｙｏｕ,,株式会社,東京都,新宿区,西新宿５丁目８－２惠徳ビル５Ｆ,,13,104,1600023,,,,,,,2025-08-19,1,,,,,フォーユー,0
2177,9011201026568,新規,0,2025-08-19,2025-08-19,株式会社惡ＡＣＴ,,株式会社,東京都,中野区,中野５丁目６７番７号プラザ中野８０１,,13,114,1640001,,,,,,,2025-08-19,1,,,,,アクエーシーティー,0
2178,9011203004794,新規,0,2025-08-19,2025-08-19,技易合同会社,,合同会社,東京都,中野区,沼袋４丁目３１－１５ライオンズマンション３０４号,,13,114,1650025,,,,,,,2025-08-19,1,,,,,ワザエイキ,0
2180,9011301030800,新規,0,2025-08-19,2025-08-19,エイブルエイト株式会社,,株式会社,東京都,杉並区,井草３丁目７番７号メゾンブランシュ２０１,,13,115,1670021,,,,,,,2025-08-19,1,,,,,エイブルエイト,0
2187,9011401027317,新規,0,2025-08-19,2025-08-19,株式会社サムズアップ,,株式会社,東京都,板橋区,幸町１－５,,13,119,1730034,,,,,,,2025-08-19,1,,,,,サムズアップ,0
2191,9011503006648,新規,0,2025-08-19,2025-08-19,合同会社ＫＨ．ＬｅａＬｅａ,,合同会社,東京都,荒川区,東尾久１丁目８番１２号,,13,118,1160012,,,,,,,2025-08-19,1,,,,,ケーエイチレアレア,0
2195,9011801046619,新規,0,2025-08-19,2025-08-19,悠和株式会社,,株式会社,東京都,葛飾区,亀有２丁目６７番１１号エルスタンザ亀有５１０号室,,13,122,1250061,,,,,,,2025-08-19,1,,,,,ユウワ,0
2201,9012401043469,新規,0,2025-08-19,2025-08-19,株式会社みんみんコイン,,株式会社,東京都,調布市,多摩川７丁目３４－１０ハイツＫ・Ｋ２０３号室,,13,208,1820025,,,,,,,2025-08-19,1,,,,,ミンミンコイン,0
2204,9012703003344,新規,0,2025-08-19,2025-08-19,合同会社エムアンド,,合同会社,東京都,清瀬市,中里４丁目８３５番地８,,13,221,2040003,,,,,,,2025-08-19,1,,,,,エムアンド,0
2211,9020001164305,新規,0,2025-08-19,2025-08-19,株式会社Ａｅｒｙ,,株式会社,神奈川県,横浜市中区,寺久保５０番地４６,,14,104,2310855,,,,,,,2025-08-19,1,,,,,エアリー,0
2212,9020001164354,新規,0,2025-08-19,2025-08-19,株式会社Ｒｉｇｈｔｓｔｅｐ,,株式会社,神奈川県,横浜市港北区,日吉５丁目２１番２０号ラヴィータ青山１０１,,14,109,2230061,,,,,,,2025-08-19,1,,,,,ライトステップ,0
2213,9020001164387,新規,0,2025-08-19,2025-08-19,株式会社ａｒｉｎｏｖａ,,株式会社,神奈川県,横浜市青葉区,美しが丘４丁目２１番地１４,,14,117,2250002,,,,,,,2025-08-19,1,,,,,アリノバ,0
2214,9020001164429,新規,0,2025-08-19,2025-08-19,株式会社ＯＬＤ　ＦＩＲＭ　ＹＯＳＨＩＮＯ,,株式会社,神奈川県,横浜市都筑区,大棚町６３７番地,,14,118,2240027,,,,,,,2025-08-19,1,,,,,オールドファームヨシノ,0
2215,9020001164437,新規,0,2025-08-19,2025-08-19,株式会社インフルリンク,,株式会社,神奈川県,横浜市港北区,大豆戸町４２０番地４,,14,109,2220032,,,,,,,2025-08-19,1,,,,,インフルリンク,0
2217,9020003029150,新規,0,2025-08-19,2025-08-19,ＥＣＨＯＥＳ合同会社,,合同会社,神奈川県,横浜市瀬谷区,相沢６丁目９番地１３,,14,114,2460013,,,,,,,2025-08-19,1,,,,,エコーズ,0
2218,9020003029167,新規,0,2025-08-19,2025-08-19,合同会社ににに,,合同会社,神奈川県,川崎市宮前区,神木本町２丁目１３番４号カサグランデ神木１０１,,14,136,2160031,,,,,,,2025-08-19,1,,,,,ニニニ,0
2219,9021001086051,新規,0,2025-08-19,2025-08-19,株式会社ｆｌａｔｃｒｅｗ,,株式会社,神奈川県,藤沢市,湘南台２丁目１０番５号アンドウビル４階２９号室,,14,205,2520804,,,,,,,2025-08-19,1,,,,,フラットクルー,0
2222,9030001168239,新規,0,2025-08-19,2025-08-19,株式会社ネクセリティ,,株式会社,埼玉県,さいたま市緑区,大字三室１８２９番地７,,11,109,3360911,,,,,,,2025-08-19,1,,,,,ネクセリティ,0
2230,9030005022235,新規,0,2025-08-19,2025-08-19,社会保険労務士法人タスクフォース,,その他の設立登記法人,埼玉県,所沢市,大字山口５２７４番地２－１,,11,208,3591145,,,,,,,2025-08-19,1,,,,,タスクフォース,0
2243,9050001057092,新規,0,2025-08-19,2025-08-19,えーむ株式会社,,株式会社,茨城県,鉾田市,上沢１３６０番地１,,08,234,3112111,,,,,,,2025-08-19,1,,,,,エーム,0
2244,9050001057101,新規,0,2025-08-19,2025-08-19,株式会社白土ホールディングス,,株式会社,茨城県,日立市,多賀町５丁目８番１３号,,08,202,3160003,,,,,,,2025-08-19,1,,,,,シラトホールディングス,0
2259,9070003006054,新規,0,2025-08-19,2025-08-19,Ｃｏ．ＳＵＮ合同会社,,合同会社,群馬県,前橋市,富士見町赤城山２番地２４,,10,201,3710101,,,,,,,2025-08-19,1,,,,,,0
2269,9080401028112,新規,0,2025-08-19,2025-08-19,株式会社リンクス,,株式会社,静岡県,浜松市中央区,篠原町３７６４番地４号,,22,138,4310201,,,,,,,2025-08-19,1,,,,,リンクス,0
2274,9110001039514,新規,0,2025-08-19,2025-08-19,株式会社ＲＥＡＲＩＮ,,株式会社,新潟県,南魚沼市,吉里４０７番地,,15,226,9496402,,,,,,,2025-08-19,1,,,,,レアリン,0
2283,9120001278598,新規,0,2025-08-19,2025-08-19,株式会社みらいプラス,,株式会社,大阪府,大阪市北区,鶴野町４－１１,,27,127,5300014,,,,,,,2025-08-19,1,,,,,ミライプラス,0
2284,9120001278788,新規,0,2025-08-19,2025-08-19,ＲＩＮＲＩＮＲＵ株式会社,,株式会社,大阪府,大阪市東成区,大今里３丁目１５番６号ＩｍａｚａｔｏＴｏｗｅｒ５０５Ａ,,27,115,5370012,,,,,,,2025-08-19,1,,,,,リンリンル,0
2285,9120001278813,新規,0,2025-08-19,2025-08-19,銘東投資マネジメント株式会社,,株式会社,大阪府,大阪市西区,本田４丁目１番７号,,27,106,5500022,,,,,,,2025-08-19,1,,,,,メイトウトウシマネジメント,0
2286,9120001278904,新規,0,2025-08-19,2025-08-19,株式会社Ｓ・Ｆ・Ｓ,,株式会社,大阪府,大阪市港区,三先１丁目１２番９号２１０号室,,27,107,5520016,,,,,,,2025-08-19,1,,,,,エスエフエス,0
2290,9120003030255,新規,0,2025-08-19,2025-08-19,合同会社ｍｏｃｃｈｉ,,合同会社,大阪府,大阪市平野区,長吉長原１丁目６－３３,,27,126,5470016,,,,,,,2025-08-19,1,,,,,モッチ,0
2291,9120003030338,新規,0,2025-08-19,2025-08-19,合同会社Ｒａｐｐｏｒｔ,,合同会社,大阪府,門真市,上野口町１７番３号,,27,223,5710070,,,,,,,2025-08-19,1,,,,,ラポール,0
2292,9120003030362,新規,0,2025-08-19,2025-08-19,合同会社ＩＮＮＩＴ,,合同会社,大阪府,大阪市北区,梅田１丁目２番２号大阪駅前第２ビル１２－１２,,27,127,5300001,,,,,,,2025-08-19,1,,,,,イニッ,0
2301,9130001080350,新規,0,2025-08-19,2025-08-19,株式会社みやこの学校給食サービス,,株式会社,京都府,京都市南区,東九条南河原町３－８,,26,107,6018013,,,,,,,2025-08-19,1,,,,,ミヤコノガッコウキュウショクサービス,0
2304,9130005017431,新規,0,2025-08-19,2025-08-19,一般社団法人Ｏｃｅａｎ　Ｆｏｒｅｓｔ　Ｐｒｏｊｅｃｔ,,その他の設立登記法人,京都府,京都市東山区,下河原通八坂鳥居前下る下河原町４５９番地,,26,105,6050825,,,,,,,2025-08-19,1,,,,,オーシャンフォレストプロジェクト,0
2307,9140001139674,新規,0,2025-08-19,2025-08-19,株式会社ＳＯＲＡＥ,,株式会社,兵庫県,尼崎市,開明町１丁目５２番地の２１第２ヨシダビル３階,,28,202,6600862,,,,,,,2025-08-19,1,,,,,ソラエ,0
2308,9140001139682,新規,0,2025-08-19,2025-08-19,龍宝株式会社,,株式会社,兵庫県,神戸市西区,玉津町高津橋８２番地の４イーストブルー八番館１０４号,,28,111,6512122,,,,,,,2025-08-19,1,,,,,リュウホウ,0
2309,9140001139708,新規,0,2025-08-19,2025-08-19,神戸八栄株式会社,,株式会社,兵庫県,神戸市長田区,松野通３丁目２番３８－２０９号,,28,106,6530841,,,,,,,2025-08-19,1,,,,,コウベヤサカ,0
2310,9140001139716,新規,0,2025-08-19,2025-08-19,株式会社ＨＲＳ,,株式会社,兵庫県,川西市,多田桜木２丁目１番２９号,,28,217,6660124,,,,,,,2025-08-19,1,,,,,エイチアールエス,0
2321,9180001168224,新規,0,2025-08-19,2025-08-19,ニューブリッジＳＭＫ株式会社,,株式会社,愛知県,一宮市,浜町５丁目１７番地ＴＫＩＣＨＩＮＯＭＩＹＡＢＬＤ．４階４Ａ号室,,23,203,4910034,,,,,,,2025-08-19,1,,,,,ニューブリッジエスエムケー,0
2324,9180003028863,新規,0,2025-08-19,2025-08-19,Ｓａｌｅｓｌｙ合同会社,,合同会社,愛知県,名古屋市千種区,松軒２丁目８番２３号（Ｌｏｆｔ４千種２０６号）,,23,101,4640084,,,,,,,2025-08-19,1,,,,,セールスリー,0
2325,9180003028888,新規,0,2025-08-19,2025-08-19,合同会社Ｃｒａｃｅ,,合同会社,愛知県,名古屋市港区,正徳町２丁目７９,,23,111,4550075,,,,,,,2025-08-19,1,,,,,クレイス,0
2331,9200001044158,新規,0,2025-08-19,2025-08-19,株式会社ＯＴＯＭＵＳＵＢＩ,,株式会社,岐阜県,恵那市,大井町１９６１番地１７,,21,210,5097201,,,,,,,2025-08-19,1,,,,,オトムスビ,0
2332,9200003006973,新規,0,2025-08-19,2025-08-19,ＤＡＩ　ＶＩＥＴ合同会社,,合同会社,岐阜県,岐阜市,粟野東５丁目６７３番地３エンブレムシャトル１０１号室,,21,201,5020002,,,,,,,2025-08-19,1,,,,,ダイベト,0
2334,9220003004100,新規,0,2025-08-19,2025-08-19,合同会社ＳＴＯＣＫ,,合同会社,石川県,野々市市,住吉町２３－４３－３,,17,212,9218813,,,,,,,2025-08-19,1,,,,,ストック,0
2341,9240003007373,新規,0,2025-08-19,2025-08-19,ワーミー合同会社,,合同会社,広島県,広島市安佐南区,高取南１丁目１９番３０号,,34,105,7310142,,,,,,,2025-08-19,1,,,,,ワーミー,0
2342,9250005009020,新規,0,2025-08-19,2025-08-19,一般社団法人一十,,その他の設立登記法人,山口県,周南市,若宮町２丁目３３番地森田ビル２階北側,,35,215,7450016,,,,,,,2025-08-19,1,,,,,イチジュウ,0
2345,9260001040449,新規,0,2025-08-19,2025-08-19,まにわっと電力株式会社,,株式会社,岡山県,真庭市,中島１４３番地,,33,214,7193202,,,,,,,2025-08-19,1,,,,,マニワットデンリョク,0
2347,9260003005301,新規,0,2025-08-19,2025-08-19,合同会社Ｌｅｌｅａ,,合同会社,岡山県,岡山市南区,福富東１丁目７番５－２号,,33,104,7028033,,,,,,,2025-08-19,1,,,,,レレア,0
2352,9290001111008,新規,0,2025-08-19,2025-08-19,株式会社Ｎｏｗａ,,株式会社,福岡県,福岡市東区,青葉３丁目４５番６－７４号,,40,131,8130025,,,,,,,2025-08-19,1,,,,,ノワ,0
2353,9290001111024,新規,0,2025-08-19,2025-08-19,株式会社クリエイトシステム,,株式会社,福岡県,福岡市博多区,金の隈２丁目２－５,,40,132,8120863,,,,,,,2025-08-19,1,,,,,クリエイトシステム,0
2354,9290001111032,新規,0,2025-08-19,2025-08-19,アークエルエナジー株式会社,,株式会社,福岡県,福岡市中央区,大名２丁目１１番１３号大名偕成ビル７階,,40,133,8100041,,,,,,,2025-08-19,1,,,,,アークエルエナジー,0
2355,9290001111049,新規,0,2025-08-19,2025-08-19,株式会社ＳＡＫＥＭＩホールディングス,,株式会社,福岡県,久留米市,長門石１丁目１１番３号,,40,203,8300027,,,,,,,2025-08-19,1,,,,,サケミホールディングス,0
2356,9290001111057,新規,0,2025-08-19,2025-08-19,ＲＩＳＥ株式会社,,株式会社,福岡県,福岡市博多区,麦野６丁目８番３０第一高丘コーポ１０４号室,,40,132,8120882,,,,,,,2025-08-19,1,,,,,,0
2357,9290001111107,新規,0,2025-08-19,2025-08-19,株式会社Ｓｈｉｎ　Ｇｙｏ,,株式会社,福岡県,福岡市早良区,室住団地６９番２０３号,,40,137,8140035,,,,,,,2025-08-19,1,,,,,シンギョウ,0
2358,9290001111115,新規,0,2025-08-19,2025-08-19,株式会社ＮＥＸＴＯＲＹ,,株式会社,福岡県,福岡市南区,三宅３丁目２１番１１－９０１号,,40,134,8111344,,,,,,,2025-08-19,1,,,,,ネクストリー,0
2360,9290003017244,新規,0,2025-08-19,2025-08-19,合同会社縁,,合同会社,福岡県,福岡市城南区,荒江１丁目２４番１７号丸栄ビル４０１号,,40,136,8140101,,,,,,,2025-08-19,1,,,,,エン,0
2361,9290003017252,新規,0,2025-08-19,2025-08-19,合同会社Ｆａｓｔ　Ｃｌｅａｎ,,合同会社,福岡県,久留米市,諏訪野町１８１４番地５シルクコーポ２０３号,,40,203,8300037,,,,,,,2025-08-19,1,,,,,ファストクリーン,0
2362,9290003017260,新規,0,2025-08-19,2025-08-19,合同会社Ｍｏｒ,,合同会社,福岡県,福岡市南区,弥永５丁目１０番９,,40,134,8111323,,,,,,,2025-08-19,1,,,,,モア,0
2374,9360001035661,新規,0,2025-08-19,2025-08-19,株式会社又商,,株式会社,沖縄県,浦添市,西原４丁目８番１号Ａｘｉｓ１０１号,,47,208,9012101,,,,,,,2025-08-19,1,,,,,マタショウ,0
2389,9430003017989,新規,0,2025-08-19,2025-08-19,合同会社明星,,合同会社,北海道,札幌市厚別区,厚別東三条４丁目４－１９－３０２,,01,108,0040003,,,,,,,2025-08-19,1,,,,,ミョウジョウ,0
