sequenceNumber,corporateNumber,process,correct,updateDate,changeDate,name,nameImageId,kind,prefectureName,cityName,streetNumber,addressImageId,prefectureCode,cityCode,postCode,addressOutside,addressOutsideImageId,closeDate,closeCause,successorCorporateNumber,changeCause,assignmentDate,latest,enName,enPrefectureName,enCityName,enAddressOutside,furigana,hihyoji
7,1010001234462,新規,0,2023-04-14,2023-04-14,日本綜合労務管理ソリューションズ株式会社,,株式会社,東京都,文京区,春日１丁目１１番１３号,,13,105,1120003,,,,,,,2023-04-14,1,,,,,ニホンソウゴウロウムカンリソリューションズ,0
8,1010001234520,新規,0,2023-04-14,2023-04-14,ＬＡＵＧＨＢＡＳＥ株式会社,,株式会社,東京都,文京区,音羽２丁目１番４号,,13,105,1120013,,,,,,,2023-04-14,1,,,,,ラフベース,0
13,1010003040223,新規,0,2023-04-14,2023-04-14,合同会社Ｏｒｌｏｋ,,合同会社,東京都,中央区,銀座１丁目１２番４号Ｎ＆ＥＢＬＤ．６Ｆ,,13,102,1040061,,,,,,,2023-04-14,1,,,,,オルロック,0
14,1010003040297,新規,0,2023-04-14,2023-04-14,金盛商事合同会社,,合同会社,東京都,文京区,大塚３丁目２１－１０－１Ｆ,,13,105,1120012,,,,,,,2023-04-14,1,,,,,カネモリショウジ,0
15,1010003040330,新規,0,2023-04-14,2023-04-14,ワンステップ合同会社,,合同会社,東京都,千代田区,神田鍛冶町３丁目３番地ニュー神田ビル１Ｆ,,13,101,1010045,,,,,,,2023-04-14,1,,,,,ワンステップ,0
16,1010003040355,新規,0,2023-04-14,2023-04-14,ベンチャートラスト合同会社,,合同会社,東京都,中央区,入船１丁目２番５号,,13,102,1040042,,,,,,,2023-04-14,1,,,,,ベンチャートラスト,0
24,1010401173681,新規,0,2023-04-14,2023-04-14,株式会社ＤＥＮ輪,,株式会社,東京都,港区,浜松町２丁目２番１５号浜松町ダイヤビル２階,,13,103,1050013,,,,,,,2023-04-14,1,,,,,デンリン,0
25,1010401173731,新規,0,2023-04-14,2023-04-14,チェプラファーム株式会社,,株式会社,東京都,港区,元麻布３丁目１番６号,,13,103,1060046,,,,,,,2023-04-14,1,,,,,チェプラファーム,0
43,1010601062882,新規,0,2023-04-14,2023-04-14,＿＿辰医療化粧品株式会社,00130110,株式会社,東京都,江東区,東陽５丁目２７－８角一ビル４０１,,13,108,1350016,,,,,,,2023-04-14,1,,,,,キンキンシンイリョウケショウヒン,0
48,1010803004501,新規,0,2023-04-14,2023-04-14,合同会社ＳＣＳＥ,,合同会社,東京都,大田区,中央２丁目１４番２号ミオカステーロ大森２０２号,,13,111,1430024,,,,,,,2023-04-14,1,,,,,エスシーエスイー,0
63,1011001153735,新規,0,2023-04-14,2023-04-14,株式会社Ｓｅｒｖｅｒｃｏｎｓｕｌ,,株式会社,東京都,渋谷区,道玄坂１丁目１０番８号渋谷道玄坂東急ビル２Ｆ－Ｃ,,13,113,1500043,,,,,,,2023-04-14,1,,,,,サーバーコンサル,0
69,1011101102534,新規,0,2023-04-14,2023-04-14,株式会社ＪＧ　Ｃｏｌｏｒｓ,,株式会社,東京都,新宿区,西落合２丁目１９番１６号,,13,104,1610031,,,,,,,2023-04-14,1,,,,,ジェージーカラーズ,0
70,1011201024579,新規,0,2023-04-14,2023-04-14,株式会社ＳＴＡＤＯ,,株式会社,東京都,中野区,江原町１丁目４７番１０号－３０５,,13,114,1650023,,,,,,,2023-04-14,1,,,,,ステード,0
78,1011501029146,新規,0,2023-04-14,2023-04-14,宏川株式会社,,株式会社,東京都,北区,赤羽北１丁目１６番１号リレント赤羽４０２のＡ室,,13,117,1150052,,,,,,,2023-04-14,1,,,,,コウセン,0
79,1011501029162,新規,0,2023-04-14,2023-04-14,株式会社ＡＲＴ,,株式会社,東京都,北区,豊島８丁目２－１８－２０１,,13,117,1140003,,,,,,,2023-04-14,1,,,,,アート,0
81,1011601026729,新規,0,2023-04-14,2023-04-14,株式会社ザイタク,,株式会社,東京都,練馬区,北町５丁目８番２４号,,13,120,1790081,,,,,,,2023-04-14,1,,,,,ザイタク,0
85,1011701026141,新規,0,2023-04-14,2023-04-14,ＴＥＫｉ株式会社,,株式会社,東京都,江戸川区,平井６丁目１４－１２ＪＥビル３０１号室,,13,123,1320035,,,,,,,2023-04-14,1,,,,,テキ,0
95,1012303001813,新規,0,2023-04-14,2023-04-14,合同会社ＦＯＧ　Ｌｉｇｈｔ,,合同会社,東京都,町田市,小山田桜台２丁目９－１１,,13,209,1940204,,,,,,,2023-04-14,1,,,,,フォグライト,0
103,1012803003061,新規,0,2023-04-14,2023-04-14,合同会社ＡＬＭＡ,,合同会社,東京都,立川市,若葉町２丁目１－１,,13,202,1900001,,,,,,,2023-04-14,1,,,,,アルマ,0
108,1013301050570,新規,0,2023-04-14,2023-04-14,株式会社ブートストラップ,,株式会社,東京都,豊島区,東池袋１丁目１７番１１号パークハイツ池袋１１０５号,,13,116,1700013,,,,,,,2023-04-14,1,,,,,ブートストラップ,0
118,1020001151112,新規,0,2023-04-14,2023-04-14,株式会社ＨＭＴ,,株式会社,神奈川県,横浜市栄区,桂台北１１－４,,14,115,2470031,,,,,,,2023-04-14,1,,,,,エイチエムティ,0
124,1020003023697,新規,0,2023-04-14,2023-04-14,アーバンイノベーション合同会社,,合同会社,神奈川県,横浜市中区,仲尾台４５－７,,14,104,2310839,,,,,,,2023-04-14,1,,,,,アーバンイノベーション,0
148,1030005021236,新規,0,2023-04-14,2023-04-14,医療法人社団輝幸会,,その他の設立登記法人,埼玉県,さいたま市浦和区,常盤１丁目１番１４号エトワール浦和９０１,,11,107,3300061,,,,,,,2023-04-14,1,,,,,キコウカイ,0
153,1040001127944,新規,0,2023-04-14,2023-04-14,株式会社空間メソッド企画,,株式会社,千葉県,千葉市美浜区,打瀬１丁目１１番地１,,12,106,2610013,,,,,,,2023-04-14,1,,,,,クウカンメソッドキカク,0
154,1040001127993,新規,0,2023-04-14,2023-04-14,株式会社ＭＣＫ,,株式会社,千葉県,船橋市,市場４丁目３－２,,12,204,2730001,,,,,,,2023-04-14,1,,,,,エムシーケイ,0
158,1050001052687,新規,0,2023-04-14,2023-04-14,一三地所株式会社,,株式会社,茨城県,つくば市,小野崎３０３番地１７,,08,220,3050034,,,,,,,2023-04-14,1,,,,,イチミツジショ,0
164,1060001035872,新規,0,2023-04-14,2023-04-14,ＳＡＩＮＩ　ＣＯＲＰＯＲＡＴＩＯＮ株式会社,,株式会社,栃木県,佐野市,浅沼町１６１番地３,,09,204,3270831,,,,,,,2023-04-14,1,,,,,サイニコーポレーション,0
165,1060001035889,新規,0,2023-04-14,2023-04-14,山司青果流通株式会社,,株式会社,栃木県,下野市,仁良川１５０５番地３－４１街区１５,,09,216,3290432,,,,,,,2023-04-14,1,,,,,ヤマジセイカリュウツウ,0
166,1060003004512,新規,0,2023-04-14,2023-04-14,合同会社ＣＯ‐ＳＡＫＵ,,合同会社,栃木県,宇都宮市,大通り３丁目３番２０号,,09,201,3200811,,,,,,,2023-04-14,1,,,,,コウサク,0
169,1070001040327,新規,0,2023-04-14,2023-04-14,株式会社ベジックス,,株式会社,群馬県,藤岡市,中９８７番地１,,10,209,3750005,,,,,,,2023-04-14,1,,,,,,0
173,1080101023899,新規,0,2023-04-14,2023-04-14,株式会社井口工業,,株式会社,静岡県,富士市,増川７５番地の１,,22,210,4170815,,,,,,,2023-04-14,1,,,,,イグチコウギョウ,0
174,1080103002777,新規,0,2023-04-14,2023-04-14,タカハシ企画合同会社,,合同会社,静岡県,熱海市,泉２０２‐２水明荘１‐３,,22,205,4130001,,,,,,,2023-04-14,1,,,,,タカハシキカク,0
175,1080401026429,新規,0,2023-04-14,2023-04-14,株式会社リアルタライズ,,株式会社,静岡県,浜松市西区,雄踏町宇布見４８６２番地の９,,22,133,4310102,,,,,,,2023-04-14,1,,,,,リアルタライズ,0
180,1090003002298,新規,0,2023-04-14,2023-04-14,合同会社平山興業,,合同会社,山梨県,甲府市,古上条町４７３番地２,,19,201,4000051,,,,,,,2023-04-14,1,,,,,ヒラヤマコウギョウ,0
185,1110001037450,新規,0,2023-04-14,2023-04-14,デザイン・アズウェル株式会社,,株式会社,新潟県,新潟市東区,東明１丁目９番地８,,15,102,9500853,,,,,,,2023-04-14,1,,,,,デザインアズウェル,0
188,1110003005026,新規,0,2023-04-14,2023-04-14,合同会社ｈｏｇｅｈｏｇｅ,,合同会社,新潟県,見附市,本所１丁目２４番５５号,,15,211,9540051,,,,,,,2023-04-14,1,,,,,ホゲホゲ,0
197,1120001253906,新規,0,2023-04-14,2023-04-14,株式会社シーナリーガーデン,,株式会社,大阪府,守口市,寺方本通２丁目７－１２,,27,209,5700048,,,,,,,2023-04-14,1,,,,,シーナリーガーデン,0
198,1120001254020,新規,0,2023-04-14,2023-04-14,株式会社ｏｂｏｖ,,株式会社,大阪府,大阪市浪速区,下寺２丁目６番１３号五十嵐ビル１階,,27,111,5560001,,,,,,,2023-04-14,1,,,,,オビオブ,0
201,1120003023794,新規,0,2023-04-14,2023-04-14,レオンハルト合同会社,,合同会社,大阪府,大阪市住吉区,上住吉１丁目６番３６号,,27,120,5580046,,,,,,,2023-04-14,1,,,,,レオンハルト,0
202,1120003023811,新規,0,2023-04-14,2023-04-14,エムアイ企画合同会社,,合同会社,大阪府,大阪市鶴見区,横堤４丁目２８番１１号１０５,,27,124,5380052,,,,,,,2023-04-14,1,,,,,エムアイキカク,0
203,1120003023828,新規,0,2023-04-14,2023-04-14,ＮＧＵＹＥＮ　ＫＨＯＩ合同会社,,合同会社,大阪府,大阪市西淀川区,柏里２丁目４番３２号,,27,113,5550022,,,,,,,2023-04-14,1,,,,,グエンコイ,0
205,1120005023578,新規,0,2023-04-14,2023-04-14,一般社団法人Ｋｉｍｏｎｏ未来研究所,,その他の設立登記法人,大阪府,大阪市北区,中津３丁目５番１－６０１号,,27,127,5310071,,,,,,,2023-04-14,1,,,,,キモノミライケンキュウショ,0
207,1120101067371,新規,0,2023-04-14,2023-04-14,株式会社友誠不動産,,株式会社,大阪府,堺市西区,浜寺諏訪森町西３丁２３８番地,,27,144,5928347,,,,,,,2023-04-14,1,,,,,ユウセイフドウサン,0
215,1130001074095,新規,0,2023-04-14,2023-04-14,株式会社長谷川食品,,株式会社,京都府,京都市東山区,本町２２丁目５１０番地１,,26,105,6050981,,,,,,,2023-04-14,1,,,,,ハセガワショクヒン,0
220,1140001129757,新規,0,2023-04-14,2023-04-14,株式会社ＭｉＬｕｚ,,株式会社,兵庫県,豊岡市,日高町国分寺１０９番地の１,,28,209,6695341,,,,,,,2023-04-14,1,,,,,ミルス,0
221,1140001129815,新規,0,2023-04-14,2023-04-14,株式会社ムコヤマ・リアルエステート,,株式会社,兵庫県,伊丹市,中央５丁目３番６－６０６号,,28,207,6640851,,,,,,,2023-04-14,1,,,,,ムコヤマリアルエステート,0
224,1140003018982,新規,0,2023-04-14,2023-04-14,ホークアイ合同会社,,合同会社,兵庫県,神戸市須磨区,大手町６丁目１―７,,28,107,6540013,,,,,,,2023-04-14,1,,,,,ホークアイ,0
227,1140005026579,新規,0,2023-04-14,2023-04-14,一般社団法人ｌａｖｉｅマインドセールス,,その他の設立登記法人,兵庫県,神戸市中央区,北野町１丁目１番地,,28,110,6500002,,,,,,,2023-04-14,1,,,,,ラヴィマインドセールス,0
238,1180001155824,新規,0,2023-04-14,2023-04-14,株式会社英,,株式会社,愛知県,名古屋市守山区,大字上志段味字東山８７６番地ヴァンベール東山２０１号,,23,113,4630001,,,,,,,2023-04-14,1,,,,,ハナフサ,0
239,1180001155832,新規,0,2023-04-14,2023-04-14,株式会社ＴＵＧＳ,,株式会社,愛知県,名古屋市名東区,高針原２丁目２０８番地ＮＤＳマンション高針が丘５０２,,23,115,4650073,,,,,,,2023-04-14,1,,,,,タグス,0
240,1180001155840,新規,0,2023-04-14,2023-04-14,ＨＹＰＥＲ　ＳＴＡＲ株式会社,,株式会社,愛知県,小牧市,応時２丁目１８５番地,,23,219,4850832,,,,,,,2023-04-14,1,,,,,ハイパースター,0
244,1180005020181,新規,0,2023-04-14,2023-04-14,行政書士法人ＡＯＢＡ,,その他の設立登記法人,愛知県,名古屋市中区,栄２丁目２番１７号名古屋情報センタービル４階,,23,106,4600008,,,,,,,2023-04-14,1,,,,,アオバ,0
252,1190001030324,新規,0,2023-04-14,2023-04-14,株式会社ｇｅｎｅ　ｇｏｏｄ,,株式会社,三重県,伊勢市,御薗町新開３４９番地,,24,203,5160802,,,,,,,2023-04-14,1,,,,,ジーングッド,0
256,1200001041195,新規,0,2023-04-14,2023-04-14,株式会社ハタナカ,,株式会社,岐阜県,岐阜市,下西郷２丁目１５２番地１１,,21,201,5011175,,,,,,,2023-04-14,1,,,,,ハタナカ,0
259,1210003001626,新規,0,2023-04-14,2023-04-14,合同会社Ｇｏｏｄ,,合同会社,福井県,福井市,和田中１丁目８０７,,18,201,9188236,,,,,,,2023-04-14,1,,,,,グッド,0
260,1220001025361,新規,0,2023-04-14,2023-04-14,北陸エンバーミングサービス株式会社,,株式会社,石川県,金沢市,西泉６丁目８６番地,,17,201,9218043,,,,,,,2023-04-14,1,,,,,ホクリクエンバーミングサービス,0
264,1230001019791,新規,0,2023-04-14,2023-04-14,株式会社ＰＬＡＹ　ＥＡＲＴＨ　ＰＡＲＫ,,株式会社,富山県,小矢部市,清沢２３０番地,,16,209,9320112,,,,,,,2023-04-14,1,,,,,プレイアースパーク,0
269,1240001061371,新規,0,2023-04-14,2023-04-14,株式会社ファインド,,株式会社,広島県,福山市,南蔵王町３丁目１番４０号,,34,207,7210973,,,,,,,2023-04-14,1,,,,,ファインド,0
278,1250005008814,新規,0,2023-04-14,2023-04-14,一般社団法人たまの会,,その他の設立登記法人,山口県,宇部市,恩田町２丁目２３番１７号,,35,202,7550023,,,,,,,2023-04-14,1,,,,,タマノカイ,0
281,1260001037857,新規,0,2023-04-14,2023-04-14,株式会社ＲＥＮＤＥＺ‐ＶＯＵＳ,,株式会社,岡山県,岡山市南区,藤田１４２０番地４,,33,104,7010221,,,,,,,2023-04-14,1,,,,,ランデヴー,0
282,1260001037865,新規,0,2023-04-14,2023-04-14,株式会社エース,,株式会社,岡山県,岡山市南区,妹尾７９６番地１１,,33,104,7010205,,,,,,,2023-04-14,1,,,,,エース,0
299,1290003013787,新規,0,2023-04-14,2023-04-14,ＫＥＮ合同会社,,合同会社,福岡県,福岡市早良区,曙２丁目９－３ポルトス西新１０２,,40,137,8140004,,,,,,,2023-04-14,1,,,,,,0
303,1290801029448,新規,0,2023-04-14,2023-04-14,株式会社プラスＯＮＥ,,株式会社,福岡県,行橋市,大字元永２８０‐７０,,40,213,8240015,,,,,,,2023-04-14,1,,,,,プラスワン,0
304,1290801029464,新規,0,2023-04-14,2023-04-14,株式会社リフード,,株式会社,福岡県,北九州市小倉南区,若園２丁目６番２６号,,40,107,8020816,,,,,,,2023-04-14,1,,,,,リフード,0
305,1290801029472,新規,0,2023-04-14,2023-04-14,株式会社パーク不動産,,株式会社,福岡県,北九州市小倉北区,大畠２丁目９番２号,,40,106,8020026,,,,,,,2023-04-14,1,,,,,パークフドウサン,0
307,1290803004390,新規,0,2023-04-14,2023-04-14,合同会社ベックムキッズ,,合同会社,福岡県,北九州市小倉南区,徳吉西１丁目２番３６号,,40,107,8030278,,,,,,,2023-04-14,1,,,,,ベックムキッズ,0
309,1310001018364,新規,0,2023-04-14,2023-04-14,株式会社ＤＡＩＴＥＣ,,株式会社,長崎県,佐世保市,高梨町１０－２５,,42,202,8570811,,,,,,,2023-04-14,1,,,,,ダイテック,0
311,1320001019691,新規,0,2023-04-14,2023-04-14,株式会社ＲＭ,,株式会社,大分県,中津市,大字田尻７９２番地３,,44,203,8790123,,,,,,,2023-04-14,1,,,,,アールエム,0
317,1330003009806,新規,0,2023-04-14,2023-04-14,合同会社ジーライト,,合同会社,熊本県,熊本市北区,楡木２丁目１０番３１号,,43,105,8618083,,,,,,,2023-04-14,1,,,,,ジーライト,0
319,1340003004104,新規,0,2023-04-14,2023-04-14,合同会社Ｋｕｋｕｎａ,,合同会社,鹿児島県,霧島市,国分中央３丁目３９番４３‐７０２号プランドール,,46,218,8994332,,,,,,,2023-04-14,1,,,,,ククナ,0
320,1340005009588,新規,0,2023-04-14,2023-04-14,一般社団法人デイズ,,その他の設立登記法人,鹿児島県,南九州市,川辺町平山６８１６番地,,46,223,8970215,,,,,,,2023-04-14,1,,,,,デイズ,0
323,1350003004342,新規,0,2023-04-14,2023-04-14,合同会社白い魔法使い,,合同会社,宮崎県,宮崎市,大島町笹原２０１６番地ケントパレス３０２号,,45,201,8800824,,,,,,,2023-04-14,1,,,,,シロイマホウツカイ,0
326,1360001031882,新規,0,2023-04-14,2023-04-14,ＳＤＣ株式会社,,株式会社,沖縄県,豊見城市,字豊崎１番地１１７５ジ・オーシャンテラス豊崎１４１２号室,,47,212,9010225,,,,,,,2023-04-14,1,,,,,エスディーシー,0
328,1360003012889,新規,0,2023-04-14,2023-04-14,ブリューシステムズ合同会社,,合同会社,沖縄県,沖縄市,比屋根３丁目１２－７サンコート３０２,,47,211,9042173,,,,,,,2023-04-14,1,,,,,ブリューシステムズ,0
332,1370003006089,新規,0,2023-04-14,2023-04-14,合同会社Ａｒｃａｎａ,,合同会社,宮城県,仙台市青葉区,堤町２丁目８―４５カーサミア１０３,,04,101,9810912,,,,,,,2023-04-14,1,,,,,アルカナ,0
343,1390001017227,新規,0,2023-04-14,2023-04-14,株式会社ＡＧＵＬＵＴＩＯＮ’Ｓ,,株式会社,山形県,村山市,大字名取１９９０番地,,06,208,9950052,,,,,,,2023-04-14,1,,,,,アグリューションズ,0
353,1420003002702,新規,0,2023-04-14,2023-04-14,合同会社Ｓｃｈｕｚｌｍｉｔｈｅｒ,,合同会社,青森県,十和田市,稲生町１０－３４,,02,206,0340011,,,,,,,2023-04-14,1,,,,,シュツルマイザー,0
356,1430005014694,新規,0,2023-04-14,2023-04-14,一般社団法人クロスティスポーツ,,その他の設立登記法人,北海道,札幌市東区,北三十七条東１５丁目１番１号,,01,103,0070837,,,,,,,2023-04-14,1,,,,,クロスティスポーツ,0
386,2010001234255,新規,0,2023-04-14,2023-04-14,株式会社ＰａｎａＺａｃ,,株式会社,東京都,文京区,音羽１丁目６番１２号ＡｌｐｈａＰｒｉｍｅ文京音羽Ｓｏｕｔｈ１０１,,13,105,1120013,,,,,,,2023-04-14,1,,,,,パナザック,0
387,2010001234511,新規,0,2023-04-14,2023-04-14,株式会社ＮＥＸＴＦＩＥＬＤ,,株式会社,東京都,中央区,日本橋室町１丁目１１番１２号日本橋水野ビル７階,,13,102,1030022,,,,,,,2023-04-14,1,,,,,ネクストフィールド,0
388,2010001234544,新規,0,2023-04-14,2023-04-14,株式会社ビオアス,,株式会社,東京都,中央区,銀座１丁目２２－１１銀座大竹ビジデンス２Ｆ,,13,102,1040061,,,,,,,2023-04-14,1,,,,,ビオアス,0
389,2010001234552,新規,0,2023-04-14,2023-04-14,株式会社サーティースリーデジタル,,株式会社,東京都,千代田区,麹町６丁目６番地２番町麹町ビルディング５Ｆ,,13,101,1020083,,,,,,,2023-04-14,1,,,,,サーティースリーデジタル,0
390,2010001234577,新規,0,2023-04-14,2023-04-14,株式会社ギフトラベル,,株式会社,東京都,中央区,銀座１丁目１２－４Ｎ＆ＥＢＬＤ．７階,,13,102,1040061,,,,,,,2023-04-14,1,,,,,ギフトラベル,0
392,2010003040206,新規,0,2023-04-14,2023-04-14,合同会社みらいリンクス,,合同会社,東京都,中央区,銀座１丁目１２番４号Ｎ＆ＥＢＬＤ．６Ｆ,,13,102,1040061,,,,,,,2023-04-14,1,,,,,ミライリンクス,0
393,2010003040321,新規,0,2023-04-14,2023-04-14,ソーラースペード合同会社,,合同会社,東京都,中央区,八丁堀４丁目２番１０号ＡＯＪ税理士法人内,,13,102,1040032,,,,,,,2023-04-14,1,,,,,ソーラースペード,0
394,2010003040338,新規,0,2023-04-14,2023-04-14,鈴木デザイン企画合同会社,,合同会社,東京都,中央区,日本橋室町１丁目１１番１２号日本橋水野ビル７階,,13,102,1030022,,,,,,,2023-04-14,1,,,,,スズキデザインキカク,0
398,2010005036508,新規,0,2023-04-14,2023-04-14,一般社団法人Ｂｒｉｇｈｔ　Ｒｏｃｋ,,その他の設立登記法人,東京都,千代田区,霞が関３丁目２番５号,,13,101,1000013,,,,,,,2023-04-14,1,,,,,ブライトロック,0
403,2010401173672,新規,0,2023-04-14,2023-04-14,株式会社Ｌａｍｅｉｌｌａ,,株式会社,東京都,港区,南青山５丁目１７番２号,,13,103,1070062,,,,,,,2023-04-14,1,,,,,ラメイラ,0
404,2010401173796,新規,0,2023-04-14,2023-04-14,株式会社ｂｒｉｄｇｅ,,株式会社,東京都,港区,南青山２丁目２番１５号ウィン青山９４２,,13,103,1070062,,,,,,,2023-04-14,1,,,,,ブリッジ,0
409,2010503006953,新規,0,2023-04-14,2023-04-14,合同会社Ｎ３,,合同会社,東京都,台東区,根岸４丁目１－１－７０３,,13,106,1100003,,,,,,,2023-04-14,1,,,,,エヌスリー,0
410,2010601062907,新規,0,2023-04-14,2023-04-14,株式会社トップリンク,,株式会社,東京都,墨田区,菊川３丁目１５番１６号,,13,107,1300024,,,,,,,2023-04-14,1,,,,,トップリンク,0
411,2010801033848,新規,0,2023-04-14,2023-04-14,株式会社ＨＯＦＵ　ＦＵＲＮＩＴＵＲＥ,,株式会社,東京都,大田区,本羽田１丁目２３番１３－９０３号,,13,111,1440044,,,,,,,2023-04-14,1,,,,,ホフファニチャー,0
414,2010903008095,新規,0,2023-04-14,2023-04-14,合同会社ＨＡＣ,,合同会社,東京都,世田谷区,野沢３丁目１９番１８号,,13,112,1540003,,,,,,,2023-04-14,1,,,,,エイチエイシー,0
426,2011001153734,新規,0,2023-04-14,2023-04-14,Ａｎｄｖｏｉｃｅ株式会社,,株式会社,東京都,渋谷区,道玄坂１丁目１６－６二葉ビル８ｂ,,13,113,1500043,,,,,,,2023-04-14,1,,,,,アンドボイス,0
427,2011001153791,新規,0,2023-04-14,2023-04-14,株式会社えんにしパートナーズ,,株式会社,東京都,渋谷区,神南１丁目１２番１４号渋谷宮田ビル８階,,13,113,1500041,,,,,,,2023-04-14,1,,,,,エンニシパートナーズ,0
428,2011001153809,新規,0,2023-04-14,2023-04-14,株式会社Ｇｒｉｔｓ,,株式会社,東京都,目黒区,碑文谷５丁目２番５号,,13,110,1520003,,,,,,,2023-04-14,1,,,,,グリッツ,0
429,2011001153874,新規,0,2023-04-14,2023-04-14,ネクストエンブリオ株式会社,,株式会社,東京都,目黒区,緑が丘１丁目２１番１９－１０１号,,13,110,1520034,,,,,,,2023-04-14,1,,,,,ネクストエンブリオ,0
437,2011103012929,新規,0,2023-04-14,2023-04-14,ＭＡＣ合同会社,,合同会社,東京都,新宿区,歌舞伎町２丁目２５番８号,,13,104,1600021,,,,,,,2023-04-14,1,,,,,マック,0
439,2011201024578,新規,0,2023-04-14,2023-04-14,株式会社エトワール,,株式会社,東京都,中野区,中野４丁目１０番２号中野セントラルパークサウス２階,,13,114,1640001,,,,,,,2023-04-14,1,,,,,エトワール,0
440,2011305002901,新規,0,2023-04-14,2023-04-14,特定非営利活動法人アロハアイナ,,その他の設立登記法人,東京都,杉並区,宮前２丁目１３番９号パーク・コート杉並宮前２０５,,13,115,1680081,,,,,,,2023-04-14,1,,,,,アロハアイナ,0
441,2011501029145,新規,0,2023-04-14,2023-04-14,株式会社Ｒｏｃａ　Ｌｏｃａｌｅ,,株式会社,東京都,北区,王子５丁目１番１－１１２５号,,13,117,1140002,,,,,,,2023-04-14,1,,,,,ロカロケール,0
446,2012401040415,新規,0,2023-04-14,2023-04-14,株式会社Ｍ２Ａｓｓｉｓｔ,,株式会社,東京都,武蔵野市,吉祥寺南町１丁目１８番７号アベーテ吉祥寺１０２号,,13,203,1800003,,,,,,,2023-04-14,1,,,,,エムツーアシスト,0
453,2012801022277,新規,0,2023-04-14,2023-04-14,株式会社ａ＆ｃｏｅｘｉｓｔ,,株式会社,東京都,東大和市,芋窪６丁目１４０４番地の１ＡｉｌｅｄｅＣｏｕｒａｇｅ３０５,,13,220,2070033,,,,,,,2023-04-14,1,,,,,エーアンドコーイグジスト,0
455,2012803003060,新規,0,2023-04-14,2023-04-14,合同会社楽響,,合同会社,東京都,立川市,錦町１丁目４番２０号ＴＳＣビル５階,,13,202,1900022,,,,,,,2023-04-14,1,,,,,ラッキョウ,0
471,2020005015948,新規,0,2023-04-14,2023-04-14,特定非営利活動法人地域とともに歩む会,,その他の設立登記法人,神奈川県,横浜市鶴見区,汐入町２丁目４１－２,,14,101,2300043,,,,,,,2023-04-14,1,,,,,チイキトトモニアユムカイ,0
485,2040001127927,新規,0,2023-04-14,2023-04-14,ヤマネコ企画株式会社,,株式会社,千葉県,船橋市,本郷町６４２番地１Ｌ・Ｍ西船橋シティ４０４号,,12,204,2730033,,,,,,,2023-04-14,1,,,,,ヤマネコキカク,0
488,2040003022358,新規,0,2023-04-14,2023-04-14,合同会社アイソンサービス,,合同会社,千葉県,浦安市,舞浜２丁目３１番９号,,12,227,2790031,,,,,,,2023-04-14,1,,,,,アイソンサービス,0
489,2040003022408,新規,0,2023-04-14,2023-04-14,合同会社ＨＡＫＵＲＯ,,合同会社,千葉県,千葉市中央区,中央３丁目１８番７加瀬ビル１５８－７０１号室,,12,101,2600013,,,,,,,2023-04-14,1,,,,,ハクロウ,0
496,2060001035913,新規,0,2023-04-14,2023-04-14,株式会社大黒住建,,株式会社,栃木県,鹿沼市,口粟野６４５番地１１,,09,205,3220305,,,,,,,2023-04-14,1,,,,,ダイコクジュウケン,0
500,2070001040342,新規,0,2023-04-14,2023-04-14,株式会社木の花園,,株式会社,群馬県,安中市,松井田町五料２２００番地,,10,211,3790302,,,,,,,2023-04-14,1,,,,,,0
506,2080101023915,新規,0,2023-04-14,2023-04-14,株式会社ｔｏｔｏｎｏｅ,,株式会社,静岡県,御殿場市,大坂２６９番地の１３,,22,215,4120034,,,,,,,2023-04-14,1,,,,,トトノエ,0
510,2100001036329,新規,0,2023-04-14,2023-04-14,軽井沢建設株式会社,,株式会社,長野県,北佐久郡軽井沢町,軽井沢東５番地３,,20,321,3890104,,,,,,,2023-04-14,1,,,,,カルイザワケンセツ,0
528,2120001253871,新規,0,2023-04-14,2023-04-14,株式会社まる屋,,株式会社,大阪府,大阪市浪速区,恵美須西２丁目１番１２号,,27,111,5560003,,,,,,,2023-04-14,1,,,,,マルヤ,0
529,2120001253888,新規,0,2023-04-14,2023-04-14,ＤＡＩＴＡＮＮ株式会社,,株式会社,大阪府,大阪市淀川区,西宮原１丁目４番１５号,,27,123,5320004,,,,,,,2023-04-14,1,,,,,ダイタン,0
530,2120001253987,新規,0,2023-04-14,2023-04-14,株式会社ワンズ,,株式会社,大阪府,大阪市東淀川区,豊新２丁目５番３０号,,27,114,5330014,,,,,,,2023-04-14,1,,,,,ワンズ,0
531,2120001254060,新規,0,2023-04-14,2023-04-14,Ｂｌｕｅ　Ｓｅｑｕｏｉａ株式会社,,株式会社,大阪府,大阪市中央区,十二軒町１－１グランプラス谷町２０５号,,27,128,5400015,,,,,,,2023-04-14,1,,,,,ブルーセコイア,0
532,2120001254184,新規,0,2023-04-14,2023-04-14,株式会社Ｐｌａｎ‐Ｋ,,株式会社,大阪府,大阪市北区,堂山町１６番１‐８０２号,,27,127,5300027,,,,,,,2023-04-14,1,,,,,プランケー,0
536,2120003023810,新規,0,2023-04-14,2023-04-14,合同会社ｒｉｃａ　ｂｅｌｌｅｚａ,,合同会社,大阪府,大阪市北区,梅田１丁目９番２０号,,27,127,5300001,,,,,,,2023-04-14,1,,,,,リカベレーザ,0
539,2120101067354,新規,0,2023-04-14,2023-04-14,ＴＴサービス株式会社,,株式会社,大阪府,和泉市,箕形町１丁目６番２３号,,27,219,5940042,,,,,,,2023-04-14,1,,,,,ティーティーサービス,0
540,2120101067379,新規,0,2023-04-14,2023-04-14,八木テクノ株式会社,,株式会社,大阪府,堺市堺区,七道東町１６１－８,,27,141,5900913,,,,,,,2023-04-14,1,,,,,ヤギテクノ,0
541,2120103005171,新規,0,2023-04-14,2023-04-14,合同会社ひまわりプログラミング,,合同会社,大阪府,堺市西区,上野芝町７丁１２番２棟１０７,,27,144,5938301,,,,,,,2023-04-14,1,,,,,ヒマワリプログラミング,0
545,2120901047407,新規,0,2023-04-14,2023-04-14,株式会社池田自動車ガラス,,株式会社,大阪府,豊能郡能勢町,神山５９,,27,322,5630367,,,,,,,2023-04-14,1,,,,,イケダジドウシャガラス,0
546,2120903004587,新規,0,2023-04-14,2023-04-14,合同会社ソワン,,合同会社,大阪府,豊中市,上野東１丁目２３番１１号,,27,203,5600013,,,,,,,2023-04-14,1,,,,,ソワン,0
547,2122003002562,新規,0,2023-04-14,2023-04-14,合同会社Ｃｌｅａｒ　Ｓｔｒｅａｍ,,合同会社,大阪府,大東市,平野屋１丁目４番５号,,27,218,5740022,,,,,,,2023-04-14,1,,,,,クリアストリーム,0
548,2130001074111,新規,0,2023-04-14,2023-04-14,ＴＯＤＥロジスティックス株式会社,,株式会社,京都府,京都市南区,吉祥院這登中町４番地１ハイカムール塔南Ｂ棟２０２号,,26,107,6018353,,,,,,,2023-04-14,1,,,,,トデロジスティックス,0
556,2140001129756,新規,0,2023-04-14,2023-04-14,株式会社高橋管工業,00130104,株式会社,兵庫県,尼崎市,大庄北３丁目５番１号,,28,202,6600063,,,,,,,2023-04-14,1,,,,,タカハシカンコウギョウ,0
557,2140001129789,新規,0,2023-04-14,2023-04-14,株式会社ＴＯＭＭＹ　ＷＯＲＫＥＲ,,株式会社,兵庫県,神戸市須磨区,権現町２丁目６番４号,,28,107,6540031,,,,,,,2023-04-14,1,,,,,トミーワーカー,0
561,2140003018965,新規,0,2023-04-14,2023-04-14,合同会社ひかてかよ,,合同会社,兵庫県,神戸市灘区,記田町３丁目１番２９－６０３号,,28,102,6570034,,,,,,,2023-04-14,1,,,,,ヒカテカヨ,0
576,2180001155781,新規,0,2023-04-14,2023-04-14,株式会社ｍｏｎ３,,株式会社,愛知県,名古屋市中川区,法華２丁目９番地,,23,110,4540933,,,,,,,2023-04-14,1,,,,,モンスリー,0
577,2180001155798,新規,0,2023-04-14,2023-04-14,株式会社ＳＡＮＳＥＩ　ＬＡＢ,,株式会社,愛知県,名古屋市中区,丸の内２丁目１１番１３号,,23,106,4600002,,,,,,,2023-04-14,1,,,,,サンセイラボ,0
578,2180001155815,新規,0,2023-04-14,2023-04-14,Ｔｈａｋｅｓｈｉ　Ｌａｎｋａ株式会社,,株式会社,愛知県,名古屋市中川区,長良町２丁目６０番地の３,,23,110,4540815,,,,,,,2023-04-14,1,,,,,タケシランカ,0
579,2180001155831,新規,0,2023-04-14,2023-04-14,星野川株式会社,,株式会社,愛知県,名古屋市中区,丸の内３丁目７番９号チサンビル１１０５号室,,23,106,4600002,,,,,,,2023-04-14,1,,,,,ホシノガワ,0
580,2180001155848,新規,0,2023-04-14,2023-04-14,エミアス株式会社,,株式会社,愛知県,名古屋市中区,大須１丁目７番５号,,23,106,4600011,,,,,,,2023-04-14,1,,,,,エミアス,0
583,2180003025108,新規,0,2023-04-14,2023-04-14,合同会社ケイコ,,合同会社,愛知県,名古屋市天白区,焼山１丁目１０１番地東山イーストＢ－Ｇ,,23,116,4680002,,,,,,,2023-04-14,1,,,,,ケイコ,0
586,2180301037309,新規,0,2023-04-14,2023-04-14,Ｍａｊｏｒ株式会社,,株式会社,愛知県,碧南市,志貴町４丁目３２番地１,,23,209,4470885,,,,,,,2023-04-14,1,,,,,メジャー,0
598,2220001025360,新規,0,2023-04-14,2023-04-14,ｗｉｌｌ株式会社,,株式会社,石川県,小松市,沖町チ４１番地４,,17,203,9230861,,,,,,,2023-04-14,1,,,,,ウィル,0
601,2230003002002,新規,0,2023-04-14,2023-04-14,合同会社ジャパン・カルチベート・コーポレーション,,合同会社,富山県,射水市,流通センター水戸田２丁目３番１号,,16,211,9390402,,,,,,,2023-04-14,1,,,,,ジャパンカルチベートコーポレーション,0
606,2240001061370,新規,0,2023-04-14,2023-04-14,株式会社Ｂｌｓｔ,,株式会社,広島県,広島市安佐南区,相田３丁目３番１０号,,34,105,7310141,,,,,,,2023-04-14,1,,,,,ブラスト,0
608,2240003006101,新規,0,2023-04-14,2023-04-14,合同会社おしん,,合同会社,広島県,広島市安佐南区,高取北４丁目４１番２６号,,34,105,7310144,,,,,,,2023-04-14,1,,,,,オシン,0
610,2240005015562,新規,0,2023-04-14,2023-04-14,一般社団法人第２０回国際有害有毒藻類学会実行委員会,,その他の設立登記法人,広島県,東広島市,鏡山１丁目４番４号,,34,212,7390046,,,,,,,2023-04-14,1,,,,,ダイニジュッカイコクサイユウガイユウドクソウルイガッカイジッコウイインカイ,0
612,2260001037872,新規,0,2023-04-14,2023-04-14,株式会社ｆｒａｃｔａｌ,,株式会社,岡山県,岡山市北区,高塚５５,,33,101,7011354,,,,,,,2023-04-14,1,,,,,フラクタル,0
614,2260003004276,新規,0,2023-04-14,2023-04-14,Ｇａｎｇ　Ｓｙａｎ合同会社,,合同会社,岡山県,岡山市北区,中山下２丁目４番５３号,,33,101,7000821,,,,,,,2023-04-14,1,,,,,ガンシアン,0
631,2290801029455,新規,0,2023-04-14,2023-04-14,廣産業株式会社,,株式会社,福岡県,北九州市戸畑区,菅原３丁目８番１号,,40,105,8040044,,,,,,,2023-04-14,1,,,,,ヒロサンギョウ,0
632,2290801029463,新規,0,2023-04-14,2023-04-14,株式会社西春,,株式会社,福岡県,北九州市小倉北区,朝日ケ丘９番３号フェルト１０２１　６０３号室,,40,106,8030833,,,,,,,2023-04-14,1,,,,,ニシハル,0
638,2320003004063,新規,0,2023-04-14,2023-04-14,合同会社森櫻,,合同会社,大分県,由布市,湯布院町川北１１１２番地２１,,44,213,8795114,,,,,,,2023-04-14,1,,,,,シンヨウ,0
640,2330001030762,新規,0,2023-04-14,2023-04-14,株式会社松田自動車,,株式会社,熊本県,菊池郡大津町,大字下町３４３番地,,43,403,8691225,,,,,,,2023-04-14,1,,,,,マツダジドウシャ,0
641,2330001030770,新規,0,2023-04-14,2023-04-14,株式会社ＦＵＮＡＭＯＴＯ,,株式会社,熊本県,熊本市中央区,水前寺５丁目２４番２０号フォルテ水前寺７Ｆ,,43,101,8620950,,,,,,,2023-04-14,1,,,,,フナモト,0
645,2340001025506,新規,0,2023-04-14,2023-04-14,リクラス株式会社,,株式会社,鹿児島県,鹿児島市,西陵７丁目１番１号西陵中央ビル２０３,,46,201,8900032,,,,,,,2023-04-14,1,,,,,リクラス,0
647,2350003004341,新規,0,2023-04-14,2023-04-14,合同会社テンセンド,,合同会社,宮崎県,宮崎市,佐土原町上田島１１６１７番地１,,45,201,8800301,,,,,,,2023-04-14,1,,,,,テンセンド,0
653,2360001031840,新規,0,2023-04-14,2023-04-14,ほけんの琉美株式会社,,株式会社,沖縄県,浦添市,字港川３１０番地６（１階）,,47,208,9012134,,,,,,,2023-04-14,1,,,,,ホケンノリュウビ,0
654,2360001031881,新規,0,2023-04-14,2023-04-14,株式会社ＮＩＲＡＩ,,株式会社,沖縄県,豊見城市,字豊見城１０４１番地２７,,47,212,9010241,,,,,,,2023-04-14,1,,,,,ニライ,0
655,2360003012896,新規,0,2023-04-14,2023-04-14,合同会社ウーワン,,合同会社,沖縄県,那覇市,三原３丁目２番１４号,,47,201,9020063,,,,,,,2023-04-14,1,,,,,ウーワン,0
658,2370001049840,新規,0,2023-04-14,2023-04-14,株式会社ＨＯＬＯＭＵＡ,,株式会社,宮城県,亘理郡亘理町,荒浜字築港通り３４－２８,,04,361,9892311,,,,,,,2023-04-14,1,,,,,ホロムア,0
671,2430001088849,新規,0,2023-04-14,2023-04-14,ＦＬパートナーズ株式会社,,株式会社,北海道,札幌市東区,北十九条東１９丁目４－１９,,01,103,0650019,,,,,,,2023-04-14,1,,,,,エフエルパートナーズ,0
672,2430003014927,新規,0,2023-04-14,2023-04-14,合同会社エービック,,合同会社,北海道,札幌市東区,北三十一条東１０丁目３－１４,,01,103,0650031,,,,,,,2023-04-14,1,,,,,エービック,0
674,2460003000949,新規,0,2023-04-14,2023-04-14,合同会社住造,,合同会社,北海道,釧路市,愛国東３丁目１６番２０号,,01,206,0850058,,,,,,,2023-04-14,1,,,,,スムツク,0
677,2462501000950,新規,0,2023-04-14,2023-04-14,株式会社ループライズ別海,,株式会社,北海道,標津郡中標津町,東当幌２４番地２２,,01,692,0861144,,,,,,,2023-04-14,1,,,,,ループライズベッカイ,0
686,2500001024879,新規,0,2023-04-14,2023-04-14,株式会社ＡＩＲＵＳ,,株式会社,愛媛県,今治市,吉海町仁江１０３３－１,,38,202,7942104,,,,,,,2023-04-14,1,,,,,エアラス,0
692,2700150115459,新規,0,2023-04-14,2023-04-14,Ｂａｎｚｅｎ　Ｖｅｈｉｃｌｅ　ｉｎｄｕｓｔｒｙ　ｃｏ．，ｌｔｄ,,外国会社等,,,,,,,,Ｊｉｅｐａｉ　Ｔｏｗｎ，Ｊｉｅｘｉ　Ｉｎｄｕｓｔｒｉａｌ　Ｐａｒｋ　Ｄａｎｙａｎｇ　Ｃｉｔｙ　Ｊｉａｎｇｓｕ　Ｐｒｏｖｉｎｃｅ　２１２３００　ＣＮ,,,,,,2023-04-14,1,,,,,ジャンスーバイジョンチョーリャンシーイエヨウシエンゴンスー,0
701,3010001234502,新規,0,2023-04-14,2023-04-14,株式会社フォルトゥナスペース,,株式会社,東京都,中央区,銀座７丁目１３番２０号銀座ＴＨビル９階,,13,102,1040061,,,,,,,2023-04-14,1,,,,,フォルトゥナスペース,0
702,3010001234527,新規,0,2023-04-14,2023-04-14,株式会社Ａｘｕｓａｎ,,株式会社,東京都,中央区,日本橋２丁目１６番１３号,,13,102,1030027,,,,,,,2023-04-14,1,,,,,アウサン,0
705,3010003040320,新規,0,2023-04-14,2023-04-14,ソーラークローバー合同会社,,合同会社,東京都,中央区,八丁堀４丁目２番１０号ＡＯＪ税理士法人内,,13,102,1040032,,,,,,,2023-04-14,1,,,,,ソーラークローバー,0
706,3010003040329,新規,0,2023-04-14,2023-04-14,合同会社Ｊ＆Ｋプロポーザル,,合同会社,東京都,中央区,日本橋浜町２丁目２６番８号日本橋浜町ダイヤレジデンス３０３,,13,102,1030007,,,,,,,2023-04-14,1,,,,,ジェイアンドケイプロポーザル,0
708,3010005036507,新規,0,2023-04-14,2023-04-14,一般社団法人自分でやる人の相談室,,その他の設立登記法人,東京都,中央区,日本橋兜町１７番２号兜町第６葉山ビル４階,,13,102,1030026,,,,,,,2023-04-14,1,,,,,ジブンデヤルヒトノソウダンシツ,0
715,3010403029921,新規,0,2023-04-14,2023-04-14,豊田加納合同会社,,合同会社,東京都,港区,元赤坂１丁目１番８号株式会社赤坂国際会計内,,13,103,1070051,,,,,,,2023-04-14,1,,,,,トヨタカノウ,0
717,3010501050300,新規,0,2023-04-14,2023-04-14,株式会社レッドクイーン,,株式会社,東京都,台東区,上野３丁目１６番２号,,13,106,1100005,,,,,,,2023-04-14,1,,,,,レッドクイーン,0
718,3010501050309,新規,0,2023-04-14,2023-04-14,株式会社ＳＨＩＭＯＭＵＲＡ健康管理,,株式会社,東京都,台東区,上野３丁目１１番５号,,13,106,1100005,,,,,,,2023-04-14,1,,,,,シモムラケンコウカンリ,0
719,3010503006952,新規,0,2023-04-14,2023-04-14,合同会社ＬＩＦＥ‐ＡＣＴＯ,,合同会社,東京都,台東区,上野５丁目２６番１５号ＧＳＢＬＤ，１,,13,106,1100005,,,,,,,2023-04-14,1,,,,,ライフアクト,0
721,3010601062897,新規,0,2023-04-14,2023-04-14,株式会社ＤＴＢ,,株式会社,東京都,江東区,東陽３丁目５－５－２Ｆ,,13,108,1350016,,,,,,,2023-04-14,1,,,,,ディティビー,0
722,3010601062906,新規,0,2023-04-14,2023-04-14,株式会社フリーダムファーストシステム,,株式会社,東京都,江東区,越中島１丁目３－１２,,13,108,1350044,,,,,,,2023-04-14,1,,,,,フリーダムファーストシステム,0
741,3011001153766,新規,0,2023-04-14,2023-04-14,建築計画株式会社,,株式会社,東京都,渋谷区,代々木１丁目２５番５号,,13,113,1510053,,,,,,,2023-04-14,1,,,,,ケンチクケイカク,0
745,3011003016649,新規,0,2023-04-14,2023-04-14,合同会社戯風亭,,合同会社,東京都,渋谷区,宇田川町１２番３号７０１,,13,113,1500042,,,,,,,2023-04-14,1,,,,,ギフウテイ,0
754,3011101102540,新規,0,2023-04-14,2023-04-14,株式会社ヤネウラゲームス,,株式会社,東京都,新宿区,新宿５丁目２番２３号ドゥルーチェＳ３号室,,13,104,1600022,,,,,,,2023-04-14,1,,,,,ヤネウラゲームス,0
755,3011201024577,新規,0,2023-04-14,2023-04-14,株式会社Ｗａｖｅ,,株式会社,東京都,中野区,中野３丁目４５番７号トータス中野Ｂ棟,,13,114,1640001,,,,,,,2023-04-14,1,,,,,ウェーブ,0
757,3011501029152,新規,0,2023-04-14,2023-04-14,ＭＯ　Ｃａｐｉｔａｌ株式会社,,株式会社,東京都,荒川区,町屋８丁目２１番１３－４０４号,,13,118,1160001,,,,,,,2023-04-14,1,,,,,エムオーキャピタル,0
758,3011503005556,新規,0,2023-04-14,2023-04-14,合同会社みらいビズ,,合同会社,東京都,北区,西が丘１丁目７－１６,,13,117,1150056,,,,,,,2023-04-14,1,,,,,ミライビズ,0
768,3012401040406,新規,0,2023-04-14,2023-04-14,株式会社ＵＭＤテック,,株式会社,東京都,稲城市,東長沼３１０１番地の２クレッセント稲城５０３,,13,225,2060802,,,,,,,2023-04-14,1,,,,,ユーエムディーテック,0
774,3012801022276,新規,0,2023-04-14,2023-04-14,株式会社Ｗｉｎｇｓ,,株式会社,東京都,立川市,高松町２丁目４番１８号,,13,202,1900011,,,,,,,2023-04-14,1,,,,,ウィングス,0
790,3021005012785,新規,0,2023-04-14,2023-04-14,ＮＰＯ法人ぴあっと,,その他の設立登記法人,神奈川県,相模原市緑区,大島３１９７番地５,,14,151,2520135,,,,,,,2023-04-14,1,,,,,ピアット,0
818,3040003022332,新規,0,2023-04-14,2023-04-14,合同会社アメイズフォレスト,,合同会社,千葉県,木更津市,東中央２丁目１１番１号タク店舗Ｋ号室,,12,206,2920057,,,,,,,2023-04-14,1,,,,,アメイズフォレスト,0
819,3040003022398,新規,0,2023-04-14,2023-04-14,合同会社Ｐｒｉｍｏ．ｋ,,合同会社,千葉県,佐倉市,鏑木仲田町２－６ドルチェカブラギＣ棟１０２,,12,212,2850026,,,,,,,2023-04-14,1,,,,,プリモドットケー,0
820,3040003022415,新規,0,2023-04-14,2023-04-14,合同会社ファーストラック,,合同会社,千葉県,千葉市中央区,富士見２丁目７番９号富士見ビル６０９号,,12,101,2600015,,,,,,,2023-04-14,1,,,,,ファーストラック,0
825,3060001035879,新規,0,2023-04-14,2023-04-14,稲沢建設株式会社,,株式会社,栃木県,那須郡那須町,大字稲沢５１３番地,,09,407,3293447,,,,,,,2023-04-14,1,,,,,イナザワケンセツ,0
826,3060001035904,新規,0,2023-04-14,2023-04-14,株式会社矢部工業,,株式会社,栃木県,栃木市,岩舟町静和８８３番地１,,09,203,3294304,,,,,,,2023-04-14,1,,,,,ヤベコウギョウ,0
830,3070001040333,新規,0,2023-04-14,2023-04-14,ＧＡＴＯ株式会社,,株式会社,群馬県,高崎市,白銀町９番地白銀ビル３階,,10,202,3700825,,,,,,,2023-04-14,1,,,,,ガト,0
831,3070001040341,新規,0,2023-04-14,2023-04-14,株式会社ＡＲＡＩ,,株式会社,群馬県,伊勢崎市,西久保町２丁目２４５番地２９,,10,204,3792204,,,,,,,2023-04-14,1,,,,,アライ,0
832,3070003004906,新規,0,2023-04-14,2023-04-14,合同会社ひのきや,,合同会社,群馬県,藤岡市,岡之郷１３４５番地１,,10,209,3750011,,,,,,,2023-04-14,1,,,,,,0
838,3080401026435,新規,0,2023-04-14,2023-04-14,株式会社ネクセルイノベーション,,株式会社,静岡県,浜松市東区,植松町７５番地３,,22,132,4300803,,,,,,,2023-04-14,1,,,,,ネクセルイノベーション,0
857,3120001253796,新規,0,2023-04-14,2023-04-14,株式会社あした．コム,,株式会社,大阪府,大阪市住之江区,北加賀屋５丁目５番６号,,27,125,5590011,,,,,,,2023-04-14,1,,,,,アシタドットコム,0
858,3120001253879,新規,0,2023-04-14,2023-04-14,株式会社キソウ,,株式会社,大阪府,大阪市西淀川区,姫島１丁目１６番２５号アルトピノ姫島３０５号室,,27,113,5550033,,,,,,,2023-04-14,1,,,,,キソウ,0
859,3120001253937,新規,0,2023-04-14,2023-04-14,株式会社アソシエーション,,株式会社,大阪府,大阪市東住吉区,駒川５丁目１０番６号,,27,121,5460043,,,,,,,2023-04-14,1,,,,,アソシエーション,0
860,3120001253961,新規,0,2023-04-14,2023-04-14,ＯＮＥ　ＬＩＦＥ　ＪＡＰＡＮ株式会社,,株式会社,大阪府,大阪市北区,同心１丁目４番２号第二東寺町ビル３０３号室,,27,127,5300035,,,,,,,2023-04-14,1,,,,,ワンライフジャパン,0
861,3120001253986,新規,0,2023-04-14,2023-04-14,株式会社ｒｅｖｅｎｔａ,,株式会社,大阪府,大阪市平野区,喜連２丁目２番３８号１０６,,27,126,5470027,,,,,,,2023-04-14,1,,,,,レベンタ,0
862,3120001254035,新規,0,2023-04-14,2023-04-14,株式会社ＢＡＳＥ,,株式会社,大阪府,交野市,倉治４丁目１６番２４号,,27,230,5760051,,,,,,,2023-04-14,1,,,,,ベース,0
863,3120001254051,新規,0,2023-04-14,2023-04-14,春知谷株式会社,,株式会社,大阪府,大阪市生野区,巽中１丁目８番１３号野本マンション２０３号,00130121,27,116,5440013,,,,,,,2023-04-14,1,,,,,シンシア,0
864,3120001254076,新規,0,2023-04-14,2023-04-14,株式会社ＢＬＵＥ　ＬＩＰ,,株式会社,大阪府,大阪市中央区,淡路町１丁目２番１０号,,27,128,5410047,,,,,,,2023-04-14,1,,,,,ブルーリップ,0
873,3120003023801,新規,0,2023-04-14,2023-04-14,合同会社エストラスト,,合同会社,大阪府,大阪市西区,京町堀３丁目２番８号７０１,,27,106,5500003,,,,,,,2023-04-14,1,,,,,エストラスト,0
874,3120003023818,新規,0,2023-04-14,2023-04-14,合同会社ＬＹＴ,,合同会社,大阪府,大阪市西成区,花園南１丁目７－２１ＪＰＭＥＴＯＲＯ花園町１階５０２Ｂ号室,,27,122,5570015,,,,,,,2023-04-14,1,,,,,エルワイティ,0
880,3120101067353,新規,0,2023-04-14,2023-04-14,東心商事株式会社,,株式会社,大阪府,岸和田市,山直中町６６１番地,,27,202,5960102,,,,,,,2023-04-14,1,,,,,トウシンショウジ,0
904,3140001129763,新規,0,2023-04-14,2023-04-14,株式会社エルトラスト,,株式会社,兵庫県,明石市,藤江１９２８番地の６,,28,203,6730044,,,,,,,2023-04-14,1,,,,,エルトラスト,0
905,3140001129796,新規,0,2023-04-14,2023-04-14,株式会社Ｏｆｆｉｃｅ　Ａｙｕｋａ,,株式会社,兵庫県,丹波篠山市,味間新９１番地１,,28,221,6692214,,,,,,,2023-04-14,1,,,,,オフィスアユカ,0
910,3140003018972,新規,0,2023-04-14,2023-04-14,合同会社ＺＥＲＯｎｅ,,合同会社,兵庫県,神戸市灘区,摩耶海岸通２丁目３番２－１８０４号,,28,102,6570855,,,,,,,2023-04-14,1,,,,,ゼロン,0
935,3180301037308,新規,0,2023-04-14,2023-04-14,株式会社日光運送,,株式会社,愛知県,安城市,二本木新町１丁目２１番地２５,,23,212,4460075,,,,,,,2023-04-14,1,,,,,ニッコウウンソウ,0
938,3190001030306,新規,0,2023-04-14,2023-04-14,株式会社賢島遊覧船,,株式会社,三重県,志摩市,阿児町神明７３３番４先,,24,215,5170502,,,,,,,2023-04-14,1,,,,,カシコジマユウランセン,0
941,3200001041193,新規,0,2023-04-14,2023-04-14,株式会社ｒｉｔａ,,株式会社,岐阜県,揖斐郡池田町,池野５８０－１サンテラスノース店舗Ｃ,,21,404,5032424,,,,,,,2023-04-14,1,,,,,リタ,0
943,3210005010086,新規,0,2023-04-14,2023-04-14,一般社団法人日本美爪セルフケア協会,,その他の設立登記法人,福井県,福井市,板垣２丁目１１１番地,,18,201,9188104,,,,,,,2023-04-14,1,,,,,ニホンビツメセルフケアキョウカイ,0
944,3240001061345,新規,0,2023-04-14,2023-04-14,株式会社ＵＥＭＯＴＯ,,株式会社,広島県,三次市,粟屋町３６５番地１,,34,209,7280025,,,,,,,2023-04-14,1,,,,,ウエモト,0
945,3240001061353,新規,0,2023-04-14,2023-04-14,デア・イエ不動産売買株式会社,,株式会社,広島県,広島市安佐北区,口田１丁目７番８－１０４号,,34,106,7391734,,,,,,,2023-04-14,1,,,,,デアイエフドウサンバイバイ,0
950,3260001037855,新規,0,2023-04-14,2023-04-14,株式会社ウィル,,株式会社,岡山県,岡山市南区,豊成２丁目８番３５号,,33,104,7000942,,,,,,,2023-04-14,1,,,,,ウィル,0
951,3260001037863,新規,0,2023-04-14,2023-04-14,株式会社Ｌｉｐｉｎ,,株式会社,岡山県,倉敷市,中庄２３７５－１－１０５,,33,202,7100016,,,,,,,2023-04-14,1,,,,,リピン,0
966,3290001101146,新規,0,2023-04-14,2023-04-14,株式会社西日本リュウ,,株式会社,福岡県,糟屋郡志免町,志免東３丁目１６番１２号,,40,343,8112243,,,,,,,2023-04-14,1,,,,,ニシニホンリュウ,0
967,3290001101179,新規,0,2023-04-14,2023-04-14,株式会社昭秀興業,,株式会社,福岡県,福岡市早良区,田村７丁目１２番７号,,40,137,8140175,,,,,,,2023-04-14,1,,,,,アキヒデコウギョウ,0
969,3290801029462,新規,0,2023-04-14,2023-04-14,株式会社ＫＤシステム,,株式会社,福岡県,北九州市八幡西区,大平台２５番６号,,40,109,8070084,,,,,,,2023-04-14,1,,,,,ケーディーシステム,0
977,3310001018362,新規,0,2023-04-14,2023-04-14,株式会社ネイビーメディカル,,株式会社,長崎県,諫早市,真崎町８９７番地５,,42,204,8540084,,,,,,,2023-04-14,1,,,,,ネイビーメディカル,0
980,3320003004062,新規,0,2023-04-14,2023-04-14,エムシールド合同会社,,合同会社,大分県,宇佐市,大字四日市本町１２４５,,44,211,8790471,,,,,,,2023-04-14,1,,,,,エムシールド,0
986,3330003009787,新規,0,2023-04-14,2023-04-14,合同会社阿蘇ジーザスフォレストリー,,合同会社,熊本県,阿蘇郡高森町,大字色見１１１番地１,,43,428,8691603,,,,,,,2023-04-14,1,,,,,アソジーザスフォレストリー,0
987,3330003009812,新規,0,2023-04-14,2023-04-14,合同会社Ｓ‐ＰＯＷＥＲ,,合同会社,熊本県,熊本市北区,植木町鐙田１４７４番地１,,43,105,8610142,,,,,,,2023-04-14,1,,,,,エスパワー,0
988,3340001025513,新規,0,2023-04-14,2023-04-14,クライス株式会社,,株式会社,鹿児島県,鹿児島市,東谷山２丁目５４‐８,,46,201,8910113,,,,,,,2023-04-14,1,,,,,クライス,0
1001,3380001033611,新規,0,2023-04-14,2023-04-14,株式会社ＨＢＣＭ,,株式会社,福島県,南相馬市,原町区橋本町４丁目４４番地の５レジデンス橋本町２０３,,07,212,9750006,,,,,,,2023-04-14,1,,,,,エイチビーシーエム,0
1006,3390003002076,新規,0,2023-04-14,2023-04-14,合同会社いいすと,,合同会社,山形県,米沢市,塩井町塩野１４９８―９,,06,202,9920042,,,,,,,2023-04-14,1,,,,,イイスト,0
1007,3400003003056,新規,0,2023-04-14,2023-04-14,合同会社建装住宅,,合同会社,岩手県,奥州市,水沢秋葉町５７番地３,,03,215,0230041,,,,,,,2023-04-14,1,,,,,ケンソウジュウタク,0
1012,3430001088856,新規,0,2023-04-14,2023-04-14,株式会社エクラ,,株式会社,北海道,札幌市南区,南沢二条３丁目２０番３号,,01,106,0050822,,,,,,,2023-04-14,1,,,,,エクラ,0
1013,3430003014942,新規,0,2023-04-14,2023-04-14,合同会社ＳＫカンパニー,,合同会社,北海道,札幌市東区,伏古十三条３丁目６番１８号,,01,103,0070873,,,,,,,2023-04-14,1,,,,,エスケーカンパニー,0
1015,3430005014692,新規,0,2023-04-14,2023-04-14,非出資農事組合法人幌倉川水利組合,,その他の設立登記法人,北海道,赤平市,幌岡町１７番地,,01,218,0791102,,,,,,,2023-04-14,1,,,,,ホロクラカワスイリクミアイ,0
1018,3460003000948,新規,0,2023-04-14,2023-04-14,ベルウッド合同会社,,合同会社,北海道,釧路市,米町３丁目３番２３号,,01,206,0850842,,,,,,,2023-04-14,1,,,,,ベルウッド,0
1020,3480001012076,新規,0,2023-04-14,2023-04-14,株式会社Ｓ企画,,株式会社,徳島県,徳島市,上八万町星河内６２６番地１,,36,201,7708040,,,,,,,2023-04-14,1,,,,,エスキカク,0
1022,3490001010459,新規,0,2023-04-14,2023-04-14,株式会社ＱＧ,,株式会社,高知県,高知市,天神町１４番２６号フレンチノ高知レジデンス６０２,,39,201,7808012,,,,,,,2023-04-14,1,,,,,キュージー,0
1029,3700150115458,新規,0,2023-04-14,2023-04-14,Ｔａｉｙｕａｎ　ＱｉＱｕＴｉａｏＤｏｎｇ　ＤｉａｎＺｉＳｈａｎｇＷｕ　Ｃｏ　ｌｔｄ,,外国会社等,,,,,,,,ＸｉａｏＤｉａｎＱｕ　ＫａｎｇＮｉｎｇＪｉｅＺｈｏｎｇＤｕａｎ　Ｓｈａｎｘｉ　ＧｕｏＪｉＳｈａｎｇＷｕ　ＺｈｏｎｇＸｉｎ　Ｂ　Ｚｕｏ　５０１，５０８　Ｓｈｉ　Ｔａｉｙｕａｎ　Ｓｈａｎｘｉ　０３００３２　ＣＮ,,,,,,2023-04-14,1,,,,,タイユエンチーチーテャオドンディエンズーシャンウーヨウシエンゴンスー,0
1030,3700150115466,新規,0,2023-04-14,2023-04-14,Ｗｅｉｈａｉ　ｊｉｎｇｃｈｅｎｇ　ｉｍｐｏｒｔ　＆　ｅｘｐｏｒｔ　ｃｏ．，ｌｔｄ,,外国会社等,,,,,,,,３２　ｆｌｏｏｒ，Ｃｉｔｉｃ　Ｂｕｉｌｄｉｎｇ，Ｎｏ．２　Ｎｏｒｔｈ　Ｑｉｎｇｄａｏ　Ｒｏａｄ，Ｈｕａｎｃｕｉｑｕ，Ｗｅｉｈａｉ，Ｓｈａｎｄｏｎｇ,,,,,,2023-04-14,1,,,,,ウェイハイジンチョンジンチューコウヨウシエンゴンスー,0
1040,4010001234501,新規,0,2023-04-14,2023-04-14,東京ノーブルランド株式会社,,株式会社,東京都,中央区,日本橋茅場町２丁目９番８号茅場町第２平和ビル４階,,13,102,1030025,,,,,,,2023-04-14,1,,,,,トウキョウノーブルランド,0
1041,4010001234518,新規,0,2023-04-14,2023-04-14,株式会社ｉＧＡＴＥ,,株式会社,東京都,中央区,日本橋室町１丁目１１番１２号日本橋水野ビル７階,,13,102,1030022,,,,,,,2023-04-14,1,,,,,アイゲート,0
1047,4010003040311,新規,0,2023-04-14,2023-04-14,上州太田蓄電所合同会社,,合同会社,東京都,千代田区,丸の内１丁目７番１２号サピアタワー１８階,,13,101,1000005,,,,,,,2023-04-14,1,,,,,ジョウシュウオオタチクデンショ,0
1048,4010003040328,新規,0,2023-04-14,2023-04-14,ＧＨＯＳＴＢＥＡＲ合同会社,,合同会社,東京都,中央区,銀座１丁目２２番１１号銀座大竹ビジデンス２Ｆ,,13,102,1040061,,,,,,,2023-04-14,1,,,,,ゴーストベア,0
1049,4010003040344,新規,0,2023-04-14,2023-04-14,白金台合同会社,,合同会社,東京都,千代田区,神田小川町３丁目２６番８号神田小川町三丁目ビル６階,,13,101,1010052,,,,,,,2023-04-14,1,,,,,シロカネダイ,0
1052,4010103002120,新規,0,2023-04-14,2023-04-14,合同会社Ｆｉｎｉｔｙ,,合同会社,東京都,八王子市,中町四丁目１２番地クレインビル３Ｆ,,13,201,1920085,,,,,,,2023-04-14,1,,,,,フィニティ,0
1060,4010401173753,新規,0,2023-04-14,2023-04-14,ＳｏｌＣｉｔｙ株式会社,,株式会社,東京都,港区,南青山３丁目１番３６号青山丸竹ビル６Ｆ,,13,103,1070062,,,,,,,2023-04-14,1,,,,,ソルシティ,0
1070,4010803004507,新規,0,2023-04-14,2023-04-14,Ｙｏｈａｃｋ合同会社,,合同会社,東京都,大田区,久が原２丁目１２番１２－７０５号,,13,111,1460085,,,,,,,2023-04-14,1,,,,,ヨハーク,0
1080,4011001153591,新規,0,2023-04-14,2023-04-14,３６０Ｇｌｏｂａｌ　Ｓｏｌｕｔｉｏｎｓ株式会社,,株式会社,東京都,渋谷区,道玄坂１丁目１０番８号渋谷道玄坂東急ビル２Ｆ－Ｃ,,13,113,1500043,,,,,,,2023-04-14,1,,,,,スリーシックスティグローバルソリューション,0
1081,4011001153807,新規,0,2023-04-14,2023-04-14,株式会社保進,,株式会社,東京都,渋谷区,神泉町１０番１５号,,13,113,1500045,,,,,,,2023-04-14,1,,,,,ホシン,0
1085,4011003016631,新規,0,2023-04-14,2023-04-14,合同会社Ｌｉｌｙ,,合同会社,東京都,渋谷区,幡ヶ谷１丁目１８番８号松英テラス３０３,,13,113,1510072,,,,,,,2023-04-14,1,,,,,リリー,0
1086,4011003016648,新規,0,2023-04-14,2023-04-14,ｔｓｕｂａｅｒｕ合同会社,,合同会社,東京都,渋谷区,恵比寿西２丁目１１－２５－３０５,,13,113,1500021,,,,,,,2023-04-14,1,,,,,ツバエル,0
1089,4011103012935,新規,0,2023-04-14,2023-04-14,合同会社ＩＰＡ不動産,,合同会社,東京都,新宿区,左門町１０番地２２,,13,104,1600017,,,,,,,2023-04-14,1,,,,,アイピーエーフドウサン,0
1090,4011201024576,新規,0,2023-04-14,2023-04-14,株式会社グッドビュー,,株式会社,東京都,中野区,沼袋２丁目３２番１４号,,13,114,1650025,,,,,,,2023-04-14,1,,,,,グッドビュー,0
1091,4011205002545,新規,0,2023-04-14,2023-04-14,特定非営利活動法人ハウスオブ外食,,その他の設立登記法人,東京都,中野区,白鷺１丁目１２－６リゲルマホロバ２０１,,13,114,1650035,,,,,,,2023-04-14,1,,,,,ハウスオブガイショク,0
1099,4011703003441,新規,0,2023-04-14,2023-04-14,近江屋不動産合同会社,,合同会社,東京都,江戸川区,東葛西６丁目８番７号,,13,123,1340084,,,,,,,2023-04-14,1,,,,,オウミヤフドウサン,0
1103,4011801042226,新規,0,2023-04-14,2023-04-14,株式会社ノヴァエラアシストエフ,,株式会社,東京都,足立区,六町１丁目１６番１４－２０１号,,13,121,1210073,,,,,,,2023-04-14,1,,,,,ノヴァエラアシストエフ,0
1104,4012401040413,新規,0,2023-04-14,2023-04-14,東京住宅アセットマネジメント株式会社,,株式会社,東京都,武蔵野市,境南町４丁目１２番１４号,,13,203,1800023,,,,,,,2023-04-14,1,,,,,トウキョウジュウタクアセットマネジメント,0
1107,4012701017598,新規,0,2023-04-14,2023-04-14,ブルーロジック株式会社,,株式会社,東京都,小平市,上水本町１丁目２９番８－２０４号,,13,211,1870022,,,,,,,2023-04-14,1,,,,,ブルーロジック,0
1110,4012801022283,新規,0,2023-04-14,2023-04-14,株式会社とらまる,,株式会社,東京都,昭島市,大神町４丁目３３番８号,,13,207,1960013,,,,,,,2023-04-14,1,,,,,トラマル,0
1111,4012803003059,新規,0,2023-04-14,2023-04-14,イープラス合同会社,,合同会社,東京都,武蔵村山市,大南４丁目４０番地２,,13,223,2080013,,,,,,,2023-04-14,1,,,,,イープラス,0
1130,4020005015946,新規,0,2023-04-14,2023-04-14,一般社団法人やさしい日本語普及連絡会,,その他の設立登記法人,神奈川県,横浜市都筑区,中川中央１丁目３０－１－３Ｆ,,14,118,2240003,,,,,,,2023-04-14,1,,,,,ヤサシイニホンゴフキュウレンラクカイ,0
1134,4021001078689,新規,0,2023-04-14,2023-04-14,ＣＩＭ研究会株式会社,,株式会社,神奈川県,相模原市緑区,上九沢８９番地５,,14,151,2520136,,,,,,,2023-04-14,1,,,,,シムケンキュウカイ,0
1135,4021001078706,新規,0,2023-04-14,2023-04-14,株式会社ＨＥＡＲＴ　ＰＲＯＤＣＴＩＯＮ,,株式会社,神奈川県,大和市,南林間３丁目１０－１９,,14,213,2420006,,,,,,,2023-04-14,1,,,,,ハートプロダクション,0
1136,4021001078722,新規,0,2023-04-14,2023-04-14,株式会社５９セカンズ,,株式会社,神奈川県,藤沢市,鵠沼桜が岡２丁目２番８号,,14,205,2510027,,,,,,,2023-04-14,1,,,,,ゴジュウキュウセカンズ,0
1137,4021003012976,新規,0,2023-04-14,2023-04-14,合同会社Ｃｈｈａｔｈ　ｐａｒｖａ,,合同会社,神奈川県,厚木市,戸田１４６６番地７,,14,212,2430023,,,,,,,2023-04-14,1,,,,,チャットパルワ,0
1146,4030001153261,新規,0,2023-04-14,2023-04-14,ほっとコンサルティング株式会社,,株式会社,埼玉県,春日部市,本田町２丁目１２５番地３,,11,214,3440016,,,,,,,2023-04-14,1,,,,,ホットコンサルティング,0
1154,4030005021200,新規,0,2023-04-14,2023-04-14,医療法人社団峰真会,,その他の設立登記法人,埼玉県,さいたま市見沼区,東大宮４丁目１番地２－１階,,11,104,3370051,,,,,,,2023-04-14,1,,,,,ホウシンカイ,0
1155,4030005021209,新規,0,2023-04-14,2023-04-14,医療法人東照会,,その他の設立登記法人,埼玉県,川口市,並木１丁目２３番２４号,,11,203,3320034,,,,,,,2023-04-14,1,,,,,トウショウカイ,0
1157,4040001127875,新規,0,2023-04-14,2023-04-14,オーソゴナルバイオ株式会社,,株式会社,千葉県,船橋市,芝山４丁目９番６号,,12,204,2740816,,,,,,,2023-04-14,1,,,,,オーソゴナルバイオ,0
1160,4040003022372,新規,0,2023-04-14,2023-04-14,合同会社ＴＵＬＥＣＥ,,合同会社,千葉県,君津市,東坂田２丁目５番７号君津島田ビル４Ｆ,,12,225,2991144,,,,,,,2023-04-14,1,,,,,ターレス,0
1164,4050003007397,新規,0,2023-04-14,2023-04-14,合同会社ＤＵＬＩＮＡ　ＴＲＡＤＩＮＧ　ＣＯＭＰＡＮＹ,,合同会社,茨城県,筑西市,宮後４９番地４６,,08,227,3004503,,,,,,,2023-04-14,1,,,,,ドゥリナトレーディングカンパニー,0
1165,4060001035878,新規,0,2023-04-14,2023-04-14,相馬塗装株式会社,,株式会社,栃木県,那須塩原市,黒磯幸町５番２９号,,09,213,3250057,,,,,,,2023-04-14,1,,,,,ソウマトソウ,0
1166,4060001035886,新規,0,2023-04-14,2023-04-14,株式会社新里工業,,株式会社,栃木県,栃木市,岩舟町静和１０７番地,,09,203,3294304,,,,,,,2023-04-14,1,,,,,ニッサトコウギョウ,0
1171,4070001040324,新規,0,2023-04-14,2023-04-14,双子蒸留所株式会社,,株式会社,群馬県,前橋市,千代田町２丁目１０番２号,,10,201,3710022,,,,,,,2023-04-14,1,,,,,フタゴジョウリュウジョ,0
1172,4070001040332,新規,0,2023-04-14,2023-04-14,株式会社ディエルピー,,株式会社,群馬県,富岡市,妙義町大牛３５７番地１,,10,210,3790202,,,,,,,2023-04-14,1,,,,,ディエルピー,0
1174,4070003004905,新規,0,2023-04-14,2023-04-14,合同会社ＴＫＥサプライ,,合同会社,群馬県,前橋市,西片貝町５丁目５―１３,,10,201,3710013,,,,,,,2023-04-14,1,,,,,ティーケーイーサプライ,0
1175,4070005010109,新規,0,2023-04-14,2023-04-14,ＮＰＯ法人Ｃｈａｎｇｅ　ｏｆ　Ｐｅｒｓｐｅｃｔｉｖｅ,,その他の設立登記法人,群馬県,高崎市,本町４８,,10,202,3700813,,,,,,,2023-04-14,1,,,,,,0
1182,4080401026434,新規,0,2023-04-14,2023-04-14,西郷エンジニアリング株式会社,,株式会社,静岡県,掛川市,上西郷１２９４番地の９,,22,213,4360342,,,,,,,2023-04-14,1,,,,,サイゴウエンジニアリング,0
1190,4110001037456,新規,0,2023-04-14,2023-04-14,株式会社ノベナ・コーポレーション,,株式会社,新潟県,新潟市西区,五十嵐東３丁目２番６１号,,15,107,9502045,,,,,,,2023-04-14,1,,,,,ノベナコーポレーション,0
1200,4120001253903,新規,0,2023-04-14,2023-04-14,Ｌｉｂｅｒａ株式会社,,株式会社,大阪府,大阪市北区,西天満４丁目９番２号,,27,127,5300047,,,,,,,2023-04-14,1,,,,,リベラ,0
1201,4120001253944,新規,0,2023-04-14,2023-04-14,株式会社Ｑ・Ｏ・Ｌ,,株式会社,大阪府,大阪市東成区,大今里南２丁目４番６－５０２号,,27,115,5370013,,,,,,,2023-04-14,1,,,,,キューオーエル,0
1202,4120001253985,新規,0,2023-04-14,2023-04-14,株式会社カーボンソフトウェア,,株式会社,大阪府,大阪市港区,市岡元町２丁目６－１１－５０１号,,27,107,5520002,,,,,,,2023-04-14,1,,,,,カーボンソフトウェア,0
1203,4120001253993,新規,0,2023-04-14,2023-04-14,株式会社不動産流通ネット,,株式会社,大阪府,大阪市中央区,大手前１丁目６番２号,,27,128,5400008,,,,,,,2023-04-14,1,,,,,フドウサンリュウツウネット,0
1204,4120001254042,新規,0,2023-04-14,2023-04-14,亭軒株式会社,,株式会社,大阪府,大阪市港区,八幡屋１丁目３－１第二共栄マンション４０１号室,,27,107,5520014,,,,,,,2023-04-14,1,,,,,テイケン,0
1208,4120003023718,新規,0,2023-04-14,2023-04-14,合同会社プレシーザ,,合同会社,大阪府,大阪市東成区,中本５丁目２７－３４－３０２,,27,115,5370022,,,,,,,2023-04-14,1,,,,,プレシーザ,0
1209,4120101067344,新規,0,2023-04-14,2023-04-14,株式会社大志,,株式会社,大阪府,南河内郡千早赤阪村,大字小吹６８番地の３９８,,27,383,5850053,,,,,,,2023-04-14,1,,,,,タイシ,0
1210,4120101067377,新規,0,2023-04-14,2023-04-14,株式会社長谷川興業,,株式会社,大阪府,和泉市,池上町４丁目５番２２号,,27,219,5940083,,,,,,,2023-04-14,1,,,,,ハセガワコウギョウ,0
1212,4120105009714,新規,0,2023-04-14,2023-04-14,一般社団法人大阪ブランディング,,その他の設立登記法人,大阪府,泉佐野市,市場西１丁目９番８号,,27,213,5980006,,,,,,,2023-04-14,1,,,,,オオサカブランディング,0
1217,4120901047405,新規,0,2023-04-14,2023-04-14,株式会社ＭＡＲＫ,,株式会社,大阪府,吹田市,江の木町２０番２９号,,27,205,5640053,,,,,,,2023-04-14,1,,,,,マーク,0
1226,4122001036890,新規,0,2023-04-14,2023-04-14,株式会社星天,,株式会社,大阪府,八尾市,西木の本４丁目１番地の２１,,27,212,5810045,,,,,,,2023-04-14,1,,,,,セイテン,0
1229,4130001073994,新規,0,2023-04-14,2023-04-14,株式会社夢咲トラスト,,株式会社,京都府,京都市南区,久世中久世町１丁目１０３番地,,26,107,6018213,,,,,,,2023-04-14,1,,,,,ユメサキトラスト,0
1234,4130005016751,新規,0,2023-04-14,2023-04-14,一般社団法人国際文化学術友好支援機構,,その他の設立登記法人,京都府,京都市北区,小山花ノ木町９番地,,26,101,6038122,,,,,,,2023-04-14,1,,,,,コクサイブンカガクジュツユウコウシエンキコウ,0
1239,4140001129787,新規,0,2023-04-14,2023-04-14,株式会社Ｎａｒｌａｇ,,株式会社,兵庫県,神戸市長田区,日吉町４丁目１番４号ヒーモリビル３Ｆ,,28,106,6530039,,,,,,,2023-04-14,1,,,,,ナルラガ,0
1240,4140001129795,新規,0,2023-04-14,2023-04-14,株式会社ウガヤデザイン,,株式会社,兵庫県,三田市,相生町１６番２３号,,28,219,6691526,,,,,,,2023-04-14,1,,,,,ウガヤデザイン,0
1250,4160001024978,新規,0,2023-04-14,2023-04-14,株式会社ＧＯＩＴ,,株式会社,滋賀県,大津市,大江６丁目４５番９号,,25,201,5202141,,,,,,,2023-04-14,1,,,,,ゴーイット,0
1255,4170001017551,新規,0,2023-04-14,2023-04-14,株式会社山藤組,,株式会社,和歌山県,海南市,黒江３２７,,30,202,6420011,,,,,,,2023-04-14,1,,,,,ヤマフジグミ,0
1266,4180001155788,新規,0,2023-04-14,2023-04-14,株式会社ｒｉｖｅｂｒｉｃｈ,,株式会社,愛知県,名古屋市瑞穂区,日向町１丁目８番地の９,,23,108,4670047,,,,,,,2023-04-14,1,,,,,リバブリッチ,0
1267,4180001155838,新規,0,2023-04-14,2023-04-14,東海土地開発株式会社,,株式会社,愛知県,名古屋市中村区,森田町１丁目６番１６号,,23,105,4530036,,,,,,,2023-04-14,1,,,,,トウカイトチカイハツ,0
1268,4180001155846,新規,0,2023-04-14,2023-04-14,株式会社エーワイタンデム,,株式会社,愛知県,名古屋市緑区,東神の倉３丁目５３５番地,,23,114,4580808,,,,,,,2023-04-14,1,,,,,エーワイタンデム,0
1269,4180001155870,新規,0,2023-04-14,2023-04-14,株式会社アイペイント,,株式会社,愛知県,大府市,神田町４丁目１４８番地,,23,223,4740003,,,,,,,2023-04-14,1,,,,,アイペイント,0
1270,4180001155887,新規,0,2023-04-14,2023-04-14,株式会社Ｍ．Ｓｏｌｕｔｉｏｎ,,株式会社,愛知県,春日井市,高蔵寺町３丁目４番地１８,,23,206,4870013,,,,,,,2023-04-14,1,,,,,エムソリューション,0
1271,4180001155904,新規,0,2023-04-14,2023-04-14,なのリード株式会社,,株式会社,愛知県,名古屋市昭和区,長戸町４丁目３１番地の２,,23,107,4660848,,,,,,,2023-04-14,1,,,,,ナノリード,0
1277,4180301037307,新規,0,2023-04-14,2023-04-14,株式会社ＦＡＣＥ,,株式会社,愛知県,豊川市,金屋元町１丁目６０－１,,23,207,4420066,,,,,,,2023-04-14,1,,,,,フェイス,0
1285,4210001019279,新規,0,2023-04-14,2023-04-14,山田工業株式会社,,株式会社,福井県,鯖江市,桜町２丁目２番１９号,,18,207,9160027,,,,,,,2023-04-14,1,,,,,ヤマダコウギョウ,0
1296,4240005015560,新規,0,2023-04-14,2023-04-14,一般社団法人８ｔｈ　Ｒｉｖｅｒ　Ｈｉｒｏｓｈｉｍａ,,その他の設立登記法人,広島県,広島市安佐南区,山本４丁目２番２０号,,34,105,7310137,,,,,,,2023-04-14,1,,,,,エイスリバーヒロシマ,0
1302,4260001037854,新規,0,2023-04-14,2023-04-14,ＳＵＮ企画株式会社,,株式会社,岡山県,岡山市北区,奥田南町２番１７号Ａ－１０１,,33,101,7000934,,,,,,,2023-04-14,1,,,,,サンキカク,0
1303,4260001037870,新規,0,2023-04-14,2023-04-14,株式会社なかはら,,株式会社,岡山県,倉敷市,片島町１０６番地１１,,33,202,7100805,,,,,,,2023-04-14,1,,,,,ナカハラ,0
1316,4290001101079,新規,0,2023-04-14,2023-04-14,株式会社ｉｓ‐ｕ,,株式会社,福岡県,久留米市,天神町４４中村ビル１Ｆ,,40,203,8300033,,,,,,,2023-04-14,1,,,,,イズユー,0
1317,4290001101178,新規,0,2023-04-14,2023-04-14,株式会社テクニカルトップ,,株式会社,福岡県,大野城市,筒井２丁目１８番１号,,40,219,8160931,,,,,,,2023-04-14,1,,,,,テクニカルトップ,0
1326,4290801029461,新規,0,2023-04-14,2023-04-14,親和ワークス株式会社,,株式会社,福岡県,北九州市若松区,響町１丁目１０１番地３,,40,103,8080021,,,,,,,2023-04-14,1,,,,,シンワワークス,0
1335,4330001030769,新規,0,2023-04-14,2023-04-14,株式会社嶋田自動車塗装工業,,株式会社,熊本県,熊本市中央区,黒髪７丁目１１番地,,43,101,8600862,,,,,,,2023-04-14,1,,,,,シマダジドウシャトソウコウギョウ,0
1338,4350005006152,新規,0,2023-04-14,2023-04-14,特定非営利活動法人ＳＫＹ,,その他の設立登記法人,宮崎県,都城市,都島町１６７番地３,,45,202,8850083,,,,,,,2023-04-14,1,,,,,スカイ,0
1339,4360003012853,新規,0,2023-04-14,2023-04-14,合同会社ＹＡＳＵＭＯＴＯコンサルティング,,合同会社,沖縄県,うるま市,字上江洲８２３番地１マンションカトレアＩＩ２０３,00130112,47,213,9042222,,,,,,,2023-04-14,1,,,,,ヤスモトコンサルティング,0
1344,4370001049855,新規,0,2023-04-14,2023-04-14,株式会社エムトラスト,,株式会社,宮城県,石巻市,鹿妻北３丁目２番１７号,,04,202,9860043,,,,,,,2023-04-14,1,,,,,エムトラスト,0
1357,4380005012701,新規,0,2023-04-14,2023-04-14,農事組合法人杉沢ファーム,,その他の設立登記法人,福島県,田村郡小野町,大字浮金字杉内１６８,,07,522,9633524,,,,,,,2023-04-14,1,,,,,スギサワファーム,0
1362,4400001016208,新規,0,2023-04-14,2023-04-14,株式会社Ｆ‐ｓｔｙｌｅ,,株式会社,岩手県,盛岡市,南仙北１丁目１１番１７号,,03,201,0200863,,,,,,,2023-04-14,1,,,,,エフスタイル,0
1363,4400003003063,新規,0,2023-04-14,2023-04-14,合同会社ｉｗａｎｏｔｅ,,合同会社,岩手県,盛岡市,本宮５丁目１３番１０号,,03,201,0200866,,,,,,,2023-04-14,1,,,,,イワノテ,0
1369,4420001018219,新規,0,2023-04-14,2023-04-14,株式会社ＴＯＮＯ,,株式会社,青森県,五所川原市,大字吹畑字皆瀬１０番地２４,,02,205,0370003,,,,,,,2023-04-14,1,,,,,,0
1374,4460003000947,新規,0,2023-04-14,2023-04-14,プライス合同会社,,合同会社,北海道,川上郡弟子屈町,字美留和４６５番地３,,01,665,0883331,,,,,,,2023-04-14,1,,,,,プライス,0
1378,4490001010458,新規,0,2023-04-14,2023-04-14,株式会社優,,株式会社,高知県,高知市,中宝永町１１番６－９０３号,,39,201,7800817,,,,,,,2023-04-14,1,,,,,ユウ,0
1380,4500001024877,新規,0,2023-04-14,2023-04-14,株式会社秦泉寺商事,,株式会社,愛媛県,四国中央市,妻鳥町２１０５番地７,,38,213,7990113,,,,,,,2023-04-14,1,,,,,ジンセンジショウジ,0
1388,4700150115457,新規,0,2023-04-14,2023-04-14,ＢＲＩＳＥＮＳＥ　ＩＮＴＥＲＮＡＴＩＯＮＡＬ　ＬＩＭＩＴＥＤ,,外国会社等,,,,,,,,Ｒｏｏｍ　１００３，１０ｔｈ　Ｆｌｏｏｒ，Ｔｏｗｅｒ　１，Ｌｉｐｐｏ　Ｃｅｎｔｅｒ，８９　Ｑｕｅｅｎｓｗａｙ，Ａｄｍｉｒａｌｔｙ，Ｈｏｎｇ　Ｋｏｎｇ,,,,,,2023-04-14,1,,,,,バイショングオジーヨウシエンゴンスー,0
1389,4700150115465,新規,0,2023-04-14,2023-04-14,Ｓｈｅｎｚｈｅｎ　Ｍｉｅｒｋｅ　Ｅｌｅｃｔｒｏｎｉｃ　Ｃｏｍｍｅｒｃｅ　Ｃｏ．，Ｌｔｄ．,,外国会社等,,,,,,,,４Ｆ４００７，Ｓｈｅｎｚｈｏｕ　Ｃｏｍｐｕｔｅｒ　Ｂｕｉｌｄｉｎｇ，Ｍａｄａｍｅ　Ｃｕｒｉｅ　Ａｖｅｎｕｅ，Ｖａｎｋｅ　Ｃｉｔｙ　Ｃｏｍｍｕｎｉｔｙ，Ｂａｎｔｉａｎ　Ｓｔｒｅｅｔ，Ｌｏｎｇｇａｎｇ　Ｄｉｓｔｒｉｃｔ，Ｓｈｅｎｚｈｅｎ，Ｇｕａｎｇｄｏｎｇ,,,,,,2023-04-14,1,,,,,シェンジェンシーミーアーコーディエンズーシャンウーヨウシエンゴンスー,0
1401,5010001234459,新規,0,2023-04-14,2023-04-14,株式会社ハーヴェスト,,株式会社,東京都,中央区,明石町１番３１－７０９号,,13,102,1040044,,,,,,,2023-04-14,1,,,,,ハーヴェスト,0
1402,5010001234517,新規,0,2023-04-14,2023-04-14,株式会社Ｏｐｔｉｒｕ,,株式会社,東京都,千代田区,神田佐久間町１丁目１６－１大橋ビル５０３,,13,101,1010025,,,,,,,2023-04-14,1,,,,,オプティル,0
1403,5010001234558,新規,0,2023-04-14,2023-04-14,リエゾン・ロジスティクス・マネジメント株式会社,,株式会社,東京都,千代田区,神田須田町１丁目１６番地ＲＡＸＡ神田須田町４階,,13,101,1010041,,,,,,,2023-04-14,1,,,,,リエゾンロジスティクスマネジメント,0
1411,5010005036513,新規,0,2023-04-14,2023-04-14,白金台一般社団法人,,その他の設立登記法人,東京都,千代田区,神田小川町３丁目２６番８号神田小川町三丁目ビル６階,,13,101,1010052,,,,,,,2023-04-14,1,,,,,シロカネダイ,0
1419,5010401173562,新規,0,2023-04-14,2023-04-14,株式会社ＣＲＥＶＩＡ,,株式会社,東京都,港区,北青山３丁目６番１９号バイナリー北青山５階,,13,103,1070061,,,,,,,2023-04-14,1,,,,,クレビア,0
1420,5010401173744,新規,0,2023-04-14,2023-04-14,ん株式会社,,株式会社,東京都,港区,西新橋１丁目２１番１－２０１号,,13,103,1050003,,,,,,,2023-04-14,1,,,,,ン,0
1421,5010401173785,新規,0,2023-04-14,2023-04-14,株式会社ｆｕｎｎｙ　ｂｏｒｎ,,株式会社,東京都,港区,新橋１丁目１２番９号７Ｆ,,13,103,1050004,,,,,,,2023-04-14,1,,,,,ファニーボーン,0
1423,5010403029886,新規,0,2023-04-14,2023-04-14,合同会社ＴＡＭ,,合同会社,東京都,港区,三田４丁目１２番１８－４０１号,,13,103,1080073,,,,,,,2023-04-14,1,,,,,ティーエーエム,0
1427,5010601062920,新規,0,2023-04-14,2023-04-14,サハヤテック株式会社,,株式会社,東京都,江東区,新大橋１丁目７番５－８０４号,,13,108,1350007,,,,,,,2023-04-14,1,,,,,サハヤテック,0
1428,5010601062929,新規,0,2023-04-14,2023-04-14,嘉祥商事株式会社,,株式会社,東京都,墨田区,立花４丁目４０番１０－３０２号,,13,107,1310043,,,,,,,2023-04-14,1,,,,,カショウショウジ,0
1429,5010603010092,新規,0,2023-04-14,2023-04-14,合同会社Ｇ＆Ｂ,,合同会社,東京都,江東区,清澄２丁目１番６号ドムール清澄公園１０１号室,,13,108,1350024,,,,,,,2023-04-14,1,,,,,ジーアンドビー,0
1436,5010801033845,新規,0,2023-04-14,2023-04-14,ＩＳホールディングス株式会社,,株式会社,東京都,大田区,山王２丁目３番８号山王智勇ビル４０１,,13,111,1430023,,,,,,,2023-04-14,1,,,,,アイエスホールディングス,0
1444,5010903008092,新規,0,2023-04-14,2023-04-14,合同会社Ｉ．Ｎ．Ｇ,,合同会社,東京都,世田谷区,世田谷３丁目４番２１号サンライズ松本Ｎｏ．７－７１１号室,00130120,13,112,1540017,,,,,,,2023-04-14,1,,,,,,0
1451,5011001153748,新規,0,2023-04-14,2023-04-14,株式会社アラク,,株式会社,東京都,渋谷区,神泉町８番１３号,,13,113,1500045,,,,,,,2023-04-14,1,,,,,アラク,0
1452,5011001153789,新規,0,2023-04-14,2023-04-14,株式会社Ｆｕｕ,,株式会社,東京都,渋谷区,松濤１丁目２６番１８号園ビルディング,,13,113,1500046,,,,,,,2023-04-14,1,,,,,フウ,0
1464,5011101102530,新規,0,2023-04-14,2023-04-14,株式会社ティーケーリンク,,株式会社,東京都,新宿区,新宿２丁目１番１４－１００１号,,13,104,1600022,,,,,,,2023-04-14,1,,,,,ティーケーリンク,0
1466,5011201024575,新規,0,2023-04-14,2023-04-14,株式会社ＡＵＢＥ,,株式会社,東京都,中野区,鷺宮３丁目１５番３号,,13,114,1650032,,,,,,,2023-04-14,1,,,,,オーブ,0
1469,5011503005562,新規,0,2023-04-14,2023-04-14,星耀合同会社,,合同会社,東京都,北区,浮間１丁目１番１４号リムジンビル３０７,,13,117,1150051,,,,,,,2023-04-14,1,,,,,セイヨウ,0
1470,5011601026733,新規,0,2023-04-14,2023-04-14,重喬株式会社,,株式会社,東京都,練馬区,中村２丁目１５－９ライフピアメヌエット１０１号室,,13,120,1760024,,,,,,,2023-04-14,1,,,,,ジュウキョウ,0
1481,5012801022274,新規,0,2023-04-14,2023-04-14,ワンダフルクリーンホールディングス株式会社,,株式会社,東京都,国分寺市,本町１丁目５番１２号ツインリーフ国分寺Ｂ１,,13,214,1850012,,,,,,,2023-04-14,1,,,,,ワンダフルクリーンホールディングス,0
1486,5020001151182,新規,0,2023-04-14,2023-04-14,株式会社ＡｎｌｉＺ,,株式会社,神奈川県,横浜市港北区,綱島東１丁目２１番３９－３０６号,,14,109,2230052,,,,,,,2023-04-14,1,,,,,アンリズ,0
1490,5020005015953,新規,0,2023-04-14,2023-04-14,医療法人はまなす,,その他の設立登記法人,神奈川県,横浜市西区,高島２丁目１０番３２号岡村ビル２階・３階・４階,,14,103,2200011,,,,,,,2023-04-14,1,,,,,ハマナス,0
1498,5030005021208,新規,0,2023-04-14,2023-04-14,医療法人社団ＣＡＲＮＡ,,その他の設立登記法人,埼玉県,さいたま市大宮区,桜木町１丁目１５３番地１Ｍ．Ｙ・Ｈｅｒｉｔａｇｅ１階,,11,103,3300854,,,,,,,2023-04-14,1,,,,,カルナ,0
1500,5040001127874,新規,0,2023-04-14,2023-04-14,株式会社ＣＲＡＷＬ　ＵＰ,,株式会社,千葉県,四街道市,大日１９８番地４７,,12,228,2840001,,,,,,,2023-04-14,1,,,,,クロールアップ,0
1501,5040001127998,新規,0,2023-04-14,2023-04-14,株式会社ＲＹＦ,,株式会社,千葉県,船橋市,前原西８丁目２６番１４号,,12,204,2740825,,,,,,,2023-04-14,1,,,,,アールワイエフ,0
1505,5050001052691,新規,0,2023-04-14,2023-04-14,株式会社光総建,,株式会社,茨城県,那珂市,菅谷５３５８－３,,08,226,3110105,,,,,,,2023-04-14,1,,,,,ヒカリソウケン,0
1511,5060001035885,新規,0,2023-04-14,2023-04-14,株式会社ＱＵＯＮＺ,,株式会社,栃木県,宇都宮市,一条１丁目２番１３号グランセリオ一条８０４,,09,201,3200821,,,,,,,2023-04-14,1,,,,,クオンズ,0
1512,5070001040331,新規,0,2023-04-14,2023-04-14,株式会社鷹之巣鉄工所,,株式会社,群馬県,安中市,大竹６９４番地２,,10,211,3790121,,,,,,,2023-04-14,1,,,,,タカノステッコウジョ,0
1514,5080005007532,新規,0,2023-04-14,2023-04-14,静岡リラクゼーション事業協同組合,,その他の設立登記法人,静岡県,静岡市駿河区,西脇１１番地の１・２階,,22,102,4228044,,,,,,,2023-04-14,1,,,,,シズオカリラクゼーション,0
1519,5080401026433,新規,0,2023-04-14,2023-04-14,Ａ‐ＳＨＩＮ株式会社,,株式会社,静岡県,浜松市南区,飯田町２１４番地の１,,22,134,4350028,,,,,,,2023-04-14,1,,,,,エーシン,0
1522,5090005007556,新規,0,2023-04-14,2023-04-14,やまなし特栽協同組合,,その他の設立登記法人,山梨県,笛吹市,一宮町上矢作７６５番地,,19,211,4050059,,,,,,,2023-04-14,1,,,,,ヤマナシトクサイ,0
1526,5100003006962,新規,0,2023-04-14,2023-04-14,合同会社エスエスファーム,,合同会社,長野県,松本市,小屋南１丁目２１番２９号,,20,202,3990038,,,,,,,2023-04-14,1,,,,,エスエスファーム,0
1528,5110001037439,新規,0,2023-04-14,2023-04-14,株式会社グ・ロウ,,株式会社,新潟県,上越市,春日新田５丁目４番７号,,15,222,9420061,,,,,,,2023-04-14,1,,,,,グロウ,0
1529,5110001037447,新規,0,2023-04-14,2023-04-14,株式会社２１１２,,株式会社,新潟県,新潟市中央区,鳥屋野４３４番地５１,,15,103,9500951,,,,,,,2023-04-14,1,,,,,ニイチイチニ,0
1544,5120001253910,新規,0,2023-04-14,2023-04-14,株式会社シンシア,,株式会社,大阪府,大阪市天王寺区,南河堀町９－９是空天王寺８０４号,,27,109,5430054,,,,,,,2023-04-14,1,,,,,シンシア,0
1545,5120001253943,新規,0,2023-04-14,2023-04-14,東阪株式会社,,株式会社,大阪府,大阪市淀川区,三津屋南２丁目５番１５号,,27,123,5320035,,,,,,,2023-04-14,1,,,,,トウハン,0
1546,5120001254025,新規,0,2023-04-14,2023-04-14,森美株式会社,,株式会社,大阪府,大阪市浪速区,桜川２丁目４番１３号２０５室,,27,111,5560022,,,,,,,2023-04-14,1,,,,,モリミ,0
1548,5120003023816,新規,0,2023-04-14,2023-04-14,合同会社Ａｎｄｍｉｇｎｏｎ,,合同会社,大阪府,大阪市中央区,南船場４丁目１０番５号南船場ＳＯＨＯビル７０２,,27,128,5420081,,,,,,,2023-04-14,1,,,,,アンドミニョン,0
1549,5120003023832,新規,0,2023-04-14,2023-04-14,Ｔａｌｌ　ｔｒｅｅ合同会社,,合同会社,大阪府,大阪市天王寺区,上本町５丁目４‐１７‐５０５,,27,109,5430001,,,,,,,2023-04-14,1,,,,,トールツリー,0
1552,5120101067327,新規,0,2023-04-14,2023-04-14,株式会社Ｍａｒｓｈｍａｌｌｏｗ,,株式会社,大阪府,堺市東区,北野田１－６フロントタワー１４０１号室,,27,143,5998123,,,,,,,2023-04-14,1,,,,,マシュマロ,0
1553,5120101067376,新規,0,2023-04-14,2023-04-14,株式会社ピース,,株式会社,大阪府,堺市美原区,今井４８０番地,,27,147,5870061,,,,,,,2023-04-14,1,,,,,ピース,0
1554,5120101067384,新規,0,2023-04-14,2023-04-14,クローバー株式会社,,株式会社,大阪府,堺市西区,浜寺公園町１丁２６番地９－１０１号,,27,144,5928346,,,,,,,2023-04-14,1,,,,,クローバー,0
1562,5130003008642,新規,0,2023-04-14,2023-04-14,合同会社ＧＤ,,合同会社,京都府,京都市下京区,童侍者町１６１綾小路スクウェア綾小路オフィス３０８号室,,26,106,6008421,,,,,,,2023-04-14,1,,,,,ジーディー,0
1565,5140001129737,新規,0,2023-04-14,2023-04-14,株式会社リクリエーション,,株式会社,兵庫県,尼崎市,昭和通８丁目２６８番地の３サントピア尼崎ＩＩ２０４号,00130106,28,202,6600881,,,,,,,2023-04-14,1,,,,,リクリエーション,0
1566,5140001129761,新規,0,2023-04-14,2023-04-14,株式会社凌雅,,株式会社,兵庫県,神戸市中央区,北野町３丁目１－８,,28,110,6500002,,,,,,,2023-04-14,1,,,,,リョウガ,0
1567,5140001129794,新規,0,2023-04-14,2023-04-14,株式会社Ｍ．Ｔ．Ｃ,,株式会社,兵庫県,姫路市,四郷町上鈴３２９番地２,,28,201,6710241,,,,,,,2023-04-14,1,,,,,エムティシー,0
1579,5160001024977,新規,0,2023-04-14,2023-04-14,株式会社コンサントレ,,株式会社,滋賀県,彦根市,長曽根南町４４６番地,,25,202,5220052,,,,,,,2023-04-14,1,,,,,コンサントレ,0
1581,5170001017550,新規,0,2023-04-14,2023-04-14,株式会社平幸産業,,株式会社,和歌山県,田辺市,龍神村宮代１９４番地の１,,30,206,6450411,,,,,,,2023-04-14,1,,,,,ヒラコウサンギョウ,0
1587,5180001155787,新規,0,2023-04-14,2023-04-14,順起株式会社,,株式会社,愛知県,名古屋市東区,東桜２丁目３番７号,,23,102,4610005,,,,,,,2023-04-14,1,,,,,ジュンキ,0
1588,5180001155812,新規,0,2023-04-14,2023-04-14,株式会社金博,,株式会社,愛知県,名古屋市中川区,横井２丁目５１番地コーポモトイ１０１,,23,110,4540915,,,,,,,2023-04-14,1,,,,,カネヒロ,0
1589,5180001155878,新規,0,2023-04-14,2023-04-14,ＳＨＩＡＬ株式会社,,株式会社,愛知県,名古屋市中川区,法華１丁目２０番地の１,,23,110,4540933,,,,,,,2023-04-14,1,,,,,シアル,0
1603,5180005020178,新規,0,2023-04-14,2023-04-14,医療法人いろどりの輪,,その他の設立登記法人,愛知県,愛西市,諏訪町中杁２９４番１,,23,232,4968011,,,,,,,2023-04-14,1,,,,,イロドリノワ,0
1604,5180301037314,新規,0,2023-04-14,2023-04-14,株式会社ＲＹ,,株式会社,愛知県,豊橋市,森岡町２０番地の３６,,23,201,4411114,,,,,,,2023-04-14,1,,,,,アールワイ,0
1605,5180301037322,新規,0,2023-04-14,2023-04-14,株式会社ＴＭコネクト,,株式会社,愛知県,知立市,新富２丁目１９番地２,,23,225,4720047,,,,,,,2023-04-14,1,,,,,,0
1612,5190003004297,新規,0,2023-04-14,2023-04-14,ＦＵＢＥＳＴ　ＪＡＰＡＮ合同会社,,合同会社,三重県,伊勢市,中須町１６８６番地,,24,203,5160053,,,,,,,2023-04-14,1,,,,,ファーベストジャパン,0
1617,5230001019788,新規,0,2023-04-14,2023-04-14,株式会社松本住宅外装,,株式会社,富山県,富山市,中滝４８４番地１,,16,201,9301313,,,,,,,2023-04-14,1,,,,,マツモトジュウタクガイソウ,0
1631,5290001101136,新規,0,2023-04-14,2023-04-14,株式会社腸美健,,株式会社,福岡県,糸島市,前原西４丁目３番６号,,40,230,8191117,,,,,,,2023-04-14,1,,,,,チョウビケン,0
1632,5290001101152,新規,0,2023-04-14,2023-04-14,株式会社駒や,,株式会社,福岡県,福岡市東区,馬出２丁目５番７号,,40,131,8120054,,,,,,,2023-04-14,1,,,,,コマヤ,0
1633,5290001101177,新規,0,2023-04-14,2023-04-14,株式会社高井美和,00130113,株式会社,福岡県,春日市,春日原東町２丁目８番地１,,40,218,8160801,,,,,,,2023-04-14,1,,,,,タカイミワ,0
1634,5290001101185,新規,0,2023-04-14,2023-04-14,株式会社ＨＤ,,株式会社,福岡県,福岡市南区,市崎１丁目２番８－３５７号高宮マンション,,40,134,8150084,,,,,,,2023-04-14,1,,,,,エイチディー,0
1635,5290001101193,新規,0,2023-04-14,2023-04-14,株式会社ＡＬＤＯ,,株式会社,福岡県,福岡市西区,今津３５３８番地１,,40,135,8190165,,,,,,,2023-04-14,1,,,,,アルド,0
1641,5310001018360,新規,0,2023-04-14,2023-04-14,フォトマーレ株式会社,,株式会社,長崎県,長崎市,炉粕町２５中島ビル１階,,42,201,8500021,,,,,,,2023-04-14,1,,,,,,0
1642,5310001018369,新規,0,2023-04-14,2023-04-14,株式会社ＦＡＳＣ,,株式会社,長崎県,西彼杵郡長与町,吉無田郷２０３５番地１０,,42,307,8512126,,,,,,,2023-04-14,1,,,,,ファスク,0
1644,5320005010073,新規,0,2023-04-14,2023-04-14,一般社団法人よつば親愛信託大分,,その他の設立登記法人,大分県,大分市,大字森８２５番地の２１森プリンス２８－６０３,,44,201,8700128,,,,,,,2023-04-14,1,,,,,ヨツバシンアイシンタクオオイタ,0
1645,5330003009810,新規,0,2023-04-14,2023-04-14,合同会社恵比寿商店,,合同会社,熊本県,熊本市中央区,下通１丁目８番３０－５０１号,,43,101,8600807,,,,,,,2023-04-14,1,,,,,エビスショウテン,0
1651,5340001025511,新規,0,2023-04-14,2023-04-14,株式会社ａｔｏｙｚ,,株式会社,鹿児島県,霧島市,隼人町姫城１丁目１１１番地,,46,218,8995111,,,,,,,2023-04-14,1,,,,,アトイズ,0
1656,5360001031870,新規,0,2023-04-14,2023-04-14,株式会社Ｒ,,株式会社,沖縄県,国頭郡恩納村,字恩納６５２５番地,,47,311,9040411,,,,,,,2023-04-14,1,,,,,アール,0
1657,5360001031895,新規,0,2023-04-14,2023-04-14,株式会社Ｆｒｅｅ　Ｌｉｆｅ,,株式会社,沖縄県,那覇市,おもろまち１丁目１番２５－２２２６号,,47,201,9000006,,,,,,,2023-04-14,1,,,,,フリーライフ,0
1663,5370005010614,新規,0,2023-04-14,2023-04-14,一般社団法人宮城県ボート協会,,その他の設立登記法人,宮城県,石巻市,田道町１丁目６番１８号,,04,202,9860872,,,,,,,2023-04-14,1,,,,,ミヤギケンボートキョウカイ,0
1666,5390001017231,新規,0,2023-04-14,2023-04-14,株式会社総建,,株式会社,山形県,東根市,神町東３丁目８番２５－６号,,06,211,9993764,,,,,,,2023-04-14,1,,,,,ソウケン,0
1667,5390003002074,新規,0,2023-04-14,2023-04-14,ｇｅｏＡｌｐｉｎｅ合同会社,,合同会社,山形県,東根市,温泉町１丁目２０番１号,,06,211,9993702,,,,,,,2023-04-14,1,,,,,ジオアルピーヌ,0
1668,5390005009002,新規,0,2023-04-14,2023-04-14,一般社団法人和平文化振興会,,その他の設立登記法人,山形県,天童市,一日町１丁目４番１８号,,06,210,9940044,,,,,,,2023-04-14,1,,,,,ワヘイブンカシンコウカイ,0
1673,5420001018226,新規,0,2023-04-14,2023-04-14,株式会社ＫＯＮ,,株式会社,青森県,青森市,本町４丁目９番１５号宝ビル１０３号,,02,201,0300802,,,,,,,2023-04-14,1,,,,,コン,0
1677,5430005014690,新規,0,2023-04-14,2023-04-14,一般社団法人北海道スポーツサポートプロジェクト,,その他の設立登記法人,北海道,札幌市北区,新琴似一条１１丁目１０番２５号Ｌｉｍｅｉｒａ１０１,,01,102,0010901,,,,,,,2023-04-14,1,,,,,ホッカイドウスポーツサポートプロジェクト,0
1681,5490001010457,新規,0,2023-04-14,2023-04-14,株式会社黒潮住宅,,株式会社,高知県,高知市,高須新町４丁目４番４号,,39,201,7818122,,,,,,,2023-04-14,1,,,,,クロシオジュウタク,0
1688,5500005008603,新規,0,2023-04-14,2023-04-14,医療法人良美社,,その他の設立登記法人,愛媛県,松山市,小坂４丁目７番１２号,,38,201,7900963,,,,,,,2023-04-14,1,,,,,ヨシミシャ,0
1694,5700150115456,新規,0,2023-04-14,2023-04-14,Ｃｈｉｎａ－Ｂａｓｅ　Ｒｅｓｏｕｒｃｅ　Ｓｉｎｇａｐｏｒｅ　ＰＴＥ．ＬＴＤ,,外国会社等,,,,,,,,２５０　Ｎｏｒｔｈ　Ｂｒｉｄｇｅ　Ｒｏａｄ　＃１５－０４Ｒａｆｆｌｅｓ　Ｃｉｔｙ　Ｔｏｗｅｒ　Ｓｉｎｇａｐｏｒｅ,,,,,,2023-04-14,1,,,,,チャイナベースリソースシンガポールプライベートリミテッド,0
1695,5700150115464,新規,0,2023-04-14,2023-04-14,Ｓｈｅｎｚｈｅｎｓｈｉ　ａｉｍｉｔｕｋｅｊｉ　ｙｏｕｘｉａｎｇｏｎｇｓｉ,,外国会社等,,,,,,,,Ｒｏｏｍ　７０６，４ｔｈ　Ｂｕｉｌｄｉｎｇ，Ｔｏｎｇｔａｉｓｈｉｄａｉ　Ｃｅｎｔｅｒ，Ｆｕｙｏｎｇ　Ｔｏｗｎ，Ｂａｏ’ａｎ　Ｄｉｓｔｒｉｃｔ，Ｓｈｅｎｚｈｅｎ　Ｇｕａｎｇｄｏｎｇ　５１８１０３　ＣＮ,,,,,,2023-04-14,1,,,,,シェンジェンシーアイミートゥーコージーヨウシエンゴンスー,0
1705,6010001234425,新規,0,2023-04-14,2023-04-14,ＰＩＰＯＬＩＶＥ株式会社,,株式会社,東京都,千代田区,岩本町２丁目３番９号横須賀第一ビル４Ｆ,,13,101,1010032,,,,,,,2023-04-14,1,,,,,ピーポライブ,0
1706,6010001234458,新規,0,2023-04-14,2023-04-14,ライセンス株式会社,,株式会社,東京都,千代田区,神田須田町２丁目２５番１６号日宝秋葉原ビル１２階,,13,101,1010041,,,,,,,2023-04-14,1,,,,,ライセンス,0
1707,6010001234466,新規,0,2023-04-14,2023-04-14,加賀萬隆株式会社,,株式会社,東京都,中央区,銀座１丁目１４番１４号,,13,102,1040061,,,,,,,2023-04-14,1,,,,,カガバンリュウ,0
1708,6010001234482,新規,0,2023-04-14,2023-04-14,株式会社Ｊ‐ＦＵＮ１１,,株式会社,東京都,千代田区,丸の内１丁目８番２号,,13,101,1000005,,,,,,,2023-04-14,1,,,,,ジェイファンイレブン,0
1709,6010001234516,新規,0,2023-04-14,2023-04-14,株式会社ｈａｎｄｓ‐ｕｐ,,株式会社,東京都,中央区,銀座１丁目２２番１１号銀座大竹ビジデンス２Ｆ,,13,102,1040061,,,,,,,2023-04-14,1,,,,,ハンズアップ,0
1710,6010001234532,新規,0,2023-04-14,2023-04-14,テックテーラー株式会社,,株式会社,東京都,千代田区,二番町９－３ＴＨＥＢＡＳＥ麹町,,13,101,1020084,,,,,,,2023-04-14,1,,,,,テックテーラー,0
1711,6010001234540,新規,0,2023-04-14,2023-04-14,株式会社ＧＥＮＫＥＩ,,株式会社,東京都,中央区,銀座７丁目１３番２１号,,13,102,1040061,,,,,,,2023-04-14,1,,,,,ゲンケイ,0
1712,6010001234557,新規,0,2023-04-14,2023-04-14,グローバルアソシエイツ株式会社,,株式会社,東京都,千代田区,神田佐久間町１丁目８番４号アルテール秋葉原７０８,,13,101,1010025,,,,,,,2023-04-14,1,,,,,グローバルアソシエイツ,0
1715,6010003040326,新規,0,2023-04-14,2023-04-14,Ｓｕｎ　Ｔｒｉｎｉｔｙ　Ｃ合同会社,,合同会社,東京都,千代田区,大手町２丁目３番２号大手町プレイスイーストタワー,,13,101,1000004,,,,,,,2023-04-14,1,,,,,サントリニティーシー,0
1716,6010003040342,新規,0,2023-04-14,2023-04-14,ミュウコンサルティング合同会社,,合同会社,東京都,中央区,新川２丁目２１－１０－３Ｆ－５,,13,102,1040033,,,,,,,2023-04-14,1,,,,,ミュウコンサルティング,0
1717,6010005036487,新規,0,2023-04-14,2023-04-14,社会保険労務士法人九段経営パートナーズ,,その他の設立登記法人,東京都,千代田区,九段南１丁目５番６号りそな九段ビル５階ＫＳフロア,,13,101,1020074,,,,,,,2023-04-14,1,,,,,クダンケイエイパートナーズ,0
1726,6010403029919,新規,0,2023-04-14,2023-04-14,合同会社Ｄｏｔｓ,,合同会社,東京都,港区,白金３丁目２３－２白金高輪レジデンス３０９,,13,103,1080072,,,,,,,2023-04-14,1,,,,,ドッツ,0
1727,6010403029935,新規,0,2023-04-14,2023-04-14,合同会社ＥＸＯＣＵＲＥ　ＭＩＳ,,合同会社,東京都,港区,浜松町２丁目４番１号,,13,103,1050013,,,,,,,2023-04-14,1,,,,,エクソキュアエムアイエス,0
1729,6010501050306,新規,0,2023-04-14,2023-04-14,株式会社ＴＳＭ,,株式会社,東京都,台東区,台東３丁目４番５号遠達ビル４階,,13,106,1100016,,,,,,,2023-04-14,1,,,,,ティーエスエム,0
1730,6010601062928,新規,0,2023-04-14,2023-04-14,株式会社Ｇｒｅｅｎ　Ｌｅａｆ　Ｉｎｓｉｇｈｔｓ,,株式会社,東京都,墨田区,向島２丁目１４番７号,,13,107,1310033,,,,,,,2023-04-14,1,,,,,グリーンリーフインサイツ,0
1739,6010901052876,新規,0,2023-04-14,2023-04-14,株式会社Ｇｏｌｄｗｒａｐ,,株式会社,東京都,世田谷区,桜丘１丁目７番５号,,13,112,1560054,,,,,,,2023-04-14,1,,,,,ゴールドラップ,0
1740,6010903008109,新規,0,2023-04-14,2023-04-14,アンダンテ合同会社,,合同会社,東京都,世田谷区,深沢２丁目１番３―９０４号,,13,112,1580081,,,,,,,2023-04-14,1,,,,,アンダンテ,0
1741,6010905004469,新規,0,2023-04-14,2023-04-14,一般社団法人日本インド友好協会,,その他の設立登記法人,東京都,世田谷区,成城８丁目１６番１０号,,13,112,1570066,,,,,,,2023-04-14,1,,,,,ニホンインドユウコウキョウカイ,0
1747,6011001153739,新規,0,2023-04-14,2023-04-14,株式会社ｍｉｉｂｏ,,株式会社,東京都,渋谷区,道玄坂１丁目１０番８号渋谷道玄坂東急ビル２Ｆ－Ｃ,,13,113,1500043,,,,,,,2023-04-14,1,,,,,ミーボ,0
1748,6011001153796,新規,0,2023-04-14,2023-04-14,株式会社ＴＲＩＭＤＯＮ,,株式会社,東京都,渋谷区,桜丘町２９番２４－５０５号,,13,113,1500031,,,,,,,2023-04-14,1,,,,,トリムドン,0
1751,6011101102455,新規,0,2023-04-14,2023-04-14,上海早晨株式会社,,株式会社,東京都,新宿区,北新宿１丁目８－１０新宿司法書士会館４０１号,,13,104,1690074,,,,,,,2023-04-14,1,,,,,シャンハイソウシン,0
1752,6011101102521,新規,0,2023-04-14,2023-04-14,株式会社セレナ,,株式会社,東京都,新宿区,四谷４丁目１番地小島ビル４０１,,13,104,1600004,,,,,,,2023-04-14,1,,,,,セレナ,0
1753,6011101102554,新規,0,2023-04-14,2023-04-14,株式会社ＴＨＷＡＣＫ,,株式会社,東京都,新宿区,北新宿３丁目１番２０号北新宿ユニオンビル９Ｆ,,13,104,1690074,,,,,,,2023-04-14,1,,,,,スワック,0
1756,6011203004054,新規,0,2023-04-14,2023-04-14,合同会社Ｃｒｏｓｓ,,合同会社,東京都,中野区,本町１丁目１７番９号あいがく舎２０３,,13,114,1640012,,,,,,,2023-04-14,1,,,,,クロス,0
1757,6011303004722,新規,0,2023-04-14,2023-04-14,合同会社Ｒ　ｍｅｄｉｃａｌ　ｅａｇｌｅ,,合同会社,東京都,杉並区,成田東４丁目３番１号,,13,115,1660015,,,,,,,2023-04-14,1,,,,,アールメディカルイーグル,0
1762,6011601026740,新規,0,2023-04-14,2023-04-14,株式会社東京練馬ホームサービス,,株式会社,東京都,練馬区,大泉町２丁目４３番３号,,13,120,1780062,,,,,,,2023-04-14,1,,,,,トウキョウネリマホームサービス,0
1768,6011805003263,新規,0,2023-04-14,2023-04-14,一般社団法人ホウ酸で住まいを守る会,,その他の設立登記法人,東京都,足立区,千住３丁目３３番地,,13,121,1200034,,,,,,,2023-04-14,1,,,,,,0
1771,6012401040428,新規,0,2023-04-14,2023-04-14,株式会社ラドチューブ,,株式会社,東京都,三鷹市,上連雀１丁目１０番１６号吉野方１階西,,13,204,1810012,,,,,,,2023-04-14,1,,,,,ラドチューブ,0
1774,6012801022273,新規,0,2023-04-14,2023-04-14,株式会社エクリア,,株式会社,東京都,立川市,柏町３丁目３番地の５ニュー柏ビル１階,,13,202,1900004,,,,,,,2023-04-14,1,,,,,エクリア,0
1775,6012803003057,新規,0,2023-04-14,2023-04-14,ＣｏｌｏｕＲ合同会社,,合同会社,東京都,国分寺市,泉町３丁目２５番１３号,,13,214,1850024,,,,,,,2023-04-14,1,,,,,コロル,0
1781,6020001151165,新規,0,2023-04-14,2023-04-14,マハロハウス株式会社,,株式会社,神奈川県,川崎市川崎区,大島１丁目１１番９号リラシオン５Ｄ,,14,131,2100834,,,,,,,2023-04-14,1,,,,,マハロハウス,0
1782,6020005015952,新規,0,2023-04-14,2023-04-14,特定非営利活動法人自遊,,その他の設立登記法人,神奈川県,横浜市西区,浅間町１丁目４番３号ウィザードビル４０２,,14,103,2200072,,,,,,,2023-04-14,1,,,,,ジユウ,0
1789,6021001078654,新規,0,2023-04-14,2023-04-14,株式会社一二三家,,株式会社,神奈川県,足柄下郡真鶴町,岩８４４番地の２,,14,383,2590202,,,,,,,2023-04-14,1,,,,,ヒフミヤ,0
1796,6040001127964,新規,0,2023-04-14,2023-04-14,株式会社ＲＥ　ＬＩＦＥ,,株式会社,千葉県,柏市,豊町１丁目１番１２－１０１号,,12,217,2770854,,,,,,,2023-04-14,1,,,,,リライフ,0
1801,6040003022379,新規,0,2023-04-14,2023-04-14,ＳＵＮＣＯ　ＮＩＨＯＮ　ＩＮＴＥＲＮＡＴＩＯＮＡＬ合同会社,,合同会社,千葉県,柏市,手賀１３４４番地４,,12,217,2701465,,,,,,,2023-04-14,1,,,,,サンコーニホンインターナショナル,0
1813,6060003004516,新規,0,2023-04-14,2023-04-14,ＤＡＩＪＩ合同会社,,合同会社,栃木県,下野市,緑６丁目２５番地６,,09,216,3290433,,,,,,,2023-04-14,1,,,,,ダイジ,0
1815,6070001040339,新規,0,2023-04-14,2023-04-14,株式会社いっとく不動産,,株式会社,群馬県,高崎市,寺尾町１５０１番地７,,10,202,3700865,,,,,,,2023-04-14,1,,,,,,0
1816,6070001040347,新規,0,2023-04-14,2023-04-14,株式会社Ｍ’ｓ,,株式会社,群馬県,太田市,藤阿久町６１１番地５,,10,205,3730034,,,,,,,2023-04-14,1,,,,,エムズ,0
1819,6080105006326,新規,0,2023-04-14,2023-04-14,一般社団法人駿富フローエナジー普及の会,,その他の設立登記法人,静岡県,駿東郡長泉町,下土狩１１６９番地の１シャルマンコーポ鮎壺公園５０７号,,22,342,4110943,,,,,,,2023-04-14,1,,,,,スンプフローエナジーフキュウノカイ,0
1821,6080401026432,新規,0,2023-04-14,2023-04-14,株式会社Ａ‐ＦＡＣＴＯＲＹ,,株式会社,静岡県,浜松市南区,飯田町２１４番地の１,,22,134,4350028,,,,,,,2023-04-14,1,,,,,エーファクトリー,0
1829,6110001037438,新規,0,2023-04-14,2023-04-14,ネイルヘルス株式会社,,株式会社,新潟県,長岡市,大荒戸町５１４番地３,,15,202,9402059,,,,,,,2023-04-14,1,,,,,ネイルヘルス,0
1830,6110001037454,新規,0,2023-04-14,2023-04-14,株式会社ハグオーバー,,株式会社,新潟県,新潟市中央区,米山３丁目１－３１パストラルハイム米山弐番館１３０１,,15,103,9500916,,,,,,,2023-04-14,1,,,,,ハグオーバー,0
1840,6120001253934,新規,0,2023-04-14,2023-04-14,株式会社美島,,株式会社,大阪府,大阪市中央区,平野町２丁目５番８号,,27,128,5410046,,,,,,,2023-04-14,1,,,,,ミシマ,0
1841,6120001253991,新規,0,2023-04-14,2023-04-14,ＤＤＬ＆ＳＷＯ株式会社,,株式会社,大阪府,大阪市港区,市岡元町２丁目６番１１－３０３号,,27,107,5520002,,,,,,,2023-04-14,1,,,,,ディーディーエルアンドゥエスダブルオー,0
1842,6120001254032,新規,0,2023-04-14,2023-04-14,株式会社ＢＩ,,株式会社,大阪府,大阪市淀川区,西中島４丁目８番２６号鯛ビル３０２号室,,27,123,5320011,,,,,,,2023-04-14,1,,,,,ビーアイ,0
1854,6120901047394,新規,0,2023-04-14,2023-04-14,ユニバーサルゴルフサービス株式会社,,株式会社,大阪府,豊中市,螢池西町２丁目１３番７号,,27,203,5600036,,,,,,,2023-04-14,1,,,,,ユニバーサルゴルフサービス,0
1861,6122001036889,新規,0,2023-04-14,2023-04-14,株式会社ＫＡＳＳＡＩ　ＭＥＤＩＣＡＬ,,株式会社,大阪府,東大阪市,若江西新町３丁目４番２４号,,27,227,5780944,,,,,,,2023-04-14,1,,,,,カッサイメディカル,0
1862,6122001036897,新規,0,2023-04-14,2023-04-14,株式会社Ｍ　ＤＥＳＩＧＮ　ＯＦＦＩＣＥ,,株式会社,大阪府,東大阪市,南上小阪９番２１号,,27,227,5770814,,,,,,,2023-04-14,1,,,,,エムデザインオフィス,0
1883,6140003018994,新規,0,2023-04-14,2023-04-14,ＭＡＫＯＳ合同会社,,合同会社,兵庫県,神戸市中央区,磯上通８丁目１番２９号カサベラビルＣ＆Ｍ４０３号室,,28,110,6510086,,,,,,,2023-04-14,1,,,,,メイコス,0
1889,6170003001857,新規,0,2023-04-14,2023-04-14,合同会社優,,合同会社,和歌山県,和歌山市,紀三井寺７３４－１０１,,30,201,6410012,,,,,,,2023-04-14,1,,,,,ユウ,0
1900,6180001155704,新規,0,2023-04-14,2023-04-14,株式会社バランスアーキテクツ,,株式会社,愛知県,名古屋市中区,錦２丁目１９番１号,,23,106,4600003,,,,,,,2023-04-14,1,,,,,バランスアーキテクツ,0
1901,6180001155811,新規,0,2023-04-14,2023-04-14,ＭＯＮ　ＲＥＶＥ株式会社,,株式会社,愛知県,犬山市,大字犬山字富士見町９番地１０,,23,215,4840081,,,,,,,2023-04-14,1,,,,,モンレヴ,0
1902,6180001155852,新規,0,2023-04-14,2023-04-14,株式会社ライフィニティ,,株式会社,愛知県,春日井市,神屋町１２８９番地１１,,23,206,4800304,,,,,,,2023-04-14,1,,,,,ライフィニティ,0
1903,6180001155869,新規,0,2023-04-14,2023-04-14,株式会社ＦＵＫ　ＣＲＡＦＴ　ＳＥＲＶＩＣＥ,,株式会社,愛知県,名古屋市中村区,上石川町４丁目１１番地,,23,105,4530835,,,,,,,2023-04-14,1,,,,,エフユウケイクラフトサービス,0
1904,6180001155885,新規,0,2023-04-14,2023-04-14,株式会社コンフィアンス,,株式会社,愛知県,小牧市,大字北外山１５１９番地１レトアテラス北外山Ｃ棟,,23,219,4850023,,,,,,,2023-04-14,1,,,,,コンフィアンス,0
1910,6180003025120,新規,0,2023-04-14,2023-04-14,合同会社ＢＲＵＮＴ,,合同会社,愛知県,名古屋市瑞穂区,明前町１番７号,,23,108,4670852,,,,,,,2023-04-14,1,,,,,ブラント,0
1914,6180301037321,新規,0,2023-04-14,2023-04-14,株式会社エイトワン,,株式会社,愛知県,豊橋市,高師石塚町字石塚３２番地２,,23,201,4418043,,,,,,,2023-04-14,1,,,,,エイトワン,0
1923,6200001041199,新規,0,2023-04-14,2023-04-14,株式会社オーツー,,株式会社,岐阜県,高山市,上宝町蔵柱２３９番地,,21,203,5061314,,,,,,,2023-04-14,1,,,,,オーツー,0
1927,6200003005929,新規,0,2023-04-14,2023-04-14,合同会社レイシア,,合同会社,岐阜県,各務原市,鵜沼各務原町７丁目１０８番地,,21,213,5090141,,,,,,,2023-04-14,1,,,,,レイシア,0
1931,6220001025349,新規,0,2023-04-14,2023-04-14,富楽商事株式会社,,株式会社,石川県,小松市,今江町５丁目１８２番地,,17,203,9230964,,,,,,,2023-04-14,1,,,,,フラクショウジ,0
1935,6230001019795,新規,0,2023-04-14,2023-04-14,Ｄサポ株式会社,,株式会社,富山県,高岡市,福岡町下老子４６番地１０,,16,202,9390121,,,,,,,2023-04-14,1,,,,,ディーサポ,0
1936,6230003001999,新規,0,2023-04-14,2023-04-14,合同会社ＳＴ工業,,合同会社,富山県,富山市,婦中町富崎４７０８,,16,201,9392621,,,,,,,2023-04-14,1,,,,,エスティコウギョウ,0
1940,6240001061375,新規,0,2023-04-14,2023-04-14,株式会社Ｚｅｓｔ,,株式会社,広島県,福山市,神辺町大字川南９３４番地１,,34,207,7202124,,,,,,,2023-04-14,1,,,,,ゼスト,0
1948,6260001037860,新規,0,2023-04-14,2023-04-14,株式会社ネコ・エコ,,株式会社,岡山県,岡山市北区,今２丁目１９番１０号,,33,101,7000975,,,,,,,2023-04-14,1,,,,,ネコエコ,0
1949,6260001037869,新規,0,2023-04-14,2023-04-14,株式会社ＲＥＳＴＥＲＪＡＰＡＮ,,株式会社,岡山県,岡山市南区,妹尾３９３２－６,,33,104,7010205,,,,,,,2023-04-14,1,,,,,レスタージャパン,0
1961,6290001101151,新規,0,2023-04-14,2023-04-14,株式会社明洋商事,,株式会社,福岡県,福岡市中央区,御所ヶ谷２番１５－１０４号,,40,133,8100027,,,,,,,2023-04-14,1,,,,,メイヨウショウジ,0
1962,6290001101234,新規,0,2023-04-14,2023-04-14,株式会社政光,,株式会社,福岡県,福岡市早良区,有田１丁目３番１０号大産原ビル２１０号,,40,137,8140033,,,,,,,2023-04-14,1,,,,,マサミツ,0
1967,6290003013766,新規,0,2023-04-14,2023-04-14,合同会社ｈｅｉｓｓｅｓ,,合同会社,福岡県,福岡市中央区,六本松３丁目１２番２号,,40,133,8100044,,,,,,,2023-04-14,1,,,,,ハイシス,0
1968,6290801029468,新規,0,2023-04-14,2023-04-14,株式会社徳重ＪＰ不動産,,株式会社,福岡県,北九州市小倉南区,中曽根１丁目１５番８号,,40,107,8000222,,,,,,,2023-04-14,1,,,,,トクシゲジェイピーフドウサン,0
1970,6290803004394,新規,0,2023-04-14,2023-04-14,合同会社大豊,,合同会社,福岡県,北九州市八幡西区,西王子町２番３－１３０３号,,40,109,8060039,,,,,,,2023-04-14,1,,,,,ダイホウ,0
1978,6340003004099,新規,0,2023-04-14,2023-04-14,リオプランニング合同会社,,合同会社,鹿児島県,鹿児島市,薬師２丁目３番２０‐７０１号,,46,201,8900042,,,,,,,2023-04-14,1,,,,,リオプランニング,0
1983,6350003004338,新規,0,2023-04-14,2023-04-14,合同会社山下園,,合同会社,宮崎県,児湯郡新富町,大字日置５１７１番地５,,45,402,8891401,,,,,,,2023-04-14,1,,,,,ヤマシタエン,0
1987,6360001031845,新規,0,2023-04-14,2023-04-14,株式会社沖縄ゴルフパワード,,株式会社,沖縄県,中頭郡北谷町,字桑江４３２北谷スポーツセンター内ボーリング場２Ｆ,,47,326,9040103,,,,,,,2023-04-14,1,,,,,オキナワゴルフパワード,0
1992,6360003012892,新規,0,2023-04-14,2023-04-14,合同会社シマイチＫＯＵＭＵＴＥＮ,,合同会社,沖縄県,中頭郡読谷村,字都屋２番地,,47,324,9040305,,,,,,,2023-04-14,1,,,,,シマイチコウムテン,0
1996,6370001049845,新規,0,2023-04-14,2023-04-14,株式会社三浦自動車,,株式会社,宮城県,名取市,高柳字皇檀ケ原４９番地,,04,207,9811211,,,,,,,2023-04-14,1,,,,,ミウラジドウシャ,0
1997,6370003006092,新規,0,2023-04-14,2023-04-14,合同会社相応,,合同会社,宮城県,仙台市若林区,大和町５丁目４番２５－６０４号,,04,103,9840042,,,,,,,2023-04-14,1,,,,,ソウオウ,0
2006,6390001017230,新規,0,2023-04-14,2023-04-14,株式会社ｆｒｏＳｃｈ,,株式会社,山形県,山形市,大字十文字字大原８５１番地１号,,06,201,9902211,,,,,,,2023-04-14,1,,,,,フロッシュ,0
2020,6440001009247,新規,0,2023-04-14,2023-04-14,株式会社バディーズ,,株式会社,北海道,函館市,上湯川町４５番２３号,,01,202,0420914,,,,,,,2023-04-14,1,,,,,バディーズ,0
2022,6460001005789,新規,0,2023-04-14,2023-04-14,株式会社松奉,,株式会社,北海道,釧路市,貝塚３丁目７番２２号,,01,206,0850816,,,,,,,2023-04-14,1,,,,,ショウホウ,0
2037,6700150115455,新規,0,2023-04-14,2023-04-14,ＳＲＩ　ＴＲＡＮＧ　ＩＮＴＥＲＮＡＴＩＯＮＡＬ　ＰＴＥ．ＬＴＤ．,,外国会社等,,,,,,,,５０　Ｒａｆｆｌｅｓ　Ｐｌａｃｅ　＃２７－０１　Ｓｉｎｇａｐｏｒｅ　Ｌａｎｄ　Ｔｏｗｅｒ,,,,,,2023-04-14,1,,,,,スリトランインターナショナルプライベートリミテッド,0
2038,6700150115463,新規,0,2023-04-14,2023-04-14,Ｂｅｉｊｉｎｇ　ＹｉＬａｎｇＣｈｕａｎｇＸｉａｎｇ　Ｔｅｃｈｎｏｌｏｇｙ　Ｃｏ．Ｌｔｄ,,外国会社等,,,,,,,,Ｈｕａｉ　Ｒｏｕ　Ｑｕ　Ｑｉａｏ　Ｚｉ　Ｚｈｅｎ　Ｘｉｎｇ　Ｑｉａｏ　Ｄａ　Ｊｉｅ　１　Ｈａｏ　Ｎａｎ　Ｌｏｕ　２０３　Ｓｈｉ　ＢｅｉＪｉｎｇ　１０１４０２　ＣＮ,,,,,,2023-04-14,1,,,,,ベイジンイーランチュワンシャンコージーヨウシエンゴンスー,0
2047,7010001234424,新規,0,2023-04-14,2023-04-14,株式会社ＴＳＳＣ,,株式会社,東京都,中央区,日本橋１丁目２番１０号,,13,102,1030027,,,,,,,2023-04-14,1,,,,,ティーエスエスシー,0
2048,7010001234531,新規,0,2023-04-14,2023-04-14,ミューチュアルエフ株式会社,,株式会社,東京都,中央区,日本橋室町１丁目１１番１２号７階,,13,102,1030022,,,,,,,2023-04-14,1,,,,,ミューチュアルエフ,0
2049,7010001234556,新規,0,2023-04-14,2023-04-14,株式会社ＹＵＮＯＪＩ＆ＣＯ,,株式会社,東京都,千代田区,五番町４番地６ザ・パークハウス五番町１１０１号,,13,101,1020076,,,,,,,2023-04-14,1,,,,,ユノジアンドコ,0
2057,7010005036494,新規,0,2023-04-14,2023-04-14,一般社団法人上州みらいエネルギー,,その他の設立登記法人,東京都,千代田区,丸の内１丁目７番１２号サピアタワー１８階,,13,101,1000005,,,,,,,2023-04-14,1,,,,,ジョウシュウミライエネルギー,0
2058,7010005036503,新規,0,2023-04-14,2023-04-14,一般社団法人企業価値調査機構,,その他の設立登記法人,東京都,中央区,銀座７丁目１３番２０号銀座ＴＨビル９階,,13,102,1040061,,,,,,,2023-04-14,1,,,,,キギョウカチチョウサキコウ,0
2059,7010101015600,新規,0,2023-04-14,2023-04-14,株式会社エコアース,,株式会社,東京都,八王子市,横山町２１番６号,,13,201,1920081,,,,,,,2023-04-14,1,,,,,エコアース,0
2071,7010501050305,新規,0,2023-04-14,2023-04-14,株式会社ジュエリーチャンネル,,株式会社,東京都,台東区,東上野５丁目１６番１３号ＭＫビル,,13,106,1100015,,,,,,,2023-04-14,1,,,,,ジュエリーチャンネル,0
2072,7010503006957,新規,0,2023-04-14,2023-04-14,ＧＬオートモービル合同会社,,合同会社,東京都,台東区,元浅草３丁目１８番２０号,,13,106,1110041,,,,,,,2023-04-14,1,,,,,ジーエルオートモービル,0
2075,7010603010099,新規,0,2023-04-14,2023-04-14,合同会社翔和地建プロパティ,,合同会社,東京都,江東区,毛利１丁目２１番２号,,13,108,1350001,,,,,,,2023-04-14,1,,,,,ショウワチケンプロパティ,0
2083,7011001153688,新規,0,2023-04-14,2023-04-14,株式会社ｔｗｅｌｖｅ,,株式会社,東京都,渋谷区,円山町１４番３号日興パレスビル渋谷２０３,,13,113,1500044,,,,,,,2023-04-14,1,,,,,トゥウェルブ,0
2084,7011001153770,新規,0,2023-04-14,2023-04-14,株式会社Ｍｉｘｅｄ,,株式会社,東京都,渋谷区,道玄坂１丁目１０番８号渋谷道玄坂東急ビル２Ｆ－Ｃ,,13,113,1500043,,,,,,,2023-04-14,1,,,,,ミクスト,0
2085,7011003016620,新規,0,2023-04-14,2023-04-14,合同会社ワイエスアーキテクツ,,合同会社,東京都,目黒区,碑文谷４丁目２４番２１号,,13,110,1520003,,,,,,,2023-04-14,1,,,,,ワイエスアーキテクツ,0
2089,7011101102479,新規,0,2023-04-14,2023-04-14,堯光株式会社,,株式会社,東京都,新宿区,北新宿４丁目８番１２－６０３号,,13,104,1690074,,,,,,,2023-04-14,1,,,,,タカミツ,0
2090,7011101102553,新規,0,2023-04-14,2023-04-14,株式会社ミドリサーチ,,株式会社,東京都,新宿区,西新宿３丁目３番１３号西新宿水間ビル６階,,13,104,1600023,,,,,,,2023-04-14,1,,,,,ミドリサーチ,0
2091,7011101102561,新規,0,2023-04-14,2023-04-14,株式会社Ｒｏｙａｌ　ｓｗｅｅｔ,,株式会社,東京都,新宿区,新宿５丁目２番２号クックランド新宿４０１,,13,104,1600022,,,,,,,2023-04-14,1,,,,,ロイヤルスイート,0
2094,7011501029157,新規,0,2023-04-14,2023-04-14,楓株式会社,,株式会社,東京都,荒川区,東尾久３丁目２８番５－４０１号,,13,118,1160012,,,,,,,2023-04-14,1,,,,,カエデ,0
2097,7011503005560,新規,0,2023-04-14,2023-04-14,合同会社えひめ,,合同会社,東京都,北区,赤羽南２丁目２１番１－６０６号,,13,117,1150044,,,,,,,2023-04-14,1,,,,,エヒメ,0
2098,7011505002548,新規,0,2023-04-14,2023-04-14,一般社団法人トラスト・ファミリーオフィス,,その他の設立登記法人,東京都,北区,田端新町２丁目１３番８号,,13,117,1140012,,,,,,,2023-04-14,1,,,,,トラストファミリーオフィス,0
2101,7011701026144,新規,0,2023-04-14,2023-04-14,株式会社クリッペン,,株式会社,東京都,江戸川区,船堀４丁目５番１３－１０２,,13,123,1340091,,,,,,,2023-04-14,1,,,,,クリッペン,0
2104,7011803005608,新規,0,2023-04-14,2023-04-14,ＴＲＡＮ　ＨＵＹ　ＪＡＰＡＮ合同会社,,合同会社,東京都,葛飾区,高砂２丁目３６番１号,,13,122,1250054,,,,,,,2023-04-14,1,,,,,チャンフィジャパン,0
2109,7012401040402,新規,0,2023-04-14,2023-04-14,株式会社ルネサービス,,株式会社,東京都,武蔵野市,境南町５丁目１２番７号,,13,203,1800023,,,,,,,2023-04-14,1,,,,,ルネサービス,0
2110,7012401040410,新規,0,2023-04-14,2023-04-14,株式会社ワイスメック,,株式会社,東京都,武蔵野市,中町２丁目２０－３－７,,13,203,1800006,,,,,,,2023-04-14,1,,,,,ワイスメック,0
2111,7012401040419,新規,0,2023-04-14,2023-04-14,株式会社Ｗｉｓｄｏｍ,,株式会社,東京都,調布市,多摩川１丁目２９番地１エルディア１７０６,,13,208,1820025,,,,,,,2023-04-14,1,,,,,ウィズダム,0
2113,7012801022272,新規,0,2023-04-14,2023-04-14,株式会社ＣＯＭ,,株式会社,東京都,国分寺市,東恋ヶ窪３丁目２０番地１１,,13,214,1850014,,,,,,,2023-04-14,1,,,,,コム,0
2114,7012801022280,新規,0,2023-04-14,2023-04-14,株式会社秀営,,株式会社,東京都,立川市,砂川町８丁目５２番地の６０,,13,202,1900031,,,,,,,2023-04-14,1,,,,,シュウエイ,0
2115,7013103001221,新規,0,2023-04-14,2023-04-14,合同会社久下施設,,合同会社,東京都,青梅市,野上町１丁目１０５番地の９,,13,205,1980032,,,,,,,2023-04-14,1,,,,,,0
2130,7020001151123,新規,0,2023-04-14,2023-04-14,株式会社ファンシーボックス,,株式会社,神奈川県,川崎市高津区,二子４丁目７番９号ハイツフローラＢ１０３,,14,134,2130002,,,,,,,2023-04-14,1,,,,,ファンシーボックス,0
2152,7030005021206,新規,0,2023-04-14,2023-04-14,一般社団法人全日本ティーチングプロ指導者連盟,,その他の設立登記法人,埼玉県,入間郡毛呂山町,大字下川原８６７番地５３,,11,326,3500435,,,,,,,2023-04-14,1,,,,,ゼンニホンティーチングプロシドウシャレンメイ,0
2153,7030005021222,新規,0,2023-04-14,2023-04-14,医療法人Ｎｅｃｏｄｅｎｔ,,その他の設立登記法人,埼玉県,さいたま市浦和区,前地３丁目１８番１７号メデニエット１階Ｂ号室,,11,107,3300053,,,,,,,2023-04-14,1,,,,,ネコデント,0
2158,7040001127947,新規,0,2023-04-14,2023-04-14,株式会社ＭＳＳ,,株式会社,千葉県,千葉市若葉区,都賀２丁目２５番１１号東和開発ビル,,12,104,2640025,,,,,,,2023-04-14,1,,,,,エムエスエス,0
2159,7040001127996,新規,0,2023-04-14,2023-04-14,株式会社ＦＵＫＵＲＡ,,株式会社,千葉県,千葉市若葉区,みつわ台４丁目２２番３号,,12,104,2640032,,,,,,,2023-04-14,1,,,,,フクラ,0
2164,7040003022378,新規,0,2023-04-14,2023-04-14,合同会社カーリーズ,,合同会社,千葉県,佐倉市,井野１９３－２ハーモニーヒルズユーカリの森６０６,,12,212,2850855,,,,,,,2023-04-14,1,,,,,カーリーズ,0
2168,7050001052681,新規,0,2023-04-14,2023-04-14,株式会社フューチャーコネクト,,株式会社,茨城県,坂東市,冨田７５６番地,,08,228,3060652,,,,,,,2023-04-14,1,,,,,,0
2171,7050005013250,新規,0,2023-04-14,2023-04-14,ＮＰＯ法人鹿行地域おこしＬａｂ．,,その他の設立登記法人,茨城県,行方市,麻生１０５４番地１,,08,233,3113832,,,,,,,2023-04-14,1,,,,,ロッコウチイキオコシラボ,0
2173,7060001035883,新規,0,2023-04-14,2023-04-14,ピースライフマネジメント株式会社,,株式会社,栃木県,宇都宮市,仲町３番１６号チサンマンション宇都宮第５－３０２号室,,09,201,3200023,,,,,,,2023-04-14,1,,,,,ピースライフマネジメント,0
2174,7060001035900,新規,0,2023-04-14,2023-04-14,株式会社ａｍｂｅｒ,,株式会社,栃木県,下野市,大松山１丁目１番３号ＳＫビル１－Ａ,,09,216,3290519,,,,,,,2023-04-14,1,,,,,アンバー,0
2176,7060003004515,新規,0,2023-04-14,2023-04-14,ＡＳＧＨＡＲ　ＴＲＡＤＩＮＧ合同会社,,合同会社,栃木県,栃木市,岩舟町新里１３０４番地９号室,,09,203,3294316,,,,,,,2023-04-14,1,,,,,アスガルトレーディング,0
2177,7070001040346,新規,0,2023-04-14,2023-04-14,ツリー調剤株式会社,,株式会社,群馬県,前橋市,新堀町１０４７番地,,10,201,3792143,,,,,,,2023-04-14,1,,,,,ツリーチョウザイ,0
2180,7070003004910,新規,0,2023-04-14,2023-04-14,ＨＡＭＮＡ　ＴＲＡＤＩＮＧ合同会社,,合同会社,群馬県,桐生市,相生町２丁目８７６番地カニヤハイツＡ－１０１,,10,203,3760011,,,,,,,2023-04-14,1,,,,,,0
2181,7070005010106,新規,0,2023-04-14,2023-04-14,一般財団法人群馬県薬剤師会環境衛生試験センター,,その他の設立登記法人,群馬県,前橋市,西片貝町５丁目２３番地１０,,10,201,3710013,,,,,,,2023-04-14,1,,,,,グンマケンヤクザイシカイカンキョウエイセイシケンセンター,0
2182,7080001025569,新規,0,2023-04-14,2023-04-14,株式会社Ｊａｙ,,株式会社,静岡県,静岡市葵区,東静岡１丁目１番３９号,,22,101,4200817,,,,,,,2023-04-14,1,,,,,ジェイ,0
2183,7080101023910,新規,0,2023-04-14,2023-04-14,株式会社富士小山ヤクルト工場,,株式会社,静岡県,駿東郡小山町,菅沼８３４番地６,,22,344,4101312,,,,,,,2023-04-14,1,,,,,フジオヤマヤクルトコウジョウ,0
2191,7100003006977,新規,0,2023-04-14,2023-04-14,合同会社もりから,,合同会社,長野県,南佐久郡北相木村,１０３９番地２－１０２号,,20,307,3841201,,,,,,,2023-04-14,1,,,,,モリカラ,0
2193,7100005012998,新規,0,2023-04-14,2023-04-14,一般社団法人希望の小径,,その他の設立登記法人,長野県,東筑摩郡山形村,６７０７番地１,,20,450,3901301,,,,,,,2023-04-14,1,,,,,キボウノコミチ,0
2194,7110001037453,新規,0,2023-04-14,2023-04-14,株式会社新日本サービス,,株式会社,新潟県,新潟市中央区,鳥屋野南２丁目１０番２０号,,15,103,9500950,,,,,,,2023-04-14,1,,,,,シンニホンサービス,0
2196,7110003005029,新規,0,2023-04-14,2023-04-14,合同会社黒鉄商会,,合同会社,新潟県,新潟市南区,茨曽根３４４８番地１,,15,106,9501456,,,,,,,2023-04-14,1,,,,,クロガネショウカイ,0
2203,7120001253941,新規,0,2023-04-14,2023-04-14,七福不動産株式会社,,株式会社,大阪府,大阪市天王寺区,生玉町１０番２０号朝日プラザ高津ＩＩ１００８号,00130108,27,109,5430071,,,,,,,2023-04-14,1,,,,,シチフクフドウサン,0
2204,7120001253990,新規,0,2023-04-14,2023-04-14,株式会社Ａｓｈ．ｐ,,株式会社,大阪府,大阪市西区,南堀江１丁目１１－１６レミュー南堀江２Ｆ,,27,106,5500015,,,,,,,2023-04-14,1,,,,,アッシュペー,0
2205,7120001254163,新規,0,2023-04-14,2023-04-14,ＮＡＳＨ企画株式会社,,株式会社,大阪府,大阪市福島区,大開２丁目９番１２号,,27,103,5530007,,,,,,,2023-04-14,1,,,,,ナッシュキカク,0
2211,7120003023806,新規,0,2023-04-14,2023-04-14,レインボーミール合同会社,,合同会社,大阪府,寝屋川市,美井元町２３番９号,,27,215,5720006,,,,,,,2023-04-14,1,,,,,レインボーミール,0
2214,7120103005167,新規,0,2023-04-14,2023-04-14,合同会社奏,,合同会社,大阪府,河内長野市,あかしあ台２丁目８番１９号,,27,216,5860095,,,,,,,2023-04-14,1,,,,,カナデ,0
2217,7120901047402,新規,0,2023-04-14,2023-04-14,株式会社Ｔｏｒｃｈ,,株式会社,大阪府,豊中市,庄内幸町３丁目２８番９号,,27,203,5610833,,,,,,,2023-04-14,1,,,,,トーチ,0
2218,7120903004590,新規,0,2023-04-14,2023-04-14,合同会社Ｒ,,合同会社,大阪府,吹田市,古江台５丁目１－２１－６１５号室,,27,205,5650874,,,,,,,2023-04-14,1,,,,,アール,0
2222,7130001074040,新規,0,2023-04-14,2023-04-14,株式会社中村清草堂,,株式会社,京都府,京都市右京区,太秦一ノ井町４７番地,,26,108,6168107,,,,,,,2023-04-14,1,,,,,ナカムラセイソウドウ,0
2223,7130001074115,新規,0,2023-04-14,2023-04-14,株式会社ａｉｍｅストア,,株式会社,京都府,京都市伏見区,横大路中ノ庄町３０番地５,,26,109,6128482,,,,,,,2023-04-14,1,,,,,アイミストア,0
2234,7140001129735,新規,0,2023-04-14,2023-04-14,株式会社セキュリティつばさ,,株式会社,兵庫県,加古川市,加古川町溝之口２２１番地の６エトワールシャトーＩＩ１階,00130105,28,210,6750064,,,,,,,2023-04-14,1,,,,,セキュリティツバサ,0
2235,7140001129792,新規,0,2023-04-14,2023-04-14,株式会社アールワーク,,株式会社,兵庫県,神戸市中央区,中山手通３丁目２番１,,28,110,6500004,,,,,,,2023-04-14,1,,,,,アールワーク,0
2238,7140003018952,新規,0,2023-04-14,2023-04-14,歩リアルエステート合同会社,,合同会社,兵庫県,宝塚市,宝松苑１３番３６－３３９号,,28,214,6650016,,,,,,,2023-04-14,1,,,,,アユミリアルエステート,0
2242,7140005026581,新規,0,2023-04-14,2023-04-14,一般社団法人セヤナミュージックグループ,,その他の設立登記法人,兵庫県,西宮市,小松南町３丁目１番６号,,28,204,6638124,,,,,,,2023-04-14,1,,,,,セヤナミュージックグループ,0
2243,7150001026312,新規,0,2023-04-14,2023-04-14,株式会社Ｒｕｎｎｉｎｇ　Ｗｏｏｄ,,株式会社,奈良県,奈良市,秋篠町８２１－１,,29,201,6310811,,,,,,,2023-04-14,1,,,,,ランニングウッド,0
2247,7160001024975,新規,0,2023-04-14,2023-04-14,株式会社ＨＯＣＣＯ,,株式会社,滋賀県,長浜市,西浅井町大浦８７５番地２,,25,203,5290721,,,,,,,2023-04-14,1,,,,,ホッコ,0
2260,7180001155827,新規,0,2023-04-14,2023-04-14,ｃｏｒｅ　ｆｌｅｘ株式会社,,株式会社,愛知県,小牧市,城山２丁目１１番地,,23,219,4850812,,,,,,,2023-04-14,1,,,,,コアフレックス,0
2261,7180001155843,新規,0,2023-04-14,2023-04-14,株式会社Ｄａｈｌｉａ,,株式会社,愛知県,名古屋市中区,栄１丁目７番２８号ローレルタワー名古屋栄５０２号,,23,106,4600008,,,,,,,2023-04-14,1,,,,,ダリア,0
2262,7180001155868,新規,0,2023-04-14,2023-04-14,株式会社Ｄｒ．３,,株式会社,愛知県,名古屋市中区,千代田３丁目１１番１１号,,23,106,4600012,,,,,,,2023-04-14,1,,,,,ドクタースリー,0
2263,7180001155892,新規,0,2023-04-14,2023-04-14,株式会社Ｔａｃｋａｒ．,,株式会社,愛知県,津島市,神守町字東浦６７番地１,,23,208,4960005,,,,,,,2023-04-14,1,,,,,タッキャル,0
2264,7180001155926,新規,0,2023-04-14,2023-04-14,株式会社エヌテック,,株式会社,愛知県,名古屋市北区,成願寺１丁目６番ザ・シーン城北イーストスター７０７号,,23,103,4620021,,,,,,,2023-04-14,1,,,,,エヌテック,0
2270,7180003025020,新規,0,2023-04-14,2023-04-14,インテリアゆず合同会社,,合同会社,愛知県,海部郡大治町,大字北間島字大道１番地の５,,23,424,4901132,,,,,,,2023-04-14,1,,,,,インテリアユズ,0
2271,7180003025053,新規,0,2023-04-14,2023-04-14,合同会社Ｍ‐３Ｂ,,合同会社,愛知県,半田市,南末広町１２４番地１０ファミリアーレ知多半田６１０号室,,23,205,4750853,,,,,,,2023-04-14,1,,,,,エムスリービー,0
2272,7180003025103,新規,0,2023-04-14,2023-04-14,合同会社ＭＫパートナリング,,合同会社,愛知県,名古屋市中村区,名駅４丁目２４番５号第２森ビル４０１,,23,105,4500002,,,,,,,2023-04-14,1,,,,,エムケイパートナリング,0
2285,7200001041198,新規,0,2023-04-14,2023-04-14,サポーターズ株式会社,,株式会社,岐阜県,岐阜市,御浪町１５番地,,21,201,5008181,,,,,,,2023-04-14,1,,,,,サポーターズ,0
2290,7220001025364,新規,0,2023-04-14,2023-04-14,株式会社Ｔｅｒｒａ,,株式会社,石川県,白山市,美里町７番地,,17,210,9240820,,,,,,,2023-04-14,1,,,,,テラ,0
2297,7230001019794,新規,0,2023-04-14,2023-04-14,新林投資アドバイザー株式会社,,株式会社,富山県,富山市,古鍛冶町６番５号,,16,201,9300058,,,,,,,2023-04-14,1,,,,,シンバヤシトウシアドバイザー,0
2299,7240001061358,新規,0,2023-04-14,2023-04-14,株式会社もみのき経営,,株式会社,広島県,広島市中区,大手町１丁目１番２０号,,34,101,7300051,,,,,,,2023-04-14,1,,,,,モミノキケイエイ,0
2302,7240003006105,新規,0,2023-04-14,2023-04-14,シンプルフード合同会社,,合同会社,広島県,広島市安佐北区,深川５丁目３９番５号,,34,106,7391751,,,,,,,2023-04-14,1,,,,,シンプルフード,0
2305,7250005008809,新規,0,2023-04-14,2023-04-14,税理士法人藤中会計,,その他の設立登記法人,山口県,岩国市,周東町下久原４１１番地４,,35,208,7420417,,,,,,,2023-04-14,1,,,,,フジナカカイケイ,0
2321,7290001101159,新規,0,2023-04-14,2023-04-14,萩原電気通信株式会社,,株式会社,福岡県,糟屋郡志免町,桜丘４丁目１番１号,,40,343,8112201,,,,,,,2023-04-14,1,,,,,ハギハラデンキツウシン,0
2322,7290001101191,新規,0,2023-04-14,2023-04-14,株式会社オタスケ,,株式会社,福岡県,福岡市中央区,天神２丁目２番１２号Ｔ＆Ｊビルディング７Ｆ,,40,133,8100001,,,,,,,2023-04-14,1,,,,,,0
2323,7290001101225,新規,0,2023-04-14,2023-04-14,株式会社ＳＨＩＥＬＤ,,株式会社,福岡県,福岡市中央区,天神１丁目１０番２０号天神ビジネスセンター９階,,40,133,8100001,,,,,,,2023-04-14,1,,,,,シールド,0
2324,7290001101233,新規,0,2023-04-14,2023-04-14,株式会社ナースのおむすび,,株式会社,福岡県,福岡市早良区,飯倉６丁目３０番１４号,,40,137,8140161,,,,,,,2023-04-14,1,,,,,ナースノオムスビ,0
2329,7290801029459,新規,0,2023-04-14,2023-04-14,株式会社ウィム,,株式会社,福岡県,北九州市小倉北区,城野団地２番２－５０７号,,40,106,8020055,,,,,,,2023-04-14,1,,,,,ウィム,0
2330,7290801029467,新規,0,2023-04-14,2023-04-14,株式会社ＹＡＭＡ彰３９,,株式会社,福岡県,北九州市八幡西区,里中３丁目１１番１９－７０１号,,40,109,8070846,,,,,,,2023-04-14,1,,,,,ヤマアキサンキュー,0
2331,7290801029475,新規,0,2023-04-14,2023-04-14,株式会社大田農園,,株式会社,福岡県,行橋市,大字道場寺１２７９番地１,,40,213,8240026,,,,,,,2023-04-14,1,,,,,オオタノウエン,0
2332,7290803004385,新規,0,2023-04-14,2023-04-14,合同会社Ａｓｔｅｒｕ,,合同会社,福岡県,田川郡福智町,神崎７０５番地３,,40,610,8221202,,,,,,,2023-04-14,1,,,,,アステル,0
2335,7310001018367,新規,0,2023-04-14,2023-04-14,株式会社昌賢,,株式会社,長崎県,長崎市,戸石町５００番地３４,,42,201,8510113,,,,,,,2023-04-14,1,,,,,,0
2358,7390003002080,新規,0,2023-04-14,2023-04-14,合同会社ＦＩＢＳ．ｃａｐｉｔａｌ,,合同会社,山形県,天童市,東本町２丁目７番８号１階,,06,210,9940026,,,,,,,2023-04-14,1,,,,,フィブスキャピタル,0
2365,7410003003786,新規,0,2023-04-14,2023-04-14,合同会社想,,合同会社,秋田県,秋田市,手形山崎町１０番１号,,05,201,0100854,,,,,,,2023-04-14,1,,,,,ソウ,0
2367,7420001018224,新規,0,2023-04-14,2023-04-14,株式会社Ｕｎｌｉｍｉｔｅｄ　Ｌａｂ,,株式会社,青森県,五所川原市,字一ツ谷５４８番地３,,02,205,0370016,,,,,,,2023-04-14,1,,,,,アンリミテッドラボ,0
2374,7450001013957,新規,0,2023-04-14,2023-04-14,株式会社トレジャー,,株式会社,北海道,旭川市,永山一条１丁目２番１３号,,01,204,0798411,,,,,,,2023-04-14,1,,,,,トレジャー,0
2377,7450003002322,新規,0,2023-04-14,2023-04-14,合同会社ヒロ企画,,合同会社,北海道,旭川市,神楽岡十一条７丁目５番１０号,,01,204,0788321,,,,,,,2023-04-14,1,,,,,ヒロキカク,0
2380,7480001012072,新規,0,2023-04-14,2023-04-14,株式会社ＳＧ　ＦＡＲＭ,,株式会社,徳島県,徳島市,川内町沖島２６９番地の１,,36,201,7710142,,,,,,,2023-04-14,1,,,,,エスジーファーム,0
2382,7490001010455,新規,0,2023-04-14,2023-04-14,株式会社下元,,株式会社,高知県,土佐市,高岡町乙７５番地２,,39,205,7811102,,,,,,,2023-04-14,1,,,,,シモモト,0
2387,7500003003018,新規,0,2023-04-14,2023-04-14,合同会社ソマレビト,,合同会社,愛媛県,今治市,玉川町三反地甲２１７番地２８,,38,202,7940101,,,,,,,2023-04-14,1,,,,,,0
2393,7700150115462,新規,0,2023-04-14,2023-04-14,Ｌｕｏｙａｎｇ　Ｙｉｎｇｓｈａｎｇｈｕｉ　Ｅｄｕｃａｔｉｏｎ　ｔｅｃｈｎｏｌｏｇｙ　ｃｏ．ＬＴＤ．,,外国会社等,,,,,,,,Ｈｉ－ｔｅｃｈ　Ｚｏｎｅ　Ｆｅｎｇｆｅｎｇｈｕａ　Ｒｏａｄ　ＮＯ．１，Ｂｕｉｌｄｉｎｇ　３，１７０３　Ｌｕｏｙａｎｇ　Ｈｅｎａｎ　ＣＮ　４７１００３,,,,,,2023-04-14,1,,,,,ルオヤンインシャンフイジャオイーコージーヨウシエンゴンスー,0
2409,8010001234316,新規,0,2023-04-14,2023-04-14,ＴＯＨＯアーカイブ株式会社,,株式会社,東京都,千代田区,有楽町１丁目２番２号,,13,101,1000006,,,,,,,2023-04-14,1,,,,,トウホウアーカイブ,0
2410,8010001234456,新規,0,2023-04-14,2023-04-14,株式会社クチュードビジューなみ,,株式会社,東京都,中央区,築地２丁目１５番１５号,,13,102,1040045,,,,,,,2023-04-14,1,,,,,クチュードビジューナミ,0
2415,8010003040332,新規,0,2023-04-14,2023-04-14,Ｓ　ＦＲＯＮＴＩＥＲ合同会社,,合同会社,東京都,千代田区,神田佐久間町３丁目２１番５号,,13,101,1010025,,,,,,,2023-04-14,1,,,,,エスフロンティア,0
2416,8010005036493,新規,0,2023-04-14,2023-04-14,一般社団法人国際臨床人材育成センター,,その他の設立登記法人,東京都,文京区,春日２丁目１１番８－３０４号,,13,105,1120003,,,,,,,2023-04-14,1,,,,,コクサイリンショウジンザイイクセイセンター,0
2432,8010503006956,新規,0,2023-04-14,2023-04-14,合同会社ＴＵＳ,,合同会社,東京都,台東区,小島２丁目２０番１１号ＬＩＧビル１Ｆ,,13,106,1110056,,,,,,,2023-04-14,1,,,,,ティーユーエス,0
2438,8010805003016,新規,0,2023-04-14,2023-04-14,一般社団法人ニューカマタビル建替トラスト,,その他の設立登記法人,東京都,大田区,西蒲田７丁目２８番６号,,13,111,1440051,,,,,,,2023-04-14,1,,,,,ニューカマタビルタテカエトラスト,0
2441,8010903008073,新規,0,2023-04-14,2023-04-14,合同会社ベリーフォワード,,合同会社,東京都,世田谷区,野沢１丁目１３番６号ジュンテラス小野１０５,,13,112,1540003,,,,,,,2023-04-14,1,,,,,ベリーフォワード,0
2447,8011001153737,新規,0,2023-04-14,2023-04-14,株式会社Ｃｏｕｎｔ　Ｚｅｒｏ,,株式会社,東京都,渋谷区,渋谷２丁目１９番１５号宮益坂ビルディング６０９,,13,113,1500002,,,,,,,2023-04-14,1,,,,,カウントゼロ,0
2458,8011101102494,新規,0,2023-04-14,2023-04-14,ｗｏｗ株式会社,,株式会社,東京都,新宿区,山吹町１３０－５ソーラ・デ・吉岡ビル２階ＤＡＯＳＰＡＣＥ神楽坂２０３号室,,13,104,1620801,,,,,,,2023-04-14,1,,,,,ワオ,0
2459,8011101102528,新規,0,2023-04-14,2023-04-14,株式会社ＴＲＡＮＳＡＭ　ＳＴＡＧＥ,,株式会社,東京都,新宿区,西新宿７丁目５番５－４０６号,,13,104,1600023,,,,,,,2023-04-14,1,,,,,トランザムステージ,0
2469,8011301028639,新規,0,2023-04-14,2023-04-14,株式会社イーシーエフ,,株式会社,東京都,杉並区,阿佐谷南３丁目３７番３号第４志村ビル４階,,13,115,1660004,,,,,,,2023-04-14,1,,,,,イーシーエフ,0
2471,8011501029148,新規,0,2023-04-14,2023-04-14,株式会社ＮＯＮＳＴＭ,,株式会社,東京都,北区,赤羽１丁目１９番７号Ｋキュービック１階,,13,117,1150045,,,,,,,2023-04-14,1,,,,,ノンツトム,0
2474,8011601026739,新規,0,2023-04-14,2023-04-14,株式会社ワンズトータルサービス,,株式会社,東京都,練馬区,南大泉１丁目５０番６号ペアパレス南大泉Ｉ－２０３,00130107,13,120,1780064,,,,,,,2023-04-14,1,,,,,ワンズトータルサービス,0
2475,8011703003438,新規,0,2023-04-14,2023-04-14,浪夢愛人合同会社,,合同会社,東京都,江戸川区,清新町１丁目４－７－１２０５,,13,123,1340087,,,,,,,2023-04-14,1,,,,,ロムアン,0
2481,8012401040426,新規,0,2023-04-14,2023-04-14,株式会社Ｏｎｅ　Ｒｏａｄ,,株式会社,東京都,府中市,八幡町１丁目４番地の９カーム府中３０６,,13,206,1830016,,,,,,,2023-04-14,1,,,,,ワンロード,0
2483,8012403005939,新規,0,2023-04-14,2023-04-14,スタンザ合同会社,,合同会社,東京都,三鷹市,下連雀１丁目８番２１号,,13,204,1810013,,,,,,,2023-04-14,1,,,,,スタンザ,0
2485,8012703002677,新規,0,2023-04-14,2023-04-14,合同会社シャイン,,合同会社,東京都,東村山市,秋津町４丁目２３番地１４,,13,213,1890001,,,,,,,2023-04-14,1,,,,,シャイン,0
2486,8012703002685,新規,0,2023-04-14,2023-04-14,合同会社縁,,合同会社,東京都,清瀬市,松山２丁目８番２号,,13,221,2040022,,,,,,,2023-04-14,1,,,,,エン,0
2488,8012801022271,新規,0,2023-04-14,2023-04-14,株式会社アストラム,,株式会社,東京都,昭島市,緑町３丁目２４番５号,,13,207,1960004,,,,,,,2023-04-14,1,,,,,アストラム,0
2489,8013301050515,新規,0,2023-04-14,2023-04-14,株式会社ＥＰＧ,,株式会社,東京都,豊島区,池袋２丁目５２番８号,,13,116,1710014,,,,,,,2023-04-14,1,,,,,イーピージー,0
2507,8021001078710,新規,0,2023-04-14,2023-04-14,株式会社再一,,株式会社,神奈川県,鎌倉市,極楽寺４丁目９－１０,,14,204,2480023,,,,,,,2023-04-14,1,,,,,サイチ,0
2508,8021001078719,新規,0,2023-04-14,2023-04-14,株式会社スマッシュ,,株式会社,神奈川県,茅ヶ崎市,室田２丁目２４番８号,,14,207,2530018,,,,,,,2023-04-14,1,,,,,スマッシュ,0
2509,8021001078727,新規,0,2023-04-14,2023-04-14,ワールドピース株式会社,,株式会社,神奈川県,藤沢市,鵠沼東３番１～６０７号,,14,205,2510026,,,,,,,2023-04-14,1,,,,,ワールドピース,0
2516,8021003012956,新規,0,2023-04-14,2023-04-14,代謝機能研究所合同会社,,合同会社,神奈川県,鎌倉市,二階堂８５１－４,,14,204,2480002,,,,,,,2023-04-14,1,,,,,タイシャキノウケンキュウショ,0
2522,8030003021553,新規,0,2023-04-14,2023-04-14,合同会社ＭＫ,,合同会社,埼玉県,比企郡小川町,大字大塚１０１番地３,,11,343,3550328,,,,,,,2023-04-14,1,,,,,エムケー,0
2523,8030005021196,新規,0,2023-04-14,2023-04-14,一般社団法人埼玉県弓道連盟,,その他の設立登記法人,埼玉県,所沢市,緑町１丁目１番１１号新所沢グリーンハイツ３０６,,11,208,3591111,,,,,,,2023-04-14,1,,,,,サイタマケンキュウドウレンメイ,0
2526,8040001127962,新規,0,2023-04-14,2023-04-14,株式会社天喜,,株式会社,千葉県,千葉市花見川区,幕張本郷５丁目２１番８号,,12,102,2620033,,,,,,,2023-04-14,1,,,,,テンキ,0
2527,8040003022393,新規,0,2023-04-14,2023-04-14,啓運貿易合同会社,,合同会社,千葉県,千葉市花見川区,浪花町９４３－８ノーリーズン新検見川２０２号室,,12,102,2620024,,,,,,,2023-04-14,1,,,,,ケイウンボウエキ,0
2529,8050001052689,新規,0,2023-04-14,2023-04-14,株式会社パルミオン,,株式会社,茨城県,土浦市,佐野子１０２７番地,,08,203,3000803,,,,,,,2023-04-14,1,,,,,パルミオン,0
2531,8050003007419,新規,0,2023-04-14,2023-04-14,ＧＳ　Ｅｎｔｅｒｐｒｉｓｅ合同会社,,合同会社,茨城県,鉾田市,梶山１３０１番地１２,,08,234,3112104,,,,,,,2023-04-14,1,,,,,ジーエスエンタープライズ,0
2536,8060001035882,新規,0,2023-04-14,2023-04-14,株式会社トライタームメディカルテック,,株式会社,栃木県,宇都宮市,平出工業団地２１番地５,,09,201,3210905,,,,,,,2023-04-14,1,,,,,トライタームメディカルテック,0
2537,8060001035890,新規,0,2023-04-14,2023-04-14,株式会社アート,,株式会社,栃木県,宇都宮市,戸祭３丁目１番１８号,,09,201,3200056,,,,,,,2023-04-14,1,,,,,アート,0
2538,8060003004514,新規,0,2023-04-14,2023-04-14,合同会社真野,,合同会社,栃木県,真岡市,亀山１丁目３５番地２５,,09,209,3214363,,,,,,,2023-04-14,1,,,,,シンノ,0
2539,8070001040320,新規,0,2023-04-14,2023-04-14,三設工株式会社,,株式会社,群馬県,太田市,新井町５１１番地１,,10,205,3730852,,,,,,,2023-04-14,1,,,,,サンセツコウ,0
2541,8070005010113,新規,0,2023-04-14,2023-04-14,社会保険労務士法人さくら,,その他の設立登記法人,群馬県,太田市,細谷町１１８８番地７,,10,205,3730842,,,,,,,2023-04-14,1,,,,,,0
2545,8080001025576,新規,0,2023-04-14,2023-04-14,株式会社辰の笑,,株式会社,静岡県,静岡市葵区,沓谷５丁目７－２,,22,101,4200816,,,,,,,2023-04-14,1,,,,,タツノエミ,0
2555,8100005012997,新規,0,2023-04-14,2023-04-14,一般社団法人信州産学みらい共創会,,その他の設立登記法人,長野県,長野市,若里４丁目１７番１号信州大学工学部内,,20,201,3800928,,,,,,,2023-04-14,1,,,,,シンシュウサンガクミライキョウソウカイ,0
2557,8110001037436,新規,0,2023-04-14,2023-04-14,はぴなす株式会社,,株式会社,新潟県,加茂市,矢立１番１３号,,15,209,9591374,,,,,,,2023-04-14,1,,,,,ハピナス,0
2558,8110001037444,新規,0,2023-04-14,2023-04-14,桑原工務店株式会社,,株式会社,新潟県,南魚沼市,宮５８７番地１,,15,226,9496775,,,,,,,2023-04-14,1,,,,,クワバラコウムテン,0
2560,8110003005028,新規,0,2023-04-14,2023-04-14,合同会社葵溶接,,合同会社,新潟県,南蒲原郡田上町,大字川船河甲９４５番地２７,,15,361,9591513,,,,,,,2023-04-14,1,,,,,アオイヨウセツ,0
2572,8120001253874,新規,0,2023-04-14,2023-04-14,スマート株式会社,,株式会社,大阪府,大阪市東成区,中道３丁目１５番２１号,,27,115,5370025,,,,,,,2023-04-14,1,,,,,スマート,0
2573,8120001253940,新規,0,2023-04-14,2023-04-14,株式会社ミズホサポート,,株式会社,大阪府,大阪市西区,新町１丁目９番１８号,,27,106,5500013,,,,,,,2023-04-14,1,,,,,ミズホサポート,0
2574,8120001254022,新規,0,2023-04-14,2023-04-14,株式会社ｃｒｏｗｄ,,株式会社,大阪府,枚方市,大垣内町２丁目８番１０号宮村三甲ビル７階,,27,210,5730027,,,,,,,2023-04-14,1,,,,,クラウド,0
2575,8120001254039,新規,0,2023-04-14,2023-04-14,株式会社ＡＤＤＩＣＴＩＯＮ,,株式会社,大阪府,大阪市平野区,平野東１丁目７番２５－５０３号,,27,126,5470043,,,,,,,2023-04-14,1,,,,,アディクション,0
2576,8120001254096,新規,0,2023-04-14,2023-04-14,株式会社ＰＤＮ　Ｊａｐａｎ,,株式会社,大阪府,大阪市北区,芝田２丁目８番１１号共栄ビル３Ｆ,,27,127,5300012,,,,,,,2023-04-14,1,,,,,ピーディーエヌジャパン,0
2583,8120003023788,新規,0,2023-04-14,2023-04-14,ＮＴＨ合同会社,,合同会社,大阪府,大阪市中央区,西心斎橋２丁目６番９号１階,,27,128,5420086,,,,,,,2023-04-14,1,,,,,エヌティエイチ,0
2587,8120101067349,新規,0,2023-04-14,2023-04-14,株式会社まこと技建,,株式会社,大阪府,河内長野市,木戸３丁目３番８－５０４号,,27,216,5860001,,,,,,,2023-04-14,1,,,,,マコトギケン,0
2590,8120901047401,新規,0,2023-04-14,2023-04-14,株式会社ＯＧＵＭＯ,,株式会社,大阪府,茨木市,西福井２丁目１４番５号,,27,211,5670067,,,,,,,2023-04-14,1,,,,,オグモ,0
2596,8122001036887,新規,0,2023-04-14,2023-04-14,株式会社サーヴァント,,株式会社,大阪府,大東市,浜町８－２０八高ビル３階,,27,218,5740041,,,,,,,2023-04-14,1,,,,,サーヴァント,0
2600,8130001074106,新規,0,2023-04-14,2023-04-14,株式会社結,,株式会社,京都府,城陽市,長池北清水３番地の４ノール・フレーズ北清水２０６号,,26,207,6100112,,,,,,,2023-04-14,1,,,,,ユイ,0
2601,8130001074114,新規,0,2023-04-14,2023-04-14,藤岡工務店株式会社,,株式会社,京都府,京都市南区,東九条河西町２７番地,,26,107,6018014,,,,,,,2023-04-14,1,,,,,フジオカコウムテン,0
2602,8130003008664,新規,0,2023-04-14,2023-04-14,合同会社ＬＩＦＡＣＴｃｏｍｐａｎｙ,,合同会社,京都府,亀岡市,曽我部町穴太大塚４７－１,,26,206,6210029,,,,,,,2023-04-14,1,,,,,リフアクトカンパニー,0
2613,8140001129841,新規,0,2023-04-14,2023-04-14,株式会社ルミエリテ,,株式会社,兵庫県,神戸市東灘区,住吉南町４丁目１番２２号,,28,101,6580041,,,,,,,2023-04-14,1,,,,,ルミエリテ,0
2618,8140003018951,新規,0,2023-04-14,2023-04-14,翠洲合同会社,,合同会社,兵庫県,尼崎市,昭和通９丁目３３１番地の３アヴァンス尼崎４０２号,,28,202,6600881,,,,,,,2023-04-14,1,,,,,スイシュウ,0
2620,8140005026580,新規,0,2023-04-14,2023-04-14,一般社団法人Ｙ・Ｋ,,その他の設立登記法人,兵庫県,西宮市,東山台３丁目１０番地５,,28,204,6691133,,,,,,,2023-04-14,1,,,,,ワイケイ,0
2634,8180001155784,新規,0,2023-04-14,2023-04-14,株式会社美創ＳＰ,,株式会社,愛知県,名古屋市中区,伊勢山１丁目１番１４号藤澤ビル,,23,106,4600026,,,,,,,2023-04-14,1,,,,,ビソウエスピー,0
2635,8180001155834,新規,0,2023-04-14,2023-04-14,株式会社Ｆｏｒｃｅ,,株式会社,愛知県,春日井市,朝宮町３丁目３番地１０,,23,206,4860846,,,,,,,2023-04-14,1,,,,,フォース,0
2636,8180001155883,新規,0,2023-04-14,2023-04-14,株式会社林興業,,株式会社,愛知県,津島市,唐臼町大島３８番地１,,23,208,4960026,,,,,,,2023-04-14,1,,,,,ハヤシコウギョウ,0
2644,8180301037311,新規,0,2023-04-14,2023-04-14,株式会社ｈｉｒｏｉ,,株式会社,愛知県,岡崎市,羽根北町４丁目３番地６ＨＡＴＡＹＡアパートメント１０５,,23,202,4440831,,,,,,,2023-04-14,1,,,,,ヒロイ,0
2648,8200001041197,新規,0,2023-04-14,2023-04-14,ＯＲＳＴＥＤ株式会社,,株式会社,岐阜県,岐阜市,東鶉５丁目１８９番地２,,21,201,5008281,,,,,,,2023-04-14,1,,,,,オルステッド,0
2651,8200005013465,新規,0,2023-04-14,2023-04-14,一般社団法人ｅボードゲーム協会,,その他の設立登記法人,岐阜県,岐阜市,加納寿町４丁目１番地加納寿ビル,,21,201,5008465,,,,,,,2023-04-14,1,,,,,イーボードゲームキョウカイ,0
2654,8220001025363,新規,0,2023-04-14,2023-04-14,株式会社ライフケアウェルネス,,株式会社,石川県,能美市,緑が丘１１丁目１９番地,,17,211,9231226,,,,,,,2023-04-14,1,,,,,ライフケアウェルネス,0
2658,8240001061349,新規,0,2023-04-14,2023-04-14,株式会社ＫＡＩＳＥＲＧＲＯＵＰ,,株式会社,広島県,広島市佐伯区,八幡１丁目２４番１０号アイエムリッチ９０２,,34,108,7315116,,,,,,,2023-04-14,1,,,,,カイザーグループ,0
2659,8240001061365,新規,0,2023-04-14,2023-04-14,株式会社ＡＮＹ,,株式会社,広島県,広島市安佐北区,白木町大字三田４７３５番地,,34,106,7391521,,,,,,,2023-04-14,1,,,,,エニー,0
2660,8240001061373,新規,0,2023-04-14,2023-04-14,株式会社ＳＴ,,株式会社,広島県,広島市東区,二葉の里３丁目５番７号３階,,34,102,7320057,,,,,,,2023-04-14,1,,,,,エスティ,0
2667,8260001037859,新規,0,2023-04-14,2023-04-14,株式会社Ｅｉｓｈｉｎ,,株式会社,岡山県,倉敷市,玉島乙島６７８６番地１,,33,202,7138103,,,,,,,2023-04-14,1,,,,,エイシン,0
2672,8290001101190,新規,0,2023-04-14,2023-04-14,ＭＩＲＡＩ株式会社,,株式会社,福岡県,福岡市東区,名子１丁目７番２４号,,40,131,8130024,,,,,,,2023-04-14,1,,,,,ミライ,0
2675,8290003013764,新規,0,2023-04-14,2023-04-14,合同会社しん心,,合同会社,福岡県,福岡市博多区,相生町３丁目２番１２－１０５号第２藤ビルＣ棟,,40,132,8120885,,,,,,,2023-04-14,1,,,,,シンシン,0
2676,8290003013789,新規,0,2023-04-14,2023-04-14,合同会社末吉建設ホールディングス,,合同会社,福岡県,福岡市中央区,大名２丁目４番２２号,,40,133,8100041,,,,,,,2023-04-14,1,,,,,スエヨシケンセツホールディングス,0
2677,8290005019009,新規,0,2023-04-14,2023-04-14,一般社団法人ＳＡＭＵＲＡＩ　ＲＥＢＩＲＴＨ,,その他の設立登記法人,福岡県,柳川市,新外町１番地１,,40,207,8320069,,,,,,,2023-04-14,1,,,,,サムライリバース,0
2679,8290801029458,新規,0,2023-04-14,2023-04-14,エビス船舶株式会社,,株式会社,福岡県,北九州市八幡東区,昭和３丁目１番２９－４０１号,,40,108,8050013,,,,,,,2023-04-14,1,,,,,エビスセンパク,0
2682,8290803004392,新規,0,2023-04-14,2023-04-14,合同会社Ｎａｎａｌａ,,合同会社,福岡県,北九州市戸畑区,銀座１丁目８番３７‐５０８号,,40,105,8040076,,,,,,,2023-04-14,1,,,,,ナナラ,0
2683,8290805009646,新規,0,2023-04-14,2023-04-14,一般社団法人２７ＧＡＲＵ会,,その他の設立登記法人,福岡県,北九州市小倉南区,中曽根東１丁目８番４６号,,40,107,8000213,,,,,,,2023-04-14,1,,,,,ツナガルカイ,0
2686,8310001018366,新規,0,2023-04-14,2023-04-14,株式会社イルリサーチ,,株式会社,長崎県,西彼杵郡長与町,吉無田郷２００２－３,,42,307,8512126,,,,,,,2023-04-14,1,,,,,,0
2689,8320001019685,新規,0,2023-04-14,2023-04-14,株式会社ＫＡＫＩＥＭＯＮ,,株式会社,大分県,別府市,石垣東８丁目２番１７号,,44,202,8740919,,,,,,,2023-04-14,1,,,,,カキエモン,0
2690,8320001019702,新規,0,2023-04-14,2023-04-14,株式会社ひだまりの里,,株式会社,大分県,宇佐市,安心院町新原１３０－１,,44,211,8720503,,,,,,,2023-04-14,1,,,,,ヒダマリノサト,0
2693,8330001030765,新規,0,2023-04-14,2023-04-14,シャイニーブルー株式会社,,株式会社,熊本県,合志市,須屋３１９番地６９,,43,216,8611102,,,,,,,2023-04-14,1,,,,,シャイニーブルー,0
2694,8330001030781,新規,0,2023-04-14,2023-04-14,栄真工業株式会社,,株式会社,熊本県,熊本市東区,戸島西７丁目６番２５号,,43,102,8618043,,,,,,,2023-04-14,1,,,,,エイシンコウギョウ,0
2697,8340001025517,新規,0,2023-04-14,2023-04-14,株式会社ナカエホールディングス,,株式会社,鹿児島県,鹿児島市,田上３丁目４番３号２Ｆ,,46,201,8900034,,,,,,,2023-04-14,1,,,,,ナカエホールディングス,0
2704,8360001031892,新規,0,2023-04-14,2023-04-14,株式会社美ら亀,,株式会社,沖縄県,宜野湾市,我如古４丁目１３番５号与那原アパート２０１号,,47,205,9012214,,,,,,,2023-04-14,1,,,,,チュラカメ,0
2706,8360005006825,新規,0,2023-04-14,2023-04-14,一般社団法人Ｓｐａｃｅ　ｗｉｔｈ　Ｇｒｅｅｎ　Ｏｋｉｎａｗａ,,その他の設立登記法人,沖縄県,南城市,佐敷字新里５３１番地,,47,215,9011412,,,,,,,2023-04-14,1,,,,,,0
2709,8370001049843,新規,0,2023-04-14,2023-04-14,株式会社Ｂｅａｒ,,株式会社,宮城県,仙台市青葉区,国分町１丁目８番１３号仙台協立第１ビル,,04,101,9800803,,,,,,,2023-04-14,1,,,,,ベア,0
2711,8370003006090,新規,0,2023-04-14,2023-04-14,合同会社ｔｅｔｏｔｅコンサルティング,,合同会社,宮城県,仙台市青葉区,花京院２丁目６－２１オークツリー仙台４０６号,,04,101,9800013,,,,,,,2023-04-14,1,,,,,テトテコンサルティング,0
2716,8390001017229,新規,0,2023-04-14,2023-04-14,株式会社月山麺ラボ,,株式会社,山形県,西村山郡西川町,大字睦合甲２４２番地,,06,322,9900701,,,,,,,2023-04-14,1,,,,,ガッサンメンラボ,0
2727,8420001018223,新規,0,2023-04-14,2023-04-14,株式会社丸久,,株式会社,青森県,上北郡おいらせ町,上久保６０番地２２２,,02,412,0392185,,,,,,,2023-04-14,1,,,,,マルキュウ,0
2728,8420001018231,新規,0,2023-04-14,2023-04-14,株式会社ＳＴ,,株式会社,青森県,平川市,金屋中松元７６番地１,,02,210,0360202,,,,,,,2023-04-14,1,,,,,エスティ,0
2735,8430001088884,新規,0,2023-04-14,2023-04-14,株式会社福住メディカルサポート,,株式会社,北海道,札幌市中央区,南二十四条西９丁目２番２０号,,01,101,0640924,,,,,,,2023-04-14,1,,,,,フクズミメディカルサポート,0
2745,8490003001765,新規,0,2023-04-14,2023-04-14,合同会社国共,,合同会社,高知県,吾川郡いの町,天王南４丁目２番地４,,39,386,7812123,,,,,,,2023-04-14,1,,,,,クニトモ,0
2751,8700150087180,新規,0,2023-04-14,2018-01-30,日本保健医療行動科学会,,その他,東京都,新宿区,新宿４丁目１－２２－７０２,,13,104,1600022,,,,,,,2018-01-30,1,,,,,ニホンホケンイリヨウコウドウカガクカイ,0
2754,8700150115461,新規,0,2023-04-14,2023-04-14,Ｍｅｉｚｈｏｕ　Ｃｈａｎｇｓｈｅｎｇ　Ｔｒａｄｉｎｇ　Ｃｏ．，Ｌｔｄ．,,外国会社等,,,,,,,,Ｒｏｏｍ　２０８，２ｎｄ　Ｆｌｏｏｒ，Ｎｏ．１２６，Ｎａｔｉｏｎａｌ　Ｒｏａｄ　２０６，Ｓｕｓｈａｎ　Ｖｉｌｌａｇｅ，Ｔａｎｇｋｅｎｇ　Ｔｏｗｎ，Ｆｅｎｇｓｈｕｎ　Ｄｉｓｔｒｉｃｔ，Ｍｅｉｚｈｏｕ　Ｇｕａｎｇｄｏｎｇ　ＣＮ　５１４３００,,,,,,2023-04-14,1,,,,,メイジョウシーチャンションマオイーヨウシエンゴンスー,0
2767,9010001234471,新規,0,2023-04-14,2023-04-14,株式会社ＮＡＮＡｐｒｏｄｕｃｅ,,株式会社,東京都,中央区,銀座８丁目４‐２３クレグラン銀座７階,,13,102,1040061,,,,,,,2023-04-14,1,,,,,ナナプロデュース,0
2768,9010001234496,新規,0,2023-04-14,2023-04-14,株式会社ミラカナ,,株式会社,東京都,中央区,銀座４丁目１０番１４号１１階,,13,102,1040061,,,,,,,2023-04-14,1,,,,,ミラカナ,0
2769,9010001234562,新規,0,2023-04-14,2023-04-14,株式会社ＧＩＧ　ＩＮＮＯＶＡＴＩＯＮ,,株式会社,東京都,千代田区,丸の内１丁目８番１号丸の内トラストタワーＮ館１９階,,13,101,1000005,,,,,,,2023-04-14,1,,,,,ギグイノベーション,0
2771,9010003040307,新規,0,2023-04-14,2023-04-14,ＢＨＴ合同会社,,合同会社,東京都,文京区,本郷１丁目５番１７号（５８号室）,,13,105,1130033,,,,,,,2023-04-14,1,,,,,ビーエイチティ,0
2772,9010005036484,新規,0,2023-04-14,2023-04-14,一般社団法人クリーンエナジー推進協会,,その他の設立登記法人,東京都,千代田区,内幸町１丁目１番１号帝国ホテルタワー１６階,,13,101,1000011,,,,,,,2023-04-14,1,,,,,クリーンエナジースイシンキョウカイ,0
2783,9010401173559,新規,0,2023-04-14,2023-04-14,株式会社ＨＥＺＭＡ,,株式会社,東京都,港区,南青山２丁目２番１５号,,13,103,1070062,,,,,,,2023-04-14,1,,,,,ヘズマ,0
2784,9010401173732,新規,0,2023-04-14,2023-04-14,株式会社クレリアン,,株式会社,東京都,港区,六本木７丁目８番５号,,13,103,1060032,,,,,,,2023-04-14,1,,,,,クレリアン,0
2787,9010501050303,新規,0,2023-04-14,2023-04-14,株式会社モノキョウコンサルティング,,株式会社,東京都,台東区,東上野３丁目１５－１４丸山ビル,,13,106,1100015,,,,,,,2023-04-14,1,,,,,モノキョウコンサルティング,0
2790,9010601062900,新規,0,2023-04-14,2023-04-14,株式会社Ｇｉｖｉｎｇ　Ｆｉｒｓｔ,,株式会社,東京都,江東区,古石場１丁目１０番６号サンビレッジ３０４,,13,108,1350045,,,,,,,2023-04-14,1,,,,,ギビングファースト,0
2791,9010603010097,新規,0,2023-04-14,2023-04-14,合同会社島守,,合同会社,東京都,江東区,南砂６丁目７番５０－１３０８号,,13,108,1360076,,,,,,,2023-04-14,1,,,,,シマモリ,0
2798,9010803004502,新規,0,2023-04-14,2023-04-14,合同会社Ｔｈｅ　ＳＩＭＳ’ｓ,,合同会社,東京都,大田区,大森本町１丁目１番１－１２０２号,,13,111,1430011,,,,,,,2023-04-14,1,,,,,ザシムズ,0
2805,9011001153752,新規,0,2023-04-14,2023-04-14,株式会社草創,,株式会社,東京都,渋谷区,円山町５番５号Ｎａｖｉ渋谷Ｖ３階,,13,113,1500044,,,,,,,2023-04-14,1,,,,,ソウソウ,0
2806,9011001153760,新規,0,2023-04-14,2023-04-14,Ｉ‐Ｂｏｕｑｕｅｔ株式会社,,株式会社,東京都,目黒区,青葉台１丁目１４－４コントラル中目黒ＯＦＦＩＣＥ００２,,13,110,1530042,,,,,,,2023-04-14,1,,,,,アイブーケット,0
2807,9011001153793,新規,0,2023-04-14,2023-04-14,株式会社ＰＯＳＴ　ＣＲＥＤＩＴ,,株式会社,東京都,渋谷区,道玄坂１丁目１０番８号渋谷道玄坂東急ビル２Ｆ－Ｃ,,13,113,1500043,,,,,,,2023-04-14,1,,,,,ポストクレジット,0
2808,9011003016544,新規,0,2023-04-14,2023-04-14,合同会社ＡＲＡＴＡ,,合同会社,東京都,渋谷区,恵比寿南３丁目２－２アサンブレ恵比寿７０１,,13,113,1500022,,,,,,,2023-04-14,1,,,,,アラタ,0
2809,9011003016668,新規,0,2023-04-14,2023-04-14,ＡｔｏｍＢａｓｅ合同会社,,合同会社,東京都,渋谷区,神宮前６丁目２３番４号桑野ビル２階,,13,113,1500001,,,,,,,2023-04-14,1,,,,,アトムベース,0
2811,9011105010627,新規,0,2023-04-14,2023-04-14,一般社団法人住生活保全協会,,その他の設立登記法人,東京都,新宿区,西新宿３丁目３番１３号西新宿水間ビル２Ｆ,,13,104,1600023,,,,,,,2023-04-14,1,,,,,ジュウセイカツホゼンキョウカイ,0
2818,9011501029147,新規,0,2023-04-14,2023-04-14,株式会社Ｚｅｎ＆Ａｒｔ＆Ｂｕｓｉｎｅｓｓ,,株式会社,東京都,北区,浮間３丁目５番３８－１０２号,,13,117,1150051,,,,,,,2023-04-14,1,,,,,ゼンアンドアートアンドビジネス,0
2820,9011601026721,新規,0,2023-04-14,2023-04-14,株式会社三条,,株式会社,東京都,練馬区,上石神井２丁目１９番１４号,,13,120,1770044,,,,,,,2023-04-14,1,,,,,サンジョウ,0
2821,9011801042213,新規,0,2023-04-14,2023-04-14,株式会社ハーモニー,,株式会社,東京都,足立区,東綾瀬１丁目１４番４号３０１号,,13,121,1200004,,,,,,,2023-04-14,1,,,,,ハーモニー,0
2827,9012403005938,新規,0,2023-04-14,2023-04-14,合同会社ヒトグラム,,合同会社,東京都,稲城市,百村８８―１コートレミージュ稲城２０３,,13,225,2060804,,,,,,,2023-04-14,1,,,,,ヒトグラム,0
2829,9012703002676,新規,0,2023-04-14,2023-04-14,合同会社ＴＭＮ,,合同会社,東京都,西東京市,富士町６丁目２番１６ー２１３号リビオ東伏見公園,,13,229,2020014,,,,,,,2023-04-14,1,,,,,ティーエムエヌ,0
2830,9012801022270,新規,0,2023-04-14,2023-04-14,新宿ホワイトニング株式会社,,株式会社,東京都,日野市,石田２丁目１２番地の７,,13,212,1910021,,,,,,,2023-04-14,1,,,,,シンジュクホワイトニング,0
2831,9012801022287,新規,0,2023-04-14,2023-04-14,株式会社ＮＯＣＴＡ,,株式会社,東京都,立川市,高松町１丁目２８番６号,,13,202,1900011,,,,,,,2023-04-14,1,,,,,ノクタ,0
2845,9020001151113,新規,0,2023-04-14,2023-04-14,株式会社ＴＨＥＤＡＹ,,株式会社,神奈川県,川崎市高津区,北見方１丁目２３番２９－６１０号,,14,134,2130005,,,,,,,2023-04-14,1,,,,,ザデイ,0
2857,9021001078718,新規,0,2023-04-14,2023-04-14,株式会社ＡＥＲ,,株式会社,神奈川県,小田原市,南鴨宮３丁目１９番８号長田ビル１０１,,14,206,2500875,,,,,,,2023-04-14,1,,,,,アエル,0
2859,9021003012955,新規,0,2023-04-14,2023-04-14,合同会社吉正,,合同会社,神奈川県,相模原市緑区,原宿４丁目１５番１３号,,14,151,2520102,,,,,,,2023-04-14,1,,,,,ヨシマサ,0
2860,9021003012963,新規,0,2023-04-14,2023-04-14,合同会社ＭＥＴＥＬＹＫ,,合同会社,神奈川県,平塚市,代官町５－２,,14,203,2540807,,,,,,,2023-04-14,1,,,,,メテリック,0
2879,9030005021204,新規,0,2023-04-14,2023-04-14,医療法人社団友暖会,,その他の設立登記法人,埼玉県,さいたま市緑区,美園３丁目１０番地１３ＤＫＫ５ビル２階２０２,,11,109,3360967,,,,,,,2023-04-14,1,,,,,ユウダンカイ,0
2884,9040003022376,新規,0,2023-04-14,2023-04-14,合同会社あおば,,合同会社,千葉県,我孫子市,青山台４丁目２３番１５号,,12,222,2701175,,,,,,,2023-04-14,1,,,,,アオバ,0
2885,9040003022392,新規,0,2023-04-14,2023-04-14,ＳＳＴ合同会社,,合同会社,千葉県,千葉市中央区,院内１丁目５番９号,,12,101,2600018,,,,,,,2023-04-14,1,,,,,,0
2893,9050005013249,新規,0,2023-04-14,2023-04-14,医療法人あすなろ,,その他の設立登記法人,茨城県,那珂市,菅谷４３８４番地１,,08,226,3110105,,,,,,,2023-04-14,1,,,,,アスナロ,0
2901,9060001035865,新規,0,2023-04-14,2023-04-14,株式会社木村製作所,,株式会社,栃木県,足利市,福富町８９０番地１,,09,202,3260331,,,,,,,2023-04-14,1,,,,,キムラセイサクショ,0
2902,9060001035881,新規,0,2023-04-14,2023-04-14,中村電気株式会社,,株式会社,栃木県,小山市,大字粟宮１３９５番地２,,09,208,3290201,,,,,,,2023-04-14,1,,,,,ナカムラデンキ,0
2911,9100001036314,新規,0,2023-04-14,2023-04-14,株式会社よりそい,,株式会社,長野県,飯田市,育良町２丁目２２番地２,,20,205,3950152,,,,,,,2023-04-14,1,,,,,ヨリソイ,0
2912,9100001036322,新規,0,2023-04-14,2023-04-14,国土林業株式会社,,株式会社,長野県,諏訪市,大字中洲４４９７番地２サンハイムみずきＡ２０１,,20,206,3920015,,,,,,,2023-04-14,1,,,,,コクドリンギョウ,0
2917,9100005012996,新規,0,2023-04-14,2023-04-14,一般社団法人信飛トレイル準備委員会,,その他の設立登記法人,長野県,松本市,安曇４３０６番地,,20,202,3901520,,,,,,,2023-04-14,1,,,,,シンヒトレイルジュンビイインカイ,0
2920,9110001037435,新規,0,2023-04-14,2023-04-14,株式会社ＴＲウェーブ,,株式会社,新潟県,南魚沼市,坂戸２３１番地５,,15,226,9496611,,,,,,,2023-04-14,1,,,,,ティーアールウェーブ,0
2921,9110001037451,新規,0,2023-04-14,2023-04-14,株式会社グリム建築設計事務所,,株式会社,新潟県,新潟市中央区,東中通１番町２０１番地１トーカンマンション東中通１階,,15,103,9518116,,,,,,,2023-04-14,1,,,,,グリムケンチクセッケイジムショ,0
2930,9120001253923,新規,0,2023-04-14,2023-04-14,莎文株式会社,,株式会社,大阪府,大阪市西成区,千本北１丁目１０番２４号エリートパレス天下茶屋Ｉ２Ｆ,00130111,27,122,5570053,,,,,,,2023-04-14,1,,,,,サブン,0
2931,9120001253989,新規,0,2023-04-14,2023-04-14,株式会社フラン・ドール,,株式会社,大阪府,大阪市住吉区,大領４丁目１３番５号,,27,120,5580001,,,,,,,2023-04-14,1,,,,,フランドール,0
2932,9120001254013,新規,0,2023-04-14,2023-04-14,楽友株式会社,,株式会社,大阪府,大阪市生野区,生野東２丁目７番１６号,,27,116,5440025,,,,,,,2023-04-14,1,,,,,ラクユウ,0
2933,9120001254021,新規,0,2023-04-14,2023-04-14,株式会社ＯＰＴＩ．２,,株式会社,大阪府,大阪市淀川区,十八条２丁目１６番２３号,,27,123,5320001,,,,,,,2023-04-14,1,,,,,オプティツー,0
2934,9120001254062,新規,0,2023-04-14,2023-04-14,エコビレッジ株式会社,,株式会社,大阪府,大阪市西区,西本町２丁目３－６山岡ビル８階,,27,106,5500005,,,,,,,2023-04-14,1,,,,,エコビレッジ,0
2938,9120101067364,新規,0,2023-04-14,2023-04-14,株式会社Ｌｉｎｋｓ,,株式会社,大阪府,堺市西区,浜寺諏訪森町西２丁１６３番地１サンメゾン諏訪森３０５号,,27,144,5928347,,,,,,,2023-04-14,1,,,,,リンクス,0
2940,9120903004589,新規,0,2023-04-14,2023-04-14,合同会社ＨＡＫＡＬＩＺＡ,,合同会社,大阪府,豊中市,新千里西町２丁目２１番２１－８０６号,,27,203,5600083,,,,,,,2023-04-14,1,,,,,ハカリザ,0
2946,9130001074096,新規,0,2023-04-14,2023-04-14,株式会社Ｋ,,株式会社,京都府,京都市左京区,岩倉幡枝町２４３７番地,,26,103,6060015,,,,,,,2023-04-14,1,,,,,ケイ,0
2947,9130001074113,新規,0,2023-04-14,2023-04-14,美流株式会社,,株式会社,京都府,京都市西京区,御陵大原１番地３９京大桂ベンチャープラザ南館２１０７号室,,26,111,6158245,,,,,,,2023-04-14,1,,,,,ビリュウ,0
2952,9130005016747,新規,0,2023-04-14,2023-04-14,一般社団法人ＳＴＡＧＥ　ＵＰ協会,,その他の設立登記法人,京都府,京都市中京区,西洞院通押小路下る押西洞院町５９０番地５ライフプラザ烏丸御池６０１,,26,104,6040042,,,,,,,2023-04-14,1,,,,,ステージアップキョウカイ,0
2955,9140001129790,新規,0,2023-04-14,2023-04-14,ジンリン漢方株式会社,,株式会社,兵庫県,丹波篠山市,西町二丁目２番,,28,221,6692342,,,,,,,2023-04-14,1,,,,,ジンリンカンポウ,0
2974,9160001024981,新規,0,2023-04-14,2023-04-14,株式会社堀井電気工業所,,株式会社,滋賀県,大津市,仰木３丁目１３番７号,,25,201,5200247,,,,,,,2023-04-14,1,,,,,ホリイデンキコウギョウショ,0
2981,9180001155817,新規,0,2023-04-14,2023-04-14,豊和商事株式会社,,株式会社,愛知県,名古屋市中区,千代田３丁目２１番１０号プレサンスロジェ鶴舞６０１号,,23,106,4600012,,,,,,,2023-04-14,1,,,,,ホウワショウジ,0
2982,9180001155825,新規,0,2023-04-14,2023-04-14,株式会社ＬＩＮＸ,,株式会社,愛知県,名古屋市千種区,春岡１丁目１２番１５号,,23,101,4640848,,,,,,,2023-04-14,1,,,,,リンクス,0
2987,9180003025134,新規,0,2023-04-14,2023-04-14,アナハシエレクトロニクス合同会社,,合同会社,愛知県,名古屋市中区,栄２丁目１５番１４号ザ・グランアルト栄１２０３号,,23,106,4600008,,,,,,,2023-04-14,1,,,,,アナハシエレクトロニクス,0
2994,9190001030333,新規,0,2023-04-14,2023-04-14,株式会社ラシックデザイン,,株式会社,三重県,松阪市,船江町１１９番地２,,24,204,5150812,,,,,,,2023-04-14,1,,,,,ラシックデザイン,0
2995,9200001041196,新規,0,2023-04-14,2023-04-14,株式会社大野電設,,株式会社,岐阜県,岐阜市,本荘１９４１番地２２フレストアルファ本荘２０４号室,,21,201,5008389,,,,,,,2023-04-14,1,,,,,オオノデンセツ,0
3000,9240001061380,新規,0,2023-04-14,2023-04-14,株式会社ＡＫＵＳＨＵ,,株式会社,広島県,広島市安佐北区,可部町大字南原４３４番地１,,34,106,7310215,,,,,,,2023-04-14,1,,,,,アクシュ,0
3006,9260001037858,新規,0,2023-04-14,2023-04-14,株式会社Ｔ‐ｍａｒｔ,,株式会社,岡山県,岡山市北区,奉還町３丁目１７番５号,,33,101,7000026,,,,,,,2023-04-14,1,,,,,ティーマート,0
3007,9260001037866,新規,0,2023-04-14,2023-04-14,株式会社Ａｌｐｈａサービス,,株式会社,岡山県,岡山市中区,門田文化町３丁目６番１５号,,33,102,7038273,,,,,,,2023-04-14,1,,,,,アルファサービス,0
3008,9260001037874,新規,0,2023-04-14,2023-04-14,株式会社Ｓｃｅｎｔ,,株式会社,岡山県,岡山市中区,江並２９２番地８,,33,102,7028004,,,,,,,2023-04-14,1,,,,,セント,0
3016,9290001101173,新規,0,2023-04-14,2023-04-14,株式会社Ｒｅｂｏｒｎ　ＡｇｒｉＺｅｎ　ＫＹＵＳＨＵ,,株式会社,福岡県,福岡市中央区,今泉２丁目１－６０,,40,133,8100021,,,,,,,2023-04-14,1,,,,,リボーンアグリゼンキュウシュウ,0
3017,9290001101198,新規,0,2023-04-14,2023-04-14,株式会社シーク,,株式会社,福岡県,福岡市東区,香椎照葉７丁目４番２９号,,40,131,8130017,,,,,,,2023-04-14,1,,,,,シーク,0
3021,9290003013788,新規,0,2023-04-14,2023-04-14,合同会社友友,,合同会社,福岡県,福岡市早良区,田村７丁目１４番１６－１０３号ヒューマンガーデン安美Ｄ,,40,137,8140175,,,,,,,2023-04-14,1,,,,,,0
3023,9290803004391,新規,0,2023-04-14,2023-04-14,合同会社Ｔｏｕｒｎｅｙ,,合同会社,福岡県,宮若市,龍徳１８８‐４,,40,226,8230001,,,,,,,2023-04-14,1,,,,,ターニー,0
3026,9310001018365,新規,0,2023-04-14,2023-04-14,エフコレクション株式会社,,株式会社,長崎県,長崎市,上野町１７番１５号,,42,201,8528113,,,,,,,2023-04-14,1,,,,,エフコレクション,0
3028,9330001030772,新規,0,2023-04-14,2023-04-14,株式会社ココロクス,,株式会社,熊本県,熊本市中央区,下通１丁目３－８下通ＮＳビル６階,,43,101,8600807,,,,,,,2023-04-14,1,,,,,ココロクス,0
3029,9330001030780,新規,0,2023-04-14,2023-04-14,株式会社下田工務店,,株式会社,熊本県,合志市,上庄４５９番地,,43,216,8611111,,,,,,,2023-04-14,1,,,,,シモダコウムテン,0
3033,9330003009807,新規,0,2023-04-14,2023-04-14,合同会社クレインヤード,,合同会社,熊本県,熊本市北区,鶴羽田３丁目１５－９３,,43,105,8615517,,,,,,,2023-04-14,1,,,,,クレインヤード,0
3038,9340001025516,新規,0,2023-04-14,2023-04-14,株式会社もがみ,,株式会社,鹿児島県,鹿児島市,鴨池新町２８番１‐３０４号,,46,201,8900064,,,,,,,2023-04-14,1,,,,,モガミ,0
3043,9350001018287,新規,0,2023-04-14,2023-04-14,ＢＵＩＬＤ　ＣＯＮＮＥＣＴ株式会社,,株式会社,宮崎県,宮崎市,江南２丁目３２番７号,,45,201,8800944,,,,,,,2023-04-14,1,,,,,ビルドコネクト,0
3045,9360001031867,新規,0,2023-04-14,2023-04-14,株式会社ＡＨらいふ,,株式会社,沖縄県,那覇市,字小禄７８０番地５０３号室,,47,201,9010152,,,,,,,2023-04-14,1,,,,,エーエイチライフ,0
3047,9360003012849,新規,0,2023-04-14,2023-04-14,合同会社ｐｌａｇｅ,,合同会社,沖縄県,那覇市,首里崎山町４丁目３５－５,,47,201,9030814,,,,,,,2023-04-14,1,,,,,プラージュ,0
3055,9370001049842,新規,0,2023-04-14,2023-04-14,株式会社ｊａｃｋ,,株式会社,宮城県,仙台市宮城野区,福田町４丁目１０番２５号クレシア１０１,,04,102,9830023,,,,,,,2023-04-14,1,,,,,ジャック,0
3065,9380001033622,新規,0,2023-04-14,2023-04-14,株式会社サンセット,,株式会社,福島県,伊達市,保原町上保原字榎内１４番地,,07,213,9600684,,,,,,,2023-04-14,1,,,,,サンセット,0
3067,9380003005438,新規,0,2023-04-14,2023-04-14,合同会社ＦＡＳ,,合同会社,福島県,郡山市,日和田町字南原２番地２０９,,07,203,9630534,,,,,,,2023-04-14,1,,,,,ファズ,0
3068,9390001017228,新規,0,2023-04-14,2023-04-14,ヒスイ株式会社,,株式会社,山形県,寒河江市,大字谷沢７８１番地の１２,,06,206,9900521,,,,,,,2023-04-14,1,,,,,ヒスイ,0
3070,9390003002079,新規,0,2023-04-14,2023-04-14,合同会社ＭＩ．ｃａｐｉｔａｌ,,合同会社,山形県,天童市,東本町２丁目７番８号１階,,06,210,9940026,,,,,,,2023-04-14,1,,,,,エムアイキャピタル,0
3081,9430003014953,新規,0,2023-04-14,2023-04-14,合同会社Ａプロダクション,,合同会社,北海道,札幌市中央区,南六条西４丁目４番地３ＬＣ壱番館７階,,01,101,0640806,,,,,,,2023-04-14,1,,,,,エープロダクション,0
3083,9460003000950,新規,0,2023-04-14,2023-04-14,合同会社オリーブ,,合同会社,北海道,釧路市,栄町１２丁目３番地土井マンション第２　１階,,01,206,0850013,,,,,,,2023-04-14,1,,,,,オリーブ,0
3091,9700150115460,新規,0,2023-04-14,2023-04-14,Ｇｕａｎｇ　ｚｈｏｕ　ｂｅｉ　ｄｅ　ｍａｏ　ｙｉ　ｙｏｕ　ｘｉａｎ　ｇｏｎｇ　ｓｉ,,外国会社等,,,,,,,,ｇｕａｎｇ　ｙｕａｎ　ｘｉ　ｌｕ　ｇａｎｇ　ｔｏｕ　ｄａ　ｊｉｅ　ｊｉｕ　ｈａｏ　６１３　ｓｈｉ（Ｂｕ　ｗｅｉ：－１）ｙｕｅ　ｘｉｕ　ｑｕ／ｇｕａｎｇ　ｚｈｏｕ　ｓｈｉ　ｇｕａｎｇ　ｄｏｎｇ　ｓｈｅｎｇ　５１０４０３　ＣＮ,,,,,,2023-04-14,1,,,,,グワンジョウベイダーマオイーヨウシエンゴンスー,0
