sequenceNumber,corporateNumber,process,correct,updateDate,changeDate,name,nameImageId,kind,prefectureName,cityName,streetNumber,addressImageId,prefectureCode,cityCode,postCode,addressOutside,addressOutsideImageId,closeDate,closeCause,successorCorporateNumber,changeCause,assignmentDate,latest,enName,enPrefectureName,enCityName,enAddressOutside,furigana,hihyoji
11,1010003024597,登記記録の閉鎖等,0,2025-10-24,2025-10-14,合同会社ジャパンメディアプロダクツ,,合同会社,東京都,江東区,枝川２丁目１番１－４０４号,,13,108,1350051,,,2025-10-14,清算の結了等,,,2017-01-06,1,,,,,ジャパンメディアプロダクツ,0
12,1010003037938,登記記録の閉鎖等,0,2025-10-24,2025-10-07,合同会社Ｇｅｍｉｎｉ１,,合同会社,東京都,中央区,八丁堀４丁目２番１０号ＡＯＪ税理士法人内,,13,102,1040032,,,2025-10-07,清算の結了等,,,2022-06-21,1,,,,,ジェミニワン,0
20,1010403015931,登記記録の閉鎖等,0,2025-10-24,2025-09-24,ｓａｆｅｒａｙ　Ｇｉｆｕ３Ｈｏｌｄｉｎｇ合資会社,,合資会社,東京都,港区,虎ノ門５丁目１番５号,,13,103,1050001,,,2025-09-24,清算の結了等,,,2017-01-19,1,,,,,セーフレイギフスリーホールディング,0
25,1010502003259,登記記録の閉鎖等,0,2025-10-24,2025-10-15,有限会社樹樹,,有限会社,東京都,台東区,千束４丁目４０番１１号,,13,106,1110031,,,2025-10-15,清算の結了等,,,2015-10-05,1,,,,,ジュジュ,0
33,1010901006432,登記記録の閉鎖等,0,2025-10-24,2025-10-22,株式会社全生社,,株式会社,東京都,世田谷区,玉川２丁目９番１５号,,13,112,1580094,,,2025-10-22,合併による解散等,2012401009294,令和７年１０月１３日東京都狛江市元和泉二丁目１４番３号株式会社全生社（2012401009294）に合併し解散,2015-10-05,1,,,,,ゼンセイシャ,0
44,1011001142688,登記記録の閉鎖等,0,2025-10-24,2025-10-09,株式会社アクシス,,株式会社,東京都,千代田区,内幸町２丁目１番１号,,13,101,1000011,,,2025-10-09,合併による解散等,4010401082351,令和７年９月１日東京都港区六本木六丁目１０番１号株式会社メドレー（4010401082351）に合併し解散,2021-09-15,1,,,,,アクシス,0
62,1011101103409,登記記録の閉鎖等,0,2025-10-24,2025-09-08,株式会社アポロ,,株式会社,東京都,新宿区,荒木町１１－６７－４０２,,13,104,1600007,,,2025-09-08,清算の結了等,,,2023-06-28,1,,,,,アポロ,0
71,1011701016745,登記記録の閉鎖等,0,2025-10-24,2025-10-15,ハウスクリニック株式会社,,株式会社,東京都,江戸川区,中葛西８丁目７番１３号,,13,123,1340083,,,2025-10-15,清算の結了等,,,2015-10-05,1,,,,,ハウスクリニック,0
75,1012701012759,登記記録の閉鎖等,0,2025-10-24,2025-10-17,株式会社よしわら,,株式会社,東京都,板橋区,南常盤台１丁目１１－６,,13,119,1740072,,,2025-10-17,清算の結了等,,,2015-10-05,1,,,,,,0
77,1013103000732,登記記録の閉鎖等,0,2025-10-24,2025-10-20,合同会社オートライフセンター,,合同会社,東京都,羽村市,双葉町２丁目２０番４０号,,13,227,2050022,,,2025-10-20,清算の結了等,,,2016-12-20,1,,,,,オートライフセンター,0
79,1013301051164,登記記録の閉鎖等,0,2025-10-24,2025-10-14,ＰＯＲＴＭＡＮ経理事務所株式会社,,株式会社,東京都,豊島区,南大塚３丁目３４番４号,,13,116,1700005,,,2025-10-14,清算の結了等,,,2023-08-08,1,,,,,ポートマンケイリジムショ,0
81,1020001089889,登記記録の閉鎖等,0,2025-10-24,2025-10-02,スマートパワー株式会社,,株式会社,神奈川県,横浜市鶴見区,鶴見中央４丁目３３番１号,,14,101,2300051,,,2025-10-02,合併による解散等,2020001037946,令和７年１０月１日横浜市鶴見区鶴見中央四丁目３３番１号ナイス株式会社（2020001037946）に合併し解散,2015-10-05,1,,,,,スマートパワー,0
101,1030002098038,登記記録の閉鎖等,0,2025-10-24,2025-10-16,有限会社アモール,,有限会社,埼玉県,秩父郡東秩父村,大字奥沢６７番地,,11,369,3550373,,,2025-10-16,清算の結了等,,,2015-10-05,1,,,,,アモール,0
127,1060005001739,登記記録の閉鎖等,0,2025-10-24,2025-09-30,天理教北高根澤分教会,,その他の設立登記法人,栃木県,塩谷郡高根沢町,大字寺渡戸６１４番地２,,09,386,3291222,,,2025-09-30,合併による解散等,8060005000107,令和７年９月３０日栃木県宇都宮市北一の沢町２２番９号天理教宇都宮分教会（8060005000107）に合併し解散,2015-10-05,1,,,,,テンリキョウキタタカネザワブンキョウカイ,0
131,1070001023257,登記記録の閉鎖等,0,2025-10-24,2025-10-21,月夜野クラフトビール株式会社,,株式会社,群馬県,利根郡みなかみ町,後閑７６１番地１,,10,449,3791305,,,2025-10-21,清算の結了等,,,2015-10-05,1,,,,,ツキヨノクラフトビール,0
133,1080001019849,登記記録の閉鎖等,0,2025-10-24,2025-10-16,株式会社ながいきラボ,,株式会社,静岡県,静岡市葵区,上足洗３丁目１３番３０号,,22,101,4200841,,,2025-10-16,合併による解散等,4080003002668,令和７年１０月１日静岡県静岡市葵区西草深町４番１２号株式会社ウインダーランド（4080003002668）に合併し解散,2015-10-05,1,,,,,ナガイキラボ,0
135,1080003002976,登記記録の閉鎖等,0,2025-10-24,2025-10-17,ケーディーエス合同会社,,合同会社,静岡県,静岡市葵区,両替町２丁目４番地の５カリオビル１０１号室,,22,101,4200032,,,2025-10-17,清算の結了等,,,2023-05-08,1,,,,,ケーディーエス,0
143,1120001006132,登記記録の閉鎖等,0,2025-10-24,2025-10-20,ハートマン株式会社,,株式会社,大阪府,大阪市阿倍野区,昭和町５丁目１２番１７号,,27,119,5450011,,,2025-10-20,清算の結了等,,,2015-10-05,1,,,,,ハートマン,0
146,1120001104737,登記記録の閉鎖等,0,2025-10-24,2025-10-10,メディアウェア株式会社,,株式会社,大阪府,大阪市西区,新町１丁目２番１３号,,27,106,5500013,,,2025-10-10,清算の結了等,,,2015-10-05,1,,,,,メディアウェア,0
150,1120001224205,登記記録の閉鎖等,0,2025-10-24,2025-10-14,株式会社グリード,,株式会社,大阪府,堺市北区,百舌鳥赤畑町１丁１５－１－１１０４,,27,146,5918037,,,2025-10-14,清算の結了等,,,2019-10-03,1,,,,,グリード,0
152,1120001244896,登記記録の閉鎖等,0,2025-10-24,2025-10-14,株式会社オレンジルーム,,株式会社,大阪府,大阪市西区,南堀江１丁目１８番２７－１１０３号,,27,106,5500015,,,2025-10-14,清算の結了等,,,2022-04-06,1,,,,,オレンジルーム,0
182,1160002005195,登記記録の閉鎖等,0,2025-10-24,2025-10-20,トラベルジェイサービス有限会社,,有限会社,滋賀県,湖南市,針２２８番地１,,25,211,5203231,,,2025-10-20,清算の結了等,,,2015-10-05,1,,,,,トラベルジェイサービス,0
185,1180001009286,登記記録の閉鎖等,0,2025-10-24,2025-10-14,古川硝子株式会社,,株式会社,愛知県,名古屋市昭和区,広路通４丁目１番地,,23,107,4660854,,,2025-10-14,清算の結了等,,,2015-10-05,1,,,,,フルカワガラス,0
193,1180002056336,登記記録の閉鎖等,0,2025-10-24,2025-10-10,有限会社ＩＡコンサルタント,,有限会社,愛知県,名古屋市中区,丸の内２丁目１４番４号,,23,106,4600002,,,2025-10-10,清算の結了等,,,2015-10-05,1,,,,,アイエーコンサルタント,0
196,1180302013581,登記記録の閉鎖等,0,2025-10-24,2025-10-10,有限会社辻園芸,00075019,有限会社,愛知県,豊川市,御津町下佐脇新屋４５番地,,23,207,4410302,,,2025-10-10,清算の結了等,,,2015-10-05,1,,,,,ツジエンゲイ,0
199,1190005011584,登記記録の閉鎖等,0,2025-10-24,2025-10-15,一般社団法人熊野新道,,その他の設立登記法人,三重県,熊野市,井戸町８７５－３,,24,212,5194324,,,2025-10-15,清算の結了等,,,2021-07-07,1,,,,,クマノシンドウ,0
205,1280002005794,登記記録の閉鎖等,0,2025-10-24,2025-10-20,有限会社中尾電機工業所,,有限会社,島根県,出雲市,大津町２３２５番地１,,32,203,6930011,,,2025-10-20,清算の結了等,,,2015-10-05,1,,,,,ナカオデンキコウギョウショ,0
206,1290001100397,登記記録の閉鎖等,0,2025-10-24,2025-09-29,株式会社日本リメイク,,株式会社,福岡県,福岡市博多区,博多駅前３丁目２８番３号,,40,132,8120011,,,2025-09-29,清算の結了等,,,2023-01-31,1,,,,,ニホンリメイク,0
214,1330002020722,登記記録の閉鎖等,0,2025-10-24,2025-10-15,有限会社坂本アルミ建材,,有限会社,熊本県,上益城郡益城町,大字下陳４３２番地,,43,443,8612206,,,2025-10-15,清算の結了等,,,2015-10-05,1,,,,,サカモトアルミケンザイ,0
228,1390002009347,登記記録の閉鎖等,0,2025-10-24,2025-10-21,有限会社サンエス美粧,,有限会社,山形県,鶴岡市,城南町１６番２号,,06,203,9970814,,,2025-10-21,清算の結了等,,,2015-10-05,1,,,,,サンエスビショウ,0
231,1430001027452,登記記録の閉鎖等,0,2025-10-24,2025-10-22,株式会社味のかまぼこ高坂,,株式会社,北海道,札幌市西区,発寒十五条１丁目１番２０号,,01,107,0630835,,,2025-10-22,清算の結了等,,,2015-10-05,1,,,,,アジノカマボコタカサカ,0
273,2010402019362,登記記録の閉鎖等,0,2025-10-24,2025-10-15,有限会社芝浜食糧,,有限会社,東京都,港区,芝浦１丁目９番８号,,13,103,1050023,,,2025-10-15,清算の結了等,,,2015-10-05,1,,,,,シバハマショクリョウ,0
274,2010403033437,登記記録の閉鎖等,0,2025-10-24,2025-09-22,Ｗａｎｄｅｒｌｕｓｔｌｅ合同会社,,合同会社,東京都,港区,南青山３丁目１番３６号青山丸竹ビル６Ｆ,,13,103,1070062,,,2025-09-22,清算の結了等,,,2024-09-18,1,,,,,ワンダーラストル,0
275,2010405016902,登記記録の閉鎖等,0,2025-10-24,2025-10-21,一般社団法人アトランティックフロント,,その他の設立登記法人,東京都,中央区,新富１丁目８番２号,,13,102,1040041,,,2025-10-21,清算の結了等,,,2018-07-24,1,,,,,アトランティックフロント,0
280,2010503006359,登記記録の閉鎖等,0,2025-10-24,2025-10-06,Ｈｏｕｓｅ合同会社,,合同会社,東京都,中央区,新川１丁目２９－１１東映堂ビル４－５Ｆ,,13,102,1040033,,,2025-10-06,清算の結了等,,,2021-09-01,1,,,,,ハウス,0
305,2011401017472,登記記録の閉鎖等,0,2025-10-24,2025-10-17,株式会社イレブン,,株式会社,東京都,板橋区,大谷口北町７５番２号,,13,119,1730031,,,2025-10-17,清算の結了等,,,2015-10-05,1,,,,,,0
309,2011701025035,登記記録の閉鎖等,0,2025-10-24,2025-10-02,株式会社ｓａｉｌ,,株式会社,東京都,江戸川区,西葛西２丁目２２－４５－４４１号,,13,123,1340088,,,2025-10-02,清算の結了等,,,2022-02-07,1,,,,,セイル,0
313,2011802015059,登記記録の閉鎖等,0,2025-10-24,2025-10-21,有限会社大伸建工,,有限会社,東京都,足立区,椿２丁目２３番１号,,13,121,1230871,,,2025-10-21,清算の結了等,,,2015-10-05,1,,,,,ダイシンケンコウ,0
317,2013102005434,登記記録の閉鎖等,0,2025-10-24,2025-10-20,有限会社ＢＡＮシステム,,有限会社,東京都,あきる野市,原小宮２丁目７番地２４,,13,228,1970811,,,2025-10-20,清算の結了等,,,2015-10-05,1,,,,,,0
319,2013301006506,登記記録の閉鎖等,0,2025-10-24,2025-10-14,株式会社創源ソフトウエア,,株式会社,東京都,豊島区,東池袋３丁目２０番９号３０７号室,,13,116,1700013,,,2025-10-14,清算の結了等,,,2015-10-05,1,,,,,ソウゲンソフトウエア,0
320,2020001025810,登記記録の閉鎖等,0,2025-10-24,2025-10-09,株式会社河村,,株式会社,神奈川県,横浜市中区,伊勢佐木町３丁目９８番地オデヲンビル２階,,14,104,2310045,,,2025-10-09,清算の結了等,,,2015-10-05,1,,,,,カワムラ,0
322,2020001100150,登記記録の閉鎖等,0,2025-10-24,2025-10-06,日超オペレーション株式会社,,株式会社,神奈川県,横浜市磯子区,新磯子町３０番地８,,14,107,2350017,,,2025-10-06,合併による解散等,1020001003180,令和７年１０月１日横浜市磯子区新磯子町３０番地の３日本超低温株式会社（1020001003180）に合併し解散,2015-10-05,1,,,,,ニッチョウオペレーション,0
337,2021001024678,登記記録の閉鎖等,0,2025-10-24,2025-09-24,株式会社エージェント,,株式会社,東京都,渋谷区,桜丘町１０番１３号野元第一ビル３０２号,,13,113,1500031,,,2025-09-24,清算の結了等,,,2015-10-05,1,,,,,エージェント,0
354,2040001105817,登記記録の閉鎖等,0,2025-10-24,2025-10-14,姫田トラストマネジメント株式会社,,株式会社,東京都,墨田区,錦糸２丁目１４番３号,,13,107,1300013,,,2025-10-14,清算の結了等,,,2018-08-17,1,,,,,ヒメダトラストマネジメント,0
358,2040005021985,登記記録の閉鎖等,0,2025-10-24,2025-09-11,一般社団法人ｇｅｎｔｅ編集部,,その他の設立登記法人,千葉県,松戸市,上本郷３５４０番地,,12,207,2710064,,,2025-09-11,清算の結了等,,,2023-05-09,1,,,,,ヘンテヘンシュウブ,0
362,2050002009330,登記記録の閉鎖等,0,2025-10-24,2025-10-15,有限会社丸喜水産,,有限会社,茨城県,東茨城郡大洗町,五反田２１番地,,08,309,3111306,,,2025-10-15,清算の結了等,,,2015-10-05,1,,,,,マルキスイサン,0
375,2100001029290,登記記録の閉鎖等,0,2025-10-24,2025-10-20,ＪＶＧ株式会社,,株式会社,長野県,飯田市,鼎中平２５４２番地５,,20,205,3950801,,,2025-10-20,清算の結了等,,,2016-05-11,1,,,,,ジェイブイジー,0
379,2120001090613,登記記録の閉鎖等,0,2025-10-24,2025-10-20,株式会社宮本工務店,,株式会社,大阪府,大阪市中央区,上町１丁目１１番３号,,27,128,5400005,,,2025-10-20,清算の結了等,,,2015-10-05,1,,,,,ミヤモトコウムテン,0
380,2120001109561,登記記録の閉鎖等,0,2025-10-24,2025-10-20,株式会社永興建設,,株式会社,大阪府,大阪市港区,福崎１丁目１番６４号,,27,107,5520013,,,2025-10-20,清算の結了等,,,2015-10-05,1,,,,,エイコウケンセツ,0
420,2140001065076,登記記録の閉鎖等,0,2025-10-24,2025-09-29,卯城総合建築株式会社,,株式会社,兵庫県,姫路市,夢前町芦田２０３番地,00039911,28,201,6712133,,,2025-09-29,清算の結了等,,,2015-10-05,1,,,,,,0
433,2170001003181,登記記録の閉鎖等,0,2025-10-24,2025-10-23,株式会社ミソノフラワー,,株式会社,和歌山県,和歌山市,美園町５丁目４番地の１,,30,201,6408331,,,2025-10-23,清算の結了等,,,2015-10-05,1,,,,,ミソノフラワー,0
435,2180001001226,登記記録の閉鎖等,0,2025-10-24,2025-10-09,株式会社マリザ,,株式会社,愛知県,名古屋市守山区,新守町２４番地,,23,113,4630071,,,2025-10-09,清算の結了等,,,2015-10-05,1,,,,,マリザ,0
436,2180001005441,登記記録の閉鎖等,0,2025-10-24,2025-10-14,丸丹株式会社,,株式会社,愛知県,名古屋市天白区,大坪１丁目９０３番地の５,,23,116,4680072,,,2025-10-14,清算の結了等,,,2015-10-05,1,,,,,マルタン,0
442,2180002001489,登記記録の閉鎖等,0,2025-10-24,2025-10-14,有限会社マルタケ,,有限会社,愛知県,名古屋市北区,西志賀町２丁目６１番地２,,23,103,4620058,,,2025-10-14,清算の結了等,,,2015-10-05,1,,,,,マルタケ,0
443,2180003021313,登記記録の閉鎖等,0,2025-10-24,2025-10-01,合同会社恭や,,合同会社,愛知県,名古屋市熱田区,大宝４丁目１２番１４号,,23,109,4560062,,,2025-10-01,清算の結了等,,,2020-06-23,1,,,,,キョウヤ,0
448,2190001016561,登記記録の閉鎖等,0,2025-10-24,2025-10-07,名阪商事株式会社,,株式会社,三重県,三重郡川越町,大字亀崎新田５１番地１,,24,344,5108114,,,2025-10-07,合併による解散等,3190001016255,令和７年１０月１日三重県三重郡川越町大字亀崎新田５１番地１松岡建設株式会社（3190001016255）に合併し解散,2015-10-05,1,,,,,メイハンショウジ,0
449,2190001025975,登記記録の閉鎖等,0,2025-10-24,2025-10-03,株式会社フジテックス,,株式会社,三重県,名張市,朝日町１５０８番地３,,24,208,5180721,,,2025-10-03,合併による解散等,1190001021711,令和７年１０月１日三重県名張市朝日町１５０８番地３株式会社マサキ（1190001021711）に合併し解散,2018-11-06,1,,,,,フジテックス,0
454,2210002007680,登記記録の閉鎖等,0,2025-10-24,2025-10-20,有限会社五十嵐塗装店,,有限会社,福井県,福井市,新田塚２丁目１０２番１９号,,18,201,9100067,,,2025-10-20,清算の結了等,,,2015-10-05,1,,,,,イガラシトソウテン,0
467,2290001000282,登記記録の閉鎖等,0,2025-10-24,2025-09-02,松古堂印刷株式会社,,株式会社,福岡県,福岡市西区,周船寺３丁目２８番１号,,40,135,8190373,,,2025-09-02,合併による解散等,4290001000314,令和７年９月１日福岡市西区周船寺三丁目２８番１号株式会社スプリント（4290001000314）に合併し解散,2015-10-05,1,,,,,ショウコドウインサツ,0
478,2290801006834,登記記録の閉鎖等,0,2025-10-24,2025-10-20,株式会社ｅｓｔ,,株式会社,福岡県,北九州市小倉北区,京町３丁目１２番２６号,,40,106,8020002,,,2025-10-20,合併による解散等,1290801007016,令和７年１０月２０日北九州市小倉北区京町三丁目１２番２６号株式会社Ｂ．Ｉ．Ｃ．（1290801007016）に合併し解散,2015-10-05,1,,,,,エスト,0
481,2320002008957,登記記録の閉鎖等,0,2025-10-24,2025-10-21,晃陽興業有限会社,,有限会社,大分県,大分市,大字屋山宮尾２２２４番地,,44,201,8700313,,,2025-10-21,清算の結了等,,,2015-10-05,1,,,,,コウヨウコウギョウ,0
492,2340005003887,登記記録の閉鎖等,0,2025-10-24,2025-10-17,医療法人島田医院,,その他の設立登記法人,鹿児島県,薩摩郡さつま町,宮之城屋地１５３２番地１３,,46,392,8951803,,,2025-10-17,清算の結了等,,,2015-10-05,1,,,,,シマダイイン,0
495,2350005000149,登記記録の閉鎖等,0,2025-10-24,2025-10-17,一般社団法人宮崎県肉用牛枝肉価格安定基金協会,,その他の設立登記法人,宮崎県,宮崎市,霧島１丁目１番地１,,45,201,8800032,,,2025-10-17,清算の結了等,,,2015-10-05,1,,,,,ミヤザキケンニクヨウギュウエダニクカカクアンテイキキンキョウカイ,0
497,2350005004868,登記記録の閉鎖等,0,2025-10-24,2025-10-16,特定非営利活動法人Ｒａｉｎｂｏｗ　Ｔｒｅｅ,,その他の設立登記法人,宮崎県,串間市,大字市木２２３７番地,,45,207,8893311,,,2025-10-16,清算の結了等,,,2015-10-05,1,,,,,レインボーツリー,0
499,2360003000777,登記記録の閉鎖等,0,2025-10-24,2025-10-20,合同会社高良産業,00107211,合同会社,沖縄県,那覇市,牧志２丁目３番１２号シャトウＡＫＩ４０１,,47,201,9000013,,,2025-10-20,清算の結了等,,,2015-10-05,1,,,,,タカラサンギョウ,0
500,2360003008176,登記記録の閉鎖等,0,2025-10-24,2025-10-20,オリオン沖映合同会社,,合同会社,沖縄県,豊見城市,字豊崎１番地４１１,,47,212,9010225,,,2025-10-20,清算の結了等,,,2017-05-08,1,,,,,オリオンオキエイ,0
512,2420005005289,登記記録の閉鎖等,0,2025-10-24,2025-10-09,農事組合法人新屋肉牛生産組合,,その他の設立登記法人,青森県,平川市,新屋福島２６７番地,,02,210,0360121,,,2025-10-09,清算の結了等,,,2015-10-05,1,,,,,アラヤニクウシセイサンクミアイ,0
532,3010003031484,登記記録の閉鎖等,0,2025-10-24,2025-10-08,合同会社ＱＯＬ・ブリッジ３,,合同会社,東京都,中央区,日本橋室町４丁目３番１６号,,13,102,1030022,,,2025-10-08,清算の結了等,,,2020-01-21,1,,,,,キューオーエルブリッジスリー,0
544,3010403025516,登記記録の閉鎖等,0,2025-10-24,2025-09-22,ＴＭブレーン合同会社,,合同会社,東京都,港区,芝４丁目７番６号,,13,103,1080014,,,2025-09-22,清算の結了等,,,2021-06-15,1,,,,,ティーエムブレーン,0
549,3010601015120,登記記録の閉鎖等,0,2025-10-24,2025-10-15,福田設備工業株式会社,,株式会社,東京都,墨田区,本所１丁目１２番６号Ｔ２ビル１階,,13,107,1300004,,,2025-10-15,清算の結了等,,,2015-10-05,1,,,,,フクダセツビコウギョウ,0
558,3011001056358,登記記録の閉鎖等,0,2025-10-24,2025-10-09,アクシスルートホールディングス株式会社,,株式会社,東京都,千代田区,内幸町２丁目１番１号,,13,101,1000011,,,2025-10-09,合併による解散等,4010401082351,令和７年９月１日東京都港区六本木六丁目１０番１号株式会社メドレー（4010401082351）に合併し解散,2015-10-05,1,,,,,アクシスルートホールディングス,0
561,3011001103787,登記記録の閉鎖等,0,2025-10-24,2025-09-24,株式会社ＴＨＥ　ＵＬＴＩＭＡＴＥ　ＢＡＳＩＣ,,株式会社,東京都,渋谷区,神宮前６丁目２８番９号東武ビル６Ｆ,,13,113,1500001,,,2025-09-24,清算の結了等,,,2015-10-05,1,,,,,ザアルティメットベーシック,0
577,3011601003305,登記記録の閉鎖等,0,2025-10-24,2025-10-17,株式会社石神井計器製作所,,株式会社,東京都,練馬区,上石神井２丁目３１番２号,,13,120,1770044,,,2025-10-17,清算の結了等,,,2015-10-05,1,,,,,シャクジイケイキセイサクショ,0
582,3012405002526,登記記録の閉鎖等,0,2025-10-24,2025-10-14,特定非営利活動法人あすみ会,,その他の設立登記法人,東京都,府中市,若松町１丁目７番地の３３Ｋ＆Ｙ東府中ビル２階,,13,206,1830005,,,2025-10-14,清算の結了等,,,2015-10-05,1,,,,,アスミカイ,0
585,3013201002587,登記記録の閉鎖等,0,2025-10-24,2025-09-24,株式会社四孝商事,,株式会社,東京都,目黒区,自由が丘１丁目２２番１６号,,13,110,1520035,,,2025-09-24,清算の結了等,,,2015-10-05,1,,,,,シコウショウジ,0
588,3013302013756,登記記録の閉鎖等,0,2025-10-24,2025-10-14,有限会社テクノ東栄,,有限会社,東京都,豊島区,上池袋３丁目３５番１２号,,13,116,1700012,,,2025-10-14,清算の結了等,,,2015-10-05,1,,,,,テクノトウエイ,0
592,3020001123984,登記記録の閉鎖等,0,2025-10-24,2025-10-09,株式会社リーガルホーム,,株式会社,神奈川県,横浜市西区,北幸２丁目１０番２７号東武立野ビル１階,,14,103,2200004,,,2025-10-09,清算の結了等,,,2017-11-22,1,,,,,リーガルホーム,0
598,3020002022054,登記記録の閉鎖等,0,2025-10-24,2025-10-09,有限会社名倉商店,,有限会社,神奈川県,横浜市旭区,四季美台３５番地１１,,14,112,2410025,,,2025-10-09,清算の結了等,,,2015-10-05,1,,,,,ナグラショウテン,0
601,3020003027003,登記記録の閉鎖等,0,2025-10-24,2025-10-09,Ｍａｎｅｔ　Ｊａｐａｎ合同会社,,合同会社,神奈川県,川崎市中原区,下沼部１７７４番地,,14,133,2110011,,,2025-10-09,清算の結了等,,,2024-10-30,1,,,,,マネットジャパン,0
613,3030001129527,登記記録の閉鎖等,0,2025-10-24,2025-10-14,スマイル総研株式会社,,株式会社,埼玉県,さいたま市岩槻区,宮町２丁目１５番１１号,,11,110,3390065,,,2025-10-14,清算の結了等,,,2019-02-13,1,,,,,スマイルソウケン,0
617,3030002122398,登記記録の閉鎖等,0,2025-10-24,2025-09-22,有限会社若林製材所,,有限会社,東京都,港区,南青山２丁目２番１５号,,13,103,1070062,,,2025-09-22,清算の結了等,,,2015-10-05,1,,,,,ワカバヤシセイザイショ,0
625,3040002004538,登記記録の閉鎖等,0,2025-10-24,2025-09-25,有限会社サイダ,,有限会社,千葉県,千葉市若葉区,若松町３６１番地の２１０,,12,104,2640021,,,2025-09-25,清算の結了等,,,2015-10-05,1,,,,,サイダ,0
629,3040003014635,登記記録の閉鎖等,0,2025-10-24,2025-09-22,合同会社ｏｆｆｉｃｅ　ｍａｒｕ,,合同会社,東京都,港区,元麻布１丁目１番１８－３０６号,,13,103,1060046,,,2025-09-22,清算の結了等,,,2020-01-14,1,,,,,オフィスマル,0
637,3050002025120,登記記録の閉鎖等,0,2025-10-24,2025-10-15,有限会社Ｋｉｔｃｈｅｎフライパン,,有限会社,茨城県,古河市,高野南坪１８４９番地１,,08,204,3060214,,,2025-10-15,清算の結了等,,,2015-10-05,1,,,,,キッチンフライパン,0
638,3050003003315,登記記録の閉鎖等,0,2025-10-24,2025-10-16,合同会社たいよう,,合同会社,茨城県,つくば市,観音台１丁目３５番１９号,,08,220,3050856,,,2025-10-16,合併による解散等,5011103012216,令和７年８月２１日東京都杉並区阿佐谷南一丁目１番８号合同会社新宿中央不動産（5011103012216）に合併し解散,2016-06-14,1,,,,,タイヨウ,0
643,3080002014153,登記記録の閉鎖等,0,2025-10-24,2025-10-17,有限会社丸山不動産,,有限会社,静岡県,島田市,金谷代官町３３７５番地,,22,209,4280012,,,2025-10-17,清算の結了等,,,2015-10-05,1,,,,,マルヤマフドウサン,0
644,3080005001074,登記記録の閉鎖等,0,2025-10-24,2025-10-17,静岡市プロパンガス事業協同組合,,その他の設立登記法人,静岡県,静岡市葵区,川合３丁目１３番１号,,22,101,4200923,,,2025-10-17,清算の結了等,,,2015-10-05,1,,,,,シズオカシプロパンガス,0
653,3090005001643,登記記録の閉鎖等,0,2025-10-24,2025-10-17,特定非営利活動法人やまなし県民政策ネットワーク,,その他の設立登記法人,山梨県,甲府市,中央１丁目４番１０号,,19,201,4000032,,,2025-10-17,清算の結了等,,,2015-10-05,1,,,,,ヤマナシケンミンセイサクネットワーク,0
657,3100002033092,登記記録の閉鎖等,0,2025-10-24,2025-10-21,有限会社中山石材店,,有限会社,長野県,伊那市,西春近５８０３番地,,20,209,3994431,,,2025-10-21,清算の結了等,,,2015-10-05,1,,,,,ナカヤマセキザイテン,0
659,3100003004638,登記記録の閉鎖等,0,2025-10-24,2025-09-22,合同会社ザーズラック,,合同会社,東京都,港区,南青山２丁目２番１５号,,13,103,1070062,,,2025-09-22,清算の結了等,,,2017-03-31,1,Zazrak Corporation,,,,ザーズラック,0
662,3120001055961,登記記録の閉鎖等,0,2025-10-24,2025-10-20,株式会社昭和製作所,,株式会社,大阪府,大阪市淀川区,三国本町１丁目１４番２６号,,27,123,5320005,,,2025-10-20,清算の結了等,,,2015-10-05,1,,,,,ショウワセイサクショ,0
687,3120103002093,登記記録の閉鎖等,0,2025-10-24,2025-10-10,合名会社ミルリーフ,,合名会社,大阪府,堺市西区,浜寺元町２丁１５７－３０５号,,27,144,5928343,,,2025-10-10,清算の結了等,,,2015-10-05,1,,,,,,0
699,3140002001426,登記記録の閉鎖等,0,2025-10-24,2025-10-16,有限会社鏡三,,有限会社,兵庫県,神戸市東灘区,田中町３丁目８番１５号,,28,101,6580081,,,2025-10-16,合併による解散等,7140001000953,令和７年１０月１５日神戸市東灘区甲南町一丁目４番５号株式会社アキヅキ（7140001000953）に合併し解散,2015-10-05,1,,,,,キョウゾウ,0
705,3180001149832,登記記録の閉鎖等,0,2025-10-24,2025-10-09,エイチエーエナジー株式会社,,株式会社,愛知県,名古屋市北区,光音寺町字野方１９０７番地の１４９（オアシス第２ビル１０１号）,,23,103,4620053,,,2025-10-09,清算の結了等,,,2022-02-07,1,,,,,エイチエーエナジー,0
710,3180002036591,登記記録の閉鎖等,0,2025-10-24,2025-10-14,有限会社三渡ゴム,,有限会社,愛知県,名古屋市緑区,大高町字北関山２７番地の２,,23,114,4598001,,,2025-10-14,清算の結了等,,,2015-10-05,1,,,,,ミツワタゴム,0
711,3180002046194,登記記録の閉鎖等,0,2025-10-24,2025-10-14,有限会社エヌツー,,有限会社,愛知県,名古屋市千種区,今池南８番２号,,23,101,4640851,,,2025-10-14,清算の結了等,,,2015-10-05,1,,,,,エヌツー,0
713,3180003010331,登記記録の閉鎖等,0,2025-10-24,2025-10-14,合資会社余語紙器,,合資会社,愛知県,小牧市,大字林１６３２番地,,23,219,4850805,,,2025-10-14,清算の結了等,,,2015-10-05,1,,,,,,0
714,3180003020801,登記記録の閉鎖等,0,2025-10-24,2025-10-10,合同会社ｎｏｉ,,合同会社,愛知県,名古屋市東区,東桜１丁目１０番３６号,,23,102,4610005,,,2025-10-10,清算の結了等,,,2020-01-29,1,,,,,ノイ,0
722,3220001018116,登記記録の閉鎖等,0,2025-10-24,2025-10-22,株式会社Ｇ－ＴＥｘ,,株式会社,石川県,河北郡津幡町,字能瀬ハ９４番地５,,17,361,9290319,,,2025-10-22,清算の結了等,,,2015-10-05,1,,,,,,0
748,3310002013957,登記記録の閉鎖等,0,2025-10-24,2025-10-23,有限会社山住,,有限会社,長崎県,佐世保市,福石町１５番２号,,42,202,8570854,,,2025-10-23,清算の結了等,,,2015-10-05,1,,,,,ヤマジュウ,0
750,3330001001804,登記記録の閉鎖等,0,2025-10-24,2025-10-17,デイリィサポート株式会社,,株式会社,熊本県,熊本市南区,平田２丁目１２番２０号,,43,104,8600826,,,2025-10-17,合併による解散等,9310001000026,令和７年１０月１日長崎市興善町６番７号アイティーアイ株式会社（9310001000026）に合併し解散,2015-10-05,1,,,,,デイリィサポート,0
755,3350002002452,登記記録の閉鎖等,0,2025-10-24,2025-10-17,有限会社住吉鉄工,,有限会社,宮崎県,宮崎市,大字島之内１０１９９番地２,,45,201,8800121,,,2025-10-17,清算の結了等,,,2015-10-05,1,,,,,スミヨシテッコウ,0
771,3430001044041,登記記録の閉鎖等,0,2025-10-24,2025-10-10,株式会社丸竹竹内金物店,,株式会社,北海道,千歳市,錦町１丁目４番地,,01,224,0660064,,,2025-10-10,清算の結了等,,,2015-10-05,1,,,,,マルタケタケウチカナモノテン,0
772,3430001062811,登記記録の閉鎖等,0,2025-10-24,2025-10-09,アクシスイノベーション株式会社,,株式会社,東京都,千代田区,内幸町２丁目１番１号,,13,101,1000011,,,2025-10-09,合併による解散等,4010401082351,令和７年９月１日東京都港区六本木六丁目１０番１号株式会社メドレー（4010401082351）に合併し解散,2015-10-05,1,,,,,アクシスイノベーション,0
776,3430002051788,登記記録の閉鎖等,0,2025-10-24,2025-10-14,有限会社岩本商事,,有限会社,北海道,滝川市,泉町１丁目１２番１５号,,01,225,0730042,,,2025-10-14,清算の結了等,,,2015-10-05,1,,,,,イワモトショウジ,0
783,3460302005169,登記記録の閉鎖等,0,2025-10-24,2025-10-20,有限会社きた鳥,,有限会社,北海道,網走市,南三条西１丁目１１番地の２,,01,211,0930013,,,2025-10-20,清算の結了等,,,2015-10-05,1,,,,,キタトリ,0
794,3500002009639,登記記録の閉鎖等,0,2025-10-24,2025-10-21,有限会社伊予かわら,,有限会社,愛媛県,松山市,中村４丁目１３番７号,,38,201,7900964,,,2025-10-21,清算の結了等,,,2015-10-05,1,,,,,イヨカワラ,0
795,3500005002137,登記記録の閉鎖等,0,2025-10-24,2025-10-22,医療法人おはら歯科医院,,その他の設立登記法人,愛媛県,松山市,保免中２丁目２番１４号,,38,201,7900042,,,2025-10-22,清算の結了等,,,2015-10-05,1,,,,,オハラシカイイン,0
804,4010001238411,登記記録の閉鎖等,0,2025-10-24,2025-10-08,株式会社グルス,,株式会社,東京都,中央区,東日本橋１丁目６番１２－４０４号,,13,102,1030004,,,2025-10-08,清算の結了等,,,2023-09-13,1,,,,,グルス,0
817,4010005035747,登記記録の閉鎖等,0,2025-10-24,2025-10-21,一般社団法人施設環境評価機構,,その他の設立登記法人,東京都,千代田区,五番町６番地２,,13,101,1020076,,,2025-10-21,清算の結了等,,,2022-11-04,1,,,,,シセツカンキョウヒョウカキコウ,0
820,4010401078647,登記記録の閉鎖等,0,2025-10-24,2025-09-22,株式会社ジーンアンドフレッド,,株式会社,東京都,港区,麻布台３丁目１番４号第二妹尾ビル３階,,13,103,1060041,,,2025-09-22,清算の結了等,,,2015-10-05,1,,,,,ジーンアンドフレッド,0
821,4010401090032,登記記録の閉鎖等,0,2025-10-24,2025-10-21,昭和ＫＤＥ株式会社,,株式会社,東京都,品川区,東五反田１丁目２番３３号,,13,109,1410022,,,2025-10-21,合併による解散等,4010001253245,令和７年１０月１日東京都千代田区大手町一丁目５番１号昭和ＫＤＥ株式会社（4010001253245）に合併し解散,2015-10-05,1,,,,,ショウワケーディーイー,0
822,4010401119335,登記記録の閉鎖等,0,2025-10-24,2025-09-22,株式会社ＢｉｚＩｍｐ,,株式会社,東京都,渋谷区,道玄坂１丁目１０番８号渋谷道玄坂東急ビル２Ｆ－Ｃ,,13,113,1500043,,,2025-09-22,清算の結了等,,,2015-10-05,1,,,,,ビズインプ,0
831,4010405023558,登記記録の閉鎖等,0,2025-10-24,2025-09-24,一般社団法人笛吹蓄電所,,その他の設立登記法人,東京都,港区,元赤坂１丁目１番８号赤坂コミュニティビル４階,,13,103,1070051,,,2025-09-24,清算の結了等,,,2024-09-05,1,,,,,フエフキチクデンジョ,0
834,4010601015391,登記記録の閉鎖等,0,2025-10-24,2025-10-14,丸吉株式会社,,株式会社,東京都,墨田区,立花４丁目３５番８号,,13,107,1310043,,,2025-10-14,清算の結了等,,,2015-10-05,1,,,,,マルヨシ,0
836,4010601053813,登記記録の閉鎖等,0,2025-10-24,2025-10-10,株式会社大同ビジネスサービス,,株式会社,東京都,江東区,福住１丁目９番７号,,13,108,1350032,,,2025-10-10,清算の結了等,,,2018-08-24,1,,,,,ダイドウビジネスサービス,0
903,4030002007862,登記記録の閉鎖等,0,2025-10-24,2025-10-15,有限会社セヤスクリーン工業,,有限会社,埼玉県,さいたま市北区,吉野町１丁目４１０番地２１,,11,102,3310811,,,2025-10-15,清算の結了等,,,2015-10-05,1,,,,,セヤスクリーンコウギョウ,0
913,4040001091320,登記記録の閉鎖等,0,2025-10-24,2025-09-22,ＡＶＡＮＴＩ株式会社,,株式会社,千葉県,松戸市,新松戸２丁目３６番地１,,12,207,2700034,,,2025-09-22,清算の結了等,,,2015-10-05,1,,,,,アヴァンティ,0
927,4080101025091,登記記録の閉鎖等,0,2025-10-24,2025-10-20,グルカ人材派遣株式会社,,株式会社,静岡県,伊東市,八幡野１３５５番地の４１,,22,208,4130232,,,2025-10-20,清算の結了等,,,2024-10-25,1,,,,,グルカジンザイハケン,0
928,4080102011611,登記記録の閉鎖等,0,2025-10-24,2025-10-20,有限会社松坂建設,,有限会社,静岡県,三島市,佐野見晴台２丁目１４番１５,,22,206,4110041,,,2025-10-20,清算の結了等,,,2015-10-05,1,,,,,マツザカケンセツ,0
929,4080401026426,登記記録の閉鎖等,0,2025-10-24,2025-10-16,株式会社オクトアビリティ,,株式会社,静岡県,浜松市中央区,早出町１２５３－２マールウエスト１０２号室,,22,138,4350054,,,2025-10-16,清算の結了等,,,2023-04-11,1,,,,,オクトアビリティ,0
932,4100001020867,登記記録の閉鎖等,0,2025-10-24,2025-10-16,株式会社ビィー・アイ・ジィー,,株式会社,長野県,伊那市,東春近５４９番地３,,20,209,3994432,,,2025-10-16,清算の結了等,,,2015-10-05,1,,,,,ビィーアイジィー,0
934,4100003006146,登記記録の閉鎖等,0,2025-10-24,2025-10-22,合同会社トータルワーク長野,,合同会社,長野県,塩尻市,大字下西条１６番地,,20,215,3990726,,,2025-10-22,清算の結了等,,,2021-06-29,1,,,,,トータルワークナガノ,0
979,4140001114392,登記記録の閉鎖等,0,2025-10-24,2025-10-16,株式会社ｓａｋｕ－Ｌｉｎｅ,,株式会社,兵庫県,芦屋市,山芦屋町１１番２０号,00127155,28,206,6590082,,,2025-10-16,清算の結了等,,,2019-07-25,1,,,,,サクライン,0
983,4140002049274,登記記録の閉鎖等,0,2025-10-24,2025-10-17,有限会社相互製作所,,有限会社,兵庫県,姫路市,大津区吉美６４６番地,,28,201,6711133,,,2025-10-17,清算の結了等,,,2015-10-05,1,,,,,ソウゴセイサクショ,0
988,4150001006127,登記記録の閉鎖等,0,2025-10-24,2025-10-21,株式会社まどか,,株式会社,奈良県,大和郡山市,小泉町９１８番地,,29,203,6391042,,,2025-10-21,清算の結了等,,,2015-10-05,1,,,,,マドカ,0
992,4180001082165,登記記録の閉鎖等,0,2025-10-24,2025-10-10,イワオサービス株式会社,,株式会社,愛知県,一宮市,三ツ井５丁目２１番６号,,23,203,4910827,,,2025-10-10,清算の結了等,,,2015-10-05,1,,,,,イワオサービス,0
999,4180002079276,登記記録の閉鎖等,0,2025-10-24,2025-10-10,有限会社イワリョウ鉄筋,,有限会社,愛知県,一宮市,木曽川町玉ノ井字新屋敷三ノ切３９番地２,,23,203,4930004,,,2025-10-10,清算の結了等,,,2015-10-05,1,,,,,イワリョウテッキン,0
1005,4180302002177,登記記録の閉鎖等,0,2025-10-24,2025-10-10,有限会社ホウセー,,有限会社,愛知県,長久手市,岩作三ケ峯３１番地２,,23,238,4801103,,,2025-10-10,清算の結了等,,,2015-10-05,1,,,,,ホウセー,0
1007,4210001012531,登記記録の閉鎖等,0,2025-10-24,2025-10-20,とんぼふぁーむ株式会社,,株式会社,福井県,越前市,家久町１０７号３番地３,,18,209,9150801,,,2025-10-20,清算の結了等,,,2015-10-05,1,,,,,トンボファーム,0
1009,4220002003066,登記記録の閉鎖等,0,2025-10-24,2025-10-22,有限会社新谷商店,,有限会社,石川県,金沢市,森山１丁目３０番２０号,,17,201,9200843,,,2025-10-22,清算の結了等,,,2015-10-05,1,,,,,,0
1019,4290001093515,登記記録の閉鎖等,0,2025-10-24,2025-10-03,株式会社フラット・クラフト,,株式会社,福岡県,福岡市中央区,大手門１丁目４番７号,,40,133,8100074,,,2025-10-03,合併による解散等,5290001023017,令和７年１０月１日福岡市中央区大手門一丁目４番７号新日本製薬株式会社（5290001023017）に合併し解散,2021-06-15,1,,,,,フラットクラフト,0
1036,4320003002775,登記記録の閉鎖等,0,2025-10-24,2025-10-16,合同会社しろくま工業,,合同会社,大分県,佐伯市,米水津大字宮野浦３８４番地,,44,205,8761403,,,2025-10-16,清算の結了等,,,2018-04-11,1,,,,,シロクマコウギョウ,0
1037,4330001018211,登記記録の閉鎖等,0,2025-10-24,2025-10-07,株式会社亜州総研,,株式会社,熊本県,熊本市中央区,本荘５丁目２番１６号,,43,101,8600811,,,2025-10-07,清算の結了等,,,2015-10-05,1,,,,,アシュウソウケン,0
1042,4340002019257,登記記録の閉鎖等,0,2025-10-24,2025-10-17,大洋ビル有限会社,,有限会社,鹿児島県,西之表市,西之表１３５８９番地３,,46,213,8913101,,,2025-10-17,清算の結了等,,,2015-10-05,1,,,,,タイヨウビル,0
1045,4360003005898,登記記録の閉鎖等,0,2025-10-24,2025-10-20,株式会社クリーンプラネット,,株式会社,沖縄県,豊見城市,字豊見城４７１番地２,,47,212,9010241,,,2025-10-20,清算の結了等,,,2015-10-05,1,,,,,,0
1048,4370001045565,登記記録の閉鎖等,0,2025-10-24,2025-10-08,ＪＯＭＯＮ株式会社,,株式会社,宮城県,仙台市青葉区,西花苑２丁目１４番２８号,,04,101,9893162,,,2025-10-08,清算の結了等,,,2020-03-24,1,,,,,ジョーモン,0
1050,4380002016804,登記記録の閉鎖等,0,2025-10-24,2025-10-10,Ｌ物流有限会社,,有限会社,福島県,安達郡大玉村,玉井字名倉３８番地１,,07,322,9691302,,,2025-10-10,清算の結了等,,,2015-10-05,1,,,,,エルブツリュウ,0
1065,4460301005020,登記記録の閉鎖等,0,2025-10-24,2025-10-22,ライフ・ワン株式会社,,株式会社,北海道,北見市,無加川町４００番地２２,,01,208,0900825,,,2025-10-22,清算の結了等,,,2021-12-03,1,,,,,ライフワン,0
1105,5010803004233,登記記録の閉鎖等,0,2025-10-24,2025-10-14,合同会社せとうち企画,,合同会社,東京都,大田区,山王２丁目５番６号山王ブリッジ５階４５号室,,13,111,1430023,,,2025-10-14,清算の結了等,,,2022-07-21,1,,,,,セトウチキカク,0
1106,5010901018572,登記記録の閉鎖等,0,2025-10-24,2025-10-22,株式会社Ｎ計画研究室,,株式会社,東京都,世田谷区,砧８丁目２番３号,,13,112,1570073,,,2025-10-22,清算の結了等,,,2015-10-05,1,,,,,エヌケイカクケンキュウシツ,0
1127,5011501017270,登記記録の閉鎖等,0,2025-10-24,2025-10-21,株式会社光輝,,株式会社,東京都,北区,豊島１丁目１９番９－３０１号,,13,117,1140003,,,2025-10-21,清算の結了等,,,2015-10-05,1,,,,,コウキ,0
1132,5011702014455,登記記録の閉鎖等,0,2025-10-24,2025-10-14,有限会社オーツークリエイト,,有限会社,東京都,江戸川区,松江７丁目１３番６号,,13,123,1320025,,,2025-10-14,清算の結了等,,,2015-10-05,1,,,,,オーツークリエイト,0
1136,5012702009511,登記記録の閉鎖等,0,2025-10-24,2025-10-17,有限会社ヴェルデメディカル,,有限会社,東京都,小平市,学園東町１丁目３番１１号,,13,211,1870043,,,2025-10-17,清算の結了等,,,2015-10-05,1,,,,,ヴェルデメディカル,0
1137,5013301049915,登記記録の閉鎖等,0,2025-10-24,2025-10-10,株式会社後藤塗装工業,,株式会社,東京都,豊島区,池袋２丁目６９番３号メゾン王城４０２号,,13,116,1710014,,,2025-10-10,清算の結了等,,,2022-11-21,1,,,,,ゴトウトソウコウギョウ,0
1138,5020001001560,登記記録の閉鎖等,0,2025-10-24,2025-09-30,遠山不動産株式会社,,株式会社,神奈川県,横浜市瀬谷区,瀬谷５丁目１５番地の１石関ビル１０１号,,14,114,2460031,,,2025-09-30,清算の結了等,,,2015-10-05,1,,,,,トウヤマフドウサン,0
1159,5021001023867,登記記録の閉鎖等,0,2025-10-24,2025-10-09,株式会社アド・エーゼット,,株式会社,神奈川県,川崎市多摩区,宿河原２丁目３４番８号,,14,135,2140021,,,2025-10-09,清算の結了等,,,2015-10-05,1,,,,,アドエーゼット,0
1179,5040002004783,登記記録の閉鎖等,0,2025-10-24,2025-09-22,有限会社三信,,有限会社,千葉県,千葉市花見川区,こてはし台１丁目２番１１号,,12,102,2620005,,,2025-09-22,清算の結了等,,,2015-10-05,1,,,,,サンシン,0
1187,5080001004814,登記記録の閉鎖等,0,2025-10-24,2025-10-17,株式会社マスシン,,株式会社,静岡県,静岡市駿河区,富士見台３丁目１番１５－２号,,22,102,4228026,,,2025-10-17,清算の結了等,,,2015-10-05,1,,,,,マスシン,0
1189,5080002015125,登記記録の閉鎖等,0,2025-10-24,2025-10-17,有限会社コーヨー,,有限会社,静岡県,牧之原市,細江５８１２番地３,,22,226,4210421,,,2025-10-17,清算の結了等,,,2015-10-05,1,,,,,コーヨー,0
1198,5100005001037,登記記録の閉鎖等,0,2025-10-24,2025-09-24,釈尊寺,,その他の設立登記法人,長野県,上水内郡信濃町,大字大井２５７番地,,20,583,3891316,,,2025-09-24,合併による解散等,6100005001052,令和７年９月２４日長野県上水内郡信濃町大字大井９４１番地宗教法人貞林寺（6100005001052）に合併し解散,2015-10-05,1,,,,,シャクソンジ,0
1216,5120901019907,登記記録の閉鎖等,0,2025-10-24,2025-10-03,富士興産株式会社,,株式会社,大阪府,池田市,満寿美町１番１１号,,27,204,5630041,,,2025-10-03,清算の結了等,,,2025-09-02,1,,,,,フジコウサン,0
1226,5130002013081,登記記録の閉鎖等,0,2025-10-24,2025-10-10,有限会社アーキファイブ建築設計工房,,有限会社,京都府,京都市伏見区,東奉行町１番地桃山グランドハイツ１１３号,,26,109,6128105,,,2025-10-10,清算の結了等,,,2015-10-05,1,,,,,アーキファイブケンチクセッケイコウボウ,0
1243,5180001001875,登記記録の閉鎖等,0,2025-10-24,2025-10-09,株式会社玉進,,株式会社,愛知県,名古屋市名東区,陸前町２６番地,,23,115,4650057,,,2025-10-09,清算の結了等,,,2015-10-05,1,,,,,ギョクシン,0
1244,5180001010323,登記記録の閉鎖等,0,2025-10-24,2025-10-10,シティ・トラベル株式会社,,株式会社,愛知県,名古屋市緑区,相川３丁目２４０番地の２,,23,114,4580011,,,2025-10-10,清算の結了等,,,2015-10-05,1,,,,,シティトラベル,0
1255,5180003011856,登記記録の閉鎖等,0,2025-10-24,2025-10-08,合名会社三楽,,合名会社,愛知県,一宮市,本町２丁目１番２８号,,23,203,4910859,,,2025-10-08,清算の結了等,,,2015-10-05,1,,,,,サンラク,0
1262,5190001025213,登記記録の閉鎖等,0,2025-10-24,2025-10-15,株式会社伊勢アカウンティングサービス,,株式会社,三重県,伊勢市,二俣２丁目４番２１号,,24,203,5160064,,,2025-10-15,清算の結了等,,,2018-01-11,1,,,,,イセアカウンティングサービス,0
1268,5250002007798,登記記録の閉鎖等,0,2025-10-24,2025-10-22,有限会社ワールド観光,,有限会社,山口県,美祢市,秋芳町秋吉２７７２番地１,,35,213,7540511,,,2025-10-22,清算の結了等,,,2015-10-05,1,,,,,ワールドカンコウ,0
1270,5260002001404,登記記録の閉鎖等,0,2025-10-24,2025-10-17,有限会社エスペェランサ,,有限会社,岡山県,岡山市北区,津島笹が瀬３番１６－５号,,33,101,7000088,,,2025-10-17,清算の結了等,,,2015-10-05,1,,,,,エスペェランサ,0
1313,5430003017778,登記記録の閉鎖等,0,2025-10-24,2025-10-09,合同会社ライジングノース,,合同会社,北海道,札幌市中央区,南五条西１５丁目２－３－５０３,,01,101,0640805,,,2025-10-09,清算の結了等,,,2025-06-17,1,,,,,ライジングノース,0
1320,6010001226141,登記記録の閉鎖等,0,2025-10-24,2025-10-14,株式会社Ｑｕｅｃｔｏ,,株式会社,東京都,墨田区,江東橋４丁目２７番１４号,,13,107,1300022,,,2025-10-14,清算の結了等,,,2022-04-27,1,,,,,クエクト,0
1345,6010401184807,登記記録の閉鎖等,0,2025-10-24,2025-09-22,株式会社ＷＡＶＥＮＥＴ　ＭＡＲＭＯＴ　ＪＡＰＡＮ,,株式会社,東京都,港区,赤坂６丁目９番１７号赤坂メープルヒル４階,,13,103,1070052,,,2025-09-22,清算の結了等,,,2024-08-29,1,,,,,ウェーブネットマーモットジャパン,0
1351,6010601046526,登記記録の閉鎖等,0,2025-10-24,2025-10-15,株式会社セオコンプ,,株式会社,東京都,江東区,白河１丁目３番３３号,,13,108,1350021,,,2025-10-15,清算の結了等,,,2015-10-05,1,,,,,セオコンプ,0
1353,6010701038893,登記記録の閉鎖等,0,2025-10-24,2025-10-16,株式会社アレスコ,,株式会社,東京都,品川区,東五反田５丁目８番８－４０２号,,13,109,1410022,,,2025-10-16,清算の結了等,,,2020-02-13,1,,,,,アレスコ,0
1373,6011003008874,登記記録の閉鎖等,0,2025-10-24,2025-09-25,インカミール合同会社,,合同会社,東京都,渋谷区,渋谷３丁目１番９号ＹＡＺＡＷＡビルＵＣＦ３階,,13,113,1500002,,,2025-09-25,清算の結了等,,,2018-06-13,1,,,,,インカミール,0
1383,6011201000666,登記記録の閉鎖等,0,2025-10-24,2025-10-16,株式会社エイシックス・プロ,,株式会社,東京都,中野区,中野１丁目３０番１号,,13,114,1640001,,,2025-10-16,清算の結了等,,,2015-10-05,1,,,,,エイシックスプロ,0
1396,6011801034031,登記記録の閉鎖等,0,2025-10-24,2025-10-20,株式会社太熊,,株式会社,東京都,葛飾区,高砂３丁目１７番１６号グレースハイム１階,,13,122,1250054,,,2025-10-20,清算の結了等,,,2017-11-07,1,,,,,オオグマ,0
1403,6013301029544,登記記録の閉鎖等,0,2025-10-24,2025-10-09,株式会社ビプロ,,株式会社,東京都,豊島区,南大塚２丁目１１番１０号ミモザビル３Ｆ,,13,116,1700005,,,2025-10-09,清算の結了等,,,2015-10-05,1,,,,,ビプロ,0
1420,6020002033932,登記記録の閉鎖等,0,2025-10-24,2025-10-10,有限会社サン美容室,,有限会社,神奈川県,横浜市港北区,篠原東２丁目１番２号,,14,109,2220022,,,2025-10-10,清算の結了等,,,2015-10-05,1,,,,,サンビヨウシツ,0
1428,6030001036811,登記記録の閉鎖等,0,2025-10-24,2025-10-10,大松興業不動産株式会社,,株式会社,埼玉県,三郷市,鷹野５丁目３９２番地,,11,237,3410035,,,2025-10-10,清算の結了等,,,2015-10-05,1,,,,,ダイマツコウギョウフドウサン,0
1438,6030002060827,登記記録の閉鎖等,0,2025-10-24,2025-10-17,有限会社大森製作所,,有限会社,埼玉県,新座市,野火止６丁目１１番４９号,,11,230,3520011,,,2025-10-17,清算の結了等,,,2015-10-05,1,,,,,オオモリセイサクショ,0
1449,6040003025877,登記記録の閉鎖等,0,2025-10-24,2025-09-22,かつうらＢＣ合同会社,,合同会社,千葉県,勝浦市,勝浦１５４番地,,12,218,2995234,,,2025-09-22,清算の結了等,,,2024-10-04,1,,,,,カツウラビーシー,0
1451,6050001011564,登記記録の閉鎖等,0,2025-10-24,2025-10-14,常洋建設工業株式会社,,株式会社,茨城県,石岡市,柿岡２２６１番地１,,08,205,3150116,,,2025-10-14,清算の結了等,,,2015-10-05,1,,,,,ジョウヨウケンセツコウギョウ,0
1463,6080403003157,登記記録の閉鎖等,0,2025-10-24,2025-10-17,株式会社Ｒ・ＲＩＣＨＥ,,株式会社,静岡県,浜松市中央区,有玉南町１８６７番地の１,,22,138,4313122,,,2025-10-17,清算の結了等,,,2015-10-05,1,,,,,アールリッシュ,0
1471,6120001148283,登記記録の閉鎖等,0,2025-10-24,2025-10-06,東洋ゴルフサービス株式会社,,株式会社,大阪府,寝屋川市,萱島本町１番１２号,,27,215,5720827,,,2025-10-06,清算の結了等,,,2015-10-05,1,,,,,トウヨウゴルフサービス,0
1478,6120001211058,登記記録の閉鎖等,0,2025-10-24,2025-10-14,株式会社ＪＩＮＫＯＮＩ,,株式会社,大阪府,大阪市生野区,新今里３丁目７－４ＪＩＮＤＲＥＡＭ１０２号,,27,116,5440001,,,2025-10-14,清算の結了等,,,2018-02-05,1,,,,,ジンコニ,0
1522,6170001015009,登記記録の閉鎖等,0,2025-10-24,2025-10-22,株式会社ドリームライフ,,株式会社,和歌山県,新宮市,王子町１丁目１０番８号,,30,207,6470032,,,2025-10-22,清算の結了等,,,2017-12-22,1,,,,,ドリームライフ,0
1526,6180001083392,登記記録の閉鎖等,0,2025-10-24,2025-09-24,ニューマウント株式会社,,株式会社,東京都,港区,南青山２丁目２番１５－８２５号,,13,103,1070062,,,2025-09-24,清算の結了等,,,2015-10-05,1,,,,,ニューマウント,0
1527,6180001087674,登記記録の閉鎖等,0,2025-10-24,2025-10-10,株式会社前田業務店,,株式会社,愛知県,江南市,赤童子町大間１３１番地,,23,217,4838226,,,2025-10-10,清算の結了等,,,2015-10-05,1,,,,,マエダギョウムテン,0
1531,6180001148625,登記記録の閉鎖等,0,2025-10-24,2025-10-09,株式会社ワイズルーム,,株式会社,愛知県,あま市,甚目寺松山２５番地,,23,237,4901111,,,2025-10-09,清算の結了等,,,2021-11-04,1,,,,,ワイズルーム,0
1538,6180002021021,登記記録の閉鎖等,0,2025-10-24,2025-10-09,有限会社アクティブ,,有限会社,愛知県,名古屋市天白区,植田南２丁目１１０８番地,,23,116,4680053,,,2025-10-09,清算の結了等,,,2015-10-05,1,,,,,アクティブ,0
1545,6180003019428,登記記録の閉鎖等,0,2025-10-24,2025-10-08,櫻井建設合同会社,,合同会社,愛知県,一宮市,今伊勢町新神戸字郷浦１０番地,,23,203,4910052,,,2025-10-08,清算の結了等,,,2018-11-09,1,,,,,サクライケンセツ,0
1551,6190003002738,登記記録の閉鎖等,0,2025-10-24,2025-10-02,合同会社稲守商事,,合同会社,三重県,伊賀市,阿山ハイツ１５３１番地の１３,,24,216,5181316,,,2025-10-02,清算の結了等,,,2017-06-26,1,,,,,,0
1552,6220002013666,登記記録の閉鎖等,0,2025-10-24,2025-10-16,有限会社エイケイ物産,,有限会社,石川県,七尾市,大手町５７番地,,17,202,9260047,,,2025-10-16,清算の結了等,,,2015-10-05,1,,,,,エイケイブッサン,0
1553,6230002001934,登記記録の閉鎖等,0,2025-10-24,2025-10-17,有限会社タイム・デザインラボ,,有限会社,富山県,富山市,公文名１６番地の３５,,16,201,9398002,,,2025-10-17,清算の結了等,,,2015-10-05,1,,,,,タイムデザインラボ,0
1563,6290001093595,登記記録の閉鎖等,0,2025-10-24,2025-09-29,株式会社ＢｅｌｉｖｅＤ,,株式会社,福岡県,那珂川市,片縄北１丁目５番９号,,40,231,8111203,,,2025-09-29,清算の結了等,,,2021-06-21,1,,,,,ビリーブド,0
1576,6330001016378,登記記録の閉鎖等,0,2025-10-24,2025-10-16,株式会社やおたか,,株式会社,熊本県,球磨郡錦町,大字一武２０９９番地９,,43,501,8680302,,,2025-10-16,清算の結了等,,,2015-10-05,1,,,,,,0
1579,6340001005818,登記記録の閉鎖等,0,2025-10-24,2025-10-17,株式会社きむらや,,株式会社,鹿児島県,日置市,伊集院町下谷口１８３８番地７,,46,216,8992501,,,2025-10-17,清算の結了等,,,2015-10-05,1,,,,,キムラヤ,0
1596,6400005002276,登記記録の閉鎖等,0,2025-10-24,2025-10-08,一般社団法人岩手県朝日会,,その他の設立登記法人,岩手県,盛岡市,中央通１丁目６番２０号朝日新聞盛岡ビル３階,,03,201,0200021,,,2025-10-08,清算の結了等,,,2015-10-05,1,,,,,イワテケンアサヒカイ,0
1597,6400602001663,登記記録の閉鎖等,0,2025-10-24,2025-10-10,大友住建有限会社,,有限会社,岩手県,奥州市,水沢佐倉河字玉ノ木１３番地,,03,215,0230003,,,2025-10-10,清算の結了等,,,2015-10-05,1,,,,,オオトモジュウケン,0
1610,6480001009367,登記記録の閉鎖等,0,2025-10-24,2025-10-22,株式会社高木組,,株式会社,徳島県,徳島市,国府町中２０４番地の２,,36,201,7793124,,,2025-10-22,清算の結了等,,,2015-10-05,1,,,,,タカキグミ,0
1619,7010003016457,登記記録の閉鎖等,0,2025-10-24,2025-10-07,ＧＤＣ　Ｄｉｇｉｔａｌ　Ｃｉｎｅｍａ　Ｎｅｔｗｏｒｋ　合同会社,,合同会社,東京都,中央区,京橋１丁目１４番７号京橋中央ビル３階,,13,102,1040031,,,2025-10-07,清算の結了等,,,2015-10-05,1,,,,,ジーディーシーデジタルシネマネットワーク,0
1633,7010403030909,登記記録の閉鎖等,0,2025-10-24,2025-09-22,合同会社ローズ,,合同会社,東京都,港区,赤坂９丁目１番７号,,13,103,1070052,,,2025-09-22,清算の結了等,,,2023-09-11,1,,,,,ローズ,0
1644,7010602025858,登記記録の閉鎖等,0,2025-10-24,2025-10-14,有限会社アイ・エル・ケイ,,有限会社,東京都,江東区,亀戸５丁目１０番１２号,,13,108,1360071,,,2025-10-14,清算の結了等,,,2015-10-05,1,,,,,アイエルケイ,0
1647,7010802017837,登記記録の閉鎖等,0,2025-10-24,2025-10-16,有限会社スマイル企画,,有限会社,東京都,大田区,仲六郷１丁目２４番１２号,,13,111,1440055,,,2025-10-16,清算の結了等,,,2015-10-05,1,,,,,スマイルキカク,0
1651,7010901047487,登記記録の閉鎖等,0,2025-10-24,2025-10-22,株式会社拓人,,株式会社,東京都,世田谷区,岡本３丁目１５番１１号,,13,112,1570076,,,2025-10-22,清算の結了等,,,2020-11-24,1,,,,,タクト,0
1662,7011205000067,登記記録の閉鎖等,0,2025-10-24,2025-10-16,東都避雷設備工業協同組合,,その他の設立登記法人,東京都,大田区,城南島２丁目４番１２号,,13,111,1430002,,,2025-10-16,清算の結了等,,,2015-10-05,1,,,,,トウトヒライセツビコウギョウ,0
1685,7020001064127,登記記録の閉鎖等,0,2025-10-24,2025-10-09,株式会社サニーシステムズ,,株式会社,神奈川県,川崎市多摩区,菅仙谷３丁目１番２４号,,14,135,2140006,,,2025-10-09,清算の結了等,,,2015-10-05,1,,,,,サニーシステムズ,0
1697,7021002012628,登記記録の閉鎖等,0,2025-10-24,2025-10-03,有限会社エツエン,,有限会社,神奈川県,高座郡寒川町,倉見１６８３番地の１２,,14,321,2530101,,,2025-10-03,清算の結了等,,,2015-10-05,1,,,,,,0
1709,7030002055272,登記記録の閉鎖等,0,2025-10-24,2025-10-16,有限会社吉田自動車商会,,有限会社,埼玉県,上尾市,緑丘１丁目７番６号,,11,219,3620015,,,2025-10-16,清算の結了等,,,2015-10-05,1,,,,,ヨシダジドウシャショウカイ,0
1716,7040002044472,登記記録の閉鎖等,0,2025-10-24,2025-10-01,有限会社ウェルズ,,有限会社,千葉県,松戸市,八ケ崎６丁目１５番地７,,12,207,2700023,,,2025-10-01,清算の結了等,,,2015-10-05,1,,,,,ウェルズ,0
1721,7050001029416,登記記録の閉鎖等,0,2025-10-24,2025-10-16,株式会社昭和ビニール加工所,,株式会社,茨城県,常総市,水海道栄町３４２７番地の１,,08,211,3030024,,,2025-10-16,清算の結了等,,,2015-10-05,1,,,,,ショウワビニールカコウジョ,0
1727,7050003000093,登記記録の閉鎖等,0,2025-10-24,2025-10-14,合資会社明治屋本店,,合資会社,茨城県,水戸市,末広町１丁目５番３６号,,08,201,3100053,,,2025-10-14,清算の結了等,,,2015-10-05,1,,,,,メイジヤホンテン,0
1732,7080001013086,登記記録の閉鎖等,0,2025-10-24,2025-10-17,株式会社島田ハム昭米,,株式会社,静岡県,島田市,南１丁目５番３２号,,22,209,4270017,,,2025-10-17,清算の結了等,,,2015-10-05,1,,,,,シマダハムショウベイ,0
1760,7120005022913,登記記録の閉鎖等,0,2025-10-24,2025-10-21,一般社団法人先幸会,,その他の設立登記法人,大阪府,大阪市中央区,南船場１丁目４番１１号モリビル４階,,27,128,5420081,,,2025-10-21,清算の結了等,,,2022-04-19,1,,,,,センコウカイ,0
1761,7120101053003,登記記録の閉鎖等,0,2025-10-24,2025-10-10,株式会社Ｇ＆Ｂ,,株式会社,大阪府,貝塚市,西町２０番２０－７０８号,,27,208,5970004,,,2025-10-10,清算の結了等,,,2015-10-05,1,,,,,ジーアンドビー,0
1765,7120901009591,登記記録の閉鎖等,0,2025-10-24,2025-10-06,株式会社摂津大黒屋,,株式会社,大阪府,摂津市,東正雀１７番３０号,,27,224,5660025,,,2025-10-06,清算の結了等,,,2015-10-05,1,,,,,セッツダイコクヤ,0
1769,7122001029660,登記記録の閉鎖等,0,2025-10-24,2025-10-21,アイティーボタン株式会社,,株式会社,奈良県,磯城郡田原本町,大字宮古１７０番地１,,29,363,6360302,,,2025-10-21,合併による解散等,5122001019044,令和７年１０月１日大阪府八尾市北木の本一丁目１２番地武田精機株式会社（5122001019044）に合併し解散,2016-06-06,1,,,,,アイティーボタン,0
1772,7122002013614,登記記録の閉鎖等,0,2025-10-24,2025-09-30,有限会社グランルーヴル,,有限会社,大阪府,八尾市,山城町１丁目２番８号－１０５,,27,212,5810801,,,2025-09-30,清算の結了等,,,2015-10-05,1,,,,,グランルーヴル,0
1783,7140001123135,登記記録の閉鎖等,0,2025-10-24,2025-10-16,ＴＥＲＡＮＡ株式会社,,株式会社,兵庫県,たつの市,神岡町田中９９１番２,,28,229,6794113,,,2025-10-16,清算の結了等,,,2021-09-21,1,,,,,テラナ,0
1785,7140002033928,登記記録の閉鎖等,0,2025-10-24,2025-10-17,有限会社ナカタサッシ販売,,有限会社,兵庫県,赤穂市,元禄橋町１３番地の２,,28,212,6780223,,,2025-10-17,清算の結了等,,,2015-10-05,1,,,,,ナカタサッシハンバイ,0
1787,7140005016418,登記記録の閉鎖等,0,2025-10-24,2025-10-16,特定非営利活動法人ＫＧセーリングサービス,,その他の設立登記法人,兵庫県,西宮市,西宮浜４丁目１６番３号,,28,204,6620934,,,2025-10-16,清算の結了等,,,2015-10-05,1,,,,,ケージーセーリングサービス,0
1790,7160001008045,登記記録の閉鎖等,0,2025-10-24,2025-10-22,株式会社インペックス,,株式会社,滋賀県,彦根市,古沢町３５３番地の２,,25,202,5220007,,,2025-10-22,清算の結了等,,,2015-10-05,1,,,,,インペックス,0
1792,7180001012391,登記記録の閉鎖等,0,2025-10-24,2025-10-09,株式会社ショーエイ,,株式会社,愛知県,名古屋市北区,光音寺町字野方１９０６番地１０９,,23,103,4620053,,,2025-10-09,清算の結了等,,,2015-10-05,1,,,,,ショーエイ,0
1793,7180001047297,登記記録の閉鎖等,0,2025-10-24,2025-10-14,株式会社アイエスアイ流通経済研究所,,株式会社,愛知県,名古屋市中村区,名駅南１丁目１９番２７号オルバースビルディング名古屋５階,,23,105,4500003,,,2025-10-14,清算の結了等,,,2015-10-05,1,,,,,アイエスアイリュウツウケイザイケンキュウショ,0
1803,7180002037537,登記記録の閉鎖等,0,2025-10-24,2025-10-10,有限会社スギヤマ建設,,有限会社,愛知県,名古屋市東区,砂田橋５丁目１番１８号,,23,102,4610045,,,2025-10-10,清算の結了等,,,2015-10-05,1,,,,,スギヤマケンセツ,0
1805,7180003005410,登記記録の閉鎖等,0,2025-10-24,2025-10-09,合資会社眞野木材,,合資会社,愛知県,名古屋市中村区,中村町９丁目１５番地,,23,105,4530053,,,2025-10-09,清算の結了等,,,2015-10-05,1,,,,,マノモクザイ,0
1806,7180003014832,登記記録の閉鎖等,0,2025-10-24,2025-10-10,ＥＣＯ　ＢＡＳＥ合同会社,,合同会社,愛知県,名古屋市北区,駒止町２丁目６９番地３,,23,103,4620059,,,2025-10-10,清算の結了等,,,2015-10-05,1,,,,,エコベース,0
1811,7180305004416,登記記録の閉鎖等,0,2025-10-24,2025-09-12,淨閑寺,00075434,その他の設立登記法人,愛知県,安城市,末広町１４番１６号,,23,212,4460038,,,2025-09-12,合併による解散等,8180305004415,令和７年９月１２日愛知県安城市末広町１４番１６号受頭院（8180305004415）に合併し解散,2015-10-05,1,,,,,ジョウカンジ,0
1812,7190001001195,登記記録の閉鎖等,0,2025-10-24,2025-10-01,株式会社山電,,株式会社,三重県,津市,庄田町２４６番地１,,24,201,5141255,,,2025-10-01,合併による解散等,5190001017334,令和７年１０月１日三重県津市安東町２４７７番地１株式会社ＩＮＦＬＩＧＨＴ（5190001017334）に合併し解散,2015-10-05,1,,,,,ヤマデン,0
1816,7250005003479,登記記録の閉鎖等,0,2025-10-24,2025-09-18,圓満寺,,その他の設立登記法人,山口県,下関市,西神田町１２番６号,,35,201,7500034,,,2025-09-18,合併による解散等,4250005003548,令和７年９月１８日山口県下関市武久町一丁目４７番１４号善福寺（4250005003548）に合併し解散,2015-10-05,1,,,,,エンマンジ,0
1818,7260001033479,登記記録の閉鎖等,0,2025-10-24,2025-10-01,昇星汽船株式会社,,株式会社,岡山県,備前市,日生町日生１６４６番地３,,33,211,7013204,,,2025-10-01,合併による解散等,3260001021710,令和７年１０月１日岡山県備前市日生町日生１６４６番地の３宮本汽船株式会社（3260001021710）に合併し解散,2019-09-05,1,,,,,ショウセイキセン,0
1832,7310001007262,登記記録の閉鎖等,0,2025-10-24,2025-10-22,株式会社サンヨウサービス,,株式会社,長崎県,佐世保市,江迎町小川内７４１番地７,,42,202,8596123,,,2025-10-22,清算の結了等,,,2015-10-05,1,,,,,サンヨウサービス,0
1836,7310002007831,登記記録の閉鎖等,0,2025-10-24,2025-10-22,有限会社長与産業商事,,有限会社,長崎県,西彼杵郡長与町,嬉里郷７２８番地６,,42,307,8512128,,,2025-10-22,清算の結了等,,,2015-10-05,1,,,,,ナガヨサンギョウショウジ,0
1844,7360001006094,登記記録の閉鎖等,0,2025-10-24,2025-10-20,株式会社ティーアールシー,,株式会社,沖縄県,那覇市,字安謝１０１番地４,,47,201,9000003,,,2025-10-20,清算の結了等,,,2015-10-05,1,,,,,ティーアールシー,0
1848,7360002013387,登記記録の閉鎖等,0,2025-10-24,2025-10-21,有限会社ズケラン建機リース,,有限会社,沖縄県,うるま市,字高江洲１１７７番地,,47,213,9042242,,,2025-10-21,清算の結了等,,,2015-10-05,1,,,,,ズケランケンキリース,0
1856,7380003006033,登記記録の閉鎖等,0,2025-10-24,2025-10-08,合同会社パッショーネ,,合同会社,福島県,いわき市,常磐馬玉町寺作１番地１ホワイトハートレーン１０５,,07,204,9728314,,,2025-10-08,清算の結了等,,,2025-05-12,1,,,,,パッショーネ,0
1857,7400002010677,登記記録の閉鎖等,0,2025-10-24,2025-10-08,有限会社シンコーリース,,有限会社,岩手県,宮古市,小山田２丁目４番２４号,,03,202,0270038,,,2025-10-08,清算の結了等,,,2015-10-05,1,,,,,シンコーリース,0
1859,7420002001261,登記記録の閉鎖等,0,2025-10-24,2025-10-03,有限会社サンクス,,有限会社,青森県,青森市,松原２丁目１１番１３号,,02,201,0300813,,,2025-10-03,清算の結了等,,,2015-10-05,1,,,,,サンクス,0
1861,7420003002085,登記記録の閉鎖等,0,2025-10-24,2025-10-10,合同会社ｈａｃｈｉ,,合同会社,青森県,青森市,本町２丁目４番９号福徳第一ビル２階Ａ号,,02,201,0300802,,,2025-10-10,清算の結了等,,,2020-01-10,1,,,,,ハチ,0
1866,7430002025268,登記記録の閉鎖等,0,2025-10-24,2025-10-14,有限会社丸全工業,,有限会社,北海道,札幌市東区,東苗穂十四条３丁目１９番１７号,,01,103,0070814,,,2025-10-14,清算の結了等,,,2015-10-05,1,,,,,マルゼンコウギョウ,0
1871,7480002009010,登記記録の閉鎖等,0,2025-10-24,2025-10-22,有限会社梅久組,,有限会社,徳島県,吉野川市,山川町町２２８番地の２,,36,205,7793401,,,2025-10-22,清算の結了等,,,2015-10-05,1,,,,,ウメヒサグミ,0
1872,7480002013854,登記記録の閉鎖等,0,2025-10-24,2025-10-22,有限会社米山建設,,有限会社,徳島県,阿南市,椿町須屋東側１２番地２,,36,204,7791750,,,2025-10-22,清算の結了等,,,2015-10-05,1,,,,,ヨネヤマケンセツ,0
1879,7500002012845,登記記録の閉鎖等,0,2025-10-24,2025-10-23,有限会社田渡運送,,有限会社,愛媛県,喜多郡内子町,中田渡２７０番地,,38,422,7913512,,,2025-10-23,清算の結了等,,,2015-10-05,1,,,,,タドウンソウ,0
1891,8010002013017,登記記録の閉鎖等,0,2025-10-24,2025-10-15,有限会社ナカガワファミリー,,有限会社,東京都,千代田区,飯田橋４丁目１０番１－４０４号セントラルプラザ,,13,101,1020072,,,2025-10-15,清算の結了等,,,2015-10-05,1,,,,,ナカガワファミリー,0
1892,8010003033492,登記記録の閉鎖等,0,2025-10-24,2025-10-07,合同会社ＣＣＦ１号,,合同会社,東京都,中央区,八丁堀４丁目２番１０号ＡＯＪ税理士法人内,,13,102,1040032,,,2025-10-07,清算の結了等,,,2020-11-12,1,,,,,シーシーエフイチゴウ,0
1895,8010005027369,登記記録の閉鎖等,0,2025-10-24,2025-10-23,Ｈｏｎｍａｃｈｉ　Ｊａｐａｎ　Ｈｏｌｄｉｎｇ特定目的会社,,その他の設立登記法人,東京都,千代田区,霞が関３丁目２番５号霞が関ビル,,13,101,1000013,,,2025-10-23,清算の結了等,,,2017-08-31,1,,,,,ホンマチジャパンホールディング,0
1901,8010401138232,登記記録の閉鎖等,0,2025-10-24,2025-10-21,株式会社リンクエス,,株式会社,東京都,港区,南青山２丁目２番１５号ウィン青山９４２,,13,103,1070062,,,2025-10-21,合併による解散等,9011102029018,令和７年１０月１日東京都千代田区飯田橋一丁目１０番１号ｉＣｏｒｅ株式会社（9011102029018）に合併し解散,2018-05-08,1,,,,,リンクエス,0
1909,8010405019098,登記記録の閉鎖等,0,2025-10-24,2025-09-24,一般社団法人ティーアール・スリー,,その他の設立登記法人,東京都,港区,赤坂２丁目１０番５号デロイトトーマツ赤坂インターナショナル株式会社内,,13,103,1070052,,,2025-09-24,清算の結了等,,,2020-09-16,1,,,,,ティーアールスリー,0
1917,8010702006749,登記記録の閉鎖等,0,2025-10-24,2025-10-16,有限会社ヒコサカ薬局,,有限会社,東京都,品川区,西五反田１丁目２３番９号,,13,109,1410031,,,2025-10-16,清算の結了等,,,2015-10-05,1,,,,,ヒコサカヤッキョク,0
1925,8011001147417,登記記録の閉鎖等,0,2025-10-24,2025-10-22,ｆｏ１株式会社,,株式会社,東京都,渋谷区,円山町５番５号Ｎａｖｉ渋谷Ｖ３階,00126497,13,113,1500044,,,2025-10-22,合併による解散等,1010601047215,令和７年１０月１日東京都荒川区南千住五丁目１７番８号２Ｆ株式会社ＯＶＥＲ’ｓ（1010601047215）に合併し解散,2022-05-10,1,,,,,エフオーワン,0
1942,8011405001228,登記記録の閉鎖等,0,2025-10-24,2025-10-15,特定非営利活動法人人材活用連携推進機構,,その他の設立登記法人,東京都,板橋区,赤塚２丁目１７番８号,00066559,13,119,1750092,,,2025-10-15,清算の結了等,,,2015-10-05,1,,,,,ジンザイカツヨウレンケイスイシンキコウ,0
1996,8050001023979,登記記録の閉鎖等,0,2025-10-24,2025-10-14,栄和環境開発株式会社,,株式会社,茨城県,高萩市,高浜町３丁目８７番地,,08,214,3180013,,,2025-10-14,清算の結了等,,,2015-10-05,1,,,,,エイワカンキョウカイハツ,0
2010,8080101017911,登記記録の閉鎖等,0,2025-10-24,2025-09-22,Ｔｒｉｓｔａｔｅ　Ｊａｐａｎ株式会社,,株式会社,東京都,港区,西新橋３丁目２４番８号山内ビル３Ｆ,,13,103,1050003,,,2025-09-22,清算の結了等,,,2015-10-05,1,,,,,トライエステートジャパン,0
2013,8080402014161,登記記録の閉鎖等,0,2025-10-24,2025-10-15,有限会社Ｍ・Ｔ技研,,有限会社,静岡県,浜松市中央区,高丘西２丁目１７番８号,,22,138,4338118,,,2025-10-15,清算の結了等,,,2015-10-05,1,,,,,エムティーギケン,0
2016,8100001014551,登記記録の閉鎖等,0,2025-10-24,2025-10-20,アルプコンチネンタルホーム株式会社,,株式会社,長野県,松本市,双葉２５４９番地３,,20,202,3900833,,,2025-10-20,清算の結了等,,,2015-10-05,1,,,,,アルプコンチネンタルホーム,0
2019,8100002000699,登記記録の閉鎖等,0,2025-10-24,2025-10-20,エー・ディー・ピー・アンドー工業有限会社,,有限会社,長野県,長野市,合戦場２丁目１１８番地２,,20,201,3888008,,,2025-10-20,清算の結了等,,,2015-10-05,1,,,,,エーディーピーアンドーコウギョウ,0
2026,8120001143274,登記記録の閉鎖等,0,2025-10-24,2025-10-17,アスカ株式会社,,株式会社,大阪府,大阪市住吉区,万代３丁目１２番２５号,,27,120,5580055,,,2025-10-17,清算の結了等,,,2015-10-05,1,,,,,アスカ,0
2039,8120001246804,登記記録の閉鎖等,0,2025-10-24,2025-10-17,株式会社ＥＣＯ電子,,株式会社,大阪府,大阪市東住吉区,鷹合４丁目２１番１６号,,27,121,5460014,,,2025-10-17,清算の結了等,,,2022-06-22,1,,,,,エコデンシ,0
2063,8122002012169,登記記録の閉鎖等,0,2025-10-24,2025-10-07,有限会社シャイニングバンブー,,有限会社,大阪府,大東市,末広町１２番１号,,27,218,5740036,,,2025-10-07,清算の結了等,,,2015-10-05,1,,,,,シャイニングバンブー,0
2070,8130005016624,登記記録の閉鎖等,0,2025-10-24,2025-10-06,一般社団法人窓断熱窓騒音環境対策協会,,その他の設立登記法人,京都府,宇治市,槇島町中川原５２,,26,204,6110041,,,2025-10-06,清算の結了等,,,2022-11-04,1,,,,,マドダンネツマドソウオンカンキョウタイサクキョウカイ,0
2087,8180001070570,登記記録の閉鎖等,0,2025-10-24,2025-09-25,株式会社サンコーポレーション,,株式会社,愛知県,名古屋市瑞穂区,十六町２丁目７８番地４,,23,108,4670015,,,2025-09-25,清算の結了等,,,2015-10-05,1,,,,,サンコーポレーション,0
2111,8230002010941,登記記録の閉鎖等,0,2025-10-24,2025-10-17,有限会社キヤピタル,,有限会社,富山県,高岡市,関本町１６番地,,16,202,9330863,,,2025-10-17,清算の結了等,,,2015-10-05,1,,,,,キャピタル,0
2123,8330003002688,登記記録の閉鎖等,0,2025-10-24,2025-10-16,合資会社登建設,,合資会社,熊本県,阿蘇郡南阿蘇村,大字河陽１０番地の２,,43,433,8691404,,,2025-10-16,清算の結了等,,,2015-10-05,1,,,,,ノボルケンセツ,0
2143,8430002004270,登記記録の閉鎖等,0,2025-10-24,2025-10-06,有限会社乙坂,,有限会社,北海道,札幌市南区,川沿五条２丁目１番１８号,,01,106,0050805,,,2025-10-06,清算の結了等,,,2015-10-05,1,,,,,オトサカ,0
2152,8490005001185,登記記録の閉鎖等,0,2025-10-24,2025-09-26,天理教港高分教会,,その他の設立登記法人,高知県,高知市,宝永町７番８号,,39,201,7800818,,,2025-09-26,合併による解散等,5120005000466,令和７年９月１９日大阪市旭区太子橋一丁目９番２７号天理教堀港分教会（5120005000466）に合併し解散,2015-10-05,1,,,,,,0
2154,9010001079586,登記記録の閉鎖等,0,2025-10-24,2025-09-24,株式会社はる設計,,株式会社,東京都,港区,東麻布１丁目１８番８号,,13,103,1060044,,,2025-09-24,清算の結了等,,,2015-10-05,1,,,,,ハルセッケイ,0
2162,9010002001912,登記記録の閉鎖等,0,2025-10-24,2025-10-09,有限会社倉石紙器製作所,,有限会社,東京都,文京区,千駄木２丁目２０番１１号,,13,105,1130022,,,2025-10-09,清算の結了等,,,2015-10-05,1,,,,,クライシシキセイサクショ,0
2180,9010602026978,登記記録の閉鎖等,0,2025-10-24,2025-10-15,有限会社藤栄,,有限会社,東京都,墨田区,業平４丁目１６番５号,,13,107,1300002,,,2025-10-15,清算の結了等,,,2015-10-05,1,,,,,フジエイ,0
2183,9010801028668,登記記録の閉鎖等,0,2025-10-24,2025-10-21,株式会社穴熊キャピタル,,株式会社,東京都,大田区,山王３丁目３７番６－５０３号,,13,111,1430023,,,2025-10-21,合併による解散等,3010001172438,令和７年１０月１日東京都中央区京橋二丁目８番１号八重洲中央ビル７階株式会社ココカラ・トラスト（3010001172438）に合併し解散,2018-04-04,1,,,,,アナグマキャピタル,0
2189,9011001156466,登記記録の閉鎖等,0,2025-10-24,2025-09-24,ＤａＯ株式会社,,株式会社,東京都,渋谷区,神南１丁目１４番７号ワイズ神南ビル２Ｆ,,13,113,1500041,,,2025-09-24,清算の結了等,,,2023-08-22,1,,,,,ディーエーオー,0
2208,9011401021393,登記記録の閉鎖等,0,2025-10-24,2025-10-17,株式会社ＨＫＳ,,株式会社,東京都,板橋区,徳丸８丁目６番１５－２０２号,,13,119,1750083,,,2025-10-17,清算の結了等,,,2018-10-31,1,,,,,エイチケーエス,0
2213,9011801004460,登記記録の閉鎖等,0,2025-10-24,2025-10-21,株式会社ＮＯＡＩＮＡ,,株式会社,東京都,葛飾区,堀切７丁目８番９号,,13,122,1240006,,,2025-10-21,清算の結了等,,,2015-10-05,1,,,,,ノアイナ,0
2215,9011801038450,登記記録の閉鎖等,0,2025-10-24,2025-10-21,株式会社ピュアツナ,,株式会社,東京都,足立区,足立１丁目１９番１２－２０４号,,13,121,1200015,,,2025-10-21,清算の結了等,,,2020-12-03,1,,,,,ピュアツナ,0
2217,9012402022851,登記記録の閉鎖等,0,2025-10-24,2025-10-21,有限会社プレジール,,有限会社,東京都,三鷹市,下連雀５丁目６番２－１１０１号,,13,204,1810013,,,2025-10-21,清算の結了等,,,2015-10-05,1,,,,,プレジール,0
2224,9020001078422,登記記録の閉鎖等,0,2025-10-24,2025-10-09,惠山電設株式会社,,株式会社,神奈川県,川崎市川崎区,鋼管通５丁目４番３号,,14,131,2100852,,,2025-10-09,清算の結了等,,,2015-10-05,1,,,,,ケイザンデンセツ,0
2225,9020001144463,登記記録の閉鎖等,0,2025-10-24,2025-10-20,株式会社カモメ薬局,,株式会社,東京都,渋谷区,代々木１丁目５８－１１中沢ビル４階,,13,113,1510053,,,2025-10-20,合併による解散等,6030001066965,令和７年９月１日大阪府茨木市西駅前町１３番２５号株式会社ウィーズ（6030001066965）に合併し解散,2021-12-24,1,,,,,カモメヤッキョク,0
2237,9030001008840,登記記録の閉鎖等,0,2025-10-24,2025-09-22,株式会社ラースティング,,株式会社,東京都,港区,新橋５丁目３３番３号,,13,103,1050004,,,2025-09-22,清算の結了等,,,2015-10-05,1,,,,,ラースティング,0
2238,9030001015390,登記記録の閉鎖等,0,2025-10-24,2025-10-15,プラザ株式会社,,株式会社,埼玉県,さいたま市西区,プラザ４５番５号,,11,101,3310063,,,2025-10-15,清算の結了等,,,2015-10-05,1,,,,,プラザ,0
2240,9030001046139,登記記録の閉鎖等,0,2025-10-24,2025-10-10,フラム興産株式会社,,株式会社,東京都,国立市,谷保５１１３番地,,13,215,1860011,,,2025-10-10,清算の結了等,,,2015-10-05,1,,,,,フラムコウサン,0
2242,9030001089022,登記記録の閉鎖等,0,2025-10-24,2025-10-14,株式会社深谷電気工事,,株式会社,埼玉県,深谷市,上野台２９３５番地４,,11,218,3660801,,,2025-10-14,清算の結了等,,,2015-10-05,1,,,,,フカヤデンキコウジ,0
2251,9030002056054,登記記録の閉鎖等,0,2025-10-24,2025-10-09,有限会社扶桑印刷,,有限会社,埼玉県,桶川市,大字倉田２２９９番地１３,,11,231,3630006,,,2025-10-09,清算の結了等,,,2015-10-05,1,,,,,フソウインサツ,0
2267,9050001011990,登記記録の閉鎖等,0,2025-10-24,2025-10-17,茨城三和化工株式会社,00022073,株式会社,茨城県,石岡市,柏原４番４,,08,205,3150002,,,2025-10-17,合併による解散等,7130001010771,令和７年１０月１日京都市南区上鳥羽仏現寺町５６番地三和化工株式会社（7130001010771）に合併し解散,2015-10-05,1,,,,,イバラキサンワカコウ,0
2295,9120001250482,登記記録の閉鎖等,0,2025-10-24,2025-10-17,株式会社日本再生電子,,株式会社,大阪府,大阪市東住吉区,杭全２丁目７番１４号,,27,121,5460002,,,2025-10-17,清算の結了等,,,2022-11-22,1,,,,,ニホンサイセイデンシ,0
2314,9122001017267,登記記録の閉鎖等,0,2025-10-24,2025-10-07,株式会社ｓｅｄｏ,,株式会社,大阪府,四條畷市,田原台２丁目３１番２号,,27,229,5750013,,,2025-10-07,清算の結了等,,,2015-10-05,1,,,,,セド,0
2351,9220001006263,登記記録の閉鎖等,0,2025-10-24,2025-10-21,株式会社北陸経営,,株式会社,石川県,金沢市,涌波２丁目１４番１０号,,17,201,9200953,,,2025-10-21,清算の結了等,,,2015-10-05,1,,,,,ホクリクケイエイ,0
2358,9260001002449,登記記録の閉鎖等,0,2025-10-24,2025-10-16,株式会社コンセプト・ラボ・ジャパン,,株式会社,岡山県,岡山市北区,富田町２丁目１２番１６号センチュリー富田町４０３号,,33,101,7000816,,,2025-10-16,清算の結了等,,,2015-10-05,1,,,,,,0
2359,9270001000600,登記記録の閉鎖等,0,2025-10-24,2025-10-21,ニデックマシナリー株式会社,,株式会社,京都府,長岡京市,神足寺田１番地,,26,209,6170833,,,2025-10-21,合併による解散等,3100001018326,令和７年１０月１日長野県諏訪郡下諏訪町５３２９番地ニデックインスツルメンツ株式会社（3100001018326）に合併し解散,2015-10-05,1,,,,,ニデックマシナリー,0
2368,9290003012682,登記記録の閉鎖等,0,2025-10-24,2025-09-29,ＨＡＲＡＣＯＦＦＥＥ合同会社,,合同会社,福岡県,飯塚市,秋松８７２番地１サンライズ穂波１０１号,,40,205,8200083,,,2025-09-29,清算の結了等,,,2022-07-04,1,,,,,ハラコーヒー,0
2370,9320001019981,登記記録の閉鎖等,0,2025-10-24,2025-10-20,株式会社アン・グラフィック,,株式会社,大分県,大分市,中央町１丁目４番２４号大分セントラルビル２Ｆ,,44,201,8700035,,,2025-10-20,清算の結了等,,,2023-09-05,1,,,,,アングラフィック,0
2383,9350001015961,登記記録の閉鎖等,0,2025-10-24,2025-10-16,株式会社成上工業,,株式会社,宮崎県,延岡市,浜町５３７１番地２,,45,203,8820862,,,2025-10-16,清算の結了等,,,2019-08-06,1,,,,,セイジョウコウギョウ,0
2388,9370002013244,登記記録の閉鎖等,0,2025-10-24,2025-10-09,有限会社プロジェクト・ダイナミックス,,有限会社,宮城県,仙台市青葉区,国分町３丁目１１番１３－５０２号,,04,101,9800803,,,2025-10-09,清算の結了等,,,2015-10-05,1,,,,,プロジェクトダイナミックス,0
2391,9380002035551,登記記録の閉鎖等,0,2025-10-24,2025-10-07,有限会社ツボイ,,有限会社,福島県,南会津郡南会津町,田島字谷地甲６９番地２,,07,368,9670004,,,2025-10-07,清算の結了等,,,2015-10-05,1,,,,,ツボイ,0
2399,9430001043483,登記記録の閉鎖等,0,2025-10-24,2025-10-17,株式会社オイルターミナル,,株式会社,北海道,千歳市,豊里２丁目１０番地３,,01,224,0660022,,,2025-10-17,合併による解散等,9020001020367,令和７年１０月１日横浜市港北区篠原町１２００番地三和エナジー株式会社（9020001020367）に合併し解散,2015-10-05,1,,,,,オイルターミナル,0
2405,9460001001083,登記記録の閉鎖等,0,2025-10-24,2025-10-23,株式会社中央クリーニング,,株式会社,北海道,釧路市,春採７丁目３７番８号コーポミズＡ号,,01,206,0850813,,,2025-10-23,清算の結了等,,,2015-10-05,1,,,,,チュウオウクリーニング,0
2407,9470002012376,登記記録の閉鎖等,0,2025-10-24,2025-10-21,有限会社三宅商店,,有限会社,香川県,丸亀市,中津町２０４番地,,37,202,7630054,,,2025-10-21,清算の結了等,,,2015-10-05,1,,,,,ミヤケショウテン,0
