sequenceNumber,corporateNumber,process,correct,updateDate,changeDate,name,nameImageId,kind,prefectureName,cityName,streetNumber,addressImageId,prefectureCode,cityCode,postCode,addressOutside,addressOutsideImageId,closeDate,closeCause,successorCorporateNumber,changeCause,assignmentDate,latest,enName,enPrefectureName,enCityName,enAddressOutside,furigana,hihyoji
9,1010001257926,新規,0,2025-08-22,2025-08-22,株式会社ジャズクラウド,,株式会社,東京都,千代田区,神田須田町１丁目７番地８,,13,101,1010041,,,,,,,2025-08-22,1,,,,,ジャズクラウド,0
10,1010001257942,新規,0,2025-08-22,2025-08-22,株式会社ショコラプレジール,,株式会社,東京都,中央区,八丁堀２丁目１３番２号ドミノビル３０１号室,,13,102,1040032,,,,,,,2025-08-22,1,,,,,ショコラプレジール,0
12,1010003048489,新規,0,2025-08-22,2025-08-22,ＡＤＩＦ　ＪＡＰＡＮスマートファンド合同会社,,合同会社,東京都,中央区,新川２丁目８番８号ＳＮＴ八丁堀ビル４階,,13,102,1040033,,,,,,,2025-08-22,1,,,,,アディフジャパンスマートファンド,0
13,1010003048506,新規,0,2025-08-22,2025-08-22,合同会社ＯｎｅＳａｌｅｓ,,合同会社,東京都,中央区,日本橋室町１丁目１１番１２号　日本橋水野ビル７階,,13,102,1030022,,,,,,,2025-08-22,1,,,,,ワンセールス,0
15,1010005040576,新規,0,2025-08-22,2025-08-22,圏央境古河２ロジスティック特定目的会社,,その他の設立登記法人,東京都,中央区,八重洲２丁目２番１号,,13,102,1040028,,,,,,,2025-08-22,1,,,,,ケンオウサカイコガツーロジスティック,0
16,1010101016819,新規,0,2025-08-22,2025-08-22,森創科技株式会社,,株式会社,東京都,八王子市,大塚６４０－１３－３０８号室,,13,201,1920352,,,,,,,2025-08-22,1,,,,,シンソウカギ,0
27,1010401192509,新規,0,2025-08-22,2025-08-22,株式会社ピット,,株式会社,東京都,港区,赤坂３丁目９－４サカタニビル地下１階,,13,103,1070052,,,,,,,2025-08-22,1,,,,,ピット,0
28,1010401192517,新規,0,2025-08-22,2025-08-22,株式会社Ｐｅ‐ａｋ,,株式会社,東京都,港区,芝３丁目１７番１５号クリエート三田３階,,13,103,1050014,,,,,,,2025-08-22,1,,,,,ピーク,0
29,1010401192525,新規,0,2025-08-22,2025-08-22,株式会社希光泉,,株式会社,東京都,港区,南青山４丁目２６－７＋８ビル１０２,,13,103,1070062,,,,,,,2025-08-22,1,,,,,キコウセン,0
30,1010403035822,新規,0,2025-08-22,2025-08-22,合同会社宇田川町不動産,,合同会社,東京都,港区,南青山１丁目１番１号新青山ビル東館１９階,,13,103,1070062,,,,,,,2025-08-22,1,,,,,ウダガワチョウフドウサン,0
31,1010405024658,新規,0,2025-08-22,2025-08-22,なにわ繁栄特定目的会社,,その他の設立登記法人,東京都,港区,元赤坂１丁目１番７号,,13,103,1070051,,,,,,,2025-08-22,1,,,,,ナニワハンエイ,0
35,1010701048204,新規,0,2025-08-22,2025-08-22,株式会社ネストリア,,株式会社,東京都,品川区,東五反田４丁目３－６シルヴェリイ高輪台２０３,,13,109,1410022,,,,,,,2025-08-22,1,,,,,ネストリア,0
45,1011001171290,新規,0,2025-08-22,2025-08-22,株式会社Ａｎｉｍａｋｅ,,株式会社,東京都,渋谷区,恵比寿１丁目２３－５ＴＨＥＥＤＧＥ５Ｆ,,13,113,1500013,,,,,,,2025-08-22,1,,,,,アニメイク,0
46,1011001171431,新規,0,2025-08-22,2025-08-22,株式会社ＧＵＩＤＥ,,株式会社,東京都,渋谷区,広尾１丁目２番地１号ヒカリビル４階,,13,113,1500012,,,,,,,2025-08-22,1,,,,,ガイド,0
47,1011001171539,新規,0,2025-08-22,2025-08-22,株式会社１０３１ｃｏｌｌｅｃｔｉｖｅ,,株式会社,東京都,渋谷区,初台１丁目４４番１５－３０６号,,13,113,1510061,,,,,,,2025-08-22,1,,,,,イチゼロサンイチコレクティブ,0
48,1011001172009,新規,0,2025-08-22,2025-08-22,ＫＢＭＣ株式会社,,株式会社,東京都,渋谷区,神南１丁目１１－４ＦＰＧリンクス神南５階,,13,113,1500041,,,,,,,2025-08-22,1,,,,,ケービーエムシー,0
50,1011003022186,新規,0,2025-08-22,2025-08-22,四季彩園合同会社,,合同会社,東京都,渋谷区,渋谷２丁目１９番１９号ワコー宮益坂ビル５階,,13,113,1500002,,,,,,,2025-08-22,1,,,,,シキサイエン,0
51,1011003022244,新規,0,2025-08-22,2025-08-22,Ｖａｐｏｒｅ合同会社,,合同会社,東京都,渋谷区,道玄坂１丁目１０番８号渋谷道玄坂東急ビル２Ｆ－Ｃ,,13,113,1500043,,,,,,,2025-08-22,1,,,,,バポレ,0
55,1011101112797,新規,0,2025-08-22,2025-08-22,株式会社ＭＩＧ,,株式会社,東京都,新宿区,高田馬場３丁目４番１４－３０３号,,13,104,1690075,,,,,,,2025-08-22,1,,,,,エムアイジー,0
56,1011101112888,新規,0,2025-08-22,2025-08-22,株式会社Ｅｔｅｒｎｉｔｅ,,株式会社,東京都,新宿区,神楽坂３丁目６番地５３とぎやレジデンス２Ｆ,,13,104,1620825,,,,,,,2025-08-22,1,,,,,エテルニテ,0
61,1011503006647,新規,0,2025-08-22,2025-08-22,ＳＣ　Ｎｏｖａ　Ｓｐａｃｅ合同会社,,合同会社,東京都,荒川区,荒川５丁目３４－２１,,13,118,1160002,,,,,,,2025-08-22,1,,,,,エスシーノヴァスペース,0
62,1011601028907,新規,0,2025-08-22,2025-08-22,株式会社マサムネ,,株式会社,東京都,練馬区,関町南２丁目２３番２１号,,13,120,1770053,,,,,,,2025-08-22,1,,,,,マサムネ,0
68,1011803007031,新規,0,2025-08-22,2025-08-22,合同会社陽紅,,合同会社,東京都,葛飾区,柴又２丁目５番２８号ガーデンプラザ柴又弐番館７０４室,,13,122,1250052,,,,,,,2025-08-22,1,,,,,ハルク,0
70,1012401043518,新規,0,2025-08-22,2025-08-22,株式会社メメズ,,株式会社,東京都,武蔵野市,吉祥寺本町２丁目３３番２号吉祥寺プティット村３階,,13,203,1800004,,,,,,,2025-08-22,1,,,,,メメズ,0
83,1020001164493,新規,0,2025-08-22,2025-08-22,株式会社ハマゴン,,株式会社,神奈川県,川崎市川崎区,日ノ出２丁目７番１４号,,14,131,2100824,,,,,,,2025-08-22,1,,,,,ハマゴン,0
104,1030001168270,新規,0,2025-08-22,2025-08-22,株式会社オハイアリイ,,株式会社,埼玉県,さいたま市西区,大字指扇２７６番地５,,11,101,3310047,,,,,,,2025-08-22,1,,,,,オハイアリイ,0
108,1040001140063,新規,0,2025-08-22,2025-08-22,株式会社Ｃｌａｓｉａ,,株式会社,千葉県,柏市,若柴１７８番地４柏の葉キャンパス１４８街区１パークシティ柏の葉キャンパスザ・ゲートタワーウェスト３階,,12,217,2770871,,,,,,,2025-08-22,1,,,,,クラシア,0
109,1040001140121,新規,0,2025-08-22,2025-08-22,株式会社ＮＢＴ,,株式会社,千葉県,千葉市緑区,あすみが丘東１丁目２０番地１－２０１,,12,105,2670067,,,,,,,2025-08-22,1,,,,,エヌビーティー,0
110,1040001140154,新規,0,2025-08-22,2025-08-22,株式会社骨と歩行Ｌａｂ．,,株式会社,千葉県,市原市,東国分寺台１丁目４番地２１,,12,219,2900074,,,,,,,2025-08-22,1,,,,,ホネトホコウラボ,0
111,1040001140162,新規,0,2025-08-22,2025-08-22,ライフライン株式会社,,株式会社,千葉県,市川市,河原１６番１６号,,12,203,2720101,,,,,,,2025-08-22,1,,,,,ライフライン,0
112,1040001140170,新規,0,2025-08-22,2025-08-22,株式会社フォレストリバー,,株式会社,千葉県,市川市,南行徳１丁目１３番３号,,12,203,2720138,,,,,,,2025-08-22,1,,,,,フォレストリバー,0
113,1040001140187,新規,0,2025-08-22,2025-08-22,ＫＩＢＯ　ＴＲＡＤＩＮＧ株式会社,,株式会社,千葉県,佐倉市,染井野３丁目１６番地７,,12,212,2850831,,,,,,,2025-08-22,1,,,,,キボウトレーディング,0
114,1040001140204,新規,0,2025-08-22,2025-08-22,株式会社Ｘｃｅｌｌｅｎｔ,,株式会社,千葉県,船橋市,湊町２丁目１２－２４湊町日本橋ビル６Ｆ,,12,204,2730011,,,,,,,2025-08-22,1,,,,,エクセレント,0
124,1040005022852,新規,0,2025-08-22,2025-08-22,一般社団法人在日カンボジア人協会,,その他の設立登記法人,千葉県,千葉市若葉区,中野町１６６１番地,,12,104,2650051,,,,,,,2025-08-22,1,,,,,ザイニチカンボジアジンキョウカイ,0
129,1050003009512,新規,0,2025-08-22,2025-08-22,ＳＡＫＡＥ合同会社,,合同会社,茨城県,取手市,井野３５０７番地５,,08,217,3020011,,,,,,,2025-08-22,1,,,,,サカエ,0
143,1090003002876,新規,0,2025-08-22,2025-08-22,ＡＥＯＮ　ＭＯＴＯＲＳ合同会社,,合同会社,山梨県,中央市,関原３８５番地１号室,,19,214,4001512,,,,,,,2025-08-22,1,,,,,,0
146,1100001038887,新規,0,2025-08-22,2025-08-22,株式会社信和商事,,株式会社,長野県,松本市,城東２丁目８番１１号,,20,202,3900807,,,,,,,2025-08-22,1,,,,,シンワショウジ,0
161,1120001278903,新規,0,2025-08-22,2025-08-22,株式会社Ｄｒｅａｍ　Ｎｅｓｔ,,株式会社,大阪府,大阪市淀川区,西中島５丁目６番３－３０４号,,27,123,5320011,,,,,,,2025-08-22,1,,,,,ドリームネスト,0
162,1120001279026,新規,0,2025-08-22,2025-08-22,梅の蘭株式会社,,株式会社,大阪府,大阪市都島区,都島本通３丁目１８番４号２０８－１８号室,,27,102,5340021,,,,,,,2025-08-22,1,,,,,ウメノラン,0
163,1120001279042,新規,0,2025-08-22,2025-08-22,飛空間文化株式会社,,株式会社,大阪府,大阪市住吉区,長居２丁目１０番３－１０６号,,27,120,5580003,,,,,,,2025-08-22,1,,,,,トブクウカンブンカ,0
164,1120001279067,新規,0,2025-08-22,2025-08-22,ＡＴ株式会社,,株式会社,大阪府,大阪市中央区,東心斎橋１丁目１１番４号レトロ６８ビル４０１,,27,128,5420083,,,,,,,2025-08-22,1,,,,,エーティー,0
168,1120003030304,新規,0,2025-08-22,2025-08-22,ＣＯＭＥＣＣＯ合同会社,,合同会社,大阪府,大阪市住吉区,山之内１丁目２７番１５号,,27,120,5580023,,,,,,,2025-08-22,1,,,,,コメッコ,0
172,1120903005818,新規,0,2025-08-22,2025-08-22,ＴＭＫソリューションズ合同会社,,合同会社,大阪府,豊中市,東寺内町１番１０－４０４号,,27,203,5610871,,,,,,,2025-08-22,1,,,,,ティーエムケーソリューションズ,0
177,1130001080325,新規,0,2025-08-22,2025-08-22,株式会社ダンドリ,,株式会社,京都府,京都市下京区,七条通油小路東入大黒町２２７番地第２キョートビル４０２,,26,106,6008223,,,,,,,2025-08-22,1,,,,,ダンドリ,0
178,1130001080333,新規,0,2025-08-22,2025-08-22,株式会社Ｕ‐ｍｅ，ｉｎｃ．,,株式会社,京都府,京都市左京区,下鴨本町２７番地,,26,103,6060862,,,,,,,2025-08-22,1,,,,,ユーミーインコーポレーテッド,0
188,1140001139657,新規,0,2025-08-22,2025-08-22,ベスト株式会社,,株式会社,兵庫県,神戸市中央区,脇浜町２丁目１番２２号２Ｆ,,28,110,6510072,,,,,,,2025-08-22,1,,,,,ベスト,0
189,1140001139756,新規,0,2025-08-22,2025-08-22,株式会社ＯＮＥ　ＣＡＧＥ,,株式会社,兵庫県,神戸市中央区,新港町１１番１号,,28,110,6500041,,,,,,,2025-08-22,1,,,,,ワンケージ,0
193,1140003022472,新規,0,2025-08-22,2025-08-22,合同会社ＰＬＡＮ‐Ｃ,,合同会社,兵庫県,西宮市,笠屋町１５－２４,,28,204,6638136,,,,,,,2025-08-22,1,,,,,プランシー,0
200,1160003003578,新規,0,2025-08-22,2025-08-22,合同会社Ｅｓｐｅｌｈａｒ,,合同会社,滋賀県,東近江市,五個荘金堂町９４０番地,,25,213,5291405,,,,,,,2025-08-22,1,,,,,エスペリャー,0
205,1180001168297,新規,0,2025-08-22,2025-08-22,株式会社ＦＬＯＷ　ＤＲＩＶＥ,,株式会社,愛知県,常滑市,新開町２丁目２８番地,,23,216,4790837,,,,,,,2025-08-22,1,,,,,フロウドライブ,0
213,1180301040131,新規,0,2025-08-22,2025-08-22,株式会社ＩａｎｄＶ,,株式会社,愛知県,豊川市,馬場町弁天前８番地の１,,23,207,4420811,,,,,,,2025-08-22,1,,,,,アイアンドブイ,0
214,1200001044165,新規,0,2025-08-22,2025-08-22,株式会社クレール,,株式会社,岐阜県,不破郡垂井町,表佐字大持野５５－１,,21,361,5032122,,,,,,,2025-08-22,1,,,,,クレール,0
225,1290001111196,新規,0,2025-08-22,2025-08-22,スリーダブル株式会社,,株式会社,福岡県,福岡市早良区,飯倉５丁目２０番１４号,,40,137,8140161,,,,,,,2025-08-22,1,,,,,スリーダブル,0
228,1290003017284,新規,0,2025-08-22,2025-08-22,Ｍｙ　Ｆｉｒｓｔ合同会社,,合同会社,福岡県,久留米市,山川追分２丁目６番５－３号,,40,203,8390814,,,,,,,2025-08-22,1,,,,,マイファースト,0
229,1290003017318,新規,0,2025-08-22,2025-08-22,合同会社礼和,,合同会社,福岡県,うきは市,浮羽町朝田５９３番地１,,40,225,8391401,,,,,,,2025-08-22,1,,,,,レイワ,0
232,1290801031800,新規,0,2025-08-22,2025-08-22,株式会社ＳＵＮ　ＴＲＡＤＩＮＧ,,株式会社,福岡県,宮若市,平６２７,,40,226,8220141,,,,,,,2025-08-22,1,,,,,サントレーディング,0
233,1290803005141,新規,0,2025-08-22,2025-08-22,合同会社ななみ,,合同会社,福岡県,北九州市門司区,黒川東１丁目１０番１３号,,40,101,8010826,,,,,,,2025-08-22,1,,,,,ナナミ,0
238,1330003011183,新規,0,2025-08-22,2025-08-22,南九州飲料合同会社,,合同会社,熊本県,熊本市西区,田崎３丁目３番１３号,,43,103,8600053,,,,,,,2025-08-22,1,,,,,ミナミキュウシュウインリョウ,0
244,1360001035652,新規,0,2025-08-22,2025-08-22,株式会社ＭＡＴＥＲＥＡＬ,,株式会社,沖縄県,石垣市,字宮良９４番地１,,47,207,9070243,,,,,,,2025-08-22,1,,,,,マテリアル,0
246,1370001052969,新規,0,2025-08-22,2025-08-22,株式会社ＪＥＨＴ,,株式会社,宮城県,仙台市青葉区,一番町１丁目１１－９－１００２,,04,101,9800811,,,,,,,2025-08-22,1,,,,,ジェイイーエイチティ,0
252,1390003002433,新規,0,2025-08-22,2025-08-22,Ｓｏｎｅｘｔ合同会社,,合同会社,山形県,天童市,小路２丁目５番４７号,,06,210,9940032,,,,,,,2025-08-22,1,,,,,ソーネクスト,0
258,1430003018004,新規,0,2025-08-22,2025-08-22,合同会社ＡＬＥＧＲＥ,,合同会社,北海道,札幌市南区,藤野四条４丁目１４番１０号,,01,106,0612284,,,,,,,2025-08-22,1,,,,,アレグレ,0
268,1700150131952,新規,0,2025-08-22,2025-08-22,Ｎｏｖａ　Ｖｉｓｉｏｎ　Ｌｉｍｉｔｅｄ,,外国会社等,,,,,,,,ＲＭ１１，１３／Ｆ，ＢＬＫ　Ｃ　ＷＯＮＧ　ＫＩＮＧ　ＩＮＤ．ＢＬＤ．，１９２－１９８　ＣＨＯＩ　ＨＵＮＧ　ＲＤ　ＳＡＮ　ＰＯ　ＫＯＮＧ　ＨＯＮＧ　ＫＯＮＧ,,,,,,2025-08-22,1,,,,,ノヴァヴィジョンリミテッド,0
285,2010001257850,新規,0,2025-08-22,2025-08-22,株式会社東京ユナイテッドアセットマネジメント,,株式会社,東京都,中央区,日本橋室町２丁目１番１号日本橋三井タワー６階,,13,102,1030022,,,,,,,2025-08-22,1,,,,,トウキョウユナイテッドアセットマネジメント,0
286,2010001257909,新規,0,2025-08-22,2025-08-22,株式会社スノア,,株式会社,東京都,千代田区,神田淡路町２丁目１番地－４０１号,,13,101,1010063,,,,,,,2025-08-22,1,,,,,スノア,0
287,2010001257925,新規,0,2025-08-22,2025-08-22,パルグレイブ株式会社,,株式会社,東京都,中央区,新川２丁目１番４号,,13,102,1040033,,,,,,,2025-08-22,1,,,,,パルグレイブ,0
291,2010003048414,新規,0,2025-08-22,2025-08-22,逗子合同会社,,合同会社,東京都,千代田区,神田小川町３丁目２６番８号神田小川町三丁目ビル６階,,13,101,1010052,,,,,,,2025-08-22,1,,,,,ズシ,0
292,2010003048488,新規,0,2025-08-22,2025-08-22,合同会社９６Ａｓｓｅｔ　Ｍａｎａｇｅｍｅｎｔ,,合同会社,東京都,中央区,勝どき６丁目３番１－４１１６号,,13,102,1040054,,,,,,,2025-08-22,1,,,,,クロアセットマネジメント,0
293,2010003048496,新規,0,2025-08-22,2025-08-22,南二条プロパティー合同会社,,合同会社,東京都,千代田区,丸の内１丁目１１番１号,,13,101,1000005,,,,,,,2025-08-22,1,,,,,ミナミニジョウプロパティー,0
294,2010003048505,新規,0,2025-08-22,2025-08-22,合同会社インプルメント,,合同会社,東京都,千代田区,神田三崎町２丁目１７番８号,,13,101,1010061,,,,,,,2025-08-22,1,,,,,インプルメント,0
295,2010005040559,新規,0,2025-08-22,2025-08-22,一般財団法人Ｗｉｌｌ　ｆｏｒ　Ｊａｐａｎ,,その他の設立登記法人,東京都,文京区,本郷４丁目２４番５号,,13,105,1130033,,,,,,,2025-08-22,1,,,,,ウィルフォージャパン,0
296,2010005040575,新規,0,2025-08-22,2025-08-22,八幡１蜻蛉尻ロジスティック特定目的会社,,その他の設立登記法人,東京都,中央区,八重洲２丁目２番１号,,13,102,1040028,,,,,,,2025-08-22,1,,,,,ヤワタワントンボジリロジスティック,0
301,2010401191451,新規,0,2025-08-22,2025-08-22,株式会社ビューティバンビ,,株式会社,東京都,港区,南青山６丁目８番１１号岩井レースビル２Ｆ,,13,103,1070062,,,,,,,2025-08-22,1,,,,,ビューティバンビ,0
302,2010401192490,新規,0,2025-08-22,2025-08-22,Ｔｕｒｂｏ株式会社,,株式会社,東京都,港区,南青山７丁目１番５号,,13,103,1070062,,,,,,,2025-08-22,1,,,,,ターボ,0
303,2010401192540,新規,0,2025-08-22,2025-08-22,株式会社Ｘｓｅｅｄ　Ｌａｂ,,株式会社,東京都,港区,北青山１丁目３番１号アールキューブ青山３階,,13,103,1070061,,,,,,,2025-08-22,1,,,,,クロスシードラボ,0
304,2010401192573,新規,0,2025-08-22,2025-08-22,株式会社スラッシュ,,株式会社,東京都,港区,新橋３丁目９番１０号,,13,103,1050004,,,,,,,2025-08-22,1,,,,,スラッシュ,0
306,2010403035846,新規,0,2025-08-22,2025-08-22,合同会社ヴィラスト経営支援,,合同会社,東京都,港区,浜松町２丁目２番１５号浜松町ダイヤビル２Ｆ,,13,103,1050013,,,,,,,2025-08-22,1,,,,,ヴィラストケイエイシエン,0
317,2010901057904,新規,0,2025-08-22,2025-08-22,エンカント株式会社,,株式会社,東京都,世田谷区,太子堂２丁目２９番３号スカイ・ブルー・三軒茶屋２０１,,13,112,1540004,,,,,,,2025-08-22,1,,,,,エンカント,0
318,2010901057945,新規,0,2025-08-22,2025-08-22,株式会社ＬＯＫＩ,,株式会社,東京都,世田谷区,駒沢２丁目４８番２号ドエル駒沢２０２,,13,112,1540012,,,,,,,2025-08-22,1,,,,,ロキ,0
319,2011001171389,新規,0,2025-08-22,2025-08-22,株式会社Ｃｏｃｏ　Ｂｒｏｔｈｅｒｓ,,株式会社,東京都,渋谷区,道玄坂１丁目１０番８号渋谷道玄坂東急ビル２Ｆ－Ｃ,,13,113,1500043,,,,,,,2025-08-22,1,,,,,ココブラザーズ,0
320,2011001171455,新規,0,2025-08-22,2025-08-22,雛久株式会社,,株式会社,東京都,渋谷区,広尾１丁目１１番５－８１２号,,13,113,1500012,,,,,,,2025-08-22,1,,,,,ヒナキュウ,0
321,2011001171505,新規,0,2025-08-22,2025-08-22,株式会社デザインスピリッツ,,株式会社,東京都,渋谷区,道玄坂２丁目２５番１２号道玄坂通４階,,13,113,1500043,,,,,,,2025-08-22,1,,,,,デザインスピリッツ,0
322,2011003022185,新規,0,2025-08-22,2025-08-22,Ｎｉｐｐｏｎ　Ｂｒｉｄｇｅ合同会社,,合同会社,東京都,渋谷区,円山町５番５号Ｎａｖｉ渋谷Ｖ３階,00140385,13,113,1500044,,,,,,,2025-08-22,1,,,,,ニッポンブリッジ,0
324,2011101112664,新規,0,2025-08-22,2025-08-22,株式会社Ｎｕｓｔ,,株式会社,東京都,新宿区,西新宿６丁目１８－１住友不動産新宿セントラルパークタワー５０１,,13,104,1600023,,,,,,,2025-08-22,1,,,,,ナスト,0
344,2012703003342,新規,0,2025-08-22,2025-08-22,合同会社内田直四郎プロダクション,,合同会社,東京都,小平市,花小金井５丁目２番１９号,,13,211,1870002,,,,,,,2025-08-22,1,,,,,ウチダナオシロウプロダクション,0
346,2012803003837,新規,0,2025-08-22,2025-08-22,Ｐｈａｒｍａ　Ｂｉｚ　Ｃｏｎｓｕｌｔｉｎｇ合同会社,,合同会社,東京都,日野市,旭が丘１丁目７番地の３グロリー旭が丘１０２号室,,13,212,1910065,,,,,,,2025-08-22,1,,,,,ファーマビズコンサルティング,0
357,2020001164385,新規,0,2025-08-22,2025-08-22,株式会社ふじおか,,株式会社,神奈川県,横浜市港南区,日限山１丁目１９番１７号,,14,111,2330015,,,,,,,2025-08-22,1,,,,,フジオカ,0
358,2020001164451,新規,0,2025-08-22,2025-08-22,株式会社パキパキジャパン,,株式会社,神奈川県,川崎市宮前区,南野川３丁目３３番３８－１０２号,,14,136,2160042,,,,,,,2025-08-22,1,,,,,パキパキジャパン,0
359,2020001164492,新規,0,2025-08-22,2025-08-22,ｍｏｓｈｂｉｔｅ株式会社,,株式会社,神奈川県,横浜市旭区,万騎が原１４１番地１１,,14,112,2410836,,,,,,,2025-08-22,1,,,,,モッシュバイト,0
370,2021001086000,新規,0,2025-08-22,2025-08-22,株式会社Ｙｕｍｅｌ,,株式会社,神奈川県,茅ヶ崎市,幸町１８番３号,,14,207,2530052,,,,,,,2025-08-22,1,,,,,ユメル,0
371,2021001086149,新規,0,2025-08-22,2025-08-22,株式会社湯河原温泉緑屋,,株式会社,神奈川県,足柄下郡湯河原町,宮上５３５番地,,14,384,2590314,,,,,,,2025-08-22,1,,,,,ユガワラオンセンミドリヤ,0
374,2021003016434,新規,0,2025-08-22,2025-08-22,Ｈａｐｐｙ　Ｌａｂ合同会社,,合同会社,神奈川県,鎌倉市,材木座５丁目１４番３８号,,14,204,2480013,,,,,,,2025-08-22,1,,,,,ハッピーラボ,0
375,2021005013421,新規,0,2025-08-22,2025-08-22,特定非営利活動法人海老名のら猫を増やさない会,,その他の設立登記法人,神奈川県,海老名市,上今泉１丁目９番３６号,,14,215,2430431,,,,,,,2025-08-22,1,,,,,エビナノラネコヲフヤサナイカイ,0
379,2030001168294,新規,0,2025-08-22,2025-08-22,株式会社エターナル,,株式会社,埼玉県,さいたま市南区,別所５丁目１５－２,,11,108,3360021,,,,,,,2025-08-22,1,,,,,,0
383,2030003027283,新規,0,2025-08-22,2025-08-22,スターライン合同会社,,合同会社,埼玉県,さいたま市西区,大字佐知川８９１－７,,11,101,3310064,,,,,,,2025-08-22,1,,,,,スターライン,0
384,2030003027341,新規,0,2025-08-22,2025-08-22,Ｉｒｒａｗａｄｄｙ　Ｃｏｎｎｅｃｔ合同会社,,合同会社,埼玉県,川口市,川口４丁目７番８－５０１号コンド川口,,11,203,3320015,,,,,,,2025-08-22,1,,,,,エーヤワデイコネクト,0
393,2040001140070,新規,0,2025-08-22,2025-08-22,株式会社みんゼロ,,株式会社,千葉県,松戸市,西馬橋蔵元町１３ラフィーヌセンチュリー４０３,,12,207,2710046,,,,,,,2025-08-22,1,,,,,ミンゼロ,0
394,2040001140120,新規,0,2025-08-22,2025-08-22,株式会社寛峯,,株式会社,千葉県,我孫子市,青山台２丁目２６番３－Ａ４０７号ブルーヒルズ,,12,222,2701175,,,,,,,2025-08-22,1,,,,,ヒロミネ,0
395,2040001140161,新規,0,2025-08-22,2025-08-22,株式会社彩心,,株式会社,千葉県,船橋市,二和東６丁目３８番１３号,,12,204,2740805,,,,,,,2025-08-22,1,,,,,サイシン,0
396,2040001140186,新規,0,2025-08-22,2025-08-22,チーム・フードアセット株式会社,,株式会社,千葉県,千葉市若葉区,若松町５０２－２５４,,12,104,2640021,,,,,,,2025-08-22,1,,,,,チームフードアセット,0
397,2040001140203,新規,0,2025-08-22,2025-08-22,株式会社Ｌａｎｄｎｏｖａ,,株式会社,千葉県,千葉市中央区,川戸町６８５番地,,12,101,2600802,,,,,,,2025-08-22,1,,,,,ランドノヴァ,0
399,2040003028297,新規,0,2025-08-22,2025-08-22,合同会社ＹＮＨ,,合同会社,千葉県,習志野市,大久保３丁目１３番１号,,12,216,2750011,,,,,,,2025-08-22,1,,,,,ワイエヌエイチ,0
404,2050001057140,新規,0,2025-08-22,2025-08-22,株式会社ＢＥＡＴ,,株式会社,茨城県,つくば市,横町３０５番地１１,,08,220,3050017,,,,,,,2025-08-22,1,,,,,ビート,0
408,2050003009503,新規,0,2025-08-22,2025-08-22,合同会社山ちゃん,,合同会社,茨城県,牛久市,さくら台３丁目６１－１,,08,219,3001217,,,,,,,2025-08-22,1,,,,,ヤマチャン,0
424,2090001019475,新規,0,2025-08-22,2025-08-22,株式会社き屋,,株式会社,山梨県,甲府市,下積翠寺町９２１番地,,19,201,4000012,,,,,,,2025-08-22,1,,,,,キヤ,0
426,2100003008350,新規,0,2025-08-22,2025-08-22,Ｔｈｅ　Ｈａｙ　Ｇｒｏｕｐ合同会社,,合同会社,長野県,飯山市,大字飯山字八坊塚１１４９２番地１８９,,20,213,3892253,,,,,,,2025-08-22,1,,,,,ザヘイグループ,0
443,2120001278951,新規,0,2025-08-22,2025-08-22,株式会社誠和ホーム,,株式会社,大阪府,大阪市住吉区,沢之町１丁目４番８号,,27,120,5580031,,,,,,,2025-08-22,1,,,,,セイワホーム,0
444,2120001279017,新規,0,2025-08-22,2025-08-22,株式会社しずくいろ,,株式会社,大阪府,大阪市西成区,天下茶屋１丁目１１番８号サンハイツ天下茶屋２０２号室,,27,122,5570014,,,,,,,2025-08-22,1,,,,,シズクイロ,0
446,2120003030328,新規,0,2025-08-22,2025-08-22,ＢＲＩＧＨＴＰＡＴＨ合同会社,,合同会社,大阪府,大阪市西淀川区,姫島１丁目２８番３号第２今川ビル３０１号室,,27,113,5550033,,,,,,,2025-08-22,1,,,,,ブライトパス,0
460,2140001139771,新規,0,2025-08-22,2025-08-22,利君株式会社,,株式会社,兵庫県,神戸市兵庫区,佐比江町１０番１５号,,28,105,6520821,,,,,,,2025-08-22,1,,,,,リクン,0
464,2140003022463,新規,0,2025-08-22,2025-08-22,合同会社向日葵,,合同会社,兵庫県,三田市,須磨田５３５－３,,28,219,6691352,,,,,,,2025-08-22,1,,,,,ヒマワリ,0
465,2140003022471,新規,0,2025-08-22,2025-08-22,合同会社フライトシード,,合同会社,兵庫県,神戸市中央区,磯辺通１丁目１番１８号カサベラ国際プラザビル７０７号室,,28,110,6510084,,,,,,,2025-08-22,1,,,,,フライトシード,0
469,2150001028346,新規,0,2025-08-22,2025-08-22,株式会社ピーク,,株式会社,奈良県,大和郡山市,東岡町２８－１０,,29,203,6391137,,,,,,,2025-08-22,1,,,,,ピーク,0
470,2150001028354,新規,0,2025-08-22,2025-08-22,株式会社Ｔ‐ｓａｖｉｎｇ,,株式会社,奈良県,奈良市,法蓮町２０番地の１,,29,201,6308113,,,,,,,2025-08-22,1,,,,,ティーセービング,0
472,2160003003577,新規,0,2025-08-22,2025-08-22,合同会社ＴｒａｎｓＲｏｏｔｓ,,合同会社,滋賀県,野洲市,冨波甲１０１５番地８,,25,210,5202351,,,,,,,2025-08-22,1,,,,,トランスルーツ,0
479,2180001168288,新規,0,2025-08-22,2025-08-22,株式会社アテン,,株式会社,愛知県,名古屋市千種区,大久手町５丁目１６番地,,23,101,4640854,,,,,,,2025-08-22,1,,,,,アテン,0
480,2180001168296,新規,0,2025-08-22,2025-08-22,ナチュラルナイン株式会社,,株式会社,愛知県,名古屋市中区,大須２丁目２５番１２号コーポ末広２０３号室,,23,106,4600011,,,,,,,2025-08-22,1,,,,,ナチュラルナイン,0
483,2190002024729,新規,0,2025-08-22,2025-08-22,有限会社三栄工芸社,,有限会社,三重県,四日市市,海山道町１丁目７０番地,,24,202,5100845,,,,,,,2025-08-22,1,,,,,サンエイコウゲイシャ,0
488,2240001065405,新規,0,2025-08-22,2025-08-22,株式会社Ｔｉｃｏｎ,,株式会社,広島県,広島市東区,光町２丁目１４番９号１Ｆ,,34,102,7320052,,,,,,,2025-08-22,1,,,,,タイコン,0
493,2260001040463,新規,0,2025-08-22,2025-08-22,株式会社ＣＯＸ,,株式会社,岡山県,岡山市北区,野田３丁目１５番２７号グランデ・アルベロ３０３,,33,101,7000971,,,,,,,2025-08-22,1,,,,,コックス,0
497,2290001111220,新規,0,2025-08-22,2025-08-22,ＭＡＤＯＲＩＹＡ　ＢＡＳＥ株式会社,,株式会社,福岡県,福岡市中央区,平尾１丁目４番７号土橋ビル１Ｆ－Ｂ,,40,133,8100014,,,,,,,2025-08-22,1,,,,,マドリヤベース,0
498,2290001111261,新規,0,2025-08-22,2025-08-22,大道株式会社,,株式会社,福岡県,福岡市南区,鶴田２丁目１７番３３号,,40,134,8111352,,,,,,,2025-08-22,1,,,,,ダイドウ,0
500,2290003017036,新規,0,2025-08-22,2025-08-22,合同会社ＦＦＭ．ｃｏｍ,,合同会社,福岡県,福岡市中央区,天神４丁目６－２８天神ファーストビル７階,,40,133,8100001,,,,,,,2025-08-22,1,,,,,エフエフエムドットコム,0
501,2290801031799,新規,0,2025-08-22,2025-08-22,株式会社ＯＹＡＭＡ,,株式会社,福岡県,北九州市小倉北区,末広２丁目３番４号,,40,106,8020012,,,,,,,2025-08-22,1,,,,,オオヤマ,0
504,2290803005140,新規,0,2025-08-22,2025-08-22,合同会社対州商会,,合同会社,福岡県,遠賀郡水巻町,吉田西２丁目９番１３号,,40,382,8070046,,,,,,,2025-08-22,1,,,,,タイシユウショウカイ,0
508,2310003005070,新規,0,2025-08-22,2025-08-22,合同会社橘,,合同会社,長崎県,東彼杵郡川棚町,百津郷２９６番地１８２,,42,322,8593605,,,,,,,2025-08-22,1,,,,,タチバナ,0
512,2330003011182,新規,0,2025-08-22,2025-08-22,合同会社Ａｌａｎｉ,,合同会社,熊本県,菊池郡大津町,大字室１９９１番地３,,43,403,8691235,,,,,,,2025-08-22,1,,,,,アラーニ,0
516,2360005007275,新規,0,2025-08-22,2025-08-22,一般社団法人こども支援・政策研究所,,その他の設立登記法人,沖縄県,那覇市,首里石嶺町３丁目１４４番地３,,47,201,9030804,,,,,,,2025-08-22,1,,,,,コドモシエンセイサクケンキュウショ,0
518,2370003007235,新規,0,2025-08-22,2025-08-22,ココロヲドル合同会社,,合同会社,宮城県,富谷市,成田６丁目２１番地１４,,04,216,9813341,,,,,,,2025-08-22,1,,,,,ココロヲドル,0
533,2430001095069,新規,0,2025-08-22,2025-08-22,砂山アセットプランニング株式会社,,株式会社,北海道,札幌市北区,篠路三条７丁目９番１６号,,01,102,0028023,,,,,,,2025-08-22,1,,,,,スナヤマアセットプランニング,0
538,2470001020865,新規,0,2025-08-22,2025-08-22,Ｇ‐ＣＯＮＮＥＣＴ　Ｃａｒｅ株式会社,,株式会社,香川県,高松市,木太町３３９６番地１１,,37,201,7600080,,,,,,,2025-08-22,1,,,,,ジーコネクトケア,0
542,2500001026479,新規,0,2025-08-22,2025-08-22,株式会社弓削ＫｏＣｏ．,,株式会社,愛媛県,越智郡上島町,弓削下弓削２８０番地,,38,356,7942506,,,,,,,2025-08-22,1,,,,,ユゲコオコオ,0
546,2700150131951,新規,0,2025-08-22,2025-08-22,ＨＫ　ＧＥＤＩＡＯ　ＩＮＴＥＬＬＩＧＥＮＴ　ＴＥＣＨＮＯＬＯＧＹ　ＬＩＭＩＴＥＤ,,外国会社等,,,,,,,,ＮＯ．２３０　ＷＡＮ　ＣＨＡＩ　ＲＯＡＤ　ＵＮＩＴ　８Ｄ１，８ＴＨ　ＦＬＯＯＲ，ＧＲＥＡＴ　ＳＭＡＲＴ　ＴＯＷＥＲ　ＨＯＮＧ　ＫＯＮＧ　ＣＨＩＮＡ　９９９０７７　ＨＫ,,,,,,2025-08-22,1,,,,,エイチケージェディアオインテリジェントテクノロジーリミテッド,0
559,3010001257890,新規,0,2025-08-22,2025-08-22,卿詩萃株式会社,,株式会社,東京都,文京区,千石４丁目１４番９号,,13,105,1120011,,,,,,,2025-08-22,1,,,,,ケイシスイ,0
560,3010001257924,新規,0,2025-08-22,2025-08-22,Ｘｃｏｔｔｏｎ株式会社,,株式会社,東京都,中央区,銀座７丁目１３番６号サガミビル２階,,13,102,1040061,,,,,,,2025-08-22,1,,,,,エックスコットン,0
563,3010003048504,新規,0,2025-08-22,2025-08-22,東新宿プロパティー合同会社,,合同会社,東京都,千代田区,丸の内１丁目１１番１号,,13,101,1000005,,,,,,,2025-08-22,1,,,,,ヒガシシンジュクプロパティー,0
564,3010005040574,新規,0,2025-08-22,2025-08-22,三郷４ロジスティック特定目的会社,,その他の設立登記法人,東京都,中央区,八重洲２丁目２番１号,,13,102,1040028,,,,,,,2025-08-22,1,,,,,ミサトフォーロジスティック,0
574,3010401192465,新規,0,2025-08-22,2025-08-22,株式会社クリアアート,,株式会社,東京都,港区,浜松町２丁目２番１５号浜松町ダイヤビル２Ｆ,,13,103,1050013,,,,,,,2025-08-22,1,,,,,クリアアート,0
575,3010401192548,新規,0,2025-08-22,2025-08-22,Ｃｈｒｏｍｏｕｓ２株式会社,,株式会社,東京都,港区,麻布台１丁目３番１号麻布台ヒルズ森ＪＰタワー１７階,,13,103,1060041,,,,,,,2025-08-22,1,,,,,クロウモスツー,0
576,3010401192663,新規,0,2025-08-22,2025-08-22,株式会社ｃｏｃｏｌｉｎｋ,,株式会社,東京都,港区,六本木７丁目１５―１３,,13,103,1060032,,,,,,,2025-08-22,1,,,,,ココリンク,0
579,3010403035845,新規,0,2025-08-22,2025-08-22,日本音響権利合同会社,,合同会社,東京都,港区,六本木３丁目１６番１２号,,13,103,1060032,,,,,,,2025-08-22,1,,,,,ニホンオンキョウケンリ,0
580,3010403035878,新規,0,2025-08-22,2025-08-22,ＫＩＣＤＣ合同会社,,合同会社,東京都,港区,南青山４丁目２１番２６号リュエル青山Ｃ棟Ｂ１細谷総合会計事務所内,,13,103,1070062,,,,,,,2025-08-22,1,,,,,ケイアイシーディーシー,0
588,3010601067822,新規,0,2025-08-22,2025-08-22,株式会社ＰＲＩＭＥ　ＧＡＴＥ,,株式会社,東京都,墨田区,太平１丁目２５－７メゾンドソレイユＩＩ２０１,00140393,13,107,1300012,,,,,,,2025-08-22,1,,,,,プライムゲート,0
590,3010603011753,新規,0,2025-08-22,2025-08-22,合同会社無限堂,,合同会社,東京都,墨田区,向島３丁目１１番６号,,13,107,1310033,,,,,,,2025-08-22,1,,,,,ムゲンドウ,0
593,3010701048202,新規,0,2025-08-22,2025-08-22,株式会社香りのエキスパート,,株式会社,東京都,品川区,大井１丁目６番３号,,13,109,1400014,,,,,,,2025-08-22,1,,,,,カオリノエキスパート,0
597,3010803005514,新規,0,2025-08-22,2025-08-22,ＴＹアセットマネジメント合同会社,,合同会社,東京都,大田区,南馬込３丁目２番５号,,13,111,1430025,,,,,,,2025-08-22,1,,,,,ティーワイアセットマネジメント,0
607,3011001171529,新規,0,2025-08-22,2025-08-22,株式会社ＲｅＭｏ,,株式会社,東京都,渋谷区,恵比寿西２丁目８番４号ＥＸ恵比寿西ビル５階,,13,113,1500021,,,,,,,2025-08-22,1,,,,,リモ,0
608,3011001171545,新規,0,2025-08-22,2025-08-22,株式会社ヨシダ,,株式会社,東京都,渋谷区,道玄坂１丁目１０番８号渋谷道玄坂東急ビル２Ｆ－Ｃ,,13,113,1500043,,,,,,,2025-08-22,1,,,,,ヨシダ,0
609,3011001171735,新規,0,2025-08-22,2025-08-22,Ｔｈｅ　Ｓａｎｃｔｕａｒｙ　Ｊａｐａｎ株式会社,,株式会社,東京都,渋谷区,神宮前６丁目２８番９号東武ビル６Ｆ,,13,113,1500001,,,,,,,2025-08-22,1,,,,,ザサンクチュアリージャパン,0
610,3011003022093,新規,0,2025-08-22,2025-08-22,合同会社たいよう,,合同会社,東京都,渋谷区,渋谷３丁目７－１高山ランド第１２ビル,,13,113,1500002,,,,,,,2025-08-22,1,,,,,タイヨウ,0
611,3011003022201,新規,0,2025-08-22,2025-08-22,さち合同会社,,合同会社,東京都,目黒区,青葉台１丁目１４番４号ＣＯＮＴＲＡＬｎａｋａｍｅｇｕｒｏＷＬ－０７,,13,110,1530042,,,,,,,2025-08-22,1,,,,,サチ,0
614,3011101112639,新規,0,2025-08-22,2025-08-22,東平株式会社,,株式会社,東京都,新宿区,山吹町３３７－５都住創山吹町ビル６０４Ｃ,,13,104,1620801,,,,,,,2025-08-22,1,,,,,トウヘイ,0
616,3011103016202,新規,0,2025-08-22,2025-08-22,オーラムゲート合同会社,,合同会社,東京都,新宿区,西新宿７丁目５－９ファーストリアルタワー新宿２８０６,,13,104,1600023,,,,,,,2025-08-22,1,,,,,オーラムゲート,0
617,3011103016284,新規,0,2025-08-22,2025-08-22,首都圏レジ４合同会社,,合同会社,東京都,新宿区,四谷４丁目３２番８号ＹＫＢサニービル６階,,13,104,1600004,,,,,,,2025-08-22,1,,,,,シュトケンレジフォー,0
618,3011301030822,新規,0,2025-08-22,2025-08-22,コックピット株式会社,,株式会社,東京都,杉並区,永福４丁目３０番２１号,,13,115,1680064,,,,,,,2025-08-22,1,,,,,コックピット,0
626,3011801046640,新規,0,2025-08-22,2025-08-22,エンリッチ株式会社,,株式会社,東京都,足立区,宮城１丁目１６－２０,,13,121,1200047,,,,,,,2025-08-22,1,,,,,エンリッチ,0
628,3011803007038,新規,0,2025-08-22,2025-08-22,合同会社ちから,,合同会社,東京都,足立区,梅島１丁目３１番６－３０７号,,13,121,1210816,,,,,,,2025-08-22,1,,,,,チカラ,0
630,3012403007295,新規,0,2025-08-22,2025-08-22,ノットクリエイティブ合同会社,,合同会社,東京都,武蔵野市,吉祥寺本町１丁目２０番１号吉祥寺永谷シティプラザ１００２,,13,203,1800004,,,,,,,2025-08-22,1,,,,,ノットクリエイティブ,0
631,3012801024181,新規,0,2025-08-22,2025-08-22,株式会社葬儀の羽柴,,株式会社,東京都,日野市,日野本町２丁目１４－４,,13,212,1910011,,,,,,,2025-08-22,1,,,,,ソウギノハシバ,0
641,3020001164244,新規,0,2025-08-22,2025-08-22,グローアーキテクト株式会社,,株式会社,神奈川県,横浜市青葉区,鴨志田町５６９番地１グリーンヒル鴨志田西団地２６棟１０５号,,14,117,2270033,,,,,,,2025-08-22,1,,,,,グローアーキテクト,0
642,3020005016961,新規,0,2025-08-22,2025-08-22,一般社団法人ウェルビーイング横浜,,その他の設立登記法人,神奈川県,横浜市中区,尾上町４丁目５７横浜尾上町ビルディング８階リージャス関内ビジネスセンター,,14,104,2310015,,,,,,,2025-08-22,1,,,,,ウェルビーイングヨコハマ,0
651,3030001168269,新規,0,2025-08-22,2025-08-22,Ｇ．Ａ．コンサルティング株式会社,,株式会社,埼玉県,戸田市,新曽南１丁目１０番１号,,11,224,3350026,,,,,,,2025-08-22,1,,,,,ジーエーコンサルティング,0
652,3030001168285,新規,0,2025-08-22,2025-08-22,日中グローバルサービス株式会社,,株式会社,埼玉県,北葛飾郡杉戸町,大字下高野３１３番地７２,,11,464,3450043,,,,,,,2025-08-22,1,,,,,ニッチュウグローバルサービス,0
663,3040003028321,新規,0,2025-08-22,2025-08-22,４８２エナジースリー合同会社,,合同会社,千葉県,柏市,若柴１７８番地４柏の葉キャンパス１４８街区２ＫＯＩＬ５,,12,217,2770871,,,,,,,2025-08-22,1,,,,,シバフエナジースリー,0
664,3040003028338,新規,0,2025-08-22,2025-08-22,合同会社ファーミングサポート,,合同会社,千葉県,船橋市,海神２丁目１０番１８号ＮＳハイム１０４号,,12,204,2730021,,,,,,,2025-08-22,1,,,,,ファーミングサポート,0
671,3050001057148,新規,0,2025-08-22,2025-08-22,株式会社麻生工業,,株式会社,茨城県,土浦市,神立中央５丁目２６番４号,,08,203,3000011,,,,,,,2025-08-22,1,,,,,アソウコウギョウ,0
672,3050001057156,新規,0,2025-08-22,2025-08-22,株式会社サンライト,,株式会社,茨城県,つくば市,梅園２丁目１－１５スプリングテックつくばビル４０１,,08,220,3050045,,,,,,,2025-08-22,1,,,,,サンライト,0
674,3050003009510,新規,0,2025-08-22,2025-08-22,ＹＵＤ合同会社,,合同会社,茨城県,つくば市,上郷２７２５番地１,,08,220,3002645,,,,,,,2025-08-22,1,,,,,ワイユーディー,0
681,3080101025737,新規,0,2025-08-22,2025-08-22,株式会社幸の鳥,,株式会社,静岡県,伊東市,松原本町１３番４号,,22,208,4140021,,,,,,,2025-08-22,1,,,,,コウノトリ,0
684,3090001019474,新規,0,2025-08-22,2025-08-22,株式会社カヴェリ,,株式会社,山梨県,北杜市,高根町長澤４９８６番地７０６,,19,209,4080001,,,,,,,2025-08-22,1,,,,,,0
686,3090003002874,新規,0,2025-08-22,2025-08-22,ＧＴＡＭコンサルティング合同会社,,合同会社,山梨県,甲府市,川田町アリア２０３,,19,201,4000811,,,,,,,2025-08-22,1,,,,,ジーティーエムコンサルティング,0
704,3120001278843,新規,0,2025-08-22,2025-08-22,ｃｅｌｌｎｏｖｏ産業投資株式会社,,株式会社,大阪府,大阪市生野区,巽北１丁目１番１号１Ｆ－Ｃ,,27,116,5440004,,,,,,,2025-08-22,1,,,,,セルノボサンギョウトウシ,0
708,3120003030319,新規,0,2025-08-22,2025-08-22,ＴＲＵＮＧ　ＫＩＥＮ合同会社,,合同会社,大阪府,大阪市西成区,萩之茶屋２丁目６－４ニューかめや２７７号室,,27,122,5570004,,,,,,,2025-08-22,1,,,,,チュンキエン,0
714,3120901051358,新規,0,2025-08-22,2025-08-22,Ｑｕａｌｉｔｙ　Ｗｏｒｌｄ株式会社,,株式会社,大阪府,豊中市,箕輪１丁目１６番３の１号,,27,203,5600035,,,,,,,2025-08-22,1,,,,,クオリティワールド,0
716,3122001039614,新規,0,2025-08-22,2025-08-22,株式会社あたらよ,,株式会社,大阪府,東大阪市,菱屋西６丁目９番１号シャルム小阪４番館３０７号室,,27,227,5770807,,,,,,,2025-08-22,1,,,,,アタラヨ,0
719,3130001080315,新規,0,2025-08-22,2025-08-22,ライフエンディングサポート株式会社,,株式会社,京都府,京都市北区,紫野西蓮台野町７１－９６,,26,101,6038245,,,,,,,2025-08-22,1,,,,,ライフエンディングサポート,0
720,3130001080331,新規,0,2025-08-22,2025-08-22,株式会社アト,,株式会社,京都府,京都市下京区,小稲荷町８５－２Ｇｒａｎｄ－Ｋ京都駅前ビル２０１,,26,106,6008208,,,,,,,2025-08-22,1,,,,,アト,0
721,3130001080348,新規,0,2025-08-22,2025-08-22,鶴辰醸造株式会社,,株式会社,京都府,京都市下京区,中堂寺南町１３４番地ＡＳＴＥＭ８階,,26,106,6008813,,,,,,,2025-08-22,1,,,,,ツルタツジョウゾウ,0
733,3150001028345,新規,0,2025-08-22,2025-08-22,株式会社サンワイ・スマイルバンク,,株式会社,奈良県,生駒市,高山町７８５４番地,,29,209,6300101,,,,,,,2025-08-22,1,,,,,サンワイスマイルバンク,0
736,3180001168295,新規,0,2025-08-22,2025-08-22,五菱ケミカル株式会社,,株式会社,愛知県,名古屋市西区,名駅２丁目３４番１７号セントラル名古屋１１０１号,,23,104,4510045,,,,,,,2025-08-22,1,,,,,ゴリョウケミカル,0
742,3180303006698,新規,0,2025-08-22,2025-08-22,合同会社ＲＡＩＫＳ,,合同会社,愛知県,豊橋市,潮崎町４９番地,,23,201,4418069,,,,,,,2025-08-22,1,,,,,ライクス,0
747,3200001044163,新規,0,2025-08-22,2025-08-22,株式会社エイト,,株式会社,岐阜県,岐阜市,則武東３丁目１番８号,,21,201,5020929,,,,,,,2025-08-22,1,,,,,エイト,0
749,3200003006987,新規,0,2025-08-22,2025-08-22,合同会社リボーンベジ,,合同会社,岐阜県,海津市,海津町高須１７４,,21,221,5030654,,,,,,,2025-08-22,1,,,,,リボーンベジ,0
751,3210001020287,新規,0,2025-08-22,2025-08-22,株式会社Ｌｉｌｉｔｈ,,株式会社,福井県,福井市,順化２丁目１２番６号パークサイドビル２Ｆ,,18,201,9100023,,,,,,,2025-08-22,1,,,,,リリス,0
753,3210005010219,新規,0,2025-08-22,2025-08-22,一般財団法人セルフネン推進機構,,その他の設立登記法人,福井県,坂井市,丸岡町里丸岡２丁目１１８番地,,18,210,9100302,,,,,,,2025-08-22,1,,,,,セルフネンスイシンキコウ,0
754,3230001021052,新規,0,2025-08-22,2025-08-22,株式会社ＯＲＢＩＴ,,株式会社,富山県,射水市,二口２５１０番地２,,16,211,9390234,,,,,,,2025-08-22,1,,,,,オービット,0
756,3240001065404,新規,0,2025-08-22,2025-08-22,Ｐｒｏｍｐｔｈｉｎｇ株式会社,,株式会社,広島県,広島市西区,古江西町２６番５３号,,34,104,7330874,,,,,,,2025-08-22,1,,,,,プロンプシィング,0
761,3250003003798,新規,0,2025-08-22,2025-08-22,合同会社ＣＯＣＯＮ,,合同会社,山口県,光市,虹ケ丘５丁目１６番３号,,35,210,7430031,,,,,,,2025-08-22,1,,,,,ココン,0
767,3260003005298,新規,0,2025-08-22,2025-08-22,合同会社ＫＴＳ,,合同会社,岡山県,新見市,哲西町上神代８０番地,,33,210,7193702,,,,,,,2025-08-22,1,,,,,ケーティーエス,0
780,3330003011181,新規,0,2025-08-22,2025-08-22,合同会社風神企画,,合同会社,熊本県,上益城郡益城町,大字広崎５５６番地９,,43,443,8612236,,,,,,,2025-08-22,1,,,,,フウジンキカク,0
781,3340001027609,新規,0,2025-08-22,2025-08-22,株式会社ニックス,,株式会社,鹿児島県,霧島市,隼人町住吉３８５番地３フラワーマンション３０２号室,,46,218,8995101,,,,,,,2025-08-22,1,,,,,ニックス,0
788,3360003015188,新規,0,2025-08-22,2025-08-22,合同会社Ｌｉｆｅ,,合同会社,沖縄県,うるま市,石川東山２丁目１０－３,,47,213,9041102,,,,,,,2025-08-22,1,,,,,ライフ,0
807,3430001095068,新規,0,2025-08-22,2025-08-22,株式会社ＣＯＵＲＡＧＥ,,株式会社,北海道,札幌市中央区,南九条西４丁目５－１２カモカモビル３０２,,01,101,0640809,,,,,,,2025-08-22,1,,,,,クラージュ,0
808,3430001095118,新規,0,2025-08-22,2025-08-22,株式会社ＭＫ,,株式会社,北海道,札幌市中央区,南十四条西７丁目１番４１－１０３号,,01,101,0640914,,,,,,,2025-08-22,1,,,,,エムケー,0
811,3430003018010,新規,0,2025-08-22,2025-08-22,合同会社米助,,合同会社,北海道,札幌市中央区,南八条西６丁目２８９番地３５ＬＣ拾弐番館ビル４０２号室,,01,101,0640808,,,,,,,2025-08-22,1,,,,,コメスケ,0
816,3500003003574,新規,0,2025-08-22,2025-08-22,こまつ木工合同会社,,合同会社,愛媛県,西条市,小松町妙口甲２６番地６,,38,206,7991104,,,,,,,2025-08-22,1,,,,,コマツモッコウ,0
829,4010001257790,新規,0,2025-08-22,2025-08-22,東洋産業株式会社,,株式会社,東京都,中央区,築地７丁目１０番８号ＳＥＡビル２０３号室,,13,102,1040045,,,,,,,2025-08-22,1,,,,,トウヨウサンギョウ,0
830,4010001257881,新規,0,2025-08-22,2025-08-22,株式会社Ｐ．Ａ．１,,株式会社,東京都,中央区,銀座１丁目１２－４Ｎ＆ＥＢＬＤ．７階,,13,102,1040061,,,,,,,2025-08-22,1,,,,,ピーエーワン,0
831,4010001257907,新規,0,2025-08-22,2025-08-22,株式会社銀座みやび鑑定,,株式会社,東京都,中央区,銀座１丁目１２番４号,,13,102,1040061,,,,,,,2025-08-22,1,,,,,ギンザミヤビカンテイ,0
832,4010001257948,新規,0,2025-08-22,2025-08-22,百誉株式会社,,株式会社,東京都,中央区,日本橋蛎殻町１丁目３０番４号,,13,102,1030014,,,,,,,2025-08-22,1,,,,,ヒャクヨ,0
837,4010003048420,新規,0,2025-08-22,2025-08-22,合同会社ＨｉＢＡＴ,,合同会社,東京都,千代田区,永田町２丁目１１番１号山王パークタワー５階トラスティーズ・コンサルティングＬＬＰ内,,13,101,1000014,,,,,,,2025-08-22,1,,,,,ハイバット,0
841,4010005040573,新規,0,2025-08-22,2025-08-22,ＪＤＰ開発ロジスティック２特定目的会社,,その他の設立登記法人,東京都,中央区,八重洲２丁目２番１号,,13,102,1040028,,,,,,,2025-08-22,1,,,,,ジェイディーピーカイハツロジスティックツー,0
849,4010401192514,新規,0,2025-08-22,2025-08-22,ＱＣ株式会社,,株式会社,東京都,港区,芝５丁目２９－３－５０２,,13,103,1080014,,,,,,,2025-08-22,1,,,,,キューシー,0
850,4010401192547,新規,0,2025-08-22,2025-08-22,Ｃｈｒｏｍｏｕｓ１株式会社,,株式会社,東京都,港区,麻布台１丁目３番１号麻布台ヒルズ森ＪＰタワー１７階,,13,103,1060041,,,,,,,2025-08-22,1,,,,,クロウモスワン,0
851,4010403035828,新規,0,2025-08-22,2025-08-22,星友合同会社,,合同会社,東京都,港区,高輪３丁目２５番２２号,,13,103,1080074,,,,,,,2025-08-22,1,,,,,ホシトモ,0
852,4010403035844,新規,0,2025-08-22,2025-08-22,合同会社ＴＲＥＣ１３,,合同会社,東京都,港区,赤坂７丁目６番１５号,,13,103,1070052,,,,,,,2025-08-22,1,,,,,トレックジュウサン,0
853,4010403035852,新規,0,2025-08-22,2025-08-22,合同会社Ｗａｎｄｅｒｅｒ　Ｗｏｒｋｓ,,合同会社,東京都,港区,新橋４丁目１４番１号新橋ＡＵＮＢＬＤＧ．４階,,13,103,1050004,,,,,,,2025-08-22,1,,,,,ワンダラーワークス,0
860,4010801036510,新規,0,2025-08-22,2025-08-22,高沢商事株式会社,,株式会社,東京都,大田区,東矢口３丁目２番１－５０５号,,13,111,1460094,,,,,,,2025-08-22,1,,,,,タカザワショウジ,0
870,4011001171404,新規,0,2025-08-22,2025-08-22,株式会社Ｓ＆Ｋ　Ｃｏｎｓｕｌｔａｎｔ,,株式会社,東京都,渋谷区,道玄坂１丁目１０番８号渋谷道玄坂東急ビル２Ｆ―Ｃ,,13,113,1500043,,,,,,,2025-08-22,1,,,,,エスアンドケイコンサルタント,0
871,4011001171420,新規,0,2025-08-22,2025-08-22,株式会社幻夏舎,,株式会社,東京都,渋谷区,千駄ヶ谷４丁目９番７号,,13,113,1510051,,,,,,,2025-08-22,1,,,,,ゲンカシャ,0
872,4011001171437,新規,0,2025-08-22,2025-08-22,株式会社ＦｉｒｓｔＥｄｇｅ,,株式会社,東京都,渋谷区,神宮前６丁目２３番４号桑野ビル２階,,13,113,1500001,,,,,,,2025-08-22,1,,,,,ファーストエッジ,0
873,4011001171511,新規,0,2025-08-22,2025-08-22,株式会社ＪＤＧ,,株式会社,東京都,目黒区,五本木２丁目４番７－２０２号ＡＬＴＥＲＮＡＹＵＴＥＮＪＩ,,13,110,1530053,,,,,,,2025-08-22,1,,,,,ジェーディージー,0
874,4011001171528,新規,0,2025-08-22,2025-08-22,株式会社ＰＭ,,株式会社,東京都,渋谷区,神宮前６丁目２３番４号桑野ビル２階,,13,113,1500001,,,,,,,2025-08-22,1,,,,,ピーエム,0
875,4011001171544,新規,0,2025-08-22,2025-08-22,記帳・経理株式会社,,株式会社,東京都,渋谷区,神宮前２丁目３３番８号原宿ビューパレー５０４号室,,13,113,1500001,,,,,,,2025-08-22,1,,,,,キチョウケイリ,0
876,4011003022092,新規,0,2025-08-22,2025-08-22,合同会社スター,,合同会社,東京都,渋谷区,渋谷３丁目７－１高山ランド第１２ビル,,13,113,1500002,,,,,,,2025-08-22,1,,,,,スター,0
877,4011003022167,新規,0,2025-08-22,2025-08-22,合同会社ｚｐｌｓ,,合同会社,東京都,渋谷区,円山町５番３号ＭＩＥＵＸ渋谷ビル８階,,13,113,1500044,,,,,,,2025-08-22,1,,,,,ゼプラス,0
878,4011003022175,新規,0,2025-08-22,2025-08-22,合同会社ＳＴＴ,,合同会社,東京都,渋谷区,恵比寿西２丁目８番４ＥＸ恵比寿西ビル５階,,13,113,1500021,,,,,,,2025-08-22,1,,,,,エスティティー,0
879,4011003022217,新規,0,2025-08-22,2025-08-22,合同会社ＳＹｎｋ,,合同会社,東京都,渋谷区,渋谷３丁目２５番２１号第一平野ビル４０３,,13,113,1500002,,,,,,,2025-08-22,1,,,,,シンク,0
886,4011201026580,新規,0,2025-08-22,2025-08-22,東寧株式会社,,株式会社,東京都,中野区,沼袋３丁目２２番９号ライフピアクローチェ１０１室,,13,114,1650025,,,,,,,2025-08-22,1,,,,,トウネイ,0
890,4011501032469,新規,0,2025-08-22,2025-08-22,ＪＡＺＺ株式会社,,株式会社,東京都,荒川区,西日暮里４丁目１番２０号西日暮里エーシービル１０６Ｊ,,13,118,1160013,,,,,,,2025-08-22,1,,,,,ジャズ,0
891,4011603004812,新規,0,2025-08-22,2025-08-22,ＫＯＤ株式整理目的合同会社,,合同会社,東京都,練馬区,立野町１番６－３１７号,,13,120,1770054,,,,,,,2025-08-22,1,,,,,ケーオーディカブシキセイリモクテキ,0
892,4011803007037,新規,0,2025-08-22,2025-08-22,ＣＳコーポレーション合同会社,,合同会社,東京都,足立区,千住３丁目４８番地４ＡＴＬＡＳＫｉｔａｓｅｎｊｕ２０６号,,13,121,1200034,,,,,,,2025-08-22,1,,,,,シーエスコーポレーション,0
899,4012803003835,新規,0,2025-08-22,2025-08-22,合同会社Ｒｏｃｏ,,合同会社,東京都,立川市,錦町２丁目１番２１号ヴレッヂ林２０１号,,13,202,1900022,,,,,,,2025-08-22,1,,,,,ロコ,0
913,4020001164301,新規,0,2025-08-22,2025-08-22,株式会社ヒカリ,,株式会社,神奈川県,横浜市中区,山手町２５－１ＰａｓｓａｇｅＹａｍａｔｅＢ棟,,14,104,2310862,,,,,,,2025-08-22,1,,,,,ヒカリ,0
914,4020001164458,新規,0,2025-08-22,2025-08-22,株式会社ＫＵＨＯＮ,,株式会社,神奈川県,川崎市麻生区,王禅寺東５丁目４６－８,,14,137,2150018,,,,,,,2025-08-22,1,,,,,クホン,0
919,4020003029056,新規,0,2025-08-22,2025-08-22,合同会社イノセンスアン,,合同会社,神奈川県,横浜市瀬谷区,本郷３丁目６０番地１６,,14,114,2460015,,,,,,,2025-08-22,1,,,,,イノセンスアン,0
920,4020003029213,新規,0,2025-08-22,2025-08-22,和智未来合同会社,,合同会社,神奈川県,横浜市青葉区,青葉台１丁目５番地４青葉台サンクスビル３Ｆ８号室,,14,117,2270062,,,,,,,2025-08-22,1,,,,,ワチミライ,0
932,4030001168292,新規,0,2025-08-22,2025-08-22,株式会社Ｕ‐Ｂａｌｃｋ,,株式会社,埼玉県,三郷市,彦野１丁目２０２番,,11,237,3410052,,,,,,,2025-08-22,1,,,,,ユーバルク,0
942,4040001140127,新規,0,2025-08-22,2025-08-22,株式会社ＴＲＹ,,株式会社,千葉県,松戸市,古ケ崎８３４番地の１,,12,207,2710068,,,,,,,2025-08-22,1,,,,,ティーアールワイ,0
945,4040003028312,新規,0,2025-08-22,2025-08-22,合同会社Ｎａｌｕ‐０９,,合同会社,千葉県,松戸市,高塚新田６４２番地の４７,,12,207,2702222,,,,,,,2025-08-22,1,,,,,ナルゼロナイン,0
955,4050001057089,新規,0,2025-08-22,2025-08-22,株式会社いばらきアオイファーム,,株式会社,茨城県,神栖市,東深芝２２番地１０,,08,232,3140103,,,,,,,2025-08-22,1,,,,,イバラキアオイファーム,0
956,4050001057147,新規,0,2025-08-22,2025-08-22,ＳＡＲＡＮＡ　ＧＬＯＢＡＬ株式会社,,株式会社,茨城県,稲敷郡阿見町,大字若栗１３０７－２１－６号室,,08,443,3000333,,,,,,,2025-08-22,1,,,,,サラナグローバル,0
957,4050001057155,新規,0,2025-08-22,2025-08-22,株式会社ルオータ,,株式会社,茨城県,取手市,寺田４８５０番地３,,08,217,3020021,,,,,,,2025-08-22,1,,,,,ルオータ,0
958,4050001057163,新規,0,2025-08-22,2025-08-22,株式会社ａｍｉａｃ　ｏｎｅ,,株式会社,茨城県,つくば市,学園の森２丁目２３番地１サンライズ２０３号,,08,220,3050816,,,,,,,2025-08-22,1,,,,,アミアックワン,0
965,4080003003534,新規,0,2025-08-22,2025-08-22,合同会社Ｈａｎｕｌ　Ｓｕａ,,合同会社,静岡県,静岡市葵区,瀬名中央３丁目７番４６号,,22,101,4200916,,,,,,,2025-08-22,1,,,,,ハヌルスア,0
966,4080101025736,新規,0,2025-08-22,2025-08-22,株式会社Ｎｏｂｕ　Ｄｅｎｔａｌ　Ｏｆｆｉｃｅ,,株式会社,静岡県,富士市,富士見台７丁目６番地の１４,,22,210,4170851,,,,,,,2025-08-22,1,,,,,,0
968,4080403005337,新規,0,2025-08-22,2025-08-22,ＮＡＴＡＳＡ　ＴＲＡＤＩＮＧ合同会社,,合同会社,静岡県,浜松市中央区,新橋町１１６７番地３号室,,22,138,4328058,,,,,,,2025-08-22,1,,,,,ナタサトレーディング,0
982,4120001278842,新規,0,2025-08-22,2025-08-22,順誠株式会社,,株式会社,大阪府,大阪市東住吉区,中野３丁目６－１５サンソレイユ中野５１０,,27,121,5460012,,,,,,,2025-08-22,1,,,,,ジュンセイ,0
983,4120001278941,新規,0,2025-08-22,2025-08-22,株式会社ＧｅｅＳ,,株式会社,大阪府,大阪市淀川区,田川北１丁目９－１７,,27,123,5320021,,,,,,,2025-08-22,1,,,,,ジーズ,0
984,4120001278966,新規,0,2025-08-22,2025-08-22,株式会社Ｔｒｉｌｌｉｏｎ,,株式会社,大阪府,大阪市福島区,海老江７丁目２番５号ＡＶＥＲ新野田８０２号室,,27,103,5530001,,,,,,,2025-08-22,1,,,,,トリリオン,0
985,4120001278974,新規,0,2025-08-22,2025-08-22,株式会社ラピス工業,,株式会社,大阪府,交野市,東倉治３丁目１８番５号,,27,230,5760061,,,,,,,2025-08-22,1,,,,,ラピスコウギョウ,0
986,4120001279048,新規,0,2025-08-22,2025-08-22,梓焔株式会社,,株式会社,大阪府,大阪市中央区,松屋町９番２０号ローレルステート松屋町３０４Ｃ,,27,128,5420067,,,,,,,2025-08-22,1,,,,,シエン,0
993,4120005025076,新規,0,2025-08-22,2025-08-22,ＮＰＯ法人ＢＣＪ奨学金,,その他の設立登記法人,大阪府,大阪市中央区,南船場３丁目８－７,,27,128,5420081,,,,,,,2025-08-22,1,,,,,ビーシージェーショウガクキン,0
995,4120901051357,新規,0,2025-08-22,2025-08-22,株式会社Ａｒｃａｎａ,,株式会社,大阪府,吹田市,千里山松が丘１４番２６号,,27,205,5650843,,,,,,,2025-08-22,1,,,,,アルカナ,0
1006,4140003022486,新規,0,2025-08-22,2025-08-22,合同会社ＦｉｘＴｒａｄｅ,,合同会社,兵庫県,川西市,中央町７－１８ラ・ラ・グランデ３階,,28,217,6660016,,,,,,,2025-08-22,1,,,,,フィックストレード,0
1013,4180001168294,新規,0,2025-08-22,2025-08-22,株式会社ココエステート成瀬,,株式会社,愛知県,名古屋市守山区,新城１５番５号,,23,113,4630056,,,,,,,2025-08-22,1,,,,,ココエステートナルセ,0
1019,4200001044162,新規,0,2025-08-22,2025-08-22,ＳＯＲＡ株式会社,,株式会社,岐阜県,美濃加茂市,西町１丁目２９７番地・３階,,21,211,5050046,,,,,,,2025-08-22,1,,,,,ソラ,0
1034,4290001110930,新規,0,2025-08-22,2025-08-22,株式会社アイランド工務店,,株式会社,福岡県,大野城市,乙金東１丁目１番２０号,,40,219,8160901,,,,,,,2025-08-22,1,,,,,アイランドコウムテン,0
1035,4290001111136,新規,0,2025-08-22,2025-08-22,崇信株式会社,,株式会社,福岡県,福岡市東区,香椎照葉７丁目５番３－３０５号照葉ザ・タワ－,,40,131,8130017,,,,,,,2025-08-22,1,,,,,ソウシン,0
1036,4290003017208,新規,0,2025-08-22,2025-08-22,合同会社ｃｌｉｍｂｉｎｇ　ｒｏａｄ,,合同会社,福岡県,糸島市,高田４丁目３１番３号,,40,230,8191102,,,,,,,2025-08-22,1,,,,,クライミングロード,0
1041,4290803005139,新規,0,2025-08-22,2025-08-22,合同会社アリズミア,,合同会社,福岡県,北九州市小倉北区,中井４丁目６番６－３０７号,,40,106,8030836,,,,,,,2025-08-22,1,,,,,アリズミア,0
1042,4290805009856,新規,0,2025-08-22,2025-08-22,一般社団法人Ｒｅ‐ＥＡＲＴＨ　Ｃｒｅａｔｉｖｅ　Ｆｕｔｕｒｅｓ,,その他の設立登記法人,福岡県,北九州市八幡西区,則松４丁目８番１５号,,40,109,8070831,,,,,,,2025-08-22,1,,,,,リアースクリエイティブフューチャーズ,0
1053,4360001035658,新規,0,2025-08-22,2025-08-22,株式会社良喜,,株式会社,沖縄県,那覇市,久米１丁目４番２１号,,47,201,9000033,,,,,,,2025-08-22,1,,,,,ラキ,0
1066,4500001026452,新規,0,2025-08-22,2025-08-22,株式会社Ｄｅｍｏｃｒａｃｙ,,株式会社,愛媛県,西条市,大町１６６３番地,,38,206,7930030,,,,,,,2025-08-22,1,,,,,デモクラシー,0
1074,5010001257798,新規,0,2025-08-22,2025-08-22,ＳｗｉｎｇＤａｔａ株式会社,,株式会社,東京都,千代田区,丸の内３丁目２－３丸の内二重橋ビル２階,,13,101,1000005,,,,,,,2025-08-22,1,,,,,スウィングデーター,0
1075,5010001257848,新規,0,2025-08-22,2025-08-22,株式会社ＡＭＳ,,株式会社,東京都,中央区,築地２丁目１番２－１２０１,,13,102,1040045,,,,,,,2025-08-22,1,,,,,エーエムエス,0
1076,5010001257864,新規,0,2025-08-22,2025-08-22,ＦＯＵＲ　ＳＥＡＳＯＮＳ　ＥＳＴＡＴＥ株式会社,,株式会社,東京都,中央区,銀座７丁目１３番２０号銀座ＴＨビル９階,,13,102,1040061,,,,,,,2025-08-22,1,,,,,フォーシーズンズエステート,0
1077,5010001257872,新規,0,2025-08-22,2025-08-22,株式会社レイシャスキャピタル,,株式会社,東京都,中央区,京橋２丁目１４番１号兼松ビルディング５Ｆ,,13,102,1040031,,,,,,,2025-08-22,1,,,,,レイシャスキャピタル,0
1078,5010001257922,新規,0,2025-08-22,2025-08-22,株式会社タウンハウジング北関東,,株式会社,東京都,千代田区,岩本町２丁目６番１０号,,13,101,1010032,,,,,,,2025-08-22,1,,,,,タウンハウジングキタカントウ,0
1079,5010001257930,新規,0,2025-08-22,2025-08-22,セットインターナショナル株式会社,,株式会社,東京都,千代田区,四番町５番地６,,13,101,1020081,,,,,,,2025-08-22,1,,,,,セットインターナショナル,0
1080,5010001257955,新規,0,2025-08-22,2025-08-22,株式会社ＲＦＣ,,株式会社,東京都,中央区,東日本橋２丁目２８番４号日本橋ＣＥＴビル２階,,13,102,1030004,,,,,,,2025-08-22,1,,,,,アールエフシー,0
1085,5010005040572,新規,0,2025-08-22,2025-08-22,ＪＤＰ開発ロジスティック特定目的会社,,その他の設立登記法人,東京都,中央区,八重洲２丁目２番１号,,13,102,1040028,,,,,,,2025-08-22,1,,,,,ジェイディーピーカイハツロジスティック,0
1090,5010401192538,新規,0,2025-08-22,2025-08-22,株式会社Ｍ．Ｍ．Ｓ．,,株式会社,東京都,港区,南青山７丁目８番２０号,,13,103,1070062,,,,,,,2025-08-22,1,,,,,エムエムエス,0
1091,5010401192554,新規,0,2025-08-22,2025-08-22,ウィウィ株式会社,,株式会社,東京都,港区,東麻布１丁目７番５ー１５０９号,,13,103,1060044,,,,,,,2025-08-22,1,,,,,ウィウィ,0
1094,5010403035827,新規,0,2025-08-22,2025-08-22,スイス合同会社,,合同会社,東京都,港区,六本木６丁目７番１７号こみやまマンション３０１,,13,103,1060032,,,,,,,2025-08-22,1,,,,,スイス,0
1095,5010403035843,新規,0,2025-08-22,2025-08-22,環境中央企画合同会社,,合同会社,東京都,港区,北青山１丁目３－３三橋ビル３階,,13,103,1070061,,,,,,,2025-08-22,1,,,,,カンキョウチュウオウキカク,0
1096,5010403035851,新規,0,2025-08-22,2025-08-22,合同会社ＪＸＰ,,合同会社,東京都,港区,南青山２丁目２番１５号ウィン青山１２１４号,,13,103,1070062,,,,,,,2025-08-22,1,,,,,ジェイエックスピー,0
1097,5010403035892,新規,0,2025-08-22,2025-08-22,Ｖｏｌｔａｉｙｏ　ＳＰＶ１合同会社,,合同会社,東京都,港区,六本木１丁目１０番３－９０１号スウェーデン大使館ビル内,,13,103,1060032,,,,,,,2025-08-22,1,,,,,ボルタイヨエスピーブイワン,0
1098,5010403035901,新規,0,2025-08-22,2025-08-22,合同会社ＪＡＫ,,合同会社,東京都,港区,芝１丁目９－１ベルメゾン芝６０２,,13,103,1050014,,,,,,,2025-08-22,1,,,,,ジャック,0
1103,5010601067829,新規,0,2025-08-22,2025-08-22,株式会社ＫＡＷＩ,,株式会社,東京都,江東区,豊洲４丁目９番１３－１１５２号,,13,108,1350061,,,,,,,2025-08-22,1,,,,,カウィ,0
1104,5010601067837,新規,0,2025-08-22,2025-08-22,株式会社ｒｉｃｘｘ,,株式会社,東京都,江東区,平野１丁目７番３号ＫＡＤＯｋｉｙｏｓｕｍｉ２Ｆ,,13,108,1350023,,,,,,,2025-08-22,1,,,,,リクス,0
1107,5010803005512,新規,0,2025-08-22,2025-08-22,合同会社サンカリス,,合同会社,東京都,大田区,池上８丁目１１番１９号,,13,111,1460082,,,,,,,2025-08-22,1,,,,,サンカリス,0
1108,5010805003200,新規,0,2025-08-22,2025-08-22,特定非営利活動法人フードバンク大田,,その他の設立登記法人,東京都,大田区,中央４丁目３２番８号,,13,111,1430024,,,,,,,2025-08-22,1,,,,,フードバンクオオタ,0
1117,5011001171403,新規,0,2025-08-22,2025-08-22,株式会社アヴァンクール,,株式会社,東京都,渋谷区,神宮前２丁目３４番５－２０８号,,13,113,1500001,,,,,,,2025-08-22,1,,,,,アヴァンクール,0
1118,5011001171428,新規,0,2025-08-22,2025-08-22,ａｕｇｍｅｎｔ　ＡＩ株式会社,,株式会社,東京都,目黒区,下目黒１丁目１番１４号コノトラビル７Ｆ,,13,110,1530064,,,,,,,2025-08-22,1,,,,,オーグメントエーアイ,0
1119,5011001172013,新規,0,2025-08-22,2025-08-22,株式会社ＬＥＧＲＡ,,株式会社,東京都,渋谷区,広尾１丁目２番地１号　ヒカリビル４階,,13,113,1500012,,,,,,,2025-08-22,1,,,,,レグラ,0
1122,5011003022091,新規,0,2025-08-22,2025-08-22,合同会社あかり,,合同会社,東京都,渋谷区,渋谷３丁目７－１高山ランド第１２ビル,,13,113,1500002,,,,,,,2025-08-22,1,,,,,アカリ,0
1123,5011003022190,新規,0,2025-08-22,2025-08-22,画合同会社,,合同会社,東京都,渋谷区,道玄坂１丁目１６－６二葉ビル８Ｂ,,13,113,1500043,,,,,,,2025-08-22,1,,,,,カク,0
1136,5011101112827,新規,0,2025-08-22,2025-08-22,ニシテックサポート株式会社,,株式会社,東京都,新宿区,西新宿３丁目２番９号２Ｆ,,13,104,1600023,,,,,,,2025-08-22,1,,,,,ニシテックサポート,0
1139,5011401027320,新規,0,2025-08-22,2025-08-22,海空不動産株式会社,,株式会社,東京都,板橋区,大谷口上町２２番１０号,,13,119,1730032,,,,,,,2025-08-22,1,,,,,ウミゾラフドウサン,0
1140,5011501032468,新規,0,2025-08-22,2025-08-22,Ａ＆Ｋ株式会社,,株式会社,東京都,荒川区,西日暮里１丁目４２番２号ライオンズマンション西日暮里第二１階,,13,118,1160013,,,,,,,2025-08-22,1,,,,,エーアンドケー,0
1141,5011501032476,新規,0,2025-08-22,2025-08-22,ＴＡＳＴＥ＆ＴＯＮＥ株式会社,,株式会社,東京都,荒川区,町屋３丁目２番１号Ｂ１Ｆ,,13,118,1160001,,,,,,,2025-08-22,1,,,,,テイストアンドトーン,0
1142,5011503006619,新規,0,2025-08-22,2025-08-22,合同会社ＣＨＡＰＴＥＲ,,合同会社,東京都,荒川区,東尾久１丁目１５－７マンション東尾久二葉３０２,,13,118,1160012,,,,,,,2025-08-22,1,,,,,チャプター,0
1145,5012401043506,新規,0,2025-08-22,2025-08-22,株式会社Ｍｉｘ‐ｕｐ,,株式会社,東京都,府中市,清水が丘２丁目４３番地の７８,,13,206,1830015,,,,,,,2025-08-22,1,,,,,ミックスアップ,0
1146,5012403007293,新規,0,2025-08-22,2025-08-22,合同会社レアナ,,合同会社,東京都,武蔵野市,吉祥寺南町５丁目４番４号グレイスコート吉祥寺２０５,,13,203,1800003,,,,,,,2025-08-22,1,,,,,レアナ,0
1148,5012803003834,新規,0,2025-08-22,2025-08-22,十番テレビ合同会社,,合同会社,東京都,国分寺市,南町２丁目１８番３６－３０１号,,13,214,1850021,,,,,,,2025-08-22,1,,,,,ジュウバンテレビ,0
1149,5013105001881,新規,0,2025-08-22,2025-08-22,特定非営利活動法人首都圏サポートセンター,,その他の設立登記法人,東京都,あきる野市,二宮東１丁目６－１,,13,228,1970815,,,,,,,2025-08-22,1,,,,,シュトケンサポートセンター,0
1157,5020001164507,新規,0,2025-08-22,2025-08-22,株式会社幸甚,,株式会社,神奈川県,横浜市磯子区,洋光台４丁目３５番２０号,,14,107,2350045,,,,,,,2025-08-22,1,,,,,コウジン,0
1185,5030003027446,新規,0,2025-08-22,2025-08-22,合同会社スマートリサイクル,,合同会社,埼玉県,比企郡滑川町,大字伊古２３５番地,,11,341,3550806,,,,,,,2025-08-22,1,,,,,スマートリサイクル,0
1191,5040001140118,新規,0,2025-08-22,2025-08-22,岡崎解体工業株式会社,00140387,株式会社,千葉県,八街市,八街ほ２０８番地１６１,,12,230,2891115,,,,,,,2025-08-22,1,,,,,オカザキカイタイコウギョウ,0
1192,5040001140134,新規,0,2025-08-22,2025-08-22,株式会社匡建,,株式会社,千葉県,市川市,本北方３丁目２３番５号,,12,203,2720816,,,,,,,2025-08-22,1,,,,,キョウケン,0
1193,5040001140167,新規,0,2025-08-22,2025-08-22,株式会社マルニフーズ,,株式会社,千葉県,柏市,布施７２５番地,,12,217,2770825,,,,,,,2025-08-22,1,,,,,マルニフーズ,0
1194,5040001140191,新規,0,2025-08-22,2025-08-22,株式会社クラリティ,,株式会社,千葉県,八街市,吉倉２０７番地３６,,12,230,2891133,,,,,,,2025-08-22,1,,,,,クラリティ,0
1197,5040003028336,新規,0,2025-08-22,2025-08-22,合同会社ちょこっとＷＯＲＫＳ,,合同会社,千葉県,成田市,南三里塚７８番地７,,12,211,2860113,,,,,,,2025-08-22,1,,,,,チョコットワークス,0
1204,5050001057138,新規,0,2025-08-22,2025-08-22,株式会社ＣＬＥＡＲ,,株式会社,茨城県,つくば市,竹園３丁目１５番地ウエリスつくば竹園９１２号,,08,220,3050032,,,,,,,2025-08-22,1,,,,,クリアー,0
1207,5050003009509,新規,0,2025-08-22,2025-08-22,合同会社ＦＪアセット,,合同会社,茨城県,ひたちなか市,大字田彦１３７５番地６,,08,221,3120063,,,,,,,2025-08-22,1,,,,,エフジェイアセット,0
1209,5070003006058,新規,0,2025-08-22,2025-08-22,合同会社ひまわり,,合同会社,群馬県,邑楽郡板倉町,朝日野２丁目４５８６番地の３１フラワーリーフ１０１号室,,10,521,3740112,,,,,,,2025-08-22,1,,,,,,0
1210,5080003003533,新規,0,2025-08-22,2025-08-22,合同会社Ｃ４Ｌ,,合同会社,静岡県,静岡市清水区,千歳町２番４５－４０６号,,22,103,4240828,,,,,,,2025-08-22,1,,,,,シーフォーエル,0
1212,5080101025735,新規,0,2025-08-22,2025-08-22,株式会社ＵｎｉＬｉｎｋ,,株式会社,静岡県,富士市,川成新町１９番地２Ｆ東,,22,210,4160955,,,,,,,2025-08-22,1,,,,,ユニリンク,0
1216,5090001019472,新規,0,2025-08-22,2025-08-22,株式会社トップス,,株式会社,山梨県,甲府市,国母７丁目９番２３号,,19,201,4000043,,,,,,,2025-08-22,1,,,,,トップス,0
1234,5120001278841,新規,0,2025-08-22,2025-08-22,成吉株式会社,,株式会社,大阪府,大阪市東住吉区,中野３丁目６－１５サンソレイユ中野６１０,,27,121,5460012,,,,,,,2025-08-22,1,,,,,ナリヨシ,0
1235,5120001279014,新規,0,2025-08-22,2025-08-22,セントリックス株式会社,,株式会社,大阪府,大阪市西区,京町堀２丁目２番９－２０３,,27,106,5500003,,,,,,,2025-08-22,1,,,,,セントリックス,0
1236,5120001279030,新規,0,2025-08-22,2025-08-22,株式会社Ｋ‐Ｋ,,株式会社,大阪府,大阪市東淀川区,南江口１丁目３番２５号ファミール上新庄９１０号,,27,114,5330003,,,,,,,2025-08-22,1,,,,,ケーケー,0
1245,5120901051364,新規,0,2025-08-22,2025-08-22,株式会社ＶＥＲＩＴＥ,,株式会社,大阪府,豊能郡豊能町,新光風台１丁目６番地の１１１,,27,321,5630105,,,,,,,2025-08-22,1,,,,,ベリテ,0
1248,5122001039389,新規,0,2025-08-22,2025-08-22,株式会社ＦＩＶＥＲＩＤ,,株式会社,大阪府,八尾市,曙町４丁目５０番地の１,,27,212,5810026,,,,,,,2025-08-22,1,,,,,ファイブリッド,0
1254,5130001080346,新規,0,2025-08-22,2025-08-22,三源庵株式会社,,株式会社,京都府,京都市南区,吉祥院高畑町２６番地,,26,107,6018332,,,,,,,2025-08-22,1,,,,,サンゲンアン,0
1263,5140001139785,新規,0,2025-08-22,2025-08-22,株式会社ＣｉｖｉｃＡＩｄｅ,,株式会社,兵庫県,神戸市中央区,二宮町１丁目１０－１－２０２,,28,110,6510093,,,,,,,2025-08-22,1,,,,,シビックエイド,0
1269,5160003003574,新規,0,2025-08-22,2025-08-22,合同会社サングラント,,合同会社,滋賀県,長浜市,高月町高月９５５－１,,25,203,5290241,,,,,,,2025-08-22,1,,,,,サングラント,0
1273,5170003002278,新規,0,2025-08-22,2025-08-22,合同会社みちとよ,,合同会社,和歌山県,新宮市,馬町２丁目３－１ＢＪビル,,30,207,6470008,,,,,,,2025-08-22,1,,,,,ミチトヨ,0
1276,5180001167915,新規,0,2025-08-22,2025-08-22,株式会社ＩＫＯＭＡＩ,,株式会社,愛知県,名古屋市緑区,鳴海町字中汐田３５番地オースピシャスクラウド鳴海８０２号,,23,114,4580801,,,,,,,2025-08-22,1,,,,,イコマイ,0
1277,5180001168293,新規,0,2025-08-22,2025-08-22,株式会社涼拓,,株式会社,愛知県,名古屋市港区,入場２丁目１２０１番地,,23,111,4550803,,,,,,,2025-08-22,1,,,,,スズヒロ,0
1283,5200003006985,新規,0,2025-08-22,2025-08-22,合同会社リンクフォース,,合同会社,岐阜県,大垣市,田町４丁目３１－４,,21,202,5030875,,,,,,,2025-08-22,1,,,,,リンクフォース,0
1310,5290001111110,新規,0,2025-08-22,2025-08-22,株式会社ＳＵＢＬＩＮＣＯ,,株式会社,福岡県,福岡市博多区,博多駅前１丁目２３番１号ＰａｒｋＦｒｏｎｔ博多駅前１丁目５Ｆ－Ｂ,,40,132,8120011,,,,,,,2025-08-22,1,,,,,サブリンコ,0
1311,5290001111127,新規,0,2025-08-22,2025-08-22,ＦｌｙＵｓ　Ａｖｉａｔｉｏｎ株式会社,,株式会社,福岡県,福岡市東区,香住ヶ丘２丁目８番２号１０２－５号室,,40,131,8130003,,,,,,,2025-08-22,1,,,,,フライアスアビエーション,0
1312,5290001111192,新規,0,2025-08-22,2025-08-22,株式会社ｋｅｙ．ｃｏｎｄｉｔｉｏｎｉｎｇ,,株式会社,福岡県,福岡市博多区,東那珂３丁目５番２９－９０１号ＦｅｌｉｃｅＳｔｏｒｉａ,00140394,40,132,8120892,,,,,,,2025-08-22,1,,,,,キードットコンディショニング,0
1313,5290003017272,新規,0,2025-08-22,2025-08-22,ＥＩＧＨＴ　ＫＮＯＴ合同会社,,合同会社,福岡県,福岡市中央区,地行３丁目２７番２３－４１３号ＡＰエルテージ地行,,40,133,8100064,,,,,,,2025-08-22,1,,,,,エイトノット,0
1317,5300003002330,新規,0,2025-08-22,2025-08-22,合同会社つむぐ,,合同会社,佐賀県,鳥栖市,古賀町７２１番地８０,,41,203,8410083,,,,,,,2025-08-22,1,,,,,ツムグ,0
1321,5340001027607,新規,0,2025-08-22,2025-08-22,株式会社ｐｆｍ,,株式会社,鹿児島県,鹿児島市,鴨池新町１９番２－８０５号,,46,201,8900064,,,,,,,2025-08-22,1,,,,,ピーエフエム,0
1325,5360001035673,新規,0,2025-08-22,2025-08-22,株式会社アジアンスタッフィン,,株式会社,沖縄県,那覇市,牧志３丁目１３番１１号アリエッタミオナ１０１号室,,47,201,9000013,,,,,,,2025-08-22,1,,,,,アジアンスタッフィン,0
1337,5430001095108,新規,0,2025-08-22,2025-08-22,株式会社アイメトリカ,,株式会社,北海道,札幌市北区,北七条西４丁目１番１号トーカン札幌第一キャステール６０７,,01,102,0600807,,,,,,,2025-08-22,1,,,,,アイメトリカ,0
1340,5480005007104,新規,0,2025-08-22,2025-08-22,特定非営利活動法人競歩運営サポート徳島,,その他の設立登記法人,徳島県,徳島市,北矢三町２丁目１番１号徳島科学技術高校内,,36,201,7700006,,,,,,,2025-08-22,1,,,,,キョウホウンエイサポートトクシマ,0
1356,6010001257475,新規,0,2025-08-22,2025-08-22,株式会社ｓｏｍｅｔｉｍｅｓ　ａｌｗａｙｓ,,株式会社,東京都,千代田区,神田三崎町２丁目２番６号３階,,13,101,1010061,,,,,,,2025-08-22,1,,,,,サムタイムズオールウェイズ,0
1357,6010001257855,新規,0,2025-08-22,2025-08-22,マッチレス株式会社,,株式会社,東京都,千代田区,平河町１丁目３番２－４０２号,,13,101,1020093,,,,,,,2025-08-22,1,,,,,マッチレス,0
1358,6010001257921,新規,0,2025-08-22,2025-08-22,ＳＭＫ株式会社,,株式会社,東京都,千代田区,神田佐久間町１丁目８番４－７０２号,,13,101,1010025,,,,,,,2025-08-22,1,,,,,エスエムケー,0
1362,6010003048492,新規,0,2025-08-22,2025-08-22,合同会社ＴＦＪ１１,,合同会社,東京都,中央区,新川１丁目１７番１８号,,13,102,1040033,,,,,,,2025-08-22,1,,,,,ティーエフジェイイレブン,0
1365,6010401014575,新規,0,2025-08-22,2025-08-22,信和地所株式会社,,株式会社,東京都,港区,北青山３丁目１０番１３号サンハイム’８８,,13,103,1070061,,,,,,,2025-08-22,1,,,,,シンワジショ,0
1371,6010401192495,新規,0,2025-08-22,2025-08-22,株式会社Ｌｅａｄ　ａｃｃｅｌ,,株式会社,東京都,港区,芝浦３丁目３番６号東京科学大学キャンパス・イノベーションセンターＩＮＤＥＳＴ,,13,103,1080023,,,,,,,2025-08-22,1,,,,,レッドアクセル,0
1372,6010401192545,新規,0,2025-08-22,2025-08-22,Ｒｅｖｏｌｔｉｃ株式会社,,株式会社,東京都,港区,西麻布３丁目１９番２２号,,13,103,1060031,,,,,,,2025-08-22,1,,,,,レヴォルティック,0
1377,6010403035883,新規,0,2025-08-22,2025-08-22,プルトス合同会社,,合同会社,東京都,港区,東新橋１丁目１０番１号,,13,103,1050021,,,,,,,2025-08-22,1,,,,,プルトス,0
1380,6010601067836,新規,0,2025-08-22,2025-08-22,株式会社ニッチ,,株式会社,東京都,墨田区,墨田２丁目７番１３－１２０４号,,13,107,1310031,,,,,,,2025-08-22,1,,,,,ニッチ,0
1387,6010801036509,新規,0,2025-08-22,2025-08-22,株式会社さくらいちいね,,株式会社,東京都,大田区,大森中３丁目２４番９号,,13,111,1430014,,,,,,,2025-08-22,1,,,,,サクライチイネ,0
1391,6010903010213,新規,0,2025-08-22,2025-08-22,合同会社アグリティア,,合同会社,東京都,世田谷区,大蔵１丁目１１－１４,,13,112,1570074,,,,,,,2025-08-22,1,,,,,アグリティア,0
1393,6011001171393,新規,0,2025-08-22,2025-08-22,株式会社ＭＩＣ,,株式会社,東京都,目黒区,碑文谷５丁目２番５号Ｔ＆Ａビル５階,,13,110,1520003,,,,,,,2025-08-22,1,,,,,エムアイシー,0
1394,6011001171501,新規,0,2025-08-22,2025-08-22,株式会社ＥＮ　Ｉｎｎｏｖａｔｉｏｎ,,株式会社,東京都,渋谷区,道玄坂１丁目１０番８号渋谷道玄坂東急ビル２ＦーＣ,,13,113,1500043,,,,,,,2025-08-22,1,,,,,エンイノベーション,0
1395,6011001171716,新規,0,2025-08-22,2025-08-22,株式会社タケウチビル,,株式会社,東京都,渋谷区,千駄ヶ谷３丁目２４番４号,,13,113,1510051,,,,,,,2025-08-22,1,,,,,タケウチビル,0
1397,6011003022090,新規,0,2025-08-22,2025-08-22,合同会社太陽,,合同会社,東京都,渋谷区,渋谷３丁目７－１高山ランド第１２ビル,,13,113,1500002,,,,,,,2025-08-22,1,,,,,,0
1398,6011003022215,新規,0,2025-08-22,2025-08-22,合同会社ＴＴ,,合同会社,東京都,渋谷区,道玄坂１丁目１０番８号渋谷道玄坂東急ビル２Ｆ－Ｃ,,13,113,1500043,,,,,,,2025-08-22,1,,,,,ティーティー,0
1399,6011003022363,新規,0,2025-08-22,2025-08-22,Ｙ＆Ｙ　Ｏｍｏｔｅ‐ｓａｎｄｏ合同会社,,合同会社,東京都,渋谷区,神宮前５丁目１８番１６号,,13,113,1500001,,,,,,,2025-08-22,1,,,,,ワイアンドワイオモテサンドウ,0
1403,6011101112660,新規,0,2025-08-22,2025-08-22,シェロンズ株式会社,,株式会社,東京都,新宿区,西新宿５丁目８番２号恵徳ビル４階８１０号室,,13,104,1600023,,,,,,,2025-08-22,1,,,,,シェロンズ,0
1405,6011201026579,新規,0,2025-08-22,2025-08-22,株式会社ＩＴＳＵＷＡ,,株式会社,東京都,中野区,本町５丁目６番１１号,,13,114,1640012,,,,,,,2025-08-22,1,,,,,イツワ,0
1406,6011401027344,新規,0,2025-08-22,2025-08-22,株式会社ＢｉｇＪ,,株式会社,東京都,板橋区,高島平２丁目３２－２－８０３号,,13,119,1750082,,,,,,,2025-08-22,1,,,,,ビッグジェイ,0
1412,6011601028885,新規,0,2025-08-22,2025-08-22,ＬｉｖＹｏｋａ株式会社,,株式会社,東京都,練馬区,桜台３丁目１５番５号ＲＥＡＰＴ氷川台１０６号室,,13,120,1760002,,,,,,,2025-08-22,1,,,,,リブヨカ,0
1415,6012401043521,新規,0,2025-08-22,2025-08-22,ＵＭＴ株式会社,,株式会社,東京都,武蔵野市,関前３丁目１９番９号,,13,203,1800014,,,,,,,2025-08-22,1,,,,,ユーエムティー,0
1417,6012703003339,新規,0,2025-08-22,2025-08-22,フォレスト合同会社,,合同会社,東京都,西東京市,柳沢６丁目１番１１号,,13,229,2020022,,,,,,,2025-08-22,1,,,,,フォレスト,0
1434,6020001164415,新規,0,2025-08-22,2025-08-22,株式会社ＩＲＴ,,株式会社,神奈川県,川崎市川崎区,鋼管通１丁目１２番１０号ルミエールＩＩＩ１０２,00140383,14,131,2100852,,,,,,,2025-08-22,1,,,,,アイアールティー,0
1435,6020001164448,新規,0,2025-08-22,2025-08-22,株式会社當山設備,,株式会社,神奈川県,川崎市川崎区,浜町２丁目８番１２－５１０号,,14,131,2100851,,,,,,,2025-08-22,1,,,,,トウヤマセツビ,0
1439,6020003029005,新規,0,2025-08-22,2025-08-22,合同会社ＵＦＡ,,合同会社,神奈川県,川崎市宮前区,宮崎３丁目１０－６－４０４,,14,136,2160033,,,,,,,2025-08-22,1,,,,,ユーエフエー,0
1440,6020003029186,新規,0,2025-08-22,2025-08-22,ラ・サール合同会社,,合同会社,神奈川県,横浜市戸塚区,吉田町７７８番地１０－４６４号,,14,110,2440817,,,,,,,2025-08-22,1,,,,,ラサール,0
1441,6020003029194,新規,0,2025-08-22,2025-08-22,ネルカム合同会社,,合同会社,神奈川県,横浜市西区,北幸２丁目１０番４８号むつみビル３階,,14,103,2200004,,,,,,,2025-08-22,1,,,,,ネルカム,0
1442,6020003029203,新規,0,2025-08-22,2025-08-22,合同会社ＴＭＣ,,合同会社,神奈川県,横浜市保土ケ谷区,瀬戸ケ谷町２９７番地２００,,14,106,2400024,,,,,,,2025-08-22,1,,,,,ティーエムシー,0
1457,6040001140117,新規,0,2025-08-22,2025-08-22,アルバートテクノロジージャパン株式会社,,株式会社,千葉県,柏市,若柴１７８番地４柏の葉キャンパス１４８街区２ショップ＆オフィス棟６Ｆ,,12,217,2770871,,,,,,,2025-08-22,1,,,,,アルバートテクノロジージャパン,0
1458,6040001140133,新規,0,2025-08-22,2025-08-22,栄心産業株式会社,,株式会社,千葉県,香取郡多古町,飯笹字永井芝１０９３番地５０,,12,347,2892231,,,,,,,2025-08-22,1,,,,,エイシンサンギョウ,0
1459,6040001140174,新規,0,2025-08-22,2025-08-22,日興商事株式会社,,株式会社,千葉県,千葉市中央区,新宿２丁目６番１号マックスタワー１３０３号,,12,101,2600021,,,,,,,2025-08-22,1,,,,,ニッコウショウジ,0
1460,6040001140190,新規,0,2025-08-22,2025-08-22,株式会社いはら,,株式会社,千葉県,市川市,下貝塚２丁目１１番２７号,,12,203,2720821,,,,,,,2025-08-22,1,,,,,イハラ,0
1477,6070001043283,新規,0,2025-08-22,2025-08-22,ＳＵＮＳＵＮ農園株式会社,,株式会社,群馬県,吾妻郡中之条町,大字伊勢町１０２７番地１,,10,421,3770423,,,,,,,2025-08-22,1,,,,,,0
1478,6070003006057,新規,0,2025-08-22,2025-08-22,ＨＲＳマネジメント合同会社,,合同会社,群馬県,前橋市,上小出町２丁目４３番２５,,10,201,3710037,,,,,,,2025-08-22,1,,,,,エイチアールエスマネジメント,0
1486,6100003008355,新規,0,2025-08-22,2025-08-22,合同会社誠信,,合同会社,長野県,松本市,大字笹賀５０８７－２３二子団地Ｂ５－５,,20,202,3990033,,,,,,,2025-08-22,1,,,,,セイシン,0
1497,6120001278865,新規,0,2025-08-22,2025-08-22,仁和商事株式会社,,株式会社,大阪府,大阪市西成区,聖天下１丁目４番２９号－２０５号,,27,122,5570012,,,,,,,2025-08-22,1,,,,,ニワショウジ,0
1498,6120001278972,新規,0,2025-08-22,2025-08-22,永熙株式会社,,株式会社,大阪府,大阪市北区,長柄西１丁目４番１８号ＫＹハイツ２０３号,,27,127,5310061,,,,,,,2025-08-22,1,,,,,エイキ,0
1499,6120001279005,新規,0,2025-08-22,2025-08-22,株式会社サン,,株式会社,大阪府,枚方市,津田元町１丁目２８番７号,,27,210,5730127,,,,,,,2025-08-22,1,,,,,サン,0
1504,6120901051363,新規,0,2025-08-22,2025-08-22,張り屋ＴＡＲＴ株式会社,,株式会社,大阪府,摂津市,鶴野４丁目１０番１９号,,27,224,5660035,,,,,,,2025-08-22,1,,,,,ハリヤタート,0
1505,6120901051388,新規,0,2025-08-22,2025-08-22,株式会社エルアール,,株式会社,大阪府,池田市,菅原町１１番９－３０２号,,27,204,5630055,,,,,,,2025-08-22,1,,,,,エルアール,0
1507,6130001080320,新規,0,2025-08-22,2025-08-22,林誠自動車サービス株式会社,,株式会社,京都府,京都市左京区,吉田中大路町２２番地２０６号室,,26,103,6068313,,,,,,,2025-08-22,1,,,,,リンセイジドウシャサービス,0
1508,6130001080345,新規,0,2025-08-22,2025-08-22,陳氏株式会社,,株式会社,京都府,京都市左京区,吉田中大路町２２－２０５号室,,26,103,6068313,,,,,,,2025-08-22,1,,,,,チンシ,0
1511,6130005017434,新規,0,2025-08-22,2025-08-22,一般財団法人ＮＩＳＳＨＡ未来財団,,その他の設立登記法人,京都府,京都市中京区,壬生花井町３番地,,26,104,6048873,,,,,,,2025-08-22,1,,,,,ニッシャミライザイダン,0
1519,6140005027580,新規,0,2025-08-22,2025-08-22,特定非営利活動法人白湯検定協会,,その他の設立登記法人,兵庫県,神戸市中央区,江戸町８５－１,,28,110,6500033,,,,,,,2025-08-22,1,,,,,,0
1522,6150001028350,新規,0,2025-08-22,2025-08-22,ｎａｎａｌａ物販株式会社,,株式会社,奈良県,大和郡山市,小泉町１２９０番地１５,,29,203,6391042,,,,,,,2025-08-22,1,,,,,ナナラブッパン,0
1527,6170003002277,新規,0,2025-08-22,2025-08-22,ＲｅｖｏＧｏ合同会社,,合同会社,和歌山県,和歌山市,松江１３２４番地１,,30,201,6408421,,,,,,,2025-08-22,1,,,,,レヴォゴ,0
1533,6180001168235,新規,0,2025-08-22,2025-08-22,株式会社ＳＵＭＡＩＺ,,株式会社,愛知県,名古屋市西区,名駅２丁目２９番２号プリマヴェール名駅ノルテ７０５号室,,23,104,4510045,,,,,,,2025-08-22,1,,,,,スマイズ,0
1534,6180001168284,新規,0,2025-08-22,2025-08-22,ＪＰＣ株式会社,,株式会社,愛知県,名古屋市中区,錦１丁目７番９号桜ヒルズ１０１号,,23,106,4600003,,,,,,,2025-08-22,1,,,,,ジェーピーシー,0
1535,6180001168292,新規,0,2025-08-22,2025-08-22,株式会社ＡＱＵＡ　ＣＯＭＭＵＮＩＣＡＴＩＯＮＳ,,株式会社,愛知県,名古屋市千種区,内山３丁目２３番１９号（ＣＯＲＮＥＳＨＯＵＳＥＮＡＧＯＹＡ３０５号）,,23,101,4640075,,,,,,,2025-08-22,1,,,,,アクアコミュニケーションズ,0
1541,6200003006984,新規,0,2025-08-22,2025-08-22,ＳＨＩＮＫＡ　ＡＵＴＯ合同会社,,合同会社,岐阜県,山県市,佐賀５０４－３,,21,215,5012114,,,,,,,2025-08-22,1,,,,,シンカオート,0
1546,6240001065384,新規,0,2025-08-22,2025-08-22,株式会社ＯＣＳ　ＥＮＮＯＶＡＴＩＯＮ,,株式会社,広島県,福山市,芦田町下有地１６３０―２,,34,207,7210000,,,,,,,2025-08-22,1,,,,,オーシーエスイーノベーション,0
1562,6300001014327,新規,0,2025-08-22,2025-08-22,株式会社桂地所,,株式会社,佐賀県,鳥栖市,元町１１７７番地１,,41,203,8410051,,,,,,,2025-08-22,1,,,,,カツラチショ,0
1566,6330001033514,新規,0,2025-08-22,2025-08-22,株式会社レッドスター,,株式会社,熊本県,熊本市北区,植木町米塚２３８番地,,43,105,8610115,,,,,,,2025-08-22,1,,,,,レッドスター,0
1569,6330003011179,新規,0,2025-08-22,2025-08-22,合同会社Ａｓｔｕｔｅ,,合同会社,熊本県,熊本市東区,保田窪３丁目１７番１６－３０２号,,43,102,8620926,,,,,,,2025-08-22,1,,,,,アスチュート,0
1572,6340003004933,新規,0,2025-08-22,2025-08-22,合同会社フライハイト,,合同会社,鹿児島県,薩摩川内市,中郷３丁目１９１,,46,215,8950072,,,,,,,2025-08-22,1,,,,,フライハイト,0
1580,6360003015177,新規,0,2025-08-22,2025-08-22,ＶＩＢＲＡＮＴ合同会社,,合同会社,沖縄県,石垣市,字登野城１３６番地４カンセイホーム津久野３Ｃ,,47,207,9070004,,,,,,,2025-08-22,1,,,,,ヴァイブラント,0
1598,6490003002039,新規,0,2025-08-22,2025-08-22,合同会社結,,合同会社,高知県,高知市,旭町２丁目６０番地１９マムニアビル２階,,39,201,7800935,,,,,,,2025-08-22,1,,,,,ユイ,0
1616,7010001257887,新規,0,2025-08-22,2025-08-22,ライオン株式会社,,株式会社,東京都,中央区,銀座１丁目１２－４Ｎ＆ＥＢＬＤ．ビル７階,,13,102,1040061,,,,,,,2025-08-22,1,,,,,ライオン,0
1617,7010001257895,新規,0,2025-08-22,2025-08-22,株式会社ｂｏｎ,,株式会社,東京都,中央区,日本橋室町１丁目１１番１２号日本橋水野ビル７階,,13,102,1030022,,,,,,,2025-08-22,1,,,,,ボン,0
1618,7010001257904,新規,0,2025-08-22,2025-08-22,Ｈａｒｍｏｎｙ　Ｂｌｉｓｓ株式会社,,株式会社,東京都,文京区,本駒込６丁目１５－１６六義園第６コーポ１０１,,13,105,1130021,,,,,,,2025-08-22,1,,,,,ハーモニーブリス,0
1619,7010001257912,新規,0,2025-08-22,2025-08-22,株式会社Ｓ．ａｌｐｈａ　Ｐｒｏｍｏｔｉｏｎ,,株式会社,東京都,中央区,銀座１丁目２２番１１号銀座大竹ビジデンス２Ｆ,,13,102,1040061,,,,,,,2025-08-22,1,,,,,エスアルファプロモーション,0
1620,7010001257920,新規,0,2025-08-22,2025-08-22,株式会社Ｎｅｘｉａ,,株式会社,東京都,中央区,佃３丁目１０番１１号ＣＡＮＡＬＰＬＡＣＥ月島４０１号,,13,102,1040051,,,,,,,2025-08-22,1,,,,,ネクシア,0
1635,7010401191653,新規,0,2025-08-22,2025-08-22,株式会社７,,株式会社,東京都,港区,麻布台２丁目１－２－３０８,,13,103,1060041,,,,,,,2025-08-22,1,,,,,ナナ,0
1636,7010401192486,新規,0,2025-08-22,2025-08-22,ＴＴＭＳグループ株式会社,,株式会社,東京都,港区,麻布十番３丁目１番６号９階,,13,103,1060045,,,,,,,2025-08-22,1,,,,,ティティエムエスグループ,0
1644,7010801036508,新規,0,2025-08-22,2025-08-22,株式会社Ｓｉｎｏ　ＢｉｏＢｒｉｄｇｅ,,株式会社,東京都,大田区,南六郷３丁目１０番１６号六郷ＢＡＳＥ,,13,111,1440045,,,,,,,2025-08-22,1,,,,,シノバイオブリッジ,0
1649,7011001171401,新規,0,2025-08-22,2025-08-22,株式会社保科浅原カンパニー,,株式会社,東京都,渋谷区,恵比寿３丁目３９番７号ラフィネ１Ｆ,,13,113,1500013,,,,,,,2025-08-22,1,,,,,ホシナアサハラコーポレーション,0
1650,7011001171450,新規,0,2025-08-22,2025-08-22,株式会社テオト,,株式会社,東京都,渋谷区,道玄坂１丁目１０番８号渋谷道玄坂東急ビル２Ｆ－Ｃ,,13,113,1500043,,,,,,,2025-08-22,1,,,,,テオト,0
1651,7011003022197,新規,0,2025-08-22,2025-08-22,合同会社ライムワークス,,合同会社,東京都,渋谷区,神宮前６丁目２３番４号桑野ビル２Ｆ,,13,113,1500001,,,,,,,2025-08-22,1,,,,,ライムワークス,0
1652,7011003022222,新規,0,2025-08-22,2025-08-22,合同会社Ｎトランス,,合同会社,東京都,渋谷区,神南１丁目１１番４号ＦＰＧリンクス神南５Ｆ,,13,113,1500041,,,,,,,2025-08-22,1,,,,,エヌトランス,0
1663,7011301030819,新規,0,2025-08-22,2025-08-22,ＲＯＢＥＲＴ　ａｎｄ　ＪＵＬＩＥＴ株式会社,,株式会社,東京都,杉並区,阿佐谷北４丁目５番４号椿ハイム１０３,,13,115,1660001,,,,,,,2025-08-22,1,,,,,ロベルトアンドジュリエット,0
1671,7011801046629,新規,0,2025-08-22,2025-08-22,株式会社縁,,株式会社,東京都,葛飾区,金町２丁目３番３号,,13,122,1250042,,,,,,,2025-08-22,1,,,,,ユカリ,0
1673,7011803007001,新規,0,2025-08-22,2025-08-22,合同会社ｒｅｗｒｉｔｅ,,合同会社,東京都,葛飾区,金町３丁目５－４宇田川ビル１階,,13,122,1250042,,,,,,,2025-08-22,1,,,,,リライト,0
1676,7012401043512,新規,0,2025-08-22,2025-08-22,株式会社ＳＫｉ,,株式会社,東京都,調布市,国領町２丁目１８番地５‐２階,,13,208,1820022,,,,,,,2025-08-22,1,,,,,エスケーアイ,0
1679,7012403007300,新規,0,2025-08-22,2025-08-22,Ｐｒｏｊｅｃｔ　ＣａＷ合同会社,,合同会社,東京都,三鷹市,大沢４丁目２番地９号,,13,204,1810015,,,,,,,2025-08-22,1,,,,,プロジェクトシーエーダブリュー,0
1681,7012801024186,新規,0,2025-08-22,2025-08-22,ＧＲＡＶＩＸ株式会社,,株式会社,東京都,立川市,上砂町４丁目５３番地の２４,,13,202,1900032,,,,,,,2025-08-22,1,,,,,グラヴィクス,0
1693,7020001164389,新規,0,2025-08-22,2025-08-22,株式会社藤丸,,株式会社,神奈川県,川崎市多摩区,南生田４丁目１９番１－２号,,14,135,2140036,,,,,,,2025-08-22,1,,,,,フジマル,0
1700,7020003029185,新規,0,2025-08-22,2025-08-22,ＭＦＹ合同会社,,合同会社,神奈川県,横浜市青葉区,大場町１０３－４２,,14,117,2250023,,,,,,,2025-08-22,1,,,,,エムエフワイ,0
1701,7020003029202,新規,0,2025-08-22,2025-08-22,リエンコア合同会社,,合同会社,神奈川県,川崎市中原区,小杉町２丁目２２０番地ラティエラ武蔵小杉５１２,,14,133,2110063,,,,,,,2025-08-22,1,,,,,リエンコア,0
1702,7020003029219,新規,0,2025-08-22,2025-08-22,合同会社シナノ,,合同会社,神奈川県,川崎市高津区,新作５丁目１２番１３号,,14,134,2130014,,,,,,,2025-08-22,1,,,,,シナノ,0
1703,7020005016958,新規,0,2025-08-22,2025-08-22,弁護士法人鳳栄総合法律事務所,,その他の設立登記法人,神奈川県,横浜市中区,本町２丁目１４番地大同生命横浜ビル８階,,14,104,2310005,,,,,,,2025-08-22,1,,,,,ホウエイソウゴウホウリツジムショ,0
1709,7021001086136,新規,0,2025-08-22,2025-08-22,至美株式会社,,株式会社,神奈川県,相模原市南区,当麻８８４番地２２,,14,153,2520336,,,,,,,2025-08-22,1,,,,,コノミ,0
1714,7021003016438,新規,0,2025-08-22,2025-08-22,Ｃ＆Ｄ日本合同会社,,合同会社,神奈川県,愛甲郡清川村,煤ヶ谷３０９９－６,,14,402,2430112,,,,,,,2025-08-22,1,,,,,シエンドディニホン,0
1715,7021003016462,新規,0,2025-08-22,2025-08-22,Ｐａｃｉｆｉｃ　Ｒｉｍ　Ｐｒｏｄｕｃｔｉｏｎｓ合同会社,,合同会社,神奈川県,横須賀市,太田和２丁目１２番１３号,,14,201,2380311,,,,,,,2025-08-22,1,,,,,パシフィックリムプロダクションズ,0
1719,7030001168273,新規,0,2025-08-22,2025-08-22,ＴＡＫＡＹＯＳＨＩ株式会社,,株式会社,埼玉県,和光市,白子１丁目１４－３ピレーネ２０５,,11,229,3510101,,,,,,,2025-08-22,1,,,,,タカヨシ,0
1721,7030003027411,新規,0,2025-08-22,2025-08-22,悠服適合同会社,,合同会社,埼玉県,鶴ヶ島市,大字下新田６２１－７４シェモア鶴ヶ島１０１,,11,241,3502222,,,,,,,2025-08-22,1,,,,,ユウフクテキ,0
1722,7040001140082,新規,0,2025-08-22,2025-08-22,株式会社オーエムアイ,,株式会社,千葉県,千葉市美浜区,高洲４丁目２番１号シティテラス稲毛海岸１０１５号,,12,106,2610004,,,,,,,2025-08-22,1,,,,,オーエムアイ,0
1723,7040001140116,新規,0,2025-08-22,2025-08-22,株式会社ＲＭＫ,,株式会社,千葉県,船橋市,飯山満町２丁目９９８番地１１街区１画地・ル・シエルＭＫ－２０４号,,12,204,2740822,,,,,,,2025-08-22,1,,,,,アールエムケー,0
1724,7040001140173,新規,0,2025-08-22,2025-08-22,株式会社日成産業,,株式会社,千葉県,茂原市,早野２７０３番地４リトルシャンティー２０１号,,12,210,2970037,,,,,,,2025-08-22,1,,,,,ニッセイサンギョウ,0
1727,7040003028318,新規,0,2025-08-22,2025-08-22,ソーラーシェアリングカンパニー合同会社,,合同会社,千葉県,匝瑳市,飯塚１０６２番地,,12,235,2892106,,,,,,,2025-08-22,1,,,,,ソーラーシェアリングカンパニー,0
1728,7040003028334,新規,0,2025-08-22,2025-08-22,合同会社心匠屋,,合同会社,千葉県,松戸市,南花島３丁目４６－１２ＢｅｌｌＦｌｏｒａ１０３号室,,12,207,2710065,,,,,,,2025-08-22,1,,,,,シンショウヤ,0
1729,7040005022863,新規,0,2025-08-22,2025-08-22,一般社団法人Ｃ‐ＮＡＰＳ,,その他の設立登記法人,千葉県,柏市,新柏２丁目１番１号,,12,217,2770084,,,,,,,2025-08-22,1,,,,,シーナップス,0
1730,7050001057144,新規,0,2025-08-22,2025-08-22,ハコブサポート株式会社,,株式会社,茨城県,猿島郡境町,陽光台１丁目９番地２,,08,546,3060435,,,,,,,2025-08-22,1,,,,,ハコブサポート,0
1766,7120001278971,新規,0,2025-08-22,2025-08-22,ＣＳＤ株式会社,,株式会社,大阪府,大阪市平野区,加美東３丁目１２番１６号,,27,126,5470002,,,,,,,2025-08-22,1,,,,,シーエスディー,0
1767,7120001279004,新規,0,2025-08-22,2025-08-22,株式会社ケフィ,,株式会社,大阪府,大阪市中央区,玉造２丁目４番１８号,,27,128,5400004,,,,,,,2025-08-22,1,,,,,ケフィ,0
1779,7120901051362,新規,0,2025-08-22,2025-08-22,株式会社中山研究所,,株式会社,大阪府,高槻市,東天川２丁目２０－４,,27,207,5690012,,,,,,,2025-08-22,1,,,,,ナカヤマケンキュウジョ,0
1783,7130001080328,新規,0,2025-08-22,2025-08-22,株式会社ＣｏｌｏｒＲｉｘ,,株式会社,京都府,京都市西京区,上桂北村町１２６番地,,26,111,6158213,,,,,,,2025-08-22,1,,,,,カラーリックス,0
1784,7130001080410,新規,0,2025-08-22,2025-08-22,株式会社ＰＯＮＯ,,株式会社,京都府,京都市上京区,中立売通室町西入三丁町４７１番地室町スカイハイツ１０２,,26,102,6020915,,,,,,,2025-08-22,1,,,,,ポノ,0
1795,7160001027004,新規,0,2025-08-22,2025-08-22,株式会社ロテル・デュ・ラク,,株式会社,滋賀県,長浜市,高月町森本９５番地,,25,203,5290231,,,,,,,2025-08-22,1,,,,,ロテルデュラク,0
1805,7180001168275,新規,0,2025-08-22,2025-08-22,株式会社クリーンマン,,株式会社,愛知県,名古屋市中区,栄３丁目３２－２４,,23,106,4600008,,,,,,,2025-08-22,1,,,,,クリーンマン,0
1806,7180001168300,新規,0,2025-08-22,2025-08-22,ウィングワン株式会社,,株式会社,愛知県,名古屋市中区,葵１丁目２０番１９号,,23,106,4600006,,,,,,,2025-08-22,1,,,,,ウィングワン,0
1807,7180001168309,新規,0,2025-08-22,2025-08-22,株式会社Ｅｆｆｅｔ　ｐａｐｉｌｌｏｎ,,株式会社,愛知県,名古屋市名東区,にじが丘１丁目３番地の１荘苑星ヶ丘３１２号,,23,115,4650078,,,,,,,2025-08-22,1,,,,,エフェパピヨン,0
1813,7210001020275,新規,0,2025-08-22,2025-08-22,株式会社ＩＲＥＳＴ,,株式会社,福井県,福井市,北今泉町第３号１５番地２２,,18,201,9188212,,,,,,,2025-08-22,1,,,,,イレスト,0
1820,7260001040467,新規,0,2025-08-22,2025-08-22,ＳａｔｏＶｉａ株式会社,,株式会社,岡山県,浅口郡里庄町,大字新庄グリーンクレスト２３番地５,,33,445,7190304,,,,,,,2025-08-22,1,,,,,サトヴィア,0
1823,7290001111190,新規,0,2025-08-22,2025-08-22,たかおメディケア株式会社,,株式会社,福岡県,福岡市中央区,地行３丁目１番２４号,,40,133,8100064,,,,,,,2025-08-22,1,,,,,タカオメディケア,0
1824,7290001111199,新規,0,2025-08-22,2025-08-22,株式会社キューデン・インターナショナル・アビドス２,,株式会社,福岡県,福岡市中央区,薬院３丁目２番２３号ＫＭＧビル,,40,133,8100022,,,,,,,2025-08-22,1,,,,,キューデンインターナショナルアビドスツー,0
1828,7310001019761,新規,0,2025-08-22,2025-08-22,株式会社新壱商事,,株式会社,長崎県,壱岐市,郷ノ浦町片原触１１６１番地３,,42,210,8115136,,,,,,,2025-08-22,1,,,,,シンイチショウジ,0
1838,7370001052906,新規,0,2025-08-22,2025-08-22,株式会社鈴木電設,,株式会社,宮城県,大崎市,古川渋井字全壮１２５番地１,,04,215,9896201,,,,,,,2025-08-22,1,,,,,スズキデンセツ,0
1843,7380003006116,新規,0,2025-08-22,2025-08-22,合同会社ＳＡＡＰ,,合同会社,福島県,双葉郡楢葉町,大字山田岡字堂ノ下６番４,,07,542,9790513,,,,,,,2025-08-22,1,,,,,サープ,0
1849,7430001095031,新規,0,2025-08-22,2025-08-22,株式会社彦星ＳｔａｒＲｏｏｆ,,株式会社,北海道,札幌市厚別区,厚別中央四条５丁目４－１－２０３,,01,108,0040054,,,,,,,2025-08-22,1,,,,,ヒコボシスタールーフ,0
1855,7430005015282,新規,0,2025-08-22,2025-08-22,一般社団法人北海道社内木鶏経営者会,,その他の設立登記法人,北海道,札幌市東区,本町一条１１丁目９番１９号,,01,103,0650041,,,,,,,2025-08-22,1,,,,,ホッカイドウシャナイモッケイケイエイシャカイ,0
1858,7460101007742,新規,0,2025-08-22,2025-08-22,株式会社アスリートベース十勝,,株式会社,北海道,河東郡音更町,字東和東１線１９番地,,01,631,0800151,,,,,,,2025-08-22,1,,,,,アスリートベーストカチ,0
1871,8010001257886,新規,0,2025-08-22,2025-08-22,ユニコーン株式会社,,株式会社,東京都,中央区,銀座１丁目１２－４Ｎ＆ＥＢＬＤ．ビル７階,,13,102,1040061,,,,,,,2025-08-22,1,,,,,ユニコーン,0
1872,8010001257894,新規,0,2025-08-22,2025-08-22,Ｈｕｍａｎｓａ　Ｇｉｎｚａ株式会社,,株式会社,東京都,中央区,銀座１丁目１２番４号Ｎ＆ＥＢＬＤ．６Ｆ,,13,102,1040061,,,,,,,2025-08-22,1,,,,,ヒューマンサギンザ,0
1873,8010001257911,新規,0,2025-08-22,2025-08-22,株式会社結ｂｌｏｏｍ,,株式会社,東京都,中央区,銀座１丁目２２番１１号銀座大竹ビジデンス２Ｆ,,13,102,1040061,,,,,,,2025-08-22,1,,,,,ユイブルーム,0
1874,8010001257936,新規,0,2025-08-22,2025-08-22,株式会社ＳＨ,,株式会社,東京都,千代田区,丸の内１丁目６番１号,,13,101,1000005,,,,,,,2025-08-22,1,,,,,エスエイチ,0
1889,8010401192485,新規,0,2025-08-22,2025-08-22,株式会社つくみ,,株式会社,東京都,港区,浜松町２丁目２番１５号浜松町ダイヤビル２階,,13,103,1050013,,,,,,,2025-08-22,1,,,,,ツクミ,0
1890,8010401192519,新規,0,2025-08-22,2025-08-22,株式会社珪天抹茶,,株式会社,東京都,港区,南青山４丁目１５番１９－３０６号,,13,103,1070062,,,,,,,2025-08-22,1,,,,,ケイテンマッチャ,0
1896,8010403035824,新規,0,2025-08-22,2025-08-22,合同会社９ライヴズ,,合同会社,東京都,港区,南青山２丁目２番１５号ＷｉｎＡｏｙａｍａビルＵＣＦ６３５,,13,103,1070062,,,,,,,2025-08-22,1,,,,,ナインライヴズ,0
1898,8010405024610,新規,0,2025-08-22,2025-08-22,一般社団法人地域共創ラボ,,その他の設立登記法人,東京都,港区,六本木３丁目１６番１２号六本木ＫＳビル５Ｆ,,13,103,1060032,,,,,,,2025-08-22,1,,,,,チイキキョウソウラボ,0
1902,8010601067826,新規,0,2025-08-22,2025-08-22,ＳＯＮＡＭ　ＮＯＲＰＨＥＬ株式会社,,株式会社,東京都,江東区,亀戸４丁目３５番５号新和コーポ２０１,,13,108,1360071,,,,,,,2025-08-22,1,,,,,ソナムノルフェル,0
1903,8010601067834,新規,0,2025-08-22,2025-08-22,株式会社ｉＴＢＹ,,株式会社,東京都,江東区,豊洲５丁目１番１３－３１１３号,,13,108,1350061,,,,,,,2025-08-22,1,,,,,アイティービーワイ,0
1909,8010901057956,新規,0,2025-08-22,2025-08-22,株式会社ＴＭＩ研究所,,株式会社,東京都,世田谷区,上用賀６丁目１０番３号,,13,112,1580098,,,,,,,2025-08-22,1,,,,,ティーエムアイケンキュウジョ,0
1913,8011001171490,新規,0,2025-08-22,2025-08-22,株式会社フュージョナル,,株式会社,東京都,渋谷区,円山町５－３ＭＩＥＵＸ渋谷ビル８階,,13,113,1500044,,,,,,,2025-08-22,1,,,,,フュージョナル,0
1914,8011001171516,新規,0,2025-08-22,2025-08-22,Ｃｈｉｌｌ　ＢｕＤｄｙ株式会社,,株式会社,東京都,渋谷区,道玄坂１丁目１６番６号二葉ビル８Ｂ,,13,113,1500043,,,,,,,2025-08-22,1,,,,,チルバディ,0
1915,8011001171573,新規,0,2025-08-22,2025-08-22,株式会社ｐｏｐｃｏｒｎ,,株式会社,東京都,目黒区,緑が丘１丁目７番１３－４０２号,,13,110,1520034,,,,,,,2025-08-22,1,,,,,ポップコーン,0
1917,8011003022188,新規,0,2025-08-22,2025-08-22,ＩＬＡ文化研究センター合同会社,,合同会社,東京都,渋谷区,富ヶ谷１丁目１４番１４号３階・４階,,13,113,1510063,,,,,,,2025-08-22,1,,,,,アイエルエーブンカケンキュウセンター,0
1918,8011003022279,新規,0,2025-08-22,2025-08-22,合同会社ＳＡＴＯＹＡＮ　ＭＵＳＩＣ,,合同会社,東京都,渋谷区,代々木５丁目４９番９号,,13,113,1510053,,,,,,,2025-08-22,1,,,,,サトヤンミュージック,0
1919,8011003022295,新規,0,2025-08-22,2025-08-22,合同会社海人,,合同会社,東京都,渋谷区,神宮前１丁目１９番４号原宿玉川ビルＢ１Ｆ,,13,113,1500001,,,,,,,2025-08-22,1,,,,,ウミンチュ,0
1928,8011103016189,新規,0,2025-08-22,2025-08-22,菁麟企業合同会社,,合同会社,東京都,新宿区,榎町３４－３榎町ビル７階－０４室,,13,104,1620806,,,,,,,2025-08-22,1,,,,,セイリンキギョウ,0
1931,8011501032465,新規,0,2025-08-22,2025-08-22,株式会社ＴＡＮＱＥＬ,,株式会社,東京都,北区,上十条１丁目１４－１７,,13,117,1140034,,,,,,,2025-08-22,1,,,,,タンケル,0
1934,8011503006649,新規,0,2025-08-22,2025-08-22,合同会社百合,,合同会社,東京都,北区,赤羽１丁目３０番３号カーサグリーン３０２,,13,117,1150045,,,,,,,2025-08-22,1,,,,,ユリ,0
1941,8012405005144,新規,0,2025-08-22,2025-08-22,一般社団法人フィジカルインターネット医薬品協議会,,その他の設立登記法人,東京都,小金井市,緑町３丁目１３番２１号,,13,210,1840003,,,,,,,2025-08-22,1,,,,,フィジカルインターネットイヤクヒンキョウギカイ,0
1944,8013303007827,新規,0,2025-08-22,2025-08-22,Ｒｅｃｒａｎｅ合同会社,,合同会社,東京都,豊島区,東池袋２丁目３２－３,,13,116,1700013,,,,,,,2025-08-22,1,,,,,リクレイン,0
1948,8020001164462,新規,0,2025-08-22,2025-08-22,Ｉｎｔｅｒ　Ｓｅｒｖｉｃｅ株式会社,,株式会社,神奈川県,川崎市川崎区,大島４丁目１５番５－アリエッタ２０２号,,14,131,2100834,,,,,,,2025-08-22,1,,,,,インターサービス,0
1949,8020001164470,新規,0,2025-08-22,2025-08-22,株式会社ＭＫＧｆａｃｔｏｒｙ,,株式会社,神奈川県,川崎市高津区,二子４丁目１４番２７号高津テラスハウス１０２,,14,134,2130002,,,,,,,2025-08-22,1,,,,,エムケイジーファクトリー,0
1950,8020001164479,新規,0,2025-08-22,2025-08-22,株式会社ＢＡＭＯＳ,,株式会社,神奈川県,横浜市泉区,和泉中央南１丁目３９番３２号ハウスフレンド２Ｆ,,14,116,2450023,,,,,,,2025-08-22,1,,,,,バモス,0
1951,8020001164495,新規,0,2025-08-22,2025-08-22,株式会社ＥＬ　ＤＯＲＡＤＯ,,株式会社,神奈川県,横浜市旭区,中白根４丁目１番２－２１０号,,14,112,2410004,,,,,,,2025-08-22,1,,,,,エルドラード,0
1953,8020003029110,新規,0,2025-08-22,2025-08-22,合同会社ＴＨＹＳ,,合同会社,神奈川県,川崎市幸区,戸手２丁目１－１３フォレスターナ２０４,,14,132,2120005,,,,,,,2025-08-22,1,,,,,ティエイチワイエス,0
1954,8020003029184,新規,0,2025-08-22,2025-08-22,ｎｏｂ合同会社,,合同会社,神奈川県,横浜市神奈川区,東神奈川２丁目２９番１号,,14,102,2210044,,,,,,,2025-08-22,1,,,,,ノブ,0
1955,8020005016957,新規,0,2025-08-22,2025-08-22,ＮＰＯ法人学びーば,,その他の設立登記法人,神奈川県,横浜市緑区,霧が丘４丁目１２番地１７,,14,113,2260016,,,,,,,2025-08-22,1,,,,,マナビーバ,0
1962,8021001086069,新規,0,2025-08-22,2025-08-22,株式会社ＢＥＬＬＬＩＧＨＴ　ＧＡＲＡＧＥ,,株式会社,神奈川県,鎌倉市,台２丁目１番３号,,14,204,2470061,,,,,,,2025-08-22,1,,,,,ベルライトガレージ,0
1976,8030003027451,新規,0,2025-08-22,2025-08-22,しがらき合同会社,,合同会社,埼玉県,草加市,高砂２丁目１７番１２－５０２号,,11,221,3400015,,,,,,,2025-08-22,1,,,,,シガラキ,0
1981,8040001140131,新規,0,2025-08-22,2025-08-22,株式会社キキ,,株式会社,千葉県,成田市,幸町９１１番地１ＷｏｒｋＷｏｒｋ１Ｆ,,12,211,2860028,,,,,,,2025-08-22,1,,,,,キキ,0
1982,8040001140156,新規,0,2025-08-22,2025-08-22,Ｆｕｔｕｒｅ　Ｂｒｉｇｈｔ株式会社,,株式会社,千葉県,浦安市,富岡４丁目６番１８号,,12,227,2790021,,,,,,,2025-08-22,1,,,,,フューチャーブライト,0
1983,8040001140172,新規,0,2025-08-22,2025-08-22,株式会社Ｇ．Ｄ．ＡＵＴＯ　ＩＮＴＥＲＮＡＴＩＯＮＡＬ,,株式会社,千葉県,成田市,長沼３１９０－１,,12,211,2860804,,,,,,,2025-08-22,1,,,,,ジーディーオートインターナショナル,0
1995,8050001057127,新規,0,2025-08-22,2025-08-22,ピカブーつくば株式会社,,株式会社,茨城県,つくば市,松代３丁目１２番地２０,,08,220,3050035,,,,,,,2025-08-22,1,,,,,ピカブーツクバ,0
1996,8050001057143,新規,0,2025-08-22,2025-08-22,株式会社ヴィジライズ,,株式会社,茨城県,つくば市,千現２丁目１－６,,08,220,3050047,,,,,,,2025-08-22,1,,,,,ヴィジライズ,0
2012,8100001038889,新規,0,2025-08-22,2025-08-22,株式会社ＴＲ‐Ｓ,,株式会社,長野県,松本市,大字入山辺７２番地３,,20,202,3900222,,,,,,,2025-08-22,1,,,,,ティーアールエス,0
2020,8110005017260,新規,0,2025-08-22,2025-08-22,税理士法人三南,,その他の設立登記法人,新潟県,三条市,西四日町１丁目４番２７号,,15,204,9550851,,,,,,,2025-08-22,1,,,,,サンナン,0
2028,8120001278830,新規,0,2025-08-22,2025-08-22,潤達株式会社,,株式会社,大阪府,大阪市淀川区,野中南２丁目１０番５４－４０４号,,27,123,5320022,,,,,,,2025-08-22,1,,,,,ジュンタツ,0
2029,8120001278847,新規,0,2025-08-22,2025-08-22,劉克株式会社,00140386,株式会社,大阪府,大阪市住之江区,浜口西１丁目９－１０ラパンジール住吉公園３０４号,,27,125,5590006,,,,,,,2025-08-22,1,,,,,リュウコク,0
2030,8120001278855,新規,0,2025-08-22,2025-08-22,Ｗ＆Ｙ株式会社,,株式会社,大阪府,寝屋川市,寿町４６－５ディース香里３２３－２０４号室,,27,215,5720029,,,,,,,2025-08-22,1,,,,,ダブリューアンドワイ,0
2031,8120001278863,新規,0,2025-08-22,2025-08-22,株式会社Ｖｉｎｇ,,株式会社,大阪府,大阪市北区,梅田１丁目２番２号大阪駅前第２ビル１２－１２,,27,127,5300001,,,,,,,2025-08-22,1,,,,,ヴィング,0
2032,8120001278946,新規,0,2025-08-22,2025-08-22,Ｍａｊｉｎ　Ｂｕｕ株式会社,,株式会社,大阪府,大阪市北区,西天満２丁目６番８号堂島ビルヂング６Ｆ新東京国際リーガル内,,27,127,5300047,,,,,,,2025-08-22,1,,,,,マジンブー,0
2033,8120001278970,新規,0,2025-08-22,2025-08-22,日本鋭科株式会社,,株式会社,大阪府,大阪市住之江区,安立４丁目１番９号,,27,125,5590003,,,,,,,2025-08-22,1,,,,,ニホンエイカ,0
2034,8120001278995,新規,0,2025-08-22,2025-08-22,ＸＹＣ株式会社,,株式会社,大阪府,大阪市中央区,瓦町４丁目３番１４号６１８室,,27,128,5410048,,,,,,,2025-08-22,1,,,,,エクスワイシー,0
2035,8120001279060,新規,0,2025-08-22,2025-08-22,株式会社レッド,,株式会社,大阪府,大阪市北区,梅田１丁目１番３号大阪駅前第３ビル２９Ｆ１－１－１号室,,27,127,5300001,,,,,,,2025-08-22,1,,,,,レッド,0
2047,8120905006782,新規,0,2025-08-22,2025-08-22,一般社団法人まごころ相続はんしん,,その他の設立登記法人,大阪府,豊中市,岡上の町２丁目５番２８号,,27,203,5600023,,,,,,,2025-08-22,1,,,,,マゴコロソウゾクハンシン,0
2049,8122001039568,新規,0,2025-08-22,2025-08-22,株式会社山下造園土木,,株式会社,大阪府,八尾市,服部川４丁目８８番地,,27,212,5810865,,,,,,,2025-08-22,1,,,,,ヤマシタゾウエンドボク,0
2052,8130001080319,新規,0,2025-08-22,2025-08-22,ＢｒｉｄｇｅＷａｙ　Ｇｌｏｂａｌ株式会社,,株式会社,京都府,京都市左京区,一乗寺西杉ノ宮町１－２,,26,103,6068112,,,,,,,2025-08-22,1,,,,,ブリッジウェイグローバル,0
2054,8130003010694,新規,0,2025-08-22,2025-08-22,合同会社Ｓａｎａｔｉｏ,,合同会社,京都府,京都市中京区,衣棚通竹屋町下る花立町２５７番地,,26,104,6040003,,,,,,,2025-08-22,1,,,,,サナーティオ,0
2058,8140001139774,新規,0,2025-08-22,2025-08-22,Ｙ’ｓＦＩＥＬＤ株式会社,,株式会社,兵庫県,川西市,火打１丁目２１番２６号,,28,217,6660017,,,,,,,2025-08-22,1,,,,,ワイズフィールド,0
2062,8150001028349,新規,0,2025-08-22,2025-08-22,株式会社Ｌｉｇｈｔ　Ａｈｅａｄ,,株式会社,奈良県,高市郡高取町,大字松山４２８番地,,29,401,6350111,,,,,,,2025-08-22,1,,,,,ライトアヘッド,0
2081,8200001044150,新規,0,2025-08-22,2025-08-22,ＦＩＬＯ株式会社,,株式会社,岐阜県,瑞穂市,野田新田４１１２番地１,,21,216,5010232,,,,,,,2025-08-22,1,,,,,フィーロ,0
2088,8230005009493,新規,0,2025-08-22,2025-08-22,一般社団法人富山イノベーションベース,,その他の設立登記法人,富山県,富山市,総曲輪３丁目４番１－１５０２号プレミストタワー総曲輪,,16,201,9300083,,,,,,,2025-08-22,1,,,,,トヤマイノベーションベース,0
2092,8260001040482,新規,0,2025-08-22,2025-08-22,株式会社Ｅｉｍａ,,株式会社,岡山県,岡山市北区,表町１丁目７番３６号ＳＵＮＯＲＩＥＮＴ表町ビル３階,,33,101,7000822,,,,,,,2025-08-22,1,,,,,エイマ,0
2101,8290005019818,新規,0,2025-08-22,2025-08-22,一般社団法人アクセシビリティカンファレンス福岡,,その他の設立登記法人,福岡県,福岡市中央区,渡辺通５丁目２３－８サンライトビル３Ｆ,,40,133,8100004,,,,,,,2025-08-22,1,,,,,アクセシビリティカンファレンスフクオカ,0
2104,8310003005073,新規,0,2025-08-22,2025-08-22,ＡＳＩＡ　ＦＯＯＤＳ合同会社,,合同会社,長崎県,大村市,桜馬場２丁目５６１番地３ジュネス桜馬場１０１,,42,205,8560812,,,,,,,2025-08-22,1,,,,,アジアフード,0
2112,8330003011185,新規,0,2025-08-22,2025-08-22,合同会社ひごグループホールディングス,,合同会社,熊本県,菊池郡菊陽町,大字原水９６９番地４７,,43,404,8691102,,,,,,,2025-08-22,1,,,,,ヒゴグループホールディングス,0
2118,8360001035679,新規,0,2025-08-22,2025-08-22,愛ランドホーム株式会社,,株式会社,沖縄県,宜野湾市,我如古２丁目１２番１７－３０５号,,47,205,9012214,,,,,,,2025-08-22,1,,,,,アイランドホーム,0
2120,8370001052970,新規,0,2025-08-22,2025-08-22,株式会社タウンハウジング東北,,株式会社,宮城県,仙台市青葉区,中央２丁目２番１０号５４０,,04,101,9800021,,,,,,,2025-08-22,1,,,,,タウンハウジングトウホク,0
2126,8390001018086,新規,0,2025-08-22,2025-08-22,株式会社Ｌｅｓｓ　ｉｓ　ｍｏｒｅ,,株式会社,山形県,村山市,楯岡新町３丁目２４番１号,,06,208,9950033,,,,,,,2025-08-22,1,,,,,,0
2141,8430003018006,新規,0,2025-08-22,2025-08-22,合同会社さの,,合同会社,北海道,札幌市白石区,北郷四条１丁目１番１－８０３号,,01,104,0030834,,,,,,,2025-08-22,1,,,,,サノ,0
2142,8430005015281,新規,0,2025-08-22,2025-08-22,一般社団法人北海道広域権利擁護センター,,その他の設立登記法人,北海道,札幌市白石区,東札幌一条６丁目５番１６－７０１号,,01,104,0030001,,,,,,,2025-08-22,1,,,,,ホッカイドウコウイキケンリヨウゴセンター,0
2152,9010001257852,新規,0,2025-08-22,2025-08-22,株式会社オフィスドクター,,株式会社,東京都,中央区,日本橋小網町１番４－６０３号,,13,102,1030016,,,,,,,2025-08-22,1,,,,,オフィスドクター,0
2154,9010003048473,新規,0,2025-08-22,2025-08-22,ＺＥＲＯＮＥ合同会社,,合同会社,東京都,中央区,日本橋室町１丁目１１番１２号日本橋水野ビル７階,,13,102,1030022,,,,,,,2025-08-22,1,,,,,ゼロワン,0
2155,9010005040560,新規,0,2025-08-22,2025-08-22,一般社団法人ＴＦＪ１１＆１２,,その他の設立登記法人,東京都,中央区,新川１丁目１７番１８号,,13,102,1040033,,,,,,,2025-08-22,1,,,,,ティーエフジェイイレブンアンドトゥエルブ,0
2156,9010005040569,新規,0,2025-08-22,2025-08-22,一般社団法人ブカツ・サポート・コンソーシアム,,その他の設立登記法人,東京都,中央区,東日本橋２丁目６番１１号,,13,102,1030004,,,,,,,2025-08-22,1,,,,,ブカツサポートコンソーシアム,0
2166,9010401192484,新規,0,2025-08-22,2025-08-22,株式会社Ｏｃｅａｎ　Ｇｉｆｔ　Ｂａｎｋ,,株式会社,東京都,港区,南青山７丁目４番１号５０６号室,,13,103,1070062,,,,,,,2025-08-22,1,,,,,オーシャンギフトバンク,0
2167,9010401192501,新規,0,2025-08-22,2025-08-22,株式会社ＭＥＤＩＸＥＮＯ,,株式会社,東京都,港区,西新橋３丁目２５－８,,13,103,1050003,,,,,,,2025-08-22,1,,,,,メディゼノ,0
2172,9010403035831,新規,0,2025-08-22,2025-08-22,合同会社ピークリバー,,合同会社,東京都,港区,北青山１丁目３－１アールキューブ青山３階,,13,103,1070061,,,,,,,2025-08-22,1,,,,,ピークリバー,0
2179,9010601067841,新規,0,2025-08-22,2025-08-22,株式会社ながの,,株式会社,東京都,墨田区,東向島２丁目２０番６号永野ビル１階,,13,107,1310032,,,,,,,2025-08-22,1,,,,,ナガノ,0
2184,9010803005509,新規,0,2025-08-22,2025-08-22,合同会社空き家対策ＬＬＣ,,合同会社,東京都,大田区,久が原５丁目２７番１号,,13,111,1460085,,,,,,,2025-08-22,1,,,,,アキヤタイサクエルエルシー,0
2185,9010803005517,新規,0,2025-08-22,2025-08-22,Ｂｉｔｌｏｇｕｅ合同会社,,合同会社,東京都,大田区,大森東２丁目３番１号パレス・フロラシオン３０４,,13,111,1430012,,,,,,,2025-08-22,1,,,,,ビットローグ,0
2187,9010901057963,新規,0,2025-08-22,2025-08-22,株式会社クッキー,,株式会社,東京都,世田谷区,若林１丁目３７番５－４０１号,,13,112,1540023,,,,,,,2025-08-22,1,,,,,クッキー,0
2192,9011001171382,新規,0,2025-08-22,2025-08-22,株式会社エス,,株式会社,東京都,渋谷区,恵比寿４丁目２２番１０号,,13,113,1500013,,,,,,,2025-08-22,1,,,,,エス,0
2195,9011101112641,新規,0,2025-08-22,2025-08-22,株式会社ＢａｍＢｏｏ,,株式会社,東京都,新宿区,百人町２丁目２６番１６号,,13,104,1690073,,,,,,,2025-08-22,1,,,,,バンブー,0
2201,9011301030825,新規,0,2025-08-22,2025-08-22,株式会社Ｆｒａｎｋｉｅ　Ｊａｐａｎ,,株式会社,東京都,杉並区,桃井１丁目３番１０号５０５号室,,13,115,1670034,,,,,,,2025-08-22,1,,,,,フランキージャパン,0
2202,9011401027341,新規,0,2025-08-22,2025-08-22,株式会社Ｔ＆ｒ,,株式会社,東京都,板橋区,成増２丁目３６番３５号メインステージ成増ＩＩ,00140382,13,119,1750094,,,,,,,2025-08-22,1,,,,,ティーアンドアール,0
2203,9011503006623,新規,0,2025-08-22,2025-08-22,ひかり合同会社,,合同会社,東京都,荒川区,町屋５丁目１７番２４－１２０２号,,13,118,1160001,,,,,,,2025-08-22,1,,,,,ヒカリ,0
2205,9011603004808,新規,0,2025-08-22,2025-08-22,合同会社５１６,,合同会社,東京都,練馬区,練馬１丁目２０－８日建練馬ビル２Ｆ,,13,120,1760001,,,,,,,2025-08-22,1,,,,,コーイチロー,0
2206,9011801046577,新規,0,2025-08-22,2025-08-22,株式会社明拓工業,,株式会社,東京都,葛飾区,細田４丁目３６番１４号,,13,122,1240021,,,,,,,2025-08-22,1,,,,,メイタクコウギョウ,0
2208,9011803007032,新規,0,2025-08-22,2025-08-22,合同会社ミライノワ,,合同会社,東京都,足立区,西新井栄町１丁目１８番１１号プロシードアルティア西新井２２０,,13,121,1230843,,,,,,,2025-08-22,1,,,,,ミライノワ,0
2209,9011803007040,新規,0,2025-08-22,2025-08-22,合同会社さんりー,,合同会社,東京都,足立区,千住橋戸町１－２０－５０１,,13,121,1200038,,,,,,,2025-08-22,1,,,,,サンリー,0
2217,9013301054795,新規,0,2025-08-22,2025-08-22,ＡＪＣ株式会社,,株式会社,東京都,豊島区,南大塚１丁目３８－４南大塚第四マンション４０２,,13,116,1700005,,,,,,,2025-08-22,1,,,,,エイジェイシ,0
2218,9013301054829,新規,0,2025-08-22,2025-08-22,ＭＡＷ　ＫＵＮ　ＴＨＩＴ株式会社,,株式会社,東京都,豊島区,巣鴨３丁目１３番６号みすず荘１０２号室,,13,116,1700002,,,,,,,2025-08-22,1,,,,,モークンテッ,0
2234,9030001168156,新規,0,2025-08-22,2025-08-22,株式会社優誠興業,,株式会社,埼玉県,さいたま市桜区,町谷１丁目９番８－３０７号,,11,106,3380836,,,,,,,2025-08-22,1,,,,,ユウセイコウギョウ,0
2235,9030001168271,新規,0,2025-08-22,2025-08-22,株式会社Ｌｉｅｎ,,株式会社,埼玉県,草加市,新里町１４２２番地ヴィ・シティ草加４－５１６号,,11,221,3400031,,,,,,,2025-08-22,1,,,,,リアン,0
2239,9030003027434,新規,0,2025-08-22,2025-08-22,ＳｅｉｃｈｏＢａｓｅ合同会社,,合同会社,埼玉県,所沢市,大字北秋津６７２番地の１所沢ガーデンハウス３０２,,11,208,3590038,,,,,,,2025-08-22,1,,,,,セイチョウベース,0
2240,9030003027450,新規,0,2025-08-22,2025-08-22,合同会社クリピカ,,合同会社,埼玉県,八潮市,大字大原６３７番１イー・シティＩＩＩ２０７,00140388,11,234,3400825,,,,,,,2025-08-22,1,,,,,クリピカ,0
2246,9040001140171,新規,0,2025-08-22,2025-08-22,株式会社ＳＴＡＲ　ｏｎ,,株式会社,千葉県,流山市,向小金３丁目１４１番地の９２第二高橋コーポ１０３号室,,12,220,2700143,,,,,,,2025-08-22,1,,,,,スターオン,0
2247,9040001140205,新規,0,2025-08-22,2025-08-22,株式会社ＴＲＹ　ＡＲＲＯＷＳ,,株式会社,千葉県,流山市,南流山７丁目２１番地の１８,,12,220,2700163,,,,,,,2025-08-22,1,,,,,トライアローズ,0
2250,9040003028241,新規,0,2025-08-22,2025-08-22,合同会社藝,,合同会社,千葉県,八千代市,ゆりのき台３丁目４番地エルプレシア５１２号室,,12,221,2760042,,,,,,,2025-08-22,1,,,,,ゲイ,0
2251,9040003028332,新規,0,2025-08-22,2025-08-22,Ｂｌｏｏｍｄ合同会社,,合同会社,千葉県,千葉市若葉区,加曽利町９４７番地１レオパレスアンソレイエ２０７号,,12,104,2640017,,,,,,,2025-08-22,1,,,,,ブルームド,0
2255,9050001057134,新規,0,2025-08-22,2025-08-22,ＫＡＳＡＭＡＫＩＮＯ株式会社,,株式会社,茨城県,笠間市,笠間２２５５番地３,,08,216,3091611,,,,,,,2025-08-22,1,,,,,カサマキノ,0
2256,9050001057159,新規,0,2025-08-22,2025-08-22,前之内農場株式会社,,株式会社,茨城県,桜川市,高久１６２７番地,,08,231,3091243,,,,,,,2025-08-22,1,,,,,マエノウチノウジョウ,0
2259,9070001043280,新規,0,2025-08-22,2025-08-22,株式会社幸縁,,株式会社,群馬県,高崎市,本郷町１５０８番地１０,,10,202,3703334,,,,,,,2025-08-22,1,,,,,コウエン,0
2262,9080101025731,新規,0,2025-08-22,2025-08-22,株式会社さくら,,株式会社,静岡県,熱海市,上多賀１１５番地の２,,22,205,4130101,,,,,,,2025-08-22,1,,,,,サクラ,0
2266,9090001019460,新規,0,2025-08-22,2025-08-22,株式会社Ｂｌｖｄ,,株式会社,山梨県,北杜市,白州町横手２６５番地１,,19,209,4080313,,,,,,,2025-08-22,1,,,,,ブルーバード,0
2267,9090003002877,新規,0,2025-08-22,2025-08-22,合同会社ＨＺ,,合同会社,山梨県,甲府市,住吉１丁目１０番１８号,,19,201,4000851,,,,,,,2025-08-22,1,,,,,エイチゼット,0
2270,9100001038888,新規,0,2025-08-22,2025-08-22,株式会社ＡＱＵＡＳ,,株式会社,長野県,松本市,波田５５４３番地７,,20,202,3901401,,,,,,,2025-08-22,1,,,,,アクアス,0
2274,9100003008352,新規,0,2025-08-22,2025-08-22,Ｓｅｉｒｙｕ‐Ｋｅｎ合同会社,,合同会社,長野県,長野市,戸隠字大橋１１９７番地,,20,201,3814101,,,,,,,2025-08-22,1,,,,,セイリュウケン,0
2285,9120001278920,新規,0,2025-08-22,2025-08-22,株式会社大地,,株式会社,大阪府,大阪市港区,港晴３丁目７番１５号１０１室,,27,107,5520023,,,,,,,2025-08-22,1,,,,,ダイチ,0
2286,9120001278945,新規,0,2025-08-22,2025-08-22,Ｗｉｎｓｕｎ　Ｇｒｏｕｐ株式会社,,株式会社,大阪府,大阪市北区,西天満２丁目６番８号堂島ビルヂング６Ｆ新東京国際リーガル内,,27,127,5300047,,,,,,,2025-08-22,1,,,,,ウィンサングループ,0
2287,9120001279068,新規,0,2025-08-22,2025-08-22,株式会社Ｓｔｒｉｚｅ,,株式会社,大阪府,大阪市淀川区,塚本２丁目１７番４号レイワニティプレイス１０２号室,,27,123,5320026,,,,,,,2025-08-22,1,,,,,ストライズ,0
2288,9120001279092,新規,0,2025-08-22,2025-08-22,株式会社さざら,,株式会社,大阪府,大阪市城東区,永田２丁目６番１０号,,27,118,5360022,,,,,,,2025-08-22,1,,,,,サザラ,0
2289,9120003030370,新規,0,2025-08-22,2025-08-22,合同会社ＢＬＡＣＫ　ＲＯＯＭ,,合同会社,大阪府,大阪市北区,梅田１丁目２番２号大阪駅前第二ビル１２－１２,,27,127,5300001,,,,,,,2025-08-22,1,,,,,ブラックルーム,0
2294,9122001039567,新規,0,2025-08-22,2025-08-22,株式会社月設計事務所,,株式会社,大阪府,東大阪市,荒川３丁目３０番２６号,,27,227,5770843,,,,,,,2025-08-22,1,,,,,ツキセッケイジムショ,0
2299,9130001080318,新規,0,2025-08-22,2025-08-22,株式会社エアプロダクツ,,株式会社,京都府,京都市右京区,太秦北路町２５番地１７,,26,108,6168182,,,,,,,2025-08-22,1,,,,,エアプロダクツ,0
2300,9130001080334,新規,0,2025-08-22,2025-08-22,株式会社ＫＩＲＩＮＯ,,株式会社,京都府,久世郡久御山町,市田新珠城２１１－４,,26,322,6130022,,,,,,,2025-08-22,1,,,,,キリノ,0
2312,9150001028348,新規,0,2025-08-22,2025-08-22,株式会社ｈａｉｒ’ｓ　ｓｋｅｔｃｈ,,株式会社,奈良県,橿原市,内膳町１丁目６番１８号,,29,205,6340804,,,,,,,2025-08-22,1,,,,,ヘアーズスケッチ,0
2316,9180001168298,新規,0,2025-08-22,2025-08-22,福円商事株式会社,,株式会社,愛知県,名古屋市中区,栄１丁目２２番７号サカエビル２２、８Ａ号室,,23,106,4600008,,,,,,,2025-08-22,1,,,,,フクマルショウジ,0
2319,9180303006701,新規,0,2025-08-22,2025-08-22,結乃音合同会社,,合同会社,愛知県,豊橋市,下地町字新道１７番地７セザンヌ下地１０３,,23,201,4400086,,,,,,,2025-08-22,1,,,,,ユイノト,0
2334,9290001111164,新規,0,2025-08-22,2025-08-22,ウスイパートナーズ株式会社,,株式会社,福岡県,福岡市中央区,地行浜２丁目２番５－１５０４号,,40,133,8100065,,,,,,,2025-08-22,1,,,,,ウスイパートナーズ,0
2337,9290003017211,新規,0,2025-08-22,2025-08-22,合同会社ＬＵＭＯＲＩＡ,,合同会社,福岡県,福岡市博多区,博多駅前１丁目２３－２ＰＦ博多駅前１丁目５Ｆ－Ｂ,,40,132,8120011,,,,,,,2025-08-22,1,,,,,ルモリア,0
2338,9290803005134,新規,0,2025-08-22,2025-08-22,Ｍａｇｎｅｔ　Ｙｏｕｔｏｐｉａ合同会社,,合同会社,福岡県,北九州市小倉南区,守恒１丁目５－２７－２０１,,40,107,8020972,,,,,,,2025-08-22,1,,,,,マグネットユートピア,0
2341,9310003005072,新規,0,2025-08-22,2025-08-22,合同会社ｍａｇｏｋｏｒｏ,,合同会社,長崎県,東彼杵郡東彼杵町,彼杵宿郷５２６,,42,321,8593807,,,,,,,2025-08-22,1,,,,,マゴコロ,0
2342,9340001027603,新規,0,2025-08-22,2025-08-22,株式会社エム・アイ設備,,株式会社,鹿児島県,鹿児島市,唐湊１丁目１３番１２号ベネフィス唐湊２０２号,,46,201,8900081,,,,,,,2025-08-22,1,,,,,エムアイセツビ,0
2343,9340003004930,新規,0,2025-08-22,2025-08-22,合同会社アークス,,合同会社,鹿児島県,鹿児島市,西陵７丁目１番１号西陵中央ビル２０３,,46,201,8900032,,,,,,,2025-08-22,1,,,,,アークス,0
2344,9360001035678,新規,0,2025-08-22,2025-08-22,沖縄ＧＥＮＫＩ株式会社,,株式会社,沖縄県,那覇市,壺川２丁目３番地１２－５０９,,47,201,9000025,,,,,,,2025-08-22,1,,,,,オキナワゲンキ,0
2350,9370005010998,新規,0,2025-08-22,2025-08-22,一般社団法人燦紅璃,,その他の設立登記法人,宮城県,仙台市青葉区,国分町２丁目１３番２１号エイチプラス定禅寺通り７階,,04,101,9800803,,,,,,,2025-08-22,1,,,,,サンコウリ,0
2361,9420003003164,新規,0,2025-08-22,2025-08-22,津軽醸造合同会社,,合同会社,青森県,つがる市,稲垣町沼崎幾代崎１２１番地４,,02,209,0370106,,,,,,,2025-08-22,1,,,,,ツガルジョウゾウ,0
2363,9430001095054,新規,0,2025-08-22,2025-08-22,一叶輝株式会社,,株式会社,北海道,日高郡新ひだか町,東静内１４７番地,,01,610,0592561,,,,,,,2025-08-22,1,,,,,ヒトトキ,0
2366,9430005015280,新規,0,2025-08-22,2025-08-22,一般社団法人北海道届出自動車教習所協会,,その他の設立登記法人,北海道,札幌市手稲区,曙四条３丁目１５番３５号,,01,109,0060834,,,,,,,2025-08-22,1,,,,,ホッカイドウトドケデジドウシャキョウシュウジョキョウカイ,0
2367,9450003002709,新規,0,2025-08-22,2025-08-22,ＴＡＩＣＨＩＬＬ合同会社,,合同会社,北海道,上川郡美瑛町,幸町２丁目２番７号１階,,01,459,0710214,,,,,,,2025-08-22,1,,,,,タイチル,0
2374,9500001026480,新規,0,2025-08-22,2025-08-22,株式会社ＣＲＩＢ,,株式会社,愛媛県,松山市,東長戸３丁目８番５－７号,,38,201,7918005,,,,,,,2025-08-22,1,,,,,クリブ,0
