sequenceNumber,corporateNumber,process,correct,updateDate,changeDate,name,nameImageId,kind,prefectureName,cityName,streetNumber,addressImageId,prefectureCode,cityCode,postCode,addressOutside,addressOutsideImageId,closeDate,closeCause,successorCorporateNumber,changeCause,assignmentDate,latest,enName,enPrefectureName,enCityName,enAddressOutside,furigana,hihyoji
4,1010001250682,新規,0,2024-12-12,2024-12-12,株式会社ＭＵ,,株式会社,東京都,中央区,銀座１丁目１２番４号Ｎ＆ＥＢＬＤ．６Ｆ,,13,102,1040061,,,,,,,2024-12-12,1,,,,,エムユー,0
5,1010003045750,新規,0,2024-12-12,2024-12-12,合同会社ワークアシスト,,合同会社,東京都,千代田区,神田平河町１番地第三東ビル５階,,13,101,1010027,,,,,,,2024-12-12,1,,,,,ワークアシスト,0
6,1010003045767,新規,0,2024-12-12,2024-12-12,合同会社ＲｅｖｅＬｉｅｎ,,合同会社,東京都,千代田区,神田須田町１丁目７番８号ＶＯＲＴ秋葉原ＩＶ２Ｆ,00137312,13,101,1010041,,,,,,,2024-12-12,1,,,,,レヴリアン,0
13,1010401186717,新規,0,2024-12-12,2024-12-12,ロンバードストリートパートナーズ株式会社,,株式会社,東京都,港区,芝浦４丁目１９番１－３００８号,,13,103,1080023,,,,,,,2024-12-12,1,,,,,ロンバードストリートパートナーズ,0
14,1010401187013,新規,0,2024-12-12,2024-12-12,株式会社ＣＨホールディングス,,株式会社,東京都,港区,虎ノ門４丁目３番１号,,13,103,1050001,,,,,,,2024-12-12,1,,,,,シーエイチホールディングス,0
29,1010405023874,新規,0,2024-12-12,2024-12-12,一般社団法人ジーシーピー４,,その他の設立登記法人,東京都,港区,元赤坂１丁目１番８号株式会社赤坂国際会計内,,13,103,1070051,,,,,,,2024-12-12,1,,,,,ジーシーピーフォー,0
35,1011001166233,新規,0,2024-12-12,2024-12-12,Ｆｉｒｓｔｒａｃｋ株式会社,,株式会社,東京都,渋谷区,道玄坂１丁目１０番８号渋谷道玄坂東急ビル２Ｆ－Ｃ,,13,113,1500043,,,,,,,2024-12-12,1,,,,,ファーストラック,0
36,1011001166448,新規,0,2024-12-12,2024-12-12,株式会社Ａｍｉｄｉｏ,,株式会社,東京都,渋谷区,恵比寿西２丁目４番８号,,13,113,1500021,,,,,,,2024-12-12,1,,,,,アミディオ,0
37,1011001166555,新規,0,2024-12-12,2024-12-12,株式会社ｋｏｎａｅ,,株式会社,東京都,渋谷区,渋谷２丁目１９‐１５宮益坂ビルディング６０９,,13,113,1500002,,,,,,,2024-12-12,1,,,,,コナエ,0
39,1011003020594,新規,0,2024-12-12,2024-12-12,合同会社ＳＯＬＮＥＣＴ,,合同会社,東京都,渋谷区,恵比寿西２丁目４番８号ウィンド恵比寿ビル８Ｆ,,13,113,1500021,,,,,,,2024-12-12,1,,,,,ソルネクト,0
44,1011101109843,新規,0,2024-12-12,2024-12-12,株式会社三陽,,株式会社,東京都,新宿区,百人町１丁目１８番８号大久保カドビルＬｉｎｋＳｐａｃｅ百人町Ｗ０７,,13,104,1690073,,,,,,,2024-12-12,1,,,,,サンヨウ,0
45,1011101109918,新規,0,2024-12-12,2024-12-12,Ａｑｕａ　Ｖｉｔａｅ株式会社,,株式会社,東京都,新宿区,百人町１丁目１１番３号３０３室,,13,104,1690073,,,,,,,2024-12-12,1,,,,,アクアヴィタエ,0
46,1011103015288,新規,0,2024-12-12,2024-12-12,合同会社ＰＲＩＭＥ,,合同会社,東京都,新宿区,西早稲田２丁目１４－３６－２０１,,13,104,1690051,,,,,,,2024-12-12,1,,,,,プライム,0
63,1020003027418,新規,0,2024-12-12,2024-12-12,合同会社ＫＡＪＩＷＡＲＡ,,合同会社,神奈川県,横浜市鶴見区,東寺尾１丁目１番１２号,,14,101,2300077,,,,,,,2024-12-12,1,,,,,カジワラ,0
78,1030001163890,新規,0,2024-12-12,2024-12-12,株式会社Ｇｏｏｄ　Ｆｉｅｌｄ,,株式会社,埼玉県,さいたま市緑区,大字代山１０８番地６,,11,109,3360975,,,,,,,2024-12-12,1,,,,,グッドフィールド,0
84,1030003025668,新規,0,2024-12-12,2024-12-12,合同会社ホリキリ,,合同会社,埼玉県,草加市,谷塚町１５９８番地３,,11,221,3400023,,,,,,,2024-12-12,1,,,,,ホリキリ,0
87,1040001136540,新規,0,2024-12-12,2024-12-12,株式会社ＣｉｔｒｕｓＶｉｓｉｏｎ,,株式会社,千葉県,松戸市,新松戸３丁目２８９ＳＢＣ第一ビル２階,,12,207,2700034,,,,,,,2024-12-12,1,,,,,シトラスビジョン,0
88,1040003026368,新規,0,2024-12-12,2024-12-12,合同会社京都トラベルエンタープライセス,,合同会社,千葉県,野田市,上花輪１５４１番地ハイツ趙２０１号室,,12,208,2780033,,,,,,,2024-12-12,1,,,,,キョウトトラベルエンタープライセス,0
91,1050001055871,新規,0,2024-12-12,2024-12-12,株式会社イン・トライ,,株式会社,茨城県,つくば市,北条４３２６番地２,,08,220,3004231,,,,,,,2024-12-12,1,,,,,イントライ,0
92,1050003008869,新規,0,2024-12-12,2024-12-12,合同会社Ａｌｌ　ｉｎ,,合同会社,茨城県,那珂市,鴻巣３８９８番地１ＴＫ第２ハイツ１０１,,08,226,3110133,,,,,,,2024-12-12,1,,,,,オールイン,0
93,1050003008877,新規,0,2024-12-12,2024-12-12,うぇるり葉合同会社,,合同会社,茨城県,牛久市,ひたち野西４丁目３１番地８,,08,219,3001206,,,,,,,2024-12-12,1,,,,,ウェルリハ,0
101,1080401027617,新規,0,2024-12-12,2024-12-12,株式会社土日,,株式会社,静岡県,浜松市中央区,笠井町１０５,,22,138,4313107,,,,,,,2024-12-12,1,,,,,ドニチ,0
124,1120001270967,新規,0,2024-12-12,2024-12-12,Ａｒｉｇ　ＡＰ株式会社,,株式会社,大阪府,大阪市大正区,三軒屋西一丁目１番１号小島ビル４階,,27,108,5510000,,,,,,,2024-12-12,1,,,,,アリグエイピー,0
141,1130003010065,新規,0,2024-12-12,2024-12-12,Ｋｅｎｔａｒｏ　Ｓｏｎｏ合同会社,,合同会社,京都府,京都市下京区,朱雀宝蔵町４４番地協栄ビル２階京都朱雀スタジオ,,26,106,6008846,,,,,,,2024-12-12,1,,,,,ケンタロウソノ,0
142,1130003010073,新規,0,2024-12-12,2024-12-12,合同会社ｌｏｖｉｔ,,合同会社,京都府,京都市北区,小山板倉町１１番地,,26,101,6038125,,,,,,,2024-12-12,1,,,,,ラビット,0
146,1140005027296,新規,0,2024-12-12,2024-12-12,一般社団法人Ｃｌｅｒｃ子どものいのちと権利の教育研究会,,その他の設立登記法人,兵庫県,神戸市中央区,山本通４丁目２２番１５号,,28,110,6500003,,,,,,,2024-12-12,1,,,,,クレールコドモノイノチトケンリノキョウイクケンキュウカイ,0
148,1170001018412,新規,0,2024-12-12,2024-12-12,株式会社粉河,,株式会社,和歌山県,和歌山市,布施屋７８６番地８,,30,201,6496321,,,,,,,2024-12-12,1,,,,,コカワ,0
168,1240001064242,新規,0,2024-12-12,2024-12-12,株式会社ＲＥＣ,,株式会社,広島県,東広島市,八本松東６丁目６番１７号,,34,212,7390142,,,,,,,2024-12-12,1,,,,,レック,0
171,1240003006977,新規,0,2024-12-12,2024-12-12,プカラニ合同会社,,合同会社,広島県,広島市中区,八丁堀６番１１号,,34,101,7300013,,,,,,,2024-12-12,1,,,,,プカラニ,0
178,1260001039713,新規,0,2024-12-12,2024-12-12,株式会社ＣＣＰ‐４,,株式会社,岡山県,岡山市北区,丸の内１丁目１５番２０号ちゅうぎん本店ビル９階,,33,101,7000823,,,,,,,2024-12-12,1,,,,,シーシーピーフォー,0
185,1290001108218,新規,0,2024-12-12,2024-12-12,魔方エンターテイメント株式会社,,株式会社,福岡県,福岡市東区,箱崎４丁目２５番１０－４０５号アメニティライフ,,40,131,8120053,,,,,,,2024-12-12,1,,,,,マホウエンターテイメント,0
188,1290003016162,新規,0,2024-12-12,2024-12-12,ハルファーマシィー合同会社,,合同会社,福岡県,福岡市南区,長丘４丁目９番３８号,,40,134,8150075,,,,,,,2024-12-12,1,,,,,ハルファーマシィー,0
196,1320001020856,新規,0,2024-12-12,2024-12-12,株式会社Ｎａｇｉ,,株式会社,大分県,大分市,新川町２丁目４番４３号,,44,201,8700016,,,,,,,2024-12-12,1,,,,,ナギ,0
200,1330003010680,新規,0,2024-12-12,2024-12-12,合同会社正鈴,,合同会社,熊本県,人吉市,下原田町字瓜生田４８３番地２,,43,203,8680086,,,,,,,2024-12-12,1,,,,,セイリン,0
203,1380001034966,新規,0,2024-12-12,2024-12-12,あらしだ不動産株式会社,,株式会社,福島県,いわき市,泉玉露７丁目１３番地の１,,07,204,9718172,,,,,,,2024-12-12,1,,,,,アラシダフドウサン,0
208,1380005012902,新規,0,2024-12-12,2024-12-12,一般社団法人イマジン・ブレインズ,,その他の設立登記法人,福島県,田村市,常葉町堀田字久平沢３６番地,,07,211,9634611,,,,,,,2024-12-12,1,,,,,イマジンブレインズ,0
216,1430001093255,新規,0,2024-12-12,2024-12-12,株式会社七海企画,,株式会社,北海道,札幌市白石区,栄通１８丁目１０番１号１０２,,01,104,0030021,,,,,,,2024-12-12,1,,,,,ナナミキカク,0
218,1430003017063,新規,0,2024-12-12,2024-12-12,滝美粧合同会社,,合同会社,北海道,札幌市中央区,南二条東１丁目１番地１９ロベージＳ２Ｅ１－１階,,01,101,0600052,,,,,,,2024-12-12,1,,,,,タキビショウ,0
226,1700150128206,新規,0,2024-12-12,2024-12-12,ＹＡＸＵＮ　ＴＥＣＨＮＯＬＯＧＹ（ＣＨＥＮＧＤＵ）ＣＯ．，ＬＴＤ,,外国会社等,,,,,,,,４ｔｈ　Ｆｌｏｏｒ，Ｂｕｉｌｄｉｎｇ　Ｂ，Ｒｅｎ　Ｎａｎ　Ｂｕｉｌｄｉｎｇ，Ｎｏ．５，Ｓｅｃｔｉｏｎ　３，Ｓｏｕｔｈ　Ｓｅｃｏｎｄ　Ｒｉｎｇ　Ｒｏａｄ，Ｗｕｈｏｕ　Ｄｉｓｔｒｉｃｔ，Ｃｈｅｎｇｄｕ,,,,,,2024-12-12,1,,,,,ヤーシンコージーチョンドウヨウシエンゴンスー,0
234,2010001250566,新規,0,2024-12-12,2024-12-12,ａｔａｍａｇｉｌｅ株式会社,,株式会社,東京都,千代田区,丸の内１丁目１１番１号パシフィックセンチュリープレイス丸の内１３階,,13,101,1000005,,,,,,,2024-12-12,1,,,,,アタマジャイル,0
235,2010001250574,新規,0,2024-12-12,2024-12-12,株式会社ＲＩＮＮＥ,,株式会社,東京都,文京区,千駄木５丁目４３番１８号,,13,105,1130022,,,,,,,2024-12-12,1,,,,,リンネ,0
237,2010003045659,新規,0,2024-12-12,2024-12-12,アマゾンエージェント合同会社,,合同会社,東京都,中央区,新川１丁目２１－１茅場町タワーレジデンス１９０２,,13,102,1040033,,,,,,,2024-12-12,1,,,,,アマゾンエージェント,0
238,2010003045700,新規,0,2024-12-12,2024-12-12,合同会社貴昇商会,,合同会社,東京都,千代田区,九段南１丁目５番６号りそな九段ビル５Ｆ,,13,101,1020074,,,,,,,2024-12-12,1,,,,,タカショウショウカイ,0
239,2010003045709,新規,0,2024-12-12,2024-12-12,合同会社ＴｒｙＰＯＤ,,合同会社,東京都,中央区,日本橋人形町２丁目１－９日本橋Ｔビル,,13,102,1030013,,,,,,,2024-12-12,1,,,,,トライポッド,0
240,2010003045782,新規,0,2024-12-12,2024-12-12,スズメ・コード合同会社,,合同会社,東京都,中央区,銀座１丁目２２番１１号銀座大竹ビジデンス２階,,13,102,1040061,,,,,,,2024-12-12,1,,,,,スズメコード,0
242,2010005039213,新規,0,2024-12-12,2024-12-12,一般社団法人Ｊａｐａｎ　ＷＣＨ　Ｃｏａｌｉｔｉｏｎ,,その他の設立登記法人,東京都,千代田区,丸の内３丁目２番２号２階,,13,101,1000005,,,,,,,2024-12-12,1,,,,,ジャパンダブルシーエイチコアリション,0
250,2010401187004,新規,0,2024-12-12,2024-12-12,ＯＰＥＮ　ＳＨＡＲＥ株式会社,,株式会社,東京都,港区,芝浦３丁目１７番７－５０３号,,13,103,1080023,,,,,,,2024-12-12,1,,,,,オープンシェア,0
256,2010601066453,新規,0,2024-12-12,2024-12-12,Ｓｕｓｔａｉｎｅｒｇｙ　Ｐｏｗｅｒ　Ｊａｐａｎ株式会社,,株式会社,東京都,墨田区,錦糸１丁目２番１号アルカセントラル１４Ｆ,,13,107,1300013,,,,,,,2024-12-12,1,,,,,サステナジーパワージャパン,0
258,2010701046909,新規,0,2024-12-12,2024-12-12,株式会社Ｃａｒｅｅｒ　Ａｃｔｉｏｎ,,株式会社,東京都,品川区,西五反田５丁目２０－４－３０４,,13,109,1410031,,,,,,,2024-12-12,1,,,,,キャリアアクション,0
259,2010701046974,新規,0,2024-12-12,2024-12-12,株式会社エンベル,,株式会社,東京都,品川区,西五反田２丁目９番７号２０３号室,,13,109,1410031,,,,,,,2024-12-12,1,,,,,エンベル,0
262,2010801035654,新規,0,2024-12-12,2024-12-12,株式会社ドゥトラ,,株式会社,東京都,大田区,西蒲田７丁目８番３号,,13,111,1440051,,,,,,,2024-12-12,1,,,,,ドゥトラ,0
263,2010803005192,新規,0,2024-12-12,2024-12-12,ＯＭＯＭＯ合同会社,,合同会社,東京都,大田区,上池台２丁目２６番９号メゾンシャテーヌ１階,,13,111,1450064,,,,,,,2024-12-12,1,,,,,オモモ,0
264,2010803005201,新規,0,2024-12-12,2024-12-12,地域の宝キャピタル合同会社,,合同会社,東京都,大田区,大森西７丁目５番１３号,,13,111,1430015,,,,,,,2024-12-12,1,,,,,チイキノタカラキャピタル,0
266,2010903009564,新規,0,2024-12-12,2024-12-12,合同会社２４ａ,,合同会社,東京都,世田谷区,若林５丁目４０－８－３０３,,13,112,1540023,,,,,,,2024-12-12,1,,,,,ツーフォーエー,0
267,2010903009572,新規,0,2024-12-12,2024-12-12,合同会社ＧｏＢｌｕｅ,,合同会社,東京都,世田谷区,上野毛１丁目３３番１３号エステージ上野毛５０２,,13,112,1580093,,,,,,,2024-12-12,1,,,,,ゴーブルー,0
276,2011001166471,新規,0,2024-12-12,2024-12-12,株式会社夏空カンパニー,,株式会社,東京都,目黒区,駒場４丁目４番９号,,13,110,1530041,,,,,,,2024-12-12,1,,,,,ナツゾラカンパニー,0
278,2011005010816,新規,0,2024-12-12,2024-12-12,一般社団法人Ｊａｐａｎ　Ｓｉｇｎ　Ｔｒａｖｅｌ,,その他の設立登記法人,東京都,渋谷区,渋谷２丁目１９－１５宮益坂ビルディング６０９,,13,113,1500002,,,,,,,2024-12-12,1,,,,,ジャパンサイントラベル,0
280,2011101109891,新規,0,2024-12-12,2024-12-12,テックデポ株式会社,,株式会社,東京都,新宿区,西新宿３丁目３番１３号西新宿水間ビル２Ｆ,,13,104,1600023,,,,,,,2024-12-12,1,,,,,テックデポ,0
281,2011101109900,新規,0,2024-12-12,2024-12-12,株式会社Ｐｏｐｏｋｉ　Ｃｋｍ,,株式会社,東京都,新宿区,西新宿３丁目３番１３号西新宿水間ビル２Ｆ,,13,104,1600023,,,,,,,2024-12-12,1,,,,,ポーボキシーケーエム,0
282,2011101109909,新規,0,2024-12-12,2024-12-12,株式会社Ｇ・Ｍ　Ｊａｐａｎ,,株式会社,東京都,新宿区,西早稲田３丁目２６番９－４１１号,,13,104,1690051,,,,,,,2024-12-12,1,,,,,ジエムジャパン,0
283,2011103015287,新規,0,2024-12-12,2024-12-12,合同会社ななつ,,合同会社,東京都,新宿区,西新宿３丁目３番１３号西新宿水間ビル６階,,13,104,1600023,,,,,,,2024-12-12,1,,,,,ナナツ,0
287,2011401026647,新規,0,2024-12-12,2024-12-12,思行株式会社,,株式会社,東京都,板橋区,仲宿６３番地７号ＯＥＯｆｆｉｃｅＢｌｄｇ．２１１号,,13,119,1730005,,,,,,,2024-12-12,1,,,,,シギョウ,0
291,2011501031480,新規,0,2024-12-12,2024-12-12,ＭＯＭＯＮＡ株式会社,,株式会社,東京都,北区,豊島２丁目１０番６号１０５号室,,13,117,1140003,,,,,,,2024-12-12,1,,,,,モモナ,0
294,2011601028278,新規,0,2024-12-12,2024-12-12,株式会社ケイティビー,,株式会社,東京都,練馬区,大泉学園町２丁目２９番４号,,13,120,1780061,,,,,,,2024-12-12,1,,,,,ケイティビー,0
297,2011703004053,新規,0,2024-12-12,2024-12-12,善派合同会社,,合同会社,東京都,江戸川区,南小岩３丁目１－１４プランドールＭ１２９室,,13,123,1330056,,,,,,,2024-12-12,1,,,,,ゼンハ,0
302,2012801023639,新規,0,2024-12-12,2024-12-12,株式会社となりヘルスケア,,株式会社,東京都,東大和市,仲原３丁目１３番地２４,,13,220,2070016,,,,,,,2024-12-12,1,,,,,トナリヘルスケア,0
304,2013101009576,新規,0,2024-12-12,2024-12-12,株式会社高井,,株式会社,東京都,西多摩郡日の出町,大字大久野８４０－９,,13,305,1900181,,,,,,,2024-12-12,1,,,,,タカイ,0
320,2020001160574,新規,0,2024-12-12,2024-12-12,株式会社ＢＬＩＳＳＥＮＣＥ,,株式会社,神奈川県,横浜市西区,みなとみらい２丁目２番１号ランドマークタワー２０Ｆ,,14,103,2200012,,,,,,,2024-12-12,1,,,,,ブリセンス,0
321,2020001160590,新規,0,2024-12-12,2024-12-12,株式会社ｓｏｉｌ,,株式会社,神奈川県,川崎市宮前区,宮崎３丁目１０番地１３プラネスーペリア宮崎台１０９,,14,136,2160033,,,,,,,2024-12-12,1,,,,,ソイル,0
324,2020003027433,新規,0,2024-12-12,2024-12-12,合同会社横浜煉瓦,,合同会社,神奈川県,横浜市西区,浅間町１丁目４番地３ウィザードビル４０２,,14,103,2200072,,,,,,,2024-12-12,1,,,,,ヨコハマレンガ,0
325,2020005016616,新規,0,2024-12-12,2024-12-12,一般社団法人日本ＬＰ機構,,その他の設立登記法人,神奈川県,横浜市中区,伊勢佐木町６丁目１４３番地１２,,14,104,2310045,,,,,,,2024-12-12,1,,,,,ニホンエルピーキコウ,0
331,2030001163898,新規,0,2024-12-12,2024-12-12,株式会社Ｋ　ｓｔｙｌｅ,,株式会社,埼玉県,坂戸市,三光町４８番地６,,11,239,3500235,,,,,,,2024-12-12,1,,,,,ケースタイル,0
332,2030001163907,新規,0,2024-12-12,2024-12-12,株式会社Ａｉｌｅ,,株式会社,埼玉県,越谷市,大沢４丁目８番３－１号,,11,222,3430025,,,,,,,2024-12-12,1,,,,,エール,0
333,2030001163915,新規,0,2024-12-12,2024-12-12,株式会社ｓｅｃｏｎｄ,,株式会社,埼玉県,坂戸市,大字石井２７８０番地,,11,239,3500212,,,,,,,2024-12-12,1,,,,,セカンド,0
338,2030003025659,新規,0,2024-12-12,2024-12-12,合同会社ｋｏｊｉｍａｎ,,合同会社,埼玉県,朝霞市,栄町２丁目９番３１号,,11,227,3510012,,,,,,,2024-12-12,1,,,,,コジマン,0
339,2030003025675,新規,0,2024-12-12,2024-12-12,ＫＰＳ合同会社,,合同会社,埼玉県,春日部市,栄町１丁目２１５番地１号棟,,11,214,3440058,,,,,,,2024-12-12,1,,,,,ケーピーエス,0
343,2040003026367,新規,0,2024-12-12,2024-12-12,ＩＫＩＧＡＩ　ＭＡＲＩＮＥ合同会社,,合同会社,千葉県,船橋市,芝山７丁目２３－８,,12,204,2740816,,,,,,,2024-12-12,1,,,,,イキガイマリーン,0
345,2050001055854,新規,0,2024-12-12,2024-12-12,株式会社ＯｎｅＡｎｇｌｅ,,株式会社,茨城県,つくば市,吾妻２丁目５番地１,,08,220,3050031,,,,,,,2024-12-12,1,,,,,ワンアングル,0
346,2050001055870,新規,0,2024-12-12,2024-12-12,株式会社カーフレンズツバサ,,株式会社,茨城県,つくば市,大井１４４０番地４８,,08,220,3001243,,,,,,,2024-12-12,1,,,,,カーフレンズツバサ,0
350,2060005010276,新規,0,2024-12-12,2024-12-12,農事組合法人川又ファーム,,その他の設立登記法人,栃木県,真岡市,粕田７１０－２,,09,209,3214353,,,,,,,2024-12-12,1,,,,,カワマタファーム,0
352,2070001042388,新規,0,2024-12-12,2024-12-12,秀和ハウス工業株式会社,,株式会社,群馬県,安中市,安中３丁目９番８０号,,10,211,3790116,,,,,,,2024-12-12,1,,,,,シュウワハウスコウギョウ,0
359,2100003007906,新規,0,2024-12-12,2024-12-12,団子第五エナジーパワー合同会社,,合同会社,長野県,上田市,古里７７７番地３,,20,203,3860005,,,,,,,2024-12-12,1,,,,,ダンゴダイゴエナジーパワー,0
361,2110001038919,新規,0,2024-12-12,2024-12-12,株式会社Ｏｄｅｃ．ＨＤ,,株式会社,新潟県,十日町市,明石町２５番地,,15,210,9480046,,,,,,,2024-12-12,1,,,,,オーデックホールディングス,0
372,2120001271089,新規,0,2024-12-12,2024-12-12,株式会社Ａｍｉ,,株式会社,大阪府,大阪市住之江区,東加賀屋４丁目７番２２号プレスト東加賀屋３０７号,,27,125,5590012,,,,,,,2024-12-12,1,,,,,アミィ,0
378,2120101070738,新規,0,2024-12-12,2024-12-12,株式会社ライズ,,株式会社,大阪府,貝塚市,東山６丁目７番１１号,,27,208,5970046,,,,,,,2024-12-12,1,,,,,ライズ,0
393,2160001026407,新規,0,2024-12-12,2024-12-12,株式会社ＴＭＴ　ＡＬＰＨＡ,,株式会社,滋賀県,草津市,矢橋町７９９番地３,,25,206,5250066,,,,,,,2024-12-12,1,,,,,ティエムティアルファ,0
407,2190003004878,新規,0,2024-12-12,2024-12-12,合同会社Ｐｒｅｔｔｙ　ｗｏｍａｎ,,合同会社,三重県,四日市市,高花平３丁目１番地４２,,24,202,5100945,,,,,,,2024-12-12,1,,,,,プリティウーマン,0
408,2230003002340,新規,0,2024-12-12,2024-12-12,合同会社ＴＡＤＡ,,合同会社,富山県,氷見市,伊勢大町１丁目２番１６号,,16,205,9350015,,,,,,,2024-12-12,1,,,,,タダ,0
412,2260001039712,新規,0,2024-12-12,2024-12-12,株式会社Ｋ‐ｋａｎｔ,,株式会社,岡山県,倉敷市,林２３０－１４,,33,202,7100142,,,,,,,2024-12-12,1,,,,,ケーカント,0
420,2290003016161,新規,0,2024-12-12,2024-12-12,合同会社ＡＭＭ,,合同会社,福岡県,福岡市中央区,天神４丁目６－２８天神ファーストビル７階,,40,133,8100001,,,,,,,2024-12-12,1,,,,,エーエムエム,0
424,2360001034538,新規,0,2024-12-12,2024-12-12,総合リフォーム夢一株式会社,,株式会社,沖縄県,豊見城市,字豊崎１番地１０４４ＨＯＵＳＥ１０４４Ａ,,47,212,9010225,,,,,,,2024-12-12,1,,,,,ソウゴウリフォームユメイチ,0
427,2360003014488,新規,0,2024-12-12,2024-12-12,合同会社Ｈａｐｐｙ　Ｈａｒｍｏｎｙ,,合同会社,沖縄県,那覇市,字安謝２１５番地１やしま産業ビル１階,,47,201,9000003,,,,,,,2024-12-12,1,,,,,ハッピーハーモニー,0
430,2370003006856,新規,0,2024-12-12,2024-12-12,合同会社リスタート,,合同会社,宮城県,仙台市太白区,郡山６丁目１番１－５０１号,,04,104,9820003,,,,,,,2024-12-12,1,,,,,リスタート,0
444,2430001093254,新規,0,2024-12-12,2024-12-12,株式会社ＨＹＫ　ｐｒｏｄｕｃｔｓ,,株式会社,北海道,札幌市中央区,北十条西２１丁目２番２号,,01,101,0600010,,,,,,,2024-12-12,1,,,,,エイチワイケイプロダクツ,0
445,2430001093262,新規,0,2024-12-12,2024-12-12,ｉＴｅａｍ株式会社,,株式会社,北海道,札幌市手稲区,前田三条８丁目３番１１号,,01,109,0060813,,,,,,,2024-12-12,1,,,,,アイチーム,0
448,2430003017070,新規,0,2024-12-12,2024-12-12,合同会社ＮＥＷ・ワーク,,合同会社,北海道,札幌市南区,藤野六条６丁目１２番５号,,01,106,0612286,,,,,,,2024-12-12,1,,,,,ニューワーク,0
450,2460001005958,新規,0,2024-12-12,2024-12-12,三響株式会社,,株式会社,北海道,釧路市,寿３丁目３番２３号,,01,206,0850026,,,,,,,2024-12-12,1,,,,,サンキョウ,0
452,2460301005261,新規,0,2024-12-12,2024-12-12,株式会社Ｌｉｎｋ,,株式会社,北海道,北見市,山下町３丁目１番２１号フリーイノベーション店舗,,01,208,0900037,,,,,,,2024-12-12,1,,,,,リンク,0
461,2700150128205,新規,0,2024-12-12,2024-12-12,Ｓｈｅｎｚｈｅｎ　Ｘｉｎｙｉ　Ｃｕｌｔｕｒｅ　Ｃｏｍｍｕｎｉｃａｔｉｏｎ　Ｃｏ．，Ｌｔｄ,,外国会社等,,,,,,,,９０２－０３，Ｂｕｉｌｄｉｎｇ　２，Ｘｉｎｇｈｅ　ＷＯＲＬＤ，Ｎｏ．１　Ｙａｂａｏ　Ｒｏａｄ，Ｎａｎｋｅｎｇ　Ｃｏｍｍｕｎｉｔｙ，Ｂａｎｔｉａｎ　Ｓｔｒｅｅｔ，Ｌｏｎｇｇａｎｇ　Ｄｉｓｔｒｉｃｔ,,,,,,2024-12-12,1,,,,,シェンジェンシーシンイーウェンフワーチュワンボーヨウシエンゴンスー,0
469,3010001250656,新規,0,2024-12-12,2024-12-12,ＮＳ　ｃａｐｉｔａｌ株式会社,,株式会社,東京都,中央区,日本橋横山町３－１２第１５イチオクビル３０３号,,13,102,1030003,,,,,,,2024-12-12,1,,,,,エヌエスキャピタル,0
476,3010401186987,新規,0,2024-12-12,2024-12-12,ＫＯＬＯＮ　ＦｎＣ　ＪＡＰＡＮ株式会社,,株式会社,東京都,港区,新橋１丁目１８番２１号第一日比谷ビル,,13,103,1050004,,,,,,,2024-12-12,1,,,,,コーロンエフエヌシージャパン,0
477,3010401186995,新規,0,2024-12-12,2024-12-12,株式会社物販,,株式会社,東京都,港区,南青山３丁目１番３６号青山丸竹ビル６階,,13,103,1070062,,,,,,,2024-12-12,1,,,,,ブッパン,0
482,3010601066452,新規,0,2024-12-12,2024-12-12,エコウル株式会社,,株式会社,東京都,江東区,常盤１丁目６番５－２０２号,,13,108,1350006,,,,,,,2024-12-12,1,,,,,エコウル,0
492,3010701046973,新規,0,2024-12-12,2024-12-12,千代田キャピタル株式会社,,株式会社,東京都,品川区,大崎３丁目１５番２３号鈴木ビル１Ｆ,,13,109,1410032,,,,,,,2024-12-12,1,,,,,チヨダキャピタル,0
495,3010801035661,新規,0,2024-12-12,2024-12-12,株式会社リスハウス,,株式会社,東京都,大田区,鵜の木３丁目３２－５－１０１,,13,111,1460091,,,,,,,2024-12-12,1,,,,,リスハウス,0
497,3010901056467,新規,0,2024-12-12,2024-12-12,株式会社ＳＰＲＹＥＴ,,株式会社,東京都,世田谷区,梅丘１丁目４番１０号,,13,112,1540022,,,,,,,2024-12-12,1,,,,,スプライエット,0
498,3010901056475,新規,0,2024-12-12,2024-12-12,株式会社ウェルビー,,株式会社,東京都,世田谷区,池尻２丁目３５番７－５０２号,,13,112,1540001,,,,,,,2024-12-12,1,,,,,ウェルビー,0
509,3011001166132,新規,0,2024-12-12,2024-12-12,株式会社Ｇａｔｅ　Ｏｎｅ,,株式会社,東京都,目黒区,東が丘２丁目７番２２号ＵｒｂａｎＧａｒｄｅｎ駒沢１０２,,13,110,1520021,,,,,,,2024-12-12,1,,,,,ゲートワン,0
510,3011001166264,新規,0,2024-12-12,2024-12-12,Ａ．Ｃ．Ｈ．株式会社,,株式会社,東京都,渋谷区,渋谷２丁目８番２号荻津ビル２階,,13,113,1500002,,,,,,,2024-12-12,1,,,,,エーシーエイチ,0
511,3011001166363,新規,0,2024-12-12,2024-12-12,株式会社ディー・スマイル,,株式会社,東京都,渋谷区,渋谷２丁目２４番１２号,,13,113,1500002,,,,,,,2024-12-12,1,,,,,ディースマイル,0
520,3011101109890,新規,0,2024-12-12,2024-12-12,株式会社ラスティングヘルス,,株式会社,東京都,新宿区,西新宿３丁目３番１３号西新宿水間ビル２Ｆ,,13,104,1600023,,,,,,,2024-12-12,1,,,,,ラスティングヘルス,0
522,3011201025988,新規,0,2024-12-12,2024-12-12,株式会社ＫＪホールディングス,,株式会社,東京都,中野区,中野３丁目５０番１１号,,13,114,1640001,,,,,,,2024-12-12,1,,,,,ケイジェイホールディングス,0
523,3011403004567,新規,0,2024-12-12,2024-12-12,美蘭合同会社,,合同会社,東京都,板橋区,本町３５番１８号コルムコート３０４,,13,119,1730001,,,,,,,2024-12-12,1,,,,,ミラン,0
526,3011601028277,新規,0,2024-12-12,2024-12-12,株式会社インテリアデモト,,株式会社,東京都,練馬区,南大泉３丁目２６番２９－４０４号,,13,120,1780064,,,,,,,2024-12-12,1,,,,,インテリアデモト,0
527,3011801045287,新規,0,2024-12-12,2024-12-12,禾盛株式会社,,株式会社,東京都,足立区,竹の塚１丁目１３－１３小林ビル３０４号室,,13,121,1210813,,,,,,,2024-12-12,1,,,,,ノギモリ,0
533,3012703003151,新規,0,2024-12-12,2024-12-12,合同会社ＢＭＣ,,合同会社,東京都,小平市,大沼町５丁目１２番５号,,13,211,1870001,,,,,,,2024-12-12,1,,,,,,0
535,3013101009583,新規,0,2024-12-12,2024-12-12,株式会社エム・スリー,,株式会社,東京都,あきる野市,野辺１２２４番地１５,,13,228,1970823,,,,,,,2024-12-12,1,,,,,エムスリー,0
543,3020001160490,新規,0,2024-12-12,2024-12-12,ＫＢ　ＴＲＡＤＩＮＧ株式会社,,株式会社,神奈川県,横浜市西区,高島２丁目６番３２号横浜東口ウィスポートビル１２階,,14,103,2200011,,,,,,,2024-12-12,1,,,,,ケイビートレーディング,0
544,3020001160540,新規,0,2024-12-12,2024-12-12,ＨＯＰＥ株式会社,,株式会社,神奈川県,横浜市中区,根岸町３丁目１７６番地９０－１１２号,,14,104,2310836,,,,,,,2024-12-12,1,,,,,ホープ,0
554,3021001083970,新規,0,2024-12-12,2024-12-12,株式会社Ｓ＆Ｔ,,株式会社,神奈川県,相模原市南区,東林間４丁目１６番７号東林間ハウス１０１,,14,153,2520311,,,,,,,2024-12-12,1,,,,,エスアンドティー,0
565,3030001163939,新規,0,2024-12-12,2024-12-12,株式会社ごりらぼ,,株式会社,埼玉県,さいたま市緑区,大字中尾３２２３,,11,109,3360932,,,,,,,2024-12-12,1,,,,,ゴリラボ,0
570,3040003026366,新規,0,2024-12-12,2024-12-12,ＮＩＨＯＮ　ＭＡＲＩＴＩＭＥ合同会社,,合同会社,千葉県,船橋市,芝山７丁目２３－８,,12,204,2740816,,,,,,,2024-12-12,1,,,,,ニホンマリタイム,0
575,3050001055861,新規,0,2024-12-12,2024-12-12,株式会社ハービクスエステート,,株式会社,茨城県,つくば市,竹園２丁目１１番地６柏マンション１０７号室,,08,220,3050032,,,,,,,2024-12-12,1,,,,,ハービクスエステート,0
576,3050001055878,新規,0,2024-12-12,2024-12-12,株式会社ヒマリモータース,,株式会社,茨城県,水戸市,平須町字向井１２２４番地２,,08,201,3100853,,,,,,,2024-12-12,1,,,,,ヒマリモータース,0
582,3060005010275,新規,0,2024-12-12,2024-12-12,農事組合法人川又農機,,その他の設立登記法人,栃木県,真岡市,粕田７１０－２,,09,209,3214353,,,,,,,2024-12-12,1,,,,,カワマタノウキ,0
591,3100003007905,新規,0,2024-12-12,2024-12-12,団子第四エナジーパワー合同会社,,合同会社,長野県,上田市,古里７７７番地３,,20,203,3860005,,,,,,,2024-12-12,1,,,,,ダンゴダイヨンエナジーパワー,0
592,3100003007913,新規,0,2024-12-12,2024-12-12,合同会社Ｆｕｚｉ,,合同会社,長野県,諏訪郡富士見町,境１２０６７番地８４１,,20,362,3990101,,,,,,,2024-12-12,1,,,,,フジ,0
595,3110001038918,新規,0,2024-12-12,2024-12-12,株式会社シーエムコア,,株式会社,新潟県,新潟市西区,小針２丁目３２番３号,,15,107,9502022,,,,,,,2024-12-12,1,,,,,シーエムコア,0
602,3120001270973,新規,0,2024-12-12,2024-12-12,株式会社つる,,株式会社,大阪府,守口市,菊水通４丁目２０番３号,,27,209,5700032,,,,,,,2024-12-12,1,,,,,ツル,0
603,3120001270998,新規,0,2024-12-12,2024-12-12,翔陽株式会社,,株式会社,大阪府,大阪市旭区,高殿６丁目１番３４号,,27,117,5350031,,,,,,,2024-12-12,1,,,,,ショウヨウ,0
604,3120001271039,新規,0,2024-12-12,2024-12-12,和一株式会社,,株式会社,大阪府,大阪市中央区,瓦町１丁目５番８号５Ｆ１号室,,27,128,5410048,,,,,,,2024-12-12,1,,,,,ワイチ,0
605,3120001271055,新規,0,2024-12-12,2024-12-12,知能ラボ株式会社,,株式会社,大阪府,大阪市住吉区,沢之町１丁目５－２８－２０１Ａ,,27,120,5580031,,,,,,,2024-12-12,1,,,,,チノウラボ,0
606,3120001271088,新規,0,2024-12-12,2024-12-12,株式会社Ｕａｉ,,株式会社,大阪府,大阪市住之江区,東加賀屋４丁目７番２２号プレスト東加賀屋３０６号,,27,125,5590012,,,,,,,2024-12-12,1,,,,,ユウアイ,0
619,3140001136727,新規,0,2024-12-12,2024-12-12,株式会社ＦＣ不動産,,株式会社,兵庫県,神戸市中央区,旭通５丁目３番５号白百合ビル４階,,28,110,6510095,,,,,,,2024-12-12,1,,,,,エフシーフドウサン,0
624,3140003021398,新規,0,2024-12-12,2024-12-12,合同会社詩,,合同会社,兵庫県,神戸市長田区,若松町１丁目３番６号,,28,106,6530038,,,,,,,2024-12-12,1,,,,,ウタ,0
625,3140003021407,新規,0,2024-12-12,2024-12-12,合同会社来夢,,合同会社,兵庫県,姫路市,山吹１丁目６番６６－２号,,28,201,6700085,,,,,,,2024-12-12,1,,,,,ライム,0
626,3140005027303,新規,0,2024-12-12,2024-12-12,医療法人社団敬仁会,,その他の設立登記法人,兵庫県,西宮市,段上町１丁目１番２２号レインボー甲東１Ｆ,,28,204,6638006,,,,,,,2024-12-12,1,,,,,ケイジンカイ,0
627,3150001027743,新規,0,2024-12-12,2024-12-12,株式会社セブンスホーム,,株式会社,奈良県,桜井市,安倍木材団地１丁目１０番地の１５（１号室）,,29,206,6330055,,,,,,,2024-12-12,1,,,,,セブンスホーム,0
632,3170001018410,新規,0,2024-12-12,2024-12-12,株式会社明和,,株式会社,和歌山県,西牟婁郡白浜町,１７２９番地の１９,,30,401,6492211,,,,,,,2024-12-12,1,,,,,メイワ,0
641,3180001164567,新規,0,2024-12-12,2024-12-12,株式会社ＮＥＶＯＳ‐Ｏ,,株式会社,愛知県,名古屋市天白区,元八事５丁目２１４ジャルダン塩釜ＮＯ１，２,,23,116,4680066,,,,,,,2024-12-12,1,,,,,ネヴォスーオー,0
648,3190003004877,新規,0,2024-12-12,2024-12-12,合同会社Ｂ’ｂｌｏｏｍ,,合同会社,三重県,鈴鹿市,磯山２丁目１６番１４号,,24,207,5100256,,,,,,,2024-12-12,1,,,,,ビーブルーム,0
653,3210003001863,新規,0,2024-12-12,2024-12-12,合同会社Ｉ　ＦＯＲＴＵＮＥ,,合同会社,福井県,福井市,水越１丁目５０３番地ドリームハウスＫ＆Ｔ１０２,,18,201,9188065,,,,,,,2024-12-12,1,,,,,アイフォーチューン,0
660,3260001039711,新規,0,2024-12-12,2024-12-12,株式会社三亀有機ファーム,,株式会社,岡山県,岡山市北区,御津高津１１３２番地２,,33,101,7092124,,,,,,,2024-12-12,1,,,,,サンカメユウキファーム,0
664,3290001108240,新規,0,2024-12-12,2024-12-12,株式会社Ｓｉｏ．Ｇｒｏｕｐ,,株式会社,福岡県,福岡市早良区,西新５丁目２番４３号ラガッツァ西新２Ｆ,,40,137,8140002,,,,,,,2024-12-12,1,,,,,シオグループ,0
665,3290001108257,新規,0,2024-12-12,2024-12-12,明石コーポレーション株式会社,,株式会社,福岡県,福岡市中央区,舞鶴３丁目８番１０号２０１,,40,133,8100073,,,,,,,2024-12-12,1,,,,,アカシコーポレーション,0
666,3290001108273,新規,0,2024-12-12,2024-12-12,株式会社ｌａｕｇｈＰｒｏｍｏｔｅ,,株式会社,福岡県,福岡市東区,香椎照葉３丁目２番３号アイランドシティインフィニガーデンＥ棟１４１０号室,,40,131,8130017,,,,,,,2024-12-12,1,,,,,ラフプロモート,0
668,3290003016152,新規,0,2024-12-12,2024-12-12,合同会社ＫｕＭａ,,合同会社,福岡県,福岡市中央区,天神４丁目６－２８天神ファーストビル７階,,40,133,8100001,,,,,,,2024-12-12,1,,,,,クマ,0
675,3330005010850,新規,0,2024-12-12,2024-12-12,医療法人真岳会,,その他の設立登記法人,熊本県,熊本市東区,神水本町２６－２４,,43,102,8620955,,,,,,,2024-12-12,1,,,,,シンガクカイ,0
684,3380001034980,新規,0,2024-12-12,2024-12-12,株式会社相双事業開発,,株式会社,福島県,双葉郡大熊町,大字下野上字清水２３０番地,,07,545,9791308,,,,,,,2024-12-12,1,,,,,ソウソウジギョウカイハツ,0
688,3380003005906,新規,0,2024-12-12,2024-12-12,合同会社フクシマギフターズ,,合同会社,福島県,福島市,置賜町８番３８号,,07,201,9608034,,,,,,,2024-12-12,1,,,,,フクシマギフターズ,0
689,3400001016885,新規,0,2024-12-12,2024-12-12,株式会社立花,,株式会社,岩手県,盛岡市,渋民字大森１番地４,,03,201,0284132,,,,,,,2024-12-12,1,,,,,タチバナ,0
692,3410003004020,新規,0,2024-12-12,2024-12-12,ななのいろ合同会社,,合同会社,秋田県,能代市,柳町２番６号,,05,202,0160825,,,,,,,2024-12-12,1,,,,,ナナノイロ,0
700,3430001093253,新規,0,2024-12-12,2024-12-12,株式会社北斗コーポレーション,,株式会社,北海道,札幌市清田区,清田七条１丁目１番１７号,,01,110,0040847,,,,,,,2024-12-12,1,,,,,ホクトコーポレーション,0
701,3430003017061,新規,0,2024-12-12,2024-12-12,合同会社ＬＩＶＥＷＯＲＫ,,合同会社,北海道,札幌市南区,南沢四条２丁目２番１５号,,01,106,0050824,,,,,,,2024-12-12,1,,,,,ライブワーク,0
704,3450001014463,新規,0,2024-12-12,2024-12-12,Ａｒｃｔｉｃ　Ｐａｒｔｙ　Ｌａｂ株式会社,,株式会社,北海道,富良野市,朝日町４番５号,,01,229,0760026,,,,,,,2024-12-12,1,,,,,アークティックパーティーラボ,0
714,3700150035111,新規,0,2024-12-12,2015-10-09,芽室消費者協会,,その他,北海道,河西郡芽室町,本通１丁目１９めむろ－ど３Ｆ,,01,637,0820030,,,,,,,2015-10-09,1,,,,,メムロシヨウヒシヤキヨウカイ,0
715,3700150128204,新規,0,2024-12-12,2024-12-12,サカモトホールディングスリミテッド,,外国会社等,,,,,,,,英領ヴァージン諸島トルトラ島ロードタウン、ウィックハム・ケイ２、ヴィストラ・コーポレート・サービシーズ・センター,,,,,,2024-12-12,1,,,,,サカモトホールデイングスリミテツド,0
716,4010001052481,新規,0,2024-12-12,2024-12-12,株式会社トップス,,株式会社,東京都,中央区,日本橋小網町３番１４号,,13,102,1030016,,,,,,,2024-12-12,1,,,,,,0
725,4010001250580,新規,0,2024-12-12,2024-12-12,ＦＮＡＣ株式会社,,株式会社,東京都,中央区,銀座１丁目１２－４Ｎ＆ＥＢＬＤ．７階,,13,102,1040061,,,,,,,2024-12-12,1,,,,,エフナック,0
726,4010001250614,新規,0,2024-12-12,2024-12-12,Ｒｅ　Ｎｏｕｒｉｃｈｅ株式会社,,株式会社,東京都,中央区,勝どき６丁目３番２－４６１５号,,13,102,1040054,,,,,,,2024-12-12,1,,,,,リナリッシュ,0
727,4010001250688,新規,0,2024-12-12,2024-12-12,株式会社Ｈａｒｖｅｓｔ,,株式会社,東京都,千代田区,神田和泉町１番地６－１６ヤマトビル４０５,,13,101,1010024,,,,,,,2024-12-12,1,,,,,ハーヴェスト,0
729,4010003045764,新規,0,2024-12-12,2024-12-12,みらい合同会社,,合同会社,東京都,千代田区,九段北１丁目９番５号朝日九段マンション７１１号,,13,101,1020073,,,,,,,2024-12-12,1,,,,,ミライ,0
730,4010005039252,新規,0,2024-12-12,2024-12-12,一般社団法人Ｔｏｍｏｓｈｏｗ,,その他の設立登記法人,東京都,中央区,銀座１丁目１２番４号,,13,102,1040061,,,,,,,2024-12-12,1,,,,,トモショウ,0
731,4010005039260,新規,0,2024-12-12,2024-12-12,一般社団法人日本阿姨家政紹介事業協会,,その他の設立登記法人,東京都,千代田区,二番町９－３ＴＨＥＢＡＳＥ麹町１Ｆ,,13,101,1020084,,,,,,,2024-12-12,1,,,,,ニホンアイカセイショウカイジギョウキョウカイ,0
735,4010401187002,新規,0,2024-12-12,2024-12-12,ＴＥＲＲＡ　ＧＲＥＥＮ株式会社,,株式会社,東京都,港区,新橋３丁目２番３号,,13,103,1050004,,,,,,,2024-12-12,1,,,,,テラグリーン,0
739,4010405023847,新規,0,2024-12-12,2024-12-12,一般社団法人日本女性記者協会,,その他の設立登記法人,東京都,港区,芝公園２丁目６番８号日本女子会館内,,13,103,1050011,,,,,,,2024-12-12,1,,,,,ニホンジョセイキシャキョウカイ,0
740,4010501053335,新規,0,2024-12-12,2024-12-12,ＪＡＹ株式会社,,株式会社,東京都,台東区,駒形１丁目８－４レーベンシティオ浅草ハイセレサ２０２,,13,106,1110043,,,,,,,2024-12-12,1,,,,,ジェイエーワイ,0
742,4010601066451,新規,0,2024-12-12,2024-12-12,株式会社ｅｉｇｈｔ,,株式会社,東京都,江東区,越中島２丁目１番３２－６１８号,,13,108,1350044,,,,,,,2024-12-12,1,,,,,エイト,0
744,4010701046972,新規,0,2024-12-12,2024-12-12,大越株式会社,,株式会社,東京都,品川区,西五反田５丁目３０－５ベルサイユ目黒１０２号室,,13,109,1410031,,,,,,,2024-12-12,1,,,,,オオコシ,0
746,4010801035660,新規,0,2024-12-12,2024-12-12,株式会社ＯＮ‐ＯＦＦ,,株式会社,東京都,大田区,大森北１丁目２番８号ＴｈｅＣｅｎｔｒａｌＯｍｏｒｉ３階,,13,111,1430016,,,,,,,2024-12-12,1,,,,,オンオフ,0
749,4010901056490,新規,0,2024-12-12,2024-12-12,株式会社ＷＡＲＤＲＯＢＥ,,株式会社,東京都,世田谷区,上馬５丁目１５番２３号,,13,112,1540011,,,,,,,2024-12-12,1,,,,,ワードローブ,0
759,4011101109907,新規,0,2024-12-12,2024-12-12,株式会社ヒトタチ,,株式会社,東京都,新宿区,新宿１丁目１７番地５ミノワビル６Ｆ,,13,104,1600022,,,,,,,2024-12-12,1,,,,,ヒトタチ,0
760,4011101109915,新規,0,2024-12-12,2024-12-12,三番株式会社,,株式会社,東京都,新宿区,西新宿３丁目５番１２－７１０号室トーカン新宿第２キャステール,,13,104,1600023,,,,,,,2024-12-12,1,,,,,サンバン,0
763,4011401026645,新規,0,2024-12-12,2024-12-12,株式会社ＩＭＰＲＯＶＥ,,株式会社,東京都,板橋区,坂下１丁目２４－２０,,13,119,1740043,,,,,,,2024-12-12,1,,,,,インプルーブ,0
764,4011503006330,新規,0,2024-12-12,2024-12-12,Ｖｊｃ　Ｓｔｏｒｅ合同会社,,合同会社,東京都,荒川区,西尾久７丁目４０番２号ＡｎＧｒｏｕｐビル１０３号室,,13,118,1160011,,,,,,,2024-12-12,1,,,,,ヴィジェックストア,0
765,4011803006591,新規,0,2024-12-12,2024-12-12,合同会社マジック,,合同会社,東京都,足立区,花畑７丁目２１番２４号,,13,121,1210061,,,,,,,2024-12-12,1,,,,,マジック,0
768,4012803003570,新規,0,2024-12-12,2024-12-12,Ｇｏｏｄ　Ｌｅｓｓｏｎｓ合同会社,,合同会社,東京都,日野市,東豊田２丁目２７－２４,,13,212,1910052,,,,,,,2024-12-12,1,,,,,グッドレッスンズ,0
775,4020001160564,新規,0,2024-12-12,2024-12-12,株式会社ＥＢＳ,,株式会社,神奈川県,川崎市川崎区,小川町１４番地１９浜屋八秀ビル７０２,,14,131,2100023,,,,,,,2024-12-12,1,,,,,イービーエス,0
778,4020003027448,新規,0,2024-12-12,2024-12-12,ｏｔｔｅｒｈａｕｓ合同会社,,合同会社,神奈川県,川崎市宮前区,宮前平２丁目３の３の５０８,,14,136,2160006,,,,,,,2024-12-12,1,,,,,オッターハウス,0
782,4021001083986,新規,0,2024-12-12,2024-12-12,ｆｏｕｒｔｅｅｎ株式会社,,株式会社,神奈川県,相模原市緑区,原宿南３丁目９番地３２,,14,151,2520103,,,,,,,2024-12-12,1,,,,,フォーティーン,0
785,4021003015343,新規,0,2024-12-12,2024-12-12,ＷＡＲＥ　ＨＯＵＳＥ合同会社,,合同会社,神奈川県,海老名市,めぐみ町５番地６－５０９号,,14,215,2430438,,,,,,,2024-12-12,1,,,,,ウェアハウス,0
791,4030001163649,新規,0,2024-12-12,2024-12-12,昌衍株式会社,,株式会社,埼玉県,戸田市,中町２丁目１８番地２３－５０３号,,11,224,3350012,,,,,,,2024-12-12,1,,,,,ショウエン,0
792,4030001163905,新規,0,2024-12-12,2024-12-12,金谷国際商事株式会社,,株式会社,埼玉県,蕨市,北町１丁目５－９英ビル３Ｆ,,11,223,3350001,,,,,,,2024-12-12,1,,,,,カナヤコクサイ,0
797,4030003025673,新規,0,2024-12-12,2024-12-12,合同会社ガーデン,,合同会社,埼玉県,草加市,青柳８丁目３０番１６号,,11,221,3400002,,,,,,,2024-12-12,1,,,,,ガーデン,0
798,4030003025681,新規,0,2024-12-12,2024-12-12,合同会社ＨＰＰ,,合同会社,埼玉県,さいたま市大宮区,桜木町２丁目３番地,,11,103,3300854,,,,,,,2024-12-12,1,,,,,エイチピーピー,0
802,4040003026365,新規,0,2024-12-12,2024-12-12,合同会社くるまクリエイト,,合同会社,千葉県,市原市,南国分寺台５丁目２番地１２,,12,219,2900075,,,,,,,2024-12-12,1,,,,,クルマクリエイト,0
809,4050001055877,新規,0,2024-12-12,2024-12-12,株式会社ダイダラ,,株式会社,茨城県,水戸市,東前１丁目３８８,,08,201,3111136,,,,,,,2024-12-12,1,,,,,ダイダラ,0
811,4060001037726,新規,0,2024-12-12,2024-12-12,サクラグリーンサービス株式会社,,株式会社,栃木県,宇都宮市,大通り５丁目１番１１号,,09,201,3200811,,,,,,,2024-12-12,1,,,,,サクラグリーンサービス,0
835,4100003007904,新規,0,2024-12-12,2024-12-12,団子第三エナジーパワー合同会社,,合同会社,長野県,上田市,古里７７７番地３,,20,203,3860005,,,,,,,2024-12-12,1,,,,,ダンゴダイサンエナジーパワー,0
836,4100003007912,新規,0,2024-12-12,2024-12-12,合同会社スマイル,,合同会社,長野県,茅野市,玉川５３７６－５,,20,214,3910011,,,,,,,2024-12-12,1,,,,,スマイル,0
837,4110001038917,新規,0,2024-12-12,2024-12-12,株式会社ＦＪワークス,,株式会社,新潟県,新潟市秋葉区,川口４２３番地１８,,15,105,9560015,,,,,,,2024-12-12,1,,,,,エフジェイワークス,0
846,4120001271005,新規,0,2024-12-12,2024-12-12,全景ＥＣ株式会社,,株式会社,大阪府,大阪市中央区,博労町１丁目４番１０号博労町エステートビル６０３号,,27,128,5410059,,,,,,,2024-12-12,1,,,,,ゼンケイイーシー,0
847,4120001271046,新規,0,2024-12-12,2024-12-12,ＣｏＣｏ　ｔｅｘ株式会社,,株式会社,大阪府,大阪市中央区,安土町１丁目６番２２－８０２号,,27,128,5410052,,,,,,,2024-12-12,1,,,,,ココテックス,0
848,4120001271095,新規,0,2024-12-12,2024-12-12,株式会社Ｗｉｓｅ　Ｎｅｓｔ,,株式会社,大阪府,大阪市北区,天神橋２丁目５番２５号若杉グランドビル本館９０５号室,,27,127,5300041,,,,,,,2024-12-12,1,,,,,ワイズネスト,0
852,4120101070736,新規,0,2024-12-12,2024-12-12,株式会社清商事,,株式会社,大阪府,岸和田市,加守町１丁目１７－２２－５０３,,27,202,5960042,,,,,,,2024-12-12,1,,,,,キヨショウジ,0
853,4120901050169,新規,0,2024-12-12,2024-12-12,エピックウエスト株式会社,,株式会社,大阪府,箕面市,森町中３丁目１４番１号,,27,220,5630257,,,,,,,2024-12-12,1,,,,,エピックウエスト,0
860,4130003010070,新規,0,2024-12-12,2024-12-12,ＫＹＯＴＯ　ＦＵＮ合同会社,,合同会社,京都府,京都市東山区,西川原町４７６－１河松マンション２Ｆ－Ｃ,,26,105,6050838,,,,,,,2024-12-12,1,,,,,キョウトファン,0
866,4140001136734,新規,0,2024-12-12,2024-12-12,株式会社ジオランド,,株式会社,兵庫県,神戸市中央区,元町通３丁目１７番４号３階,,28,110,6500022,,,,,,,2024-12-12,1,,,,,ジオランド,0
868,4140005027302,新規,0,2024-12-12,2024-12-12,一般社団法人信昌相互健康研究会,,その他の設立登記法人,兵庫県,神戸市中央区,熊内町５丁目１２番１８号,,28,110,6510056,,,,,,,2024-12-12,1,,,,,シンショウソウゴケンコウケンキュウカイ,0
869,4150001027734,新規,0,2024-12-12,2024-12-12,株式会社ガーベラ,,株式会社,奈良県,奈良市,右京４丁目１番地の４,,29,201,6310805,,,,,,,2024-12-12,1,,,,,ガーベラ,0
885,4180301039328,新規,0,2024-12-12,2024-12-12,株式会社ヴイテックコンプリート,,株式会社,愛知県,知立市,西町宮腰１４番地,,23,225,4720023,,,,,,,2024-12-12,1,,,,,ヴイテックコンプリート,0
891,4190003004876,新規,0,2024-12-12,2024-12-12,合同会社ＲＫＲ,,合同会社,三重県,桑名市,大字江場４４１番地１アルカンシェルＩ棟２０３号,00137319,24,205,5110836,,,,,,,2024-12-12,1,,,,,アールケーアール,0
896,4240001064248,新規,0,2024-12-12,2024-12-12,株式会社虎屋,,株式会社,広島県,広島市中区,新天地４番１０号,,34,101,7300034,,,,,,,2024-12-12,1,,,,,トラヤ,0
926,4290001108256,新規,0,2024-12-12,2024-12-12,株式会社よしみ,,株式会社,福岡県,福岡市中央区,那の川２丁目９番３２号１Ｆ,00137318,40,133,8100015,,,,,,,2024-12-12,1,,,,,ヨシミ,0
927,4290001108272,新規,0,2024-12-12,2024-12-12,株式会社ウェルホープ,,株式会社,福岡県,糸島市,前原中央２丁目７番８－５０２号,,40,230,8191116,,,,,,,2024-12-12,1,,,,,ウェルホープ,0
930,4290003016168,新規,0,2024-12-12,2024-12-12,雪桜合同会社,,合同会社,福岡県,福岡市東区,青葉３丁目３４－１,,40,131,8130025,,,,,,,2024-12-12,1,,,,,ユキサクラ,0
941,4350001019315,新規,0,2024-12-12,2024-12-12,株式会社ＯＮＥ,,株式会社,宮崎県,宮崎市,和知川原２丁目３４番７号,,45,201,8800023,,,,,,,2024-12-12,1,,,,,ワン,0
942,4360001034536,新規,0,2024-12-12,2024-12-12,株式会社Ｈａｎｅｊｉ　Ｃｏｒｐｏｒａｔｉｏｎ,,株式会社,沖縄県,浦添市,城間１丁目１番７号１０１号室,,47,208,9012133,,,,,,,2024-12-12,1,,,,,ハネジコーポレーション,0
945,4370001052041,新規,0,2024-12-12,2024-12-12,株式会社リベロ,,株式会社,宮城県,仙台市若林区,連坊１丁目２番２４号地下１階,,04,103,9840052,,,,,,,2024-12-12,1,,,,,リベロ,0
946,4370005010870,新規,0,2024-12-12,2024-12-12,一般社団法人ＩＰＰＯ　ＳＰＯＲＴＳ,,その他の設立登記法人,宮城県,仙台市青葉区,堤通雨宮町２番２０－５０５号,,04,101,9810914,,,,,,,2024-12-12,1,,,,,イッポスポーツ,0
962,4430003017069,新規,0,2024-12-12,2024-12-12,合同会社まるりっち,,合同会社,北海道,札幌市中央区,宮の森二条１２丁目５番２２号,,01,101,0640952,,,,,,,2024-12-12,1,,,,,マルリッチ,0
970,4700150128203,新規,0,2024-12-12,2024-12-12,Ｃｕｒｚｏｎ　Ｕｒａｎｉｕｍ　Ｌｔｄ．（駐在員事務所）,,外国会社等,東京都,港区,港南２丁目１６－１　品川イーストワンタワー４階,,13,103,1080075,Ｇｒｉｖａ　Ｄｉｇｅｎｉ　８１－８３，Ｊａｃｏｖｉｄｅｓ　Ｔｏｗｅｒ，Ｏｆｆｉｃｅ　１０６　１０９０　Ｎｉｃｏｓｉａ　ＣＹＰＲＵＳ,,,,,,2024-12-12,1,,,,,カーゾンウラニウムリミテツドチユウザイインジムシヨ,0
974,5010001250613,新規,0,2024-12-12,2024-12-12,アンダーソン・ジャパン株式会社,,株式会社,東京都,千代田区,神田須田町２丁目２３番地１天翔オフィス秋葉原万世橋２０８号,,13,101,1010041,,,,,,,2024-12-12,1,,,,,アンダーソンジャパン,0
975,5010001250662,新規,0,2024-12-12,2024-12-12,株式会社ＮＡＴＡＬＩＳ,,株式会社,東京都,中央区,銀座７丁目１７－１８ジュエル銀座８０５,,13,102,1040061,,,,,,,2024-12-12,1,,,,,ナタリス,0
976,5010001250687,新規,0,2024-12-12,2024-12-12,エヌリンクロジスティクス株式会社,,株式会社,東京都,中央区,新川１丁目２６番９号,,13,102,1040033,,,,,,,2024-12-12,1,,,,,エヌリンクロジスティクス,0
977,5010003045730,新規,0,2024-12-12,2024-12-12,合同会社ＯＭ新大阪,,合同会社,東京都,中央区,日本橋１丁目４番１号日本橋一丁目ビルディング,,13,102,1030027,,,,,,,2024-12-12,1,,,,,オーエムシンオオサカ,0
978,5010003045763,新規,0,2024-12-12,2024-12-12,プマネロ合同会社,,合同会社,東京都,中央区,銀座１丁目１２番４号Ｎ＆ＥＢＬＤ．６Ｆ,,13,102,1040061,,,,,,,2024-12-12,1,,,,,プマネロ,0
985,5010401186812,新規,0,2024-12-12,2024-12-12,Ｒｅａｌ　Ｅｓｔａｔｅ　Ｔｏｋｙｏ株式会社,,株式会社,東京都,港区,六本木７丁目１番１９－２０２号,,13,103,1060032,,,,,,,2024-12-12,1,,,,,リアルエステートトーキョー,0
986,5010401187001,新規,0,2024-12-12,2024-12-12,株式会社Ｗｏｄａ,,株式会社,東京都,港区,高輪２丁目１２番４１－５０５号,,13,103,1080074,,,,,,,2024-12-12,1,,,,,ウォダ,0
989,5010501053342,新規,0,2024-12-12,2024-12-12,株式会社星野グループ,,株式会社,東京都,台東区,上野３丁目３番６号３階１３０５室,,13,106,1100005,,,,,,,2024-12-12,1,,,,,ホシノグループ,0
990,5010601066459,新規,0,2024-12-12,2024-12-12,株式会社うなぎ飯マシマシ,,株式会社,東京都,江東区,東陽４丁目６番２号成子ビル３階,,13,108,1350016,,,,,,,2024-12-12,1,,,,,,0
991,5010603011264,新規,0,2024-12-12,2024-12-12,合同会社マジョマジョ,,合同会社,東京都,江東区,永代１丁目４番１号,,13,108,1350034,,,,,,,2024-12-12,1,,,,,マジョマジョ,0
992,5010801035668,新規,0,2024-12-12,2024-12-12,株式会社ＦＵＲＯＵ,,株式会社,東京都,大田区,南六郷１丁目１番１７号,,13,111,1440045,,,,,,,2024-12-12,1,,,,,フロウ,0
998,5011001166246,新規,0,2024-12-12,2024-12-12,株式会社ｍｏｎｄｅ　ｆｕｔｕｒ,,株式会社,東京都,渋谷区,円山町５番５号Ｎａｖｉ渋谷Ｖ３階,,13,113,1500044,,,,,,,2024-12-12,1,,,,,モンフィチュア,0
1002,5011003020616,新規,0,2024-12-12,2024-12-12,ＳｉｌｖｅｒＡｒｒｏｗ　ＡＩ　Ｊａｐａｎ合同会社,,合同会社,東京都,渋谷区,神宮前６丁目１２番１８号ＷｅＷｏｒｋアイスバーグ,,13,113,1500001,,,,,,,2024-12-12,1,,,,,シルバーアローエーアイジャパン,0
1003,5011005010813,新規,0,2024-12-12,2024-12-12,一般社団法人キャリアリソースラボ,,その他の設立登記法人,東京都,目黒区,自由が丘２丁目１５番２３号香梅居２番,,13,110,1520035,,,,,,,2024-12-12,1,,,,,,0
1014,5011101109889,新規,0,2024-12-12,2024-12-12,株式会社Ｂ２Ｂ　ＪＡＰＡＮ,,株式会社,東京都,新宿区,百人町１丁目２０番３号バラードハイム新宿渡辺ビル５０１号室,,13,104,1690073,,,,,,,2024-12-12,1,,,,,ビートゥービージャパン,0
1016,5011501031453,新規,0,2024-12-12,2024-12-12,株式会社ＡＨ,,株式会社,東京都,荒川区,西尾久７丁目５８番５号,,13,118,1160011,,,,,,,2024-12-12,1,,,,,エーエイチ,0
1017,5011501031461,新規,0,2024-12-12,2024-12-12,株式会社千世,,株式会社,東京都,荒川区,西日暮里１丁目４２番２－３０５号,,13,118,1160013,,,,,,,2024-12-12,1,,,,,センセイ,0
1018,5011601028283,新規,0,2024-12-12,2024-12-12,ＡＬＬＧＯ　ＴＲＩＰ株式会社,,株式会社,東京都,練馬区,石神井台６丁目８番２号,,13,120,1770045,,,,,,,2024-12-12,1,,,,,オルゴトリップ,0
1022,5012801023628,新規,0,2024-12-12,2024-12-12,株式会社シャイヤー,,株式会社,東京都,昭島市,大神町３丁目１０番２号,,13,207,1960013,,,,,,,2024-12-12,1,,,,,シャイヤー,0
1023,5012803003561,新規,0,2024-12-12,2024-12-12,合同会社ＡＣＳ,,合同会社,東京都,昭島市,美堀町１丁目２番７７－５１７号,,13,207,1960001,,,,,,,2024-12-12,1,,,,,エーシーエス,0
1027,5013301053487,新規,0,2024-12-12,2024-12-12,博展株式会社,,株式会社,東京都,豊島区,東池袋２丁目６３番１－９０６号,,13,116,1700013,,,,,,,2024-12-12,1,,,,,ハクテン,0
1033,5020001160506,新規,0,2024-12-12,2024-12-12,Ｂｕｒｓｔ株式会社,,株式会社,神奈川県,横浜市西区,浅間町１丁目４－３ウィザードビル４０２,,14,103,2200072,,,,,,,2024-12-12,1,,,,,バースト,0
1034,5020001160539,新規,0,2024-12-12,2024-12-12,株式会社Ｄｉｓｐａｔｃｈ,,株式会社,神奈川県,川崎市幸区,新小倉２番７号プロムナード七番街８１５,,14,132,2120031,,,,,,,2024-12-12,1,,,,,ディスパッチ,0
1037,5020003027422,新規,0,2024-12-12,2024-12-12,合同会社アックス,,合同会社,神奈川県,横浜市都筑区,大棚町１４６番地の２,,14,118,2240027,,,,,,,2024-12-12,1,,,,,アックス,0
1038,5021001083985,新規,0,2024-12-12,2024-12-12,株式会社４４３商事,,株式会社,神奈川県,厚木市,毛利台３丁目２０番８号,,14,212,2430037,,,,,,,2024-12-12,1,,,,,ヨシミショウジ,0
1040,5021003015334,新規,0,2024-12-12,2024-12-12,合同会社ｄｉａｎａ,,合同会社,神奈川県,綾瀬市,深谷中６丁目１６番２２号,,14,218,2521107,,,,,,,2024-12-12,1,,,,,ディアーナ,0
1047,5030001163895,新規,0,2024-12-12,2024-12-12,株式会社ＩＴＹ,,株式会社,埼玉県,越谷市,大字南荻島５２９番地１,,11,222,3430804,,,,,,,2024-12-12,1,,,,,アイティーワイ,0
1050,5030003025672,新規,0,2024-12-12,2024-12-12,合同会社翔雲,,合同会社,埼玉県,さいたま市緑区,東浦和５丁目１２番地２１綾東ヴィレッヂ東浦和３０１,,11,109,3360926,,,,,,,2024-12-12,1,,,,,ショウウン,0
1056,5040001136537,新規,0,2024-12-12,2024-12-12,株式会社３１０６,,株式会社,千葉県,長生郡一宮町,一宮３４３６番地,,12,421,2994301,,,,,,,2024-12-12,1,,,,,サンイチゼロロク,0
1060,5040003026331,新規,0,2024-12-12,2024-12-12,合同会社持井ＨＯＭＥ,,合同会社,千葉県,船橋市,三山５丁目５９番１０号,,12,204,2740072,,,,,,,2024-12-12,1,,,,,モチイホーム,0
1061,5040003026372,新規,0,2024-12-12,2024-12-12,東京グローバル経済研究所合同会社,,合同会社,千葉県,千葉市美浜区,若葉３丁目１番地１８,,12,106,2610014,,,,,,,2024-12-12,1,,,,,トウキョウグローバルケイザイケンキュウジョ,0
1063,5050001055653,新規,0,2024-12-12,2024-12-12,株式会社よしや,,株式会社,茨城県,那珂市,額田北郷５３８番地１０,,08,226,3110108,,,,,,,2024-12-12,1,,,,,ヨシヤ,0
1064,5050001055876,新規,0,2024-12-12,2024-12-12,株式会社ＴＯＭＢＯ,,株式会社,茨城県,古河市,中田２２６８ＦＲＥＡＫ’Ｓ、ＳＴＯＲＥ２階ＷＯＲＫＩＮＧＡＴＥＬＩＥＲ、Ｅ,,08,204,3060053,,,,,,,2024-12-12,1,,,,,トンボ,0
1068,5060003005358,新規,0,2024-12-12,2024-12-12,合同会社川又土木,,合同会社,栃木県,真岡市,粕田７１０－２,,09,209,3214353,,,,,,,2024-12-12,1,,,,,カワマタドボク,0
1074,5080401027621,新規,0,2024-12-12,2024-12-12,株式会社雅重機,,株式会社,静岡県,浜松市中央区,北島町１１５番地の８,,22,138,4350041,,,,,,,2024-12-12,1,,,,,ミヤビジュウキ,0
1076,5090003002699,新規,0,2024-12-12,2024-12-12,合同会社ひこ,,合同会社,山梨県,甲府市,塩部３丁目３番８号,,19,201,4000026,,,,,,,2024-12-12,1,,,,,ヒコ,0
1077,5090005007663,新規,0,2024-12-12,2024-12-12,ふくろうさん労働者協同組合,,その他の設立登記法人,山梨県,北杜市,長坂町大八田３９１３番地,,19,209,4080034,,,,,,,2024-12-12,1,,,,,フクロウサン,0
1081,5100003007903,新規,0,2024-12-12,2024-12-12,団子第二エナジーパワー合同会社,,合同会社,長野県,上田市,古里７７７番地３,,20,203,3860005,,,,,,,2024-12-12,1,,,,,ダンゴダイニエナジーパワー,0
1083,5110001038916,新規,0,2024-12-12,2024-12-12,株式会社ＶＩＪＯＮＥ,,株式会社,新潟県,新潟市中央区,東大通２丁目４番１０号,,15,103,9500087,,,,,,,2024-12-12,1,,,,,ヴィジョン,0
1088,5120001157673,新規,0,2024-12-12,2024-12-12,高橋住宅株式会社,,株式会社,大阪府,門真市,常盤町３番２号４０１,,27,223,5710078,,,,,,,2024-12-12,1,,,,,,0
1090,5120001270872,新規,0,2024-12-12,2024-12-12,株式会社ＦＯ　Ｐａｒｔｎｅｒｓ,,株式会社,大阪府,大阪市港区,波除３丁目４番１５－５０２号,,27,107,5520001,,,,,,,2024-12-12,1,,,,,エフオーパートナーズ,0
1091,5120001271029,新規,0,2024-12-12,2024-12-12,株式会社Ｔ．Ｏ．Ｇ,,株式会社,大阪府,大阪市鶴見区,茨田大宮３丁目１８番１７号,,27,124,5380031,,,,,,,2024-12-12,1,,,,,ティーオージー,0
1092,5120001271037,新規,0,2024-12-12,2024-12-12,株式会社大有可為,,株式会社,大阪府,大阪市大正区,泉尾１丁目７番２号１０２,,27,108,5510031,,,,,,,2024-12-12,1,,,,,ダイユウカイ,0
1093,5120001271061,新規,0,2024-12-12,2024-12-12,株式会社豊隆トラスト,,株式会社,大阪府,大阪市住之江区,御崎５丁目１番１３号,,27,125,5590013,,,,,,,2024-12-12,1,,,,,ホウリュウトラスト,0
1098,5120003028170,新規,0,2024-12-12,2024-12-12,Ｍｉｌｉｇｈｔ合同会社,,合同会社,大阪府,大阪市大正区,平尾４丁目２１‐１４,,27,108,5510012,,,,,,,2024-12-12,1,,,,,ミライト,0
1112,5130001078407,新規,0,2024-12-12,2024-12-12,株式会社ａｎｐ,,株式会社,京都府,京都市南区,吉祥院石原町２３番地アウトリメッサ７,,26,107,6018367,,,,,,,2024-12-12,1,,,,,アンプ,0
1118,5140001136700,新規,0,2024-12-12,2024-12-12,株式会社ＤｅｅＣ,,株式会社,兵庫県,伊丹市,池尻３丁目３４３番地,,28,207,6640027,,,,,,,2024-12-12,1,,,,,ディーク,0
1121,5150001027741,新規,0,2024-12-12,2024-12-12,株式会社ｓａｎ　ｃｏｒｐｏｒａｔｉｏｎ,,株式会社,奈良県,葛城市,太田４５０番地１,,29,211,6392153,,,,,,,2024-12-12,1,,,,,サンコーポレーション,0
1125,5160003003351,新規,0,2024-12-12,2024-12-12,合同会社ＴＫ‐Ｊｈａｍ,,合同会社,滋賀県,大津市,大江２丁目１２番７号,,25,201,5202141,,,,,,,2024-12-12,1,,,,,ティーケージャーム,0
1128,5170005007119,新規,0,2024-12-12,2024-12-12,岩倉権現社,,その他の設立登記法人,和歌山県,有田郡有田川町,大字船坂８８４番地,,30,366,6430842,,,,,,,2024-12-12,1,,,,,イワクラゴンゲンシャ,0
1140,5200001043221,新規,0,2024-12-12,2024-12-12,株式会社シード,,株式会社,岐阜県,岐阜市,高野町４丁目１９番地２,,21,201,5008841,,,,,,,2024-12-12,1,,,,,シード,0
1142,5210001019996,新規,0,2024-12-12,2024-12-12,林兄弟林業株式会社,,株式会社,福井県,福井市,四ツ井１丁目１６番１５号,,18,201,9100846,,,,,,,2024-12-12,1,,,,,ハヤシキョウダイリンギョウ,0
1145,5230003002346,新規,0,2024-12-12,2024-12-12,合同会社ＲＩＭＡＹＵＹＵ,,合同会社,富山県,富山市,常盤台２１‐５６サンシーロ２０３,,16,201,9300983,,,,,,,2024-12-12,1,,,,,リマユユ,0
1146,5240001064247,新規,0,2024-12-12,2024-12-12,株式会社ＴＯＵＣＨ　ＣＬＥＡＮ,,株式会社,広島県,広島市東区,中山北町９番１６号,,34,102,7320028,,,,,,,2024-12-12,1,,,,,タッチクリーン,0
1161,5320001020860,新規,0,2024-12-12,2024-12-12,株式会社デラフト,,株式会社,大分県,大分市,畑中１丁目１０－８８－３,,44,201,8700856,,,,,,,2024-12-12,1,,,,,デラフト,0
1162,5330001032731,新規,0,2024-12-12,2024-12-12,ミライゲン株式会社,,株式会社,熊本県,玉名郡玉東町,大字白木１１１５番地１,,43,364,8690312,,,,,,,2024-12-12,1,,,,,ミライゲン,0
1165,5330005010849,新規,0,2024-12-12,2024-12-12,一般社団法人動物生殖工学研究所,,その他の設立登記法人,熊本県,熊本市中央区,水前寺３丁目１１番８－４０１号,,43,101,8620950,,,,,,,2024-12-12,1,,,,,ドウブツセイショクコウガクケンキュウジョ,0
1170,5340003004686,新規,0,2024-12-12,2024-12-12,合同会社さく弥,,合同会社,鹿児島県,鹿児島市,樋之口町１１－１１第６濱田ビル４２号,00137320,46,201,8920845,,,,,,,2024-12-12,1,,,,,サクヤ,0
1178,5370001052040,新規,0,2024-12-12,2024-12-12,株式会社ライフリフォームむつみ,,株式会社,宮城県,仙台市宮城野区,田子字新入４番地の１,,04,102,9830021,,,,,,,2024-12-12,1,,,,,ライフリフォームムツミ,0
1182,5380002006028,新規,0,2024-12-12,2024-12-12,有限会社アサヒ理容館,,有限会社,福島県,福島市,宮下町３番２号,,07,201,9608011,,,,,,,2024-12-12,1,,,,,アサヒリヨウカン,0
1184,5400001016883,新規,0,2024-12-12,2024-12-12,株式会社中華ダイニングチンシュイ,,株式会社,岩手県,花巻市,円万寺字松林１３２番地,,03,205,0250042,,,,,,,2024-12-12,1,,,,,チュウカダイニングチンシュイ,0
1189,5430001093251,新規,0,2024-12-12,2024-12-12,株式会社すくらむ,,株式会社,北海道,札幌市東区,北十五条東６丁目１－１１,,01,103,0650015,,,,,,,2024-12-12,1,,,,,スクラム,0
1200,5700150128202,新規,0,2024-12-12,2024-12-12,青佑有限公司,,外国会社等,,,,,,,,ＴＷＯ　ＨＡＲＢＯＵＲＦＲＯＮＴ，ＵＮＩＴ　２０１，２／Ｆ，２２　ＴＡＫ　ＦＵＮＧ　ＳＴＲＥＥＴ，ＨＵＮＧＨＯＭ，ＫＯＷＬＯＯＮ．，ＨＯＮＧ　ＫＯＮＧ,,,,,,2024-12-12,1,,,,,チンヨウユウゲンコウシ,0
1201,5700150128210,新規,0,2024-12-12,2024-12-12,アイ・ケイ・ケイホールディングス取引先持株会,,その他,福岡県,糟屋郡志免町,片峰３丁目６－５,,40,343,8112245,,,,,,,2024-12-12,1,,,,,アイケイケイホールディングストリヒキサキモチカブカイ,0
1212,6010001250653,新規,0,2024-12-12,2024-12-12,株式会社ＩＭＡ,,株式会社,東京都,文京区,小石川２丁目２－５,,13,105,1120002,,,,,,,2024-12-12,1,,,,,アイエムエー,0
1213,6010001250678,新規,0,2024-12-12,2024-12-12,ラポールコンサルティング株式会社,,株式会社,東京都,千代田区,飯田橋１丁目１１番３号矢澤ビル２階,,13,101,1020072,,,,,,,2024-12-12,1,,,,,ラポールコンサルティング,0
1214,6010001250694,新規,0,2024-12-12,2024-12-12,株式会社地域銘菓活性化機構,,株式会社,東京都,千代田区,大手町１丁目９番２号,,13,101,1000004,,,,,,,2024-12-12,1,,,,,チイキメイカカッセイカキコウ,0
1216,6010003045721,新規,0,2024-12-12,2024-12-12,合同会社エコー商事,,合同会社,東京都,千代田区,神田和泉町１番地６－１６ヤマトビル４０５,,13,101,1010024,,,,,,,2024-12-12,1,,,,,エコーショウジ,0
1217,6010003045770,新規,0,2024-12-12,2024-12-12,合同会社クロワゼ,,合同会社,東京都,中央区,銀座１丁目１２―４Ｎ＆ＥＢＬＤ．７階,,13,102,1040061,,,,,,,2024-12-12,1,,,,,クロワゼ,0
1223,6010401187017,新規,0,2024-12-12,2024-12-12,株式会社まちのわホールディングス,,株式会社,東京都,港区,六本木１丁目６番１号,,13,103,1060032,,,,,,,2024-12-12,1,,,,,マチノワホールディングス,0
1224,6010403033986,新規,0,2024-12-12,2024-12-12,合同会社エヌエイチ・ジェイエスエフ,,合同会社,東京都,港区,虎ノ門３丁目２２番１０－２０１号,,13,103,1050001,,,,,,,2024-12-12,1,,,,,エヌエイチジェイエスエフ,0
1228,6010703007500,新規,0,2024-12-12,2024-12-12,合同会社ＢＲＥＥＺＥ,,合同会社,東京都,品川区,旗の台３丁目１－１４ウイング塩山１０１,,13,109,1420064,,,,,,,2024-12-12,1,,,,,ブリーズ,0
1229,6010705003712,新規,0,2024-12-12,2024-12-12,一般社団法人日本アドベントカレンダー協会,,その他の設立登記法人,東京都,品川区,東大井１丁目９－３２－１４１１,,13,109,1400011,,,,,,,2024-12-12,1,,,,,ニホンアドベントカレンダーキョウカイ,0
1230,6010801035667,新規,0,2024-12-12,2024-12-12,天＿国際科技貿易株式会社,00137310,株式会社,東京都,大田区,久が原５丁目２７番１－９０１号,,13,111,1460085,,,,,,,2024-12-12,1,,,,,テンキコクサイカギボウエキ,0
1232,6010901056489,新規,0,2024-12-12,2024-12-12,株式会社ＳＰＡＣＥ,,株式会社,東京都,世田谷区,上馬５丁目１５番２３号,,13,112,1540011,,,,,,,2024-12-12,1,,,,,スペース,0
1240,6011001166427,新規,0,2024-12-12,2024-12-12,株式会社ｗＢｓＢ,,株式会社,東京都,渋谷区,渋谷２丁目１９番１５－６０９号宮益坂ビルディング,,13,113,1500002,,,,,,,2024-12-12,1,,,,,ダブリュービーエスビー,0
1241,6011001166567,新規,0,2024-12-12,2024-12-12,マスコット株式会社,,株式会社,東京都,渋谷区,道玄坂１丁目１０番８号渋谷道玄坂東急ビル２Ｆ‐Ｃ,,13,113,1500043,,,,,,,2024-12-12,1,,,,,マスコット,0
1246,6011101109888,新規,0,2024-12-12,2024-12-12,株式会社ＡＹＫ,,株式会社,東京都,新宿区,西新宿５丁目２番１－１８０３号,,13,104,1600023,,,,,,,2024-12-12,1,,,,,エーワイケー,0
1247,6011103015283,新規,0,2024-12-12,2024-12-12,榎本企画合同会社,,合同会社,東京都,新宿区,下落合３丁目１５番３４号,,13,104,1610033,,,,,,,2024-12-12,1,,,,,エノモトキカク,0
1248,6011505002664,新規,0,2024-12-12,2024-12-12,一般社団法人Ｈｏ,,その他の設立登記法人,東京都,北区,王子本町２丁目１番５号,,13,117,1140022,,,,,,,2024-12-12,1,,,,,エイチオー,0
1249,6011601028274,新規,0,2024-12-12,2024-12-12,株式会社アドウィス,,株式会社,東京都,練馬区,早宮４丁目３番４号,,13,120,1790085,,,,,,,2024-12-12,1,,,,,アドウィス,0
1250,6011801045292,新規,0,2024-12-12,2024-12-12,株式会社ａ　ｋｎｏｔ,,株式会社,東京都,足立区,関原１丁目４番１３号ウィルサクシーズ２０３,,13,121,1230852,,,,,,,2024-12-12,1,,,,,ノット,0
1259,6020001160521,新規,0,2024-12-12,2024-12-12,株式会社Ｓｕｇａｒ,,株式会社,神奈川県,横浜市南区,六ツ川３丁目７６番地３横浜パークタウンＪ棟５０９,,14,105,2320066,,,,,,,2024-12-12,1,,,,,シュガー,0
1260,6020001160538,新規,0,2024-12-12,2024-12-12,株式会社Ｉｎｆｌｕｘｉｉ,,株式会社,神奈川県,横浜市西区,浅間町１丁目４番地３ウィザードビル４０２,,14,103,2200072,,,,,,,2024-12-12,1,,,,,インフラクシィ,0
1261,6020001160546,新規,0,2024-12-12,2024-12-12,株式会社Ｒａｖｅ　Ｆａｃｔｏｒｙ,,株式会社,神奈川県,横浜市栄区,中野町１０７０－４１,,14,115,2470015,,,,,,,2024-12-12,1,,,,,レイブファクトリー,0
1262,6020001160554,新規,0,2024-12-12,2024-12-12,株式会社ＳＯＲＩＯＳ,,株式会社,神奈川県,川崎市幸区,中幸町３丁目３１番２号,,14,132,2120012,,,,,,,2024-12-12,1,,,,,ソリオス,0
1263,6020001160587,新規,0,2024-12-12,2024-12-12,リビルド株式会社,,株式会社,神奈川県,横浜市戸塚区,名瀬町２９３４番地１０,,14,110,2450051,,,,,,,2024-12-12,1,,,,,リビルド,0
1265,6020005016637,新規,0,2024-12-12,2024-12-12,医療法人紘希会,,その他の設立登記法人,神奈川県,横浜市戸塚区,戸塚町４２１１番地メグミテラスＡ棟地下１階,,14,110,2440003,,,,,,,2024-12-12,1,,,,,コウキカイ,0
1270,6021001083984,新規,0,2024-12-12,2024-12-12,株式会社ＤＲＭ,,株式会社,神奈川県,鎌倉市,岩瀬１丁目２番１,,14,204,2470051,,,,,,,2024-12-12,1,,,,,ディーアールエム,0
1281,6030001163829,新規,0,2024-12-12,2024-12-12,株式会社遠東,,株式会社,埼玉県,戸田市,下前１丁目１０番５－６０３号,,11,224,3350016,,,,,,,2024-12-12,1,,,,,エントウ,0
1282,6030001163861,新規,0,2024-12-12,2024-12-12,Ｆ‐テクノシステム株式会社,,株式会社,埼玉県,加須市,飯積４８８番地５号,,11,210,3491211,,,,,,,2024-12-12,1,,,,,エフテクノシステム,0
1283,6030001163894,新規,0,2024-12-12,2024-12-12,株式会社ＮＩＮＥ　ＰＡＲＴＮＥＲＳ,,株式会社,埼玉県,さいたま市大宮区,土手町２丁目１２番地６ＵＲＢＡＮＳＫＹＬＩＮＥＯＭＩＹＡ１２０１,,11,103,3300801,,,,,,,2024-12-12,1,,,,,ナインパートナーズ,0
1284,6030001163903,新規,0,2024-12-12,2024-12-12,株式会社ＩＫＯＩ,,株式会社,埼玉県,所沢市,林３丁目５７１番地の１０４,,11,208,3591167,,,,,,,2024-12-12,1,,,,,イコイ,0
1285,6030001163936,新規,0,2024-12-12,2024-12-12,株式会社平成末期,,株式会社,埼玉県,入間市,久保稲荷３丁目３１－３,,11,225,3580024,,,,,,,2024-12-12,1,,,,,ヘイセイマッキ,0
1291,6030003025671,新規,0,2024-12-12,2024-12-12,シルバープラン合同会社,,合同会社,埼玉県,越谷市,赤山町５丁目７番４７号ペアハイツ越谷２－５０３,,11,222,3430807,,,,,,,2024-12-12,1,,,,,シルバープラン,0
1297,6040001136511,新規,0,2024-12-12,2024-12-12,株式会社シェアネスト,,株式会社,千葉県,松戸市,小金４４３－２８,,12,207,2700014,,,,,,,2024-12-12,1,,,,,シェアネスト,0
1298,6040001136536,新規,0,2024-12-12,2024-12-12,株式会社ＴＳ．ＲＩＳＥ,,株式会社,千葉県,船橋市,西船５丁目８番１０号,,12,204,2730031,,,,,,,2024-12-12,1,,,,,ティーエスライズ,0
1299,6040001136544,新規,0,2024-12-12,2024-12-12,株式会社Ａ・Ｂ・Ｃ,,株式会社,千葉県,野田市,山崎２７４１番地の３０,,12,208,2780022,,,,,,,2024-12-12,1,,,,,エービーシー,0
1301,6040003026371,新規,0,2024-12-12,2024-12-12,合同会社Ｌｉａｓ,,合同会社,千葉県,千葉市中央区,新千葉１丁目７－２ペリエ＋Ｐｌｕｓビル３Ｆ,,12,101,2600031,,,,,,,2024-12-12,1,,,,,リアズ,0
1305,6050001055875,新規,0,2024-12-12,2024-12-12,株式会社みやびコーポレーション,,株式会社,茨城県,水戸市,杉崎町８９４番地７,,08,201,3190306,,,,,,,2024-12-12,1,,,,,ミヤビコーポレーション,0
1311,6060003005357,新規,0,2024-12-12,2024-12-12,合同会社四季折々,,合同会社,栃木県,塩谷郡高根沢町,大字宝積寺２２６１番地５１,,09,386,3291233,,,,,,,2024-12-12,1,,,,,シキオリオリ,0
1327,6100003007902,新規,0,2024-12-12,2024-12-12,団子第一エナジーパワー合同会社,,合同会社,長野県,上田市,古里７７７番地３,,20,203,3860005,,,,,,,2024-12-12,1,,,,,ダンゴダイイチエナジーパワー,0
1328,6100003007910,新規,0,2024-12-12,2024-12-12,行田農園合同会社,,合同会社,長野県,諏訪郡原村,５２２番地１,,20,363,3910100,,,,,,,2024-12-12,1,,,,,ギョウダノウエン,0
1336,6120001271003,新規,0,2024-12-12,2024-12-12,株式会社Ｘｅｎｏｎｅ,,株式会社,大阪府,大阪市淀川区,田川２丁目２番４３号,,27,123,5320027,,,,,,,2024-12-12,1,,,,,ゼノワン,0
1337,6120001271036,新規,0,2024-12-12,2024-12-12,Ｍｅｒａｋｉ株式会社,,株式会社,大阪府,大阪市浪速区,恵美須西１丁目４－２３住吉ビル３０８,,27,111,5560003,,,,,,,2024-12-12,1,,,,,メラキ,0
1338,6120001271077,新規,0,2024-12-12,2024-12-12,通源株式会社,,株式会社,大阪府,大阪市住之江区,浜口西１丁目１３番１５－４０１号,,27,125,5590006,,,,,,,2024-12-12,1,,,,,ツウゲン,0
1347,6120901050159,新規,0,2024-12-12,2024-12-12,株式会社ＭＲＣ,,株式会社,大阪府,箕面市,西宿３丁目７番３９号,,27,220,5620034,,,,,,,2024-12-12,1,,,,,エムアールシー,0
1351,6130001078587,新規,0,2024-12-12,2024-12-12,メイドイン京都株式会社,,株式会社,京都府,京都市左京区,下鴨南芝町九丁目１番,,26,103,6060841,,,,,,,2024-12-12,1,,,,,メイドインキョウト,0
1355,6140001136699,新規,0,2024-12-12,2024-12-12,株式会社ＨＡＴＡ,,株式会社,兵庫県,神戸市垂水区,名谷町字後谷１５８３番地,,28,108,6550852,,,,,,,2024-12-12,1,,,,,ハタ,0
1356,6140001136716,新規,0,2024-12-12,2024-12-12,株式会社ＨＫＬ,,株式会社,兵庫県,宝塚市,鹿塩２丁目３番１６－１０１号,,28,214,6650054,,,,,,,2024-12-12,1,,,,,エイチケーエル,0
1379,6190001031870,新規,0,2024-12-12,2024-12-12,株式会社ＰＡＳＳＯ,,株式会社,三重県,四日市市,諏訪栄町１７‐２,,24,202,5100086,,,,,,,2024-12-12,1,,,,,パッソ,0
1382,6200001043220,新規,0,2024-12-12,2024-12-12,株式会社Ｎａｇａｒａ・Ｐａｉｎｔ・Ｗｏｒｋｓ,,株式会社,岐阜県,岐阜市,日野東４丁目７番２８号,,21,201,5008211,,,,,,,2024-12-12,1,,,,,ナガラペイントワークス,0
1384,6240001064246,新規,0,2024-12-12,2024-12-12,ＴｒｉｃｅＣａｒｅ株式会社,,株式会社,広島県,福山市,蔵王町３丁目６番３７号,,34,207,7210971,,,,,,,2024-12-12,1,,,,,トライスケア,0
1385,6240005015864,新規,0,2024-12-12,2024-12-12,こども子育て応援ひろしま労働者協同組合,,その他の設立登記法人,広島県,広島市安佐南区,古市３丁目２１番２号,,34,105,7310123,,,,,,,2024-12-12,1,,,,,コドモコソダテオウエンヒロシマ,0
1395,6290001108238,新規,0,2024-12-12,2024-12-12,永田株式会社,,株式会社,福岡県,糟屋郡宇美町,原田１丁目１２番３号,,40,341,8112132,,,,,,,2024-12-12,1,,,,,ナガタ,0
1396,6290001108254,新規,0,2024-12-12,2024-12-12,株式会社ユーハウス,,株式会社,福岡県,那珂川市,片縄５丁目１４２番,,40,231,8111201,,,,,,,2024-12-12,1,,,,,ユーハウス,0
1397,6290001108270,新規,0,2024-12-12,2024-12-12,大風株式会社,,株式会社,福岡県,福岡市中央区,警固２丁目２番１１－１００１号,,40,133,8100023,,,,,,,2024-12-12,1,,,,,タイフウ,0
1401,6290003016158,新規,0,2024-12-12,2024-12-12,合同会社エントアルファ,,合同会社,福岡県,福岡市中央区,大手門１丁目４番１５号,,40,133,8100074,,,,,,,2024-12-12,1,,,,,エントアルファ,0
1406,6310003004911,新規,0,2024-12-12,2024-12-12,テイクソリューション合同会社,,合同会社,長崎県,西彼杵郡時津町,久留里郷１０８６番地,,42,308,8512107,,,,,,,2024-12-12,1,,,,,テイクソリューション,0
1409,6340001026995,新規,0,2024-12-12,2024-12-12,株式会社ニュートラル,,株式会社,鹿児島県,姶良市,蒲生町下久徳１５７３番２,,46,225,8995304,,,,,,,2024-12-12,1,,,,,ニュートラル,0
1411,6350003004800,新規,0,2024-12-12,2024-12-12,合同会社オービット,,合同会社,宮崎県,宮崎市,佐土原町下那珂４７５０番地６４,,45,201,8800212,,,,,,,2024-12-12,1,,,,,オービット,0
1416,6360001034534,新規,0,2024-12-12,2024-12-12,株式会社未来採用,,株式会社,沖縄県,那覇市,牧志２丁目１７－２７－４０１,,47,201,9000013,,,,,,,2024-12-12,1,,,,,ミライサイヨウ,0
1417,6360001034542,新規,0,2024-12-12,2024-12-12,安谷屋工業株式会社,,株式会社,沖縄県,沖縄市,安慶田５丁目３番８号２０６,,47,211,9040012,,,,,,,2024-12-12,1,,,,,アダニヤコウギョウ,0
1418,6360003014518,新規,0,2024-12-12,2024-12-12,合同会社潤坊,,合同会社,沖縄県,宮古島市,平良字久貝８８１番地５,,47,214,9060015,,,,,,,2024-12-12,1,,,,,ジュンボウ,0
1422,6370005010869,新規,0,2024-12-12,2024-12-12,一般社団法人柬日経済友好基金,,その他の設立登記法人,宮城県,仙台市青葉区,上杉１丁目６番６号,,04,101,9800011,,,,,,,2024-12-12,1,,,,,カンニチケイザイユウコウキキン,0
1428,6380001034978,新規,0,2024-12-12,2024-12-12,株式会社リトナル,,株式会社,福島県,郡山市,久留米５丁目１７８－２－１０３,,07,203,9638846,,,,,,,2024-12-12,1,,,,,リトナル,0
1432,6420003003035,新規,0,2024-12-12,2024-12-12,合同会社ヒラカワ,,合同会社,青森県,つがる市,柏稲盛岡本５４番地,,02,209,0383107,,,,,,,2024-12-12,1,,,,,ヒラカワ,0
1436,6430001093259,新規,0,2024-12-12,2024-12-12,星ホーム株式会社,,株式会社,北海道,札幌市北区,新琴似九条７丁目８番１９号,,01,102,0010909,,,,,,,2024-12-12,1,,,,,ホシホーム,0
1441,6430003017067,新規,0,2024-12-12,2024-12-12,合同会社Ｇｏｏｄｉｅｓ,,合同会社,北海道,伊達市,竹原町１７－４８,,01,233,0520011,,,,,,,2024-12-12,1,,,,,グッディーズ,0
1449,7010001250561,新規,0,2024-12-12,2024-12-12,株式会社Ｋ２ホールディングス,,株式会社,東京都,中央区,日本橋箱崎町１６－１トーマスビルディング４階,,13,102,1030015,,,,,,,2024-12-12,1,,,,,ケーツーホールディングス,0
1450,7010001250693,新規,0,2024-12-12,2024-12-12,株式会社バイトリ,,株式会社,東京都,千代田区,外神田２丁目８番１４－５０２号,,13,101,1010021,,,,,,,2024-12-12,1,,,,,バイトリ,0
1452,7010003045729,新規,0,2024-12-12,2024-12-12,Ｍｉｍａｓａｋａ‐１ＢＥＳＳ合同会社,,合同会社,東京都,千代田区,霞が関３丁目２番６号東京倶学部ビルディング１１階,,13,101,1000013,,,,,,,2024-12-12,1,,,,,ミマサカワンベス,0
1453,7010003045753,新規,0,2024-12-12,2024-12-12,Ｓｉｌｉｃｏｎ　Ｓｔａｒ　Ｔｅｃｈｎｏｌｏｇｉｅｓ合同会社,,合同会社,東京都,千代田区,丸の内２丁目２番１号,,13,101,1000005,,,,,,,2024-12-12,1,,,,,シリコンスターテクノロジーズ,0
1455,7010005039217,新規,0,2024-12-12,2024-12-12,一般財団法人日台国際桜交流会,,その他の設立登記法人,東京都,中央区,京橋２丁目８番１号,,13,102,1040031,,,,,,,2024-12-12,1,,,,,ニッタイコクサイサクラコウリュウカイ,0
1456,7010401045891,新規,0,2024-12-12,2024-12-12,株式会社コビック,,株式会社,東京都,港区,赤坂７丁目６番４７号,,13,103,1070052,,,,,,,2024-12-12,1,,,,,,0
1460,7010401186983,新規,0,2024-12-12,2024-12-12,株式会社Ｙ　Ｆｉｔ　Ｃｌｕｂ,,株式会社,東京都,港区,芝３丁目１４番１５号,,13,103,1050014,,,,,,,2024-12-12,1,,,,,ワイフィットクラブ,0
1463,7010405023860,新規,0,2024-12-12,2024-12-12,一般社団法人カラーコンサルタント協会,,その他の設立登記法人,東京都,港区,高輪３丁目１９番４６号高輪ハウス２０１,,13,103,1080074,,,,,,,2024-12-12,1,,,,,カラーコンサルタントキョウカイ,0
1464,7010501053299,新規,0,2024-12-12,2024-12-12,ｍａｉｄｏ＆ｃｒａｆｔｓ　ｓｔｒａｔｅｇｙ株式会社,,株式会社,東京都,台東区,浅草１丁目１３番５号井門浅草すしや通りビルＣ４３,,13,106,1110032,,,,,,,2024-12-12,1,,,,,マイドアンドクラフツストラテジー,0
1465,7010603011270,新規,0,2024-12-12,2024-12-12,合同会社オリハルコン・エンターテインメント,,合同会社,東京都,江東区,南砂４丁目５－５－６０５,,13,108,1360076,,,,,,,2024-12-12,1,,,,,オリハルコンエンターテインメント,0
1466,7010801035666,新規,0,2024-12-12,2024-12-12,株式会社キマリ,,株式会社,東京都,大田区,大森北４丁目２１番４号,,13,111,1430016,,,,,,,2024-12-12,1,,,,,キマリ,0
1469,7010901056488,新規,0,2024-12-12,2024-12-12,株式会社Ｋ‐ｍｏｃ,,株式会社,東京都,世田谷区,太子堂４丁目１８番１５号マガザン三軒茶屋２、３Ｆ－３,,13,112,1540004,,,,,,,2024-12-12,1,,,,,ケーモック,0
1472,7011001166244,新規,0,2024-12-12,2024-12-12,株式会社Ｍ２,,株式会社,東京都,渋谷区,渋谷２丁目１番１１号税理士法人アイ・タックス内,,13,113,1500002,,,,,,,2024-12-12,1,,,,,エムツー,0
1473,7011001166252,新規,0,2024-12-12,2024-12-12,株式会社エルプラスインターナショナル,,株式会社,東京都,渋谷区,桜丘町１番２号,,13,113,1500031,,,,,,,2024-12-12,1,,,,,エルプラスインターナショナル,0
1475,7011101109879,新規,0,2024-12-12,2024-12-12,株式会社良品産業,,株式会社,東京都,新宿区,西早稲田２丁目１０番１８,,13,104,1690051,,,,,,,2024-12-12,1,,,,,リョウヒンサンギョウ,0
1477,7011505002663,新規,0,2024-12-12,2024-12-12,一般社団法人アスリートブレインアカデミー,,その他の設立登記法人,東京都,北区,東田端２丁目８番１５号マンションニュー田端２０７,,13,117,1140013,,,,,,,2024-12-12,1,,,,,アスリートブレインアカデミー,0
1479,7011803006589,新規,0,2024-12-12,2024-12-12,合同会社シンナラァープ,,合同会社,東京都,葛飾区,立石２丁目１７番１－２０２号ダイアパレス立石ブランアワード,,13,122,1240012,,,,,,,2024-12-12,1,,,,,シンナラァープ,0
1483,7012701018602,新規,0,2024-12-12,2024-12-12,株式会社ＡＦＣＭ,,株式会社,東京都,西東京市,保谷町３丁目２４番２号,,13,229,2020015,,,,,,,2024-12-12,1,,,,,エーエフシーエム,0
1484,7012801023618,新規,0,2024-12-12,2024-12-12,インフューズライフサイエンス株式会社,,株式会社,東京都,昭島市,東町３丁目６番１号インキュベーションオフィス・ＴＡＭＡ３０６号室,,13,207,1960033,,,,,,,2024-12-12,1,,,,,インフューズライフサイエンス,0
1491,7013303007423,新規,0,2024-12-12,2024-12-12,チャンダ合同会社,,合同会社,東京都,豊島区,長崎２丁目１２番２号根源ビル１０１,,13,116,1710051,,,,,,,2024-12-12,1,,,,,チャンダ,0
1498,7020001160578,新規,0,2024-12-12,2024-12-12,Ａｍｉｔｙ　Ｌｉｎｋ株式会社,,株式会社,神奈川県,横浜市西区,みなとみらい４丁目４番２号,,14,103,2200012,,,,,,,2024-12-12,1,,,,,アミティリンク,0
1504,7020003027379,新規,0,2024-12-12,2024-12-12,ＤＡＩＺＵ合同会社,,合同会社,神奈川県,川崎市宮前区,鷺沼１丁目３番地１９－３０５,,14,136,2160004,,,,,,,2024-12-12,1,,,,,ダイズ,0
1510,7030001163885,新規,0,2024-12-12,2024-12-12,スマイルリビング株式会社,,株式会社,埼玉県,新座市,大和田１丁目１４番２号,,11,230,3520004,,,,,,,2024-12-12,1,,,,,スマイルリビング,0
1511,7030001163935,新規,0,2024-12-12,2024-12-12,株式会社Ｖｉｖａ　ｌａ　ｖｉｄａ,,株式会社,埼玉県,春日部市,粕壁東６丁目１５番４号,,11,214,3440062,,,,,,,2024-12-12,1,,,,,ビバラビダ,0
1515,7030003025670,新規,0,2024-12-12,2024-12-12,合同会社アティック,,合同会社,埼玉県,入間市,扇台２丁目５－１１,,11,225,3580023,,,,,,,2024-12-12,1,,,,,アティック,0
1516,7040001136543,新規,0,2024-12-12,2024-12-12,株式会社ＳＡＫＵＲＡ　ＭＯＴＯＲＳ,,株式会社,千葉県,四街道市,和良比２８３－７－２０２,,12,228,2840044,,,,,,,2024-12-12,1,,,,,サクラモータース,0
1522,7050001055874,新規,0,2024-12-12,2024-12-12,株式会社Ｎｅｉｇｈｔ,,株式会社,茨城県,水戸市,浜田１丁目１７番４１号,,08,201,3100812,,,,,,,2024-12-12,1,,,,,ネイト,0
1524,7050003008871,新規,0,2024-12-12,2024-12-12,ＷｅｓｔＷａｙ合同会社,,合同会社,茨城県,稲敷市,神宮寺４３９番地サジャドマンション１０１,,08,229,3000622,,,,,,,2024-12-12,1,,,,,ウエストウェイ,0
1527,7080001026658,新規,0,2024-12-12,2024-12-12,あかり恒産株式会社,,株式会社,静岡県,静岡市駿河区,八幡３丁目１７番１４号,,22,102,4228076,,,,,,,2024-12-12,1,,,,,アカリコウサン,0
1537,7090001019041,新規,0,2024-12-12,2024-12-12,株式会社アグウィズ,,株式会社,山梨県,山梨市,大工３１２番地,,19,205,4050045,,,,,,,2024-12-12,1,,,,,アグウィズ,0
1554,7120001271002,新規,0,2024-12-12,2024-12-12,株式会社日昇,,株式会社,大阪府,寝屋川市,高柳栄町６－２,,27,215,5720062,,,,,,,2024-12-12,1,,,,,ヒノボリ,0
1555,7120001271027,新規,0,2024-12-12,2024-12-12,株式会社ピース,,株式会社,大阪府,大阪市住吉区,我孫子東１丁目３－９,,27,120,5580013,,,,,,,2024-12-12,1,,,,,ピース,0
1556,7120001271043,新規,0,2024-12-12,2024-12-12,富春山居株式会社,,株式会社,大阪府,大阪市中央区,内本町２丁目１番１９号－１１３０号室,,27,128,5400026,,,,,,,2024-12-12,1,,,,,フシュンサンキョ,0
1557,7120001271101,新規,0,2024-12-12,2024-12-12,ＬＯＫ株式会社,,株式会社,大阪府,大阪市東淀川区,豊新５丁目６番３－１０２号,,27,114,5330014,,,,,,,2024-12-12,1,,,,,ロック,0
1558,7120003028144,新規,0,2024-12-12,2024-12-12,合同会社ドゥエ,,合同会社,大阪府,大阪市北区,天満４丁目８番２号,,27,127,5300043,,,,,,,2024-12-12,1,,,,,ドゥエ,0
1559,7120003028152,新規,0,2024-12-12,2024-12-12,合同会社Ｌｉｖｉｎｇ　Ｐｒｏｏｆ,,合同会社,大阪府,大阪市東住吉区,針中野１丁目１６番５７号,,27,121,5460011,,,,,,,2024-12-12,1,,,,,リビングプルーフ,0
1562,7120105009942,新規,0,2024-12-12,2024-12-12,一般社団法人プラージュビューティーカレッジ,,その他の設立登記法人,大阪府,藤井寺市,春日丘１丁目２番２９号,,27,226,5830026,,,,,,,2024-12-12,1,,,,,プラージュビューティーカレッジ,0
1569,7130001078586,新規,0,2024-12-12,2024-12-12,ＤＩＧＷＩＤＥ株式会社,,株式会社,京都府,京都市西京区,川島梅園町６５番地の２,,26,111,6158113,,,,,,,2024-12-12,1,,,,,ディグワイド,0
1576,7140001136673,新規,0,2024-12-12,2024-12-12,株式会社Ｔｈｅ　ｒａｉｎｂｏｗ,,株式会社,兵庫県,三田市,けやき台１丁目６番２号,,28,219,6691321,,,,,,,2024-12-12,1,,,,,ザレインボウ,0
1577,7140001136723,新規,0,2024-12-12,2024-12-12,株式会社Ｆａｍｉｌｉｄｏ,,株式会社,兵庫県,西宮市,若草町２丁目７番２６－３０４号,,28,204,6638181,,,,,,,2024-12-12,1,,,,,ファミリド,0
1578,7140001136731,新規,0,2024-12-12,2024-12-12,株式会社Ｐｕｂｌｉｎｋｓ,,株式会社,兵庫県,神戸市須磨区,戎町３丁目１番８号,,28,107,6540023,,,,,,,2024-12-12,1,,,,,パブリンクス,0
1583,7140003021411,新規,0,2024-12-12,2024-12-12,セレニティリーフ合同会社,,合同会社,兵庫県,小野市,粟生町７７２番地１,,28,218,6751358,,,,,,,2024-12-12,1,,,,,セレニティリーフ,0
1588,7140005027299,新規,0,2024-12-12,2024-12-12,医療法人社団明甲会,,その他の設立登記法人,兵庫県,明石市,相生町２丁目２番１８号末定ビル３Ｆ,,28,203,6730882,,,,,,,2024-12-12,1,,,,,メイコウカイ,0
1605,7180301039325,新規,0,2024-12-12,2024-12-12,株式会社角十,,株式会社,愛知県,田原市,赤羽根町中瀬古６６番地,,23,231,4413502,,,,,,,2024-12-12,1,,,,,カクジュウ,0
1611,7200003006620,新規,0,2024-12-12,2024-12-12,合同会社Ｐｒｅｍｉｕｍ　Ｐａｔｈ　Ｊａｐａｎ,,合同会社,岐阜県,揖斐郡池田町,市橋２１０－１,,21,404,5032427,,,,,,,2024-12-12,1,,,,,プレミアムパスジャパン,0
1612,7230001020653,新規,0,2024-12-12,2024-12-12,ヒルモント株式会社,,株式会社,富山県,射水市,小島１２１５,,16,211,9390274,,,,,,,2024-12-12,1,,,,,ヒルモント,0
1613,7240001002667,新規,0,2024-12-12,2024-12-12,キョーエイ産業株式会社,,株式会社,広島県,広島市安佐南区,古市３丁目３番１号,,34,105,7310123,,,,,,,2024-12-12,1,,,,,キョーエイサンギョウ,0
1614,7240001064245,新規,0,2024-12-12,2024-12-12,株式会社グローウェル,,株式会社,広島県,三原市,宗郷２丁目１番３７号,,34,204,7230044,,,,,,,2024-12-12,1,,,,,グローウェル,0
1630,7320001020859,新規,0,2024-12-12,2024-12-12,株式会社永田興業,,株式会社,大分県,大分市,三川下２丁目７番１５－１号,,44,201,8700142,,,,,,,2024-12-12,1,,,,,ナガタコウギョウ,0
1638,7380001034977,新規,0,2024-12-12,2024-12-12,株式会社Ｍ‐ｐｌｕｓ,,株式会社,福島県,福島市,野田町字加賀屋敷６８番地の５,,07,201,9608055,,,,,,,2024-12-12,1,,,,,エムプラス,0
1639,7380003005910,新規,0,2024-12-12,2024-12-12,合同会社松栄堂,,合同会社,福島県,福島市,本内字西慶二６番地の７,,07,201,9600103,,,,,,,2024-12-12,1,,,,,ショウエイドウ,0
1645,7430001093241,新規,0,2024-12-12,2024-12-12,株式会社エーコンプリート,,株式会社,北海道,虻田郡倶知安町,北三条東３丁目１番地４７,,01,400,0440003,,,,,,,2024-12-12,1,,,,,エーコンプリート,0
1646,7430001093258,新規,0,2024-12-12,2024-12-12,ＡＭ　ＴＲＡＤＩＮＧ株式会社,,株式会社,北海道,江別市,江別太６９０番地の２２,,01,217,0670022,,,,,,,2024-12-12,1,,,,,エーエムトレーディング,0
1649,7430003017066,新規,0,2024-12-12,2024-12-12,合同会社ＭＡＴＲＩＸ,,合同会社,北海道,札幌市豊平区,西岡二条５丁目５番１６号,,01,105,0620032,,,,,,,2024-12-12,1,,,,,マトリックス,0
1660,7700150128209,新規,0,2024-12-12,2024-12-12,Ｓｈｅｎｚｈｅｎ　Ｌｕｃｋｙｄｕｏ　Ｅ－Ｃｏｍｍｅｒｃｅ　Ｃｏ．，Ｌｔｄ．,,外国会社等,,,,,,,,Ｒｏｏｍ　６１５，Ｂｕｉｌｄｉｎｇ　Ａ２，Ｆｕｈａｉ　Ｉｎｄｕｓｔｒｉａｌ　Ｚｏｎｅ，Ｆｕｙｏｎｇ　Ｃｏｍｍｕｎｉｔｙ，Ｆｕｙｏｎｇ　Ｓｔｒｅｅｔ，Ｂａｏ’ａｎ　Ｄｉｓｔｒｉｃｔ，Ｓｈｅｎｚｈｅｎ　５１８０００　ＣＮ,,,,,,2024-12-12,1,,,,,シンセンラッキードゥイーコマースカンパニーリミテッド,0
1665,8010001250602,新規,0,2024-12-12,2024-12-12,ＳＰＥＣＴＯ　ＳＨＩＭＡＴＳＵ株式会社,,株式会社,東京都,中央区,日本橋兜町１７－２兜町第６葉山ビル４Ｆ,,13,102,1030026,,,,,,,2024-12-12,1,,,,,スペクトシマツ,0
1666,8010001250651,新規,0,2024-12-12,2024-12-12,株式会社タクミホールディングス２,,株式会社,東京都,千代田区,丸の内１丁目９番２号,,13,101,1000005,,,,,,,2024-12-12,1,,,,,タクミホールディングスツー,0
1667,8010001250676,新規,0,2024-12-12,2024-12-12,株式会社ｅｃｌａｔ,,株式会社,東京都,中央区,銀座１丁目１２－４Ｎ＆ＥＢＬＤ．７階,,13,102,1040061,,,,,,,2024-12-12,1,,,,,エクラ,0
1670,8010005039265,新規,0,2024-12-12,2024-12-12,東品川特定目的会社,,その他の設立登記法人,東京都,千代田区,丸の内１丁目４番１号東京共同会計事務所内,,13,101,1000005,,,,,,,2024-12-12,1,,,,,ヒガシシナガワ,0
1676,8010401186009,新規,0,2024-12-12,2024-12-12,日本テレスコム株式会社,,株式会社,東京都,港区,六本木７丁目１５番１４号塩業ビル内,,13,103,1060032,,,,,,,2024-12-12,1,,,,,,0
1677,8010401186826,新規,0,2024-12-12,2024-12-12,株式会社スリーラインズ,,株式会社,東京都,港区,三田４丁目４－１３－２１５,,13,103,1080073,,,,,,,2024-12-12,1,,,,,スリーラインズ,0
1678,8010401186850,新規,0,2024-12-12,2024-12-12,株式会社大和キャピタル,,株式会社,東京都,港区,南青山２丁目２番１５－８２５号,,13,103,1070062,,,,,,,2024-12-12,1,,,,,ヤマトキャピタル,0
1687,8010601066241,新規,0,2024-12-12,2024-12-12,株式会社ＪＦ,,株式会社,東京都,江東区,有明３丁目７－１１有明パークビル２０Ｆ,,13,108,1350063,,,,,,,2024-12-12,1,,,,,ジェイエフ,0
1688,8010703007498,新規,0,2024-12-12,2024-12-12,合同会社ＧＶ１,,合同会社,東京都,品川区,二葉１丁目１４番５号,,13,109,1420043,,,,,,,2024-12-12,1,,,,,ジーブイワン,0
1691,8010903009567,新規,0,2024-12-12,2024-12-12,合同会社Ｏｎｅ　Ｓｔｅｐ　Ｗｅｌｌｎｅｓｓ,,合同会社,東京都,世田谷区,大原２丁目２６―９ポルトボヌール１階,,13,112,1560041,,,,,,,2024-12-12,1,,,,,ワンステップウェルネス,0
1694,8011001166417,新規,0,2024-12-12,2024-12-12,ｍａｇｎｉｆｉｃａ株式会社,,株式会社,東京都,渋谷区,上原１丁目３番９号,,13,113,1510064,,,,,,,2024-12-12,1,,,,,マグニフィカ,0
1695,8011001166540,新規,0,2024-12-12,2024-12-12,株式会社ぱちクロ,,株式会社,東京都,渋谷区,恵比寿西２丁目４‐８ウィンド恵比寿ビル８Ｆ,,13,113,1500021,,,,,,,2024-12-12,1,,,,,パチクロ,0
1697,8011003020431,新規,0,2024-12-12,2024-12-12,合同会社ＨＩＴＡＭＵＫＩクリエイト,,合同会社,東京都,渋谷区,代々木２丁目１６－２第二桑野ビル３Ｃ,,13,113,1510053,,,,,,,2024-12-12,1,,,,,ヒタムキクリエイト,0
1699,8011101109886,新規,0,2024-12-12,2024-12-12,フルサポート株式会社,,株式会社,東京都,新宿区,西新宿３丁目３番１３号西新宿水間ビル６階,,13,104,1600023,,,,,,,2024-12-12,1,,,,,フルサポート,0
1700,8011101109903,新規,0,2024-12-12,2024-12-12,株式会社Ｗｉｎｇｓ,,株式会社,東京都,新宿区,神楽坂６丁目３８中島ビル３０５,,13,104,1620825,,,,,,,2024-12-12,1,,,,,ウイングス,0
1704,8011105011254,新規,0,2024-12-12,2024-12-12,特定非営利活動法人日本ＡＩイノベーション促進会,,その他の設立登記法人,東京都,新宿区,西早稲田２丁目５番２１－３０７号,,13,104,1690051,,,,,,,2024-12-12,1,,,,,ニホンエーアイイノベーションソクシンカイ,0
1705,8011201025991,新規,0,2024-12-12,2024-12-12,株式会社タートルコア,,株式会社,東京都,中野区,本町４丁目４８番１７号,,13,114,1640012,,,,,,,2024-12-12,1,,,,,タートルコア,0
1708,8011403004570,新規,0,2024-12-12,2024-12-12,合同会社ランタンス,,合同会社,東京都,板橋区,赤塚２丁目１番１３号２Ｆ,,13,119,1750092,,,,,,,2024-12-12,1,,,,,ランタンス,0
1714,8012301014190,新規,0,2024-12-12,2024-12-12,株式会社エイテン,,株式会社,東京都,町田市,原町田３丁目２番８号アトラスタワー町田１３０４,,13,209,1940013,,,,,,,2024-12-12,1,,,,,エイテン,0
1717,8012801023633,新規,0,2024-12-12,2024-12-12,株式会社エムイーコンサルタント,,株式会社,東京都,東大和市,湖畔１丁目９１１番地の１２９,,13,220,2070002,,,,,,,2024-12-12,1,,,,,エムイーコンサルタント,0
1729,8020001160536,新規,0,2024-12-12,2024-12-12,株式会社ジブンデイ,,株式会社,神奈川県,横浜市西区,北幸２丁目１０番４８号むつみビル３階,,14,103,2200004,,,,,,,2024-12-12,1,,,,,ジブンデイ,0
1730,8020001160552,新規,0,2024-12-12,2024-12-12,ＮＥＷ　ＬＩＦＥ　ＩＮＴＥＲＩＯＲ株式会社,,株式会社,神奈川県,川崎市川崎区,昭和２丁目３番２０－２号,,14,131,2100813,,,,,,,2024-12-12,1,,,,,ニューライフインテリア,0
1733,8020003027444,新規,0,2024-12-12,2024-12-12,合同会社アイトラスト,,合同会社,神奈川県,横浜市青葉区,藤が丘２丁目１５番地３４,,14,117,2270043,,,,,,,2024-12-12,1,,,,,アイトラスト,0
1737,8021001083966,新規,0,2024-12-12,2024-12-12,ｉｓＶＩＴ株式会社,,株式会社,神奈川県,厚木市,寿町１丁目７―７,,14,212,2430003,,,,,,,2024-12-12,1,,,,,イズビット,0
1742,8030001163802,新規,0,2024-12-12,2024-12-12,株式会社パレット,,株式会社,埼玉県,ふじみ野市,上福岡１丁目６番２３号ＭＤビル４０３号室,,11,245,3560004,,,,,,,2024-12-12,1,,,,,パレット,0
1743,8030001163892,新規,0,2024-12-12,2024-12-12,株式会社Ｌｉｍ,,株式会社,埼玉県,上尾市,中妻５丁目２７番地７,,11,219,3620072,,,,,,,2024-12-12,1,,,,,リム,0
1744,8030001163934,新規,0,2024-12-12,2024-12-12,株式会社ＣＲＥＳＴ,,株式会社,埼玉県,草加市,高砂１丁目８－３７サン・リーフ２０１,,11,221,3400015,,,,,,,2024-12-12,1,,,,,クレスト,0
1750,8030003025678,新規,0,2024-12-12,2024-12-12,合同会社Ａｒｃ,,合同会社,埼玉県,和光市,白子２丁目２４番２４－８０１号和光パークファミリア,,11,229,3510101,,,,,,,2024-12-12,1,,,,,アーク,0
1751,8030003025686,新規,0,2024-12-12,2024-12-12,ＧＥＮ２Ｋ合同会社,,合同会社,埼玉県,深谷市,矢島９２６番地２,,11,218,3660839,,,,,,,2024-12-12,1,,,,,ゲンニケイ,0
1755,8040001136526,新規,0,2024-12-12,2024-12-12,株式会社ｈｕｍｂｌｅ,,株式会社,千葉県,市川市,原木１丁目１７番１４－２０６号,,12,203,2720004,,,,,,,2024-12-12,1,,,,,ハンブル,0
1757,8040003026337,新規,0,2024-12-12,2024-12-12,合同会社Ｄｒａｍａｔｉｃ　ｉｎ　ｄｒｅａｍｓ,,合同会社,千葉県,習志野市,谷津１丁目１７番２６号サンウエクサ３０１,,12,216,2750026,,,,,,,2024-12-12,1,,,,,ドラマティックインドリームス,0
1759,8050005013530,新規,0,2024-12-12,2024-12-12,特定非営利活動法人結城里山の会,,その他の設立登記法人,茨城県,結城市,大字大木１６６１番地１,,08,207,3070031,,,,,,,2024-12-12,1,,,,,ユウキサトヤマノカイ,0
1763,8080001026657,新規,0,2024-12-12,2024-12-12,株式会社Ｎｃｏｍ,,株式会社,静岡県,静岡市清水区,辻５丁目３番３５号シャーロット辻Ｄ号,00137313,22,103,4240806,,,,,,,2024-12-12,1,,,,,エヌコム,0
1771,8100003007891,新規,0,2024-12-12,2024-12-12,ＭａＫｏＨａ合同会社,,合同会社,長野県,松本市,村井町南１丁目２０番４０号,,20,202,3990036,,,,,,,2024-12-12,1,,,,,マコハ,0
1773,8110001038921,新規,0,2024-12-12,2024-12-12,ＧＲ　ＴＲＡＤＩＮＧ株式会社,,株式会社,新潟県,新潟市江南区,江口１７２６番地２,,15,104,9500101,,,,,,,2024-12-12,1,,,,,ジーアールトレーディング,0
1781,8120001270762,新規,0,2024-12-12,2024-12-12,日本永延株式会社,,株式会社,大阪府,大阪市住之江区,御崎１丁目１１番１９－２１１号,,27,125,5590013,,,,,,,2024-12-12,1,,,,,ニホンエイエン,0
1782,8120001271026,新規,0,2024-12-12,2024-12-12,株式会社ファースト,,株式会社,大阪府,大阪市浪速区,日本橋４丁目５－１９ホリノビル３Ｆ,,27,111,5560005,,,,,,,2024-12-12,1,,,,,ファースト,0
1783,8120003028143,新規,0,2024-12-12,2024-12-12,アローロ合同会社,,合同会社,大阪府,大阪市住吉区,長居東１丁目１６番２０号,,27,120,5580004,,,,,,,2024-12-12,1,,,,,アローロ,0
1784,8120003028168,新規,0,2024-12-12,2024-12-12,合同会社ｏｎｅ,,合同会社,大阪府,大阪市中央区,東高麗橋３番４号４０２,,27,128,5400039,,,,,,,2024-12-12,1,,,,,ワン,0
1791,8120105009941,新規,0,2024-12-12,2024-12-12,社会保険労務士法人ライカブリッジ,,その他の設立登記法人,大阪府,堺市堺区,熊野町東４丁４番１９号平成ビル７階７０３号,,27,141,5900946,,,,,,,2024-12-12,1,,,,,ライカブリッジ,0
1793,8120901050165,新規,0,2024-12-12,2024-12-12,株式会社ＭＩＯ,,株式会社,大阪府,高槻市,芥川町２丁目１９番２号,,27,207,5691123,,,,,,,2024-12-12,1,,,,,ミオ,0
1796,8130001078577,新規,0,2024-12-12,2024-12-12,株式会社ＹＦネットワーク,,株式会社,京都府,京都市伏見区,納所薬師堂１－７１,,26,109,6128276,,,,,,,2024-12-12,1,,,,,ワイエフネットワーク,0
1809,8140003021410,新規,0,2024-12-12,2024-12-12,無垢の木不動産合同会社,,合同会社,兵庫県,加古川市,別府町新野辺９１０番地,,28,210,6750131,,,,,,,2024-12-12,1,,,,,ムクノキフドウサン,0
1810,8140005027298,新規,0,2024-12-12,2024-12-12,医療法人社団さくら,,その他の設立登記法人,兵庫県,西宮市,東町１丁目１２番３号コープ西宮南３階,,28,204,6620922,,,,,,,2024-12-12,1,,,,,サクラ,0
1813,8150001027739,新規,0,2024-12-12,2024-12-12,株式会社アドミノスティ,,株式会社,奈良県,生駒市,高山町８２８７番地１,,29,209,6300101,,,,,,,2024-12-12,1,,,,,アドミノスティ,0
1814,8150003003449,新規,0,2024-12-12,2024-12-12,合同会社セカンドファミリー,,合同会社,奈良県,橿原市,葛本町１５３番地の２－３階,,29,205,6340007,,,,,,,2024-12-12,1,,,,,セカンドファミリー,0
1820,8180003027750,新規,0,2024-12-12,2024-12-12,やまじゅう合同会社,,合同会社,愛知県,江南市,村久野町門弟山８５,,23,217,4838323,,,,,,,2024-12-12,1,,,,,ヤマジュウ,0
1822,8180301039324,新規,0,2024-12-12,2024-12-12,株式会社地域創生＆パートナーズ,,株式会社,愛知県,碧南市,半崎町５丁目５８番地３,,23,209,4470015,,,,,,,2024-12-12,1,,,,,チイキソウセイアンドパートナーズ,0
1824,8190001031869,新規,0,2024-12-12,2024-12-12,株式会社トータルミッション,,株式会社,三重県,鈴鹿市,住吉町６７２０番地,,24,207,5130825,,,,,,,2024-12-12,1,,,,,トータルミッション,0
1825,8190003004880,新規,0,2024-12-12,2024-12-12,合同会社にじいろ,,合同会社,三重県,度会郡大紀町,大内山４５３１番地１２５,,24,471,5193111,,,,,,,2024-12-12,1,,,,,ニジイロ,0
1827,8200001043219,新規,0,2024-12-12,2024-12-12,株式会社エコライン,,株式会社,岐阜県,岐阜市,古市場１８８番地６,,21,201,5011121,,,,,,,2024-12-12,1,,,,,エコライン,0
1828,8220001026353,新規,0,2024-12-12,2024-12-12,北陸ソイラー株式会社,,株式会社,石川県,金沢市,北安江町２０４番地５まる幸ビル内,,17,201,9200023,,,,,,,2024-12-12,1,,,,,ホクリクソイラー,0
1835,8260001039715,新規,0,2024-12-12,2024-12-12,株式会社白珪,,株式会社,岡山県,倉敷市,林２０７５番地１,,33,202,7100142,,,,,,,2024-12-12,1,,,,,ハッケイ,0
1845,8290001108269,新規,0,2024-12-12,2024-12-12,株式会社ミネマツ,,株式会社,福岡県,久留米市,高良内町２７１番地１６,,40,203,8390852,,,,,,,2024-12-12,1,,,,,ミネマツ,0
1848,8290003016164,新規,0,2024-12-12,2024-12-12,合同会社三陽,,合同会社,福岡県,朝倉市,入地２８４８－１,,40,228,8381315,,,,,,,2024-12-12,1,,,,,サンヨウ,0
1853,8320001020858,新規,0,2024-12-12,2024-12-12,株式会社ＢＬＵＥ　ＩＮＮＯＶＡＴＩＯＮ,,株式会社,大分県,大分市,東春日町２０番１１号,,44,201,8700037,,,,,,,2024-12-12,1,,,,,ブルーイノベーション,0
1855,8330001032729,新規,0,2024-12-12,2024-12-12,株式会社チライ,,株式会社,熊本県,合志市,須屋２１９０－１,,43,216,8611102,,,,,,,2024-12-12,1,,,,,チライ,0
1858,8340001026969,新規,0,2024-12-12,2024-12-12,株式会社七呂不動産,,株式会社,鹿児島県,鹿児島市,田上７丁目１５番１５号,,46,201,8900034,,,,,,,2024-12-12,1,,,,,シチロフドウサン,0
1861,8360001034540,新規,0,2024-12-12,2024-12-12,株式会社マーク工業,,株式会社,沖縄県,島尻郡八重瀬町,字世名城３６６番地１,,47,362,9010403,,,,,,,2024-12-12,1,,,,,マークコウギョウ,0
1877,8420003003033,新規,0,2024-12-12,2024-12-12,合同会社ＮＯＮＡＲＴ,,合同会社,青森県,弘前市,大字駒越字村元１７－４,,02,202,0361322,,,,,,,2024-12-12,1,,,,,ノナート,0
1879,8430001093249,新規,0,2024-12-12,2024-12-12,Ｂｅ　Ｒｅｂｏｒｎ株式会社,,株式会社,北海道,札幌市中央区,南十九条西９丁目１番１４号,,01,101,0640919,,,,,,,2024-12-12,1,,,,,ビーリボーン,0
1880,8430001093257,新規,0,2024-12-12,2024-12-12,ＪＮＴｒａｎｓｐｏｒｔ株式会社,,株式会社,北海道,札幌市西区,発寒十六条４丁目７番８号,,01,107,0630836,,,,,,,2024-12-12,1,,,,,ジェイエヌトランスポート,0
1884,8430003017057,新規,0,2024-12-12,2024-12-12,Ｙｏｎｅｅｎ合同会社,,合同会社,北海道,虻田郡倶知安町,北七条西１丁目１－３３,,01,400,0440057,,,,,,,2024-12-12,1,,,,,ヨニン,0
1886,8700150128208,新規,0,2024-12-12,2024-12-12,Ｍｅｉ　Ｒｕｉ　Ｑｉ　Ｘｉａ　Ｍｅｎ　Ｋｅ　Ｊｉ　Ｙｏｕ　Ｘｉａｎ　Ｇｏｎｇ　Ｓｉ,,外国会社等,,,,,,,,Ｎｏ．９３　Ｘｉａｎｇｙｕ　Ｒｏａｄ，Ａｒｅａ　Ｂ，２Ｆ，Ｂｕｉｌｄｉｎｇ　Ｃ，Ｘｉａｍｅｎ　Ｉｎｔｅｒｎａｔｉｏｎａｌ　Ｓｈｉｐｐｉｎｇ　Ｃｅｎｔｅｒ，Ｘｉａｍｅｎ，Ｆｕｊｉａｎ，ＦＴＺ，ＣＮ　３６１０００　ＣＮ,,,,,,2024-12-12,1,,,,,メイルイチシャメンカギヨウシエンゴンスー,0
1888,9010001250650,新規,0,2024-12-12,2024-12-12,株式会社タクミホールディングス１,,株式会社,東京都,千代田区,丸の内１丁目９番２号,,13,101,1000005,,,,,,,2024-12-12,1,,,,,タクミホールディングスワン,0
1889,9010003045743,新規,0,2024-12-12,2024-12-12,合同会社ＫＯＳＡＫＩ　ＦＩＲＭ,,合同会社,東京都,中央区,日本橋蛎殻町１丁目３６番３号,,13,102,1030014,,,,,,,2024-12-12,1,,,,,コサキファーム,0
1890,9010003045768,新規,0,2024-12-12,2024-12-12,仮想妖精合同会社,,合同会社,東京都,中央区,銀座１丁目１２－４Ｎ＆ＥＢＬＤ．７階,,13,102,1040061,,,,,,,2024-12-12,1,,,,,カソウヨウセイ,0
1891,9010005039264,新規,0,2024-12-12,2024-12-12,一般社団法人セントラルレジホールディングス２,,その他の設立登記法人,東京都,千代田区,丸の内１丁目４番１号東京共同会計事務所内,,13,101,1000005,,,,,,,2024-12-12,1,,,,,セントラルレジホールディングスツー,0
1892,9010103002470,新規,0,2024-12-12,2024-12-12,合同会社鴨福,,合同会社,東京都,八王子市,小門町５番地３,,13,201,1920054,,,,,,,2024-12-12,1,,,,,カモフク,0
1897,9010401186858,新規,0,2024-12-12,2024-12-12,株式会社マネーフォワードエックス,,株式会社,東京都,港区,芝浦３丁目１番２１号,,13,103,1080023,,,,,,,2024-12-12,1,,,,,マネーフォワードエックス,0
1898,9010401187006,新規,0,2024-12-12,2024-12-12,株式会社ＰＯＫＥＲ,,株式会社,東京都,港区,白金１丁目２－１白金ザ・スカイ東棟Ｅ－２４１６号室,,13,103,1080072,,,,,,,2024-12-12,1,,,,,ポーカー,0
1902,9010405023859,新規,0,2024-12-12,2024-12-12,一般社団法人太陽光パネル洗浄協議会,,その他の設立登記法人,東京都,港区,虎ノ門１丁目１３番３号,,13,103,1050001,,,,,,,2024-12-12,1,,,,,タイヨウコウパネルセンジョウキョウギカイ,0
1905,9010603011260,新規,0,2024-12-12,2024-12-12,トリニティメディカル合同会社,,合同会社,東京都,江東区,辰巳１丁目７番２８－１２０３号,,13,108,1350053,,,,,,,2024-12-12,1,,,,,トリニティメディカル,0
1906,9010801035664,新規,0,2024-12-12,2024-12-12,株式会社山王トレード,,株式会社,東京都,大田区,山王１丁目１４番１０号,,13,111,1430023,,,,,,,2024-12-12,1,,,,,サンノウトレード,0
1908,9010903009566,新規,0,2024-12-12,2024-12-12,合同会社ＫＳ,,合同会社,東京都,世田谷区,桜上水４丁目７番４号三星Ｋビル１階Ａ号室,,13,112,1560045,,,,,,,2024-12-12,1,,,,,ケーエス,0
1912,9011001166234,新規,0,2024-12-12,2024-12-12,株式会社オンラインＣＡアカデミー,,株式会社,東京都,渋谷区,代々木４丁目５６番８号２ｋ,,13,113,1510053,,,,,,,2024-12-12,1,,,,,オンラインシーエーアカデミー,0
1913,9011003020538,新規,0,2024-12-12,2024-12-12,ＨＡＰＰＹ　ＦＡＩＲ合同会社,,合同会社,東京都,渋谷区,道玄坂１丁目１０番８号渋谷道玄坂東急ビル２Ｆ－Ｃ,,13,113,1500043,,,,,,,2024-12-12,1,,,,,ハッピーフェア,0
1914,9011003020587,新規,0,2024-12-12,2024-12-12,合同会社ｈｙａｎ,,合同会社,東京都,渋谷区,道玄坂１丁目１０‐８渋谷道玄坂東急ビル２Ｆ‐Ｃ,,13,113,1500043,,,,,,,2024-12-12,1,,,,,ヒャン,0
1919,9011101109836,新規,0,2024-12-12,2024-12-12,株式会社Ｍｉｌｋｙｗａｙ　Ｌｉｖｅ,,株式会社,東京都,新宿区,西新宿３丁目３番１３号西新宿水間ビル２Ｆ,,13,104,1600023,,,,,,,2024-12-12,1,,,,,ミルキーウェイライブ,0
1920,9011101109852,新規,0,2024-12-12,2024-12-12,瑞成精工株式会社,,株式会社,東京都,新宿区,西新宿３丁目３番１３号,,13,104,1600023,,,,,,,2024-12-12,1,,,,,ズイセイセイコー,0
1930,9011701027891,新規,0,2024-12-12,2024-12-12,良運株式会社,,株式会社,東京都,江戸川区,一之江２丁目９番２１号,,13,123,1320024,,,,,,,2024-12-12,1,,,,,リョウウン,0
1932,9011803006579,新規,0,2024-12-12,2024-12-12,ＪＬｉｆｅ合同会社,,合同会社,東京都,足立区,伊興５丁目１１－１,,13,121,1210823,,,,,,,2024-12-12,1,,,,,ジェイライフ,0
1937,9012801023640,新規,0,2024-12-12,2024-12-12,株式会社セリザワ,,株式会社,東京都,国立市,中２丁目５番地の１７セントラル国立６０１,,13,215,1860004,,,,,,,2024-12-12,1,,,,,セリザワ,0
1938,9012803003566,新規,0,2024-12-12,2024-12-12,合同会社ＭＡＳＥ,,合同会社,東京都,日野市,旭が丘６丁目６番地東京都立大学日野キャンパス６号館インキュベーションルームＨ,,13,212,1910065,,,,,,,2024-12-12,1,,,,,メイズ,0
1940,9013301053483,新規,0,2024-12-12,2024-12-12,株式会社ｔｕｎｅＮｅｘｔ,,株式会社,東京都,豊島区,南池袋３丁目１３番５号ＫＪ南池袋ビル８Ｆ,,13,116,1710022,,,,,,,2024-12-12,1,,,,,チューンネクスト,0
1945,9020001160551,新規,0,2024-12-12,2024-12-12,Ｊ‐Ｗｅｌｌｎｅｓｓ株式会社,,株式会社,神奈川県,川崎市中原区,上小田中６丁目２３番１０号,,14,133,2110053,,,,,,,2024-12-12,1,,,,,ジェイウェルネス,0
1946,9020001160576,新規,0,2024-12-12,2024-12-12,株式会社ＦＯＵＲ　ＴＷＯ,,株式会社,神奈川県,横浜市旭区,二俣川２丁目１０番地,,14,112,2410821,,,,,,,2024-12-12,1,,,,,フォートゥー,0
1957,9030001163909,新規,0,2024-12-12,2024-12-12,リンダン株式会社,,株式会社,埼玉県,川口市,並木３丁目１７番５－２０２号ＰＡＲＫ・ＳＱＵＡＲＥ西川口,,11,203,3320034,,,,,,,2024-12-12,1,,,,,リンダン,0
1958,9030001163925,新規,0,2024-12-12,2024-12-12,株式会社ブル,,株式会社,埼玉県,入間郡越生町,大字越生７９５番地６,,11,327,3500416,,,,,,,2024-12-12,1,,,,,ブル,0
1964,9030003025652,新規,0,2024-12-12,2024-12-12,ＡＡ　ＴＲＡＤＩＮＧＳ合同会社,,合同会社,埼玉県,ふじみ野市,上福岡５丁目５番２３号,,11,245,3560004,,,,,,,2024-12-12,1,,,,,エーエートレーディングス,0
1965,9030003025669,新規,0,2024-12-12,2024-12-12,合同会社エスタイガー,,合同会社,埼玉県,さいたま市大宮区,桜木町２丁目３番地大宮マルイ７階,,11,103,3300854,,,,,,,2024-12-12,1,,,,,エスタイガー,0
1966,9030003025677,新規,0,2024-12-12,2024-12-12,銘仁合同会社,,合同会社,埼玉県,川口市,上青木西２丁目１１番８－２０２号,,11,203,3330845,,,,,,,2024-12-12,1,,,,,メイジン,0
1969,9040001136533,新規,0,2024-12-12,2024-12-12,株式会社アントモス,,株式会社,千葉県,鎌ケ谷市,鎌ケ谷７丁目５番４０号,,12,224,2730105,,,,,,,2024-12-12,1,,,,,アントモス,0
1975,9040003026377,新規,0,2024-12-12,2024-12-12,合同会社みつばち園芸,,合同会社,千葉県,南房総市,千倉町瀬戸２４７４番地,,12,234,2950004,,,,,,,2024-12-12,1,,,,,ミツバチエンゲイ,0
1981,9050001055831,新規,0,2024-12-12,2024-12-12,株式会社ＶＯＹＡＧＥ,,株式会社,茨城県,取手市,戸頭９丁目８番１４－４号,,08,217,3020034,,,,,,,2024-12-12,1,,,,,ボヤージュ,0
1982,9050001055848,新規,0,2024-12-12,2024-12-12,リスタート株式会社,,株式会社,茨城県,守谷市,松並青葉２丁目２２番地２,,08,224,3020132,,,,,,,2024-12-12,1,,,,,リスタート,0
1993,9080105006471,新規,0,2024-12-12,2024-12-12,一般社団法人Ｉ‐ＣＯＲＥ,,その他の設立登記法人,静岡県,伊豆市,堀切５７８‐２,,22,222,4102418,,,,,,,2024-12-12,1,,,,,アイコア,0
1996,9100001038120,新規,0,2024-12-12,2024-12-12,木林森実業発展株式会社,,株式会社,長野県,上田市,中央北３丁目３番２９号,,20,203,3860011,,,,,,,2024-12-12,1,,,,,ムリンセンジツギョウハッテン,0
2001,9110001038912,新規,0,2024-12-12,2024-12-12,株式会社ルクセコ,,株式会社,新潟県,柏崎市,大字大沢２８７番地,,15,205,9451438,,,,,,,2024-12-12,1,,,,,ルクセコ,0
2012,9120001270415,新規,0,2024-12-12,2024-12-12,株式会社ドッグガード,,株式会社,大阪府,大阪市北区,梅田１丁目１－３大阪駅前第３ビル２３０７,,27,127,5300001,,,,,,,2024-12-12,1,,,,,ドッグガード,0
2013,9120001270877,新規,0,2024-12-12,2024-12-12,瑞金株式会社,,株式会社,大阪府,大阪市阿倍野区,昭和町１丁目５番２６－４０２号,,27,119,5450011,,,,,,,2024-12-12,1,,,,,ミズキン,0
2014,9120001271000,新規,0,2024-12-12,2024-12-12,株式会社ＳＹＭ,,株式会社,大阪府,枚方市,北山１丁目７６－２１,,27,210,5730171,,,,,,,2024-12-12,1,,,,,エスワイエム,0
2015,9120001271025,新規,0,2024-12-12,2024-12-12,ミライグローバル株式会社,,株式会社,大阪府,大阪市西区,西本町１丁目５番１３号山本ビル３０７室,,27,106,5500005,,,,,,,2024-12-12,1,,,,,ミライグローバル,0
2016,9120001271066,新規,0,2024-12-12,2024-12-12,株式会社承智,,株式会社,大阪府,大阪市西成区,南津守３丁目２番９号,,27,122,5570063,,,,,,,2024-12-12,1,,,,,ショウチ,0
2022,9120003028142,新規,0,2024-12-12,2024-12-12,合同会社ＵＮＮ,,合同会社,大阪府,大阪市中央区,材木町２番３－６０６号,,27,128,5400010,,,,,,,2024-12-12,1,,,,,ユーエヌエヌ,0
2024,9120005024651,新規,0,2024-12-12,2024-12-12,一般社団法人ＢＬＣＣ,,その他の設立登記法人,大阪府,大阪市天王寺区,勝山２丁目１９－１,,27,109,5430043,,,,,,,2024-12-12,1,,,,,,0
2027,9120101070756,新規,0,2024-12-12,2024-12-12,株式会社グランリンクス,,株式会社,大阪府,堺市北区,北花田町２丁２１０－１－２０１,,27,146,5918002,,,,,,,2024-12-12,1,,,,,グランリンクス,0
2031,9130001078576,新規,0,2024-12-12,2024-12-12,株式会社Ｃｌａｉｒ　ｄｅ　Ｌｕｎｅ,,株式会社,京都府,京都市中京区,三条通河原町東入中島町９２番地ＴＩＭＥ’Ｓ,,26,104,6048004,,,,,,,2024-12-12,1,,,,,クレールドゥリュンヌ,0
2032,9130003010066,新規,0,2024-12-12,2024-12-12,合同会社ｏｒａｎｇｅ,,合同会社,京都府,京都市下京区,柿本町７００－１－１０７,,26,106,6008357,,,,,,,2024-12-12,1,,,,,オレンジ,0
2033,9130003010074,新規,0,2024-12-12,2024-12-12,新日本デザイン研究所合同会社,,合同会社,京都府,京都市上京区,烏丸通上御霊前下る東入相国寺門前町６７０番地８,,26,102,6020898,,,,,,,2024-12-12,1,,,,,シンニホンデザインケンキュウショ,0
2039,9140001136663,新規,0,2024-12-12,2024-12-12,株式会社ＴＲＥＯ,,株式会社,兵庫県,佐用郡佐用町,円光寺８６番地１,,28,501,6795642,,,,,,,2024-12-12,1,,,,,トレオ,0
2040,9140001136696,新規,0,2024-12-12,2024-12-12,株式会社ＴＪワークス,,株式会社,兵庫県,伊丹市,荒牧南３丁目４番１５号,,28,207,6640008,,,,,,,2024-12-12,1,,,,,ティジェイワークス,0
2046,9150001027738,新規,0,2024-12-12,2024-12-12,株式会社プラス,,株式会社,奈良県,北葛城郡広陵町,大字南郷３２０番地,,29,426,6350814,,,,,,,2024-12-12,1,,,,,プラス,0
2053,9180301039323,新規,0,2024-12-12,2024-12-12,ＨＡＲＥＹＡ株式会社,,株式会社,愛知県,豊橋市,三本木町字新東上６７番地１,,23,201,4418152,,,,,,,2024-12-12,1,,,,,ハレヤ,0
2057,9200001043226,新規,0,2024-12-12,2024-12-12,株式会社ＳＷＡＧ,,株式会社,岐阜県,関市,倉知４３４４番地１,,21,205,5013936,,,,,,,2024-12-12,1,,,,,スワッグ,0
2067,9240003006978,新規,0,2024-12-12,2024-12-12,合同会社テトテブルーノ,,合同会社,広島県,安芸郡熊野町,出来庭５丁目１０－６,,34,307,7314221,,,,,,,2024-12-12,1,,,,,テトテブルーノ,0
2081,9290001108268,新規,0,2024-12-12,2024-12-12,株式会社ＥｏｎｅＭ,,株式会社,福岡県,大野城市,山田２丁目８番２９号ＹＡＰ１Ｆ,,40,219,8160922,,,,,,,2024-12-12,1,,,,,イーワンエム,0
2082,9290003016171,新規,0,2024-12-12,2024-12-12,合同会社ＮＡＶＹｂｒｅｗ,,合同会社,福岡県,福岡市東区,千早５丁目１１－２６－１１１４,,40,131,8130044,,,,,,,2024-12-12,1,,,,,ネイビーブルー,0
2086,9290803004920,新規,0,2024-12-12,2024-12-12,ＷＵＫＯＮＧ合同会社,,合同会社,福岡県,北九州市小倉北区,東城野町１０－３２,,40,106,8020054,,,,,,,2024-12-12,1,,,,,ウーコン,0
2090,9330003010681,新規,0,2024-12-12,2024-12-12,合同会社田中企画,,合同会社,熊本県,玉名市,岱明町野口１４番地１,,43,206,8690222,,,,,,,2024-12-12,1,,,,,タナカキカク,0
2092,9340005009795,新規,0,2024-12-12,2024-12-12,ワーカーズ・ＨＩＯＫＩ労働者協同組合,,その他の設立登記法人,鹿児島県,日置市,伊集院町妙円寺１丁目１１－３,,46,216,8992503,,,,,,,2024-12-12,1,,,,,ワーカーズヒオキ,0
2093,9350001019319,新規,0,2024-12-12,2024-12-12,モミジウェブ株式会社,,株式会社,宮崎県,児湯郡川南町,大字川南１３６７３番地２フローデソンシャＹＳ３０６号,,45,405,8891301,,,,,,,2024-12-12,1,,,,,モミジウェブ,0
2096,9370001052037,新規,0,2024-12-12,2024-12-12,株式会社ＲｅＡｒｃ,,株式会社,宮城県,仙台市宮城野区,榴岡４丁目６番２３号今野ビル２Ｆ,,04,102,9830852,,,,,,,2024-12-12,1,,,,,リアーク,0
2104,9420001018949,新規,0,2024-12-12,2024-12-12,株式会社北日本不動産,,株式会社,青森県,むつ市,大平町２２番７号,,02,208,0350083,,,,,,,2024-12-12,1,,,,,キタニホンフドウサン,0
2108,9430001093256,新規,0,2024-12-12,2024-12-12,株式会社黎明アセット,,株式会社,北海道,札幌市中央区,南八条西２２丁目４番１０号,,01,101,0640808,,,,,,,2024-12-12,1,,,,,レイメイアセット,0
2114,9480005007050,新規,0,2024-12-12,2024-12-12,四国技能養成協同組合,,その他の設立登記法人,徳島県,阿波市,吉野町西条字北須賀１４５番地１,,36,206,7711402,,,,,,,2024-12-12,1,,,,,シコクギノウヨウセイ,0
2117,9700150128207,新規,0,2024-12-12,2024-12-12,ＨｅＦｅｉＣｈｅｎＹｕＴｉＹｕＫｅＪｉＹｏｕＸｉａｎＧｏｎｇＳｉ,,外国会社等,,,,,,,,ａｎｈｕｉｓｈｅｎｇｈｅｆｅｉｓｈｉｓｈｕｓｈａｎｑｕｈｕｇｕａｎｇｌｕｙｕｙｕｌｅｉｌｕｊｉａｏｃｈａｋｏｕｋｕａｊｉｎｇｄｉａｎｓｈａｎｇｊｉａｎｇｕａｎｑｕ７＃ｌｏｕ４ｃｅｎｇ４０５ｓｈｉ,,,,,,2024-12-12,1,,,,,ヘフェイチェンユタイイクカギヨウシエンゴンスー,0
