sequenceNumber,corporateNumber,process,correct,updateDate,changeDate,name,nameImageId,kind,prefectureName,cityName,streetNumber,addressImageId,prefectureCode,cityCode,postCode,addressOutside,addressOutsideImageId,closeDate,closeCause,successorCorporateNumber,changeCause,assignmentDate,latest,enName,enPrefectureName,enCityName,enAddressOutside,furigana,hihyoji
5,1010003036238,登記記録の閉鎖等,0,2024-10-21,2024-10-04,合同会社ＶＰＳ,,合同会社,東京都,中央区,八丁堀４丁目２番１０号ＡＯＪ税理士法人内,,13,102,1040032,,,2024-10-04,清算の結了等,,,2021-11-10,1,,,,,ブイピーエス,0
9,1010401096932,登記記録の閉鎖等,0,2024-10-21,2024-10-03,株式会社Ｂｅｌｉｅｖｅ,,株式会社,東京都,中央区,日本橋横山町３番４,,13,102,1030003,,,2024-10-03,合併による解散等,4010401123774,令和６年１０月１日東京都中央区日本橋横山町３番４株式会社ＦＲＥＥ（4010401123774）に合併し解散,2015-10-05,1,,,,,ビリーブ,0
10,1010401123513,登記記録の閉鎖等,0,2024-10-21,2024-10-01,ロボットロジスティクス株式会社,,株式会社,東京都,港区,海岸１丁目７番１号,,13,103,1050022,,,2024-10-01,清算の結了等,,,2016-03-08,1,,,,,ロボットロジスティクス,0
11,1010401164846,登記記録の閉鎖等,0,2024-10-21,2024-09-27,株式会社ｅｎｉｓｈｉ,,株式会社,東京都,港区,西新橋３丁目１４番８－９０５号,,13,103,1050003,,,2024-09-27,清算の結了等,,,2022-01-14,1,,,,,エニシ,0
14,1010403024412,登記記録の閉鎖等,0,2024-10-21,2024-09-30,合同会社ＮｏｄｅＴＥＣＨ．,,合同会社,東京都,港区,南青山２丁目２番１５号,,13,103,1070062,,,2024-09-30,清算の結了等,,,2021-01-04,1,,,,,ノードテック,0
17,1010601035104,登記記録の閉鎖等,0,2024-10-21,2024-10-09,株式会社アス,,株式会社,東京都,江東区,亀戸７丁目３９番１１－３０３号,,13,108,1360071,,,2024-10-09,清算の結了等,,,2015-10-05,1,,,,,アス,0
40,1011301000777,登記記録の閉鎖等,0,2024-10-21,2024-10-02,岩通ネットワークソリューション株式会社,,株式会社,東京都,杉並区,久我山１丁目７番４１号,,13,115,1680082,,,2024-10-02,合併による解散等,9011301000786,令和６年１０月１日東京都杉並区久我山一丁目７番４１号岩崎通信機株式会社（9011301000786）に合併し解散,2015-10-05,1,,,,,イワツウネットワークソリューション,0
48,1011801009070,登記記録の閉鎖等,0,2024-10-21,2024-10-11,株式会社関製作所,,株式会社,東京都,足立区,千住大川町３３番１０号,,13,121,1200031,,,2024-10-11,清算の結了等,,,2015-10-05,1,,,,,セキセイサクジョ,0
56,1012403002835,登記記録の閉鎖等,0,2024-10-21,2024-10-21,Ｍ＆Ｓ　ＹＡＭＡＤＡコンサルタンツ合同会社,,合同会社,東京都,武蔵野市,吉祥寺南町２丁目２５番７号,,13,203,1800003,,,2024-10-21,清算の結了等,,,2016-09-28,1,,,,,エムアンドエスヤマダコンサルタンツ,0
57,1012701015233,登記記録の閉鎖等,0,2024-10-21,2024-10-16,株式会社アスイチ,,株式会社,東京都,東久留米市,柳窪３丁目２番３５号１階Ａ号室,,13,222,2030044,,,2024-10-16,合併による解散等,6020001028306,令和６年１０月１日横浜市中区太田町四丁目４６番地野中貿易株式会社（6020001028306）に合併し解散,2019-03-01,1,,,,,アスイチ,0
62,1013402003213,登記記録の閉鎖等,0,2024-10-21,2024-10-16,有限会社稲城製作所,,有限会社,東京都,稲城市,押立１１３７番地,,13,225,2060811,,,2024-10-16,清算の結了等,,,2015-10-05,1,,,,,イナギセイサクショ,0
83,1030001097008,登記記録の閉鎖等,0,2024-10-21,2024-10-09,株式会社グラント,,株式会社,埼玉県,川口市,差間２丁目１１番８号,,11,203,3330816,,,2024-10-09,清算の結了等,,,2015-10-05,1,,,,,グラント,0
95,1040001028696,登記記録の閉鎖等,0,2024-10-21,2024-10-10,株式会社ショーエーテクニカ,,株式会社,千葉県,市川市,北国分３丁目３番１６号,,12,203,2720836,,,2024-10-10,清算の結了等,,,2015-10-05,1,,,,,ショーエーテクニカ,0
106,1050001050501,登記記録の閉鎖等,0,2024-10-21,2024-10-10,株式会社大洗ダイカツ,,株式会社,茨城県,東茨城郡大洗町,五反田４５４番地１,,08,309,3111306,,,2024-10-10,清算の結了等,,,2022-01-24,1,,,,,オオアライダイカツ,0
113,1080401026610,登記記録の閉鎖等,0,2024-10-21,2024-10-15,株式会社らいおんハート,,株式会社,静岡県,湖西市,新所・岡崎・梅田入会地６番地の１１０,,22,221,4310423,,,2024-10-15,清算の結了等,,,2023-07-20,1,,,,,ライオンハート,0
118,1110002003971,登記記録の閉鎖等,0,2024-10-21,2024-10-10,有限会社団クリエイティブ,,有限会社,新潟県,新潟市中央区,長潟３丁目７番２１号,,15,103,9500932,,,2024-10-10,清算の結了等,,,2015-10-05,1,,,,,ダンクリエイティブ,0
122,1120001152843,登記記録の閉鎖等,0,2024-10-21,2024-10-17,株式会社スリフトジャパン,,株式会社,大阪府,羽曳野市,恵我之荘２丁目９番３号,,27,222,5830886,,,2024-10-17,清算の結了等,,,2015-10-05,1,,,,,スリフトジャパン,0
134,1120101007914,登記記録の閉鎖等,0,2024-10-21,2024-10-08,ロイヤル第一交通株式会社,,株式会社,大阪府,堺市西区,草部１１４０番地１,,27,144,5938312,,,2024-10-08,合併による解散等,5120101005096,令和６年１０月１日大阪府堺市堺区神南辺町一丁４５番地１大阪第一交通株式会社（5120101005096）に合併し解散,2015-10-05,1,,,,,ロイヤルダイイチコウツウ,0
141,1130001071687,登記記録の閉鎖等,0,2024-10-21,2024-10-03,Ｂｉｚｉｏｎ株式会社,,株式会社,東京都,港区,虎ノ門３丁目１８番１９号,,13,103,1050001,,,2024-10-03,合併による解散等,6011001132081,令和６年１０月１日東京都港区虎ノ門三丁目１８番１９号株式会社ＲｏｃｋｅｔＳｔａｒｔｅｒ（6011001132081）に合併し解散,2022-05-09,1,,,,,ビジョン,0
146,1140001039634,登記記録の閉鎖等,0,2024-10-21,2024-10-17,相生興産株式会社,,株式会社,兵庫県,相生市,若狭野町野々１１８２番地,,28,208,6780082,,,2024-10-17,清算の結了等,,,2015-10-05,1,,,,,アイオイコウサン,0
150,1140002026631,登記記録の閉鎖等,0,2024-10-21,2024-10-15,有限会社アイディアル,,有限会社,兵庫県,神戸市中央区,楠町３丁目１０番１６号,,28,110,6500017,,,2024-10-15,清算の結了等,,,2015-10-05,1,,,,,アイディアル,0
166,1190002023161,登記記録の閉鎖等,0,2024-10-21,2024-10-17,有限会社アイムス,,有限会社,三重県,四日市市,城山町３番１８号,,24,202,5100015,,,2024-10-17,清算の結了等,,,2015-10-05,1,,,,,アイムス,0
204,1340001015532,登記記録の閉鎖等,0,2024-10-21,2024-10-17,株式会社創企堂,,株式会社,鹿児島県,鹿児島市,船津町１番地１１,,46,201,8920831,,,2024-10-17,清算の結了等,,,2015-10-05,1,,,,,ソウキドウ,0
205,1360001027237,登記記録の閉鎖等,0,2024-10-21,2024-10-17,株式会社ＭＳエンタープライズ,,株式会社,沖縄県,那覇市,字天久８８３番地２号－７０１,,47,201,9000005,,,2024-10-17,清算の結了等,,,2020-05-26,1,,,,,エムエスエンタープライズ,0
213,1380002001032,登記記録の閉鎖等,0,2024-10-21,2024-10-03,有限会社キムラ印刷,,有限会社,福島県,福島市,堀河町４番２２号,,07,201,9608137,,,2024-10-03,清算の結了等,,,2015-10-05,1,,,,,キムラインサツ,0
230,1430001015242,登記記録の閉鎖等,0,2024-10-21,2024-10-10,扶洋マネージメントサービス株式会社,,株式会社,北海道,札幌市中央区,南一条西１２丁目４番地,,01,101,0600061,,,2024-10-10,合併による解散等,6120001047089,令和６年１０月１日東京都新宿区西新宿六丁目１４－１新宿グリーンタワービル１５階株式会社フヨウサキナ（6120001047089）に合併し解散,2015-10-05,1,,,,,フヨウマネージメントサービス,0
235,1430002003304,登記記録の閉鎖等,0,2024-10-21,2024-10-17,株式会社えび膳,,株式会社,北海道,札幌市中央区,南十九条西１５丁目１番３号,,01,101,0640919,,,2024-10-17,清算の結了等,,,2015-10-05,1,,,,,,0
244,2010001110522,登記記録の閉鎖等,0,2024-10-21,2024-10-03,株式会社アイ・ティー・エム,,株式会社,東京都,千代田区,神田和泉町１番７号６,,13,101,1010024,,,2024-10-03,清算の結了等,,,2015-10-05,1,,,,,アイティーエム,0
246,2010001181860,登記記録の閉鎖等,0,2024-10-21,2024-10-16,株式会社ＭＩＣＨＩＫＯ,,株式会社,東京都,千代田区,紀尾井町１番５－２００２号,,13,101,1020094,,,2024-10-16,合併による解散等,5010401077912,令和６年１０月１日東京都港区赤坂五丁目３番１号アイング株式会社（5010401077912）に合併し解散,2017-03-07,1,,,,,ミチコ,0
259,2010401010883,登記記録の閉鎖等,0,2024-10-21,2024-10-01,佐伯商事株式会社,,株式会社,東京都,港区,新橋１丁目１８番１５号,,13,103,1050004,,,2024-10-01,清算の結了等,,,2015-10-05,1,,,,,サエキショウジ,0
260,2010401059054,登記記録の閉鎖等,0,2024-10-21,2024-10-03,株式会社カードメイツ,,株式会社,神奈川県,川崎市幸区,新川崎２番１号,,14,132,2120032,,,2024-10-03,合併による解散等,6010401018898,令和６年１０月１日川崎市幸区新川崎２番１号株式会社日本カードクリエーション（6010401018898）に合併し解散,2015-10-05,1,,,,,カードメイツ,0
299,2011301008126,登記記録の閉鎖等,0,2024-10-21,2024-10-10,株式会社舛岡秀樹事務所,00054427,株式会社,東京都,杉並区,阿佐谷南１丁目８番３号,,13,115,1660004,,,2024-10-10,清算の結了等,,,2015-10-05,1,,,,,マスオカヒデキジムショ,0
307,2012401003958,登記記録の閉鎖等,0,2024-10-21,2024-10-07,株式会社早川電機商会,,株式会社,東京都,国立市,東２丁目８番地の４,,13,215,1860002,,,2024-10-07,清算の結了等,,,2015-10-05,1,,,,,ハヤカワデンキショウカイ,0
320,2020003009869,登記記録の閉鎖等,0,2024-10-21,2024-09-30,合同会社まちだエステート,,合同会社,東京都,港区,高輪３丁目１０番２号グラスプラス高輪,,13,103,1080074,,,2024-09-30,合併による解散等,6011203001836,令和６年９月２８日東京都港区高輪三丁目１０番２号グラスプラス高輪ショウレジデンシャル合同会社（6011203001836）に合併し解散,2015-10-05,1,,,,,マチダエステート,0
342,2040002011832,登記記録の閉鎖等,0,2024-10-21,2024-10-11,有限会社矢島印刷工業,,有限会社,千葉県,千葉市若葉区,千城台東３丁目３５番２号,,12,104,2640002,,,2024-10-11,清算の結了等,,,2015-10-05,1,,,,,ヤジマインサツコウギョウ,0
343,2040002047133,登記記録の閉鎖等,0,2024-10-21,2024-10-11,有限会社タナベ測量設計事務所,,有限会社,千葉県,松戸市,大金平５丁目４１６番地の１,,12,207,2700006,,,2024-10-11,清算の結了等,,,2015-10-05,1,,,,,タナベソクリョウセッケイジムショ,0
371,2120001119131,登記記録の閉鎖等,0,2024-10-21,2024-10-17,ＫＡＩＳＯ株式会社,,株式会社,大阪府,堺市北区,北長尾町１丁５番１３号ベルロッソ２０２,,27,146,5918043,,,2024-10-17,清算の結了等,,,2015-10-05,1,,,,,,0
373,2120001168954,登記記録の閉鎖等,0,2024-10-21,2024-10-11,壽圭株式会社,,株式会社,大阪府,大阪市中央区,東心斎橋１丁目１７番３号,,27,128,5420083,,,2024-10-11,清算の結了等,,,2015-10-05,1,,,,,ジュケイ,0
381,2130002029452,登記記録の閉鎖等,0,2024-10-21,2024-10-17,有限会社ヤマグチテック,,有限会社,京都府,亀岡市,篠町篠下西裏２７番地１,,26,206,6210826,,,2024-10-17,清算の結了等,,,2015-10-05,1,,,,,ヤマグチテック,0
383,2140001110831,登記記録の閉鎖等,0,2024-10-21,2024-10-16,株式会社ＣＲＡＣＥＥＤ,,株式会社,兵庫県,姫路市,四郷町本郷３７７番地１,,28,201,6710243,,,2024-10-16,清算の結了等,,,2018-08-01,1,,,,,クラシード,0
388,2150001020014,登記記録の閉鎖等,0,2024-10-21,2024-10-18,株式会社ＨＡＲＤＢＡＳＥ,,株式会社,奈良県,北葛城郡広陵町,大字中１５５番地１,,29,426,6350816,,,2024-10-18,清算の結了等,,,2015-10-05,1,,,,,,0
392,2180001019490,登記記録の閉鎖等,0,2024-10-21,2024-10-04,株式会社三基工作所,,株式会社,愛知県,名古屋市中川区,松年町４丁目８２番地,,23,110,4540854,,,2024-10-04,清算の結了等,,,2015-10-05,1,,,,,ミツモトコウサクショ,0
393,2180001038053,登記記録の閉鎖等,0,2024-10-21,2024-10-02,中部管楽器株式会社,,株式会社,愛知県,名古屋市瑞穂区,山下通５丁目５番地,,23,108,4670062,,,2024-10-02,清算の結了等,,,2015-10-05,1,,,,,チュウブカンガッキ,0
394,2180001039877,登記記録の閉鎖等,0,2024-10-21,2024-10-02,株式会社花甚,,株式会社,愛知県,名古屋市中区,栄５丁目１２番３２号,,23,106,4600008,,,2024-10-02,清算の結了等,,,2015-10-05,1,,,,,ハナジン,0
395,2180001061162,登記記録の閉鎖等,0,2024-10-21,2024-10-04,株式会社パル,,株式会社,愛知県,名古屋市西区,幅下２丁目１０番３号,,23,104,4510041,,,2024-10-04,清算の結了等,,,2015-10-05,1,,,,,パル,0
406,2180001161697,登記記録の閉鎖等,0,2024-10-21,2024-10-11,桑名金属工業準備株式会社,,株式会社,愛知県,名古屋市中区,栄２丁目４番１８号,,23,106,4600008,,,2024-10-11,合併による解散等,5010601065171,令和６年１０月１日三重県桑名市大字大福２番地桑名金属工業株式会社（5010601065171）に合併し解散,2024-05-27,1,,,,,クワナキンゾクコウギョウジュンビ,0
413,2180002056764,登記記録の閉鎖等,0,2024-10-21,2024-10-03,有限会社鈴木設備,,有限会社,愛知県,名古屋市中村区,鳥居通３丁目３９番地サンパーク本陣３０５号,,23,105,4530044,,,2024-10-03,清算の結了等,,,2015-10-05,1,,,,,スズキセツビ,0
432,2290001022541,登記記録の閉鎖等,0,2024-10-21,2024-10-01,株式会社コスモサプライ,,株式会社,福岡県,福岡市東区,多の津４丁目７番５号,,40,131,8130034,,,2024-10-01,合併による解散等,7290001089246,令和６年１０月１日福岡市東区多の津四丁目７番５号株式会社ネクステラ（7290001089246）に合併し解散,2015-10-05,1,,,,,コスモサプライ,0
433,2290001022574,登記記録の閉鎖等,0,2024-10-21,2024-10-03,株式会社パラコム,,株式会社,福岡県,福岡市博多区,吉塚５丁目１７番３９－１００１号,,40,132,8120041,,,2024-10-03,清算の結了等,,,2015-10-05,1,,,,,パラコム,0
436,2290001076281,登記記録の閉鎖等,0,2024-10-21,2024-09-10,ＹＭＳ株式会社,,株式会社,福岡県,福岡市東区,和白東４丁目２番７号,,40,131,8110214,,,2024-09-10,清算の結了等,,,2017-01-06,1,,,,,ワイエムエス,0
437,2290001087799,登記記録の閉鎖等,0,2024-10-21,2024-09-13,株式会社Ｚ　Ｆａｃｔｏｒｙ,,株式会社,福岡県,古賀市,青柳町１１９番地１,,40,223,8113133,,,2024-09-13,清算の結了等,,,2020-01-21,1,,,,,ゼットファクトリー,0
442,2290002040245,登記記録の閉鎖等,0,2024-10-21,2024-09-17,有限会社みかさ薬品,,有限会社,福岡県,大野城市,山田４丁目１１番２号,,40,219,8160922,,,2024-09-17,清算の結了等,,,2015-10-05,1,,,,,ミカサヤクヒン,0
453,2290801020769,登記記録の閉鎖等,0,2024-10-21,2024-10-01,株式会社クリアウォーター,,株式会社,福岡県,北九州市小倉北区,米町２丁目１番２号,,40,106,8020003,,,2024-10-01,合併による解散等,2290801020760,令和６年１０月１日北九州市小倉北区米町二丁目１番２号株式会社最上鮮魚（2290801020760）に合併し解散,2015-10-05,1,,,,,クリアウォーター,0
461,2330002023526,登記記録の閉鎖等,0,2024-10-21,2024-10-08,有限会社オパール・ドゥ,,有限会社,熊本県,阿蘇郡高森町,大字高森１３０８番地３,,43,428,8691602,,,2024-10-08,清算の結了等,,,2015-10-05,1,,,,,オパールドゥ,0
476,2380002003119,登記記録の閉鎖等,0,2024-10-21,2024-10-03,有限会社フレッシュテック,,有限会社,福島県,福島市,瀬上町字町尻８９番地の３,,07,201,9600101,,,2024-10-03,清算の結了等,,,2015-10-05,1,,,,,フレッシュテック,0
477,2380002013613,登記記録の閉鎖等,0,2024-10-21,2024-10-03,有限会社マルニ急送,,有限会社,福島県,郡山市,成山町３６番地の１４,,07,203,9630106,,,2024-10-03,清算の結了等,,,2015-10-05,1,,,,,マルニキュウソウ,0
487,2430002044099,登記記録の閉鎖等,0,2024-10-21,2024-10-17,有限会社とみき,,有限会社,北海道,石狩市,八幡４丁目４番地,,01,235,0613361,,,2024-10-17,清算の結了等,,,2015-10-05,1,,,,,トミキ,0
513,3010401159084,登記記録の閉鎖等,0,2024-10-21,2024-09-26,株式会社Ｂｉｎｔｅｃｈ,,株式会社,東京都,港区,浜松町２丁目２－１５浜松町ダイヤビル２Ｆ,,13,103,1050013,,,2024-09-26,清算の結了等,,,2021-03-31,1,,,,,ビンテック,0
522,3010502003050,登記記録の閉鎖等,0,2024-10-21,2024-10-04,有限会社金龍山浅草餅本舖,00051254,有限会社,東京都,台東区,浅草２丁目３番１号,,13,106,1110032,,,2024-10-04,清算の結了等,,,2015-10-05,1,,,,,キンリュウザンアサクサモチホンポ,0
529,3010903005785,登記記録の閉鎖等,0,2024-10-21,2024-10-11,合同会社ブレイブマウンテン,,合同会社,東京都,世田谷区,尾山台２丁目１６番７号,,13,112,1580086,,,2024-10-11,清算の結了等,,,2020-07-01,1,,,,,ブレイブマウンテン,0
545,3011201012747,登記記録の閉鎖等,0,2024-10-21,2024-10-18,株式会社アクティブ,,株式会社,東京都,中野区,本町６丁目２１番１６号,,13,114,1640012,,,2024-10-18,清算の結了等,,,2015-10-05,1,,,,,,0
550,3011503003345,登記記録の閉鎖等,0,2024-10-21,2024-10-17,合同会社スギモト,,合同会社,東京都,荒川区,西日暮里６丁目１２番１０号,,13,118,1160013,,,2024-10-17,清算の結了等,,,2017-08-03,1,,,,,スギモト,0
556,3011802029925,登記記録の閉鎖等,0,2024-10-21,2024-10-04,有限会社ビーアールマネジメント,,有限会社,東京都,文京区,関口２丁目７番３－３０７号,,13,105,1120014,,,2024-10-04,清算の結了等,,,2015-10-05,1,,,,,ビーアールマネジメント,0
557,3012301009204,登記記録の閉鎖等,0,2024-10-21,2024-10-11,株式会社Ｃ＆Ｄ,,株式会社,東京都,町田市,鶴間４丁目８番１－６０８号,,13,209,1940004,,,2024-10-11,清算の結了等,,,2015-10-05,1,,,,,シーアンドディー,0
560,3013201010953,登記記録の閉鎖等,0,2024-10-21,2024-09-30,チェッカーモータース株式会社,,株式会社,東京都,港区,芝５丁目１３番１５号,,13,103,1080014,,,2024-09-30,合併による解散等,7010801022094,令和６年９月３０日東京都港区芝五丁目１３番１５号ウイルプラスチェッカーモータース株式会社（7010801022094）に合併し解散,2015-10-05,1,,,,,チェッカーモータース,0
562,3013301015951,登記記録の閉鎖等,0,2024-10-21,2024-10-15,ユニシステム株式会社,,株式会社,東京都,豊島区,目白２丁目１６番２０号,,13,116,1710031,,,2024-10-15,合併による解散等,2010001095739,令和６年１０月１日東京都中央区日本橋本町四丁目８番１４号株式会社マーブル（2010001095739）に合併し解散,2015-10-05,1,,,,,ユニシステム,0
563,3013301028508,登記記録の閉鎖等,0,2024-10-21,2024-10-15,エヌ・ティ・ティ・システム開発株式会社,,株式会社,東京都,豊島区,目白２丁目１６番２０号,,13,116,1710031,,,2024-10-15,合併による解散等,2010001095739,令和６年１０月１日東京都中央区日本橋本町四丁目８番１４号株式会社マーブル（2010001095739）に合併し解散,2015-10-05,1,,,,,エヌティティシステムカイハツ,0
566,3020001027756,登記記録の閉鎖等,0,2024-10-21,2024-10-03,常盤工業株式会社,,株式会社,神奈川県,横浜市神奈川区,子安台１丁目１１番５号,,14,102,2210012,,,2024-10-03,清算の結了等,,,2015-10-05,1,,,,,トキワコウギョウ,0
572,3020002045377,登記記録の閉鎖等,0,2024-10-21,2024-10-07,有限会社みらく,,有限会社,神奈川県,横浜市中区,花咲町１丁目４０番地,,14,104,2310063,,,2024-10-07,合併による解散等,4020001125591,令和６年１０月１日横浜市西区宮崎町５８番地１株式会社デブネコ（4020001125591）に合併し解散,2015-10-05,1,,,,,ミラク,0
590,3030002050582,登記記録の閉鎖等,0,2024-10-21,2024-10-09,有限会社ハッピーケアサポート,,有限会社,埼玉県,三郷市,早稲田６丁目３３番地２５,,11,237,3410018,,,2024-10-09,清算の結了等,,,2015-10-05,1,,,,,ハッピーケアサポート,0
613,3080002005391,登記記録の閉鎖等,0,2024-10-21,2024-10-15,有限会社マスダ動物病院,,有限会社,静岡県,静岡市駿河区,中田１丁目３番１６号,,22,102,4228041,,,2024-10-15,清算の結了等,,,2015-10-05,1,,,,,マスダドウブツビョウイン,0
630,3120005001227,登記記録の閉鎖等,0,2024-10-21,2024-10-18,信樂寺,,その他の設立登記法人,大阪府,大阪市東淀川区,元今里北通二丁目４０番地,,27,114,5330000,,,2024-10-18,清算の結了等,,,2015-10-05,1,,,,,,1
633,3120901040906,登記記録の閉鎖等,0,2024-10-21,2024-10-18,株式会社アグレーブ,,株式会社,大阪府,堺市中区,大野芝町１６９番地９,,27,142,5998233,,,2024-10-18,清算の結了等,,,2019-02-05,1,,,,,アグレーブ,0
637,3120903000783,登記記録の閉鎖等,0,2024-10-21,2024-10-04,合資会社工房ラ・ルーシュ,,合資会社,長野県,諏訪郡原村,１７２１７－２２６１,,20,363,3910100,,,2024-10-04,清算の結了等,,,2015-10-05,1,,,,,コウボウ,0
638,3130001036192,登記記録の閉鎖等,0,2024-10-21,2024-10-17,株式会社ワールドビルディング,,株式会社,京都府,亀岡市,追分町大堀７１番地,,26,206,6210804,,,2024-10-17,清算の結了等,,,2015-10-05,1,,,,,ワールドビルディング,0
640,3140002067087,登記記録の閉鎖等,0,2024-10-21,2024-10-16,有限会社高橋建材店,00041469,有限会社,兵庫県,宝塚市,安倉西４丁目３番５号,,28,214,6650825,,,2024-10-16,清算の結了等,,,2015-10-05,1,,,,,タカハシケンザイテン,0
652,3180001029142,登記記録の閉鎖等,0,2024-10-21,2024-10-02,株式会社愛岐汽缶サービス,,株式会社,愛知県,名古屋市中村区,横井１丁目２０４番地,,23,105,4530866,,,2024-10-02,清算の結了等,,,2015-10-05,1,,,,,アイギキカンサービス,0
653,3180001124174,登記記録の閉鎖等,0,2024-10-21,2024-10-07,アンドライツ株式会社,,株式会社,愛知県,瀬戸市,北脇町２１番地の６,,23,204,4890918,,,2024-10-07,清算の結了等,,,2016-07-25,1,,,,,アンドライツ,0
655,3180001134363,登記記録の閉鎖等,0,2024-10-21,2024-10-02,株式会社リガーズ,,株式会社,愛知県,名古屋市守山区,新守町８９番地,,23,113,4630071,,,2024-10-02,清算の結了等,,,2018-11-06,1,,,,,リガーズ,0
656,3180001138991,登記記録の閉鎖等,0,2024-10-21,2024-10-02,株式会社名古屋障害者支援センター,,株式会社,愛知県,名古屋市西区,あし原町２１６番地西区あし原町倉庫付事務所１０２,,23,104,4520823,,,2024-10-02,清算の結了等,,,2019-11-26,1,,,,,ナゴヤショウガイシャシエンセンター,0
665,3180003016460,登記記録の閉鎖等,0,2024-10-21,2024-10-07,合同会社エントロピ豊明,,合同会社,愛知県,豊明市,三崎町三崎４番地５,,23,229,4701124,,,2024-10-07,清算の結了等,,,2015-10-05,1,,,,,エントロピトヨアケ,0
670,3180302026706,登記記録の閉鎖等,0,2024-10-21,2024-10-10,有限会社近藤モータース,,有限会社,愛知県,西尾市,吉良町富好新田井戸後１８番地,,23,213,4440515,,,2024-10-10,清算の結了等,,,2015-10-05,1,,,,,,0
671,3180303003745,登記記録の閉鎖等,0,2024-10-21,2024-10-10,合同会社さくらハウジング,,合同会社,愛知県,豊川市,諏訪３丁目４１番地,,23,207,4420068,,,2024-10-10,清算の結了等,,,2016-12-13,1,,,,,サクラハウジング,0
673,3190005010329,登記記録の閉鎖等,0,2024-10-21,2024-10-16,一般社団法人民話の駅蘇民,,その他の設立登記法人,三重県,伊勢市,二見町松下１３３５番地,,24,203,5190601,,,2024-10-16,清算の結了等,,,2015-10-05,1,,,,,ミンワノエキソミン,0
699,3290002011328,登記記録の閉鎖等,0,2024-10-21,2024-09-11,有限会社水交社,,有限会社,福岡県,福岡市中央区,高砂２丁目１４番２７号,,40,133,8100011,,,2024-09-11,清算の結了等,,,2015-10-05,1,,,,,スイコウシャ,0
704,3300001011392,登記記録の閉鎖等,0,2024-10-21,2024-10-15,ｃｌａｓｓ　ａｒｃｈｉ株式会社,,株式会社,佐賀県,鳥栖市,本鳥栖町５４７番地１,,41,203,8410026,,,2024-10-15,合併による解散等,9300001012848,令和６年１０月１日佐賀県鳥栖市本鳥栖町５４７番地１ｃｈ９株式会社（9300001012848）に合併し解散,2018-08-08,1,,,,,クラスアーキ,0
721,3380005001812,登記記録の閉鎖等,0,2024-10-21,2024-10-04,福島合繊織物協同組合,,その他の設立登記法人,福島県,伊達郡川俣町,大字鶴沢字鍜治内４０番地,,07,308,9601406,,,2024-10-04,清算の結了等,,,2015-10-05,1,,,,,フクシマゴウセンオリモノ,0
736,3450001010181,登記記録の閉鎖等,0,2024-10-21,2024-10-08,株式会社アスピア,,株式会社,北海道,旭川市,台場一条４丁目６番２２号,,01,204,0708071,,,2024-10-08,清算の結了等,,,2015-10-05,1,,,,,,0
738,3470002004354,登記記録の閉鎖等,0,2024-10-21,2024-10-15,有限会社拓勝,,有限会社,香川県,高松市,木太町２４２２番地５,,37,201,7600080,,,2024-10-15,清算の結了等,,,2015-10-05,1,,,,,タクショウ,0
745,3500005001799,登記記録の閉鎖等,0,2024-10-21,2024-10-16,愛媛環境開発事業協同組合,,その他の設立登記法人,愛媛県,松山市,鷹子町６９０番地１,,38,201,7900925,,,2024-10-16,清算の結了等,,,2015-10-05,1,,,,,エヒメカンキョウカイハツ,0
748,4010001061631,登記記録の閉鎖等,0,2024-10-21,2024-10-04,株式会社東京放送通信社,,株式会社,東京都,中央区,日本橋室町１丁目１３番８号,,13,102,1030022,,,2024-10-04,清算の結了等,,,2015-10-05,1,,,,,トウキョウホウソウツウシンシャ,0
749,4010001206459,登記記録の閉鎖等,0,2024-10-21,2024-10-04,株式会社ＩＳＭＯ,,株式会社,東京都,千代田区,富士見２丁目１０番２号,,13,101,1020071,,,2024-10-04,清算の結了等,,,2020-01-08,1,,,,,アイエスエムオウ,0
750,4010001223339,登記記録の閉鎖等,0,2024-10-21,2024-10-03,グリーンＳＡＦ株式会社,,株式会社,東京都,千代田区,一ツ橋２丁目５番５号,,13,101,1010003,,,2024-10-03,清算の結了等,,,2021-12-20,1,,,,,グリーンサフ,0
759,4010002037647,登記記録の閉鎖等,0,2024-10-21,2024-10-04,有限会社シャインデックス,,有限会社,東京都,文京区,本郷３丁目４３番８号,,13,105,1130033,,,2024-10-04,清算の結了等,,,2015-10-05,1,,,,,シャインデックス,0
763,4010401088183,登記記録の閉鎖等,0,2024-10-21,2024-09-30,アガタジャポン株式会社,,株式会社,東京都,港区,六本木７丁目１７－２８,,13,103,1060032,,,2024-09-30,清算の結了等,,,2015-10-05,1,,,,,アガタジャポン,0
764,4010401100996,登記記録の閉鎖等,0,2024-10-21,2024-10-04,株式会社コーディアリー,,株式会社,東京都,中央区,新川１丁目２７番１０号,,13,102,1040033,,,2024-10-04,清算の結了等,,,2015-10-05,1,,,,,コーディアリー,0
768,4010401124913,登記記録の閉鎖等,0,2024-10-21,2024-09-27,株式会社オライム,,株式会社,東京都,港区,六本木３丁目３番９－４０５号,,13,103,1060032,,,2024-09-27,清算の結了等,,,2016-05-23,1,,,,,オライム,0
773,4010401171071,登記記録の閉鎖等,0,2024-10-21,2024-09-26,株式会社Ａｙｅ,,株式会社,東京都,港区,赤坂８丁目１２番１６号ＮＯＺＹ赤坂５０１,,13,103,1070052,,,2024-09-26,清算の結了等,,,2022-12-05,1,,,,,アイ,0
775,4010405018038,登記記録の閉鎖等,0,2024-10-21,2024-10-01,特定目的会社シャインレジデンス,,その他の設立登記法人,東京都,港区,六本木６丁目１０番１号六本木ヒルズ森タワー,,13,103,1060032,,,2024-10-01,清算の結了等,,,2019-08-30,1,,,,,シャインレジデンス,0
781,4010701032196,登記記録の閉鎖等,0,2024-10-21,2024-10-07,ホリマサシティファーム株式会社,,株式会社,東京都,品川区,西五反田１丁目２３番９号,,13,109,1410031,,,2024-10-07,清算の結了等,,,2016-03-28,1,,,,,ホリマサシティファーム,0
797,4011301027025,登記記録の閉鎖等,0,2024-10-21,2024-10-02,岩通ビジネスサービス株式会社,,株式会社,東京都,杉並区,久我山１丁目７番４１号,,13,115,1680082,,,2024-10-02,合併による解散等,9011301000786,令和６年１０月１日東京都杉並区久我山一丁目７番４１号岩崎通信機株式会社（9011301000786）に合併し解散,2021-07-14,1,,,,,イワツウビジネスサービス,0
800,4011502010465,登記記録の閉鎖等,0,2024-10-21,2024-10-16,有限会社長谷川店裝,,有限会社,東京都,荒川区,東日暮里３丁目２０番９号,,13,118,1160014,,,2024-10-16,清算の結了等,,,2015-10-05,1,,,,,ハセガワテンソウ,0
801,4011701022121,登記記録の閉鎖等,0,2024-10-21,2024-10-16,株式会社パワーキッズ,,株式会社,東京都,江戸川区,東葛西１丁目４３番３－１０１号,,13,123,1340084,,,2024-10-16,清算の結了等,,,2018-10-05,1,,,,,パワーキッズ,0
821,4020001052951,登記記録の閉鎖等,0,2024-10-21,2024-10-04,ナイスコミュニティーサービス株式会社,,株式会社,神奈川県,横浜市鶴見区,鶴見中央４丁目３７番１０号,,14,101,2300051,,,2024-10-04,合併による解散等,3020001018458,令和６年１０月１日横浜市鶴見区鶴見中央三丁目２番１３号ナイスコミュニティー株式会社（3020001018458）に合併し解散,2015-10-05,1,,,,,ナイスコミュニティーサービス,0
831,4021001006757,登記記録の閉鎖等,0,2024-10-21,2024-10-18,株式会社クリエイトテクノ,,株式会社,神奈川県,高座郡寒川町,倉見５３６番地,,14,321,2530101,,,2024-10-18,清算の結了等,,,2015-10-05,1,,,,,クリエイトテクノ,0
834,4021002025236,登記記録の閉鎖等,0,2024-10-21,2024-10-18,有限会社ユニオン,,有限会社,神奈川県,相模原市南区,若松１丁目３番１５号,,14,153,2520334,,,2024-10-18,清算の結了等,,,2015-10-05,1,,,,,,0
841,4030001055862,登記記録の閉鎖等,0,2024-10-21,2024-10-09,株式会社エー・ラック,,株式会社,埼玉県,ふじみ野市,元福岡１丁目４番７号,,11,245,3560008,,,2024-10-09,清算の結了等,,,2015-10-05,1,,,,,エーラック,0
844,4030001116276,登記記録の閉鎖等,0,2024-10-21,2024-10-09,山武工業株式会社,,株式会社,埼玉県,東松山市,箭弓町１丁目１８番８号,,11,212,3550028,,,2024-10-09,清算の結了等,,,2016-09-09,1,,,,,ヤマタケコウギョウ,0
874,4080401022805,登記記録の閉鎖等,0,2024-10-21,2024-10-15,株式会社安評センター,,株式会社,静岡県,磐田市,塩新田５８２番地２,,22,211,4371213,,,2024-10-15,合併による解散等,9010001152748,令和６年１０月１日東京都千代田区有楽町一丁目７番１号株式会社トランスジェニック（9010001152748）に合併し解散,2018-03-27,1,,,,,アンピョウセンター,0
882,4120001037091,登記記録の閉鎖等,0,2024-10-21,2024-10-18,株式会社アコード,,株式会社,大阪府,高石市,東羽衣６丁目８番７号,,27,225,5920003,,,2024-10-18,清算の結了等,,,2015-10-05,1,,,,,アコード,0
883,4120001067972,登記記録の閉鎖等,0,2024-10-21,2024-10-15,株式会社鳥羽商会,,株式会社,大阪府,大阪市北区,大淀中１丁目８番４号,,27,127,5310076,,,2024-10-15,清算の結了等,,,2015-10-05,1,,,,,トバショウカイ,0
887,4120001180296,登記記録の閉鎖等,0,2024-10-21,2024-10-11,株式会社東商エステート,,株式会社,大阪府,大阪市東成区,東今里１丁目１番１７号,,27,115,5370011,,,2024-10-11,清算の結了等,,,2015-10-05,1,,,,,,0
907,4120902006335,登記記録の閉鎖等,0,2024-10-21,2024-10-15,有限会社三喜,,有限会社,大阪府,吹田市,江坂町１丁目２２番１０号梓ビル,,27,205,5640063,,,2024-10-15,清算の結了等,,,2015-10-05,1,,,,,サンキ,0
912,4160001008304,登記記録の閉鎖等,0,2024-10-21,2024-10-15,株式会社三協ハウジング,,株式会社,滋賀県,愛知郡愛荘町,中宿１４番地,,25,425,5291314,,,2024-10-15,清算の結了等,,,2015-10-05,1,,,,,サンキョウハウジング,0
916,4180001008624,登記記録の閉鎖等,0,2024-10-21,2024-10-17,株式会社ダイカイ,,株式会社,静岡県,掛川市,淡陽１８－１,,22,213,4360082,,,2024-10-17,合併による解散等,3080001013429,令和６年１０月１日静岡県島田市牛尾１１８番地ティーライフ株式会社（3080001013429）に合併し解散,2015-10-05,1,,,,,ダイカイ,0
929,4180302003522,登記記録の閉鎖等,0,2024-10-21,2024-10-15,有限会社丸明,,有限会社,愛知県,額田郡幸田町,大字逆川字大坪１００番地,,23,501,4440125,,,2024-10-15,清算の結了等,,,2015-10-05,1,,,,,マルアキ,0
955,4260002002840,登記記録の閉鎖等,0,2024-10-21,2024-10-11,有限会社祇園画廊,00003408,有限会社,岡山県,岡山市東区,瀬戸町瀬戸４１－４,,33,103,7090861,,,2024-10-11,清算の結了等,,,2015-10-05,1,,,,,ギオンガロウ,0
956,4290001014792,登記記録の閉鎖等,0,2024-10-21,2024-09-12,株式会社テツコーポレーション,,株式会社,福岡県,福岡市東区,青葉２丁目１７番２号,,40,131,8130025,,,2024-09-12,清算の結了等,,,2015-10-05,1,,,,,テツコーポレーション,0
958,4290001032563,登記記録の閉鎖等,0,2024-10-21,2024-10-08,藤木建設株式会社,,株式会社,福岡県,糟屋郡久山町,大字山田８８３番地７,,40,348,8112502,,,2024-10-08,清算の結了等,,,2015-10-05,1,,,,,フジキケンセツ,0
961,4290002006780,登記記録の閉鎖等,0,2024-10-21,2024-09-09,有限会社佐々木表装店,,有限会社,福岡県,福岡市城南区,長尾４丁目１８番１３号,,40,136,8140123,,,2024-09-09,清算の結了等,,,2015-10-05,1,,,,,ササキヒョウソウテン,0
965,4290003014898,登記記録の閉鎖等,0,2024-10-21,2024-09-10,合同会社アルクス,,合同会社,福岡県,福岡市博多区,博多駅前１丁目２３番２号５Ｆ－Ｂ,,40,132,8120011,,,2024-09-10,清算の結了等,,,2024-01-24,1,,,,,アルクス,0
972,4310001018139,登記記録の閉鎖等,0,2024-10-21,2024-10-11,株式会社ゴーケア,,株式会社,長崎県,諫早市,幸町２９４番地１,,42,204,8540022,,,2024-10-11,清算の結了等,,,2022-11-29,1,,,,,,0
974,4330001007016,登記記録の閉鎖等,0,2024-10-21,2024-10-10,株式会社アトリエ・ＣＩＭ,,株式会社,熊本県,熊本市西区,稗田町２番６４号,00097336,43,103,8600075,,,2024-10-10,清算の結了等,,,2015-10-05,1,,,,,,0
978,4330002025132,登記記録の閉鎖等,0,2024-10-21,2024-10-10,有限会社柿本工務店,,有限会社,熊本県,宇城市,小川町北海東６３番地２,,43,213,8690616,,,2024-10-10,清算の結了等,,,2015-10-05,1,,,,,,0
979,4340001012130,登記記録の閉鎖等,0,2024-10-21,2024-10-16,株式会社Ｆｉｎａｌ　Ｆａｎｔａｓｙ,,株式会社,鹿児島県,姶良市,平松５８７３番地１,,46,225,8995652,,,2024-10-16,清算の結了等,,,2015-10-05,1,,,,,ファイナルファンタジー,0
980,4340001012320,登記記録の閉鎖等,0,2024-10-21,2024-10-17,株式会社菩提,,株式会社,鹿児島県,鹿児島市,谷山港１丁目３番３１号,,46,201,8910131,,,2024-10-17,清算の結了等,,,2015-10-05,1,,,,,,0
996,4370301000856,登記記録の閉鎖等,0,2024-10-21,2024-10-03,株式会社武山組,,株式会社,宮城県,石巻市,桃生町中津山字下四軒４６番地２,,04,202,9860313,,,2024-10-03,清算の結了等,,,2015-10-05,1,,,,,タケヤマグミ,0
1003,4390002005871,登記記録の閉鎖等,0,2024-10-21,2024-10-11,有限会社湯坊開発,,有限会社,山形県,天童市,鎌田本町２丁目２番２１号,,06,210,9940025,,,2024-10-11,合併による解散等,5390002005623,令和６年１０月１日山形県天童市鎌田本町二丁目２番２１号株式会社天童ブルワリー（5390002005623）に合併し解散,2015-10-05,1,,,,,ユボウカイハツ,0
1005,4400002001662,登記記録の閉鎖等,0,2024-10-21,2024-10-04,有限会社写楽館,,有限会社,岩手県,盛岡市,繋字尾入野５４番地４,00091727,03,201,0200055,,,2024-10-04,清算の結了等,,,2015-10-05,1,,,,,シャラクカン,0
1008,4420002015999,登記記録の閉鎖等,0,2024-10-21,2024-10-11,有限会社中央電気工事,,有限会社,青森県,南津軽郡田舎館村,大字前田屋敷字南佃４４番地,,02,367,0381144,,,2024-10-11,清算の結了等,,,2015-10-05,1,,,,,チュウオウデンキコウジ,0
1013,4460102001409,登記記録の閉鎖等,0,2024-10-21,2024-10-16,有限会社ザ・フォーラム,,有限会社,北海道,帯広市,東十条南１１丁目１番地４０,,01,207,0800810,,,2024-10-16,清算の結了等,,,2015-10-05,1,,,,,ザフォーラム,0
1017,5010001084706,登記記録の閉鎖等,0,2024-10-21,2024-10-15,株式会社ティ・ティ・ティ,,株式会社,東京都,荒川区,町屋４丁目２４番１５号,,13,118,1160001,,,2024-10-15,清算の結了等,,,2015-10-05,1,,,,,,0
1021,5010001223338,登記記録の閉鎖等,0,2024-10-21,2024-10-03,グリーンパーク株式会社,,株式会社,東京都,千代田区,一ツ橋２丁目５番５号,,13,101,1010003,,,2024-10-03,清算の結了等,,,2021-12-20,1,,,,,グリーンパーク,0
1024,5010002006907,登記記録の閉鎖等,0,2024-10-21,2024-10-04,有限会社アカウンタンツフィールド,,有限会社,東京都,千代田区,九段南４丁目７番１０号,,13,101,1020074,,,2024-10-04,清算の結了等,,,2015-10-05,1,,,,,アカウンタンツフィールド,0
1033,5010401026010,登記記録の閉鎖等,0,2024-10-21,2024-10-01,株式会社藤屋印刷所,,株式会社,東京都,港区,新橋５丁目１７番９号,,13,103,1050004,,,2024-10-01,清算の結了等,,,2015-10-05,1,,,,,フジヤインサツジョ,0
1057,5011001072774,登記記録の閉鎖等,0,2024-10-21,2024-10-02,ＩＤホールディングス株式会社,,株式会社,神奈川県,川崎市高津区,久本３丁目６番７－３０３号,,14,134,2130011,,,2024-10-02,合併による解散等,2011001105974,令和６年１０月１日川崎市高津区久本三丁目６番地７－３０３号ＩＤ株式会社（2011001105974）に合併し解散,2015-10-05,1,,,,,アイディホールディングス,0
1064,5011003012662,登記記録の閉鎖等,0,2024-10-21,2024-09-26,Ｔｅａｌ　Ｆｌｏｗｅｒ合同会社,,合同会社,東京都,目黒区,碑文谷６丁目７番１号,,13,110,1520003,,,2024-09-26,清算の結了等,,,2021-04-28,1,,,,,ティールフラワー,0
1080,5012801017885,登記記録の閉鎖等,0,2024-10-21,2024-10-01,株式会社ヒューマンヤード,,株式会社,東京都,立川市,錦町６丁目２４番１７号,,13,202,1900022,,,2024-10-01,合併による解散等,9012801004120,令和６年１０月１日東京都立川市錦町六丁目２３番１８号ヒューマンヤード株式会社（9012801004120）に合併し解散,2017-03-28,1,,,,,ヒューマンヤード,0
1082,5013401007467,登記記録の閉鎖等,0,2024-10-21,2024-10-18,株式会社大國屋,,株式会社,東京都,府中市,八幡町２丁目３番地の８－３０５,,13,206,1830016,,,2024-10-18,清算の結了等,,,2015-10-05,1,,,,,,0
1095,5021002004981,登記記録の閉鎖等,0,2024-10-21,2024-10-15,有限会社モードハヤマ,,有限会社,神奈川県,藤沢市,川名２丁目１番２号,,14,205,2510015,,,2024-10-15,清算の結了等,,,2015-10-05,1,,,,,モードハヤマ,0
1103,5030002005279,登記記録の閉鎖等,0,2024-10-21,2024-10-15,有限会社小山工務店,,有限会社,埼玉県,さいたま市西区,プラザ８１番９号,,11,101,3310063,,,2024-10-15,清算の結了等,,,2015-10-05,1,,,,,コヤマコウムテン,0
1136,5120001185006,登記記録の閉鎖等,0,2024-10-21,2024-10-18,ＡＸＩＳ株式会社,,株式会社,大阪府,堺市中区,深井沢町３２８４番地,,27,142,5998236,,,2024-10-18,清算の結了等,,,2015-10-05,1,,,,,アクシス,0
1151,5122001006488,登記記録の閉鎖等,0,2024-10-21,2024-10-15,株式会社フェレ・トゥレ,,株式会社,大阪府,東大阪市,大蓮北３丁目１番２４号,,27,227,5770826,,,2024-10-15,清算の結了等,,,2015-10-05,1,,,,,フェレトゥレ,0
1159,5140001121727,登記記録の閉鎖等,0,2024-10-21,2024-10-17,物販太郎株式会社,,株式会社,兵庫県,神戸市中央区,磯上通８丁目１番２９号カサベラビルＣ＆Ｍ４０３号室,,28,110,6510086,,,2024-10-17,清算の結了等,,,2021-05-31,1,,,,,ブッパンタロウ,0
1160,5140001134019,登記記録の閉鎖等,0,2024-10-21,2024-10-16,オフィスサリー株式会社,,株式会社,兵庫県,神戸市東灘区,本山南町９丁目８番４５－１４０８号,,28,101,6580015,,,2024-10-16,清算の結了等,,,2024-04-09,1,,,,,オフィスサリー,0
1168,5180001126251,登記記録の閉鎖等,0,2024-10-21,2024-10-17,レインボーアース株式会社,,株式会社,福井県,敦賀市,野神１５号８番地の７,,18,202,9140121,,,2024-10-17,清算の結了等,,,2017-01-18,1,,,,,レインボーアース,0
1173,5180002019966,登記記録の閉鎖等,0,2024-10-21,2024-10-04,有限会社アツタ電気商会,,有限会社,愛知県,名古屋市熱田区,高蔵町１番３号,,23,109,4560015,,,2024-10-04,清算の結了等,,,2015-10-05,1,,,,,アツタデンキショウカイ,0
1174,5180002070218,登記記録の閉鎖等,0,2024-10-21,2024-10-02,有限会社六興倉庫,,有限会社,愛知県,小牧市,大字入鹿出新田字宮前１０４９番地の８,,23,219,4850084,,,2024-10-02,清算の結了等,,,2015-10-05,1,,,,,ロッコウソウコ,0
1194,5260001001883,登記記録の閉鎖等,0,2024-10-21,2024-10-16,株式会社河合洋品店,,株式会社,岡山県,岡山市東区,西大寺中２丁目３番６号,,33,103,7048116,,,2024-10-16,清算の結了等,,,2015-10-05,1,,,,,カワイヨウヒンテン,0
1207,5290002033989,登記記録の閉鎖等,0,2024-10-21,2024-09-11,有限会社リック中野,,有限会社,福岡県,古賀市,天神５丁目１５番５号,,40,223,8113101,,,2024-09-11,清算の結了等,,,2015-10-05,1,,,,,リックナカノ,0
1227,5370001045028,登記記録の閉鎖等,0,2024-10-21,2024-10-01,株式会社ＬＡ・ＢＯ仙台,,株式会社,宮城県,仙台市青葉区,中央２丁目９番１０号セントレ東北２階,,04,101,9800021,,,2024-10-01,清算の結了等,,,2019-11-11,1,,,,,ラボセンダイ,0
1233,5370002018115,登記記録の閉鎖等,0,2024-10-21,2024-10-02,有限会社ループ,,有限会社,宮城県,仙台市太白区,緑ケ丘１丁目１７番２６号,,04,104,9820021,,,2024-10-02,清算の結了等,,,2015-10-05,1,,,,,ループ,0
1242,5430001062025,登記記録の閉鎖等,0,2024-10-21,2024-10-11,株式会社イノベーションプロジェクト,,株式会社,北海道,小樽市,住ノ江２丁目４番６号,,01,203,0470014,,,2024-10-11,清算の結了等,,,2015-10-05,1,,,,,イノベーションプロジェクト,0
1246,5490001009177,登記記録の閉鎖等,0,2024-10-21,2024-10-17,株式会社サングリエー,,株式会社,高知県,土佐市,家俊１５０１番地１,,39,205,7811134,,,2024-10-17,清算の結了等,,,2019-02-05,1,,,,,サングリエー,0
1247,6010001016939,登記記録の閉鎖等,0,2024-10-21,2024-10-03,株式会社三榮堂,,株式会社,東京都,千代田区,神田神保町２丁目６番地,,13,101,1010051,,,2024-10-03,清算の結了等,,,2015-10-05,1,,,,,サンエイドウ,0
1248,6010001070580,登記記録の閉鎖等,0,2024-10-21,2024-10-03,株式会社モデスト,,株式会社,東京都,千代田区,永田町２丁目９番８号,,13,101,1000014,,,2024-10-03,清算の結了等,,,2015-10-05,1,,,,,モデスト,0
1250,6010001116846,登記記録の閉鎖等,0,2024-10-21,2024-10-11,株式会社パニーニ計画,,株式会社,東京都,千代田区,麹町３丁目１番地８－９０５号,,13,101,1020083,,,2024-10-11,合併による解散等,2011101048314,令和６年１０月１日東京都新宿区箪笥町３５番地株式会社１４４Ｌａｂ（2011101048314）に合併し解散,2015-10-05,1,,,,,パニーニケイカク,0
1255,6010001154301,登記記録の閉鎖等,0,2024-10-21,2024-10-03,Ｖｏｌｔａｌｉａ　Ｊａｐａｎ株式会社,,株式会社,東京都,中央区,晴海３丁目１３番１号ドゥ・トゥールＥ４４１４,,13,102,1040053,,,2024-10-03,清算の結了等,,,2015-10-05,1,,,,,ヴォルタリアジャパン,0
1280,6010405020363,登記記録の閉鎖等,0,2024-10-21,2024-09-26,ＭＦＪＰＮ３特定目的会社,,その他の設立登記法人,東京都,港区,虎ノ門３丁目２２番１０－２０１号,,13,103,1050001,,,2024-09-26,清算の結了等,,,2021-11-05,1,,,,,エムエフジェイピーエヌスリー,0
1305,6011701023274,登記記録の閉鎖等,0,2024-10-21,2024-10-15,株式会社Ｗガーデン,,株式会社,東京都,江戸川区,中葛西３丁目３４番１３号,,13,123,1340083,,,2024-10-15,合併による解散等,1011401016351,令和６年１０月１日東京都千代田区四番町４番地９株式会社東京遊楽（1011401016351）に合併し解散,2020-01-29,1,,,,,ダブリューガーデン,0
1315,6020001014966,登記記録の閉鎖等,0,2024-10-21,2024-10-01,株式会社ジェイエスピー,,株式会社,神奈川県,横浜市西区,高島２丁目６番３２号横浜東口ウィスポートビル,,14,103,2200011,,,2024-10-01,合併による解散等,6020001157443,令和６年１０月１日横浜市西区高島二丁目６番３２号横浜東口ウィスポートビル株式会社ＮＴＴデータＩＭジェイエスピー（6020001157443）に合併し解散,2015-10-05,1,,,,,ジェイエスピー,0
1325,6021001059984,登記記録の閉鎖等,0,2024-10-21,2024-10-18,株式会社Ｏｆｆｉｃｅ　Ｋｅｎ,,株式会社,神奈川県,相模原市南区,上鶴間本町４丁目２５番３４号,,14,153,2520318,,,2024-10-18,清算の結了等,,,2016-08-10,1,,,,,オフィスケン,0
1326,6021001070198,登記記録の閉鎖等,0,2024-10-21,2024-10-18,株式会社ＩＨＳ,,株式会社,神奈川県,小田原市,早川２丁目１５番５号,,14,206,2500021,,,2024-10-18,清算の結了等,,,2020-06-25,1,,,,,,0
1329,6021002058663,登記記録の閉鎖等,0,2024-10-21,2024-10-17,有限会社高橋塗装店,,有限会社,神奈川県,平塚市,中堂２番１号,,14,203,2540026,,,2024-10-17,清算の結了等,,,2015-10-05,1,,,,,タカハシトソウテン,0
1331,6030001033338,登記記録の閉鎖等,0,2024-10-21,2024-10-10,株式会社エービック,,株式会社,埼玉県,加須市,諏訪２丁目５番４号,,11,210,3470061,,,2024-10-10,清算の結了等,,,2015-10-05,1,,,,,エービック,0
1340,6040001078794,登記記録の閉鎖等,0,2024-10-21,2024-10-10,ファイアリー株式会社,,株式会社,千葉県,市川市,柏井町４丁目５０８番地６,,12,203,2720802,,,2024-10-10,清算の結了等,,,2015-10-05,1,,,,,ファイアリー,0
1341,6040002038269,登記記録の閉鎖等,0,2024-10-21,2024-10-10,有限会社永野精密鋳工所,,有限会社,千葉県,鎌ケ谷市,東鎌ケ谷２丁目１５番２０号,,12,224,2730104,,,2024-10-10,清算の結了等,,,2015-10-05,1,,,,,ナガノセイミツチュウコウショ,0
1342,6040003019029,登記記録の閉鎖等,0,2024-10-21,2024-10-11,合同会社Ｔｈａｉ　Ｃｏｒｎｅｒ　Ａｓｉａ　Ｓｔｏｒｅ,,合同会社,千葉県,市川市,新浜１丁目２番１,,12,203,2720136,,,2024-10-11,清算の結了等,,,2021-12-03,1,,,,,タイコーナーアジアストア,0
1344,6040005006719,登記記録の閉鎖等,0,2024-10-21,2024-10-11,特定非営利活動法人千葉ニュータウンプラットフォーム,,その他の設立登記法人,千葉県,白井市,南山１丁目３番１１棟２０１号,,12,232,2701423,,,2024-10-11,清算の結了等,,,2015-10-05,1,,,,,チバニュータウンプラットフォーム,0
1345,6040005014300,登記記録の閉鎖等,0,2024-10-21,2024-10-10,税理士法人あゆみ,,その他の設立登記法人,千葉県,柏市,西原２丁目５番３６号,,12,217,2770885,,,2024-10-10,清算の結了等,,,2015-10-05,1,,,,,アユミ,0
1350,6070001037418,登記記録の閉鎖等,0,2024-10-21,2024-10-11,株式会社レパレ,,株式会社,群馬県,高崎市,足門町８２２番地２コーポＨＩＲＯ２０３号,,10,202,3703531,,,2024-10-11,清算の結了等,,,2020-11-19,1,,,,,レパレ,0
1355,6080102019487,登記記録の閉鎖等,0,2024-10-21,2024-10-11,有限会社梅原工業,,有限会社,静岡県,伊東市,宇佐美１６２０番地の１,,22,208,4140001,,,2024-10-11,清算の結了等,,,2015-10-05,1,,,,,ウメバラコウギョウ,0
1358,6100001035112,登記記録の閉鎖等,0,2024-10-21,2024-10-07,株式会社外松,,株式会社,長野県,飯田市,松尾上溝３０１４番地２,,20,205,3950811,,,2024-10-07,合併による解散等,8100001022612,令和６年１０月５日長野県飯田市松尾上溝２９４５番地１２株式会社戸田屋（8100001022612）に合併し解散,2022-03-07,1,,,,,トマツ,0
1374,6120005007709,登記記録の閉鎖等,0,2024-10-21,2024-10-17,特定非営利活動法人ごみゼロネット大阪,,その他の設立登記法人,大阪府,大阪市淀川区,木川西１丁目４番２０号,,27,123,5320013,,,2024-10-17,清算の結了等,,,2015-10-05,1,,,,,ゴミゼロネットオオサカ,0
1391,6150002007881,登記記録の閉鎖等,0,2024-10-21,2024-10-18,有限会社カツミ工業,,有限会社,奈良県,磯城郡田原本町,大字矢部６７４番地,,29,363,6360346,,,2024-10-18,清算の結了等,,,2015-10-05,1,,,,,,0
1394,6180001037167,登記記録の閉鎖等,0,2024-10-21,2024-10-07,株式会社スタジオバク,,株式会社,愛知県,春日井市,石尾台５丁目３番地１７,,23,206,4870006,,,2024-10-07,清算の結了等,,,2015-10-05,1,,,,,スタジオバク,0
1395,6180001043181,登記記録の閉鎖等,0,2024-10-21,2024-10-09,共同エフテック株式会社,,株式会社,愛知県,名古屋市西区,枇杷島３丁目２７番２４号,,23,104,4510053,,,2024-10-09,合併による解散等,6120001166590,令和６年１０月１日大阪市中央区平野町二丁目１番２号共同印刷西日本株式会社（6120001166590）に合併し解散,2015-10-05,1,,,,,キョウドウエフテック,0
1398,6180001067387,登記記録の閉鎖等,0,2024-10-21,2024-10-17,株式会社アイ・ユー・アイ,,株式会社,岐阜県,郡上市,高鷲町鷲見５４１８番地９９,,21,219,5015302,,,2024-10-17,清算の結了等,,,2015-10-05,1,,,,,アイユーアイ,0
1400,6180001107606,登記記録の閉鎖等,0,2024-10-21,2024-10-10,株式会社プレステージケア東海,,株式会社,愛知県,名古屋市千種区,谷口町４番５号,,23,101,4640081,,,2024-10-10,合併による解散等,9011101062358,令和６年１０月１日千葉県流山市向小金三丁目１４７番２号株式会社マザアス（9011101062358）に合併し解散,2015-10-05,1,,,,,プレステージケアトウカイ,0
1405,6180002051068,登記記録の閉鎖等,0,2024-10-21,2024-10-07,アルトシステム有限会社,,有限会社,愛知県,名古屋市守山区,向台３丁目１７０６番,,23,113,4630036,,,2024-10-07,清算の結了等,,,2015-10-05,1,,,,,アルトシステム,0
1412,6240001044215,登記記録の閉鎖等,0,2024-10-21,2024-10-11,株式会社リバレスト,,株式会社,広島県,広島市西区,小河内町２丁目１２番１１号,,34,104,7330025,,,2024-10-11,清算の結了等,,,2015-10-05,1,,,,,リバレスト,0
1414,6240001050568,登記記録の閉鎖等,0,2024-10-21,2024-10-11,ひろしま生活パートナー株式会社,,株式会社,広島県,広島市中区,国泰寺町１丁目８番２０号,,34,101,7300042,,,2024-10-11,清算の結了等,,,2017-02-03,1,,,,,ヒロシマセイカツパートナー,0
1416,6250001000365,登記記録の閉鎖等,0,2024-10-21,2024-10-16,株式会社タマヤ,,株式会社,山口県,山口市,中市町３番２６号,,35,203,7530086,,,2024-10-16,清算の結了等,,,2015-10-05,1,,,,,タマヤ,0
1422,6270003000320,登記記録の閉鎖等,0,2024-10-21,2024-10-16,１２３合同会社,,合同会社,鳥取県,西伯郡南部町,倭２０５－７,,31,389,6830323,,,2024-10-16,清算の結了等,,,2015-10-05,1,,,,,ワンツースリー,0
1426,6290001093050,登記記録の閉鎖等,0,2024-10-21,2024-09-17,株式会社ディーオーエー,,株式会社,福岡県,福岡市中央区,大手門３丁目１４番２７号ラフォーレ大濠パークアベニュー６０４,,40,133,8100074,,,2024-09-17,清算の結了等,,,2021-05-07,1,,,,,ディーオーエー,0
1431,6290002002126,登記記録の閉鎖等,0,2024-10-21,2024-09-13,有限会社駒産業,,有限会社,福岡県,福岡市東区,香椎浜２丁目５番２－９０１号,,40,131,8130016,,,2024-09-13,清算の結了等,,,2015-10-05,1,,,,,コマサンギョウ,0
1439,6310003004597,登記記録の閉鎖等,0,2024-10-21,2024-10-09,合同会社ヒロテックラボラトリー,,合同会社,長崎県,佐世保市,天神５丁目１９番２１号山口アパート２０３,,42,202,8571174,,,2024-10-09,清算の結了等,,,2023-07-07,1,,,,,ヒロテックラボラトリー,0
1448,6380002002471,登記記録の閉鎖等,0,2024-10-21,2024-10-04,有限会社東洋電子,,有限会社,福島県,福島市,松川町字天明根３２番地,,07,201,9601241,,,2024-10-04,清算の結了等,,,2015-10-05,1,,,,,トウヨウデンシ,0
1454,6410002013952,登記記録の閉鎖等,0,2024-10-21,2024-10-16,有限会社黒沢工務店,,有限会社,秋田県,横手市,横手町字三ノ口１９番地１,,05,203,0130061,,,2024-10-16,清算の結了等,,,2015-10-05,1,,,,,クロサワコウムテン,0
1468,6490001006603,登記記録の閉鎖等,0,2024-10-21,2024-10-10,株式会社ビルサポート,,株式会社,高知県,香美市,土佐山田町２１５８番地１,,39,212,7820047,,,2024-10-10,清算の結了等,,,2015-10-05,1,,,,,ビルサポート,0
1489,7010405020965,登記記録の閉鎖等,0,2024-10-21,2024-09-26,ＭＦＪＰＮ４特定目的会社,,その他の設立登記法人,東京都,港区,虎ノ門３丁目２２番１０－２０１号,,13,103,1050001,,,2024-09-26,清算の結了等,,,2022-05-13,1,,,,,エムエフジェイピーエヌフォー,0
1516,7011301008633,登記記録の閉鎖等,0,2024-10-21,2024-10-15,ＴＣＳビジネスアソシエ株式会社,,株式会社,東京都,豊島区,目白２丁目１６番２０号,,13,116,1710031,,,2024-10-15,合併による解散等,2010001095739,令和６年１０月１日東京都中央区日本橋本町四丁目８番１４号株式会社マーブル（2010001095739）に合併し解散,2015-10-05,1,,,,,ティーシーエスビジネスアソシエ,0
1543,7021002043813,登記記録の閉鎖等,0,2024-10-21,2024-10-18,有限会社相武製作所,,有限会社,神奈川県,座間市,小松原１丁目４番６号,,14,216,2520002,,,2024-10-18,清算の結了等,,,2015-10-05,1,,,,,ソウブセイサクショ,0
1549,7030001024476,登記記録の閉鎖等,0,2024-10-21,2024-10-16,ポゾリスソリューションズ株式会社,,株式会社,神奈川県,茅ヶ崎市,萩園２７２２番地,,14,207,2530071,,,2024-10-16,合併による解散等,2010401098738,令和６年１０月１日東京都港区元赤坂一丁目２番７号赤坂Ｋタワー７階シーカ・ジャパン株式会社（2010401098738）に合併し解散,2015-10-05,1,,,,,,0
1579,7100001026110,登記記録の閉鎖等,0,2024-10-21,2024-10-01,株式会社ＨＯＰＥ,,株式会社,長野県,小諸市,大字御影新田字竹ノ花１４２５番地１,,20,208,3840808,,,2024-10-01,合併による解散等,9100001008552,令和６年１０月１日長野県小諸市御影新田字竹ノ花１４２５番地１長野県パトロール株式会社（9100001008552）に合併し解散,2015-10-05,1,,,,,ホープ,0
1583,7110001013248,登記記録の閉鎖等,0,2024-10-21,2024-10-10,大英建設株式会社,,株式会社,新潟県,胎内市,鴻ノ巣３５６番地,,15,227,9592705,,,2024-10-10,清算の結了等,,,2015-10-05,1,,,,,ダイエイケンセツ,0
1616,7140001025216,登記記録の閉鎖等,0,2024-10-21,2024-10-17,株式会社サンライズ,,株式会社,兵庫県,神戸市須磨区,青葉町２丁目１番２５号,,28,107,6540038,,,2024-10-17,清算の結了等,,,2015-10-05,1,,,,,サンライズ,0
1629,7170002001626,登記記録の閉鎖等,0,2024-10-21,2024-10-18,有限会社崎浜建具製作所,,有限会社,和歌山県,和歌山市,小雑賀３丁目２番２４号,,30,201,6410007,,,2024-10-18,清算の結了等,,,2015-10-05,1,,,,,サキハマタテグセイサクショ,0
1655,7240003000529,登記記録の閉鎖等,0,2024-10-21,2024-10-15,合資会社戸津川樫工場,,合資会社,広島県,広島市東区,牛田新町３丁目２１番２３号,,34,102,7320068,,,2024-10-15,清算の結了等,,,2015-10-05,1,,,,,トツガワカシコウジョウ,0
1660,7260001037983,登記記録の閉鎖等,0,2024-10-21,2024-10-16,転生ガラス株式会社,,株式会社,岡山県,新見市,高尾２４８４番地１３,,33,210,7180003,,,2024-10-16,清算の結了等,,,2023-05-26,1,,,,,テンセイガラス,0
1670,7290003006257,登記記録の閉鎖等,0,2024-10-21,2024-09-09,合同会社大池,,合同会社,福岡県,福岡市南区,大池１丁目１５番１５号,,40,134,8150073,,,2024-09-09,清算の結了等,,,2016-01-25,1,,,,,オオイケ,0
1675,7310005004066,登記記録の閉鎖等,0,2024-10-21,2024-10-07,特定非営利活動法人平島を守る会,,その他の設立登記法人,長崎県,西海市,崎戸町平島８３０番地１,,42,212,8573311,,,2024-10-07,清算の結了等,,,2015-10-05,1,,,,,ヒラシマヲマモルカイ,0
1677,7330002010313,登記記録の閉鎖等,0,2024-10-21,2024-10-10,有限会社三原商店,,有限会社,熊本県,熊本市中央区,渡鹿６丁目１０番５号,,43,101,8620970,,,2024-10-10,清算の結了等,,,2015-10-05,1,,,,,ミハラショウテン,0
1679,7350002004899,登記記録の閉鎖等,0,2024-10-21,2024-10-11,有限会社村脇漬物,,有限会社,宮崎県,宮崎市,大字本郷南方６番地２,,45,201,8800921,,,2024-10-11,清算の結了等,,,2015-10-05,1,,,,,ムラワキツケモノ,0
1681,7360002001508,登記記録の閉鎖等,0,2024-10-21,2024-10-16,有限会社國真住建,,有限会社,沖縄県,那覇市,前島２丁目８番１３号,,47,201,9000016,,,2024-10-16,清算の結了等,,,2015-10-05,1,,,,,コクシンジュウケン,0
1684,7370001049010,登記記録の閉鎖等,0,2024-10-21,2024-10-01,株式会社厨冷,,株式会社,宮城県,仙台市宮城野区,新田３丁目１９番３０号小鶴参番館２０６,,04,102,9830038,,,2024-10-01,清算の結了等,,,2022-09-07,1,,,,,チュウレイ,0
1709,8010001007457,登記記録の閉鎖等,0,2024-10-21,2024-10-02,株式会社アルビィ,,株式会社,東京都,文京区,本駒込４丁目６番１０号,,13,105,1130021,,,2024-10-02,清算の結了等,,,2015-10-05,1,,,,,アルビィ,0
1728,8010501001257,登記記録の閉鎖等,0,2024-10-21,2024-10-04,株式会社ウハラ生花,,株式会社,東京都,台東区,蔵前３丁目１７番４号,,13,106,1110051,,,2024-10-04,清算の結了等,,,2015-10-05,1,,,,,ウハラセイカ,0
1729,8010501037318,登記記録の閉鎖等,0,2024-10-21,2024-10-01,株式会社ＧＴエステート,,株式会社,東京都,台東区,台東３丁目１３番５号,,13,106,1100016,,,2024-10-01,合併による解散等,7010501006001,令和６年１０月１日東京都台東区台東三丁目１３番５号株式会社ジェム・トレーディング（7010501006001）に合併し解散,2015-10-05,1,,,,,ジーティーエステート,0
1733,8010601053693,登記記録の閉鎖等,0,2024-10-21,2024-10-11,Ｈｉｒｏ　Ｂｅｓｔ　Ｒｅｓｅａｒｃｈ株式会社,,株式会社,東京都,墨田区,本所１丁目１０番７号,,13,107,1300004,,,2024-10-11,清算の結了等,,,2018-07-31,1,,,,,ヒロベストリサーチ,0
1737,8010801010949,登記記録の閉鎖等,0,2024-10-21,2024-10-11,株式会社ホナミ商会,,株式会社,東京都,大田区,蒲田４丁目２０番２号,,13,111,1440052,,,2024-10-11,清算の結了等,,,2015-10-05,1,,,,,ホナミショウカイ,0
1752,8011501004679,登記記録の閉鎖等,0,2024-10-21,2024-10-17,株式会社目白工芸,,株式会社,東京都,北区,浮間３丁目３４番２０号,,13,117,1150051,,,2024-10-17,清算の結了等,,,2015-10-05,1,,,,,メジロコウゲイ,0
1756,8011701007928,登記記録の閉鎖等,0,2024-10-21,2024-09-30,八千代工事株式会社,,株式会社,東京都,町田市,玉川学園７丁目１５番３５号１５,,13,209,1940041,,,2024-09-30,清算の結了等,,,2015-10-05,1,,,,,ヤチヨコウジ,0
1772,8013302019261,登記記録の閉鎖等,0,2024-10-21,2024-10-11,有限会社スリーオーク,,有限会社,東京都,豊島区,巣鴨３丁目１９番１号,,13,116,1700002,,,2024-10-11,清算の結了等,,,2015-10-05,1,,,,,スリーオーク,0
1786,8021001046576,登記記録の閉鎖等,0,2024-10-21,2024-10-16,株式会社ライフプラン,,株式会社,神奈川県,三浦市,南下浦町上宮田１１９７番地１０,,14,210,2380101,,,2024-10-16,合併による解散等,7020001006673,令和６年１０月１日横浜市中区長者町五丁目７５番地１株式会社パル企画（7020001006673）に合併し解散,2015-10-05,1,,,,,,0
1793,8030001075840,登記記録の閉鎖等,0,2024-10-21,2024-10-11,株式会社太陽建築企画,,株式会社,埼玉県,川口市,戸塚境町６番５号,,11,203,3330806,,,2024-10-11,清算の結了等,,,2015-10-05,1,,,,,タイヨウケンチクキカク,0
1799,8030002057524,登記記録の閉鎖等,0,2024-10-21,2024-10-09,有限会社テレネットサービス,,有限会社,埼玉県,上尾市,大字上８５９番地１９４,,11,219,3620001,,,2024-10-09,清算の結了等,,,2015-10-05,1,,,,,テレネットサービス,0
1800,8030002060800,登記記録の閉鎖等,0,2024-10-21,2024-10-08,有限会社太田鉄工所,,有限会社,埼玉県,新座市,野寺４丁目６番１３号,,11,230,3520034,,,2024-10-08,清算の結了等,,,2015-10-05,1,,,,,オオタテッコウジョ,0
1806,8040002024671,登記記録の閉鎖等,0,2024-10-21,2024-10-11,有限会社ヒガシオフィス,,有限会社,千葉県,船橋市,馬込西２丁目３０番７号,,12,204,2730855,,,2024-10-11,清算の結了等,,,2015-10-05,1,,,,,ヒガシオフィス,0
1811,8070002016377,登記記録の閉鎖等,0,2024-10-21,2024-10-15,有限会社高橋プレス工業社,,有限会社,群馬県,富岡市,上高尾１３９番地,,10,210,3702317,,,2024-10-15,清算の結了等,,,2015-10-05,1,,,,,タカハシプレスコウギョウシャ,0
1835,8120003017740,登記記録の閉鎖等,0,2024-10-21,2024-10-15,合同会社Ｓｙｎｃ,,合同会社,大阪府,大阪市北区,梅田１丁目２番２－２００号大阪駅前第２ビル２階３の１の２,,27,127,5300001,,,2024-10-15,清算の結了等,,,2020-07-20,1,,,,,シンク,0
1839,8120101055477,登記記録の閉鎖等,0,2024-10-21,2024-10-18,新井電気工業株式会社,,株式会社,大阪府,和泉市,富秋町１丁目１３番６６号,,27,219,5940082,,,2024-10-18,清算の結了等,,,2016-10-13,1,,,,,,0
1848,8122005001680,登記記録の閉鎖等,0,2024-10-21,2024-10-18,大神教徳庵大教会,,その他の設立登記法人,大阪府,四條畷市,大字南野１８０６番地,,27,229,5750022,,,2024-10-18,清算の結了等,,,2015-10-05,1,,,,,,0
1852,8140001040040,登記記録の閉鎖等,0,2024-10-21,2024-10-17,金礪建設株式会社,,株式会社,兵庫県,赤穂市,尾崎３１４９番地,,28,212,6780221,,,2024-10-17,清算の結了等,,,2015-10-05,1,,,,,カネトウケンセツ,0
1855,8140001059329,登記記録の閉鎖等,0,2024-10-21,2024-10-16,仁寿園造園緑地株式会社,,株式会社,兵庫県,姫路市,白浜町乙２０番地の５,,28,201,6728023,,,2024-10-16,清算の結了等,,,2015-10-05,1,,,,,ジンジュエンゾウエンリョクチ,0
1870,8180002002218,登記記録の閉鎖等,0,2024-10-21,2024-10-03,有限会社近藤商事,,有限会社,愛知県,名古屋市名東区,大針３丁目１９９番地,,23,115,4650064,,,2024-10-03,清算の結了等,,,2015-10-05,1,,,,,コンドウショウジ,0
1884,8210002013665,登記記録の閉鎖等,0,2024-10-21,2024-10-15,有限会社上坂鈑金工業所,,有限会社,福井県,小浜市,四谷町５番３４号,,18,204,9170073,,,2024-10-15,清算の結了等,,,2015-10-05,1,,,,,ウエサカバンキンコウギョウショ,0
1898,8280005002832,登記記録の閉鎖等,0,2024-10-21,2024-10-17,職業訓練法人サン・アパレル能力開発運営会,,その他の設立登記法人,島根県,出雲市,斐川町坂田１６６４番地５,,32,203,6990555,,,2024-10-17,清算の結了等,,,2015-10-05,1,,,,,サンアパレルノウリョクカイハツウンエイカイ,0
1899,8290001002496,登記記録の閉鎖等,0,2024-10-21,2024-09-11,株式会社渡辺興産,,株式会社,福岡県,福岡市南区,中尾３丁目４５番５号,,40,134,8111364,,,2024-09-11,清算の結了等,,,2015-10-05,1,,,,,ワタナベコウサン,0
1906,8290003009358,登記記録の閉鎖等,0,2024-10-21,2024-09-17,合同会社オルタナ,,合同会社,福岡県,福岡市博多区,千代２丁目８番６－１１０９号,,40,132,8120044,,,2024-09-17,清算の結了等,,,2019-09-26,1,,,,,オルタナ,0
1911,8320005002753,登記記録の閉鎖等,0,2024-10-21,2024-10-11,別府市医薬品小売協同組合,,その他の設立登記法人,大分県,別府市,大字野田３番地の６,,44,202,8740016,,,2024-10-11,清算の結了等,,,2015-10-05,1,,,,,ベップシイヤクヒンコウリ,0
1917,8330002021053,登記記録の閉鎖等,0,2024-10-21,2024-10-10,有限会社玉名臨床検査センター,,有限会社,熊本県,玉名市,築地２１８８－１,,43,206,8650065,,,2024-10-10,清算の結了等,,,2015-10-05,1,,,,,タマナリンショウケンサセンター,0
1922,8340002001995,登記記録の閉鎖等,0,2024-10-21,2024-10-11,有限会社エム・ワイ,,有限会社,鹿児島県,姶良市,西餅田９４０番地５,,46,225,8995431,,,2024-10-11,合併による解散等,6350002005741,令和６年１０月１日鹿児島県薩摩郡さつま町船木２３２３番地１株式会社エム・ワイ・メディカル（6350002005741）に合併し解散,2015-10-05,1,,,,,エムワイ,0
1927,8360002013527,登記記録の閉鎖等,0,2024-10-21,2024-10-17,有限会社ニライ・カナイ,,有限会社,沖縄県,うるま市,みどり町６丁目１番１６号,,47,213,9042215,,,2024-10-17,清算の結了等,,,2015-10-05,1,,,,,ニライカナイ,0
1929,8360003013716,登記記録の閉鎖等,0,2024-10-21,2024-10-16,Ｅｘｐｅｃｔ　Ｃ合同会社,,合同会社,沖縄県,那覇市,松尾１丁目１０－２４ホークシティ那覇ビル１階,,47,201,9000014,,,2024-10-16,清算の結了等,,,2024-02-20,1,,,,,エクスペクトシー,0
1941,8380001027105,登記記録の閉鎖等,0,2024-10-21,2024-10-07,株式会社ムトーワークス,,株式会社,福島県,福島市,東中央１丁目１０番地の１,,07,201,9608071,,,2024-10-07,清算の結了等,,,2016-07-14,1,,,,,ムトーワークス,0
1961,8470002002329,登記記録の閉鎖等,0,2024-10-21,2024-10-11,有限会社共栄電器,,有限会社,香川県,高松市,東ハゼ町９１４番地１,,37,201,7618054,,,2024-10-11,清算の結了等,,,2015-10-05,1,,,,,キョウエイデンキ,0
1968,8500002004577,登記記録の閉鎖等,0,2024-10-21,2024-10-17,有限会社テクノアイ,,有限会社,愛媛県,松山市,谷町甲１８４番地５,,38,201,7918002,,,2024-10-17,清算の結了等,,,2015-10-05,1,,,,,テクノアイ,0
1972,9010001194716,登記記録の閉鎖等,0,2024-10-21,2024-10-03,株式会社ＫＯＮ総合,,株式会社,東京都,千代田区,二番町５番地２麹町駅プラザ９０１,,13,101,1020084,,,2024-10-03,清算の結了等,,,2018-09-10,1,,,,,ケーオーエヌソウゴウ,0
1990,9010402034735,登記記録の閉鎖等,0,2024-10-21,2024-10-03,株式会社ＴＳクリエーション,,株式会社,神奈川県,川崎市幸区,新川崎２番１号,,14,132,2120032,,,2024-10-03,合併による解散等,6010401018898,令和６年１０月１日川崎市幸区新川崎２番１号株式会社日本カードクリエーション（6010401018898）に合併し解散,2015-10-05,1,,,,,ティーエスクリエーション,0
1991,9010403018241,登記記録の閉鎖等,0,2024-10-21,2024-10-17,合同会社あおい,,合同会社,東京都,港区,南青山２丁目２番１５号ウイン９４２,,13,103,1070062,,,2024-10-17,合併による解散等,9011803002504,令和６年１０月８日東京都葛飾区東新小岩五丁目１７番１２号合同会社ルコット（9011803002504）に合併し解散,2018-03-09,1,,,,,,0
2043,9012701001688,登記記録の閉鎖等,0,2024-10-21,2024-10-07,株式会社日本制作センター,,株式会社,東京都,東村山市,恩多町１丁目１１番地５,,13,213,1890011,,,2024-10-07,清算の結了等,,,2015-10-05,1,,,,,ニホンセイサクセンター,0
2045,9012802004607,登記記録の閉鎖等,0,2024-10-21,2024-10-07,有限会社関根工業,,有限会社,東京都,武蔵村山市,岸１丁目２０番地７,,13,223,2080031,,,2024-10-07,清算の結了等,,,2015-10-05,1,,,,,セキネコウギョウ,0
2049,9013303007207,登記記録の閉鎖等,0,2024-10-21,2024-10-10,合同会社ＵＫＯＵ　ＦＩＴ,,合同会社,東京都,豊島区,池袋２丁目３１番１６号,,13,116,1710014,,,2024-10-10,清算の結了等,,,2024-07-09,1,,,,,ウコウフィット,0
2064,9021002028837,登記記録の閉鎖等,0,2024-10-21,2024-10-17,有限会社川瀬商店,,有限会社,神奈川県,相模原市緑区,鳥屋７８９番地,,14,151,2520155,,,2024-10-17,清算の結了等,,,2015-10-05,1,,,,,カワセショウテン,0
2067,9021002046228,登記記録の閉鎖等,0,2024-10-21,2024-10-17,有限会社倉本薬局,,有限会社,神奈川県,綾瀬市,小園南１丁目１６番１４号,,14,218,2521122,,,2024-10-17,清算の結了等,,,2015-10-05,1,,,,,クラモトヤッキョク,0
2073,9030001089617,登記記録の閉鎖等,0,2024-10-21,2024-10-10,株式会社森田製麺所,,株式会社,埼玉県,飯能市,仲町１番１０号,,11,209,3570038,,,2024-10-10,清算の結了等,,,2015-10-05,1,,,,,モリタセイメンショ,0
2092,9070002004942,登記記録の閉鎖等,0,2024-10-21,2024-10-16,有限会社萬栄堂,,有限会社,群馬県,前橋市,六供町９３１番地,,10,201,3710804,,,2024-10-16,清算の結了等,,,2015-10-05,1,,,,,マンエイドウ,0
2096,9080102007019,登記記録の閉鎖等,0,2024-10-21,2024-10-11,有限会社ジェイユーエー,,有限会社,静岡県,御殿場市,深沢１７９３番地,,22,215,4120023,,,2024-10-11,清算の結了等,,,2015-10-05,1,,,,,ジェイユーエー,0
2099,9080402006661,登記記録の閉鎖等,0,2024-10-21,2024-10-15,原野谷興業有限会社,,有限会社,静岡県,浜松市中央区,領家２丁目３０番２５号,,22,138,4300852,,,2024-10-15,清算の結了等,,,2015-10-05,1,,,,,ハラノヤコウギョウ,0
2136,9120101028671,登記記録の閉鎖等,0,2024-10-21,2024-10-18,株式会社ジョイントメディア,,株式会社,大阪府,堺市南区,美木多上９５６番地１,,27,145,5900136,,,2024-10-18,清算の結了等,,,2015-10-05,1,,,,,ジョイントメディア,0
2138,9120101069955,登記記録の閉鎖等,0,2024-10-21,2024-10-15,株式会社碧,,株式会社,大阪府,堺市西区,草部１４８９番地１２,,27,144,5938312,,,2024-10-15,清算の結了等,,,2024-07-11,1,,,,,アオ,0
2150,9140001102293,登記記録の閉鎖等,0,2024-10-21,2024-10-17,株式会社ＮＥＸＴ,,株式会社,兵庫県,神戸市須磨区,青葉町２丁目１番２５号,,28,107,6540038,,,2024-10-17,清算の結了等,,,2016-06-08,1,,,,,ネクスト,0
2155,9140002005751,登記記録の閉鎖等,0,2024-10-21,2024-10-11,有限会社オネスト,,有限会社,兵庫県,神戸市垂水区,神和台２丁目９番地の１９,,28,108,6550851,,,2024-10-11,清算の結了等,,,2015-10-05,1,,,,,オネスト,0
2158,9150001002518,登記記録の閉鎖等,0,2024-10-21,2024-10-18,八木酒造株式会社,,株式会社,奈良県,奈良市,高畑町９１５番地,,29,201,6308301,,,2024-10-18,清算の結了等,,,2015-10-05,1,,,,,ヤギシュゾウ,0
2179,9180002056015,登記記録の閉鎖等,0,2024-10-21,2024-10-02,有限会社イーサービス,,有限会社,愛知県,名古屋市名東区,社が丘４丁目１４０１番地,,23,115,4650051,,,2024-10-02,清算の結了等,,,2015-10-05,1,,,,,イーサービス,0
2180,9180301003799,登記記録の閉鎖等,0,2024-10-21,2024-10-11,株式会社ＯＨシステム,,株式会社,愛知県,岡崎市,伊賀新町２番地３,,23,202,4440078,,,2024-10-11,清算の結了等,,,2015-10-05,1,,,,,オーエイチシステム,0
2186,9190001011226,登記記録の閉鎖等,0,2024-10-21,2024-10-17,株式会社ＺＩＺＡＩ,,株式会社,三重県,度会郡南伊勢町,村山１７番地１２,,24,472,5161423,,,2024-10-17,清算の結了等,,,2015-10-05,1,,,,,ジザイ,0
2192,9220001023242,登記記録の閉鎖等,0,2024-10-21,2024-10-15,株式会社ＭＯＧＵＲＡ　ＧＲＯＵＰ,,株式会社,石川県,金沢市,浅野本町１丁目１５－２１,,17,201,9200841,,,2024-10-15,清算の結了等,,,2019-12-09,1,,,,,,0
2195,9230002000776,登記記録の閉鎖等,0,2024-10-21,2024-10-17,有限会社エフティ,,有限会社,富山県,富山市,桜町２丁目１番１４号,,16,201,9300003,,,2024-10-17,清算の結了等,,,2015-10-05,1,,,,,エフティ,0
2199,9280005006980,登記記録の閉鎖等,0,2024-10-21,2024-10-09,特定非営利活動法人Ｙｕ－Ｇａｋｕ加茂スポーツクラブ,,その他の設立登記法人,島根県,雲南市,加茂町宇治２２８番地１,,32,209,6991105,,,2024-10-09,清算の結了等,,,2015-10-05,1,,,,,ユーガクカモスポーツクラブ,0
2200,9290001042962,登記記録の閉鎖等,0,2024-10-21,2024-09-13,株式会社たけうち,,株式会社,福岡県,大野城市,大城４丁目１４番１号,,40,219,8160911,,,2024-09-13,清算の結了等,,,2015-10-05,1,,,,,タケウチ,0
2204,9290003002519,登記記録の閉鎖等,0,2024-10-21,2024-09-11,合名会社田中プロパン,,合名会社,福岡県,筑後市,大字久富６３７番地の１,,40,211,8330056,,,2024-09-11,清算の結了等,,,2015-10-05,1,,,,,タナカプロパン,0
2211,9320001006204,登記記録の閉鎖等,0,2024-10-21,2024-10-18,永光ガス株式会社,,株式会社,大分県,別府市,大字南立石１９９７番地の２,,44,202,8740000,,,2024-10-18,清算の結了等,,,2015-10-05,1,,,,,,0
2213,9320201000048,登記記録の閉鎖等,0,2024-10-21,2024-10-17,株式会社川辺工務所,,株式会社,大分県,臼杵市,大字諏訪１２００番地,,44,206,8750011,,,2024-10-17,清算の結了等,,,2015-10-05,1,,,,,カワベコウムショ,0
2216,9330002030994,登記記録の閉鎖等,0,2024-10-21,2024-10-10,有限会社大栄センター,,有限会社,熊本県,球磨郡あさぎり町,免田東１７１８番地,,43,514,8680408,,,2024-10-10,清算の結了等,,,2015-10-05,1,,,,,ダイエイセンター,0
2233,9410002000642,登記記録の閉鎖等,0,2024-10-21,2024-10-16,イトウ管工有限会社,,有限会社,秋田県,秋田市,金足下刈字林中５１番地,,05,201,0100114,,,2024-10-16,清算の結了等,,,2015-10-05,1,,,,,イトウカンコウ,0
2241,9430001049043,登記記録の閉鎖等,0,2024-10-21,2024-10-10,株式会社滝川旅行センター,,株式会社,北海道,滝川市,栄町２丁目３番４号,,01,225,0730031,,,2024-10-10,清算の結了等,,,2015-10-05,1,,,,,タキカワリョコウセンター,0
2249,9470002005264,登記記録の閉鎖等,0,2024-10-21,2024-10-15,西村ビル有限会社,,有限会社,香川県,高松市,瓦町２丁目２番地の２５,,37,201,7600052,,,2024-10-15,清算の結了等,,,2015-10-05,1,,,,,ニシムラビル,0
