sequenceNumber,corporateNumber,process,correct,updateDate,changeDate,name,nameImageId,kind,prefectureName,cityName,streetNumber,addressImageId,prefectureCode,cityCode,postCode,addressOutside,addressOutsideImageId,closeDate,closeCause,successorCorporateNumber,changeCause,assignmentDate,latest,enName,enPrefectureName,enCityName,enAddressOutside,furigana,hihyoji
8,1010001244833,新規,0,2024-05-16,2024-05-16,株式会社テッククライマーズ,,株式会社,東京都,中央区,入船１丁目２番１号,,13,102,1040042,,,,,,,2024-05-16,1,,,,,テッククライマーズ,0
9,1010001244858,新規,0,2024-05-16,2024-05-16,株式会社コーディアルアドバイザー,,株式会社,東京都,中央区,日本橋富沢町４－１０,,13,102,1030006,,,,,,,2024-05-16,1,,,,,コーディアルアドバイザー,0
11,1010003043738,新規,0,2024-05-16,2024-05-16,合同会社ＳＴＵＤＩＯ　ＳＨＵＳＨＵ,,合同会社,東京都,千代田区,神田和泉町１番地６－１６ヤマトビル４０５,,13,101,1010024,,,,,,,2024-05-16,1,,,,,スタジオシュシュ,0
12,1010003043754,新規,0,2024-05-16,2024-05-16,Ｇｒａｎｄ　Ｓｉａｍ　Ｔｏｋｙｏ合同会社,,合同会社,東京都,千代田区,丸の内２丁目３番２号郵船ビルディング１階,,13,101,1000005,,,,,,,2024-05-16,1,,,,,グランドサイアムトウキョウ,0
20,1010401182468,新規,0,2024-05-16,2024-05-16,ビー・エックス・ジェイ・シー・ワン・ホールディング株式会社,,株式会社,東京都,港区,虎ノ門５丁目１番４号,,13,103,1050001,,,,,,,2024-05-16,1,,,,,ビーエックスジェイシーワンホールディング,0
23,1010403032596,新規,0,2024-05-16,2024-05-16,Ｇ３合同会社,,合同会社,東京都,港区,赤坂８丁目１１番２６号＋ＳＨＩＦＴＮＯＧＩＺＡＫＡ４Ｆ,,13,103,1070052,,,,,,,2024-05-16,1,,,,,ジースリー,0
24,1010403032621,新規,0,2024-05-16,2024-05-16,合同会社Ｐｏｃａｔｅｎ　Ｒｅｃｏｒｄｓ,,合同会社,東京都,港区,北青山１丁目３番１号アールキューブ青山３階,,13,103,1070061,,,,,,,2024-05-16,1,,,,,ポカテンレコーズ,0
29,1010601065175,新規,0,2024-05-16,2024-05-16,株式会社豊洲市場魚類調理組合,,株式会社,東京都,江東区,豊洲６丁目５番１号水産仲卸棟４Ｆ,,13,108,1350061,,,,,,,2024-05-16,1,,,,,トヨスシジョウギョルイチョウリクミアイ,0
36,1010901055289,新規,0,2024-05-16,2024-05-16,ＮＯＢＬＥＳＳＥ株式会社,,株式会社,東京都,世田谷区,三宿２丁目２７番３１号,,13,112,1540005,,,,,,,2024-05-16,1,,,,,ノブレス,0
43,1011001161928,新規,0,2024-05-16,2024-05-16,ミリナ株式会社,,株式会社,東京都,渋谷区,渋谷２丁目１９－１５宮益坂ビルディング６０９,,13,113,1500002,,,,,,,2024-05-16,1,,,,,ミリナ,0
47,1011101107343,新規,0,2024-05-16,2024-05-16,株式会社Ｂｌｕｅ　Ｔｒｕｓｔ,,株式会社,東京都,新宿区,市谷本村町７番４－３６０４号,,13,104,1620845,,,,,,,2024-05-16,1,,,,,ブルートラスト,0
51,1011203004389,新規,0,2024-05-16,2024-05-16,マネージ合同会社,,合同会社,東京都,中野区,中央５丁目８－２５－２０３,,13,114,1640011,,,,,,,2024-05-16,1,,,,,マネージ,0
58,1012803003391,新規,0,2024-05-16,2024-05-16,ＫＡＴＨＭＡＮＤＵ合同会社,,合同会社,東京都,昭島市,東町４丁目８番４号２階２０２号室,,13,207,1960033,,,,,,,2024-05-16,1,,,,,カトマンズ,0
59,1013301052518,新規,0,2024-05-16,2024-05-16,株式会社ピアソフト,,株式会社,東京都,豊島区,東池袋３丁目１１－９三島ビル４０２,,13,116,1700013,,,,,,,2024-05-16,1,,,,,ピアソフト,0
69,1020001157225,新規,0,2024-05-16,2024-05-16,コナテックラボ株式会社,,株式会社,神奈川県,横浜市西区,浅間町１丁目４番３号ウィザードビル４０２,,14,103,2200072,,,,,,,2024-05-16,1,,,,,コナテックラボ,0
70,1020001157233,新規,0,2024-05-16,2024-05-16,株式会社寛栄企画,,株式会社,神奈川県,横浜市西区,元久保町９番７号,,14,103,2200063,,,,,,,2024-05-16,1,,,,,カンエイキカク,0
71,1020001157241,新規,0,2024-05-16,2024-05-16,株式会社ＧＲＩＺＺＬＬＹ．ＤＥＳＩＧＮ,,株式会社,神奈川県,横浜市西区,浅間町１丁目４番３号ウィザードビル４０２,,14,103,2200072,,,,,,,2024-05-16,1,,,,,グリズリーデザイン,0
72,1020001157274,新規,0,2024-05-16,2024-05-16,岩高技研株式会社,,株式会社,神奈川県,川崎市麻生区,岡上５丁目１３番２５号スターホームズ鶴川３０１号室,,14,137,2150027,,,,,,,2024-05-16,1,,,,,イワタカギケン,0
75,1020003026114,新規,0,2024-05-16,2024-05-16,合同会社ｉｋ,,合同会社,神奈川県,川崎市川崎区,宮本町８番地２１アトレ川崎８０１号,,14,131,2100004,,,,,,,2024-05-16,1,,,,,,0
76,1020005016402,新規,0,2024-05-16,2024-05-16,一般社団法人ｈａｎｎ,,その他の設立登記法人,神奈川県,横浜市中区,桜木町１丁目１０１番地１クロスゲート７階,,14,104,2310062,,,,,,,2024-05-16,1,,,,,ハン,0
81,1021001082231,新規,0,2024-05-16,2024-05-16,株式会社ＩＰＰＯ,,株式会社,神奈川県,座間市,ひばりが丘５丁目１０番１４号,,14,216,2520003,,,,,,,2024-05-16,1,,,,,イッポ,0
82,1021001082248,新規,0,2024-05-16,2024-05-16,Ａｓｔｙ・Ｈ株式会社,,株式会社,神奈川県,横須賀市,久里浜台１丁目１３番４号,,14,201,2390827,,,,,,,2024-05-16,1,,,,,アスティドットエイチ,0
85,1021003014505,新規,0,2024-05-16,2024-05-16,合同会社ＮＥＶＥＲ,,合同会社,神奈川県,藤沢市,湘南台７丁目２番地の７湘南台フラット１－２０５号室,,14,205,2520804,,,,,,,2024-05-16,1,,,,,ネバー,0
89,1030001160293,新規,0,2024-05-16,2024-05-16,株式会社真秀,,株式会社,埼玉県,ふじみ野市,元福岡２丁目１６番２号,,11,245,3560008,,,,,,,2024-05-16,1,,,,,マホ,0
90,1030001160376,新規,0,2024-05-16,2024-05-16,健康工房株式会社,,株式会社,埼玉県,深谷市,西島町３丁目１６番２３号松原亭ビル２０２号室,,11,218,3660824,,,,,,,2024-05-16,1,,,,,ケンコウコウボウ,0
94,1040001133513,新規,0,2024-05-16,2024-05-16,Ｖｉｔｒａｎａ株式会社,,株式会社,千葉県,袖ケ浦市,奈良輪３３６番地,,12,229,2990263,,,,,,,2024-05-16,1,,,,,ヴィトラナ,0
95,1040001133604,新規,0,2024-05-16,2024-05-16,笠昇商事株式会社,,株式会社,千葉県,印西市,草深２３８５番地５,,12,231,2701337,,,,,,,2024-05-16,1,,,,,リュウショウショウジ,0
96,1040001133612,新規,0,2024-05-16,2024-05-16,株式会社アロハソフト,,株式会社,千葉県,松戸市,古ケ崎３丁目３４４１番地の３,,12,207,2710068,,,,,,,2024-05-16,1,,,,,アロハソフト,0
100,1040003024966,新規,0,2024-05-16,2024-05-16,合同会社ＫＳＫ,,合同会社,千葉県,千葉市中央区,登戸３丁目１２番９－１４０２号,,12,101,2600032,,,,,,,2024-05-16,1,,,,,ケーエスケー,0
101,1050001054766,新規,0,2024-05-16,2024-05-16,株式会社ライナーテクノロジー,,株式会社,茨城県,結城郡八千代町,大字平塚字太夫久保４５７６番地１,,08,521,3003561,,,,,,,2024-05-16,1,,,,,ライナーテクノロジー,0
102,1050003008373,新規,0,2024-05-16,2024-05-16,ビューティーアップ合同会社,,合同会社,茨城県,牛久市,ひたち野東３丁目２３－９,,08,219,3001207,,,,,,,2024-05-16,1,,,,,ビューティーアップ,0
112,1100001037435,新規,0,2024-05-16,2024-05-16,株式会社ウッドノッカー,,株式会社,長野県,埴科郡坂城町,大字南条７２１８番地１,,20,521,3890603,,,,,,,2024-05-16,1,,,,,ウッドノッカー,0
115,1110001038408,新規,0,2024-05-16,2024-05-16,株式会社創希,,株式会社,新潟県,新潟市東区,石山２丁目１番２０号,,15,102,9500852,,,,,,,2024-05-16,1,,,,,ソウキ,0
116,1110001038416,新規,0,2024-05-16,2024-05-16,株式会社學栄グレース,,株式会社,新潟県,新潟市北区,葛塚３４３５,,15,101,9503321,,,,,,,2024-05-16,1,,,,,ガクエイグレース,0
121,1110003005397,新規,0,2024-05-16,2024-05-16,合同会社Ｃｈｉｃｏ　Ｌｉｂｒｅ,,合同会社,新潟県,長岡市,西蔵王３丁目４番２８号,,15,202,9400027,,,,,,,2024-05-16,1,,,,,チコリブレ,0
127,1120001264829,新規,0,2024-05-16,2024-05-16,株式会社アモール,,株式会社,大阪府,大阪市生野区,巽北１丁目２１－２９生野ハイツ７１４室,00134788,27,116,5440004,,,,,,,2024-05-16,1,,,,,アモール,0
128,1120001264903,新規,0,2024-05-16,2024-05-16,株式会社ＫＨＳＢ工房,,株式会社,大阪府,大阪市福島区,大開１丁目１０番１４号,,27,103,5530007,,,,,,,2024-05-16,1,,,,,ケーエイチエスビーコウボウ,0
129,1120001264936,新規,0,2024-05-16,2024-05-16,大阪トヨタＳｏｕｔｈ株式会社,,株式会社,大阪府,大阪市福島区,福島５丁目１７番２号,,27,103,5530003,,,,,,,2024-05-16,1,,,,,オオサカトヨタサウス,0
130,1120001264952,新規,0,2024-05-16,2024-05-16,株式会社Ｂｉｏｌｕｓ,,株式会社,大阪府,大阪市阿倍野区,松崎町２丁目４－２１－２０２,,27,119,5450053,,,,,,,2024-05-16,1,,,,,ビオラス,0
134,1120003026574,新規,0,2024-05-16,2024-05-16,ＳＮ合同会社,,合同会社,大阪府,大阪市西成区,天下茶屋北１丁目２－１６－１０２号,,27,122,5570003,,,,,,,2024-05-16,1,,,,,エスエヌ,0
135,1120003026590,新規,0,2024-05-16,2024-05-16,合同会社ＡＥＴ・ＯＮＥ,,合同会社,大阪府,大阪市中央区,南船場２丁目６番２９号,,27,128,5420081,,,,,,,2024-05-16,1,,,,,エーイーティーワン,0
136,1120003026599,新規,0,2024-05-16,2024-05-16,合同会社オモＬａｂ,,合同会社,大阪府,大阪市北区,梅田１丁目１－３大阪駅前第３ビル２９階１－１－１号室,,27,127,5300001,,,,,,,2024-05-16,1,,,,,オモラボ,0
138,1120005024329,新規,0,2024-05-16,2024-05-16,一般社団法人Ｊアシスト,,その他の設立登記法人,大阪府,大阪市東成区,大今里西２丁目６番１３号,,27,115,5370014,,,,,,,2024-05-16,1,,,,,ジェイアシスト,0
140,1120901049172,新規,0,2024-05-16,2024-05-16,株式会社ネイビーホーム,,株式会社,大阪府,高槻市,南平台２丁目１－８－２,,27,207,5691042,,,,,,,2024-05-16,1,,,,,ネイビーホーム,0
142,1122001038089,新規,0,2024-05-16,2024-05-16,株式会社Ｗｏｏｄ　Ｂｅｌｌ,,株式会社,大阪府,八尾市,東山本新町２丁目１－９ココソレジオＡ棟１０２,,27,212,5810866,,,,,,,2024-05-16,1,,,,,ウッドベル,0
144,1130001077049,新規,0,2024-05-16,2024-05-16,株式会社ファートゥム,,株式会社,京都府,京都市山科区,日ノ岡坂脇町１２番地６京栄マンション５０５,,26,110,6078496,,,,,,,2024-05-16,1,,,,,ファートゥム,0
152,1140001134294,新規,0,2024-05-16,2024-05-16,株式会社Ｍａｓｓｅｔ,,株式会社,兵庫県,淡路市,大谷９４６番地の１,,28,226,6562224,,,,,,,2024-05-16,1,,,,,マセット,0
153,1140001134468,新規,0,2024-05-16,2024-05-16,株式会社ソルト,,株式会社,兵庫県,西宮市,津門呉羽町７番２１号,,28,204,6638245,,,,,,,2024-05-16,1,,,,,ソルト,0
157,1150003003249,新規,0,2024-05-16,2024-05-16,タクフォレストリー合同会社,,合同会社,奈良県,吉野郡東吉野村,大字小川３４６番地の１,,29,453,6332421,,,,,,,2024-05-16,1,,,,,タクフォレストリー,0
158,1160001025913,新規,0,2024-05-16,2024-05-16,株式会社Ｌｉｌｙ,,株式会社,滋賀県,大津市,仰木の里５丁目１３番９号,,25,201,5200246,,,,,,,2024-05-16,1,,,,,リリー,0
159,1160001025921,新規,0,2024-05-16,2024-05-16,株式会社ＢＩＴＥ,,株式会社,滋賀県,彦根市,長曽根南町４３７番地,,25,202,5220052,,,,,,,2024-05-16,1,,,,,バイト,0
167,1180001161442,新規,0,2024-05-16,2024-05-16,株式会社ネオハイム,,株式会社,愛知県,愛西市,勝幡町河畔１０７０番地４,,23,232,4968001,,,,,,,2024-05-16,1,,,,,ネオハイム,0
168,1180001161500,新規,0,2024-05-16,2024-05-16,株式会社ＰＩＮＯＴ　ＢＬＥＵ,,株式会社,愛知県,大府市,共和町茶屋４７番地２４５,,23,223,4740057,,,,,,,2024-05-16,1,,,,,ピノブルー,0
174,1200001042516,新規,0,2024-05-16,2024-05-16,株式会社ＬＩＶ,,株式会社,岐阜県,岐阜市,今嶺２丁目１０番２２号,,21,201,5008388,,,,,,,2024-05-16,1,,,,,リブ,0
176,1200003006337,新規,0,2024-05-16,2024-05-16,合同会社ハルのオト,,合同会社,岐阜県,中津川市,福岡４０４９番地,,21,206,5080203,,,,,,,2024-05-16,1,,,,,ハルノオト,0
184,1240001063228,新規,0,2024-05-16,2024-05-16,やよいコーポレーション株式会社,,株式会社,広島県,豊田郡大崎上島町,木江２７１番地４,,34,431,7250401,,,,,,,2024-05-16,1,,,,,ヤヨイコーポレーション,0
189,1240003006663,新規,0,2024-05-16,2024-05-16,ＣＯ　ＭＹ合同会社,,合同会社,広島県,東広島市,西条町寺家６４９９番地２,,34,212,7390041,,,,,,,2024-05-16,1,,,,,コミー,0
200,1290001105710,新規,0,2024-05-16,2024-05-16,真株式会社,,株式会社,福岡県,大川市,大字榎津１５３番地３,,40,212,8310004,,,,,,,2024-05-16,1,,,,,シン,0
201,1290001105735,新規,0,2024-05-16,2024-05-16,ＩＪＫプロパティーズ西日本株式会社,,株式会社,福岡県,福岡市博多区,中呉服町１番２２号,,40,132,8120035,,,,,,,2024-05-16,1,,,,,アイジェーケープロパティーズニシニホン,0
202,1290001105867,新規,0,2024-05-16,2024-05-16,イコール株式会社,,株式会社,福岡県,福岡市南区,大楠２丁目６番９号ニチエイ大楠ビル１階,,40,134,8150082,,,,,,,2024-05-16,1,,,,,イコール,0
205,1290801030570,新規,0,2024-05-16,2024-05-16,オリジネイト株式会社,,株式会社,福岡県,行橋市,北泉３丁目７－３６サンベイズ岡田Ｂ棟１０２,,40,213,8240033,,,,,,,2024-05-16,1,,,,,オリジネイト,0
210,1330005010794,新規,0,2024-05-16,2024-05-16,一般社団法人熊本県ラグビーフットボール協会,,その他の設立登記法人,熊本県,山鹿市,中４５３番地１,,43,208,8610531,,,,,,,2024-05-16,1,,,,,クマモトケンラグビーフットボールキョウカイ,0
216,1370001051269,新規,0,2024-05-16,2024-05-16,株式会社つばさ保険,,株式会社,宮城県,石巻市,錦町６番６号,,04,202,9860877,,,,,,,2024-05-16,1,,,,,ツバサホケン,0
220,1380003005759,新規,0,2024-05-16,2024-05-16,合同会社オフィスたかく,,合同会社,福島県,河沼郡会津坂下町,字東南町裏甲３９６８番地コーポ桜１０１,,07,421,9696544,,,,,,,2024-05-16,1,,,,,オフィスタカク,0
223,1390005009071,新規,0,2024-05-16,2024-05-16,一般社団法人緑町山田医院,,その他の設立登記法人,山形県,山形市,緑町３丁目２番５１号,,06,201,9900041,,,,,,,2024-05-16,1,,,,,ミドリチョウヤマダイイン,0
228,1460001005901,新規,0,2024-05-16,2024-05-16,株式会社藤原自動車車体,,株式会社,北海道,釧路市,鳥取大通７丁目９番１４号,,01,206,0840906,,,,,,,2024-05-16,1,,,,,フジワラジドウシャシャタイ,0
233,1470001020197,新規,0,2024-05-16,2024-05-16,岩野興業株式会社,,株式会社,香川県,善通寺市,弘田町６２４番地７,,37,204,7650071,,,,,,,2024-05-16,1,,,,,イワノコウギョウ,0
236,1480003002127,新規,0,2024-05-16,2024-05-16,ピオニエ合同会社,,合同会社,徳島県,吉野川市,鴨島町鴨島３３７番地４コーポ川真田３０１,,36,205,7760010,,,,,,,2024-05-16,1,,,,,ピオニエ,0
237,1490001010766,新規,0,2024-05-16,2024-05-16,株式会社小川企画,,株式会社,高知県,高知市,薊野西町１丁目１番５号,,39,201,7810015,,,,,,,2024-05-16,1,,,,,オガワキカク,0
241,1700150125450,新規,0,2024-05-16,2024-05-16,ｇｕａｎｇｚｈｏｕｓｈｉｍｉｇｅｘｉｗａｋｅｊｉｙｏｕｘｉａｎｇｏｎｇｓｉ,,外国会社等,,,,,,,,ｇｕａｎｇｄｏｎｇｓｈｅｎｇ　ｇｕａｎｇｚｈｏｕｓｈｉ　ｔｉａｎｈｅｑｕ　ｔｉａｎｙｕａｎｌｕ１０４５ｈａｏ　１０４７ｈａｏ　２０１ｆａｎｇ　２１１　２１３ｈａｏ　Ａ１１２３ｈａｏ,,,,,,2024-05-16,1,,,,,コウシュウシミガシワカギユウゲンコウシ,0
248,2010001244840,新規,0,2024-05-16,2024-05-16,株式会社Ｐａｓｓｉｏｎｅ　Ｇｒｏｕｐ,,株式会社,東京都,中央区,京橋２丁目７－８ＦＰＧｌｉｎｋｓＫＹＯＢＡＳＨＩ２階,,13,102,1040031,,,,,,,2024-05-16,1,,,,,パッショーネグループ,0
249,2010003043720,新規,0,2024-05-16,2024-05-16,ＴＨＲＥＥ　ＳＴＥＰＳ合同会社,,合同会社,東京都,文京区,本駒込３丁目２０番３号,,13,105,1130021,,,,,,,2024-05-16,1,,,,,スリーステップス,0
250,2010101016140,新規,0,2024-05-16,2024-05-16,竹鶴商事株式会社,,株式会社,東京都,八王子市,片倉町１５６１番地４,,13,201,1920914,,,,,,,2024-05-16,1,,,,,タケツルショウジ,0
255,2010401182491,新規,0,2024-05-16,2024-05-16,株式会社Ｇｕａｒｎｅｒｉ,,株式会社,東京都,港区,浜松町１丁目２７番８号橋立ビル５階,,13,103,1050013,,,,,,,2024-05-16,1,,,,,ガルネリ,0
256,2010405023205,新規,0,2024-05-16,2024-05-16,一般社団法人監査支援機構,,その他の設立登記法人,東京都,港区,元赤坂１丁目２番７号,,13,103,1070051,,,,,,,2024-05-16,1,,,,,カンサシエンキコウ,0
261,2010701045951,新規,0,2024-05-16,2024-05-16,株式会社Ｘ　Ｒｅｓｏｕｒｃｅ,,株式会社,東京都,品川区,中延６丁目３番１６号,,13,109,1420053,,,,,,,2024-05-16,1,,,,,クロスリソース,0
271,2011001161910,新規,0,2024-05-16,2024-05-16,ｍｅｍｅ株式会社,,株式会社,東京都,渋谷区,代々木１丁目６番１０号,,13,113,1510053,,,,,,,2024-05-16,1,,,,,メメ,0
272,2011001161976,新規,0,2024-05-16,2024-05-16,ＩＸ　ＥＮＴＥＲＴＡＩＮＭＥＮＴ株式会社,,株式会社,東京都,渋谷区,本町１丁目２０番２号パルムハウス初台１１１１,,13,113,1510071,,,,,,,2024-05-16,1,,,,,アイエックスエンターテインメント,0
283,2011105011029,新規,0,2024-05-16,2024-05-16,一般社団法人子どもが主役の中高受験を推進する会,,その他の設立登記法人,東京都,新宿区,新宿５丁目１８番２０号ルックハイツ新宿８０３号,,13,104,1600022,,,,,,,2024-05-16,1,,,,,コドモガシュヤクノチュウコウジュケンヲスイシンスルカイ,0
284,2011201025460,新規,0,2024-05-16,2024-05-16,株式会社ゼンベット,,株式会社,東京都,中野区,中央５丁目４番地２１号グランツアベニュー新中野８０１,,13,114,1640011,,,,,,,2024-05-16,1,,,,,ゼンベット,0
285,2011401026077,新規,0,2024-05-16,2024-05-16,株式会社江生,,株式会社,東京都,板橋区,大和町六丁目７番,,13,119,1730012,,,,,,,2024-05-16,1,,,,,コウセイ,0
288,2011501030664,新規,0,2024-05-16,2024-05-16,株式会社町屋興業,,株式会社,東京都,荒川区,町屋８丁目６番７号,,13,118,1160001,,,,,,,2024-05-16,1,,,,,マチヤコウギョウ,0
292,2011801044232,新規,0,2024-05-16,2024-05-16,日向国際株式会社,,株式会社,東京都,葛飾区,西水元３丁目１８番８号,,13,122,1250031,,,,,,,2024-05-16,1,,,,,ヒュウガコクサイ,0
297,2012803003399,新規,0,2024-05-16,2024-05-16,こぶぱあく合同会社,,合同会社,東京都,日野市,西平山５丁目４６番地の２７,,13,212,1910055,,,,,,,2024-05-16,1,,,,,コブパアク,0
301,2013301052533,新規,0,2024-05-16,2024-05-16,株式会社ファインオーナメント,,株式会社,東京都,豊島区,東池袋２丁目６２番１０号,,13,116,1700013,,,,,,,2024-05-16,1,,,,,ファインオーナメント,0
304,2020001157224,新規,0,2024-05-16,2024-05-16,株式会社名揚商事,,株式会社,神奈川県,横浜市中区,桜木町１丁目１０１番地１クロスゲート７階,,14,104,2310062,,,,,,,2024-05-16,1,,,,,メイヨウショウジ,0
305,2020001157249,新規,0,2024-05-16,2024-05-16,株式会社グリーンヒルズ,,株式会社,神奈川県,横浜市鶴見区,東寺尾６丁目１１番３０号,,14,101,2300077,,,,,,,2024-05-16,1,,,,,グリーンヒルズ,0
316,2030001160177,新規,0,2024-05-16,2024-05-16,株式会社ＲＯＦ,,株式会社,埼玉県,川口市,栄町３丁目１３番１－１４１２号プラウドタワー川口クロス,,11,203,3320017,,,,,,,2024-05-16,1,,,,,ロフ,0
317,2030001160350,新規,0,2024-05-16,2024-05-16,株式会社栄征工業,,株式会社,埼玉県,草加市,花栗２丁目１０番６－２１０号,,11,221,3400044,,,,,,,2024-05-16,1,,,,,エイセイコウギョウ,0
318,2030001160367,新規,0,2024-05-16,2024-05-16,椿日ヘルスマネジメント株式会社,,株式会社,埼玉県,入間市,豊岡１丁目３番２５号半田ビル２階ＫＩＶオフィス入間Ｅ号室,,11,225,3580003,,,,,,,2024-05-16,1,,,,,チンジツヘルスマネジメント,0
329,2040001133578,新規,0,2024-05-16,2024-05-16,千葉ヘンプ産業株式会社,,株式会社,千葉県,習志野市,東習志野６丁目９番３０号,,12,216,2750001,,,,,,,2024-05-16,1,,,,,チバヘンプサンギョウ,0
330,2040001133586,新規,0,2024-05-16,2024-05-16,株式会社ＯＬＩＶＥＲ,,株式会社,千葉県,松戸市,栄町３丁目１８１番２３－１Ｆ,,12,207,2710062,,,,,,,2024-05-16,1,,,,,オリバー,0
338,2040005022397,新規,0,2024-05-16,2024-05-16,一般財団法人カネヨ・妙典歴史文化保存会,,その他の設立登記法人,千葉県,市川市,妙典１丁目２０番２０号,,12,203,2720111,,,,,,,2024-05-16,1,,,,,カネヨミョウデンレキシブンカホゾンカイ,0
347,2070001041729,新規,0,2024-05-16,2024-05-16,株式会社エフケイアイ,,株式会社,群馬県,高崎市,吉井町多比良１８１９番地,,10,202,3702115,,,,,,,2024-05-16,1,,,,,エフケイアイ,0
348,2070001041737,新規,0,2024-05-16,2024-05-16,ＪＸ株式会社,,株式会社,群馬県,利根郡みなかみ町,湯原５５１源泉湯の宿松乃井内,,10,449,3791617,,,,,,,2024-05-16,1,,,,,ジェイエックス,0
350,2080101024748,新規,0,2024-05-16,2024-05-16,株式会社花江,,株式会社,静岡県,富士市,松岡１１７０番地の１,,22,210,4160909,,,,,,,2024-05-16,1,,,,,ハナエ,0
351,2080101024756,新規,0,2024-05-16,2024-05-16,建真工業株式会社,,株式会社,静岡県,富士市,今泉２２９１番地の５,,22,210,4170001,,,,,,,2024-05-16,1,,,,,ケンシンコウギョウ,0
354,2100003007534,新規,0,2024-05-16,2024-05-16,ＳＫＴＲＡＤＩＮＧ合同会社,,合同会社,長野県,千曲市,上山田温泉３丁目１８番地７,,20,218,3890821,,,,,,,2024-05-16,1,,,,,エスケイトレーディング,0
356,2100005013175,新規,0,2024-05-16,2024-05-16,一般社団法人ＩＮＡｖａｔｉｏｎ,,その他の設立登記法人,長野県,伊那市,荒井９番地,,20,209,3960025,,,,,,,2024-05-16,1,,,,,イナベーション,0
364,2120001264803,新規,0,2024-05-16,2024-05-16,株式会社本宿,,株式会社,大阪府,大阪市阿倍野区,相生通２丁目７番５－２０５号,,27,119,5450033,,,,,,,2024-05-16,1,,,,,ホンシュク,0
365,2120001264893,新規,0,2024-05-16,2024-05-16,株式会社Ｐｏｐ　ｕｐ,,株式会社,大阪府,大阪市浪速区,難波中２丁目４番１２号ティタカラナビル５０３,,27,111,5560011,,,,,,,2024-05-16,1,,,,,ポップアップ,0
366,2120001264919,新規,0,2024-05-16,2024-05-16,恒燕堂株式会社,,株式会社,大阪府,大阪市大正区,三軒家西３丁目４番１６号中山ビル３０５Ｃ,,27,108,5510001,,,,,,,2024-05-16,1,,,,,コウエンドウ,0
367,2120001264927,新規,0,2024-05-16,2024-05-16,易興株式会社,,株式会社,大阪府,大阪市西成区,鶴見橋３丁目５番２４号,,27,122,5570031,,,,,,,2024-05-16,1,,,,,エキキョウ,0
371,2120101069581,新規,0,2024-05-16,2024-05-16,株式会社ＮＵＡＧＥ,,株式会社,大阪府,泉北郡忠岡町,忠岡中１丁目１４番８号,,27,341,5950812,,,,,,,2024-05-16,1,,,,,ヌュアージュ,0
372,2120101069598,新規,0,2024-05-16,2024-05-16,星鋼工業株式会社,,株式会社,大阪府,堺市中区,小阪西町３－１２,,27,142,5998264,,,,,,,2024-05-16,1,,,,,セイコウコウギョウ,0
373,2120101069623,新規,0,2024-05-16,2024-05-16,ＧＯＦＵＫＵ株式会社,,株式会社,大阪府,泉南郡熊取町,大宮３丁目６９８番地３号,,27,361,5900450,,,,,,,2024-05-16,1,,,,,ゴフク,0
379,2130001077048,新規,0,2024-05-16,2024-05-16,株式会社ＨＭＫ,,株式会社,京都府,京都市南区,東九条西河辺町４１番地３コープ野村京都南６０１号,,26,107,6018037,,,,,,,2024-05-16,1,,,,,エイチエムケー,0
380,2130005017090,新規,0,2024-05-16,2024-05-16,一般社団法人Ｔｗ研究会,,その他の設立登記法人,京都府,京都市左京区,田中門前町１０３番地の５,,26,103,6068225,,,,,,,2024-05-16,1,,,,,トゥエンディケンキュウカイ,0
384,2140001134145,新規,0,2024-05-16,2024-05-16,株式会社日通広告社,,株式会社,兵庫県,尼崎市,武庫川町２丁目１０－１－８０１,,28,202,6600084,,,,,,,2024-05-16,1,,,,,ニッツウコウコクシャ,0
385,2140003020590,新規,0,2024-05-16,2024-05-16,ＪＩＬＬ　ＮＡＵＧＨＴＹ合同会社,,合同会社,兵庫県,神戸市垂水区,舞多聞西８丁目７番１７号,,28,108,6550051,,,,,,,2024-05-16,1,,,,,ジルノーティー,0
386,2150001027281,新規,0,2024-05-16,2024-05-16,株式会社クライミング,,株式会社,奈良県,奈良市,三松２丁目１０番６号,,29,201,6310074,,,,,,,2024-05-16,1,,,,,クライミング,0
388,2160001025929,新規,0,2024-05-16,2024-05-16,株式会社川北,,株式会社,滋賀県,大津市,唐崎４丁目９番３４号,,25,201,5200106,,,,,,,2024-05-16,1,,,,,,0
394,2180001161383,新規,0,2024-05-16,2024-05-16,双建コーポレーション株式会社,,株式会社,愛知県,名古屋市南区,石元町２丁目２４番地,,23,112,4570075,,,,,,,2024-05-16,1,,,,,ソウケンコーポレーションカブ,0
395,2180001161433,新規,0,2024-05-16,2024-05-16,株式会社恵顔,,株式会社,愛知県,名古屋市北区,長田町４丁目８４番地の３,,23,103,4620834,,,,,,,2024-05-16,1,,,,,エガオ,0
396,2180001161458,新規,0,2024-05-16,2024-05-16,株式会社ｍｕｋｕｕ,,株式会社,愛知県,小牧市,大字二重堀１０７４番地７シャトレ愛松小牧２０１号,,23,219,4850021,,,,,,,2024-05-16,1,,,,,ムク,0
401,2180301038645,新規,0,2024-05-16,2024-05-16,Ｃｌｏｕｄ株式会社,,株式会社,愛知県,豊田市,花園町石根３０番地１,,23,211,4730924,,,,,,,2024-05-16,1,,,,,クラウド,0
402,2190001031354,新規,0,2024-05-16,2024-05-16,株式会社Ｂａｌｌｏｏｎ　ＭｏＭｏ,,株式会社,三重県,津市,大門６番１５号,,24,201,5140027,,,,,,,2024-05-16,1,,,,,バルーンモモ,0
405,2200001042507,新規,0,2024-05-16,2024-05-16,Ｒｅｖｉｎｕｓ　Ｊａｐａｎ株式会社,,株式会社,岐阜県,岐阜市,岩栄町２丁目３３番地パレ岩戸４０３,,21,201,5008134,,,,,,,2024-05-16,1,,,,,レヴィナスジャパン,0
416,2250003003502,新規,0,2024-05-16,2024-05-16,合同会社ｍａｕｎａｍ,,合同会社,山口県,山口市,陶１１４９,,35,203,7540891,,,,,,,2024-05-16,1,,,,,マウナ,0
425,2290001105635,新規,0,2024-05-16,2024-05-16,株式会社ＳＭＩＬＥ　ＬＩＦＥ,,株式会社,福岡県,福岡市中央区,天神２丁目３番１０－１００４号,,40,133,8100001,,,,,,,2024-05-16,1,,,,,スマイルライフ,0
426,2290001105643,新規,0,2024-05-16,2024-05-16,株式会社ＴＭハート,,株式会社,福岡県,福岡市博多区,吉塚６丁目９番２－４０１号グランメール吉塚,,40,132,8120041,,,,,,,2024-05-16,1,,,,,ティーエムハート,0
427,2290001105701,新規,0,2024-05-16,2024-05-16,株式会社４２８フードカンパニー,,株式会社,福岡県,福岡市早良区,西新４丁目４番２０号,,40,137,8140002,,,,,,,2024-05-16,1,,,,,ヨツバフードカンパニー,0
438,2320001020467,新規,0,2024-05-16,2024-05-16,大分産業保健サービスＴＫＤ株式会社,,株式会社,大分県,大分市,新町７番１２－９０３号サンパーク大分中央グラッセ,,44,201,8700028,,,,,,,2024-05-16,1,,,,,オオイタサンギョウホケンサービスティーケーディー,0
439,2320003004369,新規,0,2024-05-16,2024-05-16,ＨＲＹ　ＡＧＲＩＴＥＣＨ合同会社,,合同会社,大分県,宇佐市,大字富山９５４番地,,44,211,8790164,,,,,,,2024-05-16,1,,,,,エイチアールワイアグリテック,0
442,2340003004482,新規,0,2024-05-16,2024-05-16,ＭＯＮＯｐｌａｎ合同会社,,合同会社,鹿児島県,熊毛郡屋久島町,安房２３５１番地８,,46,505,8914311,,,,,,,2024-05-16,1,,,,,モノプラン,0
445,2360001033671,新規,0,2024-05-16,2024-05-16,株式会社一寿自動車,,株式会社,沖縄県,糸満市,字真栄里２３１１－１,,47,210,9010362,,,,,,,2024-05-16,1,,,,,カズジドウシャ,0
451,2370001051268,新規,0,2024-05-16,2024-05-16,株式会社Ｋ・愛塗装,,株式会社,宮城県,石巻市,北村字蛇ケ沢６番地１,,04,202,9871103,,,,,,,2024-05-16,1,,,,,ケイアイトソウ,0
459,2390005009070,新規,0,2024-05-16,2024-05-16,一般社団法人かほく紅工房,,その他の設立登記法人,山形県,西村山郡河北町,谷地戊１２５７番地の１,,06,321,9993511,,,,,,,2024-05-16,1,,,,,カホクベニコウボウ,0
468,2430003016329,新規,0,2024-05-16,2024-05-16,合同会社Ｇ１,,合同会社,北海道,札幌市東区,北二十一条東２３丁目１番２１‐１０２号,,01,103,0650021,,,,,,,2024-05-16,1,,,,,ジーワン,0
478,2500001025638,新規,0,2024-05-16,2024-05-16,マサムネ工房株式会社,,株式会社,愛媛県,四国中央市,中之庄町１０７７番地７,,38,213,7990422,,,,,,,2024-05-16,1,,,,,マサムネコウボウ,0
496,3010001244848,新規,0,2024-05-16,2024-05-16,株式会社グラタス,,株式会社,東京都,中央区,銀座６丁目１４番８号銀座石井ビル,,13,102,1040061,,,,,,,2024-05-16,1,,,,,グラタス,0
499,3010003043744,新規,0,2024-05-16,2024-05-16,ＴＲＩＦＯＬＩＡ合同会社,,合同会社,東京都,中央区,銀座１丁目１２－４Ｎ＆ＥＢＬＤ．７階,,13,102,1040061,,,,,,,2024-05-16,1,,,,,トライフォリア,0
507,3010401182557,新規,0,2024-05-16,2024-05-16,株式会社Ｃｒｅａｔｅ　Ｎｏｖａ,,株式会社,東京都,港区,南青山３丁目１番３６号青山丸竹ビル６Ｆ,,13,103,1070062,,,,,,,2024-05-16,1,,,,,クリエイトノヴァ,0
521,3010701045967,新規,0,2024-05-16,2024-05-16,株式会社Ａｎｄｏｒａｇｏ,,株式会社,東京都,品川区,北品川１丁目３番１６－４０６号,,13,109,1400001,,,,,,,2024-05-16,1,,,,,アンドラゴ,0
522,3010701045975,新規,0,2024-05-16,2024-05-16,株式会社Ａｕｒｏｒａ　Ｔａｌｅｎｔ,,株式会社,東京都,品川区,西五反田１丁目１１番１号ＡＩＯＳ五反田駅前３Ｆ,,13,109,1410031,,,,,,,2024-05-16,1,,,,,オーロラタレント,0
547,3011201025476,新規,0,2024-05-16,2024-05-16,株式会社ＭｅｌｏＬａｂｏ,,株式会社,東京都,中野区,江原町１丁目２５番３号,,13,114,1650023,,,,,,,2024-05-16,1,,,,,メロラボ,0
548,3011203004387,新規,0,2024-05-16,2024-05-16,合同会社ＴＫＣ,,合同会社,東京都,中野区,新井２丁目３０－４ＩＦＯビル７ＦＢ,,13,114,1650026,,,,,,,2024-05-16,1,,,,,ティーケーシー,0
549,3011301029641,新規,0,2024-05-16,2024-05-16,医療ＤＸコンサルティング株式会社,,株式会社,東京都,杉並区,上井草４丁目１－１０,,13,115,1670023,,,,,,,2024-05-16,1,,,,,イリョウディーエックスコンサルティング,0
550,3011501030647,新規,0,2024-05-16,2024-05-16,株式会社新海コンサルティング,,株式会社,東京都,荒川区,南千住６丁目３７－７－１４０３,,13,118,1160003,,,,,,,2024-05-16,1,,,,,シンカイコンサルティング,0
551,3011501030671,新規,0,2024-05-16,2024-05-16,株式会社レフエンジニアリング,,株式会社,東京都,荒川区,荒川３丁目３３番２号,,13,118,1160002,,,,,,,2024-05-16,1,,,,,レフエンジニアリング,0
555,3011703003822,新規,0,2024-05-16,2024-05-16,合同会社景禾,,合同会社,東京都,江戸川区,本一色２丁目１８－２,,13,123,1330044,,,,,,,2024-05-16,1,,,,,ケイガ,0
570,3013301052516,新規,0,2024-05-16,2024-05-16,株式会社天神運輸,,株式会社,東京都,豊島区,巣鴨２丁目１５番１－９０１号,,13,116,1700002,,,,,,,2024-05-16,1,,,,,テンジンウンユ,0
571,3013301052524,新規,0,2024-05-16,2024-05-16,株式会社ＧＴ,,株式会社,東京都,豊島区,東池袋１丁目２５番６号,,13,116,1700013,,,,,,,2024-05-16,1,,,,,ジーティー,0
572,3013303007138,新規,0,2024-05-16,2024-05-16,Ｃｐｙ合同会社,,合同会社,東京都,豊島区,北大塚１丁目１９番３号ｂａ０３－４０２号,,13,116,1700004,,,,,,,2024-05-16,1,,,,,クピー,0
581,3020001157272,新規,0,2024-05-16,2024-05-16,株式会社ＷｉｌｌＣａｎＭｕｓｔ,,株式会社,神奈川県,横浜市港北区,小机町１４６７番地１７,,14,109,2220036,,,,,,,2024-05-16,1,,,,,ウィルキャンマスト,0
587,3020003026112,新規,0,2024-05-16,2024-05-16,ＳＶ　ＷＯＲＫＳ合同会社,,合同会社,神奈川県,川崎市川崎区,本町２丁目５－１１本町ビックガーデン３０２,,14,131,2100001,,,,,,,2024-05-16,1,,,,,エスヴイワークス,0
588,3020003026129,新規,0,2024-05-16,2024-05-16,Ｙｏｋｏｈａｍａ　Ｆｏｏｄ＆Ｓｕｐｐｌｅｍｅｎｔ　Ｈｅａｌｔｈｃａｒｅ　Ｐｒｏｄｕｃｔ合同会社,,合同会社,神奈川県,横浜市中区,山下町３７番地８,,14,104,2310023,,,,,,,2024-05-16,1,,,,,ヨコハマフードアンドサプリメントヘルスケアプロダクト,0
590,3021001082196,新規,0,2024-05-16,2024-05-16,株式会社ＯｃｅａｎＳｈｉｐ,,株式会社,神奈川県,藤沢市,本藤沢５丁目９番７号,,14,205,2510875,,,,,,,2024-05-16,1,,,,,オーシャンシップ,0
596,3030001160317,新規,0,2024-05-16,2024-05-16,株式会社音四郎,,株式会社,埼玉県,所沢市,松葉町２番１９号山岸ビル５Ｆ,,11,208,3590044,,,,,,,2024-05-16,1,,,,,オトシロウ,0
602,3030005021696,新規,0,2024-05-16,2024-05-16,社会保険労務士法人Ｐｌａｃｅ　ｉｎ　ｔｈｅ　Ｓｕｎ,,その他の設立登記法人,埼玉県,熊谷市,鎌倉町１４９番地熊谷オフィス３０２,,11,202,3600046,,,,,,,2024-05-16,1,,,,,プレイスインザサン,0
606,3040001133585,新規,0,2024-05-16,2024-05-16,株式会社藤正工業,,株式会社,千葉県,船橋市,東町７５０番地１５,,12,204,2730863,,,,,,,2024-05-16,1,,,,,フジショウコウギョウ,0
607,3040001133602,新規,0,2024-05-16,2024-05-16,株式会社みずリペア,,株式会社,千葉県,千葉市花見川区,長作町２９番地２０,,12,102,2620044,,,,,,,2024-05-16,1,,,,,ミズリペア,0
608,3040001133610,新規,0,2024-05-16,2024-05-16,ＳＨＩＭＡＴＥＣ株式会社,,株式会社,千葉県,習志野市,屋敷３丁目１番１５号,,12,216,2750004,,,,,,,2024-05-16,1,,,,,シマテック,0
610,3040003024997,新規,0,2024-05-16,2024-05-16,ＫＯＰＩＬＡ　ＩＮＴＥＲＮＡＴＩＯＮＡＬ合同会社,,合同会社,千葉県,野田市,尾崎８３７番地の１２,,12,208,2700235,,,,,,,2024-05-16,1,,,,,コピラインターナショナル,0
612,3050001054772,新規,0,2024-05-16,2024-05-16,株式会社ＫＩＳ,,株式会社,茨城県,ひたちなか市,大字馬渡２５６６番地１５,,08,221,3120012,,,,,,,2024-05-16,1,,,,,ケーアイエス,0
614,3050003008371,新規,0,2024-05-16,2024-05-16,ＭＳ　Ｔｒａｄｉｎｇ合同会社,,合同会社,茨城県,結城郡八千代町,大字大戸新田３７番地１２４,,08,521,3003571,,,,,,,2024-05-16,1,,,,,エムエストレーディング,0
616,3070001041728,新規,0,2024-05-16,2024-05-16,株式会社ＳＥＥＭＯＲＥ,,株式会社,群馬県,館林市,緑町１丁目３２－２２,,10,207,3740025,,,,,,,2024-05-16,1,,,,,シーモア,0
617,3070001041752,新規,0,2024-05-16,2024-05-16,株式会社マルカミ,,株式会社,群馬県,館林市,分福町１０００番地１０,,10,207,3740034,,,,,,,2024-05-16,1,,,,,マルカミ,0
619,3070003005417,新規,0,2024-05-16,2024-05-16,Ａｓａｄ　Ｔｒａｄｉｎｇ合同会社,,合同会社,群馬県,太田市,西本町５５番５号,,10,205,3730033,,,,,,,2024-05-16,1,,,,,アサドトレーディング,0
623,3080401027185,新規,0,2024-05-16,2024-05-16,株式会社Ｗａｔｅｒｐｒｏｏｆ,,株式会社,静岡県,磐田市,福田４８８０番地１,,22,211,4371203,,,,,,,2024-05-16,1,,,,,ウォータープルーフ,0
624,3080405007638,新規,0,2024-05-16,2024-05-16,行政書士法人ＳＳ総合事務センター,,その他の設立登記法人,静岡県,浜松市中央区,曳馬６丁目２５番３６号,,22,138,4300901,,,,,,,2024-05-16,1,,,,,エスエスソウゴウジムセンター,0
627,3100001037458,新規,0,2024-05-16,2024-05-16,株式会社ＣａｖＬｕｃｋ,,株式会社,長野県,下伊那郡高森町,牛牧２２５８番地１,,20,403,3993105,,,,,,,2024-05-16,1,,,,,キャブラック,0
632,3110001038406,新規,0,2024-05-16,2024-05-16,株式会社きくや,,株式会社,新潟県,新潟市北区,新崎７４１番地９,,15,101,9503134,,,,,,,2024-05-16,1,,,,,キクヤ,0
647,3120001264892,新規,0,2024-05-16,2024-05-16,株式会社信道,,株式会社,大阪府,大阪市生野区,中川西１丁目１番４１号,,27,116,5440032,,,,,,,2024-05-16,1,,,,,シンドウ,0
648,3120001264918,新規,0,2024-05-16,2024-05-16,＿媽楽株式会社,00134776,株式会社,大阪府,大阪市城東区,関目５丁目１９番９号関目花博公館１０５Ａ,,27,118,5360008,,,,,,,2024-05-16,1,,,,,ハボラク,0
649,3120001264926,新規,0,2024-05-16,2024-05-16,株式会社ａｎｈｅｌｏ,,株式会社,大阪府,大阪市西区,京町堀３丁目８番１１号,,27,106,5500003,,,,,,,2024-05-16,1,,,,,アネーロ,0
650,3120001264950,新規,0,2024-05-16,2024-05-16,銘迪商事株式会社,,株式会社,大阪府,大阪市東住吉区,今川８丁目５番３４号常磐ビル２０２号室,,27,121,5460003,,,,,,,2024-05-16,1,,,,,メイテキショウジ,0
655,3120003026597,新規,0,2024-05-16,2024-05-16,合同会社ｌｕｃｌｏ,,合同会社,大阪府,大阪市都島区,内代町３丁目８番２６号パークサイド内代１階,,27,102,5340013,,,,,,,2024-05-16,1,,,,,ルクロ,0
656,3120005024310,新規,0,2024-05-16,2024-05-16,司法書士法人ともえみ,,その他の設立登記法人,大阪府,大阪市北区,梅田１丁目１１番４号大阪駅前第４ビル１２Ｆ,,27,127,5300001,,,,,,,2024-05-16,1,,,,,トモエミ,0
659,3120101069580,新規,0,2024-05-16,2024-05-16,株式会社ＹＡＧＩＭＥＴＡＬ,,株式会社,大阪府,南河内郡河南町,大字加納６５７番地の５,,27,382,5850012,,,,,,,2024-05-16,1,,,,,ヤギメタル,0
660,3120101069589,新規,0,2024-05-16,2024-05-16,株式会社ＡＮＴＨＯＭ,,株式会社,大阪府,岸和田市,下松町３丁目４番１－５０６号,,27,202,5960823,,,,,,,2024-05-16,1,,,,,アントム,0
661,3120101069606,新規,0,2024-05-16,2024-05-16,株式会社広源,,株式会社,大阪府,和泉市,府中町７丁目５番１８－３号,,27,219,5940071,,,,,,,2024-05-16,1,,,,,ヒロゲン,0
662,3120101069622,新規,0,2024-05-16,2024-05-16,株式会社ｍｅｗ’ｍ,,株式会社,大阪府,高石市,高師浜３丁目１２番８号,,27,225,5920004,,,,,,,2024-05-16,1,,,,,ミュウム,0
664,3120901049170,新規,0,2024-05-16,2024-05-16,株式会社さくらんぼ,,株式会社,大阪府,高槻市,竹の内町７２番１号グレイス竹の内１０４号室,,27,207,5690043,,,,,,,2024-05-16,1,,,,,サクランボ,0
666,3122001038079,新規,0,2024-05-16,2024-05-16,清和ホールディングス株式会社,,株式会社,大阪府,東大阪市,若江東町６丁目６番１２号,,27,227,5780935,,,,,,,2024-05-16,1,,,,,セイワホールディングス,0
667,3122001038104,新規,0,2024-05-16,2024-05-16,株式会社深谷工務店,,株式会社,大阪府,大東市,中楠の里町６番３４号,,27,218,5740006,,,,,,,2024-05-16,1,,,,,フカヤコウムテン,0
672,3140001134350,新規,0,2024-05-16,2024-05-16,株式会社大誠水道,,株式会社,兵庫県,芦屋市,緑町１番１－１０４号,,28,206,6590042,,,,,,,2024-05-16,1,,,,,タイセイスイドウ,0
678,3150001027280,新規,0,2024-05-16,2024-05-16,株式会社ＰＬＵＳ,,株式会社,奈良県,北葛城郡上牧町,友が丘１丁目１６番２０号,,29,424,6390203,,,,,,,2024-05-16,1,,,,,プラス,0
679,3150001027289,新規,0,2024-05-16,2024-05-16,株式会社Ｎｅｗｒｅｂｏｎ,,株式会社,奈良県,奈良市,橋本町３－１,,29,201,6308217,,,,,,,2024-05-16,1,,,,,ニューリーボン,0
680,3150003003255,新規,0,2024-05-16,2024-05-16,奈良のトビラ合同会社,,合同会社,奈良県,奈良市,角振町３９－１山田ビル店舗３号室,,29,201,6308224,,,,,,,2024-05-16,1,,,,,ナラノトビラ,0
687,3180001161390,新規,0,2024-05-16,2024-05-16,株式会社翔,,株式会社,愛知県,名古屋市中川区,牛立町４丁目２３番地,,23,110,4540043,,,,,,,2024-05-16,1,,,,,カケル,0
688,3180001161457,新規,0,2024-05-16,2024-05-16,株式会社膳や,,株式会社,愛知県,名古屋市名東区,牧の里１丁目１１２３番地,,23,115,4650068,,,,,,,2024-05-16,1,,,,,ゼンヤ,0
689,3180001161465,新規,0,2024-05-16,2024-05-16,アニバーサリープロダクション株式会社,,株式会社,愛知県,名古屋市中区,錦３丁目５－３０三晃社錦ビル４階,,23,106,4600003,,,,,,,2024-05-16,1,,,,,アニバーサリープロダクション,0
690,3180001161473,新規,0,2024-05-16,2024-05-16,株式会社Ｋ＆ＫＳ,,株式会社,愛知県,名古屋市天白区,植田東２丁目５０７番地,,23,116,4680006,,,,,,,2024-05-16,1,,,,,ケイアンドケイエス,0
691,3180001161498,新規,0,2024-05-16,2024-05-16,株式会社ＭＡＴＳＵＧＥ,,株式会社,愛知県,名古屋市昭和区,荒田町５丁目２７番地の２プラウド石川橋５０２号,,23,107,4660844,,,,,,,2024-05-16,1,,,,,マツゲ,0
696,3200001042514,新規,0,2024-05-16,2024-05-16,株式会社濃部テクニカル,,株式会社,岐阜県,可児市,下恵土２８３８－５７,,21,214,5090203,,,,,,,2024-05-16,1,,,,,ノウブテクニカル,0
697,3200003006343,新規,0,2024-05-16,2024-05-16,合同会社ザイオン,,合同会社,岐阜県,安八郡神戸町,大字南方９４０番地,,21,381,5032328,,,,,,,2024-05-16,1,,,,,ザイオン,0
698,3200003006351,新規,0,2024-05-16,2024-05-16,合同会社Ｅｙｅ　ｗａｌｌ,,合同会社,岐阜県,岐阜市,薬師町３４番地５,,21,201,5008253,,,,,,,2024-05-16,1,,,,,アイウォール,0
707,3240001063234,新規,0,2024-05-16,2024-05-16,株式会社ＬＩＦＴ,,株式会社,広島県,広島市中区,大手町１丁目１番２６号大手町一番ビル３０５,,34,101,7300051,,,,,,,2024-05-16,1,,,,,リフト,0
710,3260001039075,新規,0,2024-05-16,2024-05-16,株式会社ストロボエイチ,,株式会社,岡山県,岡山市北区,中山下１丁目１１番１２号ＷＮＡＫＡＳＡＮＧＥ２０１,,33,101,7000821,,,,,,,2024-05-16,1,,,,,ストロボエイチ,0
712,3280001009183,新規,0,2024-05-16,2024-05-16,株式会社雲南ステージ,,株式会社,島根県,雲南市,三刀屋町殿河内７０番地,,32,209,6902633,,,,,,,2024-05-16,1,,,,,ウンナンステージ,0
719,3290001105840,新規,0,2024-05-16,2024-05-16,オンモード株式会社,,株式会社,福岡県,福岡市博多区,博多駅前２丁目１７－１博多プレステージ１Ｆ,,40,132,8120011,,,,,,,2024-05-16,1,,,,,オンモード,0
722,3290003015286,新規,0,2024-05-16,2024-05-16,合同会社にゃあねっと,,合同会社,福岡県,福岡市中央区,天神４丁目６－２８天神ファーストビル７階,,40,133,8100001,,,,,,,2024-05-16,1,,,,,ニャアネット,0
726,3320003004368,新規,0,2024-05-16,2024-05-16,ＨＲＹ合同会社,,合同会社,大分県,宇佐市,大字富山９５４番地,,44,211,8790164,,,,,,,2024-05-16,1,,,,,エイチアールワイ,0
727,3320003004376,新規,0,2024-05-16,2024-05-16,合同会社星ｔｏあかり,,合同会社,大分県,別府市,大字南立石２１７８番地の６ロフティ別府南立石弐番館６０８号,,44,202,8740000,,,,,,,2024-05-16,1,,,,,,0
728,3330001032072,新規,0,2024-05-16,2024-05-16,ＴＳリアライズ株式会社,,株式会社,熊本県,熊本市西区,池上町８５５番地３,,43,103,8600048,,,,,,,2024-05-16,1,,,,,ティーエスリアライズ,0
737,3360001033662,新規,0,2024-05-16,2024-05-16,株式会社アスタラビスタ,,株式会社,沖縄県,南城市,佐敷字津波古２３３６番地,,47,215,9011414,,,,,,,2024-05-16,1,,,,,アスタラビスタ,0
750,3410005006584,新規,0,2024-05-16,2024-05-16,ＮＰＯ法人コンビゴーレ八幡平,,その他の設立登記法人,秋田県,鹿角市,八幡平字熊沢外８国有林,,05,209,0185141,,,,,,,2024-05-16,1,,,,,エヌピーオーホウジンコンビゴーレハチマンタイ,0
751,3420001018723,新規,0,2024-05-16,2024-05-16,株式会社ＫＳ２,,株式会社,青森県,三沢市,中央町２丁目３番３４号,,02,207,0330001,,,,,,,2024-05-16,1,,,,,ケーエスツー,0
757,3430001091819,新規,0,2024-05-16,2024-05-16,株式会社ＭＣＦ,,株式会社,北海道,札幌市中央区,北四条西１６丁目１番地,,01,101,0600004,,,,,,,2024-05-16,1,,,,,エムシーエフ,0
759,3430003016328,新規,0,2024-05-16,2024-05-16,合同会社ＰＵＲＰＯＳＥ,,合同会社,北海道,札幌市白石区,中央二条１丁目１番－６１－１０３号,,01,104,0030012,,,,,,,2024-05-16,1,,,,,パーパス,0
760,3430003016336,新規,0,2024-05-16,2024-05-16,ＮＢＤ合同会社,,合同会社,北海道,札幌市中央区,北一条西１６丁目１番３０－７０２号,,01,101,0600001,,,,,,,2024-05-16,1,,,,,エヌビーディー,0
770,3700150125449,新規,0,2024-05-16,2024-05-16,ｓｈｅｎｚｈｅｎｓｈｉ　ｊｉａｂｅｉｔｅ　ｋｅｊｉ　ｙｏｕｘｉａｎｇｏｎｇｓｉ,,外国会社等,,,,,,,,９ｃ　ｚｈｏｎｇｈａｉｄａｓｈａｎｄｉ　ｈｏｎｇｍｉａｎｌｕ　ｈｅｎｇｇａｎｇｊｉｅｄａｏ　ｌｏｎｇｇａｎｇｑｕ　ｓｈｅｎｚｈｅｎ　ｇｕａｎｇｄｏｎｇ,,,,,,2024-05-16,1,,,,,シンセンシカカイトクカギユウゲンコウシ,0
787,4010001244814,新規,0,2024-05-16,2024-05-16,ＨＢＤ株式会社,,株式会社,東京都,中央区,銀座１丁目１６番７号銀座大栄ビル５Ｆ,,13,102,1040061,,,,,,,2024-05-16,1,,,,,エイチビーディ,0
788,4010003043727,新規,0,2024-05-16,2024-05-16,合同会社丸直商店,,合同会社,東京都,中央区,日本橋蛎殻町１丁目１３番１号,,13,102,1030014,,,,,,,2024-05-16,1,,,,,マルナオショウテン,0
789,4010003043743,新規,0,2024-05-16,2024-05-16,谷商事合同会社,,合同会社,東京都,文京区,本郷１丁目３２番１４－３０３号,,13,105,1130033,,,,,,,2024-05-16,1,,,,,タニショウジ,0
792,4010101016139,新規,0,2024-05-16,2024-05-16,株式会社瑛和,,株式会社,東京都,八王子市,寺町２９番地２２グロブナーハウス寺町５０３号室,,13,201,1920073,,,,,,,2024-05-16,1,,,,,エイワ,0
805,4010401182341,新規,0,2024-05-16,2024-05-16,株式会社アイジー,,株式会社,東京都,港区,愛宕１丁目６番８号愛宕小西ビル２Ｆ,,13,103,1050002,,,,,,,2024-05-16,1,,,,,アイジー,0
806,4010401182449,新規,0,2024-05-16,2024-05-16,株式会社Ｅｎｔａａｒ,,株式会社,東京都,港区,虎ノ門５丁目９－１麻布台ヒルズガーデンプラザＢ５Ｆ,,13,103,1050001,,,,,,,2024-05-16,1,,,,,エンター,0
807,4010401182473,新規,0,2024-05-16,2024-05-16,Ｅｑｕｉｔｉｘ　Ｊａｐａｎ株式会社,,株式会社,東京都,港区,浜松町２丁目２番１５号浜松町ダイヤビル２Ｆ,,13,103,1050013,,,,,,,2024-05-16,1,,,,,エクイティックスジャパン,0
812,4010403032619,新規,0,2024-05-16,2024-05-16,Ｖｉｓｉｏｎ　Ｐｏｉｎｔ　Ｓｙｓｔｅｍｓ合同会社,,合同会社,東京都,港区,元麻布３丁目１番６号,,13,103,1060046,,,,,,,2024-05-16,1,,,,,ビジョンポイントシステムズ,0
830,4010901055294,新規,0,2024-05-16,2024-05-16,株式会社ｔｈｒｅｅＷｉｔｈ,,株式会社,東京都,世田谷区,奥沢５丁目４２－３,,13,112,1580083,,,,,,,2024-05-16,1,,,,,スリーウィズ,0
831,4010903009059,新規,0,2024-05-16,2024-05-16,Ｓｔｕｄｉｏ　Ｙｏｊｉ合同会社,,合同会社,東京都,世田谷区,代沢２丁目４８－２２メイプルスクウェア１０１,,13,112,1550032,,,,,,,2024-05-16,1,,,,,スタジオヨウジ,0
838,4011003019080,新規,0,2024-05-16,2024-05-16,合同会社龍,,合同会社,東京都,渋谷区,代々木５丁目９番７号,,13,113,1510053,,,,,,,2024-05-16,1,,,,,リュウ,0
841,4011201025475,新規,0,2024-05-16,2024-05-16,インフィニティコスメ株式会社,,株式会社,東京都,中野区,東中野３丁目１４番２６号,,13,114,1640003,,,,,,,2024-05-16,1,,,,,インフィニティコスメ,0
843,4011401026075,新規,0,2024-05-16,2024-05-16,株式会社日信新源,,株式会社,東京都,板橋区,成増１丁目１３番１２号第２グリーンビル２階,,13,119,1750094,,,,,,,2024-05-16,1,,,,,ニッシンシンゲン,0
848,4011701027293,新規,0,2024-05-16,2024-05-16,溥博株式会社,,株式会社,東京都,江戸川区,江戸川６丁目４０－１４、２０７号室,,13,123,1340013,,,,,,,2024-05-16,1,,,,,フハク,0
852,4012403006560,新規,0,2024-05-16,2024-05-16,合同会社ＧＲＹＰＳ,,合同会社,東京都,小金井市,前原町３丁目６番２４号,,13,210,1840013,,,,,,,2024-05-16,1,,,,,グリップス,0
855,4012803003397,新規,0,2024-05-16,2024-05-16,合同会社アスプラ,,合同会社,東京都,国立市,西２丁目２５番地の２７,,13,215,1860005,,,,,,,2024-05-16,1,,,,,アスプラ,0
856,4013301052515,新規,0,2024-05-16,2024-05-16,株式会社７ＲＵＳＨ,,株式会社,東京都,豊島区,高松２丁目４０番１４号,,13,116,1710042,,,,,,,2024-05-16,1,,,,,セブンラッシュ,0
857,4013301052523,新規,0,2024-05-16,2024-05-16,株式会社ＬｉＲＩＥ,,株式会社,東京都,豊島区,西巣鴨１丁目３番２号エアタワー大塚１０１号室,,13,116,1700001,,,,,,,2024-05-16,1,,,,,リリエ,0
864,4020001157156,新規,0,2024-05-16,2024-05-16,株式会社ＬＥＧＡＲＥＡ,,株式会社,神奈川県,横浜市港南区,上大岡西２丁目９番１０号ＧＳハイム上大岡１０８,,14,111,2330002,,,,,,,2024-05-16,1,,,,,レガリア,0
865,4020001157230,新規,0,2024-05-16,2024-05-16,株式会社擁壁あんしん調査,,株式会社,神奈川県,横浜市西区,北幸２丁目１０番４８号むつみビル３階,,14,103,2200004,,,,,,,2024-05-16,1,,,,,ヨウヘキアンシンチョウサ,0
866,4020001157247,新規,0,2024-05-16,2024-05-16,ＶＲ　Ｐｉａｎｏ株式会社,,株式会社,神奈川県,横浜市西区,浅間町１丁目４番３号ウィザードビル４０２,,14,103,2200072,,,,,,,2024-05-16,1,,,,,ブイアールピアノ,0
869,4020003026111,新規,0,2024-05-16,2024-05-16,丘本合同会社,,合同会社,神奈川県,川崎市多摩区,中野島５丁目１番１号リバーグリーン和泉１５０７,,14,135,2140012,,,,,,,2024-05-16,1,,,,,オカモト,0
870,4020003026144,新規,0,2024-05-16,2024-05-16,合同会社ｓｔ　ｅｄｕｃａｔｉｏｎ,,合同会社,神奈川県,川崎市麻生区,虹ケ丘１丁目１１番９号,,14,137,2150015,,,,,,,2024-05-16,1,,,,,エスティーエジュケーション,0
875,4021003014510,新規,0,2024-05-16,2024-05-16,合同会社リベルタ,,合同会社,神奈川県,相模原市南区,相模大野６丁目２３番１１－３０４号,,14,153,2520303,,,,,,,2024-05-16,1,,,,,リベルタ,0
890,4030003024279,新規,0,2024-05-16,2024-05-16,ＳｈｕｔｔｅｒＣｈａｎｃｅ合同会社,,合同会社,埼玉県,富士見市,鶴瀬西２丁目７アルビス鶴瀬６－３０４,,11,235,3540026,,,,,,,2024-05-16,1,,,,,シャッターチャンス,0
895,4040001133551,新規,0,2024-05-16,2024-05-16,株式会社柳美,,株式会社,千葉県,松戸市,三矢小台３丁目１番地４コーポ松南１０２号,,12,207,2710087,,,,,,,2024-05-16,1,,,,,リュウビ,0
896,4040001133584,新規,0,2024-05-16,2024-05-16,株式会社ＳＨＩＮＳＹＯＵ,,株式会社,千葉県,鴨川市,東町４８４番地１,,12,223,2960041,,,,,,,2024-05-16,1,,,,,シンショウ,0
897,4040001133592,新規,0,2024-05-16,2024-05-16,株式会社西林工業,,株式会社,千葉県,野田市,清水字中原付３８２番地５９,,12,208,2780043,,,,,,,2024-05-16,1,,,,,ニシバヤシコウギョウ,0
907,4070001041751,新規,0,2024-05-16,2024-05-16,株式会社ＳＷＳグループ,,株式会社,群馬県,高崎市,吉井町石神１０２番地３,,10,202,3702114,,,,,,,2024-05-16,1,,,,,エスダブリューエスグループ,0
908,4070005010273,新規,0,2024-05-16,2024-05-16,特定非営利活動法人シルク・ドゥ・ひみつきち,,その他の設立登記法人,群馬県,伊勢崎市,間野谷町１３番地１,,10,204,3792201,,,,,,,2024-05-16,1,,,,,シルクドゥヒミツキチ,0
909,4080401027184,新規,0,2024-05-16,2024-05-16,株式会社ＳＨＡＦＴ,,株式会社,静岡県,浜松市中央区,東伊場１丁目２６番７－１号,,22,138,4328036,,,,,,,2024-05-16,1,,,,,シャフト,0
914,4110001038405,新規,0,2024-05-16,2024-05-16,高村商事株式会社,00134778,株式会社,新潟県,新発田市,中央町３丁目７番３号,,15,206,9570053,,,,,,,2024-05-16,1,,,,,タカムラショウジ,0
915,4110001038413,新規,0,2024-05-16,2024-05-16,株式会社ミヤサンファーマシー,,株式会社,新潟県,新潟市中央区,沼垂西１丁目８番３号,,15,103,9500076,,,,,,,2024-05-16,1,,,,,ミヤサンファーマシー,0
916,4110001038421,新規,0,2024-05-16,2024-05-16,株式会社ａｎｄ　Ａｉｓｌｅ　Ｄｏ,,株式会社,新潟県,新潟市中央区,南笹口１丁目１番３８号コープオリンピア８０８,,15,103,9500912,,,,,,,2024-05-16,1,,,,,アンドアイルドゥ,0
918,4110005017090,新規,0,2024-05-16,2024-05-16,ＮＰＯ法人しんえん,,その他の設立登記法人,新潟県,新発田市,真中２０９６番地６,,15,206,9570201,,,,,,,2024-05-16,1,,,,,シンエン,0
926,4120001264900,新規,0,2024-05-16,2024-05-16,株式会社エム・デザイン,,株式会社,大阪府,大阪市旭区,森小路２丁目２０番２８号ベルカーサ森小路３０２号,,27,117,5350013,,,,,,,2024-05-16,1,,,,,エムデザイン,0
927,4120001264909,新規,0,2024-05-16,2024-05-16,山高株式会社,,株式会社,大阪府,大阪市天王寺区,伶人町２－３１ＳｔａｒＯｆｆｉｃｅ大阪天王寺北８０２号室,,27,109,5430061,,,,,,,2024-05-16,1,,,,,ヤマタカ,0
928,4120001264917,新規,0,2024-05-16,2024-05-16,庄晶商事株式会社,,株式会社,大阪府,大阪市城東区,関目５丁目１９番９号関目花博公館４１４Ａ,,27,118,5360008,,,,,,,2024-05-16,1,,,,,ショウショウショウジ,0
929,4120001264925,新規,0,2024-05-16,2024-05-16,ＩＦ商事株式会社,,株式会社,大阪府,大阪市中央区,島之内１丁目２１－２３大起興産長堀橋ビル６０３,,27,128,5420082,,,,,,,2024-05-16,1,,,,,アイエフショウジ,0
930,4120001264941,新規,0,2024-05-16,2024-05-16,株式会社ＫＥＩＸ,,株式会社,大阪府,大阪市北区,梅田１丁目２番２号大阪駅前第２ビル１２－１２,,27,127,5300001,,,,,,,2024-05-16,1,,,,,ケイックス,0
931,4120001264958,新規,0,2024-05-16,2024-05-16,阿克森量子株式会社,,株式会社,大阪府,大阪市天王寺区,伶人町２－３１ＳｔａｒＯｆｆｉｃｅ大阪天王寺北７０３号室,,27,109,5430061,,,,,,,2024-05-16,1,,,,,アコクシンリョウシ,0
935,4120103005847,新規,0,2024-05-16,2024-05-16,合同会社土平,,合同会社,大阪府,堺市西区,平岡町５５番地５,,27,144,5938307,,,,,,,2024-05-16,1,,,,,ツチヒラ,0
943,4140001134473,新規,0,2024-05-16,2024-05-16,石原工業株式会社,,株式会社,兵庫県,赤穂市,高野１２２３番地,,28,212,6780171,,,,,,,2024-05-16,1,,,,,イシハラコウギョウ,0
948,4150001027288,新規,0,2024-05-16,2024-05-16,株式会社楠オフィス,,株式会社,奈良県,生駒市,緑ケ丘１４２６番地１６１,,29,209,6300262,,,,,,,2024-05-16,1,,,,,クスノキオフィス,0
953,4180001161464,新規,0,2024-05-16,2024-05-16,株式会社味仙,,株式会社,愛知県,名古屋市千種区,楠元町２丁目８番地モンシャトー２０３号,,23,101,4640037,,,,,,,2024-05-16,1,,,,,ミセン,0
954,4180001161480,新規,0,2024-05-16,2024-05-16,ＴＡＫ創和株式会社,,株式会社,愛知県,稲沢市,国府宮１丁目３番２０－４０８号,,23,220,4928137,,,,,,,2024-05-16,1,,,,,タックソウワ,0
955,4180001161506,新規,0,2024-05-16,2024-05-16,ＣＢＭ株式会社,,株式会社,愛知県,名古屋市港区,大西１丁目９７番地アロッジオＭＩＩＩ,00134787,23,111,4550861,,,,,,,2024-05-16,1,,,,,シービーエム,0
963,4210003001788,新規,0,2024-05-16,2024-05-16,合同会社ｓｉｅｍｐｒｅ,,合同会社,福井県,鯖江市,川去町第７号９番地１１,,18,207,9160088,,,,,,,2024-05-16,1,,,,,シエンプレ,0
968,4240001063217,新規,0,2024-05-16,2024-05-16,株式会社リスタート,,株式会社,広島県,広島市東区,東区福田一丁目６７７番５号,,34,102,7320000,,,,,,,2024-05-16,1,,,,,リスタート,0
969,4240001063233,新規,0,2024-05-16,2024-05-16,ＨＳコーポレーション株式会社,,株式会社,広島県,広島市中区,幟町１２番１号,,34,101,7300016,,,,,,,2024-05-16,1,,,,,エイチエスコーポレーション,0
970,4240001063241,新規,0,2024-05-16,2024-05-16,株式会社ＡＬＥＴＡ,,株式会社,広島県,広島市西区,楠木町１丁目９番１１号,,34,104,7330002,,,,,,,2024-05-16,1,,,,,アレッタ,0
973,4260001039066,新規,0,2024-05-16,2024-05-16,木土株式会社,,株式会社,岡山県,岡山市北区,牟佐１４１－５,,33,101,7012141,,,,,,,2024-05-16,1,,,,,キツチ,0
974,4260001039074,新規,0,2024-05-16,2024-05-16,株式会社ＳＴＡＰＰＹ,,株式会社,岡山県,岡山市北区,表町１丁目１０番９号中之町第９号ビル１Ｆ,,33,101,7000822,,,,,,,2024-05-16,1,,,,,スタッピー,0
976,4270001008978,新規,0,2024-05-16,2024-05-16,ディグランド株式会社,,株式会社,鳥取県,鳥取市,国府町宮下１２０１番地,,31,201,6800151,,,,,,,2024-05-16,1,,,,,ディグランド,0
978,4270003001626,新規,0,2024-05-16,2024-05-16,合同会社おもしろきこともなき世をおもしろく,,合同会社,鳥取県,鳥取市,南安長１丁目１１番１７号,,31,201,6800914,,,,,,,2024-05-16,1,,,,,オモシロキコトモナキヨヲオモシロク,0
983,4290001105724,新規,0,2024-05-16,2024-05-16,株式会社ｉｎｆｕｓｅ　ｊａｐａｎ,,株式会社,福岡県,福岡市博多区,元町１丁目８番２号山脇ビル１階,,40,132,8120877,,,,,,,2024-05-16,1,,,,,インフューズジャパン,0
988,4290801030568,新規,0,2024-05-16,2024-05-16,株式会社ＬＩＮＫ,,株式会社,福岡県,北九州市小倉北区,中島１丁目７番２３－４０１号,,40,106,8020076,,,,,,,2024-05-16,1,,,,,リンク,0
1002,4400001016661,新規,0,2024-05-16,2024-05-16,川尻漁業株式会社,,株式会社,岩手県,陸前高田市,気仙町字古谷２番地の１,,03,210,0292204,,,,,,,2024-05-16,1,,,,,カワジリギョギョウ,0
1008,4430003016327,新規,0,2024-05-16,2024-05-16,合同会社Ｎｅｘｔ　Ｉｎｔｅｒｆａｃｅ,,合同会社,北海道,恵庭市,北柏木町１丁目１０番３号,,01,231,0611433,,,,,,,2024-05-16,1,,,,,ネクストインターフェイス,0
1013,4470001020194,新規,0,2024-05-16,2024-05-16,ひかり工業株式会社,,株式会社,香川県,仲多度郡多度津町,大字奥白方３８８番地,,37,404,7640035,,,,,,,2024-05-16,1,,,,,ヒカリコウギョウ,0
1016,4500001025636,新規,0,2024-05-16,2024-05-16,株式会社直伸工業,,株式会社,愛媛県,松山市,土居田町７１６番地１,,38,201,7900056,,,,,,,2024-05-16,1,,,,,チョクシンコウギョウ,0
1020,4700150125448,新規,0,2024-05-16,2024-05-16,ＹＩＷＵＳＨＩ　ＹＡＮＹＵ　ＧＯＮＧＹＩＰＩＮ　ＹＯＵＸＩＡＮＧＯＮＧＳＩ,,外国会社等,,,,,,,,Ｙｉｗｕｓｈｉ　Ｂｅｉｙｕａｎ　Ｊｉｅｄａｏ　Ｘｉａｎｄａｉｍｉｎｇｒｅｎ　Ｈｕａｙｕａｎ，１　Ｄｏｎｇ，５　Ｄａｎｙｕａｎ，４０１，Ｊｉｎｈｕａ，Ｚｈｅｊｉａｎｇ,,,,,,2024-05-16,1,,,,,ギウシゲンショコウゲイヒンユウゲンコウシ,0
1026,5010001244763,新規,0,2024-05-16,2024-05-16,株式会社ステラーグリーン,,株式会社,東京都,中央区,京橋２丁目２番１号,,13,102,1040031,,,,,,,2024-05-16,1,,,,,ステラーグリーン,0
1027,5010001244821,新規,0,2024-05-16,2024-05-16,株式会社ＳＥＣＵＲＩＴＹ　ＢＲＩＤＧＥ,,株式会社,東京都,中央区,銀座１丁目１５番４号銀座一丁目ビル７階,,13,102,1040061,,,,,,,2024-05-16,1,,,,,セキュリティブリッジ,0
1028,5010001244904,新規,0,2024-05-16,2024-05-16,株式会社Ｕｎｉ‐Ｒａｄｅ,,株式会社,東京都,中央区,勝どき４丁目６番１,,13,102,1040054,,,,,,,2024-05-16,1,,,,,ユニレイド,0
1032,5010003043718,新規,0,2024-05-16,2024-05-16,ＩＳＹ合同会社,,合同会社,東京都,中央区,銀座１丁目２２番１１号銀座大竹ビジデンス２Ｆ,,13,102,1040061,,,,,,,2024-05-16,1,,,,,アイエスワイ,0
1049,5010405023210,新規,0,2024-05-16,2024-05-16,Ｄｙｎａ一般社団法人,,その他の設立登記法人,東京都,港区,虎ノ門２丁目６番１号,,13,103,1050001,,,,,,,2024-05-16,1,,,,,ダイナ,0
1058,5010603010836,新規,0,2024-05-16,2024-05-16,京匯合同会社,,合同会社,東京都,江東区,豊洲２丁目５－１－３７０６室,,13,108,1350061,,,,,,,2024-05-16,1,,,,,キョウカイ,0
1059,5010701045981,新規,0,2024-05-16,2024-05-16,Ｊ＆Ｋ株式会社,,株式会社,東京都,品川区,大井５丁目１３－５ブルーハイネス１０１,,13,109,1400014,,,,,,,2024-05-16,1,,,,,ジェイアンドケイ,0
1063,5010901055302,新規,0,2024-05-16,2024-05-16,株式会社ＳＵＵ,,株式会社,東京都,世田谷区,経堂１丁目１７番１２号,,13,112,1560052,,,,,,,2024-05-16,1,,,,,エスユーユー,0
1075,5011101107356,新規,0,2024-05-16,2024-05-16,株式会社ＳＴＡＲ,,株式会社,東京都,新宿区,歌舞伎町２丁目１４番８号,,13,104,1600021,,,,,,,2024-05-16,1,,,,,スター,0
1078,5011201025474,新規,0,2024-05-16,2024-05-16,株式会社７ｃ,,株式会社,東京都,中野区,中央１丁目２３－７ハイツスモルカ３０１,,13,114,1640011,,,,,,,2024-05-16,1,,,,,セブンシー,0
1079,5011205002602,新規,0,2024-05-16,2024-05-16,一般社団法人社長のカラオケ普及協会,,その他の設立登記法人,東京都,中野区,本町５丁目１７番５号ａｒｔｏｒｉｕｍ新中野１０１,,13,114,1640012,,,,,,,2024-05-16,1,,,,,シャチョウノカラオケフキュウキョウカイ,0
1082,5011503006065,新規,0,2024-05-16,2024-05-16,合同会社アベイモア,,合同会社,東京都,北区,志茂１丁目１７番７号１０１号,,13,117,1150042,,,,,,,2024-05-16,1,,,,,,0
1112,5020001157196,新規,0,2024-05-16,2024-05-16,株式会社ＧＲＯＶＥ,,株式会社,神奈川県,川崎市高津区,久本１丁目３番３－５０９号,,14,134,2130011,,,,,,,2024-05-16,1,,,,,グローブ,0
1113,5020001157246,新規,0,2024-05-16,2024-05-16,Ｆｌｏｗ株式会社,,株式会社,神奈川県,横浜市西区,北幸２丁目１０番４８号むつみビル３階,,14,103,2200004,,,,,,,2024-05-16,1,,,,,フロー,0
1123,5020003026110,新規,0,2024-05-16,2024-05-16,合同会社まいまいケアプラン,,合同会社,神奈川県,川崎市幸区,南加瀬２丁目３５番１０号,,14,132,2120055,,,,,,,2024-05-16,1,,,,,マイマイケアプラン,0
1128,5021001082194,新規,0,2024-05-16,2024-05-16,株式会社ＥＧＡＯ,,株式会社,神奈川県,藤沢市,鵠沼石上１丁目８番８号,,14,205,2510025,,,,,,,2024-05-16,1,,,,,エガオ,0
1131,5021003014518,新規,0,2024-05-16,2024-05-16,合同会社タザキホーム,,合同会社,神奈川県,海老名市,中野１丁目２６番５２号,,14,215,2430425,,,,,,,2024-05-16,1,,,,,タザキホーム,0
1135,5021005013113,新規,0,2024-05-16,2024-05-16,特定非営利活動法人コハグ,,その他の設立登記法人,神奈川県,鎌倉市,大船１丁目１２番地１０号湘南第５ビル４階,,14,204,2470056,,,,,,,2024-05-16,1,,,,,コハグ,0
1139,5030001160430,新規,0,2024-05-16,2024-05-16,株式会社さくらマネジメント,,株式会社,埼玉県,狭山市,大字北入曽７４３番地の１１,,11,215,3501315,,,,,,,2024-05-16,1,,,,,サクラマネジメント,0
1140,5030003024311,新規,0,2024-05-16,2024-05-16,合同会社エミシアパートナーズ,,合同会社,埼玉県,さいたま市浦和区,瀬ヶ崎４丁目９番１３号,,11,107,3300044,,,,,,,2024-05-16,1,,,,,エミシアパートナーズ,0
1147,5040001133583,新規,0,2024-05-16,2024-05-16,株式会社ベリーテクノロジー,,株式会社,千葉県,松戸市,大橋５９１番地の１０,,12,207,2702224,,,,,,,2024-05-16,1,,,,,ベリーテクノロジー,0
1148,5040001133609,新規,0,2024-05-16,2024-05-16,株式会社フロム,,株式会社,千葉県,船橋市,海神町南１丁目７１４番地ハイホーム西船橋１１０号,,12,204,2730024,,,,,,,2024-05-16,1,,,,,フロム,0
1167,5070003005415,新規,0,2024-05-16,2024-05-16,Ｒｅｈｍａｎｉ　Ｔｒａｄｉｎｇ合同会社,,合同会社,群馬県,北群馬郡榛東村,大字新井１２６７番地２,,10,344,3703503,,,,,,,2024-05-16,1,,,,,レフマニトレーディング,0
1169,5070005010272,新規,0,2024-05-16,2024-05-16,行政書士法人くるま登録群馬,,その他の設立登記法人,群馬県,前橋市,上泉町３９７番地７,,10,201,3710007,,,,,,,2024-05-16,1,,,,,,0
1171,5080003003203,新規,0,2024-05-16,2024-05-16,合同会社葵工業,,合同会社,静岡県,静岡市葵区,柳町１２５番地の５カーサデラフォレスタ４０２,,22,101,4200007,,,,,,,2024-05-16,1,,,,,アオイコウギョウ,0
1172,5080101024753,新規,0,2024-05-16,2024-05-16,株式会社小早川工業,,株式会社,静岡県,三島市,長伏１００番地の１２,,22,206,4110824,,,,,,,2024-05-16,1,,,,,コバヤカワコウギョウ,0
1174,5080401027183,新規,0,2024-05-16,2024-05-16,株式会社ゆるりライフラボ,,株式会社,静岡県,浜松市中央区,幸３丁目１７番３７号,,22,138,4338123,,,,,,,2024-05-16,1,,,,,ユルリライフラボ,0
1180,5100001037448,新規,0,2024-05-16,2024-05-16,株式会社ＩＴｇｒｏｕｐ,,株式会社,長野県,長野市,三輪９丁目２８番１１号,,20,201,3800803,,,,,,,2024-05-16,1,,,,,アイティーグループ,0
1191,5120001264899,新規,0,2024-05-16,2024-05-16,アイプラン株式会社,,株式会社,大阪府,大阪市東成区,中本２丁目６－２２,,27,115,5370022,,,,,,,2024-05-16,1,,,,,アイプラン,0
1192,5120001264908,新規,0,2024-05-16,2024-05-16,株式会社ＴＳＵＧＵＭＩ,,株式会社,大阪府,大阪市中央区,谷町５丁目６－１０谷５ビル２０１,,27,128,5400012,,,,,,,2024-05-16,1,,,,,ツグミ,0
1193,5120001264916,新規,0,2024-05-16,2024-05-16,日豊偉業株式会社,,株式会社,大阪府,大阪市城東区,関目５丁目１９番９号関目花博公館１１０Ａ,,27,118,5360008,,,,,,,2024-05-16,1,,,,,ニッポウイギョウ,0
1194,5120001264932,新規,0,2024-05-16,2024-05-16,株式会社Ｒｉｐｐｌｅ,,株式会社,大阪府,大阪市天王寺区,清水谷町１７番６号ウノシヨウビル２０１号室,,27,109,5430011,,,,,,,2024-05-16,1,,,,,リップル,0
1195,5120001264949,新規,0,2024-05-16,2024-05-16,テクノプラン株式会社,,株式会社,大阪府,大阪市西区,江之子島１丁目７番２１－１００２号,,27,106,5500006,,,,,,,2024-05-16,1,,,,,テクノプラン,0
1196,5120001264973,新規,0,2024-05-16,2024-05-16,株式会社ＴＥＲＡ,,株式会社,大阪府,大阪市城東区,今福西５丁目１番２５－２０１号,,27,118,5360004,,,,,,,2024-05-16,1,,,,,テラ,0
1197,5120001265030,新規,0,2024-05-16,2024-05-16,尚陽株式会社,,株式会社,大阪府,大阪市中央区,島之内２丁目１０ー１２ー７Ｆ,,27,128,5420082,,,,,,,2024-05-16,1,,,,,ショウヨウ,0
1202,5120901049169,新規,0,2024-05-16,2024-05-16,株式会社阪神エコサービス,,株式会社,大阪府,豊能郡能勢町,上杉１３０番地の９,,27,322,5630365,,,,,,,2024-05-16,1,,,,,ハンシンエコサービス,0
1203,5122001038110,新規,0,2024-05-16,2024-05-16,株式会社ケンタサカ,,株式会社,大阪府,東大阪市,下小阪１丁目１３番４－８０２号,,27,227,5770803,,,,,,,2024-05-16,1,,,,,ケンタサカ,0
1208,5130005017096,新規,0,2024-05-16,2024-05-16,一般社団法人清水焼の郷まつり,,その他の設立登記法人,京都府,京都市山科区,川田清水焼団地町８番地１,,26,110,6078322,,,,,,,2024-05-16,1,,,,,キヨミズヤキノサトマツリ,0
1211,5140003020588,新規,0,2024-05-16,2024-05-16,富和商事合同会社,,合同会社,兵庫県,神戸市兵庫区,本町１丁目３番１６－２０２号,,28,105,6520834,,,,,,,2024-05-16,1,,,,,トミワショウジ,0
1212,5140005027086,新規,0,2024-05-16,2024-05-16,一般社団法人山根紀美子基金,,その他の設立登記法人,兵庫県,養父市,八鹿町国木１３３－１,,28,222,6670044,,,,,,,2024-05-16,1,,,,,ヤマネキミコキキン,0
1213,5150003003253,新規,0,2024-05-16,2024-05-16,合同会社ひかり,,合同会社,奈良県,桜井市,大字笠９４番地,,29,206,6330133,,,,,,,2024-05-16,1,,,,,ヒカリ,0
1217,5170001018136,新規,0,2024-05-16,2024-05-16,株式会社吉川不動産,,株式会社,和歌山県,橋本市,城山台３丁目１番地の４,,30,203,6480054,,,,,,,2024-05-16,1,,,,,ヨシカワフドウサン,0
1224,5180001161463,新規,0,2024-05-16,2024-05-16,株式会社Ｒｅｕｎｉｏｎ,,株式会社,愛知県,瀬戸市,坊金町１５９番地の２,,23,204,4890979,,,,,,,2024-05-16,1,,,,,リユニオン,0
1241,5190001031351,新規,0,2024-05-16,2024-05-16,株式会社寺田熔接,,株式会社,三重県,鈴鹿市,平野町７７３８番地の１１,,24,207,5130835,,,,,,,2024-05-16,1,,,,,テラダヨウセツ,0
1242,5190003004685,新規,0,2024-05-16,2024-05-16,合同会社庄内環境整備,,合同会社,三重県,鈴鹿市,西庄内町１４９９番地,,24,207,5190271,,,,,,,2024-05-16,1,,,,,ショウナイカンキョウセイビ,0
1244,5200001042529,新規,0,2024-05-16,2024-05-16,株式会社紬葵,,株式会社,岐阜県,岐阜市,東改田字鶴田４３－３,,21,201,5011143,,,,,,,2024-05-16,1,,,,,ツムギ,0
1245,5210001019765,新規,0,2024-05-16,2024-05-16,株式会社ＡＲＡＴＡ,,株式会社,福井県,福井市,大島町山崎８０４番地５,,18,201,9188018,,,,,,,2024-05-16,1,,,,,アラタ,0
1258,5240001063224,新規,0,2024-05-16,2024-05-16,株式会社魚靖,,株式会社,広島県,広島市東区,二葉の里３丁目５番７号ＧＲＡＮＯＤＥ広島３Ｆ,,34,102,7320057,,,,,,,2024-05-16,1,,,,,ウオセイ,0
1259,5240003006668,新規,0,2024-05-16,2024-05-16,藤原電気管理合同会社,,合同会社,広島県,安芸郡府中町,柳ケ丘２番２－１０３号,,34,302,7350014,,,,,,,2024-05-16,1,,,,,フジワラデンキカンリ,0
1260,5250001020653,新規,0,2024-05-16,2024-05-16,株式会社Ｍ．Ｔ．ｗｏｒｋｓ,,株式会社,山口県,山口市,大内氷上３丁目６番３２号,,35,203,7530231,,,,,,,2024-05-16,1,,,,,エムティーワークス,0
1270,5290001105608,新規,0,2024-05-16,2024-05-16,株式会社ＦＢ‐ｉ,,株式会社,福岡県,福岡市博多区,中洲４丁目１－２０,,40,132,8100801,,,,,,,2024-05-16,1,,,,,エフビーアイ,0
1271,5290001105707,新規,0,2024-05-16,2024-05-16,株式会社アイズワークス,,株式会社,福岡県,大牟田市,大字倉永３９９４番地３,,40,202,8370906,,,,,,,2024-05-16,1,,,,,アイズワークス,0
1281,5290803004726,新規,0,2024-05-16,2024-05-16,合同会社ＭＨｃｒｅａｔｅ,,合同会社,福岡県,北九州市八幡西区,三ケ森４丁目３番１号,,40,109,8070843,,,,,,,2024-05-16,1,,,,,エムエイチクリエイト,0
1284,5310001019020,新規,0,2024-05-16,2024-05-16,株式会社ＫＯＵＴＡＲＯＵ　ＦＩＬＭ,,株式会社,長崎県,長崎市,諏訪町８番３号２０２,,42,201,8500873,,,,,,,2024-05-16,1,,,,,コウタロウフィルム,0
1295,5370001051298,新規,0,2024-05-16,2024-05-16,株式会社ゼロワン,,株式会社,宮城県,仙台市太白区,八木山香澄町５番１６号３０６号室,,04,104,9820831,,,,,,,2024-05-16,1,,,,,ゼロワン,0
1299,5400003003269,新規,0,2024-05-16,2024-05-16,合同会社ＨｕｅＤｅｓｉｇｎ,,合同会社,岩手県,滝沢市,湯舟沢２２２番地１２１,,03,216,0200617,,,,,,,2024-05-16,1,,,,,ヒューデザイン,0
1307,5430001091817,新規,0,2024-05-16,2024-05-16,株式会社スペック,,株式会社,北海道,小樽市,オタモイ１丁目１９番１３号,,01,203,0482671,,,,,,,2024-05-16,1,,,,,スペック,0
1314,5430005014988,新規,0,2024-05-16,2024-05-16,一般社団法人日本ヨガ検定アライアンス協会,,その他の設立登記法人,北海道,札幌市北区,北九条西４丁目１０番地３,,01,102,0600809,,,,,,,2024-05-16,1,,,,,ニホンヨガケンテイアライアンスキョウカイ,0
1324,5700150125447,新規,0,2024-05-16,2024-05-16,ｗｕｈａｎｓｈｅｎｂａｏｃｈｏｎｇｗｕｙｏｎｇｐｉｎｙｏｕｘｉａｎｇｏｎｇｓｉ,,外国会社等,,,,,,,,Ａ，Ｌｏｎｇ’ａｎ　Ｐｏｒｔ　Ｈｕｉｃｈｅｎｇ，Ｎｏ．３８　Ｍｉｎｙｕａｎ　Ｒｏａｄ，Ｅａｓｔ　Ｌａｋｅ　Ｎｅｗ　Ｔｅｃｈｎｏｌｏｇｙ　Ｄｅｖｅｌｏｐｍｅｎｔ　Ｚｏｎｅ，Ｗｕｈａｎ　Ｕｎｉｔ　１６ｔｈ　Ｆｌｏｏｒ，Ｒｏｏｍ　０８　Ｗｕｈａｎ　ｈｕｂｅｉ　ｐｒｏｖｉｎｃｅ　４３００７４　ＣＮ,,,,,,2024-05-16,1,,,,,ウーハンシェンバオチョンウヨンピンヨウシェンゴンスー,0
1330,6010001244795,新規,0,2024-05-16,2024-05-16,豊亨株式会社,,株式会社,東京都,文京区,春日２丁目２４番１４号發陽ビル,,13,105,1120003,,,,,,,2024-05-16,1,,,,,トヨコウ,0
1331,6010001244829,新規,0,2024-05-16,2024-05-16,住友生命第４回劣後ローン流動化株式会社,,株式会社,東京都,千代田区,丸の内３丁目１番１号東京共同会計事務所内,,13,101,1000005,,,,,,,2024-05-16,1,,,,,スミトモセイメイダイヨンカイレツゴローンリュウドウカ,0
1332,6010001244853,新規,0,2024-05-16,2024-05-16,平野商事株式会社,,株式会社,東京都,中央区,日本橋箱崎町３２－３秀和日本橋箱崎レジデンス４０５,,13,102,1030015,,,,,,,2024-05-16,1,,,,,ヒラノショウジ,0
1333,6010001244886,新規,0,2024-05-16,2024-05-16,スリーケー・コンサルティングス株式会社,,株式会社,東京都,千代田区,九段南１丁目６番５号,,13,101,1020074,,,,,,,2024-05-16,1,,,,,スリーケーコンサルティングス,0
1343,6010401182447,新規,0,2024-05-16,2024-05-16,株式会社ＦＲＡＭＥ,,株式会社,東京都,港区,赤坂２丁目８番１６号光和ビル１階,,13,103,1070052,,,,,,,2024-05-16,1,,,,,フレーム,0
1344,6010403032600,新規,0,2024-05-16,2024-05-16,合同会社Ｋ２,,合同会社,東京都,港区,北青山１丁目３番１号,,13,103,1070061,,,,,,,2024-05-16,1,,,,,ケーツー,0
1345,6010405023250,新規,0,2024-05-16,2024-05-16,春日部ファシリティ特定目的会社,,その他の設立登記法人,東京都,港区,六本木１丁目６番１号泉ガーデンタワー,,13,103,1060032,,,,,,,2024-05-16,1,,,,,カスカベファシリティ,0
1361,6011001161907,新規,0,2024-05-16,2024-05-16,アクセスラックス株式会社,,株式会社,東京都,渋谷区,神宮前６丁目２３番４号桑野ビル２階,,13,113,1500001,,,,,,,2024-05-16,1,,,,,アクセスラックス,0
1365,6011201025473,新規,0,2024-05-16,2024-05-16,株式会社Ｓａｉｔｅｋｉ,,株式会社,東京都,中野区,弥生町２丁目４１－１７東京コンテンツインキュベーションセンターＮｏ．１４,,13,114,1640013,,,,,,,2024-05-16,1,,,,,サイテキ,0
1368,6011403004382,新規,0,2024-05-16,2024-05-16,合同会社ｂａｒａｎ,,合同会社,東京都,板橋区,仲町１９番７号,,13,119,1730022,,,,,,,2024-05-16,1,,,,,バラン,0
1370,6011503006064,新規,0,2024-05-16,2024-05-16,合同会社テトラドア,,合同会社,東京都,荒川区,南千住４丁目７番３－８０２号,,13,118,1160003,,,,,,,2024-05-16,1,,,,,テトラドア,0
1379,6011803006243,新規,0,2024-05-16,2024-05-16,合同会社あるここ,,合同会社,東京都,葛飾区,東水元１丁目８番１６号,,13,122,1250033,,,,,,,2024-05-16,1,,,,,アルココ,0
1380,6012301013905,新規,0,2024-05-16,2024-05-16,株式会社ｚｅｒｏｎｅｓｓ,,株式会社,東京都,町田市,原町田４丁目１１番１４号コロンブスビル３階,,13,209,1940013,,,,,,,2024-05-16,1,,,,,ゼロネス,0
1381,6012401041871,新規,0,2024-05-16,2024-05-16,株式会社Ｏｎ　Ｔｈｅ　Ｆｉｔ,,株式会社,東京都,武蔵野市,吉祥寺本町１丁目３５－７,,13,203,1800004,,,,,,,2024-05-16,1,,,,,オンザフィット,0
1385,6013303007143,新規,0,2024-05-16,2024-05-16,アンカーポイントパートナーズ合同会社,,合同会社,東京都,豊島区,高松２丁目４９－２,,13,116,1710042,,,,,,,2024-05-16,1,,,,,アンカーポイントパートナーズ,0
1402,6021003014509,新規,0,2024-05-16,2024-05-16,合同会社みらいづくり,,合同会社,神奈川県,平塚市,明石町１６―１８ライオンズマンション平塚明石町,,14,203,2540042,,,,,,,2024-05-16,1,,,,,ミライヅクリ,0
1410,6030001160347,新規,0,2024-05-16,2024-05-16,株式会社Ｆｒｏｎｔｉｅｒ,,株式会社,埼玉県,八潮市,大瀬６丁目８番地４八潮ＰＡＲＫ　ＳＱＵＡＲＥ１１０４号室,,11,234,3400822,,,,,,,2024-05-16,1,,,,,フロンティア,0
1412,6030003024252,新規,0,2024-05-16,2024-05-16,合同会社かくれんぼ建築設計室,,合同会社,埼玉県,秩父郡長瀞町,大字本野上６３７番地１,,11,363,3691304,,,,,,,2024-05-16,1,,,,,カクレンボケンチクセッケイシツ,0
1413,6030005021702,新規,0,2024-05-16,2024-05-16,司法書士法人マイリーガル,,その他の設立登記法人,埼玉県,熊谷市,銀座２丁目３３番地熊谷クレセントビル５階Ｃ号室,,11,202,3600032,,,,,,,2024-05-16,1,,,,,マイリーガル,0
1416,6040001133599,新規,0,2024-05-16,2024-05-16,株式会社関工業,,株式会社,千葉県,いすみ市,岬町谷上３６番地,,12,238,2994507,,,,,,,2024-05-16,1,,,,,セキコウギョウ,0
1417,6040001133640,新規,0,2024-05-16,2024-05-16,株式会社Ｇ・ＱＢ,,株式会社,千葉県,東金市,北之幸谷２１７―１,,12,213,2830061,,,,,,,2024-05-16,1,,,,,ジーキューブ,0
1418,6040001133681,新規,0,2024-05-16,2024-05-16,Ｔ＆Ｋ株式会社,,株式会社,千葉県,木更津市,真舟５丁目１７－２,,12,206,2920802,,,,,,,2024-05-16,1,,,,,ティーアンドケー,0
1420,6040003024994,新規,0,2024-05-16,2024-05-16,ＩＮＳＡＲＩ　ＡＵＴＯ合同会社,,合同会社,千葉県,市原市,川在１３３番１,,12,219,2900213,,,,,,,2024-05-16,1,,,,,インサリオート,0
1431,6080401027190,新規,0,2024-05-16,2024-05-16,株式会社渡辺農園,,株式会社,静岡県,浜松市浜名区,平口５３５４,,22,139,4340041,,,,,,,2024-05-16,1,,,,,ワタナベノウエン,0
1439,6090001018705,新規,0,2024-05-16,2024-05-16,ムジン株式会社,,株式会社,山梨県,甲府市,丸の内１丁目１４番１４号オリオン共同ビル３０７号,,19,201,4000031,,,,,,,2024-05-16,1,,,,,ムジン,0
1440,6100003007539,新規,0,2024-05-16,2024-05-16,合同会社千屋,,合同会社,長野県,伊那市,高遠町西高遠１０５４‐１,,20,209,3960211,,,,,,,2024-05-16,1,,,,,チヤ,0
1442,6110003005384,新規,0,2024-05-16,2024-05-16,ａｄｄｔｉｍｅ合同会社,,合同会社,新潟県,長岡市,千手１丁目１１－２０,,15,202,9400087,,,,,,,2024-05-16,1,,,,,アドタイム,0
1444,6110005017097,新規,0,2024-05-16,2024-05-16,一般社団法人次世代健康文化創造機構,,その他の設立登記法人,新潟県,新潟市中央区,川岸町３丁目１８番地,,15,103,9518133,,,,,,,2024-05-16,1,,,,,ジセダイケンコウブンカソウゾウキコウ,0
1450,6120001264915,新規,0,2024-05-16,2024-05-16,株式会社ｓｅｔ　ｏｆ　ｓａｉｌｓ,,株式会社,大阪府,大阪市北区,東天満２丁目３番７－２２０４号,,27,127,5300044,,,,,,,2024-05-16,1,,,,,セットオブセイルズ,0
1451,6120001264923,新規,0,2024-05-16,2024-05-16,サードプレイス株式会社,,株式会社,大阪府,大阪市城東区,森之宮２丁目６番１号,,27,118,5360025,,,,,,,2024-05-16,1,,,,,サードプレイス,0
1452,6120001264956,新規,0,2024-05-16,2024-05-16,株式会社ｒｅｓｔａｒｔ,,株式会社,大阪府,大阪市淀川区,東三国２丁目１０番８－２０４号,,27,123,5320002,,,,,,,2024-05-16,1,,,,,リスタート,0
1456,6120103005837,新規,0,2024-05-16,2024-05-16,ローズマリー合同会社,,合同会社,大阪府,和泉市,はつが野２丁目１５－７９,,27,219,5941106,,,,,,,2024-05-16,1,,,,,ローズマリー,0
1457,6130001077060,新規,0,2024-05-16,2024-05-16,株式会社Ｅｉｇｈｔｙ　Ｎｉｎｅ,,株式会社,京都府,向日市,寺戸町二ノ坪１２番地の１３,,26,208,6170002,,,,,,,2024-05-16,1,,,,,エイティナイン,0
1467,6140001134463,新規,0,2024-05-16,2024-05-16,株式会社どんぐり建築環境研究所,,株式会社,兵庫県,神戸市西区,糀台３丁目１６番地の９,,28,111,6512273,,,,,,,2024-05-16,1,,,,,ドングリケンチクカンキョウケンキュウショ,0
1474,6150005009594,新規,0,2024-05-16,2024-05-16,一般社団法人ＩＡＣＵＣパートナーズ,,その他の設立登記法人,奈良県,香芝市,西真美２丁目１９番地３５,,29,210,6390222,,,,,,,2024-05-16,1,,,,,アイアカックパートナーズ,0
1476,6160001025925,新規,0,2024-05-16,2024-05-16,株式会社Ｋ’ｓ　Ｂａｎｄｅ,,株式会社,滋賀県,大津市,北比良９番地の５,,25,201,5200503,,,,,,,2024-05-16,1,,,,,ケーズバンデ,0
1477,6170001018143,新規,0,2024-05-16,2024-05-16,株式会社Ｙ’ｓエクステリア,,株式会社,和歌山県,海南市,多田５６０番地１,,30,202,6420013,,,,,,,2024-05-16,1,,,,,ワイズエクステリア,0
1483,6180001161438,新規,0,2024-05-16,2024-05-16,株式会社Ｓｕｎｎｙ,,株式会社,愛知県,稲沢市,平和町東城郷内１４４番地,,23,220,4901321,,,,,,,2024-05-16,1,,,,,サニー,0
1484,6180001161446,新規,0,2024-05-16,2024-05-16,株式会社ＳＵＭＭＥＲ　ＦＬＯＷＥＲＳ,,株式会社,愛知県,名古屋市瑞穂区,彌富町字月見ケ岡２０番地の１２,,23,108,4670035,,,,,,,2024-05-16,1,,,,,サマーフラワーズ,0
1485,6180001161454,新規,0,2024-05-16,2024-05-16,株式会社２２７,,株式会社,愛知県,名古屋市中村区,椿町１３－２４,,23,105,4530015,,,,,,,2024-05-16,1,,,,,ニニナナ,0
1486,6180001161462,新規,0,2024-05-16,2024-05-16,株式会社Ｎｅｘｓｕｍ,,株式会社,愛知県,名古屋市東区,東桜２丁目３－７,,23,102,4610005,,,,,,,2024-05-16,1,,,,,ネクサム,0
1487,6180001161470,新規,0,2024-05-16,2024-05-16,株式会社ＣＵＭＭＩＮＳ　ＩＮＴＥＲＮＡＴＩＯＮＡＬ,,株式会社,愛知県,瀬戸市,熊野町９２番地の１１,,23,204,4890881,,,,,,,2024-05-16,1,,,,,カミンズインターナショナル,0
1490,6180003026754,新規,0,2024-05-16,2024-05-16,合同会社ファーストクラス,,合同会社,愛知県,名古屋市天白区,福池１丁目２６番地の４,,23,116,4680049,,,,,,,2024-05-16,1,,,,,ファーストクラス,0
1491,6180003026787,新規,0,2024-05-16,2024-05-16,ＬＳＰ合同会社,,合同会社,愛知県,名古屋市中川区,供米田３丁目７０６番地,,23,110,4540984,,,,,,,2024-05-16,1,,,,,エルエスピー,0
1492,6180003026795,新規,0,2024-05-16,2024-05-16,合同会社ＶＴ　Ｇｒｏｕｐ,,合同会社,愛知県,名古屋市中川区,山王１丁目２番２９号,,23,110,4540011,,,,,,,2024-05-16,1,,,,,ブイティーグループ,0
1493,6180301038641,新規,0,2024-05-16,2024-05-16,株式会社Ｆ．ＬＴＤ,,株式会社,愛知県,豊川市,伊奈町南山新田８９－１０,,23,207,4410105,,,,,,,2024-05-16,1,,,,,エフリミテッド,0
1495,6190001031350,新規,0,2024-05-16,2024-05-16,アフター機工株式会社,,株式会社,三重県,津市,雲出本郷町１４０番地,,24,201,5140304,,,,,,,2024-05-16,1,,,,,アフターキコウ,0
1507,6260001039072,新規,0,2024-05-16,2024-05-16,株式会社貴宗,,株式会社,岡山県,岡山市中区,西中島町３番１１号,,33,102,7038298,,,,,,,2024-05-16,1,,,,,キソウ,0
1508,6260001039080,新規,0,2024-05-16,2024-05-16,株式会社エンビジョン・コンサルティング,,株式会社,岡山県,岡山市北区,下石井１丁目１－１７アクロスキューブビル２Ｆ・３Ｆ,,33,101,7000907,,,,,,,2024-05-16,1,,,,,エンビジョンコンサルティング,0
1509,6260005011358,新規,0,2024-05-16,2024-05-16,特定非営利活動法人ｔａｎａｇｏｃｏｒｏ,,その他の設立登記法人,岡山県,岡山市北区,田町１丁目１－１チサンマンション岡山３階３０９号,,33,101,7000825,,,,,,,2024-05-16,1,,,,,タナゴコロ,0
1516,6290001105664,新規,0,2024-05-16,2024-05-16,六家株式会社,,株式会社,福岡県,福岡市南区,高木２丁目１１番１０－６０７号,,40,134,8150004,,,,,,,2024-05-16,1,,,,,ロッカ,0
1517,6290001105788,新規,0,2024-05-16,2024-05-16,株式会社連九,,株式会社,福岡県,福岡市博多区,博多駅前１丁目１５番２０号２階,,40,132,8120011,,,,,,,2024-05-16,1,,,,,レンキュウ,0
1518,6290003015250,新規,0,2024-05-16,2024-05-16,合同会社ＨＭＹ,,合同会社,福岡県,福岡市博多区,月隈２丁目２番２７号,,40,132,8120858,,,,,,,2024-05-16,1,,,,,エイチエムワイ,0
1526,6370001051297,新規,0,2024-05-16,2024-05-16,株式会社プチ・フィールド,,株式会社,宮城県,名取市,ゆりが丘１丁目２５番地の１２,,04,207,9811245,,,,,,,2024-05-16,1,,,,,プチフィールド,0
1527,6370003006613,新規,0,2024-05-16,2024-05-16,合同会社後藤土木設計,,合同会社,宮城県,仙台市太白区,中田７丁目１３番３－３号,,04,104,9811104,,,,,,,2024-05-16,1,,,,,ゴトウドボクセッケイ,0
1528,6370005010786,新規,0,2024-05-16,2024-05-16,社会保険労務士法人仁萩会,,その他の設立登記法人,宮城県,柴田郡柴田町,船岡新栄３丁目４３－９,,04,323,9891607,,,,,,,2024-05-16,1,,,,,ジンシュウカイ,0
1537,6420002020329,新規,0,2024-05-16,2024-05-16,有限会社黒石木材,,有限会社,青森県,黒石市,柵ノ木３丁目３１番地,,02,204,0360333,,,,,,,2024-05-16,1,,,,,クロイシモクザイ,0
1555,6700150125446,新規,0,2024-05-16,2024-05-16,ｙｉｗｕｓｈｉｌｉｙｉｎｇｄｉａｎｚｉｓｈａｎｇｗｕｙｏｕｘｉａｎｇｏｎｇｓｉ,,外国会社等,,,,,,,,４ｔｈ　Ｆｌｏｏｒ，Ｎｏ．２８９，Ｙｏｎｇｊｕｎ　Ｒｏａｄ　Ｌｉｕｑｉｎｇ　Ｉｎｄｕｓｔｒｉａｌ　Ｚｏｎｅ，Ｂｅｉｙｕａｎ　Ｓｔｒｅｅｔ　Ｊｉｎｈｕａｓｈｉｙｉｗｕｓｈｉ　ｚｈｅｊｉａｎｇｓｈｅｎｇ　３２２００８　ＣＮ,,,,,,2024-05-16,1,,,,,イーウーシリーインディエンズーシャンウヨウシェンゴンスー,0
1558,7010001244844,新規,0,2024-05-16,2024-05-16,ハルヒ電冷株式会社,,株式会社,東京都,中央区,日本橋茅場町２丁目１２―１０,,13,102,1030025,,,,,,,2024-05-16,1,,,,,ハルヒデンレイ,0
1559,7010001244935,新規,0,2024-05-16,2024-05-16,ライズ・コンサルティング株式会社,,株式会社,東京都,中央区,日本橋室町１丁目１１番１２号,,13,102,1030022,,,,,,,2024-05-16,1,,,,,ライズコンサルティング,0
1561,7010003043377,新規,0,2024-05-16,2024-05-16,合同会社エクラ,,合同会社,東京都,中央区,日本橋室町１丁目１１－１２、７階,,13,102,1030022,,,,,,,2024-05-16,1,,,,,エクラ,0
1571,7010401182495,新規,0,2024-05-16,2024-05-16,ＧＥＮＰＲＥＰＣＯ株式会社,,株式会社,東京都,港区,虎ノ門１丁目１７番１号虎ノ門ヒルズビジネスタワー１５階,,13,103,1050001,,,,,,,2024-05-16,1,,,,,ジェンプレプコ,0
1584,7010901055275,新規,0,2024-05-16,2024-05-16,株式会社ＢｙＳｅｓ,,株式会社,東京都,世田谷区,用賀２丁目３０番７号,,13,112,1580097,,,,,,,2024-05-16,1,,,,,バイエスイーエス,0
1585,7010901055291,新規,0,2024-05-16,2024-05-16,株式会社八百万映像,,株式会社,東京都,世田谷区,船橋５丁目２７番１１号,,13,112,1560055,,,,,,,2024-05-16,1,,,,,ヤオヨロズエイゾウ,0
1593,7011001161906,新規,0,2024-05-16,2024-05-16,Ｄ‐Ｆｏｒｃｅ株式会社,,株式会社,東京都,渋谷区,神宮前６丁目２３番４号桑野ビル２階,,13,113,1500001,,,,,,,2024-05-16,1,,,,,ディーフォース,0
1599,7011101107338,新規,0,2024-05-16,2024-05-16,株式会社貢陽ハウス,,株式会社,東京都,新宿区,西新宿２丁目４番１号新宿ＮＳビル２５Ｆ,,13,104,1600023,,,,,,,2024-05-16,1,,,,,コウヨウハウス,0
1601,7011203004383,新規,0,2024-05-16,2024-05-16,ヒガナカ合同会社,,合同会社,東京都,中野区,東中野１丁目４４番４－１０５号,,13,114,1640003,,,,,,,2024-05-16,1,,,,,ヒガナカ,0
1602,7011401026089,新規,0,2024-05-16,2024-05-16,Ｄａｘｉ株式会社,,株式会社,東京都,板橋区,高島平８丁目１５番１０号パレット高島平４２２,,13,119,1750082,,,,,,,2024-05-16,1,,,,,ダクシー,0
1605,7011505002630,新規,0,2024-05-16,2024-05-16,一般社団法人ＡｒＴｅｃｈ,,その他の設立登記法人,東京都,北区,滝野川２丁目３７番９号,,13,117,1140023,,,,,,,2024-05-16,1,,,,,アーテック,0
1609,7011701027290,新規,0,2024-05-16,2024-05-16,Ｋ３Ａｃｃｏｕｎｔｉｎｇ　Ｓｅｒｖｉｃｅ株式会社,,株式会社,東京都,江戸川区,平井４丁目５番４号ハピネス平井６０３号室,,13,123,1320035,,,,,,,2024-05-16,1,,,,,ケースリーアカウンティングサービス,0
1618,7012801023171,新規,0,2024-05-16,2024-05-16,正和国際株式会社,,株式会社,東京都,武蔵村山市,榎３丁目１０４－１,,13,223,2080022,,,,,,,2024-05-16,1,,,,,ショウワコクサイ,0
1620,7013303007142,新規,0,2024-05-16,2024-05-16,グロースリンクス合同会社,,合同会社,東京都,豊島区,南池袋１丁目９番１８号,,13,116,1710022,,,,,,,2024-05-16,1,,,,,グロースリンクス,0
1625,7020001157236,新規,0,2024-05-16,2024-05-16,フリースナビ株式会社,,株式会社,神奈川県,横浜市都筑区,中川中央１丁目３０－１,,14,118,2240003,,,,,,,2024-05-16,1,,,,,フリースナビ,0
1626,7020001157293,新規,0,2024-05-16,2024-05-16,ＤＡＦＬＯＷ．ＡＩ株式会社,,株式会社,神奈川県,川崎市中原区,小杉御殿町２丁目１０３－１１,,14,133,2110068,,,,,,,2024-05-16,1,,,,,ダフローエイアイ,0
1645,7021001082259,新規,0,2024-05-16,2024-05-16,Ｒ＆Ｇロジスティクス株式会社,,株式会社,神奈川県,厚木市,上依知４９８番地７,,14,212,2430801,,,,,,,2024-05-16,1,,,,,アールアンドジーロジスティクス,0
1651,7030001160338,新規,0,2024-05-16,2024-05-16,株式会社るいけい,,株式会社,埼玉県,草加市,苗塚町１１１番地７,,11,221,3400036,,,,,,,2024-05-16,1,,,,,ルイケイ,0
1656,7030003024292,新規,0,2024-05-16,2024-05-16,合同会社カイハツコーポレーション,,合同会社,埼玉県,草加市,松原５丁目１４番９－１０１号,,11,221,3400041,,,,,,,2024-05-16,1,,,,,カイハツコーポレーション,0
1657,7030003024301,新規,0,2024-05-16,2024-05-16,グローカルサービセス合同会社,,合同会社,埼玉県,川口市,幸町１丁目２番３２－５０２号ライオンズマンション川口幸町第２,,11,203,3320016,,,,,,,2024-05-16,1,,,,,グローカルサービセス,0
1660,7030005021701,新規,0,2024-05-16,2024-05-16,特定非営利活動法人まさゆき,,その他の設立登記法人,埼玉県,加須市,旗井１９９４番地７リビエルコート５１５,,11,210,3491132,,,,,,,2024-05-16,1,,,,,マサユキ,0
1663,7040001133615,新規,0,2024-05-16,2024-05-16,稲寺商工株式会社,,株式会社,千葉県,市原市,姉崎１２３１番地,,12,219,2990111,,,,,,,2024-05-16,1,,,,,イナデラショウコウ,0
1670,7040003024993,新規,0,2024-05-16,2024-05-16,自然セラピーラボ合同会社,,合同会社,千葉県,松戸市,新松戸南１丁目２９番地オーベルグランディオ新松戸１４０３号,,12,207,2700035,,,,,,,2024-05-16,1,,,,,シゼンセラピーラボ,0
1677,7070003005413,新規,0,2024-05-16,2024-05-16,ツヅキ合同会社,,合同会社,群馬県,桐生市,堤町１丁目９番２１号,,10,203,3760042,,,,,,,2024-05-16,1,,,,,ツヅキ,0
1678,7080403005012,新規,0,2024-05-16,2024-05-16,プラス５５ガレージ合同会社,,合同会社,静岡県,磐田市,福田中島５９９－１,,22,211,4371204,,,,,,,2024-05-16,1,,,,,プラスガレージ,0
1682,7100003007538,新規,0,2024-05-16,2024-05-16,盈＿合同会社,00134786,合同会社,長野県,小諸市,赤坂１丁目１番１０号山田ビル１Ｆ,,20,208,3840011,,,,,,,2024-05-16,1,,,,,エイキン,0
1695,7120001264889,新規,0,2024-05-16,2024-05-16,株式会社恒昌国際,,株式会社,大阪府,大阪市淀川区,宮原２丁目１２番１４－８２２号,,27,123,5320003,,,,,,,2024-05-16,1,,,,,コウショウコクサイ,0
1696,7120001264914,新規,0,2024-05-16,2024-05-16,株式会社云享,,株式会社,大阪府,大阪市住之江区,御崎１丁目１１番１９－１０３号,,27,125,5590013,,,,,,,2024-05-16,1,,,,,イキョウ,0
1697,7120001264922,新規,0,2024-05-16,2024-05-16,株式会社ＨＡＰＰＹ,,株式会社,大阪府,大阪市東住吉区,山坂４丁目６－４－４０２,,27,121,5460035,,,,,,,2024-05-16,1,,,,,ハッピー,0
1698,7120001264939,新規,0,2024-05-16,2024-05-16,株式会社ＣＩＯ,,株式会社,大阪府,大阪市北区,紅梅町５番１５号４０７号室,,27,127,5300038,,,,,,,2024-05-16,1,,,,,シーアイオー,0
1703,7120101069593,新規,0,2024-05-16,2024-05-16,青禾株式会社,,株式会社,大阪府,堺市中区,新家町５２４番地１９,,27,142,5998232,,,,,,,2024-05-16,1,,,,,セイカ,0
1707,7130001077076,新規,0,2024-05-16,2024-05-16,株式会社京都誠心,,株式会社,京都府,亀岡市,河原町２２７,,26,206,6210803,,,,,,,2024-05-16,1,,,,,キョウトセイシン,0
1709,7140003020520,新規,0,2024-05-16,2024-05-16,合同会社ハッピースマイル宝塚,,合同会社,兵庫県,宝塚市,清荒神１丁目１７番９号,,28,214,6650836,,,,,,,2024-05-16,1,,,,,ハッピースマイルタカラヅカ,0
1711,7150001027285,新規,0,2024-05-16,2024-05-16,株式会社ゴールデンチェリッシュ,,株式会社,奈良県,奈良市,三条大路３丁目１番３８－２号,,29,201,6308013,,,,,,,2024-05-16,1,,,,,ゴールデンチェリッシュ,0
1712,7160001025924,新規,0,2024-05-16,2024-05-16,株式会社城創,,株式会社,滋賀県,東近江市,東沖野２丁目４番１１号プレセジュール２０１号室,,25,213,5270033,,,,,,,2024-05-16,1,,,,,ジョウソウ,0
1718,7180001161478,新規,0,2024-05-16,2024-05-16,恒誠株式会社,,株式会社,愛知県,名古屋市千種区,光が丘１丁目４番２８号,,23,101,4640006,,,,,,,2024-05-16,1,,,,,コウセイ,0
1722,7180003026786,新規,0,2024-05-16,2024-05-16,合同会社ＬＢＬ,,合同会社,愛知県,瀬戸市,上品野町１０１４－５４,,23,204,4801214,,,,,,,2024-05-16,1,,,,,エルビーエル,0
1730,7200001042510,新規,0,2024-05-16,2024-05-16,株式会社ルリアン,,株式会社,岐阜県,岐阜市,神田町１丁目１０番地,,21,201,5008833,,,,,,,2024-05-16,1,,,,,ルリアン,0
1731,7200001042527,新規,0,2024-05-16,2024-05-16,ＧＩＮＴＡＮＩ　ＪＡＰＡＮ株式会社,,株式会社,岐阜県,大垣市,笠木町５８９番地１,,21,202,5030023,,,,,,,2024-05-16,1,,,,,ギンタニジャパン,0
1744,7260001039063,新規,0,2024-05-16,2024-05-16,株式会社シン建築設計事務所,,株式会社,岡山県,岡山市北区,辰巳２１－１１７パルデンス大森Ａ１０１,,33,101,7000976,,,,,,,2024-05-16,1,,,,,シンケンチクセッケイジムショ,0
1746,7260003004684,新規,0,2024-05-16,2024-05-16,合同会社Ｔｈｅ　Ｆｉｒｓｔ　Ｄｏｏｒ,,合同会社,岡山県,岡山市北区,中山下１丁目４番５８号６０１号,,33,101,7000821,,,,,,,2024-05-16,1,,,,,ザファーストドア,0
1752,7290001105696,新規,0,2024-05-16,2024-05-16,株式会社ウェルズ,,株式会社,福岡県,福岡市西区,今宿１丁目１番１０－９０５号,,40,135,8190167,,,,,,,2024-05-16,1,,,,,ウェルズ,0
1759,7290803004708,新規,0,2024-05-16,2024-05-16,合同会社Ｆｌｕｘ,,合同会社,福岡県,北九州市八幡西区,楠橋南１丁目５－１１,,40,109,8071143,,,,,,,2024-05-16,1,,,,,フルックス,0
1760,7300001013732,新規,0,2024-05-16,2024-05-16,株式会社ＴＭＣ,,株式会社,佐賀県,佐賀市,鍋島３丁目３番２０号,,41,201,8490937,,,,,,,2024-05-16,1,,,,,ティーエムシー,0
1761,7300003002122,新規,0,2024-05-16,2024-05-16,ＤＦＳ合同会社,,合同会社,佐賀県,佐賀市,唐人１丁目５－４夢の一歩佐賀店,,41,201,8400813,,,,,,,2024-05-16,1,,,,,ディーエフエス,0
1764,7320003004364,新規,0,2024-05-16,2024-05-16,合同会社グラハ,,合同会社,大分県,大分市,高江北２丁目３番地の１,,44,201,8701119,,,,,,,2024-05-16,1,,,,,グラハ,0
1768,7350003004642,新規,0,2024-05-16,2024-05-16,合同会社ＮＩＳＨＩＭＵＲＡ,,合同会社,宮崎県,児湯郡川南町,大字川南１９８９０番２号,,45,405,8891301,,,,,,,2024-05-16,1,,,,,ニシムラ,0
1776,7370001051296,新規,0,2024-05-16,2024-05-16,株式会社柳,,株式会社,宮城県,栗原市,築館字下高森下１２番地,00134779,04,213,9872247,,,,,,,2024-05-16,1,,,,,ヤナギ,0
1788,7420001018728,新規,0,2024-05-16,2024-05-16,ロッソグループ株式会社,,株式会社,青森県,北津軽郡板柳町,大字福野田字常盤６６番地３４,,02,381,0383661,,,,,,,2024-05-16,1,,,,,ロッソグループ,0
1791,7430001091823,新規,0,2024-05-16,2024-05-16,株式会社アーノット,,株式会社,北海道,札幌市中央区,南一条西２丁目１‐２,,01,101,0600061,,,,,,,2024-05-16,1,,,,,アーノット,0
1796,7440003001589,新規,0,2024-05-16,2024-05-16,合同会社ＡＭ,,合同会社,北海道,函館市,新川町１番２号,,01,202,0400032,,,,,,,2024-05-16,1,,,,,エーエム,0
1798,7460001005904,新規,0,2024-05-16,2024-05-16,株式会社釧路インテリア,,株式会社,北海道,釧路市,緑ケ岡６丁目２１番２８号,,01,206,0850814,,,,,,,2024-05-16,1,,,,,クシロインテリア,0
1799,7460101007552,新規,0,2024-05-16,2024-05-16,株式会社ＥＭＰＩＲＥ　ＨＯＬＬＹＷＯＯＤ,,株式会社,北海道,河西郡芽室町,東めむろ三条北１丁目１番地４,,01,637,0820803,,,,,,,2024-05-16,1,,,,,エンパイアハリウッド,0
1803,7500001025633,新規,0,2024-05-16,2024-05-16,株式会社Ｒｅａｌ,,株式会社,愛媛県,松山市,二番町１丁目８番地１６,,38,201,7900002,,,,,,,2024-05-16,1,,,,,リアル,0
1805,7700150125445,新規,0,2024-05-16,2024-05-16,ＱＩＮＧ　ＤＡＯ　ＺＥ　ＪＵＮ　ＸＩＮ　ＳＨＡＮＧ　ＭＡＯ　ＹＯＵ　ＸＩＡＮ　ＧＯＮＧ　ＳＩ,,外国会社等,,,,,,,,Ｓｈａｎｄｏｎｇｓｈｅｎｇ　Ｑｉｎｇｄａｏｓｈｉ　Ｌｉｃａｎｇｑｕ　Ｚａｏｙｕａｎｌｕ　１１－２，２６６１２１,,,,,,2024-05-16,1,,,,,チンタサワキンエイショウエキユウゲンコウシ,0
1814,8010005038309,新規,0,2024-05-16,2024-05-16,一般社団法人はぐくみ,,その他の設立登記法人,東京都,中央区,銀座５丁目８番３号６階,,13,102,1040061,,,,,,,2024-05-16,1,,,,,ハグクミ,0
1815,8010101016127,新規,0,2024-05-16,2024-05-16,株式会社ＢＸＤ,,株式会社,東京都,八王子市,子安町１丁目３２番１７－７０１号,,13,201,1920904,,,,,,,2024-05-16,1,,,,,ビーエックスディー,0
1816,8010103002356,新規,0,2024-05-16,2024-05-16,合同会社レステリオ,,合同会社,東京都,八王子市,諏訪町４５０－８,,13,201,1930812,,,,,,,2024-05-16,1,,,,,レステリオ,0
1829,8010401182370,新規,0,2024-05-16,2024-05-16,株式会社アイオンズ,,株式会社,東京都,港区,赤坂２丁目１４－５Ｄａｉｗａ赤坂ビル７Ｆオープンオフィス赤坂ビジネスプレイス７０４Ｂ,,13,103,1070052,,,,,,,2024-05-16,1,,,,,アイオンズ,0
1831,8010403032631,新規,0,2024-05-16,2024-05-16,春日部ファシリティ１合同会社,,合同会社,東京都,港区,六本木１丁目６番１号泉ガーデンタワー,,13,103,1060032,,,,,,,2024-05-16,1,,,,,カスカベファシリティワン,0
1838,8010601065177,新規,0,2024-05-16,2024-05-16,株式会社ＭＯＯＤ,,株式会社,東京都,墨田区,吾妻橋２丁目８－５アルテシモアベニ３０４,,13,107,1300001,,,,,,,2024-05-16,1,,,,,ムード,0
1839,8010601065185,新規,0,2024-05-16,2024-05-16,シンクロノス・テクノロジーズ・ジャパン株式会社,,株式会社,東京都,江東区,豊洲６丁目２番３１－１９１７号,,13,108,1350061,,,,,,,2024-05-16,1,,,,,シンクロノステクノロジーズジャパン,0
1840,8010601065193,新規,0,2024-05-16,2024-05-16,Ｌｕｄｉａｍ株式会社,,株式会社,東京都,江東区,東雲１丁目９－３２－１１０２,,13,108,1350062,,,,,,,2024-05-16,1,,,,,ルディアム,0
1848,8010701045987,新規,0,2024-05-16,2024-05-16,生命の花ジャパンビッグデータテクノロジー株式会社,,株式会社,東京都,品川区,西五反田２丁目２５番１インテックス五反田７０２号,,13,109,1410031,,,,,,,2024-05-16,1,,,,,イノチノハナジャパンビッグデータテクノロジー,0
1856,8010901055274,新規,0,2024-05-16,2024-05-16,ＨＡＤＭ株式会社,,株式会社,東京都,世田谷区,代田４丁目２７番６号,,13,112,1550033,,,,,,,2024-05-16,1,,,,,エイチエーディーエム,0
1860,8011001161979,新規,0,2024-05-16,2024-05-16,株式会社ＴＳＣ,,株式会社,東京都,渋谷区,円山町５－５Ｎａｖｉ渋谷Ｖ３階,,13,113,1500044,,,,,,,2024-05-16,1,,,,,ティーエスシー,0
1863,8011003019151,新規,0,2024-05-16,2024-05-16,合同会社Ｃｌｏｕｄ　Ｃｒｅａｔｉｖｅ,,合同会社,東京都,渋谷区,神宮前６丁目２３番４号桑野ビル２階,,13,113,1500001,,,,,,,2024-05-16,1,,,,,クラウドクリエイティブ,0
1865,8011101107337,新規,0,2024-05-16,2024-05-16,Ｂｒｉｄｇｅｈｅａｄ　Ｊａｐａｎ株式会社,,株式会社,東京都,新宿区,西新宿７丁目５番９－２８０６号,,13,104,1600023,,,,,,,2024-05-16,1,,,,,ブリッジヘッドジャパン,0
1866,8011101107345,新規,0,2024-05-16,2024-05-16,株式会社サポート,,株式会社,東京都,新宿区,新宿３丁目１７番２号アカネビルＢ１,,13,104,1600022,,,,,,,2024-05-16,1,,,,,サポート,0
1870,8011103014432,新規,0,2024-05-16,2024-05-16,プライム前田合同会社,,合同会社,東京都,新宿区,西新宿４丁目３１番３－３１５号,,13,104,1600023,,,,,,,2024-05-16,1,,,,,プライムマエダ,0
1872,8011201025471,新規,0,2024-05-16,2024-05-16,株式会社ＢＲＩＬＬＡＮＴ,,株式会社,東京都,中野区,中央１丁目４６番１５号アトレ中野坂上３０１,,13,114,1640011,,,,,,,2024-05-16,1,,,,,ブリオン,0
1873,8011305002978,新規,0,2024-05-16,2024-05-16,一般社団法人上平トラスト,,その他の設立登記法人,東京都,杉並区,西荻南４丁目８番１４号,,13,115,1670053,,,,,,,2024-05-16,1,,,,,ジョウヘイトラスト,0
1875,8011501030675,新規,0,2024-05-16,2024-05-16,株式会社絵夢,,株式会社,東京都,荒川区,西日暮里６丁目１３番１２号,,13,118,1160013,,,,,,,2024-05-16,1,,,,,エム,0
1888,8012401041829,新規,0,2024-05-16,2024-05-16,株式会社ＯＥＩ,,株式会社,東京都,府中市,幸町１丁目２番地の１４アクティブハウスヒロセ３０２号室,,13,206,1830054,,,,,,,2024-05-16,1,,,,,オーエイ,0
1889,8012403006565,新規,0,2024-05-16,2024-05-16,ビット合同会社,,合同会社,東京都,府中市,宮西町３丁目６番地の１ウィンドステージ府中宮西４０７,,13,206,1830022,,,,,,,2024-05-16,1,,,,,ビット,0
1902,8020001157210,新規,0,2024-05-16,2024-05-16,工藤総業株式会社,,株式会社,神奈川県,横浜市瀬谷区,瀬谷町５８１２番地細谷戸ハイツ４街区６棟５０１号,,14,114,2460003,,,,,,,2024-05-16,1,,,,,クドウソウギョウ,0
1903,8020001157243,新規,0,2024-05-16,2024-05-16,株式会社Ｒｏｕｂ,,株式会社,神奈川県,横浜市西区,浅間町１丁目４番地３ウィザードビル４０２,,14,103,2200072,,,,,,,2024-05-16,1,,,,,ローブ,0
1909,8021001082241,新規,0,2024-05-16,2024-05-16,株式会社スズキ測量,,株式会社,神奈川県,南足柄市,塚原２６５５番地１５,,14,217,2500117,,,,,,,2024-05-16,1,,,,,スズキソクリョウ,0
1911,8021003014507,新規,0,2024-05-16,2024-05-16,チョトレーディング合同会社,,合同会社,神奈川県,海老名市,東柏ケ谷２丁目１６番１６号和光ハイム２０２,,14,215,2430401,,,,,,,2024-05-16,1,,,,,チョトレーディング,0
1916,8030001160403,新規,0,2024-05-16,2024-05-16,伸ハウジング株式会社,,株式会社,埼玉県,さいたま市緑区,宮本２丁目２３番地２１,,11,109,3360916,,,,,,,2024-05-16,1,,,,,シンハウジング,0
1922,8030003024309,新規,0,2024-05-16,2024-05-16,合同会社ＡＩＤＡＬ,,合同会社,埼玉県,児玉郡上里町,大字七本木５４５６番地,,11,385,3690306,,,,,,,2024-05-16,1,,,,,アイダル,0
1928,8040001133614,新規,0,2024-05-16,2024-05-16,シュガーポップ株式会社,,株式会社,千葉県,市川市,宮久保１丁目８番１５号,,12,203,2720822,,,,,,,2024-05-16,1,,,,,シュガーポップ,0
1935,8040003024992,新規,0,2024-05-16,2024-05-16,信和電気合同会社,,合同会社,千葉県,千葉市稲毛区,小深町１２５－１ヴァンベール８８Ａ－１０５,,12,103,2630003,,,,,,,2024-05-16,1,,,,,シンワデンキ,0
1938,8050001054776,新規,0,2024-05-16,2024-05-16,株式会社つくばトレーディングスクエア,,株式会社,茨城県,つくば市,苅間１５５０苅間片岡住宅１号室,,08,220,3050822,,,,,,,2024-05-16,1,,,,,ツクバトレーディングスクエア,0
1945,8070001041731,新規,0,2024-05-16,2024-05-16,株式会社籾山,,株式会社,群馬県,沼田市,柳町２５８２番地３,,10,206,3780055,,,,,,,2024-05-16,1,,,,,モミヤマ,0
1948,8080101024759,新規,0,2024-05-16,2024-05-16,株式会社ＳＥＩＮＡＮ,,株式会社,静岡県,富士宮市,大中里８８８番地の１,,22,207,4180044,,,,,,,2024-05-16,1,,,,,セイナン,0
1949,8080401027189,新規,0,2024-05-16,2024-05-16,株式会社ｓｈｉｂａｙａ,,株式会社,静岡県,浜松市中央区,高丘東４丁目８番１６号,,22,138,4338117,,,,,,,2024-05-16,1,,,,,シバヤ,0
1955,8100001037437,新規,0,2024-05-16,2024-05-16,株式会社ＱＵＬＮＥ,,株式会社,長野県,諏訪郡原村,１７９８４番地２,,20,363,3910100,,,,,,,2024-05-16,1,,,,,クルネ,0
1957,8100003007529,新規,0,2024-05-16,2024-05-16,合同会社ひと葉,,合同会社,長野県,千曲市,大字打沢９８番地２,,20,218,3870014,,,,,,,2024-05-16,1,,,,,ヒトハ,0
1962,8110003005399,新規,0,2024-05-16,2024-05-16,イクシール合同会社,,合同会社,新潟県,新発田市,東新町４丁目４－１０,,15,206,9570015,,,,,,,2024-05-16,1,,,,,イクシール,0
1970,8120001264921,新規,0,2024-05-16,2024-05-16,伊多美株式会社,,株式会社,大阪府,大阪市城東区,関目５丁目１９番９号関目花博公館４０７Ｂ,,27,118,5360008,,,,,,,2024-05-16,1,,,,,イタビ,0
1971,8120001264938,新規,0,2024-05-16,2024-05-16,香川商事株式会社,,株式会社,大阪府,大阪市住吉区,我孫子西２丁目７－２４,,27,120,5580015,,,,,,,2024-05-16,1,,,,,カガワショウジ,0
1972,8120001264954,新規,0,2024-05-16,2024-05-16,株式会社いごっそー,,株式会社,大阪府,大阪市都島区,都島本通３丁目２７番９号,,27,102,5340021,,,,,,,2024-05-16,1,,,,,イゴッソー,0
1974,8120003026543,新規,0,2024-05-16,2024-05-16,合同会社ＧＴ,,合同会社,大阪府,大阪市天王寺区,真田山町５番３６－１１０４号,,27,109,5430015,,,,,,,2024-05-16,1,,,,,ジーティー,0
1975,8120003026592,新規,0,2024-05-16,2024-05-16,合同会社Ｈｅｕ,,合同会社,大阪府,大阪市西区,新町１丁目１４番２１－４６０９号,,27,106,5500013,,,,,,,2024-05-16,1,,,,,ヒュー,0
1976,8120003026601,新規,0,2024-05-16,2024-05-16,合同会社Ａｆｉｌｍ,,合同会社,大阪府,大阪市浪速区,桜川４丁目１２－２６－８１２,,27,111,5560022,,,,,,,2024-05-16,1,,,,,エーフィルム,0
1980,8120005024322,新規,0,2024-05-16,2024-05-16,一般社団法人全日本介護タクシー事業者会,,その他の設立登記法人,大阪府,大阪市中央区,谷町３丁目１番１１号大晋第２ビル３０１号室,,27,128,5400012,,,,,,,2024-05-16,1,,,,,ゼンニホンカイゴタクシージギョウシャカイ,0
1983,8120101069626,新規,0,2024-05-16,2024-05-16,株式会社Ｅ‐マテックス,,株式会社,大阪府,富田林市,不動ケ丘町１１番１１号,,27,214,5840064,,,,,,,2024-05-16,1,,,,,イーマテックス,0
1986,8120901049174,新規,0,2024-05-16,2024-05-16,株式会社ｃｏｍｐｙ,,株式会社,大阪府,茨木市,大字粟生岩阪５０９番地,,27,211,5680096,,,,,,,2024-05-16,1,,,,,コンピー,0
1987,8120901049190,新規,0,2024-05-16,2024-05-16,株式会社ＴＳＵＫＡＳＡ,,株式会社,大阪府,高槻市,登町１３番７号ＲＮＳビル３Ｆ－１,,27,207,5690046,,,,,,,2024-05-16,1,,,,,ツカサ,0
1988,8120903005175,新規,0,2024-05-16,2024-05-16,合同会社ヤドリギ,,合同会社,大阪府,高槻市,芥川町１丁目１４番２８号数村ビル４階,,27,207,5691123,,,,,,,2024-05-16,1,,,,,ヤドリギ,0
1990,8130001077026,新規,0,2024-05-16,2024-05-16,京都芸旅文化株式会社,,株式会社,京都府,京都市中京区,壬生森前町１４－３－１０３,,26,104,6048831,,,,,,,2024-05-16,1,,,,,キョウトゲイタビブンカ,0
1993,8140001134420,新規,0,2024-05-16,2024-05-16,株式会社ＦＲＯＧＳ,,株式会社,兵庫県,神戸市東灘区,住吉本町２丁目１８番２－２０１号,,28,101,6580051,,,,,,,2024-05-16,1,,,,,フロッグス,0
1995,8140003020585,新規,0,2024-05-16,2024-05-16,合同会社いのり,,合同会社,兵庫県,西宮市,苦楽園一番町１－６,,28,204,6620083,,,,,,,2024-05-16,1,,,,,イノリ,0
1999,8150003003259,新規,0,2024-05-16,2024-05-16,合同会社ＲＥＶＩＶＥ,,合同会社,奈良県,北葛城郡広陵町,大字大塚５２番地１ＫＯＲＹＯＭＡＬＬ２Ｆ,,29,426,6350834,,,,,,,2024-05-16,1,,,,,リバイブ,0
2001,8180001161460,新規,0,2024-05-16,2024-05-16,三栄ＨＤ株式会社,,株式会社,愛知県,小牧市,小木西１丁目５７番地,,23,219,4850057,,,,,,,2024-05-16,1,,,,,サンエイホールディングス,0
2002,8180001161493,新規,0,2024-05-16,2024-05-16,株式会社Ｉｎｒｉｇｈｔ,,株式会社,愛知県,名古屋市中川区,打中２丁目２７０番地の１,,23,110,4540927,,,,,,,2024-05-16,1,,,,,インライト,0
2005,8180003026760,新規,0,2024-05-16,2024-05-16,合同会社シェアバンクアシスト,,合同会社,愛知県,岩倉市,本町畑中１８番地２２,,23,228,4820043,,,,,,,2024-05-16,1,,,,,シェアバンクアシスト,0
2012,8180303006124,新規,0,2024-05-16,2024-05-16,合同会社ＳｈｏｒｔＢｏｏｋ,,合同会社,愛知県,西尾市,富山町於三２８番地１５,,23,213,4440326,,,,,,,2024-05-16,1,,,,,ショートブック,0
2021,8200001042501,新規,0,2024-05-16,2024-05-16,株式会社ＷＯＯＤ　ＬＡＮＤ,,株式会社,岐阜県,恵那市,大井町６８４番地６,,21,210,5097201,,,,,,,2024-05-16,1,,,,,ウッドランド,0
2022,8200005013622,新規,0,2024-05-16,2024-05-16,一般社団法人仁慈会,,その他の設立登記法人,岐阜県,美濃加茂市,本郷町７丁目１３４番地１,,21,211,5050027,,,,,,,2024-05-16,1,,,,,ジンジカイ,0
2028,8240001063238,新規,0,2024-05-16,2024-05-16,共進株式会社,,株式会社,広島県,福山市,神島町５番７号２－Ａ館,,34,207,7200091,,,,,,,2024-05-16,1,,,,,キョウシン,0
2034,8270001008982,新規,0,2024-05-16,2024-05-16,株式会社ＡＭＯ,,株式会社,鳥取県,米子市,両三柳２１番地１,,31,202,6830853,,,,,,,2024-05-16,1,,,,,アモ,0
2040,8290001105712,新規,0,2024-05-16,2024-05-16,福澄株式会社,,株式会社,福岡県,糸島市,南風台８丁目３‐７,,40,230,8191137,,,,,,,2024-05-16,1,,,,,フクズミ,0
2044,8290803004707,新規,0,2024-05-16,2024-05-16,合同会社Ｐｉｘ,,合同会社,福岡県,北九州市八幡西区,楠橋南１丁目５－１１,,40,109,8071143,,,,,,,2024-05-16,1,,,,,ピクス,0
2051,8320003004363,新規,0,2024-05-16,2024-05-16,ライジングサン合同会社,,合同会社,大分県,大分市,都町２丁目４番２２号都プラザ４０３号,,44,201,8700034,,,,,,,2024-05-16,1,,,,,ライジングサン,0
2057,8360001033690,新規,0,2024-05-16,2024-05-16,株式会社光雅企画,,株式会社,沖縄県,那覇市,曙１丁目１０番４３号ＮａｃｈｕＬｉｆｅＡＫＥＢＯＮＯ１０２,,47,201,9000002,,,,,,,2024-05-16,1,,,,,コウガキカク,0
2076,8430003016331,新規,0,2024-05-16,2024-05-16,合同会社そしじ,,合同会社,北海道,札幌市中央区,宮の森二条５丁目４番６‐３０２号,,01,101,0640952,,,,,,,2024-05-16,1,,,,,ソシジ,0
2085,8500001025632,新規,0,2024-05-16,2024-05-16,株式会社グッドリブサポート,,株式会社,愛媛県,松山市,市坪北２丁目１０番１５号,,38,201,7900946,,,,,,,2024-05-16,1,,,,,グッドリブサポート,0
2089,8700150125436,新規,0,2024-05-16,2024-05-16,坂祝町吉畑土地区画整理組合,,その他,岐阜県,岐阜市,薮田南５丁目１４番１２号公益社団法人　岐阜県都市整備協会,,21,201,5008384,,,,,,,2024-05-16,1,,,,,サカホギチヨウキツパタトチクカクセイリクミアイ,0
2090,8700150125452,新規,0,2024-05-16,2024-05-16,ＮＩＫＷＡＸ　ＬＩＭＩＴＥＤ,,外国会社等,,,,,,,,Ｕｎｉｔ　Ｆ　Ｄｕｒｇａｔｅｓ　Ｉｎｄｕｓｔｒｉａｌ　Ｅｓｔａｔｅ　ＤＵＲＧＡＴＥＳ　ＵＫ　ＴＮ５　６ＤＦ　ＧＢ,,,,,,2024-05-16,1,,,,,ニクワックスリミテッド,0
2100,9010001244628,新規,0,2024-05-16,2024-05-16,株式会社咲久良,,株式会社,東京都,千代田区,神田小川町２丁目１０－３－６０１,,13,101,1010052,,,,,,,2024-05-16,1,,,,,サクラ,0
2104,9010005038290,新規,0,2024-05-16,2024-05-16,特定非営利活動法人八丈島花の会,,その他の設立登記法人,東京都,八丈島八丈町,大賀郷２４１７番地１,,13,401,1001401,,,,,,,2024-05-16,1,,,,,ハチジョウシマハナノカイ,0
2105,9010101016142,新規,0,2024-05-16,2024-05-16,株式会社ウルナイア,,株式会社,東京都,八王子市,みなみ野３丁目２７－２３,,13,201,1920916,,,,,,,2024-05-16,1,,,,,ウルナイア,0
2116,9010401182337,新規,0,2024-05-16,2024-05-16,株式会社フリーランス経営研究所,,株式会社,東京都,港区,南青山２丁目２番１５号,,13,103,1070062,,,,,,,2024-05-16,1,,,,,フリーランスケイエイケンキュウジョ,0
2117,9010401182452,新規,0,2024-05-16,2024-05-16,株式会社アクポパートナーズ,,株式会社,東京都,港区,芝浦２丁目１７番１３－３０５号,,13,103,1080023,,,,,,,2024-05-16,1,,,,,アクポパートナーズ,0
2118,9010401182469,新規,0,2024-05-16,2024-05-16,ビー・エックス・ジェイ・シー・ツー・ホールディング株式会社,,株式会社,東京都,港区,虎ノ門５丁目１番４号,,13,103,1050001,,,,,,,2024-05-16,1,,,,,ビーエックスジェイシーツーホールディング,0
2119,9010401182493,新規,0,2024-05-16,2024-05-16,マイヤージャパン株式会社,,株式会社,東京都,港区,北青山１丁目３番１号アールキューブ青山３階,,13,103,1070061,,,,,,,2024-05-16,1,,,,,マイヤージャパン,0
2127,9010403032572,新規,0,2024-05-16,2024-05-16,合同会社ＡＭｃｏｍｐａｎｙ,,合同会社,東京都,港区,麻布十番１丁目２番７号ラフィネ麻布十番７０１号,,13,103,1060045,,,,,,,2024-05-16,1,,,,,エイエムカンパニー,0
2130,9010405023207,新規,0,2024-05-16,2024-05-16,一般社団法人Ｂｌａｎｔｈｕｓ,,その他の設立登記法人,東京都,港区,六本木７丁目１２番２号Ｒ７ビルディング,,13,103,1060032,,,,,,,2024-05-16,1,,,,,ブランサス,0
2138,9010803004956,新規,0,2024-05-16,2024-05-16,合同会社Ｌｅｏ,,合同会社,東京都,大田区,田園調布１丁目２８番１２号,,13,111,1450071,,,,,,,2024-05-16,1,,,,,レオ,0
2141,9010903009054,新規,0,2024-05-16,2024-05-16,合同会社ＴＴＹ,,合同会社,東京都,世田谷区,大蔵１丁目２番１－５０４号,,13,112,1570074,,,,,,,2024-05-16,1,,,,,ティーティーワイ,0
2144,9011001161912,新規,0,2024-05-16,2024-05-16,ディープタイム株式会社,,株式会社,東京都,渋谷区,恵比寿西２丁目８番４号５階,,13,113,1500021,,,,,,,2024-05-16,1,,,,,ディープタイム,0
2153,9011101107344,新規,0,2024-05-16,2024-05-16,ＮＣＣ株式会社,,株式会社,東京都,新宿区,榎町３４－３榎町ビル７階－３３号室,,13,104,1620806,,,,,,,2024-05-16,1,,,,,エヌシーシー,0
2159,9011405002299,新規,0,2024-05-16,2024-05-16,特定非営利活動法人行栄,,その他の設立登記法人,東京都,板橋区,大和町１５番２号,,13,119,1730012,,,,,,,2024-05-16,1,,,,,イクエイ,0
2163,9012401041869,新規,0,2024-05-16,2024-05-16,株式会社友伸コミュニケーションズ,,株式会社,東京都,小金井市,中町１丁目１４番３５－２０３号エクセレント武蔵野公園Ａ,,13,210,1840012,,,,,,,2024-05-16,1,,,,,ユウシンコミュニケーションズ,0
2164,9012405004995,新規,0,2024-05-16,2024-05-16,一般社団法人みんなで顧問,,その他の設立登記法人,東京都,武蔵野市,吉祥寺本町４丁目２０番１２号,,13,203,1800004,,,,,,,2024-05-16,1,,,,,ミンナデコモン,0
2172,9020001157267,新規,0,2024-05-16,2024-05-16,日本無人航空機製造株式会社,,株式会社,神奈川県,横浜市中区,日ノ出町１丁目６８番地１,,14,104,2310066,,,,,,,2024-05-16,1,,,,,ニホンムジンコウクウキセイゾウ,0
2176,9020005016411,新規,0,2024-05-16,2024-05-16,一般社団法人篝火運営事務局,,その他の設立登記法人,神奈川県,横浜市港南区,港南３丁目３１番２２号,,14,111,2330003,,,,,,,2024-05-16,1,,,,,カガリビウンエイジムキョク,0
2180,9021001082166,新規,0,2024-05-16,2024-05-16,ワイエイチワン株式会社,,株式会社,神奈川県,藤沢市,湘南台１丁目１８番地の７,,14,205,2520804,,,,,,,2024-05-16,1,,,,,ワイエイチワン,0
2181,9021001082240,新規,0,2024-05-16,2024-05-16,株式会社Ｍ‐ｓｔｙｌｅ,,株式会社,神奈川県,相模原市中央区,淵野辺本町４丁目１６番１０号,,14,152,2520202,,,,,,,2024-05-16,1,,,,,エムスタイル,0
2183,9021003014497,新規,0,2024-05-16,2024-05-16,合同会社だいこく,,合同会社,神奈川県,相模原市南区,旭町８－１２－１Ｆ,,14,153,2520304,,,,,,,2024-05-16,1,,,,,ダイコク,0
2184,9021003014506,新規,0,2024-05-16,2024-05-16,ＺＥＤ　ＡＵＴＯ　ＬＩＮＥ合同会社,,合同会社,神奈川県,厚木市,愛名１０２７番地サンシャインハイツ１１８,,14,212,2430038,,,,,,,2024-05-16,1,,,,,ゼドオートライン,0
2196,9030001160360,新規,0,2024-05-16,2024-05-16,株式会社Ｇｒｅｅｎ　Ｃｒａｆｔ　Ｓｏｌｕｔｉｏｎｓ,,株式会社,埼玉県,川口市,大字里３９５番地２,,11,203,3340005,,,,,,,2024-05-16,1,,,,,グリーンクラフトソリューションズ,0
2197,9030001160369,新規,0,2024-05-16,2024-05-16,株式会社ｓｏｃａｒｉ,,株式会社,埼玉県,川口市,大字安行慈林７５４―５,,11,203,3340071,,,,,,,2024-05-16,1,,,,,ソカリ,0
2211,9040001133415,新規,0,2024-05-16,2024-05-16,株式会社ソシアルイン,,株式会社,千葉県,船橋市,湊町２丁目６番２５－７０３号,,12,204,2730011,,,,,,,2024-05-16,1,,,,,ソシアルイン,0
2212,9040001133613,新規,0,2024-05-16,2024-05-16,新宇商事株式会社,,株式会社,千葉県,船橋市,本町７丁目１４番８号２階,,12,204,2730005,,,,,,,2024-05-16,1,,,,,シンウショウジ,0
2217,9040003024991,新規,0,2024-05-16,2024-05-16,正乾合同会社,,合同会社,千葉県,柏市,東上町３－３川長ビル６０２Ｂ,,12,217,2770011,,,,,,,2024-05-16,1,,,,,セイカン,0
2218,9040005022390,新規,0,2024-05-16,2024-05-16,Ｍａｍｏｒｕ弁理士法人,,その他の設立登記法人,千葉県,船橋市,芝山１丁目４７番５号,,12,204,2740816,,,,,,,2024-05-16,1,,,,,マモル,0
2225,9050005013447,新規,0,2024-05-16,2024-05-16,一般社団法人茨城桜ねこの会,,その他の設立登記法人,茨城県,石岡市,東成井１５８６番地１,,08,205,3150122,,,,,,,2024-05-16,1,,,,,イバラキサクラネコノカイ,0
2230,9080005007611,新規,0,2024-05-16,2024-05-16,特定非営利活動法人アップルビネガー音楽支援機構,,その他の設立登記法人,静岡県,藤枝市,藤枝１丁目４番１２号,,22,214,4260025,,,,,,,2024-05-16,1,,,,,アップルビネガーオンガクシエンキコウ,0
2235,9100003007536,新規,0,2024-05-16,2024-05-16,合同会社Ａｒｏｕｎｄ　Ｇｏｇａｋｕ,,合同会社,長野県,上水内郡信濃町,大字大井８２５,,20,583,3891316,,,,,,,2024-05-16,1,,,,,アラウンドゴガク,0
2237,9110001038383,新規,0,2024-05-16,2024-05-16,株式会社上雅総業,,株式会社,新潟県,上越市,春日山町１丁目２１番１６号,,15,222,9430807,,,,,,,2024-05-16,1,,,,,ウエマサソウギョウ,0
2245,9120001264879,新規,0,2024-05-16,2024-05-16,＿盛株式会社,00134785,株式会社,大阪府,大阪市浪速区,日本橋３丁目５番３０号２Ｆ,,27,111,5560005,,,,,,,2024-05-16,1,,,,,キンセイ,0
2246,9120001264904,新規,0,2024-05-16,2024-05-16,株式会社ＲＳ,,株式会社,大阪府,大阪市西区,阿波座１丁目２番２０号,,27,106,5500011,,,,,,,2024-05-16,1,,,,,アールエス,0
2247,9120001264920,新規,0,2024-05-16,2024-05-16,春和景明株式会社,,株式会社,大阪府,大阪市城東区,関目５丁目１９番９号関目花博公館１１０Ｂ,,27,118,5360008,,,,,,,2024-05-16,1,,,,,シュンワケイメイ,0
2248,9120001264929,新規,0,2024-05-16,2024-05-16,株式会社志,,株式会社,大阪府,大阪市平野区,長吉六反１丁目３番２８号,,27,126,5470012,,,,,,,2024-05-16,1,,,,,ココロザシ,0
2249,9120001264937,新規,0,2024-05-16,2024-05-16,株式会社トラベルウィズユウ,,株式会社,大阪府,寝屋川市,昭栄町１５番３７号,,27,215,5720834,,,,,,,2024-05-16,1,,,,,トラベルウィズユウ,0
2252,9120003026591,新規,0,2024-05-16,2024-05-16,合同会社ミライ,,合同会社,大阪府,大阪市西成区,山王１丁目５－８レジデンス阿倍野１０２号,,27,122,5570001,,,,,,,2024-05-16,1,,,,,ミライ,0
2257,9120901049181,新規,0,2024-05-16,2024-05-16,庫本商事株式会社,,株式会社,大阪府,吹田市,山田市場２番２２－１号,,27,205,5650822,,,,,,,2024-05-16,1,,,,,クラモトショウジ,0
2260,9130001077058,新規,0,2024-05-16,2024-05-16,株式会社ＤＯＯＲ,,株式会社,京都府,京都市下京区,河原町通松原上る二丁目富永町３６１番地,,26,106,6000000,,,,,,,2024-05-16,1,,,,,ドア,0
2261,9130001077090,新規,0,2024-05-16,2024-05-16,株式会社Ｒ,,株式会社,京都府,京都市中京区,壬生坊城町５番地８クレヴィア京都四条後院通１０９,,26,104,6048804,,,,,,,2024-05-16,1,,,,,アール,0
2282,9140001134436,新規,0,2024-05-16,2024-05-16,藍いろ夢工房株式会社,,株式会社,兵庫県,神戸市須磨区,平田町１丁目２番１３－９０１号,,28,107,6540021,,,,,,,2024-05-16,1,,,,,アイイロユメコウボウ,0
2283,9140001134444,新規,0,2024-05-16,2024-05-16,株式会社ＢｏｏｋＦｏｒｅｓｔ,,株式会社,兵庫県,尼崎市,長洲本通１丁目１２番２３号,,28,202,6600803,,,,,,,2024-05-16,1,,,,,ブックフォレスト,0
2284,9140003020592,新規,0,2024-05-16,2024-05-16,合同会社キメラワークス,,合同会社,兵庫県,宝塚市,谷口町３番２６－１０６号,,28,214,6650076,,,,,,,2024-05-16,1,,,,,キメラワークス,0
2294,9170001018140,新規,0,2024-05-16,2024-05-16,株式会社丸光建設,,株式会社,和歌山県,有田郡有田川町,大字角２２０番地,,30,366,6430853,,,,,,,2024-05-16,1,,,,,マルミツケンセツ,0
2295,9170003002043,新規,0,2024-05-16,2024-05-16,合同会社カーショップ和歌山,,合同会社,和歌山県,和歌山市,土入２６番地８,,30,201,6408432,,,,,,,2024-05-16,1,,,,,カーショップワカヤマ,0
2300,9180001161468,新規,0,2024-05-16,2024-05-16,Ｍｏｅｅｚ　Ｔｒａｄｉｎｇ株式会社,,株式会社,愛知県,津島市,天王通り６丁目３９番地,,23,208,4960807,,,,,,,2024-05-16,1,,,,,モイーズトレーディング,0
2301,9180001161476,新規,0,2024-05-16,2024-05-16,株式会社ＴＥＮＳＥＩ,,株式会社,愛知県,名古屋市北区,上飯田西町１丁目１６番地,,23,103,4620809,,,,,,,2024-05-16,1,,,,,テンセイ,0
2305,9190001031356,新規,0,2024-05-16,2024-05-16,株式会社デイリーズ,,株式会社,三重県,津市,庄田町２３５５番地１,,24,201,5141255,,,,,,,2024-05-16,1,,,,,デイリーズ,0
2306,9200001042500,新規,0,2024-05-16,2024-05-16,トータルコンサルタントジャパン株式会社,,株式会社,岐阜県,岐阜市,長良杉乃町４丁目９番地,,21,201,5020046,,,,,,,2024-05-16,1,,,,,トータルコンサルタントジャパン,0
2307,9200001042517,新規,0,2024-05-16,2024-05-16,株式会社プラスぴーす,,株式会社,岐阜県,岐阜市,蕪城町４番地１,,21,201,5008839,,,,,,,2024-05-16,1,,,,,プラスピース,0
2312,9200005013621,新規,0,2024-05-16,2024-05-16,農事組合法人里ファーム,,その他の設立登記法人,岐阜県,安八郡輪之内町,里６８２番地の１,,21,382,5030234,,,,,,,2024-05-16,1,,,,,サトファーム,0
2313,9210001019761,新規,0,2024-05-16,2024-05-16,株式会社鳥山,,株式会社,福井県,坂井市,丸岡町熊堂第３号７番地１－１９,,18,210,9100347,,,,,,,2024-05-16,1,,,,,トリヤマ,0
2321,9240001063237,新規,0,2024-05-16,2024-05-16,株式会社福玄,,株式会社,広島県,福山市,緑町２番４３－５０４号,,34,207,7200804,,,,,,,2024-05-16,1,,,,,フクゲン,0
2322,9240001063245,新規,0,2024-05-16,2024-05-16,株式会社Ｒｅｃｌｅａｎ,,株式会社,広島県,広島市安佐北区,三入７丁目２１番９号,,34,106,7310211,,,,,,,2024-05-16,1,,,,,リクリーン,0
2334,9290003015264,新規,0,2024-05-16,2024-05-16,惹合同会社,,合同会社,福岡県,福岡市中央区,港１丁目１０－３モントーレセントラルベイプレイス１２０４,,40,133,8100075,,,,,,,2024-05-16,1,,,,,ジャク,0
2337,9290803004730,新規,0,2024-05-16,2024-05-16,合同会社クリングリン,,合同会社,福岡県,北九州市小倉北区,明和町１１－８　１Ｆ,,40,106,8020017,,,,,,,2024-05-16,1,,,,,クリングリン,0
2339,9310001019017,新規,0,2024-05-16,2024-05-16,株式会社山中建板,,株式会社,長崎県,長崎市,伊良林３丁目８－３９,,42,201,8500802,,,,,,,2024-05-16,1,,,,,ヤマナカケンバン,0
2349,9340003004484,新規,0,2024-05-16,2024-05-16,メディプロパティーズ合同会社,,合同会社,鹿児島県,鹿児島市,城西２丁目６番８号エイルマンション城西本通り９１１号,,46,201,8900041,,,,,,,2024-05-16,1,,,,,メディプロパティーズ,0
2352,9360001033673,新規,0,2024-05-16,2024-05-16,ＲＵＮＶＡ　ＣＯＭＰＡＮＹ株式会社,,株式会社,沖縄県,那覇市,首里寒川町２丁目７３番地１Ｌ．Ｍ首里寒川５０２,,47,201,9030826,,,,,,,2024-05-16,1,,,,,ランバカンパニー,0
2354,9360003013970,新規,0,2024-05-16,2024-05-16,合同会社Ｓ．ｓｔｅｐ,,合同会社,沖縄県,名護市,大北５丁目１番６－２０９号アメニティハイム,,47,209,9050019,,,,,,,2024-05-16,1,,,,,エステップ,0
2360,9380001034521,新規,0,2024-05-16,2024-05-16,株式会社白河企画,,株式会社,福島県,西白河郡西郷村,大字真船字折口下６９－１,,07,461,9618071,,,,,,,2024-05-16,1,,,,,シラカワキカク,0
2361,9380001034538,新規,0,2024-05-16,2024-05-16,株式会社琉星,,株式会社,福島県,田村郡三春町,大字山田字栃久保１７４番地,,07,521,9637733,,,,,,,2024-05-16,1,,,,,リュウセイ,0
2364,9380003005751,新規,0,2024-05-16,2024-05-16,合同会社パーソナルユニオンズ,,合同会社,福島県,いわき市,平中神谷字水前２３,,07,204,9708021,,,,,,,2024-05-16,1,,,,,パーソナルユニオンズ,0
2376,9430001091813,新規,0,2024-05-16,2024-05-16,株式会社ＬＯＭ’Ｓ,,株式会社,北海道,札幌市西区,発寒五条４丁目４番３８号,,01,107,0630825,,,,,,,2024-05-16,1,,,,,ロムズ,0
2381,9460301005222,新規,0,2024-05-16,2024-05-16,株式会社マイベース,,株式会社,北海道,北見市,東相内町６７４番地１,,01,208,0990878,,,,,,,2024-05-16,1,,,,,マイベース,0
2391,9700150125451,新規,0,2024-05-16,2024-05-16,ノーリツ協力会社持株会,,その他,兵庫県,神戸市中央区,江戸町９３番地,,28,110,6500033,,,,,,,2024-05-16,1,,,,,ノーリツキョウリョクガイシャモチカブカイ,0
