sequenceNumber,corporateNumber,process,correct,updateDate,changeDate,name,nameImageId,kind,prefectureName,cityName,streetNumber,addressImageId,prefectureCode,cityCode,postCode,addressOutside,addressOutsideImageId,closeDate,closeCause,successorCorporateNumber,changeCause,assignmentDate,latest,enName,enPrefectureName,enCityName,enAddressOutside,furigana,hihyoji
9,1010001254345,新規,0,2025-05-16,2025-05-16,株式会社ソリューションバンクコンサルティング,,株式会社,東京都,中央区,晴海５丁目３番２号ＨＡＲＵＭＩＦＬＡＧＰＯＲＴＶＩＬＬＡＧＥＢ棟１６１１,,13,102,1040053,,,,,,,2025-05-16,1,,,,,,0
10,1010001254568,新規,0,2025-05-16,2025-05-16,株式会社海王,,株式会社,東京都,新島村,式根島１１４番地１,,13,363,1000511,,,,,,,2025-05-16,1,,,,,カイオウ,0
11,1010001254857,新規,0,2025-05-16,2025-05-16,風早リサーチアンドアドバイザリー株式会社,,株式会社,東京都,中央区,銀座１丁目１２－４Ｎ＆ＥＢＬＤ．７階,,13,102,1040061,,,,,,,2025-05-16,1,,,,,カザハヤリサーチアンドアドバイザリー,0
12,1010001254873,新規,0,2025-05-16,2025-05-16,リバーブ株式会社,,株式会社,東京都,中央区,東日本橋２丁目２８番４号日本橋ＣＥＴビル２階,,13,102,1030004,,,,,,,2025-05-16,1,,,,,リバーブ,0
13,1010001254915,新規,0,2025-05-16,2025-05-16,株式会社ＢＲＩＧＨＴ,,株式会社,東京都,中央区,日本橋３丁目７番７号,,13,102,1030027,,,,,,,2025-05-16,1,,,,,ブライト,0
14,1010001254980,新規,0,2025-05-16,2025-05-16,ＴＣＧ２５０３株式会社,,株式会社,東京都,千代田区,丸の内１丁目５番１号,,13,101,1000005,,,,,,,2025-05-16,1,,,,,ティーシージーニーゴーゼロサン,0
15,1010001255095,新規,0,2025-05-16,2025-05-16,ダイヤラトゥール株式会社,,株式会社,東京都,千代田区,丸の内１丁目５番１号,,13,101,1000005,,,,,,,2025-05-16,1,,,,,ダイヤラトゥール,0
18,1010003047342,新規,0,2025-05-16,2025-05-16,ＨＬＢ２１号合同会社,,合同会社,東京都,千代田区,霞が関３丁目２番５号,,13,101,1000013,,,,,,,2025-05-16,1,,,,,エイチエルビーニジュウイチゴウ,0
28,1010401190371,新規,0,2025-05-16,2025-05-16,株式会社マーベリンク,,株式会社,東京都,港区,浜松町１丁目１３番２‐１２０４号,,13,103,1050013,,,,,,,2025-05-16,1,,,,,マーベリンク,0
31,1010403035104,新規,0,2025-05-16,2025-05-16,合同会社ＣＯＴＯＮＡ,,合同会社,東京都,港区,浜松町２丁目２番１５号浜松町ダイヤビル２Ｆ,,13,103,1050013,,,,,,,2025-05-16,1,,,,,コトナ,0
32,1010405024344,新規,0,2025-05-16,2025-05-16,ＶＩＲＹＡ　ＥＮＥＲＧＹ　ＪＡＰＡＮ一般社団法人,,その他の設立登記法人,東京都,港区,赤坂１丁目１１番４４号赤坂インターシティ５階Ｆｏｒｖｉｓ・Ｍａｚａｒｓ・Ｊａｐａｎ株式会社内,,13,103,1070052,,,,,,,2025-05-16,1,,,,,ヴィリアエナジージャパン,0
34,1010601067312,新規,0,2025-05-16,2025-05-16,株式会社ポルテ・ボヌール,,株式会社,東京都,江東区,南砂７丁目１０－９－３０２,,13,108,1360076,,,,,,,2025-05-16,1,,,,,ポルテボヌール,0
55,1011001169756,新規,0,2025-05-16,2025-05-16,株式会社Ｔａｃｈｙｏｎ,,株式会社,東京都,渋谷区,恵比寿南１丁目７‐１０パークハビオ恵比寿１３０５号室,,13,113,1500022,,,,,,,2025-05-16,1,,,,,タキオン,0
56,1011003021709,新規,0,2025-05-16,2025-05-16,アネモイ合同会社,,合同会社,東京都,目黒区,祐天寺１丁目２４番１２号,,13,110,1530052,,,,,,,2025-05-16,1,,,,,,0
63,1011105011426,新規,0,2025-05-16,2025-05-16,一般社団法人ゲヌ,,その他の設立登記法人,東京都,新宿区,西新宿３丁目３番１３号西新宿水間ビル６階,,13,104,1600023,,,,,,,2025-05-16,1,,,,,ゲヌ,0
67,1011303005551,新規,0,2025-05-16,2025-05-16,合同会社カンバヤシ商会,,合同会社,東京都,杉並区,方南１丁目３９番２２号,,13,115,1680062,,,,,,,2025-05-16,1,,,,,カンバヤシショウカイ,0
72,1011501032042,新規,0,2025-05-16,2025-05-16,旭晟株式会社,,株式会社,東京都,北区,豊島４丁目１－１６－３０２室,,13,117,1140003,,,,,,,2025-05-16,1,,,,,キョクセイ,0
73,1011503006531,新規,0,2025-05-16,2025-05-16,合同会社ＦＲＵＴＡＳ,,合同会社,東京都,荒川区,東日暮里５丁目５１－１３－７０３,,13,118,1160014,,,,,,,2025-05-16,1,,,,,フルータス,0
78,1011703004244,新規,0,2025-05-16,2025-05-16,ｔｓｕｇｕｍｉ，ｉｎｃ，ｆｅａｔｕｒｉｎｇ，ｍｕ合同会社,,合同会社,東京都,江戸川区,西瑞江３丁目６－７９,,13,123,1320015,,,,,,,2025-05-16,1,,,,,ツグミインクフューチャリングエムユー,0
79,1011803006834,新規,0,2025-05-16,2025-05-16,合同会社サンライズ,,合同会社,東京都,足立区,西新井本町４丁目２２番１７号,,13,121,1230845,,,,,,,2025-05-16,1,,,,,サンライズ,0
82,1012401043105,新規,0,2025-05-16,2025-05-16,株式会社Ｈｕｍａｎ　Ｍｏｍｅｎｔｓ,,株式会社,東京都,武蔵野市,境５丁目１３－２－Ｂ－８０１,,13,203,1800022,,,,,,,2025-05-16,1,,,,,ヒューマンモーメンツ,0
83,1012401043113,新規,0,2025-05-16,2025-05-16,ＥＧＣ株式会社,,株式会社,東京都,調布市,調布ケ丘１丁目１８番地９３ブランズシティ調布２３６,,13,208,1820021,,,,,,,2025-05-16,1,,,,,,0
84,1012401043121,新規,0,2025-05-16,2025-05-16,株式会社ココニ,,株式会社,東京都,府中市,白糸台１丁目７１番地の１,,13,206,1830011,,,,,,,2025-05-16,1,,,,,,0
86,1012403007132,新規,0,2025-05-16,2025-05-16,合同会社クオア,,合同会社,東京都,小金井市,貫井南町４丁目１６番２０号ベルハウス貫井Ａ棟２０２,,13,210,1840014,,,,,,,2025-05-16,1,,,,,クオア,0
91,1013301054217,新規,0,2025-05-16,2025-05-16,Ｊ‐Ｆｏｒｃｅ　Ｊａｐａｎ株式会社,,株式会社,東京都,豊島区,南池袋３丁目１３番７－１００２号,,13,116,1710022,,,,,,,2025-05-16,1,,,,,ジェイーフォースジャパン,0
94,1020001162836,新規,0,2025-05-16,2025-05-16,Ｍｅｔｒｏｎｅｓｔ　Ｇｒｏｕｐ株式会社,,株式会社,神奈川県,川崎市川崎区,浜町３丁目１番５号コスモ川崎スクエア１０１－Ｂ,,14,131,2100851,,,,,,,2025-05-16,1,,,,,メトロネストグループ,0
95,1020001162844,新規,0,2025-05-16,2025-05-16,秋葉測量株式会社,,株式会社,神奈川県,横浜市戸塚区,秋葉町４９５－８２,,14,110,2450052,,,,,,,2025-05-16,1,,,,,アキバソクリョウ,0
100,1020003028481,新規,0,2025-05-16,2025-05-16,合同会社アップ,,合同会社,神奈川県,川崎市多摩区,宿河原５丁目１８番２２－１号,,14,135,2140021,,,,,,,2025-05-16,1,,,,,アップ,0
101,1020005016848,新規,0,2025-05-16,2025-05-16,一般社団法人にじいろスポーツ,,その他の設立登記法人,神奈川県,川崎市麻生区,向原２丁目１７番３４号,,14,137,2150007,,,,,,,2025-05-16,1,,,,,ニジイロスポーツ,0
107,1021003016006,新規,0,2025-05-16,2025-05-16,相模が丘不動産管理合同会社,,合同会社,神奈川県,座間市,ひばりが丘２丁目５６番１２号,,14,216,2520003,,,,,,,2025-05-16,1,,,,,サガミガオカフドウサンカンリ,0
116,1030001166514,新規,0,2025-05-16,2025-05-16,株式会社ＡＬＬ５,,株式会社,埼玉県,川口市,芝西２丁目２番１－１０２号,,11,203,3330855,,,,,,,2025-05-16,1,,,,,オールファイブ,0
117,1030001166555,新規,0,2025-05-16,2025-05-16,株式会社ＫＯＵＳＥＩ．Ｇ．Ｈ,,株式会社,埼玉県,川口市,本前川３丁目３９番３号,,11,203,3330849,,,,,,,2025-05-16,1,,,,,コウセイグループホールディングス,0
119,1030003026773,新規,0,2025-05-16,2025-05-16,合同会社康博国際,,合同会社,埼玉県,さいたま市見沼区,大字丸ヶ崎２０８７番地１,,11,104,3370001,,,,,,,2025-05-16,1,,,,,ヤスヒロコクサイ,0
122,1040001138702,新規,0,2025-05-16,2025-05-16,株式会社一心,,株式会社,千葉県,市川市,新井１丁目６番４号,,12,203,2720144,,,,,,,2025-05-16,1,,,,,イッシン,0
123,1040001138751,新規,0,2025-05-16,2025-05-16,株式会社金杢犀,,株式会社,千葉県,千葉市緑区,越智町１７１,,12,105,2670055,,,,,,,2025-05-16,1,,,,,キンモクセイ,0
127,1040003027580,新規,0,2025-05-16,2025-05-16,合同会社ＳＹＯＥＩ,,合同会社,千葉県,鎌ケ谷市,北中沢２丁目１０番１５号,,12,224,2730111,,,,,,,2025-05-16,1,,,,,ショエイ,0
128,1040003027589,新規,0,2025-05-16,2025-05-16,合同会社ありがとうサービス,,合同会社,千葉県,四街道市,大日３２２番地５－１０３,,12,228,2840001,,,,,,,2025-05-16,1,,,,,アリガトウサービス,0
130,1050001056614,新規,0,2025-05-16,2025-05-16,ＹＡＧＵＣＨＩ株式会社,,株式会社,茨城県,つくば市,鬼ケ窪１１４８番地２,,08,220,3002651,,,,,,,2025-05-16,1,,,,,ヤグチ,0
136,1060003005551,新規,0,2025-05-16,2025-05-16,合同会社達建,,合同会社,栃木県,那須塩原市,三島３丁目１２６番地２４ネオコーポ５－１０２号,,09,213,3292752,,,,,,,2025-05-16,1,,,,,タッケン,0
142,1090001019278,新規,0,2025-05-16,2025-05-16,株式会社東鶴,,株式会社,山梨県,上野原市,上野原１３７６番地２,,19,212,4090112,,,,,,,2025-05-16,1,,,,,トウカク,0
150,1100003008161,新規,0,2025-05-16,2025-05-16,合同会社ｃｏｃｏｙｕｉ,,合同会社,長野県,中野市,大字中野１８７２番地１６,,20,211,3830013,,,,,,,2025-05-16,1,,,,,ココユイ,0
157,1120001275652,新規,0,2025-05-16,2025-05-16,株式会社Ｓｕｐｐｏｒｔｉｖｅ,,株式会社,大阪府,大阪市都島区,中野町３丁目１１番３９－２０４号,,27,102,5340027,,,,,,,2025-05-16,1,,,,,サポーティブ,0
158,1120001275727,新規,0,2025-05-16,2025-05-16,Ｐｕｒｅ　Ｌｉｆｅ株式会社,,株式会社,大阪府,大阪市西成区,長橋１丁目３番９号１０１号室,,27,122,5570025,,,,,,,2025-05-16,1,,,,,ピュアライフ,0
159,1120001275735,新規,0,2025-05-16,2025-05-16,ＥＳＴ株式会社,,株式会社,大阪府,大阪市西成区,津守１丁目８番４１号,,27,122,5570062,,,,,,,2025-05-16,1,,,,,イーエスティ,0
160,1120001275751,新規,0,2025-05-16,2025-05-16,株式会社ＳＡＩＴＯＳＨＯＴＥＮ,,株式会社,大阪府,大阪市西区,北堀江４丁目１２番１０－１４１７号,,27,106,5500014,,,,,,,2025-05-16,1,,,,,サイトウショウテン,0
161,1120001275776,新規,0,2025-05-16,2025-05-16,加賀株式会社,,株式会社,大阪府,大阪市住吉区,長居東４丁目１５－２１－１０１Ａ,,27,120,5580004,,,,,,,2025-05-16,1,,,,,カガ,0
162,1120001275792,新規,0,2025-05-16,2025-05-16,公園都市リテール株式会社,,株式会社,大阪府,大阪市北区,梅田１丁目２番２号大阪駅前第２ビル１２－１２,,27,127,5300001,,,,,,,2025-05-16,1,,,,,コウエントシリテール,0
163,1120001275842,新規,0,2025-05-16,2025-05-16,Ｈａｙａｏ　ＳＹＩ　Ｔｅｃｈ株式会社,,株式会社,大阪府,大阪市西淀川区,柏里２丁目７－２６ラ・ピース塚本３０５号室,,27,113,5550022,,,,,,,2025-05-16,1,,,,,ハヤオエスワイアイテック,0
164,1120001275925,新規,0,2025-05-16,2025-05-16,株式会社藤小路ホールディングス,,株式会社,大阪府,大阪市北区,曾根崎２丁目１２番７号清和梅田ビル７階,,27,127,5300057,,,,,,,2025-05-16,1,,,,,フジコウジホールディングス,0
167,1120005024931,新規,0,2025-05-16,2025-05-16,一般社団法人Ｔｒａｔｔｏｎｅ,,その他の設立登記法人,大阪府,大阪市天王寺区,筆ケ崎町５番３９－２６０８号,,27,109,5430027,,,,,,,2025-05-16,1,,,,,トラトネ,0
181,1130001079598,新規,0,2025-05-16,2025-05-16,株式会社文具ナカツカ,,株式会社,京都府,京都市中京区,西ノ京御輿岡町１６番地５,,26,104,6048451,,,,,,,2025-05-16,1,,,,,ブングナカツカ,0
182,1130001079689,新規,0,2025-05-16,2025-05-16,株式会社キキュウ,,株式会社,京都府,京都市下京区,小稲荷町８５－２Ｇｒａｎｄ－Ｋ京都駅前ビル２０１,,26,106,6008208,,,,,,,2025-05-16,1,,,,,キキュウ,0
193,1140001138551,新規,0,2025-05-16,2025-05-16,株式会社姫路高圧,,株式会社,兵庫県,姫路市,大津区北天満町１４１番地３,,28,201,6711142,,,,,,,2025-05-16,1,,,,,ヒメジコウアツ,0
194,1140001138576,新規,0,2025-05-16,2025-05-16,株式会社ＪＡＳホールディングス,,株式会社,兵庫県,姫路市,三左衛門堀西の町４４,,28,201,6700940,,,,,,,2025-05-16,1,,,,,ジャスホールディングス,0
195,1140001138584,新規,0,2025-05-16,2025-05-16,小椋設備株式会社,,株式会社,兵庫県,神戸市垂水区,美山台１丁目５番２７号,,28,108,6550874,,,,,,,2025-05-16,1,,,,,オグラセツビ,0
196,1140003022068,新規,0,2025-05-16,2025-05-16,大地貿易合同会社,,合同会社,兵庫県,神戸市兵庫区,羽坂通３丁目７番３号２０７号室,,28,105,6520805,,,,,,,2025-05-16,1,,,,,ダイチボウエキ,0
200,1170003002216,新規,0,2025-05-16,2025-05-16,合名会社ジョイこまつ,,合名会社,和歌山県,有田市,箕島４４０番地２,,30,204,6490304,,,,,,,2025-05-16,1,,,,,ジョイコマツ,0
211,1180001166631,新規,0,2025-05-16,2025-05-16,株式会社ユニクリ,,株式会社,愛知県,名古屋市中村区,名駅４丁目２４番５号第２森ビル４０１,,23,105,4500002,,,,,,,2025-05-16,1,,,,,ユニクリ,0
227,1210003001923,新規,0,2025-05-16,2025-05-16,合同会社蛙家,,合同会社,福井県,勝山市,鹿谷町保田第８５号１８番地,,18,206,9110848,,,,,,,2025-05-16,1,,,,,カエルヤ,0
235,1250001021151,新規,0,2025-05-16,2025-05-16,ＹＡＭＡＧＵＣＨＩ　ＢＯＥＫＩ株式会社,,株式会社,山口県,宇部市,大字沖宇部６１番地１３,,35,202,7550001,,,,,,,2025-05-16,1,,,,,ヤマグチボウエキ,0
246,1290003016773,新規,0,2025-05-16,2025-05-16,燦雅合同会社,,合同会社,福岡県,福岡市東区,香椎浜３丁目３－６－１７１６,,40,131,8130016,,,,,,,2025-05-16,1,,,,,サンガ,0
248,1300001014190,新規,0,2025-05-16,2025-05-16,株式会社咲,,株式会社,佐賀県,武雄市,武雄町大字武雄６６５１番地６,,41,206,8430022,,,,,,,2025-05-16,1,,,,,サキ,0
252,1320003004667,新規,0,2025-05-16,2025-05-16,Ｒｏｔ合同会社,,合同会社,大分県,大分市,北鶴崎１丁目３番１０－４０２号ロゼア鶴崎駅前,,44,201,8700102,,,,,,,2025-05-16,1,,,,,ロット,0
265,1360001035132,新規,0,2025-05-16,2025-05-16,株式会社テヅルモヅル,,株式会社,沖縄県,名護市,宮里１丁目２８－８南西ビル２Ｆ,,47,209,9050011,,,,,,,2025-05-16,1,,,,,テヅルモヅル,0
276,1410003004105,新規,0,2025-05-16,2025-05-16,Ｒ＆Ｍ合同会社,,合同会社,秋田県,秋田市,旭南２丁目２－４５,,05,201,0100925,,,,,,,2025-05-16,1,,,,,アールアンドエム,0
281,1430001094427,新規,0,2025-05-16,2025-05-16,株式会社テリオス,,株式会社,北海道,札幌市豊平区,月寒西四条９丁目１番１８号,,01,105,0620024,,,,,,,2025-05-16,1,,,,,テリオス,0
282,1430003017600,新規,0,2025-05-16,2025-05-16,合同会社Ｎｏｂｌｅ　Ｐａｔｈ,,合同会社,北海道,札幌市中央区,南五条東３丁目７番地１ルピナス４０２号,,01,101,0600055,,,,,,,2025-05-16,1,,,,,ノーブルパス,0
283,1430003017666,新規,0,2025-05-16,2025-05-16,合同会社ゆきはな,,合同会社,北海道,札幌市中央区,南十八条西１６丁目２番２０－１２０１号,,01,101,0640918,,,,,,,2025-05-16,1,,,,,ユキハナ,0
284,1450001014614,新規,0,2025-05-16,2025-05-16,株式会社旭川宮下通ホテルマネジメント,,株式会社,北海道,旭川市,宮下通１０丁目３番３号,,01,204,0700030,,,,,,,2025-05-16,1,,,,,アサヒカワミヤシタドオリホテルマネジメント,0
285,1460001006008,新規,0,2025-05-16,2025-05-16,株式会社ハートフェルト,,株式会社,北海道,釧路市,鳥取北６丁目５番２２号,,01,206,0840907,,,,,,,2025-05-16,1,,,,,,0
288,1490001011046,新規,0,2025-05-16,2025-05-16,株式会社志,,株式会社,高知県,高知市,瀬戸南町２丁目８番４３－３号第２瀬戸ハイツ１０１,,39,201,7810253,,,,,,,2025-05-16,1,,,,,ノゾミ,0
290,1700150130525,新規,0,2025-05-16,2025-05-16,ＤＹＮＡＭＩＣＳ　ＡＵＴＯ　ＬＡＮＫＡ,,外国会社等,千葉県,八街市,文違３０１番地２１１３－３,,12,230,2891104,スリランカ民主社会主義共和国、アクラナ、クルゴダノース、Ｎｏ．７６／１,,,,,,2025-05-16,1,,,,,ダイナミクスオートランカ,0
297,2010001254807,新規,0,2025-05-16,2025-05-16,ＳＧ株式会社,,株式会社,東京都,文京区,本駒込２丁目１０番３号,,13,105,1130021,,,,,,,2025-05-16,1,,,,,エスジー,0
298,2010001255029,新規,0,2025-05-16,2025-05-16,龍玉奏製薬株式会社,,株式会社,東京都,中央区,入船３丁目８番１－３０６号,,13,102,1040042,,,,,,,2025-05-16,1,,,,,リュウギョクソウセイヤク,0
299,2010001255094,新規,0,2025-05-16,2025-05-16,株式会社ＩＧジャパンコンサルティング,,株式会社,東京都,千代田区,内神田２丁目４番２号一広グローバルビル９Ｆ,,13,101,1010047,,,,,,,2025-05-16,1,,,,,アイジージャパンコンサルティング,0
301,2010003047300,新規,0,2025-05-16,2025-05-16,Ｂｒｕｎｏ合同会社,,合同会社,東京都,千代田区,霞が関３丁目２番５号,,13,101,1000013,,,,,,,2025-05-16,1,,,,,ブルーノ,0
302,2010003047317,新規,0,2025-05-16,2025-05-16,合同会社ＳＫ　ＴＡＸコンサルティング,,合同会社,東京都,千代田区,神田錦町３丁目１２－２ＫＴ第２ビル６Ｆ,,13,101,1010054,,,,,,,2025-05-16,1,,,,,エスケータックスコンサルティング,0
311,2010401189999,新規,0,2025-05-16,2025-05-16,龍源株式会社,,株式会社,東京都,港区,北青山１丁目３番１号アールキューブ青山３階,,13,103,1070061,,,,,,,2025-05-16,1,,,,,リュウゲン,0
312,2010401190172,新規,0,2025-05-16,2025-05-16,株式会社片栗ＣＯ,,株式会社,東京都,港区,芝大門２丁目１番１６号＋ＳＨＩＦＴ・ＳＨＩＢＡＤＡＩＭＯＮ４階,,13,103,1050012,,,,,,,2025-05-16,1,,,,,カタクリコ,0
313,2010401190321,新規,0,2025-05-16,2025-05-16,ＷＩＮ　ＪＡＰＡＮ株式会社,,株式会社,東京都,港区,南青山４丁目１５番５号,,13,103,1070062,,,,,,,2025-05-16,1,,,,,ウィンジャパン,0
315,2010403035020,新規,0,2025-05-16,2025-05-16,合同会社ＳＨＵ‐ＴＡ,,合同会社,東京都,港区,北青山１丁目３－３三橋ビル３階,,13,103,1070061,,,,,,,2025-05-16,1,,,,,シュウタ,0
316,2010403035111,新規,0,2025-05-16,2025-05-16,Ｃｏｎｓｉｌｅｇｙ合同会社,,合同会社,東京都,港区,北青山１丁目３番１号アールキューブ青山３階,,13,103,1070061,,,,,,,2025-05-16,1,,,,,コンシレジー,0
322,2010601067294,新規,0,2025-05-16,2025-05-16,株式会社ＭｅｄＩｓｈｉｎ,,株式会社,東京都,墨田区,向島３丁目４６－１３エステムプラザとうきょうスカイツリー４０４,,13,107,1310033,,,,,,,2025-05-16,1,,,,,メディシン,0
323,2010601067311,新規,0,2025-05-16,2025-05-16,カイコウ株式会社,,株式会社,東京都,墨田区,業平２丁目８－７－４０１号,,13,107,1300002,,,,,,,2025-05-16,1,,,,,カイコウ,0
330,2010703007702,新規,0,2025-05-16,2025-05-16,大和ＳＰＩＲＩＴ合同会社,,合同会社,東京都,品川区,戸越２丁目７－２リベルテ戸越１０１,,13,109,1420041,,,,,,,2025-05-16,1,,,,,ヤマトスピリット,0
349,2011001169441,新規,0,2025-05-16,2025-05-16,株式会社エクスハイ,,株式会社,東京都,渋谷区,渋谷２丁目１９－１５宮益坂ビルディング６０９,,13,113,1500002,,,,,,,2025-05-16,1,,,,,エクスハイ,0
350,2011001169714,新規,0,2025-05-16,2025-05-16,株式会社ＯＮＥ,,株式会社,東京都,渋谷区,渋谷１丁目３番１８号,,13,113,1500002,,,,,,,2025-05-16,1,,,,,ワン,0
356,2011103015898,新規,0,2025-05-16,2025-05-16,環宇一家合同会社,,合同会社,東京都,新宿区,西新宿３丁目３番１３号西新宿水間ビル６階,,13,104,1600023,,,,,,,2025-05-16,1,,,,,カンウイッカ,0
361,2011301030591,新規,0,2025-05-16,2025-05-16,Ａ‐Ｌｉｎｋ株式会社,,株式会社,東京都,杉並区,阿佐谷南３丁目４０番２号,,13,115,1660004,,,,,,,2025-05-16,1,,,,,エーリンク,0
364,2011501032074,新規,0,2025-05-16,2025-05-16,Ｋｅｙｓｔｏｎｅ　Ｔｅｃｈｎｏｌｏｇｙ日本研究開発センター株式会社,,株式会社,東京都,北区,豊島２丁目１０番６号２０３号室,,13,117,1140003,,,,,,,2025-05-16,1,,,,,キーストーンテクノロジーニホンケンキュウカイハツセンター,0
370,2011801046113,新規,0,2025-05-16,2025-05-16,光通商株式会社,,株式会社,東京都,足立区,堀之内１丁目２番１１号,,13,121,1230874,,,,,,,2025-05-16,1,,,,,ヒカリツウショウ,0
373,2012401043112,新規,0,2025-05-16,2025-05-16,株式会社リアライズ,,株式会社,東京都,武蔵野市,吉祥寺本町１丁目２０番１号吉祥寺永谷シティプラザ１００２,,13,203,1800004,,,,,,,2025-05-16,1,,,,,リアライズ,0
375,2012403007131,新規,0,2025-05-16,2025-05-16,Ｔｕｒｔｌｅ　Ｓｔｒａｔｅｇｙ合同会社,,合同会社,東京都,武蔵野市,中町２丁目２０－６,,13,203,1800006,,,,,,,2025-05-16,1,,,,,タートルストラテジー,0
376,2013101009691,新規,0,2025-05-16,2025-05-16,株式会社西尾総業,,株式会社,東京都,あきる野市,野辺５７２番地１クレールメゾン２０２,,13,228,1970823,,,,,,,2025-05-16,1,,,,,ニシオソウギョウ,0
391,2020001162835,新規,0,2025-05-16,2025-05-16,誠心不動産株式会社,,株式会社,神奈川県,横浜市神奈川区,鶴屋町２丁目９－２２－８０２,,14,102,2210835,,,,,,,2025-05-16,1,,,,,セイシンフドウサン,0
393,2020003028357,新規,0,2025-05-16,2025-05-16,ＲＥＤ　ＤＲＡＧＯＮ　ＧＹＭ合同会社,,合同会社,神奈川県,川崎市中原区,井田１丁目１４番１７－３０１号,,14,133,2110035,,,,,,,2025-05-16,1,,,,,レッドドラゴンジム,0
395,2020005016847,新規,0,2025-05-16,2025-05-16,一般社団法人ビジネス実務支援機構,,その他の設立登記法人,神奈川県,横浜市中区,弥生町４丁目４２番地セザール大通り公園６０１号室,,14,104,2310058,,,,,,,2025-05-16,1,,,,,ビジネスジツムシエンキコウ,0
408,2030001166496,新規,0,2025-05-16,2025-05-16,上海貿易日本株式会社,,株式会社,埼玉県,草加市,松原３丁目６－１ソライエテラスイースト１１７,,11,221,3400041,,,,,,,2025-05-16,1,,,,,シャンハイボウエキニホン,0
409,2030001166538,新規,0,2025-05-16,2025-05-16,株式会社ＧＯＴＯ,,株式会社,埼玉県,所沢市,小手指町５丁目２番地１ヴィルヌーブ小手指１０５,,11,208,3591141,,,,,,,2025-05-16,1,,,,,ゴトー,0
410,2030001166579,新規,0,2025-05-16,2025-05-16,株式会社リモデル住建,,株式会社,埼玉県,比企郡川島町,大字伊草１７４番地９,,11,346,3500158,,,,,,,2025-05-16,1,,,,,リモデルジュウケン,0
414,2030003026748,新規,0,2025-05-16,2025-05-16,合同会社タイタノス,,合同会社,埼玉県,さいたま市見沼区,東大宮４丁目２０－８－１階,,11,104,3370051,,,,,,,2025-05-16,1,,,,,タイタノス,0
415,2030003026780,新規,0,2025-05-16,2025-05-16,合同会社芹香,,合同会社,埼玉県,さいたま市西区,大字宝来５４１番地４,,11,101,3310074,,,,,,,2025-05-16,1,,,,,セリカ,0
416,2030003026797,新規,0,2025-05-16,2025-05-16,アリシア合同会社,,合同会社,埼玉県,所沢市,緑町１丁目４番１－９１１号デュオヒルズ新所沢駅前,,11,208,3591111,,,,,,,2025-05-16,1,,,,,アリシア,0
419,2040001138767,新規,0,2025-05-16,2025-05-16,株式会社連成,,株式会社,千葉県,松戸市,根本５７－１直江ビル１０１号,,12,207,2710077,,,,,,,2025-05-16,1,,,,,レンセイ,0
420,2040001138791,新規,0,2025-05-16,2025-05-16,株式会社がいもん,,株式会社,千葉県,流山市,前ケ崎２７４番地,,12,220,2700144,,,,,,,2025-05-16,1,,,,,ガイモン,0
421,2040001138817,新規,0,2025-05-16,2025-05-16,株式会社Ａｎｅｇｒａｍ,,株式会社,千葉県,市川市,本北方２丁目２６番７号,,12,203,2720816,,,,,,,2025-05-16,1,,,,,アネグラム,0
425,2050001056670,新規,0,2025-05-16,2025-05-16,株式会社水稲舎,,株式会社,茨城県,かすみがうら市,坂１１４７－１,,08,230,3000214,,,,,,,2025-05-16,1,,,,,スイトウシャ,0
426,2050001056687,新規,0,2025-05-16,2025-05-16,株式会社Ｌｉｎｋ　Ａｃａｄｅｍｙ,,株式会社,茨城県,つくば市,観音台１丁目１５番地４,,08,220,3050856,,,,,,,2025-05-16,1,,,,,リンクアカデミー,0
427,2050001056695,新規,0,2025-05-16,2025-05-16,株式会社ＴｏｋｙｏＬｕｐｏｓ,,株式会社,茨城県,猿島郡五霞町,大字川妻１３７４番地７,,08,542,3060314,,,,,,,2025-05-16,1,,,,,トウキョウルポ,0
431,2060001038197,新規,0,2025-05-16,2025-05-16,サツマ金属株式会社,,株式会社,栃木県,下野市,大光寺１４７－１,,09,216,3290400,,,,,,,2025-05-16,1,,,,,サツマキンゾク,0
440,2080101025498,新規,0,2025-05-16,2025-05-16,ゴルフリゾートジャパン株式会社,,株式会社,静岡県,御殿場市,神山１９１８番地,,22,215,4120033,,,,,,,2025-05-16,1,,,,,ゴルフリゾートジャパン,0
442,2080401027913,新規,0,2025-05-16,2025-05-16,株式会社ＳＧＲアソシエイツ,,株式会社,静岡県,浜松市中央区,篠原町１０６２２番地,,22,138,4310201,,,,,,,2025-05-16,1,,,,,エスジーアールアソシエイツ,0
445,2100001038606,新規,0,2025-05-16,2025-05-16,株式会社ヴァン・クレール・軽井澤,,株式会社,長野県,北佐久郡軽井沢町,中軽井沢２４番地１１－３０２,,20,321,3890112,,,,,,,2025-05-16,1,,,,,ヴァンクレールカルイザワ,0
455,2120001275668,新規,0,2025-05-16,2025-05-16,株式会社訪問看護ステーション和雅,,株式会社,大阪府,大阪市阿倍野区,松崎町３丁目６－１２－２０２,,27,119,5450053,,,,,,,2025-05-16,1,,,,,ホウモンカンゴステーションワビ,0
456,2120001275701,新規,0,2025-05-16,2025-05-16,株式会社ロイヤルストレートフラッシュ,,株式会社,大阪府,大阪市東淀川区,小松４丁目１５－１５,,27,114,5330004,,,,,,,2025-05-16,1,,,,,ロイヤルストレートフラッシュ,0
457,2120001275726,新規,0,2025-05-16,2025-05-16,信辰株式会社,,株式会社,大阪府,大阪市浪速区,敷津西２丁目１０－１５－４０２,,27,111,5560015,,,,,,,2025-05-16,1,,,,,シンシン,0
458,2120001275734,新規,0,2025-05-16,2025-05-16,華遠株式会社,,株式会社,大阪府,大阪市大正区,小林西２丁目１５番３号２０５号室,,27,108,5510013,,,,,,,2025-05-16,1,,,,,カエン,0
459,2120001275750,新規,0,2025-05-16,2025-05-16,株式会社ＸＣＥＤＯ,,株式会社,大阪府,大阪市平野区,平野本町４丁目７番１１号ｌｉｅｎ平野本町１０２号,,27,126,5470044,,,,,,,2025-05-16,1,,,,,エクシード,0
460,2120001275759,新規,0,2025-05-16,2025-05-16,卓川株式会社,,株式会社,大阪府,大阪市城東区,関目５丁目１９番９号関目花博公館２０３Ｂ,,27,118,5360008,,,,,,,2025-05-16,1,,,,,タクカワ,0
461,2120001275775,新規,0,2025-05-16,2025-05-16,株式会社Ｄｏｃｔｏｒｓ　Ｓａｒａｎｇ,,株式会社,大阪府,大阪市天王寺区,味原町１３番１１号－２,,27,109,5430023,,,,,,,2025-05-16,1,,,,,ドクターズサラン,0
462,2120001275825,新規,0,2025-05-16,2025-05-16,城暁株式会社,,株式会社,大阪府,大阪市北区,本庄東３丁目３番７号マンション淀３０２Ｄ,,27,127,5310074,,,,,,,2025-05-16,1,,,,,ジョウギョウ,0
463,2120001275858,新規,0,2025-05-16,2025-05-16,昭和ピコテクノロジー株式会社,,株式会社,大阪府,大阪市中央区,南船場３丁目２番２２号おおきに南船場ビル２０５,,27,128,5420081,,,,,,,2025-05-16,1,,,,,ショウワピコテクノロジー,0
464,2120001275890,新規,0,2025-05-16,2025-05-16,柏・紅丸株式会社,,株式会社,大阪府,大阪市西成区,萩之茶屋２丁目６番４号ニューかめや６号室,,27,122,5570004,,,,,,,2025-05-16,1,,,,,ハクコウマル,0
465,2120001275924,新規,0,2025-05-16,2025-05-16,株式会社翔禾,,株式会社,大阪府,大阪市旭区,新森５丁目３番２４号ヴィラース旭３０１号室,,27,117,5350022,,,,,,,2025-05-16,1,,,,,ショウノギ,0
470,2120003029428,新規,0,2025-05-16,2025-05-16,麦田合同会社,,合同会社,大阪府,大阪市住吉区,遠里小野４丁目５番２－２０３号,,27,120,5580032,,,,,,,2025-05-16,1,,,,,ムギタ,0
476,2122001039202,新規,0,2025-05-16,2025-05-16,ＨＩＫＡＲＩ株式会社,,株式会社,大阪府,東大阪市,加納３丁目２番１３号,,27,227,5780901,,,,,,,2025-05-16,1,,,,,ヒカリ,0
477,2122001039219,新規,0,2025-05-16,2025-05-16,ＳＨＯ‐ＴＥＣ株式会社,,株式会社,大阪府,東大阪市,長田１丁目３番４号,,27,227,5770015,,,,,,,2025-05-16,1,,,,,ショーテック,0
478,2130001079688,新規,0,2025-05-16,2025-05-16,株式会社Ａｖｉｘｅｎｔ,,株式会社,京都府,宇治市,神明石塚５４番地の１６０,,26,204,6110025,,,,,,,2025-05-16,1,,,,,アヴィセント,0
485,2140001138476,新規,0,2025-05-16,2025-05-16,株式会社Ｔｒｙ‐Ｒｔｅｃ,,株式会社,兵庫県,神戸市垂水区,千鳥が丘３丁目１７番２１号,,28,108,6550011,,,,,,,2025-05-16,1,,,,,トライアルテック,0
486,2140001138550,新規,0,2025-05-16,2025-05-16,株式会社ケーワイエヌ,,株式会社,兵庫県,尼崎市,武庫之荘本町３丁目２番２８号,,28,202,6610031,,,,,,,2025-05-16,1,,,,,ケーワイエヌ,0
487,2140001138591,新規,0,2025-05-16,2025-05-16,光技建工業株式会社,,株式会社,兵庫県,尼崎市,南武庫之荘３丁目１番７号４０１,,28,202,6610033,,,,,,,2025-05-16,1,,,,,ヒカリギケンコウギョウ,0
490,2140003022067,新規,0,2025-05-16,2025-05-16,合同会社アヴェンジャーズ,,合同会社,兵庫県,神戸市東灘区,魚崎南町３丁目８番２１－４０１号,,28,101,6580025,,,,,,,2025-05-16,1,,,,,アヴェンジャーズ,0
491,2140003022075,新規,0,2025-05-16,2025-05-16,禾松合同会社,,合同会社,兵庫県,川西市,寺畑２丁目４－１０－２１２,,28,217,6660034,,,,,,,2025-05-16,1,,,,,ノギマツ,0
492,2140005027510,新規,0,2025-05-16,2025-05-16,特定非営利活動法人神戸インターナショナルＰＢＬスクールラーニングハブ,,その他の設立登記法人,兵庫県,神戸市須磨区,千守町１丁目２－１学校法人マリスト国際学校内,,28,107,6540072,,,,,,,2025-05-16,1,,,,,,0
494,2170003002215,新規,0,2025-05-16,2025-05-16,ブンカム合同会社,,合同会社,和歌山県,伊都郡かつらぎ町,大字大谷字奥東原５１３番地１,,30,341,6497173,,,,,,,2025-05-16,1,,,,,ブンカム,0
501,2180001166829,新規,0,2025-05-16,2025-05-16,株式会社島田建創,,株式会社,愛知県,名古屋市緑区,瀬木南６３３番地,,23,114,4598017,,,,,,,2025-05-16,1,,,,,シマダケンソウ,0
504,2180301039809,新規,0,2025-05-16,2025-05-16,株式会社ＳＯＬＡＮＡ,,株式会社,愛知県,豊川市,御油町八面横２０番地,,23,207,4410211,,,,,,,2025-05-16,1,,,,,ソラーナ,0
509,2200003006823,新規,0,2025-05-16,2025-05-16,合同会社ｄｅｎ,,合同会社,岐阜県,中津川市,中一色町２番３８号,,21,206,5080003,,,,,,,2025-05-16,1,,,,,デン,0
518,2240001064951,新規,0,2025-05-16,2025-05-16,広島不動産株式会社,,株式会社,広島県,広島市東区,東蟹屋町７番３５号,,34,102,7320055,,,,,,,2025-05-16,1,,,,,ヒロシマフドウサン,0
521,2260001040199,新規,0,2025-05-16,2025-05-16,株式会社Ｆｕｕ,,株式会社,岡山県,倉敷市,茶屋町３５３番地５４,,33,202,7101101,,,,,,,2025-05-16,1,,,,,フゥ,0
525,2290001110008,新規,0,2025-05-16,2025-05-16,株式会社Ｌｕｍｉｎｏｕｓ,,株式会社,福岡県,福岡市早良区,飯倉２丁目１１番５号,,40,137,8140161,,,,,,,2025-05-16,1,,,,,ルミナス,0
531,2310001019592,新規,0,2025-05-16,2025-05-16,株式会社ＲＴＫ,,株式会社,長崎県,五島市,富江町富江２２６番地,,42,211,8530201,,,,,,,2025-05-16,1,,,,,アールティーケイ,0
533,2320001021093,新規,0,2025-05-16,2025-05-16,株式会社シュマン,,株式会社,大分県,中津市,大字上宮永９７３番地１２,,44,203,8710027,,,,,,,2025-05-16,1,,,,,シュマン,0
540,2340003004854,新規,0,2025-05-16,2025-05-16,ゆーるーむ合同会社,,合同会社,鹿児島県,鹿児島市,上福元町５６９３番地１,,46,201,8910116,,,,,,,2025-05-16,1,,,,,ユールーム,0
541,2360001035222,新規,0,2025-05-16,2025-05-16,Ｂｅ　Ｒｏｓｓｏ株式会社,,株式会社,沖縄県,宜野湾市,我如古１丁目２５番３６－３０６号,,47,205,9012214,,,,,,,2025-05-16,1,,,,,ビーロッソ,0
552,2380005012967,新規,0,2025-05-16,2025-05-16,特定非営利活動法人日本まほろば学院,,その他の設立登記法人,福島県,郡山市,湖南町三代字御代１３２１番地,,07,203,9631522,,,,,,,2025-05-16,1,,,,,ニホンマホロバガクイン,0
567,2430005015238,新規,0,2025-05-16,2025-05-16,一般社団法人山の手ラグビークラブ,,その他の設立登記法人,北海道,札幌市西区,山の手二条８丁目５番１２号,,01,107,0630002,,,,,,,2025-05-16,1,,,,,ヤマノテラグビークラブ,0
574,2700150130524,新規,0,2025-05-16,2025-05-16,ＡＵＴＯ　ＣＨＡＩＮ　ＩＮＴＥＲＮＡＴＩＯＮＡＬ,,外国会社等,千葉県,富里市,十倉９０４番地４３十倉オフィス２,,12,233,2860212,スリランカ民主社会主義共和国、バドゥッラ、プワクガダムッラ、マヒヤンガナロード、Ｎｏ．２３１／１,,,,,,2025-05-16,1,,,,,オートチエインインターナシヨナル,0
582,3010001254871,新規,0,2025-05-16,2025-05-16,株式会社シーズコンサルティング,,株式会社,東京都,中央区,築地２丁目２番８号,,13,102,1040045,,,,,,,2025-05-16,1,,,,,シーズコンサルティング,0
583,3010001255069,新規,0,2025-05-16,2025-05-16,トリニティソフト株式会社,,株式会社,東京都,中央区,銀座１丁目１２番４号Ｎ＆ＥＢＬＤ．７階,,13,102,1040061,,,,,,,2025-05-16,1,,,,,トリニティソフト,0
584,3010003047308,新規,0,2025-05-16,2025-05-16,合同会社ＣＧＰ,,合同会社,東京都,千代田区,神田和泉町１番地６－１６ヤマトビル４０５,,13,101,1010024,,,,,,,2025-05-16,1,,,,,シージーピー,0
597,3010403035110,新規,0,2025-05-16,2025-05-16,のぞみ中標津ソーラー合同会社,,合同会社,東京都,港区,芝５丁目２９番１９号ＰＭＯ田町ＩＶ８階,00139183,13,103,1080014,,,,,,,2025-05-16,1,,,,,ノゾミナカシベツソーラー,0
600,3010601067302,新規,0,2025-05-16,2025-05-16,ＨＡＲＵＮＡ株式会社,,株式会社,東京都,江東区,森下３丁目４番９号,,13,108,1350004,,,,,,,2025-05-16,1,,,,,ハルナ,0
602,3010701047674,新規,0,2025-05-16,2025-05-16,海洋システムグループ株式会社,,株式会社,東京都,品川区,東大井３丁目１番３号,,13,109,1400011,,,,,,,2025-05-16,1,,,,,カイヨウシステムグループ,0
615,3011001169011,新規,0,2025-05-16,2025-05-16,株式会社Ｌｅｆｔ　Ｓｅｎｓｅ,,株式会社,東京都,渋谷区,道玄坂１丁目１０番８号渋谷道玄坂東急ビル２Ｆ－Ｃ,,13,113,1500043,,,,,,,2025-05-16,1,,,,,レフトセンス,0
616,3011001169390,新規,0,2025-05-16,2025-05-16,ＧＭＯリサーチ＆ＡＩ分割準備株式会社,,株式会社,東京都,渋谷区,桜丘町２６番１号,,13,113,1500031,,,,,,,2025-05-16,1,,,,,ジーエムオーリサーチアンドエーアイブンカツジュンビ,0
617,3011001169432,新規,0,2025-05-16,2025-05-16,株式会社ＶＶＨＳ,,株式会社,東京都,渋谷区,松濤１丁目２９番５号松濤ＣＳコート３０５号室,,13,113,1500046,,,,,,,2025-05-16,1,,,,,ブイブイエイチエス,0
624,3011101111698,新規,0,2025-05-16,2025-05-16,株式会社ｉｎｋｆｒｅｅ,,株式会社,東京都,新宿区,西新宿６丁目１８番１号,,13,104,1600023,,,,,,,2025-05-16,1,,,,,インクフリー,0
625,3011101111731,新規,0,2025-05-16,2025-05-16,Ａｌｅｘ＆Ｈａｒｒｙ　ＪＡＰＡＮ株式会社,,株式会社,東京都,新宿区,西新宿５丁目８番２号,,13,104,1600023,,,,,,,2025-05-16,1,,,,,アレックスアンドハリージャパン,0
626,3011101111789,新規,0,2025-05-16,2025-05-16,株式会社Ａｌｐｈａ　Ｆａｖ,,株式会社,東京都,新宿区,西新宿３丁目３番１３号西新宿水間ビル２Ｆ,,13,104,1600023,,,,,,,2025-05-16,1,,,,,アルファファボ,0
628,3011103015880,新規,0,2025-05-16,2025-05-16,スモールサポート合同会社,,合同会社,東京都,新宿区,西新宿３丁目３番１３号西新宿水間ビル６Ｆ,,13,104,1600023,,,,,,,2025-05-16,1,,,,,スモールサポート,0
629,3011303005541,新規,0,2025-05-16,2025-05-16,合同会社ワンテック,,合同会社,東京都,杉並区,高円寺北３丁目８－１２,,13,115,1660002,,,,,,,2025-05-16,1,,,,,ワンテック,0
634,3011701028342,新規,0,2025-05-16,2025-05-16,株式会社シンエイ都市開発,,株式会社,東京都,江戸川区,篠崎町１丁目３７番２７号シャンテマール１０１,,13,123,1330061,,,,,,,2025-05-16,1,,,,,シンエイトシカイハツ,0
648,3020001162652,新規,0,2025-05-16,2025-05-16,株式会社エール設備,,株式会社,神奈川県,横浜市鶴見区,上末吉２丁目６番１号,,14,101,2300011,,,,,,,2025-05-16,1,,,,,エールセツビ,0
649,3020001162834,新規,0,2025-05-16,2025-05-16,株式会社ＯＯＡＫ,,株式会社,神奈川県,川崎市宮前区,鷺沼３丁目１３番地１４コンフォリア鷺沼三丁目２１０,,14,136,2160004,,,,,,,2025-05-16,1,,,,,オーク,0
650,3020001162859,新規,0,2025-05-16,2025-05-16,株式会社ＢＷＴ,,株式会社,神奈川県,横浜市西区,花咲町５丁目１３１番地５ストーク桜木町５０５号室,,14,103,2200022,,,,,,,2025-05-16,1,,,,,ビーダブリューティー,0
655,3020005016846,新規,0,2025-05-16,2025-05-16,一般社団法人Ｆｉｎｄ　Ｌｉｆｅ,,その他の設立登記法人,神奈川県,川崎市宮前区,馬絹１丁目１－４１アタユレジデンス,,14,136,2160035,,,,,,,2025-05-16,1,,,,,ファインドライフ,0
658,3021001085199,新規,0,2025-05-16,2025-05-16,ＸＴＲＥＭＥ株式会社,,株式会社,神奈川県,横須賀市,緑が丘３７番地１,,14,201,2380018,,,,,,,2025-05-16,1,,,,,エクストリーム,0
662,3021003015880,新規,0,2025-05-16,2025-05-16,合同会社Ｃｈｅｅｒ　ｙｏｕ　ｕｐ,,合同会社,神奈川県,愛甲郡愛川町,半原５８００番地,,14,401,2430307,,,,,,,2025-05-16,1,,,,,チアーユーアップ,0
663,3021003015939,新規,0,2025-05-16,2025-05-16,合同会社ＡＢＣ,,合同会社,神奈川県,鎌倉市,城廻７３７番地８,,14,204,2470074,,,,,,,2025-05-16,1,,,,,エイビイシイ,0
664,3021003016020,新規,0,2025-05-16,2025-05-16,ＢＹＢ合同会社,,合同会社,神奈川県,平塚市,四之宮３丁目１１－１４,,14,203,2540014,,,,,,,2025-05-16,1,,,,,ビーワイビー,0
674,3030001166512,新規,0,2025-05-16,2025-05-16,株式会社ＶＩＶＡＮＴ,,株式会社,埼玉県,上尾市,仲町１丁目８番３１号シンワエクセルビル４０１,,11,219,3620035,,,,,,,2025-05-16,1,,,,,ヴィヴァント,0
675,3030001166553,新規,0,2025-05-16,2025-05-16,株式会社ガジュマル不動産,,株式会社,埼玉県,川口市,上青木西５丁目２番２８号,,11,203,3330845,,,,,,,2025-05-16,1,,,,,ガジュマルフドウサン,0
678,3030003026771,新規,0,2025-05-16,2025-05-16,ＴＡＭ　ＮＨＵ合同会社,,合同会社,埼玉県,川口市,芝４丁目８－１０Ｋコーポ１０１,,11,203,3330866,,,,,,,2025-05-16,1,,,,,タムヌー,0
679,3030003026788,新規,0,2025-05-16,2025-05-16,合同会社いちもんなし,,合同会社,埼玉県,吉川市,大字保４９１－４,,11,243,3420041,,,,,,,2025-05-16,1,,,,,イチモンナシ,0
680,3030003026796,新規,0,2025-05-16,2025-05-16,合同会社９０１,,合同会社,埼玉県,三郷市,上彦名７１番地１,,11,237,3410004,,,,,,,2025-05-16,1,,,,,キューマルワン,0
687,3040001138766,新規,0,2025-05-16,2025-05-16,ＴＯＷＡ株式会社,,株式会社,千葉県,市川市,東菅野２丁目２２番１０号,,12,203,2720823,,,,,,,2025-05-16,1,,,,,トワ,0
690,3050001056686,新規,0,2025-05-16,2025-05-16,株式会社ＴＣＢパートナーズ,,株式会社,茨城県,守谷市,みずき野１丁目２５番地１,,08,224,3020121,,,,,,,2025-05-16,1,,,,,ティーシービーパートナーズ,0
694,3060001038196,新規,0,2025-05-16,2025-05-16,ダイシンビルド株式会社,,株式会社,栃木県,宇都宮市,下岡本町１９９５番地１１Ｙ＆ＭフレンドＩ－Ｂ,,09,201,3291104,,,,,,,2025-05-16,1,,,,,ダイシンビルド,0
695,3060001038205,新規,0,2025-05-16,2025-05-16,株式会社Ｓｏｒａｖｉｓ,,株式会社,栃木県,宇都宮市,本町５番５号ワイドビル４階４０２号室,,09,201,3200033,,,,,,,2025-05-16,1,,,,,ソラビス,0
701,3080001026942,新規,0,2025-05-16,2025-05-16,株式会社Ｋ・Ｋ電気,,株式会社,静岡県,静岡市清水区,下野町１３番１号,,22,103,4240011,,,,,,,2025-05-16,1,,,,,ケイケイデンキ,0
710,3090003002817,新規,0,2025-05-16,2025-05-16,合同会社ｆｌｏｗ,,合同会社,山梨県,北杜市,長坂町中丸字中原４６２４番地,,19,209,4080036,,,,,,,2025-05-16,1,,,,,フロウ,0
711,3090003002825,新規,0,2025-05-16,2025-05-16,合同会社アオブレイン,,合同会社,山梨県,北杜市,高根町村山北割１９８５番地,,19,209,4080002,,,,,,,2025-05-16,1,,,,,アオブレイン,0
737,3120001275691,新規,0,2025-05-16,2025-05-16,ＳＭＩＬＥ株式会社,,株式会社,大阪府,大阪市中央区,瓦町４丁目５番３号日宝西本町ビル４階２号室,,27,128,5410048,,,,,,,2025-05-16,1,,,,,スマイル,0
738,3120001275725,新規,0,2025-05-16,2025-05-16,金達株式会社,,株式会社,大阪府,大阪市住之江区,西加賀屋４丁目５番８－４０３室,,27,125,5590016,,,,,,,2025-05-16,1,,,,,キンタツ,0
739,3120001275758,新規,0,2025-05-16,2025-05-16,卓越株式会社,,株式会社,大阪府,大阪市城東区,関目５丁目１９番９号関目花博公館１０５Ａ,,27,118,5360008,,,,,,,2025-05-16,1,,,,,タクエツ,0
740,3120001275766,新規,0,2025-05-16,2025-05-16,皓穎株式会社,,株式会社,大阪府,大阪市都島区,中野町４丁目３番６号Ｈ２Ｈ大阪桜之宮邸３Ａ－３,,27,102,5340027,,,,,,,2025-05-16,1,,,,,コウエイ,0
741,3120001275774,新規,0,2025-05-16,2025-05-16,株式会社ＡＨＥＡＤ,,株式会社,大阪府,大阪市中央区,東心斎橋２丁目１番１０号,,27,128,5420083,,,,,,,2025-05-16,1,,,,,アヘッド,0
742,3120001275782,新規,0,2025-05-16,2025-05-16,一夫株式会社,,株式会社,大阪府,大阪市淀川区,加島４丁目２－２１－３０２号,,27,123,5320031,,,,,,,2025-05-16,1,,,,,イフ,0
743,3120001275931,新規,0,2025-05-16,2025-05-16,湘＿貿易株式会社,00139187,株式会社,大阪府,大阪市西区,江戸堀１丁目６番１７－６０１号,,27,106,5500002,,,,,,,2025-05-16,1,,,,,ショウイボウエキ,0
751,3120003029451,新規,0,2025-05-16,2025-05-16,ＳＵＮ合同会社,,合同会社,大阪府,大阪市西成区,橘１丁目１番１２号シティ橘２０１室,,27,122,5570051,,,,,,,2025-05-16,1,,,,,サン,0
774,3140001138582,新規,0,2025-05-16,2025-05-16,株式会社杉浦商事,,株式会社,兵庫県,加東市,南山４丁目４番地１８,,28,228,6731341,,,,,,,2025-05-16,1,,,,,スギウラショウジ,0
775,3140001138590,新規,0,2025-05-16,2025-05-16,株式会社セーフティマイナスワン,,株式会社,兵庫県,尼崎市,額田町８番３号,,28,202,6610962,,,,,,,2025-05-16,1,,,,,セーフティマイナスワン,0
776,3140003022058,新規,0,2025-05-16,2025-05-16,合同会社ＡＲＫ　Ｂｒｉｄｇｅ,,合同会社,兵庫県,洲本市,物部３丁目１０番８号,,28,205,6560051,,,,,,,2025-05-16,1,,,,,アークブリッジ,0
787,3180001166828,新規,0,2025-05-16,2025-05-16,株式会社ＦＲＥＥＭＡＮ,,株式会社,愛知県,名古屋市名東区,引山２丁目１００６番地,,23,115,4650002,,,,,,,2025-05-16,1,,,,,フリーマン,0
788,3180003028489,新規,0,2025-05-16,2025-05-16,合同会社ユニコーン,,合同会社,愛知県,名古屋市瑞穂区,岳見町４丁目７０番地,,23,108,4670043,,,,,,,2025-05-16,1,,,,,ユニコーン,0
789,3180003028497,新規,0,2025-05-16,2025-05-16,合同会社ＣＯＯ,,合同会社,愛知県,名古屋市熱田区,旗屋町４０１－１－１００３,,23,109,4560026,,,,,,,2025-05-16,1,,,,,クー,0
790,3180005021104,新規,0,2025-05-16,2025-05-16,一般社団法人ＪＳｉｓｍ,,その他の設立登記法人,愛知県,豊明市,三崎町ゆたか台２５－１,,23,229,4701127,,,,,,,2025-05-16,1,,,,,ジェイエスイズム,0
791,3180301039808,新規,0,2025-05-16,2025-05-16,株式会社Ｍｅｉｄｏｈ‐ＥＪＯＴ　Ｃｏｒｐｏｒａｔｉｏｎ,,株式会社,愛知県,豊田市,三軒町４丁目５番地,,23,211,4710037,,,,,,,2025-05-16,1,,,,,メイドーエジョットコーポレーション,0
794,3200001043792,新規,0,2025-05-16,2025-05-16,株式会社智翠,,株式会社,岐阜県,大垣市,築捨町１丁目２０３番地,,21,202,5030854,,,,,,,2025-05-16,1,,,,,チスイ,0
795,3200001043801,新規,0,2025-05-16,2025-05-16,株式会社石謙,,株式会社,岐阜県,本巣市,上真桑２１９６番地,,21,218,5010461,,,,,,,2025-05-16,1,,,,,イシケン,0
812,3260001040198,新規,0,2025-05-16,2025-05-16,株式会社ギーク,,株式会社,岡山県,浅口市,金光町須恵１２番地３,,33,216,7190112,,,,,,,2025-05-16,1,,,,,ギーク,0
816,3290001110023,新規,0,2025-05-16,2025-05-16,株式会社創拓リフォーム,,株式会社,福岡県,福岡市中央区,平和二丁目２８番１４号,,40,133,8100000,,,,,,,2025-05-16,1,,,,,ソウタクリフォーム,0
817,3290003016813,新規,0,2025-05-16,2025-05-16,合同会社Ｅｍａ,,合同会社,福岡県,福岡市博多区,博多駅前１丁目２３番２号ＰａｒｋＦｒｏｎｔ博多駅前一丁目５Ｆ‐Ｂ,,40,132,8120011,,,,,,,2025-05-16,1,,,,,エマ,0
835,3370001052562,新規,0,2025-05-16,2025-05-16,株式会社ＹＪＣ,,株式会社,宮城県,石巻市,駅前北通り２丁目８番１８－９号,,04,202,9860813,,,,,,,2025-05-16,1,,,,,ワイジェイシー,0
841,3380001035319,新規,0,2025-05-16,2025-05-16,株式会社ＬＡＢＮＩＣＡ,,株式会社,福島県,郡山市,大槻町字下中野１番地の４２,,07,203,9630201,,,,,,,2025-05-16,1,,,,,ラボニカ,0
845,3420001019143,新規,0,2025-05-16,2025-05-16,株式会社セカンド,,株式会社,青森県,八戸市,大字中居林字綿ノ端１３番地２,,02,203,0310002,,,,,,,2025-05-16,1,,,,,セカンド,0
852,3480001012836,新規,0,2025-05-16,2025-05-16,株式会社信志,,株式会社,徳島県,名西郡神山町,下分字鍋岩１９２番地,,36,342,7713421,,,,,,,2025-05-16,1,,,,,ノブシ,0
856,3700150130523,新規,0,2025-05-16,2025-05-16,ＫＡＷＡＳＨＩＭＡ　ＡＵＴＯ　ＴＲＡＤＩＮＧ,,外国会社等,千葉県,山武市,日向台１番地１０－Ａ,,12,237,2891206,スリランカ民主社会主義共和国、キャンディ、ゲロリア、カウガムワ、Ｎｏ．４７０／５／２,,,,,,2025-05-16,1,,,,,カワシマオートトレーデイング,0
857,3700150130531,新規,0,2025-05-16,2025-05-16,ＡＩＺＡ　ＭＯＴＯＲＳ　ＡＮＤ　ＥＮＴＥＲＰＲＩＳＥＳ　ＰＶＴ　ＬＴＤ,,外国会社等,千葉県,山武市,湯坂３５番地４５－１,,12,237,2891328,スリランカ民主社会主義共和国、キャンディ、クルガンマナ、ウェワリヤッダ、Ｎｏ．１３３／２,,,,,,2025-05-16,1,,,,,アイザモータースアンドエンタープライズプライベートリミテツド,0
864,4010001254854,新規,0,2025-05-16,2025-05-16,株式会社ポジティブ拍手,,株式会社,東京都,中央区,銀座４丁目１３番１１号松竹倶楽部ビル４階,,13,102,1040061,,,,,,,2025-05-16,1,,,,,ポジティブハクシュ,0
865,4010001254912,新規,0,2025-05-16,2025-05-16,Ｙｉｅｌｄ　Ｏａｋ株式会社,,株式会社,東京都,千代田区,丸の内１丁目８番３号丸の内トラストタワー本館２０階,,13,101,1000005,,,,,,,2025-05-16,1,,,,,イールドオーク,0
866,4010001255142,新規,0,2025-05-16,2025-05-16,圓堂株式会社,,株式会社,東京都,文京区,本駒込５丁目４５番９－１０１号プラティーク文京本駒込,,13,105,1130021,,,,,,,2025-05-16,1,,,,,マルドウ,0
870,4010003047298,新規,0,2025-05-16,2025-05-16,合同会社シルバーエイト,,合同会社,東京都,中央区,銀座２丁目１０番８号マニエラ銀座ビル４階,,13,102,1040061,,,,,,,2025-05-16,1,,,,,シルバーエイト,0
871,4010003047307,新規,0,2025-05-16,2025-05-16,合同会社イエコラボ,,合同会社,東京都,文京区,千石１丁目１番２号,,13,105,1120011,,,,,,,2025-05-16,1,,,,,イエコラボ,0
872,4010003047372,新規,0,2025-05-16,2025-05-16,ラタナ・インターナショナル合同会社,,合同会社,東京都,千代田区,神田和泉町１番地６－１６ヤマトビル４０５,,13,101,1010024,,,,,,,2025-05-16,1,,,,,ラタナインターナショナル,0
882,4010401190261,新規,0,2025-05-16,2025-05-16,株式会社Ｔｅａｍ　Ｔｈｕｎｄｅｒ,,株式会社,東京都,港区,三田５丁目７番８－９２６号,,13,103,1080073,,,,,,,2025-05-16,1,,,,,チームサンダー,0
883,4010401190303,新規,0,2025-05-16,2025-05-16,株式会社ＡＴＡＲＵＭ,,株式会社,東京都,港区,高輪４丁目７－１２－４０３,,13,103,1080074,,,,,,,2025-05-16,1,,,,,アタラム,0
886,4010403035027,新規,0,2025-05-16,2025-05-16,合同会社Ａｕｒｅａ　Ｐａｘ,,合同会社,東京都,港区,北青山１丁目３－３三橋ビル３階,,13,103,1070061,,,,,,,2025-05-16,1,,,,,アウレアパクス,0
887,4010403035092,新規,0,2025-05-16,2025-05-16,合同会社ユナイテッドフリート,,合同会社,東京都,港区,新橋２丁目１６番１号ニュー新橋ビル９階－９０３,,13,103,1050004,,,,,,,2025-05-16,1,,,,,ユナイテッドフリート,0
888,4010403035118,新規,0,2025-05-16,2025-05-16,合同会社水上,,合同会社,東京都,港区,虎ノ門２丁目６番１号虎ノ門ヒルズステーションタワー,,13,103,1050001,,,,,,,2025-05-16,1,,,,,ミナカミ,0
889,4010405024408,新規,0,2025-05-16,2025-05-16,一般社団法人確定拠出年金資産形成支援協会,,その他の設立登記法人,東京都,港区,赤坂２丁目１７番地４４,,13,103,1070052,,,,,,,2025-05-16,1,,,,,カクテイキョシュツネンキンシサンケイセイシエンキョウカイ,0
899,4010803005389,新規,0,2025-05-16,2025-05-16,千彩合同会社,,合同会社,東京都,大田区,西糀谷１丁目２２番１５号,,13,111,1440034,,,,,,,2025-05-16,1,,,,,センサイ,0
901,4010901007790,新規,0,2025-05-16,2025-05-16,株式会社デジタルシステムプランニング,,株式会社,東京都,世田谷区,北沢２丁目９番２０号,,13,112,1550031,,,,,,,2025-05-16,1,,,,,,0
911,4011001169472,新規,0,2025-05-16,2025-05-16,株式会社Ｑｗｅｒｔ,,株式会社,東京都,渋谷区,渋谷２丁目１９番１９号ワコー宮益坂ビル５階,,13,113,1500002,,,,,,,2025-05-16,1,,,,,クワート,0
912,4011001169489,新規,0,2025-05-16,2025-05-16,株式会社ＥＡＴＥＬ,,株式会社,東京都,渋谷区,桜丘町２９番２５号渋谷Ｄマンション２Ｗ,,13,113,1500031,,,,,,,2025-05-16,1,,,,,イーテル,0
916,4011003021540,新規,0,2025-05-16,2025-05-16,合同会社ＣＯＭＥ,,合同会社,東京都,渋谷区,代官山町３－８イオス代官山２Ｆ,,13,113,1500034,,,,,,,2025-05-16,1,,,,,カム,0
923,4011101111730,新規,0,2025-05-16,2025-05-16,ＦＰライフパートナー株式会社,,株式会社,東京都,新宿区,西新宿３丁目２番９号,,13,104,1600023,,,,,,,2025-05-16,1,,,,,エフピーライフパートナー,0
925,4011103015847,新規,0,2025-05-16,2025-05-16,合同会社トラストール,,合同会社,東京都,新宿区,西新宿３丁目３番１３号西新宿水間ビル２階,,13,104,1600023,,,,,,,2025-05-16,1,,,,,トラストール,0
926,4011103015855,新規,0,2025-05-16,2025-05-16,合同会社カワイイタッチ,,合同会社,東京都,新宿区,西新宿７丁目２番６号西新宿Ｋ－１ビル３階,,13,104,1600023,,,,,,,2025-05-16,1,,,,,カワイイタッチ,0
948,4011803006864,新規,0,2025-05-16,2025-05-16,合同会社千和,,合同会社,東京都,足立区,西竹の塚１丁目１３番９号市川ビル３０２,,13,121,1210822,,,,,,,2025-05-16,1,,,,,チワ,0
950,4012401043102,新規,0,2025-05-16,2025-05-16,ＯＦＡ株式会社,,株式会社,東京都,府中市,白糸台１丁目７１－１ハイツハセガワ２０４,,13,206,1830011,,,,,,,2025-05-16,1,,,,,オーエフエー,0
951,4012401043119,新規,0,2025-05-16,2025-05-16,株式会社Ｔｅａｍｉｎｇ　Ｅｎｇｉｎｅ,,株式会社,東京都,武蔵野市,吉祥寺本町２丁目８番４号ｉ－ｏｆｆｉｃｅ吉祥寺,,13,203,1800004,,,,,,,2025-05-16,1,,,,,チーミングエンジン,0
966,4020001162882,新規,0,2025-05-16,2025-05-16,ガイドブックス株式会社,,株式会社,神奈川県,横浜市中区,山手町５０番地４,,14,104,2310862,,,,,,,2025-05-16,1,,,,,ガイドブックス,0
971,4020003028495,新規,0,2025-05-16,2025-05-16,合同会社ＢＲ,,合同会社,神奈川県,川崎市川崎区,東田町３－３レア川崎弐番館１００１,,14,131,2100005,,,,,,,2025-05-16,1,,,,,ビーアール,0
974,4021001085207,新規,0,2025-05-16,2025-05-16,株式会社バンナークエスト,,株式会社,神奈川県,相模原市南区,西大沼５丁目１３－１５,,14,153,2520332,,,,,,,2025-05-16,1,,,,,バンナークエスト,0
977,4021003016003,新規,0,2025-05-16,2025-05-16,アルパカプランツ合同会社,,合同会社,神奈川県,藤沢市,辻堂東海岸４丁目１０番２３～３号,,14,205,2510045,,,,,,,2025-05-16,1,,,,,アルパカプランツ,0
983,4030001166494,新規,0,2025-05-16,2025-05-16,赤池技建株式会社,,株式会社,埼玉県,所沢市,大字久米４８７番地の１セントヒルズ３０２,,11,208,3591131,,,,,,,2025-05-16,1,,,,,アカイケギケン,0
984,4030001166528,新規,0,2025-05-16,2025-05-16,ＳＨＡＲＭＡ　Ｅｎｔｅｒｐｒｉｓｅｓ株式会社,,株式会社,埼玉県,桶川市,寿２丁目１６番１４号パレスヤナガワ２０２号,,11,231,3630016,,,,,,,2025-05-16,1,,,,,サルマエンタープライズ,0
988,4030003026779,新規,0,2025-05-16,2025-05-16,合同会社トミーエステート,,合同会社,埼玉県,川口市,西青木５丁目１番２４号,,11,203,3320035,,,,,,,2025-05-16,1,,,,,トミーエステート,0
989,4030003026787,新規,0,2025-05-16,2025-05-16,市川リサイクル合同会社,,合同会社,埼玉県,八潮市,大字鶴ケ曽根１６６７番地５,,11,234,3400802,,,,,,,2025-05-16,1,,,,,イチカワリサイクル,0
990,4030003026795,新規,0,2025-05-16,2025-05-16,合同会社廣實総業,,合同会社,埼玉県,ふじみ野市,亀久保４丁目１２番６５号,,11,245,3560051,,,,,,,2025-05-16,1,,,,,ヒロザネソウギョウ,0
995,4040001138807,新規,0,2025-05-16,2025-05-16,ＧＲＥＥＮＳＴＯＮＥ株式会社,,株式会社,千葉県,柏市,若柴１７８番地４柏の葉キャンパス１４８街区１－Ｅ－３４０２,,12,217,2770871,,,,,,,2025-05-16,1,,,,,グリーンストーン,0
1004,4050001056685,新規,0,2025-05-16,2025-05-16,株式会社エイチ・ラボ,,株式会社,茨城県,土浦市,天川１丁目３番８号,,08,203,3000818,,,,,,,2025-05-16,1,,,,,エイチラボ,0
1005,4050001056693,新規,0,2025-05-16,2025-05-16,株式会社アイナオ,,株式会社,茨城県,水戸市,姫子２丁目７３６番地の６,,08,201,3114151,,,,,,,2025-05-16,1,,,,,アイナオ,0
1011,4060001038195,新規,0,2025-05-16,2025-05-16,大進ＨＤ株式会社,,株式会社,栃木県,矢板市,針生３９番地１３,,09,211,3292122,,,,,,,2025-05-16,1,,,,,ダイシンエイチディー,0
1014,4060003005549,新規,0,2025-05-16,2025-05-16,合同会社ＮＯＲＩＮＯＲＩもんじゃ焼き,,合同会社,栃木県,宇都宮市,緑２丁目２番３号,,09,201,3210165,,,,,,,2025-05-16,1,,,,,ノリノリモンジャヤキ,0
1017,4080001026941,新規,0,2025-05-16,2025-05-16,株式会社モノジトラ,,株式会社,静岡県,藤枝市,高洲２２番地の６,,22,214,4260046,,,,,,,2025-05-16,1,,,,,モノジトラ,0
1021,4080101025505,新規,0,2025-05-16,2025-05-16,株式会社ＢｅａｕｔｙＢａｓｅ２４,,株式会社,静岡県,三島市,梅名１５７番地サンフラワーＡ,,22,206,4110816,,,,,,,2025-05-16,1,,,,,ビューティーベースニジューヨン,0
1026,4080403005262,新規,0,2025-05-16,2025-05-16,合同会社ブレイン・アド,,合同会社,静岡県,浜松市中央区,東若林町６２２番５,,22,138,4328052,,,,,,,2025-05-16,1,,,,,ブレインアド,0
1030,4100001038604,新規,0,2025-05-16,2025-05-16,株式会社ユーズフル,,株式会社,長野県,松本市,寿北７丁目２０番１６号,,20,202,3990011,,,,,,,2025-05-16,1,,,,,ユーズフル,0
1045,4120001275641,新規,0,2025-05-16,2025-05-16,ＴｅｃｈＢｕｌｌ株式会社,,株式会社,大阪府,大阪市淀川区,加島４丁目１２－３５,,27,123,5320031,,,,,,,2025-05-16,1,,,,,テックブル,0
1046,4120001275674,新規,0,2025-05-16,2025-05-16,ＣＹＢＥＲＴＡＮ　ＨＯＬＤＩＮＧ株式会社,,株式会社,大阪府,大阪市中央区,内本町２丁目３－１１内本町グリーンビル７Ｆ,,27,128,5400026,,,,,,,2025-05-16,1,,,,,サイバータンホールディング,0
1047,4120001275724,新規,0,2025-05-16,2025-05-16,改善株式会社,,株式会社,大阪府,大阪市生野区,小路１丁目１６番７号,,27,116,5440002,,,,,,,2025-05-16,1,,,,,カイゼン,0
1048,4120001275765,新規,0,2025-05-16,2025-05-16,永芝株式会社,,株式会社,大阪府,大阪市大正区,三軒家西３丁目４番１６号中山ビル１０１Ａ,,27,108,5510001,,,,,,,2025-05-16,1,,,,,エイシ,0
1049,4120001275773,新規,0,2025-05-16,2025-05-16,ＳＮＫＲ　ＨＵＢ株式会社,,株式会社,大阪府,大阪市西区,新町１丁目２４－１１新町Ｆ１ビル５０２,,27,106,5500013,,,,,,,2025-05-16,1,,,,,スニーカーハブ,0
1050,4120001275781,新規,0,2025-05-16,2025-05-16,三＿貿易株式会社,00139195,株式会社,大阪府,大阪市阿倍野区,長池町１１番１４号,,27,119,5450013,,,,,,,2025-05-16,1,,,,,サンカンボウエキ,0
1052,4120003029401,新規,0,2025-05-16,2025-05-16,ｈａｓｍｙｓ合同会社,,合同会社,大阪府,大阪市中央区,安土町２丁目４番１１－３５１０号,,27,128,5410052,,,,,,,2025-05-16,1,,,,,ハズマイス,0
1053,4120003029426,新規,0,2025-05-16,2025-05-16,Ｒｅｗｉｎｄ　Ｒｅｐｌａｙ　Ｌａｂ合同会社,,合同会社,大阪府,大阪市福島区,福島５丁目６－１６ラグザ大阪２Ｆ,,27,103,5530003,,,,,,,2025-05-16,1,,,,,リワードリプレイラボ,0
1054,4120003029442,新規,0,2025-05-16,2025-05-16,合同会社ｍｅｉ,,合同会社,大阪府,大阪市中央区,瓦屋町３丁目８番１１－７０１号,,27,128,5420066,,,,,,,2025-05-16,1,,,,,メイ,0
1057,4120101071668,新規,0,2025-05-16,2025-05-16,株式会社金星銘,,株式会社,大阪府,堺市堺区,住吉橋町１丁１番１２号２０４－Ｊ,,27,141,5900973,,,,,,,2025-05-16,1,,,,,キンセイメイ,0
1061,4122001039233,新規,0,2025-05-16,2025-05-16,株式会社ＨＡＹＡＮＯ,,株式会社,大阪府,東大阪市,西堤本通東１丁目１－１東大阪大発ビル,,27,227,5770045,,,,,,,2025-05-16,1,,,,,ハヤノ,0
1067,4130003010434,新規,0,2025-05-16,2025-05-16,合同会社パワーネクト,,合同会社,京都府,福知山市,字堀２５９３番地サンライズビル２階,,26,201,6200000,,,,,,,2025-05-16,1,,,,,パワーネクト,0
1079,4140001138549,新規,0,2025-05-16,2025-05-16,株式会社ザイラク,,株式会社,兵庫県,神戸市中央区,国香通４丁目２番４号１階,,28,110,6510066,,,,,,,2025-05-16,1,,,,,ザイラク,0
1080,4140001138581,新規,0,2025-05-16,2025-05-16,株式会社Ｌｉｆａｃｔ,,株式会社,兵庫県,神戸市東灘区,青木３丁目１番２４号,,28,101,6580027,,,,,,,2025-05-16,1,,,,,リファクト,0
1099,4180001166802,新規,0,2025-05-16,2025-05-16,株式会社神戸通信,,株式会社,愛知県,春日井市,六軒屋町３丁目３番地１４,,23,206,4860842,,,,,,,2025-05-16,1,,,,,コウベツウシン,0
1100,4180001166843,新規,0,2025-05-16,2025-05-16,株式会社ＮＣリンク,,株式会社,愛知県,知多市,南粕谷１丁目２０番地の１４チッタ南粕谷３,,23,224,4780024,,,,,,,2025-05-16,1,,,,,エヌシーリンク,0
1111,4200003006821,新規,0,2025-05-16,2025-05-16,ＭＡＫ　ＪＡＰＡＮ　ＭＯＴＯＲＳ合同会社,,合同会社,岐阜県,岐阜市,千石町２丁目２１番地４木村ビル３階Ｂ－１,,21,201,5008819,,,,,,,2025-05-16,1,,,,,マークジャパンモーターズ,0
1115,4220001026687,新規,0,2025-05-16,2025-05-16,株式会社北陸あんしん住宅サービス,,株式会社,石川県,金沢市,米泉町６丁目４５番地１（ラ・ルーチェ・１０３号）,,17,201,9218044,,,,,,,2025-05-16,1,,,,,ホクリクアンシンジュウタクサービス,0
1128,4290001110006,新規,0,2025-05-16,2025-05-16,株式会社Ｔｈｒｅｅ　Ｂｅａｎｓ,,株式会社,福岡県,福岡市城南区,鳥飼６丁目１６番１３－４０６号ブライト・サンリヤン鳥飼六丁目Ｉ,00139197,40,136,8140103,,,,,,,2025-05-16,1,,,,,スリービーンズ,0
1129,4290001110022,新規,0,2025-05-16,2025-05-16,冬萌株式会社,,株式会社,福岡県,福岡市博多区,博多駅前３丁目２７－２５第二岡部ビル部屋番号９４３,,40,132,8120011,,,,,,,2025-05-16,1,,,,,フユモエ,0
1130,4290001110030,新規,0,2025-05-16,2025-05-16,高宮高等学院株式会社,,株式会社,福岡県,福岡市南区,野間１丁目１１番２５号新松嵜ビル２階,,40,134,8150041,,,,,,,2025-05-16,1,,,,,タカミヤコウトウガクイン,0
1133,4290003016837,新規,0,2025-05-16,2025-05-16,合同会社Ｌｉｎｏａｒｃ,,合同会社,福岡県,筑紫野市,大字原１６６番地７６,,40,217,8180005,,,,,,,2025-05-16,1,,,,,リノアーク,0
1137,4310001019608,新規,0,2025-05-16,2025-05-16,ニューリーブス株式会社,,株式会社,長崎県,壱岐市,勝本町立石仲触３７３番地,,42,210,8115554,,,,,,,2025-05-16,1,,,,,ニューリーブス,0
1145,4360003014916,新規,0,2025-05-16,2025-05-16,合同会社スパーク,,合同会社,沖縄県,宜野湾市,野嵩２丁目２３－１６－１号,,47,205,9012203,,,,,,,2025-05-16,1,,,,,スパーク,0
1151,4380001035318,新規,0,2025-05-16,2025-05-16,こまち不動産株式会社,,株式会社,福島県,いわき市,郷ケ丘２丁目１０番地の３,,07,204,9708045,,,,,,,2025-05-16,1,,,,,コマチフドウサン,0
1161,4430003017663,新規,0,2025-05-16,2025-05-16,合同会社ナレッジラボ,,合同会社,北海道,札幌市西区,山の手三条１丁目２番３０－７０４号,,01,107,0630003,,,,,,,2025-05-16,1,,,,,ナレッジラボ,0
1162,4430003017671,新規,0,2025-05-16,2025-05-16,合同会社なんば不動産,,合同会社,北海道,札幌市東区,北三十五条東８丁目２番２３‐１１０号,,01,103,0070835,,,,,,,2025-05-16,1,,,,,ナンバフドウサン,0
1168,4480003002264,新規,0,2025-05-16,2025-05-16,合同会社ペットステーションジュエル,,合同会社,徳島県,徳島市,八万町弐丈４９番地１５,,36,201,7708081,,,,,,,2025-05-16,1,,,,,ペットステーションジュエル,0
1171,4700150130522,新規,0,2025-05-16,2025-05-16,ＢＬＡＺＥ　ＡＵＴＯ　ＴＲＡＤＩＮＧ,,外国会社等,千葉県,八街市,文違３０１番地２１１３－２,,12,230,2891104,スリランカ民主社会主義共和国、アンバランゴダ、ニンダナ、ワトゥラビラ、Ｎｏ．８４２,,,,,,2025-05-16,1,,,,,ブレイズオートトレーデイング,0
1180,5010001254903,新規,0,2025-05-16,2025-05-16,株式会社平安リアルエステート,,株式会社,東京都,文京区,音羽１丁目１７－１１,,13,105,1120013,,,,,,,2025-05-16,1,,,,,ヘイアンリアルエステート,0
1181,5010001254911,新規,0,2025-05-16,2025-05-16,都民住宅相談センター株式会社,,株式会社,東京都,千代田区,二番町９番３号ＴＨＥＢＡＳＥ麹町Ｅ－２０９,00139184,13,101,1020084,,,,,,,2025-05-16,1,,,,,トミンジュウタクソウダンセンター,0
1182,5010001254952,新規,0,2025-05-16,2025-05-16,ＷＡＢＩＳＡＢＩ　ＦＯＯＤ　ＩＮＴＥＲＮＡＴＩＯＮＡＬ株式会社,,株式会社,東京都,中央区,八丁堀１丁目８番６号カサイビル３階,,13,102,1040032,,,,,,,2025-05-16,1,,,,,ワビサビフードインターナショナル,0
1183,5010001255075,新規,0,2025-05-16,2025-05-16,株式会社Ｇａｍｅ　Ｃｈａｎｇｅｒ,,株式会社,東京都,中央区,銀座１丁目１２番４号Ｎ＆ＥＢＬＤ．６Ｆ,,13,102,1040061,,,,,,,2025-05-16,1,,,,,ゲームチェンジャー,0
1184,5010003047297,新規,0,2025-05-16,2025-05-16,合同会社シルバーエイトマスターリース,,合同会社,東京都,中央区,銀座２丁目１０番８号マニエラ銀座ビル４階,,13,102,1040061,,,,,,,2025-05-16,1,,,,,シルバーエイトマスターリース,0
1187,5010005040052,新規,0,2025-05-16,2025-05-16,Ｂｒｕｎｏ特定目的会社,,その他の設立登記法人,東京都,千代田区,霞が関３丁目２番５号,,13,101,1000013,,,,,,,2025-05-16,1,,,,,ブルーノ,0
1190,5010105002340,新規,0,2025-05-16,2025-05-16,一般社団法人ＣＪＣサポート,,その他の設立登記法人,東京都,八王子市,東中野５５５番地の１アルビオン３階,,13,201,1920351,,,,,,,2025-05-16,1,,,,,シージェイシーサポート,0
1197,5010401190252,新規,0,2025-05-16,2025-05-16,夜鹿株式会社,,株式会社,東京都,港区,芝２丁目２８番１１号芝ＭＫビル５１１号室,,13,103,1050014,,,,,,,2025-05-16,1,,,,,ヨルシカ,0
1198,5010401190293,新規,0,2025-05-16,2025-05-16,ＪＡ２５ａｎｄＰａｒｔｎｅｒｓ株式会社,,株式会社,東京都,港区,北青山１丁目３番１号アールキューブ青山３階,,13,103,1070061,,,,,,,2025-05-16,1,,,,,ジェーエーニジュウゴアンドパートナーズ,0
1199,5010401190319,新規,0,2025-05-16,2025-05-16,Ｚｅｅｃｏ　Ｊａｐａｎ株式会社,,株式会社,東京都,港区,赤坂１丁目１１番４４号赤坂インターシティ５階Ｆｏｒｖｉｓ・Ｍａｚａｒｓ・Ｊａｐａｎ株式会社内,,13,103,1070052,,,,,,,2025-05-16,1,,,,,ジーコジャパン,0
1200,5010403035100,新規,0,2025-05-16,2025-05-16,合同会社Ｐｒｏｊｅｃｔｕｍｉ,,合同会社,東京都,港区,浜松町２丁目２番１５号浜松町ダイヤビル２Ｆ,,13,103,1050013,,,,,,,2025-05-16,1,,,,,プロジェクトゥミ,0
1213,5011001169629,新規,0,2025-05-16,2025-05-16,株式会社エフプロテイン,,株式会社,東京都,目黒区,自由が丘１丁目８番１９号メルサＩＩ４階,00139192,13,110,1520035,,,,,,,2025-05-16,1,,,,,エフプロテイン,0
1216,5011101111696,新規,0,2025-05-16,2025-05-16,ＡＧＵＡＳ　Ｂｕｓｉｎｅｓｓ　Ｄｅｓｉｇｎ株式会社,,株式会社,東京都,新宿区,新宿６丁目２９番１１号新宿イーストクロスタワー１０Ｆ,,13,104,1600022,,,,,,,2025-05-16,1,,,,,アグアスビジネスデザイン,0
1219,5011201026349,新規,0,2025-05-16,2025-05-16,Ａ‐Ｗｏｒｋｓ株式会社,,株式会社,東京都,中野区,南台２丁目３１番１号,,13,114,1640014,,,,,,,2025-05-16,1,,,,,エーワークス,0
1220,5011303005556,新規,0,2025-05-16,2025-05-16,合同会社パラウッカ,,合同会社,東京都,杉並区,永福２丁目４番１２号Ｓコーポ２０３号室,,13,115,1680064,,,,,,,2025-05-16,1,,,,,パラウッカ,0
1224,5011501032063,新規,0,2025-05-16,2025-05-16,木良川株式会社,,株式会社,東京都,北区,中里１丁目２１番２号中里ビル１Ｆ,,13,117,1140015,,,,,,,2025-05-16,1,,,,,キラガワ,0
1225,5011503006536,新規,0,2025-05-16,2025-05-16,合同会社Ｄｅｅｐ　Ｆｏｒｇｉａ,,合同会社,東京都,荒川区,東尾久２丁目４７－１３,,13,118,1160012,,,,,,,2025-05-16,1,,,,,ディープフォージア,0
1226,5011603004712,新規,0,2025-05-16,2025-05-16,合同会社Ｍ,,合同会社,東京都,練馬区,豊玉北５丁目１５番１０号大東ビル２階,,13,120,1760012,,,,,,,2025-05-16,1,,,,,エム,0
1232,5012401043101,新規,0,2025-05-16,2025-05-16,株式会社Ｍｕｒａｂａ,,株式会社,東京都,調布市,入間町２丁目２８番地１６グランドメゾン仙川８０３,,13,208,1820004,,,,,,,2025-05-16,1,,,,,ムラバ,0
1236,5012803003735,新規,0,2025-05-16,2025-05-16,合同会社ＩＮ　ＢＲＩＤＧＥ,,合同会社,東京都,東大和市,狭山１丁目８４９番地の１８,,13,220,2070003,,,,,,,2025-05-16,1,,,,,インブリッジ,0
1239,5020001162782,新規,0,2025-05-16,2025-05-16,サウザンド・ドリーム株式会社,,株式会社,神奈川県,川崎市幸区,小倉１丁目２番３０号,,14,132,2120054,,,,,,,2025-05-16,1,,,,,サウザンドドリーム,0
1240,5020001162824,新規,0,2025-05-16,2025-05-16,株式会社Ｇ２Ｎ,,株式会社,神奈川県,川崎市麻生区,高石３丁目２２番１０－２号,,14,137,2150003,,,,,,,2025-05-16,1,,,,,ジーツーエヌ,0
1241,5020001162873,新規,0,2025-05-16,2025-05-16,株式会社オプティハウス,,株式会社,神奈川県,横浜市鶴見区,鶴見中央５丁目１３番１―１００２号,,14,101,2300051,,,,,,,2025-05-16,1,,,,,オプティハウス,0
1242,5020003028511,新規,0,2025-05-16,2025-05-16,心の美合同会社,,合同会社,神奈川県,川崎市川崎区,大島上町１５番４号Ｌｉｚ大島上町３－Ａ号室,,14,131,2100836,,,,,,,2025-05-16,1,,,,,ココロノビ,0
1248,5021001085172,新規,0,2025-05-16,2025-05-16,フィールドカンパニー株式会社,,株式会社,神奈川県,海老名市,浜田町２３－２４パストラル山口４０１,,14,215,2430412,,,,,,,2025-05-16,1,,,,,フィールドカンパニー,0
1254,5021003016002,新規,0,2025-05-16,2025-05-16,合同会社ＶＲＡＭ,,合同会社,神奈川県,愛甲郡愛川町,中津１１２５番地の９,,14,401,2430303,,,,,,,2025-05-16,1,,,,,ヴラム,0
1255,5021003016010,新規,0,2025-05-16,2025-05-16,Ｍ．Ａ．Ｔｒａｄｉｎｇ合同会社,,合同会社,神奈川県,厚木市,戸田２３２３番地１サンビレッジ・セイタ２０５号室,,14,212,2430023,,,,,,,2025-05-16,1,,,,,エムエイトレーディング,0
1256,5021003016019,新規,0,2025-05-16,2025-05-16,合同会社Ｌｅａｆ,,合同会社,神奈川県,藤沢市,辻堂西海岸１丁目１番１３～３０９号,,14,205,2510046,,,,,,,2025-05-16,1,,,,,リーフ,0
1257,5021005013344,新規,0,2025-05-16,2025-05-16,特定非営利活動法人Ａｓａｎｔｅ　Ｓｕｓｔａｉｎａｂｌｅ　Ｃｌｕｂ,,その他の設立登記法人,神奈川県,藤沢市,鵠沼海岸５丁目１１番４号,,14,205,2510037,,,,,,,2025-05-16,1,,,,,アサンテサステイナブルクラブ,0
1265,5030001166510,新規,0,2025-05-16,2025-05-16,株式会社ＰＲＯＳＰＥＲ,,株式会社,埼玉県,熊谷市,江南中央２丁目９番地３０,,11,202,3600114,,,,,,,2025-05-16,1,,,,,プロスパー,0
1266,5030001166519,新規,0,2025-05-16,2025-05-16,株式会社キュービング,,株式会社,埼玉県,川口市,金山町９番４号－３０２,,11,203,3320014,,,,,,,2025-05-16,1,,,,,キュービング,0
1267,5030001166527,新規,0,2025-05-16,2025-05-16,株式会社ブレイズワン,,株式会社,埼玉県,行田市,清水町１番地１シンセイハイツ２階,,11,206,3610047,,,,,,,2025-05-16,1,,,,,ブレイズワン,0
1268,5030001166535,新規,0,2025-05-16,2025-05-16,株式会社コンリュウ,,株式会社,埼玉県,さいたま市大宮区,仲町１丁目７７番地１南銀センタービル５階－Ｂ号室,,11,103,3300845,,,,,,,2025-05-16,1,,,,,コンリュウ,0
1269,5030001166543,新規,0,2025-05-16,2025-05-16,株式会社ａｎｓ．,,株式会社,埼玉県,坂戸市,大字中里８４番地１,,11,239,3500252,,,,,,,2025-05-16,1,,,,,アンサー,0
1270,5030005022156,新規,0,2025-05-16,2025-05-16,一般社団法人日本インクルーシブ教育学会,,その他の設立登記法人,埼玉県,草加市,谷塚２丁目１８番２５号,,11,221,3400028,,,,,,,2025-05-16,1,,,,,ニホンインクルーシブキョウイクガッカイ,0
1274,5040001138599,新規,0,2025-05-16,2025-05-16,株式会社ユキ,,株式会社,千葉県,匝瑳市,野手１２６２８,,12,235,2893181,,,,,,,2025-05-16,1,,,,,ユキ,0
1275,5040001138616,新規,0,2025-05-16,2025-05-16,株式会社ＯＭＧデザイン,,株式会社,千葉県,船橋市,前貝塚町５３５番１０号ハイムルーエ１０１,,12,204,2730042,,,,,,,2025-05-16,1,,,,,オーエムジーデザイン,0
1276,5040001138772,新規,0,2025-05-16,2025-05-16,株式会社アドミニィ・デザイン,,株式会社,千葉県,松戸市,五香３丁目１５番地の７,,12,207,2702213,,,,,,,2025-05-16,1,,,,,アドミニィデザイン,0
1277,5040001138814,新規,0,2025-05-16,2025-05-16,株式会社フロアクリエイト,,株式会社,千葉県,鎌ケ谷市,西道野辺１３番３７－２０１号,,12,224,2730117,,,,,,,2025-05-16,1,,,,,フロアクリエイト,0
1282,5040003027593,新規,0,2025-05-16,2025-05-16,キースト合同会社,,合同会社,千葉県,習志野市,東習志野８丁目１９番１１号ウイングハイム２０１号,,12,216,2750001,,,,,,,2025-05-16,1,,,,,キースト,0
1283,5050001056684,新規,0,2025-05-16,2025-05-16,株式会社ＣＯＬＯＲＥＲ,,株式会社,茨城県,神栖市,奥野谷１８００番地２,,08,232,3140116,,,,,,,2025-05-16,1,,,,,クロレ,0
1284,5050001056692,新規,0,2025-05-16,2025-05-16,株式会社三良,,株式会社,茨城県,つくば市,高見原１丁目４－１６２,,08,220,3001252,,,,,,,2025-05-16,1,,,,,ミヨシ,0
1287,5050003009260,新規,0,2025-05-16,2025-05-16,合同会社リスタ,,合同会社,茨城県,つくばみらい市,谷井田１２１３番地６,,08,235,3002337,,,,,,,2025-05-16,1,,,,,リスタ,0
1330,5120001275509,新規,0,2025-05-16,2025-05-16,株式会社大福,,株式会社,大阪府,大阪市西成区,橘３丁目３番１０号１０３室,,27,122,5570051,,,,,,,2025-05-16,1,,,,,ダイフク,0
1331,5120001275599,新規,0,2025-05-16,2025-05-16,佳禾株式会社,,株式会社,大阪府,大阪市西成区,岸里東１丁目２２－１－３０１号,,27,122,5570042,,,,,,,2025-05-16,1,,,,,カカ,0
1332,5120001275715,新規,0,2025-05-16,2025-05-16,Ｔｈａｎｋｓ　ａ　ｌｏｔ株式会社,,株式会社,大阪府,大阪市北区,梅田１丁目２番２号大阪駅前第２ビル１２－１２,,27,127,5300001,,,,,,,2025-05-16,1,,,,,サンクスアロット,0
1333,5120001275748,新規,0,2025-05-16,2025-05-16,曽根崎建物株式会社,,株式会社,大阪府,大阪市北区,曾根崎２丁目１０番３１号,,27,127,5300057,,,,,,,2025-05-16,1,,,,,ソネザキタテモノ,0
1334,5120001275756,新規,0,2025-05-16,2025-05-16,ＮＡＮＪＩ　ＪＡＰＡＮ株式会社,,株式会社,大阪府,大阪市阿倍野区,阿倍野筋３丁目６番８－７０２号,,27,119,5450052,,,,,,,2025-05-16,1,,,,,ナンキョクジャパン,0
1335,5120001275772,新規,0,2025-05-16,2025-05-16,株式会社千松アセット,,株式会社,大阪府,大阪市西区,千代崎１丁目７－６－１Ｆ,,27,106,5500023,,,,,,,2025-05-16,1,,,,,センショウアセット,0
1336,5120001275780,新規,0,2025-05-16,2025-05-16,岐熙株式会社,,株式会社,大阪府,大阪市生野区,小路東１丁目６番２１号,,27,116,5440003,,,,,,,2025-05-16,1,,,,,ギキ,0
1337,5120001275806,新規,0,2025-05-16,2025-05-16,株式会社アールタイムズ,,株式会社,大阪府,大阪市住吉区,万代東４丁目２番２１－１１０２号,,27,120,5580056,,,,,,,2025-05-16,1,,,,,アールタイムズ,0
1338,5120001275830,新規,0,2025-05-16,2025-05-16,西教信通株式会社,,株式会社,大阪府,大阪市中央区,松屋町９番２０号ローレルステート松屋町４０２Ａ,,27,128,5420067,,,,,,,2025-05-16,1,,,,,セイキョウシンツウ,0
1339,5120001275839,新規,0,2025-05-16,2025-05-16,独角戯株式会社,,株式会社,大阪府,大阪市東住吉区,住道矢田７丁目９番１１号１０１号室,,27,121,5460022,,,,,,,2025-05-16,1,,,,,ドクガクゲキ,0
1345,5120005024936,新規,0,2025-05-16,2025-05-16,一般社団法人サイバーセキュリティ協会,,その他の設立登記法人,大阪府,大阪市北区,浪花町６番３号,,27,127,5300022,,,,,,,2025-05-16,1,,,,,サイバーセキュリティキョウカイ,0
1347,5122001039224,新規,0,2025-05-16,2025-05-16,恵美寿鋳工株式会社,,株式会社,大阪府,東大阪市,高井田中５丁目５番７号,,27,227,5770065,,,,,,,2025-05-16,1,,,,,エビスチュウコウ,0
1360,5140003022072,新規,0,2025-05-16,2025-05-16,合同会社Ｆｌｅｕｊｏｕｘ,,合同会社,兵庫県,神戸市中央区,山本通２丁目９－１９旧スタデニック邸,,28,110,6500003,,,,,,,2025-05-16,1,,,,,フルージュ,0
1362,5140005027516,新規,0,2025-05-16,2025-05-16,一般社団法人グローバル学び舎３Ｌ‐ミエル,,その他の設立登記法人,兵庫県,神戸市東灘区,住吉東町４丁目５－１６,,28,101,6580052,,,,,,,2025-05-16,1,,,,,グローバルマナビヤミエル,0
1379,5180001166859,新規,0,2025-05-16,2025-05-16,株式会社大滝製作所,,株式会社,愛知県,名古屋市天白区,野並４丁目２３７番地,,23,116,4680045,,,,,,,2025-05-16,1,,,,,オオタキセイサクショ,0
1383,5180003028487,新規,0,2025-05-16,2025-05-16,合同会社ＩＷＡＭＯＴＯ,,合同会社,愛知県,名古屋市千種区,東山元町２丁目６５番地の２（Ｒｅｓｉｄｅｎｃｅｄ’東山１０５号）,,23,101,4640804,,,,,,,2025-05-16,1,,,,,イワモト,0
1384,5180005021102,新規,0,2025-05-16,2025-05-16,一般社団法人ｏｔｏｍｏ,,その他の設立登記法人,愛知県,春日井市,高座台５丁目２番地１サンハイツたかくらＤ号棟３０５号室,,23,206,4870017,,,,,,,2025-05-16,1,,,,,オトモ,0
1385,5180301039814,新規,0,2025-05-16,2025-05-16,ほしの杜株式会社,,株式会社,愛知県,西尾市,須脇町下池田３－６,,23,213,4450046,,,,,,,2025-05-16,1,,,,,ホシノモリ,0
1398,5200003006829,新規,0,2025-05-16,2025-05-16,合同会社ＡＳａｓｓｅｓｓｏｒｉａ,,合同会社,岐阜県,可児市,川合７８２番地２,,21,214,5090201,,,,,,,2025-05-16,1,,,,,エイエスアセソリア,0
1399,5220001026686,新規,0,2025-05-16,2025-05-16,株式会社美川丸,,株式会社,石川県,白山市,美川末広町ソ５２８番地,,17,210,9290232,,,,,,,2025-05-16,1,,,,,ミカワマル,0
1418,5290001109947,新規,0,2025-05-16,2025-05-16,ＴｒｉｌｌｉｏｎＶｉｓｉｏｎ株式会社,,株式会社,福岡県,福岡市中央区,舞鶴３丁目８－１０ライオンズマンション舞鶴第２・５０４号,,40,133,8100073,,,,,,,2025-05-16,1,,,,,トリリオンビジョン,0
1419,5290001109988,新規,0,2025-05-16,2025-05-16,オルクテック株式会社,,株式会社,福岡県,福岡市早良区,西新２丁目１番３３－９０１号,,40,137,8140002,,,,,,,2025-05-16,1,,,,,オルクテック,0
1420,5290001109996,新規,0,2025-05-16,2025-05-16,湯福アセット株式会社,,株式会社,福岡県,福岡市博多区,築港本町３番８－７０７号,,40,132,8120021,,,,,,,2025-05-16,1,,,,,ユフクアセット,0
1426,5290805009830,新規,0,2025-05-16,2025-05-16,一般社団法人ＨＡＲＵＴＡ,,その他の設立登記法人,福岡県,直方市,大字頓野３８３６番地３,,40,204,8220002,,,,,,,2025-05-16,1,,,,,ハルタ,0
1434,5340001027334,新規,0,2025-05-16,2025-05-16,株式会社東邦サポート,,株式会社,鹿児島県,鹿児島市,東谷山３丁目８番２６号,,46,201,8910113,,,,,,,2025-05-16,1,,,,,トウホウサポート,0
1435,5340005009865,新規,0,2025-05-16,2025-05-16,一般社団法人ブルーネクサス・ヨロン,,その他の設立登記法人,鹿児島県,大島郡与論町,大字茶花２４１－４,,46,535,8919301,,,,,,,2025-05-16,1,,,,,ブルーネクサスヨロン,0
1437,5350005006309,新規,0,2025-05-16,2025-05-16,ごかせ未来キャリア協同組合,,その他の設立登記法人,宮崎県,西臼杵郡五ヶ瀬町,大字鞍岡５９２９番地,,45,443,8821201,,,,,,,2025-05-16,1,,,,,ゴカセミライキャリア,0
1439,5360001035186,新規,0,2025-05-16,2025-05-16,株式会社ショート動画研究所,,株式会社,沖縄県,那覇市,牧志２丁目１７－２７－４０１,,47,201,9000013,,,,,,,2025-05-16,1,,,,,ショートドウガケンキュウジョ,0
1440,5360001035203,新規,0,2025-05-16,2025-05-16,株式会社悠久の旅沖縄,,株式会社,沖縄県,那覇市,字松川５１５番地,,47,201,9020062,,,,,,,2025-05-16,1,,,,,ユウキュウノタビオキナワ,0
1441,5360005007231,新規,0,2025-05-16,2025-05-16,あーと行政書士法人,,その他の設立登記法人,沖縄県,糸満市,字糸満８８０番地,,47,210,9010361,,,,,,,2025-05-16,1,,,,,アート,0
1443,5370001052511,新規,0,2025-05-16,2025-05-16,株式会社Ｓ‐ｍａｒｔ,,株式会社,宮城県,仙台市太白区,東中田１丁目６番３４号ジラソーレＡ棟,,04,104,9811107,,,,,,,2025-05-16,1,,,,,スマート,0
1444,5370001052577,新規,0,2025-05-16,2025-05-16,株式会社アイフォロー,,株式会社,宮城県,仙台市青葉区,国分町２丁目１－１５猪股ビル５階,,04,101,9800803,,,,,,,2025-05-16,1,,,,,アイフォロー,0
1450,5380001035317,新規,0,2025-05-16,2025-05-16,株式会社Ｄ‐ＤＥＳＩＧＮ,,株式会社,福島県,いわき市,常磐下船尾町居作８番地の５,,07,204,9728312,,,,,,,2025-05-16,1,,,,,ディーデザイン,0
1464,5430003017621,新規,0,2025-05-16,2025-05-16,合同会社Ｌｉｃｏｎｎｅｃｔ,,合同会社,北海道,札幌市豊平区,美園十二条６丁目１番６－５０５,,01,105,0620012,,,,,,,2025-05-16,1,,,,,リコネクト,0
1465,5430003017654,新規,0,2025-05-16,2025-05-16,合同会社Ｏｎｅ’ｓ,,合同会社,北海道,札幌市西区,琴似四条６丁目２－８　２０１,,01,107,0630814,,,,,,,2025-05-16,1,,,,,ワンズ,0
1468,5440001009611,新規,0,2025-05-16,2025-05-16,株式会社ＨＡＬＥ,,株式会社,北海道,函館市,湯川町２丁目１８番３号,,01,202,0420932,,,,,,,2025-05-16,1,,,,,ハレ,0
1471,5450001014627,新規,0,2025-05-16,2025-05-16,上野コーポレーション株式会社,,株式会社,北海道,旭川市,錦町２１丁目２１６２番地の１４,,01,204,0700824,,,,,,,2025-05-16,1,,,,,ウエノコーポレーション,0
1476,5700150130521,新規,0,2025-05-16,2025-05-16,ＴＨＡＬＩＢ　ＥＮＴＥＲＰＲＩＳＥＳ,,外国会社等,千葉県,山武郡横芝光町,木戸６８３６番地２－２,,12,410,2891726,スリランカ民主社会主義共和国、アクラナ、ブルゴハテンナ、Ｎｏ．３６０／１,,,,,,2025-05-16,1,,,,,タリブエンタープライズ,0
1483,6010001254836,新規,0,2025-05-16,2025-05-16,株式会社ＷｅＳｐａｒｋ,,株式会社,東京都,千代田区,神田和泉町１番地６－１６ヤマトビル４０５,,13,101,1010024,,,,,,,2025-05-16,1,,,,,ウィースパーク,0
1484,6010001254910,新規,0,2025-05-16,2025-05-16,ＧＭＫ総合事務所株式会社,,株式会社,東京都,千代田区,神田和泉町１番地６－１６ヤマトビル４０５,,13,101,1010024,,,,,,,2025-05-16,1,,,,,ジーエムケーソウゴウジムショ,0
1485,6010001255025,新規,0,2025-05-16,2025-05-16,株式会社ＣＣＥＬ,,株式会社,東京都,中央区,入船１丁目８番５―６０４号,,13,102,1040042,,,,,,,2025-05-16,1,,,,,ココエル,0
1487,6010003047338,新規,0,2025-05-16,2025-05-16,Ｌｉｑｕｉｄ　Ａｄｖｅｒｔｉｓｉｎｇ合同会社,,合同会社,東京都,千代田区,霞が関３丁目２番６号東京倶楽部ビルディング１１階,,13,101,1000013,,,,,,,2025-05-16,1,,,,,リキッドアドバタイジング,0
1488,6010003047354,新規,0,2025-05-16,2025-05-16,合同会社テラバイト両国,,合同会社,東京都,中央区,京橋２丁目１２番６号ＡＯＪ税理士法人内,,13,102,1040031,,,,,,,2025-05-16,1,,,,,テラバイトリョウゴク,0
1489,6010003047387,新規,0,2025-05-16,2025-05-16,Ｊｉｎｇｕｍａｅ　Ｒｅｔａｉｌ合同会社,,合同会社,東京都,千代田区,丸の内１丁目４番１号東京共同会計事務所内,,13,101,1000005,,,,,,,2025-05-16,1,,,,,ジングウマエリテール,0
1499,6010401190111,新規,0,2025-05-16,2025-05-16,株式会社ＫＡＴＳＵＹＡＫＵコネクションズ,,株式会社,東京都,港区,白金台３丁目１３－１５メゾンヴェール白金台２０８,,13,103,1080071,,,,,,,2025-05-16,1,,,,,カツヤクコネクションズ,0
1501,6010403035108,新規,0,2025-05-16,2025-05-16,合同会社櫻田謙悟事務所,,合同会社,東京都,港区,赤坂１丁目１２番３２号アーク森ビル３６階,,13,103,1070052,,,,,,,2025-05-16,1,,,,,サクラダケンゴジムショ,0
1502,6010403035116,新規,0,2025-05-16,2025-05-16,合同会社Ｓｙｎｔｅｒｒａ,,合同会社,東京都,港区,南青山７丁目１番３１－５０３号,,13,103,1070062,,,,,,,2025-05-16,1,,,,,シンテラ,0
1511,6010901057355,新規,0,2025-05-16,2025-05-16,株式会社アドチルト,,株式会社,東京都,世田谷区,千歳台６丁目１６―７東京テラス１２１６号室,,13,112,1570071,,,,,,,2025-05-16,1,,,,,アドチルト,0
1512,6010901057371,新規,0,2025-05-16,2025-05-16,Ａｎｇｅ株式会社,,株式会社,東京都,世田谷区,上祖師谷１丁目２９番１３－２０９号,,13,112,1570065,,,,,,,2025-05-16,1,,,,,アンジュ,0
1517,6011003021704,新規,0,2025-05-16,2025-05-16,合同会社キヨテック,,合同会社,東京都,渋谷区,恵比寿西２丁目４番８号ウィンド恵比寿ビル８Ｆ,,13,113,1500021,,,,,,,2025-05-16,1,,,,,キヨテック,0
1522,6011101111720,新規,0,2025-05-16,2025-05-16,和越国際株式会社,,株式会社,東京都,新宿区,西新宿３丁目５番１２－３０６号,,13,104,1600023,,,,,,,2025-05-16,1,,,,,ワエツコクサイ,0
1532,6011701028348,新規,0,2025-05-16,2025-05-16,仙の豆株式会社,,株式会社,東京都,江戸川区,東小岩６丁目３３番１８号,,13,123,1330052,,,,,,,2025-05-16,1,,,,,センノマメ,0
1534,6012401043100,新規,0,2025-05-16,2025-05-16,株式会社Ｍｉｒａｉｃ,,株式会社,東京都,武蔵野市,吉祥寺本町３丁目８番２０号,,13,203,1800004,,,,,,,2025-05-16,1,,,,,ミライク,0
1535,6012401043109,新規,0,2025-05-16,2025-05-16,株式会社Ｐｅｒｓｏｎａ　Ｂｒａｎｄｉｎｇ　Ｌａｂ,,株式会社,東京都,調布市,若葉町２丁目２６－６,,13,208,1820003,,,,,,,2025-05-16,1,,,,,ペルソナブランディングラボ,0
1536,6012703003272,新規,0,2025-05-16,2025-05-16,橋益国際合同会社,,合同会社,東京都,東村山市,野口町３丁目１３－４２ラディアンス１０１号,,13,213,1890022,,,,,,,2025-05-16,1,,,,,キョウエキコクサイ,0
1537,6012801023965,新規,0,2025-05-16,2025-05-16,株式会社昭島メディカルパートナーズ,,株式会社,東京都,昭島市,玉川町１丁目２番６号エヴァグリーン中神３階,,13,207,1960034,,,,,,,2025-05-16,1,,,,,アキシマメディカルパートナーズ,0
1539,6013301054253,新規,0,2025-05-16,2025-05-16,ＰｈａｓａＴｅｋ　Ｌａｂｓ株式会社,,株式会社,東京都,豊島区,東池袋３丁目１番１号サンシャイン６０－１２階,,13,116,1700013,,,,,,,2025-05-16,1,,,,,パーサテックラボ,0
1541,6020001017044,新規,0,2025-05-16,2025-05-16,共栄工事株式会社,,株式会社,神奈川県,横浜市鶴見区,駒岡５丁目３番１０－１０１号,,14,101,2300071,,,,,,,2025-05-16,1,,,,,キョウエイコウジ,0
1549,6020001162930,新規,0,2025-05-16,2025-05-16,株式会社ＳＯＬＡＣＬＯＵＤ,,株式会社,神奈川県,横浜市西区,みなとみらい３丁目３番１号ＫＤＸみなとみらいタワー８階,,14,103,2200012,,,,,,,2025-05-16,1,,,,,ソラクラウド,0
1568,6021003016001,新規,0,2025-05-16,2025-05-16,ＪＳ・ＰＲＯ・Ｂｅａｕｔｙ合同会社,,合同会社,神奈川県,相模原市南区,古淵３丁目２９番１－１号,,14,153,2520344,,,,,,,2025-05-16,1,,,,,,0
1577,6030001166567,新規,0,2025-05-16,2025-05-16,株式会社ウィルストック,,株式会社,埼玉県,加須市,不動岡２丁目４－２８,,11,210,3470054,,,,,,,2025-05-16,1,,,,,ウィルストック,0
1578,6030001166583,新規,0,2025-05-16,2025-05-16,アサカメディカル株式会社,,株式会社,埼玉県,朝霞市,溝沼６丁目１８番２７号,,11,227,3510023,,,,,,,2025-05-16,1,,,,,アサカメディカル,0
1581,6030003026744,新規,0,2025-05-16,2025-05-16,合同会社Ｎｅｗ　Ｌｏｏｋ,,合同会社,埼玉県,深谷市,上野台２７８５番地２,,11,218,3660801,,,,,,,2025-05-16,1,,,,,ニュールック,0
1582,6030003026777,新規,0,2025-05-16,2025-05-16,ｅｉｇｈｔ合同会社,,合同会社,埼玉県,東松山市,大字上野本１９２３番地３,,11,212,3550073,,,,,,,2025-05-16,1,,,,,エイト,0
1583,6030003026785,新規,0,2025-05-16,2025-05-16,合同会社Ｄ・Ｈインパクト,,合同会社,埼玉県,志木市,本町４丁目１７番４５号,,11,228,3530004,,,,,,,2025-05-16,1,,,,,ディーエィチインパクト,0
1587,6040001138821,新規,0,2025-05-16,2025-05-16,株式会社こころ,,株式会社,千葉県,千葉市中央区,富士見２丁目７番９号富士見ビル６０９号,,12,101,2600015,,,,,,,2025-05-16,1,,,,,ココロ,0
1589,6040003027592,新規,0,2025-05-16,2025-05-16,合同会社ＡＹＫＡ　ＷＯＲＫＳ,,合同会社,千葉県,千葉市花見川区,横戸町１５５９－６,,12,102,2620001,,,,,,,2025-05-16,1,,,,,アイカワークス,0
1590,6040003027601,新規,0,2025-05-16,2025-05-16,ＨＫＨ設備合同会社,,合同会社,千葉県,我孫子市,船戸２丁目１７番４号,,12,222,2701158,,,,,,,2025-05-16,1,,,,,エイチケーエイチセツビ,0
1593,6050001056675,新規,0,2025-05-16,2025-05-16,株式会社Ｓｔｅｐ　Ｕｐ,,株式会社,茨城県,古河市,大堤７４２番地ハート・レイ彩佳Ｃ‐１０５号,,08,204,3060236,,,,,,,2025-05-16,1,,,,,ステップアップ,0
1600,6060001038202,新規,0,2025-05-16,2025-05-16,株式会社ＦＪ　Ｅｘｐｒｅｓｓ,,株式会社,栃木県,佐野市,山菅町３６５８番地,,09,204,3270505,,,,,,,2025-05-16,1,,,,,エフジェイエクスプレス,0
1602,6060003005555,新規,0,2025-05-16,2025-05-16,リンクス合同会社,,合同会社,栃木県,佐野市,高萩町１３２７番地６,,09,204,3270821,,,,,,,2025-05-16,1,,,,,リンクス,0
1607,6080101025503,新規,0,2025-05-16,2025-05-16,通達商事株式会社,,株式会社,静岡県,賀茂郡東伊豆町,大川３９６－２,,22,301,4130301,,,,,,,2025-05-16,1,,,,,ツウタツショウジ,0
1629,6120001275656,新規,0,2025-05-16,2025-05-16,株式会社ＴＫビルド,,株式会社,大阪府,大阪市旭区,今市１丁目１８番地１１グレイスビル２０１,,27,117,5350011,,,,,,,2025-05-16,1,,,,,ティーケービルド,0
1630,6120001275722,新規,0,2025-05-16,2025-05-16,東昌株式会社,,株式会社,大阪府,大阪市中央区,内本町２丁目１番１９号内本町松屋ビル１０の４０１号室,,27,128,5400026,,,,,,,2025-05-16,1,,,,,トウショウ,0
1631,6120001275771,新規,0,2025-05-16,2025-05-16,株式会社ムラン,,株式会社,大阪府,大阪市港区,弁天３丁目１０－２０港ＯＧＩビル３０７号室,,27,107,5520007,,,,,,,2025-05-16,1,,,,,ムラン,0
1632,6120001275788,新規,0,2025-05-16,2025-05-16,株式会社ＳＹ不動産,,株式会社,大阪府,大阪市東成区,深江北１丁目９番２４号,,27,115,5370001,,,,,,,2025-05-16,1,,,,,エスワイフドウサン,0
1633,6120001275879,新規,0,2025-05-16,2025-05-16,株式会社ＮＥＸＴ　ＩＮＮＯＶＡＴＩＯＮ,,株式会社,大阪府,大阪市住之江区,御崎５丁目４番２３号,,27,125,5590013,,,,,,,2025-05-16,1,,,,,ネクストイノベーション,0
1636,6120003029408,新規,0,2025-05-16,2025-05-16,ＵＭＩ合同会社,,合同会社,大阪府,大阪市福島区,鷺洲２丁目１０番４号,,27,103,5530002,,,,,,,2025-05-16,1,,,,,ウミ,0
1637,6120003029449,新規,0,2025-05-16,2025-05-16,創意システム合同会社,,合同会社,大阪府,大阪市旭区,高殿２丁目１８番４号,,27,117,5350031,,,,,,,2025-05-16,1,,,,,ソウイシステム,0
1638,6120003029457,新規,0,2025-05-16,2025-05-16,東陽材料技術合同会社,,合同会社,大阪府,大阪市中央区,今橋１丁目１－３Ｒｅ：ＺＯＮＥ北浜０２－９１１号室,,27,128,5410042,,,,,,,2025-05-16,1,,,,,トウヨウザイリョウギジュツ,0
1644,6120103006463,新規,0,2025-05-16,2025-05-16,合同会社日米,,合同会社,大阪府,藤井寺市,藤井寺３丁目２番２４－２０３号,,27,226,5830024,,,,,,,2025-05-16,1,,,,,ニチベイ,0
1649,6120901050902,新規,0,2025-05-16,2025-05-16,日本ドアサポート株式会社,,株式会社,大阪府,豊中市,庄内宝町２丁目１番１３号,,27,203,5610836,,,,,,,2025-05-16,1,,,,,ニホンドアサポート,0
1652,6122001039223,新規,0,2025-05-16,2025-05-16,Ｙ’ｓＴｅｃｈ株式会社,,株式会社,大阪府,八尾市,西弓削１丁目１１番１号,,27,212,5810035,,,,,,,2025-05-16,1,,,,,ワイズテック,0
1653,6122001039231,新規,0,2025-05-16,2025-05-16,日新化成工業株式会社,,株式会社,大阪府,東大阪市,寿町１丁目６番３５号,,27,227,5770837,,,,,,,2025-05-16,1,,,,,ニッシンカセイコウギョウ,0
1657,6130001079676,新規,0,2025-05-16,2025-05-16,株式会社Ｓ．ＲＯ‐ＤＯ,,株式会社,京都府,京都市伏見区,羽束師鴨川町４６番地１セ・ラヴィ１０７,,26,109,6128484,,,,,,,2025-05-16,1,,,,,エスロード,0
1662,6140001138563,新規,0,2025-05-16,2025-05-16,株式会社三木冷熱設備,,株式会社,兵庫県,姫路市,梅ケ谷町１７番２７号,,28,201,6700894,,,,,,,2025-05-16,1,,,,,ミキレイネツセツビ,0
1664,6140003022047,新規,0,2025-05-16,2025-05-16,合同会社Ｃｒｏｉｓｓａｎｃｅ,,合同会社,兵庫県,尼崎市,東園田町５丁目１１３番地の１エルバージュ園田４０５,,28,202,6610953,,,,,,,2025-05-16,1,,,,,クロワサーンス,0
1676,6180005021101,新規,0,2025-05-16,2025-05-16,一般社団法人Ａｕｎ,,その他の設立登記法人,愛知県,常滑市,森西町４丁目８番地,,23,216,4790845,,,,,,,2025-05-16,1,,,,,アウン,0
1693,6230003002428,新規,0,2025-05-16,2025-05-16,合同会社天乃三合,,合同会社,富山県,氷見市,加納１２６２番地,,16,205,9350063,,,,,,,2025-05-16,1,,,,,テンノサンゴウ,0
1710,6290001110061,新規,0,2025-05-16,2025-05-16,八光電設株式会社,,株式会社,福岡県,筑紫野市,二日市西３丁目８番１６号,,40,217,8180071,,,,,,,2025-05-16,1,,,,,ハッコウデンセツ,0
1712,6290003016827,新規,0,2025-05-16,2025-05-16,合同会社ＣＮＢ　ＪＡＰＡＮ,,合同会社,福岡県,福岡市早良区,田隈３丁目５７番２号,,40,137,8140174,,,,,,,2025-05-16,1,,,,,シーエヌビージャパン,0
1740,6380001035324,新規,0,2025-05-16,2025-05-16,株式会社ｓｏｎｎｅ,,株式会社,福島県,郡山市,駅前１丁目４番１３号エリート１１ビルＢ１Ｆ,,07,203,9638002,,,,,,,2025-05-16,1,,,,,,0
1747,6430003017653,新規,0,2025-05-16,2025-05-16,合同会社Ｗｏｒｔｉｃｏ,,合同会社,北海道,札幌市白石区,栄通１０丁目１番２８号,,01,104,0030021,,,,,,,2025-05-16,1,,,,,ヴォルティコ,0
1748,6470001020713,新規,0,2025-05-16,2025-05-16,飯塚商事株式会社,,株式会社,香川県,仲多度郡琴平町,榎井６１３番地４,,37,403,7660004,,,,,,,2025-05-16,1,,,,,イイヅカショウジ,0
1752,6700150121750,新規,0,2025-05-16,2025-05-16,ＨＡＮＧ　ＺＨＯＵ　ＣＨＯＮＧ　ＨＡＯ　ＤＩＡＮ　ＺＩ　ＳＨＡＮＧ　ＷＵ　ＣＯ．，ＬＴＤ,,外国会社等,,,,,,,,ＺＨＥ　ＪＩＡＮＧ　ＨＡＮＧ　ＺＨＯＵ　ＹＵ　ＨＡＮＧ　ＱＵ　ＮＡＮ　ＹＵＡＮ　ＪＩＥ　ＤＡＯ　ＸＩＮ　ＹＵＡＮ　ＪＩＮ　ＺＵＯ　１　ＺＨＵＡＮＧ　４２１　ＳＨＩ　ＨＡＮＧ　ＺＨＯＵ　ＺＨＥ　ＪＩＡＮＧ　３１０ー０００　ＣＮ,,,,,,2025-05-16,1,,,,,ハンジヨウチヨンハオデイエンツシヤンウカンパニーリミテツド,0
1753,6700150130529,新規,0,2025-05-16,2025-05-16,洪立企業有限公司,,外国会社等,,,,,,,,台北市中山区南京東路一段９２號９楼之２,,,,,,2025-05-16,1,,,,,コウリツキギヨウユウゲンコウシ,0
1763,7010001254694,新規,0,2025-05-16,2025-05-16,ビーキュー株式会社,,株式会社,東京都,中央区,築地７丁目１０番地８号ＳＥＡビル３０５号,,13,102,1040045,,,,,,,2025-05-16,1,,,,,ビーキュー,0
1764,7010001254876,新規,0,2025-05-16,2025-05-16,カスパー株式会社,,株式会社,東京都,文京区,白山１丁目６番４－Ａ２２,,13,105,1130001,,,,,,,2025-05-16,1,,,,,カスパー,0
1765,7010001254884,新規,0,2025-05-16,2025-05-16,株式会社ＳＡＣ,,株式会社,東京都,千代田区,九段北４丁目３番２２号ファームボンド九段ビル６階,,13,101,1020073,,,,,,,2025-05-16,1,,,,,エスエーシー,0
1766,7010001254975,新規,0,2025-05-16,2025-05-16,インキューブコンサルティング株式会社,,株式会社,東京都,中央区,銀座７丁目１３番２０号銀座ＴＨビル９階,,13,102,1040061,,,,,,,2025-05-16,1,,,,,インキューブコンサルティング,0
1767,7010001255049,新規,0,2025-05-16,2025-05-16,ＳＭＰ準備株式会社,,株式会社,東京都,中央区,日本橋２丁目７番１号,,13,102,1030027,,,,,,,2025-05-16,1,,,,,エスエムピージュンビ,0
1768,7010003047287,新規,0,2025-05-16,2025-05-16,ＤｅｓｉｇｎＦａｂ合同会社,,合同会社,東京都,中央区,銀座１丁目１２－４Ｎ＆ＥＢＬＤ．７階,,13,102,1040061,,,,,,,2025-05-16,1,,,,,デザインファブ,0
1772,7010005040050,新規,0,2025-05-16,2025-05-16,Ｊｉｎｇｕｍａｅ　Ｒｅｔａｉｌ一般社団法人,,その他の設立登記法人,東京都,千代田区,丸の内１丁目４番１号東京共同会計事務所内,,13,101,1000005,,,,,,,2025-05-16,1,,,,,ジングウマエリテール,0
1777,7010403035131,新規,0,2025-05-16,2025-05-16,ＶＨ　Ｐｒｏｐｅｒｔｉｅｓ合同会社,,合同会社,東京都,港区,虎ノ門４丁目３番１３号ヒューリック神谷町ビル４階,,13,103,1050001,,,,,,,2025-05-16,1,,,,,ヴィーエイチプロパティーズ,0
1783,7010601067307,新規,0,2025-05-16,2025-05-16,Ｓａｖａｇｅ　Ａｓｔｒｏｎａｕｔ　Ｅａｓｔ株式会社,,株式会社,東京都,江東区,豊洲６丁目２番３１－１９１７号,,13,108,1350061,,,,,,,2025-05-16,1,,,,,サベージアストロノートイースト,0
1785,7010901057354,新規,0,2025-05-16,2025-05-16,株式会社ＣｉｔｙＥｘｅｃ,,株式会社,東京都,世田谷区,喜多見４丁目３３番８号,,13,112,1570067,,,,,,,2025-05-16,1,,,,,シティエグゼク,0
1790,7011001169577,新規,0,2025-05-16,2025-05-16,株式会社マルチドライブ,,株式会社,東京都,目黒区,下目黒１丁目１番１４号コノトラビル７Ｆ,,13,110,1530064,,,,,,,2025-05-16,1,,,,,マルチドライブ,0
1796,7011101111703,新規,0,2025-05-16,2025-05-16,株式会社ＢＡＲＯＱＵＥ,,株式会社,東京都,新宿区,新宿１丁目１５番９号澤田ビル１階,,13,104,1600022,,,,,,,2025-05-16,1,,,,,バロック,0
1797,7011101111810,新規,0,2025-05-16,2025-05-16,株式会社Ｒｅｓｈａｐｅ,,株式会社,東京都,新宿区,市谷本村町２番３号９Ｆ,,13,104,1620845,,,,,,,2025-05-16,1,,,,,リシェイプ,0
1798,7011105011453,新規,0,2025-05-16,2025-05-16,一般社団法人ジェイ・エイチ・ワイ,,その他の設立登記法人,東京都,新宿区,下宮比町１番４号,,13,104,1620822,,,,,,,2025-05-16,1,,,,,ジェイエイチワイ,0
1802,7011301030587,新規,0,2025-05-16,2025-05-16,吉岡企画株式会社,,株式会社,東京都,杉並区,善福寺１丁目２９番８号,,13,115,1670041,,,,,,,2025-05-16,1,,,,,ヨシオカキカク,0
1808,7011503006526,新規,0,2025-05-16,2025-05-16,合同会社フクシのなべさんと信頼できる仲間たち,,合同会社,東京都,荒川区,町屋４丁目２３番７号,,13,118,1160001,,,,,,,2025-05-16,1,,,,,フクシノナベサントシンライデキルナカマタチ,0
1816,7012403007135,新規,0,2025-05-16,2025-05-16,合同会社雲傘情報室,,合同会社,東京都,武蔵野市,西久保１丁目４７番１６号,,13,203,1800013,,,,,,,2025-05-16,1,,,,,クモガサジョウホウシツ,0
1817,7012801023972,新規,0,2025-05-16,2025-05-16,Ｋｉｂｏｅｒ株式会社,,株式会社,東京都,昭島市,東町４丁目８番４号,,13,207,1960033,,,,,,,2025-05-16,1,,,,,キボア,0
1822,7020001162913,新規,0,2025-05-16,2025-05-16,株式会社ＣＲＯＷＮ,,株式会社,神奈川県,横浜市神奈川区,金港町５－１４クアドリフォリオ８階,,14,102,2210056,,,,,,,2025-05-16,1,,,,,クラウン,0
1825,7020003028443,新規,0,2025-05-16,2025-05-16,合同会社あっぷル,,合同会社,神奈川県,横浜市磯子区,東町１５－３２,,14,107,2350005,,,,,,,2025-05-16,1,,,,,アップル,0
1826,7020005016850,新規,0,2025-05-16,2025-05-16,一般社団法人似て非ｗｏｒｋｓ,,その他の設立登記法人,神奈川県,横浜市中区,相生町３丁目６０番地泰生ビル５０９号室,,14,104,2310012,,,,,,,2025-05-16,1,,,,,ニテヒワークス,0
1832,7021001085229,新規,0,2025-05-16,2025-05-16,株式会社コスモス,,株式会社,神奈川県,小田原市,上曽我３８０番地,,14,206,2500202,,,,,,,2025-05-16,1,,,,,コスモス,0
1838,7021003015935,新規,0,2025-05-16,2025-05-16,シャムロック合同会社,,合同会社,神奈川県,茅ヶ崎市,南湖５丁目２番３５号,,14,207,2530061,,,,,,,2025-05-16,1,,,,,シャムロック,0
1839,7021003015984,新規,0,2025-05-16,2025-05-16,ミズノ自動車合同会社,,合同会社,神奈川県,愛甲郡愛川町,田代９７３－１－Ｂ,,14,401,2430306,,,,,,,2025-05-16,1,,,,,ミズノジドウシャ,0
1848,7030001166541,新規,0,2025-05-16,2025-05-16,株式会社慶豊,,株式会社,埼玉県,蕨市,中央５丁目５番２０号,,11,223,3350004,,,,,,,2025-05-16,1,,,,,ケイホウ,0
1849,7030001166566,新規,0,2025-05-16,2025-05-16,株式会社Ｓ．Ｄ．Ｗ,,株式会社,埼玉県,上尾市,大字上１７２６番地２,,11,219,3620001,,,,,,,2025-05-16,1,,,,,エスディーダブル,0
1850,7030001166574,新規,0,2025-05-16,2025-05-16,株式会社三峰建装,,株式会社,埼玉県,春日部市,武里中野４１５番地５,,11,214,3440026,,,,,,,2025-05-16,1,,,,,ミツミネケンソウ,0
1854,7030003026784,新規,0,2025-05-16,2025-05-16,ＴＨＩＲＤ　ＲＯＯＭ合同会社,,合同会社,埼玉県,入間市,東藤沢３丁目２番１３号ＫＩＶ商会館入間Ｂ号室,,11,225,3580012,,,,,,,2025-05-16,1,,,,,サードルーム,0
1855,7030003026801,新規,0,2025-05-16,2025-05-16,合同会社Ｋ＆Ｍプロパティ,,合同会社,埼玉県,川口市,西川口１丁目５番２０号４階Ａ－２５号,,11,203,3320021,,,,,,,2025-05-16,1,,,,,ケイアンドエムプロパティ,0
1860,7040003027575,新規,0,2025-05-16,2025-05-16,合同会社ＹＫ,,合同会社,千葉県,市川市,欠真間１丁目１７番６号,,12,203,2720142,,,,,,,2025-05-16,1,,,,,ワイケイ,0
1861,7040003027600,新規,0,2025-05-16,2025-05-16,ＨＭ千葉若葉合同会社,,合同会社,千葉県,千葉市若葉区,大井戸町６２９,,12,104,2650075,,,,,,,2025-05-16,1,,,,,エイチエムチバワカバ,0
1865,7050001056699,新規,0,2025-05-16,2025-05-16,株式会社ＹＡＮＡＫＡ,,株式会社,茨城県,筑西市,落合１１６番地,,08,227,3080002,,,,,,,2025-05-16,1,,,,,,0
1875,7080001026939,新規,0,2025-05-16,2025-05-16,株式会社エスグロウ,,株式会社,静岡県,静岡市葵区,追手町１０番２１４号,,22,101,4200853,,,,,,,2025-05-16,1,,,,,エスグロウ,0
1879,7090001019272,新規,0,2025-05-16,2025-05-16,株式会社パーパス,,株式会社,山梨県,甲府市,千塚５丁目７番１０号シャーメゾンポラリスＣ２０１,,19,201,4000074,,,,,,,2025-05-16,1,,,,,バーパス,0
1897,7120001275250,新規,0,2025-05-16,2025-05-16,株式会社卓越移動,,株式会社,大阪府,大阪市東成区,大今里西３丁目１４－１６レジデンス今里４０２,,27,115,5370014,,,,,,,2025-05-16,1,,,,,タクエツイドウ,0
1898,7120001275507,新規,0,2025-05-16,2025-05-16,日本利源株式会社,,株式会社,大阪府,大阪市中央区,大手通１丁目４番７号大手前ガーデンズ２０８号室,,27,128,5400021,,,,,,,2025-05-16,1,,,,,ニホンリゲン,0
1899,7120001275531,新規,0,2025-05-16,2025-05-16,東辰商事株式会社,,株式会社,大阪府,大阪市住吉区,遠里小野３丁目１０番３８号,,27,120,5580032,,,,,,,2025-05-16,1,,,,,トウシンショウジ,0
1900,7120001275770,新規,0,2025-05-16,2025-05-16,株式会社ＮＯＡＮＡ,,株式会社,大阪府,大阪市西区,南堀江３丁目１６番２１－２４１２号,,27,106,5500015,,,,,,,2025-05-16,1,,,,,ノアナ,0
1901,7120001275787,新規,0,2025-05-16,2025-05-16,一谷株式会社,,株式会社,大阪府,大阪市中央区,船場中央２丁目２番５号船場センタービル５号館地下一階Ｂ１２９・ＲＯＹＡＬ・ＯＦＦＩＣＥ内,,27,128,5410055,,,,,,,2025-05-16,1,,,,,イチタニ,0
1902,7120001275829,新規,0,2025-05-16,2025-05-16,濾宜株式会社,,株式会社,大阪府,大阪市東成区,深江北３丁目４番２１号エクラ深江橋２０２Ｂ,,27,115,5370001,,,,,,,2025-05-16,1,,,,,ロイ,0
1903,7120001275845,新規,0,2025-05-16,2025-05-16,和創株式会社,,株式会社,大阪府,大阪市東淀川区,大桐３丁目６番２１－３０２号,,27,114,5330011,,,,,,,2025-05-16,1,,,,,ワソウ,0
1905,7120003029448,新規,0,2025-05-16,2025-05-16,合同会社ＳＡＮ＆ＨＡＮ,,合同会社,大阪府,大阪市生野区,新今里３丁目１２番６号,,27,116,5440001,,,,,,,2025-05-16,1,,,,,サンアンドハン,0
1906,7120005024934,新規,0,2025-05-16,2025-05-16,一般社団法人睡眠予防医学協会,,その他の設立登記法人,大阪府,大阪市中央区,上町Ｂ８クリエイト上町１０階,,27,128,5400005,,,,,,,2025-05-16,1,,,,,スイミンヨボウイガクキョウカイ,0
1910,7120103006462,新規,0,2025-05-16,2025-05-16,合同会社和泉乃国,,合同会社,大阪府,岸和田市,吉井町１丁目１１－１１,,27,202,5960002,,,,,,,2025-05-16,1,,,,,イズミノクニ,0
1911,7120903005663,新規,0,2025-05-16,2025-05-16,合同会社ＳＥＡＺ,,合同会社,大阪府,豊中市,曽根西町４丁目１８番３２の１号,,27,203,5610801,,,,,,,2025-05-16,1,,,,,シーズ,0
1919,7130001079642,新規,0,2025-05-16,2025-05-16,株式会社Ｔｒｕｓｔ　Ｙｉｅｌｄ,,株式会社,京都府,綴喜郡井手町,大字多賀小字蛇谷１７番地２,,26,343,6100301,,,,,,,2025-05-16,1,,,,,トラストイールド,0
1920,7130001079683,新規,0,2025-05-16,2025-05-16,株式会社Ｏａｓｉｓ　Ｌａｂｏ,,株式会社,京都府,京都市山科区,音羽前出町２番地７,,26,110,6078079,,,,,,,2025-05-16,1,,,,,オアシスラボ,0
1928,7140001138298,新規,0,2025-05-16,2025-05-16,祥川健康株式会社,,株式会社,兵庫県,神戸市兵庫区,松原通４丁目４－２６松原ハイツ１０２号,,28,105,6520881,,,,,,,2025-05-16,1,,,,,ショウガワケンコウ,0
1929,7140001138546,新規,0,2025-05-16,2025-05-16,森田農場株式会社,,株式会社,兵庫県,朝来市,和田山町宮田１５８番地,,28,225,6695242,,,,,,,2025-05-16,1,,,,,モリタノウジョウ,0
1930,7140001138562,新規,0,2025-05-16,2025-05-16,株式会社ＭＤ,,株式会社,兵庫県,高砂市,阿弥陀町魚橋１３５５番地,,28,216,6760822,,,,,,,2025-05-16,1,,,,,エムディー,0
1931,7140001138587,新規,0,2025-05-16,2025-05-16,株式会社ミタス,,株式会社,兵庫県,たつの市,新宮町平野９５番地１,,28,229,6794342,,,,,,,2025-05-16,1,,,,,ミタス,0
1933,7140005027514,新規,0,2025-05-16,2025-05-16,特定非営利活動法人神戸エリアマウンテンバイク協会,,その他の設立登記法人,兵庫県,神戸市灘区,岩屋北町４丁目４番１２号,,28,102,6570846,,,,,,,2025-05-16,1,,,,,コウベエリアマウンテンバイクキョウカイ,0
1937,7160005011409,新規,0,2025-05-16,2025-05-16,一般社団法人ｈａｃｏｎｉｗａ　ｖｉｌｌａｇｅ,,その他の設立登記法人,滋賀県,長浜市,木之本町木之本１２３７,,25,203,5290425,,,,,,,2025-05-16,1,,,,,ハコニワビレッジ,0
1945,7180001166857,新規,0,2025-05-16,2025-05-16,東元株式会社,,株式会社,愛知県,豊明市,阿野町稲葉７３番地８パビリオン第１丸の内５０７号,,23,229,4701144,,,,,,,2025-05-16,1,,,,,トウゲン,0
1948,7200005013755,新規,0,2025-05-16,2025-05-16,一般社団法人ＡＮＫＩ,,その他の設立登記法人,岐阜県,岐阜市,白木町４３番地,,21,201,5008085,,,,,,,2025-05-16,1,,,,,アンキ,0
1949,7200005013763,新規,0,2025-05-16,2025-05-16,一般社団法人岐阜水都ハリーズ,,その他の設立登記法人,岐阜県,大垣市,小泉町１１８番地,,21,202,5030816,,,,,,,2025-05-16,1,,,,,ギフスイトハリーズ,0
1956,7240001064947,新規,0,2025-05-16,2025-05-16,株式会社優栄,,株式会社,広島県,安芸郡海田町,稲葉１０番４３号,,34,304,7360012,,,,,,,2025-05-16,1,,,,,ユウエイ,0
1961,7260001040194,新規,0,2025-05-16,2025-05-16,株式会社５５５,,株式会社,岡山県,勝田郡勝央町,平１２７６番地２シャーメゾン平２０１,,33,622,7094334,,,,,,,2025-05-16,1,,,,,スリーファイブ,0
1963,7260003005179,新規,0,2025-05-16,2025-05-16,合同会社ＫＡＮＺＡＫＩ,,合同会社,岡山県,岡山市北区,内山下１丁目２番８号,,33,101,7000824,,,,,,,2025-05-16,1,,,,,カンザキ,0
1964,7260005011480,新規,0,2025-05-16,2025-05-16,一般社団法人岡山カルチャーカルチャー,,その他の設立登記法人,岡山県,岡山市北区,奉還町２丁目８番１５号,,33,101,7000026,,,,,,,2025-05-16,1,,,,,オカヤマカルチャーカルチャー,0
1967,7290001110052,新規,0,2025-05-16,2025-05-16,株式会社ＨＡＲＥＲＵＹＡ,,株式会社,福岡県,古賀市,中央５丁目３－５,,40,223,8113103,,,,,,,2025-05-16,1,,,,,ハレルヤ,0
1970,7290801031555,新規,0,2025-05-16,2025-05-16,株式会社こじょう,,株式会社,福岡県,行橋市,西泉６丁目２－１３,,40,213,8240038,,,,,,,2025-05-16,1,,,,,コジョウ,0
1980,7340005009871,新規,0,2025-05-16,2025-05-16,一般社団法人ひだまりの家笑楽,,その他の設立登記法人,鹿児島県,鹿児島市,玉里団地２丁目２５－３,,46,201,8920811,,,,,,,2025-05-16,1,,,,,ヒダマリノイエワラク,0
1984,7360001035201,新規,0,2025-05-16,2025-05-16,福之星株式会社,,株式会社,沖縄県,糸満市,潮崎町３丁目２５番地の３,,47,210,9010364,,,,,,,2025-05-16,1,,,,,フクノホシ,0
1986,7360003014896,新規,0,2025-05-16,2025-05-16,ＩＳＬＡＮＤ　ＣＬＩＣＫ合同会社,,合同会社,沖縄県,宮古島市,城辺字新城８３１番地,,47,214,9060102,,,,,,,2025-05-16,1,,,,,アイランドクリック,0
1987,7360003014921,新規,0,2025-05-16,2025-05-16,合同会社かねみつ,,合同会社,沖縄県,那覇市,安謝１丁目１３番１９号エミネントひろ３０６,,47,201,9000003,,,,,,,2025-05-16,1,,,,,カネミツ,0
2005,7430003017652,新規,0,2025-05-16,2025-05-16,河樹合同会社,,合同会社,北海道,札幌市豊平区,月寒中央通１１丁目７番８号,,01,105,0620020,,,,,,,2025-05-16,1,,,,,コウジュ,0
2006,7430003017660,新規,0,2025-05-16,2025-05-16,ＳＮＢサービス合同会社,,合同会社,北海道,札幌市手稲区,曙六条３丁目１１番１５－２０１号,,01,109,0060836,,,,,,,2025-05-16,1,,,,,エスエヌビーサービス,0
2010,7470001020712,新規,0,2025-05-16,2025-05-16,株式会社オリーブオイスター,,株式会社,香川県,小豆郡土庄町,伊喜末８１番地８,,37,322,7614131,,,,,,,2025-05-16,1,,,,,オリーブオイスター,0
2012,7700150130528,新規,0,2025-05-16,2025-05-16,ＣＡＲＡＲＲＯＷ　ＥＮＴＥＲＰＲＩＳＥＳ,,外国会社等,千葉県,八街市,八街は１番地１４９オフィス８,,12,230,2891107,スリランカ民主社会主義共和国、アクラナ、マタレロード、Ｎｏ．２９４,,,,,,2025-05-16,1,,,,,カーアローエンタープライズ,0
2016,8010001254850,新規,0,2025-05-16,2025-05-16,株式会社豊和アセット,,株式会社,東京都,中央区,銀座２丁目１２番４－２０２号,,13,102,1040061,,,,,,,2025-05-16,1,,,,,ホウワアセット,0
2017,8010001254883,新規,0,2025-05-16,2025-05-16,ＮＮｉｓｍ株式会社,,株式会社,東京都,中央区,東日本橋１丁目４番１０号,,13,102,1030004,,,,,,,2025-05-16,1,,,,,エヌエヌイズム,0
2018,8010001254982,新規,0,2025-05-16,2025-05-16,ＴＣＧ２５０５株式会社,,株式会社,東京都,千代田区,丸の内１丁目５番１号,,13,101,1000005,,,,,,,2025-05-16,1,,,,,ティーシージーニーゴーゼロゴー,0
2019,8010001255097,新規,0,2025-05-16,2025-05-16,ダイヤサロン株式会社,,株式会社,東京都,千代田区,丸の内１丁目５番１号,,13,101,1000005,,,,,,,2025-05-16,1,,,,,ダイヤサロン,0
2022,8010003047286,新規,0,2025-05-16,2025-05-16,合同会社善居室,,合同会社,東京都,中央区,東日本橋２丁目２８番４号日本橋ＣＥＴビル２階,,13,102,1030004,,,,,,,2025-05-16,1,,,,,ゼンキョシツ,0
2023,8010003047311,新規,0,2025-05-16,2025-05-16,久礼合同会社,,合同会社,東京都,文京区,目白台１丁目９番１７号,,13,105,1120015,,,,,,,2025-05-16,1,,,,,クレ,0
2024,8010003047369,新規,0,2025-05-16,2025-05-16,モイカイ合同会社,,合同会社,東京都,中央区,銀座６丁目１３番１６号銀座ＷａｌｌビルＵＣＦ５０１,,13,102,1040061,,,,,,,2025-05-16,1,,,,,モイカイ,0
2032,8010401190290,新規,0,2025-05-16,2025-05-16,Ｂｒｉｇｈｔ　Ａｓｃｅｎｄ株式会社,,株式会社,東京都,港区,三田１丁目２番１８号ＴＴＤビル,,13,103,1080073,,,,,,,2025-05-16,1,,,,,ブライトアセンド,0
2033,8010401190340,新規,0,2025-05-16,2025-05-16,株式会社Ｌｅ　Ｂｏｎｈｅｕｒ　Ｅｃｌａｔ,,株式会社,東京都,港区,北青山１丁目３番１号,,13,103,1070061,,,,,,,2025-05-16,1,,,,,ルボヌールエクラ,0
2036,8010403035130,新規,0,2025-05-16,2025-05-16,ＶＨ　Ｅｑｕｉｔｙ　Ｈｏｌｄｉｎｇｓ合同会社,,合同会社,東京都,港区,虎ノ門４丁目３番１３号ヒューリック神谷町ビル４階,,13,103,1050001,,,,,,,2025-05-16,1,,,,,ヴィーエイチエクイティホールディングズ,0
2037,8010501054081,新規,0,2025-05-16,2025-05-16,内藤商事株式会社,,株式会社,東京都,台東区,上野７丁目３番９号アルベルゴ上野４０２号,,13,106,1100005,,,,,,,2025-05-16,1,,,,,ナイトウショウジ,0
2042,8010601067314,新規,0,2025-05-16,2025-05-16,株式会社アダージェット,,株式会社,東京都,江東区,木場６丁目６番３号ＳＫフォレスト１Ｆ,,13,108,1350042,,,,,,,2025-05-16,1,,,,,アダージェット,0
2043,8010603011559,新規,0,2025-05-16,2025-05-16,合同会社５６ｐｒｏｊｅｃｔ,,合同会社,東京都,江東区,大島１丁目３７番７号グランドヒルズ西大島６０３,,13,108,1360072,,,,,,,2025-05-16,1,,,,,ゴーロクプロジェクト,0
2056,8010901057378,新規,0,2025-05-16,2025-05-16,Ｓｈｉｂｕｙａ　Ｃａｐｉｔａｌ株式会社,,株式会社,東京都,世田谷区,弦巻３丁目３―７,,13,112,1540016,,,,,,,2025-05-16,1,,,,,シブヤキャピタル,0
2057,8010903009922,新規,0,2025-05-16,2025-05-16,合同会社さくら,,合同会社,東京都,世田谷区,船橋６丁目２３番２７号チャームハウス１０２,,13,112,1560055,,,,,,,2025-05-16,1,,,,,サクラ,0
2072,8011103015876,新規,0,2025-05-16,2025-05-16,タカ商合同会社,,合同会社,東京都,新宿区,西新宿３丁目３－１３西新宿水間ビル６Ｆ,,13,104,1600023,,,,,,,2025-05-16,1,,,,,タカショウ,0
2077,8011303005553,新規,0,2025-05-16,2025-05-16,Ｆｌｏｒｉｋｏ合同会社,,合同会社,東京都,杉並区,方南１丁目１５番１５号エルファーロ笹塚Ｉ１０１,00139178,13,115,1680062,,,,,,,2025-05-16,1,,,,,フロリコ,0
2080,8011501032085,新規,0,2025-05-16,2025-05-16,株式会社モフプラス,,株式会社,東京都,北区,豊島２丁目１０番６号１１０室,,13,117,1140003,,,,,,,2025-05-16,1,,,,,モフプラス,0
2085,8011701028346,新規,0,2025-05-16,2025-05-16,株式会社薫風,,株式会社,東京都,江戸川区,東小岩１丁目２０番１９号,,13,123,1330052,,,,,,,2025-05-16,1,,,,,クンプウ,0
2090,8011801046124,新規,0,2025-05-16,2025-05-16,株式会社Ｎｅｗ　Ｏｎｅ,,株式会社,東京都,葛飾区,四つ木４丁目１６－１７アイコート四ツ木２０１,,13,122,1240011,,,,,,,2025-05-16,1,,,,,ニューワン,0
2098,8012401043098,新規,0,2025-05-16,2025-05-16,株式会社ｃｏｈｅｒｅ,,株式会社,東京都,武蔵野市,吉祥寺北町１丁目１番１号,,13,203,1800001,,,,,,,2025-05-16,1,,,,,コヒア,0
2099,8012403007126,新規,0,2025-05-16,2025-05-16,ＯＮＥーＮ＆ＯＮＥーＳ合同会社,,合同会社,東京都,稲城市,長峰３丁目８－３－７０７,,13,225,2060821,,,,,,,2025-05-16,1,,,,,ワンエヌアンドワンエス,0
2100,8012403007134,新規,0,2025-05-16,2025-05-16,合同会社ブライトリング,,合同会社,東京都,小金井市,梶野町１丁目５－５１ルイージ１０３号室,,13,210,1840002,,,,,,,2025-05-16,1,,,,,ブライトリング,0
2110,8020001162706,新規,0,2025-05-16,2025-05-16,株式会社ＴＯＷＡＳＩＳ　ＥＮＰＯＷＥＲＭＥＮＴ,,株式会社,神奈川県,横浜市港北区,新横浜２丁目５番地１３加瀬２２６ビル内,,14,109,2220033,,,,,,,2025-05-16,1,,,,,トワシスエンパワメント,0
2111,8020001162862,新規,0,2025-05-16,2025-05-16,株式会社ＲＡＴＥＬ,,株式会社,神奈川県,横浜市西区,浅間町１丁目４番地３ウィザードビル４０２,,14,103,2200072,,,,,,,2025-05-16,1,,,,,ラーテル,0
2112,8020001162879,新規,0,2025-05-16,2025-05-16,ＲＫＩ株式会社,,株式会社,神奈川県,横浜市泉区,中田北３丁目３２番１５号,,14,116,2450012,,,,,,,2025-05-16,1,,,,,アールケーアイ,0
2113,8020001162920,新規,0,2025-05-16,2025-05-16,株式会社マストビー,,株式会社,神奈川県,川崎市多摩区,菅５丁目２１番３－１０６号,,14,135,2140001,,,,,,,2025-05-16,1,,,,,マストビー,0
2120,8021001085252,新規,0,2025-05-16,2025-05-16,玉米ＤＩＹテクノロジー株式会社,,株式会社,神奈川県,横須賀市,三春町６丁目３０番地４セキュリティヒルズ１０２号室,,14,201,2380014,,,,,,,2025-05-16,1,,,,,トウマイディーアイワイテクノロジー,0
2123,8021003016024,新規,0,2025-05-16,2025-05-16,ニューセラ・テクノサービス合同会社,,合同会社,神奈川県,横須賀市,池田町６丁目２３番２０号,,14,201,2390806,,,,,,,2025-05-16,1,,,,,ニューセラテクノサービス,0
2126,8030001166490,新規,0,2025-05-16,2025-05-16,株式会社Ｌｙｓ　Ｃｏｌｚａ,,株式会社,埼玉県,所沢市,けやき台２丁目３７番地の３,,11,208,3591118,,,,,,,2025-05-16,1,,,,,リスコルザ,0
2127,8030001166532,新規,0,2025-05-16,2025-05-16,株式会社＿源,00139194,株式会社,埼玉県,川口市,鳩ヶ谷緑町２丁目１－２９号,,11,203,3340015,,,,,,,2025-05-16,1,,,,,シンゲン,0
2128,8030001166540,新規,0,2025-05-16,2025-05-16,株式会社ゴーゴークール急送,,株式会社,埼玉県,蓮田市,大字井沼４０３番地３,,11,238,3490135,,,,,,,2025-05-16,1,,,,,ゴーゴークールキュウソウ,0
2132,8030003026791,新規,0,2025-05-16,2025-05-16,タミユ合同会社,,合同会社,埼玉県,日高市,大字旭ケ丘１０３番地１０,,11,242,3501203,,,,,,,2025-05-16,1,,,,,タミユ,0
2137,8040001138811,新規,0,2025-05-16,2025-05-16,株式会社チアーズ,,株式会社,千葉県,千葉市花見川区,幕張町４丁目７９９番地４,,12,102,2620032,,,,,,,2025-05-16,1,,,,,チアーズ,0
2138,8040001138844,新規,0,2025-05-16,2025-05-16,株式会社クリーンユアライフ,,株式会社,千葉県,千葉市美浜区,稲毛海岸５丁目２８番１号ルネ稲毛海岸グランマークス２３３号,,12,106,2610005,,,,,,,2025-05-16,1,,,,,クリーンユアライフ,0
2140,8040003027509,新規,0,2025-05-16,2025-05-16,合同会社Ｔ８,,合同会社,千葉県,市川市,南行徳３丁目１番６号,,12,203,2720138,,,,,,,2025-05-16,1,,,,,ティーエイト,0
2141,8040003027599,新規,0,2025-05-16,2025-05-16,ＫＡＤＯナノ光テックジャパン合同会社,,合同会社,千葉県,野田市,山崎１４１１番地の４０,,12,208,2780022,,,,,,,2025-05-16,1,,,,,カドナノヒカリテックジャパン,0
2143,8050001056698,新規,0,2025-05-16,2025-05-16,華栖株式会社,,株式会社,茨城県,神栖市,太田３１３５－５,,08,232,3140254,,,,,,,2025-05-16,1,,,,,カセイ,0
2144,8050003009241,新規,0,2025-05-16,2025-05-16,河内ＰＲラボ合同会社,,合同会社,茨城県,稲敷郡河内町,古河林３９４－１,,08,447,3001322,,,,,,,2025-05-16,1,,,,,カワチピーアールラボ,0
2148,8060001038200,新規,0,2025-05-16,2025-05-16,株式会社ＭＡＲＫＳ　ＨＡＮＤＲＥＤ　ＢＲＯＴＨＥＲＳ,,株式会社,栃木県,宇都宮市,上横田町２０１,,09,201,3210106,,,,,,,2025-05-16,1,,,,,マークスハンドレッドブラザーズ,0
2164,8090001019271,新規,0,2025-05-16,2025-05-16,株式会社メディカルワイ,,株式会社,山梨県,中央市,布施２７３２番地１,,19,214,4093841,,,,,,,2025-05-16,1,,,,,メディカルワイ,0
2168,8100003008163,新規,0,2025-05-16,2025-05-16,合同会社ＲＯＵＴＥ,,合同会社,長野県,松本市,本庄１丁目１３番９号,,20,202,3900814,,,,,,,2025-05-16,1,,,,,ルート,0
2170,8100005013351,新規,0,2025-05-16,2025-05-16,ＮＰＯ法人ＬＩＮＫＳ,,その他の設立登記法人,長野県,松本市,北深志３丁目９番６－３１２号ガーデンハイツ松本,,20,202,3900872,,,,,,,2025-05-16,1,,,,,リンクス,0
2187,8120001275753,新規,0,2025-05-16,2025-05-16,株式会社Ｇｒｅｅｎ　Ａｓｓｉｓｔ,,株式会社,大阪府,大阪市住之江区,北加賀屋５丁目５番７号,,27,125,5590011,,,,,,,2025-05-16,1,,,,,グリーンアシスト,0
2188,8120001275778,新規,0,2025-05-16,2025-05-16,＿岸貿易株式会社,00139193,株式会社,大阪府,大阪市東住吉区,北田辺４丁目６番８号,,27,121,5460044,,,,,,,2025-05-16,1,,,,,イクガンボウエキ,0
2189,8120001275794,新規,0,2025-05-16,2025-05-16,ウェルトランス株式会社,,株式会社,大阪府,大阪市淀川区,東三国１丁目７番５号２階１６号室,,27,123,5320002,,,,,,,2025-05-16,1,,,,,ウェルトランス,0
2190,8120001275828,新規,0,2025-05-16,2025-05-16,哲宇株式会社,00139196,株式会社,大阪府,大阪市都島区,中野町４丁目３番６号Ｈ２Ｈ大阪桜之宮邸３Ｃ－３,,27,102,5340027,,,,,,,2025-05-16,1,,,,,テツウ,0
2191,8120001275844,新規,0,2025-05-16,2025-05-16,株式会社ＴＦＬ,,株式会社,大阪府,大阪市中央区,内本町２丁目１番１９号内本町松屋ビル９２０号,,27,128,5400026,,,,,,,2025-05-16,1,,,,,ティーエフエル,0
2194,8120005024941,新規,0,2025-05-16,2025-05-16,一般社団法人ＪＨＫ情報福祉協会,,その他の設立登記法人,大阪府,大阪市北区,梅田１丁目２番２号大阪駅前第２ビル１２－１２,,27,127,5300001,,,,,,,2025-05-16,1,,,,,ジェイエイチケージョウホウフクシキョウカイ,0
2234,8180301039811,新規,0,2025-05-16,2025-05-16,株式会社三石林業,,株式会社,愛知県,豊橋市,馬見塚町１番地１,,23,201,4418007,,,,,,,2025-05-16,1,,,,,ミツイシリンギョウ,0
2245,8220001026683,新規,0,2025-05-16,2025-05-16,株式会社大藤建設,,株式会社,石川県,能美市,大浜町マ１５３番地３,,17,211,9290122,,,,,,,2025-05-16,1,,,,,オオフジケンセツ,0
2286,8330001033207,新規,0,2025-05-16,2025-05-16,フレッシュ・フィールド株式会社,,株式会社,熊本県,熊本市東区,月出２丁目１番３５号,,43,102,8620920,,,,,,,2025-05-16,1,,,,,フレッシュフィールド,0
2292,8360003014929,新規,0,2025-05-16,2025-05-16,琉球ヘルスパートナーズ合同会社,,合同会社,沖縄県,沖縄市,宮里４丁目２２番８号,,47,211,9042165,,,,,,,2025-05-16,1,,,,,リュウキュウヘルスパートナーズ,0
2295,8380001035322,新規,0,2025-05-16,2025-05-16,株式会社Ｔｏｍｉｔｏｍｉファーム,,株式会社,福島県,喜多方市,松山町村松字常盤町２６８１番地,,07,208,9660902,,,,,,,2025-05-16,1,,,,,トミトミファーム,0
2296,8380003006040,新規,0,2025-05-16,2025-05-16,合同会社Ｐｏｐｏｌａ,,合同会社,福島県,須賀川市,向陽町４４５番地,,07,207,9620401,,,,,,,2025-05-16,1,,,,,ポポラ,0
2300,8400003003456,新規,0,2025-05-16,2025-05-16,ＫｉＮＥＮ合同会社,,合同会社,岩手県,盛岡市,浅岸２丁目３番２８号,,03,201,0200801,,,,,,,2025-05-16,1,,,,,キネン,0
2301,8420001019147,新規,0,2025-05-16,2025-05-16,株式会社ＴＡＫＵＭＩ,,株式会社,青森県,上北郡七戸町,字作田道４９番地４,,02,402,0392845,,,,,,,2025-05-16,1,,,,,タクミ,0
2302,8420003003116,新規,0,2025-05-16,2025-05-16,ｅ‐Ｌａ合同会社,,合同会社,青森県,むつ市,昭和町９番２８号小枝アパート２号,,02,208,0350052,,,,,,,2025-05-16,1,,,,,イーラ,0
2306,8430003017651,新規,0,2025-05-16,2025-05-16,合同会社マストサービス,,合同会社,北海道,北広島市,大曲並木３丁目１１番地１４,,01,234,0611279,,,,,,,2025-05-16,1,,,,,マストサービス,0
2309,8470001020711,新規,0,2025-05-16,2025-05-16,株式会社キートス,,株式会社,香川県,高松市,高松町４８２番地,,37,201,7610104,,,,,,,2025-05-16,1,,,,,キートス,0
2312,8470005006624,新規,0,2025-05-16,2025-05-16,一般社団法人かねま,,その他の設立登記法人,香川県,高松市,東田町１番地３,,37,201,7600058,,,,,,,2025-05-16,1,,,,,カネマ,0
2315,8700150130527,新規,0,2025-05-16,2025-05-16,ＥＰＩＣ　ＡＵＴＯ　ＥＮＴＥＲＰＲＩＳＥＳ,,外国会社等,千葉県,富里市,十倉９０４番地４３十倉オフィス２,,12,233,2860212,スリランカ民主社会主義共和国、トリンコマリー、ムッリポタナ、Ｎｏ．３４１．ユニット７,,,,,,2025-05-16,1,,,,,エピツクオートエンタープライズ,0
2322,9010001254817,新規,0,2025-05-16,2025-05-16,株式会社廣済堂出版,,株式会社,東京都,千代田区,神田小川町２丁目３番１３号Ｍ＆Ｃビル７階,,13,101,1010052,,,,,,,2025-05-16,1,,,,,コウサイドウシュッパン,0
2323,9010001254981,新規,0,2025-05-16,2025-05-16,ＴＣＧ２５０４株式会社,,株式会社,東京都,千代田区,丸の内１丁目５番１号,,13,101,1000005,,,,,,,2025-05-16,1,,,,,ティーシージーニーゴーゼロヨン,0
2324,9010001255096,新規,0,2025-05-16,2025-05-16,ダイヤリシュブール株式会社,,株式会社,東京都,千代田区,丸の内１丁目５番１号,,13,101,1000005,,,,,,,2025-05-16,1,,,,,ダイヤリシュブール,0
2326,9010003047310,新規,0,2025-05-16,2025-05-16,合同会社ＫＡＷＡＺＯＥ,,合同会社,東京都,中央区,日本橋横山町９番１４－５０４号,,13,102,1030003,,,,,,,2025-05-16,1,,,,,カワゾエ,0
2327,9010003047368,新規,0,2025-05-16,2025-05-16,Ｇｌｏｂａｌｐｒｏ合同会社,,合同会社,東京都,千代田区,麹町２丁目２番２２号（Ｃ／ＯＪｏｏ－ｒｅａｌｅｓｔａｔｅ－ｏｆｆｉｃｅ）,,13,101,1020083,,,,,,,2025-05-16,1,,,,,グローバルプロ,0
2331,9010005040049,新規,0,2025-05-16,2025-05-16,社会保険労務士法人山根事務所,,その他の設立登記法人,東京都,千代田区,神田淡路町１丁目１７番１４号,,13,101,1010063,,,,,,,2025-05-16,1,,,,,ヤマネジムショ,0
2338,9010401190315,新規,0,2025-05-16,2025-05-16,インデントジャパン株式会社,,株式会社,東京都,港区,南青山２丁目２番１５号ウィン青山１２１４号,,13,103,1070062,,,,,,,2025-05-16,1,,,,,インデントジャパン,0
2339,9010401190348,新規,0,2025-05-16,2025-05-16,株式会社レオッシュ,,株式会社,東京都,港区,浜松町２丁目２番１５号浜松町ダイヤビル２Ｆ,,13,103,1050013,,,,,,,2025-05-16,1,,,,,レオッシュ,0
2342,9010403035096,新規,0,2025-05-16,2025-05-16,合同会社Ｒｅａｌ　Ｐｏｃｋｅｔ　ＪＰ,,合同会社,東京都,港区,北青山１丁目３番１号アールキューブ青山３階,,13,103,1070061,,,,,,,2025-05-16,1,,,,,リアルポケットジェイピー,0
2343,9010403035113,新規,0,2025-05-16,2025-05-16,白山土地合同会社,,合同会社,東京都,港区,六本木３丁目２番１号六本木グランドタワー,,13,103,1060032,,,,,,,2025-05-16,1,,,,,ハクサントチ,0
2344,9010405024320,新規,0,2025-05-16,2025-05-16,特定非営利活動法人元結,,その他の設立登記法人,東京都,港区,南麻布２丁目８番２１－４０１号,,13,103,1060047,,,,,,,2025-05-16,1,,,,,モットイ,0
2346,9010603011533,新規,0,2025-05-16,2025-05-16,Ｌｅｙｎａ　Ｔｏｋｙｏ　Ｐｒｏｄｕｃｔｉｏｎｓ合同会社,,合同会社,東京都,墨田区,太平３丁目１１番２号赤井ビル３階３０２号室,,13,107,1300012,,,,,,,2025-05-16,1,,,,,レナトーキョープロダクションズ,0
2347,9010605004460,新規,0,2025-05-16,2025-05-16,一般財団法人普回向,,その他の設立登記法人,東京都,江東区,平野２丁目１１番１９－５０１号,,13,108,1350023,,,,,,,2025-05-16,1,,,,,フエコウ,0
2349,9010801036159,新規,0,2025-05-16,2025-05-16,リンクバンク株式会社,,株式会社,東京都,大田区,蒲田５丁目７番８号９階,,13,111,1440052,,,,,,,2025-05-16,1,,,,,リンクバンク,0
2356,9011001169468,新規,0,2025-05-16,2025-05-16,株式会社ＣｙｂｅｒＡｇｅｎｔ　Ｃａｒｄ,,株式会社,東京都,渋谷区,宇田川町４０番１号,,13,113,1500042,,,,,,,2025-05-16,1,,,,,サイバーエージェントカード,0
2357,9011001169609,新規,0,2025-05-16,2025-05-16,株式会社Ｓｔｅｌｌａｒ　Ｇｌｏｂａｌ　Ｒｅａｌｔｙ,,株式会社,東京都,目黒区,鷹番３丁目２１番２１号,,13,110,1520004,,,,,,,2025-05-16,1,,,,,ステラーグローバルリアルティ,0
2361,9011101111726,新規,0,2025-05-16,2025-05-16,株式会社ホクト,,株式会社,東京都,新宿区,百人町１丁目１番８号リープ新宿２０３,,13,104,1690073,,,,,,,2025-05-16,1,,,,,ホクト,0
2363,9011103015818,新規,0,2025-05-16,2025-05-16,ＪＩＥ合同会社,,合同会社,東京都,新宿区,下落合２丁目６番３号ＵＹＯ高田馬場ザ・レジデンス３０２号,,13,104,1610033,,,,,,,2025-05-16,1,,,,,ジェイアイイー,0
2371,9011601028651,新規,0,2025-05-16,2025-05-16,ランドビジョン株式会社,,株式会社,東京都,練馬区,貫井１丁目４２番１３号,,13,120,1760021,,,,,,,2025-05-16,1,,,,,ランドビジョン,0
2380,9013101009693,新規,0,2025-05-16,2025-05-16,株式会社西尾住建,,株式会社,東京都,あきる野市,野辺５７２番地１クレールメゾン１０２,,13,228,1970823,,,,,,,2025-05-16,1,,,,,ニシオジュウケン,0
2381,9013301054218,新規,0,2025-05-16,2025-05-16,株式会社ＲＩＳＣＡＰＥ,,株式会社,東京都,豊島区,東池袋２丁目６０番２号池袋パークハイツ２階０３号室,,13,116,1700013,,,,,,,2025-05-16,1,,,,,リスケープ,0
2389,9020001162580,新規,0,2025-05-16,2025-05-16,六和株式会社,,株式会社,神奈川県,横浜市保土ケ谷区,帷子町１丁目３０－３サイレンスバレス４０１号室,,14,106,2400013,,,,,,,2025-05-16,1,,,,,ロクワ,0
2391,9020003028391,新規,0,2025-05-16,2025-05-16,ドリーム合同会社,,合同会社,神奈川県,横浜市鶴見区,汐入町３丁目５１番地２７,,14,101,2300043,,,,,,,2025-05-16,1,,,,,ドリーム,0
2392,9020003028508,新規,0,2025-05-16,2025-05-16,合同会社ＳＨＩＢＡＴＡ　ＡＲＴ,,合同会社,神奈川県,川崎市宮前区,小台２丁目１１番地７　第３桔梗ビル４０８,,14,136,2160007,,,,,,,2025-05-16,1,,,,,シバタアート,0
2394,9020005016865,新規,0,2025-05-16,2025-05-16,一般社団法人香和会,,その他の設立登記法人,神奈川県,横浜市栄区,上郷町１３６９番地の３,,14,115,2470013,,,,,,,2025-05-16,1,,,,,コウワカイ,0
2401,9021003016015,新規,0,2025-05-16,2025-05-16,合同会社ＮＲＳ　ｌｏｇｒｏ,,合同会社,神奈川県,平塚市,徳延７６４番地の３,,14,203,2540902,,,,,,,2025-05-16,1,,,,,エヌアールエスログロ,0
2407,9030001166498,新規,0,2025-05-16,2025-05-16,家安株式会社,,株式会社,埼玉県,川口市,朝日２丁目１８番１５号,,11,203,3320001,,,,,,,2025-05-16,1,,,,,カアン,0
2408,9030001166556,新規,0,2025-05-16,2025-05-16,株式会社Ｒｅ．,,株式会社,埼玉県,幸手市,東３丁目２１－２９,,11,240,3400114,,,,,,,2025-05-16,1,,,,,アールイー,0
2409,9030001166564,新規,0,2025-05-16,2025-05-16,株式会社戸塚中央,,株式会社,埼玉県,さいたま市大宮区,北袋町１丁目６０１番地１Ｃ４４１,,11,103,3300835,,,,,,,2025-05-16,1,,,,,トツカチュウオウ,0
2414,9040001138777,新規,0,2025-05-16,2025-05-16,８８ｓｅａｓｏｎｓ株式会社,,株式会社,千葉県,市川市,八幡６丁目３０番７号,,12,203,2720021,,,,,,,2025-05-16,1,,,,,ハチハチシーズンズ,0
2415,9040001138785,新規,0,2025-05-16,2025-05-16,株式会社ＦＡＲＳＡ,,株式会社,千葉県,松戸市,古ケ崎１９２番地の６,,12,207,2710068,,,,,,,2025-05-16,1,,,,,ファルサ,0
2416,9040001138802,新規,0,2025-05-16,2025-05-16,株式会社アンジール,,株式会社,千葉県,船橋市,本中山６丁目１１番８号,,12,204,2730035,,,,,,,2025-05-16,1,,,,,アンジール,0
2417,9040001138810,新規,0,2025-05-16,2025-05-16,高安瓦店株式会社,00139186,株式会社,千葉県,香取郡東庄町,新宿６３５番地,,12,349,2890611,,,,,,,2025-05-16,1,,,,,タカヤスカワラテン,0
2419,9040003027573,新規,0,2025-05-16,2025-05-16,Ｍｏａｎａ合同会社,,合同会社,千葉県,印西市,大塚３丁目４３番地４,,12,231,2701352,,,,,,,2025-05-16,1,,,,,モアナ,0
2420,9040003027581,新規,0,2025-05-16,2025-05-16,Ｓｅｂｕｒｏ合同会社,,合同会社,千葉県,八千代市,大和田新田５０７番地２８,,12,221,2760046,,,,,,,2025-05-16,1,,,,,セブロ,0
2422,9050001056697,新規,0,2025-05-16,2025-05-16,Ｕｓｍｉｌｅ株式会社,,株式会社,茨城県,牛久市,女化町８７２番地１,,08,219,3001214,,,,,,,2025-05-16,1,,,,,ユースマイル,0
2424,9050003009257,新規,0,2025-05-16,2025-05-16,ＡＳＡＤ　ＴＲＡＤＩＮＧ合同会社,,合同会社,茨城県,古河市,長左エ門新田９５５番地３１,,08,204,3060103,,,,,,,2025-05-16,1,,,,,アサドトレーディング,0
2425,9050003009281,新規,0,2025-05-16,2025-05-16,光里カンパニー合同会社,,合同会社,茨城県,守谷市,薬師台４丁目７番地７,,08,224,3020105,,,,,,,2025-05-16,1,,,,,ヒカリカンパニー,0
2437,9100001038582,新規,0,2025-05-16,2025-05-16,Ｅｔｅｒｎａ株式会社,,株式会社,長野県,北佐久郡軽井沢町,大字発地１４２４番地３４,,20,321,3890113,,,,,,,2025-05-16,1,,,,,エテルナ,0
2448,9120001275249,新規,0,2025-05-16,2025-05-16,株式会社啓浩,,株式会社,大阪府,大阪市西成区,萩之茶屋１丁目１２－７万葉ビル２階１５号室,,27,122,5570004,,,,,,,2025-05-16,1,,,,,ケイコウ,0
2449,9120001275645,新規,0,2025-05-16,2025-05-16,株式会社上手興業,,株式会社,大阪府,大阪市福島区,大開１丁目１３番３５号４階,,27,103,5530007,,,,,,,2025-05-16,1,,,,,ウワテコウギョウ,0
2450,9120001275661,新規,0,2025-05-16,2025-05-16,株式会社Ｂｉｒｔｈ,,株式会社,大阪府,大阪市淀川区,宮原１丁目１７番３３号北沢産業ビル３Ｆ,,27,123,5320003,,,,,,,2025-05-16,1,,,,,バース,0
2451,9120001275736,新規,0,2025-05-16,2025-05-16,株式会社ＵＮＩＣＯＮＴＳ,,株式会社,大阪府,大阪市西成区,鶴見橋３丁目６－２０,,27,122,5570031,,,,,,,2025-05-16,1,,,,,ユニコーン,0
2452,9120001275752,新規,0,2025-05-16,2025-05-16,株式会社Ｈｅｒｏｎ　Ｊａｐａｎ,,株式会社,大阪府,大阪市北区,梅田２丁目２－２ヒルトンプラザウエストオフィスタワー１９階,,27,127,5300001,,,,,,,2025-05-16,1,,,,,ヘロンジャパン,0
2453,9120001275760,新規,0,2025-05-16,2025-05-16,原心株式会社,,株式会社,大阪府,大阪市中央区,松屋町９番２０号ローレルステート松屋町６０６Ａ,,27,128,5420067,,,,,,,2025-05-16,1,,,,,ゲンシン,0
2454,9120001275777,新規,0,2025-05-16,2025-05-16,瑞安国際株式会社,,株式会社,大阪府,大阪市城東区,中浜３丁目２５番１５－３Ｂ,,27,118,5360024,,,,,,,2025-05-16,1,,,,,ズイアンコクサイ,0
2455,9120001275785,新規,0,2025-05-16,2025-05-16,株式会社ＡｃｃｏｒｄＳｙｓｔｅｍ,,株式会社,大阪府,枚方市,長尾台２丁目２９番１３号,,27,210,5730106,,,,,,,2025-05-16,1,,,,,アコードシステム,0
2456,9120001275843,新規,0,2025-05-16,2025-05-16,興合株式会社,,株式会社,大阪府,大阪市住吉区,長居西２丁目８番１２号１Ｆ,,27,120,5580002,,,,,,,2025-05-16,1,,,,,コウゴウ,0
2457,9120001275851,新規,0,2025-05-16,2025-05-16,ＳＰＭ国際株式会社,,株式会社,大阪府,大阪市西成区,北津守４丁目４番７５－２９号,,27,122,5570061,,,,,,,2025-05-16,1,,,,,エスピーエムコクサイ,0
2460,9120003029413,新規,0,2025-05-16,2025-05-16,合同会社サンリット,,合同会社,大阪府,大阪市東住吉区,杭全８丁目７番３０号,,27,121,5460002,,,,,,,2025-05-16,1,,,,,サンリット,0
2461,9120003029446,新規,0,2025-05-16,2025-05-16,合同会社グルーオン,,合同会社,大阪府,大阪市北区,天神橋４丁目１０－２１,,27,127,5300041,,,,,,,2025-05-16,1,,,,,グルーオン,0
2470,9122001039220,新規,0,2025-05-16,2025-05-16,弥生福祉株式会社,,株式会社,大阪府,柏原市,安堂町１１－１１（１階）,,27,221,5820016,,,,,,,2025-05-16,1,,,,,ヤヨイフクシ,0
2481,9140001138585,新規,0,2025-05-16,2025-05-16,株式会社神弘建設,,株式会社,兵庫県,神戸市長田区,雲雀ヶ丘３丁目６番１－２０３号,,28,106,6530879,,,,,,,2025-05-16,1,,,,,シンコウケンセツ,0
2483,9140003022085,新規,0,2025-05-16,2025-05-16,メソポタミアインターナショナル合同会社,,合同会社,兵庫県,神戸市灘区,鶴甲１丁目５番３－１００５号,,28,102,6570011,,,,,,,2025-05-16,1,,,,,メソポタミアインターナショナル,0
2484,9150001028125,新規,0,2025-05-16,2025-05-16,株式会社佐藤商店,,株式会社,奈良県,橿原市,山之坊町５１４番地,,29,205,6340071,,,,,,,2025-05-16,1,,,,,サトウショウテン,0
2485,9150005009699,新規,0,2025-05-16,2025-05-16,特定非営利活動法人吉野龍門が生んだ詩人池田克己顕彰会,,その他の設立登記法人,奈良県,吉野郡吉野町,大字平尾２８２,,29,441,6393103,,,,,,,2025-05-16,1,,,,,ヨシノリュウモンガウンダシジンイケダカツミケンショウカイ,0
2497,9180003028475,新規,0,2025-05-16,2025-05-16,ヌースコア合同会社,,合同会社,愛知県,瀬戸市,東本町１丁目７番地の３,,23,204,4890816,,,,,,,2025-05-16,1,,,,,ヌースコア,0
2498,9180005021098,新規,0,2025-05-16,2025-05-16,特定非営利活動法人共生,,その他の設立登記法人,愛知県,名古屋市緑区,浦里３丁目２８８番地,,23,114,4580847,,,,,,,2025-05-16,1,,,,,トモイキ,0
2500,9180301039810,新規,0,2025-05-16,2025-05-16,株式会社ＡＫＩＮＯ,,株式会社,愛知県,豊橋市,西高師町字白山７４番地１,,23,201,4418154,,,,,,,2025-05-16,1,,,,,アキノ,0
2504,9200001043795,新規,0,2025-05-16,2025-05-16,株式会社タラナ,,株式会社,岐阜県,本巣市,屋井４４９番地４,,21,218,5010417,,,,,,,2025-05-16,1,,,,,タラナ,0
2527,9250001021152,新規,0,2025-05-16,2025-05-16,株式会社ユニバース,,株式会社,山口県,下関市,椋野町３丁目１０－１６,,35,201,7510816,,,,,,,2025-05-16,1,,,,,ユニバース,0
2531,9270001009204,新規,0,2025-05-16,2025-05-16,株式会社ＯＮＥ‐ＮＥＸＴ　ＨＯＬＤＩＮＧＳ,,株式会社,鳥取県,米子市,東福原５丁目６番１０号,,31,202,6830802,,,,,,,2025-05-16,1,,,,,ワンネクストホールディングス,0
2539,9290001109919,新規,0,2025-05-16,2025-05-16,株式会社Ｔｉｍｅｌｅｓｓ　Ｂｏｎｄ,,株式会社,福岡県,福岡市南区,高宮１丁目６番３号フィレンツェ平尾７０２,,40,134,8150083,,,,,,,2025-05-16,1,,,,,,0
2540,9290001109943,新規,0,2025-05-16,2025-05-16,株式会社リックエステート,,株式会社,福岡県,古賀市,日吉２丁目１６番７号,,40,223,8113106,,,,,,,2025-05-16,1,,,,,リックエステート,0
2541,9290001110075,新規,0,2025-05-16,2025-05-16,株式会社Ｂｕｉｌｄ,,株式会社,福岡県,福岡市中央区,地行４丁目１１－３１,,40,133,8100064,,,,,,,2025-05-16,1,,,,,ビルド,0
2545,9290005019750,新規,0,2025-05-16,2025-05-16,一般社団法人柳色,00139185,その他の設立登記法人,福岡県,糸島市,志摩芥屋１７７０－１６,,40,230,8191335,,,,,,,2025-05-16,1,,,,,ヤナギイロ,0
2556,9350001019533,新規,0,2025-05-16,2025-05-16,株式会社プレミアムエクスプライス,,株式会社,宮崎県,宮崎市,高千穂通１丁目５－１,,45,201,8800812,,,,,,,2025-05-16,1,,,,,プレミアムエクスプライス,0
2559,9360005007236,新規,0,2025-05-16,2025-05-16,一般社団法人琉球迦陵頻伽,,その他の設立登記法人,沖縄県,那覇市,松川３丁目３番１号プラウド３３１、８－Ｃ,,47,201,9020062,,,,,,,2025-05-16,1,,,,,リュウキュウカリョウビンガ,0
2564,9380001035321,新規,0,2025-05-16,2025-05-16,株式会社ＦＡＩＺ　ＴＲＡＤＩＮＧ,,株式会社,福島県,白河市,五番町川原９５番地１酒巻コーポＤ－１０,,07,205,9610076,,,,,,,2025-05-16,1,,,,,ファイズトレーディング,0
2584,9700150121748,新規,0,2025-05-16,2025-05-16,Ｚｈｅ　Ｊｉａｎｇ　Ｊｉｎｇ　Ｊｕｅ　Ｄｉａｎ　Ｚｉ　Ｓｈａｎｇ　Ｗｕ　Ｃｏ．，Ｌｔｄ,,外国会社等,,,,,,,,Ｘｉｈｕ　Ｄｉｓｔｒｉｃｔ　Ｘｉｘｉ　Ｓｔｒｅｅｔ　Ｌａｎｔｉｎｇ　Ｄｅｐａｒｔｍｅｎｔ　２ー４０１　Ｈａｎｇｚｈｏｕ　Ｚｈｅｊｉａｎｇ　Ｐｒｏｖｉｎｃｅ　３１０００５　ＣＮ,,,,,,2025-05-16,1,,,,,チエジエンジンジユエデイエンツシヤンウカンパニーリミテツド,0
2585,9700150130526,新規,0,2025-05-16,2025-05-16,ＡＵＴＯ　ＡＲＲＯＷ　ＥＮＴＥＲＰＲＩＳＥＳ,,外国会社等,千葉県,八街市,文違３０１番地２１１３－１,,12,230,2891104,スリランカ民主社会主義共和国、キャンディ、カツガストタロード、Ｎｏ．２９１／Ａ,,,,,,2025-05-16,1,,,,,オートアローエンタープライズ,0
