sequenceNumber,corporateNumber,process,correct,updateDate,changeDate,name,nameImageId,kind,prefectureName,cityName,streetNumber,addressImageId,prefectureCode,cityCode,postCode,addressOutside,addressOutsideImageId,closeDate,closeCause,successorCorporateNumber,changeCause,assignmentDate,latest,enName,enPrefectureName,enCityName,enAddressOutside,furigana,hihyoji
11,1010005027524,登記記録の閉鎖等,0,2022-03-17,2022-03-15,一般社団法人ＩＷＫ８０２,,その他の設立登記法人,東京都,千代田区,有楽町１丁目２番２号,,13,101,1000006,,,2022-03-15,清算の結了等,,,2017-09-28,1,,,,,アイダブリューケーハチマルニ,0
18,1010403018455,登記記録の閉鎖等,0,2022-03-17,2022-03-09,Ｎ３　Ｒｅｓｕｌｔｓ　Ｊａｐａｎ合同会社,,合同会社,東京都,中央区,日本橋室町４丁目３番９号,,13,102,1030022,,,2022-03-09,合併による解散等,7010401001556,令和４年３月１日東京都港区赤坂一丁目８番１号アクセンチュア株式会社（7010401001556）に合併し解散,2018-04-18,1,,,,,エヌスリーリゾルツジャパン,0
19,1010403020279,登記記録の閉鎖等,0,2022-03-17,2022-03-14,合同会社ＢＬＵＥ　ＲＩＳＥ,,合同会社,東京都,港区,浜松町２丁目２番１５号浜松町ダイヤビル２Ｆ,,13,103,1050013,,,2022-03-14,清算の結了等,,,2019-02-28,1,,,,,ブルーライズ,0
89,1030002004169,登記記録の閉鎖等,0,2022-03-17,2022-03-14,有限会社キャッツメイク,,有限会社,埼玉県,さいたま市大宮区,大門町３丁目６番地,,11,103,3300846,,,2022-03-14,清算の結了等,,,2015-10-05,1,,,,,キャッツメイク,0
115,1100002015308,登記記録の閉鎖等,0,2022-03-17,2022-03-15,有限会社グローアップ,,有限会社,長野県,上田市,中央１丁目３番１０号,,20,203,3860012,,,2022-03-15,清算の結了等,,,2015-10-05,1,,,,,グローアップ,0
121,1120001001397,登記記録の閉鎖等,0,2022-03-17,2022-03-11,日本美術印刷株式会社,,株式会社,大阪府,大阪市旭区,中宮３丁目１５番２１号,,27,117,5350003,,,2022-03-11,清算の結了等,,,2015-10-05,1,,,,,ニホンビジュツインサツ,0
126,1120001166604,登記記録の閉鎖等,0,2022-03-17,2022-03-10,株式会社日本アルーア,,株式会社,東京都,港区,高輪４丁目２３番６－３０５号,,13,103,1080074,,,2022-03-10,清算の結了等,,,2015-10-05,1,,,,,ニホンアルーア,0
141,1140001078723,登記記録の閉鎖等,0,2022-03-17,2022-03-15,株式会社日本集塵機製作所,,株式会社,兵庫県,伊丹市,伊丹８丁目５番７号,,28,207,6640846,,,2022-03-15,清算の結了等,,,2015-10-05,1,,,,,ニホンシュウジンキセイサクショ,0
158,1180001146807,登記記録の閉鎖等,0,2022-03-17,2022-03-02,株式会社ＭＲＹ,,株式会社,愛知県,名古屋市中村区,名駅３丁目２６番８号,,23,105,4500002,,,2022-03-02,清算の結了等,,,2021-07-05,1,,,,,エムアールワイ,0
164,1180302024455,登記記録の閉鎖等,0,2022-03-17,2022-03-15,有限会社鈴木牛乳販売店,,有限会社,愛知県,豊田市,小原町姥ケ入５８９番地,,23,211,4700531,,,2022-03-15,清算の結了等,,,2015-10-05,1,,,,,スズキギュウニュウハンバイテン,0
168,1190002014086,登記記録の閉鎖等,0,2022-03-17,2022-03-15,茶惣土地有限会社,,有限会社,三重県,松阪市,五月町１３８８番地の１,,24,204,5150065,,,2022-03-15,清算の結了等,,,2015-10-05,1,,,,,チャソウトチ,0
169,1200005004215,登記記録の閉鎖等,0,2022-03-17,2022-03-16,医療法人社団紫水会,,その他の設立登記法人,岐阜県,不破郡関ケ原町,大字関ケ原３２４５番地,,21,362,5031501,,,2022-03-16,清算の結了等,,,2015-10-05,1,,,,,シスイカイ,0
174,1220002004224,登記記録の閉鎖等,0,2022-03-17,2022-03-14,有限会社鹿屋建設,,有限会社,石川県,白山市,鹿島町い１７８番地,,17,210,9290201,,,2022-03-14,清算の結了等,,,2015-10-05,1,,,,,カノヤケンセツ,0
212,1410001009576,登記記録の閉鎖等,0,2022-03-17,2022-03-11,株式会社サクラエージェンシー,,株式会社,秋田県,秋田市,川尻上野町１番５６号,,05,201,0100947,,,2022-03-11,清算の結了等,,,2015-10-05,1,,,,,,0
221,1430005004992,登記記録の閉鎖等,0,2022-03-17,2022-03-14,特定非営利活動法人水と健康スポーツ医学研究所,,その他の設立登記法人,北海道,札幌市南区,中ノ沢１丁目１２番２号,,01,106,0050831,,,2022-03-14,清算の結了等,,,2015-10-05,1,,,,,ミズトケンコウスポーツイガクケンキュウショ,0
222,1450001007007,登記記録の閉鎖等,0,2022-03-17,2022-03-16,株式会社塗装工房タグ,,株式会社,北海道,旭川市,五条西７丁目１番２号,,01,204,0700055,,,2022-03-16,清算の結了等,,,2015-10-05,1,,,,,,0
232,2010001204836,登記記録の閉鎖等,0,2022-03-17,2022-03-08,株式会社山崎ソリューション,,株式会社,東京都,千代田区,神田佐久間町３丁目３８番地第五東ビル５Ｆ,,13,101,1010025,,,2022-03-08,清算の結了等,,,2019-10-25,1,,,,,ヤマサキソリューション,0
257,2010702015251,登記記録の閉鎖等,0,2022-03-17,2022-03-10,有限会社エム・エル・ディ・ティ・アイ・エス,,有限会社,東京都,中央区,銀座８丁目１３番１号,,13,102,1040061,,,2022-03-10,清算の結了等,,,2015-10-05,1,,,,,エムエルディティアイエス,0
261,2010901028599,登記記録の閉鎖等,0,2022-03-17,2022-03-14,株式会社ＴＩＭＥ－ＳＨＩＦＴ,,株式会社,東京都,世田谷区,砧８丁目３０番５号,,13,112,1570073,,,2022-03-14,清算の結了等,,,2015-10-05,1,,,,,タイムシフト,0
287,2020001065823,登記記録の閉鎖等,0,2022-03-17,2022-03-14,株式会社アイ・エス・エス,,株式会社,神奈川県,横浜市都筑区,牛久保３丁目９番２号,,14,118,2240012,,,2022-03-14,清算の結了等,,,2015-10-05,1,,,,,アイエスエス,0
289,2020001126195,登記記録の閉鎖等,0,2022-03-17,2022-03-09,日興テクノロジー株式会社,,株式会社,東京都,中央区,銀座１丁目２２番１１号銀座大竹ビジデンス２Ｆ,,13,102,1040061,,,2022-03-09,清算の結了等,,,2018-05-08,1,,,,,ニッコウテクノロジー,0
293,2020002024373,登記記録の閉鎖等,0,2022-03-17,2022-03-14,有限会社東洋印刷,,有限会社,神奈川県,横浜市旭区,川井本町８５番地の１,,14,112,2410803,,,2022-03-14,清算の結了等,,,2015-10-05,1,,,,,トウヨウインサツ,0
302,2030001055484,登記記録の閉鎖等,0,2022-03-17,2022-03-11,株式会社ふじ教育センター,,株式会社,埼玉県,川越市,大字大仙波９７２番地９,,11,201,3500032,,,2022-03-11,清算の結了等,,,2015-10-05,1,,,,,フジキョウイクセンター,0
310,2030002108258,登記記録の閉鎖等,0,2022-03-17,2022-03-14,有限会社吉原製作所,,有限会社,埼玉県,川口市,青木３丁目２３番５号,,11,203,3320031,,,2022-03-14,清算の結了等,,,2015-10-05,1,,,,,ヨシハラセイサクショ,0
331,2080101006432,登記記録の閉鎖等,0,2022-03-17,2022-03-15,丸神食品株式会社,,株式会社,静岡県,田方郡函南町,肥田５１１番地の１,,22,325,4190125,,,2022-03-15,清算の結了等,,,2015-10-05,1,,,,,マルコーショクヒン,0
338,2100001030629,登記記録の閉鎖等,0,2022-03-17,2022-03-15,しなの観光株式会社,,株式会社,長野県,上水内郡信濃町,大字野尻３８８４番地１６７,,20,583,3891303,,,2022-03-15,清算の結了等,,,2017-09-20,1,,,,,シナノカンコウ,0
343,2120001007022,登記記録の閉鎖等,0,2022-03-17,2022-03-15,株式会社江尻組,,株式会社,大阪府,大阪市都島区,御幸町１丁目４番１２号,,27,102,5340012,,,2022-03-15,清算の結了等,,,2015-10-05,1,,,,,エジリグミ,0
373,2140001049582,登記記録の閉鎖等,0,2022-03-17,2022-03-14,第一不動産株式会社,,株式会社,兵庫県,尼崎市,七松町３丁目１７番２０号,,28,202,6600052,,,2022-03-14,清算の結了等,,,2015-10-05,1,,,,,ダイイチフドウサン,0
374,2140001050103,登記記録の閉鎖等,0,2022-03-17,2022-03-14,テック・プランニング株式会社,,株式会社,兵庫県,尼崎市,西難波町５丁目４番２７号,,28,202,6600893,,,2022-03-14,清算の結了等,,,2015-10-05,1,,,,,テックプランニング,0
383,2180001003734,登記記録の閉鎖等,0,2022-03-17,2022-03-14,萱場食品株式会社,,株式会社,愛知県,名古屋市千種区,萱場２丁目１１番１６号,,23,101,4640086,,,2022-03-14,清算の結了等,,,2015-10-05,1,,,,,カヤバショクヒン,0
394,2180002004649,登記記録の閉鎖等,0,2022-03-17,2022-03-14,有限会社龍美コーキング,,有限会社,愛知県,名古屋市千種区,今池１丁目２６番１８号,,23,101,4640850,,,2022-03-14,清算の結了等,,,2015-10-05,1,,,,,タツミコーキング,0
406,2200002014760,登記記録の閉鎖等,0,2022-03-17,2022-03-11,有限会社古川工業所,,有限会社,岐阜県,海津市,南濃町山崎９１５番地,,21,221,5030415,,,2022-03-11,清算の結了等,,,2015-10-05,1,,,,,フルカワコウギョウショ,0
427,2310002017959,登記記録の閉鎖等,0,2022-03-17,2022-03-16,有限会社白石工機商会,,有限会社,長崎県,島原市,西八幡町８４２５番地６,,42,203,8550835,,,2022-03-16,清算の結了等,,,2015-10-05,1,,,,,シライシコウキショウカイ,0
464,3010001036205,登記記録の閉鎖等,0,2022-03-17,2022-03-15,株式会社アールアンドシーツアーズ,,株式会社,東京都,品川区,東品川２丁目３番１１号,,13,109,1400002,,,2022-03-15,清算の結了等,,,2015-10-05,1,,,,,アールアンドシーツアーズ,0
469,3010001191289,登記記録の閉鎖等,0,2022-03-17,2022-03-07,株式会社ＡｔｏＺｔｏ,,株式会社,東京都,千代田区,神田三崎町２丁目４番１号,,13,101,1010061,,,2022-03-07,清算の結了等,,,2018-04-23,1,,,,,エートゥーズィートゥー,0
487,3010401152543,登記記録の閉鎖等,0,2022-03-17,2022-03-09,株式会社ブルーウインド,,株式会社,東京都,港区,六本木７丁目７番７号トライセブンロッポンギ８階,,13,103,1060032,,,2022-03-09,清算の結了等,,,2020-04-27,1,,,,,ブルーウインド,0
502,3010702015168,登記記録の閉鎖等,0,2022-03-17,2022-03-10,シアナスリース有限会社,,有限会社,東京都,中央区,銀座８丁目１３番１号,,13,102,1040061,,,2022-03-10,清算の結了等,,,2015-10-05,1,,,,,シアナスリース,0
516,3011001064451,登記記録の閉鎖等,0,2022-03-17,2022-03-08,株式会社スター,,株式会社,東京都,渋谷区,南平台町１２－１３秀和第二南平台レジデンス６Ｆ,,13,113,1500036,,,2022-03-08,清算の結了等,,,2015-10-05,1,,,,,,0
532,3011701002132,登記記録の閉鎖等,0,2022-03-17,2022-03-10,株式会社加藤輸機,,株式会社,東京都,江戸川区,松江１丁目１９番２３号,,13,123,1320025,,,2022-03-10,清算の結了等,,,2015-10-05,1,,,,,カトウユキ,0
545,3020001099151,登記記録の閉鎖等,0,2022-03-17,2022-03-08,パイオニアＯＬＥＤライティングデバイス株式会社,,株式会社,東京都,文京区,本駒込２丁目２８番８号,,13,105,1130021,,,2022-03-08,清算の結了等,,,2015-10-05,1,,,,,パイオニアオーレッドライティングデバイス,0
555,3030001030180,登記記録の閉鎖等,0,2022-03-17,2022-03-11,株式会社リアン,,株式会社,埼玉県,入間市,狭山台４丁目２番地７,,11,225,3580033,,,2022-03-11,清算の結了等,,,2015-10-05,1,,,,,リアン,0
556,3030001044486,登記記録の閉鎖等,0,2022-03-17,2022-03-14,株式会社三光,,株式会社,埼玉県,川越市,大字萱沼２６００番地１,,11,201,3500012,,,2022-03-14,合併による解散等,9070001026129,令和４年３月１日群馬県伊勢崎市西久保町三丁目１０５６番地１（１０２号）株式会社幸和工業（9070001026129）に合併し解散,2015-10-05,1,,,,,サンコウ,0
557,3030001083096,登記記録の閉鎖等,0,2022-03-17,2022-03-14,株式会社浦和スカット,,株式会社,埼玉県,川口市,川口５丁目９番３７号,,11,203,3320015,,,2022-03-14,清算の結了等,,,2015-10-05,1,,,,,ウラワスカット,0
584,3080102012172,登記記録の閉鎖等,0,2022-03-17,2022-03-15,有限会社上杉都市計画研究所,,有限会社,静岡県,三島市,西若町５番１１号,,22,206,4110038,,,2022-03-15,清算の結了等,,,2015-10-05,1,,,,,ウエスギトシケイカクケンキュウジョ,0
587,3110001015413,登記記録の閉鎖等,0,2022-03-17,2022-03-14,株式会社田上興産,,株式会社,新潟県,南蒲原郡田上町,大字田上丙１２６８番地,,15,361,9591502,,,2022-03-14,清算の結了等,,,2015-10-05,1,,,,,タガミコウサン,0
589,3110002005090,登記記録の閉鎖等,0,2022-03-17,2022-03-15,有限会社日商酒販,,有限会社,新潟県,新潟市東区,卸新町３丁目１６番地３１,,15,102,9500863,,,2022-03-15,清算の結了等,,,2015-10-05,1,,,,,ニッショウシュハン,0
604,3120005011481,登記記録の閉鎖等,0,2022-03-17,2022-03-14,特定非営利活動法人風,,その他の設立登記法人,大阪府,大阪市阿倍野区,昭和町１丁目８番８号,,27,119,5450011,,,2022-03-14,清算の結了等,,,2015-10-05,1,,,,,カゼ,0
652,3180003020719,登記記録の閉鎖等,0,2022-03-17,2022-03-09,ＫＵＫＩＴ合同会社,,合同会社,愛知県,名古屋市中区,栄５丁目２０－１９フローラル栄４０３,,23,106,4600008,,,2022-03-09,清算の結了等,,,2020-01-29,1,,,,,クキット,0
655,3180302017606,登記記録の閉鎖等,0,2022-03-17,2022-03-14,有限会社進藤製作所,,有限会社,愛知県,海部郡大治町,大字西條字松下１６番地,,23,424,4901144,,,2022-03-14,清算の結了等,,,2015-10-05,1,,,,,シンドウセイサクショ,0
673,3260005010890,登記記録の閉鎖等,0,2022-03-17,2022-03-16,一般社団法人ＭＡＰＯＦＢｌｏｃｋＣｈａｉｎ,,その他の設立登記法人,岡山県,岡山市北区,横井上１２８７－１,,33,101,7011145,,,2022-03-16,清算の結了等,,,2021-04-02,1,,,,,マップオブブロックチェーン,0
675,3280002004992,登記記録の閉鎖等,0,2022-03-17,2022-03-16,有限会社イヌヤマ・トータル企画,,有限会社,島根県,松江市,上乃木９丁目２２番１５号,,32,201,6900015,,,2022-03-16,清算の結了等,,,2015-10-05,1,,,,,,0
709,3380001032539,登記記録の閉鎖等,0,2022-03-17,2022-03-09,福央酒造株式会社,,株式会社,福島県,二本松市,亀谷１丁目２１３番地,,07,210,9640911,,,2022-03-09,清算の結了等,,,2022-02-14,1,,,,,,0
725,3430002017855,登記記録の閉鎖等,0,2022-03-17,2022-03-14,有限会社北栄サプライ,,有限会社,北海道,札幌市北区,屯田五条２丁目８番１６号,,01,102,0020855,,,2022-03-14,清算の結了等,,,2015-10-05,1,,,,,ホクエイサプライ,0
747,4010401087185,登記記録の閉鎖等,0,2022-03-17,2022-03-09,株式会社ＥＣコンサルカンパニー,,株式会社,東京都,港区,浜松町２丁目２番３号,,13,103,1050013,,,2022-03-09,清算の結了等,,,2015-10-05,1,,,,,イーシーコンサルカンパニー,0
757,4010501002481,登記記録の閉鎖等,0,2022-03-17,2022-03-15,株式会社上野商会,,株式会社,東京都,台東区,上野６丁目１０番１７号,,13,106,1100005,,,2022-03-15,合併による解散等,3010901033788,令和４年３月１日東京都港区北青山一丁目２番３号株式会社ＴＳＩ（3010901033788）に合併し解散,2015-10-05,1,,,,,ウエノショウカイ,0
786,4011101090974,登記記録の閉鎖等,0,2022-03-17,2022-03-10,株式会社日本不動産情報研究所,,株式会社,東京都,新宿区,新宿４丁目３番１７号,,13,104,1600022,,,2022-03-10,清算の結了等,,,2020-04-09,1,,,,,ニホンフドウサンジョウホウケンキュウジョ,0
803,4012303001570,登記記録の閉鎖等,0,2022-03-17,2022-03-04,合同会社フレンズ,,合同会社,東京都,町田市,小山ヶ丘１丁目１４番地１桜美林ガーデンヒルズＣ－２０４,,13,209,1940215,,,2022-03-04,清算の結了等,,,2021-08-10,1,,,,,フレンズ,0
808,4012402015455,登記記録の閉鎖等,0,2022-03-17,2022-03-14,有限会社ケン・ウッド,,有限会社,東京都,狛江市,岩戸北１丁目１番１－６０１号,,13,219,2010004,,,2022-03-14,清算の結了等,,,2015-10-05,1,,,,,ケンウッド,0
828,4020002051894,登記記録の閉鎖等,0,2022-03-17,2022-03-16,有限会社ティエスシステム,,有限会社,神奈川県,横浜市戸塚区,川上町４１５番地２光の街５２７号,,14,110,2440805,,,2022-03-16,清算の結了等,,,2015-10-05,1,,,,,ティエスシステム,0
859,4070001008593,登記記録の閉鎖等,0,2022-03-17,2022-03-15,株式会社本島,,株式会社,群馬県,前橋市,総社町総社２０４６番地１,,10,201,3710852,,,2022-03-15,合併による解散等,6070001000053,令和４年３月１５日群馬県前橋市総社町総社２０４６番地１株式会社ビービズ（6070001000053）に合併し解散,2015-10-05,1,,,,,モトジマ,0
874,4100001029982,登記記録の閉鎖等,0,2022-03-17,2022-03-15,フロントライン株式会社,,株式会社,長野県,長野市,広田４８番地,,20,201,3812213,,,2022-03-15,合併による解散等,2100001005432,令和４年２月２８日長野市広田４８番地プレステージ株式会社（2100001005432）に合併し解散,2017-02-06,1,,,,,フロントライン,0
875,4110001010727,登記記録の閉鎖等,0,2022-03-17,2022-03-15,株式会社Ｋ・Ｋコーポレーション,,株式会社,新潟県,新潟市東区,紫竹卸新町１９２７番地２４,,15,102,9500868,,,2022-03-15,清算の結了等,,,2015-10-05,1,,,,,ケーケーコーポレーション,0
877,4110002024271,登記記録の閉鎖等,0,2022-03-17,2022-03-10,有限会社サンライズサービス,,有限会社,新潟県,上越市,大潟区土底浜１９１２番地１,,15,222,9493112,,,2022-03-10,清算の結了等,,,2015-10-05,1,,,,,サンライズサービス,0
883,4120001183274,登記記録の閉鎖等,0,2022-03-17,2022-03-11,株式会社エイチ・ディベースモード,,株式会社,大阪府,大阪市北区,角田町８番７号,,27,127,5300017,,,2022-03-11,清算の結了等,,,2015-10-05,1,,,,,エイチディベースモード,0
886,4120001214756,登記記録の閉鎖等,0,2022-03-17,2022-03-14,キャロット株式会社,,株式会社,大阪府,東大阪市,布市町４丁目５番７号,,27,227,5798004,,,2022-03-14,清算の結了等,,,2018-07-20,1,,,,,キャロット,0
925,4140005020579,登記記録の閉鎖等,0,2022-03-17,2022-03-15,一般社団法人まんまるぅ,,その他の設立登記法人,兵庫県,神戸市東灘区,深江南町４丁目１１番２６号,,28,101,6580022,,,2022-03-15,清算の結了等,,,2015-10-05,1,,,,,マンマルゥ,0
930,4170001000359,登記記録の閉鎖等,0,2022-03-17,2022-03-16,永光化学販売株式会社,,株式会社,和歌山県,和歌山市,小雑賀３丁目５番１号,,30,201,6410007,,,2022-03-16,清算の結了等,,,2015-10-05,1,,,,,,0
937,4180002004853,登記記録の閉鎖等,0,2022-03-17,2022-03-07,有限会社遠山テクノオフィス,,有限会社,愛知県,名古屋市千種区,星が丘元町１２番２１号,,23,101,4640802,,,2022-03-07,清算の結了等,,,2015-10-05,1,,,,,トオヤマテクノオフィス,0
944,4190002019719,登記記録の閉鎖等,0,2022-03-17,2022-03-15,有限会社角屋水産開発,,有限会社,三重県,四日市市,貝塚町１６０番地１,,24,202,5100873,,,2022-03-15,合併による解散等,9190001016274,令和４年３月１５日三重県四日市市貝塚町１６０番地１丸栄水産株式会社（9190001016274）に合併し解散,2015-10-05,1,,,,,カドヤスイサンカイハツ,0
970,4330001010309,登記記録の閉鎖等,0,2022-03-17,2022-03-14,株式会社ハマヤ石油,,株式会社,熊本県,山鹿市,山鹿１８０９番地,,43,208,8610501,,,2022-03-14,清算の結了等,,,2015-10-05,1,,,,,ハマヤセキユ,0
972,4330001021925,登記記録の閉鎖等,0,2022-03-17,2022-03-14,株式会社日建,,株式会社,熊本県,菊池郡大津町,大字森字居島７２９番地３９,,43,403,8691217,,,2022-03-14,清算の結了等,,,2015-10-05,1,,,,,ニッケン,0
977,4370001006245,登記記録の閉鎖等,0,2022-03-17,2022-03-09,株式会社杜コーポレーション,,株式会社,宮城県,仙台市太白区,青山１丁目１５番５号,,04,104,9820834,,,2022-03-09,清算の結了等,,,2021-10-12,1,,,,,モリコーポレーション,0
985,4380002002333,登記記録の閉鎖等,0,2022-03-17,2022-03-09,有限会社デリエール,,有限会社,福島県,福島市,本内字中街道下１８番地の２６,,07,201,9600103,,,2022-03-09,清算の結了等,,,2015-10-05,1,,,,,,0
997,4430001082817,登記記録の閉鎖等,0,2022-03-17,2022-03-16,ワンモアケア株式会社,,株式会社,北海道,札幌市中央区,南九条西１丁目１番１－１４０７号,,01,101,0640809,,,2022-03-16,清算の結了等,,,2020-11-26,1,,,,,ワンモアケア,0
1010,5010001052778,登記記録の閉鎖等,0,2022-03-17,2022-03-16,株式会社中島商店,,株式会社,東京都,中央区,築地４丁目１３番１７号,,13,102,1040045,,,2022-03-16,清算の結了等,,,2015-10-05,1,,,,,ナカジマショウテン,0
1015,5010001172122,登記記録の閉鎖等,0,2022-03-17,2022-03-09,株式会社Ｂｉｋｉ,,株式会社,東京都,千代田区,九段南１丁目５番６号りそな九段ビル５Ｆ,,13,101,1020074,,,2022-03-09,清算の結了等,,,2015-12-04,1,,,,,,0
1023,5010401072946,登記記録の閉鎖等,0,2022-03-17,2022-03-11,オープンオフィス株式会社,,株式会社,東京都,港区,南青山２丁目２番８号,,13,103,1070062,,,2022-03-11,合併による解散等,6011101026712,令和４年３月１日東京都新宿区西新宿三丁目７番１号新宿パークタワー３０階日本リージャス株式会社（6011101026712）に合併し解散,2015-10-05,1,,,,,オープンオフィス,0
1040,5010702015190,登記記録の閉鎖等,0,2022-03-17,2022-03-10,ブリリアントリース有限会社,,有限会社,東京都,中央区,銀座８丁目１３番１号,,13,102,1040061,,,2022-03-10,清算の結了等,,,2015-10-05,1,,,,,ブリリアントリース,0
1041,5010702015208,登記記録の閉鎖等,0,2022-03-17,2022-03-10,ジャカーナリース有限会社,,有限会社,東京都,中央区,銀座８丁目１３番１号,,13,102,1040061,,,2022-03-10,清算の結了等,,,2015-10-05,1,,,,,ジャカーナリース,0
1051,5011001118313,登記記録の閉鎖等,0,2022-03-17,2022-03-11,ネクストエンターテインメント株式会社,,株式会社,東京都,墨田区,緑１丁目１４番６号シティポート両国３階袁暁娟税理士事務所内,,13,107,1300021,,,2022-03-11,清算の結了等,,,2017-09-13,1,,,,,ネクストエンターテインメント,0
1054,5011003009007,登記記録の閉鎖等,0,2022-03-17,2022-03-08,合同会社神宮前１２３,,合同会社,東京都,渋谷区,千駄ヶ谷４丁目２５番２号修養団ＳＹＤビル株式会社フジタ内,,13,113,1510051,,,2022-03-08,清算の結了等,,,2018-07-25,1,,,,,ジングウマエイチニーサン,0
1067,5011502014886,登記記録の閉鎖等,0,2022-03-17,2022-03-14,有限会社新井運送,,有限会社,東京都,荒川区,町屋３丁目２４番９号,,13,118,1160001,,,2022-03-14,清算の結了等,,,2015-10-05,1,,,,,アライウンソウ,0
1095,5021002028948,登記記録の閉鎖等,0,2022-03-17,2022-03-14,有限会社スタジオ・ジヤム・サンク,,有限会社,神奈川県,相模原市緑区,青野原２３３８番地,,14,151,2520161,,,2022-03-14,清算の結了等,,,2015-10-05,1,,,,,スタジオジャムサンク,0
1100,5030002103041,登記記録の閉鎖等,0,2022-03-17,2022-03-11,有限会社関東エアーテック,,有限会社,埼玉県,川口市,大字安行原１９８７番地６,,11,203,3340057,,,2022-03-11,清算の結了等,,,2015-10-05,1,,,,,カントウエアーテック,0
1101,5030003008768,登記記録の閉鎖等,0,2022-03-17,2022-03-10,合同会社和とう,,合同会社,東京都,千代田区,平河町１丁目５番６号平河町ＳＤビル,,13,101,1020093,,,2022-03-10,清算の結了等,,,2016-04-27,1,,,,,ワトウ,0
1116,5070005007616,登記記録の閉鎖等,0,2022-03-17,2022-03-01,天理教東吾妻分教会,,その他の設立登記法人,群馬県,吾妻郡東吾妻町,大字新巻７５９番地の１,,10,429,3770303,,,2022-03-01,合併による解散等,8070005007547,令和４年２月２８日群馬県吾妻郡中之条町大字中之条町９２４番地の２天理教中之条分教会（8070005007547）に合併し解散,2015-10-05,1,,,,,テンリキョウヒガシアガツマブンキョウカイ,0
1119,5100001027812,登記記録の閉鎖等,0,2022-03-17,2022-03-15,ピークス株式会社,,株式会社,長野県,長野市,広田４８番地,,20,201,3812213,,,2022-03-15,合併による解散等,2100001005432,令和４年２月２８日長野市広田４８番地プレステージ株式会社（2100001005432）に合併し解散,2015-10-05,1,,,,,ピークス,0
1170,5180003022283,登記記録の閉鎖等,0,2022-03-17,2022-03-14,合同会社本地不動産,,合同会社,愛知県,名古屋市千種区,南ケ丘１丁目１０番６２号南ヶ丘アイリス,,23,101,4640042,,,2022-03-14,清算の結了等,,,2021-04-02,1,,,,,ホンチフドウサン,0
1216,5370002012489,登記記録の閉鎖等,0,2022-03-17,2022-03-14,有限会社鳥幸,,有限会社,宮城県,仙台市青葉区,中央２丁目６番１９号豊栄堂ビル,,04,101,9800021,,,2022-03-14,清算の結了等,,,2015-10-05,1,,,,,トリコウ,0
1219,5380001023544,登記記録の閉鎖等,0,2022-03-17,2022-03-15,株式会社大旗,,株式会社,福島県,二本松市,油井字根岸山８番地,,07,210,9691404,,,2022-03-15,清算の結了等,,,2015-10-05,1,,,,,,0
1223,5390001004774,登記記録の閉鎖等,0,2022-03-17,2022-03-15,蔵王食品株式会社,,株式会社,山形県,上山市,矢来４丁目２番３号,,06,207,9993134,,,2022-03-15,清算の結了等,,,2015-10-05,1,,,,,ザオウショクヒン,0
1303,6011602023596,登記記録の閉鎖等,0,2022-03-17,2022-03-15,有限会社富吉,,有限会社,東京都,練馬区,桜台５丁目４５番２７号,,13,120,1760002,,,2022-03-15,清算の結了等,,,2015-10-05,1,,,,,トミヨシ,0
1310,6011805002190,登記記録の閉鎖等,0,2022-03-17,2022-03-11,特定非営利活動法人日韓翻訳推進会,,その他の設立登記法人,東京都,足立区,新田３丁目３６番１２－４０１号,,13,121,1230865,,,2022-03-11,清算の結了等,,,2015-10-05,1,,,,,ニッカンホンヤクスイシンカイ,0
1331,6020002015823,登記記録の閉鎖等,0,2022-03-17,2022-03-15,有限会社ワークス,,有限会社,神奈川県,横浜市青葉区,美しが丘１丁目１８番地３－１－５０５号,,14,117,2250002,,,2022-03-15,清算の結了等,,,2015-10-05,1,,,,,ワークス,0
1363,6060002032963,登記記録の閉鎖等,0,2022-03-17,2022-03-14,有限会社サチーナ,,有限会社,栃木県,栃木市,大平町富田５番地７,,09,203,3294404,,,2022-03-14,清算の結了等,,,2015-10-05,1,,,,,サチーナ,0
1364,6060002038044,登記記録の閉鎖等,0,2022-03-17,2022-03-14,有限会社エスピー・ワン,,有限会社,栃木県,足利市,山川町５８番地７,,09,202,3260021,,,2022-03-14,清算の結了等,,,2015-10-05,1,,,,,,0
1367,6070001026767,登記記録の閉鎖等,0,2022-03-17,2022-03-14,株式会社オリンピア工機,,株式会社,群馬県,邑楽郡大泉町,富士３丁目２０番１１号,,10,524,3700522,,,2022-03-14,清算の結了等,,,2015-10-05,1,,,,,オリンピアコウキ,0
1370,6070002024225,登記記録の閉鎖等,0,2022-03-17,2022-03-14,東洋通商有限会社,,有限会社,群馬県,桐生市,広沢町５丁目１４２８番地の１,,10,203,3760013,,,2022-03-14,清算の結了等,,,2015-10-05,1,,,,,トウヨウツウショウ,0
1396,6120005003872,登記記録の閉鎖等,0,2022-03-17,2022-03-15,一般財団法人大阪クリスチャンセンター,,その他の設立登記法人,大阪府,大阪市中央区,玉造２丁目２６番４７号,,27,128,5400004,,,2022-03-15,清算の結了等,,,2015-10-05,1,,,,,オオサカクリスチャンセンター,0
1399,6120105007039,登記記録の閉鎖等,0,2022-03-17,2022-03-15,特定非営利活動法人ジャパンシェアリング推進会議,,その他の設立登記法人,大阪府,泉大津市,旭町２２番４５号,,27,206,5950025,,,2022-03-15,清算の結了等,,,2015-10-05,1,,,,,ジャパンシェアリングスイシンカイギ,0
1406,6130002012900,登記記録の閉鎖等,0,2022-03-17,2022-03-15,有限会社森歯材,,有限会社,京都府,京都市山科区,椥辻平田町１４５番地,00037366,26,110,6078165,,,2022-03-15,清算の結了等,,,2015-10-05,1,,,,,モリシザイ,0
1420,6180001137438,登記記録の閉鎖等,0,2022-03-17,2022-03-14,株式会社ＭＵＲＡＴＥ　ＤＲＥＡＭ　ＣＡＲＳ　ＪＡＰＡＮ,,株式会社,愛知県,名古屋市守山区,大字中志段味字東原２５１０番地,,23,113,4630002,,,2022-03-14,清算の結了等,,,2019-07-19,1,,,,,ムラテドリームカーズジャパン,0
1425,6200002026356,登記記録の閉鎖等,0,2022-03-17,2022-03-14,有限会社ケアタウン,,有限会社,岐阜県,高山市,上岡本町５丁目４３１番地の１,,21,203,5060055,,,2022-03-14,清算の結了等,,,2015-10-05,1,,,,,ケアタウン,0
1469,6430001006419,登記記録の閉鎖等,0,2022-03-17,2022-03-11,株式会社五和商工,,株式会社,北海道,札幌市厚別区,上野幌一条３丁目９番７号,,01,108,0040031,,,2022-03-11,清算の結了等,,,2015-10-05,1,,,,,,0
1471,6430002039459,登記記録の閉鎖等,0,2022-03-17,2022-03-11,有限会社ファミリア,,有限会社,北海道,札幌市清田区,平岡公園東６丁目３番１２号,,01,110,0040882,,,2022-03-11,清算の結了等,,,2015-10-05,1,,,,,ファミリア,0
1504,7010403026171,登記記録の閉鎖等,0,2022-03-17,2022-03-10,合同会社スダラボ,,合同会社,東京都,港区,南麻布５丁目３－２３有栖川ヒルズ１０１,,13,103,1060047,,,2022-03-10,清算の結了等,,,2021-09-24,1,,,,,スダラボ,0
1507,7010405019818,登記記録の閉鎖等,0,2022-03-17,2022-03-09,一般社団法人日本ダイエット指導協会,,その他の設立登記法人,東京都,港区,南青山２丁目２番１５号ウィン青山９４２,,13,103,1070062,,,2022-03-09,清算の結了等,,,2021-05-26,1,,,,,ニホンダイエットシドウキョウカイ,0
1508,7010501041262,登記記録の閉鎖等,0,2022-03-17,2022-03-15,璋林株式会社,,株式会社,東京都,台東区,三ノ輪２丁目４番８－６０３号,,13,106,1100011,,,2022-03-15,清算の結了等,,,2017-07-06,1,,,,,ショウリン,0
1522,7010702015197,登記記録の閉鎖等,0,2022-03-17,2022-03-10,エンブレムリース有限会社,,有限会社,東京都,中央区,銀座８丁目１３番１号,,13,102,1040061,,,2022-03-10,清算の結了等,,,2015-10-05,1,,,,,エンブレムリース,0
1523,7010703002401,登記記録の閉鎖等,0,2022-03-17,2022-03-14,合同会社ブロック・バスターズ,,合同会社,東京都,品川区,北品川３丁目６番３８号,,13,109,1400001,,,2022-03-14,清算の結了等,,,2015-10-05,1,,,,,ブロックバスターズ,0
1536,7011403003061,登記記録の閉鎖等,0,2022-03-17,2022-03-14,トランジット合同会社,,合同会社,東京都,板橋区,南常盤台１丁目１１番６号・レフア南常盤台１０１号室,,13,119,1740072,,,2022-03-14,清算の結了等,,,2020-07-17,1,,,,,,0
1551,7013402006854,登記記録の閉鎖等,0,2022-03-17,2022-03-09,有限会社泉建築設計,,有限会社,東京都,多摩市,諏訪１丁目２８番地の７２,,13,224,2060024,,,2022-03-09,清算の結了等,,,2015-10-05,1,,,,,イズミケンチクセッケイ,0
1555,7020001101920,登記記録の閉鎖等,0,2022-03-17,2022-03-15,株式会社タドコロ,,株式会社,神奈川県,横浜市都筑区,南山田３丁目１番２６号,,14,118,2240029,,,2022-03-15,清算の結了等,,,2015-10-05,1,,,,,タドコロ,0
1575,7030002102883,登記記録の閉鎖等,0,2022-03-17,2022-03-11,有限会社埼東,,有限会社,埼玉県,川口市,末広１丁目２番１４号,,11,203,3320006,,,2022-03-11,清算の結了等,,,2015-10-05,1,,,,,サイトウ,0
1583,7080002016278,登記記録の閉鎖等,0,2022-03-17,2022-03-16,有限会社マルゼン商事,,有限会社,静岡県,焼津市,中港２丁目３番４号,,22,212,4250021,,,2022-03-16,清算の結了等,,,2015-10-05,1,,,,,,0
1635,7160001009745,登記記録の閉鎖等,0,2022-03-17,2022-03-15,イー・エヌ・ビーシステム株式会社,,株式会社,滋賀県,東近江市,小脇町２２９５番地,,25,213,5270091,,,2022-03-15,清算の結了等,,,2015-10-05,1,,,,,イーエヌビーシステム,0
1640,7180001087616,登記記録の閉鎖等,0,2022-03-17,2022-03-14,株式会社ピー・グロリア愛北配送センター,,株式会社,愛知県,江南市,東野町神田６番地,,23,217,4838431,,,2022-03-14,清算の結了等,,,2015-10-05,1,,,,,ビーグロリアアイホクハイソウセンター,0
1665,7240005011029,登記記録の閉鎖等,0,2022-03-17,2022-03-11,協同組合因島卸センター,,その他の設立登記法人,広島県,尾道市,因島重井町５８００番地の６７,,34,205,7222102,,,2022-03-11,清算の結了等,,,2015-10-05,1,,,,,インノシマオロシセンター,0
1666,7250002003151,登記記録の閉鎖等,0,2022-03-17,2022-03-15,有限会社瀬野商店,,有限会社,山口県,防府市,天神２丁目５番２号,,35,206,7470034,,,2022-03-15,清算の結了等,,,2015-10-05,1,,,,,セノショウテン,0
1667,7250002003333,登記記録の閉鎖等,0,2022-03-17,2022-03-14,有限会社華弥エージェンシー,,有限会社,山口県,防府市,大字大崎２２４番地の２,,35,206,7470065,,,2022-03-14,清算の結了等,,,2015-10-05,1,,,,,ハナミエージェンシー,0
1677,7290801005393,登記記録の閉鎖等,0,2022-03-17,2022-03-11,新原電気工業株式会社,,株式会社,福岡県,北九州市門司区,新原町６番２３号,,40,101,8000053,,,2022-03-11,清算の結了等,,,2015-10-05,1,,,,,シンハラデンキコウギョウ,0
1678,7290801009766,登記記録の閉鎖等,0,2022-03-17,2022-03-11,株式会社河内商会,,株式会社,福岡県,北九州市八幡西区,紅梅２丁目８番７号,,40,109,8060011,,,2022-03-11,清算の結了等,,,2015-10-05,1,,,,,カワチショウカイ,0
1690,7370001024426,登記記録の閉鎖等,0,2022-03-17,2022-03-14,株式会社ヴォスクオーレ仙台,,株式会社,宮城県,仙台市宮城野区,幸町３丁目１１番１０号,,04,102,9830836,,,2022-03-14,清算の結了等,,,2015-10-05,1,,,,,,0
1703,7410001000100,登記記録の閉鎖等,0,2022-03-17,2022-03-09,株式会社秋酸商事,,株式会社,秋田県,秋田市,土崎港北３丁目７番４０号,,05,201,0110941,,,2022-03-09,清算の結了等,,,2015-10-05,1,,,,,アキサンショウジ,0
1722,8010003020326,登記記録の閉鎖等,0,2022-03-17,2022-03-09,電遊合同会社,,合同会社,東京都,千代田区,神田佐久間町３丁目３８番地第５東ビル５Ｆ,,13,101,1010025,,,2022-03-09,清算の結了等,,,2015-10-05,1,,,,,デンユウ,0
1739,8010403010307,登記記録の閉鎖等,0,2022-03-17,2022-03-09,合同会社ＳＬＰ,,合同会社,東京都,港区,虎ノ門４丁目３番１号城山トラストタワー１４階,,13,103,1050001,,,2022-03-09,清算の結了等,,,2015-10-05,1,,,,,エスエルピー,0
1740,8010403025346,登記記録の閉鎖等,0,2022-03-17,2022-03-09,合同会社グルッポ・フィオーレ,,合同会社,東京都,港区,白金３丁目１番１３号日恵ビル２階,,13,103,1080072,,,2022-03-09,清算の結了等,,,2021-05-20,1,,,,,グルッポフィオーレ,0
1746,8010601049502,登記記録の閉鎖等,0,2022-03-17,2022-03-08,株式会社ＦＧ,,株式会社,東京都,江東区,青海１丁目１番２０号,,13,108,1350064,,,2022-03-08,清算の結了等,,,2016-04-08,1,,,,,エフジー,0
1770,8011003009020,登記記録の閉鎖等,0,2022-03-17,2022-03-08,合同会社築地四丁目,,合同会社,東京都,渋谷区,千駄ヶ谷４丁目２５番２号修養団ＳＹＤビル株式会社フジタ内,,13,113,1510051,,,2022-03-08,清算の結了等,,,2018-07-31,1,,,,,ツキジヨンチョウメ,0
1798,8020001000634,登記記録の閉鎖等,0,2022-03-17,2022-03-14,恒久ビルサッシ株式会社,,株式会社,神奈川県,横浜市泉区,和泉中央南５丁目１番１４号,,14,116,2450023,,,2022-03-14,清算の結了等,,,2015-10-05,1,,,,,コウキュウビルサッシ,0
1802,8020001122313,登記記録の閉鎖等,0,2022-03-17,2022-03-14,奇力新電子株式会社,,株式会社,神奈川県,横浜市神奈川区,栄町５－１横浜クリエーションスクエア１４階,,14,102,2210052,,,2022-03-14,清算の結了等,,,2017-07-25,1,,,,,ケイリクシンデンシ,0
1807,8020002012950,登記記録の閉鎖等,0,2022-03-17,2022-03-15,有限会社ミスターカーペンター,,有限会社,神奈川県,横浜市戸塚区,深谷町９４３番地１３８,,14,110,2450067,,,2022-03-15,清算の結了等,,,2015-10-05,1,,,,,ミスターカーペンター,0
1808,8020002051940,登記記録の閉鎖等,0,2022-03-17,2022-03-14,有限会社ナンバーショット,,有限会社,神奈川県,横浜市都筑区,東山田４丁目１８番１３号,,14,118,2240023,,,2022-03-14,清算の結了等,,,2015-10-05,1,,,,,ナンバーショット,0
1816,8030002055362,登記記録の閉鎖等,0,2022-03-17,2022-03-14,有限会社若原製作所,,有限会社,埼玉県,上尾市,大字上尾下１０３２番地の３,,11,219,3620025,,,2022-03-14,清算の結了等,,,2015-10-05,1,,,,,ワカハラセイサクジョ,0
1819,8040001108632,登記記録の閉鎖等,0,2022-03-17,2022-03-10,株式会社Ｓｔｅｐ　Ｔｏ　Ｗｅｌｌｎｅｓｓ,,株式会社,千葉県,船橋市,前原西４丁目３９番１号Ａｎｈｅｌｏ東船橋１０１,,12,204,2740825,,,2022-03-10,清算の結了等,,,2019-04-05,1,,,,,ステップトゥウェウネス,0
1823,8050002001273,登記記録の閉鎖等,0,2022-03-17,2022-02-22,株式会社コードコーポレーション,,株式会社,東京都,渋谷区,代々木１丁目１８番１５号,,13,113,1510053,,,2022-02-22,合併による解散等,1011003013664,令和４年２月１５日東京都渋谷区代々木一丁目１８番１５号合同会社ＮＧＢ（1011003013664）に合併し解散,2015-10-05,1,,,,,コードコーポレーション,0
1831,8070005007431,登記記録の閉鎖等,0,2022-03-17,2022-03-15,特定非営利活動法人利根川上下流連携支援センター,,その他の設立登記法人,群馬県,利根郡川場村,大字中野６２６番地,,10,444,3780103,,,2022-03-15,清算の結了等,,,2015-10-05,1,,,,,トネガワジョウカリュウレンケイシエンセンター,0
1838,8080403003717,登記記録の閉鎖等,0,2022-03-17,2022-03-15,合同会社Ｍａｒｉｎｅ　ｐｏｒｔ,,合同会社,静岡県,磐田市,上万能２０３番地７,,22,211,4380817,,,2022-03-15,清算の結了等,,,2018-09-06,1,,,,,マリンポート,0
1844,8120001032436,登記記録の閉鎖等,0,2022-03-17,2022-03-10,株式会社関友企画,,株式会社,大阪府,大阪市住吉区,苅田３丁目３番２４－１１０号,,27,120,5580011,,,2022-03-10,清算の結了等,,,2015-10-05,1,,,,,カンユウキカク,0
1848,8120001155096,登記記録の閉鎖等,0,2022-03-17,2022-03-11,株式会社カエトクサービス,,株式会社,大阪府,大阪市北区,角田町８番７号,,27,127,5300017,,,2022-03-11,清算の結了等,,,2015-10-05,1,,,,,カエトクサービス,0
1873,8120102012980,登記記録の閉鎖等,0,2022-03-17,2022-03-14,有限会社ＯＦＦＩＣＥクスモト,,有限会社,大阪府,堺市北区,中百舌鳥町６丁８９２番地,,27,146,5918023,,,2022-03-14,清算の結了等,,,2015-10-05,1,,,,,,0
1874,8120102019357,登記記録の閉鎖等,0,2022-03-17,2022-03-11,有限会社眞吼,,有限会社,大阪府,藤井寺市,西古室１丁目４番２号,,27,226,5830018,,,2022-03-11,清算の結了等,,,2015-10-05,1,,,,,シンコウ,0
1898,8150002008143,登記記録の閉鎖等,0,2022-03-17,2022-03-16,株式会社ここちいい生活研究所,,株式会社,奈良県,橿原市,曽我町８００番地,,29,205,6340831,,,2022-03-16,清算の結了等,,,2015-10-05,1,,,,,ココチイイセイカツケンキュウジョ,0
1902,8180001079439,登記記録の閉鎖等,0,2022-03-17,2022-03-14,アサヒ・フーズ株式会社,,株式会社,愛知県,尾張旭市,東印場町二反田２４１番地,,23,226,4880833,,,2022-03-14,清算の結了等,,,2015-10-05,1,,,,,アサヒフーズ,0
1927,8290001043210,登記記録の閉鎖等,0,2022-03-17,2022-03-11,エスケイジャパンロジスティックス株式会社,,株式会社,福岡県,筑紫野市,桜台２丁目２３番２号,,40,217,8180063,,,2022-03-11,清算の結了等,,,2015-10-05,1,,,,,エスケイジャパンロジスティックス,0
1971,8430002004106,登記記録の閉鎖等,0,2022-03-17,2022-03-14,有限会社岡田機械工業,,有限会社,北海道,札幌市東区,北二十二条東１３丁目１番８号,,01,103,0650022,,,2022-03-14,清算の結了等,,,2015-10-05,1,,,,,オカダキカイコウギョウ,0
1974,8480002002071,登記記録の閉鎖等,0,2022-03-17,2022-03-16,有限会社シェハマザキ,,有限会社,徳島県,徳島市,新浜本町１丁目４番３号,,36,201,7708007,,,2022-03-16,清算の結了等,,,2015-10-05,1,,,,,シェハマザキ,0
1976,9010001182233,登記記録の閉鎖等,0,2022-03-17,2022-03-10,ＥＴ　Ｓｏｌａｒ　Ｇｌｏｂａｌ　Ｊａｐａｎ株式会社,,株式会社,東京都,千代田区,丸の内３丁目１－１,,13,101,1000005,,,2022-03-10,清算の結了等,,,2017-03-27,1,,,,,イーティーソーラーグローバルジャパン,0
2004,9010702015253,登記記録の閉鎖等,0,2022-03-17,2022-03-10,有限会社エム・エル・ディ・レプリコン,,有限会社,東京都,中央区,銀座８丁目１３番１号,,13,102,1040061,,,2022-03-10,清算の結了等,,,2015-10-05,1,,,,,エムエルディレプリコン,0
2006,9010802007992,登記記録の閉鎖等,0,2022-03-17,2022-03-10,有限会社清和堂,,有限会社,東京都,大田区,大森中３丁目１番１号,,13,111,1430014,,,2022-03-10,清算の結了等,,,2015-10-05,1,,,,,セイワドウ,0
2035,9011501001832,登記記録の閉鎖等,0,2022-03-17,2022-03-14,株式会社三賞堂時計店,,株式会社,東京都,北区,赤羽１丁目２２番２号,,13,117,1150045,,,2022-03-14,清算の結了等,,,2015-10-05,1,,,,,サンショウドウトケイテン,0
2048,9013301012605,登記記録の閉鎖等,0,2022-03-17,2022-03-09,株式会社ロム,,株式会社,東京都,豊島区,南長崎３丁目９番８－４０３号,,13,116,1710052,,,2022-03-09,清算の結了等,,,2015-10-05,1,,,,,ロム,0
2049,9013301013396,登記記録の閉鎖等,0,2022-03-17,2022-03-07,株式会社全肢連事業部,,株式会社,東京都,豊島区,西池袋４丁目３番１２号,,13,116,1710021,,,2022-03-07,清算の結了等,,,2015-10-05,1,,,,,ゼンシレンジギョウブ,0
2052,9013301040960,登記記録の閉鎖等,0,2022-03-17,2022-03-09,株式会社ティーチ・コンサルタント,,株式会社,東京都,豊島区,東池袋１丁目３１番１３号ライオンズマンション東池袋第３－６０６,,13,116,1700013,,,2022-03-09,清算の結了等,,,2017-08-09,1,,,,,ティーチコンサルタント,0
2071,9021001072035,登記記録の閉鎖等,0,2022-03-17,2022-03-01,株式会社春夏秋冬,,株式会社,神奈川県,川崎市高津区,下作延５丁目２８番１号,,14,134,2130033,,,2022-03-01,合併による解散等,9020001036371,令和４年３月１日横浜市西区みなとみらい二丁目２番１号横浜ランドマークタワー株式会社サンライズサービス（9020001036371）に合併し解散,2021-02-05,1,,,,,シュンカシュウトウ,0
2078,9040001077265,登記記録の閉鎖等,0,2022-03-17,2022-03-10,株式会社ＩＯＵ,,株式会社,千葉県,流山市,西初石２丁目８１番地の２１,,12,220,2700121,,,2022-03-10,清算の結了等,,,2015-10-05,1,,,,,,0
2085,9040002090275,登記記録の閉鎖等,0,2022-03-17,2022-03-10,有限会社スマイル,,有限会社,茨城県,牛久市,上柏田４丁目５５番地１２,,08,219,3001232,,,2022-03-10,合併による解散等,7430001069398,令和４年３月１日札幌市白石区東札幌五条二丁目４番３０号株式会社アインファーマシーズ（7430001069398）に合併し解散,2015-10-05,1,,,,,スマイル,0
2130,9120005017861,登記記録の閉鎖等,0,2022-03-17,2022-03-14,特定非営利活動法人日本健康和食協会,,その他の設立登記法人,大阪府,大阪市福島区,福島３丁目１１番２６号,,27,103,5530003,,,2022-03-14,清算の結了等,,,2015-10-05,1,,,,,ニホンケンコウワショクキョウカイ,0
2135,9120902014291,登記記録の閉鎖等,0,2022-03-17,2022-03-15,有限会社アップル英会話センター,,有限会社,大阪府,池田市,城南１丁目４番４号,,27,204,5630025,,,2022-03-15,清算の結了等,,,2015-10-05,1,,,,,アップルエイカイワセンター,0
2138,9130001029612,登記記録の閉鎖等,0,2022-03-17,2022-03-15,株式会社ぎをん松本,,株式会社,京都府,京都市東山区,祇園町南側５７０番地２６０,,26,105,6050074,,,2022-03-15,清算の結了等,,,2015-10-05,1,,,,,ギヲンマツモト,0
2150,9140002021906,登記記録の閉鎖等,0,2022-03-17,2022-03-15,有限会社アルフレックス,,有限会社,兵庫県,神戸市東灘区,住吉山手４丁目６番４８－４０５号,,28,101,6580063,,,2022-03-15,清算の結了等,,,2015-10-05,1,,,,,アルフレックス,0
2169,9180002037989,登記記録の閉鎖等,0,2022-03-17,2022-03-11,有限会社オーティ出原,,有限会社,愛知県,名古屋市緑区,滝ノ水２丁目２１０１番地１,,23,114,4580021,,,2022-03-11,清算の結了等,,,2015-10-05,1,,,,,オーティイズハラ,0
2180,9220001019018,登記記録の閉鎖等,0,2022-03-17,2022-03-14,株式会社ＰＡＦ,,株式会社,石川県,金沢市,三馬３丁目１１９番地,,17,201,9218162,,,2022-03-14,清算の結了等,,,2015-10-05,1,,,,,ピーエーエフ,0
2183,9230002013803,登記記録の閉鎖等,0,2022-03-17,2022-03-10,有限会社ヒラノ,,有限会社,富山県,射水市,緑町１４番１号,,16,211,9340014,,,2022-03-10,清算の結了等,,,2015-10-05,1,,,,,,0
2186,9240001023983,登記記録の閉鎖等,0,2022-03-17,2022-03-09,大朝観光開発株式会社,,株式会社,広島県,山県郡北広島町,大朝２４６１番地,,34,369,7312104,,,2022-03-09,清算の結了等,,,2015-10-05,1,,,,,オオアサカンコウカイハツ,0
2192,9280002009219,登記記録の閉鎖等,0,2022-03-17,2022-03-15,有限会社竹田商店,,有限会社,島根県,江津市,和木町６０５番地７,,32,207,6950017,,,2022-03-15,清算の結了等,,,2015-10-05,1,,,,,タケダショウテン,0
2196,9290001042368,登記記録の閉鎖等,0,2022-03-17,2022-03-11,エコジャパン株式会社,,株式会社,福岡県,筑紫野市,桜台２丁目２２番３号,,40,217,8180063,,,2022-03-11,清算の結了等,,,2015-10-05,1,,,,,エコジャパン,0
2207,9290805005438,登記記録の閉鎖等,0,2022-03-17,2022-03-09,医療法人文翠会,,その他の設立登記法人,福岡県,北九州市八幡東区,桃園１丁目３番４号,,40,108,8050068,,,2022-03-09,清算の結了等,,,2015-10-05,1,,,,,ブンスイカイ,0
2226,9430001062137,登記記録の閉鎖等,0,2022-03-17,2022-03-14,株式会社ＴＡＫＥＢＵＬＬ,,株式会社,北海道,札幌市中央区,大通西１４丁目１番地１３,,01,101,0600042,,,2022-03-14,清算の結了等,,,2015-10-05,1,,,,,,0
2237,9500005004334,登記記録の閉鎖等,0,2022-03-17,2022-03-01,医療法人Ｄクリニック駅前医院,,その他の設立登記法人,愛媛県,新居浜市,坂井町１丁目７番４号,,38,205,7920812,,,2022-03-01,合併による解散等,1500005007922,令和４年３月１日愛媛県今治市南大門町二丁目１番地２１医療法人Ｄクリニック（1500005007922）に合併し解散,2015-10-05,1,,,,,ディークリニックエキマエイイン,0
