sequenceNumber,corporateNumber,process,correct,updateDate,changeDate,name,nameImageId,kind,prefectureName,cityName,streetNumber,addressImageId,prefectureCode,cityCode,postCode,addressOutside,addressOutsideImageId,closeDate,closeCause,successorCorporateNumber,changeCause,assignmentDate,latest,enName,enPrefectureName,enCityName,enAddressOutside,furigana,hihyoji
3,1010001150899,登記記録の閉鎖等,0,2023-01-24,2023-01-16,株式会社パノラマ,,株式会社,東京都,渋谷区,桜丘町４番２３号,,13,113,1500031,,,2023-01-16,清算の結了等,,,2015-10-05,1,,,,,パノラマ,0
13,1010401055079,登記記録の閉鎖等,0,2023-01-24,2023-01-05,株式会社サヤテイ,,株式会社,東京都,港区,海岸３丁目１２番９号,,13,103,1080022,,,2023-01-05,清算の結了等,,,2015-10-05,1,,,,,,0
30,1011101038844,登記記録の閉鎖等,0,2023-01-24,2023-01-20,株式会社ＧＣネクスト,,株式会社,東京都,新宿区,新小川町１番８号３階,,13,104,1620814,,,2023-01-20,清算の結了等,,,2015-10-05,1,,,,,ジーシーネクスト,0
31,1011101044867,登記記録の閉鎖等,0,2023-01-24,2023-01-19,株式会社花,,株式会社,東京都,新宿区,信濃町２１番地,,13,104,1600016,,,2023-01-19,清算の結了等,,,2015-10-05,1,,,,,ハナ,0
39,1011202000447,登記記録の閉鎖等,0,2023-01-24,2023-01-19,有限会社亜理沙,,有限会社,東京都,中野区,中野４丁目２０番９号,,13,114,1640001,,,2023-01-19,清算の結了等,,,2015-10-05,1,,,,,アリサ,0
46,1011601001681,登記記録の閉鎖等,0,2023-01-24,2023-01-24,アイエルディー株式会社,,株式会社,東京都,練馬区,中村北３丁目３番１８号,,13,120,1760023,,,2023-01-24,登記官による閉鎖,,,2015-10-05,1,,,,,,0
47,1011601001756,登記記録の閉鎖等,0,2023-01-24,2023-01-24,株式会社紀の国屋,,株式会社,東京都,練馬区,桜台３丁目１２番１１号,,13,120,1760002,,,2023-01-24,登記官による閉鎖,,,2015-10-05,1,,,,,,0
48,1011601002713,登記記録の閉鎖等,0,2023-01-24,2023-01-24,株式会社五月堂,,株式会社,東京都,練馬区,練馬３丁目１番８号,,13,120,1760001,,,2023-01-24,登記官による閉鎖,,,2015-10-05,1,,,,,,0
49,1011601015905,登記記録の閉鎖等,0,2023-01-24,2023-01-24,Ｃ＆ＣＯＭＭＯＮＳ株式会社,,株式会社,東京都,練馬区,中村南３丁目１８番２号Ｂｒａｎｃｈｅ鷺ノ宮４０５,,13,120,1760025,,,2023-01-24,登記官による閉鎖,,,2015-10-05,1,,,,,,0
50,1011601017109,登記記録の閉鎖等,0,2023-01-24,2023-01-24,株式会社シーエフ,,株式会社,東京都,練馬区,田柄２丁目３番８号大和荘２０１,,13,120,1790073,,,2023-01-24,登記官による閉鎖,,,2015-10-05,1,,,,,,0
52,1011602000955,登記記録の閉鎖等,0,2023-01-24,2023-01-24,有限会社伊勢元,,有限会社,東京都,練馬区,氷川台４丁目４９番４－１０９号,,13,120,1790084,,,2023-01-24,登記官による閉鎖,,,2015-10-05,1,,,,,,0
53,1011602008569,登記記録の閉鎖等,0,2023-01-24,2023-01-24,有限会社福島模型製作所,,有限会社,東京都,練馬区,中村北１丁目１３番１２号,,13,120,1760023,,,2023-01-24,登記官による閉鎖,,,2015-10-05,1,,,,,,0
54,1011602009039,登記記録の閉鎖等,0,2023-01-24,2023-01-24,有限会社北海商事,,有限会社,東京都,練馬区,向山４丁目９番３３号,,13,120,1760022,,,2023-01-24,登記官による閉鎖,,,2015-10-05,1,,,,,,0
55,1011602011201,登記記録の閉鎖等,0,2023-01-24,2023-01-24,有限会社渡部印刷材料商会,,有限会社,東京都,練馬区,西大泉４丁目１４番４号,,13,120,1780065,,,2023-01-24,登記官による閉鎖,,,2015-10-05,1,,,,,,0
59,1012301006203,登記記録の閉鎖等,0,2023-01-24,2023-01-19,株式会社エムオーテクニカ,,株式会社,神奈川県,相模原市中央区,宮下本町２丁目７番１１号,,14,152,2520211,,,2023-01-19,清算の結了等,,,2015-10-05,1,,,,,エムオーテクニカ,0
70,1020001034374,登記記録の閉鎖等,0,2023-01-24,2023-01-18,みらい株式会社,,株式会社,神奈川県,横浜市中区,山下町７０－１５ライオンズマンション山下公園６０７号,,14,104,2310023,,,2023-01-18,清算の結了等,,,2015-10-05,1,,,,,ミライ,0
73,1020001075807,登記記録の閉鎖等,0,2023-01-24,2023-01-19,アートウェア株式会社,,株式会社,東京都,新宿区,市谷薬王寺町５３薬王寺ビル２階,,13,104,1620063,,,2023-01-19,清算の結了等,,,2015-10-05,1,,,,,アートウェア,0
87,1020002083032,登記記録の閉鎖等,0,2023-01-24,2023-01-23,有限会社ＣＰＦｏｒｗａｒｄ,,有限会社,神奈川県,川崎市中原区,下小田中１丁目１５番７号大戸ハイツ１０１,,14,133,2110041,,,2023-01-23,清算の結了等,,,2015-10-05,1,,,,,,0
122,1060001000653,登記記録の閉鎖等,0,2023-01-24,2023-01-19,株式会社宇都宮スポーツプラザ,,株式会社,栃木県,宇都宮市,野高谷町５６４番地１,,09,201,3213222,,,2023-01-19,登記官による閉鎖,,,2015-10-05,1,,,,,,0
123,1060001017664,登記記録の閉鎖等,0,2023-01-24,2023-01-19,株式会社大倉工業,,株式会社,栃木県,栃木市,大平町西野田５０４番地１０,,09,203,3294421,,,2023-01-19,登記官による閉鎖,,,2015-10-05,1,,,,,,0
124,1060001017771,登記記録の閉鎖等,0,2023-01-24,2023-01-19,オーディーケー株式会社,,株式会社,栃木県,栃木市,大平町下皆川７２８番地,,09,203,3294406,,,2023-01-19,登記官による閉鎖,,,2015-10-05,1,,,,,,0
125,1060001023489,登記記録の閉鎖等,0,2023-01-24,2023-01-19,株式会社ＣＯＣＯＲＯ,,株式会社,栃木県,宇都宮市,平松本町９０７番地３,,09,201,3210932,,,2023-01-19,登記官による閉鎖,,,2015-10-05,1,,,,,,0
126,1060001023828,登記記録の閉鎖等,0,2023-01-24,2023-01-19,株式会社ＪＳＦ,,株式会社,栃木県,那須塩原市,東原２１７番地２,,09,213,3250034,,,2023-01-19,登記官による閉鎖,,,2015-10-05,1,,,,,,0
127,1060002000520,登記記録の閉鎖等,0,2023-01-24,2023-01-19,有限会社青木製粉所,,有限会社,栃木県,宇都宮市,西川田町１０７９番地,,09,201,3210151,,,2023-01-19,登記官による閉鎖,,,2015-10-05,1,,,,,,0
128,1060002002756,登記記録の閉鎖等,0,2023-01-24,2023-01-19,有限会社関東墓地清掃管理センター,,有限会社,栃木県,宇都宮市,上戸祭３丁目４番１６号,,09,201,3200058,,,2023-01-19,登記官による閉鎖,,,2015-10-05,1,,,,,,0
129,1060002003424,登記記録の閉鎖等,0,2023-01-24,2023-01-19,有限会社黒須洋服店,,有限会社,栃木県,宇都宮市,西大寛２丁目１番２号,,09,201,3200866,,,2023-01-19,登記官による閉鎖,,,2015-10-05,1,,,,,,0
130,1060002006930,登記記録の閉鎖等,0,2023-01-24,2023-01-19,有限会社成田建興,,有限会社,栃木県,宇都宮市,西の宮２丁目１８番２６号,,09,201,3200064,,,2023-01-19,登記官による閉鎖,,,2015-10-05,1,,,,,,0
131,1060002009900,登記記録の閉鎖等,0,2023-01-24,2023-01-19,有限会社ハイパーロム,,有限会社,栃木県,さくら市,氏家１８１７番地,,09,214,3291311,,,2023-01-19,登記官による閉鎖,,,2015-10-05,1,,,,,,0
132,1060002010123,登記記録の閉鎖等,0,2023-01-24,2023-01-19,渡総合企画有限会社,,有限会社,栃木県,宇都宮市,兵庫塚３丁目４５番１６号,,09,201,3210138,,,2023-01-19,登記官による閉鎖,,,2015-10-05,1,,,,,,0
133,1060002011220,登記記録の閉鎖等,0,2023-01-24,2023-01-19,有限会社野沢ベーカリー,,有限会社,栃木県,河内郡上三川町,大字西汗１６２９番地４,,09,301,3290607,,,2023-01-19,登記官による閉鎖,,,2015-10-05,1,,,,,,0
134,1060002014082,登記記録の閉鎖等,0,2023-01-24,2023-01-19,有限会社都市景観研究室,,有限会社,栃木県,那須烏山市,三箇２７６３番地,,09,215,3210531,,,2023-01-19,登記官による閉鎖,,,2015-10-05,1,,,,,,0
135,1060002020246,登記記録の閉鎖等,0,2023-01-24,2023-01-19,有限会社島田工業,,有限会社,栃木県,鹿沼市,下日向９９番地,,09,205,3220075,,,2023-01-19,登記官による閉鎖,,,2015-10-05,1,,,,,,0
136,1060002022317,登記記録の閉鎖等,0,2023-01-24,2023-01-19,有限会社鈴木労務管理事務所,,有限会社,栃木県,那須塩原市,上厚崎３８３番地９,,09,213,3250026,,,2023-01-19,登記官による閉鎖,,,2015-10-05,1,,,,,,0
137,1060002022820,登記記録の閉鎖等,0,2023-01-24,2023-01-19,有限会社山口屋,,有限会社,栃木県,那須塩原市,末広町５３番地７４,,09,213,3250061,,,2023-01-19,登記官による閉鎖,,,2015-10-05,1,,,,,,0
138,1060002023109,登記記録の閉鎖等,0,2023-01-24,2023-01-19,有限会社田代産業,,有限会社,栃木県,那須郡那須町,大字寄居１０９６番地,,09,407,3293441,,,2023-01-19,登記官による閉鎖,,,2015-10-05,1,,,,,,0
139,1060002027902,登記記録の閉鎖等,0,2023-01-24,2023-01-19,有限会社潮技研,,有限会社,栃木県,小山市,駅南町２丁目２２番２号,,09,208,3230822,,,2023-01-19,登記官による閉鎖,,,2015-10-05,1,,,,,,0
140,1060002031136,登記記録の閉鎖等,0,2023-01-24,2023-01-19,有限会社マザーズコーポレーション,,有限会社,栃木県,小山市,大字黒本４１４番地,,09,208,3230002,,,2023-01-19,登記官による閉鎖,,,2015-10-05,1,,,,,,0
141,1060005001482,登記記録の閉鎖等,0,2023-01-24,2023-01-19,特定非営利活動法人サン・カルチャークラブ,,その他の設立登記法人,栃木県,宇都宮市,今泉３丁目１２番３１号,,09,201,3210966,,,2023-01-19,登記官による閉鎖,,,2015-10-05,1,,,,,,0
142,1060005005450,登記記録の閉鎖等,0,2023-01-24,2023-01-19,都賀木材住宅協同組合,,その他の設立登記法人,栃木県,栃木市,都賀町升塚１１５番地１,,09,203,3280114,,,2023-01-19,登記官による閉鎖,,,2015-10-05,1,,,,,,0
153,1080101014246,登記記録の閉鎖等,0,2023-01-24,2023-01-19,株式会社南庭工房,,株式会社,静岡県,伊東市,八幡野１３１４番地の５６,,22,208,4130232,,,2023-01-19,清算の結了等,,,2015-10-05,1,,,,,ナンテイコウボウ,0
155,1080402019225,登記記録の閉鎖等,0,2023-01-24,2023-01-20,有限会社八木商店,,有限会社,静岡県,御前崎市,佐倉１９３４番地の２,,22,223,4371604,,,2023-01-20,清算の結了等,,,2015-10-05,1,,,,,ヤギショウテン,0
158,1110001031123,登記記録の閉鎖等,0,2023-01-24,2023-01-23,株式会社笹崎自動車保険サービス,,株式会社,新潟県,新潟市西蒲区,大原３２４３番地１,,15,108,9590511,,,2023-01-23,清算の結了等,,,2015-12-03,1,,,,,ササザキジドウシャホケンサービス,0
168,1120002008020,登記記録の閉鎖等,0,2023-01-24,2023-01-19,有限会社京浜電設,,有限会社,大阪府,大阪市城東区,放出西２丁目５番５号,,27,118,5360011,,,2023-01-19,清算の結了等,,,2015-10-05,1,,,,,ケイヒンデンセツ,0
180,1140001071166,登記記録の閉鎖等,0,2023-01-24,2023-01-20,株式会社ビッグスタッフ,,株式会社,兵庫県,西宮市,六湛寺町１番８－２０２号,,28,204,6620918,,,2023-01-20,清算の結了等,,,2015-10-05,1,,,,,ビッグスタッフ,0
184,1140002010107,登記記録の閉鎖等,0,2023-01-24,2023-01-20,有限会社扇光自動車,,有限会社,兵庫県,神戸市北区,有野町唐櫃字中向山４４６６番地の５,,28,109,6511331,,,2023-01-20,清算の結了等,,,2015-10-05,1,,,,,センコウジドウシャ,0
185,1140002049442,登記記録の閉鎖等,0,2023-01-24,2023-01-20,有限会社ユーアール,,有限会社,兵庫県,姫路市,新在家本町５丁目１１番１８号,,28,201,6700092,,,2023-01-20,清算の結了等,,,2015-10-05,1,,,,,ユーアール,0
186,1160001001526,登記記録の閉鎖等,0,2023-01-24,2023-01-23,株式会社ニシホーム,,株式会社,滋賀県,大津市,におの浜３丁目４番４０号,,25,201,5200801,,,2023-01-23,登記官による閉鎖,,,2017-05-09,1,,,,,,0
187,1160001004974,登記記録の閉鎖等,0,2023-01-24,2023-01-18,株式会社ヤマカワ食品店,,株式会社,滋賀県,湖南市,下田５２４番地,,25,211,5203201,,,2023-01-18,清算の結了等,,,2015-10-05,1,,,,,ヤマカワショクヒンテン,0
188,1160001015823,登記記録の閉鎖等,0,2023-01-24,2023-01-23,株式会社谷口商工,,株式会社,滋賀県,守山市,小島町１８０４番地の３,,25,207,5240002,,,2023-01-23,登記官による閉鎖,,,2017-06-08,1,,,,,,0
189,1160001020410,登記記録の閉鎖等,0,2023-01-24,2023-01-23,株式会社滋賀製作所,,株式会社,滋賀県,草津市,南笠町字笠山３１０番地２,,25,206,5250056,,,2023-01-23,登記官による閉鎖,,,2017-08-16,1,,,,,,0
190,1160002008495,登記記録の閉鎖等,0,2023-01-24,2023-01-23,日の出プラスチック工業有限会社,,有限会社,滋賀県,犬上郡多賀町,大字土田３７０番地の１,,25,443,5220354,,,2023-01-23,登記官による閉鎖,,,2015-10-05,1,,,,,,0
191,1160005006397,登記記録の閉鎖等,0,2023-01-24,2023-01-23,滋賀県自転車卸商業協同組合,,その他の設立登記法人,滋賀県,東近江市,八日市本町４番８号,,25,213,5270012,,,2023-01-23,登記官による閉鎖,,,2015-10-05,1,,,,,,0
192,1160005008609,登記記録の閉鎖等,0,2023-01-24,2023-01-23,滋賀土木建設工事協同組合,,その他の設立登記法人,滋賀県,草津市,馬場町５７５番地,,25,206,5250043,,,2023-01-23,登記官による閉鎖,,,2015-10-05,1,,,,,,0
194,1180001000253,登記記録の閉鎖等,0,2023-01-24,2023-01-20,カコイハウス工業株式会社,,株式会社,愛知県,名古屋市守山区,菱池町１６番１５号,,23,113,4630045,,,2023-01-20,清算の結了等,,,2015-10-05,1,,,,,カコイハウスコウギョウ,0
208,1180301022344,登記記録の閉鎖等,0,2023-01-24,2023-01-17,エヌビーモールドテック株式会社,,株式会社,愛知県,西尾市,伊藤１丁目１０番地１３,,23,213,4450807,,,2023-01-17,清算の結了等,,,2015-10-05,1,,,,,エヌビーモールドテック,0
213,1200002003310,登記記録の閉鎖等,0,2023-01-24,2023-01-23,有限会社トレード,,有限会社,岐阜県,瑞穂市,本田８５８番地８,,21,216,5010236,,,2023-01-23,清算の結了等,,,2015-10-05,1,,,,,トレード,0
216,1220001021278,登記記録の閉鎖等,0,2023-01-24,2023-01-18,株式会社ダカルポ,,株式会社,石川県,七尾市,松百新町壱部４２番地１ミッキーハウスＮｏ．６－２０２号室,,17,202,9260000,,,2023-01-18,合併による解散等,1220001023035,令和５年１月１５日石川県七尾市泉南台９０番地株式会社インペイド（1220001023035）に合併し解散,2016-10-18,1,,,,,ダカルポ,0
222,1240001041381,登記記録の閉鎖等,0,2023-01-24,2023-01-19,株式会社なでしこ介護事業所,,株式会社,広島県,広島市安佐南区,八木５丁目２３番３－１０１号,,34,105,7310101,,,2023-01-19,清算の結了等,,,2015-10-05,1,,,,,ナデシコカイゴジギョウショ,0
237,1280002009993,登記記録の閉鎖等,0,2023-01-24,2023-01-20,新興水産有限会社,,有限会社,島根県,益田市,飯浦町イ８８９番地５,,32,204,6993761,,,2023-01-20,清算の結了等,,,2015-10-05,1,,,,,シンコウスイサン,0
251,1320201000591,登記記録の閉鎖等,0,2023-01-24,2023-01-10,日照工業株式会社,,株式会社,大分県,臼杵市,大字海添８０５番地,,44,206,8750042,,,2023-01-10,清算の結了等,,,2015-10-05,1,,,,,,0
252,1330001001896,登記記録の閉鎖等,0,2023-01-24,2023-01-20,株式会社サンエー建設,,株式会社,熊本県,熊本市中央区,八王寺町３０番１号,,43,101,8600831,,,2023-01-20,登記官による閉鎖,,,2015-10-05,1,,,,,,0
253,1330001002928,登記記録の閉鎖等,0,2023-01-24,2023-01-20,田中商事株式会社,,株式会社,熊本県,熊本市東区,沼山津３丁目４番３２号,,43,102,8612102,,,2023-01-20,登記官による閉鎖,,,2015-10-05,1,,,,,,0
254,1330001004767,登記記録の閉鎖等,0,2023-01-24,2023-01-20,株式会社ユー・エム・エムサウンドシステムズ,,株式会社,熊本県,熊本市南区,平田２丁目１５番９号,,43,104,8600826,,,2023-01-20,登記官による閉鎖,,,2015-10-05,1,,,,,,0
255,1330001007282,登記記録の閉鎖等,0,2023-01-24,2023-01-20,株式会社タケトブ,,株式会社,熊本県,熊本市中央区,水前寺１丁目５番２４－５０２号,,43,101,8620950,,,2023-01-20,登記官による閉鎖,,,2015-10-05,1,,,,,,0
256,1330001013339,登記記録の閉鎖等,0,2023-01-24,2023-01-20,春山金属株式会社,,株式会社,熊本県,宇土市,岩古曽町５８６番地４,,43,211,8690412,,,2023-01-20,登記官による閉鎖,,,2015-10-05,1,,,,,,0
257,1330001017595,登記記録の閉鎖等,0,2023-01-24,2023-01-20,浜田貫工株式会社,,株式会社,熊本県,玉名郡長洲町,大字長洲２３９５番地２,,43,368,8690123,,,2023-01-20,登記官による閉鎖,,,2015-10-05,1,,,,,,0
258,1330002003784,登記記録の閉鎖等,0,2023-01-24,2023-01-20,有限会社高清,,有限会社,熊本県,熊本市西区,八島２丁目１番６号,,43,103,8600054,,,2023-01-20,登記官による閉鎖,,,2015-10-05,1,,,,,,0
259,1330002005599,登記記録の閉鎖等,0,2023-01-24,2023-01-20,有限会社鈴木建装,,有限会社,熊本県,熊本市西区,島崎２丁目１５番２６号,,43,103,8600073,,,2023-01-20,登記官による閉鎖,,,2015-10-05,1,,,,,,0
260,1330002010764,登記記録の閉鎖等,0,2023-01-24,2023-01-20,有限会社八木,,有限会社,熊本県,熊本市東区,長嶺南２丁目４番３２号,,43,102,8618039,,,2023-01-20,登記官による閉鎖,,,2015-10-05,1,,,,,,0
261,1330002028757,登記記録の閉鎖等,0,2023-01-24,2023-01-20,有限会社千葉石材工業所,,有限会社,熊本県,天草市,下浦町２８００番地,,43,215,8616551,,,2023-01-20,登記官による閉鎖,,,2015-10-05,1,,,,,,0
262,1330002030845,登記記録の閉鎖等,0,2023-01-24,2023-01-20,有限会社あすかコーポレーション,,有限会社,熊本県,球磨郡多良木町,大字多良木２８３３番地,,43,505,8680501,,,2023-01-20,登記官による閉鎖,,,2015-10-05,1,,,,,,0
274,1370001002957,登記記録の閉鎖等,0,2023-01-24,2023-01-23,株式会社建華園,,株式会社,宮城県,仙台市若林区,新寺３丁目１番４５号,,04,103,9840051,,,2023-01-23,登記官による閉鎖,,,2015-10-05,1,,,,,,0
275,1370001003039,登記記録の閉鎖等,0,2023-01-24,2023-01-23,サンエス自動車工業株式会社,,株式会社,宮城県,仙台市若林区,卸町東５丁目４番１７号,,04,103,9840002,,,2023-01-23,登記官による閉鎖,,,2015-10-05,1,,,,,,0
279,1370002000794,登記記録の閉鎖等,0,2023-01-24,2023-01-23,有限会社サンエス金型,,有限会社,宮城県,仙台市泉区,高森６丁目４５番地の６,,04,105,9813203,,,2023-01-23,登記官による閉鎖,,,2015-10-05,1,,,,,,0
280,1370002006957,登記記録の閉鎖等,0,2023-01-24,2023-01-23,有限会社大橋設備,,有限会社,宮城県,仙台市宮城野区,鶴ケ谷東３丁目１３番７号,,04,102,9830826,,,2023-01-23,登記官による閉鎖,,,2015-10-05,1,,,,,,0
281,1370002008813,登記記録の閉鎖等,0,2023-01-24,2023-01-23,有限会社ムーブ,,有限会社,宮城県,仙台市宮城野区,原町４丁目１番２８－４０６号,,04,102,9830841,,,2023-01-23,登記官による閉鎖,,,2015-10-05,1,,,,,,0
286,1370102000653,登記記録の閉鎖等,0,2023-01-24,2023-01-23,有限会社読売新聞船岡専売所,,有限会社,宮城県,柴田郡柴田町,大字船岡字上大原１５番地の１,,04,323,9891606,,,2023-01-23,登記官による閉鎖,,,2015-10-05,1,,,,,,0
287,1370302001749,登記記録の閉鎖等,0,2023-01-24,2023-01-23,有限会社長井冷機工業,,有限会社,宮城県,石巻市,流留字二番囲８２番地３６,,04,202,9862103,,,2023-01-23,登記官による閉鎖,,,2015-10-05,1,,,,,,0
288,1370602002372,登記記録の閉鎖等,0,2023-01-24,2023-01-23,有限会社かえで薬局,,有限会社,宮城県,多賀城市,下馬２丁目１０番８号,,04,209,9850835,,,2023-01-23,登記官による閉鎖,,,2015-10-05,1,,,,,,0
297,1450001000812,登記記録の閉鎖等,0,2023-01-24,2023-01-24,片村産業株式会社,,株式会社,北海道,旭川市,旭神町３２番地の３,,01,204,0788308,,,2023-01-24,登記官による閉鎖,,,2015-10-05,1,,,,,,0
298,1450001004813,登記記録の閉鎖等,0,2023-01-24,2023-01-24,株式会社高田商店,,株式会社,北海道,雨竜郡妹背牛町,字妹背牛３８２番地の１０,,01,433,0790500,,,2023-01-24,登記官による閉鎖,,,2015-10-05,1,,,,,,0
299,1450002005117,登記記録の閉鎖等,0,2023-01-24,2023-01-24,有限会社マグナム,,有限会社,北海道,旭川市,神居八条５丁目２番２号,,01,204,0708018,,,2023-01-24,登記官による閉鎖,,,2015-10-05,1,,,,,,0
300,1450002006206,登記記録の閉鎖等,0,2023-01-24,2023-01-24,有限会社和田工務店,,有限会社,北海道,旭川市,春光台四条５丁目３番６号,,01,204,0718144,,,2023-01-24,登記官による閉鎖,,,2015-10-05,1,,,,,,0
301,1450002008326,登記記録の閉鎖等,0,2023-01-24,2023-01-24,有限会社アトム塗装,,有限会社,北海道,旭川市,五条通９丁目１７０３番３０,,01,204,0700035,,,2023-01-24,登記官による閉鎖,,,2015-10-05,1,,,,,,0
311,2010001036429,登記記録の閉鎖等,0,2023-01-24,2023-01-19,株式会社青木喜重郎商會,,株式会社,東京都,中央区,京橋２丁目８番１２号,,13,102,1040031,,,2023-01-19,清算の結了等,,,2015-10-05,1,,,,,アオキキジュウロウショウカイ,0
383,2011601002695,登記記録の閉鎖等,0,2023-01-24,2023-01-24,佐藤管工業株式会社,,株式会社,東京都,練馬区,高松６丁目１４番１９号,,13,120,1790075,,,2023-01-24,登記官による閉鎖,,,2015-10-05,1,,,,,,0
384,2011601018139,登記記録の閉鎖等,0,2023-01-24,2023-01-18,株式会社スプレッド,,株式会社,東京都,中野区,中央２丁目５８番１０号,,13,114,1640011,,,2023-01-18,清算の結了等,,,2015-10-05,1,,,,,スプレッド,0
385,2011602002496,登記記録の閉鎖等,0,2023-01-24,2023-01-24,有限会社環境創造研究所,00056198,有限会社,東京都,練馬区,中村北３丁目１５番５号,,13,120,1760023,,,2023-01-24,登記官による閉鎖,,,2015-10-05,1,,,,,,0
386,2011602021496,登記記録の閉鎖等,0,2023-01-24,2023-01-24,有限会社今井オフィス,,有限会社,東京都,練馬区,石神井台４丁目１番３－１００５号,,13,120,1770045,,,2023-01-24,登記官による閉鎖,,,2015-10-05,1,,,,,,0
397,2013201017900,登記記録の閉鎖等,0,2023-01-24,2023-01-16,南光株式会社,,株式会社,東京都,目黒区,五本木１丁目２９番１号ＰＩＡＺＺＡ－Ｕ,,13,110,1530053,,,2023-01-16,清算の結了等,,,2015-10-05,1,,,,,ナンコウ,0
402,2020001131006,登記記録の閉鎖等,0,2023-01-24,2023-01-19,日本華翔株式会社,,株式会社,神奈川県,横浜市港北区,新横浜２丁目５番地１９アプリ新横浜ビル２０１,,14,109,2220033,,,2023-01-19,清算の結了等,,,2019-05-10,1,,,,,ニホンカショウ,0
407,2020002053769,登記記録の閉鎖等,0,2023-01-24,2023-01-19,有限会社横浜ベジタブル,,有限会社,神奈川県,横浜市港北区,篠原町１１０３番地１,,14,109,2220026,,,2023-01-19,清算の結了等,,,2015-10-05,1,,,,,ヨコハマベジタブル,0
413,2021001068948,登記記録の閉鎖等,0,2023-01-24,2023-01-19,株式会社ネット,,株式会社,東京都,新宿区,大久保２丁目１３番４号北原ビル９０６,,13,104,1690072,,,2023-01-19,清算の結了等,,,2020-01-06,1,,,,,ネット,0
434,2060002000362,登記記録の閉鎖等,0,2023-01-24,2023-01-19,有限会社テツカ地所,,有限会社,栃木県,宇都宮市,下小倉町２１７８番地,,09,201,3210403,,,2023-01-19,登記官による閉鎖,,,2015-10-05,1,,,,,,0
435,2060002005923,登記記録の閉鎖等,0,2023-01-24,2023-01-19,有限会社谷川,,有限会社,栃木県,宇都宮市,氷室町１６４９番地１,,09,201,3213232,,,2023-01-19,登記官による閉鎖,,,2015-10-05,1,,,,,,0
436,2060002009008,登記記録の閉鎖等,0,2023-01-24,2023-01-19,有限会社百瀬物産,,有限会社,栃木県,宇都宮市,弥生町二丁目１番３号,,09,201,3210000,,,2023-01-19,登記官による閉鎖,,,2015-10-05,1,,,,,,1
437,2060002010824,登記記録の閉鎖等,0,2023-01-24,2023-01-19,有限会社ジョイフル・ランカ,,有限会社,栃木県,宇都宮市,宮原４丁目４番６号,,09,201,3200835,,,2023-01-19,登記官による閉鎖,,,2015-10-05,1,,,,,,0
438,2060002016986,登記記録の閉鎖等,0,2023-01-24,2023-01-19,有限会社伊豆金物店,,有限会社,栃木県,真岡市,荒町３丁目４４番地８,,09,209,3214305,,,2023-01-19,登記官による閉鎖,,,2015-10-05,1,,,,,,0
439,2060002020880,登記記録の閉鎖等,0,2023-01-24,2023-01-19,有限会社北星商事,,有限会社,栃木県,鹿沼市,千渡１７０１番地,,09,205,3220002,,,2023-01-19,登記官による閉鎖,,,2015-10-05,1,,,,,,0
440,2060002028370,登記記録の閉鎖等,0,2023-01-24,2023-01-19,光陽産業有限会社,,有限会社,栃木県,小山市,城東５丁目２０番１７号,,09,208,3230807,,,2023-01-19,登記官による閉鎖,,,2015-10-05,1,,,,,,0
441,2060002031655,登記記録の閉鎖等,0,2023-01-24,2023-01-19,有限会社うえ乃宮,,有限会社,栃木県,栃木市,泉川町７３番地１,,09,203,3280062,,,2023-01-19,登記官による閉鎖,,,2015-10-05,1,,,,,,0
442,2060002036225,登記記録の閉鎖等,0,2023-01-24,2023-01-19,有限会社サイトー商会,,有限会社,栃木県,足利市,田中町６２８番地の２,,09,202,3260822,,,2023-01-19,登記官による閉鎖,,,2015-10-05,1,,,,,,0
443,2060002039194,登記記録の閉鎖等,0,2023-01-24,2023-01-19,有限会社高野縫製,,有限会社,栃木県,佐野市,植上町１４１３番地の３,,09,204,3270832,,,2023-01-19,登記官による閉鎖,,,2015-10-05,1,,,,,,0
452,2080001016052,登記記録の閉鎖等,0,2023-01-24,2023-01-17,株式会社藤田,,株式会社,静岡県,焼津市,東小川８丁目１２番地の２,,22,212,4250035,,,2023-01-17,清算の結了等,,,2015-10-05,1,,,,,フジタ,0
453,2080001020574,登記記録の閉鎖等,0,2023-01-24,2023-01-23,あーるず株式会社,,株式会社,静岡県,静岡市清水区,追分２丁目１７番３２号,,22,103,4240841,,,2023-01-23,清算の結了等,,,2015-11-02,1,,,,,アールズ,0
458,2120001023325,登記記録の閉鎖等,0,2023-01-24,2023-01-20,株式会社コーリュウプランニング,,株式会社,大阪府,大阪市天王寺区,上本町４丁目１番１６号大和ビル,,27,109,5430001,,,2023-01-20,清算の結了等,,,2015-10-05,1,,,,,コーリュウプランニング,0
462,2120001150598,登記記録の閉鎖等,0,2023-01-24,2023-01-20,富士アドマックス企画株式会社,,株式会社,大阪府,枚方市,楠葉野田１丁目９番１６号,,27,210,5731103,,,2023-01-20,清算の結了等,,,2015-10-05,1,,,,,フジアドマックスキカク,0
491,2140002046918,登記記録の閉鎖等,0,2023-01-24,2023-01-19,有限会社きたよねや,,有限会社,兵庫県,美方郡新温泉町,湯１１７番地,,28,586,6696821,,,2023-01-19,清算の結了等,,,2015-10-05,1,,,,,キタヨネヤ,0
496,2160001005419,登記記録の閉鎖等,0,2023-01-24,2023-01-23,株式会社コウナン,,株式会社,滋賀県,甲賀市,甲南町竜法師５６１番地の３,,25,209,5203311,,,2023-01-23,登記官による閉鎖,,,2015-10-05,1,,,,,,0
497,2160001009527,登記記録の閉鎖等,0,2023-01-24,2023-01-23,株式会社Ｋ＆Ｆ,,株式会社,滋賀県,犬上郡甲良町,大字法養寺１８５番地５,,25,442,5220263,,,2023-01-23,登記官による閉鎖,,,2015-10-05,1,,,,,,0
498,2160001010063,登記記録の閉鎖等,0,2023-01-24,2023-01-23,株式会社寺義工作所,,株式会社,滋賀県,東近江市,神田町１６２番地,,25,213,5270043,,,2023-01-23,登記官による閉鎖,,,2015-10-05,1,,,,,,0
499,2160001010716,登記記録の閉鎖等,0,2023-01-24,2023-01-23,株式会社キョウエイ,,株式会社,滋賀県,近江八幡市,野村町８０４番地,,25,204,5230075,,,2023-01-23,登記官による閉鎖,,,2015-10-05,1,,,,,,0
500,2160002009600,登記記録の閉鎖等,0,2023-01-24,2023-01-23,有限会社紫野,,有限会社,滋賀県,東近江市,小脇町５６１番地の１,,25,213,5270091,,,2023-01-23,登記官による閉鎖,,,2015-10-05,1,,,,,,0
501,2160005001372,登記記録の閉鎖等,0,2023-01-24,2023-01-23,特定非営利活動法人戦争体験を語り継ぐ会,,その他の設立登記法人,滋賀県,大津市,朝日が丘１丁目１４番７号,,25,201,5200052,,,2023-01-23,登記官による閉鎖,,,2015-10-05,1,,,,,,0
502,2160005002544,登記記録の閉鎖等,0,2023-01-24,2023-01-23,甲西ガス協業組合,,その他の設立登記法人,滋賀県,湖南市,吉永字中川原４３４番１,,25,211,5203222,,,2023-01-23,登記官による閉鎖,,,2015-10-05,1,,,,,,0
507,2180001051114,登記記録の閉鎖等,0,2023-01-24,2023-01-18,株式会社日経名古屋製作センター,,株式会社,愛知県,清須市,春日中沼９番地,,23,233,4520962,,,2023-01-18,合併による解散等,6120001031407,令和５年１月１日大阪市城東区放出西二丁目１２番１０号株式会社日経西日本製作センター（6120001031407）に合併し解散,2015-10-05,1,,,,,ニッケイナゴヤセイサクセンター,0
511,2190002018383,登記記録の閉鎖等,0,2023-01-24,2023-01-20,有限会社かね甚,,有限会社,三重県,桑名市,大字友村３４７番地,,24,205,5110938,,,2023-01-20,清算の結了等,,,2015-10-05,1,,,,,カネジン,0
520,2250001011044,登記記録の閉鎖等,0,2023-01-24,2023-01-18,株式会社ながの,,株式会社,山口県,周南市,緑町３丁目３７番地の１,,35,215,7450075,,,2023-01-18,清算の結了等,,,2015-10-05,1,,,,,ナガノ,0
523,2260005005776,登記記録の閉鎖等,0,2023-01-24,2023-01-23,ロイヤル協同組合,,その他の設立登記法人,岡山県,笠岡市,園井２９５番地の１,,33,205,7140021,,,2023-01-23,清算の結了等,,,2015-10-05,1,,,,,ロイヤル,0
524,2270001000846,登記記録の閉鎖等,0,2023-01-24,2023-01-19,株式会社レジェンヌ,,株式会社,鳥取県,鳥取市,賀露町南１丁目５番６号,,31,201,6800909,,,2023-01-19,清算の結了等,,,2015-10-05,1,,,,,,0
534,2330001005079,登記記録の閉鎖等,0,2023-01-24,2023-01-20,株式会社宮崎電機製作所,,株式会社,熊本県,熊本市南区,御幸西２丁目３番１２号,,43,104,8614171,,,2023-01-20,登記官による閉鎖,,,2015-10-05,1,,,,,,0
535,2330001006449,登記記録の閉鎖等,0,2023-01-24,2023-01-20,株式会社エンタ,,株式会社,熊本県,熊本市中央区,紺屋今町１番９号,,43,101,8600012,,,2023-01-20,登記官による閉鎖,,,2015-10-05,1,,,,,,0
536,2330001010228,登記記録の閉鎖等,0,2023-01-24,2023-01-20,鹿本製糸株式会社,,株式会社,熊本県,山鹿市,鹿校通３丁目１番４６号,,43,208,8610532,,,2023-01-20,登記官による閉鎖,,,2015-10-05,1,,,,,,0
538,2330002000269,登記記録の閉鎖等,0,2023-01-24,2023-01-20,有限会社安生薬品,,有限会社,熊本県,熊本市西区,横手３丁目５番４号,,43,103,8600046,,,2023-01-20,登記官による閉鎖,,,2015-10-05,1,,,,,,0
539,2330002007652,登記記録の閉鎖等,0,2023-01-24,2023-01-20,有限会社中村商会,,有限会社,熊本県,熊本市西区,中島町１５０８番地３,,43,103,8615272,,,2023-01-20,登記官による閉鎖,,,2015-10-05,1,,,,,,0
540,2330002019854,登記記録の閉鎖等,0,2023-01-24,2023-01-20,有限会社益城自動車整備工場,,有限会社,熊本県,上益城郡御船町,大字木倉１８９番地２,,43,441,8613204,,,2023-01-20,登記官による閉鎖,,,2015-10-05,1,,,,,,0
541,2330002030803,登記記録の閉鎖等,0,2023-01-24,2023-01-20,有限会社人吉銃砲火薬店,,有限会社,熊本県,人吉市,宝来町１２８７番地１,,43,203,8680011,,,2023-01-20,登記官による閉鎖,,,2015-10-05,1,,,,,,0
548,2370001018515,登記記録の閉鎖等,0,2023-01-24,2023-01-23,株式会社ピーチ・エンジェル,,株式会社,宮城県,仙台市青葉区,中央２丁目１１番２２号斎藤ビル４Ｆ,,04,101,9800021,,,2023-01-23,登記官による閉鎖,,,2015-10-05,1,,,,,,0
551,2370002003937,登記記録の閉鎖等,0,2023-01-24,2023-01-23,有限会社マツダサッシ,,有限会社,宮城県,仙台市太白区,西多賀２丁目１４番１８号,,04,104,9820034,,,2023-01-23,登記官による閉鎖,,,2015-10-05,1,,,,,,0
552,2370002008168,登記記録の閉鎖等,0,2023-01-24,2023-01-23,有限会社東亜冷熱サービス,,有限会社,宮城県,仙台市宮城野区,平成２丁目４番３４号,,04,102,9830037,,,2023-01-23,登記官による閉鎖,,,2015-10-05,1,,,,,,0
554,2370002015965,登記記録の閉鎖等,0,2023-01-24,2023-01-23,有限会社宮城野重機,,有限会社,宮城県,仙台市宮城野区,蒲生字小田切８４番地の４,,04,102,9830002,,,2023-01-23,登記官による閉鎖,,,2015-10-05,1,,,,,,0
555,2370002016773,登記記録の閉鎖等,0,2023-01-24,2023-01-23,有限会社情映プラン,,有限会社,宮城県,仙台市宮城野区,新田２丁目１３番１６号,,04,102,9830038,,,2023-01-23,登記官による閉鎖,,,2015-10-05,1,,,,,,0
556,2370003000719,登記記録の閉鎖等,0,2023-01-24,2023-01-23,合資会社五島機業場,,合資会社,宮城県,仙台市若林区,六十人町３６番地,,04,103,9840813,,,2023-01-23,登記官による閉鎖,,,2015-10-05,1,,,,,,0
558,2370101001676,登記記録の閉鎖等,0,2023-01-24,2023-01-23,株式会社角田衛生公社,,株式会社,宮城県,角田市,横倉字柿手５２番地２６,,04,208,9811512,,,2023-01-23,登記官による閉鎖,,,2015-10-05,1,,,,,,0
559,2370202000932,登記記録の閉鎖等,0,2023-01-24,2023-01-23,有限会社古川宅建センター,,有限会社,宮城県,大崎市,古川南町１丁目１番３号,,04,215,9896155,,,2023-01-23,登記官による閉鎖,,,2015-10-05,1,,,,,,0
562,2370401000659,登記記録の閉鎖等,0,2023-01-24,2023-01-23,株式会社ケーズ・ホーム,,株式会社,宮城県,登米市,迫町佐沼字光ケ丘１６６番地,,04,212,9870511,,,2023-01-23,登記官による閉鎖,,,2015-10-05,1,,,,,,0
563,2370402000096,登記記録の閉鎖等,0,2023-01-24,2023-01-23,有限会社佐藤屋旅館,,有限会社,宮城県,登米市,豊里町新田町１８３番地の１,,04,212,9870361,,,2023-01-23,登記官による閉鎖,,,2015-10-05,1,,,,,,0
576,2450001009737,登記記録の閉鎖等,0,2023-01-24,2023-01-24,ハッピー不動産株式会社,,株式会社,北海道,紋別市,落石町４丁目３４番地の４,,01,219,0940007,,,2023-01-24,登記官による閉鎖,,,2015-10-05,1,,,,,,0
577,2450002012797,登記記録の閉鎖等,0,2023-01-24,2023-01-24,有限会社宮下経理センター,,有限会社,北海道,紋別市,花園町２丁目３番１号,,01,219,0940015,,,2023-01-24,登記官による閉鎖,,,2015-10-05,1,,,,,,0
585,3010001052846,登記記録の閉鎖等,0,2023-01-24,2023-01-13,内外ビルサービス株式会社,,株式会社,東京都,千代田区,神田淡路町１丁目７番地,,13,101,1010063,,,2023-01-13,清算の結了等,,,2015-10-05,1,,,,,ナイガイビルサービス,0
590,3010401078771,登記記録の閉鎖等,0,2023-01-24,2023-01-06,株式会社ブライトハウス,,株式会社,東京都,港区,六本木７丁目１２番地１９号,,13,103,1060032,,,2023-01-06,清算の結了等,,,2015-10-05,1,,,,,ブライトハウス,0
599,3010403019534,登記記録の閉鎖等,0,2023-01-24,2023-01-05,合同会社ＲＪグリーンパワー,,合同会社,東京都,港区,虎ノ門１丁目２番８号リニューアブル・ジャパン株式会社内,,13,103,1050001,,,2023-01-05,清算の結了等,,,2018-10-22,1,,,,,アールジェイグリーンパワー,0
600,3010403023197,登記記録の閉鎖等,0,2023-01-24,2023-01-06,リアルブルーライズ合同会社,,合同会社,東京都,港区,虎ノ門３丁目２２番１０－２０１号,,13,103,1050001,,,2023-01-06,清算の結了等,,,2020-06-30,1,,,,,リアルブルーライズ,0
606,3010602026447,登記記録の閉鎖等,0,2023-01-24,2023-01-17,有限会社福与緑化,,有限会社,東京都,江東区,大島３丁目４番３号,,13,108,1360072,,,2023-01-17,清算の結了等,,,2015-10-05,1,,,,,フクヨリョッカ,0
611,3010801000079,登記記録の閉鎖等,0,2023-01-24,2023-01-13,株式会社アイ・エース,,株式会社,東京都,大田区,池上１丁目１６番１２号,,13,111,1460082,,,2023-01-13,清算の結了等,,,2015-10-05,1,,,,,アイエース,0
612,3010801011522,登記記録の閉鎖等,0,2023-01-24,2023-01-20,光嶋鋳工株式会社,,株式会社,神奈川県,横浜市神奈川区,神之木町１９番５－９０１号,,14,102,2210015,,,2023-01-20,清算の結了等,,,2015-10-05,1,,,,,ミツシマチュウコウ,0
643,3011601000277,登記記録の閉鎖等,0,2023-01-24,2023-01-24,株式会社赤目プロダクション,,株式会社,東京都,練馬区,向山２丁目１７番３９号,,13,120,1760022,,,2023-01-24,登記官による閉鎖,,,2015-10-05,1,,,,,,0
644,3011601001201,登記記録の閉鎖等,0,2023-01-24,2023-01-24,大谷工業株式会社,,株式会社,東京都,練馬区,貫井４丁目２番２６号,,13,120,1760021,,,2023-01-24,登記官による閉鎖,,,2015-10-05,1,,,,,,0
645,3011601003569,登記記録の閉鎖等,0,2023-01-24,2023-01-24,株式会社晴電社,,株式会社,東京都,練馬区,早宮４丁目１１番１０号,,13,120,1790085,,,2023-01-24,登記官による閉鎖,,,2015-10-05,1,,,,,,0
646,3011601003858,登記記録の閉鎖等,0,2023-01-24,2023-01-24,中央寿工業株式会社,,株式会社,東京都,練馬区,大泉学園町２丁目３０番１１号,,13,120,1780061,,,2023-01-24,登記官による閉鎖,,,2015-10-05,1,,,,,,0
647,3011601006258,登記記録の閉鎖等,0,2023-01-24,2023-01-24,株式会社芳和技建,,株式会社,東京都,練馬区,旭町１丁目１３番１２号,,13,120,1790071,,,2023-01-24,登記官による閉鎖,,,2015-10-05,1,,,,,,0
648,3011601010945,登記記録の閉鎖等,0,2023-01-24,2023-01-24,株式会社タカヤマコーポレーション,,株式会社,東京都,練馬区,土支田３丁目１番１０号,,13,120,1790076,,,2023-01-24,登記官による閉鎖,,,2015-10-05,1,,,,,,0
649,3011601014252,登記記録の閉鎖等,0,2023-01-24,2023-01-24,株式会社キメラ・クルー,,株式会社,東京都,練馬区,練馬１丁目１番３号,,13,120,1760001,,,2023-01-24,登記官による閉鎖,,,2015-10-05,1,,,,,,0
650,3011602002066,登記記録の閉鎖等,0,2023-01-24,2023-01-24,有限会社大野企画,,有限会社,東京都,練馬区,春日町６丁目１０番４６－３０３号,,13,120,1790074,,,2023-01-24,登記官による閉鎖,,,2015-10-05,1,,,,,,0
651,3011602003634,登記記録の閉鎖等,0,2023-01-24,2023-01-24,有限会社幸伸,,有限会社,東京都,練馬区,大泉町２丁目６番１３号,,13,120,1780062,,,2023-01-24,登記官による閉鎖,,,2015-10-05,1,,,,,,0
652,3011602008022,登記記録の閉鎖等,0,2023-01-24,2023-01-24,有限会社服部塗装店,,有限会社,東京都,練馬区,西大泉６丁目２３番３号,,13,120,1780065,,,2023-01-24,登記官による閉鎖,,,2016-12-20,1,,,,,,0
653,3011602009524,登記記録の閉鎖等,0,2023-01-24,2023-01-24,フジミ産業有限会社,,有限会社,東京都,練馬区,光が丘７丁目３番７号棟１３０４号,,13,120,1790072,,,2023-01-24,登記官による閉鎖,,,2015-10-05,1,,,,,,0
654,3011602009598,登記記録の閉鎖等,0,2023-01-24,2023-01-24,有限会社道野理容室,,有限会社,東京都,練馬区,関町北４丁目４番５号,,13,120,1770051,,,2023-01-24,登記官による閉鎖,,,2015-10-05,1,,,,,,0
655,3011605001255,登記記録の閉鎖等,0,2023-01-24,2023-01-24,特定非営利活動法人高齢者を支援するやすらぎの家,,その他の設立登記法人,東京都,練馬区,大泉学園町７丁目１１番１４号,,13,120,1780061,,,2023-01-24,登記官による閉鎖,,,2015-10-05,1,,,,,,0
658,3012302007504,登記記録の閉鎖等,0,2023-01-24,2023-01-16,有限会社ヤマクリ,,有限会社,東京都,町田市,成瀬が丘３丁目１３番地５,,13,209,1940011,,,2023-01-16,清算の結了等,,,2015-10-05,1,,,,,ヤマクリ,0
676,3020001108300,登記記録の閉鎖等,0,2023-01-24,2023-01-23,株式会社大輝,,株式会社,神奈川県,川崎市川崎区,四谷下町２０番１３－３号,,14,131,2100827,,,2023-01-23,清算の結了等,,,2015-10-05,1,,,,,,0
678,3020002002460,登記記録の閉鎖等,0,2023-01-24,2023-01-19,有限会社エー・ブイ・エフ,,有限会社,神奈川県,横浜市泉区,岡津町２５４０番地の８０,,14,116,2450003,,,2023-01-19,清算の結了等,,,2015-10-05,1,,,,,エーブイエフ,0
694,3040001059112,登記記録の閉鎖等,0,2023-01-24,2023-01-05,株式会社上總ボーリング,00019290,株式会社,千葉県,茂原市,中の島町９４３番地,,12,210,2970034,,,2023-01-05,合併による解散等,6040001059381,令和５年１月１日千葉県茂原市茂原６９９番地株式会社ＫＮＧウェルテクノ（6040001059381）に合併し解散,2015-10-05,1,,,,,カズサボーリング,0
709,3060001000890,登記記録の閉鎖等,0,2023-01-24,2023-01-19,株式会社エネ・サポート,,株式会社,栃木県,宇都宮市,下栗町１０２４番地４,,09,201,3210923,,,2023-01-19,登記官による閉鎖,,,2015-10-05,1,,,,,,0
710,3060001005361,登記記録の閉鎖等,0,2023-01-24,2023-01-19,株式会社梁山泊ソリューションズ,,株式会社,栃木県,宇都宮市,宮町２番２８号,,09,201,3200025,,,2023-01-19,登記官による閉鎖,,,2015-10-05,1,,,,,,0
711,3060001007845,登記記録の閉鎖等,0,2023-01-24,2023-01-19,テクノ技研株式会社,,株式会社,栃木県,宇都宮市,海道町６５２番地,,09,201,3210971,,,2023-01-19,登記官による閉鎖,,,2015-10-05,1,,,,,,0
712,3060001009230,登記記録の閉鎖等,0,2023-01-24,2023-01-19,株式会社じはんきや,,株式会社,栃木県,宇都宮市,下砥上町１２０１番地５,,09,201,3200852,,,2023-01-19,登記官による閉鎖,,,2015-10-05,1,,,,,,0
713,3060001009726,登記記録の閉鎖等,0,2023-01-24,2023-01-19,株式会社ビューティ．サロン青山,,株式会社,栃木県,芳賀郡芳賀町,大字祖母井７８９番地,,09,345,3213304,,,2023-01-19,登記官による閉鎖,,,2015-10-05,1,,,,,,0
714,3060001013422,登記記録の閉鎖等,0,2023-01-24,2023-01-19,株式会社ヒタカ,,株式会社,栃木県,矢板市,館ノ川６８１番地,,09,211,3292152,,,2023-01-19,登記官による閉鎖,,,2015-10-05,1,,,,,,0
715,3060001013785,登記記録の閉鎖等,0,2023-01-24,2023-01-19,株式会社リッチガーデン,,株式会社,栃木県,宇都宮市,川田町１５２０番地４,,09,201,3210111,,,2023-01-19,登記官による閉鎖,,,2015-10-05,1,,,,,,0
716,3060001014494,登記記録の閉鎖等,0,2023-01-24,2023-01-19,株式会社東栄不動産,,株式会社,栃木県,小山市,駅東通り１丁目２番２１号,,09,208,3230022,,,2023-01-19,登記官による閉鎖,,,2015-10-05,1,,,,,,0
717,3060001020278,登記記録の閉鎖等,0,2023-01-24,2023-01-19,株式会社オザワ工業,,株式会社,栃木県,佐野市,大栗町１４３番地,,09,204,3270807,,,2023-01-19,登記官による閉鎖,,,2015-10-05,1,,,,,,0
718,3060001021160,登記記録の閉鎖等,0,2023-01-24,2023-01-19,株式会社マックスクリエイト,,株式会社,栃木県,佐野市,山形町１５０番地３,,09,204,3270324,,,2023-01-19,登記官による閉鎖,,,2015-10-05,1,,,,,,0
719,3060002000527,登記記録の閉鎖等,0,2023-01-24,2023-01-19,有限会社アイガ電機,,有限会社,栃木県,宇都宮市,雀宮町３３４番地１５,,09,201,3210121,,,2023-01-19,登記官による閉鎖,,,2015-10-05,1,,,,,,0
720,3060002001269,登記記録の閉鎖等,0,2023-01-24,2023-01-19,有限会社伊藤塗装工業,,有限会社,栃木県,宇都宮市,東町３８番地１,,09,201,3210985,,,2023-01-19,登記官による閉鎖,,,2015-10-05,1,,,,,,0
721,3060002008867,登記記録の閉鎖等,0,2023-01-24,2023-01-19,有限会社南タイル工業,,有限会社,栃木県,宇都宮市,本丸町１３番４号,,09,201,3200817,,,2023-01-19,登記官による閉鎖,,,2015-10-05,1,,,,,,0
722,3060002008891,登記記録の閉鎖等,0,2023-01-24,2023-01-19,有限会社ムツミ商会,,有限会社,栃木県,宇都宮市,清原台６丁目３６番１７号,,09,201,3213223,,,2023-01-19,登記官による閉鎖,,,2015-10-05,1,,,,,,0
723,3060002011193,登記記録の閉鎖等,0,2023-01-24,2023-01-19,テクノ建設有限会社,,有限会社,栃木県,河内郡上三川町,しらさぎ１丁目２０番地５,,09,301,3290618,,,2023-01-19,登記官による閉鎖,,,2015-10-05,1,,,,,,0
724,3060002019427,登記記録の閉鎖等,0,2023-01-24,2023-01-19,有限会社秋沢汽缶工業所,,有限会社,栃木県,鹿沼市,鳥居跡町１４４２番地,,09,205,3220044,,,2023-01-19,登記官による閉鎖,,,2015-10-05,1,,,,,,0
725,3060002020632,登記記録の閉鎖等,0,2023-01-24,2023-01-19,中丸熔接工業有限会社,,有限会社,栃木県,鹿沼市,上石川１１９６番地８,,09,205,3220015,,,2023-01-19,登記官による閉鎖,,,2015-10-05,1,,,,,,0
726,3060002020814,登記記録の閉鎖等,0,2023-01-24,2023-01-19,有限会社富士ガラス工業,,有限会社,栃木県,鹿沼市,泉町２４４６番地２１,,09,205,3220062,,,2023-01-19,登記官による閉鎖,,,2015-10-05,1,,,,,,0
727,3060002022538,登記記録の閉鎖等,0,2023-01-24,2023-01-19,有限会社那須フォーラム,,有限会社,栃木県,那須塩原市,鳥野目８番地１６５,,09,213,3250036,,,2023-01-19,登記官による閉鎖,,,2015-10-05,1,,,,,,0
728,3060002029913,登記記録の閉鎖等,0,2023-01-24,2023-01-19,有限会社エフエムテック,,有限会社,栃木県,下都賀郡野木町,大字友沼５３２５番地８,,09,364,3290101,,,2023-01-19,登記官による閉鎖,,,2015-10-05,1,,,,,,0
729,3060002033031,登記記録の閉鎖等,0,2023-01-24,2023-01-19,有限会社栃木アルミ,,有限会社,栃木県,栃木市,大平町西野田６２７番地,,09,203,3294421,,,2023-01-19,登記官による閉鎖,,,2015-10-05,1,,,,,,0
730,3060002034665,登記記録の閉鎖等,0,2023-01-24,2023-01-19,有限会社梁島工業,,有限会社,栃木県,下都賀郡壬生町,大字下稲葉１３０３番地２,,09,361,3210237,,,2023-01-19,登記官による閉鎖,,,2015-10-05,1,,,,,,0
731,3060002035250,登記記録の閉鎖等,0,2023-01-24,2023-01-19,有限会社浅野金属彫刻所,,有限会社,栃木県,足利市,山下町２５６９番地の１,,09,202,3260846,,,2023-01-19,登記官による閉鎖,,,2015-10-05,1,,,,,,0
732,3060002036620,登記記録の閉鎖等,0,2023-01-24,2023-01-19,有限会社太陽ゴルフサービス,,有限会社,栃木県,足利市,堀込町２８７５番地,,09,202,3260831,,,2023-01-19,登記官による閉鎖,,,2015-10-05,1,,,,,,0
733,3060002038146,登記記録の閉鎖等,0,2023-01-24,2023-01-19,有限会社白倉工務店,,有限会社,栃木県,足利市,梁田町６０５番地,,09,202,3260321,,,2023-01-19,登記官による閉鎖,,,2015-10-05,1,,,,,,0
734,3060005003733,登記記録の閉鎖等,0,2023-01-24,2023-01-19,一般社団法人地域おこし推進機構,,その他の設立登記法人,栃木県,宇都宮市,雀の宮４丁目９番１６号,,09,201,3210132,,,2023-01-19,登記官による閉鎖,,,2015-10-05,1,,,,,,0
740,3080105006056,登記記録の閉鎖等,0,2023-01-24,2023-01-19,一般社団法人ＥＤＵＣＡＴＩＯＮ　ｄｅｓｉｇｎ,,その他の設立登記法人,神奈川県,川崎市中原区,上小田中２丁目３８番１号メゾンシムラ１０１,,14,133,2110053,,,2023-01-19,清算の結了等,,,2020-06-26,1,,,,,エデュケーションデザイン,0
744,3090002013476,登記記録の閉鎖等,0,2023-01-24,2023-01-20,有限会社伊藤建設,,有限会社,山梨県,北杜市,明野町上手９４１６番地の１,,19,209,4080204,,,2023-01-20,合併による解散等,1012401013553,令和５年１月１７日東京都武蔵野市吉祥寺南町二丁目４番１８号株式会社慶和（1012401013553）に合併し解散,2015-10-05,1,,,,,イトウケンセツ,0
747,3120001009439,登記記録の閉鎖等,0,2023-01-24,2023-01-20,株式会社カクマツ屋,,株式会社,大阪府,大阪市東住吉区,駒川４丁目１６番３号,,27,121,5460043,,,2023-01-20,清算の結了等,,,2015-10-05,1,,,,,カクマツヤ,0
749,3120001117324,登記記録の閉鎖等,0,2023-01-24,2023-01-20,株式会社ＤＯ－ＵＰ,,株式会社,大阪府,大阪市淀川区,十三本町１丁目２４番１７号,,27,123,5320024,,,2023-01-20,清算の結了等,,,2015-10-05,1,,,,,ドゥーアップ,0
764,3122002016281,登記記録の閉鎖等,0,2023-01-24,2023-01-23,アステック有限会社,,有限会社,大阪府,八尾市,曙町２丁目７番地の４,00034904,27,212,5810026,,,2023-01-23,清算の結了等,,,2015-10-05,1,,,,,アステック,0
765,3130001030583,登記記録の閉鎖等,0,2023-01-24,2023-01-17,アイエス技研株式会社,,株式会社,京都府,京都市北区,紫野大徳寺町４８番地の２,,26,101,6038231,,,2023-01-17,清算の結了等,,,2015-10-05,1,,,,,アイエスギケン,0
776,3160001003594,登記記録の閉鎖等,0,2023-01-24,2023-01-23,株式会社ＢＭＤ,,株式会社,滋賀県,大津市,仰木の里１丁目９番１１号,,25,201,5200246,,,2023-01-23,登記官による閉鎖,,,2015-10-05,1,,,,,,0
777,3160001006168,登記記録の閉鎖等,0,2023-01-24,2023-01-23,株式会社えびす,,株式会社,滋賀県,甲賀市,甲南町寺庄１０４２,,25,209,5203301,,,2023-01-23,登記官による閉鎖,,,2015-10-05,1,,,,,,0
778,3160001011151,登記記録の閉鎖等,0,2023-01-24,2023-01-23,株式会社佐野工房,,株式会社,滋賀県,近江八幡市,安土町西老蘇９０５番地,,25,204,5211334,,,2023-01-23,登記官による閉鎖,,,2015-10-05,1,,,,,,0
779,3160001011572,登記記録の閉鎖等,0,2023-01-24,2023-01-23,川崎建工株式会社,00044334,株式会社,滋賀県,近江八幡市,馬淵町１７１１番地６,,25,204,5230022,,,2023-01-23,登記官による閉鎖,,,2015-10-05,1,,,,,,0
782,3160002011183,登記記録の閉鎖等,0,2023-01-24,2023-01-23,有限会社井ノ口商店,,有限会社,滋賀県,高島市,新旭町藁園１５９８番地,,25,212,5201511,,,2023-01-23,登記官による閉鎖,,,2015-10-05,1,,,,,,0
785,3180001102535,登記記録の閉鎖等,0,2023-01-24,2023-01-20,株式会社アドヴァント,,株式会社,愛知県,名古屋市中区,栄３丁目２８番１５号,,23,106,4600008,,,2023-01-20,清算の結了等,,,2015-10-05,1,,,,,アドヴァント,0
787,3180001121741,登記記録の閉鎖等,0,2023-01-24,2023-01-20,株式会社ＲＡＫＵＤＯ,,株式会社,愛知県,名古屋市東区,東桜２丁目１３番１号ｅａｓｔｇａｔｈｅｒ東桜３Ｆ,,23,102,4610005,,,2023-01-20,清算の結了等,,,2016-01-14,1,,,,,ラクドウ,0
790,3180002038646,登記記録の閉鎖等,0,2023-01-24,2023-01-19,株式会社スティックラー,,株式会社,愛知県,名古屋市中区,栄２丁目９番８号クリエイトセンター伏見ビル３階,,23,106,4600008,,,2023-01-19,清算の結了等,,,2015-10-05,1,,,,,スティックラー,0
794,3180003020157,登記記録の閉鎖等,0,2023-01-24,2023-01-19,夢職合同会社,,合同会社,愛知県,名古屋市中川区,澄池町２０番１１号,,23,110,4540806,,,2023-01-19,清算の結了等,,,2019-07-09,1,,,,,ムショク,0
806,3200002005560,登記記録の閉鎖等,0,2023-01-24,2023-01-23,有限会社東京技研,,有限会社,岐阜県,岐阜市,加納東広江町３５番地２,,21,201,5008414,,,2023-01-23,清算の結了等,,,2015-10-05,1,,,,,トウキョウギケン,0
809,3210002001286,登記記録の閉鎖等,0,2023-01-24,2023-01-19,有限会社小寺レース,,有限会社,福井県,福井市,定正町７１０番３,,18,201,9100121,,,2023-01-19,清算の結了等,,,2015-10-05,1,,,,,コデラレース,0
829,3290005005608,登記記録の閉鎖等,0,2023-01-24,2023-01-19,古賀花見食糧販売企業組合,,その他の設立登記法人,福岡県,古賀市,花見東２丁目３番６号,,40,223,8113112,,,2023-01-19,清算の結了等,,,2015-10-05,1,,,,,コガハナミショクリョウハンバイ,0
832,3330001002505,登記記録の閉鎖等,0,2023-01-24,2023-01-20,株式会社成蹊,,株式会社,熊本県,熊本市東区,江津２丁目２８番３０号,,43,102,8620942,,,2023-01-20,登記官による閉鎖,,,2015-10-05,1,,,,,,0
833,3330001008915,登記記録の閉鎖等,0,2023-01-24,2023-01-20,株式会社ＭＳ建装工業,,株式会社,熊本県,菊池郡大津町,大字室１１０９－７,,43,403,8691235,,,2023-01-20,登記官による閉鎖,,,2015-10-05,1,,,,,,0
836,3330002002586,登記記録の閉鎖等,0,2023-01-24,2023-01-20,有限会社きたはち,,有限会社,熊本県,熊本市中央区,花畑町１３番２７号,,43,101,8600806,,,2023-01-20,登記官による閉鎖,,,2015-10-05,1,,,,,,0
837,3330002007841,登記記録の閉鎖等,0,2023-01-24,2023-01-20,有限会社西村空調サービス,,有限会社,熊本県,熊本市南区,川口町２７２１番地２,,43,104,8614123,,,2023-01-20,登記官による閉鎖,,,2015-10-05,1,,,,,,0
838,3330002016388,登記記録の閉鎖等,0,2023-01-24,2023-01-20,有限会社肥後エレクトロニクス,,有限会社,熊本県,菊池郡菊陽町,大字久保田８２７番地,,43,404,8691103,,,2023-01-20,登記官による閉鎖,,,2015-10-05,1,,,,,,0
839,3330002018475,登記記録の閉鎖等,0,2023-01-24,2023-01-20,有限会社木庭鉄筋工業,,有限会社,熊本県,山鹿市,久原７７５番地,,43,208,8610522,,,2023-01-20,登記官による閉鎖,,,2015-10-05,1,,,,,,0
840,3330005000851,登記記録の閉鎖等,0,2023-01-24,2023-01-20,緑川砂利、砂販売協同組合,,その他の設立登記法人,熊本県,熊本市中央区,南坪井町２番地１２号,,43,101,8600848,,,2023-01-20,登記官による閉鎖,,,2015-10-05,1,,,,,,0
841,3330005000884,登記記録の閉鎖等,0,2023-01-24,2023-01-20,熊本県警備事業協同組合,,その他の設立登記法人,熊本県,熊本市中央区,春竹町大字春竹４９６番地（８０２号）,,43,101,8600815,,,2023-01-20,登記官による閉鎖,,,2015-10-05,1,,,,,,0
842,3330005001973,登記記録の閉鎖等,0,2023-01-24,2023-01-20,協同組合熊本県鋼材継手研究会,,その他の設立登記法人,熊本県,熊本市南区,出仲間９丁目６番１６号,,43,104,8620963,,,2023-01-20,登記官による閉鎖,,,2015-10-05,1,,,,,,0
843,3330005006857,登記記録の閉鎖等,0,2023-01-24,2023-01-20,天草魚類加工協同組合,,その他の設立登記法人,熊本県,天草市,牛深町３４７１番地の６,,43,215,8631901,,,2023-01-20,登記官による閉鎖,,,2015-10-05,1,,,,,,0
852,3370001016435,登記記録の閉鎖等,0,2023-01-24,2023-01-23,株式会社サンキョウコーポレーション,,株式会社,宮城県,仙台市若林区,中倉１丁目６番５号,,04,103,9840821,,,2023-01-23,登記官による閉鎖,,,2015-10-05,1,,,,,,0
853,3370001020718,登記記録の閉鎖等,0,2023-01-24,2023-01-23,株式会社アイエスキャスト,,株式会社,宮城県,仙台市青葉区,立町１４番４号プラスワンビル３０１号,,04,101,9800822,,,2023-01-23,登記官による閉鎖,,,2015-10-05,1,,,,,,0
854,3370002014289,登記記録の閉鎖等,0,2023-01-24,2023-01-23,有限会社綿建具製作所,,有限会社,宮城県,仙台市青葉区,高松２丁目１２番１９号,,04,101,9810907,,,2023-01-23,登記官による閉鎖,,,2015-10-05,1,,,,,,0
855,3370002020147,登記記録の閉鎖等,0,2023-01-24,2023-01-23,有限会社泉進,,有限会社,宮城県,黒川郡大和町,吉岡南２丁目１５番地の１,,04,421,9813626,,,2023-01-23,登記官による閉鎖,,,2015-10-05,1,,,,,,0
856,3370301000519,登記記録の閉鎖等,0,2023-01-24,2023-01-23,株式会社サイトー工業,,株式会社,宮城県,石巻市,門脇町２丁目１番１２号,,04,202,9860834,,,2023-01-23,登記官による閉鎖,,,2015-10-05,1,,,,,,0
857,3370301002639,登記記録の閉鎖等,0,2023-01-24,2023-01-23,株式会社エコイン東北,,株式会社,宮城県,石巻市,大宮町１番１３号,,04,202,9862132,,,2023-01-23,登記官による閉鎖,,,2015-10-05,1,,,,,,0
858,3370302002191,登記記録の閉鎖等,0,2023-01-24,2023-01-23,有限会社マルセイ後藤商店,,有限会社,宮城県,石巻市,大門町３丁目１番３０号,,04,202,9860026,,,2023-01-23,登記官による閉鎖,,,2015-10-05,1,,,,,,0
861,3420001004913,登記記録の閉鎖等,0,2023-01-24,2023-01-04,株式会社青森合浦日産,,株式会社,青森県,青森市,合浦１丁目１４番地３,,02,201,0300902,,,2023-01-04,合併による解散等,7420001000231,令和５年１月１日青森市大字三内字稲元８６番地青森日産自動車株式会社（7420001000231）に合併し解散,2015-10-05,1,,,,,アオモリガッポニッサン,0
867,3430002051193,登記記録の閉鎖等,0,2023-01-24,2023-01-23,有限会社マリールイズ,,有限会社,北海道,夕張市,末広１丁目５０番地,,01,209,0680411,,,2023-01-23,清算の結了等,,,2015-10-05,1,,,,,マリールイズ,0
869,3450001000843,登記記録の閉鎖等,0,2023-01-24,2023-01-24,株式会社旭東建築設計事務所,,株式会社,北海道,旭川市,豊岡七条２丁目２番４号,,01,204,0788237,,,2023-01-24,登記官による閉鎖,,,2015-10-05,1,,,,,,0
871,3450001005504,登記記録の閉鎖等,0,2023-01-24,2023-01-24,株式会社ＭＡＳＡＫＩ,,株式会社,北海道,旭川市,七条通７丁目３３番地,,01,204,0700037,,,2023-01-24,登記官による閉鎖,,,2015-10-05,1,,,,,,0
872,3450002006237,登記記録の閉鎖等,0,2023-01-24,2023-01-24,有限会社リバティー企画・北海道,,有限会社,北海道,旭川市,春光町三区十一条２１番地の１１,,01,204,0700000,,,2023-01-24,登記官による閉鎖,,,2015-10-05,1,,,,,,1
873,3450002011996,登記記録の閉鎖等,0,2023-01-24,2023-01-24,有限会社丸弘にしむら,,有限会社,北海道,留萌市,港町２丁目１番地,,01,212,0770046,,,2023-01-24,登記官による閉鎖,,,2015-10-05,1,,,,,,0
874,3450005000014,登記記録の閉鎖等,0,2023-01-24,2023-01-24,特定非営利活動法人エヌピーオービーエムディー旭川,,その他の設立登記法人,北海道,旭川市,末広東一条９丁目１０番４号,,01,204,0718121,,,2023-01-24,登記官による閉鎖,,,2015-10-05,1,,,,,,0
889,4010003030304,登記記録の閉鎖等,0,2023-01-24,2023-01-16,Ｔ’ｓ合同会社,,合同会社,東京都,千代田区,有楽町１丁目６番３号,,13,101,1000006,,,2023-01-16,清算の結了等,,,2019-07-29,1,,,,,ティーズ,0
896,4010401134160,登記記録の閉鎖等,0,2023-01-24,2023-01-04,株式会社エンゲージング・ファーム,,株式会社,東京都,港区,芝２丁目１４番５号,,13,103,1050014,,,2023-01-04,合併による解散等,1010401043199,令和５年１月４日東京都港区芝公園二丁目４番１号株式会社ディー・クリエイト（1010401043199）に合併し解散,2017-10-12,1,,,,,エンゲージングファーム,0
909,4010801032625,登記記録の閉鎖等,0,2023-01-24,2023-01-13,株式会社ｈａｊｉｍｅ,,株式会社,東京都,大田区,南六郷３丁目１０番１６号六郷ＢＡＳＥ,,13,111,1440045,,,2023-01-13,清算の結了等,,,2022-01-13,1,,,,,ハジメ,0
919,4011001120138,登記記録の閉鎖等,0,2023-01-24,2023-01-16,株式会社ルート,,株式会社,東京都,目黒区,上目黒１丁目１３番１１号リバーサイド中目黒１０２,,13,110,1530051,,,2023-01-16,清算の結了等,,,2018-01-16,1,,,,,ルート,0
944,4011601001340,登記記録の閉鎖等,0,2023-01-24,2023-01-24,株式会社オリエンタルエキスプレス,,株式会社,東京都,練馬区,石神井町２丁目１５番１号,,13,120,1770041,,,2023-01-24,登記官による閉鎖,,,2015-10-05,1,,,,,,0
946,4011601003601,登記記録の閉鎖等,0,2023-01-24,2023-01-24,静和管工株式会社,,株式会社,東京都,練馬区,関町南２丁目２７番１４号,,13,120,1770053,,,2023-01-24,登記官による閉鎖,,,2015-10-05,1,,,,,,0
947,4011601005928,登記記録の閉鎖等,0,2023-01-24,2023-01-24,株式会社藤田産業,,株式会社,東京都,練馬区,大泉町２丁目４６番１号,,13,120,1780062,,,2023-01-24,登記官による閉鎖,,,2015-10-05,1,,,,,,0
948,4011601010977,登記記録の閉鎖等,0,2023-01-24,2023-01-24,株式会社政喜,,株式会社,東京都,練馬区,下石神井２丁目２１番１７号,,13,120,1770042,,,2023-01-24,登記官による閉鎖,,,2015-10-05,1,,,,,,0
949,4011601016355,登記記録の閉鎖等,0,2023-01-24,2023-01-24,株式会社ワンバランス,,株式会社,東京都,練馬区,豊玉上２丁目２１番１８号,,13,120,1760011,,,2023-01-24,登記官による閉鎖,,,2015-10-05,1,,,,,,0
950,4011602000647,登記記録の閉鎖等,0,2023-01-24,2023-01-24,有限会社新井塗装,,有限会社,東京都,練馬区,石神井台２丁目２６番３号,,13,120,1770045,,,2023-01-24,登記官による閉鎖,,,2015-10-05,1,,,,,,0
951,4011602001975,登記記録の閉鎖等,0,2023-01-24,2023-01-24,有限会社大寿司,,有限会社,東京都,練馬区,向山４丁目３番３０号,,13,120,1760022,,,2023-01-24,登記官による閉鎖,,,2015-10-05,1,,,,,,0
954,4011602022897,登記記録の閉鎖等,0,2023-01-24,2023-01-24,有限会社スタジオバルセロナ,,有限会社,東京都,練馬区,関町北３丁目２３番１６号,,13,120,1770051,,,2023-01-24,登記官による閉鎖,,,2015-10-05,1,,,,,,0
989,4040002014362,登記記録の閉鎖等,0,2023-01-24,2023-01-19,有限会社ティーアンドエフ,,有限会社,千葉県,千葉市中央区,今井２丁目５番１１号,,12,101,2600834,,,2023-01-19,清算の結了等,,,2015-10-05,1,,,,,ティーアンドエフ,0
996,4060002005062,登記記録の閉鎖等,0,2023-01-24,2023-01-19,有限会社鈴五工務店,,有限会社,栃木県,宇都宮市,末広２丁目４番１８号,,09,201,3210144,,,2023-01-19,登記官による閉鎖,,,2015-10-05,1,,,,,,0
997,4060002008073,登記記録の閉鎖等,0,2023-01-24,2023-01-19,有限会社平和測量設計事務所,,有限会社,栃木県,宇都宮市,松風台１２２０番地１０,,09,201,3210413,,,2023-01-19,登記官による閉鎖,,,2015-10-05,1,,,,,,0
998,4060002009880,登記記録の閉鎖等,0,2023-01-24,2023-01-19,有限会社ハウジング小池,,有限会社,栃木県,宇都宮市,下小池町２８２番地２,,09,201,3212105,,,2023-01-19,登記官による閉鎖,,,2015-10-05,1,,,,,,0
999,4060002014773,登記記録の閉鎖等,0,2023-01-24,2023-01-19,有限会社加藤薬局,,有限会社,栃木県,日光市,今市１１２４番地,,09,206,3211261,,,2023-01-19,登記官による閉鎖,,,2015-10-05,1,,,,,,0
1000,4060002020879,登記記録の閉鎖等,0,2023-01-24,2023-01-19,有限会社北星実業,,有限会社,栃木県,鹿沼市,千渡１６０５番地,,09,205,3220002,,,2023-01-19,登記官による閉鎖,,,2015-10-05,1,,,,,,0
1001,4060002027957,登記記録の閉鎖等,0,2023-01-24,2023-01-19,アルファテクノ有限会社,,有限会社,栃木県,小山市,大字神鳥谷１０４６番地１８,,09,208,3230827,,,2023-01-19,登記官による閉鎖,,,2015-10-05,1,,,,,,0
1002,4060002029227,登記記録の閉鎖等,0,2023-01-24,2023-01-19,藤本建設有限会社,,有限会社,栃木県,小山市,大字中久喜７２９番地,,09,208,3230806,,,2023-01-19,登記官による閉鎖,,,2015-10-05,1,,,,,,0
1003,4060002032809,登記記録の閉鎖等,0,2023-01-24,2023-01-19,有限会社レイメイ商事,,有限会社,栃木県,栃木市,大宮町２６８６番地３,,09,203,3280011,,,2023-01-19,登記官による閉鎖,,,2015-10-05,1,,,,,,0
1004,4060002033286,登記記録の閉鎖等,0,2023-01-24,2023-01-19,有限会社田中工業所,,有限会社,栃木県,栃木市,岩舟町静和２１３０番地２,,09,203,3294304,,,2023-01-19,登記官による閉鎖,,,2015-10-05,1,,,,,,0
1005,4060002033939,登記記録の閉鎖等,0,2023-01-24,2023-01-19,有限会社杉江化粧品店,,有限会社,栃木県,栃木市,倭町６番２２号,,09,203,3280037,,,2023-01-19,登記官による閉鎖,,,2015-10-05,1,,,,,,0
1006,4060002034029,登記記録の閉鎖等,0,2023-01-24,2023-01-19,有限会社ＲＣメディカル,,有限会社,栃木県,栃木市,平柳町２丁目１番５号,,09,203,3280012,,,2023-01-19,登記官による閉鎖,,,2015-10-05,1,,,,,,0
1007,4060002036529,登記記録の閉鎖等,0,2023-01-24,2023-01-19,有限会社清田製作所,,有限会社,栃木県,足利市,葉鹿町１６４１番地１,,09,202,3260143,,,2023-01-19,登記官による閉鎖,,,2015-10-05,1,,,,,,0
1008,4060002036850,登記記録の閉鎖等,0,2023-01-24,2023-01-19,栃木通商有限会社,,有限会社,栃木県,足利市,八椚町４番地２,,09,202,3260015,,,2023-01-19,登記官による閉鎖,,,2015-10-05,1,,,,,,0
1009,4060002037948,登記記録の閉鎖等,0,2023-01-24,2023-01-19,有限会社岩初工務店,,有限会社,栃木県,足利市,稲岡町８１１番地２,,09,202,3294212,,,2023-01-19,登記官による閉鎖,,,2015-10-05,1,,,,,,0
1010,4060002040167,登記記録の閉鎖等,0,2023-01-24,2023-01-19,有限会社清水金型,,有限会社,栃木県,佐野市,戸奈良町７８６番地１,,09,204,3270323,,,2023-01-19,登記官による閉鎖,,,2015-10-05,1,,,,,,0
1043,4130001049706,登記記録の閉鎖等,0,2023-01-24,2023-01-20,株式会社新生商事,,株式会社,京都府,京都市伏見区,横大路菅本２－３５,,26,109,6128251,,,2023-01-20,清算の結了等,,,2015-10-05,1,,,,,シンセイショウジ,0
1058,4160002002009,登記記録の閉鎖等,0,2023-01-24,2023-01-23,有限会社理美容アダチ,,有限会社,滋賀県,大津市,本堅田５丁目１５番１２号,,25,201,5200242,,,2023-01-23,登記官による閉鎖,,,2015-10-05,1,,,,,,0
1059,4160002007404,登記記録の閉鎖等,0,2023-01-24,2023-01-23,有限会社脇坂合成樹脂,,有限会社,滋賀県,長浜市,小谷丁野町８９１番地,,25,203,5290304,,,2023-01-23,登記官による閉鎖,,,2015-10-05,1,,,,,,0
1060,4160002010812,登記記録の閉鎖等,0,2023-01-24,2023-01-23,有限会社フジキ電気設備工事,,有限会社,滋賀県,近江八幡市,西生来町４６１番地の１,,25,204,5230004,,,2023-01-23,登記官による閉鎖,,,2015-10-05,1,,,,,,0
1061,4160002012296,登記記録の閉鎖等,0,2023-01-24,2023-01-23,有限会社南地商店,,有限会社,滋賀県,草津市,下笠町８４１番地の１,,25,206,5250029,,,2023-01-23,登記官による閉鎖,,,2015-10-05,1,,,,,,0
1062,4160005006428,登記記録の閉鎖等,0,2023-01-24,2023-01-23,八日市養鶏農業協同組合,,その他の設立登記法人,滋賀県,東近江市,八日市金屋町５７８番地,,25,213,5270000,,,2023-01-23,登記官による閉鎖,,,2015-10-05,1,,,,,,0
1070,4180003019685,登記記録の閉鎖等,0,2023-01-24,2023-01-19,合同会社タカナリ,,合同会社,愛知県,常滑市,栄町６丁目２０８番地,,23,216,4790836,,,2023-01-19,清算の結了等,,,2019-02-12,1,,,,,タカナリ,0
1081,4200002010048,登記記録の閉鎖等,0,2023-01-24,2023-01-20,有限会社レディースファッション長大,,有限会社,岐阜県,本巣市,政田２２８６番地の７,,21,218,5010471,,,2023-01-20,清算の結了等,,,2015-10-05,1,,,,,レディースファッションチョウダイ,0
1083,4210001016227,登記記録の閉鎖等,0,2023-01-24,2023-01-20,パッケージファーム株式会社,,株式会社,福井県,福井市,三尾野町第２９号２番地２９,,18,201,9188188,,,2023-01-20,清算の結了等,,,2016-01-29,1,,,,,パッケージファーム,0
1109,4320005004951,登記記録の閉鎖等,0,2023-01-24,2023-01-06,天理教深江浜分教会,,その他の設立登記法人,大分県,速見郡日出町,大字大神５０８８番地の２,,44,341,8791504,,,2023-01-06,合併による解散等,2320005001050,令和５年１月６日大分県大分市大字竹矢５４４番地天理教百竹分教会（2320005001050）に合併し解散,2015-10-05,1,,,,,テンリキョウフカエハマブンキョウカイ,0
1110,4330001008195,登記記録の閉鎖等,0,2023-01-24,2023-01-20,株式会社墓地墓石情報センター,,株式会社,熊本県,熊本市中央区,八王寺町１４番３７号,,43,101,8600831,,,2023-01-20,登記官による閉鎖,,,2015-10-05,1,,,,,,0
1111,4330001008757,登記記録の閉鎖等,0,2023-01-24,2023-01-20,株式会社Ｉｆ企画サービス,,株式会社,熊本県,菊池郡大津町,大字室２１５番地２,,43,403,8691235,,,2023-01-20,登記官による閉鎖,,,2015-10-05,1,,,,,,0
1112,4330001009359,登記記録の閉鎖等,0,2023-01-24,2023-01-20,エディコ株式会社,,株式会社,熊本県,合志市,豊岡２０３１番地の７３,,43,216,8611115,,,2023-01-20,登記官による閉鎖,,,2015-10-05,1,,,,,,0
1113,4330001016116,登記記録の閉鎖等,0,2023-01-24,2023-01-20,株式会社熊本クラウンゴルフ倶楽部,,株式会社,熊本県,球磨郡あさぎり町,深田東１３０４番地１,,43,514,8680442,,,2023-01-20,登記官による閉鎖,,,2015-10-05,1,,,,,,0
1115,4330002002065,登記記録の閉鎖等,0,2023-01-24,2023-01-20,有限会社文重庵,,有限会社,熊本県,熊本市西区,京町本丁４番１１号,,43,103,8600081,,,2023-01-20,登記官による閉鎖,,,2015-10-05,1,,,,,,0
1116,4330002005258,登記記録の閉鎖等,0,2023-01-24,2023-01-20,有限会社白い森,,有限会社,熊本県,熊本市中央区,出水２丁目５番８－４０５号,,43,101,8620941,,,2023-01-20,登記官による閉鎖,,,2015-10-05,1,,,,,,0
1117,4330002021635,登記記録の閉鎖等,0,2023-01-24,2023-01-20,有限会社朝日新聞荒尾販売,,有限会社,熊本県,荒尾市,荒尾１４５２番地,,43,204,8640041,,,2023-01-20,登記官による閉鎖,,,2015-10-05,1,,,,,,0
1118,4330003003855,登記記録の閉鎖等,0,2023-01-24,2023-01-20,合資会社有田商会,,合資会社,熊本県,天草市,東浜町２５番２号,,43,215,8630014,,,2023-01-20,登記官による閉鎖,,,2015-10-05,1,,,,,,0
1119,4330005006682,登記記録の閉鎖等,0,2023-01-24,2023-01-20,一般社団法人賢人塾,,その他の設立登記法人,熊本県,阿蘇市,永草１９４３番地２８,,43,214,8692231,,,2023-01-20,登記官による閉鎖,,,2015-10-05,1,,,,,,0
1129,4370001000405,登記記録の閉鎖等,0,2023-01-24,2023-01-23,株式会社愛ふとん店,,株式会社,宮城県,仙台市泉区,松森字阿比古８０番地の１,,04,105,9813111,,,2023-01-23,登記官による閉鎖,,,2015-10-05,1,,,,,,0
1130,4370001000900,登記記録の閉鎖等,0,2023-01-24,2023-01-23,株式会社大地,,株式会社,宮城県,仙台市泉区,南光台南２丁目１０番１号,,04,105,9818002,,,2023-01-23,登記官による閉鎖,,,2015-10-05,1,,,,,,0
1131,4370001003960,登記記録の閉鎖等,0,2023-01-24,2023-01-23,株式会社ターンアラウンドキャピタル,,株式会社,宮城県,仙台市若林区,荒町２１５番地の５,,04,103,9840073,,,2023-01-23,登記官による閉鎖,,,2015-10-05,1,,,,,,0
1132,4370001009082,登記記録の閉鎖等,0,2023-01-24,2023-01-23,株式会社タックス・アドバイザリー・サービス・ブレーン,,株式会社,宮城県,仙台市青葉区,木町通２丁目１－２２,,04,101,9800801,,,2023-01-23,登記官による閉鎖,,,2015-10-05,1,,,,,,0
1135,4370001019651,登記記録の閉鎖等,0,2023-01-24,2023-01-23,株式会社宝,,株式会社,宮城県,仙台市青葉区,国分町３丁目４番２１号,,04,101,9800803,,,2023-01-23,登記官による閉鎖,,,2015-10-05,1,,,,,,0
1136,4370002000255,登記記録の閉鎖等,0,2023-01-24,2023-01-23,有限会社泉中央読売センター,,有限会社,宮城県,仙台市泉区,将監４丁目１番７号,,04,105,9813132,,,2023-01-23,登記官による閉鎖,,,2015-10-05,1,,,,,,0
1137,4370002015633,登記記録の閉鎖等,0,2023-01-24,2023-01-23,有限会社セーフプラン,,有限会社,宮城県,仙台市青葉区,上愛子字街道５６番地の８,,04,101,9893124,,,2023-01-23,登記官による閉鎖,,,2015-10-05,1,,,,,,0
1138,4370003000824,登記記録の閉鎖等,0,2023-01-24,2023-01-23,合資会社青葉書房,,合資会社,宮城県,仙台市太白区,恵和町２番１０号,,04,104,9820823,,,2023-01-23,登記官による閉鎖,,,2015-10-05,1,,,,,,0
1140,4370005003024,登記記録の閉鎖等,0,2023-01-24,2023-01-23,仙台社会保険労務士法人,,その他の設立登記法人,宮城県,仙台市青葉区,中央２丁目７番３０－５０３号,,04,101,9800021,,,2023-01-23,登記官による閉鎖,,,2015-10-05,1,,,,,,0
1142,4370202003834,登記記録の閉鎖等,0,2023-01-24,2023-01-23,有限会社ミウラ・エージェンシー,,有限会社,宮城県,加美郡加美町,字町裏１４６番地の３,,04,445,9814261,,,2023-01-23,登記官による閉鎖,,,2015-10-05,1,,,,,,0
1143,4370202004683,登記記録の閉鎖等,0,2023-01-24,2023-01-23,有限会社小野寺きのこ園,,有限会社,宮城県,栗原市,栗駒桜田宿畑２７番地,,04,213,9895322,,,2023-01-23,登記官による閉鎖,,,2015-10-05,1,,,,,,0
1144,4370302000574,登記記録の閉鎖等,0,2023-01-24,2023-01-23,有限会社大槻建総,,有限会社,宮城県,石巻市,福地字二ツ山１１６番地５,,04,202,9860115,,,2023-01-23,登記官による閉鎖,,,2015-10-05,1,,,,,,0
1147,4370502001018,登記記録の閉鎖等,0,2023-01-24,2023-01-23,有限会社大北荘,,有限会社,宮城県,本吉郡南三陸町,歌津字泊浜５０番地,,04,606,9880444,,,2023-01-23,登記官による閉鎖,,,2015-10-05,1,,,,,,0
1149,4370805000410,登記記録の閉鎖等,0,2023-01-24,2023-01-23,特定非営利活動法人サポート桜・舞,,その他の設立登記法人,宮城県,亘理郡亘理町,字油田７２番地２,,04,361,9892351,,,2023-01-23,登記官による閉鎖,,,2015-10-05,1,,,,,,0
1156,4450001004892,登記記録の閉鎖等,0,2023-01-24,2023-01-24,株式会社わたなべ食品,,株式会社,北海道,雨竜郡沼田町,本通３丁目３番２８号,,01,438,0782203,,,2023-01-24,登記官による閉鎖,,,2015-10-05,1,,,,,,0
1157,4450001006930,登記記録の閉鎖等,0,2023-01-24,2023-01-24,株式会社ＯＬＰ,,株式会社,北海道,旭川市,四条通６丁目右４号ライオンビル河内館８階８１０,,01,204,0700034,,,2023-01-24,登記官による閉鎖,,,2015-10-05,1,,,,,,0
1158,4450001010156,登記記録の閉鎖等,0,2023-01-24,2023-01-24,株式会社ＳＯＮＩＣ,,株式会社,北海道,旭川市,一条通９丁目２０６５番地１ＴＲビル４階,,01,204,0700031,,,2023-01-24,登記官による閉鎖,,,2015-10-05,1,,,,,,0
1161,4450002001253,登記記録の閉鎖等,0,2023-01-24,2023-01-24,有限会社小野寺製作所,,有限会社,北海道,旭川市,工業団地三条２丁目２番１号,,01,204,0788273,,,2023-01-24,登記官による閉鎖,,,2015-10-05,1,,,,,,0
1162,4450002005080,登記記録の閉鎖等,0,2023-01-24,2023-01-24,有限会社マイカーヨコヤマ,,有限会社,北海道,旭川市,豊岡十一条１丁目３番６号,,01,204,0788241,,,2023-01-24,登記官による閉鎖,,,2015-10-05,1,,,,,,0
1163,4450002010667,登記記録の閉鎖等,0,2023-01-24,2023-01-24,有限会社佐々木産業,,有限会社,北海道,枝幸郡中頓別町,字兵安１４３番地,,01,513,0985561,,,2023-01-24,登記官による閉鎖,,,2015-10-05,1,,,,,,0
1164,4450002012242,登記記録の閉鎖等,0,2023-01-24,2023-01-24,有限会社玉田鉄工所,,有限会社,北海道,増毛郡増毛町,舎熊６０６番地,,01,481,0770132,,,2023-01-24,登記官による閉鎖,,,2015-10-05,1,,,,,,0
1166,4450003000675,登記記録の閉鎖等,0,2023-01-24,2023-01-24,合名会社光徳森林,,合名会社,北海道,天塩郡遠別町,字本町４丁目２５番地,,01,486,0983543,,,2023-01-24,登記官による閉鎖,,,2015-10-05,1,,,,,,0
1167,4450003000898,登記記録の閉鎖等,0,2023-01-24,2023-01-24,合同会社テクニカルトレードシステム,,合同会社,北海道,苫前郡初山別村,字初山別１８２番地１,,01,485,0784421,,,2023-01-24,登記官による閉鎖,,,2015-10-05,1,,,,,,0
1168,4450005003453,登記記録の閉鎖等,0,2023-01-24,2023-01-24,オホーツク化成事業協同組合,,その他の設立登記法人,北海道,紋別市,南が丘町８丁目６番地１,,01,219,0940013,,,2023-01-24,登記官による閉鎖,,,2015-10-05,1,,,,,,0
1180,5010001177889,登記記録の閉鎖等,0,2023-01-24,2023-01-13,Ｐｏｌｌｅｔ株式会社,,株式会社,東京都,千代田区,神田錦町２丁目２番地１,,13,101,1010054,,,2023-01-13,合併による解散等,1010001102487,令和５年１月１日東京都千代田区神田錦町二丁目２番地１株式会社オズビジョン（1010001102487）に合併し解散,2016-08-24,1,,,,,ポレット,0
1206,5010802020529,登記記録の閉鎖等,0,2023-01-24,2023-01-16,有限会社アック,,有限会社,東京都,大田区,南千束３丁目２８番４号,,13,111,1450063,,,2023-01-16,清算の結了等,,,2015-10-05,1,,,,,,0
1235,5011405000158,登記記録の閉鎖等,0,2023-01-24,2023-01-19,医療法人社団一期会,,その他の設立登記法人,東京都,板橋区,大山町９番６号ＡＫビル１階２階３階４階５階,,13,119,1730023,,,2023-01-19,清算の結了等,,,2015-10-05,1,,,,,,0
1237,5011601005274,登記記録の閉鎖等,0,2023-01-24,2023-01-24,株式会社日新,,株式会社,東京都,練馬区,中村２丁目１６番１５号,,13,120,1760024,,,2023-01-24,登記官による閉鎖,,,2015-10-05,1,,,,,,0
1238,5011601005431,登記記録の閉鎖等,0,2023-01-24,2023-01-24,練馬紙料株式会社,,株式会社,東京都,練馬区,旭丘２丁目４１番２－９０７号,,13,120,1760005,,,2023-01-24,登記官による閉鎖,,,2016-06-14,1,,,,,,0
1240,5011601006801,登記記録の閉鎖等,0,2023-01-24,2023-01-24,株式会社ムサシノガス,,株式会社,東京都,練馬区,南大泉３丁目１７番４０号,,13,120,1780064,,,2023-01-24,登記官による閉鎖,,,2015-10-05,1,,,,,,0
1241,5011601007667,登記記録の閉鎖等,0,2023-01-24,2023-01-24,株式会社小泉企画,,株式会社,東京都,練馬区,貫井５丁目４番１６号,,13,120,1760021,,,2023-01-24,登記官による閉鎖,,,2015-10-05,1,,,,,,0
1242,5011601015785,登記記録の閉鎖等,0,2023-01-24,2023-01-24,ダブルビービー株式会社,,株式会社,東京都,練馬区,豊玉北２丁目２２番１５号,,13,120,1760012,,,2023-01-24,登記官による閉鎖,,,2015-10-05,1,,,,,,0
1243,5011601017344,登記記録の閉鎖等,0,2023-01-24,2023-01-24,アクセル株式会社,,株式会社,東京都,練馬区,富士見台１丁目８番１０号泉ハイツ１１号,,13,120,1770034,,,2023-01-24,登記官による閉鎖,,,2015-10-05,1,,,,,,0
1244,5011602004738,登記記録の閉鎖等,0,2023-01-24,2023-01-24,シーブイエス光が丘南有限会社,,有限会社,東京都,練馬区,谷原１丁目４番２９号,,13,120,1770032,,,2023-01-24,登記官による閉鎖,,,2015-10-05,1,,,,,,0
1245,5011605000296,登記記録の閉鎖等,0,2023-01-24,2023-01-24,社団法人日本フオアエッチクラブ,,その他の設立登記法人,東京都,練馬区,小竹町２６４１番地,,13,120,1760000,,,2023-01-24,登記官による閉鎖,,,2015-10-05,1,,,,,,0
1246,5011605000536,登記記録の閉鎖等,0,2023-01-24,2023-01-24,スーパードーム建設協同組合,,その他の設立登記法人,東京都,練馬区,大泉学園町７丁目１０番３８号,,13,120,1780061,,,2023-01-24,登記官による閉鎖,,,2015-10-05,1,,,,,,0
1254,5013201004838,登記記録の閉鎖等,0,2023-01-24,2023-01-13,株式会社ビギン,,株式会社,東京都,目黒区,柿の木坂２丁目２４番９号,,13,110,1520022,,,2023-01-13,清算の結了等,,,2015-10-05,1,,,,,ビギン,0
1262,5020001062132,登記記録の閉鎖等,0,2023-01-24,2023-01-19,株式会社インテグリテイ,,株式会社,神奈川県,横浜市青葉区,奈良町１７８１番地,,14,117,2270036,,,2023-01-19,清算の結了等,,,2015-10-05,1,,,,,インテグリティ,0
1267,5020001104520,登記記録の閉鎖等,0,2023-01-24,2023-01-23,株式会社ジャパンレフコン,,株式会社,神奈川県,横浜市中区,本牧ふ頭１番地４,,14,104,2310811,,,2023-01-23,清算の結了等,,,2015-10-05,1,,,,,ジャパンレフコン,0
1271,5020003012192,登記記録の閉鎖等,0,2023-01-24,2023-01-19,合同会社Ｔ＆Ｗ,,合同会社,神奈川県,三浦郡葉山町,一色１０２８番地２３,,14,301,2400111,,,2023-01-19,清算の結了等,,,2017-01-10,1,,,,,ティアンドダブリュー,0
1300,5040002010336,登記記録の閉鎖等,0,2023-01-24,2023-01-19,有限会社平誠社,,有限会社,千葉県,千葉市緑区,越智町１８８６番地の８,,12,105,2670055,,,2023-01-19,清算の結了等,,,2015-10-05,1,,,,,ヘイセイシャ,0
1311,5060001000311,登記記録の閉鎖等,0,2023-01-24,2023-01-19,安斎食品株式会社,,株式会社,栃木県,宇都宮市,川田町字中道７４９番地４,,09,201,3210111,,,2023-01-19,登記官による閉鎖,,,2015-10-05,1,,,,,,0
1312,5060001007587,登記記録の閉鎖等,0,2023-01-24,2023-01-19,クオリティ販売株式会社,,株式会社,栃木県,さくら市,氏家１５６１番地１,,09,214,3291311,,,2023-01-19,登記官による閉鎖,,,2015-10-05,1,,,,,,0
1313,5060001010079,登記記録の閉鎖等,0,2023-01-24,2023-01-19,株式会社益子セラミック,,株式会社,栃木県,芳賀郡益子町,大字益子３３６０番地１,,09,342,3214217,,,2023-01-19,登記官による閉鎖,,,2015-10-05,1,,,,,,0
1314,5060001011143,登記記録の閉鎖等,0,2023-01-24,2023-01-19,株式会社Ｕ－ＬＩＮＥ,,株式会社,栃木県,芳賀郡芳賀町,大字東水沼２３２４番地,,09,345,3213322,,,2023-01-19,登記官による閉鎖,,,2015-10-05,1,,,,,,0
1315,5060001012273,登記記録の閉鎖等,0,2023-01-24,2023-01-19,シバ建設株式会社,,株式会社,栃木県,那須郡那須町,大字高久丙４０７番地３６６,,09,407,3250302,,,2023-01-19,登記官による閉鎖,,,2015-10-05,1,,,,,,0
1316,5060001014088,登記記録の閉鎖等,0,2023-01-24,2023-01-19,小山石油株式会社,,株式会社,栃木県,小山市,若木町３丁目２０番３５号,,09,208,3230028,,,2023-01-19,登記官による閉鎖,,,2015-10-05,1,,,,,,0
1317,5060001021927,登記記録の閉鎖等,0,2023-01-24,2023-01-19,キマジメコーヒー株式会社,,株式会社,栃木県,宇都宮市,みどり野町６番地１４,,09,201,3210136,,,2023-01-19,登記官による閉鎖,,,2015-10-05,1,,,,,,0
1318,5060001022999,登記記録の閉鎖等,0,2023-01-24,2023-01-19,ロイヤル企画株式会社,,株式会社,栃木県,足利市,葉鹿町５０５番地１,,09,202,3260143,,,2023-01-19,登記官による閉鎖,,,2015-10-05,1,,,,,,0
1319,5060002007529,登記記録の閉鎖等,0,2023-01-24,2023-01-19,有限会社びぜんや,,有限会社,栃木県,宇都宮市,本町１２番３１号,,09,201,3200033,,,2023-01-19,登記官による閉鎖,,,2015-10-05,1,,,,,,0
1320,5060002007776,登記記録の閉鎖等,0,2023-01-24,2023-01-19,有限会社福嶋鉄工,,有限会社,栃木県,宇都宮市,関堀町２７２番地２,,09,201,3210975,,,2023-01-19,登記官による閉鎖,,,2015-10-05,1,,,,,,0
1321,5060002008007,登記記録の閉鎖等,0,2023-01-24,2023-01-19,有限会社プリントシヨツプフジ,,有限会社,栃木県,宇都宮市,砥上町１１４０番地１,,09,201,3200856,,,2023-01-19,登記官による閉鎖,,,2015-10-05,1,,,,,,0
1322,5060002010103,登記記録の閉鎖等,0,2023-01-24,2023-01-19,有限会社サイテック,,有限会社,栃木県,宇都宮市,下岡本町４４２６番地,,09,201,3291104,,,2023-01-19,登記官による閉鎖,,,2015-10-05,1,,,,,,0
1323,5060002010796,登記記録の閉鎖等,0,2023-01-24,2023-01-19,有限会社セッコーワールド,,有限会社,栃木県,宇都宮市,簗瀬１丁目２４番１２号,,09,201,3210934,,,2023-01-19,登記官による閉鎖,,,2015-10-05,1,,,,,,0
1324,5060002017932,登記記録の閉鎖等,0,2023-01-24,2023-01-19,有限会社ナカジマステンレス加工,,有限会社,栃木県,真岡市,大根田８９番地,,09,209,3214506,,,2023-01-19,登記官による閉鎖,,,2015-10-05,1,,,,,,0
1325,5060002022214,登記記録の閉鎖等,0,2023-01-24,2023-01-19,有限会社三共ガラス店,,有限会社,栃木県,那須塩原市,豊町９番１９号,,09,213,3250051,,,2023-01-19,登記官による閉鎖,,,2015-10-05,1,,,,,,0
1326,5060002023781,登記記録の閉鎖等,0,2023-01-24,2023-01-19,有限会社ホテルぬりや,,有限会社,栃木県,那須塩原市,塩原４５４番地,,09,213,3292921,,,2023-01-19,登記官による閉鎖,,,2015-10-05,1,,,,,,0
1327,5060002027031,登記記録の閉鎖等,0,2023-01-24,2023-01-19,有限会社しおや,,有限会社,栃木県,矢板市,本町１０番１２号,,09,211,3292164,,,2023-01-19,登記官による閉鎖,,,2015-10-05,1,,,,,,0
1328,5060002031520,登記記録の閉鎖等,0,2023-01-24,2023-01-19,有限会社安形工務店,,有限会社,栃木県,栃木市,薗部町４丁目５番４８号,,09,203,3280074,,,2023-01-19,登記官による閉鎖,,,2015-10-05,1,,,,,,0
1329,5060002032394,登記記録の閉鎖等,0,2023-01-24,2023-01-19,栃木電装有限会社,,有限会社,栃木県,栃木市,大塚町８５２番地２,,09,203,3280007,,,2023-01-19,登記官による閉鎖,,,2015-10-05,1,,,,,,0
1330,5060002034127,登記記録の閉鎖等,0,2023-01-24,2023-01-19,有限会社アンナプルナ,,有限会社,栃木県,下都賀郡壬生町,大字壬生乙３５６６番地２,,09,361,3210215,,,2023-01-19,登記官による閉鎖,,,2015-10-05,1,,,,,,0
1331,5060002034201,登記記録の閉鎖等,0,2023-01-24,2023-01-19,有限会社おとめや,,有限会社,栃木県,下都賀郡壬生町,中央町１２番３号,,09,361,3210226,,,2023-01-19,登記官による閉鎖,,,2015-10-05,1,,,,,,0
1332,5060002038821,登記記録の閉鎖等,0,2023-01-24,2023-01-19,有限会社御方総業,,有限会社,栃木県,佐野市,寺久保町８６８番地,,09,204,3270101,,,2023-01-19,登記官による閉鎖,,,2015-10-05,1,,,,,,0
1333,5060003001381,登記記録の閉鎖等,0,2023-01-24,2023-01-19,合同会社ＺｉｒｉＲｉｔａ,,合同会社,栃木県,宇都宮市,吉野２丁目８番１９号,,09,201,3200838,,,2023-01-19,登記官による閉鎖,,,2015-10-05,1,,,,,,0
1334,5060005003509,登記記録の閉鎖等,0,2023-01-24,2023-01-19,栃木地区セルロシン事業協同組合,,その他の設立登記法人,栃木県,鹿沼市,府所町２０番地,,09,205,3220033,,,2023-01-19,登記官による閉鎖,,,2015-10-05,1,,,,,,0
1335,5070001032808,登記記録の閉鎖等,0,2023-01-24,2023-01-18,株式会社ＭＥＲＶＥＩＬＬＥ,,株式会社,群馬県,前橋市,千代田町４丁目１０番４号プランタン前橋２Ｆ,,10,201,3710022,,,2023-01-18,清算の結了等,,,2016-10-31,1,,,,,メルヴェイユ,0
1349,5120001207874,登記記録の閉鎖等,0,2023-01-24,2023-01-20,ヴァンヒル株式会社,,株式会社,大阪府,豊中市,服部寿町２丁目１４番１０号,,27,203,5610857,,,2023-01-20,清算の結了等,,,2017-09-04,1,,,,,ヴァンヒル,0
1366,5120901028718,登記記録の閉鎖等,0,2023-01-24,2023-01-20,ヤマトハウジング株式会社,,株式会社,大阪府,箕面市,粟生新家２丁目５番２２号,,27,220,5620024,,,2023-01-20,清算の結了等,,,2015-10-05,1,,,,,ヤマトハウジング,0
1373,5122001005523,登記記録の閉鎖等,0,2023-01-24,2023-01-23,株式会社パデック,,株式会社,大阪府,東大阪市,長田中４丁目５番１１号,,27,227,5770013,,,2023-01-23,清算の結了等,,,2015-10-05,1,,,,,パデック,0
1376,5130001044268,登記記録の閉鎖等,0,2023-01-24,2023-01-20,株式会社ワイズキューヴ,,株式会社,京都府,京都市東山区,東大路通松原上る四丁目毘沙門町４４番地４１,,26,105,6050000,,,2023-01-20,清算の結了等,,,2015-10-05,1,,,,,ワイズキューヴ,0
1387,5160001000722,登記記録の閉鎖等,0,2023-01-24,2023-01-23,株式会社駒沢商店,,株式会社,滋賀県,大津市,堅田１丁目９番２６号,,25,201,5200243,,,2023-01-23,登記官による閉鎖,,,2017-03-22,1,,,,,,0
1388,5160001005523,登記記録の閉鎖等,0,2023-01-24,2023-01-23,株式会社澤田モータース,,株式会社,滋賀県,甲賀市,信楽町長野１１９０番地の３,,25,209,5291851,,,2023-01-23,登記官による閉鎖,,,2015-10-05,1,,,,,,0
1391,5160001013492,登記記録の閉鎖等,0,2023-01-24,2023-01-23,株式会社デバイス,,株式会社,滋賀県,栗東市,小平井２丁目４番１３号,,25,208,5203034,,,2023-01-23,登記官による閉鎖,,,2015-10-05,1,,,,,,0
1393,5160002010811,登記記録の閉鎖等,0,2023-01-24,2023-01-23,有限会社プリントオフィスモリ,,有限会社,滋賀県,近江八幡市,池田町４丁目３番地,,25,204,5230877,,,2023-01-23,登記官による閉鎖,,,2015-10-05,1,,,,,,0
1394,5160002011355,登記記録の閉鎖等,0,2023-01-24,2023-01-23,有限会社鈴木クレープ,,有限会社,滋賀県,高島市,安曇川町四津川６４２番地,,25,212,5201234,,,2023-01-23,登記官による閉鎖,,,2015-10-05,1,,,,,,0
1396,5160005005593,登記記録の閉鎖等,0,2023-01-24,2023-01-23,湖東地域振興協同組合,,その他の設立登記法人,滋賀県,犬上郡豊郷町,大字安食西９７２番地の１,,25,441,5291171,,,2023-01-23,登記官による閉鎖,,,2015-10-05,1,,,,,,0
1417,5210002007645,登記記録の閉鎖等,0,2023-01-24,2023-01-23,有限会社実来,,有限会社,福井県,あわら市,二面第３４号４６番地,,18,208,9104103,,,2023-01-23,清算の結了等,,,2015-10-05,1,,,,,ミキ,0
1421,5240002042581,登記記録の閉鎖等,0,2023-01-24,2023-01-20,有限会社フォトケミカル,,有限会社,広島県,福山市,南手城町１丁目２０番２号,,34,207,7210963,,,2023-01-20,清算の結了等,,,2015-10-05,1,,,,,フォトケミカル,0
1437,5290801013019,登記記録の閉鎖等,0,2023-01-24,2023-01-13,株式会社ＫＡＮＡＩ,,株式会社,福岡県,北九州市八幡西区,松寿山３丁目４番６号,,40,109,8070855,,,2023-01-13,清算の結了等,,,2015-10-05,1,,,,,カナイ,0
1439,5330001006256,登記記録の閉鎖等,0,2023-01-24,2023-01-20,株式会社プロモワークス,,株式会社,熊本県,熊本市東区,花立６丁目２番２５号,,43,102,8620918,,,2023-01-20,登記官による閉鎖,,,2015-10-05,1,,,,,,0
1441,5330001018111,登記記録の閉鎖等,0,2023-01-24,2023-01-20,株式会社ＨＴ,,株式会社,熊本県,熊本市中央区,花畑町１３番１１号,,43,101,8600806,,,2023-01-20,登記官による閉鎖,,,2015-10-05,1,,,,,,0
1442,5330002004705,登記記録の閉鎖等,0,2023-01-24,2023-01-20,有限会社建産業,,有限会社,熊本県,熊本市南区,護藤町２６６２番地７,,43,104,8614117,,,2023-01-20,登記官による閉鎖,,,2015-10-05,1,,,,,,0
1444,5330002011288,登記記録の閉鎖等,0,2023-01-24,2023-01-20,有限会社米満石油,,有限会社,熊本県,熊本市中央区,出水３丁目１３番１０号,,43,101,8620941,,,2023-01-20,登記官による閉鎖,,,2015-10-05,1,,,,,,0
1445,5330002015396,登記記録の閉鎖等,0,2023-01-24,2023-01-20,有限会社花岡興産,,有限会社,熊本県,熊本市北区,打越町３４番５２号,,43,105,8600086,,,2023-01-20,登記官による閉鎖,,,2015-10-05,1,,,,,,0
1447,5330002028274,登記記録の閉鎖等,0,2023-01-24,2023-01-20,有限会社エコクリーン,,有限会社,熊本県,天草市,五和町手野１丁目２６２７番地,,43,215,8632424,,,2023-01-20,登記官による閉鎖,,,2015-10-05,1,,,,,,0
1448,5330002030404,登記記録の閉鎖等,0,2023-01-24,2023-01-20,有限会社博新農園,,有限会社,熊本県,人吉市,浪床町３１６８番地７,,43,203,8680045,,,2023-01-20,登記官による閉鎖,,,2015-10-05,1,,,,,,0
1449,5330003002063,登記記録の閉鎖等,0,2023-01-24,2023-01-20,合資会社増永瓦工業所,,合資会社,熊本県,菊池市,隈府７１６番地１,,43,210,8611331,,,2023-01-20,登記官による閉鎖,,,2015-10-05,1,,,,,,0
1450,5330005001030,登記記録の閉鎖等,0,2023-01-24,2023-01-20,熊本木材事業協同組合,,その他の設立登記法人,熊本県,熊本市中央区,黒髪７丁目５２９番地２,,43,101,8600862,,,2023-01-20,登記官による閉鎖,,,2015-10-05,1,,,,,,0
1451,5330005001996,登記記録の閉鎖等,0,2023-01-24,2023-01-20,特定非営利活動法人コミネット協会,,その他の設立登記法人,熊本県,熊本市東区,長嶺南２丁目５番３１号,,43,102,8618039,,,2023-01-20,登記官による閉鎖,,,2015-10-05,1,,,,,,0
1472,5370001001609,登記記録の閉鎖等,0,2023-01-24,2023-01-23,株式会社堅岡建設,,株式会社,宮城県,仙台市太白区,袋原３丁目１０番５号,,04,104,9811102,,,2023-01-23,登記官による閉鎖,,,2015-10-05,1,,,,,,0
1473,5370001003621,登記記録の閉鎖等,0,2023-01-24,2023-01-23,株式会社デーリーセールス,,株式会社,宮城県,仙台市若林区,卸町４丁目３番９号,,04,103,9840015,,,2023-01-23,登記官による閉鎖,,,2015-10-05,1,,,,,,0
1474,5370001007696,登記記録の閉鎖等,0,2023-01-24,2023-01-23,株式会社基創,,株式会社,宮城県,仙台市青葉区,一番町４丁目１０番９号,,04,101,9800811,,,2023-01-23,登記官による閉鎖,,,2017-06-16,1,,,,,,0
1476,5370001018090,登記記録の閉鎖等,0,2023-01-24,2023-01-23,齋健工業株式会社,,株式会社,宮城県,富谷市,あけの平３丁目１２番地４,,04,216,9813361,,,2023-01-23,登記官による閉鎖,,,2015-10-05,1,,,,,,0
1483,5370002002192,登記記録の閉鎖等,0,2023-01-24,2023-01-23,有限会社アサヒエレクトロニクス,,有限会社,宮城県,仙台市太白区,西多賀１丁目２１番８号,,04,104,9820034,,,2023-01-23,登記官による閉鎖,,,2015-10-05,1,,,,,,0
1485,5370002005030,登記記録の閉鎖等,0,2023-01-24,2023-01-23,有限会社今野勉商店,,有限会社,宮城県,仙台市若林区,沖野２丁目２２番１７号,,04,103,9840831,,,2023-01-23,登記官による閉鎖,,,2015-10-05,1,,,,,,0
1488,5370002020913,登記記録の閉鎖等,0,2023-01-24,2023-01-23,有限会社ガレージテック,,有限会社,宮城県,仙台市青葉区,一番町１丁目１２番３９－６０１号,,04,101,9800811,,,2023-01-23,登記官による閉鎖,,,2015-10-05,1,,,,,,0
1489,5370003001391,登記記録の閉鎖等,0,2023-01-24,2023-01-23,合同会社美優コーポレーション,,合同会社,宮城県,仙台市青葉区,木町通２丁目６番２９号,,04,101,9800801,,,2023-01-23,登記官による閉鎖,,,2015-10-05,1,,,,,,0
1491,5370005003337,登記記録の閉鎖等,0,2023-01-24,2023-01-23,一般社団法人復興支援協会,,その他の設立登記法人,宮城県,仙台市青葉区,錦町１丁目１０番２０号廣和ビル２階,,04,101,9800012,,,2023-01-23,登記官による閉鎖,,,2015-10-05,1,,,,,,0
1493,5370202003288,登記記録の閉鎖等,0,2023-01-24,2023-01-23,有限会社山崎建設,,有限会社,宮城県,大崎市,岩出山字蛭沢５８番地の１,,04,215,9896462,,,2023-01-23,登記官による閉鎖,,,2015-10-05,1,,,,,,0
1494,5370202003783,登記記録の閉鎖等,0,2023-01-24,2023-01-23,有限会社錦,,有限会社,宮城県,加美郡加美町,宮崎字屋敷六番２０番地の２,,04,445,9814401,,,2023-01-23,登記官による閉鎖,,,2015-10-05,1,,,,,,0
1495,5370302002355,登記記録の閉鎖等,0,2023-01-24,2023-01-23,有限会社宮城リフォームサービスセンター,,有限会社,宮城県,石巻市,錦町３番５１号,,04,202,9860877,,,2023-01-23,登記官による閉鎖,,,2015-10-05,1,,,,,,0
1496,5370401000771,登記記録の閉鎖等,0,2023-01-24,2023-01-23,株式会社読売センター佐沼,,株式会社,宮城県,登米市,迫町佐沼字西佐沼１０番１,,04,212,9870511,,,2023-01-23,登記官による閉鎖,,,2015-10-05,1,,,,,,0
1497,5370505000420,登記記録の閉鎖等,0,2023-01-24,2023-01-23,特定非営利活動法人大島大好き,,その他の設立登記法人,宮城県,気仙沼市,南町海岸１番地の１５,,04,205,9880018,,,2023-01-23,登記官による閉鎖,,,2015-10-05,1,,,,,,0
1507,5440005002133,登記記録の閉鎖等,0,2023-01-24,2023-01-18,大磯商店街協同組合,,その他の設立登記法人,北海道,寿都郡寿都町,字大磯町８３番地１,,01,392,0480404,,,2023-01-18,清算の結了等,,,2015-10-05,1,,,,,オオイソショウテンガイ,0
1509,5450002001186,登記記録の閉鎖等,0,2023-01-24,2023-01-24,有限会社オール,,有限会社,北海道,旭川市,春光二条９丁目１番１３号,,01,204,0700872,,,2023-01-24,登記官による閉鎖,,,2015-10-05,1,,,,,,0
1510,5450002009312,登記記録の閉鎖等,0,2023-01-24,2023-01-24,有限会社佐々木商会,,有限会社,北海道,空知郡南富良野町,字落合８５４番地,,01,462,0792551,,,2023-01-24,登記官による閉鎖,,,2015-10-05,1,,,,,,0
1511,5450002011086,登記記録の閉鎖等,0,2023-01-24,2023-01-24,有限会社沼川福花農園,,有限会社,北海道,稚内市,大字声問村字沼川１９４番地,,01,214,0986563,,,2023-01-24,登記官による閉鎖,,,2015-10-05,1,,,,,,0
1535,6010401109391,登記記録の閉鎖等,0,2023-01-24,2023-01-06,ＪＰＡ第１５号株式会社,,株式会社,東京都,港区,虎ノ門２丁目９番１１号,,13,103,1050001,,,2023-01-06,清算の結了等,,,2015-10-05,1,,,,,ジェイピーエーダイジュウゴゴウ,0
1537,6010401154553,登記記録の閉鎖等,0,2023-01-24,2023-01-05,株式会社ビオーサム,,株式会社,東京都,港区,西新橋３丁目１３番７号ＶＯＲＴ虎ノ門ｓｏｕｔｈ１１Ｆ,,13,103,1050003,,,2023-01-05,清算の結了等,,,2020-08-14,1,,,,,ビオーサム,0
1542,6010403020258,登記記録の閉鎖等,0,2023-01-24,2023-01-05,アフラック・イノベーション・パートナーズ合同会社,,合同会社,東京都,港区,南青山３丁目１番３１号ＫＤ南青山ビル,,13,103,1070062,,,2023-01-05,清算の結了等,,,2019-02-27,1,,,,,アフラックイノベーションパートナーズ,0
1546,6010601058091,登記記録の閉鎖等,0,2023-01-24,2023-01-16,株式会社アイアンハンズ,,株式会社,東京都,江東区,木場５丁目１０－９,,13,108,1350042,,,2023-01-16,清算の結了等,,,2020-10-06,1,,,,,アイアンハンズ,0
1567,6011101039796,登記記録の閉鎖等,0,2023-01-24,2023-01-20,株式会社アド・スマッシュ,,株式会社,東京都,中野区,野方６丁目５０番７号,,13,114,1650027,,,2023-01-20,清算の結了等,,,2015-10-05,1,,,,,アドスマッシュ,0
1571,6011101079784,登記記録の閉鎖等,0,2023-01-24,2023-01-18,株式会社ＩＢＪライフデザインサポート,,株式会社,東京都,新宿区,西新宿１丁目２３番７号,,13,104,1600023,,,2023-01-18,合併による解散等,9010001107009,令和５年１月６日東京都新宿区西新宿一丁目２３番７号株式会社ＩＢＪ（9010001107009）に合併し解散,2017-03-03,1,,,,,アイビージェイライフデザインサポート,0
1582,6011601002849,登記記録の閉鎖等,0,2023-01-24,2023-01-24,新西建設株式会社,,株式会社,東京都,練馬区,大泉学園町２丁目１２番７号,,13,120,1780061,,,2023-01-24,登記官による閉鎖,,,2015-10-05,1,,,,,,0
1585,6011602000406,登記記録の閉鎖等,0,2023-01-24,2023-01-24,有限会社朝霞産業,,有限会社,東京都,練馬区,大泉学園町８丁目９番３５号,,13,120,1780061,,,2023-01-24,登記官による閉鎖,,,2015-10-05,1,,,,,,0
1586,6011602003227,登記記録の閉鎖等,0,2023-01-24,2023-01-24,有限会社グリーンコーナー,,有限会社,東京都,練馬区,春日町４丁目２０番２０号,,13,120,1790074,,,2023-01-24,登記官による閉鎖,,,2015-10-05,1,,,,,,0
1587,6011602004407,登記記録の閉鎖等,0,2023-01-24,2023-01-24,有限会社笹川商店,,有限会社,東京都,練馬区,豊玉中３丁目２５番２号,,13,120,1760013,,,2023-01-24,登記官による閉鎖,,,2015-10-05,1,,,,,,0
1590,6011602006205,登記記録の閉鎖等,0,2023-01-24,2023-01-24,有限会社タイム・ボックス,,有限会社,東京都,練馬区,土支田４丁目１６番１６号,,13,120,1790076,,,2023-01-24,登記官による閉鎖,,,2016-11-21,1,,,,,,0
1601,6020001029460,登記記録の閉鎖等,0,2023-01-24,2023-01-19,株式会社横浜精版研究所,,株式会社,神奈川県,横浜市中区,元町１丁目７７番地,,14,104,2310861,,,2023-01-19,清算の結了等,,,2015-10-05,1,,,,,ヨコハマセイハンケンキュウジョ,0
1605,6020001105930,登記記録の閉鎖等,0,2023-01-24,2023-01-13,ＶｏｒｔｅｘＭａｎａｇｅｍｅｎｔ株式会社,,株式会社,東京都,中央区,日本橋２丁目１番１７号丹生ビル２階,,13,102,1030027,,,2023-01-13,清算の結了等,,,2015-10-05,1,,,,,ヴォルテックスマネジメント,0
1612,6020002095865,登記記録の閉鎖等,0,2023-01-24,2023-01-20,有限会社エー・ディー・カレント,,有限会社,神奈川県,川崎市川崎区,中島３丁目１４番８号,,14,131,2100806,,,2023-01-20,清算の結了等,,,2015-10-05,1,,,,,エーディーカレント,0
1624,6040001009832,登記記録の閉鎖等,0,2023-01-24,2023-01-20,株式会社サカノコーポレーション,,株式会社,千葉県,千葉市緑区,高津戸町２５０番地の６,,12,105,2670053,,,2023-01-20,清算の結了等,,,2015-10-05,1,,,,,サカノコーポレーション,0
1629,6040002018254,登記記録の閉鎖等,0,2023-01-24,2023-01-16,株式会社京葉タクシー,,株式会社,千葉県,習志野市,茜浜１丁目１４番４号,,12,216,2750024,,,2023-01-16,合併による解散等,1040002025602,令和５年１月１６日千葉県船橋市二和東六丁目２９番２９号株式会社みさきタクシー（1040002025602）に合併し解散,2015-10-05,1,,,,,ケイヨウタクシー,0
1630,6040002095302,登記記録の閉鎖等,0,2023-01-24,2023-01-20,有限会社フォリオ,,有限会社,東京都,調布市,布田２丁目２９番１アルソスフォート調布５０６,,13,208,1820024,,,2023-01-20,清算の結了等,,,2015-10-05,1,,,,,フォリオ,0
1639,6060001004344,登記記録の閉鎖等,0,2023-01-24,2023-01-19,株式会社宮水,,株式会社,栃木県,宇都宮市,簗瀬町１４９３番地,,09,201,3210933,,,2023-01-19,登記官による閉鎖,,,2015-10-05,1,,,,,,0
1640,6060001007198,登記記録の閉鎖等,0,2023-01-24,2023-01-19,株式会社システムキャリブレーション,,株式会社,栃木県,宇都宮市,曲師町４番５号,,09,201,3200803,,,2023-01-19,登記官による閉鎖,,,2015-10-05,1,,,,,,0
1641,6060001010144,登記記録の閉鎖等,0,2023-01-24,2023-01-19,株式会社レーナン加工,,株式会社,栃木県,芳賀郡芳賀町,大字芳志戸９２９番地２,,09,345,3213305,,,2023-01-19,登記官による閉鎖,,,2015-10-05,1,,,,,,0
1642,6060001011927,登記記録の閉鎖等,0,2023-01-24,2023-01-19,深山観光株式会社,,株式会社,栃木県,那須塩原市,塩原２５５０番地,,09,213,3292921,,,2023-01-19,登記官による閉鎖,,,2015-10-05,1,,,,,,0
1643,6060001013923,登記記録の閉鎖等,0,2023-01-24,2023-01-19,株式会社ＺＯＯクリエイツ,,株式会社,栃木県,宇都宮市,中央１丁目８番１１号宮土地ビル２Ｆ,,09,201,3200806,,,2023-01-19,登記官による閉鎖,,,2015-10-05,1,,,,,,0
1644,6060001018030,登記記録の閉鎖等,0,2023-01-24,2023-01-19,株式会社炭家,,株式会社,栃木県,宇都宮市,戸祭町２７８０番地２４,,09,201,3200053,,,2023-01-19,登記官による閉鎖,,,2015-10-05,1,,,,,,0
1645,6060001020713,登記記録の閉鎖等,0,2023-01-24,2023-01-19,株式会社両毛石材センター,,株式会社,栃木県,佐野市,町谷町２９３番地１６,,09,204,3270812,,,2023-01-19,登記官による閉鎖,,,2015-10-05,1,,,,,,0
1646,6060001022387,登記記録の閉鎖等,0,2023-01-24,2023-01-19,地域社会活性化株式会社,,株式会社,栃木県,大田原市,新富町１丁目３番１６号,,09,210,3240055,,,2023-01-19,登記官による閉鎖,,,2015-10-05,1,,,,,,0
1650,6060002003865,登記記録の閉鎖等,0,2023-01-24,2023-01-19,有限会社コタキホーム,,有限会社,栃木県,宇都宮市,清住３丁目６番１６号,,09,201,3200037,,,2023-01-19,登記官による閉鎖,,,2015-10-05,1,,,,,,0
1651,6060002011769,登記記録の閉鎖等,0,2023-01-24,2023-01-19,有限会社大洋商事,,有限会社,栃木県,宇都宮市,末広２丁目１３番１７号,,09,201,3210144,,,2023-01-19,登記官による閉鎖,,,2015-10-05,1,,,,,,0
1652,6060002012387,登記記録の閉鎖等,0,2023-01-24,2023-01-19,有限会社阿久津組,,有限会社,栃木県,塩谷郡高根沢町,大字上高根沢４８６３番地,,09,386,3291224,,,2023-01-19,登記官による閉鎖,,,2015-10-05,1,,,,,,0
1653,6060002014235,登記記録の閉鎖等,0,2023-01-24,2023-01-19,益子化成有限会社,,有限会社,栃木県,那須郡那珂川町,富山２６４番地３,,09,411,3240616,,,2023-01-19,登記官による閉鎖,,,2015-10-05,1,,,,,,0
1654,6060002020729,登記記録の閉鎖等,0,2023-01-24,2023-01-19,有限会社馬場木工,,有限会社,栃木県,鹿沼市,寺町１３３４番地,,09,205,3220057,,,2023-01-19,登記官による閉鎖,,,2015-10-05,1,,,,,,0
1655,6060002022106,登記記録の閉鎖等,0,2023-01-24,2023-01-19,有限会社菊地興業,,有限会社,栃木県,那須塩原市,東栄２丁目１２番２２号,,09,213,3250016,,,2023-01-19,登記官による閉鎖,,,2015-10-05,1,,,,,,0
1656,6060002025678,登記記録の閉鎖等,0,2023-01-24,2023-01-19,有限会社宮澤乳販,,有限会社,栃木県,大田原市,末広３丁目２８６１番地４,,09,210,3240042,,,2023-01-19,登記官による閉鎖,,,2015-10-05,1,,,,,,0
1657,6060002028012,登記記録の閉鎖等,0,2023-01-24,2023-01-19,有限会社小山石材組合,,有限会社,栃木県,小山市,西城南４丁目１７番地３１,,09,208,3230820,,,2023-01-19,登記官による閉鎖,,,2015-10-05,1,,,,,,0
1658,6060002035834,登記記録の閉鎖等,0,2023-01-24,2023-01-19,有限会社カメヤマレース,,有限会社,栃木県,足利市,大沼田町３１５番地,,09,202,3260011,,,2023-01-19,登記官による閉鎖,,,2015-10-05,1,,,,,,0
1659,6060002039546,登記記録の閉鎖等,0,2023-01-24,2023-01-19,有限会社向田製作所,,有限会社,栃木県,佐野市,大橋町１０９７番地の７,,09,204,3270003,,,2023-01-19,登記官による閉鎖,,,2015-10-05,1,,,,,,0
1660,6060005001800,登記記録の閉鎖等,0,2023-01-24,2023-01-19,特定非営利活動法人ヘルスプロモーション翔栄,,その他の設立登記法人,栃木県,宇都宮市,平出町字上野３５８０番５,,09,201,3210901,,,2023-01-19,登記官による閉鎖,,,2015-10-05,1,,,,,,0
1667,6110002015054,登記記録の閉鎖等,0,2023-01-24,2023-01-23,有限会社斎藤ボデーサービス,,有限会社,新潟県,新発田市,佐々木２２番地４,,15,206,9570082,,,2023-01-23,清算の結了等,,,2015-10-05,1,,,,,サイトウボデーサービス,0
1683,6140001069404,登記記録の閉鎖等,0,2023-01-24,2023-01-20,田代甲陽パンション株式会社,,株式会社,兵庫県,西宮市,津門綾羽町３番６号,,28,204,6638244,,,2023-01-20,清算の結了等,,,2015-10-05,1,,,,,タシロコウヨウパンション,0
1690,6160001010803,登記記録の閉鎖等,0,2023-01-24,2023-01-23,島村産業株式会社,,株式会社,滋賀県,近江八幡市,島町１２７７番地,,25,204,5230804,,,2023-01-23,登記官による閉鎖,,,2015-10-05,1,,,,,,0
1691,6160001012700,登記記録の閉鎖等,0,2023-01-24,2023-01-23,奥野通商株式会社,,株式会社,滋賀県,草津市,志那中町３０２番地の１,,25,206,5250006,,,2023-01-23,登記官による閉鎖,,,2015-10-05,1,,,,,,0
1692,6160002007526,登記記録の閉鎖等,0,2023-01-24,2023-01-23,有限会社厚礼社,,有限会社,滋賀県,米原市,市場２４３番地の２,,25,214,5210225,,,2023-01-23,登記官による閉鎖,,,2015-10-05,1,,,,,,0
1693,6160005000206,登記記録の閉鎖等,0,2023-01-24,2023-01-23,近江作業手袋製造事業協同組合,,その他の設立登記法人,滋賀県,大津市,秋葉台５番３号,,25,201,5200822,,,2023-01-23,登記官による閉鎖,,,2015-10-05,1,,,,,,0
1694,6160005000214,登記記録の閉鎖等,0,2023-01-24,2023-01-23,湖南貸舟協同組合,,その他の設立登記法人,滋賀県,大津市,衣川１丁目３５番８号,,25,201,5200244,,,2023-01-23,登記官による閉鎖,,,2015-10-05,1,,,,,,0
1695,6160005003217,登記記録の閉鎖等,0,2023-01-24,2023-01-23,滋賀県北部塗装協同組合,,その他の設立登記法人,滋賀県,長浜市,木之本町田部４１６番地の５,,25,203,5290422,,,2023-01-23,登記官による閉鎖,,,2015-10-05,1,,,,,,0
1696,6160005003241,登記記録の閉鎖等,0,2023-01-24,2023-01-23,滋賀県食肉企業組合,,その他の設立登記法人,滋賀県,長浜市,新栄町７０番地の１,,25,203,5260841,,,2023-01-23,登記官による閉鎖,,,2015-10-05,1,,,,,,0
1705,6180001108686,登記記録の閉鎖等,0,2023-01-24,2023-01-19,アクシオン株式会社,,株式会社,愛知県,愛知郡東郷町,春木台２丁目１１番地２,,23,302,4700161,,,2023-01-19,清算の結了等,,,2015-10-05,1,,,,,アクシオン,0
1714,6180005019095,登記記録の閉鎖等,0,2023-01-24,2023-01-10,行政書士法人Ｆ＆ＰａｒｔｎｅｒｓＣＥＮＴＲＡＬ,,その他の設立登記法人,愛知県,名古屋市中区,栄２丁目６番１号,,23,106,4600008,,,2023-01-10,合併による解散等,4130005014532,令和５年１月４日滋賀県草津市野村一丁目２番１６号行政書士法人Ｆ＆Ｐａｒｔｎｅｒｓ（4130005014532）に合併し解散,2021-01-08,1,,,,,エフアンドパートナーズセントラル,0
1723,6200002010698,登記記録の閉鎖等,0,2023-01-24,2023-01-23,有限会社サロンド松葉,,有限会社,岐阜県,羽島市,足近町４丁目３０４番地,,21,209,5016207,,,2023-01-23,清算の結了等,,,2015-10-05,1,,,,,,0
1747,6330001004366,登記記録の閉鎖等,0,2023-01-24,2023-01-20,マツタツ海苔株式会社,,株式会社,熊本県,熊本市西区,沖新町７０番地,,43,103,8615273,,,2023-01-20,登記官による閉鎖,,,2015-10-05,1,,,,,,0
1748,6330001009992,登記記録の閉鎖等,0,2023-01-24,2023-01-20,日本住健株式会社,,株式会社,熊本県,菊池郡大津町,大字杉水３６６５－１１,,43,403,8691236,,,2023-01-20,登記官による閉鎖,,,2015-10-05,1,,,,,,0
1754,6330002005652,登記記録の閉鎖等,0,2023-01-24,2023-01-20,有限会社すなはたサイン,,有限会社,熊本県,熊本市東区,佐土原２丁目２番２７号,,43,102,8620916,,,2023-01-20,登記官による閉鎖,,,2015-10-05,1,,,,,,0
1755,6330002007748,登記記録の閉鎖等,0,2023-01-24,2023-01-20,有限会社新納設計,,有限会社,熊本県,熊本市中央区,神水１丁目３７番１５号,,43,101,8620954,,,2023-01-20,登記官による閉鎖,,,2015-10-05,1,,,,,,0
1756,6330002030312,登記記録の閉鎖等,0,2023-01-24,2023-01-20,有限会社谷川酒米店,,有限会社,熊本県,人吉市,鬼木町８５７番地,,43,203,8680021,,,2023-01-20,登記官による閉鎖,,,2015-10-05,1,,,,,,0
1757,6330002031491,登記記録の閉鎖等,0,2023-01-24,2023-01-20,有限会社松本グリーン商会,,有限会社,熊本県,熊本市中央区,帯山２丁目１４番１１号,,43,101,8620924,,,2023-01-20,登記官による閉鎖,,,2017-01-25,1,,,,,,0
1758,6330003003077,登記記録の閉鎖等,0,2023-01-24,2023-01-20,合同会社新市街振興会,,合同会社,熊本県,熊本市中央区,下通１丁目５番２０号,,43,101,8600807,,,2023-01-20,登記官による閉鎖,,,2015-10-05,1,,,,,,0
1759,6330005001070,登記記録の閉鎖等,0,2023-01-24,2023-01-20,企業組合矢上総本店,,その他の設立登記法人,熊本県,熊本市西区,八島町７２６番地６,,43,103,8600057,,,2023-01-20,登記官による閉鎖,,,2015-10-05,1,,,,,,0
1760,6330005001962,登記記録の閉鎖等,0,2023-01-24,2023-01-20,熊本県行政書士事業協同組合,,その他の設立登記法人,熊本県,熊本市中央区,帯山３丁目１５番１２号,,43,101,8620924,,,2023-01-20,登記官による閉鎖,,,2015-10-05,1,,,,,,0
1761,6330005003240,登記記録の閉鎖等,0,2023-01-24,2023-01-20,山鹿温泉旅舘協同組合,00098330,その他の設立登記法人,熊本県,山鹿市,山鹿１５５８番地,,43,208,8610501,,,2023-01-20,登記官による閉鎖,,,2015-10-05,1,,,,,,0
1762,6330005009717,登記記録の閉鎖等,0,2023-01-24,2023-01-20,白旗養蚕農業協同組合,,その他の設立登記法人,熊本県,上益城郡甲佐町,大字白旗３６番地,,43,444,8613243,,,2023-01-20,登記官による閉鎖,,,2017-09-06,1,,,,,,0
1764,6340001002096,登記記録の閉鎖等,0,2023-01-24,2023-01-23,株式会社新拓テクノス,,株式会社,鹿児島県,鹿児島市,山田町３３９８番地４,,46,201,8910104,,,2023-01-23,清算の結了等,,,2015-10-05,1,,,,,シンタクテクノス,0
1770,6370001017067,登記記録の閉鎖等,0,2023-01-24,2023-01-23,株式会社ラリアンス,,株式会社,宮城県,仙台市若林区,表柴田町６８番地の１ライオンズマンション一高前第１－３１０,,04,103,9840055,,,2023-01-23,登記官による閉鎖,,,2015-10-05,1,,,,,,0
1772,6370002015004,登記記録の閉鎖等,0,2023-01-24,2023-01-23,有限会社ワイレア・コーポレーション,,有限会社,宮城県,仙台市青葉区,立町４番５号,,04,101,9800822,,,2023-01-23,登記官による閉鎖,,,2015-10-05,1,,,,,,0
1773,6370002018667,登記記録の閉鎖等,0,2023-01-24,2023-01-23,有限会社らいる,,有限会社,宮城県,仙台市泉区,七北田字町１の１,,04,105,9813131,,,2023-01-23,登記官による閉鎖,,,2015-10-05,1,,,,,,0
1775,6370202003361,登記記録の閉鎖等,0,2023-01-24,2023-01-23,有限会社佐々木ボーリング,,有限会社,宮城県,遠田郡涌谷町,涌谷字白畠５６番地の１,,04,501,9870121,,,2023-01-23,登記官による閉鎖,,,2015-10-05,1,,,,,,0
1776,6370202004161,登記記録の閉鎖等,0,2023-01-24,2023-01-23,有限会社ライフ商事,,有限会社,宮城県,大崎市,古川駅前大通３丁目１番１７号,,04,215,9896162,,,2023-01-23,登記官による閉鎖,,,2015-10-05,1,,,,,,0
1777,6370305000818,登記記録の閉鎖等,0,2023-01-24,2023-01-23,特定非営利活動法人石巻教育支援センター,,その他の設立登記法人,宮城県,石巻市,南中里３丁目１３番１５号１Ｆ,,04,202,9860814,,,2023-01-23,登記官による閉鎖,,,2015-10-05,1,,,,,,0
1778,6370501000126,登記記録の閉鎖等,0,2023-01-24,2023-01-23,株式会社海進,,株式会社,宮城県,気仙沼市,幸町４丁目７番６号,,04,205,9880026,,,2023-01-23,登記官による閉鎖,,,2015-10-05,1,,,,,,0
1779,6370601000488,登記記録の閉鎖等,0,2023-01-24,2023-01-23,第一食品株式会社,,株式会社,宮城県,塩竈市,新浜町３丁目３０番１０号,,04,203,9850001,,,2023-01-23,登記官による閉鎖,,,2015-10-05,1,,,,,,0
1780,6370602002211,登記記録の閉鎖等,0,2023-01-24,2023-01-23,有限会社扶桑軽金属工業,,有限会社,宮城県,塩竈市,新富町３番１１号,,04,203,9850022,,,2023-01-23,登記官による閉鎖,,,2017-12-14,1,,,,,,0
1781,6370802001946,登記記録の閉鎖等,0,2023-01-24,2023-01-23,有限会社オーツキ通商,,有限会社,宮城県,名取市,本郷字矢口１３５番地,,04,207,9892411,,,2023-01-23,登記官による閉鎖,,,2015-10-05,1,,,,,,0
1785,6430001078937,登記記録の閉鎖等,0,2023-01-24,2023-01-19,株式会社ＤＤＬ,,株式会社,北海道,札幌市白石区,東札幌二条１丁目１番２５－１４０１号,,01,104,0030002,,,2023-01-19,清算の結了等,,,2019-05-13,1,,,,,ディーディーエル,0
1789,6450001001624,登記記録の閉鎖等,0,2023-01-24,2023-01-24,株式会社セガワ測量,,株式会社,北海道,旭川市,北門町１７丁目２１５９番地の１５５,,01,204,0700825,,,2023-01-24,登記官による閉鎖,,,2015-10-05,1,,,,,,0
1790,6450001003430,登記記録の閉鎖等,0,2023-01-24,2023-01-23,株式会社ラック・シティー・クラブ,,株式会社,北海道,上川郡上川町,本町２５番地,,01,457,0781751,,,2023-01-23,清算の結了等,,,2015-10-05,1,,,,,,0
1791,6450001008883,登記記録の閉鎖等,0,2023-01-24,2023-01-24,株式会社グリーンサービス,,株式会社,北海道,留萌市,開運町１丁目１番地,,01,212,0770042,,,2023-01-24,登記官による閉鎖,,,2015-10-05,1,,,,,,0
1792,6450001012200,登記記録の閉鎖等,0,2023-01-24,2023-01-24,北海道中央産業株式会社,,株式会社,北海道,旭川市,豊岡十一条１丁目１番地８,,01,204,0788241,,,2023-01-24,登記官による閉鎖,,,2017-09-29,1,,,,,,0
1793,6450002000071,登記記録の閉鎖等,0,2023-01-24,2023-01-24,有限会社アート金属,,有限会社,北海道,旭川市,東光十五条２丁目１番７号,,01,204,0788355,,,2023-01-24,登記官による閉鎖,,,2015-10-05,1,,,,,,0
1794,6450002001185,登記記録の閉鎖等,0,2023-01-24,2023-01-24,有限会社オオヤマコーポレーション,,有限会社,北海道,旭川市,三条通２０丁目６８４番地,,01,204,0788213,,,2023-01-24,登記官による閉鎖,,,2015-10-05,1,,,,,,0
1797,6450002003966,登記記録の閉鎖等,0,2023-01-24,2023-01-24,有限会社西田木材,,有限会社,北海道,旭川市,東旭川北二条１丁目８番８号,,01,204,0788252,,,2023-01-24,登記官による閉鎖,,,2015-10-05,1,,,,,,0
1798,6450002012538,登記記録の閉鎖等,0,2023-01-24,2023-01-24,有限会社紋別ふれあい介護,,有限会社,北海道,紋別市,落石町４丁目１２番地の７,,01,219,0940007,,,2023-01-24,登記官による閉鎖,,,2015-10-05,1,,,,,,0
1799,6450003000863,登記記録の閉鎖等,0,2023-01-24,2023-01-24,エフ・ティー・コミュニケーション合同会社,,合同会社,北海道,旭川市,末広東一条６丁目６番１１号,,01,204,0718121,,,2023-01-24,登記官による閉鎖,,,2015-10-05,1,,,,,,0
1814,7010401011448,登記記録の閉鎖等,0,2023-01-24,2023-01-16,株式会社サンダンス・カンパニー,,株式会社,東京都,品川区,中延５丁目９番１０号,,13,109,1420053,,,2023-01-16,清算の結了等,,,2015-10-05,1,,,,,サンダンスカンパニー,0
1816,7010401073050,登記記録の閉鎖等,0,2023-01-24,2023-01-06,株式会社クライス出版,,株式会社,東京都,港区,東新橋２丁目４番１号サンマリーノ汐留２階,,13,103,1050021,,,2023-01-06,清算の結了等,,,2015-10-05,1,,,,,クライスシュッパン,0
1834,7010701031930,登記記録の閉鎖等,0,2023-01-24,2023-01-19,株式会社エノモト,,株式会社,東京都,品川区,戸越２丁目９番２号,,13,109,1420041,,,2023-01-19,合併による解散等,9011001050891,令和５年１月１日東京都渋谷区恵比寿３－３３－６株式会社ダイユウコーポレーション（9011001050891）に合併し解散,2016-01-27,1,,,,,,0
1852,7011101092712,登記記録の閉鎖等,0,2023-01-24,2023-01-20,株式会社ほたる,,株式会社,東京都,新宿区,新宿３丁目１２番４号新宿Ｎタウンプラザ３０９号,,13,104,1600022,,,2023-01-20,清算の結了等,,,2020-10-06,1,,,,,ホタル,0
1866,7011201011489,登記記録の閉鎖等,0,2023-01-24,2023-01-23,株式会社マイズインターナショナル,,株式会社,東京都,中野区,弥生町２丁目２９番８号クレイン飯田ビル３階,,13,114,1640013,,,2023-01-23,清算の結了等,,,2015-10-05,1,,,,,マイズインターナショナル,0
1869,7011401003030,登記記録の閉鎖等,0,2023-01-24,2023-01-19,清水合金株式会社,,株式会社,東京都,板橋区,前野町６丁目３５番５号,,13,119,1740063,,,2023-01-19,清算の結了等,,,2015-10-05,1,,,,,シミズゴウキン,0
1874,7011601000298,登記記録の閉鎖等,0,2023-01-24,2023-01-24,株式会社アスカ,,株式会社,東京都,練馬区,氷川台３丁目４０番１０号大氷川ビル,,13,120,1790084,,,2023-01-24,登記官による閉鎖,,,2015-10-05,1,,,,,,0
1877,7011601004506,登記記録の閉鎖等,0,2023-01-24,2023-01-24,東京ソーイング株式会社,,株式会社,東京都,練馬区,早宮１丁目４番１４号,,13,120,1790085,,,2023-01-24,登記官による閉鎖,,,2015-10-05,1,,,,,,0
1908,7020002019261,登記記録の閉鎖等,0,2023-01-24,2023-01-20,有限会社立田工業,,有限会社,神奈川県,横浜市港南区,芹が谷４丁目２５番３号,,14,111,2330006,,,2023-01-20,清算の結了等,,,2015-10-05,1,,,,,タツタコウギョウ,0
1911,7021001046783,登記記録の閉鎖等,0,2023-01-24,2023-01-18,ＮＡＫＡＩ．Ｋ株式会社,,株式会社,神奈川県,海老名市,国分北４丁目７番２号,,14,215,2430406,,,2023-01-18,清算の結了等,,,2015-10-05,1,,,,,ナカイドットケイ,0
1920,7030002064265,登記記録の閉鎖等,0,2023-01-24,2023-01-19,成和恒産有限会社,,有限会社,埼玉県,和光市,本町３１番１２－１００３号,,11,229,3510114,,,2023-01-19,清算の結了等,,,2015-10-05,1,,,,,セイワコウサン,0
1933,7040003020794,登記記録の閉鎖等,0,2023-01-24,2023-01-19,ｓｏｉｌｄｏｏｒ合同会社,,合同会社,千葉県,市川市,行徳駅前１丁目２６番地１６号２Ｆ,,12,203,2720133,,,2023-01-19,清算の結了等,,,2022-09-20,1,,,,,ソイルドアー,0
1936,7060001002520,登記記録の閉鎖等,0,2023-01-24,2023-01-19,株式会社ダイエー,,株式会社,栃木県,宇都宮市,氷室町１４８７番地３,,09,201,3213232,,,2023-01-19,登記官による閉鎖,,,2015-10-05,1,,,,,,0
1937,7060001006868,登記記録の閉鎖等,0,2023-01-24,2023-01-19,株式会社オスモム,,株式会社,栃木県,宇都宮市,東宿郷３丁目９番２３号,,09,201,3210953,,,2023-01-19,登記官による閉鎖,,,2015-10-05,1,,,,,,0
1938,7060001008328,登記記録の閉鎖等,0,2023-01-24,2023-01-19,株式会社トータルサポート,,株式会社,栃木県,さくら市,鷲宿１３５８番地,,09,214,3291411,,,2023-01-19,登記官による閉鎖,,,2015-10-05,1,,,,,,0
1939,7060001010531,登記記録の閉鎖等,0,2023-01-24,2023-01-19,東部米穀株式会社,,株式会社,栃木県,鹿沼市,東町１丁目１番７号,,09,205,3220022,,,2023-01-19,登記官による閉鎖,,,2015-10-05,1,,,,,,0
1940,7060001016925,登記記録の閉鎖等,0,2023-01-24,2023-01-19,幸和株式会社,,株式会社,栃木県,栃木市,藤岡町藤岡１１４４番地１,,09,203,3231104,,,2023-01-19,登記官による閉鎖,,,2015-10-05,1,,,,,,0
1941,7060001017163,登記記録の閉鎖等,0,2023-01-24,2023-01-19,株式会社足助製作所,,株式会社,栃木県,下都賀郡壬生町,大字福和田１２８５番地３,,09,361,3210219,,,2023-01-19,登記官による閉鎖,,,2015-10-05,1,,,,,,0
1942,7060001018459,登記記録の閉鎖等,0,2023-01-24,2023-01-19,株式会社柏屋本店,,株式会社,栃木県,足利市,通１丁目２６６３番地,,09,202,3260814,,,2023-01-19,登記官による閉鎖,,,2015-10-05,1,,,,,,0
1943,7060001020720,登記記録の閉鎖等,0,2023-01-24,2023-01-19,株式会社ワールド,,株式会社,栃木県,佐野市,天神町７１７番地,,09,204,3270847,,,2023-01-19,登記官による閉鎖,,,2015-10-05,1,,,,,,0
1944,7060001023095,登記記録の閉鎖等,0,2023-01-24,2023-01-19,農力開発株式会社,,株式会社,栃木県,宇都宮市,徳次郎町１１７２番地１,,09,201,3212116,,,2023-01-19,登記官による閉鎖,,,2015-10-05,1,,,,,,0
1945,7060001023112,登記記録の閉鎖等,0,2023-01-24,2023-01-19,株式会社エスティジェイ,,株式会社,栃木県,宇都宮市,新町２丁目７番１６号,,09,201,3200831,,,2023-01-19,登記官による閉鎖,,,2015-10-05,1,,,,,,0
1946,7060002000829,登記記録の閉鎖等,0,2023-01-24,2023-01-19,アート建硝有限会社,,有限会社,栃木県,宇都宮市,駒生町３３６７番地１１０,,09,201,3200065,,,2023-01-19,登記官による閉鎖,,,2015-10-05,1,,,,,,0
1947,7060002000952,登記記録の閉鎖等,0,2023-01-24,2023-01-19,有限会社荒井製作所,,有限会社,栃木県,宇都宮市,鶴田町３３６５番地８,,09,201,3200851,,,2023-01-19,登記官による閉鎖,,,2015-10-05,1,,,,,,0
1948,7060002009366,登記記録の閉鎖等,0,2023-01-24,2023-01-19,有限会社由紀フーズ,,有限会社,栃木県,宇都宮市,横山１丁目７番５号,,09,201,3200005,,,2023-01-19,登記官による閉鎖,,,2015-10-05,1,,,,,,0
1949,7060002021718,登記記録の閉鎖等,0,2023-01-24,2023-01-19,有限会社グッドワーク,,有限会社,栃木県,鹿沼市,緑町２丁目３番７号ヴェルエスト鹿沼Ａ棟２０３号室,,09,205,3220025,,,2023-01-19,登記官による閉鎖,,,2015-10-05,1,,,,,,0
1950,7060002029653,登記記録の閉鎖等,0,2023-01-24,2023-01-19,有限会社渡辺組,,有限会社,栃木県,小山市,大字下石塚３８０番地２,,09,208,3230064,,,2023-01-19,登記官による閉鎖,,,2015-10-05,1,,,,,,0
1951,7060002030859,登記記録の閉鎖等,0,2023-01-24,2023-01-19,有限会社サンユーボディー,,有限会社,栃木県,下野市,小金井２７０５番地２,,09,216,3290414,,,2023-01-19,登記官による閉鎖,,,2015-10-05,1,,,,,,0
1952,7060002035981,登記記録の閉鎖等,0,2023-01-24,2023-01-19,有限会社群馬古書センター,,有限会社,栃木県,足利市,八幡町６２２番地,,09,202,3260824,,,2023-01-19,登記官による閉鎖,,,2015-10-05,1,,,,,,0
1953,7060002038753,登記記録の閉鎖等,0,2023-01-24,2023-01-19,有限会社鋭成企画,,有限会社,栃木県,佐野市,伊勢山町１８０２番地２,,09,204,3270817,,,2023-01-19,登記官による閉鎖,,,2015-10-05,1,,,,,,0
1954,7060002039363,登記記録の閉鎖等,0,2023-01-24,2023-01-19,有限会社はるか荘アパート,,有限会社,栃木県,佐野市,金吹町２３８３番地,,09,204,3270007,,,2023-01-19,登記官による閉鎖,,,2015-10-05,1,,,,,,0
1955,7060002039818,登記記録の閉鎖等,0,2023-01-24,2023-01-19,有限会社栄電気工事,,有限会社,栃木県,佐野市,栃本町３３５７番地,,09,204,3270312,,,2023-01-19,登記官による閉鎖,,,2015-10-05,1,,,,,,0
1956,7060005003696,登記記録の閉鎖等,0,2023-01-24,2023-01-19,特定非営利活動法人鹿沼学舎,,その他の設立登記法人,栃木県,鹿沼市,上殿町９２１番地２,,09,205,3220045,,,2023-01-19,登記官による閉鎖,,,2015-10-05,1,,,,,,0
1957,7060005004249,登記記録の閉鎖等,0,2023-01-24,2023-01-19,協同組合栃北工業会,,その他の設立登記法人,栃木県,大田原市,山の手２丁目７番１０号,,09,210,3240051,,,2023-01-19,登記官による閉鎖,,,2015-10-05,1,,,,,,0
1999,7140002066606,登記記録の閉鎖等,0,2023-01-24,2023-01-19,有限会社エスケイメディカル,,有限会社,兵庫県,宝塚市,清荒神１丁目２番３６号,,28,214,6650836,,,2023-01-19,清算の結了等,,,2015-10-05,1,,,,,エスケイメディカル,0
2002,7160001008697,登記記録の閉鎖等,0,2023-01-24,2023-01-23,株式会社フアイン・アルゴ,,株式会社,滋賀県,彦根市,平田町１９６番地の９,,25,202,5220041,,,2023-01-23,登記官による閉鎖,,,2015-10-05,1,,,,,,0
2003,7160001012823,登記記録の閉鎖等,0,2023-01-24,2023-01-23,株式会社湖南水質管理センター,,株式会社,滋賀県,草津市,矢橋町２０７０番地の１,,25,206,5250066,,,2023-01-23,登記官による閉鎖,,,2015-10-05,1,,,,,,0
2004,7160001013771,登記記録の閉鎖等,0,2023-01-24,2023-01-23,滋賀エアロックホームズ株式会社,,株式会社,滋賀県,栗東市,安養寺２丁目６番５号,,25,208,5203015,,,2023-01-23,登記官による閉鎖,,,2017-09-25,1,,,,,,0
2005,7160002010529,登記記録の閉鎖等,0,2023-01-24,2023-01-23,有限会社キシ,,有限会社,滋賀県,近江八幡市,多賀町７４５番地１,,25,204,5230821,,,2023-01-23,登記官による閉鎖,,,2015-10-05,1,,,,,,0
2006,7160002010891,登記記録の閉鎖等,0,2023-01-24,2023-01-23,有限会社山森計算センター,,有限会社,滋賀県,近江八幡市,土田町８１３番地の４,,25,204,5230082,,,2023-01-23,登記官による閉鎖,,,2015-10-05,1,,,,,,0
2007,7160002014067,登記記録の閉鎖等,0,2023-01-24,2023-01-23,有限会社速野サービス,,有限会社,滋賀県,守山市,洲本町２２５２番地,,25,207,5240103,,,2023-01-23,登記官による閉鎖,,,2015-10-05,1,,,,,,0
2008,7160005000304,登記記録の閉鎖等,0,2023-01-24,2023-01-23,滋賀県朝鮮人商工協同組合,,その他の設立登記法人,滋賀県,大津市,島の関１２６番１号,,25,201,5200042,,,2023-01-23,登記官による閉鎖,,,2015-10-05,1,,,,,,0
2009,7160005000394,登記記録の閉鎖等,0,2023-01-24,2023-01-23,瀬田食糧販売企業組合,,その他の設立登記法人,滋賀県,大津市,三大寺３番４号,,25,201,5202131,,,2023-01-23,登記官による閉鎖,,,2015-10-05,1,,,,,,0
2010,7160005001013,登記記録の閉鎖等,0,2023-01-24,2023-01-23,湖西食糧協同組合,,その他の設立登記法人,滋賀県,大津市,北比良６３０番地の１,,25,201,5200503,,,2023-01-23,登記官による閉鎖,,,2015-10-05,1,,,,,,0
2011,7160005002110,登記記録の閉鎖等,0,2023-01-24,2023-01-23,滋賀廃棄物再資源化協同組合,,その他の設立登記法人,滋賀県,大津市,伊香立北在地町字奥野３２５番１,,25,201,5200351,,,2023-01-23,登記官による閉鎖,,,2015-10-05,1,,,,,,0
2012,7160005002309,登記記録の閉鎖等,0,2023-01-24,2023-01-23,淡海建設協同組合,,その他の設立登記法人,滋賀県,大津市,下阪本６丁目３９番１８号,,25,201,5200105,,,2023-01-23,登記官による閉鎖,,,2015-10-05,1,,,,,,0
2013,7160005007489,登記記録の閉鎖等,0,2023-01-24,2023-01-23,安曇川ショッパーズプラザ協同組合,,その他の設立登記法人,滋賀県,高島市,安曇川町末広１丁目１４番地,,25,212,5201214,,,2023-01-23,登記官による閉鎖,,,2015-10-05,1,,,,,,0
2014,7160005008669,登記記録の閉鎖等,0,2023-01-24,2023-01-23,特定非営利活動法人ケア＆ナーシング研究会,,その他の設立登記法人,滋賀県,栗東市,霊仙寺２丁目８番５号,,25,208,5203035,,,2023-01-23,登記官による閉鎖,,,2015-10-05,1,,,,,,0
2025,7180301009988,登記記録の閉鎖等,0,2023-01-24,2023-01-20,請井製畳株式会社,,株式会社,愛知県,豊川市,八幡町弥五郎１４８番地,,23,207,4420857,,,2023-01-20,清算の結了等,,,2015-10-05,1,,,,,ウケイセイジョウ,0
2028,7200001018980,登記記録の閉鎖等,0,2023-01-24,2023-01-23,株式会社エイム,,株式会社,岐阜県,関市,小瀬２７２７番地の３,,21,205,5013265,,,2023-01-23,清算の結了等,,,2015-10-05,1,,,,,エイム,0
2045,7290001076038,登記記録の閉鎖等,0,2023-01-24,2023-01-19,宮食株式会社,,株式会社,福岡県,福岡市東区,和白丘２丁目１１番１４号,,40,131,8110213,,,2023-01-19,清算の結了等,,,2016-12-09,1,,,,,ミヤショク,0
2047,7290003006083,登記記録の閉鎖等,0,2023-01-24,2023-01-18,環宇合同会社,,合同会社,福岡県,福岡市東区,香椎照葉３丁目２－７－１６０３,,40,131,8130017,,,2023-01-18,清算の結了等,,,2015-10-15,1,,,,,カンウ,0
2054,7330001004670,登記記録の閉鎖等,0,2023-01-24,2023-01-20,本山企業株式会社,,株式会社,熊本県,熊本市中央区,本山町７９番地,,43,101,8600822,,,2023-01-20,登記官による閉鎖,,,2015-10-05,1,,,,,,0
2055,7330001006551,登記記録の閉鎖等,0,2023-01-24,2023-01-20,株式会社ヒューマンリソース,,株式会社,熊本県,熊本市中央区,上通町８番１９号ユニバーサルビル６階,,43,101,8600845,,,2023-01-20,登記官による閉鎖,,,2015-10-05,1,,,,,,0
2056,7330001014752,登記記録の閉鎖等,0,2023-01-24,2023-01-20,株式会社Ｔ－ＭＡＸ,,株式会社,熊本県,熊本市中央区,船場町３丁目９番地,,43,101,8600019,,,2023-01-20,登記官による閉鎖,,,2015-10-05,1,,,,,,0
2057,7330001015742,登記記録の閉鎖等,0,2023-01-24,2023-01-20,バイオ興発株式会社,,株式会社,熊本県,天草市,亀場町亀川６２９番地,,43,215,8630043,,,2023-01-20,登記官による閉鎖,,,2015-10-05,1,,,,,,0
2058,7330001016716,登記記録の閉鎖等,0,2023-01-24,2023-01-20,株式会社セイリン,,株式会社,熊本県,熊本市東区,下江津２丁目５番４７号,,43,102,8620960,,,2023-01-20,登記官による閉鎖,,,2015-10-05,1,,,,,,0
2063,7330002021863,登記記録の閉鎖等,0,2023-01-24,2023-01-20,有限会社徳丸産業,,有限会社,熊本県,荒尾市,四ツ山町２丁目１４番１９号,,43,204,8640052,,,2023-01-20,登記官による閉鎖,,,2015-10-05,1,,,,,,0
2064,7330002022093,登記記録の閉鎖等,0,2023-01-24,2023-01-20,有限会社大正産業,,有限会社,熊本県,玉名郡長洲町,大字長洲２４１６番地１,,43,368,8690123,,,2023-01-20,登記官による閉鎖,,,2015-10-05,1,,,,,,0
2065,7330002025352,登記記録の閉鎖等,0,2023-01-24,2023-01-20,有限会社タケダ,,有限会社,熊本県,下益城郡美里町,土喰１２０番地,,43,348,8614721,,,2023-01-20,登記官による閉鎖,,,2015-10-05,1,,,,,,0
2067,7330003004116,登記記録の閉鎖等,0,2023-01-24,2023-01-20,商食合同会社,,合同会社,熊本県,天草市,志柿町６８１７番地３９,,43,215,8630041,,,2023-01-20,登記官による閉鎖,,,2015-10-05,1,,,,,,0
2069,7330005000807,登記記録の閉鎖等,0,2023-01-24,2023-01-20,協同組合アイディーグループ,,その他の設立登記法人,熊本県,熊本市西区,田崎町３８０番地６３,,43,103,8600058,,,2023-01-20,登記官による閉鎖,,,2015-10-05,1,,,,,,0
2070,7330005005475,登記記録の閉鎖等,0,2023-01-24,2023-01-20,熊本県醸造酢ソース協同組合,,その他の設立登記法人,熊本県,宇土市,大字三拾町５７９番地,,43,211,8690400,,,2023-01-20,登記官による閉鎖,,,2015-10-05,1,,,,,,0
2071,7330005008057,登記記録の閉鎖等,0,2023-01-24,2023-01-20,ＮＰＯ法人シニアの広場,,その他の設立登記法人,熊本県,熊本市東区,小山２丁目１２番１－３０８号,,43,102,8618045,,,2023-01-20,登記官による閉鎖,,,2015-10-05,1,,,,,,0
2077,7350002015095,登記記録の閉鎖等,0,2023-01-24,2023-01-17,有限会社向井工務店,,有限会社,宮崎県,都城市,梅北町１１２９４番地１,,45,202,8850063,,,2023-01-17,清算の結了等,,,2015-10-05,1,,,,,ムカイコウムテン,0
2080,7360002012224,登記記録の閉鎖等,0,2023-01-24,2023-01-17,有限会社浜川建築設計事務所,,有限会社,沖縄県,沖縄市,松本３丁目１番２号久田店舗２０２号,,47,211,9042151,,,2023-01-17,清算の結了等,,,2015-10-05,1,,,,,ハマカワケンチクセッケイジムショ,0
2082,7370001009609,登記記録の閉鎖等,0,2023-01-24,2023-01-23,長井産業株式会社,,株式会社,宮城県,仙台市青葉区,花京院１丁目１番５２号－７０４,,04,101,9800013,,,2023-01-23,登記官による閉鎖,,,2017-12-25,1,,,,,,0
2083,7370001012934,登記記録の閉鎖等,0,2023-01-24,2023-01-23,仙台牛佐利総本家株式会社,,株式会社,宮城県,仙台市青葉区,一番町４丁目３番３号,,04,101,9800811,,,2023-01-23,登記官による閉鎖,,,2015-10-05,1,,,,,,0
2084,7370002003692,登記記録の閉鎖等,0,2023-01-24,2023-01-23,有限会社ハウスクリーンあおば,,有限会社,宮城県,仙台市太白区,秋保町湯元字除４番地の１０６,,04,104,9820241,,,2023-01-23,登記官による閉鎖,,,2015-10-05,1,,,,,,0
2085,7370002004542,登記記録の閉鎖等,0,2023-01-24,2023-01-23,有限会社板橋塗装店,,有限会社,宮城県,仙台市若林区,今泉２丁目１２番４４号,,04,103,9840835,,,2023-01-23,登記官による閉鎖,,,2015-10-05,1,,,,,,0
2086,7370002009938,登記記録の閉鎖等,0,2023-01-24,2023-01-23,有限会社エスエス事務機,,有限会社,宮城県,仙台市太白区,太白３丁目６番１５－１号,,04,104,9820212,,,2023-01-23,清算の結了等,,,2015-10-05,1,,,,,,0
2089,7370005002618,登記記録の閉鎖等,0,2023-01-24,2023-01-23,特定非営利活動法人旅の周遊友の会,,その他の設立登記法人,宮城県,仙台市泉区,市名坂字原田１５５番地,,04,105,9813117,,,2023-01-23,登記官による閉鎖,,,2015-10-05,1,,,,,,0
2090,7370202000085,登記記録の閉鎖等,0,2023-01-24,2023-01-23,有限会社市川コンサルタント事務所,,有限会社,宮城県,大崎市,古川大宮４丁目５番７号,,04,215,9896221,,,2023-01-23,登記官による閉鎖,,,2015-10-05,1,,,,,,0
2091,7370205001460,登記記録の閉鎖等,0,2023-01-24,2023-01-23,農事組合法人宝領きのこ生産組合,,その他の設立登記法人,宮城県,栗原市,栗駒稲屋敷大鳥西１００番地,,04,213,9895341,,,2023-01-23,登記官による閉鎖,,,2015-10-05,1,,,,,,0
2092,7370302002287,登記記録の閉鎖等,0,2023-01-24,2023-01-23,有限会社丸忠洋品店,,有限会社,宮城県,石巻市,相野谷字飯野川町６６番地,,04,202,9860101,,,2023-01-23,登記官による閉鎖,,,2015-10-05,1,,,,,,0
2093,7370302002741,登記記録の閉鎖等,0,2023-01-24,2023-01-23,有限会社東北ジャストコミュニケーションズ,,有限会社,宮城県,東松島市,野蒜字南赤崎７４番地の３,,04,214,9810411,,,2023-01-23,登記官による閉鎖,,,2015-10-05,1,,,,,,0
2094,7370602002383,登記記録の閉鎖等,0,2023-01-24,2023-01-23,有限会社一八ファン,,有限会社,宮城県,塩竈市,旭町２０番１６号,,04,203,9850026,,,2023-01-23,登記官による閉鎖,,,2015-10-05,1,,,,,,0
2095,7370802000047,登記記録の閉鎖等,0,2023-01-24,2023-01-23,有限会社アイランド,,有限会社,宮城県,名取市,飯野坂６丁目１番１７号,,04,207,9811225,,,2023-01-23,登記官による閉鎖,,,2015-10-05,1,,,,,,0
2107,7430001087689,登記記録の閉鎖等,0,2023-01-24,2023-01-20,株式会社草庵,,株式会社,北海道,苫小牧市,字高丘６番地の１８１,,01,213,0530035,,,2023-01-20,清算の結了等,,,2022-10-21,1,,,,,ソウアン,0
2110,7450002001787,登記記録の閉鎖等,0,2023-01-24,2023-01-24,有限会社旭豊保険亊務所,,有限会社,北海道,旭川市,三条通１１丁目９７０番地の３,,01,204,0700033,,,2023-01-24,登記官による閉鎖,,,2015-10-05,1,,,,,,0
2130,8010401130305,登記記録の閉鎖等,0,2023-01-24,2023-01-16,東京三力健康管理株式会社,,株式会社,東京都,渋谷区,代々木２丁目２０番１９号３階（ＣＶＣ会計内）,,13,113,1510053,,,2023-01-16,清算の結了等,,,2017-03-17,1,,,,,トウキョウサンリキケンコウカンリ,0
2168,8011601015774,登記記録の閉鎖等,0,2023-01-24,2023-01-24,株式会社ＥＤｕ,,株式会社,東京都,練馬区,氷川台３丁目１２番１６号ハイム篠崎３０１,,13,120,1790084,,,2023-01-24,登記官による閉鎖,,,2015-10-05,1,,,,,,0
2169,8011601016946,登記記録の閉鎖等,0,2023-01-24,2023-01-24,株式会社Ｒ－ＳＣＡＰＥ,,株式会社,東京都,練馬区,関町東２丁目６番５号,,13,120,1770052,,,2023-01-24,登記官による閉鎖,,,2015-10-05,1,,,,,,0
2170,8011602007564,登記記録の閉鎖等,0,2023-01-24,2023-01-24,有限会社中村電気商会,,有限会社,東京都,練馬区,関町南２丁目２１番５号,,13,120,1770053,,,2023-01-24,登記官による閉鎖,,,2015-10-05,1,,,,,,0
2171,8011602007639,登記記録の閉鎖等,0,2023-01-24,2023-01-24,有限会社ナミキ巧芸,,有限会社,東京都,練馬区,光が丘２丁目１０番２－５１０号,,13,120,1790072,,,2023-01-24,登記官による閉鎖,,,2015-10-05,1,,,,,,0
2172,8011602009206,登記記録の閉鎖等,0,2023-01-24,2023-01-24,有限会社ますみ屋,,有限会社,東京都,練馬区,栄町２９番６号,,13,120,1760006,,,2023-01-24,登記官による閉鎖,,,2015-10-05,1,,,,,,0
2173,8011602010601,登記記録の閉鎖等,0,2023-01-24,2023-01-24,有限会社ヨシダ,,有限会社,東京都,練馬区,田柄２丁目８番２１号,,13,120,1790073,,,2023-01-24,登記官による閉鎖,,,2015-10-05,1,,,,,,0
2174,8011603001054,登記記録の閉鎖等,0,2023-01-24,2023-01-24,のみともインターナショナル合同会社,,合同会社,東京都,練馬区,豊玉中３丁目２８番１５号,,13,120,1760013,,,2023-01-24,登記官による閉鎖,,,2015-10-05,1,,,,,,0
2175,8011603001087,登記記録の閉鎖等,0,2023-01-24,2023-01-24,合同会社高紀イーテックス,,合同会社,東京都,練馬区,高野台１丁目３番８号シャリエ練馬高野台１０５,,13,120,1770033,,,2023-01-24,登記官による閉鎖,,,2015-10-05,1,,,,,,0
2183,8012801009335,登記記録の閉鎖等,0,2023-01-24,2023-01-18,株式会社平成商事,,株式会社,東京都,立川市,錦町６丁目１２番２０号,,13,202,1900022,,,2023-01-18,合併による解散等,9012801020258,令和５年１月１５日東京都国分寺市南町三丁目４番１６号ヘリオス３７８相互第７ビル相互企画株式会社（9012801020258）に合併し解散,2015-10-05,1,,,,,ヘイセイショウジ,0
2186,8020001139142,登記記録の閉鎖等,0,2023-01-24,2023-01-04,株式会社ＫＲＡＤ,,株式会社,神奈川県,川崎市幸区,幸町４丁目３５番地,,14,132,2120011,,,2023-01-04,合併による解散等,5020001036672,令和５年１月１日横浜市鶴見区駒岡五丁目１４番１０号株式会社中川研磨製作所（5020001036672）に合併し解散,2020-12-23,1,,,,,クラッド,0
2198,8021005005256,登記記録の閉鎖等,0,2023-01-24,2023-01-20,特定非営利活動法人ワーカーズ・コレクティブこかげ,,その他の設立登記法人,神奈川県,座間市,緑ケ丘５丁目４番２５号,,14,216,2520021,,,2023-01-20,清算の結了等,,,2015-10-05,1,,,,,ワーカーズコレクティブコカゲ,0
2211,8050002009317,登記記録の閉鎖等,0,2023-01-24,2023-01-19,有限会社藤本塗装,,有限会社,茨城県,東茨城郡大洗町,磯浜町３５４４番地,,08,309,3111301,,,2023-01-19,清算の結了等,,,2015-10-05,1,,,,,フジモトトソウ,0
2212,8060001006041,登記記録の閉鎖等,0,2023-01-24,2023-01-19,株式会社シー・ティー・シー,,株式会社,栃木県,さくら市,鷲宿字西原３０１２－１,,09,214,3291411,,,2023-01-19,登記官による閉鎖,,,2015-10-05,1,,,,,,0
2213,8060001007824,登記記録の閉鎖等,0,2023-01-24,2023-01-19,株式会社Ｋ・Ｋファーム,,株式会社,栃木県,宇都宮市,簗瀬町１７８５番地,,09,201,3210933,,,2023-01-19,登記官による閉鎖,,,2015-10-05,1,,,,,,0
2214,8060001010646,登記記録の閉鎖等,0,2023-01-24,2023-01-19,三星板金工業株式会社,,株式会社,栃木県,鹿沼市,上石川１３５８番地３,,09,205,3220015,,,2023-01-19,登記官による閉鎖,,,2015-10-05,1,,,,,,0
2215,8060001014507,登記記録の閉鎖等,0,2023-01-24,2023-01-19,東スレ建装株式会社,,株式会社,栃木県,小山市,大字三拝川岸２３４番地,,09,208,3230015,,,2023-01-19,登記官による閉鎖,,,2015-10-05,1,,,,,,0
2219,8060002001149,登記記録の閉鎖等,0,2023-01-24,2023-01-19,有限会社石川哲三商店,,有限会社,栃木県,宇都宮市,塙田２丁目５番２３号,,09,201,3200027,,,2023-01-19,登記官による閉鎖,,,2015-10-05,1,,,,,,0
2220,8060002010810,登記記録の閉鎖等,0,2023-01-24,2023-01-19,有限会社エコロジーシステム,,有限会社,栃木県,宇都宮市,塙田４丁目１番１８号,,09,201,3200027,,,2023-01-19,登記官による閉鎖,,,2015-10-05,1,,,,,,0
2221,8060002018176,登記記録の閉鎖等,0,2023-01-24,2023-01-19,有限会社鶴見鋼業,,有限会社,栃木県,芳賀郡益子町,大字前沢８４６番地１,,09,342,3214214,,,2023-01-19,登記官による閉鎖,,,2015-10-05,1,,,,,,0
2222,8060002023176,登記記録の閉鎖等,0,2023-01-24,2023-01-19,有限会社那須工業,,有限会社,栃木県,那須郡那須町,大字高久甲７６９番地２,,09,407,3250001,,,2023-01-19,登記官による閉鎖,,,2015-10-05,1,,,,,,0
2223,8060002035205,登記記録の閉鎖等,0,2023-01-24,2023-01-19,有限会社青山モータース,,有限会社,栃木県,足利市,田中町７０４番地,,09,202,3260822,,,2023-01-19,登記官による閉鎖,,,2015-10-05,1,,,,,,0
2224,8060002036260,登記記録の閉鎖等,0,2023-01-24,2023-01-19,有限会社嵯峨精機,,有限会社,栃木県,足利市,南大町４０６番地の１３,,09,202,3260836,,,2023-01-19,登記官による閉鎖,,,2015-10-05,1,,,,,,0
2225,8060002036888,登記記録の閉鎖等,0,2023-01-24,2023-01-19,有限会社鳥常本店,,有限会社,栃木県,足利市,通１丁目２６８６番地,,09,202,3260814,,,2023-01-19,登記官による閉鎖,,,2015-10-05,1,,,,,,0
2226,8060002036979,登記記録の閉鎖等,0,2023-01-24,2023-01-19,有限会社ニシクラ,,有限会社,栃木県,足利市,鹿島町３７６番地,,09,202,3260844,,,2023-01-19,登記官による閉鎖,,,2015-10-05,1,,,,,,0
2227,8060002037028,登記記録の閉鎖等,0,2023-01-24,2023-01-19,有限会社野本石油,,有限会社,栃木県,足利市,名草中町１５２１番地,,09,202,3260002,,,2023-01-19,登記官による閉鎖,,,2015-10-05,1,,,,,,0
2228,8060002040519,登記記録の閉鎖等,0,2023-01-24,2023-01-19,有限会社ヒラノヤ,,有限会社,栃木県,佐野市,栃本町３４５１番地２,,09,204,3270312,,,2023-01-19,登記官による閉鎖,,,2015-10-05,1,,,,,,0
2229,8060003000892,登記記録の閉鎖等,0,2023-01-24,2023-01-19,合同会社競馬レポート,,合同会社,栃木県,小山市,東城南５丁目１７番地７,,09,208,3230829,,,2023-01-19,登記官による閉鎖,,,2015-10-05,1,,,,,,0
2232,8070002032184,登記記録の閉鎖等,0,2023-01-24,2023-01-17,有限会社公栄,,有限会社,群馬県,邑楽郡大泉町,西小泉１丁目１５番１８号,,10,524,3700517,,,2023-01-17,清算の結了等,,,2015-10-05,1,,,,,コウエイ,0
2266,8140003017961,登記記録の閉鎖等,0,2023-01-24,2023-01-20,合同会社神戸コネクト,,合同会社,兵庫県,神戸市中央区,磯上通８丁目１－２９カサベラビルＣ＆Ｍビル４０３,,28,110,6510086,,,2023-01-20,清算の結了等,,,2022-08-01,1,,,,,コウベコネクト,0
2270,8160001014637,登記記録の閉鎖等,0,2023-01-24,2023-01-23,株式会社クレバーエステート,,株式会社,滋賀県,草津市,橋岡町３４－１－１１３,,25,206,5250065,,,2023-01-23,登記官による閉鎖,,,2015-10-05,1,,,,,,0
2272,8160002013968,登記記録の閉鎖等,0,2023-01-24,2023-01-23,有限会社清和商事,,有限会社,滋賀県,守山市,浮気町３４５番地,,25,207,5240033,,,2023-01-23,登記官による閉鎖,,,2015-10-05,1,,,,,,0
2273,8160005000393,登記記録の閉鎖等,0,2023-01-24,2023-01-23,石山晴嵐第一食糧品販売企業組合,,その他の設立登記法人,滋賀県,大津市,美崎町３番１号,,25,201,5200841,,,2023-01-23,登記官による閉鎖,,,2015-10-05,1,,,,,,0
2274,8160005003248,登記記録の閉鎖等,0,2023-01-24,2023-01-23,滋賀外食事業企業組合,,その他の設立登記法人,滋賀県,長浜市,大宮町３番１２号,,25,203,5260054,,,2023-01-23,登記官による閉鎖,,,2015-10-05,1,,,,,,0
2275,8160005004915,登記記録の閉鎖等,0,2023-01-24,2023-01-23,滋賀喫茶事業協同組合,,その他の設立登記法人,滋賀県,彦根市,松原町１４３５番地の７８,,25,202,5220002,,,2023-01-23,登記官による閉鎖,,,2015-10-05,1,,,,,,0
2276,8160005004923,登記記録の閉鎖等,0,2023-01-24,2023-01-23,彦根医薬品協同組合,,その他の設立登記法人,滋賀県,彦根市,銀座町４番１８号,,25,202,5220088,,,2023-01-23,登記官による閉鎖,,,2015-10-05,1,,,,,,0
2277,8160005008874,登記記録の閉鎖等,0,2023-01-24,2023-01-23,協同組合守山ターミナルショップ,,その他の設立登記法人,滋賀県,守山市,梅田町３番６号,,25,207,5240037,,,2023-01-23,登記官による閉鎖,,,2015-10-05,1,,,,,,0
2281,8180001053162,登記記録の閉鎖等,0,2023-01-24,2023-01-19,株式会社カデッシュ,,株式会社,愛知県,名古屋市北区,敷島町４１番地３,,23,103,4620045,,,2023-01-19,清算の結了等,,,2015-10-05,1,,,,,カデッシュ,0
2294,8210002012048,登記記録の閉鎖等,0,2023-01-24,2023-01-20,有限会社アセットビジョン,,有限会社,福井県,越前市,粟田部町第４８号２２番地,,18,209,9150242,,,2023-01-20,清算の結了等,,,2015-10-05,1,,,,,アセットビジョン,0
2295,8220001020637,登記記録の閉鎖等,0,2023-01-24,2023-01-19,テクノ・コンポジット株式会社,,株式会社,石川県,金沢市,無量寺町ハ７０番地１,,17,201,9200332,,,2023-01-19,清算の結了等,,,2015-11-05,1,,,,,テクノコンポジット,0
2325,8330001008976,登記記録の閉鎖等,0,2023-01-24,2023-01-20,株式会社エムシイアンドエス,,株式会社,熊本県,熊本市中央区,新屋敷３丁目６番１４号,,43,101,8620975,,,2023-01-20,登記官による閉鎖,,,2015-10-05,1,,,,,,0
2328,8330002003175,登記記録の閉鎖等,0,2023-01-24,2023-01-20,有限会社グローバル・パシフイック,,有限会社,熊本県,熊本市東区,戸島町１１００番地１,,43,102,8618031,,,2023-01-20,登記官による閉鎖,,,2015-10-05,1,,,,,,0
2329,8330002009825,登記記録の閉鎖等,0,2023-01-24,2023-01-20,有限会社松住,,有限会社,熊本県,熊本市中央区,水前寺２丁目２２番８号,,43,101,8620950,,,2023-01-20,登記官による閉鎖,,,2015-10-05,1,,,,,,0
2330,8330002011748,登記記録の閉鎖等,0,2023-01-24,2023-01-20,有限会社西部企画,,有限会社,熊本県,熊本市西区,城山下代４丁目９番３７号,,43,103,8600066,,,2023-01-20,登記官による閉鎖,,,2015-10-05,1,,,,,,0
2331,8330002017704,登記記録の閉鎖等,0,2023-01-24,2023-01-20,有限会社倉原工務店,,有限会社,熊本県,菊池市,赤星９８０番地,,43,210,8611311,,,2023-01-20,登記官による閉鎖,,,2015-10-05,1,,,,,,0
2332,8330002017761,登記記録の閉鎖等,0,2023-01-24,2023-01-20,サンエーハウス有限会社,,有限会社,熊本県,菊池市,隈府４４４番地,,43,210,8611331,,,2023-01-20,登記官による閉鎖,,,2015-10-05,1,,,,,,0
2334,8330002025814,登記記録の閉鎖等,0,2023-01-24,2023-01-20,有限会社小料理まさ,,有限会社,熊本県,八代市,古城町３００９番地の２,,43,202,8660043,,,2023-01-20,登記官による閉鎖,,,2015-10-05,1,,,,,,0
2335,8330002026382,登記記録の閉鎖等,0,2023-01-24,2023-01-20,有限会社松本工熱工業,,有限会社,熊本県,八代市,袋町４番２５号,,43,202,8660855,,,2023-01-20,登記官による閉鎖,,,2015-10-05,1,,,,,,0
2336,8330003005245,登記記録の閉鎖等,0,2023-01-24,2023-01-19,合同会社よんく,,合同会社,福岡県,大牟田市,上官町１丁目８－１２－１０３,,40,202,8360866,,,2023-01-19,清算の結了等,,,2015-10-05,1,,,,,ヨンク,0
2338,8330005005482,登記記録の閉鎖等,0,2023-01-24,2023-01-20,熊本県粘土瓦協同組合,,その他の設立登記法人,熊本県,宇土市,松山町３０５７番地,,43,211,8690416,,,2023-01-20,登記官による閉鎖,,,2015-10-05,1,,,,,,0
2339,8330005005846,登記記録の閉鎖等,0,2023-01-24,2023-01-20,八代地方青果商業協同組合,,その他の設立登記法人,熊本県,八代市,新浜町壱号１番７,,43,202,8660031,,,2023-01-20,登記官による閉鎖,,,2015-10-05,1,,,,,,0
2340,8330005007990,登記記録の閉鎖等,0,2023-01-24,2023-01-20,ＮＰＯ法人くまもとスポーツ・教育研究所,,その他の設立登記法人,熊本県,熊本市東区,下江津７丁目１番１号,,43,102,8620960,,,2023-01-20,登記官による閉鎖,,,2015-10-05,1,,,,,,0
2348,8370001008782,登記記録の閉鎖等,0,2023-01-24,2023-01-23,株式会社セローコーポレーション,,株式会社,宮城県,仙台市青葉区,立町２２番１４－７０５号,,04,101,9800822,,,2023-01-23,登記官による閉鎖,,,2015-10-05,1,,,,,,0
2349,8370001010846,登記記録の閉鎖等,0,2023-01-24,2023-01-23,株式会社リフレックスコンサルタンツ,,株式会社,宮城県,仙台市青葉区,錦町２丁目４番地４３号,,04,101,9800012,,,2023-01-23,登記官による閉鎖,,,2015-10-05,1,,,,,,0
2350,8370001016579,登記記録の閉鎖等,0,2023-01-24,2023-01-23,株式会社ウェイスト・ソリューションズ,,株式会社,宮城県,仙台市宮城野区,福住町１０番地の１５,,04,102,9830033,,,2023-01-23,登記官による閉鎖,,,2015-10-05,1,,,,,,0
2354,8370002004599,登記記録の閉鎖等,0,2023-01-24,2023-01-18,エース技研有限会社,,有限会社,宮城県,仙台市若林区,沖野６丁目３１番２５号,,04,103,9840831,,,2023-01-18,清算の結了等,,,2015-10-05,1,,,,,エースギケン,0
2356,8370002008220,登記記録の閉鎖等,0,2023-01-24,2023-01-23,有限会社トーワテクノ,,有限会社,宮城県,仙台市宮城野区,幸町２丁目１７番７－４１２号,,04,102,9830836,,,2023-01-23,登記官による閉鎖,,,2015-10-05,1,,,,,,0
2357,8370002010151,登記記録の閉鎖等,0,2023-01-24,2023-01-23,有限会社大里塗装店,,有限会社,宮城県,仙台市青葉区,荒巻神明町４番９号,,04,101,9810965,,,2023-01-23,登記官による閉鎖,,,2015-10-05,1,,,,,,0
2358,8370002015035,登記記録の閉鎖等,0,2023-01-24,2023-01-23,有限会社ダイコクホーム,,有限会社,宮城県,仙台市泉区,南光台５丁目１７番４２号,,04,105,9818003,,,2023-01-23,登記官による閉鎖,,,2015-10-05,1,,,,,,0
2360,8370103000720,登記記録の閉鎖等,0,2023-01-24,2023-01-23,鈴與合名会社,,合名会社,宮城県,柴田郡川崎町,大字小野字町２９番地の２,,04,324,9891505,,,2023-01-23,登記官による閉鎖,,,2015-10-05,1,,,,,,0
2361,8370201000556,登記記録の閉鎖等,0,2023-01-24,2023-01-23,株式会社落合工業,,株式会社,宮城県,大崎市,古川宮内字筏畑１２番地,,04,215,9896127,,,2023-01-23,登記官による閉鎖,,,2015-10-05,1,,,,,,0
2362,8370201003625,登記記録の閉鎖等,0,2023-01-24,2023-01-23,株式会社エフティ・アグリスター,,株式会社,宮城県,栗原市,鶯沢南郷町田前１番地１,,04,213,9895402,,,2023-01-23,登記官による閉鎖,,,2015-10-05,1,,,,,,0
2363,8370205001856,登記記録の閉鎖等,0,2023-01-24,2023-01-23,特定非営利活動法人夢くりはら２１,,その他の設立登記法人,宮城県,栗原市,栗駒岩ケ崎六日町１０８番地,,04,213,9895301,,,2023-01-23,登記官による閉鎖,,,2015-10-05,1,,,,,,0
2364,8370302002377,登記記録の閉鎖等,0,2023-01-24,2023-01-23,有限会社宮城スカーフ,,有限会社,宮城県,石巻市,釜谷字韮島７２番地,,04,202,9860111,,,2023-01-23,登記官による閉鎖,,,2015-10-05,1,,,,,,0
2365,8370303000033,登記記録の閉鎖等,0,2023-01-24,2023-01-23,合資会社平地鉄工所,,合資会社,宮城県,東松島市,牛網字新中村松１０４番地の１,,04,214,9810301,,,2023-01-23,登記官による閉鎖,,,2015-10-05,1,,,,,,0
2366,8370402000116,登記記録の閉鎖等,0,2023-01-24,2023-01-23,白石運輸有限会社,,有限会社,宮城県,登米市,津山町柳津字本町４８番地,,04,212,9860401,,,2023-01-23,登記官による閉鎖,,,2015-10-05,1,,,,,,0
2367,8370602000139,登記記録の閉鎖等,0,2023-01-24,2023-01-23,有限会社イーストビーチ開発,,有限会社,宮城県,宮城郡松島町,高城字町東二１６番地の１,,04,401,9810215,,,2023-01-23,登記官による閉鎖,,,2015-10-05,1,,,,,,0
2368,8370605000648,登記記録の閉鎖等,0,2023-01-24,2023-01-23,特定非営利活動法人大輪の郷松島,,その他の設立登記法人,宮城県,宮城郡松島町,桜渡戸字欠ノ下５番地９１,,04,401,9810214,,,2023-01-23,登記官による閉鎖,,,2015-10-05,1,,,,,,0
2369,8370801001219,登記記録の閉鎖等,0,2023-01-24,2023-01-23,エスト・コミュニケーション・ミヤギ株式会社,,株式会社,宮城県,亘理郡亘理町,荒浜字隈崎６番地１,,04,361,9892311,,,2023-01-23,登記官による閉鎖,,,2015-10-05,1,,,,,,0
2377,8420002007737,登記記録の閉鎖等,0,2023-01-24,2023-01-20,有限会社ダイモト福井商事,,有限会社,青森県,八戸市,大字売市字右水門下８番地の２２,,02,203,0310073,,,2023-01-20,清算の結了等,,,2015-10-05,1,,,,,ダイモトフクイショウジ,0
2381,8450001005094,登記記録の閉鎖等,0,2023-01-24,2023-01-24,株式会社中島内装,,株式会社,北海道,旭川市,豊岡十一条５丁目４番２５号,,01,204,0788241,,,2023-01-24,登記官による閉鎖,,,2017-10-04,1,,,,,,0
2382,8450002012131,登記記録の閉鎖等,0,2023-01-24,2023-01-24,有限会社綜合印刷創元,,有限会社,北海道,苫前郡羽幌町,北一条１丁目１番地の５,,01,484,0784111,,,2023-01-24,登記官による閉鎖,,,2015-10-05,1,,,,,,0
2383,8450002012692,登記記録の閉鎖等,0,2023-01-24,2023-01-24,有限会社道北熱機工業,,有限会社,北海道,紋別市,北浜町１丁目３番地の３,,01,219,0940001,,,2023-01-24,登記官による閉鎖,,,2015-10-05,1,,,,,,0
2386,8500002017182,登記記録の閉鎖等,0,2023-01-24,2023-01-20,有限会社マイライフ,,有限会社,愛媛県,新居浜市,新須賀町１丁目６番４１号,,38,205,7920802,,,2023-01-20,清算の結了等,,,2015-10-05,1,,,,,マイライフ,0
2392,9010001054011,登記記録の閉鎖等,0,2023-01-24,2023-01-16,野村衣料株式会社,,株式会社,東京都,中央区,東日本橋２丁目２番１３号,,13,102,1030004,,,2023-01-16,清算の結了等,,,2015-10-05,1,,,,,ノムライリョウ,0
2407,9010401108837,登記記録の閉鎖等,0,2023-01-24,2023-01-06,ＪＰＡ第１４号株式会社,,株式会社,東京都,港区,虎ノ門２丁目９番１１号,,13,103,1050001,,,2023-01-06,清算の結了等,,,2015-10-05,1,,,,,ジェイピーエーダイジュウヨンゴウ,0
2427,9010801002648,登記記録の閉鎖等,0,2023-01-24,2023-01-05,株式会社金子製作所,,株式会社,東京都,港区,新橋１丁目１８番１６号,,13,103,1050004,,,2023-01-05,合併による解散等,6010801003541,令和４年１２月３１日東京都港区新橋一丁目１８番１６号株式会社ケーエム（6010801003541）に合併し解散,2015-10-05,1,,,,,カネコセイサクショ,0
2445,9011003011504,登記記録の閉鎖等,0,2023-01-24,2023-01-12,ロクタス合同会社,,合同会社,東京都,渋谷区,渋谷２丁目２番１７号ＴｒａｎｃｅＷＯＲＫＳ青山ビル３階,,13,113,1500002,,,2023-01-12,清算の結了等,,,2020-08-20,1,,,,,ロクタス,0
2452,9011101081548,登記記録の閉鎖等,0,2023-01-24,2023-01-13,株式会社ＪＡＳ　Ｐｌａｎｎｉｎｇ,,株式会社,山梨県,甲斐市,宇津谷４４５番地の１,,19,210,4000108,,,2023-01-13,合併による解散等,7090001015008,令和５年１月３日山梨県甲斐市宇津谷４４５番地日本航空企画株式会社（7090001015008）に合併し解散,2017-08-23,1,,,,,ジャスプランニング,0
2460,9011201000077,登記記録の閉鎖等,0,2023-01-24,2023-01-23,株式会社アイデポート,,株式会社,東京都,中野区,中野５丁目３２番６号,,13,114,1640001,,,2023-01-23,清算の結了等,,,2015-10-05,1,,,,,アイデポート,0
2467,9011601001575,登記記録の閉鎖等,0,2023-01-24,2023-01-24,関東電機株式会社,,株式会社,東京都,練馬区,下石神井３丁目４番７号,,13,120,1770042,,,2023-01-24,登記官による閉鎖,,,2015-10-05,1,,,,,,0
2468,9011601004561,登記記録の閉鎖等,0,2023-01-24,2023-01-24,東京中央バス株式会社,,株式会社,東京都,練馬区,大泉学園町３丁目７番２５号,,13,120,1780061,,,2023-01-24,登記官による閉鎖,,,2015-10-05,1,,,,,,0
2469,9011601005287,登記記録の閉鎖等,0,2023-01-24,2023-01-24,日商産業株式会社,,株式会社,東京都,練馬区,石神井台７丁目１５番５号,,13,120,1770045,,,2023-01-24,登記官による閉鎖,,,2015-10-05,1,,,,,,0
2470,9011601006987,登記記録の閉鎖等,0,2023-01-24,2023-01-24,箭内建設株式会社,00056119,株式会社,東京都,練馬区,貫井５丁目１番８号,,13,120,1760021,,,2023-01-24,登記官による閉鎖,,,2015-10-05,1,,,,,,0
2473,9011602009733,登記記録の閉鎖等,0,2023-01-24,2023-01-24,ミヨシ塗装有限会社,,有限会社,東京都,練馬区,高松１丁目３２番１４号,,13,120,1790075,,,2023-01-24,登記官による閉鎖,,,2015-10-05,1,,,,,,0
2474,9011605001266,登記記録の閉鎖等,0,2023-01-24,2023-01-24,特定非営利活動法人祥貴の里,,その他の設立登記法人,東京都,練馬区,高野台１丁目７番２０号プレステビル６０５,,13,120,1770033,,,2023-01-24,登記官による閉鎖,,,2015-10-05,1,,,,,,0
2502,9030001028723,登記記録の閉鎖等,0,2023-01-24,2023-01-18,株式会社彩コーポレーション,,株式会社,埼玉県,所沢市,中富南４丁目２８番２号イーストスクエア１０６,,11,208,3590003,,,2023-01-18,清算の結了等,,,2015-10-05,1,,,,,サイコーポレーション,0
2507,9030002092909,登記記録の閉鎖等,0,2023-01-24,2023-01-18,有限会社まごころ食,,有限会社,埼玉県,坂戸市,大字北大塚２２２－５,,11,239,3500253,,,2023-01-18,清算の結了等,,,2015-10-05,1,,,,,,0
2517,9040002101131,登記記録の閉鎖等,0,2023-01-24,2023-01-19,有限会社理容オカノ,,有限会社,千葉県,鴨川市,前原１３番地,,12,223,2960002,,,2023-01-19,清算の結了等,,,2015-10-05,1,,,,,,0
2522,9060001008276,登記記録の閉鎖等,0,2023-01-24,2023-01-19,あゆきエンタープライズ株式会社,,株式会社,栃木県,那須烏山市,城東４番１０号,,09,215,3210622,,,2023-01-19,登記官による閉鎖,,,2015-10-05,1,,,,,,0
2523,9060001009332,登記記録の閉鎖等,0,2023-01-24,2023-01-19,株式会社真城建企,,株式会社,栃木県,真岡市,亀山４３３番地４,,09,209,3214363,,,2023-01-19,登記官による閉鎖,,,2015-10-05,1,,,,,,0
2524,9060001014290,登記記録の閉鎖等,0,2023-01-24,2023-01-19,新日本エネルギー株式会社,,株式会社,栃木県,小山市,駅東通り１丁目６番９号,,09,208,3230022,,,2023-01-19,登記官による閉鎖,,,2015-10-05,1,,,,,,0
2525,9060001015561,登記記録の閉鎖等,0,2023-01-24,2023-01-19,株式会社アクアエンジニアリング,,株式会社,栃木県,小山市,神山２丁目５番５号,,09,208,3230828,,,2023-01-19,登記官による閉鎖,,,2015-10-05,1,,,,,,0
2526,9060001018903,登記記録の閉鎖等,0,2023-01-24,2023-01-19,寺清繊商株式会社,,株式会社,栃木県,足利市,大町１１番地の６,,09,202,3260056,,,2023-01-19,登記官による閉鎖,,,2015-10-05,1,,,,,,0
2527,9060002000224,登記記録の閉鎖等,0,2023-01-24,2023-01-19,有限会社シルエツトいちむら,,有限会社,栃木県,宇都宮市,東岡本町７４２番地２１７,,09,201,3291103,,,2023-01-19,登記官による閉鎖,,,2015-10-05,1,,,,,,0
2528,9060002001866,登記記録の閉鎖等,0,2023-01-24,2023-01-19,有限会社駅前不動産,,有限会社,栃木県,宇都宮市,東宿郷３丁目５番２号宇都宮東ハイツ２０５,,09,201,3210953,,,2023-01-19,登記官による閉鎖,,,2015-10-05,1,,,,,,0
2529,9060002004976,登記記録の閉鎖等,0,2023-01-24,2023-01-19,有限会社鈴木テレビ商会,,有限会社,栃木県,宇都宮市,東簗瀬１丁目５番地１５,,09,201,3210925,,,2023-01-19,登記官による閉鎖,,,2015-10-05,1,,,,,,0
2530,9060002007772,登記記録の閉鎖等,0,2023-01-24,2023-01-19,有限会社福＿,00024322,有限会社,栃木県,宇都宮市,宮園町１番３号,,09,201,3200808,,,2023-01-19,登記官による閉鎖,,,2015-10-05,1,,,,,,0
2531,9060002008358,登記記録の閉鎖等,0,2023-01-24,2023-01-19,有限会社バイエルン商事,,有限会社,栃木県,宇都宮市,宮本町１１番９号,,09,201,3210163,,,2023-01-19,登記官による閉鎖,,,2015-10-05,1,,,,,,0
2532,9060002013928,登記記録の閉鎖等,0,2023-01-24,2023-01-19,有限会社御殿司,,有限会社,栃木県,那須郡那珂川町,和見３１９番地,,09,411,3240612,,,2023-01-19,登記官による閉鎖,,,2015-10-05,1,,,,,,0
2533,9060002015222,登記記録の閉鎖等,0,2023-01-24,2023-01-19,日光まきば倶楽部有限会社,,有限会社,栃木県,日光市,小代２９５番地１２,,09,206,3211107,,,2023-01-19,登記官による閉鎖,,,2015-10-05,1,,,,,,0
2534,9060002015610,登記記録の閉鎖等,0,2023-01-24,2023-01-19,有限会社川俣商店,,有限会社,栃木県,日光市,中宮祠２４８０番地,,09,206,3211661,,,2023-01-19,登記官による閉鎖,,,2015-10-05,1,,,,,,0
2535,9060002016311,登記記録の閉鎖等,0,2023-01-24,2023-01-19,有限会社皆川建設,,有限会社,栃木県,日光市,足尾町松原１１番８号,,09,206,3211523,,,2023-01-19,登記官による閉鎖,,,2015-10-05,1,,,,,,0
2536,9060002020008,登記記録の閉鎖等,0,2023-01-24,2023-01-19,有限会社久我運送,,有限会社,栃木県,鹿沼市,下久我９５２番地３,,09,205,3220253,,,2023-01-19,登記官による閉鎖,,,2015-10-05,1,,,,,,0
2537,9060002020602,登記記録の閉鎖等,0,2023-01-24,2023-01-19,有限会社中尾建装,,有限会社,栃木県,鹿沼市,栄町１丁目２３番地３８,,09,205,3220028,,,2023-01-19,登記官による閉鎖,,,2015-10-05,1,,,,,,0
2538,9060002023506,登記記録の閉鎖等,0,2023-01-24,2023-01-19,有限会社深谷総合保険,,有限会社,栃木県,那須塩原市,阿波町１１７番地９５,,09,213,3250073,,,2023-01-19,登記官による閉鎖,,,2015-10-05,1,,,,,,0
2539,9060002023844,登記記録の閉鎖等,0,2023-01-24,2023-01-19,有限会社アイカ住宅,,有限会社,栃木県,那須塩原市,西三島１丁目１５５番地２２,,09,213,3292756,,,2023-01-19,登記官による閉鎖,,,2015-10-05,1,,,,,,0
2540,9060002023885,登記記録の閉鎖等,0,2023-01-24,2023-01-19,有限会社市村商事,,有限会社,栃木県,那須塩原市,三区町６１７番地,,09,213,3292745,,,2023-01-19,登記官による閉鎖,,,2015-10-05,1,,,,,,0
2541,9060002029940,登記記録の閉鎖等,0,2023-01-24,2023-01-19,有限会社魚幸,,有限会社,栃木県,小山市,大字下生井１５６３番地,,09,208,3290223,,,2023-01-19,登記官による閉鎖,,,2015-10-05,1,,,,,,0
2542,9060002035625,登記記録の閉鎖等,0,2023-01-24,2023-01-19,有限会社大川工業,,有限会社,栃木県,足利市,大沼田町８００番地,,09,202,3260011,,,2023-01-19,登記官による閉鎖,,,2015-10-05,1,,,,,,0
2543,9060002036045,登記記録の閉鎖等,0,2023-01-24,2023-01-19,有限会社毛野接骨院,,有限会社,栃木県,足利市,八椚町４２５番地の３,,09,202,3260015,,,2023-01-19,登記官による閉鎖,,,2015-10-05,1,,,,,,0
2544,9060002039089,登記記録の閉鎖等,0,2023-01-24,2023-01-19,有限会社ＡＭＣ佐野,,有限会社,栃木県,佐野市,高橋町７０３番地,,09,204,3270045,,,2023-01-19,登記官による閉鎖,,,2015-10-05,1,,,,,,0
2545,9060005000477,登記記録の閉鎖等,0,2023-01-24,2023-01-19,栃木縣蒟蒻協同組合,,その他の設立登記法人,栃木県,宇都宮市,中央１丁目８番２号,,09,201,3200806,,,2023-01-19,登記官による閉鎖,,,2015-10-05,1,,,,,,0
2546,9060005003744,登記記録の閉鎖等,0,2023-01-24,2023-01-19,栃木県療術業協同組合,,その他の設立登記法人,栃木県,那須塩原市,鍋掛１０８４番地３８４,,09,213,3250013,,,2023-01-19,登記官による閉鎖,,,2015-10-05,1,,,,,,0
2547,9060005006169,登記記録の閉鎖等,0,2023-01-24,2023-01-19,特定非営利活動法人結,,その他の設立登記法人,栃木県,栃木市,旭町１０番３号,,09,203,3280035,,,2023-01-19,登記官による閉鎖,,,2015-10-05,1,,,,,,0
2559,9120001029035,登記記録の閉鎖等,0,2023-01-24,2023-01-20,三和フランヂ株式会社,,株式会社,大阪府,大阪市住之江区,南港東３丁目２番８９号,,27,125,5590031,,,2023-01-20,清算の結了等,,,2015-10-05,1,,,,,サンワフランヂ,0
2592,9122001020155,登記記録の閉鎖等,0,2023-01-24,2023-01-20,丸五高周波工業株式会社,,株式会社,大阪府,八尾市,山賀町５丁目２番１号,,27,212,5810812,,,2023-01-20,清算の結了等,,,2015-10-05,1,,,,,マルゴコウシュウハコウギョウ,0
2593,9122001025063,登記記録の閉鎖等,0,2023-01-24,2023-01-23,株式会社スギテック,,株式会社,大阪府,柏原市,平野２丁目１４３番地,,27,221,5820019,,,2023-01-23,清算の結了等,,,2015-10-05,1,,,,,スギテック,0
2617,9140002068856,登記記録の閉鎖等,0,2023-01-24,2023-01-17,有限会社庄田装飾,,有限会社,兵庫県,洲本市,本町６丁目３番２号,,28,205,6560025,,,2023-01-17,清算の結了等,,,2015-10-05,1,,,,,ショウダソウショク,0
2618,9160001007920,登記記録の閉鎖等,0,2023-01-24,2023-01-23,泰平エナジー株式会社,,株式会社,滋賀県,長浜市,相撲町８７７番地２６,,25,203,5260017,,,2023-01-23,登記官による閉鎖,,,2015-10-05,1,,,,,,0
2621,9160003000840,登記記録の閉鎖等,0,2023-01-24,2023-01-23,ちくぶ出版合同会社,,合同会社,滋賀県,野洲市,西河原２５８８番地１,,25,210,5202423,,,2023-01-23,登記官による閉鎖,,,2015-10-05,1,,,,,,0
2622,9160005000228,登記記録の閉鎖等,0,2023-01-24,2023-01-23,マルキョー商業協同組合,,その他の設立登記法人,滋賀県,大津市,瀬田２丁目３番８号,,25,201,5202134,,,2023-01-23,登記官による閉鎖,,,2015-10-05,1,,,,,,0
2623,9160005002521,登記記録の閉鎖等,0,2023-01-24,2023-01-23,甲賀町商工業協同組合,,その他の設立登記法人,滋賀県,甲賀市,甲賀町大原市場２３８番地,,25,209,5203433,,,2023-01-23,登記官による閉鎖,,,2015-10-05,1,,,,,,0
2624,9160005005714,登記記録の閉鎖等,0,2023-01-24,2023-01-23,特定非営利活動法人楡町環境まちづくりの会,,その他の設立登記法人,滋賀県,彦根市,楡町４８８番地,,25,202,5291151,,,2023-01-23,登記官による閉鎖,,,2015-10-05,1,,,,,,0
2626,9160005006852,登記記録の閉鎖等,0,2023-01-24,2023-01-23,湖東住建協同組合,,その他の設立登記法人,滋賀県,近江八幡市,西庄町字黒橋９６９番地の１８,,25,204,5230816,,,2023-01-23,登記官による閉鎖,,,2015-10-05,1,,,,,,0
2629,9180001021151,登記記録の閉鎖等,0,2023-01-24,2023-01-19,株式会社八木製作所,,株式会社,愛知県,名古屋市中川区,清船町２丁目１番地,,23,110,4540832,,,2023-01-19,清算の結了等,,,2015-10-05,1,,,,,ヤギセイサクショ,0
2631,9180001083233,登記記録の閉鎖等,0,2023-01-24,2023-01-17,株式会社メイギ・サービス,,株式会社,愛知県,一宮市,宮地１丁目６番地９,,23,203,4910915,,,2023-01-17,清算の結了等,,,2015-10-05,1,,,,,メイギサービス,0
2634,9180001126339,登記記録の閉鎖等,0,2023-01-24,2023-01-20,富田建設株式会社,,株式会社,愛知県,あま市,新居屋久渕郷７３番地,,23,237,4901105,,,2023-01-20,清算の結了等,,,2017-01-25,1,,,,,トミタケンセツ,0
2645,9190001014204,登記記録の閉鎖等,0,2023-01-24,2023-01-20,朝日車輌株式会社,,株式会社,三重県,四日市市,御薗町２丁目５番地,,24,202,5100862,,,2023-01-20,清算の結了等,,,2015-10-05,1,,,,,アサヒシャリョウ,0
2657,9240002040508,登記記録の閉鎖等,0,2023-01-24,2023-01-20,有限会社興和精密,,有限会社,広島県,福山市,草戸町２丁目１７番２２号,,34,207,7200831,,,2023-01-20,清算の結了等,,,2015-10-05,1,,,,,コウワセイミツ,0
2667,9280002003205,登記記録の閉鎖等,0,2023-01-24,2023-01-23,有限会社モール工業,,有限会社,島根県,松江市,宍道町伊志見４９３番地１,,32,201,6990407,,,2023-01-23,清算の結了等,,,2015-10-05,1,,,,,モールコウギョウ,0
2677,9290002047143,登記記録の閉鎖等,0,2023-01-24,2023-01-18,グローバルエンタープライズ有限会社,,有限会社,福岡県,筑後市,大字羽犬塚５５４番地の２,,40,211,8330003,,,2023-01-18,清算の結了等,,,2015-10-05,1,,,,,グローバルエンタープライズ,0
2686,9330001000296,登記記録の閉鎖等,0,2023-01-24,2023-01-20,株式会社イシヌキデザインワークスタジオ,,株式会社,熊本県,熊本市北区,清水本町１８番１７号,,43,105,8618074,,,2023-01-20,登記官による閉鎖,,,2015-10-05,1,,,,,,0
2687,9330001004322,登記記録の閉鎖等,0,2023-01-24,2023-01-20,益城総合開発株式会社,,株式会社,熊本県,熊本市西区,春日２丁目１番９号,,43,103,8600047,,,2023-01-20,登記官による閉鎖,,,2015-10-05,1,,,,,,0
2688,9330001011599,登記記録の閉鎖等,0,2023-01-24,2023-01-20,株式会社マイハウス,,株式会社,熊本県,荒尾市,川登字大谷２０５０番地２３,,43,204,8640131,,,2023-01-20,登記官による閉鎖,,,2015-10-05,1,,,,,,0
2691,9330002003728,登記記録の閉鎖等,0,2023-01-24,2023-01-20,有限会社ケンズ・コーポレーション,,有限会社,熊本県,熊本市中央区,九品寺４丁目７番８号－１０１,,43,101,8620976,,,2023-01-20,登記官による閉鎖,,,2015-10-05,1,,,,,,0
2692,9330002004081,登記記録の閉鎖等,0,2023-01-24,2023-01-20,有限会社小鶴電気,,有限会社,熊本県,熊本市東区,画図町大字重富７０６番地８９,,43,102,8620947,,,2023-01-20,登記官による閉鎖,,,2015-10-05,1,,,,,,0
2694,9330002008941,登記記録の閉鎖等,0,2023-01-24,2023-01-20,有限会社ファミリー牧場,,有限会社,熊本県,熊本市中央区,出水４丁目３１番５号,,43,101,8620941,,,2023-01-20,登記官による閉鎖,,,2015-10-05,1,,,,,,0
2695,9330002017521,登記記録の閉鎖等,0,2023-01-24,2023-01-20,有限会社大都銘木,,有限会社,熊本県,菊池郡大津町,大字瀬田５８７番地８,,43,403,8691214,,,2023-01-20,登記官による閉鎖,,,2015-10-05,1,,,,,,0
2696,9330002019179,登記記録の閉鎖等,0,2023-01-24,2023-01-20,有限会社高田商店,00097788,有限会社,熊本県,熊本市北区,植木町米塚１２２番地の１,,43,105,8610115,,,2023-01-20,登記官による閉鎖,,,2015-10-05,1,,,,,,0
2697,9330002025251,登記記録の閉鎖等,0,2023-01-24,2023-01-20,有限会社丸山建築,,有限会社,熊本県,下益城郡美里町,豊富３２０７番地,,43,348,8614705,,,2023-01-20,登記官による閉鎖,,,2015-10-05,1,,,,,,0
2698,9330002029839,登記記録の閉鎖等,0,2023-01-24,2023-01-20,新産地所有限会社,,有限会社,熊本県,天草市,栄町１番１７号,,43,215,8630022,,,2023-01-20,登記官による閉鎖,,,2015-10-05,1,,,,,,0
2700,9330005000879,登記記録の閉鎖等,0,2023-01-24,2023-01-20,熊本県加工木材協同組合,,その他の設立登記法人,熊本県,熊本市東区,平山町２９８６－１１,,43,102,8618012,,,2023-01-20,登記官による閉鎖,,,2015-10-05,1,,,,,,0
2708,9370001015407,登記記録の閉鎖等,0,2023-01-24,2023-01-23,株式会社エイドフィット,,株式会社,宮城県,仙台市宮城野区,自由ケ丘２番１９号,,04,102,9830831,,,2023-01-23,登記官による閉鎖,,,2015-10-05,1,,,,,,0
2709,9370001018145,登記記録の閉鎖等,0,2023-01-24,2023-01-23,Ｃｏｗａｙ東北販売株式会社,,株式会社,宮城県,仙台市青葉区,旭ケ丘４丁目１４－１－１０６号,,04,101,9810904,,,2023-01-23,登記官による閉鎖,,,2015-10-05,1,,,,,,0
2710,9370001019250,登記記録の閉鎖等,0,2023-01-24,2023-01-23,エムズフーズ株式会社,,株式会社,宮城県,仙台市宮城野区,栄４丁目１５番５号,,04,102,9830011,,,2023-01-23,登記官による閉鎖,,,2015-10-05,1,,,,,,0
2711,9370001019548,登記記録の閉鎖等,0,2023-01-24,2023-01-23,株式会社けやき商事,,株式会社,宮城県,仙台市泉区,山の寺１丁目３９番４０,,04,105,9813103,,,2023-01-23,登記官による閉鎖,,,2015-10-05,1,,,,,,0
2713,9370002011545,登記記録の閉鎖等,0,2023-01-24,2023-01-23,有限会社ジャスト,,有限会社,宮城県,仙台市若林区,五橋３丁目５番６５号,,04,103,9840022,,,2023-01-23,登記官による閉鎖,,,2015-10-05,1,,,,,,0
2716,9370002018169,登記記録の閉鎖等,0,2023-01-24,2023-01-23,有限会社ポプラ在宅サービス,,有限会社,宮城県,仙台市宮城野区,白鳥１丁目１０番１７号,,04,102,9830006,,,2023-01-23,登記官による閉鎖,,,2015-10-05,1,,,,,,0
2717,9370005002657,登記記録の閉鎖等,0,2023-01-24,2023-01-20,特定非営利活動法人未来環境福祉ネットワーク,,その他の設立登記法人,宮城県,仙台市青葉区,郷六字葛岡下４９番地の１広瀬の杜９番館２１４,00082419,04,101,9893121,,,2023-01-20,清算の結了等,,,2015-10-05,1,,,,,ミライカンキョウフクシネットワーク,0
2721,9370301002328,登記記録の閉鎖等,0,2023-01-24,2023-01-23,株式会社マルサービス,,株式会社,宮城県,石巻市,湊字筒場１３４番地３,,04,202,9860011,,,2023-01-23,登記官による閉鎖,,,2015-10-05,1,,,,,,0
2722,9370301002617,登記記録の閉鎖等,0,2023-01-24,2023-01-23,株式会社国際会館龍,,株式会社,宮城県,石巻市,門脇字浦屋敷８３番地２４,,04,202,9860853,,,2023-01-23,登記官による閉鎖,,,2015-10-05,1,,,,,,0
2723,9370305000393,登記記録の閉鎖等,0,2023-01-24,2023-01-23,学校法人和幸学園,,その他の設立登記法人,宮城県,東松島市,矢本字河戸３３番地の８２,,04,214,9810503,,,2023-01-23,登記官による閉鎖,,,2015-10-05,1,,,,,,0
2724,9370802001563,登記記録の閉鎖等,0,2023-01-24,2023-01-23,門間漁業有限会社,,有限会社,宮城県,亘理郡山元町,坂元字磯北谷地２９番地,,04,362,9892111,,,2023-01-23,登記官による閉鎖,,,2015-10-05,1,,,,,,0
2738,9450001002082,登記記録の閉鎖等,0,2023-01-24,2023-01-24,株式会社ダイワ食品,,株式会社,北海道,旭川市,東光十一条３丁目３９８番地の２,,01,204,0788351,,,2023-01-24,登記官による閉鎖,,,2015-10-05,1,,,,,,0
2739,9450002000399,登記記録の閉鎖等,0,2023-01-24,2023-01-24,有限会社旭川パーツ工業,,有限会社,北海道,旭川市,神居町台場４３番２,,01,204,0708022,,,2023-01-24,登記官による閉鎖,,,2015-10-05,1,,,,,,0
2740,9450002003204,登記記録の閉鎖等,0,2023-01-24,2023-01-24,有限会社大雪サンクリーンセンター,,有限会社,北海道,旭川市,永山八条５丁目８５番地の２４,,01,204,0798418,,,2023-01-24,登記官による閉鎖,,,2015-10-05,1,,,,,,0
2741,9450002004169,登記記録の閉鎖等,0,2023-01-24,2023-01-24,有限会社日和,,有限会社,北海道,旭川市,東八条４丁目３番４号,,01,204,0700028,,,2023-01-24,登記官による閉鎖,,,2015-10-05,1,,,,,,0
2742,9450002009036,登記記録の閉鎖等,0,2023-01-24,2023-01-24,有限会社さの,,有限会社,北海道,上川郡美瑛町,南町２丁目１番２号,,01,459,0710202,,,2023-01-24,登記官による閉鎖,,,2015-10-05,1,,,,,,0
2743,9450002010852,登記記録の閉鎖等,0,2023-01-24,2023-01-24,有限会社大類土木,,有限会社,北海道,稚内市,緑４丁目６番２号,,01,214,0970004,,,2023-01-24,登記官による閉鎖,,,2015-10-05,1,,,,,,0
2744,9450002012551,登記記録の閉鎖等,0,2023-01-24,2023-01-24,有限会社大谷内食品ストアー,,有限会社,北海道,紋別市,落石町２丁目２番地の１５５,,01,219,0940007,,,2023-01-24,登記官による閉鎖,,,2015-10-05,1,,,,,,0
2745,9450005004133,登記記録の閉鎖等,0,2023-01-24,2023-01-24,協同組合士別デパート,,その他の設立登記法人,北海道,士別市,大通東５丁目,,01,220,0950019,,,2023-01-24,登記官による閉鎖,,,2017-11-01,1,,,,,,0
2746,9460301005016,登記記録の閉鎖等,0,2023-01-24,2023-01-20,株式会社Ｍ企画,,株式会社,北海道,北見市,本町３丁目５番１７号ローズライン１０２号,,01,208,0900818,,,2023-01-20,清算の結了等,,,2021-11-02,1,,,,,エムキカク,0
