sequenceNumber,corporateNumber,process,correct,updateDate,changeDate,name,nameImageId,kind,prefectureName,cityName,streetNumber,addressImageId,prefectureCode,cityCode,postCode,addressOutside,addressOutsideImageId,closeDate,closeCause,successorCorporateNumber,changeCause,assignmentDate,latest,enName,enPrefectureName,enCityName,enAddressOutside,furigana,hihyoji
31,1010601022399,登記記録の閉鎖等,0,2025-05-26,2025-04-21,Ｌマネジメント株式会社,,株式会社,東京都,渋谷区,神宮前１丁目５番８号,,13,113,1500001,,,2025-04-21,清算の結了等,,,2015-10-05,1,,,,,エルマネジメント,0
36,1010801005856,登記記録の閉鎖等,0,2025-05-26,2025-05-15,杉原印刷株式会社,,株式会社,東京都,大田区,大森西１丁目１５番１７号,,13,111,1430015,,,2025-05-15,清算の結了等,,,2015-10-05,1,,,,,スギハラインサツ,0
45,1011001128308,登記記録の閉鎖等,0,2025-05-26,2025-04-21,株式会社ＴＵＣＵＲＵ,,株式会社,東京都,目黒区,目黒２丁目１１番３号,,13,110,1530063,,,2025-04-21,清算の結了等,,,2019-06-06,1,,,,,ツクル,0
69,1011802008113,登記記録の閉鎖等,0,2025-05-26,2025-05-21,有限会社ヤマト巧芸社,,有限会社,東京都,葛飾区,細田３丁目３２番１０号,,13,122,1240021,,,2025-05-21,清算の結了等,,,2015-10-05,1,,,,,ヤマトコウゲイシャ,0
75,1020001078330,登記記録の閉鎖等,0,2025-05-26,2025-05-19,株式会社サチ建商,,株式会社,神奈川県,川崎市中原区,上平間１３４０番地,,14,133,2110013,,,2025-05-19,清算の結了等,,,2015-10-05,1,,,,,サチケンショウ,0
89,1021002048165,登記記録の閉鎖等,0,2025-05-26,2025-05-07,有限会社三ツ吉商事,,有限会社,神奈川県,海老名市,社家１８５番地,,14,215,2430424,,,2025-05-07,清算の結了等,,,2025-03-18,1,,,,,,0
91,1030001094401,登記記録の閉鎖等,0,2025-05-26,2025-05-21,ヒューマンニューマン株式会社,,株式会社,埼玉県,所沢市,東町１１番１－１５０６号グラシスタワー所沢,,11,208,3591116,,,2025-05-21,清算の結了等,,,2015-10-05,1,,,,,ヒューマンニューマン,0
94,1040001039041,登記記録の閉鎖等,0,2025-05-26,2025-05-09,株式会社ネットワーク・ファクトリー,,株式会社,千葉県,松戸市,日暮７丁目１番ファミール南常盤平８０４号,,12,207,2702253,,,2025-05-09,清算の結了等,,,2015-10-05,1,,,,,ネットワークファクトリー,0
95,1040001079013,登記記録の閉鎖等,0,2025-05-26,2025-05-09,クロスイデア株式会社,,株式会社,千葉県,市川市,中国分３丁目１５番２８号,,12,203,2720835,,,2025-05-09,清算の結了等,,,2015-10-05,1,,,,,クロスイデア,0
100,1040003004621,登記記録の閉鎖等,0,2025-05-26,2025-05-08,合同会社コーヨー,,合同会社,千葉県,松戸市,新松戸北２丁目５番地４コーヨービル１０１,,12,207,2700032,,,2025-05-08,清算の結了等,,,2015-10-05,1,,,,,コーヨー,0
110,1080402002973,登記記録の閉鎖等,0,2025-05-26,2025-05-21,有限会社後藤溶接所,,有限会社,静岡県,浜松市中央区,篠原町２１３８３番地,,22,138,4310201,,,2025-05-21,清算の結了等,,,2015-10-05,1,,,,,ゴトウヨウセツショ,0
113,1100001033343,登記記録の閉鎖等,0,2025-05-26,2025-05-21,テルコラボ株式会社,,株式会社,長野県,北佐久郡軽井沢町,大字長倉７２７―４ＨＵＢ緑友荘２Ｆ,,20,321,3890111,,,2025-05-21,清算の結了等,,,2020-07-22,1,,,,,テルコラボ,0
131,1120002037432,登記記録の閉鎖等,0,2025-05-26,2025-05-21,有限会社トレイドアライアンス,,有限会社,大阪府,大阪市中央区,南本町１丁目３番９号,,27,128,5410054,,,2025-05-21,清算の結了等,,,2015-10-05,1,,,,,トレイドアライアンス,0
144,1122001013315,登記記録の閉鎖等,0,2025-05-26,2025-05-21,株式会社けぃわーくす,,株式会社,大阪府,東大阪市,長田西２丁目６番１５号,,27,227,5770016,,,2025-05-21,清算の結了等,,,2015-10-05,1,,,,,ケイワークス,0
160,1170002000170,登記記録の閉鎖等,0,2025-05-26,2025-05-23,有限会社安愚楽,,有限会社,和歌山県,和歌山市,雑賀屋町２番地,,30,201,6408249,,,2025-05-23,清算の結了等,,,2015-10-05,1,,,,,アグラ,0
168,1180001102982,登記記録の閉鎖等,0,2025-05-26,2025-05-22,アプライド・テクノロジーズ株式会社,,株式会社,愛知県,名古屋市南区,呼続４丁目５番１０号,,23,112,4570014,,,2025-05-22,清算の結了等,,,2015-10-05,1,,,,,アプライドテクノロジーズ,0
180,1180002035406,登記記録の閉鎖等,0,2025-05-26,2025-05-21,有限会社ワンストーン,,有限会社,愛知県,名古屋市中川区,八幡本通２丁目３８番地,,23,110,4540031,,,2025-05-21,清算の結了等,,,2015-10-05,1,,,,,ワンストーン,0
200,1290001008772,登記記録の閉鎖等,0,2025-05-26,2025-05-15,中外建物管理株式会社,,株式会社,福岡県,福岡市中央区,大名１丁目９番２７号,,40,133,8100041,,,2025-05-15,清算の結了等,,,2015-10-05,1,,,,,チュウガイタテモノカンリ,0
202,1290001052416,登記記録の閉鎖等,0,2025-05-26,2025-05-16,株式会社カネヨシ,,株式会社,福岡県,福岡市南区,高木２丁目２番２２号,,40,134,8150004,,,2025-05-16,合併による解散等,2290001029586,令和７年５月１６日福岡市南区高木二丁目２番２２号株式会社三笠商事（2290001029586）に合併し解散,2015-10-05,1,,,,,カネヨシ,0
210,1290801000714,登記記録の閉鎖等,0,2025-05-26,2025-05-16,九州工業株式会社,,株式会社,大阪府,大阪市中央区,久太郎町２丁目５番２８号,,27,128,5410056,,,2025-05-16,清算の結了等,,,2015-10-05,1,,,,,キュウシュウコウギョウ,0
214,1330001026043,登記記録の閉鎖等,0,2025-05-26,2025-05-21,株式会社ｒｅｖｅ,,株式会社,熊本県,熊本市中央区,本荘５丁目９番２５号２Ｆ,,43,101,8600811,,,2025-05-21,清算の結了等,,,2019-01-22,1,,,,,リーブ,0
231,1370601000146,登記記録の閉鎖等,0,2025-05-26,2025-04-01,塩釜ガスアメニティコンシェルジュ株式会社,,株式会社,宮城県,塩竈市,港町１丁目５番１７号,,04,203,9850016,,,2025-04-01,合併による解散等,7370601000173,令和７年４月１日宮城県塩竈市港町一丁目５番１７号株式会社ガスウォーターコンシェルジュ（7370601000173）に合併し解散,2015-10-05,1,,,,,シオガマガスアメニティコンシェルジュ,0
260,2010401097830,登記記録の閉鎖等,0,2025-05-26,2025-05-13,株式会社ディスポート,,株式会社,東京都,台東区,東上野１丁目９番８号,,13,106,1100015,,,2025-05-13,清算の結了等,,,2015-10-05,1,,,,,ディスポート,0
282,2010701020500,登記記録の閉鎖等,0,2025-05-26,2025-04-10,株式会社エンディングサポート,,株式会社,東京都,品川区,東中延１丁目１２番１９号,,13,109,1420052,,,2025-04-10,合併による解散等,9010701005569,令和７年４月１日東京都品川区東中延一丁目１１番１１号大成祭典株式会社（9010701005569）に合併し解散,2015-10-05,1,,,,,エンディングサポート,0
283,2010701023305,登記記録の閉鎖等,0,2025-05-26,2025-04-23,株式会社ピー・アール・オー,,株式会社,東京都,港区,海岸１丁目２番３号,,13,103,1050022,,,2025-04-23,清算の結了等,,,2015-10-05,1,,,,,ピーアールオー,0
303,2011005010287,登記記録の閉鎖等,0,2025-05-26,2025-04-21,ＬＤＨ一般社団法人,,その他の設立登記法人,東京都,渋谷区,神宮前１丁目５番８号,,13,113,1500001,,,2025-04-21,清算の結了等,,,2023-11-24,1,,,,,エルディーエイチ,0
304,2011101089077,登記記録の閉鎖等,0,2025-05-26,2025-04-28,株式会社Ｓａｋｕｒａ　ｒａｎ,,株式会社,東京都,新宿区,新宿５丁目１８番２０号ルックハイツ新宿８０３号,,13,104,1600022,,,2025-04-28,清算の結了等,,,2019-09-30,1,,,,,サクララン,0
305,2011101097303,登記記録の閉鎖等,0,2025-05-26,2025-04-23,株式会社ＶＩＶＡＷＡＶＥ　ＪＡＰＡＮ,,株式会社,東京都,港区,北青山３丁目６番７号,,13,103,1070061,,,2025-04-23,清算の結了等,,,2021-12-24,1,,,,,ビバウェブジャパン,0
322,2012402007108,登記記録の閉鎖等,0,2025-05-26,2025-05-19,有限会社ティー・カンパニー,,有限会社,東京都,国分寺市,南町２丁目１６番１４号,,13,214,1850021,,,2025-05-19,清算の結了等,,,2015-10-05,1,,,,,ティーカンパニー,0
328,2013303002800,登記記録の閉鎖等,0,2025-05-26,2025-04-23,ユニバージー５５合同会社,,合同会社,東京都,港区,赤坂２丁目２２番２４号,,13,103,1070052,,,2025-04-23,清算の結了等,,,2015-10-05,1,,,,,ユニバージーゴーゴー,0
341,2021005007968,登記記録の閉鎖等,0,2025-05-26,2025-05-21,宗教法人天照皇大神宮教逗子支部,00014326,その他の設立登記法人,神奈川県,逗子市,小坪３丁目４番１１号,,14,208,2490008,,,2025-05-21,清算の結了等,,,2015-10-05,1,,,,,テンショウコウタイジングウキョウズシシブ,0
345,2030001124339,登記記録の閉鎖等,0,2025-05-26,2025-05-22,株式会社Ｔｒｉｎｉｔｙ・Ｌ,,株式会社,埼玉県,さいたま市浦和区,高砂４丁目３－１－３０４,,11,107,3300063,,,2025-05-22,清算の結了等,,,2018-02-20,1,,,,,トリニティエル,0
362,2080005004284,登記記録の閉鎖等,0,2025-05-26,2025-05-13,医療法人社団潘医院,,その他の設立登記法人,静岡県,静岡市清水区,由比阿僧９６２番地,,22,103,4213107,,,2025-05-13,清算の結了等,,,2015-10-05,1,,,,,バンイイン,0
379,2110002013276,登記記録の閉鎖等,0,2025-05-26,2025-05-12,有限会社遠藤工務店,,有限会社,新潟県,阿賀野市,福永１８３４番地１,,15,223,9592204,,,2025-05-12,清算の結了等,,,2015-10-05,1,,,,,エンドウコウムテン,0
388,2120001169151,登記記録の閉鎖等,0,2025-05-26,2025-05-15,株式会社アシストアセットマネジメント,,株式会社,大阪府,大阪市中央区,南新町２丁目２番１０号大平第二ビル３階,,27,128,5400024,,,2025-05-15,合併による解散等,4120002033453,令和７年１月１日大阪市中央区南新町二丁目２番１０号大平第二ビル３階株式会社アシスト合同事務所（4120002033453）に合併し解散,2015-10-05,1,,,,,アシストアセットマネジメント,0
414,2130001036854,登記記録の閉鎖等,0,2025-05-26,2025-05-22,西田瓦産業株式会社,,株式会社,京都府,相楽郡和束町,大字白栖小字南半田４４番地,,26,365,6191222,,,2025-05-22,清算の結了等,,,2015-10-05,1,,,,,ニシダカワラサンギョウ,0
420,2140001087236,登記記録の閉鎖等,0,2025-05-26,2025-05-22,神戸管理株式会社,,株式会社,兵庫県,神戸市長田区,長楽町２丁目３番５号カーム鷹取３０２号室,,28,106,6530054,,,2025-05-22,清算の結了等,,,2015-10-05,1,,,,,コウベカンリ,0
423,2140003008099,登記記録の閉鎖等,0,2025-05-26,2025-05-22,合同会社アースフィールド,,合同会社,兵庫県,神戸市東灘区,向洋町中１丁目４番地１２４号棟１０１２号室,,28,101,6580032,,,2025-05-22,清算の結了等,,,2015-10-05,1,,,,,アースフィールド,0
454,2230001005576,登記記録の閉鎖等,0,2025-05-26,2025-04-30,株式会社Ｌｅｇａｔｏ,,株式会社,富山県,富山市,黒瀬２４０番地３９,,16,201,9398213,,,2025-04-30,合併による解散等,4230001004675,令和７年４月３０日富山市黒瀬２４０番地３７株式会社翔建工業（4230001004675）に合併し解散,2015-10-05,1,,,,,レガート,0
465,2290001045880,登記記録の閉鎖等,0,2025-05-26,2025-05-16,濱田設計株式会社,,株式会社,福岡県,飯塚市,小正４４４番地９,,40,205,8200089,,,2025-05-16,清算の結了等,,,2015-10-05,1,,,,,ハマダセッケイ,0
484,2330003004839,登記記録の閉鎖等,0,2025-05-26,2025-05-21,株式会社ＧＡＩＮＥＲ,,株式会社,熊本県,熊本市中央区,本荘５丁目９番２５号２Ｆ,,43,101,8600811,,,2025-05-21,清算の結了等,,,2015-10-05,1,,,,,ゲイナー,0
496,2360003013837,登記記録の閉鎖等,0,2025-05-26,2025-05-20,きゃろっぷ合同会社,,合同会社,沖縄県,島尻郡南風原町,字兼城６６５番地６かねしろ荘２０１,,47,350,9011111,,,2025-05-20,清算の結了等,,,2024-03-27,1,,,,,キャロップ,0
504,2430001003320,登記記録の閉鎖等,0,2025-05-26,2025-05-19,小樽冷蔵株式会社,,株式会社,北海道,札幌市白石区,菊水八条４丁目２番２７号,,01,104,0030808,,,2025-05-19,清算の結了等,,,2015-10-05,1,,,,,オタルレイゾウ,0
508,2470001004967,登記記録の閉鎖等,0,2025-05-26,2025-05-23,株式会社アトムアソート,,株式会社,香川県,高松市,伏石町２１１９番地５,,37,201,7618071,,,2025-05-23,清算の結了等,,,2015-10-05,1,,,,,アトムアソート,0
522,3010001203077,登記記録の閉鎖等,0,2025-05-26,2025-04-14,マモル株式会社,,株式会社,東京都,中央区,銀座６丁目６番１号,,13,102,1040061,,,2025-04-14,清算の結了等,,,2019-08-08,1,,,,,マモル,0
533,3010003035130,登記記録の閉鎖等,0,2025-05-26,2025-05-21,ＤＢＦ２合同会社,,合同会社,東京都,千代田区,飯田橋４丁目７番１号結和税理士法人内,,13,101,1020072,,,2025-05-21,清算の結了等,,,2021-06-23,1,,,,,ディビーエフツー,0
534,3010401026672,登記記録の閉鎖等,0,2025-05-26,2025-04-24,プリネット株式会社,,株式会社,東京都,港区,芝浦２丁目８番７号,,13,103,1080023,,,2025-04-24,清算の結了等,,,2015-10-05,1,,,,,プリネット,0
535,3010401099223,登記記録の閉鎖等,0,2025-05-26,2025-04-23,サムライ・インターナショナル株式会社,,株式会社,東京都,渋谷区,道玄坂２丁目２０番２６号藤和エクシール道玄坂３１１,,13,113,1500043,,,2025-04-23,清算の結了等,,,2015-10-05,1,,,,,サムライインターナショナル,0
540,3010401134021,登記記録の閉鎖等,0,2025-05-26,2025-04-22,パルタージュ株式会社,,株式会社,東京都,渋谷区,渋谷２丁目１０番６号,,13,113,1500002,,,2025-04-22,清算の結了等,,,2017-10-02,1,,,,,パルタージュ,0
553,3010501019056,登記記録の閉鎖等,0,2025-05-26,2025-05-01,株式会社ヴェラジャパン,,株式会社,東京都,台東区,寿３丁目３番２号,,13,106,1110042,,,2025-05-01,合併による解散等,1010501011881,令和７年５月１日東京都台東区寿三丁目３番２号株式会社ファンシー（1010501011881）に合併し解散,2015-10-05,1,,,,,ヴェラジャパン,0
571,3011002003482,登記記録の閉鎖等,0,2025-05-26,2025-04-23,有限会社かわど,,有限会社,東京都,渋谷区,恵比寿１丁目８番１４号,,13,113,1500013,,,2025-04-23,清算の結了等,,,2015-10-05,1,,,,,カワド,0
579,3011105006498,登記記録の閉鎖等,0,2025-05-26,2025-05-02,一般社団法人ハイウッド,,その他の設立登記法人,東京都,新宿区,西新宿３丁目５番地１２号トーカン新宿第２キャステール４０６,,13,104,1600023,,,2025-05-02,清算の結了等,,,2015-10-05,1,,,,,ハイウッド,0
582,3011301001385,登記記録の閉鎖等,0,2025-05-26,2025-05-16,株式会社オーヴァル,,株式会社,東京都,国分寺市,東戸倉２丁目３１番地５５,,13,214,1850002,,,2025-05-16,清算の結了等,,,2015-10-05,1,,,,,オーヴァル,0
597,3012402015704,登記記録の閉鎖等,0,2025-05-26,2025-05-16,有限会社飛翔,,有限会社,東京都,国立市,東１丁目６番２号,,13,215,1860002,,,2025-05-16,清算の結了等,,,2015-10-05,1,,,,,ヒショウ,0
606,3020001155004,登記記録の閉鎖等,0,2025-05-26,2025-05-21,華斉新智株式会社,,株式会社,神奈川県,川崎市川崎区,本町２丁目１１番地２４グレイス川崎１０２,,14,131,2100001,,,2025-05-21,清算の結了等,,,2023-12-26,1,,,,,カセイシンチ,0
627,3040001062982,登記記録の閉鎖等,0,2025-05-26,2025-05-07,加瀬商事株式会社,,株式会社,千葉県,匝瑳市,八日市場ハ１１００番地,,12,235,2892141,,,2025-05-07,清算の結了等,,,2015-10-05,1,,,,,カセショウジ,0
634,3040002013266,登記記録の閉鎖等,0,2025-05-26,2025-05-09,有限会社ティーエム・ドットコム,,有限会社,千葉県,千葉市花見川区,花見川６番１棟３０２号,,12,102,2620046,,,2025-05-09,清算の結了等,,,2015-10-05,1,,,,,ティーエムドットコム,0
688,3120003017415,登記記録の閉鎖等,0,2025-05-26,2025-05-14,合同会社ＥＡＳＴ,,合同会社,大阪府,大阪市城東区,古市１丁目５番２－７１１号,,27,118,5360001,,,2025-05-14,清算の結了等,,,2020-05-13,1,,,,,イースト,0
717,3140001033115,登記記録の閉鎖等,0,2025-05-26,2025-05-15,株式会社ジュネスクレール,,株式会社,大阪府,箕面市,船場西２丁目２番１号－７Ｆ,,27,220,5620036,,,2025-05-15,清算の結了等,,,2015-10-05,1,,,,,,0
718,3140001083119,登記記録の閉鎖等,0,2025-05-26,2025-05-19,株式会社イーエフォート,,株式会社,大阪府,大阪市西成区,千本南１丁目１８番１１号,,27,122,5570055,,,2025-05-19,清算の結了等,,,2015-10-05,1,,,,,イーエフォート,0
730,3180001093675,登記記録の閉鎖等,0,2025-05-26,2025-04-25,株式会社スマイル,,株式会社,愛知県,知多郡武豊町,字平井２丁目１４６番地,,23,447,4702380,,,2025-04-25,清算の結了等,,,2015-10-05,1,,,,,スマイル,0
736,3180001151318,登記記録の閉鎖等,0,2025-05-26,2025-05-13,株式会社エアコンフレッシュポイント,,株式会社,愛知県,名古屋市中区,松原３丁目７－１５光葉ビル２階２０３号室,,23,106,4600017,,,2025-05-13,清算の結了等,,,2022-05-18,1,,,,,,0
768,3290001087996,登記記録の閉鎖等,0,2025-05-26,2025-05-15,株式会社ＧＬＩＤ,,株式会社,福岡県,飯塚市,柏の森５１４番地４,,40,205,8200011,,,2025-05-15,清算の結了等,,,2020-02-06,1,,,,,グリッド,0
778,3290801006263,登記記録の閉鎖等,0,2025-05-26,2025-05-16,段谷産業株式会社,,株式会社,福岡県,北九州市小倉北区,東港２丁目５番１２号,,40,106,8030802,,,2025-05-16,清算の結了等,,,2018-06-26,1,,,,,ダンタニサンギョウ,0
789,3330003004945,登記記録の閉鎖等,0,2025-05-26,2025-05-21,ラッセン合同会社,,合同会社,熊本県,熊本市西区,蓮台寺４丁目３番３６号,,43,103,8600055,,,2025-05-21,清算の結了等,,,2015-10-05,1,,,,,,0
798,3350005001781,登記記録の閉鎖等,0,2025-05-26,2025-05-19,特定非営利活動法人あすの宮崎,,その他の設立登記法人,宮崎県,宮崎市,神宮１丁目１９２番地じゅうグランドマンション　ヴェルデ神宮参道４０２号,,45,201,8800053,,,2025-05-19,清算の結了等,,,2015-10-05,1,,,,,アスノミヤザキ,0
843,4010002013078,登記記録の閉鎖等,0,2025-05-26,2025-04-30,有限会社中野スタジオ,,有限会社,東京都,千代田区,内神田１丁目１番３－７０４号,,13,101,1010047,,,2025-04-30,清算の結了等,,,2015-10-05,1,,,,,ナカノスタジオ,0
850,4010005036489,登記記録の閉鎖等,0,2025-05-26,2025-05-22,一般社団法人コスモヒーリング協会,,その他の設立登記法人,東京都,千代田区,鍛冶町２丁目８番７号光起ビル２Ｆ,,13,101,1010044,,,2025-05-22,清算の結了等,,,2023-04-12,1,,,,,コスモヒーリングキョウカイ,0
883,4010601041677,登記記録の閉鎖等,0,2025-05-26,2025-05-07,アミノ産業株式会社,,株式会社,千葉県,匝瑳市,八日市場ハ１１００番地,,12,235,2892141,,,2025-05-07,清算の結了等,,,2015-10-05,1,,,,,アミノサンギョウ,0
891,4011001115170,登記記録の閉鎖等,0,2025-05-26,2025-05-16,ベジタリアファーム株式会社,,株式会社,東京都,渋谷区,桜丘町２６番１号セルリアンタワー１５階,,13,113,1500031,,,2025-05-16,合併による解散等,7011001067087,令和７年４月１日東京都渋谷区桜丘町２６番１号セルリアンタワー１５階ベジタリア株式会社（7011001067087）に合併し解散,2017-03-08,1,,,,,ベジタリアファーム,0
892,4011001115253,登記記録の閉鎖等,0,2025-05-26,2025-04-23,株式会社Ｇｕｓｈｃｌｏｕｄ　Ｊａｐａｎ,,株式会社,東京都,港区,浜松町１丁目３番２号パークコート浜離宮ザタワー６０８,,13,103,1050013,,,2025-04-23,清算の結了等,,,2017-03-09,1,,,,,ガッシュクラウドジャパン,0
898,4011101050276,登記記録の閉鎖等,0,2025-05-26,2025-05-22,日本イーエスアイ株式会社,,株式会社,東京都,新宿区,北新宿２丁目２１番１号,,13,104,1690074,,,2025-05-22,合併による解散等,3010403011350,令和７年５月１日東京都八王子市高倉町９番１号キーサイト・テクノロジー株式会社（3010403011350）に合併し解散,2015-10-05,1,,,,,ニホンイーエスアイ,0
902,4011102004181,登記記録の閉鎖等,0,2025-05-26,2025-05-01,有限会社ケイ・エム・エス,,有限会社,東京都,新宿区,高田馬場１丁目２０番１５号,,13,104,1690075,,,2025-05-01,清算の結了等,,,2015-10-05,1,,,,,ケイエムエス,0
917,4011805001541,登記記録の閉鎖等,0,2025-05-26,2025-05-19,朝日パリオ北千住管理組合法人,,その他の設立登記法人,東京都,足立区,千住河原町３７番５号朝日パリオ北千住管理室,,13,121,1200037,,,2025-05-19,清算の結了等,,,2015-10-05,1,,,,,アサヒパリオキタセンジュ,0
922,4020001089093,登記記録の閉鎖等,0,2025-05-26,2025-05-20,株式会社日産電機,,株式会社,神奈川県,川崎市中原区,等々力１３番３号,,14,133,2110052,,,2025-05-20,清算の結了等,,,2015-10-05,1,,,,,ニッサンデンキ,0
970,4110001019685,登記記録の閉鎖等,0,2025-05-26,2025-05-14,安塚精工株式会社,,株式会社,新潟県,上越市,安塚区下方５番地,,15,222,9430000,,,2025-05-14,清算の結了等,,,2015-10-05,1,,,,,ヤスヅカセイコウ,0
1011,4120901002112,登記記録の閉鎖等,0,2025-05-26,2025-05-15,株式会社丸松吉澤,00033285,株式会社,大阪府,茨木市,宮島１丁目１番１号,,27,211,5670853,,,2025-05-15,清算の結了等,,,2015-10-05,1,,,,,,0
1012,4120901010065,登記記録の閉鎖等,0,2025-05-26,2025-05-15,株式会社増三,,株式会社,大阪府,摂津市,香露園４番１６号,,27,224,5660034,,,2025-05-15,清算の結了等,,,2015-10-05,1,,,,,マスミ,0
1048,4260001021635,登記記録の閉鎖等,0,2025-05-26,2025-05-20,株式会社トーヨー,,株式会社,岡山県,備前市,浦伊部１１８４番地の３３,,33,211,7050002,,,2025-05-20,清算の結了等,,,2015-10-05,1,,,,,トーヨー,0
1049,4290001011807,登記記録の閉鎖等,0,2025-05-26,2025-05-16,株式会社エールトラベル,,株式会社,福岡県,福岡市博多区,空港前１丁目６番地,,40,132,8120002,,,2025-05-16,清算の結了等,,,2015-10-05,1,,,,,,0
1059,4290003011301,登記記録の閉鎖等,0,2025-05-26,2025-05-16,ＮＳ合同会社,,合同会社,福岡県,福岡市博多区,博多駅前２丁目１９番１７号トーカン博多第５ビル内,,40,132,8120011,,,2025-05-16,清算の結了等,,,2021-06-11,1,,,,,エヌエス,0
1060,4290005016372,登記記録の閉鎖等,0,2025-05-26,2025-05-20,医療法人渡辺クリニック,,その他の設立登記法人,福岡県,福津市,若木台１丁目１２番２号,,40,224,8113221,,,2025-05-20,清算の結了等,,,2017-04-13,1,,,,,ワタナベクリニック,0
1067,4320002009193,登記記録の閉鎖等,0,2025-05-26,2025-05-12,有限会社富士ビルサービス,,有限会社,大分県,由布市,庄内町大龍２６５４番地,,44,213,8795413,,,2025-05-12,清算の結了等,,,2015-10-05,1,,,,,,0
1070,4330001029142,登記記録の閉鎖等,0,2025-05-26,2025-05-15,ＴＫコンサルタント株式会社,,株式会社,福岡県,福岡市南区,桧原５丁目１６番２４－６０４号,,40,134,8111355,,,2025-05-15,清算の結了等,,,2021-11-05,1,,,,,ティーケイコンサルタント,0
1090,4410001003551,登記記録の閉鎖等,0,2025-05-26,2025-05-21,株式会社Ｗｉｎｄ,,株式会社,秋田県,秋田市,旭北錦町１番１４号,,05,201,0100923,,,2025-05-21,清算の結了等,,,2015-10-05,1,,,,,ウインド,0
1094,4430001078724,登記記録の閉鎖等,0,2025-05-26,2025-05-23,ＡＴ＆Ｋ　ＣＲＥＡＴＩＯＮ株式会社,,株式会社,北海道,札幌市中央区,伏見１丁目４番１２号,,01,101,0640942,,,2025-05-23,清算の結了等,,,2019-04-08,1,,,,,エーティーアンドケークリエーション,0
1097,4430003012607,登記記録の閉鎖等,0,2025-05-26,2025-05-21,合同会社さっぽろ劇場ジャーナル,,合同会社,北海道,札幌市中央区,南二条西１２丁目３２３番地４カルム大通公園３０１号,,01,101,0600062,,,2025-05-21,清算の結了等,,,2021-04-14,1,,,,,サッポロゲキジョウジャーナル,0
1109,4700150020905,登記記録の閉鎖等,0,2025-05-26,2024-12-13,ミヨシ　コーポレーション,,外国会社等,長野県,長野市,広田１０２,,20,201,3812213,アメリカ合衆国カルフォルニア州コスタメサ市ベーカー通り６６６－４０５番地,,2024-12-13,その他の清算の結了等,,,2015-10-09,1,,,,,ミヨシコーポレーシヨン,0
1116,5010001152594,登記記録の閉鎖等,0,2025-05-26,2025-05-08,ファルマシュプール株式会社,,株式会社,東京都,中央区,日本橋１丁目２番１０号,,13,102,1030027,,,2025-05-08,清算の結了等,,,2015-10-05,1,,,,,,0
1125,5010005034491,登記記録の閉鎖等,0,2025-05-26,2025-05-23,オカボシ一般社団法人,,その他の設立登記法人,東京都,千代田区,丸の内１丁目４番１号東京共同会計事務所内,,13,101,1000005,,,2025-05-23,清算の結了等,,,2022-01-24,1,,,,,オカボシ,0
1141,5010601027675,登記記録の閉鎖等,0,2025-05-26,2025-05-07,株式会社ハウスサポート,,株式会社,千葉県,匝瑳市,八日市場ハ１１００番地,,12,235,2892141,,,2025-05-07,清算の結了等,,,2015-10-05,1,,,,,ハウスサポート,0
1142,5010601027857,登記記録の閉鎖等,0,2025-05-26,2025-05-21,原ヘルス工業株式会社,,株式会社,東京都,江東区,佐賀１丁目１番１４号,,13,108,1350031,,,2025-05-21,清算の結了等,,,2015-10-05,1,,,,,ハラヘルスコウギョウ,0
1154,5010901018762,登記記録の閉鎖等,0,2025-05-26,2025-05-22,株式会社ＬＨＳコンサルティング,,株式会社,東京都,世田谷区,代田６丁目６番７号ガーデンテラスイースト２０２,,13,112,1550033,,,2025-05-22,清算の結了等,,,2015-10-05,1,,,,,エルエイチエスコンサルティング,0
1161,5011001164019,登記記録の閉鎖等,0,2025-05-26,2025-04-22,スタートアップアシスト株式会社,,株式会社,東京都,渋谷区,渋谷２丁目１９－１５宮益坂ビルディング６０９,,13,113,1500002,,,2025-04-22,清算の結了等,,,2024-08-13,1,,,,,スタートアップアシスト,0
1182,5011701001900,登記記録の閉鎖等,0,2025-05-26,2025-05-16,株式会社落合メガネ,,株式会社,東京都,江戸川区,本一色２丁目８番８号,,13,123,1330044,,,2025-05-16,清算の結了等,,,2015-10-05,1,,,,,オチアイメガネ,0
1196,5020002092558,登記記録の閉鎖等,0,2025-05-26,2025-05-19,琢盛企画有限会社,00011587,有限会社,神奈川県,川崎市多摩区,南生田４丁目２０番１－１０１号,,14,135,2140036,,,2025-05-19,清算の結了等,,,2015-10-05,1,,,,,タクセイキカク,0
1197,5020003016152,登記記録の閉鎖等,0,2025-05-26,2025-05-19,合同会社アールワークス,,合同会社,神奈川県,横浜市神奈川区,六角橋６丁目２４,,14,102,2210802,,,2025-05-19,清算の結了等,,,2019-06-06,1,,,,,アールワークス,0
1237,5120001199658,登記記録の閉鎖等,0,2025-05-26,2025-05-16,株式会社関西,,株式会社,大阪府,大阪市浪速区,恵美須西２丁目２番２号,,27,111,5560003,,,2025-05-16,合併による解散等,8120002020407,令和７年５月１６日大阪市浪速区恵美須西二丁目２番２号株式会社関西ナニワホールディングス（8120002020407）に合併し解散,2016-07-22,1,,,,,カンサイ,0
1270,5130002006218,登記記録の閉鎖等,0,2025-05-26,2025-05-19,有限会社萬甚,,有限会社,京都府,京都市左京区,下鴨水口町４７番地の１,,26,103,6060843,,,2025-05-19,清算の結了等,,,2015-10-05,1,,,,,マンジン,0
1289,5180002001882,登記記録の閉鎖等,0,2025-05-26,2025-05-21,有限会社伊藤建築,,有限会社,愛知県,名古屋市中区,錦３丁目１５番１５号,,23,106,4600003,,,2025-05-21,合併による解散等,3180001146425,令和７年５月１７日名古屋市中区錦三丁目１５番１５号株式会社ＮＡフィナンシャル・アクト（3180001146425）に合併し解散,2015-10-05,1,,,,,イトウケンチク,0
1291,5180002071851,登記記録の閉鎖等,0,2025-05-26,2025-05-20,神製本企画有限会社,,有限会社,愛知県,瀬戸市,弁天町９３番地の２,,23,204,4890945,,,2025-05-20,清算の結了等,,,2015-10-05,1,,,,,ジンセイホンキカク,0
1298,5180302016754,登記記録の閉鎖等,0,2025-05-26,2025-05-22,有限会社ジェイケーエンジニアリング,,有限会社,愛知県,安城市,東端町山ノ鼻２番地１,,23,212,4441213,,,2025-05-22,清算の結了等,,,2015-10-05,1,,,,,ジェイケーエンジニアリング,0
1300,5200001021284,登記記録の閉鎖等,0,2025-05-26,2025-05-22,株式会社ケーワールド,,株式会社,岐阜県,土岐市,泉町久尻１４９６番地の５,,21,212,5095142,,,2025-05-22,清算の結了等,,,2015-10-05,1,,,,,ケーワールド,0
1318,5290002032611,登記記録の閉鎖等,0,2025-05-26,2025-05-15,有限会社アイワ,,有限会社,福岡県,糸島市,加布里３丁目３番１号,,40,230,8191124,,,2025-05-15,清算の結了等,,,2015-10-05,1,,,,,アイワ,0
1321,5290003002621,登記記録の閉鎖等,0,2025-05-26,2025-05-16,株式会社植木鋳造所,,株式会社,福岡県,久留米市,山本町豊田１０８０番地,,40,203,8390827,,,2025-05-16,清算の結了等,,,2015-10-05,1,,,,,ウエキチュウゾウジョ,0
1331,5350002017952,登記記録の閉鎖等,0,2025-05-26,2025-05-19,有限会社中村商店,,有限会社,宮崎県,小林市,細野２２６４番地２６,,45,205,8860004,,,2025-05-19,清算の結了等,,,2015-10-05,1,,,,,ナカムラショウテン,0
1339,5360003006697,登記記録の閉鎖等,0,2025-05-26,2025-05-19,合同会社Ａｖｇ．,,合同会社,沖縄県,うるま市,字宮里８６８番地８,,47,213,9042243,,,2025-05-19,清算の結了等,,,2015-10-05,1,,,,,アベレージ,0
1346,5410002006569,登記記録の閉鎖等,0,2025-05-26,2025-05-21,有限会社えばた,,有限会社,秋田県,由利本荘市,美倉町１８番地１,,05,210,0150801,,,2025-05-21,清算の結了等,,,2015-10-05,1,,,,,エバタ,0
1376,6010001144319,登記記録の閉鎖等,0,2025-05-26,2025-05-02,ＳＢＨＬＡＢＯ株式会社,,株式会社,東京都,中央区,日本橋兜町１７－１日本橋ロイヤルプラザ７０６,,13,102,1030026,,,2025-05-02,清算の結了等,,,2015-10-05,1,,,,,エスビーエイチラボ,0
1385,6010101013712,登記記録の閉鎖等,0,2025-05-26,2025-05-21,株式会社フリー,,株式会社,埼玉県,入間市,宮寺１８８５番地２４,,11,225,3580014,,,2025-05-21,清算の結了等,,,2019-05-16,1,,,,,フリー,0
1392,6010401155601,登記記録の閉鎖等,0,2025-05-26,2025-04-23,株式会社Ｓｅｃｏｎｄ　Ｆａｍ,,株式会社,東京都,港区,台場１丁目３番４号シーリアお台場２２０８,,13,103,1350091,,,2025-04-23,清算の結了等,,,2020-10-06,1,,,,,セカンドファム,0
1399,6010601056599,登記記録の閉鎖等,0,2025-05-26,2025-05-21,グラン・ブルー株式会社,,株式会社,東京都,江東区,木場６丁目１０番５号,,13,108,1350042,,,2025-05-21,清算の結了等,,,2019-12-20,1,,,,,グランブルー,0
1425,6011701027044,登記記録の閉鎖等,0,2025-05-26,2025-05-19,株式会社ＬｅＦｉｎｅ,,株式会社,東京都,江戸川区,北葛西５丁目３番１４号,,13,123,1340081,,,2025-05-19,清算の結了等,,,2024-02-21,1,,,,,ラフィン,0
1428,6011801026953,登記記録の閉鎖等,0,2025-05-26,2025-05-21,株式会社グローバルリテイリング,,株式会社,東京都,葛飾区,四つ木５丁目５番１０－１０５号,,13,122,1240011,,,2025-05-21,清算の結了等,,,2015-10-05,1,,,,,,0
1449,6020002002739,登記記録の閉鎖等,0,2025-05-26,2025-05-15,有限会社ケイ・エス,,有限会社,神奈川県,横浜市泉区,和泉中央北４丁目８番１６号,,14,116,2450024,,,2025-05-15,清算の結了等,,,2015-10-05,1,,,,,ケイエス,0
1456,6021002023667,登記記録の閉鎖等,0,2025-05-26,2025-05-21,フジインテック有限会社,,有限会社,神奈川県,相模原市中央区,田名６０２５番地,,14,152,2520244,,,2025-05-21,清算の結了等,,,2015-10-05,1,,,,,フジインテック,0
1460,6030001051216,登記記録の閉鎖等,0,2025-05-26,2025-05-22,株式会社タカヤマ,,株式会社,埼玉県,春日部市,一ノ割１丁目８番１５号,,11,214,3440031,,,2025-05-22,合併による解散等,1010501008341,令和７年５月１日東京都台東区西浅草三丁目２４番６号株式会社高山ジャパン（1010501008341）に合併し解散,2015-10-05,1,,,,,タカヤマ,0
1471,6040002085278,登記記録の閉鎖等,0,2025-05-26,2025-05-09,有限会社江戸忠商店,,有限会社,千葉県,銚子市,高神西町３３８８番地,,12,202,2880026,,,2025-05-09,清算の結了等,,,2015-10-05,1,,,,,エドチュウショウテン,0
1497,6090001014092,登記記録の閉鎖等,0,2025-05-26,2025-05-16,ベジタリア・スマートアグリ株式会社,,株式会社,東京都,渋谷区,桜丘町２６番１号セルリアンタワー１５階,,13,113,1500031,,,2025-05-16,合併による解散等,7011001067087,令和７年４月１日東京都渋谷区桜丘町２６番１号セルリアンタワー１５階ベジタリア株式会社（7011001067087）に合併し解散,2015-10-05,1,,,,,ベジタリアスマートアグリ,0
1498,6100001003779,登記記録の閉鎖等,0,2025-05-26,2025-05-23,株式会社リリー美研,,株式会社,長野県,長野市,大字長野西町１０６０番地,,20,201,3800842,,,2025-05-23,清算の結了等,,,2015-10-05,1,,,,,リリービケン,0
1499,6100001020808,登記記録の閉鎖等,0,2025-05-26,2025-05-22,ドリーム開発株式会社,,株式会社,長野県,上伊那郡南箕輪村,５９０２番地１,,20,385,3994511,,,2025-05-22,清算の結了等,,,2015-10-05,1,,,,,ドリームカイハツ,0
1502,6110001009627,登記記録の閉鎖等,0,2025-05-26,2025-05-22,信越商運株式会社,,株式会社,新潟県,新潟市北区,白勢町字上大曲６４番地１６,,15,101,9503103,,,2025-05-22,合併による解散等,3180001097742,令和７年５月１日愛知県海部郡飛島村大宝七丁目３８番地朝日ラインシステム株式会社（3180001097742）に合併し解散,2015-10-05,1,,,,,シンエツショウウン,0
1532,6120001241187,登記記録の閉鎖等,0,2025-05-26,2025-05-23,ＰＣＴトレーディング株式会社,,株式会社,大阪府,大阪市都島区,東野田町４丁目４番９号－６０１,,27,102,5340024,,,2025-05-23,清算の結了等,,,2021-10-14,1,,,,,ピーシーティートレーディング,0
1549,6120901042750,登記記録の閉鎖等,0,2025-05-26,2025-05-16,株式会社ｈａｒｉｎａ,,株式会社,大阪府,高槻市,大畑町５－４,,27,207,5691144,,,2025-05-16,清算の結了等,,,2020-05-25,1,,,,,,0
1555,6130002017528,登記記録の閉鎖等,0,2025-05-26,2025-05-20,有限会社宮本広告事務所,,有限会社,京都府,京都市北区,上賀茂東後藤町４１番地の２,,26,101,6038022,,,2025-05-20,清算の結了等,,,2015-10-05,1,,,,,ミヤモトコウコクジムショ,0
1589,6260002015733,登記記録の閉鎖等,0,2025-05-26,2025-05-14,有限会社Ｃａｒ　Ｆｕｔｕｒｅ,,有限会社,岡山県,岡山市南区,築港緑町１丁目１５番１８号,,33,104,7028055,,,2025-05-14,清算の結了等,,,2015-10-05,1,,,,,カーフューチャー,0
1593,6290001027297,登記記録の閉鎖等,0,2025-05-26,2025-05-16,株式会社フードプロデュースジャパン,,株式会社,福岡県,福岡市中央区,今泉１丁目９番６号６０４,,40,133,8100021,,,2025-05-16,清算の結了等,,,2015-10-05,1,,,,,フードプロデュースジャパン,0
1615,6330003010247,登記記録の閉鎖等,0,2025-05-26,2025-05-09,合同会社寿映像製作所,,合同会社,熊本県,阿蘇郡高森町,大字色見１３１－１１,,43,428,8691603,,,2025-05-09,清算の結了等,,,2024-03-05,1,,,,,コトブキエイゾウセイサクジョ,0
1625,6360005002108,登記記録の閉鎖等,0,2025-05-26,2025-05-14,医療法人永峰会,,その他の設立登記法人,沖縄県,沖縄市,美原４丁目１番１０号,,47,211,9042155,,,2025-05-14,清算の結了等,,,2015-10-05,1,,,,,エイホウカイ,0
1626,6360005006026,登記記録の閉鎖等,0,2025-05-26,2025-05-19,一般社団法人ぎのざファーム沖縄,,その他の設立登記法人,沖縄県,国頭郡宜野座村,字漢那２２８６－１,,47,313,9041304,,,2025-05-19,清算の結了等,,,2019-04-26,1,,,,,ギノザファームオキナワ,0
1653,7010001054491,登記記録の閉鎖等,0,2025-05-26,2025-05-07,株式会社パイン企画,,株式会社,東京都,中央区,銀座６丁目７番４号,,13,102,1040061,,,2025-05-07,清算の結了等,,,2015-10-05,1,,,,,パインキカク,0
1656,7010001231586,登記記録の閉鎖等,0,2025-05-26,2025-05-09,株式会社Ｊａｂｅｒ　Ｔｉｍｅｓ,,株式会社,千葉県,成田市,西三里塚一丁目１５９番地１０２号室,,12,211,2860115,,,2025-05-09,清算の結了等,,,2022-12-15,1,,,,,ジャベルタイムズ,0
1662,7010401040942,登記記録の閉鎖等,0,2025-05-26,2025-04-23,株式会社トラベループ,,株式会社,東京都,港区,新橋５丁目７番１３号,,13,103,1050004,,,2025-04-23,清算の結了等,,,2015-10-05,1,,,,,トラベループ,0
1664,7010401045891,登記記録の閉鎖等,0,2025-05-26,2025-04-18,株式会社コビック,,株式会社,東京都,港区,赤坂７丁目６番４７号,,13,103,1070052,,,2025-04-18,清算の結了等,,,2024-12-12,1,,,,,コビック,0
1679,7010502020876,登記記録の閉鎖等,0,2025-05-26,2025-05-15,有限会社プラスマインド,,有限会社,東京都,台東区,下谷２丁目３番１２号,,13,106,1100004,,,2025-05-15,清算の結了等,,,2015-10-05,1,,,,,プラスマインド,0
1683,7010702002138,登記記録の閉鎖等,0,2025-05-26,2025-04-30,有限会社上地ビルマネジメント,,有限会社,東京都,品川区,北品川１丁目２番７号,,13,109,1400001,,,2025-04-30,清算の結了等,,,2015-10-05,1,,,,,カミチビルマネジメント,0
1684,7010702015115,登記記録の閉鎖等,0,2025-05-26,2025-05-01,有限会社アイ・イー・シー,,有限会社,東京都,品川区,西五反田１丁目２６番２号五反田サンハイツ６階６０６号室,,13,109,1410031,,,2025-05-01,清算の結了等,,,2015-10-05,1,,,,,アイイーシー,0
1707,7011101046404,登記記録の閉鎖等,0,2025-05-26,2025-05-22,ニデコビジネスソフト株式会社,,株式会社,東京都,世田谷区,上祖師谷２丁目２１番１６号,,13,112,1570065,,,2025-05-22,清算の結了等,,,2015-10-05,1,,,,,ニデコビジネスソフト,0
1721,7012401030089,登記記録の閉鎖等,0,2025-05-26,2025-05-01,株式会社カーニバル,,株式会社,東京都,新宿区,歌舞伎町２丁目４番１０号,,13,104,1600021,,,2025-05-01,清算の結了等,,,2015-10-05,1,,,,,カーニバル,0
1723,7012803002388,登記記録の閉鎖等,0,2025-05-26,2025-05-19,合同会社ＡＬＬ　ＯＮＥ　ＣＯＭＰＡＮＹ,,合同会社,東京都,国分寺市,南町２丁目１６番地２１富士ビル１－Ｃ,,13,214,1850021,,,2025-05-19,清算の結了等,,,2020-11-17,1,,,,,オールワンカンパニー,0
1726,7013301007103,登記記録の閉鎖等,0,2025-05-26,2025-05-12,株式会社瀧澤,,株式会社,東京都,豊島区,南大塚２丁目１５番２号,00066848,13,116,1700005,,,2025-05-12,清算の結了等,,,2015-10-05,1,,,,,タキザワ,0
1735,7021001043715,登記記録の閉鎖等,0,2025-05-26,2025-05-19,株式会社湘南ビルドサポート,,株式会社,神奈川県,逗子市,逗子２丁目６番３号,,14,208,2490006,,,2025-05-19,清算の結了等,,,2015-10-05,1,,,,,ショウナンビルドサポート,0
1760,7050002034266,登記記録の閉鎖等,0,2025-05-26,2025-05-21,有限会社霞ケ浦畜産,,有限会社,茨城県,稲敷市,下馬渡９８０番地,,08,229,3000642,,,2025-05-21,清算の結了等,,,2015-10-05,1,,,,,カスミガウラチクサン,0
1765,7060005000751,登記記録の閉鎖等,0,2025-05-26,2025-05-21,社会福祉法人高永会,00024959,その他の設立登記法人,栃木県,宇都宮市,西川田南１丁目４３番２４号,,09,201,3210155,,,2025-05-21,清算の結了等,,,2015-10-05,1,,,,,コウエイカイ,0
1815,7140001112550,登記記録の閉鎖等,0,2025-05-26,2025-05-15,株式会社Ｋ．ｃｏｍｐａｎｙ神戸,,株式会社,兵庫県,神戸市中央区,磯上通７丁目１番１９号,,28,110,6510086,,,2025-05-15,合併による解散等,9130001045691,令和７年５月１日京都市東山区祇園町北側３２３番地株式会社Ｋ．ｃｏｍｐａｎｙ（9130001045691）に合併し解散,2019-01-23,1,,,,,ケイドットカンパニー,0
1824,7160001018416,登記記録の閉鎖等,0,2025-05-26,2025-05-19,エンゼルグローバルビジネス株式会社,,株式会社,滋賀県,東近江市,青野町４６００番地,,25,213,5270232,,,2025-05-19,合併による解散等,2160001024328,令和７年５月８日滋賀県東近江市青野町４６００番地エンゼルエステイト滋賀株式会社（2160001024328）に合併し解散,2015-10-05,1,,,,,エンゼルグローバルビジネス,0
1830,7180001131745,登記記録の閉鎖等,0,2025-05-26,2025-05-22,株式会社ＥＰＩＣ,,株式会社,愛知県,名古屋市熱田区,四番２丁目１－１２ＧＯＴＯビルディング南３Ｆ,,23,109,4560051,,,2025-05-22,清算の結了等,,,2018-04-06,1,,,,,エピック,0
1835,7180002010312,登記記録の閉鎖等,0,2025-05-26,2025-05-19,有限会社瑞穂ビル,,有限会社,愛知県,名古屋市瑞穂区,膳棚町３丁目２０番地の１,,23,108,4670013,,,2025-05-19,清算の結了等,,,2015-10-05,1,,,,,ミズホビル,0
1837,7180002022919,登記記録の閉鎖等,0,2025-05-26,2025-05-22,有限会社大西化成,,有限会社,愛知県,名古屋市西区,長先町２０番地,,23,104,4520838,,,2025-05-22,清算の結了等,,,2015-10-05,1,,,,,オオニシカセイ,0
1838,7180002062709,登記記録の閉鎖等,0,2025-05-26,2025-05-16,有限会社セイコー自動車硝子,,有限会社,愛知県,日進市,岩崎町石兼５６番地の５０３,,23,230,4700131,,,2025-05-16,清算の結了等,,,2015-10-05,1,,,,,セイコージドウシャガラス,0
1857,7290001009872,登記記録の閉鎖等,0,2025-05-26,2025-05-14,平尾観光株式会社,,株式会社,福岡県,福岡市中央区,平尾３丁目２４番５号,,40,133,8100014,,,2025-05-14,清算の結了等,,,2015-10-05,1,,,,,ヒラオカンコウ,0
1866,7290002038747,登記記録の閉鎖等,0,2025-05-26,2025-05-14,有限会社エム・ディー,,有限会社,福岡県,筑紫野市,紫２丁目８番地１,,40,217,8180061,,,2025-05-14,清算の結了等,,,2015-10-05,1,,,,,エムディー,0
1867,7290003011298,登記記録の閉鎖等,0,2025-05-26,2025-05-16,協和合同会社,,合同会社,福岡県,福岡市博多区,博多駅前２丁目１９番１７号トーカン博多第５ビル内,,40,132,8120011,,,2025-05-16,清算の結了等,,,2021-06-10,1,,,,,キョウワ,0
1882,7340001007235,登記記録の閉鎖等,0,2025-05-26,2025-05-22,国分殖産住宅株式会社,,株式会社,鹿児島県,霧島市,国分敷根１４１番地,,46,218,8994462,,,2025-05-22,清算の結了等,,,2015-10-05,1,,,,,コクブショクサンジュウタク,0
1891,7360003013725,登記記録の閉鎖等,0,2025-05-26,2025-05-14,合同会社幸,,合同会社,沖縄県,うるま市,字高江洲６３５ー１,,47,213,9042242,,,2025-05-14,清算の結了等,,,2024-02-21,1,,,,,コウ,0
1909,7430001058698,登記記録の閉鎖等,0,2025-05-26,2025-05-20,株式会社丸大大川組,,株式会社,北海道,小樽市,新光１丁目１８番３２号,,01,203,0470152,,,2025-05-20,清算の結了等,,,2015-10-05,1,,,,,マルダイオオカワグミ,0
1910,7430001067179,登記記録の閉鎖等,0,2025-05-26,2025-05-15,アルファコート釧路北大通３・４丁目地区開発株式会社,,株式会社,北海道,札幌市中央区,南一条西７丁目１番地３,,01,101,0600061,,,2025-05-15,清算の結了等,,,2015-10-05,1,,,,,アルファコートクシロキタオオドオリサンヨンチョウメチクカイハツ,0
1927,8010001233598,登記記録の閉鎖等,0,2025-05-26,2025-05-13,アテナ・ディフェンス株式会社,,株式会社,東京都,千代田区,九段南４丁目３番４号,,13,101,1020074,,,2025-05-13,合併による解散等,9011601018685,令和７年５月１３日東京都千代田区九段南４－３－４Ｐｏｌａｒ九段１階アルファ・リード株式会社（9011601018685）に合併し解散,2023-03-09,1,,,,,アテナディフェンス,0
1936,8010005034448,登記記録の閉鎖等,0,2025-05-26,2025-05-22,一般社団法人介護ビューティー＆メンタルケア協会,,その他の設立登記法人,東京都,千代田区,九段南１丁目５番６号りそな九段ビル５階ＫＳフロア,,13,101,1020074,,,2025-05-22,清算の結了等,,,2022-01-13,1,,,,,カイゴビューティーアンドメンタルケアキョウカイ,0
1944,8010401162091,登記記録の閉鎖等,0,2025-05-26,2025-05-20,株式会社ＢＲＡＮＤＩ　ＪＡＰＡＮ,,株式会社,埼玉県,さいたま市大宮区,三橋２丁目６５０番地３,,11,103,3300856,,,2025-05-20,清算の結了等,,,2021-08-17,1,,,,,ブランディジャパン,0
1962,8010801018380,登記記録の閉鎖等,0,2025-05-26,2025-05-07,株式会社ヒューマングローブ,,株式会社,東京都,大田区,南馬込１丁目６番１０号,,13,111,1430025,,,2025-05-07,清算の結了等,,,2015-10-05,1,,,,,,0
1973,8011002035752,登記記録の閉鎖等,0,2025-05-26,2025-04-24,有限会社オフィスエヌ,,有限会社,東京都,港区,南青山６丁目１０番９号,,13,103,1070062,,,2025-04-24,清算の結了等,,,2015-10-05,1,,,,,オフィスエヌ,0
1976,8011101061518,登記記録の閉鎖等,0,2025-05-26,2025-05-21,株式会社ジーウェイヴ,,株式会社,東京都,新宿区,新宿５丁目８番１０号,,13,104,1600022,,,2025-05-21,合併による解散等,1010401096651,令和７年４月１２日東京都港区赤坂二丁目１５番１５号株式会社ゼロ（1010401096651）に合併し解散,2015-10-05,1,,,,,ジーウェイヴ,0
1980,8011102023153,登記記録の閉鎖等,0,2025-05-26,2025-05-02,有限会社ハイウッド,,有限会社,東京都,新宿区,西新宿３丁目５番地１２号トーカン新宿第２キャステール４０６,,13,104,1600023,,,2025-05-02,清算の結了等,,,2015-10-05,1,,,,,ハイウッド,0
1986,8011501007582,登記記録の閉鎖等,0,2025-05-26,2025-05-21,筑波工業株式会社,,株式会社,東京都,荒川区,東尾久１丁目２７番１２号,,13,118,1160012,,,2025-05-21,清算の結了等,,,2015-10-05,1,,,,,,0
1987,8011501021377,登記記録の閉鎖等,0,2025-05-26,2025-05-20,株式会社土産品新聞社,,株式会社,東京都,北区,上中里１丁目１９番６号,,13,117,1140016,,,2025-05-20,清算の結了等,,,2016-03-07,1,,,,,ミヤゲヒンシンブンシャ,0
1988,8011501026376,登記記録の閉鎖等,0,2025-05-26,2025-05-21,株式会社ジュエルキャリア,,株式会社,東京都,北区,王子１丁目２８番８－９０３号トーカン王子マンション,,13,117,1140002,,,2025-05-21,清算の結了等,,,2020-11-17,1,,,,,ジュエルキャリア,0
2007,8013301043403,登記記録の閉鎖等,0,2025-05-26,2025-04-23,光華株式会社,,株式会社,東京都,港区,新橋５丁目３１番８号ル・グラシエルＢＬＤＧ．３２号館５０１号室,,13,103,1050004,,,2025-04-23,清算の結了等,,,2019-02-04,1,,,,,コウカ,0
2008,8013401006516,登記記録の閉鎖等,0,2025-05-26,2025-05-16,株式会社イーラボ・エクスペリエンス,,株式会社,東京都,渋谷区,桜丘町２６番１号セルリアンタワー１５階,,13,113,1500031,,,2025-05-16,合併による解散等,7011001067087,令和７年４月１日東京都渋谷区桜丘町２６番１号セルリアンタワー１５階ベジタリア株式会社（7011001067087）に合併し解散,2015-10-05,1,,,,,イーラボエクスペリエンス,0
2014,8030001106109,登記記録の閉鎖等,0,2025-05-26,2025-05-21,株式会社イーストプラン,,株式会社,埼玉県,川越市,大字山田１６２１番地１モンドビル２階,,11,201,3500822,,,2025-05-21,清算の結了等,,,2015-10-05,1,,,,,イーストプラン,0
2025,8040001007207,登記記録の閉鎖等,0,2025-05-26,2025-05-09,株式会社マリヤ,,株式会社,千葉県,千葉市若葉区,加曽利町１４１４番地,,12,104,2640017,,,2025-05-09,清算の結了等,,,2015-10-05,1,,,,,マリヤ,0
2034,8050001026098,登記記録の閉鎖等,0,2025-05-26,2025-05-21,株式会社アイビー,,株式会社,茨城県,龍ケ崎市,平台５丁目２番地１１,,08,208,3010003,,,2025-05-21,清算の結了等,,,2015-10-05,1,,,,,アイビー,0
2040,8070002032738,登記記録の閉鎖等,0,2025-05-26,2025-05-20,有限会社中嶋エンジニアリング,,有限会社,群馬県,みどり市,笠懸町阿左美２８０番地１０,,10,212,3792311,,,2025-05-20,清算の結了等,,,2015-10-05,1,,,,,ナカジマエンジニアリング,0
2054,8120001128564,登記記録の閉鎖等,0,2025-05-26,2025-04-24,株式会社全国駅前探偵社,,株式会社,大阪府,守口市,寺内町１丁目１５番６－２０１号,,27,209,5700056,,,2025-04-24,清算の結了等,,,2015-10-05,1,,,,,ゼンコクエキマエタンテイシャ,0
2069,8120002063868,登記記録の閉鎖等,0,2025-05-26,2025-05-13,有限会社居穏,,有限会社,大阪府,大阪市中央区,本町４丁目５番２０号,,27,128,5410053,,,2025-05-13,清算の結了等,,,2015-10-05,1,,,,,イオン,0
2073,8120101068487,登記記録の閉鎖等,0,2025-05-26,2025-05-16,ＱＧＡ　ＪＡＰＡＮ株式会社,,株式会社,福岡県,福岡市博多区,御供所町５番２０－１２０１号,,40,132,8120037,,,2025-05-16,清算の結了等,,,2023-11-07,1,,,,,キュージーエージャパン,0
2096,8140005023074,登記記録の閉鎖等,0,2025-05-26,2025-05-21,医療法人社団愛康会大森医院,,その他の設立登記法人,兵庫県,丹波市,青垣町小倉８４５番地,,28,223,6693812,,,2025-05-21,清算の結了等,,,2016-07-28,1,,,,,アイコウカイオオモリイイン,0
2102,8180001058509,登記記録の閉鎖等,0,2025-05-26,2025-05-21,株式会社シーエフケー,,株式会社,愛知県,名古屋市港区,小碓１丁目３４６番地,,23,111,4550801,,,2025-05-21,清算の結了等,,,2015-10-05,1,,,,,シーエフケー,0
2116,8180002026332,登記記録の閉鎖等,0,2025-05-26,2025-05-22,服部カム有限会社,,有限会社,愛知県,名古屋市緑区,大高町字一番割４３,,23,114,4598001,,,2025-05-22,清算の結了等,,,2015-10-05,1,,,,,ハットリカム,0
2122,8180302027690,登記記録の閉鎖等,0,2025-05-26,2025-05-22,有限会社新陽石油,,有限会社,愛知県,新城市,有海字作神４８番地の２,,23,221,4411317,,,2025-05-22,清算の結了等,,,2015-10-05,1,,,,,シンヨウセキユ,0
2154,8350001013710,登記記録の閉鎖等,0,2025-05-26,2025-05-21,株式会社ヨコヤマ,,株式会社,宮崎県,宮崎市,佐土原町下那珂１０７４９番地３,,45,201,8800212,,,2025-05-21,清算の結了等,,,2015-11-10,1,,,,,ヨコヤマ,0
2179,8500001003687,登記記録の閉鎖等,0,2025-05-26,2025-05-23,株式会社本町ハウジング,,株式会社,愛媛県,松山市,本町６丁目６番地７,,38,201,7900811,,,2025-05-23,清算の結了等,,,2015-10-05,1,,,,,ホンマチハウジング,0
2189,9010001116496,登記記録の閉鎖等,0,2025-05-26,2025-05-07,株式会社オフィスメイム,,株式会社,東京都,中央区,新川１丁目２４番７号,,13,102,1040033,,,2025-05-07,清算の結了等,,,2015-10-05,1,,,,,オフィスメイム,0
2195,9010005034430,登記記録の閉鎖等,0,2025-05-26,2025-05-23,ヤマオカ一般社団法人,,その他の設立登記法人,東京都,千代田区,丸の内１丁目４番１号東京共同会計事務所内,,13,101,1000005,,,2025-05-23,清算の結了等,,,2022-01-12,1,,,,,ヤマオカ,0
2196,9010401104968,登記記録の閉鎖等,0,2025-05-26,2025-04-24,株式会社グッデイエージェンシー,,株式会社,東京都,港区,赤坂６丁目１０番４号,,13,103,1070052,,,2025-04-24,清算の結了等,,,2015-10-05,1,,,,,グッデイエージェンシー,0
2210,9010601039758,登記記録の閉鎖等,0,2025-05-26,2025-05-21,株式会社佐々木工業,,株式会社,東京都,江東区,北砂７丁目１番２５号エスタブロマサキ７１１,,13,108,1360073,,,2025-05-21,清算の結了等,,,2015-10-05,1,,,,,ササキコウギョウ,0
2211,9010602004686,登記記録の閉鎖等,0,2025-05-26,2025-05-22,有限会社丸善運送店,,有限会社,東京都,江東区,三好３丁目５番８号,,13,108,1350022,,,2025-05-22,清算の結了等,,,2015-10-05,1,,,,,,0
2225,9011001161607,登記記録の閉鎖等,0,2025-05-26,2025-04-21,株式会社絹代,,株式会社,東京都,渋谷区,渋谷２丁目１９－１５宮益坂ビルディング６０９,,13,113,1500002,,,2025-04-21,清算の結了等,,,2024-05-02,1,,,,,キヌヨ,0
2246,9011801018675,登記記録の閉鎖等,0,2025-05-26,2025-05-20,株式会社映晃社,,株式会社,東京都,葛飾区,四つ木５丁目１１番１２号,,13,122,1240011,,,2025-05-20,清算の結了等,,,2015-10-05,1,,,,,エイコウシャ,0
2252,9012401035227,登記記録の閉鎖等,0,2025-05-26,2025-05-16,株式会社ＣＨＥＲＩＭＯ,,株式会社,東京都,中野区,本町２丁目１－８ＹＳＧａｒｄｅｎ４Ｆ,,13,114,1640012,,,2025-05-16,清算の結了等,,,2019-04-25,1,,,,,シェリモ,0
2275,9040002029109,登記記録の閉鎖等,0,2025-05-26,2025-05-08,有限会社ザ・チーフ勇治,,有限会社,千葉県,八千代市,八千代台東１丁目１０番６号１Ｆ,,12,221,2760032,,,2025-05-08,清算の結了等,,,2015-10-05,1,,,,,ザチーフユウジ,0
2285,9060002016526,登記記録の閉鎖等,0,2025-05-26,2025-05-22,有限会社石下油店,,有限会社,栃木県,塩谷郡塩谷町,大字玉生７４７番地３,,09,384,3292221,,,2025-05-22,清算の結了等,,,2015-10-05,1,,,,,イシゲアブラテン,0
2300,9120001008179,登記記録の閉鎖等,0,2025-05-26,2025-05-22,東京相互警備保障株式会社,,株式会社,大阪府,大阪市住吉区,東粉浜３丁目５番８号,,27,120,5580051,,,2025-05-22,清算の結了等,,,2015-10-05,1,,,,,トウキョウソウゴケイビホショウ,0
2301,9120001048951,登記記録の閉鎖等,0,2025-05-26,2025-05-21,大阪フツコール株式会社,,株式会社,大阪府,大阪市中央区,西心斎橋１丁目１番１１号,,27,128,5420086,,,2025-05-21,清算の結了等,,,2015-10-05,1,,,,,オオサカフツコール,0
2303,9120001071334,登記記録の閉鎖等,0,2025-05-26,2025-05-16,株式会社森組商会,,株式会社,大阪府,大阪市北区,同心１丁目１１番８号,,27,127,5300035,,,2025-05-16,清算の結了等,,,2015-10-05,1,,,,,モリグミショウカイ,0
2307,9120001181884,登記記録の閉鎖等,0,2025-05-26,2025-05-15,浅井商店株式会社,,株式会社,大阪府,大阪市港区,磯路３丁目２６番１３号マリンブルーＳ７０５号,,27,107,5520003,,,2025-05-15,清算の結了等,,,2015-10-05,1,,,,,アサイショウテン,0
2311,9120001243247,登記記録の閉鎖等,0,2025-05-26,2025-05-13,慈恩株式会社,,株式会社,大阪府,大阪市北区,紅梅町３－２４吉田マンション４０２号室,,27,127,5300038,,,2025-05-13,清算の結了等,,,2022-01-19,1,,,,,ジオン,0
2320,9120002034736,登記記録の閉鎖等,0,2025-05-26,2025-05-22,有限会社オオギプランニング,,有限会社,大阪府,大阪市中央区,船場中央３丁目１番７－１８４号,,27,128,5410055,,,2025-05-22,清算の結了等,,,2015-10-05,1,,,,,オオギプランニング,0
2337,9140001016122,登記記録の閉鎖等,0,2025-05-26,2025-05-20,株式会社サンテクノ,,株式会社,兵庫県,神戸市長田区,浜添通６丁目１番１８号,,28,106,6530024,,,2025-05-20,清算の結了等,,,2015-10-05,1,,,,,サンテクノ,0
2338,9140001096899,登記記録の閉鎖等,0,2025-05-26,2025-05-21,株式会社Ｂｅｓｔ,,株式会社,兵庫県,豊岡市,栃江１０１７番地の１,,28,209,6680083,,,2025-05-21,清算の結了等,,,2015-10-05,1,,,,,ベスト,0
2349,9180001099799,登記記録の閉鎖等,0,2025-05-26,2025-05-22,株式会社こころ,,株式会社,愛知県,海部郡蟹江町,大字蟹江本町字ヤノ割２番地２グランシャリオ１０２号,,23,425,4970033,,,2025-05-22,清算の結了等,,,2015-10-05,1,,,,,ココロ,0
2358,9180002081814,登記記録の閉鎖等,0,2025-05-26,2025-05-20,栗本食品興業有限会社,,有限会社,愛知県,江南市,宮田町藤ノ森１７８番地,,23,217,4838376,,,2025-05-20,清算の結了等,,,2015-10-05,1,,,,,クリモトショクヒンコウギョウ,0
2359,9180003020770,登記記録の閉鎖等,0,2025-05-26,2025-05-13,合同会社ＨｏｎｅｙＲａｂｂｉｔ,,合同会社,愛知県,半田市,瑞穂町３丁目８番地の２２,,23,205,4750828,,,2025-05-13,清算の結了等,,,2020-01-22,1,,,,,ハニーラビット,0
2363,9180303006429,登記記録の閉鎖等,0,2025-05-26,2025-05-19,合同会社王,,合同会社,愛知県,新城市,字沖野２０番地１,,23,221,4411364,,,2025-05-19,清算の結了等,,,2025-01-22,1,,,,,オウ,0
2365,9190001024368,登記記録の閉鎖等,0,2025-05-26,2025-05-22,ニッピ貿易株式会社,,株式会社,三重県,三重郡川越町,大字南福崎７７７番地１,,24,344,5108124,,,2025-05-22,清算の結了等,,,2017-02-03,1,,,,,ニッピボウエキ,0
2405,9360002009367,登記記録の閉鎖等,0,2025-05-26,2025-05-14,有限会社まるやす建設,,有限会社,沖縄県,糸満市,字糸満６０７番地,,47,210,9010361,,,2025-05-14,清算の結了等,,,2015-10-05,1,,,,,マルヤスケンセツ,0
2411,9380005007572,登記記録の閉鎖等,0,2025-05-26,2025-05-12,農事組合法人鈴内果樹棚利用組合,,その他の設立登記法人,福島県,双葉郡大熊町,大字下野上字原５０番地,,07,545,9791308,,,2025-05-12,清算の結了等,,,2015-10-05,1,,,,,スズウチカジュダナリヨウクミアイ,0
