sequenceNumber,corporateNumber,process,correct,updateDate,changeDate,name,nameImageId,kind,prefectureName,cityName,streetNumber,addressImageId,prefectureCode,cityCode,postCode,addressOutside,addressOutsideImageId,closeDate,closeCause,successorCorporateNumber,changeCause,assignmentDate,latest,enName,enPrefectureName,enCityName,enAddressOutside,furigana,hihyoji
7,1010001229628,新規,0,2022-09-21,2022-09-21,株式会社設備保全総合研究所,,株式会社,東京都,中央区,銀座１丁目１２－４Ｎ＆ＥＢＬＤ．７階,,13,102,1040061,,,,,,,2022-09-21,1,,,,,セツビホゼンソウゴウケンキュウジョ,0
8,1010001229644,新規,0,2022-09-21,2022-09-21,株式会社フォーエイト,,株式会社,東京都,中央区,銀座１丁目２２番１１号銀座大竹ビジデンス２階,,13,102,1040061,,,,,,,2022-09-21,1,,,,,フォーエイト,0
17,1010401169762,新規,0,2022-09-21,2022-09-21,ＳＰＡＣＥ株式会社,,株式会社,東京都,港区,新橋３丁目２番６号杉本ビル３階,,13,103,1050004,,,,,,,2022-09-21,1,,,,,スペース,0
23,1010403028529,新規,0,2022-09-21,2022-09-21,新潟北部洋上風力発電合同会社,,合同会社,東京都,港区,新橋６丁目１７番２１号,,13,103,1050004,,,,,,,2022-09-21,1,,,,,ニイガタホクブヨウジョウフウリョクハツデン,0
24,1010405021374,新規,0,2022-09-21,2022-09-21,一般社団法人日本外国人材振興機構,,その他の設立登記法人,東京都,港区,港南２丁目１６番１号品川イーストワンタワー４Ｆ,,13,103,1080075,,,,,,,2022-09-21,1,,,,,ニホンガイコクジンザイシンコウキコウ,0
27,1010501049393,新規,0,2022-09-21,2022-09-21,エイコーライフアップホールディングス株式会社,,株式会社,東京都,台東区,小島２丁目１３番３号,,13,106,1110056,,,,,,,2022-09-21,1,,,,,エイコーライフアップホールディングス,0
28,1010501049402,新規,0,2022-09-21,2022-09-21,株式会社チームＱ,,株式会社,東京都,台東区,三筋２丁目８番５号,,13,106,1110055,,,,,,,2022-09-21,1,,,,,チームキュー,0
29,1010503006723,新規,0,2022-09-21,2022-09-21,日の出ホールディングスジャパン合同会社,,合同会社,東京都,台東区,花川戸２丁目３番１１号,,13,106,1110033,,,,,,,2022-09-21,1,,,,,ヒノデホールディングスジャパン,0
32,1010801033279,新規,0,2022-09-21,2022-09-21,株式会社ハクト,,株式会社,東京都,大田区,田園調布本町４番６号,,13,111,1450072,,,,,,,2022-09-21,1,,,,,ハクト,0
39,1011001149849,新規,0,2022-09-21,2022-09-21,長川電子株式会社,,株式会社,東京都,渋谷区,代々木４丁目２３番５号,,13,113,1510053,,,,,,,2022-09-21,1,,,,,ナガカワデンシ,0
43,1011101100232,新規,0,2022-09-21,2022-09-21,株式会社ＣＥＬＦＩＳＨ,,株式会社,東京都,新宿区,西新宿５丁目５番１号,,13,104,1600023,,,,,,,2022-09-21,1,,,,,セルフィッシュ,0
58,1020001148273,新規,0,2022-09-21,2022-09-21,コアテック株式会社,,株式会社,神奈川県,横浜市金沢区,富岡東６丁目１１－４－２,,14,108,2360051,,,,,,,2022-09-21,1,,,,,コアテック,0
60,1020003022427,新規,0,2022-09-21,2022-09-21,合同会社まあるいえがお,,合同会社,神奈川県,川崎市多摩区,東三田２丁目１２番５－３号,,14,135,2140033,,,,,,,2022-09-21,1,,,,,マアルイエガオ,0
82,1030001150154,新規,0,2022-09-21,2022-09-21,株式会社Ｈ＆Ｓコーポレーション,,株式会社,埼玉県,さいたま市緑区,大字大門２６１８番地１,,11,109,3360963,,,,,,,2022-09-21,1,,,,,エイチアンドエスコーポレーション,0
89,1040001125122,新規,0,2022-09-21,2022-09-21,朝日国際株式会社,,株式会社,千葉県,千葉市稲毛区,小深町１０８番地１,,12,103,2630003,,,,,,,2022-09-21,1,,,,,アサヒコクサイ,0
90,1040001125139,新規,0,2022-09-21,2022-09-21,株式会社美らい,,株式会社,千葉県,館山市,北条１９０１番地の５３,,12,205,2940045,,,,,,,2022-09-21,1,,,,,ミライ,0
91,1040001125147,新規,0,2022-09-21,2022-09-21,株式会社スローンズ,,株式会社,千葉県,東金市,上武射田２４１７番地１ローゼビレッジ２Ａ,,12,213,2830011,,,,,,,2022-09-21,1,,,,,スローンズ,0
97,1050003006872,新規,0,2022-09-21,2022-09-21,合同会社エウロパ,,合同会社,茨城県,稲敷郡美浦村,郷中２０１５番１号,,08,442,3000420,,,,,,,2022-09-21,1,,,,,エウロパ,0
105,1080001025194,新規,0,2022-09-21,2022-09-21,株式会社Ａｇｌｅａｄ,,株式会社,静岡県,焼津市,田尻１５２番地の２,,22,212,4250052,,,,,,,2022-09-21,1,,,,,アグリード,0
110,1100001035711,新規,0,2022-09-21,2022-09-21,株式会社ＹＢＡ信州,,株式会社,長野県,松本市,大字島立１０５４番地１ナカザワビル２Ｆ,,20,202,3900852,,,,,,,2022-09-21,1,,,,,ワイビーエーシンシュウ,0
119,1120001248914,新規,0,2022-09-21,2022-09-21,株式会社ＣＯＲＡＬ　ＲＥＥＦ,,株式会社,大阪府,大阪市東住吉区,東田辺３丁目２１番１７号,,27,121,5460032,,,,,,,2022-09-21,1,,,,,コーラルリーフ,0
120,1120001248939,新規,0,2022-09-21,2022-09-21,株式会社大銭,,株式会社,大阪府,大阪市中央区,島之内１丁目１４番１０号,,27,128,5420082,,,,,,,2022-09-21,1,,,,,オオゼン,0
122,1120003022490,新規,0,2022-09-21,2022-09-21,鹿島の杜風力発電合同会社,,合同会社,大阪府,大阪市住之江区,南港北２丁目１番１０号,,27,125,5590034,,,,,,,2022-09-21,1,,,,,カシマノモリフウリョクハツデン,0
124,1120005023198,新規,0,2022-09-21,2022-09-21,特定非営利活動法人ｈａｎａ６５,,その他の設立登記法人,大阪府,大阪市淀川区,十八条１丁目９番２２号,,27,123,5320001,,,,,,,2022-09-21,1,,,,,ハナロクジュウゴ,0
131,1130001072644,新規,0,2022-09-21,2022-09-21,北山食品工業株式会社,,株式会社,京都府,京都市伏見区,中島外山町１２５,,26,109,6128455,,,,,,,2022-09-21,1,,,,,キタヤマショクヒンコウギョウ,0
135,1140001127406,新規,0,2022-09-21,2022-09-21,海陸通商株式会社,,株式会社,兵庫県,神戸市東灘区,向洋町中１丁目１０番地１０１号棟１２０２号室,,28,101,6580032,,,,,,,2022-09-21,1,,,,,カイリクツウショウ,0
140,1140003018140,新規,0,2022-09-21,2022-09-21,合同会社ＴＭＮ,,合同会社,兵庫県,神戸市兵庫区,七宮町１丁目１０番８号,,28,105,6520831,,,,,,,2022-09-21,1,,,,,ティエムエヌ,0
158,1190005011741,新規,0,2022-09-21,2022-09-21,一般社団法人ｒｅｌｉｅｆ,,その他の設立登記法人,三重県,伊勢市,岩渕２丁目３－１２ナカザワビル３Ｆ,,24,203,5160037,,,,,,,2022-09-21,1,,,,,リリーフ,0
165,1240001060381,新規,0,2022-09-21,2022-09-21,株式会社今川建築設計,,株式会社,広島県,福山市,東川口町２丁目８番１７号,,34,207,7200821,,,,,,,2022-09-21,1,,,,,イマガワケンチクセッケイ,0
177,1290001098954,新規,0,2022-09-21,2022-09-21,株式会社ＨＢ,,株式会社,福岡県,大野城市,仲畑３丁目１０番７号,,40,219,8160921,,,,,,,2022-09-21,1,,,,,エイチビー,0
178,1290001098970,新規,0,2022-09-21,2022-09-21,株式会社精巧歯科技工所アラマキ,,株式会社,福岡県,春日市,春日７丁目７７番地２,,40,218,8160814,,,,,,,2022-09-21,1,,,,,セイコウシカギコウショアラマキ,0
195,1330003009517,新規,0,2022-09-21,2022-09-21,合同会社ＫＯＹ,,合同会社,熊本県,熊本市中央区,南熊本２丁目１２番１５号アーバンビルドＩＩＩ４０７号室,00127891,43,101,8600812,,,,,,,2022-09-21,1,,,,,ケーオーワイ,0
196,1350001017965,新規,0,2022-09-21,2022-09-21,株式会社Ｗｅｉｓｓ,,株式会社,宮崎県,日向市,大字塩見１４５６７番地１２９,,45,206,8830033,,,,,,,2022-09-21,1,,,,,ヴァイス,0
204,1390001017029,新規,0,2022-09-21,2022-09-21,株式会社晴天畑,,株式会社,山形県,東根市,大字太田新田１８番地１,,06,211,9993728,,,,,,,2022-09-21,1,,,,,セイテンバタケ,0
220,1500001024475,新規,0,2022-09-21,2022-09-21,株式会社２３３５,,株式会社,愛媛県,松山市,二番町３丁目３番地５,,38,201,7900002,,,,,,,2022-09-21,1,,,,,ニーサンサンゴー,0
221,1700150111764,新規,0,2022-09-21,2022-09-21,ＪＤＭ　ＭＯＴＯＲＳ　ＰＶＴ　ＬＴＤ,,外国会社等,千葉県,大網白里市,下ヶ傍示７１４－４－Ｂ,,12,239,2993214,スリランカ民主社会主義共和国、キャンディ、アクラナ、クルゴダ、シハムマンジルＮｏ．４７,,,,,,2022-09-21,1,,,,,ジエーデイエムモータースプライベートリミテツド,0
231,2010001229627,新規,0,2022-09-21,2022-09-21,水域環境情報基盤株式会社,,株式会社,東京都,千代田区,外神田１丁目３番１３号,,13,101,1010021,,,,,,,2022-09-21,1,,,,,スイイキカンキョウジョウホウキバン,0
237,2010003038704,新規,0,2022-09-21,2022-09-21,合同会社エムエル・キタサイワイ,,合同会社,東京都,千代田区,丸の内２丁目３番２号郵船ビルアルタードムス・ジャパン株式会社内,,13,101,1000005,,,,,,,2022-09-21,1,,,,,エムエルキタサイワイ,0
241,2010101015332,新規,0,2022-09-21,2022-09-21,嘉迅Ｊａｐａｎ株式会社,,株式会社,東京都,八王子市,宇津木町９２１番地２５番,,13,201,1920024,,,,,,,2022-09-21,1,,,,,カシュンジャパン,0
250,2010401169794,新規,0,2022-09-21,2022-09-21,株式会社ＭａｍａＳａｎ,,株式会社,東京都,港区,三田４丁目９番７号,,13,103,1080073,,,,,,,2022-09-21,1,,,,,ママサン,0
253,2010701043229,新規,0,2022-09-21,2022-09-21,株式会社マックストレーディング,,株式会社,東京都,品川区,東品川１丁目３－１５,,13,109,1400002,,,,,,,2022-09-21,1,,,,,マックストレーディング,0
255,2010801033278,新規,0,2022-09-21,2022-09-21,株式会社ＦＣファーム,,株式会社,東京都,大田区,田園調布３丁目４番５号,,13,111,1450071,,,,,,,2022-09-21,1,,,,,エフシーファーム,0
266,2011003015412,新規,0,2022-09-21,2022-09-21,ファンタシーク合同会社,,合同会社,東京都,渋谷区,道玄坂１丁目１０番８号渋谷道玄坂東急ビル２Ｆ―Ｃ,,13,113,1500043,,,,,,,2022-09-21,1,,,,,ファンタシーク,0
270,2011101100248,新規,0,2022-09-21,2022-09-21,株式会社ＥｄＷｏｒｋｓ,,株式会社,東京都,新宿区,西新宿３丁目３番１３号西新宿水間ビル６階,,13,104,1600023,,,,,,,2022-09-21,1,,,,,エドワークス,0
271,2011101100256,新規,0,2022-09-21,2022-09-21,株式会社ＴＡＭＡＣＨＡＮ,,株式会社,東京都,新宿区,西新宿３丁目９番７号フロンティア新宿タワーオフィス３４２号室,,13,104,1600023,,,,,,,2022-09-21,1,,,,,タマチャン,0
275,2011503005292,新規,0,2022-09-21,2022-09-21,モリヒロスタジオ合同会社,,合同会社,東京都,荒川区,東日暮里１丁目５番３号アベニール三ノ輪１０２,,13,118,1160014,,,,,,,2022-09-21,1,,,,,モリヒロスタジオ,0
276,2011601026257,新規,0,2022-09-21,2022-09-21,株式会社レイズ,,株式会社,東京都,練馬区,石神井台７丁目２２番４１号,,13,120,1770045,,,,,,,2022-09-21,1,,,,,レイズ,0
280,2011703003261,新規,0,2022-09-21,2022-09-21,Ｂａｎｋ　ｏｆ　Ｗｅｓｔｍｉｎｓｔｅｒ合同会社,,合同会社,東京都,江戸川区,一之江７丁目３２番７号２Ｆ,,13,123,1320024,,,,,,,2022-09-21,1,,,,,バンクオブウェストミンスター,0
288,2011801041238,新規,0,2022-09-21,2022-09-21,株式会社エクシー,,株式会社,東京都,足立区,入谷４丁目６番１－３０４号,,13,121,1210836,,,,,,,2022-09-21,1,,,,,エクシー,0
290,2012401039655,新規,0,2022-09-21,2022-09-21,株式会社Ｓａｖｉｏｒ　Ｔｏｔａｌ　Ｈａｐｐｉｎｅｓｓ,,株式会社,東京都,府中市,若松町２丁目１１番地の２,,13,206,1830005,,,,,,,2022-09-21,1,,,,,セイビアートータルハピネス,0
292,2012801021857,新規,0,2022-09-21,2022-09-21,ＳＫＹ　ＮＩＮＥ　Ｐａｒｔｎｅｒｓ株式会社,,株式会社,東京都,立川市,栄町５丁目５４番地９,,13,202,1900003,,,,,,,2022-09-21,1,,,,,スカイナインパートナーズ,0
294,2013103001168,新規,0,2022-09-21,2022-09-21,ＳＵＲＧＥ合同会社,,合同会社,東京都,あきる野市,雨間１９３７番地２０,,13,228,1970825,,,,,,,2022-09-21,1,,,,,サージ,0
297,2013301049686,新規,0,2022-09-21,2022-09-21,アルファ株式会社,,株式会社,東京都,豊島区,東池袋２丁目４５番２号ステラビル８Ｆ,,13,116,1700013,,,,,,,2022-09-21,1,,,,,アルファ,0
305,2020001148256,新規,0,2022-09-21,2022-09-21,株式会社安原企画,,株式会社,神奈川県,横浜市中区,大和町１丁目３番地１２ヒルサイド山手壱番館２０１,,14,104,2310846,,,,,,,2022-09-21,1,,,,,ヤスハラキカク,0
308,2020003022426,新規,0,2022-09-21,2022-09-21,ＴＸＳＴＡ合同会社,,合同会社,神奈川県,横浜市泉区,西が岡２丁目１８番地１８,,14,116,2450006,,,,,,,2022-09-21,1,,,,,,0
323,2040001125121,新規,0,2022-09-21,2022-09-21,株式会社泉水脊椎矯正院,,株式会社,千葉県,木更津市,貝渕２丁目６番５２号,,12,206,2920833,,,,,,,2022-09-21,1,,,,,センスイセキツイキョウセイイン,0
324,2040001125146,新規,0,2022-09-21,2022-09-21,株式会社ＺＥＮＳＰＯＲＴＳ,,株式会社,千葉県,浦安市,堀江５丁目２０番８号,,12,227,2790041,,,,,,,2022-09-21,1,,,,,ゼンスポーツ,0
334,2050003006863,新規,0,2022-09-21,2022-09-21,合同会社Ｔｈｒｅｅ　Ｐｉｅｃｅ,,合同会社,茨城県,取手市,吉田４０番２８,,08,217,3020007,,,,,,,2022-09-21,1,,,,,スリーピース,0
335,2060003004222,新規,0,2022-09-21,2022-09-21,ルグナ合同会社,,合同会社,栃木県,宇都宮市,宮の内４丁目２１０番地１ＬｉｆａｇａｒｄｅｎＩＩ２０６号室,00127897,09,201,3210131,,,,,,,2022-09-21,1,,,,,ルグナ,0
339,2070001039649,新規,0,2022-09-21,2022-09-21,株式会社ＬＲ＆ＩＣ,,株式会社,群馬県,前橋市,南町２丁目４７－１ＳＯＬＡＮＡＩＩ－Ｈ号,00127892,10,201,3710805,,,,,,,2022-09-21,1,,,,,エルアールアンドアイシー,0
349,2100001035710,新規,0,2022-09-21,2022-09-21,株式会社Ｌｉｇｈｔ　Ｕｎｉｖｅｒｓｅ,,株式会社,長野県,東筑摩郡山形村,３２７５番地７,,20,450,3901301,,,,,,,2022-09-21,1,,,,,ライトユニバース,0
355,2120001248723,新規,0,2022-09-21,2022-09-21,大手日本株式会社,,株式会社,大阪府,門真市,松葉町６番２２号門真市駅ハイツ２０２号室,,27,223,5710056,,,,,,,2022-09-21,1,,,,,オオテニホン,0
356,2120001248863,新規,0,2022-09-21,2022-09-21,株式会社Ｕ‐Ｓｅｖｅｎ　Ｗｏｒｌｄ,,株式会社,大阪府,大阪市鶴見区,横堤２丁目５－８０－４４,,27,124,5380052,,,,,,,2022-09-21,1,,,,,ユーセブンワールド,0
358,2120005023197,新規,0,2022-09-21,2022-09-21,一般社団法人ＩＧＳ,,その他の設立登記法人,大阪府,大阪市淀川区,西中島５丁目８番２９号,,27,123,5320011,,,,,,,2022-09-21,1,,,,,アイジーエス,0
364,2120903004307,新規,0,2022-09-21,2022-09-21,合同会社ＮＨＲサポート,,合同会社,大阪府,高槻市,古曽部町１丁目１１番１３－６０４号,,27,207,5691115,,,,,,,2022-09-21,1,,,,,エヌエイチアールサポート,0
367,2130001072635,新規,0,2022-09-21,2022-09-21,株式会社ＹＧネクスト,,株式会社,京都府,京都市伏見区,竹田西桶ノ井町５８番地２,,26,109,6128428,,,,,,,2022-09-21,1,,,,,ワイジーネクスト,0
371,2140001127413,新規,0,2022-09-21,2022-09-21,株式会社ウイスタージャパン,,株式会社,兵庫県,神戸市中央区,東町１２２番２港都ビル二階,,28,110,6500031,,,,,,,2022-09-21,1,,,,,ウイスタージャパン,0
372,2140001127438,新規,0,2022-09-21,2022-09-21,株式会社ＭＪＥＴ,,株式会社,兵庫県,西宮市,甲子園口４丁目９番７号,,28,204,6638113,,,,,,,2022-09-21,1,,,,,エムジェット,0
392,2180301036640,新規,0,2022-09-21,2022-09-21,株式会社ネクサスインターナショナル,,株式会社,愛知県,豊田市,朝日町２丁目４７番地２,,23,211,4710031,,,,,,,2022-09-21,1,,,,,ネクサスインターナショナル,0
397,2200001040460,新規,0,2022-09-21,2022-09-21,Ｓａｋｕｒａ　Ｎａｍｉ株式会社,,株式会社,岐阜県,岐阜市,久保見町５８番地４,,21,201,5008349,,,,,,,2022-09-21,1,,,,,サクラナミ,0
399,2210001019090,新規,0,2022-09-21,2022-09-21,ＳＹＭ株式会社,,株式会社,福井県,福井市,中央１丁目１０番５号デュオヒルズ福井駅前７０７,,18,201,9100006,,,,,,,2022-09-21,1,,,,,エスワイエム,0
402,2220001025039,新規,0,2022-09-21,2022-09-21,株式会社Ｃｌｅａｒ,,株式会社,石川県,野々市市,藤平田１丁目４４２番地,,17,212,9218832,,,,,,,2022-09-21,1,,,,,クリア,0
403,2220003003364,新規,0,2022-09-21,2022-09-21,合同会社寿商会,,合同会社,石川県,能美市,旭台２丁目１３番地,,17,211,9231211,,,,,,,2022-09-21,1,,,,,コトブキショウカイ,0
405,2240003005813,新規,0,2022-09-21,2022-09-21,合同会社ｓａｌｕｔ,,合同会社,広島県,福山市,神辺町八尋９８１－２,,34,207,7210000,,,,,,,2022-09-21,1,,,,,サリュー,0
410,2290001098953,新規,0,2022-09-21,2022-09-21,株式会社ＮＪＳ,,株式会社,福岡県,福岡市東区,多の津５丁目２５番１２号,,40,131,8130034,,,,,,,2022-09-21,1,,,,,エヌジェーエス,0
411,2290001098961,新規,0,2022-09-21,2022-09-21,株式会社和’ｓ,,株式会社,福岡県,福岡市南区,横手４丁目２番２２号１階３号,,40,134,8111311,,,,,,,2022-09-21,1,,,,,ワーズ,0
415,2300005007099,新規,0,2022-09-21,2022-09-21,一般社団法人シニアお困りごと相談所,,その他の設立登記法人,佐賀県,佐賀市,鍋島３丁目１０番１号,,41,201,8490937,,,,,,,2022-09-21,1,,,,,シニアオコマリゴトソウダンショ,0
419,2330001030127,新規,0,2022-09-21,2022-09-21,株式会社ＪＳＫ,,株式会社,熊本県,熊本市中央区,壺川２丁目６番１号,,43,101,8600076,,,,,,,2022-09-21,1,,,,,ジェイエスケイ,0
425,2350001017964,新規,0,2022-09-21,2022-09-21,株式会社グッドハーベスト,,株式会社,宮崎県,児湯郡高鍋町,大字北高鍋２０２４番地３ミッテグランツ２０３,,45,401,8840002,,,,,,,2022-09-21,1,,,,,グッドハーベスト,0
429,2370001049072,新規,0,2022-09-21,2022-09-21,株式会社ワンキューブスタイル,,株式会社,宮城県,仙台市青葉区,下愛子字町１４番地の１,,04,101,9893125,,,,,,,2022-09-21,1,,,,,ワンキューブスタイル,0
435,2430001087512,新規,0,2022-09-21,2022-09-21,株式会社トラストリング,,株式会社,北海道,札幌市白石区,北郷五条８丁目３番１３号,,01,104,0030835,,,,,,,2022-09-21,1,,,,,トラストリング,0
438,2470001019263,新規,0,2022-09-21,2022-09-21,株式会社シンセリティー不動産,,株式会社,香川県,高松市,香川町川東上２２４４番地,,37,201,7611706,,,,,,,2022-09-21,1,,,,,シンセリティーフドウサン,0
452,3010001229618,新規,0,2022-09-21,2022-09-21,あづまフーズ・インターナショナル・ホールディングス株式会社,,株式会社,東京都,中央区,新富２丁目１４番６号ＯＮＺＥ１８５２ビル８階,,13,102,1040041,,,,,,,2022-09-21,1,,,,,アヅマフーズインターナショナルホールディングス,0
453,3010001229626,新規,0,2022-09-21,2022-09-21,ハーバーライト株式会社,,株式会社,東京都,文京区,湯島３丁目２１番８－２０３号,,13,105,1130034,,,,,,,2022-09-21,1,,,,,ハーバーライト,0
467,3010401169793,新規,0,2022-09-21,2022-09-21,株式会社全力アカデミー,,株式会社,東京都,港区,六本木５丁目１８番１８号,,13,103,1060032,,,,,,,2022-09-21,1,,,,,ゼンリョクアカデミー,0
468,3010401169802,新規,0,2022-09-21,2022-09-21,株式会社ＰＯＮＫＩ,,株式会社,東京都,港区,芝２丁目２番１５号芝２丁目ビル１Ｆ,,13,103,1050014,,,,,,,2022-09-21,1,,,,,ポンキ,0
469,3010401169810,新規,0,2022-09-21,2022-09-21,株式会社川島町計画２号,,株式会社,東京都,港区,北青山２丁目７番１３号プラセオ青山ビル３Ｆ,,13,103,1070061,,,,,,,2022-09-21,1,,,,,カワジママチケイカクニゴウ,0
476,3010403028519,新規,0,2022-09-21,2022-09-21,信義隊合同会社,,合同会社,東京都,港区,南麻布２丁目１３－１２ＭＡＨＡＲＯ,,13,103,1060047,,,,,,,2022-09-21,1,,,,,シンギタイ,0
477,3010403028527,新規,0,2022-09-21,2022-09-21,Ｎｅｅｄ　Ｊａｐａｎ合同会社,,合同会社,東京都,港区,六本木１丁目９番１０号アークヒルズ仙石山森タワー２８階ベーカー＆マッケンジー法律事務所（外国法共同事業）内,,13,103,1060032,,,,,,,2022-09-21,1,,,,,ニードジャパン,0
480,3010701043228,新規,0,2022-09-21,2022-09-21,株式会社キマイラ,,株式会社,東京都,品川区,東品川１丁目３－１５,,13,109,1400002,,,,,,,2022-09-21,1,,,,,キマイラ,0
481,3010703006389,新規,0,2022-09-21,2022-09-21,合同会社ベルタプラス,,合同会社,東京都,品川区,東五反田４丁目１０－２２パークアクシス池田山２２４,,13,109,1410022,,,,,,,2022-09-21,1,,,,,ベルタプラス,0
482,3010705003426,新規,0,2022-09-21,2022-09-21,一般社団法人エンジョイキックミットサポーター協会,,その他の設立登記法人,東京都,品川区,東品川２丁目３番１５号シーフォートタワー１００８号,,13,109,1400002,,,,,,,2022-09-21,1,,,,,エンジョイキックミットサポーターキョウカイ,0
488,3011001149847,新規,0,2022-09-21,2022-09-21,株式会社マウントケープ,,株式会社,東京都,渋谷区,円山町５番５号Ｎａｖｉ渋谷Ｖ３階,,13,113,1500044,,,,,,,2022-09-21,1,,,,,マウントケープ,0
489,3011001149871,新規,0,2022-09-21,2022-09-21,株式会社ＰｅＴ２ｒａｉｎｅｅ,,株式会社,東京都,目黒区,下目黒２丁目５番４号三和ビル２０２,,13,110,1530064,,,,,,,2022-09-21,1,,,,,ペットレーニー,0
491,3011003015403,新規,0,2022-09-21,2022-09-21,合同会社生島キャスティング,,合同会社,東京都,目黒区,中目黒１丁目１番１７－９０６号,,13,110,1530061,,,,,,,2022-09-21,1,,,,,イクシマキャスティング,0
493,3011101100222,新規,0,2022-09-21,2022-09-21,タカタホーム株式会社,,株式会社,東京都,新宿区,西早稲田２丁目４番２０号,,13,104,1690051,,,,,,,2022-09-21,1,,,,,タカタホーム,0
494,3011101100247,新規,0,2022-09-21,2022-09-21,株式会社ｙｏｕｔｈｆｕｌ　ｄａｙｓ,,株式会社,東京都,新宿区,西新宿３丁目３番１３号西新宿水間ビル６階,,13,104,1600023,,,,,,,2022-09-21,1,,,,,ユースフルデイズ,0
497,3011401024550,新規,0,2022-09-21,2022-09-21,Ｇｏｌｄｅｎ　Ｓｔｅｐ株式会社,,株式会社,東京都,板橋区,西台３丁目１０番９－２０２号,,13,119,1750045,,,,,,,2022-09-21,1,,,,,ゴールデンステップ,0
501,3011503005291,新規,0,2022-09-21,2022-09-21,合同会社おひるね,,合同会社,東京都,荒川区,荒川３丁目４－４エスエスハイツ２０１号,,13,118,1160002,,,,,,,2022-09-21,1,,,,,オヒルネ,0
503,3011601026223,新規,0,2022-09-21,2022-09-21,株式会社ＮＥＯＩＳＬＡ,,株式会社,東京都,練馬区,小竹町１丁目５５番７－３０３号,,13,120,1760004,,,,,,,2022-09-21,1,,,,,ネオイスラ,0
510,3012803002887,新規,0,2022-09-21,2022-09-21,合同会社Ｔｈａｔ　ｐｅｒｓｏｎ’ｓ　ｌｉｆｅ,,合同会社,東京都,国立市,富士見台１丁目２５番２号２０２,,13,215,1860003,,,,,,,2022-09-21,1,,,,,ザットパーソンズライフ,0
521,3020001148247,新規,0,2022-09-21,2022-09-21,株式会社Ｏ‐ｐｌａｓ,,株式会社,神奈川県,横浜市港北区,新横浜２丁目５－１４ＷｉｓｅＮｅｘｔ新横浜３階４０１,,14,109,2220033,,,,,,,2022-09-21,1,,,,,オープラス,0
522,3020001148255,新規,0,2022-09-21,2022-09-21,仁果株式会社,,株式会社,神奈川県,川崎市多摩区,中野島５丁目４－３８ユナイトＫ’ｓ中野島２０１,,14,135,2140012,,,,,,,2022-09-21,1,,,,,ニンカ,0
523,3020001148271,新規,0,2022-09-21,2022-09-21,株式会社ＤＥＬＩＧＨＴ,,株式会社,神奈川県,横浜市港北区,新横浜３丁目１番地４プラスタリアビル４Ｆ,,14,109,2220033,,,,,,,2022-09-21,1,,,,,ディライト,0
545,3040001125120,新規,0,2022-09-21,2022-09-21,創建管理株式会社,,株式会社,千葉県,千葉市中央区,末広３丁目３番８号,,12,101,2600843,,,,,,,2022-09-21,1,,,,,ソウケンカンリ,0
546,3040001125137,新規,0,2022-09-21,2022-09-21,株式会社ＯＮＥＳＯＵＬ,,株式会社,千葉県,成田市,美郷台３丁目１番地５,,12,211,2860013,,,,,,,2022-09-21,1,,,,,ワンソウル,0
552,3040003020831,新規,0,2022-09-21,2022-09-21,合同会社ぱしゃり,,合同会社,千葉県,船橋市,薬円台４丁目１２番１８号ＤＡＩＹＵ薬園台ビル２階,,12,204,2740077,,,,,,,2022-09-21,1,,,,,パシャリ,0
553,3040005021737,新規,0,2022-09-21,2022-09-21,一般社団法人いっぱい坂倶楽部,,その他の設立登記法人,千葉県,千葉市中央区,市場町２番５号,,12,101,2600855,,,,,,,2022-09-21,1,,,,,イッパイザカクラブ,0
579,3120001248929,新規,0,2022-09-21,2022-09-21,株式会社ＴＨＥ　ＯＮＥ,,株式会社,大阪府,大阪市中央区,心斎橋筋２丁目３番１２号,,27,128,5420085,,,,,,,2022-09-21,1,,,,,ザワン,0
595,3130003008157,新規,0,2022-09-21,2022-09-21,合同会社美山１ｗｏｎｄｅｒ,,合同会社,京都府,南丹市,美山町江和上ヱ前１１番地,,26,213,6010701,,,,,,,2022-09-21,1,,,,,ミヤマワンワンダー,0
607,3140001127420,新規,0,2022-09-21,2022-09-21,村上園芸株式会社,,株式会社,兵庫県,三木市,吉川町奥谷１０３１番地,,28,215,6731242,,,,,,,2022-09-21,1,,,,,ムラカミエンゲイ,0
611,3140003018155,新規,0,2022-09-21,2022-09-21,合同会社はちみつ茶葉園,,合同会社,兵庫県,神戸市中央区,二宮町３丁目１４－１１,,28,110,6510093,,,,,,,2022-09-21,1,,,,,ハチミツチャバエン,0
639,3240003005812,新規,0,2022-09-21,2022-09-21,合同会社Ｎ・Ｓ・Ｙ企画,,合同会社,広島県,広島市東区,福田８丁目２番２６号,,34,102,7320029,,,,,,,2022-09-21,1,,,,,エヌエスワイキカク,0
651,3290001098952,新規,0,2022-09-21,2022-09-21,株式会社いしはら計装,,株式会社,福岡県,柳川市,七ツ家７６３番地１４の１,,40,207,8320087,,,,,,,2022-09-21,1,,,,,イシハラケイソウ,0
652,3290801028902,新規,0,2022-09-21,2022-09-21,株式会社薬興産,,株式会社,福岡県,北九州市小倉北区,中井２丁目３番２２号,,40,106,8030836,,,,,,,2022-09-21,1,,,,,ヤクコウサン,0
653,3290803004208,新規,0,2022-09-21,2022-09-21,Ｌｕｘｓ合同会社,,合同会社,福岡県,北九州市小倉北区,堺町１丁目５番５号３Ｆ,,40,106,8020005,,,,,,,2022-09-21,1,,,,,リュクス,0
656,3310005008632,新規,0,2022-09-21,2022-09-21,一般社団法人ブレード・スター,,その他の設立登記法人,長崎県,西彼杵郡時津町,元村郷９番地１,,42,308,8512103,,,,,,,2022-09-21,1,,,,,ブレードスター,0
657,3320001019343,新規,0,2022-09-21,2022-09-21,株式会社一凜,,株式会社,大分県,大分市,大字木佐上１５２番地,,44,201,8792113,,,,,,,2022-09-21,1,,,,,イチリン,0
658,3330003009523,新規,0,2022-09-21,2022-09-21,合同会社小山工業,,合同会社,熊本県,熊本市南区,富合町小岩瀬２０６番地２０１号,,43,104,8614161,,,,,,,2022-09-21,1,,,,,コヤマコウギョウ,0
660,3350001017963,新規,0,2022-09-21,2022-09-21,株式会社Ｂｉｇ　Ｗａｖｅ,,株式会社,宮崎県,宮崎市,原町１１番１８号,,45,201,8800007,,,,,,,2022-09-21,1,,,,,ビッグウェーブ,0
672,3430003014281,新規,0,2022-09-21,2022-09-21,合同会社ＳｔｕｄｉｏＣｏｃｏｏｎ,,合同会社,北海道,札幌市北区,北十条西３丁目２３番地１ＴＨＥ　ＰＥＡＫ　ＳＡＰＰＯＲＯ１階,,01,102,0010010,,,,,,,2022-09-21,1,,,,,スタジオコクーン,0
673,3450003002251,新規,0,2022-09-21,2022-09-21,合同会社旭川商店,,合同会社,北海道,旭川市,曙一条８丁目２番１４号ホワイトコーポラス１１号室,,01,204,0700061,,,,,,,2022-09-21,1,,,,,アサヒカワショウテン,0
676,3490003001704,新規,0,2022-09-21,2022-09-21,合同会社Ｎｏｉｒ,,合同会社,高知県,香美市,香北町白石１８９－１,,39,212,7814203,,,,,,,2022-09-21,1,,,,,ノア,0
677,3500001024473,新規,0,2022-09-21,2022-09-21,株式会社オーエヌジャパン,,株式会社,愛媛県,松山市,余戸東１丁目１０番１９号,,38,201,7900044,,,,,,,2022-09-21,1,,,,,オーエヌジャパン,0
685,4010001229567,新規,0,2022-09-21,2022-09-21,株式会社ＭＯＧＡ・ＢＲＯＯＫ　ＨＤ,,株式会社,東京都,千代田区,神田錦町１丁目１４番地１１,,13,101,1010054,,,,,,,2022-09-21,1,,,,,モガブルックホールディングス,0
686,4010001229583,新規,0,2022-09-21,2022-09-21,株式会社ＡＧインダストリー,,株式会社,東京都,千代田区,神田神保町３丁目１９番地,,13,101,1010051,,,,,,,2022-09-21,1,,,,,エージーインダストリー,0
687,4010001229591,新規,0,2022-09-21,2022-09-21,株式会社あらをか青い,,株式会社,東京都,中央区,銀座１丁目２２番１１号銀座大竹ビジデンス２階,,13,102,1040061,,,,,,,2022-09-21,1,,,,,アラヲカアヲイ,0
688,4010001229600,新規,0,2022-09-21,2022-09-21,真希生活株式会社,,株式会社,東京都,中央区,日本橋人形町３丁目１－１６ＪＰｈｏｕｓｅ日本橋ビルＢ１,,13,102,1030013,,,,,,,2022-09-21,1,,,,,シンキセイカツ,0
689,4010001229641,新規,0,2022-09-21,2022-09-21,Ｂａｅ株式会社,,株式会社,東京都,中央区,日本橋蛎殻町２丁目１５番５号水天宮ＣＰビル６Ｆ,,13,102,1030014,,,,,,,2022-09-21,1,,,,,ベイ,0
690,4010001229666,新規,0,2022-09-21,2022-09-21,株式会社ＡＩＳパートナーズ,,株式会社,東京都,中央区,日本橋２丁目１６番９号,,13,102,1030027,,,,,,,2022-09-21,1,,,,,エーアイエスパートナーズ,0
694,4010003038693,新規,0,2022-09-21,2022-09-21,凡仲合同会社,,合同会社,東京都,千代田区,飯田橋２丁目１６‐４九段下コート２Ｆ‐２０３号室,,13,101,1020072,,,,,,,2022-09-21,1,,,,,ボンチュウ,0
711,4010401169685,新規,0,2022-09-21,2022-09-21,株式会社Ｋ．Ｃ　Ｃｌｅａｎｉｎｇ　Ｓｅｒｖｉｃｅ,,株式会社,東京都,港区,南青山５丁目１７－２,,13,103,1070062,,,,,,,2022-09-21,1,,,,,ケイシークリーニングサービス,0
712,4010401169801,新規,0,2022-09-21,2022-09-21,株式会社ジェンパートナーズ,,株式会社,東京都,港区,南青山２丁目２番１５号,,13,103,1070062,,,,,,,2022-09-21,1,,,,,ジェンパートナーズ,0
718,4010701043227,新規,0,2022-09-21,2022-09-21,株式会社クレッセント,,株式会社,東京都,品川区,東品川１丁目３－１５,,13,109,1400002,,,,,,,2022-09-21,1,,,,,クレッセント,0
720,4010801033276,新規,0,2022-09-21,2022-09-21,株式会社レン,,株式会社,東京都,大田区,蒲田２丁目９番５号サンライズさくら１０１,,13,111,1440052,,,,,,,2022-09-21,1,,,,,レン,0
722,4010903007649,新規,0,2022-09-21,2022-09-21,合同会社平和ビル,,合同会社,東京都,世田谷区,北沢２丁目１９番１５号平和ビル,,13,112,1550031,,,,,,,2022-09-21,1,,,,,ヘイワビル,0
725,4011001149813,新規,0,2022-09-21,2022-09-21,株式会社セルエージェント,,株式会社,東京都,渋谷区,東２丁目２４番１号第三ＫＹビル５０１,,13,113,1500011,,,,,,,2022-09-21,1,,,,,セルエージェント,0
726,4011001149838,新規,0,2022-09-21,2022-09-21,株式会社Ｕｎｌｉｍｉｔｅｄ　Ｇｌｏｗｔｈ,,株式会社,東京都,渋谷区,代々木２丁目３９番２－４０１号ＭＯＤＩＥＲＹＯＹＯＧＩ,,13,113,1510053,,,,,,,2022-09-21,1,,,,,アンリミテッドグロウス,0
727,4011001149854,新規,0,2022-09-21,2022-09-21,ナツミカン株式会社,,株式会社,東京都,渋谷区,広尾５丁目４番１６号ＥＡＴＰＬＡＹＷＯＲＫＳ３Ｆ,,13,113,1500012,,,,,,,2022-09-21,1,,,,,ナツミカン,0
731,4011003015410,新規,0,2022-09-21,2022-09-21,ひやりきゃっと合同会社,,合同会社,東京都,渋谷区,渋谷２丁目１９―１５宮益坂ビルディング６０９,,13,113,1500002,,,,,,,2022-09-21,1,,,,,ヒヤリキャット,0
752,4011705001749,新規,0,2022-09-21,2022-09-21,一般社団法人わっしょいグループ,,その他の設立登記法人,東京都,江戸川区,西小岩１丁目３０番１６号三幸ビル４Ｆ,,13,123,1330057,,,,,,,2022-09-21,1,,,,,ワッショイグループ,0
754,4011803005271,新規,0,2022-09-21,2022-09-21,合同会社エタニティ,,合同会社,東京都,葛飾区,新小岩１丁目２６－５,,13,122,1240024,,,,,,,2022-09-21,1,,,,,エタニティ,0
755,4012403005587,新規,0,2022-09-21,2022-09-21,合同会社ＭｏｖｅＯｖｅｒ,,合同会社,東京都,武蔵野市,吉祥寺本町１丁目１３番２号シラカバビル５階‐１８,,13,203,1800004,,,,,,,2022-09-21,1,,,,,ムーヴオーバー,0
757,4012801021855,新規,0,2022-09-21,2022-09-21,株式会社Ｄプラン,,株式会社,東京都,武蔵村山市,本町１丁目３番地の１―４０３,,13,223,2080004,,,,,,,2022-09-21,1,,,,,ディープラン,0
762,4013301049684,新規,0,2022-09-21,2022-09-21,株式会社ビックデジタルファーム,,株式会社,東京都,豊島区,高田３丁目２３番２３号,,13,116,1710033,,,,,,,2022-09-21,1,,,,,ビックデジタルファーム,0
765,4020001148254,新規,0,2022-09-21,2022-09-21,株式会社Ｇｌｏｂａｌ　Ｈｕｍａｎ　Ｒｅｓｏｕｒｃｅ,,株式会社,神奈川県,横浜市中区,元浜町３丁目２１番地２,,14,104,2310004,,,,,,,2022-09-21,1,,,,,グローバルヒューマンリソース,0
788,4040001125136,新規,0,2022-09-21,2022-09-21,ＩＣＴマネージメント株式会社,,株式会社,千葉県,市川市,新田４丁目１８番１３－８０８号（サニーコート市川）,,12,203,2720035,,,,,,,2022-09-21,1,,,,,アイシーティマネージメント,0
789,4040001125144,新規,0,2022-09-21,2022-09-21,株式会社ＣＯＣＯＰＬＡ,,株式会社,千葉県,柏市,柏１丁目１番１０号ＫＡＳＨＩ－ＷＯＲＫビル,,12,217,2770005,,,,,,,2022-09-21,1,,,,,ココプラ,0
790,4040001125152,新規,0,2022-09-21,2022-09-21,株式会社ミライクリエイティブ,,株式会社,千葉県,我孫子市,我孫子２丁目１番１０９号グラン・レジデンス,,12,222,2701166,,,,,,,2022-09-21,1,,,,,ミライクリエイティブ,0
792,4040005021736,新規,0,2022-09-21,2022-09-21,一般社団法人海と日本プロジェクトｉｎ千葉県,,その他の設立登記法人,千葉県,千葉市中央区,都町１丁目１番２５号,,12,101,2600001,,,,,,,2022-09-21,1,,,,,ウミトニッポンプロジェクトインチバケン,0
793,4050001051703,新規,0,2022-09-21,2022-09-21,撥録株式会社,,株式会社,茨城県,石岡市,石岡２６６６番地１０,,08,205,3150001,,,,,,,2022-09-21,1,,,,,ハチロク,0
798,4070003004624,新規,0,2022-09-21,2022-09-21,合同会社ＧｒｅｅｎＲＥＣ,,合同会社,群馬県,安中市,下後閑１３７５番地,,10,211,3790106,,,,,,,2022-09-21,1,,,,,グリーンレック,0
823,4120001248936,新規,0,2022-09-21,2022-09-21,ＴＤＭホールディングス株式会社,,株式会社,大阪府,大阪市中央区,今橋３丁目３番１３号,,27,128,5410042,,,,,,,2022-09-21,1,,,,,ティーディーエムホールディングス,0
824,4120001248977,新規,0,2022-09-21,2022-09-21,株式会社トラスト,,株式会社,大阪府,大阪市北区,西天満５丁目１６番１５号エフワンビル４０７,,27,127,5300047,,,,,,,2022-09-21,1,,,,,トラスト,0
827,4120003022447,新規,0,2022-09-21,2022-09-21,合同会社神楽,,合同会社,大阪府,大阪市生野区,中川東１丁目１１番３号,,27,116,5440006,,,,,,,2022-09-21,1,,,,,カグラ,0
828,4120003022488,新規,0,2022-09-21,2022-09-21,合同会社ｅ．ｅｃｏグループ,,合同会社,大阪府,大阪市住之江区,北島１丁目４番２３号,,27,125,5590014,,,,,,,2022-09-21,1,,,,,イーエコグループ,0
833,4120901046506,新規,0,2022-09-21,2022-09-21,株式会社グランルーム,,株式会社,大阪府,豊中市,上野東３丁目１８番１３号３０１号室,,27,203,5600013,,,,,,,2022-09-21,1,,,,,グランルーム,0
834,4120905006373,新規,0,2022-09-21,2022-09-21,一般社団法人ＣｈｉｌｄＤｅａｒ,,その他の設立登記法人,大阪府,吹田市,千里丘北１番２６－７０３号,,27,205,5650815,,,,,,,2022-09-21,1,,,,,チャイルドディア,0
852,4140001127411,新規,0,2022-09-21,2022-09-21,株式会社ＤＥＫＭＳ神戸,,株式会社,兵庫県,明石市,魚住町西岡１９６５番地の１２,,28,203,6740084,,,,,,,2022-09-21,1,,,,,デイケムスコウベ,0
853,4140001127452,新規,0,2022-09-21,2022-09-21,ＮＳＫ物流株式会社,,株式会社,兵庫県,神戸市須磨区,緑が丘１丁目１９番１号,,28,107,6540113,,,,,,,2022-09-21,1,,,,,エヌエスケーブツリュウ,0
855,4140003018138,新規,0,2022-09-21,2022-09-21,合同会社天田商事,,合同会社,兵庫県,養父市,大屋町宮本４１８番地９,,28,222,6670432,,,,,,,2022-09-21,1,,,,,アマタショウジ,0
866,4180301036647,新規,0,2022-09-21,2022-09-21,ＡＮＤｅｓｉｇｎ株式会社,,株式会社,愛知県,豊橋市,植田町字西ケ谷１３５番地の３,,23,201,4418134,,,,,,,2022-09-21,1,,,,,アンデザイン,0
870,4190001029768,新規,0,2022-09-21,2022-09-21,株式会社こもの不動産事務所,,株式会社,三重県,三重郡菰野町,大字菰野１２１０番地１,,24,341,5101233,,,,,,,2022-09-21,1,,,,,コモノフドウサンジムショ,0
876,4220001025037,新規,0,2022-09-21,2022-09-21,株式会社スパインクロニクルジャパン,,株式会社,石川県,金沢市,京町３番８号,,17,201,9200848,,,,,,,2022-09-21,1,,,,,スパインクロニクルジャパン,0
877,4230001019525,新規,0,2022-09-21,2022-09-21,株式会社ピア・サポート,,株式会社,富山県,高岡市,駅南２丁目３番５号坂本ビル,,16,202,9330871,,,,,,,2022-09-21,1,,,,,ピアサポート,0
898,4290801028892,新規,0,2022-09-21,2022-09-21,株式会社Ｔ　ｕｎｉｔｅ,,株式会社,福岡県,中間市,中央４丁目２６番１１号,,40,215,8090030,,,,,,,2022-09-21,1,,,,,ティーユナイト,0
916,4380003005277,新規,0,2022-09-21,2022-09-21,合同会社エッジ・ジャパン,,合同会社,福島県,郡山市,駅前２丁目３番７号エリート３０ビル２Ｆ・３Ｆ,,07,203,9638002,,,,,,,2022-09-21,1,,,,,エッジジャパン,0
922,4420001018012,新規,0,2022-09-21,2022-09-21,大興建設株式会社,,株式会社,青森県,西津軽郡鰺ヶ沢町,大字舞戸町字三ツ沢５０番地６,,02,321,0382761,,,,,,,2022-09-21,1,,,,,ダイコウケンセツ,0
926,4480001011861,新規,0,2022-09-21,2022-09-21,株式会社Ｋｅｅｔｈ,,株式会社,徳島県,徳島市,南二軒屋町１丁目２番１２号,,36,201,7708063,,,,,,,2022-09-21,1,,,,,キース,0
929,4490001010292,新規,0,2022-09-21,2022-09-21,株式会社ティ・エフ・ピー,,株式会社,高知県,高知市,朝倉己５０８番地,,39,201,7808066,,,,,,,2022-09-21,1,,,,,ティエフピー,0
944,5010001229590,新規,0,2022-09-21,2022-09-21,ＡＫＥ株式会社,,株式会社,東京都,中央区,日本橋本町３丁目３番６号ワカ末ビル７階,,13,102,1030023,,,,,,,2022-09-21,1,,,,,エーケイイー,0
945,5010001229608,新規,0,2022-09-21,2022-09-21,株式会社ケイエステイトマネジメント,,株式会社,東京都,文京区,根津２丁目７番１４号１０１,,13,105,1130031,,,,,,,2022-09-21,1,,,,,ケイエステイトマネジメント,0
946,5010001229640,新規,0,2022-09-21,2022-09-21,アーチャーアセットマネジメント株式会社,,株式会社,東京都,中央区,晴海３丁目１３番２－３６１０号,,13,102,1040053,,,,,,,2022-09-21,1,,,,,アーチャーアセットマネジメント,0
949,5010003038692,新規,0,2022-09-21,2022-09-21,モルーラ合同会社,,合同会社,東京都,中央区,銀座１丁目１２番４号Ｎ＆ＥＢＬＤ．７階,,13,102,1040061,,,,,,,2022-09-21,1,,,,,モルーラ,0
951,5010103001996,新規,0,2022-09-21,2022-09-21,合同会社ＷＩＮＮＥＲＳ,,合同会社,東京都,八王子市,明神町２丁目３番２－２１６号,,13,201,1920046,,,,,,,2022-09-21,1,,,,,ウィナーズ,0
960,5010401169759,新規,0,2022-09-21,2022-09-21,株式会社ＭＥＴＡＸ,,株式会社,東京都,港区,南青山１丁目１５番１号みいでらビル２階,,13,103,1070062,,,,,,,2022-09-21,1,,,,,メタックス,0
961,5010401169791,新規,0,2022-09-21,2022-09-21,ノット・キャピタル株式会社,,株式会社,東京都,港区,南青山２丁目２番１５号ウィン青山９４２,,13,103,1070062,,,,,,,2022-09-21,1,,,,,ノットキャピタル,0
966,5010501049398,新規,0,2022-09-21,2022-09-21,株式会社Ｇ＆Ｉ,,株式会社,東京都,台東区,北上野２丁目２５番９号ＩＳビル６階,,13,106,1100014,,,,,,,2022-09-21,1,,,,,ジーアンドアイ,0
970,5010701043218,新規,0,2022-09-21,2022-09-21,株式会社ｅｐｉｎｙ,,株式会社,東京都,品川区,西五反田４丁目１６番７号ドミールボワ１０６,,13,109,1410031,,,,,,,2022-09-21,1,,,,,エピニィー,0
971,5010701043226,新規,0,2022-09-21,2022-09-21,株式会社アルカナ,,株式会社,東京都,品川区,東品川１丁目３－１５,,13,109,1400002,,,,,,,2022-09-21,1,,,,,アルカナ,0
991,5011003015401,新規,0,2022-09-21,2022-09-21,合同会社Ｂｅｎｅｆｉｔ,,合同会社,東京都,渋谷区,笹塚１丁目５８番７－４０３号ＰＡＲＫＨＩＬＬＳＴＯＷＥＲ,,13,113,1510073,,,,,,,2022-09-21,1,,,,,ベネフィット,0
996,5011101100237,新規,0,2022-09-21,2022-09-21,株式会社ゼロミッション,,株式会社,東京都,新宿区,西新宿３丁目７－１新宿パークタワーＮ３０階,,13,104,1600023,,,,,,,2022-09-21,1,,,,,ゼロミッション,0
997,5011101100245,新規,0,2022-09-21,2022-09-21,ＳＥＫＡＩＬＡＢＯ．株式会社,,株式会社,東京都,新宿区,西新宿３丁目３番１３号西新宿水間ビル６階,,13,104,1600023,,,,,,,2022-09-21,1,,,,,セカイラボ,0
1000,5011103012182,新規,0,2022-09-21,2022-09-21,ＴＯＷ　Ｏｒｇａｎｉｚａｔｉｏｎ合同会社,,合同会社,東京都,新宿区,市谷加賀町１丁目２番１－４１４号,,13,104,1620062,,,,,,,2022-09-21,1,,,,,ティーオーダブリューオーガニゼイション,0
1004,5011701025635,新規,0,2022-09-21,2022-09-21,株式会社ティーケアブリッジ,,株式会社,東京都,江戸川区,江戸川３丁目３１－３－４０６,,13,123,1320013,,,,,,,2022-09-21,1,,,,,ティーケアブリッジ,0
1006,5011801041301,新規,0,2022-09-21,2022-09-21,株式会社アスタルテ・エステート,,株式会社,東京都,葛飾区,新小岩２丁目１番９－１３０６号,,13,122,1240024,,,,,,,2022-09-21,1,,,,,アスタルテエステート,0
1013,5020001148204,新規,0,2022-09-21,2022-09-21,Ｋ　ａｎｄ　Ｔ株式会社,,株式会社,神奈川県,川崎市川崎区,小川町１６－１７ＭＦプラザ５０６,,14,131,2100023,,,,,,,2022-09-21,1,,,,,ケイアンドティ,0
1014,5020001148261,新規,0,2022-09-21,2022-09-21,株式会社Ｌａ　ｖｉｃｅ,,株式会社,神奈川県,横浜市保土ケ谷区,川島町１４６２番地８,,14,106,2400045,,,,,,,2022-09-21,1,,,,,ラヴィーチェ,0
1017,5020003022423,新規,0,2022-09-21,2022-09-21,合同会社龍山木,,合同会社,神奈川県,横浜市中区,本牧町１丁目２８２番地,,14,104,2310806,,,,,,,2022-09-21,1,,,,,リュウセンギ,0
1034,5040001125119,新規,0,2022-09-21,2022-09-21,株式会社志道,,株式会社,千葉県,木更津市,清見台東１丁目１７番５号,,12,206,2920041,,,,,,,2022-09-21,1,,,,,シドウ,0
1037,5040003020854,新規,0,2022-09-21,2022-09-21,クイーンズエーカー合同会社,,合同会社,千葉県,松戸市,東松戸３丁目１７番地の１７,,12,207,2702225,,,,,,,2022-09-21,1,,,,,クイーンズエーカー,0
1038,5040003020862,新規,0,2022-09-21,2022-09-21,合同会社ＭＢＳ,,合同会社,千葉県,船橋市,宮本７丁目９番１４号,,12,204,2730003,,,,,,,2022-09-21,1,,,,,エムビーエス,0
1055,5080401026045,新規,0,2022-09-21,2022-09-21,株式会社吉本設計,,株式会社,静岡県,浜松市中区,鴨江３丁目４３番１号,,22,131,4328023,,,,,,,2022-09-21,1,,,,,ヨシモトセッケイ,0
1056,5080403004619,新規,0,2022-09-21,2022-09-21,ドットケーズ合同会社,,合同会社,静岡県,浜松市中区,高丘西１丁目１１番１５号フルールドゥペッシュ１０１号室,,22,131,4338118,,,,,,,2022-09-21,1,,,,,ドットケーズ,0
1062,5120001248935,新規,0,2022-09-21,2022-09-21,株式会社牧元商店,,株式会社,大阪府,大阪市鶴見区,諸口５丁目２番５７号,,27,124,5380051,,,,,,,2022-09-21,1,,,,,マキモトショウテン,0
1066,5120003022495,新規,0,2022-09-21,2022-09-21,ＹＳＫ合同会社,,合同会社,大阪府,大阪市西淀川区,柏里２丁目４番４１号,,27,113,5550022,,,,,,,2022-09-21,1,,,,,ワイエスケー,0
1067,5120003022520,新規,0,2022-09-21,2022-09-21,合同会社オフィスまちかど,,合同会社,大阪府,大阪市大正区,三軒家西１丁目１３番２６号,,27,108,5510001,,,,,,,2022-09-21,1,,,,,オフィスマチカド,0
1070,5120101066246,新規,0,2022-09-21,2022-09-21,株式会社ひかり,,株式会社,大阪府,高石市,千代田１丁目１１番１１号ウエストプラザ高石１０８号,,27,225,5920005,,,,,,,2022-09-21,1,,,,,ヒカリ,0
1072,5120901046505,新規,0,2022-09-21,2022-09-21,ＵＭＥ株式会社,,株式会社,大阪府,豊中市,新千里東町３丁目３番１２０－４１１号,,27,203,5600082,,,,,,,2022-09-21,1,,,,,ユーエムイー,0
1077,5130001072632,新規,0,2022-09-21,2022-09-21,株式会社池宮,,株式会社,京都府,京都市西京区,嵐山風呂ノ橋町８番地６,,26,111,6160013,,,,,,,2022-09-21,1,,,,,イケミヤ,0
1084,5140001127410,新規,0,2022-09-21,2022-09-21,株式会社Ｈ．ＬＡＢ,,株式会社,兵庫県,神戸市東灘区,住吉南町２丁目１２番２－２０９号,,28,101,6580041,,,,,,,2022-09-21,1,,,,,エイチラボ,0
1088,5140003018137,新規,0,2022-09-21,2022-09-21,Ｂｒｉｌｌｉａｎｔ　Ｗｏｒｋｓ合同会社,,合同会社,兵庫県,神戸市中央区,相生町５丁目１７－１２マイコーポ神戸９０７,,28,110,6500025,,,,,,,2022-09-21,1,,,,,ブリリアントワークス,0
1100,5170003001775,新規,0,2022-09-21,2022-09-21,合同会社和歌山エージェンシー,,合同会社,和歌山県,御坊市,野口４４６番地,,30,205,6440031,,,,,,,2022-09-21,1,,,,,ワカヤマエージェンシー,0
1115,5180003024206,新規,0,2022-09-21,2022-09-21,ＮＴＯＹＳ合同会社,,合同会社,愛知県,名古屋市中川区,吉津３丁目１６０３番地,,23,110,4540981,,,,,,,2022-09-21,1,,,,,エヌトイズ,0
1120,5190001029759,新規,0,2022-09-21,2022-09-21,三重高圧株式会社,,株式会社,三重県,桑名市,大字和泉７３３番地２クレストＩ棟２０２号室,00127890,24,205,5110838,,,,,,,2022-09-21,1,,,,,ミエコウアツ,0
1123,5200003005681,新規,0,2022-09-21,2022-09-21,Ｎｅｂｕｌａ　Ｅｎｔｅｒｔａｉｎｍｅｎｔ合同会社,,合同会社,岐阜県,羽島市,正木町不破一色４４８,,21,209,5016228,,,,,,,2022-09-21,1,,,,,ネビュラエンターテインメント,0
1129,5240001060378,新規,0,2022-09-21,2022-09-21,ルートツリー株式会社,,株式会社,広島県,神石郡神石高原町,近田１１６１－２－２Ｆ,,34,545,7201622,,,,,,,2022-09-21,1,,,,,ルートツリー,0
1137,5270001008630,新規,0,2022-09-21,2022-09-21,株式会社Ａ・Ｉ・Ｍ,,株式会社,鳥取県,米子市,日野町１８７番地黒田ビル１Ｆ,,31,202,6830066,,,,,,,2022-09-21,1,,,,,エーアイエム,0
1140,5280005007504,新規,0,2022-09-21,2022-09-21,一般社団法人海と日本プロジェクトｉｎしまね,,その他の設立登記法人,島根県,松江市,向島町１４０番地１,,32,201,6900841,,,,,,,2022-09-21,1,,,,,ウミトニッポンプロジェクトインシマネ,0
1146,5290001098975,新規,0,2022-09-21,2022-09-21,株式会社Ｐｅｎｇｍｏｏｎ,,株式会社,福岡県,飯塚市,幸袋５７６－１４ｅ－ＺＵＫＡトライバレーセンタ－Ａ２０４号室,,40,205,8200066,,,,,,,2022-09-21,1,,,,,ペンムーン,0
1150,5290003012959,新規,0,2022-09-21,2022-09-21,ＭＥＴＡＣＡＭＰ合同会社,,合同会社,福岡県,福岡市中央区,天神１丁目１番１号アクロス天神１Ｆ,,40,133,8100001,,,,,,,2022-09-21,1,,,,,メタキャンプ,0
1152,5290801028900,新規,0,2022-09-21,2022-09-21,株式会社天豊,,株式会社,福岡県,北九州市小倉北区,清水５丁目１番１－１４０２,,40,106,8030841,,,,,,,2022-09-21,1,,,,,テンホウ,0
1153,5300001013065,新規,0,2022-09-21,2022-09-21,株式会社福山ホールディングス,,株式会社,佐賀県,鳥栖市,松原町１８０１番地８,,41,203,8410027,,,,,,,2022-09-21,1,,,,,フクヤマホールディングス,0
1155,5320001019341,新規,0,2022-09-21,2022-09-21,株式会社ほんだバラ香園,,株式会社,大分県,杵築市,山香町大字吉野渡１６０４番地１３,,44,210,8791316,,,,,,,2022-09-21,1,,,,,ホンダバラコウエン,0
1158,5330001030124,新規,0,2022-09-21,2022-09-21,株式会社コスデミー,,株式会社,熊本県,熊本市東区,健軍２丁目１４番４－２０７号,,43,102,8620911,,,,,,,2022-09-21,1,,,,,コスデミー,0
1166,5380001033122,新規,0,2022-09-21,2022-09-21,株式会社日本ドローン空路運航技術,,株式会社,福島県,相馬市,蒲庭字坂下２３６番地,,07,209,9792511,,,,,,,2022-09-21,1,,,,,ニホンドローンクウロウンコウギジュツ,0
1168,5380003005276,新規,0,2022-09-21,2022-09-21,合同会社ＳＲＴ,,合同会社,福島県,安達郡大玉村,玉井字又兵衛山２７－３０,,07,322,9691302,,,,,,,2022-09-21,1,,,,,エスアールティー,0
1169,5390003002000,新規,0,2022-09-21,2022-09-21,合同会社レーヴデンタルクラフト,,合同会社,山形県,山形市,大字中桜田３９番地,,06,201,9902422,,,,,,,2022-09-21,1,,,,,レーヴデンタルクラフト,0
1180,5420001018011,新規,0,2022-09-21,2022-09-21,株式会社信整館,,株式会社,青森県,青森市,桂木３丁目２番地１８,,02,201,0300844,,,,,,,2022-09-21,1,,,,,シンセイカン,0
1185,5460001005732,新規,0,2022-09-21,2022-09-21,株式会社Ｍｉｒａｒｃｈ,,株式会社,北海道,釧路市,緑ケ岡２丁目４１番１７号,,01,206,0850814,,,,,,,2022-09-21,1,,,,,ミラーチ,0
1189,5500001024471,新規,0,2022-09-21,2022-09-21,株式会社ＡＭＡＲ　ＢＡＣＨＡＮ　ＩＮＴＥＲＮＡＴＩＯＮＡＬ,,株式会社,愛媛県,今治市,別名３６４番地,,38,202,7940065,,,,,,,2022-09-21,1,,,,,アマルバチャンインターナショナル,0
1203,6010001229573,新規,0,2022-09-21,2022-09-21,株式会社Ｍｉｎｄ　Ｆｕｎｄ　Ｊａｐａｎ,,株式会社,東京都,中央区,銀座３丁目４‐１大倉別館５階,,13,102,1040061,,,,,,,2022-09-21,1,,,,,マインドファンドジャパン,0
1204,6010001229581,新規,0,2022-09-21,2022-09-21,株式会社Ｔｕｒｑｕｏｉｓｅ,,株式会社,東京都,千代田区,丸の内１丁目１１番１号,,13,101,1000005,,,,,,,2022-09-21,1,,,,,ターコイズ,0
1205,6010001229598,新規,0,2022-09-21,2022-09-21,株式会社Ａｌｌ　Ｒｉｇｈｔ,,株式会社,東京都,中央区,日本橋兜町７番１号,,13,102,1030026,,,,,,,2022-09-21,1,,,,,オールライト,0
1206,6010001229623,新規,0,2022-09-21,2022-09-21,ＧＫ企画株式会社,,株式会社,東京都,中央区,京橋２丁目６番１４号日立第六ビル４Ｆ,,13,102,1040031,,,,,,,2022-09-21,1,,,,,ジーケーキカク,0
1207,6010003038691,新規,0,2022-09-21,2022-09-21,ＬＹＪエージェント合同会社,,合同会社,東京都,中央区,銀座１丁目３番３号Ｇ１ビル７階,,13,102,1040061,,,,,,,2022-09-21,1,,,,,エルワイジェイエージェント,0
1208,6010003038700,新規,0,2022-09-21,2022-09-21,明康有筑合同会社,,合同会社,東京都,千代田区,飯田橋２丁目１６－４九段下コート２Ｆ－２０４号室,,13,101,1020072,,,,,,,2022-09-21,1,,,,,メイコウユウチク,0
1210,6010103001995,新規,0,2022-09-21,2022-09-21,ジンアート合同会社,,合同会社,東京都,八王子市,子安町１丁目４８－９共立リライアンス２０２号室,,13,201,1920904,,,,,,,2022-09-21,1,,,,,ジンアート,0
1213,6010401169782,新規,0,2022-09-21,2022-09-21,ウレシー株式会社,,株式会社,東京都,港区,南青山３丁目１番３６号青山丸竹ビル６Ｆ,,13,103,1070062,,,,,,,2022-09-21,1,,,,,ウレシー,0
1214,6010401169790,新規,0,2022-09-21,2022-09-21,三田２号株式会社,,株式会社,東京都,港区,浜松町２丁目２番１５号浜松町ダイヤビル２階,,13,103,1050013,,,,,,,2022-09-21,1,,,,,ミタニゴウ,0
1218,6010405021411,新規,0,2022-09-21,2022-09-21,大阪ロジスティクス３一般社団法人,,その他の設立登記法人,東京都,港区,六本木１丁目６番１号泉ガーデンタワー,,13,103,1060032,,,,,,,2022-09-21,1,,,,,オオサカロジスティクススリー,0
1225,6010901051663,新規,0,2022-09-21,2022-09-21,Ｄｏｚｏ株式会社,,株式会社,東京都,世田谷区,新町２丁目２９番１６号,,13,112,1540014,,,,,,,2022-09-21,1,,,,,ドウゾ,0
1238,6011001149852,新規,0,2022-09-21,2022-09-21,株式会社ＳＰＡＴＣＨ,,株式会社,東京都,渋谷区,千駄ヶ谷１丁目６番７号,,13,113,1510051,,,,,,,2022-09-21,1,,,,,スパッチ,0
1244,6011101100236,新規,0,2022-09-21,2022-09-21,株式会社Ｂｉａｎｃａ,,株式会社,東京都,新宿区,西新宿１丁目２０－３西新宿高木ビル８Ｆ,00127896,13,104,1600023,,,,,,,2022-09-21,1,,,,,ビアンカ,0
1245,6011101100244,新規,0,2022-09-21,2022-09-21,株式会社Ｙ’ｓ,,株式会社,東京都,新宿区,西新宿３丁目３番１３号西新宿水間ビル２Ｆ,,13,104,1600023,,,,,,,2022-09-21,1,,,,,ワイズ,0
1251,6011601026261,新規,0,2022-09-21,2022-09-21,株式会社Ｗｅｌｌ‐ｂｅｉｎｇ　Ｌａｎｄ,,株式会社,東京都,練馬区,早宮１丁目２４番１５号日本生命早宮社宅１号棟１３４号室,,13,120,1790085,,,,,,,2022-09-21,1,,,,,ウェルビーイングランド,0
1252,6011801041300,新規,0,2022-09-21,2022-09-21,富田工業株式会社,,株式会社,東京都,葛飾区,細田４丁目２８番９号,,13,122,1240021,,,,,,,2022-09-21,1,,,,,トミタコウギョウ,0
1255,6012401039651,新規,0,2022-09-21,2022-09-21,株式会社トータルアップサービス,,株式会社,東京都,武蔵野市,境南町２丁目１１番２２号,,13,203,1800023,,,,,,,2022-09-21,1,,,,,トータルアップサービス,0
1267,6013301049674,新規,0,2022-09-21,2022-09-21,ＣＯＰＡＩＮ株式会社,,株式会社,東京都,豊島区,東池袋１丁目１７番１１号パークハイツ池袋１１０５号,,13,116,1700013,,,,,,,2022-09-21,1,,,,,コパン,0
1274,6020001148252,新規,0,2022-09-21,2022-09-21,株式会社ＳＭＴ,,株式会社,神奈川県,横浜市南区,山王町４丁目２８番地１０ヴィータローザ横浜吉野町７０１号,,14,105,2320013,,,,,,,2022-09-21,1,,,,,エスエムティー,0
1275,6020001148285,新規,0,2022-09-21,2022-09-21,株式会社ＨＳＭ,,株式会社,神奈川県,横浜市中区,仲尾台５６番地２３,,14,104,2310839,,,,,,,2022-09-21,1,,,,,ハズム,0
1278,6021001077020,新規,0,2022-09-21,2022-09-21,株式会社ジャスティス,,株式会社,神奈川県,茅ヶ崎市,松が丘１丁目８番２１号ベルヴィル茅ヶ崎松が丘１０８号室,,14,207,2530025,,,,,,,2022-09-21,1,,,,,ジャスティス,0
1279,6021001077037,新規,0,2022-09-21,2022-09-21,株式会社メディケアフォレスト,,株式会社,神奈川県,伊勢原市,伊勢原１丁目１８－５細野ビル２Ｆ,,14,214,2591131,,,,,,,2022-09-21,1,,,,,メディケアフォレスト,0
1280,6021003012165,新規,0,2022-09-21,2022-09-21,合同会社エムジェイスト,,合同会社,神奈川県,平塚市,御殿１丁目４番３４－２号,,14,203,2540061,,,,,,,2022-09-21,1,,,,,エムジェイスト,0
1288,6030003020227,新規,0,2022-09-21,2022-09-21,合同会社Ｔ．Ｎ,,合同会社,埼玉県,加須市,栄１１００番地２,,11,210,3491213,,,,,,,2022-09-21,1,,,,,ティーエヌ,0
1290,6040001125142,新規,0,2022-09-21,2022-09-21,株式会社ＧＯＴＲＵＮＫ,,株式会社,千葉県,八街市,八街に１７０番地１３,,12,230,2891103,,,,,,,2022-09-21,1,,,,,ゴートランク,0
1294,6040003020861,新規,0,2022-09-21,2022-09-21,ＮＡＲＩＴＡ　ＡＵＴＯ　ＴＲＡＤＩＮＧ合同会社,,合同会社,千葉県,山武市,松尾町借毛本郷２３０１番地５,,12,237,2891537,,,,,,,2022-09-21,1,,,,,ナリタオートトレーディング,0
1304,6090003002161,新規,0,2022-09-21,2022-09-21,合同会社バルミジュール,,合同会社,山梨県,上野原市,上野原２１１７番地１２,,19,212,4090112,,,,,,,2022-09-21,1,,,,,バルミジュール,0
1305,6090005007514,新規,0,2022-09-21,2022-09-21,一般社団法人きれいな海をみんなの力でＩｎ山梨,,その他の設立登記法人,山梨県,甲府市,湯田２丁目１３番１号,,19,201,4000864,,,,,,,2022-09-21,1,,,,,キレイナウミヲミンナノチカラデインヤマナシ,0
1321,6120001248942,新規,0,2022-09-21,2022-09-21,マナプランニング株式会社,,株式会社,大阪府,大阪市福島区,吉野１丁目１番２５号ラナップスクエア新福島４０３号室,,27,103,5530006,,,,,,,2022-09-21,1,,,,,マナプランニング,0
1322,6120001248950,新規,0,2022-09-21,2022-09-21,東津貿易株式会社,,株式会社,大阪府,大阪市住吉区,万代６丁目１６番１６－１０１号,,27,120,5580055,,,,,,,2022-09-21,1,,,,,トウヅボウエキ,0
1325,6120003022494,新規,0,2022-09-21,2022-09-21,Ｅｘａｃｔａｙ　ＩＮ＆Ｔ合同会社,,合同会社,大阪府,大阪市東成区,大今里南３丁目１３番１１－３Ｅ号室,,27,115,5370013,,,,,,,2022-09-21,1,,,,,エグザクタイインアンドティー,0
1339,6122001036253,新規,0,2022-09-21,2022-09-21,喜多株式会社,,株式会社,大阪府,八尾市,太田新町１丁目２１９番地,,27,212,5810039,,,,,,,2022-09-21,1,,,,,キタ,0
1340,6122003002427,新規,0,2022-09-21,2022-09-21,合同会社和,,合同会社,大阪府,東大阪市,渋川町２丁目３番２８号,,27,227,5770836,,,,,,,2022-09-21,1,,,,,ナゴミ,0
1343,6130001072631,新規,0,2022-09-21,2022-09-21,株式会社木森,,株式会社,京都府,京都市南区,上鳥羽南唐戸町７番地Ｋビル５０５号室,,26,107,6018107,,,,,,,2022-09-21,1,,,,,キモリ,0
1353,6140003018136,新規,0,2022-09-21,2022-09-21,合同会社ナカヤマ賃貸住宅,,合同会社,兵庫県,神戸市長田区,水笠通３丁目２－３,,28,106,6530842,,,,,,,2022-09-21,1,,,,,ナカヤマチンタイジュウタク,0
1354,6140003018144,新規,0,2022-09-21,2022-09-21,Ｋ＆ＲＥＡＬプロパティ合同会社,,合同会社,兵庫県,姫路市,伊伝居６４５番地５,,28,201,6700871,,,,,,,2022-09-21,1,,,,,ケイアンドリアルプロパティ,0
1358,6160005011112,新規,0,2022-09-21,2022-09-21,医療法人景湖,,その他の設立登記法人,滋賀県,高島市,今津町浜分６７番地１２８,,25,212,5201604,,,,,,,2022-09-21,1,,,,,ケイコ,0
1367,6190001029774,新規,0,2022-09-21,2022-09-21,株式会社しょうよう,,株式会社,三重県,鈴鹿市,岸岡町２６０６番地１１,,24,207,5100226,,,,,,,2022-09-21,1,,,,,ショウヨウ,0
1375,6240001060385,新規,0,2022-09-21,2022-09-21,株式会社Ｓｈｕｋｒａｎ,,株式会社,広島県,広島市安佐南区,大町西１丁目１２－１１オードリー１０１,,34,105,7310125,,,,,,,2022-09-21,1,,,,,シュクラン,0
1376,6240003005801,新規,0,2022-09-21,2022-09-21,合同会社コンフィコネット,,合同会社,広島県,広島市南区,向洋新町４丁目２番２１号,,34,103,7340055,,,,,,,2022-09-21,1,,,,,コンフィコネット,0
1378,6250001019744,新規,0,2022-09-21,2022-09-21,株式会社和‐ＬＤｄｅｎｔｕｒｅ,,株式会社,山口県,下関市,岬之町１１番６号,,35,201,7500014,,,,,,,2022-09-21,1,,,,,ワールドデンチャー,0
1393,6290801028899,新規,0,2022-09-21,2022-09-21,株式会社たいよう,,株式会社,福岡県,北九州市戸畑区,旭町３番７号,,40,105,8040083,,,,,,,2022-09-21,1,,,,,タイヨウ,0
1394,6300001013072,新規,0,2022-09-21,2022-09-21,株式会社ＮＯＡＨ,,株式会社,佐賀県,鳥栖市,元町１２３７番２号２０１号室,,41,203,8410051,,,,,,,2022-09-21,1,,,,,ノア,0
1400,6350003004172,新規,0,2022-09-21,2022-09-21,合同会社トラニティホーム,,合同会社,宮崎県,都城市,上川東１丁目４号７番地,,45,202,8850012,,,,,,,2022-09-21,1,,,,,トラニティホーム,0
1404,6360001030979,新規,0,2022-09-21,2022-09-21,株式会社ＡＴＳ,,株式会社,沖縄県,那覇市,おもろまち４丁目１７－２５,,47,201,9000006,,,,,,,2022-09-21,1,,,,,エーティーエス,0
1406,6370001049069,新規,0,2022-09-21,2022-09-21,五橋地研株式会社,,株式会社,宮城県,仙台市青葉区,五橋２丁目３番２２号,,04,101,9800022,,,,,,,2022-09-21,1,,,,,イツツバシチケン,0
1417,6460001005731,新規,0,2022-09-21,2022-09-21,株式会社サルパ,,株式会社,北海道,釧路市,花園町７番１０号,,01,206,0850038,,,,,,,2022-09-21,1,,,,,サルパ,0
1418,6480003001875,新規,0,2022-09-21,2022-09-21,合同会社ジャパニーズ・スピリット,,合同会社,徳島県,三好郡東みよし町,昼間１１３番地３,,36,489,7712501,,,,,,,2022-09-21,1,,,,,ジャパニーズスピリット,0
1420,6490001010290,新規,0,2022-09-21,2022-09-21,株式会社五慶字舎,,株式会社,高知県,高知市,朝倉丙２０番地１,,39,201,7808063,,,,,,,2022-09-21,1,,,,,ゴケイジシャ,0
1425,6700150041131,新規,0,2022-09-21,2015-10-09,由良温泉観光協会,,その他,山形県,鶴岡市,由良２丁目１４－５５海テラスゆら磯の風内,,06,203,9997464,,,,,,,2015-10-09,1,,,,,ユラオンセンカンコウキヨウカイ,0
1436,7010001229572,新規,0,2022-09-21,2022-09-21,株式会社ＩＭＰＡＣＴＬＡＫＥ,,株式会社,東京都,千代田区,外神田６丁目１１番１６号,,13,101,1010021,,,,,,,2022-09-21,1,,,,,インパクトレイク,0
1437,7010001229589,新規,0,2022-09-21,2022-09-21,エドア株式会社,,株式会社,東京都,中央区,八丁堀３丁目２８番１４号飯田ビル１階,,13,102,1040032,,,,,,,2022-09-21,1,,,,,エドア,0
1440,7010003038690,新規,0,2022-09-21,2022-09-21,Ｅ８０グループジャパン合同会社,,合同会社,東京都,千代田区,丸の内１丁目６番５号,,13,101,1000005,,,,,,,2022-09-21,1,,,,,エオッタンタグループジャパン,0
1441,7010003038699,新規,0,2022-09-21,2022-09-21,合同会社至善館ＥＤＸ,,合同会社,東京都,中央区,日本橋２丁目５番１号,,13,102,1030027,,,,,,,2022-09-21,1,,,,,シゼンカンエディックス,0
1444,7010005035579,新規,0,2022-09-21,2022-09-21,一般社団法人エムエル・キタサイワイ,,その他の設立登記法人,東京都,千代田区,丸の内２丁目３番２号郵船ビルアルタードムス・ジャパン株式会社内,,13,101,1000005,,,,,,,2022-09-21,1,,,,,エムエルキタサイワイ,0
1449,7010401169641,新規,0,2022-09-21,2022-09-21,株式会社ＩＩＦ,,株式会社,東京都,港区,白金台４丁目５番４号,,13,103,1080071,,,,,,,2022-09-21,1,,,,,アイアイエフ,0
1450,7010401169781,新規,0,2022-09-21,2022-09-21,株式会社Ｂｅ,,株式会社,東京都,港区,六本木２丁目２番４－１２０３号,,13,103,1060032,,,,,,,2022-09-21,1,,,,,ビー,0
1455,7010403028531,新規,0,2022-09-21,2022-09-21,関東開発合同会社,,合同会社,東京都,港区,南青山２丁目２番１５号,,13,103,1070062,,,,,,,2022-09-21,1,,,,,カントウカイハツ,0
1465,7010701043224,新規,0,2022-09-21,2022-09-21,株式会社ワイズワーク,,株式会社,東京都,品川区,東五反田３丁目１７番１６号ネオハイツ・ヴェルビュ島津山,,13,109,1410022,,,,,,,2022-09-21,1,,,,,ワイズワーク,0
1468,7010903007654,新規,0,2022-09-21,2022-09-21,合同会社ｖｏｒｔｅｘ,,合同会社,東京都,世田谷区,太子堂１丁目３－３９カスタリア三宿２０９,,13,112,1540004,,,,,,,2022-09-21,1,,,,,ヴォルテックス,0
1481,7011101100235,新規,0,2022-09-21,2022-09-21,川崎家居株式会社,,株式会社,東京都,新宿区,百人町２丁目１－４５赤煉瓦２２５,,13,104,1690073,,,,,,,2022-09-21,1,,,,,カワサキカキョ,0
1486,7011401024555,新規,0,2022-09-21,2022-09-21,暁凱投資株式会社,,株式会社,東京都,板橋区,坂下１丁目２８番２号,,13,119,1740043,,,,,,,2022-09-21,1,,,,,キョウガイトウシ,0
1488,7011501004523,新規,0,2022-09-21,2022-09-21,三星製薬株式会社,,株式会社,東京都,北区,浮間２丁目９番２５号,,13,117,1150051,,,,,,,2022-09-21,1,,,,,サンセイセイヤク,0
1489,7011501028480,新規,0,2022-09-21,2022-09-21,正印株式会社,,株式会社,東京都,荒川区,東尾久２丁目２番９号三祥ビル２３６,,13,118,1160012,,,,,,,2022-09-21,1,,,,,ショウイン,0
1493,7011701025625,新規,0,2022-09-21,2022-09-21,武通信工業株式会社,,株式会社,東京都,江戸川区,松島２丁目１６番９号,,13,123,1320031,,,,,,,2022-09-21,1,,,,,タケツウシンコウギョウ,0
1495,7011801041258,新規,0,2022-09-21,2022-09-21,株式会社ＧＢカンパニー,,株式会社,東京都,足立区,扇２丁目８－７ＨＥＳＴＩＡ扇大橋１０１号,,13,121,1230873,,,,,,,2022-09-21,1,,,,,ジービーカンパニー,0
1496,7012401039650,新規,0,2022-09-21,2022-09-21,株式会社ＳＣサービス,,株式会社,東京都,武蔵野市,境南町２丁目１１番２２号,,13,203,1800023,,,,,,,2022-09-21,1,,,,,エスシーサービス,0
1501,7020001148243,新規,0,2022-09-21,2022-09-21,株式会社ＨＴＣ,,株式会社,神奈川県,横浜市港南区,笹下２丁目１０番１２号ベルウッド港南２０６,,14,111,2340052,,,,,,,2022-09-21,1,,,,,エイチティーシー,0
1502,7020001148251,新規,0,2022-09-21,2022-09-21,株式会社ＡｎｇｅｒＣａｒｅＪａｐａｎ,,株式会社,神奈川県,横浜市金沢区,富岡東６丁目２６番１１号,,14,108,2360051,,,,,,,2022-09-21,1,,,,,アンガーケアジャパン,0
1510,7021003012148,新規,0,2022-09-21,2022-09-21,合同会社ティーズブルク,,合同会社,神奈川県,横須賀市,粟田２丁目１０番１１号,,14,201,2390845,,,,,,,2022-09-21,1,,,,,ティーズブルク,0
1532,7030003020226,新規,0,2022-09-21,2022-09-21,合同会社ＮＡＧＡＩ,,合同会社,埼玉県,戸田市,笹目４丁目１３番地の９,,11,224,3350034,,,,,,,2022-09-21,1,,,,,ナガイ,0
1536,7040001125141,新規,0,2022-09-21,2022-09-21,株式会社Ｃｕｏｒｅ,,株式会社,千葉県,野田市,七光台３５６番地の５,,12,208,2780051,,,,,,,2022-09-21,1,,,,,クオレ,0
1537,7050001051700,新規,0,2022-09-21,2022-09-21,ポラリス株式会社,,株式会社,茨城県,土浦市,下高津１丁目４番３８号,,08,203,3000812,,,,,,,2022-09-21,1,,,,,ポラリス,0
1538,7050005013143,新規,0,2022-09-21,2022-09-21,特定非営利活動法人愛あゆみ,,その他の設立登記法人,茨城県,稲敷市,佐倉３１３３番地１,,08,229,3000508,,,,,,,2022-09-21,1,,,,,アイアユミ,0
1551,7110001036975,新規,0,2022-09-21,2022-09-21,Ｋ．ａｎｄ　Ｃｏｍｐａｎｙ株式会社,,株式会社,新潟県,新潟市西区,上新栄町６丁目２０番９号,,15,107,9502076,,,,,,,2022-09-21,1,,,,,ケイアンドカンパニー,0
1564,7120001248859,新規,0,2022-09-21,2022-09-21,Ｂｕｒｇｅｒ＆Ｏｌａｆ株式会社,,株式会社,大阪府,大阪市淀川区,西宮原１丁目８－２４新大阪第３ドイビル６Ｆ,,27,123,5320004,,,,,,,2022-09-21,1,,,,,バーガーアンドオラフ,0
1565,7120001248958,新規,0,2022-09-21,2022-09-21,株式会社眞榮田工業,,株式会社,大阪府,大阪市西淀川区,中島１丁目１９番１９号,,27,113,5550041,,,,,,,2022-09-21,1,,,,,マエダコウギョウ,0
1573,7120103004862,新規,0,2022-09-21,2022-09-21,Ｒｏｃｋｓ合同会社,,合同会社,大阪府,泉佐野市,上町３丁目１０番１５号泉佐野ビル４階,,27,213,5980007,,,,,,,2022-09-21,1,,,,,ロックス,0
1580,7130001072647,新規,0,2022-09-21,2022-09-21,株式会社ヴィヴァーチェ,,株式会社,京都府,京都市中京区,河原町通二条上る清水町３４１－１１－１１５,,26,104,6040911,,,,,,,2022-09-21,1,,,,,ヴィヴァーチェ,0
1597,7140001127409,新規,0,2022-09-21,2022-09-21,株式会社ＳＫＮ,,株式会社,兵庫県,明石市,大久保町西脇３８９番地の１５,,28,203,6740054,,,,,,,2022-09-21,1,,,,,スキン,0
1602,7140003018143,新規,0,2022-09-21,2022-09-21,ＮＴＨ　Ｓｔａｒ合同会社,,合同会社,兵庫県,小野市,東本町４００－３,,28,218,6751373,,,,,,,2022-09-21,1,,,,,エヌティエィチスター,0
1617,7180001153054,新規,0,2022-09-21,2022-09-21,株式会社エーシーズ,,株式会社,愛知県,名古屋市東区,泉２丁目１３番２１号ＩＳＭ泉６０３,,23,102,4610001,,,,,,,2022-09-21,1,,,,,エーシーズ,0
1624,7180301036644,新規,0,2022-09-21,2022-09-21,株式会社ＩＢ．,,株式会社,愛知県,豊橋市,野依町字西新切９１番地の２,,23,201,4418124,,,,,,,2022-09-21,1,,,,,アイビー,0
1628,7190001029773,新規,0,2022-09-21,2022-09-21,ムティアラコーポレーション株式会社,,株式会社,三重県,津市,河芸町千里ヶ丘８０番地５,,24,201,5100302,,,,,,,2022-09-21,1,,,,,ムティアラコーポレーション,0
1633,7220001025042,新規,0,2022-09-21,2022-09-21,株式会社アーク不動産,,株式会社,石川県,金沢市,泉本町４丁目２３３番２・１‐Ｊ号室,,17,201,9218042,,,,,,,2022-09-21,1,,,,,アークフドウサン,0
1640,7240001060384,新規,0,2022-09-21,2022-09-21,テラスホールディングス株式会社,,株式会社,広島県,広島市西区,己斐本町３丁目１７番２４号,,34,104,7330812,,,,,,,2022-09-21,1,,,,,テラスホールディングス,0
1644,7240005015459,新規,0,2022-09-21,2022-09-21,一般社団法人ひろしまエンターテインメント協会,,その他の設立登記法人,広島県,広島市東区,牛田中１丁目１番１１号,,34,102,7320065,,,,,,,2022-09-21,1,,,,,ヒロシマエンターテインメントキョウカイ,0
1652,7290001098965,新規,0,2022-09-21,2022-09-21,株式会社ハトフタ,,株式会社,福岡県,福岡市中央区,渡辺通２丁目６番１２ー９０１号,,40,133,8100004,,,,,,,2022-09-21,1,,,,,ハトフタ,0
1654,7290003012973,新規,0,2022-09-21,2022-09-21,合同会社ウィングスエステート,,合同会社,福岡県,福岡市博多区,千代３丁目３番２２－８０５号,,40,132,8120044,,,,,,,2022-09-21,1,,,,,ウィングスエステート,0
1658,7290803004204,新規,0,2022-09-21,2022-09-21,合同会社Ｎｅｗ　Ｇａｔｅ,,合同会社,福岡県,田川市,大字糒２２４番地１,,40,206,8250005,,,,,,,2022-09-21,1,,,,,ニューゲート,0
1659,7300001013071,新規,0,2022-09-21,2022-09-21,株式会社和家,,株式会社,佐賀県,唐津市,京町１７７０番地,,41,202,8470045,,,,,,,2022-09-21,1,,,,,ナゴミヤ,0
1663,7310003004448,新規,0,2022-09-21,2022-09-21,合同会社デルカ,,合同会社,長崎県,長崎市,畝刈町１６１３番地６２,,42,201,8512212,,,,,,,2022-09-21,1,,,,,デルカ,0
1669,7330005010558,新規,0,2022-09-21,2022-09-21,一般社団法人サンライズジャパン,,その他の設立登記法人,熊本県,熊本市北区,龍田７丁目３７－１３,,43,105,8618006,,,,,,,2022-09-21,1,,,,,サンライズジャパン,0
1673,7340001025039,新規,0,2022-09-21,2022-09-21,株式会社ＯＮＥ　ＳＴＥＰ,,株式会社,鹿児島県,出水市,五万石町６３７番地,,46,208,8990214,,,,,,,2022-09-21,1,,,,,ワンステップ,0
1681,7400001016007,新規,0,2022-09-21,2022-09-21,まづめ電工株式会社,,株式会社,岩手県,盛岡市,羽場１７地割９８－２羽場事務所,,03,201,0200841,,,,,,,2022-09-21,1,,,,,マヅメデンコウ,0
1688,7700150003056,新規,0,2022-09-21,2015-10-09,日中投資促進機構,,その他,東京都,港区,六本木１丁目８－７ＭＦＰＲ六本木麻布台ビル６階,,13,103,1060032,,,,,,,2015-10-09,1,,,,,ニツチユウトウシソクシンキコウ,0
1689,7700150030827,新規,0,2022-09-21,2015-10-09,和歌山県職員労働組合　日高支部,,その他,和歌山県,御坊市,湯川町財部６５１,,30,205,6440011,,,,,,,2015-10-09,1,,,,,ワカヤマケンシヨクインロウドウクミアイヒダカシブ,0
1702,8010001229571,新規,0,2022-09-21,2022-09-21,Ａ＆Ｔｍ株式会社,,株式会社,東京都,千代田区,神田練塀町３番地,,13,101,1010022,,,,,,,2022-09-21,1,,,,,エーアンドティーエム,0
1703,8010001229605,新規,0,2022-09-21,2022-09-21,株式会社エクストリーム,,株式会社,東京都,千代田区,神田錦町２丁目２番地１,,13,101,1010054,,,,,,,2022-09-21,1,,,,,エクストリーム,0
1704,8010001229646,新規,0,2022-09-21,2022-09-21,ファインバブルテック株式会社,,株式会社,東京都,千代田区,内神田３丁目４番１５号,,13,101,1010047,,,,,,,2022-09-21,1,,,,,ファインバブルテック,0
1706,8010003038657,新規,0,2022-09-21,2022-09-21,合同会社ＣＯＣＯＸＩＡ,,合同会社,東京都,中央区,銀座１丁目１２－４Ｎ＆ＥＢＬＤ．７階,,13,102,1040061,,,,,,,2022-09-21,1,,,,,ココシア,0
1707,8010003038698,新規,0,2022-09-21,2022-09-21,合同会社Ｌｉｂｅｒｔｙ,,合同会社,東京都,文京区,大塚６丁目１４番２５号,,13,105,1120012,,,,,,,2022-09-21,1,,,,,リバティ,0
1708,8010003038707,新規,0,2022-09-21,2022-09-21,合同会社Ｎ．Ｔソーラー２,,合同会社,東京都,千代田区,一ツ橋２丁目６番３号アクシスインベストメントアドバイザーズ株式会社内,,13,101,1010003,,,,,,,2022-09-21,1,,,,,エヌティーソーラーツー,0
1712,8010005035586,新規,0,2022-09-21,2022-09-21,成美税理士法人,,その他の設立登記法人,東京都,千代田区,平河町１丁目３番６号ＴＨＥＨＵＢ半蔵門６１２号室,,13,101,1020093,,,,,,,2022-09-21,1,,,,,ナルミ,0
1713,8010103001993,新規,0,2022-09-21,2022-09-21,合同会社美装屋,,合同会社,東京都,八王子市,中野町２５７０番地１０,,13,201,1920015,,,,,,,2022-09-21,1,,,,,ビソウヤ,0
1721,8010401169789,新規,0,2022-09-21,2022-09-21,株式会社ＯＮ　ＳＵＧＡＲ,,株式会社,東京都,港区,六本木７丁目７番７号ＴＲＩ－ＳＥＶＥＮ・ＲＯＰＰＯＮＧＩ８Ｆ,,13,103,1060032,,,,,,,2022-09-21,1,,,,,オンシュガー,0
1727,8010501049395,新規,0,2022-09-21,2022-09-21,株式会社ＧＵＲＡＬＡ,,株式会社,東京都,台東区,元浅草２丁目６番６号東京日産台東ビル１００２,,13,106,1110041,,,,,,,2022-09-21,1,,,,,グララ,0
1732,8010801033280,新規,0,2022-09-21,2022-09-21,株式会社ｃｏｎｎｅｃｔｉｏｎ,,株式会社,東京都,大田区,大森北１丁目９番８号大崎屋ビル２階,,13,111,1430016,,,,,,,2022-09-21,1,,,,,コネクション,0
1735,8010901051661,新規,0,2022-09-21,2022-09-21,株式会社トゥーレ,,株式会社,東京都,世田谷区,砧６丁目３３番８号シャルムキヌタ１Ｆ,,13,112,1570073,,,,,,,2022-09-21,1,,,,,トゥーレ,0
1742,8011001149883,新規,0,2022-09-21,2022-09-21,株式会社ウェルネスエイト,,株式会社,東京都,渋谷区,神宮前６丁目２３番４号桑野ビル２階,,13,113,1500001,,,,,,,2022-09-21,1,,,,,ウェルネスエイト,0
1747,8011101100234,新規,0,2022-09-21,2022-09-21,日本漢方研究院株式会社,,株式会社,東京都,新宿区,百人町２丁目１番４５号赤煉瓦２２６,,13,104,1690073,,,,,,,2022-09-21,1,,,,,ニホンカンポウケンキュウイン,0
1748,8011101100259,新規,0,2022-09-21,2022-09-21,ＤＸ‐Ｐｒｏ株式会社,,株式会社,東京都,新宿区,早稲田鶴巻町５２０－１０,,13,104,1620041,,,,,,,2022-09-21,1,,,,,ディーエックスプロ,0
1770,8013301049664,新規,0,2022-09-21,2022-09-21,株式会社Ａ＆Ｋ　ＳＵＰＰＯＲＴ,,株式会社,東京都,豊島区,東池袋２丁目６３番１号東池袋パレス１１０６号,,13,116,1700013,,,,,,,2022-09-21,1,,,,,エーアンドケーサポート,0
1775,8020001148275,新規,0,2022-09-21,2022-09-21,株式会社ピークテクノロジー,,株式会社,神奈川県,川崎市高津区,二子４丁目１番２号ソル・レヴェンテ８０６,,14,134,2130002,,,,,,,2022-09-21,1,,,,,ピークテクノロジー,0
1780,8021001077027,新規,0,2022-09-21,2022-09-21,株式会社一心,,株式会社,神奈川県,大和市,林間１丁目１５番３２号３Ｆ,,14,213,2420003,,,,,,,2022-09-21,1,,,,,イッシン,0
1781,8021001077035,新規,0,2022-09-21,2022-09-21,株式会社湘南インスペクション,,株式会社,神奈川県,藤沢市,石川３丁目１８番地の１,,14,205,2520815,,,,,,,2022-09-21,1,,,,,ショウナンインスペクション,0
1787,8030001150081,新規,0,2022-09-21,2022-09-21,ＨＲＳコンサルティング株式会社,,株式会社,埼玉県,さいたま市緑区,大字南部領辻４０３８番地１,,11,109,3360973,,,,,,,2022-09-21,1,,,,,エイチアールエスコンサルティング,0
1805,8040001125132,新規,0,2022-09-21,2022-09-21,株式会社やおけい,,株式会社,千葉県,松戸市,栄町３丁目１４６番地の７,,12,207,2710062,,,,,,,2022-09-21,1,,,,,ヤオケイ,0
1810,8050001051699,新規,0,2022-09-21,2022-09-21,ＴＫＮ設計株式会社,,株式会社,茨城県,土浦市,中村南１丁目８番１０号,,08,203,3000843,,,,,,,2022-09-21,1,,,,,ティーケーエヌセッケイ,0
1818,8060001035288,新規,0,2022-09-21,2022-09-21,株式会社Ｆｏｒｅｓｔ　Ｏｎｅ,,株式会社,栃木県,足利市,五十部町８４１番地,,09,202,3260843,,,,,,,2022-09-21,1,,,,,フォレストワン,0
1821,8080003002870,新規,0,2022-09-21,2022-09-21,合同会社Ｔ．Ｍ．ｐａｒｅｎｔｓ,,合同会社,静岡県,静岡市葵区,馬場町６５番地の１,,22,101,4200867,,,,,,,2022-09-21,1,,,,,ティーエムペアレンツ,0
1827,8100001035705,新規,0,2022-09-21,2022-09-21,石原金属株式会社,,株式会社,長野県,下伊那郡阿智村,智里６５９番地７,,20,407,3950304,,,,,,,2022-09-21,1,,,,,イシハラキンゾク,0
1832,8100005012915,新規,0,2022-09-21,2022-09-21,三水村農業會,00127859,その他の設立登記法人,長野県,上水内郡飯綱町,大字普光寺９３７番地,,20,590,3891206,,,,,,,2022-09-21,1,,,,,,0
1855,8120103004861,新規,0,2022-09-21,2022-09-21,合同会社ｅｍｐｏｗｅｒ,,合同会社,大阪府,堺市北区,中百舌鳥町５丁２２番地カサレスなかもず８０１号,,27,146,5918023,,,,,,,2022-09-21,1,,,,,エンパワー,0
1857,8120901046510,新規,0,2022-09-21,2022-09-21,株式会社ＧＭ,,株式会社,大阪府,茨木市,庄２丁目１９番２１号,,27,211,5670806,,,,,,,2022-09-21,1,,,,,ジーエム,0
1873,8140001127416,新規,0,2022-09-21,2022-09-21,ＡＮＣＨＩ株式会社,,株式会社,兵庫県,神戸市中央区,浪花町５６,,28,110,6500035,,,,,,,2022-09-21,1,,,,,アンチ,0
1894,8180301036651,新規,0,2022-09-21,2022-09-21,株式会社ハウスパレット,,株式会社,愛知県,刈谷市,井ケ谷町蔵前３２番地,,23,210,4480001,,,,,,,2022-09-21,1,,,,,ハウスパレット,0
1897,8180303005448,新規,0,2022-09-21,2022-09-21,合同会社ＢＲＯＤＥＮ,,合同会社,愛知県,豊橋市,下地町字北村６０番地ディアス北村Ｃ棟１０１,,23,201,4400083,,,,,,,2022-09-21,1,,,,,ブローデン,0
1900,8210001019093,新規,0,2022-09-21,2022-09-21,北陸創研株式会社,,株式会社,福井県,福井市,灯明寺４丁目８０５番地,,18,201,9100063,,,,,,,2022-09-21,1,,,,,ホクリクソウケン,0
1905,8220001025041,新規,0,2022-09-21,2022-09-21,宗和電工株式会社,,株式会社,石川県,野々市市,下林３丁目２９５番地,,17,212,9218831,,,,,,,2022-09-21,1,,,,,ソウワデンコウ,0
1909,8240001060383,新規,0,2022-09-21,2022-09-21,黒川工業株式会社,,株式会社,広島県,広島市安佐南区,上安４丁目６番１０－１号,,34,105,7310154,,,,,,,2022-09-21,1,,,,,クロカワコウギョウ,0
1910,8240001060391,新規,0,2022-09-21,2022-09-21,株式会社ひらめきデザイン,,株式会社,広島県,広島市中区,舟入川口町１９番１１号,,34,101,7300845,,,,,,,2022-09-21,1,,,,,ヒラメキデザイン,0
1911,8240005015458,新規,0,2022-09-21,2022-09-21,医療法人すぐる歯科,,その他の設立登記法人,広島県,広島市南区,京橋町６番５号２階,,34,103,7320828,,,,,,,2022-09-21,1,,,,,スグルシカ,0
1917,8270001003166,新規,0,2022-09-21,2022-09-21,株式会社大島ハウス,,株式会社,鳥取県,米子市,旗ヶ崎６丁目５番１６号,,31,202,6830845,,,,,,,2022-09-21,1,,,,,,0
1921,8290001098972,新規,0,2022-09-21,2022-09-21,アスキムホールディングス株式会社,,株式会社,福岡県,筑紫野市,武蔵３丁目１０番３５号,,40,217,8180052,,,,,,,2022-09-21,1,,,,,アスキムホールディングス,0
1922,8290003012956,新規,0,2022-09-21,2022-09-21,合同会社ＡＣＣＥＮＴ,,合同会社,福岡県,福岡市博多区,東比恵２丁目４の２５ウェルフォート４０４,,40,132,8120007,,,,,,,2022-09-21,1,,,,,アクセント,0
1923,8290003012964,新規,0,2022-09-21,2022-09-21,合同会社Ｍ＆Ｍ会計,,合同会社,福岡県,久留米市,篠山町一丁目１２番地３,,40,203,8300021,,,,,,,2022-09-21,1,,,,,エムアンドエムカイケイ,0
1924,8290005018811,新規,0,2022-09-21,2022-09-21,一般社団法人ＳＢＬ九州,,その他の設立登記法人,福岡県,福岡市早良区,室住団地４３番２０１号,,40,137,8140035,,,,,,,2022-09-21,1,,,,,エスビーエルキュウシュウ,0
1929,8330001030121,新規,0,2022-09-21,2022-09-21,株式会社さくら食販,,株式会社,熊本県,熊本市中央区,花畑町１番１４号Ａ＆Ｍ・ＨＡＮＡＢＡＴＡ３０１号,,43,101,8600806,,,,,,,2022-09-21,1,,,,,サクラショクハン,0
1932,8340005009508,新規,0,2022-09-21,2022-09-21,一般社団法人みなも,,その他の設立登記法人,鹿児島県,出水市,美原町１７７５番地,,46,208,8990124,,,,,,,2022-09-21,1,,,,,ミナモ,0
1936,8370001049075,新規,0,2022-09-21,2022-09-21,株式会社ファースト・キューブ仙台,,株式会社,宮城県,仙台市青葉区,旭ケ丘１丁目２９番２５号,,04,101,9810904,,,,,,,2022-09-21,1,,,,,ファーストキューブセンダイ,0
1939,8410003003703,新規,0,2022-09-21,2022-09-21,合同会社中央菓工きた,,合同会社,秋田県,秋田市,土崎港相染町字浜ナシ山２番地２２７,,05,201,0110951,,,,,,,2022-09-21,1,,,,,チュウオウカコウキタ,0
1949,8450005004349,新規,0,2022-09-21,2022-09-21,一般社団法人フォレストウィングス旭川,,その他の設立登記法人,北海道,旭川市,宮下通７丁目３８９７番地１,,01,204,0700030,,,,,,,2022-09-21,1,,,,,フォレストウィングスアサヒカワ,0
1963,9010001229570,新規,0,2022-09-21,2022-09-21,東株式会社,,株式会社,東京都,千代田区,岩本町１丁目２－１３－３Ｆ,,13,101,1010032,,,,,,,2022-09-21,1,,,,,アズマ,0
1964,9010001229604,新規,0,2022-09-21,2022-09-21,Ｈａｎｄｓ　ｔｏ　Ｈａｎｄｓ株式会社,,株式会社,東京都,千代田区,外神田６丁目１５番１１号,,13,101,1010021,,,,,,,2022-09-21,1,,,,,ハンズトゥハンズ,0
1965,9010001229637,新規,0,2022-09-21,2022-09-21,株式会社ＲＥＸＳＯＬ,,株式会社,東京都,中央区,日本橋富沢町四丁目１０番京成日本橋富沢町ビル３階３５号室,,13,102,1030006,,,,,,,2022-09-21,1,,,,,レクソル,0
1967,9010003038697,新規,0,2022-09-21,2022-09-21,合同会社モクレン２２,,合同会社,東京都,中央区,銀座７丁目１３番６号サガミビル２階,,13,102,1040061,,,,,,,2022-09-21,1,,,,,モクレンニイニイ,0
1978,9010403028521,新規,0,2022-09-21,2022-09-21,ＧＡＳＣＡ合同会社,,合同会社,東京都,港区,三田１丁目３番４０号天翔オフィス麻布十番３０７－Ｃ号室,,13,103,1080073,,,,,,,2022-09-21,1,,,,,ジーエーエスシーエー,0
1984,9010501049394,新規,0,2022-09-21,2022-09-21,株式会社粋セレクト,,株式会社,東京都,台東区,北上野２丁目１４番３号,,13,106,1100014,,,,,,,2022-09-21,1,,,,,スイセレクト,0
1988,9010701043230,新規,0,2022-09-21,2022-09-21,株式会社サンヨー企画,,株式会社,東京都,品川区,東品川１丁目３－１５,,13,109,1400002,,,,,,,2022-09-21,1,,,,,サンヨーキカク,0
1990,9010803004287,新規,0,2022-09-21,2022-09-21,合同会社ウッドフィールド,,合同会社,東京都,大田区,東雪谷４丁目８番１号シャンブル洗足池１０１,,13,111,1450065,,,,,,,2022-09-21,1,,,,,ウッドフィールド,0
1997,9010901051652,新規,0,2022-09-21,2022-09-21,株式会社スペースメーカー,,株式会社,東京都,世田谷区,桜１丁目６４番１７号,,13,112,1560053,,,,,,,2022-09-21,1,,,,,スペースメーカー,0
2006,9011001149627,新規,0,2022-09-21,2022-09-21,株式会社ＲＥＶＥＲＳＩ,,株式会社,東京都,渋谷区,渋谷１丁目７番３号三雄ビル６０１,,13,113,1500002,,,,,,,2022-09-21,1,,,,,リバーシ,0
2011,9011101100258,新規,0,2022-09-21,2022-09-21,株式会社文京,,株式会社,東京都,新宿区,大久保２丁目３番１８号三蔵住建ビル３階,,13,104,1690072,,,,,,,2022-09-21,1,,,,,ブンキョウ,0
2014,9011501028487,新規,0,2022-09-21,2022-09-21,ネクタル株式会社,,株式会社,東京都,北区,堀船１丁目５番１－２０２号ソシオミュゼ・イズ飛鳥山,,13,117,1140004,,,,,,,2022-09-21,1,,,,,ネクタル,0
2019,9011701025631,新規,0,2022-09-21,2022-09-21,株式会社ナカハラ,,株式会社,東京都,江戸川区,東小松川１丁目１２番１０号,,13,123,1320033,,,,,,,2022-09-21,1,,,,,ナカハラ,0
2024,9012401039649,新規,0,2022-09-21,2022-09-21,株式会社東京フレックス,,株式会社,東京都,稲城市,大丸９８８番地の６,,13,225,2060801,,,,,,,2022-09-21,1,,,,,トウキョウフレックス,0
2031,9012805003151,新規,0,2022-09-21,2022-09-21,一般社団法人ＤＥＦＬＵＳ,,その他の設立登記法人,東京都,国立市,中１丁目１６番地の５,,13,215,1860004,,,,,,,2022-09-21,1,,,,,デフラス,0
2033,9013303006299,新規,0,2022-09-21,2022-09-21,合同会社タクト,,合同会社,東京都,豊島区,池袋２丁目６４－１１平和ビル４Ｆ,,13,116,1710014,,,,,,,2022-09-21,1,,,,,タクト,0
2035,9020001148266,新規,0,2022-09-21,2022-09-21,株式会社徳富メディア,00127893,株式会社,神奈川県,川崎市中原区,新丸子東３丁目１１００番地１５Ｓ３００５,,14,133,2110004,,,,,,,2022-09-21,1,,,,,トクトミメディア,0
2037,9020003022428,新規,0,2022-09-21,2022-09-21,合同会社大塚オフィス,,合同会社,神奈川県,横浜市港北区,高田西４丁目４３番６号,,14,109,2230066,,,,,,,2022-09-21,1,,,,,オオツカオフィス,0
2040,9021001077042,新規,0,2022-09-21,2022-09-21,株式会社ＺＹ‐Ｘ,,株式会社,神奈川県,相模原市中央区,田名４３１１番地５,,14,152,2520244,,,,,,,2022-09-21,1,,,,,ジークス,0
2041,9021003012162,新規,0,2022-09-21,2022-09-21,合同会社クロスポイント,,合同会社,神奈川県,座間市,緑ケ丘２丁目６－１０グリーンベル１０２,,14,216,2520021,,,,,,,2022-09-21,1,,,,,クロスポイント,0
2052,9040001125148,新規,0,2022-09-21,2022-09-21,株式会社Ｌｅｖｅｒａｇｅ,,株式会社,千葉県,千葉市中央区,新千葉１丁目７番２号ペリエ＋ｐｌｕｓビル３階１４号室,,12,101,2600031,,,,,,,2022-09-21,1,,,,,レバレッジ,0
2057,9040003020842,新規,0,2022-09-21,2022-09-21,東京サレオン娯楽合同会社,,合同会社,千葉県,鎌ケ谷市,東道野辺４丁目１６番２６号,,12,224,2730115,,,,,,,2022-09-21,1,,,,,トウキョウサレオンゴラク,0
2058,9040003020883,新規,0,2022-09-21,2022-09-21,ラボクスインキュベーターズ合同会社,,合同会社,千葉県,習志野市,藤崎３丁目３１番１０号,,12,216,2750017,,,,,,,2022-09-21,1,,,,,ラボクスインキュベーターズ,0
2060,9050003006865,新規,0,2022-09-21,2022-09-21,合同会社ＨｏｐｅＨｏｍｅ,,合同会社,茨城県,坂東市,矢作２６７１－１,,08,228,3060624,,,,,,,2022-09-21,1,,,,,ホープホーム,0
2098,9120101066242,新規,0,2022-09-21,2022-09-21,株式会社ウィル,,株式会社,大阪府,泉南市,信達牧野１１０３番地の３,,27,228,5900522,,,,,,,2022-09-21,1,,,,,ウィル,0
2099,9120101066250,新規,0,2022-09-21,2022-09-21,株式会社ＯＤＡ建築,,株式会社,大阪府,泉大津市,曽根町１丁目１０番１１９号,,27,206,5950011,,,,,,,2022-09-21,1,,,,,オダケンチク,0
2116,9140003018141,新規,0,2022-09-21,2022-09-21,合同会社Ａん,,合同会社,兵庫県,姫路市,神屋町３丁目１５番地クリーンピア神屋町８０３,,28,201,6700836,,,,,,,2022-09-21,1,,,,,アン,0
2124,9180001153069,新規,0,2022-09-21,2022-09-21,富士桜株式会社,,株式会社,愛知県,あま市,七宝町遠島新開４５番地６２,,23,237,4970002,,,,,,,2022-09-21,1,,,,,フジザクラ,0
2131,9190001029771,新規,0,2022-09-21,2022-09-21,株式会社ホクサンカンパニー,,株式会社,三重県,伊勢市,船江３丁目６番８号,,24,203,5160008,,,,,,,2022-09-21,1,,,,,ホクサンカンパニー,0
2134,9200001040462,新規,0,2022-09-21,2022-09-21,株式会社ＴＳＵＢＡＳＡ,,株式会社,岐阜県,養老郡養老町,釜段７０３番地５,,21,341,5031276,,,,,,,2022-09-21,1,,,,,ツバサ,0
2141,9240001060382,新規,0,2022-09-21,2022-09-21,株式会社欣士雅,,株式会社,広島県,広島市安佐南区,西原２丁目１９番３７－１２０３号,,34,105,7310113,,,,,,,2022-09-21,1,,,,,シンシヤ,0
2147,9260003004039,新規,0,2022-09-21,2022-09-21,合同会社ｍｏｍｏｔａｒｏ,,合同会社,岡山県,岡山市北区,野田１丁目３番７号７０３,,33,101,7000971,,,,,,,2022-09-21,1,,,,,モモタロウ,0
2148,9290001098922,新規,0,2022-09-21,2022-09-21,株式会社Ａｉｌｅ,,株式会社,福岡県,福岡市博多区,春町３丁目６番１０号,,40,132,8120872,,,,,,,2022-09-21,1,,,,,アイレ,0
2150,9290003012971,新規,0,2022-09-21,2022-09-21,合同会社つくし,,合同会社,福岡県,大野城市,白木原１丁目４番１６号白木原センタービル５階,,40,219,8160943,,,,,,,2022-09-21,1,,,,,ツクシ,0
2154,9330001030120,新規,0,2022-09-21,2022-09-21,株式会社ｉｔｏ,,株式会社,熊本県,合志市,栄３７９２番地１６４,,43,216,8611113,,,,,,,2022-09-21,1,,,,,イトウ,0
2160,9350001017966,新規,0,2022-09-21,2022-09-21,株式会社１８,,株式会社,宮崎県,宮崎市,鶴島３丁目１３８番地,,45,201,8800014,,,,,,,2022-09-21,1,,,,,ジュウハチ,0
2184,9470003002244,新規,0,2022-09-21,2022-09-21,合同会社ＤｒｅａｍＣｒａｆｔ,,合同会社,香川県,丸亀市,津森町１１１５番地８,,37,202,7630052,,,,,,,2022-09-21,1,,,,,ドリームクラフト,0
2192,9700150111237,新規,0,2022-09-21,2022-08-12,ＰＬＡＹＦＩＥＬＤ,,その他,愛知県,名古屋市西区,枇杷島５丁目２２－２,,23,104,4510053,,,,,,,2022-08-12,1,,,,,プレイフイールド,0
2193,9700150111765,新規,0,2022-09-21,2022-09-21,Ｔｈａｉ　ＡｉｒＡｓｉａ　Ｃｏ．，Ｌｔｄ,,外国会社等,千葉県,成田市,古込字古込１番地１成田国際空港旅客ターミナル２内Ｍ５０６５室,,12,211,2860104,タイ王国バンコク、ドンムアン、サナンビン、ビバヴァディランシットロード、ｎｏ．２２２ドンムアン国際空港、３階、セントラルオフィスビル、部屋番号３２００,,,,,,2022-09-21,1,,,,,タイエアアジアカンパニーリミテツド,0
