sequenceNumber,corporateNumber,process,correct,updateDate,changeDate,name,nameImageId,kind,prefectureName,cityName,streetNumber,addressImageId,prefectureCode,cityCode,postCode,addressOutside,addressOutsideImageId,closeDate,closeCause,successorCorporateNumber,changeCause,assignmentDate,latest,enName,enPrefectureName,enCityName,enAddressOutside,furigana,hihyoji
8,1010001249106,新規,0,2024-10-29,2024-10-29,ＺＲファイナンシャルパートナーズ株式会社,,株式会社,東京都,千代田区,神田須田町２丁目２５ＧＹＢ秋葉原４Ｆ・５Ｆ,,13,101,1010041,,,,,,,2024-10-29,1,,,,,,0
9,1010001249361,新規,0,2024-10-29,2024-10-29,株式会社ジャパンドリームサービス,,株式会社,東京都,中央区,晴海２丁目２番４２－１４０５号,,13,102,1040053,,,,,,,2024-10-29,1,,,,,ジャパンドリームサービス,0
13,1010003045296,新規,0,2024-10-29,2024-10-29,合同会社共栄田野商店,,合同会社,東京都,千代田区,神田須田町１丁目７番８号ＶＯＲＴ秋葉原ＩＶ２Ｆ,00136806,13,101,1010041,,,,,,,2024-10-29,1,,,,,キョウエイタノショウテン,0
14,1010005039016,新規,0,2024-10-29,2024-10-29,一般社団法人ＹＹ,,その他の設立登記法人,東京都,千代田区,丸の内１丁目４番１号東京共同会計事務所内,,13,101,1000005,,,,,,,2024-10-29,1,,,,,ワイワイ,0
24,1010403033677,新規,0,2024-10-29,2024-10-29,合同会社ＦＤＳ,,合同会社,東京都,港区,高輪１丁目４番３号レキシントン・スクエア白金高輪１９０４,,13,103,1080074,,,,,,,2024-10-29,1,,,,,エフディーエス,0
26,1010405023726,新規,0,2024-10-29,2024-10-29,一般社団法人ＭＫ常陸ソーラーパーク,,その他の設立登記法人,東京都,港区,愛宕１丁目６番８号,,13,103,1050002,,,,,,,2024-10-29,1,,,,,エムケイヒタチソーラーパーク,0
27,1010503007614,新規,0,2024-10-29,2024-10-29,合同会社ハッピーマネジメント,,合同会社,東京都,台東区,千束３丁目８－６リストレジデンス浅草国際通り２０１号室,,13,106,1110031,,,,,,,2024-10-29,1,,,,,ハッピーマネジメント,0
32,1010603011169,新規,0,2024-10-29,2024-10-29,合同会社ＡＯｉ,,合同会社,東京都,墨田区,緑２丁目１５―１１―１００４,,13,107,1300021,,,,,,,2024-10-29,1,,,,,アオイ,0
38,1010901056205,新規,0,2024-10-29,2024-10-29,株式会社ＳＰＡＣＥ　ＳＹＮＤＲＯＭＥ,,株式会社,東京都,世田谷区,代沢５丁目３４番１５号,,13,112,1550032,,,,,,,2024-10-29,1,,,,,スペースシンドローム,0
45,1011001165400,新規,0,2024-10-29,2024-10-29,株式会社Ｇｌｕｏｎｅ．,,株式会社,東京都,渋谷区,渋谷２丁目１９－１５宮益坂ビルディング６０９,,13,113,1500002,,,,,,,2024-10-29,1,,,,,グルーワン,0
46,1011001165417,新規,0,2024-10-29,2024-10-29,ＦＦＦ株式会社,,株式会社,東京都,渋谷区,桜丘町２９番１６－７０１号セルフィスタ渋谷,,13,113,1500031,,,,,,,2024-10-29,1,,,,,エフエフエフ,0
48,1011003020322,新規,0,2024-10-29,2024-10-29,ＤａＤａ合同会社,,合同会社,東京都,渋谷区,道玄坂１丁目１０番８号渋谷道玄坂東急ビル２Ｆ‐Ｃ,,13,113,1500043,,,,,,,2024-10-29,1,,,,,ダダ,0
50,1011101109232,新規,0,2024-10-29,2024-10-29,株式会社ＯｍｎｉＸ,,株式会社,東京都,新宿区,西新宿３丁目２－７ＫＤＸ新宿ビル６Ｆ,,13,104,1600023,,,,,,,2024-10-29,1,,,,,オムニックス,0
51,1011101109323,新規,0,2024-10-29,2024-10-29,ＧｏＣａｎ株式会社,,株式会社,東京都,新宿区,百人町２丁目２６番地８号加瀬ビル８Ｆ,,13,104,1690073,,,,,,,2024-10-29,1,,,,,ゴーキャン,0
52,1011101109331,新規,0,2024-10-29,2024-10-29,株式会社Ｅｖｅｒｙ　ＷｉＬＬ,,株式会社,東京都,新宿区,西早稲田１丁目２２番３号,,13,104,1690051,,,,,,,2024-10-29,1,,,,,エブリウィル,0
54,1011401026532,新規,0,2024-10-29,2024-10-29,Ｍｏｎｅｔ株式会社,,株式会社,東京都,板橋区,仲宿６３－７ＯＥＯｆｆｉｃｅＢｌｄｇ．４０８号,,13,119,1730005,,,,,,,2024-10-29,1,,,,,モネ,0
55,1011503006275,新規,0,2024-10-29,2024-10-29,ＡＲＡＴＡ合同会社,,合同会社,東京都,荒川区,東尾久１丁目４－１２,,13,118,1160012,,,,,,,2024-10-29,1,,,,,アラタ,0
67,1012801023532,新規,0,2024-10-29,2024-10-29,株式会社礫内装興業,,株式会社,東京都,武蔵村山市,中央２丁目２４番地の６,,13,223,2080003,,,,,,,2024-10-29,1,,,,,レキナイソウコウギョウ,0
68,1012803003540,新規,0,2024-10-29,2024-10-29,合同会社ＮＥＯ　ＧＥＯ,,合同会社,東京都,国分寺市,西元町２丁目１５番３２号,,13,214,1850023,,,,,,,2024-10-29,1,,,,,ネオゲオ,0
73,1013301053276,新規,0,2024-10-29,2024-10-29,株式会社ＷＯＲＫＨＡＲＤ,,株式会社,東京都,豊島区,池袋本町４丁目３４番４号ＳＴ池袋本町３０２号,,13,116,1700011,,,,,,,2024-10-29,1,,,,,ワークハード,0
74,1013303007362,新規,0,2024-10-29,2024-10-29,ＩＣＨＩＹＯＵ　ＪＡＰＡＮ合同会社,,合同会社,東京都,豊島区,南長崎４丁目３番４号,,13,116,1710052,,,,,,,2024-10-29,1,,,,,イチヨウジャパン,0
79,1020001159535,新規,0,2024-10-29,2024-10-29,株式会社Ｇ．２４,,株式会社,神奈川県,横浜市鶴見区,鶴見中央４丁目２４番１４号５Ｆ,,14,101,2300051,,,,,,,2024-10-29,1,,,,,ジートゥエンティーフォー,0
80,1020001159782,新規,0,2024-10-29,2024-10-29,株式会社Ｓａｉ,,株式会社,神奈川県,横浜市青葉区,若草台１番地２０,,14,117,2270045,,,,,,,2024-10-29,1,,,,,サイ,0
81,1020001159824,新規,0,2024-10-29,2024-10-29,ノムラアートワークス株式会社,,株式会社,神奈川県,川崎市中原区,上小田中６丁目５２－５－２,,14,133,2110053,,,,,,,2024-10-29,1,,,,,ノムラアートワークス,0
82,1020003027120,新規,0,2024-10-29,2024-10-29,Ｍａｙ　Ｓｕ　Ｎａｉｎｇ合同会社,,合同会社,神奈川県,横浜市保土ケ谷区,岩井町５４番地,,14,106,2400023,,,,,,,2024-10-29,1,,,,,メイスナイン,0
86,1021001083485,新規,0,2024-10-29,2024-10-29,株式会社Ｕｎｔｉｅｄ　ｊｐ,,株式会社,神奈川県,茅ヶ崎市,菱沼海岸４－３０,,14,207,2530037,,,,,,,2024-10-29,1,,,,,アンタイドジャパン,0
87,1021001083592,新規,0,2024-10-29,2024-10-29,楽企株式会社,,株式会社,神奈川県,秦野市,南矢名２２２３番地の４東海ビル１０５Ｂ,,14,211,2570003,,,,,,,2024-10-29,1,,,,,ラクキ,0
89,1021005013208,新規,0,2024-10-29,2024-10-29,一般社団法人レゾライン,,その他の設立登記法人,神奈川県,相模原市南区,大野台３丁目２５番１９号エンプレスビル２Ｆ,,14,153,2520331,,,,,,,2024-10-29,1,,,,,レゾライン,0
94,1030001163164,新規,0,2024-10-29,2024-10-29,株式会社グロースナビ,,株式会社,埼玉県,さいたま市南区,別所５丁目１５番地２,,11,108,3360021,,,,,,,2024-10-29,1,,,,,グロースナビ,0
99,1030005021913,新規,0,2024-10-29,2024-10-29,あん農事組合法人,,その他の設立登記法人,埼玉県,越谷市,蒲生茜町３４番地２ニックハイム３１２,,11,222,3430843,,,,,,,2024-10-29,1,,,,,アン,0
103,1040001135947,新規,0,2024-10-29,2024-10-29,株式会社ピーチアセットメント,,株式会社,千葉県,佐倉市,王子台１丁目２４番地１０丸石ビルＩＩＩ２０１号室,00136812,12,212,2850837,,,,,,,2024-10-29,1,,,,,ピーチアセットメント,0
106,1040003026070,新規,0,2024-10-29,2024-10-29,合同会社政宗,,合同会社,千葉県,松戸市,南花島３丁目５１番地の１３,,12,207,2710065,,,,,,,2024-10-29,1,,,,,マサムネ,0
107,1050001055616,新規,0,2024-10-29,2024-10-29,株式会社ＨＡＷＡ　ＴＲＡＤＩＮＧ,,株式会社,茨城県,桜川市,堤上３７６番地１,,08,231,3091205,,,,,,,2024-10-29,1,,,,,ハワトレーディング,0
108,1050001055624,新規,0,2024-10-29,2024-10-29,株式会社ＳＳＷ,,株式会社,茨城県,日立市,久慈町１丁目７番１２号,,08,202,3191222,,,,,,,2024-10-29,1,,,,,エスエスダブリュー,0
120,1100003007840,新規,0,2024-10-29,2024-10-29,Ｉｎｓｐｉｒｅ　Ｌａｂ合同会社,,合同会社,長野県,長野市,大字若槻東条１１９４－１ルミエール三登Ｅ－１０２,,20,201,3810084,,,,,,,2024-10-29,1,,,,,インスパイアラボ,0
133,1120001269761,新規,0,2024-10-29,2024-10-29,家合投資株式会社,,株式会社,大阪府,大阪市浪速区,下寺２丁目４番１２号エスケイビル３０１号室,,27,111,5560001,,,,,,,2024-10-29,1,,,,,カゴウトウシ,0
134,1120001269778,新規,0,2024-10-29,2024-10-29,楹株式会社,,株式会社,大阪府,大阪市住吉区,長居西１丁目１２番２８号,,27,120,5580002,,,,,,,2024-10-29,1,,,,,ハシラ,0
135,1120001269803,新規,0,2024-10-29,2024-10-29,三洋化学工業株式会社,,株式会社,大阪府,大阪市北区,長柄西１丁目２番２５号,,27,127,5310061,,,,,,,2024-10-29,1,,,,,サンヨウカガクコウギョウ,0
142,1120005024592,新規,0,2024-10-29,2024-10-29,一般社団法人関西あんしん共済,,その他の設立登記法人,大阪府,大阪市西区,西本町１丁目９番１４号５Ｆ,,27,106,5500005,,,,,,,2024-10-29,1,,,,,カンサイアンシンキョウサイ,0
146,1120101070490,新規,0,2024-10-29,2024-10-29,株式会社ＫＤＣラボ,,株式会社,大阪府,大阪狭山市,金剛２丁目３番３８号,,27,231,5890006,,,,,,,2024-10-29,1,,,,,ケーディーシーラボ,0
153,1122003003025,新規,0,2024-10-29,2024-10-29,合同会社ミカサ,,合同会社,大阪府,柏原市,法善寺２丁目１番８号,,27,221,5820005,,,,,,,2024-10-29,1,,,,,ミカサ,0
160,1130001078220,新規,0,2024-10-29,2024-10-29,株式会社昌,,株式会社,京都府,京都市下京区,堀川富永町６９２番地,,26,106,6000000,,,,,,,2024-10-29,1,,,,,マサ,0
161,1130001078237,新規,0,2024-10-29,2024-10-29,株式会社吉田建設,00136799,株式会社,京都府,宇治市,炭山久田６７－１,,26,204,6011395,,,,,,,2024-10-29,1,,,,,ヨシダケンセツ,0
167,1140001136241,新規,0,2024-10-29,2024-10-29,ＩＴ企画株式会社,,株式会社,兵庫県,尼崎市,七松町３丁目２番１４号,,28,202,6600052,,,,,,,2024-10-29,1,,,,,アイティキカク,0
168,1140001136258,新規,0,2024-10-29,2024-10-29,ＯＫＫ株式会社,,株式会社,兵庫県,神戸市中央区,磯辺通１丁目１番１８号カサベラ国際プラザビル７０７号室,,28,110,6510084,,,,,,,2024-10-29,1,,,,,オーケーケー,0
169,1140003021243,新規,0,2024-10-29,2024-10-29,合同会社Ｐｏｎｏ,,合同会社,兵庫県,西宮市,北六甲台１丁目１５番４号,,28,204,6511413,,,,,,,2024-10-29,1,,,,,ポノ,0
172,1140005027247,新規,0,2024-10-29,2024-10-29,一般社団法人Ｏｎｅ’Ｓ,,その他の設立登記法人,兵庫県,宝塚市,武庫川町３番１５号,,28,214,6650844,,,,,,,2024-10-29,1,,,,,ワンズ,0
185,1180001163703,新規,0,2024-10-29,2024-10-29,今一株式会社,,株式会社,愛知県,弥富市,五明２丁目６８番地,,23,235,4980014,,,,,,,2024-10-29,1,,,,,キンイー,0
186,1180001163810,新規,0,2024-10-29,2024-10-29,株式会社円綱,,株式会社,愛知県,名古屋市天白区,荒池１丁目８１６番地（フレグランス荒池０１０３号）,,23,116,4680013,,,,,,,2024-10-29,1,,,,,エンツナ,0
187,1180001163819,新規,0,2024-10-29,2024-10-29,株式会社グロース,,株式会社,愛知県,名古屋市東区,泉２丁目１５番６号,,23,102,4610001,,,,,,,2024-10-29,1,,,,,グロース,0
188,1180001163892,新規,0,2024-10-29,2024-10-29,株式会社シバマツヤ,,株式会社,愛知県,名古屋市緑区,桃山４丁目１２３番地桃山ビル２Ａ,,23,114,4580002,,,,,,,2024-10-29,1,,,,,シバマツヤ,0
191,1180003027534,新規,0,2024-10-29,2024-10-29,合同会社みんなのみかた,,合同会社,愛知県,名古屋市千種区,鹿子町６丁目５番地の１０,,23,101,4640033,,,,,,,2024-10-29,1,,,,,ミンナノミカタ,0
192,1180005020818,新規,0,2024-10-29,2024-10-29,特定非営利活動法人愛知県野球協議会,,その他の設立登記法人,愛知県,名古屋市中区,栄１丁目３番３号朝日会館２階愛知県高等学校野球連盟内,,23,106,4600008,,,,,,,2024-10-29,1,,,,,アイチケンヤキュウキョウギカイ,0
203,1200001043076,新規,0,2024-10-29,2024-10-29,アクシス・ムンディ株式会社,,株式会社,岐阜県,大垣市,新長沢町１丁目２５番地６,,21,202,5030831,,,,,,,2024-10-29,1,,,,,アクシスムンディ,0
204,1200001043084,新規,0,2024-10-29,2024-10-29,株式会社ポップスターブルワリー,,株式会社,岐阜県,各務原市,那加東亜町１０６番地,,21,213,5040022,,,,,,,2024-10-29,1,,,,,ポップスターブルワリー,0
208,1220001026293,新規,0,2024-10-29,2024-10-29,ダイアプラスエンタテイメント株式会社,,株式会社,石川県,野々市市,三日市３丁目３６６番地,,17,212,9218806,,,,,,,2024-10-29,1,,,,,ダイアプラスエンタテイメント,0
211,1230003002325,新規,0,2024-10-29,2024-10-29,合同会社ｂｏｒａ,,合同会社,富山県,富山市,町村１丁目１６４番地７,,16,201,9300952,,,,,,,2024-10-29,1,,,,,ボラ,0
214,1250001020863,新規,0,2024-10-29,2024-10-29,株式会社Ｒ,,株式会社,山口県,萩市,大字御許町９２番地１,,35,204,7580042,,,,,,,2024-10-29,1,,,,,アール,0
218,1260001039572,新規,0,2024-10-29,2024-10-29,竹口工業株式会社,,株式会社,岡山県,笠岡市,横島１８６６番地,,33,205,7140043,,,,,,,2024-10-29,1,,,,,タケグチコウギョウ,0
219,1260001039580,新規,0,2024-10-29,2024-10-29,株式会社ビリーダラック,,株式会社,岡山県,備前市,鶴海３７０９番地２２,,33,211,7050025,,,,,,,2024-10-29,1,,,,,ビリーダラック,0
221,1290001107780,新規,0,2024-10-29,2024-10-29,ドクター介護株式会社,,株式会社,福岡県,福岡市博多区,博多駅前１丁目２３番２号５Ｆ－Ｂ,,40,132,8120011,,,,,,,2024-10-29,1,,,,,ドクターカイゴ,0
229,1320005010192,新規,0,2024-10-29,2024-10-29,一般社団法人竹田プレスセンター会,,その他の設立登記法人,大分県,竹田市,大字吉田３８７番地６,,44,208,8780035,,,,,,,2024-10-29,1,,,,,タケタプレスセンターカイ,0
232,1330001032586,新規,0,2024-10-29,2024-10-29,株式会社５Ｃ,,株式会社,熊本県,阿蘇郡西原村,大字小森１８０１－９－３,,43,432,8612402,,,,,,,2024-10-29,1,,,,,ファイブシー,0
233,1330003010615,新規,0,2024-10-29,2024-10-29,合同会社未来のとびら,,合同会社,熊本県,熊本市東区,東町３丁目１１番５０号,,43,102,8620901,,,,,,,2024-10-29,1,,,,,ミライノトビラ,0
235,1340001026884,新規,0,2024-10-29,2024-10-29,株式会社ＦｕｓｉｏｎＷｏｒｋｓ,,株式会社,鹿児島県,大島郡和泊町,大字国頭１６３３番地１,,46,533,8919101,,,,,,,2024-10-29,1,,,,,ヒュージョンワークス,0
236,1340003004640,新規,0,2024-10-29,2024-10-29,合同会社Ａｒｂｒｅ　ｇｅｎｅａｌｏｇｉｑｕｅ,,合同会社,鹿児島県,霧島市,溝辺町麓２丁目５２番地,,46,218,8996404,,,,,,,2024-10-29,1,,,,,アルブルジェネアロジック,0
238,1350001019251,新規,0,2024-10-29,2024-10-29,株式会社ＣＨＥＲＩＳＨ,,株式会社,宮崎県,都城市,郡元町３２６０番地１７３,,45,202,8850013,,,,,,,2024-10-29,1,,,,,チェリッシュ,0
239,1350003004771,新規,0,2024-10-29,2024-10-29,合同会社凛,,合同会社,宮崎県,宮崎市,佐土原町下田島１０４６９番地１,,45,201,8800211,,,,,,,2024-10-29,1,,,,,リン,0
241,1360001034365,新規,0,2024-10-29,2024-10-29,株式会社沖喜ランド,,株式会社,沖縄県,宜野湾市,伊佐２丁目３番５－２号,,47,205,9012221,,,,,,,2024-10-29,1,,,,,オキランド,0
244,1370001051863,新規,0,2024-10-29,2024-10-29,株式会社Ｇｒｏｗ,,株式会社,宮城県,栗原市,栗駒稲屋敷百目木前４０番地２,,04,213,9895341,,,,,,,2024-10-29,1,,,,,グロー,0
247,1380001034867,新規,0,2024-10-29,2024-10-29,株式会社Ｒｅｏｎｅ,,株式会社,福島県,郡山市,菜根３丁目１６番１号岩堀ビル２０２号,,07,203,9638862,,,,,,,2024-10-29,1,,,,,レオーネ,0
253,1400001016838,新規,0,2024-10-29,2024-10-29,株式会社Ｍ’ｓ　Ｒｅｎｏｖａｔｉｏｎ,,株式会社,岩手県,北上市,黒沢尻３丁目１番１３号,,03,206,0240022,,,,,,,2024-10-29,1,,,,,エムズリノベーション,0
256,1410001013974,新規,0,2024-10-29,2024-10-29,株式会社Ｒｉｔａｃｔ,,株式会社,秋田県,横手市,梅の木町１４番１４号,,05,203,0130068,,,,,,,2024-10-29,1,,,,,リタクト,0
258,1420001018907,新規,0,2024-10-29,2024-10-29,今日和ホールディングス株式会社,,株式会社,青森県,青森市,新田２丁目４番８号,,02,201,0380001,,,,,,,2024-10-29,1,,,,,キョウワホールディングス,0
262,1430001092934,新規,0,2024-10-29,2024-10-29,北翔コーポレーション株式会社,,株式会社,北海道,苫小牧市,柳町１丁目１番８号,,01,213,0530053,,,,,,,2024-10-29,1,,,,,ホクショウコーポレーション,0
268,1470001020437,新規,0,2024-10-29,2024-10-29,株式会社ＦＣ,,株式会社,香川県,高松市,六条町９４６番地３,,37,201,7610303,,,,,,,2024-10-29,1,,,,,エフシー,0
269,1500001025969,新規,0,2024-10-29,2024-10-29,隅野株式会社,,株式会社,愛媛県,松山市,西長戸町１０１番地７,,38,201,7918017,,,,,,,2024-10-29,1,,,,,スミノ,0
272,1500003003353,新規,0,2024-10-29,2024-10-29,ＲＩＧＨＴ　ＳＴＵＦＦ合同会社,,合同会社,愛媛県,越智郡上島町,岩城４４２１番地,,38,356,7942410,,,,,,,2024-10-29,1,,,,,ライトスタッフ,0
273,1700150127629,新規,0,2024-10-29,2024-10-29,Ｅｄｅｎ　Ｆｕｔｕｒｅ　ＨＫ　Ｌｉｍｉｔｅｄ,,外国会社等,,,,,,,,ＦＬＡＴ／ＲＭ　０５　１２／Ｆ　Ｔｈｅ　Ｌ　Ｐｌａｚａ，３６７－３７５，Ｑｕｅｅｎ’ｓ　Ｒｏａｄ　Ｃｅｎｔｒａｌ　Ｓｈｅｕｎｇ　Ｗａｎ　ＨＫ,,,,,,2024-10-29,1,,,,,エデンフューチャーホンコンリミテッド,0
285,2010003045304,新規,0,2024-10-29,2024-10-29,美蒂可合同会社,,合同会社,東京都,文京区,大塚３丁目７番８号２０２室,,13,105,1120012,,,,,,,2024-10-29,1,,,,,メディコ,0
293,2010401185346,新規,0,2024-10-29,2024-10-29,株式会社ネクサス,,株式会社,東京都,港区,白金台２丁目９番２－８０１号,,13,103,1080071,,,,,,,2024-10-29,1,,,,,ネクサス,0
294,2010401186022,新規,0,2024-10-29,2024-10-29,株式会社ｆｉｔ,,株式会社,東京都,港区,赤坂３丁目９番５号マーブル赤坂４階,,13,103,1070052,,,,,,,2024-10-29,1,,,,,フィット,0
295,2010401186063,新規,0,2024-10-29,2024-10-29,Ｗｏｒｌｄ　Ｔｒａｄｅ　Ｃｅｎｔｅｒ　Ｔｏｋｙｏ株式会社,,株式会社,東京都,港区,六本木１丁目８番７号ＭＦＰＲ六本木麻布台ビル１１階,,13,103,1060032,,,,,,,2024-10-29,1,,,,,ワールドトレードセンタートウキョウ,0
297,2010405023733,新規,0,2024-10-29,2024-10-29,ＰＤＧ　Ｊａｐａｎ　Ａｌｐｈａ一般社団法人,,その他の設立登記法人,東京都,港区,虎ノ門３丁目２２番１０－２０１号,,13,103,1050001,,,,,,,2024-10-29,1,,,,,ピーディージージャパンアルファ,0
298,2010501053097,新規,0,2024-10-29,2024-10-29,株式会社ヴェネツィア,,株式会社,東京都,台東区,浅草橋５丁目２番３号鈴和ビル２Ｆ,,13,106,1110053,,,,,,,2024-10-29,1,,,,,ヴェネツィア,0
305,2010801035522,新規,0,2024-10-29,2024-10-29,株式会社ＢＥＵＹＳ,,株式会社,東京都,大田区,南馬込５丁目１９番２１号グランベルデ馬込坂２０２,,13,111,1430025,,,,,,,2024-10-29,1,,,,,ボイス,0
307,2010901056212,新規,0,2024-10-29,2024-10-29,株式会社道具箱,,株式会社,東京都,世田谷区,給田４丁目２０番２３号,,13,112,1570064,,,,,,,2024-10-29,1,,,,,ドウグバコ,0
308,2010903009449,新規,0,2024-10-29,2024-10-29,合同会社嵐,,合同会社,東京都,世田谷区,松原３丁目２９番１９号鈴木ビル４階,,13,112,1560043,,,,,,,2024-10-29,1,,,,,アラシ,0
317,2011005010717,新規,0,2024-10-29,2024-10-29,一般社団法人日本家訓検定協会,,その他の設立登記法人,東京都,渋谷区,道玄坂１丁目１０番８号渋谷道玄坂東急ビル２Ｆ－Ｃ,,13,113,1500043,,,,,,,2024-10-29,1,,,,,ニホンカクンケンテイキョウカイ,0
325,2011103015114,新規,0,2024-10-29,2024-10-29,紫陽花合同会社,,合同会社,東京都,新宿区,歌舞伎町２丁目２２番１３号,,13,104,1600021,,,,,,,2024-10-29,1,,,,,アジサイ,0
329,2011301030096,新規,0,2024-10-29,2024-10-29,株式会社Ｌｉｆｅウィズ,,株式会社,東京都,杉並区,西荻南２丁目１７番１４号,,13,115,1670053,,,,,,,2024-10-29,1,,,,,ライフウィズ,0
333,2011501031308,新規,0,2024-10-29,2024-10-29,天晴社株式会社,,株式会社,東京都,荒川区,南千住３丁目２７－２浅草ビル５０８,,13,118,1160003,,,,,,,2024-10-29,1,,,,,テンセイシャ,0
337,2011801045065,新規,0,2024-10-29,2024-10-29,株式会社マテリアル,,株式会社,東京都,足立区,扇１丁目２９－１９,,13,121,1230873,,,,,,,2024-10-29,1,,,,,マテリアル,0
342,2012701018524,新規,0,2024-10-29,2024-10-29,ナチュラルクリエーション株式会社,,株式会社,東京都,東久留米市,下里５丁目８番６号,,13,222,2030043,,,,,,,2024-10-29,1,,,,,ナチュラルクリエーション,0
347,2013301053283,新規,0,2024-10-29,2024-10-29,株式会社Ｒａｙ＆Ｃｏ．,,株式会社,東京都,豊島区,目白４丁目１－１３－１０５,,13,116,1710031,,,,,,,2024-10-29,1,,,,,レイアンドカンパニー,0
354,2020001159757,新規,0,2024-10-29,2024-10-29,株式会社松建工,,株式会社,神奈川県,横浜市南区,永楽町１丁目９番地１ランドステージ横濱関内２０５号室,,14,105,2320031,,,,,,,2024-10-29,1,,,,,マツケンコウ,0
355,2020001159831,新規,0,2024-10-29,2024-10-29,株式会社Ｍ,,株式会社,神奈川県,横浜市保土ケ谷区,岩井町２９１番地２,,14,106,2400023,,,,,,,2024-10-29,1,,,,,エム,0
366,2021001083591,新規,0,2024-10-29,2024-10-29,禧福株式会社,,株式会社,神奈川県,秦野市,南矢名２２２３番地の４東海ビル１１０Ｂ,,14,211,2570003,,,,,,,2024-10-29,1,,,,,キフク,0
367,2021001083633,新規,0,2024-10-29,2024-10-29,株式会社サガミ空圧,,株式会社,神奈川県,相模原市中央区,田名７１８５番地,,14,152,2520244,,,,,,,2024-10-29,1,,,,,サガミクウアツ,0
368,2021003015155,新規,0,2024-10-29,2024-10-29,エルネスト・コンサルティング合同会社,,合同会社,神奈川県,三浦市,三崎町小網代１５５７番地１,,14,210,2380225,,,,,,,2024-10-29,1,,,,,エルネストコンサルティング,0
375,2030005021912,新規,0,2024-10-29,2024-10-29,農事組合法人まつファーム,,その他の設立登記法人,埼玉県,越谷市,蒲生茜町３４番地２ニックハイム３１２,,11,222,3430843,,,,,,,2024-10-29,1,,,,,マツファーム,0
383,2050001055615,新規,0,2024-10-29,2024-10-29,株式会社ＳｕｎＳａｉｌ,,株式会社,茨城県,龍ケ崎市,羽黒町８８番地,,08,208,3010023,,,,,,,2024-10-29,1,,,,,サンセイル,0
384,2050001055623,新規,0,2024-10-29,2024-10-29,株式会社はせがわ・さくら,,株式会社,茨城県,かすみがうら市,宍倉５６８４番地１,,08,230,3000121,,,,,,,2024-10-29,1,,,,,ハセガワサクラ,0
385,2050001055631,新規,0,2024-10-29,2024-10-29,株式会社Ｒ＆Ｍ,,株式会社,茨城県,東茨城郡茨城町,桜の郷５００番地１１,,08,302,3113117,,,,,,,2024-10-29,1,,,,,アールアンドエム,0
388,2050005013511,新規,0,2024-10-29,2024-10-29,一般社団法人みと音楽工房,,その他の設立登記法人,茨城県,水戸市,千波町５９０番地の１,,08,201,3100851,,,,,,,2024-10-29,1,,,,,ミトオンガクコウボウ,0
395,2100001037954,新規,0,2024-10-29,2024-10-29,株式会社ａｔｔａ,,株式会社,長野県,小諸市,赤坂１丁目１７番４号,,20,208,3840011,,,,,,,2024-10-29,1,,,,,アッタ,0
411,2120001269703,新規,0,2024-10-29,2024-10-29,ケイズインターナショナル株式会社,,株式会社,大阪府,門真市,舟田町１１番１２号,,27,223,5710021,,,,,,,2024-10-29,1,,,,,ケイズインターナショナル,0
412,2120001269752,新規,0,2024-10-29,2024-10-29,株式会社ＩＣ不動産,,株式会社,大阪府,大阪市住吉区,長居東２丁目２番４号ＹＳビル３階,,27,120,5580004,,,,,,,2024-10-29,1,,,,,アイシーフドウサン,0
413,2120001269760,新規,0,2024-10-29,2024-10-29,株式会社ネクスト,,株式会社,大阪府,大阪市中央区,高津３丁目１４番１１号シエリアタワーなんば７０２,,27,128,5420072,,,,,,,2024-10-29,1,,,,,ネクスト,0
414,2120001269802,新規,0,2024-10-29,2024-10-29,株式会社Ｓｈｅｌｂｙ,,株式会社,大阪府,大阪市都島区,都島南通２丁目９番２１－１２０５号,,27,102,5340023,,,,,,,2024-10-29,1,,,,,シェルビー,0
418,2120101070473,新規,0,2024-10-29,2024-10-29,株式会社太田配管,,株式会社,大阪府,松原市,天美南１丁目３４７番地の１２,,27,217,5800033,,,,,,,2024-10-29,1,,,,,オオタハイカン,0
420,2120903005395,新規,0,2024-10-29,2024-10-29,ＦＳＲ合同会社,,合同会社,大阪府,豊中市,柴原町２丁目１１番２１号,,27,203,5600055,,,,,,,2024-10-29,1,,,,,エフエスアール,0
425,2130001078228,新規,0,2024-10-29,2024-10-29,株式会社メニーピローズ,,株式会社,京都府,京都市上京区,御前通下立売上る３丁目西上之町２７７番地１,,26,102,6028361,,,,,,,2024-10-29,1,,,,,メニーピローズ,0
427,2140001136199,新規,0,2024-10-29,2024-10-29,株式会社ハイマート佐仲,,株式会社,兵庫県,丹波篠山市,小坂４５９番地３,,28,221,6692731,,,,,,,2024-10-29,1,,,,,ハイマートサナカ,0
430,2140003021234,新規,0,2024-10-29,2024-10-29,スマートコンサルティング合同会社,,合同会社,兵庫県,西宮市,久出ケ谷町３番１３号,,28,204,6620077,,,,,,,2024-10-29,1,,,,,スマートコンサルティング,0
431,2140005027246,新規,0,2024-10-29,2024-10-29,一般社団法人兵庫立志教育支援プロジェクト,,その他の設立登記法人,兵庫県,姫路市,東山５２４番地,,28,201,6728014,,,,,,,2024-10-29,1,,,,,ヒョウゴリッシキョウイクシエンプロジェクト,0
441,2180001163735,新規,0,2024-10-29,2024-10-29,株式会社電商グループホールディングス,,株式会社,愛知県,瀬戸市,美濃池町１５番地３,,23,204,4890932,,,,,,,2024-10-29,1,,,,,デンショウグループホールディングス,0
446,2200001043083,新規,0,2024-10-29,2024-10-29,株式会社Ｖａｓｃｕｌａｒ　Ｗｏｒｋｓ,,株式会社,岐阜県,岐阜市,加納矢場町１丁目４７番地９,,21,201,5008273,,,,,,,2024-10-29,1,,,,,バスキュラーワークス,0
447,2200003006559,新規,0,2024-10-29,2024-10-29,合同会社軸,,合同会社,岐阜県,岐阜市,芥見野畑２丁目１２６番地５,,21,201,5013145,,,,,,,2024-10-29,1,,,,,ジク,0
450,2220005008898,新規,0,2024-10-29,2024-10-29,エバーグリーン犀川管理組合法人,,その他の設立登記法人,石川県,金沢市,清川町４番１０号,,17,201,9218032,,,,,,,2024-10-29,1,,,,,エバーグリーンサイガワ,0
459,2260003004945,新規,0,2024-10-29,2024-10-29,俊和合同会社,,合同会社,岡山県,岡山市北区,島田本町２丁目２番９号Ｖｉｅｌｉｂｒｅ４０２号室,,33,101,7000033,,,,,,,2024-10-29,1,,,,,シュンワ,0
461,2270001009078,新規,0,2024-10-29,2024-10-29,株式会社ＡＪ　ＬＯＯＫ,,株式会社,鳥取県,米子市,新開６丁目１番４８号,,31,202,6830801,,,,,,,2024-10-29,1,,,,,エージェールック,0
474,2310001019287,新規,0,2024-10-29,2024-10-29,株式会社Ｌｕｃｅ,,株式会社,長崎県,長崎市,油木町１３番３号２０２,,42,201,8528035,,,,,,,2024-10-29,1,,,,,ルーチェ,0
476,2320001020780,新規,0,2024-10-29,2024-10-29,株式会社日豊陸送,,株式会社,大分県,大分市,大字三佐２３０６番地の１３,,44,201,8700108,,,,,,,2024-10-29,1,,,,,ニッポウリクソウ,0
478,2330001032585,新規,0,2024-10-29,2024-10-29,株式会社綾織,,株式会社,熊本県,八代市,松崎町７７４番地８,,43,202,8660884,,,,,,,2024-10-29,1,,,,,アヤオリ,0
487,2380001034866,新規,0,2024-10-29,2024-10-29,株式会社エフダイニング,,株式会社,福島県,いわき市,四倉町上仁井田字鰻沼７‐２,,07,204,9790202,,,,,,,2024-10-29,1,,,,,エフダイニング,0
497,2430001092958,新規,0,2024-10-29,2024-10-29,株式会社ＨＩＴＯＹＯＮＩ,,株式会社,北海道,空知郡上砂川町,字鶉３４番地１２,,01,425,0730212,,,,,,,2024-10-29,1,,,,,ヒトヨニ,0
501,2430005015097,新規,0,2024-10-29,2024-10-29,一般社団法人北生医療福祉会,,その他の設立登記法人,北海道,札幌市白石区,南郷通８丁目南３番２９号,,01,104,0030022,,,,,,,2024-10-29,1,,,,,ホクセイイリョウフクシカイ,0
507,2700150127628,新規,0,2024-10-29,2024-10-29,ｗｕｈａｎｊｉｎｇｃｈｅｎｍａｏｙｉｙｏｕｘｉａｎｚｅｒｅｎｇｏｎｇｓｉ,,外国会社等,,,,,,,,ｈｏｎｇｓｈａｎｊｉｅ　ｙｅｚｈｉｈｕｘｉｌｕ１６ｈａｏ　ｗｕｈａｎｃｈｕａｎｇｙｉｔｉａｎｄｉｓａｎｑｉ　ｃｈｕａｎｇｙｉｇｏｎｇｆａｎｇ５ｈａｏｌｏｕ３ｃｅｎｇ２ｈａｏ２０２　ｈｏｎｇｓｈａｎｑｕ,,,,,,2024-10-29,1,,,,,ウハンジンチェンマオイユウゲンセキニンコウシ,0
508,2700150127636,新規,0,2024-10-29,2024-10-29,ＣｅｍｅＣｏｎ　ＡＧ,,外国会社等,,,,,,,,Ａｄｅｎａｕｅｒｓｔｒ．２０　Ａ４　５２１４６　Ｗｕｒｓｅｌｅｎ　Ｄｅｕｔｓｃｈｌａｎｄ,,,,,,2024-10-29,1,,,,,セメコンエージー,0
522,3010001248980,新規,0,2024-10-29,2024-10-29,株式会社パワープラット,,株式会社,東京都,中央区,新川１丁目１７番２７号,,13,102,1040033,,,,,,,2024-10-29,1,,,,,パワープラット,0
523,3010001249376,新規,0,2024-10-29,2024-10-29,Ｃｉｔｃｏ　Ｊａｐａｎ　Ｃｏ株式会社,,株式会社,東京都,千代田区,丸の内１丁目９番２号グラントウキョウサウスタワー１１階,,13,101,1000005,,,,,,,2024-10-29,1,,,,,シトコジャパンコー,0
524,3010001249384,新規,0,2024-10-29,2024-10-29,株式会社ＦＬＥＸ,,株式会社,東京都,中央区,銀座１丁目１２番４号Ｎ＆ＥＢＬＤ．７階,,13,102,1040061,,,,,,,2024-10-29,1,,,,,フレックス,0
525,3010001249401,新規,0,2024-10-29,2024-10-29,Ａｏｙａｍａ　Ｐａｌａｃｅ　Ｋｉｎｇ株式会社,,株式会社,東京都,中央区,銀座６丁目１０番１号ＧＩＮＺＡＳＩＸ１３Ｆ,,13,102,1040061,,,,,,,2024-10-29,1,,,,,アオヤマパレスキング,0
526,3010001249459,新規,0,2024-10-29,2024-10-29,株式会社カジュアル,,株式会社,東京都,文京区,湯島３丁目３９番１５号２Ａ,,13,105,1130034,,,,,,,2024-10-29,1,,,,,カジュアル,0
527,3010001249475,新規,0,2024-10-29,2024-10-29,株式会社キャンベル,,株式会社,東京都,千代田区,内神田１丁目７－７ルネッサ大手町ビル２階,,13,101,1010047,,,,,,,2024-10-29,1,,,,,キャンベル,0
531,3010003045294,新規,0,2024-10-29,2024-10-29,合同会社ＥＯＥ１,,合同会社,東京都,千代田区,二番町１番地２,,13,101,1020084,,,,,,,2024-10-29,1,,,,,イーオーイーワン,0
532,3010003045336,新規,0,2024-10-29,2024-10-29,合同会社Ｅ２Ｃ,,合同会社,東京都,中央区,銀座１丁目２２番１１号銀座大竹ビジデンス２階,,13,102,1040061,,,,,,,2024-10-29,1,,,,,イーツーシー,0
534,3010005039014,新規,0,2024-10-29,2024-10-29,社会保険労務士法人ウイニング,,その他の設立登記法人,東京都,千代田区,佐久間河岸５１第一スレートビル６階,,13,101,1000000,,,,,,,2024-10-29,1,,,,,ウイニング,0
535,3010005039022,新規,0,2024-10-29,2024-10-29,虎ノ門インベストメント一般社団法人,,その他の設立登記法人,東京都,中央区,京橋２丁目１２番６号ＡＯＪ税理士法人内,,13,102,1040031,,,,,,,2024-10-29,1,,,,,トラノモンインベストメント,0
545,3010401185898,新規,0,2024-10-29,2024-10-29,Ｒ２カンパニー株式会社,,株式会社,東京都,港区,六本木１丁目７番２４－１５０１号,,13,103,1060032,,,,,,,2024-10-29,1,,,,,アールツーカンパニー,0
546,3010401186038,新規,0,2024-10-29,2024-10-29,株式会社ＪＡＰＡＮ　ＬＯＣＡＬＳ,,株式会社,東京都,港区,南青山２丁目２番８号ＤＦビル６０９,,13,103,1070062,,,,,,,2024-10-29,1,,,,,ジャパンローカルズ,0
551,3010403033683,新規,0,2024-10-29,2024-10-29,合同会社ＭＫ常陸ソーラーパーク,,合同会社,東京都,港区,愛宕１丁目６番８号,,13,103,1050002,,,,,,,2024-10-29,1,,,,,エムケイヒタチソーラーパーク,0
560,3010601066196,新規,0,2024-10-29,2024-10-29,株式会社Ｍ．Ｋ　ＦＵＪＩＥＤＡ,,株式会社,東京都,墨田区,緑２丁目３番６号,,13,107,1300021,,,,,,,2024-10-29,1,,,,,エムケーフジエダ,0
567,3011001165357,新規,0,2024-10-29,2024-10-29,トラクショングループ株式会社,,株式会社,東京都,渋谷区,代々木２丁目２７－１８－４０４,,13,113,1510053,,,,,,,2024-10-29,1,,,,,トラクショングループ,0
568,3011001165423,新規,0,2024-10-29,2024-10-29,株式会社ｄｉｇｍｅｅ,,株式会社,東京都,渋谷区,道玄坂１丁目１０番８号渋谷道玄坂東急ビル２Ｆ－Ｃ,,13,113,1500043,,,,,,,2024-10-29,1,,,,,ディグミー,0
569,3011001165448,新規,0,2024-10-29,2024-10-29,株式会社ＧＥＮＳＥＮ　ＬＩＦＥ,,株式会社,東京都,渋谷区,神宮前２丁目２４番４号ウエストサイド原宿１０３,,13,113,1500001,,,,,,,2024-10-29,1,,,,,ゲンセンライフ,0
570,3011001165662,新規,0,2024-10-29,2024-10-29,株式会社Ｂｅ　Ｏｗｎｅｒ,,株式会社,東京都,渋谷区,道玄坂１丁目１０番８号渋谷道玄坂東急ビル２Ｆ‐Ｃ,,13,113,1500043,,,,,,,2024-10-29,1,,,,,ビーオーナー,0
573,3011101109338,新規,0,2024-10-29,2024-10-29,株式会社Ｂｅａｕｔｙ　ｘ　Ｂｅａｕｔｙ,,株式会社,東京都,新宿区,西新宿３丁目３番１３号西新宿水間ビル６階,,13,104,1600023,,,,,,,2024-10-29,1,,,,,ビューティービューティー,0
574,3011101109354,新規,0,2024-10-29,2024-10-29,ビライフ株式会社,,株式会社,東京都,新宿区,西新宿３丁目９番７号フロンティア新宿タワーオフィス２１５,,13,104,1600023,,,,,,,2024-10-29,1,,,,,ビライフ,0
575,3011101109370,新規,0,2024-10-29,2024-10-29,グロースクエスト株式会社,,株式会社,東京都,新宿区,早稲田鶴巻町５３８番地１９平成ビル４階,,13,104,1620041,,,,,,,2024-10-29,1,,,,,グロースクエスト,0
578,3011401026514,新規,0,2024-10-29,2024-10-29,株式会社ＧＴ‐Ｓｅｒｖｉｃｅ,,株式会社,東京都,板橋区,南常盤台１丁目１１番６号,,13,119,1740072,,,,,,,2024-10-29,1,,,,,ジーティーサービス,0
580,3011501031307,新規,0,2024-10-29,2024-10-29,豊富株式会社,,株式会社,東京都,荒川区,南千住３丁目２７－２浅草ビル５０８,,13,118,1160003,,,,,,,2024-10-29,1,,,,,トヨトミ,0
584,3011701027749,新規,0,2024-10-29,2024-10-29,ＢＥＧＩＭ株式会社,,株式会社,東京都,江戸川区,南葛西３丁目２２番１９－８０２号,,13,123,1340085,,,,,,,2024-10-29,1,,,,,ベギム,0
586,3012801023530,新規,0,2024-10-29,2024-10-29,株式会社Ｆｏｒｔ　Ｃｏｎｓｕｌｔｉｎｇ,,株式会社,東京都,日野市,神明３丁目１２番地の４,,13,212,1910016,,,,,,,2024-10-29,1,,,,,フォートコンサルティング,0
588,3012803003539,新規,0,2024-10-29,2024-10-29,合同会社ＦＥＥＸ,,合同会社,東京都,立川市,西砂町３丁目２５番地の５ベルベルデＩ１０３,00136811,13,202,1900034,,,,,,,2024-10-29,1,,,,,,0
598,3020001159772,新規,0,2024-10-29,2024-10-29,株式会社大心,,株式会社,神奈川県,横浜市西区,北幸２丁目１０番４８号むつみビル３階,,14,103,2200004,,,,,,,2024-10-29,1,,,,,,0
603,3020003027151,新規,0,2024-10-29,2024-10-29,ｍｅｇｌｏｗ合同会社,,合同会社,神奈川県,横浜市港北区,大倉山４丁目１９番１２－４０２号,,14,109,2220037,,,,,,,2024-10-29,1,,,,,メグロウ,0
606,3021001083624,新規,0,2024-10-29,2024-10-29,株式会社バシプロ,,株式会社,神奈川県,藤沢市,鵠沼海岸６丁目３番５３号,00136805,14,205,2510037,,,,,,,2024-10-29,1,,,,,バシプロ,0
607,3021001083632,新規,0,2024-10-29,2024-10-29,株式会社ＩＲ建築設計室,,株式会社,神奈川県,藤沢市,湘南台１丁目１６番地の２０湘南台フラワーマンション１０６号,,14,205,2520804,,,,,,,2024-10-29,1,,,,,アイアールケンチクセッケイシツ,0
644,3080405007687,新規,0,2024-10-29,2024-10-29,一般社団法人孔葉会,,その他の設立登記法人,静岡県,浜松市中央区,蜆塚３丁目１番５０号,,22,138,4328018,,,,,,,2024-10-29,1,,,,,コウヨウカイ,0
645,3090001018971,新規,0,2024-10-29,2024-10-29,株式会社オキサイドパワークリスタル,,株式会社,山梨県,北杜市,武川町牧原１７４１番地８,,19,209,4080302,,,,,,,2024-10-29,1,,,,,オキサイドパワークリスタル,0
646,3100003007814,新規,0,2024-10-29,2024-10-29,合同会社Ｓｔｕｄｉｏ　ＬＩＦＥ,,合同会社,長野県,佐久市,佐久平駅北２２－３プロムナード４０６号室,,20,217,3850027,,,,,,,2024-10-29,1,,,,,スタジオライフ,0
647,3100003007839,新規,0,2024-10-29,2024-10-29,Ｓ．Ａ．Ｃ合同会社,,合同会社,長野県,須坂市,墨坂５丁目１７番２号サンパレス小山Ｄ２,,20,207,3820099,,,,,,,2024-10-29,1,,,,,サック,0
664,3120001269784,新規,0,2024-10-29,2024-10-29,株式会社Ｊｏｒｔｅｇａ,,株式会社,大阪府,大阪市北区,梅田１丁目１－３大阪駅前第３ビル２９階１－１－１号室,,27,127,5300001,,,,,,,2024-10-29,1,,,,,ジョルテガ,0
667,3120003027827,新規,0,2024-10-29,2024-10-29,合同会社タケミツ,,合同会社,大阪府,寝屋川市,河北中町２１－２２,,27,215,5720816,,,,,,,2024-10-29,1,,,,,タケミツ,0
669,3120101070480,新規,0,2024-10-29,2024-10-29,ＭＡＭＳ株式会社,,株式会社,大阪府,堺市美原区,丹上４４３番地９,,27,147,5870011,,,,,,,2024-10-29,1,,,,,マムズ,0
670,3120101070489,新規,0,2024-10-29,2024-10-29,株式会社Ｍｅｒｒｙｔｕｔｕ,,株式会社,大阪府,大阪狭山市,池尻中１丁目１８番３３号,,27,231,5890007,,,,,,,2024-10-29,1,,,,,メリーチュチュ,0
675,3120901049963,新規,0,2024-10-29,2024-10-29,株式会社フロアライフ,,株式会社,大阪府,池田市,豊島北２丁目４番６号,,27,204,5630036,,,,,,,2024-10-29,1,,,,,フロアライフ,0
678,3122001038574,新規,0,2024-10-29,2024-10-29,株式会社天都工務店,,株式会社,大阪府,東大阪市,御幸町１番１１号,,27,227,5798057,,,,,,,2024-10-29,1,,,,,テントコウムテン,0
684,3130001078219,新規,0,2024-10-29,2024-10-29,株式会社昌樹,,株式会社,京都府,京都市下京区,堀川富永町６９２番地,,26,106,6000000,,,,,,,2024-10-29,1,,,,,マサキ,0
685,3130001078251,新規,0,2024-10-29,2024-10-29,株式会社美山商事,,株式会社,京都府,南丹市,美山町和泉蛭子４５番地１,,26,213,6010754,,,,,,,2024-10-29,1,,,,,ミヤマショウジ,0
687,3130003009964,新規,0,2024-10-29,2024-10-29,合同会社サンセ,,合同会社,京都府,京都市中京区,西ノ京永本町１４－５９イーグルコート二条駅フロント３０１,,26,104,6048421,,,,,,,2024-10-29,1,,,,,サンセ,0
691,3140001136215,新規,0,2024-10-29,2024-10-29,株式会社ロップ,,株式会社,兵庫県,神戸市長田区,林山町１番地の６７,,28,106,6530861,,,,,,,2024-10-29,1,,,,,ロップ,0
694,3160001026315,新規,0,2024-10-29,2024-10-29,株式会社１０ｙ,,株式会社,滋賀県,彦根市,京町３丁目４－５６,,25,202,5220081,,,,,,,2024-10-29,1,,,,,テンワイ,0
701,3180001163767,新規,0,2024-10-29,2024-10-29,株式会社Ｌｏｃａ,,株式会社,愛知県,名古屋市中区,丸の内２丁目１５番２０号リゾナーレ・丸の内１２０１,,23,106,4600002,,,,,,,2024-10-29,1,,,,,ロカ,0
702,3180001163775,新規,0,2024-10-29,2024-10-29,株式会社ＰＬＵＭ　ＨＥＡＲＴ,,株式会社,愛知県,一宮市,北方町北方字中屋敷郷２５５番地名岐一宮ビル３Ｆ,,23,203,4938001,,,,,,,2024-10-29,1,,,,,プラムハート,0
703,3180001163800,新規,0,2024-10-29,2024-10-29,イズミックス株式会社,,株式会社,愛知県,名古屋市緑区,神の倉４丁目２５５番地,,23,114,4580812,,,,,,,2024-10-29,1,,,,,イズミックス,0
704,3180001163874,新規,0,2024-10-29,2024-10-29,Ｋａｇａｍｉ　Ｆｏｒｃｅ　Ｐｌａｎｎｉｎｇ株式会社,,株式会社,愛知県,名古屋市中村区,名駅５丁目１６番１７号花車ビル南館６階,,23,105,4500002,,,,,,,2024-10-29,1,,,,,カガミフォースプランニング,0
705,3180001163890,新規,0,2024-10-29,2024-10-29,＿＿株式会社,00136802,株式会社,愛知県,名古屋市西区,栄生１丁目３５－４,,23,104,4510052,,,,,,,2024-10-29,1,,,,,シンエン,0
707,3180003027499,新規,0,2024-10-29,2024-10-29,合同会社ｉｎｉｔｉｕｍ,,合同会社,愛知県,名古屋市中村区,宿跡町１丁目１１番地（シティコープ本陣通４０２号）,,23,105,4530067,,,,,,,2024-10-29,1,,,,,イニティウム,0
708,3180003027524,新規,0,2024-10-29,2024-10-29,合同会社ぱらきっと,,合同会社,愛知県,日進市,藤島町長塚７５番地の５８,,23,230,4700102,,,,,,,2024-10-29,1,,,,,パラキット,0
712,3210001019957,新規,0,2024-10-29,2024-10-29,株式会社ＲＩＦＩＸ,,株式会社,福井県,福井市,順化２丁目１３番１７号３０１号室,,18,201,9100023,,,,,,,2024-10-29,1,,,,,リフィックス,0
720,3250001020853,新規,0,2024-10-29,2024-10-29,ＣＨＯＳＨＵ　ＰＶＫ株式会社,,株式会社,山口県,山陽小野田市,大字山野井字新山野井３７４０番地,,35,216,7570003,,,,,,,2024-10-29,1,,,,,チョウシュウピーブイケー,0
724,3260001039570,新規,0,2024-10-29,2024-10-29,株式会社ＪＥＴ,,株式会社,岡山県,岡山市北区,西古松１丁目１１番１５号,,33,101,7000927,,,,,,,2024-10-29,1,,,,,ジェット,0
736,3340001026882,新規,0,2024-10-29,2024-10-29,株式会社ワイズ,,株式会社,鹿児島県,鹿児島市,中央町３５番地３１細山田ビル６０２号,,46,201,8900053,,,,,,,2024-10-29,1,,,,,ワイズ,0
745,3380001034865,新規,0,2024-10-29,2024-10-29,株式会社じけい会,,株式会社,福島県,郡山市,大槻町字普門寺坦北１９番地の５,,07,203,9630201,,,,,,,2024-10-29,1,,,,,ジケイカイ,0
752,3400003003345,新規,0,2024-10-29,2024-10-29,合同会社千田,,合同会社,岩手県,北上市,中野町２丁目２６番３９－１号,,03,206,0240024,,,,,,,2024-10-29,1,,,,,チダ,0
754,3430003016939,新規,0,2024-10-29,2024-10-29,合同会社ＢＩＧ　ＦＵＮ,,合同会社,北海道,虻田郡倶知安町,南四条東７丁目１番地４グレースメゾンＩ１０２号室,00136796,01,400,0440014,,,,,,,2024-10-29,1,,,,,ビッグファン,0
756,3700150127635,新規,0,2024-10-29,2024-10-29,Ｘｉａｍｅｎ　ｌｅｃｕｉ　Ｎｅｔｗｏｒｋ　Ｔｅｃｈｎｏｌｏｇｙ　Ｃｏ．，Ｌｔｄ,,外国会社等,,,,,,,,Ｒｏｏｍ　９０２－２，Ｎｏ．２８　Ｄｏｎｇｐｕ　Ｓａｎｌｉ，Ｓｉｍｉｎｇ　Ｄｉｓｔｒｉｃｔ，Ｘｉａｍｅｎ　Ｃｉｔｙ,,,,,,2024-10-29,1,,,,,シャーメンラーツイワンルオコージーヨウシエンゴンスー,0
766,4010001249391,新規,0,2024-10-29,2024-10-29,株式会社ＩＮ・ＯＵＴ,,株式会社,東京都,千代田区,神田多町２丁目６番地２－１３１９号,,13,101,1010046,,,,,,,2024-10-29,1,,,,,インアウト,0
767,4010001249400,新規,0,2024-10-29,2024-10-29,株式会社がじぇらぼ,,株式会社,東京都,千代田区,神田須田町１丁目７番地８ＶＯＲＴ秋葉原ＩＶ２Ｆ,00136803,13,101,1010041,,,,,,,2024-10-29,1,,,,,ガジェラボ,0
769,4010003045293,新規,0,2024-10-29,2024-10-29,合同会社ＦＭＳ２,,合同会社,東京都,千代田区,二番町１番地２,,13,101,1020084,,,,,,,2024-10-29,1,,,,,エフエムエスツー,0
777,4010401186020,新規,0,2024-10-29,2024-10-29,株式会社Ｋｅｉ’ｓ　ＡＩ　Ｐｒｏｄｕｃｅ,,株式会社,東京都,港区,南青山２丁目２番１５号,,13,103,1070062,,,,,,,2024-10-29,1,,,,,ケイズエーアイプロデュース,0
780,4010403033674,新規,0,2024-10-29,2024-10-29,ＭＡＭＥ　Ｊａｐａｎ合同会社,,合同会社,東京都,港区,北青山１丁目３番１号アールキューブ青山３階,,13,103,1070061,,,,,,,2024-10-29,1,,,,,マメジャパン,0
781,4010403033690,新規,0,2024-10-29,2024-10-29,合同会社バリューアップ,,合同会社,東京都,港区,北青山１丁目３番１号アールキューブ青山３階,,13,103,1070061,,,,,,,2024-10-29,1,,,,,バリューアップ,0
783,4010405023698,新規,0,2024-10-29,2024-10-29,一般社団法人ＴＳＭ　ＳＨＤ１,,その他の設立登記法人,東京都,港区,元赤坂１丁目１番７号,,13,103,1070051,,,,,,,2024-10-29,1,,,,,ティーエスエムエスエイチディーイチ,0
786,4010501053104,新規,0,2024-10-29,2024-10-29,株式会社ＴＷＴ,,株式会社,東京都,台東区,浅草４丁目２０番７号横山ビル,,13,106,1110032,,,,,,,2024-10-29,1,,,,,ティーダブリューティー,0
789,4010601066187,新規,0,2024-10-29,2024-10-29,ＬｏｏｐＬｉｎｋ株式会社,,株式会社,東京都,墨田区,向島４丁目２８－１１－１２０３コスモ向島シティフォルム,,13,107,1310033,,,,,,,2024-10-29,1,,,,,ループリンク,0
796,4010901056202,新規,0,2024-10-29,2024-10-29,株式会社ＭＫＴ　Ｍｅｄｉｃｏｎ　Ａｓｉａ,,株式会社,東京都,世田谷区,深沢２丁目１－９深沢ハウスＥ７０８,,13,112,1580081,,,,,,,2024-10-29,1,,,,,エムケーティーメディコンアジア,0
800,4011001165372,新規,0,2024-10-29,2024-10-29,ニューサウンド株式会社,,株式会社,東京都,渋谷区,道玄坂１丁目１０番８号渋谷道玄坂東急ビル２Ｆ－Ｃ,,13,113,1500043,,,,,,,2024-10-29,1,,,,,ニューサウンド,0
801,4011001165422,新規,0,2024-10-29,2024-10-29,ＴｒｉＮｅｔＸ　Ｊａｐａｎ株式会社,,株式会社,東京都,渋谷区,恵比寿４丁目２０番３号恵比寿ガーデンプレイスタワー１８階,,13,113,1500013,,,,,,,2024-10-29,1,,,,,トライネットエックスジャパン,0
802,4011001165579,新規,0,2024-10-29,2024-10-29,株式会社Ｂｉｌｌｉｏｎ　Ｈｅａｌｔｈ,,株式会社,東京都,渋谷区,神宮前５丁目５３番６７号コスモス青山サウス棟５０１号室,,13,113,1500001,,,,,,,2024-10-29,1,,,,,ビリオンヘルス,0
806,4011103015120,新規,0,2024-10-29,2024-10-29,合同会社ＮＷ・プラチナ,,合同会社,東京都,新宿区,下落合４丁目６番２６号,,13,104,1610033,,,,,,,2024-10-29,1,,,,,エヌダブルプラチナ,0
809,4011403004541,新規,0,2024-10-29,2024-10-29,Ｙｏｍｏｇｉｔ合同会社,,合同会社,東京都,板橋区,中台２丁目３７番７号,,13,119,1740064,,,,,,,2024-10-29,1,,,,,ヨモギ,0
810,4011501031306,新規,0,2024-10-29,2024-10-29,ＭＧ株式会社,,株式会社,東京都,荒川区,南千住３丁目２７－２浅草ビル,,13,118,1160003,,,,,,,2024-10-29,1,,,,,エムジー,0
813,4011801045071,新規,0,2024-10-29,2024-10-29,株式会社大豪,,株式会社,東京都,葛飾区,堀切５丁目５番１号光和ＳＫビル１０２,,13,122,1240006,,,,,,,2024-10-29,1,,,,,ダイゴウ,0
816,4012401042426,新規,0,2024-10-29,2024-10-29,株式会社Ｌａｚｙ　Ｎｅｓｔ,,株式会社,東京都,調布市,調布ケ丘２丁目２番地８,,13,208,1820021,,,,,,,2024-10-29,1,,,,,レイジーネスト,0
819,4012701018514,新規,0,2024-10-29,2024-10-29,株式会社愛と欲望,,株式会社,東京都,西東京市,芝久保町４丁目１５番２３号アルカサーノＩＩ２０１号,00136804,13,229,1880014,,,,,,,2024-10-29,1,,,,,アイトヨクボウ,0
821,4013301053273,新規,0,2024-10-29,2024-10-29,株式会社セブンダイニング,,株式会社,東京都,豊島区,南池袋１丁目１６－１５ダイヤゲート池袋５階,,13,116,1710022,,,,,,,2024-10-29,1,,,,,セブンダイニング,0
822,4013301053281,新規,0,2024-10-29,2024-10-29,メディケア株式会社,,株式会社,東京都,豊島区,高田１丁目１８－６－１１１０,,13,116,1710033,,,,,,,2024-10-29,1,,,,,メディケア,0
836,4020003027150,新規,0,2024-10-29,2024-10-29,エール合同会社,,合同会社,神奈川県,横浜市港北区,大豆戸町２３５番地,,14,109,2220032,,,,,,,2024-10-29,1,,,,,エール,0
859,4040001135936,新規,0,2024-10-29,2024-10-29,ＤＬ‐Ｃ株式会社,,株式会社,千葉県,船橋市,田喜野井１丁目３１番２０号,,12,204,2740073,,,,,,,2024-10-29,1,,,,,ディエルシー,0
860,4040001135960,新規,0,2024-10-29,2024-10-29,株式会社Ｍ’ｓマシナリー,,株式会社,千葉県,富津市,富津２４０２番地５０,,12,226,2930021,,,,,,,2024-10-29,1,,,,,エムズマシナリー,0
867,4040003026076,新規,0,2024-10-29,2024-10-29,翔和合同会社,,合同会社,千葉県,千葉市稲毛区,小中台町１５１２番地６稲毛スカイマンションＤ棟１０４号,,12,103,2630044,,,,,,,2024-10-29,1,,,,,ショウワ,0
871,4070005010323,新規,0,2024-10-29,2024-10-29,一般社団法人ＩＳＥＳＡＫＩ　ｅＳＰＯＲＴＳ協会,,その他の設立登記法人,群馬県,伊勢崎市,上諏訪町２１１６番２号,,10,204,3720021,,,,,,,2024-10-29,1,,,,,イセサキイースポーツキョウカイ,0
878,4090001018970,新規,0,2024-10-29,2024-10-29,株式会社Ｃｏｃｏａ,,株式会社,山梨県,中央市,東花輪２０１６番地１ハイツ昭和土地田富Ａ棟１０６,,19,214,4093842,,,,,,,2024-10-29,1,,,,,ココア,0
892,4120001269750,新規,0,2024-10-29,2024-10-29,柳生縉雲株式会社,,株式会社,大阪府,大阪市中央区,本町３丁目３－９－９Ｆ,,27,128,5410053,,,,,,,2024-10-29,1,,,,,ヤギュウシンウン,0
893,4120001269767,新規,0,2024-10-29,2024-10-29,ｓｕｎｒｉｓｅ株式会社,,株式会社,大阪府,大阪市中央区,久太郎町２丁目５番５－５０２号,,27,128,5410056,,,,,,,2024-10-29,1,,,,,サンライズ,0
894,4120001269775,新規,0,2024-10-29,2024-10-29,丸三株式会社,,株式会社,大阪府,大阪市中央区,道頓堀１丁目東３－２０エンポリウムビル４階,,27,128,5420071,,,,,,,2024-10-29,1,,,,,マルサン,0
895,4120001269783,新規,0,2024-10-29,2024-10-29,株式会社ＦＯＲＴ,,株式会社,大阪府,大阪市中央区,難波１丁目４－３難波チャンプビル６階,,27,128,5420076,,,,,,,2024-10-29,1,,,,,フォート,0
899,4120003027710,新規,0,2024-10-29,2024-10-29,ハナハート合同会社,,合同会社,大阪府,大阪市北区,天神橋２丁目５－１６－２階,,27,127,5300041,,,,,,,2024-10-29,1,,,,,ハナハート,0
905,4120903005393,新規,0,2024-10-29,2024-10-29,とも合同会社,,合同会社,大阪府,豊中市,春日町３丁目１－５０コンラッド豊中１０６号,,27,203,5600052,,,,,,,2024-10-29,1,,,,,トモ,0
908,4130003009963,新規,0,2024-10-29,2024-10-29,合同会社トーラス,,合同会社,京都府,京都市下京区,中堂寺坊城町二丁目２番地第４５長栄シャルト五条３０６,,26,106,6008811,,,,,,,2024-10-29,1,,,,,トーラス,0
917,4140001136222,新規,0,2024-10-29,2024-10-29,株式会社スマイルカンパニー,,株式会社,兵庫県,姫路市,御立北３丁目８－１８,,28,201,6700071,,,,,,,2024-10-29,1,,,,,スマイルカンパニー,0
918,4140001136255,新規,0,2024-10-29,2024-10-29,株式会社はじめ,,株式会社,兵庫県,神戸市西区,神出町田井１３２０番地の５８,,28,111,6512313,,,,,,,2024-10-29,1,,,,,,0
920,4140003021232,新規,0,2024-10-29,2024-10-29,合同会社Ｎ１Ｋ,,合同会社,兵庫県,尼崎市,南武庫之荘３丁目１８番２４号,,28,202,6610033,,,,,,,2024-10-29,1,,,,,エヌワンケー,0
928,4180001163766,新規,0,2024-10-29,2024-10-29,株式会社雅,,株式会社,愛知県,名古屋市港区,小賀須１丁目６４１番地リバーサイドヴィレッジ１０１号,,23,111,4550882,,,,,,,2024-10-29,1,,,,,ミヤビ,0
929,4180001163790,新規,0,2024-10-29,2024-10-29,株式会社ゆかりや,,株式会社,愛知県,大府市,東新町３丁目９２番地,,23,223,4740073,,,,,,,2024-10-29,1,,,,,ユカリヤ,0
930,4180001163840,新規,0,2024-10-29,2024-10-29,山王ヘルスケア株式会社,,株式会社,愛知県,知多市,にしの台２丁目３０１番地２Ａ号室,,23,224,4780055,,,,,,,2024-10-29,1,,,,,サンノウヘルスケア,0
931,4180001163857,新規,0,2024-10-29,2024-10-29,株式会社＿柱,00136813,株式会社,愛知県,知多市,長浦２丁目４０番地１７,,23,224,4780042,,,,,,,2024-10-29,1,,,,,スンジュ,0
932,4180001163873,新規,0,2024-10-29,2024-10-29,株式会社ＭＣＣ,,株式会社,愛知県,名古屋市名東区,香流３丁目５１３番地の４,,23,115,4650005,,,,,,,2024-10-29,1,,,,,エムシーシー,0
933,4180001163881,新規,0,2024-10-29,2024-10-29,株式会社エスワイテック,,株式会社,愛知県,名古屋市北区,楠２丁目３０３番地の６,,23,103,4620012,,,,,,,2024-10-29,1,,,,,エスワイテック,0
938,4190001031757,新規,0,2024-10-29,2024-10-29,株式会社もりせい,,株式会社,三重県,熊野市,五郷町湯谷４８１番地,,24,212,5194672,,,,,,,2024-10-29,1,,,,,モリセイ,0
941,4200003006557,新規,0,2024-10-29,2024-10-29,ＮＳ　ＩＮＴＥＲＮＡＴＩＯＮＡＬ合同会社,,合同会社,岐阜県,土岐市,妻木町１７２１番地,,21,212,5095301,,,,,,,2024-10-29,1,,,,,エヌエスインターナショナル,0
944,4210001019956,新規,0,2024-10-29,2024-10-29,株式会社シード・デザイン,,株式会社,福井県,坂井市,坂井町東長田第１８号３６番地,,18,210,9190524,,,,,,,2024-10-29,1,,,,,シードデザイン,0
948,4240001064009,新規,0,2024-10-29,2024-10-29,瀬戸内ブルーリンク株式会社,,株式会社,広島県,福山市,西新涯町２丁目１－２６－３,,34,207,7210958,,,,,,,2024-10-29,1,,,,,セトウチブルーリンク,0
955,4260001039578,新規,0,2024-10-29,2024-10-29,株式会社ＴＡＳＫ,,株式会社,岡山県,岡山市中区,藤崎５７６番地４,,33,102,7028006,,,,,,,2024-10-29,1,,,,,タスク,0
973,4330005010833,新規,0,2024-10-29,2024-10-29,一般社団法人全国頑張るがん患者・家族の会連合会,,その他の設立登記法人,熊本県,玉名市,岩崎９４４番地１,,43,206,8650016,,,,,,,2024-10-29,1,,,,,ガンバルガンカンジャカゾクノカイレンゴウカイ,0
986,4360003014420,新規,0,2024-10-29,2024-10-29,ａｌｐｈａｗｏｒｋｓ合同会社,,合同会社,沖縄県,南城市,佐敷字手登根７６７,,47,215,9011402,,,,,,,2024-10-29,1,,,,,アルファワークス,0
987,4370001051860,新規,0,2024-10-29,2024-10-29,ＳＫ株式会社,,株式会社,宮城県,仙台市宮城野区,岡田字砂山１６４番地の１,,04,102,9830003,,,,,,,2024-10-29,1,,,,,エスケー,0
989,4370003006788,新規,0,2024-10-29,2024-10-29,合同会社ｏｆｆｉｃｅ　ＱＺ,,合同会社,宮城県,石巻市,渡波字栄田５６－１０,,04,202,9862135,,,,,,,2024-10-29,1,,,,,,0
994,4410001013971,新規,0,2024-10-29,2024-10-29,ＵＲＴホールディングス株式会社,,株式会社,秋田県,秋田市,寺内蛭根３丁目２４番３号,,05,201,0110904,,,,,,,2024-10-29,1,,,,,ユーアールティーホールディングス,0
999,4430005015095,新規,0,2024-10-29,2024-10-29,ＮＰＯ　Ｏｅｕｆ　ｄ’Ｏｒ,,その他の設立登記法人,北海道,札幌市北区,太平七条４丁目４番１１号,,01,102,0028007,,,,,,,2024-10-29,1,,,,,ウフドール,0
1005,4470001020434,新規,0,2024-10-29,2024-10-29,Ｂｌｕｅ　Ｆｌａｇ株式会社,,株式会社,香川県,高松市,出作町４８７番地５,,37,201,7618077,,,,,,,2024-10-29,1,,,,,ブルーフラッグ,0
1007,4470003002736,新規,0,2024-10-29,2024-10-29,合同会社トキミツ,,合同会社,香川県,観音寺市,室本町５６５－２,,37,205,7680001,,,,,,,2024-10-29,1,,,,,トキミツ,0
1010,4500001025966,新規,0,2024-10-29,2024-10-29,株式会社Ｕｎａｖｉａ,,株式会社,愛媛県,松山市,千舟町２丁目４－２－３０２,,38,201,7900011,,,,,,,2024-10-29,1,,,,,ユナヴィア,0
1012,4500003003359,新規,0,2024-10-29,2024-10-29,合同会社オフサルビジョン,,合同会社,愛媛県,伊予市,中村甲８６番地９,,38,210,7993123,,,,,,,2024-10-29,1,,,,,オフサルビジョン,0
1013,4700150127634,新規,0,2024-10-29,2024-10-29,Ｇｕａｎｇｚｈｏｕｓｈｉ　ｃｈｉｈａｉｄｉａｎｚｉｙｏｕｘｉａｎｇｏｎｇｓｉ,,外国会社等,,,,,,,,ｇｕａｎｇｍｉｎｇｌｕｚｉｂｉａｎ３０ｈａｏｚｈｉｙｉ２０１　Ｄｏｎｇｙｏｎｇｚｈｅｎ　Ｇｕａｎｇｚｈｏｕ　Ｎａｎｓｈａ　Ｇｕａｎｇｄｏｎｇ　５１１４５３　ＣＮ,,,,,,2024-10-29,1,,,,,グワンジョウシーチーハイディエンズーヨウシエンゴンスー,0
1020,5010001249366,新規,0,2024-10-29,2024-10-29,株式会社ｆｉｎｄｎ,,株式会社,東京都,千代田区,大手町１丁目５番１号大手町ファーストスクエアイーストタワー４階,,13,101,1000004,,,,,,,2024-10-29,1,,,,,ファインデン,0
1021,5010001249382,新規,0,2024-10-29,2024-10-29,株式会社起業家採用,,株式会社,東京都,中央区,月島１丁目８番１－２６０５号,,13,102,1040052,,,,,,,2024-10-29,1,,,,,キギョウカサイヨウ,0
1035,5010401186011,新規,0,2024-10-29,2024-10-29,株式会社Ｆｕｔｕｒｅ　Ｄｅｓｉｇｎ,,株式会社,東京都,港区,高輪１丁目４番３号レキシントン・スクエア白金高輪１９０４,,13,103,1080074,,,,,,,2024-10-29,1,,,,,フューチャーデザイン,0
1036,5010401186052,新規,0,2024-10-29,2024-10-29,株式会社Ｂｌｕｅ　Ｓｋｙ,,株式会社,東京都,港区,六本木７丁目１４番１号７階,,13,103,1060032,,,,,,,2024-10-29,1,,,,,ブルースカイ,0
1040,5010403033574,新規,0,2024-10-29,2024-10-29,Ｊａｐａｎ　Ｈｏｍｅｓ　Ｉｎｔｅｒｎａｔｉｏｎａｌ合同会社,,合同会社,東京都,港区,三田１丁目３－４０麻布十番ＢＵＳＩＮＥＳＳＣＵＢＥ－Ｓ天翔オフィス麻布十番５階５０８号室,,13,103,1080073,,,,,,,2024-10-29,1,,,,,ジャパンホームズインターナショナル,0
1041,5010403033707,新規,0,2024-10-29,2024-10-29,合同会社Ｌａｂｏｒ　Ａｆｆａｉｒｓ　Ｌａｂｏ,,合同会社,東京都,港区,北青山１丁目３番１号アールキューブ青山３階,,13,103,1070061,,,,,,,2024-10-29,1,,,,,レイバーアフェアーズラボ,0
1048,5010601066186,新規,0,2024-10-29,2024-10-29,株式会社善,,株式会社,東京都,江東区,有明１丁目４番１１－２２０６号,,13,108,1350063,,,,,,,2024-10-29,1,,,,,ゼン,0
1060,5011001165421,新規,0,2024-10-29,2024-10-29,株式会社シードブルーム,,株式会社,東京都,目黒区,下目黒１丁目１番１４号コノトラビル７Ｆ,,13,110,1530064,,,,,,,2024-10-29,1,,,,,シードブルーム,0
1061,5011001165454,新規,0,2024-10-29,2024-10-29,株式会社ｍｉｍｏ．,,株式会社,東京都,渋谷区,渋谷２丁目１９－１５宮益坂ビルディング６０９,,13,113,1500002,,,,,,,2024-10-29,1,,,,,ミモ,0
1062,5011001165644,新規,0,2024-10-29,2024-10-29,株式会社ＯＵ　ＯＦＦＩＣＥ,,株式会社,東京都,目黒区,碑文谷５丁目２７‐３,,13,110,1520003,,,,,,,2024-10-29,1,,,,,オウオフィス,0
1063,5011001165660,新規,0,2024-10-29,2024-10-29,株式会社ＩＣＫ,,株式会社,東京都,渋谷区,渋谷１丁目２３番２６号網野ビル２階,,13,113,1500002,,,,,,,2024-10-29,1,,,,,アイシーケー,0
1066,5011003020236,新規,0,2024-10-29,2024-10-29,合同会社ネクサステクノロジー,,合同会社,東京都,渋谷区,円山町５番５号Ｎａｖｉ渋谷Ｖ３階,,13,113,1500044,,,,,,,2024-10-29,1,,,,,ネクサステクノロジー,0
1069,5011101109344,新規,0,2024-10-29,2024-10-29,株式会社サイジ,,株式会社,東京都,新宿区,西新宿７丁目１１番１５号ミヤコビル４０１,,13,104,1600023,,,,,,,2024-10-29,1,,,,,サイジ,0
1073,5011401026330,新規,0,2024-10-29,2024-10-29,株式会社タマキャッターズ,,株式会社,東京都,板橋区,赤塚２丁目２４番１５号グランドヴィラコーラ５０１,,13,119,1750092,,,,,,,2024-10-29,1,,,,,タマキャッターズ,0
1074,5011501031305,新規,0,2024-10-29,2024-10-29,素肌研化粧品株式会社,,株式会社,東京都,荒川区,南千住３丁目２７－２浅草ビル５０８,,13,118,1160003,,,,,,,2024-10-29,1,,,,,スハダゲンケショウヒン,0
1075,5011501031313,新規,0,2024-10-29,2024-10-29,Ｃｈａｉｎ　Ｃｌｏｕｄ　Ｉｎｆｏｒｍａｔｉｏｎ　Ｔｅｃｈｎｏｌｏｇｙ株式会社,,株式会社,東京都,北区,岩淵町３８番２５－５０５号,,13,117,1150041,,,,,,,2024-10-29,1,,,,,チェーンクラウドインフォメーションテクノロジー,0
1077,5011603004464,新規,0,2024-10-29,2024-10-29,合同会社インフローレ,,合同会社,東京都,練馬区,上石神井３丁目３４番４号,,13,120,1770044,,,,,,,2024-10-29,1,,,,,インフローレ,0
1082,5012701018521,新規,0,2024-10-29,2024-10-29,ＹＯＵＰＨＯＲＩＡ株式会社,,株式会社,東京都,東村山市,栄町２丁目１６番地１８（２０２号）,,13,213,1890013,,,,,,,2024-10-29,1,,,,,ユーフォリア,0
1083,5012801023529,新規,0,2024-10-29,2024-10-29,株式会社ＲＩＳＥ　ＵＰ,,株式会社,東京都,立川市,錦町１丁目３番２１号ライオンビル立川館４０３,,13,202,1900022,,,,,,,2024-10-29,1,,,,,ライズアップ,0
1094,5020001159779,新規,0,2024-10-29,2024-10-29,Ｌｅｏ　Ｌｏｇｉｓｔｉｃｓ　Ｉｎｔｅｒｎａｔｉｏｎａｌ株式会社,,株式会社,神奈川県,横浜市鶴見区,馬場１丁目７番１９号フェリオ鶴見１０３,,14,101,2300076,,,,,,,2024-10-29,1,,,,,レオロジスティクスインターナショナル,0
1095,5020001159829,新規,0,2024-10-29,2024-10-29,Ｚ＆Ｙ株式会社,,株式会社,神奈川県,川崎市中原区,中丸子３５６Ｓｔ．Ｒｕｒｉｃｏｌ３０６号室,,14,133,2110012,,,,,,,2024-10-29,1,,,,,ゼットアンドワイ,0
1100,5021001083580,新規,0,2024-10-29,2024-10-29,株式会社リアントランスポートグループ,,株式会社,神奈川県,愛甲郡愛川町,中津３３１６－７,,14,401,2430303,,,,,,,2024-10-29,1,,,,,,0
1121,5040001135951,新規,0,2024-10-29,2024-10-29,株式会社ＴＳＵＤＡＹＡ,,株式会社,千葉県,茂原市,小轡９１２番地５,,12,210,2970004,,,,,,,2024-10-29,1,,,,,ツダヤ,0
1123,5040003026050,新規,0,2024-10-29,2024-10-29,ＧＳＬファーム合同会社,,合同会社,千葉県,八街市,八街い７７番２３,,12,230,2891143,,,,,,,2024-10-29,1,,,,,ジーエスエルファーム,0
1129,5050001055562,新規,0,2024-10-29,2024-10-29,株式会社拓能,,株式会社,茨城県,鉾田市,勝下１５７１－９,,08,234,3111422,,,,,,,2024-10-29,1,,,,,タクノウ,0
1130,5050001055629,新規,0,2024-10-29,2024-10-29,テトラウィン株式会社,,株式会社,茨城県,龍ケ崎市,平台４丁目２２番地１２,,08,208,3010003,,,,,,,2024-10-29,1,,,,,テトラウィン,0
1134,5070001042303,新規,0,2024-10-29,2024-10-29,株式会社ＥＣＯ．ＮＯＥホールディングス,,株式会社,群馬県,太田市,城西町６３番地１０,,10,205,3730038,,,,,,,2024-10-29,1,,,,,エコノエホールディングス,0
1137,5080401027530,新規,0,2024-10-29,2024-10-29,株式会社さゆるり・コンサルティング,,株式会社,静岡県,磐田市,二之宮１５４２番地２２ブライトタウン磐田フレシア１０４号室,,22,211,4380074,,,,,,,2024-10-29,1,,,,,サユルリコンサルティング,0
1139,5090001018961,新規,0,2024-10-29,2024-10-29,株式会社Ｒｕｋｓｓ,,株式会社,山梨県,甲府市,住吉５丁目１６番３３号アダージョ住吉２‐Ｃ,,19,201,4000851,,,,,,,2024-10-29,1,,,,,ルクス,0
1143,5110001038809,新規,0,2024-10-29,2024-10-29,株式会社ＦｕｔｕＲｉｓｅ,,株式会社,新潟県,新潟市中央区,東大通２丁目３番２３号道頓堀ビル３階,,15,103,9500087,,,,,,,2024-10-29,1,,,,,フューチャライズ,0
1146,5110005017148,新規,0,2024-10-29,2024-10-29,医療法人社団うらさ耳鼻科クリニック,,その他の設立登記法人,新潟県,南魚沼市,浦佐１５３４番地３,,15,226,9497302,,,,,,,2024-10-29,1,,,,,ウラサジビカクリニック,0
1152,5120001269683,新規,0,2024-10-29,2024-10-29,株式会社ＢＳＰ,,株式会社,大阪府,大阪市中央区,梅田一丁目１番３号大阪駅前第３ビル２９階１－１－１号,,27,128,5390000,,,,,,,2024-10-29,1,,,,,ビーエスピー,0
1153,5120001269758,新規,0,2024-10-29,2024-10-29,株式会社ＫＭホールディングス,,株式会社,大阪府,大阪市阿倍野区,阪南町４丁目１８番１号,,27,119,5450021,,,,,,,2024-10-29,1,,,,,ケイエムホールディングス,0
1154,5120001269790,新規,0,2024-10-29,2024-10-29,株式会社リトルアイランド,,株式会社,大阪府,大阪市旭区,大宮５丁目１番２９号,,27,117,5350002,,,,,,,2024-10-29,1,,,,,リトルアイランド,0
1159,5120901049961,新規,0,2024-10-29,2024-10-29,Ｃｌａｓｓｉｃ　Ｒｅｔｒｏ株式会社,,株式会社,大阪府,池田市,新町１０番３－１０１号,,27,204,5630050,,,,,,,2024-10-29,1,,,,,クラシックレトロ,0
1165,5130001078092,新規,0,2024-10-29,2024-10-29,株式会社フォトンファイブ,,株式会社,京都府,相楽郡精華町,光台１丁目７けいはんなプラザラボ棟５０６号,,26,366,6190237,,,,,,,2024-10-29,1,,,,,,0
1166,5130001078209,新規,0,2024-10-29,2024-10-29,株式会社Ｌｕｃｉａ,,株式会社,京都府,京都市中京区,藤岡町５０６番地２Ｆ,,26,104,6048364,,,,,,,2024-10-29,1,,,,,ルチア,0
1169,5150001027634,新規,0,2024-10-29,2024-10-29,株式会社ＳＨｉＬＯ,,株式会社,奈良県,橿原市,四分町１３８番地の４,,29,205,6340074,,,,,,,2024-10-29,1,,,,,シロ,0
1174,5160001026305,新規,0,2024-10-29,2024-10-29,株式会社滋賀Ｅ‐ＭＡＭＩシステムズ,,株式会社,滋賀県,草津市,野路６丁目５番１６号,,25,206,5250059,,,,,,,2024-10-29,1,,,,,シガイーマミシステムズ,0
1180,5180001163798,新規,0,2024-10-29,2024-10-29,株式会社ＣＨＯＲＤ　ＣＯＮＮＥＣＴ,,株式会社,愛知県,名古屋市中村区,名駅４丁目２４番５号第２森ビル４０１,,23,105,4500002,,,,,,,2024-10-29,1,,,,,コードコネクト,0
1181,5180001163864,新規,0,2024-10-29,2024-10-29,株式会社リード,,株式会社,愛知県,名古屋市中村区,小鴨町１６８番地,,23,105,4530844,,,,,,,2024-10-29,1,,,,,リード,0
1182,5180001163889,新規,0,2024-10-29,2024-10-29,アーキモアサポート株式会社,,株式会社,愛知県,名古屋市守山区,百合が丘１７１２,,23,113,4630806,,,,,,,2024-10-29,1,,,,,アーキモアサポート,0
1186,5180003027522,新規,0,2024-10-29,2024-10-29,合同会社ＦＬＥＤＧＥ,,合同会社,愛知県,江南市,古知野町久保見１８番地１ベルフォーレ弐番館５０３号,,23,217,4838275,,,,,,,2024-10-29,1,,,,,フレッジ,0
1187,5180003027539,新規,0,2024-10-29,2024-10-29,ＡＲＳＬＡＮ工業合同会社,,合同会社,愛知県,愛西市,町方町案山子１２番地１,,23,232,4968014,,,,,,,2024-10-29,1,,,,,アルスランコウギョウ,0
1197,5260001039577,新規,0,2024-10-29,2024-10-29,株式会社ＢＯＧＣＯＭ,,株式会社,岡山県,岡山市北区,御津虎倉２５１５番地,,33,101,7092137,,,,,,,2024-10-29,1,,,,,ボッグコム,0
1203,5290801030996,新規,0,2024-10-29,2024-10-29,株式会社トレードオフ,,株式会社,福岡県,北九州市小倉南区,湯川新町２丁目２番６１号,,40,107,8000256,,,,,,,2024-10-29,1,,,,,トレードオフ,0
1206,5310003004879,新規,0,2024-10-29,2024-10-29,合同会社ＫＲ,,合同会社,長崎県,佐世保市,白岳町１１６６番地アイディアル白岳Ｉ２０２号室,00136800,42,202,8571164,,,,,,,2024-10-29,1,,,,,ケーアール,0
1207,5330001032590,新規,0,2024-10-29,2024-10-29,株式会社ｐｅｒｖｅｒｓｅ,,株式会社,熊本県,上益城郡御船町,大字辺田見１３７４番地５,,43,441,8613206,,,,,,,2024-10-29,1,,,,,パーバース,0
1224,5380001034855,新規,0,2024-10-29,2024-10-29,株式会社橋本不動産,,株式会社,福島県,福島市,南沢又字上並松３４番地の１,,07,201,9608254,,,,,,,2024-10-29,1,,,,,ハシモトフドウサン,0
1229,5430001092955,新規,0,2024-10-29,2024-10-29,株式会社ＭＡ７ｓｔａｍｐ,,株式会社,北海道,札幌市東区,東雁来十四条２丁目８番２号,,01,103,0070034,,,,,,,2024-10-29,1,,,,,マナスタンプ,0
1230,5430003016937,新規,0,2024-10-29,2024-10-29,ＭｙＡサービス貿易合同会社,,合同会社,北海道,札幌市手稲区,星置一条３丁目３番１８号高田ビル１階,,01,109,0060851,,,,,,,2024-10-29,1,,,,,ミーアサービスボウエキ,0
1234,5470003002743,新規,0,2024-10-29,2024-10-29,合同会社ファイブアップたどつ,,合同会社,香川県,仲多度郡多度津町,本通３丁目１番２４号,,37,404,7640014,,,,,,,2024-10-29,1,,,,,,0
1237,5500001025957,新規,0,2024-10-29,2024-10-29,ＯＭＯＲＯＬＥ株式会社,,株式会社,愛媛県,八幡浜市,１０７４番地３宇都宮ビル２Ｆ,,38,204,7960088,,,,,,,2024-10-29,1,,,,,オモロール,0
1238,5700150127633,新規,0,2024-10-29,2024-10-29,ｓｈｅｎｚｈｅｎｓｈｉｊｉｅｌｉｊｉｓｕａｎｊｉｙｏｕｘｉａｎｚｅｒｅｎｇｏｎｇｓｉ,,外国会社等,,,,,,,,ｌｏｎｇｇａｎｇｑｕ　ｌｏｎｇｇａｎｇｊｉｅｄａｏ　ｘｉｎｓｈｅｎｇｓｈｅｑｕ　ｘｉｎｓｈｅｎｇｌｕ７２－９４ｈａｏ　ｘｉｎｓｈｅｎｇｌｕ８４ｈａｏ　ｓｈｅｎｚｈｅｎｓｈｉ　ｇｕａｎｇｄｏｎｇ　５１８０００　ＣＮ,,,,,,2024-10-29,1,,,,,シェンジェンシージエリージースワンジーヨウシエンゾーレンゴンスー,0
1241,6010001249324,新規,0,2024-10-29,2024-10-29,ＣＡＪＡＩＣ　ＳＰＣ株式会社,,株式会社,東京都,千代田区,平河町２丁目７－５砂防会館本館１階,,13,101,1020093,,,,,,,2024-10-29,1,,,,,シーエージェーエーアイシーエスピーシー,0
1242,6010001249480,新規,0,2024-10-29,2024-10-29,株式会社テックトライ,,株式会社,東京都,千代田区,神田和泉町１－６－１６ヤマトビル４０５,,13,101,1010024,,,,,,,2024-10-29,1,,,,,テックトライ,0
1252,6010401186051,新規,0,2024-10-29,2024-10-29,光数株式会社,,株式会社,東京都,港区,浜松町２丁目２－１５浜松町ダイヤビル２Ｆ,,13,103,1050013,,,,,,,2024-10-29,1,,,,,コウスウ,0
1263,6010903009445,新規,0,2024-10-29,2024-10-29,Ｎ＆Ｙエンジニアリング合同会社,,合同会社,東京都,世田谷区,代田２丁目６番１６号,,13,112,1550033,,,,,,,2024-10-29,1,,,,,エヌアンドワイエンジニアリング,0
1267,6011103015119,新規,0,2024-10-29,2024-10-29,合同会社ミラクルクリーン,,合同会社,東京都,新宿区,西新宿３丁目３番１３号西新宿水間ビル２Ｆ,,13,104,1600023,,,,,,,2024-10-29,1,,,,,ミラクルクリーン,0
1270,6011303005332,新規,0,2024-10-29,2024-10-29,合同会社ＭＡＥＲＩ,,合同会社,東京都,杉並区,久我山３丁目４１番４１号,,13,115,1680082,,,,,,,2024-10-29,1,,,,,,0
1273,6011501031304,新規,0,2024-10-29,2024-10-29,ゆないと株式会社,,株式会社,東京都,荒川区,西尾久２丁目３２番２号２Ｆ３,,13,118,1160011,,,,,,,2024-10-29,1,,,,,ユナイト,0
1274,6011501031312,新規,0,2024-10-29,2024-10-29,ＩＮコンサルティング株式会社,,株式会社,東京都,荒川区,西日暮里５丁目３６番９－７０４号,,13,118,1160013,,,,,,,2024-10-29,1,,,,,アイエヌコンサルティング,0
1276,6011701027762,新規,0,2024-10-29,2024-10-29,貝禾株式会社,,株式会社,東京都,江戸川区,本一色２丁目１８－２,,13,123,1330044,,,,,,,2024-10-29,1,,,,,カイカ,0
1282,6012401042432,新規,0,2024-10-29,2024-10-29,株式会社夢コーチカレッジ,,株式会社,東京都,稲城市,大丸９３９番地の１５エスポワール南多摩４０５,,13,225,2060801,,,,,,,2024-10-29,1,,,,,ユメコーチカレッジ,0
1283,6012405005055,新規,0,2024-10-29,2024-10-29,ＮＰＯ法人いぬと．つむぐ,,その他の設立登記法人,東京都,府中市,若松町４丁目６番地１,,13,206,1830005,,,,,,,2024-10-29,1,,,,,イヌトツムグ,0
1284,6012701018520,新規,0,2024-10-29,2024-10-29,株式会社縁日ホーム,,株式会社,東京都,東村山市,本町３丁目１４番地１４,,13,213,1890014,,,,,,,2024-10-29,1,,,,,エンニチホーム,0
1285,6012801023536,新規,0,2024-10-29,2024-10-29,Ｍｍａｉｓｏｎ株式会社,,株式会社,東京都,日野市,大坂上２丁目１０番地の２０,,13,212,1910061,,,,,,,2024-10-29,1,,,,,エムメゾン,0
1288,6013301053288,新規,0,2024-10-29,2024-10-29,株式会社とこしえ,,株式会社,東京都,豊島区,西池袋２丁目２番３号,,13,116,1710021,,,,,,,2024-10-29,1,,,,,トコシエ,0
1289,6013303007366,新規,0,2024-10-29,2024-10-29,合同会社あおねこ,,合同会社,東京都,豊島区,南大塚２丁目２６番４号モノ３０１号,,13,116,1700005,,,,,,,2024-10-29,1,,,,,アオネコ,0
1298,6020003027124,新規,0,2024-10-29,2024-10-29,合同会社ＡＫカンパニー,,合同会社,神奈川県,横浜市青葉区,市ケ尾町１１６０番地１ザ・パークハウス市ヶ尾ウエスト７０４号,,14,117,2250024,,,,,,,2024-10-29,1,,,,,エーケーカンパニー,0
1318,6040001135959,新規,0,2024-10-29,2024-10-29,株式会社ランドマネジメント,,株式会社,千葉県,八千代市,勝田台北１丁目１９番４０号,,12,221,2760020,,,,,,,2024-10-29,1,,,,,ランドマネジメント,0
1344,6120003027824,新規,0,2024-10-29,2024-10-29,合同会社魚で昼呑みもりやま,,合同会社,大阪府,大阪市東住吉区,南田辺３丁目１１番２１号アネックス田辺２０１,,27,121,5460033,,,,,,,2024-10-29,1,,,,,サカナデヒルノミモリヤマ,0
1345,6120003027849,新規,0,2024-10-29,2024-10-29,翔安商事合同会社,,合同会社,大阪府,大阪市生野区,舎利寺１丁目７－４,,27,116,5440022,,,,,,,2024-10-29,1,,,,,ショウアンショウジ,0
1346,6120003027857,新規,0,2024-10-29,2024-10-29,ＲＩＧＡＴＯ合同会社,,合同会社,大阪府,寝屋川市,八坂町２７番３１－１０５号,,27,215,5720838,,,,,,,2024-10-29,1,,,,,リガト,0
1357,6122005003786,新規,0,2024-10-29,2024-10-29,一般社団法人大阪府ローイング協会,,その他の設立登記法人,大阪府,八尾市,南植松町３丁目１４番地の２１,,27,212,5810091,,,,,,,2024-10-29,1,,,,,オオサカフローイングキョウカイ,0
1361,6130001078216,新規,0,2024-10-29,2024-10-29,株式会社ＲＩＳＨ,,株式会社,京都府,宇治市,羽戸山２丁目１番地の１４７,,26,204,6110012,,,,,,,2024-10-29,1,,,,,リッシュ,0
1362,6130001078224,新規,0,2024-10-29,2024-10-29,富陽商貿株式会社,,株式会社,京都府,京都市下京区,中堂寺前町４９３番地２－２Ｆ,,26,106,6008362,,,,,,,2024-10-29,1,,,,,フヨウショウボウ,0
1363,6130001078240,新規,0,2024-10-29,2024-10-29,株式会社らくと,,株式会社,京都府,京都市西京区,大枝西新林町５丁目８番地２２,,26,111,6101141,,,,,,,2024-10-29,1,,,,,ラクト,0
1368,6140001136229,新規,0,2024-10-29,2024-10-29,株式会社マルクト,,株式会社,兵庫県,神戸市東灘区,森北町７丁目１１番４１号,,28,101,6580001,,,,,,,2024-10-29,1,,,,,マルクト,0
1369,6140003021239,新規,0,2024-10-29,2024-10-29,合同会社たなごころ,,合同会社,兵庫県,高砂市,阿弥陀１丁目５番１７－２０６号,,28,216,6760815,,,,,,,2024-10-29,1,,,,,タナゴコロ,0
1370,6150001027633,新規,0,2024-10-29,2024-10-29,株式会社ＩＮＳＰＩＲＥ８,,株式会社,奈良県,生駒郡三郷町,東信貴ケ丘１丁目４番２５号,,29,343,6360803,,,,,,,2024-10-29,1,,,,,インスパイアエイト,0
1378,6180001163748,新規,0,2024-10-29,2024-10-29,株式会社ＢＵＳＩＮＥＳＳ　ＣＯＮＮＥＣＴＩＯＮ,,株式会社,愛知県,小牧市,間々本町１２８番地,,23,219,4850048,,,,,,,2024-10-29,1,,,,,ビジネスコネクション,0
1379,6180001163764,新規,0,2024-10-29,2024-10-29,株式会社Ｍ＆Ｃ,,株式会社,愛知県,海部郡蟹江町,八幡１丁目１１５番地,,23,425,4970056,,,,,,,2024-10-29,1,,,,,エムアンドシー,0
1380,6180001163814,新規,0,2024-10-29,2024-10-29,宝＿貿易株式会社,00136795,株式会社,愛知県,名古屋市守山区,向台１丁目６０６番地の３,,23,113,4630036,,,,,,,2024-10-29,1,,,,,ホウシンボウエキ,0
1381,6180001163830,新規,0,2024-10-29,2024-10-29,株式会社ＹＯＤ,,株式会社,愛知県,名古屋市西区,秩父通１丁目４Ａ・Ｃｉｔｙ秩父通１０１,,23,104,4510024,,,,,,,2024-10-29,1,,,,,ワイオーディー,0
1382,6180001163847,新規,0,2024-10-29,2024-10-29,株式会社パックラボ,,株式会社,愛知県,名古屋市名東区,猪子石３丁目２０２番地ラルジュ猪子石３‐Ｄ号,,23,115,4650021,,,,,,,2024-10-29,1,,,,,パックラボ,0
1383,6180001163855,新規,0,2024-10-29,2024-10-29,株式会社藤一,,株式会社,愛知県,名古屋市港区,惟信町１丁目２９番地の３,,23,111,4550823,,,,,,,2024-10-29,1,,,,,フジイチ,0
1386,6180003027538,新規,0,2024-10-29,2024-10-29,合同会社さんあい,,合同会社,愛知県,名古屋市守山区,幸心４丁目２０１番地（幸心住宅８棟３０５号）,,23,113,4630079,,,,,,,2024-10-29,1,,,,,サンアイ,0
1393,6180303006324,新規,0,2024-10-29,2024-10-29,ＡＪ合同会社,,合同会社,愛知県,みよし市,打越町畔違２５５番,,23,236,4700213,,,,,,,2024-10-29,1,,,,,エージェー,0
1396,6190001031755,新規,0,2024-10-29,2024-10-29,株式会社大藤ホールディングス,,株式会社,三重県,四日市市,東日野町２８９番地の３,,24,202,5100942,,,,,,,2024-10-29,1,,,,,ダイトウホールディングス,0
1399,6210001019954,新規,0,2024-10-29,2024-10-29,エイチイーシー株式会社,,株式会社,福井県,越前市,上大坪町第５号６２番地の３,,18,209,9150024,,,,,,,2024-10-29,1,,,,,エイチイーシー,0
1400,6210005010166,新規,0,2024-10-29,2024-10-29,坂本・村外税理士法人,,その他の設立登記法人,福井県,坂井市,三国町緑ケ丘４丁目１９番１８号,,18,210,9130048,,,,,,,2024-10-29,1,,,,,サカモトムラホカ,0
1405,6250001020867,新規,0,2024-10-29,2024-10-29,株式会社かわうそ酒店,,株式会社,山口県,岩国市,周東町獺越２１２８番地６,00136798,35,208,7420422,,,,,,,2024-10-29,1,,,,,カワウソサケテン,0
1407,6250005008958,新規,0,2024-10-29,2024-10-29,一般社団法人彦島ぽれぽれ,,その他の設立登記法人,山口県,下関市,彦島向井町１丁目１３番４３号,,35,201,7500084,,,,,,,2024-10-29,1,,,,,ヒコシマポレポレ,0
1410,6260005011416,新規,0,2024-10-29,2024-10-29,一般社団法人ＭＡＲＫＳ,,その他の設立登記法人,岡山県,岡山市北区,西古松１丁目２４番１号,,33,101,7000927,,,,,,,2024-10-29,1,,,,,マアクス,0
1427,6290803004865,新規,0,2024-10-29,2024-10-29,合同会社ｌａｍｏｕｒ　ｓａｎｓ　ｆｒｏｎｔｉｅｒｅｓ,,合同会社,福岡県,北九州市八幡西区,本城東２丁目１２番１１号,,40,109,8070815,,,,,,,2024-10-29,1,,,,,ラムーンサンフォンティーヌ,0
1428,6300001013948,新規,0,2024-10-29,2024-10-29,株式会社大楠,,株式会社,佐賀県,佐賀市,金立町大字千布３８９８番地６,,41,201,8490905,,,,,,,2024-10-29,1,,,,,オオクス,0
1434,6340005009781,新規,0,2024-10-29,2024-10-29,一般社団法人ＢＬＵＥ　Ｓｃｈｏｏｌ　Ｊａｐａｎ,,その他の設立登記法人,鹿児島県,大島郡瀬戸内町,大字西古見４８番地,,46,525,8941855,,,,,,,2024-10-29,1,,,,,ブルースクールジャパン,0
1436,6360001034360,新規,0,2024-10-29,2024-10-29,Ｍａｋｅｓｕｎｎｙ株式会社,,株式会社,沖縄県,石垣市,字大川２７８番地,,47,207,9070022,,,,,,,2024-10-29,1,,,,,メイクサニー,0
1437,6360001034377,新規,0,2024-10-29,2024-10-29,株式会社ＯＫＩＹＯＹＯ,,株式会社,沖縄県,那覇市,西１丁目４－３しんきマンション４０１号室,,47,201,9000036,,,,,,,2024-10-29,1,,,,,オキヨーヨ,0
1438,6370001051867,新規,0,2024-10-29,2024-10-29,株式会社ケバブゲームズ,,株式会社,宮城県,仙台市太白区,八木山本町２丁目１番地の４碧い星空のセレニティー１０１,,04,104,9820801,,,,,,,2024-10-29,1,,,,,ケバブゲームズ,0
1441,6380001034870,新規,0,2024-10-29,2024-10-29,株式会社翔,,株式会社,福島県,福島市,松川町金沢字千日２８番地の３,,07,201,9601246,,,,,,,2024-10-29,1,,,,,カケル,0
1454,6700150127632,新規,0,2024-10-29,2024-10-29,ｗｕｈａｎｓｈｉｈｅｔｉｎｇｙｉｄｉａｎｚｉｓｈａｎｇｗｕｙｏｕｘｉａｎｇｏｎｇｓｉ,,外国会社等,,,,,,,,ｗｕｃａｎｇｑｕｗｕｌｕｏｌｕ４４２ｈａｏｚｈｏｎｇｎａｎｇｕｏｊｉｃｈｅｎｇＢｚｕｏ１ｄａｎｙｕａｎ７ｃｅｎｇ３ｓｈｉ＊ｗｕｈａｎｓｈｉｈｕｂｅｉｓｈｅｎｇ４３００６４ＣＮ,,,,,,2024-10-29,1,,,,,ウーハンシーホーティンイーディエンズーシャンウーヨウシエンゴンスー,0
1463,7010001249422,新規,0,2024-10-29,2024-10-29,株式会社朝日出版社ＨＤ,,株式会社,東京都,千代田区,西神田３丁目３番５号,,13,101,1010065,,,,,,,2024-10-29,1,,,,,アサヒシュッパンシャホールディングス,0
1464,7010001249463,新規,0,2024-10-29,2024-10-29,ＣＣＧ　ＪＡＰＡＮ株式会社,,株式会社,東京都,中央区,銀座１丁目１２番４号Ｎ＆ＥＢＬＤ．６Ｆ,,13,102,1040061,,,,,,,2024-10-29,1,,,,,シーシージージャパン,0
1469,7010005039019,新規,0,2024-10-29,2024-10-29,弁護士法人三宅苅野法律事務所,,その他の設立登記法人,東京都,千代田区,麹町４丁目５番地ＫＳビル２階３－２,,13,101,1020083,,,,,,,2024-10-29,1,,,,,ミヤケカリノホウリツジムショ,0
1470,7010101016383,新規,0,2024-10-29,2024-10-29,株式会社ＳＯＫＡＩ,,株式会社,東京都,八王子市,南陽台２丁目１２番２３号,,13,201,1920371,,,,,,,2024-10-29,1,,,,,ソーカイ,0
1475,7010401185829,新規,0,2024-10-29,2024-10-29,株式会社ＺＥＲＯ　ＥＰＩＳＯＤＥ,,株式会社,東京都,港区,六本木３丁目４－３３マルマン六本木ビル３Ｆ,,13,103,1060032,,,,,,,2024-10-29,1,,,,,ゼロエピソード,0
1489,7010801035518,新規,0,2024-10-29,2024-10-29,ＩＴＫ株式会社,,株式会社,東京都,大田区,中央２丁目１９番１－１０６号,,13,111,1430024,,,,,,,2024-10-29,1,,,,,アイティケイ,0
1491,7010901056216,新規,0,2024-10-29,2024-10-29,株式会社ＭＡＴＡＨＡＲＩ,,株式会社,東京都,世田谷区,野沢１丁目３５番５－４０２号,,13,112,1540003,,,,,,,2024-10-29,1,,,,,マタハリ,0
1497,7011001165403,新規,0,2024-10-29,2024-10-29,株式会社Ｏｐｔｙｓ　Ｓｏｌｕｔｉｏｎｓ,,株式会社,東京都,渋谷区,神南１丁目１１番４号ＦＰＧリンクス神南５階,,13,113,1500041,,,,,,,2024-10-29,1,,,,,オプティスソリューションズ,0
1498,7011001165428,新規,0,2024-10-29,2024-10-29,株式会社Ｕｎｋｔｏｋ,,株式会社,東京都,渋谷区,渋谷２丁目１９番１５号宮益坂ビルディング６０９,,13,113,1500002,,,,,,,2024-10-29,1,,,,,アンクトック,0
1499,7011001165510,新規,0,2024-10-29,2024-10-29,天一株式会社,,株式会社,東京都,渋谷区,富ヶ谷１丁目１４番１４号３Ｆ,,13,113,1510063,,,,,,,2024-10-29,1,,,,,テンイチ,0
1500,7011001165568,新規,0,2024-10-29,2024-10-29,玉木アンドアソシエイツ株式会社,,株式会社,東京都,渋谷区,神南１丁目１１番４号ＦＰＧリンクス神南５階,,13,113,1500041,,,,,,,2024-10-29,1,,,,,タマキアンドアソシエイツ,0
1501,7011003020234,新規,0,2024-10-29,2024-10-29,合同会社サファイア,,合同会社,東京都,渋谷区,代々木２丁目１５－１３－３０２,,13,113,1510053,,,,,,,2024-10-29,1,,,,,サファイア,0
1502,7011003020242,新規,0,2024-10-29,2024-10-29,合同会社Ｈｅａｌｔｈ　Ｃｏｍｍｉｓｓｉｏｎ,,合同会社,東京都,目黒区,自由が丘２丁目１６番１２号ＲＪ３,,13,110,1520035,,,,,,,2024-10-29,1,,,,,ヘルスコミッション,0
1504,7011101109342,新規,0,2024-10-29,2024-10-29,株式会社Ｗ．Ｏ．ＪＰ,,株式会社,東京都,新宿区,新宿５丁目１４番１２号天翔オフィス新宿三丁目４０４,,13,104,1600022,,,,,,,2024-10-29,1,,,,,ダブルオージャパン,0
1512,7011603004495,新規,0,2024-10-29,2024-10-29,合同会社ＣＲＯＳＳ,,合同会社,東京都,練馬区,大泉町４丁目４番１９号,,13,120,1780062,,,,,,,2024-10-29,1,,,,,クロス,0
1513,7011701027761,新規,0,2024-10-29,2024-10-29,Ａｃｒｏｓｓ　Ｊａｐａｎ株式会社,,株式会社,東京都,江戸川区,臨海町４丁目２－２パークサイドビル２０８,,13,123,1340086,,,,,,,2024-10-29,1,,,,,アクロスジャパン,0
1514,7012401042431,新規,0,2024-10-29,2024-10-29,株式会社Ｌｅｖｅｌ１０,,株式会社,東京都,武蔵野市,中町２丁目２９番１４－３０８号ライオンズマンション吉祥寺第６,,13,203,1800006,,,,,,,2024-10-29,1,,,,,レベルテン,0
1519,7012801023535,新規,0,2024-10-29,2024-10-29,株式会社ホワイトニング,,株式会社,東京都,国分寺市,本町３丁目６番１０号杉本ビル３０２,,13,214,1850012,,,,,,,2024-10-29,1,,,,,ホワイトニング,0
1520,7013101009547,新規,0,2024-10-29,2024-10-29,株式会社ステップクリエイション,,株式会社,東京都,羽村市,緑ヶ丘２丁目７番地５０,,13,227,2050003,,,,,,,2024-10-29,1,,,,,ステップクリエイション,0
1522,7013301053287,新規,0,2024-10-29,2024-10-29,株式会社Ｆｌｅｘｉｇｅａｒ,,株式会社,東京都,豊島区,池袋本町３丁目１８番１９号パレス池袋本町１０２号,,13,116,1700011,,,,,,,2024-10-29,1,,,,,フレクシギア,0
1523,7013301053295,新規,0,2024-10-29,2024-10-29,相成る株式会社,,株式会社,東京都,豊島区,高田３丁目７番１７号安斎ビル２０２号室,,13,116,1710033,,,,,,,2024-10-29,1,,,,,アイナル,0
1534,7020001159711,新規,0,2024-10-29,2024-10-29,株式会社みらい,,株式会社,神奈川県,横浜市神奈川区,六角橋２丁目１４番２号,,14,102,2210802,,,,,,,2024-10-29,1,,,,,ミライ,0
1535,7020001159802,新規,0,2024-10-29,2024-10-29,株式会社２‐ＧＯＯＤ,,株式会社,神奈川県,川崎市幸区,南加瀬３丁目２０－１８,,14,132,2120055,,,,,,,2024-10-29,1,,,,,ツーグッド,0
1536,7020001159819,新規,0,2024-10-29,2024-10-29,チームＥＳ株式会社,,株式会社,神奈川県,川崎市麻生区,細山３丁目４番１号,,14,137,2150001,,,,,,,2024-10-29,1,,,,,チームイーエス,0
1537,7020001159827,新規,0,2024-10-29,2024-10-29,株式会社アスクシステム,,株式会社,神奈川県,川崎市麻生区,千代ケ丘１丁目１７番地５ハイツカルボナード２０２,,14,137,2150005,,,,,,,2024-10-29,1,,,,,アスクシステム,0
1540,7020003027115,新規,0,2024-10-29,2024-10-29,リューココリーネ合同会社,,合同会社,神奈川県,川崎市麻生区,栗木台３丁目４－８オーチャードＡ１０３,,14,137,2150032,,,,,,,2024-10-29,1,,,,,リューココリーネ,0
1547,7021001083637,新規,0,2024-10-29,2024-10-29,株式会社ライフアップ大坂屋,,株式会社,神奈川県,大和市,南林間７丁目２５番１１号,,14,213,2420006,,,,,,,2024-10-29,1,,,,,ライフアップオオサカヤ,0
1563,7040001135933,新規,0,2024-10-29,2024-10-29,遠藤電工株式会社,,株式会社,千葉県,千葉市稲毛区,宮野木町１８２１番地Ｋタウン宮野木Ｂ棟２０１号,,12,103,2630054,,,,,,,2024-10-29,1,,,,,エンドウデンコウ,0
1564,7040001135966,新規,0,2024-10-29,2024-10-29,万栄株式会社,,株式会社,千葉県,いすみ市,楽町６３６－２,,12,238,2980122,,,,,,,2024-10-29,1,,,,,バンエイ,0
1566,7040003026057,新規,0,2024-10-29,2024-10-29,合同会社Ｊ＆Ｍ’ｓ,,合同会社,千葉県,習志野市,本大久保５丁目５番１０号,,12,216,2750012,,,,,,,2024-10-29,1,,,,,ジェイアンドエムズ,0
1568,7050001055619,新規,0,2024-10-29,2024-10-29,株式会社櫻井工業,,株式会社,茨城県,稲敷市,柴崎６６５７番地１,,08,229,3001412,,,,,,,2024-10-29,1,,,,,サクライコウギョウ,0
1578,7100003007835,新規,0,2024-10-29,2024-10-29,５ｄｒｕｋ合同会社,,合同会社,長野県,諏訪郡原村,原山四季の森しらかば平Ｐー２８,,20,363,3910115,,,,,,,2024-10-29,1,,,,,ファイブドゥルク,0
1589,7120001269673,新規,0,2024-10-29,2024-10-29,昌和商事株式会社,,株式会社,大阪府,大阪市生野区,中川西２丁目９番１５号,,27,116,5440032,,,,,,,2024-10-29,1,,,,,ショウワショウジ,0
1590,7120001269715,新規,0,2024-10-29,2024-10-29,株式会社ＷＢＫ,,株式会社,大阪府,大阪市港区,磯路１丁目３番２号グランデールＫ８０１,,27,107,5520003,,,,,,,2024-10-29,1,,,,,ダブリュービーケー,0
1591,7120001269748,新規,0,2024-10-29,2024-10-29,株式会社小川電設,,株式会社,大阪府,大阪市旭区,高殿４丁目２０番７号,,27,117,5350031,,,,,,,2024-10-29,1,,,,,オガワデンセツ,0
1592,7120001269756,新規,0,2024-10-29,2024-10-29,株式会社ＷｏｒｌｄＳｔｒｉｄｅ,,株式会社,大阪府,大阪市中央区,南久宝寺町３丁目２番７号９階,,27,128,5410058,,,,,,,2024-10-29,1,,,,,ワールドストライド,0
1593,7120001269764,新規,0,2024-10-29,2024-10-29,株式会社Ｍ＆Ｔ,,株式会社,大阪府,大阪市北区,同心２丁目６番２号,,27,127,5300035,,,,,,,2024-10-29,1,,,,,エムアンドティー,0
1594,7120001269797,新規,0,2024-10-29,2024-10-29,株式会社クラスターＨＤ,,株式会社,大阪府,大阪市北区,芝田１丁目１０番１０号,,27,127,5300012,,,,,,,2024-10-29,1,,,,,クラスターホールディングス,0
1600,7120101070477,新規,0,2024-10-29,2024-10-29,３９エクスプレス株式会社,,株式会社,大阪府,泉佐野市,高松東１丁目１０番３７号泉佐野センタービルサウスコア２１－５階,,27,213,5980012,,,,,,,2024-10-29,1,,,,,サンキュウエクスプレス,0
1605,7130001078231,新規,0,2024-10-29,2024-10-29,株式会社豆ＮＥＷ,,株式会社,京都府,京都市中京区,錦小路通新町西入錦小路町２６２番地７,,26,104,6040000,,,,,,,2024-10-29,1,,,,,トウニュー,0
1606,7130001078248,新規,0,2024-10-29,2024-10-29,株式会社ＹＫ　ＬＩＮＥ,,株式会社,京都府,城陽市,奈島久保野４９,,26,207,6100116,,,,,,,2024-10-29,1,,,,,ワイケーライン,0
1607,7130003009911,新規,0,2024-10-29,2024-10-29,ＭａｔｃｈＨａｔ合同会社,,合同会社,京都府,京都市下京区,朱雀宝蔵町４４番地,,26,106,6008846,,,,,,,2024-10-29,1,,,,,マッチハット,0
1614,7140001136260,新規,0,2024-10-29,2024-10-29,海勝株式会社,,株式会社,兵庫県,神戸市東灘区,深江浜町９－１,,28,101,6580023,,,,,,,2024-10-29,1,,,,,カイショウ,0
1629,7180001163689,新規,0,2024-10-29,2024-10-29,株式会社ＫＩＪＩ,,株式会社,愛知県,名古屋市中区,丸の内３丁目２２番８号・ＨＰ・ＳＱＵＡＲＥ・ＭＡＲＵＮＯＵＣＨＩ・４Ｆ,,23,106,4600002,,,,,,,2024-10-29,1,,,,,キジ,0
1630,7180001163813,新規,0,2024-10-29,2024-10-29,株式会社零,,株式会社,愛知県,名古屋市中川区,万場３丁目１５２１番地,,23,110,4540997,,,,,,,2024-10-29,1,,,,,ゼロ,0
1631,7180001163838,新規,0,2024-10-29,2024-10-29,株式会社ドレン,,株式会社,愛知県,東海市,東海町６丁目１番１０号,,23,222,4760015,,,,,,,2024-10-29,1,,,,,ドレン,0
1632,7180001163846,新規,0,2024-10-29,2024-10-29,ＤＲＤ．スマート株式会社,,株式会社,愛知県,名古屋市瑞穂区,関取町１６４番地メゾンセイワ４０１,,23,108,4670058,,,,,,,2024-10-29,1,,,,,ディーアールディースマート,0
1633,7180003027537,新規,0,2024-10-29,2024-10-29,合同会社ＲＡＹＳＥＣ,,合同会社,愛知県,知多郡東浦町,大字森岡字中町５２番地の１,,23,442,4702101,,,,,,,2024-10-29,1,,,,,レイセック,0
1637,7180303006323,新規,0,2024-10-29,2024-10-29,プロスパー合同会社,,合同会社,愛知県,岡崎市,藤川町字河原２番地１,,23,202,4443523,,,,,,,2024-10-29,1,,,,,プロスパー,0
1640,7200001043079,新規,0,2024-10-29,2024-10-29,株式会社Ｔｏｈｕｒｉ,,株式会社,岐阜県,高山市,下林町５１７番地６,,21,203,5060059,,,,,,,2024-10-29,1,,,,,トフリ,0
1643,7220003003871,新規,0,2024-10-29,2024-10-29,合同会社葵心,,合同会社,石川県,金沢市,香林坊２丁目３‐１５,,17,201,9200961,,,,,,,2024-10-29,1,,,,,キシン,0
1646,7240001064006,新規,0,2024-10-29,2024-10-29,株式会社Ｗｏｒｌｄ　Ｓｔａｇｅ,,株式会社,広島県,呉市,広古新開３丁目１番１９号,,34,202,7370112,,,,,,,2024-10-29,1,,,,,ワールドステージ,0
1651,7240003006897,新規,0,2024-10-29,2024-10-29,おおもりファーム広島合同会社,,合同会社,広島県,庄原市,高野町下湯川３６３－２,,34,210,7270412,,,,,,,2024-10-29,1,,,,,オオモリファームヒロシマ,0
1668,7300005007210,新規,0,2024-10-29,2024-10-29,特定非営利活動法人ＭＡＨＯＲＯＢＡ,,その他の設立登記法人,佐賀県,鹿島市,大字飯田乙２３９６番地,,41,207,8491324,,,,,,,2024-10-29,1,,,,,マホロバ,0
1673,7330001032589,新規,0,2024-10-29,2024-10-29,株式会社ふるくま,,株式会社,熊本県,菊池郡菊陽町,大字津久礼２９８９番地,,43,404,8691101,,,,,,,2024-10-29,1,,,,,フルクマ,0
1678,7340003004643,新規,0,2024-10-29,2024-10-29,合同会社あすなろ支縁会,,合同会社,鹿児島県,鹿児島市,祇園之洲町１２番地セジュール祇園之洲２０１号,00136797,46,201,8920803,,,,,,,2024-10-29,1,,,,,アスナロシエンカイ,0
1681,7350003004774,新規,0,2024-10-29,2024-10-29,ＭＩＣＨＩコンサルティング合同会社,,合同会社,宮崎県,宮崎市,日ノ出町１４３－１－２０５,,45,201,8800856,,,,,,,2024-10-29,1,,,,,ミチコンサルティング,0
1684,7360003014418,新規,0,2024-10-29,2024-10-29,合同会社ガスライト,,合同会社,沖縄県,うるま市,字天願１６６４番地４山城ハウスＮｏ．３,,47,213,9042202,,,,,,,2024-10-29,1,,,,,ガスライト,0
1685,7360005007122,新規,0,2024-10-29,2024-10-29,一般社団法人沖縄本島中南部ホエール協会,,その他の設立登記法人,沖縄県,那覇市,西１丁目２１番６号,,47,201,9000036,,,,,,,2024-10-29,1,,,,,オキナワホントウチュウナンブホエールキョウカイ,0
1692,7390001017782,新規,0,2024-10-29,2024-10-29,サクラヒラリ株式会社,,株式会社,山形県,東根市,大字若木１３９番地７,,06,211,9993737,,,,,,,2024-10-29,1,,,,,サクラヒラリ,0
1697,7410001013969,新規,0,2024-10-29,2024-10-29,株式会社ウインラボ,,株式会社,秋田県,秋田市,金足小泉字潟向１０３番地６,,05,201,0100116,,,,,,,2024-10-29,1,,,,,ウインラボ,0
1698,7410003004000,新規,0,2024-10-29,2024-10-29,合同会社グットプロー,,合同会社,秋田県,大仙市,大曲西根字杉矢崎３８－２０,,05,212,0140072,,,,,,,2024-10-29,1,,,,,グットプロー,0
1702,7430003016943,新規,0,2024-10-29,2024-10-29,合同会社鹿野企画,,合同会社,北海道,札幌市豊平区,平岸六条１２丁目１５番２１－２０４号,,01,105,0620936,,,,,,,2024-10-29,1,,,,,カノキカク,0
1703,7450005004432,新規,0,2024-10-29,2024-10-29,一般社団法人円居グループ,,その他の設立登記法人,北海道,旭川市,末広一条１１丁目１番２８号,,01,204,0718131,,,,,,,2024-10-29,1,,,,,マドイグループ,0
1718,7700150127631,新規,0,2024-10-29,2024-10-29,Ｌ．Ｔ．　ＲＵＢＢＥＲ　ＣＯ．，ＬＴＤ．,,外国会社等,,,,,,,,５４１　ＣＨＡＮＤＩ，ＣＨＡＷＡＮＧ，ＮＡＫＨＯＮ　ＳＩ　ＴＨＡＭＭＡＲＡＴ　８０２５０　ＴＨＡＩＬＡＮＤ,,,,,,2024-10-29,1,,,,,エルティーラバーカンパニーリミテッド,0
1729,8010003045323,新規,0,2024-10-29,2024-10-29,テセラクト・ホールディングス合同会社,,合同会社,東京都,中央区,日本橋室町１丁目１１番１２号日本橋水野ビル７階,,13,102,1030022,,,,,,,2024-10-29,1,,,,,テセラクトホールディングス,0
1731,8010005039018,新規,0,2024-10-29,2024-10-29,一般社団法人Ａｒｃｈｉｖｅ　Ｒａｖｅｎ,,その他の設立登記法人,東京都,千代田区,神田駿河台２丁目９番地３３－１７０１号,,13,101,1010062,,,,,,,2024-10-29,1,,,,,アーカイブレイブン,0
1740,8010401185902,新規,0,2024-10-29,2024-10-29,株式会社アトラスリバー,,株式会社,東京都,港区,白金２丁目５番２０－１８０５号,,13,103,1080072,,,,,,,2024-10-29,1,,,,,アトラスリバー,0
1741,8010401186058,新規,0,2024-10-29,2024-10-29,日湾メディア株式会社,,株式会社,東京都,港区,赤坂２丁目１４番５号Ｄａｉｗａ赤坂ビル４階,,13,103,1070052,,,,,,,2024-10-29,1,,,,,ニチワンメディア,0
1753,8010903009443,新規,0,2024-10-29,2024-10-29,ＳＴＬ合同会社,,合同会社,東京都,世田谷区,太子堂４丁目１８番１５号マガザン三軒茶屋２－３Ｆ－３,,13,112,1540004,,,,,,,2024-10-29,1,,,,,エスティーエル,0
1754,8010903009451,新規,0,2024-10-29,2024-10-29,ＳＫＡＩインベストメント合同会社,,合同会社,東京都,世田谷区,駒沢４丁目２５番１９号,,13,112,1540012,,,,,,,2024-10-29,1,,,,,スカイインベストメント,0
1761,8011001165352,新規,0,2024-10-29,2024-10-29,株式会社望月,,株式会社,東京都,渋谷区,恵比寿西２丁目４番８号ウィンド恵比寿ビル８Ｆ,,13,113,1500021,,,,,,,2024-10-29,1,,,,,モチヅキ,0
1762,8011001165393,新規,0,2024-10-29,2024-10-29,ＢＡＲＴＯＳＳ株式会社,,株式会社,東京都,渋谷区,渋谷２丁目１９－１５宮益坂ビルディング６０９,,13,113,1500002,,,,,,,2024-10-29,1,,,,,バルトッス,0
1763,8011001165402,新規,0,2024-10-29,2024-10-29,株式会社メゾンメディア,,株式会社,東京都,渋谷区,渋谷２丁目１９番１５号宮益坂ビルディング６０９,,13,113,1500002,,,,,,,2024-10-29,1,,,,,メゾンメディア,0
1764,8011001165419,新規,0,2024-10-29,2024-10-29,株式会社エビスマネジメント,,株式会社,東京都,渋谷区,恵比寿西１丁目３－１富士蔵ハイツ５０１,,13,113,1500021,,,,,,,2024-10-29,1,,,,,エビスマネジメント,0
1765,8011001165435,新規,0,2024-10-29,2024-10-29,株式会社Ｃｙａｎ,,株式会社,東京都,渋谷区,神宮前６丁目２３番４号桑野ビル２階,,13,113,1500001,,,,,,,2024-10-29,1,,,,,シーヤン,0
1766,8011001165518,新規,0,2024-10-29,2024-10-29,株式会社ＩＧＮＩＴＥ,,株式会社,東京都,渋谷区,渋谷２丁目１９番１５号５０１,,13,113,1500002,,,,,,,2024-10-29,1,,,,,イグナイト,0
1773,8011101109317,新規,0,2024-10-29,2024-10-29,株式会社ＲＥＵＮＩＯＮ　ＳＯＦＴＷＡＲＥ,,株式会社,東京都,新宿区,西新宿３丁目３番１３号西新宿水間ビル６階,,13,104,1600023,,,,,,,2024-10-29,1,,,,,リユニオンソフトウェア,0
1774,8011103015133,新規,0,2024-10-29,2024-10-29,合同会社ＭＹ,,合同会社,東京都,新宿区,下落合２丁目２番２－１０２号,,13,104,1610033,,,,,,,2024-10-29,1,,,,,エムワイ,0
1775,8011303005330,新規,0,2024-10-29,2024-10-29,合同会社大塚市場,,合同会社,東京都,杉並区,久我山３丁目３９－３３ハイツミヤシタ２０２,,13,115,1680082,,,,,,,2024-10-29,1,,,,,オオツカシジョウ,0
1778,8011601028157,新規,0,2024-10-29,2024-10-29,株式会社Ｉｃｈｉ,,株式会社,東京都,練馬区,東大泉３丁目６３番１４－２０１号,,13,120,1780063,,,,,,,2024-10-29,1,,,,,イチ,0
1779,8011701027760,新規,0,2024-10-29,2024-10-29,日本赤坂製薬株式会社,,株式会社,東京都,江戸川区,平井５丁目４５番５号渡辺ハイツ１０１,,13,123,1320035,,,,,,,2024-10-29,1,,,,,ニホンアカサカセイヤク,0
1780,8011805003402,新規,0,2024-10-29,2024-10-29,特定非営利活動法人Ｙｏｕｔｏｏ,,その他の設立登記法人,東京都,足立区,千住３丁目６ツォード千住弐番館３０１,,13,121,1200034,,,,,,,2024-10-29,1,,,,,ユートゥー,0
1787,8012701018519,新規,0,2024-10-29,2024-10-29,株式会社クリエイティブビルダーズ,,株式会社,東京都,東村山市,恩多町５丁目４９番地６２,,13,213,1890011,,,,,,,2024-10-29,1,,,,,クリエイティブビルダーズ,0
1789,8012801023534,新規,0,2024-10-29,2024-10-29,株式会社豊満企画,,株式会社,東京都,立川市,曙町２丁目１５番１３号３階,00136801,13,202,1900012,,,,,,,2024-10-29,1,,,,,ホウマンキカク,0
1792,8013301053286,新規,0,2024-10-29,2024-10-29,彼徳国際株式会社,,株式会社,東京都,豊島区,西池袋４丁目２３－１５,,13,116,1710021,,,,,,,2024-10-29,1,,,,,ヒトクコクサイ,0
1793,8013301053294,新規,0,2024-10-29,2024-10-29,株式会社パワーユーザー,,株式会社,東京都,豊島区,池袋２丁目５３番１２号,,13,116,1710014,,,,,,,2024-10-29,1,,,,,パワーユーザー,0
1811,8021001083594,新規,0,2024-10-29,2024-10-29,攬橋商務株式会社,,株式会社,神奈川県,秦野市,南矢名２２２３番地の４東海ビル１１１Ｂ,,14,211,2570003,,,,,,,2024-10-29,1,,,,,ランバシショウム,0
1815,8021003015158,新規,0,2024-10-29,2024-10-29,ＢＥＡＭ合同会社,,合同会社,神奈川県,茅ヶ崎市,赤羽根２５６９－１４,,14,207,2530001,,,,,,,2024-10-29,1,,,,,ビーム,0
1820,8030005021915,新規,0,2024-10-29,2024-10-29,花火農事組合法人,,その他の設立登記法人,埼玉県,越谷市,蒲生茜町３４番地２ニックハイム３１２,,11,222,3430843,,,,,,,2024-10-29,1,,,,,ハナビ,0
1821,8030005021923,新規,0,2024-10-29,2024-10-29,小江戸税理士法人,,その他の設立登記法人,埼玉県,入間郡毛呂山町,南台１丁目２０番地４,,11,326,3500464,,,,,,,2024-10-29,1,,,,,コエド,0
1834,8080101025071,新規,0,2024-10-29,2024-10-29,日本ホテルクリーン株式会社,,株式会社,静岡県,伊豆の国市,古奈５９２番地の３クリノキグリーンヒルズ１０２,,22,225,4102201,,,,,,,2024-10-29,1,,,,,ニホンホテルクリーン,0
1835,8080101025096,新規,0,2024-10-29,2024-10-29,株式会社ごとう,,株式会社,静岡県,沼津市,蓼原町３５番地の１,,22,203,4100843,,,,,,,2024-10-29,1,,,,,ゴトウ,0
1841,8100001037957,新規,0,2024-10-29,2024-10-29,グッドライフ株式会社,,株式会社,長野県,諏訪郡下諏訪町,６０５２番地,,20,361,3930000,,,,,,,2024-10-29,1,,,,,グッドライフ,0
1854,8120001269689,新規,0,2024-10-29,2024-10-29,ティアンドディジャパン株式会社,,株式会社,大阪府,大阪市生野区,林寺５丁目７－３－１号,,27,116,5440023,,,,,,,2024-10-29,1,,,,,ティアンドディジャパン,0
1855,8120001269763,新規,0,2024-10-29,2024-10-29,ネオテクノ株式会社,,株式会社,大阪府,枚方市,三栗１丁目１番３５号,,27,210,5731171,,,,,,,2024-10-29,1,,,,,ネオテクノ,0
1856,8120001269813,新規,0,2024-10-29,2024-10-29,株式会社ラウンドエース,,株式会社,大阪府,枚方市,村野東町６８番２号,,27,210,5730015,,,,,,,2024-10-29,1,,,,,ラウンドエース,0
1860,8120101070476,新規,0,2024-10-29,2024-10-29,ワイズテック株式会社,,株式会社,大阪府,堺市堺区,宿院町西３丁２番１４－３０７号グランビルド宿院,,27,141,5900958,,,,,,,2024-10-29,1,,,,,ワイズテック,0
1861,8120101070492,新規,0,2024-10-29,2024-10-29,株式会社ジャパンサーベイ,,株式会社,大阪府,堺市北区,北花田町３丁１７番地９,,27,146,5918002,,,,,,,2024-10-29,1,,,,,ジャパンサーベイ,0
1865,8120901049950,新規,0,2024-10-29,2024-10-29,株式会社ｔｈｒｅｅＥ,,株式会社,大阪府,吹田市,垂水町３丁目１３番３号,,27,205,5640062,,,,,,,2024-10-29,1,,,,,スリー,0
1867,8122001038578,新規,0,2024-10-29,2024-10-29,株式会社ＰＳＣ,,株式会社,大阪府,八尾市,神宮寺２丁目１３７番地の１２,,27,212,5810885,,,,,,,2024-10-29,1,,,,,ピーエスシー,0
1874,8130001078239,新規,0,2024-10-29,2024-10-29,株式会社ヒートオフィス,,株式会社,京都府,京都市伏見区,西町３９３番地,,26,109,6128354,,,,,,,2024-10-29,1,,,,,ヒートオフィス,0
1876,8130005017226,新規,0,2024-10-29,2024-10-29,一般社団法人ロスホコス,,その他の設立登記法人,京都府,京都市伏見区,桃山町大島３８番地３７４,,26,109,6128006,,,,,,,2024-10-29,1,,,,,ロスホコス,0
1882,8140001136227,新規,0,2024-10-29,2024-10-29,Ｓｔｏｎｅ　Ｈｏｕｓｅ株式会社,,株式会社,兵庫県,宝塚市,宮の町１３番１１号,,28,214,6650843,,,,,,,2024-10-29,1,,,,,ストーンハウス,0
1883,8140001136235,新規,0,2024-10-29,2024-10-29,たけのこハウス株式会社,,株式会社,兵庫県,尼崎市,南武庫之荘３丁目４番１２－１０７号,,28,202,6610033,,,,,,,2024-10-29,1,,,,,タケノコハウス,0
1884,8150001027631,新規,0,2024-10-29,2024-10-29,株式会社Ｇｒｏｗ,,株式会社,奈良県,香芝市,狐井１８９－１－Ｃ－２０２,,29,210,6390234,,,,,,,2024-10-29,1,,,,,グロウ,0
1899,8180001163861,新規,0,2024-10-29,2024-10-29,株式会社電玄人,,株式会社,愛知県,豊明市,三崎町三崎１０番地１０,,23,229,4701124,,,,,,,2024-10-29,1,,,,,デンクロウ,0
1900,8180001163878,新規,0,2024-10-29,2024-10-29,ＲＯＯＴＳ株式会社,,株式会社,愛知県,清須市,春日中沼６５番地,,23,233,4520962,,,,,,,2024-10-29,1,,,,,ルーツ,0
1902,8180003027503,新規,0,2024-10-29,2024-10-29,アッカ合同会社,,合同会社,愛知県,名古屋市名東区,猪子石１丁目４１２番地,,23,115,4650021,,,,,,,2024-10-29,1,,,,,アッカ,0
1909,8200003006537,新規,0,2024-10-29,2024-10-29,合同会社ＬＯＯＭ．０ｘ,,合同会社,岐阜県,関市,小瀬１９７７－５,,21,205,5013265,,,,,,,2024-10-29,1,,,,,ルームコネクトオックス,0
1936,8300003002195,新規,0,2024-10-29,2024-10-29,合同会社Ｓｐｅｃ　Ｓｕｐｐｏｒｔ,,合同会社,佐賀県,小城市,三日月町樋口１０３０番地８,00136807,41,208,8450033,,,,,,,2024-10-29,1,,,,,スペックサポート,0
1939,8330001032588,新規,0,2024-10-29,2024-10-29,閑閑舎アーキテクト株式会社,,株式会社,熊本県,上益城郡御船町,大字小坂１００９番３,,43,441,8613202,,,,,,,2024-10-29,1,,,,,カンカンシャアーキテクト,0
1943,8340003004642,新規,0,2024-10-29,2024-10-29,合同会社ユタカ,,合同会社,鹿児島県,鹿児島市,牟礼岡１丁目２７番１１号,,46,201,8911306,,,,,,,2024-10-29,1,,,,,ユタカ,0
1944,8350001019253,新規,0,2024-10-29,2024-10-29,株式会社Ｃｏｌａｎｄｅｒ,,株式会社,宮崎県,宮崎市,堀川町２６番３,,45,201,8800873,,,,,,,2024-10-29,1,,,,,コランダー,0
1945,8350003004773,新規,0,2024-10-29,2024-10-29,ＭａｓｈＤｅｓｉｇｎ合同会社,,合同会社,宮崎県,北諸県郡三股町,大字宮村１２８３番地８,,45,341,8891912,,,,,,,2024-10-29,1,,,,,マッシュデザイン,0
1947,8360001034359,新規,0,2024-10-29,2024-10-29,Ｔ’ｓガレージ株式会社,,株式会社,沖縄県,那覇市,字宇栄原６５４シャローム宇栄原３０２,,47,201,9010153,,,,,,,2024-10-29,1,,,,,ティーズガレージ,0
1948,8360001034375,新規,0,2024-10-29,2024-10-29,株式会社ＶＩＢＥＳ,,株式会社,沖縄県,中頭郡読谷村,字宇座１８６１番地,,47,324,9040328,,,,,,,2024-10-29,1,,,,,バイブス,0
1952,8370001051865,新規,0,2024-10-29,2024-10-29,株式会社エトワール,,株式会社,宮城県,多賀城市,下馬５丁目４番２０－５０１号,,04,209,9850835,,,,,,,2024-10-29,1,,,,,エトワール,0
1959,8380001034869,新規,0,2024-10-29,2024-10-29,株式会社福島県赤帽,,株式会社,福島県,福島市,仁井田字前林川原１８番地の１５,,07,201,9608166,,,,,,,2024-10-29,1,,,,,フクシマケンアカボウ,0
1962,8380005012887,新規,0,2024-10-29,2024-10-29,Ｅａｓｔｅｒｎ　Ｊａｐａｎ協同組合,,その他の設立登記法人,福島県,郡山市,田村町金屋字冬室１１０番１０,,07,203,9630725,,,,,,,2024-10-29,1,,,,,イースタンジャパン,0
1964,8410001013976,新規,0,2024-10-29,2024-10-29,東北リース株式会社,,株式会社,秋田県,秋田市,山王７丁目２番１４号７０１,,05,201,0100951,,,,,,,2024-10-29,1,,,,,トウホクリース,0
1968,8430001092952,新規,0,2024-10-29,2024-10-29,株式会社ベストプランニング,,株式会社,北海道,札幌市東区,北四十一条東１丁目２－１５　２階,,01,103,0070841,,,,,,,2024-10-29,1,,,,,ベストプランニング,0
1969,8430005015100,新規,0,2024-10-29,2024-10-29,一般社団法人日本華僑華人ゴルフ協会,,その他の設立登記法人,北海道,札幌市中央区,円山西町３丁目５番４５号,,01,101,0640944,,,,,,,2024-10-29,1,,,,,ニホンカキョウカジンゴルフキョウカイ,0
1970,8450005004431,新規,0,2024-10-29,2024-10-29,一般社団法人いきいきライフ協会旭川,,その他の設立登記法人,北海道,旭川市,六条通８丁目３６番地の２５セントラル旭川ビル,,01,204,0700036,,,,,,,2024-10-29,1,,,,,イキイキライフキョウカイアサヒカワ,0
1978,8700150127630,新規,0,2024-10-29,2024-10-29,Ｃａｒｅ　Ｓｐｏｒｔｓ　Ｃｏ．，Ｌｔｄ．,,外国会社等,,,,,,,,７０１，Ｊｕｊｉ　Ｔｅｃｈｎｏｌｏｇｙ　Ｂｕｉｌｄｉｎｇ，ＹａＢｉａｎ　ｓｔｕｄｅｎｔｓ　ｓｕｒｒｏｕｎｄ　Ｂａｏａｎ　Ａｖｅｎｕｅ，Ｙａｂｉａｎ　Ｃｏｍｍｕｎｉｔｙ，Ｓｈａｊｉｎｇ　Ｓｔｒｅｅｔ，Ｂａｏａｎ　Ｄｉｓｔｒｉｃｔ，Ｓｈｅｎｚｈｅｎ　Ｃｉｔｙ,,,,,,2024-10-29,1,,,,,ケアスポーツカンパニーリミテッド,0
1984,9010001249404,新規,0,2024-10-29,2024-10-29,株式会社声楽自主練の友,,株式会社,東京都,中央区,銀座１丁目１２番４号Ｎ＆ＥＢＬＤ．６Ｆ,,13,102,1040061,,,,,,,2024-10-29,1,,,,,セイガクジシュレンノトモ,0
1985,9010001249412,新規,0,2024-10-29,2024-10-29,株式会社エンティエント,,株式会社,東京都,中央区,銀座１丁目１２番４号Ｎ＆Ｅ・ＢＬＤ．６Ｆ,,13,102,1040061,,,,,,,2024-10-29,1,,,,,エンティエント,0
1986,9010001249429,新規,0,2024-10-29,2024-10-29,サポートサービスご縁株式会社,,株式会社,東京都,文京区,大塚６丁目２６番１９号,,13,105,1120012,,,,,,,2024-10-29,1,,,,,サポートサービスゴエン,0
1987,9010001249494,新規,0,2024-10-29,2024-10-29,ミライビット株式会社,,株式会社,東京都,中央区,日本橋室町１丁目１１番１２号日本橋水野ビル７階,,13,102,1030022,,,,,,,2024-10-29,1,,,,,ミライビット,0
1991,9010003045306,新規,0,2024-10-29,2024-10-29,ＥＫＧ　Ｉｎｔｅｒａｃｔｉｖｅ　Ｊａｐａｎ合同会社,,合同会社,東京都,千代田区,外神田３丁目１３番９号田中恒産ビル９Ｆ,,13,101,1010021,,,,,,,2024-10-29,1,,,,,イーケージーインタラクティブジャパン,0
2000,9010401185851,新規,0,2024-10-29,2024-10-29,株式会社サンライズ,,株式会社,東京都,港区,芝３丁目１７番１４号,,13,103,1050014,,,,,,,2024-10-29,1,,,,,サンライズ,0
2001,9010401186016,新規,0,2024-10-29,2024-10-29,株式会社ＴＯＳＨＩＫＩ　Ａｒｔ　Ｗｏｒｋ,,株式会社,東京都,港区,北青山１丁目３番１号アールキューブ青山３階,,13,103,1070061,,,,,,,2024-10-29,1,,,,,トキシアートワーク,0
2002,9010401186049,新規,0,2024-10-29,2024-10-29,株式会社ＩＣ,,株式会社,東京都,港区,南青山２丁目４番９号,,13,103,1070062,,,,,,,2024-10-29,1,,,,,アイシー,0
2006,9010403033678,新規,0,2024-10-29,2024-10-29,合同会社藤井屋,,合同会社,東京都,港区,六本木６丁目１６番１１－３０１号,,13,103,1060032,,,,,,,2024-10-29,1,,,,,フジイヤ,0
2009,9010601066182,新規,0,2024-10-29,2024-10-29,冉冉林森株式会社,,株式会社,東京都,墨田区,石原２丁目１６番１０－４０１号,,13,107,1300011,,,,,,,2024-10-29,1,,,,,ゼンゼンリンシン,0
2012,9010801035524,新規,0,2024-10-29,2024-10-29,株式会社Ｗａｉ　Ｗａｉ　ｆｒｕｉｔ,,株式会社,東京都,大田区,東海３丁目２番１号,,13,111,1430001,,,,,,,2024-10-29,1,,,,,ワイワイフルーツ,0
2013,9010901056206,新規,0,2024-10-29,2024-10-29,株式会社Ｌｉｆｅｗａｌｋ　Ｐｌｕｓ,,株式会社,東京都,世田谷区,等々力８丁目４番３号,,13,112,1580082,,,,,,,2024-10-29,1,,,,,ライフウォークプラス,0
2020,9011001165392,新規,0,2024-10-29,2024-10-29,株式会社ＣＤ＆Ｂ,,株式会社,東京都,渋谷区,道玄坂１丁目１０番８号渋谷道玄坂東急ビル２Ｆ－Ｃ,,13,113,1500043,,,,,,,2024-10-29,1,,,,,シーディーアンドビー,0
2021,9011001165401,新規,0,2024-10-29,2024-10-29,株式会社アムカ,,株式会社,東京都,目黒区,下目黒２丁目１０番６号グレイス下目黒１０１,,13,110,1530064,,,,,,,2024-10-29,1,,,,,アムカ,0
2022,9011003020307,新規,0,2024-10-29,2024-10-29,合同会社クエシス,,合同会社,東京都,渋谷区,道玄坂１丁目１０‐８渋谷道玄坂東急ビル２Ｆ‐Ｃ,,13,113,1500043,,,,,,,2024-10-29,1,,,,,クエシス,0
2034,9011103015132,新規,0,2024-10-29,2024-10-29,合同会社ＳＡＲＶＥＳＴ,,合同会社,東京都,新宿区,西新宿４丁目６番１２－７０２,,13,104,1600023,,,,,,,2024-10-29,1,,,,,サーヴェスト,0
2035,9011301030073,新規,0,2024-10-29,2024-10-29,株式会社Ｇｅｍｉｎｉ　Ｃｒｏｗｎ,,株式会社,東京都,杉並区,上井草３丁目１７番２６号,,13,115,1670023,,,,,,,2024-10-29,1,,,,,ジェミナイクラウン,0
2038,9011601028156,新規,0,2024-10-29,2024-10-29,株式会社ロゼリア,,株式会社,東京都,練馬区,向山２丁目２８番１５号,,13,120,1760022,,,,,,,2024-10-29,1,,,,,ロゼリア,0
2039,9011603004493,新規,0,2024-10-29,2024-10-29,ＳＧＳ合同会社,,合同会社,東京都,練馬区,大泉学園町５丁目３０番４１号,,13,120,1780061,,,,,,,2024-10-29,1,,,,,エスジーエス,0
2044,9012703003121,新規,0,2024-10-29,2024-10-29,合同会社ＫＡＺＵＯ,,合同会社,東京都,西東京市,田無町６丁目２番９号５－５０３,,13,229,1880011,,,,,,,2024-10-29,1,,,,,カズオ,0
2046,9013301053277,新規,0,2024-10-29,2024-10-29,株式会社こども政策シンクタンク,,株式会社,東京都,豊島区,南大塚２丁目３５番１１号アーバングリーン,,13,116,1700005,,,,,,,2024-10-29,1,,,,,コドモセイサクシンクタンク,0
2058,9021001083585,新規,0,2024-10-29,2024-10-29,株式会社ＨＹＯＴＡＲＯ,,株式会社,神奈川県,小田原市,扇町５丁目１５番６号,,14,206,2500001,,,,,,,2024-10-29,1,,,,,ヒョウタロウ,0
2059,9021001083593,新規,0,2024-10-29,2024-10-29,凱貝株式会社,,株式会社,神奈川県,秦野市,南矢名２２２３番地の４東海ビル１０６Ａ,,14,211,2570003,,,,,,,2024-10-29,1,,,,,カイバイ,0
2060,9021001083619,新規,0,2024-10-29,2024-10-29,いしのの株式会社,,株式会社,神奈川県,綾瀬市,寺尾北２丁目１１番６－３０２号,,14,218,2521131,,,,,,,2024-10-29,1,,,,,イシノノ,0
2061,9021001083635,新規,0,2024-10-29,2024-10-29,株式会社ロイヤルブルーム,,株式会社,神奈川県,鎌倉市,材木座５丁目４番４号,,14,204,2480013,,,,,,,2024-10-29,1,,,,,ロイヤルブルーム,0
2064,9021003015149,新規,0,2024-10-29,2024-10-29,合同会社エフティ,,合同会社,神奈川県,鎌倉市,梶原１丁目１０番１４号,,14,204,2470063,,,,,,,2024-10-29,1,,,,,エフティ,0
2071,9030005021914,新規,0,2024-10-29,2024-10-29,農事組合法人からし,,その他の設立登記法人,埼玉県,越谷市,蒲生茜町３４番地２ニックハイム３１２,,11,222,3430843,,,,,,,2024-10-29,1,,,,,カラシ,0
2075,9040001135964,新規,0,2024-10-29,2024-10-29,エヌエスエム株式会社,,株式会社,千葉県,柏市,正連寺３７８番地中央７２街区４,,12,217,2770814,,,,,,,2024-10-29,1,,,,,エヌエスエム,0
2080,9050001055609,新規,0,2024-10-29,2024-10-29,雪田設計株式会社,,株式会社,茨城県,石岡市,山崎２５５８番地２,,08,205,3150125,,,,,,,2024-10-29,1,,,,,ユキタセッケイ,0
2081,9050001055625,新規,0,2024-10-29,2024-10-29,株式会社Ｒ＆Ｎ,,株式会社,茨城県,神栖市,横瀬９９５番地４５,,08,232,3140113,,,,,,,2024-10-29,1,,,,,アールアンドエヌ,0
2082,9050003008705,新規,0,2024-10-29,2024-10-29,ＱＬＯＰ合同会社,,合同会社,茨城県,つくば市,東新井１３番２号,,08,220,3050033,,,,,,,2024-10-29,1,,,,,クロップ,0
2087,9080103003173,新規,0,2024-10-29,2024-10-29,合同会社Ｅｐｉｓｏｄｅ　Ｊａｐａｎ,,合同会社,静岡県,伊東市,富戸１１０２－５０,,22,208,4130231,,,,,,,2024-10-29,1,,,,,エピソードジャパン,0
2090,9090003002670,新規,0,2024-10-29,2024-10-29,合同会社Ｍｏｎｔｅ　Ａｕｔｕｎｎｏ,,合同会社,山梨県,甲府市,高畑１丁目２２番６号,,19,201,4000042,,,,,,,2024-10-29,1,,,,,モンテアウトゥンノ,0
2093,9100003007841,新規,0,2024-10-29,2024-10-29,合同会社明星,,合同会社,長野県,松本市,深志２丁目６－６,,20,202,3900815,,,,,,,2024-10-29,1,,,,,メイセイ,0
2101,9120001269630,新規,0,2024-10-29,2024-10-29,株式会社マカロニグラタン,,株式会社,大阪府,大阪市西区,京町堀１丁目７番地１２号京町堀パートナーズビル２Ｆ,,27,106,5500003,,,,,,,2024-10-29,1,,,,,マカロニグラタン,0
2102,9120001269746,新規,0,2024-10-29,2024-10-29,盈科株式会社,,株式会社,大阪府,大阪市住吉区,我孫子１丁目７－５－１０２,,27,120,5580014,,,,,,,2024-10-29,1,,,,,エイカ,0
2103,9120001269762,新規,0,2024-10-29,2024-10-29,株式会社ＤｒｅａｍｅｒｓＬａｎｄ,,株式会社,大阪府,大阪市北区,梅田１丁目２番２号大阪駅前第２ビル１２－１２,,27,127,5300001,,,,,,,2024-10-29,1,,,,,ドリーマーズランド,0
2104,9120001269770,新規,0,2024-10-29,2024-10-29,楽知株式会社,,株式会社,大阪府,大阪市東成区,深江北３丁目４番２１号エクラ深江橋２０２Ａ,,27,115,5370001,,,,,,,2024-10-29,1,,,,,ラクチ,0
2105,9120001269787,新規,0,2024-10-29,2024-10-29,株式会社ＲＥ,,株式会社,大阪府,大阪市中央区,東心斎橋２丁目８番２３号,,27,128,5420083,,,,,,,2024-10-29,1,,,,,アールイー,0
2106,9120001269804,新規,0,2024-10-29,2024-10-29,株式会社９Ｔｉｍｅｓ,,株式会社,大阪府,大阪市北区,長柄西１丁目２番２５号,,27,127,5310061,,,,,,,2024-10-29,1,,,,,ナインタイムス,0
2109,9120005024593,新規,0,2024-10-29,2024-10-29,なにわ行政書士法人,,その他の設立登記法人,大阪府,大阪市中央区,瓦屋町２丁目１２番１５－３０４号,,27,128,5420066,,,,,,,2024-10-29,1,,,,,ナニワ,0
2118,9120901049958,新規,0,2024-10-29,2024-10-29,メディカルサポートソリューション株式会社,,株式会社,大阪府,豊中市,新千里西町２丁目１９番５号,,27,203,5600083,,,,,,,2024-10-29,1,,,,,メディカルサポートソリューション,0
2119,9120901049966,新規,0,2024-10-29,2024-10-29,株式会社塩貝設備,,株式会社,大阪府,豊中市,走井１丁目１３番２号,,27,203,5610891,,,,,,,2024-10-29,1,,,,,シオカイセツビ,0
2123,9122001038577,新規,0,2024-10-29,2024-10-29,楽宸株式会社,,株式会社,大阪府,東大阪市,長堂１丁目２－１７東振ビル４Ｆ,,27,227,5770056,,,,,,,2024-10-29,1,,,,,ラクシン,0
2127,9130001078221,新規,0,2024-10-29,2024-10-29,株式会社志,,株式会社,京都府,京都市下京区,堀川富永町６９２番地,,26,106,6000000,,,,,,,2024-10-29,1,,,,,ココロザシ,0
2131,9140001136234,新規,0,2024-10-29,2024-10-29,メディカルサポートリンク株式会社,,株式会社,兵庫県,神戸市西区,平野町宮前６５番地,,28,111,6512265,,,,,,,2024-10-29,1,,,,,,0
2132,9140001136242,新規,0,2024-10-29,2024-10-29,株式会社吉建工業,,株式会社,兵庫県,高砂市,荒井町小松原４丁目１０５５番地の６,,28,216,6760011,,,,,,,2024-10-29,1,,,,,ヨシケンコウギョウ,0
2139,9150005009633,新規,0,2024-10-29,2024-10-29,一般社団法人ＳＰＡＣＥ,,その他の設立登記法人,奈良県,大和高田市,神楽３丁目１番２０号サンプラザ１階ｓｈｉｎｅｏｎｓｐａｃｅＨＡＲＵ,,29,202,6350025,,,,,,,2024-10-29,1,,,,,スペース,0
2154,9180001163761,新規,0,2024-10-29,2024-10-29,株式会社Ｌｕｎａコンサルティング,,株式会社,愛知県,名古屋市中区,錦２丁目７番７号,,23,106,4600003,,,,,,,2024-10-29,1,,,,,ルナコンサルティング,0
2155,9180001163778,新規,0,2024-10-29,2024-10-29,株式会社タイガーマッチョ,,株式会社,愛知県,名古屋市熱田区,桜田町４番１０号榊原ビル１－Ｄ,,23,109,4560004,,,,,,,2024-10-29,1,,,,,タイガーマッチョ,0
2156,9180001163828,新規,0,2024-10-29,2024-10-29,株式会社ＢｏｎＤ,,株式会社,愛知県,名古屋市東区,出来町３丁目４番１６号ＮＥＯＪＡＰＡＮＥＳＱＵＥ出来町１００１,,23,102,4610032,,,,,,,2024-10-29,1,,,,,ボンド,0
2157,9180001163860,新規,0,2024-10-29,2024-10-29,株式会社ＣＨＡＮＫ,,株式会社,愛知県,瀬戸市,すみれ台１丁目３１番地,,23,204,4890904,,,,,,,2024-10-29,1,,,,,チャンク,0
2158,9180001163877,新規,0,2024-10-29,2024-10-29,株式会社えがおまんぷく,,株式会社,愛知県,稲沢市,片原一色町道上８番地２,,23,220,4928355,,,,,,,2024-10-29,1,,,,,エガオマンプク,0
2166,9200001043077,新規,0,2024-10-29,2024-10-29,株式会社ＳＳクリーンアップ,,株式会社,岐阜県,中津川市,千旦林１６７７番地の４７,,21,206,5099131,,,,,,,2024-10-29,1,,,,,エスエスクリーンアップ,0
2167,9200001043085,新規,0,2024-10-29,2024-10-29,株式会社アナトラ,,株式会社,岐阜県,岐阜市,羽根町２２番地,,21,201,5008834,,,,,,,2024-10-29,1,,,,,アナトラ,0
2171,9250001020864,新規,0,2024-10-29,2024-10-29,株式会社ｋｕ‐ｂｏハウス,,株式会社,山口県,下関市,彦島西山町３丁目５番２号,,35,201,7500093,,,,,,,2024-10-29,1,,,,,クーボハウス,0
2180,9290803004870,新規,0,2024-10-29,2024-10-29,ＫＣＳ合同会社,,合同会社,福岡県,田川郡福智町,赤池１８３番地１３,,40,610,8221101,,,,,,,2024-10-29,1,,,,,ケーシーエス,0
2187,9320003004503,新規,0,2024-10-29,2024-10-29,合同会社おおいたシラシンケンＰｒｏｊｅｃｔ,,合同会社,大分県,大分市,豊海４丁目３番８号,,44,201,8700018,,,,,,,2024-10-29,1,,,,,オオイタシラシンケンプロジェクト,0
2190,9330001032587,新規,0,2024-10-29,2024-10-29,株式会社阿蘇アニマルキッズマレ,,株式会社,熊本県,阿蘇市,一の宮町坂梨２６５９番地２,,43,214,8692611,,,,,,,2024-10-29,1,,,,,アソアニマルキッズマレ,0
2192,9330005010837,新規,0,2024-10-29,2024-10-29,一般社団法人天草れいほく観光協会,,その他の設立登記法人,熊本県,天草郡苓北町,上津深江４５３５番地１,,43,531,8632502,,,,,,,2024-10-29,1,,,,,アマクサレイホクカンコウキョウカイ,0
2195,9350001019252,新規,0,2024-10-29,2024-10-29,株式会社Ｓｕｎｎｙわん,,株式会社,宮崎県,児湯郡川南町,大字平田５５９４番地９,,45,405,8891302,,,,,,,2024-10-29,1,,,,,サニーワン,0
2196,9350003004772,新規,0,2024-10-29,2024-10-29,合同会社Ｇｏ‐ｔｏ．Ｄａｙ,,合同会社,宮崎県,東諸県郡綾町,大字入野２９５番地３,,45,383,8801301,,,,,,,2024-10-29,1,,,,,,0
2205,9370001051864,新規,0,2024-10-29,2024-10-29,株式会社Ｄｏ,,株式会社,宮城県,大崎市,古川七日町１０番２号,,04,215,9896153,,,,,,,2024-10-29,1,,,,,ドゥ,0
2207,9380001034868,新規,0,2024-10-29,2024-10-29,株式会社エンゲージ,,株式会社,福島県,双葉郡大熊町,大字熊字旭台４２０番地２２,,07,545,9791305,,,,,,,2024-10-29,1,,,,,エンゲージ,0
2214,9420001018908,新規,0,2024-10-29,2024-10-29,株式会社糸山農店,,株式会社,青森県,十和田市,大字洞内字後野１０５番地２,,02,206,0340107,,,,,,,2024-10-29,1,,,,,イトヤマノウテン,0
2215,9430001092943,新規,0,2024-10-29,2024-10-29,株式会社ＨＡＲＵ,,株式会社,北海道,札幌市北区,北三十条西１１丁目３番１１号,,01,102,0010030,,,,,,,2024-10-29,1,,,,,ハル,0
2219,9450003002551,新規,0,2024-10-29,2024-10-29,沼田除雪組合合同会社,,合同会社,北海道,雨竜郡沼田町,字沼田１０３番地６９,,01,438,0782222,,,,,,,2024-10-29,1,,,,,ヌマタジョセツクミアイ,0
