sequenceNumber,corporateNumber,process,correct,updateDate,changeDate,name,nameImageId,kind,prefectureName,cityName,streetNumber,addressImageId,prefectureCode,cityCode,postCode,addressOutside,addressOutsideImageId,closeDate,closeCause,successorCorporateNumber,changeCause,assignmentDate,latest,enName,enPrefectureName,enCityName,enAddressOutside,furigana,hihyoji
1,1010001091301,登記記録の閉鎖等,0,2026-01-13,2026-01-05,株式会社電通ｔｅｍｐｏ,,株式会社,東京都,港区,東新橋１丁目８番１号,,13,103,1050021,,,2026-01-05,合併による解散等,7010001180643,令和８年１月１日東京都港区東新橋一丁目８番１号株式会社電通プロモーション（7010001180643）に合併し解散,2015-10-05,1,,,,,デンツウテンポ,0
2,1010001190433,登記記録の閉鎖等,0,2026-01-13,2025-12-17,エスオーシーデンカ・ターミナル株式会社,,株式会社,東京都,港区,東新橋１丁目９番２号,,13,103,1050021,,,2025-12-17,清算の結了等,,,2018-03-20,1,,,,,エスオーシーデンカターミナル,0
10,1010005031773,登記記録の閉鎖等,0,2026-01-13,2026-01-07,ＤＨ弥富開発特定目的会社,,その他の設立登記法人,東京都,中央区,日本橋１丁目４番１号,,13,102,1030027,,,2026-01-07,清算の結了等,,,2020-05-01,1,,,,,ディエイチヤトミカイハツ,0
11,1010005032722,登記記録の閉鎖等,0,2026-01-13,2026-01-07,一般社団法人メディカルヴィーガン協会,,その他の設立登記法人,東京都,千代田区,麹町６丁目４番地３－１１０１号,,13,101,1020083,,,2026-01-07,清算の結了等,,,2020-12-25,1,,,,,メディカルヴィーガンキョウカイ,0
14,1010101012719,登記記録の閉鎖等,0,2026-01-13,2026-01-09,アウトリーチ株式会社,,株式会社,東京都,八王子市,川町２４４番地２２３,,13,201,1930821,,,2026-01-09,清算の結了等,,,2017-02-23,1,,,,,アウトリーチ,0
17,1010403031730,登記記録の閉鎖等,0,2026-01-13,2025-12-24,ノースホールディングス合同会社,,合同会社,東京都,江東区,豊洲５丁目６番２９－１２３０号,,13,108,1350061,,,2025-12-24,清算の結了等,,,2024-01-11,1,,,,,ノースホールディングス,0
35,1010901046940,登記記録の閉鎖等,0,2026-01-13,2026-01-08,株式会社比金デザイン研究所,,株式会社,東京都,世田谷区,上野毛４丁目２３番８号,,13,112,1580093,,,2026-01-08,清算の結了等,,,2020-09-07,1,,,,,ヒガネデザインケンキュウジョ,0
45,1011003011528,登記記録の閉鎖等,0,2026-01-13,2025-12-12,合同会社ＦＲＥＤＹ,,合同会社,東京都,目黒区,鷹番１丁目１２－４ネスト鷹番２０１号,,13,110,1520004,,,2025-12-12,清算の結了等,,,2020-08-21,1,,,,,フレディ,0
77,1012703002394,登記記録の閉鎖等,0,2026-01-13,2025-12-25,合同会社昇経済研究所,,合同会社,東京都,西東京市,栄町２丁目１番３２号,,13,229,2020006,,,2025-12-25,清算の結了等,,,2022-01-28,1,,,,,ノボリケイザイケンキュウジョ,0
81,1020001015267,登記記録の閉鎖等,0,2026-01-13,2025-12-16,大信商事株式会社,,株式会社,神奈川県,茅ヶ崎市,中海岸１丁目４番６－４０３号,,14,207,2530055,,,2025-12-16,清算の結了等,,,2015-10-05,1,,,,,ダイシンショウジ,0
95,1021002049130,登記記録の閉鎖等,0,2026-01-13,2025-12-15,有限会社ナカザワ,,有限会社,神奈川県,綾瀬市,吉岡３４１３番地１,,14,218,2521124,,,2025-12-15,清算の結了等,,,2015-10-05,1,,,,,ナカザワ,0
98,1030001061293,登記記録の閉鎖等,0,2026-01-13,2025-12-24,株式会社サンレックス,,株式会社,埼玉県,児玉郡美里町,大字関２０４８番地１,,11,381,3670102,,,2025-12-24,清算の結了等,,,2015-10-05,1,,,,,サンレックス,0
105,1030005004133,登記記録の閉鎖等,0,2026-01-13,2025-12-24,特定非営利活動法人相続相談センター,,その他の設立登記法人,埼玉県,所沢市,大字久米５５１番地３東亜ビル１階,,11,208,3591131,,,2025-12-24,清算の結了等,,,2015-10-05,1,,,,,ソウゾクソウダンセンター,0
117,1040003005215,登記記録の閉鎖等,0,2026-01-13,2025-12-08,合同会社オフィス・ケイ,,合同会社,千葉県,船橋市,市場４丁目１３番１４号,,12,204,2730001,,,2025-12-08,清算の結了等,,,2015-10-05,1,,,,,オフィスケイ,0
121,1050002011551,登記記録の閉鎖等,0,2026-01-13,2025-12-17,有限会社佐野屋商店,,有限会社,茨城県,土浦市,真鍋３丁目９番８号,,08,203,3000051,,,2025-12-17,清算の結了等,,,2015-10-05,1,,,,,,0
134,1100001000731,登記記録の閉鎖等,0,2026-01-13,2026-01-05,北島興業株式会社,,株式会社,長野県,長野市,若穂綿内６８８７番地,,20,201,3810101,,,2026-01-05,合併による解散等,9100001000732,令和８年１月１日長野市若穂綿内６８８７番地北島産業株式会社（9100001000732）に合併し解散,2015-10-05,1,,,,,キタジマコウギョウ,0
136,1100002028409,登記記録の閉鎖等,0,2026-01-13,2026-01-06,有限会社スリー精工,,有限会社,長野県,諏訪市,大字湖南６３６４番地１,,20,206,3920131,,,2026-01-06,清算の結了等,,,2015-10-05,1,,,,,スリーセイコウ,0
142,1110002004078,登記記録の閉鎖等,0,2026-01-13,2026-01-05,有限会社田村,,有限会社,新潟県,新潟市中央区,湖南２１番地１１,,15,103,9501151,,,2026-01-05,合併による解散等,5110001009371,令和８年１月１日新潟市中央区湖南２１番地１１株式会社田村ブレース（5110001009371）に合併し解散,2015-10-05,1,,,,,タムラ,0
143,1120001076522,登記記録の閉鎖等,0,2026-01-13,2025-12-26,株式会社オサムシ,,株式会社,兵庫県,西宮市,千歳町２番１２－３１０号,,28,204,6620046,,,2025-12-26,清算の結了等,,,2015-10-05,1,,,,,オサムシ,0
165,1120101049386,登記記録の閉鎖等,0,2026-01-13,2026-01-06,株式会社エスエヌコンサル,,株式会社,大阪府,岸和田市,東ケ丘町８０８番地の７７７,,27,202,5960807,,,2026-01-06,清算の結了等,,,2015-10-05,1,,,,,エスエヌコンサル,0
173,1122001003563,登記記録の閉鎖等,0,2026-01-13,2025-12-25,昭和精機株式会社,,株式会社,大阪府,東大阪市,高井田中２丁目６番１６号,,27,227,5770065,,,2025-12-25,清算の結了等,,,2015-10-05,1,,,,,ショウワセイキ,0
182,1140002028198,登記記録の閉鎖等,0,2026-01-13,2026-01-07,明石不動産有限会社,,有限会社,兵庫県,明石市,本町１丁目１番２６号,,28,203,6730892,,,2026-01-07,合併による解散等,8120001043466,令和８年１月１日大阪市西区西本町一丁目１３番９号株式会社ランディア（8120001043466）に合併し解散,2015-10-05,1,,,,,アカシフドウサン,0
183,1140005011779,登記記録の閉鎖等,0,2026-01-13,2026-01-06,企業組合優希,,その他の設立登記法人,兵庫県,尼崎市,立花町２丁目１５番３号東平和荘６号室,,28,202,6610025,,,2026-01-06,清算の結了等,,,2015-10-05,1,,,,,ユウキ,0
196,1180002041676,登記記録の閉鎖等,0,2026-01-13,2025-12-16,有限会社チャンピオンズ,,有限会社,愛知県,名古屋市守山区,翠松園３丁目１６０５番地,,23,113,4630010,,,2025-12-16,合併による解散等,3180003017252,令和７年１２月２日名古屋市守山区翠松園三丁目１６０５番地株式会社ＤＣ‐ｅｓｔａｔｅ（3180003017252）に合併し解散,2015-10-05,1,,,,,チャンピオンズ,0
234,1290001105743,登記記録の閉鎖等,0,2026-01-13,2025-12-22,株式会社アチーヴ,,株式会社,福岡県,古賀市,新久保１丁目１３番１３号Ａ－２０２,,40,223,8113118,,,2025-12-22,清算の結了等,,,2024-05-08,1,,,,,アチーヴ,0
245,1310001000149,登記記録の閉鎖等,0,2026-01-13,2026-01-09,株式会社栄成,,株式会社,長崎県,長崎市,銅座町６番８号,,42,201,8500841,,,2026-01-09,登記官による閉鎖,,,2015-10-05,1,,,,,,0
246,1310001000702,登記記録の閉鎖等,0,2026-01-13,2026-01-09,株式会社サンマークライフクリエーション長崎,,株式会社,長崎県,長崎市,恵美須町７番１２号,,42,201,8500056,,,2026-01-09,登記官による閉鎖,,,2015-10-05,1,,,,,,0
247,1310001000719,登記記録の閉鎖等,0,2026-01-13,2026-01-09,株式会社シー・エフ,,株式会社,長崎県,長崎市,万才町１番１３号,,42,201,8500033,,,2026-01-09,登記官による閉鎖,,,2015-10-05,1,,,,,,0
248,1310001000776,登記記録の閉鎖等,0,2026-01-13,2026-01-09,新長崎観光株式会社,,株式会社,長崎県,長崎市,大黒町６番６号,,42,201,8500057,,,2026-01-09,登記官による閉鎖,,,2015-10-05,1,,,,,,0
249,1310001000784,登記記録の閉鎖等,0,2026-01-13,2026-01-09,新日本土建株式会社,,株式会社,長崎県,長崎市,平間町１３０９番地,,42,201,8510136,,,2026-01-09,登記官による閉鎖,,,2015-10-05,1,,,,,,0
250,1310001000842,登記記録の閉鎖等,0,2026-01-13,2026-01-09,株式会社秀和,,株式会社,長崎県,長崎市,深堀町１丁目７４番地,,42,201,8510301,,,2026-01-09,登記官による閉鎖,,,2015-10-05,1,,,,,,0
251,1310001000859,登記記録の閉鎖等,0,2026-01-13,2026-01-09,株式会社ジャパンブライダルサービス,,株式会社,長崎県,長崎市,宝町３番１号,,42,201,8500045,,,2026-01-09,登記官による閉鎖,,,2015-10-05,1,,,,,,0
252,1310001001072,登記記録の閉鎖等,0,2026-01-13,2026-01-09,株式会社宝島,,株式会社,長崎県,長崎市,畝刈町８３６番地,,42,201,8512212,,,2026-01-09,登記官による閉鎖,,,2015-10-05,1,,,,,,0
253,1310001001329,登記記録の閉鎖等,0,2026-01-13,2026-01-09,長崎漁網株式会社,,株式会社,長崎県,長崎市,五島町１番１９号,,42,201,8500036,,,2026-01-09,登記官による閉鎖,,,2015-10-05,1,,,,,,0
254,1310001001592,登記記録の閉鎖等,0,2026-01-13,2026-01-09,株式会社南部生コン,,株式会社,長崎県,長崎市,香焼町１２７３番地,,42,201,8510310,,,2026-01-09,登記官による閉鎖,,,2015-10-05,1,,,,,,0
255,1310001001898,登記記録の閉鎖等,0,2026-01-13,2026-01-09,株式会社藤原商会,,株式会社,長崎県,長崎市,炉粕町２５番地,,42,201,8500021,,,2026-01-09,登記官による閉鎖,,,2015-10-05,1,,,,,,0
256,1310001002062,登記記録の閉鎖等,0,2026-01-13,2026-01-09,丸岡海運株式会社,,株式会社,長崎県,長崎市,元船町７番９号岡橋ビル２階,,42,201,8500035,,,2026-01-09,登記官による閉鎖,,,2015-10-05,1,,,,,,0
257,1310001002070,登記記録の閉鎖等,0,2026-01-13,2026-01-09,株式会社丸金,,株式会社,長崎県,長崎市,京泊３丁目３番１号,,42,201,8512211,,,2026-01-09,登記官による閉鎖,,,2015-10-05,1,,,,,,0
258,1310001002566,登記記録の閉鎖等,0,2026-01-13,2026-01-09,株式会社エム・ディー・オー,,株式会社,長崎県,長崎市,魚の町３番３３号,,42,201,8500874,,,2026-01-09,登記官による閉鎖,,,2015-10-05,1,,,,,,0
259,1310001002599,登記記録の閉鎖等,0,2026-01-13,2026-01-09,株式会社殿商,,株式会社,長崎県,長崎市,鍛冶屋町５番７８号,,42,201,8500831,,,2026-01-09,登記官による閉鎖,,,2015-10-05,1,,,,,,0
260,1310001003242,登記記録の閉鎖等,0,2026-01-13,2026-01-09,九州地所株式会社,,株式会社,長崎県,長崎市,賑町７番７号,,42,201,8500876,,,2026-01-09,登記官による閉鎖,,,2020-03-27,1,,,,,キュウシュウチショ,0
261,1310001003457,登記記録の閉鎖等,0,2026-01-13,2026-01-09,株式会社松本組,,株式会社,長崎県,西彼杵郡長与町,高田郷２２８９番地５,,42,307,8512127,,,2026-01-09,登記官による閉鎖,,,2015-10-05,1,,,,,,0
262,1310001005255,登記記録の閉鎖等,0,2026-01-13,2026-01-09,川渕興産株式会社,,株式会社,長崎県,佐世保市,吉岡町１７４７番地,,42,202,8570143,,,2026-01-09,登記官による閉鎖,,,2015-10-05,1,,,,,カワブチコウサン,0
263,1310001005338,登記記録の閉鎖等,0,2026-01-13,2026-01-09,株式会社建産,,株式会社,長崎県,佐世保市,大野町２６０番地４,,42,202,8570131,,,2026-01-09,登記官による閉鎖,,,2015-10-05,1,,,,,,0
264,1310001005387,登記記録の閉鎖等,0,2026-01-13,2026-01-09,佐世保環境設備株式会社,,株式会社,長崎県,佐世保市,長坂町６６２番地２０,,42,202,8580921,,,2026-01-09,登記官による閉鎖,,,2015-10-05,1,,,,,,0
265,1310001005635,登記記録の閉鎖等,0,2026-01-13,2026-01-09,株式会社タイガー,,株式会社,長崎県,佐世保市,下京町７番２０号,,42,202,8570875,,,2026-01-09,登記官による閉鎖,,,2015-10-05,1,,,,,,0
266,1310001005651,登記記録の閉鎖等,0,2026-01-13,2026-01-09,株式会社大都建設,,株式会社,長崎県,佐世保市,重尾町２３３番地１,,42,202,8593224,,,2026-01-09,登記官による閉鎖,,,2015-10-05,1,,,,,,0
267,1310001005676,登記記録の閉鎖等,0,2026-01-13,2026-01-09,平建設株式会社,,株式会社,長崎県,佐世保市,天神２丁目６１１番地４,,42,202,8571174,,,2026-01-09,登記官による閉鎖,,,2015-10-05,1,,,,,,0
268,1310001005734,登記記録の閉鎖等,0,2026-01-13,2026-01-09,株式会社テクノソフト,,株式会社,長崎県,佐世保市,勝海町１６５番地１,,42,202,8593216,,,2026-01-09,登記官による閉鎖,,,2015-10-05,1,,,,,,0
269,1310001005742,登記記録の閉鎖等,0,2026-01-13,2026-01-09,テレコムデータ株式会社,,株式会社,長崎県,佐世保市,赤崎町８０番地,,42,202,8570064,,,2026-01-09,登記官による閉鎖,,,2015-10-05,1,,,,,,0
270,1310001005890,登記記録の閉鎖等,0,2026-01-13,2026-01-09,株式会社バイモ,,株式会社,長崎県,佐世保市,小野町１番地１１,,42,202,8580965,,,2026-01-09,登記官による閉鎖,,,2015-10-05,1,,,,,,0
271,1310001006105,登記記録の閉鎖等,0,2026-01-13,2026-01-09,山喜工業株式会社,,株式会社,長崎県,佐世保市,天神４丁目１７番４号,,42,202,8571174,,,2026-01-09,登記官による閉鎖,,,2015-10-05,1,,,,,,0
272,1310001006154,登記記録の閉鎖等,0,2026-01-13,2026-01-09,株式会社ラ・モール,,株式会社,長崎県,佐世保市,本島町１番２５号,,42,202,8570871,,,2026-01-09,登記官による閉鎖,,,2015-10-05,1,,,,,,0
273,1310001006170,登記記録の閉鎖等,0,2026-01-13,2026-01-09,県北総業株式会社,,株式会社,長崎県,佐世保市,金比良町６番６号,,42,202,8570062,,,2026-01-09,登記官による閉鎖,,,2015-10-05,1,,,,,,0
274,1310001006328,登記記録の閉鎖等,0,2026-01-13,2026-01-09,株式会社創未来,,株式会社,長崎県,佐世保市,上本山町３６１番２,,42,202,8580903,,,2026-01-09,登記官による閉鎖,,,2015-10-05,1,,,,,,0
275,1310001006435,登記記録の閉鎖等,0,2026-01-13,2026-01-09,株式会社中井産業,,株式会社,長崎県,北松浦郡佐々町,古川免５０番地２,,42,391,8570314,,,2026-01-09,登記官による閉鎖,,,2015-10-05,1,,,,,,0
276,1310001006807,登記記録の閉鎖等,0,2026-01-13,2026-01-09,大政創建株式会社,,株式会社,長崎県,西海市,西彼町上岳郷２６番地,,42,212,8513304,,,2026-01-09,登記官による閉鎖,,,2015-10-05,1,,,,,,0
277,1310001008753,登記記録の閉鎖等,0,2026-01-13,2026-01-09,株式会社コスモハウス物流センター,,株式会社,長崎県,大村市,杭出津３丁目４８４番地１,,42,205,8560828,,,2026-01-09,登記官による閉鎖,,,2015-10-05,1,,,,,,0
278,1310001008811,登記記録の閉鎖等,0,2026-01-13,2026-01-09,大央住宅株式会社,,株式会社,長崎県,大村市,植松２丁目７２６番地４,,42,205,8560027,,,2026-01-09,登記官による閉鎖,,,2015-10-05,1,,,,,,0
279,1310001008893,登記記録の閉鎖等,0,2026-01-13,2026-01-09,富士物産株式会社,,株式会社,長崎県,大村市,東三城町９番地２,,42,205,8560826,,,2026-01-09,登記官による閉鎖,,,2015-10-05,1,,,,,,0
280,1310001009867,登記記録の閉鎖等,0,2026-01-13,2026-01-09,株式会社井川ファーム,,株式会社,長崎県,島原市,有明町湯江丙１２１２番地,,42,203,8591403,,,2026-01-09,登記官による閉鎖,,,2015-10-05,1,,,,,,0
281,1310001009900,登記記録の閉鎖等,0,2026-01-13,2026-01-09,株式会社グリーン長崎産直センター,,株式会社,長崎県,南島原市,加津佐町丁２２７１番地,,42,214,8592603,,,2026-01-09,登記官による閉鎖,,,2015-10-05,1,,,,,,0
282,1310001010197,登記記録の閉鎖等,0,2026-01-13,2026-01-09,株式会社幸栄,,株式会社,長崎県,壱岐市,芦辺町諸吉大石触４２７番地８,00095764,42,210,8115316,,,2026-01-09,登記官による閉鎖,,,2015-10-05,1,,,,,,0
283,1310001010412,登記記録の閉鎖等,0,2026-01-13,2026-01-09,カルロスジャパン株式会社,,株式会社,長崎県,平戸市,戸石川町８００番地３,,42,207,8595153,,,2026-01-09,登記官による閉鎖,,,2015-10-05,1,,,,,,0
284,1310001011063,登記記録の閉鎖等,0,2026-01-13,2026-01-09,株式会社ハンター倶楽部,,株式会社,長崎県,五島市,奈留町浦３７１番地,,42,211,8532201,,,2026-01-09,登記官による閉鎖,,,2015-10-05,1,,,,,,0
285,1310002005056,登記記録の閉鎖等,0,2026-01-13,2026-01-09,有限会社ボンヌール・タケイ,,有限会社,長崎県,大村市,諏訪３丁目４６５番地２,,42,205,8560024,,,2026-01-09,登記官による閉鎖,,,2015-10-05,1,,,,,,0
286,1310002015105,登記記録の閉鎖等,0,2026-01-13,2026-01-09,有限会社クロダ総合企画舎,,有限会社,長崎県,諫早市,長野町１６６３番地９,,42,204,8540036,,,2026-01-09,登記官による閉鎖,,,2015-10-05,1,,,,,,0
287,1310002016045,登記記録の閉鎖等,0,2026-01-13,2026-01-09,有限会社末永産業,,有限会社,長崎県,諫早市,多良見町佐瀬２７番地,,42,204,8590418,,,2026-01-09,登記官による閉鎖,,,2015-10-05,1,,,,,,0
288,1310002017786,登記記録の閉鎖等,0,2026-01-13,2026-01-09,有限会社グローバルサイエンス,,有限会社,長崎県,諫早市,多良見町中里２１２番地１２,,42,204,8590405,,,2026-01-09,登記官による閉鎖,,,2015-10-05,1,,,,,,0
289,1310002018108,登記記録の閉鎖等,0,2026-01-13,2026-01-09,有限会社松尾海運,,有限会社,長崎県,島原市,崩山町６８３５番地,,42,203,8550841,,,2026-01-09,登記官による閉鎖,,,2015-10-05,1,,,,,,0
290,1310003001558,登記記録の閉鎖等,0,2026-01-13,2026-01-09,合同会社寿興園,,合同会社,長崎県,佐世保市,母ケ浦町１７８６番地,,42,202,8580912,,,2026-01-09,登記官による閉鎖,,,2015-10-05,1,,,,,,0
300,1370002009885,登記記録の閉鎖等,0,2026-01-13,2026-01-07,有限会社永章建設,,有限会社,宮城県,仙台市青葉区,中山８丁目３２番２号,,04,101,9810952,,,2026-01-07,清算の結了等,,,2015-10-05,1,,,,,ナガショウケンセツ,0
305,1430001061055,登記記録の閉鎖等,0,2026-01-13,2026-01-09,株式会社スムース,,株式会社,北海道,札幌市東区,丘珠町１６７番地２５,,01,103,0070880,,,2026-01-09,清算の結了等,,,2015-10-05,1,,,,,スムース,0
313,1700150058576,登記記録の閉鎖等,0,2026-01-13,2025-06-30,地域政策デザインスクール実行委員会,,その他,福岡県,福岡市中央区,渡辺通２丁目１番８２号,,40,133,8100004,,,2025-06-30,その他の清算の結了等,,,2015-10-09,1,,,,,チイキセイサクデザインスクールジツコウイインカイ,0
338,2010605003527,登記記録の閉鎖等,0,2026-01-13,2025-12-18,一般社団法人ダイナメガプレス工法協会,,その他の設立登記法人,東京都,墨田区,千歳１丁目８番１７号,,13,107,1300025,,,2025-12-18,清算の結了等,,,2018-04-19,1,,,,,ダイナメガプレスコウホウキョウカイ,0
339,2010701031976,登記記録の閉鎖等,0,2026-01-13,2025-12-26,株式会社ワークアンドスマイル,,株式会社,東京都,品川区,西五反田８丁目９番５号,,13,109,1410031,,,2025-12-26,清算の結了等,,,2016-02-09,1,,,,,ワークアンドスマイル,0
379,2011501007555,登記記録の閉鎖等,0,2026-01-13,2025-12-26,株式会社徴今堂,,株式会社,東京都,江戸川区,松江２丁目４番２号,,13,123,1320025,,,2025-12-26,清算の結了等,,,2015-10-05,1,,,,,チョウコンドウ,0
387,2013301026371,登記記録の閉鎖等,0,2026-01-13,2025-12-25,株式会社ＪＥＷＥＬ,,株式会社,東京都,豊島区,東池袋１丁目８番７号,,13,116,1700013,,,2025-12-25,清算の結了等,,,2015-10-05,1,,,,,ジュエル,0
395,2021002017672,登記記録の閉鎖等,0,2026-01-13,2025-12-16,有限会社アヤセインテリア,,有限会社,神奈川県,相模原市南区,上鶴間本町１丁目２３番７号,,14,153,2520318,,,2025-12-16,清算の結了等,,,2015-10-05,1,,,,,アヤセインテリア,0
396,2021002025353,登記記録の閉鎖等,0,2026-01-13,2025-12-17,株式会社依田工業,,株式会社,神奈川県,相模原市南区,北里１丁目４－１１,,14,153,2520329,,,2025-12-17,清算の結了等,,,2015-10-05,1,,,,,ヨダコウギョウ,0
408,2030005004280,登記記録の閉鎖等,0,2026-01-13,2026-01-05,医療法人あしたば,,その他の設立登記法人,東京都,中央区,日本橋小網町１６番１９号小網町大都ビル２階,,13,102,1030016,,,2026-01-05,清算の結了等,,,2015-10-05,1,,,,,アシタバ,0
409,2030005011962,登記記録の閉鎖等,0,2026-01-13,2025-12-26,特定非営利活動法人Ｂａｌｉ　Ｂｉｏｄｉｖｅｒｓｉｔａｓ,,その他の設立登記法人,埼玉県,所沢市,若狭４丁目２５０５番地の６,,11,208,3591151,,,2025-12-26,清算の結了等,,,2015-10-05,1,,,,,バリバイオダイバーシタス,0
412,2040001027945,登記記録の閉鎖等,0,2026-01-13,2025-12-09,株式会社アクシスライフ,,株式会社,千葉県,市川市,八幡３丁目１９番４号,,12,203,2720021,,,2025-12-09,合併による解散等,1040001031304,令和７年１１月２７日千葉県市川市八幡三丁目３番２号グランドターミナルタワー本八幡４０４号室株式会社Ａ＆Ｓパートナーズ（1040001031304）に合併し解散,2015-10-05,1,,,,,アクシスライフ,0
413,2040001050006,登記記録の閉鎖等,0,2026-01-13,2025-12-15,株式会社オクムラ,,株式会社,千葉県,四街道市,大日４７０番地６６,,12,228,2840001,,,2025-12-15,清算の結了等,,,2015-10-05,1,,,,,オクムラ,0
465,2120101057363,登記記録の閉鎖等,0,2026-01-13,2026-01-06,株式会社古川総合建設,,株式会社,大阪府,大阪市北区,天満２丁目７番１１号,,27,127,5300043,,,2026-01-06,清算の結了等,,,2017-11-09,1,,,,,フルカワソウゴウケンセツ,0
486,2150001017464,登記記録の閉鎖等,0,2026-01-13,2025-12-25,山田環境株式会社,,株式会社,奈良県,葛城市,忍海１０６番地９,,29,211,6392123,,,2025-12-25,清算の結了等,,,2015-10-05,1,,,,,ヤマダカンキョウ,0
491,2170002003164,登記記録の閉鎖等,0,2026-01-13,2026-01-09,有限会社平柳産業,,有限会社,和歌山県,和歌山市,松島３６６番地,,30,201,6408304,,,2026-01-09,清算の結了等,,,2015-10-05,1,,,,,ヒラヤナギサンギョウ,0
499,2180002012271,登記記録の閉鎖等,0,2026-01-13,2026-01-07,有限会社野口商店,,有限会社,愛知県,名古屋市北区,清水５丁目２２番１７号,,23,103,4620844,,,2026-01-07,清算の結了等,,,2015-10-05,1,,,,,ノグチショウテン,0
500,2180002022196,登記記録の閉鎖等,0,2026-01-13,2026-01-07,有限会社ホッタ印刷,,有限会社,愛知県,名古屋市天白区,植田西３丁目１０３番地,,23,116,4680058,,,2026-01-07,清算の結了等,,,2015-10-05,1,,,,,ホッタインサツ,0
505,2190001000301,登記記録の閉鎖等,0,2026-01-13,2026-01-07,計測地質株式会社,,株式会社,三重県,津市,美川町３番６号,,24,201,5140045,,,2026-01-07,清算の結了等,,,2015-10-05,1,,,,,ケイソクチシツ,0
511,2210001007046,登記記録の閉鎖等,0,2026-01-13,2026-01-07,株式会社中山組,,株式会社,福井県,坂井市,坂井町長畑第２３号２６番地,,18,210,9190511,,,2026-01-07,清算の結了等,,,2015-10-05,1,,,,,ナカヤマグミ,0
522,2270001007718,登記記録の閉鎖等,0,2026-01-13,2026-01-06,株式会社山貝ホールディングス,,株式会社,鳥取県,米子市,米原９丁目３番１６号,,31,202,6830804,,,2026-01-06,合併による解散等,7270001005238,令和８年１月１日鳥取県米子市米原九丁目３番１６号株式会社愛幸建設（7270001005238）に合併し解散,2019-03-14,1,,,,,サンカイホールディングス,0
530,2290001008986,登記記録の閉鎖等,0,2026-01-13,2025-12-18,株式会社シー・アイ・イー,,株式会社,福岡県,福岡市中央区,薬院４丁目１８番３３号,,40,133,8100022,,,2025-12-18,清算の結了等,,,2015-10-05,1,,,,,シーアイイー,0
532,2290001082668,登記記録の閉鎖等,0,2026-01-13,2025-12-22,株式会社スタジオアルファ,,株式会社,福岡県,大川市,大字中木室１００７番地,,40,212,8310014,,,2025-12-22,清算の結了等,,,2018-09-07,1,,,,,スタジオアルファ,0
541,2290002052777,登記記録の閉鎖等,0,2026-01-13,2026-01-09,有限会社東洋医学指導センター,,有限会社,長崎県,諫早市,多良見町化屋８１４番地５,,42,204,8590401,,,2026-01-09,登記官による閉鎖,,,2015-10-05,1,,,,,,0
550,2310001001195,登記記録の閉鎖等,0,2026-01-13,2026-01-09,九州環境整備株式会社,,株式会社,長崎県,長崎市,出島町１３番７－２０４号,,42,201,8500862,,,2026-01-09,登記官による閉鎖,,,2015-10-05,1,,,,,,0
551,2310001001732,登記記録の閉鎖等,0,2026-01-13,2026-01-09,株式会社白水商会,,株式会社,長崎県,長崎市,鳴見町５０番地１,,42,201,8512214,,,2026-01-09,登記官による閉鎖,,,2015-10-05,1,,,,,,0
552,2310001001757,登記記録の閉鎖等,0,2026-01-13,2026-01-09,八洋産業株式会社,,株式会社,長崎県,長崎市,赤迫１丁目２番１３号,,42,201,8528156,,,2026-01-09,登記官による閉鎖,,,2015-10-05,1,,,,,,0
553,2310001001831,登記記録の閉鎖等,0,2026-01-13,2026-01-09,平古場商事株式会社,,株式会社,長崎県,長崎市,平野町１０番２６号,,42,201,8528117,,,2026-01-09,登記官による閉鎖,,,2015-10-05,1,,,,,,0
554,2310001002441,登記記録の閉鎖等,0,2026-01-13,2026-01-09,株式会社宝来屋,,株式会社,長崎県,長崎市,中里町１０２３番地２,,42,201,8510103,,,2026-01-09,登記官による閉鎖,,,2015-10-05,1,,,,,,0
555,2310001002532,登記記録の閉鎖等,0,2026-01-13,2026-01-09,株式会社エコ・ワールド,,株式会社,長崎県,長崎市,住吉町３番１８号,,42,201,8528154,,,2026-01-09,登記官による閉鎖,,,2015-10-05,1,,,,,,0
556,2310001002581,登記記録の閉鎖等,0,2026-01-13,2026-01-09,株式会社九州商事,,株式会社,長崎県,長崎市,立山４丁目１番１２号,,42,201,8500007,,,2026-01-09,登記官による閉鎖,,,2015-10-05,1,,,,,,0
557,2310001003101,登記記録の閉鎖等,0,2026-01-13,2026-01-09,五島工業株式会社,,株式会社,長崎県,長崎市,元船町１３番１６号,,42,201,8500035,,,2026-01-09,登記官による閉鎖,,,2015-10-05,1,,,,,,0
558,2310001005130,登記記録の閉鎖等,0,2026-01-13,2026-01-09,株式会社アラタ,,株式会社,長崎県,佐世保市,大岳台町４番１号,,42,202,8571163,,,2026-01-09,登記官による閉鎖,,,2015-10-05,1,,,,,,0
559,2310001005626,登記記録の閉鎖等,0,2026-01-13,2026-01-09,株式会社大栄ユニック,,株式会社,長崎県,佐世保市,木原町３２４番地,,42,202,8593166,,,2026-01-09,登記官による閉鎖,,,2015-10-05,1,,,,,,0
560,2310001005634,登記記録の閉鎖等,0,2026-01-13,2026-01-09,株式会社ダイゴ,,株式会社,長崎県,佐世保市,卸本町２１番２号,,42,202,8571162,,,2026-01-09,登記官による閉鎖,,,2015-10-05,1,,,,,,0
561,2310001005774,登記記録の閉鎖等,0,2026-01-13,2026-01-09,八千代エンジニア株式会社,,株式会社,長崎県,佐世保市,桑木場町３２４番地,,42,202,8593157,,,2026-01-09,登記官による閉鎖,,,2015-10-05,1,,,,,,0
562,2310001006013,登記記録の閉鎖等,0,2026-01-13,2026-01-09,株式会社マルチメディアインターシティー,,株式会社,長崎県,佐世保市,上京町４番４号,,42,202,8570872,,,2026-01-09,登記官による閉鎖,,,2015-10-05,1,,,,,,0
563,2310001006021,登記記録の閉鎖等,0,2026-01-13,2026-01-09,マル三水産株式会社,,株式会社,長崎県,佐世保市,下船越町４４８番地,,42,202,8571232,,,2026-01-09,登記官による閉鎖,,,2015-10-05,1,,,,,,0
564,2310001006095,登記記録の閉鎖等,0,2026-01-13,2026-01-09,株式会社森田建設,,株式会社,長崎県,佐世保市,宮田町４番１２号,,42,202,8570032,,,2026-01-09,登記官による閉鎖,,,2015-10-05,1,,,,,,0
565,2310001006137,登記記録の閉鎖等,0,2026-01-13,2026-01-09,陽光電子工業株式会社,,株式会社,長崎県,佐世保市,赤崎町８０番地,,42,202,8570064,,,2026-01-09,登記官による閉鎖,,,2015-10-05,1,,,,,,0
566,2310001006302,登記記録の閉鎖等,0,2026-01-13,2026-01-09,株式会社サンキョウ,,株式会社,長崎県,佐世保市,大岳台町２１番地２,,42,202,8571163,,,2026-01-09,登記官による閉鎖,,,2015-10-05,1,,,,,,0
567,2310001006343,登記記録の閉鎖等,0,2026-01-13,2026-01-09,株式会社エコロジー,,株式会社,長崎県,佐世保市,木場田町６番３３号,,42,202,8570041,,,2026-01-09,登記官による閉鎖,,,2015-10-05,1,,,,,,0
568,2310001006459,登記記録の閉鎖等,0,2026-01-13,2026-01-09,株式会社ダイエイ,,株式会社,長崎県,佐世保市,小佐々町小坂９７２番地３,,42,202,8570402,,,2026-01-09,登記官による閉鎖,,,2015-10-05,1,,,,,,0
569,2310001006855,登記記録の閉鎖等,0,2026-01-13,2026-01-09,株式会社小川食品,,株式会社,長崎県,西海市,大瀬戸町瀬戸板浦郷６００番地１,,42,212,8572301,,,2026-01-09,登記官による閉鎖,,,2015-10-05,1,,,,,,0
570,2310001007977,登記記録の閉鎖等,0,2026-01-13,2026-01-09,株式会社サークル,,株式会社,長崎県,諫早市,永昌東町１９番２８号,,42,204,8540071,,,2026-01-09,登記官による閉鎖,,,2015-10-05,1,,,,,,0
571,2310001008273,登記記録の閉鎖等,0,2026-01-13,2026-01-09,株式会社有明,,株式会社,長崎県,諫早市,高来町山道４２７番地,,42,204,8590145,,,2026-01-09,登記官による閉鎖,,,2015-10-05,1,,,,,,0
572,2310001008364,登記記録の閉鎖等,0,2026-01-13,2026-01-09,株式会社大浜工務店,,株式会社,長崎県,諫早市,松里町１６４３番地,,42,204,8540126,,,2026-01-09,登記官による閉鎖,,,2015-10-05,1,,,,,,0
573,2310001008521,登記記録の閉鎖等,0,2026-01-13,2026-01-09,株式会社ヘルスリゾートまつや,,株式会社,長崎県,雲仙市,小浜町北本町１０５６番地１,,42,213,8540514,,,2026-01-09,登記官による閉鎖,,,2015-10-05,1,,,,,,0
574,2310001008827,登記記録の閉鎖等,0,2026-01-13,2026-01-09,株式会社ティー・エヌ・ケーナガサキ,,株式会社,長崎県,大村市,皆同町３５番地３,,42,205,8560802,,,2026-01-09,登記官による閉鎖,,,2015-10-05,1,,,,,,0
575,2310001008851,登記記録の閉鎖等,0,2026-01-13,2026-01-09,ナガサキ・アーキトレンド株式会社,,株式会社,長崎県,大村市,西三城町１０７番地,,42,205,8560825,,,2026-01-09,登記官による閉鎖,,,2015-10-05,1,,,,,,0
576,2310001008959,登記記録の閉鎖等,0,2026-01-13,2026-01-09,株式会社一心電工,,株式会社,長崎県,大村市,桜馬場１丁目４１３番地３,,42,205,8560812,,,2026-01-09,登記官による閉鎖,,,2015-10-05,1,,,,,,0
577,2310001009684,登記記録の閉鎖等,0,2026-01-13,2026-01-09,長崎被服株式会社,,株式会社,長崎県,島原市,下折橋町３７９２番地,,42,203,8550075,,,2026-01-09,登記官による閉鎖,,,2015-10-05,1,,,,,,0
578,2310001010213,登記記録の閉鎖等,0,2026-01-13,2026-01-09,片山観光開発株式会社,,株式会社,長崎県,壱岐市,勝本町片山触８９３番地,,42,210,8115523,,,2026-01-09,登記官による閉鎖,,,2015-10-05,1,,,,,,0
579,2310001010436,登記記録の閉鎖等,0,2026-01-13,2026-01-09,西澤工業建設株式会社,,株式会社,長崎県,平戸市,生月町南免４４３２番５３,,42,207,8595706,,,2026-01-09,登記官による閉鎖,,,2015-10-05,1,,,,,,0
580,2310001010535,登記記録の閉鎖等,0,2026-01-13,2026-01-09,大英建設株式会社,,株式会社,長崎県,松浦市,御厨町里免８６番地５,,42,208,8594752,,,2026-01-09,登記官による閉鎖,,,2015-10-05,1,,,,,,0
581,2310001010592,登記記録の閉鎖等,0,2026-01-13,2026-01-09,パラライブ株式会社,,株式会社,長崎県,松浦市,福島町鍋串免１１７５番地１７,,42,208,8480407,,,2026-01-09,登記官による閉鎖,,,2015-10-05,1,,,,,,0
582,2310001010972,登記記録の閉鎖等,0,2026-01-13,2026-01-09,協和建設工業株式会社,,株式会社,長崎県,五島市,上大津町２０３４番地,,42,211,8530013,,,2026-01-09,登記官による閉鎖,,,2015-10-05,1,,,,,,0
583,2310002005393,登記記録の閉鎖等,0,2026-01-13,2026-01-09,有限会社マル裕商店,,有限会社,長崎県,長崎市,泉３丁目２番３５号,,42,201,8528151,,,2026-01-09,登記官による閉鎖,,,2015-10-05,1,,,,,,0
584,2310002008322,登記記録の閉鎖等,0,2026-01-13,2026-01-09,有限会社本田電気,,有限会社,長崎県,西彼杵郡長与町,嬉里郷３０８番地２１,,42,307,8512128,,,2026-01-09,登記官による閉鎖,,,2015-10-05,1,,,,,,0
585,2310005006686,登記記録の閉鎖等,0,2026-01-13,2026-01-09,特定非営利活動法人国境の島・つしまネットワーク,,その他の設立登記法人,長崎県,対馬市,厳原町宮谷２３３番地,,42,209,8170011,,,2026-01-09,登記官による閉鎖,,,2015-10-05,1,,,,,,0
604,2370001011040,登記記録の閉鎖等,0,2026-01-13,2026-01-07,株式会社仙台在宅介護センター,,株式会社,宮城県,仙台市青葉区,小田原４丁目２番１０号,,04,101,9800003,,,2026-01-07,清算の結了等,,,2015-10-05,1,,,,,センダイザイタクカイゴセンター,0
617,2420002006975,登記記録の閉鎖等,0,2026-01-13,2025-12-25,有限会社鋼建工業,,有限会社,青森県,八戸市,根城３丁目２１番９号,,02,203,0391166,,,2025-12-25,清算の結了等,,,2015-10-05,1,,,,,コウケンコウギョウ,0
623,2450002004150,登記記録の閉鎖等,0,2026-01-13,2026-01-06,有限会社日真メカニック,,有限会社,北海道,旭川市,秋月二条２丁目３番１６号,,01,204,0798402,,,2026-01-06,清算の結了等,,,2015-10-05,1,,,,,ニッシンメカニック,0
630,2500005006824,登記記録の閉鎖等,0,2026-01-13,2026-01-07,企業組合ひろみ川,,その他の設立登記法人,愛媛県,北宇和郡鬼北町,大字出目２４７９番地,,38,488,7981332,,,2026-01-07,清算の結了等,,,2015-10-05,1,,,,,ヒロミガワ,0
634,3010001128217,登記記録の閉鎖等,0,2026-01-13,2026-01-05,株式会社電通リテールマーケティング,,株式会社,東京都,港区,東新橋１丁目８番１号,,13,103,1050021,,,2026-01-05,合併による解散等,7010001180643,令和８年１月１日東京都港区東新橋一丁目８番１号株式会社電通プロモーション（7010001180643）に合併し解散,2015-10-05,1,,,,,デンツウリテールマーケティング,0
649,3010401113520,登記記録の閉鎖等,0,2026-01-13,2025-12-15,株式会社ＴＩＦ０３号,,株式会社,東京都,港区,六本木１丁目９番１０号アークヒルズ仙石山森タワー２５階,,13,103,1060032,,,2025-12-15,清算の結了等,,,2015-10-05,1,,,,,ティーアイエフゼロサンゴウ,0
655,3010403025235,登記記録の閉鎖等,0,2026-01-13,2025-12-15,ＥＶＯＴＥＫ　ＪＡＰＡＮ合同会社,,合同会社,東京都,港区,赤坂２丁目１４番５号Ｄａｉｗａ赤坂ビル４階,,13,103,1070052,,,2025-12-15,清算の結了等,,,2021-05-10,1,,,,,エヴォテックジャパン,0
661,3010701017272,登記記録の閉鎖等,0,2026-01-13,2025-12-26,オプト電子株式会社,,株式会社,東京都,品川区,西五反田５丁目１番３号,,13,109,1410031,,,2025-12-26,清算の結了等,,,2015-10-05,1,,,,,オプトデンシ,0
667,3010901043432,登記記録の閉鎖等,0,2026-01-13,2026-01-05,株式会社ドクターサロン,,株式会社,東京都,葛飾区,高砂６丁目６番１６号,,13,122,1250054,,,2026-01-05,合併による解散等,6011801039757,令和８年１月１日東京都葛飾区柴又一丁目３番１号川口ビル２０１株式会社ＱＵＥＥＮ’Ｓ（6011801039757）に合併し解散,2019-01-09,1,,,,,ドクターサロン,0
687,3011401015129,登記記録の閉鎖等,0,2026-01-13,2026-01-05,誠商会株式会社,,株式会社,東京都,板橋区,中板橋１７番７号藤マンション２０２号室,,13,119,1730016,,,2026-01-05,合併による解散等,8011401006692,令和８年１月１日東京都板橋区中板橋１６番１０号株式会社よしや（8011401006692）に合併し解散,2015-10-05,1,,,,,マコトショウカイ,0
689,3011403004261,登記記録の閉鎖等,0,2026-01-13,2026-01-07,上地興業合同会社,,合同会社,東京都,板橋区,高島平１丁目５２番１１号スイーダ高島平１０２,,13,119,1750082,,,2026-01-07,清算の結了等,,,2024-02-06,1,,,,,ウエチコウギョウ,0
701,3011802020537,登記記録の閉鎖等,0,2026-01-13,2026-01-06,有限会社柳栄堂印刷,,有限会社,東京都,足立区,千住橋戸町１０６番地,,13,121,1200038,,,2026-01-06,清算の結了等,,,2015-10-05,1,,,,,リュウエイドウインサツ,0
707,3013301047342,登記記録の閉鎖等,0,2026-01-13,2025-12-25,株式会社国際サバイバル,,株式会社,東京都,豊島区,目白２丁目２０番５号,,13,116,1710031,,,2025-12-25,清算の結了等,,,2021-04-27,1,"Kokusaba, Inc.",Tokyo,"2-20-5, Mejiro, Toshima-ku",,コクサイサバイバル,0
716,3020001011025,登記記録の閉鎖等,0,2026-01-13,2025-12-18,株式会社エー・ピー・ジー,,株式会社,神奈川県,横浜市都筑区,荏田南１丁目１７番４号,,14,118,2240007,,,2025-12-18,清算の結了等,,,2015-10-05,1,,,,,エーピージー,0
727,3021001027515,登記記録の閉鎖等,0,2026-01-13,2025-12-15,株式会社ドーワテック,,株式会社,神奈川県,綾瀬市,早川２６４７番３６,,14,218,2521123,,,2025-12-15,清算の結了等,,,2015-10-05,1,,,,,ドーワテック,0
736,3030001075795,登記記録の閉鎖等,0,2026-01-13,2026-01-05,ダイトエンジニアリング株式会社,,株式会社,宮城県,白石市,福岡深谷字街道外三番１３８番地２,,04,206,9890731,,,2026-01-05,合併による解散等,8030001021282,令和８年１月１日宮城県白石市福岡深谷字街道外三番１３８番地２大都機械株式会社（8030001021282）に合併し解散,2015-10-05,1,,,,,ダイトエンジニアリング,0
744,3030002089497,登記記録の閉鎖等,0,2026-01-13,2025-12-25,有限会社サクラ工芸,,有限会社,埼玉県,北葛飾郡松伏町,大字大川戸１６０番地１,,11,465,3430106,,,2025-12-25,清算の結了等,,,2015-10-05,1,,,,,サクラコウゲイ,0
750,3040001077510,登記記録の閉鎖等,0,2026-01-13,2025-12-08,株式会社伸栄,,株式会社,千葉県,船橋市,大穴南１丁目２３番１３号,,12,204,2740067,,,2025-12-08,合併による解散等,9040001017238,令和７年１２月６日千葉県船橋市金杉八丁目２０番５号株式会社興栄（9040001017238）に合併し解散,2015-10-05,1,,,,,シンエイ,0
765,3050001033735,登記記録の閉鎖等,0,2026-01-13,2025-12-25,共立メンテナンスサービス株式会社,,株式会社,茨城県,神栖市,知手５２１７番地５,,08,232,3140115,,,2025-12-25,清算の結了等,,,2015-10-05,1,,,,,キョウリツメンテナンスサービス,0
772,3060001023297,登記記録の閉鎖等,0,2026-01-13,2026-01-08,グリングローブ株式会社,,株式会社,栃木県,日光市,小倉６５５番地,,09,206,3211106,,,2026-01-08,清算の結了等,,,2015-10-05,1,,,,,グリングローブ,0
781,3080002002835,登記記録の閉鎖等,0,2026-01-13,2026-01-06,有限会社杉岡製作所,,有限会社,静岡県,静岡市葵区,産女１２８２番地の２５,,22,101,4211222,,,2026-01-06,清算の結了等,,,2015-10-05,1,,,,,スギオカセイサクショ,0
785,3080102020290,登記記録の閉鎖等,0,2026-01-13,2026-01-07,有限会社ながつき,,有限会社,静岡県,熱海市,田原本町９－１熱海第一ビル１階,,22,205,4130011,,,2026-01-07,合併による解散等,2080401012972,令和８年１月１日静岡県浜松市中央区上島五丁目１１番２２号株式会社ベストシステム（2080401012972）に合併し解散,2015-10-05,1,,,,,ナガツキ,0
788,3100001016049,登記記録の閉鎖等,0,2026-01-13,2026-01-08,株式会社丸清建設,,株式会社,長野県,松本市,筑摩４丁目９番１０号,,20,202,3900821,,,2026-01-08,清算の結了等,,,2015-10-05,1,,,,,マルキヨケンセツ,0
790,3100002003244,登記記録の閉鎖等,0,2026-01-13,2026-01-07,有限会社テイ・ケイ・エンヂニア,,有限会社,長野県,長野市,大字稲葉２７４番地１,,20,201,3800911,,,2026-01-07,清算の結了等,,,2015-10-05,1,,,,,テイケイエンヂニア,0
792,3100002009290,登記記録の閉鎖等,0,2026-01-13,2026-01-08,有限会社浦野,,有限会社,長野県,千曲市,大字倉科２８６番地１,,20,218,3870004,,,2026-01-08,清算の結了等,,,2015-10-05,1,,,,,ウラノ,0
795,3110001009381,登記記録の閉鎖等,0,2026-01-13,2026-01-05,株式会社東栄,,株式会社,新潟県,新発田市,舟入町１丁目１番３３号,,15,206,9570065,,,2026-01-05,清算の結了等,,,2015-10-05,1,,,,,トウエイ,0
851,3180301017722,登記記録の閉鎖等,0,2026-01-13,2025-12-26,株式会社システムウェルネス,,株式会社,愛知県,知立市,宝３丁目１１番地７,,23,225,4720056,,,2025-12-26,清算の結了等,,,2015-10-05,1,,,,,システムウェルネス,0
853,3180302017127,登記記録の閉鎖等,0,2026-01-13,2026-01-05,有限会社東山弘昇苑,,有限会社,愛知県,安城市,高棚町東山３３番地の４,,23,212,4460053,,,2026-01-05,清算の結了等,,,2015-10-05,1,,,,,ヒガシヤマコウショウエン,0
857,3190005012060,登記記録の閉鎖等,0,2026-01-13,2026-01-08,一般社団法人日本ラシカル協会,,その他の設立登記法人,三重県,鈴鹿市,江島町１２３１番地５０３,,24,207,5100237,,,2026-01-08,清算の結了等,,,2025-07-07,1,,,,,ニホンラシカルキョウカイ,0
869,3240002038152,登記記録の閉鎖等,0,2026-01-13,2026-01-05,有限会社美容室それいゆ,,有限会社,広島県,廿日市市,佐方１丁目１０番１１－４号,,34,213,7380001,,,2026-01-05,清算の結了等,,,2015-10-05,1,,,,,ビヨウシツソレイユ,0
870,3250001016769,登記記録の閉鎖等,0,2026-01-13,2026-01-05,株式会社ヤマネホールディングス,,株式会社,山口県,長門市,日置上８８５番地,,35,211,7594401,,,2026-01-05,合併による解散等,2250001008222,令和８年１月１日山口県長門市日置上８８５番地ヤマネ鉄工建設株式会社（2250001008222）に合併し解散,2017-08-30,1,,,,,ヤマネホールディングス,0
891,3290802014926,登記記録の閉鎖等,0,2026-01-13,2026-01-05,有限会社ニシケン,,有限会社,福岡県,北九州市八幡西区,力丸町２３番２０号,,40,109,8070802,,,2026-01-05,合併による解散等,9290802017873,令和８年１月１日北九州市八幡西区力丸町１７番５号株式会社杉神（9290802017873）に合併し解散,2015-10-05,1,,,,,ニシケン,0
893,3300002011193,登記記録の閉鎖等,0,2026-01-13,2026-01-08,有限会社一貫,,有限会社,佐賀県,唐津市,二タ子３丁目２１４番地１,,41,202,8470861,,,2026-01-08,清算の結了等,,,2015-10-05,1,,,,,イッカン,0
894,3310001000163,登記記録の閉鎖等,0,2026-01-13,2026-01-09,株式会社一菱商会,,株式会社,長崎県,長崎市,矢上町６１３番地,,42,201,8510133,,,2026-01-09,登記官による閉鎖,,,2015-10-05,1,,,,,,0
895,3310001000213,登記記録の閉鎖等,0,2026-01-13,2026-01-09,永弘産業株式会社,,株式会社,長崎県,長崎市,元船町９番１５号,,42,201,8500035,,,2026-01-09,登記官による閉鎖,,,2015-10-05,1,,,,,,0
896,3310001000543,登記記録の閉鎖等,0,2026-01-13,2026-01-09,株式会社興栄,,株式会社,長崎県,長崎市,坂本１丁目１番７号,,42,201,8528102,,,2026-01-09,登記官による閉鎖,,,2015-10-05,1,,,,,,0
897,3310001000923,登記記録の閉鎖等,0,2026-01-13,2026-01-09,聖和開発工業株式会社,,株式会社,長崎県,長崎市,高尾町３１番５号,,42,201,8528111,,,2026-01-09,登記官による閉鎖,,,2015-10-05,1,,,,,,0
898,3310001000972,登記記録の閉鎖等,0,2026-01-13,2026-01-09,株式会社ダイエーホーム,,株式会社,長崎県,長崎市,光町１２番１０号,,42,201,8528001,,,2026-01-09,登記官による閉鎖,,,2015-10-05,1,,,,,,0
899,3310001000989,登記記録の閉鎖等,0,2026-01-13,2026-01-09,ダイコー宝飾株式会社,,株式会社,長崎県,長崎市,諏訪町６番２２号,,42,201,8500873,,,2026-01-09,登記官による閉鎖,,,2015-10-05,1,,,,,,0
900,3310001001327,登記記録の閉鎖等,0,2026-01-13,2026-01-09,長崎漁業株式会社,,株式会社,長崎県,長崎市,丸尾町７番８号,,42,201,8528004,,,2026-01-09,登記官による閉鎖,,,2015-10-05,1,,,,,,0
901,3310001001707,登記記録の閉鎖等,0,2026-01-13,2026-01-09,ネッケン株式会社,,株式会社,長崎県,長崎市,女の都２丁目３７番２６号,,42,201,8528144,,,2026-01-09,登記官による閉鎖,,,2015-10-05,1,,,,,,0
902,3310001001814,登記記録の閉鎖等,0,2026-01-13,2026-01-09,株式会社ビジュアル,,株式会社,長崎県,長崎市,城山町１７番４号,,42,201,8528021,,,2026-01-09,登記官による閉鎖,,,2015-10-05,1,,,,,,0
903,3310001001905,登記記録の閉鎖等,0,2026-01-13,2026-01-09,株式会社扶美,,株式会社,長崎県,長崎市,樺島町８番１７号,,42,201,8500034,,,2026-01-09,登記官による閉鎖,,,2015-10-05,1,,,,,,0
904,3310001002077,登記記録の閉鎖等,0,2026-01-13,2026-01-09,丸三工事株式会社,,株式会社,長崎県,長崎市,日の出町２番６号,,42,201,8500914,,,2026-01-09,登記官による閉鎖,,,2015-10-05,1,,,,,,0
905,3310001002110,登記記録の閉鎖等,0,2026-01-13,2026-01-09,丸田屋石油株式会社,,株式会社,長崎県,長崎市,松が枝町５番２７号,,42,201,8500921,,,2026-01-09,登記官による閉鎖,,,2015-10-05,1,,,,,,0
906,3310001002168,登記記録の閉鎖等,0,2026-01-13,2026-01-09,峰勝興産株式会社,,株式会社,長崎県,長崎市,矢上町４６７番地,,42,201,8510133,,,2026-01-09,登記官による閉鎖,,,2015-10-05,1,,,,,,0
907,3310001002449,登記記録の閉鎖等,0,2026-01-13,2026-01-09,株式会社ジンセンエンジニアリング,,株式会社,長崎県,長崎市,小ケ倉町３丁目７６番地１１０,,42,201,8500961,,,2026-01-09,登記官による閉鎖,,,2015-10-05,1,,,,,,0
908,3310001003265,登記記録の閉鎖等,0,2026-01-13,2026-01-09,株式会社エイチ・エル・シー,,株式会社,長崎県,西彼杵郡時津町,久留里郷１４５８番地,,42,308,8512107,,,2026-01-09,登記官による閉鎖,,,2015-10-05,1,,,,,,0
909,3310001003273,登記記録の閉鎖等,0,2026-01-13,2026-01-09,株式会社割烹時津亭,,株式会社,長崎県,西彼杵郡時津町,浜田郷５１７番地２０,,42,308,8512102,,,2026-01-09,登記官による閉鎖,,,2015-10-05,1,,,,,,0
910,3310001004676,登記記録の閉鎖等,0,2026-01-13,2026-01-09,株式会社味菜,,株式会社,長崎県,長崎市,平山町５７３番地１,,42,201,8500995,,,2026-01-09,登記官による閉鎖,,,2016-12-13,1,,,,,,0
911,3310001005468,登記記録の閉鎖等,0,2026-01-13,2026-01-09,三光商事株式会社,,株式会社,長崎県,佐世保市,赤崎町８５４番地３６,,42,202,8570064,,,2026-01-09,登記官による閉鎖,,,2015-10-05,1,,,,,,0
912,3310001005625,登記記録の閉鎖等,0,2026-01-13,2026-01-09,大英建物株式会社,,株式会社,長崎県,佐世保市,汐見町１０番１５号,,42,202,8570000,,,2026-01-09,登記官による閉鎖,,,2015-10-05,1,,,,,,0
913,3310001005757,登記記録の閉鎖等,0,2026-01-13,2026-01-09,東洋設備株式会社,,株式会社,長崎県,佐世保市,白岳町７１６番地１９,,42,202,8571164,,,2026-01-09,登記官による閉鎖,,,2015-10-05,1,,,,,,0
914,3310001005897,登記記録の閉鎖等,0,2026-01-13,2026-01-09,橋口康建設株式会社,,株式会社,長崎県,佐世保市,有福町１７１６番地６,,42,202,8593241,,,2026-01-09,登記官による閉鎖,,,2015-10-05,1,,,,,,0
915,3310001006053,登記記録の閉鎖等,0,2026-01-13,2026-01-09,南佐世保リゾート開発株式会社,,株式会社,長崎県,佐世保市,日宇町６０３番地,,42,202,8571151,,,2026-01-09,登記官による閉鎖,,,2015-10-05,1,,,,,,0
916,3310001006128,登記記録の閉鎖等,0,2026-01-13,2026-01-09,株式会社ゆーとぴぁ,,株式会社,長崎県,佐世保市,勝海町２６１番地５,,42,202,8593216,,,2026-01-09,登記官による閉鎖,,,2015-10-05,1,,,,,,0
917,3310001006202,登記記録の閉鎖等,0,2026-01-13,2026-01-09,大坪建機株式会社,,株式会社,長崎県,東彼杵郡川棚町,石木郷１７４番地３,,42,322,8593604,,,2026-01-09,登記官による閉鎖,,,2015-10-05,1,,,,,,0
918,3310001006350,登記記録の閉鎖等,0,2026-01-13,2026-01-09,株式会社ファイナンシャルプランニング,,株式会社,長崎県,佐世保市,大和町１０６３番地１,,42,202,8571165,,,2026-01-09,登記官による閉鎖,,,2015-10-05,1,,,,,,0
919,3310001006474,登記記録の閉鎖等,0,2026-01-13,2026-01-09,九州プロスパー株式会社,,株式会社,長崎県,佐世保市,吉井町草ノ尾７９番地１,,42,202,8596301,,,2026-01-09,登記官による閉鎖,,,2015-10-05,1,,,,,,0
920,3310001006788,登記記録の閉鎖等,0,2026-01-13,2026-01-09,浦里真珠株式会社,,株式会社,長崎県,西海市,西彼町鳥加郷３３番地,,42,212,8513406,,,2026-01-09,登記官による閉鎖,,,2015-10-05,1,,,,,,0
921,3310001007175,登記記録の閉鎖等,0,2026-01-13,2026-01-09,株式会社東光テクノ,,株式会社,長崎県,佐世保市,新行江町５０４番６,,42,202,8593152,,,2026-01-09,登記官による閉鎖,,,2015-10-05,1,,,,,,0
922,3310001007885,登記記録の閉鎖等,0,2026-01-13,2026-01-09,上田鉄構株式会社,,株式会社,長崎県,諫早市,仲沖町１５番６号,,42,204,8540021,,,2026-01-09,登記官による閉鎖,,,2015-10-05,1,,,,,,0
923,3310001007968,登記記録の閉鎖等,0,2026-01-13,2026-01-09,株式会社サンロイヤル諫早,,株式会社,長崎県,諫早市,本野町１２４８番地,,42,204,8540093,,,2026-01-09,登記官による閉鎖,,,2015-10-05,1,,,,,,0
924,3310001008314,登記記録の閉鎖等,0,2026-01-13,2026-01-09,長崎ポラコン株式会社,,株式会社,長崎県,諫早市,多良見町野副字四ツ枝２０７番地１,,42,204,8590413,,,2026-01-09,登記官による閉鎖,,,2015-10-05,1,,,,,,0
925,3310001008347,登記記録の閉鎖等,0,2026-01-13,2026-01-09,ジャパンポトラッチ株式会社,,株式会社,長崎県,諫早市,船越町６４２番地,,42,204,8540041,,,2026-01-09,登記官による閉鎖,,,2015-10-05,1,,,,,,0
926,3310001008421,登記記録の閉鎖等,0,2026-01-13,2026-01-09,アスペクト・エム・シー株式会社,,株式会社,長崎県,諫早市,金谷町１１番２０号,,42,204,8540004,,,2026-01-09,登記官による閉鎖,,,2015-10-05,1,,,,,,0
927,3310001010179,登記記録の閉鎖等,0,2026-01-13,2026-01-09,親和産業株式会社,,株式会社,長崎県,壱岐市,芦辺町箱崎大左右触５００番地,00095749,42,210,8115462,,,2026-01-09,登記官による閉鎖,,,2015-10-05,1,,,,,,0
929,3310002009055,登記記録の閉鎖等,0,2026-01-13,2026-01-09,有限会社アタゴ運輸,,有限会社,長崎県,佐世保市,赤崎町６１９番地４,,42,202,8570064,,,2026-01-09,登記官による閉鎖,,,2015-10-05,1,,,,,,0
930,3310002015004,登記記録の閉鎖等,0,2026-01-13,2026-01-09,大賀有限会社,,有限会社,長崎県,諫早市,天満町５８番２４号,,42,204,8540006,,,2026-01-09,登記官による閉鎖,,,2015-10-05,1,,,,,,0
931,3310002020111,登記記録の閉鎖等,0,2026-01-13,2026-01-09,有限会社長瀬建設,,有限会社,長崎県,対馬市,厳原町小浦１８番地８,,42,209,8170001,,,2026-01-09,登記官による閉鎖,,,2015-10-05,1,,,,,,0
932,3310005002247,登記記録の閉鎖等,0,2026-01-13,2026-01-09,一般社団法人長崎ふるさとコンシェルジュ,,その他の設立登記法人,長崎県,長崎市,興善町２番８号１Ｆ,,42,201,8500032,,,2026-01-09,登記官による閉鎖,,,2015-10-05,1,,,,,,0
933,3320002006745,登記記録の閉鎖等,0,2026-01-13,2026-01-05,有限会社宮本企画,,有限会社,大分県,大分市,大字大平７６７番地の８,,44,201,8792114,,,2026-01-05,清算の結了等,,,2015-10-05,1,,,,,ミヤモトキカク,0
941,3340005006476,登記記録の閉鎖等,0,2026-01-13,2026-01-06,医療法人小林クリニック,,その他の設立登記法人,鹿児島県,鹿屋市,上谷町５番３０号,,46,203,8930061,,,2026-01-06,清算の結了等,,,2015-10-05,1,,,,,コバヤシクリニック,0
955,3410002001167,登記記録の閉鎖等,0,2026-01-13,2026-01-08,有限会社カワベ,,有限会社,秋田県,秋田市,河辺赤平字田中１５５番地,,05,201,0192623,,,2026-01-08,清算の結了等,,,2015-10-05,1,,,,,カワベ,0
972,3700150021557,登記記録の閉鎖等,0,2026-01-13,2025-07-31,味の里まつかわ,,その他,長野県,下伊那郡松川町,生田６０２９－２,,20,402,3993302,,,2025-07-31,その他の清算の結了等,,,2015-10-09,1,,,,,アジノサトマツカワ,0
988,4010005021895,登記記録の閉鎖等,0,2026-01-13,2026-01-05,特定非営利活動法人風のやすみば,,その他の設立登記法人,東京都,文京区,千石４丁目５番２号水野ビル１０１号室,,13,105,1120011,,,2026-01-05,清算の結了等,,,2015-10-05,1,,,,,カゼノヤスミバ,0
994,4010401060308,登記記録の閉鎖等,0,2026-01-13,2025-12-12,株式会社ザナス,,株式会社,東京都,港区,南麻布１丁目１０番４号,,13,103,1060047,,,2025-12-12,清算の結了等,,,2015-10-05,1,,,,,,0
1004,4010601062277,登記記録の閉鎖等,0,2026-01-13,2025-12-26,ＧＩＦＴ株式会社,,株式会社,山梨県,南アルプス市,野牛島２４２１－２,,19,208,4000205,,,2025-12-26,清算の結了等,,,2022-12-12,1,,,,,ギフト,0
1009,4010703005720,登記記録の閉鎖等,0,2026-01-13,2025-12-26,Ｓｕｂｗａｙ　Ｊａｐａｎ　Ｒｅｓｔａｕｒａｎｔｓ合同会社,,合同会社,東京都,品川区,東五反田３丁目５番１９号,,13,109,1410022,,,2025-12-26,清算の結了等,,,2021-04-14,1,,,,,サブウェイジャパンレストランツ,0
1019,4010902012922,登記記録の閉鎖等,0,2026-01-13,2026-01-05,有限会社風里,,有限会社,兵庫県,西宮市,門戸荘４番８号,,28,204,6620825,,,2026-01-05,清算の結了等,,,2015-10-05,1,,,,,フウリ,0
1022,4011001034098,登記記録の閉鎖等,0,2026-01-13,2025-12-15,ＡＤｅｌｉｃｉｏｕｓ株式会社,,株式会社,東京都,渋谷区,広尾１丁目１０番５号,,13,113,1500012,,,2025-12-15,清算の結了等,,,2015-10-05,1,,,,,アデリシャス,0
1051,4013301034562,登記記録の閉鎖等,0,2026-01-13,2025-12-24,株式会社空き部屋レスキュー,,株式会社,埼玉県,所沢市,小手指町４丁目９番地２,,11,208,3591141,,,2025-12-24,清算の結了等,,,2015-10-05,1,,,,,アキヘヤレスキュー,0
1054,4020001161372,登記記録の閉鎖等,0,2026-01-13,2026-01-05,一株式会社,,株式会社,神奈川県,横浜市西区,東久保町３番１６号,,14,103,2200062,,,2026-01-05,清算の結了等,,,2025-02-19,1,,,,,ハジメ,0
1086,4040001024734,登記記録の閉鎖等,0,2026-01-13,2025-12-15,株式会社ソウエイ,,株式会社,千葉県,八千代市,大和田新田４００番地３,,12,221,2760046,,,2025-12-15,清算の結了等,,,2015-10-05,1,,,,,ソウエイ,0
1088,4040001076214,登記記録の閉鎖等,0,2026-01-13,2025-12-15,株式会社マリアージュ,,株式会社,千葉県,市川市,東菅野２丁目２番５号,,12,203,2720823,,,2025-12-15,清算の結了等,,,2015-10-05,1,,,,,マリアージュ,0
1099,4040002020749,登記記録の閉鎖等,0,2026-01-13,2025-12-15,有限会社ウッドベル,,有限会社,千葉県,船橋市,夏見１丁目１９番５号,,12,204,2730865,,,2025-12-15,清算の結了等,,,2015-10-05,1,,,,,ウッドベル,0
1110,4050002025986,登記記録の閉鎖等,0,2026-01-13,2026-01-05,有限会社ヨシヲ製作所,,有限会社,茨城県,古河市,諸川１６５３番地の１,,08,204,3060126,,,2026-01-05,清算の結了等,,,2015-10-05,1,,,,,ヨシオセイサクショ,0
1124,4100002037679,登記記録の閉鎖等,0,2026-01-13,2026-01-06,有限会社安藤自動車鈑金塗装,,有限会社,長野県,飯田市,松尾明８０６０番地２,,20,205,3950823,,,2026-01-06,清算の結了等,,,2015-10-05,1,,,,,アンドウジドウシャバンキントソウ,0
1125,4110001001998,登記記録の閉鎖等,0,2026-01-13,2026-01-05,後藤金属工業株式会社,,株式会社,新潟県,新潟市東区,豊１丁目１０番３２号,,15,102,9500812,,,2026-01-05,清算の結了等,,,2015-10-05,1,,,,,ゴトウキンゾクコウギョウ,0
1129,4120001036449,登記記録の閉鎖等,0,2026-01-13,2026-01-05,株式会社マラカナ,,株式会社,大阪府,大阪市北区,大淀中１丁目１番５２号４階,,27,127,5310076,,,2026-01-05,合併による解散等,4120001062313,令和８年１月１日大阪市北区梅田一丁目３番１－１００号加茂商事株式会社（4120001062313）に合併し解散,2015-10-05,1,,,,,マラカナ,0
1132,4120001167789,登記記録の閉鎖等,0,2026-01-13,2026-01-07,Ｆ－Ｄｅｌｉｇｈｔ株式会社,,株式会社,大阪府,大阪市鶴見区,横堤２丁目５番８０－４１号,,27,124,5380052,,,2026-01-07,清算の結了等,,,2015-10-05,1,,,,,エフデライト,0
1133,4120001204848,登記記録の閉鎖等,0,2026-01-13,2026-01-05,株式会社レクストカスタマーサービス,,株式会社,大阪府,大阪市中央区,安土町３丁目５番１３号,,27,128,5410052,,,2026-01-05,合併による解散等,7120001197453,令和８年１月１日大阪市中央区安土町三丁目５番１３号レクストホールディングス株式会社（7120001197453）に合併し解散,2017-04-12,1,,,,,レクストカスタマーサービス,0
1163,4140001095708,登記記録の閉鎖等,0,2026-01-13,2025-12-26,株式会社カンサイ彫刻,,株式会社,兵庫県,伊丹市,緑ケ丘６丁目４０番地１,,28,207,6640012,,,2025-12-26,清算の結了等,,,2015-10-05,1,,,,,カンサイチョウコク,0
1203,4220001020112,登記記録の閉鎖等,0,2026-01-13,2026-01-07,株式会社百万石商会,,株式会社,石川県,金沢市,尾張町２丁目１４番２０号,,17,201,9200902,,,2026-01-07,清算の結了等,,,2015-10-05,1,,,,,ヒャクマンゴクショウカイ,0
1205,4220002015276,登記記録の閉鎖等,0,2026-01-13,2026-01-06,有限会社マックス,,有限会社,石川県,羽咋市,千里浜町リ４６番地１,,17,207,9250054,,,2026-01-06,清算の結了等,,,2015-10-05,1,,,,,マックス,0
1229,4290002055142,登記記録の閉鎖等,0,2026-01-13,2025-12-24,有限会社カメラの松葉,,有限会社,福岡県,大牟田市,東新町１丁目６番地,,40,202,8360806,,,2025-12-24,清算の結了等,,,2015-10-05,1,,,,,カメラノマツバ,0
1234,4310001000229,登記記録の閉鎖等,0,2026-01-13,2026-01-09,株式会社エコニクス,,株式会社,長崎県,長崎市,恵美須町７番１２号,,42,201,8500056,,,2026-01-09,登記官による閉鎖,,,2015-10-05,1,,,,,,0
1235,4310001000328,登記記録の閉鎖等,0,2026-01-13,2026-01-09,オリエント開発株式会社,,株式会社,長崎県,長崎市,銅座町６番８号,,42,201,8500841,,,2026-01-09,登記官による閉鎖,,,2015-10-05,1,,,,,,0
1236,4310001000617,登記記録の閉鎖等,0,2026-01-13,2026-01-09,山王観光株式会社,,株式会社,長崎県,長崎市,大手１丁目９番１号,,42,201,8528127,,,2026-01-09,登記官による閉鎖,,,2015-10-05,1,,,,,,0
1237,4310001000625,登記記録の閉鎖等,0,2026-01-13,2026-01-09,サンウッド株式会社,,株式会社,長崎県,長崎市,竹の久保町２２番７号,,42,201,8528014,,,2026-01-09,登記官による閉鎖,,,2015-10-05,1,,,,,,0
1238,4310001000807,登記記録の閉鎖等,0,2026-01-13,2026-01-09,株式会社勝基建設,,株式会社,長崎県,長崎市,末石町３７０番地,,42,201,8500991,,,2026-01-09,登記官による閉鎖,,,2015-10-05,1,,,,,,0
1239,4310001001318,登記記録の閉鎖等,0,2026-01-13,2026-01-09,長崎北青果株式会社,00095658,株式会社,長崎県,長崎市,住吉町６番８号,,42,201,8528154,,,2026-01-09,登記官による閉鎖,,,2015-10-05,1,,,,,,0
1240,4310001001607,登記記録の閉鎖等,0,2026-01-13,2026-01-09,株式会社西日本信販,,株式会社,長崎県,長崎市,興善町７番３号,,42,201,8500032,,,2026-01-09,登記官による閉鎖,,,2015-10-05,1,,,,,,0
1241,4310001001771,登記記録の閉鎖等,0,2026-01-13,2026-01-09,株式会社濱崎建築設計事務所,00095660,株式会社,長崎県,長崎市,八幡町４番１９号,,42,201,8500801,,,2026-01-09,登記官による閉鎖,,,2015-10-05,1,,,,,,0
1242,4310001001887,登記記録の閉鎖等,0,2026-01-13,2026-01-09,株式会社フジックス,,株式会社,長崎県,長崎市,西泊町５８番地,,42,201,8500075,,,2026-01-09,登記官による閉鎖,,,2015-10-05,1,,,,,,0
1243,4310001001953,登記記録の閉鎖等,0,2026-01-13,2026-01-09,株式会社パトリエ・二十一,,株式会社,長崎県,長崎市,浜町３番１８号,,42,201,8500853,,,2026-01-09,登記官による閉鎖,,,2015-10-05,1,,,,,,0
1244,4310001002191,登記記録の閉鎖等,0,2026-01-13,2026-01-09,株式会社クリエイティブ柳瀬,,株式会社,長崎県,長崎市,栄町１番８号,,42,201,8500875,,,2026-01-09,登記官による閉鎖,,,2015-10-05,1,,,,,,0
1245,4310001002415,登記記録の閉鎖等,0,2026-01-13,2026-01-09,株式会社あじさい,,株式会社,長崎県,長崎市,三原２丁目３番５１号,,42,201,8528123,,,2026-01-09,登記官による閉鎖,,,2015-10-05,1,,,,,,0
1246,4310001002480,登記記録の閉鎖等,0,2026-01-13,2026-01-09,株式会社スミショー,,株式会社,長崎県,長崎市,川平町３０１番地１,,42,201,8528143,,,2026-01-09,登記官による閉鎖,,,2015-10-05,1,,,,,,0
1247,4310001002613,登記記録の閉鎖等,0,2026-01-13,2026-01-09,株式会社恒建,,株式会社,長崎県,長崎市,築町１番１７号,,42,201,8500877,,,2026-01-09,登記官による閉鎖,,,2015-10-05,1,,,,,,0
1248,4310001003041,登記記録の閉鎖等,0,2026-01-13,2026-01-09,株式会社クライシスクロス,,株式会社,長崎県,長崎市,上銭座町１３番２７号,,42,201,8500048,,,2026-01-09,登記官による閉鎖,,,2015-10-05,1,,,,,,0
1249,4310001003314,登記記録の閉鎖等,0,2026-01-13,2026-01-09,ジャパンソーラー住設株式会社,,株式会社,長崎県,西彼杵郡時津町,久留里郷１０１３番地１５,,42,308,8512107,,,2026-01-09,登記官による閉鎖,,,2015-10-05,1,,,,,,0
1250,4310001005302,登記記録の閉鎖等,0,2026-01-13,2026-01-09,株式会社九娯貿易,,株式会社,長崎県,佐世保市,白岳町１６６番地１１,,42,202,8571164,,,2026-01-09,登記官による閉鎖,,,2015-10-05,1,,,,,,0
1251,4310001005475,登記記録の閉鎖等,0,2026-01-13,2026-01-09,株式会社サクセス,,株式会社,長崎県,佐世保市,広田１丁目３８番１２号,,42,202,8593223,,,2026-01-09,登記官による閉鎖,,,2015-10-05,1,,,,,,0
1252,4310001005525,登記記録の閉鎖等,0,2026-01-13,2026-01-09,神道開発株式会社,,株式会社,長崎県,佐世保市,春日町１５番３８号,,42,202,8570011,,,2026-01-09,登記官による閉鎖,,,2015-10-05,1,,,,,,0
1253,4310001005558,登記記録の閉鎖等,0,2026-01-13,2026-01-09,白岳物産株式会社,,株式会社,長崎県,佐世保市,藤原町２２番１５号,,42,202,8570832,,,2026-01-09,登記官による閉鎖,,,2015-10-05,1,,,,,,0
1254,4310001005566,登記記録の閉鎖等,0,2026-01-13,2026-01-09,杉田建築工業株式会社,,株式会社,長崎県,佐世保市,日宇町２８５５番地の７,,42,202,8571151,,,2026-01-09,登記官による閉鎖,,,2015-10-05,1,,,,,,0
1255,4310001005624,登記記録の閉鎖等,0,2026-01-13,2026-01-09,大栄機工株式会社,,株式会社,長崎県,佐世保市,花園町３番７号,,42,202,8570024,,,2026-01-09,登記官による閉鎖,,,2015-10-05,1,,,,,,0
1256,4310001005715,登記記録の閉鎖等,0,2026-01-13,2026-01-09,司建設工業株式会社,,株式会社,長崎県,佐世保市,黒髪町３７５２番地４,,42,202,8571152,,,2026-01-09,登記官による閉鎖,,,2015-10-05,1,,,,,,0
1257,4310001005970,登記記録の閉鎖等,0,2026-01-13,2026-01-09,株式会社ベトナム文化交流協会,,株式会社,長崎県,佐世保市,福石町１３番４号,,42,202,8570854,,,2026-01-09,登記官による閉鎖,,,2015-10-05,1,,,,,,0
1258,4310001005987,登記記録の閉鎖等,0,2026-01-13,2026-01-09,株式会社ホリデイ・イン佐世保,,株式会社,長崎県,佐世保市,湊町５番２４号,,42,202,8570055,,,2026-01-09,登記官による閉鎖,,,2015-10-05,1,,,,,,0
1259,4310001006093,登記記録の閉鎖等,0,2026-01-13,2026-01-09,株式会社森崎建設,,株式会社,長崎県,佐世保市,大黒町２９７番地２,,42,202,8570843,,,2026-01-09,登記官による閉鎖,,,2015-10-05,1,,,,,,0
1260,4310001006440,登記記録の閉鎖等,0,2026-01-13,2026-01-09,株式会社パティオ,,株式会社,長崎県,北松浦郡佐々町,本田原免２１１番地,,42,391,8570311,,,2026-01-09,登記官による閉鎖,,,2015-10-05,1,,,,,,0
1261,4310001006928,登記記録の閉鎖等,0,2026-01-13,2026-01-09,株式会社下辺組,,株式会社,長崎県,南松浦郡新上五島町,浦桑郷９１７番地１４,,42,411,8574511,,,2026-01-09,登記官による閉鎖,,,2015-10-05,1,,,,,,0
1262,4310001006944,登記記録の閉鎖等,0,2026-01-13,2026-01-09,株式会社前田電器商会,,株式会社,長崎県,南松浦郡新上五島町,有川郷６５４番地２,,42,411,8574211,,,2026-01-09,登記官による閉鎖,,,2015-10-05,1,,,,,,0
1263,4310001007851,登記記録の閉鎖等,0,2026-01-13,2026-01-09,株式会社アクトフォー,,株式会社,長崎県,諫早市,目代町９２３番地１２７,,42,204,8540007,,,2026-01-09,登記官による閉鎖,,,2015-10-05,1,,,,,,0
1264,4310001007918,登記記録の閉鎖等,0,2026-01-13,2026-01-09,株式会社川口水産,,株式会社,長崎県,諫早市,有喜町３０６番地,,42,204,8540121,,,2026-01-09,登記官による閉鎖,,,2015-10-05,1,,,,,,0
1265,4310001007983,登記記録の閉鎖等,0,2026-01-13,2026-01-09,進栄株式会社,,株式会社,長崎県,諫早市,天満町１３番３３号,,42,204,8540006,,,2026-01-09,登記官による閉鎖,,,2015-10-05,1,,,,,,0
1266,4310001008032,登記記録の閉鎖等,0,2026-01-13,2026-01-09,立川レジャー産業株式会社,,株式会社,長崎県,諫早市,貝津町１２８６番地１,,42,204,8540063,,,2026-01-09,登記官による閉鎖,,,2015-10-05,1,,,,,,0
1267,4310001008528,登記記録の閉鎖等,0,2026-01-13,2026-01-09,株式会社湯島,,株式会社,長崎県,雲仙市,小浜町北本町９１５番地,,42,213,8540514,,,2026-01-09,登記官による閉鎖,,,2015-10-05,1,,,,,,0
1268,4310001008841,登記記録の閉鎖等,0,2026-01-13,2026-01-09,株式会社トーマース,,株式会社,長崎県,大村市,玖島３丁目７００番地１,,42,205,8560834,,,2026-01-09,登記官による閉鎖,,,2015-10-05,1,,,,,,0
1269,4310001008899,登記記録の閉鎖等,0,2026-01-13,2026-01-09,株式会社ふれあい,,株式会社,長崎県,大村市,東三城町８番地１０,,42,205,8560826,,,2026-01-09,登記官による閉鎖,,,2015-10-05,1,,,,,,0
1270,4310001008916,登記記録の閉鎖等,0,2026-01-13,2026-01-09,株式会社マックス,,株式会社,長崎県,大村市,東三城町７番地９,,42,205,8560826,,,2026-01-09,登記官による閉鎖,,,2015-10-05,1,,,,,,0
1271,4310001009658,登記記録の閉鎖等,0,2026-01-13,2026-01-09,株式会社スポーツハウス,,株式会社,長崎県,島原市,片町５７２番地１,,42,203,8550042,,,2026-01-09,登記官による閉鎖,,,2015-10-05,1,,,,,,0
1272,4310001009699,登記記録の閉鎖等,0,2026-01-13,2026-01-09,株式会社ふげん村,,株式会社,長崎県,島原市,天神元町乙３３番地,,42,203,8550883,,,2026-01-09,登記官による閉鎖,,,2015-10-05,1,,,,,,0
1273,4310001009724,登記記録の閉鎖等,0,2026-01-13,2026-01-09,Ｄ・ミューズ株式会社,,株式会社,長崎県,島原市,北門町１２７６番地１,,42,203,8550032,,,2026-01-09,登記官による閉鎖,,,2015-10-05,1,,,,,,0
1274,4310001009740,登記記録の閉鎖等,0,2026-01-13,2026-01-09,株式会社ダツク,,株式会社,長崎県,南島原市,深江町丙７７３番地,,42,214,8591503,,,2026-01-09,登記官による閉鎖,,,2015-10-05,1,,,,,,0
1275,4310001009757,登記記録の閉鎖等,0,2026-01-13,2026-01-09,株式会社本多建設工業,,株式会社,長崎県,南島原市,布津町丙７８４番地２,,42,214,8592113,,,2026-01-09,登記官による閉鎖,,,2015-10-05,1,,,,,,0
1276,4310001010194,登記記録の閉鎖等,0,2026-01-13,2026-01-09,株式会社永田土木,,株式会社,長崎県,壱岐市,芦辺町箱崎中山触２２２１番地,00095761,42,210,8115463,,,2026-01-09,登記官による閉鎖,,,2015-10-05,1,,,,,,0
1277,4310001010582,登記記録の閉鎖等,0,2026-01-13,2026-01-09,株式会社鷹島水産,,株式会社,長崎県,松浦市,鷹島町阿翁浦免５７０番地,,42,208,8594301,,,2026-01-09,登記官による閉鎖,,,2015-10-05,1,,,,,,0
1278,4310001010731,登記記録の閉鎖等,0,2026-01-13,2026-01-09,大成興業株式会社,,株式会社,長崎県,対馬市,美津島町久須保４２３番地２,,42,209,8170324,,,2026-01-09,登記官による閉鎖,,,2015-10-05,1,,,,,,0
1279,4310001011837,登記記録の閉鎖等,0,2026-01-13,2026-01-09,株式会社直江工業,,株式会社,長崎県,佐世保市,鹿子前町４０番地１,,42,202,8580922,,,2026-01-09,登記官による閉鎖,,,2015-10-05,1,,,,,,0
1282,4310002005755,登記記録の閉鎖等,0,2026-01-13,2026-01-09,有限会社八幡電機商会,,有限会社,長崎県,長崎市,西北町１０番１７号,,42,201,8528051,,,2026-01-09,登記官による閉鎖,,,2015-10-05,1,,,,,,0
1283,4310002007660,登記記録の閉鎖等,0,2026-01-13,2026-01-09,有限会社沖原プラスチックス,,有限会社,長崎県,西彼杵郡時津町,日並郷３５０５番地,,42,308,8512108,,,2026-01-09,登記官による閉鎖,,,2015-10-05,1,,,,,,0
1286,4310002019821,登記記録の閉鎖等,0,2026-01-13,2026-01-09,有限会社前田水産,,有限会社,長崎県,松浦市,星鹿町岳崎免２５２７番地,,42,208,8594744,,,2026-01-09,登記官による閉鎖,,,2015-10-05,1,,,,,,0
1287,4310005006759,登記記録の閉鎖等,0,2026-01-13,2026-01-09,上対馬水産振興協同組合,,その他の設立登記法人,長崎県,対馬市,上対馬町西泊１４９番地１６,,42,209,8171703,,,2026-01-09,登記官による閉鎖,,,2015-10-05,1,,,,,,0
1304,4410005006550,登記記録の閉鎖等,0,2026-01-13,2025-12-26,淀川村開拓農業協同組合,,その他の設立登記法人,秋田県,大仙市,協和下淀川字馬場２０番地の２,,05,212,0192442,,,2025-12-26,清算の結了等,,,2023-10-24,1,,,,,ヨドガワムラカイタク,0
1316,4490001006522,登記記録の閉鎖等,0,2026-01-13,2026-01-09,株式会社ドルチェ,,株式会社,高知県,高岡郡日高村,下分５０番地２,,39,410,7812151,,,2026-01-09,清算の結了等,,,2015-10-05,1,,,,,ドルチェ,0
1318,4490005003557,登記記録の閉鎖等,0,2026-01-13,2026-01-07,医療法人太佑会,,その他の設立登記法人,高知県,吾川郡いの町,２５６番地,,39,386,7812110,,,2026-01-07,清算の結了等,,,2015-10-05,1,,,,,タイユウカイ,0
1320,4700150062006,登記記録の閉鎖等,0,2026-01-13,2025-06-30,生月島体験観光協議会　大橋観光売店,,その他,長崎県,平戸市,生月町南免４３７５－１,,42,207,8595706,,,2025-06-30,その他の清算の結了等,,,2015-10-09,1,,,,,イキツキシマタイケンカンコウキヨウギカイオオハシカンコウバイテン,0
1325,5010001003566,登記記録の閉鎖等,0,2026-01-13,2025-12-16,株式会社シノザキ,,株式会社,東京都,文京区,後楽２丁目１７番７号,,13,105,1120004,,,2025-12-16,清算の結了等,,,2015-10-05,1,,,,,シノザキ,0
1328,5010001110503,登記記録の閉鎖等,0,2026-01-13,2026-01-05,株式会社電通プロモーションエグゼ,,株式会社,東京都,港区,東新橋１丁目８番１号,,13,103,1050021,,,2026-01-05,合併による解散等,7010001180643,令和８年１月１日東京都港区東新橋一丁目８番１号株式会社電通プロモーション（7010001180643）に合併し解散,2015-10-05,1,,,,,デンツウプロモーションエグゼ,0
1329,5010001140319,登記記録の閉鎖等,0,2026-01-13,2026-01-09,隅田川商事株式会社,,株式会社,長崎県,長崎市,西山３丁目３番２０号ヒルサイド西山２０２号,,42,201,8500001,,,2026-01-09,登記官による閉鎖,,,2015-10-05,1,,,,,スミダガワショウジ,0
1345,5010501044085,登記記録の閉鎖等,0,2026-01-13,2025-12-26,株式会社ＫＩＬＡ,,株式会社,東京都,台東区,寿３丁目１５番１０号ペンギンビル４階,,13,106,1110042,,,2025-12-26,清算の結了等,,,2019-05-07,1,,,,,キラ,0
1363,5011001134566,登記記録の閉鎖等,0,2026-01-13,2026-01-05,株式会社シェルズ,,株式会社,東京都,新宿区,西新宿１丁目２６－２新宿野村ビル３２階,,13,104,1600023,,,2026-01-05,清算の結了等,,,2020-07-02,1,,,,,シェルズ,0
1370,5011002010213,登記記録の閉鎖等,0,2026-01-13,2025-12-15,有限会社萩パース・ルーム,,有限会社,東京都,渋谷区,富ヶ谷２丁目１４番６号,,13,113,1510063,,,2025-12-15,清算の結了等,,,2015-10-05,1,,,,,ハギパースルーム,0
1374,5011101057460,登記記録の閉鎖等,0,2026-01-13,2026-01-05,株式会社ディー・エイ・ティ・プランニング,,株式会社,東京都,新宿区,西五軒町４番１０号,,13,104,1620812,,,2026-01-05,清算の結了等,,,2015-10-05,1,,,,,ディーエイティプランニング,0
1383,5011401022123,登記記録の閉鎖等,0,2026-01-13,2026-01-08,株式会社四方森,,株式会社,東京都,板橋区,大門４番１４－２０３号,,13,119,1750085,,,2026-01-08,清算の結了等,,,2019-10-02,1,,,,,ヨモモリ,0
1394,5011801011080,登記記録の閉鎖等,0,2026-01-13,2026-01-06,株式会社ネイチャーズ・ハート,,株式会社,東京都,足立区,千住２丁目６１番地,,13,121,1200034,,,2026-01-06,清算の結了等,,,2015-10-05,1,,,,,ネイチャーズハート,0
1398,5012701013910,登記記録の閉鎖等,0,2026-01-13,2025-12-15,株式会社ｒｏｓ,,株式会社,東京都,港区,南青山３丁目１番３６号青山丸竹ビル６Ｆ,,13,103,1070062,,,2025-12-15,清算の結了等,,,2016-09-05,1,,,,,ロス,0
1405,5020001098201,登記記録の閉鎖等,0,2026-01-13,2026-01-05,株式会社ＯＭ１,,株式会社,沖縄県,那覇市,久茂地１丁目１‐１‐９Ｆ,,47,201,9000015,,,2026-01-05,清算の結了等,,,2015-10-05,1,,,,,オーエムワン,0
1406,5020001111640,登記記録の閉鎖等,0,2026-01-13,2025-12-25,株式会社はまガス,,株式会社,静岡県,浜松市中央区,大久保町４８４５－１,,22,138,4328006,,,2025-12-25,清算の結了等,,,2015-10-05,1,,,,,ハマガス,0
1423,5021002013495,登記記録の閉鎖等,0,2026-01-13,2025-12-15,有限会社マルテツ,,有限会社,神奈川県,茅ヶ崎市,中海岸４丁目５番３号,,14,207,2530055,,,2025-12-15,清算の結了等,,,2015-10-05,1,,,,,,0
1428,5030001095065,登記記録の閉鎖等,0,2026-01-13,2025-12-25,株式会社ボルテックス,,株式会社,埼玉県,さいたま市見沼区,深作３丁目４１番地４－１０２,,11,104,3370003,,,2025-12-25,清算の結了等,,,2015-10-05,1,,,,,ボルテックス,0
1437,5040001100096,登記記録の閉鎖等,0,2026-01-13,2025-12-15,株式会社便九,,株式会社,千葉県,富里市,新橋７１３番地１２,,12,233,2860224,,,2025-12-15,清算の結了等,,,2017-05-15,1,,,,,ベンキュウ,0
1443,5050001018602,登記記録の閉鎖等,0,2026-01-13,2026-01-05,株式会社磯井建設,,株式会社,茨城県,古河市,磯部１３７４番地２,,08,204,3060225,,,2026-01-05,清算の結了等,,,2015-10-05,1,,,,,イソイケンセツ,0
1453,5080401003366,登記記録の閉鎖等,0,2026-01-13,2025-12-26,天竜建材株式会社,,株式会社,静岡県,浜松市中央区,老間町３０９番地,,22,138,4350025,,,2025-12-26,清算の結了等,,,2015-10-05,1,,,,,テンリュウケンザイ,0
1458,5100001025907,登記記録の閉鎖等,0,2026-01-13,2026-01-08,株式会社なかさと代行,,株式会社,長野県,佐久市,塚原１５５３番地１,,20,217,3850025,,,2026-01-08,清算の結了等,,,2015-10-05,1,,,,,ナカサトダイコウ,0
1462,5110001003341,登記記録の閉鎖等,0,2026-01-13,2026-01-05,敦井セメント興業株式会社,,株式会社,新潟県,新潟市中央区,下大川前通４ノ町２２３０番地１２,,15,103,9518052,,,2026-01-05,合併による解散等,6110001003340,令和８年１月１日新潟市中央区下大川前通四ノ町２２３０番地１２敦井資材販売株式会社（6110001003340）に合併し解散,2015-10-05,1,,,,,ツルイセメントコウギョウ,0
1466,5110002026069,登記記録の閉鎖等,0,2026-01-13,2026-01-05,有限会社サンシー,,有限会社,新潟県,十日町市,妻有町西１丁目１番地１２,,15,210,9480037,,,2026-01-05,清算の結了等,,,2015-10-05,1,,,,,,0
1467,5110003005377,登記記録の閉鎖等,0,2026-01-13,2026-01-05,合同会社Ｓａｔｏｕ,,合同会社,新潟県,新潟市中央区,南笹口１丁目８番２２号Ｆｌａｔ新潟駅南Ｎｏｒｔｈ５０５号,,15,103,9500912,,,2026-01-05,清算の結了等,,,2024-05-01,1,,,,,サトウ,0
1511,5180001109751,登記記録の閉鎖等,0,2026-01-13,2026-01-05,株式会社ラック,,株式会社,愛知県,稲沢市,陸田高畑町５番地,,23,220,4928031,,,2026-01-05,合併による解散等,9180001026695,令和８年１月１日名古屋市西区木前町９８番地丹羽興業株式会社（9180001026695）に合併し解散,2015-10-05,1,,,,,ラック,0
1527,5190001015362,登記記録の閉鎖等,0,2026-01-13,2026-01-05,大宗建築サービス株式会社,,株式会社,三重県,四日市市,大治田３丁目３番２３号,,24,202,5100875,,,2026-01-05,合併による解散等,6190001015361,令和８年１月１日三重県四日市市相生町１番１号大宗建設株式会社（6190001015361）に合併し解散,2015-10-05,1,,,,,ダイソウケンチクサービス,0
1558,5280005003866,登記記録の閉鎖等,0,2026-01-13,2026-01-07,石央セラミックス株式会社,,株式会社,島根県,大田市,温泉津町福光ハ１４５８番地３,,32,205,6992514,,,2026-01-07,清算の結了等,,,2015-10-05,1,,,,,,0
1559,5290001007507,登記記録の閉鎖等,0,2026-01-13,2025-12-24,株式会社コスモクリエーション,,株式会社,福岡県,福岡市南区,三宅３丁目３４番２２－５０３号,,40,134,8111344,,,2025-12-24,清算の結了等,,,2015-10-05,1,,,,,コスモクリエーション,0
1560,5290001029716,登記記録の閉鎖等,0,2026-01-13,2026-01-05,株式会社河合物流サービス,,株式会社,福岡県,福岡市東区,箱崎ふ頭５丁目９番１号,,40,131,8120051,,,2026-01-05,合併による解散等,8290001020341,令和８年１月１日福岡市東区箱崎ふ頭五丁目９番１号河合製氷冷蔵株式会社（8290001020341）に合併し解散,2015-10-05,1,,,,,カワイブツリュウサービス,0
1567,5290002016003,登記記録の閉鎖等,0,2026-01-13,2025-12-23,有限会社綜合計算センター,,有限会社,福岡県,福岡市博多区,東光２丁目６番１０号,,40,132,8120008,,,2025-12-23,清算の結了等,,,2015-10-05,1,,,,,ソウゴウケイサンセンター,0
1578,5290805009062,登記記録の閉鎖等,0,2026-01-13,2026-01-08,一般社団法人日本儀礼文化協会,,その他の設立登記法人,福岡県,北九州市小倉北区,上富野３丁目２番８号,,40,106,8020022,,,2026-01-08,清算の結了等,,,2017-12-26,1,,,,,ニホンギレイブンカキョウカイ,0
1580,5310001000062,登記記録の閉鎖等,0,2026-01-13,2026-01-09,アース・ニジュウイチ株式会社,,株式会社,長崎県,長崎市,西山２丁目１２番１４号,,42,201,8500001,,,2026-01-09,登記官による閉鎖,,,2015-10-05,1,,,,,,0
1581,5310001000211,登記記録の閉鎖等,0,2026-01-13,2026-01-09,株式会社エーアンドエムコスモ,,株式会社,長崎県,長崎市,城山台１丁目３９番１９号,,42,201,8528027,,,2026-01-09,登記官による閉鎖,,,2015-10-05,1,,,,,,0
1582,5310001000293,登記記録の閉鎖等,0,2026-01-13,2026-01-09,株式会社大瀧建設,,株式会社,長崎県,長崎市,樺島町８番８－１３０２号,,42,201,8500034,,,2026-01-09,登記官による閉鎖,,,2015-10-05,1,,,,,,0
1583,5310001000500,登記記録の閉鎖等,0,2026-01-13,2026-01-09,株式会社栗岡建築設計事務所,,株式会社,長崎県,長崎市,愛宕２丁目９番１号,,42,201,8500822,,,2026-01-09,登記官による閉鎖,,,2015-10-05,1,,,,,,0
1584,5310001000517,登記記録の閉鎖等,0,2026-01-13,2026-01-09,経営開発株式会社,,株式会社,長崎県,長崎市,出島町３番１０号,,42,201,8500862,,,2026-01-09,登記官による閉鎖,,,2015-10-05,1,,,,,,0
1585,5310001000582,登記記録の閉鎖等,0,2026-01-13,2026-01-09,古賀工業株式会社,,株式会社,長崎県,長崎市,松山町４番３５号,,42,201,8528118,,,2026-01-09,登記官による閉鎖,,,2015-10-05,1,,,,,,0
1586,5310001000698,登記記録の閉鎖等,0,2026-01-13,2026-01-09,ニュー萬咲株式会社,,株式会社,長崎県,長崎市,三原１丁目７番２９号,,42,201,8528123,,,2026-01-09,登記官による閉鎖,,,2015-10-05,1,,,,,,0
1587,5310001000905,登記記録の閉鎖等,0,2026-01-13,2026-01-09,株式会社精研産業,,株式会社,長崎県,長崎市,城山町１５番１３号,,42,201,8528021,,,2026-01-09,登記官による閉鎖,,,2015-10-05,1,,,,,,0
1588,5310001001382,登記記録の閉鎖等,0,2026-01-13,2026-01-09,株式会社長崎商事,,株式会社,長崎県,長崎市,上戸町１５２番地４,,42,201,8500953,,,2026-01-09,登記官による閉鎖,,,2015-10-05,1,,,,,,0
1589,5310001001738,登記記録の閉鎖等,0,2026-01-13,2026-01-09,株式会社ハギワラ,,株式会社,長崎県,長崎市,宝町１２番２号,,42,201,8500045,,,2026-01-09,登記官による閉鎖,,,2015-10-05,1,,,,,,0
1590,5310001001779,登記記録の閉鎖等,0,2026-01-13,2026-01-09,ハマノ金物株式会社,,株式会社,長崎県,長崎市,岩屋町１番２１号,,42,201,8528052,,,2026-01-09,登記官による閉鎖,,,2015-10-05,1,,,,,,0
1591,5310001002397,登記記録の閉鎖等,0,2026-01-13,2026-01-09,株式会社丸石運送,,株式会社,長崎県,長崎市,小江町２６９１番地１,,42,201,8511133,,,2026-01-09,登記官による閉鎖,,,2015-10-05,1,,,,,,0
1592,5310001002406,登記記録の閉鎖等,0,2026-01-13,2026-01-09,長崎新世紀開発株式会社,,株式会社,長崎県,長崎市,岩川町４番１３号,,42,201,8528106,,,2026-01-09,登記官による閉鎖,,,2015-10-05,1,,,,,,0
1593,5310001002414,登記記録の閉鎖等,0,2026-01-13,2026-01-09,株式会社ビジネス・サポート,,株式会社,長崎県,長崎市,平野町１番１号,,42,201,8528117,,,2026-01-09,登記官による閉鎖,,,2015-10-05,1,,,,,,0
1594,5310001002488,登記記録の閉鎖等,0,2026-01-13,2026-01-09,環境衛生センター株式会社,,株式会社,長崎県,長崎市,万才町１番９号,,42,201,8500033,,,2026-01-09,登記官による閉鎖,,,2015-10-05,1,,,,,,0
1595,5310001002579,登記記録の閉鎖等,0,2026-01-13,2026-01-09,株式会社崎陽共栄,,株式会社,長崎県,長崎市,平和町２０番１８号,,42,201,8528116,,,2026-01-09,登記官による閉鎖,,,2015-10-05,1,,,,,,0
1596,5310001003008,登記記録の閉鎖等,0,2026-01-13,2026-01-09,株式会社エヌ・ピー・エス,,株式会社,長崎県,長崎市,千歳町１５番３号,,42,201,8528135,,,2026-01-09,登記官による閉鎖,,,2015-10-05,1,,,,,,0
1597,5310001003362,登記記録の閉鎖等,0,2026-01-13,2026-01-09,西日本店装株式会社,,株式会社,長崎県,西彼杵郡時津町,久留里郷字船蔵１０４８番地１１,,42,308,8512107,,,2026-01-09,登記官による閉鎖,,,2015-10-05,1,,,,,,0
1598,5310001003379,登記記録の閉鎖等,0,2026-01-13,2026-01-09,株式会社マイハウス,,株式会社,長崎県,西彼杵郡時津町,元村郷１２１２番地５,,42,308,8512103,,,2026-01-09,登記官による閉鎖,,,2015-10-05,1,,,,,,0
1599,5310001003437,登記記録の閉鎖等,0,2026-01-13,2026-01-09,泰洋開発株式会社,,株式会社,長崎県,西彼杵郡長与町,三根郷３８番地４,,42,307,8512125,,,2026-01-09,登記官による閉鎖,,,2015-10-05,1,,,,,,0
1600,5310001003445,登記記録の閉鎖等,0,2026-01-13,2026-01-09,株式会社東洋ハウス産業,,株式会社,長崎県,西彼杵郡長与町,高田郷８２３番地１,,42,307,8512127,,,2026-01-09,登記官による閉鎖,,,2015-10-05,1,,,,,,0
1601,5310001003486,登記記録の閉鎖等,0,2026-01-13,2026-01-09,日本土木建設株式会社,,株式会社,長崎県,長崎市,西海町１７６５番地３７６,,42,201,8513101,,,2026-01-09,登記官による閉鎖,,,2015-10-05,1,,,,,ニホンドボクケンセツ,0
1602,5310001005251,登記記録の閉鎖等,0,2026-01-13,2026-01-09,株式会社ガロジャパンプロダクション,,株式会社,長崎県,佐世保市,福石町１０番９号,,42,202,8570854,,,2026-01-09,登記官による閉鎖,,,2015-10-05,1,,,,,,0
1603,5310001005292,登記記録の閉鎖等,0,2026-01-13,2026-01-09,木船建設株式会社,,株式会社,長崎県,佐世保市,万津町４番１４号,,42,202,8570877,,,2026-01-09,登記官による閉鎖,,,2015-10-05,1,,,,,,0
1604,5310001005359,登記記録の閉鎖等,0,2026-01-13,2026-01-09,国際九州観光株式会社,,株式会社,長崎県,佐世保市,大和町１０６３番地,,42,202,8571165,,,2026-01-09,登記官による閉鎖,,,2015-10-05,1,,,,,,0
1605,5310001005417,登記記録の閉鎖等,0,2026-01-13,2026-01-09,株式会社佐世保タチカワ,,株式会社,長崎県,佐世保市,山手町１０番１９号,,42,202,8570022,,,2026-01-09,登記官による閉鎖,,,2015-10-05,1,,,,,,0
1606,5310001005689,登記記録の閉鎖等,0,2026-01-13,2026-01-09,株式会社田島総業,,株式会社,長崎県,佐世保市,木風町１４４５番地５,,42,202,8571166,,,2026-01-09,登記官による閉鎖,,,2015-10-05,1,,,,,,0
1607,5310001005755,登記記録の閉鎖等,0,2026-01-13,2026-01-09,東洋エンジニアリング株式会社,,株式会社,長崎県,佐世保市,福田町６番１５号,,42,202,8570035,,,2026-01-09,登記官による閉鎖,,,2015-10-05,1,,,,,,0
1608,5310001005796,登記記録の閉鎖等,0,2026-01-13,2026-01-09,株式会社長崎林業,,株式会社,長崎県,佐世保市,鹿子前町９５６番地１,,42,202,8580922,,,2026-01-09,登記官による閉鎖,,,2015-10-05,1,,,,,,0
1609,5310001005961,登記記録の閉鎖等,0,2026-01-13,2026-01-09,株式会社フランヌ,,株式会社,長崎県,佐世保市,黒髪町１８番９号ロイヤルマンション２０３,,42,202,8571152,,,2026-01-09,登記官による閉鎖,,,2015-10-05,1,,,,,,0
1610,5310001006200,登記記録の閉鎖等,0,2026-01-13,2026-01-09,小田建設工業株式会社,,株式会社,長崎県,東彼杵郡川棚町,新谷郷９４番地１,,42,322,8593619,,,2026-01-09,登記官による閉鎖,,,2015-10-05,1,,,,,,0
1611,5310001008543,登記記録の閉鎖等,0,2026-01-13,2026-01-09,株式会社協同生産販売システム,,株式会社,長崎県,雲仙市,南串山町丙１０４１８番地,,42,213,8540703,,,2026-01-09,登記官による閉鎖,,,2015-10-05,1,,,,,,0
1612,5310001008667,登記記録の閉鎖等,0,2026-01-13,2026-01-09,朝日興業株式会社,,株式会社,長崎県,大村市,杭出津１丁目８３３番地１,,42,205,8560828,,,2026-01-09,登記官による閉鎖,,,2015-10-05,1,,,,,,0
1613,5310001008709,登記記録の閉鎖等,0,2026-01-13,2026-01-09,オールラウンド株式会社,,株式会社,長崎県,大村市,小川内町１０２２番地１,,42,205,8560043,,,2026-01-09,登記官による閉鎖,,,2015-10-05,1,,,,,,0
1614,5310001008881,登記記録の閉鎖等,0,2026-01-13,2026-01-09,早川自動車工業株式会社,,株式会社,長崎県,大村市,松並２丁目８９５番地,,42,205,8560814,,,2026-01-09,登記官による閉鎖,,,2015-10-05,1,,,,,,0
1615,5310001008898,登記記録の閉鎖等,0,2026-01-13,2026-01-09,株式会社プラザ・ファイブ,,株式会社,長崎県,大村市,桜馬場２丁目４４４番地３,,42,205,8560812,,,2026-01-09,登記官による閉鎖,,,2015-10-05,1,,,,,,0
1616,5310001008931,登記記録の閉鎖等,0,2026-01-13,2026-01-09,株式会社モリケン,,株式会社,長崎県,大村市,溝陸町７４番地２,,42,205,8560844,,,2026-01-09,登記官による閉鎖,,,2015-10-05,1,,,,,,0
1617,5310001009392,登記記録の閉鎖等,0,2026-01-13,2026-01-09,株式会社備長,,株式会社,長崎県,諫早市,鷲崎町１０７,,42,204,8540051,,,2026-01-09,登記官による閉鎖,,,2015-10-05,1,,,,,,0
1618,5310001009764,登記記録の閉鎖等,0,2026-01-13,2026-01-09,カネツコンクリート工業株式会社,,株式会社,長崎県,南島原市,有家町小川３０７番地,,42,214,8592205,,,2026-01-09,登記官による閉鎖,,,2015-10-05,1,,,,,,0
1619,5310001010111,登記記録の閉鎖等,0,2026-01-13,2026-01-09,株式会社壱岐流通センター,,株式会社,長崎県,壱岐市,郷ノ浦町田中触９０８番地２,,42,210,8115117,,,2026-01-09,登記官による閉鎖,,,2015-10-05,1,,,,,,0
1620,5310001010466,登記記録の閉鎖等,0,2026-01-13,2026-01-09,吉田設備工業株式会社,,株式会社,長崎県,平戸市,大久保町１３１４番地,,42,207,8595102,,,2026-01-09,登記官による閉鎖,,,2015-10-05,1,,,,,,0
1621,5310001010722,登記記録の閉鎖等,0,2026-01-13,2026-01-09,対州真珠株式会社,,株式会社,長崎県,対馬市,厳原町天道茂３９３番地,,42,209,8170014,,,2026-01-09,登記官による閉鎖,,,2015-10-05,1,,,,,,0
1633,5360001025864,登記記録の閉鎖等,0,2026-01-13,2026-01-05,株式会社Ｒ＆Ｓ,,株式会社,沖縄県,中頭郡嘉手納町,字嘉手納２５８番地２Ｋａｄｅｎａビル２階１０１号,,47,325,9040203,,,2026-01-05,清算の結了等,,,2019-06-25,1,,,,,アールアンドエス,0
1648,5390001007959,登記記録の閉鎖等,0,2026-01-13,2026-01-06,株式会社サンエー,,株式会社,山形県,鶴岡市,下山添字庄南１１番地の２,,06,203,9970341,,,2026-01-06,合併による解散等,2390001007961,令和８年１月１日山形県鶴岡市下清水字内田元７２番地４３スズモト株式会社（2390001007961）に合併し解散,2015-10-05,1,,,,,サンエー,0
1660,5450002000361,登記記録の閉鎖等,0,2026-01-13,2026-01-08,有限会社旭川佐古オートサービス,,有限会社,北海道,旭川市,台場三条１丁目９番１号,,01,204,0708073,,,2026-01-08,清算の結了等,,,2015-10-05,1,,,,,,0
1661,5460101007769,登記記録の閉鎖等,0,2026-01-13,2026-01-05,道栄管材株式会社,,株式会社,北海道,帯広市,西十七条北１丁目４０番２３号,,01,207,0800047,,,2026-01-05,清算の結了等,,,2025-10-28,1,,,,,ドウエイカンザイ,0
1672,6010001216654,登記記録の閉鎖等,0,2026-01-13,2025-12-15,ＢＮＪ株式会社,,株式会社,東京都,中央区,日本橋茅場町２丁目１３－１１サンアイ茅場町ビル８階,,13,102,1030025,,,2025-12-15,清算の結了等,,,2021-03-19,1,,,,,ビーエヌジェー,0
1681,6010401068811,登記記録の閉鎖等,0,2026-01-13,2025-12-16,株式会社テレック,,株式会社,東京都,港区,六本木３丁目４番２号,,13,103,1060032,,,2025-12-16,清算の結了等,,,2015-10-05,1,,,,,テレック,0
1697,6010402003940,登記記録の閉鎖等,0,2026-01-13,2025-12-15,有限会社ギボクリエーティブ,,有限会社,東京都,港区,西麻布３丁目３番２号,,13,103,1060031,,,2025-12-15,清算の結了等,,,2015-10-05,1,,,,,,0
1703,6010602010092,登記記録の閉鎖等,0,2026-01-13,2025-12-24,有限会社籠利鍍金工業所,,有限会社,東京都,墨田区,押上３丁目４０番７号,,13,107,1310045,,,2025-12-24,清算の結了等,,,2015-10-05,1,,,,,カゴトシメッキコウギョウショ,0
1707,6010703003284,登記記録の閉鎖等,0,2026-01-13,2025-12-25,ダウ・シリコーン・ホールディング・ジャパン株式会社,,株式会社,東京都,品川区,東品川２丁目２番２４号,,13,109,1400002,,,2025-12-25,合併による解散等,7010703003275,令和７年１２月２２日東京都品川区東品川二丁目２番２４号ダウ・ケミカル日本株式会社（7010703003275）に合併し解散,2016-09-28,1,,,,,ダウシリコーンホールディングジャパン,0
1716,6011001020897,登記記録の閉鎖等,0,2026-01-13,2025-12-15,株式会社フフス,,株式会社,東京都,渋谷区,神宮前２丁目３３番１６号,,13,113,1500001,,,2025-12-15,清算の結了等,,,2015-10-05,1,,,,,フフス,0
1721,6011002007043,登記記録の閉鎖等,0,2026-01-13,2025-12-15,有限会社瀬戸企業,,有限会社,東京都,渋谷区,渋谷２丁目７番１１号,,13,113,1500002,,,2025-12-15,清算の結了等,,,2015-10-05,1,,,,,セトキギョウ,0
1722,6011101020137,登記記録の閉鎖等,0,2026-01-13,2026-01-06,株式会社まちづくり計画研究所,,株式会社,東京都,練馬区,田柄５丁目４番２１号,,13,120,1790073,,,2026-01-06,清算の結了等,,,2015-10-05,1,,,,,マチヅクリケイカクケンキュウジョ,0
1725,6011101101721,登記記録の閉鎖等,0,2026-01-13,2026-01-05,株式会社レクストラボ,,株式会社,大阪府,大阪市中央区,安土町３丁目５番１３号,,27,128,5410052,,,2026-01-05,合併による解散等,7120001197453,令和８年１月１日大阪市中央区安土町三丁目５番１３号レクストホールディングス株式会社（7120001197453）に合併し解散,2023-02-03,1,,,,,レクストラボ,0
1738,6011801006550,登記記録の閉鎖等,0,2026-01-13,2026-01-05,王子紙業株式会社,,株式会社,東京都,足立区,新田３丁目３１番１１号,,13,121,1230865,,,2026-01-05,清算の結了等,,,2015-10-05,1,,,,,オウジシギョウ,0
1754,6021001051669,登記記録の閉鎖等,0,2026-01-13,2025-12-15,株式会社イイギリ,,株式会社,神奈川県,鎌倉市,岡本１２４１－４Ａ－９０２,,14,204,2470072,,,2025-12-15,清算の結了等,,,2015-10-05,1,,,,,イイギリ,0
1757,6021001060819,登記記録の閉鎖等,0,2026-01-13,2025-12-15,株式会社ＢｅｅＣＲＥＷ,,株式会社,神奈川県,茅ヶ崎市,赤羽根２５５６番地６,,14,207,2530001,,,2025-12-15,清算の結了等,,,2016-12-05,1,,,,,ビークルー,0
1762,6021005011248,登記記録の閉鎖等,0,2026-01-13,2025-12-15,一般社団法人八田,,その他の設立登記法人,神奈川県,足柄下郡湯河原町,宮上７５９番地の８０,,14,384,2590314,,,2025-12-15,清算の結了等,,,2018-03-13,1,,,,,ハッタ,0
1778,6040001119994,登記記録の閉鎖等,0,2026-01-13,2025-12-15,株式会社ＭｉｌｌｉｏｎＴｅｃｈ,,株式会社,千葉県,千葉市中央区,富士見２丁目７番９号富士見ビル６０９号,,12,101,2600015,,,2025-12-15,清算の結了等,,,2021-09-08,1,,,,,ミリオンテック,0
1783,6040002039408,登記記録の閉鎖等,0,2026-01-13,2025-12-15,有限会社バンカデザイン,,有限会社,千葉県,市川市,八幡６丁目３番５号,,12,203,2720021,,,2025-12-15,清算の結了等,,,2015-10-05,1,,,,,バンカデザイン,0
1786,6050001000170,登記記録の閉鎖等,0,2026-01-13,2025-12-15,株式会社ライチョウ,,株式会社,東京都,千代田区,丸の内３丁目４番１号新国際ビル４階,,13,101,1000005,,,2025-12-15,清算の結了等,,,2015-10-05,1,,,,,ライチョウ,0
1789,6050002039605,登記記録の閉鎖等,0,2026-01-13,2025-12-26,有限会社エス・アイ装飾,,有限会社,茨城県,常総市,豊岡町乙２１４７番地３,,08,211,3030041,,,2025-12-26,清算の結了等,,,2015-10-05,1,,,,,エスアイソウショク,0
1815,6120001132205,登記記録の閉鎖等,0,2026-01-13,2026-01-05,株式会社ＫＭ管理,,株式会社,兵庫県,洲本市,小路谷１２７７番２－７０６号,,28,205,6560023,,,2026-01-05,清算の結了等,,,2015-10-05,1,,,,,ケーエムカンリ,0
1816,6120001189377,登記記録の閉鎖等,0,2026-01-13,2026-01-05,株式会社ＩＺＡ,,株式会社,大阪府,大阪市中央区,安土町３丁目５番１３号,,27,128,5410052,,,2026-01-05,合併による解散等,7120001197453,令和８年１月１日大阪市中央区安土町三丁目５番１３号レクストホールディングス株式会社（7120001197453）に合併し解散,2015-10-05,1,,,,,イザ,0
1829,6120002077523,登記記録の閉鎖等,0,2026-01-13,2026-01-07,有限会社やなぎ質舗,,有限会社,大阪府,寝屋川市,八坂町１４番１９号,,27,215,5720838,,,2026-01-07,清算の結了等,,,2015-10-05,1,,,,,ヤナギシチホ,0
1833,6120003024235,登記記録の閉鎖等,0,2026-01-13,2026-01-07,Ｄｏｊａ合同会社,,合同会社,大阪府,大阪市北区,東天満２丁目７－４イシモトビル４Ｆ,,27,127,5300044,,,2026-01-07,清算の結了等,,,2023-06-08,1,,,,,ドジャ,0
1853,6140001082175,登記記録の閉鎖等,0,2026-01-13,2025-12-26,株式会社ル・パルファン,,株式会社,兵庫県,宝塚市,栄町２丁目１番１号ソリオＩ・１階,00040122,28,214,6650845,,,2025-12-26,清算の結了等,,,2015-10-05,1,,,,,ルパルファン,0
1865,6180001019719,登記記録の閉鎖等,0,2026-01-13,2026-01-06,株式会社写植センター祥央,,株式会社,愛知県,名古屋市中川区,広川町４丁目１番地の２７,,23,110,4540027,,,2026-01-06,清算の結了等,,,2015-10-05,1,,,,,シャショクセンターショウオウ,0
1874,6180002042686,登記記録の閉鎖等,0,2026-01-13,2026-01-07,有限会社シー・ディー・エム,,有限会社,愛知県,名古屋市中川区,新家３丁目１０１１番地,,23,110,4540972,,,2026-01-07,清算の結了等,,,2015-10-05,1,,,,,シーディーエム,0
1875,6180002042736,登記記録の閉鎖等,0,2026-01-13,2026-01-06,有限会社浅井工業,,有限会社,愛知県,名古屋市西区,枇杷島５丁目３０番３０号,,23,104,4510053,,,2026-01-06,清算の結了等,,,2015-10-05,1,,,,,アサイコウギョウ,0
1879,6180003024023,登記記録の閉鎖等,0,2026-01-13,2025-08-01,合同会社ＭＯｐｏｗｅｒ,,合同会社,愛知県,名古屋市中村区,乾出町２丁目３１番地の２,,23,105,4530832,,,2025-08-01,合併による解散等,3180001142647,令和７年８月１日に名古屋市中区門前町６番２８号株式会社ＭＯｐｏｗｅｒ（3180001142647）に合併し解散,2022-07-11,1,,,,,エムオーパワー,0
1889,6200002003875,登記記録の閉鎖等,0,2026-01-13,2026-01-06,有限会社平野屋,,有限会社,岐阜県,岐阜市,西川手６丁目１１番地の１,,21,201,5008258,,,2026-01-06,清算の結了等,,,2015-10-05,1,,,,,ヒラノヤ,0
1893,6230005002533,登記記録の閉鎖等,0,2026-01-13,2026-01-06,大沢野細入ガス事業協同組合,,その他の設立登記法人,富山県,富山市,中大久保字寺坂割３９４番地,,16,201,9392243,,,2026-01-06,清算の結了等,,,2015-10-05,1,,,,,オオサワノホソイリガス,0
1895,6240001002180,登記記録の閉鎖等,0,2026-01-13,2025-12-26,株式会社香川商店,,株式会社,広島県,広島市中区,白島九軒町２４番７号,,34,101,7300003,,,2025-12-26,清算の結了等,,,2015-10-05,1,,,,,カガワショウテン,0
1912,6270001008803,登記記録の閉鎖等,0,2026-01-13,2026-01-09,株式会社瑞建,,株式会社,鳥取県,米子市,河崎２７５番地ラフェスタ河崎３０５号,,31,202,6830852,,,2026-01-09,清算の結了等,,,2023-06-22,1,,,,,ズイケン,0
1915,6290001045497,登記記録の閉鎖等,0,2026-01-13,2025-12-25,株式会社ゼロワン,,株式会社,福岡県,飯塚市,下三緒３５番地３２５　１Ｆ,,40,205,8200012,,,2025-12-25,清算の結了等,,,2015-10-05,1,,,,,ゼロワン,0
1916,6290001109657,登記記録の閉鎖等,0,2026-01-13,2025-12-22,菱和ソルテック株式会社,,株式会社,福岡県,福岡市博多区,博多駅前１丁目１５番２０号ＮＭＦ博多駅前ビル２階,,40,132,8120011,,,2025-12-22,清算の結了等,,,2025-04-11,1,,,,,リョウワソルテック,0
1920,6290002025143,登記記録の閉鎖等,0,2026-01-13,2025-12-25,有限会社アイプランニング,,有限会社,福岡県,福岡市城南区,神松寺３丁目２０番４号,,40,136,8140121,,,2025-12-25,清算の結了等,,,2015-10-05,1,,,,,アイプランニング,0
1929,6310001000012,登記記録の閉鎖等,0,2026-01-13,2026-01-09,アイ・エム株式会社,,株式会社,長崎県,長崎市,五島町３番１０号Ｙ，Ｓビル２０２号,,42,201,8500036,,,2026-01-09,登記官による閉鎖,,,2015-10-05,1,,,,,,0
1930,6310001000326,登記記録の閉鎖等,0,2026-01-13,2026-01-09,株式会社オフィス・マシーナリー,,株式会社,長崎県,長崎市,竹の久保町１８番９号,,42,201,8528014,,,2026-01-09,登記官による閉鎖,,,2015-10-05,1,,,,,,0
1931,6310001000342,登記記録の閉鎖等,0,2026-01-13,2026-01-09,株式会社カイリク,,株式会社,長崎県,長崎市,三川町１２２１番地３０,,42,201,8528121,,,2026-01-09,登記官による閉鎖,,,2015-10-05,1,,,,,,0
1932,6310001000508,登記記録の閉鎖等,0,2026-01-13,2026-01-09,株式会社グランディカンパニー,,株式会社,長崎県,長崎市,古川町５番２０号,,42,201,8500851,,,2026-01-09,登記官による閉鎖,,,2015-10-05,1,,,,,,0
1933,6310001000557,登記記録の閉鎖等,0,2026-01-13,2026-01-09,株式会社コアジャパン,,株式会社,長崎県,長崎市,銅座町１３番１１号,,42,201,8500841,,,2026-01-09,登記官による閉鎖,,,2015-10-05,1,,,,,,0
1934,6310001000623,登記記録の閉鎖等,0,2026-01-13,2026-01-09,株式会社サンエス機工,,株式会社,長崎県,長崎市,石神町２０番１３号,,42,201,8528126,,,2026-01-09,登記官による閉鎖,,,2015-10-05,1,,,,,,0
1935,6310001000648,登記記録の閉鎖等,0,2026-01-13,2026-01-09,株式会社酒の市,,株式会社,長崎県,長崎市,下西山町２番４号,,42,201,8500004,,,2026-01-09,登記官による閉鎖,,,2015-10-05,1,,,,,,0
1936,6310001000730,登記記録の閉鎖等,0,2026-01-13,2026-01-09,株式会社ジェネシス,,株式会社,長崎県,長崎市,三和町１１４番地,,42,201,8500975,,,2026-01-09,登記官による閉鎖,,,2015-10-05,1,,,,,,0
1937,6310001000887,登記記録の閉鎖等,0,2026-01-13,2026-01-09,スターライト住宅株式会社,,株式会社,長崎県,長崎市,今博多町５０番地,,42,201,8500025,,,2026-01-09,登記官による閉鎖,,,2015-10-05,1,,,,,,0
1938,6310001000929,登記記録の閉鎖等,0,2026-01-13,2026-01-09,積土開発株式会社,,株式会社,長崎県,長崎市,幸町４番２号,,42,201,8500046,,,2026-01-09,登記官による閉鎖,,,2015-10-05,1,,,,,,0
1939,6310001001209,登記記録の閉鎖等,0,2026-01-13,2026-01-09,東海建設株式会社,,株式会社,長崎県,長崎市,坂本１丁目１番７号,,42,201,8528102,,,2026-01-09,登記官による閉鎖,,,2015-10-05,1,,,,,,0
1940,6310001001662,登記記録の閉鎖等,0,2026-01-13,2026-01-09,株式会社ニッスイ,,株式会社,長崎県,長崎市,青山町３番４５号,,42,201,8528036,,,2026-01-09,登記官による閉鎖,,,2015-10-05,1,,,,,,0
1941,6310001001720,登記記録の閉鎖等,0,2026-01-13,2026-01-09,株式会社則彦工業,,株式会社,長崎県,長崎市,宿町６０６番地,,42,201,8510121,,,2026-01-09,登記官による閉鎖,,,2015-10-05,1,,,,,,0
1942,6310001001860,登記記録の閉鎖等,0,2026-01-13,2026-01-09,株式会社大光開発,,株式会社,長崎県,長崎市,片淵５丁目１２０７番地,,42,201,8500003,,,2026-01-09,登記官による閉鎖,,,2015-10-05,1,,,,,,0
1943,6310001002017,登記記録の閉鎖等,0,2026-01-13,2026-01-09,株式会社マットス,,株式会社,長崎県,長崎市,横尾３丁目２番１号,,42,201,8528065,,,2026-01-09,登記官による閉鎖,,,2015-10-05,1,,,,,,0
1944,6310001002280,登記記録の閉鎖等,0,2026-01-13,2026-01-09,山二興産株式会社,,株式会社,長崎県,長崎市,樺島町９番１１号,,42,201,8500034,,,2026-01-09,登記官による閉鎖,,,2015-10-05,1,,,,,,0
1945,6310001002421,登記記録の閉鎖等,0,2026-01-13,2026-01-09,株式会社同建開発,,株式会社,長崎県,長崎市,伊良林２丁目１５番６号,,42,201,8500802,,,2026-01-09,登記官による閉鎖,,,2015-10-05,1,,,,,,0
1946,6310001002479,登記記録の閉鎖等,0,2026-01-13,2026-01-09,株式会社長崎風力発電研究所,,株式会社,長崎県,長崎市,女の都４丁目３１番６号,,42,201,8528144,,,2026-01-09,登記官による閉鎖,,,2015-10-05,1,,,,,,0
1947,6310001002603,登記記録の閉鎖等,0,2026-01-13,2026-01-09,株式会社セノックスジャパン,,株式会社,長崎県,長崎市,桜町７番６－５０３号,,42,201,8500031,,,2026-01-09,登記官による閉鎖,,,2015-10-05,1,,,,,,0
1948,6310001003007,登記記録の閉鎖等,0,2026-01-13,2026-01-09,株式会社エコ・ネット,,株式会社,長崎県,長崎市,上小島５丁目２番２５号,,42,201,8500834,,,2026-01-09,登記官による閉鎖,,,2015-10-05,1,,,,,,0
1949,6310001003270,登記記録の閉鎖等,0,2026-01-13,2026-01-09,筑肥観光株式会社,,株式会社,長崎県,西彼杵郡時津町,日並郷１番地６,,42,308,8512108,,,2026-01-09,登記官による閉鎖,,,2015-10-05,1,,,,,,0
1950,6310001003469,登記記録の閉鎖等,0,2026-01-13,2026-01-09,株式会社シャルベール長崎,,株式会社,長崎県,長崎市,西海町１５６０番地７,,42,201,8513101,,,2026-01-09,登記官による閉鎖,,,2015-10-05,1,,,,,,0
1951,6310001005143,登記記録の閉鎖等,0,2026-01-13,2026-01-09,株式会社いしや,,株式会社,長崎県,佐世保市,三浦町１番１６号田代ビル５０３,,42,202,8570863,,,2026-01-09,登記官による閉鎖,,,2015-10-05,1,,,,,,0
1952,6310001005432,登記記録の閉鎖等,0,2026-01-13,2026-01-09,佐世保ビルサッシ株式会社,,株式会社,長崎県,佐世保市,大黒町２９７番２号,,42,202,8570843,,,2026-01-09,登記官による閉鎖,,,2015-10-05,1,,,,,,0
1953,6310001005498,登記記録の閉鎖等,0,2026-01-13,2026-01-09,株式会社ジー・シーテック,,株式会社,長崎県,佐世保市,大岳台町１８番４号,,42,202,8571163,,,2026-01-09,登記官による閉鎖,,,2015-10-05,1,,,,,,0
1954,6310001005614,登記記録の閉鎖等,0,2026-01-13,2026-01-09,株式会社セレーノ,,株式会社,長崎県,佐世保市,下京町８番２号,,42,202,8570875,,,2026-01-09,登記官による閉鎖,,,2015-10-05,1,,,,,,0
1955,6310001005647,登記記録の閉鎖等,0,2026-01-13,2026-01-09,大晋工業株式会社,,株式会社,長崎県,佐世保市,黒髪町５４番５号,,42,202,8571152,,,2026-01-09,登記官による閉鎖,,,2015-10-05,1,,,,,,0
1956,6310001005663,登記記録の閉鎖等,0,2026-01-13,2026-01-09,佐世保武中物産株式会社,,株式会社,長崎県,佐世保市,大岳台町２４番３１号,,42,202,8571163,,,2026-01-09,登記官による閉鎖,,,2015-10-05,1,,,,,,0
1957,6310001006067,登記記録の閉鎖等,0,2026-01-13,2026-01-09,ムサシ開発株式会社,,株式会社,長崎県,佐世保市,若葉町２５番２６号,,42,202,8570833,,,2026-01-09,登記官による閉鎖,,,2015-10-05,1,,,,,,0
1958,6310001006100,登記記録の閉鎖等,0,2026-01-13,2026-01-09,八坂酒類販売株式会社,,株式会社,長崎県,佐世保市,福石町４番２１号,,42,202,8570854,,,2026-01-09,登記官による閉鎖,,,2015-10-05,1,,,,,,0
1959,6310001006141,登記記録の閉鎖等,0,2026-01-13,2026-01-09,株式会社吉川港湾建設,,株式会社,長崎県,佐世保市,船越町２５７番地１,,42,202,8571231,,,2026-01-09,登記官による閉鎖,,,2015-10-05,1,,,,,,0
1960,6310001006208,登記記録の閉鎖等,0,2026-01-13,2026-01-09,株式会社幸山陶苑,,株式会社,長崎県,東彼杵郡波佐見町,井石郷２１８５番地,,42,323,8593711,,,2026-01-09,登記官による閉鎖,,,2015-10-05,1,,,,,,0
1961,6310001006224,登記記録の閉鎖等,0,2026-01-13,2026-01-09,株式会社ケイ・コーポレーション,,株式会社,長崎県,東彼杵郡波佐見町,折敷瀬郷１８３５番地１,,42,323,8593701,,,2026-01-09,登記官による閉鎖,,,2015-10-05,1,,,,,,0
1962,6310001006331,登記記録の閉鎖等,0,2026-01-13,2026-01-09,第三電電通信株式会社,,株式会社,長崎県,佐世保市,崎岡町２８６４番地,,42,202,8593226,,,2026-01-09,登記官による閉鎖,,,2015-10-05,1,,,,,,0
1963,6310001006975,登記記録の閉鎖等,0,2026-01-13,2026-01-09,株式会社亀や商事,,株式会社,長崎県,佐世保市,鹿町町下歌ヶ浦９８１番地,,42,202,8596204,,,2026-01-09,登記官による閉鎖,,,2015-10-05,1,,,,,,0
1964,6310001007899,登記記録の閉鎖等,0,2026-01-13,2026-01-09,株式会社マイティ・エムネット,,株式会社,長崎県,諫早市,原口町６８９番地８,,42,204,8540046,,,2026-01-09,登記官による閉鎖,,,2015-10-05,1,,,,,,0
1965,6310001007998,登記記録の閉鎖等,0,2026-01-13,2026-01-09,株式会社ジェイアイエヌプランニング,,株式会社,長崎県,諫早市,栄町８番２号,,42,204,8540013,,,2026-01-09,登記官による閉鎖,,,2015-10-05,1,,,,,,0
1966,6310001008146,登記記録の閉鎖等,0,2026-01-13,2026-01-09,本多建設株式会社,,株式会社,長崎県,諫早市,船越町６５８番地２,,42,204,8540041,,,2026-01-09,登記官による閉鎖,,,2015-10-05,1,,,,,,0
1967,6310001008162,登記記録の閉鎖等,0,2026-01-13,2026-01-09,株式会社マスターワークスプランニング,,株式会社,長崎県,諫早市,天満町１０番５号亮ビル２階,,42,204,8540006,,,2026-01-09,登記官による閉鎖,,,2015-10-05,1,,,,,,0
1968,6310001008220,登記記録の閉鎖等,0,2026-01-13,2026-01-09,株式会社レインボー,,株式会社,長崎県,諫早市,上町３番２号,,42,204,8540024,,,2026-01-09,登記官による閉鎖,,,2015-10-05,1,,,,,,0
1969,6310001008360,登記記録の閉鎖等,0,2026-01-13,2026-01-09,株式会社ピーサイド,,株式会社,長崎県,諫早市,八天町１９番２２号,,42,204,8540011,,,2026-01-09,登記官による閉鎖,,,2015-10-05,1,,,,,,0
1970,6310001008402,登記記録の閉鎖等,0,2026-01-13,2026-01-09,株式会社タカキハウジング,,株式会社,長崎県,雲仙市,小浜町雲仙３８０番地２０,,42,213,8540621,,,2026-01-09,登記官による閉鎖,,,2015-10-05,1,,,,,,0
1971,6310001008947,登記記録の閉鎖等,0,2026-01-13,2026-01-09,株式会社力山,,株式会社,長崎県,大村市,杭出津１丁目５４２番地,,42,205,8560828,,,2026-01-09,登記官による閉鎖,,,2015-10-05,1,,,,,,0
1972,6310001009607,登記記録の閉鎖等,0,2026-01-13,2026-01-09,株式会社コウリュウ,,株式会社,長崎県,島原市,西八幡町８３９０番地７,,42,203,8550835,,,2026-01-09,登記官による閉鎖,,,2015-10-05,1,,,,,,0
1973,6310001010861,登記記録の閉鎖等,0,2026-01-13,2026-01-09,対馬丸内物産株式会社,,株式会社,長崎県,対馬市,上対馬町比田勝８３９番地,,42,209,8171701,,,2026-01-09,登記官による閉鎖,,,2015-10-05,1,,,,,,0
1974,6310001010993,登記記録の閉鎖等,0,2026-01-13,2026-01-09,五島高速株式会社,,株式会社,長崎県,五島市,木場町３０２番地６,,42,211,8530033,,,2026-01-09,登記官による閉鎖,,,2015-10-05,1,,,,,,0
1975,6310001011050,登記記録の閉鎖等,0,2026-01-13,2026-01-09,南松製氷株式会社,,株式会社,長崎県,五島市,玉之浦町荒川２８０番地,,42,211,8530501,,,2026-01-09,登記官による閉鎖,,,2015-10-05,1,,,,,,0
1976,6310002003047,登記記録の閉鎖等,0,2026-01-13,2026-01-09,有限会社武田薬品,,有限会社,長崎県,長崎市,銅座町７番８号,,42,201,8500841,,,2026-01-09,登記官による閉鎖,,,2015-10-05,1,,,,,,0
1977,6310002012717,登記記録の閉鎖等,0,2026-01-13,2026-01-09,有限会社フリーマーケット玄海,,有限会社,長崎県,佐世保市,日野町１９１０番地１,,42,202,8580923,,,2026-01-09,登記官による閉鎖,,,2015-10-05,1,,,,,,0
1978,6310002015050,登記記録の閉鎖等,0,2026-01-13,2026-01-09,有限会社ガスワークス,,有限会社,長崎県,諫早市,津久葉町６番地１０,,42,204,8540065,,,2026-01-09,登記官による閉鎖,,,2015-10-05,1,,,,,,0
1980,6310002017930,登記記録の閉鎖等,0,2026-01-13,2026-01-09,有限会社佐原建設,,有限会社,長崎県,島原市,大下町丙１４９５番地３４,,42,203,8550878,,,2026-01-09,清算の結了等,,,2015-10-05,1,,,,,サハラケンセツ,0
1981,6310003001594,登記記録の閉鎖等,0,2026-01-13,2026-01-09,合資会社上田鉄工所,,合資会社,長崎県,諫早市,仲沖町１５番６号,,42,204,8540021,,,2026-01-09,登記官による閉鎖,,,2015-10-05,1,,,,,,0
1990,6370602002319,登記記録の閉鎖等,0,2026-01-13,2025-12-24,有限会社フジヨシ鉄工,,有限会社,宮城県,宮城郡利府町,青葉台３丁目１番地２７２,,04,406,9810133,,,2025-12-24,清算の結了等,,,2015-10-05,1,,,,,フジヨシテッコウ,0
1992,6390001012685,登記記録の閉鎖等,0,2026-01-13,2026-01-08,株式会社有頂天フーズ,,株式会社,山形県,山形市,南館西２０番１８号,,06,201,9902465,,,2026-01-08,清算の結了等,,,2015-10-05,1,,,,,ウチョウテンフーズ,0
2004,6480003000852,登記記録の閉鎖等,0,2026-01-13,2026-01-08,合同会社一華,,合同会社,徳島県,徳島市,東吉野町２丁目２９－４,,36,201,7700811,,,2026-01-08,清算の結了等,,,2015-10-05,1,,,,,イチゲ,0
2009,6500002013869,登記記録の閉鎖等,0,2026-01-13,2026-01-08,有限会社アドバンス,,有限会社,愛媛県,松山市,祓川１丁目２番４２号,,38,201,7918066,,,2026-01-08,清算の結了等,,,2015-10-05,1,,,,,アドバンス,0
2045,7010703007474,登記記録の閉鎖等,0,2026-01-13,2025-12-25,神宮前合同会社,,合同会社,東京都,江東区,豊洲５丁目６番２９－１２３０号,,13,108,1350061,,,2025-12-25,清算の結了等,,,2024-11-27,1,,,,,ジングウマエ,0
2054,7011001033956,登記記録の閉鎖等,0,2026-01-13,2025-12-15,アド・エクイティ株式会社,,株式会社,東京都,渋谷区,広尾１丁目１０番５号,,13,113,1500012,,,2025-12-15,清算の結了等,,,2015-10-05,1,,,,,アドエクイティ,0
2060,7011003016562,登記記録の閉鎖等,0,2026-01-13,2025-12-12,合同会社ｋｉｔｓｕｎｅ,,合同会社,東京都,目黒区,大橋１丁目５番１－１２２０号,,13,110,1530044,,,2025-12-12,清算の結了等,,,2023-04-06,1,,,,,キツネ,0
2065,7011101039432,登記記録の閉鎖等,0,2026-01-13,2025-12-10,株式会社ビーアンドディー,,株式会社,東京都,新宿区,西新宿８丁目１７番１号,,13,104,1600023,,,2025-12-10,清算の結了等,,,2015-10-05,1,,,,,ビーアンドディ,0
2067,7011103008609,登記記録の閉鎖等,0,2026-01-13,2025-12-10,Ｆｕｋｕｄａ　Ａｄｖｉｓｅｍｅｎｔ合同会社,,合同会社,東京都,新宿区,納戸町３７番地２カルパティア市ヶ谷１０２,,13,104,1620837,,,2025-12-10,清算の結了等,,,2019-02-26,1,,,,,フクダアドバイズメント,0
2113,7021001038252,登記記録の閉鎖等,0,2026-01-13,2025-12-15,株式会社トプニクス,,株式会社,神奈川県,平塚市,明石町四丁目１６番１号,,14,203,2540042,,,2025-12-15,清算の結了等,,,2015-10-05,1,,,,,,0
2130,7030002115299,登記記録の閉鎖等,0,2026-01-13,2025-12-25,有限会社グリーンライフ,,有限会社,埼玉県,熊谷市,原島２０２番地１０,,11,202,3600811,,,2025-12-25,清算の結了等,,,2015-10-05,1,,,,,グリーンライフ,0
2145,7050002043390,登記記録の閉鎖等,0,2026-01-13,2026-01-05,有限会社石信,,有限会社,茨城県,筑西市,桑山２４９８番地１７,,08,227,3091127,,,2026-01-05,清算の結了等,,,2015-10-05,1,,,,,,0
2155,7080001000662,登記記録の閉鎖等,0,2026-01-13,2026-01-05,静岡ガス保険サービス株式会社,,株式会社,静岡県,静岡市駿河区,八幡１丁目５番３８号,,22,102,4228076,,,2026-01-05,合併による解散等,8080001000661,令和８年１月１日静岡市駿河区八幡一丁目５番３８号静岡ガスクレジット株式会社（8080001000661）に合併し解散,2015-10-05,1,,,,,シズオカガスホケンサービス,0
2164,7090001004357,登記記録の閉鎖等,0,2026-01-13,2025-12-26,株式会社Ｔ・Ｍプライズ,,株式会社,山梨県,韮崎市,龍岡町下條南割９９５番地４４２,,19,207,4070033,,,2025-12-26,清算の結了等,,,2015-10-05,1,,,,,ティーエムプライズ,0
2181,7120001248693,登記記録の閉鎖等,0,2026-01-13,2026-01-05,株式会社レクストロジスティクス,,株式会社,大阪府,大阪市東成区,中本３丁目１０番６号,,27,115,5370022,,,2026-01-05,合併による解散等,7120001197453,令和８年１月１日大阪市中央区安土町三丁目５番１３号レクストホールディングス株式会社（7120001197453）に合併し解散,2022-09-07,1,,,,,レクストロジスティクス,0
2182,7120001263148,登記記録の閉鎖等,0,2026-01-13,2026-01-07,贏海株式会社,00134074,株式会社,大阪府,大阪市都島区,中野町４丁目４番１０号ケンズ都島４０５号,,27,102,5340027,,,2026-01-07,清算の結了等,,,2024-03-15,1,,,,,エンカイ,0
2193,7122001019950,登記記録の閉鎖等,0,2026-01-13,2025-12-17,株式会社福田工務店,,株式会社,大阪府,八尾市,東山本町６丁目９番１６号,,27,212,5810847,,,2025-12-17,清算の結了等,,,2015-10-05,1,,,,,フクダコウムテン,0
2196,7130001047871,登記記録の閉鎖等,0,2026-01-13,2026-01-06,産機システム株式会社,,株式会社,京都府,京都市伏見区,中島秋ノ山町７５,,26,109,6128462,,,2026-01-06,合併による解散等,6130001051313,令和８年１月１日京都市伏見区中島秋ノ山町７５株式会社新建開発（6130001051313）に合併し解散,2015-10-05,1,,,,,サンキシステム,0
2209,7160001024133,登記記録の閉鎖等,0,2026-01-13,2026-01-08,株式会社エスワンテクト,,株式会社,滋賀県,高島市,マキノ町沢１９２５番地２,,25,212,5201821,,,2026-01-08,清算の結了等,,,2022-04-19,1,,,,,エスワンテクト,0
2225,7190001012845,登記記録の閉鎖等,0,2026-01-13,2026-01-07,株式会社鈴鋼化成,,株式会社,三重県,桑名郡木曽岬町,大字源緑輪中９６０番地,,24,303,4980816,,,2026-01-07,合併による解散等,5180001096981,令和７年１２月１５日愛知県弥富市五之三町福島２０番地株式会社鈴鋼製作所（5180001096981）に合併し解散,2015-10-05,1,,,,,スズコウカセイ,0
2226,7190001024130,登記記録の閉鎖等,0,2026-01-13,2026-01-05,株式会社ミューズエレガンテ,,株式会社,三重県,伊勢市,古市町２１０番地,,24,203,5160033,,,2026-01-05,清算の結了等,,,2016-11-08,1,,,,,ミューズエレガンテ,0
2232,7210002013922,登記記録の閉鎖等,0,2026-01-13,2026-01-09,有限会社松屋,,有限会社,福井県,小浜市,大手町８番１号,,18,204,9170078,,,2026-01-09,清算の結了等,,,2015-10-05,1,,,,,マツヤ,0
2236,7240001019166,登記記録の閉鎖等,0,2026-01-13,2026-01-05,株式会社ＧＲＥＡＴ,,株式会社,広島県,広島市東区,福田７丁目２１０２番地４,,34,102,7320029,,,2026-01-05,清算の結了等,,,2015-10-05,1,,,,,グレイト,0
2241,7240002005322,登記記録の閉鎖等,0,2026-01-13,2025-12-26,ケイアイ電工有限会社,,有限会社,広島県,広島市西区,観音新町１丁目２２番１３号,,34,104,7330036,,,2025-12-26,清算の結了等,,,2015-10-05,1,,,,,ケイアイデンコウ,0
2248,7260002008942,登記記録の閉鎖等,0,2026-01-13,2026-01-07,有限会社プロッティング,,有限会社,岡山県,岡山市南区,妹尾２５０８番地の６,,33,104,7010205,,,2026-01-07,清算の結了等,,,2015-10-05,1,,,,,プロッティング,0
2270,7290002004716,登記記録の閉鎖等,0,2026-01-13,2026-01-05,株式会社Ｋ．Ｕ．Ｄ,,株式会社,福岡県,福岡市博多区,博多駅前３丁目２８番４号,,40,132,8120011,,,2026-01-05,合併による解散等,7120001075254,令和７年１２月２５日大阪市福島区福島八丁目１６番１０号株式会社栄光（7120001075254）に合併し解散,2015-10-05,1,,,,,,0
2278,7290801016218,登記記録の閉鎖等,0,2026-01-13,2026-01-06,株式会社ワイズコーポレーション,,株式会社,福岡県,北九州市小倉北区,京町４丁目４番２２号みつわビル,,40,106,8020002,,,2026-01-06,清算の結了等,,,2015-10-05,1,,,,,ワイズコーポレーション,0
2281,7310001000093,登記記録の閉鎖等,0,2026-01-13,2026-01-09,株式会社アップライト,,株式会社,長崎県,長崎市,栄町１番８号,,42,201,8500875,,,2026-01-09,登記官による閉鎖,,,2015-10-05,1,,,,,,0
2282,7310001000201,登記記録の閉鎖等,0,2026-01-13,2026-01-09,株式会社ウッディ夢工房,,株式会社,長崎県,長崎市,葉山１丁目９番３１号,,42,201,8528053,,,2026-01-09,登記官による閉鎖,,,2015-10-05,1,,,,,,0
2283,7310001000234,登記記録の閉鎖等,0,2026-01-13,2026-01-09,株式会社エス・アール・アイ,,株式会社,長崎県,長崎市,魚の町３番２４号,,42,201,8500874,,,2026-01-09,登記官による閉鎖,,,2015-10-05,1,,,,,,0
2284,7310001000465,登記記録の閉鎖等,0,2026-01-13,2026-01-09,九大建設株式会社,,株式会社,長崎県,長崎市,東町２２９４番地２,,42,201,8510116,,,2026-01-09,登記官による閉鎖,,,2015-10-05,1,,,,,,0
2285,7310001000630,登記記録の閉鎖等,0,2026-01-13,2026-01-09,株式会社サンケイ・エンタープライズ,,株式会社,長崎県,長崎市,中川１丁目７番１号,,42,201,8500013,,,2026-01-09,登記官による閉鎖,,,2015-10-05,1,,,,,,0
2286,7310001000754,登記記録の閉鎖等,0,2026-01-13,2026-01-09,株式会社眞揆開発,,株式会社,長崎県,長崎市,諏訪町９番１０号,,42,201,8500873,,,2026-01-09,登記官による閉鎖,,,2015-10-05,1,,,,,,0
2287,7310001000820,登記記録の閉鎖等,0,2026-01-13,2026-01-09,昌平建設株式会社,,株式会社,長崎県,長崎市,宿町５４番地１,,42,201,8510121,,,2026-01-09,登記官による閉鎖,,,2015-10-05,1,,,,,,0
2288,7310001000845,登記記録の閉鎖等,0,2026-01-13,2026-01-09,昭和総合開発株式会社,,株式会社,長崎県,長崎市,江戸町４番３号,,42,201,8500861,,,2026-01-09,登記官による閉鎖,,,2015-10-05,1,,,,,,0
2289,7310001001661,登記記録の閉鎖等,0,2026-01-13,2026-01-09,株式会社日創,,株式会社,長崎県,長崎市,城山町１７番５４号,,42,201,8528021,,,2026-01-09,登記官による閉鎖,,,2015-10-05,1,,,,,,0
2290,7310001001752,登記記録の閉鎖等,0,2026-01-13,2026-01-09,株式会社八輝建設,,株式会社,長崎県,長崎市,元船町７番６号,,42,201,8500035,,,2026-01-09,登記官による閉鎖,,,2015-10-05,1,,,,,,0
2291,7310001002230,登記記録の閉鎖等,0,2026-01-13,2026-01-09,山一漁業株式会社,,株式会社,長崎県,長崎市,五島町１番１９号,,42,201,8500036,,,2026-01-09,登記官による閉鎖,,,2015-10-05,1,,,,,,0
2292,7310001002255,登記記録の閉鎖等,0,2026-01-13,2026-01-09,山崎興業株式会社,,株式会社,長崎県,長崎市,大橋町１８番７号,,42,201,8528134,,,2026-01-09,登記官による閉鎖,,,2015-10-05,1,,,,,,0
2293,7310001002271,登記記録の閉鎖等,0,2026-01-13,2026-01-09,株式会社ヤマト商会,,株式会社,長崎県,長崎市,銅座町６番９号亜皇ビル５Ｆ,,42,201,8500841,,,2026-01-09,登記官による閉鎖,,,2015-10-05,1,,,,,,0
2294,7310001002288,登記記録の閉鎖等,0,2026-01-13,2026-01-09,株式会社シージートラスト,,株式会社,長崎県,長崎市,赤迫１丁目２番１０号,,42,201,8528156,,,2026-01-09,登記官による閉鎖,,,2015-10-05,1,,,,,,0
2295,7310001002404,登記記録の閉鎖等,0,2026-01-13,2026-01-09,株式会社輝朋建設,,株式会社,長崎県,長崎市,川平町１１９１番地５コアマンション長崎ガーデンヒルズ１００１,,42,201,8528143,,,2026-01-09,登記官による閉鎖,,,2015-10-05,1,,,,,,0
2296,7310001002461,登記記録の閉鎖等,0,2026-01-13,2026-01-09,株式会社グラムダイニング,,株式会社,長崎県,長崎市,元船町４番１号,,42,201,8500035,,,2026-01-09,登記官による閉鎖,,,2015-10-05,1,,,,,,0
2297,7310001002511,登記記録の閉鎖等,0,2026-01-13,2026-01-09,海上物産株式会社,,株式会社,長崎県,長崎市,岩川町１４番６号,,42,201,8528106,,,2026-01-09,登記官による閉鎖,,,2015-10-05,1,,,,,,0
2298,7310001002528,登記記録の閉鎖等,0,2026-01-13,2026-01-09,株式会社グリーン環境,,株式会社,長崎県,長崎市,小曽根町１番１４号,,42,201,8500937,,,2026-01-09,登記官による閉鎖,,,2015-10-05,1,,,,,,0
2299,7310001003113,登記記録の閉鎖等,0,2026-01-13,2026-01-09,株式会社クーキャブコミュニケーションズ,,株式会社,長崎県,長崎市,若草町１２番１５号,,42,201,8528023,,,2026-01-09,登記官による閉鎖,,,2015-10-05,1,,,,,,0
2300,7310001003179,登記記録の閉鎖等,0,2026-01-13,2026-01-09,サカキ運輸株式会社,,株式会社,長崎県,長崎市,下黒崎町４２７３番地１,,42,201,8512326,,,2026-01-09,登記官による閉鎖,,,2015-10-05,1,,,,,,0
2301,7310001003352,登記記録の閉鎖等,0,2026-01-13,2026-01-09,株式会社ハヤシダ,,株式会社,長崎県,西彼杵郡時津町,日並郷３７６７番地,,42,308,8512108,,,2026-01-09,登記官による閉鎖,,,2015-10-05,1,,,,,,0
2302,7310001004177,登記記録の閉鎖等,0,2026-01-13,2026-01-09,株式会社龍亀,,株式会社,長崎県,長崎市,大浜町１６０５番地１コアマンションマリナシティＤ－１４０２,,42,201,8500066,,,2026-01-09,登記官による閉鎖,,,2015-10-05,1,,,,,,0
2303,7310001004565,登記記録の閉鎖等,0,2026-01-13,2026-01-09,株式会社フォトボルテックエナジー,,株式会社,長崎県,長崎市,上銭座町１３番３１号,,42,201,8500048,,,2026-01-09,登記官による閉鎖,,,2015-10-05,1,,,,,,0
2304,7310001005126,登記記録の閉鎖等,0,2026-01-13,2026-01-09,株式会社アフター電機,,株式会社,長崎県,佐世保市,崎岡町２８７０番地３,,42,202,8593226,,,2026-01-09,登記官による閉鎖,,,2015-10-05,1,,,,,,0
2305,7310001005506,登記記録の閉鎖等,0,2026-01-13,2026-01-09,サンピーエムシー株式会社,,株式会社,長崎県,佐世保市,塩浜町７番１１号,,42,202,8570876,,,2026-01-09,登記官による閉鎖,,,2015-10-05,1,,,,,,0
2306,7310001005522,登記記録の閉鎖等,0,2026-01-13,2026-01-09,株式会社新生水産,,株式会社,長崎県,佐世保市,浅子町１６７番地,,42,202,8570431,,,2026-01-09,登記官による閉鎖,,,2015-10-05,1,,,,,,0
2307,7310001005613,登記記録の閉鎖等,0,2026-01-13,2026-01-09,株式会社セマテック,,株式会社,長崎県,佐世保市,高梨町１５番２０号ロイヤルマンション３０１号,,42,202,8570811,,,2026-01-09,登記官による閉鎖,,,2015-10-05,1,,,,,,0
2308,7310001005695,登記記録の閉鎖等,0,2026-01-13,2026-01-09,株式会社田中鉄工,,株式会社,長崎県,佐世保市,大和町１１８番地の２,,42,202,8571165,,,2026-01-09,登記官による閉鎖,,,2015-10-05,1,,,,,,0
2309,7310001005877,登記記録の閉鎖等,0,2026-01-13,2026-01-09,株式会社ネスト,,株式会社,長崎県,佐世保市,赤崎町９１３番地１,,42,202,8570064,,,2026-01-09,登記官による閉鎖,,,2015-10-05,1,,,,,,0
2310,7310001005910,登記記録の閉鎖等,0,2026-01-13,2026-01-09,株式会社東浜土地開発,,株式会社,長崎県,佐世保市,東浜町８３番地２,,42,202,8571172,,,2026-01-09,登記官による閉鎖,,,2015-10-05,1,,,,,,0
2311,7310001005984,登記記録の閉鎖等,0,2026-01-13,2026-01-09,堀江興業株式会社,,株式会社,長崎県,佐世保市,白岳町９２２番地６,,42,202,8571164,,,2026-01-09,登記官による閉鎖,,,2015-10-05,1,,,,,,0
2312,7310001006099,登記記録の閉鎖等,0,2026-01-13,2026-01-09,株式会社諸原商会,,株式会社,長崎県,佐世保市,白岳町５０番地４,,42,202,8571164,,,2026-01-09,登記官による閉鎖,,,2015-10-05,1,,,,,,0
2313,7310001006314,登記記録の閉鎖等,0,2026-01-13,2026-01-09,株式会社ソウルリンクス,,株式会社,長崎県,佐世保市,早岐２丁目３４番１５号,,42,202,8593215,,,2026-01-09,登記官による閉鎖,,,2015-10-05,1,,,,,,0
2314,7310001006322,登記記録の閉鎖等,0,2026-01-13,2026-01-09,サンライズ・エンターティメント株式会社,,株式会社,長崎県,佐世保市,光月町８番２４号,,42,202,8570805,,,2026-01-09,登記官による閉鎖,,,2015-10-05,1,,,,,,0
2315,7310001006413,登記記録の閉鎖等,0,2026-01-13,2026-01-09,株式会社九州アクリ,,株式会社,長崎県,北松浦郡佐々町,本田原免７３番地３,,42,391,8570311,,,2026-01-09,登記官による閉鎖,,,2015-10-05,1,,,,,,0
2316,7310001006982,登記記録の閉鎖等,0,2026-01-13,2026-01-09,長崎明宝株式会社,,株式会社,長崎県,北松浦郡鹿町町,下歌ヶ浦免字弥生９８６の１の内番地,,42,389,8596204,,,2026-01-09,登記官による閉鎖,,,2015-10-05,1,,,,,,0
2317,7310001007898,登記記録の閉鎖等,0,2026-01-13,2026-01-09,株式会社天祥,,株式会社,長崎県,諫早市,仲沖町１９番１０号,,42,204,8540021,,,2026-01-09,登記官による閉鎖,,,2015-10-05,1,,,,,,0
2318,7310001007997,登記記録の閉鎖等,0,2026-01-13,2026-01-09,島津興商株式会社,,株式会社,長崎県,諫早市,貝津町１３８８番地,,42,204,8540063,,,2026-01-09,登記官による閉鎖,,,2015-10-05,1,,,,,,0
2319,7310001008665,登記記録の閉鎖等,0,2026-01-13,2026-01-09,株式会社アイショップ,,株式会社,長崎県,大村市,西本町７４８番地１１,,42,205,8560837,,,2026-01-09,登記官による閉鎖,,,2015-10-05,1,,,,,,0
2320,7310001008921,登記記録の閉鎖等,0,2026-01-13,2026-01-09,株式会社峰造園建設,,株式会社,長崎県,大村市,上諏訪町８７１番地１,,42,205,8560023,,,2026-01-09,登記官による閉鎖,,,2015-10-05,1,,,,,,0
2321,7310001008938,登記記録の閉鎖等,0,2026-01-13,2026-01-09,株式会社八重興産,,株式会社,長崎県,大村市,松山町６１３番地１,,42,205,8560829,,,2026-01-09,登記官による閉鎖,,,2015-10-05,1,,,,,,0
2322,7310001009589,登記記録の閉鎖等,0,2026-01-13,2026-01-09,株式会社あきつ,,株式会社,長崎県,島原市,田町６９７番地,,42,203,8550034,,,2026-01-09,登記官による閉鎖,,,2015-10-05,1,,,,,,0
2323,7310001009630,登記記録の閉鎖等,0,2026-01-13,2026-01-09,株式会社島原魚市場,,株式会社,長崎県,島原市,津町４０９番地,,42,203,8550814,,,2026-01-09,登記官による閉鎖,,,2015-10-05,1,,,,,,0
2324,7310001010225,登記記録の閉鎖等,0,2026-01-13,2026-01-09,株式会社マリン,,株式会社,長崎県,壱岐市,郷ノ浦町小牧西触５７９番地１,,42,210,8115105,,,2026-01-09,登記官による閉鎖,,,2015-10-05,1,,,,,,0
2325,7310001010290,登記記録の閉鎖等,0,2026-01-13,2026-01-09,株式会社いずみの,,株式会社,長崎県,大村市,徳泉川内町６９５番地３,,42,205,8560041,,,2026-01-09,登記官による閉鎖,,,2015-10-05,1,,,,,,0
2326,7310001010415,登記記録の閉鎖等,0,2026-01-13,2026-01-09,九州ホリウン株式会社,,株式会社,長崎県,平戸市,生月町山田免２５００番地,,42,207,8595704,,,2026-01-09,登記官による閉鎖,,,2015-10-05,1,,,,,,0
2327,7310002005975,登記記録の閉鎖等,0,2026-01-13,2026-01-09,有限会社横山商店,,有限会社,長崎県,長崎市,香焼町４４４番地,,42,201,8510310,,,2026-01-09,登記官による閉鎖,,,2015-10-05,1,,,,,ヨコヤマショウテン,0
2328,7310002006643,登記記録の閉鎖等,0,2026-01-13,2026-01-09,有限会社恵漁水産,,有限会社,長崎県,長崎市,三重町９８番地２０,,42,201,8512204,,,2026-01-09,登記官による閉鎖,,,2015-10-05,1,,,,,,0
2329,7310002008004,登記記録の閉鎖等,0,2026-01-13,2026-01-09,有限会社来夢,,有限会社,長崎県,西彼杵郡時津町,西時津郷６４番地３９,,42,308,8512101,,,2026-01-09,登記官による閉鎖,,,2015-10-05,1,,,,,,0
2330,7310002019463,登記記録の閉鎖等,0,2026-01-13,2026-01-09,有限会社平戸口書店,,有限会社,長崎県,平戸市,田平町里免１２３番地,,42,207,8594807,,,2026-01-09,登記官による閉鎖,,,2015-10-05,1,,,,,,0
2331,7310003001791,登記記録の閉鎖等,0,2026-01-13,2026-01-09,合資会社出口産業,,合資会社,長崎県,大村市,西本町５３８番地５,,42,205,8560837,,,2026-01-09,登記官による閉鎖,,,2015-10-05,1,,,,,,0
2332,7310003002550,登記記録の閉鎖等,0,2026-01-13,2026-01-09,合同会社天翔テック,,合同会社,長崎県,諫早市,久山台６２番地１０,,42,204,8540067,,,2026-01-09,登記官による閉鎖,,,2015-10-05,1,,,,,,0
2333,7310003002856,登記記録の閉鎖等,0,2026-01-13,2026-01-09,合同会社ＰＡＯＬＡ,,合同会社,長崎県,佐世保市,下京町９－１７,,42,202,8570875,,,2026-01-09,登記官による閉鎖,,,2015-10-05,1,,,,,,0
2334,7310005004082,登記記録の閉鎖等,0,2026-01-13,2026-01-09,特定非営利活動法人佐世保さくらの里,,その他の設立登記法人,長崎県,佐世保市,矢岳町４７３番地２,,42,202,8570047,,,2026-01-09,登記官による閉鎖,,,2015-10-05,1,,,,,,0
2335,7310005005254,登記記録の閉鎖等,0,2026-01-13,2026-01-09,島原半島地区自動車協同組合,,その他の設立登記法人,長崎県,島原市,津町４０９番地１２,,42,203,8550814,,,2026-01-09,登記官による閉鎖,,,2015-10-05,1,,,,,,0
2348,7370001046222,登記記録の閉鎖等,0,2026-01-13,2026-01-05,株式会社太陽の郷,,株式会社,宮城県,仙台市若林区,土樋１０４番地,,04,103,9840065,,,2026-01-05,合併による解散等,9380001015579,令和８年１月１日仙台市若林区土樋１０４番地株式会社福祉ケアサービス（9380001015579）に合併し解散,2020-10-08,1,,,,,タイヨウノサト,0
2351,7370002017569,登記記録の閉鎖等,0,2026-01-13,2026-01-05,有限会社パレスサード,,有限会社,宮城県,仙台市青葉区,旭ケ丘３丁目１７番１８号,,04,101,9810904,,,2026-01-05,清算の結了等,,,2015-10-05,1,,,,,パレスサード,0
2370,7470002018706,登記記録の閉鎖等,0,2026-01-13,2026-01-07,有限会社リカーショップおかだ,,有限会社,香川県,東かがわ市,白鳥２７１６番地３,,37,207,7692705,,,2026-01-07,清算の結了等,,,2015-10-05,1,,,,,リカーショップオカダ,0
2379,8010001050291,登記記録の閉鎖等,0,2026-01-13,2025-12-15,株式会社中央都市鑑定,,株式会社,千葉県,浦安市,明海５丁目２番Ｂ－５０６号,,12,227,2790014,,,2025-12-15,清算の結了等,,,2015-10-05,1,,,,,チュウオウトシカンテイ,0
2410,8010601029470,登記記録の閉鎖等,0,2026-01-13,2026-01-09,株式会社テクノプレス,,株式会社,長崎県,長崎市,中小島１丁目３番８号,,42,201,8500836,,,2026-01-09,登記官による閉鎖,,,2015-10-05,1,,,,,テクノプレス,0
2417,8010602010669,登記記録の閉鎖等,0,2026-01-13,2025-12-22,有限会社工栄社,,有限会社,東京都,墨田区,本所３丁目１３番７号,,13,107,1300004,,,2025-12-22,清算の結了等,,,2015-10-05,1,,,,,コウエイシャ,0
2420,8010703007408,登記記録の閉鎖等,0,2026-01-13,2025-12-25,ＭＫホールディングス合同会社,,合同会社,東京都,江東区,豊洲５丁目６番２９－１２３０号,,13,108,1350061,,,2025-12-25,清算の結了等,,,2024-10-25,1,,,,,エムケーホールディングス,0
2494,8050001057390,登記記録の閉鎖等,0,2026-01-13,2025-12-23,Ｔｓｕｋｕｂａ　Ｄｏｇ　Ｇａｒｄｅｎ株式会社,,株式会社,茨城県,つくば市,高野台２丁目１８番地２８,,08,220,3050074,,,2025-12-23,清算の結了等,,,2025-10-10,1,,,,,ツクバドッグガーデン,0
2496,8050002018474,登記記録の閉鎖等,0,2026-01-13,2025-12-25,新栄産業有限会社,,有限会社,茨城県,猿島郡境町,大字塚崎２５５４番地の１,,08,546,3060405,,,2025-12-25,清算の結了等,,,2015-10-05,1,,,,,シンエイサンギョウ,0
2508,8100001013157,登記記録の閉鎖等,0,2026-01-13,2026-01-07,株式会社三信エンジニアリング,,株式会社,長野県,東筑摩郡山形村,４０８７番地３,,20,450,3901301,,,2026-01-07,清算の結了等,,,2015-10-05,1,,,,,サンシンエンジニアリング,0
2511,8110001004254,登記記録の閉鎖等,0,2026-01-13,2025-12-26,株式会社日本技研,,株式会社,新潟県,新潟市中央区,一番堀通町３番地１０,,15,103,9518132,,,2025-12-26,合併による解散等,9110001004880,令和７年１２月２６日新潟市中央区一番堀通町３番地１０株式会社福田組（9110001004880）に合併し解散,2015-10-05,1,,,,,ニホンギケン,0
2516,8110005005629,登記記録の閉鎖等,0,2026-01-13,2026-01-06,三条中央商店街振興組合,,その他の設立登記法人,新潟県,三条市,本町３丁目６番３２号,,15,204,9550071,,,2026-01-06,清算の結了等,,,2015-10-05,1,,,,,サンジョウチュウオウ,0
2520,8120001120174,登記記録の閉鎖等,0,2026-01-13,2026-01-07,株式会社世有ワールド,,株式会社,大阪府,大阪市浪速区,下寺２丁目９番１０－１４０３号,,27,111,5560001,,,2026-01-07,清算の結了等,,,2015-10-05,1,,,,,セユウワールド,0
2521,8120001144041,登記記録の閉鎖等,0,2026-01-13,2026-01-06,株式会社ロード,,株式会社,大阪府,大阪市西成区,花園南２丁目６番７号,,27,122,5570015,,,2026-01-06,清算の結了等,,,2015-10-05,1,,,,,ロード,0
2524,8120001201214,登記記録の閉鎖等,0,2026-01-13,2026-01-05,株式会社レクストシェアードサービス,,株式会社,大阪府,大阪市中央区,安土町３丁目５番１３号,,27,128,5410052,,,2026-01-05,合併による解散等,7120001197453,令和８年１月１日大阪市中央区安土町三丁目５番１３号レクストホールディングス株式会社（7120001197453）に合併し解散,2016-10-12,1,,,,,レクストシェアードサービス,0
2549,8130001016578,登記記録の閉鎖等,0,2026-01-13,2025-12-26,株式会社インターラクト,,株式会社,京都府,京都市下京区,室町通五条上る坂東屋町２８３番地,,26,106,6008439,,,2025-12-26,清算の結了等,,,2025-11-20,1,,,,,インターラクト,0
2568,8160002012466,登記記録の閉鎖等,0,2026-01-13,2026-01-08,有限会社山本管工,,有限会社,滋賀県,草津市,橋岡町３番地の６１,,25,206,5250065,,,2026-01-08,清算の結了等,,,2015-10-05,1,,,,,ヤマモトカンコウ,0
2589,8200002006232,登記記録の閉鎖等,0,2026-01-13,2026-01-06,有限会社アヴェニール,,有限会社,岐阜県,岐阜市,河渡５丁目６０番地,,21,201,5010105,,,2026-01-06,清算の結了等,,,2015-10-05,1,,,,,アヴェニール,0
2592,8220001015389,登記記録の閉鎖等,0,2026-01-13,2025-12-25,田村建工株式会社,,株式会社,石川県,七尾市,昭和町７９番地,,17,202,9260801,,,2025-12-25,清算の結了等,,,2015-10-05,1,,,,,タムラケンコウ,0
2593,8220002008994,登記記録の閉鎖等,0,2026-01-13,2026-01-07,有限会社川崎シエル工業所,,有限会社,石川県,白山市,八田町１００３番地,,17,210,9240001,,,2026-01-07,清算の結了等,,,2015-10-05,1,,,,,カワサキシエルコウギョウショ,0
2605,8260005004987,登記記録の閉鎖等,0,2026-01-13,2026-01-05,医療法人西井産婦人科,,その他の設立登記法人,岡山県,笠岡市,中央町２番地の１１,,33,205,7140088,,,2026-01-05,清算の結了等,,,2015-10-05,1,,,,,ニシイサンフジンカ,0
2611,8290001081350,登記記録の閉鎖等,0,2026-01-13,2025-12-23,ＡＭＡホテル＆リゾート株式会社,,株式会社,福岡県,福岡市博多区,博多駅前１丁目２３番１１－１号,,40,132,8120011,,,2025-12-23,清算の結了等,,,2018-05-02,1,,,,,エーエムエーホテルアンドリゾート,0
2614,8290001103154,登記記録の閉鎖等,0,2026-01-13,2025-12-23,株式会社煌,,株式会社,福岡県,福岡市博多区,中洲４丁目１－３０－３Ｆ,,40,132,8100801,,,2025-12-23,清算の結了等,,,2023-09-26,1,,,,,キラメキ,0
2618,8290002034992,登記記録の閉鎖等,0,2026-01-13,2025-12-23,有限会社イーグル観光,,有限会社,福岡県,宗像市,王丸１１０５番１,,40,220,8113422,,,2025-12-23,清算の結了等,,,2015-10-05,1,,,,,イーグルカンコウ,0
2621,8290003014531,登記記録の閉鎖等,0,2026-01-13,2025-12-24,合同会社ｌｏｋｋｉ,,合同会社,福岡県,福岡市早良区,昭代２丁目３番６号,,40,137,8140012,,,2025-12-24,清算の結了等,,,2023-10-24,1,,,,,ロッキ,0
2628,8310001000084,登記記録の閉鎖等,0,2026-01-13,2026-01-09,株式会社アド・ジャパン,,株式会社,長崎県,長崎市,目覚町１１番２号,,42,201,8528105,,,2026-01-09,登記官による閉鎖,,,2015-10-05,1,,,,,,0
2629,8310001000340,登記記録の閉鎖等,0,2026-01-13,2026-01-09,開洋汽船株式会社,,株式会社,長崎県,長崎市,目覚町３番６号中央ビル,,42,201,8528105,,,2026-01-09,登記官による閉鎖,,,2015-10-05,1,,,,,,0
2630,8310001000720,登記記録の閉鎖等,0,2026-01-13,2026-01-09,株式会社シー・アール社,,株式会社,長崎県,長崎市,浜町２番３３号,,42,201,8500853,,,2026-01-09,登記官による閉鎖,,,2015-10-05,1,,,,,,0
2631,8310001000753,登記記録の閉鎖等,0,2026-01-13,2026-01-09,四海楼観光株式会社,,株式会社,長崎県,長崎市,松が枝町４番５号,,42,201,8500921,,,2026-01-09,登記官による閉鎖,,,2015-10-05,1,,,,,,0
2632,8310001000811,登記記録の閉鎖等,0,2026-01-13,2026-01-09,松成建設株式会社,,株式会社,長崎県,長崎市,銅座町６番８号,,42,201,8500841,,,2026-01-09,登記官による閉鎖,,,2015-10-05,1,,,,,,0
2633,8310001000927,登記記録の閉鎖等,0,2026-01-13,2026-01-09,盛和産業株式会社,,株式会社,長崎県,長崎市,高島町２７０６番地,,42,201,8511315,,,2026-01-09,登記官による閉鎖,,,2015-10-05,1,,,,,,0
2634,8310001000984,登記記録の閉鎖等,0,2026-01-13,2026-01-09,第一ハウス工業株式会社,,株式会社,長崎県,長崎市,古川町８番８号,,42,201,8500851,,,2026-01-09,登記官による閉鎖,,,2015-10-05,1,,,,,,0
2635,8310001001082,登記記録の閉鎖等,0,2026-01-13,2026-01-09,株式会社橘興業,,株式会社,長崎県,長崎市,恵美須町３番３－４０３号,,42,201,8500056,,,2026-01-09,登記官による閉鎖,,,2015-10-05,1,,,,,,0
2636,8310001001165,登記記録の閉鎖等,0,2026-01-13,2026-01-09,株式会社ティクアップディベロップメント,,株式会社,長崎県,長崎市,古川町７番１４号,,42,201,8500851,,,2026-01-09,登記官による閉鎖,,,2015-10-05,1,,,,,,0
2637,8310001001306,登記記録の閉鎖等,0,2026-01-13,2026-01-09,長崎技研開発株式会社,,株式会社,長崎県,長崎市,松原町２３９７番地,,42,201,8510131,,,2026-01-09,登記官による閉鎖,,,2015-10-05,1,,,,,,0
2638,8310001001487,登記記録の閉鎖等,0,2026-01-13,2026-01-09,長崎プリンスホテル管理運営株式会社,,株式会社,長崎県,長崎市,宝町２番２６号,,42,201,8500045,,,2026-01-09,登記官による閉鎖,,,2015-10-05,1,,,,,,0
2639,8310001001504,登記記録の閉鎖等,0,2026-01-13,2026-01-09,株式会社長崎マーケティングセンター,,株式会社,長崎県,長崎市,東町１４３０番地４,,42,201,8510116,,,2026-01-09,登記官による閉鎖,,,2015-10-05,1,,,,,,0
2640,8310001001545,登記記録の閉鎖等,0,2026-01-13,2026-01-09,中尾設備工業株式会社,,株式会社,長崎県,長崎市,緑町７番１７号,,42,201,8528103,,,2026-01-09,登記官による閉鎖,,,2015-10-05,1,,,,,,0
2641,8310001001735,登記記録の閉鎖等,0,2026-01-13,2026-01-09,阪九産業株式会社,,株式会社,長崎県,長崎市,竹の久保町１１番７号,,42,201,8528014,,,2026-01-09,登記官による閉鎖,,,2015-10-05,1,,,,,,0
2642,8310001001792,登記記録の閉鎖等,0,2026-01-13,2026-01-09,株式会社原製作所,,株式会社,長崎県,長崎市,岡町９番１号,,42,201,8528115,,,2026-01-09,登記官による閉鎖,,,2015-10-05,1,,,,,,0
2643,8310001002097,登記記録の閉鎖等,0,2026-01-13,2026-01-09,丸保商事株式会社,,株式会社,長崎県,長崎市,筑後町３番１１号,,42,201,8500052,,,2026-01-09,登記官による閉鎖,,,2015-10-05,1,,,,,,0
2644,8310001002163,登記記録の閉鎖等,0,2026-01-13,2026-01-09,株式会社道守建設,,株式会社,長崎県,長崎市,鳴見町１０９番１２,,42,201,8512214,,,2026-01-09,登記官による閉鎖,,,2015-10-05,1,,,,,,0
2645,8310001002394,登記記録の閉鎖等,0,2026-01-13,2026-01-09,福生建設株式会社,,株式会社,長崎県,長崎市,葉山１丁目５番１７号,,42,201,8528053,,,2026-01-09,登記官による閉鎖,,,2015-10-05,1,,,,,,0
2646,8310001002477,登記記録の閉鎖等,0,2026-01-13,2026-01-09,株式会社藤田技建,,株式会社,長崎県,長崎市,元船町７番１号,,42,201,8500035,,,2026-01-09,登記官による閉鎖,,,2015-10-05,1,,,,,,0
2647,8310001002592,登記記録の閉鎖等,0,2026-01-13,2026-01-09,株式会社ケイコーポレーション,,株式会社,長崎県,長崎市,ダイヤランド１丁目３６番１４号,,42,201,8500963,,,2026-01-09,登記官による閉鎖,,,2015-10-05,1,,,,,,0
2648,8310001002601,登記記録の閉鎖等,0,2026-01-13,2026-01-09,株式会社フレッシュライン,,株式会社,長崎県,長崎市,京泊３丁目３番１号,,42,201,8512211,,,2026-01-09,登記官による閉鎖,,,2015-10-05,1,,,,,,0
2649,8310001002634,登記記録の閉鎖等,0,2026-01-13,2026-01-09,株式会社エイ・ティー・エス,,株式会社,長崎県,長崎市,油屋町１番２９－４０１号,,42,201,8500832,,,2026-01-09,登記官による閉鎖,,,2015-10-05,1,,,,,,0
2650,8310001005091,登記記録の閉鎖等,0,2026-01-13,2026-01-09,株式会社アーヴァンクリエイター,,株式会社,長崎県,佐世保市,横尾町２１９８番地３,,42,202,8570018,,,2026-01-09,登記官による閉鎖,,,2015-10-05,1,,,,,,0
2651,8310001005100,登記記録の閉鎖等,0,2026-01-13,2026-01-09,株式会社アーベイル,,株式会社,長崎県,佐世保市,小舟町３１番地１,,42,202,8570114,,,2026-01-09,登記官による閉鎖,,,2015-10-05,1,,,,,,0
2652,8310001005190,登記記録の閉鎖等,0,2026-01-13,2026-01-09,株式会社エムズファクトリー,,株式会社,長崎県,佐世保市,吉岡町１０１６番地,,42,202,8570143,,,2026-01-09,登記官による閉鎖,,,2015-10-05,1,,,,,,0
2653,8310001005273,登記記録の閉鎖等,0,2026-01-13,2026-01-09,株式会社九州テック,,株式会社,長崎県,佐世保市,相浦町２６８２番地１ミヤサダビル１０２号,,42,202,8580918,,,2026-01-09,登記官による閉鎖,,,2015-10-05,1,,,,,,0
2654,8310001005538,登記記録の閉鎖等,0,2026-01-13,2026-01-09,昭興電業株式会社,,株式会社,長崎県,佐世保市,藤原町７番２号,,42,202,8570832,,,2026-01-09,登記官による閉鎖,,,2015-10-05,1,,,,,,0
2655,8310001005595,登記記録の閉鎖等,0,2026-01-13,2026-01-09,株式会社成和技研,,株式会社,長崎県,佐世保市,白岳町１０２番地４,,42,202,8571164,,,2026-01-09,登記官による閉鎖,,,2015-10-05,1,,,,,,0
2656,8310001005661,登記記録の閉鎖等,0,2026-01-13,2026-01-09,大名株式会社,,株式会社,長崎県,佐世保市,天神町１２５５番地３,,42,202,8571175,,,2026-01-09,登記官による閉鎖,,,2015-10-05,1,,,,,,0
2657,8310001006180,登記記録の閉鎖等,0,2026-01-13,2026-01-09,株式会社サン・シャイン,,株式会社,長崎県,佐世保市,大和町１００５番４０号,,42,202,8571165,,,2026-01-09,登記官による閉鎖,,,2015-10-05,1,,,,,,0
2658,8310001006321,登記記録の閉鎖等,0,2026-01-13,2026-01-09,株式会社トーカイ,,株式会社,長崎県,佐世保市,船越町７１番地７,,42,202,8571231,,,2026-01-09,登記官による閉鎖,,,2015-10-05,1,,,,,,0
2659,8310001006370,登記記録の閉鎖等,0,2026-01-13,2026-01-09,株式会社プロジェクトファクトリー,,株式会社,長崎県,佐世保市,湊町２番１１号,,42,202,8570055,,,2026-01-09,登記官による閉鎖,,,2015-10-05,1,,,,,,0
2660,8310001006461,登記記録の閉鎖等,0,2026-01-13,2026-01-09,株式会社ティー・エヌ・ケー・アパレル,,株式会社,長崎県,佐世保市,小佐々町黒石３３９番地６３,,42,202,8570401,,,2026-01-09,登記官による閉鎖,,,2015-10-05,1,,,,,,0
2661,8310001006676,登記記録の閉鎖等,0,2026-01-13,2026-01-09,株式会社牧村ブロック,,株式会社,長崎県,佐世保市,大和町６４番地１,,42,202,8571165,,,2026-01-09,登記官による閉鎖,,,2015-10-05,1,,,,,,0
2662,8310001006874,登記記録の閉鎖等,0,2026-01-13,2026-01-09,株式会社ジェイ・エヌ・シー,,株式会社,長崎県,佐世保市,若竹台町５０番地,,42,202,8593204,,,2026-01-09,登記官による閉鎖,,,2015-10-05,1,,,,,,0
2663,8310001006973,登記記録の閉鎖等,0,2026-01-13,2026-01-09,マルヤマ商事株式会社,,株式会社,長崎県,佐世保市,江迎町長坂２０７番地,,42,202,8596101,,,2026-01-09,登記官による閉鎖,,,2015-10-05,1,,,,,,0
2664,8310001007848,登記記録の閉鎖等,0,2026-01-13,2026-01-09,旭建設株式会社,,株式会社,長崎県,諫早市,栄田町２番１号,,42,204,8540081,,,2026-01-09,登記官による閉鎖,,,2015-10-05,1,,,,,,0
2665,8310001007906,登記記録の閉鎖等,0,2026-01-13,2026-01-09,オール観光開発株式会社,,株式会社,長崎県,諫早市,八坂町７番３号,,42,204,8540025,,,2026-01-09,登記官による閉鎖,,,2015-10-05,1,,,,,,0
2666,8310001008111,登記記録の閉鎖等,0,2026-01-13,2026-01-09,西日本観光開発株式会社,,株式会社,長崎県,諫早市,川床町１７４番地２,,42,204,8540052,,,2026-01-09,登記官による閉鎖,,,2015-10-05,1,,,,,,0
2667,8310001008375,登記記録の閉鎖等,0,2026-01-13,2026-01-09,株式会社ヒロ,,株式会社,長崎県,諫早市,多良見町舟津１６３５番地１,,42,204,8590417,,,2026-01-09,登記官による閉鎖,,,2015-10-05,1,,,,,,0
2668,8310001008417,登記記録の閉鎖等,0,2026-01-13,2026-01-09,ＫＩＳ九州情報サービス株式会社,,株式会社,長崎県,諫早市,川内町４８５番地,,42,204,8540037,,,2026-01-09,登記官による閉鎖,,,2015-10-05,1,,,,,,0
2669,8310001008763,登記記録の閉鎖等,0,2026-01-13,2026-01-09,株式会社サン・セーリング,,株式会社,長崎県,大村市,富の原１丁目１５２４番地,,42,205,8560806,,,2026-01-09,登記官による閉鎖,,,2015-10-05,1,,,,,,0
2670,8310001008821,登記記録の閉鎖等,0,2026-01-13,2026-01-09,株式会社ちふゆ,,株式会社,長崎県,大村市,久原２丁目１３９６番地１,,42,205,8560835,,,2026-01-09,登記官による閉鎖,,,2015-10-05,1,,,,,,0
2671,8310001008862,登記記録の閉鎖等,0,2026-01-13,2026-01-09,株式会社長崎ホームサービス,,株式会社,長崎県,大村市,古賀島町５９４番地２,,42,205,8560817,,,2026-01-09,登記官による閉鎖,,,2015-10-05,1,,,,,,0
2672,8310001008937,登記記録の閉鎖等,0,2026-01-13,2026-01-09,ヤスダオーシヤンベツセル株式会社,,株式会社,長崎県,大村市,西本町５４１番地９,,42,205,8560837,,,2026-01-09,登記官による閉鎖,,,2015-10-05,1,,,,,,0
2673,8310001010439,登記記録の閉鎖等,0,2026-01-13,2026-01-09,株式会社林工業,,株式会社,長崎県,平戸市,田平町古梶免４１６番地,,42,207,8594811,,,2026-01-09,登記官による閉鎖,,,2015-10-05,1,,,,,,0
2674,8310001010513,登記記録の閉鎖等,0,2026-01-13,2026-01-09,九州建鐵株式会社,,株式会社,長崎県,松浦市,志佐町浦免３７番地４,,42,208,8594501,,,2026-01-09,登記官による閉鎖,,,2015-10-05,1,,,,,,0
2675,8310001010546,登記記録の閉鎖等,0,2026-01-13,2026-01-09,飛島鉱業株式会社,,株式会社,長崎県,松浦市,今福町飛島免３０１番地,,42,208,8594529,,,2026-01-09,登記官による閉鎖,,,2015-10-05,1,,,,,,0
2676,8310001010694,登記記録の閉鎖等,0,2026-01-13,2026-01-09,株式会社あそう建設,,株式会社,長崎県,対馬市,美津島町鷄知乙３６１番地第２,00102449,42,209,8170000,,,2026-01-09,登記官による閉鎖,,,2015-10-05,1,,,,,,0
2677,8310002000752,登記記録の閉鎖等,0,2026-01-13,2026-01-09,有限会社エスケーリフォーム,,有限会社,長崎県,長崎市,住吉町８番１８号,,42,201,8528154,,,2026-01-09,登記官による閉鎖,,,2015-10-05,1,,,,,,0
2678,8310002004844,登記記録の閉鎖等,0,2026-01-13,2026-01-09,有限会社プライス飛鳥,,有限会社,長崎県,長崎市,三景台町２９番８号,,42,201,8500824,,,2026-01-09,登記官による閉鎖,,,2015-10-05,1,,,,,,0
2679,8310002019660,登記記録の閉鎖等,0,2026-01-13,2026-01-09,有限会社池勝水産,,有限会社,長崎県,松浦市,星鹿町岳崎免２６４０番地,,42,208,8594744,,,2026-01-09,登記官による閉鎖,,,2015-10-05,1,,,,,,0
2680,8310003002616,登記記録の閉鎖等,0,2026-01-13,2026-01-09,合同会社長崎野菜加工,,合同会社,長崎県,島原市,新馬場町１３６番地３,,42,203,8550033,,,2026-01-09,登記官による閉鎖,,,2015-10-05,1,,,,,,0
2681,8310005003001,登記記録の閉鎖等,0,2026-01-13,2026-01-09,学校法人みのり幼稚園,,その他の設立登記法人,長崎県,東彼杵郡川棚町,上組郷１５８７番地４０,,42,322,8593613,,,2026-01-09,登記官による閉鎖,,,2015-10-05,1,,,,,,0
2682,8310005004098,登記記録の閉鎖等,0,2026-01-13,2026-01-09,一般社団法人焼却灰等安定化技術協会,,その他の設立登記法人,長崎県,佐世保市,卸本町２２番３号,,42,202,8571162,,,2026-01-09,登記官による閉鎖,,,2015-10-05,1,,,,,,0
2683,8310005007126,登記記録の閉鎖等,0,2026-01-13,2026-01-09,特定非営利活動法人幼老共生推進プロジェクト,,その他の設立登記法人,長崎県,大村市,陰平町１９９４番地２,,42,205,8560841,,,2026-01-09,登記官による閉鎖,,,2015-10-05,1,,,,,,0
2684,8310005007357,登記記録の閉鎖等,0,2026-01-13,2026-01-09,特定非営利活動法人敬寿会,,その他の設立登記法人,長崎県,佐世保市,天神４丁目２番３４号,,42,202,8571174,,,2026-01-09,登記官による閉鎖,,,2015-10-05,1,,,,,,0
2694,8370001022230,登記記録の閉鎖等,0,2026-01-13,2026-01-06,株式会社エルヴェグリーン,,株式会社,宮城県,名取市,閖上東１丁目８番１号,,04,207,9811204,,,2026-01-06,合併による解散等,4370001019998,令和８年１月１日仙台市若林区六丁の目西町８番１号株式会社エルヴェ環境（4370001019998）に合併し解散,2015-10-05,1,,,,,エルヴェグリーン,0
2698,8380002024662,登記記録の閉鎖等,0,2026-01-13,2026-01-06,有限会社タカサキ工業,,有限会社,福島県,いわき市,泉町下川字宿ノ川３１番地の３,,07,204,9718183,,,2026-01-06,清算の結了等,,,2015-10-05,1,,,,,タカサキコウギョウ,0
2699,8390001011495,登記記録の閉鎖等,0,2026-01-13,2026-01-09,Ｌｕｍｉｏｔｅｃ株式会社,,株式会社,山形県,米沢市,八幡原４丁目２８３７番地の９,,06,202,9921128,,,2026-01-09,清算の結了等,,,2015-10-05,1,,,,,ルミオテック,0
2701,8400002006906,登記記録の閉鎖等,0,2026-01-13,2026-01-05,有限会社振興自動車,,有限会社,岩手県,紫波郡矢巾町,大字高田第１５地割１０１番地,,03,322,0283601,,,2026-01-05,合併による解散等,3400001003801,令和８年１月１日岩手県紫波郡矢巾町大字高田第１５地割１０１番地ＵＤトラックス岩手株式会社（3400001003801）に合併し解散,2015-10-05,1,,,,,シンコウジドウシャ,0
2706,8430001044904,登記記録の閉鎖等,0,2026-01-13,2026-01-09,株式会社ノースウイング,,株式会社,北海道,札幌市中央区,南六条東１丁目２番地,,01,101,0600056,,,2026-01-09,清算の結了等,,,2015-10-05,1,,,,,,0
2712,8470001010588,登記記録の閉鎖等,0,2026-01-13,2026-01-08,松崎沖塩田株式会社,,株式会社,香川県,高松市,昭和町１丁目９番３０－１０４号加藤和理方,,37,201,7600014,,,2026-01-08,清算の結了等,,,2015-10-05,1,,,,,マツザキオキエンデン,0
2714,8480001002519,登記記録の閉鎖等,0,2026-01-13,2026-01-06,株式会社ＭＣＣ,,株式会社,大阪府,大阪市淀川区,西中島６丁目９番２７号新大阪メイコービル７０１号室,,27,123,5320011,,,2026-01-06,清算の結了等,,,2015-10-05,1,,,,,エムシーシー,0
2718,9010001158489,登記記録の閉鎖等,0,2026-01-13,2025-12-12,株式会社ワイズ,,株式会社,東京都,港区,赤坂１丁目１１番４４号,,13,103,1070052,,,2025-12-12,清算の結了等,,,2015-10-05,1,,,,,ワイズ,0
2731,9010005026873,登記記録の閉鎖等,0,2026-01-13,2025-12-25,ＮＰＯ法人Ｈｕｍａｎ　Ｃｒｏｓｓ　Ｎｅｔｗｏｒｋ,,その他の設立登記法人,東京都,品川区,西五反田７丁目２４番５号ＯＮＥＳＴ西五反田スクエア８階,,13,109,1410031,,,2025-12-25,清算の結了等,,,2017-05-19,1,,,,,ヒューマンクロスネットワーク,0
2732,9010005032673,登記記録の閉鎖等,0,2026-01-13,2026-01-07,市ヶ谷司法書士法人,,その他の設立登記法人,東京都,千代田区,五番町６番地２,,13,101,1020076,,,2026-01-07,清算の結了等,,,2020-12-10,1,,,,,イチガヤ,0
2743,9010703007407,登記記録の閉鎖等,0,2026-01-13,2025-12-25,トドロキホールディングス合同会社,,合同会社,東京都,江東区,豊洲５丁目６番２９－１２３０号,,13,108,1350061,,,2025-12-25,清算の結了等,,,2024-10-25,1,,,,,トドロキホールディングス,0
2745,9010802014865,登記記録の閉鎖等,0,2026-01-13,2025-12-26,有限会社山内商会,,有限会社,東京都,大田区,久が原３丁目４１番１４号,,13,111,1460085,,,2025-12-26,清算の結了等,,,2015-10-05,1,,,,,ヤマウチショウカイ,0
2755,9011001135338,登記記録の閉鎖等,0,2026-01-13,2025-12-12,株式会社ＲＵＦ,,株式会社,東京都,渋谷区,広尾１丁目３番１０号,,13,113,1500012,,,2025-12-12,清算の結了等,,,2020-08-20,1,,,,,ルフ,0
2763,9011502002573,登記記録の閉鎖等,0,2026-01-13,2026-01-05,有限会社佐竹設計事務所,,有限会社,東京都,練馬区,南大泉４丁目３番１２号,,13,120,1780064,,,2026-01-05,清算の結了等,,,2015-10-05,1,,,,,サタケセッケイジムショ,0
2776,9013302020086,登記記録の閉鎖等,0,2026-01-13,2025-12-23,有限会社ユニバーサル・サポート,,有限会社,東京都,豊島区,巣鴨１丁目１１番２号巣鴨陽光ハイツ１００６号,,13,116,1700002,,,2025-12-23,清算の結了等,,,2015-10-05,1,,,,,ユニバーサルサポート,0
2796,9021003002130,登記記録の閉鎖等,0,2026-01-13,2025-12-24,合同会社Ｐｒｉｍｅ　Ｗｉｎｄ,,合同会社,愛知県,みよし市,三好町石塚３６番地５,,23,236,4700224,,,2025-12-24,清算の結了等,,,2015-10-05,1,,,,,プライムウィンド,0
2802,9030001033640,登記記録の閉鎖等,0,2026-01-13,2025-12-25,株式会社Ｋ．Ｏ．電気屋,,株式会社,埼玉県,加須市,礼羽４０７番地１８,,11,210,3470044,,,2025-12-25,清算の結了等,,,2015-10-05,1,,,,,ケーオーデンキヤ,0
2826,9040005020535,登記記録の閉鎖等,0,2026-01-13,2026-01-05,一般社団法人ユニオン・インベストメント,,その他の設立登記法人,千葉県,船橋市,習志野台２丁目４９番１７号,,12,204,2740063,,,2026-01-05,清算の結了等,,,2019-09-05,1,,,,,ユニオンインベストメント,0
2840,9060005004825,登記記録の閉鎖等,0,2026-01-13,2026-01-08,医療法人松岡会,,その他の設立登記法人,栃木県,小山市,東城南１丁目３番地３２,,09,208,3230829,,,2026-01-08,清算の結了等,,,2015-10-05,1,,,,,マツオカカイ,0
2843,9080002014445,登記記録の閉鎖等,0,2026-01-13,2026-01-05,有限会社メンテ住吉,,有限会社,静岡県,榛原郡吉田町,住吉２０７０番地の１,,22,424,4210301,,,2026-01-05,清算の結了等,,,2015-10-05,1,,,,,メンテスミヨシ,0
2846,9080102018387,登記記録の閉鎖等,0,2026-01-13,2026-01-07,有限会社高橋薬局,,有限会社,静岡県,熱海市,清水町１番１６号,,22,205,4130021,,,2026-01-07,合併による解散等,2080401012972,令和８年１月１日静岡県浜松市中央区上島五丁目１１番２２号株式会社ベストシステム（2080401012972）に合併し解散,2015-10-05,1,,,,,タカハシヤッキョク,0
2847,9080103002539,登記記録の閉鎖等,0,2026-01-13,2026-01-08,合同会社アウスヴァール,,合同会社,静岡県,裾野市,岩波８６番地の６,,22,220,4101101,,,2026-01-08,清算の結了等,,,2022-03-02,1,,,,,アウスヴァール,0
2873,9120005019610,登記記録の閉鎖等,0,2026-01-13,2026-01-07,一般社団法人江戸堀開発,,その他の設立登記法人,大阪府,大阪市北区,中之島４丁目３番２５号フジヒサＦＪ中之島ビル,,27,127,5300005,,,2026-01-07,清算の結了等,,,2017-07-13,1,,,,,エドボリカイハツ,0
2874,9120101029785,登記記録の閉鎖等,0,2026-01-13,2026-01-05,株式会社ＴＡＫＡＣＨＯ,,株式会社,大阪府,堺市美原区,木材通１丁目６番５６号,,27,147,5870042,,,2026-01-05,合併による解散等,6120001102892,令和８年１月１日大阪府堺市美原区木材通一丁目６番５６号株式会社山長（6120001102892）に合併し解散,2015-10-05,1,,,,,タカチョウ,0
2875,9120101056359,登記記録の閉鎖等,0,2026-01-13,2026-01-06,株式会社東翔ホールディングス,,株式会社,大阪府,大阪市北区,天満２丁目７番１１号,,27,127,5300043,,,2026-01-06,清算の結了等,,,2017-04-17,1,,,,,トウショウホールディングス,0
2882,9120902014093,登記記録の閉鎖等,0,2026-01-13,2025-12-24,有限会社テイクファイブ・プロジェクト,,有限会社,大阪府,吹田市,山田東１丁目３３番Ｃ－５０４号,,27,205,5650821,,,2025-12-24,清算の結了等,,,2015-10-05,1,,,,,テイクファイブプロジェクト,0
2889,9140001107425,登記記録の閉鎖等,0,2026-01-13,2026-01-05,株式会社ＨＯＵＭＥＩ,,株式会社,兵庫県,神戸市東灘区,本山中町２丁目１－７,,28,101,6580016,,,2026-01-05,清算の結了等,,,2017-09-06,1,,,,,ホウメイ,0
2891,9140001119437,登記記録の閉鎖等,0,2026-01-13,2026-01-07,ファーマシーキャピタル株式会社,,株式会社,兵庫県,尼崎市,御園町２４番地尼崎第一ビル４０２号,,28,202,6600861,,,2026-01-07,合併による解散等,5480001012982,令和８年１月１日徳島市東船場町二丁目２１番地の２阿波銀住友生命ビル３階Ｓホールディングス株式会社（5480001012982）に合併し解散,2020-11-16,1,,,,,ファーマシーキャピタル,0
2901,9180001119185,登記記録の閉鎖等,0,2026-01-13,2026-01-06,アプライト株式会社,,株式会社,愛知県,常滑市,大野町５丁目９６番地,,23,216,4790866,,,2026-01-06,清算の結了等,,,2015-10-05,1,,,,,アプライト,0
2919,9200001037772,登記記録の閉鎖等,0,2026-01-13,2026-01-06,株式会社ユニ,,株式会社,岐阜県,岐阜市,長良２４３５番地７５,,21,201,5020071,,,2026-01-06,清算の結了等,,,2020-09-07,1,,,,,ユニ,0
2926,9240001015601,登記記録の閉鎖等,0,2026-01-13,2026-01-05,広島住販株式会社,,株式会社,広島県,廿日市市,峠１００９０番地２２４,,34,213,7380202,,,2026-01-05,清算の結了等,,,2015-10-05,1,,,,,ヒロシマジュウハン,0
2934,9260001035861,登記記録の閉鎖等,0,2026-01-13,2026-01-08,株式会社悠楽,,株式会社,岡山県,岡山市中区,新京橋１丁目５番８号,,33,102,7038294,,,2026-01-08,清算の結了等,,,2021-08-06,1,,,,,ユウラク,0
2935,9260002028641,登記記録の閉鎖等,0,2026-01-13,2026-01-05,有限会社セノヲ,,有限会社,岡山県,津山市,川崎１９０２番地３,,33,203,7080841,,,2026-01-05,合併による解散等,2260001019648,令和８年１月１日岡山県津山市川崎１９０２番地の３カンダエステム株式会社（2260001019648）に合併し解散,2015-10-05,1,,,,,セノヲ,0
2938,9260005008095,登記記録の閉鎖等,0,2026-01-13,2026-01-07,特定非営利活動法人牛窓障害者支援センター,,その他の設立登記法人,岡山県,瀬戸内市,牛窓町牛窓５７００番地１,,33,212,7014302,,,2026-01-07,清算の結了等,,,2015-10-05,1,,,,,ウシマドショウガイシャシエンセンター,0
2940,9280002004896,登記記録の閉鎖等,0,2026-01-13,2026-01-06,有限会社マスモト,,有限会社,島根県,安来市,飯島町５９８番地,,32,206,6920014,,,2026-01-06,清算の結了等,,,2015-10-05,1,,,,,マスモト,0
2945,9290001097783,登記記録の閉鎖等,0,2026-01-13,2025-12-25,株式会社エムアイコンサルタント,,株式会社,福岡県,福岡市南区,桧原１丁目１０番５号,,40,134,8111355,,,2025-12-25,清算の結了等,,,2022-06-03,1,,,,,エムアイコンサルタント,0
2946,9290001112286,登記記録の閉鎖等,0,2026-01-13,2025-12-23,株式会社矢野栄工事,,株式会社,福岡県,朝倉市,堤２９２番地,,40,228,8380062,,,2025-12-23,清算の結了等,,,2025-12-05,1,,,,,ヤノエイコウジ,0
2950,9290002046632,登記記録の閉鎖等,0,2026-01-13,2025-12-22,有限会社介護サービス千鶴,,有限会社,福岡県,飯塚市,潤野９７１番地の１０１,,40,205,8200021,,,2025-12-22,清算の結了等,,,2015-10-05,1,,,,,カイゴサービスチヅル,0
2955,9290003001652,登記記録の閉鎖等,0,2026-01-13,2025-12-23,合資会社東部通商,,合資会社,福岡県,福津市,中央６丁目８番１８号,,40,224,8113217,,,2025-12-23,清算の結了等,,,2015-10-05,1,,,,,トウッブツウショウ,0
2958,9290801026470,登記記録の閉鎖等,0,2026-01-13,2026-01-06,株式会社新成工業,,株式会社,福岡県,北九州市小倉北区,白銀１丁目１０番１５号,,40,106,8020074,,,2026-01-06,清算の結了等,,,2020-05-12,1,,,,,,0
2964,9310001000117,登記記録の閉鎖等,0,2026-01-13,2026-01-09,イーエムエスジャパン株式会社,,株式会社,長崎県,長崎市,家野町９番９号,,42,201,8528136,,,2026-01-09,登記官による閉鎖,,,2015-10-05,1,,,,,,0
2965,9310001000694,登記記録の閉鎖等,0,2026-01-13,2026-01-09,株式会社サンビッグ,,株式会社,長崎県,長崎市,宿町１９７番地２,,42,201,8510121,,,2026-01-09,登記官による閉鎖,,,2015-10-05,1,,,,,,0
2966,9310001000991,登記記録の閉鎖等,0,2026-01-13,2026-01-09,大互技建株式会社,,株式会社,長崎県,長崎市,川平町１１４２番地４,,42,201,8528143,,,2026-01-09,登記官による閉鎖,,,2015-10-05,1,,,,,,0
2967,9310001001098,登記記録の閉鎖等,0,2026-01-13,2026-01-09,株式会社多宝商事,,株式会社,長崎県,長崎市,赤迫２丁目１番１５号,,42,201,8528156,,,2026-01-09,登記官による閉鎖,,,2015-10-05,1,,,,,,0
2968,9310001001197,登記記録の閉鎖等,0,2026-01-13,2026-01-09,株式会社東京フューチャーズ,,株式会社,長崎県,長崎市,魚の町７番５号,,42,201,8500874,,,2026-01-09,登記官による閉鎖,,,2015-10-05,1,,,,,,0
2969,9310001001305,登記記録の閉鎖等,0,2026-01-13,2026-01-09,株式会社長崎観光ホテル秀明館,,株式会社,長崎県,長崎市,筑後町３番１１号,,42,201,8500052,,,2026-01-09,登記官による閉鎖,,,2015-10-05,1,,,,,,0
2970,9310001001602,登記記録の閉鎖等,0,2026-01-13,2026-01-09,西日本カラオケ機器株式会社,,株式会社,長崎県,長崎市,籠町９番２４号,,42,201,8500905,,,2026-01-09,登記官による閉鎖,,,2015-10-05,1,,,,,,0
2971,9310001001610,登記記録の閉鎖等,0,2026-01-13,2026-01-09,西九州商事株式会社,,株式会社,長崎県,長崎市,大黒町２番１号,,42,201,8500057,,,2026-01-09,登記官による閉鎖,,,2015-10-05,1,,,,,,0
2972,9310001002121,登記記録の閉鎖等,0,2026-01-13,2026-01-09,三上造船株式会社,,株式会社,長崎県,長崎市,国分町３番２２号,,42,201,8500951,,,2026-01-09,登記官による閉鎖,,,2015-10-05,1,,,,,,0
2973,9310001002170,登記記録の閉鎖等,0,2026-01-13,2026-01-09,株式会社米原建設,,株式会社,長崎県,長崎市,花園町３番１３号,,42,201,8528024,,,2026-01-09,登記官による閉鎖,,,2015-10-05,1,,,,,,0
2974,9310001002336,登記記録の閉鎖等,0,2026-01-13,2026-01-09,株式会社ラバン,,株式会社,長崎県,長崎市,桜木町３番２２号,,42,201,8500835,,,2026-01-09,登記官による閉鎖,,,2015-10-05,1,,,,,,0
2975,9310001002352,登記記録の閉鎖等,0,2026-01-13,2026-01-09,株式会社ルネッサンス,,株式会社,長崎県,長崎市,五島町３番３－４０２号,,42,201,8500036,,,2026-01-09,登記官による閉鎖,,,2015-10-05,1,,,,,,0
2976,9310001002591,登記記録の閉鎖等,0,2026-01-13,2026-01-09,株式会社ティ・ダブリュ・ビー,,株式会社,長崎県,長崎市,金屋町６番１７号アベックス２１－２０１号,,42,201,8500037,,,2026-01-09,登記官による閉鎖,,,2015-10-05,1,,,,,,0
2977,9310001002773,登記記録の閉鎖等,0,2026-01-13,2026-01-09,株式会社システムアレイ,,株式会社,長崎県,長崎市,上野町２０番６号,,42,201,8528113,,,2026-01-09,登記官による閉鎖,,,2015-10-05,1,,,,,,0
2978,9310001003037,登記記録の閉鎖等,0,2026-01-13,2026-01-09,株式会社セラフ・インターナショナル・カンパニー,,株式会社,長崎県,長崎市,古川町５番２５号ブランディール鮫島３０２号,,42,201,8500851,,,2026-01-09,登記官による閉鎖,,,2015-10-05,1,,,,,,0
2979,9310001005181,登記記録の閉鎖等,0,2026-01-13,2026-01-09,株式会社エトワールホリエ,,株式会社,長崎県,佐世保市,上京町６番１６号,,42,202,8570872,,,2026-01-09,登記官による閉鎖,,,2015-10-05,1,,,,,エトワールホリエ,0
2980,9310001005215,登記記録の閉鎖等,0,2026-01-13,2026-01-09,大宅建設株式会社,,株式会社,長崎県,佐世保市,高梨町１３番２号,,42,202,8570811,,,2026-01-09,登記官による閉鎖,,,2015-10-05,1,,,,,,0
2981,9310001005982,登記記録の閉鎖等,0,2026-01-13,2026-01-09,株式会社ホテル東京,,株式会社,長崎県,佐世保市,高砂町３番１１号,,42,202,8570042,,,2026-01-09,登記官による閉鎖,,,2015-10-05,1,,,,,,0
2982,9310001005999,登記記録の閉鎖等,0,2026-01-13,2026-01-09,株式会社松尾秀建設,,株式会社,長崎県,佐世保市,上町２番１２号,,42,202,8570058,,,2026-01-09,登記官による閉鎖,,,2015-10-05,1,,,,,,0
2983,9310001006114,登記記録の閉鎖等,0,2026-01-13,2026-01-09,株式会社山崎組,00095690,株式会社,長崎県,佐世保市,高天町１１番１９号,,42,202,8570802,,,2026-01-09,登記官による閉鎖,,,2015-10-05,1,,,,,,0
2984,9310001006163,登記記録の閉鎖等,0,2026-01-13,2026-01-09,株式会社檸檬,,株式会社,長崎県,佐世保市,瀬戸越３丁目７番６号,,42,202,8570134,,,2026-01-09,登記官による閉鎖,,,2015-10-05,1,,,,,,0
2985,9310001006345,登記記録の閉鎖等,0,2026-01-13,2026-01-09,シーランドトランスポート株式会社,,株式会社,長崎県,佐世保市,相浦町１４８１番地,,42,202,8580918,,,2026-01-09,登記官による閉鎖,,,2015-10-05,1,,,,,シーランドトランスポート,0
2986,9310001006510,登記記録の閉鎖等,0,2026-01-13,2026-01-09,大崎食品株式会社,,株式会社,長崎県,西海市,大島町１８７６番地,,42,212,8572427,,,2026-01-09,登記官による閉鎖,,,2015-10-05,1,,,,,,0
2987,9310001006915,登記記録の閉鎖等,0,2026-01-13,2026-01-09,株式会社光和,,株式会社,長崎県,南松浦郡新上五島町,浦桑郷１２８８番地,,42,411,8574511,,,2026-01-09,登記官による閉鎖,,,2015-10-05,1,,,,,,0
2988,9310001006972,登記記録の閉鎖等,0,2026-01-13,2026-01-09,株式会社松田鉄工,,株式会社,長崎県,佐世保市,江迎町三浦７６番地の３,,42,202,8596125,,,2026-01-09,登記官による閉鎖,,,2015-10-05,1,,,,,,0
2989,9310001007277,登記記録の閉鎖等,0,2026-01-13,2026-01-09,株式会社西海不動産,,株式会社,長崎県,佐世保市,権常寺町１１０１番地１９,,42,202,8593213,,,2026-01-09,登記官による閉鎖,,,2015-10-05,1,,,,,サイカイフドウサン,0
2990,9310001008168,登記記録の閉鎖等,0,2026-01-13,2026-01-09,萬誠株式会社,,株式会社,長崎県,諫早市,城見町２１番１３号,,42,204,8540005,,,2026-01-09,登記官による閉鎖,,,2015-10-05,1,,,,,,0
2991,9310001008325,登記記録の閉鎖等,0,2026-01-13,2026-01-09,株式会社龍成商事,00095721,株式会社,長崎県,諫早市,多良見町化屋１３７８番地,,42,204,8590401,,,2026-01-09,登記官による閉鎖,,,2015-10-05,1,,,,,,0
2992,9310001008770,登記記録の閉鎖等,0,2026-01-13,2026-01-09,株式会社寺社農林福祉事業団,,株式会社,長崎県,大村市,中里町２６２番地１,,42,205,8560842,,,2026-01-09,登記官による閉鎖,,,2015-10-05,1,,,,,,0
2993,9310001008928,登記記録の閉鎖等,0,2026-01-13,2026-01-09,株式会社メディックス,,株式会社,長崎県,大村市,東大村１丁目２５０６番地１,,42,205,8560032,,,2026-01-09,登記官による閉鎖,,,2015-10-05,1,,,,,,0
2994,9310001008944,登記記録の閉鎖等,0,2026-01-13,2026-01-09,ユナイテッドエンジニアリング株式会社,,株式会社,長崎県,大村市,協和町７２８番地,,42,205,8560820,,,2026-01-09,登記官による閉鎖,,,2015-10-05,1,,,,,,0
2995,9310001009678,登記記録の閉鎖等,0,2026-01-13,2026-01-09,株式会社ツルシマ・エンタープライズ,,株式会社,長崎県,島原市,今川町１３１２番地,,42,203,8550046,,,2026-01-09,登記官による閉鎖,,,2015-10-05,1,,,,,,0
2996,9310001009686,登記記録の閉鎖等,0,2026-01-13,2026-01-09,株式会社永瀬屋商店,,株式会社,長崎県,島原市,加美町１２００番地の９,,42,203,8550808,,,2026-01-09,登記官による閉鎖,,,2015-10-05,1,,,,,,0
2997,9310001009752,登記記録の閉鎖等,0,2026-01-13,2026-01-09,西海グリーンピア株式会社,,株式会社,長崎県,南島原市,布津町丙４６３０番地,,42,214,8592113,,,2026-01-09,登記官による閉鎖,,,2015-10-05,1,,,,,,0
2998,9310001009760,登記記録の閉鎖等,0,2026-01-13,2026-01-09,有家ウインバロウ株式会社,,株式会社,長崎県,南島原市,有家町山川１２００番地,,42,214,8592202,,,2026-01-09,登記官による閉鎖,,,2015-10-05,1,,,,,,0
2999,9310001010438,登記記録の閉鎖等,0,2026-01-13,2026-01-09,株式会社日本陸上養殖総合研究所,,株式会社,長崎県,平戸市,津吉町１１４７番地６,,42,207,8595512,,,2026-01-09,登記官による閉鎖,,,2015-10-05,1,,,,,,0
3000,9310001010594,登記記録の閉鎖等,0,2026-01-13,2026-01-09,株式会社福島テクノマリン,,株式会社,長崎県,松浦市,福島町塩浜免５１６番地１３,,42,208,8480403,,,2026-01-09,登記官による閉鎖,,,2015-10-05,1,,,,,,0
3001,9310001010710,登記記録の閉鎖等,0,2026-01-13,2026-01-09,株式会社三勢,,株式会社,長崎県,対馬市,美津島町鷄知甲３７５番地２８,00102453,42,209,8170000,,,2026-01-09,登記官による閉鎖,,,2015-10-05,1,,,,,サンセイ,0
3002,9310001010735,登記記録の閉鎖等,0,2026-01-13,2026-01-09,対馬通運株式会社,,株式会社,長崎県,対馬市,厳原町東里３４１番地７,,42,209,8170016,,,2026-01-09,登記官による閉鎖,,,2015-10-05,1,,,,,,0
3003,9310001010966,登記記録の閉鎖等,0,2026-01-13,2026-01-09,株式会社今利建設,,株式会社,長崎県,五島市,上大津町９１９番地,,42,211,8530013,,,2026-01-09,登記官による閉鎖,,,2015-10-05,1,,,,,,0
3004,9310001011007,登記記録の閉鎖等,0,2026-01-13,2026-01-09,東陽産業株式会社,,株式会社,長崎県,五島市,福江町１１９０番地８,,42,211,8530007,,,2026-01-09,登記官による閉鎖,,,2015-10-05,1,,,,,,0
3005,9310001011064,登記記録の閉鎖等,0,2026-01-13,2026-01-09,株式会社ダイエン,,株式会社,長崎県,五島市,大円寺町４番８号,,42,211,8530066,,,2026-01-09,登記官による閉鎖,,,2015-10-05,1,,,,,,0
3007,9310002004439,登記記録の閉鎖等,0,2026-01-13,2026-01-09,有限会社林産業,,有限会社,長崎県,長崎市,畝刈町９２９番地４,,42,201,8512212,,,2026-01-09,登記官による閉鎖,,,2015-10-05,1,,,,,,0
3008,9310002005750,登記記録の閉鎖等,0,2026-01-13,2026-01-09,有限会社梁川商事,,有限会社,長崎県,長崎市,清水町１番１５号,,42,201,8528041,,,2026-01-09,登記官による閉鎖,,,2015-10-05,1,,,,,ヤナガワショウジ,0
3011,9310005003396,登記記録の閉鎖等,0,2026-01-13,2026-01-09,特定非営利活動法人ハンズオブピース,,その他の設立登記法人,長崎県,佐世保市,日宇町２７０４番地１,,42,202,8571151,,,2026-01-09,登記官による閉鎖,,,2015-10-05,1,,,,,,0
3012,9310005004089,登記記録の閉鎖等,0,2026-01-13,2026-01-09,一般財団法人日本霊園協会,,その他の設立登記法人,長崎県,佐世保市,桜木町１０３３番地,,42,202,8570012,,,2026-01-09,登記官による閉鎖,,,2015-10-05,1,,,,,,0
3013,9310005006787,登記記録の閉鎖等,0,2026-01-13,2026-01-09,一般社団法人対馬産業振興公社,,その他の設立登記法人,長崎県,対馬市,厳原町桟原７番地１,,42,209,8170005,,,2026-01-09,登記官による閉鎖,,,2015-10-05,1,,,,,,0
3025,9370302003275,登記記録の閉鎖等,0,2026-01-13,2026-01-06,有限会社大真プラント,,有限会社,宮城県,石巻市,渡波字沖六勺１番地４０,,04,202,9862135,,,2026-01-06,清算の結了等,,,2015-10-05,1,,,,,ダイシンプラント,0
3026,9380001009250,登記記録の閉鎖等,0,2026-01-13,2026-01-06,株式会社ＦＡ工房ＳＴＥＰ,,株式会社,福島県,郡山市,安積町荒井字安倍５番地の８３,,07,203,9630111,,,2026-01-06,清算の結了等,,,2015-10-05,1,,,,,エフエーコウボウステップ,0
3044,9460101005397,登記記録の閉鎖等,0,2026-01-13,2026-01-05,匠コンサルタンツ株式会社,,株式会社,北海道,帯広市,東一条南１６丁目１５番地,,01,207,0800801,,,2026-01-05,合併による解散等,2460101000792,令和７年１２月３１日北海道帯広市東一条南十六丁目１５番地瀬野匠コンサルタンツ株式会社（2460101000792）に合併し解散,2015-10-05,1,,,,,タクミコンサルタンツ,0
3045,9480001004118,登記記録の閉鎖等,0,2026-01-13,2026-01-08,株式会社ＧＡＮＧＯ,,株式会社,徳島県,徳島市,川内町平石夷野１３７番地１１,,36,201,7710132,,,2026-01-08,清算の結了等,,,2015-10-05,1,,,,,ギャンゴ,0
3046,9480002006154,登記記録の閉鎖等,0,2026-01-13,2026-01-09,有限会社開成マリン,,有限会社,徳島県,徳島市,城南町３丁目６番２６号,,36,201,7708064,,,2026-01-09,清算の結了等,,,2015-10-05,1,,,,,カイセイマリン,0
3047,9500002012934,登記記録の閉鎖等,0,2026-01-13,2026-01-08,有限会社菊池工業,,有限会社,愛媛県,大洲市,大洲８８５番地１０,,38,207,7950012,,,2026-01-08,清算の結了等,,,2015-10-05,1,,,,,キクチコウギョウ,0
