sequenceNumber,corporateNumber,process,correct,updateDate,changeDate,name,nameImageId,kind,prefectureName,cityName,streetNumber,addressImageId,prefectureCode,cityCode,postCode,addressOutside,addressOutsideImageId,closeDate,closeCause,successorCorporateNumber,changeCause,assignmentDate,latest,enName,enPrefectureName,enCityName,enAddressOutside,furigana,hihyoji
36,1010003033680,登記記録の閉鎖等,0,2024-11-15,2024-10-25,オフィスアクイラコンサルティング合同会社,,合同会社,東京都,中央区,銀座７丁目１３番６号サガミビル２階,,13,102,1040061,,,2024-10-25,清算の結了等,,,2020-12-08,1,,,,,オフィスアクイラコンサルティング,0
52,1010401021733,登記記録の閉鎖等,0,2024-11-15,2024-10-29,双日新都市開発株式会社,,株式会社,東京都,港区,西新橋１丁目２番９号,,13,103,1050003,,,2024-10-29,清算の結了等,,,2015-10-05,1,,,,,ソウジツシントシカイハツ,0
75,1010601042892,登記記録の閉鎖等,0,2024-11-15,2024-11-11,ジゼルアンドアソシエイツ株式会社,,株式会社,東京都,墨田区,亀沢４丁目１番１１号,,13,107,1300014,,,2024-11-11,合併による解散等,1220001017821,令和６年１１月１日東京都墨田区亀沢四丁目１番１１号株式会社マルダイホールディングス（1220001017821）に合併し解散,2015-10-05,1,,,,,ジゼルアンドアソシエイツ,0
123,1021001029216,登記記録の閉鎖等,0,2024-11-15,2024-11-07,株式会社美創,,株式会社,東京都,町田市,つくし野３丁目１３番地１,,13,209,1940001,,,2024-11-07,合併による解散等,4021001025336,令和６年１１月１日神奈川県大和市桜森二丁目２６番１３号株式会社システム企画（4021001025336）に合併し解散,2015-10-05,1,,,,,ビソウ,0
126,1021002045600,登記記録の閉鎖等,0,2024-11-15,2024-11-12,有限会社平和塗装,,有限会社,神奈川県,海老名市,東柏ケ谷５丁目１５番２７号,,14,215,2430401,,,2024-11-12,清算の結了等,,,2015-10-05,1,,,,,ヘイワトソウ,0
142,1040003016501,登記記録の閉鎖等,0,2024-11-15,2024-11-11,合同会社ＬＡＬＡＧＡＲＤＥＮ,,合同会社,千葉県,木更津市,有吉２２１０番地,,12,206,2920021,,,2024-11-11,清算の結了等,,,2020-11-25,1,,,,,ララガーデン,0
160,1080402005497,登記記録の閉鎖等,0,2024-11-15,2024-11-08,有限会社戸塚電気工業所,,有限会社,静岡県,浜松市中央区,小池町２９１４番地の２,,22,138,4350056,,,2024-11-08,清算の結了等,,,2015-10-05,1,,,,,トヅカデンキコウギョウショ,0
163,1080402015554,登記記録の閉鎖等,0,2024-11-15,2024-11-11,有限会社細田,,有限会社,静岡県,浜松市浜名区,中条８２０番地,,22,139,4340043,,,2024-11-11,清算の結了等,,,2015-10-05,1,,,,,ホソダ,0
164,1080402017195,登記記録の閉鎖等,0,2024-11-15,2024-11-07,有限会社エスポートサービス設工,,有限会社,静岡県,掛川市,板沢９８７番地の１,,22,213,4360016,,,2024-11-07,清算の結了等,,,2015-10-05,1,,,,,エスポートサービスセッコウ,0
205,1180002032221,登記記録の閉鎖等,0,2024-11-15,2024-11-05,有限会社成田写真館,,有限会社,愛知県,名古屋市中区,千代田５丁目８番２７号,,23,106,4600012,,,2024-11-05,清算の結了等,,,2015-10-05,1,,,,,ナリタシャシンカン,0
207,1180003012825,登記記録の閉鎖等,0,2024-11-15,2024-10-31,合資会社判悦印房,,合資会社,愛知県,半田市,本町７丁目３１番地,,23,205,4750871,,,2024-10-31,清算の結了等,,,2015-10-05,1,,,,,ハンエツインボウ,0
208,1180003022023,登記記録の閉鎖等,0,2024-11-15,2024-11-06,合同会社ＣＯＺＹ,,合同会社,愛知県,春日井市,八事町３丁目５５番地２,,23,206,4860836,,,2024-11-06,清算の結了等,,,2021-01-18,1,,,,,コージー,0
210,1180301006850,登記記録の閉鎖等,0,2024-11-15,2024-11-07,株式会社東駒屋,,株式会社,愛知県,豊橋市,二川町字新橋町２２番地,,23,201,4413155,,,2024-11-07,清算の結了等,,,2015-10-05,1,,,,,ヒガシコマヤ,0
215,1190002017444,登記記録の閉鎖等,0,2024-11-15,2024-11-13,日暉通運有限会社,,有限会社,三重県,桑名市,多度町香取８３７番地,,24,205,5110102,,,2024-11-13,清算の結了等,,,2015-10-05,1,,,,,ニッキツウウン,0
248,1290002048727,登記記録の閉鎖等,0,2024-11-15,2024-11-11,有限会社きど,,有限会社,福岡県,久留米市,藤山町１６５１番地６５,,40,203,8300053,,,2024-11-11,清算の結了等,,,2015-10-05,1,,,,,キド,0
253,1310001010049,登記記録の閉鎖等,0,2024-11-15,2024-11-08,株式会社三又建設,,株式会社,長崎県,南島原市,深江町丁６８５９番地１,,42,214,8591504,,,2024-11-08,清算の結了等,,,2015-10-05,1,,,,,ミツマタケンセツ,0
255,1310001013506,登記記録の閉鎖等,0,2024-11-15,2024-11-11,吉福不動産株式会社,,株式会社,長崎県,大村市,本町４６２番地１,,42,205,8560832,,,2024-11-11,清算の結了等,,,2015-10-05,1,,,,,ヨシフクフドウサン,0
257,1330003005284,登記記録の閉鎖等,0,2024-11-15,2024-11-07,合同会社コウエイ開発,,合同会社,熊本県,上益城郡益城町,大字安永６０６番地,,43,443,8612231,,,2024-11-07,清算の結了等,,,2015-10-05,1,,,,,コウエイカイハツ,0
264,1370001040180,登記記録の閉鎖等,0,2024-11-15,2024-11-01,赤間造園土木株式会社,,株式会社,宮城県,仙台市宮城野区,日の出町１丁目３番９号,,04,102,9830035,,,2024-11-01,合併による解散等,3370001042828,令和６年１１月１日仙台市宮城野区日の出町一丁目３番９号株式会社クレア（3370001042828）に合併し解散,2016-09-06,1,,,,,アカマゾウエンドボク,0
273,1390001005256,登記記録の閉鎖等,0,2024-11-15,2024-11-05,株式会社落合通信,,株式会社,山形県,山形市,落合町４６９番地,,06,201,9900075,,,2024-11-05,清算の結了等,,,2015-10-05,1,,,,,オチアイツウシン,0
281,1430005010842,登記記録の閉鎖等,0,2024-11-15,2024-11-12,一般社団法人北海道土木協会,,その他の設立登記法人,北海道,札幌市中央区,北二条西３丁目１番地２１札幌北２条ビル４階,,01,101,0600002,,,2024-11-12,清算の結了等,,,2015-10-05,1,,,,,ホッカイドウドボクキョウカイ,0
283,1470001005413,登記記録の閉鎖等,0,2024-11-15,2024-11-14,株式会社エイブリック,,株式会社,香川県,高松市,香川町大野２４３１番地３,,37,201,7611701,,,2024-11-14,清算の結了等,,,2015-10-05,1,,,,,エイブリック,0
284,2010001012768,登記記録の閉鎖等,0,2024-11-15,2024-11-01,エル・サイエンス株式会社,,株式会社,東京都,中央区,日本橋本町３丁目７番９号,,13,102,1030023,,,2024-11-01,清算の結了等,,,2015-10-05,1,,,,,エルサイエンス,0
285,2010001066772,登記記録の閉鎖等,0,2024-11-15,2024-11-01,株式会社ビデオリサーチインタラクティブ,,株式会社,東京都,千代田区,三番町６番地１７,,13,101,1020075,,,2024-11-01,合併による解散等,5010001055153,令和６年１１月１日東京都千代田区三番町６番地１７株式会社ビデオリサーチ（5010001055153）に合併し解散,2015-10-05,1,,,,,ビデオリサーチインタラクティブ,0
289,2010001124191,登記記録の閉鎖等,0,2024-11-15,2024-11-01,株式会社シオングループ,,株式会社,東京都,千代田区,有楽町２丁目１０番１号,,13,101,1000006,,,2024-11-01,清算の結了等,,,2015-10-05,1,,,,,シオングループ,0
355,2010401136019,登記記録の閉鎖等,0,2024-11-15,2024-10-29,ＵＳＪインターナショナルホールディングス株式会社,,株式会社,東京都,港区,芝浦４丁目１９番１号,,13,103,1080023,,,2024-10-29,清算の結了等,,,2018-01-19,1,,,,,ユーエスジェインターナショナルホールディングス,0
366,2010701024220,登記記録の閉鎖等,0,2024-11-15,2024-11-08,株式会社モールスリー,,株式会社,東京都,品川区,大崎１丁目２番３－２３１０号,,13,109,1410032,,,2024-11-08,清算の結了等,,,2015-10-05,1,,,,,,0
369,2010903002800,登記記録の閉鎖等,0,2024-11-15,2024-11-12,澪合同会社,,合同会社,東京都,豊島区,南大塚２丁目１１－１０ミモザビル３階,,13,116,1700005,,,2024-11-12,清算の結了等,,,2015-10-05,1,,,,,レイ,0
373,2011001118497,登記記録の閉鎖等,0,2024-11-15,2024-10-16,ＨＡＮＫ株式会社,,株式会社,東京都,渋谷区,桜丘町９番１６号,,13,113,1500031,,,2024-10-16,清算の結了等,,,2017-09-26,1,,,,,ハンク,0
376,2011003015882,登記記録の閉鎖等,0,2024-11-15,2024-10-15,合同会社Ｉｄｅａ　Ｈｕｂ,,合同会社,東京都,渋谷区,道玄坂１丁目１０番８号渋谷道玄坂東急ビル２Ｆ－Ｃ,,13,113,1500043,,,2024-10-15,清算の結了等,,,2022-12-09,1,,,,,アイデアハブ,0
404,2012803002533,登記記録の閉鎖等,0,2024-11-15,2024-10-29,合同会社オリンピア,,合同会社,東京都,日野市,大字上田３３９番地の５,,13,212,1910014,,,2024-10-29,清算の結了等,,,2021-07-02,1,,,,,オリンピア,0
414,2020003026501,登記記録の閉鎖等,0,2024-11-15,2024-10-30,和道合同会社,,合同会社,神奈川県,横浜市青葉区,青葉台１丁目１８番地５アネックス青葉台１０２,,14,117,2270062,,,2024-10-30,清算の結了等,,,2024-07-22,1,,,,,ワドウ,0
416,2020005005684,登記記録の閉鎖等,0,2024-11-15,2024-10-30,特定非営利活動法人青葉の樹,,その他の設立登記法人,神奈川県,横浜市青葉区,田奈町４３番地５第２新幸レジデンス田奈２Ｆ,,14,117,2270064,,,2024-10-30,清算の結了等,,,2015-10-05,1,,,,,アオバノキ,0
422,2021002060771,登記記録の閉鎖等,0,2024-11-15,2024-11-14,有限会社クリーニング白ばら,,有限会社,神奈川県,中郡二宮町,中里９１１番地,,14,342,2590131,,,2024-11-14,清算の結了等,,,2015-10-05,1,,,,,,0
427,2030001094838,登記記録の閉鎖等,0,2024-11-15,2024-11-12,株式会社せせらぎねっと,,株式会社,埼玉県,富士見市,大字水子４６６７番地１１,,11,235,3540011,,,2024-11-12,清算の結了等,,,2015-10-05,1,,,,,セセラギネット,0
459,2070001035020,登記記録の閉鎖等,0,2024-11-15,2024-11-12,株式会社Ｓｔｙｌｅ,,株式会社,群馬県,佐波郡玉村町,大字板井１２２５番地２,,10,464,3701135,,,2024-11-12,清算の結了等,,,2018-08-31,1,,,,,スタイル,0
461,2070002027669,登記記録の閉鎖等,0,2024-11-15,2024-11-12,有限会社アイビーコンタクト,,有限会社,群馬県,北群馬郡吉岡町,大字大久保２２４３番地３,,10,345,3703602,,,2024-11-12,清算の結了等,,,2015-10-05,1,,,,,アイビーコンタクト,0
464,2080102018039,登記記録の閉鎖等,0,2024-11-15,2024-11-13,漆畑商事有限会社,,有限会社,静岡県,熱海市,桃山町１５番３０号,,22,205,4130006,,,2024-11-13,清算の結了等,,,2015-10-05,1,,,,,ウルシバタショウジ,0
466,2080402013945,登記記録の閉鎖等,0,2024-11-15,2024-11-05,有限会社松井ネットサービス,,有限会社,静岡県,浜松市中央区,若林町８７７番地の１,,22,138,4328051,,,2024-11-05,合併による解散等,9080401018939,令和６年１１月１日静岡県浜松市中央区下石田町１０１７番地株式会社ＳＰＷ（9080401018939）に合併し解散,2015-10-05,1,,,,,マツイネットサービス,0
476,2120001131508,登記記録の閉鎖等,0,2024-11-15,2024-11-13,株式会社シトラス,,株式会社,大阪府,大阪市阿倍野区,松崎町２丁目８番２６号,,27,119,5450053,,,2024-11-13,清算の結了等,,,2015-10-05,1,,,,,シトラス,0
513,2180001019887,登記記録の閉鎖等,0,2024-11-15,2024-11-06,株式会社サン大晃,,株式会社,愛知県,名古屋市中川区,柳川町１５番１２号,,23,110,4540014,,,2024-11-06,清算の結了等,,,2015-10-05,1,,,,,サンダイコウ,0
515,2180001049067,登記記録の閉鎖等,0,2024-11-15,2024-11-01,株式会社アルメーラ,,株式会社,愛知県,名古屋市名東区,高間町４２３番地,,23,115,4650081,,,2024-11-01,清算の結了等,,,2015-10-05,1,,,,,アルメーラ,0
520,2180002035033,登記記録の閉鎖等,0,2024-11-15,2024-11-05,有限会社ナガイ観光,,有限会社,愛知県,名古屋市守山区,大字上志段味字東谷２１０９番地１０,,23,113,4630001,,,2024-11-05,清算の結了等,,,2015-10-05,1,,,,,ナガイカンコウ,0
524,2180003013211,登記記録の閉鎖等,0,2024-11-15,2024-11-06,村瀬長太郎商店合資会社,,合資会社,愛知県,大府市,吉川町３丁目５６０番地,,23,223,4740046,,,2024-11-06,清算の結了等,,,2015-10-05,1,,,,,ムラセチョウタロウショウテン,0
547,2240002030242,登記記録の閉鎖等,0,2024-11-15,2024-11-12,有限会社中本木工製作所,,有限会社,広島県,三次市,十日市中３丁目１２番３号,,34,209,7280012,,,2024-11-12,清算の結了等,,,2015-10-05,1,,,,,ナカモトモッコウセイサクショ,0
561,2290002002567,登記記録の閉鎖等,0,2024-11-15,2024-10-09,有限会社千隆,,有限会社,福岡県,福岡市南区,花畑３丁目４４番３号,,40,134,8111356,,,2024-10-09,清算の結了等,,,2015-10-05,1,,,,,センリュウ,0
572,2290802013144,登記記録の閉鎖等,0,2024-11-15,2024-11-12,有限会社アイ・エス・ディー,,有限会社,福岡県,北九州市八幡西区,東曲里町７番２１号,,40,109,8060035,,,2024-11-12,清算の結了等,,,2015-10-05,1,,,,,アイエスディー,0
612,3010001017535,登記記録の閉鎖等,0,2024-11-15,2024-11-01,サン・アンド・シイ・コンサルタント株式会社,,株式会社,東京都,中央区,日本橋本町３丁目７番９号,,13,102,1030023,,,2024-11-01,清算の結了等,,,2015-10-05,1,,,,,サンアンドシイコンサルタント,0
628,3010001193343,登記記録の閉鎖等,0,2024-11-15,2024-11-01,Ｓｑｕａｒｅｍｅｌｏｎ　Ｈｏｓｐｉｔａｌｉｔｙ　Ｈｏｌｄｉｎｇｓ日本株式会社,,株式会社,東京都,中央区,日本橋３丁目９番１号日本橋三丁目スクエア１１階,,13,102,1030027,,,2024-11-01,清算の結了等,,,2018-07-17,1,,,,,スクエアメロンホスピタリティーホールディングスニホン,0
655,3010003035790,登記記録の閉鎖等,0,2024-11-15,2024-11-01,合同会社ＡＬＥＲＯ６１,,合同会社,東京都,千代田区,神田錦町１丁目２１番１号,,13,101,1010054,,,2024-11-01,清算の結了等,,,2021-09-10,1,,,,,アレーロシックスティーワン,0
675,3010701021943,登記記録の閉鎖等,0,2024-11-15,2024-10-29,株式会社ウォレック,,株式会社,東京都,西東京市,田無町７丁目２番６号ミ・アネーロ１１２号,,13,229,1880011,,,2024-10-29,清算の結了等,,,2015-10-05,1,,,,,ウォレック,0
678,3010705003260,登記記録の閉鎖等,0,2024-11-15,2024-11-08,一般社団法人アートグローブ協会,,その他の設立登記法人,東京都,品川区,西五反田５丁目１２番３号,,13,109,1410031,,,2024-11-08,清算の結了等,,,2021-08-17,1,,,,,アートグローブキョウカイ,0
681,3010901031585,登記記録の閉鎖等,0,2024-11-15,2024-11-06,スピアインターナショナル株式会社,,株式会社,東京都,世田谷区,玉川３丁目２０番２号マノア玉川第３ビル５０１,,13,112,1580094,,,2024-11-06,清算の結了等,,,2015-10-05,1,,,,,スピアインターナショナル,0
694,3011301026044,登記記録の閉鎖等,0,2024-11-15,2024-11-11,株式会社ＡＸＩＳ,,株式会社,東京都,杉並区,高円寺北２丁目６番４号,,13,115,1660002,,,2024-11-11,清算の結了等,,,2020-07-06,1,,,,,アクシス,0
733,3030001067850,登記記録の閉鎖等,0,2024-11-15,2024-11-12,ＦＧＫ株式会社,,株式会社,埼玉県,春日部市,谷原１丁目２番地１,,11,214,3440065,,,2024-11-12,合併による解散等,4010401086988,令和６年１１月１日東京都渋谷区恵比寿西二丁目８番１０号オリックス恵比寿西ビル４階株式会社レトロミーム（4010401086988）に合併し解散,2015-10-05,1,,,,,エフジーケー,0
738,3030002030485,登記記録の閉鎖等,0,2024-11-15,2024-11-12,有限会社中島商会,,有限会社,埼玉県,所沢市,所沢新町２４４２番地の２,,11,208,3590006,,,2024-11-12,清算の結了等,,,2015-10-05,1,,,,,ナカジマショウカイ,0
766,3080003002099,登記記録の閉鎖等,0,2024-11-15,2024-11-11,合同会社三十丸,,合同会社,静岡県,静岡市葵区,田町１丁目４２番地の１２,,22,101,4200068,,,2024-11-11,清算の結了等,,,2018-04-06,1,,,,,サンジュウマル,0
767,3080102001381,登記記録の閉鎖等,0,2024-11-15,2024-11-14,有限会社サンコー,,有限会社,静岡県,沼津市,上香貫三貫地１２３３番地,,22,203,4100813,,,2024-11-14,清算の結了等,,,2015-10-05,1,,,,,,0
791,3122001006985,登記記録の閉鎖等,0,2024-11-15,2024-11-13,株式会社マルナカ酒販,,株式会社,大阪府,東大阪市,花園東町１丁目１３番２２号,,27,227,5780931,,,2024-11-13,清算の結了等,,,2015-10-05,1,,,,,マルナカシュハン,0
804,3140005014978,登記記録の閉鎖等,0,2024-11-15,2024-11-13,医療法人社団知温会,,その他の設立登記法人,兵庫県,姫路市,御国野町国分寺８２８番地,,28,201,6710234,,,2024-11-13,清算の結了等,,,2015-10-05,1,,,,,チオンカイ,0
809,3180001073735,登記記録の閉鎖等,0,2024-11-15,2024-11-01,株式会社岩佐商店,,株式会社,愛知県,春日井市,旭町４丁目４７番地,,23,206,4860929,,,2024-11-01,清算の結了等,,,2015-10-05,1,,,,,イワサショウテン,0
815,3180003025478,登記記録の閉鎖等,0,2024-11-15,2024-11-06,ＭＥパートナー合同会社,,合同会社,愛知県,名古屋市中区,栄３丁目２番３号名古屋日興証券ビル４階,,23,106,4600008,,,2024-11-06,清算の結了等,,,2023-07-12,1,,,,,エムイーパートナー,0
822,3190003003755,登記記録の閉鎖等,0,2024-11-15,2024-11-08,合同会社Ｐｌｕｓ　Ｏｎｅ,,合同会社,三重県,四日市市,下之宮町１６７番地１アドバンスＢ－１０１,,24,202,5108028,,,2024-11-08,清算の結了等,,,2021-09-07,1,,,,,プラスワン,0
833,3240001049852,登記記録の閉鎖等,0,2024-11-15,2024-11-11,株式会社Ｅｉｓｈｏ－Ｊａｐａｎ,,株式会社,広島県,東広島市,八本松町米満１１２９番地１,,34,212,7390133,,,2024-11-11,清算の結了等,,,2016-08-30,1,,,,,エイショージャパン,0
838,3290001015841,登記記録の閉鎖等,0,2024-11-15,2024-10-09,株式会社花田モータース,,株式会社,福岡県,福岡市博多区,奈良屋町９番１８号,,40,132,8120023,,,2024-10-09,清算の結了等,,,2015-10-05,1,,,,,ハナダモータース,0
842,3290001065589,登記記録の閉鎖等,0,2024-11-15,2024-11-05,ファーマーズ株式会社,,株式会社,岡山県,倉敷市,阿知１丁目７番２号くらしきシティプラザ西ビル７階０１号室,,33,202,7100055,,,2024-11-05,合併による解散等,7240001051730,令和６年１０月１日岡山県倉敷市阿知一丁目７番２号くらしきシティプラザ西ビル７０１号ファーマーズホールディングス株式会社（7240001051730）に合併し解散,2015-10-05,1,,,,,ファーマーズ,0
887,3390002012472,登記記録の閉鎖等,0,2024-11-15,2024-11-05,有限会社東北山陽,,有限会社,山形県,尾花沢市,大字延沢１０８１番地の１,,06,212,9994441,,,2024-11-05,清算の結了等,,,2015-10-05,1,,,,,トウホクサンヨウ,0
891,3420001006884,登記記録の閉鎖等,0,2024-11-15,2024-11-12,長根建設株式会社,,株式会社,青森県,三戸郡階上町,大字晴山沢字長根５番地,,02,446,0391205,,,2024-11-12,清算の結了等,,,2015-10-05,1,,,,,ナガネケンセツ,0
894,3430002018572,登記記録の閉鎖等,0,2024-11-15,2024-11-11,有限会社本間樹脂,,有限会社,北海道,札幌市北区,新川二条５丁目３番１号,,01,102,0010922,,,2024-11-11,清算の結了等,,,2015-10-05,1,,,,,ホンマジュシ,0
898,3470001016689,登記記録の閉鎖等,0,2024-11-15,2024-11-12,株式会社タロー’ｓ　ｋｉｔｃｈｅｎ,,株式会社,香川県,高松市,サンポート２番１号マリタイムプラザ高松２Ｆ,,37,201,7600019,,,2024-11-12,清算の結了等,,,2018-01-17,1,,,,,,0
899,3470002012489,登記記録の閉鎖等,0,2024-11-15,2024-11-12,有限会社横山エンジニアリングサービス,,有限会社,香川県,丸亀市,山北町４３２番地２,,37,202,7630072,,,2024-11-12,清算の結了等,,,2015-10-05,1,,,,,ヨコヤマエンジニアリングサービス,0
929,4010001240755,登記記録の閉鎖等,0,2024-11-15,2024-11-01,株式会社ＧＢリース,,株式会社,東京都,千代田区,九段南１丁目６番５号九段会館テラス２階,,13,101,1020074,,,2024-11-01,清算の結了等,,,2023-12-12,1,,,,,ジービーリース,0
979,4011005006275,登記記録の閉鎖等,0,2024-11-15,2024-10-18,一般社団法人経理革新プロジェクト,,その他の設立登記法人,東京都,渋谷区,神南１丁目１２番１４号,,13,113,1500041,,,2024-10-18,清算の結了等,,,2015-10-05,1,,,,,ケイリカクシンプロジェクト,0
996,4012401005110,登記記録の閉鎖等,0,2024-11-15,2024-11-14,丸三工業株式会社,,株式会社,東京都,調布市,深大寺元町４丁目３６番地５,,13,208,1820017,,,2024-11-14,清算の結了等,,,2015-10-05,1,,,,,マルサンコウギョウ,0
998,4012701016311,登記記録の閉鎖等,0,2024-11-15,2024-10-31,株式会社スリーオーシャン,,株式会社,東京都,東久留米市,南沢１丁目５番１１号,,13,222,2030023,,,2024-10-31,清算の結了等,,,2021-02-10,1,,,,,スリーオーシャン,0
1014,4020002046184,登記記録の閉鎖等,0,2024-11-15,2024-10-29,有限会社新井自動車整備工業所,,有限会社,神奈川県,横浜市栄区,上郷町１２０番地の１,,14,115,2470013,,,2024-10-29,清算の結了等,,,2015-10-05,1,,,,,アライジドウシャセイビコウギョウショ,0
1015,4020002105337,登記記録の閉鎖等,0,2024-11-15,2024-10-30,有限会社平安座,,有限会社,神奈川県,川崎市川崎区,浜町２丁目２２番９－４０１号,,14,131,2100851,,,2024-10-30,清算の結了等,,,2015-10-05,1,,,,,ヘイアンザ,0
1038,4040001021351,登記記録の閉鎖等,0,2024-11-15,2024-11-11,ＮＳガルバ株式会社,,株式会社,千葉県,八千代市,大和田新田６７２番地１,,12,221,2760046,,,2024-11-11,清算の結了等,,,2015-10-05,1,,,,,エヌエスガルバ,0
1065,4080101022394,登記記録の閉鎖等,0,2024-11-15,2024-10-31,株式会社ロールウエスト,,株式会社,静岡県,伊豆市,八木沢１６８９番地,,22,222,4103303,,,2024-10-31,合併による解散等,3080102008848,令和６年１０月１７日静岡県伊豆市八木沢字上野１６８９番地株式会社ウエストクリエイティブ（3080102008848）に合併し解散,2021-03-24,1,,,,,ロールウエスト,0
1086,4120001116977,登記記録の閉鎖等,0,2024-11-15,2024-11-12,株式会社翔エンタープライズ,,株式会社,大阪府,貝塚市,森５３２番地,,27,208,5970044,,,2024-11-12,清算の結了等,,,2015-10-05,1,,,,,ショウエンタープライズ,0
1094,4120002078028,登記記録の閉鎖等,0,2024-11-15,2024-11-14,有限会社いまの,,有限会社,大阪府,守口市,八雲東町２丁目８２番２１－１４１２号,,27,209,5700021,,,2024-11-14,清算の結了等,,,2015-10-05,1,,,,,イマノ,0
1129,4180001071622,登記記録の閉鎖等,0,2024-11-15,2024-10-29,株式会社アッシュエンジニアリング,,株式会社,愛知県,名古屋市中村区,千成通５丁目１４番地,,23,105,4530818,,,2024-10-29,清算の結了等,,,2015-10-05,1,,,,,アッシュエンジニアリング,0
1131,4180001118340,登記記録の閉鎖等,0,2024-11-15,2024-11-01,株式会社デイスタック,,株式会社,愛知県,大府市,柊山町８丁目５３番地の２,,23,223,4740053,,,2024-11-01,合併による解散等,3180001100480,令和６年１１月１日愛知県大府市柊山町八丁目５３番地の２株式会社クオーレ（3180001100480）に合併し解散,2015-10-05,1,,,,,デイスタック,0
1142,4180302003225,登記記録の閉鎖等,0,2024-11-15,2024-11-08,料亭日進有限会社,,有限会社,愛知県,岡崎市,板屋町２２０番地８,,23,202,4440053,,,2024-11-08,清算の結了等,,,2015-10-05,1,,,,,リョウテイニッシン,0
1143,4180302021342,登記記録の閉鎖等,0,2024-11-15,2024-11-08,有限会社居酒屋元禄,,有限会社,愛知県,豊田市,元城町４丁目７０番地２,,23,211,4710024,,,2024-11-08,清算の結了等,,,2015-10-05,1,,,,,イザカヤゲンロク,0
1162,4260001029579,登記記録の閉鎖等,0,2024-11-15,2024-11-13,株式会社ゆずき,,株式会社,岡山県,岡山市北区,野殿東町３番２５号,,33,101,7000065,,,2024-11-13,合併による解散等,8240001043289,令和６年１１月１日広島県尾道市平原二丁目５９番地１株式会社平原（8240001043289）に合併し解散,2016-05-18,1,,,,,,0
1189,4310002012925,登記記録の閉鎖等,0,2024-11-15,2024-11-08,有限会社山口オート商会,,有限会社,長崎県,佐世保市,大塔町１７４６番地２,,42,202,8571161,,,2024-11-08,清算の結了等,,,2015-10-05,1,,,,,ヤマグチオートショウカイ,0
1194,4340001004152,登記記録の閉鎖等,0,2024-11-15,2024-11-11,水口建設株式会社,,株式会社,鹿児島県,鹿児島市,宇宿３丁目２８番１５号,,46,201,8900073,,,2024-11-11,清算の結了等,,,2015-10-05,1,,,,,ミズグチケンセツ,0
1208,4370601000275,登記記録の閉鎖等,0,2024-11-15,2024-11-01,三幸歯車工業株式会社,,株式会社,宮城県,宮城郡利府町,飯土井字長者前３２番地,,04,406,9810113,,,2024-11-01,清算の結了等,,,2015-10-05,1,,,,,サンコウハグルマ,0
1211,4390002010582,登記記録の閉鎖等,0,2024-11-15,2024-11-06,有限会社ＤＥＳＩＧＮ　ＣＲＯＳＳ,,有限会社,山形県,鶴岡市,美原町６番２０号,,06,203,9970826,,,2024-11-06,清算の結了等,,,2015-10-05,1,,,,,デザインクロス,0
1216,4420001005150,登記記録の閉鎖等,0,2024-11-15,2024-11-12,株式会社大東会館ホールディングス,,株式会社,青森県,青森市,新町１丁目９番１６号,,02,201,0300801,,,2024-11-12,清算の結了等,,,2015-10-05,1,,,,,ダイトウカイカンホールディングス,0
1222,4470002019285,登記記録の閉鎖等,0,2024-11-15,2024-11-11,有限会社川崎製麺所,00005566,有限会社,香川県,小豆郡小豆島町,安田甲８３５番地２,,37,324,7614411,,,2024-11-11,清算の結了等,,,2015-10-05,1,,,,,カワサキセイメンショ,0
1233,5010001121624,登記記録の閉鎖等,0,2024-11-15,2024-11-01,株式会社ＩＣＨＩＢＡＮ館,,株式会社,東京都,千代田区,一番町１０番地８,,13,101,1020082,,,2024-11-01,清算の結了等,,,2015-10-05,1,,,,,イチバンカン,0
1250,5010001187087,登記記録の閉鎖等,0,2024-11-15,2024-11-01,株式会社アックス,,株式会社,東京都,千代田区,永田町２丁目１１番１号,,13,101,1000014,,,2024-11-01,清算の結了等,,,2017-10-23,1,,,,,アックス,0
1256,5010001224328,登記記録の閉鎖等,0,2024-11-15,2024-10-31,株式会社ティーバース,,株式会社,東京都,千代田区,神田佐久間町３丁目３８番地第５東ビル５Ｆ,,13,101,1010025,,,2024-10-31,清算の結了等,,,2022-02-04,1,,,,,ティーバース,0
1299,5011001105872,登記記録の閉鎖等,0,2024-11-15,2024-11-11,オコマリ株式会社,,株式会社,東京都,新宿区,新宿２丁目１６番６号,,13,104,1600022,,,2024-11-11,合併による解散等,3010401088283,令和６年１０月３１日東京都新宿区新宿二丁目１６番６号株式会社デザインワン・ジャパン（3010401088283）に合併し解散,2015-10-05,1,,,,,オコマリ,0
1323,5011801037373,登記記録の閉鎖等,0,2024-11-15,2024-11-11,サンマテリアル株式会社,,株式会社,東京都,足立区,千住旭町３８番１号,,13,121,1200026,,,2024-11-11,清算の結了等,,,2020-03-06,1,,,,,サンマテリアル,0
1339,5013301051359,登記記録の閉鎖等,0,2024-11-15,2024-10-31,株式会社ＭＨＣ,,株式会社,東京都,文京区,本駒込２丁目２０番７－６０２号,,13,105,1130021,,,2024-10-31,清算の結了等,,,2023-09-19,1,,,,,エムエイチシー,0
1343,5020001050839,登記記録の閉鎖等,0,2024-11-15,2024-11-07,株式会社インフォニッチ,,株式会社,神奈川県,横浜市港北区,樽町２丁目７番４８号,,14,109,2220001,,,2024-11-07,清算の結了等,,,2015-10-05,1,,,,,インフォニッチ,0
1383,5040001063153,登記記録の閉鎖等,0,2024-11-15,2024-11-11,Ｄ・Ｙ　ＥＸＰＲＥＳＳ株式会社,,株式会社,千葉県,山武郡芝山町,岩山２０５番地２,,12,409,2891608,,,2024-11-11,清算の結了等,,,2015-10-05,1,,,,,ディワイエキスプレス,0
1392,5050001051207,登記記録の閉鎖等,0,2024-11-15,2024-11-07,株式会社ＳＳＹＳ,,株式会社,茨城県,つくば市,学園の森２丁目１１番地６,,08,220,3050816,,,2024-11-07,清算の結了等,,,2022-06-08,1,,,,,エスシス,0
1396,5060002012132,登記記録の閉鎖等,0,2024-11-15,2024-11-07,有限会社ヤマデン,,有限会社,栃木県,宇都宮市,中里町２１８番地２,,09,201,3210414,,,2024-11-07,清算の結了等,,,2015-10-05,1,,,,,ヤマデン,0
1398,5060005001628,登記記録の閉鎖等,0,2024-11-15,2024-11-11,高根沢町繊維製品商業協同組合,,その他の設立登記法人,栃木県,塩谷郡高根沢町,大字宝積寺２３８３番地２６,,09,386,3291233,,,2024-11-11,清算の結了等,,,2015-10-05,1,,,,,タカネザワマチセンイセイヒンショウギョウ,0
1420,5120001014701,登記記録の閉鎖等,0,2024-11-15,2024-11-13,近菱陸送株式会社,,株式会社,大阪府,大阪市城東区,中央１丁目６番７号,,27,118,5360005,,,2024-11-13,清算の結了等,,,2015-10-05,1,,,,,キンリョウリクソウ,0
1439,5122001034968,登記記録の閉鎖等,0,2024-11-15,2024-11-13,株式会社リマジン,,株式会社,大阪府,大東市,氷野３丁目１２番１９号,,27,218,5740062,,,2024-11-13,清算の結了等,,,2021-07-06,1,,,,,リマジン,0
1458,5140002056220,登記記録の閉鎖等,0,2024-11-15,2024-11-11,有限会社キムズエンタープライズ,,有限会社,兵庫県,西宮市,甲風園１丁目１５番１８号,,28,204,6620832,,,2024-11-11,清算の結了等,,,2015-10-05,1,,,,,キムズエンタープライズ,0
1466,5180001153353,登記記録の閉鎖等,0,2024-11-15,2024-11-05,株式会社ＫＳ,,株式会社,愛知県,愛西市,諸桑町西浦３４番地３,,23,232,4968005,,,2024-11-05,清算の結了等,,,2022-10-12,1,,,,,ケーエス,0
1469,5180301010196,登記記録の閉鎖等,0,2024-11-15,2024-11-07,株式会社ホウジツ,,株式会社,愛知県,豊川市,大橋町３丁目１９番地,,23,207,4420809,,,2024-11-07,清算の結了等,,,2015-10-05,1,,,,,ホウジツ,0
1487,5260001033324,登記記録の閉鎖等,0,2024-11-15,2024-11-05,ファーマーズスタープランニング株式会社,,株式会社,岡山県,倉敷市,阿知１丁目７番２号くらしきシティプラザ西ビル７階０１号室,,33,202,7100055,,,2024-11-05,合併による解散等,7240001051730,令和６年９月２０日岡山県倉敷市阿知一丁目７番２号くらしきシティプラザ西ビル７０１号ファーマーズホールディングス株式会社（7240001051730）に合併し解散,2019-07-09,1,,,,,ファーマーズスタープランニング,0
1514,5330001026139,登記記録の閉鎖等,0,2024-11-15,2024-11-11,株式会社まつい,,株式会社,熊本県,熊本市西区,春日７丁目２番５２号,,43,103,8600047,,,2024-11-11,清算の結了等,,,2019-03-05,1,,,,,マツイ,0
1537,5390002011423,登記記録の閉鎖等,0,2024-11-15,2024-11-06,有限会社ソウシン設備工業,,有限会社,山形県,新庄市,大字福田９０５番地の１,,06,205,9960053,,,2024-11-06,清算の結了等,,,2015-10-05,1,,,,,ソウシンセツビコウギョウ,0
1540,5420005002572,登記記録の閉鎖等,0,2024-11-15,2024-11-08,三八地域構造物処理リサイクル事業協同組合,,その他の設立登記法人,青森県,八戸市,類家４丁目２番２６号,,02,203,0310001,,,2024-11-08,清算の結了等,,,2015-10-05,1,,,,,サンパチチイキコウゾウブツショリリサイクルジギョウ,0
1543,5450001010403,登記記録の閉鎖等,0,2024-11-15,2024-11-13,株式会社愛恵育場,,株式会社,北海道,旭川市,神居二条４丁目２番１４号,,01,204,0708012,,,2024-11-13,清算の結了等,,,2015-10-05,1,,,,,アイケイイクジョウ,0
1549,6010001086684,登記記録の閉鎖等,0,2024-11-15,2024-11-07,株式会社プロリンク,,株式会社,東京都,千代田区,神田佐久間町１丁目１１番地,,13,101,1010025,,,2024-11-07,合併による解散等,7010001019206,令和６年１１月１日東京都千代田区神田佐久間町一丁目１１番地株式会社ジャパンコンピューターサービス（7010001019206）に合併し解散,2015-10-05,1,,,,,プロリンク,0
1550,6010001154037,登記記録の閉鎖等,0,2024-11-15,2024-11-07,Ｇｌｏｂａｌ　ｉｍｐｏｒｔｅｒ株式会社,,株式会社,東京都,台東区,浅草橋１丁目３２番６号コスモス浅草橋酒井ビル７Ｆ,,13,106,1110053,,,2024-11-07,清算の結了等,,,2015-10-05,1,,,,,グローバルインポーター,0
1618,6011005001415,登記記録の閉鎖等,0,2024-11-15,2024-11-08,特定非営利活動法人四條司家食文化協会,,その他の設立登記法人,東京都,千代田区,九段南１丁目６番５号九段会館テラス,,13,101,1020074,,,2024-11-08,清算の結了等,,,2015-10-05,1,,,,,シジョウツカサケショクブンカキョウカイ,0
1636,6011802010972,登記記録の閉鎖等,0,2024-11-15,2024-11-11,有限会社荻野商店,,有限会社,東京都,足立区,千住３丁目５６番地,,13,121,1200034,,,2024-11-11,清算の結了等,,,2015-10-05,1,,,,,オギノショウテン,0
1639,6012401039817,登記記録の閉鎖等,0,2024-11-15,2024-11-01,株式会社シルバーバックス,,株式会社,東京都,中央区,日本橋茅場町２丁目１番７号,,13,102,1030025,,,2024-11-01,清算の結了等,,,2022-11-04,1,,,,,シルバーバックス,0
1662,6030001095287,登記記録の閉鎖等,0,2024-11-15,2024-11-13,Ｚ・Ｓ・Ｚ株式会社,,株式会社,東京都,北区,赤羽１丁目６０番３号,,13,117,1150045,,,2024-11-13,清算の結了等,,,2015-10-05,1,,,,,ゼットエスゼット,0
1664,6030001143566,登記記録の閉鎖等,0,2024-11-15,2024-11-12,株式会社明石事務所,,株式会社,埼玉県,秩父市,相生町１５番２２号,,11,207,3680026,,,2024-11-12,清算の結了等,,,2021-07-30,1,,,,,アカシジムショ,0
1676,6040001063053,登記記録の閉鎖等,0,2024-11-15,2024-11-08,株式会社エイコー,,株式会社,千葉県,銚子市,東小川町２４２１番地１,,12,202,2880032,,,2024-11-08,清算の結了等,,,2015-10-05,1,,,,,エイコー,0
1691,6070002019885,登記記録の閉鎖等,0,2024-11-15,2024-11-13,有限会社メックス,,有限会社,群馬県,伊勢崎市,東小保方町３０４２番地６,,10,204,3792234,,,2024-11-13,清算の結了等,,,2015-10-05,1,,,,,メックス,0
1695,6080002009373,登記記録の閉鎖等,0,2024-11-15,2024-11-08,有限会社エス・ゴールフーズ,,有限会社,静岡県,静岡市清水区,中矢部町１９番８号,,22,103,4240854,,,2024-11-08,清算の結了等,,,2015-10-05,1,,,,,,0
1696,6080101003252,登記記録の閉鎖等,0,2024-11-15,2024-11-14,株式会社ＳＥテクノ,,株式会社,静岡県,沼津市,上香貫三貫地１２３３番地,,22,203,4100813,,,2024-11-14,清算の結了等,,,2015-10-05,1,,,,,,0
1697,6080102015321,登記記録の閉鎖等,0,2024-11-15,2024-11-14,山本製作所有限会社,,有限会社,静岡県,富士市,厚原６０１番地の２,,22,210,4190201,,,2024-11-14,清算の結了等,,,2015-10-05,1,,,,,ヤマモトセイサクショ,0
1700,6080402016003,登記記録の閉鎖等,0,2024-11-15,2024-11-08,有限会社森下塗装,,有限会社,静岡県,浜松市浜名区,細江町中川５５３０番地,,22,139,4311304,,,2024-11-08,清算の結了等,,,2015-10-05,1,,,,,モリシタトソウ,0
1701,6090002007938,登記記録の閉鎖等,0,2024-11-15,2024-11-08,有限会社アルピナ,,有限会社,山梨県,甲府市,大里町２３３０番地１,,19,201,4000053,,,2024-11-08,清算の結了等,,,2015-10-05,1,,,,,アルピナ,0
1706,6110002002787,登記記録の閉鎖等,0,2024-11-15,2024-11-08,有限会社三星メンテナンス,,有限会社,新潟県,新潟市西区,五十嵐１の町６６７６番地７,,15,107,9502101,,,2024-11-08,清算の結了等,,,2015-10-05,1,,,,,サンセイメンテナンス,0
1707,6110003005129,登記記録の閉鎖等,0,2024-11-15,2024-11-07,合同会社Ａ．Ｃｈｏｉｃｅ,,合同会社,新潟県,長岡市,鉢伏町３０３番地６,,15,202,9400842,,,2024-11-07,清算の結了等,,,2023-08-10,1,,,,,エーチョイス,0
1714,6120001160131,登記記録の閉鎖等,0,2024-11-15,2024-11-11,ＡＯＫ－Ｆａｍｉｌｙ株式会社,,株式会社,大阪府,門真市,舟田町２１番６号,,27,223,5710021,,,2024-11-11,清算の結了等,,,2015-10-05,1,,,,,エイオウケイファミリィ,0
1727,6120002012868,登記記録の閉鎖等,0,2024-11-15,2024-11-13,有限会社ケントク総合サービス,,有限会社,大阪府,大阪市天王寺区,堀越町１０番１６号,,27,109,5430056,,,2024-11-13,清算の結了等,,,2015-10-05,1,,,,,ケントクソウゴウサービス,0
1730,6130001004790,登記記録の閉鎖等,0,2024-11-15,2024-11-05,株式会社さくらんぼ,,株式会社,京都府,京都市北区,北野西白梅町６番地の１,,26,101,6038327,,,2024-11-05,合併による解散等,2130001025832,令和６年１０月２９日京都市北区北野西白梅町６番地の１株式会社Ｙｏｕインターナショナル（2130001025832）に合併し解散,2015-10-05,1,,,,,サクランボ,0
1740,6140001069627,登記記録の閉鎖等,0,2024-11-15,2024-11-11,株式会社中川組,,株式会社,兵庫県,西宮市,門戸荘１５番６号,,28,204,6620825,,,2024-11-11,清算の結了等,,,2015-10-05,1,,,,,ナカガワグミ,0
1746,6140005024553,登記記録の閉鎖等,0,2024-11-15,2024-10-18,特定非営利活動法人Ｃｏｌｌｅｃｔｉｖｅ　ｆｏｒ　Ｃｈｉｌｄｒｅｎ,,その他の設立登記法人,兵庫県,尼崎市,東園田町３丁目３１番地３,,28,202,6610953,,,2024-10-18,清算の結了等,,,2019-04-03,1,,,,,コレクティブフォーチルドレン,0
1766,6190001013126,登記記録の閉鎖等,0,2024-11-15,2024-11-06,三輪縫製株式会社,,株式会社,三重県,いなべ市,藤原町川合１０６６番地１,,24,214,5110504,,,2024-11-06,清算の結了等,,,2015-10-05,1,,,,,ミワホウセイ,0
1788,6240001014135,登記記録の閉鎖等,0,2024-11-15,2024-11-12,株式会社宮森建材工業所,,株式会社,広島県,広島市中区,東平塚町１番１号,,34,101,7300025,,,2024-11-12,清算の結了等,,,2015-10-05,1,,,,,ミヤモリケンザイコウギョウショ,0
1792,6240002039107,登記記録の閉鎖等,0,2024-11-15,2024-11-12,有限会社曙看護婦家政婦紹介所,00001205,有限会社,広島県,福山市,野上町３丁目７番３３号,,34,207,7200815,,,2024-11-12,清算の結了等,,,2015-10-05,1,,,,,アケボノカンゴフカセイフショウカイショ,0
1793,6240002053751,登記記録の閉鎖等,0,2024-11-15,2024-11-13,有限会社三原ヨコハマタイヤサービス,,有限会社,広島県,三原市,古浜１丁目１５番１号,,34,204,7230013,,,2024-11-13,清算の結了等,,,2015-10-05,1,,,,,ミハラヨコハマタイヤサービス,0
1820,6320002002543,登記記録の閉鎖等,0,2024-11-15,2024-11-14,有限会社宏英ゴルフ,,有限会社,大分県,大分市,大字荏隈１２８９番地の５,,44,201,8700889,,,2024-11-14,清算の結了等,,,2015-10-05,1,,,,,コーエイゴルフ,0
1832,6370001004825,登記記録の閉鎖等,0,2024-11-15,2024-11-07,小野メインテナンスサービス株式会社,,株式会社,宮城県,仙台市宮城野区,新田４丁目９番３０号小畑第２マンション２０１号,,04,102,9830038,,,2024-11-07,清算の結了等,,,2015-10-05,1,,,,,オノメインテナンスサービス,0
1836,6370002016381,登記記録の閉鎖等,0,2024-11-15,2024-11-06,有限会社三都,,有限会社,宮城県,仙台市青葉区,一番町３丁目５番２７号,,04,101,9800811,,,2024-11-06,清算の結了等,,,2015-10-05,1,,,,,サント,0
1845,6390002006629,登記記録の閉鎖等,0,2024-11-15,2024-11-06,有限会社セイワ商事,,有限会社,山形県,山形市,飯塚町１４３番地,,06,201,9900845,,,2024-11-06,清算の結了等,,,2015-10-05,1,,,,,セイワショウジ,0
1867,6470001017478,登記記録の閉鎖等,0,2024-11-15,2024-11-14,ＵＤＮ株式会社,,株式会社,香川県,綾歌郡綾川町,西分１３８２－１,,37,387,7612206,,,2024-11-14,清算の結了等,,,2019-06-03,1,,,,,ユーディーエヌ,0
1872,7010001067460,登記記録の閉鎖等,0,2024-11-15,2024-11-01,株式会社三春,,株式会社,東京都,中央区,銀座３丁目５番１２号,,13,102,1040061,,,2024-11-01,合併による解散等,8010001044855,令和６年１１月１日東京都中央区銀座三丁目５番１２号株式会社ギンザのサヱグサ（8010001044855）に合併し解散,2015-10-05,1,,,,,サンシュン,0
1873,7010001068046,登記記録の閉鎖等,0,2024-11-15,2024-11-01,ドットケム株式会社,,株式会社,東京都,中央区,日本橋本町４丁目８番１７号,,13,102,1030023,,,2024-11-01,清算の結了等,,,2015-10-05,1,,,,,ドットケム,0
1940,7010401125198,登記記録の閉鎖等,0,2024-11-15,2024-09-09,自分年金コンサルティング株式会社,,株式会社,東京都,千代田区,大手町１丁目５－１,,13,101,1000004,,,2024-09-09,合併による解散等,1010401059518,令和６年８月３０日東京都千代田区大手町一丁目５－１あゆみトラスト・ホールディングス株式会社（1010401059518）に合併し解散,2016-06-06,1,,,,,ジブンネンキンコンサルティング,0
1970,7011003006274,登記記録の閉鎖等,0,2024-11-15,2024-11-06,ブレット・プルーフ・ネオ合同会社,,合同会社,東京都,渋谷区,代官山町２０番９号,,13,113,1500034,,,2024-11-06,清算の結了等,,,2015-10-06,1,,,,,ブレットプルーフネオ,0
1976,7011101105928,登記記録の閉鎖等,0,2024-11-15,2024-10-30,Ｆｅｍｉｏｎ株式会社,,株式会社,東京都,港区,虎ノ門４丁目１番１号神谷町トラストタワー２３階,,13,103,1050001,,,2024-10-30,清算の結了等,,,2024-01-26,1,,,,,フェミオン,0
1989,7011702017357,登記記録の閉鎖等,0,2024-11-15,2024-11-14,有限会社ＲＩＮＮＥ,,有限会社,東京都,江戸川区,平井７丁目３１番１４号,,13,123,1320035,,,2024-11-14,清算の結了等,,,2015-10-05,1,,,,,リンネ,0
2007,7020001003101,登記記録の閉鎖等,0,2024-11-15,2024-10-30,田中産商株式会社,,株式会社,神奈川県,横浜市磯子区,森５丁目１９番１７号,,14,107,2350023,,,2024-10-30,清算の結了等,,,2015-10-05,1,,,,,タナカサンショウ,0
2038,7060001009012,登記記録の閉鎖等,0,2024-11-15,2024-11-06,株式会社栃木ユナイテッド,,株式会社,栃木県,日光市,松原町１７番地１,,09,206,3211406,,,2024-11-06,清算の結了等,,,2015-10-05,1,,,,,トチギユナイテッド,0
2040,7070001012915,登記記録の閉鎖等,0,2024-11-15,2024-11-12,新建工業株式会社,,株式会社,群馬県,藤岡市,東平井１１４８番地,,10,209,3750043,,,2024-11-12,清算の結了等,,,2015-10-05,1,,,,,シンケンコウギョウ,0
2041,7070001030611,登記記録の閉鎖等,0,2024-11-15,2024-11-13,株式会社Ｋ・ｍｏｄｅ,,株式会社,群馬県,桐生市,相生町５丁目４１１番地の３２,,10,203,3760011,,,2024-11-13,清算の結了等,,,2015-10-05,1,,,,,,0
2048,7080001022459,登記記録の閉鎖等,0,2024-11-15,2024-11-11,株式会社ＯＴＫ,,株式会社,静岡県,静岡市駿河区,寿町６番１８号,,22,102,4228055,,,2024-11-11,清算の結了等,,,2018-10-01,1,,,,,オーティーケー,0
2055,7080102019073,登記記録の閉鎖等,0,2024-11-15,2024-11-05,有限会社Ｓａｒａｓａ,,有限会社,静岡県,伊東市,宇佐美２８３１番地の２,,22,208,4140001,,,2024-11-05,清算の結了等,,,2015-10-05,1,,,,,サラサ,0
2057,7090002012284,登記記録の閉鎖等,0,2024-11-15,2024-11-11,有限会社ティーツーレンタカー,,有限会社,山梨県,南都留郡忍野村,内野４８２番地,,19,424,4010512,,,2024-11-11,清算の結了等,,,2015-10-05,1,,,,,ティーツーレンタカー,0
2061,7120001122816,登記記録の閉鎖等,0,2024-11-15,2024-11-13,アイデンティティー株式会社,,株式会社,大阪府,大阪市都島区,都島本通５丁目１３番３号,,27,102,5340021,,,2024-11-13,清算の結了等,,,2015-10-05,1,,,,,アイデンティティー,0
2065,7120001194789,登記記録の閉鎖等,0,2024-11-15,2024-11-12,株式会社龍昌コーポレーション,,株式会社,大阪府,大阪市住吉区,沢之町１丁目７番２号,,27,120,5580031,,,2024-11-12,清算の結了等,,,2015-12-02,1,,,,,リュウショウコーポレーション,0
2107,7180003025482,登記記録の閉鎖等,0,2024-11-15,2024-11-01,合同会社ＮａｔｕｒａｌＡｌｐｈａ,,合同会社,愛知県,長久手市,仲田１２０１番５,,23,238,4801167,,,2024-11-01,清算の結了等,,,2023-07-10,1,,,,,ナチュラルアルファ,0
2113,7190001021474,登記記録の閉鎖等,0,2024-11-15,2024-11-13,株式会社郷土活性化,,株式会社,三重県,四日市市,諏訪栄町１３番１０号,,24,202,5100086,,,2024-11-13,清算の結了等,,,2015-10-05,1,,,,,キョウドカッセイカ,0
2114,7200003005820,登記記録の閉鎖等,0,2024-11-15,2024-11-13,合同会社ｚｅｒｏＱ,,合同会社,岐阜県,各務原市,鵜沼東町２丁目１６１番地川村ビル１０３号,,21,213,5090126,,,2024-11-13,清算の結了等,,,2023-01-27,1,,,,,ゼロキュー,0
2128,7240002043388,登記記録の閉鎖等,0,2024-11-15,2024-11-13,村上電設有限会社,,有限会社,広島県,福山市,東手城町３丁目７番１８号,,34,207,7210962,,,2024-11-13,清算の結了等,,,2015-10-05,1,,,,,ムラカミデンセツ,0
2142,7290802024566,登記記録の閉鎖等,0,2024-11-15,2024-11-12,有限会社ワイエヌ企画,,有限会社,福岡県,田川市,大字弓削田２１５番地の２,,40,206,8260041,,,2024-11-12,清算の結了等,,,2015-10-05,1,,,,,ワイエヌキカク,0
2148,7310002012435,登記記録の閉鎖等,0,2024-11-15,2024-11-07,有限会社陶芸彩雲窯,,有限会社,長崎県,東彼杵郡波佐見町,村木郷１６１９番地の１,,42,323,8593728,,,2024-11-07,清算の結了等,,,2015-10-05,1,,,,,トウゲイサイウンガマ,0
2150,7330002001816,登記記録の閉鎖等,0,2024-11-15,2024-11-11,有限会社岡田本店染工場,,有限会社,熊本県,熊本市中央区,本荘５丁目１０番４５号,,43,101,8600811,,,2024-11-11,清算の結了等,,,2015-10-05,1,,,,,オカダホンテンソメコウジョウ,0
2183,7420002009180,登記記録の閉鎖等,0,2024-11-15,2024-11-13,有限会社山武運輸,,有限会社,青森県,八戸市,大字白銀町字佐部長根２４番地１１８６,,02,203,0310822,,,2024-11-13,清算の結了等,,,2015-10-05,1,,,,,ヤマタケウンユ,0
2190,7490005001946,登記記録の閉鎖等,0,2024-11-15,2024-11-13,医療法人うえたクリニック,,その他の設立登記法人,高知県,高知市,高＿１３番１４号,00006948,39,201,7800071,,,2024-11-13,清算の結了等,,,2015-10-05,1,,,,,ウエタクリニック,0
2233,8010003038954,登記記録の閉鎖等,0,2024-11-15,2024-11-01,合同会社オルタナ１８,,合同会社,東京都,千代田区,丸の内３丁目１番１号東京共同会計事務所内,,13,101,1000005,,,2024-11-01,清算の結了等,,,2022-11-04,1,,,,,オルタナエイティーン,0
2239,8010005030884,登記記録の閉鎖等,0,2024-11-15,2024-10-25,一般社団法人強羅,,その他の設立登記法人,東京都,千代田区,霞が関３丁目２番５号,,13,101,1000013,,,2024-10-25,清算の結了等,,,2019-10-17,1,,,,,ゴウラ,0
2248,8010405017390,登記記録の閉鎖等,0,2024-11-15,2024-10-29,一般社団法人ＣＮＷ,,その他の設立登記法人,東京都,港区,芝浦４丁目１９番１号,,13,103,1080023,,,2024-10-29,清算の結了等,,,2019-01-25,1,,,,,シーエヌダブリュ,0
2250,8010701023456,登記記録の閉鎖等,0,2024-11-15,2024-11-08,株式会社シーズ,,株式会社,東京都,品川区,荏原１丁目６番６号,,13,109,1420063,,,2024-11-08,清算の結了等,,,2015-10-05,1,,,,,,0
2257,8010902017868,登記記録の閉鎖等,0,2024-11-15,2024-11-14,有限会社幾野デザイン事務所,,有限会社,東京都,三鷹市,野崎１丁目１４番７－２０３号,,13,204,1810014,,,2024-11-14,清算の結了等,,,2015-10-05,1,,,,,イクノデザインジムショ,0
2284,8012301002600,登記記録の閉鎖等,0,2024-11-15,2024-11-06,株式会社山梨工産興業,,株式会社,東京都,町田市,南町田４丁目１番２９号,,13,209,1940005,,,2024-11-06,清算の結了等,,,2015-10-05,1,,,,,ヤマナシコウサンコウギョウ,0
2289,8013102005362,登記記録の閉鎖等,0,2024-11-15,2024-11-12,有限会社オーエス装飾,,有限会社,東京都,西多摩郡瑞穂町,大字高根５３７番地７,,13,303,1901203,,,2024-11-12,清算の結了等,,,2015-10-05,1,,,,,オーエスソウショク,0
2307,8020003014137,登記記録の閉鎖等,0,2024-11-15,2024-11-07,Ｋライン合同会社,,合同会社,神奈川県,横浜市泉区,領家２丁目１２番２号,,14,116,2450004,,,2024-11-07,清算の結了等,,,2018-04-02,1,,,,,ケーライン,0
2314,8030001010186,登記記録の閉鎖等,0,2024-11-15,2024-11-13,株式会社住まいる５コーポレーション,,株式会社,埼玉県,鶴ヶ島市,脚折町２丁目２９番２７号,,11,241,3502211,,,2024-11-13,清算の結了等,,,2015-10-05,1,,,,,スマイルファイブコーポレーション,0
2323,8030002036775,登記記録の閉鎖等,0,2024-11-15,2024-11-11,有限会社ひだまり,,有限会社,埼玉県,入間市,黒須２丁目１４番１５号,,11,225,3580007,,,2024-11-11,清算の結了等,,,2015-10-05,1,,,,,,0
2329,8040001079295,登記記録の閉鎖等,0,2024-11-15,2024-11-11,野中興業株式会社,,株式会社,千葉県,千葉市緑区,高津戸町２９番地９,,12,105,2670053,,,2024-11-11,清算の結了等,,,2015-10-05,1,,,,,ノナカコウギョウ,0
2340,8050001022989,登記記録の閉鎖等,0,2024-11-15,2024-11-05,株式会社魚長水産,,株式会社,茨城県,日立市,鹿島町１丁目１５番１１号,,08,202,3170071,,,2024-11-05,清算の結了等,,,2015-10-05,1,,,,,ウオチョウスイサン,0
2362,8080401020061,登記記録の閉鎖等,0,2024-11-15,2024-11-08,株式会社すたんど,,株式会社,静岡県,袋井市,浅羽１７７３番地の７,,22,216,4371101,,,2024-11-08,清算の結了等,,,2015-10-05,1,,,,,スタンド,0
2371,8120001248065,登記記録の閉鎖等,0,2024-11-15,2024-11-13,ＢＥＯＮ　Ｊａｐａｎ株式会社,,株式会社,大阪府,大阪市東成区,深江北３丁目４番２１号エクラ深江橋７０３Ａ,,27,115,5370001,,,2024-11-13,清算の結了等,,,2022-08-19,1,,,,,ベオンジャパン,0
2384,8120101009474,登記記録の閉鎖等,0,2024-11-15,2024-11-11,株式会社竹野内情報工学研究所,,株式会社,大阪府,高石市,東羽衣５丁目２番２２号,,27,225,5920003,,,2024-11-11,清算の結了等,,,2015-10-05,1,,,,,タケノウチジョウホウコウガクケンキュウショ,0
2389,8120105007482,登記記録の閉鎖等,0,2024-11-15,2024-11-11,特定非営利活動法人岸和田市スポーツ協会,,その他の設立登記法人,大阪府,岸和田市,作才町１丁目７番１５号（岸和田市立中央体育館内）,,27,202,5960826,,,2024-11-11,清算の結了等,,,2015-10-05,1,,,,,キシワダシスポーツキョウカイ,0
2410,8140002067818,登記記録の閉鎖等,0,2024-11-15,2024-11-12,有限会社メディカル・ステージ,,有限会社,兵庫県,宝塚市,伊孑志３丁目２番３０号,,28,214,6650033,,,2024-11-12,清算の結了等,,,2015-10-05,1,,,,,メディカルステージ,0
2416,8180001046703,登記記録の閉鎖等,0,2024-11-15,2024-11-05,株式会社カラーワークス名古屋,,株式会社,愛知県,名古屋市中川区,柳瀬町１丁目１６番１,,23,110,4540903,,,2024-11-05,清算の結了等,,,2015-10-05,1,,,,,カラーワークスナゴヤ,0
2421,8180002081253,登記記録の閉鎖等,0,2024-11-15,2024-11-05,有限会社ホウキョウ,,有限会社,愛知県,稲沢市,桜木２丁目８番６号,,23,220,4928272,,,2024-11-05,清算の結了等,,,2015-10-05,1,,,,,ホウキョウ,0
2422,8180003002431,登記記録の閉鎖等,0,2024-11-15,2024-11-06,合資会社増山自然堂,,合資会社,愛知県,名古屋市東区,筒井３丁目２番２０号,,23,102,4610003,,,2024-11-06,清算の結了等,,,2015-10-05,1,,,,,マスヤマシゼンドウ,0
2428,8200003006124,登記記録の閉鎖等,0,2024-11-15,2024-11-13,合同会社Ｐｉｅｄ　Ｐｉｐｅｒ,,合同会社,岐阜県,美濃加茂市,蜂屋町中蜂屋２８２７番地６,,21,211,5050005,,,2024-11-13,清算の結了等,,,2023-10-25,1,,,,,パイドパイパー,0
2433,8230002001429,登記記録の閉鎖等,0,2024-11-15,2024-11-12,有限会社ジェッツ,,有限会社,富山県,富山市,黒瀬２９８番地の１,,16,201,9398213,,,2024-11-12,清算の結了等,,,2015-10-05,1,,,,,ジェッツ,0
2435,8240003005089,登記記録の閉鎖等,0,2024-11-15,2024-11-12,合同会社ボタン,,合同会社,広島県,呉市,安浦町中央ハイツ２２番２６号,,34,202,7372514,,,2024-11-12,清算の結了等,,,2021-05-11,1,,,,,ボタン,0
2436,8240005012364,登記記録の閉鎖等,0,2024-11-15,2024-11-13,医療法人あけび会,,その他の設立登記法人,広島県,呉市,焼山中央２丁目５番７号クリニックモール　リフレ２Ｆ,,34,202,7370935,,,2024-11-13,清算の結了等,,,2015-10-05,1,,,,,アケビカイ,0
2446,8290002053605,登記記録の閉鎖等,0,2024-11-15,2024-10-07,有限会社田中建材店,,有限会社,福岡県,大川市,大字大野島大角宮前２６７８番地,,40,212,8310045,,,2024-10-07,清算の結了等,,,2015-10-05,1,,,,,タナカケンザイテン,0
2472,8370002018319,登記記録の閉鎖等,0,2024-11-15,2024-11-05,有限会社Ｈａｎｓａ　Ｓｔｕｄｉｏ,,有限会社,東京都,品川区,西五反田１丁目２９番５号,,13,109,1410031,,,2024-11-05,清算の結了等,,,2015-10-05,1,,,,,ハンザスタジオ,0
2481,8380002021024,登記記録の閉鎖等,0,2024-11-15,2024-10-29,有限会社ふくや,,有限会社,福島県,石川郡石川町,字南町７３番地,,07,501,9637859,,,2024-10-29,清算の結了等,,,2015-10-05,1,,,,,フクヤ,0
2528,9010001230990,登記記録の閉鎖等,0,2024-11-15,2024-11-01,ＡＭＩＳジャパン株式会社,,株式会社,東京都,千代田区,飯田橋１丁目７番１０号,,13,101,1020072,,,2024-11-01,合併による解散等,7010001100535,令和６年１１月１日東京都文京区本郷一丁目３４番１号シャリエ本郷２Ｆ株式会社インフォレスタ（7010001100535）に合併し解散,2022-11-22,1,,,,,アミスジャパン,0
2576,9010801014965,登記記録の閉鎖等,0,2024-11-15,2024-11-12,株式会社サンベルティー,,株式会社,東京都,江東区,東雲１丁目９番３１－３９０７号,,13,108,1350062,,,2024-11-12,清算の結了等,,,2015-10-05,1,,,,,サンベルティー,0
2582,9011001155963,登記記録の閉鎖等,0,2024-11-15,2024-10-16,株式会社ＢｒｅａｋＣｏｎｖｅｎｔｉｏｎａｌ,,株式会社,東京都,渋谷区,神宮前６丁目２３番４号桑野ビル２階,,13,113,1500001,,,2024-10-16,清算の結了等,,,2023-08-01,1,,,,,ブレークコンベンショナル,0
2604,9013103001228,登記記録の閉鎖等,0,2024-11-15,2024-11-11,建設業ＫＩＣＯＨ合同会社,,合同会社,東京都,青梅市,東青梅３丁目１７－７サンシャトー東青梅２０２,,13,205,1980042,,,2024-11-11,清算の結了等,,,2023-05-08,1,,,,,ケンセツギョウキコー,0
2612,9020001149685,登記記録の閉鎖等,0,2024-11-15,2024-10-29,株式会社ムクノ,,株式会社,神奈川県,川崎市多摩区,三田２丁目５番地９,,14,135,2140034,,,2024-10-29,清算の結了等,,,2023-01-10,1,,,,,ムクノ,0
2637,9030005020924,登記記録の閉鎖等,0,2024-11-15,2024-11-13,一般社団法人中小企業グローバルビジネス協会,,その他の設立登記法人,埼玉県,さいたま市浦和区,木崎４丁目１５番１７号,,11,107,3300042,,,2024-11-13,清算の結了等,,,2022-07-26,1,,,,,チュウショウキギョウグローバルビジネスキョウカイ,0
2661,9060002021393,登記記録の閉鎖等,0,2024-11-15,2024-11-06,村上商事有限会社,,有限会社,栃木県,鹿沼市,上石川１４８６番地２７,,09,205,3220015,,,2024-11-06,清算の結了等,,,2015-10-05,1,,,,,ムラカミショウジ,0
2665,9080001010817,登記記録の閉鎖等,0,2024-11-15,2024-11-11,株式会社シーマ,,株式会社,静岡県,静岡市駿河区,高松１７７９番地の２,,22,102,4228034,,,2024-11-11,清算の結了等,,,2015-10-05,1,,,,,シーマ,0
2676,9080403002395,登記記録の閉鎖等,0,2024-11-15,2024-11-05,吉田総業合同会社,,合同会社,静岡県,浜松市浜名区,横須賀５７６番地の１,,22,139,4340036,,,2024-11-05,清算の結了等,,,2015-10-05,1,,,,,,0
2689,9120002003113,登記記録の閉鎖等,0,2024-11-15,2024-11-12,サニーサイドアツプ有限会社,,有限会社,大阪府,大阪市阿倍野区,天王寺町南２丁目２３番１８－３０５号,,27,119,5450002,,,2024-11-12,清算の結了等,,,2015-10-05,1,,,,,サニーサイドアツプ,0
2700,9120901001316,登記記録の閉鎖等,0,2024-11-15,2024-11-11,株式会社大生建築事務所,,株式会社,大阪府,茨木市,大池１丁目３番１４号,,27,211,5670826,,,2024-11-11,清算の結了等,,,2015-10-05,1,,,,,ダイキケンチクジムショ,0
2703,9120905005932,登記記録の閉鎖等,0,2024-11-15,2024-11-14,一般財団法人母なる愛やまとのこころ,,その他の設立登記法人,三重県,志摩市,磯部町穴川字松振１４５３番地２,,24,215,5170213,,,2024-11-14,清算の結了等,,,2019-09-18,1,,,,,ハハナルアイヤマトノココロ,0
2747,9290003004382,登記記録の閉鎖等,0,2024-11-15,2024-10-09,合同会社新防災オフィス,,合同会社,福岡県,古賀市,舞の里２丁目２２番１１号,,40,223,8113114,,,2024-10-09,清算の結了等,,,2015-10-05,1,,,,,シンボウサイオフィス,0
2762,9340003000467,登記記録の閉鎖等,0,2024-11-15,2024-11-12,合同会社禅建,,合同会社,鹿児島県,鹿児島市,中山１丁目２番２４号,,46,201,8910108,,,2024-11-12,清算の結了等,,,2015-10-05,1,,,,,ゼンケン,0
2763,9340005002313,登記記録の閉鎖等,0,2024-11-15,2024-11-13,特定非営利活動法人アイロード,,その他の設立登記法人,鹿児島県,鹿児島市,武１丁目３３番１７号,,46,201,8900045,,,2024-11-13,清算の結了等,,,2015-10-05,1,,,,,アイロード,0
2777,9390002006824,登記記録の閉鎖等,0,2024-11-15,2024-11-06,海老名建築工房有限会社,,有限会社,山形県,上山市,仙石１９０２－１,,06,207,9993122,,,2024-11-06,清算の結了等,,,2015-10-05,1,,,,,エビナケンチクコウボウ,0
2782,9420001005501,登記記録の閉鎖等,0,2024-11-15,2024-11-12,株式会社青森県工務店組合事務センター,,株式会社,青森県,八戸市,石堂２丁目２４番２２号,,02,203,0391165,,,2024-11-12,清算の結了等,,,2015-10-05,1,,,,,アオモリケンコウムテンクミアイジムセンター,0
2785,9440001006150,登記記録の閉鎖等,0,2024-11-15,2024-11-13,石井木材株式会社,,株式会社,北海道,茅部郡森町,字駒ケ岳８５番地１,,01,345,0492141,,,2024-11-13,清算の結了等,,,2015-10-05,1,,,,,,0
2788,9450001005647,登記記録の閉鎖等,0,2024-11-15,2024-11-13,株式会社ファームさくら,,株式会社,北海道,旭川市,江丹別町嵐山１７１番地１,,01,204,0708051,,,2024-11-13,清算の結了等,,,2015-10-05,1,,,,,ファームサクラ,0
2792,9480002010370,登記記録の閉鎖等,0,2024-11-15,2024-11-14,有限会社菓匠孔雀,,有限会社,徳島県,鳴門市,撫養町南浜字東浜５６３番地,,36,202,7720003,,,2024-11-14,清算の結了等,,,2015-10-05,1,,,,,カショウクジャク,0
