sequenceNumber,corporateNumber,process,correct,updateDate,changeDate,name,nameImageId,kind,prefectureName,cityName,streetNumber,addressImageId,prefectureCode,cityCode,postCode,addressOutside,addressOutsideImageId,closeDate,closeCause,successorCorporateNumber,changeCause,assignmentDate,latest,enName,enPrefectureName,enCityName,enAddressOutside,furigana,hihyoji
2,1010001012281,登記記録の閉鎖等,0,2022-11-07,2022-10-28,インターフロー・タンクコンテナシステム株式会社,,株式会社,東京都,千代田区,神田錦町３丁目７番地１,,13,101,1010054,,,2022-10-28,清算の結了等,,,2015-10-05,1,,,,,インターフロータンクコンテナシステム,0
7,1010001162878,登記記録の閉鎖等,0,2022-11-07,2022-10-03,トーコーライナーサービス株式会社,,株式会社,東京都,中央区,日本橋室町１丁目８番１０号,,13,102,1030022,,,2022-10-03,合併による解散等,7010001051712,令和４年１０月１日東京都中央区日本橋室町一丁目８番１０号トーコーライナーサービス株式会社（7010001051712）に合併し解散,2015-10-05,1,,,,,トーコーライナーサービス,0
8,1010001186885,登記記録の閉鎖等,0,2022-11-07,2022-10-28,排球堂マーケティング株式会社,,株式会社,東京都,中央区,新川２丁目１番９号石川ビル４階,,13,102,1040033,,,2022-10-28,清算の結了等,,,2017-10-19,1,,,,,ハイキュウドウマーケティング,0
21,1010401126953,登記記録の閉鎖等,0,2022-11-07,2022-11-01,株式会社ｆｏｕｒｃｕｓ,,株式会社,東京都,港区,赤坂３丁目１２番２号地下１階,,13,103,1070052,,,2022-11-01,合併による解散等,5011101059556,令和４年１０月２７日東京都新宿区西新宿八丁目１１番１０号株式会社ライジングトラスト（5011101059556）に合併し解散,2016-09-07,1,,,,,フォーカス,0
66,1011101068362,登記記録の閉鎖等,0,2022-11-07,2022-11-02,ＴＫＩ　Ｂｒａｉｎｓ株式会社,,株式会社,東京都,府中市,新町２丁目２６番地３２,,13,206,1830052,,,2022-11-02,清算の結了等,,,2015-10-05,1,,,,,ティーケイアイブレインズ,0
83,1011801030571,登記記録の閉鎖等,0,2022-11-07,2022-11-01,株式会社彩,,株式会社,東京都,葛飾区,青戸６丁目３１番１号,,13,122,1250062,,,2022-11-01,清算の結了等,,,2015-10-05,1,,,,,イロドリ,0
88,1012401032363,登記記録の閉鎖等,0,2022-11-07,2022-11-02,ｄｇ株式会社,,株式会社,東京都,府中市,宮西町３丁目８番地の５リブマックス地下１階１号室,,13,206,1830022,,,2022-11-02,清算の結了等,,,2017-02-09,1,,,,,ディージー,0
91,1012702004045,登記記録の閉鎖等,0,2022-11-07,2022-11-01,有限会社岡田屋保谷商店,,有限会社,東京都,西東京市,富士町３丁目１番１９号,,13,229,2020014,,,2022-11-01,清算の結了等,,,2015-10-05,1,,,,,オカダヤホウヤショウテン,0
95,1013202014484,登記記録の閉鎖等,0,2022-11-07,2022-11-01,有限会社ケイ・アール,,有限会社,東京都,品川区,大崎２丁目９番１号大崎ウエストシティタワーズＥ棟３５０４,,13,109,1410032,,,2022-11-01,清算の結了等,,,2015-10-05,1,,,,,ケイアール,0
100,1013302018856,登記記録の閉鎖等,0,2022-11-07,2022-11-02,有限会社ＮＳ設計,,有限会社,東京都,西東京市,北町１丁目４番２０号,,13,229,2020003,,,2022-11-02,清算の結了等,,,2015-10-05,1,,,,,エヌエスセッケイ,0
119,1020002019861,登記記録の閉鎖等,0,2022-11-07,2022-10-31,ホンマ工業有限会社,,有限会社,神奈川県,横浜市港南区,芹が谷５丁目３５番２０号,,14,111,2330006,,,2022-10-31,清算の結了等,,,2015-10-05,1,,,,,ホンマコウギョウ,0
154,1030002023128,登記記録の閉鎖等,0,2022-11-07,2022-10-27,株式会社蔵商,,株式会社,埼玉県,さいたま市岩槻区,大字新方須賀１５１番地の３,,11,110,3390016,,,2022-10-27,清算の結了等,,,2015-10-05,1,,,,,クラショウ,0
156,1030002080391,登記記録の閉鎖等,0,2022-11-07,2022-10-24,有限会社ナカヤマ自動車,,有限会社,埼玉県,川越市,脇田本町１５番地１３,,11,201,3501123,,,2022-10-24,清算の結了等,,,2015-10-05,1,,,,,ナカヤマジドウシャ,0
178,1060002002459,登記記録の閉鎖等,0,2022-11-07,2022-10-31,有限会社おしゃれサロンユリ,,有限会社,栃木県,宇都宮市,高砂町２５番１１号,,09,201,3210134,,,2022-10-31,清算の結了等,,,2015-10-05,1,,,,,オシャレサロンユリ,0
199,1100001031751,登記記録の閉鎖等,0,2022-11-07,2022-11-01,株式会社ルイール・Ｐｒｅｃｉｏｕｓ,,株式会社,長野県,東筑摩郡山形村,６１１５番地１０,,20,450,3901301,,,2022-11-01,清算の結了等,,,2018-11-09,1,,,,,ルイールプレシャス,0
206,1120001120305,登記記録の閉鎖等,0,2022-11-07,2022-10-31,株式会社シラカワコーポレーション,,株式会社,大阪府,大阪市浪速区,幸町３丁目１番９号,,27,111,5560021,,,2022-10-31,合併による解散等,3120001134815,令和４年１０月３１日大阪市浪速区幸町三丁目１番９号株式会社ＳＪＩＣ（3120001134815）に合併し解散,2015-10-05,1,,,,,シラカワコーポレーション,0
211,1120001184928,登記記録の閉鎖等,0,2022-11-07,2022-10-31,株式会社大志,,株式会社,大阪府,大阪市中央区,北久宝寺町２丁目４番８号,,27,128,5410057,,,2022-10-31,合併による解散等,5120001073193,令和４年１０月３１日大阪市中央区北久宝寺町二丁目４番８号アイトス株式会社（5120001073193）に合併し解散,2015-10-05,1,,,,,タイシ,0
212,1120001188953,登記記録の閉鎖等,0,2022-11-07,2022-11-01,株式会社ステージ扇会館,,株式会社,大阪府,大阪市北区,堂山町５番９号,,27,127,5300027,,,2022-11-01,合併による解散等,6120001206041,令和４年１１月１日大阪市北区神山町８番２０号株式会社ステージお初天神（6120001206041）に合併し解散,2015-10-05,1,,,,,ステージオウギカイカン,0
213,1120001205592,登記記録の閉鎖等,0,2022-11-07,2022-11-01,株式会社人民新聞,,株式会社,大阪府,茨木市,竹橋町２番２－２０５号,,27,211,5670815,,,2022-11-01,清算の結了等,,,2017-05-15,1,,,,,ジンミンシンブン,0
228,1120002084219,登記記録の閉鎖等,0,2022-11-07,2022-10-31,有限会社フィラトゥラディクローサジャパン,,有限会社,大阪府,大阪市中央区,心斎橋筋２丁目２番２２号小大丸ビル２Ｆ,,27,128,5420085,,,2022-10-31,清算の結了等,,,2022-08-16,1,,,,,フィラトゥラディクローサジャパン,0
234,1120101049725,登記記録の閉鎖等,0,2022-11-07,2022-10-31,Ａｑｕａｃｏｍｍ株式会社,,株式会社,大阪府,大阪市東住吉区,湯里６丁目２番２９－１１０１号,,27,121,5460013,,,2022-10-31,合併による解散等,2120001040964,令和４年１０月３１日大阪市東住吉区湯里六丁目２番２９－１１０１号ＭＮｐｌｕｓＡｓｓｏｃｉａｔｅｓ株式会社（2120001040964）に合併し解散,2015-10-05,1,,,,,アクアコム,0
247,1130001039536,登記記録の閉鎖等,0,2022-11-07,2022-10-24,株式会社ＮＥＥＤ,,株式会社,京都府,城陽市,寺田北山田２７－７プリシード城陽駅前ビル８Ｆ,,26,207,6100121,,,2022-10-24,清算の結了等,,,2015-10-05,1,,,,,ニード,0
260,1140001085298,登記記録の閉鎖等,0,2022-11-07,2022-11-01,株式会社石原興業,,株式会社,兵庫県,淡路市,野島常盤６４２番地,,28,226,6561726,,,2022-11-01,清算の結了等,,,2015-10-05,1,,,,,イシハラコウギョウ,0
265,1140001120303,登記記録の閉鎖等,0,2022-11-07,2022-11-01,株式会社Ｏ’ｓ　Ｂｉｚ,,株式会社,兵庫県,明石市,西新町３丁目１５番１９号,,28,203,6730023,,,2022-11-01,清算の結了等,,,2021-02-04,1,,,,,オーズビズ,0
285,1180001142194,登記記録の閉鎖等,0,2022-11-07,2022-11-01,株式会社Ｊ－ＳＴＹＬＥ,,株式会社,神奈川県,大和市,代官１丁目１０番地８,,14,213,2420025,,,2022-11-01,清算の結了等,,,2020-07-31,1,,,,,ジェイスタイル,0
300,1180002013122,登記記録の閉鎖等,0,2022-11-07,2022-11-01,有限会社アベテック工業所,,有限会社,愛知県,名古屋市南区,西又兵ヱ町２丁目６９番地,,23,112,4570835,,,2022-11-01,清算の結了等,,,2015-10-05,1,,,,,アベテックコウギョウショ,0
319,1200003002468,登記記録の閉鎖等,0,2022-11-07,2022-11-01,合資会社萬場屋商店,,合資会社,岐阜県,中津川市,阿木４３４４番地,,21,206,5097321,,,2022-11-01,清算の結了等,,,2015-10-05,1,,,,,マンバヤショウテン,0
327,1240002047650,登記記録の閉鎖等,0,2022-11-07,2022-11-01,有限会社ランドマーク,,有限会社,広島県,福山市,元町１５番３１号,,34,207,7200063,,,2022-11-01,清算の結了等,,,2015-10-05,1,,,,,ランドマーク,0
335,1260002011043,登記記録の閉鎖等,0,2022-11-07,2022-11-04,有限会社オオフカ建設,,有限会社,岡山県,赤磐市,正崎９８７番地,,33,213,7090832,,,2022-11-04,清算の結了等,,,2015-10-05,1,,,,,オオフカケンセツ,0
344,1290003009414,登記記録の閉鎖等,0,2022-11-07,2022-10-31,合同会社久益,,合同会社,福岡県,福岡市博多区,千代３丁目１９番２－１００１号,,40,132,8120044,,,2022-10-31,清算の結了等,,,2019-10-09,1,,,,,キュウエキ,0
409,2010401076396,登記記録の閉鎖等,0,2022-11-07,2022-10-11,株式会社ｃｏｍｆｏｒｔ,,株式会社,東京都,港区,白金２丁目７番１７号,,13,103,1080072,,,2022-10-11,清算の結了等,,,2015-10-05,1,,,,,コンフォート,0
410,2010401126952,登記記録の閉鎖等,0,2022-11-07,2022-11-01,株式会社９ｓｔａｔｅ,,株式会社,東京都,港区,赤坂３丁目１２番２号６階,,13,103,1070052,,,2022-11-01,合併による解散等,5011101059556,令和４年１０月２７日東京都新宿区西新宿八丁目１１番１０号株式会社ライジングトラスト（5011101059556）に合併し解散,2016-09-07,1,,,,,ナインステイト,0
426,2010501041580,登記記録の閉鎖等,0,2022-11-07,2022-10-31,ＫＯＴＯ株式会社,,株式会社,東京都,千代田区,東神田１丁目７番８号,,13,101,1010031,,,2022-10-31,清算の結了等,,,2017-09-19,1,,,,,コト,0
453,2011501012191,登記記録の閉鎖等,0,2022-11-07,2022-10-31,株式会社エネルギー環境研究所,,株式会社,東京都,荒川区,西日暮里４丁目３番１１号道灌山リハイム１０８,,13,118,1160013,,,2022-10-31,清算の結了等,,,2015-10-05,1,,,,,エネルギーカンキョウケンキュウジョ,0
458,2011802014812,登記記録の閉鎖等,0,2022-11-07,2022-11-02,有限会社壮栄電業,,有限会社,東京都,足立区,入谷９丁目３番５号,,13,121,1210836,,,2022-11-02,清算の結了等,,,2015-10-05,1,,,,,ソウエイデンギョウ,0
461,2012301005542,登記記録の閉鎖等,0,2022-11-07,2022-10-31,株式会社ワイケー興業,,株式会社,東京都,町田市,小山ヶ丘３丁目１２番地８,,13,209,1940215,,,2022-10-31,清算の結了等,,,2015-10-05,1,,,,,ワイケーコウギョウ,0
471,2013303005563,登記記録の閉鎖等,0,2022-11-07,2022-10-05,Ｇｌｏｂａｌ　Ｔａｌｅｎｔ　Ｓｅａｒｃｈ合同会社,,合同会社,東京都,港区,麻布十番１丁目５番１０号アトラスビル４Ｆ,,13,103,1060045,,,2022-10-05,清算の結了等,,,2021-03-04,1,,,,,グローバルタレントサーチ,0
473,2020001113516,登記記録の閉鎖等,0,2022-11-07,2022-11-01,株式会社ＡＰＭ,,株式会社,神奈川県,川崎市高津区,千年３６４番地４,,14,134,2130022,,,2022-11-01,合併による解散等,8020001093728,令和４年１１月１日川崎市宮前区宮崎二丁目６番地１０宮崎台ガーデンオフィス株式会社アカイ（8020001093728）に合併し解散,2015-11-10,1,,,,,エーピーエム,0
478,2020002039743,登記記録の閉鎖等,0,2022-11-07,2022-10-31,有限会社花重矢向,,有限会社,神奈川県,横浜市鶴見区,矢向６丁目１１番２４号,,14,101,2300001,,,2022-10-31,清算の結了等,,,2015-10-05,1,,,,,ハナシゲヤコウ,0
520,2070001027199,登記記録の閉鎖等,0,2022-11-07,2022-10-28,株式会社ウイング,,株式会社,群馬県,邑楽郡邑楽町,大字光善寺２７５番地２,,10,525,3700616,,,2022-10-28,清算の結了等,,,2015-10-05,1,,,,,ウイング,0
524,2070002005559,登記記録の閉鎖等,0,2022-11-07,2022-10-27,有限会社ヤマタ,,有限会社,群馬県,前橋市,国領町１丁目６番１４号,,10,201,3710033,,,2022-10-27,清算の結了等,,,2015-10-05,1,,,,,ヤマタ,0
567,2120101024173,登記記録の閉鎖等,0,2022-11-07,2022-11-02,株式会社吉川電業社,,株式会社,大阪府,堺市美原区,大饗３７３番地３４,00032282,27,147,5870063,,,2022-11-02,清算の結了等,,,2015-10-05,1,,,,,ヨシカワデンギョウシャ,0
648,2260002008699,登記記録の閉鎖等,0,2022-11-07,2022-11-02,有限会社ハウスリフォーム藤井,,有限会社,岡山県,岡山市南区,豊成３丁目７番１号,,33,104,7000942,,,2022-11-02,清算の結了等,,,2015-10-05,1,,,,,ハウスリフォームフジイ,0
673,2340001020928,登記記録の閉鎖等,0,2022-11-07,2022-11-02,株式会社ＫＡＴＯ工業,,株式会社,東京都,中野区,東中野５丁目１１番８号Ｂ１,,13,114,1640003,,,2022-11-02,清算の結了等,,,2018-02-02,1,,,,,カトウコウギョウ,0
683,2370001014613,登記記録の閉鎖等,0,2022-11-07,2022-10-28,ＹＥＬＬ　ＪＡＰＡＮ株式会社,,株式会社,東京都,千代田区,内神田３丁目２１番８号神田駅前北口合同ビル５階公認会計士・税理士福薗事務所,,13,101,1010047,,,2022-10-28,清算の結了等,,,2015-10-05,1,,,,,エールジャパン,0
698,2430002064048,登記記録の閉鎖等,0,2022-11-07,2022-10-27,有限会社菊電工,,有限会社,北海道,室蘭市,寿町１丁目１６番４号,,01,205,0500082,,,2022-10-27,清算の結了等,,,2015-10-05,1,,,,,キクデンコウ,0
700,2430005003473,登記記録の閉鎖等,0,2022-11-07,2022-10-28,特定非営利活動法人現代和装教育協会,,その他の設立登記法人,北海道,札幌市西区,山の手一条１１丁目５番７－２１１号,,01,107,0630001,,,2022-10-28,清算の結了等,,,2015-10-05,1,,,,,ゲンダイワソウキョウイクキョウカイ,0
709,2500002013559,登記記録の閉鎖等,0,2022-11-07,2022-11-01,有限会社松下水産,,有限会社,愛媛県,西宇和郡伊方町,仁田之浜１２２２番地の２,,38,442,7960306,,,2022-11-01,清算の結了等,,,2015-10-05,1,,,,,マツシタスイサン,0
714,3010001136319,登記記録の閉鎖等,0,2022-11-07,2022-11-01,エイチアールスクラム株式会社,,株式会社,東京都,大田区,大森北１丁目２３番７号ＮＡＶＡＬ３Ｆ,,13,111,1430016,,,2022-11-01,合併による解散等,8010001129689,令和４年９月２０日東京都品川区南大井六丁目２６番２号スマカン株式会社（8010001129689）に合併し解散,2015-10-05,1,,,,,エイチアールスクラム,0
735,3010401151875,登記記録の閉鎖等,0,2022-11-07,2022-10-20,株式会社ＧＡＩＮインベストメント,,株式会社,東京都,港区,南麻布３丁目２０番１号Ｄａｉｗａ麻布テラス５階,,13,103,1060047,,,2022-10-20,清算の結了等,,,2020-03-26,1,,,,,ゲインインベストメント,0
766,3011001060558,登記記録の閉鎖等,0,2022-11-07,2022-11-01,ＡＢパートナーズ株式会社,,株式会社,神奈川県,横浜市緑区,鴨居４丁目２７番１８号,,14,113,2260003,,,2022-11-01,清算の結了等,,,2015-10-05,1,,,,,エービーパートナーズ,0
803,3020001056037,登記記録の閉鎖等,0,2022-11-07,2022-10-31,株式会社シーカム,,株式会社,神奈川県,横浜市青葉区,みすずが丘８番地４,,14,117,2250016,,,2022-10-31,清算の結了等,,,2015-10-05,1,,,,,シーカム,0
804,3020001056994,登記記録の閉鎖等,0,2022-11-07,2022-10-31,株式会社レインボープロダクツ,,株式会社,神奈川県,横浜市南区,中村町５丁目３１０番地の６,,14,105,2320033,,,2022-10-31,清算の結了等,,,2015-10-05,1,,,,,レインボープロダクツ,0
830,3030001053108,登記記録の閉鎖等,0,2022-11-07,2022-10-27,株式会社ギルダイン,,株式会社,埼玉県,北葛飾郡杉戸町,大字堤根２６９８番地１,,11,464,3450024,,,2022-10-27,清算の結了等,,,2015-10-05,1,,,,,ギルダイン,0
851,3030002059698,登記記録の閉鎖等,0,2022-11-07,2022-10-27,有限会社関東輸送企画,,有限会社,埼玉県,志木市,本町６丁目１６番４９－３０５号,,11,228,3530004,,,2022-10-27,清算の結了等,,,2015-10-05,1,,,,,カントウユソウキカク,0
869,3070002018378,登記記録の閉鎖等,0,2022-11-07,2022-10-31,有限会社伊勢崎白洋,,有限会社,群馬県,伊勢崎市,宮子町２９９０番地,,10,204,3720801,,,2022-10-31,清算の結了等,,,2015-10-05,1,,,,,イセサキハクヨウ,0
870,3070005001835,登記記録の閉鎖等,0,2022-11-07,2022-10-31,税理士法人湧志会計,,その他の設立登記法人,群馬県,前橋市,天川大島町１０３番地２,,10,201,3792154,,,2022-10-31,清算の結了等,,,2015-10-05,1,,,,,ユウシカイケイ,0
880,3100002024703,登記記録の閉鎖等,0,2022-11-07,2022-11-01,有限会社オカニワ建工,,有限会社,長野県,塩尻市,大字広丘郷原１５９９番地１,,20,215,3990704,,,2022-11-01,清算の結了等,,,2015-10-05,1,,,,,オカニワケンコウ,0
886,3120001003177,登記記録の閉鎖等,0,2022-11-07,2022-11-01,河島木材株式会社,,株式会社,大阪府,大阪市西成区,千本中２丁目１２番１９号,,27,122,5570054,,,2022-11-01,清算の結了等,,,2015-10-05,1,,,,,カワシマモクザイ,0
910,3120005008263,登記記録の閉鎖等,0,2022-11-07,2022-11-04,特定非営利活動法人関西文化研究開発機構,,その他の設立登記法人,大阪府,大阪市中央区,天満橋京町１番１号（大阪キャッスルホテル６階）,,27,128,5400032,,,2022-11-04,清算の結了等,,,2015-10-05,1,,,,,カンサイブンカケンキュウカイハツキコウ,0
922,3130001055878,登記記録の閉鎖等,0,2022-11-07,2022-11-01,新谷興業株式会社,,株式会社,京都府,木津川市,加茂町駅東３丁目３番地１,,26,214,6191154,,,2022-11-01,清算の結了等,,,2015-10-05,1,,,,,,0
975,3180301028240,登記記録の閉鎖等,0,2022-11-07,2022-10-31,株式会社トラスト・ワン,,株式会社,愛知県,岡崎市,緑丘１丁目２９番地７,,23,202,4440806,,,2022-10-31,清算の結了等,,,2015-10-05,1,,,,,トラストワン,0
990,3200002008092,登記記録の閉鎖等,0,2022-11-07,2022-11-02,山根重機工業有限会社,,有限会社,岐阜県,各務原市,蘇原野口町３丁目５５番地の３,,21,213,5040854,,,2022-11-02,清算の結了等,,,2015-10-05,1,,,,,ヤマネジュウキコウギョウ,0
1003,3290001087658,登記記録の閉鎖等,0,2022-11-07,2022-10-31,サントラスト株式会社,,株式会社,福岡県,福岡市早良区,野芥１丁目２９番２０－１０３号,,40,137,8140171,,,2022-10-31,清算の結了等,,,2020-01-10,1,,,,,サントラスト,0
1010,3290801005380,登記記録の閉鎖等,0,2022-11-07,2022-11-02,株式会社島田建設,,株式会社,福岡県,北九州市門司区,小森江２丁目１番１号,,40,101,8000007,,,2022-11-02,清算の結了等,,,2015-10-05,1,,,,,シマダケンセツ,0
1036,3380001024619,登記記録の閉鎖等,0,2022-11-07,2022-10-31,株式会社Ｍ＆Ｓ,,株式会社,福島県,郡山市,開成３丁目１１番９号,,07,203,9638851,,,2022-10-31,清算の結了等,,,2015-10-05,1,,,,,エムアンドエス,0
1044,3410001010771,登記記録の閉鎖等,0,2022-11-07,2022-11-01,株式会社秋田バイオマスチップ,,株式会社,秋田県,大仙市,協和稲沢字台林１８番地１,,05,212,0192521,,,2022-11-01,合併による解散等,7410002012490,令和４年１１月１日秋田県仙北市田沢湖卒田字柴倉１３５番地株式会社門脇木材（7410002012490）に合併し解散,2015-10-05,1,,,,,アキタバイオマスチップ,0
1054,3440001002460,登記記録の閉鎖等,0,2022-11-07,2022-10-27,安田ハウジングサービス株式会社,,株式会社,北海道,函館市,千歳町９番２０号,,01,202,0400033,,,2022-10-27,清算の結了等,,,2015-10-05,1,,,,,ヤスダハウジングサービス,0
1063,3462501000165,登記記録の閉鎖等,0,2022-11-07,2022-11-01,株式会社道東ファクター,,株式会社,北海道,標津郡中標津町,東三十四条南１丁目９番地,,01,692,0861034,,,2022-11-01,清算の結了等,,,2015-10-05,1,,,,,ドウトウファクター,0
1064,3470001000387,登記記録の閉鎖等,0,2022-11-07,2022-11-01,株式会社アサヒヤグループ,,株式会社,香川県,高松市,成合町７３４番地３５,,37,201,7618081,,,2022-11-01,清算の結了等,,,2015-10-05,1,,,,,アサヒヤグループ,0
1065,3470002015698,登記記録の閉鎖等,0,2022-11-07,2022-11-01,有限会社敷島,,有限会社,香川県,坂出市,久米町１丁目２４番４号,,37,203,7620003,,,2022-11-01,清算の結了等,,,2015-10-05,1,,,,,シキシマ,0
1066,3480001002548,登記記録の閉鎖等,0,2022-11-07,2022-11-02,大崎食品工業株式会社,,株式会社,徳島県,名西郡石井町,高原字東高原４１番地の１,,36,341,7793205,,,2022-11-02,清算の結了等,,,2015-10-05,1,,,,,オオサキショクヒンコウギョウ,0
1067,3490001005244,登記記録の閉鎖等,0,2022-11-07,2022-11-01,株式会社のぞみ,,株式会社,高知県,四万十市,山路３８６番地２,,39,210,7870157,,,2022-11-01,清算の結了等,,,2015-10-05,1,,,,,ノゾミ,0
1094,4010402036728,登記記録の閉鎖等,0,2022-11-07,2022-11-01,有限会社スガハラアソシエーツ,,有限会社,神奈川県,鎌倉市,雪ノ下４丁目２番１０号,,14,204,2480005,,,2022-11-01,清算の結了等,,,2015-10-05,1,,,,,スガハラアソシエーツ,0
1102,4010502007018,登記記録の閉鎖等,0,2022-11-07,2022-10-27,有限会社タカコーポラス,,有限会社,東京都,台東区,谷中５丁目５番８号,,13,106,1100001,,,2022-10-27,清算の結了等,,,2015-10-05,1,,,,,タカコーポラス,0
1126,4011101033652,登記記録の閉鎖等,0,2022-11-07,2022-10-20,株式会社シー・エル・シー,,株式会社,東京都,港区,虎ノ門１丁目２１番１９号,,13,103,1050001,,,2022-10-20,合併による解散等,4010601043384,令和４年１０月１日東京都港区虎ノ門一丁目２１番１９号ＰＣＩソリューションズ株式会社（4010601043384）に合併し解散,2015-10-05,1,,,,,シーエルシー,0
1133,4011105008576,登記記録の閉鎖等,0,2022-11-07,2022-11-01,一般社団法人善花アジア研究所,,その他の設立登記法人,東京都,新宿区,西新宿６丁目２１番１－２１０５号,,13,104,1600023,,,2022-11-01,清算の結了等,,,2018-11-12,1,,,,,ソンファアジアケンキュウジョ,0
1139,4011801025305,登記記録の閉鎖等,0,2022-11-07,2022-11-01,株式会社アットフリーク,,株式会社,東京都,千代田区,神田司町２丁目２番地１３,,13,101,1010048,,,2022-11-01,合併による解散等,2010001015192,令和４年１１月１日東京都千代田区神田司町二丁目２番地１３株式会社クリエイト（2010001015192）に合併し解散,2015-10-05,1,,,,,アットフリーク,0
1163,4020001085316,登記記録の閉鎖等,0,2022-11-07,2022-10-31,株式会社盛林,,株式会社,神奈川県,横浜市神奈川区,東神奈川１丁目１１番地２,,14,102,2210044,,,2022-10-31,清算の結了等,,,2015-10-05,1,,,,,セイリン,0
1195,4030002061208,登記記録の閉鎖等,0,2022-11-07,2022-10-27,有限会社光和商事,,有限会社,埼玉県,新座市,野火止４丁目４番９号,,11,230,3520011,,,2022-10-27,清算の結了等,,,2015-10-05,1,,,,,コウワショウジ,0
1210,4050002027132,登記記録の閉鎖等,0,2022-11-07,2022-10-27,有限会社古徳測量設計,,有限会社,茨城県,神栖市,下幡木６６２番地,,08,232,3140131,,,2022-10-27,清算の結了等,,,2015-10-05,1,,,,,コトクソクリョウセッケイ,0
1219,4080002009499,登記記録の閉鎖等,0,2022-11-07,2022-11-02,有限会社小澤熔接工業,,有限会社,静岡県,静岡市清水区,折戸１丁目１１番１４号,,22,103,4240902,,,2022-11-02,清算の結了等,,,2015-10-05,1,,,,,オザワヨウセツコウギョウ,0
1241,4120001190477,登記記録の閉鎖等,0,2022-11-07,2022-11-01,株式会社池田興産,,株式会社,大阪府,大阪市平野区,加美正覚寺１丁目１９番４号,,27,126,5470006,,,2022-11-01,合併による解散等,5120001190476,令和４年１１月１日大阪市平野区加美正覚寺一丁目１９番４号株式会社池田園芸（5120001190476）に合併し解散,2015-10-05,1,,,,,イケダコウサン,0
1277,4140001108320,登記記録の閉鎖等,0,2022-11-07,2022-11-01,株式会社Ｒｅ　ｄｅｓｉｇｎ,,株式会社,兵庫県,神戸市中央区,琴ノ緒町５丁目６番３号三共ビル５０３,,28,110,6510094,,,2022-11-01,清算の結了等,,,2017-12-01,1,,,,,リデザイン,0
1280,4140002044639,登記記録の閉鎖等,0,2022-11-07,2022-11-04,有限会社人財開発室,,有限会社,兵庫県,尼崎市,武庫之荘２丁目７番６号メゾングレース３０７号室,,28,202,6610035,,,2022-11-04,清算の結了等,,,2015-10-05,1,,,,,ジンザイカイハツシツ,0
1289,4180001123365,登記記録の閉鎖等,0,2022-11-07,2022-10-31,株式会社エレフェリア,,株式会社,愛知県,丹羽郡大口町,外坪１丁目１３８番地,,23,361,4800125,,,2022-10-31,清算の結了等,,,2016-05-18,1,,,,,エレフェリア,0
1290,4180001127300,登記記録の閉鎖等,0,2022-11-07,2022-11-01,Ｈ２Ｋアレンジメント株式会社,,株式会社,愛知県,名古屋市天白区,島田３丁目８０５番地橘ビル１Ｂ,,23,116,4680056,,,2022-11-01,清算の結了等,,,2017-04-14,1,,,,,エイチツーケーアレンジメント,0
1291,4180001139997,登記記録の閉鎖等,0,2022-11-07,2022-11-01,株式会社改善共創研究所,,株式会社,愛知県,名古屋市中区,千代田２丁目７番２４号,,23,106,4600012,,,2022-11-01,清算の結了等,,,2020-02-06,1,,,,,カイゼンキョウソウケンキュウジョ,0
1345,4290001082138,登記記録の閉鎖等,0,2022-11-07,2022-11-01,株式会社Ｃｒｙｐｔｏｅｃｏｎｏｍｉｃｓ　Ｌａｂ,,株式会社,東京都,新宿区,西新宿７丁目１５番１８号,,13,104,1600023,,,2022-11-01,清算の結了等,,,2018-07-25,1,,,,,クリプトエコノミクスラボ,0
1358,4330002002288,登記記録の閉鎖等,0,2022-11-07,2022-11-01,有限会社上熊本オート,,有限会社,熊本県,熊本市西区,池田４丁目４番１２号,,43,103,8600082,,,2022-11-01,清算の結了等,,,2015-10-05,1,,,,,カミクマモトオート,0
1397,4500002021196,登記記録の閉鎖等,0,2022-11-07,2022-11-02,有限会社タイコウ,,有限会社,愛媛県,四国中央市,三島宮川３丁目１０番１８号,,38,213,7990404,,,2022-11-02,清算の結了等,,,2015-10-05,1,,,,,タイコウ,0
1433,5010403025365,登記記録の閉鎖等,0,2022-11-07,2022-10-05,合同会社ＳＴＡＡＤ,,合同会社,東京都,港区,白金６丁目１０番１６号トリビュート白金１０１,,13,103,1080072,,,2022-10-05,清算の結了等,,,2021-05-25,1,,,,,スタード,0
1437,5010405014416,登記記録の閉鎖等,0,2022-11-07,2022-10-20,一般社団法人蒲田・ホテル・インベストメンツ,,その他の設立登記法人,東京都,港区,虎ノ門３丁目２２番１０－２０１号,,13,103,1050001,,,2022-10-20,清算の結了等,,,2015-12-11,1,,,,,カマタホテルインベストメンツ,0
1462,5011002001336,登記記録の閉鎖等,0,2022-11-07,2022-10-28,有限会社イー・ケー・プランニング,,有限会社,東京都,渋谷区,恵比寿１丁目３０番１２－９０１号,,13,113,1500013,,,2022-10-28,清算の結了等,,,2015-10-05,1,,,,,イーケープランニング,0
1497,5020001105064,登記記録の閉鎖等,0,2022-11-07,2022-10-31,株式会社イースト・エイト・ボックス,,株式会社,神奈川県,横浜市瀬谷区,相沢３丁目１８番地４第８グランデュール平本２０３,,14,114,2460013,,,2022-10-31,清算の結了等,,,2015-10-05,1,,,,,イーストエイトボックス,0
1529,5030002074621,登記記録の閉鎖等,0,2022-11-07,2022-10-27,有限会社半田商会,,有限会社,埼玉県,川越市,大字平塚７０番地,,11,201,3500814,,,2022-10-27,清算の結了等,,,2015-10-05,1,,,,,,0
1565,5090002010364,登記記録の閉鎖等,0,2022-11-07,2022-11-01,有限会社都留化工,,有限会社,山梨県,都留市,小野１２９５番地の３,,19,204,4020024,,,2022-11-01,清算の結了等,,,2015-10-05,1,,,,,,0
1604,5120901025104,登記記録の閉鎖等,0,2022-11-07,2022-11-02,株式会社ニッカタモールド,,株式会社,大阪府,豊中市,庄内宝町３丁目９番１２号,,27,203,5610836,,,2022-11-02,清算の結了等,,,2015-10-05,1,,,,,ニッカタモールド,0
1619,5140001093909,登記記録の閉鎖等,0,2022-11-07,2022-11-02,株式会社Ｓ＆Ａコーポレーション,,株式会社,兵庫県,川西市,栄町１２番１号,,28,217,6660033,,,2022-11-02,清算の結了等,,,2015-10-05,1,,,,,エスアンドエイコーポレーション,0
1633,5140002052822,登記記録の閉鎖等,0,2022-11-07,2022-11-01,有限会社サンサンコンタクト,,有限会社,兵庫県,姫路市,飾磨区今在家５丁目６７番地,,28,201,6728079,,,2022-11-01,清算の結了等,,,2015-10-05,1,,,,,サンサンコンタクト,0
1641,5170001011140,登記記録の閉鎖等,0,2022-11-07,2022-11-02,株式会社あやの家,,株式会社,和歌山県,橋本市,橋谷８９２番地,,30,203,6480095,,,2022-11-02,清算の結了等,,,2015-10-05,1,,,,,アヤノヤ,0
1662,5180003002269,登記記録の閉鎖等,0,2022-11-07,2022-11-02,喜秀山住宅合同会社,,合同会社,愛知県,名古屋市東区,泉３丁目１１番１６号,,23,102,4610001,,,2022-11-02,清算の結了等,,,2015-10-05,1,,,,,キシュウザンジュウタク,0
1677,5210002007991,登記記録の閉鎖等,0,2022-11-07,2022-11-02,有限会社矢崎産業,00077873,有限会社,福井県,坂井市,丸岡町本町３丁目７番地,,18,210,9100236,,,2022-11-02,清算の結了等,,,2015-10-05,1,,,,,ヤザキサンギョウ,0
1678,5220001009518,登記記録の閉鎖等,0,2022-11-07,2022-10-21,株式会社ＯＣＴ,,株式会社,東京都,港区,西新橋１丁目１２番６号,,13,103,1050003,,,2022-10-21,清算の結了等,,,2015-10-05,1,,,,,オーシーティー,0
1708,5300002005854,登記記録の閉鎖等,0,2022-11-07,2022-10-31,有限会社小川総合保険,,有限会社,佐賀県,武雄市,武雄町大字武雄５６７５番地３,,41,206,8430022,,,2022-10-31,清算の結了等,,,2015-10-05,1,,,,,オガワソウゴウホケン,0
1747,5480002003568,登記記録の閉鎖等,0,2022-11-07,2022-11-02,有限会社ハイランド興産,,有限会社,徳島県,徳島市,八万町上福万３番地の２,,36,201,7708073,,,2022-11-02,清算の結了等,,,2015-10-05,1,,,,,ハイランドコウサン,0
1769,6010003026374,登記記録の閉鎖等,0,2022-11-07,2022-10-31,合同会社クローバー２０１８,,合同会社,東京都,千代田区,丸の内３丁目１番１号東京共同会計事務所内,,13,101,1000005,,,2022-10-31,清算の結了等,,,2017-11-06,1,,,,,クローバーニセンジュウハチ,0
1773,6010005029929,登記記録の閉鎖等,0,2022-11-07,2022-11-02,一般社団法人広島福山バイオマスエナジー,,その他の設立登記法人,東京都,中央区,日本橋１丁目４番１号,,13,102,1030027,,,2022-11-02,清算の結了等,,,2019-03-28,1,,,,,ヒロシマフクヤマバイオマスエナジー,0
1775,6010401022181,登記記録の閉鎖等,0,2022-11-07,2022-10-19,株式会社日新商事,,株式会社,東京都,港区,南青山１丁目８番１５号,,13,103,1070062,,,2022-10-19,清算の結了等,,,2015-10-05,1,,,,,ニッシンショウジ,0
1797,6010801012740,登記記録の閉鎖等,0,2022-11-07,2022-11-01,株式会社ロジテム日流,,株式会社,東京都,大田区,大森北１丁目５番１号,,13,111,1430016,,,2022-11-01,合併による解散等,1010801009122,令和４年１１月１日東京都大田区大森北一丁目５番１号日本流通倉庫株式会社（1010801009122）に合併し解散,2015-10-05,1,,,,,ロジテムニチリュウ,0
1898,6070001023062,登記記録の閉鎖等,0,2022-11-07,2022-10-31,株式会社ぬまた,,株式会社,群馬県,沼田市,西倉内町６７９番地,,10,206,3780042,,,2022-10-31,清算の結了等,,,2015-10-05,1,,,,,,0
1905,6080102010900,登記記録の閉鎖等,0,2022-11-07,2022-11-02,有限会社田中商店,,有限会社,静岡県,三島市,北田町２番１７号,,22,206,4110854,,,2022-11-02,清算の結了等,,,2015-10-05,1,,,,,タナカショウテン,0
1911,6100001021574,登記記録の閉鎖等,0,2022-11-07,2022-11-01,株式会社ビクトリア工業,,株式会社,長野県,上伊那郡箕輪町,大字中箕輪２０２０番地１,,20,383,3994601,,,2022-11-01,清算の結了等,,,2015-10-05,1,,,,,ビクトリアコウギョウ,0
1925,6120001177935,登記記録の閉鎖等,0,2022-11-07,2022-11-01,株式会社ＳＡＩＶＩ,,株式会社,大阪府,大阪市西区,靱本町３丁目２番１８号,,27,106,5500004,,,2022-11-01,清算の結了等,,,2015-10-05,1,,,,,サイビ,0
1931,6120001203278,登記記録の閉鎖等,0,2022-11-07,2022-10-31,テックモンスター株式会社,,株式会社,大阪府,大阪市西区,京町堀１丁目１８番５号,,27,106,5500003,,,2022-10-31,清算の結了等,,,2017-01-26,1,,,,,テックモンスター,0
1963,6140001021579,登記記録の閉鎖等,0,2022-11-07,2022-10-31,株式会社比呂乃屋,,株式会社,兵庫県,芦屋市,奥池町３７番３号,,28,206,6590003,,,2022-10-31,清算の結了等,,,2015-10-05,1,,,,,ヒロノヤ,0
1973,6140002061070,登記記録の閉鎖等,0,2022-11-07,2022-11-01,有限会社石井呉服店,,有限会社,兵庫県,加東市,上中３丁目２８番地はぎハイツ上中１０１号,,28,228,6731464,,,2022-11-01,清算の結了等,,,2015-10-05,1,,,,,イシイゴフクテン,0
2001,6180002077641,登記記録の閉鎖等,0,2022-11-07,2022-10-31,丸誠興業有限会社,,有限会社,愛知県,一宮市,大和町苅安賀２４６０番地,,23,203,4910934,,,2022-10-31,清算の結了等,,,2015-10-05,1,,,,,マルセイコウギョウ,0
2019,6220001016315,登記記録の閉鎖等,0,2022-11-07,2022-11-02,北陸化繊株式会社,,株式会社,石川県,羽咋郡宝達志水町,今浜ホ３１１番地１,,17,386,9291344,,,2022-11-02,清算の結了等,,,2015-10-05,1,,,,,ホクリクカセン,0
2026,6240002053578,登記記録の閉鎖等,0,2022-11-07,2022-11-01,有限会社文化堂写真館,,有限会社,広島県,三原市,糸崎４丁目９番３７号,,34,204,7290324,,,2022-11-01,清算の結了等,,,2015-10-05,1,,,,,ブンカドウシャシンカン,0
2046,6310001004087,登記記録の閉鎖等,0,2022-11-07,2022-11-02,株式会社季彩家,,株式会社,長崎県,長崎市,古賀町６６１番地２,,42,201,8510101,,,2022-11-02,清算の結了等,,,2015-10-05,1,,,,,キイロヤ,0
2065,6360001028577,登記記録の閉鎖等,0,2022-11-07,2022-10-24,株式会社宝,,株式会社,沖縄県,那覇市,久茂地１丁目１番１号９階,,47,201,9000015,,,2022-10-24,清算の結了等,,,2021-04-07,1,,,,,タカラ,0
2071,6380001013560,登記記録の閉鎖等,0,2022-11-07,2022-11-01,日化運輸株式会社,,株式会社,福島県,いわき市,小名浜字高山３４番地,,07,204,9718101,,,2022-11-01,合併による解散等,1010401081447,令和４年１０月１日東京都港区芝大門一丁目１番３０号菱化ロジテック株式会社（1010401081447）に合併し解散,2015-10-05,1,,,,,ニッカウンユ,0
2078,6410005005360,登記記録の閉鎖等,0,2022-11-07,2022-11-01,北秋田きのこ株式会社,,株式会社,秋田県,北秋田市,川井字鳥屋岱４－１３,,05,213,0184211,,,2022-11-01,清算の結了等,,,2015-10-05,1,,,,,キタアキタキノコ,0
2086,6470001001119,登記記録の閉鎖等,0,2022-11-07,2022-11-01,香川県労住協住宅サービス株式会社,,株式会社,香川県,高松市,兵庫町７番地１,,37,201,7600024,,,2022-11-01,清算の結了等,,,2015-10-05,1,,,,,カガワケンロウジュウキョウジュウタクサービス,0
2090,6490002003203,登記記録の閉鎖等,0,2022-11-07,2022-10-31,株式会社竹村建窓,,株式会社,高知県,高知市,葛島４丁目６番８号,,39,201,7818121,,,2022-10-31,清算の結了等,,,2015-10-05,1,,,,,タケムラケンソウ,0
2096,6500002017861,登記記録の閉鎖等,0,2022-11-07,2022-11-01,江戸屋機工有限会社,,有限会社,愛媛県,今治市,玉川町法界寺甲５０番地２,,38,202,7940103,,,2022-11-01,清算の結了等,,,2015-10-05,1,,,,,エドヤキコウ,0
2115,7010401126865,登記記録の閉鎖等,0,2022-11-07,2022-10-28,アルファサーティースリー株式会社,,株式会社,東京都,中央区,銀座１丁目３番３号,,13,102,1040061,,,2022-10-28,清算の結了等,,,2016-09-07,1,,,,,アルファサーティースリー,0
2137,7010802008992,登記記録の閉鎖等,0,2022-11-07,2022-10-28,有限会社立花屋商事,,有限会社,東京都,大田区,西糀谷２丁目５番７号,,13,111,1440034,,,2022-10-28,清算の結了等,,,2015-10-05,1,,,,,タチバナヤショウジ,0
2151,7011001121802,登記記録の閉鎖等,0,2022-11-07,2022-11-01,株式会社ゲシェルマーケティング,,株式会社,東京都,中央区,湊３丁目１０番１０号,,13,102,1040043,,,2022-11-01,合併による解散等,2010401150333,令和４年１１月１日東京都中央区湊三丁目１０番１０号株式会社ゲシェル（2010401150333）に合併し解散,2018-04-24,1,,,,,ゲシェルマーケティング,0
2162,7011101084965,登記記録の閉鎖等,0,2022-11-07,2022-11-01,株式会社エンタメ・デザイン・ジャパン,,株式会社,東京都,新宿区,歌舞伎町２丁目１０番１号石黒商事ビル５階６号室,,13,104,1600021,,,2022-11-01,清算の結了等,,,2018-08-02,1,,,,,エンタメデザインジャパン,0
2163,7011101091887,登記記録の閉鎖等,0,2022-11-07,2022-11-01,株式会社ＭＥＤＥＴＯ,,株式会社,東京都,新宿区,大久保２丁目２番１２号,,13,104,1690072,,,2022-11-01,清算の結了等,,,2020-07-14,1,,,,,メデト,0
2171,7011501014563,登記記録の閉鎖等,0,2022-11-07,2022-10-31,株式会社エヌ・アイ・エル・テレコム,,株式会社,神奈川県,横浜市西区,南幸１丁目１番１号,,14,103,2200005,,,2022-10-31,合併による解散等,1020001108657,令和４年１０月１日横浜市西区南幸一丁目１番１号アイ・ティー・エックス株式会社（1020001108657）に合併し解散,2015-10-05,1,,,,,エヌアイエルテレコム,0
2254,7050003000960,登記記録の閉鎖等,0,2022-11-07,2022-10-27,合資会社西山食品,,合資会社,茨城県,猿島郡境町,大字長井戸１６７８番地の３,,08,546,3060404,,,2022-10-27,清算の結了等,,,2015-10-05,1,,,,,ニシヤマショクヒン,0
2260,7070002008375,登記記録の閉鎖等,0,2022-11-07,2022-11-01,有限会社青木不動産,,有限会社,群馬県,高崎市,吉井町吉井２９３番地の１,,10,202,3702132,,,2022-11-01,清算の結了等,,,2015-10-05,1,,,,,アオキフドウサン,0
2261,7070002020355,登記記録の閉鎖等,0,2022-11-07,2022-10-27,有限会社加藤エンジニアリング,,有限会社,群馬県,伊勢崎市,境伊与久１６６２番地の５,,10,204,3700105,,,2022-10-27,清算の結了等,,,2015-10-05,1,,,,,カトウエンジニアリング,0
2262,7070002037011,登記記録の閉鎖等,0,2022-11-07,2022-10-31,ライフ・サービス有限会社,,有限会社,群馬県,吾妻郡中之条町,大字五反田２５５番地,,10,421,3770432,,,2022-10-31,清算の結了等,,,2015-10-05,1,,,,,ライフサービス,0
2263,7080101008003,登記記録の閉鎖等,0,2022-11-07,2022-11-04,株式会社ＫＩＴ,,株式会社,静岡県,裾野市,金沢３３５番地の１,,22,220,4101106,,,2022-11-04,清算の結了等,,,2015-10-05,1,,,,,ケイアイティ,0
2266,7080401002952,登記記録の閉鎖等,0,2022-11-07,2022-10-31,株式会社大有,,株式会社,静岡県,湖西市,新居町中之郷４５５番地の８,,22,221,4310301,,,2022-10-31,清算の結了等,,,2015-10-05,1,,,,,ダイユウ,0
2276,7110001009931,登記記録の閉鎖等,0,2022-11-07,2022-11-01,株式会社ソイルエンジニアリング,,株式会社,新潟県,新潟市東区,紫竹５丁目１０番１２号オークランド紫竹１０１号,,15,102,9500864,,,2022-11-01,清算の結了等,,,2015-10-05,1,,,,,ソイルエンジニアリング,0
2301,7120002079155,登記記録の閉鎖等,0,2022-11-07,2022-11-02,有限会社山根ライト工業,,有限会社,大阪府,守口市,高瀬町２丁目１２番７号,,27,209,5700053,,,2022-11-02,清算の結了等,,,2015-10-05,1,,,,,ヤマネライトコウギョウ,0
2318,7122002013911,登記記録の閉鎖等,0,2022-11-07,2022-11-01,有限会社小路鉄工所,,有限会社,大阪府,八尾市,渋川町４丁目５番６号,,27,212,5810075,,,2022-11-01,清算の結了等,,,2015-10-05,1,,,,,ショウジテッコウショ,0
2327,7140001071623,登記記録の閉鎖等,0,2022-11-07,2022-11-01,株式会社はるかぜ,,株式会社,兵庫県,西宮市,甲子園春風町５番３３号,,28,204,6638161,,,2022-11-01,清算の結了等,,,2015-10-05,1,,,,,ハルカゼ,0
2400,7250001011089,登記記録の閉鎖等,0,2022-11-07,2022-10-31,大成商事株式会社,,株式会社,山口県,周南市,大字栗屋７７１番地１,,35,215,7450802,,,2022-10-31,合併による解散等,2250001004304,令和４年１０月３１日山口県美祢市大嶺町東分３４３６番地１大興産業株式会社（2250001004304）に合併し解散,2015-10-05,1,,,,,タイセイショウジ,0
2420,7310001013780,登記記録の閉鎖等,0,2022-11-07,2022-11-01,ＭＨＩ海洋鉄構株式会社,,株式会社,長崎県,長崎市,香焼町１８０番地,,42,201,8510310,,,2022-11-01,清算の結了等,,,2015-10-05,1,,,,,エムエイチアイカイヨウテッコウ,0
2435,7370102002842,登記記録の閉鎖等,0,2022-11-07,2022-10-28,有限会社タカケン工業,,有限会社,宮城県,仙台市青葉区,中山吉成１丁目２番１６号,,04,101,9893203,,,2022-10-28,清算の結了等,,,2015-10-05,1,,,,,タカケンコウギョウ,0
2454,7460101004533,登記記録の閉鎖等,0,2022-11-07,2022-10-31,エアコン工房株式会社,,株式会社,北海道,帯広市,西二十三条南１丁目５７番地１,,01,207,0802473,,,2022-10-31,清算の結了等,,,2015-10-05,1,,,,,エアコンコウボウ,0
2474,8010003036041,登記記録の閉鎖等,0,2022-11-07,2022-10-31,合同会社よどがわ,,合同会社,東京都,千代田区,丸の内３丁目１番１号東京共同会計事務所内,,13,101,1000005,,,2022-10-31,清算の結了等,,,2021-10-21,1,,,,,ヨドガワ,0
2492,8010403020339,登記記録の閉鎖等,0,2022-11-07,2022-10-20,合同会社ファクター,,合同会社,東京都,港区,新橋４丁目９番１号,,13,103,1050004,,,2022-10-20,清算の結了等,,,2019-03-11,1,,,,,ファクター,0
2496,8010501021750,登記記録の閉鎖等,0,2022-11-07,2022-11-02,株式会社西欧,,株式会社,東京都,台東区,鳥越２丁目６番１０号,,13,106,1110054,,,2022-11-02,清算の結了等,,,2015-10-05,1,,,,,,0
2507,8010705003173,登記記録の閉鎖等,0,2022-11-07,2022-10-31,一般社団法人遊びＫＯＭＩＣＨＩ,,その他の設立登記法人,東京都,品川区,西品川１丁目２３番１９号,,13,109,1410033,,,2022-10-31,清算の結了等,,,2021-02-02,1,,,,,アソビコミチ,0
2517,8011001111967,登記記録の閉鎖等,0,2022-11-07,2022-10-26,株式会社ペルシャンバザール,,株式会社,東京都,目黒区,自由が丘１丁目２７番２号,,13,110,1520035,,,2022-10-26,清算の結了等,,,2016-07-22,1,,,,,ペルシャンバザール,0
2533,8011102013138,登記記録の閉鎖等,0,2022-11-07,2022-11-01,有限会社グリーンヘルスプロモーション,,有限会社,東京都,文京区,本郷４丁目１－３シャルム５０１号,,13,105,1130033,,,2022-11-01,清算の結了等,,,2015-10-05,1,,,,,グリーンヘルスプロモーション,0
2537,8011302005026,登記記録の閉鎖等,0,2022-11-07,2022-10-31,有限会社須藤葬祭,,有限会社,栃木県,那須塩原市,三島１丁目２０番地３,,09,213,3292752,,,2022-10-31,清算の結了等,,,2015-10-05,1,,,,,スドウソウサイ,0
2549,8011801027628,登記記録の閉鎖等,0,2022-11-07,2022-11-01,株式会社マイ企画,,株式会社,東京都,足立区,中央本町４丁目１６番２－５２２号,,13,121,1210011,,,2022-11-01,清算の結了等,,,2015-10-05,1,,,,,マイキカク,0
2560,8013301042925,登記記録の閉鎖等,0,2022-11-07,2022-10-27,株式会社ＥＬ－ＴＲＵＳＴ,,株式会社,東京都,大田区,蒲田５丁目２８番地２号,,13,111,1440052,,,2022-10-27,清算の結了等,,,2018-10-16,1,,,,,エルトラスト,0
2563,8013303003165,登記記録の閉鎖等,0,2022-11-07,2022-11-01,合同会社ＲＩＤ,,合同会社,東京都,豊島区,池袋１丁目７番２３号,,13,116,1700014,,,2022-11-01,清算の結了等,,,2016-03-08,1,,,,,ライド,0
2598,8030001140082,登記記録の閉鎖等,0,2022-11-07,2022-10-27,株式会社ひまつぶし,,株式会社,埼玉県,蕨市,南町１丁目３９－５,,11,223,3350003,,,2022-10-27,清算の結了等,,,2021-01-05,1,,,,,ヒマツブシ,0
2612,8040001005383,登記記録の閉鎖等,0,2022-11-07,2022-10-20,東洋産業株式会社,,株式会社,千葉県,千葉市若葉区,若松町７１７番地１２,,12,104,2640021,,,2022-10-20,合併による解散等,3010001027492,令和４年１０月１日東京都千代田区神田錦町一丁目８番地ユアサクオビス株式会社（3010001027492）に合併し解散,2015-10-05,1,,,,,トウヨウサンギョウ,0
2637,8080002013828,登記記録の閉鎖等,0,2022-11-07,2022-11-01,有限会社永田工業,,有限会社,静岡県,島田市,井口１３４２番地,,22,209,4270104,,,2022-11-01,清算の結了等,,,2015-10-05,1,,,,,ナガタコウギョウ,0
2641,8100001030160,登記記録の閉鎖等,0,2022-11-07,2022-11-01,株式会社クリング,,株式会社,長野県,長野市,北石堂町１３８１番地,,20,201,3810000,,,2022-11-01,清算の結了等,,,2017-04-14,1,,,,,クリング,0
2649,8120001105051,登記記録の閉鎖等,0,2022-11-07,2022-10-31,株式会社セイキプリンター,,株式会社,大阪府,大阪市平野区,平野宮町１丁目４番２９号,,27,126,5470046,,,2022-10-31,清算の結了等,,,2015-10-05,1,,,,,セイキプリンター,0
2677,8140001049882,登記記録の閉鎖等,0,2022-11-07,2022-11-01,株式会社たじまや,,株式会社,兵庫県,西宮市,和上町７番５－２００３号,,28,204,6620971,,,2022-11-01,清算の結了等,,,2015-10-05,1,,,,,タジマヤ,0
2680,8140001078980,登記記録の閉鎖等,0,2022-11-07,2022-11-02,株式会社ミツワ住研,,株式会社,兵庫県,川西市,栄町１０番１７号,,28,217,6660033,,,2022-11-02,清算の結了等,,,2015-10-05,1,,,,,ミツワジュウケン,0
2705,8180002025144,登記記録の閉鎖等,0,2022-11-07,2022-10-31,有限会社アイエム学習塾,,有限会社,愛知県,名古屋市緑区,砂田２丁目５０２番地,,23,114,4580807,,,2022-10-31,清算の結了等,,,2015-10-05,1,,,,,アイエムガクシュウジュク,0
2713,8180301021232,登記記録の閉鎖等,0,2022-11-07,2022-11-01,株式会社裕都,,株式会社,愛知県,豊田市,竹生町３丁目５３番地,,23,211,4710077,,,2022-11-01,合併による解散等,7180301025762,令和４年１１月１日愛知県豊田市竹生町三丁目５３番地株式会社エム商店（7180301025762）に合併し解散,2015-10-05,1,,,,,ユウト,0
2727,8220001009291,登記記録の閉鎖等,0,2022-11-07,2022-10-21,株式会社ＳＨＯＷＡ,,株式会社,東京都,港区,西新橋１丁目１２番６号,,13,103,1050003,,,2022-10-21,清算の結了等,,,2015-10-05,1,,,,,ショーワ,0
2737,8240003004603,登記記録の閉鎖等,0,2022-11-07,2022-10-31,合名会社和,,合名会社,広島県,福山市,瀬戸町大字長和２３００番地３,,34,207,7200836,,,2022-10-31,清算の結了等,,,2020-03-19,1,,,,,ナギ,0
2761,8300002008994,登記記録の閉鎖等,0,2022-11-07,2022-10-31,有限会社姉川商店,,有限会社,佐賀県,鳥栖市,轟木町１５０７番地１,,41,203,8410061,,,2022-10-31,清算の結了等,,,2015-10-05,1,,,,,アネガワショウテン,0
2777,8360001027544,登記記録の閉鎖等,0,2022-11-07,2022-10-27,株式会社ＰＩＮＫ　ＳＰＡＣＥＹ,,株式会社,沖縄県,那覇市,おもろまち１丁目１－２５,,47,201,9000006,,,2022-10-27,清算の結了等,,,2020-08-19,1,,,,,ピンクスペイシー,0
2778,8360002016158,登記記録の閉鎖等,0,2022-11-07,2022-11-01,有限会社壮美開発,,有限会社,沖縄県,宜野湾市,普天間１丁目２１番２０号,,47,205,9012202,,,2022-11-01,清算の結了等,,,2015-10-05,1,,,,,ソウビカイハツ,0
2779,8360003007395,登記記録の閉鎖等,0,2022-11-07,2022-10-31,リードライト株式会社,,株式会社,沖縄県,中頭郡中城村,字南上原１０２１番地,,47,328,9012424,,,2022-10-31,清算の結了等,,,2015-12-18,1,,,,,リードライト,0
2793,8430001081749,登記記録の閉鎖等,0,2022-11-07,2022-10-26,株式会社エヌテック,,株式会社,北海道,札幌市白石区,本通１７丁目北１０番１５－１０１号,,01,104,0030027,,,2022-10-26,清算の結了等,,,2020-06-24,1,,,,,エヌテック,0
2800,8480001008053,登記記録の閉鎖等,0,2022-11-07,2022-11-02,株式会社メガネの逢坂,,株式会社,徳島県,阿南市,領家町土倉１４番地１,,36,204,7740011,,,2022-11-02,清算の結了等,,,2015-10-05,1,,,,,メガネノオオサカ,0
2814,9010001185070,登記記録の閉鎖等,0,2022-11-07,2022-11-02,ＲＩＮＫＳ　ＴＲＡＮＳＰＯＲＴ株式会社,,株式会社,東京都,新宿区,新宿６丁目２８番７号,,13,104,1600022,,,2022-11-02,清算の結了等,,,2017-07-25,1,,,,,リンクストランスポート,0
2816,9010001209944,登記記録の閉鎖等,0,2022-11-07,2022-11-04,Ｐａｙｗｉｓｅｒ株式会社,,株式会社,東京都,渋谷区,神宮前５丁目２２番２号神宮前ガーデン３０２号室,,13,113,1500001,,,2022-11-04,清算の結了等,,,2020-06-01,1,,,,,,0
2821,9010102006968,登記記録の閉鎖等,0,2022-11-07,2022-10-31,有限会社山下製作所,,有限会社,東京都,八王子市,元八王子町２丁目１９８５番地,,13,201,1930826,,,2022-10-31,清算の結了等,,,2015-10-05,1,,,,,ヤマシタセイサクショ,0
2822,9010401007345,登記記録の閉鎖等,0,2022-11-07,2022-10-21,川繁商事株式会社,,株式会社,東京都,港区,六本木５丁目５番１号,,13,103,1060032,,,2022-10-21,清算の結了等,,,2015-10-05,1,,,,,カワシゲショウジ,0
2832,9010403012021,登記記録の閉鎖等,0,2022-11-07,2022-11-02,合同会社ルミネクスト,,合同会社,東京都,港区,芝５丁目２７番３号,,13,103,1080014,,,2022-11-02,合併による解散等,7010701026674,令和４年１０月３１日東京都新宿区新宿二丁目１２番１３号株式会社ネクサック（7010701026674）に合併し解散,2015-10-05,1,,,,,,0
2936,9030003006479,登記記録の閉鎖等,0,2022-11-07,2022-10-27,合同会社デザートフォーク,,合同会社,埼玉県,さいたま市浦和区,岸町７丁目６番１７－４０４号,,11,107,3300064,,,2022-10-27,清算の結了等,,,2015-10-05,1,,,,,デザートフォーク,0
2937,9030003008731,登記記録の閉鎖等,0,2022-11-07,2022-11-02,合同会社ＺＥＡＬ,,合同会社,東京都,台東区,元浅草１丁目６番１２号,,13,106,1110041,,,2022-11-02,清算の結了等,,,2016-04-25,1,,,,,ジール,0
2938,9030003010464,登記記録の閉鎖等,0,2022-11-07,2022-10-27,合同会社アベール,,合同会社,埼玉県,川越市,大字上戸１２４番地,,11,201,3500816,,,2022-10-27,清算の結了等,,,2017-06-27,1,,,,,アベール,0
2972,9110001024219,登記記録の閉鎖等,0,2022-11-07,2022-10-28,ユニオン・ディーケー株式会社,,株式会社,新潟県,長岡市,藤橋２丁目６６０番地１,,15,202,9402141,,,2022-10-28,清算の結了等,,,2015-10-05,1,,,,,ユニオンディーケー,0
2976,9120001023863,登記記録の閉鎖等,0,2022-11-07,2022-10-31,株式会社末広,,株式会社,大阪府,大阪市天王寺区,逢阪１丁目１番１０号,00027834,27,109,5430062,,,2022-10-31,清算の結了等,,,2015-10-05,1,,,,,スエヒロ,0
2977,9120001035545,登記記録の閉鎖等,0,2022-11-07,2022-11-01,株式会社大昌,,株式会社,大阪府,大阪市福島区,野田２丁目１７番３１号,,27,103,5530005,,,2022-11-01,清算の結了等,,,2015-10-05,1,,,,,ダイショウ,0
2981,9120001243354,登記記録の閉鎖等,0,2022-11-07,2022-11-01,株式会社ブランドオフィス,,株式会社,大阪府,大阪市北区,梅田１丁目１－３大阪駅前第３ビル２３０７,,27,127,5300001,,,2022-11-01,清算の結了等,,,2022-01-21,1,,,,,ブランドオフィス,0
2986,9120002004004,登記記録の閉鎖等,0,2022-11-07,2022-11-02,有限会社アイ・エイ・シー,,有限会社,大阪府,大阪市都島区,大東町１丁目１４番１０号,,27,102,5340002,,,2022-11-02,清算の結了等,,,2015-10-05,1,,,,,アイエイシー,0
2999,9130001056409,登記記録の閉鎖等,0,2022-11-07,2022-11-01,株式会社Ｔ‐ｐｌｕｓ,,株式会社,岐阜県,岐阜市,神田町８丁目１９番地笠原ビル４階,,21,201,5008833,,,2022-11-01,清算の結了等,,,2015-11-25,1,,,,,ティープラス,0
3026,9140005012019,登記記録の閉鎖等,0,2022-11-07,2022-11-01,柴山港水産加工業協同組合,,その他の設立登記法人,兵庫県,美方郡香美町,香住区沖浦９１１番地の８,,28,585,6696433,,,2022-11-01,清算の結了等,,,2015-10-05,1,,,,,シバヤマコウ,0
3034,9160002013109,登記記録の閉鎖等,0,2022-11-07,2022-11-02,富源商事有限会社,,有限会社,滋賀県,栗東市,小平井１丁目３番２７号,,25,208,5203034,,,2022-11-02,清算の結了等,,,2015-10-05,1,,,,,フゲンショウジ,0
3072,9240001008794,登記記録の閉鎖等,0,2022-11-07,2022-10-31,株式会社ハーベスト,,株式会社,広島県,広島市西区,己斐上２丁目４２番２８号,,34,104,7330815,,,2022-10-31,清算の結了等,,,2015-10-05,1,,,,,ハーベスト,0
3079,9260001000527,登記記録の閉鎖等,0,2022-11-07,2022-11-02,株式会社伊丹製作所,,株式会社,岡山県,岡山市北区,延友４３３番地,,33,101,7010152,,,2022-11-02,合併による解散等,2120001021304,令和４年１１月１日大阪市平野区加美北六丁目１５番１４号ハシダ技研工業株式会社（2120001021304）に合併し解散,2015-10-05,1,,,,,イタミセイサクショ,0
3080,9260001014601,登記記録の閉鎖等,0,2022-11-07,2022-10-31,藤本物産株式会社,,株式会社,岡山県,倉敷市,水島北春日町６番１１号,,33,202,7128024,,,2022-10-31,清算の結了等,,,2015-10-05,1,,,,,フジモトブッサン,0
3087,9280001002406,登記記録の閉鎖等,0,2022-11-07,2022-11-01,青空ハイヤー株式会社,,株式会社,鳥取県,米子市,西福原８丁目１０番６１号,,31,202,6830805,,,2022-11-01,清算の結了等,,,2015-10-05,1,,,,,アオゾラハイヤー,0
3092,9290002045106,登記記録の閉鎖等,0,2022-11-07,2022-11-02,有限会社ニューエージ,,有限会社,福岡県,飯塚市,楽市７６４番地,,40,205,8200074,,,2022-11-02,合併による解散等,6290002045141,令和４年１１月１日福岡県飯塚市楽市７６４番地株式会社ほなみ環境衛生工業（6290002045141）に合併し解散,2015-10-05,1,,,,,ニューエージ,0
3099,9320001003770,登記記録の閉鎖等,0,2022-11-07,2022-11-02,株式会社中央ジェネカル,,株式会社,大分県,大分市,豊町１丁目６５７７番地,,44,201,8700042,,,2022-11-02,清算の結了等,,,2015-10-05,1,,,,,チュウオウジェネカル,0
3104,9340001015319,登記記録の閉鎖等,0,2022-11-07,2022-11-02,株式会社冨山動物病院,,株式会社,鹿児島県,曽於郡大崎町,永吉８２２０番地３,,46,468,8997306,,,2022-11-02,清算の結了等,,,2015-10-05,1,,,,,トミヤマドウブツビョウイン,0
3129,9450002013104,登記記録の閉鎖等,0,2022-11-07,2022-11-02,有限会社伊藤板金工業所,,有限会社,北海道,紋別郡興部町,字興部８４番地４０,,01,561,0981600,,,2022-11-02,清算の結了等,,,2015-10-05,1,,,,,イトウバンキンコウギョウショ,0
3131,9480001004695,登記記録の閉鎖等,0,2022-11-07,2022-11-02,総合通信建設株式会社,,株式会社,徳島県,阿波市,吉野町柿原字原２９番地１,,36,206,7711401,,,2022-11-02,清算の結了等,,,2015-10-05,1,,,,,ソウゴウツウシンケンセツ,0
