sequenceNumber,corporateNumber,process,correct,updateDate,changeDate,name,nameImageId,kind,prefectureName,cityName,streetNumber,addressImageId,prefectureCode,cityCode,postCode,addressOutside,addressOutsideImageId,closeDate,closeCause,successorCorporateNumber,changeCause,assignmentDate,latest,enName,enPrefectureName,enCityName,enAddressOutside,furigana,hihyoji
4,1010001235072,新規,0,2023-05-10,2023-05-10,株式会社ＬｉｎｋＡｒｃａｄｅ,,株式会社,東京都,千代田区,富士見１丁目３番１１号,,13,101,1020071,,,,,,,2023-05-10,1,,,,,リンケード,0
5,1010001235139,新規,0,2023-05-10,2023-05-10,ＭＥＲＣＨホールディングス株式会社,,株式会社,東京都,千代田区,永田町１丁目１１番３０号サウスヒル永田町５階ＡＣＡ株式会社内,,13,101,1000014,,,,,,,2023-05-10,1,,,,,マーチホールディングス,0
7,1010003040529,新規,0,2023-05-10,2023-05-10,ｓｔｕｄｉｏ　ＢＡＵＭ合同会社,,合同会社,東京都,八丈島八丈町,中之郷２４９９番地２,,13,401,1001623,,,,,,,2023-05-10,1,,,,,スタジオバウム,0
14,1010401174135,新規,0,2023-05-10,2023-05-10,ダクサジャパン株式会社,,株式会社,東京都,港区,元麻布３丁目１番６号,,13,103,1060046,,,,,,,2023-05-10,1,,,,,ダクサジャパン,0
15,1010401174168,新規,0,2023-05-10,2023-05-10,株式会社浪鰻,,株式会社,東京都,港区,南青山５丁目１４番４号,,13,103,1070062,,,,,,,2023-05-10,1,,,,,ロマン,0
17,1010403030047,新規,0,2023-05-10,2023-05-10,合同会社ｉｍｂｅｖｉ,,合同会社,東京都,港区,南青山３丁目１８番５号,,13,103,1070062,,,,,,,2023-05-10,1,,,,,インベビ,0
20,1010501050401,新規,0,2023-05-10,2023-05-10,門田コピー工場株式会社,,株式会社,東京都,台東区,上野１丁目１０番１０号,,13,106,1100005,,,,,,,2023-05-10,1,,,,,カドタコピーコウジョウ,0
23,1010503006979,新規,0,2023-05-10,2023-05-10,合同会社ＣＡＲＥＴＲＥＥ,,合同会社,東京都,台東区,浅草橋５丁目４番５号,,13,106,1110053,,,,,,,2023-05-10,1,,,,,ケアツリー,0
25,1010601063071,新規,0,2023-05-10,2023-05-10,長栄株式会社,,株式会社,東京都,墨田区,文花１丁目３４番１１－４０８号,,13,107,1310044,,,,,,,2023-05-10,1,,,,,チョウエイ,0
26,1010603010138,新規,0,2023-05-10,2023-05-10,合同会社ＳｔｏｃｋＴｏｋ,,合同会社,東京都,江東区,東砂３丁目１９番２６－６０１号,,13,108,1360074,,,,,,,2023-05-10,1,,,,,ストックトック,0
28,1010703006688,新規,0,2023-05-10,2023-05-10,Ｐｏｌｙｍａｔｈ合同会社,,合同会社,東京都,品川区,西品川２丁目８番１号,,13,109,1410033,,,,,,,2023-05-10,1,,,,,ポリマス,0
33,1010901052988,新規,0,2023-05-10,2023-05-10,株式会社享,,株式会社,東京都,世田谷区,下馬１丁目５２番１３号,,13,112,1540002,,,,,,,2023-05-10,1,,,,,キョウ,0
44,1011001154196,新規,0,2023-05-10,2023-05-10,ＭＯＯＮ　Ｄｅｓｉｇｎ株式会社,,株式会社,東京都,渋谷区,神宮前３丁目１３－２０パセオ神宮前３０２,,13,113,1500001,,,,,,,2023-05-10,1,,,,,ムーンデザイン,0
45,1011001154246,新規,0,2023-05-10,2023-05-10,株式会社シグナル人的資本コンサルティング,,株式会社,東京都,渋谷区,恵比寿４丁目２４－４,,13,113,1500013,,,,,,,2023-05-10,1,,,,,シグナルジンテキシホンコンサルティング,0
50,1011003016790,新規,0,2023-05-10,2023-05-10,ＡＲＣＳＴＥＲＩＡ　ＣＯＮＳＵＬＴＩＮＧ合同会社,,合同会社,東京都,渋谷区,道玄坂１丁目１０番８号渋谷道玄坂東急ビル２Ｆ－Ｃ,,13,113,1500043,,,,,,,2023-05-10,1,,,,,アークステリアコンサルティング,0
58,1011101102781,新規,0,2023-05-10,2023-05-10,株式会社光英,,株式会社,東京都,新宿区,高田馬場１丁目３１－１６,,13,104,1690075,,,,,,,2023-05-10,1,,,,,コウエイ,0
61,1011103013028,新規,0,2023-05-10,2023-05-10,合同会社ｇｒＡｃｅ,,合同会社,東京都,新宿区,左門町６番地７鯉江ビル８０３,,13,104,1600017,,,,,,,2023-05-10,1,,,,,グレイス,0
62,1011401025121,新規,0,2023-05-10,2023-05-10,株式会社東方旭日,,株式会社,東京都,板橋区,板橋４丁目２１番５号,,13,119,1730004,,,,,,,2023-05-10,1,,,,,トウホウアサヒ,0
64,1011503005590,新規,0,2023-05-10,2023-05-10,合同会社ベストライト,,合同会社,東京都,北区,上中里２丁目８－２３、１階,,13,117,1140016,,,,,,,2023-05-10,1,,,,,ベストライト,0
72,1011801042360,新規,0,2023-05-10,2023-05-10,千将資本株式会社,,株式会社,東京都,足立区,栗原３丁目２６番１号２Ｆ,,13,121,1230842,,,,,,,2023-05-10,1,,,,,センショウシホン,0
73,1011803005638,新規,0,2023-05-10,2023-05-10,合同会社ＡＤＡ,,合同会社,東京都,足立区,千住曙町４０番１号,00130416,13,121,1200023,,,,,,,2023-05-10,1,,,,,エイダ,0
78,1012701017642,新規,0,2023-05-10,2023-05-10,株式会社ＭＲ,,株式会社,東京都,清瀬市,野塩１丁目１１９番地６,,13,221,2040004,,,,,,,2023-05-10,1,,,,,,0
79,1013105001828,新規,0,2023-05-10,2023-05-10,特定非営利活動法人くるまいす,,その他の設立登記法人,東京都,あきる野市,二宮１０８２番地６６,,13,228,1970814,,,,,,,2023-05-10,1,,,,,クルマイス,0
85,1020001151475,新規,0,2023-05-10,2023-05-10,株式会社アンドビヨンド,,株式会社,神奈川県,横浜市西区,北幸１丁目１１番１号水信ビル７階,,14,103,2200004,,,,,,,2023-05-10,1,,,,,アンドビヨンド,0
86,1020001151491,新規,0,2023-05-10,2023-05-10,株式会社イソベ,,株式会社,神奈川県,横浜市鶴見区,鶴見中央５丁目２１番３－１Ａ号,,14,101,2300051,,,,,,,2023-05-10,1,,,,,イソベ,0
87,1020001151500,新規,0,2023-05-10,2023-05-10,株式会社エムエスジェイ,,株式会社,神奈川県,横浜市南区,南太田１丁目１１番１３－２０８号,,14,105,2320006,,,,,,,2023-05-10,1,,,,,エムエスジェイ,0
88,1020001151509,新規,0,2023-05-10,2023-05-10,株式会社ＨＡＲＵ,,株式会社,神奈川県,川崎市麻生区,岡上５丁目１６番８号,,14,137,2150027,,,,,,,2023-05-10,1,,,,,ハル,0
94,1020003023870,新規,0,2023-05-10,2023-05-10,合同会社ＭＯＳｐ,,合同会社,神奈川県,横浜市南区,永田北２丁目６番３５号,,14,105,2320071,,,,,,,2023-05-10,1,,,,,モスピー,0
95,1020003023887,新規,0,2023-05-10,2023-05-10,合同会社ＣＯＳＭＯＳ,,合同会社,神奈川県,川崎市麻生区,万福寺４丁目１９－１－５２０,,14,137,2150004,,,,,,,2023-05-10,1,,,,,コスモス,0
96,1020005015981,新規,0,2023-05-10,2023-05-10,一般社団法人国際ソーシャルワーク協会,,その他の設立登記法人,神奈川県,川崎市麻生区,上麻生４丁目２１番１４－４１０号,,14,137,2150021,,,,,,,2023-05-10,1,,,,,コクサイソーシャルワークキョウカイ,0
102,1021001078964,新規,0,2023-05-10,2023-05-10,株式会社ＳＴＯＲＫ,,株式会社,神奈川県,藤沢市,辻堂１丁目９番３号ＳＨＯＮＡＮ　ＥＭＩＮＥＮＣＥ　１Ｆ,,14,205,2510047,,,,,,,2023-05-10,1,,,,,ストーク,0
103,1021001078972,新規,0,2023-05-10,2023-05-10,株式会社ＭＵＧＥＮ,,株式会社,神奈川県,座間市,ひばりが丘１丁目６４番２７号,,14,216,2520003,,,,,,,2023-05-10,1,,,,,ムゲン,0
105,1021003013069,新規,0,2023-05-10,2023-05-10,合同会社Ｗｅｂ４Ｇｏｏｄ,,合同会社,神奈川県,足柄下郡湯河原町,鍛冶屋４７８番地の３,,14,384,2590313,,,,,,,2023-05-10,1,,,,,ウェブフォーグッド,0
113,1030001153636,新規,0,2023-05-10,2023-05-10,Ｊ１Ｎ株式会社,,株式会社,埼玉県,さいたま市浦和区,常盤３丁目１５番２号,,11,107,3300061,,,,,,,2023-05-10,1,,,,,ジェイワンエヌ,0
114,1030001153735,新規,0,2023-05-10,2023-05-10,株式会社サンノット,,株式会社,埼玉県,久喜市,間鎌２６５番地６２,,11,232,3491123,,,,,,,2023-05-10,1,,,,,サンノット,0
117,1030003021700,新規,0,2023-05-10,2023-05-10,三村工業合同会社,,合同会社,埼玉県,戸田市,笹目２丁目２２番地の３コーポブリッジ５－１０２号室,,11,224,3350034,,,,,,,2023-05-10,1,,,,,ミムラコウギョウ,0
121,1040001128216,新規,0,2023-05-10,2023-05-10,株式会社對馬総建,,株式会社,千葉県,四街道市,栗山３１１番地１６,,12,228,2840027,,,,,,,2023-05-10,1,,,,,ツシマソウケン,0
122,1040001128257,新規,0,2023-05-10,2023-05-10,クエストマネジメント株式会社,,株式会社,千葉県,市川市,宮久保３丁目１４番２号,,12,203,2720822,,,,,,,2023-05-10,1,,,,,クエストマネジメント,0
123,1040001128281,新規,0,2023-05-10,2023-05-10,株式会社大乗,,株式会社,千葉県,袖ケ浦市,代宿３３番地２,,12,229,2990241,,,,,,,2023-05-10,1,,,,,ダイジョウ,0
124,1040001128298,新規,0,2023-05-10,2023-05-10,株式会社ＰＡＩＮＴ　ＨＥＲＯＥＳ,,株式会社,千葉県,柏市,常盤台２８番１９号,,12,217,2770087,,,,,,,2023-05-10,1,,,,,ペイントヒーローズ,0
125,1040003022549,新規,0,2023-05-10,2023-05-10,合同会社ニコニコヘルス,,合同会社,千葉県,長生郡白子町,南日当８７８番地,,12,424,2994205,,,,,,,2023-05-10,1,,,,,ニコニコヘルス,0
126,1040003022557,新規,0,2023-05-10,2023-05-10,縁起合同会社,,合同会社,千葉県,松戸市,古ケ崎４丁目３４５６番地の１,,12,207,2710068,,,,,,,2023-05-10,1,,,,,エンギ,0
127,1040003022565,新規,0,2023-05-10,2023-05-10,合同会社オハナ,,合同会社,千葉県,市川市,南八幡４丁目６番４－１３０３号,,12,203,2720023,,,,,,,2023-05-10,1,,,,,オハナ,0
128,1040003022573,新規,0,2023-05-10,2023-05-10,合同会社オフィス中島,,合同会社,千葉県,柏市,柏７０８番地の５０,,12,217,2770005,,,,,,,2023-05-10,1,,,,,オフィスナカジマ,0
131,1050001052794,新規,0,2023-05-10,2023-05-10,株式会社狩谷工業,,株式会社,茨城県,結城市,大字上山川乙２７５番地３,,08,207,3070021,,,,,,,2023-05-10,1,,,,,カリヤコウギョウ,0
132,1050001052803,新規,0,2023-05-10,2023-05-10,ＧｏｏｄＬｉｖ株式会社,,株式会社,茨城県,鹿嶋市,大字平井１１７７番地１,,08,222,3140012,,,,,,,2023-05-10,1,,,,,グッドリブ,0
136,1070001040426,新規,0,2023-05-10,2023-05-10,大洋興産株式会社,,株式会社,群馬県,前橋市,関根町２丁目５番地１９吉川ビル２０２号,,10,201,3710047,,,,,,,2023-05-10,1,,,,,タイヨウコウサン,0
137,1070003004940,新規,0,2023-05-10,2023-05-10,合同会社アイディーエー,,合同会社,群馬県,前橋市,駒形町２００－３プラセール２０３号,,10,201,3792122,,,,,,,2023-05-10,1,,,,,アイディーエー,0
167,1120001254680,新規,0,2023-05-10,2023-05-10,株式会社エクシト,,株式会社,大阪府,大阪市中央区,島之内１丁目２１番２３号大起興産長堀橋ビル５０５,,27,128,5420082,,,,,,,2023-05-10,1,,,,,エクシト,0
168,1120001254739,新規,0,2023-05-10,2023-05-10,ユーリズムコンサルティング＆アセット株式会社,,株式会社,大阪府,大阪市淀川区,塚本１丁目１５番２７号,00130414,27,123,5320026,,,,,,,2023-05-10,1,,,,,ユーリズムコンサルティングアンドアセット,0
169,1120001254771,新規,0,2023-05-10,2023-05-10,ＳＯＲＡ．株式会社,,株式会社,大阪府,大阪市淀川区,西中島５丁目１－４モジュール新大阪９０１号,,27,123,5320011,,,,,,,2023-05-10,1,,,,,ソラドット,0
171,1120003024000,新規,0,2023-05-10,2023-05-10,合同会社ＬＡＣ,,合同会社,大阪府,大阪市北区,梅田１丁目２番２－４００号大阪駅前第二ビル,,27,127,5300001,,,,,,,2023-05-10,1,,,,,エルエーシー,0
172,1120003024017,新規,0,2023-05-10,2023-05-10,アールアンドライズ合同会社,,合同会社,大阪府,寝屋川市,香里南之町１５番１６－８１１号,,27,215,5720084,,,,,,,2023-05-10,1,,,,,アールアンドライズ,0
178,1120101067504,新規,0,2023-05-10,2023-05-10,株式会社スクマホウン,,株式会社,大阪府,堺市堺区,三国ヶ丘御幸通５７番地２（１２０４号）,,27,141,5900028,,,,,,,2023-05-10,1,,,,,スクマホウン,0
180,1120903004621,新規,0,2023-05-10,2023-05-10,Ｒ’ｓ＆ｃｒｅａｔｉｖｅ合同会社,,合同会社,大阪府,摂津市,鳥飼銘木町７－１０,,27,224,5660063,,,,,,,2023-05-10,1,,,,,アールスアンドクリエイティブ,0
183,1122001036951,新規,0,2023-05-10,2023-05-10,株式会社三沢金属,,株式会社,大阪府,東大阪市,源氏ケ丘１３番５号,,27,227,5770822,,,,,,,2023-05-10,1,,,,,ミサワキンゾク,0
187,1130003008670,新規,0,2023-05-10,2023-05-10,合同会社ルーク,,合同会社,京都府,京田辺市,三山木中央２丁目７番地１８,,26,211,6100313,,,,,,,2023-05-10,1,,,,,ルーク,0
188,1130003008704,新規,0,2023-05-10,2023-05-10,暁ｐｒｏｊｅｃｔ合同会社,,合同会社,京都府,京都市上京区,土屋町通出水上る弁天町３１５番地７,,26,102,6028168,,,,,,,2023-05-10,1,,,,,アカツキプロジェクト,0
199,1140001130054,新規,0,2023-05-10,2023-05-10,株式会社ＹＭＫカンパニー,,株式会社,兵庫県,神崎郡福崎町,大貫２８６３番地４８,,28,443,6792201,,,,,,,2023-05-10,1,,,,,ワイエムケーカンパニー,0
200,1140001130104,新規,0,2023-05-10,2023-05-10,株式会社エヌテック精機,,株式会社,兵庫県,神戸市長田区,菅原通７丁目２８番地,,28,106,6530015,,,,,,,2023-05-10,1,,,,,エヌテックセイキ,0
211,1170001017587,新規,0,2023-05-10,2023-05-10,リングアライアンス株式会社,,株式会社,和歌山県,和歌山市,十二番丁３１番地,,30,201,6408158,,,,,,,2023-05-10,1,,,,,リングアライアンス,0
214,1180001156161,新規,0,2023-05-10,2023-05-10,株式会社Ｂｌｏｏｍ,,株式会社,愛知県,名古屋市中区,丸の内２丁目１７番１３号ＮＫ丸の内ビル３１０号室,,23,106,4600002,,,,,,,2023-05-10,1,,,,,ブルーム,0
215,1180001156194,新規,0,2023-05-10,2023-05-10,株式会社ｓｕｎｎｙ　ｓｐｒｅａｄ,,株式会社,愛知県,名古屋市東区,泉１丁目１４番２３号ホワイトメイツ１Ｆ,,23,102,4610001,,,,,,,2023-05-10,1,,,,,サニースプレッド,0
216,1180001156203,新規,0,2023-05-10,2023-05-10,株式会社ＯＮＥ　ＬＩＦＥ,,株式会社,愛知県,半田市,亀崎高根町４丁目１０５番地の５,,23,205,4750024,,,,,,,2023-05-10,1,,,,,ワンライフ,0
220,1180003025182,新規,0,2023-05-10,2023-05-10,イチチ合同会社,,合同会社,愛知県,名古屋市天白区,平針２丁目１８０９番地,,23,116,4680011,,,,,,,2023-05-10,1,,,,,イチチ,0
221,1180003025199,新規,0,2023-05-10,2023-05-10,合同会社オオカワ,,合同会社,愛知県,名古屋市中村区,名駅３丁目４－１０アルティメイト名駅１ｓｔ２階,,23,105,4500002,,,,,,,2023-05-10,1,,,,,オオカワ,0
222,1180003025208,新規,0,2023-05-10,2023-05-10,合同会社膳倫,,合同会社,愛知県,名古屋市千種区,丸山町３丁目４１番地,,23,101,4640843,,,,,,,2023-05-10,1,,,,,ゼンリン,0
223,1180005020215,新規,0,2023-05-10,2023-05-10,一般社団法人ワンライン,,その他の設立登記法人,愛知県,一宮市,今伊勢町本神戸字高野池１－２,,23,203,4910053,,,,,,,2023-05-10,1,,,,,ワンライン,0
232,1240001061487,新規,0,2023-05-10,2023-05-10,株式会社胆識,,株式会社,広島県,広島市安佐南区,伴東４丁目１２番５号,,34,105,7313164,,,,,,,2023-05-10,1,,,,,タンシキ,0
234,1240003006127,新規,0,2023-05-10,2023-05-10,合同会社ＭＪ　ＪＡＰＡＮ,,合同会社,広島県,東広島市,三永２丁目１番３５－３号,,34,212,7390026,,,,,,,2023-05-10,1,,,,,エムジェイジャパン,0
236,1250001020070,新規,0,2023-05-10,2023-05-10,おにく株式会社,,株式会社,山口県,下松市,中島町１丁目６－６,,35,207,7440077,,,,,,,2023-05-10,1,,,,,オニク,0
237,1250001020079,新規,0,2023-05-10,2023-05-10,株式会社ＨＩＲＯＴＡＮＩ,,株式会社,山口県,岩国市,新港町４丁目１０番１９号,,35,208,7400002,,,,,,,2023-05-10,1,,,,,ヒロタニ,0
239,1250005008822,新規,0,2023-05-10,2023-05-10,一般社団法人新・建設業地方創生研究会,,その他の設立登記法人,山口県,下関市,綾羅木新町３丁目７番１号,,35,201,7510865,,,,,,,2023-05-10,1,,,,,シンケンセツギョウチホウソウセイケンキュウカイ,0
241,1270001008774,新規,0,2023-05-10,2023-05-10,株式会社ＳＥＩＬＡＮ,,株式会社,鳥取県,倉吉市,上井３６１番地１,,31,203,6820021,,,,,,,2023-05-10,1,,,,,セイラン,0
246,1290001101412,新規,0,2023-05-10,2023-05-10,株式会社ＮＡＭＡＫＯ,,株式会社,福岡県,福岡市南区,高宮３丁目２８番２０－２０１号マローネ・高宮,,40,134,8150083,,,,,,,2023-05-10,1,,,,,ナマコ,0
247,1290001101420,新規,0,2023-05-10,2023-05-10,株式会社オートベスト,,株式会社,福岡県,福津市,上西郷１１５０番地の１５,,40,224,8113207,,,,,,,2023-05-10,1,,,,,オートベスト,0
248,1290001101429,新規,0,2023-05-10,2023-05-10,株式会社矢野電気工事,,株式会社,福岡県,朝倉市,牛木２６０番地,,40,228,8380067,,,,,,,2023-05-10,1,,,,,ヤノデンキコウジ,0
252,1290003013878,新規,0,2023-05-10,2023-05-10,合同会社ＨＡＭ．,,合同会社,福岡県,筑後市,大字山ノ井６６８番地１０,,40,211,8330031,,,,,,,2023-05-10,1,,,,,エイチエイエム,0
253,1290003013886,新規,0,2023-05-10,2023-05-10,合同会社オールパルコ,,合同会社,福岡県,宗像市,田熊４丁目１０番１４号,,40,220,8113431,,,,,,,2023-05-10,1,,,,,オールパルコ,0
254,1290003013894,新規,0,2023-05-10,2023-05-10,合同会社Ｃｏｔｏ,,合同会社,福岡県,福岡市南区,平和１丁目５番１号,,40,134,8150071,,,,,,,2023-05-10,1,,,,,コト,0
257,1290803004408,新規,0,2023-05-10,2023-05-10,合同会社ｗｅｌｌ’Ｂ＆Ｆ,,合同会社,福岡県,北九州市小倉北区,浅野２丁目１０番１９号アサノフロントビル３階,,40,106,8020001,,,,,,,2023-05-10,1,,,,,ウエルビーエフ,0
258,1300001013291,新規,0,2023-05-10,2023-05-10,株式会社まごころ不動産,,株式会社,佐賀県,鹿島市,大字納富分２８２９番地５,,41,207,8491312,,,,,,,2023-05-10,1,,,,,マゴコロフドウサン,0
260,1330001030846,新規,0,2023-05-10,2023-05-10,株式会社ピタゴラ,,株式会社,熊本県,熊本市中央区,本荘３丁目６－２６－２０４,,43,101,8600811,,,,,,,2023-05-10,1,,,,,,0
263,1340001025572,新規,0,2023-05-10,2023-05-10,株式会社ＯＴＩＳ,,株式会社,鹿児島県,鹿児島市,西田３丁目３０番１号,,46,201,8900046,,,,,,,2023-05-10,1,,,,,オーティス,0
267,1350001018328,新規,0,2023-05-10,2023-05-10,株式会社ＨＡＴＳＵＴＯＲＩ,,株式会社,宮崎県,宮崎市,別府町６番１７号宇田第３ビル３Ｆ（ＫＩＷビル）,,45,201,8800802,,,,,,,2023-05-10,1,,,,,ハツトリ,0
268,1350001018336,新規,0,2023-05-10,2023-05-10,株式会社ＨＩＴＯＴＯ,,株式会社,宮崎県,宮崎市,橘通東４丁目１番４号河北ビル,,45,201,8800805,,,,,,,2023-05-10,1,,,,,ヒトト,0
270,1350003004350,新規,0,2023-05-10,2023-05-10,合同会社エム・ワークス,,合同会社,宮崎県,宮崎市,松山２丁目１番１号ザ・レジデンス大淀河畔２０５号,,45,201,8800865,,,,,,,2023-05-10,1,,,,,エムワークス,0
271,1350005006155,新規,0,2023-05-10,2023-05-10,医療法人慈仁会,,その他の設立登記法人,宮崎県,宮崎市,清水１丁目５番８号,,45,201,8800021,,,,,,,2023-05-10,1,,,,,ジジンカイ,0
273,1360001031957,新規,0,2023-05-10,2023-05-10,ＪＥＭＳリンクル株式会社,,株式会社,沖縄県,八重山郡竹富町,字上原５１０番地コーポＩＢＭ２－３,,47,381,9071541,,,,,,,2023-05-10,1,,,,,ジェームスリンクル,0
274,1360001031973,新規,0,2023-05-10,2023-05-10,ＫＴ２株式会社,,株式会社,沖縄県,中頭郡北谷町,北谷１丁目９番地５カーサブライト１０４号,,47,326,9040116,,,,,,,2023-05-10,1,,,,,ケーティーツー,0
279,1370001049932,新規,0,2023-05-10,2023-05-10,株式会社ハルハナ,,株式会社,宮城県,多賀城市,栄２丁目３番８８号,,04,209,9850833,,,,,,,2023-05-10,1,,,,,ハルハナ,0
283,1380001033679,新規,0,2023-05-10,2023-05-10,株式会社ｍｒｋ,,株式会社,福島県,伊達市,坂ノ上１３－１１,,07,213,9600428,,,,,,,2023-05-10,1,,,,,,0
285,1400001016235,新規,0,2023-05-10,2023-05-10,株式会社コラム,,株式会社,岩手県,盛岡市,小杉山１４－３４,,03,201,0200815,,,,,,,2023-05-10,1,,,,,コラム,0
291,1410001013479,新規,0,2023-05-10,2023-05-10,株式会社タナカ,,株式会社,秋田県,秋田市,大町５丁目４番２２号ＡＳビル２Ｆ２０１,,05,201,0100921,,,,,,,2023-05-10,1,,,,,,0
295,1430001088998,新規,0,2023-05-10,2023-05-10,株式会社バーチコーポレーション,,株式会社,北海道,札幌市東区,北四十三条東１６丁目６番８号,,01,103,0070843,,,,,,,2023-05-10,1,,,,,バーチコーポレーション,0
304,1470005006507,新規,0,2023-05-10,2023-05-10,一般社団法人Ｓｅｔｏｕｃｈｉ美食倶楽部,,その他の設立登記法人,香川県,坂出市,番の州緑町６番地５,,37,203,7620065,,,,,,,2023-05-10,1,,,,,セトウチビショククラブ,0
314,2010001235179,新規,0,2023-05-10,2023-05-10,株式会社Ｒｅｖｒｅｅｌ,,株式会社,東京都,千代田区,神田小川町２丁目２番地７レインボービル１階,,13,101,1010052,,,,,,,2023-05-10,1,,,,,リヴリール,0
318,2010003040461,新規,0,2023-05-10,2023-05-10,ＲＳ合同会社,,合同会社,東京都,中央区,銀座１丁目１２番４号Ｎ＆ＥＢＬＤ．７階,,13,102,1040061,,,,,,,2023-05-10,1,,,,,アールエス,0
319,2010003040536,新規,0,2023-05-10,2023-05-10,合同会社ａｎｃｈｏｒ,,合同会社,東京都,中央区,晴海２丁目３番２－２１１７号,,13,102,1040053,,,,,,,2023-05-10,1,,,,,アンカー,0
320,2010005036631,新規,0,2023-05-10,2023-05-10,一般社団法人山王会,,その他の設立登記法人,東京都,中央区,銀座７丁目５番５号長谷第一ビル５階,,13,102,1040061,,,,,,,2023-05-10,1,,,,,サンノウカイ,0
330,2010401174134,新規,0,2023-05-10,2023-05-10,ボウリングディベロップメント株式会社,,株式会社,東京都,港区,浜松町２丁目２番１４号ＫＩビル８０３号,,13,103,1050013,,,,,,,2023-05-10,1,,,,,ボウリングディベロップメント,0
331,2010401174167,新規,0,2023-05-10,2023-05-10,トータルフューチャーヘルスケア株式会社,,株式会社,東京都,港区,虎ノ門４丁目３番１号城山トラストタワー,,13,103,1050001,,,,,,,2023-05-10,1,,,,,トータルフューチャーヘルスケア,0
332,2010401174175,新規,0,2023-05-10,2023-05-10,株式会社海洋化学,,株式会社,東京都,港区,南麻布３丁目１１番４号,,13,103,1060047,,,,,,,2023-05-10,1,,,,,カイヨウカガク,0
333,2010401174200,新規,0,2023-05-10,2023-05-10,Ｃｈａｎｚｙ　Ｊａｐａｎ株式会社,,株式会社,東京都,港区,虎ノ門１丁目２－１１ザ・パークレックス虎ノ門４階,,13,103,1050001,,,,,,,2023-05-10,1,,,,,シャンジージャパン,0
335,2010601063070,新規,0,2023-05-10,2023-05-10,ＵＮＩＰＥＴ株式会社,,株式会社,東京都,墨田区,東駒形２丁目２番１３東駒形二丁目ビル３０４号室,,13,107,1300005,,,,,,,2023-05-10,1,,,,,ユニペット,0
337,2010701044202,新規,0,2023-05-10,2023-05-10,株式会社ＤＯＮ,,株式会社,東京都,品川区,西品川１丁目１７－１９ツインアイ３０５,,13,109,1410033,,,,,,,2023-05-10,1,,,,,ディーオーエヌ,0
338,2010803004541,新規,0,2023-05-10,2023-05-10,アジアフィナンシャルグループ合同会社,,合同会社,東京都,大田区,羽田４丁目２２番１３号村石荘７,,13,111,1440043,,,,,,,2023-05-10,1,,,,,アジアフィナンシャルグループ,0
340,2010901053011,新規,0,2023-05-10,2023-05-10,株式会社１２薬局,,株式会社,東京都,世田谷区,南烏山６丁目３３－３６,,13,112,1570062,,,,,,,2023-05-10,1,,,,,ワンニャンヤッキョク,0
347,2011001154303,新規,0,2023-05-10,2023-05-10,渋谷空調株式会社,,株式会社,東京都,渋谷区,道玄坂１丁目１０番８号渋谷道玄坂東急ビル２Ｆ－Ｃ,,13,113,1500043,,,,,,,2023-05-10,1,,,,,シブヤクウチョウ,0
348,2011001154311,新規,0,2023-05-10,2023-05-10,ＮＩＫＡ株式会社,,株式会社,東京都,渋谷区,道玄坂１丁目１０番８号渋谷道玄坂東急ビル２Ｆ－Ｃ,,13,113,1500043,,,,,,,2023-05-10,1,,,,,エヌアイケーエー,0
351,2011101102772,新規,0,2023-05-10,2023-05-10,株式会社ＵＮＩＴＥＤ,,株式会社,東京都,新宿区,西新宿３丁目３番１３号西新宿水間ビル６階,,13,104,1600023,,,,,,,2023-05-10,1,,,,,ユナイテッド,0
355,2011501029260,新規,0,2023-05-10,2023-05-10,家族支援株式会社,,株式会社,東京都,北区,赤羽１丁目７番９号赤羽第一葉山ビル４Ｆ,,13,117,1150045,,,,,,,2023-05-10,1,,,,,カゾクシエン,0
356,2011501029269,新規,0,2023-05-10,2023-05-10,株式会社ベースエー２,,株式会社,東京都,荒川区,荒川５丁目２９番１号,,13,118,1160002,,,,,,,2023-05-10,1,,,,,ベースエーツー,0
360,2011603003915,新規,0,2023-05-10,2023-05-10,ゼファーズギフト合同会社,,合同会社,東京都,練馬区,大泉学園町８丁目６番２８号,,13,120,1780061,,,,,,,2023-05-10,1,,,,,ゼファーズギフト,0
368,2012703002699,新規,0,2023-05-10,2023-05-10,合同会社富士工業,,合同会社,東京都,西東京市,富士町５丁目１番６－４０１号,,13,229,2020014,,,,,,,2023-05-10,1,,,,,フジコウギョウ,0
377,2013305003474,新規,0,2023-05-10,2023-05-10,一般社団法人東京都あん摩マッサージ指圧師会,,その他の設立登記法人,東京都,豊島区,西池袋５丁目５番２１－１３０５号,,13,116,1710021,,,,,,,2023-05-10,1,,,,,トウキョウトアンママッサージシアツシカイ,0
380,2020001151490,新規,0,2023-05-10,2023-05-10,ケイブギャラクシー株式会社,,株式会社,神奈川県,川崎市高津区,久本１丁目１６番１６号,,14,134,2130011,,,,,,,2023-05-10,1,,,,,ケイブギャラクシー,0
381,2020001151508,新規,0,2023-05-10,2023-05-10,株式会社ＫＩＫＵＣＨＩラボ,,株式会社,神奈川県,横浜市戸塚区,上矢部町２４４３番地２０,,14,110,2450053,,,,,,,2023-05-10,1,,,,,キクチラボ,0
384,2020003023878,新規,0,2023-05-10,2023-05-10,合同会社大漁堂,,合同会社,神奈川県,横浜市西区,北幸２丁目１０番地２８むつみビル３Ｆ,,14,103,2200004,,,,,,,2023-05-10,1,,,,,タイリョウドウ,0
385,2020003023886,新規,0,2023-05-10,2023-05-10,ジオセンシング合同会社,,合同会社,神奈川県,横浜市西区,浅間町１丁目４番３号ウィザードビル４０２号,,14,103,2200072,,,,,,,2023-05-10,1,,,,,ジオセンシング,0
391,2021001078988,新規,0,2023-05-10,2023-05-10,株式会社友愛,,株式会社,神奈川県,藤沢市,本鵠沼１丁目１５番３号シェルメールＩ１０１,00130429,14,205,2510028,,,,,,,2023-05-10,1,,,,,ユウアイ,0
399,2030001153692,新規,0,2023-05-10,2023-05-10,株式会社いえむすび不動産,,株式会社,埼玉県,熊谷市,河原町１丁目９４番地新井ビル１階,,11,202,3600035,,,,,,,2023-05-10,1,,,,,イエムスビフドウサン,0
400,2030001153718,新規,0,2023-05-10,2023-05-10,株式会社岡本商会,,株式会社,埼玉県,白岡市,千駄野１１１３番地１６,,11,246,3490215,,,,,,,2023-05-10,1,,,,,オカモトショウカイ,0
401,2030001153742,新規,0,2023-05-10,2023-05-10,株式会社笑空ｗａｒａｋａｒａ,,株式会社,埼玉県,比企郡川島町,大字中山１３８５番地１,,11,346,3500165,,,,,,,2023-05-10,1,,,,,ワラカラワラカラ,0
402,2030001153750,新規,0,2023-05-10,2023-05-10,株式会社Ｒｅｓｅｔ＆Ｈｅａｌｉｎｇ,,株式会社,埼玉県,越谷市,越ヶ谷１丁目３番１７号コンフォート越谷１０１,,11,222,3430813,,,,,,,2023-05-10,1,,,,,リセットアンドヒーリング,0
403,2030001153759,新規,0,2023-05-10,2023-05-10,株式会社ａｎｄ　Ｕ,,株式会社,埼玉県,さいたま市南区,南浦和２丁目３３番１号桜新ビル１０１号室,,11,108,3360017,,,,,,,2023-05-10,1,,,,,アンドユー,0
405,2030003021690,新規,0,2023-05-10,2023-05-10,合同会社Ｍａｒｑｕｅ‐Ｐａｇｅ,,合同会社,埼玉県,川越市,寿町１丁目２７５番地７,,11,201,3501116,,,,,,,2023-05-10,1,,,,,マルクパージュ,0
409,2040001128231,新規,0,2023-05-10,2023-05-10,株式会社リレイション,,株式会社,千葉県,市原市,八幡１番地,,12,219,2900062,,,,,,,2023-05-10,1,,,,,リレイション,0
410,2040001128256,新規,0,2023-05-10,2023-05-10,株式会社アルガ・サポート,,株式会社,千葉県,鎌ケ谷市,鎌ケ谷４丁目１０番１６－８号,,12,224,2730105,,,,,,,2023-05-10,1,,,,,アルガサポート,0
411,2040001128280,新規,0,2023-05-10,2023-05-10,株式会社アゲイン,,株式会社,千葉県,松戸市,新松戸３丁目４２１番地,,12,207,2700034,,,,,,,2023-05-10,1,,,,,アゲイン,0
412,2040001128289,新規,0,2023-05-10,2023-05-10,株式会社未来ホーム,,株式会社,千葉県,船橋市,飯山満町２丁目４１１番地１,,12,204,2740822,,,,,,,2023-05-10,1,,,,,ミライホーム,0
413,2040001128314,新規,0,2023-05-10,2023-05-10,株式会社ＭｏｄｅＣｏｎ,,株式会社,千葉県,松戸市,二十世紀が丘柿の木町６５番２号,,12,207,2710088,,,,,,,2023-05-10,1,,,,,モデコン,0
414,2040001128330,新規,0,2023-05-10,2023-05-10,テイク株式会社,,株式会社,千葉県,我孫子市,久寺家１８番地５,,12,222,2701163,,,,,,,2023-05-10,1,,,,,テイク,0
417,2050001052793,新規,0,2023-05-10,2023-05-10,ウェルカムズ株式会社,,株式会社,茨城県,取手市,谷中４０番地３,,08,217,3001532,,,,,,,2023-05-10,1,,,,,ウェルカムズ,0
418,2050001052827,新規,0,2023-05-10,2023-05-10,株式会社チメンティーノ,,株式会社,茨城県,つくば市,吾妻２丁目５番１,,08,220,3050031,,,,,,,2023-05-10,1,,,,,チメンティーノ,0
419,2050003007473,新規,0,2023-05-10,2023-05-10,Ｋコンサルティング合同会社,,合同会社,茨城県,つくば市,吾妻１丁目５－７ダイワロイネットホテルつくばビル２階,,08,220,3050031,,,,,,,2023-05-10,1,,,,,ケーコンサルティング,0
420,2060001035979,新規,0,2023-05-10,2023-05-10,株式会社四季コミニュケーションズ,,株式会社,栃木県,那須郡那珂川町,大内１６２３,,09,411,3240605,,,,,,,2023-05-10,1,,,,,シキコミニュケーションズ,0
426,2080101023989,新規,0,2023-05-10,2023-05-10,株式会社ＹＩＲＩＳ,,株式会社,静岡県,伊東市,富戸１３１７‐４５７３,,22,208,4130231,,,,,,,2023-05-10,1,,,,,イリス,0
429,2090001018106,新規,0,2023-05-10,2023-05-10,株式会社ａｃｔＩｌｌ,,株式会社,山梨県,甲斐市,中下条１２３２番地１,,19,210,4000124,,,,,,,2023-05-10,1,,,,,アクティル,0
434,2100003007006,新規,0,2023-05-10,2023-05-10,ＭＹＮアセット合同会社,,合同会社,長野県,飯田市,上郷黒田８５,,20,205,3950004,,,,,,,2023-05-10,1,,,,,マインアセット,0
436,2100005013010,新規,0,2023-05-10,2023-05-10,一般社団法人心臓病検診推進センター,,その他の設立登記法人,長野県,諏訪市,大字豊田２１５９番地１,,20,206,3920016,,,,,,,2023-05-10,1,,,,,シンゾウビョウケンシンスイシンセンター,0
459,2120001254746,新規,0,2023-05-10,2023-05-10,株式会社ＵＯＭ,,株式会社,大阪府,大阪市中央区,淡路町３丁目６－１４,,27,128,5410047,,,,,,,2023-05-10,1,,,,,ユーオーエム,0
460,2120001254762,新規,0,2023-05-10,2023-05-10,株式会社Ｆｕｔｕｒｅ　Ｓｕｐｐｏｒｔ,,株式会社,大阪府,枚方市,香里園町１２番１０－３号,,27,210,5730086,,,,,,,2023-05-10,1,,,,,フューチャーサポート,0
461,2120001254770,新規,0,2023-05-10,2023-05-10,株式会社サンテック,,株式会社,大阪府,大阪市北区,梅田１丁目２番２号大阪駅前第２ビル１２－１２,,27,127,5300001,,,,,,,2023-05-10,1,,,,,サンテック,0
468,2120003024016,新規,0,2023-05-10,2023-05-10,合同会社ｋｉｚｕｎａ,,合同会社,大阪府,大阪市住吉区,住吉２丁目８－４グランファミール住吉大社１０１,,27,120,5580045,,,,,,,2023-05-10,1,,,,,キズナ,0
469,2120003024032,新規,0,2023-05-10,2023-05-10,合同会社イリス,,合同会社,大阪府,大阪市東成区,中本３丁目１５番１５－５０５号,,27,115,5370022,,,,,,,2023-05-10,1,,,,,イリス,0
479,2130001074235,新規,0,2023-05-10,2023-05-10,株式会社ａｉｏ,,株式会社,京都府,木津川市,梅美台５丁目１３番地２,,26,214,6190215,,,,,,,2023-05-10,1,,,,,アイオ,0
488,2140001130086,新規,0,2023-05-10,2023-05-10,株式会社セカンドステージ,,株式会社,兵庫県,西宮市,戸田町４番３号,,28,204,6620916,,,,,,,2023-05-10,1,,,,,セカンドステージ,0
489,2140001130111,新規,0,2023-05-10,2023-05-10,株式会社ＨＫシステムマネジメント,,株式会社,兵庫県,宝塚市,仁川北２丁目７番１号,,28,214,6650061,,,,,,,2023-05-10,1,,,,,エイチケーシステムマネジメント,0
500,2140005026594,新規,0,2023-05-10,2023-05-10,一般社団法人古民家再生協会淡路,,その他の設立登記法人,兵庫県,淡路市,生田畑２９２番地,,28,226,6561604,,,,,,,2023-05-10,1,,,,,コミンカサイセイキョウカイアワジ,0
501,2140005026611,新規,0,2023-05-10,2023-05-10,一般社団法人ＴＭアソシエーション,,その他の設立登記法人,兵庫県,神戸市兵庫区,船大工町２番１０号,,28,105,6520843,,,,,,,2023-05-10,1,,,,,ティーエムアソシエーション,0
502,2160001025004,新規,0,2023-05-10,2023-05-10,スプロート株式会社,,株式会社,滋賀県,愛知郡愛荘町,松尾寺２７２番地,,25,425,5291202,,,,,,,2023-05-10,1,,,,,スプロート,0
503,2160001025029,新規,0,2023-05-10,2023-05-10,株式会社和円商事,,株式会社,滋賀県,大津市,大石曽束町上出４８７番地,,25,201,5202261,,,,,,,2023-05-10,1,,,,,ワエンショウジ,0
510,2180001156152,新規,0,2023-05-10,2023-05-10,株式会社豊明警備保障,,株式会社,愛知県,豊明市,三崎町高鴨６番地１８,,23,229,4701126,,,,,,,2023-05-10,1,,,,,トヨアケケイビホショウ,0
511,2180001156193,新規,0,2023-05-10,2023-05-10,株式会社ＩＮＮＯＶＡＴＩＯＮ,,株式会社,愛知県,名古屋市名東区,本郷１丁目４３番地,,23,115,4650024,,,,,,,2023-05-10,1,,,,,イノベーション,0
512,2180001156202,新規,0,2023-05-10,2023-05-10,株式会社ｍｉｓ‐ｃｈｉｅｆ．,,株式会社,愛知県,名古屋市中川区,馬手町１丁目７６番地,,23,110,4540845,,,,,,,2023-05-10,1,,,,,ミスチーフ,0
515,2180003025198,新規,0,2023-05-10,2023-05-10,合同会社スリーシーズン,,合同会社,愛知県,大府市,桃山町５丁目２００番地ザ・リレーションＩ２０３,00130426,23,223,4740026,,,,,,,2023-05-10,1,,,,,スリーシーズン,0
516,2180005020214,新規,0,2023-05-10,2023-05-10,一般社団法人太陽光発電相談センター,,その他の設立登記法人,愛知県,名古屋市千種区,末盛通３丁目１５番地の１,,23,101,4640821,,,,,,,2023-05-10,1,,,,,タイヨウコウハツデンソンダンセンター,0
524,2200003005949,新規,0,2023-05-10,2023-05-10,合同会社一二三興業,,合同会社,岐阜県,岐阜市,岩栄町１丁目１０番地３,,21,201,5008134,,,,,,,2023-05-10,1,,,,,ヒフミコウギョウ,0
529,2240001061486,新規,0,2023-05-10,2023-05-10,株式会社克己工業,,株式会社,広島県,府中市,河面町１１６１番地,,34,208,7260036,,,,,,,2023-05-10,1,,,,,カツミコウギョウ,0
540,2260001037922,新規,0,2023-05-10,2023-05-10,株式会社宝官建設,,株式会社,岡山県,岡山市東区,瀬戸町光明谷２２８番地１１,,33,103,7090876,,,,,,,2023-05-10,1,,,,,ホウガンケンセツ,0
541,2260003004301,新規,0,2023-05-10,2023-05-10,ＡＴＯＭＵ合同会社,,合同会社,岡山県,岡山市北区,問屋町１２番地１０２アルファステイツ問屋町ＩＩ８０２号,00130413,33,101,7000977,,,,,,,2023-05-10,1,,,,,アトム,0
547,2290001101485,新規,0,2023-05-10,2023-05-10,久欣成株式会社,,株式会社,福岡県,福岡市西区,愛宕浜１丁目２９番６号,,40,135,8190013,,,,,,,2023-05-10,1,,,,,クキンセイ,0
548,2290003013885,新規,0,2023-05-10,2023-05-10,合同会社サロンド・パルコ,,合同会社,福岡県,宗像市,自由ヶ丘３丁目１６番地１４,,40,220,8114163,,,,,,,2023-05-10,1,,,,,サロンドパルコ,0
550,2310001018405,新規,0,2023-05-10,2023-05-10,株式会社ＢＥＡＵＴＩＦＵＬ　ＬＩＦＥ　ＤＥＳＩＧＮ,,株式会社,長崎県,諫早市,小長井町井崎９５４番地７,,42,204,8590166,,,,,,,2023-05-10,1,,,,,ビューティフルライフデザイン,0
553,2320005010076,新規,0,2023-05-10,2023-05-10,一般社団法人カテリーナの森,,その他の設立登記法人,大分県,杵築市,山香町大字野原４２８番地,,44,210,8791307,,,,,,,2023-05-10,1,,,,,カテリーナノモリ,0
558,2340001025571,新規,0,2023-05-10,2023-05-10,株式会社グレイトフルリンク,,株式会社,鹿児島県,鹿屋市,札元２丁目３８２０番地４２,,46,203,8930013,,,,,,,2023-05-10,1,,,,,グレイトフルリンク,0
564,2350001018343,新規,0,2023-05-10,2023-05-10,株式会社ＷＥＥ‐ＵＰ,,株式会社,宮崎県,延岡市,船倉町２丁目４番地１８,,45,203,8820826,,,,,,,2023-05-10,1,,,,,ウィーアップ,0
566,2360003012938,新規,0,2023-05-10,2023-05-10,合同会社ユウキウェル,,合同会社,沖縄県,名護市,字呉我３９７,,47,209,9051154,,,,,,,2023-05-10,1,,,,,ユウキウェル,0
567,2360005006847,新規,0,2023-05-10,2023-05-10,一般社団法人新光管財,,その他の設立登記法人,沖縄県,那覇市,西３丁目１３番５７号,,47,201,9000036,,,,,,,2023-05-10,1,,,,,シンコウカンザイ,0
570,2370003006121,新規,0,2023-05-10,2023-05-10,合同会社ブライト,,合同会社,宮城県,仙台市青葉区,北根３丁目２番１０号,,04,101,9810902,,,,,,,2023-05-10,1,,,,,ブライト,0
573,2380001033653,新規,0,2023-05-10,2023-05-10,株式会社開成シャッター,,株式会社,福島県,郡山市,八山田西１丁目１６９番地,,07,203,9638053,,,,,,,2023-05-10,1,,,,,カイセイシャッター,0
574,2380001033661,新規,0,2023-05-10,2023-05-10,株式会社サンアール,,株式会社,福島県,いわき市,小名浜島字西屋５５番地の５,,07,204,9718125,,,,,,,2023-05-10,1,,,,,サンアール,0
583,2430001089005,新規,0,2023-05-10,2023-05-10,ＢＥＮＥ株式会社,,株式会社,北海道,千歳市,信濃２丁目５番１６号,,01,224,0660038,,,,,,,2023-05-10,1,,,,,ベネ,0
584,2430001089046,新規,0,2023-05-10,2023-05-10,クドウパイプエンジニアリング株式会社,,株式会社,北海道,小樽市,銭函４丁目１７７番地３,,01,203,0613271,,,,,,,2023-05-10,1,,,,,クドウパイプエンジニアリング,0
589,2430003015000,新規,0,2023-05-10,2023-05-10,合同会社喜紙,,合同会社,北海道,札幌市東区,東雁来十二条２丁目１０番５号,,01,103,0070032,,,,,,,2023-05-10,1,,,,,キシ,0
600,3010001235129,新規,0,2023-05-10,2023-05-10,株式会社ニュイストワークス,,株式会社,東京都,千代田区,神田佐久間町３丁目２１号谷田部ビル３Ｆ－３３,,13,101,1010025,,,,,,,2023-05-10,1,,,,,ニュイストワークス,0
601,3010001235145,新規,0,2023-05-10,2023-05-10,株式会社アインプム,,株式会社,東京都,千代田区,紀尾井町３番１０号紀尾井町ガーデンタワー２５０４号（Ｃ／Ｏｓｈｉｍａｄａ－ｏｆｆｉｃｅ）,,13,101,1020094,,,,,,,2023-05-10,1,,,,,アインプム,0
603,3010003040527,新規,0,2023-05-10,2023-05-10,合同会社ＷＯＯＤ　ＡＶＮＩ,,合同会社,東京都,千代田区,神田須田町１丁目７番地ＫＤＸレジデンス秋葉原ＩＩ１００２号,00130409,13,101,1010041,,,,,,,2023-05-10,1,,,,,ウッドアヴニ,0
604,3010003040543,新規,0,2023-05-10,2023-05-10,合同会社ｅｍｂｅｌｌｉｅ,,合同会社,東京都,中央区,新川２丁目１９番６－５１０号,,13,102,1040033,,,,,,,2023-05-10,1,,,,,アンベリー,0
606,3010005036622,新規,0,2023-05-10,2023-05-10,一般社団法人グリーンデータセンター開発,,その他の設立登記法人,東京都,文京区,関口１丁目２４番８号,,13,105,1120014,,,,,,,2023-05-10,1,,,,,グリーンデータセンターカイハツ,0
607,3010005036630,新規,0,2023-05-10,2023-05-10,一般社団法人銀河第５号,,その他の設立登記法人,東京都,中央区,日本橋１丁目４番１号日本橋一丁目ビルディング,,13,102,1030027,,,,,,,2023-05-10,1,,,,,ギンガダイゴゴウ,0
611,3010401174158,新規,0,2023-05-10,2023-05-10,株式会社ＴＡＧＯＴＥＲＵ,,株式会社,東京都,港区,麻布台３丁目５番５－５０３号,,13,103,1060041,,,,,,,2023-05-10,1,,,,,タゴテル,0
612,3010401174199,新規,0,2023-05-10,2023-05-10,株式会社タナカ企画,,株式会社,東京都,港区,浜松町２丁目２番１５号,,13,103,1050013,,,,,,,2023-05-10,1,,,,,タナカキカク,0
613,3010401174216,新規,0,2023-05-10,2023-05-10,ＧＵＹ株式会社,,株式会社,東京都,港区,白金２丁目５番２０－１６０３号,,13,103,1080072,,,,,,,2023-05-10,1,,,,,ガイ,0
617,3010501050416,新規,0,2023-05-10,2023-05-10,株式会社マーケットアルファ,,株式会社,東京都,台東区,浅草７丁目７番８号,,13,106,1110032,,,,,,,2023-05-10,1,,,,,マーケットアルファ,0
620,3010601063061,新規,0,2023-05-10,2023-05-10,株式会社華斯特,,株式会社,東京都,江東区,亀戸６丁目３８－１１ノビールメンテウエダＡ棟４０７,,13,108,1360071,,,,,,,2023-05-10,1,,,,,ワステ,0
622,3010603010128,新規,0,2023-05-10,2023-05-10,ビ・アルボル合同会社,,合同会社,東京都,江東区,東雲１丁目９番２２－１４０９号,,13,108,1350062,,,,,,,2023-05-10,1,,,,,ビアルボル,0
623,3010603010136,新規,0,2023-05-10,2023-05-10,合同会社Ｈ２,,合同会社,東京都,墨田区,両国１丁目３番１１号アオヤギ両国ビル,,13,107,1300026,,,,,,,2023-05-10,1,,,,,エイチツー,0
626,3010701044201,新規,0,2023-05-10,2023-05-10,ＣｉＥＡＳＴ株式会社,,株式会社,東京都,品川区,大井４丁目２９番１８号,,13,109,1400014,,,,,,,2023-05-10,1,,,,,シースト,0
627,3010801033938,新規,0,2023-05-10,2023-05-10,アースフォレスト株式会社,,株式会社,東京都,大田区,田園調布４丁目４２番２１号,,13,111,1450071,,,,,,,2023-05-10,1,,,,,アースフォレスト,0
635,3011001154211,新規,0,2023-05-10,2023-05-10,ｎｉｎｅ　ｐｌａｎ株式会社,,株式会社,東京都,渋谷区,代々木３丁目１番１１号,,13,113,1510053,,,,,,,2023-05-10,1,,,,,ナインプラン,0
636,3011001154269,新規,0,2023-05-10,2023-05-10,株式会社純親設備,,株式会社,東京都,渋谷区,本町２丁目２８番１０号パティオ町田３０１,,13,113,1510071,,,,,,,2023-05-10,1,,,,,ジュンシンセツビ,0
652,3011501029235,新規,0,2023-05-10,2023-05-10,株式会社アルアルエグループＲＲＡ,,株式会社,東京都,北区,上十条３丁目９－１３－２０４,,13,117,1140034,,,,,,,2023-05-10,1,,,,,アルアルエグループアルアルエ,0
653,3011601026784,新規,0,2023-05-10,2023-05-10,株式会社木内ランドスケープデザイン,,株式会社,東京都,練馬区,富士見台１丁目３番３号,,13,120,1770034,,,,,,,2023-05-10,1,,,,,キウチランドスケープデザイン,0
666,3011801042334,新規,0,2023-05-10,2023-05-10,株式会社ふくや,,株式会社,東京都,足立区,入谷２丁目３番１３号,,13,121,1210836,,,,,,,2023-05-10,1,,,,,フクヤ,0
667,3011801042342,新規,0,2023-05-10,2023-05-10,株式会社Ｋｎａｃｋｓ,,株式会社,東京都,足立区,本木西町８番１０号,,13,121,1230856,,,,,,,2023-05-10,1,,,,,ナックス,0
668,3011801042350,新規,0,2023-05-10,2023-05-10,株式会社トーシンアネックス,,株式会社,東京都,足立区,保塚町１６番８号パークレジデンス１０６号,00130423,13,121,1200000,,,,,,,2023-05-10,1,,,,,トーシンアネックス,0
669,3011801042359,新規,0,2023-05-10,2023-05-10,株式会社サケマーケット,,株式会社,東京都,足立区,梅島３丁目３３番６号４Ｆ,,13,121,1210816,,,,,,,2023-05-10,1,,,,,サケマーケット,0
673,3012401040505,新規,0,2023-05-10,2023-05-10,株式会社Ｍａｉｓｏｎ　Ｈａｔａｋｅｙａｍａ,,株式会社,東京都,調布市,小島町１丁目２番地５アジャンタ調布ＩＩ１階,00130415,13,208,1820026,,,,,,,2023-05-10,1,,,,,メゾンハタケヤマ,0
676,3012403005976,新規,0,2023-05-10,2023-05-10,合同会社なごみ,,合同会社,東京都,調布市,多摩川５丁目４番地１京王多摩川コーポラス５３１,,13,208,1820025,,,,,,,2023-05-10,1,,,,,ナゴミ,0
678,3012801022334,新規,0,2023-05-10,2023-05-10,アスレゾン株式会社,,株式会社,東京都,東大和市,桜が丘２丁目２２４番地の１コスモ・ザ・パークス玉川上水５１５,,13,220,2070022,,,,,,,2023-05-10,1,,,,,アスレゾン,0
679,3013301050726,新規,0,2023-05-10,2023-05-10,株式会社シン・セツ,,株式会社,東京都,豊島区,南池袋２丁目４９番７号池袋パークビル１階,,13,116,1710022,,,,,,,2023-05-10,1,,,,,シンセツ,0
680,3013303006619,新規,0,2023-05-10,2023-05-10,合同会社シンゲキダン,,合同会社,東京都,豊島区,千早３丁目３５番７号ロイヤル千早町１０２号,,13,116,1710044,,,,,,,2023-05-10,1,,,,,シンゲキダン,0
684,3020001151399,新規,0,2023-05-10,2023-05-10,Ｒｏｕｔｏｘ株式会社,,株式会社,神奈川県,横浜市保土ケ谷区,上菅田町６６２番地万葉上菅田マンション３０１,,14,106,2400051,,,,,,,2023-05-10,1,,,,,ルートックス,0
685,3020001151449,新規,0,2023-05-10,2023-05-10,株式会社ｗｈｉｔｅｒｏｏｍ,,株式会社,神奈川県,横浜市西区,北幸２丁目１０番２８号むつみビル３Ｆ,,14,103,2200004,,,,,,,2023-05-10,1,,,,,ホワイトルーム,0
686,3020001151481,新規,0,2023-05-10,2023-05-10,株式会社ドットウェル,,株式会社,神奈川県,横浜市西区,高島２丁目１１番２号スカイメナー横浜５１９,,14,103,2200011,,,,,,,2023-05-10,1,,,,,ドットウェル,0
687,3020001151498,新規,0,2023-05-10,2023-05-10,株式会社ＩＳＹ,,株式会社,神奈川県,横浜市港北区,綱島西５丁目１８番４６号,,14,109,2230053,,,,,,,2023-05-10,1,,,,,アイエスワイ,0
688,3020001151507,新規,0,2023-05-10,2023-05-10,株式会社ＮＥＸＴ,,株式会社,神奈川県,横浜市戸塚区,上矢部町１７８４番地１グランドシャトーレ１０２号室,,14,110,2450053,,,,,,,2023-05-10,1,,,,,ネクスト,0
689,3020003023877,新規,0,2023-05-10,2023-05-10,合同会社ＮＩＮ,,合同会社,神奈川県,横浜市港北区,大曽根台１１番１４－５号,,14,109,2220004,,,,,,,2023-05-10,1,,,,,ニン,0
695,3021001078962,新規,0,2023-05-10,2023-05-10,株式会社リグラッド,,株式会社,神奈川県,茅ヶ崎市,高田３丁目１７番１８号,,14,207,2530002,,,,,,,2023-05-10,1,,,,,リグラッド,0
696,3021001078970,新規,0,2023-05-10,2023-05-10,株式会社Ｑｕｅｓｔ,,株式会社,神奈川県,三浦郡葉山町,下山口１９０５番地,,14,301,2400116,,,,,,,2023-05-10,1,,,,,クエスト,0
697,3021001078987,新規,0,2023-05-10,2023-05-10,株式会社トップ,,株式会社,神奈川県,横須賀市,粟田１丁目２番２４号,,14,201,2390845,,,,,,,2023-05-10,1,,,,,トップ,0
708,3030001153766,新規,0,2023-05-10,2023-05-10,株式会社とかげ,,株式会社,埼玉県,さいたま市緑区,大字大門７２４番地５,,11,109,3360963,,,,,,,2023-05-10,1,,,,,トカゲ,0
718,3040001128230,新規,0,2023-05-10,2023-05-10,株式会社音楽工房キャップス,,株式会社,千葉県,千葉市中央区,市場町２番９号,,12,101,2600855,,,,,,,2023-05-10,1,,,,,オンガクコウボウキャップス,0
719,3040001128271,新規,0,2023-05-10,2023-05-10,加須トレーディング株式会社,,株式会社,千葉県,富里市,十倉２４５０番地４６,,12,233,2860212,,,,,,,2023-05-10,1,,,,,カゾトレーディング,0
720,3040001128288,新規,0,2023-05-10,2023-05-10,株式会社丸進,,株式会社,千葉県,佐倉市,中志津７丁目３７５番地２,,12,212,2850843,,,,,,,2023-05-10,1,,,,,マルシン,0
721,3040001128305,新規,0,2023-05-10,2023-05-10,株式会社カンパネラ,,株式会社,千葉県,千葉市稲毛区,小仲台２丁目１２番１５号,,12,103,2630043,,,,,,,2023-05-10,1,,,,,カンパネラ,0
725,3040003022571,新規,0,2023-05-10,2023-05-10,合同会社ｌｕｃｉｏｌｅ,,合同会社,千葉県,流山市,南流山２丁目１１番地の８パークサイド南流山３０３,,12,220,2700163,,,,,,,2023-05-10,1,,,,,リュシオル,0
727,3050001052801,新規,0,2023-05-10,2023-05-10,株式会社Ｅｃｌａｔ,,株式会社,茨城県,古河市,恩名２１９９番地１,,08,204,3060104,,,,,,,2023-05-10,1,,,,,エクレート,0
731,3060005010093,新規,0,2023-05-10,2023-05-10,一般社団法人国際ＷＡＹＡＫＵ‐ＳＯＵ和薬草セラピー協会,,その他の設立登記法人,栃木県,那須塩原市,板室８４１番地１４,,09,213,3250111,,,,,,,2023-05-10,1,,,,,コクサイワヤクソウワヤクソウセラピーキョウカイ,0
735,3080101023988,新規,0,2023-05-10,2023-05-10,株式会社Ｔｈｅ　Ｔｅａｍ　Ｂｕｓｉｎｅｓｓ　Ｓｏｌｕｔｉｏｎｓ,,株式会社,静岡県,沼津市,三枚橋町１１‐１２アジュールビル３階,,22,203,4100037,,,,,,,2023-05-10,1,,,,,ザチームビジネスソリューションズ,0
736,3080103002800,新規,0,2023-05-10,2023-05-10,オラシオンコンプリーダ合同会社,,合同会社,静岡県,富士宮市,山本４９０番地の３,,22,207,4180023,,,,,,,2023-05-10,1,,,,,オラシオンコンプリーダ,0
758,3110001037515,新規,0,2023-05-10,2023-05-10,株式会社このま不動産,,株式会社,新潟県,長岡市,城内町２丁目６番地６,,15,202,9400061,,,,,,,2023-05-10,1,,,,,コノマフドウサン,0
772,3120001254712,新規,0,2023-05-10,2023-05-10,株式会社ｍｉｎｅｘ,,株式会社,大阪府,大阪市城東区,新喜多東２丁目６番３６号,,27,118,5360017,,,,,,,2023-05-10,1,,,,,マインエックス,0
773,3120001254729,新規,0,2023-05-10,2023-05-10,株式会社Ｍａｒｇｉｎａｌｉｏ,,株式会社,大阪府,大阪市北区,天満４丁目６番１０号,,27,127,5300043,,,,,,,2023-05-10,1,,,,,マージナリオ,0
775,3120003024015,新規,0,2023-05-10,2023-05-10,Ｈ荘合同会社,,合同会社,大阪府,大阪市北区,梅田１丁目２番２号大阪駅前第２ビル１２－１２,,27,127,5300001,,,,,,,2023-05-10,1,,,,,エイチソウ,0
784,3122001036941,新規,0,2023-05-10,2023-05-10,株式会社ひとつなぐ,,株式会社,大阪府,東大阪市,長堂１丁目８－３７ヴェル・ノール布施３階ＲｅｑｒｅｅＶｅｌｌｅｎｏｒｄ内,,27,227,5770056,,,,,,,2023-05-10,1,,,,,ヒトツナグ,0
789,3130001074226,新規,0,2023-05-10,2023-05-10,株式会社まりきち,,株式会社,京都府,京都市中京区,蛸薬師通新京極東入裏寺町５９５番地１１,,26,104,6048041,,,,,,,2023-05-10,1,,,,,マリキチ,0
790,3130001074283,新規,0,2023-05-10,2023-05-10,ＤｅｍａＧｅｎＡＩ株式会社,,株式会社,京都府,京都市下京区,朱雀宝蔵町４４番地協栄ビル２階京都朱雀スタジオ,,26,106,6008846,,,,,,,2023-05-10,1,,,,,デマジェンエーアイ,0
797,3140001129994,新規,0,2023-05-10,2023-05-10,株式会社ＴＯＰ,,株式会社,兵庫県,神戸市西区,長畑町２２６番地,,28,111,6512148,,,,,,,2023-05-10,1,,,,,トップ,0
798,3140001130069,新規,0,2023-05-10,2023-05-10,キシモトデザイン株式会社,,株式会社,兵庫県,姫路市,香寺町中仁野６５５番地４,,28,201,6792143,,,,,,,2023-05-10,1,,,,,キシモトデザイン,0
799,3140001130110,新規,0,2023-05-10,2023-05-10,株式会社カノア,,株式会社,兵庫県,西宮市,堤町１番３６号フレッツァ西宮堤町Ｄ号室,,28,204,6638012,,,,,,,2023-05-10,1,,,,,,0
805,3140003019070,新規,0,2023-05-10,2023-05-10,合同会社プルスウルトラ,,合同会社,兵庫県,西宮市,川西町２番２２号,,28,204,6620951,,,,,,,2023-05-10,1,,,,,プルスウルトラ,0
808,3150001026381,新規,0,2023-05-10,2023-05-10,株式会社ＵＮ‐Ｄ,,株式会社,奈良県,橿原市,膳夫町５３５番地３,,29,205,6340012,,,,,,,2023-05-10,1,,,,,ユーエヌディ,0
809,3150003002959,新規,0,2023-05-10,2023-05-10,ｙｏｕｗｏｒｔｈ合同会社,,合同会社,奈良県,奈良市,西登美ヶ丘２丁目１５番Ｄ－１１９号,,29,201,6310006,,,,,,,2023-05-10,1,,,,,ユーワース,0
815,3170001017593,新規,0,2023-05-10,2023-05-10,株式会社Ｎシステム,,株式会社,和歌山県,和歌山市,吐前２９０番地１,,30,201,6496275,,,,,,,2023-05-10,1,,,,,エヌシステム,0
827,3180001156093,新規,0,2023-05-10,2023-05-10,東海ミュージアム株式会社,,株式会社,愛知県,知多市,にしの台２丁目１００－７－７０７,,23,224,4780055,,,,,,,2023-05-10,1,,,,,トウカイミュージアム,0
828,3180001156184,新規,0,2023-05-10,2023-05-10,株式会社ＳＥＮＹ,,株式会社,愛知県,名古屋市緑区,神沢１丁目３４２番地の１,,23,114,4580014,,,,,,,2023-05-10,1,,,,,セニー,0
829,3180001156201,新規,0,2023-05-10,2023-05-10,ＡｉｒＰｌａｎｔｓ株式会社,,株式会社,愛知県,清須市,西枇杷島町旭１丁目３３番地１１,,23,233,4520064,,,,,,,2023-05-10,1,,,,,エアープランツ,0
830,3180001156234,新規,0,2023-05-10,2023-05-10,株式会社ＤＡＮＫＯ,,株式会社,愛知県,春日井市,柏井町６丁目６番地,,23,206,4860927,,,,,,,2023-05-10,1,,,,,ダンコ,0
835,3190001030396,新規,0,2023-05-10,2023-05-10,株式会社ＩＧＣ,,株式会社,三重県,四日市市,平尾町１９９５番地３,,24,202,5121205,,,,,,,2023-05-10,1,,,,,アイジーシー,0
845,3220003003504,新規,0,2023-05-10,2023-05-10,合同会社ほしの,,合同会社,石川県,金沢市,泉野町４丁目１２番２０号（フィナールアソシアード１０５号）,,17,201,9218034,,,,,,,2023-05-10,1,,,,,ホシノ,0
854,3240001061485,新規,0,2023-05-10,2023-05-10,株式会社三波,,株式会社,広島県,呉市,広大新開３丁目５番５６－２０１号,,34,202,7370141,,,,,,,2023-05-10,1,,,,,ミナミ,0
862,3250001020077,新規,0,2023-05-10,2023-05-10,株式会社ＴＯＭＯＳＳ,,株式会社,山口県,下関市,宝町８番１７号,,35,201,7510822,,,,,,,2023-05-10,1,,,,,トモス,0
863,3250001020093,新規,0,2023-05-10,2023-05-10,株式会社ＲＡＩＺＥＳ,,株式会社,山口県,周南市,若宮町１丁目１０番地,,35,215,7450016,,,,,,,2023-05-10,1,,,,,ライゼス,0
871,3290001101369,新規,0,2023-05-10,2023-05-10,Ｋｉｎｇ　Ｈｏｍｅ株式会社,,株式会社,福岡県,大川市,大字酒見１２２３－２,,40,212,8310016,,,,,,,2023-05-10,1,,,,,キングホーム,0
872,3290001101410,新規,0,2023-05-10,2023-05-10,株式会社ヤムヤム,,株式会社,福岡県,福岡市中央区,白金２丁目１２－１徳福ビル１０２,,40,133,8100012,,,,,,,2023-05-10,1,,,,,ヤムヤム,0
873,3290001101419,新規,0,2023-05-10,2023-05-10,株式会社上村建道,,株式会社,福岡県,嘉麻市,口春４５３番地９,,40,227,8200207,,,,,,,2023-05-10,1,,,,,ウエムラケンドウ,0
874,3290001101427,新規,0,2023-05-10,2023-05-10,株式会社ＧＮＴコーポレーション,,株式会社,福岡県,久留米市,田主丸町地徳２６６７番地,,40,203,8391214,,,,,,,2023-05-10,1,,,,,ジーエヌティーコーポレーション,0
875,3290003013876,新規,0,2023-05-10,2023-05-10,合同会社Ｈｏｐｅ　Ｈｉｌｌ,,合同会社,福岡県,糟屋郡新宮町,中央駅前２丁目８番１０－８０１号,,40,345,8110120,,,,,,,2023-05-10,1,,,,,ホープヒル,0
879,3300003001961,新規,0,2023-05-10,2023-05-10,合同会社スタート,,合同会社,佐賀県,杵島郡大町町,大字大町５１３６番地９,,41,423,8492101,,,,,,,2023-05-10,1,,,,,スタート,0
892,3340001025570,新規,0,2023-05-10,2023-05-10,さつまファーム株式会社,,株式会社,鹿児島県,薩摩郡さつま町,求名２４８１番地,,46,392,8952201,,,,,,,2023-05-10,1,,,,,サツマファーム,0
894,3350001018326,新規,0,2023-05-10,2023-05-10,株式会社ＳｕｍｉＸ,,株式会社,宮崎県,都城市,北原町３０－１,,45,202,8850024,,,,,,,2023-05-10,1,,,,,スミックス,0
895,3350001018342,新規,0,2023-05-10,2023-05-10,ＩＧＵＲＯ　ＴＲＡＤＩＮＧ株式会社,,株式会社,宮崎県,都城市,下水流町３１６５番地２,,45,202,8851102,,,,,,,2023-05-10,1,,,,,イグロトレーディング,0
899,3360001031971,新規,0,2023-05-10,2023-05-10,株式会社ｃｒｅｅｒ６,,株式会社,沖縄県,国頭郡今帰仁村,字古宇利４９９番地１,,47,306,9050406,,,,,,,2023-05-10,1,,,,,クレエシス,0
904,3380001033660,新規,0,2023-05-10,2023-05-10,株式会社ＣＩＧ会津,,株式会社,福島県,大沼郡会津美里町,冨川字冨岡１６９番地,,07,447,9696214,,,,,,,2023-05-10,1,,,,,シーアイジーアイヅ,0
905,3380001033669,新規,0,2023-05-10,2023-05-10,株式会社サンエスコネクト,,株式会社,福島県,福島市,鎌田字橋本２０番地の６,,07,201,9600102,,,,,,,2023-05-10,1,,,,,サンエスコネクト,0
909,3400001016241,新規,0,2023-05-10,2023-05-10,株式会社ＹＵＩ,,株式会社,岩手県,一関市,字沢１番地,,03,209,0210852,,,,,,,2023-05-10,1,,,,,ユイ,0
910,3420001018252,新規,0,2023-05-10,2023-05-10,株式会社Ｒスター,,株式会社,青森県,十和田市,西二番町３番５号,,02,206,0340082,,,,,,,2023-05-10,1,,,,,アールスター,0
911,3430001089004,新規,0,2023-05-10,2023-05-10,清進工業株式会社,,株式会社,北海道,恵庭市,漁町１８３番地２,,01,231,0611414,,,,,,,2023-05-10,1,,,,,セイシンコウギョウ,0
912,3430001089053,新規,0,2023-05-10,2023-05-10,株式会社中央広版,,株式会社,北海道,札幌市西区,二十四軒二条６丁目１番８号,,01,107,0630802,,,,,,,2023-05-10,1,,,,,チュウオウコウハン,0
922,3470003002415,新規,0,2023-05-10,2023-05-10,合同会社空の下,,合同会社,香川県,丸亀市,飯野町東二甲１６３９番地１１,,37,202,7630084,,,,,,,2023-05-10,1,,,,,ソラノシタ,0
925,3490001010475,新規,0,2023-05-10,2023-05-10,株式会社レイ,,株式会社,高知県,南国市,久礼田１５７９番地１６,,39,204,7830062,,,,,,,2023-05-10,1,,,,,レイ,0
929,3700150115994,新規,0,2023-05-10,2023-05-10,日本国土開発健康保険組合,,その他,東京都,港区,赤坂４丁目９－９赤坂ＭＫビル４階,,13,103,1070052,,,,,,,2023-05-10,1,,,,,ニホンコクドカイハツケンコウホケンクミアイ,0
937,4010001234988,新規,0,2023-05-10,2023-05-10,株式会社ＯＷＬ,,株式会社,東京都,千代田区,平河町２丁目２番５号５号室,,13,101,1020093,,,,,,,2023-05-10,1,,,,,アウル,0
938,4010001234996,新規,0,2023-05-10,2023-05-10,株式会社ピクシームービング,,株式会社,東京都,中央区,新富１丁目１５－１１マキプラザビル４０３号,,13,102,1040041,,,,,,,2023-05-10,1,,,,,ピクシームービング,0
939,4010001235078,新規,0,2023-05-10,2023-05-10,ＭＥＲＩＴＯコンサルティング株式会社,,株式会社,東京都,千代田区,内神田１丁目２番６号,,13,101,1010047,,,,,,,2023-05-10,1,,,,,メリットコンサルティング,0
940,4010001235086,新規,0,2023-05-10,2023-05-10,株式会社Ａｏ,,株式会社,東京都,中央区,銀座１丁目１２番４号Ｎ＆ＥＢＬＤ．６Ｆ,,13,102,1040061,,,,,,,2023-05-10,1,,,,,アオ,0
941,4010001235128,新規,0,2023-05-10,2023-05-10,株式会社ＰｏｒｔａｌＫｅｙ,,株式会社,東京都,中央区,銀座１丁目１２－４Ｎ＆ＥＢＬＤ．７階,,13,102,1040061,,,,,,,2023-05-10,1,,,,,ポータルキー,0
942,4010001235177,新規,0,2023-05-10,2023-05-10,レックビー株式会社,,株式会社,東京都,中央区,京橋２丁目１番３号,,13,102,1040031,,,,,,,2023-05-10,1,,,,,レックビー,0
944,4010003040534,新規,0,2023-05-10,2023-05-10,合同会社ＺＥＨＰＪ８,,合同会社,東京都,中央区,銀座４丁目６番１号三幸アセットマネジメント株式会社内,,13,102,1040061,,,,,,,2023-05-10,1,,,,,ゼッチピージェーエイト,0
949,4010401174149,新規,0,2023-05-10,2023-05-10,株式会社シースリーチアフル,,株式会社,東京都,港区,赤坂１丁目５番１２号,,13,103,1070052,,,,,,,2023-05-10,1,,,,,シースリーチアフル,0
950,4010401174173,新規,0,2023-05-10,2023-05-10,株式会社ＣＲＥＡＴＩＰ,,株式会社,東京都,港区,西新橋３丁目１７番７号,,13,103,1050003,,,,,,,2023-05-10,1,,,,,クリエイティップ,0
951,4010401174181,新規,0,2023-05-10,2023-05-10,株式会社ビーユー,,株式会社,東京都,港区,芝５丁目２９番２２号３０６号室,,13,103,1080014,,,,,,,2023-05-10,1,,,,,ビーユー,0
952,4010401174215,新規,0,2023-05-10,2023-05-10,株式会社キャプテンホールディングス,,株式会社,東京都,港区,南青山５丁目１２番１９号,,13,103,1070062,,,,,,,2023-05-10,1,,,,,キャプテンホールディングス,0
953,4010401174264,新規,0,2023-05-10,2023-05-10,ＩＥＮＡ　ＪＡＰＡＮ株式会社,,株式会社,東京都,港区,南青山４丁目１６番１１号,,13,103,1070062,,,,,,,2023-05-10,1,,,,,イエナジャパン,0
954,4010501050407,新規,0,2023-05-10,2023-05-10,株式会社カナマＪＰ,,株式会社,東京都,台東区,台東２丁目１２番２号,,13,106,1100016,,,,,,,2023-05-10,1,,,,,カナマジェイピー,0
955,4010501050415,新規,0,2023-05-10,2023-05-10,株式会社ＳＫＹ　Ｐａｒｋ,,株式会社,東京都,台東区,浅草橋３丁目１９番８号,,13,106,1110053,,,,,,,2023-05-10,1,,,,,スカイパーク,0
957,4010603010135,新規,0,2023-05-10,2023-05-10,小沢ホールディングス合同会社,,合同会社,東京都,江東区,亀戸１丁目８番４号,,13,108,1360071,,,,,,,2023-05-10,1,,,,,オザワホールディングス,0
963,4010701044209,新規,0,2023-05-10,2023-05-10,株式会社ＣＨＩＬＬ　ＳＹＳＴＥＭ,,株式会社,東京都,品川区,二葉２丁目１０番１１号エスポワール品川４０３,,13,109,1420043,,,,,,,2023-05-10,1,,,,,チルシステム,0
964,4010701044217,新規,0,2023-05-10,2023-05-10,株式会社ユコット,,株式会社,東京都,品川区,東五反田５丁目４－６池田山テラスＡ号室,,13,109,1410022,,,,,,,2023-05-10,1,,,,,ユコット,0
967,4010801033937,新規,0,2023-05-10,2023-05-10,株式会社ナッジラボ,,株式会社,東京都,大田区,西蒲田７丁目４２番７号,,13,111,1440051,,,,,,,2023-05-10,1,,,,,ナッジラボ,0
969,4010901052993,新規,0,2023-05-10,2023-05-10,株式会社丸幸,,株式会社,東京都,世田谷区,等々力７丁目１４番２－２０３号,,13,112,1580082,,,,,,,2023-05-10,1,,,,,マルユキ,0
977,4011001154235,新規,0,2023-05-10,2023-05-10,株式会社三井組,,株式会社,東京都,目黒区,青葉台３丁目１４－６,,13,110,1530042,,,,,,,2023-05-10,1,,,,,ミツイグミ,0
978,4011001154243,新規,0,2023-05-10,2023-05-10,ｎｏｖｉ株式会社,,株式会社,東京都,渋谷区,恵比寿１丁目１５番９号日宝恵比寿ビル４０３,,13,113,1500013,,,,,,,2023-05-10,1,,,,,ノヴィ,0
981,4011003016771,新規,0,2023-05-10,2023-05-10,合同会社つくりびと,,合同会社,東京都,渋谷区,代々木５丁目１９番２号コスモ参宮橋ヒルズ３０３,,13,113,1510053,,,,,,,2023-05-10,1,,,,,ツクリビト,0
982,4011003016788,新規,0,2023-05-10,2023-05-10,合同会社ＬＥＯＰＯＳ３,,合同会社,東京都,渋谷区,代々木５丁目３６番５－３０２号オープンレジデンシア代々木公園,,13,113,1510053,,,,,,,2023-05-10,1,,,,,レオポススリー,0
988,4011101102746,新規,0,2023-05-10,2023-05-10,ＳｅｒａｐｈＧＧ株式会社,,株式会社,東京都,新宿区,西新宿３丁目３番１３号西新宿水間ビル６階,,13,104,1600023,,,,,,,2023-05-10,1,,,,,セラフジージー,0
996,4011401025119,新規,0,2023-05-10,2023-05-10,株式会社ＳＨＩＲＯホールディングス,,株式会社,東京都,板橋区,徳丸３丁目１２番１号,,13,119,1750083,,,,,,,2023-05-10,1,,,,,シロホールディングス,0
998,4011501029259,新規,0,2023-05-10,2023-05-10,久淞化学工業株式会社,,株式会社,東京都,荒川区,南千住３丁目２７－２浅草ビル,,13,118,1160003,,,,,,,2023-05-10,1,,,,,キュウショウカガクコウギョウ,0
1004,4011701026196,新規,0,2023-05-10,2023-05-10,株式会社ａｎｄＰｌｕｓ,,株式会社,東京都,江戸川区,北葛西４丁目１８番１３号,,13,123,1340081,,,,,,,2023-05-10,1,,,,,アンドプラス,0
1005,4011701026221,新規,0,2023-05-10,2023-05-10,株式会社チャオデザイン,,株式会社,東京都,江戸川区,江戸川５丁目３８番地４,,13,123,1340013,,,,,,,2023-05-10,1,,,,,チャオデザイン,0
1007,4011703003466,新規,0,2023-05-10,2023-05-10,ジェイコン企画合同会社,,合同会社,東京都,江戸川区,中央２丁目７－１６,,13,123,1320021,,,,,,,2023-05-10,1,,,,,ジェイコンキカク,0
1008,4011801042358,新規,0,2023-05-10,2023-05-10,株式会社Ｂｌｕｅ　Ｏｃｅａｎ　Ｔｏｋｙｏ,,株式会社,東京都,葛飾区,青戸６丁目１７番２－１１０３号レーベンハイム青砥クレフォート,,13,122,1250062,,,,,,,2023-05-10,1,,,,,ブルーオーシャントーキョー,0
1011,4012303001819,新規,0,2023-05-10,2023-05-10,合同会社アセンテック,,合同会社,東京都,町田市,原町田４丁目１１－１３天野ビル４Ｆ,,13,209,1940013,,,,,,,2023-05-10,1,,,,,アセンテック,0
1019,4012801022333,新規,0,2023-05-10,2023-05-10,株式会社サンシーテック,,株式会社,東京都,武蔵村山市,学園２丁目５番地の８,,13,223,2080011,,,,,,,2023-05-10,1,,,,,サンシーテック,0
1029,4013305003472,新規,0,2023-05-10,2023-05-10,一般社団法人東京保育士会,,その他の設立登記法人,東京都,豊島区,目白３丁目１３番２０号ＤＡＩＧＯビル３０４号,,13,116,1710031,,,,,,,2023-05-10,1,,,,,トウキョウホイクシカイ,0
1036,4020001151480,新規,0,2023-05-10,2023-05-10,株式会社プラシアハウス,,株式会社,神奈川県,横浜市中区,末広町３丁目９９番Ｔ＆ＦＫＡＮＮＡＩＢＬＤＧ,,14,104,2310046,,,,,,,2023-05-10,1,,,,,プラシアハウス,0
1037,4020001151489,新規,0,2023-05-10,2023-05-10,トゥーレール・ジャポン株式会社,,株式会社,神奈川県,横浜市鶴見区,元宮１丁目１６番３－４０２号,,14,101,2300004,,,,,,,2023-05-10,1,,,,,トゥーレールジャポン,0
1038,4020001151497,新規,0,2023-05-10,2023-05-10,ＡＮＦＯＲＭＥＲ株式会社,,株式会社,神奈川県,横浜市栄区,飯島町６３番地３,,14,115,2440842,,,,,,,2023-05-10,1,,,,,アンフォーマー,0
1044,4020005015987,新規,0,2023-05-10,2023-05-10,特定非営利活動法人むげんのいのち,,その他の設立登記法人,神奈川県,横浜市旭区,中希望が丘１１６－１０,,14,112,2410825,,,,,,,2023-05-10,1,,,,,ムゲンノイノチ,0
1049,4021001078953,新規,0,2023-05-10,2023-05-10,株式会社ヒューマンチェーン,,株式会社,神奈川県,藤沢市,下土棚２０１２番地の７,,14,205,2520807,,,,,,,2023-05-10,1,,,,,ヒューマンチェーン,0
1050,4021001078986,新規,0,2023-05-10,2023-05-10,株式会社グリーンレーベル,,株式会社,神奈川県,厚木市,温水２２１６番地２ベルアルカンシェル３０３号室,,14,212,2430033,,,,,,,2023-05-10,1,,,,,グリーンレーベル,0
1057,4030001153674,新規,0,2023-05-10,2023-05-10,共栄商事株式会社,,株式会社,埼玉県,さいたま市見沼区,大字大谷１８５４番地６８,,11,104,3370014,,,,,,,2023-05-10,1,,,,,キョウエイショウジ,0
1058,4030001153699,新規,0,2023-05-10,2023-05-10,白羊海陸株式会社,,株式会社,埼玉県,入間郡毛呂山町,大字大類５２５番１,,11,326,3500432,,,,,,,2023-05-10,1,,,,,ハクヨウカイリク,0
1059,4030001153732,新規,0,2023-05-10,2023-05-10,ＡＩビジョンテクノロジー株式会社,,株式会社,埼玉県,吉川市,栄町１３７４番地４,,11,243,3420050,,,,,,,2023-05-10,1,,,,,エーアイビジョンテクノロジー,0
1063,4030003021689,新規,0,2023-05-10,2023-05-10,合同会社ｍｏｔｓｕ．,,合同会社,埼玉県,越谷市,蒲生寿町１５－３７,,11,222,3430836,,,,,,,2023-05-10,1,,,,,モツドット,0
1067,4040001128163,新規,0,2023-05-10,2023-05-10,ポテンシャルプラス株式会社,,株式会社,千葉県,松戸市,東平賀３７０ー１リベール北小金フオレスタ４０７号,,12,207,2700003,,,,,,,2023-05-10,1,,,,,ポテンシャルプラス,0
1068,4040001128262,新規,0,2023-05-10,2023-05-10,株式会社Ｗａｌｌ　Ｐｌｕｓ,,株式会社,千葉県,松戸市,上矢切１６０番地の１,,12,207,2710094,,,,,,,2023-05-10,1,,,,,ウォールプラス,0
1069,4040001128270,新規,0,2023-05-10,2023-05-10,株式会社山武園芸,,株式会社,千葉県,山武市,麻生新田１１７番地,,12,237,2891203,,,,,,,2023-05-10,1,,,,,サンムエンゲイ,0
1070,4040001128279,新規,0,2023-05-10,2023-05-10,株式会社ＪＩＮＺ,,株式会社,千葉県,船橋市,本町１丁目１１番１４号,,12,204,2730005,,,,,,,2023-05-10,1,,,,,ジンズ,0
1071,4040001128295,新規,0,2023-05-10,2023-05-10,株式会社ラズハイダウェイ,,株式会社,千葉県,木更津市,瓜倉６０６番地１（金田西４３街区３画地）,,12,206,2920007,,,,,,,2023-05-10,1,,,,,ラズハイダウェイ,0
1072,4040001128304,新規,0,2023-05-10,2023-05-10,株式会社トライブ,,株式会社,千葉県,流山市,美田１０３番地の２５,,12,220,2700131,,,,,,,2023-05-10,1,,,,,トライブ,0
1073,4040001128312,新規,0,2023-05-10,2023-05-10,株式会社エアリレイション,,株式会社,千葉県,習志野市,花咲１丁目７番８号,,12,216,2750013,,,,,,,2023-05-10,1,,,,,エアリレイション,0
1074,4040001128320,新規,0,2023-05-10,2023-05-10,株式会社ベルデ,,株式会社,千葉県,松戸市,松戸１３９４番地,,12,207,2710092,,,,,,,2023-05-10,1,,,,,ベルデ,0
1075,4040001128329,新規,0,2023-05-10,2023-05-10,株式会社ＨＥＸＡ,,株式会社,千葉県,千葉市中央区,本千葉町４－１０サンライズビル３階３０２号室,,12,101,2600014,,,,,,,2023-05-10,1,,,,,ヘキサ,0
1077,4040003022562,新規,0,2023-05-10,2023-05-10,合同会社ＡＴＡＩ,,合同会社,千葉県,千葉市美浜区,幸町２丁目１８番１１棟５０４号,,12,106,2610001,,,,,,,2023-05-10,1,,,,,エーティーエーアイ,0
1078,4050001052800,新規,0,2023-05-10,2023-05-10,株式会社山塗,,株式会社,茨城県,取手市,稲４９５番地４,,08,217,3020026,,,,,,,2023-05-10,1,,,,,ヤマト,0
1080,4060001035969,新規,0,2023-05-10,2023-05-10,株式会社Ｏｎｅチーム,,株式会社,栃木県,小山市,大字犬塚５０番地４,,09,208,3230811,,,,,,,2023-05-10,1,,,,,ワンチーム,0
1087,4060005010092,新規,0,2023-05-10,2023-05-10,社会福祉法人かたくり福祉会,,その他の設立登記法人,栃木県,佐野市,金屋仲町２４１１番地,,09,204,3270026,,,,,,,2023-05-10,1,,,,,カタクリフクシカイ,0
1095,4070003004938,新規,0,2023-05-10,2023-05-10,合同会社ウェルサポート・エレノア,,合同会社,群馬県,太田市,只上町９１０番地１,,10,205,3730011,,,,,,,2023-05-10,1,,,,,ウェルサポートエレノア,0
1099,4080001025605,新規,0,2023-05-10,2023-05-10,株式会社Ｍ＆Ｐ,,株式会社,静岡県,静岡市葵区,西瀬名町１８番１８－２０１号,,22,101,4200914,,,,,,,2023-05-10,1,,,,,エムアンドピー,0
1100,4080003002965,新規,0,2023-05-10,2023-05-10,ラハイナ藤枝合同会社,,合同会社,静岡県,藤枝市,南新屋３６８－１４,,22,214,4260072,,,,,,,2023-05-10,1,,,,,ラハイナフジエダ,0
1106,4090001018104,新規,0,2023-05-10,2023-05-10,株式会社Ｂ‐ｄｏ,,株式会社,山梨県,北杜市,大泉町西井出字飛沢７５０９番地２,,19,209,4091501,,,,,,,2023-05-10,1,,,,,ビードゥ,0
1107,4100005013009,新規,0,2023-05-10,2023-05-10,一般財団法人ＡＳＢ財団,,その他の設立登記法人,長野県,小諸市,甲４５８６番地３,,20,208,3840801,,,,,,,2023-05-10,1,,,,,エーエスビーザイダン,0
1120,4120001254604,新規,0,2023-05-10,2023-05-10,株式会社まえだ家,,株式会社,大阪府,大阪市中央区,東心斎橋１丁目１２番１９号エイトビルジングＢ１,,27,128,5420083,,,,,,,2023-05-10,1,,,,,マエダヤ,0
1121,4120001254703,新規,0,2023-05-10,2023-05-10,株式会社ブーストレック,,株式会社,大阪府,大阪市中央区,瓦屋町２丁目２番２号,,27,128,5420066,,,,,,,2023-05-10,1,,,,,ブーストレック,0
1122,4120001254760,新規,0,2023-05-10,2023-05-10,三和株式会社,,株式会社,大阪府,大阪市生野区,生野西１丁目１１番４号,,27,116,5440024,,,,,,,2023-05-10,1,,,,,サンワ,0
1126,4120003023998,新規,0,2023-05-10,2023-05-10,合同会社エール・エ・イグレック,,合同会社,大阪府,大阪市西区,立売堀１丁目１番１号立売堀壱番館４Ｆ,,27,106,5500012,,,,,,,2023-05-10,1,,,,,エールエイグレック,0
1127,4120003024006,新規,0,2023-05-10,2023-05-10,川上合同会社,,合同会社,大阪府,大阪市旭区,大宮１丁目１１－１２和所マンション大宮１８号室,,27,117,5350002,,,,,,,2023-05-10,1,,,,,カワカミ,0
1131,4120101067501,新規,0,2023-05-10,2023-05-10,株式会社ＣａｎｉＮｅ,,株式会社,大阪府,高石市,綾園２丁目８－４７,,27,225,5920014,,,,,,,2023-05-10,1,,,,,ケーナイン,0
1136,4122001036940,新規,0,2023-05-10,2023-05-10,ＦＥＥＬ株式会社,,株式会社,大阪府,東大阪市,南荘町１３番９号,,27,227,5798024,,,,,,,2023-05-10,1,,,,,フィール,0
1139,4130001074258,新規,0,2023-05-10,2023-05-10,株式会社クニヒロ,,株式会社,京都府,京都市右京区,嵯峨折戸町２０番地,,26,108,6168345,,,,,,,2023-05-10,1,,,,,クニヒロ,0
1149,4140001130068,新規,0,2023-05-10,2023-05-10,株式会社アニキャン,,株式会社,兵庫県,芦屋市,楠町１３ー２７レジデンス芦屋楠３２４,00130412,28,206,6590015,,,,,,,2023-05-10,1,,,,,アニキャン,0
1152,4140003019061,新規,0,2023-05-10,2023-05-10,合同会社スペザベア,,合同会社,兵庫県,伊丹市,昆陽泉町６丁目５番１０号,,28,207,6640885,,,,,,,2023-05-10,1,,,,,スペザベア,0
1154,4160001025019,新規,0,2023-05-10,2023-05-10,株式会社ファイブテン,,株式会社,滋賀県,甲賀市,水口町北泉１丁目１３１番地,,25,209,5280058,,,,,,,2023-05-10,1,,,,,ファイブテン,0
1156,4170001017576,新規,0,2023-05-10,2023-05-10,株式会社福寿庵,,株式会社,和歌山県,西牟婁郡上富田町,朝来２９１２番地の６,,30,404,6492105,,,,,,,2023-05-10,1,,,,,フクジュアン,0
1165,4180001156159,新規,0,2023-05-10,2023-05-10,株式会社大協建設,,株式会社,愛知県,一宮市,開明字乾土２２番地３,,23,203,4940001,,,,,,,2023-05-10,1,,,,,ダイキョウケンセツ,0
1166,4180001156183,新規,0,2023-05-10,2023-05-10,松元工業株式会社,,株式会社,愛知県,小牧市,安田町１４８番地,,23,219,4850014,,,,,,,2023-05-10,1,,,,,マツモトコウギョウ,0
1167,4180001156209,新規,0,2023-05-10,2023-05-10,株式会社ザック・リＨＯＵＳＥ,,株式会社,愛知県,名古屋市中区,橘１丁目２１番４号,,23,106,4600016,,,,,,,2023-05-10,1,,,,,ザックリハウス,0
1177,4200005013485,新規,0,2023-05-10,2023-05-10,一般財団法人新杵堂財団,,その他の設立登記法人,岐阜県,中津川市,千旦林１番１５,,21,206,5099131,,,,,,,2023-05-10,1,,,,,シンキネドウザイダン,0
1180,4220001025400,新規,0,2023-05-10,2023-05-10,むかいプラス株式会社,,株式会社,石川県,金沢市,駅西本町１丁目６番２号,,17,201,9200025,,,,,,,2023-05-10,1,,,,,ムカイプラス,0
1182,4220005008756,新規,0,2023-05-10,2023-05-10,一般社団法人憂の里理ホーム,,その他の設立登記法人,石川県,能美市,三ツ口町３７４番地１,,17,211,9231203,,,,,,,2023-05-10,1,,,,,ウレイノサトリホーム,0
1188,4240001061476,新規,0,2023-05-10,2023-05-10,株式会社香川板金,,株式会社,広島県,安芸郡熊野町,東山１２番５号,,34,307,7314226,,,,,,,2023-05-10,1,,,,,カガワバンキン,0
1189,4240001061484,新規,0,2023-05-10,2023-05-10,株式会社百谷会計,,株式会社,広島県,広島市南区,西蟹屋４丁目３番４号１０３号室,,34,103,7320804,,,,,,,2023-05-10,1,,,,,ヒャクタニカイケイ,0
1200,4260003004299,新規,0,2023-05-10,2023-05-10,合同会社えにし,,合同会社,岡山県,岡山市南区,西市９７番地９,,33,104,7000953,,,,,,,2023-05-10,1,,,,,エニシ,0
1202,4280003001708,新規,0,2023-05-10,2023-05-10,中国不動産合同会社,,合同会社,島根県,松江市,国屋町５１６番地２１,,32,201,6900859,,,,,,,2023-05-10,1,,,,,チュウゴクフドウサン,0
1207,4290001101475,新規,0,2023-05-10,2023-05-10,株式会社ＯＳメディケア,,株式会社,福岡県,福岡市南区,中尾２丁目２５番５号,,40,134,8111364,,,,,,,2023-05-10,1,,,,,オーエスメディケア,0
1208,4290001101483,新規,0,2023-05-10,2023-05-10,エクセレントジャパン株式会社,,株式会社,福岡県,福岡市博多区,博多駅東３丁目１番２９号,,40,132,8120013,,,,,,,2023-05-10,1,,,,,エクセレントジャパン,0
1217,4300001013289,新規,0,2023-05-10,2023-05-10,株式会社川崎建設,,株式会社,佐賀県,小城市,芦刈町永田１２７２番地,00130417,41,208,8490313,,,,,,,2023-05-10,1,,,,,カワサキケンセツ,0
1222,4320001019739,新規,0,2023-05-10,2023-05-10,株式会社リフォーム大分,,株式会社,大分県,佐伯市,中村東町５番９号,,44,205,8760853,,,,,,,2023-05-10,1,,,,,リフォームオオイタ,0
1223,4330001030851,新規,0,2023-05-10,2023-05-10,株式会社古閑不動産,,株式会社,熊本県,上益城郡山都町,大平３０２番地,,43,447,8613811,,,,,,,2023-05-10,1,,,,,コガフドウサン,0
1227,4340001025561,新規,0,2023-05-10,2023-05-10,株式会社吉野屋,,株式会社,鹿児島県,奄美市,名瀬有屋町１７番地９,,46,222,8940062,,,,,,,2023-05-10,1,,,,,ヨシノヤ,0
1235,4350001018325,新規,0,2023-05-10,2023-05-10,株式会社ＺＥＲＯＹＯＮ,,株式会社,宮崎県,宮崎市,堀川町１８番地９ＡＫＨＩＩ３０３号,00130411,45,201,8800873,,,,,,,2023-05-10,1,,,,,ゼロヨン,0
1236,4350001018333,新規,0,2023-05-10,2023-05-10,株式会社ドリームポート都城,,株式会社,宮崎県,都城市,乙房町１３８番地３,,45,202,8850112,,,,,,,2023-05-10,1,,,,,ドリームポートミヤコノジョウ,0
1238,4360001031970,新規,0,2023-05-10,2023-05-10,島工業株式会社,,株式会社,沖縄県,石垣市,字大川１８４番地プラスＩ石垣島４－Ｅ,,47,207,9070022,,,,,,,2023-05-10,1,,,,,シマコウギョウ,0
1252,4400001016240,新規,0,2023-05-10,2023-05-10,株式会社さくらだファーム,,株式会社,岩手県,岩手郡雫石町,西根下駒木野１８番地,,03,301,0200584,,,,,,,2023-05-10,1,,,,,サクラダファーム,0
1254,4420001018251,新規,0,2023-05-10,2023-05-10,須田不動産鑑定株式会社,,株式会社,青森県,八戸市,内丸３丁目５番３９－５０５号室,,02,203,0310075,,,,,,,2023-05-10,1,,,,,スダフドウサンカンテイ,0
1255,4430001089060,新規,0,2023-05-10,2023-05-10,株式会社ナイン,,株式会社,北海道,札幌市白石区,米里二条２丁目３番３１号,,01,104,0030872,,,,,,,2023-05-10,1,,,,,ナイン,0
1257,4430003014999,新規,0,2023-05-10,2023-05-10,合同会社ダイデン,,合同会社,北海道,札幌市北区,新琴似八条５丁目８番１３号,,01,102,0010908,,,,,,,2023-05-10,1,,,,,ダイデン,0
1258,4430005014717,新規,0,2023-05-10,2023-05-10,一般社団法人オケテム,,その他の設立登記法人,北海道,夕張郡長沼町,西９線南５番地,,01,428,0691479,,,,,,,2023-05-10,1,,,,,オケテム,0
1266,4490001010474,新規,0,2023-05-10,2023-05-10,株式会社ドロニクスＥ＆Ｐ,,株式会社,高知県,南国市,蛍が丘１丁目１番地１南国オフィスパークセンター３０８－０６,,39,204,7830060,,,,,,,2023-05-10,1,,,,,ドロニクスイーアンドピー,0
1274,5010001235077,新規,0,2023-05-10,2023-05-10,船井電機テクノロジーズ株式会社,,株式会社,東京都,千代田区,外神田４丁目１１番５号,,13,101,1010021,,,,,,,2023-05-10,1,,,,,フナイデンキテクノロジーズ,0
1275,5010001235102,新規,0,2023-05-10,2023-05-10,株式会社メディアバズ,,株式会社,東京都,千代田区,岩本町３丁目２番１０号ＳＮ岩本町ビル１階,,13,101,1010032,,,,,,,2023-05-10,1,,,,,メディアバズ,0
1276,5010001235127,新規,0,2023-05-10,2023-05-10,ネクストシンク株式会社,,株式会社,東京都,中央区,銀座３丁目１１番１６号Ｇ－３銀座ビル２Ｆ－Ａ,,13,102,1040061,,,,,,,2023-05-10,1,,,,,ネクストシンク,0
1277,5010001235135,新規,0,2023-05-10,2023-05-10,リズム株式会社,,株式会社,東京都,中央区,勝どき２丁目１５番１－３０８号,,13,102,1040054,,,,,,,2023-05-10,1,,,,,リズム,0
1285,5010401174197,新規,0,2023-05-10,2023-05-10,株式会社ホロイムア,,株式会社,東京都,港区,六本木７丁目２１番２１号ウォーカー２１,,13,103,1060032,,,,,,,2023-05-10,1,,,,,ホロイムア,0
1286,5010401174214,新規,0,2023-05-10,2023-05-10,インフルエンサーキャリア株式会社,,株式会社,東京都,港区,赤坂９丁目５番１４号赤坂ヒルサイドハウスＩＩＤ号室,00130427,13,103,1070052,,,,,,,2023-05-10,1,,,,,インフルエンサーキャリア,0
1289,5010501050422,新規,0,2023-05-10,2023-05-10,ＬＯＧＩＣ　ＷＡＶＥ株式会社,,株式会社,東京都,台東区,浅草３丁目１３－４ハイネスクラウズ浅草２０１,,13,106,1110032,,,,,,,2023-05-10,1,,,,,ロジックウェーブ,0
1290,5010503006975,新規,0,2023-05-10,2023-05-10,カルチャーズジャパン合同会社,,合同会社,東京都,台東区,東上野３丁目１６－８,,13,106,1100015,,,,,,,2023-05-10,1,,,,,カルチャーズジャパン,0
1291,5010503006983,新規,0,2023-05-10,2023-05-10,ゴエンデスネジャパン合同会社,,合同会社,東京都,台東区,今戸１丁目３－１６,,13,106,1110024,,,,,,,2023-05-10,1,,,,,ゴエンデスネジャパン,0
1297,5010603010134,新規,0,2023-05-10,2023-05-10,八幡ホールディングス合同会社,,合同会社,東京都,江東区,亀戸１丁目８番４号,,13,108,1360071,,,,,,,2023-05-10,1,,,,,ヤハタホールディングス,0
1298,5010701044199,新規,0,2023-05-10,2023-05-10,株式会社ＢＰＯ,,株式会社,東京都,品川区,上大崎２丁目１３番３５－６０１号,,13,109,1410021,,,,,,,2023-05-10,1,,,,,ビーピーオー,0
1299,5010701044208,新規,0,2023-05-10,2023-05-10,株式会社ブルーケット,,株式会社,東京都,品川区,荏原２丁目１番４号シェル品川戸越６０７,,13,109,1420063,,,,,,,2023-05-10,1,,,,,ブルーケット,0
1300,5010801033936,新規,0,2023-05-10,2023-05-10,株式会社ＭＫガーデン,,株式会社,東京都,大田区,田園調布２丁目８番１３号,,13,111,1450071,,,,,,,2023-05-10,1,,,,,エムケイガーデン,0
1302,5010901052992,新規,0,2023-05-10,2023-05-10,ＲＨホールディングス株式会社,,株式会社,東京都,世田谷区,岡本２丁目１３番８号２０２,,13,112,1570076,,,,,,,2023-05-10,1,,,,,アールエイチホールディングス,0
1303,5010901053000,新規,0,2023-05-10,2023-05-10,ＭｉｄｄｌｅＣａｎｄｌｅ株式会社,,株式会社,東京都,世田谷区,上野毛１丁目３０番１７－１０３号,,13,112,1580093,,,,,,,2023-05-10,1,,,,,ミドルキャンドル,0
1310,5011001154300,新規,0,2023-05-10,2023-05-10,株式会社ＵＮＩＴＹ　ＴＲＵＳＴ,,株式会社,東京都,目黒区,洗足２丁目７番１８号２Ｆ,,13,110,1520012,,,,,,,2023-05-10,1,,,,,ユニティトラスト,0
1311,5011003016746,新規,0,2023-05-10,2023-05-10,Ｃｈａｓｅ合同会社,,合同会社,東京都,渋谷区,幡ヶ谷１丁目２１番７号,,13,113,1510072,,,,,,,2023-05-10,1,,,,,チェイス,0
1318,5011101102753,新規,0,2023-05-10,2023-05-10,株式会社菅野,,株式会社,東京都,新宿区,西新宿３丁目３番１３号西新宿水間ビル２Ｆ,,13,104,1600023,,,,,,,2023-05-10,1,,,,,スガノ,0
1319,5011101102786,新規,0,2023-05-10,2023-05-10,株式会社ローズプロモーション,,株式会社,東京都,新宿区,新宿１丁目３６－２新宿第七葉山ビル１階,,13,104,1600022,,,,,,,2023-05-10,1,,,,,ローズプロモーション,0
1326,5011401025118,新規,0,2023-05-10,2023-05-10,株式会社山王舎,,株式会社,東京都,板橋区,高島平７丁目４３番２号,,13,119,1750082,,,,,,,2023-05-10,1,,,,,サンノウシャ,0
1327,5011403003996,新規,0,2023-05-10,2023-05-10,合同会社ウィスタリア,,合同会社,東京都,板橋区,熊野町１７番１１号,,13,119,1730025,,,,,,,2023-05-10,1,,,,,ウィスタリア,0
1328,5011501029258,新規,0,2023-05-10,2023-05-10,日本楊森製薬株式会社,,株式会社,東京都,荒川区,南千住３丁目２７－２浅草ビル,,13,118,1160003,,,,,,,2023-05-10,1,,,,,ニッポンヤンセンセイヤク,0
1329,5011503005587,新規,0,2023-05-10,2023-05-10,合同会社ＡＺ,,合同会社,東京都,荒川区,西日暮里１丁目１４番３－４０３号アンソレイユ西日暮里,,13,118,1160013,,,,,,,2023-05-10,1,,,,,アズ,0
1330,5011601026790,新規,0,2023-05-10,2023-05-10,株式会社みはる,,株式会社,東京都,練馬区,南大泉４丁目４３番１２号,,13,120,1780064,,,,,,,2023-05-10,1,,,,,ミハル,0
1335,5011701026220,新規,0,2023-05-10,2023-05-10,株式会社Ｌｏｔｕｓ,,株式会社,東京都,江戸川区,南葛西６丁目１４－１７,,13,123,1340085,,,,,,,2023-05-10,1,,,,,ロータス,0
1336,5011703003465,新規,0,2023-05-10,2023-05-10,ＲＵＭＩＮＡＴＥ合同会社,,合同会社,東京都,江戸川区,平井４丁目１９番２０号,,13,123,1320035,,,,,,,2023-05-10,1,,,,,ルミネイト,0
1341,5012401040503,新規,0,2023-05-10,2023-05-10,株式会社Ｓｏｍｎｉａ,,株式会社,東京都,武蔵野市,吉祥寺南町２丁目１０番１７号パークハウス吉祥寺エクシオ７０５,,13,203,1800003,,,,,,,2023-05-10,1,,,,,ソムニア,0
1342,5012403005966,新規,0,2023-05-10,2023-05-10,ＧｏＢｅｙｏｎｄＷｏｒｌｄ合同会社,,合同会社,東京都,三鷹市,牟礼６丁目１‐２‐Ｅ‐３０７,,13,204,1810002,,,,,,,2023-05-10,1,,,,,ゴービヨンドワールド,0
1343,5012403005974,新規,0,2023-05-10,2023-05-10,Ｍａｇｎｅｔｉｃ　Ｓｋｙ合同会社,,合同会社,東京都,三鷹市,上連雀５丁目５番５号ＣＯＶＥ：Ｄ,,13,204,1810012,,,,,,,2023-05-10,1,,,,,マグネティックスカイ,0
1356,5020001151422,新規,0,2023-05-10,2023-05-10,株式会社ａｎｄｙ　ｈｏｍｅ,,株式会社,神奈川県,川崎市中原区,新城４丁目１０番５号,,14,133,2110044,,,,,,,2023-05-10,1,,,,,アンディホーム,0
1357,5020001151471,新規,0,2023-05-10,2023-05-10,株式会社ＬｉｆｅＰｒｏｍｐｔ,,株式会社,神奈川県,横浜市青葉区,榎が丘２８－３－３０３,,14,117,2270063,,,,,,,2023-05-10,1,,,,,ライフプロンプト,0
1358,5020001151488,新規,0,2023-05-10,2023-05-10,株式会社Ｔｏｔａｌ　Ｈａｒｉ　Ｃａｒｅ,,株式会社,神奈川県,横浜市南区,中島町３丁目５３番地朝日プラザ弘明寺１０６,,14,105,2320055,,,,,,,2023-05-10,1,,,,,トータルハリケア,0
1359,5020001151496,新規,0,2023-05-10,2023-05-10,株式会社ＬＩＶＥ‐ＯＮ,,株式会社,神奈川県,川崎市麻生区,万福寺５丁目２０番２２－３０２号,,14,137,2150004,,,,,,,2023-05-10,1,,,,,ライブオン,0
1363,5020003023875,新規,0,2023-05-10,2023-05-10,メディカルフォーサイト合同会社,,合同会社,神奈川県,川崎市高津区,下作延１丁目１番７号ｎｏｋｕｔｉｃａ,,14,134,2130033,,,,,,,2023-05-10,1,,,,,メディカルフォーサイト,0
1364,5020003023883,新規,0,2023-05-10,2023-05-10,合同会社ＡｎｄＹｏｕ,,合同会社,神奈川県,横浜市緑区,長津田町３９３６番地１１,,14,113,2260026,,,,,,,2023-05-10,1,,,,,アンドユー,0
1372,5021001079001,新規,0,2023-05-10,2023-05-10,株式会社こす,,株式会社,神奈川県,鎌倉市,山ノ内１３６４番地,,14,204,2470062,,,,,,,2023-05-10,1,,,,,コス,0
1374,5021003013008,新規,0,2023-05-10,2023-05-10,ＧＯＡＴ合同会社,,合同会社,神奈川県,鎌倉市,二階堂１５番９号,,14,204,2480002,,,,,,,2023-05-10,1,,,,,ゴート,0
1383,5030001153723,新規,0,2023-05-10,2023-05-10,レトメント株式会社,,株式会社,埼玉県,北葛飾郡杉戸町,大字堤根４３００番地３,,11,464,3450024,,,,,,,2023-05-10,1,,,,,レトメント,0
1384,5030001153731,新規,0,2023-05-10,2023-05-10,株式会社カフス,,株式会社,埼玉県,川口市,大字安行北谷６４４番地の１６,,11,203,3340054,,,,,,,2023-05-10,1,,,,,カフス,0
1392,5030003021671,新規,0,2023-05-10,2023-05-10,合同会社Ｙ’ｓ　Ａｋａｌａ,,合同会社,埼玉県,さいたま市岩槻区,美園東２丁目８番地３ラ・ルーチェ司２０２号室,,11,110,3390028,,,,,,,2023-05-10,1,,,,,ワイズアカラ,0
1399,5040001128286,新規,0,2023-05-10,2023-05-10,のぶさんファーム株式会社,,株式会社,千葉県,香取市,福田７６８番地２,,12,236,2870024,,,,,,,2023-05-10,1,,,,,ノブサンファーム,0
1400,5040001128303,新規,0,2023-05-10,2023-05-10,株式会社セブンスター,,株式会社,千葉県,船橋市,大穴北３丁目２７番４３号,,12,204,2740068,,,,,,,2023-05-10,1,,,,,セブンスター,0
1402,5040003022553,新規,0,2023-05-10,2023-05-10,樹楽松原合同会社,,合同会社,千葉県,船橋市,小野田町７２６番地,,12,204,2740081,,,,,,,2023-05-10,1,,,,,キラクマツハラ,0
1403,5040003022561,新規,0,2023-05-10,2023-05-10,ＵＮＳＥＲ合同会社,,合同会社,千葉県,千葉市中央区,中央２丁目５－１千葉中央ツインビル２－７Ｆ,,12,101,2600013,,,,,,,2023-05-10,1,,,,,アンサー,0
1404,5040003022578,新規,0,2023-05-10,2023-05-10,興和合同会社,,合同会社,千葉県,松戸市,六高台５丁目３５―１３,,12,207,2702203,,,,,,,2023-05-10,1,,,,,コウワ,0
1406,5050001052774,新規,0,2023-05-10,2023-05-10,株式会社ｔｏｓａｍｅｓｉａｎ,,株式会社,茨城県,牛久市,上柏田３丁目６５番地３,,08,219,3001232,,,,,,,2023-05-10,1,,,,,トサメシアン,0
1407,5050001052799,新規,0,2023-05-10,2023-05-10,株式会社Ｃｏｌｏｒｆｕｌｎ,,株式会社,茨城県,つくば市,谷田部２３６２番地１３（陣場Ｅ４９街区２０）,,08,220,3050861,,,,,,,2023-05-10,1,,,,,カラフルン,0
1408,5050001052816,新規,0,2023-05-10,2023-05-10,株式会社佳央,,株式会社,茨城県,稲敷市,角崎１６８番地６,,08,229,3001416,,,,,,,2023-05-10,1,,,,,ケイオウ,0
1409,5050001052824,新規,0,2023-05-10,2023-05-10,ＣＹ建設株式会社,,株式会社,茨城県,つくば市,大曽根２６８２番地５－Ｂ２０１,,08,220,3003253,,,,,,,2023-05-10,1,,,,,シーワイケンセツ,0
1411,5050003007470,新規,0,2023-05-10,2023-05-10,合同会社Ｐｉｌｉｎａ,,合同会社,茨城県,稲敷郡阿見町,本郷１丁目４０番地５,,08,443,3001159,,,,,,,2023-05-10,1,,,,,ピリナ,0
1412,5050003007479,新規,0,2023-05-10,2023-05-10,合同会社根本工業,,合同会社,茨城県,神栖市,知手中央３丁目５番２１号ことぶき荘１１号室,,08,232,3140112,,,,,,,2023-05-10,1,,,,,ネモトコウギョウ,0
1414,5060001035943,新規,0,2023-05-10,2023-05-10,株式会社マーケックス,,株式会社,栃木県,小山市,城東６丁目１－４３キャトルセゾンＤ,,09,208,3230807,,,,,,,2023-05-10,1,,,,,マーケックス,0
1415,5060001035976,新規,0,2023-05-10,2023-05-10,株式会社素描,,株式会社,栃木県,足利市,緑町１丁目５番地１３,,09,202,3260816,,,,,,,2023-05-10,1,,,,,ソビョウ,0
1433,5100003007003,新規,0,2023-05-10,2023-05-10,合同会社ＯＡＳＩＳ,,合同会社,長野県,安曇野市,堀金烏川６８６番地２２,,20,220,3998211,,,,,,,2023-05-10,1,,,,,オアシス,0
1438,5110001037505,新規,0,2023-05-10,2023-05-10,加賀田組ホールディングス株式会社,,株式会社,新潟県,新潟市中央区,万代２丁目１番１号,,15,103,9500088,,,,,,,2023-05-10,1,,,,,カガタグミホールディングス,0
1446,5120001254586,新規,0,2023-05-10,2023-05-10,Ｅｖｉａ　Ｃｅｒｔｉｆｉｃａｔｉｏｎ　Ｃｏｎｓｕｌｔａｎｔ株式会社,,株式会社,大阪府,大阪市大正区,三軒家西３丁目４番１６号中山ビル４０１Ｂ,,27,108,5510001,,,,,,,2023-05-10,1,,,,,エヴィアサーティフィケーションコンサルタント,0
1447,5120001254693,新規,0,2023-05-10,2023-05-10,パワーグリッドエンジニアリング株式会社,,株式会社,大阪府,大阪市西区,西本町２丁目１番２１号レバンガ西本町,,27,106,5500005,,,,,,,2023-05-10,1,,,,,パワーグリッドエンジニアリング,0
1448,5120001254735,新規,0,2023-05-10,2023-05-10,株式会社コネクトライン,,株式会社,大阪府,大阪市中央区,農人橋１丁目１番２９－２７０１号,,27,128,5400011,,,,,,,2023-05-10,1,,,,,コネクトライン,0
1449,5120001254751,新規,0,2023-05-10,2023-05-10,株式会社テレポ,,株式会社,大阪府,大阪市中央区,南本町２丁目６番５号ファースト船場３０１号室,,27,128,5410054,,,,,,,2023-05-10,1,,,,,テレポ,0
1453,5120101067500,新規,0,2023-05-10,2023-05-10,株式会社金田花店,,株式会社,大阪府,泉南郡熊取町,小垣内３丁目２１番１８号,,27,361,5900432,,,,,,,2023-05-10,1,,,,,カナタハナテン,0
1455,5122003002576,新規,0,2023-05-10,2023-05-10,辰巳設計合同会社,,合同会社,大阪府,東大阪市,吉田本町３丁目５番８号,,27,227,5780982,,,,,,,2023-05-10,1,,,,,タツミセッケイ,0
1469,5140001129992,新規,0,2023-05-10,2023-05-10,株式会社ヒロテック,,株式会社,兵庫県,明石市,大久保町森田１１番地の２リヴェール２７－１０１号,,28,203,6740061,,,,,,,2023-05-10,1,,,,,ヒロテック,0
1473,5160001025026,新規,0,2023-05-10,2023-05-10,株式会社Ｍｏｄｅ１,,株式会社,滋賀県,大津市,仰木２丁目４番８号,,25,201,5200247,,,,,,,2023-05-10,1,,,,,モードワン,0
1478,5180001156190,新規,0,2023-05-10,2023-05-10,株式会社ｗｉｔｈ　ｓｈｉｎｙ,,株式会社,愛知県,名古屋市中川区,西中島１丁目１００８番地,,23,110,4540934,,,,,,,2023-05-10,1,,,,,ウィズシャイニー,0
1479,5180001156232,新規,0,2023-05-10,2023-05-10,株式会社ＰＲＯＦＩＴ,,株式会社,愛知県,名古屋市中区,栄１丁目１１番４号,,23,106,4600008,,,,,,,2023-05-10,1,,,,,プロフィット,0
1484,5180003025204,新規,0,2023-05-10,2023-05-10,エイチ・エム合同会社,,合同会社,愛知県,名古屋市守山区,小幡千代田１５番６号,,23,113,4630053,,,,,,,2023-05-10,1,,,,,エイチエム,0
1498,5240001061475,新規,0,2023-05-10,2023-05-10,株式会社補修屋タウルス,,株式会社,広島県,広島市西区,楠木町２丁目８番１１号エスポワール牧村１Ｆ,,34,104,7330002,,,,,,,2023-05-10,1,,,,,ホシュウヤタウルス,0
1509,5290001101441,新規,0,2023-05-10,2023-05-10,株式会社テラス不動産,,株式会社,福岡県,八女市,室岡４９番地２セピアコートＩＩ１０１号,00130430,40,210,8340066,,,,,,,2023-05-10,1,,,,,テラスフドウサン,0
1510,5290001101458,新規,0,2023-05-10,2023-05-10,株式会社秀明,,株式会社,福岡県,三潴郡大木町,大字上八院１５８７番地１,,40,522,8300417,,,,,,,2023-05-10,1,,,,,シュウメイ,0
1511,5290001101466,新規,0,2023-05-10,2023-05-10,アームズ株式会社,,株式会社,福岡県,太宰府市,大字北谷１００３番地２,,40,221,8180114,,,,,,,2023-05-10,1,,,,,アームズ,0
1512,5290001101474,新規,0,2023-05-10,2023-05-10,株式会社ｍａｒｂｌｅ,,株式会社,福岡県,福岡市中央区,大名２丁目１０番１号シャンボール大名Ａ棟１Ｆ,,40,133,8100041,,,,,,,2023-05-10,1,,,,,マーブル,0
1516,5300001013288,新規,0,2023-05-10,2023-05-10,株式会社夢幻企画,,株式会社,佐賀県,伊万里市,大坪町乙４５８３番地５,,41,205,8480022,,,,,,,2023-05-10,1,,,,,ムゲンキカク,0
1520,5310003004565,新規,0,2023-05-10,2023-05-10,合同会社Ｆａｍｉｌｙ,,合同会社,長崎県,長崎市,豊洋台２丁目１７番４号,,42,201,8512216,,,,,,,2023-05-10,1,,,,,ファミリー,0
1523,5330001030850,新規,0,2023-05-10,2023-05-10,株式会社ＬＩＦＥレスキュー,,株式会社,熊本県,熊本市東区,月出１丁目８番１１号３１１号室,,43,102,8620920,,,,,,,2023-05-10,1,,,,,ライフレスキュー,0
1525,5330005010659,新規,0,2023-05-10,2023-05-10,一般社団法人安居楽,,その他の設立登記法人,熊本県,熊本市中央区,新屋敷３丁目１３番１３－７０２号ベルズ新屋敷,,43,101,8620975,,,,,,,2023-05-10,1,,,,,アンゴラ,0
1528,5340001025560,新規,0,2023-05-10,2023-05-10,株式会社Ｓ‐ｃｒａｆｔ,,株式会社,鹿児島県,奄美市,名瀬伊津部町１９番２号,,46,222,8940021,,,,,,,2023-05-10,1,,,,,エスクラフト,0
1530,5350001018349,新規,0,2023-05-10,2023-05-10,クロノフ株式会社,,株式会社,宮崎県,北諸県郡三股町,大字蓼池９８２番地１,,45,341,8891914,,,,,,,2023-05-10,1,,,,,クロノフ,0
1532,5360001031978,新規,0,2023-05-10,2023-05-10,株式会社ｌａｆ,,株式会社,沖縄県,宮古島市,平良字東仲宗根６１３番地,,47,214,9060007,,,,,,,2023-05-10,1,,,,,ラフ,0
1535,5360005006844,新規,0,2023-05-10,2023-05-10,司法書士法人みなみ,,その他の設立登記法人,沖縄県,那覇市,田原３丁目７番地２小禄リースビル３０５,,47,201,9010156,,,,,,,2023-05-10,1,,,,,ミナミ,0
1540,5370001049929,新規,0,2023-05-10,2023-05-10,株式会社ＥＳ,,株式会社,宮城県,仙台市太白区,袋原５丁目１４番１－１０４号,,04,104,9811102,,,,,,,2023-05-10,1,,,,,エス,0
1541,5370001049937,新規,0,2023-05-10,2023-05-10,株式会社Ｎ‐ｓｔｙｌｅ,,株式会社,宮城県,仙台市宮城野区,小田原１丁目１０番２５－１２１０号,,04,102,9830803,,,,,,,2023-05-10,1,,,,,エヌスタイル,0
1542,5370005010630,新規,0,2023-05-10,2023-05-10,一般社団法人ＷＡＫＵＢＵＳ,,その他の設立登記法人,宮城県,仙台市青葉区,一番町１丁目４番３０号さのやビルディング５階,,04,101,9800811,,,,,,,2023-05-10,1,,,,,ワクバス,0
1559,5430001089019,新規,0,2023-05-10,2023-05-10,株式会社Ｈ２　Ｉｎｎｏｖａｔｉｏｎ,,株式会社,北海道,札幌市中央区,大通西９丁目１番１号キタコー大通公園ビル２階,,01,101,0600042,,,,,,,2023-05-10,1,,,,,エイチツーイノベーション,0
1560,5430001089035,新規,0,2023-05-10,2023-05-10,株式会社Ａｘｉｓ,,株式会社,北海道,札幌市東区,苗穂町４丁目１１番６号,,01,103,0650043,,,,,,,2023-05-10,1,,,,,アクシス,0
1562,5430003015006,新規,0,2023-05-10,2023-05-10,合同会社歩,,合同会社,北海道,札幌市南区,澄川二条４丁目１番３４号,,01,106,0050002,,,,,,,2023-05-10,1,,,,,アユミ,0
1565,5460005001570,新規,0,2023-05-10,2023-05-10,一般社団法人Ａｎｄ　ＷＡＮ,,その他の設立登記法人,北海道,釧路市,住吉２丁目３番２１号,,01,206,0850831,,,,,,,2023-05-10,1,,,,,アンドワン,0
1573,5490001010473,新規,0,2023-05-10,2023-05-10,株式会社ラ・シュシュ,,株式会社,高知県,高知市,北金田１７番２２号,,39,201,7810073,,,,,,,2023-05-10,1,,,,,,0
1579,6010001235126,新規,0,2023-05-10,2023-05-10,株式会社平河町オートリースガンマ,,株式会社,東京都,千代田区,平河町１丁目６番１５号株式会社シルスフィア会計事務所内,,13,101,1020093,,,,,,,2023-05-10,1,,,,,ヒラカワチョウオートリースガンマ,0
1580,6010001235134,新規,0,2023-05-10,2023-05-10,タイタントーキョー株式会社,,株式会社,東京都,千代田区,神田佐久間河岸７８－３柴田ビル７階,,13,101,1010026,,,,,,,2023-05-10,1,,,,,タイタントーキョー,0
1583,6010003040516,新規,0,2023-05-10,2023-05-10,ＤＩ資産管理合同会社,,合同会社,東京都,千代田区,霞が関３丁目２番６号,,13,101,1000013,,,,,,,2023-05-10,1,,,,,ディーアイシサンカンリ,0
1584,6010003040532,新規,0,2023-05-10,2023-05-10,合同会社棟方志功鑑定登録委員会,,合同会社,東京都,千代田区,有楽町１丁目９番４号,,13,101,1000006,,,,,,,2023-05-10,1,,,,,ムナカタシコウカンテイトウロクイインカイ,0
1585,6010003040557,新規,0,2023-05-10,2023-05-10,合同会社穴澤トラスト,,合同会社,東京都,千代田区,四番町４番地６パークコート千代田四番町４１０,,13,101,1020081,,,,,,,2023-05-10,1,,,,,アナザワトラスト,0
1587,6010005036636,新規,0,2023-05-10,2023-05-10,一般社団法人Ｓｍａｒｔ　Ｃｉｔｉｚｅｎ　Ｈｕｂ,,その他の設立登記法人,東京都,千代田区,神田錦町３丁目２１ちよだプラットフォームスクウェア１２７７,,13,101,1010054,,,,,,,2023-05-10,1,,,,,スマートシチズンハブ,0
1593,6010401174163,新規,0,2023-05-10,2023-05-10,株式会社ＡＰ７６,,株式会社,東京都,港区,虎ノ門４丁目１番２８号虎ノ門タワーズオフィス１７階,,13,103,1050001,,,,,,,2023-05-10,1,,,,,エーピーナナジュウロク,0
1605,6010603010141,新規,0,2023-05-10,2023-05-10,スリーウェル合同会社,,合同会社,東京都,墨田区,押上３丁目３６番１１号,,13,107,1310045,,,,,,,2023-05-10,1,,,,,スリーウェル,0
1608,6010701044207,新規,0,2023-05-10,2023-05-10,株式会社ＨＩＴＳ　ＦＯＯＤ,,株式会社,東京都,品川区,東大井５丁目２６番２２号エクシズビル７Ｆ,,13,109,1400011,,,,,,,2023-05-10,1,,,,,ヒットフード,0
1610,6010901052991,新規,0,2023-05-10,2023-05-10,株式会社棚橋工務店,,株式会社,東京都,世田谷区,奥沢３丁目５番６号,,13,112,1580083,,,,,,,2023-05-10,1,,,,,タナハシコウムテン,0
1612,6010903008141,新規,0,2023-05-10,2023-05-10,合同会社ＲＷ,,合同会社,東京都,世田谷区,北沢２丁目１２番７号,,13,112,1550031,,,,,,,2023-05-10,1,,,,,アールダブリュー,0
1613,6010905004477,新規,0,2023-05-10,2023-05-10,一般社団法人日本青少年発育協会,,その他の設立登記法人,東京都,世田谷区,奥沢５丁目２８－１,,13,112,1580083,,,,,,,2023-05-10,1,,,,,ニホンセイショウネンハツイクキョウカイ,0
1616,6011001154258,新規,0,2023-05-10,2023-05-10,ピージェー新薬株式会社,,株式会社,東京都,渋谷区,神泉町１０番１５,,13,113,1500045,,,,,,,2023-05-10,1,,,,,ピージェーシンヤク,0
1617,6011001154266,新規,0,2023-05-10,2023-05-10,株式会社Ｅｖｅｎｔ　Ｏ２,,株式会社,東京都,渋谷区,道玄坂１丁目１０番８号渋谷道玄坂東急ビル２Ｆ－Ｃ,,13,113,1500043,,,,,,,2023-05-10,1,,,,,イベントオーツー,0
1618,6011001154299,新規,0,2023-05-10,2023-05-10,株式会社ＯＮＥＷＡＲＥ,,株式会社,東京都,渋谷区,神宮前６丁目２３番４号桑野ビル２階,,13,113,1500001,,,,,,,2023-05-10,1,,,,,ワンウェア,0
1619,6011001154308,新規,0,2023-05-10,2023-05-10,ＡＡＡ株式会社,,株式会社,東京都,渋谷区,宇田川町１６番８号渋谷センタービル３Ｆ,,13,113,1500042,,,,,,,2023-05-10,1,,,,,トリプルエー,0
1620,6011001154316,新規,0,2023-05-10,2023-05-10,株式会社ＧＷＲ,,株式会社,東京都,渋谷区,円山町２２番６－５０１号パラッツォガレリア,,13,113,1500044,,,,,,,2023-05-10,1,,,,,ジーダブリューアール,0
1622,6011003016729,新規,0,2023-05-10,2023-05-10,ＬＹＮ合同会社,,合同会社,東京都,渋谷区,神宮前６丁目２３番４号桑野ビル２Ｆ,,13,113,1500001,,,,,,,2023-05-10,1,,,,,リン,0
1623,6011003016794,新規,0,2023-05-10,2023-05-10,山野正樹事務所合同会社,,合同会社,東京都,渋谷区,西原２丁目２番１０号,,13,113,1510066,,,,,,,2023-05-10,1,,,,,ヤマノマサキジムショ,0
1627,6011101102769,新規,0,2023-05-10,2023-05-10,株式会社ＡＳＳＥＴ　ＰＲＯＰＥＲＴＹ,,株式会社,東京都,新宿区,西新宿４丁目３２番４号,,13,104,1600023,,,,,,,2023-05-10,1,,,,,アセットプロパティ,0
1628,6011101102793,新規,0,2023-05-10,2023-05-10,唐風株式会社,,株式会社,東京都,新宿区,榎町３４－３榎町ビル７階－１４室,,13,104,1620806,,,,,,,2023-05-10,1,,,,,カラカゼ,0
1632,6011303004747,新規,0,2023-05-10,2023-05-10,ｌａｌａ合同会社,,合同会社,東京都,杉並区,和泉３丁目８番４７号,,13,115,1680063,,,,,,,2023-05-10,1,,,,,ララ,0
1633,6011401025125,新規,0,2023-05-10,2023-05-10,株式会社ミューズ,,株式会社,東京都,板橋区,熊野町５番地１－２０３,,13,119,1730025,,,,,,,2023-05-10,1,,,,,ミューズ,0
1634,6011501029257,新規,0,2023-05-10,2023-05-10,滝の川工業株式会社,,株式会社,東京都,荒川区,南千住３丁目２７－２浅草ビル５０８,,13,118,1160003,,,,,,,2023-05-10,1,,,,,タキノカワコウギョウ,0
1635,6011501029265,新規,0,2023-05-10,2023-05-10,Ｊ＆Ｇ　Ｌｅｇｅｎｄ株式会社,,株式会社,東京都,荒川区,南千住５丁目４４番１０号－９０１号,,13,118,1160003,,,,,,,2023-05-10,1,,,,,ジェイアンドジーレジェンド,0
1636,6011503005594,新規,0,2023-05-10,2023-05-10,ｍｉｙａ合同会社,,合同会社,東京都,北区,神谷２丁目５番８号,,13,117,1150043,,,,,,,2023-05-10,1,,,,,ミヤ,0
1637,6011701026211,新規,0,2023-05-10,2023-05-10,株式会社ＧＮＣ,,株式会社,東京都,江戸川区,瑞江２丁目４６番１３号,,13,123,1320011,,,,,,,2023-05-10,1,,,,,ジーエヌシー,0
1639,6011801042356,新規,0,2023-05-10,2023-05-10,株式会社名登利,,株式会社,東京都,葛飾区,新小岩１丁目３２番４号,,13,122,1240024,,,,,,,2023-05-10,1,,,,,ナトリ,0
1641,6011805003271,新規,0,2023-05-10,2023-05-10,一般社団法人日本四大元素協会,,その他の設立登記法人,東京都,葛飾区,東金町１丁目４５番１２号ＡＳビル２０４,,13,122,1250041,,,,,,,2023-05-10,1,,,,,ニホンシダイゲンソキョウカイ,0
1648,6013301050698,新規,0,2023-05-10,2023-05-10,シセン・エン株式会社,,株式会社,東京都,豊島区,東池袋１丁目２６番４－５０５号,,13,116,1700013,,,,,,,2023-05-10,1,,,,,シセンエン,0
1649,6013301050723,新規,0,2023-05-10,2023-05-10,株式会社今井電気,,株式会社,東京都,豊島区,要町１丁目４８番２号,,13,116,1710043,,,,,,,2023-05-10,1,,,,,イマイデンキ,0
1650,6013303006624,新規,0,2023-05-10,2023-05-10,ＹＳＫ合同会社,,合同会社,東京都,豊島区,高田２丁目１８－１５－３２３,,13,116,1710033,,,,,,,2023-05-10,1,,,,,ワイエスケー,0
1651,6013305003470,新規,0,2023-05-10,2023-05-10,一般社団法人日本ビジネスＡＩ検定協会,,その他の設立登記法人,東京都,豊島区,東池袋３丁目１１番９号下総屋ビル６０１号室,,13,116,1700013,,,,,,,2023-05-10,1,,,,,ニホンビジネスエーアイケンテイキョウカイ,0
1655,6020001151405,新規,0,2023-05-10,2023-05-10,Ｚｅｒｏ　ｔｏ　Ｏｎｅ株式会社,,株式会社,神奈川県,横浜市栄区,小菅ケ谷１丁目２２番１－３２６号,,14,115,2470007,,,,,,,2023-05-10,1,,,,,ゼロトゥワン,0
1656,6020001151512,新規,0,2023-05-10,2023-05-10,株式会社ＳＵＧＡＸ,,株式会社,神奈川県,横浜市金沢区,能見台４丁目４番地２１いこいの街Ｂ棟５０１号,,14,108,2360057,,,,,,,2023-05-10,1,,,,,スガックス,0
1660,6021001078910,新規,0,2023-05-10,2023-05-10,株式会社ＡｉｒＡｌｅ,,株式会社,神奈川県,海老名市,国分南３丁目６番９１号,,14,215,2430405,,,,,,,2023-05-10,1,,,,,エールエール,0
1661,6021001078976,新規,0,2023-05-10,2023-05-10,株式会社ケーオーワン,,株式会社,神奈川県,相模原市中央区,淵野辺本町１丁目２６番３号,,14,152,2520202,,,,,,,2023-05-10,1,,,,,ケーオーワン,0
1667,6021003013048,新規,0,2023-05-10,2023-05-10,Ｖ‐Ｃｏｓ合同会社,,合同会社,神奈川県,伊勢原市,東大竹７３５番地の７,,14,214,2591133,,,,,,,2023-05-10,1,,,,,ヴィーコス,0
1669,6030001153697,新規,0,2023-05-10,2023-05-10,株式会社しん吉,,株式会社,埼玉県,北葛飾郡松伏町,大字松伏４８１２番地１－２０２,,11,465,3430111,,,,,,,2023-05-10,1,,,,,シンキチ,0
1670,6030001153714,新規,0,2023-05-10,2023-05-10,経営Ｔｅｃｈ株式会社,,株式会社,埼玉県,さいたま市中央区,下落合２丁目１９番１号,,11,105,3380002,,,,,,,2023-05-10,1,,,,,ケイエイテック,0
1671,6030001153722,新規,0,2023-05-10,2023-05-10,株式会社バイカーズコア,,株式会社,埼玉県,戸田市,美女木東１丁目４番１３号,,11,224,3350032,,,,,,,2023-05-10,1,,,,,バイカーズコア,0
1672,6030001153739,新規,0,2023-05-10,2023-05-10,株式会社ＫＣＳ　ＧＲＯＵＰ,,株式会社,埼玉県,越谷市,谷中町２丁目２２７番地６,,11,222,3430856,,,,,,,2023-05-10,1,,,,,ケイシーエスグループ,0
1673,6030003021687,新規,0,2023-05-10,2023-05-10,合同会社朝雄,,合同会社,埼玉県,川口市,中青木４丁目５番１９号,,11,203,3320032,,,,,,,2023-05-10,1,,,,,アサオ,0
1674,6030003021720,新規,0,2023-05-10,2023-05-10,ｓｍａｌｌ　ｗａｖｅ　ｃｏｎｓｕｌｔｉｎｇ合同会社,,合同会社,埼玉県,さいたま市北区,本郷町１６０９番地６,,11,102,3310802,,,,,,,2023-05-10,1,,,,,スモールウェーブコンサルティング,0
1675,6030003021737,新規,0,2023-05-10,2023-05-10,合同会社ＩＫＳＡＭ,,合同会社,埼玉県,川口市,大字伊刈７９７番地コーポ古俣Ｂ号室,,11,203,3330865,,,,,,,2023-05-10,1,,,,,イクサム,0
1681,6040001128236,新規,0,2023-05-10,2023-05-10,株式会社ｈｉｇｈｐｕｕｗｏｏｄ,,株式会社,千葉県,鎌ケ谷市,鎌ケ谷８丁目１番６０号,,12,224,2730105,,,,,,,2023-05-10,1,,,,,ハイプーウッド,0
1682,6040001128285,新規,0,2023-05-10,2023-05-10,株式会社咲心,,株式会社,千葉県,船橋市,栄町１丁目１２番５－１号,,12,204,2730018,,,,,,,2023-05-10,1,,,,,サクシン,0
1683,6040001128293,新規,0,2023-05-10,2023-05-10,株式会社セイショウ興業,,株式会社,千葉県,八街市,八街い１８０番地９５,,12,230,2891143,,,,,,,2023-05-10,1,,,,,セイショウコウギョウ,0
1684,6040001128302,新規,0,2023-05-10,2023-05-10,株式会社ＳＴＥＬＬＡ　ＦＩＳＳＡ,,株式会社,千葉県,松戸市,幸谷７８６番地の２,,12,207,2700017,,,,,,,2023-05-10,1,,,,,ステラフィッサ,0
1685,6040001128319,新規,0,2023-05-10,2023-05-10,ＴＯＭＡキャリアパートナーズ株式会社,,株式会社,千葉県,流山市,おおたかの森東２丁目８－２３,,12,220,2700138,,,,,,,2023-05-10,1,,,,,トウマキャリアパートナーズ,0
1690,6040003022569,新規,0,2023-05-10,2023-05-10,合同会社ＮＫトレーディング,,合同会社,千葉県,野田市,東宝珠花４３０番地３,,12,208,2700226,,,,,,,2023-05-10,1,,,,,エヌケイトレーディング,0
1691,6050001052823,新規,0,2023-05-10,2023-05-10,朝日株式会社,,株式会社,茨城県,猿島郡境町,１５４９番地１,,08,546,3060433,,,,,,,2023-05-10,1,,,,,アサヒ,0
1696,6060001035967,新規,0,2023-05-10,2023-05-10,株式会社サンクレア,,株式会社,栃木県,佐野市,並木町２５５番地１,,09,204,3270002,,,,,,,2023-05-10,1,,,,,サンクレア,0
1697,6060001035975,新規,0,2023-05-10,2023-05-10,株式会社インテリアＲｏｏｔ,,株式会社,栃木県,宇都宮市,陽東５丁目７番４０号２Ｆ北側,,09,201,3210904,,,,,,,2023-05-10,1,,,,,インテリアルーツ,0
1703,6070001040421,新規,0,2023-05-10,2023-05-10,スタジオきらく株式会社,,株式会社,群馬県,前橋市,上泉町９８４番地,,10,201,3710007,,,,,,,2023-05-10,1,,,,,スタジオキラク,0
1704,6070003004936,新規,0,2023-05-10,2023-05-10,晋合同会社,,合同会社,群馬県,太田市,大原町８２番地１７８,,10,205,3792304,,,,,,,2023-05-10,1,,,,,ススム,0
1714,6100001036374,新規,0,2023-05-10,2023-05-10,株式会社セイガ工業,,株式会社,長野県,飯田市,千栄１０８０番地３,,20,205,3992223,,,,,,,2023-05-10,1,,,,,セイガコウギョウ,0
1715,6100001036390,新規,0,2023-05-10,2023-05-10,株式会社あくと,,株式会社,長野県,下高井郡山ノ内町,大字夜間瀬２１７５番地,,20,561,3810405,,,,,,,2023-05-10,1,,,,,アクト,0
1724,6110001037512,新規,0,2023-05-10,2023-05-10,株式会社ＴＱＭ,,株式会社,新潟県,長岡市,緑町３丁目２６４番地,,15,202,9402105,,,,,,,2023-05-10,1,,,,,ティーキューエム,0
1730,6110003005046,新規,0,2023-05-10,2023-05-10,合同会社心栄,,合同会社,新潟県,新潟市東区,牡丹山６丁目１１番１号コーポソフィア２０５,,15,102,9500872,,,,,,,2023-05-10,1,,,,,シンエイ,0
1742,6120001254593,新規,0,2023-05-10,2023-05-10,Ａｉｒｙ株式会社,,株式会社,大阪府,大阪市浪速区,難波中３丁目４番４１号,,27,111,5560011,,,,,,,2023-05-10,1,,,,,エアリー,0
1743,6120001254635,新規,0,2023-05-10,2023-05-10,六谷ホーム株式会社,,株式会社,大阪府,大阪市西成区,山王２丁目５番１８号ＲＴｉ天王寺１０１号室,,27,122,5570001,,,,,,,2023-05-10,1,,,,,ロクタニホーム,0
1744,6120001254692,新規,0,2023-05-10,2023-05-10,株式会社Ｓｔａｒ　ｂａｍｂｉｎｏ,,株式会社,大阪府,大阪市北区,豊崎５丁目２番２号三和豊崎第２ビル８Ｆ,,27,127,5310072,,,,,,,2023-05-10,1,,,,,スターバンビーノ,0
1745,6120001254718,新規,0,2023-05-10,2023-05-10,株式会社ホクドー,,株式会社,大阪府,大阪市平野区,瓜破５丁目１番３号,,27,126,5470024,,,,,,,2023-05-10,1,,,,,ホクドー,0
1746,6120001254750,新規,0,2023-05-10,2023-05-10,ＮＫＬＡＮＤ株式会社,,株式会社,大阪府,大阪市北区,中之島４丁目３番２０－１１１３号,,27,127,5300005,,,,,,,2023-05-10,1,,,,,エヌケイランド,0
1747,6120001254767,新規,0,2023-05-10,2023-05-10,株式会社ＮＤＫ,,株式会社,大阪府,大阪市東住吉区,矢田２丁目７番１８号,,27,121,5460023,,,,,,,2023-05-10,1,,,,,エヌディーケー,0
1754,6120002084313,新規,0,2023-05-10,2023-05-10,有限会社三喜屋,,有限会社,大阪府,大阪市阿倍野区,播磨町１丁目１６番１０号,,27,119,5450022,,,,,,,2023-05-10,1,,,,,サンキヤ,0
1756,6120003024020,新規,0,2023-05-10,2023-05-10,合同会社ＤＣ,,合同会社,大阪府,大阪市阿倍野区,阿倍野元町１－７,,27,119,5450034,,,,,,,2023-05-10,1,,,,,ディーシー,0
1759,6120101067499,新規,0,2023-05-10,2023-05-10,株式会社アリストホーム,,株式会社,大阪府,堺市堺区,三条通２番２号,,27,141,5900046,,,,,,,2023-05-10,1,,,,,アリストホーム,0
1760,6122001036939,新規,0,2023-05-10,2023-05-10,株式会社くまテック,,株式会社,大阪府,東大阪市,新鴻池町１５番２０号,,27,227,5780967,,,,,,,2023-05-10,1,,,,,クマテック,0
1761,6122001036955,新規,0,2023-05-10,2023-05-10,株式会社クリーム,,株式会社,大阪府,東大阪市,西石切町６丁目３－４２,,27,227,5798013,,,,,,,2023-05-10,1,,,,,クリーム,0
1769,6130001074207,新規,0,2023-05-10,2023-05-10,株式会社Ｘ．Ｋ,,株式会社,京都府,京都市伏見区,深草下川原町５０－４号２１１室,,26,109,6128401,,,,,,,2023-05-10,1,,,,,エックスドットケイ,0
1770,6130001074215,新規,0,2023-05-10,2023-05-10,株式会社ＴＲＩＡＳＵＴ,,株式会社,京都府,長岡京市,一文橋２丁目１７番６号,,26,209,6170825,,,,,,,2023-05-10,1,,,,,トライアスト,0
1771,6130001074280,新規,0,2023-05-10,2023-05-10,Ｗｏｗ株式会社,,株式会社,京都府,京都市北区,西賀茂下庄田町１９９番地２,,26,101,6038801,,,,,,,2023-05-10,1,,,,,ワオ,0
1782,6140001130108,新規,0,2023-05-10,2023-05-10,株式会社カインドリノベーションズ,,株式会社,兵庫県,神戸市中央区,国香通４丁目１－８グレイスハイツ春日道４０３号室,,28,110,6510066,,,,,,,2023-05-10,1,,,,,カインドリノベーションズ,0
1783,6140001130116,新規,0,2023-05-10,2023-05-10,トラスポ株式会社,,株式会社,兵庫県,西宮市,大森町１１番１３－２０５号,,28,204,6638023,,,,,,,2023-05-10,1,,,,,トラスポ,0
1785,6140003019068,新規,0,2023-05-10,2023-05-10,合同会社ヒロセミュージック,,合同会社,兵庫県,神戸市東灘区,住吉台２番１２－３１３号,,28,101,6580062,,,,,,,2023-05-10,1,,,,,ヒロセミュージック,0
1788,6150001026387,新規,0,2023-05-10,2023-05-10,株式会社かへい笑店,,株式会社,奈良県,奈良市,松陽台４丁目２０番１号,,29,201,6310007,,,,,,,2023-05-10,1,,,,,カヘイショウテン,0
1797,6180001156165,新規,0,2023-05-10,2023-05-10,ｃｒｅａｍｅ株式会社,,株式会社,愛知県,名古屋市天白区,植田南２丁目２２５番地,,23,116,4680053,,,,,,,2023-05-10,1,,,,,クリーミー,0
1798,6180001156173,新規,0,2023-05-10,2023-05-10,株式会社１０１,,株式会社,愛知県,名古屋市中区,大須２丁目１４番２７号,,23,106,4600011,,,,,,,2023-05-10,1,,,,,ヒャクイチ,0
1799,6180001156207,新規,0,2023-05-10,2023-05-10,株式会社山中ペット葬儀,,株式会社,愛知県,名古屋市西区,幅下２丁目１１番２１号,,23,104,4510041,,,,,,,2023-05-10,1,,,,,ヤマナカペットソウギ,0
1800,6180001156231,新規,0,2023-05-10,2023-05-10,アカシカンパニー株式会社,,株式会社,愛知県,瀬戸市,矢形町５０番地コロナハイツＣ－２１２,,23,204,4890866,,,,,,,2023-05-10,1,,,,,アカシカンパニー,0
1804,6180301037379,新規,0,2023-05-10,2023-05-10,株式会社ブルーリーフ,,株式会社,愛知県,みよし市,黒笹町桐山１７８番地,,23,236,4700201,,,,,,,2023-05-10,1,,,,,ブルーリーフ,0
1814,6210001019293,新規,0,2023-05-10,2023-05-10,株式会社ラビタス,,株式会社,福井県,小浜市,雲浜２丁目１番１１号,,18,204,9170096,,,,,,,2023-05-10,1,,,,,ラビタス,0
1815,6210001019302,新規,0,2023-05-10,2023-05-10,株式会社オーエム企画,,株式会社,福井県,坂井市,丸岡町北横地第５号２７番地４,,18,210,9100374,,,,,,,2023-05-10,1,,,,,オーエムキカク,0
1834,6260001037927,新規,0,2023-05-10,2023-05-10,株式会社まりこ自由工作,,株式会社,岡山県,岡山市北区,下土田１１３番地,,33,101,7011356,,,,,,,2023-05-10,1,,,,,マリコジユウコウサク,0
1838,6280005007552,新規,0,2023-05-10,2023-05-10,一般社団法人ＭＡＳＵＤＡカグラボ,,その他の設立登記法人,島根県,益田市,幸町８番１８号,,32,204,6980021,,,,,,,2023-05-10,1,,,,,マスダカグラボ,0
1845,6290001101192,新規,0,2023-05-10,2023-05-10,宿サポート株式会社,,株式会社,福岡県,福岡市中央区,草香江２丁目１番１１号４０１,,40,133,8100045,,,,,,,2023-05-10,1,,,,,ヤドサポート,0
1846,6290001101432,新規,0,2023-05-10,2023-05-10,株式会社ＳＯＵＴＨ　ＦＩＥＬＤ,,株式会社,福岡県,那珂川市,大字不入道５６８番地,,40,231,8111231,,,,,,,2023-05-10,1,,,,,サウスフィールド,0
1847,6290001101465,新規,0,2023-05-10,2023-05-10,株式会社ｃｏｓａ,,株式会社,福岡県,福岡市中央区,小笹３丁目１２番８－８１２号,,40,133,8100033,,,,,,,2023-05-10,1,,,,,コザ,0
1848,6290001101481,新規,0,2023-05-10,2023-05-10,昌盛商事株式会社,,株式会社,福岡県,福岡市東区,香椎駅東４丁目５２番１５号イマージュ香椎Ｉ２０２号室,00130420,40,131,8130012,,,,,,,2023-05-10,1,,,,,ショウセイショウジ,0
1864,6340001025568,新規,0,2023-05-10,2023-05-10,株式会社タートルキッズ,,株式会社,鹿児島県,薩摩川内市,御陵下町５番１０号,,46,215,8950061,,,,,,,2023-05-10,1,,,,,タートルキッズ,0
1867,6350001018348,新規,0,2023-05-10,2023-05-10,株式会社Ｄ２ｐｒｏｍｏｔｉｏｎ,,株式会社,宮崎県,北諸県郡三股町,大字宮村２７８９－１０,,45,341,8891912,,,,,,,2023-05-10,1,,,,,ディーツープロモーション,0
1878,6370001049911,新規,0,2023-05-10,2023-05-10,株式会社ケイエムファシリティ,,株式会社,宮城県,仙台市宮城野区,福室３丁目４０番２６号１０３号室,,04,102,9830005,,,,,,,2023-05-10,1,,,,,ケイエムファシリティ,0
1879,6370001049936,新規,0,2023-05-10,2023-05-10,株式会社ＡＩ設計,,株式会社,宮城県,名取市,増田３丁目６番１６号,,04,207,9811224,,,,,,,2023-05-10,1,,,,,エーアイセッケイ,0
1887,6420001018241,新規,0,2023-05-10,2023-05-10,さい水力発電株式会社,,株式会社,青森県,下北郡佐井村,大字佐井字黒岩１３番地４,,02,426,0394711,,,,,,,2023-05-10,1,,,,,サイスイリョクハツデン,0
1888,6420001018258,新規,0,2023-05-10,2023-05-10,中村建設株式会社,,株式会社,青森県,青森市,浪岡大字北中野字天王１７８番地２,,02,201,0381325,,,,,,,2023-05-10,1,,,,,ナカムラケンセツ,0
1890,6420003002714,新規,0,2023-05-10,2023-05-10,合同会社フルハウス,,合同会社,青森県,三戸郡五戸町,字下長下タ３４番地１８,,02,442,0391526,,,,,,,2023-05-10,1,,,,,フルハウス,0
1893,6430001089026,新規,0,2023-05-10,2023-05-10,株式会社ＫＯＮ,,株式会社,北海道,札幌市中央区,南六条西５丁目３番地６ＴＨＥ・ＳＵＳＵＫＩＮＯ・ＳＱＵＡＲＥ・ＷＥＳＴ９階,,01,101,0640806,,,,,,,2023-05-10,1,,,,,コン,0
1894,6430001089042,新規,0,2023-05-10,2023-05-10,株式会社丸太倶楽部,,株式会社,北海道,札幌市南区,南三十七条西１０丁目２番１０号,,01,106,0050037,,,,,,,2023-05-10,1,,,,,マルタクラブ,0
1900,6490001010472,新規,0,2023-05-10,2023-05-10,株式会社山惠,,株式会社,高知県,南国市,駅前町１丁目２番２９号,,39,204,7830002,,,,,,,2023-05-10,1,,,,,サンケイ,0
1901,6500001024917,新規,0,2023-05-10,2023-05-10,株式会社Ｎｏｒｏｃｃａ,,株式会社,愛媛県,松山市,本町６丁目６番地７ロータリー本町９１３号室,,38,201,7900811,,,,,,,2023-05-10,1,,,,,ノロッカ,0
1905,7010001235001,新規,0,2023-05-10,2023-05-10,株式会社Ｄｅｅｐｒｅｎｅｕｒ,,株式会社,東京都,文京区,本郷６丁目２５番１４号,,13,105,1130033,,,,,,,2023-05-10,1,,,,,ディープレナー,0
1906,7010001235034,新規,0,2023-05-10,2023-05-10,錦不動産株式会社,,株式会社,東京都,千代田区,神田和泉町一丁目７番５号町田ビル１階,,13,101,1010024,,,,,,,2023-05-10,1,,,,,ニシキフドウサン,0
1907,7010001235042,新規,0,2023-05-10,2023-05-10,ＪＡＰＡＮ　ＩＮＩＴＩＡＴＩＶＥ株式会社,,株式会社,東京都,千代田区,九段南１丁目５番６号りそな九段ビル５ＦＫＳフロア,,13,101,1020074,,,,,,,2023-05-10,1,,,,,ジャパンイニシアティブ,0
1908,7010001235075,新規,0,2023-05-10,2023-05-10,株式会社ＢＯＮＩＴＯ,,株式会社,東京都,中央区,日本橋３丁目２番１４号新槇町ビル別館第一２階,,13,102,1030027,,,,,,,2023-05-10,1,,,,,ボニート,0
1909,7010001235133,新規,0,2023-05-10,2023-05-10,株式会社ＭＩＣＡ,,株式会社,東京都,中央区,八丁堀２丁目２－７－１１０１,,13,102,1040032,,,,,,,2023-05-10,1,,,,,マイカ,0
1910,7010001235182,新規,0,2023-05-10,2023-05-10,株式会社コンフィードコンサルティング,,株式会社,東京都,千代田区,丸の内１丁目８番３号丸の内トラストタワー本館２０階,,13,101,1000005,,,,,,,2023-05-10,1,,,,,コンフィードコンサルティング,0
1921,7010401174187,新規,0,2023-05-10,2023-05-10,パーソルデジタルベンチャーズ株式会社,,株式会社,東京都,港区,南青山１丁目１５番５号,,13,103,1070062,,,,,,,2023-05-10,1,,,,,パーソルデジタルベンチャーズ,0
1924,7010403030033,新規,0,2023-05-10,2023-05-10,ＴＫ４合同会社,,合同会社,東京都,港区,北青山１丁目６番５－１０４号,,13,103,1070061,,,,,,,2023-05-10,1,,,,,ティーケーフォー,0
1932,7010601063066,新規,0,2023-05-10,2023-05-10,株式会社明鏡創製文化メディア,,株式会社,東京都,江東区,青海２丁目７番４号ｔｈｅＳＯＨＯ６３３号室,,13,108,1350064,,,,,,,2023-05-10,1,,,,,メイキョウソウセイブンカメディア,0
1935,7010603010140,新規,0,2023-05-10,2023-05-10,ＳＣＷ合同会社,,合同会社,東京都,江東区,東陽４丁目１２番２０－６１７号,,13,108,1350016,,,,,,,2023-05-10,1,,,,,エスシーダブリュー,0
1936,7010701044197,新規,0,2023-05-10,2023-05-10,株式会社ＬＩＢＥＲＴＡ,,株式会社,東京都,品川区,東大井５丁目２５番２１号品川商工ビル１階,,13,109,1400011,,,,,,,2023-05-10,1,,,,,リベルタ,0
1942,7010803004537,新規,0,2023-05-10,2023-05-10,ウエストサービス合同会社,,合同会社,東京都,大田区,西蒲田７丁目５５番３号プロフィットリンク蒲田４０５,,13,111,1440051,,,,,,,2023-05-10,1,,,,,ウエストサービス,0
1946,7010901052999,新規,0,2023-05-10,2023-05-10,株式会社三巧物産,,株式会社,東京都,世田谷区,豪徳寺１丁目４２番４号グランドール豪徳寺１０３,,13,112,1540021,,,,,,,2023-05-10,1,,,,,サンコウブッサン,0
1950,7011001154133,新規,0,2023-05-10,2023-05-10,株式会社Ｍｉｕｌａｎｄ,,株式会社,東京都,目黒区,鷹番２丁目５番２２号,,13,110,1520004,,,,,,,2023-05-10,1,,,,,ミウランド,0
1951,7011001154224,新規,0,2023-05-10,2023-05-10,株式会社Ｂｉｆコンサルティング,,株式会社,東京都,渋谷区,道玄坂１丁目２１番１号３階,,13,113,1500043,,,,,,,2023-05-10,1,,,,,ビーアイエフコンサルティング,0
1952,7011001154364,新規,0,2023-05-10,2023-05-10,株式会社オドル,,株式会社,東京都,渋谷区,宇田川町３－７ヒューリック渋谷公園通りビル５Ｆ－６７,,13,113,1500042,,,,,,,2023-05-10,1,,,,,オドル,0
1955,7011003016777,新規,0,2023-05-10,2023-05-10,合同会社ＮＩＰＯ,,合同会社,東京都,渋谷区,神宮前６丁目２３番４号桑野ビル２階,,13,113,1500001,,,,,,,2023-05-10,1,,,,,ニポ,0
1959,7011101102776,新規,0,2023-05-10,2023-05-10,株式会社ジャム,,株式会社,東京都,新宿区,歌舞伎町１丁目１０番３号Ｇ３ビル５階,,13,104,1600021,,,,,,,2023-05-10,1,,,,,ジャム,0
1960,7011101102801,新規,0,2023-05-10,2023-05-10,株式会社ベネディーレ,,株式会社,東京都,新宿区,新宿６丁目１３－４櫻井ビル１Ｆ,,13,104,1600022,,,,,,,2023-05-10,1,,,,,ベネディーレ,0
1966,7011201024615,新規,0,2023-05-10,2023-05-10,株式会社ＳＩＥｓｔＡ,,株式会社,東京都,中野区,中野４丁目１０番２号２Ｆ,,13,114,1640001,,,,,,,2023-05-10,1,,,,,シエスタ,0
1970,7011403003994,新規,0,2023-05-10,2023-05-10,合同会社エナジーコーポレーション,,合同会社,東京都,板橋区,清水町９番１号,,13,119,1740053,,,,,,,2023-05-10,1,,,,,エナジーコーポレーション,0
1971,7011503005593,新規,0,2023-05-10,2023-05-10,Ｋ‐ＯＮ　ＣＯＭＰＡＮＹ　ＪＡＰＡＮ合同会社,,合同会社,東京都,北区,田端１丁目２１番２号鈴木荘２０１号室,,13,117,1140014,,,,,,,2023-05-10,1,,,,,ケーオンカンパニージャパン,0
1972,7011701026210,新規,0,2023-05-10,2023-05-10,株式会社サカタ建設,,株式会社,東京都,江戸川区,中央２丁目２２番２２号,,13,123,1320021,,,,,,,2023-05-10,1,,,,,サカタケンセツ,0
1973,7011701026219,新規,0,2023-05-10,2023-05-10,ＹＮＥ国際ロジスティクス株式会社,,株式会社,東京都,江戸川区,中央４丁目２５－２３－３０２,,13,123,1320021,,,,,,,2023-05-10,1,,,,,ワイネヌイーコクサイロジスティクス,0
1976,7011801042355,新規,0,2023-05-10,2023-05-10,株式会社ＴＲＥＥＳ,,株式会社,東京都,足立区,六木１丁目１３－９,,13,121,1210052,,,,,,,2023-05-10,1,,,,,ツリーズ,0
1980,7012403005972,新規,0,2023-05-10,2023-05-10,ビジョナリー合同会社,,合同会社,東京都,府中市,宮町１丁目４０ＫＤＸ府中ビル３Ｆ,,13,206,1830023,,,,,,,2023-05-10,1,,,,,ビジョナリー,0
1991,7020001151486,新規,0,2023-05-10,2023-05-10,株式会社誠翔工業,,株式会社,神奈川県,横浜市栄区,桂台西１丁目４５番４－４３２号,,14,115,2470035,,,,,,,2023-05-10,1,,,,,マコトコウギョウ,0
1992,7020001151494,新規,0,2023-05-10,2023-05-10,株式会社ＩＰＳｔａｒｔ,,株式会社,神奈川県,横浜市西区,浅間町１丁目７－１ＢＩＺｃｏｍｆｏｒｔ横浜西口２５号室,,14,103,2200072,,,,,,,2023-05-10,1,,,,,アイピースタート,0
1993,7020001151503,新規,0,2023-05-10,2023-05-10,株式会社インテリアＺＥＮ,,株式会社,神奈川県,川崎市川崎区,伊勢町１３番２０－１０２号,,14,131,2100805,,,,,,,2023-05-10,1,,,,,インテリアゼン,0
1994,7020001151511,新規,0,2023-05-10,2023-05-10,株式会社仁清建設,,株式会社,神奈川県,川崎市宮前区,土橋５丁目４番地３４,,14,136,2160005,,,,,,,2023-05-10,1,,,,,ジンセイケンセツ,0
1996,7020003023865,新規,0,2023-05-10,2023-05-10,合同会社ドケジョン,,合同会社,神奈川県,横浜市港南区,港南台８丁目３５番２３号,,14,111,2340054,,,,,,,2023-05-10,1,,,,,ドケジョン,0
1997,7020003023873,新規,0,2023-05-10,2023-05-10,合同会社Ｄｏｇ　Ｔｒａｉｎｉｎｇ　Ｂｌｏｏｍ,,合同会社,神奈川県,川崎市高津区,久地２丁目２４番３号ケイアイマンション１０２,,14,134,2130032,,,,,,,2023-05-10,1,,,,,ドッグトレーニングブルーム,0
1998,7020003023881,新規,0,2023-05-10,2023-05-10,イルバッカ合同会社,,合同会社,神奈川県,横浜市南区,中里１丁目８番１－６０８号,,14,105,2320063,,,,,,,2023-05-10,1,,,,,イルバッカ,0
2000,7021001078959,新規,0,2023-05-10,2023-05-10,株式会社リビングコミュニティ,,株式会社,神奈川県,相模原市中央区,千代田７丁目１３番１５－２０１号,,14,152,2520237,,,,,,,2023-05-10,1,,,,,リビングコミュニティ,0
2002,7021003013055,新規,0,2023-05-10,2023-05-10,合同会社ヘルスデザインラボ石井,,合同会社,神奈川県,伊勢原市,高森台３丁目３番６号,,14,214,2591115,,,,,,,2023-05-10,1,,,,,ヘルスデザインラボイシイ,0
2009,7030001153515,新規,0,2023-05-10,2023-05-10,株式会社泰グローバル,,株式会社,埼玉県,吉川市,大字上内川１１９番地,,11,243,3420001,,,,,,,2023-05-10,1,,,,,タイグローバル,0
2010,7030001153721,新規,0,2023-05-10,2023-05-10,株式会社エフテクト,,株式会社,埼玉県,さいたま市岩槻区,古ヶ場２丁目２番地１,,11,110,3390072,,,,,,,2023-05-10,1,,,,,エフテクト,0
2011,7030001153746,新規,0,2023-05-10,2023-05-10,株式会社ＰＷＮ,,株式会社,埼玉県,川越市,的場２丁目２４番地２４,,11,201,3501101,,,,,,,2023-05-10,1,,,,,ピーダブルエヌ,0
2012,7030001153770,新規,0,2023-05-10,2023-05-10,株式会社ミチロジスティクス,,株式会社,埼玉県,三郷市,花和田１７１番地３,,11,237,3410041,,,,,,,2023-05-10,1,,,,,ミチロジスティクス,0
2020,7030003021694,新規,0,2023-05-10,2023-05-10,合同会社ＢＥ　ＦＲＥＥ,,合同会社,埼玉県,加須市,旗井１７番地１ピオラタウンＩＩ２０１,00130418,11,210,3491132,,,,,,,2023-05-10,1,,,,,ビーフリー,0
2023,7040001128301,新規,0,2023-05-10,2023-05-10,Ｓｐｉｎｎａｋｅｒ株式会社,,株式会社,千葉県,流山市,向小金１丁目４５４番地の１３,,12,220,2700143,,,,,,,2023-05-10,1,,,,,スピンネーカー,0
2024,7040001128318,新規,0,2023-05-10,2023-05-10,株式会社Ｔｙｎｉ,,株式会社,千葉県,勝浦市,松部１９９２番地１,,12,218,2995241,,,,,,,2023-05-10,1,,,,,タイニー,0
2025,7040001128326,新規,0,2023-05-10,2023-05-10,花菱商事株式会社,,株式会社,千葉県,千葉市中央区,浜野町８１６－４,,12,101,2600824,,,,,,,2023-05-10,1,,,,,ハナビシショウジ,0
2026,7040001128334,新規,0,2023-05-10,2023-05-10,株式会社上善若水,,株式会社,千葉県,市川市,日之出１６番２１号,,12,203,2720135,,,,,,,2023-05-10,1,,,,,ジョウゼンジャクスイ,0
2031,7040003022527,新規,0,2023-05-10,2023-05-10,ＴＭ合同会社,,合同会社,千葉県,柏市,旭町２丁目８番１８号１０１,,12,217,2770852,,,,,,,2023-05-10,1,,,,,ティーエム,0
2032,7040003022535,新規,0,2023-05-10,2023-05-10,Ａｒｉｊｅ合同会社,,合同会社,千葉県,鎌ケ谷市,東道野辺７丁目１７番３号エイトワン鎌ケ谷ＪＵＫＯ１０１号室,,12,224,2730115,,,,,,,2023-05-10,1,,,,,アリジェ,0
2033,7040003022543,新規,0,2023-05-10,2023-05-10,合同会社ＳＯＪ,,合同会社,千葉県,船橋市,二和東６丁目１７番１５号,,12,204,2740805,,,,,,,2023-05-10,1,,,,,エスオージェイ,0
2034,7040003022568,新規,0,2023-05-10,2023-05-10,合同会社トリヨ,,合同会社,千葉県,我孫子市,つくし野１丁目２１番地１－１０５号エクセレンス我孫子,,12,222,2701164,,,,,,,2023-05-10,1,,,,,トリヨ,0
2035,7050001052797,新規,0,2023-05-10,2023-05-10,株式会社樋口,,株式会社,茨城県,稲敷郡阿見町,大字荒川本郷１９０２番地１７,,08,443,3001152,,,,,,,2023-05-10,1,,,,,ヒグチ,0
2036,7050001052806,新規,0,2023-05-10,2023-05-10,株式会社タネムラケアソリューション,,株式会社,茨城県,水戸市,末広町１丁目２番３４号末広マンション３０３,,08,201,3100053,,,,,,,2023-05-10,1,,,,,タネムラケアソリューション,0
2037,7050001052814,新規,0,2023-05-10,2023-05-10,株式会社村田屋建工,,株式会社,茨城県,神栖市,太田４２７０番地,,08,232,3140254,,,,,,,2023-05-10,1,,,,,ムラタヤケンコウ,0
2041,7050003007469,新規,0,2023-05-10,2023-05-10,Ｅ＆Ｓ　Ｅｎｔｅｒｐｒｉｓｅｓ合同会社,,合同会社,茨城県,稲敷郡美浦村,大字土屋１９７９－３２３,,08,442,3000426,,,,,,,2023-05-10,1,,,,,イーアンドエスエンタープライゼズ,0
2042,7050003007485,新規,0,2023-05-10,2023-05-10,合同会社キクチマネジメントサービス,,合同会社,茨城県,小美玉市,下玉里１８８７番地５９,,08,236,3113432,,,,,,,2023-05-10,1,,,,,キクチマネジメントサービス,0
2045,7060001035966,新規,0,2023-05-10,2023-05-10,株式会社ＵＴプランニング,,株式会社,栃木県,佐野市,大和町２６９９番地,,09,204,3270027,,,,,,,2023-05-10,1,,,,,ユーティープランニング,0
2046,7060001035982,新規,0,2023-05-10,2023-05-10,株式会社Ｌｉｆｅ＆Ｆｕｔｕｒｅ,,株式会社,栃木県,宇都宮市,下川俣町２０６番地８０,,09,201,3210972,,,,,,,2023-05-10,1,,,,,ライフアンドフューチャー,0
2049,7070001040420,新規,0,2023-05-10,2023-05-10,グロウ株式会社,,株式会社,群馬県,前橋市,荒牧町１１９８番地２５,,10,201,3710044,,,,,,,2023-05-10,1,,,,,グロウ,0
2050,7070001040429,新規,0,2023-05-10,2023-05-10,株式会社ムカエデンキ,,株式会社,群馬県,吾妻郡東吾妻町,大字本宿７２６－１,,10,429,3770933,,,,,,,2023-05-10,1,,,,,ムカエデンキ,0
2051,7080005007539,新規,0,2023-05-10,2023-05-10,一般社団法人国際健康養老協会,,その他の設立登記法人,静岡県,静岡市葵区,呉服町２丁目３番地の１ふしみやビル６階,,22,101,4200031,,,,,,,2023-05-10,1,,,,,コクサイケンコウヨウロウキョウカイ,0
2057,7090001018101,新規,0,2023-05-10,2023-05-10,株式会社みたでん,,株式会社,山梨県,北杜市,大泉町谷戸６５８３番地１７,,19,209,4091502,,,,,,,2023-05-10,1,,,,,ミタデン,0
2065,7110003005045,新規,0,2023-05-10,2023-05-10,ＫＴ　Ｐｌａｎｎｉｎｇ合同会社,,合同会社,新潟県,燕市,井土巻４丁目２３７第２燕スカイマンション１０１,,15,213,9591232,,,,,,,2023-05-10,1,,,,,ケーティープランニング,0
2067,7110005016949,新規,0,2023-05-10,2023-05-10,一般社団法人新潟県中小企業家同友会,,その他の設立登記法人,新潟県,新潟市中央区,高志１丁目３番２１号,,15,103,9500926,,,,,,,2023-05-10,1,,,,,ニイガタケンチュウショウキギョウカドウユウカイ,0
2076,7120001254535,新規,0,2023-05-10,2023-05-10,株式会社シトラス商事,,株式会社,大阪府,門真市,ひえ島町２５番３８号,,27,223,5710037,,,,,,,2023-05-10,1,,,,,シトラスショウジ,0
2077,7120001254691,新規,0,2023-05-10,2023-05-10,株式会社つむぎシニアライフサポート,,株式会社,大阪府,大阪市北区,神山町８番１号梅田辰巳ビル,,27,127,5300026,,,,,,,2023-05-10,1,,,,,ツムギシニアライフサポート,0
2078,7120001254700,新規,0,2023-05-10,2023-05-10,栄川株式会社,,株式会社,大阪府,大阪市北区,野崎町１番３０－８０１号,,27,127,5300055,,,,,,,2023-05-10,1,,,,,エイセン,0
2079,7120001254717,新規,0,2023-05-10,2023-05-10,株式会社ｔｏ　Ｂｒｉｇｈｔ,,株式会社,大阪府,大阪市中央区,南船場３丁目８番１５号ＡＣＮ心斎橋ヒルズ３階,,27,128,5420081,,,,,,,2023-05-10,1,,,,,トゥブライト,0
2080,7120001254733,新規,0,2023-05-10,2023-05-10,株式会社ＹＳ　ＩＮＤＵＳＴＲＹ,,株式会社,大阪府,大阪市西淀川区,佃４丁目６番２５－２０１号,,27,113,5550001,,,,,,,2023-05-10,1,,,,,ワイエスインダストリー,0
2081,7120001254758,新規,0,2023-05-10,2023-05-10,株式会社Ｍ２,,株式会社,大阪府,大阪市西区,江戸堀２丁目１番１号江戸堀センタービル９階,,27,106,5500002,,,,,,,2023-05-10,1,,,,,エムツー,0
2082,7120003023995,新規,0,2023-05-10,2023-05-10,合同会社大阪産業医事務所,,合同会社,大阪府,大阪市天王寺区,北河堀町１０番８－７０４号,,27,109,5430053,,,,,,,2023-05-10,1,,,,,オオサカサンギョウイジムショ,0
2090,7120103005191,新規,0,2023-05-10,2023-05-10,合同会社魅成塾,,合同会社,大阪府,松原市,天美東９丁目８番３号,,27,217,5800032,,,,,,,2023-05-10,1,,,,,ミセイジュク,0
2092,7122001036954,新規,0,2023-05-10,2023-05-10,株式会社２０１７ｉｎｃ,,株式会社,大阪府,東大阪市,長堂３丁目２番３－７０１号,,27,227,5770056,,,,,,,2023-05-10,1,,,,,ニゼロイチナナインク,0
2095,7130001074247,新規,0,2023-05-10,2023-05-10,株式会社アカスポ,,株式会社,京都府,京都市伏見区,羽束師鴨川町３５２－７,,26,109,6128484,,,,,,,2023-05-10,1,,,,,アカスポ,0
2098,7130003008665,新規,0,2023-05-10,2023-05-10,ウェルズアウェイ合同会社,,合同会社,京都府,亀岡市,篠町王子唐櫃越１番５８号,,26,206,6210827,,,,,,,2023-05-10,1,,,,,ウェルズアウェイ,0
2099,7130003008707,新規,0,2023-05-10,2023-05-10,合同会社アエール,,合同会社,京都府,長岡京市,東神足１丁目６番１９号,,26,209,6170832,,,,,,,2023-05-10,1,,,,,アエール,0
2107,7140001130073,新規,0,2023-05-10,2023-05-10,株式会社ヴィープラス,,株式会社,兵庫県,宝塚市,栄町３丁目２番３０－１２０２号,,28,214,6650845,,,,,,,2023-05-10,1,,,,,ヴィープラス,0
2108,7140001130098,新規,0,2023-05-10,2023-05-10,株式会社ＯＩＫＡＷＡ計量事務所,,株式会社,兵庫県,尼崎市,塚口町４丁目６番地の２６,,28,202,6610002,,,,,,,2023-05-10,1,,,,,オイカワケイリョウジムショ,0
2112,7150001026386,新規,0,2023-05-10,2023-05-10,株式会社縁工業,,株式会社,奈良県,北葛城郡上牧町,友が丘１丁目１４番２１号,,29,424,6390203,,,,,,,2023-05-10,1,,,,,エニシコウギョウ,0
2113,7160001025016,新規,0,2023-05-10,2023-05-10,共栄システム株式会社,,株式会社,滋賀県,東近江市,今代町４９７番地,,25,213,5270053,,,,,,,2023-05-10,1,,,,,キョウエイシステム,0
2117,7180001156115,新規,0,2023-05-10,2023-05-10,株式会社Ｋａｚ’ｎ　Ｌｉｆｅ　Ｃｒｅａｔｉｏｎ,,株式会社,愛知県,大府市,月見町５丁目２１３番地,,23,223,4740036,,,,,,,2023-05-10,1,,,,,カズンライフクリエイション,0
2118,7180001156156,新規,0,2023-05-10,2023-05-10,株式会社ＬＴホールディングス,,株式会社,愛知県,名古屋市天白区,御幸山４４９番地,,23,116,4680075,,,,,,,2023-05-10,1,,,,,エルティーホールディングス,0
2119,7180001156222,新規,0,2023-05-10,2023-05-10,ライズサン株式会社,,株式会社,愛知県,名古屋市中区,大須１丁目７番１４号パークＩＭビル２Ｆ,,23,106,4600011,,,,,,,2023-05-10,1,,,,,ライズサン,0
2120,7180001156230,新規,0,2023-05-10,2023-05-10,ＫＲＥＳＴ株式会社,,株式会社,愛知県,名古屋市中区,丸の内２丁目９番２４号,,23,106,4600002,,,,,,,2023-05-10,1,,,,,クレスト,0
2125,7180003025193,新規,0,2023-05-10,2023-05-10,合同会社８,,合同会社,愛知県,名古屋市北区,山田１丁目１５番１８号,,23,103,4620810,,,,,,,2023-05-10,1,,,,,エイト,0
2126,7180003025210,新規,0,2023-05-10,2023-05-10,合同会社共養国際医療サービス,,合同会社,愛知県,津島市,百町字新開３８番地,,23,208,4960017,,,,,,,2023-05-10,1,,,,,キョウヨウコクサイイリョウサービス,0
2138,7230001019828,新規,0,2023-05-10,2023-05-10,永和産業株式会社,,株式会社,富山県,富山市,婦中町外輪野字大構７３５７番地５,,16,201,9392632,,,,,,,2023-05-10,1,,,,,エイワサンギョウ,0
2144,7250001020081,新規,0,2023-05-10,2023-05-10,株式会社壱風,,株式会社,山口県,下関市,彦島福浦町３丁目８番２１－３号,,35,201,7500087,,,,,,,2023-05-10,1,,,,,イチカゼ,0
2149,7260001037918,新規,0,2023-05-10,2023-05-10,株式会社ＲＡＶＥＸ,,株式会社,岡山県,倉敷市,上東２５５－６,,33,202,7010111,,,,,,,2023-05-10,1,,,,,レイベックス,0
2151,7280005007551,新規,0,2023-05-10,2023-05-10,一般社団法人ＥａＳｔｕｄｙ,,その他の設立登記法人,島根県,益田市,染羽町１番２４号,,32,204,6980011,,,,,,,2023-05-10,1,,,,,イースタディ,0
2152,7290001101423,新規,0,2023-05-10,2023-05-10,株式会社ＧＥＮＵＩＮＥ,,株式会社,福岡県,久留米市,天神町６８番地４天神亜依ビル６Ｆ,,40,203,8300033,,,,,,,2023-05-10,1,,,,,ジェニュイン,0
2153,7290001101431,新規,0,2023-05-10,2023-05-10,株式会社インボックスラボ,,株式会社,福岡県,那珂川市,大字成竹１３８番地１,,40,231,8111235,,,,,,,2023-05-10,1,,,,,インボックスラボ,0
2154,7290001101456,新規,0,2023-05-10,2023-05-10,株式会社京工,,株式会社,福岡県,飯塚市,下三緒１８６番地２,,40,205,8200012,,,,,,,2023-05-10,1,,,,,ケイコウ,0
2166,7320003004075,新規,0,2023-05-10,2023-05-10,合同会社ゆい結訪問看護ステーション,,合同会社,大分県,大分市,大字寒田１１２５番地４,,44,201,8701123,,,,,,,2023-05-10,1,,,,,ユイユイホウモンカンゴステーション,0
2169,7330003009825,新規,0,2023-05-10,2023-05-10,ＫｉＴＭＥ合同会社,,合同会社,熊本県,熊本市東区,下南部３丁目１０－２６ＪＯＨＮ　ＢＵＬＬ　ＡＮＴＩＱＵＥＳ　１Ｆ,,43,102,8618019,,,,,,,2023-05-10,1,,,,,,0
2170,7340001025559,新規,0,2023-05-10,2023-05-10,株式会社レブルー,,株式会社,鹿児島県,奄美市,笠利町大字手花部３０２２番地１,,46,222,8940506,,,,,,,2023-05-10,1,,,,,レブルー,0
2175,7360001031968,新規,0,2023-05-10,2023-05-10,株式会社實光屋,,株式会社,沖縄県,名護市,字久志８２７番地２,,47,209,9052173,,,,,,,2023-05-10,1,,,,,サネミツヤ,0
2176,7360001031976,新規,0,2023-05-10,2023-05-10,株式会社グワポ,,株式会社,沖縄県,沖縄市,中央１丁目１０番３号,,47,211,9040004,,,,,,,2023-05-10,1,,,,,グワポ,0
2181,7360003012850,新規,0,2023-05-10,2023-05-10,野の香コンサルティングファーム合同会社,,合同会社,沖縄県,名護市,字済井出５８９,,47,209,9051635,,,,,,,2023-05-10,1,,,,,ノノカコンサルティングファーム,0
2186,7370001049935,新規,0,2023-05-10,2023-05-10,ＮＥＫＯ竈株式会社,,株式会社,宮城県,塩竈市,泉沢町２０番１９号,,04,203,9850062,,,,,,,2023-05-10,1,,,,,ネコカマド,0
2191,7380001033681,新規,0,2023-05-10,2023-05-10,株式会社ＨＡＤＡＳＨＩ,,株式会社,福島県,田村郡三春町,八島台５丁目２－４,,07,521,9637741,,,,,,,2023-05-10,1,,,,,ハダシ,0
2193,7380003005456,新規,0,2023-05-10,2023-05-10,合同会社ツートップ,,合同会社,福島県,大沼郡会津美里町,杉屋字村廻甲１１１番地,,07,447,9696253,,,,,,,2023-05-10,1,,,,,ツートップ,0
2196,7400005008330,新規,0,2023-05-10,2023-05-10,一般社団法人いきいきライフ協会南いわて,,その他の設立登記法人,岩手県,釜石市,只越町２丁目３番９号１０１,,03,211,0260021,,,,,,,2023-05-10,1,,,,,イキイキライフキョウカイミナミイワテ,0
2197,7410001013481,新規,0,2023-05-10,2023-05-10,株式会社Ｈ．Ｎ．Ｅ,,株式会社,秋田県,秋田市,外旭川八柳３丁目１２番６１号,,05,201,0100803,,,,,,,2023-05-10,1,,,,,ヒューマンネットワークエンジニアリング,0
2200,7420001018257,新規,0,2023-05-10,2023-05-10,Ｐｏｒｎ　Ｃｈｉｃｋｅｎ株式会社,,株式会社,青森県,青森市,橋本２丁目１２番１６号,,02,201,0300823,,,,,,,2023-05-10,1,,,,,ポルノチキン,0
2201,7420003002713,新規,0,2023-05-10,2023-05-10,合同会社浩,,合同会社,青森県,八戸市,大字湊町字赤坂５番地３,,02,203,0310812,,,,,,,2023-05-10,1,,,,,ユタカ,0
2203,7430001089009,新規,0,2023-05-10,2023-05-10,株式会社ベアプリ,,株式会社,北海道,札幌市西区,二十四軒四条６丁目３番１８号,,01,107,0630804,,,,,,,2023-05-10,1,,,,,ベアプリ,0
2204,7430001089074,新規,0,2023-05-10,2023-05-10,株式会社デザインオフィスはな,,株式会社,北海道,札幌市東区,北八条東８丁目１‐１７スクエア北８条２０１号室,,01,103,0650008,,,,,,,2023-05-10,1,,,,,デザインオフイスハナ,0
2205,7430001089099,新規,0,2023-05-10,2023-05-10,株式会社ｏｕｔｓｉｄｅｒｓ　ａｆｆａｉｒ,,株式会社,北海道,札幌市中央区,北一条西１５丁目１－３－２０７号,,01,101,0600001,,,,,,,2023-05-10,1,,,,,アウトサイダーズアフェア,0
2212,7430003015012,新規,0,2023-05-10,2023-05-10,合同会社ワイエスエステート,,合同会社,北海道,札幌市白石区,平和通４丁目南３番１３号パークマンション１階,,01,104,0030028,,,,,,,2023-05-10,1,,,,,ワイエスエステート,0
2215,7470001019606,新規,0,2023-05-10,2023-05-10,株式会社宮本スケール,,株式会社,香川県,高松市,朝日町４丁目３２番１０号,,37,201,7600065,,,,,,,2023-05-10,1,,,,,ミヤモトスケール,0
2221,7500003003034,新規,0,2023-05-10,2023-05-10,合同会社Ｃｏｍｐａｓｓ,,合同会社,愛媛県,松山市,萱町２丁目５番地５,,38,201,7900813,,,,,,,2023-05-10,1,,,,,,0
2229,8010001235041,新規,0,2023-05-10,2023-05-10,ＡＣＴ　ＨＤ株式会社,,株式会社,東京都,千代田区,神田和泉町１番地６の１,,13,101,1010024,,,,,,,2023-05-10,1,,,,,エイシィティイエイチディイ,0
2230,8010001235074,新規,0,2023-05-10,2023-05-10,株式会社Ｍ．Ｉ．Ｏｆｆｉｃｅ,,株式会社,東京都,千代田区,九段南１丁目５番６号りそな九段ビル５階ＫＳフロア,,13,101,1020074,,,,,,,2023-05-10,1,,,,,エムアイオフィス,0
2231,8010001235108,新規,0,2023-05-10,2023-05-10,株式会社Ｒｅ．Ｑｕｓｅ,,株式会社,東京都,中央区,銀座７丁目１５番８号タウンハイツ４０６,,13,102,1040061,,,,,,,2023-05-10,1,,,,,リキューズ,0
2232,8010001235124,新規,0,2023-05-10,2023-05-10,株式会社ＴＯＹＡＭＡホールディングス,,株式会社,東京都,千代田区,神田東松下町２５－２３１２,,13,101,1010042,,,,,,,2023-05-10,1,,,,,,0
2233,8010001235149,新規,0,2023-05-10,2023-05-10,大樹商事株式会社,,株式会社,東京都,千代田区,九段南１丁目５番６号りそな九段ビル５階ＫＳフロア,,13,101,1020074,,,,,,,2023-05-10,1,,,,,タイキショウジ,0
2234,8010003040514,新規,0,2023-05-10,2023-05-10,合同会社成竹,,合同会社,東京都,中央区,八丁堀３丁目１４番２号,,13,102,1040032,,,,,,,2023-05-10,1,,,,,ナルダケ,0
2238,8010005036618,新規,0,2023-05-10,2023-05-10,一般社団法人脳と体の研究所,,その他の設立登記法人,東京都,中央区,晴海３丁目１３番２－５０１０号,,13,102,1040053,,,,,,,2023-05-10,1,,,,,ノウトカラダノケンキュウジョ,0
2239,8010005036634,新規,0,2023-05-10,2023-05-10,一般社団法人ＳＥＲＥＮＤＩＰＩＴＹ,,その他の設立登記法人,東京都,中央区,銀座３丁目４番１５号菱進銀座ビル６階,,13,102,1040061,,,,,,,2023-05-10,1,,,,,セレンディピティ,0
2245,8010401174137,新規,0,2023-05-10,2023-05-10,株式会社Ｍ２,,株式会社,東京都,港区,台場２丁目２番２号,,13,103,1350091,,,,,,,2023-05-10,1,,,,,エムツー,0
2246,8010401174186,新規,0,2023-05-10,2023-05-10,株式会社Ｖｅｒｄａｎｔ　Ｇｒｅｅｎ,,株式会社,東京都,港区,六本木７丁目７番７号Ｔｒｉ－ＳｅｖｅｎＲｏｐｐｏｎｇｉ８階,,13,103,1060032,,,,,,,2023-05-10,1,,,,,バーダントグリーン,0
2250,8010403030032,新規,0,2023-05-10,2023-05-10,ＴＫ３合同会社,,合同会社,東京都,港区,北青山１丁目６番５－１０４号,,13,103,1070061,,,,,,,2023-05-10,1,,,,,ティーケースリー,0
2253,8010601063065,新規,0,2023-05-10,2023-05-10,株式会社ＹＫ建物総合管理,,株式会社,東京都,墨田区,向島３丁目４０番１２号アシュレ隅田１階,,13,107,1310033,,,,,,,2023-05-10,1,,,,,ワイケータテモノソウゴウカンリ,0
2254,8010601063073,新規,0,2023-05-10,2023-05-10,株式会社エムエル商事,,株式会社,東京都,江東区,大島６丁目１－４－１００１,,13,108,1360072,,,,,,,2023-05-10,1,,,,,エムエルショウジ,0
2257,8010701044205,新規,0,2023-05-10,2023-05-10,株式会社ＢＵＵＣＨＡＮ,,株式会社,東京都,品川区,北品川３丁目１１番１３－２５０８号,,13,109,1400001,,,,,,,2023-05-10,1,,,,,ブーチャン,0
2258,8010701044213,新規,0,2023-05-10,2023-05-10,テックプロパティジャパン株式会社,,株式会社,東京都,品川区,西五反田１丁目２６番２号五反田サンハイツビル２Ｆ,,13,109,1410031,,,,,,,2023-05-10,1,,,,,テックプロパティジャパン,0
2259,8010801033941,新規,0,2023-05-10,2023-05-10,二月工業株式会社,,株式会社,東京都,大田区,新蒲田３丁目１０－７,,13,111,1440054,,,,,,,2023-05-10,1,,,,,フタツキコウギョウ,0
2260,8010803004528,新規,0,2023-05-10,2023-05-10,合同会社ＡｓａｚｕＶｉｌｌａｇｅ,,合同会社,東京都,大田区,本羽田２丁目１１－４・３Ｆ,,13,111,1440044,,,,,,,2023-05-10,1,,,,,アサヅビレッジ,0
2265,8010903008156,新規,0,2023-05-10,2023-05-10,Ｕｅｄａ　Ｃａｐｉｔａｌ合同会社,,合同会社,東京都,世田谷区,中町２丁目６番６号,,13,112,1580091,,,,,,,2023-05-10,1,,,,,ウエダキャピタル,0
2270,8011003016768,新規,0,2023-05-10,2023-05-10,合同会社ＳＯＨ,,合同会社,東京都,目黒区,駒場４丁目１番９－３０３号駒場レジデンス,,13,110,1530041,,,,,,,2023-05-10,1,,,,,ソウ,0
2271,8011003016792,新規,0,2023-05-10,2023-05-10,日本ナンバーワン調査総研合同会社,,合同会社,東京都,渋谷区,道玄坂１丁目１０番８号渋谷道玄坂東急ビル２Ｆ－Ｃ,,13,113,1500043,,,,,,,2023-05-10,1,,,,,ニホンナンバーワンチョウサソウケン,0
2275,8011101102759,新規,0,2023-05-10,2023-05-10,株式会社ＡＤＯＯＲ,,株式会社,東京都,新宿区,西新宿２丁目４番１号,,13,104,1600023,,,,,,,2023-05-10,1,,,,,アドア,0
2278,8011401025123,新規,0,2023-05-10,2023-05-10,株式会社三和商事,,株式会社,東京都,板橋区,西台１丁目１番１４号,,13,119,1740045,,,,,,,2023-05-10,1,,,,,ミワショウジ,0
2279,8011503005576,新規,0,2023-05-10,2023-05-10,久沢合同会社,,合同会社,東京都,北区,浮間１丁目７－２３兆豊浮間ビル５０２号室,,13,117,1150051,,,,,,,2023-05-10,1,,,,,ヒササワ,0
2280,8011503005592,新規,0,2023-05-10,2023-05-10,合同会社ファインワークス,,合同会社,東京都,北区,豊島７丁目２０番７,,13,117,1140003,,,,,,,2023-05-10,1,,,,,ファインワークス,0
2291,8011701026218,新規,0,2023-05-10,2023-05-10,株式会社Ｌａｓ,,株式会社,東京都,江戸川区,北篠崎２丁目２５番４号,,13,123,1330053,,,,,,,2023-05-10,1,,,,,ラス,0
2292,8011801042346,新規,0,2023-05-10,2023-05-10,ＬＪ商会株式会社,,株式会社,東京都,足立区,西保木間２丁目１３－１９,,13,121,1210812,,,,,,,2023-05-10,1,,,,,,0
2299,8013301050688,新規,0,2023-05-10,2023-05-10,日本システムエンジニアサービス株式会社,,株式会社,東京都,豊島区,東池袋１丁目１７番１１号パークハイツ池袋１１０５号,,13,116,1700013,,,,,,,2023-05-10,1,,,,,ニッポンシステムエンジニアサービス,0
2300,8013301050721,新規,0,2023-05-10,2023-05-10,株式会社ＡＬＴＥＡ,,株式会社,東京都,豊島区,南池袋１丁目９番１８－３３４号,,13,116,1710022,,,,,,,2023-05-10,1,,,,,アルテア,0
2304,8020001151485,新規,0,2023-05-10,2023-05-10,株式会社ＺＥＲＯ,,株式会社,神奈川県,横浜市栄区,公田町７２６番地２－２０２,,14,115,2470014,,,,,,,2023-05-10,1,,,,,ゼロ,0
2305,8020001151493,新規,0,2023-05-10,2023-05-10,株式会社ＥＩＧＯ,,株式会社,神奈川県,横浜市戸塚区,上倉田町１３６７番地,,14,110,2440816,,,,,,,2023-05-10,1,,,,,エイゴー,0
2306,8020001151502,新規,0,2023-05-10,2023-05-10,株式会社ｍｙａｋｕ,,株式会社,神奈川県,横浜市西区,北幸２丁目１０番地２８むつみビル３Ｆ,,14,103,2200004,,,,,,,2023-05-10,1,,,,,ミャク,0
2308,8020003023856,新規,0,2023-05-10,2023-05-10,ワイケーダイレクト合同会社,,合同会社,神奈川県,横浜市中区,北仲通５丁目５７番地２ザ・タワー横浜北仲２３１６号室,,14,104,2310003,,,,,,,2023-05-10,1,,,,,ワイケーダイレクト,0
2309,8020003023889,新規,0,2023-05-10,2023-05-10,合同会社ＭＫＡＭ,,合同会社,神奈川県,川崎市多摩区,菅北浦５丁目７番３８号,,14,135,2140008,,,,,,,2023-05-10,1,,,,,エムカム,0
2312,8021001078941,新規,0,2023-05-10,2023-05-10,株式会社マイア,,株式会社,神奈川県,横須賀市,岩戸３丁目１７番１号,,14,201,2390844,,,,,,,2023-05-10,1,,,,,マイア,0
2313,8021001078966,新規,0,2023-05-10,2023-05-10,株式会社國分興業,,株式会社,神奈川県,藤沢市,下土棚２３２９番地４ラクプラウＩ－２０２,00130428,14,205,2520807,,,,,,,2023-05-10,1,,,,,コクブンコウギョウ,0
2324,8030001153712,新規,0,2023-05-10,2023-05-10,株式会社ＰＬＵＳ,,株式会社,埼玉県,朝霞市,溝沼１丁目２番２３号岩本店舗２Ｆ,,11,227,3510023,,,,,,,2023-05-10,1,,,,,プラス,0
2325,8030001153720,新規,0,2023-05-10,2023-05-10,株式会社Ｓｉｇｎａｌ　Ｇｒｅｅｎ,,株式会社,埼玉県,川口市,本蓮２丁目５番１０号,,11,203,3340076,,,,,,,2023-05-10,1,,,,,シグナルグリーン,0
2329,8030003021693,新規,0,2023-05-10,2023-05-10,合同会社ヤングリーフ,,合同会社,埼玉県,坂戸市,千代田４丁目７番１３－５０２号,,11,239,3500214,,,,,,,2023-05-10,1,,,,,ヤングリーフ,0
2332,8040001128226,新規,0,2023-05-10,2023-05-10,株式会社福王,,株式会社,千葉県,千葉市中央区,院内１丁目１１番１－２０１号,,12,101,2600018,,,,,,,2023-05-10,1,,,,,フクオウ,0
2333,8040001128259,新規,0,2023-05-10,2023-05-10,株式会社ＴＯＫＵ,,株式会社,千葉県,千葉市花見川区,さつきが丘２丁目１０番２２棟４１２号,,12,102,2620014,,,,,,,2023-05-10,1,,,,,トク,0
2334,8040001128267,新規,0,2023-05-10,2023-05-10,株式会社雅晶,,株式会社,千葉県,船橋市,海神町南１丁目１５４４番地１２ハイム海神南３０５号,,12,204,2730024,,,,,,,2023-05-10,1,,,,,ガショウ,0
2335,8040001128275,新規,0,2023-05-10,2023-05-10,株式会社ニライカナイ７８,,株式会社,千葉県,松戸市,西馬橋蔵元町１３５番地の１,,12,207,2710046,,,,,,,2023-05-10,1,,,,,ニライカナイセブンティエイト,0
2336,8040001128283,新規,0,2023-05-10,2023-05-10,株式会社マツザワ,,株式会社,千葉県,船橋市,夏見１丁目１８番２０号,,12,204,2730865,,,,,,,2023-05-10,1,,,,,マツザワ,0
2337,8040001128317,新規,0,2023-05-10,2023-05-10,株式会社タイムスマン,,株式会社,千葉県,市川市,行徳駅前４丁目１９番１１号,,12,203,2720133,,,,,,,2023-05-10,1,,,,,タイムスマン,0
2339,8040003022550,新規,0,2023-05-10,2023-05-10,合同会社シルバースプーン,,合同会社,千葉県,四街道市,内黒田２５１番地,,12,228,2840013,,,,,,,2023-05-10,1,,,,,シルバースプーン,0
2340,8040003022567,新規,0,2023-05-10,2023-05-10,合同会社アステル,,合同会社,千葉県,市川市,南八幡４丁目６番４－１３０３号,,12,203,2720023,,,,,,,2023-05-10,1,,,,,アステル,0
2344,8050001052813,新規,0,2023-05-10,2023-05-10,フィコケミー株式会社,,株式会社,茨城県,石岡市,柿岡１１５５番地５０,,08,205,3150116,,,,,,,2023-05-10,1,,,,,フィコケミー,0
2345,8050001052821,新規,0,2023-05-10,2023-05-10,株式会社ＧｒｅｅｎＬｉｆｅ緑花,,株式会社,茨城県,つくば市,高野台３丁目１０番地３５,,08,220,3050074,,,,,,,2023-05-10,1,,,,,グリーンライフリョッカ,0
2347,8050003007476,新規,0,2023-05-10,2023-05-10,合同会社新栄企画,,合同会社,茨城県,水戸市,谷田町１０１４番地１,,08,201,3100825,,,,,,,2023-05-10,1,,,,,シンエイキカク,0
2358,8100001036364,新規,0,2023-05-10,2023-05-10,冨岡建設株式会社,,株式会社,長野県,上高井郡小布施町,大字押羽５６８番地,,20,541,3810207,,,,,,,2023-05-10,1,,,,,トミオカケンセツ,0
2359,8100001036380,新規,0,2023-05-10,2023-05-10,株式会社ほまれ,,株式会社,長野県,伊那市,美篶３２３０番地１,,20,209,3960111,,,,,,,2023-05-10,1,,,,,ホマレ,0
2360,8100001036389,新規,0,2023-05-10,2023-05-10,株式会社このんこぴあ,,株式会社,長野県,飯田市,座光寺４５９８番地１,,20,205,3950001,,,,,,,2023-05-10,1,,,,,コノンコピア,0
2366,8110005016948,新規,0,2023-05-10,2023-05-10,一般社団法人新潟県鋼構造物塗装協会,,その他の設立登記法人,新潟県,新潟市中央区,南笹口１丁目１番３８号コープオリンピア笹口３０５号,,15,103,9500912,,,,,,,2023-05-10,1,,,,,ニイガタケンコウコウゾウブツトソウキョウカイ,0
2383,8120001254682,新規,0,2023-05-10,2023-05-10,株式会社こころさぽーと,,株式会社,大阪府,大阪市淀川区,十三本町１丁目２０－２０－４階,,27,123,5320024,,,,,,,2023-05-10,1,,,,,ココロサポート,0
2384,8120001254699,新規,0,2023-05-10,2023-05-10,株式会社アイファクト,,株式会社,大阪府,大阪市住吉区,山之内３丁目１２番９号,,27,120,5580023,,,,,,,2023-05-10,1,,,,,アイファクト,0
2385,8120001254708,新規,0,2023-05-10,2023-05-10,株式会社ＢＡＬＯＲＥ,,株式会社,大阪府,守口市,河原町１０番１５号テルプラザ守口店１階１１４号室,,27,209,5700038,,,,,,,2023-05-10,1,,,,,バローレ,0
2386,8120001254732,新規,0,2023-05-10,2023-05-10,株式会社ＳＵＧＯ,,株式会社,大阪府,大阪市天王寺区,上汐５丁目１番１４号,,27,109,5430002,,,,,,,2023-05-10,1,,,,,スゴウ,0
2387,8120001254740,新規,0,2023-05-10,2023-05-10,アルプレス株式会社,,株式会社,大阪府,大阪市天王寺区,東高津町３番３４号,,27,109,5430021,,,,,,,2023-05-10,1,,,,,アルプレス,0
2388,8120001254749,新規,0,2023-05-10,2023-05-10,株式会社セラヴィ,,株式会社,大阪府,大阪市東住吉区,西今川３丁目１９－１７－１,,27,121,5460042,,,,,,,2023-05-10,1,,,,,セラヴィ,0
2389,8120001254757,新規,0,2023-05-10,2023-05-10,株式会社皇機工,,株式会社,大阪府,大阪市西成区,花園南１丁目１２番１４－８１１号,,27,122,5570015,,,,,,,2023-05-10,1,,,,,スメラギキコウ,0
2393,8120003024027,新規,0,2023-05-10,2023-05-10,ＳＫＹイノベーションマネジメント合同会社,,合同会社,大阪府,大阪市東成区,東今里１丁目５番２－８０１号,,27,115,5370011,,,,,,,2023-05-10,1,,,,,スカイイノベーションマネジメント,0
2394,8120003024035,新規,0,2023-05-10,2023-05-10,Ｙ‐ｓｔｙｌｅ　ｃｏｍｐａｎｙ合同会社,,合同会社,大阪府,大阪市西淀川区,大和田３丁目３‐１‐９０２,,27,113,5550032,,,,,,,2023-05-10,1,,,,,ワイスタイルカンパニー,0
2397,8120103005208,新規,0,2023-05-10,2023-05-10,合同会社パヤト,,合同会社,大阪府,堺市西区,上野芝向ヶ丘町１丁２３番１－５１０号,,27,144,5938303,,,,,,,2023-05-10,1,,,,,パヤト,0
2406,8122001036937,新規,0,2023-05-10,2023-05-10,株式会社金沢商店,,株式会社,大阪府,大東市,新田中町２番３５号,,27,218,5740056,,,,,,,2023-05-10,1,,,,,カナザワショウテン,0
2407,8122001036945,新規,0,2023-05-10,2023-05-10,株式会社橘,,株式会社,大阪府,八尾市,長池町１丁目３０番８号,,27,212,5810836,,,,,,,2023-05-10,1,,,,,タチバナ,0
2413,8130001074254,新規,0,2023-05-10,2023-05-10,株式会社Ｔｒｉｐｌｅ　Ｗｉｎ　Ｅｓｔａｔｅ,,株式会社,京都府,八幡市,八幡女郎花６８番３,,26,210,6148077,,,,,,,2023-05-10,1,,,,,トリプルウインエステート,0
2414,8130001074287,新規,0,2023-05-10,2023-05-10,株式会社ＭＩＹＡＫＯ　Ｍｅｄｉａ,,株式会社,京都府,京都市伏見区,深草越後屋敷町１２３パデシオン伏見１１４号室,,26,109,6128431,,,,,,,2023-05-10,1,,,,,ミヤコメディア,0
2426,8140005026614,新規,0,2023-05-10,2023-05-10,一般社団法人おんちょう,,その他の設立登記法人,兵庫県,加東市,平木１３１０番地３２４,,28,228,6731402,,,,,,,2023-05-10,1,,,,,オンチョウ,0
2428,8150005009477,新規,0,2023-05-10,2023-05-10,医療法人常磐会,,その他の設立登記法人,奈良県,奈良市,法蓮町１０９５番地,,29,201,6308113,,,,,,,2023-05-10,1,,,,,トキワカイ,0
2429,8160001025015,新規,0,2023-05-10,2023-05-10,株式会社ＪＡＰＡＮ　ＲＥＵＳＥ,,株式会社,滋賀県,栗東市,下戸山１０９２番地７５,,25,208,5203011,,,,,,,2023-05-10,1,,,,,ジャパンリユース,0
2430,8160001025031,新規,0,2023-05-10,2023-05-10,株式会社ＳＳＴホールディングス,,株式会社,滋賀県,草津市,東矢倉２丁目２番１３号,,25,206,5250054,,,,,,,2023-05-10,1,,,,,エスエスティーホールディングス,0
2432,8170001017589,新規,0,2023-05-10,2023-05-10,株式会社Ｍ＆ＳＫＲ,,株式会社,和歌山県,西牟婁郡白浜町,２７８７番地の２,,30,401,6492211,,,,,,,2023-05-10,1,,,,,エムアンドエスケーアール,0
2443,8180001156130,新規,0,2023-05-10,2023-05-10,株式会社ａ‐ｔｏ,,株式会社,愛知県,名古屋市北区,大曽根１丁目４番１２号大曽根デルタ１Ｆ,,23,103,4620825,,,,,,,2023-05-10,1,,,,,アート,0
2444,8180001156196,新規,0,2023-05-10,2023-05-10,株式会社ＧＹＧ,,株式会社,愛知県,名古屋市天白区,八事山４３９番地ビィラ八事２－Ｅ,,23,116,4680077,,,,,,,2023-05-10,1,,,,,ジーワイジー,0
2445,8180001156213,新規,0,2023-05-10,2023-05-10,株式会社ライズ,,株式会社,愛知県,あま市,本郷八尻７番地５,,23,237,4901116,,,,,,,2023-05-10,1,,,,,ライズ,0
2450,8190001030367,新規,0,2023-05-10,2023-05-10,橋本木材株式会社,,株式会社,三重県,四日市市,東富田町２７番２４号,,24,202,5108006,,,,,,,2023-05-10,1,,,,,ハシモトモクザイ,0
2454,8220001025396,新規,0,2023-05-10,2023-05-10,石川ＰＭＪＡＰＡＮ株式会社,,株式会社,石川県,能美市,三ツ口町３７４番地１,,17,211,9231203,,,,,,,2023-05-10,1,,,,,イシカワピーエムジャパン,0
2457,8230003002013,新規,0,2023-05-10,2023-05-10,合同会社ナカガワ,,合同会社,富山県,富山市,秋吉１５８番地８,,16,201,9300953,,,,,,,2023-05-10,1,,,,,ナカガワ,0
2458,8240001061456,新規,0,2023-05-10,2023-05-10,ヨシクニ８３８株式会社,,株式会社,広島県,広島市中区,西十日市町１０番９－３０３号,,34,101,7300806,,,,,,,2023-05-10,1,,,,,ヨシクニハチサンハチ,0
2459,8240001061489,新規,0,2023-05-10,2023-05-10,株式会社Ｇリテイル,,株式会社,広島県,広島市西区,己斐上１丁目１０－４,,34,104,7330815,,,,,,,2023-05-10,1,,,,,ジーリテイル,0
2466,8260001037933,新規,0,2023-05-10,2023-05-10,株式会社再生復活物語,,株式会社,岡山県,岡山市北区,菅野３３９９－１,,33,101,7011141,,,,,,,2023-05-10,1,,,,,サイセイフッカツモノガタリ,0
2469,8270003001523,新規,0,2023-05-10,2023-05-10,アニー貿易合同会社,,合同会社,鳥取県,鳥取市,湖山町北６丁目２５６,,31,201,6800941,,,,,,,2023-05-10,1,,,,,アニーボウエキ,0
2474,8280003001729,新規,0,2023-05-10,2023-05-10,合同会社梵,,合同会社,島根県,鹿足郡津和野町,中曽野４３９番地,,32,501,6995636,,,,,,,2023-05-10,1,,,,,ボン,0
2476,8290001101430,新規,0,2023-05-10,2023-05-10,株式会社アジエスエステート,,株式会社,福岡県,福岡市中央区,荒戸２丁目３番１７－９０３号,,40,133,8100062,,,,,,,2023-05-10,1,,,,,アジエスエステート,0
2477,8290001101496,新規,0,2023-05-10,2023-05-10,株式会社ＭＹＵＭＡ,,株式会社,福岡県,福岡市東区,箱崎４丁目３６番１８－１０２号Ｓｔａｒｌｉｇｈｔ,,40,131,8120053,,,,,,,2023-05-10,1,,,,,ミューマ,0
2487,8330003009832,新規,0,2023-05-10,2023-05-10,合同会社ＭＫ物流,,合同会社,熊本県,熊本市中央区,桜町２番３６号ハウル桜町２０５号,,43,101,8600805,,,,,,,2023-05-10,1,,,,,エムケイブツリュウ,0
2490,8350001018346,新規,0,2023-05-10,2023-05-10,株式会社ユー・エイチ・テック,,株式会社,宮崎県,都城市,志比田町１１０８７番地２,,45,202,8850093,,,,,,,2023-05-10,1,,,,,ユーエイチテック,0
2492,8360001031959,新規,0,2023-05-10,2023-05-10,株式会社Ｂｌｕｅ　Ｍｏｂｉｌｉｔｙ,,株式会社,沖縄県,那覇市,銘苅３丁目９－２２ＫＡキャンディービル２階,,47,201,9000004,,,,,,,2023-05-10,1,,,,,ブルーモビリティ,0
2493,8360001031983,新規,0,2023-05-10,2023-05-10,株式会社ＬＩＦＥＰＩＥＣＥ,,株式会社,沖縄県,沖縄市,高原４丁目２４番２５号１０１,,47,211,9042171,,,,,,,2023-05-10,1,,,,,ライフピース,0
2499,8370001049934,新規,0,2023-05-10,2023-05-10,株式会社リフアクト,,株式会社,宮城県,仙台市若林区,大和町１丁目１８番２０号カーサ・フォルテ１０２,,04,103,9840042,,,,,,,2023-05-10,1,,,,,リフアクト,0
2501,8380001033664,新規,0,2023-05-10,2023-05-10,株式会社ＮｅｘｔＨｏｍｅ,,株式会社,福島県,郡山市,堂前町２７番７号ＲＨＩＮＯＳ堂前ビル２Ｆ１号室,,07,203,9638877,,,,,,,2023-05-10,1,,,,,ネクストホーム,0
2502,8380001033672,新規,0,2023-05-10,2023-05-10,Ｋ’ＧＲＯＷＴＨ株式会社,,株式会社,福島県,双葉郡楢葉町,大字井出字舘ノ沢９２番地１３,,07,542,9790603,,,,,,,2023-05-10,1,,,,,ケイグロース,0
2505,8400001016237,新規,0,2023-05-10,2023-05-10,株式会社Ｈｏｐｅｎ　Ｔｅｒｒａｃｅ,,株式会社,岩手県,上閉伊郡大槌町,大槌第２４地割２２番地７グリーンヴィラ２０２,,03,461,0281131,,,,,,,2023-05-10,1,,,,,ホープンテラス,0
2507,8400003003076,新規,0,2023-05-10,2023-05-10,Ｐａ４ｆｉｃ　Ｄｅｓｉｇｎ合同会社,,合同会社,岩手県,北上市,鬼柳町荒高４２番地２,,03,206,0240056,,,,,,,2023-05-10,1,,,,,パシフィックデザイン,0
2513,8420003002712,新規,0,2023-05-10,2023-05-10,合同会社ｈａｒｕ,,合同会社,青森県,八戸市,大字沢里字沢里山１６番地４８,,02,203,0391167,,,,,,,2023-05-10,1,,,,,ハル,0
2517,8430001089032,新規,0,2023-05-10,2023-05-10,株式会社鈴木板金,,株式会社,北海道,小樽市,塩谷２丁目２１番１４号,,01,203,0482672,,,,,,,2023-05-10,1,,,,,スズキバンキン,0
2522,8440003001522,新規,0,2023-05-10,2023-05-10,合同会社府金工務店,,合同会社,北海道,奥尻郡奥尻町,字富里３３番地３,,01,367,0431522,,,,,,,2023-05-10,1,,,,,フガネコウムテン,0
2536,9010001235081,新規,0,2023-05-10,2023-05-10,株式会社山口商事,,株式会社,東京都,中央区,晴海１丁目７番２－８１０号,,13,102,1040053,,,,,,,2023-05-10,1,,,,,ヤマグチショウジ,0
2545,9010401174169,新規,0,2023-05-10,2023-05-10,尚嘉株式会社,,株式会社,東京都,港区,新橋３丁目９番１０号,,13,103,1050004,,,,,,,2023-05-10,1,,,,,シャンジァ,0
2546,9010401174185,新規,0,2023-05-10,2023-05-10,株式会社ＴＯＰ,,株式会社,東京都,港区,浜松町２丁目２番１５号ダイヤビル２Ｆ,,13,103,1050013,,,,,,,2023-05-10,1,,,,,トップ,0
2547,9010401174210,新規,0,2023-05-10,2023-05-10,ＳＢＩ　ＰＥホールディングス株式会社,,株式会社,東京都,港区,六本木１丁目６番１号,,13,103,1060032,,,,,,,2023-05-10,1,,,,,エスビーアイピーイーホールディングス,0
2548,9010401174219,新規,0,2023-05-10,2023-05-10,株式会社ＳＬＫ,,株式会社,東京都,港区,赤坂４丁目８番１９号赤坂フロントタウン３階,,13,103,1070052,,,,,,,2023-05-10,1,,,,,エスエルケー,0
2551,9010403030072,新規,0,2023-05-10,2023-05-10,ピクセルＡ合同会社,,合同会社,東京都,港区,虎ノ門４丁目１番４０号,,13,103,1050001,,,,,,,2023-05-10,1,,,,,ピクセルエー,0
2554,9010501050393,新規,0,2023-05-10,2023-05-10,株式会社フォース,,株式会社,東京都,台東区,千束２丁目２１番５－３０４号鈴秀レジデンス,,13,106,1110031,,,,,,,2023-05-10,1,,,,,フォース,0
2555,9010501050410,新規,0,2023-05-10,2023-05-10,株式会社ＴＡＣ　Ｔｒａｄｉｎｇ,,株式会社,東京都,台東区,東浅草２丁目２０番１０号カリ豆ビル４０１,,13,106,1110025,,,,,,,2023-05-10,1,,,,,タックトレーディング,0
2556,9010501050419,新規,0,2023-05-10,2023-05-10,Ｂｅｓｔ　Ｅｘｐｅｒｉｅｎｃｅ　Ｊａｐａｎ株式会社,,株式会社,東京都,台東区,東上野１丁目２番３－７０３号デュオ・スカーラ御徒町,,13,106,1100015,,,,,,,2023-05-10,1,,,,,ベストエクスペリエンスジャパン,0
2563,9010603010139,新規,0,2023-05-10,2023-05-10,イーサポ合同会社,,合同会社,東京都,墨田区,江東橋１丁目１６番地１号,,13,107,1300022,,,,,,,2023-05-10,1,,,,,イーサポ,0
2572,9010701044204,新規,0,2023-05-10,2023-05-10,株式会社Ｐａｌａｃｅ　Ｃｏｎｓｕｌｔｉｎｇ,,株式会社,東京都,品川区,東大井２丁目１７－１４－５０３,,13,109,1400011,,,,,,,2023-05-10,1,,,,,パレスコンサルティング,0
2574,9010703006680,新規,0,2023-05-10,2023-05-10,合同会社ＬＯＭＡ,,合同会社,東京都,品川区,東五反田４丁目１０番２２号パークアクシス池田山６０９,,13,109,1410022,,,,,,,2023-05-10,1,,,,,ロマ,0
2575,9010703006689,新規,0,2023-05-10,2023-05-10,大為合同会社,,合同会社,東京都,品川区,東五反田１丁目８番１１号,,13,109,1410022,,,,,,,2023-05-10,1,,,,,タイイ,0
2581,9010903008147,新規,0,2023-05-10,2023-05-10,ＬＩＢＥＲＴＡ合同会社,,合同会社,東京都,世田谷区,砧５丁目１４－３－１０２,,13,112,1570073,,,,,,,2023-05-10,1,,,,,リベルタ,0
2582,9010903008163,新規,0,2023-05-10,2023-05-10,合同会社Ｍａｉｓｏｎ　Ｐｉｎｏ,,合同会社,東京都,世田谷区,北烏山９丁目２１番１０－５２２号,,13,112,1570061,,,,,,,2023-05-10,1,,,,,メゾンピノ,0
2587,9011001154164,新規,0,2023-05-10,2023-05-10,株式会社佐久本兄弟社,,株式会社,東京都,渋谷区,渋谷３丁目６番４－６０５号,,13,113,1500002,,,,,,,2023-05-10,1,,,,,サクモトキョウダイシャ,0
2588,9011001154222,新規,0,2023-05-10,2023-05-10,いやさか株式会社,,株式会社,東京都,渋谷区,広尾２丁目１５番６号,,13,113,1500012,,,,,,,2023-05-10,1,,,,,イヤサカ,0
2589,9011001154230,新規,0,2023-05-10,2023-05-10,ＯＮＥ　ＲＥＡＬＴＹ株式会社,,株式会社,東京都,渋谷区,初台１丁目６番７号３０２,,13,113,1510061,,,,,,,2023-05-10,1,,,,,ワンリアルティ,0
2590,9011001154313,新規,0,2023-05-10,2023-05-10,株式会社Ｗａｇｒａｍ,,株式会社,東京都,渋谷区,恵比寿３丁目３９番７号ラフィネ１Ｆ,,13,113,1500013,,,,,,,2023-05-10,1,,,,,ワグラム,0
2592,9011003016783,新規,0,2023-05-10,2023-05-10,合同会社Ｓｍａｒｔ　Ｆｕｔｕｒｅ,,合同会社,東京都,目黒区,南３丁目８番１６号,,13,110,1520013,,,,,,,2023-05-10,1,,,,,スマートフューチャー,0
2596,9011101102766,新規,0,2023-05-10,2023-05-10,株式会社もりもり,,株式会社,東京都,新宿区,西新宿８丁目１４番１８号恵南ビル５,,13,104,1600023,,,,,,,2023-05-10,1,,,,,モリモリ,0
2599,9011205002549,新規,0,2023-05-10,2023-05-10,一般社団法人ｓｗｅｅｔ　ｈｅａｒｔ　ｃｏｎｎｅｃｔ,,その他の設立登記法人,東京都,中野区,東中野２丁目６番１４号,,13,114,1640003,,,,,,,2023-05-10,1,,,,,スイートハートコネクト,0
2603,9011503005591,新規,0,2023-05-10,2023-05-10,アステル合同会社,,合同会社,東京都,荒川区,東日暮里６丁目４６－１７ＴＳビル２Ｆ,,13,118,1160014,,,,,,,2023-05-10,1,,,,,アステル,0
2604,9011601026795,新規,0,2023-05-10,2023-05-10,株式会社東京コンディショニングクラブ,,株式会社,東京都,練馬区,中村北３丁目２１番８号,,13,120,1760023,,,,,,,2023-05-10,1,,,,,トウキョウコンディショニングクラブ,0
2607,9011603003917,新規,0,2023-05-10,2023-05-10,合同会社ピース,,合同会社,東京都,練馬区,桜台２丁目８番４号ＭＫヒルズ２０２,,13,120,1760002,,,,,,,2023-05-10,1,,,,,ピース,0
2609,9011703003461,新規,0,2023-05-10,2023-05-10,合同会社辺光,,合同会社,東京都,江戸川区,西篠崎２丁目５番１７号長島ビル１Ｆ,,13,123,1330055,,,,,,,2023-05-10,1,,,,,ナベコウ,0
2612,9011803005639,新規,0,2023-05-10,2023-05-10,合同会社クレイ,,合同会社,東京都,足立区,本木南町２２番８号山崎コーポ,,13,121,1230855,,,,,,,2023-05-10,1,,,,,クレイ,0
2616,9012701017643,新規,0,2023-05-10,2023-05-10,株式会社ネクスト,,株式会社,東京都,東村山市,諏訪町１丁目２８番地８テラス諏訪２０２,,13,213,1890021,,,,,,,2023-05-10,1,,,,,ネクスト,0
2622,9013303006613,新規,0,2023-05-10,2023-05-10,合同会社Ｌｉｓｈ,,合同会社,東京都,豊島区,高田３丁目６番１０－３０９号,,13,116,1710033,,,,,,,2023-05-10,1,,,,,リュシュ,0
2631,9020001151468,新規,0,2023-05-10,2023-05-10,Ｆｏｘｔｒｏｔ株式会社,,株式会社,神奈川県,横浜市戸塚区,下倉田町６１５番地８３,,14,110,2440815,,,,,,,2023-05-10,1,,,,,フォックストロット,0
2632,9020001151484,新規,0,2023-05-10,2023-05-10,株式会社一,,株式会社,神奈川県,川崎市高津区,二子１丁目２６－２５－３０１,,14,134,2130002,,,,,,,2023-05-10,1,,,,,イチ,0
2633,9020001151492,新規,0,2023-05-10,2023-05-10,波八株式会社,,株式会社,神奈川県,川崎市高津区,久本３丁目１２番８－２号,,14,134,2130011,,,,,,,2023-05-10,1,,,,,ナミハチ,0
2638,9020003023871,新規,0,2023-05-10,2023-05-10,合同会社ＹＴ企画,,合同会社,神奈川県,横浜市港北区,高田西５丁目２０番７号,,14,109,2230066,,,,,,,2023-05-10,1,,,,,ワイティーキカク,0
2651,9021001078949,新規,0,2023-05-10,2023-05-10,株式会社翔志電設,,株式会社,神奈川県,厚木市,上依知１２９７番地５上依知倉庫付事務所１‐１０２,,14,212,2430801,,,,,,,2023-05-10,1,,,,,ショウシデンセツ,0
2652,9021001078957,新規,0,2023-05-10,2023-05-10,株式会社ＩＤＥＡＬ,,株式会社,神奈川県,相模原市中央区,田名２７１７番地１１,,14,152,2520244,,,,,,,2023-05-10,1,,,,,アイデアル,0
2653,9021001078965,新規,0,2023-05-10,2023-05-10,株式会社アフマラボ,,株式会社,神奈川県,平塚市,日向岡１丁目１１番１６号,,14,203,2540905,,,,,,,2023-05-10,1,,,,,アフマラボ,0
2661,9030001153694,新規,0,2023-05-10,2023-05-10,トスカ合同企画株式会社,,株式会社,埼玉県,越谷市,蒲生東町４番４８号７０５,,11,222,3430841,,,,,,,2023-05-10,1,,,,,トスカゴウドウキカク,0
2662,9030001153711,新規,0,2023-05-10,2023-05-10,株式会社ＡＢＹ,,株式会社,埼玉県,入間市,東町６丁目１０番５号２,,11,225,3580002,,,,,,,2023-05-10,1,,,,,エイビー,0
2665,9030003021692,新規,0,2023-05-10,2023-05-10,合同会社ウリドゥル,,合同会社,埼玉県,越谷市,大字平方１３９４番地５６,,11,222,3430002,,,,,,,2023-05-10,1,,,,,ウリドゥル,0
2666,9030003021701,新規,0,2023-05-10,2023-05-10,ＭＫＲ合同会社,,合同会社,埼玉県,北本市,高尾９丁目２３２番地の３,,11,233,3640034,,,,,,,2023-05-10,1,,,,,エムケイアール,0
2669,9040001128258,新規,0,2023-05-10,2023-05-10,株式会社アンツ不動産,,株式会社,千葉県,松戸市,本町１８番地４ＮＢＦ松戸ビル８Ｆ,,12,207,2710091,,,,,,,2023-05-10,1,,,,,アンツフドウサン,0
2670,9040001128274,新規,0,2023-05-10,2023-05-10,カモンエステート株式会社,,株式会社,千葉県,君津市,北久保２丁目６番１５号,,12,225,2991164,,,,,,,2023-05-10,1,,,,,カモンエステート,0
2671,9040001128324,新規,0,2023-05-10,2023-05-10,日華株式会社,,株式会社,千葉県,松戸市,稔台１丁目１－１３ユーカリビル１Ｆ,,12,207,2702231,,,,,,,2023-05-10,1,,,,,ニカ,0
2673,9040003022525,新規,0,2023-05-10,2023-05-10,合同会社環境総合サービス,,合同会社,千葉県,長生郡睦沢町,下之郷１６２３－８,,12,422,2994414,,,,,,,2023-05-10,1,,,,,カンキョウソウゴウサービス,0
2674,9040003022533,新規,0,2023-05-10,2023-05-10,合同会社丸結防水,,合同会社,千葉県,市原市,能満１１９５番地６,,12,219,2900011,,,,,,,2023-05-10,1,,,,,マルユウボウスイ,0
2675,9040003022541,新規,0,2023-05-10,2023-05-10,合同会社ｇｅｎｉａｌ　ｗｏｒｋｓ,,合同会社,千葉県,市原市,五井５６２９―１１,,12,219,2900056,,,,,,,2023-05-10,1,,,,,ジーニアルワークス,0
2676,9040003022566,新規,0,2023-05-10,2023-05-10,合同会社ＴＡＫＩＯ,,合同会社,千葉県,松戸市,上矢切１０２３番地の３,,12,207,2710094,,,,,,,2023-05-10,1,,,,,タキオ,0
2678,9050001052787,新規,0,2023-05-10,2023-05-10,Ｒ飯田建工株式会社,,株式会社,茨城県,下妻市,下妻乙４０７番地１３,,08,210,3040067,,,,,,,2023-05-10,1,,,,,アールイイダケンコウ,0
2679,9050001052804,新規,0,2023-05-10,2023-05-10,株式会社ＨＩＤＡＲＩＵＭＡ,,株式会社,茨城県,神栖市,砂山１０１４番地４１８,,08,232,3140255,,,,,,,2023-05-10,1,,,,,ヒダリウマ,0
2682,9050003007483,新規,0,2023-05-10,2023-05-10,合同会社豊進,,合同会社,茨城県,日立市,森山町２丁目７番８号,,08,202,3160025,,,,,,,2023-05-10,1,,,,,ホウシン,0
2683,9060001035972,新規,0,2023-05-10,2023-05-10,株式会社小森研究所,,株式会社,栃木県,芳賀郡茂木町,大字坂井１２３４番地８５,,09,343,3213544,,,,,,,2023-05-10,1,,,,,コモリケンキュウジョ,0
2688,9070001040402,新規,0,2023-05-10,2023-05-10,株式会社伽耶工業,,株式会社,群馬県,前橋市,六供町１０２５番地,,10,201,3710804,,,,,,,2023-05-10,1,,,,,カヤコウギョウ,0
2689,9070003004925,新規,0,2023-05-10,2023-05-10,アズノウ合同会社,,合同会社,群馬県,太田市,東別所町３７０番地２５,,10,205,3730815,,,,,,,2023-05-10,1,,,,,アズノウ,0
2699,9090001018116,新規,0,2023-05-10,2023-05-10,株式会社１,,株式会社,山梨県,南アルプス市,寺部７６１番地１,,19,208,4000337,,,,,,,2023-05-10,1,,,,,ワン,0
2700,9090003002308,新規,0,2023-05-10,2023-05-10,アグサス合同会社,,合同会社,山梨県,南都留郡富士河口湖町,船津３４４８番地,,19,430,4010301,,,,,,,2023-05-10,1,,,,,アグサス,0
2710,9120001254566,新規,0,2023-05-10,2023-05-10,株式会社Ｃｈｅｒｒｙ,,株式会社,大阪府,大阪市東淀川区,西淡路１丁目３番２６号,,27,114,5330031,,,,,,,2023-05-10,1,,,,,チェリー,0
2711,9120001254673,新規,0,2023-05-10,2023-05-10,匠ＰＬＵＳ株式会社,,株式会社,大阪府,大阪市住之江区,中加賀屋２丁目８番２４号フラワータウンＳＫ３０２号,,27,125,5590017,,,,,,,2023-05-10,1,,,,,タクミプラス,0
2712,9120001254723,新規,0,2023-05-10,2023-05-10,株式会社ＲＥＶＯＬＵＴＩＯＮ,,株式会社,大阪府,大阪市中央区,南船場２丁目８番１１号シナプス心斎橋８０１号室,,27,128,5420081,,,,,,,2023-05-10,1,,,,,レボリューション,0
2713,9120001254731,新規,0,2023-05-10,2023-05-10,株式会社ＭＡＧ　ＰＡＲＴＮＥＲＳ,,株式会社,大阪府,大阪市北区,芝田２丁目８番１１号共栄ビル３階,,27,127,5300012,,,,,,,2023-05-10,1,,,,,マグパートナーズ,0
2722,9120101067505,新規,0,2023-05-10,2023-05-10,土師商事株式会社,,株式会社,大阪府,堺市南区,和田７１１－１４３,,27,145,5900152,,,,,,,2023-05-10,1,,,,,ハゼショウジ,0
2728,9130001074237,新規,0,2023-05-10,2023-05-10,株式会社ＦＳＫ,,株式会社,京都府,木津川市,州見台３丁目６番地２,,26,214,6190216,,,,,,,2023-05-10,1,,,,,エフエスケー,0
2733,9130003008705,新規,0,2023-05-10,2023-05-10,ＳＫＹ　ＷＡＬＫコンサルティング合同会社,,合同会社,京都府,八幡市,美濃山西ノ口１０番地の６,,26,210,6148278,,,,,,,2023-05-10,1,,,,,スカイウォークコンサルティング,0
2741,9160001025030,新規,0,2023-05-10,2023-05-10,株式会社Ｌｉｎｅ　Ｌｅａｄ,,株式会社,滋賀県,大津市,大萱４丁目１０番１号,,25,201,5202144,,,,,,,2023-05-10,1,,,,,ラインリード,0
2742,9160005011191,新規,0,2023-05-10,2023-05-10,一般社団法人淡海建設連合会,,その他の設立登記法人,滋賀県,近江八幡市,日吉野町７４３番地２７,,25,204,5230033,,,,,,,2023-05-10,1,,,,,オワミケンセツレンゴウカイ,0
2746,9180001156138,新規,0,2023-05-10,2023-05-10,株式会社コメダ設備,,株式会社,愛知県,江南市,赤童子町福住８６番地２,,23,217,4838165,,,,,,,2023-05-10,1,,,,,コメダセツビ,0
2747,9180001156179,新規,0,2023-05-10,2023-05-10,ＪＡＫＡ　Ｒｏｂｏｔｉｃｓ　Ｊａｐａｎ株式会社,,株式会社,愛知県,名古屋市東区,葵１丁目６番１４号１階,,23,102,4610004,,,,,,,2023-05-10,1,,,,,ジャカロボティクスジャパン,0
2748,9180001156187,新規,0,2023-05-10,2023-05-10,株式会社ＰＡＬＩＯ,,株式会社,愛知県,名古屋市中川区,露橋１丁目１８番３号,,23,110,4540022,,,,,,,2023-05-10,1,,,,,パリオ,0
2749,9180001156212,新規,0,2023-05-10,2023-05-10,株式会社Ａｎｓｙｎｃ,,株式会社,愛知県,名古屋市南区,元塩町１丁目３６番地の３ホワイトキャッスル南ケ丘Ｂ棟５０６号,,23,112,4570823,,,,,,,2023-05-10,1,,,,,アンシンク,0
2750,9180001156229,新規,0,2023-05-10,2023-05-10,株式会社フィロソフィア,,株式会社,愛知県,名古屋市中区,丸の内２丁目９番２４号,,23,106,4600002,,,,,,,2023-05-10,1,,,,,フィロソフィア,0
2754,9180003025126,新規,0,2023-05-10,2023-05-10,合同会社Ｒ＆Ａコンサルティング,,合同会社,愛知県,一宮市,本町４丁目７番１号,,23,203,4910859,,,,,,,2023-05-10,1,,,,,アールアンドエーコンサルティング,0
2758,9190001030382,新規,0,2023-05-10,2023-05-10,株式会社ジェイテック,,株式会社,三重県,松阪市,久保町１０４９番地４ピュアクラブハウス３Ｆ－Ｇ,,24,204,5150044,,,,,,,2023-05-10,1,,,,,ジェイテック,0
2762,9200001041287,新規,0,2023-05-10,2023-05-10,株式会社ａｒｕ,,株式会社,岐阜県,岐阜市,蔵前５丁目１１－２,,21,201,5008233,,,,,,,2023-05-10,1,,,,,アル,0
2766,9210003001643,新規,0,2023-05-10,2023-05-10,ＨＲ　Ｍｏｔｏｒｓ合同会社,,合同会社,福井県,越前市,新保１丁目６－６,,18,209,9150804,,,,,,,2023-05-10,1,,,,,エイチアールモーターズ,0
2771,9240001061488,新規,0,2023-05-10,2023-05-10,株式会社アドバンス青果,,株式会社,広島県,広島市安芸区,矢野西３丁目５０番２－４号,,34,107,7360085,,,,,,,2023-05-10,1,,,,,アドバンスセイカ,0
2786,9280003001728,新規,0,2023-05-10,2023-05-10,合同会社すくらむ,,合同会社,島根県,益田市,高津４丁目１２番３６号,,32,204,6980041,,,,,,,2023-05-10,1,,,,,スクラム,0
2789,9290001101413,新規,0,2023-05-10,2023-05-10,天壮園株式会社,,株式会社,福岡県,福岡市南区,中尾２丁目３３番２３号,,40,134,8111364,,,,,,,2023-05-10,1,,,,,テンソウエン,0
2790,9290001101438,新規,0,2023-05-10,2023-05-10,Ｋ‐ＳＡＭ株式会社,,株式会社,福岡県,筑後市,大字蔵数３１８番地５,,40,211,8330054,,,,,,,2023-05-10,1,,,,,ケイサム,0
2791,9290001101446,新規,0,2023-05-10,2023-05-10,株式会社ちゅうよう,,株式会社,福岡県,糟屋郡須惠町,大字植木１１８６番地１,,40,344,8112112,,,,,,,2023-05-10,1,,,,,チュウヨウ,0
2792,9290001101462,新規,0,2023-05-10,2023-05-10,株式会社ＡＥＧＩＳ,,株式会社,福岡県,福岡市西区,生の松原２丁目１４番３０号,,40,135,8190055,,,,,,,2023-05-10,1,,,,,イージス,0
2793,9290001101479,新規,0,2023-05-10,2023-05-10,株式会社ＳＴＫ,,株式会社,福岡県,飯塚市,中４０８番地１,,40,205,8200065,,,,,,,2023-05-10,1,,,,,エスティケイ,0
2798,9290003013887,新規,0,2023-05-10,2023-05-10,合同会社ベル・パルコ,,合同会社,福岡県,宗像市,赤間駅前２丁目８番２号,,40,220,8114185,,,,,,,2023-05-10,1,,,,,ベルパルコ,0
2802,9330003009831,新規,0,2023-05-10,2023-05-10,やまとＧｏ　Ｃｏｎｓｕｌｔｉｎｇ合同会社,,合同会社,熊本県,熊本市中央区,出水６丁目３５番６号,,43,101,8620941,,,,,,,2023-05-10,1,,,,,ヤマトゴーコンサルティング,0
2804,9350001018345,新規,0,2023-05-10,2023-05-10,株式会社おにまるｃｈ,,株式会社,宮崎県,宮崎市,橘通西３丁目１０番３２号,,45,201,8800001,,,,,,,2023-05-10,1,,,,,オニマルチャンネル,0
2808,9350005006156,新規,0,2023-05-10,2023-05-10,医療法人エール,,その他の設立登記法人,宮崎県,宮崎市,広島１丁目１８番４臼杵ビル２Ｆ,,45,201,8800806,,,,,,,2023-05-10,1,,,,,エール,0
2813,9360001031974,新規,0,2023-05-10,2023-05-10,株式会社ディアーズ・ブレイン沖縄,,株式会社,沖縄県,那覇市,泉崎１丁目２０番１号,,47,201,9000021,,,,,,,2023-05-10,1,,,,,ディアーズブレインオキナワ,0
2814,9360001031990,新規,0,2023-05-10,2023-05-10,株式会社ＲｉｔｏＲｕ,,株式会社,沖縄県,うるま市,字江洲２１５６番地６,,47,213,9042244,,,,,,,2023-05-10,1,,,,,リトル,0
2817,9370001049933,新規,0,2023-05-10,2023-05-10,ＦＯＵＲ　ＡＣＥ株式会社,,株式会社,宮城県,仙台市青葉区,下愛子字二本松２４番地の４－１階,,04,101,9893125,,,,,,,2023-05-10,1,,,,,フォーエース,0
2818,9380001033663,新規,0,2023-05-10,2023-05-10,株式会社Ｍ’ｓ　ｃｒａｆｔ,,株式会社,福島県,石川郡石川町,大字谷沢字戸賀１８番地,,07,501,9637806,,,,,,,2023-05-10,1,,,,,エムズクラフト,0
2823,9400003003075,新規,0,2023-05-10,2023-05-10,合同会社ヤマミチ企画室,,合同会社,岩手県,盛岡市,乙部１４地割７６番地３,,03,201,0200403,,,,,,,2023-05-10,1,,,,,ヤマミチキカクシツ,0
2830,9460001005794,新規,0,2023-05-10,2023-05-10,株式会社北海道ワイルズ,,株式会社,北海道,釧路市,末広町１１丁目１番地１０クローバービル２Ｆ,,01,206,0850014,,,,,,,2023-05-10,1,,,,,ホッカイドウワイルズ,0
2835,9470003002392,新規,0,2023-05-10,2023-05-10,合同会社バンダル,,合同会社,香川県,坂出市,江尻町７２８－３,,37,203,7620011,,,,,,,2023-05-10,1,,,,,バンダル,0
2837,9500003003032,新規,0,2023-05-10,2023-05-10,合同会社西崎工業,00130410,合同会社,愛媛県,西条市,飯岡３８０２番地１ブルーマーリンＤ２０２号,,38,206,7930010,,,,,,,2023-05-10,1,,,,,ニシザキコウギョウ,0
