sequenceNumber,corporateNumber,process,correct,updateDate,changeDate,name,nameImageId,kind,prefectureName,cityName,streetNumber,addressImageId,prefectureCode,cityCode,postCode,addressOutside,addressOutsideImageId,closeDate,closeCause,successorCorporateNumber,changeCause,assignmentDate,latest,enName,enPrefectureName,enCityName,enAddressOutside,furigana,hihyoji
6,1010001259088,新規,0,2025-10-24,2025-10-24,株式会社ダイユンジャパン,,株式会社,東京都,中央区,日本橋堀留町１丁目１０番１９号第３川端ビル２Ｆ,,13,102,1030012,,,,,,,2025-10-24,1,,,,,ダイユンジャパン,0
7,1010001259609,新規,0,2025-10-24,2025-10-24,エフエルシーＮｏ．９リーシング株式会社,,株式会社,東京都,千代田区,麹町５丁目１番地１,,13,101,1020083,,,,,,,2025-10-24,1,,,,,エフエルシーナンバーナインリーシング,0
8,1010001259625,新規,0,2025-10-24,2025-10-24,惟瓦地赤成国際株式会社,,株式会社,東京都,中央区,京橋２丁目２番１号京橋エドグラン２６階,,13,102,1040031,,,,,,,2025-10-24,1,,,,,イガチセキセイコクサイ,0
9,1010001259674,新規,0,2025-10-24,2025-10-24,Ｎインベストメント株式会社,,株式会社,東京都,文京区,千石２丁目１１番９－２３９号,,13,105,1120011,,,,,,,2025-10-24,1,,,,,エヌインベストメント,0
10,1010001259699,新規,0,2025-10-24,2025-10-24,株式会社ＴＭ,,株式会社,東京都,文京区,小日向２丁目３０番７号ひかりコーポ小日向１０６,,13,105,1120006,,,,,,,2025-10-24,1,,,,,ティーエム,0
13,1010003049124,新規,0,2025-10-24,2025-10-24,合同会社Ｓ１,,合同会社,東京都,千代田区,紀尾井町４番１号ニューオータニガーデンコート１２階,,13,101,1020094,,,,,,,2025-10-24,1,,,,,エスワン,0
21,1010403036259,新規,0,2025-10-24,2025-10-24,ネコラボ合同会社,,合同会社,東京都,港区,西麻布４丁目６－２－５０２,,13,103,1060031,,,,,,,2025-10-24,1,,,,,ネコラボ,0
22,1010403036374,新規,0,2025-10-24,2025-10-24,ＡＩｗｏｒｋｓ合同会社,,合同会社,東京都,港区,北青山１丁目３番１号アールキューブ青山３階,,13,103,1070061,,,,,,,2025-10-24,1,,,,,エイアイワークス,0
23,1010403036424,新規,0,2025-10-24,2025-10-24,合同会社オフィスヨシノ,,合同会社,東京都,港区,浜松町２丁目２番１５号浜松町ダイヤビル２Ｆ,,13,103,1050013,,,,,,,2025-10-24,1,,,,,オフィスヨシノ,0
31,1010801036711,新規,0,2025-10-24,2025-10-24,株式会社ＶＯＴｓ,,株式会社,東京都,大田区,大森西２丁目７番２１号,,13,111,1430015,,,,,,,2025-10-24,1,,,,,ボッツ,0
32,1010805003212,新規,0,2025-10-24,2025-10-24,土地家屋調査士法人森事務所南,,その他の設立登記法人,東京都,大田区,鵜の木２丁目２８番１４号,,13,111,1460091,,,,,,,2025-10-24,1,,,,,モリジムショミナミ,0
34,1010901058333,新規,0,2025-10-24,2025-10-24,田中脩椰映像事務所株式会社,,株式会社,東京都,世田谷区,三軒茶屋１丁目３９番１３号,,13,112,1540024,,,,,,,2025-10-24,1,,,,,タナカシュウヤシエイゾウジムショ,0
52,1011001172982,新規,0,2025-10-24,2025-10-24,株式会社ＹＵＺＵＲＩＨＡ　ＰＬＵＳ,,株式会社,東京都,渋谷区,宇田川町１３番１１号ＫＮ渋谷１ビル９階,,13,113,1500042,,,,,,,2025-10-24,1,,,,,ユズリハプラス,0
53,1011001172990,新規,0,2025-10-24,2025-10-24,株式会社Ｓｔｅｐ　ｕｐ,,株式会社,東京都,渋谷区,宇田川町３番７号ヒューリック渋谷公園通りビル５Ｆ－１２７,,13,113,1500042,,,,,,,2025-10-24,1,,,,,ステップアップ,0
54,1011001173015,新規,0,2025-10-24,2025-10-24,株式会社ｓｔｏｒｍ,,株式会社,東京都,目黒区,中目黒１丁目７－１１－３０３,,13,110,1530061,,,,,,,2025-10-24,1,,,,,ストーム,0
55,1011001173023,新規,0,2025-10-24,2025-10-24,日本国瑞天株式会社,,株式会社,東京都,渋谷区,富ヶ谷１丁目１４番１４号４階,,13,113,1510063,,,,,,,2025-10-24,1,,,,,ニホンコクズイテン,0
56,1011001173345,新規,0,2025-10-24,2025-10-24,株式会社マックス・インターナショナル,,株式会社,東京都,渋谷区,神南１丁目１２番１４号渋谷宮田ビル６階,,13,113,1500041,,,,,,,2025-10-24,1,,,,,マックスインターナショナル,0
58,1011003022723,新規,0,2025-10-24,2025-10-24,合同会社ＴＯＯＮＩＱ,,合同会社,東京都,渋谷区,広尾１丁目２番地１号ヒカリビル４階,,13,113,1500012,,,,,,,2025-10-24,1,,,,,,0
64,1011103016559,新規,0,2025-10-24,2025-10-24,Ｐｏｎｄｅｒｉｎｇ合同会社,,合同会社,東京都,新宿区,西新宿３丁目３番１３号西新宿水間ビル６階,,13,104,1600023,,,,,,,2025-10-24,1,,,,,ポンダリング,0
69,1011501032736,新規,0,2025-10-24,2025-10-24,株式会社フォーカス,,株式会社,東京都,荒川区,西日暮里２丁目４５－１２石井ビル１階,,13,118,1160013,,,,,,,2025-10-24,1,,,,,フォーカス,0
70,1011601029120,新規,0,2025-10-24,2025-10-24,ＳＴスターグループ株式会社,,株式会社,東京都,練馬区,春日町６丁目８番２８号,,13,120,1790074,,,,,,,2025-10-24,1,,,,,エスティースターグループ,0
83,1020001165285,新規,0,2025-10-24,2025-10-24,株式会社一慎,,株式会社,神奈川県,横浜市港北区,箕輪町２丁目７－３６－１７１４,,14,109,2230051,,,,,,,2025-10-24,1,,,,,イッシン,0
84,1020001165392,新規,0,2025-10-24,2025-10-24,株式会社東海リネン,,株式会社,神奈川県,横浜市都筑区,早渕３丁目２１番２５号,,14,118,2240025,,,,,,,2025-10-24,1,,,,,トウカイリネン,0
85,1020001165467,新規,0,2025-10-24,2025-10-24,ＳＥＡＷＯＯＤＨＯＭＥＳ株式会社,,株式会社,神奈川県,横浜市金沢区,六浦南１丁目３６番１１号,,14,108,2360038,,,,,,,2025-10-24,1,,,,,シーウッドホームズ,0
86,1020001165483,新規,0,2025-10-24,2025-10-24,株式会社ＨＡＮＡＢＵＳＡ,,株式会社,神奈川県,横浜市神奈川区,菅田町２５５５番地１,,14,102,2210864,,,,,,,2025-10-24,1,,,,,ハナブサ,0
88,1020003029587,新規,0,2025-10-24,2025-10-24,合同会社ティーケー企画販売,,合同会社,神奈川県,横浜市神奈川区,金港町５－１４クアドリフォリオ８階,,14,102,2210056,,,,,,,2025-10-24,1,,,,,ティーケーキカクハンバイ,0
89,1020003029629,新規,0,2025-10-24,2025-10-24,ファーストデント合同会社,,合同会社,神奈川県,横浜市港北区,日吉本町１丁目６番２７号,,14,109,2230062,,,,,,,2025-10-24,1,,,,,ファーストデント,0
90,1020003029637,新規,0,2025-10-24,2025-10-24,相家房合同会社,,合同会社,神奈川県,横浜市青葉区,もえぎ野１２番地４,,14,117,2270044,,,,,,,2025-10-24,1,,,,,アイカボウ,0
91,1020003029661,新規,0,2025-10-24,2025-10-24,信栄リース合同会社,,合同会社,神奈川県,横浜市西区,北幸２丁目１０番４８号むつみビル３階,,14,103,2200004,,,,,,,2025-10-24,1,,,,,シンエイリース,0
93,1021001086645,新規,0,2025-10-24,2025-10-24,株式会社エスティーエムズ,,株式会社,神奈川県,厚木市,旭町１丁目２７番１号,,14,212,2430014,,,,,,,2025-10-24,1,,,,,エスティーエムズ,0
94,1021001086653,新規,0,2025-10-24,2025-10-24,株式会社グランプレヴェイル,,株式会社,神奈川県,藤沢市,片瀬２丁目１６番１５号,,14,205,2510032,,,,,,,2025-10-24,1,,,,,グランプレヴェイル,0
95,1021001086661,新規,0,2025-10-24,2025-10-24,株式会社ひととき,,株式会社,神奈川県,南足柄市,岩原８７４番地１,,14,217,2500113,,,,,,,2025-10-24,1,,,,,ヒトトキ,0
103,1030003027945,新規,0,2025-10-24,2025-10-24,合同会社ｆａｃｉｌｉｔｙ,,合同会社,埼玉県,朝霞市,溝沼３丁目３番１５号ストークマンションＩＩ３０１,00141258,11,227,3510023,,,,,,,2025-10-24,1,,,,,ファシリティ,0
108,1040001141020,新規,0,2025-10-24,2025-10-24,株式会社テクノズ,,株式会社,千葉県,千葉市中央区,村田町１３６－１０,,12,101,2600825,,,,,,,2025-10-24,1,,,,,テクノズ,0
109,1040001141103,新規,0,2025-10-24,2025-10-24,株式会社慶福商事,,株式会社,千葉県,銚子市,松本町３丁目９７１番地の２８,,12,202,2880802,,,,,,,2025-10-24,1,,,,,ケイフクショウジ,0
110,1040001141111,新規,0,2025-10-24,2025-10-24,株式会社センテンス,,株式会社,千葉県,流山市,南流山２丁目２３番９号ＰＲＥＮＤＲＥ南流山４Ｆ,,12,220,2700163,,,,,,,2025-10-24,1,,,,,センテンス,0
111,1040003028802,新規,0,2025-10-24,2025-10-24,合同会社清水工業,,合同会社,千葉県,袖ケ浦市,蔵波２９６０－７７,,12,229,2990243,,,,,,,2025-10-24,1,,,,,シミズコウギョウ,0
112,1040003028851,新規,0,2025-10-24,2025-10-24,合同会社旭陽,,合同会社,千葉県,鎌ケ谷市,中央２丁目１４番１３－１号,,12,224,2730124,,,,,,,2025-10-24,1,,,,,アサヒ,0
117,1050001057488,新規,0,2025-10-24,2025-10-24,株式会社ＳＡＢＯＴ,,株式会社,茨城県,日立市,小木津町８１３番地,,08,202,3191413,,,,,,,2025-10-24,1,,,,,サボ,0
119,1050003009693,新規,0,2025-10-24,2025-10-24,合同会社Ｇｒａｎｄ　Ｊｅｔｅ　ＡＲＣＨ,,合同会社,茨城県,石岡市,三村３０９３番地３,,08,205,3150048,,,,,,,2025-10-24,1,,,,,グランジュテアーチ,0
120,1050003009710,新規,0,2025-10-24,2025-10-24,Ｔｒｉｐｌｅ　Ａ合同会社,,合同会社,茨城県,常総市,坂手町３７６７番地４,,08,211,3030042,,,,,,,2025-10-24,1,,,,,トリプルエー,0
121,1050003009719,新規,0,2025-10-24,2025-10-24,合同会社ＷＩＳＥ　ＢＡＳＥ,,合同会社,茨城県,つくば市,大角豆１４６７番地,,08,220,3050043,,,,,,,2025-10-24,1,,,,,ワイズベース,0
124,1060001038702,新規,0,2025-10-24,2025-10-24,株式会社ＭＤＫ総研,,株式会社,栃木県,宇都宮市,今泉２丁目１１番１号十五ビル２階,,09,201,3210966,,,,,,,2025-10-24,1,,,,,エムディーケーソウケン,0
134,1080001027232,新規,0,2025-10-24,2025-10-24,株式会社２００,,株式会社,静岡県,静岡市葵区,沓谷６丁目２４番地の１７,,22,101,4200816,,,,,,,2025-10-24,1,,,,,ニヒャク,0
136,1080003003586,新規,0,2025-10-24,2025-10-24,合同会社ＳＵＧＡＣＨＩＮ,,合同会社,静岡県,静岡市葵区,七間町１４番地の１－７０４,,22,101,4200035,,,,,,,2025-10-24,1,,,,,スガチン,0
138,1100001039076,新規,0,2025-10-24,2025-10-24,株式会社ＲｉｎｎｅＷｏｒｋｓ,,株式会社,長野県,佐久市,中込２３３６番地１ワークテラス佐久内,,20,217,3850051,,,,,,,2025-10-24,1,,,,,リンネワークス,0
156,1120001281337,新規,0,2025-10-24,2025-10-24,株式会社ＫＡＮＳＡＩ,,株式会社,大阪府,大阪市北区,中津１丁目２番２１号中津明大ビル,,27,127,5310071,,,,,,,2025-10-24,1,,,,,カンサイ,0
157,1120001281386,新規,0,2025-10-24,2025-10-24,株式会社浅田商会,,株式会社,大阪府,寝屋川市,上神田２丁目９番７号,,27,215,5720052,,,,,,,2025-10-24,1,,,,,アサダショウカイ,0
158,1120001281403,新規,0,2025-10-24,2025-10-24,株式会社ＫＩＮＡＫＯ,,株式会社,大阪府,大阪市淀川区,加島２丁目６番３号Ｈ＆Ａ１０１,,27,123,5320031,,,,,,,2025-10-24,1,,,,,キナコ,0
162,1120901051657,新規,0,2025-10-24,2025-10-24,株式会社８８,,株式会社,大阪府,茨木市,山手台３丁目１１番１７号,,27,211,5670009,,,,,,,2025-10-24,1,,,,,ハチハチ,0
174,1140001140490,新規,0,2025-10-24,2025-10-24,株式会社Ｋａｍｅｔｏ,,株式会社,兵庫県,川西市,けやき坂２丁目５２番地の７,,28,217,6660145,,,,,,,2025-10-24,1,,,,,カメト,0
175,1140001140499,新規,0,2025-10-24,2025-10-24,ＨＡＹＴＹ株式会社,,株式会社,兵庫県,西宮市,大畑町４番２８－４号,,28,204,6620836,,,,,,,2025-10-24,1,,,,,ハイティー,0
176,1140001140532,新規,0,2025-10-24,2025-10-24,株式会社牛のよだれ,,株式会社,兵庫県,神戸市西区,井吹台西町２番２号ルゼフィール井吹台５０８,,28,111,6500000,,,,,,,2025-10-24,1,,,,,ウシノヨダレ,0
178,1140003022778,新規,0,2025-10-24,2025-10-24,合同会社Ｖｉｔａ　Ｃｒｅａｔｅ,,合同会社,兵庫県,尼崎市,西昆陽１丁目９番５－６０３号,,28,202,6610047,,,,,,,2025-10-24,1,,,,,ビタクリエイト,0
181,1150005009731,新規,0,2025-10-24,2025-10-24,一般社団法人ＫＩＺＵＮＡ,,その他の設立登記法人,奈良県,北葛城郡王寺町,久度４丁目９番１号,,29,425,6360003,,,,,,,2025-10-24,1,,,,,キズナ,0
183,1160005011447,新規,0,2025-10-24,2025-10-24,一般社団法人ハナココ町会議,,その他の設立登記法人,滋賀県,甲賀市,水口町城内３番地１号,,25,209,5280027,,,,,,,2025-10-24,1,,,,,ハナココマチカイギ,0
190,1180001169246,新規,0,2025-10-24,2025-10-24,株式会社アリックス,,株式会社,愛知県,稲沢市,六角堂西町２丁目７－２１,,23,220,4928171,,,,,,,2025-10-24,1,,,,,アリックス,0
202,1260003005390,新規,0,2025-10-24,2025-10-24,合同会社ＡＬＥＸ第三蓄電所,,合同会社,岡山県,倉敷市,広江２丁目１３番４３号,,33,202,7128043,,,,,,,2025-10-24,1,,,,,アレックスダイサンチクデンショ,0
211,1300003002367,新規,0,2025-10-24,2025-10-24,光合同会社,,合同会社,佐賀県,嬉野市,嬉野町大字下宿甲３５６６番地,,41,209,8430301,,,,,,,2025-10-24,1,,,,,ヒカリ,0
212,1320003004808,新規,0,2025-10-24,2025-10-24,合同会社ＡＱＵＡ玖珠,,合同会社,大分県,由布市,挾間町高崎２５８番地２,,44,213,8795513,,,,,,,2025-10-24,1,,,,,アクアウス,0
213,1330001033691,新規,0,2025-10-24,2025-10-24,株式会社アクアプロモ,,株式会社,熊本県,熊本市中央区,水前寺５丁目１番,,43,101,8620950,,,,,,,2025-10-24,1,,,,,アクアプロモ,0
216,1330003011274,新規,0,2025-10-24,2025-10-24,合同会社Ｆｏｒｅｓｔ　Ｓｐｒｉｎｇ　Ｃａｍｐａｎｅｌｌａ,,合同会社,熊本県,八代市,西片町２１８７番地２,,43,202,8660811,,,,,,,2025-10-24,1,,,,,フォレストスプリングカンパネラ,0
221,1360003015339,新規,0,2025-10-24,2025-10-24,合同会社伊里エージェンシー,,合同会社,沖縄県,沖縄市,大里１丁目２５番３９号,,47,211,9042163,,,,,,,2025-10-24,1,,,,,イリエージェンシー,0
230,1410001014304,新規,0,2025-10-24,2025-10-24,株式会社ｔｏｐｐａ７１,,株式会社,秋田県,仙北市,田沢湖神代字野中清水５４９番地６,,05,215,0141114,,,,,,,2025-10-24,1,,,,,トッパナナイチ,0
232,1430001095490,新規,0,2025-10-24,2025-10-24,株式会社ＮＡＺＯ,,株式会社,北海道,札幌市中央区,北一条西９丁目３番１号南大通ビルＮ１－３階,,01,101,0600001,,,,,,,2025-10-24,1,,,,,ナゾ,0
240,1470001020949,新規,0,2025-10-24,2025-10-24,株式会社ねこの手労務サポート,,株式会社,香川県,丸亀市,塩飽町１１番地１ＳＡＴＹＡ．ＢＬＤ２Ｆ西,,37,202,7630024,,,,,,,2025-10-24,1,,,,,ネコノテロウムサポート,0
242,1480001012994,新規,0,2025-10-24,2025-10-24,株式会社ともに,,株式会社,徳島県,美馬市,脇町大字猪尻字庄１９番地２,,36,207,7793603,,,,,,,2025-10-24,1,,,,,トモニ,0
243,1700150132653,新規,0,2025-10-24,2025-10-24,Ａｃｃｅｓｓｏｒｙ　Ｈｏｕｓｅ　Ｇｌｏｂａｌ　Ｌｉｍｉｔｅｄ,,外国会社等,,,,,,,,１３　Ｐｒｉｍｒｏｓｅ　Ｇｌｅｎ，Ｈｏｒｎｃｈｕｒｃｈ，Ｌｏｎｄｏｎ，Ｕｎｉｔｅｄ　Ｋｉｎｇｄｏｍ，ＲＭ１１２ＮＬ,,,,,,2025-10-24,1,,,,,アーシーシーイーエスエスオーアーワイーエーチオーユーエスイージーエルオービーアーエルエルアイエムアイティーイーディー,0
256,2010001258980,新規,0,2025-10-24,2025-10-24,株式会社英放ジャパン,,株式会社,東京都,千代田区,神田須田町１丁目７番８号,,13,101,1010041,,,,,,,2025-10-24,1,,,,,エイホウジャパン,0
257,2010001259558,新規,0,2025-10-24,2025-10-24,Ｍｅｄ＆Ａ　Ｐａｒｔｎｅｒｓ株式会社,,株式会社,東京都,中央区,日本橋室町３丁目２番１号,,13,102,1030022,,,,,,,2025-10-24,1,,,,,メドアンドエーパートナーズ,0
258,2010001259566,新規,0,2025-10-24,2025-10-24,株式会社ＮＥＸＴ　ＳＴＡＮＤＡＲＤＳ,,株式会社,東京都,中央区,銀座１丁目１２－４Ｎ＆ＥＢＬＤ．６Ｆ,,13,102,1040061,,,,,,,2025-10-24,1,,,,,ネクストスタンダーズ,0
259,2010001259608,新規,0,2025-10-24,2025-10-24,エフエルシーＮｏ．８リーシング株式会社,,株式会社,東京都,千代田区,麹町５丁目１番地１,,13,101,1020083,,,,,,,2025-10-24,1,,,,,エフエルシーナンバーエイトリーシング,0
260,2010001259624,新規,0,2025-10-24,2025-10-24,株式会社ＬＯＧＩＣホールディングス,,株式会社,東京都,千代田区,神田須田町１丁目１６番地ＲＡＸＡ神田須田町４階,,13,101,1010041,,,,,,,2025-10-24,1,,,,,ロジックホールディングス,0
261,2010001259657,新規,0,2025-10-24,2025-10-24,株式会社ガバナンス・アドバイザリー,,株式会社,東京都,千代田区,丸の内３丁目２－２丸の内二重橋ビル２階,,13,101,1000005,,,,,,,2025-10-24,1,,,,,ガバナンスアドバイザリー,0
262,2010001259665,新規,0,2025-10-24,2025-10-24,株式会社Ｗウェルビーイング,,株式会社,東京都,文京区,小石川２丁目１８番２３－７０１号,,13,105,1120002,,,,,,,2025-10-24,1,,,,,ダブリューウェルビーイング,0
263,2010003049148,新規,0,2025-10-24,2025-10-24,日光Ｐｌｕｓ２５ホールディング合同会社,,合同会社,東京都,千代田区,丸の内１丁目４番１号東京共同会計事務所内,,13,101,1000005,,,,,,,2025-10-24,1,,,,,ニッコウプラストゥエンティファイブホールディング,0
276,2010405024814,新規,0,2025-10-24,2025-10-24,蓄電所事業推進ＢＥ１一般社団法人,,その他の設立登記法人,東京都,港区,虎ノ門３丁目２２番１０－２０１号,,13,103,1050001,,,,,,,2025-10-24,1,,,,,チクデンショジギョウスイシンビーイーワン,0
277,2010405024921,新規,0,2025-10-24,2025-10-24,地主・ＫＪＲＭ一般社団法人,,その他の設立登記法人,東京都,港区,虎ノ門５丁目１番４号,,13,103,1050001,,,,,,,2025-10-24,1,,,,,ジヌシケイジェイアールエム,0
279,2010501054921,新規,0,2025-10-24,2025-10-24,ＥＰ　ＥＱＵＩＰＭＥＮＴ　ＪＡＰＡＮ株式会社,,株式会社,東京都,台東区,台東１丁目２４番９号ブライト秋葉原Ｂ１Ｆ,,13,106,1100016,,,,,,,2025-10-24,1,,,,,イーピーエクイップメントジャパン,0
284,2010701048426,新規,0,2025-10-24,2025-10-24,Ｋｅｙｔｏｓｕ株式会社,,株式会社,東京都,品川区,北品川２丁目１２－８,,13,109,1400001,,,,,,,2025-10-24,1,,,,,キートス,0
286,2010703007974,新規,0,2025-10-24,2025-10-24,ｔｅ１０ｔｅＪａｐｏｎ合同会社,,合同会社,東京都,品川区,西五反田２丁目９－７ドルミ五反田アンメゾン２０１号室,,13,109,1410031,,,,,,,2025-10-24,1,,,,,テトテジャポン,0
290,2011001173014,新規,0,2025-10-24,2025-10-24,株式会社スズ,,株式会社,東京都,渋谷区,道玄坂１丁目１０番８号渋谷道玄坂東急ビル２Ｆ－Ｃ,,13,113,1500043,,,,,,,2025-10-24,1,,,,,スズ,0
291,2011003022714,新規,0,2025-10-24,2025-10-24,合同会社ちゃんちき,,合同会社,東京都,目黒区,祐天寺２丁目３番１４号２Ｆ,,13,110,1530052,,,,,,,2025-10-24,1,,,,,チャンチキ,0
292,2011003022722,新規,0,2025-10-24,2025-10-24,合同会社ＳＴＡＹ　ＧＯＬＤ,,合同会社,東京都,渋谷区,恵比寿西２丁目４番８号ウィンド恵比寿ビル８階,,13,113,1500021,,,,,,,2025-10-24,1,,,,,ステイゴールド,0
293,2011005011252,新規,0,2025-10-24,2025-10-24,一般社団法人ＧＴＣｓ,,その他の設立登記法人,東京都,渋谷区,千駄ヶ谷３丁目１１番８号,,13,113,1510051,,,,,,,2025-10-24,1,,,,,ジーティーシーズ,0
300,2011103016566,新規,0,2025-10-24,2025-10-24,Ｔｅａｍ　Ｌｉｎｋ合同会社,,合同会社,東京都,新宿区,西新宿３丁目５－１２トーカン新宿第２キャステール２０９号室,,13,104,1600023,,,,,,,2025-10-24,1,,,,,チームリンク,0
301,2011203004867,新規,0,2025-10-24,2025-10-24,合同会社ＥＹＬ,,合同会社,東京都,中野区,上高田１丁目３９番１号,,13,114,1640002,,,,,,,2025-10-24,1,,,,,イーワイエル,0
302,2011205002712,新規,0,2025-10-24,2025-10-24,オフィスＫＡＮ行政書士法人,,その他の設立登記法人,東京都,中野区,中野３丁目２３番４６号エルシオン１０３,,13,114,1640001,,,,,,,2025-10-24,1,,,,,オフィスカン,0
306,2011403004915,新規,0,2025-10-24,2025-10-24,ＦＹＯ合同会社,,合同会社,東京都,板橋区,中板橋２７―１３,,13,119,1730016,,,,,,,2025-10-24,1,,,,,エフワイオー,0
307,2011503006753,新規,0,2025-10-24,2025-10-24,合同会社ＷＡＬＫＪＡＰＡＮ,,合同会社,東京都,北区,赤羽西３丁目１８－２０ハミハウス２－４号,,13,117,1150055,,,,,,,2025-10-24,1,,,,,ウォークジャパン,0
327,2020001165301,新規,0,2025-10-24,2025-10-24,株式会社ＴＯＭＶＯ,,株式会社,神奈川県,横浜市港北区,篠原町３０１４,,14,109,2220026,,,,,,,2025-10-24,1,,,,,トンボ,0
328,2020001165499,新規,0,2025-10-24,2025-10-24,株式会社琉神電気,,株式会社,神奈川県,横浜市旭区,上白根町９０３番地１３９,,14,112,2410001,,,,,,,2025-10-24,1,,,,,リュウシンデンキ,0
329,2020001165516,新規,0,2025-10-24,2025-10-24,株式会社リングブル,,株式会社,神奈川県,横浜市保土ケ谷区,宮田町２丁目１８１番地７第１丸秋ビル１Ｆ,,14,106,2400002,,,,,,,2025-10-24,1,,,,,リングブル,0
333,2020003029660,新規,0,2025-10-24,2025-10-24,合同会社セブンアーツ,,合同会社,神奈川県,横浜市中区,福富町仲通３４－５ＭＴオラクルビル２階,,14,104,2310043,,,,,,,2025-10-24,1,,,,,セブンアーツ,0
334,2020003029669,新規,0,2025-10-24,2025-10-24,合同会社エクセレント,,合同会社,神奈川県,横浜市西区,浅間町１丁目４番３号ウィザードビル４０２,,14,103,2200072,,,,,,,2025-10-24,1,,,,,エクセレント,0
335,2020003029693,新規,0,2025-10-24,2025-10-24,ｉＹａｍａ合同会社,,合同会社,神奈川県,川崎市宮前区,土橋６丁目９―２５フローラ宮前平Ｂ２０２,,14,136,2160005,,,,,,,2025-10-24,1,,,,,アイヤマ,0
338,2021001086644,新規,0,2025-10-24,2025-10-24,株式会社Ｔ‐ｒｏｏｍ,,株式会社,神奈川県,横須賀市,佐島３丁目９番２０号,,14,201,2400103,,,,,,,2025-10-24,1,,,,,ティールーム,0
339,2021001086660,新規,0,2025-10-24,2025-10-24,株式会社ＱＬｉＭ,,株式会社,神奈川県,伊勢原市,伊勢原３丁目３２－３３ガーデニアヒルズＩ４０５,00141247,14,214,2591131,,,,,,,2025-10-24,1,,,,,クリム,0
348,2030001169367,新規,0,2025-10-24,2025-10-24,株式会社Ｙ’ｓ　Ｄｅｌｉｇｈｔ,,株式会社,埼玉県,北葛飾郡杉戸町,高野台南２丁目１３番地３,,11,464,3450046,,,,,,,2025-10-24,1,,,,,ワイズディライト,0
356,2040001141127,新規,0,2025-10-24,2025-10-24,株式会社Ｄ‐Ｒｏｏｔｓ,,株式会社,千葉県,館山市,北条２０１３望月ビル２Ｆ,,12,205,2940045,,,,,,,2025-10-24,1,,,,,デイルーツ,0
357,2040003028801,新規,0,2025-10-24,2025-10-24,Ｂ＆Ｓ合同会社,,合同会社,千葉県,八千代市,八千代台南１丁目２番１号八千代台南一丁目ビル,,12,221,2760033,,,,,,,2025-10-24,1,,,,,ビーアンドエス,0
360,2050001057421,新規,0,2025-10-24,2025-10-24,ＡＹＡＮ　ＤＲＩＶＥ株式会社,,株式会社,茨城県,龍ケ崎市,出し山町９３番地１,,08,208,3010839,,,,,,,2025-10-24,1,,,,,アヤンドライブ,0
361,2050001057504,新規,0,2025-10-24,2025-10-24,株式会社東海スチール,,株式会社,茨城県,那珂郡東海村,大字豊岡１５１４番地１,,08,341,3191105,,,,,,,2025-10-24,1,,,,,トウカイスチール,0
364,2050003009718,新規,0,2025-10-24,2025-10-24,ＢｌｕｅＴｅｎｇｕ合同会社,,合同会社,茨城県,つくば市,竹園３丁目２７番地２３,,08,220,3050032,,,,,,,2025-10-24,1,,,,,ブルーテング,0
376,2100003008441,新規,0,2025-10-24,2025-10-24,合同会社ＢＡＳＩＣ,,合同会社,長野県,松本市,渚２丁目７番１号３Ｆ東,,20,202,3900841,,,,,,,2025-10-24,1,,,,,ベーシック,0
378,2110001039669,新規,0,2025-10-24,2025-10-24,株式会社サンホールディングス,,株式会社,新潟県,三条市,東光寺３６８９番地１,,15,204,9591104,,,,,,,2025-10-24,1,,,,,サンホールディングス,0
391,2120001281303,新規,0,2025-10-24,2025-10-24,株式会社アクアリード,,株式会社,大阪府,門真市,打越町８番５号,,27,223,5710029,,,,,,,2025-10-24,1,,,,,アクアリード,0
392,2120001281328,新規,0,2025-10-24,2025-10-24,ことのはエステート株式会社,,株式会社,大阪府,大阪市西区,新町１丁目８番１号行成ビル８階Ｇ号室,,27,106,5500013,,,,,,,2025-10-24,1,,,,,コトノハエステート,0
393,2120001281344,新規,0,2025-10-24,2025-10-24,株式会社ＡＬＰＨＡＳ,,株式会社,大阪府,大阪市生野区,中川西１丁目１７番７号,,27,116,5440032,,,,,,,2025-10-24,1,,,,,アルファス,0
394,2120001281427,新規,0,2025-10-24,2025-10-24,株式会社ｔｉｎｔ,,株式会社,大阪府,大阪市北区,神山町１４－５梅田プラチナビル１Ｆ,,27,127,5300026,,,,,,,2025-10-24,1,,,,,ティント,0
396,2120003030939,新規,0,2025-10-24,2025-10-24,合同会社アゴヒゲＦａｍｉｌｙ事務所,,合同会社,大阪府,大阪市此花区,西九条１丁目９番１４号,,27,104,5540012,,,,,,,2025-10-24,1,,,,,アゴヒゲファミリージムショ,0
397,2120003031078,新規,0,2025-10-24,2025-10-24,宏昇合同会社,,合同会社,大阪府,大阪市生野区,新今里５丁目７番６号新今里サクセスビル４０３,,27,116,5440001,,,,,,,2025-10-24,1,,,,,コウショウ,0
399,2120005025202,新規,0,2025-10-24,2025-10-24,一般社団法人あなたのみらい,,その他の設立登記法人,大阪府,大阪市阿倍野区,三明町２丁目２番８号,,27,119,5450005,,,,,,,2025-10-24,1,,,,,アナタノミライ,0
403,2120905006805,新規,0,2025-10-24,2025-10-24,一般社団法人Ｆａｍｉｌｌｅ　Ｃａｒｅ,,その他の設立登記法人,大阪府,豊中市,東豊中町５丁目２３－５（２０３号室）,,27,203,5600003,,,,,,,2025-10-24,1,,,,,ファミーユケア,0
404,2122001039796,新規,0,2025-10-24,2025-10-24,株式会社ＳＭＩＬＥ,,株式会社,大阪府,東大阪市,横小路町３丁目５番４０号,,27,227,5798063,,,,,,,2025-10-24,1,,,,,スミレ,0
410,2130001080860,新規,0,2025-10-24,2025-10-24,ＳＯＰＨｉＡＲＴ株式会社,,株式会社,京都府,京都市左京区,吉田橘町３２番地,,26,103,6068303,,,,,,,2025-10-24,1,,,,,ソフィアート,0
411,2130001080877,新規,0,2025-10-24,2025-10-24,和蒔光株式会社,,株式会社,京都府,京都市南区,東九条北烏丸町２４番地８,,26,107,6018017,,,,,,,2025-10-24,1,,,,,ワシコ,0
413,2130003010857,新規,0,2025-10-24,2025-10-24,ｍｏｎｏｗａ合同会社,,合同会社,京都府,綴喜郡宇治田原町,大字岩山小字奥浄戸７番地の４,,26,344,6100261,,,,,,,2025-10-24,1,,,,,モノワ,0
414,2130003010873,新規,0,2025-10-24,2025-10-24,合同会社瑞穂の畑,,合同会社,京都府,船井郡京丹波町,三ノ宮二反田１１番地２,,26,407,6220303,,,,,,,2025-10-24,1,,,,,ミズホノハタケ,0
415,2130003010881,新規,0,2025-10-24,2025-10-24,エンカウンター合同会社,,合同会社,京都府,京都市伏見区,深草池ノ内町３－６１－３１８,,26,109,6120031,,,,,,,2025-10-24,1,,,,,エンカウンター,0
430,2150003003727,新規,0,2025-10-24,2025-10-24,合同会社永博,,合同会社,奈良県,北葛城郡広陵町,馬見北７丁目１－１４－８,,29,426,6350831,,,,,,,2025-10-24,1,,,,,ナガヒロ,0
441,2180001169204,新規,0,2025-10-24,2025-10-24,株式会社ＡＵＡＮＡ,,株式会社,愛知県,名古屋市千種区,仲田２丁目２番２号アネックスナカタ２０１,,23,101,4640074,,,,,,,2025-10-24,1,,,,,アウアナ,0
444,2180003029249,新規,0,2025-10-24,2025-10-24,合同会社乃望,,合同会社,愛知県,知多郡美浜町,大字奥田字南側１０７番,,23,446,4703233,,,,,,,2025-10-24,1,,,,,ノゾミ,0
450,2190001032633,新規,0,2025-10-24,2025-10-24,株式会社ＳＴサービス,,株式会社,三重県,伊勢市,馬瀬町１２０２番地１６,,24,203,5160002,,,,,,,2025-10-24,1,,,,,エスティーサービス,0
451,2190003005232,新規,0,2025-10-24,2025-10-24,合同会社ヤマト,,合同会社,三重県,津市,香良洲町６０３５番地２,,24,201,5140315,,,,,,,2025-10-24,1,,,,,ヤマト,0
452,2190003005240,新規,0,2025-10-24,2025-10-24,合同会社くららぼ不動産,,合同会社,三重県,亀山市,三寺町１５番地,,24,210,5190135,,,,,,,2025-10-24,1,,,,,クララボフドウサン,0
453,2200001044370,新規,0,2025-10-24,2025-10-24,株式会社福祉ＡＩベース岐阜,,株式会社,岐阜県,岐阜市,茜部菱野４丁目１２９番３,,21,201,5008268,,,,,,,2025-10-24,1,,,,,フクシエーアイベースギフ,0
455,2220003004148,新規,0,2025-10-24,2025-10-24,合同会社ＳＯＤＡ．ＪＰ,,合同会社,石川県,白山市,宮永市町４１５－１９,,17,210,9240016,,,,,,,2025-10-24,1,,,,,ソーダドットジェーピー,0
457,2230005009499,新規,0,2025-10-24,2025-10-24,一般社団法人Ｐｕｒｅ　Ｆｕｎ,,その他の設立登記法人,富山県,中新川郡上市町,西中町３８番地,,16,322,9300334,,,,,,,2025-10-24,1,,,,,ピュアファン,0
460,2240003007454,新規,0,2025-10-24,2025-10-24,もみじエステートＸテック合同会社,,合同会社,広島県,広島市西区,観音本町１丁目１３番６－３０１号,,34,104,7330033,,,,,,,2025-10-24,1,,,,,モミジエステートテック,0
462,2250005009035,新規,0,2025-10-24,2025-10-24,一般社団法人萩こども応援隊,,その他の設立登記法人,山口県,萩市,大字椿東３０８３番地１,,35,204,7580011,,,,,,,2025-10-24,1,,,,,ハギコドモオウエンタイ,0
463,2260001040661,新規,0,2025-10-24,2025-10-24,株式会社ＳＴＡＲ　ＤＵＳＴ,,株式会社,岡山県,倉敷市,中庄２４３５番地５,,33,202,7100016,,,,,,,2025-10-24,1,,,,,スターダスト,0
464,2260001040678,新規,0,2025-10-24,2025-10-24,株式会社ベジット,,株式会社,岡山県,岡山市北区,青江５丁目２２番３１号２０２,,33,101,7000941,,,,,,,2025-10-24,1,,,,,ベジット,0
465,2260005011535,新規,0,2025-10-24,2025-10-24,一般社団法人おかやまユニバーサルツーリズムセンター,,その他の設立登記法人,岡山県,岡山市中区,国富３丁目３番３３号,,33,102,7038236,,,,,,,2025-10-24,1,,,,,オカヤマユニバーサルツーリズムセンター,0
472,2290001111955,新規,0,2025-10-24,2025-10-24,株式会社ｂｅａｃｏｎｎｅｃｔ,,株式会社,福岡県,福岡市中央区,大名１丁目３番４２－４０１号,,40,133,8100041,,,,,,,2025-10-24,1,,,,,ビーコネクト,0
476,2290003017572,新規,0,2025-10-24,2025-10-24,合同会社ＮＥＷＶＩＬＬＡＧＥ,,合同会社,福岡県,福岡市南区,市崎１丁目２－８－１５９,,40,134,8150084,,,,,,,2025-10-24,1,,,,,ニュウヴィレッジ,0
479,2290801031972,新規,0,2025-10-24,2025-10-24,株式会社リジエルセラー,,株式会社,福岡県,北九州市八幡西区,貴船台２１番３１号,,40,109,8070814,,,,,,,2025-10-24,1,,,,,リジエルセラー,0
482,2330001033690,新規,0,2025-10-24,2025-10-24,株式会社ＴＯ．ＴＯ,,株式会社,熊本県,熊本市中央区,花畑町１番１４号Ａ＆Ｍ・ＨＡＮＡＢＡＴＡ３０１号,,43,101,8600806,,,,,,,2025-10-24,1,,,,,トト,0
483,2330003011265,新規,0,2025-10-24,2025-10-24,合同会社上場苑,,合同会社,熊本県,阿蘇市,小里３６８－２,,43,214,8692307,,,,,,,2025-10-24,1,,,,,ジョウジョウエン,0
498,2360001035957,新規,0,2025-10-24,2025-10-24,スカイハート株式会社,,株式会社,沖縄県,沖縄市,宮里４丁目２８番５号,,47,211,9042165,,,,,,,2025-10-24,1,,,,,スカイハート,0
508,2380005013008,新規,0,2025-10-24,2025-10-24,特定非営利活動法人ＭｏｔｈｅｒＴｒｅｅ,,その他の設立登記法人,福島県,福島市,腰浜町１８番１２－３号,,07,201,9608135,,,,,,,2025-10-24,1,,,,,マザーツリー,0
509,2400005008517,新規,0,2025-10-24,2025-10-24,特定非営利活動法人もっともっと楽しい学校,,その他の設立登記法人,岩手県,胆沢郡金ケ崎町,西根表小路３番地６号,,03,381,0294503,,,,,,,2025-10-24,1,,,,,モットモットタノシイガッコウ,0
511,2410001014303,新規,0,2025-10-24,2025-10-24,株式会社ｋｅｎｋｅｎホールディングス,,株式会社,秋田県,大館市,比内町大葛字大谷８４番地,,05,204,0185851,,,,,,,2025-10-24,1,,,,,ケンケンホールディングス,0
517,2430001095531,新規,0,2025-10-24,2025-10-24,株式会社圭晶工業,,株式会社,北海道,札幌市東区,北二十五条東１４丁目２番１７号ルミエールサンク１０２号,,01,103,0650025,,,,,,,2025-10-24,1,,,,,ケイショウコウギョウ,0
523,2700150132669,新規,0,2025-10-24,2025-10-24,Ａ　Ｒ　ＮＩＰＰＯＮ　ＰＶＴ　ＬＴＤ,,外国会社等,神奈川県,厚木市,金田８－１３テラスハウスＡ,,14,212,2430807,スリランカ民主社会主義共和国、ＮＯ．１０７／１／４、アクラナ、パレウェリケティヤ,,,,,,2025-10-24,1,,,,,エーアールニツポンプライベツトリミテツド,0
528,3010001259607,新規,0,2025-10-24,2025-10-24,エフエルシーＮｏ．７リーシング株式会社,,株式会社,東京都,千代田区,麹町５丁目１番地１,,13,101,1020083,,,,,,,2025-10-24,1,,,,,エフエルシーナンバーセブンリーシング,0
534,3010003049048,新規,0,2025-10-24,2025-10-24,合同会社イオリ商事,,合同会社,東京都,中央区,銀座１丁目２２番１１号,,13,102,1040061,,,,,,,2025-10-24,1,,,,,イオリショウジ,0
545,3010403036397,新規,0,2025-10-24,2025-10-24,ＣＯＡＮＡ　ＴＯＫＹＯ合同会社,,合同会社,東京都,港区,北青山１丁目３－３三橋ビル３階,,13,103,1070061,,,,,,,2025-10-24,1,,,,,コアナトウキョウ,0
546,3010403036406,新規,0,2025-10-24,2025-10-24,豪州中小企業ローン投資合同会社,,合同会社,東京都,港区,六本木１丁目９番１０号アークヒルズ仙石山森タワー４０階,,13,103,1060032,,,,,,,2025-10-24,1,,,,,ゴウシュウチュウショウキギョウローントウシ,0
548,3010503008049,新規,0,2025-10-24,2025-10-24,合同会社輝き,,合同会社,東京都,台東区,雷門２丁目５番１号雷門スカイマンション２０４号,,13,106,1110034,,,,,,,2025-10-24,1,,,,,カガヤキ,0
552,3010801036718,新規,0,2025-10-24,2025-10-24,株式会社ＣＯＭＶＩ,,株式会社,東京都,大田区,南馬込６丁目１－１３西馬込プレイス１０１,,13,111,1430025,,,,,,,2025-10-24,1,,,,,コンビ,0
564,3011001173013,新規,0,2025-10-24,2025-10-24,Ｎｅｗ　Ｃｏｍｂｉｎａｔｏｒ株式会社,,株式会社,東京都,渋谷区,神南１丁目１１－４ＦＰＧリンクス神南５階,,13,113,1500041,,,,,,,2025-10-24,1,,,,,ニューコンビネーター,0
565,3011001173021,新規,0,2025-10-24,2025-10-24,株式会社Ｋｉｗｉｎｇ,,株式会社,東京都,渋谷区,道玄坂１丁目１０－８渋谷道玄坂東急ビル２Ｆ－Ｃ,,13,113,1500043,,,,,,,2025-10-24,1,,,,,キウイング,0
567,3011101113629,新規,0,2025-10-24,2025-10-24,株式会社ＡｉＭＤ,,株式会社,東京都,新宿区,新宿７丁目１２番３―７０１号,,13,104,1600022,,,,,,,2025-10-24,1,,,,,アイエムディ,0
568,3011101113645,新規,0,2025-10-24,2025-10-24,株式会社アークレガシー,,株式会社,東京都,新宿区,四谷三栄町４番８号谷ヶ崎ビル２階,,13,104,1600008,,,,,,,2025-10-24,1,,,,,アークレガシー,0
573,3011103016565,新規,0,2025-10-24,2025-10-24,Ｋｏｎｎｉｃｈｉｗａ　Ｎｅｐａｌ合同会社,,合同会社,東京都,新宿区,北新宿４丁目１３番５号高栄ビル新宿４０１,,13,104,1690074,,,,,,,2025-10-24,1,,,,,コンニチワネパール,0
587,3013301054594,新規,0,2025-10-24,2025-10-24,株式会社桜ＳＡＫＵＲＡ,,株式会社,東京都,豊島区,高田３丁目５－１７グローリア初穂高田馬場５２１号室,,13,116,1710033,,,,,,,2025-10-24,1,,,,,サクラサクラ,0
595,3020001165341,新規,0,2025-10-24,2025-10-24,株式会社産新,,株式会社,神奈川県,横浜市神奈川区,西大口１１１番地ＳａｎＦｅｌｉｃｅ１Ａ,,14,102,2210004,,,,,,,2025-10-24,1,,,,,サンシン,0
596,3020001165449,新規,0,2025-10-24,2025-10-24,桑島エステート株式会社,,株式会社,神奈川県,川崎市高津区,二子３丁目２８番２号,,14,134,2130002,,,,,,,2025-10-24,1,,,,,クワジマエステート,0
597,3020001165473,新規,0,2025-10-24,2025-10-24,株式会社Ｅｎｇｕｎ,,株式会社,神奈川県,横浜市神奈川区,反町１丁目１０番地７パルテメゾン反町公園５０４号,,14,102,2210825,,,,,,,2025-10-24,1,,,,,エングン,0
602,3020003029577,新規,0,2025-10-24,2025-10-24,合同会社Ｒｅｒｅｙ,,合同会社,神奈川県,横浜市西区,北幸２丁目１０番４８号むつみビル３階,,14,103,2200004,,,,,,,2025-10-24,1,,,,,リレイ,0
603,3020003029627,新規,0,2025-10-24,2025-10-24,合同会社Ｎ・Ｆ・Ｎ,,合同会社,神奈川県,横浜市戸塚区,品濃町８８０－５－４２０号,,14,110,2440801,,,,,,,2025-10-24,1,,,,,エヌエフエヌ,0
606,3021001086651,新規,0,2025-10-24,2025-10-24,株式会社ＮＳＲ　ＨＯＭＥ,,株式会社,神奈川県,厚木市,戸室１丁目１０番５号ロイヤルハイツ甲子Ａ３０１号室,,14,212,2430031,,,,,,,2025-10-24,1,,,,,エヌエスアールホーム,0
611,3021003016739,新規,0,2025-10-24,2025-10-24,合同会社ＨＩＤＥＳＩＧＮ,,合同会社,神奈川県,鎌倉市,浄明寺４丁目１７番８号,,14,204,2480003,,,,,,,2025-10-24,1,,,,,ハイデザイン,0
615,3030001169341,新規,0,2025-10-24,2025-10-24,株式会社春の丘レモン農園,,株式会社,埼玉県,さいたま市見沼区,大和田町１丁目１１１８番地,,11,104,3370053,,,,,,,2025-10-24,1,,,,,ハルノオカレモンノウエン,0
621,3040001003862,新規,0,2025-10-24,2025-10-24,株式会社創進社,,株式会社,千葉県,千葉市稲毛区,園生町９７９番地１ライオンズガーデン稲毛園生町１１０５号,,12,103,2630051,,,,,,,2025-10-24,1,,,,,,0
623,3040001140961,新規,0,2025-10-24,2025-10-24,株式会社和韵,,株式会社,千葉県,船橋市,若松２丁目１番１１号パークリュクス南船橋７１０号,,12,204,2730013,,,,,,,2025-10-24,1,,,,,ヒビキ,0
624,3040001141035,新規,0,2025-10-24,2025-10-24,株式会社リバースチェーン,,株式会社,千葉県,成田市,上町５０８番地,,12,211,2860032,,,,,,,2025-10-24,1,,,,,リバースチェーン,0
636,3050001057494,新規,0,2025-10-24,2025-10-24,株式会社ファシリティサービス,,株式会社,茨城県,古河市,上辺見３０５６番地２ユートピアハイツ１０１,,08,204,3060234,,,,,,,2025-10-24,1,,,,,ファシリティサービス,0
652,3090001019581,新規,0,2025-10-24,2025-10-24,ＴＳＨ株式会社,,株式会社,山梨県,都留市,法能５５３番地５,,19,204,4020025,,,,,,,2025-10-24,1,,,,,ティーエスエイチ,0
660,3110001039668,新規,0,2025-10-24,2025-10-24,株式会社智創空間ラボ,,株式会社,新潟県,南魚沼市,塩沢６１番地,,15,226,9496408,,,,,,,2025-10-24,1,,,,,チソウクウカンラボ,0
672,3120001281129,新規,0,2025-10-24,2025-10-24,信和株式会社,,株式会社,大阪府,大阪市鶴見区,今津南１丁目１２番１９－２０８号,,27,124,5380043,,,,,,,2025-10-24,1,,,,,シンワ,0
673,3120001281293,新規,0,2025-10-24,2025-10-24,株式会社ｙｕｕ,,株式会社,大阪府,大阪市鶴見区,浜３丁目４番４２号,,27,124,5380035,,,,,,,2025-10-24,1,,,,,ワイユーユー,0
674,3120001281319,新規,0,2025-10-24,2025-10-24,スマイルバリュー株式会社,,株式会社,大阪府,大阪市中央区,南船場３丁目２番２２号おおきに南船場ビル２０５,,27,128,5420081,,,,,,,2025-10-24,1,,,,,スマイルバリュー,0
675,3120001281327,新規,0,2025-10-24,2025-10-24,株式会社三木工務店,,株式会社,大阪府,大阪市住吉区,遠里小野１丁目４番２７号,,27,120,5580032,,,,,,,2025-10-24,1,,,,,ミキコウムテン,0
676,3120001281392,新規,0,2025-10-24,2025-10-24,株式会社ＹＡＭＡＳＨＩＴＡ　ＣＯＭＭＥＲＣＥ,,株式会社,大阪府,大阪市中央区,高津３丁目２番３０号２０１室,,27,128,5420072,,,,,,,2025-10-24,1,,,,,ヤマシタコマース,0
677,3120001281401,新規,0,2025-10-24,2025-10-24,ＮｓＬｉｆｅ株式会社,,株式会社,大阪府,大阪市北区,本庄東２丁目１５番４号,,27,127,5310074,,,,,,,2025-10-24,1,,,,,ナースライフ,0
679,3120003030590,新規,0,2025-10-24,2025-10-24,ジン・アンド・ワンコンサルティング合同会社,,合同会社,大阪府,大阪市中央区,南船場３丁目２番２２号おおきに南船場ビル２０５,,27,128,5420081,,,,,,,2025-10-24,1,,,,,ジンアンドワンコンサルティング,0
680,3120003031077,新規,0,2025-10-24,2025-10-24,明昊緑源合同会社,,合同会社,大阪府,大阪市東成区,中道４丁目１６番２１号山上ビル４１５号室,,27,115,5370025,,,,,,,2025-10-24,1,,,,,メイコウリョクゲン,0
681,3120003031085,新規,0,2025-10-24,2025-10-24,合同会社利助商店,,合同会社,大阪府,大阪市北区,梅田１丁目２番２号大阪駅前第２ビル１２‐１２,,27,127,5300001,,,,,,,2025-10-24,1,,,,,リスケショウテン,0
690,3120905006804,新規,0,2025-10-24,2025-10-24,一般社団法人淡海を守る釣り人の会,,その他の設立登記法人,大阪府,吹田市,津雲台１丁目１番２号（４０５）,,27,205,5650862,,,,,,,2025-10-24,1,,,,,オウミヲマモルツリビトノカイ,0
695,3130003010880,新規,0,2025-10-24,2025-10-24,オフィスジェイ合同会社,,合同会社,京都府,京都市左京区,上高野東氷室町５番地２０,,26,103,6060094,,,,,,,2025-10-24,1,,,,,オフィスジェイ,0
696,3130005017494,新規,0,2025-10-24,2025-10-24,一般社団法人Ｃｏｍｏ　ｅｌ　Ｓｏｌ,,その他の設立登記法人,京都府,京都市右京区,西京極堤下町３番地１イニシア桂大橋２１３,,26,108,6150835,,,,,,,2025-10-24,1,,,,,コモエルソル,0
701,3140003022776,新規,0,2025-10-24,2025-10-24,フレール合同会社,,合同会社,兵庫県,明石市,松が丘３丁目３０番１８号,,28,203,6730862,,,,,,,2025-10-24,1,,,,,フレール,0
702,3160001027156,新規,0,2025-10-24,2025-10-24,和道橋株式会社,,株式会社,滋賀県,草津市,南山田町７８５番地１,,25,206,5250063,,,,,,,2025-10-24,1,,,,,ワドウキョウ,0
703,3170001018848,新規,0,2025-10-24,2025-10-24,株式会社ＫＭＪ,,株式会社,和歌山県,紀の川市,赤尾３２０番地３,,30,208,6496404,,,,,,,2025-10-24,1,,,,,ケイエムジェイ,0
707,3180001169211,新規,0,2025-10-24,2025-10-24,株式会社ｍａｒｖｅｎｔ,,株式会社,愛知県,名古屋市昭和区,鶴羽町１丁目２３番地３号,,23,107,4660011,,,,,,,2025-10-24,1,,,,,マーベント,0
708,3180001169236,新規,0,2025-10-24,2025-10-24,株式会社ハレルヤ,,株式会社,愛知県,名古屋市千種区,池上町１丁目５番地の７１,,23,101,4640029,,,,,,,2025-10-24,1,,,,,ハレルヤ,0
715,3180005021285,新規,0,2025-10-24,2025-10-24,一般社団法人名古屋工業大学ボート部後援会白艇会,,その他の設立登記法人,愛知県,名古屋市中川区,大蟷螂町字西流３５８番地３,,23,110,4540944,,,,,,,2025-10-24,1,,,,,ナゴヤコウギョウダイガクボートブコウエンカイハクテイカイ,0
724,3220001026993,新規,0,2025-10-24,2025-10-24,株式会社ｏｒｉｎａｓ,,株式会社,石川県,金沢市,南森本町ワ２２４番地１,,17,201,9203116,,,,,,,2025-10-24,1,,,,,オリナス,0
725,3220005009012,新規,0,2025-10-24,2025-10-24,一般社団法人金沢金継ぎ協会,,その他の設立登記法人,石川県,金沢市,醒ケ井町２番５号,,17,201,9200034,,,,,,,2025-10-24,1,,,,,カナザワキンツギキョウカイ,0
727,3240001065692,新規,0,2025-10-24,2025-10-24,株式会社ＶＥＲＩＬ,,株式会社,広島県,広島市安佐南区,西原４丁目１４番１２－１００２号,,34,105,7310113,,,,,,,2025-10-24,1,,,,,ヴェリル,0
732,3260001040685,新規,0,2025-10-24,2025-10-24,株式会社ＳＰＣＮ,,株式会社,岡山県,岡山市北区,奉還町１丁目４番９－１号,,33,101,7000026,,,,,,,2025-10-24,1,,,,,スポコン,0
733,3260003005389,新規,0,2025-10-24,2025-10-24,合同会社ＡＬＥＸ第二蓄電所,,合同会社,岡山県,倉敷市,広江２丁目１３番４３号,,33,202,7128043,,,,,,,2025-10-24,1,,,,,アレックスダイニチクデンショ,0
739,3290001111723,新規,0,2025-10-24,2025-10-24,株式会社ＣＴＤ,,株式会社,福岡県,古賀市,天神４丁目１７番２１,,40,223,8113101,,,,,,,2025-10-24,1,,,,,シーティーディー,0
746,3290801031963,新規,0,2025-10-24,2025-10-24,株式会社カイザリン,,株式会社,福岡県,北九州市八幡西区,熊手１丁目１番２２号３Ｆ,,40,109,8060028,,,,,,,2025-10-24,1,,,,,カイザリン,0
757,3360001035956,新規,0,2025-10-24,2025-10-24,株式会社Ｋ’ｚ,,株式会社,沖縄県,中頭郡北谷町,桑江１丁目１０番１９号,,47,326,9040103,,,,,,,2025-10-24,1,,,,,ケーズ,0
761,3370001053164,新規,0,2025-10-24,2025-10-24,モビルクラン株式会社,,株式会社,宮城県,角田市,君萱字馬場前４８番地,,04,208,9811525,,,,,,,2025-10-24,1,,,,,モビルクラン,0
762,3370001053172,新規,0,2025-10-24,2025-10-24,株式会社ノリータアシスト,,株式会社,宮城県,仙台市太白区,八木山本町２丁目８番地の３,,04,104,9820801,,,,,,,2025-10-24,1,,,,,ノリータアシスト,0
774,3430001095539,新規,0,2025-10-24,2025-10-24,株式会社ｂｅナース,,株式会社,北海道,札幌市中央区,南七条西１２丁目４番３号,,01,101,0640807,,,,,,,2025-10-24,1,,,,,ビーナース,0
792,3490001011192,新規,0,2025-10-24,2025-10-24,四国農産株式会社,,株式会社,高知県,高知市,久礼野８３１番地,,39,201,7800001,,,,,,,2025-10-24,1,,,,,,0
793,3490005007006,新規,0,2025-10-24,2025-10-24,高知きんつぎ空き家協同組合,,その他の設立登記法人,高知県,高知市,塩屋崎町１丁目８番６号,,39,201,7808014,,,,,,,2025-10-24,1,,,,,,0
798,3700150132668,新規,0,2025-10-24,2025-10-24,ＩＫＩＧＡＩ　ＥＮＴＥＲＰＲＩＳＥＳ,,外国会社等,神奈川県,厚木市,鳶尾２丁目２４－１鳶尾マンション１０１－Ｂ,,14,212,2430204,スリランカ民主社会主義共和国，ＮＯ２４２／３マータレロード、アクラナ７ｔｈマイルポスト,,,,,,2025-10-24,1,,,,,イキガイエンタープライセズ,0
808,4010001259440,新規,0,2025-10-24,2025-10-24,Ａｙａｌａ　Ｌａｎｄ　Ｉｎｔｅｒｎａｔｉｏｎａｌ　Ｍａｒｋｅｔｉｎｇ　Ｊａｐａｎ株式会社,,株式会社,東京都,千代田区,丸の内２丁目７－２　ＪＰタワー１４階,,13,101,1000005,,,,,,,2025-10-24,1,,,,,アヤラランドインターナショナルマーケティングジャパン,0
809,4010001259606,新規,0,2025-10-24,2025-10-24,エフエルシーＮｏ．６リーシング株式会社,,株式会社,東京都,千代田区,麹町５丁目１番地１,,13,101,1020083,,,,,,,2025-10-24,1,,,,,エフエルシーナンバーシックスリーシング,0
810,4010001259614,新規,0,2025-10-24,2025-10-24,吉野不動産株式会社,,株式会社,東京都,千代田区,東神田３丁目２－４,,13,101,1010031,,,,,,,2025-10-24,1,,,,,ヨシノフドウサン,0
811,4010001259671,新規,0,2025-10-24,2025-10-24,株式会社栄和堂,,株式会社,東京都,千代田区,神田佐久間河岸５５朝風染常ビル２階,,13,101,1010026,,,,,,,2025-10-24,1,,,,,エイワドウ,0
818,4010101016915,新規,0,2025-10-24,2025-10-24,株式会社ａｌｔｒｕｌｏｏｐ,,株式会社,東京都,八王子市,日吉町８－２１,,13,201,1930836,,,,,,,2025-10-24,1,,,,,アルトゥルループ,0
826,4010401193850,新規,0,2025-10-24,2025-10-24,Ｆｏｒｍｕｌａ総合研究所株式会社,,株式会社,東京都,港区,北青山１丁目３－３三橋ビル３階,,13,103,1070061,,,,,,,2025-10-24,1,,,,,フォーミュラソウゴウケンキュウジョ,0
827,4010401193883,新規,0,2025-10-24,2025-10-24,株式会社ＢＨＦ,,株式会社,東京都,港区,西新橋３丁目５番９号,,13,103,1050003,,,,,,,2025-10-24,1,,,,,ビーエイチエフ,0
829,4010403036297,新規,0,2025-10-24,2025-10-24,合同会社テンアップ,,合同会社,東京都,港区,赤坂３丁目１１番１５号ＶＯＲＴ赤坂見附４階,,13,103,1070052,,,,,,,2025-10-24,1,,,,,テンアップ,0
839,4010801036709,新規,0,2025-10-24,2025-10-24,リーエイティ株式会社,,株式会社,東京都,大田区,西馬込２丁目２５番１０号,,13,111,1430026,,,,,,,2025-10-24,1,,,,,リーエイティ,0
845,4011001172939,新規,0,2025-10-24,2025-10-24,株式会社Ｋｏｂａｙａｓｈｉ　Ｆａｍｉｌｙ　Ｃａｐｉｔａｌ,,株式会社,東京都,渋谷区,神宮前５丁目５０番５号,,13,113,1500001,,,,,,,2025-10-24,1,,,,,コバヤシファミリーキャピタル,0
846,4011003022712,新規,0,2025-10-24,2025-10-24,合同会社Ｂｌｏｏｍｉａ,,合同会社,東京都,渋谷区,神南１丁目１１番４号ＦＰＧリンクス神南５階,,13,113,1500041,,,,,,,2025-10-24,1,,,,,ブルーミア,0
847,4011003022720,新規,0,2025-10-24,2025-10-24,ＪＩＮ‐ＭＵＳＵＢＩ合同会社,,合同会社,東京都,渋谷区,神宮前１丁目４番２０－５４０号,,13,113,1500001,,,,,,,2025-10-24,1,,,,,,0
849,4011005011226,新規,0,2025-10-24,2025-10-24,医療法人社団ｎｅｘｔ　ｍｅｄｉｃｉｎｅ,,その他の設立登記法人,東京都,目黒区,大橋２丁目２３番１号西渋谷ハイウェービル２階,,13,110,1530044,,,,,,,2025-10-24,1,,,,,ネクストメディシン,0
855,4011101113421,新規,0,2025-10-24,2025-10-24,株式会社Ｇ‐ｏｆｆｉｃｅ,,株式会社,東京都,新宿区,西早稲田３丁目８番１４－６０２号,,13,104,1690051,,,,,,,2025-10-24,1,,,,,ジーオフィス,0
856,4011101113652,新規,0,2025-10-24,2025-10-24,株式会社Ｃｏｔｏｃｏｔｏ　Ｗｏｒｋｓ,,株式会社,東京都,新宿区,西新宿３丁目３番１３号西新宿水間ビル２Ｆ,,13,104,1600023,,,,,,,2025-10-24,1,,,,,コトコトワークス,0
857,4011101113677,新規,0,2025-10-24,2025-10-24,株式会社安之教育,,株式会社,東京都,新宿区,西新宿３丁目３番１３号西新宿水間ビル６階,,13,104,1600023,,,,,,,2025-10-24,1,,,,,ヤスノキョウイク,0
862,4011105011571,新規,0,2025-10-24,2025-10-24,特定非営利活動法人ＪＡＰＡＮ　ＢＲＩＤＧＥ,,その他の設立登記法人,東京都,新宿区,西新宿３丁目３番１３号西新宿水間ビル６階,,13,104,1600023,,,,,,,2025-10-24,1,,,,,ジャパンブリッジ,0
869,4012405005180,新規,0,2025-10-24,2025-10-24,一般社団法人Ｓｏｒａｉｒｏ,,その他の設立登記法人,東京都,府中市,宮西町２丁目８－２,,13,206,1830022,,,,,,,2025-10-24,1,,,,,ソライロ,0
872,4012703003398,新規,0,2025-10-24,2025-10-24,ビッグ＆ブラザー合同会社,,合同会社,東京都,西東京市,南町３丁目５番地１４号ロイヤルコート２０３,,13,229,1880012,,,,,,,2025-10-24,1,,,,,ビッグアンドブラザー,0
884,4020001165472,新規,0,2025-10-24,2025-10-24,株式会社Ｇｏｏｄ　Ｗｉｌｌ　Ｈｕｎｔｉｎｇ,,株式会社,神奈川県,横浜市西区,北幸２丁目１０番４８号むつみビル３階,,14,103,2200004,,,,,,,2025-10-24,1,,,,,グッドウィルハンティング,0
886,4020003029510,新規,0,2025-10-24,2025-10-24,マイユウ合同会社,,合同会社,神奈川県,川崎市多摩区,南生田２丁目１０番１７号,,14,135,2140036,,,,,,,2025-10-24,1,,,,,マイユウ,0
887,4020003029659,新規,0,2025-10-24,2025-10-24,ＬｕｎａＬｏｔｕｓ合同会社,,合同会社,神奈川県,横浜市南区,白妙町３丁目３６番地ガーデンプラザ横浜南５Ｆ,,14,105,2320023,,,,,,,2025-10-24,1,,,,,ルナロータス,0
888,4020003029675,新規,0,2025-10-24,2025-10-24,合同会社ＴＵＲＢＯ,,合同会社,神奈川県,横浜市鶴見区,矢向２丁目４番２号アドバンス鶴見２０７号室,,14,101,2300001,,,,,,,2025-10-24,1,,,,,ターボ,0
890,4021001086642,新規,0,2025-10-24,2025-10-24,ＷＡＢ株式会社,,株式会社,神奈川県,逗子市,山の根３丁目１番１号,,14,208,2490002,,,,,,,2025-10-24,1,,,,,ダブリューエービー,0
902,4030001169373,新規,0,2025-10-24,2025-10-24,軽井沢ライフ株式会社,,株式会社,埼玉県,飯能市,南町２－１１,,11,209,3570036,,,,,,,2025-10-24,1,,,,,カルイザワライフ,0
915,4040001141100,新規,0,2025-10-24,2025-10-24,株式会社Ｄ．Ｊ　Ｉｎｔｅｒｎａｔｉｏｎａｌ,,株式会社,千葉県,野田市,古布内字山１７６３番地１,,12,208,2700221,,,,,,,2025-10-24,1,,,,,ディージェイインターナショナル,0
920,4050001057452,新規,0,2025-10-24,2025-10-24,株式会社フューチャーデザイン,,株式会社,茨城県,取手市,白山４丁目３番１０号,,08,217,3020023,,,,,,,2025-10-24,1,,,,,フューチャーデザイン,0
921,4050001057477,新規,0,2025-10-24,2025-10-24,ＮＩＨＯＮ　ＳＨＩＮＥ株式会社,,株式会社,茨城県,筑西市,門井１６９１－１０,,08,227,3091107,,,,,,,2025-10-24,1,,,,,ニホンシアイン,0
924,4050003009716,新規,0,2025-10-24,2025-10-24,ＡＲＴＳ合同会社,,合同会社,茨城県,牛久市,ひたち野東４丁目３３番地１３７,,08,219,3001207,,,,,,,2025-10-24,1,,,,,アーツ,0
930,4090005007747,新規,0,2025-10-24,2025-10-24,特定非営利活動法人まいねこ,,その他の設立登記法人,山梨県,甲府市,中央２丁目５番２７号、サンパーラ中央、店舗２Ｆ南,,19,201,4000032,,,,,,,2025-10-24,1,,,,,マイネコ,0
947,4120001281334,新規,0,2025-10-24,2025-10-24,錦星株式会社,,株式会社,大阪府,大阪市平野区,平野市町２丁目６－１４ドリーム平野Ｄ３２室,,27,126,5470042,,,,,,,2025-10-24,1,,,,,キンシ,0
948,4120001281375,新規,0,2025-10-24,2025-10-24,株式会社ワンダーバンジャパン,,株式会社,大阪府,大阪市東淀川区,北江口４丁目５番１２号２階,,27,114,5330002,,,,,,,2025-10-24,1,,,,,ワンダーバンジャパン,0
949,4120001281400,新規,0,2025-10-24,2025-10-24,株式会社ジャパングローバルリンク,,株式会社,大阪府,大阪市天王寺区,勝山１丁目１１番３０号ＣＡＳＡ東門７０１号,,27,109,5430043,,,,,,,2025-10-24,1,,,,,ジャパングローバルリンク,0
950,4120001281425,新規,0,2025-10-24,2025-10-24,森木子開発株式会社,,株式会社,大阪府,大阪市旭区,生江３丁目４番１９号１Ａ,,27,117,5350004,,,,,,,2025-10-24,1,,,,,モリキコカイハツ,0
951,4120001281524,新規,0,2025-10-24,2025-10-24,Ｈｓロジ株式会社,,株式会社,大阪府,大阪市住之江区,南港東４丁目３番２２号（Ｇ－３）,,27,125,5590031,,,,,,,2025-10-24,1,,,,,エイチズロジ,0
954,4120003031010,新規,0,2025-10-24,2025-10-24,合同会社春日青,,合同会社,大阪府,大阪市港区,南市岡１丁目７－２３大谷文化２号室,,27,107,5520011,,,,,,,2025-10-24,1,,,,,カスガアオ,0
955,4120003031051,新規,0,2025-10-24,2025-10-24,Ｎｅｐｃｏ合同会社,,合同会社,大阪府,大阪市天王寺区,玉造元町１３番２号,,27,109,5430014,,,,,,,2025-10-24,1,,,,,ネプコー,0
956,4120003031068,新規,0,2025-10-24,2025-10-24,合同会社龍之允,,合同会社,大阪府,寝屋川市,昭栄町８番５号,,27,215,5720834,,,,,,,2025-10-24,1,,,,,リュウノスケ,0
957,4120003031084,新規,0,2025-10-24,2025-10-24,Ｔｈｅ　Ｃａｐｙｂａｒａ　Ｃｏｍｐａｎｙ合同会社,,合同会社,大阪府,大阪市中央区,南久宝寺町４丁目５番７号本町Ｉ．Ｂ．Ｃビル３階,,27,128,5410058,,,,,,,2025-10-24,1,,,,,ザカピバラカンパニー,0
969,4122001039794,新規,0,2025-10-24,2025-10-24,株式会社タカラ工務店,,株式会社,大阪府,八尾市,旭ケ丘４丁目２２番地,,27,212,5810833,,,,,,,2025-10-24,1,,,,,タカラコウムテン,0
975,4130005017493,新規,0,2025-10-24,2025-10-24,特定非営利活動法人Ｋｙｏｔｏ‐ｃａｒｅ,,その他の設立登記法人,京都府,京都市左京区,下鴨南野々神町４－３,,26,103,6060847,,,,,,,2025-10-24,1,,,,,キョウトケア,0
981,4140001140513,新規,0,2025-10-24,2025-10-24,アルチザンマネジメント株式会社,,株式会社,兵庫県,姫路市,大津区天満２９６番地１５,,28,201,6711143,,,,,,,2025-10-24,1,,,,,アルチザンマネジメント,0
986,4140003022775,新規,0,2025-10-24,2025-10-24,合同会社トラップ,,合同会社,兵庫県,養父市,葛畑１２１番地７,,28,222,6671115,,,,,,,2025-10-24,1,,,,,トラップ,0
987,4140003022783,新規,0,2025-10-24,2025-10-24,Ｍｕｓｔａｆａ　Ｔｒａｄｉｎｇ合同会社,,合同会社,兵庫県,神戸市北区,有野町唐櫃字種池３０４９番地の９,,28,109,6511331,,,,,,,2025-10-24,1,,,,,ムスターファトレーディング,0
990,4160005011460,新規,0,2025-10-24,2025-10-24,一般社団法人とことんハウス,,その他の設立登記法人,滋賀県,大津市,黒津５丁目１番１４号,,25,201,5202279,,,,,,,2025-10-24,1,,,,,トコトンハウス,0
991,4170001018847,新規,0,2025-10-24,2025-10-24,株式会社ＩＳＫＳＨＯＰ,,株式会社,和歌山県,伊都郡かつらぎ町,大字妙寺１０１８番地,,30,341,6497113,,,,,,,2025-10-24,1,,,,,アイエスケイショップ,0
1002,4180003029230,新規,0,2025-10-24,2025-10-24,Ｋｕｒａｓｕ　Ｗｏｒｋｓ合同会社,,合同会社,愛知県,名古屋市中村区,名駅４丁目２４番５号第２森ビル４０１,,23,105,4500002,,,,,,,2025-10-24,1,,,,,クラスワークス,0
1003,4180003029255,新規,0,2025-10-24,2025-10-24,合同会社モリノミヤ,,合同会社,愛知県,名古屋市瑞穂区,堀田通６丁目５番地,,23,108,4670862,,,,,,,2025-10-24,1,,,,,モリノミヤ,0
1008,4220001026992,新規,0,2025-10-24,2025-10-24,株式会社ＬＩＦＥ　ＧＲＥＥＮ,,株式会社,石川県,金沢市,二俣町７‐１３‐２,,17,201,9201102,,,,,,,2025-10-24,1,,,,,ライフグリーン,0
1013,4260001040684,新規,0,2025-10-24,2025-10-24,株式会社Ｄａｎｄｅｌｉｏｎ,,株式会社,岡山県,岡山市北区,大学町３番９号,,33,101,7000906,,,,,,,2025-10-24,1,,,,,ダンデライオン,0
1014,4260003005388,新規,0,2025-10-24,2025-10-24,合同会社ＡＬＥＸ第一蓄電所,,合同会社,岡山県,倉敷市,広江２丁目１３番４３号,,33,202,7128043,,,,,,,2025-10-24,1,,,,,アレックスダイイチチクデンショ,0
1022,4290001111912,新規,0,2025-10-24,2025-10-24,ＹＯＯＭＩテクノロジー株式会社,,株式会社,福岡県,福岡市博多区,博多駅南２丁目１５－１２パークコート博多駅南２０１号室,,40,132,8120016,,,,,,,2025-10-24,1,,,,,ヨオミテクノロジー,0
1023,4290001111929,新規,0,2025-10-24,2025-10-24,ユアシス株式会社,,株式会社,福岡県,太宰府市,五条２丁目２３番２８号,,40,221,8180125,,,,,,,2025-10-24,1,,,,,ユアシス,0
1024,4290001112002,新規,0,2025-10-24,2025-10-24,株式会社ＦＬＩＣ,,株式会社,福岡県,福岡市早良区,重留２丁目１４－２２,,40,137,8111101,,,,,,,2025-10-24,1,,,,,フリック,0
1029,4300003002364,新規,0,2025-10-24,2025-10-24,合同会社長期レンタカー,,合同会社,佐賀県,鳥栖市,原町１２７９番地４,,41,203,8410024,,,,,,,2025-10-24,1,,,,,チョウキレンタカー,0
1030,4300005007270,新規,0,2025-10-24,2025-10-24,一般社団法人ＫＡＲＡＴＳＵ　ＷＡＴＥＲＦＲＯＮＴ　ＥＤＧＥ,,その他の設立登記法人,佐賀県,唐津市,相賀２５５３番地２,,41,202,8470132,,,,,,,2025-10-24,1,,,,,カラツウォーターフロントエッジ,0
1032,4310005008879,新規,0,2025-10-24,2025-10-24,一般社団法人子育て支援ＫｉｄｓＮ,,その他の設立登記法人,長崎県,佐世保市,大和町１１０３番地２２,,42,202,8571165,,,,,,,2025-10-24,1,,,,,コソダテシエンキッズエヌ,0
1038,4330001033648,新規,0,2025-10-24,2025-10-24,樋島ドック株式会社,,株式会社,熊本県,上天草市,龍ヶ岳町樋島４２０番地１,,43,212,8660203,,,,,,,2025-10-24,1,,,,,ヒノシマドック,0
1039,4330001033689,新規,0,2025-10-24,2025-10-24,株式会社ＥＫＮ,,株式会社,熊本県,熊本市中央区,坪井６丁目１－５,,43,101,8600863,,,,,,,2025-10-24,1,,,,,イーケイエヌ,0
1053,4400003003550,新規,0,2025-10-24,2025-10-24,合同会社Ｅｌｕｎ　Ｌａｂｓ,,合同会社,岩手県,宮古市,崎山第７地割２番地１５,,03,202,0270097,,,,,,,2025-10-24,1,,,,,エルンラボ,0
1068,4480001012991,新規,0,2025-10-24,2025-10-24,株式会社ＮＡファクトリー,,株式会社,徳島県,板野郡板野町,大坂字関東７５番地,,36,404,7790101,,,,,,,2025-10-24,1,,,,,エヌエイファクトリー,0
1074,4700150132238,新規,0,2025-10-24,2025-10-24,ＡｓｔｒａＺｅｎｅｃａ　ＡＢ,,外国会社等,,,,,,,,ＳＥ－１５１　８５　Ｓｏｄｅｒｔａｌｊｅ，Ｓｗｅｄｅｎ,,,,,,2025-10-24,1,,,,,アストラゼネカエービー,0
1075,4700150132667,新規,0,2025-10-24,2025-10-24,ＭＣＡ　ＭＯＴＯＲＳ,,外国会社等,神奈川県,厚木市,下川入４１５－８オリエントハイツ２－１０２－Ａ,,14,212,2430206,スリランカ民主社会主義共和国，ＮＯ２４４／Ａ，ベビラゲッラ、ガルヒンナ,,,,,,2025-10-24,1,,,,,エムシーエーモーターズ,0
1086,5010001259662,新規,0,2025-10-24,2025-10-24,大辰エネルギーシステムズ株式会社,,株式会社,東京都,千代田区,岩本町３丁目８番８号,,13,101,1010032,,,,,,,2025-10-24,1,,,,,オオタツエネルギーシステムズ,0
1095,5010401193577,新規,0,2025-10-24,2025-10-24,株式会社ＴＤＧ,,株式会社,東京都,港区,芝５丁目３６番７号,,13,103,1080014,,,,,,,2025-10-24,1,,,,,ティーディージー,0
1096,5010401193800,新規,0,2025-10-24,2025-10-24,株式会社スパイスブックス,,株式会社,東京都,港区,六本木４丁目３番１１－１２５号,,13,103,1060032,,,,,,,2025-10-24,1,,,,,スパイスブックス,0
1097,5010401193841,新規,0,2025-10-24,2025-10-24,株式会社データブルーム,,株式会社,東京都,港区,北青山１丁目３番１号アールキューブ青山３階,,13,103,1070061,,,,,,,2025-10-24,1,,,,,データブルーム,0
1098,5010401193957,新規,0,2025-10-24,2025-10-24,株式会社人事の右腕Ｙ,,株式会社,東京都,港区,南青山３丁目１番３６号青山丸竹ビル６Ｆ,,13,103,1070062,,,,,,,2025-10-24,1,,,,,ジンジノミギウデワイ,0
1101,5010503008055,新規,0,2025-10-24,2025-10-24,合同会社ウェイブワン,,合同会社,東京都,台東区,元浅草１丁目６番１２号ＧＯＧＯオフィス御徒町８０５号室,,13,106,1110041,,,,,,,2025-10-24,1,,,,,ウェイブワン,0
1103,5010703007971,新規,0,2025-10-24,2025-10-24,リブバースト合同会社,,合同会社,東京都,品川区,東大井１丁目１４番２４－１２１５号,,13,109,1400011,,,,,,,2025-10-24,1,,,,,リブバースト,0
1104,5010801036708,新規,0,2025-10-24,2025-10-24,Ｃｒｏｗｎ　Ｉｎｔｅｒｎａｔｉｏｎａｌ　Ｊａｐａｎ株式会社,,株式会社,東京都,大田区,田園調布２丁目５２番５号,,13,111,1450071,,,,,,,2025-10-24,1,,,,,クラウンインターナショナルジャパン,0
1110,5011001172995,新規,0,2025-10-24,2025-10-24,株式会社ＶＡＬＴＩＣ,,株式会社,東京都,渋谷区,恵比寿西２丁目４番８号ウィンド恵比寿ビル８Ｆ,,13,113,1500021,,,,,,,2025-10-24,1,,,,,ヴァルティック,0
1111,5011001173003,新規,0,2025-10-24,2025-10-24,株式会社いい不動産屋ＣＯＣＯＬＩＳＴ,,株式会社,東京都,渋谷区,本町１丁目６０番３号,,13,113,1510071,,,,,,,2025-10-24,1,,,,,イイフドウサンヤココリスト,0
1112,5011003022835,新規,0,2025-10-24,2025-10-24,合同会社結彩,,合同会社,東京都,渋谷区,恵比寿１丁目７番２号エビスオークビル２－５３,,13,113,1500013,,,,,,,2025-10-24,1,,,,,ユイサイ,0
1115,5011101113635,新規,0,2025-10-24,2025-10-24,株式会社ＪＤ,,株式会社,東京都,新宿区,大久保２丁目１９－４いせ市ビル３Ｆ,,13,104,1690072,,,,,,,2025-10-24,1,,,,,ジェイディ,0
1116,5011101113643,新規,0,2025-10-24,2025-10-24,株式会社Ｂｏｕｎｃｅ　Ｂａｃｋ,,株式会社,東京都,新宿区,上落合１丁目５番５号ＴｏｋｙｏＰａｒｔｎｅｒ新宿館,,13,104,1610034,,,,,,,2025-10-24,1,,,,,バウンスバック,0
1120,5011103016539,新規,0,2025-10-24,2025-10-24,合同会社Ｙ＆Ｙ　Ｌａｂ,,合同会社,東京都,新宿区,新宿１丁目３６－２新宿第七葉山ビル３Ｆ,,13,104,1600022,,,,,,,2025-10-24,1,,,,,ワイワイラボ,0
1121,5011103016571,新規,0,2025-10-24,2025-10-24,合同会社ナカムラ,,合同会社,東京都,新宿区,新宿３丁目３６番１４号２Ｆ,,13,104,1600022,,,,,,,2025-10-24,1,,,,,ナカムラ,0
1125,5011401027502,新規,0,2025-10-24,2025-10-24,株式会社ＴＳＵＮＡＧＵ,,株式会社,東京都,板橋区,小豆沢４丁目２４番１０コスモ板橋小豆沢４０４号,,13,119,1740051,,,,,,,2025-10-24,1,,,,,ツナグ,0
1131,5011701028877,新規,0,2025-10-24,2025-10-24,株式会社Ｔｒｙｍ’ｓ,,株式会社,東京都,江戸川区,北小岩６丁目７番７号,,13,123,1330051,,,,,,,2025-10-24,1,,,,,トライムズ,0
1135,5012403007426,新規,0,2025-10-24,2025-10-24,合同会社ドッグ,,合同会社,東京都,武蔵野市,吉祥寺本町１丁目１７番９号山田ビル１Ｆ,,13,203,1800004,,,,,,,2025-10-24,1,,,,,ドッグ,0
1147,5020001165100,新規,0,2025-10-24,2025-10-24,ＢＡＹＷＯＲＬＤ株式会社,,株式会社,神奈川県,横浜市中区,桜木町１丁目１０１－１,,14,104,2310062,,,,,,,2025-10-24,1,,,,,ベイワールド,0
1148,5020001165422,新規,0,2025-10-24,2025-10-24,楷宥繊維株式会社,,株式会社,神奈川県,横浜市鶴見区,生麦３丁目１３番３３号,,14,101,2300052,,,,,,,2025-10-24,1,,,,,カイヨウセンイ,0
1149,5020001165439,新規,0,2025-10-24,2025-10-24,株式会社シンノオホールディングス,,株式会社,神奈川県,横浜市旭区,二俣川１丁目４６番１１号ふじやビル２０１,,14,112,2410821,,,,,,,2025-10-24,1,,,,,シンノオホールディングス,0
1161,5021001086658,新規,0,2025-10-24,2025-10-24,ＣＡＲ　ＣＡＲ株式会社,,株式会社,神奈川県,相模原市南区,新戸２４３４番地４,,14,153,2520326,,,,,,,2025-10-24,1,,,,,,0
1162,5021003016745,新規,0,2025-10-24,2025-10-24,ルイストック合同会社,,合同会社,神奈川県,鎌倉市,津１０６９番地２５９,,14,204,2480032,,,,,,,2025-10-24,1,,,,,ルイストック,0
1170,5030001168911,新規,0,2025-10-24,2025-10-24,株式会社ノルダ,,株式会社,埼玉県,川口市,柳崎１丁目１４番４１号川口グリーンライフ１１０,,11,203,3330861,,,,,,,2025-10-24,1,,,,,ノルダ,0
1171,5030001169331,新規,0,2025-10-24,2025-10-24,Ｙａｂｕｓａｍｅ　Ｍａｒｋｅｔｉｎｇ株式会社,,株式会社,埼玉県,川越市,幸町４－１りそなコエドテラス３Ｆ,,11,201,3500063,,,,,,,2025-10-24,1,,,,,ヤブサメマーケティング,0
1177,5040001141099,新規,0,2025-10-24,2025-10-24,ＯＭＩＤ株式会社,,株式会社,千葉県,四街道市,栗山９５０番地５メゾン栗山１番館１０１,,12,228,2840027,,,,,,,2025-10-24,1,,,,,オミド,0
1178,5040001141124,新規,0,2025-10-24,2025-10-24,株式会社リガーメ,,株式会社,千葉県,佐倉市,上座１４３７番地５,,12,212,2850854,,,,,,,2025-10-24,1,,,,,リガーメ,0
1181,5050001057476,新規,0,2025-10-24,2025-10-24,株式会社Ｏｆｆｉｃｅ　ＡＣＴ,,株式会社,茨城県,下妻市,若柳甲３５２番地,,08,210,3040012,,,,,,,2025-10-24,1,,,,,オフィスアクト,0
1182,5050001057484,新規,0,2025-10-24,2025-10-24,ＣＨＩＴＲＡＫＡＬＡ株式会社,,株式会社,茨城県,石岡市,東光台４丁目１番２５号,,08,205,3150033,,,,,,,2025-10-24,1,,,,,チェトラカラ,0
1183,5050001057492,新規,0,2025-10-24,2025-10-24,株式会社ＳＵＤＡＩＳ　ＴＲＡＤＩＮＧ,,株式会社,茨城県,常総市,向石下９５番地１,,08,211,3002742,,,,,,,2025-10-24,1,,,,,スデーストレーディング,0
1186,5060001038707,新規,0,2025-10-24,2025-10-24,ＦＩＮＥＴＥＣＨ株式会社,,株式会社,栃木県,宇都宮市,西刑部町２４０６番地８,,09,201,3210917,,,,,,,2025-10-24,1,,,,,ファインテック,0
1195,5090005007746,新規,0,2025-10-24,2025-10-24,特定非営利活動法人おたがいさまの家,,その他の設立登記法人,山梨県,甲府市,荒川２丁目１０番３０号ヴァンヴェール荒川Ｍ棟Ｄ号,,19,201,4000061,,,,,,,2025-10-24,1,,,,,オタガイサマノイエ,0
1197,5100001039072,新規,0,2025-10-24,2025-10-24,株式会社豊満翔,,株式会社,長野県,長野市,大字大豆島５０番地３３,,20,201,3810022,,,,,,,2025-10-24,1,,,,,ホウマンショウ,0
1207,5120001280863,新規,0,2025-10-24,2025-10-24,株式会社ＩＦＣ,,株式会社,大阪府,枚方市,北中振１丁目２番５号,,27,210,5730064,,,,,,,2025-10-24,1,,,,,アイエフシー,0
1208,5120001280954,新規,0,2025-10-24,2025-10-24,ＢｙｔｅＢｉｔｅｓ株式会社,,株式会社,大阪府,大阪市天王寺区,伶人町２－３１ＳｔａｒＯｆｆｉｃｅ大阪天王寺北９０５号室,,27,109,5430061,,,,,,,2025-10-24,1,,,,,バイトバイツ,0
1209,5120001280987,新規,0,2025-10-24,2025-10-24,株式会社エムフィールド・コーポレーション,,株式会社,大阪府,大阪市中央区,南船場１丁目１１番９号,,27,128,5420081,,,,,,,2025-10-24,1,,,,,エムフィールドコーポレーション,0
1210,5120001281341,新規,0,2025-10-24,2025-10-24,株式会社ＨＯＲＹＮＴ,,株式会社,大阪府,大阪市都島区,東野田町４丁目１２－１０サントーレ東野田３０１,,27,102,5340024,,,,,,,2025-10-24,1,,,,,ホリント,0
1211,5120001281416,新規,0,2025-10-24,2025-10-24,Ｏ＆Ｏ株式会社,,株式会社,大阪府,大阪市住吉区,杉本１丁目９－１６グランビルドアビコＩＩ－４０５号,00141259,27,120,5580022,,,,,,,2025-10-24,1,,,,,オーアンドオー,0
1212,5120001281440,新規,0,2025-10-24,2025-10-24,和潤株式会社,,株式会社,大阪府,大阪市阿倍野区,西田辺町２丁目２番２３号エクラ阿倍野３Ｂ,,27,119,5450014,,,,,,,2025-10-24,1,,,,,ワジュン,0
1213,5120003031059,新規,0,2025-10-24,2025-10-24,ＨＡＮＡ　ＨＯＴＥＬ　ＪＡＰＡＮ合同会社,,合同会社,大阪府,大阪市中央区,島之内２丁目４番１６号ケイアンドティ道頓堀４０６号,,27,128,5420082,,,,,,,2025-10-24,1,,,,,ハナホテルジャパン,0
1218,5120901051678,新規,0,2025-10-24,2025-10-24,株式会社ＭＩＬＳＨＥ,,株式会社,大阪府,豊中市,岡町南１丁目１－２２,,27,203,5610883,,,,,,,2025-10-24,1,,,,,ミルシェ,0
1220,5122001039793,新規,0,2025-10-24,2025-10-24,株式会社エイチホールディングス,,株式会社,大阪府,東大阪市,荒本西４丁目４番１５号,,27,227,5770024,,,,,,,2025-10-24,1,,,,,エイチホールディングス,0
1221,5122001039810,新規,0,2025-10-24,2025-10-24,株式会社Ａｔｔａｋａａｉ,,株式会社,大阪府,八尾市,南木の本６丁目５７番地の１サンハイツ八尾南１－７１２号,,27,212,5810042,,,,,,,2025-10-24,1,,,,,アッタカイ,0
1230,5130005017492,新規,0,2025-10-24,2025-10-24,一般社団法人美容医療よし田,,その他の設立登記法人,京都府,京都市中京区,御幸町通御池上る亀屋町３７９番１コンフォール御幸町御池フェルテ１０１,,26,104,6040941,,,,,,,2025-10-24,1,,,,,ビヨウイリョウヨシダ,0
1233,5140001140512,新規,0,2025-10-24,2025-10-24,株式会社六和電気,,株式会社,兵庫県,姫路市,砥堀３１３番地１１,,28,201,6700802,,,,,,,2025-10-24,1,,,,,ロクワデンキ,0
1234,5140001140520,新規,0,2025-10-24,2025-10-24,Ｓｅｒｉｏｕｓ　Ｉｎｆｏｒｍａｔｉｏｎ　Ｔｅｃｈｎｏｌｏｇｙ株式会社,,株式会社,兵庫県,尼崎市,西向島町９６－３０１号室,,28,202,6600857,,,,,,,2025-10-24,1,,,,,シリアスインフォメーションテクノロジー,0
1238,5140003022774,新規,0,2025-10-24,2025-10-24,合同会社レンカファクトリー,,合同会社,兵庫県,神戸市兵庫区,下沢通１丁目４番６－１１０１号,,28,105,6520047,,,,,,,2025-10-24,1,,,,,レンカファクトリー,0
1250,5180001169234,新規,0,2025-10-24,2025-10-24,株式会社Ｍｉｒｉｓ,,株式会社,愛知県,海部郡大治町,大字長牧字前田１２１,,23,424,4901131,,,,,,,2025-10-24,1,,,,,ミリス,0
1257,5180003029270,新規,0,2025-10-24,2025-10-24,合同会社名城若葉會,,合同会社,愛知県,名古屋市中区,栄３丁目３５番２１号菱家ビル２－７,,23,106,4600008,,,,,,,2025-10-24,1,,,,,メイジョウワカバカイ,0
1258,5180003029287,新規,0,2025-10-24,2025-10-24,合同会社和真,,合同会社,愛知県,名古屋市名東区,引山１丁目１０７番地プリオール名東引山２０１号,,23,115,4650002,,,,,,,2025-10-24,1,,,,,ワシン,0
1265,5220001026991,新規,0,2025-10-24,2025-10-24,株式会社Ｋ＆Ｍ．ＣＯ．，Ｌｔｄ．,,株式会社,石川県,羽咋郡宝達志水町,今浜ト１７番地１０,,17,386,9291344,,,,,,,2025-10-24,1,,,,,ケーアンドエムコーポレーションリミテッド,0
1271,5270001009315,新規,0,2025-10-24,2025-10-24,株式会社たつみ,,株式会社,鳥取県,鳥取市,弥生町３４７番地,,31,201,6800832,,,,,,,2025-10-24,1,,,,,タツミ,0
1277,5290001111597,新規,0,2025-10-24,2025-10-24,株式会社グローバルユニット,,株式会社,福岡県,大川市,大字榎津７３４,,40,212,8310004,,,,,,,2025-10-24,1,,,,,グローバルユニット,0
1278,5290001111746,新規,0,2025-10-24,2025-10-24,株式会社Ｗａｂｉ　Ｔｏｕｒｓ,,株式会社,福岡県,福岡市東区,香椎照葉７丁目６番４３号,,40,131,8130017,,,,,,,2025-10-24,1,,,,,ワビツアーズ,0
1279,5290001111762,新規,0,2025-10-24,2025-10-24,まるこ株式会社,,株式会社,福岡県,古賀市,玄望園１４－１,,40,223,8113128,,,,,,,2025-10-24,1,,,,,マルコ,0
1285,5310003005118,新規,0,2025-10-24,2025-10-24,合同会社増山,,合同会社,長崎県,長崎市,片淵２丁目１番１７号,,42,201,8500003,,,,,,,2025-10-24,1,,,,,マスヤマ,0
1286,5330001033688,新規,0,2025-10-24,2025-10-24,山恩株式会社,,株式会社,熊本県,熊本市中央区,紺屋今町９番６号,,43,101,8600012,,,,,,,2025-10-24,1,,,,,サンオン,0
1287,5330001033696,新規,0,2025-10-24,2025-10-24,株式会社賢相電設,,株式会社,熊本県,熊本市北区,清水東町２－２５－１０１,,43,105,8618065,,,,,,,2025-10-24,1,,,,,ケンショウデンセツ,0
1301,5390001018139,新規,0,2025-10-24,2025-10-24,株式会社ロカティル,,株式会社,山形県,米沢市,笹野町２４３２番地の２０,,06,202,9921441,,,,,,,2025-10-24,1,,,,,ロカティル,0
1310,5430001095512,新規,0,2025-10-24,2025-10-24,三友観光株式会社,,株式会社,北海道,札幌市東区,北九条東１３丁目２番１８号フリューゲＮ９－３０１号,,01,103,0650009,,,,,,,2025-10-24,1,,,,,サンユウカンコウ,0
1311,5430001095537,新規,0,2025-10-24,2025-10-24,株式会社Ｃｏ‐Ｗｉｌｄ,,株式会社,北海道,勇払郡厚真町,字宇隆５１０番地の５,,01,581,0591622,,,,,,,2025-10-24,1,,,,,コワイルド,0
1317,5700150132666,新規,0,2025-10-24,2025-10-24,ＥＬＩＴＥ　ＭＯＴＥＲＳ,,外国会社等,神奈川県,愛甲郡愛川町,角田４１２６－１６－２０２,,14,401,2430301,スリランカ民主社会主義共和国，ガラハ、メインストリートＮＯ．１２７Ａ,,,,,,2025-10-24,1,,,,,エリートモーターズ,0
1326,6010001259356,新規,0,2025-10-24,2025-10-24,株式会社フルナビ,,株式会社,東京都,中央区,日本橋小伝馬町１０番８号,,13,102,1030001,,,,,,,2025-10-24,1,,,,,フルナビ,0
1327,6010001259604,新規,0,2025-10-24,2025-10-24,株式会社ＨＴＨ,,株式会社,東京都,中央区,銀座４丁目３番１０号,,13,102,1040061,,,,,,,2025-10-24,1,,,,,エイチティエイチ,0
1328,6010001259612,新規,0,2025-10-24,2025-10-24,エフエルシーＮｏ．１１リーシング株式会社,,株式会社,東京都,千代田区,麹町５丁目１番地１,,13,101,1020083,,,,,,,2025-10-24,1,,,,,エフエルシーナンバーイレブンリーシング,0
1334,6010003048906,新規,0,2025-10-24,2025-10-24,合同会社キューティア,,合同会社,東京都,千代田区,外神田６丁目１５－１１日東ビルＢ１,,13,101,1010021,,,,,,,2025-10-24,1,,,,,キューティア,0
1335,6010003049160,新規,0,2025-10-24,2025-10-24,オズリス合同会社,,合同会社,東京都,千代田区,神田和泉町１番地６－１６ヤマトビル４０５,,13,101,1010024,,,,,,,2025-10-24,1,,,,,オズリス,0
1347,6010403036163,新規,0,2025-10-24,2025-10-24,星能一合同会社,,合同会社,東京都,港区,高輪３丁目２５番２２号,,13,103,1080074,,,,,,,2025-10-24,1,,,,,ホシノウイチ,0
1348,6010403036403,新規,0,2025-10-24,2025-10-24,合同会社桜,,合同会社,東京都,港区,麻布十番４丁目４番１－２０２８号,,13,103,1060045,,,,,,,2025-10-24,1,,,,,サクラ,0
1354,6010701048422,新規,0,2025-10-24,2025-10-24,株式会社Ｊａｎｇ　Ｊａｋ　Ｊｉｂ,,株式会社,東京都,品川区,西五反田８丁目１番１３号ＧＢＳ－Ｆ－６,,13,109,1410031,,,,,,,2025-10-24,1,,,,,チャンジャクチプ,0
1356,6010801036640,新規,0,2025-10-24,2025-10-24,株式会社ＤＥＬＩもっと,,株式会社,東京都,大田区,大森中２丁目１４番２８－２０３号,,13,111,1430014,,,,,,,2025-10-24,1,,,,,デリモット,0
1363,6010903010337,新規,0,2025-10-24,2025-10-24,合同会社エムズアセット,,合同会社,東京都,世田谷区,赤堤４丁目３２番１４号ユニテ世田谷赤堤Ｂ棟１０８,,13,112,1560044,,,,,,,2025-10-24,1,,,,,エムズアセット,0
1370,6011001172763,新規,0,2025-10-24,2025-10-24,株式会社ノートル・シエクル,,株式会社,東京都,渋谷区,道玄坂１丁目２０番３号ＣＯＥＲＵＳＨＩＢＵＹＡ６階,,13,113,1500043,,,,,,,2025-10-24,1,,,,,ノートルシエクル,0
1371,6011001172961,新規,0,2025-10-24,2025-10-24,Ｈａｎａ　ＡＩ株式会社,,株式会社,東京都,渋谷区,神南１丁目１１－４ＦＰＧリンクス神南５階,,13,113,1500041,,,,,,,2025-10-24,1,,,,,ハナエーアイ,0
1372,6011001172978,新規,0,2025-10-24,2025-10-24,中小企業Ｗｅｂ集客支援株式会社,,株式会社,東京都,渋谷区,恵比寿西２丁目４番８号ウィンド恵比寿ビル８Ｆ,,13,113,1500021,,,,,,,2025-10-24,1,,,,,チュウショウキギョウウェブシュウキャクシエン,0
1374,6011003022462,新規,0,2025-10-24,2025-10-24,合同会社ＺＩＰＰＯＮ,,合同会社,東京都,目黒区,下目黒１丁目１番地１４号コノトラビル７Ｆ,,13,110,1530064,,,,,,,2025-10-24,1,,,,,ジッポン,0
1375,6011003022702,新規,0,2025-10-24,2025-10-24,Ｑ合同会社,,合同会社,東京都,渋谷区,桜丘町４番１４号ＶＯＲＴ渋谷桜丘ビル５Ｆ,,13,113,1500031,,,,,,,2025-10-24,1,,,,,キュウ,0
1382,6011101113659,新規,0,2025-10-24,2025-10-24,ＮＳＧ株式会社,,株式会社,東京都,新宿区,高田馬場２丁目３番５号,,13,104,1690075,,,,,,,2025-10-24,1,,,,,エヌエスジー,0
1390,6011501032731,新規,0,2025-10-24,2025-10-24,東富資源株式会社,,株式会社,東京都,荒川区,東日暮里５丁目１１番４号メインステージ東日暮里１００２,,13,118,1160014,,,,,,,2025-10-24,1,,,,,トウフシゲン,0
1391,6011501032748,新規,0,2025-10-24,2025-10-24,ＫＢ株式会社,,株式会社,東京都,荒川区,西日暮里１丁目２－６－４０２,,13,118,1160013,,,,,,,2025-10-24,1,,,,,ケービー,0
1393,6011701028876,新規,0,2025-10-24,2025-10-24,株式会社華鉞晟泰,00141248,株式会社,東京都,江戸川区,一之江３丁目１８－７コーポ百合ＩＩ１０３－Ｂ号室,00141249,13,123,1320024,,,,,,,2025-10-24,1,,,,,カセイセイタイ,0
1394,6011701028884,新規,0,2025-10-24,2025-10-24,株式会社ロッジトラスト,,株式会社,東京都,江戸川区,南小岩１丁目２－１７,,13,123,1330056,,,,,,,2025-10-24,1,,,,,ロッジトラスト,0
1398,6012403007425,新規,0,2025-10-24,2025-10-24,合同会社ロンノ,,合同会社,東京都,武蔵野市,吉祥寺本町１丁目２２番１号第三柏栄ビルＢ１Ｆ,,13,203,1800004,,,,,,,2025-10-24,1,,,,,ロンノ,0
1399,6012803003908,新規,0,2025-10-24,2025-10-24,合同会社ＴＤＫ,,合同会社,東京都,日野市,栄町４丁目１３番地２,,13,212,1910001,,,,,,,2025-10-24,1,,,,,ティーディーケイ,0
1414,6020001165347,新規,0,2025-10-24,2025-10-24,美和商事株式会社,,株式会社,神奈川県,横浜市中区,本牧元町２９番１８号,,14,104,2310822,,,,,,,2025-10-24,1,,,,,ミワショウジ,0
1415,6020001165388,新規,0,2025-10-24,2025-10-24,株式会社オール・Ａ,,株式会社,神奈川県,川崎市中原区,中丸子５９６番地１６サンハイツ２０１,,14,133,2110012,,,,,,,2025-10-24,1,,,,,オールエー,0
1416,6020001165405,新規,0,2025-10-24,2025-10-24,ＯＲＢＩＳ　ＴＲＡＤＩＮＧ株式会社,,株式会社,神奈川県,川崎市幸区,東小倉１５－３３－１０３,,14,132,2120033,,,,,,,2025-10-24,1,,,,,オルビストレーディング,0
1417,6020001165421,新規,0,2025-10-24,2025-10-24,株式会社ゆみらいＨＯＭＥ,,株式会社,神奈川県,横浜市旭区,今宿東町８４３番地５７,,14,112,2410032,,,,,,,2025-10-24,1,,,,,ユミライホーム,0
1418,6020001165462,新規,0,2025-10-24,2025-10-24,株式会社ｃａｌｍ,,株式会社,神奈川県,川崎市中原区,小杉町３丁目４２８番地小杉山協ビル５０４,,14,133,2110063,,,,,,,2025-10-24,1,,,,,カーム,0
1419,6020001165487,新規,0,2025-10-24,2025-10-24,株式会社道建,,株式会社,神奈川県,横浜市神奈川区,三ツ沢西町１１番４３－３号,,14,102,2210855,,,,,,,2025-10-24,1,,,,,ミチケン,0
1422,6020003029608,新規,0,2025-10-24,2025-10-24,合同会社ＯＮＥＣＨＡＮ,,合同会社,神奈川県,横浜市西区,戸部本町２－１５－１Ｆ,,14,103,2200041,,,,,,,2025-10-24,1,,,,,ワンチャン,0
1423,6021001086649,新規,0,2025-10-24,2025-10-24,株式会社Ｍ‐ａｓｔ,,株式会社,神奈川県,相模原市中央区,東淵野辺１丁目２２－５Ｕ－プリムラ２０６,,14,152,2520203,,,,,,,2025-10-24,1,,,,,マスト,0
1424,6021001086657,新規,0,2025-10-24,2025-10-24,株式会社Ｌｉｎｋ,,株式会社,神奈川県,厚木市,鳶尾４丁目３番６号グランツ１０３号室,,14,212,2430204,,,,,,,2025-10-24,1,,,,,リンク,0
1426,6021003016744,新規,0,2025-10-24,2025-10-24,合同会社ＦＡＫＥＲＳ,,合同会社,神奈川県,藤沢市,辻堂東海岸１丁目１５番５号,,14,205,2510045,,,,,,,2025-10-24,1,,,,,フェイカース,0
1445,6040001141032,新規,0,2025-10-24,2025-10-24,株式会社ＨＡＮＡＴＳＵＭＩ,,株式会社,千葉県,流山市,おおたかの森北１丁目４番地の１ソライエグラン流山おおたかの森１５０６,,12,220,2700119,,,,,,,2025-10-24,1,,,,,ハナツミ,0
1446,6040001141098,新規,0,2025-10-24,2025-10-24,ガーラインターナショナル株式会社,,株式会社,千葉県,野田市,宮崎１５５番地の１２,,12,208,2780005,,,,,,,2025-10-24,1,,,,,ガーラインターナショナル,0
1447,6040001141123,新規,0,2025-10-24,2025-10-24,株式会社マカナ,,株式会社,千葉県,四街道市,南波佐間４２４番地３,,12,228,2840034,,,,,,,2025-10-24,1,,,,,マカナ,0
1450,6040003028855,新規,0,2025-10-24,2025-10-24,合同会社プラーナさくら,,合同会社,千葉県,佐倉市,上志津１７７８－１５５,,12,212,2850846,,,,,,,2025-10-24,1,,,,,プラーナサクラ,0
1453,6050001057491,新規,0,2025-10-24,2025-10-24,株式会社ＲＳ　Ｌｉｎｋ,,株式会社,茨城県,つくば市,小野崎１１０１番地１,,08,220,3050034,,,,,,,2025-10-24,1,,,,,アールエスリンク,0
1454,6050001057500,新規,0,2025-10-24,2025-10-24,株式会社ＳＯＵＫＥＮ,,株式会社,茨城県,水戸市,元吉田町１７６２番地の３,,08,201,3100836,,,,,,,2025-10-24,1,,,,,ソウケン,0
1462,6080001027228,新規,0,2025-10-24,2025-10-24,株式会社豚豚拍子,,株式会社,静岡県,静岡市清水区,万世町１丁目４番３号,,22,103,4240826,,,,,,,2025-10-24,1,,,,,トントンビョウシ,0
1465,6100003008446,新規,0,2025-10-24,2025-10-24,クックＯｎｅ合同会社,,合同会社,長野県,長野市,川中島町今里１５８８,,20,201,3812234,,,,,,,2025-10-24,1,,,,,クックワン,0
1485,6120001280953,新規,0,2025-10-24,2025-10-24,Ｓｉｎｇｕｌａｒｉｔｙ株式会社,,株式会社,大阪府,大阪市天王寺区,伶人町２－３１ＳｔａｒＯｆｆｉｃｅ大阪天王寺北５０６号室,,27,109,5430061,,,,,,,2025-10-24,1,,,,,シンギュラリティ,0
1486,6120001281258,新規,0,2025-10-24,2025-10-24,広源匯株式会社,,株式会社,大阪府,大阪市東成区,東小橋１丁目１７番３１－７１３号,,27,115,5370024,,,,,,,2025-10-24,1,,,,,コウゲンカイ,0
1487,6120001281299,新規,0,2025-10-24,2025-10-24,懌宸株式会社,,株式会社,大阪府,大阪市北区,黒崎町３－２６－１Ｃ,,27,127,5300023,,,,,,,2025-10-24,1,,,,,エキシン,0
1488,6120001281423,新規,0,2025-10-24,2025-10-24,株式会社Ｋ‐Ｌｉｎｋ,,株式会社,大阪府,大阪市東住吉区,今林２丁目６番３号,,27,121,5460001,,,,,,,2025-10-24,1,,,,,ケーリンク,0
1496,6120003030992,新規,0,2025-10-24,2025-10-24,一小記合同会社,,合同会社,大阪府,大阪市西成区,萩之茶屋２丁目６番４号ニューかもめ１１６号室,,27,122,5570004,,,,,,,2025-10-24,1,,,,,イチショウキ,0
1497,6120003031009,新規,0,2025-10-24,2025-10-24,ａ１ｐｌｕｓ合同会社,,合同会社,大阪府,大阪市中央区,南船場３丁目２番２２号おおきに南船場ビル２０５,,27,128,5420081,,,,,,,2025-10-24,1,,,,,エーワンプラス,0
1500,6120901051644,新規,0,2025-10-24,2025-10-24,トレランス株式会社,,株式会社,大阪府,高槻市,安岡寺町４丁目３番２１号,,27,207,5691029,,,,,,,2025-10-24,1,,,,,トレランス,0
1501,6120901051660,新規,0,2025-10-24,2025-10-24,株式会社匠ブレーダー,,株式会社,大阪府,豊中市,緑丘２丁目７番７の１号,,27,203,5600002,,,,,,,2025-10-24,1,,,,,タクミブレーダー,0
1505,6122003003367,新規,0,2025-10-24,2025-10-24,ＱＵＯＣ　ＲＥＡＬ　ＥＳＴＡＴＥ合同会社,,合同会社,大阪府,八尾市,佐堂町３丁目４－２０ディバージョン久宝寺３０５号,,27,212,5810816,,,,,,,2025-10-24,1,,,,,クォックリアルエステート,0
1512,6140001140536,新規,0,2025-10-24,2025-10-24,大神ホールディングス株式会社,,株式会社,兵庫県,神戸市兵庫区,駅前通３丁目１番５－１号,,28,105,6520898,,,,,,,2025-10-24,1,,,,,ダイシンホールディングス,0
1516,6140003022757,新規,0,2025-10-24,2025-10-24,合同会社和の家,,合同会社,兵庫県,揖保郡太子町,蓮常寺８８番地６,,28,464,6711535,,,,,,,2025-10-24,1,,,,,ワノイエ,0
1518,6140005027671,新規,0,2025-10-24,2025-10-24,一般社団法人Ｌｉｖｅ　Ｖｉｅｗ,,その他の設立登記法人,兵庫県,神戸市北区,桜森町１３番地の１,,28,109,6511214,,,,,,,2025-10-24,1,,,,,ライブビュー,0
1519,6150003003731,新規,0,2025-10-24,2025-10-24,合同会社オプティブースト,,合同会社,奈良県,奈良市,佐紀町４７－１岡本ビル３階２号室,,29,201,6308003,,,,,,,2025-10-24,1,,,,,オプティブースト,0
1520,6160005011459,新規,0,2025-10-24,2025-10-24,特定非営利活動法人あそびが寺,,その他の設立登記法人,滋賀県,愛知郡愛荘町,沓掛６３３,,25,425,5291315,,,,,,,2025-10-24,1,,,,,アソビガテラ,0
1536,6180001169175,新規,0,2025-10-24,2025-10-24,株式会社ＳｉＭＯＯＮライン,,株式会社,愛知県,春日井市,篠木町６丁目２４２９番地２,,23,206,4860851,,,,,,,2025-10-24,1,,,,,シムーンライン,0
1537,6180001169225,新規,0,2025-10-24,2025-10-24,株式会社テラデン,,株式会社,愛知県,名古屋市西区,木前町６１番地,,23,104,4520834,,,,,,,2025-10-24,1,,,,,テラデン,0
1546,6180003029278,新規,0,2025-10-24,2025-10-24,合同会社モーニンググローリー,,合同会社,愛知県,名古屋市緑区,姥子山５丁目９２０番地,,23,114,4580830,,,,,,,2025-10-24,1,,,,,モーニンググローリー,0
1549,6190001032638,新規,0,2025-10-24,2025-10-24,神明建設株式会社,,株式会社,三重県,鈴鹿市,深溝町１７７２番地,,24,207,5190321,,,,,,,2025-10-24,1,,,,,シンメイケンセツ,0
1556,6240005016004,新規,0,2025-10-24,2025-10-24,一般社団法人日本シリアフォーラム,,その他の設立登記法人,広島県,廿日市市,河津原６５番地１３,,34,213,7380204,,,,,,,2025-10-24,1,,,,,ニホンシリアフォーラム,0
1557,6250003003837,新規,0,2025-10-24,2025-10-24,Ｃｏｒｎ　Ｓｏｕｐ合同会社,,合同会社,山口県,長門市,仙崎３１３番１号,,35,211,7594106,,,,,,,2025-10-24,1,,,,,コーンスープ,0
1559,6260001040682,新規,0,2025-10-24,2025-10-24,株式会社ＢｅａｒＬｉｎｅ,,株式会社,岡山県,岡山市北区,尾上１４５７番地１,,33,101,7011212,,,,,,,2025-10-24,1,,,,,ベアライン,0
1568,6290001111844,新規,0,2025-10-24,2025-10-24,福岡運行管理株式会社,,株式会社,福岡県,福岡市博多区,吉塚１丁目２２番３６－１号,00141245,40,132,8120041,,,,,,,2025-10-24,1,,,,,フクオカウンコウカンリ,0
1577,6330001033687,新規,0,2025-10-24,2025-10-24,からかわフルーツ農園株式会社,,株式会社,熊本県,宇城市,不知火町長崎１４１０番地５,,43,213,8690562,,,,,,,2025-10-24,1,,,,,カラカワフルーツノウエン,0
1578,6330001033695,新規,0,2025-10-24,2025-10-24,株式会社Ｃｌａｓｓｉｃ,,株式会社,熊本県,水俣市,浜町２丁目５番９号,,43,205,8670065,,,,,,,2025-10-24,1,,,,,クラシック,0
1593,6390001018138,新規,0,2025-10-24,2025-10-24,株式会社プライムゲートホールディングス,,株式会社,山形県,山形市,流通センター１丁目１６番地の２,,06,201,9900071,,,,,,,2025-10-24,1,,,,,プライムゲートホールディングス,0
1598,6420001019306,新規,0,2025-10-24,2025-10-24,株式会社笹田,,株式会社,青森県,八戸市,大字白銀町字佐部長根２４番地１１８６,,02,203,0310822,,,,,,,2025-10-24,1,,,,,,0
1602,6430002066998,新規,0,2025-10-24,2025-10-24,有限会社恵庭小森,,有限会社,北海道,恵庭市,北島１８０番地７,,01,231,0611366,,,,,,,2025-10-24,1,,,,,エニワコモリ,0
1605,6430003018016,新規,0,2025-10-24,2025-10-24,カツベ工業合同会社,,合同会社,北海道,札幌市北区,太平十一条４丁目８番１７号,,01,102,0028011,,,,,,,2025-10-24,1,,,,,カツベコウギョウ,0
1612,6700150132252,新規,0,2025-10-24,2025-10-24,ＡｓｔｒａＺｅｎｅｃａ　ＵＫ　Ｌｉｍｉｔｅｄ,,外国会社等,,,,,,,,１　Ｆｒａｎｃｉｓ　Ｃｒｉｃｋ　Ａｖｅｎｕｅ，Ｃａｍｂｒｉｄｇｅ　Ｂｉｏｍｅｄｉｃａｌ　Ｃａｍｐｕｓ，Ｃａｍｂｒｉｄｇｅ．Ｕｎｉｔｅｄ　Ｋｉｎｇｄｏｍ,,,,,,2025-10-24,1,,,,,アストラゼネカユーケーリミテツド,0
1613,6700150132665,新規,0,2025-10-24,2025-10-24,ＵＮＩＱＵＥ　ＤＵＢＡＩ　ＳＴＹＬＥ,,外国会社等,奈良県,桜井市,大字吉備７６０番地６－１,,29,206,6330065,スリランカ民主社会主義共和国、デヒワラ、ヒルストリート、Ｎｏ．１８６Ａ,,,,,,2025-10-24,1,,,,,ユニークドウバイスタイル,0
1618,7010001259751,新規,0,2025-10-24,2025-10-24,ビー＆アール株式会社,,株式会社,東京都,中央区,銀座６丁目６－１,,13,102,1040061,,,,,,,2025-10-24,1,,,,,ビーアンドアール,0
1623,7010003049093,新規,0,2025-10-24,2025-10-24,合同会社ＰＰＣ,,合同会社,東京都,千代田区,神田和泉町１番地６－１６ヤマトビル４０５,,13,101,1010024,,,,,,,2025-10-24,1,,,,,ピーピーシー,0
1624,7010003049110,新規,0,2025-10-24,2025-10-24,合同会社京町家再生ファンド,,合同会社,東京都,中央区,日本橋兜町３番１１号三田証券株式会社内,,13,102,1030026,,,,,,,2025-10-24,1,,,,,キョウマチカサイセイファンド,0
1626,7010005040827,新規,0,2025-10-24,2025-10-24,イニシア１一般社団法人,,その他の設立登記法人,東京都,中央区,日本橋１丁目４番１号,,13,102,1030027,,,,,,,2025-10-24,1,,,,,イニシアワン,0
1627,7010005040835,新規,0,2025-10-24,2025-10-24,一般社団法人経済経営研究所,,その他の設立登記法人,東京都,中央区,銀座１丁目１２－４Ｎ＆ＥＢＬＤ．７階,,13,102,1040061,,,,,,,2025-10-24,1,,,,,ケイザイケイエイケンキュウジョ,0
1632,7010401193591,新規,0,2025-10-24,2025-10-24,Ｔｅｒｒａ　Ｄｅｎｋｏ株式会社,,株式会社,東京都,港区,高輪２丁目１７－１１オーク高輪ビル５階,,13,103,1080074,,,,,,,2025-10-24,1,,,,,テラデンコー,0
1634,7010403036303,新規,0,2025-10-24,2025-10-24,合同会社なかふく,,合同会社,東京都,港区,六本木５丁目１６番５２号インペリアル六本木２号館Ｂ１,,13,103,1060032,,,,,,,2025-10-24,1,,,,,ナカフク,0
1639,7010503008053,新規,0,2025-10-24,2025-10-24,ｍｅｔｉｃｕｌｏｕｓ合同会社,,合同会社,東京都,台東区,寿２丁目９－２青木ビル１Ｆ,,13,106,1110042,,,,,,,2025-10-24,1,,,,,マティキュラス,0
1643,7010601068164,新規,0,2025-10-24,2025-10-24,株式会社Ｒｏａｄ　Ｃａｒｅｅｒ,,株式会社,東京都,江東区,青海１丁目１－２０ダイバーシティ東京オフィスタワー１２階,,13,108,1350064,,,,,,,2025-10-24,1,,,,,ロードキャリア,0
1655,7011001172985,新規,0,2025-10-24,2025-10-24,株式会社Ｃｒａｆｔ,,株式会社,東京都,渋谷区,円山町１５番８号ミディアス渋谷ＷＥＳＴ１０１,,13,113,1500044,,,,,,,2025-10-24,1,,,,,クラフト,0
1656,7011003022635,新規,0,2025-10-24,2025-10-24,合同会社水と建物,,合同会社,東京都,渋谷区,神泉町１０番１７号コルベール神泉２Ｆ,,13,113,1500045,,,,,,,2025-10-24,1,,,,,ミズトタテモノ,0
1657,7011003022841,新規,0,2025-10-24,2025-10-24,合同会社いなづま,,合同会社,東京都,渋谷区,道玄坂１丁目１０番８号渋谷道玄坂東急ビル２Ｆ‐Ｃ,,13,113,1500043,,,,,,,2025-10-24,1,,,,,イナヅマ,0
1661,7011103016537,新規,0,2025-10-24,2025-10-24,ｓｅｃｒｅｔ　ｓｅｒｖｉｃｅ合同会社,,合同会社,東京都,新宿区,西新宿６丁目５番１号,,13,104,1600023,,,,,,,2025-10-24,1,,,,,シークレットサービス,0
1664,7011503006732,新規,0,2025-10-24,2025-10-24,合同会社Ｔｅａｍ．ＴＯ,,合同会社,東京都,北区,上十条２丁目８－１１十条ＭＫハウス２０１,,13,117,1140034,,,,,,,2025-10-24,1,,,,,チームティーオー,0
1665,7011503006749,新規,0,2025-10-24,2025-10-24,合同会社ＳｈｒｉｍｐＢａｎｋ,,合同会社,東京都,北区,豊島５丁目２番２０－７０６号,,13,117,1140003,,,,,,,2025-10-24,1,,,,,シュリンプバンク,0
1670,7011703004437,新規,0,2025-10-24,2025-10-24,合同会社ユニグラッド,,合同会社,東京都,江戸川区,大杉１丁目７番１１－１０６号,,13,123,1320022,,,,,,,2025-10-24,1,,,,,ユニグラッド,0
1672,7011803007158,新規,0,2025-10-24,2025-10-24,合同会社ＵＮＩＴＥＤ　ＣＯＲＥ,,合同会社,東京都,葛飾区,西新小岩４丁目４０番１５号近岡コーポ２、２０２,,13,122,1240025,,,,,,,2025-10-24,1,,,,,ユナイテッドコア,0
1673,7012401043710,新規,0,2025-10-24,2025-10-24,株式会社Ｆｕｓｉｏｎ,,株式会社,東京都,三鷹市,深大寺１丁目２番１７号,,13,204,1810016,,,,,,,2025-10-24,1,,,,,フュージョン,0
1675,7012403007424,新規,0,2025-10-24,2025-10-24,合同会社Ｅｇｇ,,合同会社,東京都,武蔵野市,吉祥寺本町１丁目２３番３号とみふくビルＢ１Ｃ室,,13,203,1800004,,,,,,,2025-10-24,1,,,,,エッグ,0
1677,7013101009844,新規,0,2025-10-24,2025-10-24,ＳＫＹ　Ｔｅｃｈ株式会社,,株式会社,東京都,羽村市,羽東１丁目２２番地３－２Ｆ,,13,227,2050014,,,,,,,2025-10-24,1,,,,,スカイテク,0
1687,7020001164991,新規,0,2025-10-24,2025-10-24,株式会社オリエンタルスパーク,,株式会社,神奈川県,横浜市金沢区,泥亀１丁目２８番Ｃ－１００７号,,14,108,2360021,,,,,,,2025-10-24,1,,,,,オリエンタルスパーク,0
1688,7020001165437,新規,0,2025-10-24,2025-10-24,株式会社ケリー企画,,株式会社,神奈川県,横浜市神奈川区,反町２丁目１５番地６サンライフ反町８０１号,,14,102,2210825,,,,,,,2025-10-24,1,,,,,ケリーキカク,0
1690,7020003029581,新規,0,2025-10-24,2025-10-24,合同会社パインリンクス,,合同会社,神奈川県,横浜市港北区,日吉本町１丁目３１番８－３号,,14,109,2230062,,,,,,,2025-10-24,1,,,,,パインリンクス,0
1691,7020003029648,新規,0,2025-10-24,2025-10-24,合同会社Ｂｅｌｌｅ　ｍｉｙ,,合同会社,神奈川県,川崎市高津区,北見方１丁目１６番１６号２,,14,134,2130005,,,,,,,2025-10-24,1,,,,,ベルミー,0
1692,7020003029656,新規,0,2025-10-24,2025-10-24,合同会社麻布トランスポート,,合同会社,神奈川県,横浜市南区,永田東１丁目８－６フォレスタ井土ヶ谷２－２０１,,14,105,2320072,,,,,,,2025-10-24,1,,,,,アザブトランスポート,0
1693,7020003029672,新規,0,2025-10-24,2025-10-24,ＤＩＣＥ合同会社,,合同会社,神奈川県,横浜市都筑区,加賀原１丁目４４番８－１０４号,,14,118,2240055,,,,,,,2025-10-24,1,,,,,ダイス,0
1695,7021001086648,新規,0,2025-10-24,2025-10-24,株式会社ヤルキ,,株式会社,神奈川県,三浦市,南下浦町金田字宮ノ脇２７６－１,,14,210,2380103,,,,,,,2025-10-24,1,,,,,ヤルキ,0
1699,7021003016751,新規,0,2025-10-24,2025-10-24,ＭＳＫＹ合同会社,,合同会社,神奈川県,平塚市,黒部丘２５番１１号,,14,203,2540821,,,,,,,2025-10-24,1,,,,,エムエスケイワイ,0
1706,7030001169305,新規,0,2025-10-24,2025-10-24,株式会社ＨＯＯＤ　ＤＯＧＳ,,株式会社,埼玉県,熊谷市,本石１丁目８０番地マルテンビル３０２号室,,11,202,3600815,,,,,,,2025-10-24,1,,,,,フッドドッグス,0
1715,7040001141097,新規,0,2025-10-24,2025-10-24,株式会社池津,,株式会社,千葉県,市原市,五井４００８番地５,,12,219,2900056,,,,,,,2025-10-24,1,,,,,イケヅ,0
1725,7050001057490,新規,0,2025-10-24,2025-10-24,株式会社セレンテック,,株式会社,茨城県,つくば市,高野台２丁目２１番地２,,08,220,3050074,,,,,,,2025-10-24,1,,,,,セレンテック,0
1726,7050001057499,新規,0,2025-10-24,2025-10-24,株式会社日創茨城,,株式会社,茨城県,行方市,井貝８１１番地３９２,,08,233,3113803,,,,,,,2025-10-24,1,,,,,ニッソウイバラキ,0
1735,7090001019578,新規,0,2025-10-24,2025-10-24,ＹＳＫジャパン株式会社,,株式会社,山梨県,北杜市,大泉町谷戸３９１０番地,,19,209,4091502,,,,,,,2025-10-24,1,,,,,ワイエスケイジャパン,0
1739,7100001039062,新規,0,2025-10-24,2025-10-24,株式会社エルストリーム,,株式会社,長野県,上田市,保野１０３９－１３,,20,203,3861321,,,,,,,2025-10-24,1,,,,,エルストリーム,0
1741,7110001039664,新規,0,2025-10-24,2025-10-24,株式会社ひろしさん,,株式会社,新潟県,長岡市,蓮潟４丁目２番８号,00141256,15,202,9402023,,,,,,,2025-10-24,1,,,,,ヒロシサン,0
1754,7120001280779,新規,0,2025-10-24,2025-10-24,株式会社ＧＭ京阪,,株式会社,大阪府,大阪市旭区,清水４丁目１番２号,,27,117,5350021,,,,,,,2025-10-24,1,,,,,ジーエムケイハン,0
1755,7120001281281,新規,0,2025-10-24,2025-10-24,錦昌株式会社,,株式会社,大阪府,大阪市北区,曾根崎新地１丁目８番１９号梅新ビル４０１号室,,27,127,5300002,,,,,,,2025-10-24,1,,,,,キンショウ,0
1756,7120001281406,新規,0,2025-10-24,2025-10-24,Ｍｅｔｒｏｈｏｕｓｅ株式会社,,株式会社,大阪府,大阪市生野区,鶴橋３丁目１－２８,,27,116,5440031,,,,,,,2025-10-24,1,,,,,メトロハウス,0
1757,7120001281496,新規,0,2025-10-24,2025-10-24,株式会社ＷＡＫ,,株式会社,大阪府,大阪市旭区,清水３丁目３０番１８－２０５号,,27,117,5350021,,,,,,,2025-10-24,1,,,,,ワック,0
1758,7120003031057,新規,0,2025-10-24,2025-10-24,ＤＯＮＧ合同会社,,合同会社,大阪府,大阪市東住吉区,湯里２丁目１３－２－２０１,,27,121,5460013,,,,,,,2025-10-24,1,,,,,ドン,0
1771,7122001039809,新規,0,2025-10-24,2025-10-24,株式会社ｆｐ　ｒｏｏｍ凪,,株式会社,大阪府,八尾市,柏村町１丁目３６番地の４,,27,212,5810022,,,,,,,2025-10-24,1,,,,,エフピールームナギ,0
1786,7140003022772,新規,0,2025-10-24,2025-10-24,はれり合同会社,,合同会社,兵庫県,西宮市,南甲子園１丁目１２番２号,,28,204,6638153,,,,,,,2025-10-24,1,,,,,ハレリ,0
1791,7170001018852,新規,0,2025-10-24,2025-10-24,株式会社ファミリエ,,株式会社,和歌山県,和歌山市,松江１３２５－８,,30,201,6408421,,,,,,,2025-10-24,1,,,,,ファミリエ,0
1801,7180001169208,新規,0,2025-10-24,2025-10-24,株式会社ＶａｎｄＢ,,株式会社,愛知県,名古屋市中区,丸の内１丁目１４番６号,,23,106,4600002,,,,,,,2025-10-24,1,,,,,ヴイアンドビー,0
1807,7180003029260,新規,0,2025-10-24,2025-10-24,合同会社四国中央ソーラーパーク,,合同会社,愛知県,名古屋市中区,栄４丁目１番１号,,23,106,4600008,,,,,,,2025-10-24,1,,,,,シコクチュウオウソーラーパーク,0
1808,7180003029285,新規,0,2025-10-24,2025-10-24,合同会社経理ナビ,,合同会社,愛知県,名古屋市熱田区,中出町２丁目２２番地日比野団地２棟９０６号,,23,109,4560067,,,,,,,2025-10-24,1,,,,,ケイリナビ,0
1821,7270005005663,新規,0,2025-10-24,2025-10-24,一般社団法人森としっぽ,,その他の設立登記法人,鳥取県,東伯郡琴浦町,大字美好３０番地１,,31,371,6892354,,,,,,,2025-10-24,1,,,,,,0
1824,7290001111678,新規,0,2025-10-24,2025-10-24,慈愛株式会社,,株式会社,福岡県,福岡市東区,箱崎４丁目２５番１０－１０６号,,40,131,8120053,,,,,,,2025-10-24,1,,,,,ジアイ,0
1830,7290801031968,新規,0,2025-10-24,2025-10-24,株式会社上村建具,,株式会社,福岡県,北九州市若松区,南二島２丁目３番２４号,,40,103,8080109,,,,,,,2025-10-24,1,,,,,ウエムラタテグ,0
1851,7360005007295,新規,0,2025-10-24,2025-10-24,労働者協同組合配彩おきなわ,,その他の設立登記法人,沖縄県,那覇市,首里末吉町４丁目１－２１－１階,,47,201,9030801,,,,,,,2025-10-24,1,,,,,ハイサイオキナワ,0
1864,7430001095535,新規,0,2025-10-24,2025-10-24,株式会社ＢＵＺＺ,,株式会社,北海道,札幌市豊平区,月寒東二条１８丁目４番１５号,,01,105,0620052,,,,,,,2025-10-24,1,,,,,バズ,0
1878,7500001026598,新規,0,2025-10-24,2025-10-24,海株式会社,,株式会社,愛媛県,今治市,菊間町浜４１９番地,,38,202,7992303,,,,,,,2025-10-24,1,,,,,ウミ,0
1880,7700150132664,新規,0,2025-10-24,2025-10-24,ＪＣＡＳＨ，ＩＮＣ．,,外国会社等,東京都,文京区,音羽１丁目２２番１９－５０２号,,13,105,1120013,ＵＮＩＴ　１８１８　ＰＡＲＫＷＡＹ　ＣＯＲＰＯＲＡＴＥ　ＣＥＮＴＥＲ，ＣＯＲＰＯＲＡＴＥ　ＡＶＥ．ＣＯＲ．ＰＡＲＫＷＡＹ　ＳＴ．，ＦＩＬＩＮＶＥＳＴ，ＡＬＡＢＡＮＧ，ＭＵＮＴＩＮＬＵＰＡ　ＣＩＴＹ,,,,,,2025-10-24,1,,,,,ジェイキャッシュインク,0
1886,8010001259610,新規,0,2025-10-24,2025-10-24,エフエルシーＮｏ．１０リーシング株式会社,,株式会社,東京都,千代田区,麹町５丁目１番地１,,13,101,1020083,,,,,,,2025-10-24,1,,,,,エフエルシーナンバーテンリーシング,0
1887,8010001259627,新規,0,2025-10-24,2025-10-24,晶山国際開発株式会社,,株式会社,東京都,中央区,京橋２丁目２番１号京橋エドグラン２６階,,13,102,1040031,,,,,,,2025-10-24,1,,,,,ショウザンコクサイカイハツ,0
1888,8010001259676,新規,0,2025-10-24,2025-10-24,ＳＳ　Ｃｏｒｓｅ株式会社,,株式会社,東京都,中央区,晴海５丁目１番１７－１８０７号,,13,102,1040053,,,,,,,2025-10-24,1,,,,,エスエスコルセ,0
1889,8010001259734,新規,0,2025-10-24,2025-10-24,ＫＪ００３Ｇｒｏｕｐ株式会社,,株式会社,東京都,千代田区,丸の内２丁目１番１号明治安田生命ビル１１階,,13,101,1000005,,,,,,,2025-10-24,1,,,,,ケイジェイゼロゼロスリーグループ,0
1893,8010003049118,新規,0,2025-10-24,2025-10-24,ネオランド合同会社,,合同会社,東京都,中央区,築地２丁目８番１号,,13,102,1040045,,,,,,,2025-10-24,1,,,,,ネオランド,0
1894,8010003049159,新規,0,2025-10-24,2025-10-24,合同会社Ｃｏｌｌｅｃｔｉｖｅ　Ｃｏｍｐａｎｙ,,合同会社,東京都,中央区,日本橋兜町１７－２兜町第６葉山ビル４Ｆ,,13,102,1030026,,,,,,,2025-10-24,1,,,,,コレクテイブカンパニー,0
1908,8010403036418,新規,0,2025-10-24,2025-10-24,地主・ＫＪＲＭ合同会社,,合同会社,東京都,港区,虎ノ門５丁目１番４号,,13,103,1050001,,,,,,,2025-10-24,1,,,,,ジヌシケイジェイアールエム,0
1910,8010405024916,新規,0,2025-10-24,2025-10-24,一般社団法人国際投資基盤機構,,その他の設立登記法人,東京都,港区,六本木１丁目９番１０号アークヒルズ仙石山森タワー４０階,,13,103,1060032,,,,,,,2025-10-24,1,,,,,コクサイトウシキバンキコウ,0
1914,8010603011880,新規,0,2025-10-24,2025-10-24,合同会社デエカルラート,,合同会社,東京都,江東区,扇橋１丁目２１番５－１２１２号,,13,108,1350011,,,,,,,2025-10-24,1,,,,,デエカルラート,0
1915,8010701048503,新規,0,2025-10-24,2025-10-24,ＰｏＣ　ｃｏｎｓｕｌｔｉｎｇ株式会社,,株式会社,東京都,品川区,東五反田５丁目２３番４号ユニハイツ池田山７０２,,13,109,1410022,,,,,,,2025-10-24,1,,,,,ピーオーシーコンサルティング,0
1916,8010701048511,新規,0,2025-10-24,2025-10-24,株式会社伊甸園,,株式会社,東京都,品川区,北品川２丁目８番１１－８０４号,,13,109,1400001,,,,,,,2025-10-24,1,,,,,イテンエン,0
1920,8010703007969,新規,0,2025-10-24,2025-10-24,Ｓｏｒａ合同会社,,合同会社,東京都,品川区,上大崎２丁目１７番地５号デルダンビル４Ｆ,,13,109,1410021,,,,,,,2025-10-24,1,,,,,ソラ,0
1923,8010905004855,新規,0,2025-10-24,2025-10-24,一般社団法人東京バレーボールカンパニー,,その他の設立登記法人,東京都,世田谷区,深沢７丁目１－１日本体育大学根本研研究室,,13,112,1580081,,,,,,,2025-10-24,1,,,,,トウキョウバレーボールカンパニー,0
1928,8011001173017,新規,0,2025-10-24,2025-10-24,株式会社Ｂａｓｔｅｔ,,株式会社,東京都,渋谷区,神南１丁目１１番４号,,13,113,1500041,,,,,,,2025-10-24,1,,,,,バステト,0
1930,8011003022824,新規,0,2025-10-24,2025-10-24,合同会社グローバサダー,,合同会社,東京都,渋谷区,広尾３丁目３番２号,,13,113,1500012,,,,,,,2025-10-24,1,,,,,グローバサダー,0
1933,8011103016511,新規,0,2025-10-24,2025-10-24,合同会社内田工業,,合同会社,東京都,新宿区,西新宿５丁目２４番１４－１４０３号,,13,104,1600023,,,,,,,2025-10-24,1,,,,,ウチダコウギョウ,0
1934,8011103016536,新規,0,2025-10-24,2025-10-24,合同会社Ｍａｔｕｒｅｕｐ,,合同会社,東京都,新宿区,西新宿６丁目５番１号新宿アイランドタワー２階,,13,104,1600023,,,,,,,2025-10-24,1,,,,,マチュアップ,0
1935,8011103016569,新規,0,2025-10-24,2025-10-24,トライライン・ソフトウェア合同会社,,合同会社,東京都,新宿区,西新宿３丁目３番１３号西新宿水間ビル６Ｆ,,13,104,1600023,,,,,,,2025-10-24,1,,,,,トライラインソフトウェア,0
1936,8011105011618,新規,0,2025-10-24,2025-10-24,一般社団法人日中ＡＣＧ文化交流協会,,その他の設立登記法人,東京都,新宿区,住吉町８－６,,13,104,1620065,,,,,,,2025-10-24,1,,,,,ニッチュウエーシージーブンカコウリュウキョウカイ,0
1947,8011701028882,新規,0,2025-10-24,2025-10-24,株式会社白星インテリア,,株式会社,東京都,江戸川区,本一色１丁目３４番１６－７１０号,,13,123,1330044,,,,,,,2025-10-24,1,,,,,シロボシインテリア,0
1950,8012403007423,新規,0,2025-10-24,2025-10-24,セソアコンサルティング合同会社,,合同会社,東京都,調布市,小島町３丁目６３－２,,13,208,1820026,,,,,,,2025-10-24,1,,,,,セソアコンサルティング,0
1951,8012701019153,新規,0,2025-10-24,2025-10-24,株式会社ＬＩＮＫ,,株式会社,東京都,清瀬市,下宿１丁目１番地１６－５０７号,,13,221,2040001,,,,,,,2025-10-24,1,,,,,リンク,0
1954,8012801024318,新規,0,2025-10-24,2025-10-24,株式会社アイエムメディカル人材紹介,,株式会社,東京都,昭島市,玉川町３丁目５番９号１Ｆ,,13,207,1960034,,,,,,,2025-10-24,1,,,,,アイエムメディカルジンザイショウカイ,0
1962,8020001165493,新規,0,2025-10-24,2025-10-24,株式会社太平洋ルーフ,,株式会社,神奈川県,横浜市保土ケ谷区,藤塚町２２番３１号,,14,106,2400031,,,,,,,2025-10-24,1,,,,,タイヘイヨウルーフ,0
1963,8020001165510,新規,0,2025-10-24,2025-10-24,ＲａｙＺ株式会社,,株式会社,神奈川県,横浜市港北区,綱島西３丁目１２－３１－２,,14,109,2230053,,,,,,,2025-10-24,1,,,,,レイズ,0
1966,8020003029614,新規,0,2025-10-24,2025-10-24,合同会社コスモクリエイト,,合同会社,神奈川県,横浜市保土ケ谷区,霞台４９番７号コスモクリエイト２階,,14,106,2400014,,,,,,,2025-10-24,1,,,,,コスモクリエイト,0
1967,8020003029630,新規,0,2025-10-24,2025-10-24,合同会社ＦＥＬＩＣＥ　ｅｌｅｎａ,,合同会社,神奈川県,横浜市青葉区,すみよし台３５番地１１,,14,117,2270035,,,,,,,2025-10-24,1,,,,,フェリーチェエレナ,0
1968,8020003029639,新規,0,2025-10-24,2025-10-24,Ｂｌｏｏｍｔｅａ合同会社,,合同会社,神奈川県,横浜市西区,浅間町１丁目４番３号ウィザードビル４０２,,14,103,2200072,,,,,,,2025-10-24,1,,,,,ブルームティー,0
1973,8021001086647,新規,0,2025-10-24,2025-10-24,株式会社ＳＨＯＷＯＲＫＳ,,株式会社,神奈川県,茅ヶ崎市,赤松町８番１５－６号メゾンアミスタ辻堂２０１号,,14,207,2530013,,,,,,,2025-10-24,1,,,,,ショーワークス,0
1974,8021001086655,新規,0,2025-10-24,2025-10-24,株式会社ＹＯＢＡＳＨＩＲＩ,,株式会社,神奈川県,厚木市,岡田５丁目１８番３号,,14,212,2430021,,,,,,,2025-10-24,1,,,,,ヨバシリ,0
1975,8021001086663,新規,0,2025-10-24,2025-10-24,株式会社フリオテック,,株式会社,神奈川県,相模原市中央区,由野台２丁目２５番１５号２０４,,14,152,2520222,,,,,,,2025-10-24,1,,,,,フリオテック,0
1978,8021003016750,新規,0,2025-10-24,2025-10-24,合同会社ＦＯＸ,,合同会社,神奈川県,藤沢市,鵠沼橘１丁目３番８号グレイシャスＫ３０３,00141250,14,205,2510024,,,,,,,2025-10-24,1,,,,,フォックス,0
1991,8040001141121,新規,0,2025-10-24,2025-10-24,エナウム株式会社,,株式会社,千葉県,木更津市,八幡台４丁目４番７号,,12,206,2920814,,,,,,,2025-10-24,1,,,,,エナウム,0
1993,8040003028853,新規,0,2025-10-24,2025-10-24,合同会社たつみクリーニング,,合同会社,千葉県,船橋市,新高根４丁目７番１４号,,12,204,2740814,,,,,,,2025-10-24,1,,,,,タツミクリーニング,0
1995,8040005022912,新規,0,2025-10-24,2025-10-24,一般社団法人シニアライフプランニング＆アドバイザリー協議会,,その他の設立登記法人,千葉県,柏市,若柴２２６番地４４中央１４１街区１ＫＯＩＬＴＥＲＲＡＣＥ６階,,12,217,2770871,,,,,,,2025-10-24,1,,,,,シニアライフプランニングアンドアドバイザリーキョウギカイ,0
1999,8050001057498,新規,0,2025-10-24,2025-10-24,株式会社ゆいまーる,,株式会社,茨城県,日立市,東滑川町１丁目３４番７号,,08,202,3170052,,,,,,,2025-10-24,1,,,,,ユイマール,0
2000,8050003009712,新規,0,2025-10-24,2025-10-24,合同会社けあの和,,合同会社,茨城県,龍ケ崎市,上町４６７５－２ラメール・ノバ１０３,,08,208,3010012,,,,,,,2025-10-24,1,,,,,ケアノワ,0
2015,8090001019577,新規,0,2025-10-24,2025-10-24,株式会社日本工芸社,,株式会社,山梨県,笛吹市,石和町市部１０８４番地ハヤカワビル２０４号,,19,211,4060031,,,,,,,2025-10-24,1,,,,,ニホンコウゲイシャ,0
2046,8120001281173,新規,0,2025-10-24,2025-10-24,株式会社ＹＭＴ,,株式会社,大阪府,大阪市城東区,中浜２丁目１５番９－１２０３号,,27,118,5360024,,,,,,,2025-10-24,1,,,,,ワイエムティー,0
2047,8120001281306,新規,0,2025-10-24,2025-10-24,株式会社将進,,株式会社,大阪府,大阪市中央区,高津１丁目３番２２号高津グリーンマンション２０１号室,,27,128,5420072,,,,,,,2025-10-24,1,,,,,ショウジン,0
2048,8120001281322,新規,0,2025-10-24,2025-10-24,株式会社ＳＩＳＵ,,株式会社,大阪府,大阪市北区,同心１丁目１８－３シエリア大阪同心４０１,,27,127,5300035,,,,,,,2025-10-24,1,,,,,シス,0
2049,8120001281396,新規,0,2025-10-24,2025-10-24,株式会社Ｅ＆ｂｙ,,株式会社,大阪府,寝屋川市,大利町３０番２３号,,27,215,5720048,,,,,,,2025-10-24,1,,,,,イーアンドバイ,0
2060,8122001039766,新規,0,2025-10-24,2025-10-24,株式会社十代,,株式会社,大阪府,東大阪市,西堤本通東１丁目１番１号,,27,227,5770045,,,,,,,2025-10-24,1,,,,,ジュウダイ,0
2061,8122001039799,新規,0,2025-10-24,2025-10-24,株式会社ＲＥＧＲＡ,,株式会社,大阪府,柏原市,山ノ井町１１番５号,,27,221,5820010,,,,,,,2025-10-24,1,,,,,レグラ,0
2062,8122001039808,新規,0,2025-10-24,2025-10-24,株式会社日和舎,,株式会社,大阪府,八尾市,萱振町３丁目１１８番４号１０１,,27,212,5810834,,,,,,,2025-10-24,1,,,,,ヒヨリシャ,0
2064,8122003003365,新規,0,2025-10-24,2025-10-24,合同会社章企画,,合同会社,大阪府,八尾市,沼２丁目４０番地の１ラリュール１０２号,,27,212,5810036,,,,,,,2025-10-24,1,,,,,アキラキカク,0
2066,8130001080863,新規,0,2025-10-24,2025-10-24,住まいの情報センター株式会社,,株式会社,京都府,京都市中京区,西ノ京馬代町２０－６,,26,104,6048457,,,,,,,2025-10-24,1,,,,,スマイノジョウホウセンター,0
2067,8130001080871,新規,0,2025-10-24,2025-10-24,株式会社ミライト,,株式会社,京都府,京都市中京区,壬生相合町２５番４デイスターアベニュー１０３号,,26,104,6048812,,,,,,,2025-10-24,1,,,,,ミライト,0
2076,8140001140352,新規,0,2025-10-24,2025-10-24,株式会社なんでもほりえ,,株式会社,兵庫県,加東市,河高２９３９番地１、２階,,28,228,6790221,,,,,,,2025-10-24,1,,,,,ナンデモホリエ,0
2077,8140001140518,新規,0,2025-10-24,2025-10-24,虎屋石油株式会社,,株式会社,兵庫県,朝来市,和田山町枚田６５９番地,,28,225,6695261,,,,,,,2025-10-24,1,,,,,トラヤセキユ,0
2078,8140001140526,新規,0,2025-10-24,2025-10-24,株式会社マリネア,,株式会社,兵庫県,神戸市垂水区,舞多聞西７丁目１０番２０号,,28,108,6550051,,,,,,,2025-10-24,1,,,,,マリネア,0
2081,8140003022763,新規,0,2025-10-24,2025-10-24,合同会社エフ・ビー・エス,,合同会社,兵庫県,伊丹市,伊丹４丁目１１番１０号,,28,207,6640846,,,,,,,2025-10-24,1,,,,,エフビーエス,0
2082,8140005027678,新規,0,2025-10-24,2025-10-24,一般社団法人はりま白浜海の会,,その他の設立登記法人,兵庫県,姫路市,白浜町丙６１４番地９,,28,201,6728023,,,,,,,2025-10-24,1,,,,,ハリマシラハマウミノカイ,0
2084,8160005011457,新規,0,2025-10-24,2025-10-24,医療法人くじらメディカル,,その他の設立登記法人,滋賀県,大津市,松山町１－２４,,25,201,5200024,,,,,,,2025-10-24,1,,,,,クジラメディカル,0
2085,8170005007173,新規,0,2025-10-24,2025-10-24,一般社団法人つぐみの杜,,その他の設立登記法人,和歌山県,紀の川市,桃山町調月１７５８－６,,30,208,6496112,,,,,,,2025-10-24,1,,,,,ツグミノモリ,0
2091,8180001169140,新規,0,2025-10-24,2025-10-24,グリストン工業株式会社,,株式会社,愛知県,名古屋市天白区,島田３丁目３０４番地シーズンコート植田南１階,,23,116,4680056,,,,,,,2025-10-24,1,,,,,グリストンコウギョウ,0
2092,8180001169157,新規,0,2025-10-24,2025-10-24,株式会社ミルム・アカウンティング・パートナーズ,,株式会社,愛知県,名古屋市中村区,名駅３丁目４－１０アルティメイト名駅１ｓｔ２階,,23,105,4500002,,,,,,,2025-10-24,1,,,,,ミルムアカウンティングパートナーズ,0
2097,8180003029276,新規,0,2025-10-24,2025-10-24,ＨＳＬＩＮＫ合同会社,,合同会社,愛知県,名古屋市中区,丸の内２丁目６番２７号ＢＰＲレジデンス丸の内２０２号,,23,106,4600002,,,,,,,2025-10-24,1,,,,,エイチエスリンク,0
2119,8290003017542,新規,0,2025-10-24,2025-10-24,エアリージャパン合同会社,,合同会社,福岡県,福岡市博多区,中洲中島町４番１２号Ｆｕｃａ‐Ｌａｂ３Ａ,,40,132,8100802,,,,,,,2025-10-24,1,,,,,エアリージャパン,0
2122,8320001021410,新規,0,2025-10-24,2025-10-24,株式会社はりやま,,株式会社,大分県,豊後大野市,三重町赤嶺１２４２番地８,,44,212,8797111,,,,,,,2025-10-24,1,,,,,ハリヤマ,0
2129,8360005007303,新規,0,2025-10-24,2025-10-24,社会保険労務士法人パラソル,,その他の設立登記法人,沖縄県,那覇市,字小禄２１４番地,,47,201,9010152,,,,,,,2025-10-24,1,,,,,パラソル,0
2135,8380003006164,新規,0,2025-10-24,2025-10-24,合同会社菊地農園,,合同会社,福島県,東白川郡矢祭町,大字内川字町１３番地,,07,482,9635322,,,,,,,2025-10-24,1,,,,,キクチノウエン,0
2142,8430001095526,新規,0,2025-10-24,2025-10-24,北海道雪樽製菓株式会社,,株式会社,北海道,札幌市中央区,南二条西５丁目３１－１ＲＭＢｌｄ．７０１,,01,101,0600062,,,,,,,2025-10-24,1,,,,,ホッカイドウユキダルセイカ,0
2147,8430003018204,新規,0,2025-10-24,2025-10-24,雪櫻合同会社,,合同会社,北海道,札幌市中央区,北二条西２丁目３２番地第３７桂和ビル６階６１９号,,01,101,0600002,,,,,,,2025-10-24,1,,,,,ユキザクラ,0
2151,8470001020942,新規,0,2025-10-24,2025-10-24,株式会社しるきー,,株式会社,香川県,高松市,伏石町２１３２番地１,,37,201,7618071,,,,,,,2025-10-24,1,,,,,シルキー,0
2161,9010001259675,新規,0,2025-10-24,2025-10-24,株式会社ＡＩｃｕｔ,,株式会社,東京都,中央区,日本橋２丁目１６－４ｒｅｍｉｘ日本橋６階,,13,102,1030027,,,,,,,2025-10-24,1,,,,,エーアイカット,0
2166,9010003049125,新規,0,2025-10-24,2025-10-24,合同会社Ｓ２,,合同会社,東京都,千代田区,紀尾井町４番１号ニューオータニガーデンコート１２階,,13,101,1020094,,,,,,,2025-10-24,1,,,,,エスツー,0
2168,9010005040833,新規,0,2025-10-24,2025-10-24,一般社団法人ＡＩデータ主権共創機構,,その他の設立登記法人,東京都,中央区,銀座１丁目１２番４号Ｎ＆ＥＢＬＤ．６Ｆ,,13,102,1040061,,,,,,,2025-10-24,1,,,,,エーアイデータシュケンキョウソウキコウ,0
2172,9010403036375,新規,0,2025-10-24,2025-10-24,ＵＩＢ　Ｋｏｎａｎ２ＭＬ合同会社,,合同会社,東京都,港区,虎ノ門３丁目２２番１０－２０１号,,13,103,1050001,,,,,,,2025-10-24,1,,,,,ユーアイビーコナンツーエムエル,0
2177,9010503008051,新規,0,2025-10-24,2025-10-24,ジャパンストック合同会社,,合同会社,東京都,台東区,今戸２丁目３７－６,,13,106,1110024,,,,,,,2025-10-24,1,,,,,ジャパンストック,0
2184,9010801036712,新規,0,2025-10-24,2025-10-24,宏昌株式会社,,株式会社,東京都,大田区,東蒲田１丁目２２－１０,,13,111,1440031,,,,,,,2025-10-24,1,,,,,コウショウ,0
2185,9010803005590,新規,0,2025-10-24,2025-10-24,ＯｗｎｅｒｓＦｕｎｄ合同会社,,合同会社,東京都,大田区,東糀谷３丁目４番９号,,13,111,1440033,,,,,,,2025-10-24,1,,,,,オーナーズファンド,0
2186,9010903010367,新規,0,2025-10-24,2025-10-24,合同会社日和,,合同会社,東京都,世田谷区,砧１丁目３２番２３―２８号,,13,112,1570073,,,,,,,2025-10-24,1,,,,,ヒヨリ,0
2192,9011001172975,新規,0,2025-10-24,2025-10-24,株式会社メタボー,,株式会社,東京都,渋谷区,恵比寿西２丁目８番４号ＥＸ恵比寿西ビル５階,,13,113,1500021,,,,,,,2025-10-24,1,,,,,メタボー,0
2193,9011001173024,新規,0,2025-10-24,2025-10-24,ヒトモア株式会社,,株式会社,東京都,渋谷区,神南１丁目１１－４ＦＰＧリンクス神南５Ｆ,,13,113,1500041,,,,,,,2025-10-24,1,,,,,,0
2194,9011003022823,新規,0,2025-10-24,2025-10-24,合同会社ＧＴＣｓ,,合同会社,東京都,渋谷区,千駄ヶ谷３丁目１１番８号,,13,113,1510051,,,,,,,2025-10-24,1,,,,,ジーティーシーズ,0
2196,9011101113549,新規,0,2025-10-24,2025-10-24,株式会社ＲａｎｄｏｍＣａｔｓ,,株式会社,東京都,新宿区,百人町１丁目１８－８大久保カドビル４０４室,,13,104,1690073,,,,,,,2025-10-24,1,,,,,ランダムネコ,0
2197,9011101113656,新規,0,2025-10-24,2025-10-24,株式会社バンリモクラン,,株式会社,東京都,新宿区,百人町１丁目１８番８号大久保カドビル４階成和オフィス１０２区画,,13,104,1690073,,,,,,,2025-10-24,1,,,,,バンリモクラン,0
2199,9011103016535,新規,0,2025-10-24,2025-10-24,合同会社一四一三四,,合同会社,東京都,新宿区,河田町３番５１－２０１０号,,13,104,1620054,,,,,,,2025-10-24,1,,,,,イチヨンイチサンヨン,0
2201,9011105011633,新規,0,2025-10-24,2025-10-24,一般社団法人日本冠疾患学会,,その他の設立登記法人,東京都,新宿区,大久保２丁目４番１２号株式会社春恒社内,,13,104,1690072,,,,,,,2025-10-24,1,,,,,ニホンカンシッカンガッカイ,0
2202,9011201026741,新規,0,2025-10-24,2025-10-24,健真堂株式会社,,株式会社,東京都,中野区,中央２丁目３０番９号山王ＭＧＴビル２２９号室,,13,114,1640011,,,,,,,2025-10-24,1,,,,,ケンシンドウ,0
2207,9011301030998,新規,0,2025-10-24,2025-10-24,株式会社ｊａｍ,,株式会社,東京都,杉並区,高井戸西１丁目２１－１８クライスオーベン１Ｆ,,13,115,1680071,,,,,,,2025-10-24,1,,,,,ジャム,0
2211,9011601029055,新規,0,2025-10-24,2025-10-24,立木株式会社,,株式会社,東京都,練馬区,平和台４丁目１９－５Ｔｏｐ平和台３０１号室,,13,120,1790083,,,,,,,2025-10-24,1,,,,,リツボク,0
2226,9020001165501,新規,0,2025-10-24,2025-10-24,株式会社ＭＪ総合研究所,,株式会社,神奈川県,横浜市港南区,笹下６丁目５番１３号,,14,111,2340052,,,,,,,2025-10-24,1,,,,,エムジェイソウゴウケンキュウショ,0
2229,9020003029588,新規,0,2025-10-24,2025-10-24,ＤｏｕｂｌｅＴｒｅｅ　ｂｙ１０１合同会社,,合同会社,神奈川県,横浜市港北区,日吉本町１丁目３８番３－１０１号,,14,109,2230062,,,,,,,2025-10-24,1,,,,,,0
2234,9021001086654,新規,0,2025-10-24,2025-10-24,ノーブルＨＤ株式会社,,株式会社,神奈川県,綾瀬市,上土棚北４丁目９番１６号,,14,218,2521111,,,,,,,2025-10-24,1,,,,,ノーブルホールディングス,0
2235,9021003016717,新規,0,2025-10-24,2025-10-24,合同会社ＭＮＳ,,合同会社,神奈川県,藤沢市,大庭５２４９番地の６,,14,205,2510861,,,,,,,2025-10-24,1,,,,,エムエヌエス,0
2236,9021003016741,新規,0,2025-10-24,2025-10-24,ＬＲＥ合同会社,,合同会社,神奈川県,横須賀市,三春町２丁目１番地４第一大谷ビル４０１,,14,201,2380014,,,,,,,2025-10-24,1,,,,,エルアールイー,0
2248,9030001169427,新規,0,2025-10-24,2025-10-24,株式会社ＢｅａｕｔｙＢｌｏｏｍ,,株式会社,埼玉県,北足立郡伊奈町,西小針２丁目１６０番地ヴィル・ファミーユ１０２,,11,301,3620811,,,,,,,2025-10-24,1,,,,,ビューティーブルーム,0
2262,9040001141087,新規,0,2025-10-24,2025-10-24,潤和株式会社,,株式会社,千葉県,富津市,桜井２４７番地,,12,226,2991602,,,,,,,2025-10-24,1,,,,,ジュンワ,0
2266,9040003028836,新規,0,2025-10-24,2025-10-24,ＷＭ合同会社,,合同会社,千葉県,千葉市稲毛区,天台５丁目１４番１号インプレスト稲毛１４０５号室,,12,103,2630016,,,,,,,2025-10-24,1,,,,,ダブリューエム,0
2269,9050001057497,新規,0,2025-10-24,2025-10-24,株式会社にこのわ,,株式会社,茨城県,神栖市,深芝南２丁目２５番地９,,08,232,3140142,,,,,,,2025-10-24,1,,,,,ニコノワ,0
2271,9050003009711,新規,0,2025-10-24,2025-10-24,合同会社ｐｒｅｖｉｄｅｎｚ,,合同会社,茨城県,土浦市,飯田２５６８－２,,08,203,3000802,,,,,,,2025-10-24,1,,,,,プレビデンツ,0
2272,9050003009728,新規,0,2025-10-24,2025-10-24,合同会社ＥＭＺＥＱ,,合同会社,茨城県,日立市,大沼町２丁目７番４号,,08,202,3160022,,,,,,,2025-10-24,1,,,,,エムゼック,0
2273,9060001038703,新規,0,2025-10-24,2025-10-24,ＪＡＶＩＮＤＡ　ＢＲＯＴＨＥＲＳ株式会社,,株式会社,栃木県,足利市,本城２丁目１９０２番地３セントラルコーポ３０６号室,,09,202,3260808,,,,,,,2025-10-24,1,,,,,ジャビンダブラザーズ,0
2275,9060003005817,新規,0,2025-10-24,2025-10-24,合同会社ｉＳＣ,,合同会社,栃木県,足利市,福居町３２７番地ピアステージ足利１０３,,09,202,3260338,,,,,,,2025-10-24,1,,,,,アイエスシー,0
2279,9080003003587,新規,0,2025-10-24,2025-10-24,合同会社サイノメ,,合同会社,静岡県,榛原郡吉田町,神戸４４６－１４,,22,424,4210304,,,,,,,2025-10-24,1,,,,,サイノメ,0
2280,9080101025863,新規,0,2025-10-24,2025-10-24,株式会社ステラ・メディカルコンサルティング,,株式会社,静岡県,富士市,天間８３８番地,,22,210,4190205,,,,,,,2025-10-24,1,,,,,ステラメディカルコンサルティング,0
2298,9120001281164,新規,0,2025-10-24,2025-10-24,創翼ＡＩＯＴ株式会社,,株式会社,大阪府,大阪市北区,堂山町１番５号三共梅田ビル６階センターオフィス内,,27,127,5300027,,,,,,,2025-10-24,1,,,,,ソウヨクエーアイオーティー,0
2299,9120001281230,新規,0,2025-10-24,2025-10-24,云米株式会社,,株式会社,大阪府,大阪市中央区,平野町１丁目８番１３－３２１号,,27,128,5410046,,,,,,,2025-10-24,1,,,,,ウンベイ,0
2300,9120001281354,新規,0,2025-10-24,2025-10-24,株式会社ＭＧＣ,,株式会社,大阪府,大阪市北区,大深町３番４０号グランフロント大阪オーナーズタワー１３１４,,27,127,5300011,,,,,,,2025-10-24,1,,,,,エムジーシー,0
2301,9120001281379,新規,0,2025-10-24,2025-10-24,虹株式会社,,株式会社,大阪府,大阪市東淀川区,東中島１丁目７番６－３０３号,,27,114,5330033,,,,,,,2025-10-24,1,,,,,ニジ,0
2302,9120001281412,新規,0,2025-10-24,2025-10-24,株式会社Ｏｎｅ　Ａｍｂｉｔｉｏｕｓ,,株式会社,大阪府,大阪市港区,南市岡１丁目８番７号,,27,107,5520011,,,,,,,2025-10-24,1,,,,,ワンアンビシャス,0
2303,9120001281420,新規,0,2025-10-24,2025-10-24,強＿株式会社,00141246,株式会社,大阪府,大阪市住吉区,苅田２丁目７番１３－２０１号,,27,120,5580011,,,,,,,2025-10-24,1,,,,,キョウシン,0
2306,9120003031055,新規,0,2025-10-24,2025-10-24,ＴＵＮＧ合同会社,,合同会社,大阪府,大阪市東住吉区,湯里２丁目１３－２－５０５,,27,121,5460013,,,,,,,2025-10-24,1,,,,,トゥン,0
2307,9120003031063,新規,0,2025-10-24,2025-10-24,ギフトラボ合同会社,,合同会社,大阪府,枚方市,星丘３丁目１１番地８号,,27,210,5730013,,,,,,,2025-10-24,1,,,,,ギフトラボ,0
2311,9120901051658,新規,0,2025-10-24,2025-10-24,ＳＨＡＲＥＤ株式会社,,株式会社,大阪府,吹田市,豊津町１番１８号ＥｃｌａｔＥｓａｋａＢＬＤＧ４Ｆ,,27,205,5640051,,,,,,,2025-10-24,1,,,,,シェアード,0
2321,9140001140426,新規,0,2025-10-24,2025-10-24,株式会社幸’Ｓ,,株式会社,兵庫県,加古川市,野口町古大内３７８番地３５,,28,210,6750014,,,,,,,2025-10-24,1,,,,,コウズ,0
2328,9140003022762,新規,0,2025-10-24,2025-10-24,合同会社トマトハウス,,合同会社,兵庫県,伊丹市,荒牧３丁目１７番２０号,,28,207,6640001,,,,,,,2025-10-24,1,,,,,トマトハウス,0
2329,9140003022779,新規,0,2025-10-24,2025-10-24,合同会社スマート,,合同会社,兵庫県,西宮市,六湛寺町１４－５ハイス西宮ビル３階,,28,204,6620918,,,,,,,2025-10-24,1,,,,,スマート,0
2338,9180001169247,新規,0,2025-10-24,2025-10-24,株式会社ｘｐａｍｉｏｎ,,株式会社,愛知県,名古屋市昭和区,八雲町５０番地,,23,107,4660823,,,,,,,2025-10-24,1,,,,,エクスパミオン,0
2341,9180003029275,新規,0,2025-10-24,2025-10-24,ＨＳ合同会社,,合同会社,愛知県,名古屋市中区,丸の内３丁目１５番１３号丸の内エンブルコート１２０５号,,23,106,4600002,,,,,,,2025-10-24,1,,,,,エイチエス,0
2345,9190003005242,新規,0,2025-10-24,2025-10-24,合同会社ＨＩＮＡＴＡ,,合同会社,三重県,伊賀市,大滝１２８８番地の２,,24,216,5181154,,,,,,,2025-10-24,1,,,,,ヒナタ,0
2367,9290001111676,新規,0,2025-10-24,2025-10-24,ＭＴ　Ｃａｒ　Ｒｅａｃｔｉｏｎ株式会社,,株式会社,福岡県,太宰府市,都府楼南２丁目５番７号,,40,221,8180105,,,,,,,2025-10-24,1,,,,,エムティーカーリアクション,0
2372,9320003004800,新規,0,2025-10-24,2025-10-24,合同会社エープランナー,,合同会社,大分県,大分市,大字小池原１５４０番地の１４,,44,201,8700147,,,,,,,2025-10-24,1,,,,,エープランナー,0
2376,9330001033692,新規,0,2025-10-24,2025-10-24,株式会社テラスプロモ,,株式会社,熊本県,熊本市中央区,八王寺町３２番１号,,43,101,8600831,,,,,,,2025-10-24,1,,,,,テラスプロモ,0
2387,9360005007302,新規,0,2025-10-24,2025-10-24,医療法人ＬＯＫＡＨＩ,,その他の設立登記法人,沖縄県,沖縄市,山内２丁目９番１６号２Ｆ,,47,211,9040034,,,,,,,2025-10-24,1,,,,,ロカイ,0
2397,9410003004171,新規,0,2025-10-24,2025-10-24,合同会社ハレ,,合同会社,秋田県,秋田市,広面字赤沼７４番地,,05,201,0100041,,,,,,,2025-10-24,1,,,,,,0
2402,9430001095541,新規,0,2025-10-24,2025-10-24,株式会社トランシスホールディングス,,株式会社,北海道,千歳市,泉沢１００７番地１８４,,01,224,0660051,,,,,,,2025-10-24,1,,,,,トランシスホールディングス,0
2408,9470003003003,新規,0,2025-10-24,2025-10-24,ツイステック合同会社,,合同会社,香川県,木田郡三木町,大字池戸３４２３,,37,341,7610701,,,,,,,2025-10-24,1,,,,,ツイステック,0
2410,9480001012995,新規,0,2025-10-24,2025-10-24,株式会社Ｔ‐ＰＬＡＮ,,株式会社,徳島県,徳島市,勝占町中須１４５番地の１５,,36,201,7708023,,,,,,,2025-10-24,1,,,,,ティープラン,0
2413,9500005008830,新規,0,2025-10-24,2025-10-24,一般社団法人いきいきライフ協会西条,,その他の設立登記法人,愛媛県,西条市,喜多川１１７番地２,,38,206,7930042,,,,,,,2025-10-24,1,,,,,イキイキライフキョウカイサイジョウ,0
2415,9700150132670,新規,0,2025-10-24,2025-10-24,宮益坂地区市街地再開発組合,,その他,東京都,渋谷区,渋谷２丁目２０－１１渋谷協和ビル３Ｆ,,13,113,1500002,,,,,,,2025-10-24,1,,,,,ミヤマスザカチクシガイチサイカイハツクミアイ,0
