sequenceNumber,corporateNumber,process,correct,updateDate,changeDate,name,nameImageId,kind,prefectureName,cityName,streetNumber,addressImageId,prefectureCode,cityCode,postCode,addressOutside,addressOutsideImageId,closeDate,closeCause,successorCorporateNumber,changeCause,assignmentDate,latest,enName,enPrefectureName,enCityName,enAddressOutside,furigana,hihyoji
3,1010001004840,登記記録の閉鎖等,0,2024-02-09,2024-02-02,株式会社中央美術研究所,,株式会社,東京都,文京区,水道１丁目４番１５号,,13,105,1120005,,,2024-02-02,清算の結了等,,,2015-10-05,1,,,,,チュウオウビジュツケンキュウショ,0
20,1010401156232,登記記録の閉鎖等,0,2024-02-09,2024-02-05,株式会社２９ＯＮ,,株式会社,東京都,新宿区,西新宿６丁目１６番６号,,13,104,1600023,,,2024-02-05,合併による解散等,3011101073906,令和６年２月１日東京都新宿区西新宿六丁目１６番６号株式会社ｆａｖｙ（3011101073906）に合併し解散,2020-11-13,1,,,,,ニクオン,0
31,1011001067786,登記記録の閉鎖等,0,2024-02-09,2024-02-07,株式会社ＳＨＡＲＥＥＦ,,株式会社,東京都,港区,南麻布４丁目１２番２５号南麻布セントレ５Ｆ,,13,103,1060047,,,2024-02-07,合併による解散等,4011001101864,令和６年１月１日東京都渋谷区猿楽町９番５号秀和代官山レジデンス１０７株式会社ＳＨＡＲＥＥＦ　ＦＬＡＧＳＨＩＰ　ＳＨＯＰ（4011001101864）に合併し解散,2015-10-05,1,,,,,シャリーフ,0
48,1011703003329,登記記録の閉鎖等,0,2024-02-09,2024-02-05,セン・ボン合同会社,,合同会社,東京都,江戸川区,南小岩７丁目２２－１６－１Ｆ,,13,123,1330056,,,2024-02-05,清算の結了等,,,2022-12-22,1,,,,,センボン,0
52,1011802021074,登記記録の閉鎖等,0,2024-02-09,2024-02-07,有限会社イチコシ,,有限会社,東京都,葛飾区,東金町２丁目６番１５号,,13,122,1250041,,,2024-02-07,清算の結了等,,,2015-10-05,1,,,,,イチコシ,0
83,1021001018771,登記記録の閉鎖等,0,2024-02-09,2024-02-05,株式会社渋谷浩商事,,株式会社,神奈川県,相模原市南区,東大沼１丁目２０番２７号,,14,153,2520333,,,2024-02-05,清算の結了等,,,2015-10-05,1,,,,,シブヤヒロシショウジ,0
84,1021001036947,登記記録の閉鎖等,0,2024-02-09,2024-02-07,株式会社田中薬局,,株式会社,神奈川県,平塚市,見附町１７番２０号,,14,203,2540045,,,2024-02-07,清算の結了等,,,2015-10-05,1,,,,,タナカヤッキョク,0
90,1021003009802,登記記録の閉鎖等,0,2024-02-09,2024-02-05,ＰＲＯＧＲＥＳＳＩＯＮ合同会社,,合同会社,神奈川県,相模原市中央区,鹿沼台２丁目１０番１６号第３ＳＫビル３０６,,14,152,2520233,,,2024-02-05,清算の結了等,,,2020-10-23,1,,,,,プログレーション,0
94,1030001026338,登記記録の閉鎖等,0,2024-02-09,2024-01-31,株式会社酒井工業所,,株式会社,埼玉県,川越市,大字上松原１７５番地３,,11,201,3501154,,,2024-01-31,清算の結了等,,,2015-10-05,1,,,,,サカイコウギョウショ,0
101,1030005019981,登記記録の閉鎖等,0,2024-02-09,2024-02-01,一般社団法人彩ライフサポート,,その他の設立登記法人,東京都,北区,田端新町３丁目３３番２号,,13,117,1140012,,,2024-02-01,清算の結了等,,,2020-06-19,1,,,,,サイライフサポート,0
103,1040001073973,登記記録の閉鎖等,0,2024-02-09,2024-02-02,株式会社仁幸旅館,,株式会社,千葉県,南房総市,白浜町白浜６２７番地の１９,,12,234,2950102,,,2024-02-02,清算の結了等,,,2015-10-05,1,,,,,ニコウリョカン,0
114,1050002010578,登記記録の閉鎖等,0,2024-02-09,2024-02-05,有限会社菅谷石油店,00022693,有限会社,茨城県,笠間市,押辺７２１番地,,08,216,3190205,,,2024-02-05,清算の結了等,,,2015-10-05,1,,,,,スガヤセキユテン,0
134,1100001016356,登記記録の閉鎖等,0,2024-02-09,2024-02-06,株式会社ＫＫＣ,,株式会社,長野県,松本市,高宮北１番６号,,20,202,3900836,,,2024-02-06,清算の結了等,,,2015-10-05,1,,,,,ケーケーシー,0
143,1120001019316,登記記録の閉鎖等,0,2024-02-09,2024-02-05,株式会社大阪羽布製作所,,株式会社,大阪府,大阪市生野区,舎利寺３丁目９番３号,,27,116,5440022,,,2024-02-05,清算の結了等,,,2015-10-05,1,,,,,オオサカハブセイサクショ,0
159,1120003018159,登記記録の閉鎖等,0,2024-02-09,2024-02-02,玲家合同会社,,合同会社,大阪府,大阪市淀川区,西宮原２丁目６番１６－５２６号,,27,123,5320004,,,2024-02-02,清算の結了等,,,2020-09-28,1,,,,,レイカ,0
168,1120102027944,登記記録の閉鎖等,0,2024-02-09,2024-02-08,有限会社松栄安全工業,,有限会社,大阪府,阪南市,舞５丁目６番２５号,,27,232,5990224,,,2024-02-08,清算の結了等,,,2015-10-05,1,,,,,ショウエイアンゼンコウギョウ,0
174,1122001014461,登記記録の閉鎖等,0,2024-02-09,2024-02-07,株式会社ＦＩＲＳＴＣＬＥＡＮ,,株式会社,大阪府,東大阪市,足代新町２４番２０号,,27,227,5770057,,,2024-02-07,清算の結了等,,,2015-10-05,1,,,,,ファーストクリーン,0
176,1122001030211,登記記録の閉鎖等,0,2024-02-09,2024-02-06,株式会社ヤマシタ創建,,株式会社,大阪府,大阪市西淀川区,御幣島１丁目３番２２号,,27,113,5550012,,,2024-02-06,清算の結了等,,,2016-12-22,1,,,,,ヤマシタソウケン,0
180,1130001029850,登記記録の閉鎖等,0,2024-02-09,2024-02-07,アーバンビルド株式会社,,株式会社,京都府,長岡京市,友岡西山１４,,26,209,6170843,,,2024-02-07,清算の結了等,,,2015-10-05,1,,,,,アーバンビルド,0
182,1130001055888,登記記録の閉鎖等,0,2024-02-09,2024-02-07,株式会社山岡造園,,株式会社,京都府,京都市上京区,葭屋町通出水上る亀屋町３４６番地２,,26,102,6028119,,,2024-02-07,清算の結了等,,,2015-10-05,1,,,,,,0
197,1190001005334,登記記録の閉鎖等,0,2024-02-09,2024-02-07,株式会社フェニックス,,株式会社,三重県,鈴鹿市,算所２丁目８番１２号,,24,207,5130806,,,2024-02-07,清算の結了等,,,2015-10-05,1,,,,,フェニックス,0
212,1260001004394,登記記録の閉鎖等,0,2024-02-09,2024-02-07,株式会社千代田本店,,株式会社,岡山県,岡山市北区,天瀬８番６号,,33,101,7000833,,,2024-02-07,清算の結了等,,,2015-10-05,1,,,,,チヨダホンテン,0
216,1290001091208,登記記録の閉鎖等,0,2024-02-09,2024-01-23,先端美容科学株式会社,,株式会社,福岡県,福岡市博多区,古門戸町７－１５Ｊ．Ｃビル５０１,,40,132,8120029,,,2024-01-23,合併による解散等,3010401135317,令和６年１月１日福岡市中央区天神二丁目３番１０号天神パインクレスト７１９号株式会社リピラボ（3010401135317）に合併し解散,2020-12-07,1,,,,,センタンビヨウカガク,0
234,1330001004429,登記記録の閉鎖等,0,2024-02-09,2024-02-01,株式会社丸山総合建設,,株式会社,熊本県,熊本市東区,健軍本町５４番５号,,43,102,8620910,,,2024-02-01,合併による解散等,6330001004432,令和６年２月１日熊本市東区健軍本町５４番５号株式会社丸山住宅（6330001004432）に合併し解散,2015-10-05,1,,,,,マルヤマソウゴウケンセツ,0
244,1370501000923,登記記録の閉鎖等,0,2024-02-09,2024-02-06,気仙沼さかなの駅株式会社,,株式会社,宮城県,気仙沼市,田中前２丁目１２番地３,,04,205,9880053,,,2024-02-06,清算の結了等,,,2015-10-05,1,,,,,,0
261,1430005007707,登記記録の閉鎖等,0,2024-02-09,2024-02-02,医療法人社団ごとう整形外科クリニック,,その他の設立登記法人,北海道,小樽市,錦町１１番１号,,01,203,0470039,,,2024-02-02,清算の結了等,,,2015-10-05,1,,,,,ゴトウセイケイゲカクリニック,0
292,2010401129328,登記記録の閉鎖等,0,2024-02-09,2024-02-05,株式会社十番,,株式会社,東京都,港区,南青山２丁目２番１５号ウィン青山９４２,,13,103,1070062,,,2024-02-05,清算の結了等,,,2017-01-25,1,,,,,ジュウバン,0
296,2010601011946,登記記録の閉鎖等,0,2024-02-09,2024-02-01,小林皮革工業株式会社,,株式会社,東京都,墨田区,東墨田３丁目７番６号,,13,107,1310042,,,2024-02-01,合併による解散等,6010601015902,令和６年２月１日東京都墨田区東墨田三丁目７番６号株式会社第一レザー（6010601015902）に合併し解散,2015-10-05,1,,,,,コバヤシヒカクコウギョウ,0
373,2020002011586,登記記録の閉鎖等,0,2024-02-09,2024-02-06,有限会社共益商会,,有限会社,神奈川県,横浜市戸塚区,舞岡町２９番地,,14,110,2440813,,,2024-02-06,清算の結了等,,,2015-10-05,1,,,,,キョウエキショウカイ,0
417,2080401014036,登記記録の閉鎖等,0,2024-02-09,2024-02-06,株式会社Ｔ＆Ａ,,株式会社,静岡県,浜松市中央区,大島町１１８８番地,,22,138,4313112,,,2024-02-06,清算の結了等,,,2015-10-05,1,,,,,ティアンドエイ,0
432,2120101063345,登記記録の閉鎖等,0,2024-02-09,2024-01-29,株式会社ＮＥＸＴ１,,株式会社,大阪府,堺市東区,菩提町２丁１番地３５,,27,143,5998103,,,2024-01-29,清算の結了等,,,2021-04-06,1,,,,,ネクストワン,0
438,2122002010327,登記記録の閉鎖等,0,2024-02-09,2024-02-01,有限会社共栄カラー,,有限会社,大阪府,東大阪市,柏田本町２番１６号,,27,227,5770834,,,2024-02-01,合併による解散等,2122001009048,令和６年２月１日大阪府東大阪市柏田西三丁目２番３０号プラハード株式会社（2122001009048）に合併し解散,2015-10-05,1,,,,,キョウエイカラー,0
449,2140002034344,登記記録の閉鎖等,0,2024-02-09,2024-02-06,有限会社山崎地所,,有限会社,兵庫県,宍粟市,山崎町下広瀬２２番地２,,28,227,6712541,,,2024-02-06,清算の結了等,,,2015-10-05,1,,,,,ヤマサキジショ,0
450,2140002050928,登記記録の閉鎖等,0,2024-02-09,2024-02-08,有限会社松島鉄工,,有限会社,兵庫県,姫路市,飾磨区阿成渡場９５４番地の８,,28,201,6728039,,,2024-02-08,清算の結了等,,,2015-10-05,1,,,,,,0
461,2180002051063,登記記録の閉鎖等,0,2024-02-09,2024-02-06,有限会社アクティブ,,有限会社,愛知県,名古屋市天白区,焼山２丁目２０１番地,,23,116,4680002,,,2024-02-06,清算の結了等,,,2015-10-05,1,,,,,アクティブ,0
468,2200001011759,登記記録の閉鎖等,0,2024-02-09,2024-02-07,株式会社丸栄商会,,株式会社,岐阜県,羽島郡笠松町,無動寺２５４番地,,21,303,5016033,,,2024-02-07,合併による解散等,3200001004885,令和６年２月１日岐阜市入舟町四丁目８番地の１株式会社マルエイ（3200001004885）に合併し解散,2015-10-05,1,,,,,マルエイショウカイ,0
474,2230001011723,登記記録の閉鎖等,0,2024-02-09,2024-02-06,株式会社山崎組,,株式会社,富山県,氷見市,中村６２０番地,,16,205,9350252,,,2024-02-06,清算の結了等,,,2015-10-05,1,,,,,ヤマザキグミ,0
477,2240001007340,登記記録の閉鎖等,0,2024-02-09,2024-02-07,株式会社東洋機工商会,,株式会社,広島県,広島市南区,皆実町１丁目１１番１５号,,34,103,7340007,,,2024-02-07,清算の結了等,,,2015-10-05,1,,,,,トウヨウキコウショウカイ,0
479,2240001051074,登記記録の閉鎖等,0,2024-02-09,2024-02-08,株式会社ミヤショウ,,株式会社,広島県,廿日市市,峰高２丁目８番２９号,,34,213,7380032,,,2024-02-08,清算の結了等,,,2017-05-10,1,,,,,ミヤショウ,0
488,2290001027103,登記記録の閉鎖等,0,2024-02-09,2024-02-07,株式会社ナステック,,株式会社,福岡県,福岡市博多区,空港前５丁目３番２１号,,40,132,8120002,,,2024-02-07,清算の結了等,,,2015-10-05,1,,,,,ナステック,0
490,2290001051078,登記記録の閉鎖等,0,2024-02-09,2024-02-05,株式会社フッケン,,株式会社,福岡県,小郡市,山隈２２７番地２,,40,216,8380113,,,2024-02-05,清算の結了等,,,2015-10-05,1,,,,,フッケン,0
497,2290801026551,登記記録の閉鎖等,0,2024-02-09,2024-02-07,クラシア・ステート株式会社,,株式会社,福岡県,遠賀郡芦屋町,正門町５番３６号,,40,381,8070112,,,2024-02-07,清算の結了等,,,2020-06-04,1,,,,,クラシアステート,0
508,2330001010855,登記記録の閉鎖等,0,2024-02-09,2024-02-01,マルヤマウッディ開発株式会社,,株式会社,熊本県,上益城郡甲佐町,大字早川２５３５番地,,43,444,8613241,,,2024-02-01,合併による解散等,6330001004432,令和６年２月１日熊本市東区健軍本町５４番５号株式会社丸山住宅（6330001004432）に合併し解散,2015-10-05,1,,,,,マルヤマウッディカイハツ,0
510,2340002012791,登記記録の閉鎖等,0,2024-02-09,2024-02-07,有限会社前野組,,有限会社,鹿児島県,日置市,吹上町湯之浦１７８２番地,,46,216,8993303,,,2024-02-07,清算の結了等,,,2015-10-05,1,,,,,マエノグミ,0
513,2360005005733,登記記録の閉鎖等,0,2024-02-09,2024-02-01,一般社団法人外国人・日系人サポートセンター,,その他の設立登記法人,沖縄県,那覇市,久茂地１丁目３番１８号だるまマンション６０２号室,,47,201,9000015,,,2024-02-01,清算の結了等,,,2017-12-20,1,,,,,ガイコクジンニッケイジンサポートセンター,0
520,2380002000248,登記記録の閉鎖等,0,2024-02-09,2024-02-06,有限会社あづま食品,,有限会社,福島県,伊達市,月舘町御代田字岩内１６番地,,07,213,9600906,,,2024-02-06,清算の結了等,,,2015-10-05,1,,,,,アヅマショクヒン,0
521,2380003001724,登記記録の閉鎖等,0,2024-02-09,2024-02-06,合名会社片岡商店,,合名会社,福島県,会津若松市,馬場町３番１９号,,07,202,9650035,,,2024-02-06,清算の結了等,,,2015-10-05,1,,,,,カタオカショウテン,0
529,2410002007520,登記記録の閉鎖等,0,2024-02-09,2024-02-02,有限会社家具の岸田,,有限会社,秋田県,由利本荘市,矢島町舘町３４番地,,05,210,0150403,,,2024-02-02,清算の結了等,,,2015-10-05,1,,,,,カグノキシタ,0
531,2420005004266,登記記録の閉鎖等,0,2024-02-09,2024-02-02,企業組合農輝,,その他の設立登記法人,青森県,五所川原市,大字前田野目字長峰１０６番地,,02,205,0370631,,,2024-02-02,清算の結了等,,,2015-10-05,1,,,,,ノウキ,0
546,3010001111338,登記記録の閉鎖等,0,2024-02-09,2024-02-05,株式会社アドバンスト・リサーチ・ジャパン,,株式会社,東京都,中央区,新川２丁目２１番１０号リードシー八丁堀ビル３Ｆ,,13,102,1040033,,,2024-02-05,清算の結了等,,,2015-10-05,1,,,,,アドバンストリサーチジャパン,0
567,3010102004135,登記記録の閉鎖等,0,2024-02-09,2024-02-08,有限会社高尾建材興業,00050350,有限会社,東京都,八王子市,長房町１４６５番地１,,13,201,1930824,,,2024-02-08,清算の結了等,,,2015-10-05,1,,,,,,0
575,3010401150010,登記記録の閉鎖等,0,2024-02-09,2024-02-02,株式会社エスコングローバルワークス,,株式会社,東京都,港区,虎ノ門２丁目１０番４号,,13,103,1050001,,,2024-02-02,清算の結了等,,,2019-12-19,1,,,,,エスコングローバルワークス,0
578,3010401166238,登記記録の閉鎖等,0,2024-02-09,2024-02-05,株式会社ｃｈａｒｍ　ｓｏｎｉｃ,,株式会社,東京都,港区,赤坂２丁目１７番５０号,,13,103,1070052,,,2024-02-05,清算の結了等,,,2022-03-17,1,,,,,チャームソニック,0
583,3010405018204,登記記録の閉鎖等,0,2024-02-09,2024-02-02,ＹＡＴ２一般社団法人,,その他の設立登記法人,東京都,港区,元赤坂１丁目１番７－１００６号,,13,103,1070051,,,2024-02-02,清算の結了等,,,2019-10-28,1,,,,,ワイエーティーツー,0
596,3010901023293,登記記録の閉鎖等,0,2024-02-09,2024-01-30,株式会社ボォルブ,,株式会社,東京都,世田谷区,上馬３丁目５番９－２０１号,,13,112,1540011,,,2024-01-30,清算の結了等,,,2015-10-05,1,,,,,ボォルブ,0
615,3011301002870,登記記録の閉鎖等,0,2024-02-09,2024-02-06,株式会社サンセビック,,株式会社,東京都,杉並区,永福２丁目５４番８号プレミール永福３０２号,,13,115,1680064,,,2024-02-06,清算の結了等,,,2015-10-05,1,,,,,サンセビック,0
654,3020005003869,登記記録の閉鎖等,0,2024-02-09,2024-02-08,特定非営利活動法人横浜エルダーカンパニー,,その他の設立登記法人,神奈川県,横浜市港南区,日限山２丁目１０番５号,,14,111,2330015,,,2024-02-08,清算の結了等,,,2015-10-05,1,,,,,ヨコハマエルダーカンパニー,0
661,3030001135467,登記記録の閉鎖等,0,2024-02-09,2024-02-02,株式会社ＭＳトライ,,株式会社,埼玉県,比企郡小川町,大字奈良梨２８１番地,,11,343,3550303,,,2024-02-02,清算の結了等,,,2020-03-10,1,,,,,エムエストライ,0
666,3040001032936,登記記録の閉鎖等,0,2024-02-09,2024-02-05,株式会社ライズアップ,,株式会社,千葉県,市川市,塩焼４丁目５番１０号,,12,203,2720114,,,2024-02-05,清算の結了等,,,2015-10-05,1,,,,,ライズアップ,0
677,3060001001567,登記記録の閉鎖等,0,2024-02-09,2024-02-05,株式会社建商,,株式会社,栃木県,宇都宮市,鶴田町１５０７番地１６,,09,201,3200851,,,2024-02-05,合併による解散等,8010001064382,令和６年２月１日東京都千代田区神田佐久間町二丁目１５番地東京グラスロン株式会社（8010001064382）に合併し解散,2015-10-05,1,,,,,ケンショウ,0
686,3070002008412,登記記録の閉鎖等,0,2024-02-09,2024-02-02,有限会社青山設備工業,,有限会社,群馬県,高崎市,高関町５１９番地１１,,10,202,3700043,,,2024-02-02,清算の結了等,,,2015-10-05,1,,,,,アオヤマセツビコウギョウ,0
687,3070002012711,登記記録の閉鎖等,0,2024-02-09,2024-02-06,有限会社ライズファクトリー,,有限会社,群馬県,高崎市,倉賀野町５８８番地３,,10,202,3701201,,,2024-02-06,清算の結了等,,,2015-10-05,1,,,,,ライズファクトリー,0
704,3100002016386,登記記録の閉鎖等,0,2024-02-09,2024-02-06,有限会社宮下電工,,有限会社,長野県,上田市,長瀬２６０６番地１４,,20,203,3860407,,,2024-02-06,清算の結了等,,,2015-10-05,1,,,,,ミヤシタデンコウ,0
705,3100002031484,登記記録の閉鎖等,0,2024-02-09,2024-02-06,有限会社タナカ製作所,,有限会社,長野県,岡谷市,本町１丁目３番１１号,,20,204,3940028,,,2024-02-06,清算の結了等,,,2015-10-05,1,,,,,タナカセイサクショ,0
722,3120002001964,登記記録の閉鎖等,0,2024-02-09,2024-02-02,有限会社佐々木カンパニー,,有限会社,大阪府,大阪市西成区,岸里東１丁目２７番５号,,27,122,5570042,,,2024-02-02,清算の結了等,,,2015-10-05,1,,,,,ササキカンパニー,0
730,3120101064598,登記記録の閉鎖等,0,2024-02-09,2024-02-08,株式会社広綾,,株式会社,大阪府,岸和田市,内畑町３２３番地の３,,27,202,5960105,,,2024-02-08,清算の結了等,,,2021-11-08,1,,,,,コウリョウ,0
736,3122002003882,登記記録の閉鎖等,0,2024-02-09,2024-02-08,有限会社一二三商事,,有限会社,大阪府,東大阪市,菱屋東１丁目１４番２２号,,27,227,5780948,,,2024-02-08,清算の結了等,,,2015-10-05,1,,,,,ヒフミショウジ,0
747,3140002062617,登記記録の閉鎖等,0,2024-02-09,2024-02-05,有限会社Ｆ’ｓＬＩＶＩＮＧ,,有限会社,兵庫県,西脇市,黒田庄町石原１０２１番地の２,,28,213,6790322,,,2024-02-05,清算の結了等,,,2015-10-05,1,,,,,エフズリビング,0
767,3220003000617,登記記録の閉鎖等,0,2024-02-09,2024-02-06,アメリカンツール合資会社,,合資会社,石川県,金沢市,森戸１丁目３１番地,,17,201,9218061,,,2024-02-06,清算の結了等,,,2015-10-05,1,,,,,アメリカンツール,0
776,3250002013922,登記記録の閉鎖等,0,2024-02-09,2024-02-08,有限会社泰千,,有限会社,山口県,萩市,大字唐樋町３０番地５,00002740,35,204,7580044,,,2024-02-08,清算の結了等,,,2015-10-05,1,,,,,タイセン,0
789,3290805008165,登記記録の閉鎖等,0,2024-02-09,2024-02-07,特定非営利活動法人ＨＭ自立支援協会,,その他の設立登記法人,福岡県,北九州市小倉北区,宇佐町１丁目１２番１８号,,40,106,8020016,,,2024-02-07,清算の結了等,,,2015-10-05,1,,,,,エイチエムジリツシエンキョウカイ,0
791,3310001001153,登記記録の閉鎖等,0,2024-02-09,2024-02-08,株式会社辻田土木,00095656,株式会社,長崎県,長崎市,大浜町８４６番地,,42,201,8500066,,,2024-02-08,清算の結了等,,,2015-10-05,1,,,,,,0
836,4010002017970,登記記録の閉鎖等,0,2024-02-09,2024-02-05,有限会社エムエッチ企画,,有限会社,東京都,中央区,銀座４丁目１４番１５－６０４号,,13,102,1040061,,,2024-02-05,清算の結了等,,,2015-10-05,1,,,,,エムエッチキカク,0
847,4010403030597,登記記録の閉鎖等,0,2024-02-09,2024-02-02,合同会社三鷹ＳＩＸ,,合同会社,東京都,港区,赤坂３丁目２１－１７,,13,103,1070052,,,2024-02-02,清算の結了等,,,2023-08-03,1,,,,,ミタカシックス,0
882,4011701010803,登記記録の閉鎖等,0,2024-02-09,2024-02-06,自然の森製薬株式会社,,株式会社,東京都,江戸川区,中葛西３丁目１６番１０号,,13,123,1340083,,,2024-02-06,合併による解散等,8010401174681,令和６年２月１日東京都港区虎ノ門五丁目１１番１号オランダヒルズ森タワーＲｏＰ自然の森製薬株式会社（8010401174681）に合併し解散,2015-10-05,1,,,,,シゼンノモリセイヤク,0
890,4012701011527,登記記録の閉鎖等,0,2024-02-09,2024-02-06,株式会社未來工房,,株式会社,東京都,東久留米市,中央町６丁目２番２５号,,13,222,2030054,,,2024-02-06,清算の結了等,,,2015-10-05,1,,,,,ミライコウボウ,0
897,4013301032021,登記記録の閉鎖等,0,2024-02-09,2024-02-05,株式会社ナーリッシュ,,株式会社,東京都,豊島区,東池袋２丁目１番３号ＭＫビル３階,,13,116,1700013,,,2024-02-05,清算の結了等,,,2015-10-05,1,,,,,ナーリッシュ,0
898,4020001007220,登記記録の閉鎖等,0,2024-02-09,2024-02-08,株式会社川井,,株式会社,神奈川県,横浜市戸塚区,下倉田町９２５番地１３,,14,110,2440815,,,2024-02-08,清算の結了等,,,2015-10-05,1,,,,,カワイ,0
902,4020001128264,登記記録の閉鎖等,0,2024-02-09,2024-02-07,株式会社ＺｉｐｐｏＳｔｙｌｅ,,株式会社,神奈川県,横浜市中区,野毛町３丁目１６０番４－１１０号,,14,104,2310064,,,2024-02-07,合併による解散等,2020001027311,令和６年２月１日横浜市中区野毛町三丁目１０４番地株式会社ソウシン（2020001027311）に合併し解散,2018-10-09,1,,,,,ジッポスタイル,0
913,4021001066594,登記記録の閉鎖等,0,2024-02-09,2024-02-05,株式会社大一電業,,株式会社,神奈川県,相模原市中央区,弥栄２丁目８番８号,,14,152,2520229,,,2024-02-05,清算の結了等,,,2019-02-12,1,,,,,ダイイチデンギョウ,0
943,4050001034237,登記記録の閉鎖等,0,2024-02-09,2024-02-05,株式会社商輪,,株式会社,茨城県,水戸市,城南２丁目９番１２号,,08,201,3100803,,,2024-02-05,合併による解散等,8050001025125,令和６年２月１日茨城県龍ケ崎市久保台二丁目２番地１株式会社アドバンス（8050001025125）に合併し解散,2015-10-05,1,,,,,ショウワ,0
949,4060001019030,登記記録の閉鎖等,0,2024-02-09,2024-02-05,株式会社バイオテクノジャパン,,株式会社,栃木県,足利市,五十部町９７１番地,,09,202,3260843,,,2024-02-05,清算の結了等,,,2015-10-05,1,,,,,バイオテクノジャパン,0
950,4060001034054,登記記録の閉鎖等,0,2024-02-09,2024-02-05,株式会社彦ファーム,,株式会社,栃木県,足利市,伊勢町１丁目３番地１,,09,202,3260053,,,2024-02-05,清算の結了等,,,2021-09-13,1,,,,,ヒコファーム,0
959,4080401004613,登記記録の閉鎖等,0,2024-02-09,2024-02-07,株式会社富士装室,,株式会社,静岡県,浜松市中央区,本郷町１３１２番地の９,,22,138,4300812,,,2024-02-07,清算の結了等,,,2015-10-05,1,,,,,フジソウシツ,0
963,4100002002567,登記記録の閉鎖等,0,2024-02-09,2024-02-06,有限会社鮨定,,有限会社,長野県,長野市,大字西尾張部２４０番地１,,20,201,3810031,,,2024-02-06,清算の結了等,,,2015-10-05,1,,,,,スシサダ,0
1001,4160002006991,登記記録の閉鎖等,0,2024-02-09,2024-02-07,有限会社鱒喜屋,00044627,有限会社,滋賀県,米原市,上丹生６１８番地,,25,214,5210033,,,2024-02-07,清算の結了等,,,2015-10-05,1,,,,,マスキヤ,0
1011,4180003011527,登記記録の閉鎖等,0,2024-02-09,2024-02-05,合資会社野村秋毛織,,合資会社,愛知県,一宮市,南小渕２５３７番地,,23,203,4910014,,,2024-02-05,清算の結了等,,,2015-10-05,1,,,,,ノムラアキケオリ,0
1023,4200002014123,登記記録の閉鎖等,0,2024-02-09,2024-02-07,有限会社チェンジ・ワン,,有限会社,岐阜県,大垣市,鶴見町６８４番地の２,,21,202,5030805,,,2024-02-07,清算の結了等,,,2015-10-05,1,,,,,チェンジワン,0
1031,4240001059215,登記記録の閉鎖等,0,2024-02-09,2024-02-07,株式会社Ａｃｔｉｖｅ,,株式会社,広島県,三次市,君田町泉吉田１９０番地の２,,34,209,7280405,,,2024-02-07,清算の結了等,,,2022-01-18,1,,,,,アクティブ,0
1032,4240005009934,登記記録の閉鎖等,0,2024-02-09,2024-01-30,福山ファッションビジネス協同組合,,その他の設立登記法人,広島県,福山市,南手城町１丁目１４番１号,,34,207,7210963,,,2024-01-30,清算の結了等,,,2015-10-05,1,,,,,フクヤマファッションビジネス,0
1037,4260002014588,登記記録の閉鎖等,0,2024-02-09,2024-02-07,有限会社松久建設,,有限会社,岡山県,加賀郡吉備中央町,豊野１１２５番地,,33,681,7161101,,,2024-02-07,清算の結了等,,,2015-10-05,1,,,,,マツヒサケンセツ,0
1041,4270002004126,登記記録の閉鎖等,0,2024-02-09,2024-02-08,有限会社ハクスイ環境,,有限会社,鳥取県,鳥取市,鹿野町今市８７７番地,,31,201,6890425,,,2024-02-08,清算の結了等,,,2015-10-05,1,,,,,ハクスイカンキョウ,0
1043,4280001006816,登記記録の閉鎖等,0,2024-02-09,2024-02-01,株式会社まる珈琲,,株式会社,島根県,出雲市,大社町杵築南７８０番地９,,32,203,6990711,,,2024-02-01,合併による解散等,6280001006715,令和６年２月１日島根県出雲市大社町杵築南７８０番地９株式会社まるこ（6280001006715）に合併し解散,2015-10-05,1,,,,,マルコーヒー,0
1046,4290001093580,登記記録の閉鎖等,0,2024-02-09,2024-01-23,株式会社Ｉｓｙｕｏｎ,,株式会社,福岡県,福岡市中央区,天神１丁目９番１７号,,40,133,8100001,,,2024-01-23,清算の結了等,,,2021-06-22,1,,,,,イシュオン,0
1050,4290005018856,登記記録の閉鎖等,0,2024-02-09,2024-02-06,一般社団法人つくも,,その他の設立登記法人,福岡県,八女市,本町１－１７－１,,40,210,8340031,,,2024-02-06,清算の結了等,,,2022-11-16,1,,,,,ツクモ,0
1059,4320002007115,登記記録の閉鎖等,0,2024-02-09,2024-02-07,有限会社湯布岳地獄,,有限会社,大分県,大分市,明野西２丁目２５番１号,,44,201,8700164,,,2024-02-07,清算の結了等,,,2015-10-05,1,,,,,ユフダケジゴク,0
1060,4320002013699,登記記録の閉鎖等,0,2024-02-09,2024-02-06,有限会社愛機自動車工場,,有限会社,大分県,宇佐市,大字吉松２４４番地の１,,44,211,8790441,,,2024-02-06,清算の結了等,,,2015-10-05,1,,,,,,0
1072,4380002004461,登記記録の閉鎖等,0,2024-02-09,2024-02-06,有限会社コムテック二十一,,有限会社,福島県,福島市,宮下町６番４号,,07,201,9608011,,,2024-02-06,清算の結了等,,,2015-10-05,1,,,,,コムテックニジュウイチ,0
1083,4430005007729,登記記録の閉鎖等,0,2024-02-09,2024-01-31,医療法人社団つだ小児科,,その他の設立登記法人,北海道,小樽市,稲穂４丁目２番２１号,,01,203,0470032,,,2024-01-31,清算の結了等,,,2015-10-05,1,,,,,ツダショウニカ,0
1088,4490001009789,登記記録の閉鎖等,0,2024-02-09,2024-01-29,株式会社不入流企画,,株式会社,高知県,高知市,朝倉南町４番４５－６号,,39,201,7808075,,,2024-01-29,合併による解散等,9490002005816,令和６年１月２８日高知市朝倉南町４番１８－５号株式会社不入流（9490002005816）に合併し解散,2021-02-09,1,,,,,イラズリュウキカク,0
1099,5010001145895,登記記録の閉鎖等,0,2024-02-09,2024-02-05,株式会社ジエム・ジーガン,,株式会社,東京都,千代田区,永田町２丁目１４番３号東急プラザ赤坂１１３号,,13,101,1000014,,,2024-02-05,清算の結了等,,,2015-10-05,1,,,,,ジエムジーガン,0
1116,5010403012982,登記記録の閉鎖等,0,2024-02-09,2024-02-02,パシフィコ・エナジー豊田合同会社,,合同会社,東京都,港区,六本木６丁目１０番１号六本木ヒルズ森タワー,,13,103,1060032,,,2024-02-02,清算の結了等,,,2015-10-05,1,,,,,パシフィコエナジートヨタ,0
1117,5010403014649,登記記録の閉鎖等,0,2024-02-09,2024-02-02,合同会社錦糸町開発,,合同会社,東京都,港区,六本木６丁目１０番１号六本木ヒルズ森タワー,,13,103,1060032,,,2024-02-02,清算の結了等,,,2016-04-01,1,,,,,キンシチョウカイハツ,0
1128,5010901011668,登記記録の閉鎖等,0,2024-02-09,2024-02-05,株式会社三武,,株式会社,神奈川県,横浜市保土ケ谷区,新桜ケ丘１丁目５７番８号,,14,106,2400036,,,2024-02-05,清算の結了等,,,2015-10-05,1,,,,,ミツタケ,0
1147,5011801036004,登記記録の閉鎖等,0,2024-02-09,2024-02-07,近藤興業株式会社,,株式会社,東京都,足立区,保木間２丁目３０番１号,,13,121,1210064,,,2024-02-07,清算の結了等,,,2019-04-15,1,,,,,コンドウコウギョウ,0
1148,5012401020876,登記記録の閉鎖等,0,2024-02-09,2024-02-05,株式会社ＫＭＴ研究所,,株式会社,東京都,三鷹市,下連雀３丁目２７番１号三協ビル２Ｆ,,13,204,1810013,,,2024-02-05,清算の結了等,,,2015-10-05,1,,,,,ケーエムティケンキュウショ,0
1149,5012402015082,登記記録の閉鎖等,0,2024-02-09,2024-02-05,有限会社広伸企画,,有限会社,東京都,府中市,府中町１丁目８番地の１２,,13,206,1830055,,,2024-02-05,清算の結了等,,,2015-10-05,1,,,,,コウシンキカク,0
1151,5012801019469,登記記録の閉鎖等,0,2024-02-09,2024-02-08,國井商事株式会社,,株式会社,静岡県,伊東市,八幡野１７４１番地１４３号,,22,208,4130232,,,2024-02-08,清算の結了等,,,2019-06-12,1,,,,,クニイショウジ,0
1155,5012805000482,登記記録の閉鎖等,0,2024-02-09,2024-02-05,特定非営利活動法人まめの会,,その他の設立登記法人,東京都,東大和市,立野２丁目４番地の１２,,13,220,2070021,,,2024-02-05,清算の結了等,,,2015-10-05,1,,,,,マメノカイ,0
1170,5020002031136,登記記録の閉鎖等,0,2024-02-09,2024-01-31,有限会社原運輸興業,,有限会社,神奈川県,横浜市南区,中村町４丁目２８１番地１６,,14,105,2320033,,,2024-01-31,清算の結了等,,,2015-10-05,1,,,,,ハラウンユコウギョウ,0
1180,5021001052536,登記記録の閉鎖等,0,2024-02-09,2024-02-06,株式会社Ｌｉｎｋ,,株式会社,神奈川県,平塚市,御殿１丁目２２番２２号,,14,203,2540061,,,2024-02-06,清算の結了等,,,2015-10-05,1,,,,,リンク,0
1182,5021002056651,登記記録の閉鎖等,0,2024-02-09,2024-02-08,有限会社アンビシャン,,有限会社,神奈川県,平塚市,桜ケ丘１番１５－１０４号ダイアパレス平塚第２,,14,203,2540053,,,2024-02-08,清算の結了等,,,2015-10-05,1,,,,,,0
1198,5060001035332,登記記録の閉鎖等,0,2024-02-09,2024-02-05,カンチャン株式会社,,株式会社,栃木県,宇都宮市,東宿郷２丁目１６番１８号タカヲイン１０３号,,09,201,3210953,,,2024-02-05,清算の結了等,,,2022-10-17,1,,,,,カンチャン,0
1206,5090001011974,登記記録の閉鎖等,0,2024-02-09,2024-02-08,小林設計株式会社,,株式会社,山梨県,南巨摩郡身延町,北川５２９７番地,,19,365,4092931,,,2024-02-08,清算の結了等,,,2015-10-05,1,,,,,コバヤシセッケイ,0
1207,5100002009628,登記記録の閉鎖等,0,2024-02-09,2024-02-06,ワード有限会社,,有限会社,長野県,千曲市,大字力石８５番地,,20,218,3890824,,,2024-02-06,清算の結了等,,,2015-10-05,1,,,,,ワード,0
1208,5110001033124,登記記録の閉鎖等,0,2024-02-09,2024-02-07,株式会社パトラッシュ,,株式会社,新潟県,妙高市,大字猪野山１２０番地８,,15,217,9440075,,,2024-02-07,清算の結了等,,,2018-04-09,1,,,,,パトラッシュ,0
1226,5120003023741,登記記録の閉鎖等,0,2024-02-09,2024-02-06,立人合同会社,,合同会社,大阪府,大阪市生野区,巽北２丁目１１番１４号３０１号室,00129906,27,116,5440004,,,2024-02-06,清算の結了等,,,2023-03-30,1,,,,,リツジン,0
1227,5120005012197,登記記録の閉鎖等,0,2024-02-09,2024-02-07,一般財団法人岡田会,,その他の設立登記法人,大阪府,大阪市此花区,四貫島２丁目７番１号,,27,104,5540014,,,2024-02-07,清算の結了等,,,2015-10-05,1,,,,,オカダカイ,0
1229,5120101021663,登記記録の閉鎖等,0,2024-02-09,2024-02-07,株式会社鳥清,,株式会社,大阪府,堺市美原区,平尾８３番地の１,,27,147,5870022,,,2024-02-07,清算の結了等,,,2015-10-05,1,,,,,トリキヨ,0
1256,5180001071167,登記記録の閉鎖等,0,2024-02-09,2024-02-02,株式会社シャオ・ウーティン,,株式会社,愛知県,名古屋市中川区,八田町１７１２番地,,23,110,4540877,,,2024-02-02,清算の結了等,,,2015-10-05,1,,,,,シャオウーティン,0
1267,5230002006942,登記記録の閉鎖等,0,2024-02-09,2024-02-06,有限会社タイムカンパニー,,有限会社,富山県,富山市,高内２３９番地,,16,201,9392254,,,2024-02-06,清算の結了等,,,2015-10-05,1,,,,,タイムカンパニー,0
1268,5240001027699,登記記録の閉鎖等,0,2024-02-09,2024-02-08,神栄株式会社,,株式会社,広島県,呉市,音戸町畑３丁目１７番３号,,34,202,7371211,,,2024-02-08,清算の結了等,,,2015-10-05,1,,,,,シンエイ,0
1273,5290001037719,登記記録の閉鎖等,0,2024-02-09,2024-02-07,あおぞら食品株式会社,,株式会社,福岡県,古賀市,鹿部３３５番地６４,,40,223,8113105,,,2024-02-07,清算の結了等,,,2015-10-05,1,,,,,アオゾラショクヒン,0
1274,5290001038782,登記記録の閉鎖等,0,2024-02-09,2024-02-06,東亜航空技研株式会社,,株式会社,福岡県,糟屋郡宇美町,障子岳６丁目５番８号,,40,341,8112127,,,2024-02-06,清算の結了等,,,2015-10-05,1,,,,,トウアコウクウギケン,0
1275,5290001041191,登記記録の閉鎖等,0,2024-02-09,2024-02-07,マルヒ食品株式会社,,株式会社,福岡県,太宰府市,大字吉松４３番地,,40,221,8180138,,,2024-02-07,清算の結了等,,,2015-10-05,1,,,,,マルヒショクヒン,0
1284,5300001004840,登記記録の閉鎖等,0,2024-02-09,2024-02-07,株式会社國廣,,株式会社,佐賀県,鹿島市,大字常広１１８番地８,,41,207,8491301,,,2024-02-07,清算の結了等,,,2015-10-05,1,,,,,クニヒロ,0
1298,5340005005575,登記記録の閉鎖等,0,2024-02-09,2024-02-07,特定非営利活動法人あなただけの乳がんではなく,,その他の設立登記法人,鹿児島県,鹿児島市,新屋敷町２７番３号,,46,201,8920838,,,2024-02-07,清算の結了等,,,2015-10-05,1,,,,,アナタダケノニュウガンデハナク,0
1301,5350002017655,登記記録の閉鎖等,0,2024-02-09,2024-02-06,有限会社安部養魚場,,有限会社,宮崎県,小林市,須木内山５３４３番地５５,,45,205,8860115,,,2024-02-06,清算の結了等,,,2015-10-05,1,,,,,アベヨウギョジョウ,0
1310,5370201000435,登記記録の閉鎖等,0,2024-02-09,2024-02-08,株式会社丸協,,株式会社,宮城県,遠田郡美里町,北浦１丁目１番地,,04,505,9870005,,,2024-02-08,清算の結了等,,,2015-10-05,1,,,,,,0
1324,5480005002591,登記記録の閉鎖等,0,2024-02-09,2024-02-07,特定非営利活動法人いきいきネットとくしま,,その他の設立登記法人,徳島県,徳島市,津田本町１丁目２番６号,,36,201,7708003,,,2024-02-07,清算の結了等,,,2015-10-05,1,,,,,イキイキネットトクシマ,0
1326,5500002023332,登記記録の閉鎖等,0,2024-02-09,2024-02-07,有限会社イモケンファクトリー,,有限会社,愛媛県,宇和島市,吉田町魚棚３４番地６,,38,203,7993704,,,2024-02-07,清算の結了等,,,2015-10-05,1,,,,,イモケンファクトリー,0
1332,6010001195304,登記記録の閉鎖等,0,2024-02-09,2024-02-02,ＦＲＥＥＤＯＭマーケティング株式会社,,株式会社,東京都,中央区,日本橋富沢町１１番１２号,,13,102,1030006,,,2024-02-02,合併による解散等,7010001204047,令和６年２月１日東京都中央区日本橋富沢町１１番１２号ＦＲＥＥＤＯＭ　Ｘ株式会社（7010001204047）に合併し解散,2018-10-04,1,,,,,フリーダムマーケティング,0
1337,6010002035467,登記記録の閉鎖等,0,2024-02-09,2024-02-05,有限会社ユーアンドエフ,,有限会社,東京都,千代田区,飯田橋４丁目６番１０号,,13,101,1020072,,,2024-02-05,清算の結了等,,,2015-10-05,1,,,,,ユーアンドエフ,0
1381,6011105002412,登記記録の閉鎖等,0,2024-02-09,2024-02-07,特定非営利活動法人グローバル・セキュリティー・インスティテュート・ジャパン,,その他の設立登記法人,東京都,千代田区,神田猿楽町２丁目７番５号ＮＫビル４階,,13,101,1010064,,,2024-02-07,清算の結了等,,,2015-10-05,1,,,,,グローバルセキュリティーインスティテュートジャパン,0
1384,6011401002231,登記記録の閉鎖等,0,2024-02-09,2024-02-07,株式会社コンパスサービス,,株式会社,東京都,板橋区,成増１丁目３１番１０号,,13,119,1750094,,,2024-02-07,合併による解散等,3011001036624,令和６年２月１日東京都渋谷区神宮前一丁目３番１２号株式会社ボーネルンド（3011001036624）に合併し解散,2015-10-05,1,,,,,コンパスサービス,0
1408,6020002096293,登記記録の閉鎖等,0,2024-02-09,2024-02-05,柏電業有限会社,,有限会社,神奈川県,川崎市川崎区,川中島１丁目２２番１１号,,14,131,2100803,,,2024-02-05,清算の結了等,,,2015-10-05,1,,,,,カシワデンギョウ,0
1425,6030005007874,登記記録の閉鎖等,0,2024-02-09,2024-01-09,特定非営利活動法人ＮＰＯ春日部教育フォーラム,,その他の設立登記法人,埼玉県,春日部市,小渕１４９３番地３,,11,214,3440007,,,2024-01-09,清算の結了等,,,2015-10-05,1,,,,,カスカベキョウイクフォーラム,0
1426,6040001090007,登記記録の閉鎖等,0,2024-02-09,2024-01-30,ＲＥＷ’ｓ　Ｂｒｉｄｇｅ株式会社,,株式会社,東京都,渋谷区,恵比寿２丁目３７番６号,,13,113,1500013,,,2024-01-30,清算の結了等,,,2015-10-05,1,,,,,リューズブリッジ,0
1435,6040002000278,登記記録の閉鎖等,0,2024-02-09,2024-02-02,有限会社アキシス,,有限会社,千葉県,千葉市中央区,中央３丁目１８番３号,,12,101,2600013,,,2024-02-02,清算の結了等,,,2015-10-05,1,,,,,アキシス,0
1452,6100003004057,登記記録の閉鎖等,0,2024-02-09,2024-02-05,合資会社やま,,合資会社,長野県,伊那市,高遠町小原６４７番地,,20,209,3960215,,,2024-02-05,清算の結了等,,,2015-10-05,1,,,,,ヤマ,0
1457,6120001167382,登記記録の閉鎖等,0,2024-02-09,2024-02-06,ＡＣワークス株式会社,,株式会社,大阪府,大阪市西区,土佐堀１丁目５番１１号,,27,106,5500001,,,2024-02-06,合併による解散等,7010401164444,令和６年２月１日東京都港区西新橋二丁目８番６号ＡＣワークス株式会社（7010401164444）に合併し解散,2015-10-05,1,,,,,エーシーワークス,0
1458,6120001178512,登記記録の閉鎖等,0,2024-02-09,2024-02-05,Ｗｉｔｈ－Ｂｒｉｇｈｔ株式会社,,株式会社,大阪府,大阪市中央区,高麗橋２丁目２番１２号高麗橋藤浪ビル８階,,27,128,5410043,,,2024-02-05,清算の結了等,,,2015-10-05,1,,,,,ウイズブライト,0
1467,6120003004939,登記記録の閉鎖等,0,2024-02-09,2024-02-06,ディーメイク合資会社,,合資会社,大阪府,大阪市北区,長柄西２丁目５番５号,,27,127,5310061,,,2024-02-06,清算の結了等,,,2015-10-05,1,,,,,ディーメイク,0
1473,6120102011175,登記記録の閉鎖等,0,2024-02-09,2024-02-08,有限会社プルーブ,,有限会社,大阪府,堺市堺区,海山町５丁１７８番地の３,,27,141,5900982,,,2024-02-08,清算の結了等,,,2015-10-05,1,,,,,,0
1484,6140001053366,登記記録の閉鎖等,0,2024-02-09,2024-02-08,株式会社南電気,,株式会社,兵庫県,尼崎市,東園田町９丁目３番地の２,,28,202,6610953,,,2024-02-08,清算の結了等,,,2015-10-05,1,,,,,ミナミデンキ,0
1506,6180001061324,登記記録の閉鎖等,0,2024-02-09,2024-02-07,イッツ・タイム株式会社,,株式会社,愛知県,岡崎市,戸崎町字牛転１０番地５メープルタワー竜美ケ丘アネックス６０３,,23,202,4440840,,,2024-02-07,清算の結了等,,,2015-10-05,1,,,,,イッツタイム,0
1513,6180301026571,登記記録の閉鎖等,0,2024-02-09,2024-02-06,豊田安城不動産株式会社,,株式会社,愛知県,安城市,住吉町３丁目１０番５１号,,23,212,4460072,,,2024-02-06,清算の結了等,,,2015-10-05,1,,,,,トヨタアンジョウフドウサン,0
1514,6180301033790,登記記録の閉鎖等,0,2024-02-09,2024-02-07,新令和株式会社,,株式会社,愛知県,岡崎市,欠町字松ケ瀬１番地１,,23,202,4440011,,,2024-02-07,清算の結了等,,,2020-06-10,1,,,,,シンレイワ,0
1522,6200002004881,登記記録の閉鎖等,0,2024-02-09,2024-02-07,有限会社モリマン精工,,有限会社,岐阜県,岐阜市,六条片田１丁目１４番１１号,,21,201,5008355,,,2024-02-07,清算の結了等,,,2015-10-05,1,,,,,モリマンセイコウ,0
1531,6240002005991,登記記録の閉鎖等,0,2024-02-09,2024-02-05,有限会社コカワ,,有限会社,広島県,広島市安佐北区,深川７丁目１５番３６号,,34,106,7391751,,,2024-02-05,清算の結了等,,,2015-10-05,1,,,,,コカワ,0
1548,6290002042056,登記記録の閉鎖等,0,2024-02-09,2024-02-07,有限会社ケン・フィールド,,有限会社,福岡県,太宰府市,梅香苑４丁目１６番２８号,,40,221,8180124,,,2024-02-07,清算の結了等,,,2015-10-05,1,,,,,,0
1563,6310005001667,登記記録の閉鎖等,0,2024-02-09,2024-02-08,特定非営利活動法人アクサ,,その他の設立登記法人,長崎県,長崎市,中里町１７３０番地１,,42,201,8510103,,,2024-02-08,清算の結了等,,,2015-10-05,1,,,,,,0
1568,6360001025789,登記記録の閉鎖等,0,2024-02-09,2024-02-05,美らカレッジ株式会社,,株式会社,沖縄県,那覇市,久茂地１丁目１番１号９Ｆ,,47,201,9000015,,,2024-02-05,清算の結了等,,,2019-06-10,1,,,,,チュラカレッジ,0
1577,6380002002579,登記記録の閉鎖等,0,2024-02-09,2024-02-07,有限会社ナガワ空調システム,,有限会社,福島県,福島市,郷野目字仲２７番地の３,,07,201,9608161,,,2024-02-07,清算の結了等,,,2015-10-05,1,,,,,ナガワクウチョウシステム,0
1583,6410003003093,登記記録の閉鎖等,0,2024-02-09,2024-02-01,合同会社ゴーウィン,,合同会社,秋田県,秋田市,広面字谷内佐渡１５２番地２,,05,201,0100041,,,2024-02-01,清算の結了等,,,2017-06-16,1,,,,,ゴーウィン,0
1587,6420003001402,登記記録の閉鎖等,0,2024-02-09,2024-02-06,合同会社はやの森,,合同会社,青森県,八戸市,大字糠塚字大開２番地８,,02,203,0310022,,,2024-02-06,清算の結了等,,,2015-10-05,1,,,,,ハヤノモリ,0
1589,6430001088572,登記記録の閉鎖等,0,2024-02-09,2024-02-05,株式会社カラフル,,株式会社,北海道,札幌市中央区,南二条西３丁目１３番４号,,01,101,0600062,,,2024-02-05,清算の結了等,,,2023-03-02,1,,,,,カラフル,0
1593,6430005007727,登記記録の閉鎖等,0,2024-02-09,2024-02-02,医療法人社団館歯科医院,,その他の設立登記法人,北海道,小樽市,稲穂３丁目１４番１４号,,01,203,0470032,,,2024-02-02,清算の結了等,,,2015-10-05,1,,,,,タチシカイイン,0
1595,6460101005474,登記記録の閉鎖等,0,2024-02-09,2024-02-02,ＹＵＺＵ堂株式会社,,株式会社,北海道,帯広市,西十四条南１４丁目３番地３,,01,207,0800024,,,2024-02-02,清算の結了等,,,2015-10-05,1,,,,,ユズドウ,0
1635,7010405012888,登記記録の閉鎖等,0,2024-02-09,2024-02-05,特定非営利活動法人日本メディカル・トレーニング・ネットワーク,,その他の設立登記法人,東京都,港区,港南４丁目６番４－３３０８号,,13,103,1080075,,,2024-02-05,清算の結了等,,,2015-10-05,1,,,,,,0
1645,7010901028693,登記記録の閉鎖等,0,2024-02-09,2024-02-05,株式会社ＡＩＭ,,株式会社,東京都,世田谷区,桜丘１丁目８番１４号,,13,112,1560054,,,2024-02-05,清算の結了等,,,2015-10-05,1,,,,,エイム,0
1651,7011001097737,登記記録の閉鎖等,0,2024-02-09,2024-01-05,株式会社Ｆｕｌｌ　Ｂｅｔ　Ｇｒｏｕｐ,,株式会社,東京都,渋谷区,円山町３番６号Ｅ・スペースタワー４階,,13,113,1500044,,,2024-01-05,合併による解散等,4011001093350,令和６年１月１日東京都渋谷区円山町３番６号Ｅ・スペースタワー４階株式会社リアステージ（4011001093350）に合併し解散,2015-10-05,1,,,,,フルベットグループ,0
1666,7011401025578,登記記録の閉鎖等,0,2024-02-09,2024-02-07,高野建設株式会社,,株式会社,東京都,板橋区,成増１丁目１６番１６号,,13,119,1750094,,,2024-02-07,清算の結了等,,,2023-11-06,1,,,,,タカノケンセツ,0
1673,7011701000272,登記記録の閉鎖等,0,2024-02-09,2024-02-01,株式会社浅野製作所,,株式会社,東京都,文京区,小石川２丁目２２番２号,,13,105,1120002,,,2024-02-01,合併による解散等,7010001077451,令和６年２月１日東京都文京区小石川二丁目２２番２号株式会社タープホールディングス（7010001077451）に合併し解散,2015-10-05,1,,,,,アサノセイサクショ,0
1695,7020003016035,登記記録の閉鎖等,0,2024-02-09,2024-02-06,長鴻合同会社,,合同会社,東京都,世田谷区,玉川３丁目２０番２号マノア玉川第３・５０１号室,,13,112,1580094,,,2024-02-06,清算の結了等,,,2019-05-14,1,,,,,チョウコウ,0
1702,7021001075122,登記記録の閉鎖等,0,2024-02-09,2024-02-07,株式会社ＢＳ商会,,株式会社,神奈川県,平塚市,東真土３丁目６番６５号,,14,203,2540018,,,2024-02-07,清算の結了等,,,2022-02-04,1,,,,,ビーエスショウカイ,0
1714,7040001119291,登記記録の閉鎖等,0,2024-02-09,2024-02-02,株式会社ＴＭＳ,,株式会社,千葉県,船橋市,本町５丁目３番１号,,12,204,2730005,,,2024-02-02,清算の結了等,,,2021-07-09,1,,,,,ティーエムエス,0
1723,7060002001991,登記記録の閉鎖等,0,2024-02-09,2024-02-05,有限会社エヌテイシステム,,有限会社,栃木県,宇都宮市,石井町３４１３番地６３,,09,201,3210912,,,2024-02-05,清算の結了等,,,2015-10-05,1,,,,,エヌテイシステム,0
1735,7110001023429,登記記録の閉鎖等,0,2024-02-09,2024-02-06,北陸開発株式会社,,株式会社,新潟県,長岡市,川崎４丁目３４２番地,,15,202,9400864,,,2024-02-06,清算の結了等,,,2015-10-05,1,,,,,ホクリクカイハツ,0
1744,7120005020058,登記記録の閉鎖等,0,2024-02-09,2024-02-06,弁護士法人こまくさ法律事務所,,その他の設立登記法人,大阪府,大阪市中央区,上本町西５丁目３番３号ワンダー５ビル２階,,27,128,5420062,,,2024-02-06,清算の結了等,,,2018-03-06,1,,,,,コマクサホウリツジムショ,0
1762,7140001093295,登記記録の閉鎖等,0,2024-02-09,2024-02-06,東蘭貿易株式会社,,株式会社,兵庫県,加古川市,尾上町安田８９１番地,,28,210,6750021,,,2024-02-06,清算の結了等,,,2015-10-05,1,,,,,トウランボウエキ,0
1769,7140003014720,登記記録の閉鎖等,0,2024-02-09,2024-02-07,合同会社ｇａｌａｖｏ,,合同会社,兵庫県,尼崎市,杭瀬南新町４丁目５番６－８１２号,,28,202,6600822,,,2024-02-07,清算の結了等,,,2020-02-20,1,,,,,ガラボ,0
1774,7170001013135,登記記録の閉鎖等,0,2024-02-09,2024-02-07,株式会社ケイ・キューブ,,株式会社,和歌山県,海南市,岡田２８２番地５,,30,202,6420012,,,2024-02-07,清算の結了等,,,2015-10-05,1,,,,,ケイキューブ,0
1775,7180001005024,登記記録の閉鎖等,0,2024-02-09,2024-02-05,日本軽気球広告株式会社,,株式会社,愛知県,名古屋市千種区,神田町４番１３号,,23,101,4640077,,,2024-02-05,清算の結了等,,,2015-10-05,1,,,,,ニホンケイキキュウコウコク,0
1782,7180002005576,登記記録の閉鎖等,0,2024-02-09,2024-02-06,有限会社ライトヒルズ,,有限会社,愛知県,名古屋市千種区,光が丘２丁目１２番２８号,,23,101,4640006,,,2024-02-06,清算の結了等,,,2015-10-05,1,,,,,ライトヒルズ,0
1787,7180303005614,登記記録の閉鎖等,0,2024-02-09,2024-02-05,合同会社ふくしげ,,合同会社,愛知県,豊川市,高見町４丁目１３―２,,23,207,4420883,,,2024-02-05,清算の結了等,,,2023-02-15,1,,,,,フクシゲ,0
1797,7210002002223,登記記録の閉鎖等,0,2024-02-09,2024-02-07,有限会社田中機械,,有限会社,福井県,福井市,東今泉町第２号１９番地の２,,18,201,9188214,,,2024-02-07,清算の結了等,,,2015-10-05,1,,,,,タナカキカイ,0
1803,7240002020107,登記記録の閉鎖等,0,2024-02-09,2024-02-05,有限会社企デ広社,,有限会社,広島県,広島市安芸区,中野４丁目３８番５２号,,34,107,7390321,,,2024-02-05,清算の結了等,,,2015-10-05,1,,,,,キデコウシャ,0
1805,7250002000925,登記記録の閉鎖等,0,2024-02-09,2024-02-08,有限会社田中建設,,有限会社,山口県,山口市,朝田２０１番地の３,,35,203,7530871,,,2024-02-08,清算の結了等,,,2015-10-05,1,,,,,タナカケンセツ,0
1826,7320002009307,登記記録の閉鎖等,0,2024-02-09,2024-02-07,有限会社湯布岳地獄発電所,,有限会社,大分県,大分市,明野西２丁目２５番１号,,44,201,8700164,,,2024-02-07,清算の結了等,,,2015-10-05,1,,,,,ユフダケジゴクハツデンショ,0
1829,7360001017793,登記記録の閉鎖等,0,2024-02-09,2024-02-05,株式会社吉豊,,株式会社,沖縄県,国頭郡今帰仁村,字古宇利３２１番地１,,47,306,9050406,,,2024-02-05,清算の結了等,,,2015-10-05,1,,,,,キッポウ,0
1863,8010001133229,登記記録の閉鎖等,0,2024-02-09,2024-02-06,実務法學株式会社,,株式会社,東京都,港区,元赤坂１丁目２番７号,,13,103,1070051,,,2024-02-06,清算の結了等,,,2015-10-05,1,,,,,ジツムホウガク,0
1873,8010401034266,登記記録の閉鎖等,0,2024-02-09,2024-02-07,株式会社フラットコーテット,,株式会社,東京都,港区,虎ノ門３丁目８番２号,,13,103,1050001,,,2024-02-07,合併による解散等,6010801010793,令和６年２月１日東京都大田区鵜の木一丁目２５番２号株式会社ペンブローク（6010801010793）に合併し解散,2015-10-05,1,,,,,,0
1874,8010401062399,登記記録の閉鎖等,0,2024-02-09,2024-02-07,株式会社八代アソシエイツ,,株式会社,神奈川県,川崎市中原区,中丸子１３番地１７ザ・コスギタワー８１２,,14,133,2110012,,,2024-02-07,清算の結了等,,,2015-10-05,1,,,,,ヤシロアソシエイツ,0
1931,8011802001409,登記記録の閉鎖等,0,2024-02-09,2024-02-08,有限会社大槻修義商店,,有限会社,東京都,葛飾区,亀有１丁目６番７号,,13,122,1250061,,,2024-02-08,清算の結了等,,,2015-10-05,1,,,,,オオツキノブヨシショウテン,0
1932,8011802009484,登記記録の閉鎖等,0,2024-02-09,2024-02-07,有限会社池内工務店,,有限会社,東京都,足立区,入谷９丁目３１番２号,,13,121,1210836,,,2024-02-07,清算の結了等,,,2015-10-05,1,,,,,イケウチコウムテン,0
1953,8021001013782,登記記録の閉鎖等,0,2024-02-09,2024-02-06,株式会社ブイ・ピィ・エム技術研究所,,株式会社,神奈川県,相模原市中央区,鹿沼台１丁目５番４号,,14,152,2520233,,,2024-02-06,清算の結了等,,,2015-10-05,1,,,,,ブイピィエムギジュツケンキュウショ,0
1963,8030001111868,登記記録の閉鎖等,0,2024-02-09,2024-02-02,株式会社ＷＩＮ　ＬＯＧ埼玉,,株式会社,埼玉県,新座市,野火止２丁目６番２５号,,11,230,3520011,,,2024-02-02,清算の結了等,,,2015-12-16,1,,,,,ウインロジサイタマ,0
1976,8040001023708,登記記録の閉鎖等,0,2024-02-09,2024-02-02,株式会社ビヨントップ,,株式会社,千葉県,八千代市,大和田新田７６４番地３７,,12,221,2760046,,,2024-02-02,清算の結了等,,,2015-10-05,1,,,,,ビヨントップ,0
1994,8060002035469,登記記録の閉鎖等,0,2024-02-09,2024-02-05,有限会社一誠工業,,有限会社,栃木県,足利市,月谷町１２７５番地９,,09,202,3260068,,,2024-02-05,清算の結了等,,,2015-10-05,1,,,,,イッセイコウギョウ,0
1999,8080001017490,登記記録の閉鎖等,0,2024-02-09,2024-02-07,エクシィ株式会社,,株式会社,静岡県,静岡市駿河区,大谷３７７２番地の９,,22,102,4228017,,,2024-02-07,清算の結了等,,,2015-10-05,1,,,,,エクシィ,0
2007,8110002024904,登記記録の閉鎖等,0,2024-02-09,2024-02-02,有限会社鈴木薬局,,有限会社,新潟県,妙高市,朝日町１丁目３番３号,,15,217,9440043,,,2024-02-02,清算の結了等,,,2015-10-05,1,,,,,スズキヤッキョク,0
2010,8120001121288,登記記録の閉鎖等,0,2024-02-09,2024-02-05,株式会社テラ・ワークス,,株式会社,大阪府,大阪市北区,松ケ枝町１番３９号,,27,127,5300037,,,2024-02-05,清算の結了等,,,2015-10-05,1,,,,,,0
2021,8120102017906,登記記録の閉鎖等,0,2024-02-09,2024-02-07,エポック出版有限会社,,有限会社,大阪府,羽曳野市,羽曳が丘西１丁目２番７号,,27,222,5830865,,,2024-02-07,清算の結了等,,,2015-10-05,1,,,,,エポックシュッパン,0
2045,8210001000342,登記記録の閉鎖等,0,2024-02-09,2024-02-07,株式会社アリーナコーポレーション,,株式会社,福井県,福井市,大手２丁目１１番１２号,,18,201,9100005,,,2024-02-07,清算の結了等,,,2015-10-05,1,,,,,アリーナコーポレーション,0
2048,8220002015157,登記記録の閉鎖等,0,2024-02-09,2024-02-07,有限会社大新製作所,,有限会社,石川県,羽咋市,太田町へ部６４番地,,17,207,9250025,,,2024-02-07,清算の結了等,,,2015-10-05,1,,,,,ダイシンセイサクショ,0
2049,8230002004316,登記記録の閉鎖等,0,2024-02-09,2024-02-07,有限会社さえき,,有限会社,富山県,富山市,上飯野新町２丁目２７番地,,16,201,9300825,,,2024-02-07,清算の結了等,,,2015-10-05,1,,,,,サエキ,0
2052,8240001037266,登記記録の閉鎖等,0,2024-02-09,2024-02-01,竹原工業株式会社,,株式会社,広島県,竹原市,下野町１１４３２番地５,,34,203,7250012,,,2024-02-01,合併による解散等,4240001037526,令和６年２月１日広島県竹原市高崎町１６番地２ジェイズコーポレーション株式会社（4240001037526）に合併し解散,2015-10-05,1,,,,,タケハラコウギョウ,0
2055,8260002008611,登記記録の閉鎖等,0,2024-02-09,2024-02-08,有限会社福田ビル,,有限会社,岡山県,岡山市北区,表町３丁目１０番７５－１０１号,,33,101,7000822,,,2024-02-08,清算の結了等,,,2015-10-05,1,,,,,フクダビル,0
2069,8370001038929,登記記録の閉鎖等,0,2024-02-09,2024-02-06,株式会社三雄商事,,株式会社,宮城県,気仙沼市,岩月宝ヶ沢１１１番地１号カネミツアパート１号,,04,205,9880207,,,2024-02-06,清算の結了等,,,2015-12-11,1,,,,,,0
2070,8370001043524,登記記録の閉鎖等,0,2024-02-09,2024-02-07,株式会社エミナーレファクトリー,,株式会社,宮城県,仙台市青葉区,北根１丁目３番１‐５１１号,,04,101,9810902,,,2024-02-07,清算の結了等,,,2018-09-13,1,,,,,,0
2078,8400501000995,登記記録の閉鎖等,0,2024-02-09,2024-02-06,株式会社エムズ,,株式会社,岩手県,一関市,千厩町千厩字境田６３番地６境田住宅１号,,03,209,0290803,,,2024-02-06,清算の結了等,,,2015-10-05,1,,,,,エムズ,0
2084,8450001007875,登記記録の閉鎖等,0,2024-02-09,2024-02-07,株式会社石垣,,株式会社,北海道,枝幸郡浜頓別町,旭ケ丘２丁目５５番地,,01,512,0985741,,,2024-02-07,清算の結了等,,,2015-10-05,1,,,,,イシガキ,0
2115,9010401138834,登記記録の閉鎖等,0,2024-02-09,2024-02-05,株式会社ＳＢＩアジャイル,,株式会社,東京都,港区,六本木３丁目１番１号,,13,103,1060032,,,2024-02-05,清算の結了等,,,2018-06-07,1,,,,,エスビーアイアジャイル,0
2118,9010401163452,登記記録の閉鎖等,0,2024-02-09,2024-02-01,ＧＣＪＧ１７株式会社,,株式会社,東京都,港区,元赤坂１丁目１番８号株式会社赤坂国際会計内,,13,103,1070051,,,2024-02-01,合併による解散等,9011101072233,令和６年２月１日東京都港区麻布台一丁目１１番９号株式会社シャリオン（9011101072233）に合併し解散,2021-10-21,1,,,,,ジーシージェイジーセブンティーン,0
2142,9010901024377,登記記録の閉鎖等,0,2024-02-09,2024-02-07,株式会社新緑産業,,株式会社,東京都,世田谷区,世田谷４丁目７番３号オータム世田谷４０３号,,13,112,1540017,,,2024-02-07,清算の結了等,,,2015-10-05,1,,,,,シンリョクサンギョウ,0
2147,9011001136864,登記記録の閉鎖等,0,2024-02-09,2024-02-05,株式会社Ｕ,,株式会社,東京都,世田谷区,奥沢３丁目３１番１１号ＲＡＳＳＵＲＥＲ奥沢１階,,13,112,1580083,,,2024-02-05,清算の結了等,,,2020-11-11,1,,,,,ユー,0
2189,9021001000292,登記記録の閉鎖等,0,2024-02-09,2024-02-07,江ノ島観光株式会社,,株式会社,神奈川県,藤沢市,片瀬海岸１丁目１３番１８－１０１０号,,14,205,2510035,,,2024-02-07,清算の結了等,,,2015-10-05,1,,,,,エノシマカンコウ,0
2192,9021001063141,登記記録の閉鎖等,0,2024-02-09,2024-02-05,株式会社ｓｈｉｐｉｔ,,株式会社,神奈川県,逗子市,桜山８丁目１３番７号,,14,208,2490005,,,2024-02-05,清算の結了等,,,2017-09-29,1,,,,,シピット,0
2208,9030003020785,登記記録の閉鎖等,0,2024-02-09,2024-02-05,合同会社Ｈ＆Ｑ,,合同会社,埼玉県,吉川市,美南２丁目２４番地１－８２０号室,,11,243,3420038,,,2024-02-05,清算の結了等,,,2022-12-20,1,,,,,エイチアンドキュー,0
2221,9070002001915,登記記録の閉鎖等,0,2024-02-09,2024-02-05,有限会社群立機工サービス,,有限会社,群馬県,前橋市,下増田町７５３番地６,,10,201,3792113,,,2024-02-05,清算の結了等,,,2015-10-05,1,,,,,グンリツキコウサービス,0
2230,9080401005623,登記記録の閉鎖等,0,2024-02-09,2024-02-08,山本鉄筋コンクリート工事株式会社,,株式会社,静岡県,浜松市中央区,茄子町４５４番地,,22,138,4300912,,,2024-02-08,清算の結了等,,,2015-10-05,1,,,,,ヤマモトテッキンコンクリートコウジ,0
2239,9100002030266,登記記録の閉鎖等,0,2024-02-09,2024-02-05,有限会社南信メディアシステム,,有限会社,長野県,茅野市,米沢４９１２番地４,,20,214,3910216,,,2024-02-05,清算の結了等,,,2015-10-05,1,,,,,ナンシンメディアシステム,0
2243,9120001131575,登記記録の閉鎖等,0,2024-02-09,2024-02-06,株式会社道乃家,,株式会社,大阪府,大阪市此花区,西九条１丁目３１番７号,,27,104,5540012,,,2024-02-06,清算の結了等,,,2015-10-05,1,,,,,ミチノヤ,0
2245,9120001139123,登記記録の閉鎖等,0,2024-02-09,2024-02-06,株式会社ユーアーツ,,株式会社,大阪府,大阪市中央区,難波千日前３番１０号,,27,128,5420075,,,2024-02-06,合併による解散等,6120101066377,令和６年２月１日大阪府堺市北区中百舌鳥町四丁１番地１株式会社マルクィーン（6120101066377）に合併し解散,2015-10-05,1,,,,,ユーアーツ,0
2246,9120001167941,登記記録の閉鎖等,0,2024-02-09,2024-02-02,株式会社キャッスル,,株式会社,大阪府,大阪市北区,天神橋５丁目７番１２号,,27,127,5300041,,,2024-02-02,清算の結了等,,,2015-10-05,1,,,,,キャッスル,0
2268,9140002045814,登記記録の閉鎖等,0,2024-02-09,2024-02-07,有限会社エースプランニング,,有限会社,兵庫県,尼崎市,元浜町５丁目６８番地の３,,28,202,6600085,,,2024-02-07,清算の結了等,,,2015-10-05,1,,,,,エースプランニング,0
2272,9180002038260,登記記録の閉鎖等,0,2024-02-09,2024-02-06,有限会社ティーエスマインド,,有限会社,愛知県,名古屋市守山区,小幡北２４２４番地,,23,113,4630008,,,2024-02-06,清算の結了等,,,2015-10-05,1,,,,,ティーエスマインド,0
2288,9240002027950,登記記録の閉鎖等,0,2024-02-09,2024-02-01,タカハシ商事有限会社,,有限会社,広島県,東広島市,高屋町稲木６５３番地の４,,34,212,7392106,,,2024-02-01,清算の結了等,,,2015-10-05,1,,,,,タカハシショウジ,0
2299,9290005014603,登記記録の閉鎖等,0,2024-02-09,2024-02-05,ＮＰＯ法人未来への伝言プロジェクト,,その他の設立登記法人,福岡県,福岡市博多区,東比恵３丁目３０番１３－９０２号,,40,132,8120007,,,2024-02-05,清算の結了等,,,2015-10-05,1,,,,,ミライヘノデンゴンプロジェクト,0
2308,9330001010477,登記記録の閉鎖等,0,2024-02-09,2024-02-07,株式会社オメガ熊本,,株式会社,熊本県,熊本市北区,植木町豊田６３０番地の１,,43,105,8610106,,,2024-02-07,清算の結了等,,,2015-10-05,1,,,,,オメガクマモト,0
2322,9370003002460,登記記録の閉鎖等,0,2024-02-09,2024-02-08,合同会社フロンティア,,合同会社,宮城県,名取市,上余田字市坪５番地の７,,04,207,9811222,,,2024-02-08,清算の結了等,,,2015-10-05,1,,,,,,0
2338,9430001045307,登記記録の閉鎖等,0,2024-02-09,2024-02-02,株式会社グレイスアグネス,,株式会社,北海道,札幌市中央区,北七条西１３丁目２８番地１６５アイム桑園パークサイト１１０２号,,01,101,0600007,,,2024-02-02,清算の結了等,,,2015-10-05,1,,,,,グレイスアグネス,0
