sequenceNumber,corporateNumber,process,correct,updateDate,changeDate,name,nameImageId,kind,prefectureName,cityName,streetNumber,addressImageId,prefectureCode,cityCode,postCode,addressOutside,addressOutsideImageId,closeDate,closeCause,successorCorporateNumber,changeCause,assignmentDate,latest,enName,enPrefectureName,enCityName,enAddressOutside,furigana,hihyoji
7,1010001163249,登記記録の閉鎖等,0,2023-01-17,2023-01-06,ＪＰＡ第１９号株式会社,,株式会社,東京都,千代田区,霞が関３丁目２番１号,,13,101,1000013,,,2023-01-06,清算の結了等,,,2015-10-05,1,,,,,ジェイピーエーダイジュウキュウゴウ,0
20,1010002017271,登記記録の閉鎖等,0,2023-01-17,2023-01-06,有限会社うっちゃり倶楽部,,有限会社,千葉県,市川市,相之川１丁目１１番１６号,,12,203,2720143,,,2023-01-06,清算の結了等,,,2015-10-05,1,,,,,ウッチャリクラブ,0
42,1010403021657,登記記録の閉鎖等,0,2023-01-17,2022-12-27,クック・イン・スタイル合同会社,,合同会社,東京都,港区,南青山１丁目４番５号,,13,103,1070062,,,2022-12-27,清算の結了等,,,2019-10-21,1,,,,,クックインスタイル,0
50,1010701032868,登記記録の閉鎖等,0,2023-01-17,2023-01-10,株式会社ｋｉｔｔｅｎ’ｓ　ｒｉｂｂｏｎ,,株式会社,山形県,山形市,蔵王半郷１２０‐９,,06,201,9902305,,,2023-01-10,清算の結了等,,,2016-08-15,1,,,,,キトゥンズリボン,0
53,1010703005442,登記記録の閉鎖等,0,2023-01-17,2023-01-06,合同会社デックオン,,合同会社,東京都,品川区,西大井１丁目１番２－１７０６号,,13,109,1400015,,,2023-01-06,清算の結了等,,,2020-10-05,1,,,,,デックオン,0
64,1011001102667,登記記録の閉鎖等,0,2023-01-17,2023-01-04,株式会社ハシゴ,,株式会社,東京都,渋谷区,宇田川町４０番１号,,13,113,1500042,,,2023-01-04,合併による解散等,7011001102174,令和５年１月１日東京都目黒区青葉台四丁目７番７号株式会社ＧＯＯＤＲＯＩＤ（7011001102174）に合併し解散,2015-10-05,1,,,,,ハシゴ,0
77,1011101097691,登記記録の閉鎖等,0,2023-01-17,2023-01-12,東アジア貿易株式会社,,株式会社,東京都,新宿区,西新宿３丁目３番１３号西新宿水間ビル６階,,13,104,1600023,,,2023-01-12,清算の結了等,,,2022-02-02,1,,,,,ヒガシアジアボウエキ,0
84,1011501002078,登記記録の閉鎖等,0,2023-01-17,2023-01-05,株式会社システムシンク,,株式会社,東京都,北区,赤羽台４丁目１７番１８号,,13,117,1150053,,,2023-01-05,清算の結了等,,,2015-10-05,1,,,,,システムシンク,0
87,1011502006631,登記記録の閉鎖等,0,2023-01-17,2023-01-06,有限会社青木紙工所,,有限会社,東京都,荒川区,東日暮里２丁目３番６号,,13,118,1160014,,,2023-01-06,清算の結了等,,,2015-10-05,1,,,,,アオキシコウジョ,0
102,1012303001020,登記記録の閉鎖等,0,2023-01-17,2023-01-10,合同会社ＣＡＲＯＦ,,合同会社,東京都,町田市,本町田２５３３,,13,209,1940032,,,2023-01-10,清算の結了等,,,2017-05-10,1,,,,,,0
106,1013202005624,登記記録の閉鎖等,0,2023-01-17,2022-12-27,有限会社フレンド,,有限会社,東京都,目黒区,中目黒５丁目１６番５号,,13,110,1530061,,,2022-12-27,清算の結了等,,,2015-10-05,1,,,,,フレンド,0
108,1013301030647,登記記録の閉鎖等,0,2023-01-17,2023-01-12,ドクターカラコン株式会社,,株式会社,東京都,豊島区,南池袋２丁目３１番５号,,13,116,1710022,,,2023-01-12,清算の結了等,,,2015-10-05,1,,,,,ドクターカラコン,0
111,1020001057581,登記記録の閉鎖等,0,2023-01-17,2023-01-11,株式会社ヒルマンズ,,株式会社,神奈川県,横浜市金沢区,富岡西６丁目２２番１７号,,14,108,2360052,,,2023-01-11,清算の結了等,,,2015-10-05,1,,,,,ヒルマンズ,0
118,1021001057547,登記記録の閉鎖等,0,2023-01-17,2023-01-13,湘南スタイル株式会社,,株式会社,神奈川県,藤沢市,南藤沢２０－１７門倉ビル６－３階,,14,205,2510055,,,2023-01-13,清算の結了等,,,2015-10-21,1,,,,,ショウナンスタイル,0
138,1030003016980,登記記録の閉鎖等,0,2023-01-17,2023-01-10,合同会社Ｙ’ｓ,,合同会社,埼玉県,川口市,上青木３丁目１番４号コーポ青木Ａ－１０６,,11,203,3330844,,,2023-01-10,清算の結了等,,,2021-04-06,1,,,,,ワイズ,0
142,1040001021973,登記記録の閉鎖等,0,2023-01-17,2023-01-06,株式会社ワイズ工芸,,株式会社,千葉県,船橋市,上山町１丁目１７３番地１,,12,204,2730046,,,2023-01-06,清算の結了等,,,2015-10-05,1,,,,,ワイズコウゲイ,0
146,1040002051086,登記記録の閉鎖等,0,2023-01-17,2023-01-10,有限会社インテックス,,有限会社,千葉県,流山市,南流山７丁目１４番地１６,,12,220,2700163,,,2023-01-10,清算の結了等,,,2015-10-05,1,,,,,インテックス,0
160,1070002020410,登記記録の閉鎖等,0,2023-01-17,2023-01-12,有限会社関東電力,,有限会社,群馬県,伊勢崎市,戸谷塚町５５８番地３,,10,204,3720825,,,2023-01-12,清算の結了等,,,2015-10-05,1,,,,,カントウデンリョク,0
163,1070005004162,登記記録の閉鎖等,0,2023-01-17,2022-12-28,特定非営利活動法人マイトリー藤岡,,その他の設立登記法人,群馬県,藤岡市,小林７６８番地,,10,209,3750021,,,2022-12-28,清算の結了等,,,2015-10-05,1,,,,,マイトリーフジオカ,0
169,1110002023730,登記記録の閉鎖等,0,2023-01-17,2023-01-13,有限会社渡邊工務店,00070941,有限会社,新潟県,上越市,大字夷浜２８２番地,,15,222,9420025,,,2023-01-13,清算の結了等,,,2015-10-05,1,,,,,ワタナベコウムテン,0
181,1120102000793,登記記録の閉鎖等,0,2023-01-17,2023-01-16,有限会社セントホーム,,有限会社,大阪府,堺市中区,深井沢町２７１０番地７,,27,142,5998236,,,2023-01-16,清算の結了等,,,2015-10-05,1,,,,,セントホーム,0
188,1122001005205,登記記録の閉鎖等,0,2023-01-17,2023-01-16,株式会社仲植製作所,,株式会社,大阪府,東大阪市,荒川２丁目３０番４号,,27,227,5770843,,,2023-01-16,清算の結了等,,,2015-10-05,1,,,,,ナカウエセイサクショ,0
191,1130001031658,登記記録の閉鎖等,0,2023-01-17,2023-01-17,株式会社純,,株式会社,京都府,京都市上京区,寺之内通新町西入妙顕寺前町５１４番地,,26,102,6020005,,,2023-01-17,登記官による閉鎖,,,2015-10-05,1,,,,,,0
192,1130001032937,登記記録の閉鎖等,0,2023-01-17,2023-01-17,株式会社西島スクリーン,,株式会社,京都府,宇治市,木幡北島２０番地の６,,26,204,6110002,,,2023-01-17,登記官による閉鎖,,,2015-10-05,1,,,,,,0
193,1130001037647,登記記録の閉鎖等,0,2023-01-17,2023-01-17,株式会社小西組,,株式会社,京都府,京都市伏見区,住吉町４２５番地９,,26,109,6128314,,,2023-01-17,登記官による閉鎖,,,2015-10-05,1,,,,,,0
196,1130002001016,登記記録の閉鎖等,0,2023-01-17,2023-01-17,有限会社田久商店,,有限会社,京都府,京都市右京区,嵯峨大覚寺門前井頭町１２番地の７３,,26,108,6168416,,,2023-01-17,登記官による閉鎖,,,2015-10-05,1,,,,,,0
197,1130002005875,登記記録の閉鎖等,0,2023-01-17,2023-01-17,有限会社西紋,,有限会社,京都府,京都市左京区,松ケ崎小脇町２８番地の１５,,26,103,6060957,,,2023-01-17,登記官による閉鎖,,,2015-10-05,1,,,,,,0
198,1130002007995,登記記録の閉鎖等,0,2023-01-17,2023-01-17,有限会社美濃商店,,有限会社,京都府,京都市下京区,中堂寺庄ノ内町４２番地の１１,,26,106,6008814,,,2023-01-17,登記官による閉鎖,,,2015-10-05,1,,,,,,0
199,1130002010231,登記記録の閉鎖等,0,2023-01-17,2023-01-17,有限会社桝家,,有限会社,京都府,京都市東山区,宮川筋４丁目３１２番地,,26,105,6050801,,,2023-01-17,登記官による閉鎖,,,2015-10-05,1,,,,,,0
200,1130002017219,登記記録の閉鎖等,0,2023-01-17,2023-01-17,有限会社フアツシヨン・マルヤマ,,有限会社,京都府,京都市中京区,堺町通姉小路下る大阪材木町６８５番地,,26,104,6048182,,,2023-01-17,登記官による閉鎖,,,2015-10-05,1,,,,,,0
201,1130002033711,登記記録の閉鎖等,0,2023-01-17,2023-01-17,有限会社常吉村営百貨店,,有限会社,京都府,京丹後市,大宮町上常吉１２３番地の２,,26,212,6292533,,,2023-01-17,登記官による閉鎖,,,2015-10-05,1,,,,,,0
223,1180002001036,登記記録の閉鎖等,0,2023-01-17,2023-01-12,有限会社坪根建設,,有限会社,愛知県,名古屋市守山区,菱池町１４番３５号,,23,113,4630045,,,2023-01-12,清算の結了等,,,2015-10-05,1,,,,,ツボネケンセツ,0
225,1180301009028,登記記録の閉鎖等,0,2023-01-17,2023-01-17,株式会社山美コーポレーション,,株式会社,愛知県,豊橋市,前田南町１丁目５番地１２,,23,201,4400851,,,2023-01-17,登記官による閉鎖,,,2015-10-05,1,,,,,,0
228,1180302014043,登記記録の閉鎖等,0,2023-01-17,2023-01-17,有限会社瑞穂,,有限会社,愛知県,豊川市,牛久保町城跡８５番地の１,,23,207,4420826,,,2023-01-17,登記官による閉鎖,,,2015-10-05,1,,,,,,0
229,1180302017392,登記記録の閉鎖等,0,2023-01-17,2023-01-17,有限会社米山左官店,,有限会社,愛知県,安城市,野寺町野寺１１４番地,,23,212,4441165,,,2023-01-17,登記官による閉鎖,,,2015-10-05,1,,,,,,0
230,1180302020009,登記記録の閉鎖等,0,2023-01-17,2023-01-17,有限会社三恵グリーンサービス,,有限会社,愛知県,碧南市,白沢町４丁目１２番地,,23,209,4470013,,,2023-01-17,登記官による閉鎖,,,2015-10-05,1,,,,,,0
231,1180302021717,登記記録の閉鎖等,0,2023-01-17,2023-01-17,有限会社梶塚工業所,,有限会社,愛知県,豊田市,豊栄町５丁目１６８番地８,,23,211,4701201,,,2023-01-17,登記官による閉鎖,,,2015-10-05,1,,,,,,0
232,1180302024224,登記記録の閉鎖等,0,2023-01-17,2023-01-17,ハマリン産業有限会社,,有限会社,愛知県,豊田市,高上２丁目１８番地１７,,23,211,4710013,,,2023-01-17,登記官による閉鎖,,,2015-10-05,1,,,,,,0
233,1180302027631,登記記録の閉鎖等,0,2023-01-17,2023-01-17,有限会社クツとはきものの店岡村屋,,有限会社,愛知県,新城市,字宮ノ西１０番地の１７,,23,221,4411377,,,2023-01-17,登記官による閉鎖,,,2015-10-05,1,,,,,,0
234,1180305002061,登記記録の閉鎖等,0,2023-01-17,2023-01-17,特定非営利活動法人笑顔,,その他の設立登記法人,愛知県,岡崎市,錦町７番地２ソシエール錦３０１,,23,202,4440067,,,2023-01-17,登記官による閉鎖,,,2015-10-05,1,,,,,,0
235,1180305005519,登記記録の閉鎖等,0,2023-01-17,2023-01-17,山之手北商店街協同組合,,その他の設立登記法人,愛知県,豊田市,山之手１丁目９１番地１,,23,211,4710833,,,2023-01-17,登記官による閉鎖,,,2015-10-05,1,,,,,,0
265,1310001006930,登記記録の閉鎖等,0,2023-01-17,2023-01-16,昭生水産株式会社,,株式会社,長崎県,南松浦郡新上五島町,岩瀬浦郷７１４番地,,42,411,8533102,,,2023-01-16,登記官による閉鎖,,,2015-10-05,1,,,,,,0
266,1310001009677,登記記録の閉鎖等,0,2023-01-17,2023-01-16,株式会社オーエス,,株式会社,長崎県,島原市,秩父が浦町丁３５５２番地５３,,42,203,8550864,,,2023-01-16,登記官による閉鎖,,,2015-10-05,1,,,,,,0
267,1310001009842,登記記録の閉鎖等,0,2023-01-17,2023-01-16,株式会社バイオ微生研,,株式会社,長崎県,島原市,有明町湯江甲６９５番地第２,,42,203,8591401,,,2023-01-16,登記官による閉鎖,,,2015-10-05,1,,,,,,0
269,1310002010072,登記記録の閉鎖等,0,2023-01-17,2023-01-16,有限会社佐世保ラジエーター工業所,,有限会社,長崎県,佐世保市,松瀬町１２４８番地,,42,202,8570102,,,2023-01-16,登記官による閉鎖,,,2015-10-05,1,,,,,,0
294,1430002019226,登記記録の閉鎖等,0,2023-01-17,2023-01-05,有限会社三国測量,,有限会社,北海道,札幌市白石区,菊水元町二条５丁目５番１号,,01,104,0030822,,,2023-01-05,清算の結了等,,,2015-10-05,1,,,,,ミクニソクリョウ,0
387,2011702001497,登記記録の閉鎖等,0,2023-01-17,2022-12-27,有限会社宇田川電化商会,,有限会社,東京都,江戸川区,北小岩７丁目２８番１８号,,13,123,1330051,,,2022-12-27,清算の結了等,,,2015-10-05,1,,,,,ウダガワデンカショウカイ,0
394,2012301008883,登記記録の閉鎖等,0,2023-01-17,2023-01-11,エヌアイシィテクノ株式会社,,株式会社,東京都,豊島区,西池袋２丁目４０番１号,,13,116,1710021,,,2023-01-11,合併による解散等,7013301030344,令和５年１月１日東京都新宿区西新宿六丁目２４番１号エヌアイシィ株式会社（7013301030344）に合併し解散,2015-10-05,1,,,,,,0
396,2012401038467,登記記録の閉鎖等,0,2023-01-17,2023-01-16,ＷｅＣｈａｉｎ株式会社,,株式会社,東京都,武蔵野市,吉祥寺本町１丁目２５－１０ＫＳ－２ビル３Ｆ,,13,203,1800004,,,2023-01-16,清算の結了等,,,2021-10-29,1,,,,,ウィチェーン,0
405,2020002057729,登記記録の閉鎖等,0,2023-01-17,2023-01-11,有限会社東海エンジニアリング,,有限会社,神奈川県,横浜市泉区,緑園６丁目２７番地５ウインズピア緑園１０６号室,,14,116,2450002,,,2023-01-11,清算の結了等,,,2015-10-05,1,,,,,トウカイエンジニアリング,0
406,2020002075870,登記記録の閉鎖等,0,2023-01-17,2023-01-06,有限会社葉月グローバル,,有限会社,神奈川県,海老名市,国分北１丁目１７番３号,,14,215,2430406,,,2023-01-06,清算の結了等,,,2015-10-05,1,,,,,ハヅキグローバル,0
446,2080001001599,登記記録の閉鎖等,0,2023-01-17,2023-01-16,斉藤商事株式会社,,株式会社,静岡県,静岡市葵区,清閑町１４番１２号,,22,101,4200047,,,2023-01-16,清算の結了等,,,2015-10-05,1,,,,,サイトウショウジ,0
447,2090002000178,登記記録の閉鎖等,0,2023-01-17,2023-01-10,有限会社アミドール二十一,,有限会社,山梨県,甲府市,城東３丁目５番１４号,,19,201,4000861,,,2023-01-10,清算の結了等,,,2015-10-05,1,,,,,アミドールニジュウイチ,0
450,2110005015542,登記記録の閉鎖等,0,2023-01-17,2023-01-10,特定非営利活動法人青少年健全育成会,,その他の設立登記法人,新潟県,長岡市,新組町４８２１番地２スプランドゥールＢ２,,15,202,9400897,,,2023-01-10,清算の結了等,,,2015-10-05,1,,,,,セイショウネンケンゼンイクセイカイ,0
451,2120001211284,登記記録の閉鎖等,0,2023-01-17,2023-01-11,株式会社Ｍｏｎａ,,株式会社,東京都,江戸川区,中央１丁目１５番２号,,13,123,1320021,,,2023-01-11,清算の結了等,,,2018-02-09,1,,,,,モナ,0
469,2130001002947,登記記録の閉鎖等,0,2023-01-17,2023-01-17,互興織物株式会社,,株式会社,京都府,京都市上京区,上立売通室町西入上立売町１番地の９,,26,102,6020024,,,2023-01-17,登記官による閉鎖,,,2015-10-05,1,,,,,,0
470,2130001009505,登記記録の閉鎖等,0,2023-01-17,2023-01-17,株式会社常盤,,株式会社,京都府,京都市東山区,三条通大橋東入三町目２９番地,,26,105,6050005,,,2023-01-17,登記官による閉鎖,,,2015-10-05,1,,,,,,0
472,2130001024264,登記記録の閉鎖等,0,2023-01-17,2023-01-17,株式会社邦,,株式会社,京都府,京都市南区,吉祥院定成町３２番地１,,26,107,6018322,,,2023-01-17,登記官による閉鎖,,,2015-10-05,1,,,,,,0
473,2130001034651,登記記録の閉鎖等,0,2023-01-17,2023-01-17,株式会社エスティーシー,,株式会社,京都府,京都市伏見区,羽束師菱川町５６９番地２０,,26,109,6128487,,,2023-01-17,登記官による閉鎖,,,2015-10-05,1,,,,,,0
474,2130001035105,登記記録の閉鎖等,0,2023-01-17,2023-01-17,株式会社船井建設,,株式会社,京都府,南丹市,八木町北屋賀一ツ橋１０３番地５,,26,213,6290131,,,2023-01-17,登記官による閉鎖,,,2015-10-05,1,,,,,,0
475,2130001035658,登記記録の閉鎖等,0,2023-01-17,2023-01-17,双和株式会社,,株式会社,京都府,亀岡市,安町小屋場６８番地,,26,206,6210805,,,2023-01-17,登記官による閉鎖,,,2015-10-05,1,,,,,,0
476,2130001039980,登記記録の閉鎖等,0,2023-01-17,2023-01-17,株式会社笑心,,株式会社,京都府,京都市中京区,河原町通奈良屋町２９１番地３商都ビル６階,,26,104,6040000,,,2023-01-17,登記官による閉鎖,,,2015-10-05,1,,,,,,0
477,2130001040682,登記記録の閉鎖等,0,2023-01-17,2023-01-17,安立株式会社,,株式会社,京都府,与謝郡与謝野町,字後野８１１番地の１,,26,465,6292404,,,2023-01-17,登記官による閉鎖,,,2015-10-05,1,,,,,,0
479,2130001048206,登記記録の閉鎖等,0,2023-01-17,2023-01-17,東和フロンティア株式会社,,株式会社,京都府,京都市中京区,占出山町３０８番地ヤマチュウビル２階,,26,104,6048155,,,2023-01-17,登記官による閉鎖,,,2015-10-05,1,,,,,,0
481,2130002008415,登記記録の閉鎖等,0,2023-01-17,2023-01-17,有限会社植田工務店,,有限会社,京都府,京都市西京区,松尾木ノ曽町１０番地の２８,,26,111,6158281,,,2023-01-17,登記官による閉鎖,,,2015-10-05,1,,,,,,0
482,2130002020642,登記記録の閉鎖等,0,2023-01-17,2023-01-17,有限会社エアプロ,,有限会社,京都府,京都市伏見区,深草大島屋敷町２３番地の４,,26,109,6120081,,,2023-01-17,登記官による閉鎖,,,2015-10-05,1,,,,,,0
483,2130002023224,登記記録の閉鎖等,0,2023-01-17,2023-01-17,有限会社フォーエバー,,有限会社,京都府,京都市西京区,大枝北沓掛町５丁目９番地２,,26,111,6101101,,,2023-01-17,登記官による閉鎖,,,2015-10-05,1,,,,,,0
484,2130002030170,登記記録の閉鎖等,0,2023-01-17,2023-01-17,有限会社サンユウ商事,,有限会社,京都府,綴喜郡井手町,大字井手小字久保４８番地の１,,26,343,6100302,,,2023-01-17,登記官による閉鎖,,,2015-10-05,1,,,,,,0
485,2130002032935,登記記録の閉鎖等,0,2023-01-17,2023-01-17,有限会社ライフ,,有限会社,京都府,福知山市,字堀２５９３番地,,26,201,6200000,,,2023-01-17,登記官による閉鎖,,,2015-10-05,1,,,,,,0
486,2130003002730,登記記録の閉鎖等,0,2023-01-17,2023-01-17,合同会社マイアミバイス,,合同会社,京都府,京都市下京区,東塩小路町５７９番地１１スタシオン・スエリジェ３０３号室,,26,106,6008216,,,2023-01-17,登記官による閉鎖,,,2015-10-05,1,,,,,,0
487,2130003005618,登記記録の閉鎖等,0,2023-01-17,2022-12-26,合同会社河津,,合同会社,京都府,宇治市,小倉町神楽田３８番地の２７,,26,204,6110042,,,2022-12-26,清算の結了等,,,2018-08-16,1,,,,,カワツ,0
503,2180003022294,登記記録の閉鎖等,0,2023-01-17,2023-01-11,合同会社ＦＩＴ,,合同会社,愛知県,瀬戸市,中水野町２丁目１４番地の１２,,23,204,4890005,,,2023-01-11,清算の結了等,,,2021-03-24,1,,,,,フィット,0
505,2180301004688,登記記録の閉鎖等,0,2023-01-17,2023-01-17,上地精工株式会社,,株式会社,愛知県,岡崎市,上地３丁目２７番地２１,,23,202,4440823,,,2023-01-17,登記官による閉鎖,,,2015-10-05,1,,,,,,0
506,2180301004820,登記記録の閉鎖等,0,2023-01-17,2023-01-17,株式会社ワン・ワールドサービス,,株式会社,愛知県,岡崎市,戸崎町字榎ケ坪２６－４０１,,23,202,4440840,,,2023-01-17,登記官による閉鎖,,,2015-10-05,1,,,,,,0
507,2180301006263,登記記録の閉鎖等,0,2023-01-17,2023-01-17,株式会社中部システム,,株式会社,愛知県,豊橋市,萱町８番地,,23,201,4400896,,,2023-01-17,登記官による閉鎖,,,2015-10-05,1,,,,,,0
508,2180301024380,登記記録の閉鎖等,0,2023-01-17,2023-01-17,株式会社宮嶋,,株式会社,愛知県,新城市,城北２丁目１０番地２,,23,221,4411371,,,2023-01-17,登記官による閉鎖,,,2015-10-05,1,,,,,,0
509,2180301030552,登記記録の閉鎖等,0,2023-01-17,2023-01-17,松本紡織株式会社,,株式会社,愛知県,蒲郡市,神明町１３番１７号,,23,214,4430056,,,2023-01-17,登記官による閉鎖,,,2017-07-10,1,,,,,,0
512,2180302004134,登記記録の閉鎖等,0,2023-01-17,2023-01-17,幸田福祉介護有限会社,,有限会社,愛知県,額田郡幸田町,大字菱池字大山５２番地１,,23,501,4440113,,,2023-01-17,登記官による閉鎖,,,2015-10-05,1,,,,,,0
513,2180302013291,登記記録の閉鎖等,0,2023-01-17,2023-01-17,有限会社タケトミ,,有限会社,愛知県,豊川市,東桜木町９７番地,,23,207,4420028,,,2023-01-17,登記官による閉鎖,,,2015-10-05,1,,,,,,0
514,2180302016162,登記記録の閉鎖等,0,2023-01-17,2023-01-17,有限会社尾崎製綱所,,有限会社,愛知県,蒲郡市,西浦町下地３３番地,,23,214,4430105,,,2023-01-17,登記官による閉鎖,,,2015-10-05,1,,,,,,0
515,2180302027705,登記記録の閉鎖等,0,2023-01-17,2023-01-17,有限会社セフテイ電子,,有限会社,愛知県,新城市,杉山字端城３８番地の１７,,23,221,4411341,,,2023-01-17,登記官による閉鎖,,,2015-10-05,1,,,,,,0
520,2220001000264,登記記録の閉鎖等,0,2023-01-17,2023-01-16,株式会社オートバンズ,,株式会社,石川県,石川郡野々市町,新庄３丁目１３５番地,,17,344,9218824,,,2023-01-16,登記官による閉鎖,,,2017-07-26,1,,,,,,0
523,2240001052394,登記記録の閉鎖等,0,2023-01-17,2023-01-13,株式会社井上竹材,,株式会社,広島県,神石郡神石高原町,高蓋１３２５－１,,34,545,7201410,,,2023-01-13,清算の結了等,,,2018-02-19,1,,,,,イノウエタケザイ,0
533,2260002034431,登記記録の閉鎖等,0,2023-01-17,2023-01-16,有限会社西山鉄工所,,有限会社,岡山県,御津郡建部町,市場４６２番地,,33,303,7093131,,,2023-01-16,登記官による閉鎖,,,2017-06-14,1,,,,,,0
558,2310001003381,登記記録の閉鎖等,0,2023-01-17,2023-01-16,株式会社満本設計綜合事務所,,株式会社,長崎県,西彼杵郡時津町,元村郷８６２番地,,42,308,8512103,,,2023-01-16,登記官による閉鎖,,,2016-05-25,1,,,,,,0
559,2310001007069,登記記録の閉鎖等,0,2023-01-17,2023-01-16,株式会社旬さいかい,,株式会社,長崎県,西海市,西海町横瀬郷２６１２番地,,42,212,8513509,,,2023-01-16,登記官による閉鎖,,,2015-10-05,1,,,,,,0
560,2310002001789,登記記録の閉鎖等,0,2023-01-17,2023-01-16,有限会社ゴールデン富士,,有限会社,長崎県,長崎市,稲田町３番１９号,,42,201,8500907,,,2023-01-16,登記官による閉鎖,,,2015-10-05,1,,,,,,0
561,2310002008099,登記記録の閉鎖等,0,2023-01-17,2023-01-16,有限会社サンエイ,,有限会社,長崎県,西彼杵郡長与町,吉無田郷５７９番地１９４,,42,307,8512126,,,2023-01-16,登記官による閉鎖,,,2015-10-05,1,,,,,,0
562,2310002008248,登記記録の閉鎖等,0,2023-01-17,2023-01-16,有限会社パンダオート長崎,,有限会社,長崎県,西彼杵郡時津町,元村郷１０７４番地９,,42,308,8512103,,,2023-01-16,登記官による閉鎖,,,2015-10-05,1,,,,,,0
580,2380005000278,登記記録の閉鎖等,0,2023-01-17,2023-01-13,医療法人志傳会,,その他の設立登記法人,福島県,福島市,野田町１丁目１２番８０号,,07,201,9608055,,,2023-01-13,清算の結了等,,,2015-10-05,1,,,,,シデンカイ,0
581,2390002012655,登記記録の閉鎖等,0,2023-01-17,2022-12-28,有限会社おおき食品,,有限会社,山形県,米沢市,御廟２丁目７番１０１号,,06,202,9920055,,,2022-12-28,清算の結了等,,,2015-10-05,1,,,,,オオキショクヒン,0
585,2420001013147,登記記録の閉鎖等,0,2023-01-17,2023-01-11,株式会社つづり,,株式会社,青森県,つがる市,柏上古川八重崎３７番地２３,,02,209,0383103,,,2023-01-11,清算の結了等,,,2015-10-05,1,,,,,ツヅリ,0
597,2500002003519,登記記録の閉鎖等,0,2023-01-17,2023-01-13,有限会社昭和サツシ,,有限会社,愛媛県,松山市,居相４丁目１９番１３号,,38,201,7900934,,,2023-01-13,清算の結了等,,,2015-10-05,1,,,,,ショウワサッシ,0
602,3010001152423,登記記録の閉鎖等,0,2023-01-17,2023-01-10,花菱縫製株式会社,,株式会社,埼玉県,さいたま市岩槻区,大字笹久保２０５９番地,,11,110,3390034,,,2023-01-10,清算の結了等,,,2015-10-05,1,,,,,ハナビシホウセイ,0
651,3011001107152,登記記録の閉鎖等,0,2023-01-17,2023-01-06,株式会社ワンダー,,株式会社,東京都,目黒区,下目黒３丁目１８番８号,,13,110,1530064,,,2023-01-06,清算の結了等,,,2015-10-05,1,,,,,ワンダー,0
655,3011002026970,登記記録の閉鎖等,0,2023-01-17,2023-01-11,有限会社マルトミインターナショナル,,有限会社,東京都,渋谷区,笹塚１丁目５６番１０号,,13,113,1510073,,,2023-01-11,清算の結了等,,,2015-10-05,1,,,,,マルトミインターナショナル,0
675,3011303001920,登記記録の閉鎖等,0,2023-01-17,2023-01-12,合同会社鈴泉,,合同会社,東京都,杉並区,荻窪３丁目２４番８号,,13,115,1670051,,,2023-01-12,清算の結了等,,,2015-10-05,1,,,,,レイセン,0
678,3011503004351,登記記録の閉鎖等,0,2023-01-17,2023-01-05,ピカポン合同会社,,合同会社,東京都,北区,堀船２丁目２番１５号α’ｓｔ－３０３号,,13,117,1140004,,,2023-01-05,清算の結了等,,,2020-04-07,1,,,,,ピカポン,0
719,3030002086049,登記記録の閉鎖等,0,2023-01-17,2023-01-11,有限会社コバヤシビジネスサービス,,有限会社,埼玉県,越谷市,相模町１丁目３２９番地１,,11,222,3430823,,,2023-01-11,清算の結了等,,,2015-10-05,1,,,,,コバヤシビジネスサービス,0
720,3030002115369,登記記録の閉鎖等,0,2023-01-17,2023-01-10,有限会社ＹＭＯコーポレーション,,有限会社,埼玉県,熊谷市,成沢３１９番地,,11,202,3600115,,,2023-01-10,清算の結了等,,,2015-10-05,1,,,,,ワイエムオーコーポレーション,0
746,3060003003454,登記記録の閉鎖等,0,2023-01-17,2023-01-10,ホリセミプロ合同会社,,合同会社,栃木県,小山市,若木町１丁目２３番３３号サンフラット若木５０４,,09,208,3230028,,,2023-01-10,清算の結了等,,,2020-08-28,1,,,,,ホリセミプロ,0
760,3080002006101,登記記録の閉鎖等,0,2023-01-17,2023-01-16,有限会社山久,,有限会社,静岡県,静岡市葵区,大岩３丁目２１番２８号,,22,101,4200886,,,2023-01-16,清算の結了等,,,2015-10-05,1,,,,,ヤマヒサ,0
783,3120101046596,登記記録の閉鎖等,0,2023-01-17,2023-01-16,松川建設株式会社,,株式会社,大阪府,泉南市,樽井２丁目１３番２５号,,27,228,5900521,,,2023-01-16,清算の結了等,,,2015-10-05,1,,,,,,0
788,3120903002805,登記記録の閉鎖等,0,2023-01-17,2023-01-12,合同会社スターダスト,,合同会社,大阪府,豊中市,豊南町南６丁目８番１４号,,27,203,5610815,,,2023-01-12,清算の結了等,,,2019-04-19,1,,,,,スターダスト,0
789,3122001016654,登記記録の閉鎖等,0,2023-01-17,2023-01-06,パナソニック物流株式会社,,株式会社,大阪府,守口市,本町２丁目５番１８号,,27,209,5700028,,,2023-01-06,合併による解散等,4120001235595,令和５年１月１日大阪府門真市大字門真１００６番地パナソニックオペレーショナルエクセレンス株式会社（4120001235595）に合併し解散,2015-10-05,1,,,,,パナソニックブツリュウ,0
792,3130001015130,登記記録の閉鎖等,0,2023-01-17,2023-01-17,寺内物産株式会社,,株式会社,京都府,京都市伏見区,菊屋町８４７番地,,26,109,6128331,,,2023-01-17,登記官による閉鎖,,,2015-10-05,1,,,,,,0
793,3130001016442,登記記録の閉鎖等,0,2023-01-17,2023-01-17,株式会社アルフア,,株式会社,京都府,京都市下京区,五条通油小路西入北側小泉町１０１番地,,26,106,6000000,,,2023-01-17,登記官による閉鎖,,,2015-10-05,1,,,,,,0
794,3130001017176,登記記録の閉鎖等,0,2023-01-17,2023-01-17,恵秀葉株式会社,,株式会社,京都府,京都市下京区,大宮通松原下る西門前町４２６番地,,26,106,6008371,,,2023-01-17,登記官による閉鎖,,,2015-10-05,1,,,,,,0
795,3130001019791,登記記録の閉鎖等,0,2023-01-17,2023-01-17,イエナ店舗設備株式会社,,株式会社,京都府,京都市中京区,壬生下溝町６１番地,00035720,26,104,6048832,,,2023-01-17,登記官による閉鎖,,,2015-10-05,1,,,,,,0
796,3130001020403,登記記録の閉鎖等,0,2023-01-17,2023-01-17,株式会社北平,,株式会社,京都府,京都市中京区,壬生渕田町８番地,,26,104,6040000,,,2023-01-17,登記官による閉鎖,,,2015-10-05,1,,,,,,0
797,3130001022135,登記記録の閉鎖等,0,2023-01-17,2023-01-17,株式会社長谷川,,株式会社,京都府,京都市上京区,竹屋町通千本東入主税町８２７番地１１,,26,102,6028155,,,2023-01-17,登記官による閉鎖,,,2015-10-05,1,,,,,,0
798,3130001035401,登記記録の閉鎖等,0,2023-01-17,2023-01-17,株式会社ビリーヴライン,,株式会社,京都府,船井郡京丹波町,須知本町２９,,26,407,6220213,,,2023-01-17,登記官による閉鎖,,,2015-10-05,1,,,,,,0
799,3130001040161,登記記録の閉鎖等,0,2023-01-17,2023-01-17,株式会社フードロジ,,株式会社,京都府,久世郡久御山町,森中内８番地１,,26,322,6130024,,,2023-01-17,登記官による閉鎖,,,2015-10-05,1,,,,,,0
800,3130001045367,登記記録の閉鎖等,0,2023-01-17,2023-01-17,株式会社楽美商事,,株式会社,京都府,京都市中京区,壬生淵田町９番地１２,,26,104,6048855,,,2023-01-17,登記官による閉鎖,,,2015-10-05,1,,,,,,0
801,3130001045466,登記記録の閉鎖等,0,2023-01-17,2023-01-17,株式会社三宝染工,,株式会社,京都府,京都市左京区,高野西開町１８番地１フレックス高野１０９号室,,26,103,6068103,,,2023-01-17,登記官による閉鎖,,,2015-10-05,1,,,,,,0
802,3130001048452,登記記録の閉鎖等,0,2023-01-17,2023-01-17,株式会社トラストワン,,株式会社,京都府,京都市山科区,大塚高岩１２番地１５１,,26,110,6078122,,,2023-01-17,登記官による閉鎖,,,2015-10-05,1,,,,,,0
805,3130002000916,登記記録の閉鎖等,0,2023-01-17,2023-01-17,有限会社染色工芸柳田,,有限会社,京都府,京都市右京区,西京極西大丸町６番地の５,,26,108,6150862,,,2023-01-17,登記官による閉鎖,,,2015-10-05,1,,,,,,0
806,3130002001204,登記記録の閉鎖等,0,2023-01-17,2023-01-17,菜島商店有限会社,,有限会社,京都府,京都市右京区,梅津前田町３番地３,,26,108,6150922,,,2023-01-17,登記官による閉鎖,,,2015-10-05,1,,,,,,0
807,3130002004248,登記記録の閉鎖等,0,2023-01-17,2023-01-17,有限会社ふじさわ,,有限会社,京都府,京都市北区,紫竹下ノ岸町８番地の１,,26,101,6038107,,,2023-01-17,登記官による閉鎖,,,2015-10-05,1,,,,,,0
808,3130002010122,登記記録の閉鎖等,0,2023-01-17,2023-01-17,有限会社パールオフィス,,有限会社,京都府,京都市東山区,八坂鳥居前下る下河原町４６３番地１１,,26,105,6050825,,,2023-01-17,登記官による閉鎖,,,2015-10-05,1,,,,,,0
810,3130005003164,登記記録の閉鎖等,0,2023-01-17,2023-01-17,共和故金属事業協同組合,,その他の設立登記法人,京都府,京都市左京区,岩倉花園町３２９番地,,26,103,6060024,,,2023-01-17,登記官による閉鎖,,,2015-10-05,1,,,,,,0
811,3130005003214,登記記録の閉鎖等,0,2023-01-17,2023-01-17,都市環境整備協同組合,,その他の設立登記法人,京都府,京都市伏見区,深草馬谷町３４番地６の２,,26,109,6120816,,,2023-01-17,登記官による閉鎖,,,2015-10-05,1,,,,,,0
812,3130005009310,登記記録の閉鎖等,0,2023-01-17,2023-01-17,日本介護施設協同組合,,その他の設立登記法人,京都府,城陽市,寺田東ノ口１７の２９,,26,207,6100121,,,2023-01-17,登記官による閉鎖,,,2015-10-05,1,,,,,,0
813,3130005010763,登記記録の閉鎖等,0,2023-01-17,2023-01-17,環境開発リサイクル事業協同組合,,その他の設立登記法人,京都府,綾部市,志賀郷町蔵ノ段１３番地,,26,203,6230343,,,2023-01-17,登記官による閉鎖,,,2015-10-05,1,,,,,,0
819,3150002000055,登記記録の閉鎖等,0,2023-01-17,2023-01-11,有限会社あかつき,,有限会社,奈良県,奈良市,神功５丁目２－１２,,29,201,6310804,,,2023-01-11,清算の結了等,,,2015-10-05,1,,,,,アカツキ,0
833,3180301004423,登記記録の閉鎖等,0,2023-01-17,2023-01-17,株式会社韓国物産,,株式会社,愛知県,岡崎市,上里２丁目６番地２１,,23,202,4442136,,,2023-01-17,登記官による閉鎖,,,2015-10-05,1,,,,,,0
834,3180301013382,登記記録の閉鎖等,0,2023-01-17,2023-01-17,御殿工芸株式会社,,株式会社,愛知県,安城市,石井町辻原５２番地１,00074582,23,212,4441201,,,2023-01-17,登記官による閉鎖,,,2015-10-05,1,,,,,,0
837,3180302011658,登記記録の閉鎖等,0,2023-01-17,2023-01-17,有限会社東海テック,,有限会社,愛知県,豊橋市,牛川町字薬師前４番地の１８,,23,201,4400016,,,2023-01-17,登記官による閉鎖,,,2015-10-05,1,,,,,,0
838,3180302019049,登記記録の閉鎖等,0,2023-01-17,2023-01-17,有限会社めん処天勝,,有限会社,愛知県,刈谷市,寿町２丁目２０１番地１,,23,210,4480856,,,2023-01-17,登記官による閉鎖,,,2015-10-05,1,,,,,,0
839,3180302025880,登記記録の閉鎖等,0,2023-01-17,2023-01-17,有限会社ヴェルヴ,,有限会社,愛知県,豊田市,寿町８丁目１番地サンハイツ寿Ｃ－２Ｄ号,,23,211,4710834,,,2023-01-17,登記官による閉鎖,,,2015-10-05,1,,,,,,0
847,3240005005059,登記記録の閉鎖等,0,2023-01-17,2023-01-11,専念寺,,その他の設立登記法人,広島県,安芸高田市,八千代町勝田１４４６番地,,34,214,7310302,,,2023-01-11,清算の結了等,,,2015-10-05,1,,,,,センネンジ,0
848,3260001004979,登記記録の閉鎖等,0,2023-01-17,2023-01-16,日本エステード株式会社,,株式会社,岡山県,岡山市,千鳥町２３番８号,,33,201,7028037,,,2023-01-16,登記官による閉鎖,,,2017-05-17,1,,,,,,0
864,3290802003474,登記記録の閉鎖等,0,2023-01-17,2023-01-13,有限会社水流建設,,有限会社,福岡県,北九州市小倉南区,徳力７丁目１番２０－２０５号,,40,107,8020974,,,2023-01-13,清算の結了等,,,2015-10-05,1,,,,,,0
868,3310001010856,登記記録の閉鎖等,0,2023-01-17,2023-01-16,株式会社滝ノ原建設,,株式会社,長崎県,対馬市,上県町樫滝５番地１,,42,209,8171522,,,2023-01-16,登記官による閉鎖,,,2015-10-05,1,,,,,,0
870,3310002015433,登記記録の閉鎖等,0,2023-01-17,2023-01-16,有限会社濱興商,00096085,有限会社,長崎県,諫早市,下大渡野町１６２５番地,,42,204,8540096,,,2023-01-16,登記官による閉鎖,,,2015-10-05,1,,,,,,0
871,3310003000500,登記記録の閉鎖等,0,2023-01-17,2023-01-16,合同会社誠美,,合同会社,長崎県,長崎市,田上３丁目２０番１－１０２号,,42,201,8510251,,,2023-01-16,登記官による閉鎖,,,2015-10-05,1,,,,,,0
872,3310003001226,登記記録の閉鎖等,0,2023-01-17,2023-01-16,合資会社和企画,,合資会社,長崎県,佐世保市,田原町１３番地５号,,42,202,8570136,,,2023-01-16,登記官による閉鎖,,,2015-10-05,1,,,,,,0
891,3380001026177,登記記録の閉鎖等,0,2023-01-17,2023-01-16,株式会社相馬,,株式会社,福島県,相馬市,小野字小野迫９７番地１０,,07,209,9760053,,,2023-01-16,清算の結了等,,,2015-11-24,1,,,,,ソウマ,0
901,3440001001306,登記記録の閉鎖等,0,2023-01-17,2023-01-10,株式会社出戸建設,,株式会社,北海道,函館市,鍛治１丁目２３番１０号,,01,202,0410852,,,2023-01-10,清算の結了等,,,2015-10-05,1,,,,,デトケンセツ,0
902,3440001001784,登記記録の閉鎖等,0,2023-01-17,2023-01-10,株式会社ハーフェン,,株式会社,北海道,函館市,五稜郭町２５番６号,,01,202,0400001,,,2023-01-10,清算の結了等,,,2015-10-05,1,,,,,ハーフェン,0
904,3450001009117,登記記録の閉鎖等,0,2023-01-17,2023-01-16,株式会社一キ布施水産,,株式会社,北海道,増毛郡増毛町,舎熊８５番地,,01,481,0770132,,,2023-01-16,清算の結了等,,,2015-10-05,1,,,,,,0
936,4010401001600,登記記録の閉鎖等,0,2023-01-17,2022-12-27,あたご速記印刷株式会社,,株式会社,東京都,港区,西新橋１丁目１２番６号,,13,103,1050003,,,2022-12-27,清算の結了等,,,2015-10-05,1,,,,,アタゴソッキインサツ,0
956,4010602028426,登記記録の閉鎖等,0,2023-01-17,2023-01-10,有限会社ジャストコーポレーション,,有限会社,東京都,墨田区,東向島３丁目３６番３号,,13,107,1310032,,,2023-01-10,清算の結了等,,,2015-10-05,1,,,,,,0
971,4011003002441,登記記録の閉鎖等,0,2023-01-17,2023-01-12,コスメチックリエゾン合同会社,,合同会社,東京都,渋谷区,広尾１丁目１６番３－１０１号,,13,113,1500012,,,2023-01-12,合併による解散等,5240001010085,令和４年１２月３１日広島県山県郡北広島町新郷１番６株式会社ヒロマイト（5240001010085）に合併し解散,2015-10-05,1,,,,,コスメチックリエゾン,0
978,4011201002020,登記記録の閉鎖等,0,2023-01-17,2023-01-04,鷺宮テックス株式会社,,株式会社,東京都,中野区,若宮２丁目５５番５号,,13,114,1650033,,,2023-01-04,合併による解散等,6011201002019,令和５年１月１日東京都中野区若宮二丁目５５番５号株式会社鷺宮製作所（6011201002019）に合併し解散,2015-10-05,1,,,,,サギノミヤテックス,0
985,4011702013169,登記記録の閉鎖等,0,2023-01-17,2023-01-16,有限会社ケー・ティー・プランニング,,有限会社,東京都,江戸川区,西瑞江３丁目３番地８８,,13,123,1320015,,,2023-01-16,清算の結了等,,,2015-10-05,1,,,,,ケーティープランニング,0
1005,4020002008647,登記記録の閉鎖等,0,2023-01-17,2023-01-10,日光商事有限会社,,有限会社,神奈川県,横浜市金沢区,能見台６丁目１６番地１,,14,108,2360057,,,2023-01-10,清算の結了等,,,2015-10-05,1,,,,,,0
1024,4030002036845,登記記録の閉鎖等,0,2023-01-17,2023-01-12,有限会社Ｃ＆Ｔ　ＡＤＶＡＮＣＥ,,有限会社,埼玉県,入間市,牛沢町３番１３号,,11,225,3580051,,,2023-01-12,清算の結了等,,,2015-10-05,1,,,,,,0
1026,4030002113272,登記記録の閉鎖等,0,2023-01-17,2023-01-10,有限会社権田工務店,,有限会社,埼玉県,熊谷市,本石１丁目１６番地４,,11,202,3600815,,,2023-01-10,清算の結了等,,,2015-10-05,1,,,,,ゴンダコウムテン,0
1030,4040001016624,登記記録の閉鎖等,0,2023-01-17,2023-01-12,株式会社東通研,,株式会社,東京都,豊島区,要町１丁目２９番１１号,,13,116,1710043,,,2023-01-12,合併による解散等,9011401004968,令和５年１月１日東京都板橋区常盤台二丁目２０番１８号ニッカ株式会社（9011401004968）に合併し解散,2015-10-05,1,,,,,トウツウケン,0
1043,4050001009461,登記記録の閉鎖等,0,2023-01-17,2023-01-05,土浦ゴム工業株式会社,,株式会社,茨城県,土浦市,飯田２６６２番地の３,,08,203,3000802,,,2023-01-05,清算の結了等,,,2015-10-05,1,,,,,ツチウラゴムコウギョウ,0
1048,4060002031050,登記記録の閉鎖等,0,2023-01-17,2023-01-11,有限会社栃木プロパン瓦斯商会,,有限会社,栃木県,小山市,西城南４丁目８番地３,,09,208,3230820,,,2023-01-11,清算の結了等,,,2015-10-05,1,,,,,トチギプロパンガスショウカイ,0
1051,4070001001045,登記記録の閉鎖等,0,2023-01-17,2023-01-13,株式会社メモリード東京,,株式会社,東京都,世田谷区,砧２丁目４番２７号,,13,112,1570073,,,2023-01-13,合併による解散等,4070001003272,令和４年１２月１日群馬県前橋市大友町一丁目２番１１号株式会社メモリード（4070001003272）に合併し解散,2015-10-05,1,,,,,メモリードトウキョウ,0
1089,4130001000503,登記記録の閉鎖等,0,2023-01-17,2023-01-17,株式会社かわよし,,株式会社,京都府,京都市右京区,西京極西川町４５番地の２,,26,108,6150852,,,2023-01-17,登記官による閉鎖,,,2015-10-05,1,,,,,,0
1090,4130001015022,登記記録の閉鎖等,0,2023-01-17,2023-01-17,株式会社谷口組,,株式会社,京都府,京都市伏見区,深草藪之内町２８番地,,26,109,6120882,,,2023-01-17,登記官による閉鎖,,,2015-10-05,1,,,,,,0
1091,4130001018636,登記記録の閉鎖等,0,2023-01-17,2023-01-17,株式会社藤木商店,,株式会社,京都府,京都市下京区,西七条東八反田町４番地,,26,106,6008891,,,2023-01-17,登記官による閉鎖,,,2015-10-05,1,,,,,,0
1092,4130001019725,登記記録の閉鎖等,0,2023-01-17,2023-01-17,株式会社アミカ京都,,株式会社,京都府,京都市中京区,烏丸通夷川上る少将井町２２９番地の２第七長谷ビル６階,,26,104,6040862,,,2023-01-17,登記官による閉鎖,,,2015-10-05,1,,,,,,0
1093,4130001029121,登記記録の閉鎖等,0,2023-01-17,2023-01-17,株式会社市原工務店,,株式会社,京都府,京都市上京区,寺之内通千本西入下る柏清盛町９５５番地,,26,102,6028311,,,2023-01-17,登記官による閉鎖,,,2015-10-05,1,,,,,,0
1094,4130001029947,登記記録の閉鎖等,0,2023-01-17,2023-01-17,株式会社大沼工務店,,株式会社,京都府,向日市,寺戸町二ノ坪１２番地の８,,26,208,6170002,,,2023-01-17,登記官による閉鎖,,,2015-10-05,1,,,,,,0
1095,4130001030665,登記記録の閉鎖等,0,2023-01-17,2023-01-17,丸高商事株式会社,,株式会社,京都府,長岡京市,神足木寺町３番地の１,,26,209,6170833,,,2023-01-17,登記官による閉鎖,,,2015-10-05,1,,,,,,0
1096,4130001044599,登記記録の閉鎖等,0,2023-01-17,2023-01-17,株式会社ＤＩＲ,,株式会社,京都府,京都市中京区,烏丸通夷川上る少将井町２２９－２第７長谷ビル３Ｆ－Ｄ室,,26,104,6040862,,,2023-01-17,登記官による閉鎖,,,2015-10-05,1,,,,,,0
1097,4130001045754,登記記録の閉鎖等,0,2023-01-17,2023-01-17,株式会社翔屋,,株式会社,京都府,与謝郡与謝野町,字石川８７４番地１,,26,465,6292303,,,2023-01-17,登記官による閉鎖,,,2015-10-05,1,,,,,,0
1098,4130001046182,登記記録の閉鎖等,0,2023-01-17,2023-01-17,株式会社アシスト８２,,株式会社,京都府,京都市東山区,本町７丁目３８番地,,26,105,6050981,,,2023-01-17,登記官による閉鎖,,,2015-10-05,1,,,,,,0
1099,4130001047461,登記記録の閉鎖等,0,2023-01-17,2023-01-17,コトテック株式会社,,株式会社,京都府,京都市西京区,御陵大枝山町６丁目５番地４,,26,111,6101102,,,2023-01-17,登記官による閉鎖,,,2015-10-05,1,,,,,,0
1103,4130002002011,登記記録の閉鎖等,0,2023-01-17,2023-01-17,有限会社石川金彩工芸,,有限会社,京都府,京都市上京区,日暮通丸太町上る伊勢屋町７３３番地の３,,26,102,6020000,,,2023-01-17,登記官による閉鎖,,,2015-10-05,1,,,,,,0
1105,4130002010419,登記記録の閉鎖等,0,2023-01-17,2023-01-17,有限会社旭精工,,有限会社,京都府,京都市南区,上鳥羽山ノ本町２５番地の１,,26,107,6018176,,,2023-01-17,登記官による閉鎖,,,2015-10-05,1,,,,,,0
1106,4130002011433,登記記録の閉鎖等,0,2023-01-17,2023-01-17,有限会社フジムセン,,有限会社,京都府,京都市南区,東九条明田町６番地の４,,26,107,6018044,,,2023-01-17,登記官による閉鎖,,,2015-10-05,1,,,,,,0
1107,4130002016168,登記記録の閉鎖等,0,2023-01-17,2023-01-17,有限会社日下部氷室,,有限会社,京都府,京都市中京区,新町通押小路上る頭町２２番地２,,26,104,6040031,,,2023-01-17,登記官による閉鎖,,,2015-10-05,1,,,,,,0
1108,4130002019294,登記記録の閉鎖等,0,2023-01-17,2023-01-17,有限会社キョーホー,,有限会社,京都府,京都市中京区,西ノ京両町２番地,,26,104,6048497,,,2023-01-17,登記官による閉鎖,,,2015-10-05,1,,,,,,0
1109,4130002023619,登記記録の閉鎖等,0,2023-01-17,2023-01-17,有限会社イベント企画オノエ,,有限会社,京都府,京都市中京区,四坊大宮町１６９,,26,104,6048356,,,2023-01-17,登記官による閉鎖,,,2015-10-05,1,,,,,,0
1112,4130003002943,登記記録の閉鎖等,0,2023-01-17,2023-01-17,マイヅル・フレッシュフィッシュ合同会社,,合同会社,京都府,舞鶴市,字田井１４０番地,,26,202,6250157,,,2023-01-17,登記官による閉鎖,,,2015-10-05,1,,,,,,0
1115,4130005003394,登記記録の閉鎖等,0,2023-01-17,2023-01-17,京都産業廃棄物運輸事業協同組合,,その他の設立登記法人,京都府,京都市伏見区,竹田向代町４８の３京都府トラック事業協同組合連合会内,,26,109,6128418,,,2023-01-17,登記官による閉鎖,,,2015-10-05,1,,,,,,0
1116,4130005008749,登記記録の閉鎖等,0,2023-01-17,2023-01-17,特定非営利活動法人エイドフューチャーコミュニティー,,その他の設立登記法人,京都府,南丹市,園部町横田３号１００番地,,26,213,6220051,,,2023-01-17,登記官による閉鎖,,,2015-10-05,1,,,,,,0
1117,4130005010795,登記記録の閉鎖等,0,2023-01-17,2023-01-17,特定非営利活動法人エンディングデザインの会,,その他の設立登記法人,京都府,京都市南区,吉祥院内河原町３番地１０４,,26,107,6018392,,,2023-01-17,登記官による閉鎖,,,2015-10-05,1,,,,,,0
1119,4140001012480,登記記録の閉鎖等,0,2023-01-17,2022-12-27,石井殖産株式会社,,株式会社,東京都,港区,赤坂２丁目２番２１号永田町法曹ビル６０６号室,,13,103,1070052,,,2022-12-27,清算の結了等,,,2015-10-05,1,,,,,イシイショクサン,0
1131,4150002003511,登記記録の閉鎖等,0,2023-01-17,2023-01-05,有限会社マルヒラ,,有限会社,奈良県,奈良市,平松５丁目２３番９号,,29,201,6310846,,,2023-01-05,清算の結了等,,,2015-10-05,1,,,,,マルヒラ,0
1145,4180301002822,登記記録の閉鎖等,0,2023-01-17,2023-01-17,日本メンテック株式会社,,株式会社,愛知県,岡崎市,牧御堂町字水洗２２番地５,,23,202,4440205,,,2023-01-17,登記官による閉鎖,,,2015-10-05,1,,,,,,0
1146,4180301011699,登記記録の閉鎖等,0,2023-01-17,2023-01-17,アルカディア株式会社,,株式会社,愛知県,蒲郡市,水竹町花掛６７番地２,,23,214,4430005,,,2023-01-17,登記官による閉鎖,,,2015-10-05,1,,,,,,0
1149,4180302022175,登記記録の閉鎖等,0,2023-01-17,2023-01-17,有限会社さなげ,,有限会社,愛知県,豊田市,猿投町瀬戸田２７番地,,23,211,4700361,,,2023-01-17,登記官による閉鎖,,,2015-10-05,1,,,,,,0
1150,4180305006811,登記記録の閉鎖等,0,2023-01-17,2023-01-17,農事組合法人ロックきら,,その他の設立登記法人,愛知県,西尾市,吉良町小牧梶見堂３,,23,213,4440535,,,2023-01-17,登記官による閉鎖,,,2015-10-05,1,,,,,,0
1151,4180305007355,登記記録の閉鎖等,0,2023-01-17,2023-01-17,特定非営利活動法人東海年金賃金人事研究所,,その他の設立登記法人,愛知県,西尾市,一色町赤羽東乾地１２６番地,,23,213,4440427,,,2023-01-17,登記官による閉鎖,,,2015-10-05,1,,,,,,0
1158,4220002009212,登記記録の閉鎖等,0,2023-01-17,2023-01-13,有限会社高畠製作所,,有限会社,石川県,白山市,八田町８７５番地,,17,210,9240001,,,2023-01-13,清算の結了等,,,2015-10-05,1,,,,,タカバタセイサクショ,0
1160,4230001009666,登記記録の閉鎖等,0,2023-01-17,2023-01-16,株式会社アルファシマズ,,株式会社,富山県,高岡市,丸の内５番３５号,,16,202,9330912,,,2023-01-16,清算の結了等,,,2015-10-05,1,,,,,アルファシマズ,0
1162,4230002006200,登記記録の閉鎖等,0,2023-01-17,2023-01-12,大尚運輸株式会社,,株式会社,富山県,富山市,婦中町持田６４５番地,,16,201,9392725,,,2023-01-12,合併による解散等,9230001013507,令和５年１月１日富山県高岡市能町７５０番地株式会社エコネクト物流（9230001013507）に合併し解散,2015-10-05,1,,,,,ダイショウウンユ,0
1168,4290001023827,登記記録の閉鎖等,0,2023-01-17,2023-01-11,株式会社福岡スパイラル,,株式会社,福岡県,福岡市博多区,板付１丁目３番２７号,,40,132,8120888,,,2023-01-11,合併による解散等,8030001076970,令和５年１月１日埼玉県川口市西青木二丁目９番５号株式会社フカガワ（8030001076970）に合併し解散,2015-10-05,1,,,,,フクオカスパイラル,0
1183,4310002008048,登記記録の閉鎖等,0,2023-01-17,2023-01-16,有限会社エヌディ企画,,有限会社,長崎県,西彼杵郡長与町,本川内郷１６番地１４,,42,307,8512122,,,2023-01-16,登記官による閉鎖,,,2015-10-05,1,,,,,,0
1184,4310002019904,登記記録の閉鎖等,0,2023-01-17,2023-01-16,有限会社小川水産,,有限会社,長崎県,松浦市,鷹島町阿翁浦免７４６番地２,,42,208,8594301,,,2023-01-16,清算の結了等,,,2015-10-05,1,,,,,コガワスイサン,0
1187,4330005008258,登記記録の閉鎖等,0,2023-01-17,2023-01-13,農事組合法人阿蘇くまもとファーム,,その他の設立登記法人,熊本県,阿蘇市,波野大字赤仁田２９６番地２,,43,214,8692803,,,2023-01-13,清算の結了等,,,2015-10-05,1,,,,,アソクマモトファーム,0
1193,4380001028081,登記記録の閉鎖等,0,2023-01-17,2023-01-13,株式会社ＳＡＫＵＭＡ,,株式会社,福島県,いわき市,小川町西小川字淵沢１１番地,,07,204,9793121,,,2023-01-13,清算の結了等,,,2017-05-11,1,,,,,,0
1208,4450002001674,登記記録の閉鎖等,0,2023-01-17,2023-01-16,菊地商事有限会社,,有限会社,北海道,旭川市,五条通７丁目１２４９番地の２,,01,204,0700035,,,2023-01-16,清算の結了等,,,2015-10-05,1,,,,,キクチショウジ,0
1209,4500001000300,登記記録の閉鎖等,0,2023-01-17,2023-01-17,アールシーティ販売株式会社,,株式会社,愛媛県,松山市,高浜町１丁目２２４０番地の１,,38,201,7918081,,,2023-01-17,清算の結了等,,,2015-10-05,1,,,,,アールシーティハンバイ,0
1220,5010001180620,登記記録の閉鎖等,0,2023-01-17,2023-01-06,ＪＰＡ第５７号株式会社,,株式会社,東京都,千代田区,霞が関３丁目２番１号,,13,101,1000013,,,2023-01-06,清算の結了等,,,2017-01-11,1,,,,,ジェイピーエーダイゴジュウナナゴウ,0
1228,5010002011428,登記記録の閉鎖等,0,2023-01-17,2023-01-06,有限会社スタジオビッグ,,有限会社,東京都,千代田区,西神田１丁目３番１号,,13,101,1010065,,,2023-01-06,清算の結了等,,,2015-10-05,1,,,,,スタジオビッグ,0
1230,5010002046713,登記記録の閉鎖等,0,2023-01-17,2023-01-10,有限会社マーシーズ・キャピタル,,有限会社,千葉県,市川市,新田２丁目１番２１号,,12,203,2720035,,,2023-01-10,合併による解散等,7040001102561,令和５年１月１日千葉県市川市市川二丁目２２番３カーサ市川３０６ブッシュ・ビレッジ株式会社（7040001102561）に合併し解散,2015-10-05,1,,,,,マーシーズキャピタル,0
1231,5010003032209,登記記録の閉鎖等,0,2023-01-17,2023-01-04,株式会社ツクイホールディングス,,株式会社,神奈川県,横浜市港南区,上大岡西１丁目６番１号,,14,111,2330002,,,2023-01-04,合併による解散等,1020001136162,令和５年１月１日横浜市港南区上大岡西一丁目６番１号株式会社ツクイ（1020001136162）に合併し解散,2020-05-12,1,,,,,ツクイホールディングス,0
1236,5010401155651,登記記録の閉鎖等,0,2023-01-17,2022-12-27,株式会社エトゼ,,株式会社,東京都,港区,南麻布２丁目９番１７号ＣＩＲＣＬＥ南麻布３０１号室,,13,103,1060047,,,2022-12-27,清算の結了等,,,2020-10-07,1,,,,,エトゼ,0
1237,5010403016100,登記記録の閉鎖等,0,2023-01-17,2022-12-27,合同会社モーブ,,合同会社,東京都,港区,元赤坂１丁目１番８号株式会社赤坂国際会計内,,13,103,1070051,,,2022-12-27,清算の結了等,,,2017-02-10,1,,,,,モーブ,0
1241,5010405016833,登記記録の閉鎖等,0,2023-01-17,2022-12-27,なつみ一般社団法人,,その他の設立登記法人,東京都,港区,北青山１丁目２番３号,,13,103,1070061,,,2022-12-27,清算の結了等,,,2018-06-22,1,,,,,ナツミ,0
1287,5011701012146,登記記録の閉鎖等,0,2023-01-17,2023-01-16,株式会社Ｄｒｅａｍｅｒｓ,,株式会社,東京都,江戸川区,西小岩１丁目２１番１号,,13,123,1330057,,,2023-01-16,清算の結了等,,,2015-10-05,1,,,,,,0
1289,5011701022616,登記記録の閉鎖等,0,2023-01-17,2023-01-13,株式会社ＡＲＡＲＡＧＩコンサルティング,,株式会社,東京都,新宿区,新宿６丁目２７番２８－２０１号,,13,104,1600022,,,2023-01-13,清算の結了等,,,2019-04-24,1,,,,,アララギコンサルティング,0
1295,5012702004801,登記記録の閉鎖等,0,2023-01-17,2023-01-10,有限会社フォルテ,,有限会社,東京都,西東京市,富士町４丁目１８番１３号,,13,229,2020014,,,2023-01-10,清算の結了等,,,2015-10-05,1,,,,,フォルテ,0
1305,5020001098085,登記記録の閉鎖等,0,2023-01-17,2023-01-10,株式会社ワイヤレスマーケティング・ラボ,,株式会社,東京都,品川区,東品川２丁目２番２０号,,13,109,1400002,,,2023-01-10,合併による解散等,2010701015153,令和５年１月１日東京都品川区東品川二丁目２番２０号株式会社ワイヤレスゲート（2010701015153）に合併し解散,2015-10-05,1,,,,,ワイヤレスマーケティングラボ,0
1308,5021001012531,登記記録の閉鎖等,0,2023-01-17,2023-01-11,株式会社七協精機,,株式会社,神奈川県,相模原市中央区,東淵野辺５丁目１５番９号,,14,152,2520203,,,2023-01-11,清算の結了等,,,2015-10-05,1,,,,,ナナキョウセイキ,0
1369,5120002070883,登記記録の閉鎖等,0,2023-01-17,2023-01-06,フォーシーズンズ有限会社,,有限会社,東京都,荒川区,東尾久２丁目２番９号三祥ビル２２４,,13,118,1160012,,,2023-01-06,清算の結了等,,,2015-10-05,1,,,,,フォーシーズンズ,0
1373,5120005014103,登記記録の閉鎖等,0,2023-01-17,2023-01-16,特定非営利活動法人バリアフリーな生活を考える会,,その他の設立登記法人,大阪府,門真市,殿島町６番４号,,27,223,5710045,,,2023-01-16,清算の結了等,,,2015-10-05,1,,,,,バリアフリーナセイカツヲカンガエルカイ,0
1378,5122002013938,登記記録の閉鎖等,0,2023-01-17,2023-01-13,有限会社白井電装,,有限会社,大阪府,八尾市,上之島町北２丁目２１番地の３９,,27,212,5810845,,,2023-01-13,清算の結了等,,,2015-10-05,1,,,,,シライデンソウ,0
1379,5130001000254,登記記録の閉鎖等,0,2023-01-17,2023-01-17,株式会社ウエストコート,,株式会社,京都府,京都市右京区,西院巽町４０番地,00035015,26,108,6150014,,,2023-01-17,登記官による閉鎖,,,2015-10-05,1,,,,,,0
1380,5130001002077,登記記録の閉鎖等,0,2023-01-17,2023-01-17,株式会社安田総合企画,,株式会社,京都府,京都市右京区,太秦蜂岡町１０番地,,26,108,6168162,,,2023-01-17,登記官による閉鎖,,,2015-10-05,1,,,,,,0
1381,5130001021267,登記記録の閉鎖等,0,2023-01-17,2023-01-17,株式会社成和建設運輸,,株式会社,京都府,京都市中京区,麸屋町通二条下る尾張町２１０番地小林ビル,,26,104,6040000,,,2023-01-17,登記官による閉鎖,,,2015-10-05,1,,,,,,0
1383,5130001028072,登記記録の閉鎖等,0,2023-01-17,2023-01-17,株式会社壱頭,,株式会社,京都府,京都市上京区,大宮通鞍馬口上る若宮竪町７９番地３,,26,102,6020085,,,2023-01-17,登記官による閉鎖,,,2015-10-05,1,,,,,,0
1384,5130001030292,登記記録の閉鎖等,0,2023-01-17,2023-01-17,トオコー薬品株式会社,,株式会社,京都府,長岡京市,柴の里１番地の２０,,26,209,6170818,,,2023-01-17,登記官による閉鎖,,,2015-10-05,1,,,,,,0
1385,5130001030755,登記記録の閉鎖等,0,2023-01-17,2023-01-17,ヤマト警備保障株式会社,,株式会社,京都府,長岡京市,開田２丁目８番８号,,26,209,6170826,,,2023-01-17,登記官による閉鎖,,,2015-10-05,1,,,,,,0
1386,5130001032660,登記記録の閉鎖等,0,2023-01-17,2023-01-17,株式会社三久,,株式会社,京都府,宇治市,菟道田中１４番地の３,00047285,26,204,6110000,,,2023-01-17,登記官による閉鎖,,,2015-10-05,1,,,,,,0
1388,5130001035481,登記記録の閉鎖等,0,2023-01-17,2023-01-17,株式会社扇善,,株式会社,京都府,亀岡市,安町５８番地,,26,206,6210805,,,2023-01-17,登記官による閉鎖,,,2015-10-05,1,,,,,,0
1391,5130002007686,登記記録の閉鎖等,0,2023-01-17,2023-01-17,有限会社濱源,,有限会社,京都府,京都市下京区,仏光寺通室町東入釘隠町２４８番地４,,26,106,6008423,,,2023-01-17,登記官による閉鎖,,,2015-10-05,1,,,,,,0
1392,5130002023849,登記記録の閉鎖等,0,2023-01-17,2023-01-17,有限会社ベジタス,,有限会社,京都府,京都市右京区,嵯峨天龍寺今堀町１３番地６,,26,108,6168366,,,2023-01-17,登記官による閉鎖,,,2015-10-05,1,,,,,,0
1393,5130002025036,登記記録の閉鎖等,0,2023-01-17,2023-01-17,有限会社アトリエアルファ,,有限会社,京都府,京都市南区,西九条南田町４番地,,26,107,6018441,,,2023-01-17,登記官による閉鎖,,,2015-10-05,1,,,,,,0
1394,5130002027362,登記記録の閉鎖等,0,2023-01-17,2023-01-17,有限会社吉田加工,00037802,有限会社,京都府,久世郡久御山町,島田古堤防イワラ３１番地の６,,26,322,6130043,,,2023-01-17,登記官による閉鎖,,,2015-10-05,1,,,,,,0
1395,5130003002967,登記記録の閉鎖等,0,2023-01-17,2023-01-17,合同会社ユーイング,,合同会社,京都府,京都市右京区,西京極郡沢町１３－１西京極グリーンハイツ４１１,,26,108,6150858,,,2023-01-17,登記官による閉鎖,,,2015-10-05,1,,,,,,0
1399,5130005010737,登記記録の閉鎖等,0,2023-01-17,2023-01-17,京都事業農業協同組合,,その他の設立登記法人,京都府,綾部市,大字綾部村小字西馬場下１番地,,26,203,6230000,,,2023-01-17,登記官による閉鎖,,,2015-10-05,1,,,,,,1
1400,5130005011495,登記記録の閉鎖等,0,2023-01-17,2022-12-28,余内生産森林組合,,その他の設立登記法人,京都府,舞鶴市,字南田辺１１－１番地,,26,202,6240853,,,2022-12-28,清算の結了等,,,2015-10-05,1,,,,,アマウチ,0
1423,5180003009025,登記記録の閉鎖等,0,2023-01-17,2023-01-13,合資会社東徳工業,,合資会社,愛知県,名古屋市南区,鳴尾２丁目５３番地,,23,112,4570066,,,2023-01-13,清算の結了等,,,2015-10-05,1,,,,,トウトクコウギョウ,0
1426,5180301009453,登記記録の閉鎖等,0,2023-01-17,2023-01-17,カンチスレストラン株式会社,,株式会社,愛知県,豊橋市,一色町字一色郷１４番地の１,,23,201,4418148,,,2023-01-17,登記官による閉鎖,,,2015-10-05,1,,,,,,0
1427,5180301011211,登記記録の閉鎖等,0,2023-01-17,2023-01-17,株式会社中岡,,株式会社,愛知県,蒲郡市,水竹町花掛６７番地の２,,23,214,4430005,,,2023-01-17,登記官による閉鎖,,,2015-10-05,1,,,,,,0
1428,5180301019262,登記記録の閉鎖等,0,2023-01-17,2023-01-17,株式会社豊水,,株式会社,愛知県,豊田市,高崎町兼近７０番地,,23,211,4710048,,,2023-01-17,登記官による閉鎖,,,2015-10-05,1,,,,,,0
1430,5180301024147,登記記録の閉鎖等,0,2023-01-17,2023-01-17,鳳来光学株式会社,,株式会社,愛知県,新城市,大野字上野５番地,,23,221,4411615,,,2023-01-17,登記官による閉鎖,,,2015-10-05,1,,,,,,0
1432,5180301032166,登記記録の閉鎖等,0,2023-01-17,2023-01-05,株式会社Ｗｉｔｈ　Ｙｏｕ,,株式会社,愛知県,豊川市,四ツ谷町３丁目５５番地の２,,23,207,4420839,,,2023-01-05,清算の結了等,,,2019-01-08,1,,,,,ウィズユー,0
1435,5180302012695,登記記録の閉鎖等,0,2023-01-17,2023-01-17,有限会社穴吹鉄工,,有限会社,愛知県,豊川市,本野町東野添１３番地の１,,23,207,4420062,,,2023-01-17,登記官による閉鎖,,,2015-10-05,1,,,,,,0
1437,5180305003436,登記記録の閉鎖等,0,2023-01-17,2023-01-17,一般財団法人日比総合交流協会,,その他の設立登記法人,愛知県,豊橋市,下地町字橋口９６番地１,,23,201,4400086,,,2023-01-17,登記官による閉鎖,,,2015-10-05,1,,,,,,0
1438,5180305004368,登記記録の閉鎖等,0,2023-01-17,2023-01-17,一般社団法人全国施設利用者手芸推進協議会,,その他の設立登記法人,愛知県,豊川市,萩町雨田３番地,,23,207,4410201,,,2023-01-17,登記官による閉鎖,,,2015-10-05,1,,,,,,0
1452,5230001011142,登記記録の閉鎖等,0,2023-01-17,2023-01-16,株式会社吉田建築事務所,,株式会社,富山県,高岡市,中川１丁目７番２０号,,16,202,9330056,,,2023-01-16,清算の結了等,,,2015-10-05,1,,,,,ヨシダケンチクジムショ,0
1474,5310001004781,登記記録の閉鎖等,0,2023-01-17,2023-01-16,株式会社博仙信,,株式会社,長崎県,長崎市,万屋町５番７号関谷ビル４階,,42,201,8500852,,,2023-01-16,登記官による閉鎖,,,2015-10-05,1,,,,,,0
1475,5310001007801,登記記録の閉鎖等,0,2023-01-17,2023-01-16,株式会社フォルトゥナ,,株式会社,長崎県,佐世保市,桜木町８番１３号グリーンフィールドＭ３０２号室,,42,202,8570012,,,2023-01-16,登記官による閉鎖,,,2015-10-05,1,,,,,,0
1476,5310001009327,登記記録の閉鎖等,0,2023-01-17,2023-01-16,株式会社ＰＵＷプランナーズ・ジャパン,,株式会社,長崎県,大村市,大川田町４０９番地１,,42,205,8560804,,,2023-01-16,登記官による閉鎖,,,2015-10-05,1,,,,,,0
1477,5310002013674,登記記録の閉鎖等,0,2023-01-17,2023-01-16,有限会社武雄精肉店,,有限会社,長崎県,佐世保市,松原町５８３番地,,42,202,8570132,,,2023-01-16,登記官による閉鎖,,,2017-08-10,1,,,,,,0
1478,5310002014821,登記記録の閉鎖等,0,2023-01-17,2023-01-16,有限会社ナガサキ視力回復訓練センター,,有限会社,長崎県,佐世保市,下京町９番１号石橋ビル３階,,42,202,8570875,,,2023-01-16,清算の結了等,,,2015-10-05,1,,,,,ナガサキシリョクカイフククンレンセンター,0
1479,5310002015720,登記記録の閉鎖等,0,2023-01-17,2023-01-16,有限会社レイメイ,,有限会社,長崎県,諫早市,八坂町４番２５号,,42,204,8540025,,,2023-01-16,登記官による閉鎖,,,2015-10-05,1,,,,,,0
1480,5310002018822,登記記録の閉鎖等,0,2023-01-17,2023-01-16,玉龍海運有限会社,,有限会社,長崎県,壱岐市,石田町久喜触３１１番地,,42,210,8115223,,,2023-01-16,登記官による閉鎖,,,2015-10-05,1,,,,,,0
1481,5310005006840,登記記録の閉鎖等,0,2023-01-17,2023-01-13,五島乳業株式会社,,株式会社,長崎県,五島市,三尾野町３１１番地８,,42,211,8530014,,,2023-01-13,清算の結了等,,,2015-10-05,1,,,,,ゴトウニュウギョウ,0
1492,5370003004857,登記記録の閉鎖等,0,2023-01-17,2023-01-10,ビンテージアジア合同会社,,合同会社,宮城県,富谷市,日吉台２丁目３５番地６,,04,216,9813362,,,2023-01-10,清算の結了等,,,2020-07-01,1,,,,,ビンテージアジア,0
1501,5420001011131,登記記録の閉鎖等,0,2023-01-17,2023-01-13,株式会社十和田電鉄観光社,,株式会社,青森県,十和田市,稲生町１７番３号,,02,206,0340011,,,2023-01-13,清算の結了等,,,2015-10-05,1,,,,,トワダデンテツカンコウシャ,0
1502,5430001055615,登記記録の閉鎖等,0,2023-01-17,2023-01-16,マルエー商事株式会社,,株式会社,北海道,様似郡様似町,西町１６３番地１,,01,608,0580032,,,2023-01-16,清算の結了等,,,2015-10-05,1,,,,,,0
1510,5470001010302,登記記録の閉鎖等,0,2023-01-17,2023-01-16,株式会社石川板金工業,,株式会社,香川県,三豊市,豊中町上高野３６０番地の１,,37,208,7691504,,,2023-01-16,清算の結了等,,,2015-10-05,1,,,,,イシカワバンキンコウギョウ,0
1533,6010001179356,登記記録の閉鎖等,0,2023-01-17,2023-01-06,ＪＰＡ第５１号株式会社,,株式会社,東京都,千代田区,霞が関３丁目２番１号,,13,101,1000013,,,2023-01-06,清算の結了等,,,2016-11-04,1,,,,,ジェイピーエーダイゴジュウイチゴウ,0
1535,6010001188381,登記記録の閉鎖等,0,2023-01-17,2023-01-06,ＪＰＳ第２７号株式会社,,株式会社,東京都,千代田区,霞が関３丁目２番１号,,13,101,1000013,,,2023-01-06,清算の結了等,,,2017-12-19,1,,,,,ジェイピーエスダイニジュウナナゴウ,0
1536,6010001200641,登記記録の閉鎖等,0,2023-01-17,2023-01-04,日比谷不動産株式会社,,株式会社,東京都,千代田区,内幸町２丁目２番２号,,13,101,1000011,,,2023-01-04,合併による解散等,2010003015694,令和４年１２月３１日東京都千代田区内幸町二丁目２番２号セブンシーズアドバイザーズ株式会社内株式会社紀の国坂管理（2010003015694）に合併し解散,2019-05-08,1,,,,,ヒビヤフドウサン,0
1620,6013301022623,登記記録の閉鎖等,0,2023-01-17,2023-01-12,Ｊｅｉｓｙｓ　Ｊａｐａｎ株式会社,,株式会社,東京都,豊島区,南池袋２丁目３１番５号,,13,116,1710022,,,2023-01-12,清算の結了等,,,2015-10-05,1,,,,,ジェイシスジャパン,0
1623,6013405000046,登記記録の閉鎖等,0,2023-01-17,2022-12-19,医療法人社団草和会,,その他の設立登記法人,東京都,日野市,百草９９９番地百草団地医療センター２階,,13,212,1910033,,,2022-12-19,清算の結了等,,,2015-10-05,1,,,,,ソウワカイ,0
1640,6021001033989,登記記録の閉鎖等,0,2023-01-17,2023-01-10,株式会社丸愛酒店,,株式会社,神奈川県,足柄上郡松田町,松田惣領１２３０番地の１,,14,363,2580003,,,2023-01-10,清算の結了等,,,2015-10-05,1,,,,,マルアイサケテン,0
1646,6021002048573,登記記録の閉鎖等,0,2023-01-17,2023-01-10,有限会社介護ホーム幸緑園,,有限会社,神奈川県,綾瀬市,深谷中７丁目２６番２０号,,14,218,2521107,,,2023-01-10,清算の結了等,,,2015-10-05,1,,,,,カイゴホームコウリョクエン,0
1652,6030001092061,登記記録の閉鎖等,0,2023-01-17,2023-01-12,株式会社ケーユー物流,,株式会社,埼玉県,草加市,長栄２丁目３６番地２６,,11,221,3400051,,,2023-01-12,清算の結了等,,,2015-10-05,1,,,,,,0
1653,6030001118964,登記記録の閉鎖等,0,2023-01-17,2023-01-13,株式会社大沢コンクリート工業,,株式会社,埼玉県,熊谷市,三ヶ尻２０１６番地,,11,202,3600843,,,2023-01-13,合併による解散等,5040002098909,令和５年１月９日東京都足立区千住仲町１８番６号共栄ホールディングス株式会社（5040002098909）に合併し解散,2017-03-07,1,,,,,オオサワコンクリートコウギョウ,0
1655,6030001150232,登記記録の閉鎖等,0,2023-01-17,2023-01-11,株式会社Ｗｅｓｔ　Ｅｉｇｈｔ,,株式会社,埼玉県,さいたま市西区,大字西遊馬１１７９番地１,,11,101,3310061,,,2023-01-11,清算の結了等,,,2022-09-28,1,,,,,ウェストウェイト,0
1681,6070002010852,登記記録の閉鎖等,0,2023-01-17,2023-01-10,瀧澤製粉有限会社,,有限会社,群馬県,高崎市,昭和町５０番地,,10,202,3700068,,,2023-01-10,清算の結了等,,,2015-10-05,1,,,,,タキザワセイフン,0
1685,6080401010873,登記記録の閉鎖等,0,2023-01-17,2023-01-12,ホーミーホーム株式会社,,株式会社,静岡県,浜松市北区,細江町中川１８７６番地の１,,22,135,4311304,,,2023-01-12,清算の結了等,,,2015-10-05,1,,,,,ホーミーホーム,0
1686,6080403002365,登記記録の閉鎖等,0,2023-01-17,2023-01-11,合同会社萌木,,合同会社,静岡県,浜松市中区,蜆塚１丁目２２番２２号,00080177,22,131,4328018,,,2023-01-11,清算の結了等,,,2015-10-05,1,,,,,モエギ,0
1693,6120001194451,登記記録の閉鎖等,0,2023-01-17,2023-01-10,アラヤ株式会社,,株式会社,大阪府,交野市,郡津１丁目５７番１５号２０５号,,27,230,5760053,,,2023-01-10,清算の結了等,,,2015-11-17,1,,,,,アラヤ,0
1706,6122002014084,登記記録の閉鎖等,0,2023-01-17,2023-01-13,有限会社中村電機設備,,有限会社,大阪府,柏原市,円明町８番６号,,27,221,5820027,,,2023-01-13,清算の結了等,,,2015-10-05,1,,,,,ナカムラデンキセツビ,0
1708,6130001011127,登記記録の閉鎖等,0,2023-01-17,2023-01-17,株式会社タツミキカイ,,株式会社,京都府,京都市南区,吉祥院石原堂ノ後町１３番地の３,,26,107,6018355,,,2023-01-17,登記官による閉鎖,,,2015-10-05,1,,,,,,0
1710,6130001015235,登記記録の閉鎖等,0,2023-01-17,2023-01-17,中川産業株式会社,,株式会社,京都府,京都市伏見区,竹田西段川原町８６番地,,26,109,6128429,,,2023-01-17,登記官による閉鎖,,,2015-10-05,1,,,,,,0
1711,6130001018502,登記記録の閉鎖等,0,2023-01-17,2023-01-17,株式会社早川保険事務所,,株式会社,京都府,京都市下京区,猪熊通四条下る松本町２６０番地,,26,106,6008390,,,2023-01-17,登記官による閉鎖,,,2015-10-05,1,,,,,,0
1713,6130001023287,登記記録の閉鎖等,0,2023-01-17,2023-01-17,株式会社京都技研モータース,,株式会社,京都府,京都市中京区,西ノ京南上合町１０８番地,,26,104,6048483,,,2023-01-17,登記官による閉鎖,,,2015-10-05,1,,,,,,0
1714,6130001028963,登記記録の閉鎖等,0,2023-01-17,2023-01-17,株式会社ＫＩＴテクノリサーチ,,株式会社,京都府,京都市左京区,一乗寺庵野町２５番地の１,,26,103,6068166,,,2023-01-17,登記官による閉鎖,,,2015-10-05,1,,,,,,0
1715,6130001034706,登記記録の閉鎖等,0,2023-01-17,2023-01-17,株式会社ＭＪＥ,,株式会社,京都府,宇治市,広野町宮谷１番地の８,,26,204,6110031,,,2023-01-17,登記官による閉鎖,,,2015-10-05,1,,,,,,0
1716,6130001037056,登記記録の閉鎖等,0,2023-01-17,2023-01-17,株式会社テラビッツ,,株式会社,京都府,相楽郡精華町,光台１丁目７番けいはんなプラザラボ棟５階,,26,366,6190237,,,2023-01-17,登記官による閉鎖,,,2015-10-05,1,,,,,,0
1717,6130001038194,登記記録の閉鎖等,0,2023-01-17,2023-01-17,株式会社ペーパークラブウイズ,,株式会社,京都府,八幡市,西山丸尾３番地７,,26,210,6148353,,,2023-01-17,登記官による閉鎖,,,2015-10-05,1,,,,,,0
1718,6130001042221,登記記録の閉鎖等,0,2023-01-17,2023-01-17,ＫＴＳ株式会社,,株式会社,京都府,向日市,森本町天神森２番地の１,,26,208,6170003,,,2023-01-17,登記官による閉鎖,,,2015-10-05,1,,,,,,0
1720,6130002008031,登記記録の閉鎖等,0,2023-01-17,2023-01-17,有限会社アーク,,有限会社,京都府,京都市中京区,西ノ京両町２番地ロイヤル京都丸太町８０３号,,26,104,6048497,,,2023-01-17,登記官による閉鎖,,,2015-10-05,1,,,,,,0
1721,6130002011695,登記記録の閉鎖等,0,2023-01-17,2023-01-17,有限会社ライフステージ京都,,有限会社,京都府,京都市南区,吉祥院九条町３７番地３,,26,107,6018328,,,2023-01-17,登記官による閉鎖,,,2015-10-05,1,,,,,,0
1722,6130002018872,登記記録の閉鎖等,0,2023-01-17,2023-01-17,有限会社クルーワークエンジニアリング,,有限会社,京都府,京都市南区,久世上久世町６３－２,,26,107,6018212,,,2023-01-17,登記官による閉鎖,,,2015-10-05,1,,,,,,0
1724,6130002024838,登記記録の閉鎖等,0,2023-01-17,2023-01-17,有限会社辻清酒店,,有限会社,京都府,長岡京市,長岡２丁目２番４３号,,26,209,6170823,,,2023-01-17,登記官による閉鎖,,,2015-10-05,1,,,,,,0
1725,6130002029003,登記記録の閉鎖等,0,2023-01-17,2023-01-17,有限会社タカダ酒店,,有限会社,京都府,亀岡市,余部町清水１９番地１,,26,206,6210806,,,2023-01-17,登記官による閉鎖,,,2015-10-05,1,,,,,,0
1726,6130002029374,登記記録の閉鎖等,0,2023-01-17,2023-01-17,有限会社フォートン・メディサイエンス,,有限会社,京都府,亀岡市,＿田野町天川溝尻３２番地１,00037884,26,206,6210032,,,2023-01-17,登記官による閉鎖,,,2015-10-05,1,,,,,,0
1727,6130002031867,登記記録の閉鎖等,0,2023-01-17,2023-01-17,有限会社ハイブリッジ・コンサル,,有限会社,京都府,八幡市,男山長沢１６番地７,,26,210,6148367,,,2023-01-17,登記官による閉鎖,,,2015-10-05,1,,,,,,0
1729,6130005004903,登記記録の閉鎖等,0,2023-01-17,2023-01-17,特定非営利活動法人日本稲藁輸入対策協議会,,その他の設立登記法人,京都府,京都市中京区,笋町６８２番地梅軒ビル,,26,104,6048153,,,2023-01-17,登記官による閉鎖,,,2015-10-05,1,,,,,,0
1730,6130005008664,登記記録の閉鎖等,0,2023-01-17,2023-01-17,関西生コンクリート販売協同組合,,その他の設立登記法人,京都府,木津川市,相楽古川１７番地１,,26,214,6190222,,,2023-01-17,登記官による閉鎖,,,2015-10-05,1,,,,,,0
1759,6180002013167,登記記録の閉鎖等,0,2023-01-17,2023-01-12,有限会社居酒屋浩二,,有限会社,愛知県,名古屋市瑞穂区,瑞穂通７丁目７番地の１,,23,108,4670806,,,2023-01-12,清算の結了等,,,2015-10-05,1,,,,,イザカヤコウジ,0
1760,6180002042819,登記記録の閉鎖等,0,2023-01-17,2023-01-12,有限会社植地,,有限会社,愛知県,名古屋市港区,いろは町２丁目６４番地,,23,111,4550052,,,2023-01-12,清算の結了等,,,2015-10-05,1,,,,,ウエチ,0
1762,6180002090479,登記記録の閉鎖等,0,2023-01-17,2023-01-12,水谷補修有限会社,,有限会社,愛知県,愛西市,大野山町郷西４１番地,,23,232,4968017,,,2023-01-12,清算の結了等,,,2015-10-05,1,,,,,ミズタニホシュウ,0
1768,6180301004445,登記記録の閉鎖等,0,2023-01-17,2023-01-17,株式会社Ｋ２コーポレーション,,株式会社,愛知県,岡崎市,上六名１丁目２番地１,,23,202,4440858,,,2023-01-17,登記官による閉鎖,,,2015-10-05,1,,,,,,0
1769,6180301009444,登記記録の閉鎖等,0,2023-01-17,2023-01-17,株式会社ＢＬＯＳＳＯＭ,,株式会社,愛知県,豊橋市,松葉町２丁目１９番地,,23,201,4400897,,,2023-01-17,登記官による閉鎖,,,2015-10-05,1,,,,,,0
1770,6180301016135,登記記録の閉鎖等,0,2023-01-17,2023-01-17,株式会社こぐねアミューズメント,,株式会社,愛知県,碧南市,東浦町２丁目２７番地,,23,209,4470889,,,2023-01-17,登記官による閉鎖,,,2015-10-05,1,,,,,,0
1771,6180301021242,登記記録の閉鎖等,0,2023-01-17,2023-01-17,株式会社ロード,,株式会社,愛知県,豊田市,竹生町４丁目２０番地,,23,211,4710077,,,2023-01-17,登記官による閉鎖,,,2015-10-05,1,,,,,,0
1775,6180302012901,登記記録の閉鎖等,0,2023-01-17,2023-01-17,大林印刷有限会社,,有限会社,愛知県,豊川市,久保町下屋敷２２番地,,23,207,4420856,,,2023-01-17,登記官による閉鎖,,,2015-10-05,1,,,,,,0
1776,6180302018106,登記記録の閉鎖等,0,2023-01-17,2023-01-17,有限会社刈谷デック,,有限会社,愛知県,高浜市,沢渡町１丁目６番地１３,,23,227,4441333,,,2023-01-17,登記官による閉鎖,,,2015-10-05,1,,,,,,0
1777,6180302018733,登記記録の閉鎖等,0,2023-01-17,2023-01-17,有限会社二階堂建設,,有限会社,愛知県,刈谷市,半城土町本郷９４番地,,23,210,4480804,,,2023-01-17,登記官による閉鎖,,,2015-10-05,1,,,,,,0
1778,6180302027858,登記記録の閉鎖等,0,2023-01-17,2023-01-17,有限会社板敷,,有限会社,愛知県,新城市,能登瀬字北野２３番地の４,,23,221,4411605,,,2023-01-17,登記官による閉鎖,,,2015-10-05,1,,,,,,0
1779,6180303004724,登記記録の閉鎖等,0,2023-01-17,2023-01-05,合同会社Ｃｒａｗｌｉｎｇ　ｕｐ,,合同会社,愛知県,豊田市,大林町９丁目１３２第３大林和風寮９１１７号,,23,211,4730902,,,2023-01-05,清算の結了等,,,2020-08-31,1,,,,,クローリングアップ,0
1781,6180305003286,登記記録の閉鎖等,0,2023-01-17,2023-01-17,特定非営利活動法人緑化促進協議会,,その他の設立登記法人,愛知県,豊橋市,前田町２丁目６番地向山パールビル３階,,23,201,4400814,,,2023-01-17,登記官による閉鎖,,,2015-10-05,1,,,,,,0
1782,6180305006702,登記記録の閉鎖等,0,2023-01-17,2023-01-17,共栄海運協業組合,,その他の設立登記法人,愛知県,西尾市,東幡豆町黒田２１番地１,,23,213,4440701,,,2023-01-17,登記官による閉鎖,,,2015-10-05,1,,,,,,0
1784,6200001012836,登記記録の閉鎖等,0,2023-01-17,2023-01-16,株式会社アイズ,,株式会社,岐阜県,瑞穂市,稲里２１２番地１,,21,216,5010224,,,2023-01-16,清算の結了等,,,2015-10-05,1,,,,,,0
1785,6200001029095,登記記録の閉鎖等,0,2023-01-17,2023-01-13,中村精工株式会社,,株式会社,岐阜県,岐阜市,柳津町北塚４丁目４１番地の３,,21,201,5016112,,,2023-01-13,合併による解散等,4010601002266,令和５年１月１日東京都江東区森下五丁目１８番１３号株式会社関東製作所（4010601002266）に合併し解散,2015-10-05,1,,,,,ナカムラセイコウ,0
1788,6200005012436,登記記録の閉鎖等,0,2023-01-17,2023-01-16,一般社団法人地域福祉推進会,,その他の設立登記法人,岐阜県,瑞穂市,稲里字二之町２１２番地１,,21,216,5010224,,,2023-01-16,清算の結了等,,,2016-02-17,1,,,,,,0
1803,6290001091491,登記記録の閉鎖等,0,2023-01-17,2022-12-16,うきは農園株式会社,,株式会社,福岡県,うきは市,浮羽町浮羽７５６番地,,40,225,8391402,,,2022-12-16,清算の結了等,,,2021-01-06,1,,,,,ウキハノウエン,0
1812,6310001005424,登記記録の閉鎖等,0,2023-01-17,2023-01-16,サセボビール株式会社,,株式会社,長崎県,佐世保市,名切町３１３番地７,,42,202,8570023,,,2023-01-16,登記官による閉鎖,,,2015-10-05,1,,,,,,0
1813,6310001005655,登記記録の閉鎖等,0,2023-01-17,2023-01-16,大日産業株式会社,,株式会社,長崎県,佐世保市,大野町２２６番地２,,42,202,8570131,,,2023-01-16,登記官による閉鎖,,,2015-10-05,1,,,,,,0
1814,6310001007131,登記記録の閉鎖等,0,2023-01-17,2023-01-16,株式会社空フーズ,,株式会社,長崎県,佐世保市,白岳町１００番５号,,42,202,8571164,,,2023-01-16,登記官による閉鎖,,,2015-10-05,1,,,,,,0
1815,6310001008096,登記記録の閉鎖等,0,2023-01-17,2023-01-16,株式会社ホンダプリモ南条,,株式会社,長崎県,諫早市,小船越町３２２３番地２,,42,204,8540062,,,2023-01-16,登記官による閉鎖,,,2015-10-05,1,,,,,,0
1816,6310001009391,登記記録の閉鎖等,0,2023-01-17,2023-01-16,豊栄物産株式会社,,株式会社,長崎県,大村市,古賀島町１１８番地５,,42,205,8560817,,,2023-01-16,登記官による閉鎖,,,2015-10-05,1,,,,,,0
1817,6310001011298,登記記録の閉鎖等,0,2023-01-17,2023-01-16,株式会社エフィック,,株式会社,長崎県,長崎市,田中町８３８番地,,42,201,8510134,,,2023-01-16,登記官による閉鎖,,,2015-10-05,1,,,,,,0
1818,6310002004524,登記記録の閉鎖等,0,2023-01-17,2023-01-16,有限会社東長崎車体整備工場,,有限会社,長崎県,長崎市,古賀町１１番地１,,42,201,8510101,,,2023-01-16,登記官による閉鎖,,,2015-10-05,1,,,,,,0
1819,6310002008806,登記記録の閉鎖等,0,2023-01-17,2023-01-16,有限会社佐藤設備工業,,有限会社,長崎県,長崎市,三景台町２２番１号,,42,201,8500824,,,2023-01-16,登記官による閉鎖,,,2015-10-05,1,,,,,,0
1820,6310002015694,登記記録の閉鎖等,0,2023-01-17,2023-01-16,有限会社湯江住建工業,,有限会社,長崎県,諫早市,貝津町７５８番地１,,42,204,8540063,,,2023-01-16,登記官による閉鎖,,,2015-10-05,1,,,,,,0
1821,6310002016321,登記記録の閉鎖等,0,2023-01-17,2023-01-16,有限会社キディワールド,,有限会社,長崎県,諫早市,栄田名１０６１番地２７,,42,204,8540000,,,2023-01-16,登記官による閉鎖,,,2015-10-05,1,,,,,,1
1822,6310002019118,登記記録の閉鎖等,0,2023-01-17,2023-01-16,有限会社豊永建設,,有限会社,長崎県,壱岐市,郷ノ浦町若松触字泉ヶ山２３０番地１,,42,210,8115141,,,2023-01-16,登記官による閉鎖,,,2015-10-05,1,,,,,,0
1823,6310003002262,登記記録の閉鎖等,0,2023-01-17,2023-01-16,合名会社岩見商店,,合名会社,長崎県,対馬市,厳原町小茂田７１２番地,,42,209,8170248,,,2023-01-16,登記官による閉鎖,,,2015-10-05,1,,,,,,0
1829,6330002007351,登記記録の閉鎖等,0,2023-01-17,2023-01-16,有限会社トモヱ,,有限会社,熊本県,熊本市中央区,水前寺公園２６番２７号,,43,101,8620956,,,2023-01-16,清算の結了等,,,2015-10-05,1,,,,,トモエ,0
1834,6370001004916,登記記録の閉鎖等,0,2023-01-17,2023-01-10,株式会社北日本車検整備工場,,株式会社,宮城県,仙台市宮城野区,扇町７丁目６番１７号,,04,102,9830034,,,2023-01-10,清算の結了等,,,2015-10-05,1,,,,,キタニホンシャケンセイビコウジョウ,0
1841,6400002005018,登記記録の閉鎖等,0,2023-01-17,2023-01-12,有限会社盛岡エーシーサービス,,有限会社,岩手県,盛岡市,西青山２丁目２１番４３号,,03,201,0200132,,,2023-01-12,清算の結了等,,,2015-10-05,1,,,,,モリオカエーシーサービス,0
1845,6430001053221,登記記録の閉鎖等,0,2023-01-17,2023-01-06,株式会社タマイ,,株式会社,北海道,白老郡白老町,日の出町５丁目２７番地１６２,,01,578,0590903,,,2023-01-06,清算の結了等,,,2015-10-05,1,,,,,タマイ,0
1857,7010001130945,登記記録の閉鎖等,0,2023-01-17,2023-01-05,株式会社トラストホールディングス,,株式会社,東京都,千代田区,神田司町２丁目２番地７,,13,101,1010048,,,2023-01-05,合併による解散等,9010001042057,令和５年１月１日東京都千代田区神田司町二丁目２番地７株式会社メディア・トラスト（9010001042057）に合併し解散,2015-10-05,1,,,,,トラストホールディングス,0
1860,7010001180619,登記記録の閉鎖等,0,2023-01-17,2023-01-06,ＪＰＡ第５６号株式会社,,株式会社,東京都,千代田区,霞が関３丁目２番１号,,13,101,1000013,,,2023-01-06,清算の結了等,,,2017-01-11,1,,,,,ジェイピーエーダイゴジュウロクゴウ,0
1861,7010001188380,登記記録の閉鎖等,0,2023-01-17,2023-01-06,ＪＰＳ第２６号株式会社,,株式会社,東京都,千代田区,霞が関３丁目２番１号,,13,101,1000013,,,2023-01-06,清算の結了等,,,2017-12-19,1,,,,,ジェイピーエスダイニジュウロクゴウ,0
1866,7010001216447,登記記録の閉鎖等,0,2023-01-17,2023-01-12,ケーブルホールディングス株式会社,,株式会社,東京都,千代田区,大手町１丁目５番１号,,13,101,1000004,,,2023-01-12,合併による解散等,6030001054128,令和５年１月１日埼玉県富士見市大字鶴馬２６１６番地３株式会社ニューテックス（6030001054128）に合併し解散,2021-03-11,1,,,,,ケーブルホールディングス,0
1881,7010005008568,登記記録の閉鎖等,0,2023-01-17,2023-01-11,特定非営利活動法人漢方環境安全対策普及協会,,その他の設立登記法人,東京都,中央区,八丁堀３丁目２５番８号伊海田ビル２階,,13,102,1040032,,,2023-01-11,清算の結了等,,,2015-10-05,1,,,,,カンポウカンキョウアンゼンタイサクフキュウキョウカイ,0
1900,7010403018854,登記記録の閉鎖等,0,2023-01-17,2022-12-27,合同会社きよみインベストメント,,合同会社,東京都,港区,北青山１丁目２番３号,,13,103,1070061,,,2022-12-27,清算の結了等,,,2018-06-22,1,,,,,キヨミインベストメント,0
1904,7010405016195,登記記録の閉鎖等,0,2023-01-17,2022-12-27,Ａｕｔｕｍｎ　Ｌｅａｖｅｓ特定目的会社,,その他の設立登記法人,東京都,港区,西新橋１丁目２２番５号６階,,13,103,1050003,,,2022-12-27,清算の結了等,,,2017-11-01,1,,,,,オータムリーブズ,0
1906,7010501011703,登記記録の閉鎖等,0,2023-01-17,2023-01-16,富士商産株式会社,,株式会社,東京都,台東区,寿３丁目３番２号,,13,106,1110042,,,2023-01-16,清算の結了等,,,2015-10-05,1,,,,,,0
1911,7010701038975,登記記録の閉鎖等,0,2023-01-17,2023-01-10,株式会社ＳＳＷ,,株式会社,東京都,品川区,東五反田２丁目４番４号中澤ビル４階,,13,109,1410022,,,2023-01-10,清算の結了等,,,2020-03-09,1,,,,,エスエスダブリュー,0
1919,7011001120226,登記記録の閉鎖等,0,2023-01-17,2023-01-06,増田会計株式会社,,株式会社,東京都,渋谷区,道玄坂１丁目１９番１２号,,13,113,1500043,,,2023-01-06,清算の結了等,,,2018-01-22,1,,,,,,0
1947,7011502007426,登記記録の閉鎖等,0,2023-01-17,2023-01-06,有限会社エルダーケア,,有限会社,東京都,荒川区,西日暮里６丁目７番１８号大洋ビル１階,,13,118,1160013,,,2023-01-06,清算の結了等,,,2015-10-05,1,,,,,エルダーケア,0
1965,7013305002752,登記記録の閉鎖等,0,2023-01-17,2023-01-10,一般社団法人城西経営支援機構,,その他の設立登記法人,東京都,豊島区,千早１丁目１０番２６号,,13,116,1710044,,,2023-01-10,清算の結了等,,,2018-02-09,1,,,,,ジョウサイケイエイシエンキコウ,0
1966,7020001101854,登記記録の閉鎖等,0,2023-01-17,2023-01-11,株式会社むつみ,,株式会社,神奈川県,横浜市南区,六ツ川１丁目７７番地２,,14,105,2320066,,,2023-01-11,清算の結了等,,,2015-10-05,1,,,,,ムツミ,0
1968,7020001119995,登記記録の閉鎖等,0,2023-01-17,2023-01-10,株式会社あさひ保険センター,,株式会社,神奈川県,横浜市中区,長者町９丁目１７５番地第十吉田興産ビル,,14,104,2310033,,,2023-01-10,清算の結了等,,,2017-02-16,1,,,,,アサヒホケンセンター,0
1977,7021002064561,登記記録の閉鎖等,0,2023-01-17,2023-01-06,有限会社真田建築,,有限会社,神奈川県,横須賀市,荻野１８番２３号,,14,201,2400102,,,2023-01-06,清算の結了等,,,2015-10-05,1,,,,,サナダケンチク,0
1984,7030005019274,登記記録の閉鎖等,0,2023-01-17,2023-01-10,一般社団法人医療福祉キャリア,,その他の設立登記法人,東京都,品川区,南品川２丁目２番５号,,13,109,1400004,,,2023-01-10,清算の結了等,,,2018-12-07,1,,,,,イリョウフクシキャリア,0
2000,7050002033904,登記記録の閉鎖等,0,2023-01-17,2023-01-10,有限会社大森左官工業,,有限会社,茨城県,稲敷市,下君山１９６１番地の２,,08,229,3000527,,,2023-01-10,清算の結了等,,,2015-10-05,1,,,,,,0
2004,7060001029951,登記記録の閉鎖等,0,2023-01-17,2023-01-11,株式会社ＣＹＣＬＥ,,株式会社,栃木県,佐野市,飯田町５０８番地１,,09,204,3270825,,,2023-01-11,清算の結了等,,,2017-11-09,1,,,,,サイクル,0
2008,7070001007543,登記記録の閉鎖等,0,2023-01-17,2023-01-12,第一工業株式会社,,株式会社,群馬県,高崎市,浜川町７５番地２,,10,202,3700081,,,2023-01-12,清算の結了等,,,2015-10-05,1,,,,,ダイイチコウギョウ,0
2014,7080102018208,登記記録の閉鎖等,0,2023-01-17,2023-01-13,有限会社小藤田設備工業,,有限会社,静岡県,熱海市,下多賀１６５番地,,22,205,4130102,,,2023-01-13,清算の結了等,,,2015-10-05,1,,,,,コトウダセツビコウギョウ,0
2015,7080401020434,登記記録の閉鎖等,0,2023-01-17,2023-01-12,プロダクトリング株式会社,,株式会社,静岡県,浜松市西区,村櫛町４６６８番地１２３,,22,133,4311207,,,2023-01-12,清算の結了等,,,2015-10-05,1,,,,,プロダクトリング,0
2020,7100002020780,登記記録の閉鎖等,0,2023-01-17,2023-01-12,有限会社ツチミカド,,有限会社,長野県,松本市,女鳥羽２丁目４番２９号,,20,202,3900806,,,2023-01-12,清算の結了等,,,2015-10-05,1,,,,,ツチミカド,0
2024,7120001184443,登記記録の閉鎖等,0,2023-01-17,2023-01-05,株式会社サンエイ,,株式会社,兵庫県,尼崎市,南武庫之荘１０丁目５番３－６０６号,,28,202,6610033,,,2023-01-05,清算の結了等,,,2015-10-05,1,,,,,サンエイ,0
2025,7120001195003,登記記録の閉鎖等,0,2023-01-17,2023-01-13,株式会社ＯＲＩＯＮ,,株式会社,大阪府,大阪市北区,南森町１丁目３－９柏尾ビル３０８号室,,27,127,5300054,,,2023-01-13,清算の結了等,,,2015-12-11,1,,,,,オリオン,0
2045,7130001009921,登記記録の閉鎖等,0,2023-01-17,2023-01-17,株式会社アバンテ,,株式会社,京都府,京都市南区,吉祥院三ノ宮西町６１番地の２,,26,107,6018318,,,2023-01-17,登記官による閉鎖,,,2015-10-05,1,,,,,,0
2046,7130001010219,登記記録の閉鎖等,0,2023-01-17,2023-01-17,尾寺電機株式会社,,株式会社,京都府,京都市南区,東九条南山王町２番地,,26,107,6018011,,,2023-01-17,登記官による閉鎖,,,2015-10-05,1,,,,,,0
2047,7130001025142,登記記録の閉鎖等,0,2023-01-17,2023-01-17,株式会社ジャパンコンサルタンツ,,株式会社,京都府,京都市山科区,大宅御供田町２０４番地,,26,110,6078192,,,2023-01-17,登記官による閉鎖,,,2015-10-05,1,,,,,,0
2048,7130001026082,登記記録の閉鎖等,0,2023-01-17,2023-01-17,トキタカ建設工業株式会社,,株式会社,京都府,京都市右京区,京北周山町河端５番地５,,26,108,6010251,,,2023-01-17,登記官による閉鎖,,,2015-10-05,1,,,,,,0
2049,7130001036890,登記記録の閉鎖等,0,2023-01-17,2023-01-17,株式会社平成建設,,株式会社,京都府,相楽郡精華町,大字下狛小字西川原１９番地４杉山ビル５階,,26,366,6190245,,,2023-01-17,登記官による閉鎖,,,2015-10-05,1,,,,,,0
2051,7130001049232,登記記録の閉鎖等,0,2023-01-17,2023-01-17,フジ工業株式会社,,株式会社,京都府,舞鶴市,字浜２０８番地,,26,202,6250036,,,2023-01-17,登記官による閉鎖,,,2015-10-05,1,,,,,,0
2056,7130002003725,登記記録の閉鎖等,0,2023-01-17,2023-01-17,有限会社小林工務店,,有限会社,京都府,京都市右京区,太秦三尾町１番地の５４,,26,108,6168192,,,2023-01-17,登記官による閉鎖,,,2015-10-05,1,,,,,,0
2057,7130002009185,登記記録の閉鎖等,0,2023-01-17,2023-01-17,有限会社半場工芸,,有限会社,京都府,京都市西京区,桂千代原町３８番地１４,,26,111,6158085,,,2023-01-17,登記官による閉鎖,,,2015-10-05,1,,,,,,0
2059,7130002014094,登記記録の閉鎖等,0,2023-01-17,2023-01-17,有限会社鈴木土建工業,,有限会社,京都府,京都市伏見区,深草新門丈町１９６番地,,26,109,6128436,,,2023-01-17,登記官による閉鎖,,,2015-10-05,1,,,,,,0
2060,7130002016537,登記記録の閉鎖等,0,2023-01-17,2023-01-17,有限会社純栄社,,有限会社,京都府,京都市中京区,壬生森町４５番地,,26,104,6048862,,,2023-01-17,登記官による閉鎖,,,2015-10-05,1,,,,,,0
2061,7130002022535,登記記録の閉鎖等,0,2023-01-17,2023-01-17,有限会社小林鉄筋,,有限会社,京都府,京都市伏見区,深草ヲカヤ町２０番地２,,26,109,6128403,,,2023-01-17,登記官による閉鎖,,,2015-10-05,1,,,,,,0
2062,7130002023649,登記記録の閉鎖等,0,2023-01-17,2023-01-17,有限会社ミカド製作所,,有限会社,京都府,京都市山科区,竹鼻サイカシ町１３番地２１ハイツ山科５０２号,,26,110,6078087,,,2023-01-17,登記官による閉鎖,,,2015-10-05,1,,,,,,0
2063,7130002026148,登記記録の閉鎖等,0,2023-01-17,2023-01-17,有限会社映像アラキ,,有限会社,京都府,宇治市,宇治池森４５番地の６,,26,204,6110021,,,2023-01-17,登記官による閉鎖,,,2015-10-05,1,,,,,,0
2064,7130002028004,登記記録の閉鎖等,0,2023-01-17,2023-01-17,有限会社幹エンジニアリング,,有限会社,京都府,宇治市,宇治蛇塚１６番地の１,,26,204,6110021,,,2023-01-17,登記官による閉鎖,,,2015-10-05,1,,,,,,0
2065,7130003000548,登記記録の閉鎖等,0,2023-01-17,2023-01-17,京都ベンチャーネット合資会社,,合資会社,京都府,京都市上京区,大宮通寺之内下る東入西北小路町４５４番地７,,26,102,6028414,,,2023-01-17,登記官による閉鎖,,,2015-10-05,1,,,,,,0
2066,7130003003237,登記記録の閉鎖等,0,2023-01-17,2023-01-17,合同会社ユニオンメンテ,,合同会社,京都府,京都市左京区,八瀬近衛町７２３番地の３５,,26,103,6011253,,,2023-01-17,登記官による閉鎖,,,2015-10-05,1,,,,,,0
2068,7130005005677,登記記録の閉鎖等,0,2023-01-17,2023-01-17,特定非営利活動法人高齢者スポーツクラブ連合,,その他の設立登記法人,京都府,京都市下京区,高辻通烏丸東入匂天神町６４７番地・新装大橋ビル６Ｆ,00038628,26,106,6008414,,,2023-01-17,登記官による閉鎖,,,2015-10-05,1,,,,,,0
2069,7130005008688,登記記録の閉鎖等,0,2023-01-17,2023-01-17,特定非営利活動法人ニッスイグリーンクラブ,,その他の設立登記法人,京都府,相楽郡精華町,大字菅井小字馬渕２番地１２０,,26,366,6190242,,,2023-01-17,登記官による閉鎖,,,2015-10-05,1,,,,,,0
2086,7170002001361,登記記録の閉鎖等,0,2023-01-17,2023-01-13,有限会社ケイティサイエンス,,有限会社,和歌山県,和歌山市,東高松３丁目２番１２号,,30,201,6410052,,,2023-01-13,清算の結了等,,,2015-10-05,1,,,,,,0
2088,7180001064490,登記記録の閉鎖等,0,2023-01-17,2023-01-11,株式会社マルカネット,,株式会社,愛知県,名古屋市東区,葵２丁目５番２０号,,23,102,4610004,,,2023-01-11,清算の結了等,,,2015-10-05,1,,,,,マルカネット,0
2089,7180001113677,登記記録の閉鎖等,0,2023-01-17,2023-01-12,株式会社渡辺工業,,株式会社,愛知県,名古屋市守山区,城土町３６２番地の１,,23,113,4630093,,,2023-01-12,清算の結了等,,,2015-10-05,1,,,,,ワタナベコウギョウ,0
2093,7180002045473,登記記録の閉鎖等,0,2023-01-17,2023-01-10,有限会社アルファ,,有限会社,愛知県,名古屋市港区,明正１丁目１１６番地の２,,23,111,4550806,,,2023-01-10,清算の結了等,,,2015-10-05,1,,,,,アルファ,0
2096,7180301013189,登記記録の閉鎖等,0,2023-01-17,2023-01-17,株式会社西田鉄工所,,株式会社,愛知県,安城市,東端町天白１１４番地１,,23,212,4441213,,,2023-01-17,登記官による閉鎖,,,2015-10-05,1,,,,,,0
2099,7180302020507,登記記録の閉鎖等,0,2023-01-17,2023-01-17,有限会社杉浦建材,,有限会社,愛知県,高浜市,論地町３丁目１番地７,,23,227,4441314,,,2023-01-17,登記官による閉鎖,,,2015-10-05,1,,,,,,0
2100,7180302020515,登記記録の閉鎖等,0,2023-01-17,2023-01-17,有限会社スギコーポレーション,,有限会社,愛知県,高浜市,春日町３丁目５番地３３,,23,227,4441334,,,2023-01-17,登記官による閉鎖,,,2015-10-05,1,,,,,,0
2101,7180302021430,登記記録の閉鎖等,0,2023-01-17,2023-01-17,有限会社今泉エンタープライズ,,有限会社,愛知県,豊田市,横山町１丁目１７番地３,,23,211,4710068,,,2023-01-17,登記官による閉鎖,,,2015-10-05,1,,,,,,0
2115,7260001023166,登記記録の閉鎖等,0,2023-01-17,2022-12-21,エスジーアイ株式会社,,株式会社,岡山県,岡山市北区,今保１６０番地６,,33,101,7010145,,,2022-12-21,清算の結了等,,,2015-10-05,1,,,,,エスジーアイ,0
2124,7290002007248,登記記録の閉鎖等,0,2023-01-17,2023-01-10,有限会社フレックス,,有限会社,福岡県,福岡市城南区,友丘６丁目１０番２４号,,40,136,8140112,,,2023-01-10,清算の結了等,,,2015-10-05,1,,,,,フレックス,0
2128,7310001001042,登記記録の閉鎖等,0,2023-01-17,2023-01-16,株式会社高口文具,00095651,株式会社,長崎県,長崎市,三川町１３００番地７,,42,201,8528121,,,2023-01-16,登記官による閉鎖,,,2015-10-05,1,,,,,,0
2129,7310001004557,登記記録の閉鎖等,0,2023-01-17,2023-01-16,株式会社　九州防災システム,,株式会社,長崎県,長崎市,松が枝町５番３５号,,42,201,8500921,,,2023-01-16,登記官による閉鎖,,,2015-10-05,1,,,,,,0
2130,7310001005547,登記記録の閉鎖等,0,2023-01-17,2023-01-16,ジャパンエンジニアリング株式会社,,株式会社,長崎県,佐世保市,小島町１４番１７号,,42,202,8570066,,,2023-01-16,登記官による閉鎖,,,2015-10-05,1,,,,,,0
2131,7310002007179,登記記録の閉鎖等,0,2023-01-17,2023-01-16,有限会社タマリスク,,有限会社,長崎県,長崎市,籠町５番２３号,,42,201,8500905,,,2023-01-16,登記官による閉鎖,,,2015-10-05,1,,,,,,0
2133,7310002012261,登記記録の閉鎖等,0,2023-01-17,2023-01-16,有限会社長尾技研工業,,有限会社,長崎県,東彼杵郡川棚町,石木郷１１番地１,,42,322,8593604,,,2023-01-16,登記官による閉鎖,,,2015-10-05,1,,,,,,0
2134,7310005000164,登記記録の閉鎖等,0,2023-01-17,2023-01-16,長崎県チツプ生産協同組合,,その他の設立登記法人,長崎県,長崎市,宝町４番８号,,42,201,8500045,,,2023-01-16,登記官による閉鎖,,,2015-10-05,1,,,,,,0
2136,7320002013390,登記記録の閉鎖等,0,2023-01-17,2023-01-12,有限会社Ｍ＆Ｉコーポレーション,,有限会社,大分県,別府市,北浜２丁目１番２４号,,44,202,8740920,,,2023-01-12,合併による解散等,2290002020800,令和５年１月１日福岡市中央区清川二丁目１２番８号株式会社ユー・アンド・ミー（2290002020800）に合併し解散,2015-10-05,1,,,,,,0
2155,7370001020697,登記記録の閉鎖等,0,2023-01-17,2023-01-10,第一エナジー株式会社,,株式会社,宮城県,黒川郡大郷町,川内字中埣山３７番地の４,,04,422,9813514,,,2023-01-10,清算の結了等,,,2015-10-05,1,,,,,,0
2157,7370005004102,登記記録の閉鎖等,0,2023-01-17,2023-01-06,一般社団法人森の防潮堤協会,,その他の設立登記法人,宮城県,仙台市青葉区,北山１丁目１４番１号,,04,101,9810931,,,2023-01-06,清算の結了等,,,2015-10-05,1,,,,,モリノボウチョウテイキョウカイ,0
2168,7430001055786,登記記録の閉鎖等,0,2023-01-17,2023-01-16,株式会社丸太反保商店,,株式会社,北海道,沙流郡日高町,栄町東１丁目３０５番地１０,,01,601,0552303,,,2023-01-16,清算の結了等,,,2015-10-05,1,,,,,マルタタンポショウテン,0
2190,8010001171633,登記記録の閉鎖等,0,2023-01-17,2023-01-06,ＪＰＡ第２９号株式会社,,株式会社,東京都,千代田区,霞が関３丁目２番１号,,13,101,1000013,,,2023-01-06,清算の結了等,,,2015-11-12,1,,,,,ジェイピーエーダイニジュウキュウゴウ,0
2200,8010003030473,登記記録の閉鎖等,0,2023-01-17,2023-01-05,合同会社尾張１,,合同会社,東京都,中央区,日本橋１丁目４番１号日本橋一丁目ビルディング,,13,102,1030027,,,2023-01-05,清算の結了等,,,2019-08-27,1,,,,,オワリイチ,0
2220,8010601016741,登記記録の閉鎖等,0,2023-01-17,2023-01-10,株式会社ローズマリー,,株式会社,東京都,墨田区,菊川３丁目２０番７号,,13,107,1300024,,,2023-01-10,清算の結了等,,,2015-10-05,1,,,,,ローズマリー,0
2227,8010901002292,登記記録の閉鎖等,0,2023-01-17,2023-01-12,株式会社オーポンアート,,株式会社,東京都,世田谷区,等々力６丁目１１番１５－８０６号,,13,112,1580082,,,2023-01-12,清算の結了等,,,2015-10-05,1,,,,,オーポンアート,0
2229,8010902009411,登記記録の閉鎖等,0,2023-01-17,2023-01-11,有限会社高野屋,,有限会社,東京都,世田谷区,尾山台３丁目２１番５号,,13,112,1580086,,,2023-01-11,清算の結了等,,,2015-10-05,1,,,,,タカノヤ,0
2257,8013302006763,登記記録の閉鎖等,0,2023-01-17,2023-01-12,有限会社としま文庫,,有限会社,東京都,豊島区,池袋３丁目１５番５号,,13,116,1710014,,,2023-01-12,清算の結了等,,,2015-10-05,1,,,,,トシマブンコ,0
2279,8021002072431,登記記録の閉鎖等,0,2023-01-17,2023-01-12,有限会社明和管理,,有限会社,神奈川県,横須賀市,追浜本町１丁目３９,,14,201,2370068,,,2023-01-12,合併による解散等,9020001006894,令和４年１２月２８日横浜市金沢区谷津町１８番地５リーデンススクエア金沢文庫１１５号明和食品株式会社（9020001006894）に合併し解散,2015-10-05,1,,,,,,0
2290,8030003008311,登記記録の閉鎖等,0,2023-01-17,2023-01-10,合同会社高成,,合同会社,埼玉県,川口市,川口６丁目８番２３－２０５号グランエトワール,,11,203,3320015,,,2023-01-10,清算の結了等,,,2016-01-15,1,,,,,コウセイ,0
2352,8120901042971,登記記録の閉鎖等,0,2023-01-17,2023-01-13,株式会社サンピオニー,,株式会社,大阪府,豊中市,東豊中町１丁目２２番２２号,,27,203,5600003,,,2023-01-13,清算の結了等,,,2020-07-13,1,,,,,サンピオニー,0
2355,8130001016132,登記記録の閉鎖等,0,2023-01-17,2023-01-17,株式会社脇工務店,,株式会社,京都府,京都市伏見区,竹田七瀬川町９９番地,,26,109,6128422,,,2023-01-17,登記官による閉鎖,,,2015-10-05,1,,,,,,0
2356,8130001017238,登記記録の閉鎖等,0,2023-01-17,2023-01-17,株式会社合同印刷,,株式会社,京都府,京都市下京区,猪熊通梅小路上る南夷町１７０番地,,26,106,6008243,,,2023-01-17,登記官による閉鎖,,,2015-10-05,1,,,,,,0
2357,8130001019639,登記記録の閉鎖等,0,2023-01-17,2023-01-17,株式会社阿香梨,,株式会社,京都府,京都市中京区,西ノ京永本町５番地の２０,,26,104,6048421,,,2023-01-17,登記官による閉鎖,,,2015-10-05,1,,,,,,0
2358,8130001020935,登記記録の閉鎖等,0,2023-01-17,2023-01-17,株式会社三条小利,,株式会社,京都府,京都市中京区,壬生神明町１番地の２６３,,26,104,6048861,,,2023-01-17,登記官による閉鎖,,,2015-10-05,1,,,,,,0
2360,8130001035041,登記記録の閉鎖等,0,2023-01-17,2023-01-17,オリエント株式会社,,株式会社,京都府,南丹市,八木町八木東久保３９番地の９,,26,213,6290141,,,2023-01-17,登記官による閉鎖,,,2015-10-05,1,,,,,,0
2361,8130001047458,登記記録の閉鎖等,0,2023-01-17,2023-01-17,株式会社ＴＯＫＩ,,株式会社,京都府,京都市伏見区,桃山町遠山９９番地３,,26,109,6128012,,,2023-01-17,登記官による閉鎖,,,2015-10-05,1,,,,,,0
2362,8130001047870,登記記録の閉鎖等,0,2023-01-17,2023-01-17,株式会社京都プロレスリング,,株式会社,京都府,京都市中京区,西ノ京原町６４番地,,26,104,6048431,,,2023-01-17,登記官による閉鎖,,,2015-10-05,1,,,,,,0
2363,8130001048935,登記記録の閉鎖等,0,2023-01-17,2023-01-17,ユーディ商事株式会社,,株式会社,京都府,京都市左京区,松ケ崎小竹薮町３番地の６,,26,103,6060967,,,2023-01-17,登記官による閉鎖,,,2015-10-05,1,,,,,,0
2367,8130002010456,登記記録の閉鎖等,0,2023-01-17,2023-01-10,有限会社天川工業,,有限会社,京都府,京都市南区,東九条南山王町８番地の２,,26,107,6018011,,,2023-01-10,清算の結了等,,,2015-10-05,1,,,,,アマカワコウギョウ,0
2368,8130002014622,登記記録の閉鎖等,0,2023-01-17,2023-01-17,有限会社白龍舎,,有限会社,京都府,京都市伏見区,石田森南町３２－１醍醐パインクレスト６０７,,26,109,6011434,,,2023-01-17,登記官による閉鎖,,,2015-10-05,1,,,,,,0
2369,8130002014993,登記記録の閉鎖等,0,2023-01-17,2023-01-17,有限会社丸京川魚店,,有限会社,京都府,京都市伏見区,横大路長畑町２番地,,26,109,6128286,,,2023-01-17,登記官による閉鎖,,,2015-10-05,1,,,,,,0
2371,8130002021965,登記記録の閉鎖等,0,2023-01-17,2023-01-17,有限会社ベストバリュー,,有限会社,京都府,久世郡久御山町,森中内８番地１,,26,322,6130024,,,2023-01-17,登記官による閉鎖,,,2015-10-05,1,,,,,,0
2372,8130002023400,登記記録の閉鎖等,0,2023-01-17,2023-01-17,有限会社ジェー・ビー・カンパニー,,有限会社,京都府,京都市北区,西賀茂榿ノ木町３３プルミエール清和１階川側店舗,,26,101,6038823,,,2023-01-17,登記官による閉鎖,,,2015-10-05,1,,,,,,0
2373,8130002026667,登記記録の閉鎖等,0,2023-01-17,2023-01-17,有限会社中井電気,,有限会社,京都府,宇治市,木幡金草原５０番地の２５,,26,204,6110002,,,2023-01-17,登記官による閉鎖,,,2015-10-05,1,,,,,,0
2374,8130002030578,登記記録の閉鎖等,0,2023-01-17,2023-01-17,有限会社岩佐電工,,有限会社,京都府,城陽市,枇杷庄大堀１２０番地の３８,,26,207,6100117,,,2023-01-17,登記官による閉鎖,,,2015-10-05,1,,,,,,0
2376,8130002032624,登記記録の閉鎖等,0,2023-01-17,2023-01-17,有限会社サンキエンジニアリング,,有限会社,京都府,福知山市,字長田２０５番地の２４,,26,201,6200000,,,2023-01-17,登記官による閉鎖,,,2015-10-05,1,,,,,,0
2381,8140002005629,登記記録の閉鎖等,0,2023-01-17,2023-01-10,有限会社岩井商事,,有限会社,兵庫県,神戸市垂水区,城が山２丁目７番１４号,,28,108,6550884,,,2023-01-10,清算の結了等,,,2015-10-05,1,,,,,イワイショウジ,0
2387,8160001010405,登記記録の閉鎖等,0,2023-01-17,2023-01-12,株式会社マナックス,,株式会社,滋賀県,東近江市,佐野町４７５番地の９,,25,213,5211222,,,2023-01-12,清算の結了等,,,2015-10-05,1,,,,,マナックス,0
2401,8180002028188,登記記録の閉鎖等,0,2023-01-17,2023-01-10,有限会社高井商店,,有限会社,愛知県,名古屋市中村区,草薙町１丁目９０番地,,23,105,4530064,,,2023-01-10,清算の結了等,,,2015-10-05,1,,,,,タカイショウテン,0
2406,8180301000632,登記記録の閉鎖等,0,2023-01-17,2023-01-17,株式会社オオミズ,,株式会社,愛知県,岡崎市,細川町字長原３１番地２,,23,202,4442149,,,2023-01-17,登記官による閉鎖,,,2015-10-05,1,,,,,,0
2407,8180301011522,登記記録の閉鎖等,0,2023-01-17,2023-01-17,株式会社小林建工,,株式会社,愛知県,豊川市,西口町２丁目２１番地,,23,207,4420833,,,2023-01-17,登記官による閉鎖,,,2015-10-05,1,,,,,,0
2408,8180301015341,登記記録の閉鎖等,0,2023-01-17,2023-01-17,株式会社田邊水道工業所,,株式会社,愛知県,碧南市,吹上町３丁目３３番地,,23,209,4470081,,,2023-01-17,登記官による閉鎖,,,2015-10-05,1,,,,,,0
2409,8180301016471,登記記録の閉鎖等,0,2023-01-17,2023-01-17,森美メンテナンス株式会社,,株式会社,愛知県,刈谷市,青山町１丁目１６０番地１,,23,210,4480014,,,2023-01-17,登記官による閉鎖,,,2015-10-05,1,,,,,,0
2410,8180301022908,登記記録の閉鎖等,0,2023-01-17,2023-01-17,大昌建設株式会社,,株式会社,愛知県,西尾市,弥生町９番地１,,23,213,4450842,,,2023-01-17,登記官による閉鎖,,,2015-10-05,1,,,,,,0
2416,8180302027006,登記記録の閉鎖等,0,2023-01-17,2023-01-17,有限会社寿司勝,,有限会社,愛知県,西尾市,一色町一色東前新田５０番地,,23,213,4440423,,,2023-01-17,登記官による閉鎖,,,2015-10-05,1,,,,,,0
2449,8310001011759,登記記録の閉鎖等,0,2023-01-17,2023-01-16,株式会社アチーヴワンネス,,株式会社,長崎県,長崎市,桶屋町５０－１杉本ビル１階,,42,201,8500027,,,2023-01-16,登記官による閉鎖,,,2015-10-05,1,,,,,,0
2450,8310002007120,登記記録の閉鎖等,0,2023-01-17,2023-01-16,有限会社あすか仏壇村木,,有限会社,長崎県,長崎市,梁川町１番２号,,42,201,8528013,,,2023-01-16,登記官による閉鎖,,,2015-10-05,1,,,,,,0
2452,8310003002005,登記記録の閉鎖等,0,2023-01-17,2023-01-16,合資会社宝来泉,,合資会社,長崎県,島原市,弁天町２丁目７３８９番地３,,42,203,8550802,,,2023-01-16,登記官による閉鎖,,,2015-10-05,1,,,,,,0
2458,8330003004899,登記記録の閉鎖等,0,2023-01-17,2023-01-13,合同会社熊本企画,,合同会社,熊本県,合志市,豊岡２０００番地６４９,,43,216,8611115,,,2023-01-13,清算の結了等,,,2015-10-05,1,,,,,クマモトキカク,0
2459,8340001003803,登記記録の閉鎖等,0,2023-01-17,2023-01-16,株式会社古川技建,,株式会社,鹿児島県,鹿児島市,田上台３丁目３８番１４号,,46,201,8900036,,,2023-01-16,清算の結了等,,,2015-10-05,1,,,,,フルカワギケン,0
2486,8460101001546,登記記録の閉鎖等,0,2023-01-17,2023-01-12,株式会社北興運輸,,株式会社,北海道,河西郡芽室町,東芽室基線１３番地４,,01,637,0820005,,,2023-01-12,清算の結了等,,,2015-10-05,1,,,,,ホッコウウンユ,0
2498,9010001185954,登記記録の閉鎖等,0,2023-01-17,2023-01-04,株式会社ＪＯＥＴＳＵ,,株式会社,群馬県,前橋市,大渡町２丁目２番地１,,10,201,3710854,,,2023-01-04,合併による解散等,5070001039646,令和５年１月１日群馬県前橋市元総社町１９４番地株式会社登鯉（5070001039646）に合併し解散,2017-08-31,1,,,,,ジョウエツ,0
2506,9010003028525,登記記録の閉鎖等,0,2023-01-17,2023-01-06,ＪＰＳ第３３号合同会社,,合同会社,東京都,千代田区,霞が関３丁目２番１号,,13,101,1000013,,,2023-01-06,清算の結了等,,,2018-10-26,1,,,,,ジェイピーエスダイサンジュウサンゴウ,0
2507,9010003029911,登記記録の閉鎖等,0,2023-01-17,2023-01-06,ケイナイン・ヘルスケア合同会社,,合同会社,東京都,千代田区,神田錦町１丁目２１番１号,,13,101,1010054,,,2023-01-06,清算の結了等,,,2019-05-24,1,,,,,ケイナインヘルスケア,0
2508,9010003030357,登記記録の閉鎖等,0,2023-01-17,2023-01-06,ケイテン・ヘルスケア合同会社,,合同会社,東京都,千代田区,神田錦町１丁目２１番１号,,13,101,1010054,,,2023-01-06,清算の結了等,,,2019-08-05,1,,,,,ケイテンヘルスケア,0
2538,9011001137160,登記記録の閉鎖等,0,2023-01-17,2023-01-06,株式会社Ｗｅｌｖｉｅ,,株式会社,東京都,渋谷区,神泉町２１－３渋谷ＹＴビル０２－４Ｆ,,13,113,1500045,,,2023-01-06,清算の結了等,,,2020-11-26,1,,,,,ウェルビー,0
2555,9011501004059,登記記録の閉鎖等,0,2023-01-17,2023-01-10,株式会社フオトエム,,株式会社,東京都,北区,豊島８丁目４番８号,,13,117,1140003,,,2023-01-10,清算の結了等,,,2015-10-05,1,,,,,フオトエム,0
2575,9020001022586,登記記録の閉鎖等,0,2023-01-17,2023-01-11,株式会社オノダ企画,,株式会社,神奈川県,横浜市神奈川区,神大寺２丁目５番,,14,102,2210801,,,2023-01-11,清算の結了等,,,2015-10-05,1,,,,,オノダキカク,0
2578,9020001131916,登記記録の閉鎖等,0,2023-01-17,2023-01-10,株式会社ＡＹＫ,,株式会社,神奈川県,横浜市港南区,東永谷３丁目１５番３０－３１３号,,14,111,2330011,,,2023-01-10,清算の結了等,,,2019-07-09,1,,,,,エーワイケー,0
2582,9020002068983,登記記録の閉鎖等,0,2023-01-17,2023-01-10,有限会社築井技建,,有限会社,神奈川県,横浜市戸塚区,矢部町２７１番地１,,14,110,2440002,,,2023-01-10,清算の結了等,,,2015-10-05,1,,,,,,0
2590,9021001059998,登記記録の閉鎖等,0,2023-01-17,2023-01-10,株式会社綾瀬ホーム,,株式会社,神奈川県,綾瀬市,落合南２丁目７番１３号,,14,218,2521115,,,2023-01-10,清算の結了等,,,2016-08-09,1,,,,,アヤセホーム,0
2592,9021001066581,登記記録の閉鎖等,0,2023-01-17,2023-01-11,久里浜ホールディングス株式会社,,株式会社,神奈川県,横須賀市,久里浜２丁目２番３号,,14,201,2390831,,,2023-01-11,清算の結了等,,,2019-02-07,1,,,,,クリハマホールディングス,0
2612,9030002045817,登記記録の閉鎖等,0,2023-01-17,2023-01-11,有限会社松原青果市場,,有限会社,埼玉県,草加市,八幡町３５０番地,,11,221,3400006,,,2023-01-11,清算の結了等,,,2015-10-05,1,,,,,マツバラセイカイチバ,0
2617,9040001008699,登記記録の閉鎖等,0,2023-01-17,2023-01-10,株式会社アイ工房,,株式会社,千葉県,千葉市中央区,今井２丁目５番１０号グリーンコーポ蘇我駅前３０２号,,12,101,2600834,,,2023-01-10,清算の結了等,,,2015-10-05,1,,,,,アイコウボウ,0
2636,9070001029809,登記記録の閉鎖等,0,2023-01-17,2022-12-28,ＧＯＢＩ　ＮＡＲ　ＪＡＰＡＮ　株式会社,,株式会社,群馬県,渋川市,八木原１１７７番地１,,10,208,3770003,,,2022-12-28,清算の結了等,,,2015-10-05,1,,,,,ゴビナラジャパン,0
2640,9080002013331,登記記録の閉鎖等,0,2023-01-17,2023-01-13,有限会社ワイ・エムアージュ,,有限会社,静岡県,静岡市清水区,由比北田１４４番地の３２,,22,103,4213104,,,2023-01-13,清算の結了等,,,2015-10-05,1,,,,,ワイエムアージュ,0
2641,9080002014668,登記記録の閉鎖等,0,2023-01-17,2023-01-05,有限会社ネクストイノベーション,,有限会社,東京都,北区,赤羽北３丁目２６番４号,,13,117,1150052,,,2023-01-05,清算の結了等,,,2015-10-05,1,,,,,ネクストイノベーション,0
2668,9120005009025,登記記録の閉鎖等,0,2023-01-17,2023-01-13,宙有限責任監査法人,,その他の設立登記法人,大阪府,大阪市中央区,瓦町３丁目１番４号,,27,128,5410048,,,2023-01-13,清算の結了等,,,2015-10-05,1,,,,,ソラ,0
2669,9120005015436,登記記録の閉鎖等,0,2023-01-17,2023-01-13,特定非営利活動法人希望の泉,,その他の設立登記法人,大阪府,大阪市東住吉区,東田辺１丁目１５番２号,,27,121,5460032,,,2023-01-13,清算の結了等,,,2015-10-05,1,,,,,キボウノイズミ,0
2674,9122001036119,登記記録の閉鎖等,0,2023-01-17,2023-01-16,四国近畿建材株式会社,,株式会社,大阪府,東大阪市,稲田新町３丁目９番６０号,,27,227,5770004,,,2023-01-16,清算の結了等,,,2022-08-03,1,,,,,シコクキンキケンザイ,0
2676,9130001000151,登記記録の閉鎖等,0,2023-01-17,2023-01-17,株式会社粟津製材,,株式会社,京都府,京都市右京区,梅津西浦町２２番地の４,,26,108,6150917,,,2023-01-17,登記官による閉鎖,,,2015-10-05,1,,,,,,0
2677,9130001002767,登記記録の閉鎖等,0,2023-01-17,2023-01-17,株式会社河徳,,株式会社,京都府,京都市上京区,小川通鞍馬口下ル下清藏口町１３３番地の１４,,26,102,6020000,,,2023-01-17,登記官による閉鎖,,,2015-10-05,1,,,,,,0
2678,9130001004821,登記記録の閉鎖等,0,2023-01-17,2023-01-17,三絞株式会社,,株式会社,京都府,京都市北区,衣笠北高橋町４７番地,,26,101,6038373,,,2023-01-17,登記官による閉鎖,,,2015-10-05,1,,,,,,0
2679,9130001017328,登記記録の閉鎖等,0,2023-01-17,2023-01-17,株式会社小森建材,,株式会社,京都府,京都市下京区,西七条名倉町２１番地の１１４,,26,106,6008887,,,2023-01-17,登記官による閉鎖,,,2015-10-05,1,,,,,,0
2680,9130001017699,登記記録の閉鎖等,0,2023-01-17,2023-01-17,株式会社杉原電気商会,,株式会社,京都府,京都市下京区,梅小路東中町８２番地４,,26,106,6008852,,,2023-01-17,登記官による閉鎖,,,2015-10-05,1,,,,,,0
2681,9130001019530,登記記録の閉鎖等,0,2023-01-17,2023-01-17,日本鶏卵株式会社,,株式会社,京都府,京都市下京区,朱雀分木町京都中央卸売市場内,,26,106,6008847,,,2023-01-17,登記官による閉鎖,,,2015-10-05,1,,,,,,0
2682,9130001025669,登記記録の閉鎖等,0,2023-01-17,2023-01-17,全国環境警備保障株式会社,,株式会社,京都府,京都市伏見区,深草東伊達町８８番地,,26,109,6120874,,,2023-01-17,登記官による閉鎖,,,2015-10-05,1,,,,,,0
2683,9130001030990,登記記録の閉鎖等,0,2023-01-17,2023-01-17,株式会社中島タイル,,株式会社,京都府,長岡京市,井ノ内下印田２３番地の５,,26,209,6170813,,,2023-01-17,登記官による閉鎖,,,2015-10-05,1,,,,,,0
2684,9130001035949,登記記録の閉鎖等,0,2023-01-17,2023-01-17,株式会社中島商運,,株式会社,京都府,久世郡久御山町,森中内８番地１,,26,322,6130024,,,2023-01-17,登記官による閉鎖,,,2015-10-05,1,,,,,,0
2685,9130001036360,登記記録の閉鎖等,0,2023-01-17,2023-01-17,株式会社サンクリエイト,,株式会社,京都府,京都市西京区,樫原岡南ノ庄２番地１３,,26,111,6158154,,,2023-01-17,登記官による閉鎖,,,2015-10-05,1,,,,,,0
2686,9130001039768,登記記録の閉鎖等,0,2023-01-17,2023-01-17,株式会社ヒューマンサポートサービス関西,,株式会社,京都府,京田辺市,草内鐘鉦割４２番地１、１－１０６,,26,211,6100311,,,2023-01-17,登記官による閉鎖,,,2015-10-05,1,,,,,,0
2687,9130001040098,登記記録の閉鎖等,0,2023-01-17,2023-01-17,株式会社文化財保存修復研究所,,株式会社,京都府,京都市東山区,大和大路通七条下る四丁目本池田町５３１－１エスプリト横山５０２号,,26,105,6050000,,,2023-01-17,登記官による閉鎖,,,2015-10-05,1,,,,,,0
2688,9130001042912,登記記録の閉鎖等,0,2023-01-17,2023-01-17,ビアレ株式会社,,株式会社,京都府,京丹後市,網野町網野３８３番地の４,,26,212,6293101,,,2023-01-17,登記官による閉鎖,,,2015-10-05,1,,,,,,0
2690,9130002006536,登記記録の閉鎖等,0,2023-01-17,2023-01-17,有限会社京都トレーディング,,有限会社,京都府,京都市北区,衣笠東開キ町１０番地正倉ハイツ４０２,,26,101,6038453,,,2023-01-17,登記官による閉鎖,,,2015-10-05,1,,,,,,0
2691,9130002012014,登記記録の閉鎖等,0,2023-01-17,2023-01-17,有限会社お酒の共和国山科,,有限会社,京都府,京都市山科区,西野山中鳥井町９２番地４,,26,110,6078306,,,2023-01-17,登記官による閉鎖,,,2015-10-05,1,,,,,,0
2692,9130002016403,登記記録の閉鎖等,0,2023-01-17,2023-01-17,有限会社サロン・ドゥ・エステティック松本,,有限会社,京都府,京都市中京区,三条通烏丸西入御倉町６８番地岡三ビル８階８０１号,,26,104,6048166,,,2023-01-17,登記官による閉鎖,,,2015-10-05,1,,,,,,0
2693,9130002031030,登記記録の閉鎖等,0,2023-01-17,2023-01-17,有限会社ゼロ音楽出版,,有限会社,京都府,京田辺市,大住ケ丘４丁目２１番地２１,,26,211,6100351,,,2023-01-17,登記官による閉鎖,,,2015-10-05,1,,,,,,0
2695,9130005003679,登記記録の閉鎖等,0,2023-01-17,2023-01-17,京都府麻雀業協同組合,,その他の設立登記法人,京都府,京都市東山区,福稲柿本町２７,,26,105,6050985,,,2023-01-17,登記官による閉鎖,,,2015-10-05,1,,,,,,0
2696,9130005012713,登記記録の閉鎖等,0,2023-01-17,2023-01-17,特定非営利活動法人京走アスリートクラブ,,その他の設立登記法人,京都府,京都市右京区,梅津北川町２５番地２メゾネット北川１０２号室,,26,108,6150937,,,2023-01-17,登記官による閉鎖,,,2015-10-05,1,,,,,,0
2712,9170002008405,登記記録の閉鎖等,0,2023-01-17,2023-01-13,有限会社エクステリア若林,,有限会社,和歌山県,紀の川市,貴志川町丸栖１０７３番地の３,,30,208,6400401,,,2023-01-13,清算の結了等,,,2015-10-05,1,,,,,,0
2720,9180003019739,登記記録の閉鎖等,0,2023-01-17,2023-01-12,ｓｈｕｃｒｅ高畑合同会社,,合同会社,愛知県,名古屋市昭和区,川名山町６番地の６プラウド川名山ガーデン１１３号,,23,107,4660827,,,2023-01-12,清算の結了等,,,2019-03-07,1,,,,,シュクレタカバタ,0
2722,9180301005481,登記記録の閉鎖等,0,2023-01-17,2023-01-17,共和建材株式会社,,株式会社,愛知県,豊橋市,佐藤２丁目１６番地の２１,,23,201,4400853,,,2023-01-17,登記官による閉鎖,,,2015-10-05,1,,,,,,0
2723,9180301011942,登記記録の閉鎖等,0,2023-01-17,2023-01-17,株式会社サンホテル豊川,,株式会社,愛知県,豊川市,豊川町仁保通７９番地１,,23,207,4420033,,,2023-01-17,登記官による閉鎖,,,2015-10-05,1,,,,,,0
2726,9180302002239,登記記録の閉鎖等,0,2023-01-17,2023-01-17,有限会社ナガヌマ,,有限会社,愛知県,岡崎市,稲熊町字石神１５番地,,23,202,4440071,,,2023-01-17,登記官による閉鎖,,,2015-10-05,1,,,,,,0
2727,9180302019340,登記記録の閉鎖等,0,2023-01-17,2023-01-17,有限会社クローバー,,有限会社,愛知県,知立市,新林町平草５３番地１,,23,225,4720017,,,2023-01-17,登記官による閉鎖,,,2015-10-05,1,,,,,,0
2729,9180305002252,登記記録の閉鎖等,0,2023-01-17,2023-01-17,豊橋リング綜合事業協同組合,,その他の設立登記法人,愛知県,豊橋市,松葉町１丁目９番地,,23,201,4400897,,,2023-01-17,登記官による閉鎖,,,2015-10-05,1,,,,,,0
2730,9180305006708,登記記録の閉鎖等,0,2023-01-17,2023-01-17,農事組合法人小野ケ谷養豚組合,,その他の設立登記法人,愛知県,西尾市,西幡豆町刈払４１番地,,23,213,4440703,,,2023-01-17,登記官による閉鎖,,,2015-10-05,1,,,,,,0
2731,9190001008313,登記記録の閉鎖等,0,2023-01-17,2023-01-12,株式会社旭工作所,,株式会社,三重県,伊賀市,上野徳居町３３３７番地の４,,24,216,5180856,,,2023-01-12,清算の結了等,,,2015-10-05,1,,,,,アサヒコウサクショ,0
2737,9210002010414,登記記録の閉鎖等,0,2023-01-17,2023-01-13,有限会社直栄建設興業,,有限会社,福井県,敦賀市,公文名２２号９番地の３,,18,202,9140131,,,2023-01-13,清算の結了等,,,2015-10-05,1,,,,,チョクエイケンセツコウギョウ,0
2754,9310002002467,登記記録の閉鎖等,0,2023-01-17,2023-01-16,有限会社昭和電気商会,,有限会社,長崎県,長崎市,平和町１２番１０号,,42,201,8528116,,,2023-01-16,登記官による閉鎖,,,2015-10-05,1,,,,,,0
2761,9330002029137,登記記録の閉鎖等,0,2023-01-17,2023-01-13,有限会社丸正海運,,有限会社,熊本県,上天草市,龍ヶ岳町樋島５６５番地１５,,43,212,8660203,,,2023-01-13,清算の結了等,,,2015-10-05,1,,,,,マルショウカイウン,0
2763,9350001015474,登記記録の閉鎖等,0,2023-01-17,2023-01-16,株式会社グリーンフィールド,,株式会社,宮崎県,宮崎市,田野町乙５２２４番地７,,45,201,8891702,,,2023-01-16,清算の結了等,,,2018-10-04,1,,,,,グリーンフィールド,0
2780,9430001060586,登記記録の閉鎖等,0,2023-01-17,2023-01-16,株式会社滝川スポーツクラブ,,株式会社,北海道,滝川市,有明町６丁目４１２番地４,,01,225,0730045,,,2023-01-16,清算の結了等,,,2015-10-05,1,,,,,,0
2782,9430005013144,登記記録の閉鎖等,0,2023-01-17,2023-01-16,一般社団法人ＭＰＣジャパン,,その他の設立登記法人,北海道,恵庭市,美咲野１丁目１２番６号,,01,231,0611427,,,2023-01-16,清算の結了等,,,2017-05-19,1,,,,,,0
2787,9470001009522,登記記録の閉鎖等,0,2023-01-17,2023-01-13,ヤマグチ工業株式会社,,株式会社,香川県,仲多度郡多度津町,大字庄１１１５番地１,,37,404,7640031,,,2023-01-13,清算の結了等,,,2015-10-05,1,,,,,ヤマグチコウギョウ,0
2789,9470002009835,登記記録の閉鎖等,0,2023-01-17,2023-01-16,有限会社新生設備,,有限会社,香川県,高松市,香南町西庄１９７８番地３,,37,201,7611406,,,2023-01-16,清算の結了等,,,2015-10-05,1,,,,,シンセイセツビ,0
