sequenceNumber,corporateNumber,process,correct,updateDate,changeDate,name,nameImageId,kind,prefectureName,cityName,streetNumber,addressImageId,prefectureCode,cityCode,postCode,addressOutside,addressOutsideImageId,closeDate,closeCause,successorCorporateNumber,changeCause,assignmentDate,latest,enName,enPrefectureName,enCityName,enAddressOutside,furigana,hihyoji
52,1011001129017,登記記録の閉鎖等,0,2024-07-30,2024-07-08,株式会社Ｗｉｆｒｅｅ,,株式会社,東京都,渋谷区,渋谷３丁目６番３号,,13,113,1500002,,,2024-07-08,清算の結了等,,,2019-07-16,1,,,,,ウィフリー,0
57,1011105001071,登記記録の閉鎖等,0,2024-07-30,2024-07-11,医療生活協同組合早稲田診療所,,その他の設立登記法人,東京都,新宿区,西早稲田３丁目１７番２３号,,13,104,1690051,,,2024-07-11,清算の結了等,,,2015-10-05,1,,,,,ワセダシンリョウジョ,0
80,1013402000680,登記記録の閉鎖等,0,2024-07-30,2024-07-18,新設計有限会社,,有限会社,東京都,日野市,旭が丘１丁目２８番地の６,,13,212,1910065,,,2024-07-18,清算の結了等,,,2015-10-05,1,,,,,シンセッケイ,0
112,1040001044000,登記記録の閉鎖等,0,2024-07-30,2024-07-12,谷鋼業株式会社,,株式会社,千葉県,印西市,平賀１７１３番地の２,,12,231,2701605,,,2024-07-12,清算の結了等,,,2015-10-05,1,,,,,タニコウギョウ,0
124,1050002007582,登記記録の閉鎖等,0,2024-07-30,2024-07-19,伊師工業有限会社,,有限会社,茨城県,那珂市,向山１２７７番地６,,08,226,3110102,,,2024-07-19,清算の結了等,,,2015-10-05,1,,,,,,0
158,1140002030303,登記記録の閉鎖等,0,2024-07-30,2024-07-25,有限会社いず美ガラス,,有限会社,兵庫県,明石市,大久保町谷八木８０番地の３,,28,203,6740062,,,2024-07-25,清算の結了等,,,2015-10-05,1,,,,,イズミガラス,0
178,1180301000192,登記記録の閉鎖等,0,2024-07-30,2024-07-23,株式会社アテネコーポレーション,,株式会社,愛知県,岡崎市,緑丘１丁目４番地１,,23,202,4440806,,,2024-07-23,清算の結了等,,,2015-10-05,1,,,,,アテネコーポレーション,0
186,1200001033291,登記記録の閉鎖等,0,2024-07-30,2024-07-25,株式会社ＰｒｏＲｅＡ,,株式会社,岐阜県,大垣市,加賀野４丁目１－７ソフトピアジャパンセンター７０１号,,21,202,5030006,,,2024-07-25,清算の結了等,,,2016-09-23,1,,,,,プロレア,0
202,1240002027157,登記記録の閉鎖等,0,2024-07-30,2024-07-24,有限会社安藤塗装,,有限会社,広島県,東広島市,八本松町宗吉１２５番地,,34,212,7390145,,,2024-07-24,清算の結了等,,,2015-10-05,1,,,,,アンドウトソウ,0
205,1260005003062,登記記録の閉鎖等,0,2024-07-30,2024-07-10,特定非営利活動法人ＴＥＣ．ＥＣＯ再生機構,,その他の設立登記法人,岡山県,倉敷市,玉島柏島６６５１番地７,,33,202,7138123,,,2024-07-10,清算の結了等,,,2015-10-05,1,,,,,テックドットエコサイセイキコウ,0
207,1270002005176,登記記録の閉鎖等,0,2024-07-30,2024-07-24,有限会社アカオ,,有限会社,鳥取県,米子市,兼久４６２番地７,,31,202,6830251,,,2024-07-24,清算の結了等,,,2015-10-05,1,,,,,アカオ,0
226,1370001041419,登記記録の閉鎖等,0,2024-07-30,2024-07-10,株式会社オイカワ,,株式会社,宮城県,仙台市泉区,松森字陣ケ前１０７番地の２,,04,105,9813111,,,2024-07-10,清算の結了等,,,2017-05-10,1,,,,,オイカワ,0
228,1370201002096,登記記録の閉鎖等,0,2024-07-30,2024-07-10,株式会社宮本商店,,株式会社,宮城県,大崎市,岩出山字二ノ構９１番地,,04,215,9896436,,,2024-07-10,清算の結了等,,,2015-10-05,1,,,,,ミヤモトショウテン,0
234,1410001003471,登記記録の閉鎖等,0,2024-07-30,2024-07-19,天王グリーンランド株式会社,,株式会社,秋田県,潟上市,天王字江川上谷地１０９番地２,,05,211,0100201,,,2024-07-19,清算の結了等,,,2015-10-05,1,,,,,テンノウグリーンランド,0
271,2010802016645,登記記録の閉鎖等,0,2024-07-30,2024-07-19,有限会社黒澤管理事務所,,有限会社,東京都,大田区,東雪谷４丁目１７番１４号,,13,111,1450065,,,2024-07-19,清算の結了等,,,2015-10-05,1,,,,,クロサワカンリジムショ,0
273,2010902006505,登記記録の閉鎖等,0,2024-07-30,2024-07-25,有限会社産業心理コンサルタンツ,,有限会社,東京都,世田谷区,東玉川２丁目１３番１４号,,13,112,1580084,,,2024-07-25,清算の結了等,,,2015-10-05,1,,,,,サンギョウシンリコンサルタンツ,0
287,2011401016722,登記記録の閉鎖等,0,2024-07-30,2024-07-16,株式会社プルー,,株式会社,東京都,中央区,銀座１丁目１４番９号,,13,102,1040061,,,2024-07-16,清算の結了等,,,2015-10-05,1,,,,,プルー,0
307,2013302005663,登記記録の閉鎖等,0,2024-07-30,2024-07-12,有限会社泰山,,有限会社,東京都,新宿区,西新宿８丁目１４番１９号,,13,104,1600023,,,2024-07-12,清算の結了等,,,2015-10-05,1,,,,,タイザン,0
324,2040001038372,登記記録の閉鎖等,0,2024-07-30,2024-07-03,株式会社廣根製作所,,株式会社,千葉県,流山市,流山９６０番地５,,12,220,,,,2024-07-03,清算の結了等,,,2015-10-05,1,,,,,ヒロネセイサクショ,0
335,2080101010376,登記記録の閉鎖等,0,2024-07-30,2024-07-26,株式会社サン・ワークショップ望月,,株式会社,静岡県,富士市,五貫島１７２番地の４,,22,210,4160946,,,2024-07-26,清算の結了等,,,2015-10-05,1,,,,,サンワークショップモチヅキ,0
342,2100003005174,登記記録の閉鎖等,0,2024-07-30,2024-07-10,スリーフォールド合同会社,,合同会社,長野県,安曇野市,穂高５０３３番地１,,20,220,3998303,,,2024-07-10,清算の結了等,,,2018-11-30,1,,,,,スリーフォールド,0
356,2120002012491,登記記録の閉鎖等,0,2024-07-30,2024-07-29,有限会社伊藤食品,,有限会社,大阪府,大阪市天王寺区,下寺町２丁目６番４号,,27,109,5430076,,,2024-07-29,清算の結了等,,,2015-10-05,1,,,,,イトウショクヒン,0
357,2120003016748,登記記録の閉鎖等,0,2024-07-30,2024-07-26,キロネックス合同会社,,合同会社,大阪府,大阪市浪速区,下寺２丁目１番１号エスレジデンス学園坂１２０１,,27,111,5560001,,,2024-07-26,清算の結了等,,,2019-12-24,1,,,,,キロネックス,0
363,2122001005237,登記記録の閉鎖等,0,2024-07-30,2024-07-24,中川鋼業株式会社,,株式会社,大阪府,東大阪市,新町１７番１８号,,27,227,5798037,,,2024-07-24,清算の結了等,,,2015-10-05,1,,,,,ナカガワコウギョウ,0
381,2160001026084,登記記録の閉鎖等,0,2024-07-30,2024-07-25,丸平食品株式会社,,株式会社,滋賀県,米原市,米原５６２番地,,25,214,5210012,,,2024-07-25,清算の結了等,,,2024-07-23,1,,,,,マルヘイショクヒン,0
387,2180001001300,登記記録の閉鎖等,0,2024-07-30,2024-07-12,株式会社名東製氷,,株式会社,愛知県,名古屋市守山区,幸心１丁目１１０７番地,,23,113,4630079,,,2024-07-12,清算の結了等,,,2015-10-05,1,,,,,メイトウセイヒョウ,0
389,2180001005276,登記記録の閉鎖等,0,2024-07-30,2024-07-12,株式会社ブックス竹山,,株式会社,愛知県,名古屋市千種区,末盛通１丁目７番地地先,,23,101,4640821,,,2024-07-12,清算の結了等,,,2015-10-05,1,,,,,ブックスタケヤマ,0
392,2180001079857,登記記録の閉鎖等,0,2024-07-30,2024-07-12,株式会社マルナカ建材,,株式会社,愛知県,瀬戸市,平町１丁目８番地,,23,204,4890916,,,2024-07-12,清算の結了等,,,2015-10-05,1,,,,,マルナカケンザイ,0
395,2180001160030,登記記録の閉鎖等,0,2024-07-30,2024-07-12,株式会社ブリッジブックコーポレーション,,株式会社,愛知県,名古屋市中区,丸の内２丁目６番２１号アクセス丸の内ビル９階,,23,106,4600002,,,2024-07-12,清算の結了等,,,2024-02-02,1,,,,,ブリッジブックコーポレーション,0
401,2180002085581,登記記録の閉鎖等,0,2024-07-30,2024-07-11,有限会社イナオ薬局,,有限会社,愛知県,知多郡南知多町,大字師崎字荒井７５番地の３,,23,445,4703503,,,2024-07-11,清算の結了等,,,2015-10-05,1,,,,,イナオヤッキョク,0
408,2200002026608,登記記録の閉鎖等,0,2024-07-30,2024-07-24,有限会社ヒダ緑華園,,有限会社,岐阜県,高山市,国府町広瀬町１０５３番地の１,,21,203,5094119,,,2024-07-24,清算の結了等,,,2015-10-05,1,,,,,ヒダリョクカエン,0
412,2230001020369,登記記録の閉鎖等,0,2024-07-30,2024-07-18,富山大信産業株式会社,,株式会社,富山県,富山市,神通町１丁目５番３０号,,16,201,9300009,,,2024-07-18,清算の結了等,,,2024-06-07,1,,,,,トヤマダイシンサンギョウ,0
428,2290802005851,登記記録の閉鎖等,0,2024-07-30,2024-07-18,有限会社ポポロ,,有限会社,福岡県,北九州市小倉北区,大手町４番２３号,,40,106,8030814,,,2024-07-18,清算の結了等,,,2015-10-05,1,,,,,ポポロ,0
443,2360001004730,登記記録の閉鎖等,0,2024-07-30,2024-07-29,株式会社ホウオン,,株式会社,沖縄県,那覇市,おもろまち１丁目５番２６号,,47,201,9000006,,,2024-07-29,清算の結了等,,,2015-10-05,1,,,,,ホウオン,0
450,2410001007926,登記記録の閉鎖等,0,2024-07-30,2024-07-19,株式会社クマガイフーズ,,株式会社,秋田県,大仙市,大曲上大町８番９号,,05,212,0140048,,,2024-07-19,清算の結了等,,,2015-10-05,1,,,,,クマガイフーズ,0
452,2430001063075,登記記録の閉鎖等,0,2024-07-30,2024-07-26,株式会社グローバルイノベーション,,株式会社,大阪府,大阪市中央区,西心斎橋１丁目１２－１１－７０１,,27,128,5420086,,,2024-07-26,清算の結了等,,,2015-10-05,1,,,,,グローバルイノベーション,0
498,3010401135498,登記記録の閉鎖等,0,2024-07-30,2024-07-09,アマモス・アマゾン株式会社,,株式会社,愛知県,一宮市,木曽川町黒田字往還西北ノ切６８,,23,203,4930001,,,2024-07-09,清算の結了等,,,2017-12-18,1,,,,,アマモスアマゾン,0
503,3010501006186,登記記録の閉鎖等,0,2024-07-30,2024-07-18,株式会社アークコーポレーション,,株式会社,東京都,台東区,松が谷２丁目２７番９号,,13,106,1110036,,,2024-07-18,清算の結了等,,,2015-10-05,1,,,,,アークコーポレーション,0
506,3010602029747,登記記録の閉鎖等,0,2024-07-30,2024-07-23,有限会社ポイント,,有限会社,東京都,墨田区,横川１丁目１８番４号,,13,107,1300003,,,2024-07-23,清算の結了等,,,2015-10-05,1,,,,,,0
512,3010901031453,登記記録の閉鎖等,0,2024-07-30,2024-07-23,株式会社日中都市生活研究所,,株式会社,東京都,世田谷区,成城５丁目２２番１０号テラス成城３０１号室,,13,112,1570066,,,2024-07-23,清算の結了等,,,2015-10-05,1,,,,,,0
524,3011003008662,登記記録の閉鎖等,0,2024-07-30,2024-07-24,ＦＯＯＤ　ＢＵＬＢ合同会社,,合同会社,東京都,渋谷区,渋谷３丁目２７－１５坂上ビル７Ｆ,,13,113,1500002,,,2024-07-24,清算の結了等,,,2018-04-10,1,,,,,フードバルブ,0
528,3011103013785,登記記録の閉鎖等,0,2024-07-30,2024-07-11,Ｔｈｅ　Ｊａｐａｎ　Ｐｌｕｇ合同会社,,合同会社,東京都,新宿区,百人町１丁目２４－８新宿タウンプラザビル３Ｆ－Ｋ,,13,104,1690073,,,2024-07-11,清算の結了等,,,2023-11-29,1,,,,,ザジャパンプラグ,0
544,3012402014227,登記記録の閉鎖等,0,2024-07-30,2024-07-19,有限会社ランブル,,有限会社,東京都,国立市,西１丁目１７番地の３,,13,215,1860005,,,2024-07-19,清算の結了等,,,2023-11-29,1,,,,,ランブル,0
555,3020003005347,登記記録の閉鎖等,0,2024-07-30,2024-07-08,合名会社松井畳店,,合名会社,神奈川県,川崎市川崎区,桜本１丁目３番１号,,14,131,2100833,,,2024-07-08,清算の結了等,,,2015-10-05,1,,,,,マツイタタミテン,0
561,3021003010527,登記記録の閉鎖等,0,2024-07-30,2024-07-26,合同会社ココシュ,,合同会社,神奈川県,鎌倉市,御成町７番１３号,,14,204,2480012,,,2024-07-26,清算の結了等,,,2021-06-03,1,,,,,ココシュ,0
575,3040002005049,登記記録の閉鎖等,0,2024-07-30,2024-07-12,有限会社三洋メディカル,,有限会社,千葉県,千葉市若葉区,東寺山町２３２番地１,,12,104,2640035,,,2024-07-12,清算の結了等,,,2015-10-05,1,,,,,サンヨウメディカル,0
577,3040002058377,登記記録の閉鎖等,0,2024-07-30,2024-07-11,有限会社秋本式典,,有限会社,千葉県,白井市,白井４２０番地,,12,232,2701421,,,2024-07-11,清算の結了等,,,2015-10-05,1,,,,,アキモトシキテン,0
579,3040002060655,登記記録の閉鎖等,0,2024-07-30,2024-07-11,光生土地建物有限会社,,有限会社,千葉県,佐倉市,王子台３丁目２番地６,,12,212,2850837,,,2024-07-11,清算の結了等,,,2015-10-05,1,,,,,コウセイトチタテモノ,0
587,3070001005039,登記記録の閉鎖等,0,2024-07-30,2024-07-26,株式会社上州小麦の郷,,株式会社,群馬県,前橋市,天川大島町１３２５番地２,,10,201,3792154,,,2024-07-26,清算の結了等,,,2015-10-05,1,,,,,ジョウシュウコムギノサト,0
605,3120001088474,登記記録の閉鎖等,0,2024-07-30,2024-07-26,株式会社藤岡忠商店,,株式会社,大阪府,大阪市北区,本庄東２丁目４番１－４２４号,,27,127,5310074,,,2024-07-26,清算の結了等,,,2015-10-05,1,,,,,フジオカチュウショウテン,0
613,3120005002794,登記記録の閉鎖等,0,2024-07-30,2024-07-25,帝国製鋲労働組合,,その他の設立登記法人,大阪府,大阪市港区,海岸通３丁目２番２１号,,27,107,5520022,,,2024-07-25,清算の結了等,,,2015-10-05,1,,,,,テイコクセイビョウ,0
614,3120101032563,登記記録の閉鎖等,0,2024-07-30,2024-07-23,株式会社山長製菓,,株式会社,大阪府,羽曳野市,南古市１丁目１５番１５号,,27,222,5830858,,,2024-07-23,清算の結了等,,,2015-10-05,1,,,,,ヤマチョウセイカ,0
615,3120101050788,登記記録の閉鎖等,0,2024-07-30,2024-07-26,株式会社ｓｏｌｉｄａｒｉｔｙ．Ｍｕｕ,,株式会社,大阪府,岸和田市,八幡町８番８９－７１４号,,27,202,5960023,,,2024-07-26,清算の結了等,,,2015-10-05,1,,,,,,0
619,3122001035786,登記記録の閉鎖等,0,2024-07-30,2024-07-29,株式会社Ｗｉｎ,,株式会社,大阪府,東大阪市,善根寺町４丁目７番３６号,,27,227,5798001,,,2024-07-29,清算の結了等,,,2022-04-26,1,,,,,ウィン,0
625,3140001100889,登記記録の閉鎖等,0,2024-07-30,2024-07-25,株式会社ベジビーンズ,,株式会社,兵庫県,神戸市東灘区,御影塚町４丁目９番２１号,00105688,28,101,6580044,,,2024-07-25,清算の結了等,,,2016-02-03,1,,,,,ベジビーンズ,0
631,3150001001450,登記記録の閉鎖等,0,2024-07-30,2024-07-25,鉄道雑貨株式会社,,株式会社,奈良県,奈良市,二条町１丁目３番２８号,,29,201,6308002,,,2024-07-25,清算の結了等,,,2015-10-05,1,,,,,テツドウザッカ,0
632,3150001012274,登記記録の閉鎖等,0,2024-07-30,2024-07-24,株式会社アスカソイルコーナー,,株式会社,滋賀県,草津市,桜ケ丘１丁目９番１５号,,25,206,5250057,,,2024-07-24,清算の結了等,,,2015-10-05,1,,,,,アスカソイルコーナー,0
637,3180002013905,登記記録の閉鎖等,0,2024-07-30,2024-07-09,有限会社新生電気工業所,,有限会社,愛知県,名古屋市南区,中江２丁目１２番２６号,,23,112,4570004,,,2024-07-09,清算の結了等,,,2015-10-05,1,,,,,シンセイデンキコウギョウショ,0
638,3180002084376,登記記録の閉鎖等,0,2024-07-30,2024-07-11,有限会社籾山熔接,,有限会社,愛知県,知多郡武豊町,字六貫山３丁目８２番地,,23,447,4702362,,,2024-07-11,清算の結了等,,,2015-10-05,1,,,,,モミヤマヨウセツ,0
668,3310001014923,登記記録の閉鎖等,0,2024-07-30,2024-07-26,永大総業株式会社,,株式会社,長崎県,佐世保市,松瀬町５４９番地３,,42,202,8570102,,,2024-07-26,清算の結了等,,,2017-05-23,1,,,,,エイダイソウギョウ,0
669,3320003004277,登記記録の閉鎖等,0,2024-07-30,2024-07-11,合同会社大慎,,合同会社,大分県,豊後大野市,清川町砂田１４６２番地８,,44,212,8796903,,,2024-07-11,清算の結了等,,,2024-01-22,1,,,,,ダイシン,0
670,3330001008675,登記記録の閉鎖等,0,2024-07-30,2024-07-18,晃進建設株式会社,,株式会社,熊本県,熊本市西区,上代３丁目１０番５号,,43,103,8600068,,,2024-07-18,清算の結了等,,,2015-10-05,1,,,,,コウシンケンセツ,0
673,3330003007394,登記記録の閉鎖等,0,2024-07-30,2024-07-16,合同会社Ｗａｋａｋｕｓａ,,合同会社,東京都,千代田区,丸の内３丁目１番１号東京共同会計事務所内,,13,101,1000005,,,2024-07-16,清算の結了等,,,2018-02-16,1,,,,,ワカクサ,0
700,4010001180596,登記記録の閉鎖等,0,2024-07-30,2024-07-16,ウェールスインターナショナル株式会社,,株式会社,東京都,千代田区,二番町３－１１,,13,101,1020084,,,2024-07-16,清算の結了等,,,2017-01-19,1,,,,,ウェールスインターナショナル,0
707,4010003035617,登記記録の閉鎖等,0,2024-07-30,2024-07-17,日光Ｐｌｕｓ２０合同会社１１,,合同会社,東京都,千代田区,丸の内３丁目１番１号東京共同会計事務所内,,13,101,1000005,,,2024-07-17,清算の結了等,,,2021-08-16,1,,,,,ニッコウプラストゥエンティイチイチ,0
730,4010902021147,登記記録の閉鎖等,0,2024-07-30,2024-07-23,有限会社アットファミリー,,有限会社,東京都,世田谷区,千歳台３丁目７番１０号,,13,112,1570071,,,2024-07-23,清算の結了等,,,2015-10-05,1,,,,,アットファミリー,0
734,4011001143353,登記記録の閉鎖等,0,2024-07-30,2024-07-18,株式会社ｖａｌｖｅ　ｗｏｒｋｓ,,株式会社,東京都,渋谷区,代官山町１３－７ベルビー代官山１Ｆ,,13,113,1500034,,,2024-07-18,清算の結了等,,,2021-10-28,1,,,,,バルブワークス,0
759,4012802010808,登記記録の閉鎖等,0,2024-07-30,2024-07-22,有限会社相樂,,有限会社,東京都,東大和市,湖畔２丁目１０７４番９３号,,13,220,2070002,,,2024-07-22,清算の結了等,,,2015-10-05,1,,,,,ソウラク,0
761,4013101005136,登記記録の閉鎖等,0,2024-07-30,2024-07-26,株式会社西多摩電子,,株式会社,東京都,羽村市,神明台４丁目８番地３９,,13,227,2050023,,,2024-07-26,合併による解散等,8013101000810,令和６年７月２６日東京都羽村市神明台四丁目８番地３９株式会社リバー電子（8013101000810）に合併し解散,2015-10-05,1,,,,,ニシタマデンシ,0
768,4021001048023,登記記録の閉鎖等,0,2024-07-30,2024-07-25,株式会社日精,,株式会社,神奈川県,横須賀市,小矢部２丁目１５番１１号,,14,201,2380026,,,2024-07-25,清算の結了等,,,2015-10-05,1,,,,,ニッセイ,0
775,4030001073591,登記記録の閉鎖等,0,2024-07-30,2024-07-24,株式会社アトモス,,株式会社,埼玉県,川口市,本町３丁目１４番７号,,11,203,3320012,,,2024-07-24,清算の結了等,,,2015-10-05,1,,,,,アトモス,0
776,4030001085604,登記記録の閉鎖等,0,2024-07-30,2024-07-23,株式会社東京工業商会,,株式会社,埼玉県,大里郡寄居町,大字桜沢１４３１番地１,,11,408,3691202,,,2024-07-23,清算の結了等,,,2015-10-05,1,,,,,トウキョウコウギョウショウカイ,0
777,4030001101468,登記記録の閉鎖等,0,2024-07-30,2024-07-24,株式会社モーションファイブ,,株式会社,埼玉県,さいたま市見沼区,大字南中野６６２番地２３,,11,104,3370042,,,2024-07-24,清算の結了等,,,2015-10-05,1,,,,,モーションファイブ,0
801,4070002030308,登記記録の閉鎖等,0,2024-07-30,2024-07-26,有限会社中塚ビル,00025851,有限会社,群馬県,太田市,飯田町１２４０番地,,10,205,3730851,,,2024-07-26,清算の結了等,,,2015-10-05,1,,,,,ナカツカビル,0
813,4110002018380,登記記録の閉鎖等,0,2024-07-30,2024-07-12,有限会社七谷縫製所,,有限会社,新潟県,加茂市,大字黒水２１４番地,,15,209,9591336,,,2024-07-12,清算の結了等,,,2015-10-05,1,,,,,ナナタニホウセイショ,0
816,4120001021500,登記記録の閉鎖等,0,2024-07-30,2024-07-29,株式会社福居タイル店,,株式会社,大阪府,大阪市平野区,西脇１丁目１８番２０号,,27,126,5470035,,,2024-07-29,清算の結了等,,,2015-10-05,1,,,,,フクイタイルテン,0
817,4120001194437,登記記録の閉鎖等,0,2024-07-30,2024-07-25,株式会社コパン,,株式会社,大阪府,大阪市平野区,長吉長原４丁目５番５号,,27,126,5470016,,,2024-07-25,清算の結了等,,,2015-11-16,1,,,,,コパン,0
828,4120103001862,登記記録の閉鎖等,0,2024-07-30,2024-07-26,そ和ん合同会社,,合同会社,大阪府,南河内郡河南町,大宝５丁目５番１２号,,27,382,5850005,,,2024-07-26,清算の結了等,,,2015-10-05,1,,,,,ソワン,0
837,4130002021283,登記記録の閉鎖等,0,2024-07-30,2024-07-24,有限会社プラスワン,,有限会社,京都府,京都市中京区,蛸薬師通室町西入姥柳町２０３番地,00037667,26,104,6048213,,,2024-07-24,清算の結了等,,,2015-10-05,1,,,,,プラスワン,0
848,4180001015281,登記記録の閉鎖等,0,2024-07-30,2024-07-10,株式会社布目鉄工所,,株式会社,愛知県,名古屋市南区,豊１丁目５４番１４号,,23,112,4570863,,,2024-07-10,清算の結了等,,,2015-10-05,1,,,,,ヌノメテッコウジョ,0
858,4180002013994,登記記録の閉鎖等,0,2024-07-30,2024-07-12,有限会社椙村製作所,,有限会社,愛知県,名古屋市南区,豊３丁目４０番５号,,23,112,4570863,,,2024-07-12,清算の結了等,,,2015-10-05,1,,,,,スギムラセイサクショ,0
859,4180002069772,登記記録の閉鎖等,0,2024-07-30,2024-07-12,有限会社平山商会,,有限会社,愛知県,小牧市,大字池之内３１１６番地の２,,23,219,4850804,,,2024-07-12,清算の結了等,,,2015-10-05,1,,,,,ヒラヤマショウカイ,0
901,4330001016784,登記記録の閉鎖等,0,2024-07-30,2024-07-26,天草商船株式会社,,株式会社,熊本県,上天草市,姫戸町二間戸３８１８番地８,,43,212,8660102,,,2024-07-26,清算の結了等,,,2015-10-05,1,,,,,アマクサショウセン,0
947,5010003035616,登記記録の閉鎖等,0,2024-07-30,2024-07-17,日光Ｐｌｕｓ２０合同会社１０,,合同会社,東京都,千代田区,丸の内３丁目１番１号東京共同会計事務所内,,13,101,1000005,,,2024-07-17,清算の結了等,,,2021-08-16,1,,,,,ニッコウプラストゥエンティイチゼロ,0
979,5011001108438,登記記録の閉鎖等,0,2024-07-30,2024-07-23,株式会社Ｇｏｏｄ　Ｅｙｅ,,株式会社,東京都,豊島区,南池袋１丁目２１番５号,,13,116,1710022,,,2024-07-23,清算の結了等,,,2015-12-01,1,,,,,グッドアイ,0
982,5011001110542,登記記録の閉鎖等,0,2024-07-30,2024-07-02,株式会社Ｇｅｎｕｓｓ,,株式会社,東京都,港区,元麻布３丁目６番６－３０１号,,13,103,1060046,,,2024-07-02,清算の結了等,,,2016-04-20,1,,,,,,0
983,5011001149630,登記記録の閉鎖等,0,2024-07-30,2024-07-05,ブッシン株式会社,,株式会社,東京都,渋谷区,渋谷１丁目２－５ＭＦＰＲ渋谷ビル１０Ｆ,,13,113,1500002,,,2024-07-05,合併による解散等,6011001146255,令和６年７月１日東京都渋谷区渋谷一丁目２番５号ユナイテッド・リクルートメント株式会社（6011001146255）に合併し解散,2022-09-15,1,,,,,ブッシン,0
1002,5012401022914,登記記録の閉鎖等,0,2024-07-30,2024-07-17,株式会社シンクフロント,,株式会社,東京都,国分寺市,東恋ヶ窪２丁目２番地１,,13,214,1850014,,,2024-07-17,清算の結了等,,,2015-10-05,1,,,,,シンクフロント,0
1013,5021001006525,登記記録の閉鎖等,0,2024-07-30,2024-07-18,暁建設株式会社,,株式会社,神奈川県,茅ヶ崎市,香川１丁目４１番５号,,14,207,2530082,,,2024-07-18,清算の結了等,,,2015-10-05,1,,,,,アカツキケンセツ,0
1051,5100001024479,登記記録の閉鎖等,0,2024-07-30,2024-07-23,株式会社しんえこ,,株式会社,長野県,松本市,大字島立２３４６番地,,20,202,3900852,,,2024-07-23,合併による解散等,9080101011426,令和６年７月１日静岡県富士宮市山宮３５０７番地の１９株式会社エコネコル（9080101011426）に合併し解散,2015-10-05,1,,,,,シンエコ,0
1057,5120002049911,登記記録の閉鎖等,0,2024-07-30,2024-07-26,有限会社渡辺企画,,有限会社,大阪府,大阪市西区,江戸堀１丁目２６番１８－８０３号,,27,106,5500002,,,2024-07-26,清算の結了等,,,2015-10-05,1,,,,,ワタナベキカク,0
1069,5130001045555,登記記録の閉鎖等,0,2024-07-30,2024-07-24,株式会社ネクスト,,株式会社,京都府,京都市中京区,蛸薬師通室町西入姥柳町２０３番地パラドール烏丸ビル,00036507,26,104,6048213,,,2024-07-24,清算の結了等,,,2015-10-05,1,,,,,ネクスト,0
1078,5140003019886,登記記録の閉鎖等,0,2024-07-30,2024-07-24,合同会社豊,,合同会社,兵庫県,神戸市中央区,中山手通１丁目２２－２３藤正ファインクラフト２０３,,28,110,6500004,,,2024-07-24,清算の結了等,,,2023-12-05,1,,,,,ユタカ,0
1095,5200001007738,登記記録の閉鎖等,0,2024-07-30,2024-07-11,ライン繊維株式会社,,株式会社,愛知県,一宮市,文京２丁目７番２２号,,23,203,4910041,,,2024-07-11,清算の結了等,,,2015-10-05,1,,,,,ラインセンイ,0
1096,5200001025797,登記記録の閉鎖等,0,2024-07-30,2024-07-12,株式会社小林工務店,,株式会社,岐阜県,下呂市,萩原町上呂３３８２番地,,21,220,5092518,,,2024-07-12,清算の結了等,,,2020-06-30,1,,,,,コバヤシコウムテン,0
1097,5200001027216,登記記録の閉鎖等,0,2024-07-30,2024-07-22,株式会社Ｎ－ｔｏｗｎ,,株式会社,岐阜県,岐阜市,江添２丁目７番１３号,,21,201,5008383,,,2024-07-22,清算の結了等,,,2015-10-05,1,,,,,エヌタウン,0
1101,5200003004213,登記記録の閉鎖等,0,2024-07-30,2024-07-25,合同会社ルピナースケアプランセンター,,合同会社,岐阜県,高山市,三福寺町１２９番地,,21,203,5060807,,,2024-07-25,清算の結了等,,,2018-06-06,1,,,,,ルピナースケアプランセンター,0
1107,5240001000177,登記記録の閉鎖等,0,2024-07-30,2024-07-29,株式会社アート企画,,株式会社,広島県,広島市安佐北区,深川８丁目２１番１１号,,34,106,7391751,,,2024-07-29,清算の結了等,,,2015-10-05,1,,,,,アートキカク,0
1108,5240001055394,登記記録の閉鎖等,0,2024-07-30,2024-07-24,ＳｅｅＢｌｏｃｋ株式会社,,株式会社,広島県,広島市西区,楠木町２丁目１番２２号,,34,104,7330002,,,2024-07-24,清算の結了等,,,2019-12-12,1,,,,,シーブロック,0
1119,5280005005152,登記記録の閉鎖等,0,2024-07-30,2024-07-23,津和野商工業協同組合,,その他の設立登記法人,島根県,鹿足郡津和野町,後田ロ１８７番地,,32,501,6995605,,,2024-07-23,清算の結了等,,,2015-10-05,1,,,,,ツワノショウコウギョウ,0
1128,5290801006988,登記記録の閉鎖等,0,2024-07-30,2024-07-25,株式会社マッシュピア,,株式会社,福岡県,北九州市小倉北区,大畠２丁目１０番１号,,40,106,8020026,,,2024-07-25,清算の結了等,,,2015-10-05,1,,,,,マッシュピア,0
1133,5310002015002,登記記録の閉鎖等,0,2024-07-30,2024-07-23,有限会社オーキ,,有限会社,長崎県,諫早市,本町３番８号,,42,204,8540012,,,2024-07-23,清算の結了等,,,2015-10-05,1,,,,,オーキ,0
1142,5330002026922,登記記録の閉鎖等,0,2024-07-30,2024-07-18,株式会社松本建設,,株式会社,熊本県,八代市,泉町下岳４３９０番地,,43,202,8694403,,,2024-07-18,清算の結了等,,,2015-10-05,1,,,,,マツモトケンセツ,0
1152,5370001013050,登記記録の閉鎖等,0,2024-07-30,2024-07-10,株式会社アクセス,,株式会社,宮城県,仙台市青葉区,上杉１丁目３番１６号ドンクマサー・パート１ビル９０１号,,04,101,9800011,,,2024-07-10,清算の結了等,,,2015-10-05,1,,,,,アクセス,0
1156,5420002017838,登記記録の閉鎖等,0,2024-07-30,2024-07-16,有限会社二伸建設,,有限会社,青森県,三沢市,春日台３丁目１５４番地５７９号,,02,207,0330053,,,2024-07-16,清算の結了等,,,2015-10-05,1,,,,,ニシンケンセツ,0
1161,5430002018934,登記記録の閉鎖等,0,2024-07-30,2024-07-24,有限会社松岸商事,,有限会社,北海道,札幌市豊平区,美園四条３丁目１番２７号,,01,105,0620004,,,2024-07-24,清算の結了等,,,2015-10-05,1,,,,,マツギシショウジ,0
1163,5470002005318,登記記録の閉鎖等,0,2024-07-30,2024-07-24,有限会社二和商会,,有限会社,香川県,高松市,新田町甲２１４５番地１０,,37,201,7610102,,,2024-07-24,清算の結了等,,,2015-10-05,1,,,,,ニワショウカイ,0
1165,5490002003906,登記記録の閉鎖等,0,2024-07-30,2024-07-22,有限会社にこにこ運送,,有限会社,高知県,高知市,石立町４６番地,,39,201,7808038,,,2024-07-22,清算の結了等,,,2015-10-05,1,,,,,ニコニコウンソウ,0
1166,5490002011891,登記記録の閉鎖等,0,2024-07-30,2024-07-22,有限会社ハマダ技建,,有限会社,高知県,南国市,岡豊町蒲原１６０番地７９,,39,204,7830042,,,2024-07-22,清算の結了等,,,2015-10-05,1,,,,,ハマダギケン,0
1178,6010003018875,登記記録の閉鎖等,0,2024-07-30,2024-07-16,よなごしんきん地域応援ファンド合同会社,,合同会社,東京都,千代田区,丸の内３丁目１番１号東京共同会計事務所内,,13,101,1000005,,,2024-07-16,清算の結了等,,,2015-10-05,1,,,,,ヨナゴシンキンチイキオウエンファンド,0
1181,6010003035615,登記記録の閉鎖等,0,2024-07-30,2024-07-17,日光Ｐｌｕｓ２０合同会社９,,合同会社,東京都,千代田区,丸の内３丁目１番１号東京共同会計事務所内,,13,101,1000005,,,2024-07-17,清算の結了等,,,2021-08-16,1,,,,,ニッコウプラストゥエンティキュー,0
1198,6010401108542,登記記録の閉鎖等,0,2024-07-30,2024-07-08,株式会社モデレート,,株式会社,神奈川県,横浜市港北区,富士塚２丁目２５番２２号,00026242,14,109,2220012,,,2024-07-08,清算の結了等,,,2015-10-05,1,,,,,モデレート,0
1199,6010401136790,登記記録の閉鎖等,0,2024-07-30,2024-07-19,株式会社Ｏｆｆｉｃｅ　Ｙ,,株式会社,東京都,板橋区,前野町４丁目６２番６号,,13,119,1740063,,,2024-07-19,清算の結了等,,,2018-02-20,1,,,,,オフィスワイ,0
1202,6010401158785,登記記録の閉鎖等,0,2024-07-30,2024-07-08,ニンジャコンサルティング株式会社,,株式会社,東京都,港区,三田２丁目２１番１０号,,13,103,1080073,,,2024-07-08,清算の結了等,,,2021-03-15,1,,,,,ニンジャコンサルティング,0
1203,6010401164172,登記記録の閉鎖等,0,2024-07-30,2024-07-08,株式会社ＲｅｅｌＺ,,株式会社,東京都,港区,西新橋１丁目２番９号日比谷セントラルビル１４階,,13,103,1050003,,,2024-07-08,清算の結了等,,,2021-12-03,1,,,,,リールズ,0
1204,6010401166235,登記記録の閉鎖等,0,2024-07-30,2024-07-08,株式会社Ｒｉｂｂｏｎ,,株式会社,東京都,港区,芝浦４丁目２０番２号,,13,103,1080023,,,2024-07-08,清算の結了等,,,2022-03-17,1,,,,,リボン,0
1213,6010601039942,登記記録の閉鎖等,0,2024-07-30,2024-07-26,株式会社シグアップ,,株式会社,東京都,江東区,豊洲４丁目９番１３－６５３号,,13,108,1350061,,,2024-07-26,清算の結了等,,,2015-10-05,1,,,,,シグアップ,0
1238,6011402005761,登記記録の閉鎖等,0,2024-07-30,2024-07-19,有限会社タツミ製作所,,有限会社,東京都,板橋区,三園１丁目１８番６号,,13,119,1750091,,,2024-07-19,清算の結了等,,,2015-10-05,1,,,,,タツミセイサクショ,0
1241,6011701015239,登記記録の閉鎖等,0,2024-07-30,2024-07-17,株式会社クラウド・コマース,,株式会社,秋田県,潟上市,天王字追分西１番地１１メゾンＥ＆ＳＩＩＩ１０５,00134185,05,211,0100101,,,2024-07-17,清算の結了等,,,2015-10-05,1,,,,,,0
1261,6020002028932,登記記録の閉鎖等,0,2024-07-30,2024-07-08,有限会社石井商事,,有限会社,神奈川県,横浜市南区,宿町２丁目２９番地,,14,105,2320017,,,2024-07-08,清算の結了等,,,2015-10-05,1,,,,,イシイショウジ,0
1262,6020002104295,登記記録の閉鎖等,0,2024-07-30,2024-07-08,有限会社ポリッシュ,,有限会社,神奈川県,川崎市高津区,明津２３２番地,,14,134,2130024,,,2024-07-08,清算の結了等,,,2015-10-05,1,,,,,ポリッシュ,0
1267,6030002101011,登記記録の閉鎖等,0,2024-07-30,2024-07-22,有限会社エム,,有限会社,埼玉県,川口市,芝１丁目２３番１１号,,11,203,3330866,,,2024-07-22,清算の結了等,,,2015-10-05,1,,,,,エム,0
1284,6050005011800,登記記録の閉鎖等,0,2024-07-30,2024-02-21,一般社団法人日本おもてなしトレーナー協会,,その他の設立登記法人,茨城県,ひたちなか市,新光町３８番地ひたちなかテクノセンター内,,08,221,3120005,,,2024-02-21,清算の結了等,,,2016-01-06,1,,,,,,0
1290,6080101006354,登記記録の閉鎖等,0,2024-07-30,2024-07-26,株式会社山本産業,,株式会社,静岡県,三島市,谷田１３９６番地の１０,,22,206,4110801,,,2024-07-26,清算の結了等,,,2015-10-05,1,,,,,ヤマモトサンギョウ,0
1294,6080402018296,登記記録の閉鎖等,0,2024-07-30,2024-07-29,有限会社美さき商事,,有限会社,静岡県,掛川市,千浜６４３９番地の３,,22,213,4371412,,,2024-07-29,清算の結了等,,,2015-10-05,1,,,,,,0
1296,6100001020205,登記記録の閉鎖等,0,2024-07-30,2024-07-10,株式会社諏訪城南運輸,,株式会社,長野県,諏訪市,大字中洲４４５５番地,,20,206,3920015,,,2024-07-10,清算の結了等,,,2015-10-05,1,,,,,スワジョウナンウンユ,0
1306,6120001180261,登記記録の閉鎖等,0,2024-07-30,2024-07-12,ネクスコン・ジャパン株式会社,,株式会社,東京都,文京区,本郷２丁目１４番１０号長嶋ビル４階,,13,105,1130033,,,2024-07-12,清算の結了等,,,2015-10-05,1,,,,,ネクスコンジャパン,0
1314,6120002040290,登記記録の閉鎖等,0,2024-07-30,2024-07-25,有限会社ドン・アーキテクト,,有限会社,大阪府,大阪市大正区,泉尾１丁目１０番１号,,27,108,5510031,,,2024-07-25,清算の結了等,,,2015-10-05,1,,,,,ドンアーキテクト,0
1316,6120002057970,登記記録の閉鎖等,0,2024-07-30,2024-07-26,有限会社ナカウエ,,有限会社,大阪府,大阪市北区,大淀中５丁目３番２号,,27,127,5310076,,,2024-07-26,清算の結了等,,,2015-10-05,1,,,,,ナカウエ,0
1327,6140001075749,登記記録の閉鎖等,0,2024-07-30,2024-07-17,播州ホンダ販売株式会社,,株式会社,兵庫県,西脇市,下戸田６６９番地の７,,28,213,6770043,,,2024-07-17,清算の結了等,,,2015-10-05,1,,,,,バンシュウホンダハンバイ,0
1356,6180302020490,登記記録の閉鎖等,0,2024-07-30,2024-07-22,有限会社柴田製瓦所,,有限会社,愛知県,高浜市,春日町６丁目５番地１８,,23,227,4441334,,,2024-07-22,清算の結了等,,,2015-10-05,1,,,,,シバタセイガショ,0
1360,6180305006578,登記記録の閉鎖等,0,2024-07-30,2024-07-24,深見郷冨士浅間神社,,その他の設立登記法人,愛知県,豊田市,深見町細田２９６番地５,,23,211,4700441,,,2024-07-24,清算の結了等,,,2015-10-05,1,,,,,フカミゴウフジセンゲンジンジャ,0
1363,6190002015071,登記記録の閉鎖等,0,2024-07-30,2024-07-25,有限会社西邑,,有限会社,三重県,多気郡多気町,佐伯中６番地の５,,24,441,5192185,,,2024-07-25,清算の結了等,,,2015-10-05,1,,,,,ニシムラ,0
1366,6200002020078,登記記録の閉鎖等,0,2024-07-30,2024-07-26,有限会社カネ千製陶所,,有限会社,岐阜県,多治見市,滝呂町１２丁目２９番地,,21,204,5070813,,,2024-07-26,清算の結了等,,,2015-10-05,1,,,,,カネセンセイトウショ,0
1367,6200002024938,登記記録の閉鎖等,0,2024-07-30,2024-07-24,有限会社いまい,,有限会社,岐阜県,高山市,花里町６丁目２５番地,,21,203,5060026,,,2024-07-24,清算の結了等,,,2015-10-05,1,,,,,イマイ,0
1368,6200002026728,登記記録の閉鎖等,0,2024-07-30,2024-07-25,有限会社アルプ飛騨古川,00077134,有限会社,岐阜県,飛騨市,古川町数河８６３番地,,21,217,5094201,,,2024-07-25,清算の結了等,,,2015-10-05,1,,,,,アルプヒダフルカワ,0
1373,6220002002207,登記記録の閉鎖等,0,2024-07-30,2024-07-19,有限会社北安江興業,,有限会社,石川県,金沢市,北安江３丁目８番５号,,17,201,9200022,,,2024-07-19,清算の結了等,,,2015-10-05,1,,,,,キタヤスエコウギョウ,0
1377,6240002002551,登記記録の閉鎖等,0,2024-07-30,2024-07-26,有限会社エムエムサービス,,有限会社,広島県,広島市中区,江波南１丁目９番９号,,34,101,7300835,,,2024-07-26,清算の結了等,,,2015-10-05,1,,,,,エムエムサービス,0
1378,6240002034256,登記記録の閉鎖等,0,2024-07-30,2024-07-26,有限会社雅,,有限会社,広島県,呉市,押込６丁目１８番９号,,34,202,7370915,,,2024-07-26,清算の結了等,,,2015-10-05,1,,,,,ミヤビ,0
1383,6290001007225,登記記録の閉鎖等,0,2024-07-30,2024-06-27,株式会社草場建築構造計画,,株式会社,福岡県,福岡市中央区,舞鶴２丁目７番３号福岡ソニックビル６階,,40,133,8100073,,,2024-06-27,清算の結了等,,,2015-10-05,1,,,,,クサバケンチクコウゾウケイカク,0
1389,6290005018103,登記記録の閉鎖等,0,2024-07-30,2024-06-24,特定非営利活動法人ジャパンクリーンアッププロジェクト協力団体,,その他の設立登記法人,福岡県,久留米市,三潴町玉満８２９－１,,40,203,8300112,,,2024-06-24,清算の結了等,,,2021-03-01,1,,,,,ジャパンクリーンアッププロジェクトキョウリョクダンタイ,0
1392,6340001017375,登記記録の閉鎖等,0,2024-07-30,2024-07-25,株式会社未来サポート,,株式会社,鹿児島県,肝属郡東串良町,池之原１４９番地２,,46,482,8931612,,,2024-07-25,清算の結了等,,,2015-10-05,1,,,,,ミライサポート,0
1399,6380003001316,登記記録の閉鎖等,0,2024-07-30,2024-07-23,合名会社日用舍,,合名会社,福島県,いわき市,常磐湯本町天王崎１番地の８４,,07,204,9728321,,,2024-07-23,清算の結了等,,,2015-10-05,1,,,,,ニチヨウシャ,0
1404,6430001070489,登記記録の閉鎖等,0,2024-07-30,2024-07-25,株式会社ベルヴィー,,株式会社,北海道,札幌市西区,山の手六条７丁目２番１７号,,01,107,0630006,,,2024-07-25,清算の結了等,,,2015-12-24,1,,,,,ベルヴィー,0
1405,6430001081239,登記記録の閉鎖等,0,2024-07-30,2024-07-22,株式会社ミルバス,,株式会社,北海道,日高郡新ひだか町,静内末広町２丁目１２番２１号,,01,610,0560026,,,2024-07-22,清算の結了等,,,2020-04-08,1,,,,,ミルバス,0
1406,6430002058780,登記記録の閉鎖等,0,2024-07-30,2024-07-24,有限会社サンライフ,,有限会社,北海道,苫小牧市,澄川町８丁目１０番１４号,,01,213,0591271,,,2024-07-24,清算の結了等,,,2015-10-05,1,,,,,サンライフ,0
1417,7010001154424,登記記録の閉鎖等,0,2024-07-30,2024-07-16,株式会社アグリアルファ,,株式会社,東京都,千代田区,神田紺屋町２９番地１,,13,101,1010035,,,2024-07-16,清算の結了等,,,2015-10-05,1,,,,,アグリアルファ,0
1430,7010401178758,登記記録の閉鎖等,0,2024-07-30,2024-07-24,株式会社竹森工業ホールディングス,,株式会社,東京都,港区,港南２丁目１５番３号,,13,103,1080075,,,2024-07-24,合併による解散等,6040001028196,令和６年７月１日千葉県鎌ケ谷市東道野辺七丁目１８番２５号株式会社竹森工業（6040001028196）に合併し解散,2023-11-28,1,,,,,タケモリコウギョウホールディングス,0
1439,7010501009391,登記記録の閉鎖等,0,2024-07-30,2024-07-23,株式会社東京みやこ商事,,株式会社,東京都,台東区,浅草２丁目３５番１４号,,13,106,1110032,,,2024-07-23,清算の結了等,,,2015-10-05,1,,,,,トウキョウミヤコショウジ,0
1450,7010902001377,登記記録の閉鎖等,0,2024-07-30,2024-07-24,有限会社石内印刷所,,有限会社,東京都,世田谷区,等々力５丁目２２番１７号,,13,112,1580082,,,2024-07-24,清算の結了等,,,2015-10-05,1,,,,,,0
1458,7011101021357,登記記録の閉鎖等,0,2024-07-30,2024-07-25,八千代工業株式会社,,株式会社,東京都,世田谷区,成城４丁目１９番１３号,,13,112,1570066,,,2024-07-25,合併による解散等,1011101056879,令和６年６月１日東京都世田谷区成城四丁目１９番１３号株式会社ワコー商会（1011101056879）に合併し解散,2015-10-05,1,,,,,ヤチヨコウギョウ,0
1466,7011105004077,登記記録の閉鎖等,0,2024-07-30,2024-07-11,特定非営利活動法人Ｇｏｐｈｉｎ,,その他の設立登記法人,東京都,新宿区,大久保２丁目２７番１６号,,13,104,1690072,,,2024-07-11,清算の結了等,,,2015-10-05,1,,,,,ゴーフィン,0
1492,7030001016325,登記記録の閉鎖等,0,2024-07-30,2024-07-23,株式会社ＴＣメディカル,,株式会社,埼玉県,さいたま市桜区,田島４丁目２６番１１号,,11,106,3380837,,,2024-07-23,清算の結了等,,,2015-10-05,1,,,,,ティーシーメディカル,0
1502,7030002015417,登記記録の閉鎖等,0,2024-07-30,2024-07-23,有限会社岡設計,,有限会社,埼玉県,さいたま市緑区,道祖土３丁目３番１３号,,11,109,3360907,,,2024-07-23,清算の結了等,,,2015-10-05,1,,,,,オカセッケイ,0
1527,7100002008495,登記記録の閉鎖等,0,2024-07-30,2024-07-10,有限会社末広宅建センター,,有限会社,長野県,須坂市,墨坂１丁目２２番１１号,,20,207,3820099,,,2024-07-10,清算の結了等,,,2015-10-05,1,,,,,スエヒロタッケンセンター,0
1548,7120901008593,登記記録の閉鎖等,0,2024-07-30,2024-07-25,守山建設株式会社,,株式会社,大阪府,吹田市,春日１丁目２番２４号,,27,205,5650853,,,2024-07-25,清算の結了等,,,2015-10-05,1,,,,,モリヤマケンセツ,0
1557,7140001037624,登記記録の閉鎖等,0,2024-07-30,2024-07-24,株式会社スプラウト,,株式会社,兵庫県,明石市,太寺大野町２６６０番地の４,,28,203,6730843,,,2024-07-24,清算の結了等,,,2015-10-05,1,,,,,スプラウト,0
1558,7140001070303,登記記録の閉鎖等,0,2024-07-30,2024-07-25,株式会社朋生商会,,株式会社,兵庫県,西宮市,甲子園口６丁目１２番２７号,,28,204,6638113,,,2024-07-25,清算の結了等,,,2015-10-05,1,,,,,ホウセイショウカイ,0
1572,7180001104882,登記記録の閉鎖等,0,2024-07-30,2024-07-12,株式会社魚靖,,株式会社,愛知県,西春日井郡豊山町,大字豊場字八反１０７番地,,23,342,4800202,,,2024-07-12,清算の結了等,,,2015-10-05,1,,,,,ウオヤス,0
1577,7180001150290,登記記録の閉鎖等,0,2024-07-30,2024-07-12,株式会社ＣＬＳ．ｃｏｍ,,株式会社,愛知県,名古屋市緑区,相原郷２丁目６０２番地,,23,114,4580033,,,2024-07-12,清算の結了等,,,2022-03-04,1,,,,,シーエルエスドットコム,0
1590,7180301024335,登記記録の閉鎖等,0,2024-07-30,2024-07-18,株式会社インテリア・ムーブル,,株式会社,愛知県,新城市,川田字本宮道１０７番地,,23,221,4411347,,,2024-07-18,清算の結了等,,,2015-10-05,1,,,,,インテリアムーブル,0
1593,7200001024673,登記記録の閉鎖等,0,2024-07-30,2024-07-23,株式会社アスカシステムコンサルタンツ,,株式会社,岐阜県,高山市,上切町１１８番地,,21,203,5060044,,,2024-07-23,清算の結了等,,,2015-10-05,1,,,,,アスカシステムコンサルタンツ,0
1601,7240001009646,登記記録の閉鎖等,0,2024-07-30,2024-07-25,プラネートファイブ株式会社,,株式会社,広島県,広島市中区,千田町２丁目８番８号,,34,101,7300052,,,2024-07-25,清算の結了等,,,2015-10-05,1,,,,,プラネートファイブ,0
1607,7270003001466,登記記録の閉鎖等,0,2024-07-30,2024-07-26,合同会社セントラルオペレーション,,合同会社,鳥取県,日野郡日南町,佐木谷１０７５番地１,,31,401,6895541,,,2024-07-26,清算の結了等,,,2022-12-07,1,,,,,セントラルオペレーション,0
1617,7330002017960,登記記録の閉鎖等,0,2024-07-30,2024-07-18,有限会社福島装備,,有限会社,熊本県,菊池市,玉祥寺３７６番地６,,43,210,8611322,,,2024-07-18,清算の結了等,,,2015-10-05,1,,,,,フクシマソウビ,0
1633,7410002001840,登記記録の閉鎖等,0,2024-07-30,2024-07-19,有限会社サンネット秋田,,有限会社,秋田県,秋田市,茨島２丁目９番３５号,00086530,05,201,0100065,,,2024-07-19,清算の結了等,,,2015-10-05,1,,,,,サンネットアキタ,0
1634,7410002003861,登記記録の閉鎖等,0,2024-07-30,2024-07-18,有限会社吉田総業,,有限会社,秋田県,秋田市,寺内蛭根１丁目２番５号,,05,201,0110904,,,2024-07-18,清算の結了等,,,2015-10-05,1,,,,,ヨシダソウギョウ,0
1635,7410002013811,登記記録の閉鎖等,0,2024-07-30,2024-07-19,有限会社高橋製作所,,有限会社,秋田県,横手市,十文字町上鍋倉字西坊田野７番地４１,,05,203,0190507,,,2024-07-19,清算の結了等,,,2015-10-05,1,,,,,タカハシセイサクショ,0
1644,7460002004772,登記記録の閉鎖等,0,2024-07-30,2024-07-26,有限会社風牧場,,有限会社,北海道,川上郡標茶町,字熊牛原野十線東５番地９,,01,664,0883145,,,2024-07-26,清算の結了等,,,2015-10-05,1,,,,,カゼボクジョウ,0
1648,7480002001487,登記記録の閉鎖等,0,2024-07-30,2024-07-26,香川ビル有限会社,,有限会社,徳島県,徳島市,秋田町１丁目１９番地,,36,201,7700934,,,2024-07-26,清算の結了等,,,2015-10-05,1,,,,,カガワビル,0
1650,7490002004968,登記記録の閉鎖等,0,2024-07-30,2024-07-23,有限会社水島設備,,有限会社,高知県,高知市,大津乙９２３番地２２,,39,201,7815103,,,2024-07-23,清算の結了等,,,2015-10-05,1,,,,,ミズシマセツビ,0
1670,8010001193636,登記記録の閉鎖等,0,2024-07-30,2024-07-16,株式会社ＰＤ　ＤＡＹＳ,,株式会社,東京都,中央区,銀座６丁目１３番１６号銀座ＷａｌｌビルＵＦＣ５階,,13,102,1040061,,,2024-07-16,清算の結了等,,,2018-07-31,1,,,,,ピーディーデイズ,0
1678,8010401114786,登記記録の閉鎖等,0,2024-07-30,2024-07-18,株式会社フィートジャパン,,株式会社,東京都,渋谷区,桜丘町２６番１号セルリアンタワー１５階,,13,113,1500031,,,2024-07-18,清算の結了等,,,2015-10-05,1,,,,,,0
1682,8010403028902,登記記録の閉鎖等,0,2024-07-30,2024-07-08,Ｏインフラファンド３号合同会社,,合同会社,東京都,港区,元赤坂１丁目１番７号,,13,103,1070051,,,2024-07-08,清算の結了等,,,2022-11-15,1,,,,,オーインフラファンドサンゴウ,0
1697,8011003014929,登記記録の閉鎖等,0,2024-07-30,2024-07-09,合同会社ＹＯＳＨＩＮＡＮＩ,,合同会社,東京都,渋谷区,神宮前６丁目２３番４号桑野ビル２階,,13,113,1500001,,,2024-07-09,清算の結了等,,,2022-06-27,1,,,,,ヨシナニ,0
1711,8012801001952,登記記録の閉鎖等,0,2024-07-30,2024-07-22,株式会社大久保工務店,,株式会社,東京都,昭島市,中神町１３９１番地,,13,207,1960022,,,2024-07-22,清算の結了等,,,2015-10-05,1,,,,,オオクボコウムテン,0
1726,8021005010933,登記記録の閉鎖等,0,2024-07-30,2024-07-26,一般社団法人うみとやまのこどもとしょかん,,その他の設立登記法人,神奈川県,三浦郡葉山町,長柄６７７番地の４,,14,301,2400113,,,2024-07-26,清算の結了等,,,2017-04-11,1,,,,,ウミトヤマノコドモトショカン,0
1747,8040002080327,登記記録の閉鎖等,0,2024-07-30,2024-07-12,有限会社大多和商会,,有限会社,千葉県,長生郡白子町,関８５９番地の３,,12,424,2994218,,,2024-07-12,清算の結了等,,,2015-10-05,1,,,,,オオタワショウカイ,0
1757,8070001030809,登記記録の閉鎖等,0,2024-07-30,2024-07-19,ジェイコンストラクト株式会社,,株式会社,埼玉県,三郷市,彦沢１丁目１８５番地,,11,237,3410057,,,2024-07-19,合併による解散等,7070001026188,令和６年７月１９日埼玉県三郷市彦江一丁目２１２番地１２ジェイトランスポート株式会社（7070001026188）に合併し解散,2015-10-05,1,,,,,ジェイコンストラクト,0
1774,8120001197320,登記記録の閉鎖等,0,2024-07-30,2024-07-29,参天ビジネスサービス株式会社,,株式会社,大阪府,大阪市北区,大深町４番２０号,,27,127,5300011,,,2024-07-29,清算の結了等,,,2016-04-05,1,,,,,サンテンビジネスサービス,0
1790,8130001034571,登記記録の閉鎖等,0,2024-07-30,2024-07-18,株式会社桃山ブリーズ,,株式会社,京都府,宇治市,槇島町千足４１番２,,26,204,6110041,,,2024-07-18,清算の結了等,,,2015-10-05,1,,,,,モモヤマブリーズ,0
1791,8130001060238,登記記録の閉鎖等,0,2024-07-30,2024-07-25,萬華株式会社,,株式会社,京都府,京都市中京区,西ノ京冷泉町３７番地,,26,104,6048481,,,2024-07-25,清算の結了等,,,2017-07-31,1,,,,,マンカ,0
1815,8180305009067,登記記録の閉鎖等,0,2024-07-30,2024-07-08,一般社団法人鳳来山林舎,,その他の設立登記法人,愛知県,新城市,下吉田字田中１３７番地３,,23,221,4411621,,,2024-07-08,清算の結了等,,,2020-06-04,1,,,,,ホウライサンリンシャ,0
1822,8200001038227,登記記録の閉鎖等,0,2024-07-30,2024-07-25,株式会社日本もったいない研究所,,株式会社,岐阜県,美濃加茂市,島町１丁目２番７号,,21,211,5050025,,,2024-07-25,清算の結了等,,,2021-01-14,1,,,,,ニホンモッタイナイケンキュウジョ,0
1828,8220002006172,登記記録の閉鎖等,0,2024-07-30,2024-07-19,有限会社陽光産業,,有限会社,石川県,金沢市,二口町ロ１９番地,,17,201,9200051,,,2024-07-19,清算の結了等,,,2015-10-05,1,,,,,ヨウコウサンギョウ,0
1838,8250002005436,登記記録の閉鎖等,0,2024-07-30,2024-07-25,有限会社能津電機工業所,,有限会社,山口県,宇部市,大字妻崎開作８５９番地,,35,202,7590204,,,2024-07-25,清算の結了等,,,2015-10-05,1,,,,,ノヅデンキコウギョウショ,0
1847,8290002019762,登記記録の閉鎖等,0,2024-07-30,2024-06-28,有限会社日本珈琲西部流通センター,,有限会社,福岡県,福岡市中央区,谷２丁目２番２８号,,40,133,8100031,,,2024-06-28,清算の結了等,,,2015-10-05,1,,,,,ニホンコーヒーセイブリュウツウセンター,0
1852,8320001002261,登記記録の閉鎖等,0,2024-07-30,2024-07-26,株式会社ＣＦＣ,,株式会社,大分県,速見郡日出町,２４３３番地,,44,341,8791506,,,2024-07-26,清算の結了等,,,2015-10-05,1,,,,,シーエフシー,0
1855,8330002029311,登記記録の閉鎖等,0,2024-07-30,2024-07-19,有限会社力丸産業,,有限会社,熊本県,天草市,天草町高浜南２７３５番地,,43,215,8632804,,,2024-07-19,清算の結了等,,,2015-10-05,1,,,,,リキマルサンギョウ,0
1873,8410002007614,登記記録の閉鎖等,0,2024-07-30,2024-07-17,有限会社阿部板金,,有限会社,秋田県,湯沢市,表町４丁目１２番２６号,,05,207,0120827,,,2024-07-17,清算の結了等,,,2015-10-05,1,,,,,アベバンキン,0
1883,8430002046164,登記記録の閉鎖等,0,2024-07-30,2024-07-24,有限会社丸義三協土建,,有限会社,北海道,江別市,朝日町３１番地の１５,,01,217,0670024,,,2024-07-24,清算の結了等,,,2015-10-05,1,,,,,マルヨシサンキョウドケン,0
1888,8500001025112,登記記録の閉鎖等,0,2024-07-30,2024-07-23,株式会社Ｇｏ　Ｍａｘ．２４４,,株式会社,愛媛県,松山市,持田町１丁目１番１号クレアホームズ持田７０２号,,38,201,7900855,,,2024-07-23,清算の結了等,,,2023-08-07,1,,,,,ゴーマックス,0
1893,9010003025662,登記記録の閉鎖等,0,2024-07-30,2024-07-17,合同会社パンテオン,,合同会社,東京都,中央区,日本橋人形町１丁目１番５－１００３号,,13,102,1030013,,,2024-07-17,清算の結了等,,,2017-07-14,1,,,,,パンテオン,0
1897,9010401140063,登記記録の閉鎖等,0,2024-07-30,2024-07-08,株式会社ＤＤイノベーション,,株式会社,東京都,港区,南青山６丁目３番９号,,13,103,1070062,,,2024-07-08,清算の結了等,,,2018-08-08,1,,,,,ディーディーイノベーション,0
1904,9010502001932,登記記録の閉鎖等,0,2024-07-30,2024-07-18,有限会社海老原,,有限会社,東京都,台東区,浅草３丁目３６番４号和草はなれ,,13,106,1110032,,,2024-07-18,合併による解散等,7010502007964,令和６年７月１日東京都台東区浅草二丁目２２番２号株式会社和草（7010502007964）に合併し解散,2015-10-05,1,,,,,エビハラ,0
1913,9011001062714,登記記録の閉鎖等,0,2024-07-30,2024-07-25,株式会社ＡＣＣＥＬＡＩＲＥ,,株式会社,東京都,渋谷区,神宮前１丁目４番２０号,,13,113,1500001,,,2024-07-25,清算の結了等,,,2015-10-05,1,,,,,,0
1939,9013301026051,登記記録の閉鎖等,0,2024-07-30,2024-07-23,エーバリュー株式会社,,株式会社,東京都,豊島区,要町３丁目５５番４号,,13,116,1710043,,,2024-07-23,清算の結了等,,,2015-10-05,1,,,,,エーバリュー,0
1972,9050002001958,登記記録の閉鎖等,0,2024-07-30,2024-07-22,有限会社タイキ,,有限会社,茨城県,水戸市,本町３丁目１１番２７号,,08,201,3100815,,,2024-07-22,清算の結了等,,,2015-10-05,1,,,,,タイキ,0
1986,9080402019317,登記記録の閉鎖等,0,2024-07-30,2024-07-24,有限会社アイメディカルマネジメント,,有限会社,静岡県,菊川市,青葉台１丁目２番地の３,,22,224,4390012,,,2024-07-24,清算の結了等,,,2015-10-05,1,,,,,アイメディカルマネジメント,0
1993,9120001069923,登記記録の閉鎖等,0,2024-07-30,2024-07-26,株式会社フタバ,,株式会社,大阪府,大阪市北区,本庄西２丁目１７番３号,,27,127,5310073,,,2024-07-26,清算の結了等,,,2015-10-05,1,,,,,フタバ,0
1994,9120001198920,登記記録の閉鎖等,0,2024-07-30,2024-07-25,Ｉｎｐｕｔ　Ｏｕｔｐｕｔ　ＪＰ株式会社,,株式会社,大阪府,大阪市中央区,南久宝寺町３丁目２番７号９階,,27,128,5410058,,,2024-07-25,清算の結了等,,,2016-06-16,1,,,,,インプットアウトプットジェイピー,0
1998,9120001251118,登記記録の閉鎖等,0,2024-07-30,2024-07-12,武徳国際船舶供應株式会社,,株式会社,大阪府,大阪市淀川区,宮原４丁目４－２－６０７,,27,123,5320003,,,2024-07-12,清算の結了等,,,2022-12-20,1,,,,,ブトクコクサイセンパクキョウオウ,0
2002,9120002077966,登記記録の閉鎖等,0,2024-07-30,2024-07-26,有限会社アペハ,,有限会社,大阪府,守口市,寺内町２丁目８番２－４０３号,,27,209,5700056,,,2024-07-26,清算の結了等,,,2015-10-05,1,,,,,アペハ,0
2007,9130001004573,登記記録の閉鎖等,0,2024-07-30,2024-07-23,株式会社川瀬,,株式会社,京都府,京都市北区,紫竹下長目町１５番地３,,26,101,6038106,,,2024-07-23,清算の結了等,,,2015-10-05,1,,,,,カワセ,0
2008,9130001005662,登記記録の閉鎖等,0,2024-07-30,2024-07-23,株式会社洛北造園,,株式会社,京都府,京都市中京区,壬生花井町３番地,,26,104,6048873,,,2024-07-23,清算の結了等,,,2015-10-05,1,,,,,ラクホクゾウエン,0
2009,9130001021486,登記記録の閉鎖等,0,2024-07-30,2024-07-22,株式会社高橋染工場,,株式会社,京都府,京都市西京区,山田車塚町１５番地の１８,,26,111,6158238,,,2024-07-22,清算の結了等,,,2015-10-05,1,,,,,タカハシセンコウジョウ,0
2010,9130001031056,登記記録の閉鎖等,0,2024-07-30,2024-07-19,株式会社ＭＯＤＡテクノロジー,,株式会社,京都府,京都市西京区,大原野西境谷町２丁目９－２３－４０３,,26,111,6101146,,,2024-07-19,清算の結了等,,,2015-10-05,1,,,,,モーダテクノロジー,0
2022,9140002058717,登記記録の閉鎖等,0,2024-07-30,2024-07-24,有限会社ウェル,,有限会社,兵庫県,西宮市,北六甲台４丁目１９番７号,,28,204,6511413,,,2024-07-24,清算の結了等,,,2015-10-05,1,,,,,ウェル,0
2026,9180001086070,登記記録の閉鎖等,0,2024-07-30,2024-07-12,株式会社富士,,株式会社,愛知県,稲沢市,駅前２丁目９番１号,,23,220,4928143,,,2024-07-12,清算の結了等,,,2015-10-05,1,,,,,フジ,0
2041,9180003020424,登記記録の閉鎖等,0,2024-07-30,2024-07-10,合同会社オー・ディー・ケー,,合同会社,愛知県,知多郡阿久比町,大字白沢字池下１４番地３,,23,441,4702201,,,2024-07-10,清算の結了等,,,2019-10-09,1,,,,,オーディーケー,0
2046,9180302001967,登記記録の閉鎖等,0,2024-07-30,2024-07-22,有限会社中京興業,,有限会社,愛知県,岡崎市,大門５丁目６番地１,,23,202,4442135,,,2024-07-22,清算の結了等,,,2015-10-05,1,,,,,チュウキョウコウギョウ,0
2048,9190001012488,登記記録の閉鎖等,0,2024-07-30,2024-07-29,株式会社ハツトリ工房,,株式会社,三重県,桑名市,大字矢田９８番地１４,,24,205,5110821,,,2024-07-29,清算の結了等,,,2015-10-05,1,,,,,ハツトリコウボウ,0
2056,9240001062750,登記記録の閉鎖等,0,2024-07-30,2024-07-24,株式会社雅工業,,株式会社,広島県,呉市,広本町３丁目１５番３－３０６号,,34,202,7370125,,,2024-07-24,清算の結了等,,,2024-02-05,1,,,,,ミヤビコウギョウ,0
2072,9320002011319,登記記録の閉鎖等,0,2024-07-30,2024-07-26,有限会社黒田商店,,有限会社,大分県,別府市,大字鶴見４０１４番地の４７,,44,202,8740840,,,2024-07-26,清算の結了等,,,2015-10-05,1,,,,,クロダショウテン,0
2089,9450001000532,登記記録の閉鎖等,0,2024-07-30,2024-07-25,株式会社臼杵特殊塗裝,,株式会社,北海道,旭川市,永山北二条６丁目１番３号,,01,204,0798452,,,2024-07-25,清算の結了等,,,2015-10-05,1,,,,,,0
