sequenceNumber,corporateNumber,process,correct,updateDate,changeDate,name,nameImageId,kind,prefectureName,cityName,streetNumber,addressImageId,prefectureCode,cityCode,postCode,addressOutside,addressOutsideImageId,closeDate,closeCause,successorCorporateNumber,changeCause,assignmentDate,latest,enName,enPrefectureName,enCityName,enAddressOutside,furigana,hihyoji
9,1010001225016,新規,0,2022-03-11,2022-03-11,株式会社あいら,,株式会社,東京都,千代田区,外神田６丁目１５番１４号外神田ストークビル４２０,,13,101,1010021,,,,,,,2022-03-11,1,,,,,アイラ,0
10,1010001225172,新規,0,2022-03-11,2022-03-11,株式会社ＮＡＶＹ,,株式会社,東京都,大島町,元町１丁目１番１号,,13,361,1000101,,,,,,,2022-03-11,1,,,,,ネイビー,0
17,1010401166041,新規,0,2022-03-11,2022-03-11,株式会社ツクリテ,,株式会社,東京都,港区,新橋５丁目１２番１１号天翔新橋５丁目ビル,,13,103,1050004,,,,,,,2022-03-11,1,,,,,ツクリテ,0
18,1010401166116,新規,0,2022-03-11,2022-03-11,株式会社ＶｉｒｔｕａｌＳｔｕｄｉｏ,,株式会社,東京都,港区,麻布十番２丁目１２番１０号,,13,103,1060045,,,,,,,2022-03-11,1,,,,,バーチャルスタジオ,0
19,1010401166132,新規,0,2022-03-11,2022-03-11,ＳＵＩ　Ｉｎｖｅｓｔｍｅｎｔ株式会社,,株式会社,東京都,港区,西麻布２丁目２５番２０－９０３号,,13,103,1060031,,,,,,,2022-03-11,1,,,,,エスユーアイインベストメント,0
23,1010505003297,新規,0,2022-03-11,2022-03-11,一般社団法人地域みらい共創機構,,その他の設立登記法人,東京都,台東区,雷門２丁目２０番３号アクアテルースＵＩＩ８階,00125937,13,106,1110034,,,,,,,2022-03-11,1,,,,,チイキミライキョウソウキコウ,0
27,1010605004055,新規,0,2022-03-11,2022-03-11,医療法人社団和乃音,,その他の設立登記法人,東京都,江東区,亀戸６丁目５７番２０号亀戸東口駅前ビル２階,,13,108,1360071,,,,,,,2022-03-11,1,,,,,ワノオト,0
31,1010701042355,新規,0,2022-03-11,2022-03-11,ＫＳＫ　Ｐｌｕｓ株式会社,,株式会社,東京都,品川区,東品川２丁目３番１５号シーフォートタワー１００８号,,13,109,1400002,,,,,,,2022-03-11,1,,,,,ケーエスケープラス,0
32,1010701042363,新規,0,2022-03-11,2022-03-11,株式会社ｗａｖｅ,,株式会社,東京都,品川区,荏原６丁目１４－１２ロゾーパンサン２０１,,13,109,1420063,,,,,,,2022-03-11,1,,,,,ウェイブ,0
42,1011003014316,新規,0,2022-03-11,2022-03-11,Ｃｏｃｏ　ｈａｍｈａｍ合同会社,,合同会社,東京都,渋谷区,神宮前６丁目２３番４号,,13,113,1500001,,,,,,,2022-03-11,1,,,,,ココハムハム,0
43,1011003014324,新規,0,2022-03-11,2022-03-11,渋谷プロップファーム合同会社,,合同会社,東京都,渋谷区,恵比寿４丁目２０－３恵比寿ガーデンプレイスタワー１８階,,13,113,1500013,,,,,,,2022-03-11,1,,,,,シブヤプロップファーム,0
44,1011003014357,新規,0,2022-03-11,2022-03-11,合同会社セントラル,,合同会社,東京都,渋谷区,恵比寿西１丁目９番６号,,13,113,1500021,,,,,,,2022-03-11,1,,,,,セントラル,0
45,1011005009479,新規,0,2022-03-11,2022-03-11,一般社団法人ＭＡＳＨＩＮＧ　ＵＰ,,その他の設立登記法人,東京都,渋谷区,円山町２３番２号,,13,113,1500044,,,,,,,2022-03-11,1,,,,,マッシングアップ,0
46,1011005009495,新規,0,2022-03-11,2022-03-11,一般社団法人セントラル,,その他の設立登記法人,東京都,渋谷区,恵比寿西１丁目９番６号,,13,113,1500021,,,,,,,2022-03-11,1,,,,,セントラル,0
53,1011105010155,新規,0,2022-03-11,2022-03-11,一般社団法人ケアラーワークス,,その他の設立登記法人,東京都,新宿区,新宿１丁目１８番１０号,,13,104,1600022,,,,,,,2022-03-11,1,,,,,ケアラーワークス,0
54,1011201023696,新規,0,2022-03-11,2022-03-11,株式会社ＴＡＩＲＡプロジェクト,,株式会社,東京都,中野区,鷺宮１丁目２３番８号スカイハイツ鷺宮１０１,,13,114,1650032,,,,,,,2022-03-11,1,,,,,タイラプロジェクト,0
59,1011501027835,新規,0,2022-03-11,2022-03-11,株式会社Ｒｉｎ　Ｒｏａｄ,,株式会社,東京都,荒川区,南千住２丁目１４番１０号,,13,118,1160003,,,,,,,2022-03-11,1,,,,,リンロード,0
60,1011503005104,新規,0,2022-03-11,2022-03-11,合同会社ペタクリエイト,,合同会社,東京都,北区,赤羽２丁目３５番１１－１０３号アロー壱番館,,13,117,1150045,,,,,,,2022-03-11,1,,,,,ペタクリエイト,0
74,1020001145618,新規,0,2022-03-11,2022-03-11,株式会社アリーナ,,株式会社,神奈川県,川崎市中原区,中丸子１３番地１０リエトコート武蔵小杉ザ・クラッシィタワー４０４,,14,133,2110012,,,,,,,2022-03-11,1,,,,,アリーナ,0
79,1020003021429,新規,0,2022-03-11,2022-03-11,合同会社明章設計,,合同会社,神奈川県,横浜市神奈川区,西神奈川１丁目９－６,,14,102,2210822,,,,,,,2022-03-11,1,,,,,メイショウセッケイ,0
82,1030001147183,新規,0,2022-03-11,2022-03-11,Ｔｏｔａｌ　ｓｅｗａ株式会社,,株式会社,埼玉県,志木市,本町５丁目２３番２４号第３本吉ビル４０３号室,,11,228,3530004,,,,,,,2022-03-11,1,,,,,トータルセワ,0
83,1030001147209,新規,0,2022-03-11,2022-03-11,株式会社スマイルサービス,,株式会社,埼玉県,春日部市,小渕１４９６番地２,,11,214,3440007,,,,,,,2022-03-11,1,,,,,スマイルサービス,0
84,1030001147225,新規,0,2022-03-11,2022-03-11,山王ホールディングス株式会社,,株式会社,埼玉県,和光市,中央２丁目３番７号,,11,229,3510113,,,,,,,2022-03-11,1,,,,,サンノウホールディングス,0
85,1030001147233,新規,0,2022-03-11,2022-03-11,株式会社子言,,株式会社,埼玉県,坂戸市,芦山町２－５プライムアークビル４０３号,,11,239,3500273,,,,,,,2022-03-11,1,,,,,シゲン,0
102,1050003006427,新規,0,2022-03-11,2022-03-11,合同会社藤一郎,,合同会社,茨城県,笠間市,大田町７８番地１,,08,216,3091738,,,,,,,2022-03-11,1,,,,,トウイチロウ,0
106,1060003003976,新規,0,2022-03-11,2022-03-11,ＫＥＮＧＯＯ合同会社,,合同会社,栃木県,さくら市,卯の里４丁目５６番地１アザレヤサンハイムＡ２０４,,09,214,3291323,,,,,,,2022-03-11,1,,,,,ケングー,0
110,1070001039039,新規,0,2022-03-11,2022-03-11,ぱるもーど株式会社,,株式会社,群馬県,高崎市,棟高町１８０２番地１７,,10,202,3703521,,,,,,,2022-03-11,1,,,,,パルモード,0
111,1070003004412,新規,0,2022-03-11,2022-03-11,合同会社ＲＫＣ　ＧＲＯＵＰ,,合同会社,群馬県,北群馬郡榛東村,大字新井３５５４番地３,,10,344,3703503,,,,,,,2022-03-11,1,,,,,アールケーシーグループ,0
112,1070005009962,新規,0,2022-03-11,2022-03-11,アイ・リンク協同組合,,その他の設立登記法人,群馬県,太田市,大原町２４４８番地１,,10,205,3792304,,,,,,,2022-03-11,1,,,,,アイリンク,0
119,1080101023148,新規,0,2022-03-11,2022-03-11,宏岩株式会社,,株式会社,静岡県,沼津市,大岡８８５番地の７,,22,203,4100022,,,,,,,2022-03-11,1,,,,,コウガン,0
123,1080401025678,新規,0,2022-03-11,2022-03-11,不動産アシスト株式会社,,株式会社,静岡県,浜松市中区,助信町８番６２号,,22,131,4300903,,,,,,,2022-03-11,1,,,,,フドウサンアシスト,0
124,1090003002059,新規,0,2022-03-11,2022-03-11,合同会社国安,,合同会社,山梨県,甲府市,横根町８１番地１,,19,201,4000802,,,,,,,2022-03-11,1,,,,,,0
129,1100003006454,新規,0,2022-03-11,2022-03-11,合同会社ＡＬＩＣＥＴＯＲＳＩＯＮ,,合同会社,長野県,須坂市,南小河原町１２３－１,,20,207,3820000,,,,,,,2022-03-11,1,,,,,アリストーション,0
150,1120001244401,新規,0,2022-03-11,2022-03-11,株式会社ＨＴＮ企画,,株式会社,大阪府,大阪市浪速区,大国２丁目１番７号サンエイハイツ大国２－８０４,,27,111,5560014,,,,,,,2022-03-11,1,,,,,エイチティーエヌキカク,0
151,1120001244442,新規,0,2022-03-11,2022-03-11,株式会社ＢｕｂｂＬｅ,,株式会社,大阪府,守口市,大久保町４丁目４－１７,,27,209,5700012,,,,,,,2022-03-11,1,,,,,バブル,0
152,1120001244459,新規,0,2022-03-11,2022-03-11,株式会社湯煮温,,株式会社,大阪府,大阪市浪速区,恵美須東１丁目１６番１７号,,27,111,5560002,,,,,,,2022-03-11,1,,,,,ユニオン,0
156,1120101065210,新規,0,2022-03-11,2022-03-11,株式会社Ｓａｍ　Ｐｒａｔｔ,,株式会社,大阪府,堺市堺区,車之町西２丁２番３２号ロイヤルコートビルＩＩＩ６０５号,00125936,27,141,5900940,,,,,,,2022-03-11,1,,,,,サムプラット,0
161,1120103004604,新規,0,2022-03-11,2022-03-11,合同会社ワールドスター,,合同会社,大阪府,泉佐野市,松原３丁目１－１０,,27,213,5980045,,,,,,,2022-03-11,1,,,,,ワールドスター,0
164,1120901045709,新規,0,2022-03-11,2022-03-11,天海閣株式会社,,株式会社,大阪府,茨木市,山手台新町２丁目２０番５号,,27,211,5670010,,,,,,,2022-03-11,1,,,,,テンカイカク,0
168,1130001071340,新規,0,2022-03-11,2022-03-11,アールサイクルトレーディング株式会社,,株式会社,京都府,京都市伏見区,久我西出町９番１３,,26,109,6128496,,,,,,,2022-03-11,1,,,,,アールサイクルトレーディング,0
171,1140001125228,新規,0,2022-03-11,2022-03-11,株式会社森弘工業,,株式会社,兵庫県,姫路市,飾磨区阿成植木６４０番地,,28,201,6728030,,,,,,,2022-03-11,1,,,,,モリヒロコウギョウ,0
173,1140003017448,新規,0,2022-03-11,2022-03-11,合同会社ふくろう,,合同会社,兵庫県,たつの市,龍野町島田７５０番地１サンライフ龍野４０４号室,,28,229,6794121,,,,,,,2022-03-11,1,,,,,フクロウ,0
178,1170003001696,新規,0,2022-03-11,2022-03-11,合同会社サステナビリティ・インスティテュート,,合同会社,和歌山県,和歌山市,鷹匠町１丁目１８番地６,,30,201,6408135,,,,,,,2022-03-11,1,,,,,サスティナビリティインスティテュート,0
200,1240001059457,新規,0,2022-03-11,2022-03-11,株式会社Ｙ＆Ｅ,,株式会社,広島県,広島市東区,中山中町２１番１９－５号ＭＩグランツＢ棟,,34,102,7320026,,,,,,,2022-03-11,1,,,,,ワイアンドイー,0
202,1240005015357,新規,0,2022-03-11,2022-03-11,医療法人七心海,,その他の設立登記法人,広島県,広島市中区,八丁堀１番１２号マスキ八丁堀ビル３Ｆ,,34,101,7300013,,,,,,,2022-03-11,1,,,,,ナゴミ,0
212,1290003012260,新規,0,2022-03-11,2022-03-11,合同会社そらとうみ,,合同会社,福岡県,福岡市博多区,博多駅前３丁目７番３５号博多ハイテックビル５０５,,40,132,8120011,,,,,,,2022-03-11,1,,,,,ソラトウミ,0
214,1310003004305,新規,0,2022-03-11,2022-03-11,合同会社ＭＩＫＡＴＡ,,合同会社,長崎県,長崎市,大黒町１０番１０号ＫｏＫｏＲｏビル６ＥＮ号,,42,201,8500057,,,,,,,2022-03-11,1,,,,,ミカタ,0
215,1330001029533,新規,0,2022-03-11,2022-03-11,株式会社プライムホールディングス,,株式会社,熊本県,熊本市中央区,下通２丁目４番５号ア・フィールド下通２０２号,,43,101,8600807,,,,,,,2022-03-11,1,,,,,プライムホールディングス,0
216,1330003009285,新規,0,2022-03-11,2022-03-11,合同会社５８カンパニー,,合同会社,熊本県,菊池市,泗水町住吉２８０２,,43,210,8611203,,,,,,,2022-03-11,1,,,,,ゴーハチカンパニー,0
219,1340003003733,新規,0,2022-03-11,2022-03-11,合同会社島人ぷらざ,,合同会社,鹿児島県,大島郡和泊町,大字和泊１２４１番地,,46,533,8919112,,,,,,,2022-03-11,1,,,,,シマンチュプラザ,0
222,1360001030125,新規,0,2022-03-11,2022-03-11,アイスオアシス浦添株式会社,,株式会社,沖縄県,浦添市,仲間１丁目２番２号１０３号室,,47,208,9012103,,,,,,,2022-03-11,1,,,,,アイスオアシスウラソエ,0
239,1400005008220,新規,0,2022-03-11,2022-03-11,一般社団法人平泉町スポーツ協会,,その他の設立登記法人,岩手県,西磐井郡平泉町,平泉字志羅山４５番地２,,03,402,0294102,,,,,,,2022-03-11,1,,,,,ヒライズミチョウスポーツキョウカイ,0
249,1430003013707,新規,0,2022-03-11,2022-03-11,ニセコオフィス合同会社,,合同会社,北海道,虻田郡ニセコ町,字富士見１６４番地５２,,01,395,0481501,,,,,,,2022-03-11,1,,,,,ニセコオフィス,0
253,1460101007161,新規,0,2022-03-11,2022-03-11,株式会社ＹＯＴＵＭＯＫＵ‐ｓｉｄｅ,,株式会社,北海道,帯広市,西六条南２８丁目１３番地１,,01,207,0800016,,,,,,,2022-03-11,1,,,,,ヨツモクサイド,0
269,2010001225015,新規,0,2022-03-11,2022-03-11,株式会社Ｃｒｅａｔｉｖｅ　Ｇｒｅｅｎ,,株式会社,東京都,中央区,新川１丁目２９番１０号,,13,102,1040033,,,,,,,2022-03-11,1,,,,,クリエイティヴグリーン,0
272,2010401166107,新規,0,2022-03-11,2022-03-11,ライトスターコンサルティング株式会社,,株式会社,東京都,港区,芝浦１丁目６番４１－７０９号,,13,103,1050023,,,,,,,2022-03-11,1,,,,,ライトスターコンサルティング,0
273,2010401166115,新規,0,2022-03-11,2022-03-11,株式会社Ａｃｒｏ‐ｍｕｓｉｃ,,株式会社,東京都,港区,麻布十番２丁目１２番１０号,,13,103,1060045,,,,,,,2022-03-11,1,,,,,アクロミュージック,0
274,2010401166131,新規,0,2022-03-11,2022-03-11,Ｄｏｃｏｎｏｍｙ株式会社,,株式会社,東京都,港区,虎ノ門４丁目１番１号,,13,103,1050001,,,,,,,2022-03-11,1,,,,,ドコノミー,0
279,2010603009435,新規,0,2022-03-11,2022-03-11,合同会社国際企業交流協会,,合同会社,東京都,江東区,平野１丁目１０番６号,,13,108,1350023,,,,,,,2022-03-11,1,,,,,コクサイキギョウコウリュウキョウカイ,0
293,2011001146184,新規,0,2022-03-11,2022-03-11,ＢＩＳＨＮＵ　ＭＡＴＩ株式会社,,株式会社,東京都,渋谷区,笹塚１丁目７－１１メジンドブロシュ２０３,,13,113,1510073,,,,,,,2022-03-11,1,,,,,ビシュヌマティ,0
299,2011103011534,新規,0,2022-03-11,2022-03-11,ＳＨＷＥ＆ＭＹＡ合同会社,,合同会社,東京都,新宿区,百人町１丁目１６番２８号,,13,104,1690073,,,,,,,2022-03-11,1,,,,,シュエアンドミャー,0
300,2011301027621,新規,0,2022-03-11,2022-03-11,株式会社ＤＲＵＮＫ　ＨＥＲＯ,,株式会社,東京都,杉並区,本天沼２丁目３２番１５号,,13,115,1670031,,,,,,,2022-03-11,1,,,,,ドランクヒーロー,0
301,2011401024097,新規,0,2022-03-11,2022-03-11,株式会社ＺＥＲＯ　ＯＮＥ,,株式会社,東京都,板橋区,仲宿４７番１７号,,13,119,1730005,,,,,,,2022-03-11,1,,,,,ゼロワン,0
306,2011801040438,新規,0,2022-03-11,2022-03-11,ＲＩＴＺ株式会社,,株式会社,東京都,足立区,千住１丁目３－３カネダビル２階,,13,121,1200034,,,,,,,2022-03-11,1,,,,,リッツ,0
307,2011803005001,新規,0,2022-03-11,2022-03-11,合同会社アグリウェルスファーム,,合同会社,東京都,足立区,入谷９丁目５番１０号,,13,121,1210836,,,,,,,2022-03-11,1,,,,,アグリウェルスファーム,0
309,2012405004713,新規,0,2022-03-11,2022-03-11,医療法人社団晃誠医会,,その他の設立登記法人,東京都,稲城市,矢野口７３０番地１ＫＫインテリジェントマンション１階,,13,225,2060812,,,,,,,2022-03-11,1,,,,,コウセイイカイ,0
313,2013101008859,新規,0,2022-03-11,2022-03-11,株式会社ＨＩＤＡＭＡＲＩ,,株式会社,東京都,あきる野市,雨間７５３番地１６,,13,228,1970825,,,,,,,2022-03-11,1,,,,,,0
325,2020001145583,新規,0,2022-03-11,2022-03-11,株式会社ＲＩＳＥ＆ＳＵＮ,,株式会社,神奈川県,横浜市鶴見区,上末吉１丁目１２番地１２,,14,101,2300011,,,,,,,2022-03-11,1,,,,,ライズアンドサン,0
329,2021001075408,新規,0,2022-03-11,2022-03-11,株式会社創夢,,株式会社,神奈川県,横須賀市,佐原１丁目９番１１号,,14,201,2390835,,,,,,,2022-03-11,1,,,,,ソウム,0
334,2030001147100,新規,0,2022-03-11,2022-03-11,株式会社ＫＡＮＤＥＬ　ＡＰＲ　ＣＯＲＰＯＲＡＴＩＯＮ,,株式会社,埼玉県,ふじみ野市,鶴ケ舞１丁目２０番８号,,11,245,3560041,,,,,,,2022-03-11,1,,,,,カンデルエーピーアールコーポレーション,0
335,2030001147224,新規,0,2022-03-11,2022-03-11,株式会社ＵＮＩＣＲＡＦＴ,,株式会社,埼玉県,さいたま市桜区,栄和１丁目１５番３－３号,,11,106,3380823,,,,,,,2022-03-11,1,,,,,ユニクラフト,0
336,2030001147232,新規,0,2022-03-11,2022-03-11,株式会社ＳＥＮＱ,,株式会社,埼玉県,富士見市,大字東大久保３８２０,,11,235,3540001,,,,,,,2022-03-11,1,,,,,センク,0
349,2040003019651,新規,0,2022-03-11,2022-03-11,合同会社ＫＭＡＥ,,合同会社,千葉県,市川市,福栄４丁目２３番９号,,12,203,2720137,,,,,,,2022-03-11,1,,,,,ケイエムエーイー,0
355,2050003006426,新規,0,2022-03-11,2022-03-11,ｆｉｓｈ合同会社,,合同会社,茨城県,筑西市,乙３２６番地６,,08,227,3080041,,,,,,,2022-03-11,1,,,,,フィッシュ,0
358,2060001034642,新規,0,2022-03-11,2022-03-11,株式会社ワイアンドエス,,株式会社,栃木県,宇都宮市,今宮２丁目１５番２号,,09,201,3210166,,,,,,,2022-03-11,1,,,,,ワイアンドエス,0
359,2060005009954,新規,0,2022-03-11,2022-03-11,特定非営利活動法人足利歴史まちづくりの会,,その他の設立登記法人,栃木県,足利市,大岩町２６４番地,,09,202,3260841,,,,,,,2022-03-11,1,,,,,アシカガレキシマチヅクリノカイ,0
361,2070001039038,新規,0,2022-03-11,2022-03-11,株式会社ヴァールダイニング,,株式会社,群馬県,太田市,東新町１６９番地２,,10,205,3730015,,,,,,,2022-03-11,1,,,,,ヴァールダイニング,0
362,2070002026712,新規,0,2022-03-11,2022-03-11,原沢興業有限会社,,有限会社,群馬県,渋川市,渋川３７０７番地の２３,,10,208,3770008,,,,,,,2022-03-11,1,,,,,ハラサワコウギョウ,0
363,2070003004411,新規,0,2022-03-11,2022-03-11,合同会社Ｓｕｎ　Ｍｏｏｎ,,合同会社,群馬県,伊勢崎市,曲沢町７３番地２,,10,204,3792203,,,,,,,2022-03-11,1,,,,,サンムーン,0
365,2080005007436,新規,0,2022-03-11,2022-03-11,静岡ＤＸサポート協同組合,,その他の設立登記法人,静岡県,静岡市葵区,人宿町１丁目１番地の１０,,22,101,4200037,,,,,,,2022-03-11,1,,,,,シズオカディーエックスサポート,0
366,2080101023147,新規,0,2022-03-11,2022-03-11,株式会社シェノン,,株式会社,静岡県,伊東市,川奈１４２７番地の１７－２０１号,,22,208,4140044,,,,,,,2022-03-11,1,,,,,シェノン,0
370,2090001017470,新規,0,2022-03-11,2022-03-11,Ａ．Ｃ．Ｅ．株式会社,,株式会社,山梨県,笛吹市,石和町広瀬７１７番地１,,19,211,4060035,,,,,,,2022-03-11,1,,,,,エーシーイー,0
371,2090003002058,新規,0,2022-03-11,2022-03-11,合同会社ＷｉＫｉＭ,,合同会社,山梨県,甲府市,宝１丁目４番２７号マンゲンマンション２０６,,19,201,4000034,,,,,,,2022-03-11,1,,,,,ウィキム,0
376,2110001036492,新規,0,2022-03-11,2022-03-11,アセット株式会社,,株式会社,新潟県,五泉市,石曽根７２３８番地１８,,15,218,9591701,,,,,,,2022-03-11,1,,,,,アセット,0
396,2120001244359,新規,0,2022-03-11,2022-03-11,株式会社ＭＩＩ　ＬＩＦＥ　ＡＧＥＮＴ,,株式会社,大阪府,大阪市西区,新町３丁目２番１８号ＴＭビル３階,,27,106,5500013,,,,,,,2022-03-11,1,,,,,ミーライフエージェント,0
397,2120001244417,新規,0,2022-03-11,2022-03-11,ＫＬコンシェルジュ株式会社,,株式会社,大阪府,大阪市鶴見区,諸口３丁目３番７６号,,27,124,5380051,,,,,,,2022-03-11,1,,,,,ケーエルコンシェルジュ,0
398,2120001244425,新規,0,2022-03-11,2022-03-11,株式会社笠井コーポレーション,,株式会社,大阪府,大阪市中央区,本町２丁目３番４号アソルティ本町４Ｆ,,27,128,5410053,,,,,,,2022-03-11,1,,,,,カサイコーポレーション,0
402,2120003021269,新規,0,2022-03-11,2022-03-11,合同会社ｓａｋｕｒａ,,合同会社,大阪府,枚方市,東山１丁目７番地の７,,27,210,5731114,,,,,,,2022-03-11,1,,,,,サクラ,0
403,2120003021277,新規,0,2022-03-11,2022-03-11,合同会社わしら,,合同会社,大阪府,大阪市北区,梅田１丁目１－３大阪駅前第３ビル２９階１－１－１号室,,27,127,5300001,,,,,,,2022-03-11,1,,,,,ワシラ,0
413,2130005016407,新規,0,2022-03-11,2022-03-11,一般社団法人縁,,その他の設立登記法人,京都府,京都市北区,小山下総町３５番地コーポ紫明４０１,,26,101,6038151,,,,,,,2022-03-11,1,,,,,エン,0
418,2140001125235,新規,0,2022-03-11,2022-03-11,株式会社ダイキュウ,,株式会社,兵庫県,神戸市北区,緑町８丁目１番１２－２０４号,,28,109,6511221,,,,,,,2022-03-11,1,,,,,ダイキュウ,0
419,2140001125251,新規,0,2022-03-11,2022-03-11,株式会社Ｎフーズ,,株式会社,兵庫県,神戸市兵庫区,塚本通５丁目１番１３号,,28,105,6520804,,,,,,,2022-03-11,1,,,,,,0
420,2140003017447,新規,0,2022-03-11,2022-03-11,ＫＮＧ合同会社,,合同会社,兵庫県,尼崎市,南塚口町２丁目３５番２号フローラルコート２０３号,,28,202,6610012,,,,,,,2022-03-11,1,,,,,ケーエヌジー,0
433,2180001150386,新規,0,2022-03-11,2022-03-11,株式会社ＬｉｎｇＨａｉ,,株式会社,愛知県,名古屋市昭和区,狭間町３３番地の２,,23,107,4660062,,,,,,,2022-03-11,1,,,,,リィンカイ,0
438,2180003023598,新規,0,2022-03-11,2022-03-11,ｉＥｉラボ合同会社,,合同会社,愛知県,名古屋市中区,大須１丁目７ー１４パークＩＭビル２階,,23,106,4600011,,,,,,,2022-03-11,1,,,,,アイイーアイラボ,0
454,2240005015356,新規,0,2022-03-11,2022-03-11,一般社団法人広島スケートボード協会,,その他の設立登記法人,広島県,広島市中区,三川町３番１２号,,34,101,7300029,,,,,,,2022-03-11,1,,,,,ヒロシマスケートボードキョウカイ,0
468,2290801028333,新規,0,2022-03-11,2022-03-11,株式会社ＬＣ商会,,株式会社,福岡県,宮若市,原田１４１８－１,,40,226,8220112,,,,,,,2022-03-11,1,,,,,エルシーショウカイ,0
469,2300003001806,新規,0,2022-03-11,2022-03-11,フジ企画合同会社,,合同会社,佐賀県,佐賀市,東佐賀町６番５号,,41,201,8400821,,,,,,,2022-03-11,1,,,,,フジキカク,0
470,2310001017761,新規,0,2022-03-11,2022-03-11,株式会社エルモーサ,,株式会社,長崎県,長崎市,緑が丘町１番６４号,,42,201,8528033,,,,,,,2022-03-11,1,,,,,,0
471,2330003009284,新規,0,2022-03-11,2022-03-11,合同会社Ｎｅｗプラン,,合同会社,熊本県,熊本市東区,保田窪本町１１番１４号,,43,102,8620925,,,,,,,2022-03-11,1,,,,,ニュープラン,0
474,2340001024565,新規,0,2022-03-11,2022-03-11,株式会社みらい,,株式会社,鹿児島県,大島郡龍郷町,赤尾木９０３番地,,46,527,8940411,,,,,,,2022-03-11,1,,,,,ミライ,0
476,2340005009422,新規,0,2022-03-11,2022-03-11,医療法人碧青会,,その他の設立登記法人,鹿児島県,鹿児島市,中央町３番１号第１ＮＴビル４Ｆ,,46,201,8900053,,,,,,,2022-03-11,1,,,,,ヘキセイカイ,0
482,2370001048306,新規,0,2022-03-11,2022-03-11,ノースオウル株式会社,,株式会社,宮城県,大崎市,古川駅前大通６丁目４番１７号,,04,215,9896162,,,,,,,2022-03-11,1,,,,,ノースオウル,0
487,2410003003626,新規,0,2022-03-11,2022-03-11,合同会社瑞穂農園,,合同会社,秋田県,仙北郡美郷町,飯詰字東川原１６番地,,05,434,0191234,,,,,,,2022-03-11,1,,,,,ミズホノウエン,0
491,2430001086092,新規,0,2022-03-11,2022-03-11,ごとう農園株式会社,,株式会社,北海道,虻田郡真狩村,字川崎２８２番地３,,01,396,0481623,,,,,,,2022-03-11,1,,,,,ゴトウノウエン,0
492,2430001086191,新規,0,2022-03-11,2022-03-11,株式会社ＨＫＤ,,株式会社,北海道,札幌市白石区,南郷通１２丁目南６番６－４０１号,,01,104,0030022,,,,,,,2022-03-11,1,,,,,エイチケーディー,0
497,2460105002232,新規,0,2022-03-11,2022-03-11,医療法人慎陽会,,その他の設立登記法人,北海道,帯広市,西十六条南６丁目３１番１６号,,01,207,0800026,,,,,,,2022-03-11,1,,,,,シンヨウカイ,0
512,3010001225146,新規,0,2022-03-11,2022-03-11,アルカナコーポレーション株式会社,,株式会社,東京都,中央区,銀座１丁目２２番１１号銀座大竹ビジデンス２階,,13,102,1040061,,,,,,,2022-03-11,1,,,,,アルカナコーポレーション,0
513,3010001225162,新規,0,2022-03-11,2022-03-11,株式会社蒼総合研究所,,株式会社,東京都,文京区,湯島３丁目２０番６－２０７号,,13,105,1130034,,,,,,,2022-03-11,1,,,,,アオソウゴウケンキュウジョ,0
514,3010003037201,新規,0,2022-03-11,2022-03-11,合同会社ラボテク,,合同会社,東京都,千代田区,東神田２丁目７番４－３０５,,13,101,1010031,,,,,,,2022-03-11,1,,,,,ラボテク,0
529,3010401166130,新規,0,2022-03-11,2022-03-11,理想資産株式会社,,株式会社,東京都,港区,南青山４丁目１５－４,,13,103,1070062,,,,,,,2022-03-11,1,,,,,リソウシサン,0
531,3010403027248,新規,0,2022-03-11,2022-03-11,合同会社エスアールディーエム,,合同会社,東京都,港区,赤坂２丁目１０番５号税理士法人赤坂国際会計事務所内,,13,103,1070052,,,,,,,2022-03-11,1,,,,,エスアールディーエム,0
532,3010403027264,新規,0,2022-03-11,2022-03-11,合同会社四色商店,,合同会社,東京都,港区,南青山３丁目８－６,,13,103,1070062,,,,,,,2022-03-11,1,,,,,ヨンシキショウテン,0
534,3010405020787,新規,0,2022-03-11,2022-03-11,多摩３特定目的会社,,その他の設立登記法人,東京都,港区,東新橋１丁目５番２号汐留シティセンター,,13,103,1050021,,,,,,,2022-03-11,1,,,,,タマスリー,0
538,3010903007204,新規,0,2022-03-11,2022-03-11,合同会社Ｓ‐ｌｉｎｅ　Ｂｅａｕｔｙ,,合同会社,東京都,世田谷区,南烏山５丁目１６番２０号鴨志田ビル３０３,,13,112,1570062,,,,,,,2022-03-11,1,,,,,エスラインビューティ,0
546,3011001146233,新規,0,2022-03-11,2022-03-11,株式会社ドリームマネージャー,,株式会社,東京都,渋谷区,恵比寿４丁目２０番３号,,13,113,1500013,,,,,,,2022-03-11,1,,,,,ドリームマネージャー,0
553,3011101098052,新規,0,2022-03-11,2022-03-11,株式会社ＮＮＰ,,株式会社,東京都,新宿区,歌舞伎町２丁目１９番１０号,,13,104,1600021,,,,,,,2022-03-11,1,,,,,エヌエヌピー,0
556,3011303004337,新規,0,2022-03-11,2022-03-11,合同会社飛翔舎,,合同会社,東京都,杉並区,荻窪３丁目１６番１６号,,13,115,1670051,,,,,,,2022-03-11,1,,,,,ヒショウシャ,0
558,3011503005102,新規,0,2022-03-11,2022-03-11,合同会社ＭＯＳＡＫＵ,,合同会社,東京都,荒川区,西尾久８丁目５０番８号,,13,118,1160011,,,,,,,2022-03-11,1,,,,,モサク,0
561,3011803005000,新規,0,2022-03-11,2022-03-11,合同会社アップ,,合同会社,東京都,葛飾区,東水元２丁目１０－２２－２０５,,13,122,1250033,,,,,,,2022-03-11,1,,,,,アップ,0
562,3012405004704,新規,0,2022-03-11,2022-03-11,一般社団法人国際メイクアップデザイン協会,,その他の設立登記法人,東京都,多摩市,桜ヶ丘２丁目３８－９,,13,224,2060013,,,,,,,2022-03-11,1,,,,,コクサイメイクアップデザインキョウカイ,0
573,3020003021451,新規,0,2022-03-11,2022-03-11,合同会社Ｋドリーム,,合同会社,神奈川県,横浜市磯子区,森３丁目１９－２７東山ビル２０３,,14,107,2350023,,,,,,,2022-03-11,1,,,,,ケイドリーム,0
600,3030003019016,新規,0,2022-03-11,2022-03-11,合同会社ｋｉｕｃｈｉ,,合同会社,埼玉県,川口市,元郷２丁目２番６－１１１６号,,11,203,3320011,,,,,,,2022-03-11,1,,,,,キウチ,0
605,3040001122563,新規,0,2022-03-11,2022-03-11,株式会社えるチャンス,,株式会社,千葉県,千葉市稲毛区,稲毛東５丁目４番８号,,12,103,2630031,,,,,,,2022-03-11,1,,,,,エルチャンス,0
607,3040003019601,新規,0,2022-03-11,2022-03-11,辰佳合同会社,,合同会社,千葉県,千葉市中央区,祐光３丁目９番１棟５０２号,,12,101,2600007,,,,,,,2022-03-11,1,,,,,シンカ,0
611,3050001050788,新規,0,2022-03-11,2022-03-11,株式会社ＡＺＳ,,株式会社,茨城県,水戸市,大工町１丁目６番１号ベルスポットビル１Ｆ,,08,201,3100031,,,,,,,2022-03-11,1,,,,,エーゼットエス,0
614,3050005013023,新規,0,2022-03-11,2022-03-11,特定非営利活動法人トモニトウ,,その他の設立登記法人,茨城県,常陸大宮市,山方６１９番地,,08,225,3193111,,,,,,,2022-03-11,1,,,,,トモニトウ,0
619,3080005007435,新規,0,2022-03-11,2022-03-11,ＣａｒｅｅｒＬｉｎｋ協同組合,,その他の設立登記法人,静岡県,静岡市清水区,蒲原５２６９番地の８,,22,103,4213203,,,,,,,2022-03-11,1,,,,,キャリアリンク,0
626,3080401025676,新規,0,2022-03-11,2022-03-11,和知’ｓ株式会社,,株式会社,静岡県,浜松市北区,三ヶ日町駒場２７８番地の３,,22,135,4311406,,,,,,,2022-03-11,1,,,,,ワチズ,0
627,3080403004488,新規,0,2022-03-11,2022-03-11,合同会社遊木,,合同会社,静岡県,浜松市東区,薬新町２２０番３,,22,132,4350018,,,,,,,2022-03-11,1,,,,,ユウキ,0
630,3100001035148,新規,0,2022-03-11,2022-03-11,株式会社明真,,株式会社,長野県,長野市,稲田１丁目２４番２４号,,20,201,3810042,,,,,,,2022-03-11,1,,,,,メイシン,0
632,3100003006452,新規,0,2022-03-11,2022-03-11,ＭＩＮＨ　ＣＨＡＵ合同会社,,合同会社,長野県,駒ヶ根市,赤穂９３１７番地４フレグランス馬見塚Ｂ１０２,,20,210,3994117,,,,,,,2022-03-11,1,,,,,ミンチャウ,0
649,3120001244416,新規,0,2022-03-11,2022-03-11,株式会社ＡＲＵＫＵ,,株式会社,大阪府,大阪市鶴見区,今津中５丁目６番６号１階,,27,124,5380042,,,,,,,2022-03-11,1,,,,,アルク,0
652,3120005022842,新規,0,2022-03-11,2022-03-11,一般社団法人関西中華總商会,,その他の設立登記法人,大阪府,大阪市西区,江戸堀３丁目１－３１Ｒ＆Ｈビル４０２号,,27,106,5500002,,,,,,,2022-03-11,1,,,,,カンサイチュウカショウカイ,0
659,3122001035662,新規,0,2022-03-11,2022-03-11,株式会社Ｌａｎｇｂａｌｌｙ,,株式会社,大阪府,八尾市,福万寺町１丁目７１番地の１１,,27,212,5810842,,,,,,,2022-03-11,1,,,,,ラングバリー,0
661,3130001071306,新規,0,2022-03-11,2022-03-11,株式会社宏仁,,株式会社,京都府,京都市南区,唐橋井園町５２番地８,,26,107,6018462,,,,,,,2022-03-11,1,,,,,コウジン,0
664,3140001125218,新規,0,2022-03-11,2022-03-11,株式会社ＯＵＥＮ,,株式会社,兵庫県,神戸市須磨区,東白川台２丁目１番地の４,,28,107,6540102,,,,,,,2022-03-11,1,,,,,オウエン,0
665,3140001125226,新規,0,2022-03-11,2022-03-11,株式会社高山,,株式会社,兵庫県,赤穂郡上郡町,高山１２２８番地８６６,,28,481,6781254,,,,,,,2022-03-11,1,,,,,タカヤマ,0
666,3140001125234,新規,0,2022-03-11,2022-03-11,ミライトプラス株式会社,,株式会社,兵庫県,神戸市中央区,磯上通８丁目１番２９号カサベラビルＣ＆Ｍ４０３号室,,28,110,6510086,,,,,,,2022-03-11,1,,,,,ミライトプラス,0
667,3140005026065,新規,0,2022-03-11,2022-03-11,一般社団法人北近畿ドローン協会,,その他の設立登記法人,兵庫県,豊岡市,日高町奈佐路７３４番地の１,,28,209,6695335,,,,,,,2022-03-11,1,,,,,キタキンキドローンキョウカイ,0
668,3150001025400,新規,0,2022-03-11,2022-03-11,美茂千手株式会社,,株式会社,奈良県,奈良市,三条町５００番地の１,,29,201,6308244,,,,,,,2022-03-11,1,,,,,ミモセンジュ,0
681,3180001150369,新規,0,2022-03-11,2022-03-11,株式会社トラックアルデ,,株式会社,愛知県,弥富市,操出１０丁目２番地,,23,235,4980061,,,,,,,2022-03-11,1,,,,,トラックアルデ,0
691,3180301036020,新規,0,2022-03-11,2022-03-11,株式会社Ｐｅｇａｓｕｓ　Ｃｌｕｂ　Ｌａｂｏｒａｔｏｒｙ,,株式会社,愛知県,岡崎市,明大寺町字出口６０番地２,,23,202,4440869,,,,,,,2022-03-11,1,,,,,ペガサスクラブラボラトリー,0
703,3240001059455,新規,0,2022-03-11,2022-03-11,ＥＫＩ株式会社,,株式会社,広島県,府中市,中須町６６番地,,34,208,7260012,,,,,,,2022-03-11,1,,,,,エキ,0
723,3290003012259,新規,0,2022-03-11,2022-03-11,ギャッベ・ライフ合同会社,,合同会社,福岡県,久留米市,国分町１６２２－１サンコーポシライシ１０６,,40,203,8390863,,,,,,,2022-03-11,1,,,,,ギャッペライフ,0
725,3290803004075,新規,0,2022-03-11,2022-03-11,合同会社リトルガーデンひびき,,合同会社,福岡県,北九州市若松区,大字安屋２６４８－１,,40,103,8080124,,,,,,,2022-03-11,1,,,,,リトルガーデンヒビキ,0
726,3300001012837,新規,0,2022-03-11,2022-03-11,ＳＨＩＮＴＥＣ株式会社,,株式会社,佐賀県,三養基郡みやき町,大字白壁３９５３番地１７７,,41,346,8490111,,,,,,,2022-03-11,1,,,,,シンテック,0
732,3330001029498,新規,0,2022-03-11,2022-03-11,株式会社ＮＮ,,株式会社,熊本県,熊本市中央区,草葉町２番５号１Ｆ,,43,101,8600843,,,,,,,2022-03-11,1,,,,,エヌエヌ,0
733,3330001029531,新規,0,2022-03-11,2022-03-11,イールドシステム株式会社,,株式会社,熊本県,宇城市,松橋町松橋６１７番地,,43,213,8690502,,,,,,,2022-03-11,1,,,,,イールドシステム,0
735,3340003003723,新規,0,2022-03-11,2022-03-11,合同会社ｏｍｏｓｉｔｅａ,,合同会社,鹿児島県,鹿児島市,東坂元２丁目１５―８,,46,201,8920861,,,,,,,2022-03-11,1,,,,,オモシテア,0
739,3360001030115,新規,0,2022-03-11,2022-03-11,ソルトリゾート株式会社,,株式会社,沖縄県,宜野湾市,字宇地泊７５１番地１５ライオンズ宜野湾マリンシティ８０９号,,47,205,9012227,,,,,,,2022-03-11,1,,,,,,0
740,3360003011864,新規,0,2022-03-11,2022-03-11,合同会社志技,,合同会社,沖縄県,中頭郡読谷村,字古堅６６番地９,,47,324,9040314,,,,,,,2022-03-11,1,,,,,シギ,0
744,3370001048305,新規,0,2022-03-11,2022-03-11,株式会社Ｒｉｏ,,株式会社,宮城県,仙台市泉区,泉中央１丁目４９番地の１１コーポエムＣ号,,04,105,9813133,,,,,,,2022-03-11,1,,,,,リオ,0
753,3400001015805,新規,0,2022-03-11,2022-03-11,株式会社ＮＥＫ,,株式会社,岩手県,奥州市,胆沢南都田字化粧坂１７９,,03,215,0230401,,,,,,,2022-03-11,1,,,,,エヌイーケー,0
761,3430001086091,新規,0,2022-03-11,2022-03-11,ＲＪホールディングス株式会社,,株式会社,北海道,小樽市,新光１丁目５番８号,,01,203,0470152,,,,,,,2022-03-11,1,,,,,アールジェイホールディングス,0
762,3430001086190,新規,0,2022-03-11,2022-03-11,株式会社セーフティテック,,株式会社,北海道,札幌市厚別区,厚別東三条３丁目４番２３号,,01,108,0040003,,,,,,,2022-03-11,1,,,,,セーフティテック,0
768,3430003013696,新規,0,2022-03-11,2022-03-11,辰元商事合同会社,,合同会社,北海道,札幌市北区,北十九条西３丁目２番６－２０２号,,01,102,0010019,,,,,,,2022-03-11,1,,,,,タツモトショウジ,0
769,3430003013705,新規,0,2022-03-11,2022-03-11,合同会社Ａ‐ｋｅｃｃｈｉ,,合同会社,北海道,札幌市豊平区,平岸二条７丁目１番１５号,,01,105,0620932,,,,,,,2022-03-11,1,,,,,エーケッチ,0
772,3450003002185,新規,0,2022-03-11,2022-03-11,オカミ合同会社,,合同会社,北海道,稚内市,港４丁目３番１３号,,01,214,0970021,,,,,,,2022-03-11,1,,,,,オカミ,0
786,4010001225145,新規,0,2022-03-11,2022-03-11,ｙｏｕａｎｄ株式会社,,株式会社,東京都,千代田区,神田須田町１丁目５－１０相鉄神田須田町第２ビル７０２号室,,13,101,1010041,,,,,,,2022-03-11,1,,,,,ユーアンド,0
788,4010003037225,新規,0,2022-03-11,2022-03-11,オークモント・プロパティー合同会社,,合同会社,東京都,千代田区,九段南３丁目７番７号,,13,101,1020074,,,,,,,2022-03-11,1,,,,,オークモントプロパティー,0
795,4010401166113,新規,0,2022-03-11,2022-03-11,ＮＨＮ　Ｓｔｕｄｉｏ　Ｄｉｇｇｉｎ株式会社,,株式会社,東京都,港区,虎ノ門１丁目２３番１号,,13,103,1050001,,,,,,,2022-03-11,1,,,,,エヌエイチエヌスタジオディギン,0
796,4010401166138,新規,0,2022-03-11,2022-03-11,株式会社Ｓｕｎｋｓ,,株式会社,東京都,港区,麻布十番２丁目７番１１号,,13,103,1060045,,,,,,,2022-03-11,1,,,,,サンクス,0
797,4010401166146,新規,0,2022-03-11,2022-03-11,株式会社バロックワークス,,株式会社,東京都,港区,麻布十番３丁目３番１３－９０２号,,13,103,1060045,,,,,,,2022-03-11,1,,,,,バロックワークス,0
798,4010401166162,新規,0,2022-03-11,2022-03-11,株式会社ＳｏｃｉａｌＢａｎｋ,,株式会社,東京都,港区,南青山５丁目１７番２号,,13,103,1070062,,,,,,,2022-03-11,1,,,,,ソーシャルバンク,0
799,4010403027222,新規,0,2022-03-11,2022-03-11,合同会社Ｅビジネス,,合同会社,東京都,港区,南青山２丁目２番１５号,,13,103,1070062,,,,,,,2022-03-11,1,,,,,イービジネス,0
800,4010403027247,新規,0,2022-03-11,2022-03-11,合同会社ＴＭ,,合同会社,東京都,港区,元麻布３丁目２番１４号,,13,103,1060046,,,,,,,2022-03-11,1,,,,,ティーエム,0
801,4010403027255,新規,0,2022-03-11,2022-03-11,ＬＩＮＫｓ合同会社,,合同会社,東京都,港区,南青山６丁目１５番４号プラウドフラット南青山４０５号室,,13,103,1070062,,,,,,,2022-03-11,1,,,,,リンクス,0
804,4010503006530,新規,0,2022-03-11,2022-03-11,合同会社ＤｏＴ,,合同会社,東京都,台東区,清川２丁目１８－３,,13,106,1110022,,,,,,,2022-03-11,1,,,,,ディーオーティー,0
811,4010701042360,新規,0,2022-03-11,2022-03-11,株式会社サニースパ,,株式会社,東京都,品川区,南大井６丁目１９番８号アズ大森ビル６Ｆ,,13,109,1400013,,,,,,,2022-03-11,1,,,,,サニースパ,0
812,4010703006149,新規,0,2022-03-11,2022-03-11,合同会社ＩｎｔｅＣｌｉｍｂ,,合同会社,東京都,品川区,旗の台５丁目７－９ＰｒｉｍｅＧａｒｄｅｎ２０２号室,,13,109,1420064,,,,,,,2022-03-11,1,,,,,インテクライム,0
822,4011001146240,新規,0,2022-03-11,2022-03-11,株式会社ミ・ノルバ,,株式会社,東京都,渋谷区,恵比寿西２丁目９番９号クリスタルスクエア代官山３Ｂ,,13,113,1500021,,,,,,,2022-03-11,1,,,,,ミノルバ,0
827,4011101098051,新規,0,2022-03-11,2022-03-11,株式会社ソウルフル,,株式会社,東京都,新宿区,百人町１丁目９番２２号２Ｆ,,13,104,1690073,,,,,,,2022-03-11,1,,,,,ソウルフル,0
828,4011101098118,新規,0,2022-03-11,2022-03-11,株式会社あのね,,株式会社,東京都,新宿区,市谷加賀町２丁目４番６号２４番館２０１,,13,104,1620062,,,,,,,2022-03-11,1,,,,,アノネ,0
831,4011203003768,新規,0,2022-03-11,2022-03-11,合同会社ＯＡＴ　ＬＡＢＯ,,合同会社,東京都,中野区,鷺宮４丁目３１番２号,,13,114,1650032,,,,,,,2022-03-11,1,,,,,オーエーティラボ,0
845,4013105001791,新規,0,2022-03-11,2022-03-11,医療法人社団日の出,,その他の設立登記法人,東京都,青梅市,師岡町３丁目１７番地の１８,,13,205,1980031,,,,,,,2022-03-11,1,,,,,ヒノデ,0
851,4013303006080,新規,0,2022-03-11,2022-03-11,合同会社Ｂｅａｕｔｙ　ｉｔｅｍ,,合同会社,東京都,豊島区,池袋４丁目２９番６号アクシア池袋１１０１,,13,116,1710014,,,,,,,2022-03-11,1,,,,,ビューティーアイテム,0
855,4020001145623,新規,0,2022-03-11,2022-03-11,ｎｏｎ‐ｌｏｇｉｃａｌ株式会社,,株式会社,神奈川県,横浜市鶴見区,生麦４丁目７番２号,,14,101,2300052,,,,,,,2022-03-11,1,,,,,ノンロジカル,0
870,4030003018941,新規,0,2022-03-11,2022-03-11,バナナパウンドケーキ合同会社,,合同会社,埼玉県,北本市,本宿１丁目１４番地２レーベンハイム北本４０４,,11,233,3640005,,,,,,,2022-03-11,1,,,,,バナナパウンドケーキ,0
876,4040001122562,新規,0,2022-03-11,2022-03-11,株式会社ＯＮ壱番館,,株式会社,千葉県,千葉市稲毛区,園生町６７６番地４,,12,103,2630051,,,,,,,2022-03-11,1,,,,,オーエヌイチバンカン,0
877,4040001122570,新規,0,2022-03-11,2022-03-11,株式会社ＴＫＣ,,株式会社,千葉県,流山市,向小金３丁目１０３番地の１８プラムヒルズＩＩ－２０１,00125938,12,220,2700143,,,,,,,2022-03-11,1,,,,,ティーケーシー,0
882,4050005013022,新規,0,2022-03-11,2022-03-11,一般社団法人引き寄せ子育てママ協会,,その他の設立登記法人,茨城県,石岡市,山崎３１４４番地１７,,08,205,3150125,,,,,,,2022-03-11,1,,,,,ヒキヨセコソダテママキョウカイ,0
884,4060001034649,新規,0,2022-03-11,2022-03-11,株式会社ビ・エミュー,,株式会社,栃木県,宇都宮市,駅前通り３丁目７番１号オヴェスト宇都宮ザ・タワー１７０８,,09,201,3210964,,,,,,,2022-03-11,1,,,,,ビエミュー,0
886,4070001039036,新規,0,2022-03-11,2022-03-11,株式会社ＩＮＮＯＶＡＴＩＯＮ,,株式会社,群馬県,太田市,西矢島町１６５番地１,,10,205,3730823,,,,,,,2022-03-11,1,,,,,イノベーション,0
890,4080401025675,新規,0,2022-03-11,2022-03-11,株式会社Ｂｌｕｅ　Ｏｃｅａｎ,,株式会社,静岡県,浜松市中区,板屋町６６３番地サーパス浜松駅前９０４号,,22,131,4300928,,,,,,,2022-03-11,1,,,,,ブルーオーシャン,0
911,4120001244415,新規,0,2022-03-11,2022-03-11,株式会社ラピス,,株式会社,大阪府,大阪市東住吉区,今川８丁目４－４,,27,121,5460003,,,,,,,2022-03-11,1,,,,,ラピス,0
912,4120001244448,新規,0,2022-03-11,2022-03-11,株式会社ビーポライト,,株式会社,大阪府,大阪市平野区,背戸口５丁目６番２０号,,27,126,5470034,,,,,,,2022-03-11,1,,,,,ビーポライト,0
914,4120101065216,新規,0,2022-03-11,2022-03-11,ＫＡＮＡＴＡ電工株式会社,,株式会社,大阪府,泉南市,岡田６丁目１０番１９号,,27,228,5900531,,,,,,,2022-03-11,1,,,,,カナタデンコウ,0
920,4130001071338,新規,0,2022-03-11,2022-03-11,株式会社ＳＰＩＮ　ＯＦＦ,,株式会社,京都府,京都市南区,吉祥院嶋笠井町８３番地,,26,107,6018374,,,,,,,2022-03-11,1,,,,,スピンオフ,0
925,4140001125241,新規,0,2022-03-11,2022-03-11,神戸冷凍運輸株式会社,,株式会社,兵庫県,神戸市東灘区,深江南町４丁目９０,,28,101,6580022,,,,,,,2022-03-11,1,,,,,コウベレイトウウンユ,0
929,4140003017445,新規,0,2022-03-11,2022-03-11,合同会社インヘリット,,合同会社,兵庫県,芦屋市,朝日ケ丘町１２番２０号,,28,206,6590012,,,,,,,2022-03-11,1,,,,,インヘリット,0
944,4180003023588,新規,0,2022-03-11,2022-03-11,合同会社コル訪問介護,,合同会社,愛知県,名古屋市名東区,本郷１丁目２１番３号,,23,115,4650024,,,,,,,2022-03-11,1,,,,,コルホウモンカイゴ,0
945,4180005019675,新規,0,2022-03-11,2022-03-11,一般社団法人風輝,,その他の設立登記法人,愛知県,名古屋市千種区,山添町１丁目２６番地,,23,101,4640832,,,,,,,2022-03-11,1,,,,,フウキ,0
949,4210001018842,新規,0,2022-03-11,2022-03-11,株式会社サクラＴ・Ｒ,,株式会社,福井県,福井市,開発１丁目１７０７番地,,18,201,9100842,,,,,,,2022-03-11,1,,,,,サクラティアール,0
962,4240003005547,新規,0,2022-03-11,2022-03-11,合同会社ビューティフルライフ,,合同会社,広島県,安芸郡府中町,鶴江１丁目１５番３６号,,34,302,7350008,,,,,,,2022-03-11,1,,,,,ビューティフルライフ,0
964,4260001036625,新規,0,2022-03-11,2022-03-11,法面防災工業株式会社,,株式会社,岡山県,久米郡美咲町,打穴中１０２５番地２,,33,666,7093703,,,,,,,2022-03-11,1,,,,,ノリメンボウサイコウギョウ,0
965,4260003003838,新規,0,2022-03-11,2022-03-11,ヒラバル開発合同会社,,合同会社,岡山県,倉敷市,上富井２４５番地１１,,33,202,7100846,,,,,,,2022-03-11,1,,,,,ヒラバルカイハツ,0
971,4290001096773,新規,0,2022-03-11,2022-03-11,株式会社テディーアーク,,株式会社,福岡県,福岡市博多区,博多駅前３丁目７番３５号博多ハイテックビル５０５,,40,132,8120011,,,,,,,2022-03-11,1,,,,,テディーアーク,0
973,4290003012274,新規,0,2022-03-11,2022-03-11,ＰＨＡＭ　ＴＲＡＮＧ合同会社,,合同会社,福岡県,福岡市博多区,住吉２丁目１５番１０,,40,132,8120018,,,,,,,2022-03-11,1,,,,,ファンチャン,0
976,4320005009975,新規,0,2022-03-11,2022-03-11,一般社団法人イコリティ,,その他の設立登記法人,大分県,大分市,大字寒田５８９番地,,44,201,8701123,,,,,,,2022-03-11,1,,,,,イコリティ,0
980,4330001029530,新規,0,2022-03-11,2022-03-11,株式会社サンエー企画,,株式会社,熊本県,玉名市,六田１２番地２,,43,206,8650058,,,,,,,2022-03-11,1,,,,,サンエーキカク,0
981,4330003009282,新規,0,2022-03-11,2022-03-11,合同会社新田水産,,合同会社,熊本県,天草市,深海町５８１０番地２０,,43,215,8631511,,,,,,,2022-03-11,1,,,,,ニッタスイサン,0
985,4360005006614,新規,0,2022-03-11,2022-03-11,一般社団法人Ｔｈａｎｋｓ　ｍａｍａ,,その他の設立登記法人,沖縄県,那覇市,宮城１丁目１７番６－８０１号,,47,201,9010147,,,,,,,2022-03-11,1,,,,,サンクスママ,0
1005,4430001086198,新規,0,2022-03-11,2022-03-11,株式会社アトリエオンド一級建築士事務所,,株式会社,北海道,札幌市中央区,南三条東３丁目１番地南里ビル,,01,101,0600053,,,,,,,2022-03-11,1,,,,,アトリエオンドイッキュウケンチクシジムショ,0
1011,4460101007159,新規,0,2022-03-11,2022-03-11,株式会社三陽建設,,株式会社,北海道,帯広市,西十五条南１丁目１番地５ＴＩＤＡ２Ｆ,,01,207,0800025,,,,,,,2022-03-11,1,,,,,サンヨウケンセツ,0
1012,4460103001432,新規,0,2022-03-11,2022-03-11,合同会社後藤商事,,合同会社,北海道,河西郡芽室町,坂の上１１線６０番地５,,01,637,0820075,,,,,,,2022-03-11,1,,,,,ゴトウショウジ,0
1013,4480003001803,新規,0,2022-03-11,2022-03-11,祐合同会社,,合同会社,徳島県,徳島市,南昭和町５丁目６８－２,,36,201,7700944,,,,,,,2022-03-11,1,,,,,ユウ,0
1027,5010101015098,新規,0,2022-03-11,2022-03-11,株式会社ｃｏｃｏｒｏ不動産,,株式会社,東京都,八王子市,散田町３丁目１２番３号太田ビルＣ号室,,13,201,1930832,,,,,,,2022-03-11,1,,,,,ココロフドウサン,0
1032,5010401166129,新規,0,2022-03-11,2022-03-11,蘭英商事株式会社,,株式会社,東京都,港区,三田１丁目３番４０号天翔オフィス麻布十番９０４号室,,13,103,1080073,,,,,,,2022-03-11,1,,,,,ランエイショウジ,0
1033,5010401166137,新規,0,2022-03-11,2022-03-11,圭尹愛インターナショナル株式会社,,株式会社,東京都,港区,六本木７丁目７－７Ｔｒｉ－ＳｅｖｅｎＲｏｐｐｏｎｇｉ,,13,103,1060032,,,,,,,2022-03-11,1,,,,,ケイアイインターナショナル,0
1034,5010403027254,新規,0,2022-03-11,2022-03-11,合同会社ＳＴＡＮＤ　ＵＰ　ＧＲＯＵＰ,,合同会社,東京都,港区,新橋５丁目２５－２ＴＹビル５階,,13,103,1050004,,,,,,,2022-03-11,1,,,,,スタンドアップグループ,0
1036,5010603009432,新規,0,2022-03-11,2022-03-11,合同会社Ｎｅｊｉｐ　Ｃｏｒｐｏｒａｔｉｏｎ,,合同会社,東京都,墨田区,墨田２丁目３３番１０－２０２号,,13,107,1310031,,,,,,,2022-03-11,1,,,,,ネジップコーポレーション,0
1040,5010803004092,新規,0,2022-03-11,2022-03-11,合同会社ＭＵＧＩ,,合同会社,東京都,大田区,東雪谷１丁目１６番９号,,13,111,1450065,,,,,,,2022-03-11,1,,,,,ムギ,0
1050,5011001146173,新規,0,2022-03-11,2022-03-11,ｍｉｕｃｈｉ株式会社,,株式会社,東京都,渋谷区,笹塚２丁目１２番１１－６０４号,,13,113,1510073,,,,,,,2022-03-11,1,,,,,ミウチ,0
1055,5011003014337,新規,0,2022-03-11,2022-03-11,クレセンシモンキャピタル合同会社,,合同会社,東京都,目黒区,青葉台３丁目１４－６－５０１ピアース目黒青葉台,,13,110,1530042,,,,,,,2022-03-11,1,,,,,クレセンシモンキャピタル,0
1069,5011401024094,新規,0,2022-03-11,2022-03-11,株式会社ｗｏｏｄ　ｓｔｙｌｅ,,株式会社,東京都,板橋区,大門１４番４号,,13,119,1750085,,,,,,,2022-03-11,1,,,,,ウッドスタイル,0
1072,5011503005083,新規,0,2022-03-11,2022-03-11,合同会社ＬＵＣＫ　ＢＯＸ,,合同会社,東京都,荒川区,町屋２丁目６番１号,,13,118,1160001,,,,,,,2022-03-11,1,,,,,ラックボックス,0
1075,5011601025792,新規,0,2022-03-11,2022-03-11,株式会社Ｓｔｏｎｅ　Ｆｒｅｅ,,株式会社,東京都,練馬区,石神井台８丁目１８番１９号,,13,120,1770045,,,,,,,2022-03-11,1,,,,,ストーンフリー,0
1084,5012403005272,新規,0,2022-03-11,2022-03-11,合同会社クリック企画,,合同会社,東京都,調布市,若葉町２丁目２６番地２ＢＡＩＴＳ１－１０２,,13,208,1820003,,,,,,,2022-03-11,1,,,,,クリックキカク,0
1085,5012701016979,新規,0,2022-03-11,2022-03-11,株式会社ＣＬＰ,,株式会社,東京都,東久留米市,前沢１丁目９－９,,13,222,2030032,,,,,,,2022-03-11,1,,,,,シーエルピー,0
1086,5012801021441,新規,0,2022-03-11,2022-03-11,株式会社リピタップ＆ライザゲン,,株式会社,東京都,国立市,北２丁目２１番の７ハウス国立ＩＩＩ１０２,00125943,13,215,1860001,,,,,,,2022-03-11,1,,,,,リピタップアンドライザゲン,0
1089,5013301048801,新規,0,2022-03-11,2022-03-11,株式会社ＯｍｎｉＤＸ,,株式会社,東京都,豊島区,駒込２丁目３－３駒込北口ビル３Ｆ,,13,116,1700003,,,,,,,2022-03-11,1,,,,,オムニディーエックス,0
1093,5020001145580,新規,0,2022-03-11,2022-03-11,株式会社Ｄ‐ＧＲＯＷ,,株式会社,神奈川県,川崎市多摩区,宿河原２丁目２０番１９－３０１号,,14,135,2140021,,,,,,,2022-03-11,1,,,,,ディーグロウ,0
1094,5020001145622,新規,0,2022-03-11,2022-03-11,株式会社アイズパートナー,,株式会社,神奈川県,横浜市港北区,樽町３丁目７番地１５号ザハウス港北綱島１４０,,14,109,2220001,,,,,,,2022-03-11,1,,,,,アイズパートナー,0
1102,5021003011473,新規,0,2022-03-11,2022-03-11,Ｌｉｑｏ合同会社,,合同会社,神奈川県,藤沢市,大庭５４４６－４,,14,205,2510861,,,,,,,2022-03-11,1,,,,,リクォ,0
1116,5030005020746,新規,0,2022-03-11,2022-03-11,特定非営利活動法人オハナプロジェクト,,その他の設立登記法人,埼玉県,新座市,道場２丁目９番７号,,11,230,3520024,,,,,,,2022-03-11,1,,,,,オハナプロジェクト,0
1121,5040001122578,新規,0,2022-03-11,2022-03-11,達日汗商事株式会社,,株式会社,千葉県,松戸市,串崎新田１５６番地の１小田急くぬぎ山マンション１Ｆ,,12,207,2702216,,,,,,,2022-03-11,1,,,,,ダルカンショウジ,0
1127,5060001034648,新規,0,2022-03-11,2022-03-11,株式会社ＢＬＵＥＢＡＹＯＵ,,株式会社,栃木県,大田原市,蛭畑１８番地,,09,210,3240411,,,,,,,2022-03-11,1,,,,,ブルーバイユー,0
1132,5070001039035,新規,0,2022-03-11,2022-03-11,株式会社ＧＭ製作所,,株式会社,群馬県,高崎市,中居町２丁目２２番地５６,,10,202,3700852,,,,,,,2022-03-11,1,,,,,ジーエムセイサクジョ,0
1133,5070003004417,新規,0,2022-03-11,2022-03-11,合同会社ユーホーム群馬,,合同会社,群馬県,前橋市,紅雲町２丁目２番１号,,10,201,3710025,,,,,,,2022-03-11,1,,,,,ユーホームグンマ,0
1141,5080401025674,新規,0,2022-03-11,2022-03-11,遠州うなぎ株式会社,,株式会社,静岡県,浜松市東区,中郡町１１２４番地の１,,22,132,4313111,,,,,,,2022-03-11,1,,,,,エンシュウウナギ,0
1143,5080403004486,新規,0,2022-03-11,2022-03-11,合同会社かやの森,,合同会社,静岡県,浜松市浜北区,小松１３３１番地の１,,22,136,4340042,,,,,,,2022-03-11,1,,,,,カヤモノリ,0
1145,5110001036498,新規,0,2022-03-11,2022-03-11,倉盛不動産株式会社,,株式会社,新潟県,新潟市中央区,東大通２丁目１－２０,,15,103,9500087,,,,,,,2022-03-11,1,,,,,クラモリフドウサン,0
1161,5120001244190,新規,0,2022-03-11,2022-03-11,株式会社ＳＹＪ,,株式会社,大阪府,大阪市東住吉区,田辺６丁目４番５号,,27,121,5460031,,,,,,,2022-03-11,1,,,,,エスワイジェイ,0
1162,5120001244307,新規,0,2022-03-11,2022-03-11,株式会社アクトブレイン,,株式会社,大阪府,大阪市東淀川区,東中島２丁目８番８号ワークステーション新大阪７０２,,27,114,5330033,,,,,,,2022-03-11,1,,,,,アクトブレイン,0
1163,5120001244406,新規,0,2022-03-11,2022-03-11,株式会社信康,,株式会社,大阪府,大阪市中央区,森ノ宮中央２丁目８番１２号,,27,128,5400003,,,,,,,2022-03-11,1,,,,,シンコウ,0
1164,5120001244422,新規,0,2022-03-11,2022-03-11,アイイン投信株式会社,,株式会社,大阪府,大阪市浪速区,下寺１丁目１番３号,,27,111,5560001,,,,,,,2022-03-11,1,,,,,アイイントウシン,0
1165,5120001244439,新規,0,2022-03-11,2022-03-11,ＴＤＨ株式会社,,株式会社,大阪府,大阪市此花区,春日出北２丁目１６番２０号,,27,104,5540021,,,,,,,2022-03-11,1,,,,,ティーディーエイチ,0
1170,5120003021274,新規,0,2022-03-11,2022-03-11,合同会社Ｏｆｆｉｃｅ　Ｑ’ｓ,,合同会社,大阪府,大阪市東成区,大今里西３丁目１８－１８,,27,115,5370014,,,,,,,2022-03-11,1,,,,,オフィスキューズ,0
1173,5120101065207,新規,0,2022-03-11,2022-03-11,株式会社Ｃｈａｉｎ　ｏｆ　Ｈａｐｐｉｎｅｓｓ,,株式会社,大阪府,堺市堺区,翁橋町１丁１０番１４号,,27,141,5900061,,,,,,,2022-03-11,1,,,,,チェーンオブハピネス,0
1177,5120901045713,新規,0,2022-03-11,2022-03-11,株式会社ＰＬＤ２９６,,株式会社,大阪府,吹田市,長野東２６番１－１００８号,,27,205,5650816,,,,,,,2022-03-11,1,,,,,ピーエルディーツクル,0
1178,5120903004064,新規,0,2022-03-11,2022-03-11,合同会社ソルト設備,,合同会社,大阪府,池田市,畑３丁目１２－７－４０５,,27,204,5630021,,,,,,,2022-03-11,1,,,,,ソルトセツビ,0
1180,5122003002287,新規,0,2022-03-11,2022-03-11,萬利合同会社,,合同会社,大阪府,東大阪市,衣摺４丁目２５－１９－２０２号,,27,227,5770827,,,,,,,2022-03-11,1,,,,,マンリ,0
1187,5140001125158,新規,0,2022-03-11,2022-03-11,株式会社グローバルアーカイブズ・総合コンサルタント,,株式会社,兵庫県,宝塚市,寿楽荘１５番１３号,,28,214,6650012,,,,,,,2022-03-11,1,,,,,グローバルアーカイブズソウゴウコンサルタント,0
1188,5140001125232,新規,0,2022-03-11,2022-03-11,株式会社ＥＮＲＯＬＬ,,株式会社,兵庫県,三木市,自由が丘本町１丁目４４番地の１５,,28,215,6730424,,,,,,,2022-03-11,1,,,,,エンロール,0
1194,5150001025398,新規,0,2022-03-11,2022-03-11,株式会社ＳＯＤＡＡＲＴ,,株式会社,奈良県,奈良市,あやめ池北１丁目２番３０号,,29,201,6310032,,,,,,,2022-03-11,1,,,,,ソーダアート,0
1199,5180001150367,新規,0,2022-03-11,2022-03-11,マイヒロジャパン株式会社,,株式会社,愛知県,名古屋市中区,栄４丁目８番７号,,23,106,4600008,,,,,,,2022-03-11,1,,,,,マイヒロジャパン,0
1205,5190001029214,新規,0,2022-03-11,2022-03-11,株式会社桑名商店,,株式会社,三重県,桑名市,大字桑名４７６番地８２,,24,205,5110009,,,,,,,2022-03-11,1,,,,,クワナショウテン,0
1222,5250001019456,新規,0,2022-03-11,2022-03-11,山一塗装株式会社,,株式会社,山口県,宇部市,西梶返１丁目１０番２０号,,35,202,7550037,,,,,,,2022-03-11,1,,,,,ヤマイチトソウ,0
1226,5290001012102,新規,0,2022-03-11,2022-03-11,株式会社緒方住研,,株式会社,福岡県,福岡市博多区,博多駅前２丁目１３番８号,,40,132,8120011,,,,,,,2022-03-11,1,,,,,オガタジュウケン,0
1230,5290001096772,新規,0,2022-03-11,2022-03-11,株式会社Ｒｏｌｌｕｐ,,株式会社,福岡県,久留米市,野中町１３５番地１７－１０２号,,40,203,8390862,,,,,,,2022-03-11,1,,,,,ロールアップ,0
1231,5290003012273,新規,0,2022-03-11,2022-03-11,合同会社よすけ,,合同会社,福岡県,福岡市西区,野方６丁目１３番４号,,40,135,8190043,,,,,,,2022-03-11,1,,,,,ヨスケ,0
1232,5290801028330,新規,0,2022-03-11,2022-03-11,アディドバリュー株式会社,,株式会社,福岡県,行橋市,大字長音寺６２番地２０,,40,213,8240065,,,,,,,2022-03-11,1,,,,,アディドバリュー,0
1233,5310001017759,新規,0,2022-03-11,2022-03-11,株式会社ＥＩＧＨＴ,,株式会社,長崎県,佐世保市,潮見町１１番１号,,42,202,8570834,,,,,,,2022-03-11,1,,,,,エイト,0
1235,5320003003748,新規,0,2022-03-11,2022-03-11,合同会社ＲＡＳＥＥＫ,,合同会社,大分県,大分市,大字宮崎１１７１－３,,44,201,8701133,,,,,,,2022-03-11,1,,,,,ラシーク,0
1242,5330005010477,新規,0,2022-03-11,2022-03-11,一般社団法人うぶやま未来ラボ,,その他の設立登記法人,熊本県,阿蘇郡産山村,大字山鹿４８８番地３,,43,425,8692703,,,,,,,2022-03-11,1,,,,,ウブヤマミライラボ,0
1243,5360003011862,新規,0,2022-03-11,2022-03-11,Ａ＆Ｙ合同会社,,合同会社,沖縄県,島尻郡久米島町,字儀間２６１番地１,,47,361,9013115,,,,,,,2022-03-11,1,,,,,エーアンドワイ,0
1245,5370001048311,新規,0,2022-03-11,2022-03-11,株式会社翠,,株式会社,宮城県,仙台市青葉区,北根４丁目８番７号,,04,101,9810902,,,,,,,2022-03-11,1,,,,,ミドリ,0
1252,5420003002475,新規,0,2022-03-11,2022-03-11,合同会社ひたむき,,合同会社,青森県,八戸市,桜ケ丘３丁目１６番２号,,02,203,0310834,,,,,,,2022-03-11,1,,,,,ヒタムキ,0
1257,5430001086180,新規,0,2022-03-11,2022-03-11,株式会社Ｚｅｎｅｓｉｓ,,株式会社,北海道,札幌市中央区,大通西３丁目６北海道新聞本社ビル２Ｆ,,01,101,0600042,,,,,,,2022-03-11,1,,,,,ゼネシス,0
1260,5460101007158,新規,0,2022-03-11,2022-03-11,株式会社ノース環境,,株式会社,北海道,帯広市,西二十三条南３丁目２８番地１,,01,207,0802473,,,,,,,2022-03-11,1,,,,,ノースカンキョウ,0
1263,5480003001802,新規,0,2022-03-11,2022-03-11,合同会社ＳＰＩＬＡＬ,,合同会社,徳島県,阿波市,市場町切幡字神ノ木６６－１,,36,206,7711623,,,,,,,2022-03-11,1,,,,,スパイラル,0
1275,6010001225036,新規,0,2022-03-11,2022-03-11,株式会社ハレタス,,株式会社,東京都,中央区,築地７丁目３番１０－５１０号,,13,102,1040045,,,,,,,2022-03-11,1,,,,,ハレタス,0
1276,6010001225085,新規,0,2022-03-11,2022-03-11,Ｒｅｓｐｉｒａｔｉｏｎ　Ａｃｃｏｍｐａｎｉｍｅｎｔ株式会社,,株式会社,東京都,文京区,本駒込２丁目１番１８－２０４号,,13,105,1130021,,,,,,,2022-03-11,1,,,,,レスピレイションアカンパニメント,0
1277,6010001225143,新規,0,2022-03-11,2022-03-11,株式会社ＭＩグロースパートナーズ,,株式会社,東京都,文京区,小石川４丁目１５番９号,,13,105,1120002,,,,,,,2022-03-11,1,,,,,エムアイグロースパートナーズ,0
1282,6010003037223,新規,0,2022-03-11,2022-03-11,ＣＲ１合同会社,,合同会社,東京都,千代田区,岩本町３丁目１０番４号寿ビルディング９Ｆ,,13,101,1010032,,,,,,,2022-03-11,1,,,,,シーアールワン,0
1288,6010401166144,新規,0,2022-03-11,2022-03-11,グローバルペットブランズジャパン株式会社,,株式会社,東京都,港区,浜松町２丁目２番１５号浜松町ダイヤビル２Ｆ,,13,103,1050013,,,,,,,2022-03-11,1,,,,,グローバルペットブランズジャパン,0
1289,6010401166152,新規,0,2022-03-11,2022-03-11,Ｄ＆Ｆクリエイツ株式会社,,株式会社,東京都,港区,南青山２丁目２番１５号,,13,103,1070062,,,,,,,2022-03-11,1,,,,,ディーアンドエフクリエイツ,0
1290,6010401166160,新規,0,2022-03-11,2022-03-11,株式会社ＣＡＬＭＴＯＷＮ,,株式会社,東京都,港区,南麻布１丁目１６番３号,,13,103,1060047,,,,,,,2022-03-11,1,,,,,カームタウン,0
1292,6010403027253,新規,0,2022-03-11,2022-03-11,合同会社ａ．ｍ,,合同会社,東京都,港区,東麻布１丁目８番４号,,13,103,1060044,,,,,,,2022-03-11,1,,,,,エーエム,0
1293,6010501048572,新規,0,2022-03-11,2022-03-11,Ｚｅｎ　Ｄｉａｍｏｎｄ株式会社,,株式会社,東京都,台東区,上野５丁目１４－４－３Ｆ,,13,106,1100005,,,,,,,2022-03-11,1,,,,,ゼンダイヤモンド,0
1299,6011001146131,新規,0,2022-03-11,2022-03-11,株式会社ｋａｄ,,株式会社,東京都,渋谷区,神宮前６丁目２３番４号桑野ビル２階,,13,113,1500001,,,,,,,2022-03-11,1,,,,,カド,0
1301,6011003014286,新規,0,2022-03-11,2022-03-11,タイブレーク合同会社,,合同会社,東京都,渋谷区,代々木５丁目１３－２－４０１,,13,113,1510053,,,,,,,2022-03-11,1,,,,,タイブレーク,0
1302,6011003014328,新規,0,2022-03-11,2022-03-11,アバオアクー合同会社,,合同会社,東京都,渋谷区,代々木１丁目２５－１,,13,113,1510053,,,,,,,2022-03-11,1,,,,,アバオアクー,0
1305,6011401024093,新規,0,2022-03-11,2022-03-11,株式会社アスピレーション,,株式会社,東京都,板橋区,三園１丁目２６番１２号,,13,119,1750091,,,,,,,2022-03-11,1,,,,,アスピレーション,0
1310,6011801040426,新規,0,2022-03-11,2022-03-11,株式会社マツノケアグループ,,株式会社,東京都,足立区,千住柳町２２番４号矢代ビル３０３号室,,13,121,1200032,,,,,,,2022-03-11,1,,,,,マツノケアグループ,0
1311,6011801040442,新規,0,2022-03-11,2022-03-11,株式会社はなみち,,株式会社,東京都,足立区,新田１丁目８番２３－１４０３号,,13,121,1230865,,,,,,,2022-03-11,1,,,,,ハナミチ,0
1312,6011803004998,新規,0,2022-03-11,2022-03-11,合同会社晴考社,,合同会社,東京都,葛飾区,東新小岩５丁目２番２４号７０２室,,13,122,1240023,,,,,,,2022-03-11,1,,,,,セイコウシャ,0
1316,6012703002423,新規,0,2022-03-11,2022-03-11,合同会社ベジランチ,,合同会社,東京都,小平市,小川町１丁目１１２５番１５,,13,211,1870032,,,,,,,2022-03-11,1,,,,,ベジランチ,0
1324,6020001145638,新規,0,2022-03-11,2022-03-11,株式会社藤乃屋,,株式会社,神奈川県,横浜市都筑区,北山田６丁目１６番５号２０１,,14,118,2240021,,,,,,,2022-03-11,1,,,,,フジノヤ,0
1339,6030001147212,新規,0,2022-03-11,2022-03-11,株式会社エイト,,株式会社,埼玉県,さいたま市北区,今羽町３０９番地６,,11,102,3310801,,,,,,,2022-03-11,1,,,,,エイト,0
1340,6030001147253,新規,0,2022-03-11,2022-03-11,トウキョウモデン株式会社,,株式会社,埼玉県,川口市,中青木２丁目１０番３７－１２０１号,,11,203,3320032,,,,,,,2022-03-11,1,,,,,トウキョウモデン,0
1363,6040003019581,新規,0,2022-03-11,2022-03-11,ＥＬＳＩＡＶＥＲＳＥ合同会社,,合同会社,千葉県,流山市,松ケ丘４丁目５１４番１３９号,,12,220,2700141,,,,,,,2022-03-11,1,,,,,エルシアバース,0
1364,6040003019648,新規,0,2022-03-11,2022-03-11,藍白合同会社,,合同会社,千葉県,流山市,おおたかの森北１丁目４番地の１ソライエグラン流山おおたかの森２２２,,12,220,2700119,,,,,,,2022-03-11,1,,,,,アイジロ,0
1366,6050001050769,新規,0,2022-03-11,2022-03-11,中村企画株式会社,,株式会社,茨城県,稲敷郡阿見町,中央７丁目９番１８号,,08,443,3000332,,,,,,,2022-03-11,1,,,,,ナカムラキカク,0
1367,6050005013029,新規,0,2022-03-11,2022-03-11,一般社団法人フォーピース,,その他の設立登記法人,茨城県,つくばみらい市,富士見ヶ丘１丁目１４番地２,,08,235,3002417,,,,,,,2022-03-11,1,,,,,フォーピース,0
1372,6070003004416,新規,0,2022-03-11,2022-03-11,ＲＡＩＤＥＮ合同会社,,合同会社,群馬県,太田市,粕川町２９４番地２,,10,205,3700421,,,,,,,2022-03-11,1,,,,,ライデン,0
1377,6080401025673,新規,0,2022-03-11,2022-03-11,株式会社ＴＡＩＺＯ,,株式会社,静岡県,浜松市中区,元浜町１９２番地の１,,22,131,4300942,,,,,,,2022-03-11,1,,,,,タイゾウ,0
1378,6080401025681,新規,0,2022-03-11,2022-03-11,株式会社大建設,,株式会社,静岡県,浜松市東区,下石田町１３２０番地の１,,22,132,4350006,,,,,,,2022-03-11,1,,,,,ダイケンセツ,0
1379,6080403004485,新規,0,2022-03-11,2022-03-11,合同会社ＢＬＥＳＳＩＮＧ,,合同会社,静岡県,浜松市中区,海老塚１丁目５番４号ステーションハイツ海老塚２０２,,22,131,4328033,,,,,,,2022-03-11,1,,,,,ブレッシング,0
1384,6100001035145,新規,0,2022-03-11,2022-03-11,株式会社ＡＩｆｉｅｌｄ,,株式会社,長野県,松本市,横田１丁目７番８号,,20,202,3900804,,,,,,,2022-03-11,1,,,,,アイフィールド,0
1391,6120001244405,新規,0,2022-03-11,2022-03-11,株式会社ＶＥＴＳ４ＰＥＴＳ,,株式会社,大阪府,守口市,京阪本通２丁目６番６－９０７号,,27,209,5700083,,,,,,,2022-03-11,1,,,,,ベッツフォーペッツ,0
1409,6180001150366,新規,0,2022-03-11,2022-03-11,株式会社Ｏｎｅｓｅｌｆ,,株式会社,愛知県,名古屋市北区,西志賀町３丁目８７番地,,23,103,4620058,,,,,,,2022-03-11,1,,,,,ワンセルフ,0
1412,6180003023603,新規,0,2022-03-11,2022-03-11,合同会社あんず,,合同会社,愛知県,名古屋市名東区,高針４丁目１０３６番地,,23,115,4650061,,,,,,,2022-03-11,1,,,,,アンズ,0
1414,6180301036018,新規,0,2022-03-11,2022-03-11,株式会社喜望芽,,株式会社,愛知県,刈谷市,小垣江町上松３３番地４,,23,210,4480813,,,,,,,2022-03-11,1,,,,,キノメ,0
1416,6180305009317,新規,0,2022-03-11,2022-03-11,医療法人小間歯科医院,,その他の設立登記法人,愛知県,豊橋市,札木町９４番地,,23,201,4400893,,,,,,,2022-03-11,1,,,,,コマシカイイン,0
1421,6220001024739,新規,0,2022-03-11,2022-03-11,ショージ商事株式会社,,株式会社,石川県,白山市,馬場１丁目１５９番地,,17,210,9240864,,,,,,,2022-03-11,1,,,,,ショージショウジ,0
1425,6240001059460,新規,0,2022-03-11,2022-03-11,株式会社新正建設,,株式会社,広島県,広島市東区,温品５丁目２番４７号,,34,102,7320033,,,,,,,2022-03-11,1,,,,,シンセイケンセツ,0
1427,6260001036631,新規,0,2022-03-11,2022-03-11,株式会社ＧＥＮＵＩＮＯ,,株式会社,岡山県,岡山市東区,大多羅町１０２番地１,,33,103,7048172,,,,,,,2022-03-11,1,,,,,ジェヌイーノ,0
1430,6270003001392,新規,0,2022-03-11,2022-03-11,合同会社ヨネイチ,,合同会社,鳥取県,鳥取市,南隈３５番地,,31,201,6800903,,,,,,,2022-03-11,1,,,,,ヨネイチ,0
1440,6290001096739,新規,0,2022-03-11,2022-03-11,エル・ミオーレ株式会社,,株式会社,福岡県,福岡市早良区,西新４丁目１番１－２７０９号,,40,137,8140002,,,,,,,2022-03-11,1,,,,,エルミオーレ,0
1441,6290001096747,新規,0,2022-03-11,2022-03-11,株式会社ＬＣ　Ｇｒｏｕｐ　Ｊａｐａｎ,,株式会社,福岡県,福岡市中央区,大名１丁目３番２９号,,40,133,8100041,,,,,,,2022-03-11,1,,,,,エルシーグループジャパン,0
1442,6290001096771,新規,0,2022-03-11,2022-03-11,株式会社キモミル,,株式会社,福岡県,福岡市中央区,薬院３丁目１６－２６西鉄薬院ビル５Ｆ,,40,133,8100022,,,,,,,2022-03-11,1,,,,,キモミル,0
1444,6290801028321,新規,0,2022-03-11,2022-03-11,株式会社ミラリーフ,,株式会社,福岡県,北九州市小倉南区,上吉田４丁目１８番８号,,40,107,8000201,,,,,,,2022-03-11,1,,,,,ミラリーフ,0
1448,6300005007062,新規,0,2022-03-11,2022-03-11,一般社団法人佐賀災害支援プラットフォーム,,その他の設立登記法人,佐賀県,佐賀市,唐人２丁目５番１５号ＴＯＪＩＮ館,,41,201,8400813,,,,,,,2022-03-11,1,,,,,サガサイガイシエンプラットフォーム,0
1453,6330001029529,新規,0,2022-03-11,2022-03-11,株式会社東栄地所ホーム,,株式会社,熊本県,合志市,豊岡２５０４番地１,,43,216,8611115,,,,,,,2022-03-11,1,,,,,トウエイジショホーム,0
1455,6350001017630,新規,0,2022-03-11,2022-03-11,ＴｏｗａＦｏｒｃｅ株式会社,,株式会社,宮崎県,小林市,細野２１０４番地１１,,45,205,8860004,,,,,,,2022-03-11,1,,,,,トーワフォース,0
1463,6370001048310,新規,0,2022-03-11,2022-03-11,成和リアルティ株式会社,,株式会社,宮城県,多賀城市,丸山１丁目４番４１号,,04,209,9850834,,,,,,,2022-03-11,1,,,,,セイワリアルティ,0
1466,6370005010448,新規,0,2022-03-11,2022-03-11,一般社団法人東北ＧＹＲＯｓ,,その他の設立登記法人,宮城県,本吉郡南三陸町,志津川字廻館８４番地２５,,04,606,9860775,,,,,,,2022-03-11,1,,,,,トウホクジャイロス,0
1479,6430001086122,新規,0,2022-03-11,2022-03-11,中鉱物産株式会社,,株式会社,北海道,札幌市中央区,南十四条西１７丁目１番３４号,,01,101,0640914,,,,,,,2022-03-11,1,,,,,チュウコウブッサン,0
1480,6430001086188,新規,0,2022-03-11,2022-03-11,株式会社Ｒｏｏｔｅｄ,,株式会社,北海道,北広島市,大曲南ヶ丘２丁目１番地２１,,01,234,0611275,,,,,,,2022-03-11,1,,,,,ルーテッド,0
1484,6480003001801,新規,0,2022-03-11,2022-03-11,合同会社ＢＫＧ　ＧＬＯＢＡＬ,,合同会社,徳島県,鳴門市,瀬戸町明神字弐軒家３番地２,,36,202,7720060,,,,,,,2022-03-11,1,,,,,ビーケージーグローバル,0
1488,6500001024058,新規,0,2022-03-11,2022-03-11,株式会社金盛商事,,株式会社,愛媛県,大洲市,稲積１１２番地２,,38,207,7950007,,,,,,,2022-03-11,1,,,,,カナモリショウジ,0
1497,7010101015096,新規,0,2022-03-11,2022-03-11,ＴＯＹＡＳ株式会社,,株式会社,東京都,八王子市,大谷町１０４３－４３大谷町貸家２階７号室,,13,201,1920034,,,,,,,2022-03-11,1,,,,,トヤス,0
1507,7010401166085,新規,0,2022-03-11,2022-03-11,ＥＶＥＲＳＥＲＴ株式会社,,株式会社,東京都,港区,北青山２丁目１２番２号２Ｆ,,13,103,1070061,,,,,,,2022-03-11,1,,,,,エバーサート,0
1508,7010401166127,新規,0,2022-03-11,2022-03-11,株式会社にっこり,,株式会社,東京都,港区,三田１丁目７番１号,,13,103,1080073,,,,,,,2022-03-11,1,,,,,ニッコリ,0
1509,7010401166143,新規,0,2022-03-11,2022-03-11,株式会社ＳＵＭＩＫＩＬ,,株式会社,東京都,港区,北青山３丁目６－７青山パラシオタワー１１階,,13,103,1070061,,,,,,,2022-03-11,1,,,,,スミキル,0
1513,7010405020800,新規,0,2022-03-11,2022-03-11,特定目的会社レジプロパティーズワン,,その他の設立登記法人,東京都,港区,六本木６丁目１０番１号六本木ヒルズ森タワー,,13,103,1060032,,,,,,,2022-03-11,1,,,,,レジプロパティーズワン,0
1514,7010501048563,新規,0,2022-03-11,2022-03-11,株式会社ＳＯＨＡ,,株式会社,東京都,台東区,千束３丁目１２番７号,,13,106,1110031,,,,,,,2022-03-11,1,,,,,ソーハ,0
1515,7010501048571,新規,0,2022-03-11,2022-03-11,株式会社三葉商事,,株式会社,東京都,台東区,根岸２丁目１４番１３－１０１号,,13,106,1100003,,,,,,,2022-03-11,1,,,,,ミツバショウジ,0
1516,7010503006528,新規,0,2022-03-11,2022-03-11,合同会社ＨＭＢ,,合同会社,東京都,台東区,根岸５丁目１０番１５号,,13,106,1100003,,,,,,,2022-03-11,1,,,,,エイチエムビー,0
1518,7010603009439,新規,0,2022-03-11,2022-03-11,ＭＯＤＩＮＡ合同会社,,合同会社,東京都,墨田区,江東橋２丁目２番１４－３０１号東神ビル,,13,107,1300022,,,,,,,2022-03-11,1,,,,,モディナ,0
1521,7010701042358,新規,0,2022-03-11,2022-03-11,及坊株式会社,,株式会社,東京都,品川区,上大崎２丁目２番１６－４０３号,,13,109,1410021,,,,,,,2022-03-11,1,,,,,キュウボウ,0
1522,7010701042366,新規,0,2022-03-11,2022-03-11,株式会社デューイ,,株式会社,東京都,品川区,南大井３丁目１－４,,13,109,1400013,,,,,,,2022-03-11,1,,,,,デューイ,0
1528,7010905004278,新規,0,2022-03-11,2022-03-11,一般社団法人こうよう,,その他の設立登記法人,東京都,世田谷区,弦巻４丁目１番９号コーポ榎本２０５号室,,13,112,1540016,,,,,,,2022-03-11,1,,,,,コウヨウ,0
1535,7011001146221,新規,0,2022-03-11,2022-03-11,ＩＥＯＵ国際株式会社,,株式会社,東京都,渋谷区,道玄坂１丁目１０番８号渋谷道玄坂東急ビル２Ｆ－Ｃ,,13,113,1500043,,,,,,,2022-03-11,1,,,,,イーユーコクサイ,0
1538,7011003014269,新規,0,2022-03-11,2022-03-11,合同会社ＲＵＩ,,合同会社,東京都,目黒区,青葉台１丁目９番６－１０２号プライムメゾン代官山,,13,110,1530042,,,,,,,2022-03-11,1,,,,,ルイ,0
1539,7011003014327,新規,0,2022-03-11,2022-03-11,合同会社ＡＲ,,合同会社,東京都,目黒区,青葉台３丁目１２番７－２０２号モアリッシェル代官山青葉台,,13,110,1530042,,,,,,,2022-03-11,1,,,,,エーアール,0
1540,7011003014335,新規,0,2022-03-11,2022-03-11,合同会社鹿,,合同会社,東京都,渋谷区,渋谷２丁目８－２荻津ビル５階,,13,113,1500002,,,,,,,2022-03-11,1,,,,,ロク,0
1547,7011301027625,新規,0,2022-03-11,2022-03-11,株式会社ＲＰＧ,,株式会社,東京都,杉並区,阿佐谷南１丁目１９番５号,,13,115,1660004,,,,,,,2022-03-11,1,,,,,アールピージー,0
1549,7011601025790,新規,0,2022-03-11,2022-03-11,いちご介護株式会社,,株式会社,東京都,練馬区,氷川台３丁目３０番８－１０１号,,13,120,1790084,,,,,,,2022-03-11,1,,,,,イチゴカイゴ,0
1552,7011803004997,新規,0,2022-03-11,2022-03-11,合同会社アートハピネス,,合同会社,東京都,足立区,東六月町５番３２号,,13,121,1210071,,,,,,,2022-03-11,1,,,,,アートハピネス,0
1555,7012703002422,新規,0,2022-03-11,2022-03-11,合同会社Ｌｅｇａｒｅ,,合同会社,東京都,小平市,鈴木町２丁目１９３－２０コンフォートテラスＷ,,13,211,1870011,,,,,,,2022-03-11,1,,,,,レガーレ,0
1559,7013101008862,新規,0,2022-03-11,2022-03-11,株式会社ＢａｓｅＨｏｍｅ,,株式会社,東京都,あきる野市,原小宮８０番地１,,13,228,1970811,,,,,,,2022-03-11,1,,,,,ベースホーム,0
1560,7013301048799,新規,0,2022-03-11,2022-03-11,オンライン不動産株式会社,,株式会社,東京都,豊島区,南池袋１丁目１６番１５号,,13,116,1710022,,,,,,,2022-03-11,1,,,,,オンラインフドウサン,0
1566,7020001145604,新規,0,2022-03-11,2022-03-11,株式会社武田建築,,株式会社,神奈川県,横浜市戸塚区,戸塚町１８７３番地６,,14,110,2440003,,,,,,,2022-03-11,1,,,,,タケダケンチク,0
1567,7020001145629,新規,0,2022-03-11,2022-03-11,株式会社ＫＥＶＩＮＳ,,株式会社,神奈川県,横浜市戸塚区,品濃町５４７－１Ａ４０１号,,14,110,2440801,,,,,,,2022-03-11,1,,,,,ケビンズ,0
1580,7021001075403,新規,0,2022-03-11,2022-03-11,丹沢地所株式会社,,株式会社,神奈川県,秦野市,柳町１丁目１４番１２号,,14,211,2591315,,,,,,,2022-03-11,1,,,,,タンザワジショ,0
1584,7021003011439,新規,0,2022-03-11,2022-03-11,合同会社ＫＥＭＳ,,合同会社,神奈川県,藤沢市,辻堂太平台２丁目７番１８～３１０号,,14,205,2510044,,,,,,,2022-03-11,1,,,,,ケムズ,0
1590,7030003019012,新規,0,2022-03-11,2022-03-11,合同会社ＫＲ,,合同会社,埼玉県,さいたま市見沼区,大字中川４５１番地１０,,11,104,3370043,,,,,,,2022-03-11,1,,,,,ケーアール,0
1596,7040001122584,新規,0,2022-03-11,2022-03-11,株式会社荒嶋,,株式会社,千葉県,印西市,高西新田４番地６,,12,231,2701365,,,,,,,2022-03-11,1,,,,,アラシマ,0
1601,7050001050735,新規,0,2022-03-11,2022-03-11,エムケーフォース株式会社,,株式会社,茨城県,龍ケ崎市,平台５丁目６番地４,,08,208,3010003,,,,,,,2022-03-11,1,,,,,エムケーフォース,0
1604,7050005013028,新規,0,2022-03-11,2022-03-11,一般社団法人モネの杜,,その他の設立登記法人,茨城県,つくばみらい市,板橋２８４３番地９７,,08,235,3002307,,,,,,,2022-03-11,1,,,,,モネノモリ,0
1607,7060001034646,新規,0,2022-03-11,2022-03-11,株式会社八木沢工業,,株式会社,栃木県,宇都宮市,鶴田町１４９２番地４８,,09,201,3200851,,,,,,,2022-03-11,1,,,,,ヤギサワコウギョウ,0
1609,7080003002748,新規,0,2022-03-11,2022-03-11,Ｑｕａｌｉｔａ合同会社,,合同会社,静岡県,焼津市,栄町３丁目６番２４号,,22,212,4250027,,,,,,,2022-03-11,1,,,,,クアリタ,0
1611,7080401025672,新規,0,2022-03-11,2022-03-11,株式会社サンテクノ浜松,,株式会社,静岡県,浜松市中区,富塚町１２２２番地の１３９,,22,131,4328002,,,,,,,2022-03-11,1,,,,,サンテクノハママツ,0
1615,7090003002061,新規,0,2022-03-11,2022-03-11,合同会社リーフ・デザイン,,合同会社,山梨県,甲府市,上今井町４８５番地４,,19,201,4000845,,,,,,,2022-03-11,1,,,,,リーフデザイン,0
1620,7110001036496,新規,0,2022-03-11,2022-03-11,株式会社ＫＩ製作所,,株式会社,新潟県,燕市,中島５１６１番地,,15,213,9590105,,,,,,,2022-03-11,1,,,,,ケーアイセイサクショ,0
1627,7120001244206,新規,0,2022-03-11,2022-03-11,株式会社コウメイ,,株式会社,大阪府,大阪市中央区,日本橋１丁目２５番２３号,,27,128,5420073,,,,,,,2022-03-11,1,,,,,コウメイ,0
1628,7120001244404,新規,0,2022-03-11,2022-03-11,株式会社コンサルテック社,,株式会社,大阪府,大阪市中央区,谷町１丁目６番４号,,27,128,5400012,,,,,,,2022-03-11,1,,,,,コンサルテックシャ,0
1629,7120001244412,新規,0,2022-03-11,2022-03-11,株式会社ＯＭＮＩＳＥＮＳＥ,,株式会社,大阪府,大阪市北区,梅田１丁目１－３大阪駅前第３ビル２９階１－１－１号室,,27,127,5300001,,,,,,,2022-03-11,1,,,,,オムニセンス,0
1630,7120001244420,新規,0,2022-03-11,2022-03-11,昌朋商事株式会社,,株式会社,大阪府,大阪市中央区,南船場４丁目１１番２５号２階,,27,128,5420081,,,,,,,2022-03-11,1,,,,,ショウホウショウジ,0
1634,7120003021272,新規,0,2022-03-11,2022-03-11,Ｑｕｏｋｋａ　Ｉｎｔｅｒｎａｔｉｏｎａｌ合同会社,,合同会社,大阪府,大阪市浪速区,稲荷２丁目３番２５号ベルヴィラージュ桜川５０１号室,,27,111,5560023,,,,,,,2022-03-11,1,,,,,クオッカインターナショナル,0
1639,7122001035659,新規,0,2022-03-11,2022-03-11,株式会社Ａｉｍｈｉｇｈ,,株式会社,大阪府,東大阪市,渋川町１丁目５番２５号,,27,227,5770836,,,,,,,2022-03-11,1,,,,,エイムハイ,0
1642,7130001071260,新規,0,2022-03-11,2022-03-11,株式会社川口,,株式会社,京都府,京都市伏見区,三栖町２丁目８１８番地,,26,109,6128233,,,,,,,2022-03-11,1,,,,,カワグチ,0
1658,7140003017450,新規,0,2022-03-11,2022-03-11,Ｂｅｅ　Ｋｉｎｄ合同会社,,合同会社,兵庫県,神戸市北区,藤原台南町５丁目１３番１０号,,28,109,6511303,,,,,,,2022-03-11,1,,,,,ビーカインド,0
1672,7180001150200,新規,0,2022-03-11,2022-03-11,丸和ミライズ株式会社,,株式会社,愛知県,瀬戸市,北松山町１丁目１４５番地の２,,23,204,4890911,,,,,,,2022-03-11,1,,,,,マルワミライズ,0
1673,7180001150266,新規,0,2022-03-11,2022-03-11,Ｙ株式会社,,株式会社,愛知県,名古屋市中村区,若宮町４丁目３９番地ＢＥＬＬ　ＨＯＵＳＥ３０２,,23,105,4530023,,,,,,,2022-03-11,1,,,,,ワイ,0
1674,7180001150324,新規,0,2022-03-11,2022-03-11,株式会社ＬＵＬＵ,,株式会社,愛知県,名古屋市中区,栄３丁目４－２７,,23,106,4600008,,,,,,,2022-03-11,1,,,,,ルル,0
1675,7180001150365,新規,0,2022-03-11,2022-03-11,日本偉一工業株式会社,,株式会社,愛知県,半田市,岩滑東町１丁目８０番地,,23,205,4750905,,,,,,,2022-03-11,1,,,,,ニホンヴイワンコウギョウ,0
1676,7180001150381,新規,0,2022-03-11,2022-03-11,株式会社リユースデザイン,,株式会社,愛知県,名古屋市天白区,天白町大字野並字笹原１５３３番地２５,,23,116,4680037,,,,,,,2022-03-11,1,,,,,リユースデザイン,0
1682,7180305009316,新規,0,2022-03-11,2022-03-11,医療法人いちかわメディカルクリニック,,その他の設立登記法人,愛知県,安城市,新田町新栄８５番地１,,23,212,4460061,,,,,,,2022-03-11,1,,,,,イチカワメディカルクリニック,0
1683,7190001029212,新規,0,2022-03-11,2022-03-11,株式会社コミュニティベース,,株式会社,三重県,桑名市,柳原１２１番地１,,24,205,5110042,,,,,,,2022-03-11,1,,,,,コミュニティベース,0
1690,7230003001817,新規,0,2022-03-11,2022-03-11,合同会社ＡＲＱＳ,,合同会社,富山県,富山市,堀川町４２１番地２エクセレント２１・２１１号,,16,201,9398072,,,,,,,2022-03-11,1,,,,,アークス,0
1699,7240005015351,新規,0,2022-03-11,2022-03-11,一般社団法人Ｕｎｉｃａｌ,,その他の設立登記法人,広島県,広島市中区,幟町１番５号,,34,101,7300016,,,,,,,2022-03-11,1,,,,,ユニカル,0
1700,7260001036630,新規,0,2022-03-11,2022-03-11,株式会社２９６,,株式会社,岡山県,岡山市北区,駅前町２丁目２番１５号ロイヤルガーデン岡山駅前壱番館１３０１号室,,33,101,7000023,,,,,,,2022-03-11,1,,,,,フクロウ,0
1712,7290003012263,新規,0,2022-03-11,2022-03-11,ＶＴＰ合同会社,,合同会社,福岡県,福岡市東区,和白東５丁目１番２,,40,131,8110214,,,,,,,2022-03-11,1,,,,,ブイティーピー,0
1713,7290003012271,新規,0,2022-03-11,2022-03-11,合同会社Ａ,,合同会社,福岡県,久留米市,諏訪野町２３４６番地５,,40,203,8300037,,,,,,,2022-03-11,1,,,,,エース,0
1720,7330001029536,新規,0,2022-03-11,2022-03-11,ラニアケア・マーケティング株式会社,,株式会社,熊本県,宇土市,長浜町５番地の９,,43,211,8693171,,,,,,,2022-03-11,1,,,,,ラニアケアマーケティング,0
1722,7340001024560,新規,0,2022-03-11,2022-03-11,奄美アイランドツアー株式会社,,株式会社,鹿児島県,大島郡龍郷町,浦２３１番地１,,46,527,8940104,,,,,,,2022-03-11,1,,,,,アマミアイランドツアー,0
1726,7360001030103,新規,0,2022-03-11,2022-03-11,株式会社メイセイ,,株式会社,沖縄県,浦添市,牧港１丁目６４番１７号,,47,208,9012131,,,,,,,2022-03-11,1,,,,,メイセイ,0
1727,7360003011860,新規,0,2022-03-11,2022-03-11,合同会社永吉商会,,合同会社,沖縄県,中頭郡嘉手納町,字水釜１９１番地５,,47,325,9040204,,,,,,,2022-03-11,1,,,,,エイキチショウカイ,0
1741,7410001013119,新規,0,2022-03-11,2022-03-11,株式会社ＭＯＬＥ,,株式会社,秋田県,大館市,城西町１番３４号,,05,204,0170865,,,,,,,2022-03-11,1,,,,,モール,0
1746,7440001009048,新規,0,2022-03-11,2022-03-11,株式会社Ａ　Ｄｕｅｘ,,株式会社,北海道,北斗市,東浜１丁目１５番５８号,,01,236,0490122,,,,,,,2022-03-11,1,,,,,アドゥ,0
1747,7460003000886,新規,0,2022-03-11,2022-03-11,ＳＴＡＲＣＯＵＲＴ合同会社,,合同会社,北海道,釧路市,興津５丁目２９番６号,,01,206,0850811,,,,,,,2022-03-11,1,,,,,スターコート,0
1750,7500003002795,新規,0,2022-03-11,2022-03-11,合同会社ＦＰエステート,,合同会社,愛媛県,松山市,山越２丁目４番７号,,38,201,7918013,,,,,,,2022-03-11,1,,,,,エフピーエステート,0
1759,8010003037122,新規,0,2022-03-11,2022-03-11,Ｃｏｇｏ　Ｃｏｎｎｅｃｔｉｎｇ　Ｇｏｏｄ合同会社,,合同会社,東京都,千代田区,丸の内３丁目２－２丸の内日本橋ビル２階、３階,,13,101,1000005,,,,,,,2022-03-11,1,,,,,コゴコネクティンググッド,0
1764,8010401166118,新規,0,2022-03-11,2022-03-11,ＦｉＮＸ株式会社,,株式会社,東京都,港区,浜松町１丁目２７－１７三和ビル４階,,13,103,1050013,,,,,,,2022-03-11,1,,,,,フィンクス,0
1765,8010401166175,新規,0,2022-03-11,2022-03-11,株式会社ウチダヤ,,株式会社,東京都,港区,北青山３丁目２番１号,,13,103,1070061,,,,,,,2022-03-11,1,,,,,ウチダヤ,0
1769,8010403027251,新規,0,2022-03-11,2022-03-11,合同会社Ｓｏａｒ,,合同会社,東京都,港区,高輪４丁目２番４号ミア高輪２Ｆ,,13,103,1080074,,,,,,,2022-03-11,1,,,,,ソア,0
1770,8010501048554,新規,0,2022-03-11,2022-03-11,ＺＥＲＯ株式会社,,株式会社,東京都,台東区,東上野２丁目２０番６号,,13,106,1100015,,,,,,,2022-03-11,1,,,,,ゼロ,0
1779,8010601060814,新規,0,2022-03-11,2022-03-11,株式会社マキシム設立準備会社,,株式会社,東京都,墨田区,立川２丁目１０番２号,,13,107,1300023,,,,,,,2022-03-11,1,,,,,マキシムセツリツジュンビガイシャ,0
1780,8010701042357,新規,0,2022-03-11,2022-03-11,ＢＯＲＤＥＲ株式会社,,株式会社,東京都,品川区,大崎１丁目１番１－１３０８号,,13,109,1410032,,,,,,,2022-03-11,1,,,,,ボーダー,0
1783,8010801032803,新規,0,2022-03-11,2022-03-11,株式会社ＮＫ商会,,株式会社,東京都,大田区,蒲田５丁目６番３号,,13,111,1440052,,,,,,,2022-03-11,1,,,,,エヌケイショウカイ,0
1790,8010903007224,新規,0,2022-03-11,2022-03-11,合同会社アミーチ,,合同会社,東京都,世田谷区,赤堤２丁目５１番７号,,13,112,1560044,,,,,,,2022-03-11,1,,,,,アミーチ,0
1799,8011001146237,新規,0,2022-03-11,2022-03-11,株式会社アル・ディ・ラ,,株式会社,東京都,渋谷区,恵比寿西２丁目９番９号クリスタルスクエア代官山３Ｆ,,13,113,1500021,,,,,,,2022-03-11,1,,,,,アルディラ,0
1800,8011001146303,新規,0,2022-03-11,2022-03-11,Ｗｈｏｌｅ　Ｅａｒｔｈ　Ｆｏｕｎｄａｔｉｏｎ　Ｊａｐａｎ株式会社,,株式会社,東京都,渋谷区,渋谷１丁目３番９号ヒューリック渋谷１丁目ビル７階,,13,113,1500002,,,,,,,2022-03-11,1,,,,,ホールアースファウンデーションジャパン,0
1801,8011003014318,新規,0,2022-03-11,2022-03-11,合同会社Ｌｉｔ,,合同会社,東京都,渋谷区,渋谷２丁目１９番１５号宮益坂ビルディング６０９,,13,113,1500002,,,,,,,2022-03-11,1,,,,,リット,0
1802,8011003014334,新規,0,2022-03-11,2022-03-11,ａｄｏｒａｂｌｅ合同会社,,合同会社,東京都,渋谷区,恵比寿１丁目１５番９号日宝恵比寿ビル４０３,,13,113,1500013,,,,,,,2022-03-11,1,,,,,アドラブル,0
1810,8011105010173,新規,0,2022-03-11,2022-03-11,一般社団法人国際幼児体育学会,,その他の設立登記法人,東京都,新宿区,住吉町２番１５号萩野ビル３階,,13,104,1620065,,,,,,,2022-03-11,1,,,,,コクサイヨウジタイイクガッカイ,0
1812,8011401024091,新規,0,2022-03-11,2022-03-11,株式会社ラクシア,,株式会社,東京都,板橋区,板橋１丁目５番１１号佐瀬ビル１Ｆ,,13,119,1730004,,,,,,,2022-03-11,1,,,,,ラクシア,0
1817,8012301012921,新規,0,2022-03-11,2022-03-11,株式会社エム,,株式会社,東京都,町田市,成瀬が丘１丁目２６番地１３,,13,209,1940011,,,,,,,2022-03-11,1,,,,,エム,0
1820,8012703002421,新規,0,2022-03-11,2022-03-11,合同会社Ｒ　ｆｏｒ　Ｃ,,合同会社,東京都,小平市,大沼町１丁目３番１８号,,13,211,1870001,,,,,,,2022-03-11,1,,,,,アールフォーシー,0
1822,8013301048798,新規,0,2022-03-11,2022-03-11,株式会社カノウメディカル,,株式会社,東京都,豊島区,西池袋３丁目２２番８号パークサイドＦＵＫＩ２階,,13,116,1710021,,,,,,,2022-03-11,1,,,,,カノウメディカル,0
1836,8020003021447,新規,0,2022-03-11,2022-03-11,合同会社プラステイスト,,合同会社,神奈川県,横浜市港南区,日野８丁目８番８号,,14,111,2340051,,,,,,,2022-03-11,1,,,,,プラステイスト,0
1841,8021003011479,新規,0,2022-03-11,2022-03-11,合同会社セツナ,,合同会社,神奈川県,高座郡寒川町,大曲１丁目２番２３号,,14,321,2530113,,,,,,,2022-03-11,1,,,,,セツナ,0
1848,8030001147219,新規,0,2022-03-11,2022-03-11,株式会社ｗｉｎｅ‐ｂｒｉｄｇｅ,,株式会社,埼玉県,上尾市,浅間台２丁目２１番地１３,,11,219,3620073,,,,,,,2022-03-11,1,,,,,ワインブリッジ,0
1849,8030001147227,新規,0,2022-03-11,2022-03-11,株式会社エムフィールド,,株式会社,埼玉県,川口市,元郷３丁目１６番１６号,,11,203,3320011,,,,,,,2022-03-11,1,,,,,エムフィールド,0
1857,8040001122534,新規,0,2022-03-11,2022-03-11,ウンナティボンズ＆ブリッジトレーディング株式会社,,株式会社,千葉県,千葉市中央区,春日２丁目２３番４号,,12,101,2600033,,,,,,,2022-03-11,1,,,,,ウンナティボンズアンドブリッジトレーディング,0
1861,8040003019638,新規,0,2022-03-11,2022-03-11,ドリームコラボ合同会社,,合同会社,千葉県,東金市,北之幸谷４７番地１１,,12,213,2830061,,,,,,,2022-03-11,1,,,,,ドリームコラボ,0
1862,8040003019654,新規,0,2022-03-11,2022-03-11,合同会社Ｙｕｍｉｔａｓ,,合同会社,千葉県,柏市,明原３丁目１３番１３号,,12,217,2770843,,,,,,,2022-03-11,1,,,,,ユミタス,0
1866,8060001034653,新規,0,2022-03-11,2022-03-11,株式会社Ｃｏｏｌ　Ｆｏｒｅｓｔ,,株式会社,栃木県,日光市,土沢１８１９番地５,,09,206,3211274,,,,,,,2022-03-11,1,,,,,クールフォレスト,0
1876,8110001036495,新規,0,2022-03-11,2022-03-11,株式会社土田昆衛製作所,,株式会社,新潟県,燕市,中島５１６１番地,,15,213,9590105,,,,,,,2022-03-11,1,,,,,ツチダヨシエイセイサクショ,0
1884,8120001244287,新規,0,2022-03-11,2022-03-11,株式会社ＢＲＩＧＨＴ,,株式会社,大阪府,大阪市中央区,心斎橋筋１丁目２番２５号上田ビル１階,,27,128,5420085,,,,,,,2022-03-11,1,,,,,ブライト,0
1885,8120001244394,新規,0,2022-03-11,2022-03-11,三元株式会社,,株式会社,大阪府,大阪市中央区,松屋町９番２０号ローレルステート松屋町８０５Ｂ,,27,128,5420067,,,,,,,2022-03-11,1,,,,,ミツモト,0
1886,8120001244411,新規,0,2022-03-11,2022-03-11,宝島商事株式会社,,株式会社,大阪府,大阪市港区,池島２丁目３番１３－１０２号,,27,107,5520015,,,,,,,2022-03-11,1,,,,,タカラジマショウジ,0
1887,8120001244444,新規,0,2022-03-11,2022-03-11,株式会社ハヤシ商事,,株式会社,大阪府,大阪市中央区,内本町２丁目２－１４－１１０７号室,,27,128,5400026,,,,,,,2022-03-11,1,,,,,ハヤシショウジ,0
1891,8120003021255,新規,0,2022-03-11,2022-03-11,ＳＨＩＮＥ　ＢＲＩＤＧＥ合同会社,,合同会社,大阪府,大阪市西淀川区,歌島１丁目５番２３号,,27,113,5550021,,,,,,,2022-03-11,1,,,,,サインブリッジ,0
1896,8122001035658,新規,0,2022-03-11,2022-03-11,株式会社志,,株式会社,大阪府,東大阪市,上六万寺町１２番２８号,,27,227,5798062,,,,,,,2022-03-11,1,,,,,ココロザシ,0
1900,8130001071334,新規,0,2022-03-11,2022-03-11,株式会社エコスタンド関西,,株式会社,京都府,城陽市,市辺南垣内１０６番地の２,,26,207,6100114,,,,,,,2022-03-11,1,,,,,エコスタンドカンサイ,0
1907,8140005026060,新規,0,2022-03-11,2022-03-11,一般社団法人ＳｐａｃＥ,,その他の設立登記法人,兵庫県,川辺郡猪名川町,白金２丁目４６番地９,,28,301,6660257,,,,,,,2022-03-11,1,,,,,スペース,0
1912,8180003023601,新規,0,2022-03-11,2022-03-11,合同会社グリーンプラザ,,合同会社,愛知県,一宮市,野口１丁目１２番１－７０２号,,23,203,4910911,,,,,,,2022-03-11,1,,,,,グリーンプラザ,0
1913,8180301036016,新規,0,2022-03-11,2022-03-11,Ｃｒｏｓｓ　Ｃｈａｎｎｅｌ株式会社,,株式会社,愛知県,豊川市,古宿町中通１０６番地の３,,23,207,4420817,,,,,,,2022-03-11,1,,,,,クロスチャンネル,0
1915,8200001039852,新規,0,2022-03-11,2022-03-11,曜喜商事株式会社,,株式会社,岐阜県,瑞穂市,祖父江１１７番地,,21,216,5010225,,,,,,,2022-03-11,1,,,,,ヨウキショウジ,0
1925,8240003005527,新規,0,2022-03-11,2022-03-11,インプルーバー合同会社,,合同会社,広島県,広島市安佐南区,安東２丁目１３番３０－２４号,,34,105,7310153,,,,,,,2022-03-11,1,,,,,インプルーバー,0
1927,8240005015359,新規,0,2022-03-11,2022-03-11,サムライ事業協同組合,,その他の設立登記法人,広島県,広島市中区,大手町３丁目３番１８号,,34,101,7300051,,,,,,,2022-03-11,1,,,,,サムライ,0
1942,8290805009530,新規,0,2022-03-11,2022-03-11,キャリアインターン事業協同組合,,その他の設立登記法人,福岡県,京都郡みやこ町,勝山箕田１４７－１,,40,625,8240811,,,,,,,2022-03-11,1,,,,,キャリアインターン,0
1943,8300001012824,新規,0,2022-03-11,2022-03-11,坂田組ホールディングス株式会社,,株式会社,佐賀県,佐賀市,末広２丁目１３番７号,,41,201,8400032,,,,,,,2022-03-11,1,,,,,サカタグミホールディングス,0
1949,8340003003735,新規,0,2022-03-11,2022-03-11,合同会社ＩＷＡＫＡＷＡ,,合同会社,鹿児島県,薩摩川内市,御陵下町２６－５０,,46,215,8950061,,,,,,,2022-03-11,1,,,,,イワカワ,0
1959,8400001015809,新規,0,2022-03-11,2022-03-11,株式会社いわき農園,,株式会社,岩手県,下閉伊郡山田町,荒川第４地割９０番地４,,03,482,0281303,,,,,,,2022-03-11,1,,,,,イワキノウエン,0
1963,8410005006456,新規,0,2022-03-11,2022-03-11,特定非営利活動法人大館学び大学,,その他の設立登記法人,秋田県,大館市,御成町１丁目１２番２７号,,05,204,0170044,,,,,,,2022-03-11,1,,,,,オオダテマナビダイガク,0
1967,8430005014408,新規,0,2022-03-11,2022-03-11,弁護士法人琴似あかつき法律事務所,,その他の設立登記法人,北海道,札幌市西区,琴似一条６丁目４－３琴似第一ビルディング３階,,01,107,0630811,,,,,,,2022-03-11,1,,,,,コトニアカツキホウリツジムショ,0
1971,8490005006829,新規,0,2022-03-11,2022-03-11,一般社団法人ハンズオン,,その他の設立登記法人,高知県,高知市,はりまや町３丁目３番３号ＧＡＩＡビル２階,,39,201,7800822,,,,,,,2022-03-11,1,,,,,ハンズオン,0
1972,8700150107351,新規,0,2022-03-11,2022-03-11,関市平賀天神杜土地区画整理組合,,その他,岐阜県,岐阜市,薮田南５丁目１４番１２号公益社団法人岐阜県都市整備協会内,,21,201,5008384,,,,,,,2022-03-11,1,,,,,セキシヒラガテンジンモリトチクカクセイリクミアイ,0
1974,9010001225116,新規,0,2022-03-11,2022-03-11,株式会社ミオス,,株式会社,東京都,中央区,銀座１丁目１５番７号マック銀座ビル５０５号室,,13,102,1040061,,,,,,,2022-03-11,1,,,,,ミオス,0
1977,9010003037006,新規,0,2022-03-11,2022-03-11,くろみ合同会社,,合同会社,東京都,中央区,銀座１丁目２２番１１号銀座大竹ビジデンス２階,,13,102,1040061,,,,,,,2022-03-11,1,,,,,クロミ,0
1984,9010401165936,新規,0,2022-03-11,2022-03-11,西越水産株式会社,,株式会社,東京都,港区,芝２丁目２９番１４号中央店舗一星芝公園ビル１階,,13,103,1050014,,,,,,,2022-03-11,1,,,,,セイエツスイサン,0
1985,9010401166001,新規,0,2022-03-11,2022-03-11,株式会社マエノメフルピープルズ,,株式会社,東京都,港区,南青山２丁目２番１５号,,13,103,1070062,,,,,,,2022-03-11,1,,,,,マエノメフルピープルズ,0
1986,9010401166083,新規,0,2022-03-11,2022-03-11,株式会社フジイ,,株式会社,東京都,港区,西新橋１丁目１８番１４号,,13,103,1050003,,,,,,,2022-03-11,1,,,,,フジイ,0
1987,9010401166174,新規,0,2022-03-11,2022-03-11,株式会社Ｐａｒｎａｓ,,株式会社,東京都,港区,港南３丁目６－２１コスモポリス品川２９０８,,13,103,1080075,,,,,,,2022-03-11,1,,,,,パルナス,0
1991,9010501048561,新規,0,2022-03-11,2022-03-11,ＵＭＡＭＩ　ＵＮＩＴＥＤ　ＪＡＰＡＮ株式会社,,株式会社,東京都,台東区,雷門１丁目１６番８号小海ビル３Ｆ,,13,106,1110034,,,,,,,2022-03-11,1,,,,,ウマミユナイテッドジャパン,0
1994,9010601060821,新規,0,2022-03-11,2022-03-11,古賀商会株式会社,,株式会社,東京都,江東区,東雲１丁目９番３１－１７０４号,,13,108,1350062,,,,,,,2022-03-11,1,,,,,コガショウカイ,0
1996,9010603009437,新規,0,2022-03-11,2022-03-11,青合同会社,,合同会社,東京都,墨田区,太平２丁目９－５－１１０１フォレシティ錦糸町,,13,107,1300012,,,,,,,2022-03-11,1,,,,,アオ,0
1997,9010605004056,新規,0,2022-03-11,2022-03-11,一般社団法人ＨＯＮＴＯ　ＴＶ,,その他の設立登記法人,東京都,江東区,亀戸５丁目１３番２号スクエア三報２階Ａ,,13,108,1360071,,,,,,,2022-03-11,1,,,,,ホントティーヴィー,0
1998,9010701042356,新規,0,2022-03-11,2022-03-11,株式会社コウゼン,,株式会社,東京都,品川区,小山３丁目１４番２－８０２号,,13,109,1420062,,,,,,,2022-03-11,1,,,,,コウゼン,0
1999,9010701042364,新規,0,2022-03-11,2022-03-11,株式会社ロボレ,,株式会社,東京都,品川区,上大崎２丁目２５番５号,,13,109,1410021,,,,,,,2022-03-11,1,,,,,ロボレ,0
2002,9010803004089,新規,0,2022-03-11,2022-03-11,合同会社ミトユト,,合同会社,東京都,大田区,西六郷４丁目２９番５―２０７号,,13,111,1440056,,,,,,,2022-03-11,1,,,,,ミトユト,0
2008,9011001146293,新規,0,2022-03-11,2022-03-11,株式会社アックインターナショナル,,株式会社,東京都,目黒区,大岡山１丁目２５番１３号,,13,110,1520033,,,,,,,2022-03-11,1,,,,,アックインターナショナル,0
2010,9011003014317,新規,0,2022-03-11,2022-03-11,合同会社Ｂｉｚ　Ａｄｍｉｎｉｓｔｒａｔｉｏｎ,,合同会社,東京都,渋谷区,渋谷３丁目６番２号５階,,13,113,1500002,,,,,,,2022-03-11,1,,,,,ビズアドミニストレーション,0
2017,9011301027623,新規,0,2022-03-11,2022-03-11,株式会社Ｒｏｓｔｒｕｍ,,株式会社,東京都,杉並区,阿佐谷南２丁目３３－１３－２０３,,13,115,1660004,,,,,,,2022-03-11,1,,,,,ロストラム,0
2020,9011603003545,新規,0,2022-03-11,2022-03-11,合同会社セミクル,,合同会社,東京都,練馬区,大泉学園町４丁目２６番１１号,,13,120,1780061,,,,,,,2022-03-11,1,,,,,セミクル,0
2028,9012803002725,新規,0,2022-03-11,2022-03-11,ＮＡＭ　ＣＨＩ合同会社,,合同会社,東京都,昭島市,緑町４丁目２７番１９号,,13,207,1960004,,,,,,,2022-03-11,1,,,,,ナムチ,0
2036,9020001145627,新規,0,2022-03-11,2022-03-11,株式会社神奈川コンサルティング＆アセットパートナーズ,,株式会社,神奈川県,横浜市西区,桜木町７丁目４２番地八洲学園大学ビル７階Ｊ,,14,103,2200021,,,,,,,2022-03-11,1,,,,,カナガワコンサルティングアンドアセットパートナーズ,0
2037,9020003021438,新規,0,2022-03-11,2022-03-11,合同会社ＲＩＳＥ,,合同会社,神奈川県,川崎市高津区,久末１２６番地１ヒールコート１０２,,14,134,2130026,,,,,,,2022-03-11,1,,,,,ライズ,0
2045,9030001147226,新規,0,2022-03-11,2022-03-11,株式会社神ｎｅｏ学習塾,,株式会社,埼玉県,さいたま市桜区,道場２丁目１番１‐３４５号,,11,106,3380835,,,,,,,2022-03-11,1,,,,,カミネオガクシュウジュク,0
2049,9030003018953,新規,0,2022-03-11,2022-03-11,合同会社ＮＧＵＹＥＮ　ＤＵＣ,,合同会社,埼玉県,朝霞市,浜崎２丁目８番１号ベリエスガールＢ１０１,,11,227,3510033,,,,,,,2022-03-11,1,,,,,グエンドック,0
2062,9040003019653,新規,0,2022-03-11,2022-03-11,合同会社９１０,,合同会社,千葉県,木更津市,東中央２丁目９番４号アベビル４０２号,,12,206,2920057,,,,,,,2022-03-11,1,,,,,クドー,0
2063,9050001050774,新規,0,2022-03-11,2022-03-11,株式会社ホームテック,,株式会社,茨城県,水戸市,渡里町２６９７番地の１１コーポＲ＆Ｙ１０３号,,08,201,3100902,,,,,,,2022-03-11,1,,,,,ホームテック,0
2064,9050001050790,新規,0,2022-03-11,2022-03-11,株式会社東真,,株式会社,茨城県,ひたちなか市,富士ノ上３番４号,,08,221,3111218,,,,,,,2022-03-11,1,,,,,トウシン,0
2067,9060001034652,新規,0,2022-03-11,2022-03-11,株式会社ＫＭコーポレーション,,株式会社,栃木県,河内郡上三川町,大字磯岡４２１番地１,,09,301,3290606,,,,,,,2022-03-11,1,,,,,ケイエムコーポレーション,0
2069,9060003003977,新規,0,2022-03-11,2022-03-11,合同会社４４カンパニー,,合同会社,栃木県,宇都宮市,一ノ沢町２７０－１ジュネス一の沢１０１,,09,201,3200049,,,,,,,2022-03-11,1,,,,,フォーティーフォーカンパニー,0
2072,9070001038990,新規,0,2022-03-11,2022-03-11,株式会社ｅ．ｓエンタープライズ,,株式会社,群馬県,太田市,飯田町１２８１番地藤ビル３Ｆ,,10,205,3730851,,,,,,,2022-03-11,1,,,,,イーエスエンタープライズ,0
2073,9070001039031,新規,0,2022-03-11,2022-03-11,株式会社あいとやすらぎ,,株式会社,群馬県,伊勢崎市,波志江町４０５７番地１ホワイトスクエア２０４,,10,204,3720001,,,,,,,2022-03-11,1,,,,,アイトヤスラギ,0
2080,9100003006455,新規,0,2022-03-11,2022-03-11,ＡＣ　ＴＡＫＡＤＡ合同会社,,合同会社,長野県,上伊那郡箕輪町,大字中箕輪１６１番地６,,20,383,3994601,,,,,,,2022-03-11,1,,,,,エーシータカダ,0
2081,9110001036494,新規,0,2022-03-11,2022-03-11,タコスタイル株式会社,,株式会社,新潟県,糸魚川市,上刈３丁目８番９号,,15,216,9410064,,,,,,,2022-03-11,1,,,,,タコスタイル,0
2091,9120001244419,新規,0,2022-03-11,2022-03-11,株式会社ＭａｃｒｏｔｅｃｈＪＰ,,株式会社,大阪府,大阪市中央区,備後町３丁目６－２大雅ビル１０Ｆ,,27,128,5410051,,,,,,,2022-03-11,1,,,,,マクロテックジェイピー,0
2092,9120001244427,新規,0,2022-03-11,2022-03-11,イナリー株式会社,,株式会社,大阪府,大阪市鶴見区,鶴見３丁目１２番１０－２６０１号,,27,124,5380053,,,,,,,2022-03-11,1,,,,,イナリー,0
2093,9120001244435,新規,0,2022-03-11,2022-03-11,株式会社エクセレント,,株式会社,大阪府,大阪市北区,中之島５丁目３番９２－４２０号,,27,127,5300005,,,,,,,2022-03-11,1,,,,,エクセレント,0
2098,9120101065228,新規,0,2022-03-11,2022-03-11,関西不動産株式会社,,株式会社,大阪府,堺市堺区,車之町西２丁２番５号ロイヤルコートビル３Ａ,,27,141,5900940,,,,,,,2022-03-11,1,,,,,カンサイフドウサン,0
2099,9120103004605,新規,0,2022-03-11,2022-03-11,合同会社あかり,,合同会社,大阪府,堺市東区,日置荘西町６丁２５番９号,,27,143,5998114,,,,,,,2022-03-11,1,,,,,アカリ,0
2104,9122001035657,新規,0,2022-03-11,2022-03-11,株式会社ワンダ設備,,株式会社,大阪府,柏原市,法善寺３丁目４８１番地の７,,27,221,5820005,,,,,,,2022-03-11,1,,,,,ワンダセツビ,0
2145,9220003003242,新規,0,2022-03-11,2022-03-11,合同会社蘇生,,合同会社,石川県,金沢市,鳴和台３０番地,,17,201,9200815,,,,,,,2022-03-11,1,,,,,ソセイ,0
2148,9240001059458,新規,0,2022-03-11,2022-03-11,株式会社ＫＫ,,株式会社,広島県,広島市西区,南観音８丁目８番５号,,34,104,7330035,,,,,,,2022-03-11,1,,,,,ケイケイ,0
2151,9240005015358,新規,0,2022-03-11,2022-03-11,医療法人龍樹会,,その他の設立登記法人,広島県,広島市東区,戸坂大上４丁目２９番１３号,,34,102,7320014,,,,,,,2022-03-11,1,,,,,リュウジュカイ,0
2162,9290001096769,新規,0,2022-03-11,2022-03-11,株式会社ヘキサグループ,,株式会社,福岡県,福岡市博多区,中洲２丁目５番５号,,40,132,8100801,,,,,,,2022-03-11,1,,,,,ヘキサグループ,0
2163,9290005018587,新規,0,2022-03-11,2022-03-11,社会保険労務士法人原事務所,,その他の設立登記法人,福岡県,福岡市南区,横手２丁目４番１０号,,40,134,8111311,,,,,,,2022-03-11,1,,,,,ハラジムショ,0
2164,9290801028335,新規,0,2022-03-11,2022-03-11,株式会社Ｃｏｃｏ,,株式会社,福岡県,直方市,大字頓野１９２１番地１フォレスタけやき１０８,,40,204,8220002,,,,,,,2022-03-11,1,,,,,ココ,0
2168,9320005009970,新規,0,2022-03-11,2022-03-11,一般社団法人ゆふいん児童クラブ,,その他の設立登記法人,大分県,由布市,湯布院町川上３７５７番地の１,,44,213,8795102,,,,,,,2022-03-11,1,,,,,ユフインジドウクラブ,0
2170,9330001029534,新規,0,2022-03-11,2022-03-11,サンスター株式会社,,株式会社,熊本県,熊本市中央区,新市街１－２８ＴＨＥＰＬＡＣＥ花畑ビル６Ｆ,,43,101,8600803,,,,,,,2022-03-11,1,,,,,サンスター,0
2172,9340005009424,新規,0,2022-03-11,2022-03-11,医療法人信和会,,その他の設立登記法人,鹿児島県,鹿児島市,易居町１－３４,,46,201,8920815,,,,,,,2022-03-11,1,,,,,シンワカイ,0
2174,9360001030118,新規,0,2022-03-11,2022-03-11,株式会社グーリフォーむ,,株式会社,沖縄県,浦添市,仲間１丁目７－８ＴＩＤＡメゾン仲間１０３,,47,208,9012103,,,,,,,2022-03-11,1,,,,,グーリフォーム,0
2190,9430001086185,新規,0,2022-03-11,2022-03-11,株式会社Ｖａｓｔ　Ｗｏｒｌｄ,,株式会社,北海道,札幌市白石区,菊水三条２丁目１番６号リヒトラーレ菊水２０１号室,,01,104,0030803,,,,,,,2022-03-11,1,,,,,ヴァストワールド,0
2191,9430001086193,新規,0,2022-03-11,2022-03-11,ノエル株式会社,,株式会社,北海道,札幌市中央区,南十三条西８丁目１番１５号,,01,101,0640913,,,,,,,2022-03-11,1,,,,,ノエル,0
2194,9430003013708,新規,0,2022-03-11,2022-03-11,合同会社Ｇｏ　Ｔｒａｄｉｎｇ＆Ｖａｌｕａｔｉｏｎｓ,,合同会社,北海道,札幌市白石区,本通４丁目南１番２６号,,01,104,0030026,,,,,,,2022-03-11,1,,,,,ゴートレーディングアンドバリュエーションズ,0
2195,9440001009046,新規,0,2022-03-11,2022-03-11,株式会社くるま屋まん函館,,株式会社,北海道,函館市,桔梗１丁目１番１２号,,01,202,0410808,,,,,,,2022-03-11,1,,,,,クルマヤマンハコダテ,0
2196,9440003001447,新規,0,2022-03-11,2022-03-11,マノワラボ合同会社,,合同会社,北海道,茅部郡森町,字赤井川１８７番地１８,,01,345,0492142,,,,,,,2022-03-11,1,,,,,マノワラボ,0
2198,9470005006425,新規,0,2022-03-11,2022-03-11,医療法人ＨＴＳ,,その他の設立登記法人,香川県,高松市,兵庫町２番地２小島食器ビル１Ｆ,,37,201,7600024,,,,,,,2022-03-11,1,,,,,エイチティエス,0
