sequenceNumber,corporateNumber,process,correct,updateDate,changeDate,name,nameImageId,kind,prefectureName,cityName,streetNumber,addressImageId,prefectureCode,cityCode,postCode,addressOutside,addressOutsideImageId,closeDate,closeCause,successorCorporateNumber,changeCause,assignmentDate,latest,enName,enPrefectureName,enCityName,enAddressOutside,furigana,hihyoji
8,1010001220883,登記記録の閉鎖等,0,2024-03-05,2024-02-28,株式会社Ｒａｖｉ,,株式会社,東京都,千代田区,外神田３丁目１５－６小暮末広ビル７階,,13,101,1010021,,,2024-02-28,清算の結了等,,,2021-09-07,1,,,,,,0
25,1010401069211,登記記録の閉鎖等,0,2024-03-05,2024-03-01,株式会社飯尾建築設計事務所,,株式会社,東京都,足立区,足立２丁目１５番９号,,13,121,1200015,,,2024-03-01,清算の結了等,,,2015-10-05,1,,,,,イイオケンチクセッケイジムショ,0
31,1010601042208,登記記録の閉鎖等,0,2024-03-05,2024-02-29,株式会社山寺,,株式会社,東京都,墨田区,横川１丁目８番１号,,13,107,1300003,,,2024-02-29,清算の結了等,,,2015-10-05,1,,,,,ヤマデラ,0
40,1010801020293,登記記録の閉鎖等,0,2024-03-05,2024-02-29,株式会社紙安東京,,株式会社,東京都,大田区,東海３丁目２番８号,,13,111,1430001,,,2024-02-29,清算の結了等,,,2015-10-05,1,,,,,,0
54,1011002006660,登記記録の閉鎖等,0,2024-03-05,2024-02-29,有限会社鮨五万石,,有限会社,東京都,渋谷区,初台２丁目１６－２０ファミールグラン代々木の杜１０１,,13,113,1510061,,,2024-02-29,清算の結了等,,,2015-10-05,1,,,,,スシゴマンゴク,0
57,1011201018176,登記記録の閉鎖等,0,2024-03-05,2024-03-01,株式会社アーチャネル,,株式会社,東京都,中野区,大和町３丁目１５番６号,,13,114,1650034,,,2024-03-01,清算の結了等,,,2015-10-05,1,,,,,アーチャネル,0
67,1011802004657,登記記録の閉鎖等,0,2024-03-05,2024-03-04,有限会社高石土木,,有限会社,東京都,葛飾区,東四つ木４丁目３９番９号,,13,122,1240014,,,2024-03-04,清算の結了等,,,2015-10-05,1,,,,,,0
77,1020001082027,登記記録の閉鎖等,0,2024-03-05,2024-02-29,株式会社ゴーマルキュー,,株式会社,神奈川県,川崎市多摩区,中野島３丁目２０番２３号,,14,135,2140012,,,2024-02-29,清算の結了等,,,2015-10-05,1,,,,,ゴーマルキュー,0
78,1020001093016,登記記録の閉鎖等,0,2024-03-05,2024-02-29,株式会社スターリバー,,株式会社,神奈川県,横浜市保土ケ谷区,川辺町６番地３,,14,106,2400001,,,2024-02-29,清算の結了等,,,2015-10-05,1,,,,,スターリバー,0
79,1020001135296,登記記録の閉鎖等,0,2024-03-05,2024-02-28,ＦＲＵＣＴＵＳ株式会社,,株式会社,東京都,千代田区,東神田３丁目４番１２号,,13,101,1010031,,,2024-02-28,清算の結了等,,,2020-03-11,1,,,,,フラクタス,0
85,1030001067654,登記記録の閉鎖等,0,2024-03-05,2024-03-01,株式会社岸本工業,,株式会社,埼玉県,越谷市,東町５丁目２８３番地５,,11,222,3430826,,,2024-03-01,清算の結了等,,,2015-10-05,1,,,,,キシモトコウギョウ,0
88,1030002097568,登記記録の閉鎖等,0,2024-03-05,2024-02-29,有限会社誠興産,,有限会社,埼玉県,比企郡小川町,大字鷹巣６７９番地,,11,343,3550302,,,2024-02-29,清算の結了等,,,2015-10-05,1,,,,,マコトコウサン,0
89,1040001042235,登記記録の閉鎖等,0,2024-03-05,2024-03-01,株式会社あいかコーポレーション,,株式会社,東京都,足立区,竹の塚１丁目４０番１５号庄栄ビル５階,,13,121,1210813,,,2024-03-01,清算の結了等,,,2015-10-05,1,,,,,アイカコーポレーション,0
94,1040002043001,登記記録の閉鎖等,0,2024-03-05,2024-02-29,有限会社福栄商会,,有限会社,千葉県,市川市,中山１丁目２４番３号,,12,203,2720813,,,2024-02-29,清算の結了等,,,2015-10-05,1,,,,,フクエイショウカイ,0
113,1090001001244,登記記録の閉鎖等,0,2024-03-05,2024-03-01,株式会社大一水産,,株式会社,山梨県,甲府市,徳行２丁目２番２５号,,19,201,4000047,,,2024-03-01,清算の結了等,,,2015-10-05,1,,,,,ダイイチスイサン,0
123,1120001222448,登記記録の閉鎖等,0,2024-03-05,2024-03-01,株式会社Ｆａｔｅ,,株式会社,大阪府,大阪市中央区,南船場３丁目８番１５号,,27,128,5420081,,,2024-03-01,清算の結了等,,,2019-07-12,1,,,,,フェイト,0
137,1120901008203,登記記録の閉鎖等,0,2024-03-05,2024-03-01,プレスマシナリー株式会社,,株式会社,大阪府,吹田市,江坂町１丁目１６番１０号,,27,205,5640063,,,2024-03-01,清算の結了等,,,2015-10-05,1,,,,,プレスマシナリー,0
153,1130005009601,登記記録の閉鎖等,0,2024-03-05,2024-02-14,天理教丹府分教会,,その他の設立登記法人,京都府,宮津市,字江尻４６６番地の２,,26,205,6292244,,,2024-02-14,合併による解散等,6130005009712,令和６年２月１４日京都府与謝郡与謝野町字岩滝１７２８番地天理教岩滝分教会（6130005009712）に合併し解散,2015-10-05,1,,,,,テンリキョウタンプブンキョウカイ,0
172,1160001012770,登記記録の閉鎖等,0,2024-03-05,2024-03-01,京都染色資材株式会社,,株式会社,滋賀県,草津市,青地町３６５番地の９,,25,206,5250041,,,2024-03-01,清算の結了等,,,2015-10-05,1,,,,,キョウトセンショクシザイ,0
175,1180001130736,登記記録の閉鎖等,0,2024-03-05,2024-02-28,株式会社結美,,株式会社,愛知県,名古屋市守山区,大字上志段味字所下１０４９番地の３,,23,113,4630001,,,2024-02-28,清算の結了等,,,2018-01-12,1,,,,,ムスビ,0
176,1180001151278,登記記録の閉鎖等,0,2024-03-05,2024-02-29,株式会社ステラ,,株式会社,愛知県,名古屋市昭和区,隼人町８番地１８,,23,107,4660833,,,2024-02-29,清算の結了等,,,2022-05-12,1,,,,,ステラ,0
185,1180002076607,登記記録の閉鎖等,0,2024-03-05,2024-02-29,有限会社ジャパンゴルフ,,有限会社,愛知県,一宮市,大和町馬引字印田１３番地,,23,203,4910931,,,2024-02-29,清算の結了等,,,2015-10-05,1,,,,,ジャパンゴルフ,0
189,1180301008748,登記記録の閉鎖等,0,2024-03-05,2024-02-26,株式会社ヤマバヤシ,,株式会社,愛知県,豊橋市,野田町字野田３５番地の１,,23,201,4418001,,,2024-02-26,清算の結了等,,,2015-10-05,1,,,,,ヤマバヤシ,0
192,1180305002375,登記記録の閉鎖等,0,2024-03-05,2024-02-27,医療法人山本内科,,その他の設立登記法人,愛知県,豊橋市,東田町字西郷６９番地の２,,23,201,4400062,,,2024-02-27,清算の結了等,,,2015-10-05,1,,,,,ヤマモトナイカ,0
198,1230005003585,登記記録の閉鎖等,0,2024-03-05,2024-03-01,光了寺,,その他の設立登記法人,富山県,魚津市,火の宮町９番２４号,,16,204,9370058,,,2024-03-01,清算の結了等,,,2015-10-05,1,,,,,コウリョウジ,0
205,1250001009618,登記記録の閉鎖等,0,2024-03-05,2024-02-29,野田総業株式会社,,株式会社,山口県,下松市,生野屋南１丁目３番１号,,35,207,7440033,,,2024-02-29,清算の結了等,,,2015-10-05,1,,,,,ノダソウギョウ,0
207,1260001007224,登記記録の閉鎖等,0,2024-03-05,2024-03-04,株式会社岸建工,,株式会社,岡山県,赤磐市,桜が丘西４丁目１番１３号,,33,213,7090802,,,2024-03-04,清算の結了等,,,2015-10-05,1,,,,,キシケンコウ,0
234,1310002007143,登記記録の閉鎖等,0,2024-03-05,2024-03-04,共栄設計有限会社,,有限会社,長崎県,長崎市,赤迫２丁目５番５－５１３号,,42,201,8528156,,,2024-03-04,清算の結了等,,,2015-10-05,1,,,,,キョウエイセッケイ,0
257,1400501000283,登記記録の閉鎖等,0,2024-03-05,2024-02-29,株式会社三星,,株式会社,岩手県,一関市,地主町４番１０号,,03,209,0210893,,,2024-02-29,清算の結了等,,,2023-07-03,1,,,,,ミツボシ,0
275,1460102005866,登記記録の閉鎖等,0,2024-03-05,2024-02-28,有限会社フジモト天光堂薬局,,有限会社,北海道,上川郡清水町,御影本通２丁目２０番地,,01,636,0890354,,,2024-02-28,清算の結了等,,,2015-10-05,1,,,,,フジモトテンコウドウヤッキョク,0
301,2010401092476,登記記録の閉鎖等,0,2024-03-05,2024-02-28,Ｌａｎｉｆｉｃｉｏ　Ｃｅｒｒｕｔｉ　Ｊａｐａｎ株式会社,,株式会社,東京都,港区,虎ノ門４丁目３番１号城山トラストタワー東京赤坂法律事務所内,,13,103,1050001,,,2024-02-28,清算の結了等,,,2015-10-05,1,,,,,ラニフィッチオセルッティジャパン,0
310,2010601038948,登記記録の閉鎖等,0,2024-03-05,2024-03-01,帝都自動車交通株式会社,,株式会社,東京都,中央区,日本橋１丁目２１番５号４階,,13,102,1030027,,,2024-03-01,合併による解散等,1010601027134,令和６年３月１日東京都中央区日本橋一丁目２１番５号５階帝都自動車交通株式会社（1010601027134）に合併し解散,2015-10-05,1,,,,,テイトジドウシャコウツウ,0
323,2010905002526,登記記録の閉鎖等,0,2024-03-05,2024-02-28,一般社団法人世界音楽合唱チャリティー協会,,その他の設立登記法人,東京都,港区,六本木３丁目１６番８－６０１号,,13,103,1060032,,,2024-02-28,清算の結了等,,,2015-10-05,1,,,,,セカイオンガクガッショウチャリティーキョウカイ,0
333,2011001125824,登記記録の閉鎖等,0,2024-03-05,2024-02-29,株式会社心食,,株式会社,東京都,港区,赤坂３丁目１９番５号,,13,103,1070052,,,2024-02-29,合併による解散等,9010401172908,令和６年２月２９日東京都港区赤坂三丁目１３番４号赤坂三河家ビル地下１階ＳＡＵＮＡ　ＴＯＫＹＯ　ＡＫＡＳＡＫＡ株式会社（9010401172908）に合併し解散,2018-12-25,1,,,,,シンショク,0
371,2013305001536,登記記録の閉鎖等,0,2024-03-05,2024-03-05,一般社団法人世界働く女性の会,,その他の設立登記法人,東京都,豊島区,要町１丁目２番２号,,13,116,1710043,,,2024-03-05,清算の結了等,,,2015-10-05,1,,,,,セカイハタラクジョセイノカイ,0
377,2021001048578,登記記録の閉鎖等,0,2024-03-05,2024-02-29,株式会社厚木金田,,株式会社,神奈川県,厚木市,金田３３６番地,,14,212,2430807,,,2024-02-29,清算の結了等,,,2015-10-05,1,,,,,アツギカネダ,0
381,2030001038381,登記記録の閉鎖等,0,2024-03-05,2024-03-01,珍栄商事株式会社,,株式会社,埼玉県,草加市,西町１２７０番地,,11,221,3400035,,,2024-03-01,清算の結了等,,,2015-10-05,1,,,,,チンエイショウジ,0
388,2030002085407,登記記録の閉鎖等,0,2024-03-05,2024-02-29,有限会社岡本鉄工所,,有限会社,埼玉県,越谷市,新越谷１丁目７１番地７,,11,222,3430857,,,2024-02-29,清算の結了等,,,2015-10-05,1,,,,,オカモトテッコウジョ,0
391,2030002115840,登記記録の閉鎖等,0,2024-03-05,2024-02-27,有限会社白石商店,,有限会社,埼玉県,大里郡寄居町,大字桜沢５３番地１,,11,408,3691202,,,2024-02-27,清算の結了等,,,2015-10-05,1,,,,,シライシショウテン,0
443,2120001126656,登記記録の閉鎖等,0,2024-03-05,2024-03-01,株式会社シリウスセキュリティ,,株式会社,大阪府,大阪市鶴見区,今津南１丁目６番１９号,,27,124,5380043,,,2024-03-01,清算の結了等,,,2015-10-05,1,,,,,シリウスセキュリティ,0
460,2120002034916,登記記録の閉鎖等,0,2024-03-05,2024-03-01,有限会社オフィス人事教育,,有限会社,大阪府,大阪市中央区,谷町１丁目５番７号,,27,128,5400012,,,2024-03-01,清算の結了等,,,2015-10-05,1,,,,,オフィスジンジキョウイク,0
482,2160003002703,登記記録の閉鎖等,0,2024-03-05,2024-03-04,ジェイピーウェザー合同会社,,合同会社,滋賀県,彦根市,長曽根南町４３８番地２－１号,,25,202,5220052,,,2024-03-04,清算の結了等,,,2022-10-17,1,,,,,ジェイピーウェザー,0
485,2170001013998,登記記録の閉鎖等,0,2024-03-05,2024-03-01,株式会社ナカオホールディングス,,株式会社,和歌山県,和歌山市,野崎２０１番地,,30,201,6408402,,,2024-03-01,合併による解散等,7170001002930,令和６年３月１日和歌山市野崎２０１番地株式会社ペイントナカオ（7170001002930）に合併し解散,2015-10-19,1,,,,,ナカオホールディングス,0
495,2180003017724,登記記録の閉鎖等,0,2024-03-05,2024-02-29,合同会社ブライトウ,,合同会社,静岡県,浜松市中央区,恩地町４３２番地４,,22,138,4300814,,,2024-02-29,合併による解散等,4080401012120,令和６年２月２９日静岡県浜松市中央区恩地町４３２番地の４株式会社ＷＨＤ（4080401012120）に合併し解散,2017-02-21,1,,,,,ブライトウ,0
503,2180305006937,登記記録の閉鎖等,0,2024-03-05,2024-02-19,天理教寺津分教会,,その他の設立登記法人,愛知県,西尾市,寺津町観音東１９番地１８,,23,213,4440324,,,2024-02-19,合併による解散等,1180305006938,令和６年２月１９日愛知県西尾市新屋敷町１２８番地天理教幡豆分教会（1180305006938）に合併し解散,2015-10-05,1,,,,,テンリキョウテラヅブンキョウカイ,0
512,2280001008236,登記記録の閉鎖等,0,2024-03-05,2024-02-29,株式会社リバースフーズ,,株式会社,島根県,松江市,八束町江島１１２８番地６０,,32,201,6901401,,,2024-02-29,清算の結了等,,,2020-07-28,1,,,,,,0
518,2290002003276,登記記録の閉鎖等,0,2024-03-05,2024-03-01,有限会社久野商会,,有限会社,福岡県,福岡市中央区,平和３丁目１５番２０号,,40,133,8100016,,,2024-03-01,合併による解散等,6290001009832,令和６年３月１日福岡市博多区奈良屋町３番１号久野印刷株式会社（6290001009832）に合併し解散,2015-10-05,1,,,,,,0
519,2290002031153,登記記録の閉鎖等,0,2024-03-05,2024-02-22,有限会社総合保険ＴＯＫＩＯ,,有限会社,福岡県,福岡市南区,横手１丁目１０番１４号,,40,134,8111311,,,2024-02-22,清算の結了等,,,2015-10-05,1,,,,,ソウゴウホケントキオ,0
520,2290002035220,登記記録の閉鎖等,0,2024-03-05,2024-02-27,有限会社松栄リース,,有限会社,福岡県,宗像市,冨地原字山ノ後５５５番１,,40,220,8114154,,,2024-02-27,清算の結了等,,,2015-10-05,1,,,,,ショウエイリース,0
529,2330002026487,登記記録の閉鎖等,0,2024-03-05,2024-02-28,有限会社ヤマセ木田商店,,有限会社,熊本県,八代市,松崎町３３５番地１,,43,202,8660884,,,2024-02-28,清算の結了等,,,2015-10-05,1,,,,,ヤマセキダショウテン,0
547,2380001005462,登記記録の閉鎖等,0,2024-03-05,2024-03-01,株式会社カーリーズバーリー,,株式会社,福島県,郡山市,赤木町９番２１号,,07,203,9638006,,,2024-03-01,清算の結了等,,,2015-10-05,1,,,,,カーリーズバーリー,0
555,2430001044868,登記記録の閉鎖等,0,2024-03-05,2024-02-26,株式会社エム,,株式会社,北海道,札幌市中央区,南二条西７丁目１番５,,01,101,0600062,,,2024-02-26,清算の結了等,,,2015-10-05,1,,,,,エム,0
577,2700150018546,登記記録の閉鎖等,0,2024-03-05,2023-09-30,神栖市観光協会,,その他,茨城県,神栖市,土合本町５丁目９８０９－５２７神栖市商工会波崎支所２Ｆ,,08,232,3140343,,,2023-09-30,その他の清算の結了等,,,2015-10-09,1,,,,,カミスシカンコウキヨウカイ,0
581,3010001072885,登記記録の閉鎖等,0,2024-03-05,2024-02-27,株式会社ポスコンジャパン,,株式会社,東京都,千代田区,神田須田町１丁目２０番地１１,,13,101,1010041,,,2024-02-27,清算の結了等,,,2015-10-05,1,,,,,ポスコンジャパン,0
585,3010001174021,登記記録の閉鎖等,0,2024-03-05,2024-03-01,帝都自動車交通株式会社,,株式会社,東京都,中央区,日本橋１丁目２１番５号８階,,13,102,1030027,,,2024-03-01,合併による解散等,1010601027134,令和６年３月１日東京都中央区日本橋一丁目２１番５号５階帝都自動車交通株式会社（1010601027134）に合併し解散,2016-03-04,1,,,,,テイトジドウシャコウツウ,0
605,3010601038947,登記記録の閉鎖等,0,2024-03-05,2024-03-01,帝都自動車交通株式会社,,株式会社,東京都,中央区,日本橋１丁目２１番５号３階,,13,102,1030027,,,2024-03-01,合併による解散等,1010601027134,令和６年３月１日東京都中央区日本橋一丁目２１番５号５階帝都自動車交通株式会社（1010601027134）に合併し解散,2015-10-05,1,,,,,テイトジドウシャコウツウ,0
611,3010801031636,登記記録の閉鎖等,0,2024-03-05,2024-02-29,株式会社Ｆｒｉｅｄ　Ｅｇｇ,,株式会社,東京都,大田区,田園調布南２３番１－２０２号,,13,111,1450076,,,2024-02-29,清算の結了等,,,2021-02-04,1,,,,,フライドエッグ,0
646,3020001085250,登記記録の閉鎖等,0,2024-03-05,2024-02-29,株式会社真栄石材,,株式会社,神奈川県,横浜市青葉区,市ケ尾町５２３番地４スカール市ケ尾１０１,,14,117,2250024,,,2024-02-29,清算の結了等,,,2015-10-05,1,,,,,シンセイセキザイ,0
647,3020001096116,登記記録の閉鎖等,0,2024-03-05,2024-02-29,株式会社ＧＯＬＤ,,株式会社,神奈川県,横浜市中区,蓬莱町２丁目６番地３ＫＯＹＯ関内ビル２０１号室,,14,104,2310048,,,2024-02-29,清算の結了等,,,2015-10-05,1,,,,,ゴールド,0
650,3020002024760,登記記録の閉鎖等,0,2024-03-05,2024-02-29,プロシード有限会社,,有限会社,神奈川県,横浜市保土ケ谷区,瀬戸ケ谷町１３８番地の１９ハイツ保土ヶ谷２０５,,14,106,2400024,,,2024-02-29,清算の結了等,,,2015-10-05,1,,,,,プロシード,0
667,3040002018331,登記記録の閉鎖等,0,2024-03-05,2024-02-29,有限会社三陽,,有限会社,千葉県,習志野市,津田沼１丁目６番１０号,,12,216,2750016,,,2024-02-29,清算の結了等,,,2015-10-05,1,,,,,サンヨウ,0
676,3080402017920,登記記録の閉鎖等,0,2024-03-05,2024-03-01,有限会社マッシュ,,有限会社,静岡県,掛川市,下垂木２３２１番地の１,,22,213,4360222,,,2024-03-01,清算の結了等,,,2015-10-05,1,,,,,マッシュ,0
704,3120902009033,登記記録の閉鎖等,0,2024-03-05,2024-03-04,橋本運輸産業有限会社,,有限会社,大阪府,摂津市,鳥飼中２丁目２番５５号,,27,224,5660064,,,2024-03-04,清算の結了等,,,2015-10-05,1,,,,,ハシモトウンユサンギョウ,0
705,3120902015361,登記記録の閉鎖等,0,2024-03-05,2024-02-29,四季彩ハウス有限会社,,有限会社,大阪府,箕面市,如意谷２丁目３番６１号,,27,220,5620011,,,2024-02-29,清算の結了等,,,2015-10-05,1,,,,,シキサイハウス,0
722,3150001016960,登記記録の閉鎖等,0,2024-03-05,2024-03-01,日本シンク株式会社,,株式会社,奈良県,大和高田市,大字田井５９番地の５,,29,202,6350041,,,2024-03-01,清算の結了等,,,2015-10-05,1,,,,,ニホンシンク,0
729,3180001050222,登記記録の閉鎖等,0,2024-03-05,2024-02-28,株式会社前組,,株式会社,愛知県,名古屋市港区,西茶屋１丁目３５番地の６,,23,111,4550858,,,2024-02-28,清算の結了等,,,2015-10-05,1,,,,,マエグミ,0
733,3180001139619,登記記録の閉鎖等,0,2024-03-05,2024-02-29,株式会社ＳＰＩ,,株式会社,愛知県,名古屋市天白区,鴻の巣２丁目３１４番地,,23,116,4680003,,,2024-02-29,清算の結了等,,,2020-01-15,1,,,,,エスピーアイ,0
746,3220002011549,登記記録の閉鎖等,0,2024-03-05,2024-02-29,有限会社みなみ酒店,,有限会社,石川県,能美市,寺井町ロ６５番地１,,17,211,9231121,,,2024-02-29,清算の結了等,,,2015-10-05,1,,,,,ミナミサケテン,0
756,3260005001139,登記記録の閉鎖等,0,2024-03-05,2024-02-28,西大寺優良店協同組合,,その他の設立登記法人,岡山県,岡山市東区,西大寺南１丁目２番５号,,33,103,7048117,,,2024-02-28,清算の結了等,,,2015-10-05,1,,,,,サイダイジユウリョウテン,0
758,3270002007889,登記記録の閉鎖等,0,2024-03-05,2024-03-01,有限会社はしや,,有限会社,鳥取県,境港市,中野町５８７番地３,,31,204,6840041,,,2024-03-01,清算の結了等,,,2015-10-05,1,,,,,ハシヤ,0
764,3290002049450,登記記録の閉鎖等,0,2024-03-05,2024-02-28,田中栄有限会社,,有限会社,福岡県,久留米市,合川町１２６４番地,,40,203,8390861,,,2024-02-28,清算の結了等,,,2015-10-05,1,,,,,タナカサカエ,0
765,3290005018023,登記記録の閉鎖等,0,2024-03-05,2024-02-27,一般社団法人タスカル労務管理協会,,その他の設立登記法人,福岡県,久留米市,藤光町９５７番地,,40,203,8300054,,,2024-02-27,清算の結了等,,,2021-01-05,1,,,,,タスカルロウムカンリキョウカイ,0
779,3360001011973,登記記録の閉鎖等,0,2024-03-05,2024-03-01,株式会社ＴＲＤＩＧＭ,,株式会社,沖縄県,那覇市,字真地３２９番地１,,47,201,9020072,,,2024-03-01,清算の結了等,,,2015-10-05,1,,,,,ティーアールダイム,0
802,3430002055319,登記記録の閉鎖等,0,2024-03-05,2024-02-27,有限会社まるた,,有限会社,北海道,小樽市,花園１丁目４番９号,,01,203,0470024,,,2024-02-27,清算の結了等,,,2015-10-05,1,,,,,マルタ,0
810,3700150014783,登記記録の閉鎖等,0,2024-03-05,2023-09-30,寄北部茶業組合,,その他,神奈川県,足柄上郡松田町,松田惣領１２５０かながわ西湘農業協同組合松田支店内,,14,363,2580003,,,2023-09-30,その他の清算の結了等,,,2015-10-09,1,,,,,ヤドリキホクブチヤギヨウクミアイ,0
811,3700150048294,登記記録の閉鎖等,0,2024-03-05,2019-02-28,西郡井水土地改良区,,その他,岐阜県,揖斐郡揖斐川町,上南方１―１岐阜県揖斐総合庁舎内,,21,401,5010603,,,2019-02-28,その他の清算の結了等,,,2015-10-09,1,,,,,サイグンイスイトチカイリヨウク,0
815,4010001022212,登記記録の閉鎖等,0,2024-03-05,2024-02-28,タストラベル株式会社,,株式会社,東京都,中央区,月島２丁目１４番５号,,13,102,1040052,,,2024-02-28,清算の結了等,,,2015-10-05,1,,,,,タストラベル,0
821,4010001092932,登記記録の閉鎖等,0,2024-03-05,2024-03-01,株式会社ＣＫＤ,,株式会社,東京都,千代田区,神田神保町１丁目３１番地２,,13,101,1010051,,,2024-03-01,合併による解散等,1010001022710,令和６年３月１日東京都千代田区神田神保町一丁目３５番地株式会社中央経済社ホールディングス（1010001022710）に合併し解散,2015-10-05,1,,,,,シーケーディー,0
828,4010001174020,登記記録の閉鎖等,0,2024-03-05,2024-03-01,帝都自動車交通株式会社,,株式会社,東京都,中央区,日本橋１丁目２１番５号７階,,13,102,1030027,,,2024-03-01,合併による解散等,1010601027134,令和６年３月１日東京都中央区日本橋一丁目２１番５号５階帝都自動車交通株式会社（1010601027134）に合併し解散,2016-03-04,1,,,,,テイトジドウシャコウツウ,0
840,4010401110558,登記記録の閉鎖等,0,2024-03-05,2024-02-28,メルコインベストメンツ株式会社,,株式会社,東京都,千代田区,丸の内１丁目１１番１号パシフィックセンチュリープレイス丸の内,,13,101,1000005,,,2024-02-28,清算の結了等,,,2015-10-05,1,,,,,メルコインベストメンツ,0
844,4010401147930,登記記録の閉鎖等,0,2024-03-05,2024-03-01,ＪＦＤ株式会社,,株式会社,東京都,渋谷区,神宮前３丁目３２番２号,,13,113,1500001,,,2024-03-01,清算の結了等,,,2019-09-09,1,,,,,ジェイエフディー,0
845,4010401150018,登記記録の閉鎖等,0,2024-03-05,2024-02-19,株式会社Ｌａｎｇｅｒｈａｎｓ,,株式会社,東京都,港区,東麻布１丁目２５番２－９０５号,,13,103,1060044,,,2024-02-19,合併による解散等,3011001141564,令和４年８月２０日東京都渋谷区神宮前六丁目２３番４号桑野ビル２階渋谷ブレンド株式会社（3011001141564）に合併し解散,2019-12-24,1,,,,,ランゲルハンス,0
860,4010801011265,登記記録の閉鎖等,0,2024-03-05,2024-02-29,丸高工業株式会社,,株式会社,東京都,大田区,田園調布南１４番５号,,13,111,1450076,,,2024-02-29,清算の結了等,,,2015-10-05,1,,,,,マルタカコウギョウ,0
862,4010902002601,登記記録の閉鎖等,0,2024-03-05,2024-02-29,有限会社遠州屋市野商店,,有限会社,東京都,世田谷区,代沢４丁目３４番１６号,,13,112,1550032,,,2024-02-29,清算の結了等,,,2015-10-05,1,,,,,エンシュウヤイチノショウテン,0
912,4021003012571,登記記録の閉鎖等,0,2024-03-05,2024-02-29,合同会社原井武志公認会計士事務所,,合同会社,神奈川県,茅ヶ崎市,矢畑１７番地３,,14,207,2530085,,,2024-02-29,清算の結了等,,,2023-01-11,1,,,,,ハライタケシコウニンカイケイシジムショ,0
920,4030002041861,登記記録の閉鎖等,0,2024-03-05,2024-02-29,有限会社フレーバー,,有限会社,埼玉県,羽生市,北１丁目１番２２号,,11,216,3480057,,,2024-02-29,清算の結了等,,,2015-10-05,1,,,,,フレーバー,0
944,4080105006261,登記記録の閉鎖等,0,2024-03-05,2024-02-28,一般社団法人ＯｎｅＴｗｏＴｈｒｅｅＡ,,その他の設立登記法人,静岡県,伊豆の国市,田原野４４０番地の４,,22,225,4102313,,,2024-02-28,清算の結了等,,,2022-06-03,1,,,,,ワンツースリーエー,0
955,4100001017954,登記記録の閉鎖等,0,2024-03-05,2024-02-29,株式会社ライフプロデュース,,株式会社,長野県,木曽郡大桑村,大字殿３９９番地６,,20,430,3995501,,,2024-02-29,清算の結了等,,,2015-10-05,1,,,,,ライフプロデュース,0
956,4100001025338,登記記録の閉鎖等,0,2024-03-05,2024-02-29,株式会社カネカメＯｔａ,,株式会社,長野県,塩尻市,大字木曽平沢１６３４番地４７,,20,215,3996302,,,2024-02-29,清算の結了等,,,2015-10-05,1,,,,,カネカメオオタ,0
968,4120001251304,登記記録の閉鎖等,0,2024-03-05,2024-03-01,幣辰株式会社,,株式会社,大阪府,大阪市都島区,内代町２丁目２－２９－４０４室,,27,102,5340013,,,2024-03-01,清算の結了等,,,2022-12-26,1,,,,,ヘイタツ,0
995,4130001006013,登記記録の閉鎖等,0,2024-03-05,2024-02-29,株式会社エクラン,,株式会社,京都府,京都市左京区,下鴨東半木町７３番地,,26,103,6060824,,,2024-02-29,清算の結了等,,,2015-10-05,1,,,,,エクラン,0
1006,4140002001598,登記記録の閉鎖等,0,2024-03-05,2024-02-29,三啓貿易有限会社,,有限会社,兵庫県,神戸市東灘区,向洋町中５丁目５番地５３２号棟３０７号室,,28,101,6580032,,,2024-02-29,清算の結了等,,,2015-10-05,1,,,,,サンケイボウエキ,0
1007,4140002016869,登記記録の閉鎖等,0,2024-03-05,2024-02-29,有限会社マツモト工業,,有限会社,兵庫県,神戸市長田区,苅藻通６丁目６番９号,,28,106,6530032,,,2024-02-29,清算の結了等,,,2015-10-05,1,,,,,マツモトコウギョウ,0
1046,4260002002980,登記記録の閉鎖等,0,2024-03-05,2024-03-01,有限会社吉備津工産,,有限会社,岡山県,岡山市北区,吉備津１１３８番地,,33,101,7011341,,,2024-03-01,清算の結了等,,,2015-10-05,1,,,,,キビツコウサン,0
1048,4290001040483,登記記録の閉鎖等,0,2024-03-05,2024-02-28,株式会社エス・ピー工業,,株式会社,福岡県,大野城市,御笠川３丁目３番１号,,40,219,8160912,,,2024-02-28,清算の結了等,,,2015-10-05,1,,,,,エスピーコウギョウ,0
1054,4310002004955,登記記録の閉鎖等,0,2024-03-05,2024-03-04,有限会社ベルエンタープライズ社,,有限会社,長崎県,長崎市,大浦町９番２６号,,42,201,8500918,,,2024-03-04,清算の結了等,,,2015-10-05,1,,,,,ベルエンタープライズシャ,0
1055,4320002017436,登記記録の閉鎖等,0,2024-03-05,2024-02-29,有限会社山内工業,,有限会社,大分県,佐伯市,蒲江大字蒲江浦３９９７番地,,44,205,8762401,,,2024-02-29,清算の結了等,,,2015-10-05,1,,,,,ヤマウチコウギョウ,0
1060,4340002009349,登記記録の閉鎖等,0,2024-03-05,2024-03-01,有限会社タイヨーリカーフーズ,,有限会社,鹿児島県,鹿児島市,南栄３丁目１４番地,,46,201,8910122,,,2024-03-01,合併による解散等,8340001002581,令和６年３月１日鹿児島市南栄三丁目１４番地株式会社タイヨー（8340001002581）に合併し解散,2015-10-05,1,,,,,タイヨーリカーフーズ,0
1061,4340003001503,登記記録の閉鎖等,0,2024-03-05,2024-03-01,合同会社システム工房Ｒａｃｃｏ,,合同会社,静岡県,静岡市葵区,安東３丁目７番３６号,,22,101,4200882,,,2024-03-01,合併による解散等,8080003001682,令和６年３月１日静岡市葵区安東三丁目７番３６号合同会社ユーカリ（8080003001682）に合併し解散,2015-10-05,1,,,,,システムコウボウラッコ,0
1087,4430001043728,登記記録の閉鎖等,0,2024-03-05,2024-02-28,株式会社ダイイチ,,株式会社,北海道,恵庭市,文京町４丁目１３番３号,,01,231,0611425,,,2024-02-28,清算の結了等,,,2015-10-05,1,,,,,ダイイチ,0
1100,4460102000022,登記記録の閉鎖等,0,2024-03-05,2024-02-28,有限会社アイオーシステム,,有限会社,北海道,河東郡音更町,木野公園下町２番地,,01,631,0800303,,,2024-02-28,清算の結了等,,,2015-10-05,1,,,,,アイオーシステム,0
1102,4470001005930,登記記録の閉鎖等,0,2024-03-05,2024-02-29,株式会社菜の花,,株式会社,香川県,高松市,飯田町９９番地１０,,37,201,7618033,,,2024-02-29,清算の結了等,,,2015-10-05,1,,,,,ナノハナ,0
1104,4480005002543,登記記録の閉鎖等,0,2024-03-05,2024-02-08,山神社,,その他の設立登記法人,徳島県,勝浦郡上勝町,大字生実字久保１２１番地,,36,302,7714503,,,2024-02-08,合併による解散等,9480005002522,令和６年２月８日徳島県勝浦郡上勝町大字生実字南浦７４番地八幡神社（9480005002522）に合併し解散,2015-10-05,1,,,,,ヤマジンジャ,0
1113,5010001098994,登記記録の閉鎖等,0,2024-03-05,2024-03-01,株式会社ウエルズ,,株式会社,東京都,中央区,築地２丁目１２番１０号ビルネット築地ビル５階,,13,102,1040045,,,2024-03-01,合併による解散等,2010001035018,令和６年３月１日東京都中央区築地二丁目１２番１０号ビルネット築地ビル５階株式会社朝日エル（2010001035018）に合併し解散,2015-10-05,1,,,,,ウエルズ,0
1119,5010005021069,登記記録の閉鎖等,0,2024-03-05,2024-03-04,一般社団法人ＦＳ会計,,その他の設立登記法人,東京都,千代田区,丸の内３丁目１番１号東京共同会計事務所内,,13,101,1000005,,,2024-03-04,清算の結了等,,,2015-10-05,1,,,,,エフエスカイケイ,0
1144,5010801016461,登記記録の閉鎖等,0,2024-03-05,2024-02-29,株式会社正和,,株式会社,東京都,大田区,蒲田５丁目８番２－９０１号,,13,111,1440052,,,2024-02-29,清算の結了等,,,2015-10-05,1,,,,,ショウワ,0
1164,5011301020870,登記記録の閉鎖等,0,2024-03-05,2024-02-26,株式会社ななほしサポート,,株式会社,東京都,渋谷区,代々木２丁目１２番１０号,,13,113,1510053,,,2024-02-26,清算の結了等,,,2015-10-05,1,,,,,ナナホシサポート,0
1172,5011501007453,登記記録の閉鎖等,0,2024-03-05,2024-02-22,株式会社高野初太郎商店,00055645,株式会社,東京都,荒川区,西日暮里１丁目１９番３号,,13,118,1160013,,,2024-02-22,清算の結了等,,,2015-10-05,1,,,,,タカノハツタロウショウテン,0
1193,5020001096997,登記記録の閉鎖等,0,2024-03-05,2024-02-29,株式会社ＯＥＣシステム,,株式会社,神奈川県,横浜市都筑区,東山田町１番地,,14,118,2240024,,,2024-02-29,清算の結了等,,,2015-10-05,1,,,,,オーイーシーシステム,0
1194,5020002005783,登記記録の閉鎖等,0,2024-03-05,2024-02-29,有限会社規格精工,,有限会社,神奈川県,横浜市都筑区,佐江戸町２３４番地５,,14,118,2240054,,,2024-02-29,清算の結了等,,,2015-10-05,1,,,,,キカクセイコウ,0
1196,5020003004628,登記記録の閉鎖等,0,2024-03-05,2024-02-29,合同会社ロイヤルマイル,,合同会社,神奈川県,横浜市都筑区,牛久保東２丁目４番１０－３０９号,,14,118,2240014,,,2024-02-29,清算の結了等,,,2015-10-05,1,,,,,ロイヤルマイル,0
1207,5030003016481,登記記録の閉鎖等,0,2024-03-05,2024-02-29,合同会社ＴＴサポート,,合同会社,埼玉県,春日部市,八丁目５２４番地１,,11,214,3440006,,,2024-02-29,清算の結了等,,,2021-01-20,1,,,,,ティーティーサポート,0
1211,5040001104551,登記記録の閉鎖等,0,2024-03-05,2024-02-29,ファーマーズフレンド株式会社,,株式会社,千葉県,野田市,野田２３番地,,12,208,2780037,,,2024-02-29,清算の結了等,,,2018-05-09,1,,,,,ファーマーズフレンド,0
1213,5040001123072,登記記録の閉鎖等,0,2024-03-05,2024-02-28,株式会社ｗａｎｃｏｔｏ,,株式会社,千葉県,山武市,蓮沼ホ６５０－１,,12,237,2891803,,,2024-02-28,清算の結了等,,,2022-04-19,1,,,,,ワンコト,0
1218,5040002067384,登記記録の閉鎖等,0,2024-03-05,2024-02-29,有限会社中山保険事務所,,有限会社,千葉県,木更津市,岩根４丁目５番１１号,,12,206,2920061,,,2024-02-29,清算の結了等,,,2015-10-05,1,,,,,ナカヤマホケンジムショ,0
1223,5050002022925,登記記録の閉鎖等,0,2024-03-05,2024-02-29,有限会社坂本住建,,有限会社,茨城県,つくば市,小茎４４２番地,,08,220,3001255,,,2024-02-29,清算の結了等,,,2015-10-05,1,,,,,サカモトジュウケン,0
1275,5120902020987,登記記録の閉鎖等,0,2024-03-05,2024-03-01,有限会社タニオ,,有限会社,大阪府,豊中市,曽根西町２丁目１９番２４号,,27,203,5610801,,,2024-03-01,清算の結了等,,,2015-10-05,1,,,,,タニオ,0
1277,5130001004940,登記記録の閉鎖等,0,2024-03-05,2024-03-01,株式会社すぐきや六郎兵衛,,株式会社,京都府,京都市北区,上賀茂向縄手町１６番地,,26,101,6038083,,,2024-03-01,清算の結了等,,,2015-10-05,1,,,,,スグキヤロクロベエ,0
1294,5180001060467,登記記録の閉鎖等,0,2024-03-05,2024-03-01,株式会社アルテミシア,,株式会社,愛知県,名古屋市天白区,植田南２丁目１５０１番地,,23,116,4680053,,,2024-03-01,清算の結了等,,,2015-10-05,1,,,,,アルテミシア,0
1302,5180301017209,登記記録の閉鎖等,0,2024-03-05,2024-02-28,株式会社山和,,株式会社,愛知県,碧南市,三度山町４丁目６番地２,,23,209,4470061,,,2024-02-28,清算の結了等,,,2015-10-05,1,,,,,サンワ,0
1312,5240002034851,登記記録の閉鎖等,0,2024-03-05,2024-03-01,共力汽船有限会社,,有限会社,広島県,呉市,倉橋町３３１３番地１,,34,202,7371377,,,2024-03-01,清算の結了等,,,2015-10-05,1,,,,,キョウリキキセン,0
1317,5250001018177,登記記録の閉鎖等,0,2024-03-05,2024-03-01,株式会社ＥＭＩ　ＮＯＲＴＨ,,株式会社,山口県,下関市,東大和町１丁目４番２７号,,35,201,7500066,,,2024-03-01,清算の結了等,,,2020-03-05,1,,,,,イーエムアイノース,0
1326,5310001008907,登記記録の閉鎖等,0,2024-03-05,2024-03-01,株式会社増川建築設計事務所,,株式会社,長崎県,大村市,竹松本町６７６番地５,,42,205,8560805,,,2024-03-01,清算の結了等,,,2015-10-05,1,,,,,マスカワケンチクセッケイジムショ,0
1339,5370001044054,登記記録の閉鎖等,0,2024-03-05,2024-03-01,スズコムメンテ株式会社,,株式会社,宮城県,宮城郡利府町,神谷沢字館ノ内７４番地５,,04,406,9810121,,,2024-03-01,合併による解散等,3370601000425,令和６年３月１日宮城県塩竈市清水沢三丁目１１番３１号株式会社鈴木工務店（3370601000425）に合併し解散,2019-02-26,1,,,,,スズコムメンテ,0
1344,5380002025044,登記記録の閉鎖等,0,2024-03-05,2024-03-01,有限会社藤和,,有限会社,福島県,いわき市,内郷宮町金坂２５０番地の２,,07,204,9738407,,,2024-03-01,合併による解散等,9380001012766,令和６年３月１日福島県いわき市勿来町窪田十条３番１株式会社くすりのマルト（9380001012766）に合併し解散,2015-10-05,1,,,,,トウワ,0
1347,5410003002427,登記記録の閉鎖等,0,2024-03-05,2024-02-28,合同会社秀峰閣,,合同会社,秋田県,横手市,根岸町３番４号,,05,203,0130016,,,2024-02-28,清算の結了等,,,2015-10-05,1,,,,,シュウホウカク,0
1358,5430002059177,登記記録の閉鎖等,0,2024-03-05,2024-03-04,有限会社ダイキョウ,,有限会社,北海道,苫小牧市,光洋町２丁目９番１４号,,01,213,0530811,,,2024-03-04,清算の結了等,,,2015-10-05,1,,,,,ダイキョウ,0
1369,5700150048292,登記記録の閉鎖等,0,2024-03-05,2019-02-28,揖東井水土地改良区,,その他,岐阜県,揖斐郡揖斐川町,上南方１番地の１岐阜県揖斐総合庁舎内,,21,401,5010603,,,2019-02-28,その他の清算の結了等,,,2015-10-09,1,,,,,イトウイスイトチカイリヨウク,0
1371,5700150112008,登記記録の閉鎖等,0,2024-03-05,2023-11-30,火の国うたまつり実行委員会,,その他,熊本県,熊本市中央区,大江３丁目２番１０－９０１号ＭＪＲ大江,,43,101,8620971,,,2023-11-30,その他の清算の結了等,,,2022-10-05,1,,,,,ヒノクニウタマツリジツコウイインカイ,0
1376,6010001174019,登記記録の閉鎖等,0,2024-03-05,2024-03-01,帝都自動車交通株式会社,,株式会社,東京都,中央区,日本橋１丁目２１番５号６階,,13,102,1030027,,,2024-03-01,合併による解散等,1010601027134,令和６年３月１日東京都中央区日本橋一丁目２１番５号５階帝都自動車交通株式会社（1010601027134）に合併し解散,2016-03-04,1,,,,,テイトジドウシャコウツウ,0
1377,6010001230300,登記記録の閉鎖等,0,2024-03-05,2024-02-26,株式会社ＳＥＥＦＹ,,株式会社,東京都,中央区,月島１丁目１４－１３月島ホームズ６０７,,13,102,1040052,,,2024-02-26,清算の結了等,,,2022-10-21,1,,,,,シーファイ,0
1381,6010005032552,登記記録の閉鎖等,0,2024-03-05,2024-03-01,一般社団法人ＤＳＢ－４,,その他の設立登記法人,東京都,中央区,日本橋１丁目４番１号,,13,102,1030027,,,2024-03-01,清算の結了等,,,2020-11-16,1,,,,,ディーエスビーフォー,0
1382,6010005032734,登記記録の閉鎖等,0,2024-03-05,2024-03-01,一般社団法人水成二酸化塩素協議会,,その他の設立登記法人,東京都,中央区,日本橋浜町１丁目１１番３号,,13,102,1030007,,,2024-03-01,清算の結了等,,,2021-01-05,1,,,,,スイセイニサンカエンソキョウギカイ,0
1411,6011201004023,登記記録の閉鎖等,0,2024-03-05,2024-02-28,ナツ株式会社,,株式会社,東京都,中央区,日本橋茅場町３丁目１３番３号興和日本橋ビル３階,,13,102,1030025,,,2024-02-28,清算の結了等,,,2015-10-05,1,,,,,ナツ,0
1424,6012405001500,登記記録の閉鎖等,0,2024-03-05,2024-02-27,医療法人社団恒新会,,その他の設立登記法人,東京都,武蔵野市,境南町２丁目２７番７号,,13,203,1800023,,,2024-02-27,清算の結了等,,,2015-10-05,1,,,,,コウシンカイ,0
1427,6013201004589,登記記録の閉鎖等,0,2024-03-05,2024-03-01,株式会社ハインカム,,株式会社,東京都,目黒区,中目黒１丁目１０番２４号,,13,110,1530061,,,2024-03-01,清算の結了等,,,2015-10-05,1,,,,,ハインカム,0
1437,6020005011836,登記記録の閉鎖等,0,2024-03-05,2024-02-29,一般社団法人健康寿命プラットフォーム協会,,その他の設立登記法人,神奈川県,横浜市西区,高島１丁目１番２号,,14,103,2200011,,,2024-02-29,清算の結了等,,,2015-10-05,1,,,,,ケンコウジュミョウプラットフォームキョウカイ,0
1455,6040001116109,登記記録の閉鎖等,0,2024-03-05,2024-02-29,株式会社ケイエス,,株式会社,千葉県,市川市,南八幡４丁目１５番１６号,,12,203,2720023,,,2024-02-29,清算の結了等,,,2020-12-03,1,,,,,ケイエス,0
1460,6050001016472,登記記録の閉鎖等,0,2024-03-05,2024-02-27,ＡＴ　Ｓｅｃｕｒｉｔｙ株式会社,,株式会社,茨城県,つくば市,千現２丁目１番６号,,08,220,3050047,,,2024-02-27,清算の結了等,,,2015-10-05,1,,,,,エーティーセキュリティ,0
1463,6050002042047,登記記録の閉鎖等,0,2024-03-05,2024-02-29,有限会社堺屋新潮書房,,有限会社,茨城県,筑西市,乙８５番地,,08,227,3080041,,,2024-02-29,清算の結了等,,,2015-10-05,1,,,,,サカイヤシンチョウショボウ,0
1475,6080401003885,登記記録の閉鎖等,0,2024-03-05,2024-03-01,日精エンジニアリング株式会社,,株式会社,静岡県,浜松市中央区,入野町１５１５３番地,,22,138,4328061,,,2024-03-01,合併による解散等,4080401002914,令和６年３月１日静岡県浜松市中央区入野町１５１５３番地大同ばね株式会社（4080401002914）に合併し解散,2015-10-05,1,,,,,ニッセイエンジニアリング,0
1484,6100002029617,登記記録の閉鎖等,0,2024-03-05,2024-02-28,有限会社山三美津屋商店,,有限会社,長野県,諏訪郡富士見町,落合９９８４番地,,20,362,3990214,,,2024-02-28,清算の結了等,,,2015-10-05,1,,,,,ヤマサンミツヤショウテン,0
1492,6120001059910,登記記録の閉鎖等,0,2024-03-05,2024-03-01,ライプ株式会社,,株式会社,大阪府,大阪市北区,豊崎３丁目１９番３号,,27,127,5310072,,,2024-03-01,合併による解散等,7120001069280,令和６年３月１日大阪市北区豊崎三丁目１９番３号ピアス株式会社（7120001069280）に合併し解散,2015-10-05,1,,,,,ライプ,0
1494,6120001138879,登記記録の閉鎖等,0,2024-03-05,2024-02-29,株式会社龍唯,,株式会社,大阪府,大阪市阿倍野区,美章園１丁目４番３号,,27,119,5450003,,,2024-02-29,清算の結了等,,,2015-10-05,1,,,,,リュウイ,0
1505,6120002076384,登記記録の閉鎖等,0,2024-03-05,2024-03-01,株式会社ラミーコネクト,,株式会社,大阪府,大阪市福島区,福島６丁目４番１１号,,27,103,5530003,,,2024-03-01,清算の結了等,,,2015-10-05,1,,,,,ラミーコネクト,0
1545,6140005010719,登記記録の閉鎖等,0,2024-03-05,2024-02-16,福生寺,,その他の設立登記法人,兵庫県,朝来市,立脇５２１番地,,28,225,6793403,,,2024-02-16,合併による解散等,3140005010622,令和６年２月１６日兵庫県朝来市立脇３４３番地大通院（3140005010622）に合併し解散,2015-10-05,1,,,,,フクショウジ,0
1549,6180001079440,登記記録の閉鎖等,0,2024-03-05,2024-02-29,株式会社アサヒマシン,,株式会社,愛知県,尾張旭市,東印場町二反田２９１８番地の１,,23,226,4880833,,,2024-02-29,清算の結了等,,,2015-10-05,1,,,,,アサヒマシン,0
1562,6180302016258,登記記録の閉鎖等,0,2024-03-05,2024-02-27,有限会社アルミック,,有限会社,愛知県,安城市,宇頭茶屋町宮前５３番地１,,23,212,4460005,,,2024-02-27,清算の結了等,,,2015-10-05,1,,,,,アルミック,0
1563,6180302023221,登記記録の閉鎖等,0,2024-03-05,2024-03-01,有限会社日比谷,,有限会社,愛知県,豊田市,猿投町神郷８３番地,,23,211,4700361,,,2024-03-01,清算の結了等,,,2015-10-05,1,,,,,ヒビヤ,0
1564,6180302024590,登記記録の閉鎖等,0,2024-03-05,2024-02-27,有限会社松井設備工業,,有限会社,愛知県,豊田市,稲武町深沢２番地３,,23,211,4412513,,,2024-02-27,清算の結了等,,,2015-10-05,1,,,,,マツイセツビコウギョウ,0
1578,6250001018176,登記記録の閉鎖等,0,2024-03-05,2024-03-01,株式会社ＥＭＩ,,株式会社,山口県,下関市,東大和町１丁目４番２７号,,35,201,7500066,,,2024-03-01,清算の結了等,,,2020-03-05,1,,,,,イーエムアイ,0
1582,6260001034098,登記記録の閉鎖等,0,2024-03-05,2024-02-26,株式会社ナカプラ本社,,株式会社,岡山県,総社市,駅南２丁目１番地１６,,33,208,7191137,,,2024-02-26,合併による解散等,6260001031599,令和６年２月２６日岡山県総社市駅南二丁目１番地１６株式会社ナカプラ（6260001031599）に合併し解散,2020-03-05,1,,,,,ナカプラホンシャ,0
1615,6370103000739,登記記録の閉鎖等,0,2024-03-05,2024-03-01,合同会社食材紹介センター,,合同会社,宮城県,柴田郡柴田町,北船岡３丁目１３番３号,,04,323,9891623,,,2024-03-01,清算の結了等,,,2015-10-05,1,,,,,,0
1624,6430001076206,登記記録の閉鎖等,0,2024-03-05,2024-03-01,株式会社ブリッジ,,株式会社,北海道,札幌市清田区,平岡五条３丁目７番２４号,,01,110,0040875,,,2024-03-01,清算の結了等,,,2018-04-04,1,,,,,ブリッジ,0
1627,6430002010304,登記記録の閉鎖等,0,2024-03-05,2024-03-01,有限会社スーパーマン,,有限会社,北海道,札幌市中央区,南八条西６丁目４２３番７８,,01,101,0640808,,,2024-03-01,清算の結了等,,,2015-10-05,1,,,,,スーパーマン,0
1642,6700150107089,登記記録の閉鎖等,0,2024-03-05,2022-12-31,ＲＡＫＵ,,その他,東京都,世田谷区,太子堂５丁目２－２,,13,112,1540004,,,2022-12-31,その他の清算の結了等,,,2022-02-15,1,,,,,ラク,0
1646,7010001168812,登記記録の閉鎖等,0,2024-03-05,2024-02-28,株式会社アンティム,,株式会社,東京都,中央区,築地４丁目７番３号,,13,102,1040045,,,2024-02-28,清算の結了等,,,2015-10-05,1,,,,,アンティム,0
1647,7010001174018,登記記録の閉鎖等,0,2024-03-05,2024-03-01,帝都自動車交通株式会社,,株式会社,東京都,中央区,日本橋１丁目２１番５号２階,,13,102,1030027,,,2024-03-01,合併による解散等,1010601027134,令和６年３月１日東京都中央区日本橋一丁目２１番５号５階帝都自動車交通株式会社（1010601027134）に合併し解散,2016-03-04,1,,,,,テイトジドウシャコウツウ,0
1666,7010405020016,登記記録の閉鎖等,0,2024-03-05,2024-02-29,一般社団法人ＤＡヘルスケア６,,その他の設立登記法人,東京都,港区,元赤坂１丁目１番７号,,13,103,1070051,,,2024-02-29,清算の結了等,,,2021-07-14,1,,,,,ディーエイヘルスケアシックス,0
1677,7010901033438,登記記録の閉鎖等,0,2024-03-05,2024-02-29,株式会社世田谷企画,,株式会社,東京都,世田谷区,代沢２丁目４３番８号,,13,112,1550032,,,2024-02-29,清算の結了等,,,2015-10-05,1,,,,,セタガヤキカク,0
1682,7011001102240,登記記録の閉鎖等,0,2024-03-05,2024-03-01,Ｊ－Ｗｏｒｌｄ　Ｄｉｎｅｒ株式会社,,株式会社,東京都,渋谷区,神宮前６丁目１２番２０号,,13,113,1500001,,,2024-03-01,清算の結了等,,,2015-10-05,1,,,,,ジェイワールドダイナー,0
1689,7011002036322,登記記録の閉鎖等,0,2024-03-05,2024-03-01,有限会社ムサシ企画,,有限会社,東京都,渋谷区,代々木２丁目１５番４号,,13,113,1510053,,,2024-03-01,合併による解散等,9011001060684,令和６年３月１日東京都渋谷区代々木二丁目１５番４号株式会社レアル（9011001060684）に合併し解散,2015-10-05,1,,,,,ムサシキカク,0
1718,7012701000576,登記記録の閉鎖等,0,2024-03-05,2024-03-01,大日興運株式会社,,株式会社,東京都,小平市,花小金井５丁目１５番１０号,,13,211,1870002,,,2024-03-01,清算の結了等,,,2015-10-05,1,,,,,ダイニチコウウン,0
1731,7021002054851,登記記録の閉鎖等,0,2024-03-05,2024-03-01,有限会社ゼロ通わん,,有限会社,神奈川県,南足柄市,沼田３０１番地１,,14,217,2500115,,,2024-03-01,清算の結了等,,,2015-10-05,1,,,,,ゼロツーワン,0
1741,7040001125406,登記記録の閉鎖等,0,2024-03-05,2024-03-01,株式会社ＧＲＯＷ　ＡＩＤ,,株式会社,千葉県,柏市,西原７丁目４番１号,,12,217,2770885,,,2024-03-01,合併による解散等,2010001226632,令和６年２月２６日東京都中央区日本橋馬喰町二丁目３番３号ＳＷＧホールディングス株式会社（2010001226632）に合併し解散,2022-10-12,1,,,,,グロウエイド,0
1753,7050002010473,登記記録の閉鎖等,0,2024-03-05,2024-02-29,有限会社山田産業,,有限会社,茨城県,笠間市,笠間１２番地５,,08,216,3091611,,,2024-02-29,清算の結了等,,,2015-10-05,1,,,,,ヤマダサンギョウ,0
1794,7120002049356,登記記録の閉鎖等,0,2024-03-05,2024-02-29,有限会社アド・アップル,,有限会社,大阪府,大阪市北区,天神橋３丁目１０番８－７０６号,,27,127,5300041,,,2024-02-29,清算の結了等,,,2015-10-05,1,,,,,,0
1798,7120101022288,登記記録の閉鎖等,0,2024-03-05,2024-03-01,株式会社冨士コーポレーション,,株式会社,大阪府,堺市中区,見野山２０９番地,,27,142,5998243,,,2024-03-01,清算の結了等,,,2015-10-05,1,,,,,フジコーポレーション,0
1803,7120901033113,登記記録の閉鎖等,0,2024-03-05,2024-02-29,株式会社エムカンパニー,,株式会社,大阪府,大阪市港区,磯路２丁目１番２号ＢＪ，ＡＭＡＤＥＵＳ１００５号,,27,107,5520003,,,2024-02-29,清算の結了等,,,2015-10-05,1,,,,,エムカンパニー,0
1819,7170003001220,登記記録の閉鎖等,0,2024-03-05,2024-03-01,合同会社ＡＳ大貴,,合同会社,和歌山県,和歌山市,園部１０８８番地５,,30,201,6408483,,,2024-03-01,清算の結了等,,,2018-03-20,1,,,,,エイエスダイキ,0
1841,7240005010261,登記記録の閉鎖等,0,2024-03-05,2024-02-26,特定非営利活動法人ネットワークステーション絆,,その他の設立登記法人,広島県,安芸郡府中町,鶴江２丁目８番２－１０１号ハイツ中村,,34,302,7350008,,,2024-02-26,清算の結了等,,,2015-10-05,1,,,,,ネットワークステーションキズナ,0
1848,7290001043104,登記記録の閉鎖等,0,2024-03-05,2024-02-28,株式会社大成商会,,株式会社,福岡県,太宰府市,宰府６丁目６番２０号,,40,221,8180117,,,2024-02-28,清算の結了等,,,2015-10-05,1,,,,,,0
1869,7360002016274,登記記録の閉鎖等,0,2024-03-05,2024-02-29,有限会社玉城自販,,有限会社,沖縄県,浦添市,内間２丁目２番９号,,47,208,9012121,,,2024-02-29,清算の結了等,,,2015-10-05,1,,,,,タマキジハン,0
1872,7370005009803,登記記録の閉鎖等,0,2024-03-05,2024-03-01,一般社団法人仙台コミュニティスポーツラボ,,その他の設立登記法人,宮城県,仙台市青葉区,国見１丁目８番１号東北福祉大学地域共創推進室,,04,101,9810943,,,2024-03-01,清算の結了等,,,2019-01-07,1,,,,,センダイコミュニティスポーツラボ,0
1875,7380002011884,登記記録の閉鎖等,0,2024-03-05,2024-02-29,有限会社伏見屋硝子店,,有限会社,福島県,郡山市,本町１丁目７番１５号,,07,203,9638871,,,2024-02-29,清算の結了等,,,2015-10-05,1,,,,,フシミヤガラステン,0
1876,7390001005597,登記記録の閉鎖等,0,2024-03-05,2024-03-01,株式会社アート不動産,,株式会社,山形県,山形市,十日町１丁目６番１５号,,06,201,9900031,,,2024-03-01,清算の結了等,,,2015-10-05,1,,,,,アートフドウサン,0
1879,7390002011594,登記記録の閉鎖等,0,2024-03-05,2024-02-29,有限会社イワサキ,,有限会社,山形県,村山市,楯岡中町５番１８号,,06,208,9950036,,,2024-02-29,清算の結了等,,,2015-10-05,1,,,,,イワサキ,0
1890,7450002010301,登記記録の閉鎖等,0,2024-03-05,2024-03-01,有限会社今井家具店,,有限会社,北海道,士別市,大通西４丁目７１４番地６,,01,220,0950029,,,2024-03-01,清算の結了等,,,2015-10-05,1,,,,,,0
1898,8010001174017,登記記録の閉鎖等,0,2024-03-05,2024-03-01,帝都自動車交通株式会社,,株式会社,東京都,中央区,日本橋１丁目２１番５号１階,,13,102,1030027,,,2024-03-01,合併による解散等,1010601027134,令和６年３月１日東京都中央区日本橋一丁目２１番５号５階帝都自動車交通株式会社（1010601027134）に合併し解散,2016-03-04,1,,,,,テイトジドウシャコウツウ,0
1899,8010001194345,登記記録の閉鎖等,0,2024-03-05,2024-02-28,株式会社スナグラップ,,株式会社,東京都,中央区,日本橋箱崎町３６番２号,,13,102,1030015,,,2024-02-28,清算の結了等,,,2018-08-24,1,,,,,スナグラップ,0
1914,8010401040157,登記記録の閉鎖等,0,2024-03-05,2024-02-29,ＣＴＯ株式会社,,株式会社,東京都,港区,南青山２丁目２番１５号ウィン青山９４２,,13,103,1070062,,,2024-02-29,清算の結了等,,,2015-10-05,1,,,,,シーティーオー,0
1918,8010401090499,登記記録の閉鎖等,0,2024-03-05,2024-02-29,イーショップハイブ株式会社,,株式会社,神奈川県,藤沢市,片瀬海岸１丁目１２番３号ワンアンドオンリー湘南ビル２０６号室,,14,205,2510035,,,2024-02-29,清算の結了等,,,2015-10-05,1,,,,,イーショップハイブ,0
1920,8010405017993,登記記録の閉鎖等,0,2024-03-05,2024-02-29,Ｐｌｕｓ特定目的会社,,その他の設立登記法人,東京都,港区,虎ノ門５丁目１番４号,,13,103,1050001,,,2024-02-29,清算の結了等,,,2019-08-21,1,,,,,プラス,0
1921,8010405020304,登記記録の閉鎖等,0,2024-03-05,2024-02-29,一般社団法人ＤＡヘルスケア７,,その他の設立登記法人,東京都,港区,元赤坂１丁目１番７号,,13,103,1070051,,,2024-02-29,清算の結了等,,,2021-10-13,1,,,,,ディーエイヘルスケアセブン,0
1944,8011001124829,登記記録の閉鎖等,0,2024-03-05,2024-03-01,株式会社ＳＵＧＡＲＷＡＴＣＨ,,株式会社,東京都,目黒区,青葉台１丁目１０番１号,,13,110,1530042,,,2024-03-01,清算の結了等,,,2018-10-24,1,,,,,シュガーウォッチ,0
1971,8011502012053,登記記録の閉鎖等,0,2024-03-05,2024-02-22,有限会社エルワンダ,,有限会社,東京都,北区,西ケ原３丁目２番１－４１５号,,13,117,1140024,,,2024-02-22,清算の結了等,,,2015-10-05,1,,,,,エルワンダ,0
1974,8011701008042,登記記録の閉鎖等,0,2024-03-05,2024-02-29,株式会社やまとみ,,株式会社,東京都,江戸川区,南小岩８丁目１６番１７号,,13,123,1330056,,,2024-02-29,清算の結了等,,,2015-10-05,1,,,,,ヤマトミ,0
1988,8020001050621,登記記録の閉鎖等,0,2024-03-05,2024-02-29,株式会社ベストユニフォーム,,株式会社,神奈川県,横浜市金沢区,鳥浜町１２番５３,,14,108,2360002,,,2024-02-29,清算の結了等,,,2015-10-05,1,,,,,ベストユニフォーム,0
1992,8021001065114,登記記録の閉鎖等,0,2024-03-05,2024-03-01,株式会社ムーンアセット,,株式会社,京都府,京都市上京区,河原町通今出川下る２丁目栄町３６４番地,,26,102,6020842,,,2024-03-01,合併による解散等,9130001054429,令和６年３月１日京都市上京区御車道石薬師通上る二丁目栄町３６４番地株式会社ハウスセゾンエンタープライズ（9130001054429）に合併し解散,2018-07-03,1,,,,,ムーンアセット,0
2006,8040001104929,登記記録の閉鎖等,0,2024-03-05,2024-02-16,株式会社アイビス,,株式会社,東京都,練馬区,上石神井１丁目２４番５号,,13,120,1770044,,,2024-02-16,清算の結了等,,,2018-06-06,1,,,,,アイビス,0
2036,8080401015169,登記記録の閉鎖等,0,2024-03-05,2024-03-01,マルイ水産株式会社,,株式会社,静岡県,御前崎市,白羽５５２４番地の８,,22,223,4371622,,,2024-03-01,清算の結了等,,,2015-10-05,1,,,,,マルイスイサン,0
2042,8110002007586,登記記録の閉鎖等,0,2024-03-05,2024-03-01,有限会社明巧舎,,有限会社,新潟県,新潟市西区,平島１丁目１４番６号,,15,107,9502004,,,2024-03-01,清算の結了等,,,2015-10-05,1,,,,,メイコウシャ,0
2047,8120001227597,登記記録の閉鎖等,0,2024-03-05,2024-02-29,ＪＴＬＳｔｕｄｉｏ株式会社,,株式会社,東京都,世田谷区,用賀２丁目３３番１１号第２福ビル１階,,13,112,1580097,,,2024-02-29,清算の結了等,,,2020-03-05,1,,,,,ジェイティエルスタディオ,0
2054,8120005021427,登記記録の閉鎖等,0,2024-03-05,2024-03-01,土地家屋調査士法人ＴＲＵＳＴ,,その他の設立登記法人,大阪府,大阪市北区,中津３丁目６番２１号Ｓ＆ＳＩＩＩビル１０２,00128172,27,127,5310071,,,2024-03-01,清算の結了等,,,2020-02-10,1,,,,,トラスト,0
2062,8120902005424,登記記録の閉鎖等,0,2024-03-05,2024-03-01,有限会社エンドートラベル企画,,有限会社,大阪府,吹田市,垂水町３丁目１８番１４号,,27,205,5640062,,,2024-03-01,清算の結了等,,,2015-10-05,1,,,,,エンドートラベルキカク,0
2076,8140001055575,登記記録の閉鎖等,0,2024-03-05,2024-03-01,ヒーリングライフカンパニー株式会社,,株式会社,兵庫県,尼崎市,大庄西町４丁目６番１０号,,28,202,6600077,,,2024-03-01,清算の結了等,,,2015-10-05,1,,,,,ヒーリングライフカンパニー,0
2090,8150002004778,登記記録の閉鎖等,0,2024-03-05,2024-03-01,有限会社ガードメディカル,,有限会社,奈良県,生駒市,あすか野南２丁目１１番２２号,,29,209,6300133,,,2024-03-01,清算の結了等,,,2015-10-05,1,,,,,ガードメディカル,0
2093,8180001060893,登記記録の閉鎖等,0,2024-03-05,2024-02-29,株式会社ライフテック,,株式会社,愛知県,名古屋市守山区,瀬古３丁目８２３番地の１,,23,113,4630068,,,2024-02-29,清算の結了等,,,2015-10-05,1,,,,,ライフテック,0
2116,8260001008356,登記記録の閉鎖等,0,2024-03-05,2024-03-04,ＰＲＩＮＣＩＰＬＥ　ＰＯＩＮＴ株式会社,,株式会社,岡山県,岡山市南区,植松５２３番地４,,33,104,7100151,,,2024-03-04,清算の結了等,,,2015-10-05,1,,,,,プリンシプルポイント,0
2134,8300005003506,登記記録の閉鎖等,0,2024-03-05,2024-03-04,医療法人博仁会,,その他の設立登記法人,佐賀県,杵島郡江北町,大字山口３３９６番地,,41,424,8490501,,,2024-03-04,清算の結了等,,,2015-10-05,1,,,,,ハクジンカイ,0
2146,8360002021174,登記記録の閉鎖等,0,2024-03-05,2024-02-29,有限会社光洋建設,,有限会社,沖縄県,石垣市,字登野城７７９番地４,,47,207,9070004,,,2024-02-29,清算の結了等,,,2015-10-05,1,,,,,コウヨウケンセツ,0
2155,8380003001470,登記記録の閉鎖等,0,2024-03-05,2024-02-29,合同会社高木心平事務所,00084275,合同会社,福島県,いわき市,平字三町目３３番地,,07,204,9708026,,,2024-02-29,清算の結了等,,,2015-10-05,1,,,,,タカギシンペイジムショ,0
2164,8460101000762,登記記録の閉鎖等,0,2024-03-05,2024-02-29,株式会社ワールドワーク,,株式会社,北海道,帯広市,西二十二条南４丁目１７番地６,,01,207,0802472,,,2024-02-29,清算の結了等,,,2015-10-05,1,,,,,ワールドワーク,0
2193,9010403026509,登記記録の閉鎖等,0,2024-03-05,2024-02-29,合同会社ｃｏｍｍｉｔ,,合同会社,東京都,港区,南青山２丁目２番１５号,,13,103,1070062,,,2024-02-29,清算の結了等,,,2021-11-15,1,,,,,コミット,0
2202,9010601022581,登記記録の閉鎖等,0,2024-03-05,2024-02-28,株式会社エーベ,,株式会社,東京都,墨田区,両国４丁目２７番５号サロンジェビル,,13,107,1300026,,,2024-02-28,清算の結了等,,,2015-10-05,1,,,,,エーベ,0
2208,9010802014931,登記記録の閉鎖等,0,2024-03-05,2024-02-29,有限会社山崎金属,00052502,有限会社,東京都,大田区,鵜の木２丁目３７番１９号,,13,111,1460091,,,2024-02-29,清算の結了等,,,2015-10-05,1,,,,,ヤマザキキンゾク,0
2221,9011005008366,登記記録の閉鎖等,0,2024-03-05,2024-02-29,一般社団法人社長メシ基金,,その他の設立登記法人,東京都,渋谷区,恵比寿西１丁目７番７号,,13,113,1500021,,,2024-02-29,清算の結了等,,,2019-11-18,1,,,,,シャチョウメシキキン,0
2233,9011201017897,登記記録の閉鎖等,0,2024-03-05,2024-03-01,株式会社プレシャス,,株式会社,東京都,港区,西新橋１丁目６番２１号,,13,103,1050003,,,2024-03-01,合併による解散等,8010001140159,令和６年３月１日東京都港区西新橋一丁目６番２１号株式会社エヌ・エイ・シー（8010001140159）に合併し解散,2015-10-05,1,,,,,プレシャス,0
2243,9011801007315,登記記録の閉鎖等,0,2024-03-05,2024-03-01,株式会社アシスト,,株式会社,東京都,葛飾区,東水元４丁目８番６号,,13,122,1250033,,,2024-03-01,清算の結了等,,,2015-10-05,1,,,,,アシスト,0
2266,9030002122079,登記記録の閉鎖等,0,2024-03-05,2024-03-01,秩父美術加工有限会社,,有限会社,埼玉県,秩父郡長瀞町,大字本野上６２３番地２,,11,363,3691304,,,2024-03-01,清算の結了等,,,2015-10-05,1,,,,,,0
2268,9040001081531,登記記録の閉鎖等,0,2024-03-05,2024-02-29,株式会社稲毛,,株式会社,千葉県,千葉市中央区,村田町７１５番地,,12,101,2600825,,,2024-02-29,清算の結了等,,,2015-10-05,1,,,,,イナゲ,0
2279,9050002021980,登記記録の閉鎖等,0,2024-03-05,2024-02-29,有限会社広瀬機械店,,有限会社,茨城県,つくば市,北条８３番地,,08,220,3004231,,,2024-02-29,清算の結了等,,,2015-10-05,1,,,,,ヒロセキカイテン,0
2327,9120002066192,登記記録の閉鎖等,0,2024-03-05,2024-02-29,有限会社ネクストワン,,有限会社,大阪府,大阪市中央区,伏見町２丁目３番９号,,27,128,5410044,,,2024-02-29,清算の結了等,,,2015-10-05,1,,,,,ネクストワン,0
2340,9122002013414,登記記録の閉鎖等,0,2024-03-05,2024-02-27,有限会社大山瓦興業,,有限会社,大阪府,八尾市,若林町３丁目１４４番地の２,,27,212,5810038,,,2024-02-27,清算の結了等,,,2015-10-05,1,,,,,オオヤマカワラコウギョウ,0
2363,9180001060133,登記記録の閉鎖等,0,2024-03-05,2024-03-01,アセアン通商株式会社,,株式会社,岡山県,岡山市南区,三浜町２丁目６番２８号,,33,104,7028036,,,2024-03-01,清算の結了等,,,2015-10-05,1,,,,,アセアンツウショウ,0
2372,9180301029068,登記記録の閉鎖等,0,2024-03-05,2024-03-01,株式会社イシテック,,株式会社,愛知県,知立市,谷田町西１丁目１０番地６プレジール２０５,,23,225,4720014,,,2024-03-01,清算の結了等,,,2016-04-08,1,,,,,イシテック,0
2391,9250001003472,登記記録の閉鎖等,0,2024-03-05,2024-03-01,中野電機株式会社,,株式会社,山口県,宇部市,上町１丁目４番１５号,,35,202,7550051,,,2024-03-01,清算の結了等,,,2015-10-05,1,,,,,ナカノデンキ,0
2398,9250002019658,登記記録の閉鎖等,0,2024-03-05,2024-02-29,有限会社共石ガス,,有限会社,山口県,柳井市,古開作３９３番地の３,,35,212,7420032,,,2024-02-29,清算の結了等,,,2015-10-05,1,,,,,キョウセキガス,0
2406,9270002007669,登記記録の閉鎖等,0,2024-03-05,2024-03-01,有限会社門永鉄工所,,有限会社,鳥取県,境港市,昭和町５番地２３,,31,204,6840034,,,2024-03-01,清算の結了等,,,2015-10-05,1,,,,,カドナガテッコウショ,0
2416,9290002037318,登記記録の閉鎖等,0,2024-03-05,2024-02-28,有限会社グランデモータース,,有限会社,福岡県,糟屋郡粕屋町,甲仲原１丁目４番８号ステラガーデンＩＩＩ２０３号,00126383,40,349,8112315,,,2024-02-28,清算の結了等,,,2015-10-05,1,,,,,グランデモータース,0
2418,9290801003115,登記記録の閉鎖等,0,2024-03-05,2024-03-04,株式会社光ウインド,,株式会社,福岡県,北九州市小倉南区,上曽根新町３番７号,,40,107,8000215,,,2024-03-04,清算の結了等,,,2015-10-05,1,,,,,ヒカリウインド,0
2430,9340002001895,登記記録の閉鎖等,0,2024-03-05,2024-03-01,有限会社エヌカンパニー,,有限会社,鹿児島県,鹿児島市,与次郎１丁目１０番２０号,,46,201,8900062,,,2024-03-01,合併による解散等,3340001003270,令和６年３月１日鹿児島市与次郎一丁目１０番２１号株式会社西原商会（3340001003270）に合併し解散,2015-10-05,1,,,,,エヌカンパニー,0
2441,9380001019720,登記記録の閉鎖等,0,2024-03-05,2024-03-01,株式会社駒商,,株式会社,福島県,双葉郡浪江町,大字幾世橋字田中前５９番地１,,07,547,9791513,,,2024-03-01,清算の結了等,,,2015-10-05,1,,,,,コマショウ,0
2456,9480001001610,登記記録の閉鎖等,0,2024-03-05,2024-03-04,株式会社Ｎホールディングス,,株式会社,徳島県,徳島市,南出来島町１丁目３１番地１,,36,201,7700824,,,2024-03-04,清算の結了等,,,2015-10-05,1,,,,,エヌホールディングス,0
