sequenceNumber,corporateNumber,process,correct,updateDate,changeDate,name,nameImageId,kind,prefectureName,cityName,streetNumber,addressImageId,prefectureCode,cityCode,postCode,addressOutside,addressOutsideImageId,closeDate,closeCause,successorCorporateNumber,changeCause,assignmentDate,latest,enName,enPrefectureName,enCityName,enAddressOutside,furigana,hihyoji
7,1010001257050,新規,0,2025-07-23,2025-07-23,株式会社アトリエ東京,,株式会社,東京都,中央区,日本橋本町２丁目２番２号日本橋本町ＹＳビル２階在日フランス商工会議所内,,13,102,1030023,,,,,,,2025-07-23,1,,,,,アトリエトウキョウ,0
8,1010003048092,新規,0,2025-07-23,2025-07-23,ＫＴＡ軽米風力合同会社,,合同会社,東京都,千代田区,内神田１丁目３番７号４０１あすな会計事務所内,,13,101,1010047,,,,,,,2025-07-23,1,,,,,ケーティーエーカルマイフウリョク,0
9,1010003048126,新規,0,2025-07-23,2025-07-23,合同会社フォーリヤ,,合同会社,東京都,千代田区,丸の内１丁目４番１号東京共同会計事務所内,,13,101,1000005,,,,,,,2025-07-23,1,,,,,フォーリヤ,0
11,1010005040378,新規,0,2025-07-23,2025-07-23,一般社団法人親子Ｍｉｒａｉ　Ｃａｎｖａｓ,,その他の設立登記法人,東京都,中央区,銀座８丁目１８番２－８０７号,,13,102,1040061,,,,,,,2025-07-23,1,,,,,オヤコミライキャンバス,0
13,1010101016777,新規,0,2025-07-23,2025-07-23,株式会社八王子の姉御,,株式会社,東京都,八王子市,元本郷町１丁目２９番１５号,,13,201,1920051,,,,,,,2025-07-23,1,,,,,ハチオウジノアネゴ,0
31,1010601067667,新規,0,2025-07-23,2025-07-23,昇健ホールディングス株式会社,,株式会社,東京都,江東区,毛利２丁目９－２０,,13,108,1350001,,,,,,,2025-07-23,1,,,,,ショウケンホールディングス,0
43,1010905004804,新規,0,2025-07-23,2025-07-23,Ｊａｐａｎ２一般社団法人,,その他の設立登記法人,東京都,世田谷区,駒沢４丁目１５番２０号,,13,112,1540012,,,,,,,2025-07-23,1,,,,,ジャパンツー,0
51,1011001171407,新規,0,2025-07-23,2025-07-23,株式会社ＯｍｏｉＱａｎｅ,,株式会社,東京都,渋谷区,桜丘町２６番１号セルリアンタワー１５階,,13,113,1500031,,,,,,,2025-07-23,1,,,,,オモイカネ,0
55,1011003022178,新規,0,2025-07-23,2025-07-23,ＧＲ合同会社,,合同会社,東京都,目黒区,上目黒３丁目６番１５－１３０１号,,13,110,1530051,,,,,,,2025-07-23,1,,,,,ジーアール,0
64,1011601028832,新規,0,2025-07-23,2025-07-23,株式会社東建ライフサービス,,株式会社,東京都,練馬区,中村北４丁目８番３０号ツカサビル７階,,13,120,1760023,,,,,,,2025-07-23,1,,,,,トウケンライフサービス,0
65,1011603004773,新規,0,2025-07-23,2025-07-23,合同会社エフワイ企画,,合同会社,東京都,練馬区,下石神井３丁目１番１５号,,13,120,1770042,,,,,,,2025-07-23,1,,,,,エフワイキカク,0
69,1011703004327,新規,0,2025-07-23,2025-07-23,架橋合同会社,,合同会社,東京都,江戸川区,平井１丁目１０番７号たつみ荘２０５号室,,13,123,1320035,,,,,,,2025-07-23,1,,,,,カケハシ,0
72,1011801046485,新規,0,2025-07-23,2025-07-23,ラマ株式会社,,株式会社,東京都,足立区,中央本町２丁目２２番２１号,,13,121,1200011,,,,,,,2025-07-23,1,,,,,ラマ,0
74,1012401043369,新規,0,2025-07-23,2025-07-23,株式会社ＢＫＳ,,株式会社,東京都,調布市,布田１丁目４９番地１５,,13,208,1820024,,,,,,,2025-07-23,1,,,,,ビーケーエス,0
75,1012403007248,新規,0,2025-07-23,2025-07-23,合同会社Ｙ’ｓキッチン,,合同会社,東京都,武蔵野市,吉祥寺本町１丁目１１番３０号ダイアパレス吉祥寺２Ｆ,,13,203,1800004,,,,,,,2025-07-23,1,,,,,ワイズキッチン,0
86,1020003028861,新規,0,2025-07-23,2025-07-23,合同会社ＣＯＭＩＣＯＭＥ,,合同会社,神奈川県,横浜市青葉区,美しが丘２丁目１８番地９－３０２,,14,117,2250002,,,,,,,2025-07-23,1,,,,,コミカム,0
92,1021001085787,新規,0,2025-07-23,2025-07-23,株式会社心愛,,株式会社,神奈川県,相模原市中央区,横山３丁目１－１３Ｎｓテラス１Ｆ,,14,152,2520242,,,,,,,2025-07-23,1,,,,,ココア,0
93,1021001085853,新規,0,2025-07-23,2025-07-23,株式会社Ｎｅｒｅｕｓ,,株式会社,神奈川県,足柄上郡山北町,岸２７１６番地,,14,364,2580112,,,,,,,2025-07-23,1,,,,,ネレウス,0
94,1021001085861,新規,0,2025-07-23,2025-07-23,株式会社Ｃｉ　Ｍａｒｋｅｔｉｎｇ,,株式会社,神奈川県,逗子市,小坪５丁目２３番８－８２０８号,,14,208,2490008,,,,,,,2025-07-23,1,,,,,シーアイマーケティング,0
108,1030001167751,新規,0,2025-07-23,2025-07-23,株式会社セラーノ,,株式会社,埼玉県,三郷市,早稲田６丁目１１番地１４,,11,237,3410018,,,,,,,2025-07-23,1,,,,,セラーノ,0
114,1030003027227,新規,0,2025-07-23,2025-07-23,シンセイカンパニー合同会社,,合同会社,埼玉県,飯能市,大字笠縫３１４番地１６,,11,209,3570045,,,,,,,2025-07-23,1,,,,,シンセイカンパニー,0
115,1030003027268,新規,0,2025-07-23,2025-07-23,Ｆハウス合同会社,,合同会社,埼玉県,川口市,本前川１丁目３番１号,,11,203,3330849,,,,,,,2025-07-23,1,,,,,エフハウス,0
119,1040001139766,新規,0,2025-07-23,2025-07-23,株式会社光野空設,,株式会社,千葉県,市川市,南行徳３丁目１０番８－２０２号,,12,203,2720138,,,,,,,2025-07-23,1,,,,,ミツノクウセツ,0
120,1040001139774,新規,0,2025-07-23,2025-07-23,株式会社ＳＥＶＥＮ’ｓ,,株式会社,千葉県,柏市,泉町１０番１９－７０１号,,12,217,2770022,,,,,,,2025-07-23,1,,,,,セブンズ,0
129,1050003009462,新規,0,2025-07-23,2025-07-23,エメラルドコンサルティング合同会社,,合同会社,茨城県,龍ケ崎市,藤ケ丘７丁目７番地１ヴィンテージ藤ケ丘Ｂ棟,,08,208,3010855,,,,,,,2025-07-23,1,,,,,エメラルドコンサルティング,0
133,1060001038421,新規,0,2025-07-23,2025-07-23,Ｒｓカンパニー株式会社,,株式会社,栃木県,矢板市,木幡１２９１番地１,,09,211,3292142,,,,,,,2025-07-23,1,,,,,アールズカンパニー,0
134,1070001043164,新規,0,2025-07-23,2025-07-23,株式会社ヒナタ,,株式会社,群馬県,桐生市,相生町２丁目９２番地６,,10,203,3760011,,,,,,,2025-07-23,1,,,,,ヒナタ,0
135,1070001043172,新規,0,2025-07-23,2025-07-23,株式会社リンクアークス,,株式会社,群馬県,伊勢崎市,波志江町４２５９番地１６,,10,204,3720001,,,,,,,2025-07-23,1,,,,,リンクアークス,0
136,1070003006012,新規,0,2025-07-23,2025-07-23,ＲｅＮｏｒｍ合同会社,,合同会社,群馬県,高崎市,大八木町９１５－９,,10,202,3700072,,,,,,,2025-07-23,1,,,,,リノーム,0
167,1120001278028,新規,0,2025-07-23,2025-07-23,株式会社ペイントフューチャー,,株式会社,大阪府,大阪市中央区,南船場４丁目１０番５号南船場ＳＯＨＯビル７０２,,27,128,5420081,,,,,,,2025-07-23,1,,,,,ペイントフューチャー,0
168,1120001278201,新規,0,2025-07-23,2025-07-23,株式会社Ｍａｙ明,,株式会社,大阪府,大阪市浪速区,敷津西２丁目２番８－４０３号,,27,111,5560015,,,,,,,2025-07-23,1,,,,,メイメイ,0
170,1120003030080,新規,0,2025-07-23,2025-07-23,合同会社秒速,,合同会社,大阪府,大阪市北区,池田町１番２‐３５２号,,27,127,5300033,,,,,,,2025-07-23,1,,,,,ビョウソク,0
171,1120005025062,新規,0,2025-07-23,2025-07-23,医療法人謙瑛会,,その他の設立登記法人,大阪府,枚方市,高田２丁目３０番４号,,27,210,5730073,,,,,,,2025-07-23,1,,,,,ケンエイカイ,0
173,1120101072124,新規,0,2025-07-23,2025-07-23,株式会社Ｏ２,,株式会社,大阪府,堺市北区,百舌鳥梅町１丁１－６昭和ビル１０１号室,,27,146,5918032,,,,,,,2025-07-23,1,,,,,オーツー,0
174,1120101072132,新規,0,2025-07-23,2025-07-23,株式会社泉州水産,,株式会社,大阪府,堺市西区,浜寺石津町中４丁１０番１３号,,27,144,5928334,,,,,,,2025-07-23,1,,,,,センシュウスイサン,0
175,1120101072149,新規,0,2025-07-23,2025-07-23,株式会社心絆,,株式会社,大阪府,堺市中区,東山２１８－６,,27,142,5998247,,,,,,,2025-07-23,1,,,,,ココナ,0
178,1122001039434,新規,0,2025-07-23,2025-07-23,株式会社住道商会,,株式会社,大阪府,大東市,大野１丁目１０番３号,,27,218,5740042,,,,,,,2025-07-23,1,,,,,スミノドウショウカイ,0
182,1130001080135,新規,0,2025-07-23,2025-07-23,株式会社源建設,,株式会社,京都府,南丹市,園部町上木崎町宮ノ口３１番地,,26,213,6220011,,,,,,,2025-07-23,1,,,,,ミナモトケンセツ,0
183,1130001080143,新規,0,2025-07-23,2025-07-23,株式会社翌檜,,株式会社,京都府,京都市西京区,嵐山中尾下町２０番地５１,,26,111,6160004,,,,,,,2025-07-23,1,,,,,アスナロ,0
204,1160001026903,新規,0,2025-07-23,2025-07-23,株式会社エスエル,,株式会社,滋賀県,大津市,御幸町３番１９号,,25,201,5200057,,,,,,,2025-07-23,1,,,,,エスエル,0
216,1190001032411,新規,0,2025-07-23,2025-07-23,リオンドール・アセットパートナーズ株式会社,,株式会社,三重県,津市,豊が丘１丁目３７番４号,,24,201,5142222,,,,,,,2025-07-23,1,,,,,リオンドールアセットパートナーズ,0
221,1220001026814,新規,0,2025-07-23,2025-07-23,株式会社昇栄仮設,,株式会社,石川県,金沢市,神田１丁目３０番７号,,17,201,9218027,,,,,,,2025-07-23,1,,,,,ショウエイカセツ,0
226,1240001065257,新規,0,2025-07-23,2025-07-23,エイチ・スピリット株式会社,,株式会社,広島県,廿日市市,前空６丁目４番２７号,,34,213,7390424,,,,,,,2025-07-23,1,,,,,エイチスピリット,0
228,1240003007315,新規,0,2025-07-23,2025-07-23,小穂合同会社,,合同会社,広島県,広島市安佐南区,古市２丁目１番１号,,34,105,7310123,,,,,,,2025-07-23,1,,,,,サホ,0
231,1280001009466,新規,0,2025-07-23,2025-07-23,ＫＥＹＳＴＯＮＥ株式会社,,株式会社,島根県,出雲市,塩冶町１７６２番地３,,32,203,6930021,,,,,,,2025-07-23,1,,,,,キーストーン,0
232,1290001110826,新規,0,2025-07-23,2025-07-23,津曲工業株式会社,,株式会社,福岡県,朝倉郡筑前町,安野１９番地６,,40,447,8380213,,,,,,,2025-07-23,1,,,,,ツマガリコウギョウ,0
239,1330003011134,新規,0,2025-07-23,2025-07-23,合同会社アルネ,,合同会社,熊本県,菊池郡大津町,大字大津１５６６番地３,,43,403,8691233,,,,,,,2025-07-23,1,,,,,アルネ,0
242,1350003004986,新規,0,2025-07-23,2025-07-23,合同会社Ｃｏｃｏアセット,,合同会社,宮崎県,西臼杵郡高千穂町,大字押方１７０９,,45,441,8821102,,,,,,,2025-07-23,1,,,,,ココアセット,0
243,1360001035504,新規,0,2025-07-23,2025-07-23,株式会社ｔａｎｕｎｉｑｕｅ,,株式会社,沖縄県,宮古島市,平良字下里５５７番地Ｄコート５Ｆ,,47,214,9060013,,,,,,,2025-07-23,1,,,,,,0
245,1370001052861,新規,0,2025-07-23,2025-07-23,株式会社Ｃａｒ　Ｄｅｔａｉｌｉｎｇ２６３,,株式会社,宮城県,仙台市泉区,松森字陣ケ原５５番地の２Ｂ棟２０６号室,,04,105,9813111,,,,,,,2025-07-23,1,,,,,カーディテイリングニーロクサン,0
250,1410001014238,新規,0,2025-07-23,2025-07-23,あさひタクシー株式会社,,株式会社,秋田県,秋田市,牛島西１丁目１番１１号,,05,201,0100063,,,,,,,2025-07-23,1,,,,,アサヒタクシー,0
254,1430001094872,新規,0,2025-07-23,2025-07-23,株式会社ユニイクワークス,,株式会社,北海道,札幌市中央区,北九条西２０丁目１番２１号,,01,101,0600009,,,,,,,2025-07-23,1,,,,,ユニイクワークス,0
256,1430003017880,新規,0,2025-07-23,2025-07-23,合同会社ＰＯＳＹ,,合同会社,北海道,沙流郡日高町,字厚賀町１７５番地の３,,01,601,0592243,,,,,,,2025-07-23,1,,,,,ポジー,0
257,1430003017897,新規,0,2025-07-23,2025-07-23,合同会社ツキネコ,,合同会社,北海道,札幌市手稲区,西宮の沢六条１丁目６番１８号,,01,109,0060006,,,,,,,2025-07-23,1,,,,,ツキネコ,0
261,1470001020809,新規,0,2025-07-23,2025-07-23,株式会社ＣＲＥＰＡＴＨ,,株式会社,香川県,さぬき市,寒川町石田西９９１番地１,,37,206,7692322,,,,,,,2025-07-23,1,,,,,クレパス,0
262,1490001011120,新規,0,2025-07-23,2025-07-23,株式会社Ｆｏｒｅｓｔ,,株式会社,高知県,高知市,中秦泉寺９６番地,,39,201,7800021,,,,,,,2025-07-23,1,,,,,フォレスト,0
263,1490003002035,新規,0,2025-07-23,2025-07-23,合同会社ヘカトン,,合同会社,高知県,香美市,土佐山田町西本町２丁目３番２０号,,39,212,7820032,,,,,,,2025-07-23,1,,,,,ヘカトン,0
265,1700150131457,新規,0,2025-07-23,2025-07-23,ＧｕａｎｇｚｈｏｕＢａｑｉｏｎｇＷａｎｇｌｕｏＪｉｓｈｕＹｏｕｘｉａｎＺｅｒｅｎＧｏｎｇｓｉ,,外国会社等,,,,,,,,ＰａｎＹｕＱｕＳｈｉＬｏｕＺｈｅｎＸｉＭｅｎＮａｎＬｕＬｉａｎＨｕａＬｏｕ　Ｅｒ　Ｃｅｎｇ　Ｈ２０４７　ＧｕａｎｇＺｈｏｕＧｕａｎｇＤｏｎｇ５１１４４７ＣＮ,,,,,,2025-07-23,1,,,,,グワンジョウシーバーチョンワンルオジーシューヨウシエンゾーレンゴンスー,0
266,1700150131465,新規,0,2025-07-23,2025-07-23,ＳＴＡＲ　ＥＮＴＥＲＰＲＩＳＥＳ,,外国会社等,神奈川県,座間市,東原４丁目３１－１　ベルピアさがみ野ＮＯ．１－２－Ｄ,,14,216,2520004,スリランカ民主社会主義共和国、オールドタウン、マーダンベ,,,,,,2025-07-23,1,,,,,スターエンタープライセス,0
267,1700150131473,新規,0,2025-07-23,2025-07-23,ＡＣｒｅａｔｉｖｅＣｏｇｌｔｄ,,外国会社等,,,,,,,,Ｕｎｉｔ　４，Ｂｅｓｓｅｍｅｒ　Ｐａｒｋ　Ｉｎｄｕｓｔｒｉａｌ　Ｅｓｔａｔｅ，２５０　Ｍｉｌｋｗｏｏｄ　Ｒｏａｄ，Ｌｏｎｄｏｎ　ＳＥ２４　０ＨＧ　Ｕｎｉｔｅｄ　Ｋｉｎｇｄｏｍ,,,,,,2025-07-23,1,,,,,アクリエイテイブリミテツド,0
277,2010001256448,新規,0,2025-07-23,2025-07-23,株式会社ＲＥＤ　ＤＯＯＲ,,株式会社,東京都,文京区,湯島３丁目４６番８－１０１号,,13,105,1130034,,,,,,,2025-07-23,1,,,,,レッドドア,0
278,2010001256984,新規,0,2025-07-23,2025-07-23,株式会社空上スタジオ,,株式会社,東京都,千代田区,飯田橋２丁目１番５号Ｓ－ＧｌａｎｚＫＵＤＡＮＢＬＤ．３階,,13,101,1020072,,,,,,,2025-07-23,1,,,,,カラアゲスタジオ,0
279,2010001257090,新規,0,2025-07-23,2025-07-23,Ｂｅａｕｔｒｉｐ　Ｊａｐａｎ株式会社,,株式会社,東京都,千代田区,外神田５丁目２番３号アソルティ末広町６階,,13,101,1010021,,,,,,,2025-07-23,1,,,,,ビュートリップジャパン,0
280,2010003048083,新規,0,2025-07-23,2025-07-23,Ｍｅｇａｔｉｘ　Ｊａｐａｎ合同会社,,合同会社,東京都,中央区,日本橋３丁目９番１号日本橋三丁目スクエア１１階,,13,102,1030027,,,,,,,2025-07-23,1,,,,,メガティックスジャパン,0
281,2010003048091,新規,0,2025-07-23,2025-07-23,ＫＴＡ久慈戸呂風力合同会社,,合同会社,東京都,千代田区,内神田１丁目３番７号４０１あすな会計事務所内,,13,101,1010047,,,,,,,2025-07-23,1,,,,,ケーティーエークジヘロフウリョク,0
282,2010003048109,新規,0,2025-07-23,2025-07-23,合同会社ｔｉｎｔｏｙ,,合同会社,東京都,中央区,勝どき３丁目６番１０－９０１号,,13,102,1040054,,,,,,,2025-07-23,1,,,,,ティントイ,0
283,2010005040369,新規,0,2025-07-23,2025-07-23,一般社団法人グリーンＸアライアンス,,その他の設立登記法人,東京都,中央区,築地２丁目１５－１５セントラル東銀座１４Ｆ,,13,102,1040045,,,,,,,2025-07-23,1,,,,,グリーンエックスアライアンス,0
295,2010401191914,新規,0,2025-07-23,2025-07-23,株式会社カイルフィールド,,株式会社,東京都,港区,麻布台１丁目３番１号麻布台ヒルズ森ＪＰタワー２８階,,13,103,1060041,,,,,,,2025-07-23,1,,,,,カイルフィールド,0
302,2010403035318,新規,0,2025-07-23,2025-07-23,福のはじまり合同会社,,合同会社,東京都,港区,新橋４丁目２６－８リビオレゾン新虎通り７０６号室,,13,103,1050004,,,,,,,2025-07-23,1,,,,,フクノハジマリ,0
303,2010403035631,新規,0,2025-07-23,2025-07-23,合同会社青山,,合同会社,東京都,港区,新橋２丁目１６番１－１０１６号,,13,103,1050004,,,,,,,2025-07-23,1,,,,,アオヤマ,0
313,2010601067550,新規,0,2025-07-23,2025-07-23,株式会社光陽ホールディングス,,株式会社,東京都,江東区,南砂２丁目３６番１０号,,13,108,1360076,,,,,,,2025-07-23,1,,,,,コウヨウホールディングス,0
314,2010601067666,新規,0,2025-07-23,2025-07-23,株式会社ＣＲＥＯＫ,,株式会社,東京都,江東区,毛利２丁目９－２０,,13,108,1350001,,,,,,,2025-07-23,1,,,,,クレオク,0
315,2010601067674,新規,0,2025-07-23,2025-07-23,株式会社一昇,,株式会社,東京都,江東区,南砂５丁目２３番１１－３０３号,,13,108,1360076,,,,,,,2025-07-23,1,,,,,イッショウ,0
316,2010603011705,新規,0,2025-07-23,2025-07-23,合同会社ＦｉｒｓｔＸ,,合同会社,東京都,墨田区,立花４丁目８番１１－２０３号フォレストパークたちばな,,13,107,1310043,,,,,,,2025-07-23,1,,,,,ファーストエックス,0
319,2010803005481,新規,0,2025-07-23,2025-07-23,合同会社新キャラ,,合同会社,東京都,大田区,下丸子２丁目１２番４－２０１号,,13,111,1460092,,,,,,,2025-07-23,1,,,,,シンキャラ,0
323,2010901057788,新規,0,2025-07-23,2025-07-23,株式会社ＩｒＩｓ,,株式会社,東京都,世田谷区,北沢１丁目１９番６－４０２号,,13,112,1550031,,,,,,,2025-07-23,1,,,,,イリス,0
338,2011001170614,新規,0,2025-07-23,2025-07-23,黒崎株式会社,,株式会社,東京都,渋谷区,恵比寿西１丁目４番１１号福隆ビル１階,,13,113,1500021,,,,,,,2025-07-23,1,,,,,クロサキ,0
339,2011001171380,新規,0,2025-07-23,2025-07-23,三愛プリンシパルインベストメント８株式会社,,株式会社,東京都,渋谷区,道玄坂１丁目１２－１渋谷マークシティウエスト２２階,,13,113,1500043,,,,,,,2025-07-23,1,,,,,サンアイプリンシパルインベストメントエイト,0
340,2011005011087,新規,0,2025-07-23,2025-07-23,一般社団法人Ｂｅａｕｔｙ　Ｆａｓｈｉｏｎ　Ｔａｔｔｏｏ協会,,その他の設立登記法人,東京都,渋谷区,神宮前４丁目３０番３号東急プラザ表参道「オモカド」５階ＬＯＣＵＬ・ＬＢ－０６,,13,113,1500001,,,,,,,2025-07-23,1,,,,,ビューティーファッションタトゥーキョウカイ,0
343,2011101112383,新規,0,2025-07-23,2025-07-23,世界の窓口株式会社,,株式会社,東京都,新宿区,水道町１－１４インプレストコア神楽坂３０１号室,,13,104,1620811,,,,,,,2025-07-23,1,,,,,セカイノマドグチ,0
344,2011101112474,新規,0,2025-07-23,2025-07-23,株式会社Ｐｃｕｂｅ,,株式会社,東京都,新宿区,西新宿３丁目３番１３号西新宿水間ビル２Ｆ,,13,104,1600023,,,,,,,2025-07-23,1,,,,,ピーキューブ,0
345,2011101112482,新規,0,2025-07-23,2025-07-23,鯨智株式会社,,株式会社,東京都,新宿区,西新宿８丁目１１－１０星野ビル３階,,13,104,1600023,,,,,,,2025-07-23,1,,,,,ケイチ,0
346,2011101112532,新規,0,2025-07-23,2025-07-23,ＰＡＩＫＥＡ株式会社,,株式会社,東京都,新宿区,西新宿３丁目３番１３号西新宿水間ビル２Ｆ,,13,104,1600023,,,,,,,2025-07-23,1,,,,,パイケア,0
348,2011301030740,新規,0,2025-07-23,2025-07-23,Ｆｉｓｈ＆Ｔｉｐｓ株式会社,,株式会社,東京都,杉並区,梅里１丁目４番４２号,,13,115,1660011,,,,,,,2025-07-23,1,,,,,フィッシュアンドティップス,0
352,2011603004772,新規,0,2025-07-23,2025-07-23,丈信興業合同会社,,合同会社,東京都,練馬区,南大泉３丁目９番９号,,13,120,1780064,,,,,,,2025-07-23,1,,,,,ジョウシンコウギョウ,0
354,2011703004326,新規,0,2025-07-23,2025-07-23,合同会社子供食堂,,合同会社,東京都,江戸川区,南小岩８丁目２６番５号,,13,123,1330056,,,,,,,2025-07-23,1,,,,,コドモショクドウ,0
355,2012401043319,新規,0,2025-07-23,2025-07-23,株式会社城所工業,,株式会社,東京都,稲城市,矢野口１５１５番地の２ｄｅｕｘ・ｃｅｒｃｌｅ１０１,,13,225,2060812,,,,,,,2025-07-23,1,,,,,キドコロコウギョウ,0
356,2012401043376,新規,0,2025-07-23,2025-07-23,佳立寛投資株式会社,,株式会社,東京都,調布市,小島町１丁目３５番地３レジダンスオノ４０２号,,13,208,1820026,,,,,,,2025-07-23,1,,,,,チャーリーカントウシ,0
358,2013301054570,新規,0,2025-07-23,2025-07-23,未来アートテック株式会社,,株式会社,東京都,豊島区,南長崎１丁目１８番１６号アネックス目白６階,,13,116,1710052,,,,,,,2025-07-23,1,,,,,ミライアートテック,0
362,2021001085844,新規,0,2025-07-23,2025-07-23,一久二木株式会社,,株式会社,神奈川県,秦野市,南矢名２２２３番地の４東海ビル１０２Ｂ,,14,211,2570003,,,,,,,2025-07-23,1,,,,,イッキュウニキ,0
363,2021001085860,新規,0,2025-07-23,2025-07-23,晟和商事株式会社,,株式会社,神奈川県,相模原市南区,相南４丁目２４番１４メゾンアルブル相模原３０５号,,14,153,2520312,,,,,,,2025-07-23,1,,,,,セイワショウジ,0
364,2021001085877,新規,0,2025-07-23,2025-07-23,株式会社烏羽エンジニアリング,,株式会社,神奈川県,秦野市,末広町３番地２９号,,14,211,2570037,,,,,,,2025-07-23,1,,,,,カラスバエンジニアリング,0
367,2021003016302,新規,0,2025-07-23,2025-07-23,合同会社ＥｄｕＧｒｏｗ,,合同会社,神奈川県,海老名市,柏ケ谷４丁目５番１６－２０４号,,14,215,2430402,,,,,,,2025-07-23,1,,,,,エデュグロウ,0
368,2021003016310,新規,0,2025-07-23,2025-07-23,合同会社森山技研,,合同会社,神奈川県,横須賀市,浦郷町３丁目６７番地３ベイサイドミヨシウラゴウ１０７,,14,201,2370062,,,,,,,2025-07-23,1,,,,,モリヤマギケン,0
369,2021003016327,新規,0,2025-07-23,2025-07-23,ＧＲＡＮＤＴＲＡＤＩＮＧ合同会社,,合同会社,神奈川県,座間市,座間２丁目２６０５番地の１エリーズハウス１０２,,14,216,2520027,,,,,,,2025-07-23,1,,,,,グランドトレーディング,0
379,2030001167701,新規,0,2025-07-23,2025-07-23,株式会社麦＿,00140006,株式会社,埼玉県,蕨市,南町２丁目７番３号,,11,223,3350003,,,,,,,2025-07-23,1,,,,,マキ,0
380,2030001167775,新規,0,2025-07-23,2025-07-23,株式会社彩輝堂,,株式会社,埼玉県,入間郡三芳町,大字藤久保字富士塚１００番地１,,11,324,3540041,,,,,,,2025-07-23,1,,,,,サイキドウ,0
389,2030003027226,新規,0,2025-07-23,2025-07-23,合同会社ＳｈｉｎｋｏＢａｓｅ３１７,,合同会社,埼玉県,入間市,大字新光３１７,,11,225,3580055,,,,,,,2025-07-23,1,,,,,シンコウベース,0
394,2040001139484,新規,0,2025-07-23,2025-07-23,株式会社未来,,株式会社,千葉県,浦安市,高洲４丁目３番１－１８３０号プラウド新浦安,,12,227,2790023,,,,,,,2025-07-23,1,,,,,ミライ,0
395,2040001139749,新規,0,2025-07-23,2025-07-23,株式会社甲州コンサルティング,,株式会社,千葉県,柏市,西町５番２号,,12,217,2770844,,,,,,,2025-07-23,1,,,,,コウシュウコンサルティング,0
396,2040001139773,新規,0,2025-07-23,2025-07-23,女神エクスポート株式会社,,株式会社,千葉県,印西市,岩戸３４８９番地４,,12,231,2701616,,,,,,,2025-07-23,1,,,,,メガミエクスポート,0
402,2070001043163,新規,0,2025-07-23,2025-07-23,株式会社リネアベル,,株式会社,群馬県,邑楽郡千代田町,大字下中森１０５３番地,,10,523,3700724,,,,,,,2025-07-23,1,,,,,リネアベル,0
403,2070001043171,新規,0,2025-07-23,2025-07-23,株式会社ＧＫ,,株式会社,群馬県,高崎市,栄町２０番１１号藤ビル２０１,,10,202,3700841,,,,,,,2025-07-23,1,,,,,ジーケー,0
413,2080101025671,新規,0,2025-07-23,2025-07-23,株式会社三英,,株式会社,静岡県,富士市,伝法１４９２番地の３,,22,210,4170061,,,,,,,2025-07-23,1,,,,,サンエイ,0
423,2100001038779,新規,0,2025-07-23,2025-07-23,さちあわせ株式会社,,株式会社,長野県,松本市,笹部２丁目６番２９号,,20,202,3900847,,,,,,,2025-07-23,1,,,,,サチアワセ,0
427,2100003008292,新規,0,2025-07-23,2025-07-23,合同会社陶然,,合同会社,長野県,佐久市,望月８７７番地１６,,20,217,3842202,,,,,,,2025-07-23,1,,,,,トウゼン,0
428,2100003008301,新規,0,2025-07-23,2025-07-23,合同会社ＺＥＮＭＯ,,合同会社,長野県,松本市,大字新村２５０８番地３,,20,202,3901241,,,,,,,2025-07-23,1,,,,,ゼンモ,0
439,2120001277788,新規,0,2025-07-23,2025-07-23,Ｃｈａｎｄｌｅｒ＆Ｒｉｃｈａｒｄｓ　Ｉｎｄｕｓｔｒｉｅｓ　Ｊａｐａｎ株式会社,,株式会社,大阪府,大阪市福島区,福島５丁目６－１６ラグザ大阪２Ｆ,,27,103,5530003,,,,,,,2025-07-23,1,,,,,チャンドラーアンドリチャーズインダストリージャパン,0
448,2122001039458,新規,0,2025-07-23,2025-07-23,株式会社ＮＭ企画,,株式会社,大阪府,東大阪市,西堤学園町１丁目１番２６号,,27,227,5770044,,,,,,,2025-07-23,1,,,,,エヌエムキカク,0
459,2130001080134,新規,0,2025-07-23,2025-07-23,株式会社創喜,,株式会社,京都府,八幡市,八幡山田７８番地３０,,26,210,6148051,,,,,,,2025-07-23,1,,,,,ソウキ,0
460,2130001080142,新規,0,2025-07-23,2025-07-23,株式会社ＯＨＡＮＡ　ＲＩＮＫ,,株式会社,京都府,城陽市,平川浜道裏３番地２０,,26,207,6100101,,,,,,,2025-07-23,1,,,,,オハナリンク,0
461,2130001080159,新規,0,2025-07-23,2025-07-23,株式会社ＴＵＬＩＦＥ,,株式会社,京都府,京都市中京区,河原町通三条下る大黒町７１番地２１ＣＴ・ＢＥＡＣＨ山口ビルＢ１階,,26,104,6048031,,,,,,,2025-07-23,1,,,,,トゥライフ,0
462,2130003010626,新規,0,2025-07-23,2025-07-23,合同会社名越瓦店,,合同会社,京都府,京都市右京区,山ノ内宮前町２７－７,,26,108,6150093,,,,,,,2025-07-23,1,,,,,ナゴシカワラテン,0
466,2140001139359,新規,0,2025-07-23,2025-07-23,株式会社Ｒ２ＦＩＥＬＤ,,株式会社,兵庫県,尼崎市,大西町２丁目４番２５号,,28,202,6610023,,,,,,,2025-07-23,1,,,,,アールツーフィールド,0
487,2180001167587,新規,0,2025-07-23,2025-07-23,株式会社アトルム,,株式会社,愛知県,名古屋市緑区,池上台１丁目８３番地の３,,23,114,4580044,,,,,,,2025-07-23,1,,,,,アトルム,0
496,2200003006930,新規,0,2025-07-23,2025-07-23,大橋エンジニアリング合同会社,,合同会社,岐阜県,各務原市,蘇原申子町２丁目１３９番地１,,21,213,5040845,,,,,,,2025-07-23,1,,,,,オオハシエンジニアリング,0
497,2200005013784,新規,0,2025-07-23,2025-07-23,一般社団法人いつも感謝しかあれへん,,その他の設立登記法人,岐阜県,羽島郡笠松町,米野３２８番地の２,,21,303,5016031,,,,,,,2025-07-23,1,,,,,イツモカンシャシカアレヘン,0
508,2280003001973,新規,0,2025-07-23,2025-07-23,合同会社あゆ美,,合同会社,島根県,出雲市,坂浦町１５２４,,32,203,6910051,,,,,,,2025-07-23,1,,,,,アユミ,0
512,2290001110825,新規,0,2025-07-23,2025-07-23,平原技建株式会社,00140008,株式会社,福岡県,福岡市西区,西の丘２丁目３番１－３２８号,,40,135,8190046,,,,,,,2025-07-23,1,,,,,ヒラハラギケン,0
514,2290003017135,新規,0,2025-07-23,2025-07-23,合同会社かなえ,,合同会社,福岡県,大牟田市,黄金町１丁目４１１番地３号黄金ハイツ１０１号,,40,202,8360872,,,,,,,2025-07-23,1,,,,,カナエ,0
518,2320003004724,新規,0,2025-07-23,2025-07-23,玖珠ライスカンパニー合同会社,,合同会社,大分県,玖珠郡九重町,大字引治１２３１番地の３,,44,461,8794722,,,,,,,2025-07-23,1,,,,,クスライスカンパニー,0
519,2330001033419,新規,0,2025-07-23,2025-07-23,ステップインテリア株式会社,,株式会社,熊本県,熊本市西区,上代１丁目１７番２０号,,43,103,8600068,,,,,,,2025-07-23,1,,,,,ステップインテリア,0
523,2360001035503,新規,0,2025-07-23,2025-07-23,株式会社ＩＳＨＩＭＩＮＥ　ＨＯＬＤＩＮＧＳ,,株式会社,沖縄県,うるま市,字赤道８５５番地７Ｍ－４８,,47,213,9042245,,,,,,,2025-07-23,1,,,,,,0
524,2360001035511,新規,0,2025-07-23,2025-07-23,株式会社ＭＥＲＣＩＡＸ,,株式会社,沖縄県,中頭郡読谷村,字渡具知５５５番地１,,47,324,9040315,,,,,,,2025-07-23,1,,,,,メルシアエックス,0
525,2370003007202,新規,0,2025-07-23,2025-07-23,合同会社ｎｏｒｎｏｒ,,合同会社,宮城県,多賀城市,留ケ谷１丁目３５番３号,,04,209,9850871,,,,,,,2025-07-23,1,,,,,ノルノル,0
528,2380001035468,新規,0,2025-07-23,2025-07-23,株式会社真清,,株式会社,福島県,いわき市,内郷御台境町新町前１０番地の１３,,07,204,9738409,,,,,,,2025-07-23,1,,,,,シンセイ,0
530,2380003006095,新規,0,2025-07-23,2025-07-23,Ｌｉｖｅ　Ｊａｐａｎ合同会社,,合同会社,福島県,二本松市,岳温泉２丁目３３番地２,,07,210,9640074,,,,,,,2025-07-23,1,,,,,リヴジャパン,0
532,2410001014237,新規,0,2025-07-23,2025-07-23,株式会社ＥＮＬＩＧＨＴ,,株式会社,秋田県,横手市,城南町７番４号,,05,203,0130013,,,,,,,2025-07-23,1,,,,,エンライト,0
533,2410003004129,新規,0,2025-07-23,2025-07-23,合同会社ふく灯り,,合同会社,秋田県,秋田市,東通館ノ越１３番３６号,,05,201,0100006,,,,,,,2025-07-23,1,,,,,フクアカリ,0
540,2430003017839,新規,0,2025-07-23,2025-07-23,合同会社アスコンシェル,,合同会社,北海道,札幌市清田区,里塚二条３丁目１番１０－１０１号,,01,110,0040802,,,,,,,2025-07-23,1,,,,,アスコンシェル,0
541,2440001009655,新規,0,2025-07-23,2025-07-23,株式会社佐藤農園,,株式会社,北海道,檜山郡厚沢部町,字新栄４２５番地４,,01,363,0431367,,,,,,,2025-07-23,1,,,,,サトウノウエン,0
542,2450001014679,新規,0,2025-07-23,2025-07-23,株式会社ＰＡＧＥＳ,,株式会社,北海道,旭川市,春光台五条２丁目４番３号,,01,204,0718145,,,,,,,2025-07-23,1,,,,,ペイジス,0
551,2470003002936,新規,0,2025-07-23,2025-07-23,合同会社Ｒｅｌｅａｆ　Ｇａｒｄｅｎ,,合同会社,香川県,さぬき市,大川町富田中１８９,,37,206,7610902,,,,,,,2025-07-23,1,,,,,リリーフガーデン,0
562,2700150131464,新規,0,2025-07-23,2025-07-23,Ｓａｎｔｏｓ　Ａｓｉａ　Ｐｔｙ　Ｌｔｄ,,外国会社等,東京都,千代田区,丸の内１丁目８番３号トラストタワー本館２５階,,13,101,1000005,オーストラリア連邦５０００南オーストラリア州アデレード、フリンダーズ・ストリート６０、サントス・センター１階,,,,,,2025-07-23,1,,,,,サントスアジアプロプライエトリーリミテツド,0
563,2700150131472,新規,0,2025-07-23,2025-07-23,Ｇｕａｎｇｚｈｏｕｙｉｑｕｇｏｕｋｅｊｉｙｏｕｘｉａｎｇｏｎｇｓｉ,,外国会社等,,,,,,,,Ｈｅｌｏｎｇｊｉｅ　ｊｉａｎｐｅｎｇｌｕ　３９５ｈａｏ６０１ｆａｎｇ　ｂａｉｙｕｎｑｕ　ｇｕａｎｇｚｈｏｕ　ｇｕａｎｇｄｏｎｇｓｈｅｎｇ　ＣＮ,,,,,,2025-07-23,1,,,,,コウシユウイーツゴカンパニーリミテツド,0
572,3010001256843,新規,0,2025-07-23,2025-07-23,株式会社ｉｌ,,株式会社,東京都,中央区,京橋１丁目６番１２号,,13,102,1040031,,,,,,,2025-07-23,1,,,,,イル,0
574,3010001256918,新規,0,2025-07-23,2025-07-23,新の智元株式会社,,株式会社,東京都,千代田区,大手町１丁目６番１号大手町ビル,,13,101,1000004,,,,,,,2025-07-23,1,,,,,シンノチモト,0
575,3010001256991,新規,0,2025-07-23,2025-07-23,株式会社ＫＮＹ防災,,株式会社,東京都,中央区,日本橋大伝馬町１２番１６号サンクレストビル２０１号室,,13,102,1030011,,,,,,,2025-07-23,1,,,,,ケイエヌワイボウサイ,0
576,3010001257040,新規,0,2025-07-23,2025-07-23,Ｆｕｌｋｒｕｍ　Ｔｅｃｈｎｉｃａｌ　Ｒｅｓｏｕｒｃｅｓ株式会社,,株式会社,東京都,千代田区,大手町１丁目５－１大手町ファーストスクエアイーストタワー４階,,13,101,1000004,,,,,,,2025-07-23,1,,,,,ファルクラムテクニカルリソーシズ,0
578,3010003048066,新規,0,2025-07-23,2025-07-23,合同会社ＰＡＴＲＯ,,合同会社,東京都,中央区,銀座５丁目１０－１０,,13,102,1040061,,,,,,,2025-07-23,1,,,,,パトロ,0
580,3010005040401,新規,0,2025-07-23,2025-07-23,弁護士法人ゾンデルホフ＆アインゼル,,その他の設立登記法人,東京都,千代田区,丸の内１丁目６番２号新丸の内センタービルディング１８階,,13,101,1000005,,,,,,,2025-07-23,1,,,,,ゾンデルホフアンドアインゼル,0
607,3010601067608,新規,0,2025-07-23,2025-07-23,株式会社Ｎａｔｕｒａｌ　Ｇｒｏｗ,,株式会社,東京都,江東区,常磐２－１１－１０,,13,108,1350000,,,,,,,2025-07-23,1,,,,,ナチュラルグロウ,0
608,3010601067665,新規,0,2025-07-23,2025-07-23,広和株式会社,,株式会社,東京都,江東区,東陽３丁目２４番１７号４階Ｂ室,,13,108,1350016,,,,,,,2025-07-23,1,,,,,ヒロワ,0
609,3010603011695,新規,0,2025-07-23,2025-07-23,合同会社ＷＦ　Ｂｕｓｉｎｅｓｓ,,合同会社,東京都,江東区,豊洲５丁目６番２９－８１７号,,13,108,1350061,,,,,,,2025-07-23,1,,,,,ダブリューエフビジネス,0
612,3010701048020,新規,0,2025-07-23,2025-07-23,株式会社トラスト,,株式会社,東京都,品川区,西五反田２丁目９番７号ドルミ五反田４０７号,,13,109,1410031,,,,,,,2025-07-23,1,,,,,トラスト,0
616,3010901057779,新規,0,2025-07-23,2025-07-23,株式会社トツキトオカ,,株式会社,東京都,世田谷区,梅丘１丁目１５番１３号,,13,112,1540022,,,,,,,2025-07-23,1,,,,,トツキトオカ,0
629,3011001170951,新規,0,2025-07-23,2025-07-23,Ｔｈｒｉｖｅ　Ｔｏｋｙｏ株式会社,,株式会社,東京都,渋谷区,神宮前６丁目３４－１４原宿表参道ビル３ＦＡｌｉｖｅＯｆｆｉｃｅＲ－７,,13,113,1500001,,,,,,,2025-07-23,1,,,,,スライブトウキョウ,0
630,3011001171405,新規,0,2025-07-23,2025-07-23,ＭＯＣパートナーズ株式会社,,株式会社,東京都,渋谷区,広尾１丁目２番地１号ヒカリビル４階,,13,113,1500012,,,,,,,2025-07-23,1,,,,,エムオーシーパートナーズ,0
635,3011101112374,新規,0,2025-07-23,2025-07-23,株式会社早稲田日本語学校,,株式会社,東京都,新宿区,百人町２丁目９－１３,,13,104,1690073,,,,,,,2025-07-23,1,,,,,ワセダニホンゴガッコウ,0
636,3011101112440,新規,0,2025-07-23,2025-07-23,松濤株式会社,,株式会社,東京都,新宿区,百人町１丁目８番１８号大久保カドビル２ＦＤ０８,,13,104,1690073,,,,,,,2025-07-23,1,,,,,ショウトウ,0
637,3011101112498,新規,0,2025-07-23,2025-07-23,株式会社Ａｃｔｏｕｒａｇｅ,,株式会社,東京都,新宿区,新宿５丁目１１番３０号新宿第五葉山ビル３Ｆ,,13,104,1600022,,,,,,,2025-07-23,1,,,,,アクトレイジ,0
638,3011201026524,新規,0,2025-07-23,2025-07-23,株式会社Ｊｏｓ,,株式会社,東京都,中野区,沼袋３丁目１２番２４号,,13,114,1650025,,,,,,,2025-07-23,1,,,,,ジュエス,0
639,3011301030756,新規,0,2025-07-23,2025-07-23,リムテイクソリューションズ株式会社,,株式会社,東京都,杉並区,和泉４丁目２２番５号,,13,115,1680063,,,,,,,2025-07-23,1,,,,,,0
640,3011601028814,新規,0,2025-07-23,2025-07-23,ＭＥＮＧＤＩ株式会社,,株式会社,東京都,練馬区,春日町３丁目１０番２号２０１号室,,13,120,1790074,,,,,,,2025-07-23,1,,,,,メンディー,0
642,3011701028549,新規,0,2025-07-23,2025-07-23,株式会社Ｋ＆Ｋ　Ｆａｒｍ,,株式会社,東京都,江戸川区,春江町２丁目４５番１６号,,13,123,1320003,,,,,,,2025-07-23,1,,,,,ケーアンドケーファーム,0
643,3011703004325,新規,0,2025-07-23,2025-07-23,ＣＷ合同会社,,合同会社,東京都,江戸川区,西小岩５丁目１３番１３号小出マンション１５８号,,13,123,1330057,,,,,,,2025-07-23,1,,,,,シーダブリュー,0
653,3012701018985,新規,0,2025-07-23,2025-07-23,株式会社松久造景,,株式会社,東京都,東村山市,青葉町２丁目８番地１アネックスミユキ１０２号,,13,213,1890002,,,,,,,2025-07-23,1,,,,,マツヒサゾウケイ,0
654,3012703003317,新規,0,2025-07-23,2025-07-23,合同会社さとゆコーポレーション,,合同会社,東京都,小平市,学園東町３丁目６番４３－３号,,13,211,1870043,,,,,,,2025-07-23,1,,,,,サトユコーポレーション,0
655,3012801024124,新規,0,2025-07-23,2025-07-23,Ｈ＆Ｋホールディングス株式会社,,株式会社,東京都,立川市,富士見町７丁目３２番４４号レガリア１０２５,,13,202,1900013,,,,,,,2025-07-23,1,,,,,エイチアンドケイホールディングス,0
667,3021001085835,新規,0,2025-07-23,2025-07-23,ナトリア株式会社,,株式会社,神奈川県,相模原市緑区,橋本３丁目２７－６Ｓ＆Ｙビル４Ｆ－１２,,14,151,2520143,,,,,,,2025-07-23,1,,,,,ナトリア,0
668,3021001085851,新規,0,2025-07-23,2025-07-23,株式会社ステラフォルム,,株式会社,神奈川県,相模原市中央区,鹿沼台２丁目１２番３号,,14,152,2520233,,,,,,,2025-07-23,1,,,,,ステラフォルム,0
670,3021003016276,新規,0,2025-07-23,2025-07-23,合同会社Ｍ＆Ｓ　Ａｔｅｌｉｅｒ　Ｊａｐａｎ,,合同会社,神奈川県,相模原市緑区,二本松４丁目３０－１６,,14,151,2520137,,,,,,,2025-07-23,1,,,,,エムアンドエスアトリエジャパン,0
674,3030001167543,新規,0,2025-07-23,2025-07-23,株式会社Ｖｉｓｔｅｌｌａ,,株式会社,埼玉県,上尾市,日の出３丁目１０－４２－４５,,11,219,3620032,,,,,,,2025-07-23,1,,,,,ヴィステラ,0
675,3030001167733,新規,0,2025-07-23,2025-07-23,株式会社ここあすｈｏｍｅ,,株式会社,埼玉県,富士見市,羽沢２丁目１７番１１号ウイングハウス２０１号室,,11,235,3540033,,,,,,,2025-07-23,1,,,,,ココアスホーム,0
676,3030001167758,新規,0,2025-07-23,2025-07-23,株式会社Ｔｗｏ＆Ｔｗｏ,,株式会社,埼玉県,朝霞市,仲町１丁目１１番４８号蕪木ビル２０２号室,,11,227,3510006,,,,,,,2025-07-23,1,,,,,トゥエントゥ,0
677,3030001167774,新規,0,2025-07-23,2025-07-23,株式会社たかけい,,株式会社,埼玉県,草加市,北谷３丁目６番２号,,11,221,3400046,,,,,,,2025-07-23,1,,,,,タカケイ,0
686,3040001139764,新規,0,2025-07-23,2025-07-23,株式会社グッドリンク,,株式会社,千葉県,千葉市美浜区,中瀬１丁目３番地幕張テクノガーデンＣＢ棟３階ＭＢＰ,,12,106,2610023,,,,,,,2025-07-23,1,,,,,グッドリンク,0
687,3040001139772,新規,0,2025-07-23,2025-07-23,株式会社Ｗｏｎｄｅｒｆｕｌ　Ｆｕｔｕｒｅ　Ｌｉｖｅ,,株式会社,千葉県,浦安市,港５２番地,,12,227,2790024,,,,,,,2025-07-23,1,,,,,ワンダフルフューチャーリブ,0
695,3040005022826,新規,0,2025-07-23,2025-07-23,一般社団法人手とての会ふたば,,その他の設立登記法人,千葉県,印西市,草深２１５８番地１８,,12,231,2701337,,,,,,,2025-07-23,1,,,,,テトテノカイフタバ,0
699,3050003009452,新規,0,2025-07-23,2025-07-23,合同会社ＨＯＰＥ‐ＳＵＰＰＯＲＴＥＲ,,合同会社,茨城県,古河市,下大野８８１番地２０,,08,204,3060204,,,,,,,2025-07-23,1,,,,,ホープサポーター,0
701,3060001038428,新規,0,2025-07-23,2025-07-23,株式会社サンリツホールディングス,,株式会社,栃木県,那須塩原市,北弥六４０２番地１,,09,213,3293132,,,,,,,2025-07-23,1,,,,,サンリツホールディングス,0
706,3080001027049,新規,0,2025-07-23,2025-07-23,株式会社銀電装,,株式会社,静岡県,静岡市清水区,三保３４５８番地の１,,22,103,4240901,,,,,,,2025-07-23,1,,,,,シロガネデンソウ,0
724,3120001278050,新規,0,2025-07-23,2025-07-23,誠芸株式会社,,株式会社,大阪府,大阪市西成区,萩之茶屋２丁目６番４－２０２号室,,27,122,5570004,,,,,,,2025-07-23,1,,,,,セイゲイ,0
725,3120001278067,新規,0,2025-07-23,2025-07-23,点撃株式会社,,株式会社,大阪府,大阪市港区,三先１丁目１２番９号倉本ビル２１２号室,,27,107,5520016,,,,,,,2025-07-23,1,,,,,テンゲキ,0
726,3120001278199,新規,0,2025-07-23,2025-07-23,Ｓｍａｒｉｃ株式会社,,株式会社,大阪府,枚方市,中宮山戸町２１番７－５号,,27,210,5730011,,,,,,,2025-07-23,1,,,,,スマリック,0
730,3120003030054,新規,0,2025-07-23,2025-07-23,合同会社香取,,合同会社,大阪府,寝屋川市,宝町１７－８,,27,215,5720067,,,,,,,2025-07-23,1,,,,,カトリ,0
731,3120003030070,新規,0,2025-07-23,2025-07-23,ＭＥＯＷ＆Ｐ合同会社,,合同会社,大阪府,大阪市西成区,千本北２丁目１５－１３,,27,122,5570053,,,,,,,2025-07-23,1,,,,,ミャウアンドピー,0
736,3120101072147,新規,0,2025-07-23,2025-07-23,株式会社中野,,株式会社,大阪府,堺市西区,上３０３番地７,,27,144,5938311,,,,,,,2025-07-23,1,,,,,ナカノ,0
739,3130001080125,新規,0,2025-07-23,2025-07-23,飛鳥メディカル承継株式会社,,株式会社,京都府,京都市下京区,中堂寺南町１３４番地京都高度技術研究所８階,,26,106,6008813,,,,,,,2025-07-23,1,,,,,アスカメディカルショウケイ,0
740,3130001080141,新規,0,2025-07-23,2025-07-23,株式会社ＵＧ,,株式会社,京都府,八幡市,岩田西玉造７１番地,,26,210,6148253,,,,,,,2025-07-23,1,,,,,ユージー,0
742,3130003010617,新規,0,2025-07-23,2025-07-23,合同会社ｓｚｎ,,合同会社,京都府,京都市伏見区,桃山町本多上野９番地１４,,26,109,6128027,,,,,,,2025-07-23,1,,,,,シーズン,0
743,3130003010625,新規,0,2025-07-23,2025-07-23,合同会社ＩＺＹ,,合同会社,京都府,京都市下京区,大黒町２２７番地第２キョートビル４０２,,26,106,6008043,,,,,,,2025-07-23,1,,,,,アイゼットワイ,0
745,3140001139275,新規,0,2025-07-23,2025-07-23,東辰株式会社,,株式会社,兵庫県,西宮市,戸田町４番１４号ＰＢビル,,28,204,6620916,,,,,,,2025-07-23,1,,,,,トウシン,0
746,3140001139333,新規,0,2025-07-23,2025-07-23,株式会社ＤＵＯ,,株式会社,兵庫県,西宮市,安井町３－５,,28,204,6620045,,,,,,,2025-07-23,1,,,,,デュオ,0
747,3140003022330,新規,0,2025-07-23,2025-07-23,合同会社Ｌｉｎｋ,,合同会社,兵庫県,西宮市,老松町１２番２号,,28,204,6620085,,,,,,,2025-07-23,1,,,,,リンク,0
758,3180003028712,新規,0,2025-07-23,2025-07-23,イチラボ合同会社,,合同会社,愛知県,名古屋市中村区,名駅４丁目２４番５号第２森ビル４０１,,23,105,4500002,,,,,,,2025-07-23,1,,,,,イチラボ,0
772,3240001065255,新規,0,2025-07-23,2025-07-23,株式会社Ｌｉｎｋ‐ＢＡＳＥ,,株式会社,広島県,広島市東区,中山上１丁目４番２号,,34,102,7320027,,,,,,,2025-07-23,1,,,,,リンクベース,0
782,3280001009464,新規,0,2025-07-23,2025-07-23,株式会社ＴＡＭＡＹＡＭＡ,,株式会社,島根県,松江市,宍道町白石１８３３番地１,,32,201,6990402,,,,,,,2025-07-23,1,,,,,タマヤマ,0
783,3280005007662,新規,0,2025-07-23,2025-07-23,一般社団法人だんだんツーリング,,その他の設立登記法人,島根県,松江市,西忌部町５２５番地１６,,32,201,6900037,,,,,,,2025-07-23,1,,,,,ダンダンツーリング,0
786,3290001110816,新規,0,2025-07-23,2025-07-23,株式会社Ｐｒｅｖａｎｄ,,株式会社,福岡県,福岡市中央区,天神２丁目３番１０号天神パインクレスト７１９号,,40,133,8100001,,,,,,,2025-07-23,1,,,,,プレバンド,0
787,3290001110824,新規,0,2025-07-23,2025-07-23,ＭＬＣステップ株式会社,,株式会社,福岡県,福岡市博多区,博多駅前３丁目１０番２６－８０４号,,40,132,8120011,,,,,,,2025-07-23,1,,,,,エムエルシーステップ,0
797,3340001027518,新規,0,2025-07-23,2025-07-23,株式会社Ｒｅ．ＬＩＦＥ,,株式会社,鹿児島県,姶良市,東餅田３３５０番地５,,46,225,8995421,,,,,,,2025-07-23,1,,,,,リライフ,0
798,3340001027526,新規,0,2025-07-23,2025-07-23,株式会社野田工業,,株式会社,鹿児島県,鹿児島市,南新町１５－１６,,46,201,8900085,,,,,,,2025-07-23,1,,,,,ノダコウギョウ,0
799,3340003004903,新規,0,2025-07-23,2025-07-23,合同会社ＳＴＥＰ,,合同会社,鹿児島県,出水市,高尾野町下水流２２３１番地１,,46,208,8990405,,,,,,,2025-07-23,1,,,,,ステップ,0
806,3370003007201,新規,0,2025-07-23,2025-07-23,合同会社ＹＵＵＮＯ,,合同会社,宮城県,仙台市青葉区,水の森３丁目１４番２０号,,04,101,9810962,,,,,,,2025-07-23,1,,,,,ユーノ,0
820,3490001011119,新規,0,2025-07-23,2025-07-23,株式会社リペア工房,,株式会社,高知県,高知市,升形９番４８号６Ｆ,,39,201,7800861,,,,,,,2025-07-23,1,,,,,リペアコウボウ,0
822,3500001026429,新規,0,2025-07-23,2025-07-23,株式会社Ｋ,,株式会社,愛媛県,松山市,森松町４８９番地１,,38,201,7911113,,,,,,,2025-07-23,1,,,,,ケイ,0
825,3700150131463,新規,0,2025-07-23,2025-07-23,ＯＰＥＮ　ＷＯＲＬＤ,,外国会社等,千葉県,香取郡神崎町,古原乙３２６番地２１２オフィスＤ,,12,342,2890215,スリランカ民主社会主義共和国、アッカライパットゥ、ポットゥビルロード、Ｎｏ．３０,,,,,,2025-07-23,1,,,,,オープンワールド,0
826,3700150131471,新規,0,2025-07-23,2025-07-23,ＴＣＴＭＯＢＩＬＥＥＣＯＭＭＥＲＣＥＨｏｎｇＫｏｎｇＬＩＭＩＴＥＤ,,外国会社等,,,,,,,,５／Ｆ　ＢＵＩＬＤＩＮＧ　２２Ｅ，２２　ＳＣＩＥＮＣＥ　ＰＡＲＫ　ＥＡＳＴ　ＡＶＥＮＵＥ，ＨＯＮＧ　ＫＯＮＧ　ＳＣＩＥＮＣＥ　ＰＡＲＫ，ＳＨＡＴＩＮ　ＮＴ，ＨＯＮＧ　ＫＯＮＧ,,,,,,2025-07-23,1,,,,,テイーシーテイモバイルイーコマースホンコンカンパニーリミテツド,0
837,4010001256702,新規,0,2025-07-23,2025-07-23,株式会社ｂａｔｈｏ,,株式会社,東京都,中央区,月島３丁目２６番８レジデンスシャルマン４４６号,,13,102,1040052,,,,,,,2025-07-23,1,,,,,バト,0
838,4010001256850,新規,0,2025-07-23,2025-07-23,フェアネスオピニオンアドバイザーズ株式会社,,株式会社,東京都,千代田区,神田淡路町２丁目１０１番地－３７１２号,,13,101,1010063,,,,,,,2025-07-23,1,,,,,フェアネスオピニオンアドバイザーズ,0
839,4010001256990,新規,0,2025-07-23,2025-07-23,株式会社ＢｅＲｏｏｔ,,株式会社,東京都,中央区,銀座２丁目１１番８号ラウンドクロス銀座二丁目１２階,,13,102,1040061,,,,,,,2025-07-23,1,,,,,ビールート,0
840,4010001257015,新規,0,2025-07-23,2025-07-23,株式会社ハーフトーン,,株式会社,東京都,千代田区,東神田１丁目２番２号ＰＲＩＭＥ・ＯＦＦＩＣＥ東神田,,13,101,1010031,,,,,,,2025-07-23,1,,,,,ハーフトーン,0
847,4010005040409,新規,0,2025-07-23,2025-07-23,藤和シティコープ音羽管理組合法人,,その他の設立登記法人,東京都,文京区,音羽２丁目１番２号,,13,105,1120013,,,,,,,2025-07-23,1,,,,,トウワシティコープオトワ,0
856,4010401191912,新規,0,2025-07-23,2025-07-23,株式会社ＴＪ,,株式会社,東京都,港区,新橋５丁目１２番１１号７０２号室,,13,103,1050004,,,,,,,2025-07-23,1,,,,,ティージェイ,0
857,4010401191937,新規,0,2025-07-23,2025-07-23,株式会社ＭＵＨＥＮＫＯ,,株式会社,東京都,港区,赤坂６丁目１３番５号,,13,103,1070052,,,,,,,2025-07-23,1,,,,,ムヘンコウ,0
865,4010403035571,新規,0,2025-07-23,2025-07-23,合同会社Ｂｉｒｔｈ,,合同会社,東京都,港区,六本木３丁目１６番１２号六本木ＫＳビル５Ｆ,,13,103,1060032,,,,,,,2025-07-23,1,,,,,バース,0
878,4010505003617,新規,0,2025-07-23,2025-07-23,一般社団法人ＭＺ　Ｆｅｄｅｒａｔｉｏｎ,,その他の設立登記法人,東京都,台東区,雷門２丁目１－１１雷門ＲｉｖｅｒＴｅｒｒａｃｅ７Ｆ,,13,106,1110034,,,,,,,2025-07-23,1,,,,,エムジーフェデレーション,0
884,4010601067664,新規,0,2025-07-23,2025-07-23,株式会社Ｑｕａｔｔｒｏ‐Ｓ　Ｐａｒｔｎｅｒｓ,,株式会社,東京都,墨田区,向島３丁目１５番７号,,13,107,1310033,,,,,,,2025-07-23,1,,,,,クワトロエスパートナーズ,0
886,4010703007816,新規,0,2025-07-23,2025-07-23,徳産業合同会社,00140017,合同会社,東京都,品川区,大井１丁目１６－１－１９０１,,13,109,1400014,,,,,,,2025-07-23,1,,,,,イサオサンギョウ,0
889,4010901057670,新規,0,2025-07-23,2025-07-23,ｆｕｋａ株式会社,,株式会社,東京都,世田谷区,祖師谷３丁目３２―１５ＹＭＫビル３階,,13,112,1570072,,,,,,,2025-07-23,1,,,,,フカ,0
892,4010903010108,新規,0,2025-07-23,2025-07-23,Ｊａｐａｎ４‐ＧＰ合同会社,,合同会社,東京都,世田谷区,駒沢４丁目１５番２０号,,13,112,1540012,,,,,,,2025-07-23,1,,,,,ジャパンフォージーピー,0
903,4011001170967,新規,0,2025-07-23,2025-07-23,株式会社ＡＬＬ　ＣＲＡＦＴ　ＪＡＰＡＮ,,株式会社,東京都,渋谷区,神宮前６丁目７－３ネスト原宿パート２，２０１,,13,113,1500001,,,,,,,2025-07-23,1,,,,,オールクラフトジャパン,0
904,4011001171016,新規,0,2025-07-23,2025-07-23,株式会社Ｌｉｎｎａ,,株式会社,東京都,渋谷区,円山町５番３号ＭＩＥＵＸ渋谷ビル８階,,13,113,1500044,,,,,,,2025-07-23,1,,,,,リンナ,0
911,4011101112464,新規,0,2025-07-23,2025-07-23,ＴＳＬひまわりトラスト設立準備株式会社,,株式会社,東京都,新宿区,西新宿１丁目２６番２号新宿野村ビル４８階,,13,104,1600023,,,,,,,2025-07-23,1,,,,,ティーエスエルヒマワリトラストセツリツジュンビ,0
912,4011101112514,新規,0,2025-07-23,2025-07-23,株式会社ＡＬＰＳＥ,,株式会社,東京都,新宿区,西新宿３丁目３番１３号西新宿水間ビル２Ｆ,,13,104,1600023,,,,,,,2025-07-23,1,,,,,アルプス,0
913,4011201026523,新規,0,2025-07-23,2025-07-23,生命の水テクノロジー株式会社,,株式会社,東京都,中野区,江古田４丁目３０番１９－１０９号,,13,114,1650022,,,,,,,2025-07-23,1,,,,,セイメイノミズテクノロジー,0
917,4011305003055,新規,0,2025-07-23,2025-07-23,一般社団法人自考館,,その他の設立登記法人,東京都,杉並区,西荻南１丁目１９番３６号,,13,115,1670053,,,,,,,2025-07-23,1,,,,,,0
923,4011803006971,新規,0,2025-07-23,2025-07-23,合同会社エンジョイ・ポレポレ,,合同会社,東京都,葛飾区,堀切１丁目４２－２１,,13,122,1240006,,,,,,,2025-07-23,1,,,,,エンジョイポレポレ,0
929,4012401043374,新規,0,2025-07-23,2025-07-23,株式会社井上興業,,株式会社,東京都,武蔵野市,境２丁目６番４１－１－３０７号,,13,203,1800022,,,,,,,2025-07-23,1,,,,,イノウエコウギョウ,0
930,4012401043382,新規,0,2025-07-23,2025-07-23,株式会社岩井,,株式会社,東京都,府中市,紅葉丘３丁目４０番地の１２Ａ・Ｉ・Ｏレヂデンス３０５,,13,206,1830004,,,,,,,2025-07-23,1,,,,,イワイ,0
932,4013301054635,新規,0,2025-07-23,2025-07-23,株式会社グルーデイ,,株式会社,東京都,豊島区,東池袋１丁目３４番５号いちご東池袋ビル６階,,13,116,1700013,,,,,,,2025-07-23,1,,,,,グルーデイ,0
943,4020001163864,新規,0,2025-07-23,2025-07-23,シンタク株式会社,,株式会社,神奈川県,横浜市磯子区,馬場町５－１２,,14,107,2350002,,,,,,,2025-07-23,1,,,,,シンタク,0
944,4020001163988,新規,0,2025-07-23,2025-07-23,株式会社シュン・コーポレーションＰｌｕｓ,,株式会社,神奈川県,川崎市中原区,小杉町３丁目４３４番地５セントスクエア武蔵小杉１６０６,,14,133,2110063,,,,,,,2025-07-23,1,,,,,シュンコーポレーションプラス,0
945,4020001164004,新規,0,2025-07-23,2025-07-23,ブルックス・コーディング株式会社,,株式会社,神奈川県,横浜市西区,北幸２丁目１０番４８号　むつみビル３階,,14,103,2200004,,,,,,,2025-07-23,1,,,,,ブルックスコーディング,0
946,4020001164012,新規,0,2025-07-23,2025-07-23,ＹＫホールディングス株式会社,,株式会社,神奈川県,横浜市泉区,岡津町２２７４番地の１,,14,116,2450003,,,,,,,2025-07-23,1,,,,,ワイケーホールディングス,0
952,4020003029007,新規,0,2025-07-23,2025-07-23,ＭＥＩＳＨＵ合同会社,,合同会社,神奈川県,川崎市幸区,堀川町７２番地２１Ｔ３４０６,,14,132,2120013,,,,,,,2025-07-23,1,,,,,メイシュウ,0
957,4021001085842,新規,0,2025-07-23,2025-07-23,株式会社ムツラボシ環境サービス,,株式会社,神奈川県,三浦市,初声町下宮田７４３番地８０,,14,210,2380111,,,,,,,2025-07-23,1,,,,,ムツラボシカンキョウサービス,0
958,4021001085850,新規,0,2025-07-23,2025-07-23,株式会社賛美装,,株式会社,神奈川県,厚木市,関口２９３番地１,,14,212,2430804,,,,,,,2025-07-23,1,,,,,サンビソウ,0
959,4021001085867,新規,0,2025-07-23,2025-07-23,株式会社ＬＩＶＥＮＴＡ,,株式会社,神奈川県,鎌倉市,大船１丁目２３番１６号サンワード大船３０２,,14,204,2470056,,,,,,,2025-07-23,1,,,,,リヴェンタ,0
961,4021003016325,新規,0,2025-07-23,2025-07-23,ＦＲＡ　ＡＵＴＯ　ＴＲＡＤＩＮＧ合同会社,,合同会社,神奈川県,愛甲郡清川村,煤ヶ谷３０６９番地１－１０１号,,14,402,2430112,,,,,,,2025-07-23,1,,,,,エフアールエーオートトレーディング,0
962,4021005013403,新規,0,2025-07-23,2025-07-23,一般社団法人スポーツ＆ウェルビーイング推進協会,,その他の設立登記法人,神奈川県,横須賀市,根岸町３丁目１番６－１１６号,,14,201,2390807,,,,,,,2025-07-23,1,,,,,スポーツアンドウェルビーイングスイシンキョウカイ,0
971,4030001167617,新規,0,2025-07-23,2025-07-23,株式会社フロンティア,,株式会社,埼玉県,戸田市,美女木８丁目１４－１５,,11,224,3350031,,,,,,,2025-07-23,1,,,,,フロンティア,0
972,4030001167732,新規,0,2025-07-23,2025-07-23,株式会社ＡＮＥＳ　Ｐｒｏ,,株式会社,埼玉県,戸田市,笹目３丁目４番地の３３,,11,224,3350034,,,,,,,2025-07-23,1,,,,,アネスプロ,0
973,4030001167749,新規,0,2025-07-23,2025-07-23,株式会社三ツ葉設備工業,,株式会社,埼玉県,川口市,幸町２丁目７－２６シミズビル１０号室,,11,203,3320016,,,,,,,2025-07-23,1,,,,,ミツバセツビコウギョウ,0
977,4040001139763,新規,0,2025-07-23,2025-07-23,株式会社ヴェスプチ,,株式会社,千葉県,千葉市美浜区,磯辺２丁目８番地１号稲毛ヨットハーバー３階,,12,106,2610012,,,,,,,2025-07-23,1,,,,,ヴェスプチ,0
987,4070001043161,新規,0,2025-07-23,2025-07-23,株式会社フロム高崎,,株式会社,群馬県,高崎市,中紺屋町２３番地１,,10,202,3700823,,,,,,,2025-07-23,1,,,,,フロムタカサキ,0
990,4080101025653,新規,0,2025-07-23,2025-07-23,株式会社エンノバコモンズ,,株式会社,静岡県,伊東市,中央町４―１３,,22,208,4140003,,,,,,,2025-07-23,1,,,,,エンノバコモンズ,0
995,4080401028042,新規,0,2025-07-23,2025-07-23,株式会社田畑ビジネスサポート,,株式会社,静岡県,浜松市中央区,神立町５８１番地の１,,22,138,4300801,,,,,,,2025-07-23,1,,,,,タバタビジネスサポート,0
1008,4120003030061,新規,0,2025-07-23,2025-07-23,ＳＰ　ＥＳＳ４合同会社,,合同会社,大阪府,大阪市中央区,南船場２丁目６－３第２ＢＳビル６０１号室,,27,128,5420081,,,,,,,2025-07-23,1,,,,,エスピーイーエスエスフォー,0
1021,4120901051200,新規,0,2025-07-23,2025-07-23,株式会社かなえる．Ｌａｂｏ,,株式会社,大阪府,豊中市,寺内２丁目１３番３号,,27,203,5610872,,,,,,,2025-07-23,1,,,,,カナエルドットラボ,0
1026,4130001080124,新規,0,2025-07-23,2025-07-23,川村商事株式会社,,株式会社,京都府,京都市西京区,大原野上里男鹿町６番地４,,26,111,6101126,,,,,,,2025-07-23,1,,,,,カワムラショウジ,0
1027,4130001080149,新規,0,2025-07-23,2025-07-23,株式会社アラウンドミー,,株式会社,京都府,宮津市,字由良小字浜頭２２８２番地１セバーグ由良１４０３号,,26,205,6260071,,,,,,,2025-07-23,1,,,,,アラウンドミー,0
1028,4130001080165,新規,0,2025-07-23,2025-07-23,株式会社京美学,,株式会社,京都府,京都市左京区,鹿ケ谷法然院町２番地,,26,103,6068421,,,,,,,2025-07-23,1,,,,,キョウビガク,0
1029,4130003010649,新規,0,2025-07-23,2025-07-23,合同会社ダイワ,,合同会社,京都府,八幡市,橋本意足３３番地５,,26,210,6148331,,,,,,,2025-07-23,1,,,,,ダイワ,0
1032,4140001139217,新規,0,2025-07-23,2025-07-23,株式会社オフィスヒロハット,,株式会社,兵庫県,淡路市,久留麻４１番地４,,28,226,6562311,,,,,,,2025-07-23,1,,,,,オフィスヒロハット,0
1033,4140001139332,新規,0,2025-07-23,2025-07-23,喜楽株式会社,,株式会社,兵庫県,尼崎市,建家町１１８－２,,28,202,6600871,,,,,,,2025-07-23,1,,,,,キラク,0
1034,4140001139415,新規,0,2025-07-23,2025-07-23,ＲＥインベストメント株式会社,,株式会社,兵庫県,加古川市,平岡町新在家８２１番地の３,,28,210,6750101,,,,,,,2025-07-23,1,,,,,アールーイーインベストメント,0
1036,4140005027566,新規,0,2025-07-23,2025-07-23,一般社団法人介護メイク士協会,,その他の設立登記法人,兵庫県,川西市,小花２丁目２－４,,28,217,6660015,,,,,,,2025-07-23,1,,,,,カイゴメイクシキョウカイ,0
1041,4170001018723,新規,0,2025-07-23,2025-07-23,株式会社透乃紀庵,,株式会社,和歌山県,田辺市,上の山２丁目１３番７－１０３号,,30,206,6460061,,,,,,,2025-07-23,1,,,,,トオノキアン,0
1042,4170003002254,新規,0,2025-07-23,2025-07-23,合同会社ＺＥＲＯ,,合同会社,和歌山県,紀の川市,藤井４２番地２０,,30,208,6496514,,,,,,,2025-07-23,1,,,,,ゼロ,0
1047,4180001167775,新規,0,2025-07-23,2025-07-23,株式会社ホステリア,,株式会社,愛知県,名古屋市千種区,内山３丁目１番４号,,23,101,4640075,,,,,,,2025-07-23,1,,,,,ホステリア,0
1048,4180001167817,新規,0,2025-07-23,2025-07-23,株式会社ａｂｏｕｔｉｒ,,株式会社,愛知県,名古屋市中区,栄１丁目１７番地１６号,,23,106,4600008,,,,,,,2025-07-23,1,,,,,アブティール,0
1049,4180001167825,新規,0,2025-07-23,2025-07-23,株式会社Ｔａｋｅｃｈｉｙｏ,,株式会社,愛知県,名古屋市中村区,則武２丁目１５番１号ベレーサ名駅ウエスト７０４号室,,23,105,4530014,,,,,,,2025-07-23,1,,,,,タケチヨ,0
1053,4180301040038,新規,0,2025-07-23,2025-07-23,新安藤建材株式会社,,株式会社,愛知県,豊田市,西中山町上落１１番地３,,23,211,4700431,,,,,,,2025-07-23,1,,,,,シンアンドウケンザイ,0
1054,4180301040046,新規,0,2025-07-23,2025-07-23,株式会社ＬｕｎａＦｉｔ,,株式会社,愛知県,刈谷市,新富町１丁目６０６番地新富ハウス１０１号,,23,210,4480045,,,,,,,2025-07-23,1,,,,,ルナフィット,0
1055,4180305009707,新規,0,2025-07-23,2025-07-23,税理士法人クマザキ会計,,その他の設立登記法人,愛知県,豊橋市,八町通４丁目５０番地,,23,201,4400806,,,,,,,2025-07-23,1,,,,,クマザキカイケイ,0
1071,4220005008979,新規,0,2025-07-23,2025-07-23,一般社団法人ＨＥＲＯ’ｓ　Ｌａｂｏ,,その他の設立登記法人,石川県,鳳珠郡能登町,字宇出津ヘ字２９番地１,,17,463,9270433,,,,,,,2025-07-23,1,,,,,ヒーローズラボ,0
1082,4260001040379,新規,0,2025-07-23,2025-07-23,株式会社ＨＭソリューションズ,,株式会社,岡山県,倉敷市,真備町辻田４１７番地１０,00140019,33,202,7101312,,,,,,,2025-07-23,1,,,,,エイチエムソリューションズ,0
1092,4300001014287,新規,0,2025-07-23,2025-07-23,マツウラトラスト株式会社,,株式会社,佐賀県,唐津市,紺屋町１６９４番地１,,41,202,8470053,,,,,,,2025-07-23,1,,,,,マツウラトラスト,0
1093,4310001019715,新規,0,2025-07-23,2025-07-23,万月堂株式会社,,株式会社,長崎県,長崎市,愛宕２丁目７番１０号,,42,201,8500822,,,,,,,2025-07-23,1,,,,,マンゲツドウ,0
1097,4330001033417,新規,0,2025-07-23,2025-07-23,株式会社ＯＴＹオーティーワイ,,株式会社,熊本県,菊池郡大津町,大字引水４５０番地１,,43,403,8691234,,,,,,,2025-07-23,1,,,,,オーティーワイ,0
1098,4340001027517,新規,0,2025-07-23,2025-07-23,ＭＯＴＨＥＲ株式会社,,株式会社,鹿児島県,鹿屋市,共栄町１９番３号ドリームビル２０３号室,,46,203,8930005,,,,,,,2025-07-23,1,,,,,マザー,0
1101,4360001035451,新規,0,2025-07-23,2025-07-23,株式会社ＡＲＫＳ,,株式会社,沖縄県,石垣市,字登野城６２９番地８,,47,207,9070004,,,,,,,2025-07-23,1,,,,,アークス,0
1107,4410001014235,新規,0,2025-07-23,2025-07-23,スマイルベース株式会社,,株式会社,秋田県,鹿角市,花輪字中花輪５８番地,,05,209,0185201,,,,,,,2025-07-23,1,,,,,スマイルベース,0
1116,4430003017853,新規,0,2025-07-23,2025-07-23,Ｍｅｄｌ　Ｌｕｎａ合同会社,,合同会社,北海道,札幌市東区,北九条東１３丁目２番５号,,01,103,0650009,,,,,,,2025-07-23,1,,,,,メドワンルナ,0
1117,4430003017936,新規,0,2025-07-23,2025-07-23,合同会社Ａｓｐｉｒｅ,,合同会社,北海道,札幌市手稲区,新発寒五条３丁目１０番１４号,,01,109,0060805,,,,,,,2025-07-23,1,,,,,アスパイア,0
1119,4450001014677,新規,0,2025-07-23,2025-07-23,株式会社貴商,,株式会社,北海道,旭川市,物流団地二条１丁目５番８号,,01,204,0718139,,,,,,,2025-07-23,1,,,,,タカショウ,0
1124,4470001020814,新規,0,2025-07-23,2025-07-23,株式会社ＷＩＳＨ,,株式会社,香川県,高松市,上福岡町７５１番地１１,,37,201,7600077,,,,,,,2025-07-23,1,,,,,ウィッシュ,0
1125,4480001012892,新規,0,2025-07-23,2025-07-23,株式会社徳元設備,00140018,株式会社,徳島県,板野郡藍住町,徳命字元村１８番地１,,36,403,7711211,,,,,,,2025-07-23,1,,,,,トクモトセツビ,0
1128,4500001026428,新規,0,2025-07-23,2025-07-23,株式会社Ｒ．ペイント,,株式会社,愛媛県,松山市,富久町４３７番地１３,,38,201,7918034,,,,,,,2025-07-23,1,,,,,アールペイント,0
1129,4700150131462,新規,0,2025-07-23,2025-07-23,Ｃｈｅｎｇｄｕ　Ｑｉａｎｃｈｅｎｇｍｅｉｆａｎ　Ｔｅｃｈｎｏｌｏｇｙ　Ｃｏ．，Ｌｔｄ．,,外国会社等,,,,,,,,Ｒｏｏｍ　５，Ｂｕｉｌｄｉｎｇ　１２８，Ｎｏ．７１６，Ｓｅｃｔｉｏｎ　１，Ｑｉｎｇｑｕａｎ　Ａｖｅｎｕｅ，Ｑｉｎｇｂａｉｊｉａｎｇ　Ｄｉｓｔｒｉｃｔ，Ｃｈｅｎｇｄｕ，Ｓｉｃｈｕａｎ　６１０３００　ＣＮ,,,,,,2025-07-23,1,,,,,チョンドウチエンチョンメイファンコージーヨウシエンゴンスー,0
1130,4700150131470,新規,0,2025-07-23,2025-07-23,ＶＡＵＬＴＸＬＴＤ,,外国会社等,,,,,,,,Ｔｏｗｎｇａｔｅ　Ｈｏｕｓｅ，２－８　Ｐａｒｋｓｔｏｎｅ　Ｒｏａｄ，Ｐｏｏｌｅ，Ｄｏｒｓｅｔ，Ｕｎｉｔｅｄ　Ｋｉｎｇｄｏｍ，ＢＨ１５　２ＰＷ,,,,,,2025-07-23,1,,,,,ボルトエツクスリミテツド,0
1137,5010001257105,新規,0,2025-07-23,2025-07-23,株式会社絆共創,,株式会社,東京都,千代田区,平河町１丁目４番１５号平河町小池ビル４Ｆ,,13,101,1020093,,,,,,,2025-07-23,1,,,,,キズナキョウソウ,0
1138,5010002000876,新規,0,2025-07-23,2025-07-23,有限会社エイト写真植字社,,有限会社,東京都,文京区,小石川３丁目３６番１４号,,13,105,1120002,,,,,,,2025-07-23,1,,,,,,0
1139,5010003048089,新規,0,2025-07-23,2025-07-23,京橋二号合同会社,,合同会社,東京都,中央区,京橋２丁目６番１５号ＭＣＡ京橋ビル３Ｆ,,13,102,1040031,,,,,,,2025-07-23,1,,,,,キョウバシニゴウ,0
1140,5010003048106,新規,0,2025-07-23,2025-07-23,ピテリオン・ジャパン合同会社,,合同会社,東京都,中央区,日本橋本町３丁目３番６号,,13,102,1030023,,,,,,,2025-07-23,1,,,,,ピテリオンジャパン,0
1157,5010401191886,新規,0,2025-07-23,2025-07-23,ｃｏｓｅｉｒｏ株式会社,,株式会社,東京都,港区,南青山２丁目１５番５号ＦＡＲＯ青山１階,,13,103,1070062,,,,,,,2025-07-23,1,,,,,コセイロ,0
1162,5010403035620,新規,0,2025-07-23,2025-07-23,長谷川不動産合同会社,,合同会社,東京都,港区,虎ノ門１丁目１６番６号虎ノ門ＲＡＰＯ－ＴＯビルＵＣＦ７階,,13,103,1050001,,,,,,,2025-07-23,1,,,,,ハセガワフドウサン,0
1163,5010403035629,新規,0,2025-07-23,2025-07-23,ＭＡＦ　Ｅｎｔｅｒｐｒｉｓｅ　Ｈｏｌｄｉｎｇ合同会社,,合同会社,東京都,港区,虎ノ門３丁目８番２５号近鉄虎ノ門ビル９０４号,,13,103,1050001,,,,,,,2025-07-23,1,,,,,マフエンタープライズホールディング,0
1177,5010701048051,新規,0,2025-07-23,2025-07-23,株式会社トライバンス,,株式会社,東京都,品川区,東五反田５丁目２番１８号,,13,109,1410022,,,,,,,2025-07-23,1,,,,,トライバンス,0
1179,5010801036419,新規,0,2025-07-23,2025-07-23,カラリン株式会社,,株式会社,東京都,大田区,田園調布１丁目１３番２９－１０６号,,13,111,1450071,,,,,,,2025-07-23,1,,,,,カラリン,0
1181,5010903010107,新規,0,2025-07-23,2025-07-23,Ｊａｐａｎ２‐ＧＰ合同会社,,合同会社,東京都,世田谷区,駒沢４丁目１５番２０号,,13,112,1540012,,,,,,,2025-07-23,1,,,,,ジャパンツージーピー,0
1185,5011001170958,新規,0,2025-07-23,2025-07-23,株式会社ダダダン,,株式会社,東京都,渋谷区,代々木２丁目２３番１号ニューステイトメナー７４６号室,,13,113,1510053,,,,,,,2025-07-23,1,,,,,ダダダン,0
1187,5011003022117,新規,0,2025-07-23,2025-07-23,合同会社ＬＩＧ,,合同会社,東京都,渋谷区,道玄坂１丁目１０番８号渋谷道玄坂東急ビル２Ｆ－Ｃ,,13,113,1500043,,,,,,,2025-07-23,1,,,,,リグ,0
1190,5011101112397,新規,0,2025-07-23,2025-07-23,ＦＦＷＤ　ＳＯＬＵＴＩＯＮＳ株式会社,,株式会社,東京都,新宿区,新宿４丁目１番２２号新宿コムロＢＬＤ７０２号,,13,104,1600022,,,,,,,2025-07-23,1,,,,,エフエフダブリュディーソリューションズ,0
1191,5011101112488,新規,0,2025-07-23,2025-07-23,株式会社Ｃｏｒｅｔｒｕｓｔ,,株式会社,東京都,新宿区,西新宿３丁目３番１３号西新宿水間ビル２Ｆ,,13,104,1600023,,,,,,,2025-07-23,1,,,,,コアトラスト,0
1192,5011101112496,新規,0,2025-07-23,2025-07-23,Ｋ‐ＳＯＺＡＩ株式会社,,株式会社,東京都,新宿区,下宮比町２－２８飯田橋ハイタウン４０８号,,13,104,1620822,,,,,,,2025-07-23,1,,,,,ケイソザイ,0
1195,5011201026522,新規,0,2025-07-23,2025-07-23,ＤＡＴＩ　ＪＡＰＡＮ株式会社,,株式会社,東京都,中野区,若宮２丁目２７番１３号,,13,114,1650033,,,,,,,2025-07-23,1,,,,,ダティジャパン,0
1196,5011301030754,新規,0,2025-07-23,2025-07-23,株式会社森下アドバイザリー,,株式会社,東京都,杉並区,永福３丁目１５番１３号,,13,115,1680064,,,,,,,2025-07-23,1,,,,,,0
1197,5011401027262,新規,0,2025-07-23,2025-07-23,株式会社ＣＩＴＲＵＳ　ｌｉｆｅ　ｗｏｒｋｓ,,株式会社,東京都,板橋区,若木１丁目１０番８号ベラ・カーサ２２１,,13,119,1740065,,,,,,,2025-07-23,1,,,,,シトラスライフワークス,0
1199,5011403004755,新規,0,2025-07-23,2025-07-23,合同会社ＧｅｎｓＷｏｒｋ,,合同会社,東京都,板橋区,蓮根１丁目２４番６号,,13,119,1740046,,,,,,,2025-07-23,1,,,,,ジェンスワーク,0
1201,5011501032336,新規,0,2025-07-23,2025-07-23,株式会社Ｂｌｉｎｄｅｒｓ,,株式会社,東京都,北区,十条仲原１丁目１０－７,,13,117,1140031,,,,,,,2025-07-23,1,,,,,ブラインダーズ,0
1202,5011701028547,新規,0,2025-07-23,2025-07-23,日光物流株式会社,,株式会社,東京都,江戸川区,北葛西３丁目７番６号サンライフシティ２０１,,13,123,1340081,,,,,,,2025-07-23,1,,,,,ニッコウブツリュウ,0
1205,5012403007252,新規,0,2025-07-23,2025-07-23,合同会社ＲＩＴＡ,,合同会社,東京都,府中市,府中町１丁目６番地の１０,,13,206,1830055,,,,,,,2025-07-23,1,,,,,リタ,0
1213,5020001163979,新規,0,2025-07-23,2025-07-23,ｓｐｏｏｏｎ株式会社,,株式会社,神奈川県,横浜市神奈川区,鶴屋町１丁目４１番地１８０１,,14,102,2210835,,,,,,,2025-07-23,1,,,,,スプーン,0
1214,5020002048345,新規,0,2025-07-23,2025-07-23,有限会社誠和電設,,有限会社,神奈川県,横浜市港南区,芹が谷２丁目１５番１９号,,14,111,2330006,,,,,,,2025-07-23,1,,,,,,0
1215,5020003028932,新規,0,2025-07-23,2025-07-23,ＫＩＴ　Ｚｕｉ合同会社,,合同会社,神奈川県,横浜市中区,本町４丁目４１番地Ｄ’グラフォート横浜６０６号,,14,104,2310005,,,,,,,2025-07-23,1,,,,,キットズイ,0
1217,5020005016935,新規,0,2025-07-23,2025-07-23,特定非営利活動法人Ｒｏｃｋｅｔ‐ｔａｉｌ,,その他の設立登記法人,神奈川県,川崎市川崎区,中瀬３丁目２０番１９ー１２０４号,,14,131,2100818,,,,,,,2025-07-23,1,,,,,ロケットテイル,0
1220,5021001085825,新規,0,2025-07-23,2025-07-23,株式会社ＡＳＳＥＴ　ＬＵＳＨ,,株式会社,神奈川県,高座郡寒川町,宮山２３２７番地２,,14,321,2530106,,,,,,,2025-07-23,1,,,,,アセットラッシュ,0
1221,5021001085841,新規,0,2025-07-23,2025-07-23,株式会社湘南揚重,,株式会社,神奈川県,平塚市,虹ケ浜２４番２５－３１７号,,14,203,2540823,,,,,,,2025-07-23,1,,,,,ショウナンヨウジュウ,0
1222,5021001085858,新規,0,2025-07-23,2025-07-23,株式会社ワヤンバビークルジャパン,,株式会社,神奈川県,茅ヶ崎市,浜竹４丁目２番６８号,,14,207,2530021,,,,,,,2025-07-23,1,,,,,ワヤンバビークルジャパン,0
1223,5021001085866,新規,0,2025-07-23,2025-07-23,株式会社結円,,株式会社,神奈川県,秦野市,幸町２番２２号,,14,211,2570048,,,,,,,2025-07-23,1,,,,,ユイマル,0
1224,5021001085874,新規,0,2025-07-23,2025-07-23,株式会社ココプラス,,株式会社,神奈川県,横須賀市,長瀬２丁目４番１７号,,14,201,2390826,,,,,,,2025-07-23,1,,,,,ココプラス,0
1225,5021003016308,新規,0,2025-07-23,2025-07-23,合同会社ＹＯＫＯＳＵＫＡ　ＷＥＬＬＮＥＳＳ　ＣＥＮＴＥＲ,,合同会社,神奈川県,横須賀市,若松町３丁目１８佐藤ビル３Ｆ,,14,201,2380007,,,,,,,2025-07-23,1,,,,,ヨコスカウェルネスセンター,0
1226,5021003016316,新規,0,2025-07-23,2025-07-23,Ｌｏｔｕｓ合同会社,,合同会社,神奈川県,横須賀市,船越町１丁目４９,,14,201,2370076,,,,,,,2025-07-23,1,,,,,ロータス,0
1227,5021003016324,新規,0,2025-07-23,2025-07-23,合同会社Ｗｉｎｋｌｅ　Ｓｅｒｖｉｃｅ,,合同会社,神奈川県,相模原市中央区,相生１丁目１３番１７－３号,,14,152,2520235,,,,,,,2025-07-23,1,,,,,ウインクルサービス,0
1234,5030003027198,新規,0,2025-07-23,2025-07-23,はるたま合同会社,,合同会社,埼玉県,東松山市,大字柏崎１３１－２,,11,212,3550034,,,,,,,2025-07-23,1,,,,,ハルタマ,0
1235,5030003027215,新規,0,2025-07-23,2025-07-23,合同会社ＬＵＰＡＳｔｕｄｉｏ,,合同会社,埼玉県,狭山市,狭山台１丁目２９番地の１－２０５,,11,215,3501304,,,,,,,2025-07-23,1,,,,,ルーパスタジオ,0
1238,5040001139754,新規,0,2025-07-23,2025-07-23,ＴｅｃｈＮｏｖａＡＩ株式会社,,株式会社,千葉県,千葉市稲毛区,黒砂２丁目１－３０,,12,103,2630042,,,,,,,2025-07-23,1,,,,,テクノヴァエーアイ,0
1241,5040003028096,新規,0,2025-07-23,2025-07-23,Ｈ．Ｓ　ＴＲＡＤＩＮＧ合同会社,,合同会社,千葉県,八街市,用草１７４番地２，１階１０２号,,12,230,2891138,,,,,,,2025-07-23,1,,,,,エイチドットエストレーディング,0
1251,5070001043160,新規,0,2025-07-23,2025-07-23,株式会社ＨＡＧＩＭＯ,,株式会社,群馬県,邑楽郡邑楽町,大字中野１０４８番地,,10,525,3700603,,,,,,,2025-07-23,1,,,,,ハギモ,0
1254,5070003006009,新規,0,2025-07-23,2025-07-23,合同会社さち,,合同会社,群馬県,みどり市,大間々町大間々４１８番地５,,10,212,3760101,,,,,,,2025-07-23,1,,,,,サチ,0
1257,5080101025660,新規,0,2025-07-23,2025-07-23,株式会社ノア,,株式会社,静岡県,富士市,伝法１７７４番地の１プランドール富士Ｃ２０２,,22,210,4170061,,,,,,,2025-07-23,1,,,,,ノア,0
1262,5100001038784,新規,0,2025-07-23,2025-07-23,株式会社森の聖地,,株式会社,長野県,上伊那郡箕輪町,大字東箕輪３２９５番地２,,20,383,3994602,,,,,,,2025-07-23,1,,,,,モリノセイチ,0
1274,5120001277752,新規,0,2025-07-23,2025-07-23,株式会社ＳＥＶＥＮ　ＡＬＬ,,株式会社,大阪府,大阪市西区,北堀江１丁目９番４号三洋北堀江ビル７階,,27,106,5500014,,,,,,,2025-07-23,1,,,,,セブンオール,0
1275,5120001278049,新規,0,2025-07-23,2025-07-23,啓程株式会社,,株式会社,大阪府,大阪市西成区,萩之茶屋１丁目１２番７－１２２号室,,27,122,5570004,,,,,,,2025-07-23,1,,,,,ケイテイ,0
1276,5120001278057,新規,0,2025-07-23,2025-07-23,鹿聖瞳株式会社,,株式会社,大阪府,大阪市生野区,新今里３丁目５番１８号ＳＥＩＫＡビル２０２号室,,27,116,5440001,,,,,,,2025-07-23,1,,,,,カセイドウ,0
1278,5120003030060,新規,0,2025-07-23,2025-07-23,ＳＰ　ＥＳＳ６合同会社,,合同会社,大阪府,大阪市中央区,南船場２丁目６－３第２ＢＳビル６０１号室,,27,128,5420081,,,,,,,2025-07-23,1,,,,,エスピーイーエスエスシックス,0
1280,5120005025034,新規,0,2025-07-23,2025-07-23,一般社団法人結びサポート協会,,その他の設立登記法人,大阪府,枚方市,川原町１２番１号マルエスマンション川原町３０６号,,27,210,5730028,,,,,,,2025-07-23,1,,,,,ムスビサポートキョウカイ,0
1282,5120101072153,新規,0,2025-07-23,2025-07-23,ＳＥＶＥＮＳＴＡＲ　ＣＬＯＴＨＩＮＧ株式会社,,株式会社,大阪府,泉南郡田尻町,吉見６０６番地８,,27,362,5980092,,,,,,,2025-07-23,1,,,,,セブンスタークロージング,0
1284,5120103006588,新規,0,2025-07-23,2025-07-23,合同会社レッドスター,,合同会社,大阪府,富田林市,錦織南２丁目２３番１号,,27,214,5840067,,,,,,,2025-07-23,1,,,,,レッドスター,0
1287,5122001039406,新規,0,2025-07-23,2025-07-23,株式会社大拓,,株式会社,大阪府,東大阪市,加納２丁目２１番１７号,,27,227,5780901,,,,,,,2025-07-23,1,,,,,ダイタク,0
1288,5122001039447,新規,0,2025-07-23,2025-07-23,株式会社ヒロコーポレーション,,株式会社,大阪府,八尾市,上之島町南１丁目１０番地,,27,212,5810846,,,,,,,2025-07-23,1,,,,,ヒロコーポレーション,0
1293,5130001080131,新規,0,2025-07-23,2025-07-23,株式会社ＹＵＺＵ,,株式会社,京都府,向日市,上植野町大田２番地２４,,26,208,6170006,,,,,,,2025-07-23,1,,,,,ユズ,0
1294,5130001080156,新規,0,2025-07-23,2025-07-23,株式会社西村工業,,株式会社,京都府,宇治市,五ケ庄大林８番地の１,,26,204,6110011,,,,,,,2025-07-23,1,,,,,ニシムラコウギョウ,0
1295,5130003010615,新規,0,2025-07-23,2025-07-23,縁のアグリ合同会社,,合同会社,京都府,相楽郡精華町,大字南稲八妻小字蔭山３３番地,,26,366,6190243,,,,,,,2025-07-23,1,,,,,エニシノアグリ,0
1302,5140001139356,新規,0,2025-07-23,2025-07-23,株式会社創樹会メディカルサポート,,株式会社,兵庫県,姫路市,岡田５８４番地５,,28,201,6700982,,,,,,,2025-07-23,1,,,,,ソウジュカイメディカルサポート,0
1312,5160001026924,新規,0,2025-07-23,2025-07-23,ケンゾー工業株式会社,,株式会社,滋賀県,長浜市,西上坂町９９９番地の１,,25,203,5260803,,,,,,,2025-07-23,1,,,,,ケンゾーコウギョウ,0
1322,5180001167650,新規,0,2025-07-23,2025-07-23,株式会社ＮＴ電機,,株式会社,愛知県,名古屋市中村区,名駅４丁目２４番５号第２森ビル４０１,,23,105,4500002,,,,,,,2025-07-23,1,,,,,エヌティデンキ,0
1323,5180001167700,新規,0,2025-07-23,2025-07-23,株式会社Ｔｏ　ｔｈｅ　ｆｕｔｕｒｅ,,株式会社,愛知県,名古屋市中区,錦２丁目７番７号,,23,106,4600003,,,,,,,2025-07-23,1,,,,,トゥーザフューチャー,0
1330,5190003005122,新規,0,2025-07-23,2025-07-23,合同会社サン,,合同会社,三重県,桑名市,大字額田２８７－３,,24,205,5110911,,,,,,,2025-07-23,1,,,,,サン,0
1338,5230003002461,新規,0,2025-07-23,2025-07-23,合同会社フランク・ライティングスタジオ,,合同会社,富山県,富山市,粟島町１丁目１９番３５号,,16,201,9318314,,,,,,,2025-07-23,1,,,,,フランクライティングスタジオ,0
1341,5240001065253,新規,0,2025-07-23,2025-07-23,株式会社ジョイ・オー,,株式会社,広島県,福山市,水呑町三新田１丁目７２５番地,,34,207,7200830,,,,,,,2025-07-23,1,,,,,ジョイオー,0
1345,5250003003771,新規,0,2025-07-23,2025-07-23,合同会社エルマーナウェブ,,合同会社,山口県,周南市,城ケ丘４丁目８番７号,,35,215,7450807,,,,,,,2025-07-23,1,,,,,エルマーナウェブ,0
1347,5260003005255,新規,0,2025-07-23,2025-07-23,スノーボール合同会社,,合同会社,岡山県,総社市,東阿曽１４８９番地５,,33,208,7191102,,,,,,,2025-07-23,1,,,,,スノーボール,0
1354,5290001110822,新規,0,2025-07-23,2025-07-23,株式会社ソルナリアルティ,,株式会社,福岡県,福岡市博多区,堅粕３丁目１７番２９号,,40,132,8120043,,,,,,,2025-07-23,1,,,,,ソルナリアルティ,0
1360,5310001019714,新規,0,2025-07-23,2025-07-23,株式会社ＢＡＮＨＯ,,株式会社,長崎県,長崎市,西北町４４番１ー５１３号,,42,201,8528051,,,,,,,2025-07-23,1,,,,,バンホ,0
1370,5360003015054,新規,0,2025-07-23,2025-07-23,Ｂｌｕｎ２合同会社,,合同会社,沖縄県,宜野湾市,志真志１丁目２５番１５号志真志アパート２０１号室,,47,205,9012213,,,,,,,2025-07-23,1,,,,,ブランツ,0
1373,5380001035481,新規,0,2025-07-23,2025-07-23,株式会社ＲｕＢｙ,,株式会社,福島県,郡山市,栄町６番１５号,,07,203,9638872,,,,,,,2025-07-23,1,,,,,ルビィー,0
1374,5380003006092,新規,0,2025-07-23,2025-07-23,合同会社はいよろこんで,,合同会社,福島県,いわき市,泉町滝尻三丁目２番地の１,,07,204,9718182,,,,,,,2025-07-23,1,,,,,ハイヨロコンデ,0
1379,5420003003143,新規,0,2025-07-23,2025-07-23,グルト合同会社,,合同会社,青森県,青森市,長島２丁目１３番１号アクア青森スクエア６階,,02,201,0300861,,,,,,,2025-07-23,1,,,,,グルト,0
1382,5430003017852,新規,0,2025-07-23,2025-07-23,ＡＩラボ合同会社,,合同会社,北海道,札幌市東区,北九条東１３丁目２番５号,,01,103,0650009,,,,,,,2025-07-23,1,,,,,エーアイラボ,0
1383,5430003017885,新規,0,2025-07-23,2025-07-23,合同会社ＴＫＧ,,合同会社,北海道,札幌市北区,屯田八条１２丁目８番１４号,,01,102,0020858,,,,,,,2025-07-23,1,,,,,ティーケージー,0
1385,5460103001729,新規,0,2025-07-23,2025-07-23,合同会社クルーステージ,,合同会社,北海道,帯広市,公園東町４丁目７番地７,,01,207,0800847,,,,,,,2025-07-23,1,,,,,,0
1386,5470003002933,新規,0,2025-07-23,2025-07-23,合同会社ＮｏｋｉＳａｋｉ,,合同会社,香川県,高松市,多肥下町６１－３,,37,201,7618075,,,,,,,2025-07-23,1,,,,,,0
1393,5490001011117,新規,0,2025-07-23,2025-07-23,株式会社ドットファーム,,株式会社,高知県,高岡郡津野町,姫野々４８３番地１,,39,411,7850202,,,,,,,2025-07-23,1,,,,,ドットファーム,0
1400,5700150131461,新規,0,2025-07-23,2025-07-23,Ｓｈａｎｔｏｕ　Ｃｉｔｙ　Ｊｉａｎｚｈｉｘｉｎｇｋｏｎｇ　Ｔｅｃｈｎｏｌｏｇｙ　Ｃｏ．，ｌｔｄ,,外国会社等,,,,,,,,Ｎｏ．１７，Ｌａｎｅ　７，Ｓｈａｎｇｊｉａｏ，Ｘｉｎｊｉａ　Ｅａｓｔ　Ｐａｒｋ，Ｃｈｅｎｇｈｕａ　Ｓｔｒｅｅｔ，Ｃｈｅｎｇｈａｉ　Ｄｉｓｔｒｉｃｔ，Ｓｈａｎｔｏｕ　ＣｉｔｙＧｕａｎｇｄｏｎｇ　Ｐｒｏｖｉｎｃｅ，Ｃｈｉｎａ　５１５８００,,,,,,2025-07-23,1,,,,,シャントウシージエンジーシンコンコージーヨウシエンゴンスー,0
1405,6010001256881,新規,0,2025-07-23,2025-07-23,Ｄｏｏｋｒ株式会社,,株式会社,東京都,千代田区,神田岩本町１－２０窪田ビル４Ｆ,,13,101,1010033,,,,,,,2025-07-23,1,,,,,ドーカ,0
1406,6010001256980,新規,0,2025-07-23,2025-07-23,株式会社Ｚｙｐｈｅｒ,,株式会社,東京都,文京区,千石３丁目５－２０コーポ睦４０１,,13,105,1120011,,,,,,,2025-07-23,1,,,,,ゼファー,0
1407,6010001257079,新規,0,2025-07-23,2025-07-23,パリパス株式会社,,株式会社,東京都,中央区,銀座１丁目１２－４Ｎ＆ＥＢＬＤ．７階,,13,102,1040061,,,,,,,2025-07-23,1,,,,,パリパス,0
1408,6010001257095,新規,0,2025-07-23,2025-07-23,ベストオアシスジャパン株式会社,,株式会社,東京都,中央区,京橋１丁目３番２号,,13,102,1040031,,,,,,,2025-07-23,1,,,,,ベストオアシスジャパン,0
1409,6010003047973,新規,0,2025-07-23,2025-07-23,浪江蓄電所合同会社,,合同会社,東京都,千代田区,大手町２丁目３番２号,,13,101,1000004,,,,,,,2025-07-23,1,,,,,ナミエチクデンショ,0
1410,6010005040349,新規,0,2025-07-23,2025-07-23,土地家屋調査士法人星川測量,,その他の設立登記法人,東京都,中央区,日本橋茅場町２丁目１７番５号第３高野ビル７階,,13,102,1030025,,,,,,,2025-07-23,1,,,,,ホシカワソクリョウ,0
1411,6010005040415,新規,0,2025-07-23,2025-07-23,一般社団法人フォーリヤ,,その他の設立登記法人,東京都,千代田区,丸の内１丁目４番１号東京共同会計事務所内,,13,101,1000005,,,,,,,2025-07-23,1,,,,,フォーリヤ,0
1420,6010403035628,新規,0,2025-07-23,2025-07-23,合同会社いろはアカデミー,,合同会社,東京都,港区,北青山１丁目３番１号アールキューブ青山３階,,13,103,1070061,,,,,,,2025-07-23,1,,,,,イロハアカデミー,0
1421,6010403035636,新規,0,2025-07-23,2025-07-23,ＯＭＩ＆Ｃｏ．合同会社,,合同会社,東京都,港区,南青山１丁目３番１―３５０５号,,13,103,1070062,,,,,,,2025-07-23,1,,,,,オミアンドコー,0
1432,6010601067646,新規,0,2025-07-23,2025-07-23,ヒカリトワ株式会社,,株式会社,東京都,江東区,白河２丁目２１番５－２０２号,,13,108,1350021,,,,,,,2025-07-23,1,,,,,ヒカリトワ,0
1434,6010703007806,新規,0,2025-07-23,2025-07-23,合同会社ウチデノイヅチ,,合同会社,東京都,品川区,上大崎３丁目２番１号,,13,109,1410021,,,,,,,2025-07-23,1,,,,,ウチデノイヅチ,0
1435,6010703007814,新規,0,2025-07-23,2025-07-23,合同会社マシヨシ,,合同会社,東京都,品川区,上大崎２丁目７－２５パークコート白金長者丸２０１,,13,109,1410021,,,,,,,2025-07-23,1,,,,,マシヨシ,0
1441,6010901057768,新規,0,2025-07-23,2025-07-23,株式会社食縁舎,,株式会社,東京都,世田谷区,深沢４丁目６番１２－３０７号,,13,112,1580081,,,,,,,2025-07-23,1,,,,,ショクエンシャ,0
1442,6010901057784,新規,0,2025-07-23,2025-07-23,株式会社フードゥー,,株式会社,東京都,世田谷区,代沢４丁目１６番１５号スカーレット代沢２０３,,13,112,1550032,,,,,,,2025-07-23,1,,,,,フードゥー,0
1447,6010903010106,新規,0,2025-07-23,2025-07-23,Ｊａｐａｎ２合同会社,,合同会社,東京都,世田谷区,駒沢４丁目１５番２０号,,13,112,1540012,,,,,,,2025-07-23,1,,,,,ジャパンツー,0
1463,6011003022181,新規,0,2025-07-23,2025-07-23,ＮｅｘｔＨｉｖｅＭｅｄｉａ合同会社,,合同会社,東京都,渋谷区,道玄坂１丁目１０番８号渋谷道玄坂東急ビル２Ｆ－Ｃ,,13,113,1500043,,,,,,,2025-07-23,1,,,,,ネクストハイブメディア,0
1467,6011101112388,新規,0,2025-07-23,2025-07-23,株式会社シナモア,,株式会社,東京都,新宿区,西新宿３丁目３番１３号西新宿水間ビル６階,,13,104,1600023,,,,,,,2025-07-23,1,,,,,シナモア,0
1468,6011101112529,新規,0,2025-07-23,2025-07-23,株式会社佳奈,,株式会社,東京都,新宿区,西新宿７丁目２２番４５号斉藤ビル３階,,13,104,1600023,,,,,,,2025-07-23,1,,,,,カナ,0
1474,6011501032343,新規,0,2025-07-23,2025-07-23,ＳＨＵＴＴＬＥ　ＷＯＲＫＳ株式会社,,株式会社,東京都,北区,滝野川３丁目３４番７号,,13,117,1140023,,,,,,,2025-07-23,1,,,,,シャトルワークス,0
1476,6011803006978,新規,0,2025-07-23,2025-07-23,合同会社ＮＥＸＴ　ＩＮＮＯＶＡＴＩＯＮ,,合同会社,東京都,葛飾区,新宿６丁目２番１号３７２６号室,,13,122,1250051,,,,,,,2025-07-23,1,,,,,ネクストイノベーション,0
1478,6013301054641,新規,0,2025-07-23,2025-07-23,株式会社ＴＧ　Ｃａｐｔｕｒｅ,,株式会社,東京都,豊島区,南長崎２丁目２２－１７－１０１,,13,116,1710052,,,,,,,2025-07-23,1,,,,,ティージーキャプチャー,0
1485,6020001163994,新規,0,2025-07-23,2025-07-23,宇拓株式会社,,株式会社,神奈川県,川崎市川崎区,大島４丁目１６－６小山ビル１階,,14,131,2100834,,,,,,,2025-07-23,1,,,,,ウタク,0
1493,6021001085865,新規,0,2025-07-23,2025-07-23,岡田伝記株式会社,,株式会社,神奈川県,中郡二宮町,山西６６９番地の５７二宮のおうち,,14,342,2590124,,,,,,,2025-07-23,1,,,,,オカダデンキ,0
1494,6021001085881,新規,0,2025-07-23,2025-07-23,株式会社カリナンアーツ,,株式会社,神奈川県,相模原市南区,上鶴間８丁目９番５号マリンハイツ１０２,,14,153,2520302,,,,,,,2025-07-23,1,,,,,カリナンアーツ,0
1498,6021005013401,新規,0,2025-07-23,2025-07-23,一般社団法人Ｍａｉｋａｉ　Ｋｅｎｋｏ,,その他の設立登記法人,神奈川県,秦野市,大秦町２番１６号２階,,14,211,2570034,,,,,,,2025-07-23,1,,,,,マイカイケンコウ,0
1509,6030003027206,新規,0,2025-07-23,2025-07-23,合同会社虹の空,,合同会社,埼玉県,越谷市,宮本町５丁目１１番１号,,11,222,3430806,,,,,,,2025-07-23,1,,,,,ニジノソラ,0
1521,6060001038417,新規,0,2025-07-23,2025-07-23,株式会社オールＲＯＵＮＤ,,株式会社,栃木県,河内郡上三川町,しらさぎ３丁目２４番地－１１,,09,301,3290618,,,,,,,2025-07-23,1,,,,,オールラウンド,0
1527,6070003006008,新規,0,2025-07-23,2025-07-23,ＢＲ合同会社,,合同会社,群馬県,太田市,堀口町１９４番地９,,10,205,3700414,,,,,,,2025-07-23,1,,,,,,0
1532,6080403005310,新規,0,2025-07-23,2025-07-23,合同会社リビジョンアップ,,合同会社,静岡県,浜松市中央区,立野町８１‐１,,22,138,4300827,,,,,,,2025-07-23,1,,,,,リビジョンアップ,0
1533,6090001019389,新規,0,2025-07-23,2025-07-23,中村商事株式会社,,株式会社,山梨県,南アルプス市,東南湖７４５番地２、２階,,19,208,4000412,,,,,,,2025-07-23,1,,,,,ナカムラショウジ,0
1535,6100003008306,新規,0,2025-07-23,2025-07-23,合同会社ポイントクラウドソリューションズ,,合同会社,長野県,長野市,豊野町蟹沢１１５６番地１,,20,201,3891103,,,,,,,2025-07-23,1,,,,,ポイントクラウドソリューションズ,0
1548,6120001278072,新規,0,2025-07-23,2025-07-23,アラ食旅株式会社,,株式会社,大阪府,大阪市住吉区,苅田２丁目７番１３－２０２号,,27,120,5580011,,,,,,,2025-07-23,1,,,,,アラショクリョ,0
1549,6120001278147,新規,0,2025-07-23,2025-07-23,株式会社Ｓｕｎｎｙ　Ｒｉｎｇ,,株式会社,大阪府,枚方市,香里ケ丘１２丁目１４番２７号,,27,210,5730084,,,,,,,2025-07-23,1,,,,,サニーリング,0
1552,6120101072136,新規,0,2025-07-23,2025-07-23,株式会社グローバル,,株式会社,大阪府,阪南市,石田８０番地１,,27,232,5990221,,,,,,,2025-07-23,1,,,,,グローバル,0
1566,6140001139272,新規,0,2025-07-23,2025-07-23,株式会社Ｆ　ｖｉｓｉｏｎ,,株式会社,兵庫県,西宮市,甲子園高潮町６番６号,,28,204,6638166,,,,,,,2025-07-23,1,,,,,エフビジョン,0
1567,6140001139355,新規,0,2025-07-23,2025-07-23,Ｎｉｋｓｅｎ　Ｈｕｉｓ株式会社,,株式会社,兵庫県,加古川市,加古川町寺家町６５番地の１グローバル加古川８０４号,,28,210,6750066,,,,,,,2025-07-23,1,,,,,ニクセンハウス,0
1568,6140001139413,新規,0,2025-07-23,2025-07-23,株式会社ミラージュ,,株式会社,兵庫県,美方郡香美町,香住区香住１２６２番地の４マリーナ・ガーデン３０１,,28,585,6696544,,,,,,,2025-07-23,1,,,,,ミラージュ,0
1573,6150001028276,新規,0,2025-07-23,2025-07-23,スリーライク株式会社,,株式会社,奈良県,生駒市,本町１０－１生駒ビル３０２号,,29,209,6300256,,,,,,,2025-07-23,1,,,,,スリーライク,0
1576,6160003003549,新規,0,2025-07-23,2025-07-23,パーソナルブランディング合同会社,,合同会社,滋賀県,蒲生郡日野町,大字里口９４番地,,25,383,5291643,,,,,,,2025-07-23,1,,,,,パーソナルブランディング,0
1580,6170001018721,新規,0,2025-07-23,2025-07-23,ツーエスジャパン株式会社,,株式会社,和歌山県,海草郡紀美野町,梅本２６９番地,,30,304,6401113,,,,,,,2025-07-23,1,,,,,ツーエスジャパン,0
1598,6210003001935,新規,0,2025-07-23,2025-07-23,合同会社Ｗｅｌｉｎａ,,合同会社,福井県,坂井市,春江町江留上新町１４３番地,,18,210,9190465,,,,,,,2025-07-23,1,,,,,ウェリナ,0
1604,6230001021009,新規,0,2025-07-23,2025-07-23,株式会社ヴォアールＢＯＸ,,株式会社,富山県,氷見市,中央町９番４７号,,16,205,9350011,,,,,,,2025-07-23,1,,,,,ヴォアールボックス,0
1607,6240001065252,新規,0,2025-07-23,2025-07-23,株式会社グローバルトラスト,,株式会社,広島県,福山市,今津町３番７１号,,34,207,7290111,,,,,,,2025-07-23,1,,,,,グローバルトラスト,0
1608,6240001065260,新規,0,2025-07-23,2025-07-23,株式会社ＮＥＵＩ,,株式会社,広島県,広島市安佐南区,山本新町４丁目２９番９号,,34,105,7310139,,,,,,,2025-07-23,1,,,,,ヌイ,0
1613,6240005015963,新規,0,2025-07-23,2025-07-23,一般社団法人風土会,,その他の設立登記法人,広島県,安芸高田市,美土里町北３８８４番地,,34,214,7310701,,,,,,,2025-07-23,1,,,,,フウドカイ,0
1615,6250003003779,新規,0,2025-07-23,2025-07-23,合同会社Ａｎｕｅｎｕｅ,,合同会社,山口県,山陽小野田市,桜２丁目３番１９号Ｘ１－１０２,,35,216,7570006,,,,,,,2025-07-23,1,,,,,アヌエヌエ,0
1617,6270001009248,新規,0,2025-07-23,2025-07-23,株式会社Ｌｅｎｅ,,株式会社,鳥取県,東伯郡琴浦町,大字三保１０３８番地１,,31,371,6892353,,,,,,,2025-07-23,1,,,,,レーネ,0
1621,6290001110887,新規,0,2025-07-23,2025-07-23,株式会社ＬＥＶＥＬ　ＺＥＲＯ,,株式会社,福岡県,宗像市,大谷２番地２１,,40,220,8114141,,,,,,,2025-07-23,1,,,,,レベルゼロ,0
1623,6290803005112,新規,0,2025-07-23,2025-07-23,Ｇｒｕｅ　ｗａｔｅｒ　Ｈｏｕｓｅ合同会社,,合同会社,福岡県,行橋市,南大橋６丁目１番１３号,,40,213,8240032,,,,,,,2025-07-23,1,,,,,グルーウォーターハウス,0
1633,6330001033407,新規,0,2025-07-23,2025-07-23,株式会社ｃｏｃｏａ,,株式会社,熊本県,熊本市中央区,桜町４番３号,,43,101,8600805,,,,,,,2025-07-23,1,,,,,ココア,0
1641,6360001035508,新規,0,2025-07-23,2025-07-23,株式会社ＧＧＩ,,株式会社,沖縄県,豊見城市,字豊崎１番地１２７,,47,212,9010225,,,,,,,2025-07-23,1,,,,,ジージーアイ,0
1642,6360001035524,新規,0,2025-07-23,2025-07-23,株式会社スマート,,株式会社,沖縄県,浦添市,仲間２丁目４番６号円満アパート１Ｆ,,47,208,9012103,,,,,,,2025-07-23,1,,,,,スマート,0
1646,6370003007173,新規,0,2025-07-23,2025-07-23,合同会社アザレア,,合同会社,宮城県,仙台市青葉区,芋沢字大竹中５５番地の２,,04,101,9893212,,,,,,,2025-07-23,1,,,,,アザレア,0
1647,6380001035472,新規,0,2025-07-23,2025-07-23,株式会社キヨテック,,株式会社,福島県,耶麻郡猪苗代町,大字三ツ和字砂川上３２９８番地２,,07,408,9693284,,,,,,,2025-07-23,1,,,,,キヨテック,0
1648,6380003006100,新規,0,2025-07-23,2025-07-23,合同会社ＧＭ,,合同会社,福島県,白河市,栄町２番地１,,07,205,9610803,,,,,,,2025-07-23,1,,,,,ジーエム,0
1651,6390003002420,新規,0,2025-07-23,2025-07-23,合同会社ＧｒｏｗｔｈＡｒｔｓ,,合同会社,山形県,山形市,東原町１丁目１１番２２号,,06,201,9900034,,,,,,,2025-07-23,1,,,,,グロウスアーツ,0
1657,6430001094876,新規,0,2025-07-23,2025-07-23,株式会社グラインドモード,,株式会社,北海道,札幌市中央区,南五条西１５丁目２－３－５０３,,01,101,0640805,,,,,,,2025-07-23,1,,,,,グラインドモード,0
1661,6430003017851,新規,0,2025-07-23,2025-07-23,Ｌｉｂｙａｎ合同会社,,合同会社,北海道,札幌市東区,北九条東１３丁目２番５号,,01,103,0650009,,,,,,,2025-07-23,1,,,,,リビアン,0
1662,6430005015267,新規,0,2025-07-23,2025-07-23,一般社団法人全日本フットキュアリスト協会,,その他の設立登記法人,北海道,札幌市北区,北十一条西３丁目２番２８号北澤ビル２Ｆ,,01,102,0010011,,,,,,,2025-07-23,1,,,,,ゼンニホンフットキュアリストキョウカイ,0
1668,6500001026426,新規,0,2025-07-23,2025-07-23,株式会社Ｇ．Ｆｒｏｎｔｉｅｒ,,株式会社,愛媛県,松山市,南久米町１１３番地２,,38,201,7900924,,,,,,,2025-07-23,1,,,,,ジーフロンティア,0
1672,6700150131460,新規,0,2025-07-23,2025-07-23,Ｂｅｉｊｉｎｇ　Ｙｉｅｎｓｈｉ　Ｔｅｃｈｎｏｌｏｇｙ　Ｃｏ．，Ｌｔｄ,,外国会社等,,,,,,,,１４ｔｈ　Ｆｌｏｏｒ，Ｂｕｉｌｄｉｎｇ　７，Ｎｏ．１８，Ｈｕａｎｊｉｎｇ　Ｒｏａｄ，１４０３　Ｎｏ．７　Ｒｏｎｇｈｕａ　Ｍｉｄｄｌｅ　Ｒｏａｄ，Ｂｅｉｊｉｎｇ　Ｅｃｏｎｏｍｉｃ　ａｎｄ　Ｔｅｃｈｎｏｌｏｇｉｃａｌ　ＰＥＫＩＮＧ　Ｅｃｏｎｏｍｉｃ　ａｎｄ　Ｔｅｃｈｎｏｌｏｇｉｃａｌ　Ｄｅｖｅｌｏｐｍｅｎｔ　Ｚｏｎｅ,,,,,,2025-07-23,1,,,,,ベイジンイーエンスーコージーヨウシエンゴンスー,0
1673,6700150131469,新規,0,2025-07-23,2025-07-23,Ｓｈｅｎｚｈｅｎｄａｉｓｈｕｚｈｉｙｏｕｋｅｊｉｙｏｕｘｉａｎｇｏｎｇｓｉ,,外国会社等,,,,,,,,Ｓｈｅｎｚｈｅｎｓｈｉ　Ｎａｎｓｈａｎｑｕ　Ｎａｎｓｈａｎｊｉｅｄａｏ　Ｙａｎｇｇｕａｎｇｚｏｎｇｌｖｓｈｅｑｕ　Ｘｕｅｆｕｌｕ　２６３ｈａｏ　Ｄａｘｉｎｓｈｉｄａｉｄａｓｈａ　Ａ　Ｚｕｏ　２００２,,,,,,2025-07-23,1,,,,,シンセンカンガルーインテリジエンドテクノロジーカンパニーリミテツト,0
1684,7010001256955,新規,0,2025-07-23,2025-07-23,株式会社ＫＨコーポレーション,,株式会社,東京都,中央区,佃２丁目１番１－１５０２号,,13,102,1040051,,,,,,,2025-07-23,1,,,,,ケイエイチコーポレーション,0
1685,7010001256996,新規,0,2025-07-23,2025-07-23,陽晨株式会社,,株式会社,東京都,文京区,本駒込５丁目１番２号,,13,105,1130021,,,,,,,2025-07-23,1,,,,,ヨウシン,0
1688,7010101016771,新規,0,2025-07-23,2025-07-23,株式会社ＡＦカンパニー,,株式会社,東京都,八王子市,暁町１丁目４９番５号,,13,201,1920043,,,,,,,2025-07-23,1,,,,,エイエフカンパニー,0
1714,7010403035635,新規,0,2025-07-23,2025-07-23,合同会社ｓｅｉｓｈｉｎ,,合同会社,東京都,港区,東新橋２丁目１０－１０東新橋ビル５０１号室,,13,103,1050021,,,,,,,2025-07-23,1,,,,,セイシン,0
1721,7010405024537,新規,0,2025-07-23,2025-07-23,一般社団法人ＳＥＫＡＩ　ＮＩ　ＷＡＴＡＲＵ,,その他の設立登記法人,東京都,港区,西新橋３丁目４番２号,,13,103,1050003,,,,,,,2025-07-23,1,,,,,セカイニワタル,0
1724,7010505003614,新規,0,2025-07-23,2025-07-23,一般財団法人亜門,,その他の設立登記法人,東京都,台東区,上野５丁目１７番２号,,13,106,1100005,,,,,,,2025-07-23,1,,,,,アモン,0
1729,7010601067661,新規,0,2025-07-23,2025-07-23,東福株式会社,,株式会社,東京都,江東区,北砂３丁目２８番１号不動コーポ３０３号室,,13,108,1360073,,,,,,,2025-07-23,1,,,,,トウフク,0
1730,7010602007030,新規,0,2025-07-23,2025-07-23,有限会社山伸商事,,有限会社,東京都,江東区,亀戸５丁目２０番２３号,,13,108,1360071,,,,,,,2025-07-23,1,,,,,,0
1733,7010701048033,新規,0,2025-07-23,2025-07-23,株式会社ＤＹＭエールケアリンクス,,株式会社,東京都,品川区,大崎１丁目１１番２号,,13,109,1410032,,,,,,,2025-07-23,1,,,,,ディーワイエムエールケアリンクス,0
1734,7010703007813,新規,0,2025-07-23,2025-07-23,合同会社ａ．ｋ．ａ．,,合同会社,東京都,品川区,西五反田３丁目１６番１１－４０６号,,13,109,1410031,,,,,,,2025-07-23,1,,,,,アズノウアズ,0
1747,7011001170700,新規,0,2025-07-23,2025-07-23,ビヨンダリー株式会社,,株式会社,東京都,渋谷区,円山町５番５号Ｎａｖｉ渋谷Ｖ３階,00140005,13,113,1500044,,,,,,,2025-07-23,1,,,,,ビヨンダリー,0
1752,7011101112429,新規,0,2025-07-23,2025-07-23,株式会社じじ,,株式会社,東京都,新宿区,西新宿１丁目２５－１新宿センタービル４９階,,13,104,1600023,,,,,,,2025-07-23,1,,,,,ジジ,0
1753,7011101112437,新規,0,2025-07-23,2025-07-23,株式会社リコスポーツジャパン,,株式会社,東京都,新宿区,西新宿７丁目１６－１第３歯朶ビル６Ｆ,,13,104,1600023,,,,,,,2025-07-23,1,,,,,リコスポーツジャパン,0
1754,7011101112503,新規,0,2025-07-23,2025-07-23,Ｍａｎｅｋｉｎｅｋｏ株式会社,,株式会社,東京都,新宿区,西新宿８丁目１４番１７－５０７号,,13,104,1600023,,,,,,,2025-07-23,1,,,,,マネキネコ,0
1768,7011801046496,新規,0,2025-07-23,2025-07-23,株式会社ネリカナ,,株式会社,東京都,足立区,千住東１丁目１３番１５－３０２号,,13,121,1200025,,,,,,,2025-07-23,1,,,,,ネリカナ,0
1780,7020001015526,新規,0,2025-07-23,2025-07-23,株式会社トップ経営,,株式会社,神奈川県,横浜市西区,久保町６番２６－３０５号,,14,103,2200061,,,,,,,2025-07-23,1,,,,,トップケイエイ,0
1783,7020001163886,新規,0,2025-07-23,2025-07-23,株式会社ＩＤＶ,,株式会社,神奈川県,横浜市西区,浅間町１丁目４－３ウィザードビル４０２,,14,103,2200072,,,,,,,2025-07-23,1,,,,,アイディーブイ,0
1784,7020001163977,新規,0,2025-07-23,2025-07-23,株式会社ＴＡＫＵ　ＭＵＳＩＣ,,株式会社,神奈川県,横浜市南区,前里町１丁目１番２号,,14,105,2320004,,,,,,,2025-07-23,1,,,,,タクミュージック,0
1785,7020003028906,新規,0,2025-07-23,2025-07-23,合同会社セキネクト,,合同会社,神奈川県,横浜市神奈川区,金港町５－１４クアドリフォリオ８階,,14,102,2210056,,,,,,,2025-07-23,1,,,,,セキネクト,0
1786,7020003028914,新規,0,2025-07-23,2025-07-23,ＡＱＵＡＬＩＳ合同会社,,合同会社,神奈川県,横浜市西区,戸部町３丁目６６番地８,,14,103,2200042,,,,,,,2025-07-23,1,,,,,,0
1792,7021001085848,新規,0,2025-07-23,2025-07-23,株式会社Ｎｔｈ　Ｄｅｇｒｅｅ,,株式会社,神奈川県,横須賀市,森崎４丁目２１番８号,,14,201,2380023,,,,,,,2025-07-23,1,,,,,エヌスディグリー,0
1793,7021001085864,新規,0,2025-07-23,2025-07-23,株式会社龍進,,株式会社,神奈川県,小田原市,千代８９９番地の２０,,14,206,2500215,,,,,,,2025-07-23,1,,,,,リュウシン,0
1794,7021001085880,新規,0,2025-07-23,2025-07-23,株式会社ＣＳパートナーズ,,株式会社,神奈川県,厚木市,中町４丁目１４番１号サクセス本厚木ビル６Ｆ６０６,,14,212,2430018,,,,,,,2025-07-23,1,,,,,シーエスパートナーズ,0
1803,7030001167770,新規,0,2025-07-23,2025-07-23,寿ぎ株式会社,,株式会社,埼玉県,さいたま市南区,南浦和２丁目２２番１６－１号,,11,108,3360017,,,,,,,2025-07-23,1,,,,,コトホギ,0
1809,7040001139802,新規,0,2025-07-23,2025-07-23,株式会社ＳＴＲＵＴＥＣＨ,,株式会社,千葉県,野田市,山崎７４１番地の３,,12,208,2780022,,,,,,,2025-07-23,1,,,,,ストラテック,0
1812,7040003027996,新規,0,2025-07-23,2025-07-23,合同会社Ｄｅａｒ．Ｌｉｆｅ,,合同会社,千葉県,東金市,家之子１６７１番地１２,,12,213,2830001,,,,,,,2025-07-23,1,,,,,ディアライフ,0
1815,7060001038416,新規,0,2025-07-23,2025-07-23,株式会社アプリス,,株式会社,栃木県,佐野市,犬伏新町２３６５番地６,,09,204,3270803,,,,,,,2025-07-23,1,,,,,アプリス,0
1816,7060005010362,新規,0,2025-07-23,2025-07-23,特定非営利活動法人花と芸術の街あわの実行委員会,,その他の設立登記法人,栃木県,鹿沼市,深程１６２５番地１６,,09,205,3220302,,,,,,,2025-07-23,1,,,,,ハナトゲイジュツノマチアワノジッコウイインカイ,0
1820,7080101025667,新規,0,2025-07-23,2025-07-23,株式会社ＬＥ　ＬＡＢ,,株式会社,静岡県,三島市,山中新田７３番地,,22,206,4110011,,,,,,,2025-07-23,1,,,,,ルラボ,0
1837,7120001278096,新規,0,2025-07-23,2025-07-23,亜華梓謙株式会社,,株式会社,大阪府,大阪市西成区,千本南１丁目４番１１－１０６号,,27,122,5570055,,,,,,,2025-07-23,1,,,,,アカシケン,0
1838,7120001278146,新規,0,2025-07-23,2025-07-23,フージコン株式会社,,株式会社,大阪府,大阪市北区,梅田１丁目２番２号大阪駅前第２ビル１２‐１２,,27,127,5300001,,,,,,,2025-07-23,1,,,,,フージコン,0
1839,7120001278162,新規,0,2025-07-23,2025-07-23,株式会社壮大,,株式会社,大阪府,大阪市港区,波除５丁目７番１９－９０２号,,27,107,5520001,,,,,,,2025-07-23,1,,,,,ソウダイ,0
1841,7120003030059,新規,0,2025-07-23,2025-07-23,ＳＰ　ＥＳＳ５合同会社,,合同会社,大阪府,大阪市中央区,南船場２丁目６－３第２ＢＳビル６０１号室,,27,128,5420081,,,,,,,2025-07-23,1,,,,,エスピーイーエスエスファイブ,0
1843,7120101072135,新規,0,2025-07-23,2025-07-23,株式会社Ｋ２,,株式会社,大阪府,和泉市,室堂町５番地の１（７－１００５）,,27,219,5941101,,,,,,,2025-07-23,1,,,,,ケーツー,0
1846,7120903005762,新規,0,2025-07-23,2025-07-23,合同会社インサイト,,合同会社,大阪府,高槻市,春日町１１番５号,,27,207,5690053,,,,,,,2025-07-23,1,,,,,インサイト,0
1849,7130001080096,新規,0,2025-07-23,2025-07-23,株式会社スターエナジー,,株式会社,京都府,宇治市,槇島町大町４１番地の１シャーメゾン・シグマ３０７号,,26,204,6110041,,,,,,,2025-07-23,1,,,,,スターエナジー,0
1850,7130001080146,新規,0,2025-07-23,2025-07-23,株式会社ロイヤルガード,,株式会社,京都府,京都市伏見区,深草直違橋８丁目２４４プリズン北村３０４,,26,109,6120889,,,,,,,2025-07-23,1,,,,,ロイヤルガード,0
1851,7130001080154,新規,0,2025-07-23,2025-07-23,株式会社Ｆｉｎａｎｃｉａｌ　Ａｓｓｉｓｔａｎｔｓ,,株式会社,京都府,京都市山科区,椥辻封シ川町２８番地１０,00140009,26,110,6078167,,,,,,,2025-07-23,1,,,,,ファイナンシャルアシスタンツ,0
1853,7130003010621,新規,0,2025-07-23,2025-07-23,合同会社帝,,合同会社,京都府,与謝郡与謝野町,字三河内１３３８番地１,,26,465,6292313,,,,,,,2025-07-23,1,,,,,ミカド,0
1862,7140001139362,新規,0,2025-07-23,2025-07-23,株式会社５０Ｙｏｃｈ,,株式会社,兵庫県,神戸市須磨区,桜木町２丁目４－２１南,,28,107,6540066,,,,,,,2025-07-23,1,,,,,フィフティヨック,0
1887,7180003028790,新規,0,2025-07-23,2025-07-23,合同会社Ｌｏｏｋ　ｕｐ,,合同会社,愛知県,日進市,岩崎台４丁目１６１０番地１,,23,230,4700135,,,,,,,2025-07-23,1,,,,,ルックアップ,0
1888,7180301040027,新規,0,2025-07-23,2025-07-23,株式会社ネクシス,,株式会社,愛知県,西尾市,吉良町上横須賀宮前５４番地１,,23,213,4440521,,,,,,,2025-07-23,1,,,,,ネクシス,0
1889,7180301040043,新規,0,2025-07-23,2025-07-23,株式会社エムライフサイエンス,,株式会社,愛知県,高浜市,青木町８丁目３番地１０１,,23,227,4441325,,,,,,,2025-07-23,1,,,,,エムライフサイエンス,0
1891,7190001032414,新規,0,2025-07-23,2025-07-23,株式会社日本治療研究所,,株式会社,三重県,津市,一志町高野１５７‐１ミューズパレス高野ＩＩ２０１号,00140020,24,201,5152504,,,,,,,2025-07-23,1,,,,,ニホンチリョウケンキュウジョ,0
1904,7240001065251,新規,0,2025-07-23,2025-07-23,株式会社リノベートワン,,株式会社,広島県,広島市中区,舟入南３丁目１７番１１号,,34,101,7300847,,,,,,,2025-07-23,1,,,,,リノベートワン,0
1909,7270001009247,新規,0,2025-07-23,2025-07-23,株式会社プラスデザイン,,株式会社,鳥取県,米子市,道笑町２丁目２１８番地１,,31,202,6830064,,,,,,,2025-07-23,1,,,,,プラスデザイン,0
1910,7280003001969,新規,0,2025-07-23,2025-07-23,ｃｈｏｒｅｏｇｒａｐｈ合同会社,,合同会社,島根県,松江市,鹿島町南講武４２０,,32,201,6900802,,,,,,,2025-07-23,1,,,,,コレオグラフ,0
1914,7290803005111,新規,0,2025-07-23,2025-07-23,ユナ海合同会社,,合同会社,福岡県,北九州市小倉北区,中津口１丁目１０番２３号Ｎビル２０３号室,,40,106,8020018,,,,,,,2025-07-23,1,,,,,ユナウミ,0
1918,7330003011070,新規,0,2025-07-23,2025-07-23,ｓｏｃｉａｌ　ｐｌａｎｅｔ合同会社,,合同会社,熊本県,熊本市中央区,新市街１３－１３ＦＵＴＡＴＡビル４０１,,43,101,8600803,,,,,,,2025-07-23,1,,,,,ソーシャルプラネット,0
1926,7380003006099,新規,0,2025-07-23,2025-07-23,合同会社小名浜ＰＧ,,合同会社,福島県,いわき市,小名浜住吉字不毛４番１,,07,204,9718124,,,,,,,2025-07-23,1,,,,,オナハマピージー,0
1936,7410003004132,新規,0,2025-07-23,2025-07-23,合同会社Ｍａｇｃｏ．,,合同会社,秋田県,秋田市,大町４丁目３番４４号パストラルハイム大町４０１,,05,201,0100921,,,,,,,2025-07-23,1,,,,,マグコ,0
1942,7430001094859,新規,0,2025-07-23,2025-07-23,株式会社ｃｏｕｌｅｕｒ,,株式会社,北海道,江別市,ゆめみ野東町２８番地の６,,01,217,0670065,,,,,,,2025-07-23,1,,,,,クルール,0
1943,7430001094925,新規,0,2025-07-23,2025-07-23,株式会社寝装のたかはた,,株式会社,北海道,小樽市,入船３丁目１番２５号,,01,203,0470021,,,,,,,2025-07-23,1,,,,,シンソウノタカハタ,0
1948,7430003017891,新規,0,2025-07-23,2025-07-23,合同会社ＡＴＬＡＮＴＡ,,合同会社,北海道,札幌市北区,麻生町５丁目７－３、５丁目ビル２Ｆ,,01,102,0010045,,,,,,,2025-07-23,1,,,,,アトランタ,0
1949,7430005015266,新規,0,2025-07-23,2025-07-23,学校法人多文化共生学園,,その他の設立登記法人,北海道,小樽市,入船４丁目９番１号,,01,203,0470021,,,,,,,2025-07-23,1,,,,,タブンカキョウセイガクエン,0
1956,7470001020811,新規,0,2025-07-23,2025-07-23,株式会社トータルアセットパートナー,,株式会社,香川県,高松市,田町９番地３,,37,201,7600053,,,,,,,2025-07-23,1,,,,,トータルアセットパートナー,0
1962,8010001257060,新規,0,2025-07-23,2025-07-23,Ｂｌａｃｋｗａｌｌ株式会社,,株式会社,東京都,中央区,日本橋室町４丁目３番９号,,13,102,1030022,,,,,,,2025-07-23,1,,,,,ブラックウォール,0
1963,8010003047955,新規,0,2025-07-23,2025-07-23,合同会社松山一番町ホテルプロジェクト,,合同会社,東京都,中央区,日本橋１丁目４番１号,,13,102,1030027,,,,,,,2025-07-23,1,,,,,マツヤマイチバンチョウホテルプロジェクト,0
1964,8010003048086,新規,0,2025-07-23,2025-07-23,京橋一号合同会社,,合同会社,東京都,中央区,京橋２丁目６番１５号ＭＣＡ京橋ビル３Ｆ,,13,102,1040031,,,,,,,2025-07-23,1,,,,,キョウバシイチゴウ,0
1968,8010005040371,新規,0,2025-07-23,2025-07-23,一般社団法人ｒｅｎｇａ第１号,,その他の設立登記法人,東京都,千代田区,霞が関３丁目２番５号,,13,101,1000013,,,,,,,2025-07-23,1,,,,,レンガダイイチゴウ,0
1969,8010005040396,新規,0,2025-07-23,2025-07-23,一般社団法人ムロオシステムズ,,その他の設立登記法人,東京都,中央区,日本橋本町４丁目１５番１号タカコービル４階,,13,102,1030023,,,,,,,2025-07-23,1,,,,,ムロオシステムズ,0
1970,8010005040413,新規,0,2025-07-23,2025-07-23,一般社団法人オリエント４号,,その他の設立登記法人,東京都,千代田区,霞が関３丁目２番５号,,13,101,1000013,,,,,,,2025-07-23,1,,,,,オリエントヨンゴウ,0
1974,8010101016770,新規,0,2025-07-23,2025-07-23,株式会社森電,,株式会社,東京都,八王子市,久保山町１丁目９番地１－５０１,,13,201,1920023,,,,,,,2025-07-23,1,,,,,モリデン,0
1977,8010103002612,新規,0,2025-07-23,2025-07-23,トップハウス合同会社,,合同会社,東京都,八王子市,台町４丁目３３－８ＥＩＧＨＴＢＬＤＧ．－Ｄａｉｍａｃｈｉ１－３０３,,13,201,1930931,,,,,,,2025-07-23,1,,,,,トップハウス,0
1990,8010401191917,新規,0,2025-07-23,2025-07-23,株式会社大手町キャピタル,,株式会社,東京都,港区,六本木４丁目２番２０－１０３号,,13,103,1060032,,,,,,,2025-07-23,1,,,,,オオテマチキャピタル,0
1995,8010403035618,新規,0,2025-07-23,2025-07-23,エーテラ合同会社,,合同会社,東京都,港区,芝浦１丁目６番４１－１３２３号,,13,103,1050023,,,,,,,2025-07-23,1,,,,,エーテラ,0
2005,8010601067677,新規,0,2025-07-23,2025-07-23,株式会社ケアリスタ・ラーニング,,株式会社,東京都,江東区,枝川２丁目５番１２－２０７号,,13,108,1350051,,,,,,,2025-07-23,1,,,,,ケアリスタラーニング,0
2008,8010701048024,新規,0,2025-07-23,2025-07-23,Ｆａｎ　Ｅｓｔａｔｅ株式会社,,株式会社,東京都,品川区,北品川３丁目３番６－９０１号,,13,109,1400001,,,,,,,2025-07-23,1,,,,,ファンエステート,0
2011,8010703007812,新規,0,2025-07-23,2025-07-23,合同会社彩肌,,合同会社,東京都,品川区,西大井２丁目１９番８号,,13,109,1400015,,,,,,,2025-07-23,1,,,,,サイキ,0
2016,8010903010104,新規,0,2025-07-23,2025-07-23,合同会社ヴェクティ・ジャパン,,合同会社,東京都,世田谷区,玉川３丁目１番１８号,,13,112,1580094,,,,,,,2025-07-23,1,,,,,ヴェクティジャパン,0
2017,8010903010112,新規,0,2025-07-23,2025-07-23,合同会社Ｗｏｒｔｈｐａｃｅ．,,合同会社,東京都,世田谷区,駒沢２丁目８番９号駒沢センターハイツ２０２,,13,112,1540012,,,,,,,2025-07-23,1,,,,,ワースペース,0
2022,8011001170708,新規,0,2025-07-23,2025-07-23,株式会社Ｏ‐Ｃｒｅｗ,,株式会社,東京都,目黒区,中央町１丁目６番１号,,13,110,1520001,,,,,,,2025-07-23,1,,,,,オークルー,0
2023,8011001170947,新規,0,2025-07-23,2025-07-23,株式会社Ｐ．Ａ．Ｒ．,,株式会社,東京都,渋谷区,円山町５番３号ＭＩＥＵＸ渋谷ビル８階,,13,113,1500044,,,,,,,2025-07-23,1,,,,,パー,0
2024,8011001170971,新規,0,2025-07-23,2025-07-23,ＴＭＴＨＲパートナーズ株式会社,,株式会社,東京都,渋谷区,恵比寿西２丁目４番８号ウィンド恵比寿ビル８Ｆ,,13,113,1500021,,,,,,,2025-07-23,1,,,,,ティーエムティエイチアールパートナーズ,0
2028,8011101112436,新規,0,2025-07-23,2025-07-23,日本補助金支援機構株式会社,,株式会社,東京都,新宿区,新宿２丁目１２番１３号新宿アントレサロンビル２階,,13,104,1600022,,,,,,,2025-07-23,1,,,,,ニホンホジョキンシエンキコウ,0
2029,8011101112460,新規,0,2025-07-23,2025-07-23,株式会社Ｇｏｌｄ　Ｐｌｅａｓｕｒｅ　Ｇｒｏｕｐ,,株式会社,東京都,新宿区,新宿７丁目１２番９号宮庭東新宿ビル９０２号,,13,104,1600022,,,,,,,2025-07-23,1,,,,,ゴールドプレジャーグループ,0
2030,8011101112502,新規,0,2025-07-23,2025-07-23,株式会社スプラウト,,株式会社,東京都,新宿区,新宿５丁目１７番１８号,,13,104,1600022,,,,,,,2025-07-23,1,,,,,スプラウト,0
2031,8011101112601,新規,0,2025-07-23,2025-07-23,チンクエチェント株式会社,,株式会社,東京都,新宿区,新宿２丁目１２番１３号新宿アントレサロンビル２階,,13,104,1600022,,,,,,,2025-07-23,1,,,,,チンクエチェント,0
2032,8011103016107,新規,0,2025-07-23,2025-07-23,どこでも電話合同会社,,合同会社,東京都,新宿区,新宿１丁目３６番２号新宿第七葉山ビル３階,,13,104,1600022,,,,,,,2025-07-23,1,,,,,ドコデモデンワ,0
2033,8011103016164,新規,0,2025-07-23,2025-07-23,合同会社Ｒｏｕｔｅ６６Ｓｈｉｓｈａ,,合同会社,東京都,新宿区,西新宿８丁目１１番１０号,,13,104,1600023,,,,,,,2025-07-23,1,,,,,ルートシックスティシックスシーシャ,0
2036,8011301030751,新規,0,2025-07-23,2025-07-23,株式会社リーステック,,株式会社,東京都,杉並区,成田東２丁目１４番９号,,13,115,1660015,,,,,,,2025-07-23,1,,,,,リーステック,0
2043,8012701018980,新規,0,2025-07-23,2025-07-23,盛禾園株式会社,,株式会社,東京都,東村山市,萩山町１丁目３８番地１,,13,213,1890012,,,,,,,2025-07-23,1,,,,,セイカエン,0
2045,8012803003798,新規,0,2025-07-23,2025-07-23,ＧＬＵＥ合同会社,,合同会社,東京都,国立市,中２丁目１７番１０号,,13,215,1860004,,,,,,,2025-07-23,1,,,,,グルー,0
2053,8020001164009,新規,0,2025-07-23,2025-07-23,株式会社二宮商事,,株式会社,神奈川県,横浜市旭区,今川町２５番地,,14,112,2410033,,,,,,,2025-07-23,1,,,,,ニノミヤショウジ,0
2057,8021001085847,新規,0,2025-07-23,2025-07-23,株式会社サロン・シンフォニー,,株式会社,神奈川県,鎌倉市,常盤１８番地４、７０８号,,14,204,2480022,,,,,,,2025-07-23,1,,,,,サロンシンフォニー,0
2058,8021001085888,新規,0,2025-07-23,2025-07-23,株式会社ＲＥＩ工務店,,株式会社,神奈川県,相模原市南区,上鶴間本町８丁目４６番３２号イリマＥ,,14,153,2520318,,,,,,,2025-07-23,1,,,,,レイコウムテン,0
2059,8021001085896,新規,0,2025-07-23,2025-07-23,株式会社たねはな,,株式会社,神奈川県,藤沢市,亀井野１６１９番地の１５,,14,205,2520813,,,,,,,2025-07-23,1,,,,,タネハナ,0
2062,8021003016305,新規,0,2025-07-23,2025-07-23,ＳＡＮＤ合同会社,,合同会社,神奈川県,鎌倉市,大船１９３５－１,,14,204,2470056,,,,,,,2025-07-23,1,,,,,サンド,0
2071,8030001167753,新規,0,2025-07-23,2025-07-23,青梧堂株式会社,,株式会社,埼玉県,川口市,中青木４丁目２２番７－１０号,,11,203,3320032,,,,,,,2025-07-23,1,,,,,セイゴドウ,0
2072,8030001167761,新規,0,2025-07-23,2025-07-23,株式会社ＺＥＮＩＴＹ,,株式会社,埼玉県,さいたま市浦和区,北浦和２丁目６－１１,,11,107,3300074,,,,,,,2025-07-23,1,,,,,ゼニティ,0
2078,8040001139768,新規,0,2025-07-23,2025-07-23,株式会社ＳＯＳＨＩＪＩ,,株式会社,千葉県,長生郡一宮町,一宮１５番地６Ｌｏａｐｌａｔａ大塚Ｄ号室,,12,421,2994301,,,,,,,2025-07-23,1,,,,,ソシジ,0
2079,8040001139776,新規,0,2025-07-23,2025-07-23,株式会社Ｄｒｅｓｅｏ,,株式会社,千葉県,千葉市稲毛区,宮野木町１８３２―３,,12,103,2630054,,,,,,,2025-07-23,1,,,,,ドレセオ,0
2081,8050003009448,新規,0,2025-07-23,2025-07-23,合同会社かすみがうら歩崎公園,,合同会社,茨城県,かすみがうら市,坂字長峰９３４番地１,,08,230,3000214,,,,,,,2025-07-23,1,,,,,カスミガウラアユミザキコウエン,0
2083,8060001038415,新規,0,2025-07-23,2025-07-23,株式会社樹ワークス,,株式会社,栃木県,小山市,大字東黒田２１８番地８,,09,208,3290204,,,,,,,2025-07-23,1,,,,,イッキワークス,0
2088,8070001043166,新規,0,2025-07-23,2025-07-23,ＧＲＥＥＮ　ＷＯＲＬＤ株式会社,,株式会社,群馬県,伊勢崎市,赤堀今井町２丁目１２３６－２１ピノヴィラッジオＡ１０１,,10,204,3792215,,,,,,,2025-07-23,1,,,,,グリーンワルド,0
2100,8110005017252,新規,0,2025-07-23,2025-07-23,税理士法人今井・平澤会計,,その他の設立登記法人,新潟県,長岡市,左近２丁目１１７番地,,15,202,9401161,,,,,,,2025-07-23,1,,,,,イマイヒラサワカイケイ,0
2110,8120001278013,新規,0,2025-07-23,2025-07-23,株式会社ＣＯＰＡＮ　ＧＬＯＢＡＬ　ＪＡＰＡＮ,,株式会社,大阪府,大阪市生野区,中川５丁目７番６号,,27,116,5440005,,,,,,,2025-07-23,1,,,,,コパングローバルジャパン,0
2111,8120001278070,新規,0,2025-07-23,2025-07-23,登高株式会社,,株式会社,大阪府,大阪市浪速区,難波中３丁目５番１７号ＦｏｒＹｏｕなんばビル４Ｆ,,27,111,5560011,,,,,,,2025-07-23,1,,,,,トウコウ,0
2117,8120003030017,新規,0,2025-07-23,2025-07-23,合同会社エンパワー,,合同会社,大阪府,大阪市北区,梅田１丁目２番２号大阪駅前第２ビル１２－１２,,27,127,5300001,,,,,,,2025-07-23,1,,,,,エンパワー,0
2118,8120003030058,新規,0,2025-07-23,2025-07-23,ＳＰ　ＥＳＳ３合同会社,,合同会社,大阪府,大阪市中央区,南船場２丁目６－３第２ＢＳビル６０１号室,,27,128,5420081,,,,,,,2025-07-23,1,,,,,エスピーイーエスエススリー,0
2119,8120003030082,新規,0,2025-07-23,2025-07-23,合同会社ティーエス,,合同会社,大阪府,大阪市住之江区,北島２丁目８番９－６１０号,,27,125,5590014,,,,,,,2025-07-23,1,,,,,ティーエス,0
2121,8120005025048,新規,0,2025-07-23,2025-07-23,特定非営利活動法人ＩＳ,,その他の設立登記法人,大阪府,大阪市此花区,北港緑地１丁目１番１８号,,27,104,5540042,,,,,,,2025-07-23,1,,,,,アイエス,0
2123,8120101072142,新規,0,2025-07-23,2025-07-23,株式会社サンホームズ,,株式会社,大阪府,貝塚市,堀３丁目２０番１０号,,27,208,5970015,,,,,,,2025-07-23,1,,,,,サンホームズ,0
2124,8120101072150,新規,0,2025-07-23,2025-07-23,株式会社Ａ．Ｊ,,株式会社,大阪府,堺市東区,白鷺町３丁１３番３３号,,27,143,5998107,,,,,,,2025-07-23,1,,,,,エージェイ,0
2131,8130001080087,新規,0,2025-07-23,2025-07-23,バリューアッドマネージメント株式会社,,株式会社,京都府,京都市中京区,東洞院通御池下る笹屋町４３６番地２,,26,104,6048187,,,,,,,2025-07-23,1,,,,,バリューアッドマネージメント,0
2132,8130001080137,新規,0,2025-07-23,2025-07-23,株式会社はちまんエステート,,株式会社,京都府,京田辺市,山手南２丁目２０番地１１６,,26,211,6100354,,,,,,,2025-07-23,1,,,,,ハチマンエステート,0
2133,8130001080145,新規,0,2025-07-23,2025-07-23,株式会社ＡＵプロパティ,,株式会社,京都府,京都市中京区,河原町通御池下る下丸屋町３９０番地２ＱＵＥＳＴＩＯＮ内,,26,104,6048006,,,,,,,2025-07-23,1,,,,,エーユープロパティ,0
2137,8130003010620,新規,0,2025-07-23,2025-07-23,ＴＲＹＥＬＥＡＤ合同会社,,合同会社,京都府,相楽郡精華町,狛田２丁目１０番地１グラシアネオ３０３号,,26,366,6190247,,,,,,,2025-07-23,1,,,,,トライエリード,0
2140,8140001139353,新規,0,2025-07-23,2025-07-23,株式会社ウィモア,,株式会社,兵庫県,神戸市中央区,磯辺通１丁目１番１８号,,28,110,6510084,,,,,,,2025-07-23,1,,,,,ウィモア,0
2142,8140003022243,新規,0,2025-07-23,2025-07-23,合同会社Ｊｏｉｎ　Ａｓｓｉｓｔ　ＨＡＮＺＯ,,合同会社,兵庫県,西脇市,大木町８９－２,,28,213,6770001,,,,,,,2025-07-23,1,,,,,ジョインアシストハンゾー,0
2143,8140003022326,新規,0,2025-07-23,2025-07-23,合同会社オクトパスクリーンズ,,合同会社,兵庫県,明石市,魚住町長坂寺１３５５番地の９,,28,203,6740072,,,,,,,2025-07-23,1,,,,,オクトパスクリーンズ,0
2150,8180001167581,新規,0,2025-07-23,2025-07-23,ＦＵＫＡＹＡ　Ｌｉｖｉｎｇ　Ｈｏｌｄｉｎｇｓ株式会社,,株式会社,愛知県,名古屋市名東区,上社４丁目１６２番地,,23,115,4650025,,,,,,,2025-07-23,1,,,,,フカヤリビングホールディングス,0
2171,8230001021007,新規,0,2025-07-23,2025-07-23,株式会社Ｓ２,,株式会社,富山県,富山市,婦中町上轡田６７１番地４,,16,201,9392713,,,,,,,2025-07-23,1,,,,,エスニ,0
2173,8240001065250,新規,0,2025-07-23,2025-07-23,株式会社ＬｅＡＩＬＥ,,株式会社,広島県,広島市中区,大手町３丁目２番１９号パーソンライフビル２Ｆ,,34,101,7300051,,,,,,,2025-07-23,1,,,,,ルエイル,0
2174,8240001065259,新規,0,2025-07-23,2025-07-23,株式会社ＣＥＬＬ,,株式会社,広島県,福山市,加茂町字粟根９３６番地１,,34,207,7202416,,,,,,,2025-07-23,1,,,,,セル,0
2176,8240003007317,新規,0,2025-07-23,2025-07-23,合同会社ＮＥＯＷＡＹＳ,,合同会社,広島県,広島市佐伯区,杉並台１９番地１８,,34,108,7380514,,,,,,,2025-07-23,1,,,,,ネオウェイズ,0
2178,8240005015961,新規,0,2025-07-23,2025-07-23,一般社団法人ガスケ・ジャパン,,その他の設立登記法人,広島県,広島市西区,己斐上２丁目４２－１３,,34,104,7330815,,,,,,,2025-07-23,1,,,,,ガスケジャパン,0
2180,8250001021260,新規,0,2025-07-23,2025-07-23,株式会社Ｌ・Ｈ・Ｙエンジニアリング,,株式会社,山口県,岩国市,楠町３丁目１１番２３号,,35,208,7400028,,,,,,,2025-07-23,1,,,,,エルエイチワイエンジニアリング,0
2183,8270003001770,新規,0,2025-07-23,2025-07-23,合同会社Ｎ’ｓ,,合同会社,鳥取県,米子市,車尾５丁目２番１０号,,31,202,6830006,,,,,,,2025-07-23,1,,,,,エヌズ,0
2195,8290803005110,新規,0,2025-07-23,2025-07-23,みげーるねっと合同会社,,合同会社,福岡県,北九州市門司区,上二十町３－２０,,40,101,8000016,,,,,,,2025-07-23,1,,,,,ミゲールネット,0
2198,8320005010252,新規,0,2025-07-23,2025-07-23,すばる税理士法人,,その他の設立登記法人,大分県,大分市,中島西３丁目７番９号ナイスモア中島２０１,,44,201,8700047,,,,,,,2025-07-23,1,,,,,スバル,0
2201,8340003004907,新規,0,2025-07-23,2025-07-23,合同会社ネイル＆エステサロンラッピーハート,,合同会社,鹿児島県,鹿児島市,桜ヶ丘７丁目９番地１０,,46,201,8900075,,,,,,,2025-07-23,1,,,,,ネイルアンドエステサロンラッピーハート,0
2205,8360001035514,新規,0,2025-07-23,2025-07-23,株式会社ネオプランニング,,株式会社,沖縄県,那覇市,おもろまち３丁目７番１０号,,47,201,9000006,,,,,,,2025-07-23,1,,,,,ネオプランニング,0
2206,8360001035522,新規,0,2025-07-23,2025-07-23,株式会社Ｈａｌｅ　ＡＲＡＫＡＫＩ,,株式会社,沖縄県,那覇市,字安里８１番地,,47,201,9020067,,,,,,,2025-07-23,1,,,,,ハレアラカキ,0
2209,8380001035479,新規,0,2025-07-23,2025-07-23,ユナイテッド・アセット株式会社,,株式会社,福島県,西白河郡西郷村,大字小田倉字稗返１番地,,07,461,9618061,,,,,,,2025-07-23,1,,,,,ユナイテッドアセット,0
2211,8380005012978,新規,0,2025-07-23,2025-07-23,一般社団法人奥会津遺産機構,,その他の設立登記法人,福島県,河沼郡柳津町,大字柳津字寺家町甲１７６番地３,,07,423,9697201,,,,,,,2025-07-23,1,,,,,オクアイヅイサンキコウ,0
2221,8470001020810,新規,0,2025-07-23,2025-07-23,シュマルク株式会社,,株式会社,香川県,高松市,国分寺町新名８７４番地４,,37,201,7690104,,,,,,,2025-07-23,1,,,,,,0
2223,8700150131459,新規,0,2025-07-23,2025-07-23,Ｃｈｏｎｇｑｉｎｇ　Ｘｉｌａｉｙｕａｎ　Ｔｅｃｈｎｏｌｏｇｙ　Ｃｏ．，Ｌｔｄ．,,外国会社等,,,,,,,,２２－３，Ｂｕｉｌｄｉｎｇ　Ｂ，Ｕｎｉｔ　３，Ｎｏ．７０　Ｈｕａｎｇｓｈａｎ　Ａｖｅｎｕｅ（Ｍｉｄｄｌｅ　Ｓｅｃｔｉｏｎ），Ｌｉａｎｇｊｉａｎｇ　Ｎｅｗ　Ａｒｅａ，Ｃｈｏｎｇｑｉｎｇ　４０１１２１，Ｃｈｉｎａ,,,,,,2025-07-23,1,,,,,ジョンチンシーライユエンコージーヨウシエンゴンスー,0
2230,9010001256739,新規,0,2025-07-23,2025-07-23,株式会社ＷａｔａＳｅｌｉｃａ,,株式会社,東京都,中央区,新富町一丁目１４番１０号ＢｉｚＦｅｅｌＧｉｎｚａＥａｓｔ７Ｆ,,13,102,1030000,,,,,,,2025-07-23,1,,,,,ワタセリカ,0
2231,9010003048052,新規,0,2025-07-23,2025-07-23,ＹＳＢＨ合同会社,,合同会社,東京都,中央区,日本橋１丁目４番１号,,13,102,1030027,,,,,,,2025-07-23,1,,,,,ワイエスビーエイチ,0
2233,9010005040370,新規,0,2025-07-23,2025-07-23,一般社団法人Ｖ西麻布,,その他の設立登記法人,東京都,千代田区,霞が関３丁目２番５号,,13,101,1000013,,,,,,,2025-07-23,1,,,,,ブイニシアザブ,0
2234,9010005040412,新規,0,2025-07-23,2025-07-23,コブシ特定目的会社,,その他の設立登記法人,東京都,千代田区,丸の内１丁目１１番１号パシフィックセンチュリープレイス丸の内１７階,,13,101,1000005,,,,,,,2025-07-23,1,,,,,コブシ,0
2253,9010503007920,新規,0,2025-07-23,2025-07-23,合同会社翡翠,,合同会社,東京都,台東区,元浅草１丁目６番１２号,,13,106,1110041,,,,,,,2025-07-23,1,,,,,ヒスイ,0
2254,9010601067668,新規,0,2025-07-23,2025-07-23,ＳｋｙＸ株式会社,,株式会社,東京都,墨田区,太平３丁目１８番５号２階,,13,107,1300012,,,,,,,2025-07-23,1,,,,,スカイエックス,0
2255,9010603011698,新規,0,2025-07-23,2025-07-23,合同会社ＲＡＭＳ,,合同会社,東京都,江東区,枝川２丁目５番１２－２０７号,,13,108,1350051,,,,,,,2025-07-23,1,,,,,ラムズ,0
2256,9010701048007,新規,0,2025-07-23,2025-07-23,株式会社Ｔ,,株式会社,東京都,品川区,南大井３丁目１７番２号ＲＪＲプレシア大森９０２,,13,109,1400013,,,,,,,2025-07-23,1,,,,,ティー,0
2260,9010901057757,新規,0,2025-07-23,2025-07-23,株式会社ＴＨＡ　ｓｏｕｎｄ,,株式会社,東京都,世田谷区,太子堂４丁目１８番１５号マガザン三軒茶屋２－３Ｆ－３,,13,112,1540004,,,,,,,2025-07-23,1,,,,,ティーエイチエーサウンド,0
2269,9011101112476,新規,0,2025-07-23,2025-07-23,株式会社青藍,,株式会社,東京都,新宿区,若宮町１１番地１,,13,104,1620827,,,,,,,2025-07-23,1,,,,,セイラン,0
2270,9011101112484,新規,0,2025-07-23,2025-07-23,株式会社ネクストオート,,株式会社,東京都,新宿区,新宿５丁目１１番１３号富士新宿ビル４Ｆ,,13,104,1600022,,,,,,,2025-07-23,1,,,,,ネクストオート,0
2272,9011201026527,新規,0,2025-07-23,2025-07-23,株式会社花テラス,,株式会社,東京都,中野区,弥生町２丁目２７番１０号ＮＫビル,,13,114,1640013,,,,,,,2025-07-23,1,,,,,ハナテラス,0
2282,9012401043386,新規,0,2025-07-23,2025-07-23,株式会社ＳＪＢＣ＆Ｃｏｍｐａｎｙ,,株式会社,東京都,三鷹市,新川４丁目２５番１３－５０３号,,13,204,1810004,,,,,,,2025-07-23,1,,,,,エスジェイビーシーアンドカンパニー,0
2287,9013301054639,新規,0,2025-07-23,2025-07-23,株式会社ウイナーズクラブ,,株式会社,東京都,豊島区,西巣鴨１丁目３番２号,,13,116,1700001,,,,,,,2025-07-23,1,,,,,ウイナーズクラブ,0
2288,9013301054655,新規,0,2025-07-23,2025-07-23,福縁株式会社,,株式会社,東京都,豊島区,池袋３丁目３４番１３号,,13,116,1710014,,,,,,,2025-07-23,1,,,,,フクエン,0
2290,9020001069925,新規,0,2025-07-23,2025-07-23,日興商工株式会社,,株式会社,神奈川県,川崎市中原区,下沼部１８８６番地,,14,133,2110011,,,,,,,2025-07-23,1,,,,,,0
2293,9020001163967,新規,0,2025-07-23,2025-07-23,株式会社Ｐｃａｌａｓ,,株式会社,神奈川県,横浜市青葉区,もえぎ野２４番地５２,,14,117,2270044,,,,,,,2025-07-23,1,,,,,プカラス,0
2296,9021001085846,新規,0,2025-07-23,2025-07-23,プロステップホールディングス株式会社,,株式会社,神奈川県,茅ヶ崎市,東海岸南２丁目６番９－４０２号,,14,207,2530054,,,,,,,2025-07-23,1,,,,,プロステップホールディングス,0
2297,9021001085854,新規,0,2025-07-23,2025-07-23,株式会社ＩＮＥＸサスティナブルワークス,,株式会社,神奈川県,厚木市,妻田南１丁目１６番１６号,,14,212,2430814,,,,,,,2025-07-23,1,,,,,アイネックスサスティナブルワークス,0
2298,9021001085862,新規,0,2025-07-23,2025-07-23,株式会社シノダ,,株式会社,神奈川県,大和市,下鶴間１８４１番地,,14,213,2420001,,,,,,,2025-07-23,1,,,,,シノダ,0
2299,9021001085870,新規,0,2025-07-23,2025-07-23,株式会社Ｙｕ　Ｎｉｓｈｉｍｕｒａ　Ｓｔｕｄｉｏ,,株式会社,神奈川県,大和市,中央林間３丁目２４番１８号,,14,213,2420007,,,,,,,2025-07-23,1,,,,,ユーニシムラスタジオ,0
2300,9021001085887,新規,0,2025-07-23,2025-07-23,株式会社耀建装,,株式会社,神奈川県,座間市,相模が丘５丁目２５番２号グランドール相模が丘３０８,,14,216,2520001,,,,,,,2025-07-23,1,,,,,カガヤキケンソウ,0
2312,9030001167637,新規,0,2025-07-23,2025-07-23,ＲＣエンジニアリング株式会社,,株式会社,埼玉県,東松山市,元宿１丁目６番地６,,11,212,3550063,,,,,,,2025-07-23,1,,,,,アールシーエンジニアリング,0
2313,9030001167703,新規,0,2025-07-23,2025-07-23,株式会社ＦＮＳ,,株式会社,埼玉県,幸手市,中５丁目１８番１９号,,11,240,3400115,,,,,,,2025-07-23,1,,,,,エフエヌエス,0
2314,9030001167736,新規,0,2025-07-23,2025-07-23,ＴＡＫＡＤＥＮ株式会社,,株式会社,埼玉県,さいたま市岩槻区,宮町２丁目１番１３号,,11,110,3390065,,,,,,,2025-07-23,1,,,,,タカデン,0
2315,9030001167752,新規,0,2025-07-23,2025-07-23,株式会社ヤマケン,,株式会社,埼玉県,狭山市,大字上赤坂１８７１番１８,,11,215,3501313,,,,,,,2025-07-23,1,,,,,ヤマケン,0
2316,9030001167760,新規,0,2025-07-23,2025-07-23,ＫＮＣプラス株式会社,,株式会社,埼玉県,さいたま市浦和区,領家１丁目８番１４号,,11,107,3300072,,,,,,,2025-07-23,1,,,,,ケーエヌシープラス,0
2319,9030003027228,新規,0,2025-07-23,2025-07-23,ＬＵＭＢＩＮＩ　ＡＳＩＡＮ合同会社,,合同会社,埼玉県,川口市,並木３丁目６番１３号,,11,203,3320034,,,,,,,2025-07-23,1,,,,,ルンビニアジアン,0
2320,9030003027269,新規,0,2025-07-23,2025-07-23,合同会社ＳＫサポート,,合同会社,埼玉県,さいたま市浦和区,瀬ヶ崎１丁目１３－１０,,11,107,3300044,,,,,,,2025-07-23,1,,,,,エスケイサポート,0
2326,9040001139577,新規,0,2025-07-23,2025-07-23,株式会社フライズホールディングス,,株式会社,千葉県,柏市,柏４丁目２番１号,,12,217,2770005,,,,,,,2025-07-23,1,,,,,フライズホールディングス,0
2327,9040001139767,新規,0,2025-07-23,2025-07-23,株式会社Ｂｒｉｎｇ,,株式会社,千葉県,匝瑳市,椿１６６３番地１６,,12,235,2892102,,,,,,,2025-07-23,1,,,,,ブリング,0
2328,9040001139775,新規,0,2025-07-23,2025-07-23,フルパーク株式会社,,株式会社,千葉県,八千代市,八千代台西１０丁目３１―５,,12,221,2760034,,,,,,,2025-07-23,1,,,,,フルパーク,0
2334,9070001043165,新規,0,2025-07-23,2025-07-23,株式会社ＨＡＭＤＡＲＤ　ＴＲＡＤＩＮＧ,,株式会社,群馬県,伊勢崎市,境下武士２５９２番地ハイツナカジマＤ２０２,,10,204,3700126,,,,,,,2025-07-23,1,,,,,ハムダルドトレーディング,0
2350,9110005017251,新規,0,2025-07-23,2025-07-23,行政書士法人あおぞら行政書士事務所,,その他の設立登記法人,新潟県,新潟市西蒲区,巻甲４１６２番地３第２星武ビル２Ｆ,,15,108,9530041,,,,,,,2025-07-23,1,,,,,アオゾラギョウセイショシジムショ,0
2363,9120001278061,新規,0,2025-07-23,2025-07-23,三生株式会社,,株式会社,大阪府,大阪市港区,築港１丁目５番２９号,,27,107,5520021,,,,,,,2025-07-23,1,,,,,サンショウ,0
2364,9120001278094,新規,0,2025-07-23,2025-07-23,知世株式会社,,株式会社,大阪府,大阪市西区,九条３丁目１７番１４号,,27,106,5500027,,,,,,,2025-07-23,1,,,,,チセ,0
2365,9120001278144,新規,0,2025-07-23,2025-07-23,ＴＯＧＡＲＩ株式会社,,株式会社,大阪府,大阪市北区,梅田１丁目２番２号大阪駅前第２ビル１２‐１２,,27,127,5300001,,,,,,,2025-07-23,1,,,,,トガリ,0
2368,9120003030073,新規,0,2025-07-23,2025-07-23,日本徳路医薬合同会社,,合同会社,大阪府,大阪市西区,南堀江３丁目１２番３号１０２,,27,106,5500015,,,,,,,2025-07-23,1,,,,,ニホントクロイヤク,0
2369,9120003030098,新規,0,2025-07-23,2025-07-23,合同会社ボールドイーグル,,合同会社,大阪府,大阪市中央区,博労町３丁目５番１号,,27,128,5410059,,,,,,,2025-07-23,1,,,,,ボールドイーグル,0
2371,9120101072133,新規,0,2025-07-23,2025-07-23,大鵬国際株式会社,,株式会社,大阪府,堺市堺区,宿院町西３丁２－１４－１００３号室,,27,141,5900958,,,,,,,2025-07-23,1,,,,,タイホウコクサイ,0
2374,9122001039443,新規,0,2025-07-23,2025-07-23,株式会社スタジオ練良堂,,株式会社,大阪府,八尾市,東山本町１丁目４番９号,,27,212,5810847,,,,,,,2025-07-23,1,,,,,スタジオネラドウ,0
2377,9130001080160,新規,0,2025-07-23,2025-07-23,株式会社稔里,,株式会社,京都府,京都市右京区,太秦門田町１５番地１ルシエル太秦４１１,,26,108,6168117,,,,,,,2025-07-23,1,,,,,ミノリ,0
2381,9140001139336,新規,0,2025-07-23,2025-07-23,ラナイコーポレーション株式会社,,株式会社,兵庫県,伊丹市,安堂寺町６丁目１２７番地,,28,207,6640864,,,,,,,2025-07-23,1,,,,,ラナイコーポレーション,0
2382,9140001139344,新規,0,2025-07-23,2025-07-23,宏峰株式会社,,株式会社,兵庫県,神戸市中央区,下山手通５丁目８－１４山手ダイヤハイツＢ棟５０７号,,28,110,6500011,,,,,,,2025-07-23,1,,,,,コウホウ,0
2383,9140001139352,新規,0,2025-07-23,2025-07-23,株式会社オカモトトレーディング,,株式会社,兵庫県,たつの市,誉田町誉４３番地２,,28,229,6794133,,,,,,,2025-07-23,1,,,,,オカモトトレーディング,0
2392,9150003003662,新規,0,2025-07-23,2025-07-23,合同会社ランディ大垣,,合同会社,奈良県,橿原市,大垣町２８２番地の１,,29,205,6340841,,,,,,,2025-07-23,1,,,,,ランディオオガキ,0
2401,9180001167580,新規,0,2025-07-23,2025-07-23,株式会社丸周開発,,株式会社,愛知県,瀬戸市,東赤重町１丁目６１番地,,23,204,4890877,,,,,,,2025-07-23,1,,,,,マルシュウカイハツ,0
2408,9190001032420,新規,0,2025-07-23,2025-07-23,株式会社宝仙,,株式会社,三重県,津市,新町１丁目５番２２号,,24,201,5140042,,,,,,,2025-07-23,1,,,,,ホウセン,0
2411,9200001044059,新規,0,2025-07-23,2025-07-23,株式会社Ｒａｓｈｅｅｋ,,株式会社,岐阜県,瑞穂市,馬場春雨町１丁目４４番地１アーバン藤３０５,,21,216,5010204,,,,,,,2025-07-23,1,,,,,ラシーク,0
2418,9240001065266,新規,0,2025-07-23,2025-07-23,株式会社総合美装ｈｉｒｏｓｈｉｍａ,,株式会社,広島県,広島市西区,南観音町３番２９号,,34,104,7330034,,,,,,,2025-07-23,1,,,,,ソウゴウビソウヒロシマ,0
2419,9240003007316,新規,0,2025-07-23,2025-07-23,モードカスタム合同会社,,合同会社,広島県,広島市安佐北区,口田南１丁目８番３８号,,34,106,7391733,,,,,,,2025-07-23,1,,,,,モードカスタム,0
2424,9260003005268,新規,0,2025-07-23,2025-07-23,倉爽合同会社,,合同会社,岡山県,岡山市南区,福吉町６－４,,33,104,7028048,,,,,,,2025-07-23,1,,,,,クラソウ,0
2427,9280005007665,新規,0,2025-07-23,2025-07-23,一般社団法人オービタルＱＴ研究所,,その他の設立登記法人,島根県,安来市,広瀬町東比田９８５番地,,32,206,6920733,,,,,,,2025-07-23,1,,,,,オービタルキューティーケンキュウショ,0
2438,9330003011119,新規,0,2025-07-23,2025-07-23,合同会社きらり,,合同会社,熊本県,上益城郡嘉島町,大字上仲間７８３－１,,43,442,8613107,,,,,,,2025-07-23,1,,,,,キラリ,0
2441,9350003004979,新規,0,2025-07-23,2025-07-23,合同会社Ｅ‐ＢＲＥＥＺＥ,,合同会社,宮崎県,北諸県郡三股町,大字樺山１３１３番地１,,45,341,8891901,,,,,,,2025-07-23,1,,,,,イーブリーズ,0
2442,9370001052862,新規,0,2025-07-23,2025-07-23,三和不動産株式会社,,株式会社,宮城県,仙台市泉区,向陽台２丁目５番１４号,,04,105,9813102,,,,,,,2025-07-23,1,,,,,サンワフドウサン,0
2444,9380003006097,新規,0,2025-07-23,2025-07-23,合同会社ＫＡＭＵＲＡ,,合同会社,福島県,郡山市,安積町長久保２丁目１番地の２市営住宅１－１－３０４,,07,203,9630105,,,,,,,2025-07-23,1,,,,,カムラ,0
2446,9410003004130,新規,0,2025-07-23,2025-07-23,合同会社ｌｉｌｉｔｕ,,合同会社,秋田県,仙北市,角館町下菅沢２６番地５,,05,215,0140366,,,,,,,2025-07-23,1,,,,,リリトゥ,0
2456,9430001094857,新規,0,2025-07-23,2025-07-23,株式会社Ｇ・ｓａｌｅｓ・ＴＡＫＡ,,株式会社,北海道,日高郡新ひだか町,静内目名４８０番地１,,01,610,0560001,,,,,,,2025-07-23,1,,,,,ジーセイルスタカ,0
2457,9430001094873,新規,0,2025-07-23,2025-07-23,株式会社三伸,,株式会社,北海道,登別市,新川町４丁目３番地１８,,01,230,0590015,,,,,,,2025-07-23,1,,,,,サンシン,0
2459,9430003017865,新規,0,2025-07-23,2025-07-23,北海国際合同会社,,合同会社,北海道,札幌市北区,新川二条６丁目８－５,,01,102,0010922,,,,,,,2025-07-23,1,,,,,ホッカイコクサイ,0
2460,9430003017931,新規,0,2025-07-23,2025-07-23,合同会社ＳＴＵ,,合同会社,北海道,札幌市中央区,南十一条西１４丁目２番１２号,,01,101,0640811,,,,,,,2025-07-23,1,,,,,エスティーユー,0
2461,9450001014680,新規,0,2025-07-23,2025-07-23,株式会社遠森,,株式会社,北海道,上川郡愛別町,字協和１１７２番地,,01,456,0781414,,,,,,,2025-07-23,1,,,,,トオモリ,0
2463,9460101007732,新規,0,2025-07-23,2025-07-23,株式会社ラクネス,,株式会社,北海道,上川郡清水町,北三条３丁目５番地１,,01,636,0890133,,,,,,,2025-07-23,1,,,,,ラクネス,0
2468,9470003002938,新規,0,2025-07-23,2025-07-23,合同会社Ｒ．Ｓ．Ｋ．サービス,,合同会社,香川県,高松市,中山町１００４番地１,,37,201,7618004,,,,,,,2025-07-23,1,,,,,アールエスケーサービス,0
2469,9500001026431,新規,0,2025-07-23,2025-07-23,株式会社藤森造船,,株式会社,愛媛県,今治市,宮窪町宮窪２４０８番地,,38,202,7942203,,,,,,,2025-07-23,1,,,,,フジモリゾウセン,0
2470,9700150131458,新規,0,2025-07-23,2025-07-23,ＣｈｏｎｇＱｉｎｇＪｉｎｇＳｈｅｎｇＭａｏＹｉＹｏｕＸｉａｎＧｏｎｇＳｉ,,外国会社等,,,,,,,,Ｎｏ．２６７，４－４＃，Ｎｏ．４６　Ｊｉａｎｋａｎｇ　Ｒｏａｄ，Ｙｕｚｈｏｎｇ　Ｄｉｓｔｒｉｃｔ，Ｃｈｏｎｇｑｉｎｇ,,,,,,2025-07-23,1,,,,,ジョンチンジンションマオイーヨウシエンゴンスー,0
2471,9700150131474,新規,0,2025-07-23,2025-07-23,ｃａｎｇｚｈｏｕ　ｓｏｎｇｃｉ　ｅ－ｃｏｍｍｅｒｃｅ　ｃｏ．，ｌｔｄ,,外国会社等,,,,,,,,１４０９，Ｙｉｈｅ　Ｂｕｉｌｄｉｎｇ，Ｊｉｅｆａｎｇ　Ｗｅｓｔ　Ｒｏａｄ，Ｙｕｎｈｅ　Ｄｉｓｔｒｉｃｔ，Ｃａｎｇｚｈｏｕ　Ｃｉｔｙ，Ｈｅｂｅｉ　Ｐｒｏｖｉｎｃｅ,,,,,,2025-07-23,1,,,,,ツアンジヨウソンツーデイエンズーシヤンウーヨウシエンゴンスー,0
