sequenceNumber,corporateNumber,process,correct,updateDate,changeDate,name,nameImageId,kind,prefectureName,cityName,streetNumber,addressImageId,prefectureCode,cityCode,postCode,addressOutside,addressOutsideImageId,closeDate,closeCause,successorCorporateNumber,changeCause,assignmentDate,latest,enName,enPrefectureName,enCityName,enAddressOutside,furigana,hihyoji
1,1010001076871,登記記録の閉鎖等,0,2023-05-18,2023-05-11,新生インベストメント・マネジメント株式会社,,株式会社,東京都,中央区,日本橋室町２丁目４番３号,,13,102,1030022,,,2023-05-11,合併による解散等,2010401045054,令和５年４月１日東京都港区六本木一丁目６番１号ＳＢＩアセットマネジメント株式会社（2010401045054）に合併し解散,2015-10-05,1,,,,,シンセイインベストメントマネジメント,0
8,1010001175327,登記記録の閉鎖等,0,2023-05-18,2023-05-08,ロックポートジャパン株式会社,,株式会社,東京都,大田区,田園調布３丁目３８番１３号,,13,111,1450071,,,2023-05-08,清算の結了等,,,2016-05-06,1,,,,,,0
22,1010401075639,登記記録の閉鎖等,0,2023-05-18,2023-05-11,ターンキー株式会社,,株式会社,東京都,中央区,新川１丁目３番２１号,,13,102,1040033,,,2023-05-11,清算の結了等,,,2015-10-05,1,,,,,ターンキー,0
44,1010901008817,登記記録の閉鎖等,0,2023-05-18,2023-05-10,ナカヨ電子サービス株式会社,,株式会社,東京都,港区,港南１丁目７番１８号,,13,103,1080075,,,2023-05-10,合併による解散等,5070001005937,令和５年４月１日群馬県前橋市総社町一丁目３番２号株式会社ナカヨ（5070001005937）に合併し解散,2015-10-05,1,,,,,ナカヨデンシサービス,0
66,1011701000451,登記記録の閉鎖等,0,2023-05-18,2023-05-15,壱岐興業株式会社,,株式会社,東京都,江戸川区,船堀１丁目１－１－１１０６号,,13,123,1340091,,,2023-05-15,清算の結了等,,,2015-10-05,1,,,,,イキコウギョウ,0
83,1020001044357,登記記録の閉鎖等,0,2023-05-18,2023-05-15,株式会社パラダイスジャパン,,株式会社,神奈川県,横浜市青葉区,新石川２丁目６番地２６,,14,117,2250003,,,2023-05-15,清算の結了等,,,2015-10-05,1,,,,,パラダイスジャパン,0
107,1030001081597,登記記録の閉鎖等,0,2023-05-18,2023-04-28,株式会社フルミチ,,株式会社,埼玉県,川口市,戸塚東２丁目２５番８号,,11,203,3330802,,,2023-04-28,清算の結了等,,,2015-10-05,1,,,,,フルミチ,0
108,1030001088238,登記記録の閉鎖等,0,2023-05-18,2023-04-28,橋本流通株式会社,,株式会社,埼玉県,行田市,栄町２３番２９号,,11,206,3610071,,,2023-04-28,清算の結了等,,,2015-10-05,1,,,,,ハシモトリュウツウ,0
109,1030001117236,登記記録の閉鎖等,0,2023-05-18,2023-04-28,株式会社Ｌ・Ｅ,,株式会社,埼玉県,川越市,東田町２４番地３０,,11,201,3501114,,,2023-04-28,清算の結了等,,,2016-11-15,1,,,,,,0
122,1040003014728,登記記録の閉鎖等,0,2023-05-18,2023-04-20,合同会社ｇｏａｂｒｏａｄ,,合同会社,千葉県,市川市,南八幡５丁目１６番１７号,,12,203,2720023,,,2023-04-20,清算の結了等,,,2020-01-23,1,,,,,ゴーアブロード,0
131,1050002015825,登記記録の閉鎖等,0,2023-05-18,2023-05-15,有限会社桧澤商会,,有限会社,茨城県,小美玉市,納場８０８番地の１１９,,08,236,3190134,,,2023-05-15,清算の結了等,,,2015-10-05,1,,,,,ヒザワショウカイ,0
135,1060005009633,登記記録の閉鎖等,0,2023-05-18,2023-05-11,一般社団法人栃木県プロモーション協会,,その他の設立登記法人,栃木県,宇都宮市,宿郷３丁目５番２３号,,09,201,3210945,,,2023-05-11,清算の結了等,,,2019-07-04,1,,,,,トチギケンプロモーションキョウカイ,0
136,1070001034576,登記記録の閉鎖等,0,2023-05-18,2023-05-15,株式会社居住支援機構,,株式会社,群馬県,高崎市,新町５４２番地４渋沢ビル,,10,202,3701301,,,2023-05-15,清算の結了等,,,2018-04-10,1,,,,,キョジュウシエンキコウ,0
145,1100002039348,登記記録の閉鎖等,0,2023-05-18,2023-05-12,有限会社五光興業,,有限会社,長野県,長野市,篠ノ井塩崎５５６６番地１,,20,201,3888014,,,2023-05-12,清算の結了等,,,2023-04-21,1,,,,,ゴコウコウギョウ,0
163,1120003012748,登記記録の閉鎖等,0,2023-05-18,2023-05-15,合同会社サザンマーケット,,合同会社,大阪府,箕面市,小野原西６丁目１５－８－３０６,,27,220,5620032,,,2023-05-15,合併による解散等,7120001124531,令和５年５月１５日大阪府豊中市上新田四丁目７番１０号株式会社ＴＭＣプランニング（7120001124531）に合併し解散,2017-05-02,1,,,,,サザンマーケット,0
175,1130005015120,登記記録の閉鎖等,0,2023-05-18,2023-05-15,一般社団法人ＫＹＯＴＯ　ＳＣＡＰＥ,,その他の設立登記法人,京都府,京都市左京区,一乗寺北大丸町９番地,,26,103,6068114,,,2023-05-15,清算の結了等,,,2017-10-17,1,,,,,キョウトスケープ,0
180,1140001093202,登記記録の閉鎖等,0,2023-05-18,2023-05-16,株式会社ベッツサポート,,株式会社,兵庫県,尼崎市,大西町３丁目１番３４号,,28,202,6610023,,,2023-05-16,清算の結了等,,,2015-10-05,1,,,,,ベッツサポート,0
190,1160001020922,登記記録の閉鎖等,0,2023-05-18,2023-05-17,梟美術株式会社,,株式会社,滋賀県,大津市,北小松１３９８番地の２,,25,201,5200501,,,2023-05-17,清算の結了等,,,2018-05-09,1,,,,,フクロウビジュツ,0
216,1240002029120,登記記録の閉鎖等,0,2023-05-18,2023-05-16,有限会社キムラックス,,有限会社,広島県,東広島市,西条中央７丁目１４番２９－Ｂ－１０２号,,34,212,7390025,,,2023-05-16,清算の結了等,,,2015-10-05,1,,,,,キムラックス,0
220,1270001000277,登記記録の閉鎖等,0,2023-05-18,2023-05-10,サイトウコンサルタント株式会社,,株式会社,鳥取県,鳥取市,千代水２丁目１２１番地２,,31,201,6800911,,,2023-05-10,合併による解散等,2270001000334,令和５年５月１０日鳥取市千代水二丁目１２１番地２株式会社アスコ（2270001000334）に合併し解散,2015-10-05,1,,,,,サイトウコンサルタント,0
237,1330001021192,登記記録の閉鎖等,0,2023-05-18,2023-05-15,株式会社川内工務店,,株式会社,熊本県,阿蘇郡西原村,大字布田８３４番地２５,,43,432,8612403,,,2023-05-15,清算の結了等,,,2015-10-05,1,,,,,カワウチコウムテン,0
256,1370202003259,登記記録の閉鎖等,0,2023-05-18,2023-05-15,有限会社藤重機,,有限会社,宮城県,大崎市,岩出山池月字下宮銘沢東４番地の２４,,04,215,9896405,,,2023-05-15,清算の結了等,,,2015-10-05,1,,,,,フジジュウキ,0
259,1390002008670,登記記録の閉鎖等,0,2023-05-18,2023-05-10,ＥＴ株式会社,,株式会社,東京都,中央区,八重洲２丁目８番７号福岡ビル９階,,13,102,1040028,,,2023-05-10,清算の結了等,,,2015-10-05,1,,,,,イーティー,0
267,1430001075105,登記記録の閉鎖等,0,2023-05-18,2023-05-01,株式会社ＲＨＹＴＨＭ　ＨＡＫＵＢＡ,,株式会社,北海道,虻田郡倶知安町,ニセコひらふ四条１丁目１番３４号,,01,400,0440087,,,2023-05-01,合併による解散等,3430001052234,令和５年５月１日北海道虻田郡倶知安町ニセコひらふ四条一丁目１番３４号株式会社ＲＨＹＴＨＭ＆ＢＥＡＴＳ（3430001052234）に合併し解散,2017-10-13,1,,,,,リズムハクバ,0
276,1470005005616,登記記録の閉鎖等,0,2023-05-18,2023-05-15,一般社団法人大和会,,その他の設立登記法人,香川県,高松市,寺井町１１２番地２,,37,201,7618085,,,2023-05-15,清算の結了等,,,2015-10-05,1,,,,,ヤマトカイ,0
320,2011001149278,登記記録の閉鎖等,0,2023-05-18,2023-04-21,三宝土地建物株式会社,,株式会社,東京都,渋谷区,渋谷１丁目７番８号,,13,113,1500002,,,2023-04-21,清算の結了等,,,2022-08-18,1,,,,,サンポウトチタテモノ,0
329,2011105007869,登記記録の閉鎖等,0,2023-05-18,2023-04-27,特定非営利活動法人ＳＰＯＯＮ　ＦＯＵＮＤＡＴＩＯＮ,,その他の設立登記法人,東京都,港区,六本木６丁目１６－１１,,13,103,1060032,,,2023-04-27,清算の結了等,,,2017-07-04,1,,,,,スプーンファンデーション,0
336,2011401005485,登記記録の閉鎖等,0,2023-05-18,2023-05-16,株式会社ファーストセレモニー,,株式会社,東京都,板橋区,志村３丁目１番１７号,,13,119,1740056,,,2023-05-16,清算の結了等,,,2015-10-05,1,,,,,ファーストセレモニー,0
338,2011501016374,登記記録の閉鎖等,0,2023-05-18,2023-05-10,株式会社Ｓ－ＬＩＮＥ,,株式会社,東京都,北区,赤羽南１丁目６番７号,,13,117,1150044,,,2023-05-10,清算の結了等,,,2015-10-05,1,,,,,エスライン,0
341,2012301005740,登記記録の閉鎖等,0,2023-05-18,2023-05-16,株式会社イフ・コーポレーション,,株式会社,東京都,町田市,金井ヶ丘２丁目２６番７号,,13,209,1950076,,,2023-05-16,清算の結了等,,,2015-10-05,1,,,,,イフコーポレーション,0
363,2020005013175,登記記録の閉鎖等,0,2023-05-18,2023-05-10,特定非営利活動法人日本－スリランカ・ガス協会,,その他の設立登記法人,神奈川県,横浜市都筑区,葛が谷７番６０５号,,14,118,2240062,,,2023-05-10,清算の結了等,,,2017-06-26,1,,,,,ニホンスリランカガスキョウカイ,0
390,2040005014469,登記記録の閉鎖等,0,2023-05-18,2023-04-27,野田市鉄工業協同組合,,その他の設立登記法人,千葉県,野田市,上三ケ尾２６１番地１１,,12,208,2780013,,,2023-04-27,清算の結了等,,,2015-10-05,1,,,,,ノダシテッコウギョウ,0
393,2060001009487,登記記録の閉鎖等,0,2023-05-18,2023-05-08,真岡ふるさと企画株式会社,,株式会社,栃木県,真岡市,荒町２丁目８番地１,,09,209,3214305,,,2023-05-08,清算の結了等,,,2015-10-05,1,,,,,モオカフルサトキカク,0
398,2080001009097,登記記録の閉鎖等,0,2023-05-18,2023-05-16,株式会社ホームエネルギー静岡,,株式会社,静岡県,静岡市清水区,七ツ新屋３７３番地,,22,103,4240066,,,2023-05-16,合併による解散等,3020001005588,令和５年４月１日横浜市旭区上白根町７２５番地株式会社ホームエネルギー西関東（3020001005588）に合併し解散,2015-10-05,1,,,,,ホームエネルギーシズオカ,0
402,2080102003668,登記記録の閉鎖等,0,2023-05-18,2023-05-12,有限会社山三ビュウホテル,,有限会社,静岡県,沼津市,内浦三津８番地の６,,22,203,4100223,,,2023-05-12,清算の結了等,,,2015-10-05,1,,,,,ヤマサンビュウホテル,0
432,2120901017269,登記記録の閉鎖等,0,2023-05-18,2023-05-15,ピーシーサービス株式会社,,株式会社,大阪府,高槻市,古曽部町２丁目２８番５１号,,27,207,5691115,,,2023-05-15,清算の結了等,,,2015-10-05,1,,,,,ピーシーサービス,0
433,2120901024562,登記記録の閉鎖等,0,2023-05-18,2023-05-15,株式会社鷹ケ巣,,株式会社,大阪府,豊中市,上新田４丁目７番１０号,,27,203,5600085,,,2023-05-15,合併による解散等,1120901024670,令和５年５月１５日大阪府豊中市上新田二丁目２番２号株式会社長禄（1120901024670）に合併し解散,2015-10-05,1,,,,,タカガス,0
467,2190002011099,登記記録の閉鎖等,0,2023-05-18,2023-05-15,有限会社内田電器,,有限会社,三重県,伊勢市,川端町７９番地,,24,203,5160052,,,2023-05-15,清算の結了等,,,2015-10-05,1,,,,,ウチダデンキ,0
468,2190002012072,登記記録の閉鎖等,0,2023-05-18,2023-05-17,有限会社上村富士薬品,,有限会社,三重県,伊賀市,西明寺２７５６番地の２０２,,24,216,5180809,,,2023-05-17,清算の結了等,,,2015-10-05,1,,,,,ウエムラフジヤクヒン,0
473,2220005003115,登記記録の閉鎖等,0,2023-05-18,2023-05-11,特定非営利活動法人ＪＯＹヒーリングの会,,その他の設立登記法人,石川県,能美郡川北町,字土室え５番地の１,,17,324,9231261,,,2023-05-11,清算の結了等,,,2015-10-05,1,,,,,ジョイヒーリングノカイ,0
474,2230001015815,登記記録の閉鎖等,0,2023-05-18,2023-05-16,株式会社ファーム堀田,,株式会社,富山県,中新川郡立山町,米道４７番地,,16,323,9300243,,,2023-05-16,清算の結了等,,,2015-10-05,1,,,,,ファームホリタ,0
510,2370002009562,登記記録の閉鎖等,0,2023-05-18,2023-05-15,あおばソフトウェア有限会社,,有限会社,宮城県,仙台市青葉区,国分町３丁目８番１７号日東ハイツ８０１号,,04,101,9800803,,,2023-05-15,清算の結了等,,,2015-10-05,1,,,,,アオバソフトウェア,0
547,3010001042112,登記記録の閉鎖等,0,2023-05-18,2023-05-10,株式会社グリーン企画,,株式会社,東京都,中央区,八重洲２丁目３番９号（新光ビル）,,13,102,1040028,,,2023-05-10,清算の結了等,,,2015-10-05,1,,,,,,0
553,3010001212029,登記記録の閉鎖等,0,2023-05-18,2023-05-11,ＨＭコーポレーション株式会社,,株式会社,東京都,千代田区,麹町２丁目３－３,,13,101,1020083,,,2023-05-11,清算の結了等,,,2020-09-04,1,,,,,エイチエムコーポレーション,0
567,3010602005392,登記記録の閉鎖等,0,2023-05-18,2023-05-16,有限会社山本運送店,,有限会社,東京都,江東区,南砂１丁目２４番６号,,13,108,1360076,,,2023-05-16,清算の結了等,,,2015-10-05,1,,,,,ヤマモトウンソウテン,0
569,3010803003674,登記記録の閉鎖等,0,2023-05-18,2023-05-08,合同会社ＡＣＴＡＲＩＳＥ,,合同会社,東京都,大田区,蒲田５丁目１９番１７号第八村上ビル３階,,13,111,1440052,,,2023-05-08,清算の結了等,,,2021-03-10,1,,,,,アクタライズ,0
582,3011001001322,登記記録の閉鎖等,0,2023-05-18,2023-05-08,株式会社アトリエランブレ,,株式会社,東京都,渋谷区,千駄ヶ谷１丁目１１番２号,,13,113,1510051,,,2023-05-08,清算の結了等,,,2023-02-06,1,,,,,アトリエランブレ,0
600,3011201004109,登記記録の閉鎖等,0,2023-05-18,2023-05-01,日本サイプレス合同会社,,合同会社,東京都,渋谷区,渋谷３丁目２５番１８号,,13,113,1500002,,,2023-05-01,合併による解散等,3020001100876,令和５年５月１日東京都渋谷区渋谷三丁目２５番１８号インフィニオンテクノロジーズイノベイツ合同会社（3020001100876）に合併し解散,2015-10-05,1,,,,,ニホンサイプレス,0
621,3020001084839,登記記録の閉鎖等,0,2023-05-18,2023-04-28,株式会社小林岳夫写真事務所,,株式会社,神奈川県,川崎市宮前区,菅生２丁目１５番１５号,,14,136,2160015,,,2023-04-28,清算の結了等,,,2015-10-05,1,,,,,コバヤシタケオシャシンジムショ,0
624,3020001145269,登記記録の閉鎖等,0,2023-05-18,2023-05-12,株式会社ＳＩＯＮ　ＣＯＤＥ,,株式会社,神奈川県,横浜市南区,永楽町２丁目２２番地７Ｌｅ’ａ横濱大通り公園弐番館１１０３,,14,105,2320031,,,2023-05-12,清算の結了等,,,2022-02-18,1,,,,,シオンコード,0
628,3020002068907,登記記録の閉鎖等,0,2023-05-18,2023-05-11,有限会社Ｓ．Ｃ．Ｓ,,有限会社,神奈川県,横浜市神奈川区,六角橋５丁目１３番４９号,,14,102,2210802,,,2023-05-11,清算の結了等,,,2015-10-05,1,,,,,エスシーエス,0
630,3020005009288,登記記録の閉鎖等,0,2023-05-18,2023-05-08,横浜中山電気工事協同組合,,その他の設立登記法人,神奈川県,横浜市緑区,中山３丁目３４番３８号,,14,113,2260019,,,2023-05-08,清算の結了等,,,2015-10-05,1,,,,,ヨコハマナカヤマデンキコウジ,0
636,3021002067295,登記記録の閉鎖等,0,2023-05-18,2023-05-12,有限会社モーター・スピリッツ・タフ,,有限会社,神奈川県,横須賀市,佐野町５丁目１５番地,,14,201,2380052,,,2023-05-12,清算の結了等,,,2015-10-05,1,,,,,モータースピリッツタフ,0
639,3030001068510,登記記録の閉鎖等,0,2023-05-18,2023-05-16,株式会社ユニヴァーサル,,株式会社,埼玉県,川口市,南鳩ヶ谷３丁目２１番６号,,11,203,3340013,,,2023-05-16,合併による解散等,1010801015046,令和５年５月１日東京都大田区蒲田本町二丁目２番地１号株式会社ライブリークリーンサービス（1010801015046）に合併し解散,2015-10-05,1,,,,,ユニヴァーサル,0
675,3120001006238,登記記録の閉鎖等,0,2023-05-18,2023-05-16,株式会社廣田商店,,株式会社,大阪府,大阪市阿倍野区,松虫通２丁目４番２４号,,27,119,5450043,,,2023-05-16,清算の結了等,,,2015-10-05,1,,,,,ヒロタショウテン,0
682,3120002046786,登記記録の閉鎖等,0,2023-05-18,2023-05-17,有限会社魁積算,,有限会社,大阪府,大阪市西区,靱本町１丁目７番９号,,27,106,5500004,,,2023-05-17,清算の結了等,,,2015-10-05,1,,,,,サキガケセキサン,0
689,3120101059532,登記記録の閉鎖等,0,2023-05-18,2023-05-01,株式会社かいの,,株式会社,大阪府,堺市中区,深井清水町３９８０番地,,27,142,5998273,,,2023-05-01,合併による解散等,1120001137489,令和５年４月３０日大阪府堺市中区深井清水町３９８０番地株式会社かいのホールディングス（1120001137489）に合併し解散,2019-03-07,1,,,,,カイノ,0
698,3130001051761,登記記録の閉鎖等,0,2023-05-18,2023-05-10,東宇ＨＳＴ株式会社,,株式会社,大阪府,大阪市北区,堂山町１５番４－３０３号,,27,127,5300027,,,2023-05-10,清算の結了等,,,2015-10-05,1,,,,,トウウエッチエスティー,0
713,3160001014427,登記記録の閉鎖等,0,2023-05-18,2023-05-16,株式会社プルメリア,,株式会社,滋賀県,草津市,草津２丁目２番１５－６０７号,,25,206,5250034,,,2023-05-16,清算の結了等,,,2015-10-05,1,,,,,プルメリア,0
720,3180001144123,登記記録の閉鎖等,0,2023-05-18,2023-05-15,株式会社ダイテック,,株式会社,愛知県,名古屋市守山区,大字上志段味字寺山１２００番地,,23,113,4630001,,,2023-05-15,清算の結了等,,,2020-12-24,1,,,,,ダイテック,0
724,3180002007997,登記記録の閉鎖等,0,2023-05-18,2023-05-16,有限会社小林製作所,,有限会社,愛知県,名古屋市昭和区,御器所３丁目３２番１７号,,23,107,4660051,,,2023-05-16,清算の結了等,,,2015-10-05,1,,,,,コバヤシセイサクショ,0
750,3230002011432,登記記録の閉鎖等,0,2023-05-18,2023-05-16,有限会社タカイ,,有限会社,富山県,高岡市,小竹４６１番地,,16,202,9330332,,,2023-05-16,清算の結了等,,,2015-10-05,1,,,,,タカイ,0
795,3430001064551,登記記録の閉鎖等,0,2023-05-18,2023-04-28,株式会社ＳＴＡＹ　ＬＩＮＥ,,株式会社,北海道,札幌市中央区,南九条西４丁目３番１－１６０３,,01,101,0640809,,,2023-04-28,清算の結了等,,,2015-10-05,1,,,,,ステイライン,0
803,3500001017849,登記記録の閉鎖等,0,2023-05-18,2023-05-17,株式会社名水アイス,,株式会社,愛媛県,西条市,大町１００番地２,,38,206,7930030,,,2023-05-17,清算の結了等,,,2015-10-05,1,,,,,メイスイアイス,0
834,4010803000539,登記記録の閉鎖等,0,2023-05-18,2023-05-08,合資会社安方宮田商店,,合資会社,東京都,大田区,東矢口２丁目１８番１１号,,13,111,1460094,,,2023-05-08,清算の結了等,,,2015-10-05,1,,,,,ヤスカタミヤタショウテン,0
855,4011201021474,登記記録の閉鎖等,0,2023-05-18,2023-05-17,ライナスフォース株式会社,,株式会社,東京都,中野区,白鷺１丁目１９番９号,,13,114,1650035,,,2023-05-17,清算の結了等,,,2019-07-10,1,,,,,ライナスフォース,0
912,4020003021392,登記記録の閉鎖等,0,2023-05-18,2023-05-12,合同会社アスラ,,合同会社,神奈川県,川崎市幸区,古川町４３番地２,,14,132,2120025,,,2023-05-12,清算の結了等,,,2022-03-03,1,,,,,アスラ,0
914,4021001002351,登記記録の閉鎖等,0,2023-05-18,2023-05-12,株式会社洋光通商,,株式会社,神奈川県,藤沢市,南藤沢８番１－１１１号,,14,205,2510055,,,2023-05-12,清算の結了等,,,2015-10-05,1,,,,,ヨウコウツウショウ,0
925,4030001091180,登記記録の閉鎖等,0,2023-05-18,2023-04-05,秩父観光自動車株式会社,,株式会社,埼玉県,秩父郡皆野町,大字皆野１７２番地,,11,362,3691412,,,2023-04-05,合併による解散等,3030001091594,令和５年４月１日埼玉県秩父郡皆野町大字皆野５５８番地１６協同貨物自動車株式会社（3030001091594）に合併し解散,2015-10-05,1,,,,,チチブカンコウジドウシャ,0
927,4030002017556,登記記録の閉鎖等,0,2023-05-18,2023-04-28,あいリビング有限会社,,有限会社,埼玉県,さいたま市岩槻区,大字笹久保１０５５番地,,11,110,3390034,,,2023-04-28,清算の結了等,,,2015-10-05,1,,,,,アイリビング,0
931,4040001055548,登記記録の閉鎖等,0,2023-05-18,2023-04-27,株式会社中嶋アソーシエイツ,,株式会社,千葉県,市原市,藤井２丁目１１６番地,,12,219,2900012,,,2023-04-27,清算の結了等,,,2015-10-05,1,,,,,ナカシマアソーシエイツ,0
939,4040002010056,登記記録の閉鎖等,0,2023-05-18,2023-04-25,有限会社フジタデンキ,,有限会社,千葉県,千葉市稲毛区,稲毛東２丁目１７番２０号,,12,103,2630031,,,2023-04-25,清算の結了等,,,2015-10-05,1,,,,,フジタデンキ,0
951,4060001028386,登記記録の閉鎖等,0,2023-05-18,2023-05-10,株式会社グランフォレ,,株式会社,栃木県,下野市,石橋７９６番地１０,,09,216,3290511,,,2023-05-10,清算の結了等,,,2016-06-22,1,,,,,グランフォレ,0
972,4110005015400,登記記録の閉鎖等,0,2023-05-18,2023-05-12,農事組合法人かぎ社中,,その他の設立登記法人,新潟県,新潟市江南区,嘉木１２番地,,15,104,9501133,,,2023-05-12,清算の結了等,,,2015-10-05,1,,,,,ノウジコミアイホウジンカギシャチュウ,0
1015,4180002064311,登記記録の閉鎖等,0,2023-05-18,2023-05-16,有限会社松永タイル,,有限会社,愛知県,豊明市,西川町島原５番地の１０,,23,229,4701121,,,2023-05-16,清算の結了等,,,2015-10-05,1,,,,,マツナガタイル,0
1028,4200005005301,登記記録の閉鎖等,0,2023-05-18,2023-05-12,貴船神社,,その他の設立登記法人,岐阜県,大垣市,上石津町宮７０８番地,,21,202,5031625,,,2023-05-12,合併による解散等,7200005005298,令和５年５月１２日岐阜県大垣市上石津町宮１９４番地の１大神神社（7200005005298）に合併し解散,2015-10-05,1,,,,,キフネジンジャ,0
1032,4250002001620,登記記録の閉鎖等,0,2023-05-18,2023-05-08,有限会社山口みそ砂田商店,,有限会社,山口県,山口市,古熊３丁目１番１号,,35,203,7530031,,,2023-05-08,清算の結了等,,,2015-10-05,1,,,,,ヤマグチミソスナダショウテン,0
1050,4340001005357,登記記録の閉鎖等,0,2023-05-18,2023-05-16,南林産株式会社,,株式会社,鹿児島県,鹿児島市,東開町３番地,,46,201,8910115,,,2023-05-16,清算の結了等,,,2023-02-28,1,,,,,ミナミリンサン,0
1054,4350002014083,登記記録の閉鎖等,0,2023-05-18,2023-05-11,有限会社グレイス・ロマン,,有限会社,宮崎県,都城市,蔵原町６街区１４号,,45,202,8850051,,,2023-05-11,清算の結了等,,,2015-10-05,1,,,,,グレイスロマン,0
1061,4370002000313,登記記録の閉鎖等,0,2023-05-18,2023-05-15,有限会社栄進建設,,有限会社,宮城県,仙台市泉区,南光台東１丁目８番７号,,04,105,9818001,,,2023-05-15,清算の結了等,,,2015-10-05,1,,,,,エイシンケンセツ,0
1069,4400005004506,登記記録の閉鎖等,0,2023-05-18,2023-05-12,大槌町漁業協同組合,,その他の設立登記法人,岩手県,上閉伊郡大槌町,安渡３丁目１１番６号,,03,461,0281105,,,2023-05-12,清算の結了等,,,2015-10-05,1,,,,,,0
1071,4420002011255,登記記録の閉鎖等,0,2023-05-18,2023-05-12,有限会社天坂歯科技研,,有限会社,青森県,五所川原市,大字石岡字藤巻５５番地２,,02,205,0370005,,,2023-05-12,清算の結了等,,,2015-10-05,1,,,,,テンサカシカギケン,0
1076,4440001006972,登記記録の閉鎖等,0,2023-05-18,2023-05-15,株式会社春薫,,株式会社,北海道,檜山郡上ノ国町,字桂岡２１２番地の２,,01,362,0490626,,,2023-05-15,清算の結了等,,,2015-10-05,1,,,,,シュンクン,0
1091,5010002008853,登記記録の閉鎖等,0,2023-05-18,2023-05-12,有限会社ガーベラハウス,,有限会社,東京都,千代田区,一番町２０番地９－４０５号,,13,101,1020082,,,2023-05-12,清算の結了等,,,2015-10-05,1,,,,,ガーベラハウス,0
1092,5010003013183,登記記録の閉鎖等,0,2023-05-18,2023-05-10,テイク・ファイブ合同会社,,合同会社,東京都,千代田区,西神田２丁目２－６,,13,101,1010065,,,2023-05-10,清算の結了等,,,2015-10-05,1,,,,,テイクファイブ,0
1093,5010003021707,登記記録の閉鎖等,0,2023-05-18,2023-05-15,Ｄａｖｉｄｓｔａｒ合同会社,,合同会社,東京都,杉並区,成田西２丁目１２番１２号,,13,115,1660016,,,2023-05-15,清算の結了等,,,2015-10-05,1,,,,,デビットスター,0
1107,5010405017690,登記記録の閉鎖等,0,2023-05-18,2023-04-26,一般社団法人Ｍａｃｈｉｎｅ　Ｌｅａｒｎｉｎｇ　Ｔｏｋｙｏ,,その他の設立登記法人,東京都,港区,浜松町２丁目２番１５号,,13,103,1050013,,,2023-04-26,清算の結了等,,,2019-05-16,1,,,,,マシンラーニングトウキョウ,0
1136,5011802019701,登記記録の閉鎖等,0,2023-05-18,2023-05-15,有限会社柳沢製作所,,有限会社,東京都,足立区,足立４丁目１７番１０号,,13,121,1200015,,,2023-05-15,清算の結了等,,,2015-10-05,1,,,,,,0
1146,5012801004025,登記記録の閉鎖等,0,2023-05-18,2023-05-16,株式会社ニュー成元,,株式会社,東京都,東大和市,湖畔１丁目１００２番地の２７,,13,220,2070002,,,2023-05-16,清算の結了等,,,2015-10-05,1,,,,,ニューセイゲン,0
1153,5020001084242,登記記録の閉鎖等,0,2023-05-18,2023-05-02,株式会社カモソフトウェアジャパン,,株式会社,東京都,渋谷区,渋谷３丁目５番１６号渋谷三丁目スクエアビル２階,,13,113,1500002,,,2023-05-02,清算の結了等,,,2015-10-05,1,,,,,カモソフトウェアジャパン,0
1162,5020003013959,登記記録の閉鎖等,0,2023-05-18,2023-05-10,合同会社イッシン,,合同会社,神奈川県,横浜市旭区,若葉台４丁目１０番１３０２号,,14,112,2410801,,,2023-05-10,清算の結了等,,,2018-02-16,1,,,,,イッシン,0
1165,5020005008775,登記記録の閉鎖等,0,2023-05-18,2023-05-10,特定非営利活動法人心画竜の書,,その他の設立登記法人,神奈川県,川崎市高津区,梶ケ谷３丁目１３番地３５,,14,134,2130015,,,2023-05-10,清算の結了等,,,2015-10-05,1,,,,,シンガリュウノショ,0
1171,5021001069423,登記記録の閉鎖等,0,2023-05-18,2023-05-12,株式会社ＹＣ横須賀北部,,株式会社,神奈川県,横須賀市,長浦町３丁目１１番,,14,201,2370072,,,2023-05-12,清算の結了等,,,2020-03-03,1,,,,,ワイシーヨコスカホクブ,0
1179,5030001090859,登記記録の閉鎖等,0,2023-05-18,2023-04-05,株式会社秩父中央自動車学校,,株式会社,埼玉県,秩父市,大野原１４５３番地,,11,207,3680005,,,2023-04-05,合併による解散等,3030001091594,令和５年４月１日埼玉県秩父郡皆野町大字皆野５５８番地１６協同貨物自動車株式会社（3030001091594）に合併し解散,2015-10-05,1,,,,,チチブチュウオウジドウシャガッコウ,0
1204,5080102008631,登記記録の閉鎖等,0,2023-05-18,2023-05-16,有限会社丸石自動車工業,,有限会社,静岡県,伊豆市,市山３０７番地の１,,22,222,4103205,,,2023-05-16,清算の結了等,,,2015-10-05,1,,,,,マルイシジドウシャコウギョウ,0
1268,5190001001180,登記記録の閉鎖等,0,2023-05-18,2023-05-12,株式会社森田デザイン事務所,,株式会社,三重県,津市,藤方３９３番地,,24,201,5140815,,,2023-05-12,清算の結了等,,,2015-10-05,1,,,,,モリタデザインジムショ,0
1279,5240005003564,登記記録の閉鎖等,0,2023-05-18,2023-05-16,医療法人社団小田医院,,その他の設立登記法人,広島県,東広島市,西条本町３番３０号,,34,212,7390011,,,2023-05-16,清算の結了等,,,2015-10-05,1,,,,,オダイイン,0
1280,5240005014628,登記記録の閉鎖等,0,2023-05-18,2023-05-08,特定非営利活動法人広島スカッシュ協会,,その他の設立登記法人,広島県,広島市南区,仁保１丁目５０番４号,,34,103,7340026,,,2023-05-08,清算の結了等,,,2018-07-09,1,,,,,ヒロシマスカッシュキョウカイ,0
1290,5260002020189,登記記録の閉鎖等,0,2023-05-18,2023-05-16,有限会社南備電気工事,,有限会社,岡山県,倉敷市,大島１１８番地１,,33,202,7100047,,,2023-05-16,清算の結了等,,,2015-10-05,1,,,,,ナンビデンキコウジ,0
1331,5450002011350,登記記録の閉鎖等,0,2023-05-18,2023-05-16,有限会社天塩電器,,有限会社,北海道,天塩郡天塩町,山手通４丁目３８番地の１,,01,487,0983301,,,2023-05-16,清算の結了等,,,2015-10-05,1,,,,,テシオデンキ,0
1337,5490001004995,登記記録の閉鎖等,0,2023-05-18,2023-05-10,株式会社新栄商事,,株式会社,高知県,土佐清水市,旭町２１番４号,,39,209,7870303,,,2023-05-10,清算の結了等,,,2015-10-05,1,,,,,シンエイショウジ,0
1353,6010401005054,登記記録の閉鎖等,0,2023-05-18,2023-04-27,株式会社エポ,,株式会社,東京都,港区,新橋１丁目１８番２号明宏ビル別館２階,,13,103,1050004,,,2023-04-27,清算の結了等,,,2015-10-05,1,,,,,エポ,0
1370,6010601045742,登記記録の閉鎖等,0,2023-05-18,2023-04-20,株式会社ＣＢＤライフステージ,,株式会社,東京都,墨田区,東向島６丁目５３番３－１１０２号,,13,107,1310032,,,2023-04-20,清算の結了等,,,2015-10-05,1,,,,,シービーディーライフステージ,0
1383,6010901024421,登記記録の閉鎖等,0,2023-05-18,2023-05-12,株式会社ＢＲＹＡＮＴ,,株式会社,東京都,世田谷区,奥沢５丁目１２番１４号デュフレ自由が丘０１２,,13,112,1580083,,,2023-05-12,清算の結了等,,,2015-10-05,1,,,,,ブライアント,0
1395,6011101051396,登記記録の閉鎖等,0,2023-05-18,2023-05-16,株式会社アスペン,,株式会社,東京都,新宿区,高田馬場３丁目１２番２１号,,13,104,1690075,,,2023-05-16,清算の結了等,,,2015-10-05,1,,,,,アスペン,0
1399,6011105009812,登記記録の閉鎖等,0,2023-05-18,2023-05-15,ＮＢ２ホールディングス一般社団法人,,その他の設立登記法人,東京都,新宿区,四谷２丁目９番地１５東京ユナイテッド綜合事務所内,,13,104,1600004,,,2023-05-15,清算の結了等,,,2021-05-25,1,,,,,エヌビーツーホールディングス,0
1402,6011302007445,登記記録の閉鎖等,0,2023-05-18,2023-05-15,Ｈ．Ｍ．Ａ．株式会社,,株式会社,東京都,杉並区,西荻南３丁目８番１６－８０５号,,13,115,1670053,,,2023-05-15,清算の結了等,,,2015-10-05,1,,,,,エイチエムエー,0
1426,6020001065778,登記記録の閉鎖等,0,2023-05-18,2023-05-12,株式会社アルファー技術研究所,,株式会社,神奈川県,川崎市高津区,新作６丁目５番２２号,,14,134,2130014,,,2023-05-12,清算の結了等,,,2015-10-05,1,,,,,アルファーギジュツケンキュウジョ,0
1430,6020002021409,登記記録の閉鎖等,0,2023-05-18,2023-05-12,有限会社サン・パティー,,有限会社,神奈川県,横浜市旭区,上白根町２９０番地,,14,112,2410001,,,2023-05-12,清算の結了等,,,2015-10-05,1,,,,,サンパティー,0
1434,6021001040052,登記記録の閉鎖等,0,2023-05-18,2023-05-12,株式会社エヌ・ケー総合企画,,株式会社,神奈川県,横須賀市,若松町３丁目４番地エヌ・ケービル６階,,14,201,2380007,,,2023-05-12,清算の結了等,,,2015-10-05,1,,,,,エヌケーソウゴウキカク,0
1447,6030002105680,登記記録の閉鎖等,0,2023-05-18,2023-04-26,有限会社那須重機工事,,有限会社,埼玉県,川口市,大字安行原１２５９番地の２０,,11,203,3340057,,,2023-04-26,清算の結了等,,,2015-10-05,1,,,,,ナスジュウキコウジ,0
1448,6030003002662,登記記録の閉鎖等,0,2023-05-18,2023-04-28,アフェクション合同会社,,合同会社,埼玉県,春日部市,小渕１１２９番地５,,11,214,3440007,,,2023-04-28,清算の結了等,,,2015-10-05,1,,,,,アフェクション,0
1460,6050002004798,登記記録の閉鎖等,0,2023-05-18,2023-05-12,有限会社ながおか動物病院,,有限会社,茨城県,東茨城郡茨城町,大字前田１６８０番地２２０,,08,302,3113115,,,2023-05-12,清算の結了等,,,2015-10-05,1,,,,,ナガオカドウブツビョウイン,0
1470,6080102006650,登記記録の閉鎖等,0,2023-05-18,2023-05-16,有限会社市宇商店,,有限会社,静岡県,駿東郡小山町,吉久保８８番地,,22,344,4101322,,,2023-05-16,清算の結了等,,,2015-10-05,1,,,,,イチウショウテン,0
1473,6080401019444,登記記録の閉鎖等,0,2023-05-18,2023-05-16,株式会社アズライフ浜松,,株式会社,静岡県,掛川市,中央高町５４番地,,22,213,4360046,,,2023-05-16,清算の結了等,,,2015-10-05,1,,,,,アズライフハママツ,0
1478,6120001186382,登記記録の閉鎖等,0,2023-05-18,2023-05-17,株式会社名古屋味彩,,株式会社,大阪府,大阪市北区,芝田２丁目２番１３号日生ビル東館６０３,,27,127,5300012,,,2023-05-17,清算の結了等,,,2015-10-05,1,,,,,ナゴヤアジサイ,0
1498,6130001041446,登記記録の閉鎖等,0,2023-05-18,2023-05-11,株式会社みずたに,,株式会社,京都府,福知山市,夜久野町小倉９５８番地,,26,201,6291314,,,2023-05-11,清算の結了等,,,2015-10-05,1,,,,,ミズタニ,0
1509,6140002068768,登記記録の閉鎖等,0,2023-05-18,2023-05-15,岡崎紙器工業有限会社,,有限会社,兵庫県,洲本市,本町２丁目３番１０号,,28,205,6560025,,,2023-05-15,清算の結了等,,,2015-10-05,1,,,,,オカザキシキコウギョウ,0
1511,6140005024297,登記記録の閉鎖等,0,2023-05-18,2023-05-17,一般社団法人日本総合検査推進協会,,その他の設立登記法人,兵庫県,神戸市中央区,浜辺通４丁目１番２３三宮ベンチャービル６１０号,,28,110,6510083,,,2023-05-17,清算の結了等,,,2018-10-04,1,,,,,ニホンソウゴウケンサスイシンキョウカイ,0
1513,6160002010645,登記記録の閉鎖等,0,2023-05-18,2023-05-12,有限会社テキスタイルシード,,有限会社,滋賀県,近江八幡市,安養寺町７５４番地,,25,204,5230045,,,2023-05-12,清算の結了等,,,2015-10-05,1,,,,,テキスタイルシード,0
1517,6180001124444,登記記録の閉鎖等,0,2023-05-18,2023-05-16,株式会社ＳＵＺＵＫＩＲ＆Ｄ,,株式会社,愛知県,春日井市,高蔵寺町７丁目７番地６,,23,206,4870013,,,2023-05-16,清算の結了等,,,2016-08-10,1,,,,,スズキアールアンドディー,0
1524,6180301004775,登記記録の閉鎖等,0,2023-05-18,2023-05-12,株式会社小久井農場直売所,,株式会社,愛知県,岡崎市,岡町字下権現３６番地,,23,202,4440005,,,2023-05-12,清算の結了等,,,2015-10-05,1,,,,,コクイノウジョウチョクバイジョ,0
1527,6190001019321,登記記録の閉鎖等,0,2023-05-18,2023-05-12,株式会社きずな,,株式会社,三重県,志摩市,阿児町鵜方字鵜方道２８２２番地５３,,24,215,5170501,,,2023-05-12,清算の結了等,,,2015-10-05,1,,,,,キズナ,0
1539,6240001056796,登記記録の閉鎖等,0,2023-05-18,2023-05-16,株式会社モリタ,,株式会社,広島県,広島市中区,堀川町４番１７号,,34,101,7300033,,,2023-05-16,清算の結了等,,,2020-10-15,1,,,,,モリタ,0
1543,6240002028919,登記記録の閉鎖等,0,2023-05-18,2023-05-15,広宣塗装有限会社,,有限会社,広島県,東広島市,西条町田口字井ノ邑３６５番地１,,34,212,7390036,,,2023-05-15,清算の結了等,,,2015-10-05,1,,,,,コウセントソウ,0
1544,6240002034743,登記記録の閉鎖等,0,2023-05-18,2023-05-16,有限会社タウンショップマサキ,,有限会社,広島県,呉市,音戸町波多見４丁目１番３２号,,34,202,7371207,,,2023-05-16,清算の結了等,,,2015-10-05,1,,,,,タウンショップマサキ,0
1546,6250002018539,登記記録の閉鎖等,0,2023-05-18,2023-05-01,有限会社藤野,,有限会社,山口県,岩国市,立石町１丁目８番３５号,,35,208,7400011,,,2023-05-01,清算の結了等,,,2015-10-05,1,,,,,フジノ,0
1550,6270002010626,登記記録の閉鎖等,0,2023-05-18,2023-05-12,有限会社矢積印刷,,有限会社,鳥取県,倉吉市,宮川町２丁目３６番地,,31,203,6820881,,,2023-05-12,清算の結了等,,,2015-10-05,1,,,,,ヤヅミインサツ,0
1552,6290001002886,登記記録の閉鎖等,0,2023-05-18,2023-05-09,株式会社九州ダイコー,,株式会社,福岡県,福岡市東区,原田２丁目２９番８－１号,,40,131,8120063,,,2023-05-09,清算の結了等,,,2015-10-05,1,,,,,キュウシュウダイコー,0
1593,6400001013590,登記記録の閉鎖等,0,2023-05-18,2023-05-11,株式会社ライトル,,株式会社,岩手県,奥州市,水沢佐倉河字東沖ノ目１２３番地２Ｆキッズパーク内,,03,215,0230003,,,2023-05-11,清算の結了等,,,2017-03-10,1,,,,,ライトル,0
1607,6500001022540,登記記録の閉鎖等,0,2023-05-18,2023-05-17,株式会社ドミノ,,株式会社,愛媛県,松山市,萱町３丁目１番地２４,,38,201,7900813,,,2023-05-17,清算の結了等,,,2020-02-26,1,,,,,ドミノ,0
1633,7010401139396,登記記録の閉鎖等,0,2023-05-18,2023-05-11,株式会社カカオアイエックスジャパン,,株式会社,東京都,渋谷区,桜丘町２６番１号,,13,113,1500031,,,2023-05-11,清算の結了等,,,2018-07-05,1,,,,,カカオアイエックスジャパン,0
1670,7011003012066,登記記録の閉鎖等,0,2023-05-18,2023-05-02,合同会社風花,,合同会社,東京都,目黒区,目黒本町４丁目２４番２１号目黒本町マンション１０１,,13,110,1520002,,,2023-05-02,清算の結了等,,,2021-01-08,1,,,,,カザハナ,0
1689,7012701010492,登記記録の閉鎖等,0,2023-05-18,2023-05-16,株式会社フロンティア,,株式会社,東京都,東村山市,秋津町４丁目２２番地１７,,13,213,1890001,,,2023-05-16,清算の結了等,,,2015-10-05,1,,,,,フロンティア,0
1702,7020003005327,登記記録の閉鎖等,0,2023-05-18,2023-05-11,合名会社松竹,,合名会社,神奈川県,川崎市川崎区,東田町１番地１６,,14,131,2100005,,,2023-05-11,清算の結了等,,,2015-10-05,1,,,,,ショウチク,0
1709,7021001054373,登記記録の閉鎖等,0,2023-05-18,2023-05-08,株式会社ツクレル,,株式会社,東京都,目黒区,目黒本町５丁目２３番１８号目黒本町ハイツ１０５,,13,110,1520002,,,2023-05-08,清算の結了等,,,2015-10-05,1,,,,,ツクレル,0
1711,7030001031043,登記記録の閉鎖等,0,2023-05-18,2023-04-28,ビルトローン株式会社,,株式会社,埼玉県,白岡市,千駄野６６３番地２,,11,246,3490215,,,2023-04-28,清算の結了等,,,2015-10-05,1,,,,,ビルトローン,0
1732,7050001032270,登記記録の閉鎖等,0,2023-05-18,2023-05-12,株式会社斎川商店,,株式会社,茨城県,桜川市,犬田６３０番地１,,08,231,3091217,,,2023-05-12,清算の結了等,,,2015-10-05,1,,,,,サイカワショウテン,0
1736,7060005009082,登記記録の閉鎖等,0,2023-05-18,2023-05-12,一般社団法人情報の森,,その他の設立登記法人,栃木県,宇都宮市,戸祭台２４番地６,,09,201,3200017,,,2023-05-12,清算の結了等,,,2015-10-05,1,,,,,ジョウホウノモリ,0
1743,7080405005943,登記記録の閉鎖等,0,2023-05-18,2023-05-15,古心庵,,その他の設立登記法人,静岡県,周智郡森町,葛布２８８番地,,22,461,4370206,,,2023-05-15,合併による解散等,8080405005959,令和５年５月１５日静岡県周智郡森町大鳥居５４０番地の１藏雲院（8080405005959）に合併し解散,2015-10-05,1,,,,,コシンアン,0
1745,7080405005984,登記記録の閉鎖等,0,2023-05-18,2023-05-15,福泉寺,,その他の設立登記法人,静岡県,周智郡森町,西俣５０番地,,22,461,4370207,,,2023-05-15,合併による解散等,8080405005959,令和５年５月１５日静岡県周智郡森町大鳥居５４０番地の１藏雲院（8080405005959）に合併し解散,2015-10-05,1,,,,,フクセンジ,0
1750,7110001035630,登記記録の閉鎖等,0,2023-05-18,2023-05-12,エヌジェイピー株式会社,,株式会社,新潟県,長岡市,喜多町１０５０番地５,,15,202,9402121,,,2023-05-12,清算の結了等,,,2021-03-24,1,,,,,エヌジェイピー,0
1771,7120901023304,登記記録の閉鎖等,0,2023-05-18,2023-05-15,株式会社春日製作所,,株式会社,大阪府,豊中市,庄内西町５丁目１番５号,,27,203,5610832,,,2023-05-15,清算の結了等,,,2015-10-05,1,,,,,カスガセイサクショ,0
1804,7180003005179,登記記録の閉鎖等,0,2023-05-18,2023-05-15,青木合資会社,,合資会社,愛知県,名古屋市昭和区,荒田町１丁目２６番地,,23,107,4660844,,,2023-05-15,清算の結了等,,,2015-10-05,1,,,,,アオキ,0
1835,7300002007411,登記記録の閉鎖等,0,2023-05-18,2023-05-12,有限会社山海里,,有限会社,佐賀県,杵島郡白石町,大字戸ケ里１７２５番地１,,41,425,8491203,,,2023-05-12,清算の結了等,,,2015-10-05,1,,,,,サンカイリ,0
1849,7380002018112,登記記録の閉鎖等,0,2023-05-18,2023-05-15,有限会社大永,,有限会社,福島県,白河市,丸小山１－５２,,07,205,9610824,,,2023-05-15,清算の結了等,,,2015-10-05,1,,,,,ダイエイ,0
1871,7490002002385,登記記録の閉鎖等,0,2023-05-18,2023-05-16,有限会社仁興産,,有限会社,高知県,高知市,南ノ丸町８番地ＡＳハイライン７０１号,,39,201,7808016,,,2023-05-16,清算の結了等,,,2015-10-05,1,,,,,ジンコウサン,0
1879,8010001218748,登記記録の閉鎖等,0,2023-05-18,2023-05-02,株式会社ＳｏｕｔｈＳｔｒｅｅｔ,,株式会社,東京都,渋谷区,東２丁目２３－５－２０５号,,13,113,1500011,,,2023-05-02,清算の結了等,,,2021-06-11,1,,,,,サウスストリート,0
1885,8010102001920,登記記録の閉鎖等,0,2023-05-18,2023-05-09,有限会社上萩原機械,,有限会社,東京都,八王子市,兵衛２丁目３１番６号,,13,201,1920918,,,2023-05-09,清算の結了等,,,2015-10-05,1,,,,,,0
1908,8010801028925,登記記録の閉鎖等,0,2023-05-18,2023-05-08,株式会社ＳＹＲ,,株式会社,東京都,大田区,西六郷１丁目１２番５号エスポワール蒲田第３レッツビル２０３,,13,111,1440056,,,2023-05-08,清算の結了等,,,2018-06-20,1,,,,,,0
1915,8011001057921,登記記録の閉鎖等,0,2023-05-18,2023-05-11,株式会社オフィス巴,,株式会社,東京都,渋谷区,千駄ヶ谷２丁目３８番６号,,13,113,1510051,,,2023-05-11,清算の結了等,,,2015-10-05,1,,,,,オフィストモエ,0
1918,8011001113451,登記記録の閉鎖等,0,2023-05-18,2023-05-02,株式会社ニジスタ,,株式会社,東京都,渋谷区,宇田川町４０番１号,,13,113,1500042,,,2023-05-02,合併による解散等,3011001065846,令和５年５月１日東京都渋谷区宇田川町４０番１号株式会社アプリボット（3011001065846）に合併し解散,2016-11-04,1,,,,,ニジスタ,0
1925,8011002034184,登記記録の閉鎖等,0,2023-05-18,2023-05-15,有限会社ＤＩＸディキシー,,有限会社,東京都,杉並区,高井戸東４丁目２１番２０号,,13,115,1680072,,,2023-05-15,清算の結了等,,,2015-10-05,1,,,,,ディックスディキシー,0
1965,8020001057393,登記記録の閉鎖等,0,2023-05-18,2023-05-11,株式会社ＯＫ環境創造,,株式会社,神奈川県,横浜市都筑区,中川２丁目９番２－５０２号,,14,118,2240001,,,2023-05-11,清算の結了等,,,2015-10-05,1,,,,,オーケーカンキョウソウゾウ,0
1979,8030001085261,登記記録の閉鎖等,0,2023-05-18,2023-04-05,武蔵観光株式会社,,株式会社,埼玉県,秩父郡皆野町,大字皆野１７２番地,,11,362,3691412,,,2023-04-05,合併による解散等,3030001091594,令和５年４月１日埼玉県秩父郡皆野町大字皆野５５８番地１６協同貨物自動車株式会社（3030001091594）に合併し解散,2015-10-05,1,,,,,ムサシカンコウ,0
1986,8030002055701,登記記録の閉鎖等,0,2023-05-18,2023-04-28,有限会社小林エレックス,,有限会社,埼玉県,桶川市,神明１丁目２番１９号,,11,231,3630014,,,2023-04-28,清算の結了等,,,2015-10-05,1,,,,,コバヤシエレックス,0
1987,8030002090707,登記記録の閉鎖等,0,2023-05-18,2023-04-28,有限会社吉川園芸,,有限会社,埼玉県,吉川市,道庭２丁目１番地３,,11,243,3420034,,,2023-04-28,清算の結了等,,,2015-10-05,1,,,,,ヨシカワエンゲイ,0
1989,8030005008202,登記記録の閉鎖等,0,2023-05-18,2023-05-10,天理教甲桑分教会,,その他の設立登記法人,埼玉県,ふじみ野市,中丸１丁目１番地１２,,11,245,3560016,,,2023-05-10,合併による解散等,5190005008016,令和５年５月２日三重県桑名市大字東方字尾畑２０８０番地の１１天理教桑名分教会（5190005008016）に合併し解散,2015-10-05,1,,,,,テンリキョウコウソウブンキョウカイ,0
1990,8040001041387,登記記録の閉鎖等,0,2023-05-18,2023-04-27,株式会社ユニオンエクステリア,,株式会社,千葉県,流山市,前平井１００番地,,12,220,2700152,,,2023-04-27,清算の結了等,,,2015-10-05,1,,,,,ユニオンエクステリア,0
2010,8070002024751,登記記録の閉鎖等,0,2023-05-18,2023-05-15,有限会社昌藤,,有限会社,群馬県,太田市,大原町２３００番地５,,10,205,3792304,,,2023-05-15,清算の結了等,,,2015-10-05,1,,,,,,0
2016,8080402001291,登記記録の閉鎖等,0,2023-05-18,2023-05-17,有限会社エスケイ松井工業,,有限会社,静岡県,浜松市中区,法枝町８５番地,,22,131,4328053,,,2023-05-17,清算の結了等,,,2015-10-05,1,,,,,,0
2023,8120001019227,登記記録の閉鎖等,0,2023-05-18,2023-05-16,吉村コーポレーション株式会社,,株式会社,大阪府,大阪市生野区,巽中３丁目１６番２５号,00027710,27,116,5440013,,,2023-05-16,清算の結了等,,,2015-10-05,1,,,,,ヨシムラコーポレーション,0
2068,8180301032428,登記記録の閉鎖等,0,2023-05-18,2023-05-16,オフィス．Ｋ株式会社,,株式会社,愛知県,豊橋市,飯村北２丁目１０番地１４,,23,201,4400834,,,2023-05-16,清算の結了等,,,2019-04-05,1,,,,,オフィスケー,0
2075,8240002007433,登記記録の閉鎖等,0,2023-05-18,2023-05-12,有限会社空間工作,,有限会社,広島県,広島市中区,中島町８－１０水主町ビル４０２,,34,101,7300811,,,2023-05-12,清算の結了等,,,2015-10-05,1,,,,,クウカンコウサク,0
2076,8240002021070,登記記録の閉鎖等,0,2023-05-18,2023-05-16,有限会社インフォメーションシステムクリニック,,有限会社,広島県,広島市中区,舟入南３丁目４番１－５０４号,,34,101,7300847,,,2023-05-16,清算の結了等,,,2015-10-05,1,,,,,インフォメーションシステムクリニック,0
2083,8260002013842,登記記録の閉鎖等,0,2023-05-18,2023-05-17,有限会社ＳＯＭＡ,,有限会社,岡山県,岡山市中区,藤崎５７６番地４オフィスＭ１０２,,33,102,7028006,,,2023-05-17,清算の結了等,,,2015-10-05,1,,,,,ソマ,0
2094,8310005001426,登記記録の閉鎖等,0,2023-05-18,2023-05-16,特定非営利活動法人長崎インターネット普及協会,,その他の設立登記法人,長崎県,長崎市,戸町２丁目１番２４号,,42,201,8500952,,,2023-05-16,清算の結了等,,,2015-10-05,1,,,,,ナガサキインターネットフキュウキョウカイ,0
2099,8330002021549,登記記録の閉鎖等,0,2023-05-18,2023-05-15,桃山運送有限会社,,有限会社,熊本県,玉名市,天水町部田見字築合２７４９番地１,,43,206,8615403,,,2023-05-15,清算の結了等,,,2015-10-05,1,,,,,モモヤマウンソウ,0
2117,8400002002970,登記記録の閉鎖等,0,2023-05-18,2023-05-10,北振工業有限会社,,有限会社,岩手県,盛岡市,月が丘３丁目５０番１５号,,03,201,0200121,,,2023-05-10,清算の結了等,,,2015-10-05,1,,,,,ホクシンコウギョウ,0
2131,9010001161344,登記記録の閉鎖等,0,2023-05-18,2023-05-11,株式会社あらじん,,株式会社,東京都,中央区,日本橋室町１丁目１２番１３号,,13,102,1030022,,,2023-05-11,清算の結了等,,,2015-10-05,1,,,,,アラジン,0
2155,9010405014651,登記記録の閉鎖等,0,2023-05-18,2023-04-26,一般社団法人フォリッジ,,その他の設立登記法人,東京都,港区,芝５丁目３２番１２号,,13,103,1080014,,,2023-04-26,清算の結了等,,,2016-03-18,1,,,,,フォリッジ,0
2158,9010601043941,登記記録の閉鎖等,0,2023-05-18,2023-05-15,ＬＯＨＡＳ　ＥＣＥ２合同会社,,合同会社,大分県,速見郡日出町,大字豊岡７７８番地１,,44,341,8791507,,,2023-05-15,合併による解散等,1011103004506,令和５年５月１０日東京都新宿区西新宿二丁目１番１号新宿三井ビル４３階ティーダ・パワー０１合同会社（1011103004506）に合併し解散,2015-10-05,1,,,,,ロハスエセニ,0
2166,9010702005394,登記記録の閉鎖等,0,2023-05-18,2023-05-11,有限会社テーツープラネット,,有限会社,東京都,品川区,西中延２丁目１５番１６号,,13,109,1420054,,,2023-05-11,清算の結了等,,,2015-10-05,1,,,,,テーツープラネット,0
2169,9010801010353,登記記録の閉鎖等,0,2023-05-18,2023-05-08,株式会社フェニックス・ケイ,,株式会社,東京都,大田区,西蒲田７丁目７番７－１０２号,,13,111,1440051,,,2023-05-08,清算の結了等,,,2015-10-05,1,,,,,フェニックスケイ,0
2183,9011001093692,登記記録の閉鎖等,0,2023-05-18,2023-05-02,株式会社グリフォン,,株式会社,東京都,渋谷区,宇田川町４０番１号,,13,113,1500042,,,2023-05-02,合併による解散等,8011001146559,令和５年５月１日東京都渋谷区宇田川町４０番１号株式会社ＣＡ　ＧａｍｅＦｉ（8011001146559）に合併し解散,2015-10-05,1,,,,,グリフォン,0
2188,9011001126485,登記記録の閉鎖等,0,2023-05-18,2023-05-12,Ａｌｉａｎｚａ株式会社,,株式会社,東京都,渋谷区,道玄坂２丁目１９番３－３０１号,,13,113,1500043,,,2023-05-12,清算の結了等,,,2019-02-15,1,,,,,アリアンサ,0
2223,9013302012959,登記記録の閉鎖等,0,2023-05-18,2023-05-09,有限会社環境計画アトリエ,,有限会社,東京都,豊島区,目白４丁目３１番２２－３０２号,,13,116,1710031,,,2023-05-09,清算の結了等,,,2015-10-05,1,,,,,カンキョウケイカクアトリエ,0
2257,9040002041492,登記記録の閉鎖等,0,2023-05-18,2023-04-28,有限会社ビルサービス・タドコロ,,有限会社,千葉県,浦安市,入船６丁目８番１３０５号,,12,227,2790012,,,2023-04-28,清算の結了等,,,2015-10-05,1,,,,,ビルサービスタドコロ,0
2258,9040002068627,登記記録の閉鎖等,0,2023-05-18,2023-05-09,有限会社豊島薬局,,有限会社,千葉県,袖ケ浦市,横田１１５０番地の２,,12,229,2990236,,,2023-05-09,清算の結了等,,,2015-10-05,1,,,,,トヨシマヤッキョク,0
2280,9110002033747,登記記録の閉鎖等,0,2023-05-18,2023-05-15,有限会社桑又,,有限会社,新潟県,魚沼市,横町１丁目２９番地,,15,225,9460005,,,2023-05-15,清算の結了等,,,2015-10-05,1,,,,,クワマタ,0
2323,9170002008033,登記記録の閉鎖等,0,2023-05-18,2023-05-17,有限会社ワールド・ソフト,,有限会社,和歌山県,岩出市,北大池１８６番地の１４,,30,209,6496219,,,2023-05-17,清算の結了等,,,2015-10-05,1,,,,,ワールドソフト,0
2324,9180001121216,登記記録の閉鎖等,0,2023-05-18,2023-05-16,株式会社サンワールド,,株式会社,愛知県,名古屋市中区,橘１丁目１０番２号,,23,106,4600016,,,2023-05-16,清算の結了等,,,2015-12-07,1,,,,,サンワールド,0
2332,9180003019409,登記記録の閉鎖等,0,2023-05-18,2023-05-16,華創作合同会社,,合同会社,愛知県,清須市,西枇杷島町小場塚１１６１番地４,,23,233,4520061,,,2023-05-16,清算の結了等,,,2018-11-05,1,,,,,ハナソウサク,0
2336,9190001027593,登記記録の閉鎖等,0,2023-05-18,2023-05-16,株式会社ＭＪ,,株式会社,三重県,鈴鹿市,加佐登４丁目３２番１６号,,24,207,5130004,,,2023-05-16,合併による解散等,5190001020040,令和５年５月１日三重県鈴鹿市算所五丁目１９番３０号株式会社聖総業（5190001020040）に合併し解散,2020-08-17,1,,,,,エムジェイ,0
2347,9240002007382,登記記録の閉鎖等,0,2023-05-18,2023-04-24,有限会社ジオ・リサーチ,,有限会社,広島県,広島市安佐南区,大町東３丁目３番２６－５－４０３号,,34,105,7310124,,,2023-04-24,清算の結了等,,,2015-10-05,1,,,,,ジオリサーチ,0
2349,9240002052445,登記記録の閉鎖等,0,2023-05-18,2023-05-16,有限会社橋本屋商店,,有限会社,広島県,尾道市,瀬戸田町瀬戸田４３２番地,,34,205,7222411,,,2023-05-16,清算の結了等,,,2015-10-05,1,,,,,ハシモトヤショウテン,0
2376,9340002006110,登記記録の閉鎖等,0,2023-05-18,2023-05-17,有限会社谷山薬局,,有限会社,鹿児島県,鹿児島市,小松原２丁目３５番８号,,46,201,8910114,,,2023-05-17,清算の結了等,,,2015-10-05,1,,,,,タニヤマヤッキョク,0
2383,9360001022577,登記記録の閉鎖等,0,2023-05-18,2023-05-12,株式会社沖縄旅行攻略,,株式会社,沖縄県,那覇市,牧志２丁目１６番１９号第二ワコーマンション１０２号室,,47,201,9000013,,,2023-05-12,清算の結了等,,,2017-07-12,1,,,,,オキナワリョコウコウリャク,0
