sequenceNumber,corporateNumber,process,correct,updateDate,changeDate,name,nameImageId,kind,prefectureName,cityName,streetNumber,addressImageId,prefectureCode,cityCode,postCode,addressOutside,addressOutsideImageId,closeDate,closeCause,successorCorporateNumber,changeCause,assignmentDate,latest,enName,enPrefectureName,enCityName,enAddressOutside,furigana,hihyoji
10,1010001255401,新規,0,2025-06-11,2025-06-11,株式会社ＹＯＲＩＳＩＡ,,株式会社,東京都,中央区,銀座３丁目１３番４号銀座スカイビル４０１,,13,102,1040061,,,,,,,2025-06-11,1,,,,,ヨリシア,0
11,1010001255855,新規,0,2025-06-11,2025-06-11,ＪＰＡ第３５８号株式会社,,株式会社,東京都,千代田区,霞が関３丁目２番１号,,13,101,1000013,,,,,,,2025-06-11,1,,,,,ジェイピーエーダイサンビャクゴジュウハチゴウ,0
12,1010001255888,新規,0,2025-06-11,2025-06-11,株式会社ＩＳ経理事務所,,株式会社,東京都,中央区,日本橋堀留町２丁目５‐１０ＳＩＮ‐Ｃｉｔｙ日本橋,,13,102,1030012,,,,,,,2025-06-11,1,,,,,アイエスケイリジムショ,0
13,1010001255896,新規,0,2025-06-11,2025-06-11,Ａｘｅｌ　Ｌｉｆｅ株式会社,,株式会社,東京都,千代田区,平河町１丁目５番６号４階,,13,101,1020093,,,,,,,2025-06-11,1,,,,,アクセルライフ,0
24,1010401190537,新規,0,2025-06-11,2025-06-11,株式会社えねこ,,株式会社,東京都,港区,北青山１丁目３番１号アールキューブ青山３階,,13,103,1070061,,,,,,,2025-06-11,1,,,,,エネコ,0
25,1010401190925,新規,0,2025-06-11,2025-06-11,株式会社マークベクトル,,株式会社,東京都,港区,赤坂４丁目８番１９号赤坂フロントタウン３階,,13,103,1070052,,,,,,,2025-06-11,1,,,,,マークベクトル,0
26,1010401190958,新規,0,2025-06-11,2025-06-11,株式会社トラック・リンク・スタジオ,,株式会社,東京都,港区,南青山２丁目２７番１９号,,13,103,1070062,,,,,,,2025-06-11,1,,,,,トラックリンクスタジオ,0
27,1010401190966,新規,0,2025-06-11,2025-06-11,株式会社エッジモーション,,株式会社,東京都,港区,麻布十番１丁目２番３号,,13,103,1060045,,,,,,,2025-06-11,1,,,,,エッジモーション,0
34,1010403035302,新規,0,2025-06-11,2025-06-11,合同会社ＵＣＳ,,合同会社,東京都,港区,浜松町２丁目２番１５号浜松町ダイヤビル２Ｆ,,13,103,1050013,,,,,,,2025-06-11,1,,,,,ユーシーエス,0
35,1010405024443,新規,0,2025-06-11,2025-06-11,司法書士法人ＭＩＴＳＵＢＡ　ＧＲＯＵＰ,,その他の設立登記法人,東京都,港区,虎ノ門５丁目１２番１１号ＮＣＯメトロ神谷町,,13,103,1050001,,,,,,,2025-06-11,1,,,,,ミツバグループ,0
42,1010701047800,新規,0,2025-06-11,2025-06-11,ＺＥＮセントラル株式会社,,株式会社,東京都,品川区,東五反田２丁目１０番１－２７１６号,,13,109,1410022,,,,,,,2025-06-11,1,,,,,ゼンセントラル,0
43,1010701047866,新規,0,2025-06-11,2025-06-11,ブレインパートナーズ株式会社,,株式会社,東京都,品川区,東品川１丁目３番１５号ザ・パークレックス天王洲ｔｈｅＤＯＣＫ,,13,109,1400002,,,,,,,2025-06-11,1,,,,,ブレインパートナーズ,0
46,1010901057533,新規,0,2025-06-11,2025-06-11,株式会社チャチャ,,株式会社,東京都,世田谷区,三軒茶屋２丁目５１番５号,,13,112,1540024,,,,,,,2025-06-11,1,,,,,チャチャ,0
49,1010903010003,新規,0,2025-06-11,2025-06-11,合同会社リスペクトリアリティ,,合同会社,東京都,世田谷区,野沢４丁目１０番２２号,,13,112,1540003,,,,,,,2025-06-11,1,,,,,リスペクトリアリティ,0
57,1011003021601,新規,0,2025-06-11,2025-06-11,Ｓａｌｅｓｈｉｐ合同会社,,合同会社,東京都,目黒区,八雲１丁目１１番８号,,13,110,1520023,,,,,,,2025-06-11,1,,,,,セールスシップ,0
60,1011105011467,新規,0,2025-06-11,2025-06-11,一般社団法人ジャパンＡＭＭＡ協会,,その他の設立登記法人,東京都,新宿区,霞ヶ丘町４番２号ＪＡＰＡＮＳＰＯＲＴＯＬＹＭＰＩＣＳＱＵＡＲＥ４０８,,13,104,1600013,,,,,,,2025-06-11,1,,,,,ジャパンエーエムエムエーキョウカイ,0
65,1011503006572,新規,0,2025-06-11,2025-06-11,アオハル合同会社,,合同会社,東京都,北区,浮間１丁目７－２３兆豊浮間ビル５０２号室,,13,117,1150051,,,,,,,2025-06-11,1,,,,,アオハル,0
69,1011801046287,新規,0,2025-06-11,2025-06-11,千田株式会社,,株式会社,東京都,葛飾区,新宿６丁目２番１－３２２号,,13,122,1250051,,,,,,,2025-06-11,1,,,,,センダ,0
71,1012403007181,新規,0,2025-06-11,2025-06-11,合同会社Ｐｕｒｅｎａ．,,合同会社,東京都,調布市,布田１丁目３２－５マートルコート調布１階,,13,208,1820024,,,,,,,2025-06-11,1,,,,,プレナドット,0
77,1013301054398,新規,0,2025-06-11,2025-06-11,ＣＯＮＹ＆ＴＯＡＤ株式会社,,株式会社,東京都,豊島区,北大塚３丁目２７番１１号,,13,116,1700004,,,,,,,2025-06-11,1,,,,,コニーアンドトード,0
78,1013301054423,新規,0,2025-06-11,2025-06-11,株式会社あまかぜ,,株式会社,東京都,豊島区,東池袋２丁目６２番８号ＢＩＧオフィスプラザ池袋１２０６,,13,116,1700013,,,,,,,2025-06-11,1,,,,,アマカゼ,0
79,1013301054431,新規,0,2025-06-11,2025-06-11,株式会社ウェルシー,,株式会社,東京都,豊島区,東池袋１丁目３３－４,,13,116,1700013,,,,,,,2025-06-11,1,,,,,ウェルシー,0
82,1020001163272,新規,0,2025-06-11,2025-06-11,ＯＩＢ　Ｊａｐａｎ株式会社,,株式会社,神奈川県,横浜市磯子区,洋光台４丁目３５－５２,,14,107,2350045,,,,,,,2025-06-11,1,,,,,,0
84,1020003028647,新規,0,2025-06-11,2025-06-11,合同会社ｎｉｈｉｌ,,合同会社,神奈川県,横浜市中区,山下町９１番地３１４,,14,104,2310023,,,,,,,2025-06-11,1,,,,,ニヒル,0
85,1020003028655,新規,0,2025-06-11,2025-06-11,ＴＴＳ合同会社,,合同会社,神奈川県,川崎市川崎区,港町３－２０サクセスフィールド２０１,,14,131,2100807,,,,,,,2025-06-11,1,,,,,ティティエス,0
86,1020005016889,新規,0,2025-06-11,2025-06-11,一般社団法人Ａｃｃｏｒｎｅ,,その他の設立登記法人,神奈川県,横浜市金沢区,寺前２丁目２番１３号,,14,108,2360014,,,,,,,2025-06-11,1,,,,,アコルネ,0
88,1021001085424,新規,0,2025-06-11,2025-06-11,株式会社Ｋ‐Ｌｉｎｅ,,株式会社,神奈川県,大和市,鶴間２丁目９番８号,,14,213,2420004,,,,,,,2025-06-11,1,,,,,ケーライン,0
89,1021001085465,新規,0,2025-06-11,2025-06-11,株式会社ＨＯＭＥＳ　ＳＡＩＴＯ‐ＫＵＮ,,株式会社,神奈川県,相模原市緑区,中野１４２１番地２,,14,151,2520157,,,,,,,2025-06-11,1,,,,,ホームズサイトークン,0
90,1021001085507,新規,0,2025-06-11,2025-06-11,ＫＵＬＫＵＲＩ株式会社,,株式会社,神奈川県,厚木市,妻田南１丁目１１番９号ピアコートＣ－１０３,,14,212,2430814,,,,,,,2025-06-11,1,,,,,クルクリ,0
92,1021003016113,新規,0,2025-06-11,2025-06-11,マリンセンス合同会社,,合同会社,神奈川県,厚木市,毛利台１丁目１３番７号,,14,212,2430037,,,,,,,2025-06-11,1,,,,,マリンセンス,0
98,1030001167009,新規,0,2025-06-11,2025-06-11,ＪＴＲ　Ｈｏｌｄｉｎｇｓ株式会社,,株式会社,埼玉県,さいたま市南区,南浦和１丁目２６番１号,,11,108,3360017,,,,,,,2025-06-11,1,,,,,ジェイティーアールホールディングス,0
99,1030001167025,新規,0,2025-06-11,2025-06-11,株式会社リズナース,,株式会社,埼玉県,さいたま市浦和区,瀬ヶ崎１丁目２７番３号,,11,107,3300044,,,,,,,2025-06-11,1,,,,,リズナース,0
100,1030001167033,新規,0,2025-06-11,2025-06-11,株式会社ソニックス,,株式会社,埼玉県,朝霞市,根岸台７丁目４２番１５号スカイシティ２０１,,11,227,3510005,,,,,,,2025-06-11,1,,,,,ソニックス,0
106,1030003026963,新規,0,2025-06-11,2025-06-11,Ｗａｋｕｒｙ　Ａｃａｄｅｍｉａ合同会社,,合同会社,埼玉県,上尾市,大字大谷本郷８０９番地１８,,11,219,3620044,,,,,,,2025-06-11,1,,,,,ワクリィアカデミア,0
107,1030003026971,新規,0,2025-06-11,2025-06-11,合同会社ＹＫ　ｇｒｏｕｐ,,合同会社,埼玉県,入間市,小谷田１丁目９番４２号２,,11,225,3580026,,,,,,,2025-06-11,1,,,,,ワイケーグループ,0
116,1050001056804,新規,0,2025-06-11,2025-06-11,株式会社仁斗電気工業,,株式会社,茨城県,稲敷郡阿見町,よしわら６丁目２０番地１２,,08,443,3001161,,,,,,,2025-06-11,1,,,,,ニトデンキコウギョウ,0
121,1060005010351,新規,0,2025-06-11,2025-06-11,一般社団法人日本健康チアダンス協会,,その他の設立登記法人,栃木県,宇都宮市,鶴田町５３２番地８,,09,201,3200851,,,,,,,2025-06-11,1,,,,,ニホンケンコウチアダンスキョウカイ,0
127,1100001038680,新規,0,2025-06-11,2025-06-11,桜開発株式会社,,株式会社,長野県,岡谷市,南宮２丁目４番４５号１０２号室,,20,204,3940033,,,,,,,2025-06-11,1,,,,,サクラカイハツ,0
137,1120001276683,新規,0,2025-06-11,2025-06-11,株式会社ＲＭキャピタル,,株式会社,大阪府,大阪市北区,大淀南１丁目９－１６－４０５,,27,127,5310075,,,,,,,2025-06-11,1,,,,,アールエムキャピタル,0
138,1120001276700,新規,0,2025-06-11,2025-06-11,株式会社ＳＥＡＧＡＴＥ,,株式会社,大阪府,大阪市北区,鶴野町３番９－２８０６号,,27,127,5300014,,,,,,,2025-06-11,1,,,,,シーゲート,0
139,1120001276725,新規,0,2025-06-11,2025-06-11,株式会社竹脇自動車,,株式会社,大阪府,守口市,八雲東町２丁目３０番１８号,,27,209,5700021,,,,,,,2025-06-11,1,,,,,タケワキジドウシャ,0
140,1120001276741,新規,0,2025-06-11,2025-06-11,宜君佳合株式会社,,株式会社,大阪府,大阪市港区,港晴４丁目９番５号２階,,27,107,5520023,,,,,,,2025-06-11,1,,,,,ギクンカゴウ,0
141,1120001276766,新規,0,2025-06-11,2025-06-11,福木株式会社,,株式会社,大阪府,寝屋川市,美井元町１１番１８号３０１号室,,27,215,5720006,,,,,,,2025-06-11,1,,,,,フクギ,0
148,1120003029651,新規,0,2025-06-11,2025-06-11,合同会社Ｆｅｌｉｃｅ,,合同会社,大阪府,大阪市平野区,平野東３丁目１番１号スペチアーレ平野東１０２,,27,126,5470043,,,,,,,2025-06-11,1,,,,,フェリーチェ,0
149,1120003029726,新規,0,2025-06-11,2025-06-11,合同会社猫山商事,,合同会社,大阪府,大阪市大正区,北恩加島１丁目１２番６号,,27,108,5510033,,,,,,,2025-06-11,1,,,,,ネコヤマショウジ,0
150,1120003029750,新規,0,2025-06-11,2025-06-11,点動屋合同会社,,合同会社,大阪府,大阪市北区,梅田１丁目２番２号大阪駅前第２ビル１２－１２,,27,127,5300001,,,,,,,2025-06-11,1,,,,,テンドウヤ,0
154,1120101071869,新規,0,2025-06-11,2025-06-11,Ｏｒｉｇａｍｉ株式会社,,株式会社,大阪府,藤井寺市,小山９丁目２１番３号,,27,226,5830033,,,,,,,2025-06-11,1,,,,,オリガミ,0
155,1120105010014,新規,0,2025-06-11,2025-06-11,一般社団法人レインボーカフェｉｎ岸和田,,その他の設立登記法人,大阪府,岸和田市,下野町２丁目２番１号,,27,202,5960041,,,,,,,2025-06-11,1,,,,,レインボーカフェインキシワダ,0
159,1122001039335,新規,0,2025-06-11,2025-06-11,株式会社ＨＫハムードＣａｒｓ,,株式会社,大阪府,東大阪市,長田３丁目７番２７－５０７号,,27,227,5770015,,,,,,,2025-06-11,1,,,,,エイチケーハムードカーズ,0
161,1130001079862,新規,0,2025-06-11,2025-06-11,株式会社ＡＹＵＤＡＳ,,株式会社,京都府,宇治市,木幡北山畑３１番地グローバル宇治木幡４０９号,,26,204,6110002,,,,,,,2025-06-11,1,,,,,アユーダス,0
162,1130001079870,新規,0,2025-06-11,2025-06-11,絵画料理株式会社,,株式会社,京都府,京都市東山区,祇園町南側５０１番地３,,26,105,6050074,,,,,,,2025-06-11,1,,,,,カイガリョウリ,0
173,1140001138816,新規,0,2025-06-11,2025-06-11,ＴＨＥＳＴＯＣＫ株式会社,,株式会社,兵庫県,川西市,湯山台１丁目２１番６,,28,217,6660137,,,,,,,2025-06-11,1,,,,,ザストック,0
174,1140003022051,新規,0,2025-06-11,2025-06-11,神若商会合同会社,,合同会社,兵庫県,神戸市中央区,宮本通７丁目４－１０－３,,28,110,6510063,,,,,,,2025-06-11,1,,,,,カミワカショウカイ,0
175,1140003022200,新規,0,2025-06-11,2025-06-11,合同会社北村商事,,合同会社,兵庫県,豊岡市,出石町柳２６番地,,28,209,6680234,,,,,,,2025-06-11,1,,,,,キタムラショウジ,0
176,1140005027536,新規,0,2025-06-11,2025-06-11,特定非営利活動法人ＧＲＯＷＩＮＧ　ＵＰ,,その他の設立登記法人,兵庫県,神戸市中央区,山本通５丁目３番地の６,,28,110,6500003,,,,,,,2025-06-11,1,,,,,グローイングアップ,0
183,1160003003512,新規,0,2025-06-11,2025-06-11,合同会社スタジオみにょ,,合同会社,滋賀県,大津市,中央２丁目４－２８錦ビル３０１,,25,201,5200043,,,,,,,2025-06-11,1,,,,,スタジオミニョ,0
192,1180003028598,新規,0,2025-06-11,2025-06-11,合同会社ｍｕｎｉ,,合同会社,愛知県,一宮市,宮地２丁目１０番７号ミヤチハイツ１階,,23,203,4910915,,,,,,,2025-06-11,1,,,,,ムニ,0
193,1180003028607,新規,0,2025-06-11,2025-06-11,ＳＭＳ　ＡＮＤ　ＣＯ．合同会社,,合同会社,愛知県,弥富市,三稲１丁目１０番１,,23,235,4980054,,,,,,,2025-06-11,1,,,,,エスエムエスアンドコー,0
194,1180301039900,新規,0,2025-06-11,2025-06-11,株式会社ＳＫＲホールディングス,,株式会社,愛知県,豊田市,長興寺４丁目６番地１,,23,211,4710879,,,,,,,2025-06-11,1,,,,,エスケーアールホールディングス,0
195,1190001032279,新規,0,2025-06-11,2025-06-11,株式会社ナカニシプランニング,,株式会社,三重県,伊勢市,神久２丁目５番６２号,,24,203,5160017,,,,,,,2025-06-11,1,,,,,ナカニシプランニング,0
196,1190001032295,新規,0,2025-06-11,2025-06-11,ＩＷＡＴＯ　ＩＮＮＯＶＡＴＩＯＮ株式会社,,株式会社,三重県,四日市市,高角町２８０１番地,,24,202,5120923,,,,,,,2025-06-11,1,,,,,イワトイノベーション,0
201,1210001020207,新規,0,2025-06-11,2025-06-11,株式会社ネクセルホールディングス,,株式会社,福井県,鯖江市,上河端町第３６号４番地３,,18,207,9160037,,,,,,,2025-06-11,1,,,,,ネクセルホールディングス,0
206,1240001065067,新規,0,2025-06-11,2025-06-11,株式会社ＹＫＭ,,株式会社,広島県,福山市,神村町１１９６番地,,34,207,7290112,,,,,,,2025-06-11,1,,,,,ワイケーエム,0
207,1240003007249,新規,0,2025-06-11,2025-06-11,合同会社イロドリ,,合同会社,広島県,広島市東区,矢賀新町５丁目９番１４号天神川エステート,,34,102,7320044,,,,,,,2025-06-11,1,,,,,イロドリ,0
222,1290001110165,新規,0,2025-06-11,2025-06-11,株式会社Ｓｏｃｉａｌ　Ｃａｐｉｔａｌ,,株式会社,福岡県,春日市,春日原北町３丁目５８－１春日原テルミナ５０８,,40,218,8160802,,,,,,,2025-06-11,1,,,,,ソーシャルキャピタル,0
223,1290001110347,新規,0,2025-06-11,2025-06-11,新川株式会社,,株式会社,福岡県,福岡市中央区,赤坂２丁目２番９－４０３,,40,133,8100042,,,,,,,2025-06-11,1,,,,,シンカワ,0
224,1290001110363,新規,0,2025-06-11,2025-06-11,徳栄株式会社,,株式会社,福岡県,福岡市中央区,天神４丁目６－２８いちご天神ノースビル７階,,40,133,8100001,,,,,,,2025-06-11,1,,,,,トクエイ,0
229,1290803005075,新規,0,2025-06-11,2025-06-11,合同会社ＣＡＲＩＮＡＳ,,合同会社,福岡県,北九州市小倉北区,馬借３丁目１番７号小川レジデンスＩ－２０２Ｂ,00139540,40,106,8020077,,,,,,,2025-06-11,1,,,,,キャリナス,0
238,1350001019581,新規,0,2025-06-11,2025-06-11,株式会社１２１６,,株式会社,宮崎県,宮崎市,橘通西３丁目１０番３２号,,45,201,8800001,,,,,,,2025-06-11,1,,,,,トゥエルブシックスティーン,0
243,1370001052688,新規,0,2025-06-11,2025-06-11,株式会社ユニグラッド,,株式会社,宮城県,仙台市泉区,根白石字花輪山下８－３,,04,105,9813221,,,,,,,2025-06-11,1,,,,,ユニグラッド,0
244,1370001052696,新規,0,2025-06-11,2025-06-11,株式会社睦建設,,株式会社,宮城県,多賀城市,新田字北１４６番地の４,,04,209,9850854,,,,,,,2025-06-11,1,,,,,ムツミケンセツ,0
256,1430001094658,新規,0,2025-06-11,2025-06-11,北国際株式会社,,株式会社,北海道,札幌市東区,北四十七条東５丁目１番３０号,,01,103,0070847,,,,,,,2025-06-11,1,,,,,キタコクサイ,0
258,1462501001033,新規,0,2025-06-11,2025-06-11,株式会社Ａｇｒｉ　Ａｇｅｎｃｙ,,株式会社,北海道,野付郡別海町,西春別駅前曙町６番地の１２６,,01,691,0882566,,,,,,,2025-06-11,1,,,,,アグリエージェンシー,0
261,1700150040336,新規,0,2025-06-11,2015-10-09,きらやか銀行従業員組合,,その他,山形県,山形市,旅篭町３丁目２－３,,06,201,9900047,,,,,,,2015-10-09,1,,,,,キラヤカギンコウジユウギヨウインクミアイ,0
273,2010001255482,新規,0,2025-06-11,2025-06-11,グリーンエックス株式会社,,株式会社,東京都,千代田区,丸の内３丁目２番２号丸の内二重橋ビル２階,,13,101,1000005,,,,,,,2025-06-11,1,,,,,グリーンエックス,0
274,2010001255615,新規,0,2025-06-11,2025-06-11,株式会社ｃｏｅｕｒｃ,,株式会社,東京都,中央区,銀座５丁目９番１３号銀座菊正ビル７Ｆ,,13,102,1040061,,,,,,,2025-06-11,1,,,,,クールシー,0
275,2010001255664,新規,0,2025-06-11,2025-06-11,Ｅｂａｓｈｏホールディングス株式会社,,株式会社,東京都,中央区,日本橋茅場町３丁目９番１０号,,13,102,1030025,,,,,,,2025-06-11,1,,,,,エバショーホールディングス,0
276,2010001255805,新規,0,2025-06-11,2025-06-11,カクエイ株式会社,,株式会社,東京都,千代田区,神田富山町９－３神田東邦センタービル３Ｆ,,13,101,1010043,,,,,,,2025-06-11,1,,,,,カクエイ,0
277,2010001255854,新規,0,2025-06-11,2025-06-11,ＪＰＡ第３５７号株式会社,,株式会社,東京都,千代田区,霞が関３丁目２番１号,,13,101,1000013,,,,,,,2025-06-11,1,,,,,ジェイピーエーダイサンビャクゴジュウナナゴウ,0
278,2010001255870,新規,0,2025-06-11,2025-06-11,株式会社Ｃｌｅａｎ　Ｒｉｓｅ,,株式会社,東京都,中央区,日本橋箱崎町３３番６号,,13,102,1030015,,,,,,,2025-06-11,1,,,,,,0
279,2010001255912,新規,0,2025-06-11,2025-06-11,ソルヴェクサ株式会社,,株式会社,東京都,中央区,日本橋茅場町１丁目１１番８号,,13,102,1030025,,,,,,,2025-06-11,1,,,,,ソルヴェクサ,0
281,2010003047639,新規,0,2025-06-11,2025-06-11,合同会社Ｆｕｔｏｋｏｒｏｇａｔａｎａ,,合同会社,東京都,千代田区,神田小川町２丁目４番地２Ｆ,,13,101,1010052,,,,,,,2025-06-11,1,,,,,フトコロガタナ,0
290,2010401190817,新規,0,2025-06-11,2025-06-11,源美堂株式会社,,株式会社,東京都,港区,元麻布３丁目１０番１１号大和コーポ２０６,,13,103,1060046,,,,,,,2025-06-11,1,,,,,ゲンビドウ,0
291,2010401190833,新規,0,2025-06-11,2025-06-11,株式会社ＧＲＩＭ,,株式会社,東京都,港区,麻布十番１丁目８番地１０ＴＨＥＶ－ＣＩＴＹ麻布十番ＣＥＮＴＲＥ９階,,13,103,1060045,,,,,,,2025-06-11,1,,,,,グリム,0
292,2010401190916,新規,0,2025-06-11,2025-06-11,株式会社ＲＥＩＮ,,株式会社,東京都,港区,浜松町２丁目２番１５号浜松町ダイヤビル２Ｆ,,13,103,1050013,,,,,,,2025-06-11,1,,,,,レイン,0
293,2010401190924,新規,0,2025-06-11,2025-06-11,株式会社Ｆｉｇｏ,,株式会社,東京都,港区,新橋１丁目１２番９号新橋プレイス６階,,13,103,1050004,,,,,,,2025-06-11,1,,,,,フィーゴ,0
294,2010401190940,新規,0,2025-06-11,2025-06-11,株式会社ＧＯＡＴ,,株式会社,東京都,港区,東麻布２丁目２２番７号,,13,103,1060044,,,,,,,2025-06-11,1,,,,,ゴート,0
295,2010401190973,新規,0,2025-06-11,2025-06-11,株式会社ＤＥＳＩＲＥ　ＣＲＯＳＳ,,株式会社,東京都,港区,北青山１丁目３番１号アールキューブ青山３階,,13,103,1070061,,,,,,,2025-06-11,1,,,,,デザイアクロス,0
296,2010401190981,新規,0,2025-06-11,2025-06-11,株式会社グローバルエンバー,,株式会社,東京都,港区,新橋２丁目１１番１号メナー新橋７階,,13,103,1050004,,,,,,,2025-06-11,1,,,,,グローバルエンバー,0
303,2010403035334,新規,0,2025-06-11,2025-06-11,福島二本松蓄電所合同会社,,合同会社,東京都,港区,虎ノ門５丁目３番２０号株式会社アカウンティング・マネジメント・サービス内,,13,103,1050001,,,,,,,2025-06-11,1,,,,,フクシマニホンマツチクデンショ,0
304,2010403035342,新規,0,2025-06-11,2025-06-11,ＭＵＹＵ合同会社,,合同会社,東京都,港区,赤坂４丁目４番８号５階,,13,103,1070052,,,,,,,2025-06-11,1,,,,,ムーユ,0
305,2010405024392,新規,0,2025-06-11,2025-06-11,一般社団法人ｉｎｃｒｉ,,その他の設立登記法人,東京都,港区,南青山３丁目１番３６号青山丸竹ビル６階,,13,103,1070062,,,,,,,2025-06-11,1,,,,,インクリ,0
309,2010603011622,新規,0,2025-06-11,2025-06-11,合同会社ＲＧ,,合同会社,東京都,江東区,富岡１丁目２－５長田ビル３０１,,13,108,1350047,,,,,,,2025-06-11,1,,,,,アールジー,0
311,2010701047816,新規,0,2025-06-11,2025-06-11,Ｊ．Ｗ．Ｊ株式会社,,株式会社,東京都,品川区,南大井５丁目４番４号,,13,109,1400013,,,,,,,2025-06-11,1,,,,,ジェイダブルジェイ,0
317,2010901057549,新規,0,2025-06-11,2025-06-11,株式会社Ｐａｎｇｒａｐｈｉｃｓ,,株式会社,東京都,世田谷区,世田谷４丁目１４番３２－６０３号,,13,112,1540017,,,,,,,2025-06-11,1,,,,,パングラフィックス,0
322,2011001170077,新規,0,2025-06-11,2025-06-11,株式会社ＴＡＳＵＫＩ,,株式会社,東京都,渋谷区,道玄坂１丁目１０番８号,,13,113,1500043,,,,,,,2025-06-11,1,,,,,タスキ,0
323,2011001170127,新規,0,2025-06-11,2025-06-11,株式会社Ｃａｎｖａｓ,,株式会社,東京都,渋谷区,代々木１丁目３０番１５号天翔代々木ビル２０３,,13,113,1510053,,,,,,,2025-06-11,1,,,,,キャンバス,0
324,2011001170135,新規,0,2025-06-11,2025-06-11,株式会社バイラス,,株式会社,東京都,目黒区,中町２丁目２６番地７号,,13,110,1530065,,,,,,,2025-06-11,1,,,,,バイラス,0
325,2011001170300,新規,0,2025-06-11,2025-06-11,株式会社ＥｄＴｅｃｈＳｔｕｄｉｏ,,株式会社,東京都,渋谷区,恵比寿西２丁目８番４号ＥＸ恵比寿西ビル５階,,13,113,1500021,,,,,,,2025-06-11,1,,,,,エドテックスタジオ,0
326,2011001170507,新規,0,2025-06-11,2025-06-11,ソラフル株式会社,,株式会社,東京都,目黒区,上目黒４丁目４１番５号コーポ藤香Ａ,,13,110,1530051,,,,,,,2025-06-11,1,,,,,ソラフル,0
328,2011003021740,新規,0,2025-06-11,2025-06-11,合同会社Ｍｉｒａｉ　Ｓｅｅｄ,,合同会社,東京都,渋谷区,道玄坂１丁目１０番８号渋谷道玄坂東急ビル２Ｆ－Ｃ,,13,113,1500043,,,,,,,2025-06-11,1,,,,,ミライシード,0
336,2011801046294,新規,0,2025-06-11,2025-06-11,株式会社Ｌ＆Ｚ,,株式会社,東京都,足立区,栗原３丁目２６番１号２Ｆ,,13,121,1230842,,,,,,,2025-06-11,1,,,,,エルアンドゼット,0
340,2012401043186,新規,0,2025-06-11,2025-06-11,株式会社ハイプレス,,株式会社,東京都,小金井市,前原町３丁目１２―１２,,13,210,1840013,,,,,,,2025-06-11,1,,,,,ハイプレス,0
341,2012401043194,新規,0,2025-06-11,2025-06-11,株式会社パラッツォ,,株式会社,東京都,府中市,宮町１丁目１００番地プラウド府中ステーションアリーナ１５０９,,13,206,1830023,,,,,,,2025-06-11,1,,,,,パラッツォ,0
346,2013301054439,新規,0,2025-06-11,2025-06-11,ＨＯＳＨＩＲＯ株式会社,,株式会社,東京都,豊島区,北大塚３丁目２３－１１タートル・アパートメント３０２室,,13,116,1700004,,,,,,,2025-06-11,1,,,,,ホシロ,0
359,2020001163032,新規,0,2025-06-11,2025-06-11,株式会社ＳＩＭＡ,,株式会社,神奈川県,横浜市保土ケ谷区,宮田町２丁目１８１番地７第１丸秋ビル１階,,14,106,2400002,,,,,,,2025-06-11,1,,,,,シマ,0
360,2020001163271,新規,0,2025-06-11,2025-06-11,株式会社海稜,,株式会社,神奈川県,横浜市磯子区,汐見台１丁目２番地３－１２０９棟９４１号,,14,107,2350022,,,,,,,2025-06-11,1,,,,,カイリョウ,0
361,2020001163305,新規,0,2025-06-11,2025-06-11,Ｔａｃｌｉｎｋ　Ｊａｐａｎ株式会社,,株式会社,神奈川県,横浜市西区,高島２丁目１９－１２横浜スカイビル２０階,,14,103,2200011,,,,,,,2025-06-11,1,,,,,タックリンクジャパン,0
362,2020001163321,新規,0,2025-06-11,2025-06-11,ＳＥＶＥＮ　ＳＴＡＲ株式会社,,株式会社,神奈川県,川崎市幸区,小向西町４丁目６８－１,,14,132,2120004,,,,,,,2025-06-11,1,,,,,セブンスター,0
366,2020003028654,新規,0,2025-06-11,2025-06-11,合同会社富建設,,合同会社,神奈川県,川崎市川崎区,砂子１丁目４番地５,,14,131,2100006,,,,,,,2025-06-11,1,,,,,トミケンセツ,0
367,2020003028679,新規,0,2025-06-11,2025-06-11,Ｙ２ネクスト合同会社,,合同会社,神奈川県,横浜市金沢区,富岡東１丁目３６番４号,,14,108,2360051,,,,,,,2025-06-11,1,,,,,ワイツウネクスト,0
368,2020003028704,新規,0,2025-06-11,2025-06-11,太田組合同会社,,合同会社,神奈川県,横浜市泉区,白百合３丁目３番７号,,14,116,2450005,,,,,,,2025-06-11,1,,,,,オオタグミ,0
373,2021001085357,新規,0,2025-06-11,2025-06-11,栄橋商事株式会社,,株式会社,神奈川県,相模原市南区,東林間２丁目２１－２３－３０１,,14,153,2520311,,,,,,,2025-06-11,1,,,,,エイバシショウジ,0
374,2021001085464,新規,0,2025-06-11,2025-06-11,株式会社Ｈｏｕｓｅ　Ｒｅｎｏｖａ,,株式会社,神奈川県,平塚市,立野町３８番１０号,,14,203,2540046,,,,,,,2025-06-11,1,,,,,ハウスリノベ,0
381,2030001166975,新規,0,2025-06-11,2025-06-11,株式会社石田地所,,株式会社,埼玉県,さいたま市岩槻区,本丸１丁目３６番５－１号,,11,110,3390058,,,,,,,2025-06-11,1,,,,,イシダジショ,0
382,2030001166991,新規,0,2025-06-11,2025-06-11,株式会社さくら,,株式会社,埼玉県,春日部市,谷原３丁目１番地４,,11,214,3440065,,,,,,,2025-06-11,1,,,,,サクラ,0
383,2030001167024,新規,0,2025-06-11,2025-06-11,株式会社ワンダーライン,,株式会社,埼玉県,さいたま市緑区,大字三室９８９番地１１－１Ｆ,,11,109,3360911,,,,,,,2025-06-11,1,,,,,ワンダーライン,0
393,2040001139055,新規,0,2025-06-11,2025-06-11,株式会社Ｎｉｃｏ　Ｐｒｏｐｅｒｔｉｅｓ,,株式会社,千葉県,市川市,南大野１丁目４６番１ー６０４号,,12,203,2720804,,,,,,,2025-06-11,1,,,,,ニコプロパティーズ,0
394,2040001139105,新規,0,2025-06-11,2025-06-11,村山建築株式会社,,株式会社,千葉県,習志野市,実籾１丁目３９番１５号,,12,216,2750002,,,,,,,2025-06-11,1,,,,,ムラヤマケンチク,0
395,2040003027745,新規,0,2025-06-11,2025-06-11,合同会社Ｒａｙｔｏｗａｒｄ,,合同会社,千葉県,船橋市,本町６丁目４－１５グラン大城３０１,,12,204,2730005,,,,,,,2025-06-11,1,,,,,レイトワード,0
397,2040005022793,新規,0,2025-06-11,2025-06-11,特定非営利活動法人子ども支援事業リコネクト‐Ｒｅｃｏｎｎｅｃｔ,,その他の設立登記法人,千葉県,船橋市,飯山満町３丁目１７２３番地１８コスモライフ１０１号,,12,204,2740822,,,,,,,2025-06-11,1,,,,,コドモシエンジギョウリコネクト,0
399,2070001042999,新規,0,2025-06-11,2025-06-11,株式会社なえちょもらんま,,株式会社,群馬県,高崎市,小八木町１６０１番地１,,10,202,3700071,,,,,,,2025-06-11,1,,,,,ナエチョモランマ,0
407,2100001038688,新規,0,2025-06-11,2025-06-11,株式会社山屋酒店,,株式会社,長野県,松本市,大字島内２３５９番地７,,20,202,3900851,,,,,,,2025-06-11,1,,,,,ヤマヤサケテン,0
419,2120001276682,新規,0,2025-06-11,2025-06-11,ＡＩＤ株式会社,,株式会社,大阪府,大阪市北区,天神橋７丁目１２番１４号,,27,127,5310041,,,,,,,2025-06-11,1,,,,,エイド,0
420,2120001276699,新規,0,2025-06-11,2025-06-11,株式会社ＭＡＯ,,株式会社,大阪府,大阪市北区,鶴野町３番９－２８０６号,,27,127,5300014,,,,,,,2025-06-11,1,,,,,マオ,0
421,2120001276724,新規,0,2025-06-11,2025-06-11,株式会社Ｅｎｈａｕｓ,,株式会社,大阪府,門真市,桑才町６番１３号,,27,223,5710035,,,,,,,2025-06-11,1,,,,,エンハウス,0
422,2120001276732,新規,0,2025-06-11,2025-06-11,株式会社ＦＩＴ,,株式会社,大阪府,大阪市中央区,備後町１丁目５－１４サイカビル４Ｆ,,27,128,5410051,,,,,,,2025-06-11,1,,,,,フィット,0
427,2120003029700,新規,0,2025-06-11,2025-06-11,合同会社Ｂｕｄｄｙｕｐ,,合同会社,大阪府,大阪市北区,中津３丁目２４番３号,,27,127,5310071,,,,,,,2025-06-11,1,,,,,バディアップ,0
428,2120003029717,新規,0,2025-06-11,2025-06-11,合同会社インフィニティ,,合同会社,大阪府,大阪市北区,梅田１丁目２番２号大阪駅前第２ビル１２－１２,,27,127,5300001,,,,,,,2025-06-11,1,,,,,インフィニティ,0
429,2120003029725,新規,0,2025-06-11,2025-06-11,ＡＬＭＡ合同会社,,合同会社,大阪府,大阪市中央区,内久宝寺町４丁目３番１０号,,27,128,5400013,,,,,,,2025-06-11,1,,,,,アルマ,0
430,2120003029733,新規,0,2025-06-11,2025-06-11,ホスピタリティケアサービス合同会社,,合同会社,大阪府,大阪市鶴見区,今津中５丁目２番２号,,27,124,5380042,,,,,,,2025-06-11,1,,,,,ホスピタリティケアサービス,0
434,2120101071868,新規,0,2025-06-11,2025-06-11,株式会社Ｇｅｍｉｎｉ,,株式会社,大阪府,堺市堺区,神南辺町２丁７６番地１メゾンドール堺２２１号,,27,141,5900984,,,,,,,2025-06-11,1,,,,,ジェミニ,0
435,2120101071876,新規,0,2025-06-11,2025-06-11,株式会社狂人,,株式会社,大阪府,和泉市,内田町３丁目３番２５号,,27,219,5941156,,,,,,,2025-06-11,1,,,,,クレイジービート,0
436,2120103006509,新規,0,2025-06-11,2025-06-11,喜楽多合同会社,,合同会社,大阪府,阪南市,緑ヶ丘１丁目８番１０号,,27,232,5990216,,,,,,,2025-06-11,1,,,,,キラクタ,0
440,2120901051004,新規,0,2025-06-11,2025-06-11,株式会社カメイ,,株式会社,大阪府,茨木市,西豊川町１３番２６号アンドスペース７号,,27,211,5670058,,,,,,,2025-06-11,1,,,,,カメイ,0
446,2130002013209,新規,0,2025-06-11,2025-06-11,有限会社イー・イー・シー開発,,有限会社,京都府,京都市伏見区,竹田中川原町３７－１,,26,109,6128412,,,,,,,2025-06-11,1,,,,,イーイーシーカイハツ,0
453,2140003022174,新規,0,2025-06-11,2025-06-11,ミワセレクト合同会社,,合同会社,兵庫県,三木市,緑が丘町東３丁目１５番地の１１,,28,215,6730533,,,,,,,2025-06-11,1,,,,,ミワセレクト,0
462,2170001018667,新規,0,2025-06-11,2025-06-11,株式会社全力,,株式会社,和歌山県,和歌山市,木ノ本９８４番地３,,30,201,6408453,,,,,,,2025-06-11,1,,,,,ゼンリョク,0
470,2180005021121,新規,0,2025-06-11,2025-06-11,特定非営利活動法人でらいと,,その他の設立登記法人,愛知県,名古屋市南区,明治２丁目１１番６号,,23,112,4570861,,,,,,,2025-06-11,1,,,,,デライト,0
471,2180301039899,新規,0,2025-06-11,2025-06-11,ｋ‐ｂｒｉｄｇｅ株式会社,,株式会社,愛知県,豊田市,東新町６丁目１２番地５元町ハイツ２０５号,,23,211,4710045,,,,,,,2025-06-11,1,,,,,ケイブリッジ,0
473,2180303006609,新規,0,2025-06-11,2025-06-11,中里低圧発電所合同会社,,合同会社,愛知県,田原市,西山町西ノ山９２番地,,23,231,4413619,,,,,,,2025-06-11,1,,,,,ナカザトテイアツハツデンショ,0
476,2190001032294,新規,0,2025-06-11,2025-06-11,株式会社英山開発,,株式会社,三重県,四日市市,諏訪栄町４番１０号アピカビル３Ｆ,,24,202,5100086,,,,,,,2025-06-11,1,,,,,エイザンカイハツ,0
477,2200001043884,新規,0,2025-06-11,2025-06-11,ＮＡＹＵ株式会社,,株式会社,岐阜県,岐阜市,茜部大野２丁目２５０番地１（クオリア茜部１０３号室）,,21,201,5008261,,,,,,,2025-06-11,1,,,,,ナユ,0
479,2200003006872,新規,0,2025-06-11,2025-06-11,ＡＳ　ＴＲＡＤＩＮＧ合同会社,,合同会社,岐阜県,岐阜市,洞６１７－７ハイツ中村１０５号室,,21,201,5011128,,,,,,,2025-06-11,1,,,,,エーエストレーディング,0
481,2220003004057,新規,0,2025-06-11,2025-06-11,合同会社心灯華,,合同会社,石川県,野々市市,新庄６丁目６２４番地１,,17,212,9218824,,,,,,,2025-06-11,1,,,,,シントウカ,0
491,2240001065041,新規,0,2025-06-11,2025-06-11,株式会社ステルスクーラー,,株式会社,広島県,広島市中区,胡町２－１２広栄ビル３階,,34,101,7300021,,,,,,,2025-06-11,1,,,,,ステルスクーラー,0
501,2290001110271,新規,0,2025-06-11,2025-06-11,株式会社九州プレーナー工業,,株式会社,福岡県,筑後市,大字常用１１３２番地１,,40,211,8330016,,,,,,,2025-06-11,1,,,,,キュウシュウプレーナーコウギョウ,0
502,2290001110362,新規,0,2025-06-11,2025-06-11,株式会社ＴＥＤ　ＣＯＭＰＡＮＹ,,株式会社,福岡県,糸島市,志摩桜井４７９５番地１,,40,230,8191304,,,,,,,2025-06-11,1,,,,,テッドカンパニー,0
503,2290001110370,新規,0,2025-06-11,2025-06-11,ＳＡＮＫＥＩコンサルティング株式会社,,株式会社,福岡県,福岡市中央区,唐人町１丁目４番３号ミモザビル２Ｆ,,40,133,8100063,,,,,,,2025-06-11,1,,,,,サンケイコンサルティング,0
507,2290003016979,新規,0,2025-06-11,2025-06-11,合同会社さとう造形舎,,合同会社,福岡県,大野城市,南ケ丘１丁目２番２０号,,40,219,8160964,,,,,,,2025-06-11,1,,,,,サトウゾウケイシャ,0
521,2350003004952,新規,0,2025-06-11,2025-06-11,合同会社２４,,合同会社,宮崎県,宮崎市,大工１丁目１１番１４号アクアマリンコーポ２０１,,45,201,8800015,,,,,,,2025-06-11,1,,,,,ニーヨン,0
523,2360001035321,新規,0,2025-06-11,2025-06-11,株式会社カデカワ,,株式会社,沖縄県,那覇市,久茂地３丁目５番１５号５階,,47,201,9000015,,,,,,,2025-06-11,1,,,,,カデカワ,0
529,2390003002408,新規,0,2025-06-11,2025-06-11,合同会社清寛,,合同会社,山形県,山形市,城西町４丁目１―１２―１０,,06,201,9900832,,,,,,,2025-06-11,1,,,,,セイカン,0
534,2430001094640,新規,0,2025-06-11,2025-06-11,ＺＡＢＯＣＯＮ株式会社,,株式会社,北海道,札幌市東区,北八条東１６丁目１番５号,,01,103,0650008,,,,,,,2025-06-11,1,,,,,ザボコン,0
537,2430003017756,新規,0,2025-06-11,2025-06-11,合同会社ＳＨＩＲＯ　ＴＡＳＴＥ,,合同会社,北海道,小樽市,桂岡町２９番２３号,,01,203,0470264,,,,,,,2025-06-11,1,,,,,シロテイスト,0
539,2450001014638,新規,0,2025-06-11,2025-06-11,山舎株式会社,,株式会社,北海道,富良野市,錦町４番３号,,01,229,0760028,,,,,,,2025-06-11,1,,,,,サンシャ,0
540,2450001014646,新規,0,2025-06-11,2025-06-11,株式会社アイブレック,,株式会社,北海道,旭川市,豊岡三条６丁目２－２０－２,,01,204,0788233,,,,,,,2025-06-11,1,,,,,アイブレック,0
542,2480003002274,新規,0,2025-06-11,2025-06-11,合同会社色風,,合同会社,徳島県,徳島市,佐古六番町５番２８－５０１号,,36,201,7700026,,,,,,,2025-06-11,1,,,,,イロカゼ,0
552,3010001255770,新規,0,2025-06-11,2025-06-11,株式会社Ｔｅｃｈ　Ｖｉｌｌａｇｅ,,株式会社,東京都,中央区,銀座１丁目１２番４号Ｎ＆ＥＢＬＤ．６Ｆ,,13,102,1040061,,,,,,,2025-06-11,1,,,,,テックビレッジ,0
553,3010001255779,新規,0,2025-06-11,2025-06-11,株式会社Ｊ．Ｄ．Ｅｘｐｅｒｉｅｎｃｅ,,株式会社,東京都,中央区,銀座１丁目２２番１１号銀座大竹ビジデンス２Ｆ,,13,102,1040061,,,,,,,2025-06-11,1,,,,,ジェーディーエクスペリエンス,0
554,3010001255787,新規,0,2025-06-11,2025-06-11,株式会社アシスト,,株式会社,東京都,中央区,銀座１丁目１２番４号Ｎ＆ＥＢＬＤ．６Ｆ,,13,102,1040061,,,,,,,2025-06-11,1,,,,,アシスト,0
555,3010001255795,新規,0,2025-06-11,2025-06-11,永代産業株式会社,,株式会社,東京都,中央区,日本橋室町１丁目１１番１２号日本橋水野ビル７階,,13,102,1030022,,,,,,,2025-06-11,1,,,,,エイタイサンギョウ,0
556,3010001255820,新規,0,2025-06-11,2025-06-11,株式会社ＫＡＧＲＡ,,株式会社,東京都,千代田区,永田町２丁目９－６十全ビル３０４,,13,101,1000014,,,,,,,2025-06-11,1,,,,,カグラ,0
557,3010001255886,新規,0,2025-06-11,2025-06-11,株式会社プルームエステート,,株式会社,東京都,中央区,勝どき４丁目６番２ー４２１９号,,13,102,1040054,,,,,,,2025-06-11,1,,,,,プルームエステート,0
559,3010003047522,新規,0,2025-06-11,2025-06-11,合同会社Ｂｏｒｉｎｇ,,合同会社,東京都,中央区,八丁堀４丁目２－４レティーナ銀座Ｅａｓｔ３０１,,13,102,1040032,,,,,,,2025-06-11,1,,,,,ボアリング,0
560,3010003047563,新規,0,2025-06-11,2025-06-11,合同会社ｆｉｖｅＥ　Ｔａｓｔｅｓ,,合同会社,東京都,千代田区,麹町６丁目２番地６千代田麹町レジデンス１４０３,00139527,13,101,1020083,,,,,,,2025-06-11,1,,,,,ファイブイーティスティーズ,0
561,3010003047654,新規,0,2025-06-11,2025-06-11,ＫＬＪ合同会社,,合同会社,東京都,中央区,銀座１丁目１２番４号Ｎ＆Ｅ・ＢＬＤ．６Ｆ,,13,102,1040061,,,,,,,2025-06-11,1,,,,,ケイエルジェイ,0
566,3010101016726,新規,0,2025-06-11,2025-06-11,株式会社ＮＳホーム,,株式会社,東京都,八王子市,川口町１５２２番地４レジデンスさくらＩＩ１０２号,00139538,13,201,1930801,,,,,,,2025-06-11,1,,,,,エヌエスホーム,0
570,3010401190774,新規,0,2025-06-11,2025-06-11,株式会社オクノテ,,株式会社,東京都,港区,六本木３丁目１６－３５イースト六本木ビル６０１,,13,103,1060032,,,,,,,2025-06-11,1,,,,,オクノテ,0
571,3010401190964,新規,0,2025-06-11,2025-06-11,株式会社めしテロ,,株式会社,東京都,港区,浜松町２丁目２番１５号浜松町ダイヤビル２Ｆ,,13,103,1050013,,,,,,,2025-06-11,1,,,,,メシテロ,0
572,3010401190972,新規,0,2025-06-11,2025-06-11,ミライアカリ株式会社,,株式会社,東京都,港区,南青山３丁目１番３６号青山丸竹ビル６Ｆ,,13,103,1070062,,,,,,,2025-06-11,1,,,,,ミライアカリ,0
573,3010401191005,新規,0,2025-06-11,2025-06-11,株式会社若山トラスト,,株式会社,東京都,港区,六本木６丁目１２番４－１００５号,,13,103,1060032,,,,,,,2025-06-11,1,,,,,ワカヤマトラスト,0
576,3010403035358,新規,0,2025-06-11,2025-06-11,合同会社Ｎｏｒｔｈｉｒｄ,,合同会社,東京都,港区,北青山１丁目３－３三橋ビル３階,,13,103,1070061,,,,,,,2025-06-11,1,,,,,ノーサード,0
577,3010405024466,新規,0,2025-06-11,2025-06-11,一般社団法人水素健康活用研究所,,その他の設立登記法人,東京都,港区,北青山１丁目３番１号アールキューブ青山３階,,13,103,1070061,,,,,,,2025-06-11,1,,,,,スイソケンコウカツヨウケンキュウジョ,0
580,3010603011621,新規,0,2025-06-11,2025-06-11,合同会社ＨＭＦ,,合同会社,東京都,江東区,枝川３丁目４番９号ガーデンハウス照２０３,,13,108,1350051,,,,,,,2025-06-11,1,,,,,エイチエムエフ,0
585,3010701047815,新規,0,2025-06-11,2025-06-11,株式会社Ｎｅｒｖａ,,株式会社,東京都,品川区,西五反田４丁目１番８号ガラ・ステージ目黒不動前１００１号室,,13,109,1410031,,,,,,,2025-06-11,1,,,,,ネルヴァ,0
586,3010701047823,新規,0,2025-06-11,2025-06-11,ＡｍｉｒｅＬｉｎｋ株式会社,,株式会社,東京都,品川区,大崎３丁目１番１－６０１号,,13,109,1410032,,,,,,,2025-06-11,1,,,,,アミレリンク,0
587,3010703007750,新規,0,2025-06-11,2025-06-11,合同会社ＴＴジャム,,合同会社,東京都,品川区,東五反田５丁目２１―６―３０４,,13,109,1410022,,,,,,,2025-06-11,1,,,,,ティーティージャム,0
591,3010901057531,新規,0,2025-06-11,2025-06-11,株式会社エイトススタジオ,,株式会社,東京都,世田谷区,用賀４丁目２８番７号,,13,112,1580097,,,,,,,2025-06-11,1,,,,,エイトススタジオ,0
592,3010901057548,新規,0,2025-06-11,2025-06-11,パワーストーンライフ株式会社,,株式会社,東京都,世田谷区,上馬４丁目２番９－９０３号,,13,112,1540011,,,,,,,2025-06-11,1,,,,,パワーストーンライフ,0
593,3010903010001,新規,0,2025-06-11,2025-06-11,バーミライト合同会社,,合同会社,東京都,世田谷区,野毛２丁目１５－１９,,13,112,1580092,,,,,,,2025-06-11,1,,,,,バーミライト,0
602,3011001170134,新規,0,2025-06-11,2025-06-11,株式会社Ｅｔｅｒｉａ,,株式会社,東京都,渋谷区,神宮前６丁目２８番９号東武ビル５１４号室,,13,113,1500001,,,,,,,2025-06-11,1,,,,,エテリア,0
603,3011001170159,新規,0,2025-06-11,2025-06-11,株式会社ＡｓｏｂｉＢａｓｅ,,株式会社,東京都,渋谷区,広尾５丁目４番１２号大成鋼機ビル５Ｆ,,13,113,1500012,,,,,,,2025-06-11,1,,,,,アソビベース,0
608,3011103016012,新規,0,2025-06-11,2025-06-11,合同会社Ｃａｒｒｉｃｋ,,合同会社,東京都,新宿区,西新宿３丁目３番１３号西新宿水間ビル６階,,13,104,1600023,,,,,,,2025-06-11,1,,,,,キャリック,0
619,3011601028723,新規,0,2025-06-11,2025-06-11,Ｎｈｏｍｅ株式会社,,株式会社,東京都,練馬区,大泉学園町８丁目３０番１８号,,13,120,1780061,,,,,,,2025-06-11,1,,,,,エヌホーム,0
621,3012401043219,新規,0,2025-06-11,2025-06-11,株式会社エヴァーグリーンズ,,株式会社,東京都,稲城市,東長沼３１１２－１稲城ガーデニア２０１,,13,225,2060802,,,,,,,2025-06-11,1,,,,,エヴァーグリーンズ,0
622,3012401043227,新規,0,2025-06-11,2025-06-11,Ｔｒｉｐｌｅ　ｔｒｅｅ＆Ｃｏ．株式会社,,株式会社,東京都,調布市,入間町３丁目５番８２号,,13,208,1820004,,,,,,,2025-06-11,1,,,,,トリプルツリーアンドコー,0
629,3020001163254,新規,0,2025-06-11,2025-06-11,株式会社ＳＰＬＩＧＵＮ,,株式会社,神奈川県,川崎市川崎区,浜町２丁目７番１３号,,14,131,2100851,,,,,,,2025-06-11,1,,,,,スプリガン,0
630,3020001163295,新規,0,2025-06-11,2025-06-11,株式会社ＰＲＩＳＭ,,株式会社,神奈川県,横浜市中区,野毛町１丁目４－１キアラガーデン３Ｆ,,14,104,2310064,,,,,,,2025-06-11,1,,,,,プリズム,0
632,3020003028678,新規,0,2025-06-11,2025-06-11,ブロッコリー＆パートナーズ合同会社,,合同会社,神奈川県,横浜市神奈川区,入江１丁目１７番地８－Ｂ,,14,102,2210014,,,,,,,2025-06-11,1,,,,,ブロッコリーアンドパートナーズ,0
634,3021001085372,新規,0,2025-06-11,2025-06-11,株式会社長谷川電気,,株式会社,神奈川県,高座郡寒川町,倉見２２３７番地２,,14,321,2530101,,,,,,,2025-06-11,1,,,,,ハセガワデンキ,0
635,3021001085463,新規,0,2025-06-11,2025-06-11,株式会社カーペイントキズナ,,株式会社,神奈川県,厚木市,関口２３６－１４,,14,212,2430804,,,,,,,2025-06-11,1,,,,,カーペイントキズナ,0
636,3021001085471,新規,0,2025-06-11,2025-06-11,株式会社能楽クリエイト,,株式会社,神奈川県,厚木市,松枝１丁目４番７号,,14,212,2430005,,,,,,,2025-06-11,1,,,,,ノウガククリエイト,0
637,3021001085488,新規,0,2025-06-11,2025-06-11,株式会社ＮＲ企画,,株式会社,神奈川県,横須賀市,佐野町１丁目３６番地,,14,201,2380052,,,,,,,2025-06-11,1,,,,,エヌアールキカク,0
648,3030001167007,新規,0,2025-06-11,2025-06-11,株式会社アールエイチエムケー,,株式会社,埼玉県,さいたま市大宮区,仲町３丁目７５ＳＫ－ＣＯＵＲＴＮａｋａｃｈｏＯｍｉｙａ５０２号室,,11,103,3300845,,,,,,,2025-06-11,1,,,,,アールエイチエムケー,0
649,3030001167031,新規,0,2025-06-11,2025-06-11,株式会社テンノラボ,,株式会社,埼玉県,春日部市,米崎２６５番,,11,214,3440124,,,,,,,2025-06-11,1,,,,,テンノラボ,0
650,3030001167064,新規,0,2025-06-11,2025-06-11,株式会社ＴＫＭ,,株式会社,埼玉県,八潮市,中央２丁目３番地１６,,11,234,3400816,,,,,,,2025-06-11,1,,,,,ティーケーエム,0
651,3030001167072,新規,0,2025-06-11,2025-06-11,株式会社Ｔ・Ｔ,,株式会社,埼玉県,春日部市,上蛭田１２２－１レオーネＳＴ３０１,,11,214,3440046,,,,,,,2025-06-11,1,,,,,ティティ,0
658,3040001139095,新規,0,2025-06-11,2025-06-11,コーヨウホールディングス株式会社,,株式会社,千葉県,柏市,十余二１６４番地１６２,,12,217,2770872,,,,,,,2025-06-11,1,,,,,コーヨウホールディングス,0
659,3040001139104,新規,0,2025-06-11,2025-06-11,株式会社木内政夫商店,,株式会社,千葉県,香取市,桐谷５３０番地,,12,236,2890422,,,,,,,2025-06-11,1,,,,,キウチマサオショウテン,0
660,3040001139178,新規,0,2025-06-11,2025-06-11,篠原総建株式会社,,株式会社,千葉県,千葉市若葉区,都賀１丁目１０番４号ヌーベルメゾン２０２号,,12,104,2640025,,,,,,,2025-06-11,1,,,,,シノハラソウケン,0
661,3040001139194,新規,0,2025-06-11,2025-06-11,株式会社マルニ水産,,株式会社,千葉県,富津市,竹岡２７５番地,,12,226,2991621,,,,,,,2025-06-11,1,,,,,マルニスイサン,0
662,3040001139244,新規,0,2025-06-11,2025-06-11,株式会社エアジョブ,,株式会社,千葉県,市川市,本行徳３２番２１号,,12,203,2720103,,,,,,,2025-06-11,1,,,,,エアジョブ,0
664,3040003027744,新規,0,2025-06-11,2025-06-11,合同会社ＨＡＮＡＬＩＮＯ,,合同会社,千葉県,市川市,稲荷木３丁目２５番２号,,12,203,2720024,,,,,,,2025-06-11,1,,,,,ハナリノ,0
667,3050001056802,新規,0,2025-06-11,2025-06-11,龍愛株式会社,,株式会社,茨城県,鉾田市,上冨田１７４６番地１,,08,234,3111532,,,,,,,2025-06-11,1,,,,,リュウアイ,0
672,3060001038287,新規,0,2025-06-11,2025-06-11,Ａ．Ｓ　ＴＲＡＤＩＮＧ　ＩＮＴＥＲＮＡＴＩＯＮＡＬ株式会社,,株式会社,栃木県,小山市,駅南町５丁目２番１３号ハイコーポ望光２０３号,,09,208,3230822,,,,,,,2025-06-11,1,,,,,エーエストレーディングインターナショナル,0
675,3080101025555,新規,0,2025-06-11,2025-06-11,ＳＥＩＫＯＵ貿易株式会社,,株式会社,静岡県,富士市,森島３４８番地の１６,,22,210,4160948,,,,,,,2025-06-11,1,,,,,セイコウボウエキ,0
677,3090001019326,新規,0,2025-06-11,2025-06-11,株式会社アイアンメディカル,,株式会社,山梨県,甲府市,城東４丁目１７番１８号,,19,201,4000861,,,,,,,2025-06-11,1,,,,,アイアンメディカル,0
683,3110003005783,新規,0,2025-06-11,2025-06-11,Ｍｙｏｋｏ　Ｈｏｓｐｉｔａｌｉｔｙ　Ｍａｎａｇｅｍｅｎｔ合同会社,,合同会社,新潟県,妙高市,大字関川２２２８番地１,,15,217,9492112,,,,,,,2025-06-11,1,,,,,ミョウコウホスピタリティマネジメント,0
688,3120001276681,新規,0,2025-06-11,2025-06-11,株式会社ＲＵＮＩＥＳＩＡ　ＬＩＮＫＳ,,株式会社,大阪府,大阪市西区,新町１丁目３４－５ヴィエントヴェルデ７０１,,27,106,5500013,,,,,,,2025-06-11,1,,,,,ルニシアリンクス,0
689,3120001276698,新規,0,2025-06-11,2025-06-11,株式会社エンブリッジ,,株式会社,大阪府,大阪市天王寺区,堂ケ芝２丁目１３番１３号,,27,109,5430033,,,,,,,2025-06-11,1,,,,,エンブリッジ,0
690,3120001276723,新規,0,2025-06-11,2025-06-11,智文国際株式会社,,株式会社,大阪府,大阪市中央区,島之内２丁目１７番２７号－Ｂ１,,27,128,5420082,,,,,,,2025-06-11,1,,,,,チブンコクサイ,0
691,3120001276764,新規,0,2025-06-11,2025-06-11,海燕株式会社,,株式会社,大阪府,大阪市東住吉区,照ケ丘矢田１丁目１６番１７号,,27,121,5460021,,,,,,,2025-06-11,1,,,,,カイエン,0
692,3120001276780,新規,0,2025-06-11,2025-06-11,株式会社壱,,株式会社,大阪府,大阪市浪速区,元町１丁目９番１８－６０５号,,27,111,5560016,,,,,,,2025-06-11,1,,,,,イチ,0
698,3120003029708,新規,0,2025-06-11,2025-06-11,合同会社エフ,,合同会社,大阪府,大阪市北区,天神橋２丁目５－３第五新興ビル５０５,,27,127,5300041,,,,,,,2025-06-11,1,,,,,エフ,0
699,3120003029724,新規,0,2025-06-11,2025-06-11,リアリオプロ合同会社,,合同会社,大阪府,大阪市中央区,西心斎橋１丁目５番１２号,,27,128,5420086,,,,,,,2025-06-11,1,,,,,リアリオプロ,0
701,3120103006508,新規,0,2025-06-11,2025-06-11,合同会社Ｗｉｓｔｅｒｉａ　Ｐａｒｔｎｅｒｓ,,合同会社,大阪府,堺市堺区,旭ヶ丘北町２丁３番２６号,,27,141,5900809,,,,,,,2025-06-11,1,,,,,ウィステリアパートナーズ,0
704,3120901051036,新規,0,2025-06-11,2025-06-11,株式会社Ｅ‐ｇｌｅ,,株式会社,大阪府,茨木市,東太田１丁目１番７３０号,,27,211,5670012,,,,,,,2025-06-11,1,,,,,イーグル,0
706,3122001039341,新規,0,2025-06-11,2025-06-11,株式会社亀田サッシ工事店,,株式会社,大阪府,東大阪市,宝町１５番９号,,27,227,5798025,,,,,,,2025-06-11,1,,,,,カメダサッシコウジテン,0
720,3140003022173,新規,0,2025-06-11,2025-06-11,合同会社陽森林,,合同会社,兵庫県,芦屋市,大東町１１番２０－２０９号,,28,206,6590023,,,,,,,2025-06-11,1,,,,,ヨウシンリン,0
729,3180001167272,新規,0,2025-06-11,2025-06-11,株式会社ＣＲＥＡ　ＧＡＴＥ,,株式会社,愛知県,名古屋市中村区,松原町５丁目１番地,,23,105,4530021,,,,,,,2025-06-11,1,,,,,クレアゲート,0
730,3180003028588,新規,0,2025-06-11,2025-06-11,合同会社ＲＩＦＵＮＡ,,合同会社,愛知県,津島市,鹿伏兎町下春日台２－１３,,23,208,4960023,,,,,,,2025-06-11,1,,,,,リファンナ,0
731,3180005021129,新規,0,2025-06-11,2025-06-11,特定非営利活動法人チアフルＰｌｕｓ,,その他の設立登記法人,愛知県,一宮市,北方町曽根字村裏西４６番地１,,23,203,4938002,,,,,,,2025-06-11,1,,,,,チアフルプラス,0
733,3180301039898,新規,0,2025-06-11,2025-06-11,株式会社ヨコプロ,,株式会社,愛知県,岡崎市,戸崎新町７番地１０,,23,202,4440849,,,,,,,2025-06-11,1,,,,,ヨコプロ,0
735,3180303006608,新規,0,2025-06-11,2025-06-11,田原高圧発電所合同会社,,合同会社,愛知県,田原市,西山町西ノ山９２番地,,23,231,4413619,,,,,,,2025-06-11,1,,,,,タハラコウアツハツデンショ,0
742,3200001043900,新規,0,2025-06-11,2025-06-11,Ｅｘｐｌｏｒｅ　Ｌａｎｋａ株式会社,,株式会社,岐阜県,可児市,川合８６３番地１コーポかわい７号室,,21,214,5090201,,,,,,,2025-06-11,1,,,,,エクスプロラーランカ,0
758,3240001065016,新規,0,2025-06-11,2025-06-11,ＳＫＨＤ株式会社,,株式会社,広島県,広島市西区,観音町１５－１４－１０１,,34,104,7330031,,,,,,,2025-06-11,1,,,,,エスケーホールディングス,0
759,3240003007247,新規,0,2025-06-11,2025-06-11,合同会社若葉,,合同会社,広島県,安芸郡海田町,南幸町１－３９－２０４,,34,304,7360032,,,,,,,2025-06-11,1,,,,,ワカバ,0
760,3250001021190,新規,0,2025-06-11,2025-06-11,大阿株式会社,,株式会社,山口県,山口市,阿知須６２５番地２,,35,203,7541277,,,,,,,2025-06-11,1,,,,,ダイア,0
762,3260003005216,新規,0,2025-06-11,2025-06-11,ＯＲＢ合同会社,,合同会社,岡山県,倉敷市,福田町福田２３０２―２４,,33,202,7128041,,,,,,,2025-06-11,1,,,,,オーブ,0
768,3290001110361,新規,0,2025-06-11,2025-06-11,株式会社Ｏｓｍａｎｔｈｕｓ,,株式会社,福岡県,福岡市中央区,天神４丁目６－２８いちご天神ノースビル７階,,40,133,8100001,,,,,,,2025-06-11,1,,,,,オスマンサス,0
771,3290003016978,新規,0,2025-06-11,2025-06-11,アラン合同会社,,合同会社,福岡県,福岡市中央区,大濠２丁目２番２１－４０２号モントーレ大濠ガーデン,,40,133,8100052,,,,,,,2025-06-11,1,,,,,アラン,0
782,3330003011058,新規,0,2025-06-11,2025-06-11,合同会社ＪＫＹ,,合同会社,熊本県,八代市,豊原上町２９２９番地４,,43,202,8660063,,,,,,,2025-06-11,1,,,,,ジェイケイワイ,0
790,3390003002407,新規,0,2025-06-11,2025-06-11,Ｌｕｂｒａ合同会社,,合同会社,山形県,酒田市,若竹町１丁目４番１号,,06,204,9980834,,,,,,,2025-06-11,1,,,,,ルブラ,0
793,3400005008499,新規,0,2025-06-11,2025-06-11,一般社団法人みらいテラス,,その他の設立登記法人,岩手県,奥州市,水沢字吉小路４６番地２,,03,215,0230054,,,,,,,2025-06-11,1,,,,,ミライテラス,0
807,3500003003533,新規,0,2025-06-11,2025-06-11,合同会社ＤＭＭ　Ｏｈａｎａ,,合同会社,愛媛県,松山市,山西町３１番地１４,,38,201,7918026,,,,,,,2025-06-11,1,,,,,ディーエムエムオハナ,0
814,4010001255811,新規,0,2025-06-11,2025-06-11,株式会社Ｏｒｉｇｉｎａｌ　Ａｒｃｈｉｔｅｃｔ,,株式会社,東京都,千代田区,平河町１丁目５番１５－１００４号ＶＯＲＴ平河町,,13,101,1020093,,,,,,,2025-06-11,1,,,,,オリジナルアーキテクト,0
815,4010001255836,新規,0,2025-06-11,2025-06-11,ジャパン・ネクストアイディア株式会社,,株式会社,東京都,中央区,銀座２丁目１２番１２号深山ビル２階,,13,102,1040061,,,,,,,2025-06-11,1,,,,,ジャパンネクストアイディア,0
816,4010001255869,新規,0,2025-06-11,2025-06-11,株式会社ＳＩＳＴＥＲＳ,,株式会社,東京都,中央区,銀座１丁目２２番１１号銀座大竹ビジデンス２Ｆ,,13,102,1040061,,,,,,,2025-06-11,1,,,,,シスターズ,0
817,4010001255877,新規,0,2025-06-11,2025-06-11,株式会社久,,株式会社,東京都,中央区,銀座７丁目５番１５号銀座蒲田ビル３Ｆ－ＡＢ号室,,13,102,1040061,,,,,,,2025-06-11,1,,,,,キュウ,0
819,4010005040169,新規,0,2025-06-11,2025-06-11,一般社団法人銀石資本,,その他の設立登記法人,東京都,中央区,湊２丁目１１番１－１０２５号,,13,102,1040043,,,,,,,2025-06-11,1,,,,,ギンセキシホン,0
823,4010401190815,新規,0,2025-06-11,2025-06-11,株式会社スピアード,,株式会社,東京都,港区,南青山２丁目２番８号ＤＦビル１０Ｆ,,13,103,1070062,,,,,,,2025-06-11,1,,,,,スピアード,0
824,4010401190947,新規,0,2025-06-11,2025-06-11,ソウルロジ株式会社,,株式会社,東京都,港区,虎ノ門１丁目１６番６号虎ノ門ＲＡＰＯ－ＴＯビルＵＣＦ７階,,13,103,1050001,,,,,,,2025-06-11,1,,,,,ソウルロジ,0
825,4010401190955,新規,0,2025-06-11,2025-06-11,Ｃｒａｚｙ　Ｆｏｒ　Ｙｏｕホールディングス株式会社,,株式会社,東京都,港区,南青山２丁目２番１５号ＷｉｎＡｏｙａｍａビルＵＣＦ６階,,13,103,1070062,,,,,,,2025-06-11,1,,,,,クレイジーフォーユーホールディングス,0
826,4010401190963,新規,0,2025-06-11,2025-06-11,株式会社ジャパンエンゲージメント,,株式会社,東京都,港区,北青山１丁目３－３三橋ビル３階,,13,103,1070061,,,,,,,2025-06-11,1,,,,,ジャパンエンゲージメント,0
827,4010401190971,新規,0,2025-06-11,2025-06-11,株式会社ｔｏｉｔｏｉｔｏｉ,,株式会社,東京都,港区,赤坂２丁目１７－６０ＣＲＥＡ赤坂１Ｆ,,13,103,1070052,,,,,,,2025-06-11,1,,,,,トイトイトイ,0
828,4010401190988,新規,0,2025-06-11,2025-06-11,株式会社ＴｅｌｅＲａｎｄｉｎｇ,,株式会社,東京都,港区,南青山３丁目１番３６号青山丸竹ビル６Ｆ,,13,103,1070062,,,,,,,2025-06-11,1,,,,,テレランディング,0
829,4010401191012,新規,0,2025-06-11,2025-06-11,株式会社ＧＯＡＴ,,株式会社,東京都,港区,南青山３丁目４番８号,,13,103,1070062,,,,,,,2025-06-11,1,,,,,ゴート,0
833,4010403035340,新規,0,2025-06-11,2025-06-11,恒雲舎合同会社,,合同会社,東京都,港区,東麻布２丁目２８－１ＵＰＢＡＳＥ麻布十番５階５０１号室,,13,103,1060044,,,,,,,2025-06-11,1,,,,,コウウンシャ,0
834,4010403035365,新規,0,2025-06-11,2025-06-11,ＭｏｖＮａｔ　Ｊａｐａｎ合同会社,,合同会社,東京都,港区,南青山２丁目２番１５号,,13,103,1070062,,,,,,,2025-06-11,1,,,,,ムーブナットジャパン,0
836,4010405024432,新規,0,2025-06-11,2025-06-11,一般社団法人ＢＡＳＩＳ日本,,その他の設立登記法人,東京都,港区,三田２丁目７番１号,,13,103,1080073,,,,,,,2025-06-11,1,,,,,ベイシスニホン,0
841,4010701047806,新規,0,2025-06-11,2025-06-11,株式会社トゥエンティーフォーセブンエージェント,,株式会社,東京都,品川区,東品川２丁目３番１２号,,13,109,1400002,,,,,,,2025-06-11,1,,,,,トゥエンティーフォーセブンエージェント,0
846,4010901057539,新規,0,2025-06-11,2025-06-11,株式会社Ｔｒｙｆｏｒ,,株式会社,東京都,世田谷区,瀬田２丁目２７番６号カルフール瀬田１０１,,13,112,1580095,,,,,,,2025-06-11,1,,,,,トライフォー,0
853,4011001170505,新規,0,2025-06-11,2025-06-11,株式会社和豊コンサルティング,,株式会社,東京都,渋谷区,道玄坂１丁目１０番８号渋谷道玄坂東急ビル２Ｆ－Ｃ,,13,113,1500043,,,,,,,2025-06-11,1,,,,,カズトヨコンサルティング,0
855,4011005011052,新規,0,2025-06-11,2025-06-11,税理士法人ＳｏＬａｂｏ,,その他の設立登記法人,東京都,渋谷区,千駄ヶ谷５丁目２７番５号,,13,113,1510051,,,,,,,2025-06-11,1,,,,,ソラボ,0
869,4011601028722,新規,0,2025-06-11,2025-06-11,株式会社バックスネクサス,,株式会社,東京都,練馬区,高野台４丁目２２番２４号,,13,120,1770033,,,,,,,2025-06-11,1,,,,,バックスネクサス,0
873,4011801046292,新規,0,2025-06-11,2025-06-11,株式会社アブクレア,,株式会社,東京都,葛飾区,堀切２丁目６６番１９－３０１号,,13,122,1240006,,,,,,,2025-06-11,1,,,,,アブクレア,0
879,4012403007179,新規,0,2025-06-11,2025-06-11,合同会社ＳＡＰジャパン,,合同会社,東京都,武蔵野市,吉祥寺南町２丁目４－６田中フラット２０３,,13,203,1800003,,,,,,,2025-06-11,1,,,,,サップジャパン,0
881,4013301054420,新規,0,2025-06-11,2025-06-11,株式会社ブラッシュＵＰ,,株式会社,東京都,豊島区,東池袋２丁目２４－９アークプラザ東池袋３０３号室,,13,116,1700013,,,,,,,2025-06-11,1,,,,,ブラッシュアップ,0
888,4020001163360,新規,0,2025-06-11,2025-06-11,株式会社Ｍ,,株式会社,神奈川県,横浜市港北区,新吉田東８丁目４８番１４－１０７号,,14,109,2230058,,,,,,,2025-06-11,1,,,,,エム,0
895,4020003028529,新規,0,2025-06-11,2025-06-11,合同会社エンガン,,合同会社,神奈川県,横浜市保土ケ谷区,保土ケ谷町１丁目６１－２０１,,14,106,2400021,,,,,,,2025-06-11,1,,,,,,0
896,4020003028644,新規,0,2025-06-11,2025-06-11,合同会社市木電源,,合同会社,神奈川県,横浜市神奈川区,白幡南町３５番１９号マグノリア１０３号,,14,102,2210073,,,,,,,2025-06-11,1,,,,,イチキデンゲン,0
897,4020003028677,新規,0,2025-06-11,2025-06-11,海佳貿易合同会社,,合同会社,神奈川県,横浜市磯子区,岡村１丁目２３番１３号,,14,107,2350021,,,,,,,2025-06-11,1,,,,,カイカボウエキ,0
898,4020003028685,新規,0,2025-06-11,2025-06-11,ＳＯＹＡ合同会社,,合同会社,神奈川県,横浜市港北区,仲手原２丁目１１－２５,,14,109,2220023,,,,,,,2025-06-11,1,,,,,ソヤ,0
899,4020003028693,新規,0,2025-06-11,2025-06-11,Ｉｄｅａ合同会社,,合同会社,神奈川県,横浜市西区,浅間町１丁目４番３号ウィザードビル４０２,,14,103,2200072,,,,,,,2025-06-11,1,,,,,イデア,0
906,4021003016093,新規,0,2025-06-11,2025-06-11,合同会社ＭＫマネージメント,,合同会社,神奈川県,平塚市,宮松町９番１号ミツホビル２０１,,14,203,2540036,,,,,,,2025-06-11,1,,,,,エムケーマネージメント,0
907,4021003016110,新規,0,2025-06-11,2025-06-11,合同会社宣映社,,合同会社,神奈川県,小田原市,本町３丁目１番地１３号,,14,206,2500012,,,,,,,2025-06-11,1,,,,,センエイシャ,0
908,4021003016135,新規,0,2025-06-11,2025-06-11,合同会社ＩＣＢＨ,,合同会社,神奈川県,南足柄市,壗下２９５－１磯崎貸家２号室,,14,217,2500103,,,,,,,2025-06-11,1,,,,,アイシービーエイチ,0
911,4030001166940,新規,0,2025-06-11,2025-06-11,株式会社ハシモトランク,,株式会社,埼玉県,越谷市,北越谷４丁目２１番５号,,11,222,3430026,,,,,,,2025-06-11,1,,,,,ハシモトランク,0
912,4030001167047,新規,0,2025-06-11,2025-06-11,株式会社ｆｕｒｕ・ｈｏｕｓｅ　ｈｏｌｄｉｎｇｓ,,株式会社,埼玉県,鶴ヶ島市,三ツ木新町２丁目７番地３,,11,241,3502219,,,,,,,2025-06-11,1,,,,,フルハウスホールディングス,0
913,4030001167071,新規,0,2025-06-11,2025-06-11,Ｆｌａｒｅ株式会社,,株式会社,埼玉県,さいたま市浦和区,東岸町１８－１８パークハイム浦和２０４,,11,107,3300054,,,,,,,2025-06-11,1,,,,,フレア,0
914,4030003026952,新規,0,2025-06-11,2025-06-11,マカアミパートナーズ合同会社,,合同会社,埼玉県,川口市,芝新町６番２５－９０３号クリオ蕨壱番館,,11,203,3330851,,,,,,,2025-06-11,1,,,,,マカアミパートナーズ,0
923,4040001139103,新規,0,2025-06-11,2025-06-11,株式会社アイプラス,,株式会社,千葉県,旭市,足川２３３番地１,,12,215,2892522,,,,,,,2025-06-11,1,,,,,アイプラス,0
924,4040001139160,新規,0,2025-06-11,2025-06-11,株式会社ＹＯＲＵ,,株式会社,千葉県,木更津市,真里谷２３２９番地３,,12,206,2920201,,,,,,,2025-06-11,1,,,,,ヨル,0
925,4040001139193,新規,0,2025-06-11,2025-06-11,株式会社ＧＲＯＷ　ＵＰ,,株式会社,千葉県,千葉市若葉区,北谷津町３１９番地１２,,12,104,2650067,,,,,,,2025-06-11,1,,,,,グロウアップ,0
930,4040003027719,新規,0,2025-06-11,2025-06-11,Ｔ‐Ｌａｂ合同会社,,合同会社,千葉県,千葉市稲毛区,黒砂台２丁目４番１８号,,12,103,2630041,,,,,,,2025-06-11,1,,,,,ティーラボ,0
931,4040003027776,新規,0,2025-06-11,2025-06-11,合同会社シマノ,,合同会社,千葉県,四街道市,中台２４０番地,,12,228,2840037,,,,,,,2025-06-11,1,,,,,シマノ,0
937,4050001056801,新規,0,2025-06-11,2025-06-11,Ｍａｉｏ株式会社,,株式会社,茨城県,坂東市,孫兵ヱ新田７１５番地２,,08,228,3060600,,,,,,,2025-06-11,1,,,,,マイオ,0
940,4050003009336,新規,0,2025-06-11,2025-06-11,ＺＫ　ＴＲＡＤＩＮＧ　ＪＡＰＡＮ合同会社,,合同会社,茨城県,結城郡八千代町,大字東蕗田６８４－４－２０４号,,08,521,3003545,,,,,,,2025-06-11,1,,,,,ゼットケートレーディングジャパン,0
941,4050003009344,新規,0,2025-06-11,2025-06-11,ＳＵＨ　ＨＡＮＤＳＯＭＥ　ＭＯＴＯＲＳ合同会社,,合同会社,茨城県,猿島郡境町,大字若林２３８０－１,,08,546,3060417,,,,,,,2025-06-11,1,,,,,,0
942,4060001038253,新規,0,2025-06-11,2025-06-11,株式会社ＣＲＡＦＯＶＡ,,株式会社,栃木県,宇都宮市,二荒町５番７号,,09,201,3200804,,,,,,,2025-06-11,1,,,,,クラフォーバ,0
944,4080003003476,新規,0,2025-06-11,2025-06-11,Ｓｉｚ‐ｋ合同会社,,合同会社,静岡県,静岡市清水区,有東坂２丁目２９４番地の１３セントラルビル２０３,,22,103,4240873,,,,,,,2025-06-11,1,,,,,シズケイ,0
945,4080101025554,新規,0,2025-06-11,2025-06-11,株式会社ガラージュ・ルミエール,,株式会社,静岡県,熱海市,熱海１９９３番地の３４２,,22,205,4130033,,,,,,,2025-06-11,1,,,,,ガラージュルミエール,0
961,4120001276722,新規,0,2025-06-11,2025-06-11,八龍縁株式会社,,株式会社,大阪府,大阪市北区,豊崎３丁目１８番３号ザ・ファインタワー梅田豊崎３１０７号,,27,127,5310072,,,,,,,2025-06-11,1,,,,,ハチリュウエン,0
962,4120001276739,新規,0,2025-06-11,2025-06-11,株式会社ＴＯＲＸ,,株式会社,大阪府,大阪市北区,梅田２丁目２－２ヒルトンプラザウエスト１９Ｆ,,27,127,5300001,,,,,,,2025-06-11,1,,,,,トルクス,0
963,4120001276763,新規,0,2025-06-11,2025-06-11,イーロタックル株式会社,,株式会社,大阪府,大阪市東成区,大今里２丁目６番１８号昇徳ビル１階Ｃ室,,27,115,5370012,,,,,,,2025-06-11,1,,,,,イーロタックル,0
964,4120001276771,新規,0,2025-06-11,2025-06-11,株式会社ヤマモト工業,,株式会社,大阪府,大阪市淀川区,十八条３丁目９番９号,,27,123,5320001,,,,,,,2025-06-11,1,,,,,ヤマモトコウギョウ,0
965,4120003029715,新規,0,2025-06-11,2025-06-11,合同会社ＪＡＣＫ,,合同会社,大阪府,大阪市西成区,潮路２丁目２－１２上田方,,27,122,5570052,,,,,,,2025-06-11,1,,,,,ジャック,0
966,4120003029723,新規,0,2025-06-11,2025-06-11,アオリズム合同会社,,合同会社,大阪府,寝屋川市,境橋町８番１５号,,27,215,5720018,,,,,,,2025-06-11,1,,,,,アオリズム,0
967,4120003029731,新規,0,2025-06-11,2025-06-11,丸寸合同会社,,合同会社,大阪府,大阪市港区,弁天５丁目２番１９号,,27,107,5520007,,,,,,,2025-06-11,1,,,,,マルスン,0
968,4120103006507,新規,0,2025-06-11,2025-06-11,ＵＴＨ合同会社,,合同会社,大阪府,和泉市,室堂町２８８－６－２０９号,,27,219,5941101,,,,,,,2025-06-11,1,,,,,ユーティーエイチ,0
973,4130001079868,新規,0,2025-06-11,2025-06-11,株式会社ＣＦＡ,,株式会社,京都府,京都市下京区,小稲荷町８５－２Ｇｒａｎｄ－Ｋ京都駅前ビル２０１,,26,106,6008208,,,,,,,2025-06-11,1,,,,,シーエフエー,0
975,4130003010533,新規,0,2025-06-11,2025-06-11,合同会社ＴＭコーポレーション,,合同会社,京都府,京都市山科区,東野南井ノ上町６番地の９,,26,110,6078143,,,,,,,2025-06-11,1,,,,,ティーエムコーポレーション,0
976,4130003010541,新規,0,2025-06-11,2025-06-11,ＰＡＬ合同会社,,合同会社,京都府,京都市伏見区,桃山町因幡３１番地７パデシオン桃山５２５,,26,109,6128007,,,,,,,2025-06-11,1,,,,,パル,0
983,4140003022172,新規,0,2025-06-11,2025-06-11,合同会社Ｇ．Ｐｒｏｔｅｃｔｉｏｎ神戸,,合同会社,兵庫県,神戸市北区,鈴蘭台西町１丁目１３番９号,,28,109,6511114,,,,,,,2025-06-11,1,,,,,ジープロテクションコウベ,0
998,4180001167197,新規,0,2025-06-11,2025-06-11,ネクストステージ株式会社,,株式会社,愛知県,名古屋市南区,西又兵ヱ町３丁目４８番地,,23,112,4570835,,,,,,,2025-06-11,1,,,,,ネクストステージ,0
1000,4180003028604,新規,0,2025-06-11,2025-06-11,合同会社まなびＤｏｃｋ,,合同会社,愛知県,半田市,亀崎月見町１丁目７番地の６,,23,205,4750022,,,,,,,2025-06-11,1,,,,,マナビドック,0
1001,4180005021128,新規,0,2025-06-11,2025-06-11,特定非営利活動法人愛知子供の笑顔フォーラム,,その他の設立登記法人,愛知県,名古屋市中区,栄１丁目１６番６号名古屋三蔵ビル２階,,23,106,4600008,,,,,,,2025-06-11,1,,,,,アイチコドモノエガオフォーラム,0
1003,4180301039897,新規,0,2025-06-11,2025-06-11,株式会社ＭＡＬＩＡＮＴＡ,,株式会社,愛知県,豊橋市,東松山町３６番地,,23,201,4400874,,,,,,,2025-06-11,1,,,,,マリアンタ,0
1004,4180301039906,新規,0,2025-06-11,2025-06-11,株式会社ＢーＳＰＣ１,,株式会社,愛知県,岡崎市,緑丘１丁目４番地１,,23,202,4440806,,,,,,,2025-06-11,1,,,,,ビーエスピーシーワン,0
1005,4180303006598,新規,0,2025-06-11,2025-06-11,合同会社鈴木,,合同会社,愛知県,岡崎市,庄司田１丁目３番地１６ＴＹビルＤ号,,23,202,4440821,,,,,,,2025-06-11,1,,,,,,0
1013,4230003002446,新規,0,2025-06-11,2025-06-11,合同会社ＬＩＮＫＳ,,合同会社,富山県,富山市,中川原２８１,,16,201,9398015,,,,,,,2025-06-11,1,,,,,リンクス,0
1027,4290001110369,新規,0,2025-06-11,2025-06-11,株式会社Ｃｒｅａｖｉｅ,,株式会社,福岡県,うきは市,吉井町屋部６３８番地１,,40,225,8391331,,,,,,,2025-06-11,1,,,,,クレヴィー,0
1038,4330005010924,新規,0,2025-06-11,2025-06-11,一般社団法人伴縁舎,,その他の設立登記法人,熊本県,熊本市中央区,下通１丁目１０番３号銀座プレイスｋｕｍａｍｏｔｏ２Ｆ－Ｂ,,43,101,8600807,,,,,,,2025-06-11,1,,,,,ハンエンシャ,0
1042,4340001027418,新規,0,2025-06-11,2025-06-11,株式会社持留鉄工,,株式会社,鹿児島県,肝属郡肝付町,宮下２８番地１,,46,492,8931205,,,,,,,2025-06-11,1,,,,,モチドメテッコウ,0
1052,4360003015006,新規,0,2025-06-11,2025-06-11,ＡＮＭグループ合同会社,,合同会社,沖縄県,浦添市,内間１丁目３番１５号,,47,208,9012121,,,,,,,2025-06-11,1,,,,,エーエヌエムグループ,0
1054,4370001052693,新規,0,2025-06-11,2025-06-11,株式会社エクム,,株式会社,宮城県,仙台市青葉区,一番町１丁目１６－２３一番町スクエア２Ｆ,,04,101,9800811,,,,,,,2025-06-11,1,,,,,エクム,0
1058,4380001035383,新規,0,2025-06-11,2025-06-11,株式会社アシストフォロー,,株式会社,福島県,いわき市,平下神谷字本内６４番地の４,,07,204,9700101,,,,,,,2025-06-11,1,,,,,アシストフォロー,0
1066,4390003002406,新規,0,2025-06-11,2025-06-11,合同会社無双庵,,合同会社,山形県,山形市,久保田２丁目１番６号,,06,201,9902482,,,,,,,2025-06-11,1,,,,,ムソウアン,0
1073,4420005007960,新規,0,2025-06-11,2025-06-11,一般社団法人洗練された田舎研究所,,その他の設立登記法人,青森県,東津軽郡外ヶ浜町,字上蟹田４１番地,,02,307,0301309,,,,,,,2025-06-11,1,,,,,センレンサレタイナカケンキュウショ,0
1077,4430001094647,新規,0,2025-06-11,2025-06-11,株式会社エムオリヤ,,株式会社,北海道,千歳市,北陽６丁目７番１号,,01,224,0660032,,,,,,,2025-06-11,1,,,,,エムオリヤ,0
1079,4430003017746,新規,0,2025-06-11,2025-06-11,合同会社みらいインテリア,,合同会社,北海道,札幌市南区,澄川五条１２丁目６番１７号メゾン澄川Ａ１０３号,,01,106,0050005,,,,,,,2025-06-11,1,,,,,ミライインテリア,0
1086,5010001255703,新規,0,2025-06-11,2025-06-11,５７３デザイン株式会社,,株式会社,東京都,中央区,１－１２－４Ｎ＆ＥＢＬＤ．６Ｆ,,13,102,1030000,,,,,,,2025-06-11,1,,,,,ゴーナナサンデザイン,0
1087,5010001255827,新規,0,2025-06-11,2025-06-11,学習塾総合研究所株式会社,,株式会社,東京都,中央区,日本橋室町１丁目１１番１２号日本橋水野ビル７階,,13,102,1030022,,,,,,,2025-06-11,1,,,,,ガクシュウジュクソウゴウケンキュウジョ,0
1088,5010001255884,新規,0,2025-06-11,2025-06-11,株式会社ジェムトルテ,,株式会社,東京都,中央区,日本橋蛎殻町１丁目１３番１号Ｂ１Ｆ－Ａ,,13,102,1030014,,,,,,,2025-06-11,1,,,,,ジェムトルテ,0
1095,5010401190814,新規,0,2025-06-11,2025-06-11,株式会社ＤＡＬＵＭＡＸ　Ｈｏｌｄｉｎｇｓ,,株式会社,東京都,港区,新橋６丁目５－４－５２０,,13,103,1050004,,,,,,,2025-06-11,1,,,,,ダルマックスホールディングス,0
1096,5010401190896,新規,0,2025-06-11,2025-06-11,ＡＸ　Ｎｅｘｔ株式会社,,株式会社,東京都,港区,北青山１丁目３－３三橋ビル３階,,13,103,1070061,,,,,,,2025-06-11,1,,,,,エーエックスネクスト,0
1097,5010401190905,新規,0,2025-06-11,2025-06-11,株式会社ファースト,,株式会社,東京都,港区,北青山１丁目３番１号アールキューブ青山３階,,13,103,1070061,,,,,,,2025-06-11,1,,,,,ファースト,0
1098,5010401190938,新規,0,2025-06-11,2025-06-11,株式会社富士ミール,,株式会社,東京都,港区,港南２丁目１５番２号,,13,103,1080075,,,,,,,2025-06-11,1,,,,,フジミール,0
1099,5010401190946,新規,0,2025-06-11,2025-06-11,株式会社ＰＬＡＮＧ,,株式会社,東京都,港区,北青山１丁目３番１号アールキューブ青山３階,,13,103,1070061,,,,,,,2025-06-11,1,,,,,プラング,0
1100,5010401190954,新規,0,2025-06-11,2025-06-11,株式会社タレンター,,株式会社,東京都,港区,西新橋１丁目９番５号ＭｏＣ新橋虎ノ門オフィス５０８号室,,13,103,1050003,,,,,,,2025-06-11,1,,,,,タレンター,0
1101,5010401190962,新規,0,2025-06-11,2025-06-11,株式会社Ｋ＆Ｙ,,株式会社,東京都,港区,南青山３丁目１番３６号青山丸竹ビル６Ｆ,,13,103,1070062,,,,,,,2025-06-11,1,,,,,ケイアンドワイ,0
1104,5010403035307,新規,0,2025-06-11,2025-06-11,合同会社ダックエンジン,,合同会社,東京都,港区,北青山１丁目３番３号三橋ビル３階,,13,103,1070061,,,,,,,2025-06-11,1,,,,,ダックエンジン,0
1105,5010403035348,新規,0,2025-06-11,2025-06-11,坪美合同会社,,合同会社,東京都,港区,浜松町２丁目３番８号,,13,103,1050013,,,,,,,2025-06-11,1,,,,,ツボミ,0
1114,5010701047796,新規,0,2025-06-11,2025-06-11,株式会社Ｂｌｏｏｍ　Ｗｏｒｋｓ,,株式会社,東京都,品川区,東品川３丁目３２番４２－１００３号,,13,109,1400002,,,,,,,2025-06-11,1,,,,,ブルームワークス,0
1115,5010701047854,新規,0,2025-06-11,2025-06-11,株式会社エヌグリッド,,株式会社,東京都,品川区,大井１丁目２３－１,,13,109,1400014,,,,,,,2025-06-11,1,,,,,エヌグリッド,0
1116,5010703007740,新規,0,2025-06-11,2025-06-11,Ｌ・Ｂ合同会社,,合同会社,東京都,品川区,南大井３丁目３１番１９号大森エイコウビルＢ１Ｆ,,13,109,1400013,,,,,,,2025-06-11,1,,,,,エルビー,0
1119,5010901057538,新規,0,2025-06-11,2025-06-11,ルミナスエステート株式会社,,株式会社,東京都,世田谷区,駒沢２丁目５２番２号,,13,112,1540012,,,,,,,2025-06-11,1,,,,,ルミナスエステート,0
1129,5011001170132,新規,0,2025-06-11,2025-06-11,フィルデッジ株式会社,,株式会社,東京都,目黒区,自由が丘１丁目２２番３号,,13,110,1520035,,,,,,,2025-06-11,1,,,,,フィルデッジ,0
1130,5011001170140,新規,0,2025-06-11,2025-06-11,株式会社Ｅｘｔｅｎｓｉｏｎ　Ｈｏｕｓｅ,,株式会社,東京都,渋谷区,道玄坂２丁目２５番９号ロマーネ８０－３Ｆ,,13,113,1500043,,,,,,,2025-06-11,1,,,,,エクステンションハウス,0
1131,5011001170149,新規,0,2025-06-11,2025-06-11,株式会社Ｏｎ　ｉｔ,,株式会社,東京都,目黒区,下目黒１丁目１番１４号コノトラビル７Ｆ,,13,110,1530064,,,,,,,2025-06-11,1,,,,,オンイット,0
1139,5011101111977,新規,0,2025-06-11,2025-06-11,ＴＨＮグループ株式会社,,株式会社,東京都,新宿区,矢来町１３２番地１,,13,104,1620805,,,,,,,2025-06-11,1,,,,,ティーエイチエヌグループ,0
1140,5011101112034,新規,0,2025-06-11,2025-06-11,株式会社Ｋ＆Ｊ,,株式会社,東京都,新宿区,下落合２丁目１３番２２号ラ・トゥール目白御留山Ｂ５１２,,13,104,1610033,,,,,,,2025-06-11,1,,,,,ケイアンドジェイ,0
1143,5011105011447,新規,0,2025-06-11,2025-06-11,一般社団法人ソーシャルアクションジャパン,,その他の設立登記法人,東京都,新宿区,下落合４丁目１８番１１号,,13,104,1610033,,,,,,,2025-06-11,1,,,,,ソーシャルアクションジャパン,0
1144,5011201026423,新規,0,2025-06-11,2025-06-11,株式会社ＡＦＤ,,株式会社,東京都,中野区,上高田５丁目２７番１０号ＭＡＸＩＶ中野３０１,,13,114,1640002,,,,,,,2025-06-11,1,,,,,エーエフディ,0
1145,5011203004732,新規,0,2025-06-11,2025-06-11,オフィスエーアイケー合同会社,,合同会社,東京都,中野区,江古田３丁目１４－１３グランドメゾン江古田の杜４３６号室,,13,114,1650022,,,,,,,2025-06-11,1,,,,,オフィスエーアイケー,0
1153,5011801046291,新規,0,2025-06-11,2025-06-11,株式会社龍美商事,,株式会社,東京都,葛飾区,奥戸５丁目１２番２３号,,13,122,1240022,,,,,,,2025-06-11,1,,,,,リュウミショウジ,0
1161,5012401043217,新規,0,2025-06-11,2025-06-11,株式会社ＴＥＣＨ　ＣＨＡＳＥ,,株式会社,東京都,府中市,日新町５丁目７２－６８,,13,206,1830036,,,,,,,2025-06-11,1,,,,,テックチェイス,0
1162,5012401043225,新規,0,2025-06-11,2025-06-11,株式会社ハイカラ,,株式会社,東京都,小金井市,中町４丁目９番１６号,,13,210,1840012,,,,,,,2025-06-11,1,,,,,ハイカラ,0
1165,5012801024023,新規,0,2025-06-11,2025-06-11,株式会社信設備,,株式会社,東京都,昭島市,拝島町３丁目２番１１号,,13,207,1960002,,,,,,,2025-06-11,1,,,,,シンセツビ,0
1167,5013301054428,新規,0,2025-06-11,2025-06-11,株式会社ＡＬ‐Ｆａｃｔｏｒｙ,,株式会社,東京都,豊島区,東池袋３丁目１－１サンシャイン６０・１２Ｆ,,13,116,1700013,,,,,,,2025-06-11,1,,,,,エーエルファクトリー,0
1179,5020001163327,新規,0,2025-06-11,2025-06-11,株式会社吉満工務店,,株式会社,神奈川県,川崎市宮前区,野川本町３丁目１番６号,,14,136,2160041,,,,,,,2025-06-11,1,,,,,ヨシミツコウムテン,0
1181,5020005016885,新規,0,2025-06-11,2025-06-11,一般社団法人日本スポーツ公共機構,,その他の設立登記法人,神奈川県,川崎市川崎区,池上新町２丁目１２番８－２０３号サン・ヴィレッジ,,14,131,2100832,,,,,,,2025-06-11,1,,,,,ニホンスポーツコウキョウキコウ,0
1188,5030001166980,新規,0,2025-06-11,2025-06-11,岑＿株式会社,00139528,株式会社,埼玉県,川口市,並木２丁目３３－４ＣｉｅｌＢｌｅｕ並木２０３,,11,203,3320034,,,,,,,2025-06-11,1,,,,,シンキン,0
1189,5030001166989,新規,0,2025-06-11,2025-06-11,桜蓮株式会社,,株式会社,埼玉県,さいたま市緑区,馬場１丁目１２－５－１０２,,11,109,3360912,,,,,,,2025-06-11,1,,,,,オウレン,0
1190,5030001167013,新規,0,2025-06-11,2025-06-11,株式会社Ｄ＆Ｄ　Ｎｅｘｔａｇｅ,,株式会社,埼玉県,朝霞市,本町１丁目４番２０号,,11,227,3510011,,,,,,,2025-06-11,1,,,,,ディアンドディネクステージ,0
1191,5030001167062,新規,0,2025-06-11,2025-06-11,株式会社ポン・チー・ロン,,株式会社,埼玉県,さいたま市大宮区,天沼町２丁目１０５３番地,,11,103,3300834,,,,,,,2025-06-11,1,,,,,ポンチーロン,0
1196,5040001139135,新規,0,2025-06-11,2025-06-11,株式会社ケイヨウ総合,,株式会社,千葉県,市川市,北方町４丁目２０５８番８号,,12,203,2720811,,,,,,,2025-06-11,1,,,,,ケイヨウソウゴウ,0
1197,5040001139176,新規,0,2025-06-11,2025-06-11,株式会社ＩＷＡＩＤＡ,,株式会社,千葉県,流山市,大字流山１０５０番地１,,12,220,2700164,,,,,,,2025-06-11,1,,,,,イワイダ,0
1198,5040001139192,新規,0,2025-06-11,2025-06-11,株式会社オルタナティブ,,株式会社,千葉県,旭市,イの３０４１番地林ビル２０６,,12,215,2892511,,,,,,,2025-06-11,1,,,,,オルタナティブ,0
1201,5040005022790,新規,0,2025-06-11,2025-06-11,特定非営利活動法人９６１２Ｇ　Ｐｒｏｊｅｃｔ,,その他の設立登記法人,千葉県,千葉市若葉区,若松町２３９２番地１８,,12,104,2640021,,,,,,,2025-06-11,1,,,,,クロヒツジプロジェクト,0
1204,5050001056809,新規,0,2025-06-11,2025-06-11,株式会社ＲＥＢＲＥ,,株式会社,茨城県,土浦市,小松１丁目１２番３５－９１１号シティパレス明建,,08,203,3000823,,,,,,,2025-06-11,1,,,,,,0
1209,5070001043029,新規,0,2025-06-11,2025-06-11,株式会社ＲｉｚＺ,,株式会社,群馬県,前橋市,鳥羽町４１７－１０丸三前橋インタービル４Ｆ,,10,201,3710845,,,,,,,2025-06-11,1,,,,,リズ,0
1210,5070003005951,新規,0,2025-06-11,2025-06-11,和然合同会社,,合同会社,群馬県,太田市,宝町６４２－４、２階・３階,,10,205,3730042,,,,,,,2025-06-11,1,,,,,ワゼン,0
1214,5080401027968,新規,0,2025-06-11,2025-06-11,株式会社慎,,株式会社,静岡県,浜松市中央区,積志町１７９番地の６,,22,138,4313114,,,,,,,2025-06-11,1,,,,,シン,0
1219,5110001039328,新規,0,2025-06-11,2025-06-11,ＮＣホールディングス株式会社,,株式会社,新潟県,新潟市中央区,上近江１丁目３番４０号,,15,103,9500973,,,,,,,2025-06-11,1,,,,,エヌシーホールディングス,0
1224,5120001276688,新規,0,2025-06-11,2025-06-11,銘晞株式会社,,株式会社,大阪府,大阪市城東区,今福東２丁目１５－３０ワイズコート今福鶴見７０６号室,,27,118,5360002,,,,,,,2025-06-11,1,,,,,メイキ,0
1225,5120001276696,新規,0,2025-06-11,2025-06-11,株式会社ミネラル不動産,,株式会社,大阪府,大阪市城東区,鴫野東３丁目１４－１８,,27,118,5360013,,,,,,,2025-06-11,1,,,,,ミネラルフドウサン,0
1226,5120001276713,新規,0,2025-06-11,2025-06-11,株式会社ＡＳＳＥＣＯＭテクノロジー,,株式会社,大阪府,大阪市西区,江戸堀１丁目２３番１９－１００３号,,27,106,5500002,,,,,,,2025-06-11,1,,,,,エスコムテクノロジー,0
1227,5120001276721,新規,0,2025-06-11,2025-06-11,丸富株式会社,,株式会社,大阪府,枚方市,藤阪東町３丁目３－１,,27,210,5730153,,,,,,,2025-06-11,1,,,,,マルトミ,0
1228,5120001276738,新規,0,2025-06-11,2025-06-11,ＳＴＡＲＢＩＴ　ＪＡＰＡＮ株式会社,,株式会社,大阪府,大阪市北区,中之島３丁目１番８号２Ｆ,,27,127,5300005,,,,,,,2025-06-11,1,,,,,スタービットジャパン,0
1232,5120003029714,新規,0,2025-06-11,2025-06-11,千尋貿易合同会社,,合同会社,大阪府,大阪市北区,南森町１丁目１番１号中村ビル２１９号室,,27,127,5300054,,,,,,,2025-06-11,1,,,,,チヒロボウエキ,0
1235,5120901051026,新規,0,2025-06-11,2025-06-11,株式会社一,,株式会社,大阪府,豊中市,東豊中町３丁目２番８号Ｃ－０００１号,,27,203,5600003,,,,,,,2025-06-11,1,,,,,イチ,0
1236,5120903005707,新規,0,2025-06-11,2025-06-11,合同会社木本電気,,合同会社,大阪府,高槻市,竹の内町６４番１号,,27,207,5690043,,,,,,,2025-06-11,1,,,,,キモトデンキ,0
1240,5130001079859,新規,0,2025-06-11,2025-06-11,株式会社里山造園,,株式会社,京都府,京都市山科区,北花山中道町５２番地１０,,26,110,6078481,,,,,,,2025-06-11,1,,,,,サトヤマゾウエン,0
1241,5130001079883,新規,0,2025-06-11,2025-06-11,株式会社キューアンドエイ,,株式会社,京都府,京都市伏見区,久我石原町５番地３,,26,109,6128491,,,,,,,2025-06-11,1,,,,,キューアンドエイ,0
1243,5130005017377,新規,0,2025-06-11,2025-06-11,特定非営利活動法人みんなあの居場所・彦一郎,,その他の設立登記法人,京都府,舞鶴市,字伊佐津４０６番地,,26,202,6240816,,,,,,,2025-06-11,1,,,,,ミンナアノイバショヒコイチロウ,0
1253,5140001138804,新規,0,2025-06-11,2025-06-11,株式会社一閃,,株式会社,兵庫県,三田市,藍本２３１７－６６,,28,219,6691358,,,,,,,2025-06-11,1,,,,,イッセン,0
1254,5140001138812,新規,0,2025-06-11,2025-06-11,株式会社プロスペリテ,,株式会社,兵庫県,明石市,二見町東二見７９９番地の２,,28,203,6740092,,,,,,,2025-06-11,1,,,,,プロスペリテ,0
1255,5140001138837,新規,0,2025-06-11,2025-06-11,亀田地所株式会社,,株式会社,兵庫県,尼崎市,東園田町３丁目７１番地の３,,28,202,6610953,,,,,,,2025-06-11,1,,,,,カメダジショ,0
1262,5160003003509,新規,0,2025-06-11,2025-06-11,３ＴＴＴ合同会社,,合同会社,滋賀県,米原市,磯１６１０番地５,,25,214,5210004,,,,,,,2025-06-11,1,,,,,サンティティティ,0
1270,5180001167262,新規,0,2025-06-11,2025-06-11,万図株式会社,,株式会社,愛知県,名古屋市瑞穂区,汐路町４丁目３番地パークレジデンス汐路町２０６,,23,108,4670003,,,,,,,2025-06-11,1,,,,,マンズ,0
1271,5180001167270,新規,0,2025-06-11,2025-06-11,株式会社ハイネック,,株式会社,愛知県,名古屋市緑区,大高町字亀原２７－１,,23,114,4598001,,,,,,,2025-06-11,1,,,,,ハイネック,0
1272,5180001167279,新規,0,2025-06-11,2025-06-11,株式会社Ｒｏｔｔｉ,,株式会社,愛知県,名古屋市守山区,八反４番９号,,23,113,4630063,,,,,,,2025-06-11,1,,,,,ロッティ,0
1273,5180003028611,新規,0,2025-06-11,2025-06-11,合同会社Ｒｅｎ,,合同会社,愛知県,名古屋市北区,大曽根３丁目１０番７号,,23,103,4620825,,,,,,,2025-06-11,1,,,,,レン,0
1277,5180303006606,新規,0,2025-06-11,2025-06-11,合同会社ｅ‐Ｒｉｓｅ,,合同会社,愛知県,新城市,野田字西郷５１番地,,23,221,4411343,,,,,,,2025-06-11,1,,,,,イーライズ,0
1278,5190001032267,新規,0,2025-06-11,2025-06-11,株式会社サイドワークス,,株式会社,三重県,四日市市,羽津町６番２４号,,24,202,5100017,,,,,,,2025-06-11,1,,,,,サイドワークス,0
1285,5200001043881,新規,0,2025-06-11,2025-06-11,株式会社丸八ＨＯＭＥ,,株式会社,岐阜県,多治見市,長瀬町２４番地の６３,,21,204,5070017,,,,,,,2025-06-11,1,,,,,マルハチホーム,0
1322,5260003005214,新規,0,2025-06-11,2025-06-11,合同会社シンプルステップ,,合同会社,岡山県,笠岡市,笠岡５２４１番地,,33,205,7140081,,,,,,,2025-06-11,1,,,,,シンプルステップ,0
1323,5270001009216,新規,0,2025-06-11,2025-06-11,株式会社楽三,,株式会社,鳥取県,鳥取市,北園２丁目３０５番地ル・リアン北園３０２号,,31,201,6800004,,,,,,,2025-06-11,1,,,,,ラクゾウ,0
1324,5270003001757,新規,0,2025-06-11,2025-06-11,合同会社ＡＬＬ　ＧＯＯＤ,,合同会社,鳥取県,東伯郡北栄町,国坂７２３－５,,31,372,6892102,,,,,,,2025-06-11,1,,,,,オールグッド,0
1327,5290001110368,新規,0,2025-06-11,2025-06-11,株式会社ＷＩＴＳ,,株式会社,福岡県,福岡市早良区,城西２丁目３番１３－２０３号リバティ,,40,137,8140003,,,,,,,2025-06-11,1,,,,,ヴィッツ,0
1329,5290003016968,新規,0,2025-06-11,2025-06-11,合同会社厨,,合同会社,福岡県,福岡市中央区,高砂１丁目２番１０号,,40,133,8100011,,,,,,,2025-06-11,1,,,,,クリヤ,0
1330,5290801031615,新規,0,2025-06-11,2025-06-11,株式会社健,,株式会社,福岡県,直方市,大字上境２８８７番地１８フォーレスト山水２０２号,,40,204,8220006,,,,,,,2025-06-11,1,,,,,ケン,0
1336,5320001021165,新規,0,2025-06-11,2025-06-11,株式会社ヴェルデ,,株式会社,大分県,大分市,三川下１丁目６番６号,,44,201,8700142,,,,,,,2025-06-11,1,,,,,ヴェルデ,0
1346,5370003007141,新規,0,2025-06-11,2025-06-11,合同会社仙台東口ＰＪ,,合同会社,宮城県,仙台市宮城野区,榴岡４丁目５番１号,,04,102,9830852,,,,,,,2025-06-11,1,,,,,センダイヒガシグチピージェイ,0
1350,5380001035382,新規,0,2025-06-11,2025-06-11,株式会社イングス,,株式会社,福島県,郡山市,安積町荒井字大池下２０－Ｂ,,07,203,9630111,,,,,,,2025-06-11,1,,,,,イングス,0
1359,5410001014184,新規,0,2025-06-11,2025-06-11,株式会社ライフラボ,,株式会社,秋田県,横手市,前郷字八ツ口８２番地,,05,203,0130042,,,,,,,2025-06-11,1,,,,,ライフラボ,0
1369,5460301005300,新規,0,2025-06-11,2025-06-11,株式会社９かける９,,株式会社,北海道,北見市,端野町三区４７２番地７１,,01,208,0992103,,,,,,,2025-06-11,1,,,,,キュウカケルキュウ,0
1377,5700150110119,新規,0,2025-06-11,2022-06-20,インフラマネジメントテクノロジーコンテスト実行委員会,,その他,東京都,荒川区,西日暮里２丁目４０－３横山ビル６Ｆ　アイセイ（株）内,,13,118,1160013,,,,,,,2022-06-20,1,,,,,インフラマネジメントテクノロジーコンテストジツコウイインカイ,0
1384,6010001255735,新規,0,2025-06-11,2025-06-11,サングロー株式会社,,株式会社,東京都,中央区,銀座７丁目１５番５号,,13,102,1040061,,,,,,,2025-06-11,1,,,,,サングロー,0
1385,6010001255826,新規,0,2025-06-11,2025-06-11,株式会社Ｘｕｓｈｉｏｎ,,株式会社,東京都,千代田区,神田東松下町３１－１Ｕｂｉｚ神田千桜３Ｆ,,13,101,1010042,,,,,,,2025-06-11,1,,,,,クッション,0
1386,6010001255867,新規,0,2025-06-11,2025-06-11,株式会社８０３,,株式会社,東京都,中央区,銀座７丁目５番１５号銀座蒲田ビル３Ｆ－ＡＢ号室,,13,102,1040061,,,,,,,2025-06-11,1,,,,,ハチマルサン,0
1391,6010003047544,新規,0,2025-06-11,2025-06-11,合同会社ＤＯＮＯＶＡＮ,,合同会社,東京都,中央区,銀座１丁目１２－４－６Ｆ,,13,102,1040061,,,,,,,2025-06-11,1,,,,,ドノヴァン,0
1392,6010003047635,新規,0,2025-06-11,2025-06-11,銀石資本合同会社,,合同会社,東京都,中央区,湊２丁目１１番１－１０２５号,,13,102,1040043,,,,,,,2025-06-11,1,,,,,ギンセキシホン,0
1393,6010003047643,新規,0,2025-06-11,2025-06-11,ＮＥＸＯＲＡ合同会社,,合同会社,東京都,中央区,新川１丁目６番１２号,,13,102,1040033,,,,,,,2025-06-11,1,,,,,ネクソラ,0
1403,6010401190714,新規,0,2025-06-11,2025-06-11,株式会社小松会計ｆａｍｉｌｙｏｆｆｉｃｅ,,株式会社,東京都,港区,浜松町１丁目３－２－２５１０,,13,103,1050013,,,,,,,2025-06-11,1,,,,,コマツカイケイファミリーオフィス,0
1404,6010401190854,新規,0,2025-06-11,2025-06-11,ｍａｋｉｍａｋｉ株式会社,,株式会社,東京都,港区,北青山１丁目３－３三橋ビル３階,,13,103,1070061,,,,,,,2025-06-11,1,,,,,マキマキ,0
1405,6010401190929,新規,0,2025-06-11,2025-06-11,株式会社Ｈｉｒａｋｕ,,株式会社,東京都,港区,三田５丁目２番２２号１８０７,,13,103,1080073,,,,,,,2025-06-11,1,,,,,ヒラク,0
1406,6010401190953,新規,0,2025-06-11,2025-06-11,株式会社ＮＸホールディングス,,株式会社,東京都,港区,赤坂９丁目７番１号,,13,103,1070052,,,,,,,2025-06-11,1,,,,,エヌエックスホールディングス,0
1407,6010401191010,新規,0,2025-06-11,2025-06-11,白鵬ダヤン相撲＆スポーツ株式会社,,株式会社,東京都,港区,赤坂２丁目８番２号赤坂たん熊ビル３階,,13,103,1070052,,,,,,,2025-06-11,1,,,,,ハクホウダヤンスモウアンドスポーツ,0
1411,6010403035289,新規,0,2025-06-11,2025-06-11,ムーデン合同会社,,合同会社,東京都,港区,赤坂６丁目１２番１７－１００３号,,13,103,1070052,,,,,,,2025-06-11,1,,,,,ムーデン,0
1412,6010403035306,新規,0,2025-06-11,2025-06-11,合同会社Ｚｅｒａｎｃｈａ,,合同会社,東京都,港区,北青山１丁目３番１号アールキューブ青山３階,,13,103,1070061,,,,,,,2025-06-11,1,,,,,ゼランカ,0
1413,6010403035347,新規,0,2025-06-11,2025-06-11,寿司處糸賀合同会社,,合同会社,東京都,港区,新橋２丁目８番２号,,13,103,1050004,,,,,,,2025-06-11,1,,,,,スシドコロイトガ,0
1414,6010403035363,新規,0,2025-06-11,2025-06-11,ワンダーランドファッションマニュファクチャリング合同会社,,合同会社,東京都,港区,元麻布３丁目１０－９サンスイハイム元麻布６０２号,,13,103,1060046,,,,,,,2025-06-11,1,,,,,ワンダーランドファッションマニュファクチャリング,0
1416,6010405024422,新規,0,2025-06-11,2025-06-11,一般社団法人国際着物ドレスアーティスト協会,,その他の設立登記法人,東京都,港区,北青山１丁目３番１号アールキューブ青山３階,,13,103,1070061,,,,,,,2025-06-11,1,,,,,コクサイキモノドレスアーティストキョウカイ,0
1419,6010701047820,新規,0,2025-06-11,2025-06-11,株式会社ハートライズ,,株式会社,東京都,品川区,小山４丁目１３番１号Ｂｌｕｅｃｌｏｕｄ１階,,13,109,1420062,,,,,,,2025-06-11,1,,,,,ハートライズ,0
1421,6010703007748,新規,0,2025-06-11,2025-06-11,合同会社Ｋａｉ一級建築士事務所,,合同会社,東京都,品川区,大崎４丁目１１－３,,13,109,1410032,,,,,,,2025-06-11,1,,,,,カイイッキュウケンチクジムショ,0
1422,6010703007756,新規,0,2025-06-11,2025-06-11,合同会社田中商会,,合同会社,東京都,品川区,東品川１丁目２８－１６レジデンストーキョー東品川５０１,,13,109,1400002,,,,,,,2025-06-11,1,,,,,タナカショウカイ,0
1426,6010901057520,新規,0,2025-06-11,2025-06-11,株式会社ラッシュ岡安,,株式会社,東京都,世田谷区,下馬２丁目１５番７号,,13,112,1540002,,,,,,,2025-06-11,1,,,,,ラッシュオカヤス,0
1427,6010901057529,新規,0,2025-06-11,2025-06-11,株式会社六月,,株式会社,東京都,世田谷区,弦巻１丁目１５番１－２０８号,,13,112,1540016,,,,,,,2025-06-11,1,,,,,ロクガツ,0
1428,6010901057537,新規,0,2025-06-11,2025-06-11,ラディアントパートナーズ株式会社,,株式会社,東京都,世田谷区,駒沢２丁目５２番２号,,13,112,1540012,,,,,,,2025-06-11,1,,,,,ラディアントパートナーズ,0
1431,6011001170486,新規,0,2025-06-11,2025-06-11,株式会社Ｓｗｉｍｍｉｅｓ,,株式会社,東京都,渋谷区,円山町５番３号ＭＩＥＵＸ渋谷ビル８階,,13,113,1500044,,,,,,,2025-06-11,1,,,,,スイミーズ,0
1446,6011801046290,新規,0,2025-06-11,2025-06-11,株式会社ブランズ・アンド・ストーリーズ,,株式会社,東京都,葛飾区,奥戸２丁目７番１９号,,13,122,1240022,,,,,,,2025-06-11,1,,,,,ブランズアンドストーリーズ,0
1447,6011803006904,新規,0,2025-06-11,2025-06-11,合同会社プロア・コンサルティング,,合同会社,東京都,足立区,綾瀬２丁目１７番６－１２０１号,,13,121,1200005,,,,,,,2025-06-11,1,,,,,プロアコンサルティング,0
1450,6012401043216,新規,0,2025-06-11,2025-06-11,株式会社ｈｉｂｉｋｉ,,株式会社,東京都,武蔵野市,吉祥寺南町１丁目２９番１１号,,13,203,1800003,,,,,,,2025-06-11,1,,,,,ヒビキ,0
1451,6012801024014,新規,0,2025-06-11,2025-06-11,株式会社ＧＯ　ＴＯ,,株式会社,東京都,立川市,曙町２丁目１５番１４号ヒロセビル１１一階,,13,202,1900012,,,,,,,2025-06-11,1,,,,,ゴートゥー,0
1456,6013301054427,新規,0,2025-06-11,2025-06-11,株式会社ＳＺ,,株式会社,東京都,豊島区,上池袋４丁目８－５,,13,116,1700012,,,,,,,2025-06-11,1,,,,,エスゼット,0
1468,6020001163301,新規,0,2025-06-11,2025-06-11,株式会社いただきます,,株式会社,神奈川県,横浜市港北区,師岡町４６８番地１２コンドミニアムヴェル大倉山６０１号,,14,109,2220002,,,,,,,2025-06-11,1,,,,,イタダキマス,0
1469,6020001163318,新規,0,2025-06-11,2025-06-11,株式会社レガーレ,,株式会社,神奈川県,横浜市港南区,東永谷２丁目１１番２８－１号,,14,111,2330011,,,,,,,2025-06-11,1,,,,,レガーレ,0
1470,6020001163334,新規,0,2025-06-11,2025-06-11,株式会社初凪建設,,株式会社,神奈川県,横浜市緑区,寺山町７５３番地１エスペランサ中山１０５号,,14,113,2260013,,,,,,,2025-06-11,1,,,,,ハツナギケンセツ,0
1471,6020001163359,新規,0,2025-06-11,2025-06-11,株式会社ＣＡＲＮＯＳ,,株式会社,神奈川県,横浜市西区,浅間町１丁目４－３ウィザードビル４０２,,14,103,2200072,,,,,,,2025-06-11,1,,,,,カーノス,0
1475,6020003028659,新規,0,2025-06-11,2025-06-11,合同会社マウンテンブルー,,合同会社,神奈川県,横浜市旭区,二俣川１丁目７７番地６,,14,112,2410821,,,,,,,2025-06-11,1,,,,,マウンテンブルー,0
1476,6020003028691,新規,0,2025-06-11,2025-06-11,Ｖｉｎ　Ｖｉａｇｇｉｏ合同会社,,合同会社,神奈川県,横浜市青葉区,奈良４丁目１番地１Ｂ－１００５,,14,117,2270038,,,,,,,2025-06-11,1,,,,,ヴィンヴィアッジオ,0
1490,6021001085460,新規,0,2025-06-11,2025-06-11,株式会社Ａｒｔｒａｉｎ,,株式会社,神奈川県,横須賀市,久里浜７丁目１４番１３－５号,,14,201,2390831,,,,,,,2025-06-11,1,,,,,アートレイン,0
1491,6021001085469,新規,0,2025-06-11,2025-06-11,株式会社リヴィエラ・ソリューションズ,,株式会社,神奈川県,中郡大磯町,大磯８９５番地２８,,14,341,2550003,,,,,,,2025-06-11,1,,,,,リヴィエラソリューションズ,0
1492,6021001085485,新規,0,2025-06-11,2025-06-11,株式会社ＫＩＭＩＤＯＲＩ,,株式会社,神奈川県,大和市,大和南２丁目３番５号ＣＬＡＹＡＭＡＴＯＩＩ３階３０１号室,00139537,14,213,2420016,,,,,,,2025-06-11,1,,,,,キミドリ,0
1494,6021003015903,新規,0,2025-06-11,2025-06-11,合同会社ＲＳＤ,,合同会社,神奈川県,茅ヶ崎市,堤７－１ラ・ルーチェ湘南１０１,,14,207,2530006,,,,,,,2025-06-11,1,,,,,アールエスディ,0
1497,6021005013384,新規,0,2025-06-11,2025-06-11,一般社団法人日本サステナブルフラワー協会,,その他の設立登記法人,神奈川県,茅ヶ崎市,幸町７番３号,,14,207,2530052,,,,,,,2025-06-11,1,,,,,ニホンサステナブルフラワーキョウカイ,0
1499,6030001166971,新規,0,2025-06-11,2025-06-11,壹品株式会社,,株式会社,埼玉県,さいたま市岩槻区,本丸３丁目１０番１４号,,11,110,3390058,,,,,,,2025-06-11,1,,,,,イッピン,0
1500,6030001167012,新規,0,2025-06-11,2025-06-11,株式会社ＮＯＥ,,株式会社,埼玉県,川越市,今成３丁目６－３,,11,201,3501105,,,,,,,2025-06-11,1,,,,,エヌオーイー,0
1501,6030001167053,新規,0,2025-06-11,2025-06-11,株式会社ＢＹＡＫＵＲＯＫＵ,,株式会社,埼玉県,所沢市,くすのき台１丁目１３番地の２ガーデンシティ所沢２Ｆ,,11,208,3590037,,,,,,,2025-06-11,1,,,,,ビャクロク,0
1510,6040001139002,新規,0,2025-06-11,2025-06-11,株式会社京葉工業,,株式会社,千葉県,船橋市,薬円台３丁目１４番２－４号,,12,204,2740077,,,,,,,2025-06-11,1,,,,,ケイヨウコウギョウ,0
1511,6040001139126,新規,0,2025-06-11,2025-06-11,株式会社Ｓプラス,,株式会社,千葉県,市川市,中国分１丁目１３番１０号,,12,203,2720835,,,,,,,2025-06-11,1,,,,,エスプラス,0
1512,6040001139175,新規,0,2025-06-11,2025-06-11,株式会社ＹＴＣ,,株式会社,千葉県,流山市,思井４３８番地セレーナガーデン１０６,,12,220,2700154,,,,,,,2025-06-11,1,,,,,ワイティーシー,0
1513,6040001139191,新規,0,2025-06-11,2025-06-11,株式会社グッドハーベスト,,株式会社,千葉県,市川市,北方町４丁目２０６６番地１２,,12,203,2720811,,,,,,,2025-06-11,1,,,,,グッドハーベスト,0
1514,6040001139217,新規,0,2025-06-11,2025-06-11,株式会社ブライト,,株式会社,千葉県,市川市,稲越３丁目１４番２９号,,12,203,2720831,,,,,,,2025-06-11,1,,,,,ブライト,0
1515,6040003027766,新規,0,2025-06-11,2025-06-11,合同会社サンライズ貿易,,合同会社,千葉県,四街道市,大日３２２番地７大日ビル１階Ｂ号室,,12,228,2840001,,,,,,,2025-06-11,1,,,,,サンライズボウエキ,0
1516,6040003027774,新規,0,2025-06-11,2025-06-11,合同会社順風,,合同会社,千葉県,佐倉市,江原４８番地,,12,212,2850824,,,,,,,2025-06-11,1,,,,,ジュンプウ,0
1527,6080001026980,新規,0,2025-06-11,2025-06-11,株式会社Ｒｕｎｎｅ．,,株式会社,静岡県,島田市,本通５丁目７８７８番地の１０エンブルエバー島田本通り１００４号,,22,209,4270022,,,,,,,2025-06-11,1,,,,,ランネ,0
1530,6080401027959,新規,0,2025-06-11,2025-06-11,株式会社美肌コンシェルジュ,,株式会社,静岡県,浜松市中央区,紺屋町３０６番地の４３,,22,138,4300938,,,,,,,2025-06-11,1,,,,,ビハダコンシェルジュ,0
1533,6110001039343,新規,0,2025-06-11,2025-06-11,株式会社むさこた,,株式会社,新潟県,長岡市,堀金１丁目１０番１５号,,15,202,9400868,,,,,,,2025-06-11,1,,,,,ムサコタ,0
1535,6110003005789,新規,0,2025-06-11,2025-06-11,合同会社Ｇｒｅａｔ　Ｄｉｓｔａｎｃｅ,,合同会社,新潟県,新潟市中央区,南笹口１丁目１－３８コープオリンピア８０８,,15,103,9500912,,,,,,,2025-06-11,1,,,,,グレイトディスタンス,0
1541,6120001276695,新規,0,2025-06-11,2025-06-11,株式会社ＭＡｏｍｏｎｉ,,株式会社,大阪府,大阪市北区,鶴野町３番９－２８０６号,,27,127,5300014,,,,,,,2025-06-11,1,,,,,マオモニ,0
1542,6120001276737,新規,0,2025-06-11,2025-06-11,株式会社まあるく,,株式会社,大阪府,大阪市中央区,南本町１丁目５番７号,,27,128,5410054,,,,,,,2025-06-11,1,,,,,マアルク,0
1543,6120001276778,新規,0,2025-06-11,2025-06-11,冠洲株式会社,,株式会社,大阪府,大阪市浪速区,日本橋３丁目１番２７号コンチネンタル難波東１００３号,,27,111,5560005,,,,,,,2025-06-11,1,,,,,カンシュウ,0
1547,6120003029713,新規,0,2025-06-11,2025-06-11,Ｒｅｌａｔｉｏｎ合同会社,,合同会社,大阪府,大阪市住之江区,住之江２丁目１０番３号,,27,125,5590004,,,,,,,2025-06-11,1,,,,,リレーション,0
1548,6120003029721,新規,0,2025-06-11,2025-06-11,メンタルサポートオンライン合同会社,,合同会社,大阪府,大阪市北区,梅田１丁目１番３号大阪駅前第３ビル２９階１－１－１号室,,27,127,5300001,,,,,,,2025-06-11,1,,,,,メンタルサポートオンライン,0
1549,6120003029738,新規,0,2025-06-11,2025-06-11,合同会社星ノ,,合同会社,大阪府,大阪市浪速区,大国１丁目１２番１９号水希ビル２階Ａ,,27,111,5560014,,,,,,,2025-06-11,1,,,,,ホシノ,0
1550,6120005024976,新規,0,2025-06-11,2025-06-11,Ｋ．Ｓ．Ｋ行政書士法人,,その他の設立登記法人,大阪府,大阪市中央区,上汐２丁目５番２４号,,27,128,5420064,,,,,,,2025-06-11,1,,,,,ケーエスケー,0
1557,6130003010531,新規,0,2025-06-11,2025-06-11,合同会社ＡｉＣｅｐｔ,,合同会社,京都府,京田辺市,田辺平田１５番地１９・２－Ｂ,,26,211,6100331,,,,,,,2025-06-11,1,,,,,アイセプト,0
1562,6140001138828,新規,0,2025-06-11,2025-06-11,株式会社Ｍ’ｓ,,株式会社,兵庫県,尼崎市,金楽寺町１丁目２番１０－１１１７号,,28,202,6600806,,,,,,,2025-06-11,1,,,,,エムズ,0
1564,6140003022146,新規,0,2025-06-11,2025-06-11,天風珈琲合同会社,,合同会社,兵庫県,神戸市中央区,中山手通２丁目３番１４号エイコースカイハイツ２０２,,28,110,6500004,,,,,,,2025-06-11,1,,,,,テンプウコーヒー,0
1565,6140003022162,新規,0,2025-06-11,2025-06-11,合同会社ｉＣｕｒｅファミリー,,合同会社,兵庫県,神戸市中央区,御幸通８丁目１番６号Ｂ１ＦｉＣｕｒｅ鍼灸接骨院内,,28,110,6510087,,,,,,,2025-06-11,1,,,,,アイキュアファミリー,0
1566,6140003022195,新規,0,2025-06-11,2025-06-11,合同会社ｃｒｏｓｓｔｈｉｎｋ研究所,,合同会社,兵庫県,神戸市兵庫区,荒田町１丁目４番１－８０２号,,28,105,6520032,,,,,,,2025-06-11,1,,,,,クロスシンクケンキュウショ,0
1569,6150001028185,新規,0,2025-06-11,2025-06-11,株式会社ミライ流通,,株式会社,奈良県,奈良市,大宮町７丁目１番５９－２０２号,,29,201,6308115,,,,,,,2025-06-11,1,,,,,ミライリュウツウ,0
1578,6180001167245,新規,0,2025-06-11,2025-06-11,株式会社ゴールワン,,株式会社,愛知県,名古屋市西区,稲生町１丁目７６－１,,23,104,4510012,,,,,,,2025-06-11,1,,,,,ゴールワン,0
1579,6180001167253,新規,0,2025-06-11,2025-06-11,株式会社ＭｉｙａｋｅＩｎｄｕｓｔｒｉｅｓ,,株式会社,愛知県,名古屋市中川区,大当郎３丁目１９０４番地の４,,23,110,4540943,,,,,,,2025-06-11,1,,,,,ミヤケインダストリーズ,0
1580,6180001167261,新規,0,2025-06-11,2025-06-11,友和株式会社,,株式会社,愛知県,名古屋市西区,名駅２丁目２９‐２８グランデール名古屋３０３号室,,23,104,4510045,,,,,,,2025-06-11,1,,,,,トモカズ,0
1582,6180003028577,新規,0,2025-06-11,2025-06-11,合同会社ＲＭ,,合同会社,愛知県,春日井市,鳥居松町５丁目６０,,23,206,4860844,,,,,,,2025-06-11,1,,,,,アールエム,0
1583,6180003028602,新規,0,2025-06-11,2025-06-11,合同会社アントレース,,合同会社,愛知県,名古屋市中村区,名駅４丁目２４番５号第２森ビル４０１,,23,105,4500002,,,,,,,2025-06-11,1,,,,,アントレース,0
1584,6180003028610,新規,0,2025-06-11,2025-06-11,ＴＭＬＣ合同会社,,合同会社,愛知県,春日井市,東野町１０丁目２２－２,,23,206,4860817,,,,,,,2025-06-11,1,,,,,ティーエムエルシー,0
1586,6180005021126,新規,0,2025-06-11,2025-06-11,一般社団法人東海福祉機構,,その他の設立登記法人,愛知県,一宮市,大和町馬引字郷裏６５番地,,23,203,4910931,,,,,,,2025-06-11,1,,,,,トウカイフクシキコウ,0
1590,6180303006605,新規,0,2025-06-11,2025-06-11,合同会社ＳＱＡＲＤ,,合同会社,愛知県,豊橋市,向草間町字向中６番地４,,23,201,4418142,,,,,,,2025-06-11,1,,,,,スクアード,0
1598,6200001043889,新規,0,2025-06-11,2025-06-11,ノナカツールズ株式会社,,株式会社,岐阜県,飛騨市,古川町上気多４９６番地１,,21,217,5094212,,,,,,,2025-06-11,1,,,,,ノナカツールズ,0
1610,6230003002436,新規,0,2025-06-11,2025-06-11,合同会社光伸,,合同会社,富山県,南砺市,福光７４７１番地８,,16,210,9391610,,,,,,,2025-06-11,1,,,,,コウシン,0
1618,6240001065062,新規,0,2025-06-11,2025-06-11,株式会社Ｌｕｍｉｎａ　Ｌｏｇｉｃ　Ｍｉｎｄｓ,,株式会社,広島県,広島市安佐北区,可部５丁目７番５－１７－２０３号,,34,106,7310221,,,,,,,2025-06-11,1,,,,,ルミナロジックマインズ,0
1624,6250001021188,新規,0,2025-06-11,2025-06-11,岳南工商株式会社,,株式会社,山口県,山口市,葵２丁目２番２号,,35,203,7530821,,,,,,,2025-06-11,1,,,,,ガクナンコウショウ,0
1631,6270003001756,新規,0,2025-06-11,2025-06-11,下山鈑金塗装合同会社,,合同会社,鳥取県,八頭郡八頭町,篠波９２番地２,,31,329,6800316,,,,,,,2025-06-11,1,,,,,シモヤマバンキントソウ,0
1636,6290001110359,新規,0,2025-06-11,2025-06-11,Ｃｅｄａｒ　ａｎｄ　Ｃｏ．株式会社,,株式会社,福岡県,福岡市中央区,天神２丁目２番１２号７Ｆ,,40,133,8100001,,,,,,,2025-06-11,1,,,,,シダーアンドコー,0
1640,6290003016959,新規,0,2025-06-11,2025-06-11,合同会社ケアノミー,,合同会社,福岡県,福岡市東区,千早５丁目３２番１０－３１８号,,40,131,8130044,,,,,,,2025-06-11,1,,,,,ケアノミー,0
1641,6290003016967,新規,0,2025-06-11,2025-06-11,合同会社福の風,,合同会社,福岡県,福岡市早良区,野芥８丁目１－２４ベル２１Ｂ２０５,,40,137,8140171,,,,,,,2025-06-11,1,,,,,フクノカゼ,0
1644,6310005008860,新規,0,2025-06-11,2025-06-11,一般社団法人のだけの森こうえん,,その他の設立登記法人,長崎県,大村市,重井田町６３７番地１,,42,205,8560011,,,,,,,2025-06-11,1,,,,,ノダケノモリコウエン,0
1652,6330003011055,新規,0,2025-06-11,2025-06-11,ＢＯＳＳ　ＴＲＡＤＩＮＧ合同会社,,合同会社,熊本県,熊本市北区,植木町亀甲１４０番地,,43,105,8610127,,,,,,,2025-06-11,1,,,,,,0
1654,6340001027424,新規,0,2025-06-11,2025-06-11,株式会社オカテック,,株式会社,鹿児島県,鹿児島市,谷山中央７丁目５６番１１号,,46,201,8910141,,,,,,,2025-06-11,1,,,,,オカテック,0
1663,6360001035334,新規,0,2025-06-11,2025-06-11,ＩＳＤフードサービス株式会社,,株式会社,沖縄県,那覇市,おもろまち３丁目５番１－３０１号ソレイユルヴァン公園前,,47,201,9000006,,,,,,,2025-06-11,1,,,,,,0
1664,6370001052683,新規,0,2025-06-11,2025-06-11,株式会社タイヨーホールディングス,,株式会社,宮城県,仙台市宮城野区,扇町３丁目８番１５号,,04,102,9830034,,,,,,,2025-06-11,1,,,,,タイヨーホールディングス,0
1665,6370001052700,新規,0,2025-06-11,2025-06-11,株式会社Ｓｍｉｌｅ　Ｇｒｏｗ,,株式会社,宮城県,仙台市青葉区,国分町２丁目１２番３０号,,04,101,9800803,,,,,,,2025-06-11,1,,,,,スマイルグロー,0
1666,6370003007132,新規,0,2025-06-11,2025-06-11,Ｇｒｅｅｎｄｉａ合同会社,,合同会社,宮城県,仙台市若林区,上飯田２丁目１９－２８,,04,103,9840838,,,,,,,2025-06-11,1,,,,,グリンディア,0
1678,6430001094653,新規,0,2025-06-11,2025-06-11,株式会社オフィスリエゾン,,株式会社,北海道,小樽市,桜２丁目２５番８０３号ル・ノール桜,,01,203,0470156,,,,,,,2025-06-11,1,,,,,オフィスリエゾン,0
1689,6700150131023,新規,0,2025-06-11,2025-06-11,ＳＵＮ　ＲＩＳＥ　ＴＲＡＤＩＮＧ　ＰＶＴ　ＬＴＤ,,外国会社等,千葉県,山武市,白幡２７３６番地２オフィスＢ,,12,237,2891306,スリランカ民主社会主義共和国、コロンボ、マルダナ、パンチカワッタロード、Ｎｏ．１２２,,,,,,2025-06-11,1,,,,,サンライズトレーデイングプライベートリミテツド,0
1695,7010001255528,新規,0,2025-06-11,2025-06-11,株式会社Ｉｎｆｉｎｉｔｙ　ＡＩ,,株式会社,東京都,千代田区,丸の内１丁目８－３丸の内トラストタワー本館２０階,,13,101,1000005,,,,,,,2025-06-11,1,,,,,インフィニティアイ,0
1696,7010001255775,新規,0,2025-06-11,2025-06-11,株式会社ＯＮＥ　ａＧａｉｎ,,株式会社,東京都,中央区,銀座１丁目１４番７号銀座吉澤ビル３階,,13,102,1040061,,,,,,,2025-06-11,1,,,,,ワンアゲイン,0
1697,7010001255825,新規,0,2025-06-11,2025-06-11,４０’ｓ株式会社,,株式会社,東京都,小笠原村,父島字東町無番地チャーリーブラウン,,13,421,1002101,,,,,,,2025-06-11,1,,,,,フォーティーズ,0
1698,7010001255858,新規,0,2025-06-11,2025-06-11,Ｔ．Ｗ．ＢＲＩＧＨＴ株式会社,,株式会社,東京都,文京区,小石川１丁目１３番１１号５階,,13,105,1120002,,,,,,,2025-06-11,1,,,,,ティーダブリューブライト,0
1699,7010001255899,新規,0,2025-06-11,2025-06-11,株式会社ＩＮＥＸ,,株式会社,東京都,中央区,銀座１丁目２２番１１号銀座大竹ビジデンス２Ｆ,,13,102,1040061,,,,,,,2025-06-11,1,,,,,イネクス,0
1700,7010001255908,新規,0,2025-06-11,2025-06-11,株式会社ＲｅｖｏＬｉｎｋ,,株式会社,東京都,中央区,日本橋室町１丁目１１番１２号日本橋水野ビル７階,,13,102,1030022,,,,,,,2025-06-11,1,,,,,レボリンク,0
1701,7010003047428,新規,0,2025-06-11,2025-06-11,合同会社ハニーデュークス,,合同会社,東京都,千代田区,神田和泉町１番地６－１６番ヤマトビル４０５,,13,101,1010024,,,,,,,2025-06-11,1,,,,,,0
1710,7010401190837,新規,0,2025-06-11,2025-06-11,とうかく株式会社,,株式会社,東京都,港区,芝４丁目５番１２号,,13,103,1080014,,,,,,,2025-06-11,1,,,,,トウカク,0
1711,7010401190911,新規,0,2025-06-11,2025-06-11,Ｓｃｏｕｔａ株式会社,,株式会社,東京都,港区,虎ノ門４丁目１－２８虎ノ門タワーズオフィス１９階,,13,103,1050001,,,,,,,2025-06-11,1,,,,,スカウタ,0
1712,7010401190936,新規,0,2025-06-11,2025-06-11,株式会社メタバンチョー,,株式会社,東京都,港区,南青山２丁目２番１５号,,13,103,1070062,,,,,,,2025-06-11,1,,,,,メタバンチョー,0
1713,7010401190944,新規,0,2025-06-11,2025-06-11,株式会社プシュケ,,株式会社,東京都,港区,高輪３丁目７番８号西町ビル３Ｂ,,13,103,1080074,,,,,,,2025-06-11,1,,,,,プシュケ,0
1714,7010401190977,新規,0,2025-06-11,2025-06-11,株式会社Ｂｙｌｉｖｅ,,株式会社,東京都,港区,南青山１丁目１番１号新青山ビル西館７階,,13,103,1070062,,,,,,,2025-06-11,1,,,,,バイリブ,0
1715,7010401190985,新規,0,2025-06-11,2025-06-11,株式会社ｓｏｌ　ｙ　ｌｕｎａ,,株式会社,東京都,港区,芝公園１丁目８番２０号,,13,103,1050011,,,,,,,2025-06-11,1,,,,,ソルイルナ,0
1731,7010601067447,新規,0,2025-06-11,2025-06-11,株式会社Ｘｂｒｏｔｈｅｒ,,株式会社,東京都,墨田区,亀沢１丁目２２－１０ソフィア両国アネックス３０２,,13,107,1300014,,,,,,,2025-06-11,1,,,,,エックスブラザー,0
1733,7010703007755,新規,0,2025-06-11,2025-06-11,合同会社アウトゥンノ,,合同会社,東京都,品川区,北品川１丁目１番１５号北品川２１ビル３階,,13,109,1400001,,,,,,,2025-06-11,1,,,,,アウトゥンノ,0
1734,7010801036202,新規,0,2025-06-11,2025-06-11,株式会社ＤａｔｅｓＧｒｏｕｐ,,株式会社,東京都,大田区,上池台５丁目１６－３リブリ・Ｋ＆Ｗ上池台２０６,,13,111,1450064,,,,,,,2025-06-11,1,,,,,デイツグループ,0
1735,7010801036227,新規,0,2025-06-11,2025-06-11,株式会社７７Ｄａｙｓ,,株式会社,東京都,大田区,南馬込１丁目４３番２３－１０４号,,13,111,1430025,,,,,,,2025-06-11,1,,,,,セブンティセブンデイズ,0
1736,7010803005436,新規,0,2025-06-11,2025-06-11,合同会社ブループライド,,合同会社,東京都,大田区,西蒲田８丁目２４－１ミマツビル４階,,13,111,1440051,,,,,,,2025-06-11,1,,,,,ブループライド,0
1741,7010901057528,新規,0,2025-06-11,2025-06-11,ＥｍｙＣｏｍ株式会社,,株式会社,東京都,世田谷区,瀬田１丁目３番１７－２０２号,,13,112,1580095,,,,,,,2025-06-11,1,,,,,エミーコム,0
1744,7011001169973,新規,0,2025-06-11,2025-06-11,株式会社ＺＵＫＵ,,株式会社,東京都,渋谷区,宇田川町３７－１６レジディア渋谷６０４,,13,113,1500042,,,,,,,2025-06-11,1,,,,,ズク,0
1745,7011001170122,新規,0,2025-06-11,2025-06-11,株式会社シンカ,,株式会社,東京都,渋谷区,道玄坂１丁目１０番８号渋谷道玄坂東急ビル２Ｆ－Ｃ,,13,113,1500043,,,,,,,2025-06-11,1,,,,,シンカ,0
1746,7011001170130,新規,0,2025-06-11,2025-06-11,株式会社ＮＩＳＨＩＫＩ,,株式会社,東京都,渋谷区,西原１丁目４５番１３号ウエストステージ３０１,,13,113,1510066,,,,,,,2025-06-11,1,,,,,ニシキ,0
1747,7011001170155,新規,0,2025-06-11,2025-06-11,株式会社ＩＣＨＩＮＩ　ＩＣＨＩＮＩ,,株式会社,東京都,渋谷区,神宮前２丁目３１番１号スパークラービル３Ｆ,,13,113,1500001,,,,,,,2025-06-11,1,,,,,イチニイチニ,0
1764,7011803006903,新規,0,2025-06-11,2025-06-11,ＮＵＤＯ合同会社,,合同会社,東京都,葛飾区,奥戸２丁目２２番１２号,,13,122,1240022,,,,,,,2025-06-11,1,,,,,ヌド,0
1771,7020001163176,新規,0,2025-06-11,2025-06-11,株式会社Ｊ・ＴＯＰ,,株式会社,神奈川県,横浜市緑区,西八朔町１５５－１サングリーン１０２号,,14,113,2260024,,,,,,,2025-06-11,1,,,,,ジェイトップ,0
1772,7020001163201,新規,0,2025-06-11,2025-06-11,株式会社ＢＢＳ,,株式会社,神奈川県,川崎市宮前区,犬蔵１丁目１３番１０－１号,,14,136,2160011,,,,,,,2025-06-11,1,,,,,ビービーエス,0
1776,7020003028658,新規,0,2025-06-11,2025-06-11,Ｍ．Ｓ．ｆｉｎａｎｃｉａｌ合同会社,,合同会社,神奈川県,横浜市港北区,師岡町８７７－１,,14,109,2220002,,,,,,,2025-06-11,1,,,,,エムエスフィナンシャル,0
1777,7020003028666,新規,0,2025-06-11,2025-06-11,合同会社ゼロライズ横浜,,合同会社,神奈川県,横浜市磯子区,丸山２丁目３番２５号,,14,107,2350011,,,,,,,2025-06-11,1,,,,,ゼロライズヨコハマ,0
1778,7020003028708,新規,0,2025-06-11,2025-06-11,合同会社しおせ犬猫病院,,合同会社,神奈川県,横浜市西区,浅間町４丁目３４０番地６塩瀬ビル,,14,103,2200072,,,,,,,2025-06-11,1,,,,,シオセイヌネコビョウイン,0
1783,7021001085484,新規,0,2025-06-11,2025-06-11,株式会社Ｗｏｒｋｏｕｔ,,株式会社,神奈川県,綾瀬市,寺尾中４丁目１４番８号,,14,218,2521132,,,,,,,2025-06-11,1,,,,,ワークアウト,0
1784,7021001085492,新規,0,2025-06-11,2025-06-11,株式会社ｋｏｋｏ,,株式会社,神奈川県,相模原市南区,東林間４丁目２３番５号,,14,153,2520311,,,,,,,2025-06-11,1,,,,,ココ,0
1785,7021003016132,新規,0,2025-06-11,2025-06-11,合同会社ＯＫＯＫＳ,,合同会社,神奈川県,藤沢市,湘南台２丁目２８－１２,,14,205,2520804,,,,,,,2025-06-11,1,,,,,オコックス,0
1789,7021005013383,新規,0,2025-06-11,2025-06-11,一般社団法人珠洲焼みらい基金,,その他の設立登記法人,神奈川県,厚木市,恩名５丁目１番１号,,14,212,2430032,,,,,,,2025-06-11,1,,,,,スズヤキミライキキン,0
1792,7030001166938,新規,0,2025-06-11,2025-06-11,株式会社ＳＭＹ　ＲＯＯＦ,,株式会社,埼玉県,春日部市,備後東５丁目１０番１０－１号,,11,214,3440032,,,,,,,2025-06-11,1,,,,,スマイルーフ,0
1793,7030001167036,新規,0,2025-06-11,2025-06-11,株式会社ＦＯＵＲＴＨ,,株式会社,埼玉県,越谷市,レイクタウン８丁目３番地１ブリリアレイクタウンパークサイド８０７,,11,222,3430828,,,,,,,2025-06-11,1,,,,,フォース,0
1794,7030001167044,新規,0,2025-06-11,2025-06-11,株式会社オールイン,,株式会社,埼玉県,さいたま市浦和区,針ヶ谷２丁目２０番７－７０４号,,11,107,3300075,,,,,,,2025-06-11,1,,,,,オールイン,0
1798,7030003026966,新規,0,2025-06-11,2025-06-11,ＰＥＧＡＳＵＳ合同会社,,合同会社,埼玉県,さいたま市北区,東大成町１丁目６１番地１,,11,102,3310814,,,,,,,2025-06-11,1,,,,,ペガサス,0
1804,7040001139100,新規,0,2025-06-11,2025-06-11,株式会社エムコレクト,,株式会社,千葉県,市川市,宮久保６丁目１８番１８号,,12,203,2720822,,,,,,,2025-06-11,1,,,,,エムコレクト,0
1805,7040001139174,新規,0,2025-06-11,2025-06-11,株式会社ＺＲＣ,,株式会社,千葉県,千葉市中央区,中央３丁目１１－１１ニュー豊田ビル３ＦＣ,,12,101,2600013,,,,,,,2025-06-11,1,,,,,ゼットアールシー,0
1806,7040001139199,新規,0,2025-06-11,2025-06-11,株式会社ＲＹＵＪＩＮ,,株式会社,千葉県,千葉市稲毛区,園生町１３４０番地１ザ・クイーンズガーデン稲毛１３０２,,12,103,2630051,,,,,,,2025-06-11,1,,,,,リュウジン,0
1807,7040003027765,新規,0,2025-06-11,2025-06-11,アクアスタイル合同会社,,合同会社,千葉県,野田市,宮崎１３４番地,,12,208,2780005,,,,,,,2025-06-11,1,,,,,アクアスタイル,0
1813,7050001056765,新規,0,2025-06-11,2025-06-11,日興土建株式会社,,株式会社,茨城県,坂東市,みどり町１６番１９号１０３,,08,228,3060637,,,,,,,2025-06-11,1,,,,,ニッコウドケン,0
1814,7050001056798,新規,0,2025-06-11,2025-06-11,株式会社サンテック,,株式会社,茨城県,神栖市,神栖３丁目１３番８－１０１号,,08,232,3140143,,,,,,,2025-06-11,1,,,,,サンテック,0
1816,7060001038283,新規,0,2025-06-11,2025-06-11,株式会社サンノー,,株式会社,栃木県,足利市,山下町２３６８番地,,09,202,3260846,,,,,,,2025-06-11,1,,,,,サンノー,0
1829,7100003008222,新規,0,2025-06-11,2025-06-11,Ｓｔｒｉｃｔｌｙ　Ｂｕｓｉｎｅｓｓ合同会社,,合同会社,長野県,北安曇郡白馬村,大字神城２５４７６－１２,,20,485,3999211,,,,,,,2025-06-11,1,,,,,ストリクトリービジネス,0
1837,7110003005788,新規,0,2025-06-11,2025-06-11,合同会社セブンスフィールド,,合同会社,新潟県,新潟市中央区,古町通り７番町１００５－３,,15,103,9500000,,,,,,,2025-06-11,1,,,,,セブンスフィールド,0
1848,7120001276380,新規,0,2025-06-11,2025-06-11,東辰通商株式会社,,株式会社,大阪府,大阪市西成区,天下茶屋北１丁目６番５－２０１号,,27,122,5570003,,,,,,,2025-06-11,1,,,,,トウシンツウショウ,0
1849,7120001276703,新規,0,2025-06-11,2025-06-11,シャイン株式会社,,株式会社,大阪府,大阪市東淀川区,豊新２丁目１１－２４－１０１,,27,114,5330014,,,,,,,2025-06-11,1,,,,,シャイン,0
1850,7120001276728,新規,0,2025-06-11,2025-06-11,株式会社Ａ．ｔｅｒａｓｕ,,株式会社,大阪府,大阪市北区,西天満４丁目１番２号,,27,127,5300047,,,,,,,2025-06-11,1,,,,,エーテラス,0
1851,7120001276744,新規,0,2025-06-11,2025-06-11,株式会社ｔｒｉｇｇｅｒ,,株式会社,大阪府,大阪市西淀川区,御幣島５丁目９番１６－９０７号,,27,113,5550012,,,,,,,2025-06-11,1,,,,,トリガー,0
1852,7120001276777,新規,0,2025-06-11,2025-06-11,株式会社Ｌａｕｇｈ,,株式会社,大阪府,大阪市淀川区,十三本町３丁目７番４６号,,27,123,5320024,,,,,,,2025-06-11,1,,,,,ラフ,0
1853,7120001276819,新規,0,2025-06-11,2025-06-11,株式会社アスリートキャリア,,株式会社,大阪府,大阪市中央区,南本町２丁目３‐１２,,27,128,5410054,,,,,,,2025-06-11,1,,,,,アスリートキャリア,0
1855,7120003029712,新規,0,2025-06-11,2025-06-11,海越聯貿合同会社,,合同会社,大阪府,大阪市西成区,萩之茶屋２丁目６番４号ニューかめや１５６号室,,27,122,5570004,,,,,,,2025-06-11,1,,,,,カイエツレンボウ,0
1856,7120003029729,新規,0,2025-06-11,2025-06-11,合同会社江戸堀,,合同会社,大阪府,大阪市西区,江戸堀２丁目１番１号江戸堀センタービル９階,,27,106,5500002,,,,,,,2025-06-11,1,,,,,エドボリ,0
1857,7120003029737,新規,0,2025-06-11,2025-06-11,ＡＬＬＵＲＥ　Ｓｅｃｏｎｄ合同会社,,合同会社,大阪府,大阪市住之江区,西住之江１丁目４番３－９０７号,,27,125,5590005,,,,,,,2025-06-11,1,,,,,アリュールセカンド,0
1858,7120101071863,新規,0,2025-06-11,2025-06-11,幸南みらい株式会社,,株式会社,大阪府,松原市,三宅西５丁目７５１番地,,27,217,5800045,,,,,,,2025-06-11,1,,,,,コウナンミライ,0
1860,7120901051040,新規,0,2025-06-11,2025-06-11,株式会社うめぎん,,株式会社,大阪府,高槻市,塚原４丁目４６番１－４０３号,,27,207,5691046,,,,,,,2025-06-11,1,,,,,ウメギン,0
1862,7122001039338,新規,0,2025-06-11,2025-06-11,Ｋ’ｓ　Ｔｒｕｎｋ株式会社,,株式会社,大阪府,八尾市,久宝寺６丁目２番４号,,27,212,5810072,,,,,,,2025-06-11,1,,,,,ケーズトランク,0
1865,7130001079849,新規,0,2025-06-11,2025-06-11,株式会社ゼルテック,,株式会社,京都府,京都市山科区,西野山中鳥井町１３２番地１２,,26,110,6078306,,,,,,,2025-06-11,1,,,,,ゼルテック,0
1866,7130005017383,新規,0,2025-06-11,2025-06-11,一般社団法人ｎｉｎａｒｕ,,その他の設立登記法人,京都府,舞鶴市,字伊佐津５４番地１,,26,202,6240816,,,,,,,2025-06-11,1,,,,,ニナル,0
1875,7140001138827,新規,0,2025-06-11,2025-06-11,株式会社Ｅ‐アクト,,株式会社,兵庫県,尼崎市,神崎町４５番６号,,28,202,6610964,,,,,,,2025-06-11,1,,,,,イーアクト,0
1876,7140001138851,新規,0,2025-06-11,2025-06-11,株式会社ＹＯＳＵＫＥ　ＰＥＲＳＯＬ,,株式会社,兵庫県,芦屋市,東山町１５番１２号Ｂ１０２,,28,206,6590091,,,,,,,2025-06-11,1,,,,,ヨウスケパーソル,0
1877,7140001138901,新規,0,2025-06-11,2025-06-11,株式会社Ｍｉｒｅｌａ,,株式会社,兵庫県,姫路市,大津区恵美酒町１丁目１０８番地２,,28,201,6711136,,,,,,,2025-06-11,1,,,,,ミレラ,0
1885,7150001028184,新規,0,2025-06-11,2025-06-11,株式会社紀翔園,,株式会社,奈良県,橿原市,醍醐町２６４番地の１,,29,205,6340072,,,,,,,2025-06-11,1,,,,,キショウエン,0
1893,7180001167070,新規,0,2025-06-11,2025-06-11,株式会社ベルス総合建設,,株式会社,愛知県,名古屋市中川区,馬手町２丁目１１１－１,,23,110,4540845,,,,,,,2025-06-11,1,,,,,ベルスソウゴウケンセツ,0
1894,7180001167203,新規,0,2025-06-11,2025-06-11,株式会社山義,,株式会社,愛知県,愛西市,日置町本郷１２４５番地,,23,232,4960906,,,,,,,2025-06-11,1,,,,,ヤマヨシ,0
1895,7180001167260,新規,0,2025-06-11,2025-06-11,Ｎｉｔｅｒｒａ電力株式会社,,株式会社,愛知県,小牧市,大字岩崎２８０８番地,,23,219,4850011,,,,,,,2025-06-11,1,,,,,ニテラデンリョク,0
1900,7180003028601,新規,0,2025-06-11,2025-06-11,合同会社めぐろう,,合同会社,愛知県,名古屋市北区,大曽根１丁目１７番３号,,23,103,4620825,,,,,,,2025-06-11,1,,,,,メグロウ,0
1903,7180301039894,新規,0,2025-06-11,2025-06-11,株式会社Ｅｎｂｌｏｓｓｏｍ　Ｉｎｔｅｒｎａｔｉｏｎａｌ．,,株式会社,愛知県,豊田市,緑ケ丘５丁目１１番地,,23,211,4710838,,,,,,,2025-06-11,1,,,,,エンブロッサムインターナショナル,0
1904,7180301039903,新規,0,2025-06-11,2025-06-11,株式会社ＫＴＣ,,株式会社,愛知県,岡崎市,緑丘１丁目３１番地２,,23,202,4440806,,,,,,,2025-06-11,1,,,,,ケイティーシー,0
1906,7180303006604,新規,0,2025-06-11,2025-06-11,合同会社くすりのイトー,,合同会社,愛知県,知立市,南新地１丁目８番地６,,23,225,4720053,,,,,,,2025-06-11,1,,,,,クスリノイトー,0
1908,7190001032298,新規,0,2025-06-11,2025-06-11,株式会社イーグルファーム,,株式会社,三重県,津市,高野尾町１８９７番地６,,24,201,5142221,,,,,,,2025-06-11,1,,,,,イーグルファーム,0
1910,7200001043888,新規,0,2025-06-11,2025-06-11,富士興業株式会社,,株式会社,岐阜県,大垣市,上石津町細野１０５８番地１,,21,202,5031634,,,,,,,2025-06-11,1,,,,,フジコウギョウ,0
1933,7290001110267,新規,0,2025-06-11,2025-06-11,株式会社中村瓦工事,,株式会社,福岡県,久留米市,城島町江島４４３番地１,,40,203,8300216,,,,,,,2025-06-11,1,,,,,ナカムラカワラコウジ,0
1934,7290001110317,新規,0,2025-06-11,2025-06-11,株式会社トーキン,,株式会社,福岡県,古賀市,天神１丁目１２番２５号,,40,223,8113101,,,,,,,2025-06-11,1,,,,,トーキン,0
1935,7290001110390,新規,0,2025-06-11,2025-06-11,株式会社キョウエイ,,株式会社,福岡県,糸島市,井原２０６２－５,,40,230,8191582,,,,,,,2025-06-11,1,,,,,キョウエイ,0
1940,7290801031621,新規,0,2025-06-11,2025-06-11,株式会社やまびこ,,株式会社,福岡県,北九州市門司区,本町１番２１号,,40,101,8010834,,,,,,,2025-06-11,1,,,,,ヤマビコ,0
1941,7290803005078,新規,0,2025-06-11,2025-06-11,合同会社ＭＫＧ,,合同会社,福岡県,北九州市八幡西区,永犬丸東町３丁目６番１３号,,40,109,8070842,,,,,,,2025-06-11,1,,,,,エムケージー,0
1943,7310001019646,新規,0,2025-06-11,2025-06-11,株式会社ＬＯＬＯ,,株式会社,長崎県,東彼杵郡波佐見町,宿郷４９９番地,,42,323,8593715,,,,,,,2025-06-11,1,,,,,ロロ,0
1946,7320003004694,新規,0,2025-06-11,2025-06-11,合同会社ミライＮＥＸＴ,,合同会社,大分県,大分市,東大道２丁目４番５－１４０９号,,44,201,8700823,,,,,,,2025-06-11,1,,,,,ミライネクスト,0
1958,7370001052699,新規,0,2025-06-11,2025-06-11,プラストガードセキュリティ株式会社,,株式会社,宮城県,仙台市泉区,館１丁目１７番地の１４,,04,105,9813214,,,,,,,2025-06-11,1,,,,,プラストガードセキュリティ,0
1961,7370005010975,新規,0,2025-06-11,2025-06-11,医療法人プラスティ,,その他の設立登記法人,宮城県,仙台市青葉区,中央３丁目１番３号ａｕｎｅ仙台２Ｆ,,04,101,9800021,,,,,,,2025-06-11,1,,,,,プラスティ,0
1964,7380001035380,新規,0,2025-06-11,2025-06-11,株式会社ＴＥＲＡＳ,,株式会社,福島県,須賀川市,山寺町５５３－２０２,,07,207,9620062,,,,,,,2025-06-11,1,,,,,テラス,0
1967,7390001018013,新規,0,2025-06-11,2025-06-11,株式会社Ｒａｚａ　Ｃｏｒｐｏｒａｔｉｏｎ,,株式会社,山形県,東田川郡庄内町,廻館字下川前１２３番地４,,06,428,9997715,,,,,,,2025-06-11,1,,,,,ラザコーポレーション,0
1970,7400003003481,新規,0,2025-06-11,2025-06-11,ＭＯ技研合同会社,,合同会社,岩手県,一関市,大町６番４５号,,03,209,0210881,,,,,,,2025-06-11,1,,,,,エムオーギケン,0
1977,7460003001059,新規,0,2025-06-11,2025-06-11,合同会社宝海産,,合同会社,北海道,釧路郡釧路町,遠矢南３丁目１４番地,,01,661,0882156,,,,,,,2025-06-11,1,,,,,タカラカイサン,0
1984,7700150042178,新規,0,2025-06-11,2015-10-09,東海税協広栄会,,その他,愛知県,名古屋市中村区,名駅南２丁目１４－１９,,23,105,4500003,,,,,,,2015-10-09,1,,,,,トウカイゼイキヨウコウエイカイ,0
1994,8010001255386,新規,0,2025-06-11,2025-06-11,株式会社ＣＨＡＲＭＺＯＮＥ　ＪＡＰＡＮ　Ｉｎｃ．,,株式会社,東京都,中央区,銀座１丁目１２番４号Ｎ＆ＥＢＬＤ．６Ｆ,,13,102,1040061,,,,,,,2025-06-11,1,,,,,チャームゾーンジャパンインク,0
1995,8010001255799,新規,0,2025-06-11,2025-06-11,Ｗｈｉｔｅ　Ｗａｖｅ株式会社,,株式会社,東京都,中央区,銀座１丁目１３－６ホワイト銀座ビル１Ｆ,,13,102,1040061,,,,,,,2025-06-11,1,,,,,ホワイトウェーブ,0
1996,8010001255824,新規,0,2025-06-11,2025-06-11,株式会社Ｇｒａｖｉｔｙ　Ｗｏｒｋｓ,,株式会社,東京都,千代田区,神田和泉町１－２－５昭和ビル２Ｆ－Ｂ,,13,101,1010024,,,,,,,2025-06-11,1,,,,,グラビティワークス,0
1997,8010001255832,新規,0,2025-06-11,2025-06-11,株式会社ＨＡＧＩ,,株式会社,東京都,千代田区,神田三崎町２丁目１６番８号,,13,101,1010061,,,,,,,2025-06-11,1,,,,,ハギ,0
1998,8010001255840,新規,0,2025-06-11,2025-06-11,株式会社ＳｕｎＦｌｏｏｒ　Ｒｅａｌｔｙ,,株式会社,東京都,中央区,八丁堀４丁目１０番２号,,13,102,1040032,,,,,,,2025-06-11,1,,,,,サンフロアリアルティ,0
1999,8010001255898,新規,0,2025-06-11,2025-06-11,株式会社ＭＨ,,株式会社,東京都,千代田区,大手町１丁目１番１号,,13,101,1000004,,,,,,,2025-06-11,1,,,,,エムエイチ,0
2001,8010003047625,新規,0,2025-06-11,2025-06-11,合同会社ＡＦ企画,,合同会社,東京都,千代田区,神田須田町１丁目７番８号ＶＯＲＴ秋葉原ＩＶ２Ｆ,00139539,13,101,1010041,,,,,,,2025-06-11,1,,,,,エーエフキカク,0
2002,8010003047633,新規,0,2025-06-11,2025-06-11,シノノメ合同会社,,合同会社,東京都,中央区,銀座１丁目２２番１１号銀座大竹ビジデンス２Ｆ,,13,102,1040061,,,,,,,2025-06-11,1,,,,,シノノメ,0
2003,8010003047658,新規,0,2025-06-11,2025-06-11,合同会社ＦｏｏｄＥｙｅ,,合同会社,東京都,中央区,銀座１丁目１２番４号Ｎ＆ＥＢＬＤ６Ｆ,,13,102,1040061,,,,,,,2025-06-11,1,,,,,フードアイ,0
2006,8010005040173,新規,0,2025-06-11,2025-06-11,一般社団法人ＳＴＡＹ６Ｄｕｅｘ,,その他の設立登記法人,東京都,中央区,京橋２丁目１２番６号ＡＯＪ税理士法人内,,13,102,1040031,,,,,,,2025-06-11,1,,,,,ステイシックスドュー,0
2007,8010101016721,新規,0,2025-06-11,2025-06-11,株式会社スタジオトーン,,株式会社,東京都,八王子市,大横町３番６号Ｃｏｃｏａ３０１号,,13,201,1920062,,,,,,,2025-06-11,1,,,,,スタジオトーン,0
2012,8010401190910,新規,0,2025-06-11,2025-06-11,株式会社アルノバ,,株式会社,東京都,港区,北青山３丁目６番７号,,13,103,1070061,,,,,,,2025-06-11,1,,,,,アルノバ,0
2013,8010401190919,新規,0,2025-06-11,2025-06-11,株式会社ＪＡＰＡＮ　ＢＥＡＵＴＹ総合研究所,,株式会社,東京都,港区,新橋６丁目９－４新橋六丁目ビル４階,,13,103,1050004,,,,,,,2025-06-11,1,,,,,ジャパンビューティソウゴウケンキュウジョ,0
2014,8010401191000,新規,0,2025-06-11,2025-06-11,株式会社日本防熱,,株式会社,東京都,港区,虎ノ門３丁目７番２０－６０１号,,13,103,1050001,,,,,,,2025-06-11,1,,,,,ニッポンボウネツ,0
2015,8010401191017,新規,0,2025-06-11,2025-06-11,Ｅｍｂｅｒ株式会社,,株式会社,東京都,港区,南青山３丁目１番３６号青山丸竹ビル６Ｆ,,13,103,1070062,,,,,,,2025-06-11,1,,,,,エンバー,0
2023,8010403035320,新規,0,2025-06-11,2025-06-11,合同会社ＥＫ　ＰＲＯＪＥＣＴ,,合同会社,東京都,港区,北青山１丁目３－３三橋ビル３階,,13,103,1070061,,,,,,,2025-06-11,1,,,,,イーケープロジェクト,0
2024,8010405024486,新規,0,2025-06-11,2025-06-11,福島二本松蓄電所一般社団法人,,その他の設立登記法人,東京都,港区,虎ノ門５丁目３番２０号株式会社アカウンティング・マネジメント・サービス内,,13,103,1050001,,,,,,,2025-06-11,1,,,,,フクシマニホンマツチクデンショ,0
2031,8010601067446,新規,0,2025-06-11,2025-06-11,オーシャンセレクト株式会社,,株式会社,東京都,江東区,潮見１丁目２番１６－５０６号,,13,108,1350052,,,,,,,2025-06-11,1,,,,,オーシャンセレクト,0
2033,8010701047752,新規,0,2025-06-11,2025-06-11,株式会社クリアインベストメント,,株式会社,東京都,品川区,西五反田８丁目３番９号,,13,109,1410031,,,,,,,2025-06-11,1,,,,,クリアインベストメント,0
2034,8010701047810,新規,0,2025-06-11,2025-06-11,株式会社ファインド＆グロウ,,株式会社,東京都,品川区,戸越５丁目４番１８号,,13,109,1420041,,,,,,,2025-06-11,1,,,,,ファインドアンドグロウ,0
2039,8010901057535,新規,0,2025-06-11,2025-06-11,株式会社ｔｏｄｏｒｏｋｉＫＣ,,株式会社,東京都,世田谷区,等々力２丁目３２番１１号ＰｒｉｍｒｏｓｅＭＯＲＩＴＡ３階,,13,112,1580082,,,,,,,2025-06-11,1,,,,,トドロキケーシー,0
2044,8011003021710,新規,0,2025-06-11,2025-06-11,ＧＭグループジャパン合同会社,,合同会社,東京都,渋谷区,桜丘町１５番１４号フジビル４０－７階,,13,113,1500031,,,,,,,2025-06-11,1,,,,,ジーエムグループジャパン,0
2045,8011005011065,新規,0,2025-06-11,2025-06-11,一般社団法人日本カート協会,,その他の設立登記法人,東京都,目黒区,下目黒１丁目１番１４号コノトラビル７階,,13,110,1530064,,,,,,,2025-06-11,1,,,,,ニホンカートキョウカイ,0
2051,8011201026420,新規,0,2025-06-11,2025-06-11,ＤＯＮＴＡ株式会社,,株式会社,東京都,中野区,中野５丁目５２番１５中野ブロードウェイ２階２６７号,,13,114,1640001,,,,,,,2025-06-11,1,,,,,ドンタ,0
2053,8011503006541,新規,0,2025-06-11,2025-06-11,合同会社ＡＲＥＭ,,合同会社,東京都,荒川区,西尾久１丁目２３－８,,13,118,1160011,,,,,,,2025-06-11,1,,,,,アレム,0
2058,8011801046289,新規,0,2025-06-11,2025-06-11,株式会社ＳＯＨＩ,,株式会社,東京都,葛飾区,四つ木５丁目２４番９号,,13,122,1240011,,,,,,,2025-06-11,1,,,,,ソーヒ,0
2060,8011803006902,新規,0,2025-06-11,2025-06-11,合同会社丸本エンターテイメント,,合同会社,東京都,葛飾区,亀有３丁目２０番３号１０３号室,,13,122,1250061,,,,,,,2025-06-11,1,,,,,マルモトエンターテイメント,0
2062,8012401043214,新規,0,2025-06-11,2025-06-11,株式会社Ｒｉｃｏ,,株式会社,東京都,府中市,是政２丁目２８番地の６１,,13,206,1830014,,,,,,,2025-06-11,1,,,,,リコ,0
2065,8012403007167,新規,0,2025-06-11,2025-06-11,合同会社ハタラボ,,合同会社,東京都,府中市,本宿町２丁目１６番地の１６,,13,206,1830032,,,,,,,2025-06-11,1,,,,,ハタラボ,0
2067,8013301054425,新規,0,2025-06-11,2025-06-11,株式会社ＫＩＫＫＡＫＥ,,株式会社,東京都,豊島区,雑司が谷１丁目３８番７号ジュネス雑司が谷２０１号,,13,116,1710032,,,,,,,2025-06-11,1,,,,,キッカケ,0
2071,8020001163332,新規,0,2025-06-11,2025-06-11,小谷野建設株式会社,,株式会社,神奈川県,横浜市南区,中村町４丁目２７３－４２,,14,105,2320033,,,,,,,2025-06-11,1,,,,,コヤノケンセツ,0
2073,8020003028657,新規,0,2025-06-11,2025-06-11,ＫａｎｅｘＪｐ合同会社,,合同会社,神奈川県,横浜市青葉区,鴨志田町５６９番地１グリーンヒル鴨志田西団地２５棟４０３号,,14,117,2270033,,,,,,,2025-06-11,1,,,,,カネックスジェイピー,0
2075,8020005016882,新規,0,2025-06-11,2025-06-11,一般社団法人Ｎａｔｕｒａｌ　Ｍｅｄｉｃａｌ,,その他の設立登記法人,神奈川県,横浜市中区,野毛町１丁目１３番地５ＮＯＧＥＢＲＩＣＫ４階,,14,104,2310064,,,,,,,2025-06-11,1,,,,,ナチュラルメディカル,0
2078,8021001085450,新規,0,2025-06-11,2025-06-11,ＴＡＫＥ　ＵＰ株式会社,,株式会社,神奈川県,高座郡寒川町,一之宮３丁目２４番８号,,14,321,2530111,,,,,,,2025-06-11,1,,,,,テイクアップ,0
2079,8021001085483,新規,0,2025-06-11,2025-06-11,株式会社安井商会,,株式会社,神奈川県,鎌倉市,雪ノ下１丁目１番地４０号,,14,204,2480005,,,,,,,2025-06-11,1,,,,,ヤスイショウカイ,0
2080,8021001085491,新規,0,2025-06-11,2025-06-11,株式会社ＮＤ２Ｓｏｌｕｔｉｏｎ,,株式会社,神奈川県,横須賀市,浦賀５丁目２６番６号,,14,201,2390822,,,,,,,2025-06-11,1,,,,,エヌディーツーソリューション,0
2087,8021003016131,新規,0,2025-06-11,2025-06-11,合同会社プリマヴェーラ,,合同会社,神奈川県,鎌倉市,由比ガ浜２丁目２０番１３号,,14,204,2480014,,,,,,,2025-06-11,1,,,,,プリマヴェーラ,0
2094,8030001167035,新規,0,2025-06-11,2025-06-11,株式会社ＦＩＳＨＭＡＮ　ＫＩＴＣＨＥＮ,,株式会社,埼玉県,さいたま市大宮区,下町１丁目３８番地,,11,103,3300844,,,,,,,2025-06-11,1,,,,,フィッシュマンキッチン,0
2097,8030003026949,新規,0,2025-06-11,2025-06-11,合同会社大平屋,,合同会社,埼玉県,加須市,小野袋６７３番地,,11,210,3491202,,,,,,,2025-06-11,1,,,,,オオヒラヤ,0
2098,8030003026957,新規,0,2025-06-11,2025-06-11,合同会社Ｔｕｒｎ‐Ｏｎ,,合同会社,埼玉県,所沢市,大字本郷８５５－１３,,11,208,3590022,,,,,,,2025-06-11,1,,,,,ターンオン,0
2099,8040001139090,新規,0,2025-06-11,2025-06-11,株式会社ネクストライズ,,株式会社,千葉県,八街市,八街ろ１８３番地２２４,,12,230,2891144,,,,,,,2025-06-11,1,,,,,ネクストライズ,0
2100,8040001139108,新規,0,2025-06-11,2025-06-11,高橋建設株式会社,00139529,株式会社,千葉県,佐倉市,中志津７丁目３７５番地２０,,12,212,2850843,,,,,,,2025-06-11,1,,,,,タカハシケンセツ,0
2101,8040001139157,新規,0,2025-06-11,2025-06-11,未来創研株式会社,,株式会社,千葉県,船橋市,習志野台２丁目７２番１４号東京日食ビル１０５号室,,12,204,2740063,,,,,,,2025-06-11,1,,,,,ミライソウケン,0
2102,8040001139181,新規,0,2025-06-11,2025-06-11,株式会社ＭＯＴＯＭ,,株式会社,千葉県,柏市,金山７７０番地,,12,217,2701455,,,,,,,2025-06-11,1,,,,,モトム,0
2106,8040003027764,新規,0,2025-06-11,2025-06-11,合同会社ＨＡＨ,,合同会社,千葉県,松戸市,東松戸２丁目２番地の２１,,12,207,2702225,,,,,,,2025-06-11,1,,,,,エイチエーエイチ,0
2107,8040003027780,新規,0,2025-06-11,2025-06-11,合同会社ルミナテクト,,合同会社,千葉県,流山市,おおたかの森西２丁目６－１６クラインヴァルトＩ－１０２,00139530,12,220,2700128,,,,,,,2025-06-11,1,,,,,ルミナテクト,0
2124,8110003005787,新規,0,2025-06-11,2025-06-11,合同会社ｍａｃｈｉａｉ,,合同会社,新潟県,新潟市南区,大通黄金３丁目１番１号,,15,106,9501203,,,,,,,2025-06-11,1,,,,,マチアイ,0
2134,8120001276272,新規,0,2025-06-11,2025-06-11,株式会社ホワイトウェーブ,,株式会社,大阪府,寝屋川市,上神田２丁目３５番１－１号,,27,215,5720052,,,,,,,2025-06-11,1,,,,,ホワイトウェーブ,0
2135,8120001276537,新規,0,2025-06-11,2025-06-11,学校会計支援株式会社,,株式会社,大阪府,大阪市中央区,道修町４丁目１番１号２Ｆ,,27,128,5410045,,,,,,,2025-06-11,1,,,,,ガッコウカイケイシエン,0
2136,8120001276685,新規,0,2025-06-11,2025-06-11,株式会社ＮＭＤホールディングス,,株式会社,大阪府,守口市,西郷通２丁目６番５号,,27,209,5700034,,,,,,,2025-06-11,1,,,,,エヌエムディーホールディングス,0
2137,8120001276702,新規,0,2025-06-11,2025-06-11,株式会社中村佳甫建築設計事務所,,株式会社,大阪府,大阪市天王寺区,四天王寺２丁目５番１１号棲’Ｓ東門１０２号,,27,109,5430051,,,,,,,2025-06-11,1,,,,,ナカムラカイホケンチクセッケイジムショ,0
2138,8120001276735,新規,0,2025-06-11,2025-06-11,株式会社Ｈａｋｕ,,株式会社,大阪府,大阪市港区,池島２丁目３番６号,,27,107,5520015,,,,,,,2025-06-11,1,,,,,ハク,0
2139,8120001276743,新規,0,2025-06-11,2025-06-11,ＬＯＧＥＳＫＩ製薬株式会社,,株式会社,大阪府,大阪市北区,梅田１丁目１－３大阪駅前第３ビル２９階１－１－１号室,,27,127,5300001,,,,,,,2025-06-11,1,,,,,ロジスキセイヤク,0
2140,8120001276776,新規,0,2025-06-11,2025-06-11,サンライズ株式会社,,株式会社,大阪府,大阪市西成区,北津守２丁目２番１３－２０１号室,,27,122,5570061,,,,,,,2025-06-11,1,,,,,サンライズ,0
2141,8120001276784,新規,0,2025-06-11,2025-06-11,株式会社ＣａｒＧａｔｅ,,株式会社,大阪府,大阪市阿倍野区,阿倍野筋１丁目１－４３あべのハルカス３１階,,27,119,5450052,,,,,,,2025-06-11,1,,,,,カーゲート,0
2144,8120003029661,新規,0,2025-06-11,2025-06-11,合同会社Ｍａｒｉａ３１７,,合同会社,大阪府,大阪市城東区,東中浜４丁目９番１７号パークサイド２２－３０５,,27,118,5360023,,,,,,,2025-06-11,1,,,,,マリアサンイチナナ,0
2145,8120003029711,新規,0,2025-06-11,2025-06-11,ＮＩＫＫＡ合同会社,,合同会社,大阪府,大阪市西成区,萩之茶屋２丁目６番４号ニューかめや１５７号室,,27,122,5570004,,,,,,,2025-06-11,1,,,,,ニッカ,0
2146,8120003029728,新規,0,2025-06-11,2025-06-11,合同会社エムセブン,,合同会社,大阪府,大阪市中央区,東心斎橋２丁目８番１９号サンプラザ１２８畳屋町２階２号,,27,128,5420083,,,,,,,2025-06-11,1,,,,,エムセブン,0
2147,8120003029736,新規,0,2025-06-11,2025-06-11,合同会社もも太郎,,合同会社,大阪府,枚方市,養父丘２丁目２１番１１号,,27,210,5731134,,,,,,,2025-06-11,1,,,,,モモタロウ,0
2148,8120005024974,新規,0,2025-06-11,2025-06-11,税理士法人Ｗ．Ｍ,,その他の設立登記法人,大阪府,大阪市中央区,平野町１丁目８番１３号平野町八千代ビル,,27,128,5410046,,,,,,,2025-06-11,1,,,,,ダブリュエム,0
2149,8120101071862,新規,0,2025-06-11,2025-06-11,株式会社ａｊｉｓａｉ　ｇａｒｄｅｎ,,株式会社,大阪府,堺市中区,深阪１丁１３号８３番,,27,142,5998253,,,,,,,2025-06-11,1,,,,,アジサイガーデン,0
2150,8120101071870,新規,0,2025-06-11,2025-06-11,株式会社武蔵,,株式会社,大阪府,河内長野市,三日市町３２６番地の１,,27,216,5860048,,,,,,,2025-06-11,1,,,,,ムサシ,0
2154,8120901051023,新規,0,2025-06-11,2025-06-11,Ｓｕｎｓｅｔ　Ｉｎｃ．株式会社,,株式会社,大阪府,豊中市,上新田４丁目１６番１－７１４号,,27,203,5600085,,,,,,,2025-06-11,1,,,,,サンセットインク,0
2155,8122001039337,新規,0,2025-06-11,2025-06-11,Ｅａｒｔｈ株式会社,,株式会社,大阪府,東大阪市,日下町７丁目５－９,,27,227,5798003,,,,,,,2025-06-11,1,,,,,アース,0
2162,8130005017382,新規,0,2025-06-11,2025-06-11,一般社団法人Ｇｌｏｂａｌ　ＨＲ　Ｋｙｏｔｏ‐ｋａｉ,,その他の設立登記法人,京都府,京都市下京区,小稲荷町８５番地２Ｇｒａｎｄ－Ｋ京都駅前ビル２０１,,26,106,6008208,,,,,,,2025-06-11,1,,,,,グローバルエイチアールキョウトカイ,0
2168,8140001138875,新規,0,2025-06-11,2025-06-11,Ｘ　Ｍａｒｋｓ株式会社,,株式会社,兵庫県,芦屋市,船戸町５番２６号,,28,206,6590093,,,,,,,2025-06-11,1,,,,,エックスマークス,0
2178,8180001167185,新規,0,2025-06-11,2025-06-11,翔明株式会社,,株式会社,愛知県,名古屋市中川区,供米田３丁目７０６番地,,23,110,4540984,,,,,,,2025-06-11,1,,,,,ショウメイ,0
2179,8180001167243,新規,0,2025-06-11,2025-06-11,株式会社ファースト・ステップ,,株式会社,愛知県,名古屋市西区,浄心１丁目１番６,,23,104,4510061,,,,,,,2025-06-11,1,,,,,ファーストステップ,0
2180,8180001167268,新規,0,2025-06-11,2025-06-11,ＧｌｏｔｅｃｈＸ　ＪＡＰＡＮ株式会社,,株式会社,愛知県,名古屋市中村区,名駅４丁目２４－１６広小路ガーデンアベニュー４階,,23,105,4500002,,,,,,,2025-06-11,1,,,,,グローテックエックスジャパン,0
2188,8180303006603,新規,0,2025-06-11,2025-06-11,合同会社Ｆｏｏｄ　Ｄｉｒｅｃｔｉｏｎ,,合同会社,愛知県,安城市,三河安城南町１丁目１５番地８サンテラス三河安城６Ｆ,,23,212,4460058,,,,,,,2025-06-11,1,,,,,フードディレクション,0
2190,8200001043887,新規,0,2025-06-11,2025-06-11,株式会社一軸,,株式会社,岐阜県,下呂市,萩原町奥田洞１０６６番地１,,21,220,5092519,,,,,,,2025-06-11,1,,,,,イチジク,0
2192,8200003006867,新規,0,2025-06-11,2025-06-11,合同会社Ｔａｌａｒｉａ,,合同会社,岐阜県,大垣市,上面４丁目２２番地,,21,202,5030817,,,,,,,2025-06-11,1,,,,,タラリア,0
2193,8210001020209,新規,0,2025-06-11,2025-06-11,ＭｏＷｏキッチン株式会社,,株式会社,福井県,大飯郡高浜町,事代第１号４５番地２,,18,481,9192221,,,,,,,2025-06-11,1,,,,,モヲキッチン,0
2204,8240001065069,新規,0,2025-06-11,2025-06-11,陽結工業株式会社,,株式会社,広島県,広島市安佐南区,山本４丁目８番７－１０２号,,34,105,7310137,,,,,,,2025-06-11,1,,,,,ヒユウコウギョウ,0
2206,8250001021178,新規,0,2025-06-11,2025-06-11,株式会社ＵＮＩＴＲＩＰ,,株式会社,山口県,下関市,彦島塩浜町１丁目１６番１９号,,35,201,7500086,,,,,,,2025-06-11,1,,,,,ユニトリップ,0
2208,8250005009013,新規,0,2025-06-11,2025-06-11,一般社団法人日本液浸コンソーシアム,,その他の設立登記法人,山口県,山陽小野田市,大学通１丁目１番１号,,35,216,7560884,,,,,,,2025-06-11,1,,,,,ニホンエキシンコンソーシアム,0
2212,8290001110365,新規,0,2025-06-11,2025-06-11,株式会社ＵＮＩＱＵＥ,,株式会社,福岡県,福岡市南区,曰佐４丁目１８番３９－１０１号リリーガーデン,,40,134,8111313,,,,,,,2025-06-11,1,,,,,ユニーク,0
2214,8290003016973,新規,0,2025-06-11,2025-06-11,ＴＮＮフーズ合同会社,,合同会社,福岡県,福岡市東区,箱崎２丁目２７番４号エクセレント箱崎１階Ａ－１号室,,40,131,8120053,,,,,,,2025-06-11,1,,,,,ティーエヌエヌフーズ,0
2215,8290801031612,新規,0,2025-06-11,2025-06-11,株式会社ＫＩＤＯ研究所,,株式会社,福岡県,北九州市八幡東区,高見２丁目５番６号,,40,108,8050016,,,,,,,2025-06-11,1,,,,,キドケンキュウショ,0
2216,8300005007250,新規,0,2025-06-11,2025-06-11,一般社団法人九州未来機構,,その他の設立登記法人,佐賀県,西松浦郡有田町,丸尾丙２６７１番地,,41,401,8440023,,,,,,,2025-06-11,1,,,,,キュウシュウミライキコウ,0
2219,8320001021105,新規,0,2025-06-11,2025-06-11,ドクターグループホールディングス株式会社,,株式会社,大分県,由布市,湯布院町塚原１２１７－４３,,44,213,8795101,,,,,,,2025-06-11,1,,,,,ドクターグループホールディングス,0
2220,8320003004685,新規,0,2025-06-11,2025-06-11,合同会社ひとひの花,,合同会社,大分県,別府市,大字南立石１０２７番地の４,,44,202,8740000,,,,,,,2025-06-11,1,,,,,ヒトヒノハナ,0
2223,8330001033306,新規,0,2025-06-11,2025-06-11,株式会社クリア,,株式会社,熊本県,熊本市中央区,水前寺４丁目７－７－４０２,,43,101,8620950,,,,,,,2025-06-11,1,,,,,クリア,0
2225,8330003011053,新規,0,2025-06-11,2025-06-11,合同会社シダーネスト,,合同会社,熊本県,熊本市東区,湖東２丁目３９番１９号,,43,102,8620909,,,,,,,2025-06-11,1,,,,,シダーネスト,0
2233,8360001035316,新規,0,2025-06-11,2025-06-11,株式会社新世界グループ,,株式会社,沖縄県,那覇市,久茂地３丁目１１番７号古謝ビル３階,,47,201,9000015,,,,,,,2025-06-11,1,,,,,シンセカイグループ,0
2234,8360001035324,新規,0,2025-06-11,2025-06-11,株式会社フィックス,,株式会社,沖縄県,沖縄市,胡屋２丁目１５番１２号,,47,211,9040021,,,,,,,2025-06-11,1,,,,,フィックス,0
2240,8370001052698,新規,0,2025-06-11,2025-06-11,株式会社Ｌｉｎｏ’Ａ,,株式会社,宮城県,仙台市青葉区,中央２丁目１１‐１９仙南ビル４階‐Ａ,,04,101,9800021,,,,,,,2025-06-11,1,,,,,リノア,0
2245,8400003003480,新規,0,2025-06-11,2025-06-11,シュロスバーグ合同会社,,合同会社,岩手県,九戸郡軽米町,大字円子第８地割６５番地２,,03,501,0286413,,,,,,,2025-06-11,1,,,,,シュロスバーグ,0
2251,8410001014181,新規,0,2025-06-11,2025-06-11,株式会社幸和,,株式会社,秋田県,由利本荘市,西目町沼田字弁天前４０番地３６３,,05,210,0180604,,,,,,,2025-06-11,1,,,,,コウワ,0
2260,8430001094643,新規,0,2025-06-11,2025-06-11,株式会社ドッグサロンらく,,株式会社,北海道,札幌市豊平区,月寒西一条１０丁目３番２１号,,01,105,0620021,,,,,,,2025-06-11,1,,,,,ドッグサロンラク,0
2261,8430001094668,新規,0,2025-06-11,2025-06-11,株式会社ザクシス,,株式会社,北海道,札幌市中央区,北一条東１１丁目２２番地５,,01,101,0600031,,,,,,,2025-06-11,1,,,,,ザクシス,0
2263,8430005015249,新規,0,2025-06-11,2025-06-11,一般社団法人北海道終活サポートセンター,,その他の設立登記法人,北海道,札幌市白石区,北郷一条１２丁目３番３号,,01,104,0030831,,,,,,,2025-06-11,1,,,,,ホッカイドウシュウカツサポートセンター,0
2271,8700150131005,新規,0,2025-06-11,2025-06-11,スマサポ取引先持株会,,その他,東京都,中央区,日本橋３丁目６－２日本橋フロント１Ｆ,,13,102,1030027,,,,,,,2025-06-11,1,,,,,スマサポトリヒキサキモチカブカイ,0
2280,9010001255815,新規,0,2025-06-11,2025-06-11,株式会社囲碁社,,株式会社,東京都,中央区,日本橋浜町３丁目３番１－３６０９号,,13,102,1030007,,,,,,,2025-06-11,1,,,,,イゴシャ,0
2281,9010001255856,新規,0,2025-06-11,2025-06-11,ＪＰＡ第３５９号株式会社,,株式会社,東京都,千代田区,霞が関３丁目２番１号,,13,101,1000013,,,,,,,2025-06-11,1,,,,,ジェイピーエーダイサンビャクゴジュウキュウゴウ,0
2282,9010001255872,新規,0,2025-06-11,2025-06-11,株式会社ＡＢＸ,,株式会社,東京都,文京区,小石川５丁目１６番１４号高田ビル１０１,,13,105,1120002,,,,,,,2025-06-11,1,,,,,エービーエックス,0
2283,9010001255889,新規,0,2025-06-11,2025-06-11,メタルモ株式会社,,株式会社,東京都,中央区,１－１２－４Ｎ＆ＥＢＬＤ．７階,,13,102,1030000,,,,,,,2025-06-11,1,,,,,メタルモ,0
2284,9010001255906,新規,0,2025-06-11,2025-06-11,株式会社きぼうジェネティックス,,株式会社,東京都,中央区,新川１丁目７番１号,,13,102,1040033,,,,,,,2025-06-11,1,,,,,キボウジェネティックス,0
2286,9010003047640,新規,0,2025-06-11,2025-06-11,合同会社ＷＥＡＬＴＨ,,合同会社,東京都,中央区,銀座１丁目１２番４号Ｎ＆Ｅ・ＢＬＤ．６Ｆ,,13,102,1040061,,,,,,,2025-06-11,1,,,,,ウェルス,0
2287,9010003047665,新規,0,2025-06-11,2025-06-11,合同会社ＨＩＬＬＳ　Ｔ・Ｙ,,合同会社,東京都,中央区,新川２丁目７番１１－３０４号,,13,102,1040033,,,,,,,2025-06-11,1,,,,,ヒルズティワイ,0
2296,9010401190918,新規,0,2025-06-11,2025-06-11,株式会社メンバー,,株式会社,東京都,港区,北青山１丁目３－３三橋ビル３階,,13,103,1070061,,,,,,,2025-06-11,1,,,,,メンバー,0
2297,9010401190926,新規,0,2025-06-11,2025-06-11,株式会社ＧＡホールディングス,,株式会社,東京都,港区,南麻布２丁目１４番１３号,,13,103,1060047,,,,,,,2025-06-11,1,,,,,ジーエーホールディングス,0
2298,9010401190983,新規,0,2025-06-11,2025-06-11,Ａｌｔｈａｅａ　Ｐａｒｔｎｅｒｓ株式会社,,株式会社,東京都,港区,南青山３丁目１番３６号青山丸竹ビル６Ｆ,,13,103,1070062,,,,,,,2025-06-11,1,,,,,アルテアパートナーズ,0
2299,9010401191008,新規,0,2025-06-11,2025-06-11,ロカマネジメント株式会社,,株式会社,東京都,港区,虎ノ門１丁目１番２１号,,13,103,1050001,,,,,,,2025-06-11,1,,,,,ロカマネジメント,0
2300,9010401191016,新規,0,2025-06-11,2025-06-11,ＪＳＲ‐０１株式会社,,株式会社,東京都,港区,東新橋１丁目９番２号,,13,103,1050021,,,,,,,2025-06-11,1,,,,,ジェイエスアールゼロイチ,0
2305,9010403035352,新規,0,2025-06-11,2025-06-11,Ｗｉｓｈ合同会社,,合同会社,東京都,港区,高輪２丁目２１番１号ＴＨＥ・ＬＩＮＫＰＩＬＬＡＲ１（ＮＯＲＴＨ）６・７Ｆ,,13,103,1080074,,,,,,,2025-06-11,1,,,,,ウィッシュ,0
2306,9010403035360,新規,0,2025-06-11,2025-06-11,ＲＥＰＡ合同会社,,合同会社,東京都,港区,三田５丁目２番２２号－１８０５,,13,103,1080073,,,,,,,2025-06-11,1,,,,,リーパ,0
2309,9010601067305,新規,0,2025-06-11,2025-06-11,株式会社レナトス,,株式会社,東京都,江東区,亀戸６丁目３４番地５号アプレシティ亀戸２０１,,13,108,1360071,,,,,,,2025-06-11,1,,,,,レナトス,0
2310,9010601067445,新規,0,2025-06-11,2025-06-11,飛鳥地所株式会社,,株式会社,東京都,墨田区,東駒形２丁目１４－１０毛塚ハイツ２０１号室,,13,107,1300005,,,,,,,2025-06-11,1,,,,,アスカジショ,0
2316,9010701047818,新規,0,2025-06-11,2025-06-11,株式会社ペチカリンク,,株式会社,東京都,品川区,東五反田５丁目２２番１９号バースシティ東五反田４０３,,13,109,1410022,,,,,,,2025-06-11,1,,,,,ペチカリンク,0
2321,9010901057534,新規,0,2025-06-11,2025-06-11,株式会社Ｐｅｇａｌｉａ,,株式会社,東京都,世田谷区,玉川台２丁目２１番１５号フレップ２０６,,13,112,1580096,,,,,,,2025-06-11,1,,,,,ペグアリア,0
2328,9011001170285,新規,0,2025-06-11,2025-06-11,株式会社レイジファクトリー,,株式会社,東京都,目黒区,大橋２丁目２番３－８０１号フォルスコート目黒大橋,,13,110,1530044,,,,,,,2025-06-11,1,,,,,レイジファクトリー,0
2329,9011001170392,新規,0,2025-06-11,2025-06-11,株式会社ネオダイニング,,株式会社,東京都,目黒区,青葉台３丁目１番２０号,,13,110,1530042,,,,,,,2025-06-11,1,,,,,ネオダイニング,0
2332,9011005011048,新規,0,2025-06-11,2025-06-11,小谷野行政書士法人,,その他の設立登記法人,東京都,渋谷区,代々木１丁目２２番１号,,13,113,1510053,,,,,,,2025-06-11,1,,,,,コヤノ,0
2335,9011105011451,新規,0,2025-06-11,2025-06-11,一般社団法人ＩＣＡＪ,,その他の設立登記法人,東京都,新宿区,西新宿３丁目３番１３号西新宿水間ビル６階,,13,104,1600023,,,,,,,2025-06-11,1,,,,,アイシーエージェー,0
2336,9011105011468,新規,0,2025-06-11,2025-06-11,一般社団法人ＭＯＮ　ｍｅｄｉｃａｌ　ｇｒｏｕｐ,,その他の設立登記法人,東京都,新宿区,市谷八幡町１１番地１市ヶ谷八幡町ビル４階,,13,104,1620844,,,,,,,2025-06-11,1,,,,,モンメディカルグループ,0
2342,9011501032191,新規,0,2025-06-11,2025-06-11,株式会社Ｍｏａｔ,,株式会社,東京都,荒川区,西日暮里１丁目３７番２－１０７号グランシャリオ,,13,118,1160013,,,,,,,2025-06-11,1,,,,,モート,0
2345,9011801046288,新規,0,2025-06-11,2025-06-11,株式会社華まるテラス,,株式会社,東京都,葛飾区,四つ木１丁目１５番７号,,13,122,1240011,,,,,,,2025-06-11,1,,,,,ハナマルテラス,0
2346,9011801046296,新規,0,2025-06-11,2025-06-11,昇涛エンターテイメント株式会社,,株式会社,東京都,葛飾区,お花茶屋３丁目２番１４号,,13,122,1240003,,,,,,,2025-06-11,1,,,,,アサナミエンターテイメント,0
2347,9012401043213,新規,0,2025-06-11,2025-06-11,株式会社トライシーン,,株式会社,東京都,府中市,緑町２丁目２５番地の４,,13,206,1830006,,,,,,,2025-06-11,1,,,,,トライシーン,0
2350,9012803003764,新規,0,2025-06-11,2025-06-11,ＡＳＳＩＳＴ２４合同会社,,合同会社,東京都,日野市,百草９９９番地百草団地２７９－２１１,,13,212,1910033,,,,,,,2025-06-11,1,,,,,アシストトゥエンティフォー,0
2361,9013301054416,新規,0,2025-06-11,2025-06-11,株式会社Ｃｏｎｃｅｐｔ　Ｕ,,株式会社,東京都,豊島区,要町３丁目１５番３号サンセット要町１０３号,,13,116,1710043,,,,,,,2025-06-11,1,,,,,コンセプトユー,0
2362,9013301054424,新規,0,2025-06-11,2025-06-11,株式会社日本ＳＮＳ総合研究所,,株式会社,東京都,豊島区,東池袋１丁目３５番３号池袋センタービル２階,,13,116,1700013,,,,,,,2025-06-11,1,,,,,ニホンエスエヌエスソウゴウケンキュウジョ,0
2372,9021001085441,新規,0,2025-06-11,2025-06-11,ＢＩＲＤ株式会社,,株式会社,神奈川県,鎌倉市,由比ガ浜３丁目６番１２－２０５号,,14,204,2480014,,,,,,,2025-06-11,1,,,,,バード,0
2373,9021001085466,新規,0,2025-06-11,2025-06-11,株式会社エミス,,株式会社,神奈川県,横須賀市,久里浜４丁目１番１－１１０６号,,14,201,2390831,,,,,,,2025-06-11,1,,,,,エミス,0
2385,9030001167001,新規,0,2025-06-11,2025-06-11,株式会社根岸設備,,株式会社,埼玉県,大里郡寄居町,大字赤浜１０８８番地２１,,11,408,3691211,,,,,,,2025-06-11,1,,,,,ネギシセツビ,0
2386,9030001167018,新規,0,2025-06-11,2025-06-11,彩テック株式会社,,株式会社,埼玉県,戸田市,美女木４丁目１８番地の９,,11,224,3350031,,,,,,,2025-06-11,1,,,,,サイテック,0
2392,9030003026907,新規,0,2025-06-11,2025-06-11,合同会社ＳＡＮ・Ｒ,,合同会社,埼玉県,加須市,久下３丁目３５１番地８,,11,210,3470063,,,,,,,2025-06-11,1,,,,,サンアール,0
2408,9060005010352,新規,0,2025-06-11,2025-06-11,一般社団法人全国耳つぼセラピスト協会,,その他の設立登記法人,栃木県,宇都宮市,鶴田町５３２番地８,,09,201,3200851,,,,,,,2025-06-11,1,,,,,ゼンコクミミツボセラピストキョウカイ,0
2410,9070003005948,新規,0,2025-06-11,2025-06-11,合同会社Ｏｎｌｕｅ,,合同会社,群馬県,佐波郡玉村町,大字福島１６７番地６,,10,464,3701105,,,,,,,2025-06-11,1,,,,,オンリュー,0
2412,9080403005282,新規,0,2025-06-11,2025-06-11,合同会社ＣＤＩマネジメント,,合同会社,静岡県,掛川市,旭ケ丘１丁目１４番１４号,,22,213,4360062,,,,,,,2025-06-11,1,,,,,シーディーアイマネジメント,0
2424,9120001276718,新規,0,2025-06-11,2025-06-11,株式会社リンク,,株式会社,大阪府,守口市,金田町３丁目４７番１１号,,27,209,5700011,,,,,,,2025-06-11,1,,,,,リンク,0
2425,9120001276734,新規,0,2025-06-11,2025-06-11,ＷＴＣ株式会社,,株式会社,大阪府,大阪市北区,梅田１丁目２番２号大阪駅前第２ビル２階５－６号室,,27,127,5300001,,,,,,,2025-06-11,1,,,,,ダブリューティーシー,0
2426,9120001276742,新規,0,2025-06-11,2025-06-11,株式会社ＢＬＩＳＳＲＩＶＥ,,株式会社,大阪府,大阪市中央区,南船場３丁目９番６号日宝心斎橋ビル５階３号,,27,128,5420081,,,,,,,2025-06-11,1,,,,,ブリスライブ,0
2427,9120001276750,新規,0,2025-06-11,2025-06-11,株式会社ハイプレイス,,株式会社,大阪府,大阪市北区,東天満２丁目１０－３１第９田渕ビル３０４,,27,127,5300044,,,,,,,2025-06-11,1,,,,,ハイプレイス,0
2428,9120001276783,新規,0,2025-06-11,2025-06-11,開泰株式会社,,株式会社,大阪府,大阪市平野区,平野馬場１丁目５番２５－２０２号,,27,126,5470048,,,,,,,2025-06-11,1,,,,,カイタイ,0
2431,9120003029719,新規,0,2025-06-11,2025-06-11,合同会社三木眞宇須,,合同会社,大阪府,大阪市阿倍野区,松崎町４丁目５番３６号１階,,27,119,5450053,,,,,,,2025-06-11,1,,,,,ミキマウス,0
2432,9120003029727,新規,0,2025-06-11,2025-06-11,合同会社巴総研,,合同会社,大阪府,大阪市淀川区,西中島５丁目７番２５－８０５号,,27,123,5320011,,,,,,,2025-06-11,1,,,,,トモエソウケン,0
2437,9120101071829,新規,0,2025-06-11,2025-06-11,株式会社へきりゅう,,株式会社,大阪府,和泉市,はつが野１丁目２４番２号,,27,219,5941106,,,,,,,2025-06-11,1,,,,,ヘキリュウ,0
2438,9120101071878,新規,0,2025-06-11,2025-06-11,株式会社サニー,,株式会社,大阪府,堺市北区,新金岡町４丁１番１０－３１８号,,27,146,5918021,,,,,,,2025-06-11,1,,,,,サニー,0
2443,9120901050998,新規,0,2025-06-11,2025-06-11,五福住宅株式会社,,株式会社,大阪府,豊中市,千成町２丁目２番２９号,,27,203,5610829,,,,,,,2025-06-11,1,,,,,ゴフクジュウタク,0
2444,9120901051039,新規,0,2025-06-11,2025-06-11,株式会社将潤,,株式会社,大阪府,豊中市,走井２丁目２番３号,,27,203,5610891,,,,,,,2025-06-11,1,,,,,ショウジュン,0
2445,9120903005711,新規,0,2025-06-11,2025-06-11,合同会社リライ,,合同会社,大阪府,豊中市,豊南町東３丁目４－２０,,27,203,5610814,,,,,,,2025-06-11,1,,,,,リライ,0
2447,9122001039344,新規,0,2025-06-11,2025-06-11,叡智株式会社,,株式会社,大阪府,東大阪市,小若江３丁目１番２８号,,27,227,5770818,,,,,,,2025-06-11,1,,,,,エイチ,0
2452,9130001079847,新規,0,2025-06-11,2025-06-11,株式会社傑尼斯,,株式会社,京都府,京都市下京区,烏丸通松原下る五条烏丸町４０４番地９０５号,,26,106,6008418,,,,,,,2025-06-11,1,,,,,ジャニーズ,0
2453,9130001079863,新規,0,2025-06-11,2025-06-11,株式会社マルヒア,,株式会社,京都府,宇治市,槇島町吹前５０番地,,26,204,6110041,,,,,,,2025-06-11,1,,,,,マルヒア,0
2454,9130001079888,新規,0,2025-06-11,2025-06-11,株式会社ＭＭＳＳ,,株式会社,京都府,京都市中京区,西ノ京左馬寮町６番地１４,,26,104,6048491,,,,,,,2025-06-11,1,,,,,エムエムエスエス,0
2461,9140001138858,新規,0,2025-06-11,2025-06-11,株式会社ピュアラル,,株式会社,兵庫県,神戸市中央区,三宮町１丁目８番１号,,28,110,6500021,,,,,,,2025-06-11,1,,,,,ピュアラル,0
2462,9140001138899,新規,0,2025-06-11,2025-06-11,株式会社ｆｏｒ　Ａｓｓｅｔ,,株式会社,兵庫県,三木市,福井３丁目１３番２６号,,28,215,6730433,,,,,,,2025-06-11,1,,,,,フォーアセット,0
2475,9180003028599,新規,0,2025-06-11,2025-06-11,合同会社シリン,,合同会社,愛知県,名古屋市南区,鳴尾１丁目２６２番地の７,,23,112,4570066,,,,,,,2025-06-11,1,,,,,シリン,0
2476,9180003028608,新規,0,2025-06-11,2025-06-11,合同会社Ｐｅｒｆｅｔｔｏ,,合同会社,愛知県,名古屋市北区,猿投町５番地‐３０３号,,23,103,4620852,,,,,,,2025-06-11,1,,,,,ペルフィット,0
2477,9180301039884,新規,0,2025-06-11,2025-06-11,株式会社さんまる,,株式会社,愛知県,岡崎市,明大寺町１９番地１３山七東岡崎ビル２階,,23,202,4440864,,,,,,,2025-06-11,1,,,,,サンマル,0
2478,9180301039901,新規,0,2025-06-11,2025-06-11,サンたなふぁむ株式会社,,株式会社,愛知県,碧南市,春日町２丁目３番地,,23,209,4470888,,,,,,,2025-06-11,1,,,,,サンタナファム,0
2479,9180303006610,新規,0,2025-06-11,2025-06-11,合同会社豊橋測点１６発電所,,合同会社,愛知県,豊橋市,曙町字測点１０３番地の１,,23,201,4418151,,,,,,,2025-06-11,1,,,,,トヨハシソクテンジュウロクハツデンショ,0
2485,9200003006874,新規,0,2025-06-11,2025-06-11,合同会社リタ,,合同会社,岐阜県,岐阜市,尻毛２丁目８２番地,,21,201,5011147,,,,,,,2025-06-11,1,,,,,リタ,0
2486,9210001020199,新規,0,2025-06-11,2025-06-11,株式会社やまざき,,株式会社,福井県,小浜市,平野第３０号２４番地,,18,204,9170226,,,,,,,2025-06-11,1,,,,,ヤマザキ,0
2487,9210001020208,新規,0,2025-06-11,2025-06-11,株式会社天晴ホールディングス,,株式会社,福井県,福井市,加茂河原２丁目２２番１８号,,18,201,9188057,,,,,,,2025-06-11,1,,,,,テンセイホールディングス,0
2490,9220001026716,新規,0,2025-06-11,2025-06-11,株式会社テイクオフ,,株式会社,石川県,かほく市,木津ロ４８－１０,,17,209,9291171,,,,,,,2025-06-11,1,,,,,テイクオフ,0
2497,9240001065068,新規,0,2025-06-11,2025-06-11,株式会社新生エネルギー研究所,,株式会社,広島県,広島市佐伯区,五日市中央３丁目１０番３５－５０７号,,34,108,7315128,,,,,,,2025-06-11,1,,,,,シンセイエネルギーケンキュウジョ,0
2502,9260002008544,新規,0,2025-06-11,2025-06-11,有限会社ファミリープリントプロジェクト,,有限会社,岡山県,岡山市,駅元町１３番９号,,33,100,,,,,,,,2025-06-11,1,,,,,ファミリープリントプロジェクト,0
2510,9290001110356,新規,0,2025-06-11,2025-06-11,株式会社Ｍｏｎｏｔｏｓ,,株式会社,福岡県,福岡市博多区,比恵町１－１８トーカン福岡第２キャステールビル２０１,,40,132,8120014,,,,,,,2025-06-11,1,,,,,モノトス,0
2511,9290001110364,新規,0,2025-06-11,2025-06-11,株式会社ひなたクローバー,,株式会社,福岡県,福岡市南区,大平寺１丁目４０番３５号,,40,134,8111354,,,,,,,2025-06-11,1,,,,,ヒナタクローバー,0
2536,9360001035323,新規,0,2025-06-11,2025-06-11,株式会社ＲＧＫ,,株式会社,沖縄県,沖縄市,胡屋７丁目５番２３号インターマークマンション７０１号,,47,211,9040021,,,,,,,2025-06-11,1,,,,,アールジーケイ,0
2539,9370001052697,新規,0,2025-06-11,2025-06-11,株式会社エディ,,株式会社,宮城県,仙台市青葉区,堤通雨宮町１番６７－９０７号,,04,101,9810914,,,,,,,2025-06-11,1,,,,,エディ,0
2564,9460101007716,新規,0,2025-06-11,2025-06-11,株式会社ＬｉｔｔｌｅＰａｗ’ｓ,,株式会社,北海道,帯広市,西十二条南１０丁目１番地１０,,01,207,0800022,,,,,,,2025-06-11,1,,,,,リトルパウズ,0
