sequenceNumber,corporateNumber,process,correct,updateDate,changeDate,name,nameImageId,kind,prefectureName,cityName,streetNumber,addressImageId,prefectureCode,cityCode,postCode,addressOutside,addressOutsideImageId,closeDate,closeCause,successorCorporateNumber,changeCause,assignmentDate,latest,enName,enPrefectureName,enCityName,enAddressOutside,furigana,hihyoji
15,1010001259278,新規,0,2025-10-15,2025-10-15,株式会社ＦＵＬ,,株式会社,東京都,千代田区,麹町４丁目４番地４ＡＣＮ麹町ビル１２階,,13,101,1020083,,,,,,,2025-10-15,1,,,,,フル,0
23,1010003048943,新規,0,2025-10-15,2025-10-15,Ｃｒａｆｔ　Ｌｉｆｅ合同会社,,合同会社,東京都,千代田区,神田須田町１丁目７番地８号ＶＯＲＴ秋葉原ＩＶ２Ｆ,,13,101,1010041,,,,,,,2025-10-15,1,,,,,クラフトライフ,0
24,1010003049041,新規,0,2025-10-15,2025-10-15,ＮＩＰＰＯＮ　ＯＲＧＡＮＯＩＤ合同会社,,合同会社,東京都,千代田区,内幸町２丁目２番２号富国生命ビル渥美坂井法律事務所・外国法共同事業内,,13,101,1000011,,,,,,,2025-10-15,1,,,,,ニッポンオルガノイド,0
25,1010005040774,新規,0,2025-10-15,2025-10-15,一般社団法人全国同行援護事業所ネットワーク,,その他の設立登記法人,東京都,千代田区,神田松永町１９番３号ＴＨＡビル３階,,13,101,1010023,,,,,,,2025-10-15,1,,,,,ゼンコクドウコウエンゴジギョウショネットワーク,0
28,1010401193622,新規,0,2025-10-15,2025-10-15,株式会社全世界で売れ,,株式会社,東京都,港区,北青山１丁目３－３三橋ビル３階,,13,103,1070061,,,,,,,2025-10-15,1,,,,,ゼンセカイデウレ,0
29,1010401193861,新規,0,2025-10-15,2025-10-15,株式会社ＮＡＭＩ‐ＲＥＮＳＡ,,株式会社,東京都,港区,南青山３丁目１番３６号青山丸竹ビル６Ｆ,,13,103,1070062,,,,,,,2025-10-15,1,,,,,ナミレンサ,0
30,1010401193911,新規,0,2025-10-15,2025-10-15,ＴＯＫＡ　Ｊａｐａｎ株式会社,,株式会社,東京都,港区,東新橋２丁目７番３号昭和アステック１号館７階７０５号室,,13,103,1050021,,,,,,,2025-10-15,1,,,,,トウカジャパン,0
33,1010501054856,新規,0,2025-10-15,2025-10-15,株式会社ＥＣＳ,,株式会社,東京都,台東区,浅草橋１丁目１番１５号原田ビル６階,,13,106,1110053,,,,,,,2025-10-15,1,,,,,イーシーエス,0
55,1011003022665,新規,0,2025-10-15,2025-10-15,合同会社ＨＡＳ　ＥＢＩＳＵ,,合同会社,東京都,渋谷区,恵比寿４丁目１０番８号エビスビル３０１,,13,113,1500013,,,,,,,2025-10-15,1,,,,,,0
56,1011003022673,新規,0,2025-10-15,2025-10-15,Ｂｅａｕｔｙ　Ｅｄｇｅ　Ｐｒｏ合同会社,,合同会社,東京都,目黒区,祐天寺１丁目９番８号,,13,110,1530052,,,,,,,2025-10-15,1,,,,,ビューティエッジプロ,0
57,1011003022681,新規,0,2025-10-15,2025-10-15,合同会社Ｓｏｌｕｎｅ,,合同会社,東京都,目黒区,東山２丁目５番１７号セントフランシス東山３０５,,13,110,1530043,,,,,,,2025-10-15,1,,,,,ソルネ,0
58,1011003022756,新規,0,2025-10-15,2025-10-15,合同会社花束企画,,合同会社,東京都,渋谷区,円山町５―３ＭＩＥＵＸ渋谷ビル８階,,13,113,1500044,,,,,,,2025-10-15,1,,,,,ハナタバキカク,0
62,1011101113424,新規,0,2025-10-15,2025-10-15,ＤｒｅａｍＢａｓｅ株式会社,,株式会社,東京都,新宿区,新宿２丁目９番２２号,,13,104,1600022,,,,,,,2025-10-15,1,,,,,ドリームベース,0
63,1011101113465,新規,0,2025-10-15,2025-10-15,日本薬業国際株式会社,,株式会社,東京都,新宿区,西新宿３丁目３番１３号西新宿水間ビル６階,,13,104,1600023,,,,,,,2025-10-15,1,,,,,ニホンヤクギョウコクサイ,0
64,1011101113481,新規,0,2025-10-15,2025-10-15,ＧＡＮＥＳＨ株式会社,,株式会社,東京都,新宿区,下落合４丁目３番９号コーポ江川１０３,,13,104,1610033,,,,,,,2025-10-15,1,,,,,ガネーシュ,0
66,1011105011608,新規,0,2025-10-15,2025-10-15,一般社団法人日本蘇州商会,,その他の設立登記法人,東京都,新宿区,北新宿１丁目７－２０プリスペリア１０２室,,13,104,1690074,,,,,,,2025-10-15,1,,,,,ニホンソシュウショウカイ,0
69,1011201026699,新規,0,2025-10-15,2025-10-15,株式会社Ｇｉｖｅｒ,,株式会社,東京都,中野区,上高田４丁目１９番６－２０５号ゴールデンマンション,,13,114,1640002,,,,,,,2025-10-15,1,,,,,ギバー,0
70,1011201026708,新規,0,2025-10-15,2025-10-15,Ｓｍｉｒｏｎ株式会社,,株式会社,東京都,中野区,松が丘２丁目１２番３号,,13,114,1650024,,,,,,,2025-10-15,1,,,,,スマイロン,0
79,1011701028823,新規,0,2025-10-15,2025-10-15,アローズＨＲコンサルティング株式会社,,株式会社,東京都,江戸川区,東葛西６丁目３４－１０,,13,123,1340084,,,,,,,2025-10-15,1,,,,,アローズエイチアールコンサルティング,0
82,1012301014552,新規,0,2025-10-15,2025-10-15,株式会社イチハル,,株式会社,東京都,町田市,鶴川６丁目８番地２の５０３,,13,209,1950061,,,,,,,2025-10-15,1,,,,,イチハル,0
86,1012403007396,新規,0,2025-10-15,2025-10-15,合同会社そら,,合同会社,東京都,府中市,南町１丁目４７番地の１シルキーパレス２０４,,13,206,1830026,,,,,,,2025-10-15,1,,,,,ソラ,0
87,1012701019135,新規,0,2025-10-15,2025-10-15,株式会社ハクトプライム,,株式会社,東京都,西東京市,向台町５丁目１番１１号,,13,229,1880013,,,,,,,2025-10-15,1,,,,,ハクトプライム,0
89,1012705002483,新規,0,2025-10-15,2025-10-15,一般社団法人Ｔｏｃｃｏ,,その他の設立登記法人,東京都,西東京市,東町１丁目６番３号中川ビル１Ｆ,,13,229,2020012,,,,,,,2025-10-15,1,,,,,トッコ,0
94,1013301055124,新規,0,2025-10-15,2025-10-15,株式会社Ａｍｂｉｔｉｏｎ,,株式会社,東京都,豊島区,北大塚２丁目２１番３－１００２号,,13,116,1700004,,,,,,,2025-10-15,1,,,,,アンビション,0
104,1020001165310,新規,0,2025-10-15,2025-10-15,株式会社松竹,,株式会社,神奈川県,横浜市神奈川区,鶴屋町２丁目２６番地の３,,14,102,2210835,,,,,,,2025-10-15,1,,,,,マツタケ,0
109,1020003029538,新規,0,2025-10-15,2025-10-15,ＡＡＹＵＺ　ＴＲＡＤＩＮＧ合同会社,,合同会社,神奈川県,川崎市中原区,木月３丁目１３番３０－２Ｆ,,14,133,2110025,,,,,,,2025-10-15,1,,,,,アユズトレーディング,0
110,1020005017012,新規,0,2025-10-15,2025-10-15,ＮＰＯ法人コミュニティケアゆめわけ,,その他の設立登記法人,神奈川県,横浜市緑区,長津田みなみ台６丁目５番地１,,14,113,2260018,,,,,,,2025-10-15,1,,,,,コミュニティケアユメワケ,0
113,1021001086414,新規,0,2025-10-15,2025-10-15,株式会社平山住設,,株式会社,神奈川県,相模原市南区,上鶴間本町８丁目３２－２３ドエル上河内１０１,,14,153,2520318,,,,,,,2025-10-15,1,,,,,ヒラヤマジュウセツ,0
114,1021001086513,新規,0,2025-10-15,2025-10-15,株式会社コミュスタット,,株式会社,神奈川県,鎌倉市,笛田６丁目２０番３０号,,14,204,2480027,,,,,,,2025-10-15,1,,,,,コミュスタット,0
117,1021003016666,新規,0,2025-10-15,2025-10-15,ＡＲＴイノベーション合同会社,,合同会社,神奈川県,藤沢市,亀井野４６０番地の５,,14,205,2520813,,,,,,,2025-10-15,1,,,,,エーアールティーイノベーション,0
118,1021003016674,新規,0,2025-10-15,2025-10-15,Ｔｅｋａｐｏ合同会社,,合同会社,神奈川県,厚木市,元町１６番１号,,14,212,2430002,,,,,,,2025-10-15,1,,,,,テカポ,0
123,1030001168948,新規,0,2025-10-15,2025-10-15,株式会社瑞綺,,株式会社,埼玉県,川口市,大字木曽呂３３番地,,11,203,3330831,,,,,,,2025-10-15,1,,,,,ミズキ,0
125,1030001169228,新規,0,2025-10-15,2025-10-15,株式会社ＳＦＩＤＡ　ＦＩＥＬＤ,,株式会社,埼玉県,志木市,下宗岡２丁目１５番４３号,,11,228,3530003,,,,,,,2025-10-15,1,,,,,スフィーダフィールド,0
126,1030003027879,新規,0,2025-10-15,2025-10-15,Ｓｏｒａ　Ｓｏｌｅｉｌ合同会社,,合同会社,埼玉県,上尾市,二ツ宮８９１番地１５,,11,219,3620017,,,,,,,2025-10-15,1,,,,,ソラソレイユ,0
133,1040003028769,新規,0,2025-10-15,2025-10-15,合同会社ヨシキリーディング,,合同会社,千葉県,千葉市花見川区,千種町３５３番地４３,,12,102,2620012,,,,,,,2025-10-15,1,,,,,ヨシキリーディング,0
138,1050001057447,新規,0,2025-10-15,2025-10-15,株式会社ＯＺ,,株式会社,茨城県,守谷市,本町１４４番地の１パティオルミエール１０２,,08,224,3020109,,,,,,,2025-10-15,1,,,,,オズ,0
139,1050001057463,新規,0,2025-10-15,2025-10-15,株式会社Ｆｌｅｄｇｅ,,株式会社,茨城県,つくば市,松野木１７４番地２５,,08,220,3050056,,,,,,,2025-10-15,1,,,,,フレッジ,0
142,1070001043445,新規,0,2025-10-15,2025-10-15,株式会社ＬｏｏｐＬｉｎｅ,,株式会社,群馬県,高崎市,上小塙町１２３９番地２,,10,202,3700077,,,,,,,2025-10-15,1,,,,,ループライン,0
143,1070001043453,新規,0,2025-10-15,2025-10-15,Ｒ．Ｈ　ＴＲＡＤＩＮＧ株式会社,,株式会社,群馬県,館林市,苗木町１７５１番地の７タケイアパートー３,,10,207,3740043,,,,,,,2025-10-15,1,,,,,アールエイチトレーディング,0
144,1080001027216,新規,0,2025-10-15,2025-10-15,株式会社ピース,,株式会社,静岡県,静岡市葵区,宮ケ崎町１２番地ＡＰＥＸ浅間通り２０２号,,22,101,4200868,,,,,,,2025-10-15,1,,,,,ピース,0
146,1080005007734,新規,0,2025-10-15,2025-10-15,特定非営利活動法人Ｄａｚｚｌｅ　Ｄｏｃｋ,,その他の設立登記法人,静岡県,静岡市清水区,由比阿僧１５５－１,,22,103,4213107,,,,,,,2025-10-15,1,,,,,ダズルドック,0
147,1080101025846,新規,0,2025-10-15,2025-10-15,株式会社とりけらとぷす,,株式会社,静岡県,三島市,大宮町２丁目７番３５号アクアハイム大宮２０２,,22,206,4110035,,,,,,,2025-10-15,1,,,,,トリケラトプス,0
158,1110005017275,新規,0,2025-10-15,2025-10-15,特定非営利活動法人らいのす,,その他の設立登記法人,新潟県,新潟市中央区,東幸町４番１０号ダイアパレスロイヤルシティ東幸町東棟７０６号,,15,103,9500906,,,,,,,2025-10-15,1,,,,,ライノス,0
166,1120001280594,新規,0,2025-10-15,2025-10-15,株式会社ｆｉｒｓｔ　ｍｅｄｉｃａｌ,,株式会社,大阪府,大阪市阿倍野区,阿倍野筋４丁目１３番２０号ユートーマンション１０４号,,27,119,5450052,,,,,,,2025-10-15,1,,,,,ファーストメディカル,0
167,1120001280859,新規,0,2025-10-15,2025-10-15,イグニシア株式会社,,株式会社,大阪府,大阪市中央区,材木町１－６第１２新興ビル５０６,,27,128,5400010,,,,,,,2025-10-15,1,,,,,イグニシア,0
168,1120001281048,新規,0,2025-10-15,2025-10-15,株式会社ＢＬＯＯＭ　ＰＬＵＳ,,株式会社,大阪府,大阪市生野区,新今里４丁目３番１８号２階,,27,116,5440001,,,,,,,2025-10-15,1,,,,,ブルームプラス,0
169,1120001281106,新規,0,2025-10-15,2025-10-15,和華創域株式会社,,株式会社,大阪府,大阪市都島区,中野町４丁目３番６号Ｈ２Ｈ大阪桜之宮邸２Ｄ－３,,27,102,5340027,,,,,,,2025-10-15,1,,,,,ワカソウイキ,0
170,1120001281147,新規,0,2025-10-15,2025-10-15,株式会社ＴＹファイナンシャルプランニング,,株式会社,大阪府,大阪市中央区,瓦町４丁目６－８－２００９,,27,128,5410048,,,,,,,2025-10-15,1,,,,,ティーワイファイナンシャルプランニング,0
175,1120005025203,新規,0,2025-10-15,2025-10-15,弁護士法人石橋・照屋法律事務所,,その他の設立登記法人,大阪府,大阪市東淀川区,大道南３丁目３－２１ポンテ・ピエトロ２Ｂ,,27,114,5330012,,,,,,,2025-10-15,1,,,,,イシバシテルヤホウリツジムショ,0
180,1122001039731,新規,0,2025-10-15,2025-10-15,五ッ星産業株式会社,,株式会社,大阪府,東大阪市,瓜生堂１丁目１５番１２号,,27,227,5780946,,,,,,,2025-10-15,1,,,,,イツツボシサンギョウ,0
185,1130001080770,新規,0,2025-10-15,2025-10-15,Ｌｉｎｋ‐ｎｏｖａ株式会社,,株式会社,京都府,京丹後市,峰山町荒山６７４番地,,26,212,6270004,,,,,,,2025-10-15,1,,,,,リンクノヴァ,0
186,1130001080804,新規,0,2025-10-15,2025-10-15,株式会社さいとう,,株式会社,京都府,城陽市,水主南垣内２４番地,,26,207,6100118,,,,,,,2025-10-15,1,,,,,サイトウ,0
187,1130001080820,新規,0,2025-10-15,2025-10-15,株式会社ｍａｔｏｂａ,,株式会社,京都府,京都市下京区,七条御所ノ内西町２３番地８,,26,106,6008865,,,,,,,2025-10-15,1,,,,,マトバ,0
190,1140001140251,新規,0,2025-10-15,2025-10-15,株式会社ＥＮＣＨＡＮＴＥ,,株式会社,兵庫県,西宮市,南甲子園２丁目２番３号,,28,204,6638153,,,,,,,2025-10-15,1,,,,,アンシャンテ,0
191,1140001140350,新規,0,2025-10-15,2025-10-15,ＭＯＤＳ株式会社,,株式会社,兵庫県,神戸市長田区,腕塚町５丁目２－１,,28,106,6530036,,,,,,,2025-10-15,1,,,,,モッズ,0
192,1140001140367,新規,0,2025-10-15,2025-10-15,株式会社ＡＲＡＳ,,株式会社,兵庫県,宝塚市,花屋敷荘園３丁目５番７号,,28,214,6650802,,,,,,,2025-10-15,1,,,,,アラス,0
194,1150001028479,新規,0,2025-10-15,2025-10-15,株式会社Ｌｅａｆ,,株式会社,奈良県,生駒市,俵口町２２４番地２０,,29,209,6300243,,,,,,,2025-10-15,1,,,,,リーフ,0
196,1160001027133,新規,0,2025-10-15,2025-10-15,株式会社ＳＣＭ,,株式会社,滋賀県,栗東市,小柿８丁目３番９号,,25,208,5203024,,,,,,,2025-10-15,1,,,,,エスシーエム,0
203,1180001169031,新規,0,2025-10-15,2025-10-15,株式会社ＣＯＣＯＲＯＡＧＲＯＵＰ,,株式会社,愛知県,名古屋市中村区,名駅３丁目４番１０号アルティメイト名駅１ｓｔ２階,,23,105,4500002,,,,,,,2025-10-15,1,,,,,ココロアグループ,0
204,1180001169072,新規,0,2025-10-15,2025-10-15,株式会社Ｅｄｕｃａｔｅ　Ｊａｐａｎ,,株式会社,愛知県,名古屋市中村区,名駅４丁目２４番５号第２森ビル４０１,,23,105,4500002,,,,,,,2025-10-15,1,,,,,エデュケイトジャパン,0
205,1180001169080,新規,0,2025-10-15,2025-10-15,株式会社ＦＪＩ,,株式会社,愛知県,名古屋市天白区,平針４丁目２６２７番地,,23,116,4680011,,,,,,,2025-10-15,1,,,,,エフジェイアイ,0
206,1180001169114,新規,0,2025-10-15,2025-10-15,Ｂラボ株式会社,,株式会社,愛知県,名古屋市中村区,名駅４丁目２５番１７号三喜ビル６階,,23,105,4500002,,,,,,,2025-10-15,1,,,,,ビーラボ,0
210,1180005021279,新規,0,2025-10-15,2025-10-15,一般社団法人ペット後見支援センターシェイクしっぽ,,その他の設立登記法人,愛知県,名古屋市千種区,本山町４丁目７４－１ＩＢ本山２Ｆ－Ａ,,23,101,4640036,,,,,,,2025-10-15,1,,,,,ペットコウケンシエンセンターシェイクシッポ,0
215,1180303006774,新規,0,2025-10-15,2025-10-15,合同会社ＣＲＥＡＮＥＣＴ,,合同会社,愛知県,西尾市,羽塚町北側６６番地３キャラウェイ１０１号室,,23,213,4440316,,,,,,,2025-10-15,1,,,,,クリネクト,0
222,1210001020355,新規,0,2025-10-15,2025-10-15,株式会社エーシングループホールディングス,,株式会社,福井県,福井市,上北野１丁目７番７号,,18,201,9188203,,,,,,,2025-10-15,1,,,,,エーシングループホールディングス,0
232,1240001065653,新規,0,2025-10-15,2025-10-15,株式会社Ｄｏｐｅ,,株式会社,広島県,広島市中区,田中町２番２５号第２田中町山本ビル,,34,101,7300026,,,,,,,2025-10-15,1,,,,,ドープ,0
235,1240003007439,新規,0,2025-10-15,2025-10-15,合同会社ＭＨＭ,,合同会社,広島県,東広島市,高屋高美が丘８丁目１０番６号,,34,212,7392115,,,,,,,2025-10-15,1,,,,,エムエイチエム,0
238,1250001021390,新規,0,2025-10-15,2025-10-15,株式会社大栄,,株式会社,山口県,周南市,大字徳山６７８９番地の１６,,35,215,7450851,,,,,,,2025-10-15,1,,,,,ダイエイ,0
244,1290803005182,新規,0,2025-10-15,2025-10-15,合同会社Ｅｎｉｓｈｉ　Ｏｆｆｉｃｅ,,合同会社,福岡県,宮若市,福丸２４５番地３,,40,226,8220101,,,,,,,2025-10-15,1,,,,,エニシオフィス,0
246,1320001021391,新規,0,2025-10-15,2025-10-15,株式会社ファインポンプ,,株式会社,大分県,別府市,大字鶴見１９５１番地の４０,,44,202,8740840,,,,,,,2025-10-15,1,,,,,ファインポンプ,0
247,1320003004799,新規,0,2025-10-15,2025-10-15,合同会社ｎａｎａ　ｐｌｕｓ,,合同会社,大分県,大分市,都町２丁目４番２２号都プラザ１階,,44,201,8700034,,,,,,,2025-10-15,1,,,,,ナナプラス,0
253,1360001035909,新規,0,2025-10-15,2025-10-15,株式会社ＨＭＣ,,株式会社,沖縄県,名護市,字幸喜１３７,,47,209,9050025,,,,,,,2025-10-15,1,,,,,エイチエムシー,0
254,1360001035917,新規,0,2025-10-15,2025-10-15,株式会社ＳＡＩＯＮ,,株式会社,沖縄県,那覇市,牧志２丁目２０番２８―１３０２号,,47,201,9000013,,,,,,,2025-10-15,1,,,,,サイオン,0
256,1360003015322,新規,0,2025-10-15,2025-10-15,合同会社ｌｉｎｋｗｏｒｋｓ　Ｏｋｉｎａｗａ,,合同会社,沖縄県,那覇市,首里赤田町３丁目２６番地コルネットハウス２－Ｃ号室,,47,201,9030813,,,,,,,2025-10-15,1,,,,,リンクワークスオキナワ,0
257,1380001035634,新規,0,2025-10-15,2025-10-15,禄隆総建株式会社,,株式会社,福島県,いわき市,植田町根小屋７７番地の１一階,,07,204,9748261,,,,,,,2025-10-15,1,,,,,ロクリュウソウケン,0
262,1430001095375,新規,0,2025-10-15,2025-10-15,株式会社ケーエヌ,,株式会社,北海道,札幌市手稲区,曙四条３丁目１０番２０号,,01,109,0060834,,,,,,,2025-10-15,1,,,,,ケーエヌ,0
263,1430001095433,新規,0,2025-10-15,2025-10-15,株式会社Ｐｌｕｒｉｂｕｓ,,株式会社,北海道,札幌市中央区,南三条西９丁目９９８－３アパタワーズ札幌大通公園１７１３号室,,01,101,0600063,,,,,,,2025-10-15,1,,,,,プルリブス,0
264,1430001095441,新規,0,2025-10-15,2025-10-15,株式会社ｏｆｆｉｃｅ．ｍａｃ,,株式会社,北海道,石狩郡当別町,太美町２０９４番地９０,,01,303,0613776,,,,,,,2025-10-15,1,,,,,オフィスマック,0
265,1430001095466,新規,0,2025-10-15,2025-10-15,株式会社ＴＫ　ＣＯＲＰＯＲＡＴＩＯＮ,,株式会社,北海道,石狩市,新港中央２丁目７５６番地２０,,01,235,0613242,,,,,,,2025-10-15,1,,,,,ティーケーコーポレーション,0
266,1430001095482,新規,0,2025-10-15,2025-10-15,Ａｃｒｅｄｉａ株式会社,,株式会社,北海道,札幌市中央区,南三条西１丁目８番地１０ＣＯＮＮＥＣＴ　ＳＡＰＰＯＲＯ４階,,01,101,0600063,,,,,,,2025-10-15,1,,,,,アクレディア,0
267,1430003018210,新規,0,2025-10-15,2025-10-15,合同会社Ｇｏｌｄ　Ｈｉｌｌ　Ｅｘｐａｎｓｉｏｎ,,合同会社,北海道,札幌市豊平区,西岡一条５丁目７番５号,,01,105,0620031,,,,,,,2025-10-15,1,,,,,ゴールドヒルエクスパンション,0
268,1430003018227,新規,0,2025-10-15,2025-10-15,Ｋｏｋｏｎｕｐｕｒｉ　Ｒｅｎｔａｌ合同会社,,合同会社,北海道,虻田郡ニセコ町,字ニセコ３５５‐６７,,01,395,0481511,,,,,,,2025-10-15,1,,,,,ココヌプリレンタル,0
269,1430003018235,新規,0,2025-10-15,2025-10-15,合同会社オネット,,合同会社,北海道,札幌市清田区,平岡三条６丁目１２番２号,,01,110,0040873,,,,,,,2025-10-15,1,,,,,オネット,0
272,1470001020940,新規,0,2025-10-15,2025-10-15,株式会社金太郎,,株式会社,香川県,高松市,桜町２丁目３番５号サクラテラス２Ｆ,,37,201,7600074,,,,,,,2025-10-15,1,,,,,,0
286,2010001259038,新規,0,2025-10-15,2025-10-15,富士ユナイトホールディングス株式会社,,株式会社,東京都,千代田区,神田駿河台４丁目３番地,,13,101,1010062,,,,,,,2025-10-15,1,,,,,フジユナイトホールディングス,0
287,2010001259401,新規,0,2025-10-15,2025-10-15,株式会社ＳＩＧＮＡＴＵＲＥ２,,株式会社,東京都,中央区,銀座７丁目１５番８号タウンハイツ銀座４０６,,13,102,1040061,,,,,,,2025-10-15,1,,,,,シグニチャートゥー,0
288,2010001259426,新規,0,2025-10-15,2025-10-15,株式会社ＬＩＶＡＬＧＯ,,株式会社,東京都,千代田区,六番町６番地４ＬＨ番町スクエア５階,,13,101,1020085,,,,,,,2025-10-15,1,,,,,リバルゴ,0
296,2010103002675,新規,0,2025-10-15,2025-10-15,合同会社Ｏｎｅ　ｍｉｌｅ,,合同会社,東京都,八王子市,八幡町１２番１４号ホワイトプラザ４階,,13,201,1920053,,,,,,,2025-10-15,1,,,,,ワンマイル,0
311,2010801036677,新規,0,2025-10-15,2025-10-15,ＫＯＡＮ株式会社,,株式会社,東京都,大田区,池上７丁目２番７号,,13,111,1460082,,,,,,,2025-10-15,1,,,,,コウアン,0
315,2011001172866,新規,0,2025-10-15,2025-10-15,株式会社ＢＡＳＥＮＵＧ,,株式会社,東京都,渋谷区,笹塚２丁目１０－７米山ビル１Ｆ,,13,113,1510073,,,,,,,2025-10-15,1,,,,,ベースナッグ,0
316,2011001172882,新規,0,2025-10-15,2025-10-15,株式会社ＭＡＯ,,株式会社,東京都,渋谷区,西原２丁目３５－１,,13,113,1510066,,,,,,,2025-10-15,1,,,,,マオ,0
317,2011001172890,新規,0,2025-10-15,2025-10-15,株式会社ＡＶＹＳＳ,,株式会社,東京都,渋谷区,恵比寿西１丁目３３番６号ＪＰｎｏｉｅ恵比寿西１Ｆｃｏ－ｂａ・ｅｂｉｓｕ,,13,113,1500021,,,,,,,2025-10-15,1,,,,,アビス,0
318,2011001172908,新規,0,2025-10-15,2025-10-15,株式会社Ｅｖａ　ｒａｉｓｅ,,株式会社,東京都,渋谷区,宇田川町３番７号ヒューリック渋谷公園通りビル５階,,13,113,1500042,,,,,,,2025-10-15,1,,,,,エヴァレイズ,0
319,2011001172916,新規,0,2025-10-15,2025-10-15,Ｂｅｎｒｉｃｓ株式会社,,株式会社,東京都,渋谷区,本町１丁目２０番２－３０１号パルムハウス初台,,13,113,1510071,,,,,,,2025-10-15,1,,,,,ベンリクス,0
320,2011001173187,新規,0,2025-10-15,2025-10-15,株式会社ＡＩ　Ｄｏｃｋｓ,,株式会社,東京都,渋谷区,道玄坂１丁目１０番８号渋谷道玄坂東急ビル２Ｆ－Ｃ,,13,113,1500043,,,,,,,2025-10-15,1,,,,,エーアイドックス,0
322,2011003022664,新規,0,2025-10-15,2025-10-15,ｆ４ｗｏｒｋｓ合同会社,,合同会社,東京都,渋谷区,恵比寿西２丁目８番４号ＥＸ恵比寿西ビル５階,,13,113,1500021,,,,,,,2025-10-15,1,,,,,フジワークス,0
323,2011003022680,新規,0,2025-10-15,2025-10-15,合同会社Ｎｅｘｔ　Ｈｏｕｓｅ,,合同会社,東京都,目黒区,下目黒１丁目１番１４号コノトラビル７Ｆ,,13,110,1530064,,,,,,,2025-10-15,1,,,,,,0
324,2011003022771,新規,0,2025-10-15,2025-10-15,Ｓ４Ｎ合同会社,,合同会社,東京都,渋谷区,道玄坂１丁目１０番８号渋谷道玄坂東急ビル２Ｆ－Ｃ,,13,113,1500043,,,,,,,2025-10-15,1,,,,,エスフォーエヌ,0
328,2011101113530,新規,0,2025-10-15,2025-10-15,ＳＨＩＡＷＡＳＥ株式会社,,株式会社,東京都,新宿区,西新宿３丁目５－３西新宿ダイヤモンドパレス３１５,,13,104,1600023,,,,,,,2025-10-15,1,,,,,シアワセ,0
329,2011103016483,新規,0,2025-10-15,2025-10-15,アンシス合同会社,,合同会社,東京都,新宿区,西新宿６丁目５番１号新宿アイランドタワー２階,,13,104,1600023,,,,,,,2025-10-15,1,,,,,アンシス,0
334,2011201026698,新規,0,2025-10-15,2025-10-15,株式会社３Ｍ,,株式会社,東京都,中野区,新井５丁目２０番１２号プラティーク中野１０１,,13,114,1650026,,,,,,,2025-10-15,1,,,,,スリーエム,0
336,2011401027496,新規,0,2025-10-15,2025-10-15,株式会社ビルド,,株式会社,東京都,板橋区,徳丸３丁目３７番１７－５０１号,,13,119,1750083,,,,,,,2025-10-15,1,,,,,ビルド,0
341,2011503006729,新規,0,2025-10-15,2025-10-15,イーファーマーズ合同会社,,合同会社,東京都,北区,東十条２丁目１２番１５－１０２号,,13,117,1140001,,,,,,,2025-10-15,1,,,,,イーファーマーズ,0
348,2012403007370,新規,0,2025-10-15,2025-10-15,合同会社ぽんず,,合同会社,東京都,三鷹市,牟礼４丁目１８‐５グランシエロ吉祥寺２０６,,13,204,1810002,,,,,,,2025-10-15,1,,,,,ポンズ,0
350,2012703003391,新規,0,2025-10-15,2025-10-15,合同会社プレシジョンサポート,,合同会社,東京都,東久留米市,神宝町２丁目２番１４号,,13,222,2030002,,,,,,,2025-10-15,1,,,,,プレシジョンサポート,0
354,2013301055148,新規,0,2025-10-15,2025-10-15,株式会社和の会文化企画,,株式会社,東京都,豊島区,南池袋２丁目１２番９号５階,,13,116,1710022,,,,,,,2025-10-15,1,,,,,ワノカイブンカキカク,0
364,2020001164971,新規,0,2025-10-15,2025-10-15,株式会社タケバヤシ,,株式会社,神奈川県,横浜市金沢区,町屋町２７番８号,,14,108,2360022,,,,,,,2025-10-15,1,,,,,タケバヤシ,0
365,2020001165037,新規,0,2025-10-15,2025-10-15,みらいフィールド株式会社,,株式会社,神奈川県,横浜市港北区,高田西５丁目１９番１５号,,14,109,2230066,,,,,,,2025-10-15,1,,,,,ミライフィールド,0
366,2020001165045,新規,0,2025-10-15,2025-10-15,株式会社Ｃｉｒｃｌｅ　Ｆｉｌｍ　Ｓｔｕｄｉｏ,,株式会社,神奈川県,川崎市宮前区,犬蔵２丁目１５－３８,,14,136,2160011,,,,,,,2025-10-15,1,,,,,サークルフィルムスタジオ,0
367,2020001165053,新規,0,2025-10-15,2025-10-15,株式会社バッカスバレルズ,,株式会社,神奈川県,横浜市中区,北方町１丁目４６番１５,,14,104,2310865,,,,,,,2025-10-15,1,,,,,バッカスバレルズ,0
368,2020001165152,新規,0,2025-10-15,2025-10-15,株式会社ＴＡＫＥＭＩＮＡＫＡＴＡ,,株式会社,神奈川県,川崎市幸区,小向仲野町８番１川崎多摩川ファインフィールズ２２０号,,14,132,2120002,,,,,,,2025-10-15,1,,,,,タケミナカタ,0
369,2020001165177,新規,0,2025-10-15,2025-10-15,株式会社ワイキュープロパティ,,株式会社,神奈川県,川崎市高津区,下作延２丁目９番１０号関口第二ビル,,14,134,2130033,,,,,,,2025-10-15,1,,,,,ワイキュープロパティ,0
379,2020003029537,新規,0,2025-10-15,2025-10-15,合同会社ワイエムアール,,合同会社,神奈川県,横浜市緑区,いぶき野６５番地４４,,14,113,2260028,,,,,,,2025-10-15,1,,,,,ワイエムアール,0
380,2020005017003,新規,0,2025-10-15,2025-10-15,一般社団法人アルバ芸術振興会,,その他の設立登記法人,神奈川県,川崎市麻生区,白鳥４丁目８番２６号,,14,137,2150024,,,,,,,2025-10-15,1,,,,,アルバゲイジュツシンコウカイ,0
381,2021001086553,新規,0,2025-10-15,2025-10-15,株式会社渚インベストメント,,株式会社,神奈川県,逗子市,新宿５丁目１番１６号,,14,208,2490007,,,,,,,2025-10-15,1,,,,,ナギサインベストメント,0
394,2030001169136,新規,0,2025-10-15,2025-10-15,株式会社ＬＲＣ,,株式会社,埼玉県,桶川市,西２丁目８番１７号,,11,231,3630017,,,,,,,2025-10-15,1,,,,,エルアールシー,0
395,2030001169152,新規,0,2025-10-15,2025-10-15,株式会社Ｃａｎ,,株式会社,埼玉県,北本市,石戸宿４丁目６８番地,,11,233,3640025,,,,,,,2025-10-15,1,,,,,キャン,0
396,2030001169210,新規,0,2025-10-15,2025-10-15,日本立弘科技商事株式会社,,株式会社,埼玉県,ふじみ野市,霞ケ丘３丁目４－１ライオンズガーデン上福岡２２９号室,,11,245,3560006,,,,,,,2025-10-15,1,,,,,ニホンリッコウカギショウジ,0
398,2030003027878,新規,0,2025-10-15,2025-10-15,Ｎｅｘｔｇｅｎ合同会社,,合同会社,埼玉県,狭山市,大字北入曽６９４番地の２３ＫＩＶ商会館狭山Ａ号室,,11,215,3501315,,,,,,,2025-10-15,1,,,,,ネクストジェン,0
406,2040003028751,新規,0,2025-10-15,2025-10-15,合同会社ＳＥＫ‐１,,合同会社,千葉県,柏市,明原３丁目１４番１４号ストークＥ－２０１号,,12,217,2770843,,,,,,,2025-10-15,1,,,,,エスイーケーワン,0
407,2050001057446,新規,0,2025-10-15,2025-10-15,株式会社プロライン,,株式会社,茨城県,つくば市,谷田部８４３番地２５（陣場Ｇ３２街区１）ミラドールＫ１０１号,,08,220,3050861,,,,,,,2025-10-15,1,,,,,プロライン,0
409,2050003009684,新規,0,2025-10-15,2025-10-15,ワサンガ合同会社,,合同会社,茨城県,水戸市,河和田町３８９１－１７７,,08,201,3114153,,,,,,,2025-10-15,1,,,,,ワサンガ,0
410,2060001038684,新規,0,2025-10-15,2025-10-15,ＥＭＡクリーン株式会社,,株式会社,栃木県,那須塩原市,一区町１９４番地１５グランディールＤ１０３号室,,09,213,3292732,,,,,,,2025-10-15,1,,,,,エマクリーン,0
411,2060001038692,新規,0,2025-10-15,2025-10-15,株式会社ｅｌｉｔｅ　ｆｅｗ,,株式会社,栃木県,小山市,大字間々田１５８―３六本木サクラガーデン,,09,208,3290205,,,,,,,2025-10-15,1,,,,,エリートフュー,0
414,2070001043444,新規,0,2025-10-15,2025-10-15,株式会社渡辺自動車,,株式会社,群馬県,邑楽郡明和町,矢島７３１番地１,,10,522,3700712,,,,,,,2025-10-15,1,,,,,ワタナベジドウシャ,0
415,2070001043452,新規,0,2025-10-15,2025-10-15,株式会社ＰＣＢＴＯ,,株式会社,群馬県,前橋市,朝日町２丁目５番７号,,10,201,3710014,,,,,,,2025-10-15,1,,,,,ピーシービーティーオー,0
419,2070003006151,新規,0,2025-10-15,2025-10-15,ＭＩＫＵＲＡ合同会社,,合同会社,群馬県,太田市,岩瀬川町１８２番地６,,10,205,3730841,,,,,,,2025-10-15,1,,,,,ミクラ,0
443,2120001281121,新規,0,2025-10-15,2025-10-15,桃符株式会社,,株式会社,大阪府,大阪市東住吉区,中野４丁目１番１６号サラオリエンテ中野８０７Ａ,,27,121,5460012,,,,,,,2025-10-15,1,,,,,トウフ,0
447,2120003030823,新規,0,2025-10-15,2025-10-15,合同会社ＭＡＳＡ,,合同会社,大阪府,大阪市北区,長柄中１丁目３番２３号トレンディーマルナカ４０３号室,,27,127,5310062,,,,,,,2025-10-15,1,,,,,マサ,0
448,2120003030856,新規,0,2025-10-15,2025-10-15,ＤＴ合同会社,,合同会社,大阪府,大阪市西成区,太子２丁目２番２９号２０１室,,27,122,5570002,,,,,,,2025-10-15,1,,,,,ディーティー,0
449,2120003030930,新規,0,2025-10-15,2025-10-15,合同会社燎,,合同会社,大阪府,大阪市生野区,舎利寺３丁目３番２７号,,27,116,5440022,,,,,,,2025-10-15,1,,,,,リョウ,0
462,2120101072627,新規,0,2025-10-15,2025-10-15,株式会社アムールアドニス,,株式会社,大阪府,岸和田市,小松里町９８５番地の７,,27,202,5960821,,,,,,,2025-10-15,1,,,,,アムールアドニス,0
463,2120101072635,新規,0,2025-10-15,2025-10-15,株式会社ＡｉｓｏＰｌｕｓ,,株式会社,大阪府,堺市東区,高松１９１番地１７,,27,143,5998121,,,,,,,2025-10-15,1,,,,,アイソプラス,0
464,2120101072643,新規,0,2025-10-15,2025-10-15,ＦＯＲＧＥ株式会社,,株式会社,大阪府,泉大津市,東雲町１４番６５－８１３号,,27,206,5950026,,,,,,,2025-10-15,1,,,,,フォージー,0
466,2122001039730,新規,0,2025-10-15,2025-10-15,Ｈａｌｕｎｏ株式会社,,株式会社,大阪府,東大阪市,柏田本町２番１６号,,27,227,5770834,,,,,,,2025-10-15,1,,,,,ハルノ,0
467,2122003003354,新規,0,2025-10-15,2025-10-15,ＡＬＲＥＨＭＡＮ　ＴＲＡＤＩＮＧ合同会社,,合同会社,大阪府,八尾市,大竹７丁目１６９番地,,27,212,5810854,,,,,,,2025-10-15,1,,,,,アルレーマントレーディング,0
472,2130001080670,新規,0,2025-10-15,2025-10-15,五洋株式会社,,株式会社,京都府,京都市北区,小山中溝町１４－１１－２０３,,26,101,6038156,,,,,,,2025-10-15,1,,,,,ゴヨウ,0
473,2130001080778,新規,0,2025-10-15,2025-10-15,株式会社ミヤコペイント,,株式会社,京都府,木津川市,加茂町里東鳥口４７番地４,,26,214,6191152,,,,,,,2025-10-15,1,,,,,ミヤコペイント,0
486,2140001140250,新規,0,2025-10-15,2025-10-15,Ｌｏｇｉａｒｓ株式会社,,株式会社,兵庫県,西宮市,田代町１２番５号ｖｉｖｅ２０５,,28,204,6638201,,,,,,,2025-10-15,1,,,,,ロジアルス,0
487,2140001140325,新規,0,2025-10-15,2025-10-15,株式会社Ｌｉｅｎ,,株式会社,兵庫県,西宮市,甲子園三番町７番２２号アネックス三番町１０５号,,28,204,6638173,,,,,,,2025-10-15,1,,,,,リアン,0
488,2140001140366,新規,0,2025-10-15,2025-10-15,雄喜晃株式会社,,株式会社,兵庫県,神戸市北区,鈴蘭台東町１丁目１０番１号,,28,109,6511112,,,,,,,2025-10-15,1,,,,,ユウキコウ,0
489,2140001140390,新規,0,2025-10-15,2025-10-15,山上包装器材株式会社,,株式会社,兵庫県,尼崎市,西難波町４丁目４－５ライゼホビー０６号,,28,202,6600893,,,,,,,2025-10-15,1,,,,,ヤマガミホウソウキザイ,0
492,2140003022736,新規,0,2025-10-15,2025-10-15,モリターム合同会社,,合同会社,兵庫県,神戸市東灘区,渦森台２丁目９番１０４号,,28,101,6580066,,,,,,,2025-10-15,1,,,,,モリターム,0
499,2160005011454,新規,0,2025-10-15,2025-10-15,医療法人浅田クリニック,,その他の設立登記法人,滋賀県,甲賀市,水口町東名坂２２６番地１,,25,209,5280036,,,,,,,2025-10-15,1,,,,,アサダクリニック,0
503,2180001168833,新規,0,2025-10-15,2025-10-15,エム・エス・インターナショナル株式会社,,株式会社,愛知県,名古屋市港区,高木町１丁目３７番地の１マンションキムラ４０５号室,,23,111,4550821,,,,,,,2025-10-15,1,,,,,エムエスインターナショナル,0
504,2180001169121,新規,0,2025-10-15,2025-10-15,株式会社アンタレス,,株式会社,愛知県,春日井市,東野町３丁目４番地８エステート２０２,,23,206,4860817,,,,,,,2025-10-15,1,,,,,アンタレス,0
505,2180001169170,新規,0,2025-10-15,2025-10-15,株式会社キュラス,,株式会社,愛知県,名古屋市千種区,今池３丁目２０番１５号,,23,101,4640850,,,,,,,2025-10-15,1,,,,,キュラス,0
510,2180005021278,新規,0,2025-10-15,2025-10-15,一般社団法人はるこころ,,その他の設立登記法人,愛知県,名古屋市中川区,小本１丁目７番５号,,23,110,4540828,,,,,,,2025-10-15,1,,,,,ハルココロ,0
513,2180301040329,新規,0,2025-10-15,2025-10-15,株式会社バイオレット,,株式会社,愛知県,刈谷市,小垣江町十三塚７３番地２,00141117,23,210,4480813,,,,,,,2025-10-15,1,,,,,バイオレット,0
515,2180303006765,新規,0,2025-10-15,2025-10-15,合同会社あそび創育ラボ,,合同会社,愛知県,岡崎市,中島中町４丁目６番地３０,,23,202,4440224,,,,,,,2025-10-15,1,,,,,アソビソウイクラボ,0
516,2180303006773,新規,0,2025-10-15,2025-10-15,合同会社ｂ．ｕｐ,,合同会社,愛知県,高浜市,春日町６丁目５番地５７号,,23,227,4441334,,,,,,,2025-10-15,1,,,,,,0
517,2200001044346,新規,0,2025-10-15,2025-10-15,Ｌｕｍｉｎａホールディングス株式会社,,株式会社,岐阜県,岐阜市,北一色２丁目２番２４－３号,,21,201,5008227,,,,,,,2025-10-15,1,,,,,ルミナホールディングス,0
519,2200003007103,新規,0,2025-10-15,2025-10-15,スカイトレーディング合同会社,,合同会社,岐阜県,岐阜市,黒野南３丁目１３６番地１号コスモハイツ伊藤２０３号室,,21,201,5011136,,,,,,,2025-10-15,1,,,,,スカイトレーディング,0
520,2210001020354,新規,0,2025-10-15,2025-10-15,ＷｈｉｔｅＴｒｕｓｔ株式会社,,株式会社,福井県,福井市,二の宮２丁目３２―４１,,18,201,9100015,,,,,,,2025-10-15,1,,,,,ホワイトトラスト,0
523,2230001021136,新規,0,2025-10-15,2025-10-15,弥栄商事株式会社,,株式会社,富山県,高岡市,二上町９８４番地,,16,202,9330981,,,,,,,2025-10-15,1,,,,,イヤサカショウジ,0
538,2320003004798,新規,0,2025-10-15,2025-10-15,合同会社Ｔ‐ｔｒｅｅ,,合同会社,大分県,別府市,上野口町３番１２号藤屋ビル２０４,,44,202,8740905,,,,,,,2025-10-15,1,,,,,ティーツリー,0
542,2350001019762,新規,0,2025-10-15,2025-10-15,株式会社農業創研,,株式会社,宮崎県,児湯郡川南町,大字川南１２２０番地１,,45,405,8891301,,,,,,,2025-10-15,1,,,,,ノウギョウソウケン,0
546,2360001035908,新規,0,2025-10-15,2025-10-15,株式会社Ｒｉｂｅｌ,,株式会社,沖縄県,豊見城市,字豊崎１－１１６０,,47,212,9010225,,,,,,,2025-10-15,1,,,,,リベル,0
548,2370001053149,新規,0,2025-10-15,2025-10-15,株式会社４０,,株式会社,宮城県,仙台市青葉区,立町１２番１２－７０３号,,04,101,9800822,,,,,,,2025-10-15,1,,,,,フォーティー,0
549,2370003007334,新規,0,2025-10-15,2025-10-15,テンマック・コミュニケーションズ合同会社,,合同会社,宮城県,仙台市泉区,虹の丘２丁目１２－４,,04,105,9818007,,,,,,,2025-10-15,1,,,,,テンマックコミュニケーションズ,0
551,2380001035625,新規,0,2025-10-15,2025-10-15,株式会社オールイン,,株式会社,福島県,双葉郡浪江町,大字権現堂字反町７番地,,07,547,9791521,,,,,,,2025-10-15,1,,,,,オールイン,0
563,2430001095374,新規,0,2025-10-15,2025-10-15,株式会社ノースネスト,,株式会社,北海道,札幌市中央区,南二条西５丁目３１－１ＲＭＢｌｄ．７０１,,01,101,0600062,,,,,,,2025-10-15,1,,,,,ノースネスト,0
564,2430001095424,新規,0,2025-10-15,2025-10-15,株式会社ＡＫ商会,,株式会社,北海道,千歳市,美々１２９２番９２２,,01,224,0660012,,,,,,,2025-10-15,1,,,,,エーケーショウカイ,0
565,2430001095432,新規,0,2025-10-15,2025-10-15,株式会社ＤＰＯＣＫＥＴＳ,,株式会社,北海道,虻田郡ニセコ町,字ニセコ３１０番地４４,,01,395,0481511,,,,,,,2025-10-15,1,,,,,ディーポケッツ,0
566,2430001095449,新規,0,2025-10-15,2025-10-15,株式会社ティクニシア,,株式会社,北海道,札幌市東区,北二十二条東１７丁目１番１－５０７号,,01,103,0650022,,,,,,,2025-10-15,1,,,,,ティクニシア,0
567,2430001095481,新規,0,2025-10-15,2025-10-15,株式会社Ｈｏｌｏｍｕａ,,株式会社,北海道,札幌市北区,北二十五条西１４丁目５番４８－３０７号,,01,102,0010025,,,,,,,2025-10-15,1,,,,,ホロムア,0
572,2430003018226,新規,0,2025-10-15,2025-10-15,合同会社Ｒｅｆｌｏｗ,,合同会社,北海道,札幌市手稲区,星置一条５丁目１２番３号,,01,109,0060851,,,,,,,2025-10-15,1,,,,,リフロー,0
576,2440005002805,新規,0,2025-10-15,2025-10-15,一般社団法人Ｏｌｄ　Ｔｏｗｎ　Ｊｕｎｃｔｉｏｎ　Ｈａｋｏｄａｔｅ,,その他の設立登記法人,北海道,函館市,元町２０番１６号,,01,202,0400054,,,,,,,2025-10-15,1,,,,,オールドタウンジャンクションハコダテ,0
579,2700150132529,新規,0,2025-10-15,2025-10-15,ＡＬＵＴＨＮＵＷＡＲＡ　ＰＡＲＴＳ,,外国会社等,千葉県,夷隅郡大多喜町,下大多喜３２４５番地１オフィス２号,,12,441,2980202,スリランカ民主社会主義共和国、マダワラ、カトゥガストタロード、Ｎｏ．１１３,,,,,,2025-10-15,1,,,,,アルスヌワラパーツ,0
586,3010001259417,新規,0,2025-10-15,2025-10-15,株式会社七宝,,株式会社,東京都,千代田区,六番町６番地４ＬＨ番町スクエアビル６階,,13,101,1020085,,,,,,,2025-10-15,1,,,,,シッポウ,0
590,3010003049056,新規,0,2025-10-15,2025-10-15,ＬＩＵ　Ｓｏｌｕｔｉｏｎｓ合同会社,,合同会社,東京都,千代田区,神田和泉町１番地６ー１６ヤマトビル４０５,,13,101,1010024,,,,,,,2025-10-15,1,,,,,リウソリューションズ,0
595,3010005040772,新規,0,2025-10-15,2025-10-15,一般社団法人ＡＫＡＴＳＵＫＩ,,その他の設立登記法人,東京都,文京区,本郷２丁目２２番５号６０１,,13,105,1130033,,,,,,,2025-10-15,1,,,,,アカツキ,0
597,3010103002674,新規,0,2025-10-15,2025-10-15,合同会社モン,,合同会社,東京都,八王子市,堀之内２５６番地２６９,,13,201,1920355,,,,,,,2025-10-15,1,,,,,モン,0
605,3010401193439,新規,0,2025-10-15,2025-10-15,株式会社ＩＧ７,,株式会社,東京都,港区,赤坂９丁目７番２号ミッドタウン・イースト４階,,13,103,1070052,,,,,,,2025-10-15,1,,,,,アイジーセブン,0
622,3010701048400,新規,0,2025-10-15,2025-10-15,株式会社ＮＥＯＴＯＰＩＡ,,株式会社,東京都,品川区,旗の台２丁目４番５号,,13,109,1420064,,,,,,,2025-10-15,1,,,,,ネオトピア,0
634,3011001172857,新規,0,2025-10-15,2025-10-15,株式会社Ｗｈａｂｌｅ,,株式会社,東京都,渋谷区,円山町５番３号ＭＩＥＵＸ渋谷ビル８階,,13,113,1500044,,,,,,,2025-10-15,1,,,,,ウェイブル,0
635,3011001172915,新規,0,2025-10-15,2025-10-15,株式会社ＨｏｏＧＵ,,株式会社,東京都,渋谷区,円山町５番５号渋谷橋本ビル５階,,13,113,1500044,,,,,,,2025-10-15,1,,,,,ホーグ,0
636,3011001173194,新規,0,2025-10-15,2025-10-15,株式会社いちにち,,株式会社,東京都,渋谷区,道玄坂１丁目１０－８渋谷道玄坂東急ビル２Ｆ－Ｃ,,13,113,1500043,,,,,,,2025-10-15,1,,,,,イチニチ,0
639,3011003022663,新規,0,2025-10-15,2025-10-15,合同会社ＳｅｔｔｅＬｉｎｋ,,合同会社,東京都,渋谷区,恵比寿西２丁目４番８号ウィンド恵比寿ビル８Ｆ,,13,113,1500021,,,,,,,2025-10-15,1,,,,,セッテリンク,0
640,3011003022770,新規,0,2025-10-15,2025-10-15,合同会社ＣＨＡＮＧＥ,,合同会社,東京都,渋谷区,元代々木町５１番６号コート元代々木町１０７,,13,113,1510062,,,,,,,2025-10-15,1,,,,,チェインジ,0
646,3011101113182,新規,0,2025-10-15,2025-10-15,株式会社ＦＯＵＲＳ,,株式会社,東京都,新宿区,北新宿１丁目２０番５－１３０１号,,13,104,1690074,,,,,,,2025-10-15,1,,,,,フォアース,0
647,3011101113447,新規,0,2025-10-15,2025-10-15,株式会社Ｃｏｓ＆Ｂｅａｕ,,株式会社,東京都,新宿区,大久保２丁目１番１８号プラザ新大樹ビル５０２,,13,104,1690072,,,,,,,2025-10-15,1,,,,,コスアンドビュー,0
648,3011101113496,新規,0,2025-10-15,2025-10-15,株式会社Ｐｅｒｃｈ,,株式会社,東京都,新宿区,西新宿３丁目３番１３号西新宿水間ビル６階,,13,104,1600023,,,,,,,2025-10-15,1,,,,,パーチ,0
650,3011103016301,新規,0,2025-10-15,2025-10-15,ＧＨＴコンサルティングマネジメント合同会社,,合同会社,東京都,新宿区,西新宿３丁目３番１３号西新宿水間ビル２Ｆ,,13,104,1600023,,,,,,,2025-10-15,1,,,,,ジーエイチティーコンサルティングマネジメント,0
652,3011201026689,新規,0,2025-10-15,2025-10-15,ＪＲｅｉ　Ｃｏｓｍｅｔｉｃｓ株式会社,,株式会社,東京都,中野区,東中野２丁目１４番２１－４０１号,,13,114,1640003,,,,,,,2025-10-15,1,,,,,ジェイレイコスメティクス,0
653,3011201026714,新規,0,2025-10-15,2025-10-15,株式会社ＳＴアセット・マネジメント,,株式会社,東京都,中野区,中野５丁目６７番６号ビジネスハイツ中野６０１,,13,114,1640001,,,,,,,2025-10-15,1,,,,,エスティアセットマネジメント,0
654,3011205002711,新規,0,2025-10-15,2025-10-15,監査法人新栄,,その他の設立登記法人,東京都,中野区,東中野２丁目１番６号,,13,114,1640003,,,,,,,2025-10-15,1,,,,,シンエイ,0
660,3011401027487,新規,0,2025-10-15,2025-10-15,株式会社アイランドレジデンス,,株式会社,東京都,板橋区,弥生町４番１号,,13,119,1730021,,,,,,,2025-10-15,1,,,,,アイランドレジデンス,0
663,3011501032701,新規,0,2025-10-15,2025-10-15,雄豊株式会社,,株式会社,東京都,北区,堀船３丁目２４－４－４０６,,13,117,1140004,,,,,,,2025-10-15,1,,,,,オトウ,0
668,3011601029069,新規,0,2025-10-15,2025-10-15,ＴＥＡＭ　ＴＡＯ株式会社,,株式会社,東京都,練馬区,田柄４丁目２６番１号マロンド田柄第２－２１２号,,13,120,1790073,,,,,,,2025-10-15,1,,,,,チームタオ,0
671,3011603004887,新規,0,2025-10-15,2025-10-15,合同会社レアン,,合同会社,東京都,練馬区,早宮４丁目２８番１４号,,13,120,1790085,,,,,,,2025-10-15,1,,,,,レアン,0
672,3011603004895,新規,0,2025-10-15,2025-10-15,合同会社ＴＦＤ,,合同会社,東京都,練馬区,氷川台４丁目４７番１８号,,13,120,1790084,,,,,,,2025-10-15,1,,,,,ティーエフディ,0
680,3012301014559,新規,0,2025-10-15,2025-10-15,株式会社Ｙ２Ｒ２,,株式会社,東京都,町田市,南大谷１丁目３４番２０号,,13,209,1940031,,,,,,,2025-10-15,1,,,,,ワイツーアールツー,0
681,3012401043706,新規,0,2025-10-15,2025-10-15,株式会社星野塗装,,株式会社,東京都,小金井市,貫井北町１丁目６番１３－３０１号,,13,210,1840015,,,,,,,2025-10-15,1,,,,,ホシノトソウ,0
684,3013103001497,新規,0,2025-10-15,2025-10-15,合同会社Ｒｉｃｈ　Ｌｏａｄ,,合同会社,東京都,西多摩郡瑞穂町,むさし野２丁目３２番地１４,,13,303,1901214,,,,,,,2025-10-15,1,,,,,リッチロード,0
687,3013301055048,新規,0,2025-10-15,2025-10-15,株式会社メグミ,,株式会社,東京都,豊島区,西巣鴨１丁目３５－３ペアパレス西巣鴨２０５号,,13,116,1700001,,,,,,,2025-10-15,1,,,,,メグミ,0
688,3013301055122,新規,0,2025-10-15,2025-10-15,株式会社ハーツエンターテイメント,,株式会社,東京都,豊島区,池袋２丁目６５番１号プラザフェリス３０３,,13,116,1710014,,,,,,,2025-10-15,1,,,,,ハーツエンターテイメント,0
689,3013301055139,新規,0,2025-10-15,2025-10-15,Ｐｏｌｉｓｈ株式会社,,株式会社,東京都,豊島区,池袋２丁目３６番１号ＩＮＦＩＮＩＴＹＩＫＥＢＵＫＵＲＯ８Ｆ５３号室,,13,116,1710014,,,,,,,2025-10-15,1,,,,,ポリッシュ,0
703,3020001165184,新規,0,2025-10-15,2025-10-15,株式会社フローリス,,株式会社,神奈川県,横浜市港北区,日吉１丁目８番９号,,14,109,2230061,,,,,,,2025-10-15,1,,,,,フローリス,0
710,3021001086560,新規,0,2025-10-15,2025-10-15,株式会社ｋｎｏｔ,,株式会社,神奈川県,三浦郡葉山町,堀内２１００番地の７４,,14,301,2400112,,,,,,,2025-10-15,1,,,,,ノット,0
714,3021003016672,新規,0,2025-10-15,2025-10-15,合同会社ｑｕａｌｉｔｙ,,合同会社,神奈川県,小田原市,城山１丁目１０番２１－５０５号,,14,206,2500045,,,,,,,2025-10-15,1,,,,,クオリティ,0
719,3030001169201,新規,0,2025-10-15,2025-10-15,株式会社東京企画,,株式会社,埼玉県,戸田市,新曽南１丁目１１－２３専修ビル２０１号室,,11,224,3350026,,,,,,,2025-10-15,1,,,,,,0
720,3030001169234,新規,0,2025-10-15,2025-10-15,株式会社ケイエイト,,株式会社,埼玉県,朝霞市,朝志ケ丘３丁目３番２号,,11,227,3510035,,,,,,,2025-10-15,1,,,,,ケイエイト,0
726,3030003027844,新規,0,2025-10-15,2025-10-15,合同会社ミュー不動産,,合同会社,埼玉県,草加市,旭町６丁目１５番２２号ＭＳハイツ２０１号室,,11,221,3400053,,,,,,,2025-10-15,1,,,,,ミューフドウサン,0
727,3030003027860,新規,0,2025-10-15,2025-10-15,合同会社いなかん,,合同会社,埼玉県,ふじみ野市,桜ケ丘１丁目十番二十四号,,11,245,3560059,,,,,,,2025-10-15,1,,,,,イナカン,0
730,3040001141002,新規,0,2025-10-15,2025-10-15,ＳＨホールディング株式会社,,株式会社,千葉県,東金市,山田１１５２番地１０,,12,213,2830823,,,,,,,2025-10-15,1,,,,,エスエイチホールディング,0
733,3050001057420,新規,0,2025-10-15,2025-10-15,Ａｚａｍｉ　Ｒｅａｌｉｔｙ株式会社,,株式会社,茨城県,北相馬郡利根町,大字羽根野８８０番地２１８,,08,564,3001636,,,,,,,2025-10-15,1,,,,,アザミリアリティ,0
735,3060001038675,新規,0,2025-10-15,2025-10-15,株式会社スタジオカンファー,,株式会社,栃木県,宇都宮市,上大曽町６５０番地６３ロイヤルレザン１０１０,,09,201,3200013,,,,,,,2025-10-15,1,,,,,スタジオカンファー,0
736,3060001038683,新規,0,2025-10-15,2025-10-15,株式会社ＭＩＹＡＢＩ,,株式会社,栃木県,小山市,城東３丁目１０番１５号コーポスプリング１０１号室,,09,208,3230807,,,,,,,2025-10-15,1,,,,,ミヤビ,0
737,3060001038691,新規,0,2025-10-15,2025-10-15,株式会社Ｓｔｅｐ　Ｕｐ,,株式会社,栃木県,宇都宮市,弥生１丁目１１番９号,,09,201,3200837,,,,,,,2025-10-15,1,,,,,ステップアップ,0
740,3070001043443,新規,0,2025-10-15,2025-10-15,コグレクト株式会社,,株式会社,群馬県,桐生市,境野町７丁目２１１３番地２５,,10,203,3760002,,,,,,,2025-10-15,1,,,,,コグレクト,0
749,3090001019565,新規,0,2025-10-15,2025-10-15,株式会社Ｊａｐａｎ　Ｊｅｗｅｌｓ,,株式会社,山梨県,甲府市,国母１丁目１８番８号ヴィル・クレール１０１,,19,201,4000043,,,,,,,2025-10-15,1,,,,,ジャパンジュエルズ,0
755,3110001039635,新規,0,2025-10-15,2025-10-15,株式会社ＲＥｓｔａｒｔ,,株式会社,新潟県,長岡市,宮関２丁目１－８－２０５,,15,202,9402021,,,,,,,2025-10-15,1,,,,,リスタート,0
768,3120001280782,新規,0,2025-10-15,2025-10-15,Ｅａｇｌｅ株式会社,,株式会社,大阪府,大阪市旭区,新森６丁目３－２５エクセレント新森２０３,,27,117,5350022,,,,,,,2025-10-15,1,,,,,イーグル,0
769,3120001280808,新規,0,2025-10-15,2025-10-15,株式会社ファーストウォーター,,株式会社,大阪府,大阪市淀川区,田川北２丁目５番６０号,,27,123,5320021,,,,,,,2025-10-15,1,,,,,ファーストウォーター,0
770,3120001281087,新規,0,2025-10-15,2025-10-15,ＢＯＲＩ　ＴＥＣＨ株式会社,,株式会社,大阪府,大阪市東住吉区,中野４丁目１番１６号リベラルオリエンテ中野３０４Ｂ,,27,121,5460012,,,,,,,2025-10-15,1,,,,,ボリテク,0
771,3120001281120,新規,0,2025-10-15,2025-10-15,雅明株式会社,,株式会社,大阪府,大阪市東成区,大今里３丁目１５番６号ＩｍａｚａｔｏＴｏｗｅｒ３１０Ｃ,,27,115,5370012,,,,,,,2025-10-15,1,,,,,ガメイ,0
772,3120003030681,新規,0,2025-10-15,2025-10-15,Ｏｓａｋａ　Ｚｅｎ合同会社,,合同会社,大阪府,大阪市生野区,鶴橋２丁目２－１０号,,27,116,5440031,,,,,,,2025-10-15,1,,,,,オサカゼン,0
773,3120003030863,新規,0,2025-10-15,2025-10-15,合同会社リスタート,,合同会社,大阪府,大阪市北区,梅田１丁目２－２大阪駅前第２ビル１２－１２,,27,127,5300001,,,,,,,2025-10-15,1,,,,,リスタート,0
780,3122003003353,新規,0,2025-10-15,2025-10-15,合同会社フロントライン,,合同会社,大阪府,東大阪市,御厨１丁目１－３６－３０２,,27,227,5770032,,,,,,,2025-10-15,1,,,,,フロントライン,0
781,3130001080777,新規,0,2025-10-15,2025-10-15,ジャストパートナーズ株式会社,,株式会社,京都府,京都市山科区,川田土仏１１番地１５,,26,110,6078325,,,,,,,2025-10-15,1,,,,,ジャストパートナーズ,0
782,3130001080785,新規,0,2025-10-15,2025-10-15,ＥＬＡＮ　ＦＩＤＥＬＥ　ＶＩＳＩＯＮ株式会社,,株式会社,京都府,京都市下京区,柳馬場通松原下る忠庵町３２０,,26,106,6008068,,,,,,,2025-10-15,1,,,,,エランフィデルビジョン,0
783,3130003010864,新規,0,2025-10-15,2025-10-15,合同会社雲鶴,,合同会社,京都府,京都市右京区,山ノ内中畑町５４番地,,26,108,6150085,,,,,,,2025-10-15,1,,,,,クモニツル,0
790,3140001140290,新規,0,2025-10-15,2025-10-15,ＴＡＮＭＡＳＨＩ株式会社,,株式会社,兵庫県,神戸市中央区,磯辺通１丁目１番１８号カサベラ国際プラザビル７０７号室,,28,110,6510084,,,,,,,2025-10-15,1,,,,,タンマシ,0
791,3140001140332,新規,0,2025-10-15,2025-10-15,株式会社ＭＳ,,株式会社,兵庫県,川西市,加茂４丁目７番１４－２号,,28,217,6660025,,,,,,,2025-10-15,1,,,,,エムエス,0
792,3140001140340,新規,0,2025-10-15,2025-10-15,株式会社ＭＳＬ,,株式会社,兵庫県,尼崎市,南武庫之荘１丁目２番２６号アスカディア武庫之荘２階,,28,202,6610033,,,,,,,2025-10-15,1,,,,,メゾンステラリンク,0
793,3140001140365,新規,0,2025-10-15,2025-10-15,株式会社Ｔ．Ｒ．Ｅ．Ｐ,,株式会社,兵庫県,神戸市中央区,港島中町２丁目３番地の４－４０６号,,28,110,6500046,,,,,,,2025-10-15,1,,,,,ティーアールイーピー,0
796,3150003003718,新規,0,2025-10-15,2025-10-15,合同会社うづめの森,,合同会社,奈良県,大和高田市,旭南町２番２－３０９号,,29,202,6350035,,,,,,,2025-10-15,1,,,,,ウヅメノモリ,0
799,3160005011453,新規,0,2025-10-15,2025-10-15,医療法人碧河会,,その他の設立登記法人,滋賀県,草津市,草津町１８９９番地,,25,206,5250036,,,,,,,2025-10-15,1,,,,,アイコウカイ,0
801,3170001018831,新規,0,2025-10-15,2025-10-15,株式会社和歌山防犯カメラセンター,,株式会社,和歌山県,和歌山市,冬野１２３０番地５,,30,201,6400332,,,,,,,2025-10-15,1,,,,,ワカヤマボウハンカメラセンター,0
810,3180001168840,新規,0,2025-10-15,2025-10-15,株式会社オルアナ,,株式会社,愛知県,名古屋市中村区,名駅４丁目２４番５号第２森ビル４０１,,23,105,4500002,,,,,,,2025-10-15,1,,,,,オルアナ,0
811,3180001168931,新規,0,2025-10-15,2025-10-15,ＪＡＦＦＡＲ　ＳＯＮＳ　ＭＯＴＯＲＳ株式会社,,株式会社,愛知県,弥富市,東末広３丁目２６番地,,23,235,4980063,,,,,,,2025-10-15,1,,,,,ジャファルサンズモータース,0
812,3180001169095,新規,0,2025-10-15,2025-10-15,株式会社トライズテクニコ,,株式会社,愛知県,あま市,七宝町桂河原７８番地コルティーレ・アマ１０２,,23,237,4970004,,,,,,,2025-10-15,1,,,,,トライズテクニコ,0
813,3180001169104,新規,0,2025-10-15,2025-10-15,株式会社ワンナック販売,,株式会社,愛知県,あま市,篠田南長無２６番地５,,23,237,4901211,,,,,,,2025-10-15,1,,,,,ワンナックハンバイ,0
814,3180001169112,新規,0,2025-10-15,2025-10-15,床好株式会社,,株式会社,愛知県,春日井市,関田町１丁目１２番地２,,23,206,4860855,,,,,,,2025-10-15,1,,,,,ユカヨシ,0
815,3180001169137,新規,0,2025-10-15,2025-10-15,株式会社Ｙ＆Ｍサポート,,株式会社,愛知県,名古屋市守山区,小幡南３丁目１番５０号,,23,113,4630048,,,,,,,2025-10-15,1,,,,,ワイアンドエムサポート,0
817,3180003029149,新規,0,2025-10-15,2025-10-15,ＳＡＡＤＪＡＡＮＴＲＡＤＩＮＧ合同会社,,合同会社,愛知県,岩倉市,下本町燈明庵１５９－１マンション千代１０２号,,23,228,4820005,,,,,,,2025-10-15,1,,,,,サードジョントレーディング,0
818,3180003029157,新規,0,2025-10-15,2025-10-15,合同会社ＭＨＣ,,合同会社,愛知県,名古屋市東区,葵３丁目１４番地５浅井ビル４Ｂ,,23,102,4610004,,,,,,,2025-10-15,1,,,,,エムエイチシー,0
819,3180003029165,新規,0,2025-10-15,2025-10-15,合同会社ＫＡＫＵＮＩ,,合同会社,愛知県,春日井市,松新町３丁目１５６番地,,23,206,4860931,,,,,,,2025-10-15,1,,,,,カクニ,0
820,3180003029223,新規,0,2025-10-15,2025-10-15,合同会社伊藤,,合同会社,愛知県,稲沢市,片原一色町宮西１０－４－３０５,,23,220,4928355,,,,,,,2025-10-15,1,,,,,,0
824,3220003004139,新規,0,2025-10-15,2025-10-15,合同会社Ｄｅａｒ,,合同会社,石川県,金沢市,春日町９番１３号,,17,201,9200817,,,,,,,2025-10-15,1,,,,,ディア,0
826,3240001065619,新規,0,2025-10-15,2025-10-15,株式会社元技巧,,株式会社,広島県,福山市,加茂町字芦原１６８番地７,,34,207,7202417,,,,,,,2025-10-15,1,,,,,ハジメギコウ,0
834,3260001040636,新規,0,2025-10-15,2025-10-15,金山農営振興機構株式会社,,株式会社,岡山県,岡山市北区,高野９８４,,33,101,7011142,,,,,,,2025-10-15,1,,,,,カナヤマノウエイシンコウキコウ,0
835,3260001040644,新規,0,2025-10-15,2025-10-15,株式会社ＳａＭｅ,,株式会社,岡山県,岡山市北区,幸町８番２５号,,33,101,7000903,,,,,,,2025-10-15,1,,,,,セイム,0
836,3260001040652,新規,0,2025-10-15,2025-10-15,株式会社久代車体,,株式会社,岡山県,総社市,新本７３９番地１,,33,208,7101203,,,,,,,2025-10-15,1,,,,,クシロシャタイ,0
838,3260003005380,新規,0,2025-10-15,2025-10-15,建和合同会社,,合同会社,岡山県,笠岡市,生江浜２０６０番地６,,33,205,7140055,,,,,,,2025-10-15,1,,,,,ケンワ,0
847,3330003011248,新規,0,2025-10-15,2025-10-15,ＵＮＥＥＫ合同会社,,合同会社,熊本県,熊本市中央区,島崎１丁目９‐３プレジデント島崎２０１号,,43,101,8600073,,,,,,,2025-10-15,1,,,,,ユニーク,0
848,3350001019745,新規,0,2025-10-15,2025-10-15,株式会社ハッピークリエイション,,株式会社,宮崎県,宮崎市,柳丸町１４５番地３,,45,201,8800844,,,,,,,2025-10-15,1,,,,,ハッピークリエイション,0
854,3360003015320,新規,0,2025-10-15,2025-10-15,合同会社ＲＩＭＡＲＵ,,合同会社,沖縄県,豊見城市,字渡嘉敷２９４番地１－１０１号,,47,212,9010215,,,,,,,2025-10-15,1,,,,,リマル,0
858,3370003007333,新規,0,2025-10-15,2025-10-15,合同会社いわ貴,,合同会社,宮城県,仙台市青葉区,上杉３丁目３番３２号レーヴテラス上杉１０１,,04,101,9800011,,,,,,,2025-10-15,1,,,,,イワキ,0
862,3390003002456,新規,0,2025-10-15,2025-10-15,合同会社ゆるり,,合同会社,山形県,山形市,七日町２丁目７番２３号とんがりビル３Ｆ　ｒｏｏｍ５,,06,201,9900042,,,,,,,2025-10-15,1,,,,,ユルリ,0
867,3410003004169,新規,0,2025-10-15,2025-10-15,合同会社ＮＳＲ,,合同会社,秋田県,能代市,落合字上悪土１６２番地,,05,202,0160014,,,,,,,2025-10-15,1,,,,,エヌエスアール,0
874,3430001095448,新規,0,2025-10-15,2025-10-15,株式会社食事場,,株式会社,北海道,札幌市北区,北七条西４丁目１番地１,,01,102,0600807,,,,,,,2025-10-15,1,,,,,ショクジバ,0
875,3430001095456,新規,0,2025-10-15,2025-10-15,株式会社ＣＲＥＷ,,株式会社,北海道,余市郡余市町,朝日町１２０番地２４ラメーラ１０２号室,,01,408,0460015,,,,,,,2025-10-15,1,,,,,クルー,0
880,3430003018217,新規,0,2025-10-15,2025-10-15,Ｔｅｒｒａ　Ｇｒａｃｅ合同会社,,合同会社,北海道,札幌市中央区,北二条東２丁目１－２２ラ・クラッセ札幌ステーションシティ５０３号,,01,101,0600032,,,,,,,2025-10-15,1,,,,,テラグレース,0
883,3470001020939,新規,0,2025-10-15,2025-10-15,株式会社寿総建,,株式会社,香川県,坂出市,府中町３７６２番地５,,37,203,7620024,,,,,,,2025-10-15,1,,,,,コトブキソウケン,0
886,3480001012984,新規,0,2025-10-15,2025-10-15,株式会社サンフィールド,,株式会社,徳島県,吉野川市,鴨島町上下島１５７番地２,,36,205,7760013,,,,,,,2025-10-15,1,,,,,サンフィールド,0
889,3500003003616,新規,0,2025-10-15,2025-10-15,合同会社オフィス・ゼロ,,合同会社,愛媛県,松山市,天山３丁目２番３１号ドラゴンビル２Ｆ南,,38,201,7900951,,,,,,,2025-10-15,1,,,,,オフィスゼロ,0
907,4010001259399,新規,0,2025-10-15,2025-10-15,Ｍ２Ｎ　Ｎｉｎｊａ　Ｃａｐｉｔａｌ株式会社,,株式会社,東京都,中央区,銀座３丁目１０番５号,,13,102,1040061,,,,,,,2025-10-15,1,,,,,エムツーエヌニンジャキャピタル,0
919,4010103002665,新規,0,2025-10-15,2025-10-15,グリュックマネーコンサルティング合同会社,,合同会社,東京都,八王子市,明神町３丁目２０番６号,,13,201,1920046,,,,,,,2025-10-15,1,,,,,グリュックマネーコンサルティング,0
929,4010403036090,新規,0,2025-10-15,2025-10-15,合同会社ＮＯＤＯＫＡ,,合同会社,東京都,港区,南青山５丁目１７－２－５０２,,13,103,1070062,,,,,,,2025-10-15,1,,,,,ノドカ,0
937,4010501054820,新規,0,2025-10-15,2025-10-15,相模屋株式会社,,株式会社,東京都,台東区,浅草橋２丁目８番６号シーアイマンション１００２号,,13,106,1110053,,,,,,,2025-10-15,1,,,,,サガミヤ,0
948,4010801036683,新規,0,2025-10-15,2025-10-15,株式会社イーグル,,株式会社,東京都,大田区,多摩川１丁目２２番２５号,,13,111,1460095,,,,,,,2025-10-15,1,,,,,イーグル,0
953,4010903010314,新規,0,2025-10-15,2025-10-15,アーキヴィセラデザイン合同会社,,合同会社,東京都,世田谷区,上野毛１丁目３４番２４－７０３号,,13,112,1580093,,,,,,,2025-10-15,1,,,,,アーキヴィセラデザイン,0
964,4011001172848,新規,0,2025-10-15,2025-10-15,ＬＡＳＴＬＥＡＦ株式会社,,株式会社,東京都,目黒区,祐天寺１丁目１５番３号,,13,110,1530052,,,,,,,2025-10-15,1,,,,,ラストリーフ,0
965,4011001173185,新規,0,2025-10-15,2025-10-15,ルポンコンサルティング株式会社,,株式会社,東京都,渋谷区,渋谷２丁目１９番１５号宮益坂ビルディング６０９,,13,113,1500002,,,,,,,2025-10-15,1,,,,,ルポンコンサルティング,0
966,4011003022621,新規,0,2025-10-15,2025-10-15,Ｓｏｌｍａｒｅ合同会社,,合同会社,東京都,目黒区,上目黒３丁目１９番１５－４０２号ＬＡＭＩＡＣＡＳＡＮＡＫＡＭＥＧＵＲＯ,,13,110,1530051,,,,,,,2025-10-15,1,,,,,ソルマーレ,0
967,4011003022670,新規,0,2025-10-15,2025-10-15,合同会社ＦＵＭＯＭＥＲＵ,,合同会社,東京都,渋谷区,道玄坂１丁目１０番８号渋谷道玄坂東急ビル２階Ｃ号室,,13,113,1500043,,,,,,,2025-10-15,1,,,,,フモメル,0
968,4011003022679,新規,0,2025-10-15,2025-10-15,合同会社ＡＬＰＨＡＺ,,合同会社,東京都,目黒区,原町２丁目４番７号カステーオ目黒原町１０３,,13,110,1520011,,,,,,,2025-10-15,1,,,,,アルファズ,0
972,4011101113462,新規,0,2025-10-15,2025-10-15,株式会社ＮＥＴＷＯＲＫ‐ＩＮＧ,,株式会社,東京都,新宿区,余丁町１４－４－２０３,,13,104,1620055,,,,,,,2025-10-15,1,,,,,ネットワークアイエヌジー,0
973,4011101113479,新規,0,2025-10-15,2025-10-15,株式会社ｍｙｃａｔｃｈ,,株式会社,東京都,新宿区,上落合２丁目６番９号ハウスサカキ２０２,,13,104,1610034,,,,,,,2025-10-15,1,,,,,マイキャッチ,0
974,4011101113512,新規,0,2025-10-15,2025-10-15,株式会社２４,,株式会社,東京都,新宿区,四谷４丁目３３番２号マーキュリースクエア７階,,13,104,1600004,,,,,,,2025-10-15,1,,,,,ニジ,0
975,4011103016564,新規,0,2025-10-15,2025-10-15,Ｓａｉｋｏ　ＣＯＮＣＩＥＲＧＥ　ＳＯＬＵＴＩＯＮＳ合同会社,,合同会社,東京都,新宿区,四谷三栄町２番１４号,,13,104,1600008,,,,,,,2025-10-15,1,,,,,サイコウコンシェルジュソリューションズ,0
977,4011201026705,新規,0,2025-10-15,2025-10-15,ＴＣＧ　Ｇｌｏｂａｌ　Ｌｏｇｉｓｔｉｃｓ　Ｊａｐａｎ株式会社,,株式会社,東京都,中野区,中野３丁目３６番１０号坂口中野駅前ビル２Ｆ４号室,,13,114,1640001,,,,,,,2025-10-15,1,,,,,ティーシージーグローバルロジスティクスジャパン,0
978,4011201026721,新規,0,2025-10-15,2025-10-15,日本祺洋航体育用品株式会社,,株式会社,東京都,中野区,中央４丁目１番３号ボニータ新中野ビル８階,,13,114,1640011,,,,,,,2025-10-15,1,,,,,ニホンキヨウコウタイイクヨウヒン,0
979,4011203004849,新規,0,2025-10-15,2025-10-15,合同会社マールデザイン,,合同会社,東京都,中野区,中野５丁目１０番６号,,13,114,1640001,,,,,,,2025-10-15,1,,,,,マールデザイン,0
980,4011205002710,新規,0,2025-10-15,2025-10-15,オールグロース税理士法人,,その他の設立登記法人,東京都,中野区,中野４丁目１０番２号中野セントラルパークサウス２階,,13,114,1640001,,,,,,,2025-10-15,1,,,,,オールグロース,0
986,4011403004896,新規,0,2025-10-15,2025-10-15,毅昌合同会社,,合同会社,東京都,板橋区,前野町６丁目２１－１１リジョイス常盤台３０３,,13,119,1740063,,,,,,,2025-10-15,1,,,,,ヨシマサ,0
991,4011603004886,新規,0,2025-10-15,2025-10-15,合同会社Ｇｒａｃｅ,,合同会社,東京都,練馬区,練馬１丁目２０番８号日建練馬ビル２Ｆ,,13,120,1760001,,,,,,,2025-10-15,1,,,,,グレース,0
992,4011603004894,新規,0,2025-10-15,2025-10-15,合同会社ＴＦＦ,,合同会社,東京都,練馬区,氷川台４丁目４７番１８号,,13,120,1790084,,,,,,,2025-10-15,1,,,,,ティーエフエフ,0
995,4011703004407,新規,0,2025-10-15,2025-10-15,合同会社アウラ,,合同会社,東京都,江戸川区,南篠崎町４丁目６－８パティオＩＩＩＢ,00141107,13,123,1330065,,,,,,,2025-10-15,1,,,,,アウラ,0
998,4011801046879,新規,0,2025-10-15,2025-10-15,ＡｑｕｉｌａＡｌｐｈａ株式会社,,株式会社,東京都,葛飾区,東金町３丁目１７－１０ＫＢＳ－Ｅ－８,,13,122,1250041,,,,,,,2025-10-15,1,,,,,アクイラアルファ,0
1000,4012301014541,新規,0,2025-10-15,2025-10-15,株式会社ケアビジネスコンサルティング,,株式会社,東京都,町田市,忠生２丁目１２番地２５,,13,209,1940035,,,,,,,2025-10-15,1,,,,,ケアビジネスコンサルティング,0
1001,4012301014558,新規,0,2025-10-15,2025-10-15,ライズ株式会社,,株式会社,東京都,町田市,真光寺町１３０４番地１１,,13,209,1950051,,,,,,,2025-10-15,1,,,,,ライズ,0
1003,4012303002230,新規,0,2025-10-15,2025-10-15,合同会社Ｌｕｍａ,,合同会社,東京都,町田市,原町田４丁目１１－１３天野ビル４Ｆ,,13,209,1940013,,,,,,,2025-10-15,1,,,,,ルマ,0
1005,4012401043688,新規,0,2025-10-15,2025-10-15,株式会社ラウレリア,,株式会社,東京都,府中市,晴見町１丁目２９番地の４０,,13,206,1830057,,,,,,,2025-10-15,1,,,,,ラウレリア,0
1011,4013303007921,新規,0,2025-10-15,2025-10-15,合同会社アール,,合同会社,東京都,豊島区,北大塚２丁目１６－９ライオンズマンション大塚３０１,,13,116,1700004,,,,,,,2025-10-15,1,,,,,アール,0
1021,4020001165027,新規,0,2025-10-15,2025-10-15,ＬｉｎｏＡ株式会社,,株式会社,神奈川県,横浜市西区,みなとみらい２丁目２－１横浜ランドマークプラザ５階,,14,103,2200012,,,,,,,2025-10-15,1,,,,,リノア,0
1022,4020001165200,新規,0,2025-10-15,2025-10-15,株式会社ＬＹＤＩＡ,,株式会社,神奈川県,横浜市西区,浅間町１丁目４番３号ウィザードビル４０２,,14,103,2200072,,,,,,,2025-10-15,1,,,,,リディア,0
1023,4020001165217,新規,0,2025-10-15,2025-10-15,株式会社ＢＬＲ,,株式会社,神奈川県,横浜市神奈川区,金港町５－１４クアドリフォリオ８階,,14,102,2210056,,,,,,,2025-10-15,1,,,,,ビーエルアール,0
1024,4020001165308,新規,0,2025-10-15,2025-10-15,株式会社Ｎｅｏ　Ｖｉｎｔａｇｅ,,株式会社,神奈川県,横浜市戸塚区,上倉田町２０４４番地４５,,14,110,2440816,,,,,,,2025-10-15,1,,,,,ネオヴィンテージ,0
1030,4020003029543,新規,0,2025-10-15,2025-10-15,合同会社横浜青葉プロパティーズ,,合同会社,神奈川県,横浜市青葉区,美しが丘１丁目１３番地１０吉村ビル１０７号,,14,117,2250002,,,,,,,2025-10-15,1,,,,,プロパティーズ,0
1036,4021003016688,新規,0,2025-10-15,2025-10-15,合同会社Ｃｏａｓｔｉｎ,,合同会社,神奈川県,藤沢市,辻堂西海岸２丁目１３番５～３号,,14,205,2510046,,,,,,,2025-10-15,1,,,,,コースティン,0
1046,4030003027876,新規,0,2025-10-15,2025-10-15,日南合同会社,,合同会社,埼玉県,八潮市,八潮２丁目１８番地８,,11,234,3400815,,,,,,,2025-10-15,1,,,,,ニチナン,0
1049,4040001140928,新規,0,2025-10-15,2025-10-15,株式会社中島屋,,株式会社,千葉県,茂原市,東郷２１７１番地７,,12,210,2970017,,,,,,,2025-10-15,1,,,,,,0
1054,4040005022899,新規,0,2025-10-15,2025-10-15,特定非営利活動法人ぞうとらいおんｃｌｕｂ,,その他の設立登記法人,千葉県,千葉市緑区,高津戸町２９番地３サンヴェール千葉６２３号,,12,105,2670053,,,,,,,2025-10-15,1,,,,,ゾウトライオンクラブ,0
1058,4060001038682,新規,0,2025-10-15,2025-10-15,ＳＤＧｓプロフェッショナルサービス研究所株式会社,,株式会社,栃木県,宇都宮市,今宮２丁目１７－１今宮ビル２階,,09,201,3210166,,,,,,,2025-10-15,1,,,,,エスディージーズプロフェッショナルサービスケンキュウジョ,0
1060,4070001043442,新規,0,2025-10-15,2025-10-15,株式会社ＫＫ　ＭＯＴＯＲ,,株式会社,群馬県,伊勢崎市,田部井町２丁目４８６番地３,,10,204,3792222,,,,,,,2025-10-15,1,,,,,ケーケーモーター,0
1061,4070001043450,新規,0,2025-10-15,2025-10-15,株式会社シークエンス,,株式会社,群馬県,伊勢崎市,新栄町３８８８番地１,,10,204,3720038,,,,,,,2025-10-15,1,,,,,シークエンス,0
1064,4080001027205,新規,0,2025-10-15,2025-10-15,株式会社Ｒｅｖｅ　Ｒｅｌａｔｉｏｎ,,株式会社,静岡県,藤枝市,田沼１丁目２４番８号プレシャス田沼３階,,22,214,4260061,,,,,,,2025-10-15,1,,,,,レーヴリレーション,0
1065,4080001027213,新規,0,2025-10-15,2025-10-15,株式会社ＫＴ設計事務所,,株式会社,静岡県,静岡市清水区,西久保４１０番地の１７,,22,103,4240038,,,,,,,2025-10-15,1,,,,,ケイティーセッケイジムショ,0
1088,4120001280815,新規,0,2025-10-15,2025-10-15,株式会社Ｍｉｘ　Ｓｍｉｌｅ,,株式会社,大阪府,大阪市住吉区,山之内２丁目７番２３号,,27,120,5580023,,,,,,,2025-10-15,1,,,,,ミックススマイル,0
1089,4120001280823,新規,0,2025-10-15,2025-10-15,ｈａｎｄｍａｒｋｓ株式会社,,株式会社,大阪府,大阪市北区,万歳町３番１２号,,27,127,5300028,,,,,,,2025-10-15,1,,,,,ハンドマークス,0
1090,4120001280939,新規,0,2025-10-15,2025-10-15,Ｃｅｌｌ　Ｉｍｐｅｔｕｓ株式会社,,株式会社,大阪府,大阪市東住吉区,中野４丁目１番１６号リベラルオリエンテ中野４０７Ａ,,27,121,5460012,,,,,,,2025-10-15,1,,,,,セルインパァタァス,0
1091,4120001281177,新規,0,2025-10-15,2025-10-15,株式会社けせるん,,株式会社,大阪府,大阪市淀川区,宮原１丁目４番２３－４０３号,,27,123,5320003,,,,,,,2025-10-15,1,,,,,ケセルン,0
1097,4120003030929,新規,0,2025-10-15,2025-10-15,合同会社森永,,合同会社,大阪府,大阪市東淀川区,豊新２丁目６番９号Ａｍｂｉｔｉｏｕｓ１６－３０５,,27,114,5330014,,,,,,,2025-10-15,1,,,,,モリナガ,0
1101,4120103006787,新規,0,2025-10-15,2025-10-15,サンペット合同会社,,合同会社,大阪府,堺市北区,東三国ヶ丘町２丁１番２－１０７号,,27,146,5918046,,,,,,,2025-10-15,1,,,,,サンペット,0
1103,4120901051596,新規,0,2025-10-15,2025-10-15,Ｂ‐ＤＡＮＫ株式会社,,株式会社,大阪府,高槻市,宮野町９番１２－１０２号,,27,207,5690081,,,,,,,2025-10-15,1,,,,,ビーダンク,0
1104,4120903005889,新規,0,2025-10-15,2025-10-15,合同会社Ｃｅｌｌ　Ｄｙｎａｍｉｃｓ,,合同会社,大阪府,吹田市,朝日町１３番８－１００３号,,27,205,5640027,,,,,,,2025-10-15,1,,,,,セルダイナミクス,0
1105,4122001039729,新規,0,2025-10-15,2025-10-15,株式会社ＮＯＲＩＳＡＷＡ,,株式会社,大阪府,八尾市,光町１丁目５５番地２０６号,,27,212,5810803,,,,,,,2025-10-15,1,,,,,ノリサワ,0
1106,4122003003352,新規,0,2025-10-15,2025-10-15,Ｋ．ｃｒａｆＴ合同会社,,合同会社,大阪府,東大阪市,川田１丁目１２番７号,,27,227,5780905,,,,,,,2025-10-15,1,,,,,ケイクラフト,0
1113,4130001080776,新規,0,2025-10-15,2025-10-15,京・菓粧株式会社,,株式会社,京都府,京都市上京区,西洞院通中立売下る菊屋町２５４番地１,,26,102,6028076,,,,,,,2025-10-15,1,,,,,キョウカショウ,0
1116,4140001140323,新規,0,2025-10-15,2025-10-15,シンコウ冷熱株式会社,,株式会社,兵庫県,伊丹市,桜ケ丘２丁目１－６,,28,207,6640897,,,,,,,2025-10-15,1,,,,,シンコウレイネツ,0
1117,4140001140348,新規,0,2025-10-15,2025-10-15,株式会社宝塚設備,,株式会社,兵庫県,宝塚市,武庫川町１番５号,,28,214,6650844,,,,,,,2025-10-15,1,,,,,タカラヅカセツビ,0
1118,4140001140364,新規,0,2025-10-15,2025-10-15,株式会社Ｈ．Ｓ．Ｃ．,,株式会社,兵庫県,加古川市,平岡町山之上５０１番地の５,,28,210,6750112,,,,,,,2025-10-15,1,,,,,エイチエスシー,0
1121,4140003022718,新規,0,2025-10-15,2025-10-15,合同会社ＴＡＫＥ　ＮＡＯ,,合同会社,兵庫県,神戸市中央区,東雲通１丁目７番１８号ラ・フォンテ春日野道３０１号,,28,110,6510079,,,,,,,2025-10-15,1,,,,,テイクナオ,0
1122,4140003022726,新規,0,2025-10-15,2025-10-15,合同会社ＷＡＴＡＳＥＲ,,合同会社,兵庫県,神戸市中央区,磯辺通１丁目１番１８号カサベラ国際プラザビル７０７号室,,28,110,6510084,,,,,,,2025-10-15,1,,,,,ワタセル,0
1123,4150001028468,新規,0,2025-10-15,2025-10-15,株式会社ＳＣＦ企画,,株式会社,奈良県,北葛城郡広陵町,大字三吉４７１－１３,,29,426,6350823,,,,,,,2025-10-15,1,,,,,エスシーエフキカク,0
1124,4150005009729,新規,0,2025-10-15,2025-10-15,一般社団法人やまとごころ芸術文化機構,,その他の設立登記法人,奈良県,橿原市,久米町６２０番地３ル・ソア・イースト７０１,,29,205,6340063,,,,,,,2025-10-15,1,,,,,ヤマトゴコロゲイジュツブンカキコウ,0
1125,4160003003625,新規,0,2025-10-15,2025-10-15,合同会社ゆとり,,合同会社,滋賀県,草津市,南笠東２丁目１５番９号,,25,206,5250071,,,,,,,2025-10-15,1,,,,,ユトリ,0
1133,4180001168864,新規,0,2025-10-15,2025-10-15,株式会社ＤＥＳＡＹ,,株式会社,愛知県,名古屋市南区,本城町１丁目４６番地の２,,23,112,4570053,,,,,,,2025-10-15,1,,,,,ディセイ,0
1134,4180001168906,新規,0,2025-10-15,2025-10-15,ホームページ制作株式会社,,株式会社,愛知県,名古屋市天白区,菅田１丁目２４０１番地（ライオンズマンション菅田第１０‐３０３号）,,23,116,4680043,,,,,,,2025-10-15,1,,,,,ホームページセイサク,0
1135,4180001168988,新規,0,2025-10-15,2025-10-15,株式会社Ｐｕｌａｍａ,,株式会社,愛知県,名古屋市中区,栄３丁目２７番１１号ＬＯＣＯ栄３Ｆ,,23,106,4600008,,,,,,,2025-10-15,1,,,,,プラマ,0
1136,4180001169004,新規,0,2025-10-15,2025-10-15,株式会社ワイエム総合研究所,,株式会社,愛知県,名古屋市西区,牛島町６番１号名古屋ルーセントタワー４０階,,23,104,4510046,,,,,,,2025-10-15,1,,,,,ワイエムソウゴウケンキュウジョ,0
1137,4180001169061,新規,0,2025-10-15,2025-10-15,株式会社プリーツィア,,株式会社,愛知県,一宮市,起字西茜屋４７番地,,23,203,4940006,,,,,,,2025-10-15,1,,,,,プリーツィア,0
1139,4180003029189,新規,0,2025-10-15,2025-10-15,合同会社Ｌｉｎｏａ　ＣＷ,,合同会社,愛知県,知多郡南知多町,大字豊浜字豊浦３番地の６２,,23,445,4703412,,,,,,,2025-10-15,1,,,,,リノアシーダブリュー,0
1140,4180003029206,新規,0,2025-10-15,2025-10-15,ＳＴＯＬＩＡＲＯＦＦ合同会社,,合同会社,愛知県,名古屋市天白区,元八事４丁目１８４番地シティライフ八事ＩＩ３Ｄ,00141105,23,116,4680066,,,,,,,2025-10-15,1,,,,,ストリアロフ,0
1142,4180301040310,新規,0,2025-10-15,2025-10-15,株式会社朝日会計キャリアサポート,,株式会社,愛知県,刈谷市,井ケ谷町前田４１,,23,210,4480001,,,,,,,2025-10-15,1,,,,,アサヒカイケイキャリアサポート,0
1145,4180303006771,新規,0,2025-10-15,2025-10-15,ＹＯＳＵＮ　ＪＡＰＡＮ合同会社,,合同会社,愛知県,蒲郡市,鹿島町東山８８番地２,,23,214,4430037,,,,,,,2025-10-15,1,,,,,,0
1150,4200001044328,新規,0,2025-10-15,2025-10-15,株式会社未来時計,,株式会社,岐阜県,岐阜市,新興町３３番地３,,21,201,5008375,,,,,,,2025-10-15,1,,,,,ミライドケイ,0
1151,4200001044344,新規,0,2025-10-15,2025-10-15,ＪＫＴ株式会社,,株式会社,岐阜県,山県市,谷合１２３２番地２,,21,215,5012321,,,,,,,2025-10-15,1,,,,,ジェイケイティー,0
1155,4230003002512,新規,0,2025-10-15,2025-10-15,合同会社バタフライ,,合同会社,富山県,富山市,駒見６０７番地２エム・ケイ・ワン１０２号,,16,201,9300895,,,,,,,2025-10-15,1,,,,,バタフライ,0
1160,4240001065642,新規,0,2025-10-15,2025-10-15,株式会社大和パートナーズ,,株式会社,広島県,広島市西区,己斐本町１丁目２４番１９号,,34,104,7330812,,,,,,,2025-10-15,1,,,,,ヤマトパートナーズ,0
1164,4250001021396,新規,0,2025-10-15,2025-10-15,株式会社エアクリーン宇部,,株式会社,山口県,宇部市,大字東須恵２２８４番地１,,35,202,7590206,,,,,,,2025-10-15,1,,,,,エアクリーンウベ,0
1168,4250003003830,新規,0,2025-10-15,2025-10-15,合同会社ＳＨＯＳＥＩ,,合同会社,山口県,熊毛郡田布施町,大字波野１２８０番地８,,35,343,7421502,,,,,,,2025-10-15,1,,,,,ショーセイ,0
1172,4260001040651,新規,0,2025-10-15,2025-10-15,株式会社ちとせメディカル,,株式会社,岡山県,岡山市東区,益野町４０番地,,33,103,7048175,,,,,,,2025-10-15,1,,,,,チトセメディカル,0
1180,4290001111788,新規,0,2025-10-15,2025-10-15,株式会社ＨＫＫホールディングス,,株式会社,福岡県,福岡市中央区,港２丁目３番２６号,,40,133,8100075,,,,,,,2025-10-15,1,,,,,エイチケイケイホールディングス,0
1191,4310003005110,新規,0,2025-10-15,2025-10-15,合同会社ＺａＢｏｎｎｅ,,合同会社,長崎県,佐世保市,ハウステンボス町４番地３８ハウステンボスヒルズ２　６０６,,42,202,8593243,,,,,,,2025-10-15,1,,,,,ザボン,0
1193,4320003004796,新規,0,2025-10-15,2025-10-15,Ａｎｇｅ　ｏｆ　ｓｕｂｌｉｇｈｔ合同会社,,合同会社,大分県,別府市,大字北石垣７２０番地の６,,44,202,8740000,,,,,,,2025-10-15,1,,,,,アンジェオブサブライト,0
1199,4340001027715,新規,0,2025-10-15,2025-10-15,株式会社シャイニング,,株式会社,鹿児島県,鹿屋市,大浦町１４０４２番地４,,46,203,8930067,,,,,,,2025-10-15,1,,,,,シャイニング,0
1203,4350003005049,新規,0,2025-10-15,2025-10-15,合同会社ＣＲＯＷＤ,,合同会社,宮崎県,西諸県郡高原町,大字蒲牟田１１２６番地２,,45,361,8894414,,,,,,,2025-10-15,1,,,,,クラウド,0
1208,4370001053147,新規,0,2025-10-15,2025-10-15,株式会社ＮＴ,,株式会社,宮城県,仙台市泉区,山の寺１丁目２４番１２号ハイツサコー１０３,,04,105,9813103,,,,,,,2025-10-15,1,,,,,エヌティー,0
1214,4410003004168,新規,0,2025-10-15,2025-10-15,合同会社高橋ラジオ店,,合同会社,秋田県,湯沢市,高松字久根合３９５番地１,,05,207,0190404,,,,,,,2025-10-15,1,,,,,タカハシラジオテン,0
1215,4420005007977,新規,0,2025-10-15,2025-10-15,税理士法人乗田・阿保会計事務所,,その他の設立登記法人,青森県,弘前市,大字城東４丁目４番地２０,,02,202,0368095,,,,,,,2025-10-15,1,,,,,ノリタアボカイケイジムショ,0
1219,4430001095406,新規,0,2025-10-15,2025-10-15,株式会社逢縁,,株式会社,北海道,札幌市北区,北三十三条西３丁目１番２２－３０３号,,01,102,0010033,,,,,,,2025-10-15,1,,,,,オウエン,0
1220,4430001095447,新規,0,2025-10-15,2025-10-15,株式会社ワークティブ,,株式会社,北海道,苫小牧市,矢代町１丁目１０番１４号,,01,213,0530803,,,,,,,2025-10-15,1,,,,,ワークティブ,0
1221,4430001095455,新規,0,2025-10-15,2025-10-15,株式会社Ｌｉｆｅ　Ｓｍｉｌｅ,,株式会社,北海道,札幌市東区,本町二条７丁目５番１８号,,01,103,0650042,,,,,,,2025-10-15,1,,,,,ライフスマイル,0
1222,4430001095463,新規,0,2025-10-15,2025-10-15,株式会社Ｊ‐Ｎｅｘ　Ｊａｐａｎ,,株式会社,北海道,江別市,文京台南町２０番地の２,,01,217,0690835,,,,,,,2025-10-15,1,,,,,ジェイネックスジャパン,0
1225,4430003018224,新規,0,2025-10-15,2025-10-15,合同会社Ｃｉｅｌ,,合同会社,北海道,札幌市白石区,南郷通１０丁目南４番２３号,,01,104,0030022,,,,,,,2025-10-15,1,,,,,シエル,0
1233,4500003003615,新規,0,2025-10-15,2025-10-15,合同会社クロスナイン,,合同会社,愛媛県,松山市,西長戸町二丁目１２番地,,38,201,7918017,,,,,,,2025-10-15,1,,,,,クロスナイン,0
1250,5010001258276,新規,0,2025-10-15,2025-10-15,株式会社東京ＭＡＸマネジメント,,株式会社,東京都,千代田区,神田須田町１丁目７－８ＶＯＲＴ秋葉原ＩＶ２Ｆ,00141116,13,101,1010041,,,,,,,2025-10-15,1,,,,,トウキョウマックスマネジメント,0
1251,5010003049021,新規,0,2025-10-15,2025-10-15,ＡＫ　Ｔｒａｄｉｎｇ合同会社,,合同会社,東京都,中央区,銀座１丁目２２番１１号銀座大竹ビジデンス２Ｆ,,13,102,1040061,,,,,,,2025-10-15,1,,,,,エーケートレーディング,0
1261,5010401193775,新規,0,2025-10-15,2025-10-15,株式会社セカンドスター,,株式会社,東京都,港区,新橋３丁目９番１０－３０７号,,13,103,1050004,,,,,,,2025-10-15,1,,,,,セカンドスター,0
1267,5010503008039,新規,0,2025-10-15,2025-10-15,合同会社Ｂｅａｒｉｖｅ,,合同会社,東京都,台東区,東上野３丁目１５番１４号丸山ビル１０１号室,,13,106,1100015,,,,,,,2025-10-15,1,,,,,ベアリヴ,0
1277,5010801036658,新規,0,2025-10-15,2025-10-15,ＬＩＳＯ株式会社,,株式会社,東京都,大田区,大森北１丁目３２番１号,,13,111,1430016,,,,,,,2025-10-15,1,,,,,リソー,0
1280,5010803005578,新規,0,2025-10-15,2025-10-15,合同会社高間パートナーズ,,合同会社,東京都,大田区,雪谷大塚町２２番８号,,13,111,1450067,,,,,,,2025-10-15,1,,,,,タカマパートナーズ,0
1290,5011001172764,新規,0,2025-10-15,2025-10-15,株式会社ＢｅａｎＢｅａｎ,,株式会社,東京都,渋谷区,円山町５番３号ＭＩＥＵＸ渋谷ビル８階,,13,113,1500044,,,,,,,2025-10-15,1,,,,,ビーンビーン,0
1291,5011001172847,新規,0,2025-10-15,2025-10-15,株式会社ダルマ,,株式会社,東京都,渋谷区,恵比寿３丁目３－６滝澤ビル３Ｆ,,13,113,1500013,,,,,,,2025-10-15,1,,,,,,0
1292,5011001172888,新規,0,2025-10-15,2025-10-15,株式会社ＦＡＶＯＲＳ,,株式会社,東京都,渋谷区,渋谷２丁目４番６号ａｎｉｍｏＳｈｉｂｕｙａ２－５Ｆ,,13,113,1500002,,,,,,,2025-10-15,1,,,,,フェイバーズ,0
1293,5011001173085,新規,0,2025-10-15,2025-10-15,株式会社ｂｅｔｈ,,株式会社,東京都,渋谷区,円山町５番３号ＭＩＥＵＸ渋谷ビル８階,,13,113,1500044,,,,,,,2025-10-15,1,,,,,ベス,0
1296,5011003022661,新規,0,2025-10-15,2025-10-15,ＷＨＹＰＬＵＳ合同会社,,合同会社,東京都,渋谷区,恵比寿西２丁目４番８号ウィンド恵比寿ビル８Ｆ,,13,113,1500021,,,,,,,2025-10-15,1,,,,,ホワイプラス,0
1297,5011003022678,新規,0,2025-10-15,2025-10-15,Ｎａｔｕｒａ　Ｄｒｏｐ合同会社,,合同会社,東京都,渋谷区,神宮前６丁目２３番４号桑野ビル２階,,13,113,1500001,,,,,,,2025-10-15,1,,,,,ナチュラドロップ,0
1301,5011101113478,新規,0,2025-10-15,2025-10-15,ライフアセットＦＰ株式会社,,株式会社,東京都,新宿区,百人町２丁目１番４２－１１１号,,13,104,1690073,,,,,,,2025-10-15,1,,,,,ライフアセットエフピー,0
1308,5011203004848,新規,0,2025-10-15,2025-10-15,ＮｅｘｔＢｕｉｌｄ合同会社,,合同会社,東京都,中野区,東中野５丁目１番１号,,13,114,1640003,,,,,,,2025-10-15,1,,,,,ネクストビルド,0
1313,5011401027485,新規,0,2025-10-15,2025-10-15,悠古文化芸術株式会社,,株式会社,東京都,板橋区,大谷口北町３２番１号－２０３号,,13,119,1730031,,,,,,,2025-10-15,1,,,,,ユウコブンカゲイジュツ,0
1314,5011501032690,新規,0,2025-10-15,2025-10-15,楽順株式会社,,株式会社,東京都,北区,西ケ原３丁目５４－８－２階２０１号室,,13,117,1140024,,,,,,,2025-10-15,1,,,,,ラクジュン,0
1319,5011603004885,新規,0,2025-10-15,2025-10-15,合同会社ＳＨＯＷ,,合同会社,東京都,練馬区,石神井町８丁目４５－８,,13,120,1770041,,,,,,,2025-10-15,1,,,,,ショウ,0
1320,5011603004893,新規,0,2025-10-15,2025-10-15,合同会社ＴＦＨ,,合同会社,東京都,練馬区,氷川台４丁目４７番１８号,,13,120,1790084,,,,,,,2025-10-15,1,,,,,ティーエフエイチ,0
1321,5011701028836,新規,0,2025-10-15,2025-10-15,小島ＭＳＬ＆コンサルティング株式会社,,株式会社,東京都,江戸川区,北葛西２丁目１２番２９号,,13,123,1340081,,,,,,,2025-10-15,1,,,,,コジマエムエスエルアンドコンサルティング,0
1322,5011701028844,新規,0,2025-10-15,2025-10-15,ＨＩＫＯＵ株式会社,,株式会社,東京都,江戸川区,中葛西３丁目３５番１号ＭＫＴ葛西１０２号室,,13,123,1340083,,,,,,,2025-10-15,1,,,,,ヒコウ,0
1325,5011801046894,新規,0,2025-10-15,2025-10-15,森源内装株式会社,,株式会社,東京都,葛飾区,四つ木４丁目１３－１６Ｋ－ＦＬＡＴ四つ木１０５,,13,122,1240011,,,,,,,2025-10-15,1,,,,,モリモトナイソウ,0
1327,5012301014540,新規,0,2025-10-15,2025-10-15,株式会社ヒカリズム,,株式会社,東京都,町田市,野津田町４３‐８,,13,209,1950063,,,,,,,2025-10-15,1,,,,,ヒカリズム,0
1328,5012301014557,新規,0,2025-10-15,2025-10-15,ＡＩＣ警備保障株式会社,,株式会社,東京都,町田市,常盤町３６１６番地２６,,13,209,1940213,,,,,,,2025-10-15,1,,,,,エーアイシー,0
1329,5012301014565,新規,0,2025-10-15,2025-10-15,株式会社グローバル・ニュースアジア・コンサルティング,,株式会社,東京都,町田市,木曽東４丁目１４番イ２２－１０１号,,13,209,1940036,,,,,,,2025-10-15,1,,,,,グローバルニュースアジアコンサルティング,0
1330,5012305002153,新規,0,2025-10-15,2025-10-15,一般社団法人諸上ゼミナール,,その他の設立登記法人,東京都,町田市,相原町４３４２番地,,13,209,1940211,,,,,,,2025-10-15,1,,,,,モロカミゼミナール,0
1348,5020001165182,新規,0,2025-10-15,2025-10-15,株式会社剛匠工業,,株式会社,神奈川県,川崎市幸区,戸手４丁目３番８－３２０号,,14,132,2120005,,,,,,,2025-10-15,1,,,,,ゴウショウコウギョウ,0
1349,5020001165216,新規,0,2025-10-15,2025-10-15,株式会社ＭＩＺＵ,,株式会社,神奈川県,横浜市港北区,日吉７丁目１１番２７号ヴィラージュＳＡＫＵＲＡ３０２,,14,109,2230061,,,,,,,2025-10-15,1,,,,,ミズ,0
1350,5020001165315,新規,0,2025-10-15,2025-10-15,株式会社ＵｎＣａｐ　Ｗｏｒｋｓ,,株式会社,神奈川県,横浜市西区,平沼１丁目６－１９リブゼ横浜ベイモール２０２,,14,103,2200023,,,,,,,2025-10-15,1,,,,,アンキャップワークス,0
1351,5020001165372,新規,0,2025-10-15,2025-10-15,株式会社リエラエステート,,株式会社,神奈川県,横浜市中区,元町４丁目１６８番地,,14,104,2310861,,,,,,,2025-10-15,1,,,,,リエラエステート,0
1357,5020003029575,新規,0,2025-10-15,2025-10-15,合同会社ピースワークス,,合同会社,神奈川県,横浜市西区,東久保町１４－１２－７０１,,14,103,2200062,,,,,,,2025-10-15,1,,,,,ピースワークス,0
1358,5021001086534,新規,0,2025-10-15,2025-10-15,ＥＲＩＮＯ株式会社,,株式会社,神奈川県,綾瀬市,大上９丁目１８番４号,,14,218,2521104,,,,,,,2025-10-15,1,,,,,エリノ,0
1359,5021001086559,新規,0,2025-10-15,2025-10-15,ｓｏｌｉｄ株式会社,,株式会社,神奈川県,相模原市南区,文京２丁目２０番５号,,14,153,2520307,,,,,,,2025-10-15,1,,,,,ソリッド,0
1363,5021003016687,新規,0,2025-10-15,2025-10-15,ＵＭＥＨ　ＬＯＧＩＳ合同会社,,合同会社,神奈川県,座間市,四ツ谷８７８番地の３－１０２号,,14,216,2520025,,,,,,,2025-10-15,1,,,,,ウメロジス,0
1371,5030001169117,新規,0,2025-10-15,2025-10-15,株式会社和楽,,株式会社,埼玉県,春日部市,小渕７４７番地６,,11,214,3440007,,,,,,,2025-10-15,1,,,,,ワラク,0
1372,5030001169141,新規,0,2025-10-15,2025-10-15,株式会社クロスギルド,,株式会社,埼玉県,さいたま市中央区,下落合３丁目１９番１６号,,11,105,3380002,,,,,,,2025-10-15,1,,,,,クロスギルド,0
1373,5030001169166,新規,0,2025-10-15,2025-10-15,株式会社マイラボ,,株式会社,埼玉県,川口市,大字辻１０１０番地の１,00141115,11,203,3340004,,,,,,,2025-10-15,1,,,,,マイラボ,0
1374,5030001169224,新規,0,2025-10-15,2025-10-15,株式会社Ｂ・Ｓ・Ｃ,,株式会社,埼玉県,上尾市,緑丘４丁目４番２－２０４号,,11,219,3620015,,,,,,,2025-10-15,1,,,,,ビーエスシー,0
1381,5030003027859,新規,0,2025-10-15,2025-10-15,合同会社Ｖｅｒｔｅｘ　Ｐｒｉｍｅ,,合同会社,埼玉県,加須市,礼羽１１５番地５,,11,210,3470044,,,,,,,2025-10-15,1,,,,,ヴァーテックスプライム,0
1382,5030003027875,新規,0,2025-10-15,2025-10-15,合同会社ＩｓＢｒｉｄｇｅ,,合同会社,埼玉県,朝霞市,根岸台７丁目１０番７号,,11,227,3510005,,,,,,,2025-10-15,1,,,,,イズブリッジ,0
1397,5050001057385,新規,0,2025-10-15,2025-10-15,株式会社Ｏｎｅ　Ｐｅｒｃｅｎｔ,,株式会社,茨城県,那珂市,菅谷５３２７番地１９,,08,226,3110105,,,,,,,2025-10-15,1,,,,,ワンパーセント,0
1398,5050001057427,新規,0,2025-10-15,2025-10-15,株式会社ＭＮＧ,,株式会社,茨城県,稲敷市,浮島字前浦６９７７－１４４－１２号室,,08,229,3000641,,,,,,,2025-10-15,1,,,,,エムエヌジー,0
1399,5050003009707,新規,0,2025-10-15,2025-10-15,Ｇｏｏｄ　ｓｏｎｓ物産合同会社,,合同会社,茨城県,つくば市,小野崎９７１－２,,08,220,3050034,,,,,,,2025-10-15,1,,,,,グッサンブッサン,0
1404,5080401028223,新規,0,2025-10-15,2025-10-15,株式会社松尾,,株式会社,静岡県,浜松市中央区,白洲町３１４６番地,,22,138,4311204,,,,,,,2025-10-15,1,,,,,マツオ,0
1424,5120001280401,新規,0,2025-10-15,2025-10-15,氷鑑堂株式会社,,株式会社,大阪府,大阪市阿倍野区,北畠１丁目２１番１０号,,27,119,5450035,,,,,,,2025-10-15,1,,,,,ヒョウカンドー,0
1425,5120001280731,新規,0,2025-10-15,2025-10-15,株式会社安碩,,株式会社,大阪府,大阪市住之江区,北加賀屋５丁目６番２８－９０５号,,27,125,5590011,,,,,,,2025-10-15,1,,,,,アンサク,0
1426,5120001281069,新規,0,2025-10-15,2025-10-15,中本電気エンジニアリング株式会社,,株式会社,大阪府,交野市,星田北１丁目３６番５号,,27,230,5760017,,,,,,,2025-10-15,1,,,,,ナカモトデンキエンジニアリング,0
1427,5120001281085,新規,0,2025-10-15,2025-10-15,ＥＮ毅恩国際貿易株式会社,,株式会社,大阪府,大阪市東住吉区,中野４丁目１番１６号リベラルオリエンテ中野６１２Ａ,,27,121,5460012,,,,,,,2025-10-15,1,,,,,イーエヌキオンコクサイボウエキ,0
1428,5120001281218,新規,0,2025-10-15,2025-10-15,万大株式会社,,株式会社,大阪府,大阪市西成区,萩之茶屋２丁目６－４ニューかめや１２７号室,,27,122,5570004,,,,,,,2025-10-15,1,,,,,バンダイ,0
1431,5120003030944,新規,0,2025-10-15,2025-10-15,ＶＩＥＷ合同会社,,合同会社,大阪府,大阪市中央区,常盤町１丁目１－９－４０２,,27,128,5400028,,,,,,,2025-10-15,1,,,,,ビュー,0
1444,5122001039769,新規,0,2025-10-15,2025-10-15,株式会社ＳＦＩＤＡ,,株式会社,大阪府,八尾市,木の本２丁目１１９番地,,27,212,5810044,,,,,,,2025-10-15,1,,,,,スフィーダ,0
1445,5122001039785,新規,0,2025-10-15,2025-10-15,株式会社ＳＦＣ,,株式会社,大阪府,四條畷市,二丁通町２５番１３号,,27,229,5750044,,,,,,,2025-10-15,1,,,,,エスエフシー,0
1447,5122003003351,新規,0,2025-10-15,2025-10-15,曠野合同会社,,合同会社,大阪府,東大阪市,南四条町５－５,,27,227,5798054,,,,,,,2025-10-15,1,,,,,コウヤ,0
1452,5130001080800,新規,0,2025-10-15,2025-10-15,グッドモーニング株式会社,,株式会社,京都府,京都市北区,紫野西御所田町１４番地２サンケイビル２階,,26,101,6038165,,,,,,,2025-10-15,1,,,,,グッドモーニング,0
1457,5140001140215,新規,0,2025-10-15,2025-10-15,株式会社鶴屋,,株式会社,兵庫県,姫路市,南畝町１丁目９５番地,,28,201,6700961,,,,,,,2025-10-15,1,,,,,ツルヤ,0
1458,5140001140297,新規,0,2025-10-15,2025-10-15,株式会社グローバル管財,,株式会社,兵庫県,多可郡多可町,八千代区下野間６７０番地１１,,28,365,6770122,,,,,,,2025-10-15,1,,,,,グローバルカンザイ,0
1459,5140001140330,新規,0,2025-10-15,2025-10-15,株式会社ＹＭＳ,,株式会社,兵庫県,神戸市東灘区,本山南町３丁目５番１０－１０２１号,,28,101,6580015,,,,,,,2025-10-15,1,,,,,ワイエムエス,0
1460,5140001140347,新規,0,2025-10-15,2025-10-15,株式会社ｇｌｏｗ,,株式会社,兵庫県,伊丹市,平松４丁目３番４号,,28,207,6640853,,,,,,,2025-10-15,1,,,,,グロー,0
1461,5140001140363,新規,0,2025-10-15,2025-10-15,株式会社テイクルートメディカル,,株式会社,兵庫県,神戸市西区,櫨谷町友清字宮下２２番地１－１０３,,28,111,6512232,,,,,,,2025-10-15,1,,,,,テイクルートメディカル,0
1469,5140003022709,新規,0,2025-10-15,2025-10-15,合同会社マックススカイ,,合同会社,兵庫県,芦屋市,業平町３番６号ＧＲＯＯＶＥ芦屋ＢＬＤＧ３０１,,28,206,6590068,,,,,,,2025-10-15,1,,,,,マックススカイ,0
1470,5140005027664,新規,0,2025-10-15,2025-10-15,丹波街商事業協同組合,,その他の設立登記法人,兵庫県,丹波篠山市,本郷５３番１,,28,221,6692702,,,,,,,2025-10-15,1,,,,,タンバガイショウ,0
1471,5150003003724,新規,0,2025-10-15,2025-10-15,ＰＡＮＤＡ合同会社,,合同会社,奈良県,奈良市,三条町５９３－１７,,29,201,6308244,,,,,,,2025-10-15,1,,,,,パンダ,0
1493,5180001168970,新規,0,2025-10-15,2025-10-15,株式会社百,,株式会社,愛知県,長久手市,東浦５０１番地,,23,238,4801174,,,,,,,2025-10-15,1,,,,,モモ,0
1494,5180001169036,新規,0,2025-10-15,2025-10-15,株式会社ｃ．ｂ．ａ,,株式会社,愛知県,日進市,五色園１丁目１１２４番地,,23,230,4700105,,,,,,,2025-10-15,1,,,,,シービーエー,0
1495,5180001169085,新規,0,2025-10-15,2025-10-15,株式会社ＡＴＷ,,株式会社,愛知県,岩倉市,下本町下市場１３４番地１角島ビル１階西,,23,228,4820005,,,,,,,2025-10-15,1,,,,,エイティーダブリュー,0
1496,5180001169143,新規,0,2025-10-15,2025-10-15,株式会社ＧＯＨＡＮライフ,,株式会社,愛知県,知多市,岡田美里町５４番地の２,,23,224,4780062,,,,,,,2025-10-15,1,,,,,ゴハンライフ,0
1497,5180001169151,新規,0,2025-10-15,2025-10-15,株式会社セレンディア,,株式会社,愛知県,名古屋市瑞穂区,弥富町字月見ケ岡５番地７,,23,108,4670000,,,,,,,2025-10-15,1,,,,,セレンディア,0
1500,5180003029213,新規,0,2025-10-15,2025-10-15,合同会社はつぽぽライフパートナー,,合同会社,愛知県,名古屋市緑区,小坂１丁目８０１番地の１,,23,114,4580022,,,,,,,2025-10-15,1,,,,,ハツポポライフパートナー,0
1509,5200001044343,新規,0,2025-10-15,2025-10-15,ＳＧＨ株式会社,,株式会社,岐阜県,大垣市,禾森町２丁目３番地,,21,202,5030852,,,,,,,2025-10-15,1,,,,,エスジーエイチ,0
1513,5230001021133,新規,0,2025-10-15,2025-10-15,株式会社ジェネラス,,株式会社,富山県,富山市,神通本町１丁目３番１４号,,16,201,9300008,,,,,,,2025-10-15,1,,,,,ジェネラス,0
1514,5230001021141,新規,0,2025-10-15,2025-10-15,水持商事株式会社,,株式会社,富山県,高岡市,下関１５３７番地２,,16,202,9330860,,,,,,,2025-10-15,1,,,,,ミズモチショウジ,0
1517,5240003007443,新規,0,2025-10-15,2025-10-15,合同会社ユータック,,合同会社,広島県,山県郡北広島町,有田６２番地,,34,369,7311533,,,,,,,2025-10-15,1,,,,,ユータック,0
1521,5260001040634,新規,0,2025-10-15,2025-10-15,株式会社ライトアップ,,株式会社,岡山県,赤磐市,西軽部２７９番地５,,33,213,7012215,,,,,,,2025-10-15,1,,,,,ライトアップ,0
1522,5260001040642,新規,0,2025-10-15,2025-10-15,株式会社ＦＤ,,株式会社,岡山県,岡山市東区,西大寺新６９６番地,,33,103,7048127,,,,,,,2025-10-15,1,,,,,エフディ,0
1523,5260001040650,新規,0,2025-10-15,2025-10-15,戀衣株式会社,,株式会社,岡山県,岡山市北区,駅元町２６番１７号,,33,101,7000024,,,,,,,2025-10-15,1,,,,,コイゴロモ,0
1527,5290801031945,新規,0,2025-10-15,2025-10-15,株式会社結の輪,,株式会社,福岡県,直方市,大字山部１４７４番地６,,40,204,8220034,,,,,,,2025-10-15,1,,,,,ユイノワ,0
1529,5320001021396,新規,0,2025-10-15,2025-10-15,株式会社見矢野総業,,株式会社,大分県,豊後高田市,来縄２４９３番地１,,44,209,8790614,,,,,,,2025-10-15,1,,,,,ミヤノソウギョウ,0
1552,5380003006159,新規,0,2025-10-15,2025-10-15,小名浜養鶏合同会社,,合同会社,福島県,いわき市,小名浜上神白字神明前８６番地の１４,,07,204,9700317,,,,,,,2025-10-15,1,,,,,オナハマヨウケイ,0
1559,5400005008522,新規,0,2025-10-15,2025-10-15,一般社団法人日本ＭＧレジストリー研究会,,その他の設立登記法人,岩手県,花巻市,御田屋町４番５６号,,03,205,0250082,,,,,,,2025-10-15,1,,,,,ニホンエムジーレジストリーケンキュウカイ,0
1566,5430001095355,新規,0,2025-10-15,2025-10-15,株式会社Ｂｅｒａｔｉｍ,,株式会社,北海道,札幌市手稲区,新発寒二条３丁目１１番１３号,,01,109,0060802,,,,,,,2025-10-15,1,,,,,ベェラティム,0
1567,5430001095405,新規,0,2025-10-15,2025-10-15,株式会社ＥＩ,,株式会社,北海道,札幌市北区,北三十三条西３丁目１番２２－３０３号,,01,102,0010033,,,,,,,2025-10-15,1,,,,,イーアイ,0
1568,5430001095438,新規,0,2025-10-15,2025-10-15,仁井工業株式会社,,株式会社,北海道,江別市,牧場町３３番地の１０,,01,217,0670005,,,,,,,2025-10-15,1,,,,,ニイコウギョウ,0
1569,5430001095446,新規,0,2025-10-15,2025-10-15,株式会社北琉ライン,,株式会社,北海道,札幌市西区,平和二条２丁目１０番８号,,01,107,0630022,,,,,,,2025-10-15,1,,,,,ホクリュウライン,0
1570,5430001095462,新規,0,2025-10-15,2025-10-15,タモレア株式会社,,株式会社,北海道,札幌市北区,篠路町拓北８２番地１６,,01,102,0028054,,,,,,,2025-10-15,1,,,,,タモレア,0
1571,5430001095470,新規,0,2025-10-15,2025-10-15,株式会社高田,,株式会社,北海道,札幌市手稲区,富丘二条２丁目７番１３－９０５号,,01,109,0060012,,,,,,,2025-10-15,1,,,,,タカダ,0
1572,5430001095479,新規,0,2025-10-15,2025-10-15,株式会社イーテック,,株式会社,北海道,札幌市中央区,南二条西５丁目３１番地１ＭＲＢｌｄ．７０１,,01,101,0600062,,,,,,,2025-10-15,1,,,,,イーテック,0
1574,5430003018215,新規,0,2025-10-15,2025-10-15,合同会社ネクスト,,合同会社,北海道,札幌市西区,山の手三条２丁目１－１ラグゼ山の手４０６,,01,107,0630003,,,,,,,2025-10-15,1,,,,,ネクスト,0
1585,5500005008826,新規,0,2025-10-15,2025-10-15,社会福祉法人燦燦会,,その他の設立登記法人,愛媛県,伊予郡松前町,大字筒井８７９番地１,,38,401,7913120,,,,,,,2025-10-15,1,,,,,サンサンカイ,0
1586,5700150132534,新規,0,2025-10-15,2025-10-15,ＹＵＫＩ　ＴＥＣ,,外国会社等,奈良県,桜井市,大字吉備７６０番地６－２,,29,206,6330065,スリランカ民主社会主義共和国、ポルゴッラ、ドラガムワロード、Ｎｏ．１０／Ｄ,,,,,,2025-10-15,1,,,,,ユキテツク,0
1597,6010001259208,新規,0,2025-10-15,2025-10-15,モルガントランスポート株式会社,,株式会社,東京都,中央区,日本橋本石町４丁目５番３号,,13,102,1030021,,,,,,,2025-10-15,1,,,,,,0
1598,6010001259331,新規,0,2025-10-15,2025-10-15,株式会社ＲｅＢｏｒｎ　Ｌａｂ,,株式会社,東京都,中央区,銀座１丁目１５番４号ヒューリック銀座一丁目昭和通りビル１０階,,13,102,1040061,,,,,,,2025-10-15,1,,,,,リボーンラボ,0
1599,6010001259397,新規,0,2025-10-15,2025-10-15,株式会社Ｔｒｉｐｌｅ　ｏｎｅ,,株式会社,東京都,中央区,日本橋室町１丁目１１番１２号日本橋水野ビル７階,,13,102,1030022,,,,,,,2025-10-15,1,,,,,トリプルワン,0
1600,6010001259406,新規,0,2025-10-15,2025-10-15,ｅｄｇｅ株式会社,,株式会社,東京都,中央区,日本橋室町１丁目１１番１２号日本橋水野ビル７階,,13,102,1030022,,,,,,,2025-10-15,1,,,,,エッジ,0
1601,6010001259422,新規,0,2025-10-15,2025-10-15,株式会社ＲＣＸセールス,,株式会社,東京都,千代田区,外神田３丁目６番１０号,,13,101,1010021,,,,,,,2025-10-15,1,,,,,ロックセールス,0
1602,6010001259447,新規,0,2025-10-15,2025-10-15,株式会社Ｒｏｎｏ,,株式会社,東京都,文京区,関口２丁目４番４－１０３号,,13,105,1120014,,,,,,,2025-10-15,1,,,,,ロノ,0
1621,6010401193535,新規,0,2025-10-15,2025-10-15,株式会社Ｇｔａｘ,,株式会社,東京都,港区,六本木５丁目２番１号ほうらいやビル４Ｆ４０２号,,13,103,1060032,,,,,,,2025-10-15,1,,,,,ジータックス,0
1622,6010401193808,新規,0,2025-10-15,2025-10-15,株式会社ＡＧＳＰＣ４１,,株式会社,東京都,港区,赤坂２丁目２３番１号,,13,103,1070052,,,,,,,2025-10-15,1,,,,,エージーエスピーシーヨンイチ,0
1625,6010501054827,新規,0,2025-10-15,2025-10-15,株式会社ＨＯＴＥＬ　ＳＥＩＫＡ,,株式会社,東京都,台東区,上野３丁目２８番７号,,13,106,1100005,,,,,,,2025-10-15,1,,,,,ホテルセイカ,0
1627,6010503008038,新規,0,2025-10-15,2025-10-15,フラワーネーム合同会社,,合同会社,東京都,台東区,元浅草３丁目１７番４号ヤマヒロビル３０３,,13,106,1110041,,,,,,,2025-10-15,1,,,,,フラワーネーム,0
1636,6010801036698,新規,0,2025-10-15,2025-10-15,華豊日本物流株式会社,,株式会社,東京都,大田区,大森北６丁目２番２９号ＦＳＣビル,,13,111,1430016,,,,,,,2025-10-15,1,,,,,カホウニホンブツリュウ,0
1641,6011001172689,新規,0,2025-10-15,2025-10-15,株式会社ビットフォーム,,株式会社,東京都,渋谷区,道玄坂１丁目１０番８号渋谷道玄坂東急ビル２Ｆ－Ｃ,,13,113,1500043,,,,,,,2025-10-15,1,,,,,ビットフォーム,0
1642,6011001172854,新規,0,2025-10-15,2025-10-15,株式会社ヘルシオン,,株式会社,東京都,渋谷区,円山町５番３号ＭＩＥＵＸ渋谷ビル８階,,13,113,1500044,,,,,,,2025-10-15,1,,,,,ヘルシオン,0
1643,6011001172887,新規,0,2025-10-15,2025-10-15,株式会社ＮＯＶＵＳ,,株式会社,東京都,渋谷区,恵比寿西２丁目４番８号ウィンド恵比寿ビル８Ｆ,,13,113,1500021,,,,,,,2025-10-15,1,,,,,ノーヴス,0
1644,6011001173118,新規,0,2025-10-15,2025-10-15,ジャパンルーツ株式会社,,株式会社,東京都,渋谷区,道玄坂１丁目１０番８号渋谷道玄坂東急ビル２Ｆ－Ｃ,,13,113,1500043,,,,,,,2025-10-15,1,,,,,ジャパンルーツ,0
1647,6011003022669,新規,0,2025-10-15,2025-10-15,合同会社クラディスク,,合同会社,東京都,渋谷区,代々木２丁目３４番８号フロレスタ代々木１０２,,13,113,1510053,,,,,,,2025-10-15,1,,,,,クラディスク,0
1648,6011003022677,新規,0,2025-10-15,2025-10-15,合同会社イチマルク越智,,合同会社,東京都,目黒区,東山３丁目６番１号アヴリルＳＨＩＢＵＹＡ,,13,110,1530043,,,,,,,2025-10-15,1,,,,,イチマルクオチ,0
1652,6011101113485,新規,0,2025-10-15,2025-10-15,株式会社ＴＸホールディングス,,株式会社,東京都,新宿区,西新宿７丁目２３番１号ＴＳビル３Ｆ,,13,104,1600023,,,,,,,2025-10-15,1,,,,,ティーエックスホールディングス,0
1653,6011101113527,新規,0,2025-10-15,2025-10-15,株式会社ＣＲＹ,,株式会社,東京都,新宿区,西新宿３丁目３番１３号西新宿水間ビル６階,,13,104,1600023,,,,,,,2025-10-15,1,,,,,クライ,0
1654,6011103016505,新規,0,2025-10-15,2025-10-15,合同会社ｄｅｐｔ３０１,,合同会社,東京都,新宿区,西新宿３丁目３番１３号西新宿水間ビル２Ｆ,,13,104,1600023,,,,,,,2025-10-15,1,,,,,デプトサンマルイチ,0
1656,6011201026703,新規,0,2025-10-15,2025-10-15,株式会社ＮＥＸＴ　ＳＴＥＰ　ＪＡＰＡＮ,,株式会社,東京都,中野区,中野５丁目３７番５号コーポ明日香２０２,,13,114,1640001,,,,,,,2025-10-15,1,,,,,ネクストステップジャパン,0
1657,6011201026711,新規,0,2025-10-15,2025-10-15,Ｋスクエア株式会社,,株式会社,東京都,中野区,松が丘２丁目１６番４号,,13,114,1650024,,,,,,,2025-10-15,1,,,,,ケイスクエア,0
1660,6011303005753,新規,0,2025-10-15,2025-10-15,合同会社チーク,,合同会社,東京都,杉並区,阿佐谷北４丁目２４番１１号ファミール阿佐ヶ谷２０５,,13,115,1660001,,,,,,,2025-10-15,1,,,,,チーク,0
1662,6011401027492,新規,0,2025-10-15,2025-10-15,株式会社ボックスウッド,,株式会社,東京都,板橋区,大山町５４番５－９０２号,,13,119,1730023,,,,,,,2025-10-15,1,,,,,ボックスウッド,0
1664,6011603004884,新規,0,2025-10-15,2025-10-15,生咲く合同会社,,合同会社,東京都,練馬区,大泉学園町８丁目１９番７号,,13,120,1780061,,,,,,,2025-10-15,1,,,,,キサク,0
1665,6011603004892,新規,0,2025-10-15,2025-10-15,合同会社ＴＦＬ,,合同会社,東京都,練馬区,氷川台４丁目４７番１８号,,13,120,1790084,,,,,,,2025-10-15,1,,,,,ティーエフエル,0
1668,6011801046927,新規,0,2025-10-15,2025-10-15,株式会社モーニングスタート,,株式会社,東京都,葛飾区,柴又５丁目３８番１２号,,13,122,1250052,,,,,,,2025-10-15,1,,,,,モーニングスタート,0
1671,6012301014564,新規,0,2025-10-15,2025-10-15,株式会社ｇｌｏｂａｌｎｅｗｓａｓｉａ．ｃｏｍ,,株式会社,東京都,町田市,木曽東４丁目１４番イ２２－１０１号,,13,209,1940036,,,,,,,2025-10-15,1,,,,,グローバルニュースアジアドットコム,0
1688,6020001165157,新規,0,2025-10-15,2025-10-15,株式会社ＮＯＩＲ　Ｌａｂ,,株式会社,神奈川県,横浜市青葉区,たちばな台２丁目１２番地３４,,14,117,2270046,,,,,,,2025-10-15,1,,,,,ノワールラボ,0
1689,6020001165215,新規,0,2025-10-15,2025-10-15,株式会社Ｓｔａｒｔ　Ｚｅｒｏ,,株式会社,神奈川県,横浜市港北区,箕輪町２丁目７番３６－８１５号,,14,109,2230051,,,,,,,2025-10-15,1,,,,,スタートゼロ,0
1690,6020001165264,新規,0,2025-10-15,2025-10-15,Ｃｏｂｒａｎｃｈｏｒ株式会社,,株式会社,神奈川県,横浜市青葉区,あざみ野南２丁目５番地１０,,14,117,2250012,,,,,,,2025-10-15,1,,,,,コブランカー,0
1691,6020001165339,新規,0,2025-10-15,2025-10-15,株式会社Ｎａｔｕｒｅ＆Ｍｕｓｉｃ,,株式会社,神奈川県,横浜市栄区,本郷台４丁目６番８号,,14,115,2470008,,,,,,,2025-10-15,1,,,,,ネイチャーアンドミュージック,0
1704,6020003029459,新規,0,2025-10-15,2025-10-15,Ａｌｔａｉｎｓｌａ合同会社,,合同会社,神奈川県,横浜市神奈川区,金港町５－１４クアドリフォリオ８階,,14,102,2210056,,,,,,,2025-10-15,1,,,,,アルタインスラ,0
1712,6030001168927,新規,0,2025-10-15,2025-10-15,株式会社ＲｏｃｋＳｃａｌｅ,,株式会社,埼玉県,さいたま市大宮区,桜木町２丁目３番地大宮マルイ７階,,11,103,3300854,,,,,,,2025-10-15,1,,,,,,0
1713,6030001169132,新規,0,2025-10-15,2025-10-15,株式会社リリーフライフ,,株式会社,埼玉県,和光市,下新倉４丁目１２番２７号,,11,229,3510111,,,,,,,2025-10-15,1,,,,,リリーフライフ,0
1714,6030001169207,新規,0,2025-10-15,2025-10-15,株式会社ＳｋｉｎＰｏｒｔ　Ｊａｐａｎ,,株式会社,埼玉県,鶴ヶ島市,大字五味ヶ谷１１０番地４,,11,241,3502202,,,,,,,2025-10-15,1,,,,,スキンポートジャパン,0
1717,6030003027874,新規,0,2025-10-15,2025-10-15,合同会社すずめリフォーム,,合同会社,埼玉県,所沢市,大字松郷７０番地の２５,,11,208,3590027,,,,,,,2025-10-15,1,,,,,スズメリフォーム,0
1718,6030003027882,新規,0,2025-10-15,2025-10-15,合同会社イサンコンサルティングファーム,,合同会社,埼玉県,朝霞市,西原１丁目５番５号３Ｆ,,11,227,3510034,,,,,,,2025-10-15,1,,,,,イサンコンサルティングファーム,0
1719,6030005022304,新規,0,2025-10-15,2025-10-15,ＴＡＳＩＡＳ税理士法人,,その他の設立登記法人,埼玉県,熊谷市,銀座３丁目９７番地２,,11,202,3600032,,,,,,,2025-10-15,1,,,,,タシアス,0
1722,6040001140926,新規,0,2025-10-15,2025-10-15,エクステンシブグループ株式会社,,株式会社,千葉県,松戸市,胡録台２１３番地の５,,12,207,2710075,,,,,,,2025-10-15,1,,,,,エクステンシブグループ,0
1724,6040003028748,新規,0,2025-10-15,2025-10-15,ＮＭＴＦ合同会社,,合同会社,千葉県,野田市,清水４１９番地の３５,,12,208,2780043,,,,,,,2025-10-15,1,,,,,エヌエムティーエフ,0
1725,6040005022897,新規,0,2025-10-15,2025-10-15,一般社団法人アドボカシー・フォー・エド・ウェルフェア・イニシアチブ,,その他の設立登記法人,千葉県,松戸市,樋野口８０４番地新渡辺マンション３０２号,,12,207,2710067,,,,,,,2025-10-15,1,,,,,アドボカシーフォーエドウェルフェアイニシアチブ,0
1728,6050001057450,新規,0,2025-10-15,2025-10-15,株式会社恒真,,株式会社,茨城県,稲敷郡阿見町,岡崎２丁目２９番地３,,08,443,3000335,,,,,,,2025-10-15,1,,,,,コウシン,0
1729,6050003009648,新規,0,2025-10-15,2025-10-15,合同会社ＹＮＧ,,合同会社,茨城県,つくば市,春日３丁目５番地４Ｂ２０１,,08,220,3050821,,,,,,,2025-10-15,1,,,,,,0
1730,6050003009689,新規,0,2025-10-15,2025-10-15,合同会社ｃｏｏｐｉｎｏｎ,,合同会社,茨城県,つくば市,梅園２丁目３２番地１１,,08,220,3050045,,,,,,,2025-10-15,1,,,,,クーピノン,0
1735,6070001043440,新規,0,2025-10-15,2025-10-15,株式会社角田製菓,,株式会社,群馬県,高崎市,大沢町２３１番地８,,10,202,3700012,,,,,,,2025-10-15,1,,,,,ツノダセイカ,0
1736,6070001043449,新規,0,2025-10-15,2025-10-15,陽光リュクス株式会社,,株式会社,群馬県,高崎市,金古町１８４２番地３,,10,202,3703511,,,,,,,2025-10-15,1,,,,,ヨウコウリュクス,0
1740,6080103003449,新規,0,2025-10-15,2025-10-15,合同会社源助,,合同会社,静岡県,三島市,青木８６―３,,22,206,4110811,,,,,,,2025-10-15,1,,,,,ゲンスケ,0
1741,6080405007775,新規,0,2025-10-15,2025-10-15,医療法人社団互徳会,,その他の設立登記法人,静岡県,浜松市中央区,小沢渡町１０９８番地の２,,22,138,4328063,,,,,,,2025-10-15,1,,,,,ゴトクカイ,0
1760,6120001280813,新規,0,2025-10-15,2025-10-15,Ｂｒｉｇｈｔｅｒ　Ｅｎｇｌｉｓｈ　Ｃｏａｃｈｉｎｇ株式会社,,株式会社,大阪府,大阪市北区,梅田１丁目２番２号大阪駅前第２ビル１２－１２,,27,127,5300001,,,,,,,2025-10-15,1,,,,,ブライターイングリッシュコーチング,0
1761,6120001280854,新規,0,2025-10-15,2025-10-15,株式会社イグニスタ,,株式会社,大阪府,大阪市港区,弁天１丁目２－３０オークプリオタワー２３０２号室,,27,107,5520007,,,,,,,2025-10-15,1,,,,,イグニスタ,0
1762,6120001281217,新規,0,2025-10-15,2025-10-15,Ｓｋｉ　Ｓｎｏｗｂｏａｒｄ　Ｃｌａｓｓ株式会社,,株式会社,大阪府,大阪市西成区,萩之茶屋２丁目６－４ニューかめや２３０号室,,27,122,5570004,,,,,,,2025-10-15,1,,,,,スキースノーボードクラス,0
1778,6122001039743,新規,0,2025-10-15,2025-10-15,株式会社ＮＴＩ,,株式会社,大阪府,東大阪市,新庄３丁目２３－２,,27,227,5780963,,,,,,,2025-10-15,1,,,,,エヌティアイ,0
1780,6122003003350,新規,0,2025-10-15,2025-10-15,合同会社アクシス３５８,,合同会社,大阪府,東大阪市,玉串元町２丁目６番４３号,,27,227,5780933,,,,,,,2025-10-15,1,,,,,アクシスサンゴーハチ,0
1784,6130001080758,新規,0,2025-10-15,2025-10-15,シルクチップ株式会社,,株式会社,京都府,京都市下京区,中堂寺粟田町９３番地ＫＲＰ４号館,,26,106,6008815,,,,,,,2025-10-15,1,,,,,シルクチップ,0
1785,6130001080799,新規,0,2025-10-15,2025-10-15,株式会社京ひさ,,株式会社,京都府,京都市下京区,七条通油小路東入大黒町２２７番地第２キョートビル４０２,,26,106,6008223,,,,,,,2025-10-15,1,,,,,キョウヒサ,0
1793,6140001140288,新規,0,2025-10-15,2025-10-15,株式会社ＵＩ,,株式会社,兵庫県,神戸市西区,北別府２丁目１５番地の２,,28,111,6512117,,,,,,,2025-10-15,1,,,,,ユーアイ,0
1794,6140001140354,新規,0,2025-10-15,2025-10-15,株式会社ｇｏｏｍｅｅ,,株式会社,兵庫県,尼崎市,武庫之荘６丁目２４番１６号,,28,202,6610035,,,,,,,2025-10-15,1,,,,,グミ,0
1800,6160001027137,新規,0,2025-10-15,2025-10-15,株式会社ひまわりプランニング印刷,,株式会社,滋賀県,大津市,伊香立下在地町９３１番地,,25,201,5200352,,,,,,,2025-10-15,1,,,,,ヒマワリプランニングインサツ,0
1807,6180001168862,新規,0,2025-10-15,2025-10-15,Ｌｉｔｅｆｕｌｌ株式会社,,株式会社,愛知県,名古屋市中村区,名駅４丁目２４番５号第２森ビル４０１,,23,105,4500002,,,,,,,2025-10-15,1,,,,,ライトフル,0
1808,6180001169084,新規,0,2025-10-15,2025-10-15,手々技研株式会社,,株式会社,愛知県,弥富市,西中地町中島１１１番地１２,,23,235,4980001,,,,,,,2025-10-15,1,,,,,テテギケン,0
1809,6180001169150,新規,0,2025-10-15,2025-10-15,株式会社福翔,,株式会社,愛知県,大府市,東新町６丁目５９番地,,23,223,4740073,,,,,,,2025-10-15,1,,,,,フクショウ,0
1812,6180003029179,新規,0,2025-10-15,2025-10-15,ＺＲＴ　ＮＩＰＰＯＮ　ＥＸＰＯＲＴ合同会社,,合同会社,愛知県,一宮市,下沼町１丁目２番地１０,,23,203,4910032,,,,,,,2025-10-15,1,,,,,ズィーアールティーニッポンエクスポート,0
1813,6180003029187,新規,0,2025-10-15,2025-10-15,ＺＭ　ＴＲＡＤＩＮＧ合同会社,,合同会社,愛知県,豊明市,新田町前原１－２コーポ前原４０１号,,23,229,4701115,,,,,,,2025-10-15,1,,,,,ゼットエムトレーディング,0
1814,6180003029204,新規,0,2025-10-15,2025-10-15,センチュリーシティー投資管理合同会社,,合同会社,愛知県,東海市,荒尾町寺下２９－１,,23,222,4760003,,,,,,,2025-10-15,1,,,,,センチュリーシティートウシカンリ,0
1815,6180003029220,新規,0,2025-10-15,2025-10-15,合同会社Ｂｅ‐ｙｏｕｒｓｅｌｆ,,合同会社,愛知県,名古屋市千種区,池下町２丁目６３番地の２５,,23,101,4640066,,,,,,,2025-10-15,1,,,,,ビーユアセルフ,0
1816,6180003029245,新規,0,2025-10-15,2025-10-15,合同会社ＥＩＧＨＴ,,合同会社,愛知県,名古屋市千種区,今池１丁目６番３号ＩＴＯビル２Ｂ,,23,101,4640850,,,,,,,2025-10-15,1,,,,,エイト,0
1822,6180305009738,新規,0,2025-10-15,2025-10-15,一般社団法人ｎｉｋｏ’ｃｏ,,その他の設立登記法人,愛知県,豊橋市,八町通２丁目１７番地日本ガスコム八町通りビル４階,,23,201,4400806,,,,,,,2025-10-15,1,,,,,ニココ,0
1825,6200003007108,新規,0,2025-10-15,2025-10-15,ＴＤ　ＪＰ合同会社,,合同会社,岐阜県,岐阜市,問屋町３丁目２５,,21,201,5008845,,,,,,,2025-10-15,1,,,,,ティーディージェイピー,0
1826,6200005013806,新規,0,2025-10-15,2025-10-15,一般社団法人Ａｉ,,その他の設立登記法人,岐阜県,岐阜市,美園町４丁目２８番地,,21,201,5008104,,,,,,,2025-10-15,1,,,,,アイ,0
1831,6230001021140,新規,0,2025-10-15,2025-10-15,すりーあっぷ株式会社,,株式会社,富山県,富山市,稲荷元町１丁目１０番１１号,,16,201,9300010,,,,,,,2025-10-15,1,,,,,スリーアップ,0
1836,6260001040641,新規,0,2025-10-15,2025-10-15,株式会社ワタナベコーポレーション,,株式会社,岡山県,津山市,野介代１４７２番地５０,,33,203,7080821,,,,,,,2025-10-15,1,,,,,ワタナベコーポレーション,0
1848,6320001021395,新規,0,2025-10-15,2025-10-15,株式会社ＭＣＡ,,株式会社,大分県,大分市,賀来北１丁目１７番７号,,44,201,8700848,,,,,,,2025-10-15,1,,,,,エムシーエー,0
1850,6340005009914,新規,0,2025-10-15,2025-10-15,特定非営利活動法人アップル,,その他の設立登記法人,鹿児島県,鹿児島市,山之口町６番１１号第一上野ビル６－Ｂ,,46,201,8920844,,,,,,,2025-10-15,1,,,,,アップル,0
1853,6350003005039,新規,0,2025-10-15,2025-10-15,合同会社ミナテラス,,合同会社,宮崎県,宮崎市,大字吉野９４番地,,45,201,8802233,,,,,,,2025-10-15,1,,,,,ミナテラス,0
1860,6360001035912,新規,0,2025-10-15,2025-10-15,株式会社トミシン,,株式会社,沖縄県,沖縄市,与儀１丁目４番１号２Ｆ,,47,211,9042174,,,,,,,2025-10-15,1,,,,,トミシン,0
1865,6360003015318,新規,0,2025-10-15,2025-10-15,合同会社Ｇｒａｃｉａｓ．,,合同会社,沖縄県,島尻郡与那原町,字東浜９７番地の１オーシャンブルーＩＩ１０２号,00141104,47,348,9011304,,,,,,,2025-10-15,1,,,,,グラシアスドット,0
1867,6380001035613,新規,0,2025-10-15,2025-10-15,株式会社Ｒ１０００,,株式会社,福島県,喜多方市,字押切南２丁目１０番地,,07,208,9660096,,,,,,,2025-10-15,1,,,,,アールセン,0
1869,6380005013012,新規,0,2025-10-15,2025-10-15,一般財団法人弓田八平会津歴史文化保護財団,,その他の設立登記法人,福島県,会津若松市,東千石３丁目１番３４号,,07,202,9650818,,,,,,,2025-10-15,1,,,,,ユミタヤヘイアイヅレキシブンカホゴザイダン,0
1879,6430001095379,新規,0,2025-10-15,2025-10-15,尼鹿株式会社,,株式会社,北海道,小樽市,高島３丁目７番７号,,01,203,0470048,,,,,,,2025-10-15,1,,,,,ニカ,0
1880,6430001095453,新規,0,2025-10-15,2025-10-15,株式会社秋田商会,,株式会社,北海道,虻田郡洞爺湖町,洞爺湖温泉５９番地１,,01,584,0495721,,,,,,,2025-10-15,1,,,,,アキタショウカイ,0
1882,6430003018180,新規,0,2025-10-15,2025-10-15,合同会社ＭＨ,,合同会社,北海道,札幌市東区,北二十五条東６丁目３番３０号２１１号,,01,103,0650025,,,,,,,2025-10-15,1,,,,,エムエイチ,0
1883,6430003018206,新規,0,2025-10-15,2025-10-15,合同会社Ｐａｓｅｏ,,合同会社,北海道,札幌市豊平区,月寒東二条１５丁目２‐２‐１４０３,,01,105,0620052,,,,,,,2025-10-15,1,,,,,パセオ,0
1884,6430003018230,新規,0,2025-10-15,2025-10-15,Ｉｓｃａｒｉｏｔ　Ｇｒｏｕｐ合同会社,,合同会社,北海道,小樽市,オタモイ２丁目２番２０号,,01,203,0482671,,,,,,,2025-10-15,1,,,,,イスカリオテグループ,0
1885,6430003018239,新規,0,2025-10-15,2025-10-15,合同会社リアヴェーレ,,合同会社,北海道,札幌市白石区,南郷通３丁目北４番７－２０６号,,01,104,0030023,,,,,,,2025-10-15,1,,,,,リアヴェーレ,0
1894,6480003002337,新規,0,2025-10-15,2025-10-15,合同会社ＳＡＴＯ,,合同会社,徳島県,三好郡東みよし町,加茂４１０２番地２,,36,489,7794701,,,,,,,2025-10-15,1,,,,,サトウ,0
1897,6500005008825,新規,0,2025-10-15,2025-10-15,一般社団法人楽校うらしり,,その他の設立登記法人,愛媛県,宇和島市,津島町浦知３８０番地,,38,203,7983342,,,,,,,2025-10-15,1,,,,,ガッコウウラシリ,0
1898,6700150132533,新規,0,2025-10-15,2025-10-15,ＲＯＹＡＬ　ＭＯＴＯＲＳ　ＡＵＴＯ　ＰＡＲＴＳ　ＬＴＤ,,外国会社等,三重県,津市,一志町大仰１０９２番地２Ｇ４,,24,201,5152524,スリランカ民主社会主義共和国、ピリマタラワ、コロンボ通り５２５Ａ番地,,,,,,2025-10-15,1,,,,,ロイヤルモータースオートパーツリミテツド,0
1906,7010001259396,新規,0,2025-10-15,2025-10-15,四葉不動産株式会社,,株式会社,東京都,文京区,小日向４丁目２－５小日向安田ビル２０３,,13,105,1120006,,,,,,,2025-10-15,1,,,,,ヨツバフドウサン,0
1911,7010003049044,新規,0,2025-10-15,2025-10-15,合同会社ｔｏｗａｉｒｏ,,合同会社,東京都,中央区,日本橋兜町１７番１号日本橋ロイヤルプラザ７０６,,13,102,1030026,,,,,,,2025-10-15,1,,,,,トワイロ,0
1913,7010401193880,新規,0,2025-10-15,2025-10-15,株式会社Ｌｅｏ　ｇｒｏｕｐ,,株式会社,東京都,港区,海岸３丁目１６番１－７０８号,,13,103,1080022,,,,,,,2025-10-15,1,,,,,レオグループ,0
1919,7010501054784,新規,0,2025-10-15,2025-10-15,Ｃａｎｔａｂｒｉａ株式会社,,株式会社,東京都,台東区,松が谷２丁目１５番８号浅草Ｋ２ビル３０６号室,,13,106,1110036,,,,,,,2025-10-15,1,,,,,キャンタブリア,0
1920,7010501054867,新規,0,2025-10-15,2025-10-15,株式会社秦商,,株式会社,東京都,台東区,池之端１丁目４番３３－１５０５号,,13,106,1100008,,,,,,,2025-10-15,1,,,,,ハタショウ,0
1921,7010501054875,新規,0,2025-10-15,2025-10-15,株式会社シン・ソフォス,,株式会社,東京都,台東区,台東２丁目２２番１３号小林第二ビル４Ｆ,,13,106,1100016,,,,,,,2025-10-15,1,,,,,シンソフォス,0
1927,7010703007945,新規,0,2025-10-15,2025-10-15,合同会社ＳＡコンサルタンツ,,合同会社,東京都,品川区,中延４丁目１５－６,,13,109,1420053,,,,,,,2025-10-15,1,,,,,エスエーコンサルタンツ,0
1928,7010801036697,新規,0,2025-10-15,2025-10-15,株式会社トランクイリティベース,,株式会社,東京都,大田区,本羽田３丁目２－１８エンゼル萩中パークハイツ１００７,,13,111,1440044,,,,,,,2025-10-15,1,,,,,トランクイリティベース,0
1941,7011001172572,新規,0,2025-10-15,2025-10-15,株式会社ＨＲヘルパー,,株式会社,東京都,渋谷区,広尾１丁目２番地１号ヒカリビル４階,,13,113,1500012,,,,,,,2025-10-15,1,,,,,エイチアールヘルパー,0
1942,7011001172878,新規,0,2025-10-15,2025-10-15,株式会社完食ラボ,,株式会社,東京都,渋谷区,恵比寿４丁目７－１－３０１,,13,113,1500013,,,,,,,2025-10-15,1,,,,,カンショクラボ,0
1943,7011001173199,新規,0,2025-10-15,2025-10-15,株式会社ｈｉｎｏｍａ,,株式会社,東京都,目黒区,下目黒５丁目２６番１５号,,13,110,1530064,,,,,,,2025-10-15,1,,,,,ヒノマ,0
1944,7011003022676,新規,0,2025-10-15,2025-10-15,Ｔｏｓｈｉ　Ａｒｔ　Ａｄｖｉｓｏｒｙ合同会社,,合同会社,東京都,渋谷区,神宮前１丁目４番２０号,,13,113,1500001,,,,,,,2025-10-15,1,,,,,トシアートアドバイザリー,0
1953,7011101113534,新規,0,2025-10-15,2025-10-15,株式会社ＹＵＩＴＥ,,株式会社,東京都,新宿区,西新宿３丁目３番１３号西新宿水間ビル６階,,13,104,1600023,,,,,,,2025-10-15,1,,,,,ユイテ,0
1960,7011201026710,新規,0,2025-10-15,2025-10-15,プラチナファイブ株式会社,,株式会社,東京都,中野区,上高田４丁目３５番８号,,13,114,1640002,,,,,,,2025-10-15,1,,,,,プラチナファイブ,0
1970,7011603004891,新規,0,2025-10-15,2025-10-15,合同会社ＴＦＭ,,合同会社,東京都,練馬区,氷川台４丁目４７番１８号,,13,120,1790084,,,,,,,2025-10-15,1,,,,,ティーエフエム,0
1973,7011801046926,新規,0,2025-10-15,2025-10-15,盛豊株式会社,,株式会社,東京都,足立区,鹿浜２丁目１５－１１大和産業ビル１０１,,13,121,1230864,,,,,,,2025-10-15,1,,,,,セイホウ,0
1974,7011803007141,新規,0,2025-10-15,2025-10-15,合同会社ｇｔｓ,,合同会社,東京都,葛飾区,西新小岩３丁目２７番地１７号,,13,122,1240025,,,,,,,2025-10-15,1,,,,,ジーティーエス,0
1977,7012303002228,新規,0,2025-10-15,2025-10-15,サクラ・カルラ・コンサルティング合同会社,,合同会社,東京都,町田市,つくし野２丁目１４番地１０,,13,209,1940001,,,,,,,2025-10-15,1,,,,,サクラカルラコンサルティング,0
1986,7020001165164,新規,0,2025-10-15,2025-10-15,Ｓ‐Ｔｅｃ株式会社,,株式会社,神奈川県,横浜市磯子区,洋光台５丁目１９番１－１０２号,,14,107,2350045,,,,,,,2025-10-15,1,,,,,エステック,0
1987,7020001165313,新規,0,2025-10-15,2025-10-15,株式会社こはるメディカルサービス,,株式会社,神奈川県,横浜市旭区,柏町２５番地７,,14,112,2410835,,,,,,,2025-10-15,1,,,,,コハルメディカルサービス,0
1989,7020003029607,新規,0,2025-10-15,2025-10-15,大福合同会社,,合同会社,神奈川県,横浜市鶴見区,鶴見中央４丁目２９番１７号第１０下川ビル７０３号室,,14,101,2300051,,,,,,,2025-10-15,1,,,,,オオフク,0
1991,7021001086474,新規,0,2025-10-15,2025-10-15,株式会社福井農園,,株式会社,神奈川県,足柄下郡湯河原町,土肥２丁目３番地の１０,,14,384,2590303,,,,,,,2025-10-15,1,,,,,フクイノウエン,0
1992,7021001086516,新規,0,2025-10-15,2025-10-15,ＢＡＬＡＣＨ　ＴＲＡＤＩＮＧ　ＪＡＰＡＮ株式会社,,株式会社,神奈川県,平塚市,東八幡４丁目１１番５号,,14,203,2540016,,,,,,,2025-10-15,1,,,,,バラチトレーディングジャパン,0
1993,7021001086573,新規,0,2025-10-15,2025-10-15,株式会社ハコネットクラウド,,株式会社,神奈川県,足柄下郡箱根町,湯本６９１－１０浅野ビル４階,,14,382,2500311,,,,,,,2025-10-15,1,,,,,ハコネットクラウド,0
2002,7030001169081,新規,0,2025-10-15,2025-10-15,雲雀株式会社,,株式会社,埼玉県,飯能市,大字赤沢３７８番地１０,,11,209,3570128,,,,,,,2025-10-15,1,,,,,ヒバリ,0
2003,7030001169123,新規,0,2025-10-15,2025-10-15,株式会社高津商店,00141106,株式会社,埼玉県,川口市,大字西新井宿９３９番地の１,,11,203,3330833,,,,,,,2025-10-15,1,,,,,タカツショウテン,0
2004,7030001169197,新規,0,2025-10-15,2025-10-15,株式会社ライズ,,株式会社,埼玉県,所沢市,大字山口２０１０番地１０,,11,208,3591145,,,,,,,2025-10-15,1,,,,,ライズ,0
2005,7030001169214,新規,0,2025-10-15,2025-10-15,株式会社宿木堂,,株式会社,埼玉県,越谷市,蒲生茜町２３－２ワネストＷ１０４,,11,222,3430843,,,,,,,2025-10-15,1,,,,,ヤドリギドウ,0
2006,7030003027849,新規,0,2025-10-15,2025-10-15,金泉健康合同会社,,合同会社,埼玉県,さいたま市北区,宮原町３丁目９０２－２－２０１,,11,102,3310812,,,,,,,2025-10-15,1,,,,,キンセンケンコウ,0
2007,7030003027857,新規,0,2025-10-15,2025-10-15,ＲＹ＆Ｃｏｍｐａｎｙ合同会社,,合同会社,埼玉県,蕨市,北町３丁目８番２１号,,11,223,3350001,,,,,,,2025-10-15,1,,,,,アールワイアンドカンパニー,0
2008,7030003027881,新規,0,2025-10-15,2025-10-15,合同会社Ｐｒｏｓｐｅｃｔ,,合同会社,埼玉県,鴻巣市,原馬室４１３６番地９,,11,217,3650043,,,,,,,2025-10-15,1,,,,,プロスペクト,0
2009,7030005022303,新規,0,2025-10-15,2025-10-15,医療法人ワイス矯正歯科,,その他の設立登記法人,埼玉県,富士見市,ふじみ野西１丁目２０番地１ふじみ野ビル２階,,11,235,3540035,,,,,,,2025-10-15,1,,,,,ワイスキョウセイシカ,0
2016,7040001140792,新規,0,2025-10-15,2025-10-15,株式会社千葉白井農園,,株式会社,千葉県,白井市,復６７７,,12,232,2701422,,,,,,,2025-10-15,1,,,,,チバシロイノウエン,0
2022,7050003009688,新規,0,2025-10-15,2025-10-15,合同会社ユーアイ,,合同会社,茨城県,つくば市,梅園２丁目３２番地１１,,08,220,3050045,,,,,,,2025-10-15,1,,,,,ユーアイ,0
2023,7050005013713,新規,0,2025-10-15,2025-10-15,ふじざくら協同組合,,その他の設立登記法人,茨城県,水戸市,泉町２丁目２番３３号水戸泉町ビル７階,,08,201,3100026,,,,,,,2025-10-15,1,,,,,フジザクラ,0
2026,7060003005802,新規,0,2025-10-15,2025-10-15,合同会社ぷれこぷれ,,合同会社,栃木県,宇都宮市,南大通り４丁目２－１６ヴィラ矢島２０２号室,,09,201,3210963,,,,,,,2025-10-15,1,,,,,プレコプレ,0
2030,7070001043456,新規,0,2025-10-15,2025-10-15,ＹＳ・Ｓｏｌｕｔｉｏｎ株式会社,,株式会社,群馬県,太田市,高瀬町６２番地４,,10,205,3730072,,,,,,,2025-10-15,1,,,,,ワイエスソリューション,0
2040,7080401028205,新規,0,2025-10-15,2025-10-15,イキガイコーポレーション株式会社,,株式会社,静岡県,浜松市浜名区,三ヶ日町三ヶ日１０４２番地の４アポロ１０３,,22,139,4311414,,,,,,,2025-10-15,1,,,,,イキガイコーポレーション,0
2041,7080401028221,新規,0,2025-10-15,2025-10-15,株式会社Ｋ＆Ｋ,,株式会社,静岡県,浜松市中央区,萩丘２丁目２１番１５号,,22,138,4338121,,,,,,,2025-10-15,1,,,,,ケイアンドケイ,0
2059,7120001280770,新規,0,2025-10-15,2025-10-15,株式会社都市鉱山開発,,株式会社,大阪府,大阪市中央区,農人橋１丁目１番７号谷町エクセルビル５０３号,,27,128,5400011,,,,,,,2025-10-15,1,,,,,トシコウザンカイハツ,0
2060,7120001280820,新規,0,2025-10-15,2025-10-15,株式会社ＣＹＳ,,株式会社,大阪府,大阪市生野区,中川２丁目１番３－２０５号,,27,116,5440005,,,,,,,2025-10-15,1,,,,,シーワイエス,0
2061,7120001281125,新規,0,2025-10-15,2025-10-15,嘉禾株式会社,,株式会社,大阪府,大阪市城東区,関目５丁目１９番９号関目花博公館４０２Ａ,,27,118,5360008,,,,,,,2025-10-15,1,,,,,カカ,0
2062,7120001281216,新規,0,2025-10-15,2025-10-15,菊屋株式会社,,株式会社,大阪府,大阪市西成区,聖天下１丁目４番２９号－２０６,,27,122,5570012,,,,,,,2025-10-15,1,,,,,キクヤ,0
2066,7120003030827,新規,0,2025-10-15,2025-10-15,ボレナート合同会社,,合同会社,大阪府,大阪市生野区,巽西３丁目８番２号,00141109,27,116,5440012,,,,,,,2025-10-15,1,,,,,ボレナート,0
2068,7120101072647,新規,0,2025-10-15,2025-10-15,株式会社ＫＲｈｏｌｄｉｎｇｓ,,株式会社,大阪府,堺市堺区,大町東３丁２－６－１０１,,27,141,5900954,,,,,,,2025-10-15,1,,,,,ケーアールホールディングス,0
2072,7122001039734,新規,0,2025-10-15,2025-10-15,株式会社チミモウリョウ,,株式会社,大阪府,八尾市,南小阪合町５丁目１番２６－３０２号,,27,212,5810019,,,,,,,2025-10-15,1,,,,,チミモウリョウ,0
2080,7130003010852,新規,0,2025-10-15,2025-10-15,合同会社人財エンゲージラボ,,合同会社,京都府,京都市南区,東九条上御霊町５６番地,,26,107,6018015,,,,,,,2025-10-15,1,,,,,ジンザイエンゲージラボ,0
2081,7130005017474,新規,0,2025-10-15,2025-10-15,一般社団法人旅道,,その他の設立登記法人,京都府,京都市下京区,綾小路通柳馬場東入る塩屋町６０－２ブロックＭビル２Ｆ,,26,106,6000000,,,,,,,2025-10-15,1,,,,,タビドウ,0
2087,7140001140238,新規,0,2025-10-15,2025-10-15,株式会社Ｒｅｌｉｓ,,株式会社,兵庫県,尼崎市,久々知西町１丁目１０番１６号,,28,202,6610978,,,,,,,2025-10-15,1,,,,,リリス,0
2088,7140001140329,新規,0,2025-10-15,2025-10-15,株式会社ＫＳＥメディカル,,株式会社,兵庫県,西宮市,毘沙門町５番１５号毘沙門タウンハウス１０１号,,28,204,6620094,,,,,,,2025-10-15,1,,,,,ケーエスイーメディカル,0
2089,7140001140345,新規,0,2025-10-15,2025-10-15,新光貿易株式会社,,株式会社,兵庫県,神戸市中央区,北長狭通５丁目２番１９号コフィオ神戸元町ビル７０１,,28,110,6500012,,,,,,,2025-10-15,1,,,,,シンコウボウエキ,0
2090,7140001140361,新規,0,2025-10-15,2025-10-15,株式会社タイセイコーポレーション,,株式会社,兵庫県,宝塚市,安倉中２丁目１３番２号,,28,214,6650822,,,,,,,2025-10-15,1,,,,,タイセイコーポレーション,0
2093,7140003022698,新規,0,2025-10-15,2025-10-15,合同会社ＣＵＢＥ,,合同会社,兵庫県,神戸市垂水区,名谷町字横尾１８６０番地の１サニーコート名谷５０３号,,28,108,6550852,,,,,,,2025-10-15,1,,,,,キューブ,0
2109,7180001169001,新規,0,2025-10-15,2025-10-15,株式会社ＡＢ　ＴＲＡＤＩＮＧ,,株式会社,愛知県,弥富市,松名５丁目２００番地２３,,23,235,4980042,,,,,,,2025-10-15,1,,,,,エービートレーディング,0
2110,7180001169083,新規,0,2025-10-15,2025-10-15,株式会社ＩＳＫ　Ｐａｒｔｎｅｒｓ,,株式会社,愛知県,長久手市,戸田谷６０４番地１,,23,238,4801124,,,,,,,2025-10-15,1,,,,,アイエスケイパートナーズ,0
2111,7180001169091,新規,0,2025-10-15,2025-10-15,菊一工業株式会社,,株式会社,愛知県,半田市,乙川若宮町２２番地の８,,23,205,4750063,,,,,,,2025-10-15,1,,,,,キクイチコウギョウ,0
2112,7180001169100,新規,0,2025-10-15,2025-10-15,株式会社スタイルＫＡ,,株式会社,愛知県,愛西市,石田町南鵜戸５０番地,,23,232,4960938,,,,,,,2025-10-15,1,,,,,スタイルケーエー,0
2113,7180001169158,新規,0,2025-10-15,2025-10-15,株式会社亜細亜不動産管理,,株式会社,愛知県,名古屋市中区,錦２丁目１１番１３号長者町トランジットビル５階,,23,106,4600003,,,,,,,2025-10-15,1,,,,,アジアフドウサンカンリ,0
2116,7180003029137,新規,0,2025-10-15,2025-10-15,合同会社ＫＮＢ,,合同会社,愛知県,名古屋市東区,出来町１丁目９番地２セントレイクセレブ徳川２０２,,23,102,4610032,,,,,,,2025-10-15,1,,,,,ケーエヌビー,0
2117,7180003029211,新規,0,2025-10-15,2025-10-15,合同会社長政商店,,合同会社,愛知県,一宮市,浅野字西大土２９番地,,23,203,4910871,,,,,,,2025-10-15,1,,,,,ナガマサショウテン,0
2118,7180003029228,新規,0,2025-10-15,2025-10-15,富田合同会社,,合同会社,愛知県,名古屋市名東区,赤松台１１０７番地の３,,23,115,4650016,,,,,,,2025-10-15,1,,,,,トミタ,0
2121,7180301040332,新規,0,2025-10-15,2025-10-15,ＢＬＡＩＴＥ　ＷＯＲＫ株式会社,,株式会社,愛知県,額田郡幸田町,大字深溝字西騎兵野４番地,,23,501,4440124,,,,,,,2025-10-15,1,,,,,ブライトワーク,0
2133,7260001040649,新規,0,2025-10-15,2025-10-15,株式会社Ｚｅｒｉｏｎ,,株式会社,岡山県,岡山市北区,富町２丁目１８番２０号,,33,101,7000031,,,,,,,2025-10-15,1,,,,,ゼリオン,0
2134,7260003005385,新規,0,2025-10-15,2025-10-15,合同会社ＣｏＣｏ　Ｐｌａｃｅ,,合同会社,岡山県,岡山市南区,郡１３９６番地２,,33,104,7028011,,,,,,,2025-10-15,1,,,,,ココプレイス,0
2137,7290001111884,新規,0,2025-10-15,2025-10-15,株式会社神野技建,,株式会社,福岡県,福岡市南区,大橋４丁目２８番４－１号,,40,134,8150033,,,,,,,2025-10-15,1,,,,,カミノギケン,0
2145,7330001033661,新規,0,2025-10-15,2025-10-15,株式会社Ｍｉｎｅｒｖａ,,株式会社,熊本県,熊本市中央区,大江５丁目８番１７号,,43,101,8620971,,,,,,,2025-10-15,1,,,,,ミネルヴァ,0
2147,7330003011260,新規,0,2025-10-15,2025-10-15,合同会社辻実業,,合同会社,熊本県,熊本市南区,富合町榎津１２３７番地５,,43,104,8614146,,,,,,,2025-10-15,1,,,,,ツジジツギョウ,0
2155,7360003015325,新規,0,2025-10-15,2025-10-15,合同会社ＴＲＡＮＥＸ,,合同会社,沖縄県,中頭郡中城村,字南上原４８４番地１パークサイドハウスＮＡＫＡ・Ｆ３０３号,,47,328,9012424,,,,,,,2025-10-15,1,,,,,トラネックス,0
2157,7370001053152,新規,0,2025-10-15,2025-10-15,株式会社グロースファクトリー,,株式会社,宮城県,仙台市太白区,鈎取４丁目１３番３号リブレスト鈎取ＩＩ－１０２,00141101,04,104,9820804,,,,,,,2025-10-15,1,,,,,グロースファクトリー,0
2162,7380001035629,新規,0,2025-10-15,2025-10-15,らくのう乳業株式会社,,株式会社,福島県,郡山市,大槻町字古屋敷８０番１号,,07,203,9630201,,,,,,,2025-10-15,1,,,,,ラクノウニュウギョウ,0
2166,7380003006157,新規,0,2025-10-15,2025-10-15,草野不動産合同会社,,合同会社,福島県,いわき市,平鎌田字寿金沢６９番地,,07,204,9708023,,,,,,,2025-10-15,1,,,,,クサノフドウサン,0
2176,7430001095444,新規,0,2025-10-15,2025-10-15,株式会社フィールドタイム,,株式会社,北海道,札幌市西区,西野二条２丁目５番７号ロイヤル三王ビル５階,,01,107,0630032,,,,,,,2025-10-15,1,,,,,フィールドタイム,0
2177,7430001095452,新規,0,2025-10-15,2025-10-15,ＴＡＲＫＳ株式会社,,株式会社,北海道,美唄市,字茶志内８８８番地,,01,215,0720000,,,,,,,2025-10-15,1,,,,,タークス,0
2178,7430001095477,新規,0,2025-10-15,2025-10-15,株式会社Ｓｈｅｅｔ　Ｂｅｎｄ,,株式会社,北海道,札幌市中央区,北三条東５丁目５番地岩佐ビル２階,,01,101,0600033,,,,,,,2025-10-15,1,,,,,シートベンド,0
2179,7430003018188,新規,0,2025-10-15,2025-10-15,合同会社アンノウン,,合同会社,北海道,江別市,元町８番地の１８,,01,217,0670031,,,,,,,2025-10-15,1,,,,,アンノウン,0
2180,7430003018205,新規,0,2025-10-15,2025-10-15,ＳＲＳ札幌合同会社,,合同会社,北海道,札幌市北区,あいの里一条３丁目１５番８号,,01,102,0028071,,,,,,,2025-10-15,1,,,,,エスアールエスサッポロ,0
2181,7430003018238,新規,0,2025-10-15,2025-10-15,合同会社ＹＳＴＡＧＥ,,合同会社,北海道,札幌市清田区,北野六条２丁目７番３１号,,01,110,0040866,,,,,,,2025-10-15,1,,,,,ワイステージ,0
2182,7430003018246,新規,0,2025-10-15,2025-10-15,Ｔｈｅ　Ｓｎｏｗ　Ｄｒｅａｍ合同会社,,合同会社,北海道,芦別市,南二条東３丁目６番地の９,,01,216,0750032,,,,,,,2025-10-15,1,,,,,ザスノードリーム,0
2184,7500003003612,新規,0,2025-10-15,2025-10-15,合同会社竹本商会,,合同会社,愛媛県,松山市,片山甲３０７番地,,38,201,7992439,,,,,,,2025-10-15,1,,,,,タケモトショウカイ,0
2188,7700150132532,新規,0,2025-10-15,2025-10-15,ＮＡＬＥＥＮ　ＥＮＴＥＲＰＲＩＳＥＳ,,外国会社等,千葉県,山武市,松ヶ谷ロ３１２８番地１Ａ,,12,237,2891303,スリランカ民主社会主義共和国、ディヤトゥレ、ダンブッラロード,,,,,,2025-10-15,1,,,,,ナリーンエンタープライズ,0
2194,8010001258827,新規,0,2025-10-15,2025-10-15,株式会社Ｏｌｉ,,株式会社,東京都,文京区,本駒込６丁目１３番７－６０１号,,13,105,1130021,,,,,,,2025-10-15,1,,,,,オリ,0
2195,8010001259404,新規,0,2025-10-15,2025-10-15,イマジナリーワークス株式会社,,株式会社,東京都,中央区,日本橋兜町１７番２号兜町第六葉山ビル４階,,13,102,1030026,,,,,,,2025-10-15,1,,,,,イマジナリーワークス,0
2198,8010003049051,新規,0,2025-10-15,2025-10-15,合同会社伴走クラブ,,合同会社,東京都,中央区,銀座１丁目１２番４号Ｎ＆ＥＢＬＤ．６Ｆ,,13,102,1040061,,,,,,,2025-10-15,1,,,,,バンソウクラブ,0
2210,8010501054833,新規,0,2025-10-15,2025-10-15,らんたん株式会社,,株式会社,東京都,台東区,東上野３丁目１３番２号７階,,13,106,1100015,,,,,,,2025-10-15,1,,,,,ランタン,0
2229,8011001172828,新規,0,2025-10-15,2025-10-15,株式会社ＰＩＮＫ,,株式会社,東京都,渋谷区,神宮前１丁目１６－６原宿７７ビル２階,,13,113,1500001,,,,,,,2025-10-15,1,,,,,ピンク,0
2230,8011001172910,新規,0,2025-10-15,2025-10-15,株式会社Ａｅｎｄｉａ,,株式会社,東京都,目黒区,上目黒３丁目１９番１５号ラ・ミアカーサ２０２号,,13,110,1530051,,,,,,,2025-10-15,1,,,,,エンディア,0
2231,8011001173165,新規,0,2025-10-15,2025-10-15,株式会社ＲＡＫＵＺＡ　ＷＯＲＫＳ,,株式会社,東京都,目黒区,八雲３丁目１８番９号,,13,110,1520023,,,,,,,2025-10-15,1,,,,,ラクザワークス,0
2232,8011001173173,新規,0,2025-10-15,2025-10-15,株式会社Ｍｉｋａｚｕｋｉ　Ａｃｃｏｕｎｔｉｎｇ　Ｌａｂ,,株式会社,東京都,目黒区,上目黒１丁目２６番１－６０５号中目黒アトラスタワー,,13,110,1530051,,,,,,,2025-10-15,1,,,,,ミカヅキアカウンティングラボ,0
2233,8011001173181,新規,0,2025-10-15,2025-10-15,株式会社ＤｏｃｕＮａｖｉ,,株式会社,東京都,渋谷区,道玄坂１丁目１０番８号渋谷道玄坂東急ビル２Ｆ－Ｃ,,13,113,1500043,,,,,,,2025-10-15,1,,,,,ドキュナビ,0
2234,8011003022659,新規,0,2025-10-15,2025-10-15,合同会社ＳＡＣＯＮＩＱ,,合同会社,東京都,目黒区,下目黒１丁目１番１４号コノトラビル７Ｆ,,13,110,1530064,,,,,,,2025-10-15,1,,,,,サコニック,0
2237,8011103016494,新規,0,2025-10-15,2025-10-15,合同会社ビサイドラボ,,合同会社,東京都,新宿区,西新宿３丁目３番１３号西新宿水間ビル２Ｆ,,13,104,1600023,,,,,,,2025-10-15,1,,,,,ビサイドラボ,0
2240,8011201026684,新規,0,2025-10-15,2025-10-15,金葉商事株式会社,,株式会社,東京都,中野区,新井４丁目２１番１０号２０４号室,,13,114,1650026,,,,,,,2025-10-15,1,,,,,キンヨウショウジ,0
2242,8011301030958,新規,0,2025-10-15,2025-10-15,株式会社ＡＩ研究所,,株式会社,東京都,杉並区,南荻窪４丁目３９番１１号,,13,115,1670052,,,,,,,2025-10-15,1,,,,,エーアイケンキュウジョ,0
2245,8011501032696,新規,0,2025-10-15,2025-10-15,株式会社イングレース,,株式会社,東京都,荒川区,町屋３丁目２番１ライオンズプラザ町屋３１９号,,13,118,1160001,,,,,,,2025-10-15,1,,,,,イングレース,0
2247,8011603004890,新規,0,2025-10-15,2025-10-15,合同会社ＴＦＮ,,合同会社,東京都,練馬区,氷川台４丁目４７番１８号,,13,120,1790084,,,,,,,2025-10-15,1,,,,,ティーエフエヌ,0
2250,8012303002227,新規,0,2025-10-15,2025-10-15,ＭＯＩ　ＭＩＮＩ　ＭＡＲＴ合同会社,,合同会社,東京都,町田市,玉川学園１丁目４－２０－２０１,,13,209,1940041,,,,,,,2025-10-15,1,,,,,モイミニマート,0
2256,8013301055150,新規,0,2025-10-15,2025-10-15,株式会社アセットブリッジ,,株式会社,東京都,豊島区,池袋３丁目６０番２号池袋ウエストガーデン３０８号,,13,116,1710014,,,,,,,2025-10-15,1,,,,,アセットブリッジ,0
2264,8020001164982,新規,0,2025-10-15,2025-10-15,株式会社高村,00141108,株式会社,神奈川県,横浜市神奈川区,金港町５－１４クアドリフォリオ８階,,14,102,2210056,,,,,,,2025-10-15,1,,,,,タカムラ,0
2265,8020001165064,新規,0,2025-10-15,2025-10-15,株式会社アサンテ川崎,,株式会社,神奈川県,川崎市川崎区,大島上町２０番９号,,14,131,2100836,,,,,,,2025-10-15,1,,,,,アサンテカワサキ,0
2266,8020001165163,新規,0,2025-10-15,2025-10-15,株式会社Ｊｓ　ＳｐｉＲｉｔ,,株式会社,神奈川県,横浜市南区,共進町３丁目５５番地１２,,14,105,2320015,,,,,,,2025-10-15,1,,,,,ジェイエススピリット,0
2267,8020001165221,新規,0,2025-10-15,2025-10-15,株式会社Ｇｒａｃｉｍｏ,,株式会社,神奈川県,横浜市旭区,今宿南町１８７９番地９,,14,112,2410034,,,,,,,2025-10-15,1,,,,,グラシモ,0
2274,8020003029531,新規,0,2025-10-15,2025-10-15,合同会社ＹＴ５９,,合同会社,神奈川県,横浜市金沢区,富岡西７丁目５番５号,,14,108,2360052,,,,,,,2025-10-15,1,,,,,ワイティーゴジュウキュウ,0
2275,8020003029597,新規,0,2025-10-15,2025-10-15,合同会社ＡＬＩＳＫＡ,,合同会社,神奈川県,横浜市青葉区,藤が丘１丁目１８－１４－１０４号ライオンズマンション藤が丘第３,,14,117,2270043,,,,,,,2025-10-15,1,,,,,アリスカ,0
2280,8021001086515,新規,0,2025-10-15,2025-10-15,ＴＨＵＣ　ＱＵＹＮＨ　ＡＣＡＤＥＭＹ株式会社,,株式会社,神奈川県,海老名市,国分北１丁目３９番地２６号,,14,215,2430406,,,,,,,2025-10-15,1,,,,,トゥッククインアカデミー,0
2285,8021003016635,新規,0,2025-10-15,2025-10-15,合同会社ＨＡＱ　ＧＡＬＡＸＩＥＳ,,合同会社,神奈川県,厚木市,上荻野６７８番,,14,212,2430201,,,,,,,2025-10-15,1,,,,,ハックギャラクシーズ,0
2286,8021003016684,新規,0,2025-10-15,2025-10-15,合同会社アシスト,,合同会社,神奈川県,平塚市,東八幡４丁目２－１３,,14,203,2540016,,,,,,,2025-10-15,1,,,,,アシスト,0
2291,8030001169221,新規,0,2025-10-15,2025-10-15,株式会社ブルーポンド,,株式会社,埼玉県,比企郡川島町,大字上小見野３２６番地１,,11,346,3500106,,,,,,,2025-10-15,1,,,,,ブルーポンド,0
2292,8030001169246,新規,0,2025-10-15,2025-10-15,石泉興業株式会社,,株式会社,埼玉県,川口市,芝新町３－５アイアイレジデンス川口１０５号,,11,203,3330851,,,,,,,2025-10-15,1,,,,,シミズコウギョウ,0
2296,8030003027872,新規,0,2025-10-15,2025-10-15,神威合同会社,,合同会社,埼玉県,所沢市,小手指南４丁目９番地の８７,,11,208,3591146,,,,,,,2025-10-15,1,,,,,カムイ,0
2310,8050001057457,新規,0,2025-10-15,2025-10-15,株式会社創る,,株式会社,茨城県,水戸市,中央２丁目８番８号アシスト第２ビル７Ｆ,,08,201,3100805,,,,,,,2025-10-15,1,,,,,ツクル,0
2318,8070001043455,新規,0,2025-10-15,2025-10-15,Ｙｏｋｅ　Ａｖａｓ株式会社,,株式会社,群馬県,太田市,高瀬町６２番地４,,10,205,3730072,,,,,,,2025-10-15,1,,,,,ヨークアヴィーズ,0
2323,8080001027218,新規,0,2025-10-15,2025-10-15,株式会社エムビーピー,,株式会社,静岡県,静岡市葵区,本通２丁目１番地の２エミエール葵３０１,,22,101,4200064,,,,,,,2025-10-15,1,,,,,エムビーピー,0
2325,8080405007773,新規,0,2025-10-15,2025-10-15,医療法人社団ＫＲＣ,,その他の設立登記法人,静岡県,磐田市,城之崎３丁目７番地２４,,22,211,4380084,,,,,,,2025-10-15,1,,,,,ケーアールシー,0
2326,8100001039037,新規,0,2025-10-15,2025-10-15,株式会社立宮工業,,株式会社,長野県,長野市,若穂川田２３５５番地,,20,201,3810103,,,,,,,2025-10-15,1,,,,,タテミヤコウギョウ,0
2341,8120001280571,新規,0,2025-10-15,2025-10-15,オードリー国際株式会社,,株式会社,大阪府,大阪市生野区,生野東３丁目９－１９－３Ｆ,,27,116,5440025,,,,,,,2025-10-15,1,,,,,オードリーコクサイ,0
2342,8120001280753,新規,0,2025-10-15,2025-10-15,株式会社ポッシブル商会,,株式会社,大阪府,大阪市北区,梅田１丁目２－２大阪駅前第二ビル１２－１２,,27,127,5300001,,,,,,,2025-10-15,1,,,,,ポッシブルショウカイ,0
2343,8120001281124,新規,0,2025-10-15,2025-10-15,百成株式会社,,株式会社,大阪府,大阪市東住吉区,中野４丁目１番１６号サラオリエンテ中野３１１Ａ,,27,121,5460012,,,,,,,2025-10-15,1,,,,,ハクセイ,0
2349,8120005025171,新規,0,2025-10-15,2025-10-15,ＮＰＯ法人ハイドアウト,,その他の設立登記法人,大阪府,大阪市旭区,高殿４丁目５番３２号,,27,117,5350031,,,,,,,2025-10-15,1,,,,,ハイドアウト,0
2354,8122001039733,新規,0,2025-10-15,2025-10-15,株式会社フォルテ,,株式会社,大阪府,八尾市,東山本町３丁目２番１２号,,27,212,5810847,,,,,,,2025-10-15,1,,,,,フォルテ,0
2357,8130001080806,新規,0,2025-10-15,2025-10-15,円通発株式会社,,株式会社,京都府,京都市東山区,東大路古門前上る東入稲荷町南組５７７番地７,,26,105,6050067,,,,,,,2025-10-15,1,,,,,エンツウハツ,0
2358,8130001080814,新規,0,2025-10-15,2025-10-15,株式会社六角館さくら堂,,株式会社,京都府,京都市中京区,新町通六角上る三条町３３８番地,,26,104,6048205,,,,,,,2025-10-15,1,,,,,ロッカクカンサクラドウ,0
2360,8130003010851,新規,0,2025-10-15,2025-10-15,オフィスユニオンインターナショナル合同会社,,合同会社,京都府,京都市北区,平野八丁柳町６８番地の１サニーハイム金閣寺４０３号,,26,101,6038345,,,,,,,2025-10-15,1,,,,,オフィスユニオンインターナショナル,0
2365,8140003022706,新規,0,2025-10-15,2025-10-15,合同会社ＺｅａｌＷｏｒｋｓＰｒｏ,,合同会社,兵庫県,尼崎市,南武庫之荘３丁目２４番２０号,,28,202,6610033,,,,,,,2025-10-15,1,,,,,ジールワークスプロ,0
2371,8150001028472,新規,0,2025-10-15,2025-10-15,Ｃｈａ茶Ｍａｎｏｒ株式会社,,株式会社,奈良県,奈良市,柳生町１４７６番地４,,29,201,6301237,,,,,,,2025-10-15,1,,,,,チャチャマナー,0
2374,8160001027143,新規,0,2025-10-15,2025-10-15,株式会社久保田建築設計室,,株式会社,滋賀県,愛知郡愛荘町,東円堂１６６６番地,,25,425,5291325,,,,,,,2025-10-15,1,,,,,クボタケンチクセッケイシツ,0
2376,8160005011449,新規,0,2025-10-15,2025-10-15,一般社団法人スマイルフィッシングプロジェクト,,その他の設立登記法人,滋賀県,大津市,下阪本１丁目２９－９,,25,201,5200105,,,,,,,2025-10-15,1,,,,,スマイルフィッシングプロジェクト,0
2382,8180001168720,新規,0,2025-10-15,2025-10-15,天空ラボ株式会社,,株式会社,愛知県,名古屋市中村区,名駅４丁目２４番５号第２森ビル４０１号,,23,105,4500002,,,,,,,2025-10-15,1,,,,,テンクウラボ,0
2383,8180001168992,新規,0,2025-10-15,2025-10-15,株式会社ＣＲＡＦＴＩＣＡ,,株式会社,愛知県,名古屋市西区,那古野２丁目９番８号,,23,104,4510042,,,,,,,2025-10-15,1,,,,,クラフティカ,0
2384,8180001169041,新規,0,2025-10-15,2025-10-15,株式会社ｄｃ　ｉ　ｄｏ,,株式会社,愛知県,名古屋市中区,松原３丁目１２番５号,,23,106,4600017,,,,,,,2025-10-15,1,,,,,ディーシーアイドゥ,0
2385,8180001169090,新規,0,2025-10-15,2025-10-15,株式会社フジフラックス,,株式会社,愛知県,名古屋市港区,小賀須４丁目１１３０番地の２,,23,111,4550882,,,,,,,2025-10-15,1,,,,,フジフラックス,0
2386,8180001169099,新規,0,2025-10-15,2025-10-15,株式会社ＤＯＰＥ,,株式会社,愛知県,名古屋市中区,栄４丁目２０番１１号丸善ビル３階,,23,106,4600008,,,,,,,2025-10-15,1,,,,,ドープ,0
2392,8180003029136,新規,0,2025-10-15,2025-10-15,合同会社ＡＰＣ,,合同会社,愛知県,名古屋市東区,葵３丁目１４番地５,,23,102,4610004,,,,,,,2025-10-15,1,,,,,エーピーシー,0
2393,8180003029177,新規,0,2025-10-15,2025-10-15,合同会社Ｓｔａｒ‐Ｏｖｅｒ,,合同会社,愛知県,弥富市,平島中２丁目１８－２,,23,235,4980032,,,,,,,2025-10-15,1,,,,,スターオーバー,0
2394,8180003029219,新規,0,2025-10-15,2025-10-15,合同会社Ａｒｔｉｆｙ,,合同会社,愛知県,名古屋市中川区,戸田２丁目２６１１番地（ローレル１０２号）,,23,110,4540962,,,,,,,2025-10-15,1,,,,,アーティファイ,0
2397,8180301040331,新規,0,2025-10-15,2025-10-15,株式会社Ｊｕｖｅｌｅｒｎ,,株式会社,愛知県,西尾市,吉良町富好新田青鳥７番地,,23,213,4440515,,,,,,,2025-10-15,1,,,,,ジュヴラー,0
2405,8230001021139,新規,0,2025-10-15,2025-10-15,イムちゃんフーズ株式会社,,株式会社,富山県,魚津市,新金屋２丁目９番６号,,16,204,9370801,,,,,,,2025-10-15,1,,,,,イムチャンフーズ,0
2408,8240001065639,新規,0,2025-10-15,2025-10-15,株式会社ティーランスグルメ,,株式会社,広島県,広島市安佐南区,長束３丁目２番１－１０２号,,34,105,7310135,,,,,,,2025-10-15,1,,,,,ティーランスグルメ,0
2416,8290001111660,新規,0,2025-10-15,2025-10-15,正浩株式会社,,株式会社,福岡県,福岡市博多区,堅粕３丁目１５番２３アンピール博多駅５０１,,40,132,8120043,,,,,,,2025-10-15,1,,,,,セイコウ,0
2417,8290001111677,新規,0,2025-10-15,2025-10-15,株式会社ＴＯＫＩ　Ｇｒｏｕｐ,,株式会社,福岡県,糟屋郡新宮町,新宮東１丁目１２番３７号,,40,345,8110124,,,,,,,2025-10-15,1,,,,,トキグループ,0
2432,8330003011268,新規,0,2025-10-15,2025-10-15,合同会社スピードライン,,合同会社,熊本県,合志市,合生４１０５番地２,,43,216,8611101,,,,,,,2025-10-15,1,,,,,スピードライン,0
2446,8370001053143,新規,0,2025-10-15,2025-10-15,ハナ・トレーディング株式会社,,株式会社,宮城県,栗原市,金成大平４７番地３０、１０１号室,,04,213,9895121,,,,,,,2025-10-15,1,,,,,ハナトレーディング,0
2447,8370001053151,新規,0,2025-10-15,2025-10-15,株式会社スタイリズム・ヴァンガード,,株式会社,宮城県,仙台市青葉区,中央２丁目１１－１９仙南ビル４階－Ａ,,04,101,9800021,,,,,,,2025-10-15,1,,,,,スタイリズムヴァンガード,0
2459,8410003004164,新規,0,2025-10-15,2025-10-15,合同会社ボルドール,,合同会社,秋田県,大仙市,太田町三本扇字新山後２番地,,05,212,0191602,,,,,,,2025-10-15,1,,,,,ボルドール,0
2462,8430001095303,新規,0,2025-10-15,2025-10-15,株式会社ＱＹＵＲＵ,,株式会社,北海道,札幌市中央区,南十一条西１０丁目１－２７,,01,101,0640811,,,,,,,2025-10-15,1,,,,,キュル,0
2463,8430001095410,新規,0,2025-10-15,2025-10-15,株式会社さかい商店,,株式会社,北海道,札幌市北区,北三十八条西３丁目１番２４号,,01,102,0010038,,,,,,,2025-10-15,1,,,,,,0
2464,8430001095435,新規,0,2025-10-15,2025-10-15,株式会社ＡＩＴＯＭＯ,,株式会社,北海道,小樽市,稲穂５丁目１５番４号,,01,203,0470032,,,,,,,2025-10-15,1,,,,,アイトモ,0
2465,8430001095443,新規,0,2025-10-15,2025-10-15,株式会社北西金属,,株式会社,北海道,札幌市西区,西町北１３丁目３番１４－２０２号,,01,107,0630061,,,,,,,2025-10-15,1,,,,,ホクセイキンゾク,0
2466,8430001095468,新規,0,2025-10-15,2025-10-15,株式会社Ｌｕｎｅ,,株式会社,北海道,札幌市中央区,南二条西３丁目２０番地‐２５０５号,,01,101,0600062,,,,,,,2025-10-15,1,,,,,リュンヌ,0
2470,8430003018212,新規,0,2025-10-15,2025-10-15,ちありんく合同会社,,合同会社,北海道,小樽市,星野町２１番２３号,,01,203,0470262,,,,,,,2025-10-15,1,,,,,チアリンク,0
2471,8440001009699,新規,0,2025-10-15,2025-10-15,株式会社ノースジャパン北斗,,株式会社,北海道,北斗市,村山１６１番地１,,01,236,0411244,,,,,,,2025-10-15,1,,,,,ノースジャパンホクト,0
2472,8440003001720,新規,0,2025-10-15,2025-10-15,ｓａｋｅｙｏｍｅ　ｗｏｒｋｓ合同会社,,合同会社,北海道,檜山郡厚沢部町,字富里１９番地１,,01,363,0431363,,,,,,,2025-10-15,1,,,,,サケヨメワークス,0
2479,8470005006657,新規,0,2025-10-15,2025-10-15,あおば行政書士法人,,その他の設立登記法人,香川県,坂出市,青葉町１番２４号,,37,203,7620037,,,,,,,2025-10-15,1,,,,,,0
2481,8500001026580,新規,0,2025-10-15,2025-10-15,株式会社Ｒ．Ｐ．Ｃ,,株式会社,愛媛県,今治市,しまなみヒルズ２２番地６,,38,202,7940087,,,,,,,2025-10-15,1,,,,,アールピーシー,0
2484,8700150132531,新規,0,2025-10-15,2025-10-15,ＮＰ　ＥＮＴＥＲＰＲＩＳＥＳ,,外国会社等,千葉県,大網白里市,四天木乙２４７１番地２Ａ,,12,239,2993203,スリランカ民主社会主義共和国、ナワラピティヤ、ペニトゥドゥムッラ、Ｎｏ．３９,,,,,,2025-10-15,1,,,,,エヌピーエンタープライズ,0
2496,9010003049059,新規,0,2025-10-15,2025-10-15,ＩＮＦ蓄電所３号合同会社,,合同会社,東京都,千代田区,富士見２丁目１０番２号,,13,101,1020071,,,,,,,2025-10-15,1,,,,,アイエヌエフチクデンショサンゴウ,0
2499,9010005040750,新規,0,2025-10-15,2025-10-15,一般財団法人阿部養庵老化研究所,,その他の設立登記法人,東京都,中央区,銀座６丁目３番１２号,,13,102,1040061,,,,,,,2025-10-15,1,,,,,アベヨウアンロウカケンキュウジョ,0
2503,9010401193540,新規,0,2025-10-15,2025-10-15,株式会社ケイスリー,,株式会社,東京都,港区,西麻布２丁目２５－２３Ｂａｒｂｉｚｏｎ２７－５Ｆ,,13,103,1060031,,,,,,,2025-10-15,1,,,,,ケイスリー,0
2507,9010501054857,新規,0,2025-10-15,2025-10-15,株式会社ソシオエスペシアル,,株式会社,東京都,台東区,千束３丁目３０番１２号,,13,106,1110031,,,,,,,2025-10-15,1,,,,,ソシオエスペシアル,0
2508,9010505003645,新規,0,2025-10-15,2025-10-15,一般社団法人建設情報共有システム協会,,その他の設立登記法人,東京都,台東区,台東２丁目３番２号ＭＫビル６階,,13,106,1100016,,,,,,,2025-10-15,1,,,,,ケンセツジョウホウキョウユウシステムキョウカイ,0
2509,9010605004510,新規,0,2025-10-15,2025-10-15,一般財団法人オルトモスヘルスケア財団,,その他の設立登記法人,東京都,墨田区,京島１丁目２１番１０号,,13,107,1310046,,,,,,,2025-10-15,1,,,,,オルトモスヘルスケアザイダン,0
2515,9010801036679,新規,0,2025-10-15,2025-10-15,株式会社Ｓ＆Ｌｉｎｋ,,株式会社,東京都,大田区,西六郷１丁目２３番地１４榎本方,,13,111,1440056,,,,,,,2025-10-15,1,,,,,エスアンドリンク,0
2516,9010801036687,新規,0,2025-10-15,2025-10-15,株式会社ＴＳＣ,,株式会社,東京都,大田区,大森西１丁目１７番１号,,13,111,1430015,,,,,,,2025-10-15,1,,,,,ティーエスシー,0
2517,9010801036695,新規,0,2025-10-15,2025-10-15,ＡＮＪＡＬ　ＣＯＲＰＯＲＡＴＩＯＮ株式会社,,株式会社,東京都,大田区,大森西５丁目１６番５号コーポフクダ２－２０２,,13,111,1430015,,,,,,,2025-10-15,1,,,,,エンジェルコーポレーション,0
2528,9011003022682,新規,0,2025-10-15,2025-10-15,合同会社Ｔｓｕｎａｇｕ　Ｊａｐａｎ,,合同会社,東京都,渋谷区,円山町５番３号ＭＩＥＵＸ渋谷ビル８階,,13,113,1500044,,,,,,,2025-10-15,1,,,,,ツナグジャパン,0
2529,9011005011188,新規,0,2025-10-15,2025-10-15,医療法人社団Ｂｌｏｏｍ,,その他の設立登記法人,東京都,目黒区,下目黒５丁目２番１７号カナンプレイス１階,,13,110,1530064,,,,,,,2025-10-15,1,,,,,ブルーム,0
2533,9011101113441,新規,0,2025-10-15,2025-10-15,株式会社Ｅｌａｖｉａ,,株式会社,東京都,新宿区,西新宿３丁目３番１３号,,13,104,1600023,,,,,,,2025-10-15,1,,,,,エラヴィア,0
2534,9011101113466,新規,0,2025-10-15,2025-10-15,巨高全球株式会社,,株式会社,東京都,新宿区,百人町１丁目１８番８号大久保カドビル４０４室,,13,104,1690073,,,,,,,2025-10-15,1,,,,,キョコウゼンキュウ,0
2535,9011101113499,新規,0,2025-10-15,2025-10-15,株式会社フロムワン,,株式会社,東京都,新宿区,西新宿７丁目５番３号斉藤ビル３階,,13,104,1600023,,,,,,,2025-10-15,1,,,,,フロムワン,0
2536,9011101113532,新規,0,2025-10-15,2025-10-15,株式会社３ＳＺ,,株式会社,東京都,新宿区,新宿６丁目２９番２０号ＭＡＴＳＵＤＡＢＬＤ６Ｆ,,13,104,1600022,,,,,,,2025-10-15,1,,,,,スリーエスゼット,0
2539,9011201026700,新規,0,2025-10-15,2025-10-15,株式会社Ｋ’ｓリアルマネジメント,,株式会社,東京都,中野区,東中野５丁目８番９号４０７号室,,13,114,1640003,,,,,,,2025-10-15,1,,,,,ケイズリアルマネジメント,0
2540,9011201026709,新規,0,2025-10-15,2025-10-15,株式会社アンドワルツ,,株式会社,東京都,中野区,東中野４丁目４番１号ポレポレ坐ビル５階,,13,114,1640003,,,,,,,2025-10-15,1,,,,,アンドワルツ,0
2541,9011201026717,新規,0,2025-10-15,2025-10-15,ＲＥＡＢＬＥ株式会社,,株式会社,東京都,中野区,松が丘２丁目４番１０号,,13,114,1650024,,,,,,,2025-10-15,1,,,,,リエイブル,0
2542,9011203004852,新規,0,2025-10-15,2025-10-15,合同会社Ｇｒａｎ　ｗｅｌｌ,,合同会社,東京都,中野区,江古田３丁目１４番３－６１３号,,13,114,1650022,,,,,,,2025-10-15,1,,,,,グランウェル,0
2543,9011301030965,新規,0,2025-10-15,2025-10-15,株式会社ＴＡＫＥＮＯＫＯ,,株式会社,東京都,杉並区,西荻南３丁目６－２ことビル３ＦｒｏｏｍＢ,,13,115,1670053,,,,,,,2025-10-15,1,,,,,タケノコ,0
2547,9011501032687,新規,0,2025-10-15,2025-10-15,明和寿ホールディングス株式会社,,株式会社,東京都,荒川区,西尾久７丁目３７番１２号,,13,118,1160011,,,,,,,2025-10-15,1,,,,,メイワコトブキホールディングス,0
2550,9011701028816,新規,0,2025-10-15,2025-10-15,貝楽株式会社,,株式会社,東京都,江戸川区,西小岩５丁目１３－１３－１５２,,13,123,1330057,,,,,,,2025-10-15,1,,,,,カイラク,0
2551,9011701028840,新規,0,2025-10-15,2025-10-15,万宝屋株式会社,,株式会社,東京都,江戸川区,東小岩５丁目３７番１２－３０８号,,13,123,1330052,,,,,,,2025-10-15,1,,,,,マンポウヤ,0
2552,9011801046874,新規,0,2025-10-15,2025-10-15,株式会社フォアサイト,,株式会社,東京都,足立区,六月２丁目１２番１２－６０４号,,13,121,1210814,,,,,,,2025-10-15,1,,,,,フォアサイト,0
2556,9012401043709,新規,0,2025-10-15,2025-10-15,株式会社アイアース,,株式会社,東京都,府中市,宮西町２丁目８番地２,,13,206,1830022,,,,,,,2025-10-15,1,,,,,アイアース,0
2561,9013101009818,新規,0,2025-10-15,2025-10-15,潤沢株式会社,,株式会社,東京都,羽村市,富士見平２丁目７番地２８,,13,227,2050013,,,,,,,2025-10-15,1,,,,,ジュンタク,0
2576,9020001165039,新規,0,2025-10-15,2025-10-15,ＣｈｏＢｉｔ株式会社,,株式会社,神奈川県,横浜市神奈川区,金港町５－１４クアドリフォリオ８階,,14,102,2210056,,,,,,,2025-10-15,1,,,,,チョビット,0
2577,9020001165162,新規,0,2025-10-15,2025-10-15,Ａｒｓｄｏｔ株式会社,,株式会社,神奈川県,横浜市都筑区,中川中央１丁目３０－１プレミアヨコハマ３Ｆ,,14,118,2240003,,,,,,,2025-10-15,1,,,,,アルスドット,0
2578,9020001165170,新規,0,2025-10-15,2025-10-15,株式会社Ｔｗｏ‐Ａｈｅａｄ,,株式会社,神奈川県,横浜市保土ケ谷区,上星川３丁目２２－９コットンハウス２０３号室,,14,106,2400042,,,,,,,2025-10-15,1,,,,,トゥーアヘッド,0
2579,9020001165195,新規,0,2025-10-15,2025-10-15,株式会社ＭＡＲＳＨ‐Ｋ,,株式会社,神奈川県,川崎市高津区,新作３丁目１４番７号,,14,134,2130014,,,,,,,2025-10-15,1,,,,,マーシュケー,0
2580,9020001165220,新規,0,2025-10-15,2025-10-15,株式会社ビッグジョイ,,株式会社,神奈川県,横浜市金沢区,富岡東１丁目２８番２７号,,14,108,2360051,,,,,,,2025-10-15,1,,,,,ビッグジョイ,0
2581,9020001165336,新規,0,2025-10-15,2025-10-15,株式会社住居,,株式会社,神奈川県,横浜市鶴見区,豊岡町３２番１０号,,14,101,2300062,,,,,,,2025-10-15,1,,,,,スマイル,0
2591,9020003029448,新規,0,2025-10-15,2025-10-15,合同会社スミテック,,合同会社,神奈川県,横浜市都筑区,池辺町１８６１番地２,,14,118,2240053,,,,,,,2025-10-15,1,,,,,スミテック,0
2604,9030001169229,新規,0,2025-10-15,2025-10-15,株式会社比企有機農園,,株式会社,埼玉県,比企郡滑川町,大字羽尾１８３２番地１,,11,341,3550811,,,,,,,2025-10-15,1,,,,,ヒキユウキノウエン,0
2611,9030003027558,新規,0,2025-10-15,2025-10-15,ＫＯＤＯＭＯＴＯ合同会社,,合同会社,埼玉県,川口市,本町２丁目３－１６－１０１エクセル本町,,11,203,3320012,,,,,,,2025-10-15,1,,,,,コドモト,0
2612,9030003027847,新規,0,2025-10-15,2025-10-15,香寿合同会社,,合同会社,埼玉県,さいたま市南区,別所４丁目７番１０号,,11,108,3360021,,,,,,,2025-10-15,1,,,,,コウジュ,0
2622,9050001057448,新規,0,2025-10-15,2025-10-15,Ｌｕｃｋｙ　Ｒａｂｂｉｔ　Ｊａｐａｎ株式会社,,株式会社,茨城県,石岡市,東石岡４丁目１１番２９号,,08,205,3150037,,,,,,,2025-10-15,1,,,,,ラッキーラビットジャパン,0
2623,9050001057456,新規,0,2025-10-15,2025-10-15,株式会社ＭＳセレモニー,,株式会社,茨城県,古河市,長左衛門９６３番地１７,,08,204,3060000,,,,,,,2025-10-15,1,,,,,エムエスセレモニー,0
2624,9050003009694,新規,0,2025-10-15,2025-10-15,合同会社高友,00141102,合同会社,茨城県,牛久市,さくら台３丁目３２番地６,,08,219,3001217,,,,,,,2025-10-15,1,,,,,タカトモ,0
2627,9060003005809,新規,0,2025-10-15,2025-10-15,合同会社ｋｍ,,合同会社,栃木県,宇都宮市,東宿郷２丁目１１－３,,09,201,3210953,,,,,,,2025-10-15,1,,,,,キロメートル,0
2631,9070001043446,新規,0,2025-10-15,2025-10-15,株式会社ヴァンセット２７,,株式会社,群馬県,高崎市,寺尾町２３０５番地２５２,,10,202,3700865,,,,,,,2025-10-15,1,,,,,ヴァンセットニジュウナナ,0
2632,9070005010434,新規,0,2025-10-15,2025-10-15,一般社団法人ＮｉｃｏＬｉｎｋ,,その他の設立登記法人,群馬県,高崎市,箕郷町西明屋５３６番地５,,10,202,3703105,,,,,,,2025-10-15,1,,,,,ニコリンク,0
2635,9080001027217,新規,0,2025-10-15,2025-10-15,株式会社さくら,,株式会社,静岡県,静岡市清水区,八千代町１０番２６号,,22,103,4240946,,,,,,,2025-10-15,1,,,,,サクラ,0
2636,9080005007735,新規,0,2025-10-15,2025-10-15,一般財団法人小玉財団,,その他の設立登記法人,静岡県,静岡市駿河区,西脇５６５番地の１,,22,102,4228044,,,,,,,2025-10-15,1,,,,,コダマザイダン,0
2637,9080101025847,新規,0,2025-10-15,2025-10-15,株式会社Ａｍａｎｏｓ,,株式会社,静岡県,御殿場市,西田中１０４番地の５,,22,215,4120027,,,,,,,2025-10-15,1,,,,,アマノス,0
2662,9120001280570,新規,0,2025-10-15,2025-10-15,和光株式会社,,株式会社,大阪府,大阪市北区,堂山町１番５号三共梅田ビル６階センターオフィス内,,27,127,5300027,,,,,,,2025-10-15,1,,,,,ワコウ,0
2663,9120001280777,新規,0,2025-10-15,2025-10-15,興会株式会社,,株式会社,大阪府,大阪市淀川区,西中島６丁目２番３号チサンマンション第７新大阪９１２号室,,27,123,5320011,,,,,,,2025-10-15,1,,,,,キョウカイ,0
2664,9120001280802,新規,0,2025-10-15,2025-10-15,Ｒａｐｔｏｒ　ＡＩ株式会社,,株式会社,大阪府,大阪市中央区,淡路町３丁目２番１号２階,,27,128,5410047,,,,,,,2025-10-15,1,,,,,ラプターエーアイ,0
2665,9120001280967,新規,0,2025-10-15,2025-10-15,豪樂株式会社,,株式会社,大阪府,大阪市東成区,玉津１丁目３－２１玉造イーストビル,,27,115,5370023,,,,,,,2025-10-15,1,,,,,ゴウラク,0
2666,9120001281107,新規,0,2025-10-15,2025-10-15,三喜株式会社,,株式会社,大阪府,大阪市東住吉区,中野４丁目１番１６号リベラルオリエンテ中野３０７Ｂ,,27,121,5460012,,,,,,,2025-10-15,1,,,,,サンキ,0
2667,9120001281115,新規,0,2025-10-15,2025-10-15,＿＿大豐魚丸店株式会社,00141096,株式会社,大阪府,大阪市西成区,鶴見橋２丁目５番６－１０１Ａ,,27,122,5570031,,,,,,,2025-10-15,1,,,,,モウコウダイホウサカナマルテン,0
2680,9122001039732,新規,0,2025-10-15,2025-10-15,株式会社基プロダクションズ,,株式会社,大阪府,東大阪市,北石切町１３番１５号,,27,227,5798015,,,,,,,2025-10-15,1,,,,,モトイプロダクションズ,0
2683,9130001080805,新規,0,2025-10-15,2025-10-15,アムズコーポレーション株式会社,,株式会社,京都府,京都市中京区,西ノ京右馬寮町７番地２２,,26,104,6048492,,,,,,,2025-10-15,1,,,,,アムズコーポレーション,0
2684,9130001080813,新規,0,2025-10-15,2025-10-15,株式会社シュウ,,株式会社,京都府,京都市伏見区,深草キトロ町３３番地１３－４０１,,26,109,6120025,,,,,,,2025-10-15,1,,,,,シュウ,0
2685,9130001080821,新規,0,2025-10-15,2025-10-15,ＫＴ‐Ｐ株式会社,,株式会社,京都府,亀岡市,篠町馬堀向端３４番地４,,26,206,6210823,,,,,,,2025-10-15,1,,,,,ケーティーピー,0
2687,9130003010850,新規,0,2025-10-15,2025-10-15,ミヤチカンパニー合同会社,,合同会社,京都府,京都市伏見区,治部町１０５番地ＡＣＴ京都Ｒ１１－Ｈ号室,,26,109,6128374,,,,,,,2025-10-15,1,,,,,ミヤチカンパニー,0
2699,9140003022705,新規,0,2025-10-15,2025-10-15,合同会社ａｍａｎｄ,,合同会社,兵庫県,神戸市中央区,磯辺通１丁目１番１８号カサベラ国際プラザビル７０７号室,,28,110,6510084,,,,,,,2025-10-15,1,,,,,アマンド,0
2703,9140005027660,新規,0,2025-10-15,2025-10-15,ＮＰＯ法人なごみ,,その他の設立登記法人,兵庫県,宝塚市,栄町２丁目１１－１０,,28,214,6650845,,,,,,,2025-10-15,1,,,,,ナゴミ,0
2707,9160003003629,新規,0,2025-10-15,2025-10-15,合同会社ｔｓｕｋｉとわ,,合同会社,滋賀県,栗東市,小野８９３－２２,,25,208,5203016,,,,,,,2025-10-15,1,,,,,ツキトワ,0
2710,9170005007172,新規,0,2025-10-15,2025-10-15,一般社団法人デイサロンハイディ,,その他の設立登記法人,和歌山県,和歌山市,西浜１３０７－３,,30,201,6410036,,,,,,,2025-10-15,1,,,,,デイサロンハイディ,0
2717,9180001168901,新規,0,2025-10-15,2025-10-15,株式会社渡辺商事,,株式会社,愛知県,名古屋市千種区,今池南２９番１０号川島第二ビル４階４１０号室,,23,101,4640851,,,,,,,2025-10-15,1,,,,,ワタナベショウジ,0
2718,9180001168959,新規,0,2025-10-15,2025-10-15,株式会社ＮＳ苑,,株式会社,愛知県,名古屋市緑区,滝ノ水２丁目１４０１番地５,,23,114,4580021,,,,,,,2025-10-15,1,,,,,エヌエスエン,0
2719,9180001169049,新規,0,2025-10-15,2025-10-15,株式会社ＩＮＵＥ,,株式会社,愛知県,名古屋市東区,東片端町２６番地の２,,23,102,4610015,,,,,,,2025-10-15,1,,,,,イヌエ,0
2720,9180001169057,新規,0,2025-10-15,2025-10-15,Ｔｅｒｒａ　Ｌｉｎｋ株式会社,,株式会社,愛知県,名古屋市中区,丸の内３丁目２１－２１－６０６,,23,106,4600002,,,,,,,2025-10-15,1,,,,,テラリンク,0
2721,9180001169081,新規,0,2025-10-15,2025-10-15,株式会社Ｖ‐ＡＳＡＨＩ,,株式会社,愛知県,知多郡東浦町,大字緒川字上鰻池１番地１５,,23,442,4702102,,,,,,,2025-10-15,1,,,,,ブイアサヒ,0
2722,9180001169107,新規,0,2025-10-15,2025-10-15,株式会社Ｉ　ＬＯＶＥ　ＹＯＵ,,株式会社,愛知県,名古屋市西区,上名古屋２丁目５番１６号ＶＩＳＣＯＮＴＩ３０１,,23,104,4510025,,,,,,,2025-10-15,1,,,,,アイラブユー,0
2725,9180003029192,新規,0,2025-10-15,2025-10-15,ＩＣＨＩ合同会社,,合同会社,愛知県,名古屋市守山区,小幡１丁目１－３１サンライズ小幡３０５号室,,23,113,4630011,,,,,,,2025-10-15,1,,,,,イチ,0
2726,9180003029226,新規,0,2025-10-15,2025-10-15,ＹＧＬ合同会社,,合同会社,愛知県,海部郡大治町,大字西條字七反田１８番地の９,,23,424,4901144,,,,,,,2025-10-15,1,,,,,ワイジーエル,0
2727,9180003029234,新規,0,2025-10-15,2025-10-15,国際人結合同会社,,合同会社,愛知県,名古屋市名東区,高針２丁目２４１８番地,,23,115,4650061,,,,,,,2025-10-15,1,,,,,コクサイヒトムスビ,0
2738,9210001020356,新規,0,2025-10-15,2025-10-15,株式会社山金,,株式会社,福井県,あわら市,下番第６７号１８番地１,,18,208,9104138,,,,,,,2025-10-15,1,,,,,ヤマキン,0
2747,9240001065638,新規,0,2025-10-15,2025-10-15,株式会社ティーランスサポート,,株式会社,広島県,広島市安佐南区,長束３丁目２番１－１０２号,,34,105,7310135,,,,,,,2025-10-15,1,,,,,ティーランスサポート,0
2758,9260003005383,新規,0,2025-10-15,2025-10-15,合同会社Ａｓｔｏｒｉａ　Ｃｏｌｏｒ　Ｐａｒｔｎｅｒｓ,,合同会社,岡山県,岡山市北区,磨屋町７－５磨屋町ファミリービル４０２,,33,101,7000826,,,,,,,2025-10-15,1,,,,,アストリアカラーパートナーズ,0
2759,9260005011529,新規,0,2025-10-15,2025-10-15,一般社団法人天満屋グループ共済会,,その他の設立登記法人,岡山県,岡山市北区,表町２丁目１番１号,,33,101,7000822,,,,,,,2025-10-15,1,,,,,テンマヤグループキョウサイカイ,0
2763,9290003017574,新規,0,2025-10-15,2025-10-15,合同会社ＭＨＳ,,合同会社,福岡県,福岡市西区,愛宕浜４丁目１９番５号,,40,135,8190013,,,,,,,2025-10-15,1,,,,,エムエイチエス,0
2764,9290803005191,新規,0,2025-10-15,2025-10-15,合同会社ＮＩＣＣＯＲＩ,,合同会社,福岡県,行橋市,大橋１丁目４－３,,40,213,8240003,,,,,,,2025-10-15,1,,,,,ニッコリ,0
2776,9360003015315,新規,0,2025-10-15,2025-10-15,うみのわ合同会社,,合同会社,沖縄県,沖縄市,中央１丁目７番８号２Ｆ,,47,211,9040004,,,,,,,2025-10-15,1,,,,,ウミノワ,0
2782,9370001053150,新規,0,2025-10-15,2025-10-15,株式会社渡辺商事,,株式会社,宮城県,亘理郡亘理町,長瀞字南原１９３番地の１３３,00141100,04,361,9892341,,,,,,,2025-10-15,1,,,,,ワタナベショウジ,0
2785,9380001035627,新規,0,2025-10-15,2025-10-15,株式会社Ｊｅｗｅｌ,,株式会社,福島県,郡山市,富田町字不動前４８番地の５,,07,203,9638041,,,,,,,2025-10-15,1,,,,,ジュエル,0
2794,9420005007980,新規,0,2025-10-15,2025-10-15,一般社団法人紫,,その他の設立登記法人,青森県,青森市,富田５丁目５番１６号,,02,201,0380004,,,,,,,2025-10-15,1,,,,,ユカリ,0
2798,9430001095401,新規,0,2025-10-15,2025-10-15,株式会社タカハウス,,株式会社,北海道,札幌市厚別区,大谷地東５丁目３番１２号ハイム大谷地ＩＩ１０３号,00141111,01,108,0040041,,,,,,,2025-10-15,1,,,,,タカハウス,0
2799,9430001095475,新規,0,2025-10-15,2025-10-15,株式会社新星,,株式会社,北海道,札幌市厚別区,厚別中央一条６丁目３番１０－３０３号,,01,108,0040051,,,,,,,2025-10-15,1,,,,,シンセイ,0
2800,9430001095483,新規,0,2025-10-15,2025-10-15,家之介株式会社,,株式会社,北海道,札幌市南区,藤野五条５丁目２１番２２号,,01,106,0612285,,,,,,,2025-10-15,1,,,,,イエノスケ,0
2804,9430003018137,新規,0,2025-10-15,2025-10-15,合同会社リベル,,合同会社,北海道,札幌市中央区,大通西１３丁目４番地１０２,,01,101,0600042,,,,,,,2025-10-15,1,,,,,リベル,0
2805,9430003018186,新規,0,2025-10-15,2025-10-15,シガク合同会社,,合同会社,北海道,札幌市北区,北二十七条西３丁目３番１３－３０２号,,01,102,0010027,,,,,,,2025-10-15,1,,,,,シガク,0
2806,9430003018203,新規,0,2025-10-15,2025-10-15,合同会社そらと大地,,合同会社,北海道,札幌市中央区,北一条西９丁目３番１号南大通ビルＮ１－３階,,01,101,0600001,,,,,,,2025-10-15,1,,,,,ソラトダイチ,0
2807,9430003018228,新規,0,2025-10-15,2025-10-15,Ｐｙｒｏｓ合同会社,,合同会社,北海道,小樽市,長橋１丁目１４番１８号,,01,203,0470036,,,,,,,2025-10-15,1,,,,,ピロス,0
2815,9700150132530,新規,0,2025-10-15,2025-10-15,ＳＡＩＦ　ＩＮＴＥＲＮＡＴＩＯＮＡＬ　ＰＶＴ　ＬＴＤ,,外国会社等,千葉県,夷隅郡大多喜町,下大多喜３２４５番地１オフィス６号,,12,441,2980202,スリランカ民主社会主義共和国、バトゥゴダ、バムヌポラ、プージャピティヤロード、Ｎｏ．１９３／Ａ／２,,,,,,2025-10-15,1,,,,,サイフインタネシヤナルプライベートリミテツド,0
