sequenceNumber,corporateNumber,process,correct,updateDate,changeDate,name,nameImageId,kind,prefectureName,cityName,streetNumber,addressImageId,prefectureCode,cityCode,postCode,addressOutside,addressOutsideImageId,closeDate,closeCause,successorCorporateNumber,changeCause,assignmentDate,latest,enName,enPrefectureName,enCityName,enAddressOutside,furigana,hihyoji
7,1010001259427,新規,0,2025-10-22,2025-10-22,株式会社Ｌｕｃｙ,,株式会社,東京都,千代田区,神田小川町３丁目１６番４号池久ビル３Ｆ,,13,101,1010052,,,,,,,2025-10-22,1,,,,,ルーシー,0
8,1010001259542,新規,0,2025-10-22,2025-10-22,株式会社ＫＯＭＯＲＩ＆ＰＡＲＴＮＥＲＳ,,株式会社,東京都,中央区,東日本橋１丁目３番１０号六波羅ビル２階,,13,102,1030004,,,,,,,2025-10-22,1,,,,,コモリパートナーズ,0
9,1010001259567,新規,0,2025-10-22,2025-10-22,三友医薬株式会社,,株式会社,東京都,中央区,日本橋小舟町９－２ソレイユビル３階,,13,102,1030024,,,,,,,2025-10-22,1,,,,,サンユウイヤク,0
10,1010001259617,新規,0,2025-10-22,2025-10-22,Ｐａｔｈ　Ｏｂｌｉｖｉｏｎ株式会社,,株式会社,東京都,文京区,根津１丁目１６番８－１３０１号,,13,105,1130031,,,,,,,2025-10-22,1,,,,,パスオブリビオン,0
11,1010001259658,新規,0,2025-10-22,2025-10-22,日本プライベート・デット株式会社,,株式会社,東京都,千代田区,丸の内１丁目５番１号,,13,101,1000005,,,,,,,2025-10-22,1,,,,,ニッポンプライベートデット,0
13,1010003048992,新規,0,2025-10-22,2025-10-22,ＮＩＮ　ＩＮＴＥＲＮＡＴＩＯＮＡＬ　ＪＡＰＡＮ合同会社,,合同会社,東京都,千代田区,霞が関３丁目２番５号,,13,101,1000013,,,,,,,2025-10-22,1,,,,,エヌアイエヌインターナショナルジャパン,0
14,1010003049108,新規,0,2025-10-22,2025-10-22,ダントー・アルプス系統用蓄電所Ｃ合同会社,,合同会社,東京都,中央区,銀座１丁目８番１６号３階,,13,102,1040061,,,,,,,2025-10-22,1,,,,,ダントーアルプスケイトウヨウチクデンショシー,0
16,1010005040808,新規,0,2025-10-22,2025-10-22,一般社団法人ＴＬＳ７,,その他の設立登記法人,東京都,千代田区,平河町１丁目６番１５号シルスフィア会計事務所内,,13,101,1020093,,,,,,,2025-10-22,1,,,,,ティーエルエスナナ,0
23,1010401193795,新規,0,2025-10-22,2025-10-22,株式会社ＲＥＡＵＴＨ,,株式会社,東京都,港区,北青山１丁目３－３三橋ビル３階,,13,103,1070061,,,,,,,2025-10-22,1,,,,,リオース,0
24,1010401193820,新規,0,2025-10-22,2025-10-22,株式会社Ａｐ２,,株式会社,東京都,港区,麻布狸穴町５１－１,,13,103,1060042,,,,,,,2025-10-22,1,,,,,エーピーツー,0
25,1010401193853,新規,0,2025-10-22,2025-10-22,株式会社Ｃａｓｔｌｅ　Ｃａｐｉｔａｌ,,株式会社,東京都,港区,新橋５丁目１６番５号スプリュー新橋ビル３Ｆ,,13,103,1050004,,,,,,,2025-10-22,1,,,,,キャッスルキャピタル,0
26,1010401193944,新規,0,2025-10-22,2025-10-22,株式会社ＫＩＮＧ,,株式会社,東京都,港区,六本木７丁目１２番２号Ｒ７ビルディング,,13,103,1060032,,,,,,,2025-10-22,1,,,,,キング,0
27,1010401193952,新規,0,2025-10-22,2025-10-22,Ｍａｔｔｅｒｍｏｓｔ　Ｊａｐａｎ株式会社,,株式会社,東京都,港区,元麻布３丁目１番６号,,13,103,1060046,,,,,,,2025-10-22,1,,,,,マッターモストジャパン,0
28,1010401193960,新規,0,2025-10-22,2025-10-22,スフェンリーシング１株式会社,,株式会社,東京都,港区,虎ノ門１丁目２番６号,,13,103,1050001,,,,,,,2025-10-22,1,,,,,スフェンリーシングワン,0
40,1010603011862,新規,0,2025-10-22,2025-10-22,ティアンドエヌ合同会社,,合同会社,東京都,江東区,大島１丁目３４－１４、５０３,,13,108,1360072,,,,,,,2025-10-22,1,,,,,ティアンドエヌ,0
41,1010603011879,新規,0,2025-10-22,2025-10-22,Ｈｉｓｈｉ　Ｐａｒｔｎｅｒｓ合同会社,,合同会社,東京都,江東区,木場２丁目１５番１２号ＭＡビル１階,,13,108,1350042,,,,,,,2025-10-22,1,,,,,ヒシパートナーズ,0
50,1011001172933,新規,0,2025-10-22,2025-10-22,株式会社Ｏｎ　Ｔｅｃｈｎｏｌｏｇｉｅｓ,,株式会社,東京都,渋谷区,桜丘町１番１号渋谷サクラステージＳＨＩＢＵＹＡタワー,,13,113,1500031,,,,,,,2025-10-22,1,,,,,オンテクノロジーズ,0
51,1011001172941,新規,0,2025-10-22,2025-10-22,株式会社ＬｉｅｎＢｅａｕｔｅ,,株式会社,東京都,渋谷区,代々木１丁目５７番２号ドルミ代々木９０５,,13,113,1510053,,,,,,,2025-10-22,1,,,,,,0
52,1011001172958,新規,0,2025-10-22,2025-10-22,火種戦略株式会社,,株式会社,東京都,渋谷区,神南１丁目１１－４ＦＰＧリンクス神南５階,,13,113,1500041,,,,,,,2025-10-22,1,,,,,ヒダネセンリャク,0
53,1011001172974,新規,0,2025-10-22,2025-10-22,株式会社ＫＥＩ　ＣＯＮＣＥＰＴ　Ｊａｐａｎ,,株式会社,東京都,渋谷区,千駄ヶ谷４丁目２３番５号,,13,113,1510051,,,,,,,2025-10-22,1,,,,,ケイコンセプトジャパン,0
55,1011003022715,新規,0,2025-10-22,2025-10-22,ヒロキです合同会社,,合同会社,東京都,渋谷区,恵比寿西２丁目４番８号ウィンド恵比寿ビル８Ｆ,,13,113,1500021,,,,,,,2025-10-22,1,,,,,ヒロキデス,0
64,1011101113597,新規,0,2025-10-22,2025-10-22,旭日国際商事株式会社,,株式会社,東京都,新宿区,西新宿３丁目３番１３号西新宿水間ビル２Ｆ,,13,104,1600023,,,,,,,2025-10-22,1,,,,,アサヒコクサイショウジ,0
67,1011103016600,新規,0,2025-10-22,2025-10-22,合同会社凪スタジオ,,合同会社,東京都,新宿区,東五軒町１番１１－８０１号,,13,104,1620813,,,,,,,2025-10-22,1,,,,,ナギスタジオ,0
71,1011501032686,新規,0,2025-10-22,2025-10-22,ＧＲＯＷ株式会社,,株式会社,東京都,北区,中里３丁目５番１５号,,13,117,1140015,,,,,,,2025-10-22,1,,,,,グロウ,0
77,1011603004897,新規,0,2025-10-22,2025-10-22,合同会社ｅｎ,,合同会社,東京都,練馬区,旭丘２丁目１９番６号スノーベル江古田Ａ号,,13,120,1760005,,,,,,,2025-10-22,1,,,,,エン,0
89,1020001165327,新規,0,2025-10-22,2025-10-22,株式会社ＬＩＦＴＡ,,株式会社,神奈川県,横浜市港北区,新横浜２丁目５番１０号楓第２ビル９階Ｂ室,,14,109,2220033,,,,,,,2025-10-22,1,,,,,リフタ,0
95,1021001086612,新規,0,2025-10-22,2025-10-22,エースホーム株式会社,,株式会社,神奈川県,綾瀬市,吉岡６２３－５,,14,218,2521124,,,,,,,2025-10-22,1,,,,,エースホーム,0
96,1021001086637,新規,0,2025-10-22,2025-10-22,株式会社ソードフィッシュトロンボーン,,株式会社,神奈川県,逗子市,逗子６丁目５番１号藤和五番館Ｗ＆Ｇ,,14,208,2490006,,,,,,,2025-10-22,1,,,,,ソードフィッシュトロンボーン,0
99,1021005013447,新規,0,2025-10-22,2025-10-22,一般社団法人湘南整形外科,,その他の設立登記法人,神奈川県,藤沢市,鵠沼東１番２号,,14,205,2510026,,,,,,,2025-10-22,1,,,,,ショウナンセイケイゲカ,0
106,1030001169293,新規,0,2025-10-22,2025-10-22,株式会社マーケットテラス,,株式会社,埼玉県,川越市,大字大袋６５０番地,,11,201,3501168,,,,,,,2025-10-22,1,,,,,マーケットテラス,0
107,1030001169302,新規,0,2025-10-22,2025-10-22,株式会社Ｌｉｇｈｔｓ,,株式会社,埼玉県,さいたま市浦和区,常盤３丁目１４番２－２０４号,,11,107,3300061,,,,,,,2025-10-22,1,,,,,ライツ,0
112,1030003027813,新規,0,2025-10-22,2025-10-22,合同会社ＨｉｒｅＢａｓｅ,,合同会社,埼玉県,さいたま市北区,土呂町２丁目６８－１１,,11,102,3310804,,,,,,,2025-10-22,1,,,,,ハイヤーベース,0
113,1030003027937,新規,0,2025-10-22,2025-10-22,合同会社Ｂａｎｇｅｒ,,合同会社,埼玉県,さいたま市浦和区,元町２丁目２３番２０－２０１号,,11,107,3300073,,,,,,,2025-10-22,1,,,,,バンガー,0
118,1040001141144,新規,0,2025-10-22,2025-10-22,株式会社エムラボ,,株式会社,千葉県,野田市,岩名１丁目２７番１７号間中ビル住宅１・２階１Ｆ－３,,12,208,2780055,,,,,,,2025-10-22,1,,,,,エムラボ,0
124,1040003028793,新規,0,2025-10-22,2025-10-22,合同会社千翔,,合同会社,千葉県,浦安市,当代島２丁目１５－２３－２０９,,12,227,2790001,,,,,,,2025-10-22,1,,,,,センショウ,0
125,1040003028868,新規,0,2025-10-22,2025-10-22,六八合同会社,,合同会社,千葉県,山武市,板中新田２０７,,12,237,2891222,,,,,,,2025-10-22,1,,,,,ロクハチ,0
133,1050001057471,新規,0,2025-10-22,2025-10-22,ＵＭＡＩＲ　ＴＲＡＤＩＮＧ株式会社,,株式会社,茨城県,坂東市,小山字和田戸２０５１番地７５,,08,228,3060626,,,,,,,2025-10-22,1,,,,,ウメールトレーディング,0
142,1080101025862,新規,0,2025-10-22,2025-10-22,株式会社ビジョンパートナーズ,,株式会社,静岡県,富士市,横割本町１５番２０号曲松第二ビル３階,,22,210,4160923,,,,,,,2025-10-22,1,,,,,ビジョンパートナーズ,0
144,1090001019567,新規,0,2025-10-22,2025-10-22,株式会社リスチュード,,株式会社,山梨県,北杜市,大泉町谷戸７５４３番地１,,19,209,4091502,,,,,,,2025-10-22,1,,,,,リスチュード,0
145,1090001019575,新規,0,2025-10-22,2025-10-22,日本長青瀛旅株式会社,00141221,株式会社,山梨県,笛吹市,石和町川中島１１２番地１石和セントラルビル５０９,,19,211,4060024,,,,,,,2025-10-22,1,,,,,ニッポンチョウセイエイリョ,0
146,1090003002918,新規,0,2025-10-22,2025-10-22,ホルンフェルス合同会社,,合同会社,山梨県,甲州市,塩山竹森１９４６－２,,19,213,4040051,,,,,,,2025-10-22,1,,,,,ホルンフェルス,0
148,1100005013390,新規,0,2025-10-22,2025-10-22,一般社団法人小栗八平衛商店,,その他の設立登記法人,長野県,上高井郡小布施町,大字小布施１４６０－５,,20,541,3810201,,,,,,,2025-10-22,1,,,,,コクリハチベエショウテン,0
153,1110001039661,新規,0,2025-10-22,2025-10-22,株式会社ＣａｒＴｒｕｓｔ谷川,,株式会社,新潟県,新潟市東区,児池７０番地１,,15,102,9500825,,,,,,,2025-10-22,1,,,,,カートラストタニカワ,0
164,1120001280719,新規,0,2025-10-22,2025-10-22,株式会社Ａｍａｇａｅｒｕ,,株式会社,大阪府,大阪市中央区,淡路町３丁目４－１２サンプラザ淡路町ビル１階,,27,128,5410047,,,,,,,2025-10-22,1,,,,,アマガエル,0
165,1120001280974,新規,0,2025-10-22,2025-10-22,株式会社ＴＲＹ　ＧＲＯＵＰ,,株式会社,大阪府,大阪市東成区,東中本２丁目２－１３,,27,115,5370021,,,,,,,2025-10-22,1,,,,,トライグループ,0
166,1120001281072,新規,0,2025-10-22,2025-10-22,株式会社Ｏ’ｓ　Ｐｌｕｓ,,株式会社,大阪府,大阪市中央区,材木町１－６第１２新興ビル３０１号室,,27,128,5400010,,,,,,,2025-10-22,1,,,,,オズプラス,0
167,1120001281163,新規,0,2025-10-22,2025-10-22,古良吉吉株式会社,,株式会社,大阪府,大阪市西成区,天下茶屋２丁目２１番６－４１０号,,27,122,5570014,,,,,,,2025-10-22,1,,,,,グーリャンジージー,0
168,1120001281171,新規,0,2025-10-22,2025-10-22,喜星株式会社,,株式会社,大阪府,大阪市東住吉区,矢田１丁目２番４ビルシャナ長居５０２号,,27,121,5460023,,,,,,,2025-10-22,1,,,,,キセイ,0
169,1120001281246,新規,0,2025-10-22,2025-10-22,株式会社潤コーポレーション,,株式会社,大阪府,大阪市中央区,谷町７丁目３番４号３０５,,27,128,5420012,,,,,,,2025-10-22,1,,,,,ジュンコーポレーション,0
170,1120001281270,新規,0,2025-10-22,2025-10-22,＿順株式会社,00141204,株式会社,大阪府,大阪市中央区,道頓堀１丁目東２番６号道頓堀東ハイツ２０２号室,,27,128,5420071,,,,,,,2025-10-22,1,,,,,キンジュン,0
171,1120001281279,新規,0,2025-10-22,2025-10-22,青松株式会社,,株式会社,大阪府,大阪市福島区,福島７丁目４番２２－４０３号,,27,103,5530003,,,,,,,2025-10-22,1,,,,,アオマツ,0
173,1120003030931,新規,0,2025-10-22,2025-10-22,合同会社ホライゾン,,合同会社,大阪府,大阪市天王寺区,大道２丁目６－７,,27,109,5430052,,,,,,,2025-10-22,1,,,,,ホライゾン,0
174,1120003031046,新規,0,2025-10-22,2025-10-22,合同会社ＯＮＥＭＩＮＤ,,合同会社,大阪府,大阪市阿倍野区,晴明通１４番１号レオパレスＤｒｅａｍＨｉｌｌｓ２０４号,,27,119,5450032,,,,,,,2025-10-22,1,,,,,ワンマインド,0
183,1120901051665,新規,0,2025-10-22,2025-10-22,株式会社ＫＳサポートオフィス,,株式会社,大阪府,高槻市,城西町５番２７号,,27,207,5690065,,,,,,,2025-10-22,1,,,,,ケイエスサポートオフィス,0
186,1130003010874,新規,0,2025-10-22,2025-10-22,Ｂｕｔｔ　Ｔｒａｄｉｎｇ合同会社,,合同会社,京都府,京都市伏見区,向島本丸町７６－８クレセントヴィラ４Ａ号室,,26,109,6128112,,,,,,,2025-10-22,1,,,,,バットトレーディング,0
188,1130005017488,新規,0,2025-10-22,2025-10-22,一般財団法人吉田光志朗・吉田悠人音楽基金,00141209,その他の設立登記法人,京都府,八幡市,橋本意足１９番地７,,26,210,6148331,,,,,,,2025-10-22,1,,,,,ヨシダコウシロウヨシダユウトオンガクキキン,0
194,1140001140409,新規,0,2025-10-22,2025-10-22,株式会社ＯｎｅＣａｒｅ,,株式会社,兵庫県,神戸市須磨区,道正台１丁目１番１－１２１１号,,28,107,6540122,,,,,,,2025-10-22,1,,,,,,0
195,1140001140425,新規,0,2025-10-22,2025-10-22,株式会社ジェイファイト,,株式会社,兵庫県,姫路市,青山西２丁目２５番３号ハーフタイムリゾート青山１Ｆ,,28,201,6712224,,,,,,,2025-10-22,1,,,,,ジェイファイト,0
196,1140001140441,新規,0,2025-10-22,2025-10-22,株式会社ＮｏｒｉＰｌｕｓ,,株式会社,兵庫県,姫路市,夢前町寺２０５６番地２９,,28,201,6712116,,,,,,,2025-10-22,1,,,,,ノリプラス,0
197,1140001140458,新規,0,2025-10-22,2025-10-22,株式会社スパークルムーン,,株式会社,兵庫県,尼崎市,上坂部３丁目３４番１４－２号レジエス塚口南Ｉ３０２号,00141211,28,202,6610979,,,,,,,2025-10-22,1,,,,,スパークルムーン,0
203,1140003022737,新規,0,2025-10-22,2025-10-22,谷口タム合同会社,,合同会社,兵庫県,神戸市長田区,庄田町３丁目５番１１号濱崎ハイツ２０１号,,28,106,6530035,,,,,,,2025-10-22,1,,,,,タニグチタム,0
204,1140003022753,新規,0,2025-10-22,2025-10-22,シャムロック合同会社,,合同会社,兵庫県,加古川市,神野町西条５４５番地の３,,28,210,6750009,,,,,,,2025-10-22,1,,,,,シャムロック,0
206,1160001027158,新規,0,2025-10-22,2025-10-22,株式会社エクシス,,株式会社,滋賀県,長浜市,七条町７４８番地８,,25,203,5260817,,,,,,,2025-10-22,1,,,,,エクシス,0
213,1180001169147,新規,0,2025-10-22,2025-10-22,株式会社ミウラ,,株式会社,愛知県,名古屋市中村区,岩塚町１丁目２１番地,,23,105,4530862,,,,,,,2025-10-22,1,,,,,ミウラ,0
214,1180001169163,新規,0,2025-10-22,2025-10-22,株式会社ＥＭ,,株式会社,愛知県,名古屋市中区,栄４丁目１３番１５号ハットリビル７階,,23,106,4600008,,,,,,,2025-10-22,1,,,,,イーエム,0
218,1180301040338,新規,0,2025-10-22,2025-10-22,株式会社セントラルスタッフ,,株式会社,愛知県,豊橋市,花田一番町１１６番地ＴＳＢビル３階,,23,201,4418013,,,,,,,2025-10-22,1,,,,,セントラルスタッフ,0
237,1240001065678,新規,0,2025-10-22,2025-10-22,株式会社メルキュール,,株式会社,広島県,広島市安佐南区,山本５丁目３５番１４号Ｂ号室,,34,105,7310137,,,,,,,2025-10-22,1,,,,,メルキュール,0
240,1260001004295,新規,0,2025-10-22,2025-10-22,中国断熱工事株式会社,,株式会社,岡山県,岡山市北区,広瀬町８番３０号,,33,101,7000806,,,,,,,2025-10-22,1,,,,,,0
244,1260001040670,新規,0,2025-10-22,2025-10-22,株式会社エムグランド,,株式会社,岡山県,岡山市北区,西古松２５０－１０９,,33,101,7000927,,,,,,,2025-10-22,1,,,,,エムグランド,0
246,1260005011536,新規,0,2025-10-22,2025-10-22,ＮＰＯ法人岡山やまびこ福祉会,,その他の設立登記法人,岡山県,津山市,林田１９０２番地１６,,33,203,7080822,,,,,,,2025-10-22,1,,,,,オカヤマヤマビコフクシカイ,0
252,1290001111790,新規,0,2025-10-22,2025-10-22,オミコア株式会社,,株式会社,福岡県,福岡市中央区,今川１丁目１－１７－４０１,,40,133,8100054,,,,,,,2025-10-22,1,,,,,,0
253,1290001111873,新規,0,2025-10-22,2025-10-22,ミズノ九州株式会社,,株式会社,福岡県,福岡市中央区,春吉２丁目４番１１－１０２号,,40,133,8100003,,,,,,,2025-10-22,1,,,,,ミズノキュウシュウ,0
260,1340003004995,新規,0,2025-10-22,2025-10-22,合同会社ＮＡＭＡＲＡ,,合同会社,鹿児島県,大島郡和泊町,大字手々知名１０２９番地,,46,533,8919111,,,,,,,2025-10-22,1,,,,,ナマラ,0
266,1380001035650,新規,0,2025-10-22,2025-10-22,新宇株式会社,,株式会社,福島県,郡山市,湖南町福良字惣郷地８５４８番地,,07,203,9631633,,,,,,,2025-10-22,1,,,,,,0
276,1480003002341,新規,0,2025-10-22,2025-10-22,合同会社むぎ彩,,合同会社,徳島県,海部郡牟岐町,大字中村字本村１６４番地,,36,383,7750006,,,,,,,2025-10-22,1,,,,,ムギイロ,0
277,1500001026595,新規,0,2025-10-22,2025-10-22,株式会社大一自動車,,株式会社,愛媛県,今治市,近見町３丁目８番２２号,,38,202,7940007,,,,,,,2025-10-22,1,,,,,ダイイチジドウシャ,0
287,2010001259517,新規,0,2025-10-22,2025-10-22,株式会社ＩｎｄｏＮｉｐｐｏｎＦｕｓｉｏｎＴｅｃｈ,,株式会社,東京都,中央区,日本橋室町１丁目１１番１２号日本橋水野ビル７階,,13,102,1030022,,,,,,,2025-10-22,1,,,,,インドニッポンフュージョンテック,0
289,2010003049123,新規,0,2025-10-22,2025-10-22,合同会社Ｓ,,合同会社,東京都,千代田区,紀尾井町４番１号ニューオータニガーデンコート１２階,,13,101,1020094,,,,,,,2025-10-22,1,,,,,エス,0
290,2010005040815,新規,0,2025-10-22,2025-10-22,一般社団法人ＡＡＪ　Ｍ,,その他の設立登記法人,東京都,千代田区,麹町４丁目５番地２０ドットアンドライン株式会社内,,13,101,1020083,,,,,,,2025-10-22,1,,,,,エーエージェーエム,0
291,2010101016925,新規,0,2025-10-22,2025-10-22,株式会社Ｉｌｌｕｖｉａ,,株式会社,東京都,八王子市,清川町１４－６ローレルコート１０２,,13,201,1930804,,,,,,,2025-10-22,1,,,,,イルヴィア,0
296,2010401193662,新規,0,2025-10-22,2025-10-22,Ｘ株式会社,,株式会社,東京都,港区,六本木７丁目３番８－３０４号,,13,103,1060032,,,,,,,2025-10-22,1,,,,,エックス,0
297,2010401193951,新規,0,2025-10-22,2025-10-22,アピチェエクスパンションゲート株式会社,,株式会社,東京都,港区,芝浦４丁目２２番１－４１０４号,,13,103,1080023,,,,,,,2025-10-22,1,,,,,アピチェエクスパンションゲート,0
298,2010401194025,新規,0,2025-10-22,2025-10-22,ＦＣＩ３株式会社,,株式会社,東京都,港区,六本木３丁目２番１号,,13,103,1060032,,,,,,,2025-10-22,1,,,,,エフシーアイスリー,0
304,2010403036299,新規,0,2025-10-22,2025-10-22,ライドオン合同会社,,合同会社,東京都,港区,赤坂５丁目５番８号,,13,103,1070052,,,,,,,2025-10-22,1,,,,,ライドオン,0
305,2010403036308,新規,0,2025-10-22,2025-10-22,Ｈａｃｈｉ　Ｈｏｓｐｉｔａｌｉｔｙ　Ｈｏｌｄｉｎｇｓ　Ｇｒｏｕｐ合同会社,,合同会社,東京都,港区,赤坂２丁目１４番５号Ｄａｉｗａ赤坂ビル４階,,13,103,1070052,,,,,,,2025-10-22,1,,,,,ハチホスピタリティホールディングスグループ,0
306,2010403036373,新規,0,2025-10-22,2025-10-22,Ｋｏｙａｂａｓｅ合同会社,,合同会社,東京都,港区,南青山３丁目１番３６号青山丸竹ビル６Ｆ,,13,103,1070062,,,,,,,2025-10-22,1,,,,,コヤベース,0
318,2010701048509,新規,0,2025-10-22,2025-10-22,株式会社ｗａｃｏｎ,,株式会社,東京都,品川区,上大崎２丁目１０番３４号,,13,109,1410021,,,,,,,2025-10-22,1,,,,,ワコン,0
331,2011001172924,新規,0,2025-10-22,2025-10-22,株式会社Ｋａｎｏｋ　Ｂｌｕｅ　Ｆｌａｍｅ,,株式会社,東京都,渋谷区,代々木１丁目２５番５号ＢＩＺＳＭＡＲＴ代々木５０９,,13,113,1510053,,,,,,,2025-10-22,1,,,,,カノケーブルーフレーム,0
332,2011001172940,新規,0,2025-10-22,2025-10-22,株式会社イノキューブ,,株式会社,東京都,渋谷区,道玄坂１丁目１０番８号渋谷道玄坂東急ビル２Ｆ－Ｃ,,13,113,1500043,,,,,,,2025-10-22,1,,,,,イノキューブ,0
333,2011001172949,新規,0,2025-10-22,2025-10-22,株式会社Ｓｔｕｄｉｏ　Ｋｕｒｍ,,株式会社,東京都,渋谷区,宇田川町４０番１号,,13,113,1500042,,,,,,,2025-10-22,1,,,,,スタジオクーム,0
334,2011001173237,新規,0,2025-10-22,2025-10-22,株式会社ｎｅｕ,,株式会社,東京都,目黒区,碑文谷５丁目２番５号Ｔ＆Ａビル５Ｆ,,13,110,1520003,,,,,,,2025-10-22,1,,,,,ノイ,0
346,2011603004888,新規,0,2025-10-22,2025-10-22,合同会社ズボンドッグ,,合同会社,東京都,練馬区,中村北２丁目１８番１１号ラシクラスＩｎｆｉｎａ中村橋６０１,,13,120,1760023,,,,,,,2025-10-22,1,,,,,ズボンドッグ,0
347,2011603004896,新規,0,2025-10-22,2025-10-22,合同会社ｃａｌｍ,,合同会社,東京都,練馬区,中村北３丁目２１番７号サンユー中村ビル４階,,13,120,1760023,,,,,,,2025-10-22,1,,,,,カーム,0
357,2012701019150,新規,0,2025-10-22,2025-10-22,Ｍ＆Ｄ株式会社,,株式会社,東京都,西東京市,北町３丁目２番２８号,,13,229,2020003,,,,,,,2025-10-22,1,,,,,エムアンドディ,0
361,2013301055164,新規,0,2025-10-22,2025-10-22,ＳＲＩＬＥＭ　ＴＲＡＮＳＫＥＴ　ＭＬＳ　Ｊａｐａｎ株式会社,,株式会社,東京都,豊島区,池袋２丁目１３番４号天翔池袋西口ビル４０６,,13,116,1710014,,,,,,,2025-10-22,1,,,,,スリレムトランスケットエムエルエスジャパン,0
378,2020001165400,新規,0,2025-10-22,2025-10-22,株式会社未来リンク,,株式会社,神奈川県,横浜市神奈川区,西寺尾４丁目７番１１－１号１階,,14,102,2210001,,,,,,,2025-10-22,1,,,,,ミライリンク,0
381,2020003029652,新規,0,2025-10-22,2025-10-22,合同会社ＩＮＴＥＧＲＡ,,合同会社,神奈川県,横浜市緑区,白山２丁目１８番２３号エバー・ガーデンＫ３０１号,,14,113,2260006,,,,,,,2025-10-22,1,,,,,インテグラ,0
388,2021001086454,新規,0,2025-10-22,2025-10-22,株式会社クリダス,,株式会社,神奈川県,茅ヶ崎市,萩園３１６１番地１－１００２号,,14,207,2530071,,,,,,,2025-10-22,1,,,,,クリダス,0
389,2021001086603,新規,0,2025-10-22,2025-10-22,株式会社ＳＨＩＺＵＫＡ　Ｖｉｋｉｎｇｓ,,株式会社,神奈川県,厚木市,金田４９２－１,,14,212,2430807,,,,,,,2025-10-22,1,,,,,シズカバイキングス,0
392,2021003016731,新規,0,2025-10-22,2025-10-22,合同会社ｔｋｗｏｒｋｓ,,合同会社,神奈川県,南足柄市,塚原１３６０番地７,00141202,14,217,2500117,,,,,,,2025-10-22,1,,,,,ティーケーワークス,0
398,2030001169243,新規,0,2025-10-22,2025-10-22,株式会社ディエス,,株式会社,埼玉県,熊谷市,石原１４０１番地２４,,11,202,3600816,,,,,,,2025-10-22,1,,,,,ディエス,0
399,2030001169276,新規,0,2025-10-22,2025-10-22,株式会社ＳＡＮＳＥＩ,,株式会社,埼玉県,三郷市,上彦名１４１番地１ハイツ明星新館壱号１０１,,11,237,3410004,,,,,,,2025-10-22,1,,,,,サンセイ,0
400,2030001169301,新規,0,2025-10-22,2025-10-22,株式会社Ｌｉｂｅｒ,,株式会社,埼玉県,さいたま市大宮区,桜木町２丁目３番地大宮マルイ７階,,11,103,3300854,,,,,,,2025-10-22,1,,,,,リベル,0
401,2030001169318,新規,0,2025-10-22,2025-10-22,秩父合角まつり電力株式会社,,株式会社,埼玉県,秩父市,上吉田４３２７番地,,11,207,3691505,,,,,,,2025-10-22,1,,,,,チチブカッカクマツリデンリョク,0
402,2030001169334,新規,0,2025-10-22,2025-10-22,富昇グローバル株式会社,,株式会社,埼玉県,吉川市,大字土場１２０番地３,,11,243,3420026,,,,,,,2025-10-22,1,,,,,トミショウグローバル,0
408,2030003027928,新規,0,2025-10-22,2025-10-22,合同会社カイマネジメント,,合同会社,埼玉県,八潮市,大字大曽根１６３７番地,,11,234,3400834,,,,,,,2025-10-22,1,,,,,カイマネジメント,0
409,2030003027936,新規,0,2025-10-22,2025-10-22,元昊合同会社,,合同会社,埼玉県,上尾市,本町４丁目１１番５－３０２号根貝戸団地,,11,219,3620014,,,,,,,2025-10-22,1,,,,,ケンゴン,0
411,2040001140970,新規,0,2025-10-22,2025-10-22,株式会社ロハラ,,株式会社,千葉県,成田市,本城１３７番地１,,12,211,2860114,,,,,,,2025-10-22,1,,,,,ロハラ,0
412,2040001140979,新規,0,2025-10-22,2025-10-22,株式会社ＧＡＴＥ,,株式会社,千葉県,船橋市,三山３丁目３４番８－１号,,12,204,2740072,,,,,,,2025-10-22,1,,,,,ゲート,0
413,2040001141003,新規,0,2025-10-22,2025-10-22,株式会社Ｃｉｒｃｌｅ　ｔｒｅｅ．,,株式会社,千葉県,木更津市,東太田１丁目５番９号,,12,206,2920043,,,,,,,2025-10-22,1,,,,,サークルツリー,0
414,2040001141011,新規,0,2025-10-22,2025-10-22,菊田建築環境デザイン株式会社,,株式会社,千葉県,千葉市中央区,中央２丁目５－１千葉中央ツインビル２号館７階ＣＨＩＢＡ－ＬＡＢＯ,,12,101,2600013,,,,,,,2025-10-22,1,,,,,キクタケンチクカンキョウデザイン,0
415,2040005022901,新規,0,2025-10-22,2025-10-22,医療法人社団深風,,その他の設立登記法人,千葉県,千葉市中央区,神明町３３番地７,,12,101,2600022,,,,,,,2025-10-22,1,,,,,ミカゼ,0
416,2050003009701,新規,0,2025-10-22,2025-10-22,サヒ合同会社,,合同会社,茨城県,北相馬郡利根町,大字布川２９９４,,08,564,3001622,,,,,,,2025-10-22,1,,,,,サヒ,0
429,2080101025861,新規,0,2025-10-22,2025-10-22,フロムスクラッチ株式会社,,株式会社,静岡県,沼津市,大諏訪８１３番地の３、１Ｆ,,22,203,4100873,,,,,,,2025-10-22,1,,,,,フロムスクラッチ,0
433,2080403005371,新規,0,2025-10-22,2025-10-22,合同会社マックス,,合同会社,静岡県,磐田市,見付２４２８－１４,,22,211,4380086,,,,,,,2025-10-22,1,,,,,マックス,0
434,2090001019574,新規,0,2025-10-22,2025-10-22,株式会社ＬＩＦＥ,,株式会社,山梨県,南巨摩郡身延町,梅平２２２８番地１,,19,365,4092531,,,,,,,2025-10-22,1,,,,,ライフ,0
437,2110001039660,新規,0,2025-10-22,2025-10-22,株式会社Ｔ＆Ｍ,,株式会社,新潟県,南魚沼郡湯沢町,大字土樽５１１３番地,00141203,15,461,9496103,,,,,,,2025-10-22,1,,,,,ティーアンドエム,0
439,2110003005933,新規,0,2025-10-22,2025-10-22,ビッグスタンリージャパン合同会社,,合同会社,新潟県,南魚沼市,寺尾１４９４番地３－２号室,,15,226,9497104,,,,,,,2025-10-22,1,,,,,ビッグスタンリージャパン,0
463,2120001281047,新規,0,2025-10-22,2025-10-22,振昇商事株式会社,,株式会社,大阪府,大阪市西区,阿波座１丁目１５番１５号第一協業ビル６Ｆ,,27,106,5500011,,,,,,,2025-10-22,1,,,,,シンショウショウジ,0
464,2120001281179,新規,0,2025-10-22,2025-10-22,株式会社Ｑｕａｌｉ　Ｆｉｔ　Ｃｏｒｅ,,株式会社,大阪府,大阪市中央区,日本橋２丁目１５番１８号野邊ビル,,27,128,5420073,,,,,,,2025-10-22,1,,,,,クオリフィットコア,0
465,2120001281220,新規,0,2025-10-22,2025-10-22,ＳＡＮＣ．株式会社,,株式会社,大阪府,枚方市,中宮東之町２８番６号,,27,210,5731195,,,,,,,2025-10-22,1,,,,,サンク,0
466,2120001281294,新規,0,2025-10-22,2025-10-22,株式会社円都建設,,株式会社,大阪府,守口市,菊水通２丁目１９－１菊水第二ビル４０５,,27,209,5700032,,,,,,,2025-10-22,1,,,,,マルトケンセツ,0
467,2120001281336,新規,0,2025-10-22,2025-10-22,株式会社瀾渓,,株式会社,大阪府,大阪市中央区,南船場３丁目２番２２号おおきに南船場ビル２０５,,27,128,5420081,,,,,,,2025-10-22,1,,,,,ランケイ,0
470,2120003031029,新規,0,2025-10-22,2025-10-22,合同会社Ｃｏｍｏｄｏ,,合同会社,大阪府,大阪市東淀川区,東中島１丁目１７番５号,,27,114,5330033,,,,,,,2025-10-22,1,,,,,コモード,0
471,2120003031045,新規,0,2025-10-22,2025-10-22,合同会社Ｌｕｖｉａ,,合同会社,大阪府,大阪市中央区,南船場３丁目３番３号ＬＵＯＧＯ３３３‐３０１号,,27,128,5420081,,,,,,,2025-10-22,1,,,,,ルビア,0
485,2130001080852,新規,0,2025-10-22,2025-10-22,金水堂株式会社,,株式会社,京都府,京都市中京区,竹屋町通烏丸東入清水町３８２番地１,,26,104,6040874,,,,,,,2025-10-22,1,,,,,キンスイドウ,0
488,2130005017487,新規,0,2025-10-22,2025-10-22,一般社団法人ＣＴＷ,,その他の設立登記法人,京都府,京都市中京区,藤木町２４－２藤ビル２Ｆ,,26,104,6040992,,,,,,,2025-10-22,1,,,,,シーティーダブリュー,0
495,2140001140218,新規,0,2025-10-22,2025-10-22,株式会社エタニティグロウ,,株式会社,兵庫県,西宮市,本町１０－１４大草ビル１０３号室,,28,204,6620914,,,,,,,2025-10-22,1,,,,,エタニティグロウ,0
496,2140001140440,新規,0,2025-10-22,2025-10-22,レボリューション株式会社,,株式会社,兵庫県,尼崎市,西大物町１２－４１,,28,202,6600827,,,,,,,2025-10-22,1,,,,,レボリューション,0
497,2140001140473,新規,0,2025-10-22,2025-10-22,株式会社幸智,,株式会社,兵庫県,神戸市西区,北別府３丁目１９番地の４,,28,111,6512117,,,,,,,2025-10-22,1,,,,,ユキチ,0
500,2140003022752,新規,0,2025-10-22,2025-10-22,合同会社ＴＫ企画,,合同会社,兵庫県,尼崎市,東園田町５丁目１０８番地の１５,,28,202,6610953,,,,,,,2025-10-22,1,,,,,ティケイキカク,0
503,2160003003635,新規,0,2025-10-22,2025-10-22,合同会社Ｎｏ．ＮＩ,,合同会社,滋賀県,草津市,大路２丁目１番７号－４１０号,,25,206,5250032,,,,,,,2025-10-22,1,,,,,ノニ,0
509,2180001169071,新規,0,2025-10-22,2025-10-22,株式会社Ｕｎｉｔｙ　Ｅｓｔａｔｅ,,株式会社,愛知県,名古屋市中区,丸の内２丁目１９番３２号パインツリー丸の内５１１号室,,23,106,4600002,,,,,,,2025-10-22,1,,,,,ユニティーエステート,0
510,2180001169113,新規,0,2025-10-22,2025-10-22,株式会社双葉,,株式会社,愛知県,あま市,下萱津平島４１番地２,,23,237,4901114,,,,,,,2025-10-22,1,,,,,フタバ,0
511,2180001169237,新規,0,2025-10-22,2025-10-22,株式会社ＰＯＰ　ＦＡＭＩＬＹ,,株式会社,愛知県,北名古屋市,能田北屋敷４０２番地２,,23,234,4810003,,,,,,,2025-10-22,1,,,,,ポップファミリー,0
513,2180003029281,新規,0,2025-10-22,2025-10-22,合同会社Ｓ　ＭＥＴＡＬ,,合同会社,愛知県,名古屋市南区,豊田３丁目１０番７号,,23,112,4570841,,,,,,,2025-10-22,1,,,,,エスメタル,0
523,2200001044362,新規,0,2025-10-22,2025-10-22,ｙａｍａｓｏｎｇ株式会社,,株式会社,岐阜県,岐阜市,長良３０７５番地９,,21,201,5020071,,,,,,,2025-10-22,1,,,,,ヤマソング,0
530,2230003002522,新規,0,2025-10-22,2025-10-22,資産管理アルト合同会社,,合同会社,富山県,富山市,中島３丁目８番１５号,,16,201,9300801,,,,,,,2025-10-22,1,,,,,シサンカンリアルト,0
533,2260001003081,新規,0,2025-10-22,2025-10-22,三和造機株式会社,,株式会社,岡山県,岡山市北区,平野５６２番地の１,,33,101,7010151,,,,,,,2025-10-22,1,,,,,サンワゾウキ,0
547,2290001111815,新規,0,2025-10-22,2025-10-22,株式会社スデニアル,,株式会社,福岡県,福岡市早良区,室見４丁目６－２２,,40,137,8140015,,,,,,,2025-10-22,1,,,,,スデニアル,0
548,2290001111823,新規,0,2025-10-22,2025-10-22,ネビュラＴｒａｄｉｎｇ株式会社,,株式会社,福岡県,福岡市西区,愛宕２丁目１１番３４号愛宕山ハイリビング４２０号,,40,135,8190015,,,,,,,2025-10-22,1,,,,,ネビュラトレーディング,0
549,2290001111856,新規,0,2025-10-22,2025-10-22,株式会社雅,,株式会社,福岡県,久留米市,北野町大城１１０－４,,40,203,8301104,,,,,,,2025-10-22,1,,,,,ミヤビ,0
550,2290001111880,新規,0,2025-10-22,2025-10-22,秀友工務店株式会社,,株式会社,福岡県,筑後市,大字熊野８１０番地８,,40,211,8330055,,,,,,,2025-10-22,1,,,,,シュウユウコウムテン,0
555,2290003017630,新規,0,2025-10-22,2025-10-22,Ｓｔｒｅｅｔｓｈｏｗ　Ｐｒｏｄｕｃｔｉｏｎｓ合同会社,,合同会社,福岡県,宗像市,日の里１丁目２０－２,,40,220,8113425,,,,,,,2025-10-22,1,,,,,ストリートショープロダクションズ,0
564,2360001035924,新規,0,2025-10-22,2025-10-22,株式会社長崎設計研究所,,株式会社,沖縄県,宮古島市,平良字東仲宗根６３３番地３,,47,214,9060007,,,,,,,2025-10-22,1,,,,,ナガサキセッケイケンキュショ,0
571,2380001035658,新規,0,2025-10-22,2025-10-22,鹿嶼インテリジェント株式会社,,株式会社,福島県,白河市,古高山２番地３２７,,07,205,9610841,,,,,,,2025-10-22,1,,,,,シカジマインテリジェント,0
578,2420005007979,新規,0,2025-10-22,2025-10-22,一般社団法人アボリジニ,,その他の設立登記法人,青森県,平川市,日沼樋田７４番地,,02,210,0360233,,,,,,,2025-10-22,1,,,,,アボリジニ,0
586,2500001026594,新規,0,2025-10-22,2025-10-22,株式会社Ｎｅｏ　Ｘａｎａｄｕ　Ｅｘ　Ｍａｃｈｉｎａ,,株式会社,愛媛県,松山市,森松町１０３５番地１,,38,201,7911113,,,,,,,2025-10-22,1,,,,,ネオザナドゥエクスマキナ,0
587,2500005008829,新規,0,2025-10-22,2025-10-22,縁行政書士法人,,その他の設立登記法人,愛媛県,松山市,上野町甲１３７４番地１,,38,201,7911136,,,,,,,2025-10-22,1,,,,,,0
596,3010003049015,新規,0,2025-10-22,2025-10-22,１０４合同会社,,合同会社,東京都,千代田区,霞が関３丁目２番５号,,13,101,1000013,,,,,,,2025-10-22,1,,,,,イチマルヨン,0
597,3010003049130,新規,0,2025-10-22,2025-10-22,ＥｎｄｕｒｏＳａｔ合同会社,,合同会社,東京都,中央区,銀座７丁目２番６号銀座アステルビル４階,,13,102,1040061,,,,,,,2025-10-22,1,,,,,エンデュロサット,0
598,3010003049139,新規,0,2025-10-22,2025-10-22,クロノクエスト合同会社,,合同会社,東京都,中央区,日本橋人形町１丁目４－６クレストコート日本橋人形町１１０３,,13,102,1030013,,,,,,,2025-10-22,1,,,,,クロノクエスト,0
600,3010005040822,新規,0,2025-10-22,2025-10-22,浅草２一般社団法人,,その他の設立登記法人,東京都,千代田区,神田小川町３丁目２６番８号神田小川町三丁目ビル６階,,13,101,1010052,,,,,,,2025-10-22,1,,,,,アサクサツー,0
602,3010101016924,新規,0,2025-10-22,2025-10-22,ＭｉｒａｉＣｒａｆｔ八王子株式会社,,株式会社,東京都,八王子市,城山手２丁目２７番１７号,,13,201,1930825,,,,,,,2025-10-22,1,,,,,ミライクラフトハチオウジ,0
618,3010401193868,新規,0,2025-10-22,2025-10-22,株式会社Ｆｏｌｔａ,,株式会社,東京都,港区,虎ノ門２丁目２番１号住友不動産虎ノ門タワー１７階,,13,103,1050001,,,,,,,2025-10-22,1,,,,,フォルタ,0
619,3010401194057,新規,0,2025-10-22,2025-10-22,ＬＳ‐ＳＨＩＰ第８８号株式会社,,株式会社,東京都,港区,六本木１丁目６番１号,,13,103,1060032,,,,,,,2025-10-22,1,,,,,エルエスシップダイハチジュウハチゴウ,0
623,3010403036125,新規,0,2025-10-22,2025-10-22,Ｍｕｓｕｂｉ合同会社,,合同会社,東京都,港区,六本木３丁目１６番１２号六本木ＫＳビル５Ｆ,,13,103,1060032,,,,,,,2025-10-22,1,,,,,ムスビ,0
625,3010501054862,新規,0,2025-10-22,2025-10-22,ナレッジボイス株式会社,,株式会社,東京都,台東区,上野１丁目１７番６号広小路ビル８Ｆ－Ｂ,,13,106,1100005,,,,,,,2025-10-22,1,,,,,ナレッジボイス,0
628,3010601068151,新規,0,2025-10-22,2025-10-22,株式会社ディボート,,株式会社,東京都,江東区,亀戸５丁目１５番４号,,13,108,1360071,,,,,,,2025-10-22,1,,,,,ディボート,0
629,3010603011877,新規,0,2025-10-22,2025-10-22,シカゴ合同会社,,合同会社,東京都,江東区,越中島３丁目６－１－１１０１,,13,108,1350044,,,,,,,2025-10-22,1,,,,,シカゴ,0
634,3010701048490,新規,0,2025-10-22,2025-10-22,株式会社ＭｅｄｉｃａｌＸ,,株式会社,東京都,品川区,西五反田８丁目２－１３,,13,109,1410031,,,,,,,2025-10-22,1,,,,,メディカルエックス,0
651,3011001172626,新規,0,2025-10-22,2025-10-22,株式会社ＩＭＫ　Ｌｉｎｃｉａ,,株式会社,東京都,渋谷区,神宮前５丁目５０番５号,,13,113,1500001,,,,,,,2025-10-22,1,,,,,アイエムケイリンシア,0
652,3011001172923,新規,0,2025-10-22,2025-10-22,株式会社ＨＡＬＯ,,株式会社,東京都,渋谷区,神宮前５丁目５２番２号,,13,113,1500001,,,,,,,2025-10-22,1,,,,,ヘイロー,0
653,3011001172948,新規,0,2025-10-22,2025-10-22,株式会社よりみち,,株式会社,東京都,渋谷区,恵比寿西２丁目４番８号ウィンド恵比寿ビル８Ｆ,,13,113,1500021,,,,,,,2025-10-22,1,,,,,ヨリミチ,0
654,3011001172956,新規,0,2025-10-22,2025-10-22,株式会社ＮＤＰ　Ｅｎｔｅｒｔａｉｎｍｅｎｔ　Ｈｏｌｄｉｎｇｓ,,株式会社,東京都,渋谷区,恵比寿１丁目１９番１５号ウノサワ東急ビル３階Ｆ区画,,13,113,1500013,,,,,,,2025-10-22,1,,,,,エヌディーピーエンターテインメントホールディングス,0
655,3011001172972,新規,0,2025-10-22,2025-10-22,株式会社Ｄａｌｌｅ　Ｏｒｅ　Ｊａｐａｎ,,株式会社,東京都,目黒区,鷹番３丁目１６番８号浜崎ビル２階,,13,110,1520004,,,,,,,2025-10-22,1,,,,,ダレオレジャパン,0
656,3011003022713,新規,0,2025-10-22,2025-10-22,ＰｅａｂｅｒｒｙＢｙｔｅ合同会社,,合同会社,東京都,渋谷区,道玄坂１丁目１６番６号二葉ビル８ｂ,,13,113,1500043,,,,,,,2025-10-22,1,,,,,ピーベリーバイト,0
657,3011003022812,新規,0,2025-10-22,2025-10-22,ＫＩｉＫＩ合同会社,,合同会社,東京都,渋谷区,神南１丁目１１－４ＦＰＧリンクス神南５階,,13,113,1500041,,,,,,,2025-10-22,1,,,,,キイキ,0
661,3011101113595,新規,0,2025-10-22,2025-10-22,株式会社Ｌｉｂｅｒｔｅ,,株式会社,東京都,新宿区,西新宿３丁目３番１３号西新宿水間ビル２Ｆ,,13,104,1600023,,,,,,,2025-10-22,1,,,,,リベルテ,0
662,3011101113612,新規,0,2025-10-22,2025-10-22,株式会社ＭＳＴ,,株式会社,東京都,新宿区,大久保２丁目１８－１０新宿スカイプラザ１１０３号,,13,104,1690072,,,,,,,2025-10-22,1,,,,,エムエスティー,0
663,3011101113711,新規,0,2025-10-22,2025-10-22,株式会社ＫＡＺＵ管工設備,,株式会社,東京都,新宿区,高田馬場４丁目１６番１７号,,13,104,1690075,,,,,,,2025-10-22,1,,,,,カズカンコウセツビ,0
675,3011503006744,新規,0,2025-10-22,2025-10-22,合同会社ＣＨＡＵＤＨＡＲＹ,,合同会社,東京都,北区,滝野川３丁目４３番６号セントラルハウス２－１０５号,,13,117,1140023,,,,,,,2025-10-22,1,,,,,チャウダリ,0
677,3011601029119,新規,0,2025-10-22,2025-10-22,迅宜株式会社,,株式会社,東京都,練馬区,大泉学園町３丁目１番３２－４０３号,,13,120,1780061,,,,,,,2025-10-22,1,,,,,ジンギ,0
682,3011801046905,新規,0,2025-10-22,2025-10-22,株式会社ＫＵＲＯＺＩＫＡ,,株式会社,東京都,足立区,千住宮元町１３－１４ＣＯＣＯＣＵＢＥ北千住ＩＩ２０３,00141223,13,121,1200043,,,,,,,2025-10-22,1,,,,,クロジカ,0
708,3030001169291,新規,0,2025-10-22,2025-10-22,株式会社ＣＳＯ,,株式会社,埼玉県,戸田市,笹目１丁目３４番地の２７,,11,224,3350034,,,,,,,2025-10-22,1,,,,,シーエスオー,0
709,3030001169300,新規,0,2025-10-22,2025-10-22,株式会社Ｆｒｏｎｔ　Ｖｉｌｌａｇｅ,,株式会社,埼玉県,東松山市,殿山町８番地３２,,11,212,3550003,,,,,,,2025-10-22,1,,,,,フロントヴィレッジ,0
710,3030001169309,新規,0,2025-10-22,2025-10-22,株式会社Ｗｏｒｌｄ’ｓ　Ｗｉｄｅ,,株式会社,埼玉県,さいたま市南区,辻７丁目１０番１０号レーベン北戸田ＡＴＯＭＯＳ３０５号,00141213,11,108,3360026,,,,,,,2025-10-22,1,,,,,ワールドワイド,0
711,3030001169325,新規,0,2025-10-22,2025-10-22,ドラゴンスター株式会社,,株式会社,埼玉県,さいたま市岩槻区,美園東３丁目１－１１－１０２,,11,110,3390028,,,,,,,2025-10-22,1,,,,,ドラゴンスター,0
719,3030003027919,新規,0,2025-10-22,2025-10-22,彩の国ホームケア合同会社,,合同会社,埼玉県,狭山市,笹井１丁目３６番２４号,,11,215,3501327,,,,,,,2025-10-22,1,,,,,サイノクニホームケア,0
720,3030003027935,新規,0,2025-10-22,2025-10-22,合同会社Ｆｏｃｕｓ　Ｏｎ,,合同会社,埼玉県,さいたま市大宮区,桜木町１丁目３７８,,11,103,3300854,,,,,,,2025-10-22,1,,,,,フォーカスオン,0
722,3040001140994,新規,0,2025-10-22,2025-10-22,株式会社早川電気,,株式会社,千葉県,柏市,藤心１丁目６番３０号,,12,217,2770034,,,,,,,2025-10-22,1,,,,,ハヤカワデンキ,0
723,3040001141010,新規,0,2025-10-22,2025-10-22,株式会社レイラフード,,株式会社,千葉県,印西市,平賀２８５７番地,,12,231,2701605,,,,,,,2025-10-22,1,,,,,レイラフード,0
724,3040005022900,新規,0,2025-10-22,2025-10-22,医療法人社団日医会,,その他の設立登記法人,千葉県,市川市,八幡３丁目２６番１号ガレ本八幡１階,,12,203,2720021,,,,,,,2025-10-22,1,,,,,ニチイカイ,0
727,3050003009709,新規,0,2025-10-22,2025-10-22,合同会社禅来Ｘ,,合同会社,茨城県,坂東市,中里１１０８番地１,,08,228,3060634,,,,,,,2025-10-22,1,,,,,ゼンライエックス,0
728,3060005010382,新規,0,2025-10-22,2025-10-22,一般社団法人ＵＴＳＵＮＯＭＩＹＡ　ＩＳＬＡＭＩＣ　ＣＵＬＴＵＲＡＬ　ＣＥＮＴＥＲ,,その他の設立登記法人,栃木県,宇都宮市,峰町３１０番地,,09,201,3210943,,,,,,,2025-10-22,1,,,,,ウツノミヤイスラミックカルチャールセンター,0
733,3080001027230,新規,0,2025-10-22,2025-10-22,株式会社Ｒ１０２０,,株式会社,静岡県,焼津市,八楠３丁目６番地の５,,22,212,4250091,,,,,,,2025-10-22,1,,,,,アールイチゼロニイゼロ,0
744,3100003008440,新規,0,2025-10-22,2025-10-22,合同会社ノ々,,合同会社,長野県,長野市,篠ノ井横田４７４番地１,,20,201,3888005,,,,,,,2025-10-22,1,,,,,ノノ,0
746,3110002035278,新規,0,2025-10-22,2025-10-22,有限会社いずみ商事,,有限会社,新潟県,新潟市中央区,関屋浜松町２８番地,,15,103,9518166,,,,,,,2025-10-22,1,,,,,イズミショウジ,0
757,3120001281186,新規,0,2025-10-22,2025-10-22,和景リゾート株式会社,,株式会社,大阪府,大阪市浪速区,敷津西２丁目６番８号マンション松原１１０５号,,27,111,5560015,,,,,,,2025-10-22,1,,,,,ワケイリゾート,0
758,3120001281384,新規,0,2025-10-22,2025-10-22,株式会社純王,,株式会社,大阪府,寝屋川市,香里新町２６番３号,,27,215,5720085,,,,,,,2025-10-22,1,,,,,ジュンオウ,0
765,3120003031052,新規,0,2025-10-22,2025-10-22,三協リゾート合同会社,,合同会社,大阪府,大阪市中央区,久太郎町２丁目５番５－５０２号,,27,128,5410056,,,,,,,2025-10-22,1,,,,,サンキョウリゾート,0
776,3130001080851,新規,0,2025-10-22,2025-10-22,株式会社ＲｅＶ,,株式会社,京都府,宇治市,木幡平尾２７番地の５８５,,26,204,6110002,,,,,,,2025-10-22,1,,,,,レヴ,0
782,3140001140431,新規,0,2025-10-22,2025-10-22,株式会社ＢＯＮＳＡＩ　Ｅｎｔｅｒｐｒｉｓｅ,,株式会社,兵庫県,神戸市中央区,新港町１３番２号ベイシティタワーズ神戸ＷＥＳＴ１９１１号,,28,110,6500041,,,,,,,2025-10-22,1,,,,,ボンサイエンタープライズ,0
783,3140001140472,新規,0,2025-10-22,2025-10-22,株式会社ｄａｕｇｈｔｅｒ　ｃｕｌｔｉｖａｔｅ,,株式会社,兵庫県,神戸市中央区,下山手通３丁目４番３号西３階,,28,110,6500011,,,,,,,2025-10-22,1,,,,,ドーターカルティベイト,0
784,3140001140480,新規,0,2025-10-22,2025-10-22,株式会社石秀,,株式会社,兵庫県,明石市,林３丁目９番６号,,28,203,6730034,,,,,,,2025-10-22,1,,,,,イシヒデ,0
788,3140003022751,新規,0,2025-10-22,2025-10-22,合同会社アバロ,,合同会社,兵庫県,加東市,天神１５４９番地,,28,228,6731311,,,,,,,2025-10-22,1,,,,,アバロ,0
789,3160003003634,新規,0,2025-10-22,2025-10-22,合同会社エルテン,,合同会社,滋賀県,東近江市,野村町１７３番地,,25,213,5270047,,,,,,,2025-10-22,1,,,,,エルテン,0
794,3180001169038,新規,0,2025-10-22,2025-10-22,アフェクツ株式会社,,株式会社,愛知県,名古屋市中村区,名駅４丁目２４番５号第２森ビル４０１,,23,105,4500002,,,,,,,2025-10-22,1,,,,,アフェクツ,0
795,3180001169194,新規,0,2025-10-22,2025-10-22,パーフェクト株式会社,,株式会社,愛知県,名古屋市中区,新栄２丁目２番１号,,23,106,4600007,,,,,,,2025-10-22,1,,,,,パーフェクト,0
796,3180001169228,新規,0,2025-10-22,2025-10-22,株式会社ナースＸ,,株式会社,愛知県,あま市,篠田４丁目７５番地２,,23,237,4901211,,,,,,,2025-10-22,1,,,,,ナースエックス,0
797,3180003029215,新規,0,2025-10-22,2025-10-22,合同会社国立ケアプランニング,,合同会社,愛知県,瀬戸市,品野町７丁目２５番地の２,,23,204,4801207,,,,,,,2025-10-22,1,,,,,クニタテケアプランニング,0
798,3180003029280,新規,0,2025-10-22,2025-10-22,合同会社皇紀,,合同会社,愛知県,半田市,昭和町２丁目２３番地の１,,23,205,4750922,,,,,,,2025-10-22,1,,,,,コウキ,0
804,3180303006780,新規,0,2025-10-22,2025-10-22,合同会社仁和,,合同会社,愛知県,みよし市,福谷町大日１４－２－ＩＩ１０６,00141222,23,236,4700207,,,,,,,2025-10-22,1,,,,,,0
818,3240001065684,新規,0,2025-10-22,2025-10-22,株式会社ＨＩＲＯＹＯＳＩ,,株式会社,広島県,広島市安佐北区,落合南４丁目１番９－５０１号,,34,106,7391732,,,,,,,2025-10-22,1,,,,,ヒロヨシ,0
827,3260005011534,新規,0,2025-10-22,2025-10-22,特定非営利活動法人くりあー,,その他の設立登記法人,岡山県,赤磐市,今井７６４番地,,33,213,7012213,,,,,,,2025-10-22,1,,,,,クリアー,0
830,3280005007670,新規,0,2025-10-22,2025-10-22,一般社団法人江津未来教育デザイン研究所,,その他の設立登記法人,島根県,江津市,江津町１５１７番地３５（５２ビルヂング）,,32,207,6950011,,,,,,,2025-10-22,1,,,,,ゴウツミライキョウイクデザインケンキュウジョ,0
836,3290001111401,新規,0,2025-10-22,2025-10-22,株式会社ｓｔｕｄｉｏ　ＳＣＯＰ,,株式会社,福岡県,福岡市博多区,博多駅東１丁目１８－３３博多イーストテラス１Ｆ,,40,132,8120013,,,,,,,2025-10-22,1,,,,,スタジオスコップ,0
837,3290001111756,新規,0,2025-10-22,2025-10-22,清苗コンサルティング株式会社,,株式会社,福岡県,福岡市博多区,博多駅前２丁目１９番１７号,,40,132,8120011,,,,,,,2025-10-22,1,,,,,セイビョウコンサルティング,0
838,3290001111772,新規,0,2025-10-22,2025-10-22,株式会社ＭＡＰ　ＳＴＵＤＩＯ,,株式会社,福岡県,福岡市南区,大楠３丁目１４番３４－３０５号,,40,134,8150082,,,,,,,2025-10-22,1,,,,,マップスタジオ,0
839,3290001111822,新規,0,2025-10-22,2025-10-22,株式会社ＶＥＬＯＣＥ,,株式会社,福岡県,柳川市,三橋町江曲２０７番地３－１０１号,,40,207,8320825,,,,,,,2025-10-22,1,,,,,ベローチェ,0
840,3290001111830,新規,0,2025-10-22,2025-10-22,株式会社日位,,株式会社,福岡県,那珂川市,今光３丁目２５番地,,40,231,8111211,,,,,,,2025-10-22,1,,,,,ニチイ,0
841,3290001111905,新規,0,2025-10-22,2025-10-22,株式会社リエゾン,,株式会社,福岡県,久留米市,西町７４１－２０５号,,40,203,8300038,,,,,,,2025-10-22,1,,,,,リエゾン,0
844,3290003017563,新規,0,2025-10-22,2025-10-22,合同会社エンム,,合同会社,福岡県,福岡市中央区,天神２丁目２－１２,,40,133,8100001,,,,,,,2025-10-22,1,,,,,,0
845,3290801031955,新規,0,2025-10-22,2025-10-22,株式会社西屋,,株式会社,福岡県,北九州市八幡西区,真名子１丁目１２番２号,,40,109,8071144,,,,,,,2025-10-22,1,,,,,ニシヤ,0
853,3330001033681,新規,0,2025-10-22,2025-10-22,株式会社ＳＴ４,,株式会社,熊本県,荒尾市,川登２１１１番地１１,,43,204,8640131,,,,,,,2025-10-22,1,,,,,エスティーフォー,0
860,3340003004993,新規,0,2025-10-22,2025-10-22,合同会社セントラルハイツテナントビル,,合同会社,鹿児島県,いちき串木野市,栄町４番地２,,46,219,8960013,,,,,,,2025-10-22,1,,,,,セントラルハイツテナントビル,0
862,3350001019778,新規,0,2025-10-22,2025-10-22,株式会社サン・ファイア,,株式会社,宮崎県,宮崎市,清武町加納丙１３６９番地５,,45,201,8891605,,,,,,,2025-10-22,1,,,,,サンファイア,0
866,3360005007299,新規,0,2025-10-22,2025-10-22,一般社団法人いろはライフデザイン,,その他の設立登記法人,沖縄県,うるま市,字江洲２１０９番地１６（２階）,,47,213,9042244,,,,,,,2025-10-22,1,,,,,イロハライフデザイン,0
887,3420001019300,新規,0,2025-10-22,2025-10-22,田中林業株式会社,,株式会社,青森県,十和田市,大字三本木字西小稲１８６番地９,,02,206,0340001,,,,,,,2025-10-22,1,,,,,タナカリンギョウ,0
888,3420001019309,新規,0,2025-10-22,2025-10-22,株式会社グレステート,,株式会社,青森県,八戸市,根城７丁目９番７号,,02,203,0391166,,,,,,,2025-10-22,1,,,,,グレステート,0
895,3430001095349,新規,0,2025-10-22,2025-10-22,株式会社ＮＯＲＴＨ　ＧＡＴＥ,,株式会社,北海道,札幌市北区,北七条西４丁目１番地１トーカン札幌第一キャステール６０７,,01,102,0600807,,,,,,,2025-10-22,1,,,,,ノースゲート,0
901,3450003002730,新規,0,2025-10-22,2025-10-22,ＴＡＫＥＩ　ＴＲＡＤＩＮＧ合同会社,,合同会社,北海道,旭川市,物流団地二条１丁目１０番３,,01,204,0718139,,,,,,,2025-10-22,1,,,,,タケイトレーディング,0
914,4010001259548,新規,0,2025-10-22,2025-10-22,ライトワークス株式会社,,株式会社,東京都,千代田区,神田佐久間町２丁目１８番地１秋葉原ＳＴＮフロント１０階,,13,101,1010025,,,,,,,2025-10-22,1,,,,,ライトワークス,0
915,4010001259564,新規,0,2025-10-22,2025-10-22,株式会社みらいテクノロジー,,株式会社,東京都,中央区,銀座１丁目１２番４号Ｎ＆Ｅビル７階,,13,102,1040061,,,,,,,2025-10-22,1,,,,,ミライテクノロジー,0
917,4010003048825,新規,0,2025-10-22,2025-10-22,ｅｓｐｏｉｒ合同会社,,合同会社,東京都,千代田区,神田和泉町１－６－１６ヤマトビル４０５,,13,101,1010024,,,,,,,2025-10-22,1,,,,,エスポアール,0
925,4010401193751,新規,0,2025-10-22,2025-10-22,ＣＲＹＰＴＯ　ＤＩＧＩＴＡＬ株式会社,,株式会社,東京都,港区,南青山３丁目１番３６号青山丸竹ビル６Ｆ,,13,103,1070062,,,,,,,2025-10-22,1,,,,,クリプトデジタル,0
926,4010401193875,新規,0,2025-10-22,2025-10-22,ＦＴＬパートナーズ株式会社,,株式会社,東京都,港区,芝５丁目２６番２４号,,13,103,1080014,,,,,,,2025-10-22,1,,,,,エフティーエルパートナーズ,0
927,4010401193900,新規,0,2025-10-22,2025-10-22,株式会社ｍａｇＩＫａｌ　ｇａｒｄｅｎ,,株式会社,東京都,港区,西新橋２丁目１５番７号ＭＳＣ西新橋ビル３階税理士法人ＡＫＪパートナーズ内,,13,103,1050003,,,,,,,2025-10-22,1,,,,,マジカルガーデン,0
928,4010401193917,新規,0,2025-10-22,2025-10-22,本郷技研株式会社,,株式会社,東京都,港区,芝４丁目３番５号３Ｆ,,13,103,1080014,,,,,,,2025-10-22,1,,,,,ホンゴウギケン,0
929,4010401193966,新規,0,2025-10-22,2025-10-22,株式会社めちゃコミックＧＡ,,株式会社,東京都,港区,六本木７丁目１２番２号,,13,103,1060032,,,,,,,2025-10-22,1,,,,,メチャコミックジーエー,0
930,4010401194056,新規,0,2025-10-22,2025-10-22,ＬＳ‐ＳＨＩＰ第８７号株式会社,,株式会社,東京都,港区,六本木１丁目６番１号,,13,103,1060032,,,,,,,2025-10-22,1,,,,,エルエスシップダイハチジュウナナゴウ,0
935,4010503008015,新規,0,2025-10-22,2025-10-22,合同会社トリガー,,合同会社,東京都,台東区,千束３丁目１０－３,,13,106,1110031,,,,,,,2025-10-22,1,,,,,トリガー,0
941,4010603011868,新規,0,2025-10-22,2025-10-22,合同会社ナビスモン,,合同会社,東京都,墨田区,東向島２丁目４４－３,,13,107,1310032,,,,,,,2025-10-22,1,,,,,ナビスモン,0
949,4010903010355,新規,0,2025-10-22,2025-10-22,Ｋｏｂａｌｔ　Ｏｎｌｉｎｅ合同会社,,合同会社,東京都,世田谷区,北沢３丁目２番１１号,,13,112,1550031,,,,,,,2025-10-22,1,,,,,コバルトオンライン,0
950,4010903010363,新規,0,2025-10-22,2025-10-22,合同会社Ｒｉｓｐｌｅｎｄｅｒｅ,,合同会社,東京都,世田谷区,若林１丁目３０番１０号スタンフォード・ハイツ１０２,,13,112,1540023,,,,,,,2025-10-22,1,,,,,リスプレンデーレ,0
961,4011001172963,新規,0,2025-10-22,2025-10-22,ｍ‐ｂｅｔａ株式会社,,株式会社,東京都,渋谷区,道玄坂１丁目１０番８号渋谷道玄坂東急ビル２Ｆ－Ｃ,,13,113,1500043,,,,,,,2025-10-22,1,,,,,エムベータ,0
962,4011001172971,新規,0,2025-10-22,2025-10-22,ＳＯＬ＆Ｃｏ．株式会社,,株式会社,東京都,渋谷区,渋谷３丁目２７番１５号光和ビル４Ｆ,,13,113,1500002,,,,,,,2025-10-22,1,,,,,ソルアンドコー,0
963,4011003022605,新規,0,2025-10-22,2025-10-22,Ｍｕｌｔｉ　Ｒｈｙｔｈｍ合同会社,,合同会社,東京都,渋谷区,道玄坂１丁目１０番８号渋谷道玄坂東急ビル２Ｆ－Ｃ,,13,113,1500043,,,,,,,2025-10-22,1,,,,,マルチリズム,0
964,4011003022662,新規,0,2025-10-22,2025-10-22,合同会社Ｕｚｕｍｅ,,合同会社,東京都,渋谷区,神南１丁目１１－４ＦＰＧリンクス神南５階,,13,113,1500041,,,,,,,2025-10-22,1,,,,,ウズメ,0
965,4011003022687,新規,0,2025-10-22,2025-10-22,Ｑｕａｒｔｅｔ　Ｌｉｎｋｓ　Ｊａｐａｎ合同会社,,合同会社,東京都,渋谷区,道玄坂１丁目１０番８号渋谷道玄坂東急ビル２Ｆ－Ｃ,,13,113,1500043,,,,,,,2025-10-22,1,,,,,カルテットリンクスジャパン,0
966,4011003022695,新規,0,2025-10-22,2025-10-22,鮨尚充合同会社,,合同会社,東京都,目黒区,青葉台１丁目２８番２号,,13,110,1530042,,,,,,,2025-10-22,1,,,,,スシタカミツ,0
984,4011103016548,新規,0,2025-10-22,2025-10-22,合同会社シカクキカク,,合同会社,東京都,新宿区,市谷船河原町１９－７コート飯田橋Ｂ棟,,13,104,1620826,,,,,,,2025-10-22,1,,,,,シカクキカク,0
986,4011303005755,新規,0,2025-10-22,2025-10-22,鹿氏合同会社,,合同会社,東京都,杉並区,南荻窪４丁目３６番５プロスペアー荻窪２０７号室,,13,115,1670052,,,,,,,2025-10-22,1,,,,,カシ,0
988,4011501032675,新規,0,2025-10-22,2025-10-22,ホーユージャパン株式会社,,株式会社,東京都,北区,赤羽西２丁目２９番１－１３号,,13,117,1150055,,,,,,,2025-10-22,1,,,,,ホーユージャパン,0
993,4012305002154,新規,0,2025-10-22,2025-10-22,一般社団法人Ｌｉｓｔｅｎｉｎｇ　ｔｏ　ｔｈｅ　Ｖｏｉｃｅ　ｏｆ　ｔｈｅ　Ｗｏｒｌｄ,,その他の設立登記法人,東京都,町田市,本町田２０４８番地１７１,,13,209,1940032,,,,,,,2025-10-22,1,,,,,リスニングトゥーザヴォイスオブザワールド,0
996,4012403007419,新規,0,2025-10-22,2025-10-22,華アセット合同会社,,合同会社,東京都,小金井市,梶野町３丁目１１番２３号（１０）,,13,210,1840002,,,,,,,2025-10-22,1,,,,,ハナアセット,0
997,4012701019149,新規,0,2025-10-22,2025-10-22,株式会社南ガーデン,,株式会社,東京都,東久留米市,南沢３丁目５番１２号,,13,222,2030023,,,,,,,2025-10-22,1,,,,,ミナミガーデン,0
999,4012801024305,新規,0,2025-10-22,2025-10-22,株式会社ミラハピ,,株式会社,東京都,東大和市,狭山４丁目１４１６番地の２,,13,220,2070003,,,,,,,2025-10-22,1,,,,,ミラハピ,0
1004,4013301055113,新規,0,2025-10-22,2025-10-22,三賢堂株式会社,,株式会社,東京都,豊島区,西巣鴨１丁目２番２２号ＷＡＮＤＡビル２階,,13,116,1700001,,,,,,,2025-10-22,1,,,,,サンケントウ,0
1017,4020001165398,新規,0,2025-10-22,2025-10-22,徳井株式会社,,株式会社,神奈川県,横浜市港北区,大曽根台２２－１０,,14,109,2220004,,,,,,,2025-10-22,1,,,,,トクイ,0
1018,4020001165415,新規,0,2025-10-22,2025-10-22,アネックス株式会社,,株式会社,神奈川県,横浜市神奈川区,白楽２６番地１－２階３号室,,14,102,2210065,,,,,,,2025-10-22,1,,,,,アネックス,0
1026,4020003029568,新規,0,2025-10-22,2025-10-22,合同会社セカンドライフあさひ,,合同会社,神奈川県,横浜市旭区,善部町５８番地１６,,14,112,2410823,,,,,,,2025-10-22,1,,,,,セカンドライフアサヒ,0
1027,4020003029592,新規,0,2025-10-22,2025-10-22,合同会社Ｌｕｍｉｎｅ,,合同会社,神奈川県,横浜市鶴見区,下末吉５丁目２１番１０－１０１号,,14,101,2300012,,,,,,,2025-10-22,1,,,,,ルミネ,0
1033,4021003016713,新規,0,2025-10-22,2025-10-22,ＤＣコンサルティング合同会社,,合同会社,神奈川県,横須賀市,秋谷２丁目１１－９－４,,14,201,2400105,,,,,,,2025-10-22,1,,,,,ディーシーコンサルティング,0
1035,4030001169266,新規,0,2025-10-22,2025-10-22,大上株式会社,,株式会社,埼玉県,さいたま市南区,辻４丁目２１番５号４０７号室,00141194,11,108,3360026,,,,,,,2025-10-22,1,,,,,オオガミ,0
1036,4030001169290,新規,0,2025-10-22,2025-10-22,株式会社サン・スペース,,株式会社,埼玉県,さいたま市浦和区,瀬ヶ崎３丁目１４番１２号,,11,107,3300044,,,,,,,2025-10-22,1,,,,,サンスペース,0
1037,4030001169299,新規,0,2025-10-22,2025-10-22,株式会社Ｓａｌｅｓａｕｒｕｓ,,株式会社,埼玉県,さいたま市中央区,下落合７丁目１１番１－２号,,11,105,3380002,,,,,,,2025-10-22,1,,,,,セールスザウルス,0
1038,4030001169308,新規,0,2025-10-22,2025-10-22,龍栖川商事株式会社,,株式会社,埼玉県,上尾市,大字原市２９６０番地１０１室,,11,219,3620021,,,,,,,2025-10-22,1,,,,,リュウスガワショウジ,0
1039,4030001169316,新規,0,2025-10-22,2025-10-22,株式会社デジタルラボときがわ,,株式会社,埼玉県,比企郡ときがわ町,大字玉川７２７,,11,349,3550342,,,,,,,2025-10-22,1,,,,,デジタルラボトキガワ,0
1047,4030003027934,新規,0,2025-10-22,2025-10-22,あらい合同会社,,合同会社,埼玉県,川越市,大字古谷上２１５５番地１,,11,201,3500001,,,,,,,2025-10-22,1,,,,,アライ,0
1050,4040001140977,新規,0,2025-10-22,2025-10-22,株式会社ＲＩＳＥ　ＯＮ,,株式会社,千葉県,佐倉市,生谷７５番地３プリートデスパシオ１０２,,12,212,2850836,,,,,,,2025-10-22,1,,,,,ライズオン,0
1053,4040003028790,新規,0,2025-10-22,2025-10-22,合同会社ＷＩＴＴＯ,,合同会社,千葉県,千葉市中央区,白旗３丁目１２番１２号,,12,101,2600841,,,,,,,2025-10-22,1,,,,,ウイット,0
1054,4040003028808,新規,0,2025-10-22,2025-10-22,合同会社ＣＯＭＥ,,合同会社,千葉県,船橋市,三山８丁目３９番１７号,,12,204,2740072,,,,,,,2025-10-22,1,,,,,コム,0
1056,4050001057485,新規,0,2025-10-22,2025-10-22,株式会社ＬＡＺＯ,,株式会社,茨城県,日立市,田尻町５丁目２－１８クラールダンケ３０１,,08,202,3191416,,,,,,,2025-10-22,1,,,,,ラソ,0
1058,4050003009708,新規,0,2025-10-22,2025-10-22,合同会社Ｅｍｅｒａｌｄ　Ｓｕｎ,,合同会社,茨城県,鹿嶋市,大字神向寺１８８番地４,,08,222,3140007,,,,,,,2025-10-22,1,,,,,エメラルドサン,0
1060,4070001043467,新規,0,2025-10-22,2025-10-22,株式会社輪,,株式会社,群馬県,富岡市,七日市１５７５番地２,,10,210,3702343,,,,,,,2025-10-22,1,,,,,リン,0
1063,4080003003583,新規,0,2025-10-22,2025-10-22,合同会社モリーズ,,合同会社,静岡県,焼津市,中根新田６１３番地の１,,22,212,4250062,,,,,,,2025-10-22,1,,,,,モリーズ,0
1065,4080103003450,新規,0,2025-10-22,2025-10-22,合同会社カマラード,,合同会社,静岡県,賀茂郡松崎町,船田２５０番地の２,,22,305,4103606,,,,,,,2025-10-22,1,,,,,カマラード,0
1066,4080401028232,新規,0,2025-10-22,2025-10-22,株式会社Ｖｏｏｓｔ,,株式会社,静岡県,浜松市中央区,下石田町１３６６番地の２,,22,138,4350006,,,,,,,2025-10-22,1,,,,,ブースト,0
1070,4080405007777,新規,0,2025-10-22,2025-10-22,一般社団法人丸五,,その他の設立登記法人,静岡県,浜松市中央区,坪井町４４９３番地の２,,22,138,4310202,,,,,,,2025-10-22,1,,,,,マルゴ,0
1092,4120001281292,新規,0,2025-10-22,2025-10-22,イーロジス・ジャパン株式会社,,株式会社,大阪府,大阪市北区,角田町８－１大阪梅田ツインタワーズ・ノース１９Ｆ,,27,127,5300017,,,,,,,2025-10-22,1,,,,,イーロジスジャパン,0
1093,4120001281301,新規,0,2025-10-22,2025-10-22,南舎株式会社,,株式会社,大阪府,大阪市淀川区,塚本１丁目１９番２７号ー５０２室,,27,123,5320026,,,,,,,2025-10-22,1,,,,,ナンシャ,0
1094,4120001281409,新規,0,2025-10-22,2025-10-22,株式会社Ａｌｐｈａ　Ｃａｐｉｔａｌ,,株式会社,大阪府,大阪市北区,梅田１丁目１番３号大阪駅前第３ビル,,27,127,5300001,,,,,,,2025-10-22,1,,,,,アルファキャピタル,0
1099,4120003031002,新規,0,2025-10-22,2025-10-22,Ａｋｉｗｅｌｌヘルスケア合同会社,,合同会社,大阪府,大阪市福島区,海老江２丁目７番１３号,,27,103,5530001,,,,,,,2025-10-22,1,,,,,アキウェルヘルスケア,0
1100,4120003031027,新規,0,2025-10-22,2025-10-22,ＡＷ合同会社,,合同会社,大阪府,枚方市,津田東町３丁目２６番４０号,,27,210,5730122,,,,,,,2025-10-22,1,,,,,エーダブル,0
1109,4120103006804,新規,0,2025-10-22,2025-10-22,合同会社ＳＡＳＡＥＡＩ,,合同会社,大阪府,泉南市,馬場２丁目２８－２０,,27,228,5900525,,,,,,,2025-10-22,1,,,,,ササエアイ,0
1115,4120903005906,新規,0,2025-10-22,2025-10-22,Ｍ‐Ｐｒｏ合同会社,,合同会社,大阪府,箕面市,牧落３丁目２０番３４号,,27,220,5620004,,,,,,,2025-10-22,1,,,,,エムプロ,0
1125,4130003010888,新規,0,2025-10-22,2025-10-22,合同会社味工房,,合同会社,京都府,京都市右京区,梅津上田町２０番地の２,,26,108,6150932,,,,,,,2025-10-22,1,,,,,アジコウボウ,0
1130,4140001140422,新規,0,2025-10-22,2025-10-22,株式会社心ＪＡＰＡＮ,,株式会社,兵庫県,神戸市西区,南別府３丁目８番地の９,,28,111,6512116,,,,,,,2025-10-22,1,,,,,シンジャパン,0
1131,4140001140439,新規,0,2025-10-22,2025-10-22,株式会社真誠,,株式会社,兵庫県,神戸市中央区,港島８丁目１２番地,,28,110,6500045,,,,,,,2025-10-22,1,,,,,マコト,0
1132,4140001140455,新規,0,2025-10-22,2025-10-22,株式会社Ｒａｕｍ,,株式会社,兵庫県,姫路市,増位新町１丁目８番地１しらさぎハイタウンＢ棟１１０９号,,28,201,6700806,,,,,,,2025-10-22,1,,,,,ラウム,0
1133,4140003022701,新規,0,2025-10-22,2025-10-22,ゲルピソ合同会社,,合同会社,兵庫県,神戸市長田区,二葉町２丁目５－１０ＭａｃｈｉａｋｅＢｕｉｌｄ３０４,,28,106,6530042,,,,,,,2025-10-22,1,,,,,ゲルピソ,0
1134,4140005027657,新規,0,2025-10-22,2025-10-22,一般社団法人芦屋観光協会,,その他の設立登記法人,兵庫県,芦屋市,精道町３番１６号,,28,206,6590064,,,,,,,2025-10-22,1,,,,,,0
1139,4180001168798,新規,0,2025-10-22,2025-10-22,株式会社ＣＲＥＡ,,株式会社,愛知県,名古屋市東区,徳川町１１０５ヴィークコート徳川町６０２号,,23,102,4610023,,,,,,,2025-10-22,1,,,,,クレア,0
1140,4180001169227,新規,0,2025-10-22,2025-10-22,Ｓａｕｔｉｌｌｅｒ株式会社,,株式会社,愛知県,名古屋市東区,白壁３丁目２５番２２号,,23,102,4610011,,,,,,,2025-10-22,1,,,,,ソティエ,0
1142,4180003029222,新規,0,2025-10-22,2025-10-22,合同会社エスエヌプラス,,合同会社,愛知県,一宮市,伝法寺５丁目１番地６,,23,203,4910828,,,,,,,2025-10-22,1,,,,,エスエヌプラス,0
1162,4260005011533,新規,0,2025-10-22,2025-10-22,一般社団法人ＳＮＳ運用代行協会,,その他の設立登記法人,岡山県,岡山市北区,大元１丁目１１番８号,,33,101,7000924,,,,,,,2025-10-22,1,,,,,エスエヌエスウンヨウダイコウキョウカイ,0
1171,4290001111689,新規,0,2025-10-22,2025-10-22,株式会社Ｎｕｍｂｅｒ２３,,株式会社,福岡県,福岡市早良区,高取２丁目１６番１６－３０２号,,40,137,8140011,,,,,,,2025-10-22,1,,,,,ナンバートゥエンティスリー,0
1172,4290001111821,新規,0,2025-10-22,2025-10-22,株式会社アロマの杜,,株式会社,福岡県,福岡市中央区,薬院３丁目１６番２６号西鉄薬院ビル５階,,40,133,8100022,,,,,,,2025-10-22,1,,,,,アロマノモリ,0
1173,4290001111838,新規,0,2025-10-22,2025-10-22,株式会社ＤＲＹＧＡＲＤＥＮ　Ｎｉｃｏ,,株式会社,福岡県,久留米市,善導寺町島７９７－１,,40,203,8390825,,,,,,,2025-10-22,1,,,,,ドライガーデンニコ,0
1174,4290001111953,新規,0,2025-10-22,2025-10-22,地球の爲の株式会社,,株式会社,福岡県,福岡市東区,香椎照葉６丁目２番５２－４２０３号,,40,131,8130017,,,,,,,2025-10-22,1,,,,,チキュウノタメノ,0
1179,4290003017364,新規,0,2025-10-22,2025-10-22,美際グレース合同会社,,合同会社,福岡県,福岡市中央区,大名２丁目１０－４－Ｄ６０５,,40,133,8100041,,,,,,,2025-10-22,1,,,,,ミギワグレース,0
1180,4290003017595,新規,0,2025-10-22,2025-10-22,Ｈａｋｏ　ｔｏ　Ｈｉｔｏ合同会社,,合同会社,福岡県,福岡市南区,柳河内１丁目３番５－７０５グリーンハイツ野間大池,,40,134,8150063,,,,,,,2025-10-22,1,,,,,ハコトヒト,0
1186,4310001019830,新規,0,2025-10-22,2025-10-22,株式会社ゼノモーション,,株式会社,長崎県,佐世保市,重尾町３２６２番地１,,42,202,8593224,,,,,,,2025-10-22,1,,,,,ゼノモーション,0
1195,4360001035922,新規,0,2025-10-22,2025-10-22,株式会社サカエル不動産,,株式会社,沖縄県,沖縄市,胡屋２丁目２番３５号２Ｆ,,47,211,9040021,,,,,,,2025-10-22,1,,,,,サカエルフドウサン,0
1196,4360003015352,新規,0,2025-10-22,2025-10-22,合同会社ＤＡＩ,,合同会社,沖縄県,宜野湾市,長田４丁目２番２号,,47,205,9012212,,,,,,,2025-10-22,1,,,,,ダイ,0
1198,4370001053163,新規,0,2025-10-22,2025-10-22,じゃけっと株式会社,,株式会社,宮城県,仙台市太白区,郡山３丁目１３番２４号,,04,104,9820003,,,,,,,2025-10-22,1,,,,,ジャケット,0
1208,4400001017214,新規,0,2025-10-22,2025-10-22,株式会社ユースフル,,株式会社,岩手県,盛岡市,中央通１丁目７－３５コアフィールドモリオカ１階,,03,201,0200021,,,,,,,2025-10-22,1,,,,,ユースフル,0
1214,4420003003202,新規,0,2025-10-22,2025-10-22,合同会社藤元自動車,,合同会社,青森県,三戸郡三戸町,大字斗内字下モ平２８番地,,02,441,0390122,,,,,,,2025-10-22,1,,,,,フジモトジドウシャ,0
1219,4430005015335,新規,0,2025-10-22,2025-10-22,一般社団法人うみいく,,その他の設立登記法人,北海道,石狩市,親船町２３番地,,01,235,0613377,,,,,,,2025-10-22,1,,,,,ウミイク,0
1233,5010001259539,新規,0,2025-10-22,2025-10-22,株式会社シュヴァルツ,,株式会社,東京都,千代田区,神田和泉町１番地６－１６ヤマトビル４０５,,13,101,1010024,,,,,,,2025-10-22,1,,,,,シュヴァルツ,0
1234,5010001259563,新規,0,2025-10-22,2025-10-22,Ｌｕｍｉｎａ　Ｋａｌｏｎ　Ｈｏｌｄｉｎｇｓ株式会社,,株式会社,東京都,千代田区,霞が関３丁目２番５号,,13,101,1000013,,,,,,,2025-10-22,1,,,,,ルミナカロンホールディングス,0
1235,5010001259621,新規,0,2025-10-22,2025-10-22,株式会社エコーズ,,株式会社,東京都,中央区,日本橋浜町３丁目３３番１号,,13,102,1030007,,,,,,,2025-10-22,1,,,,,エコーズ,0
1236,5010001259646,新規,0,2025-10-22,2025-10-22,ＣＭＣ　ＰＬＵＳ　ＪＡＰＡＮ株式会社,,株式会社,東京都,文京区,音羽１丁目２２番１８号アルス音羽２－２１４号室,,13,105,1120013,,,,,,,2025-10-22,1,,,,,シーエムシープラスジャパン,0
1244,5010401193949,新規,0,2025-10-22,2025-10-22,快速通株式会社,,株式会社,東京都,港区,芝浦２丁目７番１１号,,13,103,1080023,,,,,,,2025-10-22,1,,,,,スピードパス,0
1245,5010401194055,新規,0,2025-10-22,2025-10-22,ＬＳ‐ＳＨＩＰ第８６号株式会社,,株式会社,東京都,港区,六本木１丁目６番１号,,13,103,1060032,,,,,,,2025-10-22,1,,,,,エルエスシップダイハチジュウロクゴウ,0
1246,5010401194063,新規,0,2025-10-22,2025-10-22,株式会社虎ノ門キャピタル,,株式会社,東京都,港区,赤坂１丁目１２番２０号,,13,103,1070052,,,,,,,2025-10-22,1,,,,,トラノモンキャピタル,0
1247,5010403036370,新規,0,2025-10-22,2025-10-22,Ｍｉｙｕａｉｎａ合同会社,,合同会社,東京都,港区,港南３丁目５番１０－２３０７号,,13,103,1080075,,,,,,,2025-10-22,1,,,,,ミユアイナ,0
1248,5010501054910,新規,0,2025-10-22,2025-10-22,Ｌｕｍｉｅ株式会社,,株式会社,東京都,台東区,上野１丁目１７番６号広小路ビル８Ｆ－Ｂ,,13,106,1100005,,,,,,,2025-10-22,1,,,,,ルミエ,0
1254,5010703007963,新規,0,2025-10-22,2025-10-22,合同会社アルシュノーツ,,合同会社,東京都,品川区,二葉１丁目４‐２アズ大井町レジデンス５０２,,13,109,1420043,,,,,,,2025-10-22,1,,,,,アルシュノーツ,0
1258,5010901058305,新規,0,2025-10-22,2025-10-22,Ｉｃｈｉｎｏｓｅ　ｂａｔｏｎ株式会社,,株式会社,東京都,世田谷区,等々力５丁目２２番１５号－３,,13,112,1580082,,,,,,,2025-10-22,1,,,,,イチノセバトン,0
1267,5011001172938,新規,0,2025-10-22,2025-10-22,株式会社ｔｈｅ　Ｈｏｌｉｃ,,株式会社,東京都,渋谷区,神宮前３丁目１５番８号シャンブル１５－１０２,,13,113,1500001,,,,,,,2025-10-22,1,,,,,ザホリック,0
1268,5011001172970,新規,0,2025-10-22,2025-10-22,株式会社ＪＵＮＫ　ＬＡＮＤ,,株式会社,東京都,渋谷区,神宮前６丁目２３番４号桑野ビル２階,,13,113,1500001,,,,,,,2025-10-22,1,,,,,ジャンクランド,0
1274,5011101113627,新規,0,2025-10-22,2025-10-22,ＪＨＳＧ株式会社,,株式会社,東京都,新宿区,百人町２丁目１３番１３号Ｊハウス２１３,,13,104,1690073,,,,,,,2025-10-22,1,,,,,ジェイエイチエスジー,0
1280,5011103016497,新規,0,2025-10-22,2025-10-22,合同会社Ａｒｔｉ,,合同会社,東京都,新宿区,東五軒町３番１４－５０１号,,13,104,1620813,,,,,,,2025-10-22,1,,,,,アーティ,0
1283,5011501032732,新規,0,2025-10-22,2025-10-22,株式会社ＡＳＵＮＡＲＯ,,株式会社,東京都,北区,豊島８丁目６番１４号,,13,117,1140003,,,,,,,2025-10-22,1,,,,,アスナロ,0
1284,5011501032740,新規,0,2025-10-22,2025-10-22,株式会社新日本マネジメント,,株式会社,東京都,荒川区,東日暮里５丁目４１番２号,,13,118,1160014,,,,,,,2025-10-22,1,,,,,シンニホンマネジメント,0
1286,5011601029117,新規,0,2025-10-22,2025-10-22,株式会社アラタナ,,株式会社,東京都,練馬区,石神井町６丁目２６番３１号,,13,120,1770041,,,,,,,2025-10-22,1,,,,,アラタナ,0
1296,5012803003909,新規,0,2025-10-22,2025-10-22,合同会社ルミナス,,合同会社,東京都,立川市,上砂町３丁目４８番地コーポ橋本１０１,,13,202,1900032,,,,,,,2025-10-22,1,,,,,ルミナス,0
1299,5013301055161,新規,0,2025-10-22,2025-10-22,ハナマルオハナ株式会社,,株式会社,東京都,豊島区,東池袋２丁目６２番８号ＢＩＧオフィスプラザ池袋１２０６,,13,116,1700013,,,,,,,2025-10-22,1,,,,,ハナマルオハナ,0
1301,5013303007920,新規,0,2025-10-22,2025-10-22,Ｍａｇｉｃ　Ｂｏｘ　Ｊａｐａｎ合同会社,,合同会社,東京都,豊島区,池袋２丁目１１番９号ＢＬＯＣＫＳ・ＩＫＥＢＵＫＵＲＯ５０５号室,,13,116,1710014,,,,,,,2025-10-22,1,,,,,マジックボックスジャパン,0
1309,5020001165414,新規,0,2025-10-22,2025-10-22,株式会社アースクリエイト,,株式会社,神奈川県,川崎市多摩区,中野島４丁目１９番４０号,,14,135,2140012,,,,,,,2025-10-22,1,,,,,アースクリエイト,0
1317,5021003016679,新規,0,2025-10-22,2025-10-22,ＣＯＰＹ＆ＰＡＳＴＥ合同会社,,合同会社,神奈川県,鎌倉市,材木座２丁目１―１７,,14,204,2480013,,,,,,,2025-10-22,1,,,,,コピーアンドペースト,0
1325,5030001169298,新規,0,2025-10-22,2025-10-22,株式会社呉総業,,株式会社,埼玉県,川口市,青木１丁目９番７号,,11,203,3320031,,,,,,,2025-10-22,1,,,,,ゴソウギョウ,0
1326,5030001169307,新規,0,2025-10-22,2025-10-22,株式会社ＣｌｅａｒＰｌｕｓ,,株式会社,埼玉県,さいたま市北区,吉野町２丁目２０２番地２,,11,102,3310811,,,,,,,2025-10-22,1,,,,,クリアプラス,0
1327,5030001169315,新規,0,2025-10-22,2025-10-22,株式会社安藤総合設備,,株式会社,埼玉県,さいたま市大宮区,桜木町１丁目１９５番地１大宮ソラミチＫＯＺ４階３２６号室,,11,103,3300854,,,,,,,2025-10-22,1,,,,,アンドウソウゴウセツビ,0
1328,5030003027883,新規,0,2025-10-22,2025-10-22,渋谷プランニング合同会社,,合同会社,埼玉県,上尾市,東町１丁目２番４－５号,,11,219,3620031,,,,,,,2025-10-22,1,,,,,シブヤプランニング,0
1329,5030003027917,新規,0,2025-10-22,2025-10-22,合同会社星灯,,合同会社,埼玉県,所沢市,小手指町１丁目１３番地の３,,11,208,3591141,,,,,,,2025-10-22,1,,,,,ホシアカリ,0
1330,5030005022313,新規,0,2025-10-22,2025-10-22,医療法人口健会,,その他の設立登記法人,埼玉県,加須市,北下新井１０４番地２ピアシティ大利根１階,,11,210,3491134,,,,,,,2025-10-22,1,,,,,コウケンカイ,0
1337,5040003028880,新規,0,2025-10-22,2025-10-22,ＲＡＭＴＵＬＬＥ合同会社,,合同会社,千葉県,松戸市,常盤平３丁目１６番地の１２アルベル２０２号,,12,207,2702261,,,,,,,2025-10-22,1,,,,,ラムチュール,0
1346,5070001043474,新規,0,2025-10-22,2025-10-22,株式会社Ｓｕｇａｒ　Ｐｏｔ,,株式会社,群馬県,太田市,粕川町２１番地１４,,10,205,3700421,,,,,,,2025-10-22,1,,,,,シュガーポット,0
1349,5080001027229,新規,0,2025-10-22,2025-10-22,株式会社ワイエスサービス,,株式会社,静岡県,静岡市葵区,桜町２丁目４番５０－１,,22,101,4200945,,,,,,,2025-10-22,1,,,,,ワイエスサービス,0
1358,5080405007776,新規,0,2025-10-22,2025-10-22,医療法人社団四生,,その他の設立登記法人,静岡県,浜松市中央区,小豆餅２丁目１２番１号,,22,138,4338113,,,,,,,2025-10-22,1,,,,,シショウ,0
1373,5120001280780,新規,0,2025-10-22,2025-10-22,京阪奈エステート株式会社,,株式会社,大阪府,門真市,小路町２番１コトブキマンション７０２号,,27,223,5710058,,,,,,,2025-10-22,1,,,,,ケイハンナエステート,0
1374,5120001281044,新規,0,2025-10-22,2025-10-22,新葉株式会社,,株式会社,大阪府,大阪市福島区,福島７丁目４番２２－４０５号,,27,103,5530003,,,,,,,2025-10-22,1,,,,,シンヨウ,0
1375,5120001281110,新規,0,2025-10-22,2025-10-22,株式会社瑞泉,,株式会社,大阪府,大阪市浪速区,桜川３丁目１－１２カサベージャ１０１号室,,27,111,5560022,,,,,,,2025-10-22,1,,,,,ズイセン,0
1376,5120001281168,新規,0,2025-10-22,2025-10-22,富の光株式会社,,株式会社,大阪府,大阪市北区,梅田１丁目２番２号大阪駅前第二ビル２Ｆ８－１－１,,27,127,5300001,,,,,,,2025-10-22,1,,,,,トミノヒカリ,0
1377,5120001281184,新規,0,2025-10-22,2025-10-22,株式会社クレライ・エージェント,,株式会社,大阪府,大阪市天王寺区,筆ケ崎町２番１０―２８０２号,,27,109,5430027,,,,,,,2025-10-22,1,,,,,クレライエージェント,0
1378,5120001281201,新規,0,2025-10-22,2025-10-22,湧＿資産管理株式会社,00141219,株式会社,大阪府,大阪市北区,梅田１丁目１－３大阪駅前第３ビル２９階１－１－１号室,,27,127,5300001,,,,,,,2025-10-22,1,,,,,ユウカシサンカンリ,0
1379,5120001281267,新規,0,2025-10-22,2025-10-22,株式会社凛青メディカル,,株式会社,大阪府,大阪市西区,新町３丁目１番１７－８０９号,,27,106,5500013,,,,,,,2025-10-22,1,,,,,リンセイメディカル,0
1380,5120001281300,新規,0,2025-10-22,2025-10-22,恒創株式会社,,株式会社,大阪府,大阪市阿倍野区,西田辺町２丁目８－８ＪＫモナーク１Ｆ,,27,119,5450014,,,,,,,2025-10-22,1,,,,,コウソウ,0
1384,5120003031018,新規,0,2025-10-22,2025-10-22,合同会社イワサキ,,合同会社,大阪府,大阪市西成区,南津守５丁目１番６０号,,27,122,5570063,,,,,,,2025-10-22,1,,,,,イワサキ,0
1385,5120003031026,新規,0,2025-10-22,2025-10-22,合同会社フィルニッチ,,合同会社,大阪府,大阪市住吉区,帝塚山西４丁目２番１９号,,27,120,5580052,,,,,,,2025-10-22,1,,,,,フィルニッチ,0
1388,5120101072681,新規,0,2025-10-22,2025-10-22,株式会社ひだまり未来福祉会,,株式会社,大阪府,松原市,松ケ丘４丁目１５番２－８１３号,,27,217,5800042,,,,,,,2025-10-22,1,,,,,ヒダマリミライフクシカイ,0
1391,5120901051686,新規,0,2025-10-22,2025-10-22,株式会社フォレスト・ゲイト,,株式会社,大阪府,三島郡島本町,山崎５丁目１番６号,,27,301,6180001,,,,,,,2025-10-22,1,,,,,フォレストゲイト,0
1393,5122001039777,新規,0,2025-10-22,2025-10-22,カーファクトリーＫＯＴＥＴＵ株式会社,,株式会社,大阪府,大東市,新田旭町５番２８号,,27,218,5740053,,,,,,,2025-10-22,1,,,,,カーファクトリーコテツ,0
1395,5130001080858,新規,0,2025-10-22,2025-10-22,株式会社Ｙｅｌｌｏｗｓｔｏｎｅ,,株式会社,京都府,京都市右京区,山ノ内西裏町１５－８８マンハイム東雲１０５号室,,26,108,6150071,,,,,,,2025-10-22,1,,,,,イエローストーン,0
1400,5140001140470,新規,0,2025-10-22,2025-10-22,株式会社ＳＰＹ,,株式会社,兵庫県,三田市,三輪４丁目２１番１号,,28,219,6691513,,,,,,,2025-10-22,1,,,,,エスピーワイ,0
1401,5140001140479,新規,0,2025-10-22,2025-10-22,守永汽船株式会社,,株式会社,兵庫県,神戸市西区,伊川谷町潤和８５９番地の１デュオルミエールＩＩ１０４号,00141212,28,111,6512124,,,,,,,2025-10-22,1,,,,,モリナガキセン,0
1404,5140003022659,新規,0,2025-10-22,2025-10-22,合同会社Ｄｅｄｉｅ　Ｔｅｃｈｎｏｌｏｇｉｅｓ,,合同会社,兵庫県,神戸市中央区,磯辺通２丁目２－１０ｏｎｅｋｎｏｔｔｒａｄｅｓ神戸ビル１００６号室,,28,110,6510084,,,,,,,2025-10-22,1,,,,,デディエテクノロジーズ,0
1407,5160001027154,新規,0,2025-10-22,2025-10-22,株式会社Ｂｏｕ,,株式会社,滋賀県,栗東市,安養寺１丁目１３番３８号２階,,25,208,5203015,,,,,,,2025-10-22,1,,,,,ボウ,0
1408,5160001027162,新規,0,2025-10-22,2025-10-22,株式会社Ｂｅａｕｔｙ　Ｓ．Ｈ．Ｅ．,,株式会社,滋賀県,近江八幡市,堀上町１３０番地１近江八幡カンキビル２０３,,25,204,5230031,,,,,,,2025-10-22,1,,,,,ビューティーシー,0
1412,5180001169028,新規,0,2025-10-22,2025-10-22,株式会社Ｃａｎｖａｓ,,株式会社,愛知県,名古屋市中区,錦２丁目９番６号名和丸の内ビル４ＦＢ,,23,106,4600003,,,,,,,2025-10-22,1,,,,,キャンバス,0
1413,5180001169226,新規,0,2025-10-22,2025-10-22,株式会社ＮＧＹＣ,,株式会社,愛知県,名古屋市中川区,前田西町２丁目２０１番地（２－６０１号）,,23,110,4540941,,,,,,,2025-10-22,1,,,,,エヌジーワイシー,0
1421,5180303006779,新規,0,2025-10-22,2025-10-22,合同会社Ｌｕｍｏｕｒ,,合同会社,愛知県,刈谷市,桜町１丁目２２アルバックスタワー刈谷ステーション１１０５号室,,23,210,4480028,,,,,,,2025-10-22,1,,,,,ルムール,0
1425,5200005013807,新規,0,2025-10-22,2025-10-22,特定非営利活動法人日本ペルー文化普及振興協会,,その他の設立登記法人,岐阜県,各務原市,那加土山町２丁目２３１番地１,,21,213,5040041,,,,,,,2025-10-22,1,,,,,ニホンペルーブンカフキュウシンコウキョウカイ,0
1427,5220003004145,新規,0,2025-10-22,2025-10-22,合同会社とうげマルシェ,,合同会社,石川県,輪島市,門前町道下７の１１番地,,17,204,9272164,,,,,,,2025-10-22,1,,,,,トウゲマルシェ,0
1430,5240001065666,新規,0,2025-10-22,2025-10-22,ＪＯＶＩＸ株式会社,,株式会社,広島県,広島市西区,観音本町１丁目１１番５号シリンダーハウス２０３,,34,104,7330033,,,,,,,2025-10-22,1,,,,,ジョビックス,0
1437,5260005011532,新規,0,2025-10-22,2025-10-22,一般社団法人ＬＩＮＫ　ＭＩＭＡＳＡＫＡ,,その他の設立登記法人,岡山県,美作市,朽木１０１番地,,33,215,7070042,,,,,,,2025-10-22,1,,,,,リンクミマサカ,0
1443,5290001111696,新規,0,2025-10-22,2025-10-22,西部保安ホールディングス株式会社,,株式会社,福岡県,福岡市博多区,大字立花寺２９９番地,,40,132,8120862,,,,,,,2025-10-22,1,,,,,セイブホアンホールディングス,0
1444,5290001111829,新規,0,2025-10-22,2025-10-22,株式会社ドライート,,株式会社,福岡県,福岡市早良区,原２丁目１３番５６－１３０５号,,40,137,8140022,,,,,,,2025-10-22,1,,,,,ドライート,0
1445,5290001111845,新規,0,2025-10-22,2025-10-22,株式会社リミットメイク,,株式会社,福岡県,柳川市,田脇８３９番地３,,40,207,8320089,,,,,,,2025-10-22,1,,,,,リミットメイク,0
1446,5290001111853,新規,0,2025-10-22,2025-10-22,Ｅｒｅｅｋ不動産株式会社,,株式会社,福岡県,福岡市中央区,天神４丁目５番１０号チサンマンション第二天神１０１０号,,40,133,8100001,,,,,,,2025-10-22,1,,,,,エリークフドウサン,0
1447,5290001111993,新規,0,2025-10-22,2025-10-22,株式会社ウィング,,株式会社,福岡県,糟屋郡新宮町,緑ケ浜４丁目１４－３０－９０１,,40,345,8110119,,,,,,,2025-10-22,1,,,,,ウィング,0
1452,5290003017594,新規,0,2025-10-22,2025-10-22,合同会社フジノ,,合同会社,福岡県,久留米市,梅満町１４８７番地,,40,203,8300048,,,,,,,2025-10-22,1,,,,,フジノ,0
1463,5330005010964,新規,0,2025-10-22,2025-10-22,一般財団法人未来マンガ研究所,,その他の設立登記法人,熊本県,阿蘇郡高森町,大字上色見２８０３番アーティストビレッジ阿蘇０９６区,,43,428,8691601,,,,,,,2025-10-22,1,,,,,ミライマンガケンキュウジョ,0
1465,5350003005056,新規,0,2025-10-22,2025-10-22,合同会社Ｌａｐｌｕｓ,,合同会社,宮崎県,宮崎市,佐土原町下田島１４３２２番地２０,,45,201,8800211,,,,,,,2025-10-22,1,,,,,,0
1467,5360003015351,新規,0,2025-10-22,2025-10-22,合同会社マイホーム,,合同会社,沖縄県,那覇市,樋川１丁目９番２号パークシティ樋川３０９号,00141220,47,201,9000022,,,,,,,2025-10-22,1,,,,,マイホーム,0
1474,5400001017213,新規,0,2025-10-22,2025-10-22,株式会社朝日ホールディングス,,株式会社,岩手県,久慈市,長内町第３１地割１９番地２,,03,207,0280041,,,,,,,2025-10-22,1,,,,,,0
1477,5420003003201,新規,0,2025-10-22,2025-10-22,合同会社大志,,合同会社,青森県,つがる市,木造永田千代６２番地７,,02,209,0383275,,,,,,,2025-10-22,1,,,,,タイシ,0
1481,5430001095330,新規,0,2025-10-22,2025-10-22,株式会社ＵＥＤＡ　ＧＩＫＥＮ,,株式会社,北海道,札幌市南区,常盤五条２丁目９７－４４,,01,106,0050855,,,,,,,2025-10-22,1,,,,,ウエダギケン,0
1485,5430003018223,新規,0,2025-10-22,2025-10-22,ｃｏｃｏｎ合同会社,,合同会社,北海道,札幌市豊平区,福住三条１丁目８番２０－５０１号,,01,105,0620043,,,,,,,2025-10-22,1,,,,,ココン,0
1486,5430003018231,新規,0,2025-10-22,2025-10-22,ＦＬＡＴ合同会社,,合同会社,北海道,札幌市手稲区,前田九条１３丁目４番２０号,,01,109,0060819,,,,,,,2025-10-22,1,,,,,フラット,0
1490,5700150132625,新規,0,2025-10-22,2025-10-22,オープンデジタルビジネスコンソーシアム,,その他,東京都,千代田区,永田町２丁目９番６号十全ビルディング３０１号,,13,101,1000014,,,,,,,2025-10-22,1,,,,,オープンデジタルビジネスコンソーシアム,0
1498,6010001259570,新規,0,2025-10-22,2025-10-22,株式会社ｑａｍａｒ‐ｔｏｋｙｏ,,株式会社,東京都,中央区,月島１丁目２２－１ミッドタワーグランド６１１,,13,102,1040052,,,,,,,2025-10-22,1,,,,,カマールトーキョー,0
1499,6010001259645,新規,0,2025-10-22,2025-10-22,株式会社ＹＴＫ,,株式会社,東京都,千代田区,六番町６番地１パレロワイヤル六番町６０２号,,13,101,1020085,,,,,,,2025-10-22,1,,,,,ワイティーケー,0
1503,6010401193650,新規,0,2025-10-22,2025-10-22,株式会社フュージョンフォース,,株式会社,東京都,港区,港南２丁目１６番１号,,13,103,1080075,,,,,,,2025-10-22,1,,,,,フュージョンフォース,0
1504,6010401193758,新規,0,2025-10-22,2025-10-22,株式会社ＣＯＭＭＲＥ,,株式会社,東京都,港区,南麻布１丁目８番２１ザ・クラス南麻布７１６号,,13,103,1060047,,,,,,,2025-10-22,1,,,,,コムル,0
1505,6010401193881,新規,0,2025-10-22,2025-10-22,なまら株式会社,,株式会社,東京都,港区,麻布十番２丁目１２番７号ラポール麻布十番地下１階,,13,103,1060045,,,,,,,2025-10-22,1,,,,,ナマラ,0
1506,6010401193948,新規,0,2025-10-22,2025-10-22,ＳＰＶ２３Ｓｏｌａｒ株式会社,,株式会社,東京都,港区,浜松町２丁目１０番６号,,13,103,1050013,,,,,,,2025-10-22,1,,,,,エスピーブイニジュウサンソーラー,0
1507,6010401193956,新規,0,2025-10-22,2025-10-22,ルミナグローバル株式会社,,株式会社,東京都,港区,芝大門２丁目４番４号,,13,103,1050012,,,,,,,2025-10-22,1,,,,,ルミナグローバル,0
1508,6010401193997,新規,0,2025-10-22,2025-10-22,株式会社ｒｅｌｉａｂｌｅ,,株式会社,東京都,港区,芝浦４丁目１０番１－３７０４号,,13,103,1080023,,,,,,,2025-10-22,1,,,,,リライアブル,0
1509,6010401194054,新規,0,2025-10-22,2025-10-22,ＬＳ‐ＳＨＩＰ第８５号株式会社,,株式会社,東京都,港区,六本木１丁目６番１号,,13,103,1060032,,,,,,,2025-10-22,1,,,,,エルエスシップダイハチジュウゴゴウ,0
1520,6010601068165,新規,0,2025-10-22,2025-10-22,株式会社Ｆａｕｖｅ,,株式会社,東京都,江東区,有明３丁目７番１１号有明パークビル２０Ｆ,,13,108,1350063,,,,,,,2025-10-22,1,,,,,フォーヴ,0
1521,6010603011874,新規,0,2025-10-22,2025-10-22,Ｈａｎａｔｏｎｅ合同会社,,合同会社,東京都,江東区,南砂２丁目３１番１１パークハイム東陽町２０７号,,13,108,1360076,,,,,,,2025-10-22,1,,,,,ハナトネ,0
1528,6010903010320,新規,0,2025-10-22,2025-10-22,グレイスライフ合同会社,,合同会社,東京都,世田谷区,玉川田園調布１丁目１５番１１号－３０１,,13,112,1580085,,,,,,,2025-10-22,1,,,,,グレイスライフ,0
1538,6011001172598,新規,0,2025-10-22,2025-10-22,Ａｙｙｙ株式会社,,株式会社,東京都,渋谷区,神宮前６丁目２３番４号桑野ビル２階,,13,113,1500001,,,,,,,2025-10-22,1,,,,,エイー,0
1539,6011001172945,新規,0,2025-10-22,2025-10-22,株式会社Ｎｅｘｉｓ,,株式会社,東京都,渋谷区,道玄坂１丁目１６番６号二葉ビル８ｂ,,13,113,1500043,,,,,,,2025-10-22,1,,,,,ネクシス,0
1540,6011001172986,新規,0,2025-10-22,2025-10-22,株式会社Ｔｈｒｅｖａ,,株式会社,東京都,渋谷区,道玄坂１丁目１０番８号渋谷道玄坂東急ビル２Ｆ－Ｃ,,13,113,1500043,,,,,,,2025-10-22,1,,,,,スリーヴァ,0
1541,6011001173010,新規,0,2025-10-22,2025-10-22,株式会社ＮＯＫＡＺＥ,,株式会社,東京都,渋谷区,恵比寿西２丁目８番４号ＥＸ恵比寿西ビル５階,,13,113,1500021,,,,,,,2025-10-22,1,,,,,ノカゼ,0
1555,6011603004901,新規,0,2025-10-22,2025-10-22,ユーズＡＩ合同会社,,合同会社,東京都,練馬区,早宮３丁目３１番９号,,13,120,1790085,,,,,,,2025-10-22,1,,,,,ユーズエーアイ,0
1574,6020001165371,新規,0,2025-10-22,2025-10-22,Ｇ‐ｌｉｎｋｓ株式会社,,株式会社,神奈川県,川崎市中原区,上丸子山王町２丁目１３３２グランデュール山王１０２,,14,133,2110002,,,,,,,2025-10-22,1,,,,,ジーリンクス,0
1580,6020003029681,新規,0,2025-10-22,2025-10-22,合同会社ウエヤマ冷熱,,合同会社,神奈川県,横浜市鶴見区,馬場２丁目６番２８号シティスコープ菊名グレイスコア４０４,,14,101,2300076,,,,,,,2025-10-22,1,,,,,ウエヤマレイネツ,0
1603,6030001168729,新規,0,2025-10-22,2025-10-22,株式会社ＢＡＲＵＴＡＮ,,株式会社,埼玉県,さいたま市見沼区,加田屋１丁目２９番２号,,11,104,3370022,,,,,,,2025-10-22,1,,,,,バルタン,0
1604,6030001169297,新規,0,2025-10-22,2025-10-22,株式会社寿企画,,株式会社,埼玉県,川口市,朝日４丁目４番８号,,11,203,3320001,,,,,,,2025-10-22,1,,,,,コトブキキカク,0
1605,6030001169306,新規,0,2025-10-22,2025-10-22,株式会社Ｒｅｍａｋｅ　Ｎｅｘｔ,,株式会社,埼玉県,草加市,苗塚町１１２番地７グリーンフォレストＡ号,,11,221,3400036,,,,,,,2025-10-22,1,,,,,リメイクネクスト,0
1606,6030001169330,新規,0,2025-10-22,2025-10-22,株式会社ｆｌａｇ,,株式会社,埼玉県,久喜市,西大輪４丁目１－１,,11,232,3400206,,,,,,,2025-10-22,1,,,,,フラッグ,0
1611,6030003027890,新規,0,2025-10-22,2025-10-22,合同会社言の葉舎,,合同会社,埼玉県,志木市,本町５丁目２３－２４第３本吉ビル４階４４８号,,11,228,3530004,,,,,,,2025-10-22,1,,,,,コトノハシャ,0
1612,6030003027916,新規,0,2025-10-22,2025-10-22,合同会社ＫｏＳ,,合同会社,埼玉県,川口市,元郷２丁目１２－１４－１０,,11,203,3320011,,,,,,,2025-10-22,1,,,,,コス,0
1613,6030003027924,新規,0,2025-10-22,2025-10-22,ＥＸＰＬＯＳＩＯＮ合同会社,,合同会社,埼玉県,川越市,四都野台１９番地１９,,11,201,3501163,,,,,,,2025-10-22,1,,,,,エクスプロージョン,0
1618,6040001141008,新規,0,2025-10-22,2025-10-22,株式会社ベルスタンドホールディングス,,株式会社,千葉県,袖ケ浦市,袖ケ浦駅前１丁目２２番地１１,,12,229,2990269,,,,,,,2025-10-22,1,,,,,ベルスタンドホールディングス,0
1619,6040001141107,新規,0,2025-10-22,2025-10-22,富通国際株式会社,,株式会社,千葉県,松戸市,根本７番地の１３ヴィークスイート松戸２０４号,,12,207,2710077,,,,,,,2025-10-22,1,,,,,フツウコクサイ,0
1620,6040001141115,新規,0,2025-10-22,2025-10-22,ＰａｗａＴＥＣ株式会社,,株式会社,千葉県,千葉市若葉区,若松町２１２４番地５,,12,104,2640021,,,,,,,2025-10-22,1,,,,,パワテック,0
1627,6040003028772,新規,0,2025-10-22,2025-10-22,合同会社ＢＲＯＷＮ,,合同会社,千葉県,千葉市花見川区,花園２丁目７番３号シャルム検見川１０３号,,12,102,2620025,,,,,,,2025-10-22,1,,,,,ブラウン,0
1642,6070005010437,新規,0,2025-10-22,2025-10-22,特定非営利活動法人イデア,,その他の設立登記法人,群馬県,伊勢崎市,宮子町３５４３番地６サンヒルズＡ１０２,,10,204,3720801,,,,,,,2025-10-22,1,,,,,イデア,0
1645,6090003002921,新規,0,2025-10-22,2025-10-22,合同会社ファーマーズ白州,,合同会社,山梨県,北杜市,武川町三吹２９７番地３,,19,209,4080301,,,,,,,2025-10-22,1,,,,,ファーマーズハクシュウ,0
1662,6120001280887,新規,0,2025-10-22,2025-10-22,株式会社みのりサポート,,株式会社,大阪府,大阪市北区,梅田１丁目１－３大阪駅前第３ビル２９階１－１－１号室,,27,127,5300001,,,,,,,2025-10-22,1,,,,,ミノリサポート,0
1663,6120001281035,新規,0,2025-10-22,2025-10-22,株式会社ＹＵＮ,,株式会社,大阪府,大阪市東淀川区,下新庄４丁目１７番２４号ハイツアヤ４０１号室,,27,114,5330021,,,,,,,2025-10-22,1,,,,,ユン,0
1664,6120001281043,新規,0,2025-10-22,2025-10-22,ソリー株式会社,,株式会社,大阪府,大阪市西淀川区,野里１丁目３１番７－１０６室,,27,113,5550024,,,,,,,2025-10-22,1,,,,,ソリー,0
1665,6120001281118,新規,0,2025-10-22,2025-10-22,株式会社ＡＧＫ三翔,,株式会社,大阪府,大阪市北区,西天満５丁目１２番１６号,,27,127,5300047,,,,,,,2025-10-22,1,,,,,エージーケーサンショウ,0
1666,6120001281150,新規,0,2025-10-22,2025-10-22,Ｈ＆Ｋライフ株式会社,,株式会社,大阪府,大阪市中央区,瓦町２丁目５番４－８０１号,,27,128,5410048,,,,,,,2025-10-22,1,,,,,エイチアンドケイライフ,0
1667,6120001281167,新規,0,2025-10-22,2025-10-22,株式会社Ｌｕｃｉｒ　Ｌｉｎｅ,,株式会社,大阪府,枚方市,南中振３丁目７０番３０号,,27,210,5730094,,,,,,,2025-10-22,1,,,,,ルシールライン,0
1668,6120001281191,新規,0,2025-10-22,2025-10-22,シンアイ機設株式会社,,株式会社,大阪府,大阪市東住吉区,住道矢田７丁目８番６号,,27,121,5460022,,,,,,,2025-10-22,1,,,,,シンアイキセツ,0
1669,6120001281357,新規,0,2025-10-22,2025-10-22,株式会社Ｔｈｒｅｅ　Ｐｅａｃｅ,,株式会社,大阪府,大阪市中央区,道修町４丁目５番５号ＨｉｇｈＦｉｅｌｄ４１４,,27,128,5410045,,,,,,,2025-10-22,1,,,,,スリーピース,0
1673,6120003031025,新規,0,2025-10-22,2025-10-22,合同会社Ｃａｒｒｙ　ｐｌｕｓ,,合同会社,大阪府,守口市,藤田町５丁目４－２４,,27,209,5700014,,,,,,,2025-10-22,1,,,,,キャリープラス,0
1674,6120003031033,新規,0,2025-10-22,2025-10-22,Ｓａｖｏｒ合同会社,,合同会社,大阪府,大阪市中央区,東心斎橋２丁目７番３２号すみ笠屋町ビル５階,,27,128,5420083,,,,,,,2025-10-22,1,,,,,セヴァー,0
1675,6120003031074,新規,0,2025-10-22,2025-10-22,アレンジメント合同会社,,合同会社,大阪府,交野市,天野が原町２丁目４‐９,,27,230,5760034,,,,,,,2025-10-22,1,,,,,アレンジメント,0
1676,6120005025215,新規,0,2025-10-22,2025-10-22,一般社団法人箕面川合・山之口共同賃貸,,その他の設立登記法人,大阪府,大阪市中央区,高麗橋４丁目３番７号淀屋橋総合会計内,,27,128,5410043,,,,,,,2025-10-22,1,,,,,ミノオカワイヤマノクチキョウドウチンタイ,0
1684,6130001080816,新規,0,2025-10-22,2025-10-22,株式会社穂希,,株式会社,京都府,京都市南区,西九条川原城町８番地,,26,107,6018424,,,,,,,2025-10-22,1,,,,,ホマレ,0
1689,6140001140445,新規,0,2025-10-22,2025-10-22,株式会社Ｃａｂｒｉｏｌｅｔ,,株式会社,兵庫県,神戸市灘区,城内通５丁目３番２号６１・６２号,,28,102,6570836,,,,,,,2025-10-22,1,,,,,キャブリオレ,0
1690,6140001140461,新規,0,2025-10-22,2025-10-22,ＭＥＧＵＲＩ製薬株式会社,,株式会社,兵庫県,姫路市,飾磨区三宅３丁目２６第１圭秀舎ビル２０２号,,28,201,6728048,,,,,,,2025-10-22,1,,,,,メグリセイヤク,0
1698,6160001027161,新規,0,2025-10-22,2025-10-22,株式会社創建パーソナルサービス,,株式会社,滋賀県,甲賀市,水口町貴生川２丁目１００番地ホワイトウェル３０５号,,25,209,5280049,,,,,,,2025-10-22,1,,,,,ソウケンパーソナルサービス,0
1709,6180001168912,新規,0,2025-10-22,2025-10-22,株式会社ワカシ名古屋,,株式会社,愛知県,名古屋市瑞穂区,宝田町４丁目２番地（グランクレアいいねタウン瑞穂１００１号）,,23,108,4670866,,,,,,,2025-10-22,1,,,,,ワカシナゴヤ,0
1710,6180001169101,新規,0,2025-10-22,2025-10-22,株式会社マルグリット,,株式会社,愛知県,名古屋市瑞穂区,彌富町字清水ケ岡１番地の１,,23,108,4670038,,,,,,,2025-10-22,1,,,,,マルグリット,0
1711,6180001169126,新規,0,2025-10-22,2025-10-22,オーエス電気株式会社,,株式会社,愛知県,清須市,上条２丁目２番地２,,23,233,4520944,,,,,,,2025-10-22,1,,,,,オーエスデンキ,0
1712,6180001169217,新規,0,2025-10-22,2025-10-22,株式会社アルメリア,,株式会社,愛知県,一宮市,八町通１丁目１７番地,,23,203,4910844,,,,,,,2025-10-22,1,,,,,アルメリア,0
1713,6180001169233,新規,0,2025-10-22,2025-10-22,オリエンタルデパートリテイリング株式会社,,株式会社,愛知県,春日井市,下条町３丁目８番地５,,23,206,4860923,,,,,,,2025-10-22,1,,,,,,0
1717,6180003029253,新規,0,2025-10-22,2025-10-22,ＭＴ　ＴＲＡＤＩＮＧ合同会社,,合同会社,愛知県,弥富市,芝井６丁目４７番地,,23,235,4980041,,,,,,,2025-10-22,1,,,,,エムティートレーディング,0
1719,6180301040333,新規,0,2025-10-22,2025-10-22,株式会社けあケアＣＡＲＥ,,株式会社,愛知県,額田郡幸田町,大字菱池字荒田８５,,23,501,4440113,,,,,,,2025-10-22,1,,,,,,0
1733,6240001065681,新規,0,2025-10-22,2025-10-22,株式会社千翊産業,,株式会社,広島県,広島市南区,段原２丁目１４－８－１０２,,34,103,7320811,,,,,,,2025-10-22,1,,,,,,0
1755,6290001111687,新規,0,2025-10-22,2025-10-22,株式会社ＲａｙＮｅｓｔ,,株式会社,福岡県,福岡市博多区,浦田１丁目１１番１１－１０１号第３元木ビル,,40,132,8120861,,,,,,,2025-10-22,1,,,,,レイネスト,0
1756,6290001111794,新規,0,2025-10-22,2025-10-22,株式会社ツナグミチ,,株式会社,福岡県,大野城市,牛頸３丁目１３番２１号,,40,219,8160971,,,,,,,2025-10-22,1,,,,,ツナグミチ,0
1757,6290001111852,新規,0,2025-10-22,2025-10-22,株式会社ワンネスラブ,,株式会社,福岡県,福岡市中央区,赤坂１丁目１２番３－４０２号,,40,133,8100042,,,,,,,2025-10-22,1,,,,,ワンネスラブ,0
1762,6290003017569,新規,0,2025-10-22,2025-10-22,令和宣伝組合同会社,,合同会社,福岡県,福岡市博多区,下呉服町６番２７－９０６号,,40,132,8120034,,,,,,,2025-10-22,1,,,,,レイワセンデングミ,0
1763,6290003017577,新規,0,2025-10-22,2025-10-22,合同会社光学館,,合同会社,福岡県,福岡市東区,高美台３丁目３４番２号,,40,131,8110215,,,,,,,2025-10-22,1,,,,,コウガクカン,0
1774,6350001019783,新規,0,2025-10-22,2025-10-22,ＨＯＭＥ　ＦＡＲＭ株式会社,,株式会社,宮崎県,日向市,大字塩見７６７０－１,,45,206,8830033,,,,,,,2025-10-22,1,,,,,ホームファーム,0
1775,6350003005055,新規,0,2025-10-22,2025-10-22,合同会社三楽会計,,合同会社,宮崎県,宮崎市,花山手西１丁目９番地９,,45,201,8800939,,,,,,,2025-10-22,1,,,,,サンラクカイケイ,0
1779,6380001035646,新規,0,2025-10-22,2025-10-22,株式会社オレンジエージェンシー,,株式会社,福島県,会津若松市,米代２丁目４番２４号,,07,202,9650875,,,,,,,2025-10-22,1,,,,,オレンジエージェンシー,0
1782,6400001017212,新規,0,2025-10-22,2025-10-22,株式会社田中資産管理,,株式会社,岩手県,久慈市,長内町第３１地割１９番地２,,03,207,0280041,,,,,,,2025-10-22,1,,,,,タナカシサンカンリ,0
1792,6420003003200,新規,0,2025-10-22,2025-10-22,合同会社ちゅーりっぷ,,合同会社,青森県,むつ市,大畑町上野２４番地２,,02,208,0394401,,,,,,,2025-10-22,1,,,,,チューリップ,0
1818,6700150132624,新規,0,2025-10-22,2025-10-22,Ｈａｎｇｚｈｏｕ　Ｋｅｋａｏ　Ｈｙｇｉｅｎｅ　Ｃｏ．，Ｌｔｄ．,,外国会社等,,,,,,,,Ｒｏｏｍ　３０２，Ｂｕｉｌｄｉｎｇ　１，Ｎｏ．２　Ｈｕａｑｉａｏ　Ｒｏａｄ，ｊｉｎｃｈｅｎｇ　Ｃｏｍｍｕｎｉｔｙ，Ｌｉｎａｎ　Ｄｉｓｔｒｉｃｔ，Ｈａｎｇｚｈｏｕ,,,,,,2025-10-22,1,,,,,ハンジヨウコーカオウエイシヨンヨンピンヨウシエンゴンスー,0
1829,7010001259074,新規,0,2025-10-22,2025-10-22,株式会社フルール,,株式会社,東京都,千代田区,三番町５番地１０－１３０４号,,13,101,1020075,,,,,,,2025-10-22,1,,,,,フルール,0
1830,7010001259611,新規,0,2025-10-22,2025-10-22,大西ホールディングス株式会社,,株式会社,東京都,千代田区,大手町１丁目５番１号,,13,101,1000004,,,,,,,2025-10-22,1,,,,,オオニシホールディングス,0
1831,7010001259644,新規,0,2025-10-22,2025-10-22,株式会社サンマル企画,,株式会社,東京都,中央区,銀座１丁目２２番１１号銀座大竹ビジデンス２Ｆ,,13,102,1040061,,,,,,,2025-10-22,1,,,,,サンマルキカク,0
1832,7010001259669,新規,0,2025-10-22,2025-10-22,株式会社ＡＴＬＡＳ,,株式会社,東京都,中央区,東日本橋３丁目７番１９号友泉東日本橋駅前ビル９階,,13,102,1030004,,,,,,,2025-10-22,1,,,,,アトラス,0
1833,7010001259677,新規,0,2025-10-22,2025-10-22,株式会社菊地製作所,,株式会社,東京都,千代田区,外神田３丁目５番５号末広町ハイム１０５,,13,101,1010021,,,,,,,2025-10-22,1,,,,,キクチセイサクジョ,0
1835,7010003049077,新規,0,2025-10-22,2025-10-22,兼盛ＤＺ合同会社,,合同会社,東京都,千代田区,有楽町１丁目２番２号,,13,101,1000006,,,,,,,2025-10-22,1,,,,,カネモリディージー,0
1836,7010003049127,新規,0,2025-10-22,2025-10-22,合同会社ＳＣ０１１,,合同会社,東京都,千代田区,平河町１丁目６番１５号シルスフィア会計事務所内,,13,101,1020093,,,,,,,2025-10-22,1,,,,,エスシーゼロジュウイチ,0
1837,7010005040810,新規,0,2025-10-22,2025-10-22,一般社団法人ＳＣ０１１,,その他の設立登記法人,東京都,千代田区,平河町１丁目６番１５号シルスフィア会計事務所内,,13,101,1020093,,,,,,,2025-10-22,1,,,,,エスシーゼロジュウイチ,0
1843,7010401193666,新規,0,2025-10-22,2025-10-22,オプティノベイト株式会社,,株式会社,東京都,港区,三田２丁目１３－６－１００４,,13,103,1080073,,,,,,,2025-10-22,1,,,,,オプティノベイト,0
1844,7010401193690,新規,0,2025-10-22,2025-10-22,株式会社ジュレイム,,株式会社,東京都,港区,北青山１丁目３番１号３階,,13,103,1070061,,,,,,,2025-10-22,1,,,,,ジュレイム,0
1845,7010401193872,新規,0,2025-10-22,2025-10-22,株式会社初石,,株式会社,東京都,港区,新橋３丁目４番１０号新橋企画ビルディング１Ｆ,,13,103,1050004,,,,,,,2025-10-22,1,,,,,ハツイシ,0
1846,7010401193947,新規,0,2025-10-22,2025-10-22,ＳＰＶ２２Ｓｏｌａｒ株式会社,,株式会社,東京都,港区,浜松町２丁目１０番６号,,13,103,1050013,,,,,,,2025-10-22,1,,,,,エスピーブイニジュウニソーラー,0
1847,7010401194053,新規,0,2025-10-22,2025-10-22,ＬＳ‐ＳＨＩＰ第８４号株式会社,,株式会社,東京都,港区,六本木１丁目６番１号,,13,103,1060032,,,,,,,2025-10-22,1,,,,,エルエスシップダイハチジュウヨンゴウ,0
1848,7010403036369,新規,0,2025-10-22,2025-10-22,日の出８号合同会社,,合同会社,東京都,港区,海岸１丁目７番１号,,13,103,1050022,,,,,,,2025-10-22,1,,,,,ヒノデハチゴウ,0
1853,7010601068156,新規,0,2025-10-22,2025-10-22,Ｅｌｅｃｔｒｏｖａｙａ　Ｊａｐａｎ株式会社,,株式会社,東京都,江東区,豊洲６丁目２番３１－１９１７号,,13,108,1350061,,,,,,,2025-10-22,1,,,,,エレクトロバヤジャパン,0
1854,7010603011873,新規,0,2025-10-22,2025-10-22,ディテール合同会社,,合同会社,東京都,江東区,豊洲５丁目５番１８－１７０２号,,13,108,1350061,,,,,,,2025-10-22,1,,,,,ディテール,0
1855,7010603011881,新規,0,2025-10-22,2025-10-22,合同会社Ｃｕｏｒｅ,,合同会社,東京都,江東区,猿江２丁目１６番２３－１２０５号,,13,108,1350003,,,,,,,2025-10-22,1,,,,,クオーレ,0
1857,7010701048487,新規,0,2025-10-22,2025-10-22,ホビーラボジャパン株式会社,,株式会社,東京都,品川区,戸越５丁目７番１４号,,13,109,1420041,,,,,,,2025-10-22,1,,,,,ホビーラボジャパン,0
1858,7010701048504,新規,0,2025-10-22,2025-10-22,株式会社アローズパートナーズ,,株式会社,東京都,品川区,東五反田３丁目５番１２－４１４号,,13,109,1410022,,,,,,,2025-10-22,1,,,,,アローズパートナーズ,0
1862,7010803005584,新規,0,2025-10-22,2025-10-22,ＡＪＩＳＡＩ　ＪＡＰＡＮ合同会社,,合同会社,東京都,大田区,上池台１丁目３８番１２－２０２号,,13,111,1450064,,,,,,,2025-10-22,1,,,,,アジサイジャパン,0
1864,7010901058261,新規,0,2025-10-22,2025-10-22,株式会社ＧｅｎＺＡＩ,,株式会社,東京都,世田谷区,北沢４丁目６－１１キャステル下北沢３０２,,13,112,1550031,,,,,,,2025-10-22,1,,,,,ジェンズィーエーアイ,0
1865,7010901058303,新規,0,2025-10-22,2025-10-22,株式会社Ｌｕｍｉｎｏｕｓ,,株式会社,東京都,世田谷区,大原１丁目３１番１３号ピコラフォレスタ笹塚１０２,00141208,13,112,1560041,,,,,,,2025-10-22,1,,,,,ルミナス,0
1867,7010903010360,新規,0,2025-10-22,2025-10-22,合同会社１８１８,,合同会社,東京都,世田谷区,太子堂１丁目１２－２７,,13,112,1540004,,,,,,,2025-10-22,1,,,,,ジュウハチジュウハチ,0
1875,7011001172944,新規,0,2025-10-22,2025-10-22,株式会社Ｌａｙｅｒｍａｔｅ,,株式会社,東京都,渋谷区,鶯谷町３番３号,,13,113,1500032,,,,,,,2025-10-22,1,,,,,レイヤーメイト,0
1876,7011001172969,新規,0,2025-10-22,2025-10-22,株式会社ＥＹＳ,,株式会社,東京都,渋谷区,南平台町６番４号,,13,113,1500036,,,,,,,2025-10-22,1,,,,,イーワイエス,0
1878,7011003022684,新規,0,2025-10-22,2025-10-22,合同会社シネファ,,合同会社,東京都,渋谷区,東３丁目２２番１４号グランファースト恵比寿８Ｆ,,13,113,1500011,,,,,,,2025-10-22,1,,,,,シネファ,0
1884,7011101113609,新規,0,2025-10-22,2025-10-22,株式会社Ｂｕｄｄｙｅｅ,,株式会社,東京都,新宿区,西新宿３丁目３番１３号西新宿水間ビル２Ｆ,,13,104,1600023,,,,,,,2025-10-22,1,,,,,バディー,0
1885,7011101113699,新規,0,2025-10-22,2025-10-22,ＡＩｄｅａ　Ｃｏｎｓｕｌｔｉｎｇ株式会社,,株式会社,東京都,新宿区,西新宿３丁目３番１３号西新宿水間ビル２Ｆ,,13,104,1600023,,,,,,,2025-10-22,1,,,,,アイデアコンサルティング,0
1889,7011103016520,新規,0,2025-10-22,2025-10-22,合同会社ぽーと２２１,,合同会社,東京都,新宿区,西新宿３丁目３番１３号西新宿水間ビル２Ｆ,,13,104,1600023,,,,,,,2025-10-22,1,,,,,ポートニーニーイチ,0
1895,7011701028842,新規,0,2025-10-22,2025-10-22,株式会社Ｆｉｒｓｔｅａ,,株式会社,東京都,江戸川区,北小岩６丁目２８番６号メゾンシンシア２０１,,13,123,1330051,,,,,,,2025-10-22,1,,,,,ファースティア,0
1896,7011703004420,新規,0,2025-10-22,2025-10-22,ＬＡＸＭＩ　ＴＲＡＤＩＮＧ合同会社,,合同会社,東京都,江戸川区,中葛西１丁目４２－２７新見ハイツ１０１,,13,123,1340083,,,,,,,2025-10-22,1,,,,,ラクシミトレーディング,0
1904,7012401043685,新規,0,2025-10-22,2025-10-22,あさひ株式会社,,株式会社,東京都,府中市,朝日町２丁目２８番地２,,13,206,1830003,,,,,,,2025-10-22,1,,,,,アサヒ,0
1915,7020001165404,新規,0,2025-10-22,2025-10-22,Ｂｅｓｔ　Ｈｏｍｅ株式会社,,株式会社,神奈川県,横浜市都筑区,東山田４丁目１１番２７号,,14,118,2240023,,,,,,,2025-10-22,1,,,,,ベストホーム,0
1916,7020001165412,新規,0,2025-10-22,2025-10-22,株式会社アクティブネットワーク,,株式会社,神奈川県,川崎市中原区,市ノ坪４１０番地３１パークスクエア武蔵小杉５１６,,14,133,2110016,,,,,,,2025-10-22,1,,,,,アクティブネットワーク,0
1925,7020003029557,新規,0,2025-10-22,2025-10-22,インサイドアウト合同会社,,合同会社,神奈川県,横浜市西区,北幸２丁目１０番４８号むつみビル３階,,14,103,2200004,,,,,,,2025-10-22,1,,,,,インサイドアウト,0
1926,7020003029631,新規,0,2025-10-22,2025-10-22,合同会社ジェイエムカメラ,,合同会社,神奈川県,横浜市中区,野毛町１丁目３９番地ヴィラ・デ・アウクーバ１０１,,14,104,2310064,,,,,,,2025-10-22,1,,,,,ジェイエムカメラ,0
1929,7021001086631,新規,0,2025-10-22,2025-10-22,ＰＯＨＣ株式会社,,株式会社,神奈川県,相模原市中央区,鹿沼台２丁目１１番６号淵野辺サトウビル５階,,14,152,2520233,,,,,,,2025-10-22,1,,,,,ピーオーエイチシー,0
1936,7030001169222,新規,0,2025-10-22,2025-10-22,株式会社ＯＫＦ,,株式会社,埼玉県,さいたま市緑区,大字大間木５５６番地１,,11,109,3360923,,,,,,,2025-10-22,1,,,,,オーケーエフ,0
1937,7030001169271,新規,0,2025-10-22,2025-10-22,株式会社ＡＳＴＲＡ,,株式会社,埼玉県,越谷市,南越谷１丁目１５－１南越谷ラクーン４Ｆ,,11,222,3430845,,,,,,,2025-10-22,1,,,,,アストラ,0
1938,7030001169338,新規,0,2025-10-22,2025-10-22,夕尚株式会社,,株式会社,埼玉県,川口市,幸町２丁目７番２６号ＢＩＺｃｏｍｆｏｒｔ川口幸町,,11,203,3320016,,,,,,,2025-10-22,1,,,,,セキショウ,0
1940,7030003027915,新規,0,2025-10-22,2025-10-22,合同会社ＰＡＲＴＥＮＯＰＥ,,合同会社,埼玉県,新座市,西堀２丁目２１番１５号,,11,230,3520031,,,,,,,2025-10-22,1,,,,,パルテノペ,0
1944,7040001140999,新規,0,2025-10-22,2025-10-22,株式会社Ｖｉｘｅｅｄ,,株式会社,千葉県,千葉市稲毛区,園生町６４７番地１１,,12,103,2630051,,,,,,,2025-10-22,1,,,,,ヴィクシード,0
1945,7040001141023,新規,0,2025-10-22,2025-10-22,株式会社ティア・ライズ,,株式会社,千葉県,木更津市,中央１丁目４－１３ＫＴＫビル４階,,12,206,2920067,,,,,,,2025-10-22,1,,,,,,0
1946,7040001141072,新規,0,2025-10-22,2025-10-22,株式会社杉建,,株式会社,千葉県,千葉市中央区,都町１丁目１－２,,12,101,2600001,,,,,,,2025-10-22,1,,,,,スギケン,0
1947,7040001141114,新規,0,2025-10-22,2025-10-22,株式会社ＳＨＩＮＫＩ,,株式会社,千葉県,柏市,篠籠田１２７０番地１０,,12,217,2770862,,,,,,,2025-10-22,1,,,,,シンキ,0
1949,7040003028771,新規,0,2025-10-22,2025-10-22,合同会社Ｂｒｉｇｈｔ　Ｈｏｐｅ,,合同会社,千葉県,大網白里市,富田２１１６番地１３,,12,239,2993221,,,,,,,2025-10-22,1,,,,,ブライトホープ,0
1950,7040003028805,新規,0,2025-10-22,2025-10-22,ＫＲテクノロジーズ合同会社,,合同会社,千葉県,浦安市,美浜４丁目２９－１０,,12,227,2790011,,,,,,,2025-10-22,1,,,,,ケイアールテクノロジーズ,0
1960,7080001027227,新規,0,2025-10-22,2025-10-22,株式会社ＨＫ,,株式会社,静岡県,静岡市清水区,銀座１番２号,,22,103,4240817,,,,,,,2025-10-22,1,,,,,エイチケイ,0
1961,7080005007737,新規,0,2025-10-22,2025-10-22,一般社団法人アースライフネットワーク,,その他の設立登記法人,静岡県,静岡市葵区,有永町１４番２８号,,22,101,4200969,,,,,,,2025-10-22,1,,,,,アースライフネットワーク,0
1967,7090003002920,新規,0,2025-10-22,2025-10-22,アペックスホーリング合同会社,,合同会社,山梨県,甲斐市,富竹新田２４５番地２昭和土地ビル２号館３階２１,,19,210,4000113,,,,,,,2025-10-22,1,,,,,アペックスホーリング,0
1974,7110003005937,新規,0,2025-10-22,2025-10-22,合同会社かんろく,,合同会社,新潟県,新潟市東区,下山１丁目２８８番地,,15,102,9500003,,,,,,,2025-10-22,1,,,,,カンロク,0
1996,7120001280886,新規,0,2025-10-22,2025-10-22,株式会社ＮＪ,,株式会社,大阪府,大阪市北区,梅田１丁目１－３大阪駅前第３ビル２９階１－１－１号室,,27,127,5300001,,,,,,,2025-10-22,1,,,,,エヌジェイ,0
1997,7120001281018,新規,0,2025-10-22,2025-10-22,株式会社和のこころ,,株式会社,大阪府,大阪市阿倍野区,晴明通５番１１号,,27,119,5450032,,,,,,,2025-10-22,1,,,,,ワノココロ,0
1998,7120001281042,新規,0,2025-10-22,2025-10-22,維蔓商事株式会社,,株式会社,大阪府,大阪市福島区,福島７丁目４番２２－３０４号,,27,103,5530003,,,,,,,2025-10-22,1,,,,,イーマンショウジ,0
1999,7120001281117,新規,0,2025-10-22,2025-10-22,広誉堂株式会社,,株式会社,大阪府,大阪市西成区,千本南１丁目１６番１４－３０８号,,27,122,5570055,,,,,,,2025-10-22,1,,,,,コウヨドウ,0
2000,7120001281240,新規,0,2025-10-22,2025-10-22,丸井大阪株式会社,,株式会社,大阪府,大阪市住吉区,遠里小野７丁目４番９－４０５号室,,27,120,5580032,,,,,,,2025-10-22,1,,,,,マルイオオサカ,0
2001,7120001281315,新規,0,2025-10-22,2025-10-22,武川智能株式会社,,株式会社,大阪府,大阪市港区,港晴４丁目１１番１１－４０１号,,27,107,5520023,,,,,,,2025-10-22,1,,,,,タケガワチノウ,0
2002,7120001281323,新規,0,2025-10-22,2025-10-22,Ｄｅｓｉｇｎ　ＯＮＥ　ＬＩＦＥ株式会社,,株式会社,大阪府,大阪市西区,立売堀１丁目４番１２号立売堀スクエアビル８階,,27,106,5500012,,,,,,,2025-10-22,1,,,,,デザインワンライフ,0
2003,7120001281397,新規,0,2025-10-22,2025-10-22,株式会社ＳＡＪＡ,,株式会社,大阪府,大阪市福島区,福島６丁目２４番１４号,,27,103,5530003,,,,,,,2025-10-22,1,,,,,サジャ,0
2005,7120003030942,新規,0,2025-10-22,2025-10-22,合同会社グリくる,,合同会社,大阪府,大阪市北区,堂山町８－２３サンヨー会館１Ｆ,,27,127,5300027,,,,,,,2025-10-22,1,,,,,グリクル,0
2006,7120003030983,新規,0,2025-10-22,2025-10-22,合同会社Ｅ．Ｎ．Ａ．,,合同会社,大阪府,大阪市此花区,春日出南３丁目３番４１－６０１号,,27,104,5540023,,,,,,,2025-10-22,1,,,,,イーエヌエー,0
2007,7120003031065,新規,0,2025-10-22,2025-10-22,合同会社まもる,,合同会社,大阪府,大阪市淀川区,東三国５丁目２番２０号,,27,123,5320002,,,,,,,2025-10-22,1,,,,,マモル,0
2008,7120005025206,新規,0,2025-10-22,2025-10-22,行政書士法人ＴＳＵＭＩＫＩ,,その他の設立登記法人,大阪府,大阪市西区,靱本町１丁目７番９号靭イーストビル３０２号,,27,106,5500004,,,,,,,2025-10-22,1,,,,,ツミキ,0
2014,7122001039767,新規,0,2025-10-22,2025-10-22,株式会社ＣＯＬＯＲＳ　ｈｏｍｅ．,,株式会社,大阪府,四條畷市,楠公２丁目４番８号,,27,229,5750023,,,,,,,2025-10-22,1,,,,,カラーズホーム,0
2019,7130001080856,新規,0,2025-10-22,2025-10-22,株式会社アベファルマ,,株式会社,京都府,京都市中京区,西ノ京左馬寮町１番１４号,,26,104,6048491,,,,,,,2025-10-22,1,,,,,アベファルマ,0
2020,7130001080872,新規,0,2025-10-22,2025-10-22,株式会社セント・スタート,,株式会社,京都府,京都市左京区,岩倉中在地町１０４番地７,,26,103,6060027,,,,,,,2025-10-22,1,,,,,セントスタート,0
2022,7130005017490,新規,0,2025-10-22,2025-10-22,一般社団法人笑いと遊びの研究所,,その他の設立登記法人,京都府,京都市下京区,七条通油小路東入大黒町２２７番地第２キョートビル４０２,,26,106,6008223,,,,,,,2025-10-22,1,,,,,ワライトアソビノケンキュウショ,0
2026,7140001140436,新規,0,2025-10-22,2025-10-22,株式会社ＮＥＸＵＳ　ＡＳＣＥＮＴ,,株式会社,兵庫県,加古郡稲美町,六分一１２０９番地の６４,,28,381,6751112,,,,,,,2025-10-22,1,,,,,ネクサスアセント,0
2027,7140001140469,新規,0,2025-10-22,2025-10-22,まつけん株式会社,,株式会社,兵庫県,加古郡播磨町,北本荘４丁目６番３３号,,28,382,6750144,,,,,,,2025-10-22,1,,,,,マツケン,0
2028,7140001140477,新規,0,2025-10-22,2025-10-22,株式会社ルヴィラ,,株式会社,兵庫県,神戸市中央区,磯辺通１丁目１番１８号カサベラ国際プラザビル７０７号室,,28,110,6510084,,,,,,,2025-10-22,1,,,,,ルヴィラ,0
2042,7180001169059,新規,0,2025-10-22,2025-10-22,株式会社ＨＩＪ,,株式会社,愛知県,名古屋市北区,楠４丁目１９０５番地の１,,23,103,4620012,,,,,,,2025-10-22,1,,,,,エイチアイジェイ,0
2043,7180001169109,新規,0,2025-10-22,2025-10-22,株式会社武久板金,,株式会社,愛知県,名古屋市熱田区,四番１丁目１番３７号,,23,109,4560051,,,,,,,2025-10-22,1,,,,,タケヒサバンキン,0
2045,7180003029252,新規,0,2025-10-22,2025-10-22,ＡＦ　ＴＲＡＤＩＮＧ合同会社,,合同会社,愛知県,名古屋市港区,小碓３丁目１４松和荘１号室,,23,111,4550801,,,,,,,2025-10-22,1,,,,,エーエフトレーディング,0
2058,7230001021148,新規,0,2025-10-22,2025-10-22,株式会社ＹＯＫＯＴＡ,,株式会社,富山県,富山市,呉羽町７３０５,,16,201,9300138,,,,,,,2025-10-22,1,,,,,ヨコタ,0
2064,7240005016003,新規,0,2025-10-22,2025-10-22,一般社団法人３Ｒの技術研究会キロク,,その他の設立登記法人,広島県,福山市,南蔵王町６丁目９番４５－３０２号,,34,207,7210973,,,,,,,2025-10-22,1,,,,,サンアールノギジュツケンキュウカイキロク,0
2066,7250003003836,新規,0,2025-10-22,2025-10-22,ＥＣＭＳ合同会社,,合同会社,山口県,下関市,菊川町下岡枝２６７番地１０,,35,201,7500000,,,,,,,2025-10-22,1,,,,,イーシーエムエス,0
2071,7280001009535,新規,0,2025-10-22,2025-10-22,株式会社Ｒｅｎｔｏ,,株式会社,島根県,松江市,黒田町３５３番地６,,32,201,6900876,,,,,,,2025-10-22,1,,,,,レント,0
2092,7330003011269,新規,0,2025-10-22,2025-10-22,合同会社ｓｐａｒｋｌｅ,,合同会社,熊本県,菊池市,野間口１８０－２,,43,210,8611324,,,,,,,2025-10-22,1,,,,,スパークル,0
2095,7340001027729,新規,0,2025-10-22,2025-10-22,株式会社兵糧,,株式会社,鹿児島県,枕崎市,桜山本町８７５番地,,46,204,8980064,,,,,,,2025-10-22,1,,,,,ヒョウロウ,0
2098,7360001035936,新規,0,2025-10-22,2025-10-22,株式会社Ｏｎｅ　Ｐａｙｍｅｎｔ　Ｏｋｉｎａｗａ,,株式会社,沖縄県,中頭郡北谷町,字宮城３番地１２８・Ｓアパート２－Ａ,,47,326,9040113,,,,,,,2025-10-22,1,,,,,ワンペイメントオキナワ,0
2099,7360001035944,新規,0,2025-10-22,2025-10-22,株式会社ＹＵＭＥ沖縄Ｗｏｒｋｓ,,株式会社,沖縄県,うるま市,字前原５４７番地１,,47,213,9042235,,,,,,,2025-10-22,1,,,,,ユメオキナワワークス,0
2106,7420001019305,新規,0,2025-10-22,2025-10-22,株式会社かさいさん家の小さな果樹園,,株式会社,青森県,弘前市,大字高杉字五反田２１０番地,,02,202,0368302,,,,,,,2025-10-22,1,,,,,カサイサンチノチイサナカジュエン,0
2114,7430001095510,新規,0,2025-10-22,2025-10-22,株式会社ホースリペアタカハシ,,株式会社,北海道,苫小牧市,拓勇西町６丁目１４番１１号,,01,213,0591302,,,,,,,2025-10-22,1,,,,,ホースリペアタカハシ,0
2118,7430003018213,新規,0,2025-10-22,2025-10-22,合同会社ＡＭＯＮＧ,,合同会社,北海道,札幌市手稲区,曙二条２丁目４番４５号,00141196,01,109,0060832,,,,,,,2025-10-22,1,,,,,アマング,0
2124,7700150051419,新規,0,2025-10-22,2015-10-09,中国ミロク会計人会,,その他,広島県,広島市中区,袋町４－２５明治安田広島ビル,,34,101,7300036,,,,,,,2015-10-09,1,,,,,チユウゴクミロクカイケイジンカイ,0
2125,7700150132623,新規,0,2025-10-22,2025-10-22,ＧｉｔＬａｂ　Ｉｎｃ．,,外国会社等,,,,,,,,２６８　Ｂｕｓｈ　Ｓｔｒｅｅｔ　ｎｏ．３５０，Ｓａｎ　Ｆｌａｎｃｉｓｃｏ，ＣＡ　９４１０４，Ｕｎｉｔｅｄ　Ｓｔａｔｅｓ　ｏｆ　Ａｍｅｒｉｃａ,,,,,,2025-10-22,1,,,,,ジトラブ,0
2135,8010001259081,新規,0,2025-10-22,2025-10-22,株式会社ＪＰｉＸホスピタリティグループ,,株式会社,東京都,千代田区,丸の内１丁目９番２号グラントウキョウサウスタワー８階,,13,101,1000005,,,,,,,2025-10-22,1,,,,,ジェイピックスホスピタリティグループ,0
2136,8010001259577,新規,0,2025-10-22,2025-10-22,レゾバティールコンサルティング株式会社,,株式会社,東京都,中央区,日本橋小舟町９番１５号,,13,102,1030024,,,,,,,2025-10-22,1,,,,,レゾバティールコンサルティング,0
2137,8010003049101,新規,0,2025-10-22,2025-10-22,東京ＡＩ映像合同会社,,合同会社,東京都,中央区,日本橋室町１丁目１１番１２号日本橋水野ビル７階,,13,102,1030022,,,,,,,2025-10-22,1,,,,,トウキョウエーアイエイゾウ,0
2138,8010003049126,新規,0,2025-10-22,2025-10-22,合同会社ＳＣ０１０,,合同会社,東京都,千代田区,平河町１丁目６番１５号シルスフィア会計事務所内,,13,101,1020093,,,,,,,2025-10-22,1,,,,,エスシーゼロジュウ,0
2152,8010401193632,新規,0,2025-10-22,2025-10-22,株式会社Ｍａｒｋｉｉ　Ｄｉｇｉｔａｌ,,株式会社,東京都,港区,北青山１丁目３番１号アールキューブ青山３階,,13,103,1070061,,,,,,,2025-10-22,1,,,,,マーキーデジタル,0
2153,8010401193681,新規,0,2025-10-22,2025-10-22,株式会社Ｌｉｏｎｓ,,株式会社,東京都,港区,六本木３丁目１８番２－６０４号,,13,103,1060032,,,,,,,2025-10-22,1,,,,,リオンズ,0
2154,8010401193905,新規,0,2025-10-22,2025-10-22,ＩＫＡ　ＨＯＬＤＩＮＧＳ株式会社,,株式会社,東京都,港区,白金３丁目１番１３号日恵ビル２階,,13,103,1080072,,,,,,,2025-10-22,1,,,,,アイケーエーホールディングス,0
2156,8010403036228,新規,0,2025-10-22,2025-10-22,ＰＯＷＥＲ　ＰＯＯＬ２号合同会社,,合同会社,東京都,港区,新橋６丁目２番１号６階,,13,103,1050004,,,,,,,2025-10-22,1,,,,,パワープールニゴウ,0
2157,8010403036368,新規,0,2025-10-22,2025-10-22,日の出７号合同会社,,合同会社,東京都,港区,海岸１丁目７番１号,,13,103,1050022,,,,,,,2025-10-22,1,,,,,ヒノデナナゴウ,0
2161,8010603011872,新規,0,2025-10-22,2025-10-22,合同会社あすなろエステート,,合同会社,東京都,江東区,北砂１丁目３番１９－３０２号,,13,108,1360073,,,,,,,2025-10-22,1,,,,,アスナロエステート,0
2162,8010701048486,新規,0,2025-10-22,2025-10-22,株式会社ＢＴＦ,,株式会社,東京都,品川区,西五反田７丁目２２番１７号ＴＯＣビル４階,,13,109,1410031,,,,,,,2025-10-22,1,,,,,ビーティーエフ,0
2175,8011001172687,新規,0,2025-10-22,2025-10-22,株式会社ｅｍｏｓｅｔ,,株式会社,東京都,渋谷区,円山町５番３号ＭＩＥＵＸ渋谷ビル８階,,13,113,1500044,,,,,,,2025-10-22,1,,,,,エモセット,0
2176,8011001172919,新規,0,2025-10-22,2025-10-22,株式会社山城マネジメント,,株式会社,東京都,目黒区,東山１丁目５番９－６０１号,,13,110,1530043,,,,,,,2025-10-22,1,,,,,ヤマシロマネジメント,0
2177,8011001172935,新規,0,2025-10-22,2025-10-22,株式会社リープスカイ,,株式会社,東京都,渋谷区,道玄坂１丁目１０番８号渋谷道玄坂東急ビル２Ｆ－Ｃ,,13,113,1500043,,,,,,,2025-10-22,1,,,,,リープスカイ,0
2182,8011003022683,新規,0,2025-10-22,2025-10-22,ＴＥＭ　Ｔｅｃｈｎｏｌｏｇｉｅｓ　Ｃｏ．合同会社,,合同会社,東京都,渋谷区,恵比寿西２丁目４番８号ウィンド恵比寿ビル８Ｆ,,13,113,1500021,,,,,,,2025-10-22,1,,,,,ティイーエムテクノロジーズ,0
2183,8011003022774,新規,0,2025-10-22,2025-10-22,合同会社ＣＷＩ,,合同会社,東京都,目黒区,鷹番１丁目１２－１４,,13,110,1520004,,,,,,,2025-10-22,1,,,,,シーダブリューアイ,0
2188,8011101113599,新規,0,2025-10-22,2025-10-22,株式会社ビッグストーン,,株式会社,東京都,新宿区,西新宿３丁目３番１３号西新宿水間ビル６階,,13,104,1600023,,,,,,,2025-10-22,1,,,,,ビッグストーン,0
2192,8011103016560,新規,0,2025-10-22,2025-10-22,合同会社ともだね,,合同会社,東京都,新宿区,西新宿３丁目３番１３号西新宿水間ビル２Ｆ,,13,104,1600023,,,,,,,2025-10-22,1,,,,,トモダネ,0
2197,8011401027409,新規,0,2025-10-22,2025-10-22,藍穹テクノロジーズ株式会社,,株式会社,東京都,板橋区,南常盤台１丁目１６－１５嶋崎第二ビル３０４号,,13,119,1740072,,,,,,,2025-10-22,1,,,,,アイキュウテクノロジーズ,0
2202,8011803007124,新規,0,2025-10-22,2025-10-22,夜桜不動産合同会社,,合同会社,東京都,葛飾区,東金町３丁目１７番１０号ＫＢＳ金町ビジネスサロンＢ－１１,,13,122,1250041,,,,,,,2025-10-22,1,,,,,ヨザクラフドウサン,0
2206,8012405005177,新規,0,2025-10-22,2025-10-22,一般社団法人やわす芸術文化振興協議会,,その他の設立登記法人,東京都,府中市,天神町２丁目２６番地の４３,,13,206,1830053,,,,,,,2025-10-22,1,,,,,ヤワスゲイジュツブンカシンコウキョウギカイ,0
2217,8020001165394,新規,0,2025-10-22,2025-10-22,株式会社スミス建設,,株式会社,神奈川県,川崎市高津区,北見方２丁目３３番２６－２号,,14,134,2130005,,,,,,,2025-10-22,1,,,,,スミスケンセツ,0
2226,8021001086630,新規,0,2025-10-22,2025-10-22,株式会社ＢＬＯＷ　ＵＰ,,株式会社,神奈川県,相模原市中央区,弥栄２丁目１番１９号,,14,152,2520229,,,,,,,2025-10-22,1,,,,,ブローアップ,0
2234,8030001169270,新規,0,2025-10-22,2025-10-22,Ｒｅｆｒａｍｅ株式会社,,株式会社,埼玉県,越谷市,南越谷１丁目１５－１南越谷ラクーン４Ｆ,,11,222,3430845,,,,,,,2025-10-22,1,,,,,リフレーム,0
2235,8030001169295,新規,0,2025-10-22,2025-10-22,株式会社トゥクス,,株式会社,埼玉県,春日部市,樋籠４７１番地９,00141218,11,214,3440002,,,,,,,2025-10-22,1,,,,,トゥクス,0
2236,8030001169304,新規,0,2025-10-22,2025-10-22,株式会社ＧＬＯＷＳ,,株式会社,埼玉県,春日部市,樋堀１０９番地５,,11,214,3440005,,,,,,,2025-10-22,1,,,,,グロウズ,0
2237,8030001169329,新規,0,2025-10-22,2025-10-22,株式会社彩創,,株式会社,埼玉県,三郷市,早稲田３丁目２６番地５,,11,237,3410018,,,,,,,2025-10-22,1,,,,,サイソウ,0
2238,8030001169345,新規,0,2025-10-22,2025-10-22,ＢＩＳＷＡＳ株式会社,,株式会社,埼玉県,川口市,幸町２丁目９番２１号,,11,203,3320016,,,,,,,2025-10-22,1,,,,,ビスワス,0
2245,8030003027914,新規,0,2025-10-22,2025-10-22,ユーケーマーブル合同会社,,合同会社,埼玉県,さいたま市緑区,原山４丁目５番２０－２号,,11,109,3360931,,,,,,,2025-10-22,1,,,,,ユーケーマーブル,0
2246,8030003027930,新規,0,2025-10-22,2025-10-22,敬和サービスサプライ合同会社,,合同会社,埼玉県,川口市,南町２丁目２－２６－１０１,,11,203,3320026,,,,,,,2025-10-22,1,,,,,ケイワサービスサプライ,0
2247,8030003027939,新規,0,2025-10-22,2025-10-22,合同会社光富,,合同会社,埼玉県,川口市,柳崎５丁目１２番１０号,,11,203,3330861,,,,,,,2025-10-22,1,,,,,ミツトミ,0
2252,8040001140949,新規,0,2025-10-22,2025-10-22,株式会社加藤ペイント,,株式会社,千葉県,柏市,花野井１４９０番地１,,12,217,2770812,,,,,,,2025-10-22,1,,,,,,0
2253,8040001140973,新規,0,2025-10-22,2025-10-22,株式会社清水興業,,株式会社,千葉県,印旛郡酒々井町,墨１５４番地,,12,322,2850913,,,,,,,2025-10-22,1,,,,,シミズコウギョウ,0
2256,8040003028523,新規,0,2025-10-22,2025-10-22,合同会社ナギタス,,合同会社,千葉県,船橋市,北本町１丁目１５番１プラウド船橋２０３,,12,204,2730864,,,,,,,2025-10-22,1,,,,,ナギタス,0
2257,8040003028787,新規,0,2025-10-22,2025-10-22,ＩＣＭ　Ｎｅｘｕｓ合同会社,,合同会社,千葉県,山武市,埴谷１６０７番地２４,,12,237,2891223,,,,,,,2025-10-22,1,,,,,アイシーエムネクサス,0
2258,8040003028804,新規,0,2025-10-22,2025-10-22,合同会社福梅,,合同会社,千葉県,印西市,草深１１１０番地３３,,12,231,2701337,,,,,,,2025-10-22,1,,,,,フクウメ,0
2266,8050003009704,新規,0,2025-10-22,2025-10-22,合同会社ＬＶＴ　ｎｅｘｕｓ,,合同会社,茨城県,神栖市,下幡木３９１９番地３２レジデンスソラ１０１,,08,232,3140131,,,,,,,2025-10-22,1,,,,,エルブイティーネクサス,0
2271,8070001043447,新規,0,2025-10-22,2025-10-22,株式会社山本エンジニアリング,,株式会社,群馬県,みどり市,大間々町桐原１４２番地,,10,212,3760102,,,,,,,2025-10-22,1,,,,,ヤマモトエンジニアリング,0
2273,8080101025848,新規,0,2025-10-22,2025-10-22,株式会社ｂｒｉｇｈｔｆｕｔｕｒｅ,,株式会社,静岡県,富士宮市,西小泉町２１番地の１１,,22,207,4180026,,,,,,,2025-10-22,1,,,,,ブライトフューチャー,0
2279,8100001039029,新規,0,2025-10-22,2025-10-22,株式会社Ｅｌｅｃｔ　ｆｅｗ,,株式会社,長野県,松本市,平田東１丁目２２番３号,,20,202,3990014,,,,,,,2025-10-22,1,,,,,エレクトヒュー,0
2280,8100003008436,新規,0,2025-10-22,2025-10-22,合同会社檜重太郎商店,,合同会社,長野県,諏訪市,沖田町４丁目４０番地１,,20,206,3920013,,,,,,,2025-10-22,1,,,,,ヒノキジュウタロウショウテン,0
2282,8110001039663,新規,0,2025-10-22,2025-10-22,株式会社Ｎｏｍａｄｏｒｙ,,株式会社,新潟県,南魚沼郡湯沢町,大字湯沢１８３１,,15,461,9496101,,,,,,,2025-10-22,1,,,,,ノマドリー,0
2295,8120001280919,新規,0,2025-10-22,2025-10-22,ｉｎｎｏｖａｔｅ　ｗｉｔｈ株式会社,,株式会社,大阪府,大阪市北区,梅田２丁目２番２号ヒルトンプラザウエストオフィスタワー１９階,,27,127,5300001,,,,,,,2025-10-22,1,,,,,イノベートウィズ,0
2296,8120001281165,新規,0,2025-10-22,2025-10-22,株式会社壱山,,株式会社,大阪府,大阪市北区,堂島１丁目５番２５号ホテルエルセラーンＢ１,,27,127,5300003,,,,,,,2025-10-22,1,,,,,イチヤマ,0
2297,8120001281181,新規,0,2025-10-22,2025-10-22,株式会社ＴＲＥＮＯＳ,,株式会社,大阪府,枚方市,岡本町７番１号,,27,210,5730031,,,,,,,2025-10-22,1,,,,,トレノス,0
2298,8120001281272,新規,0,2025-10-22,2025-10-22,株式会社はるかぜシステムズ,,株式会社,大阪府,大阪市北区,堂島浜２丁目２－２８堂島アクシスビル４Ｆ,,27,127,5300004,,,,,,,2025-10-22,1,,,,,ハルカゼシステムズ,0
2303,8120101072679,新規,0,2025-10-22,2025-10-22,株式会社ＡＣＴＩＯＮ,,株式会社,大阪府,岸和田市,池尻町７３番地２０１号室,,27,202,5960813,,,,,,,2025-10-22,1,,,,,アクション,0
2306,8120901051659,新規,0,2025-10-22,2025-10-22,エミシード株式会社,,株式会社,大阪府,茨木市,西駅前町４茨木駅前ビル２０２,,27,211,5670032,,,,,,,2025-10-22,1,,,,,エミシード,0
2307,8120901051667,新規,0,2025-10-22,2025-10-22,株式会社ＷＨＹ,,株式会社,大阪府,茨木市,庄１丁目２８番５０－１０１１号,,27,211,5670806,,,,,,,2025-10-22,1,,,,,ワイ,0
2308,8122001039758,新規,0,2025-10-22,2025-10-22,株式会社ＳＡＫＵＨＡＲＵ,,株式会社,大阪府,東大阪市,上小阪２丁目３番６号,,27,227,5770806,,,,,,,2025-10-22,1,,,,,サクハル,0
2311,8130003010876,新規,0,2025-10-22,2025-10-22,合同会社Ｎ・Ｔコンサルティング,,合同会社,京都府,京都市右京区,梅津上田町９番地３０,,26,108,6150932,,,,,,,2025-10-22,1,,,,,エヌティーコンサルティング,0
2314,8140001140501,新規,0,2025-10-22,2025-10-22,株式会社穴書,,株式会社,兵庫県,神戸市中央区,八雲通４丁目３番８号エクセルＩＩ１号,00141198,28,110,6510078,,,,,,,2025-10-22,1,,,,,アナショ,0
2315,8140003022739,新規,0,2025-10-22,2025-10-22,ＺＡＳＨＡＮ　ＴＲＡＤＥＲＳ合同会社,,合同会社,兵庫県,神戸市須磨区,平田町１丁目１番１４号,,28,107,6540021,,,,,,,2025-10-22,1,,,,,ザシャントレーダーズ,0
2316,8150003003721,新規,0,2025-10-22,2025-10-22,ネオカナル合同会社,,合同会社,奈良県,奈良市,青山８丁目１６番地の１,,29,201,6308101,,,,,,,2025-10-22,1,,,,,ネオカナル,0
2326,8180001169033,新規,0,2025-10-22,2025-10-22,株式会社ＨｕｎｄＲｅｄｓ,,株式会社,愛知県,名古屋市西区,那古野２丁目１４番１号なごのキャンパス,,23,104,4510042,,,,,,,2025-10-22,1,,,,,ハンドレッズ,0
2327,8180001169207,新規,0,2025-10-22,2025-10-22,株式会社愛西工務店,,株式会社,愛知県,愛西市,柚木町西田面２２０番地,,23,232,4960904,,,,,,,2025-10-22,1,,,,,アイサイコウムテン,0
2328,8180001169215,新規,0,2025-10-22,2025-10-22,株式会社Ａｂｓｏｌｅｍ,,株式会社,愛知県,名古屋市瑞穂区,土市町２丁目２２番地の６,,23,108,4670843,,,,,,,2025-10-22,1,,,,,アブソレム,0
2332,8180003029268,新規,0,2025-10-22,2025-10-22,合同会社ＡＬＢＡ,,合同会社,愛知県,名古屋市北区,西味鋺３丁目４１８番地の６,,23,103,4620016,,,,,,,2025-10-22,1,,,,,アルバ,0
2333,8180005021280,新規,0,2025-10-22,2025-10-22,一般社団法人ポッケ・ハーモニーランド,,その他の設立登記法人,愛知県,名古屋市千種区,今池１丁目１９－６第一グリーンパンション３０１,,23,101,4640850,,,,,,,2025-10-22,1,,,,,ポッケハーモニーランド,0
2337,8200003007114,新規,0,2025-10-22,2025-10-22,ＭＩＹＡＢＩ合同会社,,合同会社,岐阜県,高山市,本町３丁目５３,,21,203,5060011,,,,,,,2025-10-22,1,,,,,ミヤビ,0
2340,8210001020365,新規,0,2025-10-22,2025-10-22,福吉株式会社,,株式会社,福井県,勝山市,鹿谷町保田第３６号８番地２,,18,206,9110848,,,,,,,2025-10-22,1,,,,,フクキチ,0
2346,8260001040664,新規,0,2025-10-22,2025-10-22,株式会社Ｈｃｏｍｐａｎｙ,,株式会社,岡山県,岡山市北区,矢坂本町１７番３１号,,33,101,7000075,,,,,,,2025-10-22,1,,,,,エイチカンパニー,0
2352,8280001009534,新規,0,2025-10-22,2025-10-22,株式会社ＯＮＯ　ＳＮＡＰ,,株式会社,島根県,松江市,中原町１５３番地,,32,201,6900874,,,,,,,2025-10-22,1,,,,,オノスナップ,0
2358,8290001111859,新規,0,2025-10-22,2025-10-22,株式会社友飛建設,,株式会社,福岡県,福岡市博多区,麦野５丁目８－４２－１０２,,40,132,8120882,,,,,,,2025-10-22,1,,,,,ユウヒケンセツ,0
2360,8290003017575,新規,0,2025-10-22,2025-10-22,合同会社幸,,合同会社,福岡県,福岡市南区,若久３丁目４０番９号,,40,134,8150042,,,,,,,2025-10-22,1,,,,,サチ,0
2361,8290005019850,新規,0,2025-10-22,2025-10-22,一般社団法人Ｃｏ‐ＳｏＬａ,,その他の設立登記法人,福岡県,宗像市,三郎丸４丁目３番６号,,40,220,8114143,,,,,,,2025-10-22,1,,,,,,0
2362,8290801031934,新規,0,2025-10-22,2025-10-22,ＫＯＵＫＥＮ株式会社,,株式会社,福岡県,北九州市小倉南区,八幡町９番１７号,,40,107,8020805,,,,,,,2025-10-22,1,,,,,コウケン,0
2363,8290801031959,新規,0,2025-10-22,2025-10-22,ＣＦＮ株式会社,,株式会社,福岡県,京都郡みやこ町,節丸２２８１番地１,,40,625,8240114,,,,,,,2025-10-22,1,,,,,シーエフエヌ,0
2371,8340001027728,新規,0,2025-10-22,2025-10-22,株式会社与喜,,株式会社,鹿児島県,鹿児島市,鴨池１丁目６番２３号,,46,201,8900063,,,,,,,2025-10-22,1,,,,,ヨキ,0
2374,8340003004997,新規,0,2025-10-22,2025-10-22,合同会社Ｎｅｕｒａ,,合同会社,鹿児島県,鹿児島市,平川町１６００番地１４,,46,201,8910133,,,,,,,2025-10-22,1,,,,,ニューラ,0
2376,8360001035935,新規,0,2025-10-22,2025-10-22,株式会社ｍｏｖＯ,,株式会社,沖縄県,那覇市,字小禄１２９９番地３,,47,201,9010152,,,,,,,2025-10-22,1,,,,,ムーボ,0
2380,8370001053168,新規,0,2025-10-22,2025-10-22,株式会社ヘムステッチ,,株式会社,宮城県,仙台市青葉区,国分町１丁目１番１３号,,04,101,9800803,,,,,,,2025-10-22,1,,,,,ヘムステッチ,0
2385,8420001019304,新規,0,2025-10-22,2025-10-22,株式会社佐藤塗装工業,,株式会社,青森県,弘前市,大字清水森字下川原２番地１２８,,02,202,0368113,,,,,,,2025-10-22,1,,,,,サトウトソウコウギョウ,0
2386,8420003003198,新規,0,2025-10-22,2025-10-22,合同会社ＪＡＰＰＡ,,合同会社,青森県,下北郡東通村,大字蒲野沢字千鳥道３９番地３,,02,424,0350004,,,,,,,2025-10-22,1,,,,,ジャッパ,0
2393,8430003018245,新規,0,2025-10-22,2025-10-22,合同会社Ｑ‐ＴＥＣ,,合同会社,北海道,札幌市中央区,南五条西１５丁目２－３リズム医大前５０３号室,,01,101,0640805,,,,,,,2025-10-22,1,,,,,キューテック,0
2403,8480001012988,新規,0,2025-10-22,2025-10-22,株式会社Ｒｅ　ｅｔｏ,,株式会社,徳島県,徳島市,八万町柿谷１２番地１ガーデンヒルズ城南ＶＩ１０７号室,00141200,36,201,7708070,,,,,,,2025-10-22,1,,,,,リエート,0
2408,8700150132622,新規,0,2025-10-22,2025-10-22,ＲＹＯＴＯ　ＨＯＬＤＩＮＧＳ　ＰＶＴ　ＬＴＤ,,外国会社等,神奈川県,綾瀬市,深谷中６丁目１番６６－２０３号,,14,218,2521107,スリランカ民主社会主義共和国、アクラナ、バトゥゴダ、カサワッタ、Ｎｏ．４７３／３,,,,,,2025-10-22,1,,,,,リヨートホールデイングスプライベートリミテツド,0
2418,9010001259106,新規,0,2025-10-22,2025-10-22,ＭＭＣ紙パルプ株式会社,,株式会社,東京都,中央区,新富１丁目１３番２６号新富ＴＴビル８階,,13,102,1040041,,,,,,,2025-10-22,1,,,,,エムエムシーカミパルプ,0
2419,9010001259279,新規,0,2025-10-22,2025-10-22,株式会社ＫＭＢ,,株式会社,東京都,千代田区,麹町４丁目４番地４ＡＣＮ麹町ビル１２階,,13,101,1020083,,,,,,,2025-10-22,1,,,,,ケーエムビー,0
2420,9010001259642,新規,0,2025-10-22,2025-10-22,株式会社ＢＩＪＵＴＳＵ　ＴＲＡＶＥＬ,,株式会社,東京都,中央区,銀座８丁目１７番５号,,13,102,1040061,,,,,,,2025-10-22,1,,,,,ビジュツトラベル,0
2422,9010003049117,新規,0,2025-10-22,2025-10-22,合同会社アイキュエール,,合同会社,東京都,中央区,勝どき１丁目１３番６－７０１号,,13,102,1040054,,,,,,,2025-10-22,1,,,,,アイキュエール,0
2423,9010005040809,新規,0,2025-10-22,2025-10-22,一般社団法人ＳＣ０１０,,その他の設立登記法人,東京都,千代田区,平河町１丁目６番１５号シルスフィア会計事務所内,,13,101,1020093,,,,,,,2025-10-22,1,,,,,エスシーゼロジュウ,0
2435,9010401193730,新規,0,2025-10-22,2025-10-22,株式会社ＨＵＲＥＣＴ,,株式会社,東京都,港区,赤坂２丁目２１番４号天翔赤坂ＡＮＮＥＸビル５階５０６－Ｅ号室,,13,103,1070052,,,,,,,2025-10-22,1,,,,,ヒューレクト,0
2436,9010401193796,新規,0,2025-10-22,2025-10-22,株式会社ヴィンソンパートナーズ,,株式会社,東京都,港区,南青山３丁目１番３６号青山丸竹ビル６Ｆ,,13,103,1070062,,,,,,,2025-10-22,1,,,,,ヴィンソンパートナーズ,0
2437,9010401193945,新規,0,2025-10-22,2025-10-22,株式会社ＮＯＲＯＳＨＩ,,株式会社,東京都,港区,六本木６丁目１番２０号六本木電気ビル７Ｆ,,13,103,1060032,,,,,,,2025-10-22,1,,,,,ノロシ,0
2438,9010401193961,新規,0,2025-10-22,2025-10-22,スフェンリーシング２株式会社,,株式会社,東京都,港区,虎ノ門１丁目２番６号,,13,103,1050001,,,,,,,2025-10-22,1,,,,,スフェンリーシングツー,0
2442,9010405024691,新規,0,2025-10-22,2025-10-22,一般社団法人芸商橋,,その他の設立登記法人,東京都,港区,港南２丁目１６番２号太陽生命品川ビル２８階,,13,103,1080075,,,,,,,2025-10-22,1,,,,,ゲイショウバシ,0
2443,9010405024808,新規,0,2025-10-22,2025-10-22,一般社団法人メンタルヘルスＤ＆Ｉセンター,,その他の設立登記法人,東京都,港区,北青山１丁目３－３三橋ビル３階,,13,103,1070061,,,,,,,2025-10-22,1,,,,,メンタルヘルスディーアンドアイセンター,0
2449,9010601068170,新規,0,2025-10-22,2025-10-22,株式会社ＥＮ,,株式会社,東京都,江東区,青海２丁目７番４号ｔｈｅＳＯＨＯ７２７,,13,108,1350064,,,,,,,2025-10-22,1,,,,,エン,0
2451,9010603011814,新規,0,2025-10-22,2025-10-22,合同会社ＳＯＮＥ企画,,合同会社,東京都,江東区,塩浜２丁目１８－５－２０３,,13,108,1350043,,,,,,,2025-10-22,1,,,,,ソネキカク,0
2460,9010903010276,新規,0,2025-10-22,2025-10-22,ｍａｒｕｍａｒｕ　ｓｔｕｄｉｏ合同会社,,合同会社,東京都,世田谷区,奥沢２丁目１７番２３号,,13,112,1580083,,,,,,,2025-10-22,1,,,,,マルマルスタジオ,0
2467,9011001172934,新規,0,2025-10-22,2025-10-22,レッドライン・ユリシーズ株式会社,,株式会社,東京都,渋谷区,道玄坂１丁目１０番８号渋谷道玄坂東急ビル２Ｆ－Ｃ,,13,113,1500043,,,,,,,2025-10-22,1,,,,,レッドラインユリシーズ,0
2468,9011001172942,新規,0,2025-10-22,2025-10-22,株式会社Ｑハックジャパン,,株式会社,東京都,渋谷区,神宮前６丁目２３番４号桑野ビル２階,,13,113,1500001,,,,,,,2025-10-22,1,,,,,キューハックジャパン,0
2469,9011001172959,新規,0,2025-10-22,2025-10-22,株式会社理諾,,株式会社,東京都,渋谷区,道玄坂１丁目１０番８号渋谷道玄坂東急ビル２Ｆ－Ｃ,,13,113,1500043,,,,,,,2025-10-22,1,,,,,リダク,0
2470,9011001172967,新規,0,2025-10-22,2025-10-22,株式会社アミューズメントワークス,,株式会社,東京都,渋谷区,恵比寿４丁目２３番１４号ＥＢＩＳＵＴ・Ｓビル４階,,13,113,1500013,,,,,,,2025-10-22,1,,,,,アミューズメントワークス,0
2471,9011001172983,新規,0,2025-10-22,2025-10-22,株式会社ＴＷＩＳＩＴ,,株式会社,東京都,渋谷区,道玄坂１丁目１０番８号渋谷道玄坂東急ビル２Ｆ－Ｃ,,13,113,1500043,,,,,,,2025-10-22,1,,,,,ツイジット,0
2472,9011001173189,新規,0,2025-10-22,2025-10-22,ビーンプランニング株式会社,,株式会社,東京都,渋谷区,恵比寿西２丁目８番４号ＥＸ恵比寿西ビル５階,,13,113,1500021,,,,,,,2025-10-22,1,,,,,ビーンプランニング,0
2474,9011003022591,新規,0,2025-10-22,2025-10-22,ＣＡＲＪＵ　ＪＡＰＡＮ合同会社,,合同会社,東京都,渋谷区,道玄坂１丁目１０－８渋谷道玄坂東急ビル２Ｆ－Ｃ,,13,113,1500043,,,,,,,2025-10-22,1,,,,,カージュジャパン,0
2475,9011003022690,新規,0,2025-10-22,2025-10-22,アニケア合同会社,,合同会社,東京都,渋谷区,円山町５番３号ＭＩＥＵＸ渋谷ビル８階,,13,113,1500044,,,,,,,2025-10-22,1,,,,,アニケア,0
2476,9011101113573,新規,0,2025-10-22,2025-10-22,クローバーリンク株式会社,,株式会社,東京都,新宿区,高田馬場１丁目３１番１６号ワイム高田馬場ビル７０９,,13,104,1690075,,,,,,,2025-10-22,1,,,,,クローバーリンク,0
2477,9011101113598,新規,0,2025-10-22,2025-10-22,株式会社ＬＥＡＴＨＥＲ,,株式会社,東京都,新宿区,歌舞伎町２丁目３０番１４号三経８２ビル２階Ｂ室,,13,104,1600021,,,,,,,2025-10-22,1,,,,,レザー,0
2478,9011101113615,新規,0,2025-10-22,2025-10-22,株式会社永光,,株式会社,東京都,新宿区,下落合４丁目７番１１－２０１号,,13,104,1610033,,,,,,,2025-10-22,1,,,,,エイコウ,0
2479,9011101113664,新規,0,2025-10-22,2025-10-22,株式会社ＶＦＡ,,株式会社,東京都,新宿区,西新宿７丁目７番２６号ワコーレ新宿第一ビル１００５号室,,13,104,1600023,,,,,,,2025-10-22,1,,,,,ブイエフエー,0
2481,9011103016543,新規,0,2025-10-22,2025-10-22,Ｔｏｋｙｏ　Ｅｉｆｕｋｕ　Ｔｒａｄｉｎｇ合同会社,,合同会社,東京都,新宿区,下落合２丁目１４番２８－２１５号,,13,104,1610033,,,,,,,2025-10-22,1,,,,,トウキョウエイフクトレーディング,0
2483,9011503006747,新規,0,2025-10-22,2025-10-22,合同会社ＫＵＲＡＧＥ　ｌａｂ．,,合同会社,東京都,北区,赤羽西３丁目３２番２号ハイツ中村１０１,,13,117,1150055,,,,,,,2025-10-22,1,,,,,クラゲラボ,0
2485,9011601029113,新規,0,2025-10-22,2025-10-22,株式会社アクシライズ,,株式会社,東京都,練馬区,小竹町１丁目２１番１５号,,13,120,1760004,,,,,,,2025-10-22,1,,,,,アクシライズ,0
2489,9012403007414,新規,0,2025-10-22,2025-10-22,カナロア合同会社,,合同会社,東京都,三鷹市,上連雀１丁目１６‐１９‐２００,,13,204,1810012,,,,,,,2025-10-22,1,,,,,カナロア,0
2490,9012703003385,新規,0,2025-10-22,2025-10-22,Ｇｌｏｂａｌ　Ｅｄｇｅ合同会社,,合同会社,東京都,小平市,鈴木町１丁目５３番地の３リバパークソシア２０２号,,13,211,1870011,,,,,,,2025-10-22,1,,,,,グローバルエッジ,0
2491,9012705002484,新規,0,2025-10-22,2025-10-22,一般社団法人日本原ええ会,,その他の設立登記法人,東京都,東久留米市,新川町１丁目３－３５,,13,222,2030013,,,,,,,2025-10-22,1,,,,,ニホンバラエエカイ,0
2496,9020001165328,新規,0,2025-10-22,2025-10-22,株式会社Ｐｒａｘｏｒ,,株式会社,神奈川県,横浜市港北区,新横浜２丁目５番１０号楓第２ビル９階Ｂ室,,14,109,2220033,,,,,,,2025-10-22,1,,,,,プラクサー,0
2497,9020001165427,新規,0,2025-10-22,2025-10-22,株式会社マルチブレイン,,株式会社,神奈川県,横浜市西区,浅間町１丁目４番３号ウィザードビル４０２,,14,103,2200072,,,,,,,2025-10-22,1,,,,,マルチブレイン,0
2502,9021001086472,新規,0,2025-10-22,2025-10-22,株式会社現代企画,,株式会社,神奈川県,大和市,中央２丁目５番４号,,14,213,2420021,,,,,,,2025-10-22,1,,,,,ゲンダイキカク,0
2505,9021003016691,新規,0,2025-10-22,2025-10-22,エデュスポ合同会社,,合同会社,神奈川県,相模原市緑区,橋本３丁目１０５－３,,14,151,2520143,,,,,,,2025-10-22,1,,,,,エデュスポ,0
2513,9030001169278,新規,0,2025-10-22,2025-10-22,株式会社根保設備,,株式会社,埼玉県,志木市,上宗岡５丁目６番１８－１０１号,,11,228,3530001,,,,,,,2025-10-22,1,,,,,ネホセツビ,0
2514,9030001169294,新規,0,2025-10-22,2025-10-22,株式会社Ｃｈａｒｍ,,株式会社,埼玉県,越谷市,南越谷４丁目９番１号－２Ｆ,,11,222,3430845,,,,,,,2025-10-22,1,,,,,チャーム,0
2515,9030001169303,新規,0,2025-10-22,2025-10-22,株式会社８５,,株式会社,埼玉県,熊谷市,小曽根７５４番地,,11,202,3600017,,,,,,,2025-10-22,1,,,,,ハチジュウゴ,0
2519,9030003027938,新規,0,2025-10-22,2025-10-22,ＣＪＬＩ　ＪＡＰＡＮ合同会社,,合同会社,埼玉県,入間市,東藤沢３丁目２番１３号ＫＩＶ商会館入間Ｉ号室,,11,225,3580012,,,,,,,2025-10-22,1,,,,,シージェーエルアイジャパン,0
2524,9040001140972,新規,0,2025-10-22,2025-10-22,株式会社ストラテック,,株式会社,千葉県,流山市,平和台４丁目１９番地の２,,12,220,2700157,,,,,,,2025-10-22,1,,,,,ストラテック,0
2527,9040003028803,新規,0,2025-10-22,2025-10-22,ヨープアセッツ合同会社,,合同会社,千葉県,松戸市,新松戸北２丁目１１番１号－５－４０５号室,,12,207,2700032,,,,,,,2025-10-22,1,,,,,ヨープアセッツ,0
2529,9050001057316,新規,0,2025-10-22,2025-10-22,艾可商事株式会社,,株式会社,茨城県,坂東市,桐木６６９－７,,08,228,3060636,,,,,,,2025-10-22,1,,,,,アイカショウジ,0
2539,9070001043470,新規,0,2025-10-22,2025-10-22,富鼎先進電子株式会社,,株式会社,群馬県,高崎市,栄町３番１１号高崎バナーズビル３階、４階、５階,,10,202,3700841,,,,,,,2025-10-22,1,,,,,フテイセンシンデンシ,0
2542,9070003006161,新規,0,2025-10-22,2025-10-22,ネクサス合同会社,,合同会社,群馬県,太田市,由良町３１６２番地細谷トライハイツ１０２号,,10,205,3730036,,,,,,,2025-10-22,1,,,,,,0
2556,9090003002919,新規,0,2025-10-22,2025-10-22,合同会社Ｌ’ｃｏｆｆｒｅｔ,,合同会社,山梨県,南都留郡富士河口湖町,船津５６８９番地１,,19,430,4010301,,,,,,,2025-10-22,1,,,,,ルコフレ,0
2560,9110003005935,新規,0,2025-10-22,2025-10-22,Ｂｌａｎｃｏ　Ｅｓｃａｐｅ合同会社,,合同会社,新潟県,妙高市,大字田口１９１番地６,,15,217,9492106,,,,,,,2025-10-22,1,,,,,ブランコエスケープ,0
2576,9120001281032,新規,0,2025-10-22,2025-10-22,株式会社グローリッド,,株式会社,大阪府,大阪市住之江区,東加賀屋４丁目４－１,,27,125,5590012,,,,,,,2025-10-22,1,,,,,グローリッド,0
2577,9120001281222,新規,0,2025-10-22,2025-10-22,ゼリオ株式会社,,株式会社,大阪府,大阪市淀川区,十三本町１丁目１８－７－１００４号室,,27,123,5320024,,,,,,,2025-10-22,1,,,,,ゼリオ,0
2578,9120001281288,新規,0,2025-10-22,2025-10-22,大阪ニュートン株式会社,,株式会社,大阪府,大阪市天王寺区,味原町１６番３号２０３,,27,109,5430023,,,,,,,2025-10-22,1,,,,,オオサカニュートン,0
2579,9120001281296,新規,0,2025-10-22,2025-10-22,株式会社リンクス,,株式会社,大阪府,大阪市此花区,伝法６丁目３番１－１１３号,,27,104,5540002,,,,,,,2025-10-22,1,,,,,リンクス,0
2581,9120003030899,新規,0,2025-10-22,2025-10-22,合同会社コアインフレーション,,合同会社,大阪府,大阪市平野区,平野東３丁目７番９号,,27,126,5470043,,,,,,,2025-10-22,1,,,,,コアインフレーション,0
2582,9120003031006,新規,0,2025-10-22,2025-10-22,ＮＭ　Ｂｌｏｏｍｉｎｇ合同会社,,合同会社,大阪府,大阪市北区,東天満１丁目３－１０南森町アーバンビル２階,,27,127,5300044,,,,,,,2025-10-22,1,,,,,エヌエムブルーミング,0
2593,9130005017489,新規,0,2025-10-22,2025-10-22,一般社団法人日本庭園アーカイブ協会,,その他の設立登記法人,京都府,京都市中京区,三条通東洞院東入る菱屋町４４番地,,26,104,6040000,,,,,,,2025-10-22,1,,,,,ニホンテイエンアーカイブキョウカイ,0
2598,9140001140442,新規,0,2025-10-22,2025-10-22,株式会社ホシカゼ,,株式会社,兵庫県,神戸市西区,長畑町９－２－１０３号室,,28,111,6512148,,,,,,,2025-10-22,1,,,,,ホシカゼ,0
2599,9140001140483,新規,0,2025-10-22,2025-10-22,株式会社エムワンクラフト,,株式会社,兵庫県,尼崎市,長洲中通２丁目１番３８号,,28,202,6600802,,,,,,,2025-10-22,1,,,,,エムワンクラフト,0
2600,9160001027142,新規,0,2025-10-22,2025-10-22,米カリ米生産販売農業法人株式会社,,株式会社,滋賀県,蒲生郡日野町,大字中山１９３５番地,,25,383,5291658,,,,,,,2025-10-22,1,,,,,コメカリコメセイサンハンバイノウギョウホウジン,0
2609,9180001169065,新規,0,2025-10-22,2025-10-22,株式会社ＢｅｌｌＰｌｕｓ,,株式会社,愛知県,名古屋市千種区,堀割町２丁目４７ｐｌｕｓＭＫＡＫＵＯＺＡＮＩ３０２,00141197,23,101,4640065,,,,,,,2025-10-22,1,,,,,ベルプラス,0
2610,9180001169131,新規,0,2025-10-22,2025-10-22,株式会社ＫＥＬＬＹ,,株式会社,愛知県,名古屋市名東区,よもぎ台２丁目１００９番,,23,115,4650091,,,,,,,2025-10-22,1,,,,,ケリー,0
2611,9180001169197,新規,0,2025-10-22,2025-10-22,株式会社ＢＥＳＴ　ＰＡＲＴＮＥＲＳ,,株式会社,愛知県,一宮市,音羽３丁目２番３２－２０２号,,23,203,4910045,,,,,,,2025-10-22,1,,,,,ベストパートナーズ,0
2613,9180003029242,新規,0,2025-10-22,2025-10-22,合同会社リアン,,合同会社,愛知県,清須市,西枇杷島町城並２丁目６番地１４号,,23,233,4520011,,,,,,,2025-10-22,1,,,,,リアン,0
2614,9180301040339,新規,0,2025-10-22,2025-10-22,株式会社まめすけ,,株式会社,愛知県,豊橋市,東小鷹野１丁目２１番地の１５,,23,201,4400012,,,,,,,2025-10-22,1,,,,,マメスケ,0
2617,9190001032627,新規,0,2025-10-22,2025-10-22,楽株式会社,,株式会社,三重県,名張市,鴻之台２番町１６０,,24,208,5180702,,,,,,,2025-10-22,1,,,,,ラク,0
2623,9200003007113,新規,0,2025-10-22,2025-10-22,合同会社ワンライフゲームズ,,合同会社,岐阜県,岐阜市,則武２５９６番地９１,,21,201,5020931,,,,,,,2025-10-22,1,,,,,ワンライフゲームズ,0
2635,9260001040671,新規,0,2025-10-22,2025-10-22,株式会社岡本車体,,株式会社,岡山県,総社市,井尻野１６９０番地１,,33,208,7191154,,,,,,,2025-10-22,1,,,,,オカモトシャタイ,0
2636,9270003001803,新規,0,2025-10-22,2025-10-22,合同会社ビッグウエスト,,合同会社,鳥取県,鳥取市,吉成３丁目５番５号,,31,201,6800864,,,,,,,2025-10-22,1,,,,,ビッグウエスト,0
2643,9290001111734,新規,0,2025-10-22,2025-10-22,モデリングファクトリー株式会社,,株式会社,福岡県,福岡市東区,箱崎３丁目２６番１０－５１１号,,40,131,8120053,,,,,,,2025-10-22,1,,,,,モデリングファクトリー,0
2644,9290001111800,新規,0,2025-10-22,2025-10-22,Ｓｈｏｔｏｋａ株式会社,,株式会社,福岡県,福岡市中央区,天神２丁目１１－１福岡ＰＡＲＣＯ新館５階ＴｈｅＣｏｍｐａｎｙ福岡ＰＡＲＣＯ,,40,133,8100001,,,,,,,2025-10-22,1,,,,,ショトカ,0
2645,9290001111817,新規,0,2025-10-22,2025-10-22,株式会社ｓｅｅｙｏｕ,,株式会社,福岡県,福岡市中央区,大名１丁目４番３６号モダンビューロ６０２,,40,133,8100041,,,,,,,2025-10-22,1,,,,,,0
2646,9290001111908,新規,0,2025-10-22,2025-10-22,株式会社ＦｉｄｅＬｉｎｋ,,株式会社,福岡県,福岡市中央区,西公園１３番１号,,40,133,8100061,,,,,,,2025-10-22,1,,,,,ファイドリンク,0
2655,9330001033651,新規,0,2025-10-22,2025-10-22,株式会社ふたばオート,,株式会社,熊本県,八代郡氷川町,網道８１２番地２,,43,468,8694812,,,,,,,2025-10-22,1,,,,,フタバオート,0
2656,9330001033676,新規,0,2025-10-22,2025-10-22,新建開発株式会社,,株式会社,熊本県,菊池市,泗水町永２８５２番地１９,,43,210,8611204,,,,,,,2025-10-22,1,,,,,シンケンカイハツ,0
2666,9420001019294,新規,0,2025-10-22,2025-10-22,株式会社ヒラカワ,,株式会社,青森県,五所川原市,大字豊成字田子ノ浦８３番地３,,02,205,0370621,,,,,,,2025-10-22,1,,,,,ヒラカワ,0
2667,9420001019303,新規,0,2025-10-22,2025-10-22,Ｎｅｕｔｒａｌ株式会社,,株式会社,青森県,南津軽郡藤崎町,大字西豊田２丁目８番地２０,,02,361,0383803,,,,,,,2025-10-22,1,,,,,ニュートラル,0
2671,9430001095500,新規,0,2025-10-22,2025-10-22,株式会社ｈｏｋｕｍｏ,,株式会社,北海道,札幌市中央区,南一条東２丁目１３番地４,,01,101,0600051,,,,,,,2025-10-22,1,,,,,ホクモ,0
2674,9430003018244,新規,0,2025-10-22,2025-10-22,合同会社アットホーム,,合同会社,北海道,札幌市白石区,本通１７丁目北１０番１０－８０３号,,01,104,0030027,,,,,,,2025-10-22,1,,,,,アットホーム,0
2675,9430003018252,新規,0,2025-10-22,2025-10-22,合同会社ＯＩＭＯ,,合同会社,北海道,札幌市東区,東雁来十四条２丁目４番６号,,01,103,0070034,,,,,,,2025-10-22,1,,,,,オイモ,0
2676,9430003018260,新規,0,2025-10-22,2025-10-22,合同会社ＲＳＮ,,合同会社,北海道,札幌市東区,北三十九条東２丁目３番１５号ＭＰ３９ビル２Ｆ,,01,103,0070839,,,,,,,2025-10-22,1,,,,,アールエスエヌ,0
2677,9430005015339,新規,0,2025-10-22,2025-10-22,一般社団法人北海道フリーランス協会,,その他の設立登記法人,北海道,札幌市北区,北二十九条西４丁目１番１７号,,01,102,0010029,,,,,,,2025-10-22,1,,,,,ホッカイドウフリーランスキョウカイ,0
2678,9480003002342,新規,0,2025-10-22,2025-10-22,合同会社福知山市土師蓄電所,,合同会社,徳島県,板野郡松茂町,中喜来字群恵３９番地１,,36,401,7710212,,,,,,,2025-10-22,1,,,,,フクチヤマシハゼチクデンショ,0
2679,9490001011187,新規,0,2025-10-22,2025-10-22,あき清掃株式会社,,株式会社,高知県,安芸市,伊尾木４５８番地４,,39,203,7840045,,,,,,,2025-10-22,1,,,,,アキセイソウ,0
2681,9700150132613,新規,0,2025-10-22,2025-10-22,株式会社リアルワールド,,外国会社等,東京都,千代田区,丸の内１丁目５番１号　新丸の内ビルディング１０階　ＥＧＧＯｆｆｉｃｅ,,13,101,1000005,大韓民国ソウル特別市江南区宣陵路５６１，地下１階（駅三洞，ルビナビルディング）,,,,,,2025-10-22,1,,,,,カブシキガイシヤリアルワールド,0
2682,9700150132621,新規,0,2025-10-22,2025-10-22,亡山本哲相続財産,,その他,兵庫県,芦屋市,浜町２番２１号,,28,206,6590025,,,,,,,2025-10-22,1,,,,,ボウヤマモトサトシソウゾクザイサン,0
