sequenceNumber,corporateNumber,process,correct,updateDate,changeDate,name,nameImageId,kind,prefectureName,cityName,streetNumber,addressImageId,prefectureCode,cityCode,postCode,addressOutside,addressOutsideImageId,closeDate,closeCause,successorCorporateNumber,changeCause,assignmentDate,latest,enName,enPrefectureName,enCityName,enAddressOutside,furigana,hihyoji
1,1010001092621,登記記録の閉鎖等,0,2023-10-17,2023-10-04,出光クレイバレー株式会社,,株式会社,東京都,千代田区,大手町１丁目２番１号,,13,101,1000004,,,2023-10-04,合併による解散等,9010001011318,令和５年１０月１日東京都千代田区大手町一丁目２番１号出光興産株式会社（9010001011318）に合併し解散,2015-10-05,1,,,,,イデミツクレイバレー,0
3,1010001122601,登記記録の閉鎖等,0,2023-10-17,2023-10-04,株式会社ベストウェスタンホテルズジャパン,,株式会社,東京都,千代田区,岩本町１丁目１２番３号,,13,101,1010032,,,2023-10-04,清算の結了等,,,2015-10-05,1,,,,,ベストウェスタンホテルズジャパン,0
5,1010001134761,登記記録の閉鎖等,0,2023-10-17,2023-10-03,岩崎電気株式会社,,株式会社,東京都,中央区,東日本橋１丁目１番７号,,13,102,1030004,,,2023-10-03,合併による解散等,3010001231953,令和５年１０月１日東京都中央区東日本橋一丁目１番７号岩崎電気株式会社（3010001231953）に合併し解散,2015-10-05,1,,,,,イワサキデンキ,0
22,1010403019858,登記記録の閉鎖等,0,2023-10-17,2023-10-02,奥澤産業支払合同会社,,合同会社,東京都,港区,浜松町２丁目２番１５号浜松町ダイヤビル２Ｆ,,13,103,1050013,,,2023-10-02,清算の結了等,,,2018-12-19,1,,,,,オクザワサンギョウシハライ,0
27,1010602025054,登記記録の閉鎖等,0,2023-10-17,2023-10-06,有限会社エム・アイ・シー,,有限会社,東京都,墨田区,立花６丁目２２番３号,,13,107,1310043,,,2023-10-06,清算の結了等,,,2015-10-05,1,,,,,エムアイシー,0
85,1021002022302,登記記録の閉鎖等,0,2023-10-17,2023-10-06,有限会社チカラ電気設備,,有限会社,神奈川県,相模原市中央区,上溝３１２４番地,,14,152,2520243,,,2023-10-06,清算の結了等,,,2015-10-05,1,,,,,チカラデンキセツビ,0
90,1030001088064,登記記録の閉鎖等,0,2023-10-17,2023-09-29,株式会社匠建裝,,株式会社,埼玉県,熊谷市,久下４８６４番地,,11,202,3600026,,,2023-09-29,清算の結了等,,,2015-10-05,1,,,,,タクミケンソウ,0
91,1030001120396,登記記録の閉鎖等,0,2023-10-17,2023-10-03,株式会社のぼりや,,株式会社,埼玉県,熊谷市,本石１丁目１１７番地,,11,202,3600815,,,2023-10-03,清算の結了等,,,2017-05-23,1,,,,,ノボリヤ,0
95,1030002008228,登記記録の閉鎖等,0,2023-10-17,2023-10-02,有限会社高梨,,有限会社,埼玉県,さいたま市浦和区,岸町４丁目１８番１９号,,11,107,3300064,,,2023-10-02,清算の結了等,,,2015-10-05,1,,,,,タカナシ,0
107,1040002046409,登記記録の閉鎖等,0,2023-10-17,2023-10-02,有限会社秋清,,有限会社,千葉県,松戸市,秋山３７番地の１,,12,207,2702223,,,2023-10-02,清算の結了等,,,2015-10-05,1,,,,,アキセイ,0
108,1040002062018,登記記録の閉鎖等,0,2023-10-17,2023-10-02,金井重機興業有限会社,,有限会社,千葉県,四街道市,大日１０１７番地,,12,228,2840001,,,2023-10-02,清算の結了等,,,2015-10-05,1,,,,,カナイジュウキコウギョウ,0
109,1040002087188,登記記録の閉鎖等,0,2023-10-17,2023-09-04,有限会社ミキホームズ,,有限会社,千葉県,香取市,加藤洲９５１番地,,12,236,2870802,,,2023-09-04,清算の結了等,,,2015-10-05,1,,,,,ミキホームズ,0
124,1060002030138,登記記録の閉鎖等,0,2023-10-17,2023-10-10,有限会社ノースグランド,,有限会社,栃木県,小山市,東間々田２丁目３２番３３号,,09,208,3290206,,,2023-10-10,清算の結了等,,,2015-10-05,1,,,,,ノースグランド,0
131,1080401012239,登記記録の閉鎖等,0,2023-10-17,2023-10-13,株式会社工務店工,,株式会社,静岡県,浜松市西区,大平台２丁目２１番５号,,22,133,4328068,,,2023-10-13,清算の結了等,,,2015-10-05,1,,,,,コウムテンタクミ,0
136,1090001004998,登記記録の閉鎖等,0,2023-10-17,2023-10-12,ニッセー株式会社,,株式会社,山梨県,南アルプス市,百々字下引草２０７５号３４,,19,208,4000214,,,2023-10-12,合併による解散等,9010001158159,令和５年１０月１日東京都千代田区外神田四丁目５番４号株式会社ニッセープロダクツ（9010001158159）に合併し解散,2015-10-05,1,,,,,ニッセー,0
145,1120001087387,登記記録の閉鎖等,0,2023-10-17,2023-10-10,ハマリ産業株式会社,,株式会社,大阪府,大阪市中央区,北浜２丁目１番２６号,,27,128,5410041,,,2023-10-10,合併による解散等,1120001251959,令和５年１０月９日大阪市東淀川区柴島一丁目４番２９号ＨＡＭＡＲＩ　ｈｏｌｄｉｎｇｓ株式会社（1120001251959）に合併し解散,2015-10-05,1,,,,,ハマリサンギョウ,0
146,1120001122763,登記記録の閉鎖等,0,2023-10-17,2023-10-04,株式会社カクハラ,,株式会社,大阪府,大阪市港区,市岡３丁目９番１５号,,27,107,5520012,,,2023-10-04,清算の結了等,,,2015-10-05,1,,,,,カクハラ,0
155,1120002043728,登記記録の閉鎖等,0,2023-10-17,2023-10-04,有限会社ブリジオン,,有限会社,大阪府,大阪市大正区,南恩加島６丁目１６番１３号,,27,108,5510021,,,2023-10-04,清算の結了等,,,2015-10-05,1,,,,,ブリジオン,0
170,1120901037490,登記記録の閉鎖等,0,2023-10-17,2023-10-10,株式会社ミッシェル・シード,,株式会社,大阪府,三島郡島本町,桜井１丁目８番１号,,27,301,6180022,,,2023-10-10,清算の結了等,,,2016-09-30,1,,,,,ミッシェルシード,0
174,1130001062257,登記記録の閉鎖等,0,2023-10-17,2023-10-02,株式会社寺子屋西日本,,株式会社,京都府,京都市右京区,西京極豆田町７番地,,26,108,6150801,,,2023-10-02,合併による解散等,2130001001379,令和５年１０月１日京都市右京区西京極豆田町７番地株式会社寺子屋（2130001001379）に合併し解散,2018-06-08,1,,,,,テラコヤニシニホン,0
189,1150001013241,登記記録の閉鎖等,0,2023-10-17,2023-10-16,西村鋳造株式会社,,株式会社,奈良県,香芝市,鎌田１番地,,29,210,6390227,,,2023-10-16,清算の結了等,,,2015-10-05,1,,,,,ニシムラチュウゾウ,0
191,1160001009511,登記記録の閉鎖等,0,2023-10-17,2023-10-13,株式会社Ｃｗｏｏ,,株式会社,滋賀県,彦根市,錦町１０番４０号,,25,202,5220089,,,2023-10-13,清算の結了等,,,2015-10-05,1,,,,,クー,0
194,1180001139281,登記記録の閉鎖等,0,2023-10-17,2023-10-12,株式会社フォローアップ,,株式会社,愛知県,名古屋市東区,徳川１丁目１１番５号ラヴァーチェ徳川４０３号,,23,102,4610025,,,2023-10-12,清算の結了等,,,2019-12-17,1,,,,,フォローアップ,0
200,1180002013997,登記記録の閉鎖等,0,2023-10-17,2023-10-12,有限会社杉山建具店,,有限会社,愛知県,名古屋市南区,上浜町８９番地,,23,112,4570067,,,2023-10-12,清算の結了等,,,2015-10-05,1,,,,,スギヤマタテグテン,0
222,1240002050290,登記記録の閉鎖等,0,2023-10-17,2023-10-11,有限会社オートブティック・カーム,,有限会社,広島県,尾道市,高須町３６４５番地１,,34,205,7290141,,,2023-10-11,清算の結了等,,,2015-10-05,1,,,,,オートブティックカーム,0
259,1370001019803,登記記録の閉鎖等,0,2023-10-17,2023-10-12,株式会社アーク,,株式会社,宮城県,仙台市宮城野区,五輪１丁目７番９号,,04,102,9830842,,,2023-10-12,清算の結了等,,,2015-10-05,1,,,,,アーク,0
260,1370001045361,登記記録の閉鎖等,0,2023-10-17,2023-10-11,株式会社エスコート,,株式会社,宮城県,富谷市,富ケ丘１丁目２７番２０号１階エスコートタウン富谷,,04,216,9813352,,,2023-10-11,清算の結了等,,,2020-01-31,1,,,,,エスコート,0
266,1400002012860,登記記録の閉鎖等,0,2023-10-17,2023-10-02,有限会社嵯峨自動車商会,,有限会社,岩手県,久慈市,新中の橋第３７地割１０１番地３,,03,207,0280023,,,2023-10-02,合併による解散等,4400002012593,令和５年１０月１日岩手県九戸郡軽米町大字軽米第８地割８６番地株式会社ホンダカーズ北岩手（4400002012593）に合併し解散,2015-10-05,1,,,,,サガジドウシャショウカイ,0
276,1480001007730,登記記録の閉鎖等,0,2023-10-17,2023-10-16,三信産業株式会社,,株式会社,徳島県,美馬郡つるぎ町,半田字田井１７１番地１,,36,468,7794402,,,2023-10-16,清算の結了等,,,2015-10-05,1,,,,,サンシンサンギョウ,0
280,2010001082357,登記記録の閉鎖等,0,2023-10-17,2023-10-12,株式会社泰秀,,株式会社,東京都,板橋区,中板橋２２番３号,,13,119,1730016,,,2023-10-12,合併による解散等,8010001038287,令和５年１０月１日東京都中央区八丁堀一丁目３番２号株式会社ヱスビー興産（8010001038287）に合併し解散,2015-10-05,1,,,,,タイシュウ,0
309,2010401112498,登記記録の閉鎖等,0,2023-10-17,2023-10-03,株式会社ＡＳＩＭＯＤＥ２,,株式会社,東京都,港区,虎ノ門２丁目７番５号,,13,103,1050001,,,2023-10-03,清算の結了等,,,2015-10-05,1,,,,,アシモードツー,0
317,2010405020160,登記記録の閉鎖等,0,2023-10-17,2023-10-03,Ｃａｍｂｒｉｄｇｅ　Ｋｕｔｃｈａｎ特定目的会社,,その他の設立登記法人,東京都,港区,六本木１丁目６番１号泉ガーデンタワーＫＰＭＧ税理士法人内,,13,103,1060032,,,2023-10-03,清算の結了等,,,2021-08-27,1,,,,,ケンブリッジクッチャン,0
322,2010701004016,登記記録の閉鎖等,0,2023-10-17,2023-10-10,株式会社サンワールド,,株式会社,東京都,大田区,西馬込１丁目４番７号,,13,111,1430026,,,2023-10-10,清算の結了等,,,2015-10-05,1,,,,,サンワールド,0
326,2010801004147,登記記録の閉鎖等,0,2023-10-17,2023-10-12,株式会社サンワ,,株式会社,東京都,大田区,大森北１丁目３３番１３号,,13,111,1430016,,,2023-10-12,清算の結了等,,,2015-10-05,1,,,,,サンワ,0
330,2010901005846,登記記録の閉鎖等,0,2023-10-17,2023-10-10,株式会社ジャパンネットワーク,,株式会社,東京都,世田谷区,上馬４丁目７番１６－３０４号,,13,112,1540011,,,2023-10-10,清算の結了等,,,2015-10-05,1,,,,,,0
332,2010901020960,登記記録の閉鎖等,0,2023-10-17,2023-10-04,株式会社ラウデ,,株式会社,東京都,中央区,銀座５丁目６番２銀座七宝ビル６Ｆ,,13,102,1040061,,,2023-10-04,清算の結了等,,,2015-10-05,1,,,,,ラウデ,0
362,2012803003093,登記記録の閉鎖等,0,2023-10-17,2023-10-05,合同会社１ｓｔ,,合同会社,東京都,立川市,柴崎町３丁目９番７号多摩川実業ビル１階,,13,202,1900023,,,2023-10-05,清算の結了等,,,2023-06-06,1,,,,,ファースト,0
376,2021001001958,登記記録の閉鎖等,0,2023-10-17,2023-10-06,プレジデント株式会社,,株式会社,神奈川県,藤沢市,藤沢１０３１番地１日神パレステージ藤沢８０１号,,14,205,2510052,,,2023-10-06,清算の結了等,,,2015-10-05,1,,,,,プレジデント,0
386,2021002000496,登記記録の閉鎖等,0,2023-10-17,2023-10-06,有限会社イズミ建設産業,,有限会社,神奈川県,藤沢市,西俣野４９０番地,,14,205,2520812,,,2023-10-06,清算の結了等,,,2015-10-05,1,,,,,イズミケンセツサンギョウ,0
399,2030002052910,登記記録の閉鎖等,0,2023-10-17,2023-09-27,有限会社クリッター,,有限会社,埼玉県,八潮市,大字二丁目２３３番地,,11,234,3400811,,,2023-09-27,清算の結了等,,,2015-10-05,1,,,,,クリッター,0
407,2040001021213,登記記録の閉鎖等,0,2023-10-17,2023-10-02,明盛産商株式会社,,株式会社,千葉県,八千代市,八千代台西８丁目６番地の３,,12,221,2760034,,,2023-10-02,清算の結了等,,,2015-10-05,1,,,,,メイセイサンショウ,0
423,2060002033024,登記記録の閉鎖等,0,2023-10-17,2023-10-10,有限会社寺内プレス工業,,有限会社,栃木県,栃木市,大平町富田２７２６番地,,09,203,3294404,,,2023-10-10,清算の結了等,,,2015-10-05,1,,,,,テラウチプレスコウギョウ,0
442,2120001112251,登記記録の閉鎖等,0,2023-10-17,2023-10-13,株式会社ケイアンドケイコーポレーション,,株式会社,大阪府,大阪市浪速区,恵美須西２丁目８番１９号,,27,111,5560003,,,2023-10-13,合併による解散等,5010001229062,令和５年１０月１日東京都千代田区大手町一丁目９番２号株式会社ケイアンドケイコーポレーション（5010001229062）に合併し解散,2015-10-05,1,,,,,ケイアンドケイコーポレーション,0
459,2120101053833,登記記録の閉鎖等,0,2023-10-17,2023-10-13,ｕ．ｂシステム株式会社,,株式会社,大阪府,松原市,丹南６丁目５００番地－２Ｆ,,27,217,5800013,,,2023-10-13,清算の結了等,,,2015-11-10,1,,,,,,0
464,2140001060457,登記記録の閉鎖等,0,2023-10-17,2023-10-02,西芝エンジニアリング株式会社,,株式会社,兵庫県,姫路市,網干区浜田１０００番地,,28,201,6711242,,,2023-10-02,合併による解散等,7140001060460,令和５年１０月１日兵庫県姫路市網干区浜田１０００番地西芝電機株式会社（7140001060460）に合併し解散,2015-10-05,1,,,,,ニシシバエンジニアリング,0
470,2140002025129,登記記録の閉鎖等,0,2023-10-17,2023-10-11,有限会社出光電設,,有限会社,兵庫県,神戸市東灘区,本山中町３丁目６番１１号,,28,101,6580016,,,2023-10-11,清算の結了等,,,2015-10-05,1,,,,,イデミツデンセツ,0
480,2160002014773,登記記録の閉鎖等,0,2023-10-17,2023-10-05,有限会社甲賀インダスト,,有限会社,滋賀県,野洲市,小篠原１５６２番地１０,,25,210,5202331,,,2023-10-05,清算の結了等,,,2015-10-05,1,,,,,コウガインダスト,0
500,2200001009027,登記記録の閉鎖等,0,2023-10-17,2023-10-13,株式会社鈑金オークションコム,,株式会社,岐阜県,岐阜市,敷島町８丁目１０５番地,,21,201,5008369,,,2023-10-13,清算の結了等,,,2015-10-05,1,,,,,バンキンオークションコム,0
506,2240001029748,登記記録の閉鎖等,0,2023-10-17,2023-10-12,浅利織物株式会社,,株式会社,広島県,福山市,水呑町１５９７番地,,34,207,7200832,,,2023-10-12,清算の結了等,,,2015-10-05,1,,,,,アサリオリモノ,0
520,2290001030148,登記記録の閉鎖等,0,2023-10-17,2023-10-02,新興和ホームズ株式会社,,株式会社,福岡県,福岡市博多区,東月隈３丁目１番７－２０１号,,40,132,8120854,,,2023-10-02,清算の結了等,,,2015-10-05,1,,,,,シンコウワホームズ,0
523,2290001052398,登記記録の閉鎖等,0,2023-10-17,2023-09-29,株式会社ＶＡＬＵＥＳ,,株式会社,福岡県,大野城市,御笠川５丁目１１番１７号,,40,219,8160912,,,2023-09-29,清算の結了等,,,2015-10-05,1,,,,,バリューズ,0
535,2290801010786,登記記録の閉鎖等,0,2023-10-17,2023-10-13,ユーキ産業株式会社,,株式会社,福岡県,北九州市八幡西区,浅川日の峯１丁目３１番８号,,40,109,8070876,,,2023-10-13,清算の結了等,,,2015-10-05,1,,,,,ユーキサンギョウ,0
539,2290802006759,登記記録の閉鎖等,0,2023-10-17,2023-10-12,有限会社ユウキフードサービス,,有限会社,福岡県,北九州市小倉北区,紺屋町１番１５号,,40,106,8020081,,,2023-10-12,清算の結了等,,,2015-10-05,1,,,,,ユウキフードサービス,0
540,2290802010083,登記記録の閉鎖等,0,2023-10-17,2023-10-16,有限会社丸正タイヤ,,有限会社,福岡県,北九州市門司区,西新町１丁目４番４８号,,40,101,8000056,,,2023-10-16,清算の結了等,,,2015-10-05,1,,,,,マルショウタイヤ,0
541,2290802014951,登記記録の閉鎖等,0,2023-10-17,2023-10-13,有限会社ニッソー商事,,有限会社,福岡県,北九州市八幡西区,上上津役６丁目１１番５号,,40,109,8070072,,,2023-10-13,清算の結了等,,,2015-10-05,1,,,,,ニッソーショウジ,0
548,2310001015179,登記記録の閉鎖等,0,2023-10-17,2023-10-13,株式会社さくら,,株式会社,長崎県,大村市,植松１丁目２０１番地５,,42,205,8560027,,,2023-10-13,清算の結了等,,,2017-10-11,1,,,,,,0
555,2360001007089,登記記録の閉鎖等,0,2023-10-17,2023-10-11,株式会社ダイヤモンド経営,,株式会社,沖縄県,那覇市,松山１丁目３２番７号,,47,201,9000032,,,2023-10-11,清算の結了等,,,2015-10-05,1,,,,,,0
574,2430002023581,登記記録の閉鎖等,0,2023-10-17,2023-10-03,有限会社札幌筆耕センター,,有限会社,北海道,札幌市北区,あいの里四条６丁目６番３号,,01,102,0028074,,,2023-10-03,清算の結了等,,,2015-10-05,1,,,,,サッポロヒッコウセンター,0
579,2490002005715,登記記録の閉鎖等,0,2023-10-17,2023-10-16,有限会社和田食品,,有限会社,高知県,高知市,三園町３０４番地１,,39,201,7800034,,,2023-10-16,清算の結了等,,,2015-10-05,1,,,,,ワダショクヒン,0
606,3010402012556,登記記録の閉鎖等,0,2023-10-17,2023-09-26,有限会社翠企画,,有限会社,東京都,港区,東麻布２丁目１１番９号,,13,103,1060044,,,2023-09-26,清算の結了等,,,2015-10-05,1,,,,,ミドリキカク,0
633,3011101101138,登記記録の閉鎖等,0,2023-10-17,2023-10-12,株式会社ＡＲＭＥＤＥＳ　ＪＡＰＡＮ,,株式会社,東京都,新宿区,西新宿３丁目３番－１３号西新宿水間ビル６階,,13,104,1600023,,,2023-10-12,清算の結了等,,,2022-12-13,1,,,,,アルメデスジャパン,0
644,3011402008890,登記記録の閉鎖等,0,2023-10-17,2023-10-12,有限会社メデイコ,,有限会社,東京都,板橋区,大山町２１番８号,,13,119,1730023,,,2023-10-12,清算の結了等,,,2015-10-05,1,,,,,メデイコ,0
645,3011601017949,登記記録の閉鎖等,0,2023-10-17,2023-10-12,株式会社Ｎｅｉｇｈｂｏｒｈｏｏｄ　Ｐｒｏｊｅｃｔ,,株式会社,東京都,練馬区,石神井町２丁目１５番１５－２０２号室,,13,120,1770041,,,2023-10-12,清算の結了等,,,2015-10-05,1,,,,,ネイバーフッドプロジェクト,0
666,3020001106411,登記記録の閉鎖等,0,2023-10-17,2023-10-04,株式会社ビーンズ,,株式会社,神奈川県,横浜市港北区,篠原西町１７番３５号,,14,109,2220025,,,2023-10-04,清算の結了等,,,2015-10-05,1,,,,,ビーンズ,0
669,3020002017707,登記記録の閉鎖等,0,2023-10-17,2023-10-04,有限会社山彦,,有限会社,神奈川県,横浜市西区,宮崎町１８番地,,14,103,2200031,,,2023-10-04,清算の結了等,,,2015-10-05,1,,,,,ヤマビコ,0
670,3020002106658,登記記録の閉鎖等,0,2023-10-17,2023-10-03,有限会社ミリビス・ジャパン,,有限会社,神奈川県,横浜市磯子区,磯子７丁目１０番１１号,,14,107,2350016,,,2023-10-03,清算の結了等,,,2015-10-05,1,,,,,ミリビスジャパン,0
673,3021001021138,登記記録の閉鎖等,0,2023-10-17,2023-10-06,株式会社東海林製作所,,株式会社,神奈川県,伊勢原市,下谷８２７番地,,14,214,2591123,,,2023-10-06,清算の結了等,,,2015-10-05,1,,,,,ショウジセイサクショ,0
681,3021002053510,登記記録の閉鎖等,0,2023-10-17,2023-10-06,有限会社労務開発センター,,有限会社,神奈川県,小田原市,栄町１丁目９番８号,,14,206,2500011,,,2023-10-06,清算の結了等,,,2015-10-05,1,,,,,ロウムカイハツセンター,0
691,3030001145516,登記記録の閉鎖等,0,2023-10-17,2023-10-02,株式会社アーリーバード,,株式会社,埼玉県,狭山市,富士見１丁目３番地１３号,,11,215,3501306,,,2023-10-02,清算の結了等,,,2021-11-24,1,,,,,アーリーバード,0
722,3050002011979,登記記録の閉鎖等,0,2023-10-17,2023-10-06,トリタメディカルサービス有限会社,,有限会社,茨城県,土浦市,北荒川沖町１９番２２－２号,,08,203,3000876,,,2023-10-06,清算の結了等,,,2015-10-05,1,,,,,トリタメディカルサービス,0
751,3120901019157,登記記録の閉鎖等,0,2023-10-17,2023-10-06,株式会社池田,,株式会社,大阪府,高槻市,八幡町６番２６号,,27,207,5690051,,,2023-10-06,清算の結了等,,,2015-10-05,1,,,,,イケダ,0
756,3122002013618,登記記録の閉鎖等,0,2023-10-17,2023-10-10,有限会社栗原エステート,,有限会社,大阪府,八尾市,跡部本町３丁目２番１２号,,27,212,5810064,,,2023-10-10,清算の結了等,,,2015-10-05,1,,,,,クリハラエステート,0
767,3140001086963,登記記録の閉鎖等,0,2023-10-17,2023-10-02,三富士株式会社,,株式会社,兵庫県,三木市,別所町花尻６４７,,28,215,6730446,,,2023-10-02,清算の結了等,,,2015-10-05,1,,,,,ミフジ,0
768,3140001115061,登記記録の閉鎖等,0,2023-10-17,2023-10-12,株式会社ＴＫＧ玩具,,株式会社,兵庫県,姫路市,広畑区東新町２丁目３６番地サンヒルズ五番館２０２号,,28,201,6711121,,,2023-10-12,清算の結了等,,,2019-10-09,1,,,,,ティーケージーガング,0
790,3190002013648,登記記録の閉鎖等,0,2023-10-17,2023-10-12,エムエフ精密ネジ有限会社,,有限会社,三重県,松阪市,田村町５０６番地の１４,,24,204,5150055,,,2023-10-12,清算の結了等,,,2015-10-05,1,,,,,エムエフセイミツネジ,0
797,3220001012820,登記記録の閉鎖等,0,2023-10-17,2023-10-12,青岳株式会社,,株式会社,石川県,能美市,赤井町は１９５番地,,17,211,9290101,,,2023-10-12,清算の結了等,,,2015-10-05,1,,,,,セイガク,0
805,3240001045133,登記記録の閉鎖等,0,2023-10-17,2023-10-03,Ｊ．ｃｏｍ株式会社,,株式会社,広島県,広島市中区,中島町４－５－１１０１,,34,101,7300811,,,2023-10-03,清算の結了等,,,2015-10-05,1,,,,,ジェイコム,0
806,3250001006209,登記記録の閉鎖等,0,2023-10-17,2023-10-13,株式会社菱屋,,株式会社,山口県,下関市,東大和町２丁目１４番２０号,,35,201,7500066,,,2023-10-13,清算の結了等,,,2015-10-05,1,,,,,ヒシヤ,0
817,3270001004598,登記記録の閉鎖等,0,2023-10-17,2023-10-12,株式会社ＤＭ設計,,株式会社,鳥取県,米子市,和田町２４２２番地,,31,202,6830102,,,2023-10-12,清算の結了等,,,2015-10-05,1,,,,,ディーエムセッケイ,0
842,3370001009315,登記記録の閉鎖等,0,2023-10-17,2023-10-04,株式会社天いち,,株式会社,宮城県,仙台市青葉区,落合６丁目１９番地の１４,,04,101,9893126,,,2023-10-04,清算の結了等,,,2015-10-05,1,,,,,テンイチ,0
844,3370002006781,登記記録の閉鎖等,0,2023-10-17,2023-10-10,有限会社内海工業所,,有限会社,宮城県,仙台市宮城野区,田子１丁目２０番５号,,04,102,9830021,,,2023-10-10,清算の結了等,,,2015-10-05,1,,,,,ウツミコウギョウショ,0
847,3370003005972,登記記録の閉鎖等,0,2023-10-17,2023-10-11,三友合資會社,,合資会社,宮城県,宮城郡松島町,初原字樋田１２番地,00129277,04,401,9810204,,,2023-10-11,清算の結了等,,,2023-02-07,1,,,,,サンユウ,0
861,3420003001578,登記記録の閉鎖等,0,2023-10-17,2023-10-10,バンブル合同会社,,合同会社,青森県,黒石市,大字石名坂字舘４１番地１,,02,204,0360342,,,2023-10-10,清算の結了等,,,2016-05-16,1,,,,,バンブル,0
863,3430001007254,登記記録の閉鎖等,0,2023-10-17,2023-10-02,株式会社新興商事,,株式会社,北海道,札幌市白石区,川下四条５丁目４番３４号,,01,104,0030864,,,2023-10-02,清算の結了等,,,2015-10-05,1,,,,,シンコウショウジ,0
864,3430001063322,登記記録の閉鎖等,0,2023-10-17,2023-10-03,株式会社ピィクス,,株式会社,北海道,札幌市中央区,南七条西２４丁目２番３号,,01,101,0640807,,,2023-10-03,清算の結了等,,,2015-10-05,1,,,,,ピィクス,0
890,4010401092268,登記記録の閉鎖等,0,2023-10-17,2023-10-10,株式会社ファーマリンク,,株式会社,東京都,町田市,南成瀬１丁目８番地１村田ビル２階,,13,209,1940045,,,2023-10-10,合併による解散等,9021001028409,令和５年１０月１日神奈川県大和市西鶴間一丁目９番１８号株式会社ブラン・ド・ブラン（9021001028409）に合併し解散,2015-10-05,1,,,,,ファーマリンク,0
912,4011001095330,登記記録の閉鎖等,0,2023-10-17,2023-10-10,アジアブレイン株式会社,,株式会社,東京都,目黒区,平町１丁目２６番３号５０２,,13,110,1520032,,,2023-10-10,清算の結了等,,,2015-10-05,1,,,,,アジアブレイン,0
923,4011002001576,登記記録の閉鎖等,0,2023-10-17,2023-10-10,有限会社アイ・エス・アイ・コンサルタント,,有限会社,東京都,渋谷区,神泉町２０番１５号神泉モンドビル５階,,13,113,1500045,,,2023-10-10,清算の結了等,,,2015-10-05,1,,,,,アイエスアイコンサルタント,0
940,4012301001531,登記記録の閉鎖等,0,2023-10-17,2023-10-11,株式会社寳,,株式会社,東京都,町田市,金森６丁目１８番３６号,,13,209,1940012,,,2023-10-11,清算の結了等,,,2015-10-05,1,,,,,タカラ,0
953,4020001126202,登記記録の閉鎖等,0,2023-10-17,2023-10-02,ＴＨＳ株式会社,,株式会社,神奈川県,横浜市磯子区,中原２丁目８番６号,,14,107,2350036,,,2023-10-02,清算の結了等,,,2018-05-08,1,,,,,ティーエイチエス,0
965,4021001076123,登記記録の閉鎖等,0,2023-10-17,2023-10-06,株式会社杏,,株式会社,神奈川県,鎌倉市,腰越２丁目３番１号,,14,204,2480033,,,2023-10-06,清算の結了等,,,2022-06-02,1,,,,,アン,0
967,4021002058376,登記記録の閉鎖等,0,2023-10-17,2023-10-05,有限会社鈴木,,有限会社,神奈川県,伊勢原市,小稲葉２４７２番地の２,,14,214,2591122,,,2023-10-05,清算の結了等,,,2015-10-05,1,,,,,,0
973,4030001108942,登記記録の閉鎖等,0,2023-10-17,2023-09-28,株式会社ナカヤマ,,株式会社,埼玉県,草加市,弁天６丁目８番４号,,11,221,3400004,,,2023-09-28,清算の結了等,,,2015-10-05,1,,,,,ナカヤマ,0
979,4030002030237,登記記録の閉鎖等,0,2023-10-17,2023-09-28,有限会社釣富,,有限会社,埼玉県,所沢市,花園１丁目２３１６番地１２,,11,208,3590047,,,2023-09-28,清算の結了等,,,2015-10-05,1,,,,,ツリトミ,0
983,4030002085413,登記記録の閉鎖等,0,2023-10-17,2023-09-27,有限会社岡山ゼミナール,,有限会社,埼玉県,越谷市,赤山町１丁目４１番地２,,11,222,3430807,,,2023-09-27,清算の結了等,,,2015-10-05,1,,,,,オカヤマゼミナール,0
985,4030002091964,登記記録の閉鎖等,0,2023-10-17,2023-09-28,有限会社バイワード,,有限会社,埼玉県,越谷市,蒲生２丁目３番６号,,11,222,3430838,,,2023-09-28,清算の結了等,,,2015-10-05,1,,,,,バイワード,0
992,4030005019640,登記記録の閉鎖等,0,2023-10-17,2023-09-25,一般社団法人日本美容鍼灸インバウンド振興協会,,その他の設立登記法人,埼玉県,志木市,館２丁目４番８－１３０１号,,11,228,3530006,,,2023-09-25,清算の結了等,,,2019-10-24,1,,,,,ニホンビヨウシンキュウインバウンドシンコウキョウカイ,0
1004,4060003003214,登記記録の閉鎖等,0,2023-10-17,2023-10-10,合同会社ＢＡＴＩＭＥＸ,,合同会社,栃木県,足利市,高松町４４８番地５,,09,202,3260325,,,2023-10-10,清算の結了等,,,2019-11-05,1,,,,,ベタミックス,0
1008,4070002012982,登記記録の閉鎖等,0,2023-10-17,2023-10-11,有限会社オーエムイー,,有限会社,群馬県,高崎市,貝沢町４７１番地１サンハイツ高崎１００３号,,10,202,3700042,,,2023-10-11,清算の結了等,,,2015-10-05,1,,,,,オーエムイー,0
1017,4100002007500,登記記録の閉鎖等,0,2023-10-17,2023-10-05,有限会社全教ながの共済自動車保険,,有限会社,長野県,長野市,大字南長野県町５９３番地,,20,201,3800838,,,2023-10-05,清算の結了等,,,2015-10-05,1,,,,,ゼンキョウナガノキョウサイジドウシャホケン,0
1028,4120001152345,登記記録の閉鎖等,0,2023-10-17,2023-10-10,株式会社くどう工務店,,株式会社,大阪府,枚方市,養父丘１丁目２番４５号,,27,210,5731134,,,2023-10-10,清算の結了等,,,2015-10-05,1,,,,,クドウコウムテン,0
1040,4120002058590,登記記録の閉鎖等,0,2023-10-17,2023-10-10,有限会社マキアージュ,,有限会社,兵庫県,三田市,南が丘２丁目３番２３号,,28,219,6691535,,,2023-10-10,清算の結了等,,,2015-10-05,1,,,,,マキアージュ,0
1046,4120101062279,登記記録の閉鎖等,0,2023-10-17,2023-10-16,株式会社Ｓｈｉｎｉｎｇ　Ｓｈｉｐ,,株式会社,大阪府,堺市西区,浜寺石津町西４丁２４番８号,,27,144,5928333,,,2023-10-16,清算の結了等,,,2020-09-07,1,,,,,シャイニングシップ,0
1054,4122001030530,登記記録の閉鎖等,0,2023-10-17,2023-10-06,株式会社成田,,株式会社,大阪府,八尾市,安中町３丁目２番７３－２０５号,,27,212,5810085,,,2023-10-06,清算の結了等,,,2017-04-21,1,,,,,ナリタ,0
1056,4130003007793,登記記録の閉鎖等,0,2023-10-17,2023-10-03,合同会社マツ,,合同会社,京都府,京都市右京区,龍安寺西ノ川町２４番地２３,,26,108,6168016,,,2023-10-03,清算の結了等,,,2022-03-07,1,,,,,マツ,0
1057,4140001034013,登記記録の閉鎖等,0,2023-10-17,2023-10-12,ステディセミコンダクタ株式会社,,株式会社,兵庫県,神戸市東灘区,西岡本７丁目１０番４号,,28,101,6580073,,,2023-10-12,清算の結了等,,,2015-10-05,1,,,,,ステディセミコンダクタ,0
1060,4140001065636,登記記録の閉鎖等,0,2023-10-17,2023-10-06,株式会社Ｋ＆Ｋシステム,,株式会社,兵庫県,姫路市,白浜町寺家１丁目１８３番地,,28,201,6728012,,,2023-10-06,合併による解散等,1140001037002,令和５年１０月１日兵庫県明石市魚住町清水２１７４番地の１０株式会社ＢＩＣＫ（1140001037002）に合併し解散,2015-10-05,1,,,,,ケーアンドケーシステム,0
1071,4150002008312,登記記録の閉鎖等,0,2023-10-17,2023-10-13,有限会社安田空調,,有限会社,奈良県,橿原市,地黄町３５１番地の５,,29,205,6340805,,,2023-10-13,清算の結了等,,,2015-10-05,1,,,,,ヤスダクウチョウ,0
1079,4180001051814,登記記録の閉鎖等,0,2023-10-17,2023-10-05,株式会社名鉄プロパティ,,株式会社,愛知県,名古屋市中村区,名駅１丁目２番４号,,23,105,4500002,,,2023-10-05,合併による解散等,5180001033068,令和５年１０月１日名古屋市中村区名駅四丁目８番１８号名鉄都市開発株式会社（5180001033068）に合併し解散,2015-10-05,1,,,,,メイテツプロパティ,0
1081,4180001095407,登記記録の閉鎖等,0,2023-10-17,2023-10-10,株式会社知新コーポレーション,,株式会社,愛知県,半田市,宮本町３丁目２１７番地の２１,,23,205,4750925,,,2023-10-10,清算の結了等,,,2015-10-05,1,,,,,チシンコーポレーション,0
1089,4180003019636,登記記録の閉鎖等,0,2023-10-17,2023-10-03,合同会社姶良ソーラーパーク望月０７,,合同会社,東京都,港区,六本木３丁目２番１号,,13,103,1060032,,,2023-10-03,合併による解散等,3011001038942,令和５年１０月１日東京都港区六本木三丁目２番１号合同会社ＤＭＭ．ｃｏｍ（3011001038942）に合併し解散,2019-01-28,1,,,,,アイラソーラーパークモチズキゼロナナ,0
1099,4200002020823,登記記録の閉鎖等,0,2023-10-17,2023-10-11,有限会社ヤマキ窯業,,有限会社,岐阜県,多治見市,平和町５丁目６３番地,,21,204,5070827,,,2023-10-11,清算の結了等,,,2015-10-05,1,,,,,ヤマキヨウギョウ,0
1117,4290001083193,登記記録の閉鎖等,0,2023-10-17,2023-10-02,株式会社ラフィーネ青葉,,株式会社,福岡県,福岡市東区,土井１丁目２１番１号,,40,131,8130032,,,2023-10-02,合併による解散等,8290001003131,令和５年１０月１日福岡市中央区天神二丁目３番１０号株式会社サンコー（8290001003131）に合併し解散,2018-10-26,1,,,,,ラフィーネアオバ,0
1124,4290802019858,登記記録の閉鎖等,0,2023-10-17,2023-10-13,有限会社ＳＳ保険企画,,有限会社,福岡県,北九州市八幡東区,西本町２丁目６番１８号,,40,108,8050061,,,2023-10-13,清算の結了等,,,2015-10-05,1,,,,,エスエスホケンキカク,0
1130,4320005005099,登記記録の閉鎖等,0,2023-10-17,2023-10-16,下波多方生産森林組合,,その他の設立登記法人,大分県,杵築市,大田波多方３７３３番地の１,,44,210,8790911,,,2023-10-16,清算の結了等,,,2015-10-05,1,,,,,シモハダカタセイサン,0
1135,4340001002866,登記記録の閉鎖等,0,2023-10-17,2023-10-16,株式会社テスム,,株式会社,鹿児島県,鹿児島市,西陵２丁目３６番１号,,46,201,8900032,,,2023-10-16,清算の結了等,,,2015-10-05,1,,,,,テスム,0
1136,4340001024860,登記記録の閉鎖等,0,2023-10-17,2023-10-16,株式会社ＫＥＮＳＵＫＥ,,株式会社,鹿児島県,鹿児島市,和田３丁目１５－１３,,46,201,8910143,,,2023-10-16,清算の結了等,,,2022-07-04,1,,,,,ケンスケ,0
1158,4430001038109,登記記録の閉鎖等,0,2023-10-17,2023-10-04,朝里川温泉開発株式会社,,株式会社,東京都,千代田区,岩本町１丁目１２番３号,,13,101,1010032,,,2023-10-04,清算の結了等,,,2015-10-05,1,,,,,アサリガワオンセンカイハツ,0
1172,4480002005994,登記記録の閉鎖等,0,2023-10-17,2023-10-13,有限会社笠井建築設計コンサルタント,,有限会社,徳島県,徳島市,南常三島町１丁目２番地５,,36,201,7700814,,,2023-10-13,清算の結了等,,,2015-10-05,1,,,,,カサイケンチクセッケイコンサルタント,0
1176,5010001064930,登記記録の閉鎖等,0,2023-10-17,2023-10-05,株式会社キングエンタープライズ,,株式会社,東京都,文京区,音羽１丁目２番３号,,13,105,1120013,,,2023-10-05,清算の結了等,,,2015-10-05,1,,,,,キングエンタープライズ,0
1181,5010001207919,登記記録の閉鎖等,0,2023-10-17,2023-10-05,リッチヘアジャパン株式会社,,株式会社,東京都,千代田区,九段南１丁目５番６号りそな九段ビル５階,,13,101,1020074,,,2023-10-05,清算の結了等,,,2020-03-03,1,,,,,,0
1190,5010003036382,登記記録の閉鎖等,0,2023-10-17,2023-10-05,ＲＢソーラースペード合同会社,,合同会社,東京都,中央区,八丁堀４丁目２番１０号ＡＯＪ税理士法人内,,13,102,1040032,,,2023-10-05,清算の結了等,,,2021-11-30,1,,,,,アールビーソーラースペード,0
1199,5010401153894,登記記録の閉鎖等,0,2023-10-17,2023-10-04,株式会社スパコロ,,株式会社,東京都,港区,芝公園２丁目６番３号芝公園フロントタワー,,13,103,1050011,,,2023-10-04,合併による解散等,7010401004022,令和５年１０月１日東京都港区芝公園二丁目６番３号芝公園フロントタワー株式会社モニタス（7010401004022）に合併し解散,2020-07-09,1,,,,,スパコロ,0
1201,5010402034573,登記記録の閉鎖等,0,2023-10-17,2023-10-03,有限会社ドラ,,有限会社,東京都,港区,港南４丁目６番５－１３０６号,,13,103,1080075,,,2023-10-03,清算の結了等,,,2015-10-05,1,,,,,,0
1202,5010403026000,登記記録の閉鎖等,0,2023-10-17,2023-10-03,Ｋｕｔｃｈａｎ　Ｉｎｖｅｓｔｍｅｎｔ合同会社,,合同会社,東京都,港区,六本木１丁目６番１号泉ガーデンタワーＫＰＭＧ税理士法人内,,13,103,1060032,,,2023-10-03,清算の結了等,,,2021-08-30,1,,,,,クッチャンインベストメント,0
1231,5011002036084,登記記録の閉鎖等,0,2023-10-17,2023-10-10,有限会社ピメントス,,有限会社,東京都,渋谷区,恵比寿４丁目５番２８－７０３号,,13,113,1500013,,,2023-10-10,清算の結了等,,,2015-10-05,1,,,,,ピメントス,0
1250,5012801018891,登記記録の閉鎖等,0,2023-10-17,2023-10-12,株式会社リブロプラス,,株式会社,東京都,立川市,柴崎町３丁目６番２９号,,13,202,1900023,,,2023-10-12,合併による解散等,6010001163260,令和５年１０月１日東京都千代田区神田駿河台四丁目３番地ＮＩＣリテールズ株式会社（6010001163260）に合併し解散,2018-08-03,1,,,,,リブロプラス,0
1264,5020002014669,登記記録の閉鎖等,0,2023-10-17,2023-10-03,有限会社菅田工業,,有限会社,神奈川県,横浜市青葉区,大場町１７２番地１６,,14,117,2250023,,,2023-10-03,清算の結了等,,,2015-10-05,1,,,,,スガタコウギョウ,0
1267,5020002080975,登記記録の閉鎖等,0,2023-10-17,2023-10-05,三友工業有限会社,,有限会社,神奈川県,川崎市幸区,戸手４丁目１２番２５号,,14,132,2120005,,,2023-10-05,清算の結了等,,,2015-10-05,1,,,,,ミツトモコウギョウ,0
1275,5021002025367,登記記録の閉鎖等,0,2023-10-17,2023-10-06,有限会社読売デリバリー,,有限会社,神奈川県,相模原市中央区,共和２丁目１番１６号,,14,152,2520234,,,2023-10-06,清算の結了等,,,2015-10-05,1,,,,,ヨミウリデリバリー,0
1276,5021002070272,登記記録の閉鎖等,0,2023-10-17,2023-10-06,有限会社アート・ビジョン,,有限会社,神奈川県,横須賀市,平作２丁目１２番６号,,14,201,2380032,,,2023-10-06,清算の結了等,,,2015-10-05,1,,,,,アートビジョン,0
1277,5021003001929,登記記録の閉鎖等,0,2023-10-17,2023-10-06,合資会社マキシム,,合資会社,神奈川県,座間市,座間２丁目２９７２番地の１,,14,216,2520027,,,2023-10-06,清算の結了等,,,2015-10-05,1,,,,,マキシム,0
1316,5050002009476,登記記録の閉鎖等,0,2023-10-17,2023-10-10,有限会社大越観光バス,,有限会社,茨城県,ひたちなか市,大字足崎２６７番地の２,,08,221,3120003,,,2023-10-10,清算の結了等,,,2015-10-05,1,,,,,オオコシカンコウバス,0
1325,5080102006346,登記記録の閉鎖等,0,2023-10-17,2023-10-12,有限会社武泉医療会,,有限会社,静岡県,裾野市,下和田８２６番地,,22,220,4101105,,,2023-10-12,清算の結了等,,,2015-10-05,1,,,,,ブセンイリョウカイ,0
1335,5120001189782,登記記録の閉鎖等,0,2023-10-17,2023-10-10,株式会社ＫＩＳＥＫＩ　Ｃｒｅａｔｅ,,株式会社,大阪府,大阪市都島区,都島南通１丁目２１番５－１００６号,,27,102,5340023,,,2023-10-10,清算の結了等,,,2015-10-05,1,,,,,キセキクリエート,0
1342,5120002010947,登記記録の閉鎖等,0,2023-10-17,2023-10-11,有限会社柿本商事,,有限会社,兵庫県,西宮市,東山台２丁目７番地Ｄ３棟３０５号,,28,204,6691133,,,2023-10-11,清算の結了等,,,2015-10-05,1,,,,,カキモトショウジ,0
1357,5130003007248,登記記録の閉鎖等,0,2023-10-17,2023-10-03,アタラ合同会社,,合同会社,京都府,京都市中京区,壬生朱雀町６番地１－２０１号,,26,104,6048871,,,2023-10-03,清算の結了等,,,2021-05-25,1,,,,,アタラ,0
1373,5180002068815,登記記録の閉鎖等,0,2023-10-17,2023-10-12,有限会社カネコ住設サービス,,有限会社,愛知県,小牧市,外堀２丁目１２６番地,,23,219,4850039,,,2023-10-12,清算の結了等,,,2015-10-05,1,,,,,カネコジュウセツサービス,0
1384,5210001014080,登記記録の閉鎖等,0,2023-10-17,2023-10-05,株式会社若狭めのうセンター,,株式会社,福井県,小浜市,小松原第２号６８番地,,18,204,9170006,,,2023-10-05,清算の結了等,,,2015-10-05,1,,,,,ワカサメノウセンター,0
1385,5220001007521,登記記録の閉鎖等,0,2023-10-17,2023-10-12,陵善産業株式会社,,株式会社,石川県,金沢市,有松５丁目７番３号,,17,201,9218161,,,2023-10-12,清算の結了等,,,2015-10-05,1,,,,,リョウゼンサンギョウ,0
1392,5240002030454,登記記録の閉鎖等,0,2023-10-17,2023-09-26,有限会社森田工務店,,有限会社,広島県,三次市,三若町２６７４番地,,34,209,7280621,,,2023-09-26,清算の結了等,,,2015-10-05,1,,,,,モリタコウムテン,0
1400,5260003003903,登記記録の閉鎖等,0,2023-10-17,2023-10-12,合同会社小僧,,合同会社,岡山県,津山市,野村２５４番地,,33,203,7081116,,,2023-10-12,清算の結了等,,,2022-05-09,1,,,,,コゾウ,0
1409,5290001083192,登記記録の閉鎖等,0,2023-10-17,2023-10-02,株式会社千早,,株式会社,福岡県,福岡市東区,土井１丁目２１番１号,,40,131,8130032,,,2023-10-02,合併による解散等,8290001003131,令和５年１０月１日福岡市中央区天神二丁目３番１０号株式会社サンコー（8290001003131）に合併し解散,2018-10-26,1,,,,,チハヤ,0
1418,5290802023990,登記記録の閉鎖等,0,2023-10-17,2023-10-10,有限会社江がしら,,有限会社,福岡県,田川市,伊田町１４番１１号,,40,206,8250015,,,2023-10-10,清算の結了等,,,2015-10-05,1,,,,,エガシラ,0
1426,5320001012817,登記記録の閉鎖等,0,2023-10-17,2023-10-13,株式会社大分医業経営企画,,株式会社,大分県,大分市,大字下郡３４６２番地の４オフィスパレア下郡Ｉ,00116181,44,201,8700951,,,2023-10-13,清算の結了等,,,2015-10-05,1,,,,,オオイタイギョウケイエイキカク,0
1440,5370001017737,登記記録の閉鎖等,0,2023-10-17,2023-10-12,株式会社東名プレート,,株式会社,宮城県,黒川郡大和町,松坂平８丁目３番地の３,,04,421,9813408,,,2023-10-12,合併による解散等,4100001019661,令和５年１０月１日長野県上伊那郡箕輪町大字中曽根５３０番地３株式会社東信鋼鉄（4100001019661）に合併し解散,2015-10-05,1,,,,,,0
1449,5380002023881,登記記録の閉鎖等,0,2023-10-17,2023-10-04,有限会社さんぺい薬局,,有限会社,福島県,いわき市,植田町中央２丁目１番地の４,,07,204,9748261,,,2023-10-04,清算の結了等,,,2015-10-05,1,,,,,サンペイヤッキョク,0
1452,5390002006316,登記記録の閉鎖等,0,2023-10-17,2023-10-13,有限会社ひまわり薬局,,有限会社,山形県,上山市,河崎１丁目２番３８号,,06,207,9993145,,,2023-10-13,合併による解散等,3370002012755,令和５年９月３０日仙台市青葉区南吉成四丁目１０番地の１２株式会社ノア（3370002012755）に合併し解散,2015-10-05,1,,,,,,0
1457,5410001008640,登記記録の閉鎖等,0,2023-10-17,2023-10-05,株式会社ＭＩＲＡＮ,,株式会社,秋田県,仙北市,田沢湖生保内字荒川３５番地１,,05,215,0141201,,,2023-10-05,清算の結了等,,,2015-10-05,1,,,,,ミラン,0
1459,5420001007022,登記記録の閉鎖等,0,2023-10-17,2023-10-12,株式会社ＳＯＡ青森,,株式会社,青森県,八戸市,下長２丁目１番３３号,,02,203,0391164,,,2023-10-12,合併による解散等,8120001159980,令和５年１０月１日大阪府守口市八島町１番１２号株式会社ＳＯＡソリューションズ（8120001159980）に合併し解散,2015-10-05,1,,,,,,0
1462,5450005003659,登記記録の閉鎖等,0,2023-10-17,2023-10-13,特定非営利活動法人ぬくもり,,その他の設立登記法人,北海道,紋別郡興部町,字沙留９２番地,,01,561,0981941,,,2023-10-13,清算の結了等,,,2015-10-05,1,,,,,ヌクモリ,0
1467,6010001233476,登記記録の閉鎖等,0,2023-10-17,2023-10-04,東略集団株式会社,,株式会社,東京都,文京区,大塚５丁目８番１２－３０３号,,13,105,1120012,,,2023-10-04,清算の結了等,,,2023-03-09,1,,,,,トウリャクシュウダン,0
1474,6010005027370,登記記録の閉鎖等,0,2023-10-17,2023-10-12,ＲＣ　Ｉｎｖｅｓｔｍｅｎｔ特定目的会社,,その他の設立登記法人,東京都,中央区,銀座１丁目６番１１号土志田ビルディング３Ｆ,,13,102,1040061,,,2023-10-12,清算の結了等,,,2017-08-31,1,,,,,アールシーインベストメント,0
1479,6010401096259,登記記録の閉鎖等,0,2023-10-17,2023-10-04,株式会社ストーリア,,株式会社,東京都,中央区,日本橋小網町６番１号,,13,102,1030016,,,2023-10-04,合併による解散等,9010401057687,令和５年１０月１日東京都中央区日本橋小網町６番１号株式会社エスクリ（9010401057687）に合併し解散,2015-10-05,1,,,,,ストーリア,0
1482,6010401153373,登記記録の閉鎖等,0,2023-10-17,2023-10-05,株式会社ｂｏｘ,,株式会社,東京都,港区,虎ノ門５丁目３番９号ゼルコーバ・ファイブ２０１号室,,13,103,1050001,,,2023-10-05,清算の結了等,,,2020-06-15,1,,,,,ボックス,0
1486,6010405018671,登記記録の閉鎖等,0,2023-10-17,2023-10-03,一般社団法人アソシエーションＪ－Ｃプラットフォーム,,その他の設立登記法人,神奈川県,横浜市鶴見区,鶴見中央２丁目１２番３０号,,14,101,2300051,,,2023-10-03,清算の結了等,,,2020-04-21,1,,,,,アソシエーションジェーシープラットフォーム,0
1501,6010905003231,登記記録の閉鎖等,0,2023-10-17,2023-10-10,特定非営利活動法人日本文化・スポーツ振興会,,その他の設立登記法人,東京都,世田谷区,北烏山１丁目５２番１０号,,13,112,1570061,,,2023-10-10,清算の結了等,,,2016-06-10,1,,,,,,0
1502,6011001073094,登記記録の閉鎖等,0,2023-10-17,2023-10-12,株式会社アキルノ,,株式会社,東京都,中野区,江原町２丁目３番１７号,,13,114,1650023,,,2023-10-12,清算の結了等,,,2015-10-05,1,,,,,アキルノ,0
1510,6011101094024,登記記録の閉鎖等,0,2023-10-17,2023-10-13,株式会社ＢＵＰＰＡＮ,,株式会社,東京都,新宿区,新宿１丁目３６番２号新宿第七葉山ビル３階,,13,104,1600022,,,2023-10-13,清算の結了等,,,2021-02-12,1,,,,,ブッパン,0
1525,6011802008950,登記記録の閉鎖等,0,2023-10-17,2023-10-13,有限会社相原プレス型製作所,,有限会社,東京都,足立区,千住桜木１丁目１５番１４号,,13,121,1200045,,,2023-10-13,清算の結了等,,,2015-10-05,1,,,,,アイハラプレスカタセイサクショ,0
1526,6012302000233,登記記録の閉鎖等,0,2023-10-17,2023-10-11,有限会社アムール,,有限会社,東京都,町田市,原町田２丁目２番１号,,13,209,1940013,,,2023-10-11,清算の結了等,,,2015-10-05,1,,,,,アムール,0
1528,6012401008573,登記記録の閉鎖等,0,2023-10-17,2023-10-11,株式会社ボエキ,,株式会社,東京都,調布市,調布ケ丘４丁目３２番地１０,,13,208,1820021,,,2023-10-11,清算の結了等,,,2015-10-05,1,,,,,ボエキ,0
1532,6012801019823,登記記録の閉鎖等,0,2023-10-17,2023-10-05,株式会社エルアソート,,株式会社,東京都,東大和市,清水６丁目１１５４番地１,,13,220,2070004,,,2023-10-05,清算の結了等,,,2019-12-13,1,,,,,エルアソート,0
1535,6013301034255,登記記録の閉鎖等,0,2023-10-17,2023-10-06,株式会社三幸ホールディングス,,株式会社,東京都,豊島区,池袋２丁目２番１号,,13,116,1710014,,,2023-10-06,合併による解散等,6013301001486,令和５年１０月１日東京都豊島区池袋二丁目２番１号株式会社ウィックス三幸（6013301001486）に合併し解散,2015-10-05,1,,,,,サンコウホールディングス,0
1546,6020001051720,登記記録の閉鎖等,0,2023-10-17,2023-10-10,株式会社Ｉ・Ｂカンパニー,,株式会社,東京都,杉並区,桃井３丁目１０番１号ロイヤルパークス荻窪２１８,,13,115,1670034,,,2023-10-10,清算の結了等,,,2015-10-05,1,,,,,,0
1564,6030002114236,登記記録の閉鎖等,0,2023-10-17,2023-09-21,有限会社丸吉住宅,00017940,有限会社,埼玉県,熊谷市,原島８０９番地,,11,202,3600811,,,2023-09-21,清算の結了等,,,2015-10-05,1,,,,,マルヨシジュウタク,0
1575,6040002025721,登記記録の閉鎖等,0,2023-10-17,2023-10-02,有限会社宮木良治商店,,有限会社,千葉県,船橋市,宮本４丁目９番４号,,12,204,2730003,,,2023-10-02,清算の結了等,,,2015-10-05,1,,,,,ミヤキリョウジショウテン,0
1578,6050001023089,登記記録の閉鎖等,0,2023-10-17,2023-10-11,株式会社アンダーツリー東京,,株式会社,東京都,中央区,八重洲１丁目８番１７号,,13,102,1030028,,,2023-10-11,合併による解散等,8120001074271,令和５年１０月１日大阪市西区西本町一丁目２番８号アンダーツリー株式会社（8120001074271）に合併し解散,2015-10-05,1,,,,,アンダーツリートウキョウ,0
1585,6060002011604,登記記録の閉鎖等,0,2023-10-17,2023-10-06,有限会社フューコン,,有限会社,栃木県,宇都宮市,中央３丁目１４番５号,,09,201,3200806,,,2023-10-06,清算の結了等,,,2015-10-05,1,,,,,フューコン,0
1592,6100001001345,登記記録の閉鎖等,0,2023-10-17,2023-10-10,株式会社塩澤本店,,株式会社,長野県,長野市,西後町１５５２番地,,20,201,3810000,,,2023-10-10,清算の結了等,,,2015-10-05,1,,,,,シオザワホンテン,0
1593,6110002008405,登記記録の閉鎖等,0,2023-10-17,2023-10-11,有限会社インパクト,,有限会社,新潟県,新潟市東区,大形本町５丁目１３番３号,,15,102,9500813,,,2023-10-11,清算の結了等,,,2015-10-05,1,,,,,インパクト,0
1595,6120001046017,登記記録の閉鎖等,0,2023-10-17,2023-10-05,株式会社中村船燈製造所,,株式会社,大阪府,大阪市西区,境川２丁目５番２９号,,27,106,5500024,,,2023-10-05,清算の結了等,,,2015-10-05,1,,,,,ナカムラセントウセイゾウショ,0
1621,6140001031438,登記記録の閉鎖等,0,2023-10-17,2023-10-12,株式会社モト・アンド・アイコー,,株式会社,大阪府,大阪市天王寺区,清水谷町５番１６号,,27,109,5430011,,,2023-10-12,合併による解散等,9120001024399,令和５年１０月１日大阪市天王寺区清水谷町５番１６号株式会社ＴＫＸ（9120001024399）に合併し解散,2015-10-05,1,,,,,モトアンドアイコー,0
1628,6170001003582,登記記録の閉鎖等,0,2023-10-17,2023-10-12,レンタルハウス株式会社,,株式会社,和歌山県,和歌山市,吉田５７１番地,,30,201,6408343,,,2023-10-12,合併による解散等,7010001095222,令和５年１０月１日東京都千代田区丸の内一丁目８番１号丸の内トラストタワーＮ館Ａｐａｍａｎ　Ｐｒｏｐｅｒｔｙ株式会社（7010001095222）に合併し解散,2015-10-05,1,,,,,レンタルハウス,0
1633,6180001086528,登記記録の閉鎖等,0,2023-10-17,2023-10-10,株式会社リフォーム・ワーク,,株式会社,愛知県,一宮市,木曽川町門間字島海戸５０番地１サンリバービル２Ｆ,,23,203,4930002,,,2023-10-10,清算の結了等,,,2015-10-05,1,,,,,リフォームワーク,0
1641,6180003019634,登記記録の閉鎖等,0,2023-10-17,2023-10-03,合同会社姶良ソーラーパーク望月０５,,合同会社,東京都,港区,六本木３丁目２番１号,,13,103,1060032,,,2023-10-03,合併による解散等,3011001038942,令和５年１０月１日東京都港区六本木三丁目２番１号合同会社ＤＭＭ．ｃｏｍ（3011001038942）に合併し解散,2019-01-28,1,,,,,アイラソーラーパークモチズキゼロゴ,0
1649,6200001029013,登記記録の閉鎖等,0,2023-10-17,2023-10-11,株式会社サンエース美装,,株式会社,岐阜県,飛騨市,古川町新栄町６番２５号,,21,217,5094231,,,2023-10-11,清算の結了等,,,2015-10-05,1,,,,,サンエースビソウ,0
1658,6250001016337,登記記録の閉鎖等,0,2023-10-17,2023-10-12,ロハス農園株式会社,,株式会社,山口県,下関市,豊浦町大字川棚５１３９,,35,201,7596301,,,2023-10-12,清算の結了等,,,2016-12-26,1,,,,,,0
1681,6350002006137,登記記録の閉鎖等,0,2023-10-17,2023-10-06,有限会社ロニオン,,有限会社,宮崎県,宮崎市,生目台東１丁目２０番地１,,45,201,8800942,,,2023-10-06,清算の結了等,,,2015-10-05,1,,,,,ロニオン,0
1690,6380001012331,登記記録の閉鎖等,0,2023-10-17,2023-10-11,株式会社いわきトップガス,,株式会社,福島県,いわき市,泉町下川字八合５２番地,,07,204,9718183,,,2023-10-11,合併による解散等,2380001012987,令和５年１０月１日福島県いわき市常磐湯本町日渡７４番地の７常磐共同ガス株式会社（2380001012987）に合併し解散,2015-10-05,1,,,,,イワキトップガス,0
1695,6390001016166,登記記録の閉鎖等,0,2023-10-17,2023-10-06,リバノエンジニアリング株式会社,,株式会社,山形県,山形市,東青田５丁目８番２号アルテサーノ２０６,,06,201,9902423,,,2023-10-06,清算の結了等,,,2020-08-07,1,,,,,リバノエンジニアリング,0
1696,6400001005118,登記記録の閉鎖等,0,2023-10-17,2023-10-10,株式会社Ｍ＆Ｙエステート,,株式会社,兵庫県,姫路市,大津区大津町１丁目１６番地１大津ライフマンション３０５号,,28,201,6711146,,,2023-10-10,清算の結了等,,,2015-10-05,1,,,,,,0
1713,6500002013431,登記記録の閉鎖等,0,2023-10-17,2023-10-06,有限会社南予セレモニー,,有限会社,愛媛県,八幡浜市,松柏丙５１６番地,,38,204,7960010,,,2023-10-06,合併による解散等,8500001008315,令和５年１０月１日愛媛県八幡浜市松柏丙５１６番地株式会社サンリード（8500001008315）に合併し解散,2015-10-05,1,,,,,ナンヨセレモニー,0
1731,7010002028882,登記記録の閉鎖等,0,2023-10-17,2023-10-05,有限会社アンクス,,有限会社,東京都,中央区,銀座１丁目７番１６号,,13,102,1040061,,,2023-10-05,清算の結了等,,,2015-10-05,1,,,,,アンクス,0
1738,7010401070048,登記記録の閉鎖等,0,2023-10-17,2023-10-10,正栄企業株式会社,,株式会社,東京都,渋谷区,幡ヶ谷２丁目１７番７号,,13,113,1510072,,,2023-10-10,清算の結了等,,,2015-10-05,1,,,,,ショウエイキギョウ,0
1746,7010401161482,登記記録の閉鎖等,0,2023-10-17,2023-10-03,株式会社エース,,株式会社,東京都,港区,北青山２丁目７番２０号猪瀬ビル２Ｆ,,13,103,1070061,,,2023-10-03,清算の結了等,,,2021-07-14,1,,,,,エース,0
1794,7011503004950,登記記録の閉鎖等,0,2023-10-17,2023-09-26,インサイドアロー合同会社,,合同会社,東京都,北区,赤羽２丁目３９番１号,,13,117,1150045,,,2023-09-26,清算の結了等,,,2021-11-02,1,,,,,インサイドアロー,0
1802,7012401008119,登記記録の閉鎖等,0,2023-10-17,2023-10-12,株式会社タック,,株式会社,東京都,調布市,西つつじケ丘１丁目３４番地６,,13,208,1820006,,,2023-10-12,清算の結了等,,,2015-10-05,1,,,,,タック,0
1811,7020001092805,登記記録の閉鎖等,0,2023-10-17,2023-10-13,株式会社トラッド,,株式会社,東京都,大田区,大森北３丁目１８番１２号,,13,111,1430016,,,2023-10-13,合併による解散等,4010001085151,令和５年１０月１日東京都千代田区外神田三丁目７番２号山口証券印刷株式会社（4010001085151）に合併し解散,2015-10-05,1,,,,,トラッド,0
1852,7060002019472,登記記録の閉鎖等,0,2023-10-17,2023-10-10,有限会社荒川商運,,有限会社,栃木県,鹿沼市,下武子町１５２番地３４,,09,205,3220004,,,2023-10-10,清算の結了等,,,2015-10-05,1,,,,,アラカワショウウン,0
1855,7070001018722,登記記録の閉鎖等,0,2023-10-17,2023-10-12,株式会社猪越工務店,,株式会社,群馬県,邑楽郡邑楽町,大字赤堀２２５９番地,,10,525,3700614,,,2023-10-12,清算の結了等,,,2015-10-05,1,,,,,イノコシコウムテン,0
1860,7080101013795,登記記録の閉鎖等,0,2023-10-17,2023-10-12,株式会社茗荷屋商店,,株式会社,静岡県,伊東市,湯川２丁目１０番２２号,,22,208,4140002,,,2023-10-12,清算の結了等,,,2015-10-05,1,,,,,ミョウガヤショウテン,0
1863,7080403003081,登記記録の閉鎖等,0,2023-10-17,2023-10-13,合同会社ＴＩＧＲＩＴＯ　ｉｎｔｅｒｎａｔｉｏｎａｌ,,合同会社,静岡県,浜松市南区,石原町６５７番地,,22,134,4350033,,,2023-10-13,清算の結了等,,,2015-10-05,1,,,,,ティグリットインターナショナル,0
1871,7110001033460,登記記録の閉鎖等,0,2023-10-17,2023-10-13,株式会社エス・ケイ・アール,,株式会社,新潟県,新潟市北区,松浜みなと４２番３４号,,15,101,9503127,,,2023-10-13,清算の結了等,,,2018-08-13,1,,,,,エスケイアール,0
1916,7140002034240,登記記録の閉鎖等,0,2023-10-17,2023-10-11,有田農産有限会社,,有限会社,兵庫県,赤穂市,大津１７６５番地,,28,212,6780252,,,2023-10-11,清算の結了等,,,2015-10-05,1,,,,,アリタノウサン,0
1917,7140002061284,登記記録の閉鎖等,0,2023-10-17,2023-10-11,有限会社三木千代,,有限会社,兵庫県,加東市,新町２８番地,,28,228,6790204,,,2023-10-11,清算の結了等,,,2015-10-05,1,,,,,ミキチヨ,0
1936,7180003019633,登記記録の閉鎖等,0,2023-10-17,2023-10-03,合同会社姶良ソーラーパーク望月０４,,合同会社,東京都,港区,六本木３丁目２番１号,,13,103,1060032,,,2023-10-03,合併による解散等,3011001038942,令和５年１０月１日東京都港区六本木三丁目２番１号合同会社ＤＭＭ．ｃｏｍ（3011001038942）に合併し解散,2019-01-28,1,,,,,アイラソーラーパークモチズキゼロヨン,0
1944,7190001023677,登記記録の閉鎖等,0,2023-10-17,2023-10-03,株式会社ＫＳカンパニー,,株式会社,三重県,伊勢市,河崎２丁目１６番６号,,24,203,5160009,,,2023-10-03,合併による解散等,7190001006649,令和５年１０月１日三重県伊勢市河崎二丁目１６番６号坂倉産業株式会社（7190001006649）に合併し解散,2016-05-18,1,,,,,ケイエスカンパニー,0
1947,7200001023254,登記記録の閉鎖等,0,2023-10-17,2023-10-02,株式会社アルティー,,株式会社,岐阜県,中津川市,苗木４５８６番地の５０,,21,206,5080101,,,2023-10-02,合併による解散等,4200001023554,令和５年１０月１日岐阜県中津川市苗木４５８６番地の５０丸山木材ホールディングス株式会社（4200001023554）に合併し解散,2015-10-05,1,,,,,アルティー,0
1950,7210001003908,登記記録の閉鎖等,0,2023-10-17,2023-10-12,松村幸建設株式会社,,株式会社,福井県,福井市,栗森２丁目７２２番地,,18,201,9100137,,,2023-10-12,清算の結了等,,,2015-10-05,1,,,,,マツムラコウケンセツ,0
1962,7250002017052,登記記録の閉鎖等,0,2023-10-17,2023-10-13,有限会社ニコニコドラツグ,,有限会社,山口県,光市,島田１丁目１６番１１号,,35,210,7430063,,,2023-10-13,清算の結了等,,,2015-10-05,1,,,,,ニコニコドラッグ,0
1992,7370802001796,登記記録の閉鎖等,0,2023-10-17,2023-10-11,有限会社むつみ観光,,有限会社,宮城県,名取市,下増田字土手東１番地の１,,04,207,9811201,,,2023-10-11,清算の結了等,,,2015-10-05,1,,,,,ムツミカンコウ,0
1994,7380001010367,登記記録の閉鎖等,0,2023-10-17,2023-10-10,西郷観光株式会社,,株式会社,福島県,西白河郡西郷村,大字真船字村火１,,07,461,9618071,,,2023-10-10,清算の結了等,,,2015-10-05,1,,,,,ニシゴウカンコウ,0
1997,7400001005273,登記記録の閉鎖等,0,2023-10-17,2023-10-04,株式会社北日本農研,,株式会社,岩手県,花巻市,二枚橋町南１丁目４７番地４,,03,205,0250315,,,2023-10-04,清算の結了等,,,2015-10-05,1,,,,,キタニホンノウケン,0
2003,7410001004191,登記記録の閉鎖等,0,2023-10-17,2023-10-06,株式会社こうしん,,株式会社,秋田県,男鹿市,脇本脇本字飯ノ町３番地１,,05,206,0100342,,,2023-10-06,合併による解散等,1410002011135,令和５年９月３０日秋田県山本郡三種町鯉川字内鯉川１０８番地４株式会社せきれい（1410002011135）に合併し解散,2015-10-05,1,,,,,コウシン,0
2004,7420001007895,登記記録の閉鎖等,0,2023-10-17,2023-10-10,八戸圧送株式会社,,株式会社,青森県,八戸市,大字櫛引字古坂１３番地３,00087331,02,203,0391107,,,2023-10-10,清算の結了等,,,2015-10-05,1,,,,,ハチノヘアッソウ,0
2019,8010001191012,登記記録の閉鎖等,0,2023-10-17,2023-10-04,株式会社カトラス,,株式会社,東京都,中央区,銀座７丁目１３番６号サガミビル２階,,13,102,1040061,,,2023-10-04,清算の結了等,,,2018-04-13,1,,,,,カトラス,0
2036,8010402034224,登記記録の閉鎖等,0,2023-10-17,2023-10-10,株式会社カルティナ,,株式会社,東京都,世田谷区,宇奈根３丁目１２番６号,,13,112,1570068,,,2023-10-10,清算の結了等,,,2015-10-05,1,,,,,カルティナ,0
2039,8010405020155,登記記録の閉鎖等,0,2023-10-17,2023-10-03,Ｋｕｔｃｈａｎ　Ｉｎｖｅｓｔｍｅｎｔ一般社団法人,,その他の設立登記法人,東京都,港区,六本木１丁目６番１号泉ガーデンタワーＫＰＭＧ税理士法人内,,13,103,1060032,,,2023-10-03,清算の結了等,,,2021-08-27,1,,,,,クッチャンインベストメント,0
2056,8011101060461,登記記録の閉鎖等,0,2023-10-17,2023-10-04,株式会社Ｈ・Ｓ,,株式会社,東京都,中野区,弥生町１丁目３９番１－３０１号,,13,114,1640013,,,2023-10-04,清算の結了等,,,2015-10-05,1,,,,,エイチエス,0
2062,8011103010919,登記記録の閉鎖等,0,2023-10-17,2023-10-12,合同会社ＰｕｎｙＵ　Ｍａｎａｇｅｍｅｎｔ,,合同会社,東京都,新宿区,百人町２丁目２６番９号９０１,,13,104,1690073,,,2023-10-12,清算の結了等,,,2021-08-06,1,,,,,プニュマネジメント,0
2064,8011201023021,登記記録の閉鎖等,0,2023-10-17,2023-10-12,株式会社イクシアス,,株式会社,東京都,中野区,本町３丁目３１番１１号,,13,114,1640012,,,2023-10-12,合併による解散等,4012401031387,令和５年１０月１日東京都中央区新川２－２２－１いちご新川ビル５Ｆ株式会社ハイブリッドテクノロジーズ（4012401031387）に合併し解散,2021-06-01,1,,,,,イクシアス,0
2069,8011503004529,登記記録の閉鎖等,0,2023-10-17,2023-09-26,寿システムズ合同会社,,合同会社,東京都,北区,王子５丁目２番６－３４３号,,13,117,1140002,,,2023-09-26,清算の結了等,,,2020-10-01,1,,,,,コトブキシステムズ,0
2120,8030002018955,登記記録の閉鎖等,0,2023-10-17,2023-09-28,有限会社楠木工房,,有限会社,埼玉県,さいたま市浦和区,仲町２丁目１９番２４号,,11,107,3300062,,,2023-09-28,清算の結了等,,,2015-10-05,1,,,,,クスノキコウボウ,0
2121,8030002039332,登記記録の閉鎖等,0,2023-10-17,2023-10-02,有限会社金田屋,,有限会社,埼玉県,久喜市,栗橋北１丁目１７番３３号,,11,232,3491101,,,2023-10-02,清算の結了等,,,2015-10-05,1,,,,,カネダヤ,0
2123,8030003020547,登記記録の閉鎖等,0,2023-10-17,2023-09-20,イシナリ工務店合同会社,,合同会社,埼玉県,草加市,青柳７丁目１８番６号,,11,221,3400002,,,2023-09-20,清算の結了等,,,2022-11-10,1,,,,,イシナリコウムテン,0
2128,8040001077464,登記記録の閉鎖等,0,2023-10-17,2023-10-02,アイ・プランニング株式会社,,株式会社,千葉県,木更津市,朝日３丁目１番１５－２０６,,12,206,2920055,,,2023-10-02,清算の結了等,,,2015-10-05,1,,,,,アイプランニング,0
2135,8040005003474,登記記録の閉鎖等,0,2023-10-17,2023-09-29,八千代市薬業協同組合,,その他の設立登記法人,千葉県,八千代市,大和田新田４７７番地の１４５,,12,221,2760046,,,2023-09-29,清算の結了等,,,2015-10-05,1,,,,,ヤチヨシヤクギョウ,0
2147,8080002005511,登記記録の閉鎖等,0,2023-10-17,2023-10-13,有限会社マルエム・マルマン,,有限会社,静岡県,静岡市駿河区,南町４番４０号,,22,102,4228067,,,2023-10-13,清算の結了等,,,2015-10-05,1,,,,,マルエムマルマン,0
2172,8120102021569,登記記録の閉鎖等,0,2023-10-17,2023-10-13,有限会社ベル,,有限会社,大阪府,岸和田市,土生町２丁目３２番６号トークタウン２階,,27,202,5960825,,,2023-10-13,清算の結了等,,,2015-10-05,1,,,,,ベル,0
2180,8130001062259,登記記録の閉鎖等,0,2023-10-17,2023-10-02,株式会社寺子屋東日本,,株式会社,京都府,京都市右京区,西京極豆田町７番地,,26,108,6150801,,,2023-10-02,合併による解散等,2130001001379,令和５年１０月１日京都市右京区西京極豆田町７番地株式会社寺子屋（2130001001379）に合併し解散,2018-06-08,1,,,,,テラコヤヒガシニホン,0
2186,8140002005918,登記記録の閉鎖等,0,2023-10-17,2023-10-12,有限会社功徳不動産,,有限会社,兵庫県,神戸市垂水区,舞子台５丁目６番１６号,,28,108,6550046,,,2023-10-12,清算の結了等,,,2015-10-05,1,,,,,コウトクフドウサン,0
2197,8180003019632,登記記録の閉鎖等,0,2023-10-17,2023-10-03,合同会社姶良ソーラーパーク望月０３,,合同会社,東京都,港区,六本木３丁目２番１号,,13,103,1060032,,,2023-10-03,合併による解散等,3011001038942,令和５年１０月１日東京都港区六本木三丁目２番１号合同会社ＤＭＭ．ｃｏｍ（3011001038942）に合併し解散,2019-01-28,1,,,,,アイラソーラーパークモチズキゼロサン,0
2204,8200001032320,登記記録の閉鎖等,0,2023-10-17,2023-10-12,エコウェル株式会社,,株式会社,岐阜県,揖斐郡大野町,大字本庄３３３番地１,,21,403,5010533,,,2023-10-12,清算の結了等,,,2015-11-30,1,,,,,エコウェル,0
2206,8210005005701,登記記録の閉鎖等,0,2023-10-17,2023-10-06,佛照寺,,その他の設立登記法人,福井県,大野市,蓑道２４号１５番地,,18,205,9120142,,,2023-10-06,清算の結了等,,,2015-10-05,1,,,,,ブッショウジ,0
2212,8240001038859,登記記録の閉鎖等,0,2023-10-17,2023-10-16,株式会社上総産業,,株式会社,広島県,三原市,宮沖１丁目８番８号,,34,204,7230016,,,2023-10-16,清算の結了等,,,2015-10-05,1,,,,,カズササンギョウ,0
2214,8240002003663,登記記録の閉鎖等,0,2023-10-17,2023-10-12,有限会社カイナ,,有限会社,広島県,広島市中区,大手町３丁目３番６－４０２号,,34,101,7300051,,,2023-10-12,清算の結了等,,,2015-10-05,1,,,,,カイナ,0
2218,8250002013926,登記記録の閉鎖等,0,2023-10-17,2023-10-10,有限会社枕水館,,有限会社,山口県,長門市,深川湯本２２７０番地,,35,211,7594103,,,2023-10-10,清算の結了等,,,2015-10-05,1,,,,,,0
2225,8290001012099,登記記録の閉鎖等,0,2023-10-17,2023-10-02,株式会社オガタ,,株式会社,福岡県,糟屋郡篠栗町,津波黒１丁目１２番３１号,,40,342,8112415,,,2023-10-02,清算の結了等,,,2015-10-05,1,,,,,オガタ,0
2226,8290001035257,登記記録の閉鎖等,0,2023-10-17,2023-10-02,株式会社ＡＧシステム,,株式会社,福岡県,福岡市城南区,南片江４丁目２２番１０号,,40,136,8140143,,,2023-10-02,合併による解散等,2290001031518,令和５年１０月１日福岡市南区桧原七丁目２１番６号株式会社オリハ（2290001031518）に合併し解散,2015-10-05,1,,,,,エージーシステム,0
2227,8290001066913,登記記録の閉鎖等,0,2023-10-17,2023-10-02,大野型枠管理株式会社,,株式会社,福岡県,糟屋郡久山町,大字久原２２３１番地４,,40,348,8112501,,,2023-10-02,合併による解散等,8290001005053,令和５年１０月１日福岡市西区大字吉武６１番地１大野コンクリート株式会社（8290001005053）に合併し解散,2015-10-05,1,,,,,オオノカタワクカンリ,0
2234,8290802012033,登記記録の閉鎖等,0,2023-10-17,2023-10-16,有限会社松伸工業,,有限会社,福岡県,北九州市門司区,寺内４丁目７番５号,,40,101,8000015,,,2023-10-16,清算の結了等,,,2015-10-05,1,,,,,ショウシンコウギョウ,0
2235,8310002017664,登記記録の閉鎖等,0,2023-10-17,2023-10-11,弥勒建設有限会社,,有限会社,長崎県,大村市,植松３丁目１３２番地２,,42,205,8560027,,,2023-10-11,清算の結了等,,,2015-10-05,1,,,,,ミロクケンセツ,0
2257,8390001006149,登記記録の閉鎖等,0,2023-10-17,2023-10-06,株式会社管理システムコーポレーション,,株式会社,山形県,酒田市,京田２丁目６９番８号,,06,204,9980102,,,2023-10-06,合併による解散等,7390001007412,令和５年１０月１日山形県酒田市京田二丁目６９番８号株式会社管理システム（7390001007412）に合併し解散,2015-10-05,1,,,,,カンリシステムコーポレーション,0
2281,8500002011697,登記記録の閉鎖等,0,2023-10-17,2023-10-06,有限会社サンリードプラザ,,有限会社,愛媛県,大洲市,北只１２０２番地,,38,207,7950001,,,2023-10-06,合併による解散等,8500001008315,令和５年１０月１日愛媛県八幡浜市松柏丙５１６番地株式会社サンリード（8500001008315）に合併し解散,2015-10-05,1,,,,,サンリードプラザ,0
2295,9010002030309,登記記録の閉鎖等,0,2023-10-17,2023-10-04,有限会社セールスプロモーション研究所,,有限会社,東京都,千代田区,二番町１番地,,13,101,1020084,,,2023-10-04,清算の結了等,,,2015-10-05,1,,,,,セールスプロモーションケンキュウジョ,0
2311,9010403016385,登記記録の閉鎖等,0,2023-10-17,2023-10-02,ホームランソーラーパーク合同会社,,合同会社,東京都,港区,六本木３丁目１５番５号,,13,103,1060032,,,2023-10-02,清算の結了等,,,2017-04-11,1,,,,,ホームランソーラーパーク,0
2320,9010601048858,登記記録の閉鎖等,0,2023-10-17,2023-10-05,株式会社ＤＳＢソーシング,,株式会社,東京都,江東区,潮見２丁目９番１５号,,13,108,1350052,,,2023-10-05,清算の結了等,,,2015-12-03,1,,,,,ディーエスビーソーシング,0
2325,9010901045893,登記記録の閉鎖等,0,2023-10-17,2023-10-05,株式会社アットリーベル,,株式会社,東京都,中央区,銀座１丁目２２－１１,,13,102,1040061,,,2023-10-05,清算の結了等,,,2020-03-16,1,,,,,アットリーベル,0
2336,9011203002658,登記記録の閉鎖等,0,2023-10-17,2023-10-12,シュークリームトウキョウ合同会社,,合同会社,東京都,新宿区,新宿２丁目１２番１３号新宿アントレサロンビル２階,,13,104,1600022,,,2023-10-12,清算の結了等,,,2017-11-10,1,,,,,シュークリームトウキョウ,0
2337,9011502001385,登記記録の閉鎖等,0,2023-10-17,2023-10-05,有限会社鍵屋本舗,,有限会社,東京都,北区,赤羽１丁目１９番１３号,,13,117,1150045,,,2023-10-05,清算の結了等,,,2015-10-05,1,,,,,カギヤホンポ,0
2338,9011602006508,登記記録の閉鎖等,0,2023-10-17,2023-10-12,タナカ薬局有限会社,,有限会社,東京都,練馬区,東大泉５丁目４１番２６号光陽ビル１階,,13,120,1780063,,,2023-10-12,清算の結了等,,,2015-10-05,1,,,,,タナカヤッキョク,0
2350,9013301021085,登記記録の閉鎖等,0,2023-10-17,2023-09-29,三っ葉運輸株式会社,,株式会社,埼玉県,新座市,野火止４丁目１９番３６号,,11,230,3520011,,,2023-09-29,清算の結了等,,,2015-10-05,1,,,,,ミツバウンユ,0
2355,9020001053185,登記記録の閉鎖等,0,2023-10-17,2023-10-12,マグナ・シュタイヤー・ジャパン株式会社,,株式会社,神奈川県,横浜市港北区,新横浜３丁目１９－５新横浜第二センタービル７Ｆ,,14,109,2220033,,,2023-10-12,合併による解散等,7010001102894,令和５年１０月１日東京都中央区日本橋二丁目３番４号日本橋プラザビル６階マグナ・インターナショナル・ジャパン株式会社（7010001102894）に合併し解散,2015-10-05,1,,,,,マグナシュタイヤージャパン,0
2359,9020002081350,登記記録の閉鎖等,0,2023-10-17,2023-10-11,有限会社雅,,有限会社,東京都,大田区,大森北３丁目３４番１６号,,13,111,1430016,,,2023-10-11,清算の結了等,,,2015-10-05,1,,,,,ミヤビ,0
2362,9021001004418,登記記録の閉鎖等,0,2023-10-17,2023-10-11,株式会社中央運輸,,株式会社,神奈川県,厚木市,下川入２３７番地７,,14,212,2430206,,,2023-10-11,合併による解散等,3120001221456,令和５年１０月１日大阪市北区梅田三丁目４番５号毎日インテシオ１３階ファイズトランスポートサービス株式会社（3120001221456）に合併し解散,2015-10-05,1,,,,,,0
2380,9030002097008,登記記録の閉鎖等,0,2023-10-17,2023-10-02,有限会社ラスカル,,有限会社,埼玉県,東松山市,大字宮鼻９３６番地,,11,212,3550045,,,2023-10-02,清算の結了等,,,2015-10-05,1,,,,,ラスカル,0
2383,9040001026874,登記記録の閉鎖等,0,2023-10-17,2023-09-29,株式会社千葉水道工務店,,株式会社,千葉県,市川市,南八幡４丁目４番１７号,,12,203,2720023,,,2023-09-29,清算の結了等,,,2015-10-05,1,,,,,チバスイドウコウムテン,0
2393,9050002010777,登記記録の閉鎖等,0,2023-10-17,2023-10-06,有限会社鹿角味季,,有限会社,茨城県,笠間市,押辺２７２９番地４８,,08,216,3190205,,,2023-10-06,清算の結了等,,,2015-10-05,1,,,,,カズノアジキ,0
2408,9080101011384,登記記録の閉鎖等,0,2023-10-17,2023-10-12,共栄紙業株式会社,,株式会社,静岡県,富士宮市,黒田２９７番地の２５,,22,207,4180034,,,2023-10-12,清算の結了等,,,2015-10-05,1,,,,,キョウエイシギョウ,0
2410,9080101018636,登記記録の閉鎖等,0,2023-10-17,2023-10-10,株式会社ＳＫＹエンジ,,株式会社,静岡県,沼津市,平沼９７９番地の２,,22,203,4100318,,,2023-10-10,清算の結了等,,,2015-10-05,1,,,,,スカイエンジ,0
2417,9110002001704,登記記録の閉鎖等,0,2023-10-17,2023-10-13,有限会社カナディアン・オクダ,,有限会社,新潟県,新潟市西区,五十嵐３の町東９番２号,,15,107,9502173,,,2023-10-13,清算の結了等,,,2015-10-05,1,,,,,カナディアンオクダ,0
2418,9110005002856,登記記録の閉鎖等,0,2023-10-17,2023-10-13,特定非営利活動法人ワーキングウイメンズアソシエーション,,その他の設立登記法人,新潟県,新潟市西区,平島１丁目１６番地５,,15,107,9502004,,,2023-10-13,清算の結了等,,,2015-10-05,1,,,,,ワーキングウイメンズアソシエーション,0
2428,9120003013359,登記記録の閉鎖等,0,2023-10-17,2023-10-04,合同会社大都翔会,,合同会社,大阪府,大阪市福島区,福島４丁目３番２３－３５０５号,,27,103,5530003,,,2023-10-04,清算の結了等,,,2017-10-02,1,,,,,ダイトショウカイ,0
2429,9120003019125,登記記録の閉鎖等,0,2023-10-17,2023-10-04,合同会社Ｍｃｏｎｎｅｃｔ,,合同会社,大阪府,大阪市北区,角田町８－４７阪急グランドビル２０階,,27,127,5300017,,,2023-10-04,清算の結了等,,,2021-03-26,1,,,,,エムコネクト,0
2432,9120102022277,登記記録の閉鎖等,0,2023-10-17,2023-10-16,有限会社丸義運送,,有限会社,大阪府,貝塚市,三ツ松２２９５番地の４,,27,208,5970105,,,2023-10-16,清算の結了等,,,2015-10-05,1,,,,,,0
2436,9122005002645,登記記録の閉鎖等,0,2023-10-17,2023-10-10,関西花き事業協同組合,,その他の設立登記法人,大阪府,八尾市,神立４丁目６９番地,,27,212,5810855,,,2023-10-10,清算の結了等,,,2015-10-05,1,,,,,カンサイカキ,0
2437,9130001024332,登記記録の閉鎖等,0,2023-10-17,2023-10-05,株式会社ピイーカブ,,株式会社,京都府,京都市西京区,樫原水築町１６番地の６,,26,111,6158184,,,2023-10-05,清算の結了等,,,2015-10-05,1,,,,,ピイーカブ,0
2438,9130001062258,登記記録の閉鎖等,0,2023-10-17,2023-10-02,株式会社寺子屋関西,,株式会社,京都府,京都市右京区,西京極豆田町７番地,,26,108,6150801,,,2023-10-02,合併による解散等,2130001001379,令和５年１０月１日京都市右京区西京極豆田町７番地株式会社寺子屋（2130001001379）に合併し解散,2018-06-08,1,,,,,テラコヤカンサイ,0
2448,9170002002176,登記記録の閉鎖等,0,2023-10-17,2023-10-13,園部土地開発有限会社,,有限会社,和歌山県,和歌山市,園部９２８番地,,30,201,6408483,,,2023-10-13,清算の結了等,,,2015-10-05,1,,,,,ソノベトチカイハツ,0
2458,9180302006025,登記記録の閉鎖等,0,2023-10-17,2023-10-06,有限会社ライフサポート,,有限会社,愛知県,豊橋市,東小鷹野３丁目１０番地の２９,,23,201,4400012,,,2023-10-06,清算の結了等,,,2015-10-05,1,,,,,ライフサポート,0
2469,9220002006130,登記記録の閉鎖等,0,2023-10-17,2023-10-13,有限会社ユーアイ・ホーム,,有限会社,石川県,金沢市,出雲町イ３２８番地１,,17,201,9200056,,,2023-10-13,清算の結了等,,,2015-10-05,1,,,,,,0
2473,9240002022167,登記記録の閉鎖等,0,2023-10-17,2023-10-12,有限会社ＦＣＡ,,有限会社,広島県,広島市中区,河原町１２番６－１１０１号,,34,101,7300856,,,2023-10-12,清算の結了等,,,2015-10-05,1,,,,,エフシーエー,0
2478,9250002014064,登記記録の閉鎖等,0,2023-10-17,2023-10-10,有限会社ウエーブ,,有限会社,山口県,長門市,東深川８０３番地の８,,35,211,7594101,,,2023-10-10,清算の結了等,,,2015-10-05,1,,,,,ウエーブ,0
2480,9260001014873,登記記録の閉鎖等,0,2023-10-17,2023-10-13,水アセ株式会社,,株式会社,岡山県,倉敷市,児島宇野津２０３０番地２９,,33,202,7110935,,,2023-10-13,合併による解散等,3240001026182,令和５年１０月１日広島市中区上幟町７番３号中国酸素株式会社（3240001026182）に合併し解散,2015-10-05,1,,,,,ミズアセ,0
2503,9330002013512,登記記録の閉鎖等,0,2023-10-17,2023-10-05,アウト・トリップ熊本有限会社,,有限会社,熊本県,熊本市南区,護藤町２６５７番地,,43,104,8614117,,,2023-10-05,清算の結了等,,,2015-10-05,1,,,,,アウトトリップクマモト,0
2504,9340002015292,登記記録の閉鎖等,0,2023-10-17,2023-10-06,薩摩塩業有限会社,00099268,有限会社,鹿児島県,霧島市,国分広瀬３丁目６番５８号,,46,218,8994321,,,2023-10-06,合併による解散等,8340002013371,令和５年１０月１日鹿児島県霧島市国分広瀬三丁目６番５８号株式会社赤塚直右衛門商店（8340002013371）に合併し解散,2015-10-05,1,,,,,サツマエンギョウ,0
2510,9360001019219,登記記録の閉鎖等,0,2023-10-17,2023-10-04,くにさき産機システムズ株式会社,,株式会社,東京都,千代田区,二番町７番地１の１１Ｆ,,13,101,1020084,,,2023-10-04,清算の結了等,,,2015-10-05,1,,,,,クニサキサンキシステムズ,0
2523,9370401000462,登記記録の閉鎖等,0,2023-10-17,2023-10-10,株式会社コンストラクト・アベ,,株式会社,宮城県,登米市,迫町北方字日向前１３９番地５,,04,212,9870513,,,2023-10-10,清算の結了等,,,2015-10-05,1,,,,,コンストラクトアベ,0
2526,9370402002185,登記記録の閉鎖等,0,2023-10-17,2023-10-11,有限会社ミリオン薬局,,有限会社,宮城県,登米市,迫町佐沼字小金丁４９番地１,,04,212,9870511,,,2023-10-11,合併による解散等,7430001069398,令和５年１０月１日札幌市白石区東札幌五条二丁目４番３０号株式会社アインファーマシーズ（7430001069398）に合併し解散,2015-10-05,1,,,,,,0
2528,9390002012681,登記記録の閉鎖等,0,2023-10-17,2023-10-13,有限会社大浦企画,,有限会社,山形県,米沢市,中田町５１６番地,,06,202,9920011,,,2023-10-13,清算の結了等,,,2015-10-05,1,,,,,オオウラキカク,0
2543,9430002011506,登記記録の閉鎖等,0,2023-10-17,2023-10-02,有限会社第五商事,,有限会社,北海道,札幌市北区,北三十八条西２丁目２番１７号,,01,102,0010038,,,2023-10-02,清算の結了等,,,2015-10-05,1,,,,,ダイゴショウジ,0
2551,9500002020136,登記記録の閉鎖等,0,2023-10-17,2023-10-13,有限会社村上水産,,有限会社,愛媛県,今治市,伯方町木浦甲４５１０番地,,38,202,7942305,,,2023-10-13,清算の結了等,,,2015-10-05,1,,,,,ムラカミスイサン,0
