sequenceNumber,corporateNumber,process,correct,updateDate,changeDate,name,nameImageId,kind,prefectureName,cityName,streetNumber,addressImageId,prefectureCode,cityCode,postCode,addressOutside,addressOutsideImageId,closeDate,closeCause,successorCorporateNumber,changeCause,assignmentDate,latest,enName,enPrefectureName,enCityName,enAddressOutside,furigana,hihyoji
7,1010001262661,新規,0,2026-02-13,2026-02-13,株式会社ＳＨＡＲＯＮＡ,,株式会社,東京都,中央区,銀座１丁目１２番４号Ｎ＆ＥＢＬＤ．６Ｆ,,13,102,1040061,,,,,,,2026-02-13,1,,,,,シャロナ,0
9,1010003050321,新規,0,2026-02-13,2026-02-13,合同会社アイドリング,,合同会社,東京都,千代田区,神田須田町２丁目１９－２３ＤＡＩＷＡ秋葉原ビル２Ｆ,,13,101,1010041,,,,,,,2026-02-13,1,,,,,アイドリング,0
10,1010003050338,新規,0,2026-02-13,2026-02-13,合同会社Ｚｅｒｏｓｈｏｔ,,合同会社,東京都,中央区,銀座１丁目１２番４号Ｎ＆ＥＢＬＤ．６Ｆ,,13,102,1040061,,,,,,,2026-02-13,1,,,,,ゼロショット,0
12,1010005041368,新規,0,2026-02-13,2026-02-13,一般社団法人部分矯正歯科学会,,その他の設立登記法人,東京都,中央区,銀座１丁目１２番４号Ｎ＆ＥＢＬＤ．６Ｆ,,13,102,1040061,,,,,,,2026-02-13,1,,,,,ブブンキョウセイシカガッカイ,0
13,1010005041384,新規,0,2026-02-13,2026-02-13,協和行政書士法人,,その他の設立登記法人,東京都,千代田区,神田神保町３丁目２３番２号,,13,101,1010051,,,,,,,2026-02-13,1,,,,,キョウワ,0
17,1010401196369,新規,0,2026-02-13,2026-02-13,ハプロ株式会社,,株式会社,東京都,港区,西麻布２丁目６－４マインコート西麻布１０３,,13,103,1060031,,,,,,,2026-02-13,1,,,,,ハプロ,0
18,1010403037298,新規,0,2026-02-13,2026-02-13,合同会社まんまる,,合同会社,東京都,港区,北青山１丁目３番１号アールキューブ青山３階,,13,103,1070061,,,,,,,2026-02-13,1,,,,,マンマル,0
19,1010403037315,新規,0,2026-02-13,2026-02-13,合同会社ＮＯＶＵＳ　ＬＡＢ,,合同会社,東京都,港区,南青山３丁目１番３６号青山丸竹ビル６Ｆ,,13,103,1070062,,,,,,,2026-02-13,1,,,,,ノウスラボ,0
28,1010901058960,新規,0,2026-02-13,2026-02-13,Ｃ＆Ｍ　Ｐｒｏｐｅｒｔｉｅｓ株式会社,,株式会社,東京都,世田谷区,代沢３丁目１番２号,,13,112,1550032,,,,,,,2026-02-13,1,,,,,シーアンドエムプロパティーズ,0
30,1010903010622,新規,0,2026-02-13,2026-02-13,合同会社Ｆｕｅｎ,,合同会社,東京都,世田谷区,粕谷４丁目８番１０号粕谷ハウス２Ｂ,,13,112,1570063,,,,,,,2026-02-13,1,,,,,フーン,0
38,1011001175399,新規,0,2026-02-13,2026-02-13,Ｎｐｍ株式会社,,株式会社,東京都,渋谷区,恵比寿西２丁目８番４号ＥＸ恵比寿西ビル５階,,13,113,1500021,,,,,,,2026-02-13,1,,,,,エヌピーエム,0
39,1011001175432,新規,0,2026-02-13,2026-02-13,株式会社Ｔ．Ｃｏｎｔｅｎｔｓ,,株式会社,東京都,目黒区,東が丘２丁目１４番１２号,,13,110,1520021,,,,,,,2026-02-13,1,,,,,ティーコンテンツ,0
40,1011001175449,新規,0,2026-02-13,2026-02-13,Ｋａｋｅｒｕ　Ｆｕｎｄ株式会社,,株式会社,東京都,渋谷区,神南１丁目６番３号パシフィックマークス渋谷公園通４階,,13,113,1500041,,,,,,,2026-02-13,1,,,,,カケルファンド,0
43,1011003023531,新規,0,2026-02-13,2026-02-13,青山・情報システムアーキテクト研究所合同会社,,合同会社,東京都,渋谷区,東１丁目１３番８号,,13,113,1500011,,,,,,,2026-02-13,1,,,,,アオヤマジョウホウシステムアーキテクトケンキュウジョ,0
44,1011003023556,新規,0,2026-02-13,2026-02-13,合同会社観音寺ＰＣ,,合同会社,東京都,渋谷区,千駄ヶ谷４丁目２５番２号株式会社フジタ内,,13,113,1510051,,,,,,,2026-02-13,1,,,,,カンオンジピーシー,0
59,1011101114744,新規,0,2026-02-13,2026-02-13,株式会社Ｉｒｉｅ,,株式会社,東京都,新宿区,歌舞伎町２丁目３０番２号第五本間ビル２ＦＣ号室,,13,104,1600021,,,,,,,2026-02-13,1,,,,,アイリエ,0
60,1011101114967,新規,0,2026-02-13,2026-02-13,株式会社ＬＵＬＵ,,株式会社,東京都,新宿区,西新宿３丁目３番１３号西新宿水間ビル６階,,13,104,1600023,,,,,,,2026-02-13,1,,,,,ルル,0
64,1011103016988,新規,0,2026-02-13,2026-02-13,合同会社ＳＰＶ１９,,合同会社,東京都,新宿区,富久町８番２６号東京ユナイテッド綜合事務所内,,13,104,1620067,,,,,,,2026-02-13,1,,,,,エスピーブイジュウキュウ,0
65,1011103017078,新規,0,2026-02-13,2026-02-13,ソーラーブリッツ１号合同会社,,合同会社,東京都,新宿区,富久町８番２６号東京ユナイテッド綜合事務所内,,13,104,1620067,,,,,,,2026-02-13,1,,,,,ソーラーブリッツイチゴウ,0
66,1011201026963,新規,0,2026-02-13,2026-02-13,株式会社Ｅｐｉｓｏｄｅ３１,,株式会社,東京都,中野区,新井２丁目８番７号,,13,114,1650026,,,,,,,2026-02-13,1,,,,,エピソードサーティワン,0
67,1011303005865,新規,0,2026-02-13,2026-02-13,ソーラーコスモ合同会社,,合同会社,東京都,杉並区,清水１丁目１２番２号,,13,115,1670033,,,,,,,2026-02-13,1,,,,,ソーラーコスモ,0
71,1011701029169,新規,0,2026-02-13,2026-02-13,株式会社Ｓ．Ｔ．Ｓ,,株式会社,東京都,江戸川区,北小岩１丁目１９番１７－１４０１号,,13,123,1330051,,,,,,,2026-02-13,1,,,,,エスティーエス,0
75,1013301055743,新規,0,2026-02-13,2026-02-13,ＥＬ　ＬＯＣＯ　ＮＵＴＲＩＴＩＯＮ株式会社,,株式会社,東京都,豊島区,千早３丁目２９－１１ボヌールＭＫ１０１,,13,116,1710044,,,,,,,2026-02-13,1,,,,,エルロコニュートリション,0
76,1013303008055,新規,0,2026-02-13,2026-02-13,合同会社ＮＡ　ＡＳＣＥＮＴ,,合同会社,東京都,豊島区,南大塚１丁目４２番７号ＴＯＰＭＡＮＳＩＯＮ南大塚第５－５０３号,,13,116,1700005,,,,,,,2026-02-13,1,,,,,ナアセント,0
81,1020001167018,新規,0,2026-02-13,2026-02-13,株式会社第三東,,株式会社,神奈川県,横浜市戸塚区,戸塚町１８７３番地１７,,14,110,2440003,,,,,,,2026-02-13,1,,,,,ダイサンヒガシ,0
82,1020001167083,新規,0,2026-02-13,2026-02-13,株式会社ｅＮ,,株式会社,神奈川県,川崎市川崎区,小川町７番地４アービラ川崎３０６,,14,131,2100023,,,,,,,2026-02-13,1,,,,,エン,0
83,1020001167091,新規,0,2026-02-13,2026-02-13,Ｃｉｒｃｌｅ　ｆｏｒ　Ｐｌｕｓ株式会社,,株式会社,神奈川県,横浜市中区,山手町２５３番地１グランドメゾンＴｈｅ山手２５３Ｇａｒｄｅｎ１０４,,14,104,2310862,,,,,,,2026-02-13,1,,,,,サークルフォープラス,0
84,1020001167141,新規,0,2026-02-13,2026-02-13,株式会社ＦｏｏｄｓＴｒｕｎｋ,,株式会社,神奈川県,川崎市高津区,下作延７丁目１１－３２エステート平瀬２０１,,14,134,2130033,,,,,,,2026-02-13,1,,,,,フーズトランク,0
86,1020003030256,新規,0,2026-02-13,2026-02-13,カワサキ未来ファクトリー合同会社,,合同会社,神奈川県,川崎市川崎区,出来野３－１ワンズレジデンス５０５,,14,131,2100825,,,,,,,2026-02-13,1,,,,,カワサキミライファクトリー,0
87,1020003030339,新規,0,2026-02-13,2026-02-13,合同会社ソレイユ,,合同会社,神奈川県,川崎市宮前区,東有馬４丁目１９番１２号,,14,136,2160002,,,,,,,2026-02-13,1,,,,,ソレイユ,0
88,1020003030363,新規,0,2026-02-13,2026-02-13,合同会社ウィン,,合同会社,神奈川県,横浜市港北区,大豆戸町６９番地２藤和シティーホームズ大倉山３０２号,,14,109,2220032,,,,,,,2026-02-13,1,,,,,ウィン,0
89,1020003030405,新規,0,2026-02-13,2026-02-13,合同会社Ｓｐｉｎｏｆｆ,,合同会社,神奈川県,横浜市西区,浅間町１丁目４番３号ウィザードビル４０２,,14,103,2200072,,,,,,,2026-02-13,1,,,,,スピンオフ,0
91,1021001087461,新規,0,2026-02-13,2026-02-13,株式会社あるはんぶら,,株式会社,神奈川県,大和市,福田２丁目７番４号,,14,213,2420024,,,,,,,2026-02-13,1,,,,,,0
92,1021001087478,新規,0,2026-02-13,2026-02-13,株式会社９５７,,株式会社,神奈川県,海老名市,中央１丁目１６番３１号Ａ＆ＮＩビル１Ｆ,,14,215,2430432,,,,,,,2026-02-13,1,,,,,キュウゴウナナ,0
100,1030001171019,新規,0,2026-02-13,2026-02-13,株式会社マスピア,,株式会社,埼玉県,吉川市,栄町７３１番地３,,11,243,3420050,,,,,,,2026-02-13,1,,,,,マスピア,0
101,1030001171027,新規,0,2026-02-13,2026-02-13,株式会社ＨＮＰ,,株式会社,埼玉県,さいたま市大宮区,上小町１２３２－１,,11,103,3300855,,,,,,,2026-02-13,1,,,,,エイチエヌピー,0
102,1030003028646,新規,0,2026-02-13,2026-02-13,合同会社サンパチ企画,,合同会社,埼玉県,三郷市,高州２丁目３７０番地１サンクレイドル三郷公園６０１号,,11,237,3410037,,,,,,,2026-02-13,1,,,,,サンパチキカク,0
109,1040001142464,新規,0,2026-02-13,2026-02-13,株式会社Ｔ‐Ｖａｌｕｅ,,株式会社,千葉県,柏市,豊住３丁目１－２０,,12,217,2770071,,,,,,,2026-02-13,1,,,,,ティーバリュー,0
118,1060001039007,新規,0,2026-02-13,2026-02-13,株式会社エコプラテック,,株式会社,栃木県,佐野市,北茂呂町２番地１４,,09,204,3270827,,,,,,,2026-02-13,1,,,,,エコプラテック,0
122,1070003006301,新規,0,2026-02-13,2026-02-13,ＰＥＴＥＲ合同会社,,合同会社,群馬県,太田市,由良町１０１８－１０,,10,205,3730036,,,,,,,2026-02-13,1,,,,,,0
135,1100003008616,新規,0,2026-02-13,2026-02-13,合同会社Ｈ‐ＯＮＥ,,合同会社,長野県,上伊那郡南箕輪村,１１９６番地３,,20,385,3994511,,,,,,,2026-02-13,1,,,,,エイチワン,0
136,1110003006073,新規,0,2026-02-13,2026-02-13,合同会社Ｚ５,,合同会社,新潟県,新潟市中央区,東大通１丁目５番１２号第三旭ビル１階,,15,103,9500087,,,,,,,2026-02-13,1,,,,,ゼットファイブ,0
149,1120001283878,新規,0,2026-02-13,2026-02-13,株式会社トドケバ,,株式会社,大阪府,大阪市中央区,谷町３丁目１番２４－１３０１号,,27,128,5400012,,,,,,,2026-02-13,1,,,,,トドケバ,0
150,1120001284125,新規,0,2026-02-13,2026-02-13,ＦＵＮＥＺ　ＪＡＰＡＮ株式会社,,株式会社,大阪府,大阪市中央区,上町Ａ番１０－５０２号,,27,128,5400005,,,,,,,2026-02-13,1,,,,,フネズジャパン,0
151,1120001284141,新規,0,2026-02-13,2026-02-13,株式会社Ｒｏｏｍパレス,,株式会社,大阪府,大阪市淀川区,東三国５丁目２番２０号,,27,123,5320002,,,,,,,2026-02-13,1,,,,,ルームパレス,0
153,1120003031888,新規,0,2026-02-13,2026-02-13,合同会社浪速東レジ２,,合同会社,大阪府,大阪市中央区,高麗橋４丁目３番７号淀屋橋総合会計内,,27,128,5410043,,,,,,,2026-02-13,1,,,,,ナニワヒガシレジツー,0
154,1120101073188,新規,0,2026-02-13,2026-02-13,株式会社カゲヤマ電設,,株式会社,大阪府,堺市北区,百舌鳥西之町２丁５０６番地３,,27,146,5918033,,,,,,,2026-02-13,1,,,,,カゲヤマデンセツ,0
155,1120101073205,新規,0,2026-02-13,2026-02-13,Ｎａｋａｎｏ　Ｌａｎｄｓｃａｐｅ　Ｄｅｓｉｇｎ株式会社,,株式会社,大阪府,河内長野市,小山田町４５１番地の１９３,,27,216,5860094,,,,,,,2026-02-13,1,,,,,ナカノランドスケープデザイン,0
159,1122001040185,新規,0,2026-02-13,2026-02-13,株式会社ＦＩＥＬＤ　ＳＩＧＮ　ＷＯＲＫＳ,,株式会社,大阪府,八尾市,大竹３丁目１０２番地,,27,212,5810854,,,,,,,2026-02-13,1,,,,,フィールドサインワークス,0
162,1130001081595,新規,0,2026-02-13,2026-02-13,株式会社マイト不動産,,株式会社,京都府,亀岡市,東本梅町赤熊生子田２６番地,,26,206,6210234,,,,,,,2026-02-13,1,,,,,マイトフドウサン,0
163,1130003011146,新規,0,2026-02-13,2026-02-13,合同会社ＳＯＫＡ,,合同会社,京都府,京都市伏見区,横大路橋本１２番地の１伏見スカイハイツ６０９号,,26,109,6128293,,,,,,,2026-02-13,1,,,,,ソカ,0
168,1140001141720,新規,0,2026-02-13,2026-02-13,株式会社ＲＩＲＡＣＯ,,株式会社,兵庫県,宝塚市,月見山２丁目７番７号,,28,214,6650002,,,,,,,2026-02-13,1,,,,,リラコ,0
169,1140001141729,新規,0,2026-02-13,2026-02-13,日本橋東Ａ株式会社,,株式会社,兵庫県,尼崎市,東園田町９丁目１５番地の２,,28,202,6610953,,,,,,,2026-02-13,1,,,,,ニッポンバシヒガシエー,0
171,1150001028727,新規,0,2026-02-13,2026-02-13,ＧＹＤ不動産株式会社,,株式会社,奈良県,大和郡山市,箕山町１２番３５号,,29,203,6391015,,,,,,,2026-02-13,1,,,,,ジーワイディーフドウサン,0
175,1180001170666,新規,0,2026-02-13,2026-02-13,榊原住設株式会社,00142561,株式会社,愛知県,常滑市,本郷町４丁目１０３番地グランドール本郷店舗１階Ｃ号室,,23,216,4790853,,,,,,,2026-02-13,1,,,,,サカキバラジュウセツ,0
191,1240001066156,新規,0,2026-02-13,2026-02-13,ヤマトパートナーズホールディングス株式会社,,株式会社,広島県,広島市中区,舟入中町８番４号,,34,101,7300842,,,,,,,2026-02-13,1,,,,,ヤマトパートナーズホールディングス,0
201,1290001113119,新規,0,2026-02-13,2026-02-13,株式会社九州アド,,株式会社,福岡県,福岡市中央区,荒戸１丁目３番２０号,,40,133,8100062,,,,,,,2026-02-13,1,,,,,キュウシュウアド,0
202,1290001113127,新規,0,2026-02-13,2026-02-13,ＧＲＡＴＩＡＳ株式会社,,株式会社,福岡県,福岡市南区,平和２丁目１８番１７号,,40,134,8150071,,,,,,,2026-02-13,1,,,,,グラーティアース,0
203,1290001113151,新規,0,2026-02-13,2026-02-13,株式会社ＫＡＧＵＲＡ　Ｉｎｖｅｓｔｍｅｎｔ,,株式会社,福岡県,福岡市早良区,西新２丁目１１番１３－２０２号,,40,137,8140002,,,,,,,2026-02-13,1,,,,,カグラインベストメント,0
207,1310003005179,新規,0,2026-02-13,2026-02-13,合同会社Ｔｏａｓｔｅｒ　Ｄｅｓｉｇｎ　Ｏｆｆｉｃｅ,,合同会社,長崎県,大村市,宮小路１丁目５２０－１２,,42,205,8560807,,,,,,,2026-02-13,1,,,,,トースターデザインオフィス,0
212,1330001033997,新規,0,2026-02-13,2026-02-13,株式会社レガンズ,,株式会社,熊本県,熊本市東区,健軍２丁目２５番１号,,43,102,8620911,,,,,,,2026-02-13,1,,,,,レガンズ,0
215,1340001027973,新規,0,2026-02-13,2026-02-13,株式会社藤,,株式会社,鹿児島県,志布志市,志布志町安楽２５８１番地８,,46,221,8997104,,,,,,,2026-02-13,1,,,,,フジ,0
221,1360001036361,新規,0,2026-02-13,2026-02-13,株式会社アイランドモビリティーズ,,株式会社,沖縄県,宮古島市,平良字荷川取４８０－１,,47,214,9060008,,,,,,,2026-02-13,1,,,,,アイランドモビリティーズ,0
227,1380003006253,新規,0,2026-02-13,2026-02-13,合同会社ＡＭ　ＣＲＥＡＴＩＶＥ,,合同会社,福島県,いわき市,平字旧城跡１３番地の４０,,07,204,9708026,,,,,,,2026-02-13,1,,,,,エーエムクリエイティブ,0
228,1380005013058,新規,0,2026-02-13,2026-02-13,特定非営利活動法人いわき市民活動支えあいセンター,,その他の設立登記法人,福島県,いわき市,中央台高久２丁目２６番地の４,,07,204,9708047,,,,,,,2026-02-13,1,,,,,イワキシミンカツドウササエアイセンター,0
229,1380005013066,新規,0,2026-02-13,2026-02-13,アジアビジネスサービス協同組合,,その他の設立登記法人,福島県,いわき市,平字東町１６番地４,,07,204,9708026,,,,,,,2026-02-13,1,,,,,アジアビジネスサービス,0
230,1410003004212,新規,0,2026-02-13,2026-02-13,ＳＤ　Ａｋｉｔａ合同会社,,合同会社,秋田県,能代市,二ツ井町字下稗柄５２番地２,,05,202,0183128,,,,,,,2026-02-13,1,,,,,スタジオアキタ,0
234,1430001096217,新規,0,2026-02-13,2026-02-13,株式会社ＬＩＶＯＲＡ,,株式会社,北海道,石狩市,緑苑台東二条１丁目１２４番地６,,01,235,0613222,,,,,,,2026-02-13,1,,,,,リボラ,0
235,1430001096241,新規,0,2026-02-13,2026-02-13,株式会社ＢｌａｃｋＤａｍ,,株式会社,北海道,札幌市東区,北三十四条東２１丁目２－１ルケレス１２０１号室,,01,103,0070834,,,,,,,2026-02-13,1,,,,,ブラックダム,0
236,1430001096258,新規,0,2026-02-13,2026-02-13,株式会社ＨＫＤ,,株式会社,北海道,札幌市北区,新川三条１２丁目１０番１３号,,01,102,0010923,,,,,,,2026-02-13,1,,,,,エイチケーディー,0
238,1460301005345,新規,0,2026-02-13,2026-02-13,株式会社アグリハーベストサポート,,株式会社,北海道,網走郡美幌町,字美禽１８番地３０　１０３号室,,01,543,0920002,,,,,,,2026-02-13,1,,,,,アグリハーベストサポート,0
244,1480003002382,新規,0,2026-02-13,2026-02-13,合同会社ひわさ暮らしラボ,,合同会社,徳島県,海部郡美波町,奥河内字寺前３６１番地,,36,387,7792305,,,,,,,2026-02-13,1,,,,,ヒワサクラシラボ,0
245,1490001011277,新規,0,2026-02-13,2026-02-13,柴田自動車株式会社,,株式会社,高知県,須崎市,吾井郷字太郎乙８５８番地１,,39,206,7850000,,,,,,,2026-02-13,1,,,,,シバタジドウシャ,0
247,1490005007024,新規,0,2026-02-13,2026-02-13,一般社団法人室戸ジオパーク推進協議会,,その他の設立登記法人,高知県,室戸市,室戸岬町１８１２番地２,,39,202,7817101,,,,,,,2026-02-13,1,,,,,ムロトジオパークスイシンキョウギカイ,0
250,1700150134410,新規,0,2026-02-13,2026-02-13,Ｆ１０００　Ｒｅｓｅａｒｃｈ　Ｌｉｍｉｔｅｄ,,外国会社等,,,,,,,,Ｍｉｄｄｌｅｓｅｘ　Ｈｏｕｓｅ　３４－４２，Ｃｌｅｖｅｌａｎｄ　Ｓｔｒｅｅｔ，Ｌｏｎｄｏｎ，Ｕｎｉｔｅｄ　Ｋｉｎｇｄｏｍ，Ｗ１Ｔ　４ＬＢ,,,,,,2026-02-13,1,,,,,エフワンサウザンドリサーチリミテツド,0
264,2010001262636,新規,0,2026-02-13,2026-02-13,東京古美術株式会社,,株式会社,東京都,千代田区,神田和泉町１番地６－１６ヤマトビル４０５,,13,101,1010024,,,,,,,2026-02-13,1,,,,,トウキョウコビジュツ,0
265,2010001262751,新規,0,2026-02-13,2026-02-13,ＮＹＣＩ１９株式会社,,株式会社,東京都,中央区,新川１丁目６番１１号,,13,102,1040033,,,,,,,2026-02-13,1,,,,,エヌワイシーアイナインティーン,0
267,2010003050304,新規,0,2026-02-13,2026-02-13,合同会社Ｉ　ｔｏ　Ｕｓ,,合同会社,東京都,中央区,日本橋室町１丁目１１番１２号日本橋水野ビル７階,,13,102,1030022,,,,,,,2026-02-13,1,,,,,アイトゥーアス,0
268,2010003050320,新規,0,2026-02-13,2026-02-13,リフォナ合同会社,,合同会社,東京都,中央区,銀座７丁目１３番６号サガミビル２階,,13,102,1040061,,,,,,,2026-02-13,1,,,,,リフォナ,0
276,2010401196475,新規,0,2026-02-13,2026-02-13,株式会社ＷＡＶＥＳ　ＭＵＳＩＣ,,株式会社,東京都,港区,赤坂７丁目１１番１０号赤坂ＡＳビル６Ｆ,,13,103,1070052,,,,,,,2026-02-13,1,,,,,ウェイブスミュージック,0
277,2010401196533,新規,0,2026-02-13,2026-02-13,株式会社終焉祝祭,,株式会社,東京都,港区,南青山３丁目１番３６号青山丸竹ビル６Ｆ,,13,103,1070062,,,,,,,2026-02-13,1,,,,,シュウエンシュクサイ,0
289,2010901058943,新規,0,2026-02-13,2026-02-13,株式会社スピラティー,,株式会社,東京都,世田谷区,大原１丁目５６番６号,,13,112,1560041,,,,,,,2026-02-13,1,,,,,スピラティー,0
296,2011001175407,新規,0,2026-02-13,2026-02-13,株式会社ＢＡＮＴＯＵ,,株式会社,東京都,渋谷区,広尾１丁目２番１号ヒカリビル４階,,13,113,1500012,,,,,,,2026-02-13,1,,,,,バントウ,0
297,2011001175431,新規,0,2026-02-13,2026-02-13,株式会社プロダクションＲ,,株式会社,東京都,目黒区,上目黒２丁目３０番１１号ＥＸＡＭ中目黒ＩＩＩ－３０３,00142565,13,110,1530051,,,,,,,2026-02-13,1,,,,,プロダクションアール,0
298,2011001175489,新規,0,2026-02-13,2026-02-13,データ化センター株式会社,,株式会社,東京都,渋谷区,渋谷３丁目６番２号エクラート渋谷５Ｆ,,13,113,1500002,,,,,,,2026-02-13,1,,,,,データカセンター,0
299,2011001175621,新規,0,2026-02-13,2026-02-13,株式会社Ｐｕｍｐｋｙ,,株式会社,東京都,渋谷区,神南１丁目１１番４号ＦＰＧリンクス神南５階,,13,113,1500041,,,,,,,2026-02-13,1,,,,,パンプキー,0
300,2011001175704,新規,0,2026-02-13,2026-02-13,Ｈｙｐｅｒｂａｉｎｅ株式会社,,株式会社,東京都,渋谷区,神宮前５丁目６番１３号ヴァイス表参道２階,,13,113,1500001,,,,,,,2026-02-13,1,,,,,ハイパーバイン,0
306,2011003023506,新規,0,2026-02-13,2026-02-13,ＡｎｙＮｏｗ合同会社,,合同会社,東京都,渋谷区,恵比寿西２丁目８番４号ＥＸ恵比寿西ビル５階,,13,113,1500021,,,,,,,2026-02-13,1,,,,,エニーナウ,0
307,2011003023530,新規,0,2026-02-13,2026-02-13,合同会社ＬＡＮＡメディカルサポート,,合同会社,東京都,目黒区,鷹番２丁目１８番１３号ＣＯＭＰＯＳＩＴＥ目黒鷹番２０６,,13,110,1520004,,,,,,,2026-02-13,1,,,,,ラナメディカルサポート,0
308,2011003023539,新規,0,2026-02-13,2026-02-13,ＳＫ合同会社,,合同会社,東京都,渋谷区,初台２丁目１８番７号,,13,113,1510061,,,,,,,2026-02-13,1,,,,,エスケー,0
309,2011003023605,新規,0,2026-02-13,2026-02-13,ＡＭＴＵＬｓ合同会社,,合同会社,東京都,目黒区,目黒本町６丁目２２番１３号,,13,110,1520002,,,,,,,2026-02-13,1,,,,,アムツール,0
315,2011103016987,新規,0,2026-02-13,2026-02-13,合同会社ＳＰＶ１８,,合同会社,東京都,新宿区,富久町８番２６号東京ユナイテッド綜合事務所内,,13,104,1620067,,,,,,,2026-02-13,1,,,,,エスピーブイジュウハチ,0
316,2011105011722,新規,0,2026-02-13,2026-02-13,一般社団法人東京都区部災害時透析医療ネットワーク,,その他の設立登記法人,東京都,新宿区,下落合２丁目１番６号,,13,104,1610033,,,,,,,2026-02-13,1,,,,,トウキョウトクブサイガイジトウセキイリョウネットワーク,0
318,2011701029176,新規,0,2026-02-13,2026-02-13,株式会社ポイカジ,,株式会社,東京都,江戸川区,小松川１丁目２－３－１４０２コーシャタワー,,13,123,1320034,,,,,,,2026-02-13,1,,,,,ポイカジ,0
320,2011801047441,新規,0,2026-02-13,2026-02-13,株式会社モンブラン,,株式会社,東京都,葛飾区,金町２丁目２７番１２号,,13,122,1250042,,,,,,,2026-02-13,1,,,,,モンブラン,0
329,2013301055750,新規,0,2026-02-13,2026-02-13,ＴＯＢ株式会社,,株式会社,東京都,豊島区,南長崎５丁目１３番１５号,,13,116,1710052,,,,,,,2026-02-13,1,,,,,ティオービー,0
337,2020001167025,新規,0,2026-02-13,2026-02-13,株式会社ＹＭＳＲ,,株式会社,神奈川県,川崎市幸区,塚越４丁目３５５番地４,,14,132,2120024,,,,,,,2026-02-13,1,,,,,ワイエムエスアール,0
339,2020003030296,新規,0,2026-02-13,2026-02-13,合同会社Ｄ‐ｒｏａｄ,,合同会社,神奈川県,横浜市中区,尾上町６丁目８９番地尾上町スカイビル,,14,104,2310015,,,,,,,2026-02-13,1,,,,,ディーロード,0
340,2020003030313,新規,0,2026-02-13,2026-02-13,Ａｌｍｉｇｈｔｙ　Ｓｕｐｐｏｒｔ　ｆｏｒ　Ｅｎｔｅｒｔａｉｎｍｅｎｔ合同会社,,合同会社,神奈川県,横浜市中区,常盤町３丁目３０番１号,,14,104,2310014,,,,,,,2026-02-13,1,,,,,オールマイティサポートフォーエンターテイメント,0
341,2020003030387,新規,0,2026-02-13,2026-02-13,合同会社Ｐｏｌｅ　Ｐｏｌｅ　Ｄａｙｓ,,合同会社,神奈川県,川崎市高津区,下作延３丁目２番３０―３０４号,,14,134,2130033,,,,,,,2026-02-13,1,,,,,ポレポレデイズ,0
342,2020005017135,新規,0,2026-02-13,2026-02-13,一般社団法人Ｕｂｕｎｔｕ　Ｒｏｏｔｓ,,その他の設立登記法人,神奈川県,横浜市中区,小港町２丁目１００－１,,14,104,2310802,,,,,,,2026-02-13,1,,,,,ウブンツルーツ,0
345,2021001087543,新規,0,2026-02-13,2026-02-13,株式会社ＧＲＡＮ　ＥＩＣＭＴ,,株式会社,神奈川県,大和市,下鶴間５２８８番地１８,,14,213,2420001,,,,,,,2026-02-13,1,,,,,グランエイト,0
346,2021003017127,新規,0,2026-02-13,2026-02-13,Ｈ＆Ｋ合同会社,,合同会社,神奈川県,相模原市南区,東大沼４丁目９番１号,,14,153,2520333,,,,,,,2026-02-13,1,,,,,エイチアンドケー,0
347,2021003017143,新規,0,2026-02-13,2026-02-13,合同会社Ｈａｌｅ　Ｙｕｋｉ,,合同会社,神奈川県,藤沢市,鵠沼海岸６丁目１０番２０号,,14,205,2510037,,,,,,,2026-02-13,1,,,,,ハレユキ,0
356,2030001170985,新規,0,2026-02-13,2026-02-13,株式会社雅,,株式会社,埼玉県,久喜市,吉羽１丁目２５－１８,,11,232,3460014,,,,,,,2026-02-13,1,,,,,ミヤビ,0
357,2030001171001,新規,0,2026-02-13,2026-02-13,株式会社ＣＴＥ,,株式会社,埼玉県,さいたま市緑区,美園４丁目１番地２センターフィールド浦和美園壱番街１４０８,,11,109,3360967,,,,,,,2026-02-13,1,,,,,シーティーイー,0
359,2030003028645,新規,0,2026-02-13,2026-02-13,合同会社ＸＥＮＯＦＡＣＴＯＲＹ,,合同会社,埼玉県,北葛飾郡松伏町,大字松伏１９８６番地リバーヒルズ１０２,,11,465,3430111,,,,,,,2026-02-13,1,,,,,ゼノファクトリー,0
362,2040001142471,新規,0,2026-02-13,2026-02-13,株式会社ＭＴＸＤ,,株式会社,千葉県,八街市,榎戸４０７番地６７,,12,230,2891106,,,,,,,2026-02-13,1,,,,,エムティーエックスディー,0
366,2040003029460,新規,0,2026-02-13,2026-02-13,合同会社みきテラス,,合同会社,千葉県,千葉市中央区,中央４丁目１０番１６号ＣＩ－２２ビル５０２,,12,101,2600013,,,,,,,2026-02-13,1,,,,,ミキテラス,0
367,2040003029469,新規,0,2026-02-13,2026-02-13,合同会社ＳＵＴＥＫＩＮＡ　ＪＩＫＡＮ,,合同会社,千葉県,長生郡一宮町,東野２３番地２０,,12,421,2994306,,,,,,,2026-02-13,1,,,,,ステキナジカン,0
370,2050001057982,新規,0,2026-02-13,2026-02-13,株式会社つなぐ,,株式会社,茨城県,つくば市,吾妻１丁目７番地５レ・ジェイドつくば１０１号,,08,220,3050031,,,,,,,2026-02-13,1,,,,,ツナグ,0
373,2050003009949,新規,0,2026-02-13,2026-02-13,合同会社ＲＯＯＴ　ＭＯＶＥ,,合同会社,茨城県,水戸市,大工町２丁目２―１１,,08,201,3100031,,,,,,,2026-02-13,1,,,,,ルートムーブ,0
377,2070001043808,新規,0,2026-02-13,2026-02-13,ＪＡＰＡＮ　ＭＥＴＡＬ株式会社,,株式会社,群馬県,高崎市,新町３１５７番地３,,10,202,3701301,,,,,,,2026-02-13,1,,,,,ジャパンメタル,0
378,2070003006300,新規,0,2026-02-13,2026-02-13,合同会社フェアノード,,合同会社,群馬県,館林市,北成島町２８９５番４号,,10,207,3740057,,,,,,,2026-02-13,1,,,,,フェアノード,0
380,2080401028440,新規,0,2026-02-13,2026-02-13,株式会社巧テック,,株式会社,静岡県,浜松市中央区,和合町１０３番地の１０,,22,138,4338125,,,,,,,2026-02-13,1,,,,,タクミテック,0
383,2080403005446,新規,0,2026-02-13,2026-02-13,合同会社Ｕ,,合同会社,静岡県,湖西市,境宿１０２番地の１,,22,221,4310452,,,,,,,2026-02-13,1,,,,,ユー,0
387,2110001039891,新規,0,2026-02-13,2026-02-13,Ｌｕａ株式会社,,株式会社,新潟県,新潟市中央区,長潟９５７,,15,103,9500932,,,,,,,2026-02-13,1,,,,,ルーア,0
388,2110003006072,新規,0,2026-02-13,2026-02-13,カイリモータース合同会社,,合同会社,新潟県,南魚沼市,芹田２１０５番地３,,15,226,9497311,,,,,,,2026-02-13,1,,,,,カイリモータース,0
391,2120001046284,新規,0,2026-02-13,2026-02-13,日生産業株式会社,,株式会社,大阪府,大阪市西区,江戸堀１丁目２番１１号,,27,106,5500002,,,,,,,2026-02-13,1,,,,,ニッセイサンギョウ,0
407,2120001284025,新規,0,2026-02-13,2026-02-13,株式会社アーキノーツ,,株式会社,大阪府,大阪市北区,梅田１丁目２番２号大阪駅前第２ビル１２－１２,,27,127,5300001,,,,,,,2026-02-13,1,,,,,アーキノーツ,0
408,2120001284033,新規,0,2026-02-13,2026-02-13,ＪＣマネージメント株式会社,,株式会社,大阪府,大阪市浪速区,恵美須西１丁目５番３－４０５室,,27,111,5560003,,,,,,,2026-02-13,1,,,,,ジェイシーマネージメント,0
409,2120001284058,新規,0,2026-02-13,2026-02-13,株式会社ＬＵＸ,,株式会社,大阪府,大阪市東成区,深江北２丁目１番３号東陽ビル,,27,115,5370001,,,,,,,2026-02-13,1,,,,,ルクス,0
410,2120001284066,新規,0,2026-02-13,2026-02-13,株式会社ペアリング,,株式会社,大阪府,大阪市中央区,久太郎町４丁目１－３大阪センタービル６Ｆ－３９６,,27,128,5410056,,,,,,,2026-02-13,1,,,,,ペアリング,0
411,2120001284108,新規,0,2026-02-13,2026-02-13,株式会社ハピネスコネクト,,株式会社,大阪府,大阪市福島区,吉野４丁目２１番１９号,,27,103,5530006,,,,,,,2026-02-13,1,,,,,ハピネスコネクト,0
412,2120001284132,新規,0,2026-02-13,2026-02-13,株式会社ＺＵＬＥＧＩＯＮ,,株式会社,大阪府,大阪市大正区,鶴町４丁目１番５号,,27,108,5510023,,,,,,,2026-02-13,1,,,,,ツーレギオン,0
413,2120001284231,新規,0,2026-02-13,2026-02-13,株式会社ＭＡＲＬＹ,,株式会社,大阪府,大阪市大正区,南恩加島４丁目４番８２号,,27,108,5510021,,,,,,,2026-02-13,1,,,,,マーリー,0
417,2120003031887,新規,0,2026-02-13,2026-02-13,合同会社浪速東レジ１,,合同会社,大阪府,大阪市中央区,高麗橋４丁目３番７号淀屋橋総合会計内,,27,128,5410043,,,,,,,2026-02-13,1,,,,,ナニワヒガシレジワン,0
418,2120003031904,新規,0,2026-02-13,2026-02-13,合同会社Ｌｕｘｅ　Ｌｉｂｒｅ,,合同会社,大阪府,寝屋川市,中神田町８－６－１０１,,27,215,5720053,,,,,,,2026-02-13,1,,,,,リュクスリブレ,0
421,2120005025409,新規,0,2026-02-13,2026-02-13,一般社団法人日本万博バーラト協会,,その他の設立登記法人,大阪府,大阪市北区,梅田１丁目２番２号大阪駅前第２ビル１２－１２,,27,127,5300001,,,,,,,2026-02-13,1,,,,,ニホンバンパクバーラトキョウカイ,0
422,2120005025417,新規,0,2026-02-13,2026-02-13,一般社団法人Ｒ・ＡＳＫ２２,,その他の設立登記法人,大阪府,大阪市北区,梅田３丁目２番２号,,27,127,5300001,,,,,,,2026-02-13,1,,,,,アールエーエスケートゥエンティトゥー,0
423,2120101073179,新規,0,2026-02-13,2026-02-13,ＴＡＲＵＩＥ株式会社,,株式会社,大阪府,岸和田市,土生町８丁目２０－１６、２０１号,,27,202,5960825,,,,,,,2026-02-13,1,,,,,タルイ,0
424,2120103006987,新規,0,2026-02-13,2026-02-13,合同会社小次朗,,合同会社,大阪府,岸和田市,本町８番４号,,27,202,5960074,,,,,,,2026-02-13,1,,,,,コジロウ,0
430,2140001141728,新規,0,2026-02-13,2026-02-13,敷津西Ａ株式会社,,株式会社,兵庫県,尼崎市,東園田町９丁目１５番地の２,,28,202,6610953,,,,,,,2026-02-13,1,,,,,シキツニシエー,0
431,2140001141752,新規,0,2026-02-13,2026-02-13,株式会社津田桂男,,株式会社,兵庫県,西宮市,甲陽園山王町２―１０,,28,204,6620018,,,,,,,2026-02-13,1,,,,,ツダカツラオ,0
434,2140003023189,新規,0,2026-02-13,2026-02-13,合同会社ＭＩＲＡ,,合同会社,兵庫県,神戸市中央区,小野柄通３丁目２番１９号エステムコート神戸三宮プライム１４０２,,28,110,6510088,,,,,,,2026-02-13,1,,,,,ミラ,0
435,2150001028726,新規,0,2026-02-13,2026-02-13,株式会社中新不動産,,株式会社,奈良県,磯城郡田原本町,大字小阪１７９番地の１５,,29,363,6360237,,,,,,,2026-02-13,1,,,,,チュウシンフドウサン,0
436,2160001027413,新規,0,2026-02-13,2026-02-13,株式会社近江の里・木下農園,,株式会社,滋賀県,東近江市,大中町４５２番地３,,25,213,5211244,,,,,,,2026-02-13,1,,,,,オウミノサトキノシタノウエン,0
447,2180001170533,新規,0,2026-02-13,2026-02-13,株式会社Ｓｉｎｇホールディングス,,株式会社,愛知県,春日井市,如意申町７丁目１５－５アーバンハイツ春日井３０２,,23,206,4860918,,,,,,,2026-02-13,1,,,,,シングホールディングス,0
448,2180001170632,新規,0,2026-02-13,2026-02-13,株式会社丸八商店,,株式会社,愛知県,名古屋市北区,大曽根４丁目１８番４０号,,23,103,4620825,,,,,,,2026-02-13,1,,,,,マルハチショウテン,0
449,2180001170665,新規,0,2026-02-13,2026-02-13,株式会社Ｅ＆Ｇエンターテイメント,,株式会社,愛知県,名古屋市中区,錦３丁目４番２２号,,23,106,4600003,,,,,,,2026-02-13,1,,,,,イーアンドジーエンターテイメント,0
450,2180001170681,新規,0,2026-02-13,2026-02-13,株式会社まる久,,株式会社,愛知県,海部郡蟹江町,大字西之森字海山３０８番地,,23,425,4970052,,,,,,,2026-02-13,1,,,,,マルキュウ,0
452,2180003029752,新規,0,2026-02-13,2026-02-13,合同会社キロル,,合同会社,愛知県,江南市,今市場町高根６８番地,,23,217,4838183,,,,,,,2026-02-13,1,,,,,キロル,0
456,2190001032906,新規,0,2026-02-13,2026-02-13,株式会社ＣＲＩＨＵｓ,,株式会社,三重県,津市,栗真町屋町１５７７番地三重大学地域イノベーション研究開発拠点Ａ棟２階,,24,201,5140102,,,,,,,2026-02-13,1,,,,,クリフ,0
474,2270001009391,新規,0,2026-02-13,2026-02-13,陽通商株式会社,,株式会社,鳥取県,鳥取市,東今在家５８番地４５,,31,201,6800852,,,,,,,2026-02-13,1,,,,,ヒナタツウショウ,0
486,2290003018050,新規,0,2026-02-13,2026-02-13,合同会社Ａｔｏｚｉｅｌ,,合同会社,福岡県,福岡市中央区,天神２丁目３番１０号パインクレスト７１９号,,40,133,8100001,,,,,,,2026-02-13,1,,,,,アトジエル,0
492,2330001033988,新規,0,2026-02-13,2026-02-13,株式会社インフィニティジャパン,,株式会社,熊本県,山鹿市,鹿北町四丁３１５番地１,,43,208,8610601,,,,,,,2026-02-13,1,,,,,インフィニティジャパン,0
493,2330001033996,新規,0,2026-02-13,2026-02-13,Ｅｍｍａｓ　Ｉｎｎｏｖａｔｉｏｎ株式会社,,株式会社,熊本県,熊本市南区,城南町藤山４３０－１１,,43,104,8614223,,,,,,,2026-02-13,1,,,,,エマズイノベーション,0
496,2340005009942,新規,0,2026-02-13,2026-02-13,一般社団法人アジア平和医療創生機構,,その他の設立登記法人,鹿児島県,南九州市,知覧町郡１２１番地２,,46,223,8970302,,,,,,,2026-02-13,1,,,,,アジアヘイワイリョウソウセイキコウ,0
501,2360005007366,新規,0,2026-02-13,2026-02-13,一般社団法人Ｖ．Ｐ．Ａ．,,その他の設立登記法人,沖縄県,那覇市,おもろまち４丁目１６番５号サンライズＧＩＮＯＺＡ３０３,,47,201,9000006,,,,,,,2026-02-13,1,,,,,ブイピーエー,0
514,2430001096257,新規,0,2026-02-13,2026-02-13,株式会社平楽,,株式会社,北海道,札幌市中央区,大通東４丁目４番地４４ＥＡＳＴ４ＳＡＰＰＯＲＯＢＬＤ２Ｆ,,01,101,0600041,,,,,,,2026-02-13,1,,,,,ヘイラク,0
516,2430003018589,新規,0,2026-02-13,2026-02-13,合同会社ＢＲＩＧＨＴＩＡ,,合同会社,北海道,北広島市,朝日町２丁目３番地９,,01,234,0611123,,,,,,,2026-02-13,1,,,,,ブライトア,0
520,2700150134335,新規,0,2026-02-13,2026-02-09,ＵＤＣＯＤ,,その他,神奈川県,小田原市,荻窪３００番地,,14,206,2500042,,,,,,,2026-02-09,1,,,,,ユーデイーシーオーデイー,0
521,2700150134392,新規,0,2026-02-13,2026-02-13,市原市潤井戸土地改良区,,その他,千葉県,市原市,潤井戸４５１番地１,,12,219,2900171,,,,,,,2026-02-13,1,,,,,イチハラシウルイドトチカイリヨウク,0
530,3010001262627,新規,0,2026-02-13,2026-02-13,株式会社コアゾーン,,株式会社,東京都,中央区,銀座１丁目１２－４Ｎ＆ＥＢＬＤ．７階,,13,102,1040061,,,,,,,2026-02-13,1,,,,,コアゾーン,0
531,3010001262643,新規,0,2026-02-13,2026-02-13,株式会社Ｆｒｉｃｔａｌ　Ｐａｒｔｎｅｒｓ,,株式会社,東京都,中央区,銀座１丁目２２番１１号銀座大竹ビジデンス２Ｆ,,13,102,1040061,,,,,,,2026-02-13,1,,,,,フリクタルパートナーズ,0
532,3010001262684,新規,0,2026-02-13,2026-02-13,株式会社テレステーションホールディングス,,株式会社,東京都,千代田区,丸の内１丁目１１番１号,,13,101,1000005,,,,,,,2026-02-13,1,,,,,テレステーションホールディングス,0
533,3010001262701,新規,0,2026-02-13,2026-02-13,タカダコンサルティング株式会社,,株式会社,東京都,中央区,入船２丁目６番４－５０１号,,13,102,1040042,,,,,,,2026-02-13,1,,,,,タカダコンサルティング,0
534,3010001262742,新規,0,2026-02-13,2026-02-13,株式会社ジーベンケミカルホールディングス,,株式会社,東京都,千代田区,内神田３丁目２番８号,,13,101,1010047,,,,,,,2026-02-13,1,,,,,ジーベンケミカルホールディングス,0
535,3010001262759,新規,0,2026-02-13,2026-02-13,伊豆大島つばきレンタカー株式会社,,株式会社,東京都,大島町,元町４丁目３番２号,,13,361,1000101,,,,,,,2026-02-13,1,,,,,イズオオシマツバキレンタカー,0
539,3010003050336,新規,0,2026-02-13,2026-02-13,ＧＲＯＷ　ＰＡＴＨ合同会社,,合同会社,東京都,中央区,銀座７丁目１３番６号サガミビル２階,,13,102,1040061,,,,,,,2026-02-13,1,,,,,グローパス,0
540,3010005041374,新規,0,2026-02-13,2026-02-13,行政書士法人板尾行政書士事務所,,その他の設立登記法人,東京都,中央区,日本橋小舟町８番１３号天翔日本橋ビル４階４０３号室,,13,102,1030024,,,,,,,2026-02-13,1,,,,,イタオギョウセイショシジムショ,0
541,3010005041382,新規,0,2026-02-13,2026-02-13,一般社団法人風土産業研究所,,その他の設立登記法人,東京都,中央区,日本橋兜町１７番１号日本橋ロイヤルプラザ７０６,,13,102,1030026,,,,,,,2026-02-13,1,,,,,フウドサンギョウケンキュウジョ,0
545,3010101017063,新規,0,2026-02-13,2026-02-13,株式会社ＲＭ,,株式会社,東京都,八王子市,北野町５３９番地１２,,13,201,1920906,,,,,,,2026-02-13,1,,,,,アールエム,0
554,3010401196490,新規,0,2026-02-13,2026-02-13,株式会社都海,,株式会社,東京都,港区,虎ノ門１丁目１５番１０号名和ビル４階,,13,103,1050001,,,,,,,2026-02-13,1,,,,,トカイ,0
558,3010403037296,新規,0,2026-02-13,2026-02-13,ＲＥ．ＲＯＯＭ合同会社,,合同会社,東京都,港区,東新橋２丁目１８番２号グラディート汐留ロッソ７０３,,13,103,1050021,,,,,,,2026-02-13,1,,,,,レルーム,0
559,3010403037305,新規,0,2026-02-13,2026-02-13,合同会社アシスト,,合同会社,東京都,港区,港南２丁目１６番１号,,13,103,1080075,,,,,,,2026-02-13,1,,,,,アシスト,0
562,3010405025282,新規,0,2026-02-13,2026-02-13,一般社団法人一進会,,その他の設立登記法人,東京都,港区,高輪３丁目４番１号高輪偕成ビル６階,,13,103,1080074,,,,,,,2026-02-13,1,,,,,イッシンカイ,0
571,3010801037047,新規,0,2026-02-13,2026-02-13,ＦｕｎＣ株式会社,,株式会社,東京都,大田区,仲池上２丁目２７－３,,13,111,1460081,,,,,,,2026-02-13,1,,,,,ファンク,0
575,3010901058950,新規,0,2026-02-13,2026-02-13,ｋｏｔｏｎｏｈａ株式会社,,株式会社,東京都,世田谷区,深沢８丁目１０番１９号,,13,112,1580081,,,,,,,2026-02-13,1,,,,,コトノハ,0
580,3011001175447,新規,0,2026-02-13,2026-02-13,Ｗｉｓｈ　Ｃｒａｆｔ株式会社,,株式会社,東京都,渋谷区,初台１丁目５０番４号ライオンズマンション初台４０１,,13,113,1510061,,,,,,,2026-02-13,1,,,,,ウィッシュクラフト,0
581,3011001175455,新規,0,2026-02-13,2026-02-13,Ａｋａｒｉｎｏ株式会社,,株式会社,東京都,渋谷区,千駄ヶ谷５丁目１３番１８－４０３号リビオ新宿御苑,,13,113,1510051,,,,,,,2026-02-13,1,,,,,アカリノ,0
582,3011003023538,新規,0,2026-02-13,2026-02-13,合同会社ｍｉｎｕｉｔ,,合同会社,東京都,渋谷区,神南１丁目５番１４号三船ビル３０６,,13,113,1500041,,,,,,,2026-02-13,1,,,,,ミニュイ,0
587,3011101114866,新規,0,2026-02-13,2026-02-13,株式会社ＡＸＩＳ,,株式会社,東京都,新宿区,大久保２丁目２番１２号ＶＯＲＴ東新宿６Ｆ,,13,104,1690072,,,,,,,2026-02-13,1,,,,,アクシス,0
590,3011103016986,新規,0,2026-02-13,2026-02-13,合同会社ＳＰＶ１７,,合同会社,東京都,新宿区,富久町８番２６号東京ユナイテッド綜合事務所内,,13,104,1620067,,,,,,,2026-02-13,1,,,,,エスピーブイジュウナナ,0
594,3011201026945,新規,0,2026-02-13,2026-02-13,株式会社日辰,,株式会社,東京都,中野区,若宮１丁目５番５号あけぼのハイツ２０２室,,13,114,1650033,,,,,,,2026-02-13,1,,,,,ニッシン,0
595,3011401027660,新規,0,2026-02-13,2026-02-13,株式会社ＯＮＥ,,株式会社,東京都,板橋区,宮本町２番３号３０１号室,,13,119,1740054,,,,,,,2026-02-13,1,,,,,ワン,0
596,3011403005037,新規,0,2026-02-13,2026-02-13,合同会社ＧｏＪａｐａｎ　Ｔｒａｖｅｌ,,合同会社,東京都,板橋区,大谷口北町５０－３中板橋ダイカンプラザシティ２０２号,,13,119,1730031,,,,,,,2026-02-13,1,,,,,ゴージャパントラベル,0
597,3011501033088,新規,0,2026-02-13,2026-02-13,株式会社ＤＲＥＡｍｉｅ,,株式会社,東京都,北区,滝野川２丁目５番１０号ルフォン飛鳥山３０３号室,,13,117,1140023,,,,,,,2026-02-13,1,,,,,ドリーミー,0
602,3011701029167,新規,0,2026-02-13,2026-02-13,日本ＡＤシステム株式会社,,株式会社,東京都,江戸川区,東小岩２丁目１８番８号,,13,123,1330052,,,,,,,2026-02-13,1,,,,,ニホンアドシステム,0
604,3012401044126,新規,0,2026-02-13,2026-02-13,株式会社ＥＳＥＮＣＩＡ,,株式会社,東京都,狛江市,中和泉５丁目１０番６号グランドソレイユ８号,,13,219,2010012,,,,,,,2026-02-13,1,,,,,エセンシア,0
609,3013301055741,新規,0,2026-02-13,2026-02-13,株式会社オフィス椎名佐千子,,株式会社,東京都,豊島区,北大塚２丁目１２番１２号岡ビル２２号,,13,116,1700004,,,,,,,2026-02-13,1,,,,,オフィスシイナサチコ,0
612,3020001166983,新規,0,2026-02-13,2026-02-13,株式会社フェアリートーク,,株式会社,神奈川県,横浜市鶴見区,駒岡４丁目２１番２６号,,14,101,2300071,,,,,,,2026-02-13,1,,,,,フェアリートーク,0
613,3020001167016,新規,0,2026-02-13,2026-02-13,株式会社サンライズサービス,,株式会社,神奈川県,横浜市西区,浅間町１丁目４番３号ウィザードビル４０２,,14,103,2200072,,,,,,,2026-02-13,1,,,,,サンライズサービス,0
614,3020001167040,新規,0,2026-02-13,2026-02-13,株式会社Ｐａｌｏｍｂａ,,株式会社,神奈川県,横浜市西区,北幸１丁目１１番１号水信ビル７階,,14,103,2200004,,,,,,,2026-02-13,1,,,,,パロンバ,0
615,3020001167098,新規,0,2026-02-13,2026-02-13,株式会社Ｓｈｉｆｆｏｎ．,,株式会社,神奈川県,横浜市港北区,綱島西１丁目１４番５－２０２Ｍ号,,14,109,2230053,,,,,,,2026-02-13,1,,,,,シフォン,0
618,3020003030329,新規,0,2026-02-13,2026-02-13,宸陽合同会社,,合同会社,神奈川県,横浜市西区,浅間町１丁目４番３号ウィザードビル４０２,,14,103,2200072,,,,,,,2026-02-13,1,,,,,シンヨウ,0
620,3021001087518,新規,0,2026-02-13,2026-02-13,株式会社明徳技建,,株式会社,神奈川県,茅ヶ崎市,下寺尾１８３２番地２,,14,207,2530081,,,,,,,2026-02-13,1,,,,,メイトクギケン,0
621,3021003017126,新規,0,2026-02-13,2026-02-13,合同会社シグマ,,合同会社,神奈川県,茅ヶ崎市,松林２丁目３番３３号ラディエンス２０１,,14,207,2530017,,,,,,,2026-02-13,1,,,,,シグマ,0
623,3021005013536,新規,0,2026-02-13,2026-02-13,一般社団法人Ｗｏｒｌｄ　ｎｏ　ｓｉｄｅ　Ｊａｐａｎ,,その他の設立登記法人,神奈川県,平塚市,長持１６０番地の６,,14,203,2591217,,,,,,,2026-02-13,1,,,,,ワールドノーサイドジャパン,0
627,3030001171000,新規,0,2026-02-13,2026-02-13,株式会社明瑞,,株式会社,埼玉県,さいたま市大宮区,下町１丁目６２番地１－８０１,,11,103,3300844,,,,,,,2026-02-13,1,,,,,メイズイ,0
628,3030001171017,新規,0,2026-02-13,2026-02-13,株式会社Ｌｏｎｇｅｖｉｔｙ,,株式会社,埼玉県,草加市,手代３丁目９番１－７０４,,11,221,3400021,,,,,,,2026-02-13,1,,,,,ロンジェビティ,0
629,3030001171025,新規,0,2026-02-13,2026-02-13,株式会社３５,,株式会社,埼玉県,久喜市,久喜中央２丁目９番４５号高山ビル３階,,11,232,3460003,,,,,,,2026-02-13,1,,,,,サンジュウゴ,0
634,3030003028628,新規,0,2026-02-13,2026-02-13,合同会社ＧＦＫセキュリティ,,合同会社,埼玉県,本庄市,日の出４丁目１６番４号,,11,211,3670022,,,,,,,2026-02-13,1,,,,,ジーエフケーセキュリティ,0
637,3040001142413,新規,0,2026-02-13,2026-02-13,Ｓｅｅｄｌｏｇｕｅ株式会社,,株式会社,千葉県,茂原市,小林１３１６番地,,12,210,2970074,,,,,,,2026-02-13,1,,,,,シードローグ,0
638,3040001142495,新規,0,2026-02-13,2026-02-13,日翔工業株式会社,,株式会社,千葉県,千葉市稲毛区,園生町１３５１番地１ルネ・アイクレール１００８号,,12,103,2630051,,,,,,,2026-02-13,1,,,,,ニッショウコウギョウ,0
639,3040003029435,新規,0,2026-02-13,2026-02-13,合同会社夢路荘,,合同会社,千葉県,八街市,吉倉５３９番地７０,,12,230,2891133,,,,,,,2026-02-13,1,,,,,ユメジソウ,0
646,3060001039005,新規,0,2026-02-13,2026-02-13,株式会社ＫＲＩ‐Ｇｒｏｕｐ,,株式会社,栃木県,那須塩原市,板室８４１番地１４,,09,213,3250111,,,,,,,2026-02-13,1,,,,,ケーアールアイグループ,0
656,3080403005445,新規,0,2026-02-13,2026-02-13,合同会社円,,合同会社,静岡県,浜松市中央区,春日町１３１‐２アーバンライフ江西Ａ１０２,,22,138,4328046,,,,,,,2026-02-13,1,,,,,マドカ,0
659,3090001019739,新規,0,2026-02-13,2026-02-13,株式会社Ｎａｔｕｒａｌｌｙ,,株式会社,山梨県,中央市,中楯１４６１番地１－２０２,,19,214,4093801,,,,,,,2026-02-13,1,,,,,ナチュラリー,0
661,3100001039339,新規,0,2026-02-13,2026-02-13,株式会社トライセント,,株式会社,長野県,長野市,桐原１丁目１５番３５号,,20,201,3810045,,,,,,,2026-02-13,1,,,,,トライセント,0
663,3100003008597,新規,0,2026-02-13,2026-02-13,Ｓｕｎｆｌｏｗｅｒ　Ｓａｋｅ合同会社,,合同会社,長野県,長野市,大字南長野西後町６１０番１２,,20,201,3800845,,,,,,,2026-02-13,1,,,,,サンフラワーサケ,0
666,3110003006071,新規,0,2026-02-13,2026-02-13,合同会社ｍｏｓｓ＆ＣＯ,,合同会社,新潟県,新潟市中央区,女池７丁目１９番１１号Ｇ．ｌａｂＮＩＩＧＡＴＡ,,15,103,9500941,,,,,,,2026-02-13,1,,,,,モスアンドコウ,0
687,3120001284057,新規,0,2026-02-13,2026-02-13,株式会社ＡＵ,,株式会社,大阪府,大阪市都島区,友渕町３丁目７番５－１１０２号,,27,102,5340016,,,,,,,2026-02-13,1,,,,,アウ,0
688,3120001284081,新規,0,2026-02-13,2026-02-13,ＳｐｏＬｏｖｅ株式会社,,株式会社,大阪府,大阪市港区,弁天４丁目５番１１－１７０１号,,27,107,5520007,,,,,,,2026-02-13,1,,,,,スポラブ,0
689,3120001284107,新規,0,2026-02-13,2026-02-13,株式会社ＣＲＯＳＳ,,株式会社,大阪府,大阪市浪速区,日本橋５丁目１２－３,,27,111,5560005,,,,,,,2026-02-13,1,,,,,クロス,0
690,3120001284131,新規,0,2026-02-13,2026-02-13,株式会社ｙｔａｎ,,株式会社,大阪府,大阪市中央区,南船場３丁目２番２２号おおきに南船場ビル２０５,,27,128,5420081,,,,,,,2026-02-13,1,,,,,ワイタン,0
691,3120001284148,新規,0,2026-02-13,2026-02-13,株式会社キャストサービス,,株式会社,大阪府,大阪市東成区,東小橋１丁目１５－２オフィスＴ＆Ｍ３０２号室,,27,115,5370024,,,,,,,2026-02-13,1,,,,,キャストサービス,0
692,3120003031878,新規,0,2026-02-13,2026-02-13,合同会社和誠,,合同会社,大阪府,大阪市北区,梅田１丁目２番２号大阪駅前第２ビル１２－１２,,27,127,5300001,,,,,,,2026-02-13,1,,,,,ワセイ,0
693,3120003031894,新規,0,2026-02-13,2026-02-13,Ｏｆｆｉｃｅ　Ｉ合同会社,,合同会社,大阪府,大阪市浪速区,難波中３丁目６番３号,,27,111,5560011,,,,,,,2026-02-13,1,,,,,オフィスアイ,0
694,3120005025416,新規,0,2026-02-13,2026-02-13,一般社団法人Ｒ・ＡＳＫ２１,,その他の設立登記法人,大阪府,大阪市北区,梅田３丁目２番２号,,27,127,5300001,,,,,,,2026-02-13,1,,,,,アールエーエスケートゥエンティワン,0
695,3120101073194,新規,0,2026-02-13,2026-02-13,株式会社ＮＴＳ　Ｇｕａｒｄ,,株式会社,大阪府,富田林市,向陽台１丁目３番１２号,,27,214,5840082,,,,,,,2026-02-13,1,,,,,エヌティーエスガード,0
697,3120103006986,新規,0,2026-02-13,2026-02-13,合同会社ＭｉｒＯ‐Ｑ,,合同会社,大阪府,堺市北区,百舌鳥本町１丁１８番地１,,27,146,5918036,,,,,,,2026-02-13,1,,,,,ミロク,0
701,3130001081593,新規,0,2026-02-13,2026-02-13,株式会社ロマンファーム,,株式会社,京都府,京都市山科区,大塚北溝町３０番地,,26,110,6078134,,,,,,,2026-02-13,1,,,,,ロマンファーム,0
702,3130001081602,新規,0,2026-02-13,2026-02-13,燈和商会株式会社,,株式会社,京都府,宇治市,五ケ庄福角３０番地１７,,26,204,6110011,,,,,,,2026-02-13,1,,,,,トウワショウカイ,0
703,3130001081610,新規,0,2026-02-13,2026-02-13,株式会社ＢＡインテグレーション,,株式会社,京都府,京都市下京区,烏丸通仏光寺下る大政所町６８０番地１第八長谷ビル２Ｆ,,26,106,6008413,,,,,,,2026-02-13,1,,,,,ビーエーインテグレーション,0
704,3130001081627,新規,0,2026-02-13,2026-02-13,株式会社ＢＬＡＮＣＯ,,株式会社,京都府,京都市東山区,富永町１４１番地,,26,105,6050078,,,,,,,2026-02-13,1,,,,,ブランコ,0
705,3130003011152,新規,0,2026-02-13,2026-02-13,ＫＲＯＦＴ合同会社,,合同会社,京都府,京都市右京区,太秦安井松本町１５番地１ローレルコート京都太秦天神川４１６,,26,108,6168085,,,,,,,2026-02-13,1,,,,,クロフト,0
706,3130005017585,新規,0,2026-02-13,2026-02-13,一般社団法人正雀耳鼻咽喉科,,その他の設立登記法人,京都府,向日市,寺戸町小佃５番地の１グランマークシティ東向日駅前３１４号,,26,208,6170002,,,,,,,2026-02-13,1,,,,,ショウジャクジビインコウカ,0
710,3140001141727,新規,0,2026-02-13,2026-02-13,敷津西Ｂ株式会社,,株式会社,兵庫県,尼崎市,東園田町９丁目１５番地の２,,28,202,6610953,,,,,,,2026-02-13,1,,,,,シキツニシビー,0
711,3140001141743,新規,0,2026-02-13,2026-02-13,株式会社オクコシ,,株式会社,兵庫県,芦屋市,翠ケ丘町３番２７－３０２号,,28,206,6590014,,,,,,,2026-02-13,1,,,,,オクコシ,0
723,3170003002387,新規,0,2026-02-13,2026-02-13,合同会社Ｎｏｅｌ,,合同会社,和歌山県,和歌山市,榎原１３９番地８,,30,201,6408434,,,,,,,2026-02-13,1,,,,,ノエル,0
735,3180001170631,新規,0,2026-02-13,2026-02-13,株式会社ピア企画,,株式会社,愛知県,名古屋市中区,丸の内１丁目７番６号,,23,106,4600002,,,,,,,2026-02-13,1,,,,,ピアキカク,0
736,3180001170648,新規,0,2026-02-13,2026-02-13,クリカン株式会社,,株式会社,愛知県,名古屋市西区,こも原町１９７,,23,104,4520824,,,,,,,2026-02-13,1,,,,,クリカン,0
737,3180001170656,新規,0,2026-02-13,2026-02-13,株式会社辻本会計コンサルティング,00142560,株式会社,愛知県,一宮市,大和町苅安賀字山王１２番地１,,23,203,4910934,,,,,,,2026-02-13,1,,,,,ツジモトカイケイコンサルティング,0
738,3180001170664,新規,0,2026-02-13,2026-02-13,アイチームラボ株式会社,,株式会社,愛知県,名古屋市天白区,原２丁目２０２番地びい６植田６０６号,,23,116,4680015,,,,,,,2026-02-13,1,,,,,アイチームラボ,0
739,3180001170680,新規,0,2026-02-13,2026-02-13,株式会社Ｂｅｙｏｎｄ,,株式会社,愛知県,海部郡蟹江町,大字西之森字海山３０８番地,,23,425,4970052,,,,,,,2026-02-13,1,,,,,ビヨンド,0
746,3180003029768,新規,0,2026-02-13,2026-02-13,合同会社シュン幸,,合同会社,愛知県,日進市,藤島町長塚１５番地８,00142568,23,230,4700102,,,,,,,2026-02-13,1,,,,,シュンコウ,0
747,3180005021426,新規,0,2026-02-13,2026-02-13,一般社団法人日本ＡＩ人材育成機構,,その他の設立登記法人,愛知県,名古屋市中村区,平池町４丁目６０番地の５ロイヤルパークスＥＲささしま１３３１号,,23,105,4530872,,,,,,,2026-02-13,1,,,,,ニホンエーアイジンザイイクセイキコウ,0
781,3290805009907,新規,0,2026-02-13,2026-02-13,一般社団法人ひまわり地域文化協議会,,その他の設立登記法人,福岡県,北九州市小倉南区,長行西３丁目２０番１２号,,40,107,8030272,,,,,,,2026-02-13,1,,,,,ヒマワリチイキブンカキョウギカイ,0
783,3300001014511,新規,0,2026-02-13,2026-02-13,Ｎコーポレーション株式会社,,株式会社,佐賀県,佐賀市,兵庫町大字渕１３２６番地７,,41,201,8490913,,,,,,,2026-02-13,1,,,,,エヌコーポレーション,0
791,3320003004896,新規,0,2026-02-13,2026-02-13,合同会社Ｌｉｅｎ,,合同会社,大分県,別府市,上原町１１番３０号,,44,202,8740829,,,,,,,2026-02-13,1,,,,,リアン,0
811,3430001096248,新規,0,2026-02-13,2026-02-13,株式会社ＢＥＬＩＥＶＥ,,株式会社,北海道,札幌市手稲区,手稲前田４９８番１２,,01,109,0060829,,,,,,,2026-02-13,1,,,,,ビリーヴ,0
816,3500001026783,新規,0,2026-02-13,2026-02-13,オカダパール株式会社,,株式会社,愛媛県,宇和島市,津島町柿之浦６９９番地２,,38,203,7983338,,,,,,,2026-02-13,1,,,,,,0
817,3700150134409,新規,0,2026-02-13,2026-02-13,Ｓｕｐｅｒｓｏｎｉｃ　Ａｖｉａｔｉｏｎ　ＡＯＥ　ＩＩ　Ｌｉｍｉｔｅｄ,00142563,外国会社等,,,,,,,,Ｓｕｉｔｅ　３１５，Ａｉｒｐｏｒｔ　Ｈｏｕｓｅ，Ｓｈａｎｎｏｎ，ＣＬＡＲＥ，Ｉｒｅｌａｎｄ，Ｖ１４　Ｅ３７０,,,,,,2026-02-13,1,,,,,スーパーソニツクアビエーシヨンエーオーイーツーリミテツド,0
827,4010001262840,新規,0,2026-02-13,2026-02-13,ＦＯＲＴＥＳ　Ｊａｐａｎ株式会社,,株式会社,東京都,千代田区,丸の内１丁目９番２号,,13,101,1000005,,,,,,,2026-02-13,1,,,,,フォルテスジャパン,0
829,4010003050327,新規,0,2026-02-13,2026-02-13,たまむしや合同会社,,合同会社,東京都,中央区,日本橋本町３丁目３番６号ワカ末ビル７階,,13,102,1030023,,,,,,,2026-02-13,1,,,,,タマムシヤ,0
830,4010003050392,新規,0,2026-02-13,2026-02-13,合同会社ＳａｎｉｔａｓＩ,,合同会社,東京都,千代田区,丸の内１丁目４番１号東京共同会計事務所内,,13,101,1000005,,,,,,,2026-02-13,1,,,,,サニタスワン,0
831,4010103002756,新規,0,2026-02-13,2026-02-13,ＳＯＬＡＲ　ＧＡＲＤＥＮ　ＪＡＰＡＮ合同会社,,合同会社,東京都,八王子市,子安町１丁目４８－９共立リライアンス２０２号室,,13,201,1920904,,,,,,,2026-02-13,1,,,,,ソーラーガーデンジャパン,0
835,4010401196374,新規,0,2026-02-13,2026-02-13,株式会社ＰＨＹＴＯＳ,,株式会社,東京都,港区,南青山１丁目１５番２号南青山スタジオフラット２０３号室,,13,103,1070062,,,,,,,2026-02-13,1,,,,,フィトス,0
836,4010401196507,新規,0,2026-02-13,2026-02-13,株式会社Ｌｉｎｘｐｅｃｔ,,株式会社,東京都,港区,港南４丁目６番５－４００４号,,13,103,1080075,,,,,,,2026-02-13,1,,,,,リンクスペクト,0
837,4010401196548,新規,0,2026-02-13,2026-02-13,ドングリＨｏｌｄｉｎｇｓ株式会社,,株式会社,東京都,港区,六本木４丁目３番１１号六本木ユニハウス２２３,,13,103,1060032,,,,,,,2026-02-13,1,,,,,ドングリホールディングス,0
845,4010403037287,新規,0,2026-02-13,2026-02-13,ＭＫＭエアワークス合同会社,,合同会社,東京都,港区,浜松町２丁目２番１５号浜松町ダイヤビル２Ｆ,,13,103,1050013,,,,,,,2026-02-13,1,,,,,エムケーエムエアワークス,0
857,4010805003242,新規,0,2026-02-13,2026-02-13,学校法人山王台佐藤学園,,その他の設立登記法人,東京都,大田区,南馬込２丁目２５番１１号,,13,111,1430025,,,,,,,2026-02-13,1,,,,,サンノウダイサトウガクエン,0
859,4010901058958,新規,0,2026-02-13,2026-02-13,株式会社東門,,株式会社,東京都,世田谷区,成城３丁目１５番１号フォレストコート３０４,,13,112,1570066,,,,,,,2026-02-13,1,,,,,トウモン,0
869,4011001175405,新規,0,2026-02-13,2026-02-13,株式会社Ｌｕｍｉｎｏｕｓ,,株式会社,東京都,目黒区,下目黒２丁目１１番５号２０２,,13,110,1530064,,,,,,,2026-02-13,1,,,,,ルミナス,0
870,4011001175421,新規,0,2026-02-13,2026-02-13,ＳＨメゾンリンクス株式会社,,株式会社,東京都,渋谷区,代々木２丁目１番１号,,13,113,1510053,,,,,,,2026-02-13,1,,,,,エスエイチメゾンリンクス,0
871,4011001175504,新規,0,2026-02-13,2026-02-13,株式会社Ｓｏｕｎｄ　Ｌａｂｂｉｔ　Ｔｅｃｈｎｏｌｏｇｙ,,株式会社,東京都,渋谷区,道玄坂１丁目１０番８号渋谷道玄坂東急ビル２Ｆ－Ｃ,,13,113,1500043,,,,,,,2026-02-13,1,,,,,サウンドラビットテクノロジー,0
872,4011001175669,新規,0,2026-02-13,2026-02-13,株式会社ＲＥＢＩＲ　ＧＲＯＵＰ,,株式会社,東京都,渋谷区,道玄坂１丁目１６番６号,,13,113,1500043,,,,,,,2026-02-13,1,,,,,リビルグループ,0
873,4011003023553,新規,0,2026-02-13,2026-02-13,Ｈｕｂａ合同会社,,合同会社,東京都,渋谷区,道玄坂１丁目１０番８号渋谷道玄坂東急ビル２Ｆ－Ｃ,,13,113,1500043,,,,,,,2026-02-13,1,,,,,ヒューバ,0
879,4011105011737,新規,0,2026-02-13,2026-02-13,ソーラージオホールディングス一般社団法人,,その他の設立登記法人,東京都,新宿区,富久町８番２６号東京ユナイテッド綜合事務所内,,13,104,1620067,,,,,,,2026-02-13,1,,,,,ソーラージオホールディングス,0
880,4011201026960,新規,0,2026-02-13,2026-02-13,株式会社趣命,,株式会社,東京都,中野区,弥生町４丁目２３番１号,,13,114,1640013,,,,,,,2026-02-13,1,,,,,シュメイ,0
884,4011501033095,新規,0,2026-02-13,2026-02-13,株式会社ＳＷ　ＧＲＯＵＰ,,株式会社,東京都,荒川区,南千住４丁目７番３号,,13,118,1160003,,,,,,,2026-02-13,1,,,,,エスダブリューグループ,0
885,4011701029174,新規,0,2026-02-13,2026-02-13,株式会社ＳＥＴＴＥ　ＭＡＲＥ,,株式会社,東京都,江戸川区,北小岩１丁目６番９号,,13,123,1330051,,,,,,,2026-02-13,1,,,,,セッテマーレ,0
892,4012301014715,新規,0,2026-02-13,2026-02-13,株式会社ＪＩＮＹＵメディカルサポート,,株式会社,東京都,町田市,山崎町３３７番地２,,13,209,1950074,,,,,,,2026-02-13,1,,,,,ジンユウメディカルサポート,0
899,4013301055724,新規,0,2026-02-13,2026-02-13,株式会社Ｎ　ＦＥＬＩＳ,,株式会社,東京都,豊島区,東池袋２丁目６０番１２－１０１号,,13,116,1700013,,,,,,,2026-02-13,1,,,,,エヌフェリス,0
900,4013301055740,新規,0,2026-02-13,2026-02-13,株式会社ｄｒａｗＭ,,株式会社,東京都,豊島区,池袋１丁目２番６号,,13,116,1700014,,,,,,,2026-02-13,1,,,,,ドローム,0
903,4020003030336,新規,0,2026-02-13,2026-02-13,ネイク合同会社,,合同会社,神奈川県,川崎市宮前区,菅生４丁目７番２２－２号,,14,136,2160015,,,,,,,2026-02-13,1,,,,,ネイク,0
904,4020003030369,新規,0,2026-02-13,2026-02-13,合同会社月霜工房,,合同会社,神奈川県,横浜市緑区,白山４丁目８番２２号,,14,113,2260006,,,,,,,2026-02-13,1,,,,,ツキシモコウボウ,0
905,4020003030402,新規,0,2026-02-13,2026-02-13,合同会社Ｎ,,合同会社,神奈川県,川崎市高津区,千年６２６グラシア３０５,,14,134,2130022,,,,,,,2026-02-13,1,,,,,エヌ,0
907,4021001087509,新規,0,2026-02-13,2026-02-13,ティーエスワイヤリング株式会社,,株式会社,神奈川県,相模原市中央区,田名塩田３丁目１９番４号,,14,152,2520245,,,,,,,2026-02-13,1,,,,,ティーエスワイヤリング,0
909,4021005013535,新規,0,2026-02-13,2026-02-13,一般社団法人葉山ビレッジ,,その他の設立登記法人,神奈川県,相模原市緑区,葉山島６０４番地１,,14,151,2520114,,,,,,,2026-02-13,1,,,,,ハヤマビレッジ,0
914,4030001170983,新規,0,2026-02-13,2026-02-13,株式会社キャリーライク,,株式会社,埼玉県,三郷市,高州２丁目５７番地１アルカンシエル１０２,,11,237,3410037,,,,,,,2026-02-13,1,,,,,キャリーライク,0
915,4030001171016,新規,0,2026-02-13,2026-02-13,株式会社イノバーク,,株式会社,埼玉県,さいたま市大宮区,吉敷町１丁目９２－３松ビル１８－４階,,11,103,3300843,,,,,,,2026-02-13,1,,,,,イノバーク,0
920,4040001142478,新規,0,2026-02-13,2026-02-13,株式会社敦賀屋,,株式会社,千葉県,市川市,欠真間１丁目１３番６号後藤ビル３０１,,12,203,2720142,,,,,,,2026-02-13,1,,,,,ツルガヤ,0
924,4040003029434,新規,0,2026-02-13,2026-02-13,合同会社グレイス,,合同会社,千葉県,習志野市,津田沼４丁目１１－８－３０９号,,12,216,2750016,,,,,,,2026-02-13,1,,,,,グレイス,0
925,4040005023047,新規,0,2026-02-13,2026-02-13,一般社団法人ＵＧＥＮ,,その他の設立登記法人,千葉県,松戸市,本町１７－１１芹澤ビル６Ｆ,,12,207,2710091,,,,,,,2026-02-13,1,,,,,ユーゲン,0
934,4080401028439,新規,0,2026-02-13,2026-02-13,株式会社福祉の仁,,株式会社,静岡県,浜松市中央区,金折町４５８番地の１,,22,138,4350026,,,,,,,2026-02-13,1,,,,,フクシノヒトシ,0
940,4090003002989,新規,0,2026-02-13,2026-02-13,あとｘ年で廃業する合同会社,,合同会社,山梨県,甲府市,長松寺町７－１３サンマリーナ長松寺３０２,,19,201,4000067,,,,,,,2026-02-13,1,,,,,アトエックスネンデハイギョウスル,0
949,4110001039898,新規,0,2026-02-13,2026-02-13,株式会社シーリンクス,,株式会社,新潟県,新潟市北区,笹山１５２６番地１,,15,101,9503301,,,,,,,2026-02-13,1,,,,,シーリンクス,0
962,4120001284064,新規,0,2026-02-13,2026-02-13,ＢＬ不動産株式会社,,株式会社,大阪府,大阪市北区,堂島２丁目４番２７号,,27,127,5300003,,,,,,,2026-02-13,1,,,,,ビーエルフドウサン,0
963,4120001284072,新規,0,2026-02-13,2026-02-13,山本石油株式会社,,株式会社,大阪府,枚方市,山之上１丁目１番１０号,,27,210,5730047,,,,,,,2026-02-13,1,,,,,ヤマモトセキユ,0
964,4120001284097,新規,0,2026-02-13,2026-02-13,株式会社エターナルホスピタリティ開発,,株式会社,大阪府,大阪市浪速区,立葉１丁目２番１２号,,27,111,5560020,,,,,,,2026-02-13,1,,,,,エターナルホスピタリティカイハツ,0
965,4120001284106,新規,0,2026-02-13,2026-02-13,聖旺株式会社,,株式会社,大阪府,大阪市都島区,高倉町２丁目３－１１Ｑｕｎｓｉビル３０１号,,27,102,5340011,,,,,,,2026-02-13,1,,,,,セイオウ,0
966,4120001284139,新規,0,2026-02-13,2026-02-13,竹田株式会社,,株式会社,大阪府,大阪市東淀川区,菅原４丁目１１－２１ビスタ新庄ハイツ３－５０５,,27,114,5330022,,,,,,,2026-02-13,1,,,,,タケダ,0
971,4120003031893,新規,0,2026-02-13,2026-02-13,合同会社Ｎ,,合同会社,大阪府,大阪市浪速区,難波中３丁目６番３号,,27,111,5560011,,,,,,,2026-02-13,1,,,,,エヌ,0
972,4120003031902,新規,0,2026-02-13,2026-02-13,Ｓｐｈｅｒｅ　Ｌａｂ合同会社,,合同会社,大阪府,大阪市北区,梅田１丁目１番３号大阪駅前第３ビル１１階２号室,,27,127,5300001,,,,,,,2026-02-13,1,,,,,スフィアラボ,0
975,4120005025398,新規,0,2026-02-13,2026-02-13,社会保険労務士法人ＬＥＸＹ,,その他の設立登記法人,大阪府,大阪市中央区,内平野町１丁目３番１２号,,27,128,5400037,,,,,,,2026-02-13,1,,,,,レクシー,0
977,4120101073169,新規,0,2026-02-13,2026-02-13,株式会社ジャーニクス,,株式会社,大阪府,高石市,東羽衣６丁目２１番１５号,,27,225,5920003,,,,,,,2026-02-13,1,,,,,ジャーニクス,0
978,4120101073185,新規,0,2026-02-13,2026-02-13,ほけんのＡｃｅ株式会社,,株式会社,大阪府,岸和田市,上野町西１１番１９号,,27,202,5960048,,,,,,,2026-02-13,1,,,,,ホケンノエース,0
980,4120903006086,新規,0,2026-02-13,2026-02-13,Ｇｅｅｋ．ｃｏｒｐｏｒａｔｉｏｎ合同会社,,合同会社,大阪府,高槻市,日吉台一番町７番２４号,,27,207,5691022,,,,,,,2026-02-13,1,,,,,ギークコーポレーション,0
982,4122003003451,新規,0,2026-02-13,2026-02-13,合同会社やまと,,合同会社,大阪府,東大阪市,弥生町６－４サクラシャイン３０６,,27,227,5798026,,,,,,,2026-02-13,1,,,,,ヤマト,0
985,4130001081584,新規,0,2026-02-13,2026-02-13,シグネチャー京都株式会社,,株式会社,京都府,京都市下京区,七条御所ノ内北町６４番地１１,,26,106,6008861,,,,,,,2026-02-13,1,,,,,シグネチャーキョウト,0
986,4130001081601,新規,0,2026-02-13,2026-02-13,株式会社東和束碾茶,,株式会社,京都府,相楽郡和束町,大字原山小字中尾７８番地の２,,26,365,6191202,,,,,,,2026-02-13,1,,,,,ヒガシワヅカテンチャ,0
991,4140001141684,新規,0,2026-02-13,2026-02-13,オフィス３１０株式会社,,株式会社,兵庫県,姫路市,花田町加納原田８７１番地７,,28,201,6710252,,,,,,,2026-02-13,1,,,,,オフィススリーテン,0
992,4140001141742,新規,0,2026-02-13,2026-02-13,翼興産株式会社,,株式会社,兵庫県,神戸市長田区,西尻池町１丁目３番３７号Ｏ・Ｍ・ＩＢＬＤＧ４Ｆ,,28,106,6530031,,,,,,,2026-02-13,1,,,,,ツバサコウサン,0
993,4140001141767,新規,0,2026-02-13,2026-02-13,株式会社サカナアライブ,,株式会社,兵庫県,西宮市,大井手町６番２６号,,28,204,6620036,,,,,,,2026-02-13,1,,,,,サカナアライブ,0
995,4170003002386,新規,0,2026-02-13,2026-02-13,合同会社ＴＡＫＡＨＡ,,合同会社,和歌山県,和歌山市,井辺１４４番地１１３,,30,201,6408302,,,,,,,2026-02-13,1,,,,,タカハ,0
1005,4180001170498,新規,0,2026-02-13,2026-02-13,株式会社ＴＯＫＵＳＨＩＧＥ,,株式会社,愛知県,名古屋市緑区,黒沢台４丁目１５１１番地鳴海プラザ２Ｆ,,23,114,4580003,,,,,,,2026-02-13,1,,,,,トクシゲ,0
1006,4180001170589,新規,0,2026-02-13,2026-02-13,株式会社桜の咲１９,,株式会社,愛知県,名古屋市名東区,猪子石原３丁目８０７番地,,23,115,4650008,,,,,,,2026-02-13,1,,,,,サクラノサクイチキュー,0
1007,4180001170622,新規,0,2026-02-13,2026-02-13,株式会社アドーズ,,株式会社,愛知県,名古屋市中村区,名駅５丁目３番８号５階,,23,105,4500002,,,,,,,2026-02-13,1,,,,,アドーズ,0
1008,4180001170647,新規,0,2026-02-13,2026-02-13,株式会社望夢,,株式会社,愛知県,名古屋市港区,野跡２丁目２番７号シティコーポ野跡７０３号,,23,111,4550845,,,,,,,2026-02-13,1,,,,,ノゾム,0
1009,4180001170655,新規,0,2026-02-13,2026-02-13,株式会社ＢＡＣＫＳＴＧ,,株式会社,愛知県,名古屋市西区,花の木３丁目３番１６号－２,,23,104,4510062,,,,,,,2026-02-13,1,,,,,バックステージ,0
1026,4260003005512,新規,0,2026-02-13,2026-02-13,ココアラボ合同会社,,合同会社,岡山県,岡山市東区,吉井３６５番地１,,33,103,7090601,,,,,,,2026-02-13,1,,,,,ココアラボ,0
1031,4290001113149,新規,0,2026-02-13,2026-02-13,ｓｔｏｃａｒｓ．ｊｐ株式会社,,株式会社,福岡県,福岡市中央区,天神４丁目６－２８いちご天神ノースビル７階,,40,133,8100001,,,,,,,2026-02-13,1,,,,,,0
1033,4290003018057,新規,0,2026-02-13,2026-02-13,合同会社鋼和テック,,合同会社,福岡県,太宰府市,大佐野３丁目１９番１５号,,40,221,8180134,,,,,,,2026-02-13,1,,,,,コウワテック,0
1035,4290005020003,新規,0,2026-02-13,2026-02-13,司法書士法人あさひ合同事務所,,その他の設立登記法人,福岡県,福岡市中央区,長浜２丁目４番１号,,40,133,8100072,,,,,,,2026-02-13,1,,,,,アサヒゴウドウジムショ,0
1037,4300001014510,新規,0,2026-02-13,2026-02-13,株式会社ｃｏｃｏｔｔｅ,,株式会社,佐賀県,三養基郡みやき町,大字原古賀５３９番地１,,41,346,8490101,,,,,,,2026-02-13,1,,,,,ココット,0
1039,4310001019962,新規,0,2026-02-13,2026-02-13,ＮＥＥＤ株式会社,,株式会社,長崎県,佐世保市,折橋町２４番３２号,,42,202,8570021,,,,,,,2026-02-13,1,,,,,ニード,0
1050,4340005009940,新規,0,2026-02-13,2026-02-13,一般社団法人鹿児島県ユニバーサルツーリズム協会,,その他の設立登記法人,鹿児島県,鹿児島市,新屋敷町１６鹿児島県住宅供給公社ビル１－１,,46,201,8920838,,,,,,,2026-02-13,1,,,,,カゴシマケンユニバーサルツーリズムキョウカイ,0
1054,4360001036375,新規,0,2026-02-13,2026-02-13,株式会社優ペイント工業,,株式会社,沖縄県,宜野湾市,真栄原１丁目１４番１１号コーポ伊波１０２,,47,205,9012215,,,,,,,2026-02-13,1,,,,,ユウペイントコウギョウ,0
1057,4370003007472,新規,0,2026-02-13,2026-02-13,合同会社Ｓｉｎｃｅｒｅ　Ｂａｓｅｂａｌｌ,,合同会社,宮城県,仙台市泉区,西田中字山崎３番地の３,,04,105,9813224,,,,,,,2026-02-13,1,,,,,シンセアベースボール,0
1061,4380001035870,新規,0,2026-02-13,2026-02-13,株式会社ヒロマサ企画,,株式会社,福島県,福島市,南矢野目字徳元田北６番地の９－２階,,07,201,9600112,,,,,,,2026-02-13,1,,,,,ヒロマサキカク,0
1064,4400001017321,新規,0,2026-02-13,2026-02-13,株式会社アットホーム舎,,株式会社,岩手県,陸前高田市,高田町字洞の沢１０４番地１５,,03,210,0292205,,,,,,,2026-02-13,1,,,,,アットホームシャ,0
1067,4410001014391,新規,0,2026-02-13,2026-02-13,Ｔｅｉｇｏｎホールディングス株式会社,,株式会社,秋田県,男鹿市,五里合箱井字出ケ沢１１８番地,,05,206,0100351,,,,,,,2026-02-13,1,,,,,テイゴンホールディングス,0
1070,4430001096206,新規,0,2026-02-13,2026-02-13,成田鋼材株式会社,,株式会社,北海道,石狩市,新港西３丁目７４８番地１,,01,235,0613241,,,,,,,2026-02-13,1,,,,,ナリタコウザイ,0
1071,4430001096263,新規,0,2026-02-13,2026-02-13,株式会社ＬＭｕｓｕｂｉ,,株式会社,北海道,札幌市北区,北二十一条西１２丁目２,,01,102,0010021,,,,,,,2026-02-13,1,,,,,エルムスビ,0
1075,4430003018587,新規,0,2026-02-13,2026-02-13,合同会社ＴＯＲＣＨ,,合同会社,北海道,札幌市南区,川沿八条３丁目６番３７号,,01,106,0050808,,,,,,,2026-02-13,1,,,,,トーチ,0
1080,4500001026782,新規,0,2026-02-13,2026-02-13,株式会社オカダ,,株式会社,愛媛県,宇和島市,津島町柿之浦６９９番地２,,38,203,7983338,,,,,,,2026-02-13,1,,,,,,0
1081,4500003003672,新規,0,2026-02-13,2026-02-13,合同会社Ｔｉｔａｎ,,合同会社,愛媛県,松山市,東山町１２番７号,,38,201,7918074,,,,,,,2026-02-13,1,,,,,タイタン,0
1091,5010003050318,新規,0,2026-02-13,2026-02-13,グランビアパートナーズ合同会社,,合同会社,東京都,中央区,銀座１丁目１２番４号Ｎ＆ＥＢＬＤ．６Ｆ,,13,102,1040061,,,,,,,2026-02-13,1,,,,,グランビアパートナーズ,0
1095,5010105002357,新規,0,2026-02-13,2026-02-13,一般社団法人Ｂｏｄｙ　Ｓｙｎｅｒｇｙ　Ｊａｐａｎ,,その他の設立登記法人,東京都,八王子市,南大沢５丁目１７番地２－２０４,,13,201,1920364,,,,,,,2026-02-13,1,,,,,ボディーシナジージャパン,0
1107,5010401195565,新規,0,2026-02-13,2026-02-13,株式会社ＭｅｄｉｃａｌＳｔｒａｔｅｇｙ＆Ｉｎｎｏｖａｔｉｏｎ,,株式会社,東京都,港区,六本木３丁目１６番１２号六本木ＫＳビル５Ｆ,,13,103,1060032,,,,,,,2026-02-13,1,,,,,メディカルストラテジーアンドイノベーション,0
1108,5010401196282,新規,0,2026-02-13,2026-02-13,株式会社Ｌｅ　Ｓｅｕｌ,,株式会社,東京都,港区,六本木４丁目２番１４号六本木三河台スクエア３階,,13,103,1060032,,,,,,,2026-02-13,1,,,,,ルスル,0
1110,5010403037328,新規,0,2026-02-13,2026-02-13,ＴＭ合同会社,,合同会社,東京都,港区,六本木３丁目１６番１２号六本木ＫＳビル５Ｆ,,13,103,1060032,,,,,,,2026-02-13,1,,,,,ティーエム,0
1143,5011001175395,新規,0,2026-02-13,2026-02-13,株式会社ＮＥＸＴ　ＣＲＯＷＮ,,株式会社,東京都,渋谷区,広尾１丁目２番地１号ヒカリビル４階,,13,113,1500012,,,,,,,2026-02-13,1,,,,,ネクストクラウン,0
1144,5011001175404,新規,0,2026-02-13,2026-02-13,株式会社タートルプラス,,株式会社,東京都,目黒区,上目黒２丁目２６番２－２０３号ヴィラ・ハーモニー中目黒,,13,110,1530051,,,,,,,2026-02-13,1,,,,,タートルプラス,0
1145,5011001175412,新規,0,2026-02-13,2026-02-13,株式会社ＩＲＯＤＯＲＩ,,株式会社,東京都,渋谷区,渋谷１丁目２３番２０号,,13,113,1500002,,,,,,,2026-02-13,1,,,,,イロドリ,0
1146,5011001175619,新規,0,2026-02-13,2026-02-13,株式会社メンテナンスファクトリー恵比寿,,株式会社,東京都,渋谷区,恵比寿４丁目２０番３号,,13,113,1500013,,,,,,,2026-02-13,1,,,,,メンテナンスファクトリーエビス,0
1147,5011001175635,新規,0,2026-02-13,2026-02-13,株式会社ＳＣＥＮＴ,,株式会社,東京都,渋谷区,神宮前３丁目７番１１号若木ビル１階,,13,113,1500001,,,,,,,2026-02-13,1,,,,,セント,0
1152,5011101114716,新規,0,2026-02-13,2026-02-13,株式会社ＨＩＭＡＷＡＲＥ,,株式会社,東京都,新宿区,西新宿３丁目３番１３号西新宿水間ビル６階,,13,104,1600023,,,,,,,2026-02-13,1,,,,,ヒマワレ,0
1160,5011501033061,新規,0,2026-02-13,2026-02-13,ＲＩＳＩＮＧ　ＯＮＥ株式会社,,株式会社,東京都,荒川区,南千住８丁目６番１－４０４号,,13,118,1160003,,,,,,,2026-02-13,1,,,,,ライジングワン,0
1163,5012301014714,新規,0,2026-02-13,2026-02-13,株式会社ルアナ,,株式会社,東京都,町田市,鶴間２丁目４番地１,,13,209,1940004,,,,,,,2026-02-13,1,,,,,ルアナ,0
1169,5013101009929,新規,0,2026-02-13,2026-02-13,株式会社竜成,,株式会社,東京都,羽村市,神明台３丁目１８番地１９,,13,227,2050023,,,,,,,2026-02-13,1,,,,,リュウセイ,0
1175,5020001167006,新規,0,2026-02-13,2026-02-13,株式会社ナナミ・プランニング,,株式会社,神奈川県,横浜市金沢区,能見台東１１番９－６０８号,,14,108,2360058,,,,,,,2026-02-13,1,,,,,ナナミプランニング,0
1176,5020001167022,新規,0,2026-02-13,2026-02-13,株式会社ｎｏｍｕｓ,,株式会社,神奈川県,横浜市港北区,高田西４丁目２９番７－Ａ５０３号,,14,109,2230066,,,,,,,2026-02-13,1,,,,,ノームス,0
1177,5020001167039,新規,0,2026-02-13,2026-02-13,株式会社益ロジ,,株式会社,神奈川県,横浜市都筑区,富士見が丘１５番２号,,14,118,2240051,,,,,,,2026-02-13,1,,,,,マスロジ,0
1178,5020001167063,新規,0,2026-02-13,2026-02-13,株式会社黒潮,,株式会社,神奈川県,川崎市多摩区,生田８丁目１４番地５号,,14,135,2140038,,,,,,,2026-02-13,1,,,,,クロシオ,0
1182,5020003030319,新規,0,2026-02-13,2026-02-13,ＫＹＭガスライフサービス合同会社,,合同会社,神奈川県,横浜市港北区,新吉田東６丁目４３番３８号,,14,109,2230058,,,,,,,2026-02-13,1,,,,,ケイワイエムガスライフサービス,0
1184,5021001087508,新規,0,2026-02-13,2026-02-13,株式会社ｅｕｎｏｅ,,株式会社,神奈川県,三浦市,南下浦町上宮田３４９４－８,,14,210,2380101,,,,,,,2026-02-13,1,,,,,エウノエ,0
1185,5021003017140,新規,0,2026-02-13,2026-02-13,合同会社エストラスト,,合同会社,神奈川県,綾瀬市,寺尾中４丁目１９番２４号,,14,218,2521132,,,,,,,2026-02-13,1,,,,,エストラスト,0
1192,5030001170966,新規,0,2026-02-13,2026-02-13,株式会社逢つむぐ,,株式会社,埼玉県,さいたま市大宮区,堀の内町３丁目３８５番地７,,11,103,3300804,,,,,,,2026-02-13,1,,,,,アイツムグ,0
1193,5030001170999,新規,0,2026-02-13,2026-02-13,四つ葉株式会社,,株式会社,埼玉県,春日部市,上蛭田１２４番地４ＮｅＳＴ豊春Ｂ号室,,11,214,3440046,,,,,,,2026-02-13,1,,,,,ヨツバ,0
1194,5030001171007,新規,0,2026-02-13,2026-02-13,株式会社レイカンパニー,,株式会社,埼玉県,さいたま市桜区,栄和３丁目２１番２２－１号,,11,106,3380823,,,,,,,2026-02-13,1,,,,,レイカンパニー,0
1195,5030001171023,新規,0,2026-02-13,2026-02-13,株式会社タカヤマ,,株式会社,埼玉県,本庄市,今井３４９番地１,,11,211,3670036,,,,,,,2026-02-13,1,,,,,タカヤマ,0
1200,5030003028568,新規,0,2026-02-13,2026-02-13,合同会社明光,,合同会社,埼玉県,草加市,金明町７８１－３ハイツ森－１０１号,,11,221,3400052,,,,,,,2026-02-13,1,,,,,メイコウ,0
1207,5040003029458,新規,0,2026-02-13,2026-02-13,合同会社縁Ｌｉｆｅサポート,,合同会社,千葉県,鎌ケ谷市,中沢新町５－１－１０１,,12,224,2730119,,,,,,,2026-02-13,1,,,,,エンライフサポート,0
1210,5060001039003,新規,0,2026-02-13,2026-02-13,株式会社Ｆｒｉｅｎｄｓ　Ｆｏｒｅｖｅｒ,,株式会社,栃木県,足利市,小俣町２４２番地７,,09,202,3260141,,,,,,,2026-02-13,1,,,,,フレンズフォーエバー,0
1211,5060005010414,新規,0,2026-02-13,2026-02-13,ＹＹ協同組合,,その他の設立登記法人,栃木県,宇都宮市,台新田町１６１番地,,09,201,3210103,,,,,,,2026-02-13,1,,,,,ワイワイ,0
1212,5070003006297,新規,0,2026-02-13,2026-02-13,合同会社ＹＤＲ,,合同会社,群馬県,太田市,新田反町町６８３－７,,10,205,3700313,,,,,,,2026-02-13,1,,,,,,0
1227,5110005017321,新規,0,2026-02-13,2026-02-13,一般社団法人地方創生・大学間連携プラットフォーム,,その他の設立登記法人,新潟県,柏崎市,大字藤橋１７１９番地,,15,205,9451103,,,,,,,2026-02-13,1,,,,,チホウソウセイダイガクカンレンケイプラットフォーム,0
1236,5120001283998,新規,0,2026-02-13,2026-02-13,株式会社スペクト,,株式会社,大阪府,大阪市天王寺区,細工谷２丁目６番２８号,,27,109,5430032,,,,,,,2026-02-13,1,,,,,スペクト,0
1237,5120001284121,新規,0,2026-02-13,2026-02-13,ＪＯＢＩＺ　ＡＧＥＮＴ株式会社,,株式会社,大阪府,大阪市北区,西天満１丁目７番１２号,,27,127,5300047,,,,,,,2026-02-13,1,,,,,ジョビズエージェント,0
1238,5120001284146,新規,0,2026-02-13,2026-02-13,ＤＵＲＡＳＡＦＥ株式会社,,株式会社,大阪府,大阪市生野区,中川東１丁目１－１２－２０２,,27,116,5440006,,,,,,,2026-02-13,1,,,,,デュラセーフ,0
1239,5120001284204,新規,0,2026-02-13,2026-02-13,株式会社Ｔｏｐｐａ,,株式会社,大阪府,大阪市北区,中津７丁目６番９－４０２号,,27,127,5310071,,,,,,,2026-02-13,1,,,,,トッパ,0
1242,5120003031876,新規,0,2026-02-13,2026-02-13,合同会社バリュークラフト,,合同会社,大阪府,大阪市東淀川区,南江口１丁目１番４１号,,27,114,5330003,,,,,,,2026-02-13,1,,,,,バリュークラフト,0
1243,5120003031892,新規,0,2026-02-13,2026-02-13,合同会社中川企画,,合同会社,大阪府,大阪市北区,菅原町７－１１大作ビル６Ｆ,,27,127,5300046,,,,,,,2026-02-13,1,,,,,ナカガワキカク,0
1244,5120003031901,新規,0,2026-02-13,2026-02-13,合同会社Ｆｒｅｅ　ｂｉｒｄ,,合同会社,大阪府,大阪市東住吉区,田辺２丁目１０番１－５０３号,,27,121,5460031,,,,,,,2026-02-13,1,,,,,フリーバード,0
1246,5120005025414,新規,0,2026-02-13,2026-02-13,一般社団法人地主会,,その他の設立登記法人,大阪府,大阪市中央区,船場中央２丁目３番６号船場センタービル６号館３２５号室,,27,128,5410055,,,,,,,2026-02-13,1,,,,,ジヌシカイ,0
1248,5120101073184,新規,0,2026-02-13,2026-02-13,株式会社ＬＥＡＤ,,株式会社,大阪府,高石市,加茂２丁目２７番１号,,27,225,5920011,,,,,,,2026-02-13,1,,,,,リード,0
1250,5120903006085,新規,0,2026-02-13,2026-02-13,合同会社ｍｏｆｕ,,合同会社,大阪府,池田市,神田１丁目１番１２号Ａ棟,,27,204,5630043,,,,,,,2026-02-13,1,,,,,モフ,0
1252,5122003003459,新規,0,2026-02-13,2026-02-13,Ｂ・Ｗｏｒｋｓ合同会社,,合同会社,大阪府,八尾市,久宝寺３丁目９番２６号,,27,212,5810072,,,,,,,2026-02-13,1,,,,,ビーワークス,0
1255,5130001081583,新規,0,2026-02-13,2026-02-13,みなみ株式会社,,株式会社,京都府,京都市伏見区,桃山最上町６８－１,,26,109,6120054,,,,,,,2026-02-13,1,,,,,ミナミ,0
1256,5130001081591,新規,0,2026-02-13,2026-02-13,株式会社ＫＡＳＨＩＲＯ　ＨＯＬＤＩＮＧＳ,,株式会社,京都府,京都市下京区,河原町通松原上る２丁目富永町３５６番地,,26,106,6008023,,,,,,,2026-02-13,1,,,,,カシロホールディングス,0
1261,5140001141725,新規,0,2026-02-13,2026-02-13,株式会社ヴィス,,株式会社,兵庫県,伊丹市,中央５丁目２－２８－２０２,,28,207,6640851,,,,,,,2026-02-13,1,,,,,ヴィス,0
1263,5140003023203,新規,0,2026-02-13,2026-02-13,合同会社ＲＡＬＬＹＣＨＯＷ,,合同会社,兵庫県,尼崎市,杭瀬本町２丁目２２番１６号,,28,202,6600814,,,,,,,2026-02-13,1,,,,,ラリーチョウ,0
1266,5160003003723,新規,0,2026-02-13,2026-02-13,合同会社イナオコンサルタント,,合同会社,滋賀県,蒲生郡竜王町,大字薬師１１７８番地７６４,,25,384,5202551,,,,,,,2026-02-13,1,,,,,イナオコンサルタント,0
1274,5180003029774,新規,0,2026-02-13,2026-02-13,合同会社ｃａｌｍ,,合同会社,愛知県,名古屋市千種区,鹿子殿１３番３０号マーキスコート鹿子殿２１３,,23,101,4640021,,,,,,,2026-02-13,1,,,,,カーム,0
1294,5290001113148,新規,0,2026-02-13,2026-02-13,株式会社ＭＯＴＵＳ,,株式会社,福岡県,福岡市中央区,薬院３丁目３番２３号ＡＬＡＴＡ薬院５０２,,40,133,8100022,,,,,,,2026-02-13,1,,,,,モータス,0
1297,5290003018048,新規,0,2026-02-13,2026-02-13,Ｍｏｎｅｔｏ　Ｓｐｉｃｅ合同会社,,合同会社,福岡県,糸島市,前原東３丁目６番５７号,,40,230,8191119,,,,,,,2026-02-13,1,,,,,モネトスパイス,0
1298,5290005019993,新規,0,2026-02-13,2026-02-13,一般社団法人粕屋町上大隈区財産管理組合,,その他の設立登記法人,福岡県,糟屋郡粕屋町,大字上大隈３４２番地,,40,349,8112301,,,,,,,2026-02-13,1,,,,,カスヤマチカミオオクマクザイサンカンリクミアイ,0
1312,5330003011436,新規,0,2026-02-13,2026-02-13,Ｓ．Ｋ．Ｍ合同会社,,合同会社,熊本県,山鹿市,川端町４０５番地,,43,208,8610519,,,,,,,2026-02-13,1,,,,,エスケーエム,0
1325,5390001018262,新規,0,2026-02-13,2026-02-13,Ｊａｐａｎ　Ｒｉｃｅ反町株式会社,,株式会社,山形県,村山市,大字大久保甲５９９番地１,,06,208,9950111,,,,,,,2026-02-13,1,,,,,ジャパンライスソリマチ,0
1328,5430001096205,新規,0,2026-02-13,2026-02-13,株式会社ナリタ,,株式会社,北海道,石狩市,花川北六条３丁目１番地８,,01,235,0613216,,,,,,,2026-02-13,1,,,,,ナリタ,0
1329,5430001096254,新規,0,2026-02-13,2026-02-13,株式会社Ｕ‐Ｒｏｔａｓ,,株式会社,北海道,札幌市中央区,南十七条西１３丁目２番７号,,01,101,0640917,,,,,,,2026-02-13,1,,,,,ユーロータス,0
1335,5470001021084,新規,0,2026-02-13,2026-02-13,株式会社ＢｒｅＸ,,株式会社,香川県,小豆郡小豆島町,蒲生甲１４２７番地１,,37,324,7614302,,,,,,,2026-02-13,1,,,,,ブレックス,0
1338,5700150134415,新規,0,2026-02-13,2026-02-13,ＨＯＮＧ　ＫＯＮＧ　Ｔｅａｍｌｉｔ　Ｔｅｃｈｎｏｌｏｇｙ　Ｌｉｍｉｔｅｄ,,外国会社等,,,,,,,,ＲＯＯＭ　Ｂ２５，ＵＮＩＴ　Ａ１９，ＯＮ　ＦＬＯＯＲ　１９，ＷＡＨ　ＬＯＫ　ＩＮＤＵＳＴＲＩＡＬ　ＣＥＮＴＲＥ，ＮＯＳ．３７－４１　ＳＨＡＮ　ＭＥＩ　ＳＴＲＥＥＴ，ＳＨＡＴＩＮ　ＮＥＷ　ＴＥＲＲＩＴＯＲＩＥＳ,,,,,,2026-02-13,1,,,,,ホンコンチームリットテクノロジーリミテッド,0
1341,6010001262475,新規,0,2026-02-13,2026-02-13,株式会社ユウジンプランニング,,株式会社,東京都,千代田区,六番町５－３－３０２,,13,101,1020085,,,,,,,2026-02-13,1,,,,,ユウジンプランニング,0
1342,6010001262640,新規,0,2026-02-13,2026-02-13,アイオーン株式会社,,株式会社,東京都,中央区,銀座１丁目２３－１０グランドガーラ銀座４０２,,13,102,1040061,,,,,,,2026-02-13,1,,,,,アイオーン,0
1343,6010001262780,新規,0,2026-02-13,2026-02-13,株式会社ＭＥＴＬＥＮ　ＪＡＰＡＮ,,株式会社,東京都,千代田区,丸の内１丁目１１番１号パシフィックセンチュリープレイス１３階,,13,101,1000005,,,,,,,2026-02-13,1,,,,,メトレンジャパン,0
1344,6010003050093,新規,0,2026-02-13,2026-02-13,合同会社ＡＬＳＳ,,合同会社,東京都,中央区,銀座１丁目１２番４号Ｎ＆ＥＢＬＤ．６Ｆ,,13,102,1040061,,,,,,,2026-02-13,1,,,,,アレス,0
1345,6010003050325,新規,0,2026-02-13,2026-02-13,プラクティス合同会社,,合同会社,東京都,中央区,銀座７丁目１３番２０号銀座ＴＨビル９階,,13,102,1040061,,,,,,,2026-02-13,1,,,,,プラクティス,0
1353,6010403037269,新規,0,2026-02-13,2026-02-13,合同会社ケイケイエスエイ,,合同会社,東京都,港区,西麻布３丁目４番１号パークハウス西麻布２０７,,13,103,1060031,,,,,,,2026-02-13,1,,,,,ケイケイエスエイ,0
1355,6010405025370,新規,0,2026-02-13,2026-02-13,一般社団法人コーナーストーン,,その他の設立登記法人,東京都,港区,六本木１丁目９番１０号アークヒルズ仙石山森タワー４０階,,13,103,1060032,,,,,,,2026-02-13,1,,,,,コーナーストーン,0
1356,6010501055404,新規,0,2026-02-13,2026-02-13,株式会社ｐｌａｔｙｐｕｓ,,株式会社,東京都,台東区,浅草２丁目２９番１２号,,13,106,1110032,,,,,,,2026-02-13,1,,,,,プラティパス,0
1363,6010801037044,新規,0,2026-02-13,2026-02-13,株式会社ハル・テック,,株式会社,東京都,大田区,中央３丁目７－７,,13,111,1430024,,,,,,,2026-02-13,1,,,,,ハルテック,0
1371,6011001175444,新規,0,2026-02-13,2026-02-13,株式会社スタジオ詩音,,株式会社,東京都,渋谷区,円山町５番３号ＭＩＥＵＸ渋谷ビル８階,,13,113,1500044,,,,,,,2026-02-13,1,,,,,スタジオシオン,0
1377,6011003023519,新規,0,2026-02-13,2026-02-13,ジョイジッパー合同会社,,合同会社,東京都,渋谷区,西原３丁目１８番１号シャンテ代々木上原２０１,,13,113,1510066,,,,,,,2026-02-13,1,,,,,ジョイジッパー,0
1378,6011003023568,新規,0,2026-02-13,2026-02-13,合同会社ＣＵＣＵ,,合同会社,東京都,渋谷区,道玄坂１丁目１０番８号渋谷道玄坂東急ビル２Ｆ－Ｃ,,13,113,1500043,,,,,,,2026-02-13,1,,,,,クク,0
1379,6011003023634,新規,0,2026-02-13,2026-02-13,Ｃｒｅｓｉｇｈｔ　Ｊａｐａｎ合同会社,,合同会社,東京都,渋谷区,神南１丁目１１‐４ＦＰＧリンクス神南５階,,13,113,1500041,,,,,,,2026-02-13,1,,,,,クレサイトジャパン,0
1399,6011101114715,新規,0,2026-02-13,2026-02-13,株式会社Ｉｎｓｐｉｒｅ　Ｕｐ,,株式会社,東京都,新宿区,大久保３丁目２－４チャルテ西早稲田３０２,,13,104,1690072,,,,,,,2026-02-13,1,,,,,インスパイアアップ,0
1400,6011101114723,新規,0,2026-02-13,2026-02-13,株式会社ＴＲＥＮＤＬＩＮＸ,,株式会社,東京都,新宿区,西新宿３丁目３番１３号西新宿水間ビル２Ｆ,,13,104,1600023,,,,,,,2026-02-13,1,,,,,トレンドリンクス,0
1408,6011403005034,新規,0,2026-02-13,2026-02-13,合同会社ＴＥＮＴＯ,,合同会社,東京都,板橋区,南常盤台１丁目５番１２－７０５号,,13,119,1740072,,,,,,,2026-02-13,1,,,,,テント,0
1413,6011701029180,新規,0,2026-02-13,2026-02-13,株式会社Ｎ‐ｍｅｔａｌ,,株式会社,東京都,江戸川区,新堀１丁目４番９号,,13,123,1320001,,,,,,,2026-02-13,1,,,,,エヌメタル,0
1415,6011803007332,新規,0,2026-02-13,2026-02-13,ＢＤＴＥＣＨ合同会社,,合同会社,東京都,足立区,関原１丁目９番１９号,,13,121,1230852,,,,,,,2026-02-13,1,,,,,ビーディーテック,0
1416,6012301014713,新規,0,2026-02-13,2026-02-13,株式会社ユニオンクラフト,,株式会社,東京都,町田市,原町田６丁目９番８号ＡＥＴＡ町田４Ｆ,,13,209,1940013,,,,,,,2026-02-13,1,,,,,ユニオンクラフト,0
1418,6013303008091,新規,0,2026-02-13,2026-02-13,合同会社ストリーム,,合同会社,東京都,豊島区,池袋２丁目１２番１４号第８前島ビル７階,,13,116,1710014,,,,,,,2026-02-13,1,,,,,ストリーム,0
1419,6013305003826,新規,0,2026-02-13,2026-02-13,一般社団法人日本競技ポーカー連盟,,その他の設立登記法人,東京都,豊島区,池袋３丁目７番１３号,,13,116,1710014,,,,,,,2026-02-13,1,,,,,ニホンキョウギポーカーレンメイ,0
1428,6020001167005,新規,0,2026-02-13,2026-02-13,株式会社ソラレックス,,株式会社,神奈川県,横浜市神奈川区,金港町５－１４クアドリフォリオ８階,,14,102,2210056,,,,,,,2026-02-13,1,,,,,ソラレックス,0
1429,6020001167054,新規,0,2026-02-13,2026-02-13,株式会社サントリーニ,,株式会社,神奈川県,横浜市港北区,綱島西１丁目１４番５号ジョイビル２０２Ｅ号室,,14,109,2230053,,,,,,,2026-02-13,1,,,,,サントリーニ,0
1433,6020003030301,新規,0,2026-02-13,2026-02-13,合同会社ＧＲＡＰＨＹ,,合同会社,神奈川県,川崎市高津区,下作延２丁目３１番地３８－６０４号ソフィア梶ヶ谷,,14,134,2130033,,,,,,,2026-02-13,1,,,,,グラフィー,0
1434,6020003030367,新規,0,2026-02-13,2026-02-13,ＩＳ‐Ａ　ＰＡＲＴＮＥＲ合同会社,,合同会社,神奈川県,横浜市西区,高島２丁目１１番２号スカイメナー横浜５１９,,14,103,2200011,,,,,,,2026-02-13,1,,,,,イズアパートナー,0
1435,6021001087523,新規,0,2026-02-13,2026-02-13,株式会社鎌倉商事,,株式会社,神奈川県,鎌倉市,長谷２丁目２番２９－２０７号,,14,204,2480016,,,,,,,2026-02-13,1,,,,,カマクラショウジ,0
1436,6021001087548,新規,0,2026-02-13,2026-02-13,株式会社秋本企画,,株式会社,神奈川県,綾瀬市,落合南９丁目１２番２２号,,14,218,2521115,,,,,,,2026-02-13,1,,,,,アキモトキカク,0
1451,6030001171006,新規,0,2026-02-13,2026-02-13,株式会社ライズ,,株式会社,埼玉県,上尾市,栄町１５番１８－１７号,,11,219,3620033,,,,,,,2026-02-13,1,,,,,ライズ,0
1464,6040001142427,新規,0,2026-02-13,2026-02-13,株式会社成和工業,,株式会社,千葉県,八千代市,桑橋９４２番地１４,,12,221,2760007,,,,,,,2026-02-13,1,,,,,セイワコウギョウ,0
1465,6040001142451,新規,0,2026-02-13,2026-02-13,タウン福祉サービス株式会社,,株式会社,千葉県,市原市,五井中央東２丁目３番地９,,12,219,2900054,,,,,,,2026-02-13,1,,,,,タウンフクシサービス,0
1468,6040003029457,新規,0,2026-02-13,2026-02-13,合同会社ＺＥＮ,,合同会社,千葉県,船橋市,宮本８丁目１６番９号,,12,204,2730003,,,,,,,2026-02-13,1,,,,,ゼン,0
1478,6080401028437,新規,0,2026-02-13,2026-02-13,株式会社ＷＦ　ＴＡＫＥ,,株式会社,静岡県,浜松市浜名区,於呂１３７４‐１,,22,139,4340015,,,,,,,2026-02-13,1,,,,,ワイエフテイク,0
1482,6110001039888,新規,0,2026-02-13,2026-02-13,株式会社ＭＡＭＯＲＵ,,株式会社,新潟県,妙高市,大字東四ツ屋新田２２０番地１,,15,217,9492216,,,,,,,2026-02-13,1,,,,,マモル,0
1497,6120001283931,新規,0,2026-02-13,2026-02-13,Ｗｉｎｇｓ　Ｇａｔｅ株式会社,,株式会社,大阪府,大阪市中央区,本町４丁目８番１号,,27,128,5410053,,,,,,,2026-02-13,1,,,,,ウィングスゲート,0
1498,6120001283972,新規,0,2026-02-13,2026-02-13,ＳＨＨアセットマネジメント株式会社,,株式会社,大阪府,大阪市天王寺区,四天王寺１丁目５番４３－１９０１号,,27,109,5430051,,,,,,,2026-02-13,1,,,,,エスエイチエイチアセットマネジメント,0
1499,6120001284120,新規,0,2026-02-13,2026-02-13,トモニゲート株式会社,,株式会社,大阪府,大阪市西区,新町３丁目５番８号ＡＰＥＣ西長堀ビル７０２号,,27,106,5500013,,,,,,,2026-02-13,1,,,,,トモニゲート,0
1500,6120001284129,新規,0,2026-02-13,2026-02-13,時晴株式会社,,株式会社,大阪府,大阪市西成区,南津守４丁目４番３５号,,27,122,5570063,,,,,,,2026-02-13,1,,,,,トキハル,0
1501,6120001284137,新規,0,2026-02-13,2026-02-13,凱吉株式会社,,株式会社,大阪府,大阪市阿倍野区,阪南町５丁目５番１６号９０３号室,,27,119,5450021,,,,,,,2026-02-13,1,,,,,ガイキチ,0
1508,6120005025388,新規,0,2026-02-13,2026-02-13,一般社団法人文化芸術支援協会,,その他の設立登記法人,大阪府,大阪市中央区,内本町１丁目１番６号,,27,128,5400026,,,,,,,2026-02-13,1,,,,,ブンカゲイジュツシエンキョウカイ,0
1509,6120005025413,新規,0,2026-02-13,2026-02-13,弁護士法人ＨＩＲＡＫＵ,,その他の設立登記法人,大阪府,大阪市中央区,平野町３丁目１番６号ＢｉｚＭｉｉＸＹｏｄｏｙａｂａｓｈｉ７０５号室,,27,128,5410046,,,,,,,2026-02-13,1,,,,,ヒラク,0
1511,6120101073167,新規,0,2026-02-13,2026-02-13,株式会社アクティブライフ,,株式会社,大阪府,堺市北区,船堂町１丁１１番２３号,,27,146,5918003,,,,,,,2026-02-13,1,,,,,アクティブライフ,0
1516,6130001081566,新規,0,2026-02-13,2026-02-13,株式会社ＣＯＣＯ　ＫＹＯＴＯ,,株式会社,京都府,京都市中京区,西ノ京三条坊町１５番地３,,26,104,6048435,,,,,,,2026-02-13,1,,,,,ココキョウト,0
1517,6130001081608,新規,0,2026-02-13,2026-02-13,株式会社ＣＲＥＳＴ,,株式会社,京都府,京都市左京区,静市市原町５２番地３２,,26,103,6011123,,,,,,,2026-02-13,1,,,,,クレスト,0
1519,6140001141732,新規,0,2026-02-13,2026-02-13,ＨＡＮＡ　ＡＳＳＥＴ株式会社,,株式会社,兵庫県,姫路市,西新在家３丁目４番８号,,28,201,6700096,,,,,,,2026-02-13,1,,,,,ハナアセット,0
1521,6140003023202,新規,0,2026-02-13,2026-02-13,合同会社ＭＥＥ,,合同会社,兵庫県,神戸市灘区,徳井町１丁目２番３０－５０８号,,28,102,6570033,,,,,,,2026-02-13,1,,,,,ミー,0
1523,6160001027418,新規,0,2026-02-13,2026-02-13,株式会社ＲｅＯｃｈｕ,,株式会社,滋賀県,東近江市,上山町９６９番地１,,25,213,5270142,,,,,,,2026-02-13,1,,,,,リオッチュ,0
1528,6170005007191,新規,0,2026-02-13,2026-02-13,総食協同組合,,その他の設立登記法人,和歌山県,和歌山市,西浜１６６０番地の４０１和歌山関連荷受株式会社内,,30,201,6410036,,,,,,,2026-02-13,1,,,,,ソウショク,0
1534,6180001170612,新規,0,2026-02-13,2026-02-13,株式会社グレイスターグループ,,株式会社,愛知県,名古屋市中区,丸の内３丁目２３番２０号,,23,106,4600002,,,,,,,2026-02-13,1,,,,,グレイスターグループ,0
1535,6180001170645,新規,0,2026-02-13,2026-02-13,株式会社ＨＩＹＯＫＵ　Ｔｅｃｈｎｏｌｏｇｉｅｓ,,株式会社,愛知県,名古屋市中区,栄３丁目２－３,,23,106,4600008,,,,,,,2026-02-13,1,,,,,ヒヨクテクノロジーズ,0
1538,6180003029732,新規,0,2026-02-13,2026-02-13,合同会社リラトラスト,,合同会社,愛知県,名古屋市中村区,名駅４丁目２４番５号第２森ビル４０１,,23,105,4500002,,,,,,,2026-02-13,1,,,,,リラトラスト,0
1539,6180003029765,新規,0,2026-02-13,2026-02-13,合同会社フロムミィ,,合同会社,愛知県,名古屋市西区,那古野２丁目２３番４号－１,,23,104,4510042,,,,,,,2026-02-13,1,,,,,フロムミィ,0
1540,6180003029773,新規,0,2026-02-13,2026-02-13,４ＧＡＴＳ合同会社,,合同会社,愛知県,名古屋市千種区,東山通４丁目６番地８,,23,101,4640807,,,,,,,2026-02-13,1,,,,,クアトロガッツ,0
1544,6190001032893,新規,0,2026-02-13,2026-02-13,株式会社松竹工芸,,株式会社,三重県,津市,久居西鷹跡町６１７‐２,,24,201,5141131,,,,,,,2026-02-13,1,,,,,ショウチクコウゲイ,0
1553,6230001021297,新規,0,2026-02-13,2026-02-13,株式会社ネルフィン,,株式会社,富山県,高岡市,御旅屋町１０１番地御旅屋セリオ４階,,16,202,9330029,,,,,,,2026-02-13,1,,,,,ネルフィン,0
1558,6240003007599,新規,0,2026-02-13,2026-02-13,合同会社ｍｏｒｎｉ,,合同会社,広島県,福山市,沖野上町３丁目９番５－６０７号,,34,207,7200825,,,,,,,2026-02-13,1,,,,,モルニ,0
1564,6260003005510,新規,0,2026-02-13,2026-02-13,合同会社キッチンラボ１０１,,合同会社,岡山県,笠岡市,山口１８５２番地,,33,205,7140007,,,,,,,2026-02-13,1,,,,,キッチンラボイチマルイチ,0
1574,6290001113147,新規,0,2026-02-13,2026-02-13,株式会社ＫＩ,,株式会社,福岡県,福岡市南区,筑紫丘２丁目６番１４－３０３号パークハウス筑紫丘,,40,134,8150036,,,,,,,2026-02-13,1,,,,,ケーアイ,0
1575,6290001113155,新規,0,2026-02-13,2026-02-13,株式会社いとつなぎ,,株式会社,福岡県,糸島市,高田１丁目１１番１－５１０号,,40,230,8191102,,,,,,,2026-02-13,1,,,,,,0
1584,6310003005182,新規,0,2026-02-13,2026-02-13,合同会社美空,,合同会社,長崎県,東彼杵郡川棚町,中組郷１６０２－２,,42,322,8593614,,,,,,,2026-02-13,1,,,,,ミソラ,0
1592,6330001034000,新規,0,2026-02-13,2026-02-13,アルモニーライフ株式会社,,株式会社,熊本県,熊本市東区,佐土原３丁目１０番２７号,,43,102,8620916,,,,,,,2026-02-13,1,,,,,アルモニーライフ,0
1594,6330003011435,新規,0,2026-02-13,2026-02-13,合同会社ねこやなぎ,,合同会社,熊本県,八代市,上日置町４７６３－１２　０９ＳＯＨＯ新八代駅前ビルＮＯ．２０１,,43,202,8660824,,,,,,,2026-02-13,1,,,,,ネコヤナギ,0
1607,6360003015615,新規,0,2026-02-13,2026-02-13,合同会社Ｅ‐ｌｉｎｋｓ,,合同会社,沖縄県,南城市,字つきしろ１７３９－２４,,47,215,9011407,,,,,,,2026-02-13,1,,,,,イーリンクス,0
1608,6360003015623,新規,0,2026-02-13,2026-02-13,合同会社結,,合同会社,沖縄県,宮古島市,平良字下里９０７番地２サンドリバーハイツ５０２,,47,214,9060013,,,,,,,2026-02-13,1,,,,,ユイ,0
1614,6380003006257,新規,0,2026-02-13,2026-02-13,医経総合研究所合同会社,,合同会社,福島県,西白河郡西郷村,大字熊倉字屏風谷５番地８８,,07,461,9618091,,,,,,,2026-02-13,1,,,,,イケイソウゴウケンキュウジョ,0
1621,6430001096229,新規,0,2026-02-13,2026-02-13,株式会社ＴＮ　ＬＩＦＥＰＬＡＮ,,株式会社,北海道,札幌市豊平区,月寒西三条６丁目１番１０－１０８号,,01,105,0620023,,,,,,,2026-02-13,1,,,,,ティーエヌライフプラン,0
1622,6430001096237,新規,0,2026-02-13,2026-02-13,株式会社クロノロジスト,,株式会社,北海道,札幌市中央区,南五条西８丁目３番地１ビッグパレス南五条３０８号,,01,101,0640805,,,,,,,2026-02-13,1,,,,,クロノロジスト,0
1623,6430001096253,新規,0,2026-02-13,2026-02-13,株式会社リーデレ,,株式会社,北海道,札幌市中央区,南三条西９丁目９９８番地３アパタワーズ札幌大通公園１３１１,,01,101,0600063,,,,,,,2026-02-13,1,,,,,リーデレ,0
1624,6430003018585,新規,0,2026-02-13,2026-02-13,合同会社Ａ　ｅｑｕａｌ,,合同会社,北海道,札幌市南区,澄川五条５丁目１０－５,,01,106,0050005,,,,,,,2026-02-13,1,,,,,エーイコール,0
1625,6430003018593,新規,0,2026-02-13,2026-02-13,合同会社Ｓｎｏｗｍａｎ　Ｗｏｒｋｓ,,合同会社,北海道,札幌市西区,山の手一条８丁目１番１３号,,01,107,0630001,,,,,,,2026-02-13,1,,,,,スノーマンワークス,0
1633,6700150134414,新規,0,2026-02-13,2026-02-13,藤岡地区コミュニティ会議,,その他,愛知県,豊田市,藤岡飯野町田中２４５,,23,211,4700451,,,,,,,2026-02-13,1,,,,,フジオカチクコミュニティカイギ,0
1644,7010001262623,新規,0,2026-02-13,2026-02-13,株式会社タトラパートナーズ,,株式会社,東京都,中央区,日本橋室町１丁目１１番１２号日本橋水野ビル７階,,13,102,1030022,,,,,,,2026-02-13,1,,,,,タトラパートナーズ,0
1645,7010001262739,新規,0,2026-02-13,2026-02-13,Ｊ‐ＦＬＹ　Ｉｎｔｅｒｎａｔｉｏｎａｌ株式会社,,株式会社,東京都,中央区,日本橋３丁目１３番６号－５階,,13,102,1030027,,,,,,,2026-02-13,1,,,,,ジェイフライインターナショナル,0
1646,7010001262755,新規,0,2026-02-13,2026-02-13,株式会社ＶＩＶＩＤ,,株式会社,東京都,千代田区,神田神保町２丁目４０番地５,,13,101,1010051,,,,,,,2026-02-13,1,,,,,ビビッド,0
1647,7010001262763,新規,0,2026-02-13,2026-02-13,株式会社ＫＯＴＯＴＯＨＡ,,株式会社,東京都,中央区,銀座１丁目２２番１１号銀座大竹ビジデンス２Ｆ,,13,102,1040061,,,,,,,2026-02-13,1,,,,,コトトハ,0
1648,7010001262879,新規,0,2026-02-13,2026-02-13,ＡＲＫ　ＢｌｏｏｍＴｅｃｈ株式会社,,株式会社,東京都,千代田区,九段南１丁目６番５号九段会館テラス,,13,101,1020074,,,,,,,2026-02-13,1,,,,,アークブルームテック,0
1653,7010003050290,新規,0,2026-02-13,2026-02-13,ＮＥＭＯＲＩ合同会社,,合同会社,東京都,中央区,日本橋室町１丁目１１番１２号日本橋水野ビル７階,,13,102,1030022,,,,,,,2026-02-13,1,,,,,ネモリ,0
1654,7010003050324,新規,0,2026-02-13,2026-02-13,エポック合同会社,,合同会社,東京都,中央区,銀座７丁目１３番６号サガミビル２階,,13,102,1040061,,,,,,,2026-02-13,1,,,,,エポック,0
1656,7010101017084,新規,0,2026-02-13,2026-02-13,ＲｅＡｍｐ株式会社,,株式会社,東京都,八王子市,北野台４丁目１３番１号,,13,201,1920913,,,,,,,2026-02-13,1,,,,,リアンプ,0
1658,7010401196438,新規,0,2026-02-13,2026-02-13,エッジシールズ株式会社,,株式会社,東京都,港区,三田２丁目１３番９号三田東門ビル３０１,,13,103,1080073,,,,,,,2026-02-13,1,,,,,エッジシールズ,0
1659,7010401196479,新規,0,2026-02-13,2026-02-13,ＮＭＴ株式会社,,株式会社,東京都,港区,南青山１丁目１２番３号ＬＩＦＯＲＫ－Ｓ－２０４,,13,103,1070062,,,,,,,2026-02-13,1,,,,,エヌエムティ,0
1663,7010403037268,新規,0,2026-02-13,2026-02-13,合同会社ＡＶＡ,,合同会社,東京都,港区,芝大門１丁目６－５－２Ｂ,,13,103,1050012,,,,,,,2026-02-13,1,,,,,エーブイエー,0
1671,7010701049031,新規,0,2026-02-13,2026-02-13,ＳＴＡＴＩＯＮＴＯＳＴＡＴＩＯＮ株式会社,,株式会社,東京都,品川区,西五反田３丁目７番６号レジディアタワー目黒不動前１１１２,,13,109,1410031,,,,,,,2026-02-13,1,,,,,ステーショントゥステーション,0
1675,7010901058963,新規,0,2026-02-13,2026-02-13,株式会社双栄,,株式会社,東京都,世田谷区,松原２丁目３３番２３－１０１号,,13,112,1560043,,,,,,,2026-02-13,1,,,,,ソウエイ,0
1680,7011001175369,新規,0,2026-02-13,2026-02-13,株式会社ＭＥＤＣＲＯＳＳ,,株式会社,東京都,渋谷区,恵比寿西２丁目４番８号ウィンド恵比寿ビル８Ｆ,,13,113,1500021,,,,,,,2026-02-13,1,,,,,メドクロス,0
1681,7011001175443,新規,0,2026-02-13,2026-02-13,ＥＤＩＰＴ株式会社,,株式会社,東京都,渋谷区,代々木４丁目２３番１６－１０２号,,13,113,1510053,,,,,,,2026-02-13,1,,,,,イディプト,0
1682,7011001175484,新規,0,2026-02-13,2026-02-13,プロサリア・コンサルティング株式会社,,株式会社,東京都,渋谷区,千駄ヶ谷３丁目５１番１０号ＰＯＲＴＡＬＰＯＩＮＴＨＡＲＡＪＵＫＵＦＤ３１,,13,113,1510051,,,,,,,2026-02-13,1,,,,,プロサリアコンサルティング,0
1683,7011001175542,新規,0,2026-02-13,2026-02-13,株式会社ＨＲＫ,,株式会社,東京都,渋谷区,恵比寿西２丁目８番４号ＥＸ恵比寿西ビル５階,,13,113,1500021,,,,,,,2026-02-13,1,,,,,エイチアールケー,0
1684,7011003023633,新規,0,2026-02-13,2026-02-13,合同会社ＯＭＥ,,合同会社,東京都,渋谷区,道玄坂１丁目１０番８号渋谷道玄坂東急ビル２Ｆ－Ｃ,,13,113,1500043,,,,,,,2026-02-13,1,,,,,オーエムイー,0
1696,7011101114706,新規,0,2026-02-13,2026-02-13,株式会社バズコンサル,,株式会社,東京都,新宿区,荒木町１０番地２９荒木町ビル２０１,,13,104,1600007,,,,,,,2026-02-13,1,,,,,バズコンサル,0
1701,7011303005843,新規,0,2026-02-13,2026-02-13,合同会社ｎｉｎｅｔｙ,,合同会社,東京都,杉並区,高円寺南４丁目４５番２号フジグリーンビル３階,,13,115,1660003,,,,,,,2026-02-13,1,,,,,ナインティ,0
1703,7011401027789,新規,0,2026-02-13,2026-02-13,ＭＵＯＪ医療株式会社,,株式会社,東京都,板橋区,上板橋２丁目３７－９号,,13,119,1740076,,,,,,,2026-02-13,1,,,,,エムユーオージェーイリョウ,0
1704,7011403005033,新規,0,2026-02-13,2026-02-13,合同会社ショウルビ,,合同会社,東京都,板橋区,常盤台４丁目２２－４シラサキ１Ｆ,,13,119,1740071,,,,,,,2026-02-13,1,,,,,ショウルビ,0
1707,7011503006856,新規,0,2026-02-13,2026-02-13,合同会社エスケーファーム,,合同会社,東京都,北区,赤羽２丁目４９番６号,,13,117,1150045,,,,,,,2026-02-13,1,,,,,エスケーファーム,0
1708,7011601029379,新規,0,2026-02-13,2026-02-13,株式会社和雅コンサルティング,,株式会社,東京都,練馬区,練馬１丁目２０－８日建練馬ビル２Ｆ,,13,120,1760001,,,,,,,2026-02-13,1,,,,,ワゲコンサルティング,0
1710,7011603005007,新規,0,2026-02-13,2026-02-13,合同会社ストリームパートナー,,合同会社,東京都,練馬区,関町南４丁目１５番４－６０４号,,13,120,1770053,,,,,,,2026-02-13,1,,,,,ストリームパートナー,0
1713,7011803007331,新規,0,2026-02-13,2026-02-13,Ｌ＆Ｙ合同会社,,合同会社,東京都,足立区,西新井６丁目１６番１号,,13,121,1230841,,,,,,,2026-02-13,1,,,,,エルアンドワイ,0
1718,7012801024533,新規,0,2026-02-13,2026-02-13,株式会社ルミナス,,株式会社,東京都,日野市,百草４３６番地の１１,,13,212,1910033,,,,,,,2026-02-13,1,,,,,ルミナス,0
1722,7013303008090,新規,0,2026-02-13,2026-02-13,合同会社ＲＥＰＯＴ,,合同会社,東京都,豊島区,長崎２丁目１３番１５号鈴木ビル地下１階,,13,116,1710051,,,,,,,2026-02-13,1,,,,,リポット,0
1723,7013305003825,新規,0,2026-02-13,2026-02-13,ＩＣＨＩＭＩ社会保険労務士法人,,その他の設立登記法人,東京都,豊島区,池袋２丁目６９番地７号恩田ビル４０１,,13,116,1710014,,,,,,,2026-02-13,1,,,,,イチミ,0
1733,7020001166939,新規,0,2026-02-13,2026-02-13,株式会社ギャロップスタイル,,株式会社,神奈川県,川崎市川崎区,新川通４番１５―４０２号オクトピア川崎,,14,131,2100013,,,,,,,2026-02-13,1,,,,,ギャロップスタイル,0
1734,7020001167004,新規,0,2026-02-13,2026-02-13,株式会社慶俊製薬ＭＲＥ,,株式会社,神奈川県,横浜市港北区,篠原東１丁目９番１号,,14,109,2220022,,,,,,,2026-02-13,1,,,,,ケイシュンセイヤクエムアールイー,0
1735,7020001167020,新規,0,2026-02-13,2026-02-13,株式会社ナガリット,,株式会社,神奈川県,横浜市神奈川区,金港町５－１４クアドリフォリオ８階,,14,102,2210056,,,,,,,2026-02-13,1,,,,,ナガリット,0
1736,7020001167029,新規,0,2026-02-13,2026-02-13,株式会社Ｇｅｍ’ｓ,,株式会社,神奈川県,横浜市戸塚区,舞岡町１３４７番地１,,14,110,2440813,,,,,,,2026-02-13,1,,,,,ジェムズ,0
1737,7020001167037,新規,0,2026-02-13,2026-02-13,株式会社エターニクス,,株式会社,神奈川県,横浜市西区,北幸１丁目１１番１号水信ビル７階,,14,103,2200004,,,,,,,2026-02-13,1,,,,,エターニクス,0
1738,7020001167053,新規,0,2026-02-13,2026-02-13,株式会社あかつき空調サービス,,株式会社,神奈川県,川崎市中原区,田尻町７５番地５アリビオ３Ｆ,,14,133,2110014,,,,,,,2026-02-13,1,,,,,アカツキクウチョウサービス,0
1739,7020001167078,新規,0,2026-02-13,2026-02-13,株式会社Ｒａｋｕｄａ,,株式会社,神奈川県,川崎市麻生区,白山５丁目１番８－２０６号,,14,137,2150014,,,,,,,2026-02-13,1,,,,,ラクダ,0
1740,7020001167094,新規,0,2026-02-13,2026-02-13,株式会社雅大,,株式会社,神奈川県,横浜市保土ケ谷区,釜台町１番３－７０１号,,14,106,2400066,,,,,,,2026-02-13,1,,,,,マサヒロ,0
1741,7020001167202,新規,0,2026-02-13,2026-02-13,ＬＰ　Ｈｏｍｅｓ株式会社,,株式会社,神奈川県,横浜市港北区,新羽町６２２番地１クリオ新横浜北弐番館２０５,,14,109,2230057,,,,,,,2026-02-13,1,,,,,エルピーホームズ,0
1744,7020003030291,新規,0,2026-02-13,2026-02-13,合同会社エン,,合同会社,神奈川県,横浜市栄区,長沼町４５３－３,,14,115,2440841,,,,,,,2026-02-13,1,,,,,エン,0
1745,7020003030325,新規,0,2026-02-13,2026-02-13,キュリオシティマネジメント合同会社,,合同会社,神奈川県,横浜市港北区,大曽根台１０番６－２３号,,14,109,2220004,,,,,,,2026-02-13,1,,,,,キュリオシティマネジメント,0
1746,7020003030333,新規,0,2026-02-13,2026-02-13,合同会社とみの,,合同会社,神奈川県,横浜市南区,永田山王台７番１６号,,14,105,2320074,,,,,,,2026-02-13,1,,,,,トミノ,0
1747,7021001087472,新規,0,2026-02-13,2026-02-13,株式会社ＦＯＲＧＥ　ＣＯＲＥ,,株式会社,神奈川県,相模原市南区,上鶴間本町４丁目２７番２０号,,14,153,2520318,,,,,,,2026-02-13,1,,,,,フォージコア,0
1748,7021003017097,新規,0,2026-02-13,2026-02-13,アップサイクラー合同会社,,合同会社,神奈川県,三浦郡葉山町,一色１５２６,,14,301,2400111,,,,,,,2026-02-13,1,,,,,アップサイクラー,0
1756,7030001170997,新規,0,2026-02-13,2026-02-13,株式会社令和管工,,株式会社,埼玉県,さいたま市岩槻区,南平野１丁目１１番地３１,,11,110,3390051,,,,,,,2026-02-13,1,,,,,レイワカンコウ,0
1761,7030003028649,新規,0,2026-02-13,2026-02-13,コアガード合同会社,,合同会社,埼玉県,さいたま市大宮区,桜木町２丁目３番地大宮マルイ７階,,11,103,3300854,,,,,,,2026-02-13,1,,,,,コアガード,0
1767,7040003029423,新規,0,2026-02-13,2026-02-13,合同会社つなぐ,,合同会社,千葉県,松戸市,馬橋３３１４－２－２０２,,12,207,2710051,,,,,,,2026-02-13,1,,,,,ツナグ,0
1768,7040003029456,新規,0,2026-02-13,2026-02-13,合同会社望,,合同会社,千葉県,印旛郡栄町,龍角寺１５６１番地,,12,329,2701506,,,,,,,2026-02-13,1,,,,,マドカ,0
1769,7040003029497,新規,0,2026-02-13,2026-02-13,キチョウエステート合同会社,,合同会社,千葉県,浦安市,入船４丁目４０番５号,,12,227,2790012,,,,,,,2026-02-13,1,,,,,キチョウエステート,0
1773,7070001043811,新規,0,2026-02-13,2026-02-13,株式会社Ｎｓｔｙｌｅ,,株式会社,群馬県,前橋市,三俣町２丁目３１番地５,,10,201,3710018,,,,,,,2026-02-13,1,,,,,エヌスタイル,0
1778,7080103003530,新規,0,2026-02-13,2026-02-13,合同会社ＪＳＳ,,合同会社,静岡県,富士宮市,小泉１６４５番の１５１,,22,207,4180022,,,,,,,2026-02-13,1,,,,,ジェーエスエス,0
1793,7120001284061,新規,0,2026-02-13,2026-02-13,株式会社ＦＬＯＷ,,株式会社,大阪府,大阪市生野区,林寺４丁目１８番１７号,,27,116,5440023,,,,,,,2026-02-13,1,,,,,フロウ,0
1794,7120001284094,新規,0,2026-02-13,2026-02-13,あいケアサービス株式会社,,株式会社,大阪府,大阪市住吉区,我孫子東２丁目３番４号,,27,120,5580013,,,,,,,2026-02-13,1,,,,,アイケアサービス,0
1795,7120001284111,新規,0,2026-02-13,2026-02-13,株式会社ハピネスエステート,,株式会社,大阪府,大阪市福島区,吉野４丁目２１番１９号,,27,103,5530006,,,,,,,2026-02-13,1,,,,,ハピネスエステート,0
1796,7120001284128,新規,0,2026-02-13,2026-02-13,株式会社ＪＡＰＡＮ　ＨＯＳＰＩＴＡＬＩＴＹ　ＧＲＯＵＰ　ＨＤ,,株式会社,大阪府,大阪市大正区,小林西１丁目３番６号,,27,108,5510013,,,,,,,2026-02-13,1,,,,,ジャパンホスピタリティグループエイチディ,0
1797,7120001284202,新規,0,2026-02-13,2026-02-13,皇冠尊享株式会社,,株式会社,大阪府,大阪市都島区,東野田町１丁目１８番６－５０１号,,27,102,5340024,,,,,,,2026-02-13,1,,,,,コウカンソンキョウ,0
1798,7120001284219,新規,0,2026-02-13,2026-02-13,Ｎｅｘｕｓ　Ａｓｓｅｔ株式会社,,株式会社,大阪府,大阪市西成区,天下茶屋１丁目１２番１１号,,27,122,5570014,,,,,,,2026-02-13,1,,,,,ネクサスアセット,0
1805,7120003031890,新規,0,2026-02-13,2026-02-13,合同会社元コーラス部,,合同会社,大阪府,大阪市北区,梅田１丁目２番２号大阪駅前第２ビル１２－１２,,27,127,5300001,,,,,,,2026-02-13,1,,,,,モトコーラスブ,0
1808,7120101073182,新規,0,2026-02-13,2026-02-13,株式会社ｃｏｃｏｎ,,株式会社,大阪府,堺市中区,深井清水町３２８２番地（３０２）,,27,142,5998273,,,,,,,2026-02-13,1,,,,,ココン,0
1812,7130001081598,新規,0,2026-02-13,2026-02-13,一斗楽川株式会社,,株式会社,京都府,京都市右京区,西京極西衣手町１番地４,,26,108,6150877,,,,,,,2026-02-13,1,,,,,イットラクガワ,0
1813,7130001081623,新規,0,2026-02-13,2026-02-13,株式会社プレイスループ,,株式会社,京都府,京都市下京区,七条通油小路東入大黒町２２７番地第２キョートビル４０２,,26,106,6008223,,,,,,,2026-02-13,1,,,,,プレイスループ,0
1816,7130003011149,新規,0,2026-02-13,2026-02-13,合同会社ｈｅａｒｔ　ｔｏ　ｈｅａｒｔ,,合同会社,京都府,京都市下京区,七条通油小路東入大黒町２２７番地第２キョートビル４０２,,26,106,6008223,,,,,,,2026-02-13,1,,,,,ハートツウハート,0
1819,7140001141731,新規,0,2026-02-13,2026-02-13,株式会社ＫＥＩ,,株式会社,兵庫県,尼崎市,崇徳院２丁目１６４番地３－Ａ１,,28,202,6600071,,,,,,,2026-02-13,1,,,,,,0
1821,7140003023168,新規,0,2026-02-13,2026-02-13,ＳＥＥＤＳ　ＯＦ　ＭＵＳＩＣ　ＡＷＡＪＩ合同会社,,合同会社,兵庫県,南あわじ市,市福永５４９－４,,28,224,6560478,,,,,,,2026-02-13,1,,,,,シーズオブミュージックアワジ,0
1822,7150001028721,新規,0,2026-02-13,2026-02-13,株式会社ＳｐａｒｋＲ,,株式会社,奈良県,北葛城郡広陵町,大字広瀬３７０－８,,29,426,6350812,,,,,,,2026-02-13,1,,,,,スパークル,0
1823,7160001027417,新規,0,2026-02-13,2026-02-13,株式会社宮乃舎,,株式会社,滋賀県,米原市,小田２７６番地,,25,214,5210235,,,,,,,2026-02-13,1,,,,,ミヤノヤ,0
1833,7180001170594,新規,0,2026-02-13,2026-02-13,株式会社岡本自動車,,株式会社,愛知県,北名古屋市,片場天王森１９番地２,,23,234,4810002,,,,,,,2026-02-13,1,,,,,オカモトジドウシャ,0
1834,7180001170611,新規,0,2026-02-13,2026-02-13,株式会社Ｈａｒｍｏｎｉａ,,株式会社,愛知県,日進市,竹の山４丁目８２３番地アミティエＩＩ６０１,00142567,23,230,4700136,,,,,,,2026-02-13,1,,,,,ハルモニア,0
1835,7180001170644,新規,0,2026-02-13,2026-02-13,日橋商務株式会社,,株式会社,愛知県,名古屋市千種区,月ケ丘１丁目２番１４号,,23,101,4640043,,,,,,,2026-02-13,1,,,,,ニッキョウショウム,0
1836,7180001170660,新規,0,2026-02-13,2026-02-13,株式会社ｅＬａｍａ,,株式会社,愛知県,名古屋市中村区,名駅５丁目４－１４花車ビル北館１階,,23,105,4500002,,,,,,,2026-02-13,1,,,,,エラマ,0
1837,7180001170685,新規,0,2026-02-13,2026-02-13,株式会社Ｍ‐ＳＴＲＥＥＴ,,株式会社,愛知県,愛西市,西川端町北江１０８番地,,23,232,4968019,,,,,,,2026-02-13,1,,,,,エムストリート,0
1840,7180301040687,新規,0,2026-02-13,2026-02-13,株式会社Ｖｉｓｉｏｎ　Ｓｏｌｕｔｉｏｎ,,株式会社,愛知県,豊田市,西山町１丁目１４番地１１,,23,211,4710062,,,,,,,2026-02-13,1,,,,,ビジョンソリューション,0
1844,7190003005351,新規,0,2026-02-13,2026-02-13,合同会社リズムリンク,,合同会社,三重県,松阪市,久保町１８４９‐３,,24,204,5150044,,,,,,,2026-02-13,1,,,,,リズムリンク,0
1859,7240001066167,新規,0,2026-02-13,2026-02-13,株式会社ウォッシュパーク,,株式会社,広島県,安芸郡府中町,浜田４丁目７番１５号,,34,302,7350013,,,,,,,2026-02-13,1,,,,,ウォッシュパーク,0
1861,7240003007598,新規,0,2026-02-13,2026-02-13,合同会社ヨウメイ,,合同会社,広島県,尾道市,向島町１４７８６番地５,,34,205,7220073,,,,,,,2026-02-13,1,,,,,ヨウメイ,0
1877,7290001113113,新規,0,2026-02-13,2026-02-13,ＳＷＫモビリティアセット株式会社,,株式会社,福岡県,八女郡広川町,大字藤田５４７番地１０,,40,544,8340123,,,,,,,2026-02-13,1,,,,,エスダブリューケーモビリティアセット,0
1879,7290005020009,新規,0,2026-02-13,2026-02-13,一般社団法人おごおり福祉連合会,,その他の設立登記法人,福岡県,小郡市,美鈴が丘２丁目９番地２６在宅福祉センター美鈴内,,40,216,8380101,,,,,,,2026-02-13,1,,,,,オゴオリフクシレンゴウカイ,0
1880,7290801032248,新規,0,2026-02-13,2026-02-13,株式会社レジリエンス,,株式会社,福岡県,北九州市小倉北区,真鶴１丁目１２－１０第二日之出ビル４０３,,40,106,8030844,,,,,,,2026-02-13,1,,,,,レジリエンス,0
1889,7320003004901,新規,0,2026-02-13,2026-02-13,合同会社光アセット,,合同会社,大分県,日田市,中本町７番１２号,,44,204,8770047,,,,,,,2026-02-13,1,,,,,ヒカリアセット,0
1895,7330003011434,新規,0,2026-02-13,2026-02-13,合同会社ＩＫＩ．ｃｏｌｌｅｃｔｉｖｅ,,合同会社,熊本県,合志市,幾久富１８３３番地３９,,43,216,8611112,,,,,,,2026-02-13,1,,,,,イキコレクティブ,0
1907,7380001035876,新規,0,2026-02-13,2026-02-13,株式会社Ｏｎｓｅｎ　Ｃｏｍｐａｎｙ,,株式会社,福島県,南相馬市,小高区本町１丁目８７,,07,212,9792124,,,,,,,2026-02-13,1,,,,,オンセンカンパニー,0
1911,7430001096194,新規,0,2026-02-13,2026-02-13,株式会社エストレージャ,,株式会社,北海道,札幌市中央区,南六条西３丁目１０番地１Ｎ・三協ビル２Ｆ,,01,101,0640806,,,,,,,2026-02-13,1,,,,,エストレージャ,0
1912,7430001096252,新規,0,2026-02-13,2026-02-13,株式会社ＡｅｒｏＶａｄｏｒ,,株式会社,北海道,苫小牧市,有珠の沢町４丁目１６－２３,,01,213,0530842,,,,,,,2026-02-13,1,,,,,エアロヴァドール,0
1913,7430003018592,新規,0,2026-02-13,2026-02-13,合同会社モニカ良縁ホールディングス,,合同会社,北海道,室蘭市,山手町３丁目１番地１１－２０２号,,01,205,0510012,,,,,,,2026-02-13,1,,,,,モニカリョウエンホールディングス,0
1920,7700150048943,新規,0,2026-02-13,2015-10-09,飛騨あさひ観光協会,,その他,岐阜県,高山市,朝日町万石１５０,,21,203,5093325,,,,,,,2015-10-09,1,,,,,ヒダアサヒカンコウキヨウカイ,0
1921,7700150134413,新規,0,2026-02-13,2026-02-13,ＳＲＥＪＡＲＯＥＮ　ＲＵＢＢＥＲ　ＣＯ．，ＬＴＤ．,,外国会社等,,,,,,,,８８８／１２６　Ｍａｈａｔｕｎ　Ｐｌａｚａ　Ｂｕｉｌｄｉｎｇ，１２ｔｈ　Ｆｌｏｏｒ，Ｒｏｏｍ　１２６，Ｐｌｏｅｎｃｈｉｔ　Ｒｏａｄ，Ｐａｔｕｍｗａｎ，Ｂａｎｇｋｏｋ　１０３３０，Ｔｈａｉｌａｎｄ,,,,,,2026-02-13,1,,,,,スリジャロンラバーカンパニーリミテッド,0
1933,8010001262812,新規,0,2026-02-13,2026-02-13,株式会社エリア・インベストメンツ,,株式会社,東京都,千代田区,神田錦町１丁目１６番地１,,13,101,1010054,,,,,,,2026-02-13,1,,,,,エリアインベストメンツ,0
1934,8010001262829,新規,0,2026-02-13,2026-02-13,Ｃａｒｅｅｒｌｙ株式会社,,株式会社,東京都,中央区,新川１丁目７番１号天翔日本橋茅場町ビル２０６号,,13,102,1040033,,,,,,,2026-02-13,1,,,,,キャリアリー,0
1935,8010001262837,新規,0,2026-02-13,2026-02-13,株式会社サムライアセットキャピタル,,株式会社,東京都,千代田区,霞が関３丁目２番１号,,13,101,1000013,,,,,,,2026-02-13,1,,,,,サムライアセットキャピタル,0
1936,8010001262853,新規,0,2026-02-13,2026-02-13,株式会社ロールスコンサルティング,,株式会社,東京都,千代田区,九段北１丁目３番１号,,13,101,1020073,,,,,,,2026-02-13,1,,,,,ロールスコンサルティング,0
1938,8010003050298,新規,0,2026-02-13,2026-02-13,合同会社力武事務所,,合同会社,東京都,千代田区,神田須田町１丁目２３番１号住友不動産プラティーヌ御茶ノ水５０２,,13,101,1010041,,,,,,,2026-02-13,1,,,,,リキタケジムショ,0
1939,8010003050323,新規,0,2026-02-13,2026-02-13,ＡＩＣＡＮ合同会社,,合同会社,東京都,中央区,銀座７丁目１３番６号サガミビル２階,,13,102,1040061,,,,,,,2026-02-13,1,,,,,アイキャン,0
1940,8010003050389,新規,0,2026-02-13,2026-02-13,和定合同会社,,合同会社,東京都,中央区,銀座１丁目１２－４Ｎ＆ＥＢＬＤ．７階,,13,102,1040061,,,,,,,2026-02-13,1,,,,,ワテイ,0
1953,8010403037168,新規,0,2026-02-13,2026-02-13,ＳＰＰ合同会社,,合同会社,東京都,港区,芝浦３丁目４番１号,,13,103,1080023,,,,,,,2026-02-13,1,,,,,エスピーピー,0
1954,8010403037275,新規,0,2026-02-13,2026-02-13,合同会社ＢｌｕｅＰｅａｋ　Ｐａｒｔｎｅｒｓ,,合同会社,東京都,港区,港南４丁目２番地７－３５１８号,,13,103,1080075,,,,,,,2026-02-13,1,,,,,ブルーピークパートナーズ,0
1955,8010403037291,新規,0,2026-02-13,2026-02-13,合同会社つばめ,,合同会社,東京都,港区,虎ノ門１丁目２３番１号,,13,103,1050001,,,,,,,2026-02-13,1,,,,,ツバメ,0
1967,8010901058954,新規,0,2026-02-13,2026-02-13,株式会社Ｓｅｔａ　Ｅｎｇｉｎｅｅｒｉｎｇ,,株式会社,東京都,世田谷区,北沢３丁目２番１１号レガーロ東北沢ＢＩＺｃｉｒｃｌｅ下北沢４Ｆ－０７,,13,112,1550031,,,,,,,2026-02-13,1,,,,,セタエンジニアリング,0
1968,8010901058970,新規,0,2026-02-13,2026-02-13,株式会社ＡＸＩＵＳ,,株式会社,東京都,世田谷区,北沢３丁目８番１０－１０１号,,13,112,1550031,,,,,,,2026-02-13,1,,,,,アクシアス,0
1972,8010903010608,新規,0,2026-02-13,2026-02-13,合同会社ＳＡＫＵ,,合同会社,東京都,世田谷区,豪徳寺２丁目２７番５号,,13,112,1540021,,,,,,,2026-02-13,1,,,,,サク,0
1978,8011001175442,新規,0,2026-02-13,2026-02-13,株式会社スタープラチナ,,株式会社,東京都,渋谷区,千駄ヶ谷３丁目６２番７号,,13,113,1510051,,,,,,,2026-02-13,1,,,,,スタープラチナ,0
1979,8011001175517,新規,0,2026-02-13,2026-02-13,株式会社ｆｒｅｅ　ｂｕｌｌｅｔ,,株式会社,東京都,渋谷区,道玄坂１丁目１０番８号,,13,113,1500043,,,,,,,2026-02-13,1,,,,,フリーバレット,0
1980,8011003023657,新規,0,2026-02-13,2026-02-13,合同会社ＰＮＹ,,合同会社,東京都,目黒区,下目黒１丁目１番１４号コノトラビル７Ｆ,,13,110,1530064,,,,,,,2026-02-13,1,,,,,ピーエヌワイ,0
1985,8011101114746,新規,0,2026-02-13,2026-02-13,株式会社Ｓｍａｒｔ　Ｒｅｃｙｃｌｅ,,株式会社,東京都,新宿区,原町３丁目８７番地４,,13,104,1620053,,,,,,,2026-02-13,1,,,,,スマートリサイクル,0
1987,8011103017088,新規,0,2026-02-13,2026-02-13,合同会社ＣＯＣＯＲＯ　ＤＥＳＩＧＮ,,合同会社,東京都,新宿区,新宿２丁目１６番１１号サンフタミビル３０４,,13,104,1600022,,,,,,,2026-02-13,1,,,,,ココロデザイン,0
1989,8011401027796,新規,0,2026-02-13,2026-02-13,株式会社言ノ葉,,株式会社,東京都,板橋区,舟渡３丁目１０－１０,,13,119,1740041,,,,,,,2026-02-13,1,,,,,コトノハ,0
1993,8011601029361,新規,0,2026-02-13,2026-02-13,株式会社ｓｔｕｄｉｏ９Ｘ,,株式会社,東京都,練馬区,貫井１丁目４０番６号,,13,120,1760021,,,,,,,2026-02-13,1,,,,,スタジオキューエックス,0
1994,8011603005006,新規,0,2026-02-13,2026-02-13,合同会社たいよう,,合同会社,東京都,練馬区,桜台２丁目２３番１８号,,13,120,1760002,,,,,,,2026-02-13,1,,,,,タイヨウ,0
1995,8011701029179,新規,0,2026-02-13,2026-02-13,大和拓新株式会社,,株式会社,東京都,江戸川区,松島３丁目６番６号,,13,123,1320031,,,,,,,2026-02-13,1,,,,,ヤマトタクシン,0
1996,8011703004527,新規,0,2026-02-13,2026-02-13,藤井メディカル合同会社,,合同会社,東京都,江戸川区,平井２丁目１５番７―８０３号,,13,123,1320035,,,,,,,2026-02-13,1,,,,,フジイメディカル,0
1998,8012301014711,新規,0,2026-02-13,2026-02-13,株式会社Ａ‐ＩＳＬＡＮＤ,,株式会社,東京都,町田市,忠生４丁目４番地４９,,13,209,1940035,,,,,,,2026-02-13,1,,,,,エーアイランド,0
2005,8012403007506,新規,0,2026-02-13,2026-02-13,Ｅｎｃｏｒｄｉａ合同会社,,合同会社,東京都,調布市,緑ケ丘２丁目２７番地１号藤和仙川コープ４０５,,13,208,1820001,,,,,,,2026-02-13,1,,,,,エンコーディア,0
2006,8012403007605,新規,0,2026-02-13,2026-02-13,合同会社細事務所,,合同会社,東京都,武蔵野市,吉祥寺本町１丁目２２番１１号第２柏栄ビル地下１階,,13,203,1800004,,,,,,,2026-02-13,1,,,,,ホソジムショ,0
2007,8012403007613,新規,0,2026-02-13,2026-02-13,Ｐｒｏｘｙｐｐｏｎ合同会社,,合同会社,東京都,調布市,菊野台２丁目４８番地４モアクレスト菊野台１０８,,13,208,1820007,,,,,,,2026-02-13,1,,,,,プロキシッポン,0
2016,8013301055729,新規,0,2026-02-13,2026-02-13,Ｒｏｋｕｒｏ株式会社,,株式会社,東京都,豊島区,巣鴨４丁目２６－３・３０３号室,,13,116,1700002,,,,,,,2026-02-13,1,,,,,ロクロ,0
2017,8013301055737,新規,0,2026-02-13,2026-02-13,株式会社ＥＳＡＭテック,,株式会社,東京都,豊島区,東池袋２丁目６２番８号ＢＩＧオフィスプラザ池袋１２０６,,13,116,1700013,,,,,,,2026-02-13,1,,,,,イーエスエーエムテック,0
2024,8020001166946,新規,0,2026-02-13,2026-02-13,ＴＧ株式会社,,株式会社,神奈川県,横浜市西区,岡野１丁目１６番４号フィールドヴィレッジ横濱１階,,14,103,2200073,,,,,,,2026-02-13,1,,,,,ティージー,0
2025,8020001166995,新規,0,2026-02-13,2026-02-13,株式会社Ｗａｔｅｒ　Ｗｏｒｋｓ　Ｕｎｉｔｅ,,株式会社,神奈川県,横浜市戸塚区,汲沢町９番地２２,,14,110,2450062,,,,,,,2026-02-13,1,,,,,ウォーターワークスユナイト,0
2026,8020001167003,新規,0,2026-02-13,2026-02-13,株式会社ＳＯＬＡ‐ＹＡ,,株式会社,神奈川県,横浜市西区,北幸１丁目１１番１号水信ビル７階,,14,103,2200004,,,,,,,2026-02-13,1,,,,,ソラヤ,0
2027,8020001167036,新規,0,2026-02-13,2026-02-13,株式会社プロシードプラス,,株式会社,神奈川県,横浜市金沢区,並木３丁目２番２号プライムパークス横浜並木ザ・レジデンスウエスト１０６,,14,108,2360005,,,,,,,2026-02-13,1,,,,,プロシードプラス,0
2028,8020001167052,新規,0,2026-02-13,2026-02-13,ＴＲＡＮＣＥ　ＣＲＥＡＴＩＯＮ株式会社,,株式会社,神奈川県,横浜市旭区,中希望が丘１０５番地１８太陽ビル２Ｆ,,14,112,2410825,,,,,,,2026-02-13,1,,,,,トランスクリエーション,0
2029,8020001167077,新規,0,2026-02-13,2026-02-13,株式会社Ａｕｔｏ　ｒｅａｃｈ,,株式会社,神奈川県,横浜市西区,みなとみらい４丁目４－２横浜ブルーアベニュー１２階,,14,103,2200012,,,,,,,2026-02-13,1,,,,,オートリーチ,0
2030,8020001167085,新規,0,2026-02-13,2026-02-13,ＳＩＸＰＡＣＫ　ＡＣＴＩＯＮ株式会社,,株式会社,神奈川県,横浜市中区,千歳町１－２横浜ＴＨビル５０９号室,,14,104,2310035,,,,,,,2026-02-13,1,,,,,シックスパックアクション,0
2034,8020003030316,新規,0,2026-02-13,2026-02-13,合同会社Ｎａｉｂｉ,,合同会社,神奈川県,横浜市中区,本牧原３２番４－３号,,14,104,2310821,,,,,,,2026-02-13,1,,,,,ナイビ,0
2035,8020003030324,新規,0,2026-02-13,2026-02-13,合同会社ＡＸＩＳ　Ｄｉｎｉｎｇ,,合同会社,神奈川県,横浜市南区,永田山王台３８番２９－１１号,,14,105,2320074,,,,,,,2026-02-13,1,,,,,アクシスダイニング,0
2036,8020003030357,新規,0,2026-02-13,2026-02-13,紅巴合同会社,,合同会社,神奈川県,川崎市宮前区,有馬７丁目１３番７－１号,,14,136,2160003,,,,,,,2026-02-13,1,,,,,クレハ,0
2037,8020003030365,新規,0,2026-02-13,2026-02-13,合同会社Ｏｒｉｌｌａ,,合同会社,神奈川県,横浜市保土ケ谷区,上菅田町６８,,14,106,2400051,,,,,,,2026-02-13,1,,,,,オリラ,0
2038,8020003030398,新規,0,2026-02-13,2026-02-13,ＵＰＳＴＲＥＡ合同会社,,合同会社,神奈川県,川崎市高津区,下作延２丁目８―４７，ピアクレール溝の口１０３,,14,134,2130033,,,,,,,2026-02-13,1,,,,,アップストリーム,0
2041,8021001087513,新規,0,2026-02-13,2026-02-13,湾岸総合不動産株式会社,,株式会社,神奈川県,鎌倉市,極楽寺１丁目１１番１４－３号,,14,204,2480023,,,,,,,2026-02-13,1,,,,,ワンガンソウゴウフドウサン,0
2044,8021003017146,新規,0,2026-02-13,2026-02-13,合同会社Ｆｕｒｕｔａ　Ｃｏｎｓｕｌｔｉｎｇ,,合同会社,神奈川県,相模原市南区,上鶴間本町８丁目２８番６号,,14,153,2520318,,,,,,,2026-02-13,1,,,,,フルタコンサルティング,0
2056,8040001142466,新規,0,2026-02-13,2026-02-13,株式会社スパイス,,株式会社,千葉県,勝浦市,勝浦１１１,,12,218,2995234,,,,,,,2026-02-13,1,,,,,スパイス,0
2064,8040003029447,新規,0,2026-02-13,2026-02-13,合同会社ＯＣＥＡＮ　ｅｓｔａｔｅ,,合同会社,千葉県,習志野市,津田沼３丁目１０番８号,,12,216,2750016,,,,,,,2026-02-13,1,,,,,オーシャンエステイト,0
2066,8040005023043,新規,0,2026-02-13,2026-02-13,一般社団法人日本芸術文化教育支援機構,,その他の設立登記法人,千葉県,千葉市花見川区,朝日ケ丘４丁目３１番９号,,12,102,2620019,,,,,,,2026-02-13,1,,,,,ニッポンゲイジュツブンカキョウイクシエンキコウ,0
2071,8060003005958,新規,0,2026-02-13,2026-02-13,合同会社皆川商店,,合同会社,栃木県,宇都宮市,東今泉２丁目３番３０号グリーンハイツ２－１０８,,09,201,3210941,,,,,,,2026-02-13,1,,,,,ミナカワショウテン,0
2073,8070001043819,新規,0,2026-02-13,2026-02-13,株式会社晴和テック,,株式会社,群馬県,高崎市,京目町５７番地７,,10,202,3700011,,,,,,,2026-02-13,1,,,,,セイワテック,0
2074,8070001043827,新規,0,2026-02-13,2026-02-13,小林不動産株式会社,,株式会社,群馬県,渋川市,石原２０２－６,,10,208,3770007,,,,,,,2026-02-13,1,,,,,,0
2075,8070003006294,新規,0,2026-02-13,2026-02-13,合同会社ドラゴンフライズ群馬,,合同会社,群馬県,前橋市,住吉町２丁目８番２１－１０１号,,10,201,3710021,,,,,,,2026-02-13,1,,,,,ドラゴンフライズグンマ,0
2078,8080001027424,新規,0,2026-02-13,2026-02-13,株式会社ＳＵＲＵＧＡ　ＰＬＵＳ,,株式会社,静岡県,静岡市葵区,追手町１番２１号,,22,101,4200853,,,,,,,2026-02-13,1,,,,,スルガプラス,0
2100,8120001284069,新規,0,2026-02-13,2026-02-13,株式会社Ｒｅｉ　Ｄｅｓｉｇｎ,,株式会社,大阪府,大阪市北区,梅田１丁目１番３号大阪駅前第３ビル２９階１－１－１号室,,27,127,5300001,,,,,,,2026-02-13,1,,,,,レイデザイン,0
2101,8120001284077,新規,0,2026-02-13,2026-02-13,コテハンＢＡＳＥ株式会社,,株式会社,大阪府,大阪市鶴見区,安田２丁目２番５９号,,27,124,5380032,,,,,,,2026-02-13,1,,,,,コテハンベース,0
2102,8120001284110,新規,0,2026-02-13,2026-02-13,株式会社ハッピーグリーン,,株式会社,大阪府,大阪市天王寺区,舟橋町７番１１号ＹＡＴＡビル,,27,109,5430024,,,,,,,2026-02-13,1,,,,,ハッピーグリーン,0
2103,8120001284135,新規,0,2026-02-13,2026-02-13,億万株式会社,,株式会社,大阪府,大阪市城東区,鴫野西２丁目２番８号－５１６号,,27,118,5360014,,,,,,,2026-02-13,1,,,,,オクマン,0
2104,8120001284226,新規,0,2026-02-13,2026-02-13,株式会社ルルー,,株式会社,大阪府,大阪市北区,梅田１丁目２番２号大阪駅前第２ビル１２‐１２,,27,127,5300001,,,,,,,2026-02-13,1,,,,,ルルー,0
2108,8120003031907,新規,0,2026-02-13,2026-02-13,合同会社マオテアモ,,合同会社,大阪府,大阪市西区,京町堀１丁目１５番１８－３０３号,,27,106,5500003,,,,,,,2026-02-13,1,,,,,マオテアモ,0
2109,8120101073198,新規,0,2026-02-13,2026-02-13,株式会社ｍａｎｏｍａ,,株式会社,大阪府,堺市堺区,市之町西３丁１番５２号,,27,141,5900951,,,,,,,2026-02-13,1,,,,,マノマ,0
2111,8120903006074,新規,0,2026-02-13,2026-02-13,合同会社ＭＹ　ｃｏｒｐｏｒａｔｉｏｎ,,合同会社,大阪府,豊中市,緑丘４丁目４番７の１号,,27,203,5600002,,,,,,,2026-02-13,1,,,,,エムワイコーポレーション,0
2114,8130001081589,新規,0,2026-02-13,2026-02-13,Ｓａｉｔｏホールディングス株式会社,,株式会社,京都府,乙訓郡大山崎町,字大山崎小字尻江７０番地３,,26,303,6180071,,,,,,,2026-02-13,1,,,,,サイトウホールディングス,0
2115,8130001081597,新規,0,2026-02-13,2026-02-13,株式会社コンパス京都技研,,株式会社,京都府,京都市中京区,河原町通御池下る下丸屋町３９０番地２ＱＵＥＳＴＩＯＮ内,,26,104,6048006,,,,,,,2026-02-13,1,,,,,コンパスキョウトギケン,0
2116,8130001081614,新規,0,2026-02-13,2026-02-13,株式会社Ｉ　ｅｔ　Ｂ,,株式会社,京都府,京都市中京区,山田町５２６,,26,104,6048237,,,,,,,2026-02-13,1,,,,,イエベ,0
2117,8130003011148,新規,0,2026-02-13,2026-02-13,合同会社裕楽,,合同会社,京都府,京都市中京区,泉正寺町３１８シャイン蛸薬師５０３,,26,104,6048141,,,,,,,2026-02-13,1,,,,,ユウラク,0
2124,8160001027416,新規,0,2026-02-13,2026-02-13,株式会社ストロヴィレッジ,,株式会社,滋賀県,近江八幡市,安土町桑実寺９２３番地,,25,204,5211321,,,,,,,2026-02-13,1,,,,,ストロヴィレッジ,0
2138,8180001170651,新規,0,2026-02-13,2026-02-13,株式会社弘華,,株式会社,愛知県,一宮市,大和町苅安賀字伝治越２４番地２,,23,203,4910934,,,,,,,2026-02-13,1,,,,,ヒロカ,0
2139,8180001170668,新規,0,2026-02-13,2026-02-13,株式会社ＮＥＯ,,株式会社,愛知県,海部郡大治町,大字西條字殿池３７番地の２,,23,424,4901144,,,,,,,2026-02-13,1,,,,,ネオ,0
2140,8180003029771,新規,0,2026-02-13,2026-02-13,スターブラスカンパニー合同会社,,合同会社,愛知県,名古屋市中村区,岩塚町字西枝１番地の１八田マンション７０６号,,23,105,4530862,,,,,,,2026-02-13,1,,,,,スターブラスカンパニー,0
2146,8190003005350,新規,0,2026-02-13,2026-02-13,真和経営合同会社,,合同会社,三重県,三重郡朝日町,大字柿３２４５番地,,24,343,5108103,,,,,,,2026-02-13,1,,,,,シンワケイエイ,0
2151,8260001012424,新規,0,2026-02-13,2026-02-13,株式会社愛証,,株式会社,岡山県,倉敷市,水島西栄町７番５号,,33,202,7128034,,,,,,,2026-02-13,1,,,,,アイショウ,0
2157,8280001009583,新規,0,2026-02-13,2026-02-13,株式会社池田商事,,株式会社,島根県,隠岐郡隠岐の島町,城北町４０４番地,,32,528,6850016,,,,,,,2026-02-13,1,,,,,イケダショウジ,0
2161,8290001113153,新規,0,2026-02-13,2026-02-13,株式会社ＩＳＩ,,株式会社,福岡県,飯塚市,平塚４２７番地１,,40,205,8200702,,,,,,,2026-02-13,1,,,,,アイエスアイ,0
2165,8320001021575,新規,0,2026-02-13,2026-02-13,株式会社風と土,,株式会社,大分県,竹田市,直入町大字長湯７７５９番地,,44,208,8780402,,,,,,,2026-02-13,1,,,,,カゼトツチ,0
2171,8330003011433,新規,0,2026-02-13,2026-02-13,合同会社トラスト,,合同会社,熊本県,熊本市中央区,小沢町１３０アレグリア小沢５０３,,43,101,8600042,,,,,,,2026-02-13,1,,,,,トラスト,0
2172,8340001027967,新規,0,2026-02-13,2026-02-13,ＮＩＮＥ株式会社,,株式会社,鹿児島県,霧島市,国分重久１１６５番地１,,46,218,8994301,,,,,,,2026-02-13,1,,,,,ナイン,0
2173,8340003005095,新規,0,2026-02-13,2026-02-13,ラクレス合同会社,,合同会社,鹿児島県,肝属郡南大隅町,根占川南７３２,,46,491,8932502,,,,,,,2026-02-13,1,,,,,ラクレス,0
2184,8360003015621,新規,0,2026-02-13,2026-02-13,合同会社ＡＭＵＷＡ,,合同会社,沖縄県,那覇市,泉崎２丁目１０１－１９サンテラス４０３号,,47,201,9000021,,,,,,,2026-02-13,1,,,,,アムーワ,0
2185,8370001053481,新規,0,2026-02-13,2026-02-13,株式会社Ｂｉｏｓ,,株式会社,宮城県,仙台市青葉区,国分町１丁目８番１３号,,04,101,9800803,,,,,,,2026-02-13,1,,,,,ビオス,0
2190,8400001017326,新規,0,2026-02-13,2026-02-13,株式会社真昼農産,,株式会社,岩手県,和賀郡西和賀町,沢内字前郷６地割６番地,,03,366,0295613,,,,,,,2026-02-13,1,,,,,マヒルノウサン,0
2196,8430001096219,新規,0,2026-02-13,2026-02-13,株式会社ＴＨＤ,,株式会社,北海道,札幌市西区,八軒九条西２丁目２番５号,,01,107,0630849,,,,,,,2026-02-13,1,,,,,ティエッチディー,0
2197,8430001096251,新規,0,2026-02-13,2026-02-13,株式会社テロメア,,株式会社,北海道,札幌市中央区,宮の森四条１１丁目７番１９号,,01,101,0640954,,,,,,,2026-02-13,1,,,,,テロメア,0
2200,8430003018575,新規,0,2026-02-13,2026-02-13,Ａｎｎｅ　Ｅｎｔｅｒｔａｉｎｍｅｎｔ　Ｌａｂ．合同会社,,合同会社,北海道,札幌市北区,北八条西１丁目３番地ＯＮＥ札幌ステーションタワー１６１７号,,01,102,0600808,,,,,,,2026-02-13,1,,,,,アンエンタテインメントラボ,0
2201,8430003018583,新規,0,2026-02-13,2026-02-13,合同会社ｙ’ｓ　ｓｔｙｌｅ,,合同会社,北海道,札幌市北区,新琴似十二条１０丁目３番５２－２０３号,,01,102,0010912,,,,,,,2026-02-13,1,,,,,ワイズスタイル,0
2208,8700150134412,新規,0,2026-02-13,2026-02-13,ＨｏｎｅｙＧｏｌｆ　ＬＬＣ,,外国会社等,,,,,,,,１１７１７　Ｃｌｕｂ　ｈｏｕｓｅ　Ｄｒｉｖｅ，Ｌａｋｅｗｏｏｄ　Ｒａｎｃｈ，Ｆｌｏｒｉｄａ，ＵＳ，３４２０２,,,,,,2026-02-13,1,,,,,ハニーゴルフエルエルシー,0
2220,9010001262621,新規,0,2026-02-13,2026-02-13,タイムアートワークス株式会社,,株式会社,東京都,中央区,日本橋小伝馬町１４－５,,13,102,1030001,,,,,,,2026-02-13,1,,,,,タイムアートワークス,0
2221,9010001262704,新規,0,2026-02-13,2026-02-13,ＹＯＲＯＺＵ　Ｇｌｏｂａｌ株式会社,,株式会社,東京都,千代田区,神田駿河台２丁目２御茶ノ水杏雲ビル８階,,13,101,1010062,,,,,,,2026-02-13,1,,,,,ヨロズグローバル,0
2222,9010001262811,新規,0,2026-02-13,2026-02-13,ヒョンデＥ＆Ｃジャパン株式会社,,株式会社,東京都,千代田区,丸の内３丁目４番２号,,13,101,1000005,,,,,,,2026-02-13,1,,,,,ヒョンデイーアンドシージャパン,0
2227,9010401195990,新規,0,2026-02-13,2026-02-13,株式会社スキルド,,株式会社,東京都,港区,北青山１丁目３番１号,,13,103,1070061,,,,,,,2026-02-13,1,,,,,スキルド,0
2228,9010401196527,新規,0,2026-02-13,2026-02-13,株式会社ｍａｂｙｓｓ,,株式会社,東京都,港区,六本木３丁目１６番１２号六本木ＫＳビル５Ｆ,,13,103,1060032,,,,,,,2026-02-13,1,,,,,マビス,0
2229,9010401196576,新規,0,2026-02-13,2026-02-13,株式会社Ａｕｒｂｅ,,株式会社,東京都,港区,南青山２丁目２番１５号,,13,103,1070062,,,,,,,2026-02-13,1,,,,,オーブ,0
2232,9010403037258,新規,0,2026-02-13,2026-02-13,ＹａｈｒｅｎＳｏｒａｎ合同会社,,合同会社,東京都,港区,六本木４丁目３番地１１号六本木ユニハウス３０７号室,,13,103,1060032,,,,,,,2026-02-13,1,,,,,ヤレンソラン,0
2233,9010403037290,新規,0,2026-02-13,2026-02-13,合同会社はくたか,,合同会社,東京都,港区,虎ノ門１丁目２３番１号,,13,103,1050001,,,,,,,2026-02-13,1,,,,,ハクタカ,0
2239,9010703008132,新規,0,2026-02-13,2026-02-13,ケーティーアセット合同会社,,合同会社,東京都,品川区,南大井２丁目１０番６－２２０３号,,13,109,1400013,,,,,,,2026-02-13,1,,,,,ケーティーアセット,0
2241,9010801037041,新規,0,2026-02-13,2026-02-13,株式会社スリーライズ,,株式会社,東京都,大田区,西糀谷１丁目十八番二十号,,13,111,1440034,,,,,,,2026-02-13,1,,,,,スリーライズ,0
2246,9011001175326,新規,0,2026-02-13,2026-02-13,株式会社ＬｅｅＬｏｏ,,株式会社,東京都,渋谷区,神南１丁目１３番４号ＩＤＯビル１Ｆ１Ｂ,,13,113,1500041,,,,,,,2026-02-13,1,,,,,リールー,0
2247,9011001175409,新規,0,2026-02-13,2026-02-13,株式会社マシュマロ,,株式会社,東京都,渋谷区,神宮前１丁目１２番４号,,13,113,1500001,,,,,,,2026-02-13,1,,,,,マシュマロ,0
2248,9011001175417,新規,0,2026-02-13,2026-02-13,ウェルネスアマミ株式会社,,株式会社,東京都,目黒区,洗足２丁目１５番１４号,,13,110,1520012,,,,,,,2026-02-13,1,,,,,ウェルネスアマミ,0
2249,9011001175697,新規,0,2026-02-13,2026-02-13,ｅｇｇｇｚ　ｅｎｅｒｇｙ株式会社,,株式会社,東京都,渋谷区,道玄坂１丁目１０番８号渋谷道玄坂東急ビル２Ｆ－Ｃ,,13,113,1500043,,,,,,,2026-02-13,1,,,,,エッグズエナジー,0
2250,9011003023532,新規,0,2026-02-13,2026-02-13,合同会社ＮＭＫ　Ｇｒｏｕｐ,,合同会社,東京都,目黒区,中根１丁目１２番１８－４０４号,,13,110,1520031,,,,,,,2026-02-13,1,,,,,エヌエムケーグループ,0
2251,9011003023557,新規,0,2026-02-13,2026-02-13,アオバ自動車合同会社,,合同会社,東京都,目黒区,青葉台３丁目１５番８号,,13,110,1530042,,,,,,,2026-02-13,1,,,,,アオバジドウシャ,0
2257,9011101114704,新規,0,2026-02-13,2026-02-13,株式会社アトリエ・アンクレ,,株式会社,東京都,新宿区,西早稲田２丁目１０番１３号ヴィラコート西早稲田３０５,,13,104,1690051,,,,,,,2026-02-13,1,,,,,アトリエアンクレ,0
2258,9011101114745,新規,0,2026-02-13,2026-02-13,株式会社清河建装,,株式会社,東京都,新宿区,新宿７丁目２７番１２－８０４号,,13,104,1600022,,,,,,,2026-02-13,1,,,,,キヨカワケンソウ,0
2264,9011803007321,新規,0,2026-02-13,2026-02-13,合同会社ｔａｓｋ,,合同会社,東京都,足立区,東保木間１丁目２番６号,,13,121,1210063,,,,,,,2026-02-13,1,,,,,タスク,0
2267,9012401044137,新規,0,2026-02-13,2026-02-13,よりね株式会社,,株式会社,東京都,武蔵野市,吉祥寺南町３丁目１９‐３,,13,203,1800003,,,,,,,2026-02-13,1,,,,,ヨリネ,0
2271,9013301055744,新規,0,2026-02-13,2026-02-13,代官町コーポレーション株式会社,,株式会社,東京都,豊島区,東池袋２丁目６２番８号ＢＩＧオフィスプラザ池袋１２０６,,13,116,1700013,,,,,,,2026-02-13,1,,,,,ダイカンチョウコーポレーション,0
2277,9020001166953,新規,0,2026-02-13,2026-02-13,株式会社ＶＥＸＴ　ＬＯＧＩＳＴＩＣＳ,,株式会社,神奈川県,横浜市南区,永田山王台２３－７,,14,105,2320074,,,,,,,2026-02-13,1,,,,,ヴェクストロジスティクス,0
2278,9020001167010,新規,0,2026-02-13,2026-02-13,Ｍｅｇｌｉｓｓ株式会社,,株式会社,神奈川県,川崎市高津区,下作延２丁目１４番１５－１０６号ナイスアーバン溝の口,,14,134,2130033,,,,,,,2026-02-13,1,,,,,メグリス,0
2279,9020001167019,新規,0,2026-02-13,2026-02-13,株式会社ＳＵＮＳＵＮダンスアカデミー,,株式会社,神奈川県,横浜市中区,羽衣町３丁目６３－５Ｆ,,14,104,2310047,,,,,,,2026-02-13,1,,,,,サンサンダンスアカデミー,0
2280,9020001167051,新規,0,2026-02-13,2026-02-13,株式会社Ｊｅｗｅｌｒｙ　ＬＩＶＥ＆ＰＥＡＣＥ,,株式会社,神奈川県,横浜市中区,山下町１２８番地２メゾーネ山下町８０１,,14,104,2310023,,,,,,,2026-02-13,1,,,,,ジュエリーライブアンドピース,0
2283,9020003030372,新規,0,2026-02-13,2026-02-13,合同会社ＧＲＥＥＮビート１９６０,,合同会社,神奈川県,横浜市泉区,緑園４丁目３番地１サンステージ緑園都市東の街２番館２０８号,,14,116,2450002,,,,,,,2026-02-13,1,,,,,グリーンビートイチキュウロクゼロ,0
2284,9020003030389,新規,0,2026-02-13,2026-02-13,ユリ・ビジネスマネジメント合同会社,,合同会社,神奈川県,横浜市金沢区,西柴２丁目４番３号,,14,108,2360017,,,,,,,2026-02-13,1,,,,,ユリビジネスマネジメント,0
2285,9021001087479,新規,0,2026-02-13,2026-02-13,ＡＮＭＩＲＡ　ＴＥＣＨＮＯＬＯＧＩＥＳ株式会社,,株式会社,神奈川県,相模原市南区,上鶴間本町１丁目６番１５号,,14,153,2520318,,,,,,,2026-02-13,1,,,,,,0
2286,9021001087537,新規,0,2026-02-13,2026-02-13,八王子地質株式会社,,株式会社,神奈川県,相模原市中央区,田名４４１１番地,,14,152,2520244,,,,,,,2026-02-13,1,,,,,ハチオウジチシツ,0
2287,9021001087545,新規,0,2026-02-13,2026-02-13,株式会社フェニックス,,株式会社,神奈川県,海老名市,国分北２丁目１０番３１号,,14,215,2430406,,,,,,,2026-02-13,1,,,,,フェニックス,0
2296,9030003028655,新規,0,2026-02-13,2026-02-13,Ｒｏｋｕｓａｎｇｏ合同会社,,合同会社,埼玉県,所沢市,西所沢１丁目１６番３０号,,11,208,3591144,,,,,,,2026-02-13,1,,,,,ロクサンゴ,0
2303,9040001142481,新規,0,2026-02-13,2026-02-13,株式会社リバイブ・オート,,株式会社,千葉県,千葉市稲毛区,山王町２３５番地１,,12,103,2630002,,,,,,,2026-02-13,1,,,,,リバイブオート,0
2312,9040003029421,新規,0,2026-02-13,2026-02-13,合同会社ＮＥＴＨＥＲ,,合同会社,千葉県,千葉市美浜区,磯辺６丁目６番地磯辺西住宅８棟３０２号,,12,106,2610012,,,,,,,2026-02-13,1,,,,,ネザー,0
2342,9120001284068,新規,0,2026-02-13,2026-02-13,株式会社ｔ．ｋ．ｇ,,株式会社,大阪府,大阪市中央区,南船場３丁目２番２２－２０５号,,27,128,5420081,,,,,,,2026-02-13,1,,,,,ティーケージー,0
2343,9120001284101,新規,0,2026-02-13,2026-02-13,株式会社Ｌ,,株式会社,大阪府,大阪市北区,梅田２丁目２番２号ヒルトンプラザウエスト１９階,,27,127,5300001,,,,,,,2026-02-13,1,,,,,エル,0
2344,9120001284191,新規,0,2026-02-13,2026-02-13,Ｒａｄｉａｎｃｅ株式会社,,株式会社,大阪府,大阪市西成区,玉出西２丁目１０番２２－１４０７号,,27,122,5570045,,,,,,,2026-02-13,1,,,,,ラディアンス,0
2349,9120005025410,新規,0,2026-02-13,2026-02-13,弁護士法人さくら天神法律事務所,,その他の設立登記法人,大阪府,大阪市北区,天満１丁目５番２号トリシマオフィスワンビル７階,,27,127,5300043,,,,,,,2026-02-13,1,,,,,サクラテンジンホウリツジムショ,0
2350,9120101073180,新規,0,2026-02-13,2026-02-13,株式会社稼ぎ頭,,株式会社,大阪府,堺市北区,蔵前町２丁１２番２４－１０２号,,27,146,5918004,,,,,,,2026-02-13,1,,,,,カセギガシラ,0
2351,9120101073189,新規,0,2026-02-13,2026-02-13,株式会社アルゴホールディングス,,株式会社,大阪府,堺市美原区,小平尾６４４番地４,,27,147,5870021,,,,,,,2026-02-13,1,,,,,アルゴホールディングス,0
2352,9120101073206,新規,0,2026-02-13,2026-02-13,株式会社グリッター,,株式会社,大阪府,岸和田市,稲場町６９２番地,,27,202,5960000,,,,,,,2026-02-13,1,,,,,グリッター,0
2360,9130001081588,新規,0,2026-02-13,2026-02-13,株式会社オリと,,株式会社,京都府,京都市北区,紫野北舟岡町２２番地コスモ紫野６０５号,,26,101,6038227,,,,,,,2026-02-13,1,,,,,オリト,0
2366,9150001028728,新規,0,2026-02-13,2026-02-13,株式会社二隆建設,,株式会社,奈良県,生駒郡斑鳩町,稲葉車瀬１丁目１５番１号,,29,344,6360141,,,,,,,2026-02-13,1,,,,,ニタカケンセツ,0
2367,9170001018982,新規,0,2026-02-13,2026-02-13,株式会社増田タイヤ商会,,株式会社,和歌山県,橋本市,高野口町大野２２８番地の１,,30,203,6497207,,,,,,,2026-02-13,1,,,,,マスダタイヤショウカイ,0
2368,9170003002381,新規,0,2026-02-13,2026-02-13,合同会社ｓｏｌｏ．,,合同会社,和歌山県,和歌山市,島５番地２,,30,201,6496314,,,,,,,2026-02-13,1,,,,,ソロ,0
2380,9180001170592,新規,0,2026-02-13,2026-02-13,株式会社ＨＲＳ自動車,,株式会社,愛知県,北名古屋市,六ツ師南屋敷８０５番地１,,23,234,4810001,,,,,,,2026-02-13,1,,,,,エイチアールエス,0
2381,9180001170601,新規,0,2026-02-13,2026-02-13,丹心電気株式会社,,株式会社,愛知県,あま市,森４丁目５番地１０,,23,237,4901107,,,,,,,2026-02-13,1,,,,,タンシンデンキ,0
2382,9180001170618,新規,0,2026-02-13,2026-02-13,タイムホールディングス株式会社,,株式会社,愛知県,丹羽郡大口町,外坪５丁目９８番地,,23,361,4800125,,,,,,,2026-02-13,1,,,,,タイムホールディングス,0
2383,9180001170650,新規,0,2026-02-13,2026-02-13,株式会社ＹＫＹ,,株式会社,愛知県,稲沢市,祖父江町大牧北沼８９番地１,,23,220,4950014,,,,,,,2026-02-13,1,,,,,ワイケーワイ,0
2384,9180001170659,新規,0,2026-02-13,2026-02-13,ＲＩＤ株式会社,,株式会社,愛知県,名古屋市東区,泉３丁目１３番２２号－６０１,,23,102,4610001,,,,,,,2026-02-13,1,,,,,アールアディー,0
2385,9180001170675,新規,0,2026-02-13,2026-02-13,未来住宅産業株式会社,,株式会社,愛知県,名古屋市北区,西味鋺５丁目７０２番地,,23,103,4620016,,,,,,,2026-02-13,1,,,,,ミライジュウタクサンギョウ,0
2389,9180003029762,新規,0,2026-02-13,2026-02-13,合同会社ほがら,,合同会社,愛知県,名古屋市天白区,福池２丁目１４３番地,,23,116,4680049,,,,,,,2026-02-13,1,,,,,ホガラ,0
2390,9180003029779,新規,0,2026-02-13,2026-02-13,合同会社ナイトクリーニング,,合同会社,愛知県,名古屋市緑区,池上台２丁目３９番地,,23,114,4580044,,,,,,,2026-02-13,1,,,,,ナイトクリーニング,0
2391,9180005021420,新規,0,2026-02-13,2026-02-13,一般社団法人トルコ日本親善友好協会,,その他の設立登記法人,愛知県,名古屋市西区,平出町１４４,,23,104,4520832,,,,,,,2026-02-13,1,,,,,トルコニホンシンゼンユウコウキョウカイ,0
2407,9210003002006,新規,0,2026-02-13,2026-02-13,合同会社万承,,合同会社,福井県,あわら市,市姫２丁目２５－１５,,18,208,9190621,,,,,,,2026-02-13,1,,,,,バンショウ,0
2421,9280003002032,新規,0,2026-02-13,2026-02-13,合同会社うぇるびぃ,,合同会社,島根県,安来市,荒島町１５２０‐８,,32,206,6920007,,,,,,,2026-02-13,1,,,,,ウェルビィ,0
2425,9290001113094,新規,0,2026-02-13,2026-02-13,Ｍｏｖｉｅ．ＸＰｒｏｍｏｔｉｏｎ株式会社,,株式会社,福岡県,久留米市,城島町城島２４５番地１０,,40,203,8300207,,,,,,,2026-02-13,1,,,,,ムービックスプロモーション,0
2435,9340001027966,新規,0,2026-02-13,2026-02-13,株式会社大吉,,株式会社,鹿児島県,鹿児島市,真砂町３０番１号２Ｆ,,46,201,8900066,,,,,,,2026-02-13,1,,,,,ダイキチ,0
2436,9340001027974,新規,0,2026-02-13,2026-02-13,株式会社Ａｃｔｉｌｉｎｅ,,株式会社,鹿児島県,鹿児島市,中山２丁目１５番１５号ベール・エメロードゥ２０５号,,46,201,8910108,,,,,,,2026-02-13,1,,,,,アクティライン,0
2442,9360003015612,新規,0,2026-02-13,2026-02-13,合同会社ＶＳＥ　Ｍａｎａｇｅｍｅｎｔ,,合同会社,沖縄県,中頭郡北谷町,字桑江５９５－３－２Ｆ,,47,326,9040103,,,,,,,2026-02-13,1,,,,,ヴィエスイマネジメント,0
2443,9360003015620,新規,0,2026-02-13,2026-02-13,合同会社美装企画,,合同会社,沖縄県,南城市,玉城字愛地６３７番地３,,47,215,9010617,,,,,,,2026-02-13,1,,,,,ビソウキカク,0
2447,9380005013067,新規,0,2026-02-13,2026-02-13,特定非営利活動法人会津女子ベースボールクラブ,,その他の設立登記法人,福島県,会津若松市,大町２丁目１２番１６号,,07,202,9650042,,,,,,,2026-02-13,1,,,,,アイヅジョシベースボールクラブ,0
2452,9430001096218,新規,0,2026-02-13,2026-02-13,株式会社Ｙｏｋｏｏ不動産,,株式会社,北海道,札幌市中央区,南四条西２１丁目１番１２－４０５号,,01,101,0640804,,,,,,,2026-02-13,1,,,,,ヨコオフドウサン,0
2453,9430003018590,新規,0,2026-02-13,2026-02-13,合同会社咲む,,合同会社,北海道,伊達市,館山町１２番地２０,,01,233,0520031,,,,,,,2026-02-13,1,,,,,エム,0
2454,9460101007815,新規,0,2026-02-13,2026-02-13,株式会社とかち豊農舎,,株式会社,北海道,河西郡更別村,字更別西四線１７番地２１,,01,639,0891542,,,,,,,2026-02-13,1,,,,,トカチホウノウシャ,0
2455,9460301005346,新規,0,2026-02-13,2026-02-13,株式会社共生ケアサービス衣音,,株式会社,北海道,北見市,広明町１９８番地３９,,01,208,0900823,,,,,,,2026-02-13,1,,,,,キョウセイケアサービスイト,0
2456,9480003002391,新規,0,2026-02-13,2026-02-13,合同会社あかり,,合同会社,徳島県,阿南市,新野町信里６番地１,,36,204,7791510,,,,,,,2026-02-13,1,,,,,アカリ,0
2459,9500001026778,新規,0,2026-02-13,2026-02-13,誠和ＫＡＨ株式会社,,株式会社,愛媛県,新居浜市,宇高町１丁目１番２８号,,38,205,7920866,,,,,,,2026-02-13,1,,,,,セイワケーエーエイチ,0
2460,9700150134411,新規,0,2026-02-13,2026-02-13,前川町協和会,,その他,京都府,京都市伏見区,竹田中内畑町１３４番地の２,,26,109,6128446,,,,,,,2026-02-13,1,,,,,マエガワチヨウキヨウワカイ,0
