sequenceNumber,corporateNumber,process,correct,updateDate,changeDate,name,nameImageId,kind,prefectureName,cityName,streetNumber,addressImageId,prefectureCode,cityCode,postCode,addressOutside,addressOutsideImageId,closeDate,closeCause,successorCorporateNumber,changeCause,assignmentDate,latest,enName,enPrefectureName,enCityName,enAddressOutside,furigana,hihyoji
3,1010001177042,登記記録の閉鎖等,0,2022-09-05,2022-08-31,株式会社グリーンウェル,,株式会社,東京都,千代田区,神田紺屋町１４千代田寿ビル５０１,,13,101,1010035,,,2022-08-31,清算の結了等,,,2016-07-20,1,,,,,グリーンウェル,0
19,1010402004968,登記記録の閉鎖等,0,2022-09-05,2022-08-19,有限会社小管彩色工業所,,有限会社,東京都,港区,白金３丁目１６番１２号,,13,103,1080072,,,2022-08-19,清算の結了等,,,2015-10-05,1,,,,,コスゲサイショクコウギョウショ,0
21,1010403019404,登記記録の閉鎖等,0,2022-09-05,2022-08-19,Ｓｈｉｎｈａｎ　Ｏｄｙｓｓｅｙ　Ｊａｐａｎ　Ｈｏｓｐｉｔａｌｉｔｙ　Ｓｅｒｖｉｃｅｓ合同会社,,合同会社,東京都,港区,六本木２丁目２番６号六本木福吉町ビル７Ｆ,,13,103,1060032,,,2022-08-19,清算の結了等,,,2018-10-01,1,,,,,シンハンオデッセイジャパンホスピタリティサービシス,0
25,1010501041565,登記記録の閉鎖等,0,2022-09-05,2022-09-01,株式会社エス・ビルドシステム,,株式会社,東京都,台東区,柳橋１丁目１番１１号,,13,106,1110052,,,2022-09-01,合併による解散等,3120001104966,令和４年９月１日大阪市中央区道修町一丁目５番１８号株式会社エス・ビルド（3120001104966）に合併し解散,2017-09-11,1,,,,,エスビルドシステム,0
34,1010801009015,登記記録の閉鎖等,0,2022-09-05,2022-08-30,日本タクト株式会社,,株式会社,東京都,大田区,北馬込１丁目１８番１４号,,13,111,1430021,,,2022-08-30,清算の結了等,,,2015-10-05,1,,,,,ニホンタクト,0
35,1010901029879,登記記録の閉鎖等,0,2022-09-05,2022-09-01,株式会社東京調剤,,株式会社,東京都,三鷹市,下連雀６丁目１７番３３号,,13,204,1810013,,,2022-09-01,清算の結了等,,,2015-10-05,1,,,,,トウキョウチョウザイ,0
54,1011601002820,登記記録の閉鎖等,0,2022-09-05,2022-08-31,株式会社家土地所,,株式会社,東京都,練馬区,西大泉２丁目１６番２３号,,13,120,1780065,,,2022-08-31,清算の結了等,,,2015-10-05,1,,,,,カトウジショ,0
77,1020002081837,登記記録の閉鎖等,0,2022-09-05,2022-08-31,有限会社ミサエ,,有限会社,神奈川県,川崎市幸区,鹿島田２丁目５番２３号,,14,132,2120058,,,2022-08-31,清算の結了等,,,2015-10-05,1,,,,,ミサエ,0
90,1021002066308,登記記録の閉鎖等,0,2022-09-05,2022-08-31,有限会社葉山不動産,,有限会社,神奈川県,横須賀市,大滝町２丁目１０番地,,14,201,2380008,,,2022-08-31,清算の結了等,,,2015-10-05,1,,,,,ハヤマフドウサン,0
104,1050001047183,登記記録の閉鎖等,0,2022-09-05,2022-08-26,株式会社大縁総建,,株式会社,茨城県,土浦市,乙戸南３丁目５番１９号,,08,203,3000845,,,2022-08-26,清算の結了等,,,2020-02-18,1,,,,,ダイエンソウケン,0
123,1080101014865,登記記録の閉鎖等,0,2022-09-05,2022-09-01,春日漁業株式会社,,株式会社,静岡県,賀茂郡西伊豆町,安良里５２９番地の１,,22,306,4103502,,,2022-09-01,清算の結了等,,,2015-10-05,1,,,,,カスガギョギョウ,0
128,1100002017824,登記記録の閉鎖等,0,2022-09-05,2022-08-30,有限会社川島左官工業所,,有限会社,長野県,中野市,大字小田中３９７番地３,,20,211,3830037,,,2022-08-30,清算の結了等,,,2015-10-05,1,,,,,カワシマサカンコウギョウショ,0
129,1110001033268,登記記録の閉鎖等,0,2022-09-05,2022-09-01,Ｌ’ｕｎｉｑｕｅ株式会社,,株式会社,新潟県,新潟市中央区,北多門町２３１２番地１ＨＧビル４Ｆ,,15,103,9518048,,,2022-09-01,清算の結了等,,,2018-05-22,1,,,,,リュニック,0
134,1120001092271,登記記録の閉鎖等,0,2022-09-05,2022-08-31,株式会社ルナ神戸,,株式会社,兵庫県,神戸市北区,鈴蘭台北町４丁目１番３２－５０４号,,28,109,6511111,,,2022-08-31,清算の結了等,,,2015-10-05,1,,,,,ルナコウベ,0
146,1120002016527,登記記録の閉鎖等,0,2022-09-05,2022-09-01,有限会社住吉荘,,有限会社,大阪府,大阪市住之江区,住之江３丁目１番２号,,27,125,5590004,,,2022-09-01,清算の結了等,,,2015-10-05,1,,,,,スミヨシソウ,0
155,1120101063585,登記記録の閉鎖等,0,2022-09-05,2022-09-01,株式会社プロキシ,,株式会社,大阪府,岸和田市,南上町１丁目８番５号,,27,202,5960078,,,2022-09-01,清算の結了等,,,2021-05-13,1,,,,,プロキシ,0
166,1130002001239,登記記録の閉鎖等,0,2022-09-05,2022-08-30,有限会社西田,,有限会社,京都府,京都市右京区,太秦森ケ西町１０番地,,26,108,6168106,,,2022-08-30,清算の結了等,,,2015-10-05,1,,,,,ニシダ,0
171,1140001060697,登記記録の閉鎖等,0,2022-09-05,2022-08-26,株式会社長谷川新聞舖,,株式会社,兵庫県,姫路市,西今宿６丁目２１番１６号,,28,201,6700061,,,2022-08-26,清算の結了等,,,2015-10-05,1,,,,,ハセガワシンブンホ,0
186,1170001011103,登記記録の閉鎖等,0,2022-09-05,2022-09-02,山崎株式会社,,株式会社,和歌山県,橋本市,高野口町伏原７０６番地,,30,203,6497202,,,2022-09-02,清算の結了等,,,2015-10-05,1,,,,,ヤマザキ,0
196,1180003010647,登記記録の閉鎖等,0,2022-09-05,2022-08-30,合資会社地蔵島鉱山,,合資会社,愛知県,名古屋市南区,弥生町１４３番地,,23,112,4570027,,,2022-08-30,清算の結了等,,,2015-10-05,1,,,,,ジゾウジマコウザン,0
199,1180301014738,登記記録の閉鎖等,0,2022-09-05,2022-08-31,株式会社シンコー,,株式会社,愛知県,知立市,中町中１３２番地,,23,225,4720033,,,2022-08-31,清算の結了等,,,2015-10-05,1,,,,,シンコー,0
200,1180302002320,登記記録の閉鎖等,0,2022-09-05,2022-08-31,中太酒販有限会社,,有限会社,愛知県,岡崎市,真伝町字続木屋敷８番地２,,23,202,4443174,,,2022-08-31,清算の結了等,,,2015-10-05,1,,,,,,0
245,1290802016635,登記記録の閉鎖等,0,2022-09-05,2022-08-31,有限会社松円商店,,有限会社,福岡県,遠賀郡岡垣町,中央台３丁目１番３号,,40,383,8114218,,,2022-08-31,清算の結了等,,,2015-10-05,1,,,,,マツエンショウテン,0
262,1370002007889,登記記録の閉鎖等,0,2022-09-05,2022-08-29,有限会社仙南スチールルーフ工業,,有限会社,宮城県,仙台市太白区,ひより台９番１１号,,04,104,9820811,,,2022-08-29,清算の結了等,,,2015-10-05,1,,,,,,0
266,1380002029362,登記記録の閉鎖等,0,2022-09-05,2022-09-02,有限会社遠藤工業,,有限会社,福島県,南相馬市,小高区上根沢字糟内９２番地の２,,07,212,9792155,,,2022-09-02,清算の結了等,,,2015-10-05,1,,,,,,0
274,1420002011357,登記記録の閉鎖等,0,2022-09-05,2022-09-01,有限会社北洲企業会計,,有限会社,青森県,五所川原市,字末広町９番地３７,,02,205,0370056,,,2022-09-01,清算の結了等,,,2015-10-05,1,,,,,ホクシュウキギョウカイケイ,0
284,1480001010528,登記記録の閉鎖等,0,2022-09-05,2022-09-02,株式会社Ｃｈｉｌｄ’ｓ　Ｍｉｎｄ,,株式会社,徳島県,吉野川市,鴨島町鴨島１７７番地８,,36,205,7760010,,,2022-09-02,清算の結了等,,,2018-11-02,1,,,,,チャイルズマインド,0
287,1490002003554,登記記録の閉鎖等,0,2022-09-05,2022-08-31,有限会社土佐木工所,,有限会社,高知県,高知市,南金田２番３８号,,39,201,7800074,,,2022-08-31,清算の結了等,,,2015-10-05,1,,,,,トサモッコウショ,0
300,2010401019215,登記記録の閉鎖等,0,2022-09-05,2022-08-19,東西通商株式会社,,株式会社,東京都,港区,西新橋２丁目９番７号,,13,103,1050003,,,2022-08-19,清算の結了等,,,2015-10-05,1,,,,,トウザイツウショウ,0
329,2011001101239,登記記録の閉鎖等,0,2022-09-05,2022-08-31,ＮＤＰ　Ｍｅｄｉａ株式会社,,株式会社,東京都,中央区,日本橋浜町２丁目５５番７号,,13,102,1030007,,,2022-08-31,清算の結了等,,,2015-10-05,1,,,,,エヌディーピーメディア,0
343,2011401022927,登記記録の閉鎖等,0,2022-09-05,2022-09-01,ＣＷＧＭマトラスジャパン株式会社,,株式会社,東京都,板橋区,小豆沢２丁目３４番９号,,13,119,1740051,,,2022-09-01,清算の結了等,,,2020-11-09,1,,,,,シーダブルジーエムマトラスジャパン,0
353,2012401012133,登記記録の閉鎖等,0,2022-09-05,2022-09-01,株式会社アカイダ電設,,株式会社,東京都,三鷹市,中原１丁目２９番４４号,,13,204,1810005,,,2022-09-01,清算の結了等,,,2015-10-05,1,,,,,アカイダデンセツ,0
372,2020002040899,登記記録の閉鎖等,0,2022-09-05,2022-08-31,有限会社Ｊ・サポート,,有限会社,神奈川県,横浜市鶴見区,鶴見中央４丁目５番９号由野ビル２０４号,,14,101,2300051,,,2022-08-31,清算の結了等,,,2015-10-05,1,,,,,ジェイサポート,0
373,2020002054016,登記記録の閉鎖等,0,2022-09-05,2022-08-31,有限会社ワイエービー建築音響設計,,有限会社,神奈川県,横浜市青葉区,荏田町２４６番地３５号,,14,117,2250013,,,2022-08-31,清算の結了等,,,2015-10-05,1,,,,,ワイエービーケンチクオンキョウセッケイ,0
374,2020002088039,登記記録の閉鎖等,0,2022-09-05,2022-08-31,エムテック有限会社,,有限会社,神奈川県,川崎市高津区,新作５丁目１０番２４号,,14,134,2130014,,,2022-08-31,清算の結了等,,,2015-10-05,1,,,,,エムテック,0
379,2021001047407,登記記録の閉鎖等,0,2022-09-05,2022-09-01,株式会社ＴＲＵＳＴ　ＷＯＲＫＳ,,株式会社,神奈川県,大和市,中央７丁目１番３号１階Ｃ号室,,14,213,2420021,,,2022-09-01,清算の結了等,,,2015-10-05,1,,,,,,0
392,2030001141292,登記記録の閉鎖等,0,2022-09-05,2022-08-23,株式会社ユウキリフォーム,,株式会社,埼玉県,熊谷市,新堀８７９番地,,11,202,3600841,,,2022-08-23,清算の結了等,,,2021-03-23,1,,,,,ユウキリフォーム,0
403,2040001106798,登記記録の閉鎖等,0,2022-09-05,2022-08-25,マウス株式会社,,株式会社,千葉県,松戸市,上本郷１４６６番地,,12,207,2710064,,,2022-08-25,清算の結了等,,,2018-11-09,1,,,,,マウス,0
407,2040003002624,登記記録の閉鎖等,0,2022-09-05,2022-08-31,合同会社ＴＩ情報システム,,合同会社,愛知県,稲沢市,長束町カキ田１番地４アーバンラフレ稲沢１－１１０３,,23,220,4928167,,,2022-08-31,清算の結了等,,,2015-10-05,1,,,,,ティーアイジョウホウシステム,0
426,2100001025595,登記記録の閉鎖等,0,2022-09-05,2022-08-30,株式会社池尚,,株式会社,長野県,長野市,上松２丁目４番２９号,,20,201,3800802,,,2022-08-30,清算の結了等,,,2015-10-05,1,,,,,イケショウ,0
430,2110002001578,登記記録の閉鎖等,0,2022-09-05,2022-08-31,有限会社加賀屋物産,,有限会社,新潟県,新潟市東区,東明２丁目３番地１５,,15,102,9500853,,,2022-08-31,清算の結了等,,,2015-10-05,1,,,,,カガヤブッサン,0
438,2120001186246,登記記録の閉鎖等,0,2022-09-05,2022-09-01,株式会社ＯＨＴＨＩＳ　ＴＲＡＤＩＮＧ　ＪＡＰＡＮ,,株式会社,大阪府,大阪市中央区,島之内２丁目１５番１６－５０３号,,27,128,5420082,,,2022-09-01,清算の結了等,,,2015-10-05,1,,,,,オージストレイディングジャパン,0
443,2120001247072,登記記録の閉鎖等,0,2022-09-05,2022-09-01,株式会社千欣,,株式会社,大阪府,大阪市西区,新町３丁目７番１５号,,27,106,5500013,,,2022-09-01,清算の結了等,,,2022-07-06,1,,,,,センキン,0
446,2120005009295,登記記録の閉鎖等,0,2022-09-05,2022-08-31,特定非営利活動法人日本アジア歯科交流協会,,その他の設立登記法人,大阪府,大阪市東成区,中本４丁目１３番１５号,,27,115,5370022,,,2022-08-31,清算の結了等,,,2015-10-05,1,,,,,ニホンアジアシカコウリュウキョウカイ,0
485,2180001133366,登記記録の閉鎖等,0,2022-09-05,2022-09-01,株式会社ＣＡＮ,,株式会社,愛知県,名古屋市中区,栄４丁目２１番２４号,,23,106,4600008,,,2022-09-01,清算の結了等,,,2018-08-09,1,,,,,シーエーエヌ,0
488,2180002071391,登記記録の閉鎖等,0,2022-09-05,2022-08-30,有限会社山住電機,,有限会社,愛知県,春日井市,前並町３丁目３番地４,,23,206,4860903,,,2022-08-30,清算の結了等,,,2015-10-05,1,,,,,ヤマズミデンキ,0
499,2200001021849,登記記録の閉鎖等,0,2022-09-05,2022-08-31,株式会社東濃ストアー,,株式会社,岐阜県,瑞浪市,土岐町７２０３番地の２８,,21,208,5096101,,,2022-08-31,清算の結了等,,,2015-10-05,1,,,,,トウノウストアー,0
542,2370301000718,登記記録の閉鎖等,0,2022-09-05,2022-08-29,株式会社鈴木土建,,株式会社,宮城県,石巻市,蛇田字新東前沼２９３番地,,04,202,9860861,,,2022-08-29,清算の結了等,,,2015-10-05,1,,,,,,0
559,2430002030669,登記記録の閉鎖等,0,2022-09-05,2022-08-30,有限会社ＹＡＫＵＷＡ,,有限会社,北海道,札幌市厚別区,大谷地東３丁目４番７－８０５号,,01,108,0040041,,,2022-08-30,清算の結了等,,,2015-10-05,1,,,,,ヤクワ,0
576,3010002005258,登記記録の閉鎖等,0,2022-09-05,2022-08-31,有限会社ブザン米店,,有限会社,東京都,文京区,大塚６丁目３７番２３号,,13,105,1120012,,,2022-08-31,清算の結了等,,,2015-10-05,1,,,,,ブザンコメテン,0
582,3010005029428,登記記録の閉鎖等,0,2022-09-05,2022-08-30,ＥＳＲ戸田２一般社団法人,,その他の設立登記法人,東京都,中央区,日本橋１丁目４番１号日本橋一丁目ビルディング,,13,102,1030027,,,2022-08-30,清算の結了等,,,2018-11-30,1,,,,,イーエスアールトダツー,0
595,3010403019237,登記記録の閉鎖等,0,2022-09-05,2022-08-19,Ｓｈｉｎｈａｎ　Ｏｄｙｓｓｅｙ　Ｊａｐａｎ　Ｈｏｓｐｉｔａｌｉｔｙ　Ｒｅａｌ　Ｅｓｔａｔｅ合同会社,,合同会社,東京都,港区,六本木２丁目２番６号六本木福吉町ビル７Ｆ,,13,103,1060032,,,2022-08-19,清算の結了等,,,2018-09-06,1,,,,,シンハンオデッセイジャパンホスピタリティリアルエステート,0
616,3011001127670,登記記録の閉鎖等,0,2022-09-05,2022-08-17,株式会社ＧＯＯＦＹ,,株式会社,東京都,渋谷区,広尾５丁目１４番２号,,13,113,1500012,,,2022-08-17,清算の結了等,,,2019-04-22,1,,,,,グーフィー,0
619,3011001134122,登記記録の閉鎖等,0,2022-09-05,2022-09-02,株式会社テニテオ東京,,株式会社,愛知県,名古屋市中区,栄１丁目３１番４１号,,23,106,4600008,,,2022-09-02,清算の結了等,,,2020-06-12,1,,,,,テニテオトウキョウ,0
620,3011001139823,登記記録の閉鎖等,0,2022-09-05,2022-08-12,株式会社ＹＵＭＥＭＥＡＬ,,株式会社,東京都,渋谷区,東２丁目２７番１１－６０１号,,13,113,1500011,,,2022-08-12,清算の結了等,,,2021-04-12,1,,,,,ユメミール,0
629,3011402007050,登記記録の閉鎖等,0,2022-09-05,2022-09-02,有限会社ハイクリーンサービス,,有限会社,東京都,板橋区,前野町６丁目５１番１号,,13,119,1740063,,,2022-09-02,清算の結了等,,,2015-10-05,1,,,,,ハイクリーンサービス,0
639,3013102008007,登記記録の閉鎖等,0,2022-09-05,2022-09-02,有限会社アスカ製本,,有限会社,東京都,八王子市,楢原町１３４４番地６,,13,201,1930803,,,2022-09-02,清算の結了等,,,2015-10-05,1,,,,,,0
640,3013201000062,登記記録の閉鎖等,0,2022-09-05,2022-08-22,株式会社アイキューエム,,株式会社,東京都,目黒区,碑文谷３丁目４番２１号,,13,110,1520003,,,2022-08-22,清算の結了等,,,2015-10-05,1,,,,,アイキューエム,0
646,3020002015033,登記記録の閉鎖等,0,2022-09-05,2022-08-31,有限会社新妻,,有限会社,神奈川県,横浜市青葉区,青葉台１丁目１３番地２,,14,117,2270062,,,2022-08-31,清算の結了等,,,2015-10-05,1,,,,,ニイヅマ,0
676,3070001001277,登記記録の閉鎖等,0,2022-09-05,2022-08-09,株式会社コメックス,,株式会社,群馬県,前橋市,総社町桜が丘１２５０番地,,10,201,3710858,,,2022-08-09,合併による解散等,3010401162781,令和４年８月１日東京都港区南青山三丁目１０番４３号ＣＫＨ株式会社（3010401162781）に合併し解散,2015-10-05,1,,,,,コメックス,0
677,3070001025152,登記記録の閉鎖等,0,2022-09-05,2022-08-30,ＹＭＫキャピタル株式会社,,株式会社,長野県,北佐久郡軽井沢町,大字追分５５番地１２,,20,321,3890115,,,2022-08-30,清算の結了等,,,2015-10-05,1,,,,,ワイエムケーキャピタル,0
691,3100001032467,登記記録の閉鎖等,0,2022-09-05,2022-08-22,ＫＡＰＥＣＯ株式会社,,株式会社,長野県,諏訪郡原村,１７２１７番地２１５７,,20,363,3910100,,,2022-08-22,合併による解散等,9100001033286,令和４年７月３０日長野県諏訪郡原村１７２１７番地２１５７Ａｌｐｈａｖｉｌｌｅ株式会社（9100001033286）に合併し解散,2019-08-15,1,,,,,カペコ,0
720,3120902010718,登記記録の閉鎖等,0,2022-09-05,2022-09-01,有限会社タナカオートキャリー,,有限会社,大阪府,高槻市,郡家本町１２番１１号,,27,207,5691131,,,2022-09-01,合併による解散等,8120901011456,令和４年９月１日大阪府高槻市郡家本町１２番１１号株式会社タナカ自動車（8120901011456）に合併し解散,2015-10-05,1,,,,,タナカオートキャリー,0
724,3130001015188,登記記録の閉鎖等,0,2022-09-05,2022-08-30,外村株式会社,,株式会社,京都府,京都市南区,上鳥羽南花名町６番地,,26,107,6018126,,,2022-08-30,清算の結了等,,,2015-10-05,1,,,,,,0
737,3140001029757,登記記録の閉鎖等,0,2022-09-05,2022-09-01,株式会社大澤アセットカンパニー,,株式会社,大阪府,大阪市北区,梅田１丁目１番３号大阪駅前第３ビル２階,,27,127,5300001,,,2022-09-01,清算の結了等,,,2015-10-05,1,,,,,オオサワアセットカンパニー,0
743,3140002018924,登記記録の閉鎖等,0,2022-09-05,2022-08-31,有限会社セレナ,,有限会社,兵庫県,神戸市西区,王塚台５丁目４６３番地の１４,,28,111,6512135,,,2022-08-31,清算の結了等,,,2015-10-05,1,,,,,セレナ,0
744,3140003006853,登記記録の閉鎖等,0,2022-09-05,2022-08-31,合名会社Ｄｏｉｔ,,合名会社,兵庫県,尼崎市,浜３丁目２２番１１号,,28,202,6610967,,,2022-08-31,清算の結了等,,,2015-10-05,1,,,,,ドゥイット,0
760,3180002076613,登記記録の閉鎖等,0,2022-09-05,2022-08-31,有限会社新和化工,,有限会社,愛知県,一宮市,千秋町町屋２１０２番地の１,,23,203,4910813,,,2022-08-31,清算の結了等,,,2015-10-05,1,,,,,シンワカコウ,0
761,3180003003491,登記記録の閉鎖等,0,2022-09-05,2022-09-01,合資会社水谷木管製作所,,合資会社,愛知県,名古屋市中川区,八熊３丁目１０番１号,,23,110,4540013,,,2022-09-01,清算の結了等,,,2015-10-05,1,,,,,ミズタニモッカンセイサクショ,0
789,3290001085199,登記記録の閉鎖等,0,2022-09-05,2022-08-31,株式会社トクラクス,,株式会社,福岡県,福岡市東区,香椎照葉７丁目７番３８号,,40,131,8130017,,,2022-08-31,清算の結了等,,,2019-05-14,1,,,,,トクラクス,0
798,3320005007146,登記記録の閉鎖等,0,2022-09-05,2022-08-31,特定非営利活動法人森と海の共生・ネットワーク,,その他の設立登記法人,大分県,日田市,大字有田２９５１番地,,44,204,8770000,,,2022-08-31,清算の結了等,,,2015-10-05,1,,,,,モリトウミノキョウセイネットワーク,0
818,3390003000864,登記記録の閉鎖等,0,2022-09-05,2022-08-31,合資会社鍋屋本店,,合資会社,山形県,長井市,十日町１丁目１０番１５号,,06,209,9930086,,,2022-08-31,清算の結了等,,,2015-10-05,1,,,,,ナベヤホンテン,0
831,3460102006813,登記記録の閉鎖等,0,2022-09-05,2022-08-31,有限会社キタハラ番場商会,,有限会社,北海道,広尾郡広尾町,本通６丁目３番地の１,,01,642,0892615,,,2022-08-31,清算の結了等,,,2015-10-05,1,,,,,キタハラバンバショウカイ,0
858,4010601043491,登記記録の閉鎖等,0,2022-09-05,2022-09-01,株式会社ＣＲＩＣＫＥＴ,,株式会社,東京都,新宿区,西新宿６丁目５番１号新宿アイランド４Ｆ,,13,104,1600023,,,2022-09-01,清算の結了等,,,2015-10-05,1,,,,,クリケット,0
881,4011301004750,登記記録の閉鎖等,0,2022-09-05,2022-08-31,株式会社土曜会,,株式会社,東京都,杉並区,荻窪４丁目３２番９号,,13,115,1670051,,,2022-08-31,清算の結了等,,,2015-10-05,1,,,,,ドヨウカイ,0
884,4011502000656,登記記録の閉鎖等,0,2022-09-05,2022-08-30,有限会社岩木医療器販売,,有限会社,神奈川県,横浜市中区,本牧三之谷１２－１６久保ビル１－Ａ,,14,104,2310824,,,2022-08-30,清算の結了等,,,2015-10-05,1,,,,,イワキイリョウキハンバイ,0
902,4020002019215,登記記録の閉鎖等,0,2022-09-05,2022-08-31,有限会社大丸瀬之間商店,,有限会社,神奈川県,横浜市港南区,上永谷２丁目１１番１－１１７号,,14,111,2330012,,,2022-08-31,清算の結了等,,,2015-10-05,1,,,,,ダイマルセノマショウテン,0
907,4020002051052,登記記録の閉鎖等,0,2022-09-05,2022-08-31,日本植物環境コンサルティング有限会社,,有限会社,神奈川県,横浜市鶴見区,馬場４丁目１番３号,,14,101,2300076,,,2022-08-31,清算の結了等,,,2015-10-05,1,,,,,ニホンショクブツカンキョウコンサルティング,0
914,4030001014975,登記記録の閉鎖等,0,2022-09-05,2022-08-23,株式会社杜設計,,株式会社,埼玉県,さいたま市南区,南本町２丁目２２番４号,,11,108,3360018,,,2022-08-23,清算の結了等,,,2015-10-05,1,,,,,モリセッケイ,0
951,4100002020115,登記記録の閉鎖等,0,2022-09-05,2022-08-29,有限会社サムラ,,有限会社,長野県,松本市,城東２丁目７番２号,,20,202,3900807,,,2022-08-29,清算の結了等,,,2015-10-05,1,,,,,サムラ,0
957,4120001049054,登記記録の閉鎖等,0,2022-09-05,2022-09-01,大阪総合信用株式会社,,株式会社,大阪府,大阪市中央区,本町橋６番２１号,,27,128,5400029,,,2022-09-01,合併による解散等,9120001048877,令和４年９月１日大阪市中央区西心斎橋一丁目２番４号関西みらい保証株式会社（9120001048877）に合併し解散,2015-10-05,1,,,,,オオサカソウゴウシンヨウ,0
968,4120002032604,登記記録の閉鎖等,0,2022-09-05,2022-09-02,有限会社プリントワーク,,有限会社,大阪府,大阪市北区,本庄東２丁目２番１０号,,27,127,5310074,,,2022-09-02,清算の結了等,,,2015-10-05,1,,,,,プリントワーク,0
974,4120101058814,登記記録の閉鎖等,0,2022-09-05,2022-09-01,金源株式会社,,株式会社,大阪府,泉南郡熊取町,紺屋２丁目１６番９号,,27,361,5900412,,,2022-09-01,清算の結了等,,,2018-10-04,1,,,,,キンゲン,0
1019,4180003021947,登記記録の閉鎖等,0,2022-09-05,2022-09-01,合同会社ほたる,,合同会社,愛知県,名古屋市天白区,池場２丁目２８０７番地,,23,116,4680055,,,2022-09-01,清算の結了等,,,2020-12-25,1,,,,,ホタル,0
1022,4180302019477,登記記録の閉鎖等,0,2022-09-05,2022-08-30,有限会社ダイアローグ,,有限会社,愛知県,名古屋市緑区,瀬木南５１４番地,,23,114,4598017,,,2022-08-30,清算の結了等,,,2015-10-05,1,,,,,ダイアローグ,0
1024,4200001005197,登記記録の閉鎖等,0,2022-09-05,2022-09-01,株式会社味起屋,,株式会社,岐阜県,岐阜市,早苗町４丁目１０番地の１,,21,201,5008324,,,2022-09-01,清算の結了等,,,2015-10-05,1,,,,,ミキヤ,0
1044,4260005004405,登記記録の閉鎖等,0,2022-09-05,2022-08-29,一般社団法人早電協会,,その他の設立登記法人,岡山県,都窪郡早島町,早島３８４番地の１３,,33,423,7010304,,,2022-08-29,清算の結了等,,,2015-10-05,1,,,,,ハヤデンキョウカイ,0
1047,4280002001378,登記記録の閉鎖等,0,2022-09-05,2022-09-01,有限会社タクワ不動産,,有限会社,島根県,松江市,浜乃木６丁目１１番２０号,,32,201,6900044,,,2022-09-01,清算の結了等,,,2015-10-05,1,,,,,タクワフドウサン,0
1063,4330001018533,登記記録の閉鎖等,0,2022-09-05,2022-09-01,株式会社住環境くまもと,,株式会社,熊本県,宇土市,古保里町７４９番地３７,,43,211,8690415,,,2022-09-01,清算の結了等,,,2015-10-05,1,,,,,,0
1078,4370005004055,登記記録の閉鎖等,0,2022-09-05,2022-08-31,ホームオフィス仙台税理士法人,,その他の設立登記法人,宮城県,仙台市青葉区,大町１丁目２番１６号,,04,101,9800804,,,2022-08-31,清算の結了等,,,2015-10-05,1,,,,,ホームオフィスセンダイ,0
1081,4380002000254,登記記録の閉鎖等,0,2022-09-05,2022-09-01,吾妻木材工業有限会社,,有限会社,福島県,福島市,桜本字川原２１番地の１,,07,201,9602151,,,2022-09-01,清算の結了等,,,2015-10-05,1,,,,,アヅマモクザイコウギョウ,0
1103,5010001019249,登記記録の閉鎖等,0,2022-09-05,2022-08-31,ジャパンメディアシステム株式会社,,株式会社,東京都,千代田区,外神田２丁目１４番１０号,,13,101,1010021,,,2022-08-31,合併による解散等,4010401162954,令和４年８月１日東京都港区赤坂九丁目７番１号ジャパンメディアシステム株式会社（4010401162954）に合併し解散,2015-10-05,1,,,,,,0
1121,5010401125968,登記記録の閉鎖等,0,2022-09-05,2022-08-31,株式会社ブルースター,,株式会社,東京都,中央区,日本橋富沢町２番１８号,,13,102,1030006,,,2022-08-31,合併による解散等,9010401093427,令和４年８月３１日東京都中央区日本橋富沢町２番１８号アライズ・キャピタル株式会社（9010401093427）に合併し解散,2016-07-25,1,,,,,ブルースター,0
1136,5010502009194,登記記録の閉鎖等,0,2022-09-05,2022-08-29,有限会社箸清本店,00051311,有限会社,東京都,台東区,駒形２丁目６番５号,,13,106,1110043,,,2022-08-29,清算の結了等,,,2015-10-05,1,,,,,ハシセイホンテン,0
1143,5010802018366,登記記録の閉鎖等,0,2022-09-05,2022-08-29,有限会社内川事務所,,有限会社,東京都,大田区,西蒲田８丁目７番４－３０２号,,13,111,1440051,,,2022-08-29,清算の結了等,,,2015-10-05,1,,,,,ウチカワジムショ,0
1148,5011001107381,登記記録の閉鎖等,0,2022-09-05,2022-08-17,ＴＲＧ　Ｈｏｌｄｉｎｇｓ株式会社,,株式会社,東京都,目黒区,八雲５丁目２番９号,,13,110,1520023,,,2022-08-17,清算の結了等,,,2015-10-05,1,,,,,,0
1174,5011402002090,登記記録の閉鎖等,0,2022-09-05,2022-08-31,有限会社おはようねこの出版社,,有限会社,東京都,板橋区,高島平８丁目２０番８－５０４号,,13,119,1750082,,,2022-08-31,清算の結了等,,,2015-10-05,1,,,,,オハヨウネコノシュッパンシャ,0
1186,5020001023794,登記記録の閉鎖等,0,2022-09-05,2022-08-31,株式会社天屋,,株式会社,神奈川県,横浜市神奈川区,羽沢町６５８番地の６２,,14,102,2210863,,,2022-08-31,清算の結了等,,,2015-10-05,1,,,,,テンヤ,0
1197,5030001045615,登記記録の閉鎖等,0,2022-09-05,2022-08-23,研究社印刷株式会社,,株式会社,埼玉県,新座市,野火止７丁目１４番地８号,,11,230,3520011,,,2022-08-23,清算の結了等,,,2015-10-05,1,,,,,ケンキュウシャインサツ,0
1210,5040001113791,登記記録の閉鎖等,0,2022-09-05,2022-09-01,株式会社ワイズゴルフコーポレーション,,株式会社,千葉県,浦安市,日の出１丁目３番３－５０５号海風の街,,12,227,2790013,,,2022-09-01,清算の結了等,,,2020-06-01,1,,,,,ワイズゴルフコーポレーション,0
1224,5080101019506,登記記録の閉鎖等,0,2022-09-05,2022-09-01,株式会社ＴＭサービス,,株式会社,静岡県,沼津市,原２３２５番地の１,,22,203,4100312,,,2022-09-01,合併による解散等,4080102005076,令和４年９月１日静岡県沼津市原２３２５番地の１株式会社天母企画（4080102005076）に合併し解散,2016-12-08,1,,,,,ティーエムサービス,0
1232,5110002014065,登記記録の閉鎖等,0,2022-09-05,2022-08-31,有限会社寺尾測量設計,,有限会社,新潟県,五泉市,番坂甲３２２８番地１,,15,218,9591766,,,2022-08-31,清算の結了等,,,2015-10-05,1,,,,,テラオソクリョウセッケイ,0
1251,5120901008934,登記記録の閉鎖等,0,2022-09-05,2022-09-01,株式会社アキ工芸,,株式会社,大阪府,摂津市,鳥飼銘木町１２番１８号,,27,224,5660063,,,2022-09-01,清算の結了等,,,2015-10-05,1,,,,,アキコウゲイ,0
1268,5140003009854,登記記録の閉鎖等,0,2022-09-05,2022-08-31,合同会社オフィス伊織,,合同会社,兵庫県,西宮市,仁川五ケ山町３－１８,,28,204,6620814,,,2022-08-31,清算の結了等,,,2015-10-05,1,,,,,オフィスイオリ,0
1281,5180001069203,登記記録の閉鎖等,0,2022-09-05,2022-08-31,株式会社近藤保険センター,,株式会社,愛知県,名古屋市中川区,野田１丁目５１番地,,23,110,4540912,,,2022-08-31,清算の結了等,,,2015-10-05,1,,,,,コンドウホケンセンター,0
1306,5240001041857,登記記録の閉鎖等,0,2022-09-05,2022-08-24,株式会社病理センター,,株式会社,広島県,広島市中区,八丁堀１１番２８号朝日広告ビル３階,,34,101,7300013,,,2022-08-24,合併による解散等,4240001015754,令和４年８月２２日広島市南区東雲本町一丁目２番２７号株式会社エムネス（4240001015754）に合併し解散,2015-10-05,1,,,,,ビョウリセンター,0
1310,5250003000513,登記記録の閉鎖等,0,2022-09-05,2022-08-31,合資会社キクヤ酒舗,,合資会社,山口県,下関市,彦島江の浦町３丁目８番１９号,,35,201,7500075,,,2022-08-31,清算の結了等,,,2015-10-05,1,,,,,キクヤシュホ,0
1330,5310001004360,登記記録の閉鎖等,0,2022-09-05,2022-08-31,株式会社宝徳総研,,株式会社,兵庫県,神戸市北区,中里町２丁目２番地の１神戸ヒルズＩＶ６２２号,00114339,28,109,6511103,,,2022-08-31,清算の結了等,,,2015-10-05,1,,,,,ホウトクソウケン,0
1340,5350002007961,登記記録の閉鎖等,0,2022-09-05,2022-09-01,有限会社あかりケアサポート,,有限会社,宮崎県,宮崎市,生目台東１丁目１１番１１号,,45,201,8800942,,,2022-09-01,清算の結了等,,,2015-10-05,1,,,,,アカリケアサポート,0
1341,5360002015625,登記記録の閉鎖等,0,2022-09-05,2022-08-15,有限会社クボタ設備工業,,有限会社,沖縄県,中頭郡北中城村,字島袋１５２６番地１,,47,327,9012301,,,2022-08-15,清算の結了等,,,2015-10-05,1,,,,,,0
1358,5420002015395,登記記録の閉鎖等,0,2022-09-05,2022-08-31,有限会社マル幸産業,,有限会社,青森県,南津軽郡大鰐町,大字居土字山部５７番地,,02,362,0380233,,,2022-08-31,清算の結了等,,,2015-10-05,1,,,,,マルコウサンギョウ,0
1374,6010001132827,登記記録の閉鎖等,0,2022-09-05,2022-08-12,株式会社ハンズソリューション,,株式会社,東京都,千代田区,神田岩本町１番地１４ＫＤＸ秋葉原ビル９階,,13,101,1010033,,,2022-08-12,合併による解散等,6370001012431,令和４年８月１日仙台市宮城野区鶴ケ谷東二丁目２３番１０号株式会社ハンデックス（6370001012431）に合併し解散,2015-10-05,1,,,,,,0
1382,6010005013040,登記記録の閉鎖等,0,2022-09-05,2022-08-24,特定非営利活動法人日中鴻園産学交流機構,,その他の設立登記法人,東京都,千代田区,麹町１丁目７番地相互半蔵門ビル,,13,101,1020083,,,2022-08-24,清算の結了等,,,2015-10-05,1,,,,,ニッチュウコウエンサンガクコウリュウキコウ,0
1383,6010005029284,登記記録の閉鎖等,0,2022-09-05,2022-08-30,ＥＳＲ戸田特定目的会社,,その他の設立登記法人,東京都,中央区,日本橋１丁目４番１号日本橋一丁目ビルディング,,13,102,1030027,,,2022-08-30,清算の結了等,,,2018-10-30,1,,,,,イーエスアールトダ,0
1384,6010005029400,登記記録の閉鎖等,0,2022-09-05,2022-08-30,ＥＳＲ戸田１一般社団法人,,その他の設立登記法人,東京都,中央区,日本橋１丁目４番１号日本橋一丁目ビルディング,,13,102,1030027,,,2022-08-30,清算の結了等,,,2018-11-26,1,,,,,イーエスアールトダワン,0
1387,6010101013415,登記記録の閉鎖等,0,2022-09-05,2022-09-02,テクノリフォーム株式会社,,株式会社,東京都,八王子市,元横山町２丁目５番３号２０６,,13,201,1920063,,,2022-09-02,清算の結了等,,,2018-08-14,1,,,,,テクノリフォーム,0
1388,6010102003869,登記記録の閉鎖等,0,2022-09-05,2022-09-02,有限会社造形美術印刷,,有限会社,東京都,八王子市,千人町３丁目１７番６号,,13,201,1930835,,,2022-09-02,清算の結了等,,,2015-10-05,1,,,,,,0
1459,6012705002256,登記記録の閉鎖等,0,2022-09-05,2022-09-01,一般社団法人いきいきライフ協会東村山,,その他の設立登記法人,東京都,東村山市,萩山町１丁目８番地１２クロウバーハイツ２０１,,13,213,1890012,,,2022-09-01,清算の結了等,,,2021-04-09,1,,,,,イキイキライフキョウイカイヒガシムラヤマ,0
1478,6030002075313,登記記録の閉鎖等,0,2022-09-05,2022-08-24,明治亀山乳業有限会社,,有限会社,埼玉県,川越市,通町１８番地３,,11,201,3500044,,,2022-08-24,清算の結了等,,,2015-10-05,1,,,,,メイジカメヤマニュウギョウ,0
1481,6040001060059,登記記録の閉鎖等,0,2022-09-05,2022-08-30,株式会社技術・技能教育研究所,,株式会社,千葉県,長生郡長柄町,上野４８１番地１２－５０２号,,12,426,2970201,,,2022-08-30,清算の結了等,,,2015-10-05,1,,,,,ギジュツギノウキョウイクケンキュウショ,0
1485,6040002018452,登記記録の閉鎖等,0,2022-09-05,2022-08-31,有限会社上商会,,有限会社,千葉県,習志野市,津田沼７丁目１３番２５号,,12,216,2750016,,,2022-08-31,清算の結了等,,,2015-10-05,1,,,,,カミショウカイ,0
1495,6080001010051,登記記録の閉鎖等,0,2022-09-05,2022-08-31,株式会社ＯＡＰシステム,,株式会社,静岡県,静岡市駿河区,敷地１丁目２６番１２号,,22,102,4228036,,,2022-08-31,清算の結了等,,,2015-10-05,1,,,,,オーエーピーシステム,0
1497,6080001018292,登記記録の閉鎖等,0,2022-09-05,2022-09-01,和茶倶楽部株式会社,,株式会社,静岡県,島田市,島９１５番地の５,,22,209,4280007,,,2022-09-01,合併による解散等,7080001013383,令和４年９月１日静岡県島田市牛尾８３４番地の１株式会社カネス製茶（7080001013383）に合併し解散,2015-10-05,1,,,,,ワチャクラブ,0
1507,6090002000406,登記記録の閉鎖等,0,2022-09-05,2022-08-31,瑛光商事有限会社,,有限会社,山梨県,甲府市,住吉３丁目１９番２０号,,19,201,4000851,,,2022-08-31,清算の結了等,,,2015-10-05,1,,,,,エイコウショウジ,0
1531,6120901031761,登記記録の閉鎖等,0,2022-09-05,2022-09-01,株式会社ゆるり,,株式会社,大阪府,豊中市,本町１丁目９番１０号マストメゾン４０９,,27,203,5600021,,,2022-09-01,清算の結了等,,,2015-10-05,1,,,,,ユルリ,0
1545,6140001012982,登記記録の閉鎖等,0,2022-09-05,2022-08-31,孝月堂パン株式会社,,株式会社,兵庫県,神戸市西区,美賀多台７丁目１０番地の６,,28,111,6512277,,,2022-08-31,清算の結了等,,,2015-10-05,1,,,,,コウゲツドウパン,0
1550,6140001078594,登記記録の閉鎖等,0,2022-09-05,2022-08-30,株式会社タナカ,,株式会社,兵庫県,伊丹市,北河原４丁目１番２０号,,28,207,6640837,,,2022-08-30,清算の結了等,,,2022-04-28,1,,,,,タナカ,0
1570,6180001121350,登記記録の閉鎖等,0,2022-09-05,2022-09-02,株式会社ドリームアイ伊藤,,株式会社,愛知県,一宮市,今伊勢町馬寄字志水１７番地３,,23,203,4910051,,,2022-09-02,清算の結了等,,,2015-12-11,1,,,,,ドリームアイイトウ,0
1573,6180001140945,登記記録の閉鎖等,0,2022-09-05,2022-08-31,株式会社テニスプレイス,,株式会社,愛知県,常滑市,西阿野字春瀬１７２番地の５,,23,216,4790802,,,2022-08-31,清算の結了等,,,2020-04-20,1,,,,,テニスプレイス,0
1595,6200003000525,登記記録の閉鎖等,0,2022-09-05,2022-09-01,株式会社大一,,株式会社,岐阜県,岐阜市,日ノ本町１丁目７番地,,21,201,5008852,,,2022-09-01,合併による解散等,9200001002933,令和４年９月１日岐阜市日ノ本町一丁目７番地株式会社大一精機（9200001002933）に合併し解散,2015-10-05,1,,,,,ダイイチ,0
1612,6290001040036,登記記録の閉鎖等,0,2022-09-05,2022-08-31,ＰＦＩ大野城宿舎株式会社,,株式会社,福岡県,福岡市博多区,博多駅前３丁目２２番８号,,40,132,8120011,,,2022-08-31,清算の結了等,,,2015-10-05,1,,,,,ピーエフアイオオノジョウシュクシャ,0
1619,6300002009490,登記記録の閉鎖等,0,2022-09-05,2022-08-29,有限会社エフアイテック,,有限会社,佐賀県,三養基郡基山町,けやき台２丁目１６番地８,,41,341,8410205,,,2022-08-29,清算の結了等,,,2015-10-05,1,,,,,エフアイテック,0
1646,6430001074366,登記記録の閉鎖等,0,2022-09-05,2022-08-29,株式会社アールビーエム,,株式会社,北海道,札幌市南区,北ノ沢３丁目７番２４号,,01,106,0050832,,,2022-08-29,清算の結了等,,,2017-06-20,1,,,,,アールビーエム,0
1655,6460301002701,登記記録の閉鎖等,0,2022-09-05,2022-09-02,株式会社ネットワーク２１,,株式会社,北海道,北見市,東相内町４８番地１３,,01,208,0990878,,,2022-09-02,清算の結了等,,,2015-10-05,1,,,,,,0
1663,6500002015304,登記記録の閉鎖等,0,2022-09-05,2022-09-02,有限会社トータル・ケア・サービス媛達磨,,有限会社,愛媛県,西条市,新市６６３番地の１,,38,206,7991325,,,2022-09-02,清算の結了等,,,2015-10-05,1,,,,,トータルケアサービスヒメダルマ,0
1665,7010001014207,登記記録の閉鎖等,0,2022-09-05,2022-08-31,株式会社カラーテクノシステム,,株式会社,東京都,千代田区,岩本町２丁目１６番９号,,13,101,1010032,,,2022-08-31,清算の結了等,,,2015-10-05,1,,,,,カラーテクノシステム,0
1674,7010001225729,登記記録の閉鎖等,0,2022-09-05,2022-08-31,楽菓珈株式会社,,株式会社,東京都,文京区,水道２丁目８番１号ハウザス小日向４０１,,13,105,1120005,,,2022-08-31,清算の結了等,,,2022-04-13,1,,,,,ラカカ,0
1749,7013303003265,登記記録の閉鎖等,0,2022-09-05,2022-09-01,ダブルダウン合同会社,,合同会社,東京都,豊島区,東池袋２丁目６２番８号ＢＩＧオフィスプラザ池袋１１Ｆ,,13,116,1700013,,,2022-09-01,清算の結了等,,,2016-05-20,1,,,,,ダブルダウン,0
1789,7100002003174,登記記録の閉鎖等,0,2022-09-05,2022-08-31,株式会社ＴＫ,,株式会社,長野県,長野市,若里６丁目８番２５号,,20,201,3800928,,,2022-08-31,清算の結了等,,,2015-10-05,1,,,,,ティーケー,0
1792,7100003004378,登記記録の閉鎖等,0,2022-09-05,2022-08-30,合同会社ソアエンタープライズ,,合同会社,長野県,長野市,西三才１９２番地１３７,,20,201,3810083,,,2022-08-30,清算の結了等,,,2016-02-19,1,,,,,ソアエンタープライズ,0
1800,7120001131965,登記記録の閉鎖等,0,2022-09-05,2022-09-01,株式会社エススクエアード,,株式会社,大阪府,大阪市中央区,本町１丁目７番６号,,27,128,5410053,,,2022-09-01,合併による解散等,1120001090804,令和４年９月１日大阪市中央区本町一丁目７番６号メルボメンズウェアー株式会社（1120001090804）に合併し解散,2015-10-05,1,,,,,エススクエアード,0
1805,7120001214522,登記記録の閉鎖等,0,2022-09-05,2022-09-01,サムライドットコム株式会社,,株式会社,大阪府,大阪市北区,梅田１丁目１番３号大阪駅前第３ビル２階,,27,127,5300001,,,2022-09-01,清算の結了等,,,2018-07-09,1,,,,,サムライドットコム,0
1819,7120102012767,登記記録の閉鎖等,0,2022-09-05,2022-08-31,有限会社ベイリバー,,有限会社,大阪府,堺市堺区,大町西３丁１－３０－２０３,,27,141,5900959,,,2022-08-31,清算の結了等,,,2015-10-05,1,,,,,ベイリバー,0
1827,7130001019400,登記記録の閉鎖等,0,2022-09-05,2022-08-31,株式会社京都グラフィックセンター,,株式会社,京都府,京都市下京区,松原通麸屋町東入石不動之町６７７番地の２田中ビル４－Ａ,,26,106,6000000,,,2022-08-31,清算の結了等,,,2015-10-05,1,,,,,キョウトグラフィックセンター,0
1842,7140001061070,登記記録の閉鎖等,0,2022-09-05,2022-09-01,光電機工業株式会社,,株式会社,兵庫県,姫路市,田寺東２丁目３２番６号,,28,201,6700081,,,2022-09-01,清算の結了等,,,2015-10-05,1,,,,,,0
1846,7140001102915,登記記録の閉鎖等,0,2022-09-05,2022-08-31,トライスター株式会社,,株式会社,兵庫県,尼崎市,武庫之荘３丁目１４番２号,,28,202,6610035,,,2022-08-31,清算の結了等,,,2016-08-01,1,,,,,トライスター,0
1849,7140002037350,登記記録の閉鎖等,0,2022-09-05,2022-08-31,有限会社まどか美研,,有限会社,兵庫県,高砂市,曽根町３０５５番地の１７,,28,216,6760082,,,2022-08-31,清算の結了等,,,2015-10-05,1,,,,,マドカビケン,0
1858,7160002009851,登記記録の閉鎖等,0,2022-09-05,2022-08-31,有限会社松和,,有限会社,滋賀県,東近江市,八日市本町１３番６号,,25,213,5270012,,,2022-08-31,清算の結了等,,,2015-10-05,1,,,,,ショウワ,0
1863,7180001026697,登記記録の閉鎖等,0,2022-09-05,2022-09-01,株式会社二和商,,株式会社,愛知県,名古屋市西区,上小田井２丁目１１９番地の３,,23,104,4520821,,,2022-09-01,清算の結了等,,,2015-10-05,1,,,,,ニワショウ,0
1865,7180001073153,登記記録の閉鎖等,0,2022-09-05,2022-08-30,ディーティーエムシー株式会社,,株式会社,愛知県,大府市,柊山町１丁目１１２番地,,23,223,4740053,,,2022-08-30,清算の結了等,,,2015-10-05,1,,,,,ディーティーエムシー,0
1876,7180002074539,登記記録の閉鎖等,0,2022-09-05,2022-08-30,有限会社松ずし,,有限会社,愛知県,犬山市,字土取２番地の１,,23,215,4840917,,,2022-08-30,清算の結了等,,,2015-10-05,1,,,,,マツズシ,0
1883,7200002000392,登記記録の閉鎖等,0,2022-09-05,2022-09-02,有限会社インテリアキタガワ,,有限会社,岐阜県,岐阜市,北一色３丁目９番３号,,21,201,5008227,,,2022-09-02,清算の結了等,,,2015-10-05,1,,,,,インテリアキタガワ,0
1937,7400002012954,登記記録の閉鎖等,0,2022-09-05,2022-08-30,有限会社中野,,有限会社,岩手県,久慈市,十八日町２丁目２８番地,,03,207,0280065,,,2022-08-30,清算の結了等,,,2015-10-05,1,,,,,ナカノ,0
1946,7430002050951,登記記録の閉鎖等,0,2022-09-05,2022-08-29,有限会社久保農産,,有限会社,北海道,夕張郡栗山町,錦２丁目４８番地,,01,429,0691521,,,2022-08-29,清算の結了等,,,2015-10-05,1,,,,,クボノウサン,0
1957,7480002008697,登記記録の閉鎖等,0,2022-09-05,2022-09-01,有限会社エンタープライズ,,有限会社,徳島県,徳島市,南矢三町１丁目５番１６号,,36,201,7700005,,,2022-09-01,清算の結了等,,,2015-10-05,1,,,,,エンタープライズ,0
1975,8010401000615,登記記録の閉鎖等,0,2022-09-05,2022-08-22,愛東車輌工業株式会社,,株式会社,埼玉県,所沢市,大字上安松１２４３番地１,,11,208,3590025,,,2022-08-22,清算の結了等,,,2015-10-05,1,,,,,アイトウシャリョウコウギョウ,0
1980,8010405017044,登記記録の閉鎖等,0,2022-09-05,2022-08-19,Ｓｈｉｎｈａｎ　Ｏｄｙｓｓｅｙ　Ｊａｐａｎ　Ｈｏｓｐｉｔａｌｉｔｙ　Ｒｅａｌ　Ｅｓｔａｔｅ一般社団法人,,その他の設立登記法人,東京都,港区,六本木２丁目２番６号六本木福吉町ビル７Ｆ,,13,103,1060032,,,2022-08-19,清算の結了等,,,2018-09-03,1,,,,,シンハンオデッセイジャパンホスピタリティリアルエステート,0
1983,8010502005802,登記記録の閉鎖等,0,2022-09-05,2022-08-31,有限会社アスカコーポレーション,,有限会社,東京都,台東区,蔵前２丁目１３番１２号,,13,106,1110051,,,2022-08-31,清算の結了等,,,2015-10-05,1,,,,,アスカコーポレーション,0
2021,8011801019039,登記記録の閉鎖等,0,2022-09-05,2022-08-31,株式会社ユニオン物産,,株式会社,東京都,足立区,綾瀬６丁目３０番７号,,13,121,1200005,,,2022-08-31,清算の結了等,,,2015-10-05,1,,,,,ユニオンブッサン,0
2022,8011802010970,登記記録の閉鎖等,0,2022-09-05,2022-09-01,有限会社岡野製作所,,有限会社,東京都,足立区,保木間１丁目３５番６号,,13,121,1210064,,,2022-09-01,清算の結了等,,,2015-10-05,1,,,,,オカノセイサクショ,0
2031,8013301036209,登記記録の閉鎖等,0,2022-09-05,2022-08-31,株式会社陽乃貴,,株式会社,東京都,豊島区,上池袋４丁目４６番１１号,,13,116,1700012,,,2022-08-31,清算の結了等,,,2015-10-05,1,,,,,ヒノキ,0
2053,8040002090565,登記記録の閉鎖等,0,2022-09-05,2022-08-30,有限会社タノウエ,,有限会社,千葉県,柏市,新逆井１丁目１９番６号,,12,217,2770044,,,2022-08-30,清算の結了等,,,2015-10-05,1,,,,,タノウエ,0
2080,8080402017635,登記記録の閉鎖等,0,2022-09-05,2022-08-31,有限会社ビューティーエバ,,有限会社,静岡県,掛川市,城西２丁目８番６号,,22,213,4360054,,,2022-08-31,清算の結了等,,,2015-10-05,1,,,,,ビューティーエバ,0
2083,8100001002309,登記記録の閉鎖等,0,2022-09-05,2022-08-29,住電デバイスマイクロアセンブリ株式会社,,株式会社,長野県,長野市,松代町小島田３５５９番地７,,20,201,3811213,,,2022-08-29,清算の結了等,,,2015-10-05,1,,,,,スミデンデバイスマイクロアセンブリ,0
2098,8120001075988,登記記録の閉鎖等,0,2022-09-05,2022-09-02,株式会社エルテック,,株式会社,大阪府,大阪市中央区,南船場４丁目１１番２８号,,27,128,5420081,,,2022-09-02,清算の結了等,,,2015-10-05,1,,,,,エルテック,0
2145,8180001083291,登記記録の閉鎖等,0,2022-09-05,2022-09-01,ナイケン木材工業株式会社,,株式会社,愛知県,一宮市,萩原町戸苅７４７番地の１,,23,203,4910375,,,2022-09-01,清算の結了等,,,2015-10-05,1,,,,,ナイケンモクザイコウギョウ,0
2150,8180001130127,登記記録の閉鎖等,0,2022-09-05,2022-08-31,株式会社アスプライド,,株式会社,愛知県,名古屋市中区,栄２丁目３番１号名古屋広小路ビルヂング１１階,,23,106,4600008,,,2022-08-31,清算の結了等,,,2017-11-15,1,,,,,アスプライド,0
2153,8180002000832,登記記録の閉鎖等,0,2022-09-05,2022-09-02,有限会社スプーン・ベル,,有限会社,愛知県,名古屋市守山区,幸心４丁目４０２番地,,23,113,4630079,,,2022-09-02,清算の結了等,,,2015-10-05,1,,,,,スプーンベル,0
2158,8180002092085,登記記録の閉鎖等,0,2022-09-05,2022-08-30,登美商事有限会社,,有限会社,愛知県,海部郡大治町,大字北間島字宮東７８番地,,23,424,4901132,,,2022-08-30,清算の結了等,,,2015-10-05,1,,,,,トミショウジ,0
2165,8230001007113,登記記録の閉鎖等,0,2022-09-05,2022-09-01,株式会社竹田電器商会,,株式会社,富山県,魚津市,中央通り１丁目８番８号,,16,204,9370055,,,2022-09-01,清算の結了等,,,2015-10-05,1,,,,,タケダデンキショウカイ,0
2188,8290002010085,登記記録の閉鎖等,0,2022-09-05,2022-08-31,有限会社奥村会計,,有限会社,福岡県,福岡市中央区,赤坂１丁目１５番１５号,,40,133,8100042,,,2022-08-31,清算の結了等,,,2015-10-05,1,,,,,オクムラカイケイ,0
2191,8290803003766,登記記録の閉鎖等,0,2022-09-05,2022-09-02,合同会社友和,,合同会社,福岡県,北九州市八幡東区,桃園２丁目７番４号,,40,108,8050068,,,2022-09-02,清算の結了等,,,2021-03-09,1,,,,,ユウワ,0
2205,8370001008460,登記記録の閉鎖等,0,2022-09-05,2022-08-31,株式会社祥発順,,株式会社,宮城県,仙台市青葉区,一番町２丁目４番１８号,,04,101,9800811,,,2022-08-31,清算の結了等,,,2015-10-05,1,,,,,ショウハツジュン,0
2209,8380001000862,登記記録の閉鎖等,0,2022-09-05,2022-09-01,株式会社地域環境研究所,,株式会社,福島県,福島市,野田町１丁目１３番２９号,,07,201,9608055,,,2022-09-01,清算の結了等,,,2015-10-05,1,,,,,チイキカンキョウケンキュウショ,0
2217,8390001008806,登記記録の閉鎖等,0,2022-09-05,2022-08-30,株式会社レインディア,,株式会社,山形県,最上郡最上町,大字志茂２１０番地の１８,,06,362,9996212,,,2022-08-30,清算の結了等,,,2015-10-05,1,,,,,レインディア,0
2219,8400001006543,登記記録の閉鎖等,0,2022-09-05,2022-08-29,株式会社Ｐｈａｒｍａｃａｒｅ,,株式会社,岩手県,北上市,大通り３丁目８番１２号,,03,206,0240061,,,2022-08-29,清算の結了等,,,2015-10-05,1,,,,,ファーマケア,0
2220,8410001011245,登記記録の閉鎖等,0,2022-09-05,2022-09-02,株式会社明陽舎,,株式会社,秋田県,秋田市,泉南１丁目７番２１号,,05,201,0100918,,,2022-09-02,清算の結了等,,,2016-06-21,1,,,,,メイヨウシャ,0
2235,8500002022208,登記記録の閉鎖等,0,2022-09-05,2022-09-01,有限会社オルテック,,有限会社,愛媛県,四国中央市,上分町５４４番地３,,38,213,7990121,,,2022-09-01,清算の結了等,,,2015-10-05,1,,,,,オルテック,0
2245,9010001189897,登記記録の閉鎖等,0,2022-09-05,2022-08-31,ダックインシュランス株式会社,,株式会社,東京都,千代田区,丸の内１丁目８番２号,,13,101,1000005,,,2022-08-31,清算の結了等,,,2018-02-23,1,,,,,ダックインシュランス,0
2261,9010403011469,登記記録の閉鎖等,0,2022-09-05,2022-08-12,ＦＣＢＩ合同会社,,合同会社,東京都,港区,愛宕２丁目５番１号愛宕グリーンヒルズＭＯＲＩタワー３７階,,13,103,1050002,,,2022-08-12,清算の結了等,,,2015-10-05,1,,,,,エフシービーアイ,0
2262,9010403021253,登記記録の閉鎖等,0,2022-09-05,2022-08-10,ＧｅｏＳｐｏｃｋ　Ｊａｐａｎ合同会社,,合同会社,東京都,港区,南麻布３丁目１９番２３号オーク南麻布ビル２階,,13,103,1060047,,,2022-08-10,清算の結了等,,,2019-08-09,1,,,,,ジオスポックジャパン,0
2268,9010405018603,登記記録の閉鎖等,0,2022-09-05,2022-08-12,一般社団法人ＨＤＧ１７,,その他の設立登記法人,東京都,港区,虎ノ門３丁目２２番１０－２０１号,,13,103,1050001,,,2022-08-12,清算の結了等,,,2020-03-16,1,,,,,エイチディージーワンセブン,0
2282,9010802003331,登記記録の閉鎖等,0,2022-09-05,2022-08-30,有限会社改栄,,有限会社,東京都,大田区,新蒲田３丁目２６番１号,,13,111,1440054,,,2022-08-30,清算の結了等,,,2015-10-05,1,,,,,カイエイ,0
2288,9010901025846,登記記録の閉鎖等,0,2022-09-05,2022-08-30,世田谷コンサルティング株式会社,,株式会社,東京都,世田谷区,給田５丁目６番２４－１０９号,,13,112,1570064,,,2022-08-30,清算の結了等,,,2015-10-05,1,,,,,セタガヤコンサルティング,0
2289,9010903005202,登記記録の閉鎖等,0,2022-09-05,2022-08-15,コレクト合同会社,,合同会社,東京都,目黒区,中目黒１丁目１０－２５フレンドパレス３０２,,13,110,1530061,,,2022-08-15,清算の結了等,,,2019-09-05,1,,,,,コレクト,0
2313,9011801034763,登記記録の閉鎖等,0,2022-09-05,2022-09-01,ＣＷＧＭクラウドサービス株式会社,,株式会社,東京都,板橋区,小豆沢２丁目３４番９号,,13,119,1740051,,,2022-09-01,清算の結了等,,,2018-06-01,1,,,,,シーダブルジーエムクラウドサービス,0
2349,9040001103401,登記記録の閉鎖等,0,2022-09-05,2022-08-24,全邦テクノ株式会社,,株式会社,千葉県,茂原市,上林１５８番地１（ダイアパレス茂原６２１号）,,12,210,2970019,,,2022-08-24,清算の結了等,,,2018-02-07,1,,,,,ゼンポウテクノ,0
2362,9070002024123,登記記録の閉鎖等,0,2022-09-05,2022-08-31,佃井染工有限会社,,有限会社,群馬県,桐生市,境野町７丁目１番地,,10,203,3760002,,,2022-08-31,清算の結了等,,,2015-10-05,1,,,,,ツクイセンコウ,0
2403,9120102019117,登記記録の閉鎖等,0,2022-09-05,2022-09-02,有限会社太田機設,,有限会社,大阪府,羽曳野市,島泉７丁目１４番７号,,27,222,5830881,,,2022-09-02,清算の結了等,,,2015-10-05,1,,,,,オオタキセツ,0
2406,9120105004504,登記記録の閉鎖等,0,2022-09-05,2022-09-01,特定非営利活動法人相談・調査業務関西サポートセンター,,その他の設立登記法人,大阪府,堺市東区,西野４１６,,27,143,5998125,,,2022-09-01,清算の結了等,,,2015-10-05,1,,,,,ソウダンチョウサギョウムカンサイサポートセンター,0
2407,9120901002966,登記記録の閉鎖等,0,2022-09-05,2022-09-01,株式会社ハッピーケア,,株式会社,大阪府,茨木市,若園町２８番１７号,,27,211,5670894,,,2022-09-01,合併による解散等,7120901016893,令和４年９月１日大阪府吹田市春日三丁目２０番８号グリーンライフ株式会社（7120901016893）に合併し解散,2015-10-05,1,,,,,ハッピーケア,0
2431,9140001061135,登記記録の閉鎖等,0,2022-09-05,2022-09-01,株式会社兵庫公営施設管理センター,,株式会社,兵庫県,姫路市,田寺東２丁目３２番６号,,28,201,6700081,,,2022-09-01,清算の結了等,,,2015-10-05,1,,,,,,0
2434,9140001102888,登記記録の閉鎖等,0,2022-09-05,2022-08-30,株式会社サンセール吉川,,株式会社,兵庫県,西宮市,与古道町２番３４－３０１号,,28,204,6620917,,,2022-08-30,清算の結了等,,,2016-07-28,1,,,,,,0
2437,9140002029148,登記記録の閉鎖等,0,2022-09-05,2022-09-01,有限会社タカギ工芸,,有限会社,兵庫県,明石市,北朝霧丘１丁目１６２９番地の５９,,28,203,6730857,,,2022-09-01,清算の結了等,,,2015-10-05,1,,,,,タカギコウゲイ,0
2439,9140003015196,登記記録の閉鎖等,0,2022-09-05,2022-09-01,Ｆｕｎ　Ｆａｃｔｏｒｙ合同会社,,合同会社,兵庫県,西宮市,苦楽園五番町１番５９－２号,,28,204,6620087,,,2022-09-01,清算の結了等,,,2020-07-31,1,,,,,ファンファクトリー,0
2442,9150001005157,登記記録の閉鎖等,0,2022-09-05,2022-08-31,株式会社フタバ,,株式会社,奈良県,生駒市,藤尾町８９番地,,29,209,6300235,,,2022-08-31,清算の結了等,,,2015-10-05,1,,,,,フタバ,0
2454,9180002066022,登記記録の閉鎖等,0,2022-09-05,2022-08-31,有限会社坂下伊藤建材店,,有限会社,愛知県,春日井市,坂下町２丁目１０７８番地,,23,206,4800305,,,2022-08-31,清算の結了等,,,2015-10-05,1,,,,,サカシタイトウケンザイテン,0
2456,9190001026307,登記記録の閉鎖等,0,2022-09-05,2022-09-01,株式会社想グループ,,株式会社,三重県,亀山市,みどり町１番地３３,,24,210,5190106,,,2022-09-01,清算の結了等,,,2019-04-03,1,,,,,ソウグループ,0
2463,9210001012089,登記記録の閉鎖等,0,2022-09-05,2022-08-31,株式会社吉田商店,,株式会社,福井県,越前市,瓜生町３６号２番地,,18,209,9150096,,,2022-08-31,清算の結了等,,,2015-10-05,1,,,,,ヨシダショウテン,0
2464,9210001013178,登記記録の閉鎖等,0,2022-09-05,2022-09-02,株式会社Ｐ．ＷＩＬＬ,,株式会社,福井県,鯖江市,丸山町４丁目８番２４－１号,,18,207,9160019,,,2022-09-02,清算の結了等,,,2015-10-05,1,,,,,ピーウィル,0
2488,9290801025126,登記記録の閉鎖等,0,2022-09-05,2022-08-31,株式会社ＲＥＳＯＮＡＮＴ,,株式会社,福岡県,北九州市小倉北区,鍛冶町１丁目１番１号北九州東洋ビル５階,,40,106,8020004,,,2022-08-31,清算の結了等,,,2018-11-30,1,,,,,レゾナント,0
2501,9330002016606,登記記録の閉鎖等,0,2022-09-05,2022-09-01,有限会社ダイアナ大津,,有限会社,熊本県,菊池郡大津町,大字室９２５番地１５第８博陽ビル１０３号室,,43,403,8691235,,,2022-09-01,清算の結了等,,,2015-10-05,1,,,,,ダイアナオオヅ,0
2522,9430001074768,登記記録の閉鎖等,0,2022-09-05,2022-08-31,ＥＦＮ株式会社,,株式会社,北海道,札幌市北区,篠路八条６丁目１６番１号,,01,102,0028028,,,2022-08-31,清算の結了等,,,2017-08-10,1,,,,,イーエフエヌ,0
2526,9450002004078,登記記録の閉鎖等,0,2022-09-05,2022-09-01,有限会社ウィズ・なかむら,,有限会社,北海道,旭川市,豊岡四条２丁目２番２６号,,01,204,0788234,,,2022-09-01,合併による解散等,2450002008011,令和４年９月１日北海道旭川市豊岡四条二丁目２番２６号株式会社中村葬儀社（2450002008011）に合併し解散,2015-10-05,1,,,,,ウィズナカムラ,0
2529,9460302001781,登記記録の閉鎖等,0,2022-09-05,2022-09-01,有限会社北見農業開発,,有限会社,北海道,北見市,川東３７０番地２,,01,208,0900807,,,2022-09-01,清算の結了等,,,2015-10-05,1,,,,,キタミノウギョウカイハツ,0
2532,9470003001997,登記記録の閉鎖等,0,2022-09-05,2022-09-01,アウル合同会社,,合同会社,香川県,高松市,浜ノ町７３番９－８０２号,,37,201,7600011,,,2022-09-01,清算の結了等,,,2021-07-19,1,,,,,アウル,0
