sequenceNumber,corporateNumber,process,correct,updateDate,changeDate,name,nameImageId,kind,prefectureName,cityName,streetNumber,addressImageId,prefectureCode,cityCode,postCode,addressOutside,addressOutsideImageId,closeDate,closeCause,successorCorporateNumber,changeCause,assignmentDate,latest,enName,enPrefectureName,enCityName,enAddressOutside,furigana,hihyoji
6,1010001241005,新規,0,2023-12-22,2023-12-22,株式会社サンフラワー・ヒューマン・コンサルティング・アンド・サポート,,株式会社,東京都,中央区,日本橋室町１丁目１１番１２号日本橋水野ビル７階,,13,102,1030022,,,,,,,2023-12-22,1,,,,,サンフラワーヒューマンコンサルティングアンドサポート,0
7,1010001241021,新規,0,2023-12-22,2023-12-22,株式会社ＫＩＡ,,株式会社,東京都,中央区,銀座１丁目１２－４Ｎ＆ＥＢＬＤ．７階,,13,102,1040061,,,,,,,2023-12-22,1,,,,,ケーアイエー,0
8,1010001241062,新規,0,2023-12-22,2023-12-22,株式会社百屋商店,,株式会社,東京都,中央区,銀座３丁目５番８号,,13,102,1040061,,,,,,,2023-12-22,1,,,,,モモヤショウテン,0
10,1010003042525,新規,0,2023-12-22,2023-12-22,合同会社スプリングエクイティー,,合同会社,東京都,中央区,日本橋室町１丁目１１番１２号日本橋水野ビル７階,,13,102,1030022,,,,,,,2023-12-22,1,,,,,スプリングエクイティー,0
17,1010401179324,新規,0,2023-12-22,2023-12-22,株式会社ニューロン・プロダクション,,株式会社,東京都,港区,南青山２丁目２番１５号ウィン青山９４２,,13,103,1070062,,,,,,,2023-12-22,1,,,,,ニューロンプロダクション,0
18,1010401179332,新規,0,2023-12-22,2023-12-22,株式会社クレスト,,株式会社,東京都,港区,北青山１丁目３番１号アールキューブ青山３階,,13,103,1070061,,,,,,,2023-12-22,1,,,,,クレスト,0
25,1010403031631,新規,0,2023-12-22,2023-12-22,ＲＥＴＡ　ＨＯＭＥ合同会社,,合同会社,東京都,港区,六本木７丁目２番２８－６０５号,,13,103,1060032,,,,,,,2023-12-22,1,,,,,レタホーム,0
34,1010801034640,新規,0,2023-12-22,2023-12-22,株式会社Ｒｏｏｍ,,株式会社,東京都,大田区,蒲田４丁目６番６号ｍｉｋｏビル５Ｆ,,13,111,1440052,,,,,,,2023-12-22,1,,,,,ルーム,0
36,1010901054398,新規,0,2023-12-22,2023-12-22,株式会社ジェイルート,,株式会社,東京都,世田谷区,等々力６丁目１３番１０号,,13,112,1580082,,,,,,,2023-12-22,1,,,,,ジェイルート,0
37,1010901054407,新規,0,2023-12-22,2023-12-22,株式会社ｏｙ＆ｃｏ．,,株式会社,東京都,世田谷区,桜丘５丁目１３－１１－１１１,,13,112,1560054,,,,,,,2023-12-22,1,,,,,オーワイアンドコー,0
38,1010901054415,新規,0,2023-12-22,2023-12-22,株式会社東輝サポート,,株式会社,東京都,世田谷区,宮坂３丁目５０番１１号,,13,112,1560051,,,,,,,2023-12-22,1,,,,,トウキサポート,0
43,1011001159022,新規,0,2023-12-22,2023-12-22,株式会社ＹｅｓＡｎｄ,,株式会社,東京都,目黒区,東山３丁目７番１１号,,13,110,1530043,,,,,,,2023-12-22,1,,,,,イエスアンド,0
50,1011101105578,新規,0,2023-12-22,2023-12-22,ＥＮＣＯＵＮＴＥＲ株式会社,,株式会社,東京都,新宿区,西新宿６丁目１５－１セントラルパークタワー・ラ・トゥール新宿４１０号室,,13,104,1600023,,,,,,,2023-12-22,1,,,,,エンカウンター,0
51,1011101105586,新規,0,2023-12-22,2023-12-22,キャンバスエッジ株式会社,,株式会社,東京都,新宿区,大久保２丁目５番２３号,,13,104,1690072,,,,,,,2023-12-22,1,,,,,キャンバスエッジ,0
54,1011203004257,新規,0,2023-12-22,2023-12-22,ＴＡコンサルティング合同会社,,合同会社,東京都,中野区,鷺宮３丁目３１番３６号,,13,114,1650032,,,,,,,2023-12-22,1,,,,,ティーエーコンサルティング,0
58,1011401025724,新規,0,2023-12-22,2023-12-22,Ｒ．Ｙ．Ｏ．株式会社,,株式会社,東京都,板橋区,蓮根２丁目１８番２９号,,13,119,1740046,,,,,,,2023-12-22,1,,,,,アールワイオー,0
60,1011501030145,新規,0,2023-12-22,2023-12-22,株式会社ＳｕｎＳｔａｒ,,株式会社,東京都,荒川区,町屋８丁目４番２０号,,13,118,1160001,,,,,,,2023-12-22,1,,,,,サンスター,0
62,1011503005896,新規,0,2023-12-22,2023-12-22,景．瓷合同会社,,合同会社,東京都,北区,滝野川３丁目９番２号西巣鴨ＫＴＢビル２０８号室,,13,117,1140023,,,,,,,2023-12-22,1,,,,,ジング,0
63,1011701026876,新規,0,2023-12-22,2023-12-22,株式会社ナードステージ,,株式会社,東京都,江戸川区,東葛西５丁目１２番１－１０６号,,13,123,1340084,,,,,,,2023-12-22,1,,,,,ナードステージ,0
70,1011803006009,新規,0,2023-12-22,2023-12-22,ヘッズアップ合同会社,,合同会社,東京都,足立区,北加平町２１番６－６０３号,,13,121,1210056,,,,,,,2023-12-22,1,,,,,ヘッズアップ,0
72,1012701018005,新規,0,2023-12-22,2023-12-22,株式会社ＴＯＰ,,株式会社,東京都,東村山市,青葉町２丁目３８番地８,,13,213,1890002,,,,,,,2023-12-22,1,,,,,トップ,0
73,1012801022831,新規,0,2023-12-22,2023-12-22,トヨトヨアニメ株式会社,,株式会社,東京都,立川市,一番町４丁目２９－３プライムスクエア４０２室,,13,202,1900033,,,,,,,2023-12-22,1,,,,,トヨトヨアニメ,0
86,1020001155022,新規,0,2023-12-22,2023-12-22,株式会社ＲｏｃｈｏＴｅｃｈ,,株式会社,神奈川県,横浜市西区,戸部町４丁目１３０番地シュロス戸部２０５,,14,103,2200042,,,,,,,2023-12-22,1,,,,,ロチョテック,0
89,1020003025231,新規,0,2023-12-22,2023-12-22,合同会社ステアコミュニケーションズ,,合同会社,神奈川県,川崎市中原区,小杉町２丁目２２８番地１Ｗ４６０４,,14,133,2110063,,,,,,,2023-12-22,1,,,,,ステアコミュニケーションズ,0
91,1021005012977,新規,0,2023-12-22,2023-12-22,一般社団法人県央経営者会,,その他の設立登記法人,神奈川県,厚木市,栄町１丁目１６番１５号厚木商工会議所４０３,,14,212,2430017,,,,,,,2023-12-22,1,,,,,ケンオウケイエイシャカイ,0
98,1030001157802,新規,0,2023-12-22,2023-12-22,株式会社三陽,,株式会社,埼玉県,ふじみ野市,亀久保１８１０－４１,,11,245,3560051,,,,,,,2023-12-22,1,,,,,,0
99,1030001157843,新規,0,2023-12-22,2023-12-22,ミシンライダース１６８株式会社,,株式会社,埼玉県,吉川市,大字保５６６番地７,,11,243,3420041,,,,,,,2023-12-22,1,,,,,ミシンライダースイチロクハチ,0
100,1030001157868,新規,0,2023-12-22,2023-12-22,ＳＩＴ株式会社,,株式会社,埼玉県,戸田市,下前２丁目１２番１６－３０１号,,11,224,3350016,,,,,,,2023-12-22,1,,,,,エスアイティー,0
104,1030003023259,新規,0,2023-12-22,2023-12-22,合同会社ＴＣＳ,,合同会社,埼玉県,川口市,幸町３丁目８番３５号,,11,203,3320016,,,,,,,2023-12-22,1,,,,,ティーシーエス,0
105,1030003023283,新規,0,2023-12-22,2023-12-22,勇鳳合同会社,,合同会社,埼玉県,越谷市,蒲生南町２４番３６号ラ・シェーナ越谷南３１３,,11,222,3430833,,,,,,,2023-12-22,1,,,,,ユウホウ,0
110,1040001131491,新規,0,2023-12-22,2023-12-22,株式会社Ｅ．Ｙ．Ｅ,,株式会社,千葉県,千葉市花見川区,幕張町４丁目２番地,,12,102,2620032,,,,,,,2023-12-22,1,,,,,イーワイイー,0
111,1040001131509,新規,0,2023-12-22,2023-12-22,株式会社大和創建,,株式会社,千葉県,松戸市,新松戸１丁目３０４番地の１メゾンドシュシュ１０２号,,12,207,2700034,,,,,,,2023-12-22,1,,,,,ヤマトソウケン,0
115,1040003023976,新規,0,2023-12-22,2023-12-22,合同会社ＭＩＲＡＣＬＥ　ＡＵＴＯ,,合同会社,千葉県,八街市,沖１３３８番地１２,,12,230,2891126,,,,,,,2023-12-22,1,,,,,ミラクルオート,0
120,1050003008019,新規,0,2023-12-22,2023-12-22,合同会社響,,合同会社,茨城県,古河市,東３丁目１０番２８号第５邦栄マンション２０３号室,,08,204,3060011,,,,,,,2023-12-22,1,,,,,ヒビキ,0
124,1060001036648,新規,0,2023-12-22,2023-12-22,株式会社Ｔｏｒｇａ,,株式会社,栃木県,宇都宮市,雀の宮４丁目２６番９号－１０２,,09,201,3210132,,,,,,,2023-12-22,1,,,,,トルガ,0
129,1070001041085,新規,0,2023-12-22,2023-12-22,株式会社ＦＲＥＥＤＯＭ,,株式会社,群馬県,太田市,古戸町１０９９－１,,10,205,3730826,,,,,,,2023-12-22,1,,,,,,0
130,1070005010202,新規,0,2023-12-22,2023-12-22,労働者協同組合ネイチャーポジティブ,,その他の設立登記法人,群馬県,吾妻郡嬬恋村,大字大前２２６５－５０,,10,425,3771612,,,,,,,2023-12-22,1,,,,,,0
133,1090003002455,新規,0,2023-12-22,2023-12-22,合同会社ｅｖｏｋｅ,,合同会社,山梨県,富士吉田市,松山１９６４番地２８１,,19,202,4030016,,,,,,,2023-12-22,1,,,,,イヴォーク,0
137,1100003007320,新規,0,2023-12-22,2023-12-22,合同会社上田ブランド研究所,,合同会社,長野県,上田市,中央４丁目７番３０号,,20,203,3860012,,,,,,,2023-12-22,1,,,,,ウエダブランドケンキュウジョ,0
149,1120001260687,新規,0,2023-12-22,2023-12-22,萬隆株式会社,,株式会社,大阪府,大阪市西成区,聖天下１丁目９－１１－１０１号,,27,122,5570012,,,,,,,2023-12-22,1,,,,,マンリュウ,0
150,1120001260761,新規,0,2023-12-22,2023-12-22,万象株式会社,,株式会社,大阪府,大阪市淀川区,西中島６丁目２番１号チサンマンション第７新大阪９１２号室,,27,123,5320011,,,,,,,2023-12-22,1,,,,,バンショウ,0
151,1120001260860,新規,0,2023-12-22,2023-12-22,株式会社クラフトテック,,株式会社,大阪府,枚方市,菊丘町１番２５－１号,,27,210,5730091,,,,,,,2023-12-22,1,,,,,クラフトテック,0
152,1120001260869,新規,0,2023-12-22,2023-12-22,エクストリンクホールディングス株式会社,,株式会社,大阪府,大阪市北区,曾根崎２丁目３番５号,,27,127,5300057,,,,,,,2023-12-22,1,,,,,エクストリンクホールディングス,0
155,1120003025254,新規,0,2023-12-22,2023-12-22,レンガ工房合同会社,,合同会社,大阪府,門真市,三ツ島２丁目２０番５２号,,27,223,5710015,,,,,,,2023-12-22,1,,,,,レンガコウボウ,0
156,1120003025568,新規,0,2023-12-22,2023-12-22,合同会社仁,,合同会社,大阪府,大阪市西区,南堀江１丁目２５番１２号,,27,106,5500015,,,,,,,2023-12-22,1,,,,,ジン,0
157,1120003025576,新規,0,2023-12-22,2023-12-22,合同会社ＮＡＲＵ,,合同会社,大阪府,守口市,佐太中町２丁目７番２７号,,27,209,5700002,,,,,,,2023-12-22,1,,,,,ナル,0
161,1120101068733,新規,0,2023-12-22,2023-12-22,株式会社Ｌｅｇａｃｙ,,株式会社,大阪府,貝塚市,海塚１丁目１番２３号,,27,208,5970083,,,,,,,2023-12-22,1,,,,,レガシー,0
162,1120101068741,新規,0,2023-12-22,2023-12-22,ＺＥＬＩＡＳ　ＭＯＴＯＲＳ株式会社,,株式会社,大阪府,和泉市,室堂町６６４番地の１（２０７）,,27,219,5941101,,,,,,,2023-12-22,1,,,,,ゼリアスモータース,0
167,1120901048521,新規,0,2023-12-22,2023-12-22,株式会社ＳＡＮＷＡ,,株式会社,大阪府,豊中市,小曽根３丁目９番１４号,,27,203,5610813,,,,,,,2023-12-22,1,,,,,サンワ,0
169,1122001037677,新規,0,2023-12-22,2023-12-22,リガーレ株式会社,,株式会社,大阪府,四條畷市,田原台４丁目４番１０号,,27,229,5750013,,,,,,,2023-12-22,1,,,,,リガーレ,0
183,1140001132769,新規,0,2023-12-22,2023-12-22,株式会社Ｇ‐７ネットストア,,株式会社,兵庫県,神戸市須磨区,弥栄台２丁目１番地の３,,28,107,6540161,,,,,,,2023-12-22,1,,,,,ジーセブンネットストア,0
184,1140001132777,新規,0,2023-12-22,2023-12-22,株式会社ＮａＩＮＥ,,株式会社,兵庫県,神戸市中央区,下山手通２丁目１３番３号建創ビル２０１,,28,110,6500011,,,,,,,2023-12-22,1,,,,,ナイン,0
185,1140001132785,新規,0,2023-12-22,2023-12-22,株式会社淳洋,,株式会社,兵庫県,神戸市中央区,京町６７番地,,28,110,6500034,,,,,,,2023-12-22,1,,,,,ジュンヨウ,0
186,1140001132793,新規,0,2023-12-22,2023-12-22,株式会社アイグリード,,株式会社,兵庫県,神戸市中央区,元町通７丁目１番２－９０１号,,28,110,6500022,,,,,,,2023-12-22,1,,,,,アイグリード,0
187,1140001132802,新規,0,2023-12-22,2023-12-22,株式会社ＭＹ,,株式会社,兵庫県,姫路市,広畑区末広町１丁目４１番地４,,28,201,6711115,,,,,,,2023-12-22,1,,,,,エムワイ,0
192,1140003019964,新規,0,2023-12-22,2023-12-22,合同会社ＧＬＡＤ,,合同会社,兵庫県,姫路市,花影町２丁目９番地,,28,201,6700047,,,,,,,2023-12-22,1,,,,,グラッド,0
193,1150001026961,新規,0,2023-12-22,2023-12-22,株式会社インフィニティ,,株式会社,奈良県,橿原市,木原町２２番地の７,,29,205,6340004,,,,,,,2023-12-22,1,,,,,インフィニティ,0
194,1160001025582,新規,0,2023-12-22,2023-12-22,株式会社Ｔｏｎｔｔｕ,,株式会社,滋賀県,彦根市,正法寺町４７０番地３９,,25,202,5220024,,,,,,,2023-12-22,1,,,,,トントゥ,0
197,1160005011257,新規,0,2023-12-22,2023-12-22,一般社団法人ミカタコンシェルジュ,,その他の設立登記法人,滋賀県,草津市,野路１丁目１６番１号アメニティ南草津ＶＩＩＩ１階,00133077,25,206,5250059,,,,,,,2023-12-22,1,,,,,ミカタコンシェルジュ,0
201,1180001159478,新規,0,2023-12-22,2023-12-22,株式会社ＤＯＲＳＡＹ,,株式会社,愛知県,名古屋市中区,錦３丁目２番２４号セントヒルズビル７階Ｂ号室,,23,106,4600003,,,,,,,2023-12-22,1,,,,,ドルセー,0
202,1180001159503,新規,0,2023-12-22,2023-12-22,株式会社ＳｈｉｎｅＷｏｒｋｓ,,株式会社,愛知県,名古屋市中村区,名駅３丁目４－１０アルティメイト名駅１ｓｔ２階,,23,105,4500002,,,,,,,2023-12-22,1,,,,,シャインワークス,0
204,1180003026156,新規,0,2023-12-22,2023-12-22,合同会社Ａｏｉ,,合同会社,愛知県,名古屋市中区,栄１丁目１２番１３－１２０５号,,23,106,4600008,,,,,,,2023-12-22,1,,,,,アオイ,0
205,1180301038150,新規,0,2023-12-22,2023-12-22,株式会社Ｃｈａｋａ‐Ｃｈａｋａ,,株式会社,愛知県,岡崎市,二軒屋町１丁目９番地６,,23,202,4440222,,,,,,,2023-12-22,1,,,,,チャカチャカ,0
213,1200001042004,新規,0,2023-12-22,2023-12-22,株式会社Ｌｉｎｏ,,株式会社,岐阜県,瑞穂市,十九条３３６番地１,,21,216,5010235,,,,,,,2023-12-22,1,,,,,リノ,0
215,1200005013554,新規,0,2023-12-22,2023-12-22,ＪＩＢＡＩ行政書士法人,,その他の設立登記法人,岐阜県,羽島郡岐南町,上印食６丁目８１番地,,21,302,5016001,,,,,,,2023-12-22,1,,,,,ジバイ,0
219,1220001025741,新規,0,2023-12-22,2023-12-22,株式会社キセキ板金,,株式会社,石川県,加賀市,合河町ホ１１８番地５,,17,206,9220337,,,,,,,2023-12-22,1,,,,,キセキバンキン,0
223,1240001062584,新規,0,2023-12-22,2023-12-22,株式会社アクセス,,株式会社,広島県,広島市佐伯区,河内南２丁目３８番２０号,,34,108,7315153,,,,,,,2023-12-22,1,,,,,アクセス,0
229,1260001038590,新規,0,2023-12-22,2023-12-22,株式会社サンフィールド,,株式会社,岡山県,岡山市東区,西大寺東３丁目３番８号２０３,,33,103,7048114,,,,,,,2023-12-22,1,,,,,サンフィールド,0
247,1290001104134,新規,0,2023-12-22,2023-12-22,Ａ・ｓａｋｕｒａキャピタル株式会社,,株式会社,福岡県,朝倉市,来春３２５番地１,,40,228,8380069,,,,,,,2023-12-22,1,,,,,アサクラキャピタル,0
248,1290001104142,新規,0,2023-12-22,2023-12-22,株式会社ソーブリンク,,株式会社,福岡県,福岡市早良区,野芥４丁目９番１６－１０４号,,40,137,8140171,,,,,,,2023-12-22,1,,,,,ソーブリンク,0
249,1290001104150,新規,0,2023-12-22,2023-12-22,株式会社Ｂｕｄｄｙ,,株式会社,福岡県,福岡市西区,今宿上ノ原７５１－１－Ａ１０１,,40,135,8190163,,,,,,,2023-12-22,1,,,,,バディ,0
250,1290001104167,新規,0,2023-12-22,2023-12-22,株式会社重田屋,,株式会社,福岡県,春日市,平田台４丁目８５番地３,,40,218,8160812,,,,,,,2023-12-22,1,,,,,シゲタヤ,0
252,1290003014769,新規,0,2023-12-22,2023-12-22,Ｎａｓｓｉｍ合同会社,,合同会社,福岡県,福岡市中央区,赤坂３丁目１３番３号赤阪Ｓａｎａｓ,,40,133,8100042,,,,,,,2023-12-22,1,,,,,ナシム,0
253,1290003014785,新規,0,2023-12-22,2023-12-22,合同会社ＬＳ,,合同会社,福岡県,福岡市東区,香椎照葉７丁目５番３－８０４号,,40,131,8130017,,,,,,,2023-12-22,1,,,,,エルエス,0
257,1290803004572,新規,0,2023-12-22,2023-12-22,合同会社三協Ｌｉｆｅ’ｓ,,合同会社,福岡県,田川市,大字糒６００番地２,,40,206,8250005,,,,,,,2023-12-22,1,,,,,サンキョウライフズ,0
269,1350001018724,新規,0,2023-12-22,2023-12-22,布施地産株式会社,,株式会社,宮崎県,宮崎市,大島町天神前１１９７番地１,,45,201,8800824,,,,,,,2023-12-22,1,,,,,フセチサン,0
271,1350003004532,新規,0,2023-12-22,2023-12-22,合同会社慶清,,合同会社,宮崎県,都城市,上川東４丁目５７５５番地１３,,45,202,8850012,,,,,,,2023-12-22,1,,,,,ケイセイ,0
273,1360003013573,新規,0,2023-12-22,2023-12-22,合同会社アエリア,,合同会社,沖縄県,沖縄市,知花６丁目３３－８,,47,211,9042143,,,,,,,2023-12-22,1,,,,,アエリア,0
277,1400001016499,新規,0,2023-12-22,2023-12-22,株式会社ハタセ,,株式会社,岩手県,一関市,大町７番５号,,03,209,0210881,,,,,,,2023-12-22,1,,,,,ハタセ,0
279,1410001013677,新規,0,2023-12-22,2023-12-22,Ｋａｂｂａｒａ　Ｊａｐａｎ株式会社,,株式会社,秋田県,湯沢市,秋ノ宮字堰ノ口２２９番地１３,,05,207,0190321,,,,,,,2023-12-22,1,,,,,カバーラジャパン,0
285,1430001090715,新規,0,2023-12-22,2023-12-22,株式会社白友舎,,株式会社,北海道,室蘭市,輪西町１丁目１８番２号,,01,205,0500085,,,,,,,2023-12-22,1,,,,,ハクユウシャ,0
287,1430005014851,新規,0,2023-12-22,2023-12-22,特定非営利活動法人だいすきプロジェクト,,その他の設立登記法人,北海道,札幌市清田区,北野四条４丁目９番１３号,,01,110,0040864,,,,,,,2023-12-22,1,,,,,ダイスキプロジェクト,0
292,1480003002060,新規,0,2023-12-22,2023-12-22,香南ソーラーパーク合同会社,,合同会社,徳島県,阿南市,辰己町１番地３８,,36,204,7740001,,,,,,,2023-12-22,1,,,,,コウナンソーラーパーク,0
294,1490003001846,新規,0,2023-12-22,2023-12-22,合同会社ＦＦ‐ｉｎｔｅｒｎａｔｉｏｎａｌ,,合同会社,高知県,香美市,土佐山田町２０１６番地８,,39,212,7820047,,,,,,,2023-12-22,1,,,,,,0
303,1700150122992,新規,0,2023-12-22,2023-12-22,Ｅｉｌｅｅｎ　Ｇｒａｙｓ　ＬＬＣ,,外国会社等,,,,,,,,２１８　Ｂｌａｃｋ　Ｔｉｅ　Ｌａｎｅ　Ｃｈａｐｅｌ　Ｈｉｌｌ　ＮＣ　２７５１４　ＵＳ,,,,,,2023-12-22,1,,,,,アイリーングレイズリミテツドライアビリテイーカンパニー,0
304,1700150123000,新規,0,2023-12-22,2023-12-22,ＣＯＲＯＳ　ＳＰＯＲＴＳ　ＴＥＣＨＮＯＬＯＧＹ　（ＨＯＮＧＫＯＮＧ）ＣＯ．，ＬＩＭＩＴＥＤ,,外国会社等,,,,,,,,ＲＯＯＭ　４０１，４／Ｆ，ＷＡＮＣＨＡＩ　ＣＥＮＴＲＡＬ　ＢＵＩＬＤＩＮＧ，８９　ＬＯＣＫＨＡＲＴ　ＲＯＡＤ，ＷＡＮＣＨＡＩ，ＨＯＮＧＫＯＮＧ,,,,,,2023-12-22,1,,,,,ガオチーインドンコージーシヤンガンヨウシエンゴンスー,0
305,1700150123041,新規,0,2023-12-22,2023-12-22,ＰＥＴＧＵＧＵＴＥＣＨＮＯＬＯＧＹＰＴＥ．ＬＴＤ．,,外国会社等,,,,,,,,１２　ＥＵ　ＴＯＮＧ　ＳＥＮ　ＳＴＲＥＥＴ＃０４－１７１ＴＨＥ　ＣＥＮＴＲＡＬＳＩＮＧＡＰＯＲＥ（０５９８１９）,,,,,,2023-12-22,1,,,,,ペットググテクノロジプティリミテッド,0
320,2010001241012,新規,0,2023-12-22,2023-12-22,株式会社ＵＯＮＥ,,株式会社,東京都,中央区,銀座１丁目８番７号ＶＯＲＴ銀座ＤＤＩ１階,,13,102,1040061,,,,,,,2023-12-22,1,,,,,ウオネ,0
321,2010001241020,新規,0,2023-12-22,2023-12-22,久邦株式会社,,株式会社,東京都,文京区,白山１丁目６番４号文京ＶｅｎｔｕｒｅＢａｓｅ２０２,,13,105,1130001,,,,,,,2023-12-22,1,,,,,クホウ,0
322,2010001241061,新規,0,2023-12-22,2023-12-22,株式会社玉屋商店,,株式会社,東京都,中央区,銀座３丁目５番８号,,13,102,1040061,,,,,,,2023-12-22,1,,,,,タマヤショウテン,0
325,2010003042516,新規,0,2023-12-22,2023-12-22,合同会社Ｃｈｏｉｃｅ＆Ｃｈａｌｌｅｎｇｅ,,合同会社,東京都,中央区,日本橋２丁目２番３号ＲＩＳＨＥビルＵＣＦ４階,,13,102,1030027,,,,,,,2023-12-22,1,,,,,チョイスアンドチャレンジ,0
326,2010003042532,新規,0,2023-12-22,2023-12-22,ｍｔｎｚ合同会社,,合同会社,東京都,文京区,湯島３丁目１３－８湯島不二ビル１０２,,13,105,1130034,,,,,,,2023-12-22,1,,,,,エムティーエヌゼット,0
335,2010401179298,新規,0,2023-12-22,2023-12-22,株式会社ポセイドンキャピタル,,株式会社,東京都,港区,赤坂２丁目１２番２０－３０４号,,13,103,1070052,,,,,,,2023-12-22,1,,,,,ポセイドンキャピタル,0
336,2010401179307,新規,0,2023-12-22,2023-12-22,株式会社ＦＭＨ,,株式会社,東京都,港区,虎ノ門５丁目１１番２号オランダヒルズ森タワー１８階,,13,103,1050001,,,,,,,2023-12-22,1,,,,,エフエムエイチ,0
337,2010401179315,新規,0,2023-12-22,2023-12-22,ＡＹＣ株式会社,,株式会社,東京都,港区,西麻布２丁目１３番８号ライオンズマンション西麻布シティ３０７号室,,13,103,1060031,,,,,,,2023-12-22,1,,,,,アイグレックセ,0
338,2010401179356,新規,0,2023-12-22,2023-12-22,Ｂｏｃｃｏｎｃｉｎｉ株式会社,,株式会社,東京都,港区,南青山２丁目２番１５号,,13,103,1070062,,,,,,,2023-12-22,1,,,,,ボッコンチーニ,0
345,2010801034623,新規,0,2023-12-22,2023-12-22,株式会社牛盛,,株式会社,東京都,大田区,仲六郷２丁目２６番１号サンベアービル１Ｆ,,13,111,1440055,,,,,,,2023-12-22,1,,,,,ギュウモリ,0
346,2010803004789,新規,0,2023-12-22,2023-12-22,合同会社オクト,,合同会社,東京都,大田区,南馬込３丁目１５－６,,13,111,1430025,,,,,,,2023-12-22,1,,,,,オクト,0
353,2011003018159,新規,0,2023-12-22,2023-12-22,Ｌｕｍｉｓｉｓ合同会社,,合同会社,東京都,渋谷区,松濤１丁目４－８ＥＡＳＴビル１Ｆ,,13,113,1500046,,,,,,,2023-12-22,1,,,,,ルミシス,0
356,2011101105552,新規,0,2023-12-22,2023-12-22,株式会社ＡｉＭｕｓｅ　Ｉｎｎｏｖａｔｉｏｎｓ,,株式会社,東京都,新宿区,西新宿７丁目５番９－３１０４号,,13,104,1600023,,,,,,,2023-12-22,1,,,,,アイミューズイノベーションズ,0
358,2011103013893,新規,0,2023-12-22,2023-12-22,合同会社ｎｕｌｌｏｎｅ,,合同会社,東京都,新宿区,歌舞伎町２丁目８番２－４０１号,,13,104,1600021,,,,,,,2023-12-22,1,,,,,ヌルワン,0
361,2011201025114,新規,0,2023-12-22,2023-12-22,株式会社ＥＬＵＣＫ　ＥＳＴＡＴＥ　ＩＮＴＥＲＮＡＴＩＯＮＡＬ,,株式会社,東京都,中野区,中央３丁目４３－３,,13,114,1640011,,,,,,,2023-12-22,1,,,,,エラックエステートインターナショナル,0
369,2011601027404,新規,0,2023-12-22,2023-12-22,株式会社スカブラ,,株式会社,東京都,練馬区,東大泉１丁目３５番１４号,,13,120,1780063,,,,,,,2023-12-22,1,,,,,スカブラ,0
372,2011801043564,新規,0,2023-12-22,2023-12-22,マリーズ株式会社,,株式会社,東京都,足立区,西伊興１丁目１０番２２号,,13,121,1210824,,,,,,,2023-12-22,1,,,,,マリーズ,0
382,2012401041347,新規,0,2023-12-22,2023-12-22,株式会社ＷａｔｅｒＢｅａｒ,,株式会社,東京都,調布市,多摩川５丁目２９番地２調布パレス５２７－２０２号室,,13,208,1820025,,,,,,,2023-12-22,1,,,,,ウォーターベアー,0
383,2012401041355,新規,0,2023-12-22,2023-12-22,ＴＨＡＮＫＮＩ株式会社,,株式会社,東京都,三鷹市,下連雀７丁目１２番地２８－３０１,,13,204,1810013,,,,,,,2023-12-22,1,,,,,サンクニ,0
384,2012701018004,新規,0,2023-12-22,2023-12-22,株式会社Ｃｃ,,株式会社,東京都,小平市,天神町２丁目５番１８号,,13,211,1870004,,,,,,,2023-12-22,1,,,,,シーシー,0
386,2012801022847,新規,0,2023-12-22,2023-12-22,株式会社ＴＩＥＣＬＡＮ,,株式会社,東京都,立川市,錦町１丁目４番４号ＣＳ－９９,,13,202,1900022,,,,,,,2023-12-22,1,,,,,ティーアイイークラン,0
387,2013101009320,新規,0,2023-12-22,2023-12-22,株式会社Ａｎｄ　Ｃｏａｃｈｉｎｇ,,株式会社,東京都,青梅市,末広町１丁目２番地の３,,13,205,1980025,,,,,,,2023-12-22,1,,,,,アンドコーチング,0
394,2020001155013,新規,0,2023-12-22,2023-12-22,ＥＮｂｒｉｘ株式会社,,株式会社,神奈川県,川崎市幸区,小向仲野町４－１２,,14,132,2120002,,,,,,,2023-12-22,1,,,,,エンブリックス,0
395,2020001155038,新規,0,2023-12-22,2023-12-22,株式会社濱優,,株式会社,神奈川県,横浜市旭区,今宿西町１８５番地３０,,14,112,2410031,,,,,,,2023-12-22,1,,,,,ハマユウ,0
400,2020003025230,新規,0,2023-12-22,2023-12-22,合同会社ＴＣＥ,,合同会社,神奈川県,川崎市麻生区,五力田４４６番地１ベル・ルワン１０７,,14,137,2150025,,,,,,,2023-12-22,1,,,,,ティーシーイー,0
401,2020003025239,新規,0,2023-12-22,2023-12-22,合同会社梵寿,,合同会社,神奈川県,横浜市西区,浅間町１丁目４番地３ウィザードビル４０２,,14,103,2200072,,,,,,,2023-12-22,1,,,,,ボンジュ,0
404,2021001081034,新規,0,2023-12-22,2023-12-22,株式会社一花建設,,株式会社,神奈川県,三浦郡葉山町,一色１５２５番地の６,,14,301,2400111,,,,,,,2023-12-22,1,,,,,イチハナケンセツ,0
409,2030001157768,新規,0,2023-12-22,2023-12-22,翔和株式会社,,株式会社,埼玉県,川口市,川口５丁目２番５号,,11,203,3320015,,,,,,,2023-12-22,1,,,,,ショウワ,0
410,2030001157818,新規,0,2023-12-22,2023-12-22,株式会社リコム,,株式会社,埼玉県,朝霞市,西弁財１丁目１３－１,,11,227,3510021,,,,,,,2023-12-22,1,,,,,リコム,0
411,2030001157834,新規,0,2023-12-22,2023-12-22,株式会社ＬＵＣＥ,,株式会社,埼玉県,所沢市,東所沢３丁目３８番地の６,,11,208,3590021,,,,,,,2023-12-22,1,,,,,ルーチェ,0
412,2030001157842,新規,0,2023-12-22,2023-12-22,エスプラス・ビジネスコンサルティング株式会社,,株式会社,埼玉県,加須市,北辻３０番地４,00133091,11,210,3470023,,,,,,,2023-12-22,1,,,,,エスプラスビジネスコンサルティング,0
416,2030003023266,新規,0,2023-12-22,2023-12-22,合同会社ａｖｅｎｉｒ,,合同会社,埼玉県,さいたま市北区,宮原町３丁目５６７番地２アイランドマンションＩ－２０２,,11,102,3310812,,,,,,,2023-12-22,1,,,,,アヴニール,0
422,2040001131458,新規,0,2023-12-22,2023-12-22,アセットプロテクト株式会社,,株式会社,千葉県,市原市,西広１丁目５番地３１,,12,219,2900022,,,,,,,2023-12-22,1,,,,,アセットプロテクト,0
423,2040001131474,新規,0,2023-12-22,2023-12-22,株式会社悠和,,株式会社,千葉県,四街道市,みそら４丁目１０番１０号,,12,228,2840023,,,,,,,2023-12-22,1,,,,,ユウワ,0
424,2040001131490,新規,0,2023-12-22,2023-12-22,株式会社ＡＬＯＨＡ，Ａｎｅｌａ,,株式会社,千葉県,山武郡横芝光町,宮川６０４１番地１,,12,410,2891727,,,,,,,2023-12-22,1,,,,,アロハアーネラ,0
429,2050001054006,新規,0,2023-12-22,2023-12-22,再創電子技術株式会社,,株式会社,茨城県,古河市,長谷町４５番１７号,,08,204,3060034,,,,,,,2023-12-22,1,,,,,サイソウデンシギジュツ,0
432,2060001036647,新規,0,2023-12-22,2023-12-22,株式会社ｅｎｓｅｍｂｌｅ,,株式会社,栃木県,小山市,中央町２丁目５番３号,,09,208,3230023,,,,,,,2023-12-22,1,,,,,アンサンブル,0
446,2090001018469,新規,0,2023-12-22,2023-12-22,株式会社俊,,株式会社,山梨県,山梨市,下石森８７７－１,,19,205,4050015,,,,,,,2023-12-22,1,,,,,トシ,0
448,2100001037079,新規,0,2023-12-22,2023-12-22,株式会社ニューピーク,,株式会社,長野県,岡谷市,川岸上３丁目３番１７号,,20,204,3940048,,,,,,,2023-12-22,1,,,,,ニューピーク,0
459,2120001260447,新規,0,2023-12-22,2023-12-22,騰蛟株式会社,,株式会社,大阪府,大阪市西成区,岸里東１丁目２９番３号ＢＳ第六ハイツ５０３号,,27,122,5570042,,,,,,,2023-12-22,1,,,,,トウコウ,0
460,2120001260785,新規,0,2023-12-22,2023-12-22,紅島株式会社,,株式会社,大阪府,大阪市浪速区,恵美須西１丁目２番５－５０２号,,27,111,5560003,,,,,,,2023-12-22,1,,,,,ベニジマ,0
461,2120001260819,新規,0,2023-12-22,2023-12-22,株式会社渡熊吉田商会,,株式会社,大阪府,大阪市住之江区,平林北２丁目８番２７号,,27,125,5590026,,,,,,,2023-12-22,1,,,,,ワタクマヨシダショウカイ,0
462,2120001260827,新規,0,2023-12-22,2023-12-22,順達貿易株式会社,,株式会社,大阪府,大阪市天王寺区,上本町５丁目７番６－７０１号,,27,109,5430001,,,,,,,2023-12-22,1,,,,,ジュンタツボウエキ,0
463,2120001260835,新規,0,2023-12-22,2023-12-22,株式会社ＡＲＩＲＯ,,株式会社,大阪府,交野市,星田西３丁目１７番１０号,,27,230,5760015,,,,,,,2023-12-22,1,,,,,アリロ,0
465,2120003025550,新規,0,2023-12-22,2023-12-22,康心合同会社,,合同会社,大阪府,大阪市生野区,小路東２丁目７番１４－１０２号,,27,116,5440003,,,,,,,2023-12-22,1,,,,,コウシン,0
466,2120003025559,新規,0,2023-12-22,2023-12-22,合同会社ＤＡＮＪＩ,,合同会社,大阪府,大阪市中央区,淡路町２丁目２番６－９０３号,,27,128,5410047,,,,,,,2023-12-22,1,,,,,ダンジ,0
467,2120003025567,新規,0,2023-12-22,2023-12-22,Ｏｆｆｉｃｅつむぎ合同会社,,合同会社,大阪府,寝屋川市,堀溝２丁目１０番１号ココプラザ４０６号,,27,215,5720814,,,,,,,2023-12-22,1,,,,,オフィスツムギ,0
468,2120101068699,新規,0,2023-12-22,2023-12-22,株式会社山塚商事,,株式会社,大阪府,堺市堺区,海山町１丁７番地２、５０５号,,27,141,5900982,,,,,,,2023-12-22,1,,,,,ヤマツカショウジ,0
470,2120901048512,新規,0,2023-12-22,2023-12-22,株式会社クレアコネクト,,株式会社,大阪府,吹田市,豊津町６０番３－４０３号,,27,205,5640051,,,,,,,2023-12-22,1,,,,,クレアコネクト,0
471,2120901048529,新規,0,2023-12-22,2023-12-22,ａｎｄＡｎｊｕ株式会社,,株式会社,大阪府,高槻市,上田辺町１７番１０号,,27,207,5690805,,,,,,,2023-12-22,1,,,,,アンドアンジュ,0
472,2122001037676,新規,0,2023-12-22,2023-12-22,株式会社有田屋,,株式会社,大阪府,八尾市,安中町６丁目１２－２,,27,212,5810085,,,,,,,2023-12-22,1,,,,,アリタヤ,0
475,2130001076000,新規,0,2023-12-22,2023-12-22,株式会社ＳＮＫ,,株式会社,京都府,京都市西京区,桂上野中町１２４番地,,26,111,6158002,,,,,,,2023-12-22,1,,,,,エスエヌケー,0
482,2140001132776,新規,0,2023-12-22,2023-12-22,ＴＡＫＡＹＡ株式会社,,株式会社,兵庫県,三木市,宿原１０８８番地の１,,28,215,6730423,,,,,,,2023-12-22,1,,,,,タカヤ,0
494,2150001026960,新規,0,2023-12-22,2023-12-22,株式会社Ｇｌｏｂｒｉｄｇｅ,,株式会社,奈良県,大和高田市,大字吉井１１９番地１,,29,202,6350059,,,,,,,2023-12-22,1,,,,,グローブリッジ,0
496,2160001025573,新規,0,2023-12-22,2023-12-22,生活技研株式会社,,株式会社,滋賀県,草津市,東草津２丁目６番１－７号,,25,206,5250033,,,,,,,2023-12-22,1,,,,,セイカツギケン,0
497,2160003003073,新規,0,2023-12-22,2023-12-22,ｅｎｏ合同会社,,合同会社,滋賀県,草津市,南草津プリムタウン４丁目１２‐５,,25,206,5250068,,,,,,,2023-12-22,1,,,,,エノ,0
503,2180001159444,新規,0,2023-12-22,2023-12-22,ＫＴＭ貿易投資株式会社,,株式会社,愛知県,名古屋市中村区,中村町５丁目２３番地の１,,23,105,4530053,,,,,,,2023-12-22,1,,,,,ケーティーエムボウエキトウシ,0
504,2180001159469,新規,0,2023-12-22,2023-12-22,株式会社ＬＩＦＥ　ＤＥＳＩＧＮ,,株式会社,愛知県,名古屋市中区,錦２丁目１２番５号,,23,106,4600003,,,,,,,2023-12-22,1,,,,,ライフデザイン,0
505,2180001159477,新規,0,2023-12-22,2023-12-22,ＧＯＬＤＶＥＩＮ株式会社,,株式会社,愛知県,名古屋市西区,名駅２丁目９番１４号,,23,104,4510045,,,,,,,2023-12-22,1,,,,,ゴールドヴェイン,0
506,2180001159485,新規,0,2023-12-22,2023-12-22,株式会社海諾,,株式会社,愛知県,名古屋市北区,長田町１丁目１３番地４ファースト尼ケ坂２０４室,,23,103,4620834,,,,,,,2023-12-22,1,,,,,カイダク,0
507,2180001159493,新規,0,2023-12-22,2023-12-22,中日藝旅文化株式会社,,株式会社,愛知県,名古屋市西区,花の木３丁目１５０１番地２パルティール城西８０３号室,,23,104,4510062,,,,,,,2023-12-22,1,,,,,チュウニチゲイリョブンカ,0
508,2180001159502,新規,0,2023-12-22,2023-12-22,インクルル株式会社,,株式会社,愛知県,名古屋市西区,笠取町１丁目６９番地,,23,104,4510072,,,,,,,2023-12-22,1,,,,,インクルル,0
509,2180001159510,新規,0,2023-12-22,2023-12-22,翔煌電工株式会社,,株式会社,愛知県,名古屋市南区,元塩町１丁目３６番地の３,,23,112,4570823,,,,,,,2023-12-22,1,,,,,ショウコウデンコウ,0
515,2180003026147,新規,0,2023-12-22,2023-12-22,合同会社ドライヴ,,合同会社,愛知県,春日井市,白山町５丁目２番地２５,,23,206,4870034,,,,,,,2023-12-22,1,,,,,ドライヴ,0
516,2180003026163,新規,0,2023-12-22,2023-12-22,合同会社インフィールド,,合同会社,愛知県,名古屋市瑞穂区,洲雲町４丁目５４番地（ＣＡＳＳＩＡ桜山７０１号）,,23,108,4670804,,,,,,,2023-12-22,1,,,,,インフィールド,0
519,2190001030975,新規,0,2023-12-22,2023-12-22,株式会社文通,,株式会社,三重県,多気郡大台町,上三瀬６８８番地１,,24,443,5192403,,,,,,,2023-12-22,1,,,,,ブンツウ,0
523,2240001062591,新規,0,2023-12-22,2023-12-22,株式会社ＡＤＯ,,株式会社,広島県,広島市中区,竹屋町１番２６号原ビル２Ｆ,,34,101,7300048,,,,,,,2023-12-22,1,,,,,アド,0
529,2260001038581,新規,0,2023-12-22,2023-12-22,株式会社ｅｖｅ,,株式会社,岡山県,岡山市南区,妹尾３７２９番地,,33,104,7010205,,,,,,,2023-12-22,1,,,,,イブ,0
530,2260001038598,新規,0,2023-12-22,2023-12-22,株式会社ａｔｅｌｉｅｒ　ＢＥＮＩ,,株式会社,岡山県,倉敷市,連島町連島１８８７番地１石原ビル１号,,33,202,7128011,,,,,,,2023-12-22,1,,,,,アトリエベニ,0
535,2290001104075,新規,0,2023-12-22,2023-12-22,株式会社Ｎａｒｙ’ｓ,,株式会社,福岡県,福岡市中央区,天神４丁目６番２８号天神ファーストビル７階,,40,133,8100001,,,,,,,2023-12-22,1,,,,,,0
536,2290001104133,新規,0,2023-12-22,2023-12-22,株式会社コメディカル・サポート,,株式会社,福岡県,那珂川市,今光８丁目４番１２号,,40,231,8111211,,,,,,,2023-12-22,1,,,,,コメディカルサポート,0
537,2290001104141,新規,0,2023-12-22,2023-12-22,株式会社Ｉ’ｓ　Ｐｒｏｊｅｃｔ,,株式会社,福岡県,宗像市,ひかりヶ丘６丁目１番地５６,,40,220,8113403,,,,,,,2023-12-22,1,,,,,アイズプロジェクト,0
538,2290001104158,新規,0,2023-12-22,2023-12-22,株式会社ＦＧＳ,,株式会社,福岡県,福岡市中央区,天神４丁目５番１０－１０１２号,,40,133,8100001,,,,,,,2023-12-22,1,,,,,,0
539,2290001104166,新規,0,2023-12-22,2023-12-22,株式会社ワクワクワークス,,株式会社,福岡県,大牟田市,大字手鎌８９０番地１,,40,202,8360004,,,,,,,2023-12-22,1,,,,,,0
545,2290003014735,新規,0,2023-12-22,2023-12-22,ＲＯＯＰＳ　ＪＡＰＡＮ合同会社,,合同会社,福岡県,福岡市中央区,渡辺通５丁目２４番３０号８０４,,40,133,8100004,,,,,,,2023-12-22,1,,,,,ループスジャパン,0
546,2290003014776,新規,0,2023-12-22,2023-12-22,合同会社森都主,,合同会社,福岡県,宗像市,自由ヶ丘８丁目１０－６,,40,220,8114163,,,,,,,2023-12-22,1,,,,,,0
547,2290003014792,新規,0,2023-12-22,2023-12-22,西日本デベロプメント合同会社,,合同会社,福岡県,古賀市,小竹８４９番地４,,40,223,8113135,,,,,,,2023-12-22,1,,,,,ニシニホンデベロプメント,0
548,2290801030157,新規,0,2023-12-22,2023-12-22,株式会社サンリレイション,,株式会社,福岡県,北九州市小倉南区,大字母原７番地３,,40,107,8030187,,,,,,,2023-12-22,1,,,,,サンリレイション,0
549,2290803004571,新規,0,2023-12-22,2023-12-22,合同会社アルファ・ラボ,,合同会社,福岡県,北九州市小倉南区,企救丘６丁目１２番２１号,,40,107,8020981,,,,,,,2023-12-22,1,,,,,アルファラボ,0
557,2330001031587,新規,0,2023-12-22,2023-12-22,株式会社ＴＡＫＭＡＳＰＯＷＥＲ,,株式会社,熊本県,熊本市中央区,黒髪６丁目１９番１６号,,43,101,8600862,,,,,,,2023-12-22,1,,,,,タクマスパワー,0
558,2330001031595,新規,0,2023-12-22,2023-12-22,株式会社ＴＥＮＰＯ建設,,株式会社,熊本県,熊本市西区,田崎３丁目１番８－１号,,43,103,8600053,,,,,,,2023-12-22,1,,,,,テンポケンセツ,0
561,2350001018723,新規,0,2023-12-22,2023-12-22,株式会社丸なか,,株式会社,宮崎県,都城市,上長飯町６６号６番地２,,45,202,8850042,,,,,,,2023-12-22,1,,,,,マルナカ,0
564,2360001032938,新規,0,2023-12-22,2023-12-22,株式会社むすひ,,株式会社,沖縄県,那覇市,天久１丁目２１番１０号,,47,201,9000005,,,,,,,2023-12-22,1,,,,,ムスヒ,0
566,2370001050757,新規,0,2023-12-22,2023-12-22,株式会社リリープラン,,株式会社,宮城県,大崎市,古川江合錦町３丁目５番２２号,,04,215,9896104,,,,,,,2023-12-22,1,,,,,リリープラン,0
567,2370001050773,新規,0,2023-12-22,2023-12-22,株式会社グラスフィールド,,株式会社,宮城県,亘理郡亘理町,字中町東１５２番地１,,04,361,9892351,,,,,,,2023-12-22,1,,,,,グラスフィールド,0
570,2370005010740,新規,0,2023-12-22,2023-12-22,特定非営利活動法人Ｌａｇｏｍ,,その他の設立登記法人,宮城県,仙台市青葉区,愛子中央３丁目１８番３７号,,04,101,9893128,,,,,,,2023-12-22,1,,,,,ラーゴム,0
578,2400001016498,新規,0,2023-12-22,2023-12-22,株式会社プリパンズ,,株式会社,岩手県,盛岡市,箱清水１丁目３７番８号,,03,201,0200116,,,,,,,2023-12-22,1,,,,,プリパンズ,0
586,2430001090689,新規,0,2023-12-22,2023-12-22,株式会社浅野屋,,株式会社,北海道,小樽市,築港１１番１号ウィングベイ小樽３番街１階,,01,203,0470008,,,,,,,2023-12-22,1,,,,,アサノヤ,0
588,2430003015784,新規,0,2023-12-22,2023-12-22,合同会社エイチコンサル,,合同会社,北海道,札幌市中央区,南五条西１５丁目２番３号リズム医大前５０３号室,,01,101,0640805,,,,,,,2023-12-22,1,,,,,エイチコンサル,0
592,2430005014850,新規,0,2023-12-22,2023-12-22,特定非営利活動法人ＳＫＹスクール,,その他の設立登記法人,北海道,北広島市,共栄町３丁目７番地６共栄団地５－２０２,,01,234,0611113,,,,,,,2023-12-22,1,,,,,スカイスクール,0
598,2500001025373,新規,0,2023-12-22,2023-12-22,株式会社Ｈ＆Ｔカンパニー,,株式会社,愛媛県,西条市,本町８４番地,,38,206,7930022,,,,,,,2023-12-22,1,,,,,エイチアンドティーカンパニー,0
600,2700150122991,新規,0,2023-12-22,2023-12-22,Ｍｅｉｓｉｋｏｕ（ｓｈｅｎｚｈｅｎ）ｋｅｊｉｙｏｕｘｉａｎｇｏｎｇｓｉ,,外国会社等,,,,,,,,ｌｏｎｇｇａｎｇｑｕ　ｐｉｎｇｈｕｊｉｅｄａｏｓｈａｎｇｍｕｇｕｓｈｅｑｕｃａｉｚｉｂｅｉｌｕ５３ｈａｏＤＣＣｍｕｙｕｎｇｕＡｄｏｎｇ１０１　ｓｈｅｎｚｈｅｎｓｈｉ,,,,,,2023-12-22,1,,,,,メイシコウシンセンカギユウゲンコウシ,0
604,3010001240987,新規,0,2023-12-22,2023-12-22,Ｅ‐ａｇｅｎｔ株式会社,,株式会社,東京都,千代田区,内神田１丁目２番８号,,13,101,1010047,,,,,,,2023-12-22,1,,,,,イージェント,0
605,3010001240995,新規,0,2023-12-22,2023-12-22,ズドーーーン株式会社,,株式会社,東京都,中央区,銀座１丁目１２－４Ｎ＆ＥＢＬＤ．７階,,13,102,1040061,,,,,,,2023-12-22,1,,,,,ズドーーーン,0
606,3010001241003,新規,0,2023-12-22,2023-12-22,志太コーポレーション株式会社,,株式会社,東京都,千代田区,紀尾井町４番１号ニューオータニビジネスコート１０階,,13,101,1020094,,,,,,,2023-12-22,1,,,,,シダコーポレーション,0
607,3010001241011,新規,0,2023-12-22,2023-12-22,株式会社ジョイスジャパン,,株式会社,東京都,千代田区,六番町６番４号,,13,101,1020085,,,,,,,2023-12-22,1,,,,,ジョイスジャパン,0
608,3010001241028,新規,0,2023-12-22,2023-12-22,Ｆｅｍｔｅｃｈ　ｃｏｓｍｅ　ｔｏｋｙｏ株式会社,,株式会社,東京都,千代田区,神田岩本町４番地９トゥルム神田ビル１階,,13,101,1010033,,,,,,,2023-12-22,1,,,,,フェムテックコスメトウキョウ,0
609,3010003042523,新規,0,2023-12-22,2023-12-22,合同会社Ｃａｒｐｅ　ｄｉｅｍ,,合同会社,東京都,中央区,銀座１丁目１２－４Ｎ＆ＥＢＬＤ．７階,,13,102,1040061,,,,,,,2023-12-22,1,,,,,カルペディエム,0
614,3010401179322,新規,0,2023-12-22,2023-12-22,品川光子健康株式会社,,株式会社,東京都,港区,港南２丁目１６番１号品川イーストワンタワー４階,,13,103,1080075,,,,,,,2023-12-22,1,,,,,シナガワコウシケンコウ,0
615,3010401179330,新規,0,2023-12-22,2023-12-22,株式会社ｄｉｇ‐ｉｔｓ,,株式会社,東京都,港区,浜松町２丁目２番１５号浜松町ダイヤビル２Ｆ,,13,103,1050013,,,,,,,2023-12-22,1,,,,,ディジッツ,0
616,3010401179347,新規,0,2023-12-22,2023-12-22,ニコシ株式会社,,株式会社,東京都,港区,六本木７丁目３番２２号六本木やまうちビル３階,,13,103,1060032,,,,,,,2023-12-22,1,,,,,ニコシ,0
617,3010401179396,新規,0,2023-12-22,2023-12-22,株式会社ＳＫＹ　ＳＨＩＰ,,株式会社,東京都,港区,北青山１丁目３番１号アールキューブ青山３階,,13,103,1070061,,,,,,,2023-12-22,1,,,,,,0
624,3010801034639,新規,0,2023-12-22,2023-12-22,はっぴぃしょるだぁ株式会社,,株式会社,東京都,大田区,南馬込６丁目５番１９－２０１号,,13,111,1430025,,,,,,,2023-12-22,1,,,,,ハッピィショルダァ,0
636,3011001158939,新規,0,2023-12-22,2023-12-22,アトロジャパン株式会社,,株式会社,東京都,渋谷区,代々木１丁目３０番１５号天翔代々木ビル４階Ｓ４０２－Ｇ号室,,13,113,1510053,,,,,,,2023-12-22,1,,,,,アトロジャパン,0
639,3011003018174,新規,0,2023-12-22,2023-12-22,合同会社銀のカバ,,合同会社,東京都,渋谷区,道玄坂１丁目１０番８号渋谷道玄坂東急ビル２Ｆ－Ｃ,,13,113,1500043,,,,,,,2023-12-22,1,,,,,ギンノカバ,0
657,3011803006007,新規,0,2023-12-22,2023-12-22,合同会社みどり,,合同会社,東京都,葛飾区,高砂８丁目１２番４号マンション戸部３０１号,,13,122,1250054,,,,,,,2023-12-22,1,,,,,ミドリ,0
659,3012401041346,新規,0,2023-12-22,2023-12-22,株式会社Ｂｕｏｎｉ,,株式会社,東京都,三鷹市,上連雀１丁目１番５号三鷹ロイヤルハイツ１１２号,,13,204,1810012,,,,,,,2023-12-22,1,,,,,ボーニ,0
662,3012801022854,新規,0,2023-12-22,2023-12-22,株式会社トワイジェント,,株式会社,東京都,日野市,万願寺３丁目１番地の２０メゾンドサンベール１０１,,13,212,1910024,,,,,,,2023-12-22,1,,,,,トワイジェント,0
670,3020001155012,新規,0,2023-12-22,2023-12-22,株式会社ケースリー,,株式会社,神奈川県,川崎市川崎区,川中島２丁目１６番１８号,,14,131,2100803,,,,,,,2023-12-22,1,,,,,ケースリー,0
671,3020001155029,新規,0,2023-12-22,2023-12-22,楠原海事株式会社,,株式会社,神奈川県,横浜市港南区,日野南５丁目１９番１号,,14,111,2340055,,,,,,,2023-12-22,1,,,,,クスハラカイジ,0
672,3020001155037,新規,0,2023-12-22,2023-12-22,株式会社ＳＨＡＲＰ　ＥＤＧＥ　Ｓｅｍｉｃｏｎｄｕｃｔｏｒ,,株式会社,神奈川県,横浜市金沢区,富岡東３丁目１３番４８号,,14,108,2360051,,,,,,,2023-12-22,1,,,,,シャープエッジセミコンダクター,0
673,3020001155045,新規,0,2023-12-22,2023-12-22,株式会社ボードテイル,,株式会社,神奈川県,川崎市幸区,下平間２２３番地５９ビューノＭｉｏ４０１,,14,132,2120053,,,,,,,2023-12-22,1,,,,,ボードテイル,0
680,3021001081025,新規,0,2023-12-22,2023-12-22,株式会社ＩＴソリューションズ,,株式会社,神奈川県,三浦郡葉山町,堀内１０４９番地,,14,301,2400112,,,,,,,2023-12-22,1,,,,,アイティーソリューションズ,0
688,3030001157809,新規,0,2023-12-22,2023-12-22,ＲＳホーム株式会社,,株式会社,埼玉県,川口市,朝日３丁目１７番４号,,11,203,3320001,,,,,,,2023-12-22,1,,,,,アールエスホーム,0
694,3030003023257,新規,0,2023-12-22,2023-12-22,興成合同会社,,合同会社,埼玉県,熊谷市,弥藤吾１６０－６三合ビル１０２室,,11,202,3600203,,,,,,,2023-12-22,1,,,,,コウセイ,0
695,3030003023265,新規,0,2023-12-22,2023-12-22,Ｔ＆ＭＦｉｒｓｔ合同会社,,合同会社,埼玉県,和光市,白子３丁目１９番６号,,11,229,3510101,,,,,,,2023-12-22,1,,,,,ティーアンドエムファースト,0
696,3030003023273,新規,0,2023-12-22,2023-12-22,エスアイ合同会社,,合同会社,埼玉県,新座市,野火止５丁目３５－１３,,11,230,3520011,,,,,,,2023-12-22,1,,,,,エスアイ,0
697,3030003023281,新規,0,2023-12-22,2023-12-22,合同会社ＭＤＳ,,合同会社,埼玉県,東松山市,日吉町１５番地１８ＰＩＳＯ－Ｄ棟１０１,,11,212,3550012,,,,,,,2023-12-22,1,,,,,エムディエス,0
703,3040001131473,新規,0,2023-12-22,2023-12-22,株式会社ハイブリッヂテクノサービス,,株式会社,千葉県,千葉市若葉区,源町９１番地３７,,12,104,2640037,,,,,,,2023-12-22,1,,,,,ハイブリッヂテクノサービス,0
704,3040001131498,新規,0,2023-12-22,2023-12-22,株式会社陽彦堂,,株式会社,千葉県,松戸市,常盤平４丁目１２番地の１ダイアパレス常盤平グランドアベニュー２０８号,,12,207,2702261,,,,,,,2023-12-22,1,,,,,ヨウゲンドウ,0
720,3060001036654,新規,0,2023-12-22,2023-12-22,ラッドワークス株式会社,,株式会社,栃木県,宇都宮市,西原町６００番地７アドヴァンス３０５,,09,201,3200826,,,,,,,2023-12-22,1,,,,,ラッドワークス,0
722,3060003004849,新規,0,2023-12-22,2023-12-22,合同会社あるも,,合同会社,栃木県,宇都宮市,平松本町１２２５番地４,,09,201,3210932,,,,,,,2023-12-22,1,,,,,アルモ,0
732,3080105006386,新規,0,2023-12-22,2023-12-22,特定非営利活動法人Ｃｏｄｅ　ｆｏｒ　ＳＵＳＯＮＯ,,その他の設立登記法人,静岡県,裾野市,伊豆島田５４３番地の９,,22,220,4101123,,,,,,,2023-12-22,1,,,,,コードフォースソノ,0
736,3100003007252,新規,0,2023-12-22,2023-12-22,合同会社ａｔ　ｐｌａｃｅ,,合同会社,長野県,伊那市,西町４９３４番地９号,,20,209,3960026,,,,,,,2023-12-22,1,,,,,アットプレイス,0
738,3110001038042,新規,0,2023-12-22,2023-12-22,株式会社ビューティーフェム,,株式会社,新潟県,上越市,三和区三村新田３９番地,,15,222,9430315,,,,,,,2023-12-22,1,,,,,ビューティーフェム,0
746,3120001260834,新規,0,2023-12-22,2023-12-22,Ｅｎｖｏｙ株式会社,,株式会社,大阪府,大阪市北区,梅田１丁目１－３大阪駅前第３ビル２９階１－１－１号室,,27,127,5300001,,,,,,,2023-12-22,1,,,,,エンボイ,0
747,3120001260850,新規,0,2023-12-22,2023-12-22,株式会社ノーステック,,株式会社,大阪府,枚方市,北中振３丁目８番１－４１１号,,27,210,5730064,,,,,,,2023-12-22,1,,,,,ノーステック,0
749,3120003025558,新規,0,2023-12-22,2023-12-22,合同会社ＡＫ,,合同会社,大阪府,大阪市西区,北堀江１丁目２２－２アーデンタワー北堀江３０２号室,,27,106,5500014,,,,,,,2023-12-22,1,,,,,エーケー,0
750,3120003025566,新規,0,2023-12-22,2023-12-22,合同会社ロイツ,,合同会社,大阪府,寝屋川市,点野１丁目１４－２,,27,215,5720077,,,,,,,2023-12-22,1,,,,,ロイツ,0
765,3140001132750,新規,0,2023-12-22,2023-12-22,株式会社ＦＡＮＨＡＮ,,株式会社,兵庫県,尼崎市,水堂町２丁目３４番４号,,28,202,6610026,,,,,,,2023-12-22,1,,,,,ファンファン,0
766,3140001132759,新規,0,2023-12-22,2023-12-22,株式会社エクセレント,,株式会社,兵庫県,神戸市西区,今寺４番地の４エクセレント今寺４０２号,,28,111,6512114,,,,,,,2023-12-22,1,,,,,エクセレント,0
767,3140001132767,新規,0,2023-12-22,2023-12-22,Ｌｅｇｒａｎｄｃｉｅｌ株式会社,,株式会社,兵庫県,姫路市,広畑区蒲田５丁目２１番地６,,28,201,6711102,,,,,,,2023-12-22,1,,,,,ラグランシエル,0
768,3140001132783,新規,0,2023-12-22,2023-12-22,株式会社建想,,株式会社,兵庫県,神戸市灘区,畑原通３丁目６番１５号,,28,102,6570822,,,,,,,2023-12-22,1,,,,,ケンソウ,0
769,3140001132791,新規,0,2023-12-22,2023-12-22,株式会社ＳＵＧＡＲ,,株式会社,兵庫県,神戸市西区,池上２丁目１１番地６キャメルコート１Ｆ,,28,111,6512111,,,,,,,2023-12-22,1,,,,,シュガー,0
770,3140003019962,新規,0,2023-12-22,2023-12-22,青い空２２２ケア合同会社,,合同会社,兵庫県,尼崎市,長洲西通１丁目２番３－４０４号,,28,202,6600807,,,,,,,2023-12-22,1,,,,,アオイソラスリーツーケア,0
779,3180001159451,新規,0,2023-12-22,2023-12-22,株式会社フェロー,,株式会社,愛知県,犬山市,大字富岡字小野洞１０９７番地４９,,23,215,4840092,,,,,,,2023-12-22,1,,,,,フェロー,0
780,3180001159468,新規,0,2023-12-22,2023-12-22,伊藤株式会社,,株式会社,愛知県,東海市,高横須賀町社宮司６４番地１,,23,222,4770037,,,,,,,2023-12-22,1,,,,,イトウ,0
781,3180001159476,新規,0,2023-12-22,2023-12-22,株式会社ＬＹＫＫＥ,,株式会社,愛知県,春日井市,八光町３丁目１０番地,,23,206,4860916,,,,,,,2023-12-22,1,,,,,リッケ,0
782,3180001159492,新規,0,2023-12-22,2023-12-22,ＯＴＳＵＢＯ‐ＭＡＣＨＩＮＥＲＹ株式会社,,株式会社,愛知県,名古屋市緑区,大清水５丁目１７１５番地,,23,114,4580805,,,,,,,2023-12-22,1,,,,,オオツボマシナリー,0
783,3180001159501,新規,0,2023-12-22,2023-12-22,株式会社ロックウィズ,,株式会社,愛知県,名古屋市東区,泉１丁目１２番２５号,,23,102,4610001,,,,,,,2023-12-22,1,,,,,ロックウィズ,0
786,3180003026146,新規,0,2023-12-22,2023-12-22,合同会社優希ｐｈｏｔｏ,,合同会社,愛知県,稲沢市,小沢３丁目１６番２０－２０３号,,23,220,4928212,,,,,,,2023-12-22,1,,,,,ユウキフォト,0
787,3180003026162,新規,0,2023-12-22,2023-12-22,ｍｉｎａｍｏ合同会社,,合同会社,愛知県,名古屋市中村区,名駅４丁目２４番５号第２森ビル４０１,,23,105,4500002,,,,,,,2023-12-22,1,,,,,ミナモ,0
788,3180005020469,新規,0,2023-12-22,2023-12-22,医療法人偕幸会,,その他の設立登記法人,愛知県,東海市,加木屋町大堀１８番地１,,23,222,4770032,,,,,,,2023-12-22,1,,,,,カイコウカイ,0
789,3180301038149,新規,0,2023-12-22,2023-12-22,株式会社ハウスロッサ,,株式会社,愛知県,豊橋市,西幸町字浜池３３３番地の９,,23,201,4418113,,,,,,,2023-12-22,1,,,,,ハウスロッサ,0
791,3190001030974,新規,0,2023-12-22,2023-12-22,株式会社Ｆ企画,,株式会社,三重県,桑名市,大字東方２１５０番地,,24,205,5110811,,,,,,,2023-12-22,1,,,,,エフキカク,0
807,3260001038589,新規,0,2023-12-22,2023-12-22,ブラウニーシステム株式会社,,株式会社,岡山県,岡山市東区,可知４丁目２５番８号,,33,103,7048173,,,,,,,2023-12-22,1,,,,,ブラウニーシステム,0
809,3270001008896,新規,0,2023-12-22,2023-12-22,株式会社Ｔｅａｒｓ　Ｃｒｅｗ,,株式会社,鳥取県,鳥取市,弥生町２６５番地ＷＡＧＯＮビル２Ｆ,,31,201,6800832,,,,,,,2023-12-22,1,,,,,ティアーズクルー,0
815,3290001104132,新規,0,2023-12-22,2023-12-22,株式会社筑紫リアルティ,,株式会社,福岡県,福岡市南区,高宮３丁目１８番９号,,40,134,8150083,,,,,,,2023-12-22,1,,,,,チクシリアルティ,0
816,3290001104140,新規,0,2023-12-22,2023-12-22,株式会社ウェクリー,,株式会社,福岡県,福岡市博多区,金の隈１丁目４３番４３号,,40,132,8120863,,,,,,,2023-12-22,1,,,,,ウェクリー,0
823,3290003014783,新規,0,2023-12-22,2023-12-22,合同会社ゴルフドウサン,,合同会社,福岡県,福岡市早良区,西新５丁目２番１４－２０４号,,40,137,8140002,,,,,,,2023-12-22,1,,,,,ゴルフドウサン,0
824,3290801030156,新規,0,2023-12-22,2023-12-22,株式会社デジタルサポート,,株式会社,福岡県,鞍手郡鞍手町,大字永谷８８番地室井団地改良住宅８棟１号,,40,402,8071304,,,,,,,2023-12-22,1,,,,,デジタルサポート,0
827,3320003004260,新規,0,2023-12-22,2023-12-22,合同会社アイネット,,合同会社,大分県,由布市,湯布院町川南１５９６－１－２０１,,44,213,8795103,,,,,,,2023-12-22,1,,,,,アイネット,0
829,3330001031603,新規,0,2023-12-22,2023-12-22,株式会社Ｓ＆Ｙ,,株式会社,熊本県,熊本市東区,画図町大字重富５５５番地１,,43,102,8620947,,,,,,,2023-12-22,1,,,,,エスアンドワイ,0
839,3360001032986,新規,0,2023-12-22,2023-12-22,株式会社メモリードリゾート,,株式会社,沖縄県,国頭郡今帰仁村,字運天５０６番地１,,47,306,9050403,,,,,,,2023-12-22,1,,,,,メモリードリゾート,0
842,3360003013571,新規,0,2023-12-22,2023-12-22,総合サービスちゅら合同会社,,合同会社,沖縄県,島尻郡八重瀬町,字東風平４３２番地ヒルズヒコ３０１号室,,47,362,9010401,,,,,,,2023-12-22,1,,,,,,0
845,3370001050764,新規,0,2023-12-22,2023-12-22,株式会社ＴＲＹＴ,,株式会社,宮城県,名取市,手倉田字八幡４９４番地の７,,04,207,9811231,,,,,,,2023-12-22,1,,,,,トライト,0
849,3380001034196,新規,0,2023-12-22,2023-12-22,燦ホールディングス株式会社,,株式会社,福島県,郡山市,南２丁目５８番地,,07,203,9630115,,,,,,,2023-12-22,1,,,,,サンホールディングス,0
850,3380001034205,新規,0,2023-12-22,2023-12-22,暁株式会社,,株式会社,福島県,二本松市,本町１丁目１８８番地,,07,210,9640917,,,,,,,2023-12-22,1,,,,,アカツキ,0
852,3400001016497,新規,0,2023-12-22,2023-12-22,株式会社アンスリウム,,株式会社,岩手県,花巻市,西大通り１丁目２１番８号,,03,205,0250091,,,,,,,2023-12-22,1,,,,,アンスリウム,0
853,3410001013675,新規,0,2023-12-22,2023-12-22,株式会社ＮＥＸＴＰＵＢＬＩＣ,,株式会社,秋田県,横手市,前郷二番町７－８,,05,203,0130037,,,,,,,2023-12-22,1,,,,,ネクストパブリック,0
858,3430001090705,新規,0,2023-12-22,2023-12-22,株式会社Ｐｍａｄｅ,,株式会社,北海道,札幌市中央区,南五条東３丁目７番地１ルピナス９０３号,,01,101,0600055,,,,,,,2023-12-22,1,,,,,ピーメイド,0
859,3430001090713,新規,0,2023-12-22,2023-12-22,株式会社ｔｏ．Ｕ,,株式会社,北海道,石狩市,花川南八条１丁目８３番地,,01,235,0613208,,,,,,,2023-12-22,1,,,,,トゥーユー,0
860,3430001090721,新規,0,2023-12-22,2023-12-22,株式会社ドゥウェル,,株式会社,北海道,札幌市中央区,南一条西１６丁目１番地３２３春野ビル３階,,01,101,0600061,,,,,,,2023-12-22,1,,,,,ドゥウェル,0
861,3430003015783,新規,0,2023-12-22,2023-12-22,合同会社ＳＰ創研,,合同会社,北海道,札幌市白石区,北郷七条８丁目７番２３号,,01,104,0030837,,,,,,,2023-12-22,1,,,,,エスピーソウケン,0
862,3440001009365,新規,0,2023-12-22,2023-12-22,株式会社ハウスコーポレーション,,株式会社,北海道,亀田郡七飯町,桜町１丁目１番２０号,,01,337,0411105,,,,,,,2023-12-22,1,,,,,ハウスコーポレーション,0
868,3700150122990,新規,0,2023-12-22,2023-12-22,上海適復健康科技有限公司,,外国会社等,,,,,,,,中国上海市崇明区北沿公路２１１１号３幢１９２－１９室,,,,,,2023-12-22,1,,,,,シヤンハイテキフクケンコウカギユウゲンコウシ,0
869,3700150122999,新規,0,2023-12-22,2023-12-22,Ｄｅｅｒｆｉｅｌｄ　Ｉｍａｇｉｎｇ　Ｉｎｃ．,,外国会社等,,,,,,,,１２３０　Ｃｈａｓｋａ　Ｃｒｅｅｋ　Ｗａｙ，Ｓｕｉｔｅ　１００　Ｃｈａｓｋａ，ＭＮ　５５３１８,,,,,,2023-12-22,1,,,,,デイアフイールドイメージングインク,0
874,4010001240986,新規,0,2023-12-22,2023-12-22,株式会社ＥＴＳＵ‐ＤＸ,,株式会社,東京都,中央区,日本橋蛎殻町１丁目２２番１－１２０５号,,13,102,1030014,,,,,,,2023-12-22,1,,,,,エツディーエックス,0
877,4010003042480,新規,0,2023-12-22,2023-12-22,合同会社モエギ,,合同会社,東京都,中央区,銀座１丁目２８番１７号,,13,102,1040061,,,,,,,2023-12-22,1,,,,,モエギ,0
878,4010003042506,新規,0,2023-12-22,2023-12-22,合同会社ヴィーダー,,合同会社,東京都,中央区,銀座１丁目１２番４号Ｎ＆ＥＢＬＤ．６Ｆ,,13,102,1040061,,,,,,,2023-12-22,1,,,,,ヴィーダー,0
883,4010005037660,新規,0,2023-12-22,2023-12-22,横浜本牧２プロパティー特定目的会社,,その他の設立登記法人,東京都,千代田区,丸の内１丁目１１番１号,,13,101,1000005,,,,,,,2023-12-22,1,,,,,ヨコハマホンモクツープロパティー,0
889,4010401179305,新規,0,2023-12-22,2023-12-22,ＳＢＩ　ＸＤＣ　Ｎｅｔｗｏｒｋ　ＡＰＡＣ株式会社,,株式会社,東京都,港区,六本木１丁目６番１号,,13,103,1060032,,,,,,,2023-12-22,1,,,,,エスビーアイエックスディーシーネットワークエイパック,0
890,4010401179321,新規,0,2023-12-22,2023-12-22,ＩＺＥ株式会社,,株式会社,東京都,港区,北青山１丁目３番１号アールキューブ青山３階,,13,103,1070061,,,,,,,2023-12-22,1,,,,,アイズ,0
891,4010401179338,新規,0,2023-12-22,2023-12-22,サティライ株式会社,,株式会社,東京都,港区,白金１丁目２番１－Ｅ２１１０号,,13,103,1080072,,,,,,,2023-12-22,1,,,,,サティライ,0
892,4010401179354,新規,0,2023-12-22,2023-12-22,株式会社ＢＲＩＧＨＴ　ＳＴＥＰＳ,,株式会社,東京都,港区,三田１丁目７番１－７０３,,13,103,1080073,,,,,,,2023-12-22,1,,,,,ブライトステップス,0
893,4010403031653,新規,0,2023-12-22,2023-12-22,合同会社ＡＴＲＹＳ,,合同会社,東京都,港区,六本木７丁目１４番１号東閣ビル４階,,13,103,1060032,,,,,,,2023-12-22,1,,,,,アトライズ,0
894,4010501051545,新規,0,2023-12-22,2023-12-22,株式会社シバテン,,株式会社,東京都,台東区,東上野１丁目２番１２－２０１号,,13,106,1100015,,,,,,,2023-12-22,1,,,,,シバテン,0
900,4010901054420,新規,0,2023-12-22,2023-12-22,株式会社ＡＲＴ　ＣＯＮＳＣＩＯＵＳ,,株式会社,東京都,世田谷区,玉堤２丁目２－１６－１０２,,13,112,1580087,,,,,,,2023-12-22,1,,,,,アートコンシャス,0
907,4011001158756,新規,0,2023-12-22,2023-12-22,株式会社ＳＯＩＬ,,株式会社,東京都,渋谷区,宇田川町２番１－４２２号,,13,113,1500042,,,,,,,2023-12-22,1,,,,,ソイル,0
908,4011001159003,新規,0,2023-12-22,2023-12-22,株式会社ＴＯＭＩＴＯＹＢＥＥ,,株式会社,東京都,目黒区,自由が丘２丁目１６番１２号ＲＪ３,,13,110,1520035,,,,,,,2023-12-22,1,,,,,トミトイビー,0
909,4011001159036,新規,0,2023-12-22,2023-12-22,株式会社サンライズ・グローバル・コンサルティング,,株式会社,東京都,渋谷区,広尾４丁目１番３１－４０２号,,13,113,1500012,,,,,,,2023-12-22,1,,,,,サンライズグローバルコンサルティング,0
920,4011105010887,新規,0,2023-12-22,2023-12-22,行政書士法人首都圏ネットワーク,,その他の設立登記法人,東京都,新宿区,新宿４丁目３番１５－１２０１号,,13,104,1600022,,,,,,,2023-12-22,1,,,,,シュトケンネットワーク,0
922,4011403004211,新規,0,2023-12-22,2023-12-22,合同会社リアライズ,,合同会社,東京都,板橋区,大谷口北町７番５号Ｇ－ｓｔｙｌｅ中板橋２０３,,13,119,1730031,,,,,,,2023-12-22,1,,,,,リアライズ,0
929,4011703003697,新規,0,2023-12-22,2023-12-22,青山コンサルティング合同会社,,合同会社,東京都,江戸川区,南小岩２丁目４番４８号,,13,123,1330056,,,,,,,2023-12-22,1,,,,,アオヤマコンサルティング,0
931,4011801043546,新規,0,2023-12-22,2023-12-22,株式会社ＡＲＴＩＳ,,株式会社,東京都,葛飾区,新小岩２丁目２０番３号,,13,122,1240024,,,,,,,2023-12-22,1,,,,,アルティス,0
932,4011801043562,新規,0,2023-12-22,2023-12-22,株式会社ｍｉｚｕｏｅ,,株式会社,東京都,葛飾区,亀有４丁目５番１２号橋川ビル５０１号,,13,122,1250061,,,,,,,2023-12-22,1,,,,,ミズヲエ,0
933,4011801043570,新規,0,2023-12-22,2023-12-22,スカイデザイン株式会社,,株式会社,東京都,足立区,千住東１丁目１０－１２,,13,121,1200025,,,,,,,2023-12-22,1,,,,,スカイデザイン,0
934,4011803006006,新規,0,2023-12-22,2023-12-22,合同会社トータス,,合同会社,東京都,足立区,東綾瀬１丁目１７－１０－７０１,,13,121,1200004,,,,,,,2023-12-22,1,,,,,トータス,0
939,4012405004926,新規,0,2023-12-22,2023-12-22,一般社団法人三鷹市サッカー協会,,その他の設立登記法人,東京都,三鷹市,新川６丁目３７番１号,,13,204,1810004,,,,,,,2023-12-22,1,,,,,ミタカシサッカーキョウカイ,0
949,4020001155028,新規,0,2023-12-22,2023-12-22,株式会社ｉｍｉ,,株式会社,神奈川県,川崎市多摩区,登戸２４２２番地１サンクアーティクル３Ｆ,,14,135,2140014,,,,,,,2023-12-22,1,,,,,イミ,0
950,4020001155044,新規,0,2023-12-22,2023-12-22,株式会社ＫＵＬＩＡ,,株式会社,神奈川県,横浜市金沢区,片吹２１番４号,,14,108,2360055,,,,,,,2023-12-22,1,,,,,クーリア,0
952,4020003025245,新規,0,2023-12-22,2023-12-22,合同会社ＫＹｄｅｌｉｖｅｒ,,合同会社,神奈川県,横浜市港北区,日吉本町４丁目２３番３３号,,14,109,2230062,,,,,,,2023-12-22,1,,,,,ケーワイデリバー,0
971,4030001157758,新規,0,2023-12-22,2023-12-22,埼琳国際教育文化株式会社,,株式会社,埼玉県,戸田市,川岸２丁目３番１－３０１号,,11,224,3350015,,,,,,,2023-12-22,1,,,,,サイリンコクサイキョウイクブンカ,0
972,4030001157799,新規,0,2023-12-22,2023-12-22,株式会社Ｊ,,株式会社,埼玉県,幸手市,中４丁目９番１８号,,11,240,3400115,,,,,,,2023-12-22,1,,,,,ゼイ,0
973,4030001157808,新規,0,2023-12-22,2023-12-22,三木ロジナ株式会社,,株式会社,埼玉県,さいたま市大宮区,桜木町１丁目２６６番地３シンワＫＩビル,,11,103,3300854,,,,,,,2023-12-22,1,,,,,ミキロジナ,0
974,4030001157824,新規,0,2023-12-22,2023-12-22,株式会社こかい,,株式会社,埼玉県,さいたま市中央区,本町西４丁目６番９－２０１号,,11,105,3380004,,,,,,,2023-12-22,1,,,,,コカイ,0
975,4030001157832,新規,0,2023-12-22,2023-12-22,Ａ‐ｃｏｎｎｅｃｔ　Ｇｒｏｕｐ株式会社,,株式会社,埼玉県,春日部市,中央１丁目５９番地８コンプレール２０１,,11,214,3440067,,,,,,,2023-12-22,1,,,,,エーコネクトグループ,0
976,4030001157857,新規,0,2023-12-22,2023-12-22,天＿美景伝媒株式会社,00133082,株式会社,埼玉県,草加市,氷川町２１０４番地１７,,11,221,3400034,,,,,,,2023-12-22,1,,,,,テンユウビケイメディア,0
977,4030001157865,新規,0,2023-12-22,2023-12-22,ラボメン株式会社,,株式会社,埼玉県,新座市,池田４丁目８－４２アイリスＢ２０３,,11,230,3520015,,,,,,,2023-12-22,1,,,,,ラボメン,0
983,4030003023280,新規,0,2023-12-22,2023-12-22,合同会社ナウクエスト,,合同会社,埼玉県,越谷市,登戸町２２－３３,,11,222,3430846,,,,,,,2023-12-22,1,,,,,ナウクエスト,0
993,4050001053988,新規,0,2023-12-22,2023-12-22,株式会社タビアイ,,株式会社,茨城県,鹿嶋市,大字佐田３９８番地１０,,08,222,3140027,,,,,,,2023-12-22,1,,,,,,0
997,4060001036645,新規,0,2023-12-22,2023-12-22,株式会社ＢＥ　ＲＡＤＩＡＮＣＥ,,株式会社,栃木県,佐野市,吉水駅前２丁目１６番地８アクアベーネＡ２０１,,09,204,3270315,,,,,,,2023-12-22,1,,,,,ビーラディエンス,0
998,4060001036653,新規,0,2023-12-22,2023-12-22,株式会社リベンサ,,株式会社,栃木県,那須塩原市,木綿畑５２６番地,,09,213,3250116,,,,,,,2023-12-22,1,,,,,リベンサ,0
1000,4060003004848,新規,0,2023-12-22,2023-12-22,合同会社ガッツ,,合同会社,栃木県,塩谷郡塩谷町,大字熊ノ木１１９１―４,,09,384,3292213,,,,,,,2023-12-22,1,,,,,ガッツ,0
1001,4060005010159,新規,0,2023-12-22,2023-12-22,特定非営利活動法人とちぎ自主夜間中学,,その他の設立登記法人,栃木県,宇都宮市,東宿郷６丁目１番４号サンクレイドル宇都宮３０６,,09,201,3210953,,,,,,,2023-12-22,1,,,,,トチギジシュヤカンチュウガク,0
1005,4070001041215,新規,0,2023-12-22,2023-12-22,株式会社ＫｍＫ,,株式会社,群馬県,桐生市,相生町５丁目４７１番地７,,10,203,3760011,,,,,,,2023-12-22,1,,,,,ケーエムケー,0
1009,4080401026905,新規,0,2023-12-22,2023-12-22,株式会社オープンイノベーション,,株式会社,静岡県,浜松市中区,田町２２３番地の２１ビオラ田町３階ビズコンフォート浜松,,22,131,4300944,,,,,,,2023-12-22,1,,,,,オープンイノベーション,0
1010,4090001018475,新規,0,2023-12-22,2023-12-22,ナースウェーブ株式会社,,株式会社,山梨県,笛吹市,八代町南３４６８番地８,,19,211,4060822,,,,,,,2023-12-22,1,,,,,ナースウェーブ,0
1018,4110001038058,新規,0,2023-12-22,2023-12-22,株式会社ウィステリアマネジメント,,株式会社,新潟県,新発田市,中央町４丁目９番１号,,15,206,9570053,,,,,,,2023-12-22,1,,,,,ウィステリアマネジメント,0
1024,4120001260833,新規,0,2023-12-22,2023-12-22,株式会社ＬＩＭ,,株式会社,大阪府,大阪市住吉区,千躰２丁目６番１５号,,27,120,5580047,,,,,,,2023-12-22,1,,,,,リム,0
1025,4120001260858,新規,0,2023-12-22,2023-12-22,Ａｎｄ　Ｓｏ株式会社,,株式会社,大阪府,大阪市北区,本庄東３丁目６番５号Ｌｅｇａ梅北７０２号室,,27,127,5310074,,,,,,,2023-12-22,1,,,,,アンドソウ,0
1026,4120001260874,新規,0,2023-12-22,2023-12-22,株式会社デイジー,,株式会社,大阪府,大阪市鶴見区,鶴見６丁目１０番１０号,,27,124,5380053,,,,,,,2023-12-22,1,,,,,デイジー,0
1032,4120003025508,新規,0,2023-12-22,2023-12-22,合同会社松川事務所,,合同会社,大阪府,大阪市西成区,萩之茶屋２丁目３番１３号,,27,122,5570004,,,,,,,2023-12-22,1,,,,,マツカワジムショ,0
1041,4120901048510,新規,0,2023-12-22,2023-12-22,株式会社Ｒ’ｚ,,株式会社,大阪府,摂津市,鳥飼本町２丁目１２番３７号,,27,224,5660052,,,,,,,2023-12-22,1,,,,,アールズ,0
1042,4120901048527,新規,0,2023-12-22,2023-12-22,株式会社ノイエ,,株式会社,大阪府,箕面市,粟生間谷東３丁目５番１１号,,27,220,5620022,,,,,,,2023-12-22,1,,,,,ノイエ,0
1044,4120903004973,新規,0,2023-12-22,2023-12-22,アルバウンド合同会社,,合同会社,大阪府,吹田市,春日１丁目７番２２号３０５号室,,27,205,5650853,,,,,,,2023-12-22,1,,,,,アルバウンド,0
1045,4122003002759,新規,0,2023-12-22,2023-12-22,合同会社新羽,,合同会社,大阪府,東大阪市,三ノ瀬１丁目９番１７号ハイツ富士パートＩＩ６０３号室,00133089,27,227,5770849,,,,,,,2023-12-22,1,,,,,シンワ,0
1046,4130001075999,新規,0,2023-12-22,2023-12-22,株式会社Ｓｔａｒｔｕｐ　Ｂ,,株式会社,京都府,京都市下京区,七条通油小路東入大黒町２２７番地第２キョートビル４０２,,26,106,6008223,,,,,,,2023-12-22,1,,,,,スタートアップビー,0
1049,4130003009204,新規,0,2023-12-22,2023-12-22,合同会社天手鼓舞ジャパン,,合同会社,京都府,船井郡京丹波町,鎌谷奥西畑７番地,,26,407,6220445,,,,,,,2023-12-22,1,,,,,テンテコマイジャパン,0
1050,4130005016958,新規,0,2023-12-22,2023-12-22,一般社団法人日本バレエ・リュス＆バレエ・スエドワ協会,,その他の設立登記法人,京都府,京都市中京区,室町通三条上る役行者町３６８番地株式会社永楽屋５階,,26,104,6048174,,,,,,,2023-12-22,1,,,,,ニホンバレエリュスアンドバレエスエドワキョウカイ,0
1059,4140001132758,新規,0,2023-12-22,2023-12-22,株式会社クロレ,,株式会社,兵庫県,加古川市,加古川町溝之口５０７番地,,28,210,6750064,,,,,,,2023-12-22,1,,,,,クロレ,0
1060,4140001132766,新規,0,2023-12-22,2023-12-22,株式会社カフカ,,株式会社,兵庫県,神戸市東灘区,向洋町中１丁目２番地の３１,,28,101,6580032,,,,,,,2023-12-22,1,,,,,カフカ,0
1061,4140001132774,新規,0,2023-12-22,2023-12-22,株式会社龍野みらい舎,,株式会社,兵庫県,たつの市,龍野町上川原７８番地,,28,229,6794172,,,,,,,2023-12-22,1,,,,,タツノミライシャ,0
1062,4140001132782,新規,0,2023-12-22,2023-12-22,Ｍｐｌａｎｎｉｎｇ株式会社,,株式会社,兵庫県,尼崎市,杭瀬本町１丁目６番１７号３０２,,28,202,6600814,,,,,,,2023-12-22,1,,,,,エムプランニング,0
1063,4140001132790,新規,0,2023-12-22,2023-12-22,株式会社Ｇｅｔ　Ｙｏｕｒ　Ｗｉｓｈ,,株式会社,兵庫県,神戸市中央区,磯辺通１丁目１番１８号カサベラ国際プラザビル７０７号室,,28,110,6510084,,,,,,,2023-12-22,1,,,,,ゲットユアウィッシュ,0
1068,4140003019953,新規,0,2023-12-22,2023-12-22,合同会社Ｎ．ＳＵＳ,,合同会社,兵庫県,淡路市,育波１８９３番地,,28,226,6561602,,,,,,,2023-12-22,1,,,,,エヌサス,0
1069,4140003019961,新規,0,2023-12-22,2023-12-22,合同会社４ＳＥＡＳＯＮ,,合同会社,兵庫県,宝塚市,宮の町７番１号宝塚第三ハイツ１０２,,28,214,6650843,,,,,,,2023-12-22,1,,,,,フォーシーズン,0
1077,4180001159467,新規,0,2023-12-22,2023-12-22,株式会社ＹＯＮＥＤＡ１４,,株式会社,愛知県,知多郡東浦町,大字緒川字大高山弐区３０番地の１９,,23,442,4702102,,,,,,,2023-12-22,1,,,,,ヨネダジュウヨン,0
1079,4180003026145,新規,0,2023-12-22,2023-12-22,合同会社ｇａｉｔｏ,,合同会社,愛知県,日進市,赤池町箕ノ手２番地８８６,,23,230,4700126,,,,,,,2023-12-22,1,,,,,ガイト,0
1080,4180003026153,新規,0,2023-12-22,2023-12-22,合同会社ＭＩＮＯＲＵ,,合同会社,愛知県,一宮市,牛野通４丁目１５番地,,23,203,4910846,,,,,,,2023-12-22,1,,,,,ミノル,0
1085,4180301038148,新規,0,2023-12-22,2023-12-22,ＲＥＳＴＡＲＴ株式会社,,株式会社,愛知県,安城市,新田町郷西７５番地５,,23,212,4460061,,,,,,,2023-12-22,1,,,,,リスタート,0
1086,4180301038164,新規,0,2023-12-22,2023-12-22,ＳＦＫＳ００１株式会社,,株式会社,愛知県,知立市,山町北引馬野５番地２４,,23,225,4720006,,,,,,,2023-12-22,1,,,,,エスエフケイエスゼロゼロイチ,0
1096,4250005008885,新規,0,2023-12-22,2023-12-22,土地家屋調査士法人楠木中川合同事務所,,その他の設立登記法人,山口県,下関市,貴船町２丁目３番３１号,,35,201,7510823,,,,,,,2023-12-22,1,,,,,クスノキナカガワゴウドウジムショ,0
1098,4260001038596,新規,0,2023-12-22,2023-12-22,ＡｌｔＫｅｙ株式会社,,株式会社,岡山県,岡山市北区,葵町４番６号,,33,101,7000045,,,,,,,2023-12-22,1,,,,,オルトキー,0
1099,4270001008895,新規,0,2023-12-22,2023-12-22,株式会社瀬山コーポレーション,,株式会社,鳥取県,米子市,美吉１１番地,,31,202,6830034,,,,,,,2023-12-22,1,,,,,セヤマコーポレーション,0
1112,4290001104032,新規,0,2023-12-22,2023-12-22,株式会社Ｇｅｔ　Ｓｔｒｅｅｔ　Ｓｍａｒｔ　Ｊａｐａｎ,,株式会社,福岡県,福岡市中央区,大名１丁目３－２２－１０２,,40,133,8100041,,,,,,,2023-12-22,1,,,,,ゲットストリートスマートジャパン,0
1113,4290001104131,新規,0,2023-12-22,2023-12-22,株式会社ベルフラワー,,株式会社,福岡県,福岡市博多区,板付４丁目１番８号,,40,132,8120888,,,,,,,2023-12-22,1,,,,,ベルフラワー,0
1114,4290001104172,新規,0,2023-12-22,2023-12-22,株式会社檜,,株式会社,福岡県,福岡市中央区,天神５丁目５－１３－６０２,,40,133,8100001,,,,,,,2023-12-22,1,,,,,ヒノキ,0
1117,4290003014774,新規,0,2023-12-22,2023-12-22,合同会社ＡＮＤＵ,,合同会社,福岡県,福岡市中央区,今泉１丁目２３－４新天神ビル４０１号室,,40,133,8100021,,,,,,,2023-12-22,1,,,,,,0
1118,4290005019227,新規,0,2023-12-22,2023-12-22,一般社団法人ひのもと女神会,,その他の設立登記法人,福岡県,福岡市中央区,天神２丁目２番１２号Ｔ＆Ｊビルディング７Ｆ,,40,133,8100001,,,,,,,2023-12-22,1,,,,,ヒノモトメガミカイ,0
1124,4330003010141,新規,0,2023-12-22,2023-12-22,合同会社ＳＡＫＡＩ,,合同会社,熊本県,熊本市西区,蓮台寺４丁目１５番２－１０３号,,43,103,8600055,,,,,,,2023-12-22,1,,,,,サカイ,0
1135,4370001050755,新規,0,2023-12-22,2023-12-22,株式会社ほやいろ,,株式会社,宮城県,石巻市,門脇字青葉東２６番７号,,04,202,9860853,,,,,,,2023-12-22,1,,,,,ホヤイロ,0
1136,4370001050763,新規,0,2023-12-22,2023-12-22,イリマガワ株式会社,,株式会社,宮城県,仙台市太白区,西中田３丁目２番３０号,,04,104,9811105,,,,,,,2023-12-22,1,,,,,イリマガワ,0
1137,4370001050771,新規,0,2023-12-22,2023-12-22,株式会社インノセンザ,,株式会社,宮城県,仙台市青葉区,一番町４丁目４番２号,,04,101,9800811,,,,,,,2023-12-22,1,,,,,インノセンザ,0
1145,4430001090687,新規,0,2023-12-22,2023-12-22,Ｓプロジェクト株式会社,,株式会社,北海道,札幌市中央区,南十条西１丁目１番１号全国ビルニューオリンピア７１７,,01,101,0640810,,,,,,,2023-12-22,1,,,,,エスプロジェクト,0
1146,4430001090712,新規,0,2023-12-22,2023-12-22,株式会社びいどろ,,株式会社,北海道,札幌市東区,北十四条東７丁目１番４３号光星コーポ,,01,103,0650014,,,,,,,2023-12-22,1,,,,,ビイドロ,0
1148,4430003015782,新規,0,2023-12-22,2023-12-22,合同会社ＢＰＳＰ　Ｏｆｆｉｃｅ,,合同会社,北海道,札幌市北区,北七条西５丁目６番１号ストークマンション１１０４,,01,102,0600807,,,,,,,2023-12-22,1,,,,,ビーピーエスピーオフィス,0
1150,4462503000212,新規,0,2023-12-22,2023-12-22,合同会社あやない畜産,,合同会社,北海道,野付郡別海町,西春別１０３番地の５,,01,691,0882576,,,,,,,2023-12-22,1,,,,,アヤナイチクサン,0
1152,4480001012331,新規,0,2023-12-22,2023-12-22,水都徳島まちづくり株式会社,,株式会社,徳島県,徳島市,西新町１丁目２４番地,,36,201,7700902,,,,,,,2023-12-22,1,,,,,スイトトクシママチヅクリ,0
1157,4700150122998,新規,0,2023-12-22,2023-12-22,ｓｈｅｎｚｈｅｎｓｈｉｌｉｘｉｎｋｅｊｉｍａｏｙｉｙｏｕｘｉａｎｇｏｎｇｓｉ,,外国会社等,,,,,,,,ｓｈｅｎｚｈｅｎｓｈｉ　ｌｏｎｇｈｕａｑｕ　ｇｕａｎｈｕｊｉｅｄａｏ　ｌｕｈｕｓｈｅｑｕ，ｇｕａｎｓｈｅｎｇｗｕｌｕｋｅｍｕｌｏｎｇｋｅｊｉｙｕａｎＣｄｏｎｇ６０４，Ｓｈｅｎｚｈｅｎ,,,,,,2023-12-22,1,,,,,シエンジエンシーリーシンコーアジーマオイーヨウシエンゴーンスー,0
1167,5010001240944,新規,0,2023-12-22,2023-12-22,株式会社チーム・ウォーク,,株式会社,東京都,千代田区,岩本町１丁目３番１号,,13,101,1010032,,,,,,,2023-12-22,1,,,,,チームウォーク,0
1168,5010001240985,新規,0,2023-12-22,2023-12-22,フェニックスメディカル株式会社,,株式会社,東京都,千代田区,外神田４丁目１４番１号,,13,101,1010021,,,,,,,2023-12-22,1,,,,,フェニックスメディカル,0
1169,5010001240993,新規,0,2023-12-22,2023-12-22,株式会社アイネットＨＤ,,株式会社,東京都,中央区,銀座７丁目１６番２１号,,13,102,1040061,,,,,,,2023-12-22,1,,,,,アイネットエイチディー,0
1170,5010001241001,新規,0,2023-12-22,2023-12-22,株式会社アレット,,株式会社,東京都,千代田区,神田和泉町１番地１の１３,,13,101,1010024,,,,,,,2023-12-22,1,,,,,アレット,0
1171,5010001241018,新規,0,2023-12-22,2023-12-22,株式会社Ｈ＆Ｂインターナショナル,,株式会社,東京都,中央区,銀座１丁目２２番１１号銀座大竹ビジデンス２Ｆ,,13,102,1040061,,,,,,,2023-12-22,1,,,,,エイチアンドビーインターナショナル,0
1173,5010003042505,新規,0,2023-12-22,2023-12-22,ＴＩＤＡＬ　ＲＩＶＥＲ合同会社,,合同会社,東京都,千代田区,神田和泉町１番地６－１６ヤマトビル４０５,,13,101,1010024,,,,,,,2023-12-22,1,,,,,タイダルリバー,0
1175,5010101015932,新規,0,2023-12-22,2023-12-22,ＭＯＮＥＳＴＹ株式会社,,株式会社,東京都,八王子市,寺町３２－８日吉ビル１０１,,13,201,1920073,,,,,,,2023-12-22,1,,,,,モネスティ,0
1187,5010401179320,新規,0,2023-12-22,2023-12-22,ＫＩＢＵＮ株式会社,,株式会社,東京都,港区,赤坂２丁目５番８号,,13,103,1070052,,,,,,,2023-12-22,1,,,,,キブン,0
1188,5010401179345,新規,0,2023-12-22,2023-12-22,株式会社アルカナ,,株式会社,東京都,港区,西新橋１丁目７番５号,,13,103,1050003,,,,,,,2023-12-22,1,,,,,アルカナ,0
1189,5010401179386,新規,0,2023-12-22,2023-12-22,株式会社ＫＫＳ　ＪＡＰＡＮ,,株式会社,東京都,港区,芝浦２丁目１４番７号６０２号室加瀬ビル８９,,13,103,1080023,,,,,,,2023-12-22,1,,,,,,0
1196,5010403031628,新規,0,2023-12-22,2023-12-22,合同会社Ｆｏｋｅｎ３,,合同会社,東京都,港区,虎ノ門１丁目１６番６号虎ノ門ＲＡＰＯ－ＴＯビルＵＣＦ７階,,13,103,1050001,,,,,,,2023-12-22,1,,,,,フォークンスリー,0
1205,5010701045296,新規,0,2023-12-22,2023-12-22,株式会社ＰＯＮＯ,,株式会社,東京都,品川区,東大井５丁目５番７号林ビル２階,,13,109,1400011,,,,,,,2023-12-22,1,,,,,ポノ,0
1207,5010703006998,新規,0,2023-12-22,2023-12-22,合同会社井上,,合同会社,東京都,品川区,南大井２丁目１０番６－１４１２号,,13,109,1400013,,,,,,,2023-12-22,1,,,,,イノウエ,0
1209,5010801034637,新規,0,2023-12-22,2023-12-22,株式会社マルイ,,株式会社,東京都,大田区,大森西４丁目１８番１６号,,13,111,1430015,,,,,,,2023-12-22,1,,,,,マルイ,0
1211,5010901054378,新規,0,2023-12-22,2023-12-22,Ｐｉｖｏｔ　Ｗｏｒｋｓ株式会社,,株式会社,東京都,世田谷区,宮坂２丁目２２番５号,,13,112,1560051,,,,,,,2023-12-22,1,,,,,ピボットワークス,0
1212,5010901054411,新規,0,2023-12-22,2023-12-22,株式会社Ｋｅｉ,,株式会社,東京都,世田谷区,玉川３丁目２０－２マノア玉川第３ビル５０１号室,,13,112,1580094,,,,,,,2023-12-22,1,,,,,ケイ,0
1213,5010905004560,新規,0,2023-12-22,2023-12-22,一般社団法人バレエ芸術推進協会,,その他の設立登記法人,東京都,世田谷区,上用賀３丁目８番１７号,,13,112,1580098,,,,,,,2023-12-22,1,,,,,バレエゲイジュツスイシンキョウカイ,0
1215,5011001159019,新規,0,2023-12-22,2023-12-22,株式会社ＴＡＣＫＬＥ,,株式会社,東京都,渋谷区,道玄坂１丁目１０番８号渋谷道玄坂東急ビル２Ｆ－Ｃ,,13,113,1500043,,,,,,,2023-12-22,1,,,,,タックル,0
1219,5011101105509,新規,0,2023-12-22,2023-12-22,株式会社東龍珠,,株式会社,東京都,新宿区,西早稲田３丁目１６番５号６０５室ウエスト早稲田マンション,,13,104,1690051,,,,,,,2023-12-22,1,,,,,イーストドラゴン,0
1220,5011101105566,新規,0,2023-12-22,2023-12-22,株式会社ＳＢＳＮ,,株式会社,東京都,新宿区,西新宿７丁目５番５号,,13,104,1600023,,,,,,,2023-12-22,1,,,,,エスビーエスエヌ,0
1221,5011103013890,新規,0,2023-12-22,2023-12-22,アーガス・アナリシス合同会社,,合同会社,東京都,新宿区,西新宿３丁目３番１３号西新宿水間ビル６階,,13,104,1600023,,,,,,,2023-12-22,1,,,,,アーガスアナリシス,0
1229,5011801043545,新規,0,2023-12-22,2023-12-22,株式会社由テック,,株式会社,東京都,足立区,西保木間１丁目９－４モント竹ノ塚５０１号室,00133079,13,121,1210812,,,,,,,2023-12-22,1,,,,,ヨシテック,0
1230,5011801043553,新規,0,2023-12-22,2023-12-22,株式会社Ｆｏｕｒｉｓｅ,,株式会社,東京都,足立区,扇２丁目９番２０－１０１号,,13,121,1230873,,,,,,,2023-12-22,1,,,,,フォーライズ,0
1234,5012803003272,新規,0,2023-12-22,2023-12-22,東聖合同会社,,合同会社,東京都,立川市,柴崎町６丁目１１－２,,13,202,1900023,,,,,,,2023-12-22,1,,,,,トウセイ,0
1244,5020001155010,新規,0,2023-12-22,2023-12-22,株式会社ＡＹＡ　ＮＡＩＬＺ．,,株式会社,神奈川県,横浜市青葉区,美しが丘５丁目１番地４８,,14,117,2250002,,,,,,,2023-12-22,1,,,,,アヤネイルズ,0
1245,5020001155019,新規,0,2023-12-22,2023-12-22,株式会社エデュサポート,,株式会社,神奈川県,横浜市港南区,日限山３丁目６番９号,,14,111,2330015,,,,,,,2023-12-22,1,,,,,エデュサポート,0
1246,5020001155027,新規,0,2023-12-22,2023-12-22,株式会社ベイホーム,,株式会社,神奈川県,横浜市泉区,中田東２丁目４番２８号,,14,116,2450013,,,,,,,2023-12-22,1,,,,,ベイホーム,0
1249,5020003025236,新規,0,2023-12-22,2023-12-22,合同会社ｅｎ　ｆａｃｅ,,合同会社,神奈川県,横浜市神奈川区,神之木台１２番１－８０６号,,14,102,2210011,,,,,,,2023-12-22,1,,,,,アンファス,0
1250,5020003025244,新規,0,2023-12-22,2023-12-22,ＭＩＫＡＴＡ合同会社,,合同会社,神奈川県,横浜市中区,桜木町１丁目１番７号ヒューリックみなとみらい１０階,,14,104,2310062,,,,,,,2023-12-22,1,,,,,ミカタ,0
1252,5020005016233,新規,0,2023-12-22,2023-12-22,一般社団法人ＩＧＯ　ＰＲＯ,,その他の設立登記法人,神奈川県,横浜市港北区,綱島西１丁目７番１１号３Ｆ,,14,109,2230053,,,,,,,2023-12-22,1,,,,,イゴプロ,0
1266,5030001157815,新規,0,2023-12-22,2023-12-22,琴板金工業株式会社,,株式会社,埼玉県,川口市,川口２丁目１３番２３号,,11,203,3320015,,,,,,,2023-12-22,1,,,,,コトバンキンコウギョウ,0
1267,5030001157831,新規,0,2023-12-22,2023-12-22,株式会社ＡＸＩＡ,,株式会社,埼玉県,さいたま市見沼区,島町２８９番地ハナミズキ１０１,,11,104,3370006,,,,,,,2023-12-22,1,,,,,アクシア,0
1272,5030003023180,新規,0,2023-12-22,2023-12-22,ＡＩコーポレーション合同会社,,合同会社,埼玉県,加須市,騎西１３２４番地,,11,210,3470105,,,,,,,2023-12-22,1,,,,,エーアイコーポレーション,0
1273,5030005021505,新規,0,2023-12-22,2023-12-22,プリムローズ浦和団地管理組合法人,,その他の設立登記法人,埼玉県,さいたま市南区,辻３丁目３番２号,00133081,11,108,3360026,,,,,,,2023-12-22,1,,,,,プリムローズウラワ,0
1277,5040001131422,新規,0,2023-12-22,2023-12-22,日盛国際株式会社,,株式会社,千葉県,富里市,七栄８８５番地１５,,12,233,2860221,,,,,,,2023-12-22,1,,,,,ニッセイコクサイ,0
1278,5040001131463,新規,0,2023-12-22,2023-12-22,株式会社アストーレ,,株式会社,千葉県,流山市,おおたかの森西１丁目２番地の５,,12,220,2700128,,,,,,,2023-12-22,1,,,,,アストーレ,0
1279,5040001131488,新規,0,2023-12-22,2023-12-22,株式会社ｅｍ,,株式会社,千葉県,佐倉市,西志津６丁目７番２６号,,12,212,2850845,,,,,,,2023-12-22,1,,,,,エン,0
1280,5040001131496,新規,0,2023-12-22,2023-12-22,株式会社みやびアセットメント,,株式会社,千葉県,千葉市中央区,宮崎町２３１番地２０,,12,101,2600805,,,,,,,2023-12-22,1,,,,,ミヤビアセットメント,0
1283,5040003023923,新規,0,2023-12-22,2023-12-22,合同会社斗勝,,合同会社,千葉県,船橋市,八木が谷２丁目１２番１６号,,12,204,2740802,,,,,,,2023-12-22,1,,,,,トカチ,0
1284,5040003023964,新規,0,2023-12-22,2023-12-22,ジョイントアース合同会社,,合同会社,千葉県,船橋市,大穴南１丁目２７番８号,,12,204,2740067,,,,,,,2023-12-22,1,,,,,ジョイントアース,0
1285,5040003023980,新規,0,2023-12-22,2023-12-22,合同会社くいしんぼう組,,合同会社,千葉県,我孫子市,青山１４４５番地１,,12,222,2701173,,,,,,,2023-12-22,1,,,,,クイシンボウクミ,0
1286,5040003023989,新規,0,2023-12-22,2023-12-22,合同会社咲,,合同会社,千葉県,茂原市,上林２５番地７,,12,210,2970019,,,,,,,2023-12-22,1,,,,,サキ,0
1287,5040003024005,新規,0,2023-12-22,2023-12-22,ナナココエステート合同会社,,合同会社,千葉県,印西市,高花６丁目３番地１２号,,12,231,2701342,,,,,,,2023-12-22,1,,,,,ナナココエステート,0
1293,5060001036652,新規,0,2023-12-22,2023-12-22,株式会社アーネスト,,株式会社,栃木県,日光市,土沢２０２８番地１９,,09,206,3211274,,,,,,,2023-12-22,1,,,,,アーネスト,0
1294,5060003004847,新規,0,2023-12-22,2023-12-22,合同会社Ｒｉｍｕｒｕ,,合同会社,栃木県,那須塩原市,石林７６４番地５２,,09,213,3292711,,,,,,,2023-12-22,1,,,,,リムル,0
1310,5100001037076,新規,0,2023-12-22,2023-12-22,株式会社ウィルカンパニー,,株式会社,長野県,長野市,南千歳２丁目１５番２号コンパスビル１Ｆ,,20,201,3800823,,,,,,,2023-12-22,1,,,,,ウィルカンパニー,0
1316,5120001260774,新規,0,2023-12-22,2023-12-22,ｓｅａ　ｗｅａｌｔｈ株式会社,,株式会社,大阪府,大阪市大正区,三軒家西３丁目４番１６号中山ビル３０９Ｂ,,27,108,5510001,,,,,,,2023-12-22,1,,,,,シーウェルス,0
1317,5120001260808,新規,0,2023-12-22,2023-12-22,株式会社スミテックス,,株式会社,大阪府,大阪市鶴見区,今津南４丁目８番１０号,,27,124,5380043,,,,,,,2023-12-22,1,,,,,スミテックス,0
1318,5120001260840,新規,0,2023-12-22,2023-12-22,株式会社ＨＹＡＫＵＴＯＵ,,株式会社,大阪府,大阪市生野区,巽西４丁目６番１７号,00133076,27,116,5440012,,,,,,,2023-12-22,1,,,,,ヒャクトウ,0
1319,5120001260849,新規,0,2023-12-22,2023-12-22,株式会社ヒメノスケ,,株式会社,大阪府,大阪市中央区,南船場２丁目８番１１号シナプス心斎橋ビル,,27,128,5420081,,,,,,,2023-12-22,1,,,,,ヒメノスケ,0
1320,5120001260857,新規,0,2023-12-22,2023-12-22,株式会社Ｐｒｉｍｏ,,株式会社,大阪府,大阪市淀川区,三国本町１丁目１６番１２－２０１号,,27,123,5320005,,,,,,,2023-12-22,1,,,,,プリモ,0
1321,5120001260865,新規,0,2023-12-22,2023-12-22,株式会社Ｃａｆｅ＆Ｂａｒ　Ｉｓｌａｎｄ,,株式会社,大阪府,大阪市北区,芝田１丁目６番８号２階,,27,127,5300012,,,,,,,2023-12-22,1,,,,,カフェアンドバーアイランド,0
1325,5120003025564,新規,0,2023-12-22,2023-12-22,合同会社日常社,,合同会社,大阪府,大阪市淀川区,木川西４丁目２番１６号朝日プラザ梅田北デラ・リブジェ４０８号室,,27,123,5320013,,,,,,,2023-12-22,1,,,,,ニチジョウシャ,0
1331,5120903004972,新規,0,2023-12-22,2023-12-22,彩クラウド合同会社,,合同会社,大阪府,箕面市,稲１丁目１３－５９,,27,220,5620015,,,,,,,2023-12-22,1,,,,,サイクラウド,0
1333,5130001075949,新規,0,2023-12-22,2023-12-22,株式会社稲津,,株式会社,京都府,京都市西京区,樫原塚ノ本町４番地,,26,111,6158147,,,,,,,2023-12-22,1,,,,,イナツ,0
1337,5140001132757,新規,0,2023-12-22,2023-12-22,株式会社ハーバーライフ,,株式会社,兵庫県,西宮市,染殿町２番２２号,,28,204,6620913,,,,,,,2023-12-22,1,,,,,ハーバーライフ,0
1338,5140001132765,新規,0,2023-12-22,2023-12-22,株式会社Ｖｅｒｉｔｕｓ,,株式会社,兵庫県,神戸市中央区,浪花町５６起業プラザひょうご内,,28,110,6500035,,,,,,,2023-12-22,1,,,,,ベリタス,0
1339,5140001132781,新規,0,2023-12-22,2023-12-22,アトレイル株式会社,,株式会社,兵庫県,西宮市,今津出在家町６番１号,,28,204,6638227,,,,,,,2023-12-22,1,,,,,アトレイル,0
1340,5140001132798,新規,0,2023-12-22,2023-12-22,株式会社ＫＥＮＺＯ,,株式会社,兵庫県,神戸市須磨区,南落合２丁目２番５０７－２０２号,,28,107,6540153,,,,,,,2023-12-22,1,,,,,ケンゾー,0
1342,5140003019960,新規,0,2023-12-22,2023-12-22,こころ合同会社,,合同会社,兵庫県,神戸市長田区,若松町１１丁目１－１２,,28,106,6530038,,,,,,,2023-12-22,1,,,,,ココロ,0
1343,5150001026958,新規,0,2023-12-22,2023-12-22,株式会社ＧＬＯＷＡＲＴ,,株式会社,奈良県,桜井市,大字吉備２０１番地の４,,29,206,6330065,,,,,,,2023-12-22,1,,,,,グロウアート,0
1352,5180001159474,新規,0,2023-12-22,2023-12-22,Ｃ’ｍｏｎ株式会社,,株式会社,愛知県,一宮市,浅野字下切４２番地３,,23,203,4910871,,,,,,,2023-12-22,1,,,,,カモン,0
1353,5180001159482,新規,0,2023-12-22,2023-12-22,株式会社ＧＯＯＤ　ＬＵＣＫ,,株式会社,愛知県,名古屋市熱田区,二番２丁目２４番１８号エスペランサＫ１０３号,,23,109,4560052,,,,,,,2023-12-22,1,,,,,グッドラック,0
1354,5180001159499,新規,0,2023-12-22,2023-12-22,株式会社ＴＳＵＤＯＥ,,株式会社,愛知県,名古屋市中区,錦２丁目５番５号八木兵伝馬町ビル３Ｆ,,23,106,4600003,,,,,,,2023-12-22,1,,,,,ツドエ,0
1355,5180001159508,新規,0,2023-12-22,2023-12-22,中日豊業株式会社,,株式会社,愛知県,名古屋市南区,南野１丁目２８番地,,23,112,4570068,,,,,,,2023-12-22,1,,,,,チュウニチホウギョウ,0
1359,5180003026152,新規,0,2023-12-22,2023-12-22,合同会社Ｐｌａｎｔ　Ｖｉｌｌａｇｅ,,合同会社,愛知県,名古屋市中区,錦２丁目１７番１１号,,23,106,4600003,,,,,,,2023-12-22,1,,,,,プラントビレッジ,0
1360,5180301038147,新規,0,2023-12-22,2023-12-22,株式会社ワンエステート,,株式会社,愛知県,豊田市,大林町１４丁目２番地６,,23,211,4730902,,,,,,,2023-12-22,1,,,,,ワンエステート,0
1361,5180301038155,新規,0,2023-12-22,2023-12-22,ネギタテック株式会社,,株式会社,愛知県,碧南市,入船町６丁目９番地２,,23,209,4470831,,,,,,,2023-12-22,1,,,,,ネギタテック,0
1375,5240001062580,新規,0,2023-12-22,2023-12-22,株式会社Ｆａｍｉｌｙ　Ｆｉｎｄ　Ｊａｐａｎ,,株式会社,広島県,廿日市市,上平良５８番１－１０３号,,34,213,7380026,,,,,,,2023-12-22,1,,,,,ファミリーファインドジャパン,0
1383,5290001104106,新規,0,2023-12-22,2023-12-22,株式会社Ｃａｒｅｆｒｅｅ・Ｓｍｉｌｅ,,株式会社,福岡県,福岡市中央区,天神４丁目６番２８号天神ファーストビル７階,,40,133,8100001,,,,,,,2023-12-22,1,,,,,ケアフリースマイル,0
1384,5290001104130,新規,0,2023-12-22,2023-12-22,株式会社ＡＭＵ,,株式会社,福岡県,福岡市城南区,片江５丁目４番３８号,,40,136,8140142,,,,,,,2023-12-22,1,,,,,アム,0
1385,5290001104155,新規,0,2023-12-22,2023-12-22,株式会社カミジョウレンタリース,,株式会社,福岡県,福岡市西区,福重５丁目１３番２６号,,40,135,8190022,,,,,,,2023-12-22,1,,,,,カミジョウレンタリース,0
1386,5290001104163,新規,0,2023-12-22,2023-12-22,株式会社ユアーソーイング,,株式会社,福岡県,大牟田市,亀谷町１７５番地４,,40,202,8360823,,,,,,,2023-12-22,1,,,,,ユアーソーイング,0
1389,5290003014781,新規,0,2023-12-22,2023-12-22,合同会社南商店,,合同会社,福岡県,福岡市博多区,美野島１丁目９番５号１階,,40,132,8120017,,,,,,,2023-12-22,1,,,,,ミナミショウテン,0
1401,5340001026162,新規,0,2023-12-22,2023-12-22,株式会社アキュラント,,株式会社,鹿児島県,鹿児島市,荒田２丁目５番１４号サンハイツ徳永２　２０２号,,46,201,8900054,,,,,,,2023-12-22,1,,,,,アキュラント,0
1406,5360001032951,新規,0,2023-12-22,2023-12-22,株式会社ベッセル宮古島,,株式会社,沖縄県,宮古島市,平良字荷川取４８１番地６,,47,214,9060008,,,,,,,2023-12-22,1,,,,,ベッセルミヤコジマ,0
1407,5360001032984,新規,0,2023-12-22,2023-12-22,株式会社Ｃｒｅ８Ｈｕｂ,,株式会社,沖縄県,島尻郡与那原町,字東浜７８番地の１６シュティルブリーゼ・アガリハマ１０４,,47,348,9011304,,,,,,,2023-12-22,1,,,,,クリエイトハブ,0
1411,5370001050762,新規,0,2023-12-22,2023-12-22,株式会社ＬＧＳ．,,株式会社,宮城県,仙台市青葉区,本町２丁目１４番１０号,,04,101,9800014,,,,,,,2023-12-22,1,,,,,エルジーエス,0
1414,5380005012782,新規,0,2023-12-22,2023-12-22,一般社団法人ソーシャルメイト,,その他の設立登記法人,福島県,福島市,上鳥渡字樋ノ口北４３－６,,07,201,9601107,,,,,,,2023-12-22,1,,,,,ソーシャルメイト,0
1420,5430001090703,新規,0,2023-12-22,2023-12-22,株式会社ルルココ,,株式会社,北海道,札幌市中央区,大通東２丁目１５－１サラサビル４Ｆ,,01,101,0600041,,,,,,,2023-12-22,1,,,,,ルルココ,0
1421,5430001090711,新規,0,2023-12-22,2023-12-22,松柏株式会社,,株式会社,北海道,札幌市手稲区,富丘一条４丁目４番７－１０３号,,01,109,0060011,,,,,,,2023-12-22,1,,,,,ショウハク,0
1422,5430003015781,新規,0,2023-12-22,2023-12-22,合同会社Ｅｎａｂｌｅ,,合同会社,北海道,札幌市中央区,宮の森三条１丁目３－１７－２,,01,101,0640953,,,,,,,2023-12-22,1,,,,,イネイブル,0
1426,5460105002270,新規,0,2023-12-22,2023-12-22,一般社団法人ｆａｃｅ　ｇｒｏｗ　ｍｅｔｈｏｄ協会,,その他の設立登記法人,北海道,足寄郡陸別町,字陸別原野分線８番地１９１,,01,648,0894300,,,,,,,2023-12-22,1,,,,,フェイスグロウメソッドキョウカイ,0
1430,5480001012330,新規,0,2023-12-22,2023-12-22,株式会社しわしわいきよ,,株式会社,徳島県,阿南市,那賀川町赤池１６５－６,,36,204,7791242,,,,,,,2023-12-22,1,,,,,シワシワイキヨ,0
1436,5700150122997,新規,0,2023-12-22,2023-12-22,ｓｈｅｎｚｈｅｎｓｈｉｌｉｘｉｎｇｏｎｇｙｉｎｇｌｉａｎｋｅｊｉｙｏｕｘｉａｎｇｏｎｇｓｉ,,外国会社等,,,,,,,,ｌｏｎｇｈｕａｑｕ　ｇｕａｎｈｕｊｉｅｄａｏ　ｌｕｈｕｓｈｅｑｕ，ｇｕａｎｓｈｅｎｇｗｕｌｕ　ｋｅｍｕｌｏｎｇｋｅｊｉｙｕａｎＣｄｏｎｇ６０５,,,,,,2023-12-22,1,,,,,シエンジエンシーリーシンゴーンイーンリエンコーアジーヨウシエンゴーンスー,0
1445,6010001240885,新規,0,2023-12-22,2023-12-22,株式会社新日本ＲＥインベスターズ,,株式会社,東京都,千代田区,神田佐久間町３丁目３８第５東ビル５Ｆ,,13,101,1010025,,,,,,,2023-12-22,1,,,,,シンニホンアールイーインベスターズ,0
1446,6010001240984,新規,0,2023-12-22,2023-12-22,株式会社華和商事,,株式会社,東京都,中央区,晴海２丁目３番２－４８０５号,,13,102,1040053,,,,,,,2023-12-22,1,,,,,ハナワショウジ,0
1447,6010001240992,新規,0,2023-12-22,2023-12-22,ＫＴＯ株式会社,,株式会社,東京都,千代田区,神田佐久間町１丁目８番４号アルテール秋葉原７０８,,13,101,1010025,,,,,,,2023-12-22,1,,,,,ケーティーオー,0
1448,6010001241009,新規,0,2023-12-22,2023-12-22,株式会社ＦＳＴ,,株式会社,東京都,中央区,銀座１丁目８番７号ＶＯＲＴ銀座ＤＤＩ１階,,13,102,1040061,,,,,,,2023-12-22,1,,,,,エフエスティ,0
1449,6010001241017,新規,0,2023-12-22,2023-12-22,響楽器株式会社,,株式会社,東京都,千代田区,岩本町１丁目１２番１１号７０１号室,,13,101,1010032,,,,,,,2023-12-22,1,,,,,キョウガッキ,0
1450,6010001241025,新規,0,2023-12-22,2023-12-22,ＤＭＢ株式会社,,株式会社,東京都,中央区,日本橋室町１丁目１１番１２号日本橋水野ビル７階,,13,102,1030022,,,,,,,2023-12-22,1,,,,,ディーエムビー,0
1458,6010003042520,新規,0,2023-12-22,2023-12-22,Ｊ＆Ｍ合同会社,,合同会社,東京都,中央区,晴海２丁目２番４２－２６２０号,,13,102,1040053,,,,,,,2023-12-22,1,,,,,ジェイアンドエム,0
1461,6010005037659,新規,0,2023-12-22,2023-12-22,横浜本牧１プロパティー特定目的会社,,その他の設立登記法人,東京都,千代田区,丸の内１丁目１１番１号,,13,101,1000005,,,,,,,2023-12-22,1,,,,,ヨコハマホンモクワンプロパティー,0
1469,6010401179328,新規,0,2023-12-22,2023-12-22,株式会社ＪＤＳ　ＪＡＰＡＮ,,株式会社,東京都,港区,麻布十番４丁目４－１ツイン一の橋２号棟２０５８,,13,103,1060045,,,,,,,2023-12-22,1,,,,,ジェーディーエスジャパン,0
1470,6010401179352,新規,0,2023-12-22,2023-12-22,ペチャクチャ株式会社,,株式会社,東京都,港区,赤坂１丁目１番１６号細川ビル３階,,13,103,1070052,,,,,,,2023-12-22,1,,,,,ペチャクチャ,0
1471,6010401179360,新規,0,2023-12-22,2023-12-22,株式会社ＴＡＲＯ’ｓ,,株式会社,東京都,港区,六本木６丁目１７番６号,,13,103,1060032,,,,,,,2023-12-22,1,,,,,タロズ,0
1472,6010401179410,新規,0,2023-12-22,2023-12-22,トパーズ・リージョナル１Ｂ株式会社,,株式会社,東京都,港区,愛宕２丁目５番１号愛宕グリーンヒルズＭＯＲＩタワー３９階,,13,103,1050002,,,,,,,2023-12-22,1,,,,,トパーズリージョナルイチビー,0
1476,6010503007270,新規,0,2023-12-22,2023-12-22,クリエイト合同会社,,合同会社,東京都,台東区,上野７丁目３番９号,,13,106,1100005,,,,,,,2023-12-22,1,,,,,クリエイト,0
1481,6010901054385,新規,0,2023-12-22,2023-12-22,株式会社ＨＯＫＵＬＥＡ,,株式会社,東京都,世田谷区,太子堂１丁目１２番２７号コンフォートテラス１００５号,,13,112,1540004,,,,,,,2023-12-22,1,,,,,ホクレア,0
1487,6011001158936,新規,0,2023-12-22,2023-12-22,株式会社ＳＩＧＥ,,株式会社,東京都,渋谷区,円山町５番５号Ｎａｖｉ渋谷Ｖ３階,,13,113,1500044,,,,,,,2023-12-22,1,,,,,シゲ,0
1488,6011001159042,新規,0,2023-12-22,2023-12-22,株式会社やはぎ,,株式会社,東京都,渋谷区,代々木１丁目１９番１４号,,13,113,1510053,,,,,,,2023-12-22,1,,,,,ヤハギ,0
1491,6011003018163,新規,0,2023-12-22,2023-12-22,合同会社ＯＧＣ,,合同会社,東京都,渋谷区,神宮前６丁目２３番４号桑野ビル２階,,13,113,1500001,,,,,,,2023-12-22,1,,,,,オージーシー,0
1495,6011101105383,新規,0,2023-12-22,2023-12-22,ＩＺＵＭＩ　ＩＮＮＯＶＡＴＩＯＮ株式会社,,株式会社,東京都,新宿区,西新宿７丁目６－８アイアイビル３Ｆ,,13,104,1600023,,,,,,,2023-12-22,1,,,,,イズミイノベーション,0
1496,6011101105573,新規,0,2023-12-22,2023-12-22,ＰＥＧＡＳＵＳ株式会社,,株式会社,東京都,新宿区,西新宿３丁目３番１３号西新宿水間ビル２Ｆ,,13,104,1600023,,,,,,,2023-12-22,1,,,,,ペガサス,0
1499,6011103013898,新規,0,2023-12-22,2023-12-22,合同会社ゴールドブック,,合同会社,東京都,新宿区,百人町１丁目２番５号－２０２号室,,13,104,1690073,,,,,,,2023-12-22,1,,,,,ゴールドブック,0
1501,6011201025127,新規,0,2023-12-22,2023-12-22,株式会社ｍｉｋｉＯＦＦＩＣＥ,,株式会社,東京都,中野区,中野２丁目１６番５号,,13,114,1640001,,,,,,,2023-12-22,1,,,,,ミキオフィス,0
1508,6011303005010,新規,0,2023-12-22,2023-12-22,合同会社２ｓｉｄｅ不動産,,合同会社,東京都,杉並区,和田１丁目２５番５－２０６号コーポ双葉,,13,115,1660012,,,,,,,2023-12-22,1,,,,,トゥサイドフドウサン,0
1519,6011801043544,新規,0,2023-12-22,2023-12-22,大有株式会社,,株式会社,東京都,足立区,栗原３丁目２６番１号２Ｆ,,13,121,1230842,,,,,,,2023-12-22,1,,,,,ダイユウ,0
1520,6011803006012,新規,0,2023-12-22,2023-12-22,合同会社Ｓｕｉ,,合同会社,東京都,足立区,西竹の塚２丁目１３―４―８０９,,13,121,1210822,,,,,,,2023-12-22,1,,,,,スイ,0
1523,6012401041343,新規,0,2023-12-22,2023-12-22,易発株式会社,,株式会社,東京都,府中市,府中町２丁目２２－６－２０１号,,13,206,1830055,,,,,,,2023-12-22,1,,,,,イハツ,0
1528,6012801022851,新規,0,2023-12-22,2023-12-22,株式会社ｅｒｉｓｔ,,株式会社,東京都,国分寺市,本多１丁目６番６号藤和シティコープ国分寺１Ｆ,,13,214,1850011,,,,,,,2023-12-22,1,,,,,アリスト,0
1529,6012803003271,新規,0,2023-12-22,2023-12-22,警友合同会社,,合同会社,東京都,武蔵村山市,中原４丁目１０番地の１１中原ビル４０１号,,13,223,2080035,,,,,,,2023-12-22,1,,,,,ケイユウ,0
1534,6020001155018,新規,0,2023-12-22,2023-12-22,ＬＩＮＣＯＳ株式会社,,株式会社,神奈川県,横浜市中区,池袋１０番地１コスモ山手２１２号室,,14,104,2310834,,,,,,,2023-12-22,1,,,,,リンコス,0
1535,6020001155034,新規,0,2023-12-22,2023-12-22,株式会社ノーヴァ,,株式会社,神奈川県,横浜市中区,桜木町１丁目１０１番地１クロスゲート７階,,14,104,2310062,,,,,,,2023-12-22,1,,,,,ノーヴァ,0
1536,6020001155042,新規,0,2023-12-22,2023-12-22,ＮＵＫＫＡ株式会社,,株式会社,神奈川県,横浜市保土ケ谷区,瀬戸ケ谷町７３番地２６,,14,106,2400024,,,,,,,2023-12-22,1,,,,,ヌッカ,0
1543,6020003025227,新規,0,2023-12-22,2023-12-22,合同会社トワイエイゾ,,合同会社,神奈川県,横浜市西区,岡野２丁目１６－１ニューオカノビル１０１,,14,103,2200073,,,,,,,2023-12-22,1,,,,,トワイエイゾ,0
1544,6020003025243,新規,0,2023-12-22,2023-12-22,合同会社ゆりかもめ商事,,合同会社,神奈川県,横浜市中区,海岸通４丁目２３番地１,,14,104,2310002,,,,,,,2023-12-22,1,,,,,ユリカモメショウジ,0
1545,6020005016232,新規,0,2023-12-22,2023-12-22,一般社団法人市民の相談窓口,,その他の設立登記法人,神奈川県,横浜市中区,吉田町７５番地１レジデンス横浜リバーサイド１００６,,14,104,2310041,,,,,,,2023-12-22,1,,,,,シミンノソウダンマドグチ,0
1548,6021001081022,新規,0,2023-12-22,2023-12-22,株式会社ＳＵＩＴＯＳＵＩ,,株式会社,神奈川県,藤沢市,渡内３丁目６番１号,,14,205,2510011,,,,,,,2023-12-22,1,,,,,スイトスイ,0
1556,6030001157772,新規,0,2023-12-22,2023-12-22,株式会社ＨＩ,,株式会社,埼玉県,八潮市,大字西袋１０２３番地１,,11,234,3400833,,,,,,,2023-12-22,1,,,,,エイチアイ,0
1557,6030001157814,新規,0,2023-12-22,2023-12-22,株式会社輪王,,株式会社,埼玉県,蓮田市,関山２丁目９番９号,,11,238,3490121,,,,,,,2023-12-22,1,,,,,リンオウ,0
1558,6030001157855,新規,0,2023-12-22,2023-12-22,戸田明和株式会社,,株式会社,埼玉県,戸田市,上戸田４丁目１１番１６号,,11,224,3350022,,,,,,,2023-12-22,1,,,,,トダメイワ,0
1563,6030003023279,新規,0,2023-12-22,2023-12-22,Ｃ＆Ｈ　Ｎｕｒｓｅ合同会社,,合同会社,埼玉県,比企郡ときがわ町,大字玉川４７５５番地１,,11,349,3550342,,,,,,,2023-12-22,1,,,,,シーアンドエイチナース,0
1565,6030005021504,新規,0,2023-12-22,2023-12-22,弁理士法人猪瀬特許商標事務所,,その他の設立登記法人,埼玉県,志木市,館２丁目５番２号鹿島ビル４階志木サテライトオフィス内,,11,228,3530006,,,,,,,2023-12-22,1,,,,,イノセトッキョショウヒョウジムショ,0
1574,6040001131462,新規,0,2023-12-22,2023-12-22,Ｅｄｇｅ　Ｓｔｏｎｅ株式会社,,株式会社,千葉県,千葉市中央区,椿森５丁目９番６号,,12,101,2600042,,,,,,,2023-12-22,1,,,,,エッジストーン,0
1575,6040001131479,新規,0,2023-12-22,2023-12-22,株式会社Ｂｌｏｏｍ,,株式会社,千葉県,富里市,日吉台５丁目４２番地６,,12,233,2860201,,,,,,,2023-12-22,1,,,,,ブルーム,0
1587,6050001054010,新規,0,2023-12-22,2023-12-22,ＣＨ．Ｍｏｔｏｒｓ株式会社,,株式会社,茨城県,稲敷郡阿見町,大字若栗１３０７－２１－２号室,,08,443,3000333,,,,,,,2023-12-22,1,,,,,シーエイチモータース,0
1592,6060001036651,新規,0,2023-12-22,2023-12-22,株式会社Ｍ’ｓハウジング,,株式会社,栃木県,宇都宮市,鶴田町２７６３番地,,09,201,3200851,,,,,,,2023-12-22,1,,,,,エムズハウジング,0
1597,6080101024414,新規,0,2023-12-22,2023-12-22,株式会社縁優,,株式会社,静岡県,沼津市,下香貫牛臥３００２番地の１３、Ａ号棟,,22,203,4100822,,,,,,,2023-12-22,1,,,,,エンユウ,0
1599,6080103002946,新規,0,2023-12-22,2023-12-22,合同会社ＡＳＴＥＲ,,合同会社,静岡県,田方郡函南町,塚本２３２番地の１ラ・メゾンＫ’ｓＩＩＩ－１０２,00133087,22,325,4190124,,,,,,,2023-12-22,1,,,,,アスター,0
1610,6110001038056,新規,0,2023-12-22,2023-12-22,株式会社アット・ガレージ,,株式会社,新潟県,柏崎市,大字上田尻１７２３番地３,,15,205,9451351,,,,,,,2023-12-22,1,,,,,アットガレージ,0
1618,6120001260831,新規,0,2023-12-22,2023-12-22,株式会社大和田精研,,株式会社,大阪府,門真市,岸和田４丁目７番９号,,27,223,5710002,,,,,,,2023-12-22,1,,,,,オオワダセイケン,0
1619,6120001260856,新規,0,2023-12-22,2023-12-22,ＰＧＯパレス株式会社,,株式会社,大阪府,枚方市,津田元町３丁目４４番２３号,,27,210,5730127,,,,,,,2023-12-22,1,,,,,ピージーオーパレス,0
1620,6120003025571,新規,0,2023-12-22,2023-12-22,合同会社ＧＳＹ,,合同会社,大阪府,大阪市西区,川口１丁目４番２６－６０５号,,27,106,5500021,,,,,,,2023-12-22,1,,,,,ジーエスワイ,0
1623,6120103005597,新規,0,2023-12-22,2023-12-22,合同会社マツダス,,合同会社,大阪府,堺市堺区,向陵中町１丁５番３２号,,27,141,5900024,,,,,,,2023-12-22,1,,,,,マツダス,0
1624,6120901048525,新規,0,2023-12-22,2023-12-22,株式会社ｐｅａｃｅ　ｏｆ　ｈｅａｌｔｈ,,株式会社,大阪府,三島郡島本町,山崎２丁目１番８号ユニマート山崎,,27,301,6180001,,,,,,,2023-12-22,1,,,,,ピースオブヘルス,0
1625,6120901048533,新規,0,2023-12-22,2023-12-22,Ｇｉｇａ　ｓｐａｃｅ株式会社,,株式会社,大阪府,高槻市,栄町２丁目１５番３号,,27,207,5690825,,,,,,,2023-12-22,1,,,,,ギガスペース,0
1630,6122001037680,新規,0,2023-12-22,2023-12-22,株式会社ＳＰＡＲＫＬＥ,,株式会社,大阪府,東大阪市,足代南１丁目１４番２号,,27,227,5770842,,,,,,,2023-12-22,1,,,,,スパークル,0
1638,6130001075980,新規,0,2023-12-22,2023-12-22,株式会社祇園創栄,,株式会社,京都府,京都市東山区,川端通四条上がる常盤町１７６,,26,105,6050000,,,,,,,2023-12-22,1,,,,,ギオンソウエイ,0
1639,6130001076005,新規,0,2023-12-22,2023-12-22,ＡＴ株式会社,,株式会社,京都府,八幡市,八幡女郎花８６番地の１ハイツ雅Ｂ棟１０１,,26,210,6148077,,,,,,,2023-12-22,1,,,,,エーティー,0
1644,6140001132756,新規,0,2023-12-22,2023-12-22,株式会社栄徳,,株式会社,兵庫県,芦屋市,若葉町５番１－１６１１号,,28,206,6590041,,,,,,,2023-12-22,1,,,,,エイトク,0
1645,6140001132764,新規,0,2023-12-22,2023-12-22,株式会社ジーフォワード,,株式会社,兵庫県,神戸市中央区,磯辺通１丁目１番１８号カサベラ国際プラザビル７０７,,28,110,6510084,,,,,,,2023-12-22,1,,,,,ジーフォワード,0
1646,6140001132780,新規,0,2023-12-22,2023-12-22,株式会社ＮＥＸＵＳ　ＣＲＥＡＴＥ,,株式会社,兵庫県,尼崎市,梶ケ島７番１７号,,28,202,6600821,,,,,,,2023-12-22,1,,,,,ネクサスクリエイト,0
1647,6140001132789,新規,0,2023-12-22,2023-12-22,株式会社Ｋ．Ｋ．Ｇ,,株式会社,兵庫県,尼崎市,東園田町８丁目８２番地の４,,28,202,6610953,,,,,,,2023-12-22,1,,,,,ケイケイジー,0
1653,6160001025578,新規,0,2023-12-22,2023-12-22,株式会社Ｄ‐ｐｌｕｓ　ｃｏｌｌｅｃｔｉｏｎ,,株式会社,滋賀県,大津市,弥生町７番１６号,,25,201,5200115,,,,,,,2023-12-22,1,,,,,ディプラスコレクション,0
1654,6160001025586,新規,0,2023-12-22,2023-12-22,株式会社Ｈｙ,,株式会社,滋賀県,守山市,水保町１１６８番地１,,25,207,5240102,,,,,,,2023-12-22,1,,,,,エイチワイ,0
1660,6180001159498,新規,0,2023-12-22,2023-12-22,株式会社ｉｌ　ｐｌｅｕｔ,,株式会社,愛知県,名古屋市名東区,野間町１６,,23,115,4650056,,,,,,,2023-12-22,1,,,,,イルプル,0
1661,6180001159507,新規,0,2023-12-22,2023-12-22,株式会社エコハピ,,株式会社,愛知県,名古屋市中村区,烏森町３丁目８５－２,,23,105,4530855,,,,,,,2023-12-22,1,,,,,エコハピ,0
1664,6180003026151,新規,0,2023-12-22,2023-12-22,合同会社Ｓｐｏｔ　Ｄｅｓｉｇｎ　Ｈｕｂ,,合同会社,愛知県,小牧市,小松寺５丁目７３番地,,23,219,4850828,,,,,,,2023-12-22,1,,,,,スポットデザインハブ,0
1665,6180005020474,新規,0,2023-12-22,2023-12-22,一般社団法人ＣＯＲＥＣＡＲＡ,,その他の設立登記法人,愛知県,名古屋市千種区,園山町２丁目３番１号,,23,101,4640812,,,,,,,2023-12-22,1,,,,,コレカラ,0
1666,6180301038146,新規,0,2023-12-22,2023-12-22,株式会社椿,,株式会社,愛知県,豊橋市,草間町字平東１３０番地東和プラザ２－３,,23,201,4418141,,,,,,,2023-12-22,1,,,,,ツバキ,0
1673,6220001025745,新規,0,2023-12-22,2023-12-22,株式会社Ｆｏｒｍｏｓａ,,株式会社,石川県,金沢市,大手町１５番１１号４０４,,17,201,9200912,,,,,,,2023-12-22,1,,,,,フォルモサ,0
1681,6230001020150,新規,0,2023-12-22,2023-12-22,たかはし建工株式会社,,株式会社,富山県,中新川郡立山町,榎７６番地２６,,16,323,9300235,,,,,,,2023-12-22,1,,,,,タカハシケンコウ,0
1682,6240001062571,新規,0,2023-12-22,2023-12-22,株式会社Ｎ＆Ｓ,,株式会社,広島県,広島市中区,大手町４丁目５番１１－１２０３号,,34,101,7300051,,,,,,,2023-12-22,1,,,,,エヌアンドエス,0
1685,6240005015690,新規,0,2023-12-22,2023-12-22,一般社団法人クリタ＆フォン・デア・オステンーザッケン,,その他の設立登記法人,広島県,広島市中区,東白島町１５－１－４０１,,34,101,7300004,,,,,,,2023-12-22,1,,,,,クリタアンドフォンデアオステンーザッケン,0
1687,6250003003408,新規,0,2023-12-22,2023-12-22,合同会社一士心,,合同会社,山口県,下関市,員光町４丁目８番３５号,,35,201,7520903,,,,,,,2023-12-22,1,,,,,イッシン,0
1693,6280005007577,新規,0,2023-12-22,2023-12-22,一般社団法人ワノネ,,その他の設立登記法人,島根県,隠岐郡海士町,大字海士３４４８番地２,,32,525,6840403,,,,,,,2023-12-22,1,,,,,,0
1700,6290001104121,新規,0,2023-12-22,2023-12-22,株式会社ＣＯＮＮＥＣＴ,,株式会社,福岡県,福岡市中央区,天神４丁目６－２８天神ファーストビル７階,,40,133,8100001,,,,,,,2023-12-22,1,,,,,コネクト,0
1701,6290001104179,新規,0,2023-12-22,2023-12-22,株式会社ｓｈｉｋｏｕ,,株式会社,福岡県,福岡市博多区,博多駅前１丁目２３番２号ＰａｒｋＦｒｏｎｔ博多駅前１丁目５Ｆ－Ｂ,,40,132,8120011,,,,,,,2023-12-22,1,,,,,シコウ,0
1705,6290003014772,新規,0,2023-12-22,2023-12-22,合同会社Ｂｕｄｄｙ,,合同会社,福岡県,福岡市博多区,博多駅前３丁目１８番９－３０５号,,40,132,8120011,,,,,,,2023-12-22,1,,,,,バディ,0
1706,6290003014780,新規,0,2023-12-22,2023-12-22,ＮＲＤＯ合同会社,,合同会社,福岡県,福岡市早良区,曙１丁目９番２１－１０１号ハイツフォーレスト,,40,137,8140004,,,,,,,2023-12-22,1,,,,,エヌアールディーオー,0
1707,6290801030153,新規,0,2023-12-22,2023-12-22,株式会社阿部積算事務所,,株式会社,福岡県,北九州市小倉北区,原町２丁目６番１８号,,40,106,8030815,,,,,,,2023-12-22,1,,,,,アベセキサンジムショ,0
1708,6290801030161,新規,0,2023-12-22,2023-12-22,株式会社ＨＩＲＡＫＡＷＡ,,株式会社,福岡県,田川郡糸田町,３７２１番地１６,,40,604,8221300,,,,,,,2023-12-22,1,,,,,ヒラカワ,0
1711,6330001031583,新規,0,2023-12-22,2023-12-22,ＬＯＣＡＬ　ＴＯ　ＬＯＣＡＬ株式会社,,株式会社,熊本県,人吉市,矢岳町４７６２番地,,43,203,8680813,,,,,,,2023-12-22,1,,,,,ローカルトゥローカル,0
1714,6360003013560,新規,0,2023-12-22,2023-12-22,合同会社ＳｋｙｓｅｅＤ　ＡＩ,,合同会社,沖縄県,那覇市,久茂地１丁目１番１号－９階,,47,201,9000015,,,,,,,2023-12-22,1,,,,,スカイシードエーアイ,0
1716,6370001050761,新規,0,2023-12-22,2023-12-22,株式会社Ａｎｄ．Ｄ,,株式会社,宮城県,仙台市青葉区,中央１丁目６番２３－５０３号,,04,101,9800021,,,,,,,2023-12-22,1,,,,,アンドデー,0
1730,6410001013672,新規,0,2023-12-22,2023-12-22,株式会社イプシロン,,株式会社,秋田県,仙北市,角館町小勝田小倉前２５番地,,05,215,0140347,,,,,,,2023-12-22,1,,,,,イプシロン,0
1735,6430001090702,新規,0,2023-12-22,2023-12-22,株式会社Ｍ‐ｌｏｔ,,株式会社,北海道,札幌市北区,北七条西８丁目２番地３６,,01,102,0600807,,,,,,,2023-12-22,1,,,,,エムロット,0
1736,6430001090710,新規,0,2023-12-22,2023-12-22,株式会社みら彩,,株式会社,北海道,札幌市西区,西野七条８丁目４番１４号,,01,107,0630037,,,,,,,2023-12-22,1,,,,,ミライロ,0
1738,6430003015780,新規,0,2023-12-22,2023-12-22,合同会社クルシエイト,,合同会社,北海道,札幌市豊平区,西岡二条４丁目９番１８号,,01,105,0620032,,,,,,,2023-12-22,1,,,,,クルシエイト,0
1739,6430003015797,新規,0,2023-12-22,2023-12-22,合同会社マルト,,合同会社,北海道,札幌市西区,西野一条５丁目５番１１号,,01,107,0630031,,,,,,,2023-12-22,1,,,,,マルト,0
1742,6450003002422,新規,0,2023-12-22,2023-12-22,合同会社瀬戸介護相談室,,合同会社,北海道,旭川市,末広二条５丁目２番７号,,01,204,0718132,,,,,,,2023-12-22,1,,,,,,0
1744,6470001019953,新規,0,2023-12-22,2023-12-22,株式会社ユリイカトラス,,株式会社,香川県,丸亀市,土器町東１丁目１０５番地３,,37,202,7630082,,,,,,,2023-12-22,1,,,,,ユリイカトラス,0
1750,6700150122996,新規,0,2023-12-22,2023-12-22,ｔａｉ　ａｎ　ｂａｉ　ｓｉ　ｔａｉ　ｄｉａｎ　ｚｉ　ｓｈａｎｇ　ｗｕ　ｙｏｕ　ｘｉａｎ　ｇｏｎｇｓｉ,,外国会社等,,,,,,,,ｔａｉ　ｓｈａｎ　ｑｕ　ｄｏｎｇ　ｙｕｅ　ｄａ　ｊｉｅ　３６５ｈａｏ　ｍｅｉ　ｔｉａｎ　ｄｉ　ｚｈｉ　ｊｕ　１　ｈａｏ　ｌｏｕ　１　ｄａｎ　ｙｕａｎ　４０１　ｔａｉａｎ　ｓｈａｎ　ｄｏｎｇ　２７１０００　ＣＮ,,,,,,2023-12-22,1,,,,,タイアンバイスータイデイエンズーシヤンウーヨウシエンゴンスー,0
1751,6700150123004,新規,0,2023-12-22,2023-12-22,ＰＥＴＢＡＹ　ＰＴＹ　ＬＴＤ,,外国会社等,,,,,,,,３７６Ｂ　Ｕｎｌｅｙ　Ｒｄ，Ｕｎｌｅｙ　Ｐａｒｋ，ＳＡ　５０６１,,,,,,2023-12-22,1,,,,,ペットベイ,0
1757,7010001240884,新規,0,2023-12-22,2023-12-22,株式会社新日本テクノバンク,,株式会社,東京都,千代田区,神田佐久間町３丁目３８番地第５東ビル５Ｆ,,13,101,1010025,,,,,,,2023-12-22,1,,,,,シンニホンテクノバンク,0
1758,7010001240991,新規,0,2023-12-22,2023-12-22,株式会社リライク,,株式会社,東京都,千代田区,神田錦町３丁目１１番地,,13,101,1010054,,,,,,,2023-12-22,1,,,,,リライク,0
1759,7010001241016,新規,0,2023-12-22,2023-12-22,株式会社椿,,株式会社,東京都,中央区,銀座１丁目１２－４Ｎ＆ＥＢＬＤ．６Ｆ,,13,102,1040061,,,,,,,2023-12-22,1,,,,,ツバキ,0
1760,7010001241024,新規,0,2023-12-22,2023-12-22,アクセラテック株式会社,,株式会社,東京都,中央区,銀座７丁目１３番６号サガミビル２階,,13,102,1040061,,,,,,,2023-12-22,1,,,,,アクセラテック,0
1761,7010001241065,新規,0,2023-12-22,2023-12-22,新思株式会社,,株式会社,東京都,中央区,日本橋兜町１７番１号日本橋ロイヤルプラザ７０６,,13,102,1030026,,,,,,,2023-12-22,1,,,,,シンシ,0
1764,7010005037658,新規,0,2023-12-22,2023-12-22,一般社団法人スペシャルワンクルーアソシエーション,,その他の設立登記法人,東京都,中央区,京橋１丁目１番地５号セントラルビル２階,,13,102,1040031,,,,,,,2023-12-22,1,,,,,スペシャルワンクルーアソシエーション,0
1772,7010401179327,新規,0,2023-12-22,2023-12-22,株式会社セブンシーズ・エクスプローラー,,株式会社,東京都,港区,麻布十番１丁目５番１０号アトラスビルＴＨＥＨＵＢ麻布十番６１３号室,,13,103,1060045,,,,,,,2023-12-22,1,,,,,セブンシーズエクスプローラー,0
1773,7010401179343,新規,0,2023-12-22,2023-12-22,ＪＣＸＡＳ株式会社,,株式会社,東京都,港区,芝浦２丁目１６番１１号,,13,103,1080023,,,,,,,2023-12-22,1,,,,,ジェクサス,0
1775,7010403031618,新規,0,2023-12-22,2023-12-22,Ｔｒｉｃｅｎｔｉｓ　Ｊａｐａｎ合同会社,,合同会社,東京都,港区,元麻布３丁目１番６号,,13,103,1060046,,,,,,,2023-12-22,1,,,,,トリセンティスジャパン,0
1784,7010803004792,新規,0,2023-12-22,2023-12-22,合同会社海発興業,,合同会社,東京都,大田区,大森東１丁目２８番１３号クリオ平和島３０９,,13,111,1430012,,,,,,,2023-12-22,1,,,,,カイハツコウギョウ,0
1787,7010901054418,新規,0,2023-12-22,2023-12-22,株式会社ＣＬＯＶＥＲ,,株式会社,東京都,世田谷区,上北沢４丁目１３番１４号,,13,112,1560057,,,,,,,2023-12-22,1,,,,,クローバー,0
1792,7011001158976,新規,0,2023-12-22,2023-12-22,株式会社Ｏｆｆｉｃｅ　Ｅｕｒｅｋａ,,株式会社,東京都,渋谷区,道玄坂１丁目１０番８号渋谷道玄坂東急ビル,,13,113,1500043,,,,,,,2023-12-22,1,,,,,オフィスエウレカ,0
1793,7011001159017,新規,0,2023-12-22,2023-12-22,株式会社あいわ,,株式会社,東京都,渋谷区,代々木５丁目３４番６号,,13,113,1510053,,,,,,,2023-12-22,1,,,,,アイワ,0
1795,7011003018138,新規,0,2023-12-22,2023-12-22,合同会社ＡＩ,,合同会社,東京都,渋谷区,渋谷２丁目５番１２,,13,113,1500002,,,,,,,2023-12-22,1,,,,,エーアイ,0
1797,7011101105515,新規,0,2023-12-22,2023-12-22,丹盛貿易株式会社,,株式会社,東京都,新宿区,四谷２丁目１３番地１グランスイート四谷二丁目レジデンス１００４,,13,104,1600004,,,,,,,2023-12-22,1,,,,,タンセイボウエキ,0
1798,7011101105572,新規,0,2023-12-22,2023-12-22,株式会社ＰＢＫ,,株式会社,東京都,新宿区,西新宿３丁目３番１３号西新宿水間ビル２Ｆ,,13,104,1600023,,,,,,,2023-12-22,1,,,,,ピービーケー,0
1799,7011101105589,新規,0,2023-12-22,2023-12-22,株式会社クラーラ,,株式会社,東京都,新宿区,西早稲田２丁目６番７号,,13,104,1690051,,,,,,,2023-12-22,1,,,,,クラーラ,0
1800,7011105010892,新規,0,2023-12-22,2023-12-22,一般社団法人とれぶ,,その他の設立登記法人,東京都,新宿区,西新宿３丁目３番１３号西新宿水間ビル６階,,13,104,1600023,,,,,,,2023-12-22,1,,,,,トレブ,0
1804,7011301029266,新規,0,2023-12-22,2023-12-22,株式会社Ｃｈａｒｍａｎ,,株式会社,東京都,杉並区,下高井戸４丁目４４番１５号１階,,13,115,1680073,,,,,,,2023-12-22,1,,,,,シャルマン,0
1806,7011401025719,新規,0,2023-12-22,2023-12-22,株式会社ＲＹＭ,,株式会社,東京都,板橋区,高島平９丁目２番２０－９０４,,13,119,1750082,,,,,,,2023-12-22,1,,,,,リム,0
1809,7011503005890,新規,0,2023-12-22,2023-12-22,合同会社ニーナナ,,合同会社,東京都,北区,滝野川６丁目１番１－１３１１号ザ・パークハビオ滝野川,,13,117,1140023,,,,,,,2023-12-22,1,,,,,ニーナナ,0
1810,7011601027399,新規,0,2023-12-22,2023-12-22,株式会社タフ・アシスト,,株式会社,東京都,練馬区,練馬１丁目３２番４号,,13,120,1760001,,,,,,,2023-12-22,1,,,,,タフアシスト,0
1814,7011801043543,新規,0,2023-12-22,2023-12-22,衆信株式会社,,株式会社,東京都,葛飾区,東金町３丁目１７番１０号ＫＢＳ・Ｃ－５号,,13,122,1250041,,,,,,,2023-12-22,1,,,,,シュウシン,0
1815,7011801043568,新規,0,2023-12-22,2023-12-22,Ｎｅｗｐｏｒｔ　Ｐａｃｉｆｉｃ　Ｈｏｌｄｉｎｇｓ株式会社,,株式会社,東京都,葛飾区,東新小岩２丁目２８番１号,,13,122,1240023,,,,,,,2023-12-22,1,,,,,ニューポートパシフィックホールディングス,0
1816,7012301013706,新規,0,2023-12-22,2023-12-22,株式会社Ｕｆｏｔｓ,,株式会社,東京都,町田市,鶴間３丁目４番地１－３Ｆ－３７,,13,209,1940004,,,,,,,2023-12-22,1,,,,,ユーフォッツ,0
1817,7012305002077,新規,0,2023-12-22,2023-12-22,一般社団法人Ｖｅｓｔａ,,その他の設立登記法人,東京都,町田市,下小山田町１１１７番地７,,13,209,1940202,,,,,,,2023-12-22,1,,,,,ヴェスタ,0
1821,7012701018008,新規,0,2023-12-22,2023-12-22,株式会社パーパスワン,,株式会社,東京都,東村山市,本町３丁目１３番地１５,,13,213,1890014,,,,,,,2023-12-22,1,,,,,パーパスワン,0
1829,7013303006920,新規,0,2023-12-22,2023-12-22,Ｏｕｔｅｒ　Ｒｉｍ　Ｅｘｐｌｏｒａｔｉｏｎ合同会社,,合同会社,東京都,豊島区,南大塚２丁目１１番１０号ミモザビル３Ｆ,,13,116,1700005,,,,,,,2023-12-22,1,,,,,アウターリムエクスプロレイション,0
1834,7020001155025,新規,0,2023-12-22,2023-12-22,株式会社ＥｖｅｒＡｆｔｅｒ,,株式会社,神奈川県,横浜市西区,北幸２丁目１０番地４８むつみビル３階,,14,103,2200004,,,,,,,2023-12-22,1,,,,,エバーアフター,0
1835,7020001155041,新規,0,2023-12-22,2023-12-22,株式会社花藍,,株式会社,神奈川県,横浜市青葉区,奈良町２８６４番地３モアクレスト玉川学園３番館５０６号,,14,117,2270036,,,,,,,2023-12-22,1,,,,,ハナアイ,0
1838,7020003025234,新規,0,2023-12-22,2023-12-22,ホクソンコーポレーション合同会社,,合同会社,神奈川県,横浜市港北区,下田町３丁目２７番２４号,,14,109,2230064,,,,,,,2023-12-22,1,,,,,ホクソンコーポレーション,0
1839,7020003025242,新規,0,2023-12-22,2023-12-22,合同会社創誠社,,合同会社,神奈川県,川崎市宮前区,菅生１丁目７番３０号パディハウス１０３,,14,136,2160015,,,,,,,2023-12-22,1,,,,,ソウセイシャ,0
1840,7020005016231,新規,0,2023-12-22,2023-12-22,一般社団法人ＴＥＲＡＪＩＭＡ,,その他の設立登記法人,神奈川県,川崎市宮前区,神木本町３丁目９番１号,,14,136,2160031,,,,,,,2023-12-22,1,,,,,テラジマ,0
1851,7021001081046,新規,0,2023-12-22,2023-12-22,株式会社アイファミリア,,株式会社,神奈川県,海老名市,中新田４丁目６番２０号,,14,215,2430422,,,,,,,2023-12-22,1,,,,,アイファミリア,0
1856,7030001157805,新規,0,2023-12-22,2023-12-22,株式会社ＰＥＡＣＨ,,株式会社,埼玉県,入間市,豊岡３丁目２番９号,,11,225,3580003,,,,,,,2023-12-22,1,,,,,ピーチ,0
1857,7030001157813,新規,0,2023-12-22,2023-12-22,株式会社Ｐｅｅｅ　Ｃｏｃｈｉｎ,,株式会社,埼玉県,さいたま市見沼区,島町１丁目７番地１ジェイシティ東大宮２１２号,,11,104,3370006,,,,,,,2023-12-22,1,,,,,ピーコチン,0
1858,7030001157846,新規,0,2023-12-22,2023-12-22,株式会社ベルドリーム,,株式会社,埼玉県,川口市,大字道合５６２番地の９,,11,203,3330835,,,,,,,2023-12-22,1,,,,,ベルドリーム,0
1859,7030001157854,新規,0,2023-12-22,2023-12-22,株式会社ＷＥＳＴ　ＲＩＶＥＲ,,株式会社,埼玉県,さいたま市岩槻区,本丸３丁目２８番１８号Ａ２０１,,11,110,3390058,,,,,,,2023-12-22,1,,,,,ウエストリバー,0
1863,7030003023278,新規,0,2023-12-22,2023-12-22,合同会社ゴールドフィッシュプロパティ,,合同会社,埼玉県,所沢市,北所沢町２２４８番地の５,,11,208,3590046,,,,,,,2023-12-22,1,,,,,ゴールドフィッシュプロパティ,0
1864,7030003023286,新規,0,2023-12-22,2023-12-22,Ｂ．Ｄ．Ｓ．ＩＮＴＥＲＮＡＴＩＯＮＡＬ合同会社,,合同会社,埼玉県,さいたま市岩槻区,西町３丁目４番２３号Ｐｅａｃｅｆｕｌハイツ岩槻２０２,,11,110,3390067,,,,,,,2023-12-22,1,,,,,ビーディーエスインターナショナル,0
1865,7030003023294,新規,0,2023-12-22,2023-12-22,合同会社ＡＲＣ‐Ｕ,,合同会社,埼玉県,富士見市,ふじみ野西１丁目１０－２,,11,235,3540035,,,,,,,2023-12-22,1,,,,,アルク,0
1875,7040001131429,新規,0,2023-12-22,2023-12-22,株式会社ホワイトソリューションズ,,株式会社,千葉県,流山市,後平井１７０番地,,12,220,2700151,,,,,,,2023-12-22,1,,,,,ホワイトソリューションズ,0
1876,7040001131445,新規,0,2023-12-22,2023-12-22,株式会社ＵＰＳＴＯＮＥ,,株式会社,千葉県,木更津市,請西南４丁目２９番地９,,12,206,2920807,,,,,,,2023-12-22,1,,,,,アップストン,0
1877,7040001131453,新規,0,2023-12-22,2023-12-22,株式会社柴崎ライフサポート,,株式会社,千葉県,我孫子市,柴崎台２丁目６－２６,,12,222,2701176,,,,,,,2023-12-22,1,,,,,シバサキライフサポート,0
1878,7040001131478,新規,0,2023-12-22,2023-12-22,株式会社エイドケアサービス,,株式会社,千葉県,市川市,新浜１丁目１３番３号,,12,203,2720136,,,,,,,2023-12-22,1,,,,,エイドケアサービス,0
1879,7040001131486,新規,0,2023-12-22,2023-12-22,聖和夫株式会社,,株式会社,千葉県,千葉市花見川区,花園３丁目３－５,,12,102,2620025,,,,,,,2023-12-22,1,,,,,ヒジリカズオ,0
1883,7040003023987,新規,0,2023-12-22,2023-12-22,合同会社いそひよ,,合同会社,千葉県,館山市,笠名１１３９番地１号笠名ビバリーハイツＩＩＢ－１,00133090,12,205,2940032,,,,,,,2023-12-22,1,,,,,イソヒヨ,0
1889,7060001036650,新規,0,2023-12-22,2023-12-22,株式会社堀孝,,株式会社,栃木県,足利市,板倉町１４３４番地１,,09,202,3260102,,,,,,,2023-12-22,1,,,,,ホリタカ,0
1899,7090001018472,新規,0,2023-12-22,2023-12-22,株式会社ＢＦＰ　ＪＡＰＡＮ,,株式会社,山梨県,中巨摩郡昭和町,西条９６０番地２８,,19,384,4093866,,,,,,,2023-12-22,1,,,,,ビーエフピージャパン,0
1902,7100001037074,新規,0,2023-12-22,2023-12-22,株式会社キートス,,株式会社,長野県,茅野市,玉川３７６８番地１,,20,214,3910011,,,,,,,2023-12-22,1,,,,,キートス,0
1914,7120001260797,新規,0,2023-12-22,2023-12-22,株式会社Ｊｏｂｅｅｅ,,株式会社,大阪府,大阪市北区,同心１丁目８番２６－３０１号,,27,127,5300035,,,,,,,2023-12-22,1,,,,,ジョビー,0
1915,7120001260830,新規,0,2023-12-22,2023-12-22,株式会社ＳＨＡＫＥ,,株式会社,大阪府,大阪市中央区,東心斎橋２丁目６－２２日宝パラダイスビル４Ｆ,,27,128,5420083,,,,,,,2023-12-22,1,,,,,シェイク,0
1916,7120001260839,新規,0,2023-12-22,2023-12-22,億元株式会社,,株式会社,大阪府,大阪市都島区,内代町２丁目８番７号,,27,102,5340013,,,,,,,2023-12-22,1,,,,,オクゲン,0
1917,7120001260855,新規,0,2023-12-22,2023-12-22,サークル株式会社,,株式会社,大阪府,大阪市西区,立売堀４丁目７番１５号奥内立売堀ビル１０階,,27,106,5500012,,,,,,,2023-12-22,1,,,,,サークル,0
1918,7120001260921,新規,0,2023-12-22,2023-12-22,ＮＥＸＴ　Ｒｅｖｏｌｕｔｉｏｎ株式会社,,株式会社,大阪府,大阪市中央区,農人橋２丁目３－１４－８０６,,27,128,5400011,,,,,,,2023-12-22,1,,,,,ネクストレボリューション,0
1921,7120003025562,新規,0,2023-12-22,2023-12-22,Ｓａｍｕｒａｉ　Ｔｒａｄｅｒｓ合同会社,,合同会社,大阪府,大阪市生野区,巽北１丁目２１番２９－１１１１号,00133080,27,116,5440004,,,,,,,2023-12-22,1,,,,,サムライトレーダース,0
1925,7120101068752,新規,0,2023-12-22,2023-12-22,株式会社ＫＩＲＩ建設,,株式会社,大阪府,堺市東区,丈六４０２番地１１,,27,143,5998122,,,,,,,2023-12-22,1,,,,,キリケンセツ,0
1934,7130001076004,新規,0,2023-12-22,2023-12-22,峰ノ堂株式会社,,株式会社,京都府,京都市南区,唐橋高田町３０－１２,,26,107,6018464,,,,,,,2023-12-22,1,,,,,ホウノドウ,0
1945,7140001132763,新規,0,2023-12-22,2023-12-22,センツフェス株式会社,,株式会社,兵庫県,宝塚市,武庫山２丁目３番２２号,,28,214,6650005,,,,,,,2023-12-22,1,,,,,センツフェス,0
1947,7140003019934,新規,0,2023-12-22,2023-12-22,合同会社クノープ,,合同会社,兵庫県,神戸市中央区,磯辺通１丁目１番１８号カサベラ国際プラザビル７０７号室,,28,110,6510084,,,,,,,2023-12-22,1,,,,,クノープ,0
1959,7180001159497,新規,0,2023-12-22,2023-12-22,児玉建設株式会社,,株式会社,愛知県,名古屋市守山区,守山２丁目４番３０号ライオンズ守山ディアライズ５０４号,,23,113,4630067,,,,,,,2023-12-22,1,,,,,コダマケンセツ,0
1960,7180001159514,新規,0,2023-12-22,2023-12-22,株式会社イシヤマ建築,,株式会社,愛知県,一宮市,木曽川町黒田字東針口５０番地２,,23,203,4930001,,,,,,,2023-12-22,1,,,,,イシヤマケンチク,0
1964,7180003026150,新規,0,2023-12-22,2023-12-22,ＡＤＦＬＹＥＲ合同会社,,合同会社,愛知県,名古屋市南区,大堀町４番２５号,,23,112,4570002,,,,,,,2023-12-22,1,,,,,アドフライヤー,0
1965,7180003026159,新規,0,2023-12-22,2023-12-22,Ｎ．Ｆｉｌｍｓ合同会社,,合同会社,愛知県,名古屋市中川区,富船町３丁目１番地の１ソーラスフロント富船１１３号,,23,110,4540823,,,,,,,2023-12-22,1,,,,,エヌドットフィルムス,0
1969,7180005020473,新規,0,2023-12-22,2023-12-22,一般社団法人国際障害者支援機構,,その他の設立登記法人,愛知県,名古屋市中川区,中花町３７番地,,23,110,4540931,,,,,,,2023-12-22,1,,,,,コクサイショウガイシャシエンキコウ,0
1972,7180301038153,新規,0,2023-12-22,2023-12-22,ＣＫホールディング株式会社,,株式会社,愛知県,西尾市,米津町宮東３番地３９,,23,213,4450802,,,,,,,2023-12-22,1,,,,,シーケーホールディング,0
1973,7180301038161,新規,0,2023-12-22,2023-12-22,株式会社ＶＡＬＥＮＴＹ,,株式会社,愛知県,豊田市,折平町西屋敷５５６番地１７,,23,211,4700464,,,,,,,2023-12-22,1,,,,,ヴァレンティ,0
1974,7180305009539,新規,0,2023-12-22,2023-12-22,特定非営利活動法人ＷＡＲＡ　ＢＡＳＥ,,その他の設立登記法人,愛知県,豊川市,宿町光道寺８番地,,23,207,4410101,,,,,,,2023-12-22,1,,,,,ワラベース,0
1975,7190003004543,新規,0,2023-12-22,2023-12-22,合同会社ＫＥＹ,,合同会社,三重県,南牟婁郡紀宝町,鵜殿１９９０番地８,,24,562,5195701,,,,,,,2023-12-22,1,,,,,キー,0
1978,7200003006190,新規,0,2023-12-22,2023-12-22,合同会社暁商事,,合同会社,岐阜県,高山市,三福寺町２７８番地,,21,203,5060807,,,,,,,2023-12-22,1,,,,,アカツキショウジ,0
1992,7240001062579,新規,0,2023-12-22,2023-12-22,株式会社ますかわ花店,,株式会社,広島県,東広島市,西条土与丸１丁目５番４６号,,34,212,7390007,,,,,,,2023-12-22,1,,,,,マスカワハナテン,0
1993,7240001062587,新規,0,2023-12-22,2023-12-22,株式会社ＴＡＫＩＢＩ,,株式会社,広島県,広島市中区,舟入南４丁目１３番５号,,34,101,7300847,,,,,,,2023-12-22,1,,,,,タキビ,0
1999,7250003003407,新規,0,2023-12-22,2023-12-22,合同会社Ａｎｄ．ｄｉｓｃｕｓｓｉｏｎ,,合同会社,山口県,防府市,国分寺町５番３－１号,,35,206,7470021,,,,,,,2023-12-22,1,,,,,アンドディスカッション,0
2002,7260001038585,新規,0,2023-12-22,2023-12-22,株式会社エルアールエフ,,株式会社,岡山県,津山市,小田中１３１４番地８クレインビル３Ｆ,,33,203,7080006,,,,,,,2023-12-22,1,,,,,エルアールエフ,0
2018,7290001104153,新規,0,2023-12-22,2023-12-22,ミヤガワホールディングス株式会社,,株式会社,福岡県,福岡市中央区,那の津３丁目１５番３号,,40,133,8100071,,,,,,,2023-12-22,1,,,,,ミヤガワホールディングス,0
2024,7290003014788,新規,0,2023-12-22,2023-12-22,合同会社ＴＩＳＳＥＲ,,合同会社,福岡県,福岡市中央区,渡辺通５丁目１６番１０－３０２号Ｆ－ＰＡＲＣＧＲＡＮＤＭＡＲＫ天神,,40,133,8100004,,,,,,,2023-12-22,1,,,,,ティセ,0
2026,7290801030160,新規,0,2023-12-22,2023-12-22,株式会社ＢＥＹＯＮＤ,,株式会社,福岡県,北九州市小倉北区,馬借３丁目７－１７浅香ＯＳＫ３Ｆ,,40,106,8020077,,,,,,,2023-12-22,1,,,,,ビヨンド,0
2028,7310001018763,新規,0,2023-12-22,2023-12-22,株式会社リワード,,株式会社,長崎県,諫早市,久山台１１,,42,204,8540067,,,,,,,2023-12-22,1,,,,,リワード,0
2040,7360001032958,新規,0,2023-12-22,2023-12-22,株式会社ＯｋｉｎａｗａＧａｔｅ,,株式会社,沖縄県,名護市,字宮里１００４番,,47,209,9050011,,,,,,,2023-12-22,1,,,,,オキナワゲート,0
2054,7430001090692,新規,0,2023-12-22,2023-12-22,ハイファイ株式会社,,株式会社,北海道,札幌市中央区,南十条西１０丁目２番５－３０３号,,01,101,0640810,,,,,,,2023-12-22,1,,,,,ハイファイ,0
2055,7430001090701,新規,0,2023-12-22,2023-12-22,株式会社さかきや,,株式会社,北海道,札幌市豊平区,豊平四条２丁目１番２０－９０３号,,01,105,0620904,,,,,,,2023-12-22,1,,,,,サカキヤ,0
2065,7460001005854,新規,0,2023-12-22,2023-12-22,株式会社総和住建,,株式会社,北海道,釧路市,星が浦大通５丁目６番３９号,,01,206,0840912,,,,,,,2023-12-22,1,,,,,ソウワジュウケン,0
2071,7700150122995,新規,0,2023-12-22,2023-12-22,Ｇｕａｎｇｚｈｏｕ　Ｓｈｉ　Ｃｈｅｎ　Ｚｅ　ＥＣｏｍｍｅｒｃｅ　Ｃｏ．，Ｌｔｄ,,外国会社等,,,,,,,,Ｐａｎｙｕｑｕ　Ｄａｓｈｉｊｉｅ　ＣｈｏｎｇｋｏｕｃｕｎＢｅｉｙｕａｎｊｉｅ　１８　Ｈａｏ　３　Ｌｏｕ　３０１ＧｕａｎｇｚｈｏｕＧｕａｎｇｄｏｎｇ５１１４３０ＣＮ,,,,,,2023-12-22,1,,,,,グワンジヨウシーチエンゾーデイエンズーシヤンウーヨウシエンゴンスー,0
2072,7700150123003,新規,0,2023-12-22,2023-12-22,ｈｅｎａｎｔｅｓｉｋａｉｗａｎｇｌｕｏｋｅｊｉ　ｙｏｕｘｉａｎｇｏｎｇｓｉ,,外国会社等,,,,,,,,ｚｈｅｎｇｄｏｎｇｘｉｎｑｕ　ｍｉｎｇｌｉｌｕｘｉｈｕｘｉｎｄａｏｌｕｄｏｎｇｚｈｅｎｇｓｈａｎｇｍｕｈｕａｇｕａｎｇｃｈａｎｇ３ｈａｏｌｏｕ１０ｃｅｎｇ１００２　Ｚｈｅｎｇｚｈｏｕｓｈｉ,,,,,,2023-12-22,1,,,,,カナンテシカイワンロカギユウゲンコウシ,0
2078,8010001240867,新規,0,2023-12-22,2023-12-22,株式会社ＹＫＬ本郷処分場,,株式会社,東京都,中央区,日本橋浜町２丁目７番１号小田ビル３Ｆ,,13,102,1030007,,,,,,,2023-12-22,1,,,,,ワイケイエルホンゴウショブンジョウ,0
2079,8010001241007,新規,0,2023-12-22,2023-12-22,スケールワイズ株式会社,,株式会社,東京都,中央区,銀座１丁目１６番７号銀座大栄ビル５階,,13,102,1040061,,,,,,,2023-12-22,1,,,,,スケールワイズ,0
2080,8010001241015,新規,0,2023-12-22,2023-12-22,株式会社桃江,,株式会社,東京都,文京区,大塚５丁目３７番７号,00133078,13,105,1120012,,,,,,,2023-12-22,1,,,,,トウコウ,0
2081,8010001241023,新規,0,2023-12-22,2023-12-22,株式会社ＴＥＲＥＳＡ,,株式会社,東京都,千代田区,神田和泉町１番地６－１６ヤマトビル４０５,,13,101,1010024,,,,,,,2023-12-22,1,,,,,テレサ,0
2082,8010001241031,新規,0,2023-12-22,2023-12-22,株式会社ツアーエンタープライズジャパン,,株式会社,東京都,千代田区,神田神保町１丁目２７番地阿部ビル２階,,13,101,1010051,,,,,,,2023-12-22,1,,,,,ツアーエンタープライズジャパン,0
2085,8010003042510,新規,0,2023-12-22,2023-12-22,合同会社ＭＯＭＯＡ,,合同会社,東京都,中央区,日本橋大伝馬町１２番１０－７０３号,,13,102,1030011,,,,,,,2023-12-22,1,,,,,モモア,0
2087,8010005037665,新規,0,2023-12-22,2023-12-22,一般社団法人オー・ティー・ツー,,その他の設立登記法人,東京都,千代田区,丸の内３丁目１番１号東京共同会計事務所内,,13,101,1000005,,,,,,,2023-12-22,1,,,,,オーティーツー,0
2089,8010103002281,新規,0,2023-12-22,2023-12-22,合同会社Ｅｑｕｌａｓ,,合同会社,東京都,八王子市,兵衛２丁目１９－１,,13,201,1920918,,,,,,,2023-12-22,1,,,,,エクラス,0
2100,8010401179202,新規,0,2023-12-22,2023-12-22,株式会社ＬａＬａＫａｒａ,,株式会社,東京都,港区,西麻布２丁目１３番１２号早野ビル７階,,13,103,1060031,,,,,,,2023-12-22,1,,,,,ララカラ,0
2101,8010401179318,新規,0,2023-12-22,2023-12-22,株式会社Ｎａｌｕ,,株式会社,東京都,港区,浜松町２丁目２番１５号浜松町ダイヤビル２Ｆ,,13,103,1050013,,,,,,,2023-12-22,1,,,,,ナル,0
2102,8010401179342,新規,0,2023-12-22,2023-12-22,株式会社ＢＰＣ,,株式会社,東京都,港区,六本木７丁目１７番２２－３０４号,,13,103,1060032,,,,,,,2023-12-22,1,,,,,ビーピーシー,0
2103,8010401179350,新規,0,2023-12-22,2023-12-22,株式会社営業学,,株式会社,東京都,港区,海岸１丁目７番１号東京ポートシティ竹芝オフィスタワー,,13,103,1050022,,,,,,,2023-12-22,1,,,,,エイギョウガク,0
2107,8010403031617,新規,0,2023-12-22,2023-12-22,ａｍｅｈａｒｅ合同会社,,合同会社,東京都,港区,六本木７丁目１０－１８,,13,103,1060032,,,,,,,2023-12-22,1,,,,,アメハレ,0
2114,8010803004791,新規,0,2023-12-22,2023-12-22,合同会社ＡＧＥ,,合同会社,東京都,大田区,池上７丁目１７番１５号,,13,111,1460082,,,,,,,2023-12-22,1,,,,,エージーイー,0
2115,8010901054400,新規,0,2023-12-22,2023-12-22,株式会社ティーケーワイ,,株式会社,東京都,世田谷区,東玉川１丁目３６番１０号,,13,112,1580084,,,,,,,2023-12-22,1,,,,,ティーケーワイ,0
2120,8011001159024,新規,0,2023-12-22,2023-12-22,株式会社ＩＮＧ,,株式会社,東京都,渋谷区,神宮前６丁目２３番４号桑野ビル２階,,13,113,1500001,,,,,,,2023-12-22,1,,,,,アイエヌジー,0
2121,8011001159040,新規,0,2023-12-22,2023-12-22,株式会社大きな手,,株式会社,東京都,渋谷区,渋谷２丁目１９番１５－６０９号,,13,113,1500002,,,,,,,2023-12-22,1,,,,,オオキナテ,0
2126,8011101105571,新規,0,2023-12-22,2023-12-22,株式会社ＧＵＭＩ７プロダクション,,株式会社,東京都,新宿区,新宿６丁目２７番２９－２１１７号,,13,104,1600022,,,,,,,2023-12-22,1,,,,,グミセブンプロダクション,0
2127,8011101105588,新規,0,2023-12-22,2023-12-22,株式会社ＲｅＡＲＥＳ,,株式会社,東京都,新宿区,西新宿６丁目１５番１－２９０８号,,13,104,1600023,,,,,,,2023-12-22,1,,,,,リアレス,0
2129,8011103013896,新規,0,2023-12-22,2023-12-22,合同会社ｅｌｍ,,合同会社,東京都,新宿区,西新宿３丁目３番１３号西新宿水間ビル２Ｆ,,13,104,1600023,,,,,,,2023-12-22,1,,,,,エルム,0
2140,8011501030139,新規,0,2023-12-22,2023-12-22,株式会社ペルビー,,株式会社,東京都,北区,上中里１丁目２３番２号,,13,117,1140016,,,,,,,2023-12-22,1,,,,,ペルビー,0
2141,8011505002596,新規,0,2023-12-22,2023-12-22,一般社団法人大和会,,その他の設立登記法人,東京都,北区,赤羽北２丁目１４番１３号,,13,117,1150052,,,,,,,2023-12-22,1,,,,,ヤマトカイ,0
2142,8011603004180,新規,0,2023-12-22,2023-12-22,合同会社陽なた家,,合同会社,東京都,練馬区,高野台３丁目２番１号,,13,120,1770033,,,,,,,2023-12-22,1,,,,,ヒナタヤ,0
2147,8011801043550,新規,0,2023-12-22,2023-12-22,ティーアシスト株式会社,,株式会社,東京都,葛飾区,奥戸２丁目３６番７号,,13,122,1240022,,,,,,,2023-12-22,1,,,,,ティーアシスト,0
2148,8011801043559,新規,0,2023-12-22,2023-12-22,株式会社ａｏ,,株式会社,東京都,葛飾区,西水元２丁目１３番２０号,,13,122,1250031,,,,,,,2023-12-22,1,,,,,アオ,0
2149,8012301013705,新規,0,2023-12-22,2023-12-22,株式会社ＰＥＡＣＥＦＵＬ　ＭＯＵＮＴＡＩＮ,,株式会社,東京都,町田市,小山ヶ丘２丁目７番地１０ライオンズ多摩境ステーションレジデンス３０１,,13,209,1940215,,,,,,,2023-12-22,1,,,,,ピースフルマウンテン,0
2153,8012403006342,新規,0,2023-12-22,2023-12-22,アイクラフト合同会社,,合同会社,東京都,府中市,若松町２丁目１１番の１サンパレス府中２０６,,13,206,1830005,,,,,,,2023-12-22,1,,,,,アイクラフト,0
2161,8020001155008,新規,0,2023-12-22,2023-12-22,真株式会社,,株式会社,神奈川県,横浜市戸塚区,汲沢８丁目２４番１号,,14,110,2450061,,,,,,,2023-12-22,1,,,,,シン,0
2162,8020001155016,新規,0,2023-12-22,2023-12-22,Ｂｅｇｉｎｎｅｒｓ　Ｔｅｃｈ株式会社,,株式会社,神奈川県,横浜市港北区,新横浜２丁目１７番１９号,,14,109,2220033,,,,,,,2023-12-22,1,,,,,ビギナーズテック,0
2163,8020001155024,新規,0,2023-12-22,2023-12-22,アドバンス・キド株式会社,,株式会社,神奈川県,横浜市西区,高島２丁目１１番２号スカイメナー横浜５１９,,14,103,2200011,,,,,,,2023-12-22,1,,,,,アドバンスキド,0
2164,8020001155032,新規,0,2023-12-22,2023-12-22,株式会社フォーシーズンズリアルティ,,株式会社,神奈川県,横浜市神奈川区,神之木町４番９号,,14,102,2210015,,,,,,,2023-12-22,1,,,,,フォーシーズンズリアルティ,0
2165,8020001155040,新規,0,2023-12-22,2023-12-22,ＳＭＤアセット株式会社,,株式会社,神奈川県,横浜市戸塚区,鳥が丘８４番地８,,14,110,2440001,,,,,,,2023-12-22,1,,,,,エスエムディーアセット,0
2171,8020003025241,新規,0,2023-12-22,2023-12-22,合同会社ＬＡＮＤ,,合同会社,神奈川県,川崎市宮前区,小台２丁目１０番地９メルベーユ宮前平１０２,,14,136,2160007,,,,,,,2023-12-22,1,,,,,ランド,0
2188,8030001157829,新規,0,2023-12-22,2023-12-22,株式会社ＮＥＷ　ＳＴＡＧＥ,,株式会社,埼玉県,入間市,宮寺３２８番地１,,11,225,3580014,,,,,,,2023-12-22,1,,,,,ニューステージ,0
2189,8030001157845,新規,0,2023-12-22,2023-12-22,株式会社ＭＩＴＳＵＢＡ　ＧＬＯＢＡＬ,,株式会社,埼玉県,川口市,東領家４丁目１０番２－３号,,11,203,3320003,,,,,,,2023-12-22,1,,,,,ミツバグローバル,0
2190,8030001157861,新規,0,2023-12-22,2023-12-22,株式会社アップライト,,株式会社,埼玉県,坂戸市,にっさい花みず木４丁目３－１,,11,239,3500269,,,,,,,2023-12-22,1,,,,,アップライト,0
2191,8030003023260,新規,0,2023-12-22,2023-12-22,湯浅エンタープライズ合同会社,,合同会社,埼玉県,さいたま市西区,大字佐知川１２６１番地８,,11,101,3310064,,,,,,,2023-12-22,1,,,,,ユアサエンタープライズ,0
2193,8030005021502,新規,0,2023-12-22,2023-12-22,一般社団法人ワイズ・ドリーム,,その他の設立登記法人,埼玉県,越谷市,相模町５丁目３３５番地１,,11,222,3430823,,,,,,,2023-12-22,1,,,,,ワイズドリーム,0
2202,8040001131460,新規,0,2023-12-22,2023-12-22,株式会社ＴＭＡ,,株式会社,千葉県,大網白里市,大網１６番地６,,12,239,2993251,,,,,,,2023-12-22,1,,,,,ティエムエイ,0
2203,8040001131477,新規,0,2023-12-22,2023-12-22,株式会社ＬＩＢＥＲ,,株式会社,千葉県,船橋市,小室町２８１９番地１７,,12,204,2701471,,,,,,,2023-12-22,1,,,,,リベル,0
2207,8040003023986,新規,0,2023-12-22,2023-12-22,合同会社ｈｉｙｏｒｉ,,合同会社,千葉県,八千代市,米本１６７７番地,,12,221,2760015,,,,,,,2023-12-22,1,,,,,ヒヨリ,0
2209,8050001054009,新規,0,2023-12-22,2023-12-22,ＳＹ株式会社,,株式会社,茨城県,稲敷郡阿見町,大字若栗１３０７－２１－４号室,,08,443,3000333,,,,,,,2023-12-22,1,,,,,エスワイ,0
2215,8060001036641,新規,0,2023-12-22,2023-12-22,株式会社ビジネスヒーローズ,,株式会社,栃木県,宇都宮市,鶴田町３６２４番地２７,,09,201,3200851,,,,,,,2023-12-22,1,,,,,ビジネスヒーローズ,0
2219,8080101024420,新規,0,2023-12-22,2023-12-22,株式会社カデットフロンティア,,株式会社,静岡県,御殿場市,保土沢１１５７番地の５４４,,22,215,4120046,,,,,,,2023-12-22,1,,,,,カデットフロンティア,0
2224,8090001018463,新規,0,2023-12-22,2023-12-22,株式会社山梨プロスポーツオフィス,,株式会社,山梨県,上野原市,上野原２００５－２,,19,212,4090112,,,,,,,2023-12-22,1,,,,,,0
2238,8120001260607,新規,0,2023-12-22,2023-12-22,ＭＩＲＡＩ　ＪＡＰＡＮ株式会社,,株式会社,大阪府,大阪市西区,新町１丁目３１番６号,,27,106,5500013,,,,,,,2023-12-22,1,,,,,ミライジャパン,0
2239,8120001260838,新規,0,2023-12-22,2023-12-22,株式会社華叶,,株式会社,大阪府,大阪市生野区,林寺５丁目７番２７号,,27,116,5440023,,,,,,,2023-12-22,1,,,,,カナウ,0
2240,8120001260854,新規,0,2023-12-22,2023-12-22,株式会社ｓｏｌａｎａ,,株式会社,大阪府,寝屋川市,萱島東１丁目１番１５号,,27,215,5720824,,,,,,,2023-12-22,1,,,,,ソラナ,0
2241,8120003025545,新規,0,2023-12-22,2023-12-22,合同会社Ｈａｒｕ　Ｈａｒｕ,,合同会社,大阪府,大阪市住吉区,山之内１丁目１１番２５号,,27,120,5580023,,,,,,,2023-12-22,1,,,,,,0
2242,8120003025594,新規,0,2023-12-22,2023-12-22,Ｆｅｘ　Ｊａｐａｎ合同会社,,合同会社,大阪府,大阪市都島区,友渕町３丁目７番２２号,,27,102,5340016,,,,,,,2023-12-22,1,,,,,フェックスジャパン,0
2243,8120005024058,新規,0,2023-12-22,2023-12-22,一般社団法人女性のお金と不動産相談室,,その他の設立登記法人,大阪府,大阪市北区,天神橋３丁目１０番４号３０３,,27,127,5300041,,,,,,,2023-12-22,1,,,,,ジョセイノオカネトフドウサンソウダンシツ,0
2248,8120901048523,新規,0,2023-12-22,2023-12-22,株式会社ｃａｎｏａ,,株式会社,大阪府,茨木市,駅前３丁目２番５号両泉ビル１階,,27,211,5670888,,,,,,,2023-12-22,1,,,,,カノア,0
2261,8140001132754,新規,0,2023-12-22,2023-12-22,株式会社ワンチーム,,株式会社,兵庫県,淡路市,育波５８４番地１,,28,226,6561602,,,,,,,2023-12-22,1,,,,,ワンチーム,0
2262,8140001132762,新規,0,2023-12-22,2023-12-22,株式会社タヒボラボ,,株式会社,兵庫県,西宮市,苦楽園二番町７番３５号,,28,204,6620082,,,,,,,2023-12-22,1,,,,,タヒボラボ,0
2263,8140001132779,新規,0,2023-12-22,2023-12-22,アルファエンジニアリング株式会社,,株式会社,兵庫県,川西市,東畦野山手２丁目３番４０号,,28,217,6660114,,,,,,,2023-12-22,1,,,,,アルファエンジニアリング,0
2264,8140001132787,新規,0,2023-12-22,2023-12-22,株式会社Ｂ２Ｌａｂ,,株式会社,兵庫県,伊丹市,野間北３丁目６－１６,,28,207,6640875,,,,,,,2023-12-22,1,,,,,ビーツーラボ,0
2267,8140003019958,新規,0,2023-12-22,2023-12-22,合同会社Ｙ＆Ｍ,,合同会社,兵庫県,西宮市,二見町１１番７号,,28,204,6638111,,,,,,,2023-12-22,1,,,,,ワイアンドエム,0
2268,8140003019974,新規,0,2023-12-22,2023-12-22,合同会社ＦＩＬＩＧＲＡＮ,,合同会社,兵庫県,加古川市,加古川町寺家町２４４番地の３５,,28,210,6750066,,,,,,,2023-12-22,1,,,,,フィリグラン,0
2269,8140005026853,新規,0,2023-12-22,2023-12-22,一般社団法人一休,,その他の設立登記法人,兵庫県,明石市,貴崎３丁目１４番１号,,28,203,6730037,,,,,,,2023-12-22,1,,,,,イッキュウ,0
2271,8160001025576,新規,0,2023-12-22,2023-12-22,株式会社ＬｅＰＲＯ,,株式会社,滋賀県,東近江市,上平木町１７番地１６,,25,213,5270086,,,,,,,2023-12-22,1,,,,,レプロ,0
2275,8180001159463,新規,0,2023-12-22,2023-12-22,魚太郎３株式会社,,株式会社,愛知県,知多郡美浜町,大字豊丘字原子３２番地の１,,23,446,4702414,,,,,,,2023-12-22,1,,,,,ウタロウサン,0
2282,8180305009538,新規,0,2023-12-22,2023-12-22,医療法人スター,,その他の設立登記法人,愛知県,豊橋市,多米西町１丁目２１番地の１,,23,201,4400026,,,,,,,2023-12-22,1,,,,,スター,0
2295,8240001062578,新規,0,2023-12-22,2023-12-22,株式会社Ｅｓｈａｔｃｈ,,株式会社,広島県,広島市西区,楠木町２丁目１番４－１０１号,,34,104,7330002,,,,,,,2023-12-22,1,,,,,イースハッチ,0
2303,8280001009088,新規,0,2023-12-22,2023-12-22,株式会社リベルタプラン,,株式会社,島根県,松江市,乃白町１０１１番地１,,32,201,6900045,,,,,,,2023-12-22,1,,,,,,0
2314,8290001104144,新規,0,2023-12-22,2023-12-22,株式会社ジーエイチ,,株式会社,福岡県,福岡市中央区,渡辺通２丁目１番２７－５０６号,,40,133,8100004,,,,,,,2023-12-22,1,,,,,ジーエイチ,0
2315,8290001104160,新規,0,2023-12-22,2023-12-22,株式会社共立サービス,,株式会社,福岡県,大野城市,南ケ丘４丁目１０番１８号,,40,219,8160964,,,,,,,2023-12-22,1,,,,,キョウリツサービス,0
2324,8320001020197,新規,0,2023-12-22,2023-12-22,株式会社Ｐｒｏ　Ｔａｓｋ,,株式会社,大分県,大分市,羽屋新町３丁目２番２０号,,44,201,8700853,,,,,,,2023-12-22,1,,,,,プロタスク,0
2326,8320003004264,新規,0,2023-12-22,2023-12-22,合同会社Ｋ．ｃｏｎｎｅｃｔｉｏｎ,,合同会社,大分県,大分市,高崎４丁目２０－４,,44,201,8700872,,,,,,,2023-12-22,1,,,,,ケイコネクション,0
2327,8320005010120,新規,0,2023-12-22,2023-12-22,医療法人みのり歯科クリニック,,その他の設立登記法人,大分県,大分市,大字上宗方１０８４,,44,201,8701152,,,,,,,2023-12-22,1,,,,,ミノリシカクリニック,0
2338,8350001018718,新規,0,2023-12-22,2023-12-22,株式会社都城サウナ研究所,,株式会社,宮崎県,都城市,夏尾町６１８６番地,,45,202,8850225,,,,,,,2023-12-22,1,,,,,ミヤコノジョウサウナケンキュウショ,0
2339,8350005006198,新規,0,2023-12-22,2023-12-22,一般社団法人ザ・プロフェッショナルズ,,その他の設立登記法人,宮崎県,延岡市,紺屋町２丁目４番地７号,,45,203,8820047,,,,,,,2023-12-22,1,,,,,ザプロフェッショナルズ,0
2341,8360001032957,新規,0,2023-12-22,2023-12-22,株式会社グロウアップサポート,,株式会社,沖縄県,浦添市,字経塚４４１番地,,47,208,9012111,,,,,,,2023-12-22,1,,,,,グロウアップサポート,0
2352,8400003003191,新規,0,2023-12-22,2023-12-22,合同会社土縁,,合同会社,岩手県,盛岡市,前九年２丁目１６番３０号,,03,201,0200127,,,,,,,2023-12-22,1,,,,,ツチエン,0
2359,8430001090691,新規,0,2023-12-22,2023-12-22,株式会社川口塗装組合,,株式会社,北海道,札幌市北区,新川二条７丁目１番８号,,01,102,0010922,,,,,,,2023-12-22,1,,,,,カワグチトソウクミアイ,0
2360,8430001090709,新規,0,2023-12-22,2023-12-22,株式会社ＲＥＣＨＡＮＣＥ,,株式会社,北海道,札幌市中央区,南五条西１５丁目２－３リズム医大前５０３号室,,01,101,0640805,,,,,,,2023-12-22,1,,,,,リチャンス,0
2366,8470001019951,新規,0,2023-12-22,2023-12-22,株式会社タキ企画,,株式会社,香川県,高松市,太田下町２３１３番地１１,,37,201,7618073,,,,,,,2023-12-22,1,,,,,タキキカク,0
2369,8700150122994,新規,0,2023-12-22,2023-12-22,ｙｉ　ｗｕ　ｓｈｉ　ｘｉｎｇ　ｊｉａｎ　ｆｕ　ｓｈｉ　ｙｏｕ　ｘｉａｎ　ｇｏｎｇ　ｓｉ,,外国会社等,,,,,,,,ｚｈｅ　ｊｉａｎｇ　ｓｈｅｎｇ　ｊｉｎ　ｈｕａ　ｓｈｉ　ｙｉ　ｗｕ　ｓｈｉ　ｂｅｉ　ｙｕａｎ　ｊｉｅ　ｄａｏ　ｈｕａｎ　ｃｈｅｎｇ　ｘｉ　ｌｕ　Ｄ２６０　ｈａｏ　５　ｌｏｕ　５０３　ｓｈｉ,,,,,,2023-12-22,1,,,,,イーウーシーシンジエンフーシーヨウシエンゴンスー,0
2370,8700150123002,新規,0,2023-12-22,2023-12-22,Ｓｈｅｎｚｈｅｎ　Ｊａｄｅ　Ａｐｐｌｅ　Ｔｅｃｈｎｏｌｏｇｙ　Ｃｏ．，Ｌｔｄ．,,外国会社等,,,,,,,,ＢａｏＡｎＱｕＸｉＸｉａｎｇＪｉｅＤａｏＨａｉＣｈｅｎｇＬｕＨａｉＣｈｅｎｇＸｉｎＣｈｅｎｇ　３Ｑｕ８６Ｈａｏ　ＳｈｅｎＺｈｅｎＳｈｉ,,,,,,2023-12-22,1,,,,,シンセンジエイドアツプルテクノロジーカンパニーリミテツド,0
2371,8700150123035,新規,0,2023-12-22,2023-12-22,ＳＨＩ　ＬＥＪＯＣＨＩ　ＴＲＡＤＩＮＧ　Ｐ　Ｌ　Ｃ,,外国会社等,千葉県,千葉市花見川区,検見川町３丁目３１８番地１３ハイツグローリー２０２号,,12,102,2620023,エチオピア連邦民主共和国、アディスアベバ、イエカサブシティ、ウォレダ０２、ハウスＮｏ．２４４１,,,,,,2023-12-22,1,,,,,シレジヨシトレーデイングピーエルシー,0
2372,8700150123043,新規,0,2023-12-22,2023-12-22,Ｇｕａｎｇｚｈｏｕ　Ｌｉｃｈｅｎ　Ｔｅｃｈｎｏｌｏｇｙ　Ｃｏ．,,外国会社等,,,,,,,,Ｒｏｏｍ　５２３，Ｎｏ．９６　Ｑｉｆｕ　Ｒｏａｄ，Ｙｕｎｃｈｅｎｇ　Ｓｔｒｅｅｔ，Ｂａｉｙｕｎ　Ｄｉｓｔｒｉｃｔ，Ｇｕａｎｇｚｈｏｕ,,,,,,2023-12-22,1,,,,,グワンジョウリーチェンコージーヨウシエンゴンスー,0
2380,9010001240940,新規,0,2023-12-22,2023-12-22,株式会社エーケー,,株式会社,東京都,中央区,勝どき５丁目１０番１０－３０５号,,13,102,1040054,,,,,,,2023-12-22,1,,,,,エーケー,0
2381,9010001240998,新規,0,2023-12-22,2023-12-22,株式会社プライズワン,,株式会社,東京都,千代田区,神田相生町１番地秋葉原センタープレイスビル１階,,13,101,1010029,,,,,,,2023-12-22,1,,,,,プライズワン,0
2382,9010001241006,新規,0,2023-12-22,2023-12-22,株式会社アップデート,,株式会社,東京都,中央区,晴海３丁目１３番２号ＤＥＵＸ・ＴＯＵＲＳ・ＷＥＳＴ３１０１,,13,102,1040053,,,,,,,2023-12-22,1,,,,,アップデート,0
2383,9010001241014,新規,0,2023-12-22,2023-12-22,株式会社クラフトビールインク,,株式会社,東京都,中央区,築地６丁目３番８号,,13,102,1040045,,,,,,,2023-12-22,1,,,,,クラフトビールインク,0
2384,9010001241022,新規,0,2023-12-22,2023-12-22,一蔵株式会社,,株式会社,東京都,千代田区,神田佐久間町３丁目３８第５東ビル５Ｆ,,13,101,1010025,,,,,,,2023-12-22,1,,,,,イチクラ,0
2385,9010001241030,新規,0,2023-12-22,2023-12-22,株式会社サンライズ,,株式会社,東京都,文京区,白山２丁目２４番７号,,13,105,1120001,,,,,,,2023-12-22,1,,,,,サンライズ,0
2386,9010001241063,新規,0,2023-12-22,2023-12-22,株式会社カルダモン,,株式会社,東京都,中央区,銀座３丁目５番８号,,13,102,1040061,,,,,,,2023-12-22,1,,,,,カルダモン,0
2388,9010003042518,新規,0,2023-12-22,2023-12-22,合同会社レッドリボン,,合同会社,東京都,中央区,佃２丁目２番１０－３４０１号,,13,102,1040051,,,,,,,2023-12-22,1,,,,,レッドリボン,0
2389,9010005037656,新規,0,2023-12-22,2023-12-22,一般社団法人当道音楽保存会,,その他の設立登記法人,東京都,文京区,小石川５丁目１３番１２号,,13,105,1120002,,,,,,,2023-12-22,1,,,,,トウドウオンガクホゾンカイ,0
2390,9010005037664,新規,0,2023-12-22,2023-12-22,一般社団法人ガーネットホールディングス,,その他の設立登記法人,東京都,千代田区,丸の内３丁目１番１号東京共同会計事務所内,,13,101,1000005,,,,,,,2023-12-22,1,,,,,ガーネットホールディングス,0
2398,9010401179317,新規,0,2023-12-22,2023-12-22,株式会社ＳＥＡＳＩＤＥ,,株式会社,東京都,港区,六本木７丁目６番２号１階,,13,103,1060032,,,,,,,2023-12-22,1,,,,,シーサイド,0
2399,9010401179341,新規,0,2023-12-22,2023-12-22,株式会社ＨＩＫＡＲＵ　ＬＡＢ,,株式会社,東京都,港区,浜松町２丁目２番１５号浜松町ダイヤビル２Ｆ,,13,103,1050013,,,,,,,2023-12-22,1,,,,,ヒカルラボ,0
2400,9010401179358,新規,0,2023-12-22,2023-12-22,株式会社好鷹,,株式会社,東京都,港区,港南２丁目１０番２３－７１０号,,13,103,1080075,,,,,,,2023-12-22,1,,,,,ヨシタカ,0
2401,9010401179374,新規,0,2023-12-22,2023-12-22,株式会社ガクセイ協賛,,株式会社,東京都,港区,六本木６丁目１０番１号六本木ヒルズ森タワー１７階,,13,103,1060032,,,,,,,2023-12-22,1,,,,,ガクセイキョウサン,0
2406,9010403031624,新規,0,2023-12-22,2023-12-22,合同会社ＣＬＡＭＴＥＣＨ,,合同会社,東京都,港区,南青山３丁目１番３６号青山丸竹ビル６Ｆ,,13,103,1070062,,,,,,,2023-12-22,1,,,,,クラムテック,0
2407,9010501051540,新規,0,2023-12-22,2023-12-22,エストプラン株式会社,,株式会社,東京都,台東区,東上野３丁目１８番１号２０４号室,,13,106,1100015,,,,,,,2023-12-22,1,,,,,エストプラン,0
2411,9010603010543,新規,0,2023-12-22,2023-12-22,合同会社ＵＰ,,合同会社,東京都,江東区,豊洲３丁目６－８,,13,108,1350061,,,,,,,2023-12-22,1,,,,,アップ,0
2417,9010803004790,新規,0,2023-12-22,2023-12-22,合同会社ＬＩＢＲＡ,,合同会社,東京都,大田区,南久が原２丁目２４番７号,,13,111,1460084,,,,,,,2023-12-22,1,,,,,リブラ,0
2421,9010901054416,新規,0,2023-12-22,2023-12-22,株式会社ハウシエ,,株式会社,東京都,世田谷区,北沢３丁目２番１１号レガーロ東北沢３－７,,13,112,1550031,,,,,,,2023-12-22,1,,,,,ハウシエ,0
2422,9010901054424,新規,0,2023-12-22,2023-12-22,イーリャ株式会社,,株式会社,東京都,世田谷区,若林２丁目４０番９号,,13,112,1540023,,,,,,,2023-12-22,1,,,,,イーリャ,0
2423,9010903008675,新規,0,2023-12-22,2023-12-22,ＲＥＶＩＴＡＬ２１合同会社,,合同会社,東京都,世田谷区,成城２丁目３１－５成城第一マンションズ２０１,,13,112,1570066,,,,,,,2023-12-22,1,,,,,リバイタルトゥエンティワン,0
2424,9011001158685,新規,0,2023-12-22,2023-12-22,株式会社ＭＩＤ不動産,,株式会社,東京都,渋谷区,恵比寿南１丁目１番１号ヒューマックス恵比寿ビル７Ｆ７２７号室,,13,113,1500022,,,,,,,2023-12-22,1,,,,,エムアイディーフドウサン,0
2425,9011001159007,新規,0,2023-12-22,2023-12-22,株式会社ブルーアップル,,株式会社,東京都,渋谷区,恵比寿西２丁目８番４号ＥＸ恵比寿西ビル５階,,13,113,1500021,,,,,,,2023-12-22,1,,,,,ブルーアップル,0
2426,9011001159023,新規,0,2023-12-22,2023-12-22,Ｎｙｘ株式会社,,株式会社,東京都,渋谷区,神宮前１丁目２０番４号,,13,113,1500001,,,,,,,2023-12-22,1,,,,,エヌワイエックス,0
2428,9011101105587,新規,0,2023-12-22,2023-12-22,株式会社カラン,,株式会社,東京都,新宿区,西新宿３丁目３番１３号西新宿水間ビル６階,,13,104,1600023,,,,,,,2023-12-22,1,,,,,カラン,0
2429,9011101105595,新規,0,2023-12-22,2023-12-22,株式会社ゴールドビーンズ,,株式会社,東京都,新宿区,南元町１４番地２プレミアスイート外苑の杜３０８,,13,104,1600012,,,,,,,2023-12-22,1,,,,,ゴールドビーンズ,0
2430,9011101105604,新規,0,2023-12-22,2023-12-22,株式会社Ｓａｌｚ　Ｊａｐａｎ,,株式会社,東京都,新宿区,西新宿６丁目１１番３号ｄマークス西新宿タワー２８０１,,13,104,1600023,,,,,,,2023-12-22,1,,,,,サルズジャパン,0
2433,9011103013895,新規,0,2023-12-22,2023-12-22,未来エネルギー１合同会社,,合同会社,東京都,新宿区,南元町２０番地３ガーデンヒルズ四ツ谷迎賓の森２１４,,13,104,1600012,,,,,,,2023-12-22,1,,,,,,0
2436,9011301029264,新規,0,2023-12-22,2023-12-22,祐工業株式会社,,株式会社,東京都,杉並区,堀ノ内２丁目３２番２６号,,13,115,1660013,,,,,,,2023-12-22,1,,,,,,0
2437,9011303005008,新規,0,2023-12-22,2023-12-22,合同会社はらぺこ,,合同会社,東京都,杉並区,西荻北３丁目２１番１６号,,13,115,1670042,,,,,,,2023-12-22,1,,,,,ハラペコ,0
2438,9011501030121,新規,0,2023-12-22,2023-12-22,ＨＧＣ　Ｉｎｔｅｒｎａｔｉｏｎａｌ株式会社,,株式会社,東京都,北区,西ケ原１丁目２７番３－１０１号,,13,117,1140024,,,,,,,2023-12-22,1,,,,,エイチジーシーインターナショナル,0
2439,9011503005897,新規,0,2023-12-22,2023-12-22,合同会社ＭＣＩ,,合同会社,東京都,北区,赤羽南１丁目５番７号,,13,117,1150044,,,,,,,2023-12-22,1,,,,,エムシーアイ,0
2443,9011801043566,新規,0,2023-12-22,2023-12-22,ＭＩＺＵ株式会社,,株式会社,東京都,足立区,入谷３丁目１４番１４号,,13,121,1210836,,,,,,,2023-12-22,1,,,,,ミズ,0
2452,9012401041357,新規,0,2023-12-22,2023-12-22,株式会社ＯＮＥ,,株式会社,東京都,三鷹市,中原２丁目２５番２１号,,13,204,1810005,,,,,,,2023-12-22,1,,,,,オーエヌイー,0
2454,9012701018006,新規,0,2023-12-22,2023-12-22,株式会社ネクストキャリアコンサルティング,,株式会社,東京都,西東京市,田無町１丁目２番２４－２０８号,,13,229,1880011,,,,,,,2023-12-22,1,,,,,ネクストキャリアコンサルティング,0
2467,9020001154990,新規,0,2023-12-22,2023-12-22,株式会社ＯＮＥ,,株式会社,神奈川県,横浜市西区,浅間町１丁目４番地３ウィザードビル４０２,,14,103,2200072,,,,,,,2023-12-22,1,,,,,ワン,0
2468,9020001155015,新規,0,2023-12-22,2023-12-22,株式会社ｈａｌｋａ,,株式会社,神奈川県,横浜市保土ケ谷区,瀬戸ケ谷町２１２番地リエス横浜保土ケ谷２０５号,,14,106,2400024,,,,,,,2023-12-22,1,,,,,ハルカ,0
2469,9020001155023,新規,0,2023-12-22,2023-12-22,株式会社Ｄ．ｕｎｉｔｅｄ,,株式会社,神奈川県,川崎市川崎区,大島５丁目６番１２号２号棟,,14,131,2100834,,,,,,,2023-12-22,1,,,,,ディーユナイテッド,0
2477,9020003025232,新規,0,2023-12-22,2023-12-22,合同会社ｅｃｌａｔｔｅ,,合同会社,神奈川県,横浜市西区,中央２丁目１３番１号ネクサージュ王子２０５,,14,103,2200051,,,,,,,2023-12-22,1,,,,,エクランテ,0
2478,9020003025240,新規,0,2023-12-22,2023-12-22,Ｓｎｏｗ合同会社,,合同会社,神奈川県,川崎市宮前区,有馬７丁目５番１５－４０２号クルールセデュクシオン,,14,136,2160003,,,,,,,2023-12-22,1,,,,,スノー,0
2483,9030001157803,新規,0,2023-12-22,2023-12-22,Ｔ＆Ｈグローバル株式会社,,株式会社,埼玉県,川口市,上青木３丁目１番４コーポ青木Ｂ１,,11,203,3330844,,,,,,,2023-12-22,1,,,,,ティーアンドエイチグローバル,0
2484,9030001157836,新規,0,2023-12-22,2023-12-22,株式会社ＯＮＥＳ,,株式会社,埼玉県,八潮市,大瀬４丁目２８－６クオレリッコ２０１,,11,234,3400822,,,,,,,2023-12-22,1,,,,,ワンズ,0
2485,9030001157844,新規,0,2023-12-22,2023-12-22,株式会社澤偉商事,,株式会社,埼玉県,越谷市,花田７丁目９－１メゾンラフォーレＩＩ３０５,00133088,11,222,3430015,,,,,,,2023-12-22,1,,,,,サワイショウジ,0
2488,9030003023268,新規,0,2023-12-22,2023-12-22,合同会社ＡＲＴＳ　ＨＡＩＲ,,合同会社,埼玉県,さいたま市浦和区,東仲町１１番１４－１階,,11,107,3300056,,,,,,,2023-12-22,1,,,,,アルトスヘアー,0
2494,9040001131427,新規,0,2023-12-22,2023-12-22,竹南株式会社,,株式会社,千葉県,印旛郡栄町,酒直１２６番地,,12,329,2701513,,,,,,,2023-12-22,1,,,,,チクナン,0
2495,9040001131476,新規,0,2023-12-22,2023-12-22,ＴＯＳＨＩＮ株式会社,,株式会社,千葉県,我孫子市,本町２丁目２番２４号－５０２号,,12,222,2701151,,,,,,,2023-12-22,1,,,,,トウシン,0
2498,9050001054008,新規,0,2023-12-22,2023-12-22,Ｍ＆Ｎ株式会社,,株式会社,茨城県,稲敷郡阿見町,大字若栗１３０７－２１－６号室,,08,443,3000333,,,,,,,2023-12-22,1,,,,,エムアンドエヌ,0
2501,9060001036640,新規,0,2023-12-22,2023-12-22,株式会社エルプライム,,株式会社,栃木県,宇都宮市,雀の宮４丁目２３番４５号,,09,201,3210132,,,,,,,2023-12-22,1,,,,,エルプライム,0
2502,9060001036649,新規,0,2023-12-22,2023-12-22,株式会社コトラ牧場,,株式会社,栃木県,足利市,堀込町１４０３番地,,09,202,3260831,,,,,,,2023-12-22,1,,,,,コトラボクジョウ,0
2503,9060001036657,新規,0,2023-12-22,2023-12-22,株式会社ＬＳ,,株式会社,栃木県,宇都宮市,末広１丁目１番１４号,,09,201,3210144,,,,,,,2023-12-22,1,,,,,エルエス,0
2507,9080001026045,新規,0,2023-12-22,2023-12-22,エスワイ１号株式会社,,株式会社,静岡県,静岡市清水区,草薙北２番１号,,22,103,4240883,,,,,,,2023-12-22,1,,,,,エスワイイチゴウ,0
2529,9120001260845,新規,0,2023-12-22,2023-12-22,株式会社ＭＹＫＡ,,株式会社,大阪府,大阪市西区,京町堀１丁目１６番８号７階,,27,106,5500003,,,,,,,2023-12-22,1,,,,,マイカ,0
2537,9120103005594,新規,0,2023-12-22,2023-12-22,合同会社青空,,合同会社,大阪府,堺市中区,土塔町７９番地５土塔クリスタル３０３号室,,27,142,5998234,,,,,,,2023-12-22,1,,,,,アオゾラ,0
2539,9120901048522,新規,0,2023-12-22,2023-12-22,日型精工株式会社,,株式会社,大阪府,豊中市,庄内宝町３丁目２番１０号,,27,203,5610836,,,,,,,2023-12-22,1,,,,,ニッケイセイコウ,0
2540,9120901048539,新規,0,2023-12-22,2023-12-22,株式会社アドバンス,,株式会社,大阪府,箕面市,牧落５丁目１８番２０号,,27,220,5620004,,,,,,,2023-12-22,1,,,,,アドバンス,0
2549,9140001132753,新規,0,2023-12-22,2023-12-22,株式会社あゆみプランニング,,株式会社,兵庫県,神戸市中央区,中山手通４丁目１８番２８号,,28,110,6500004,,,,,,,2023-12-22,1,,,,,アユミプランニング,0
2550,9140001132761,新規,0,2023-12-22,2023-12-22,Ａｖａｎｃｅ株式会社,,株式会社,兵庫県,姫路市,飾磨区阿成下垣内１１３７番地１,,28,201,6728059,,,,,,,2023-12-22,1,,,,,アバンス,0
2551,9140001132786,新規,0,2023-12-22,2023-12-22,株式会社Ｆｏｒ　Ｔｏ　Ｆｏｒ,,株式会社,兵庫県,西宮市,前浜町１０番８号,,28,204,6620931,,,,,,,2023-12-22,1,,,,,フォートゥーフォー,0
2556,9140003019965,新規,0,2023-12-22,2023-12-22,ＧＥＭ　ＭＯＴＯＲ合同会社,,合同会社,兵庫県,神戸市須磨区,妙法寺字口ノ川２１番地の８３,,28,107,6540121,,,,,,,2023-12-22,1,,,,,ジーイーエムモーター,0
2561,9170001017943,新規,0,2023-12-22,2023-12-22,創健株式会社,,株式会社,和歌山県,新宮市,新宮４５２７番地の４,,30,207,6470081,,,,,,,2023-12-22,1,,,,,ソウケン,0
2565,9180001159470,新規,0,2023-12-22,2023-12-22,株式会社ＩＤＥＡ,,株式会社,愛知県,名古屋市中川区,中須町１０番地,,23,110,4540925,,,,,,,2023-12-22,1,,,,,イデア,0
2566,9180001159487,新規,0,2023-12-22,2023-12-22,株式会社ＧＯＯＤ　ＣＯＭＰＡＮＹ,,株式会社,愛知県,日進市,藤島町寺下甲２９番地,,23,230,4700102,,,,,,,2023-12-22,1,,,,,グッドカンパニー,0
2568,9180003026149,新規,0,2023-12-22,2023-12-22,合同会社坂好恵,,合同会社,愛知県,東海市,高横須賀町５丁目１２２番地ウィル・Ｍ,,23,222,4770037,,,,,,,2023-12-22,1,,,,,バンヨシエ,0
2576,9180301038151,新規,0,2023-12-22,2023-12-22,株式会社彩葉,,株式会社,愛知県,豊橋市,小島町字南島１６３番地の１１,,23,201,4413122,,,,,,,2023-12-22,1,,,,,イロハ,0
2588,9240001062577,新規,0,2023-12-22,2023-12-22,株式会社土居内装,,株式会社,広島県,福山市,幕山台６丁目２７番２１号,,34,207,7210913,,,,,,,2023-12-22,1,,,,,ドイナイソウ,0
2606,9290001104143,新規,0,2023-12-22,2023-12-22,ｔｈｒｅｅ株式会社,,株式会社,福岡県,福岡市博多区,下川端町９－１５溝口ビル行の町テラス２０４,,40,132,8120027,,,,,,,2023-12-22,1,,,,,スリー,0
2607,9290001104151,新規,0,2023-12-22,2023-12-22,株式会社ａｌｌｉａｎｃｅ,,株式会社,福岡県,福岡市博多区,上牟田１丁目７番２０号,,40,132,8120006,,,,,,,2023-12-22,1,,,,,,0
2610,9290003014778,新規,0,2023-12-22,2023-12-22,合同会社ＬＥＧＡＭＥ,,合同会社,福岡県,福岡市中央区,白金２丁目１３番２８－３０１号,,40,133,8100012,,,,,,,2023-12-22,1,,,,,レガーメ,0
2615,9320001020196,新規,0,2023-12-22,2023-12-22,株式会社Ｓｉｌｔａ,,株式会社,大分県,別府市,上田の湯町７番地２７号安部店舗７号室,,44,202,8740908,,,,,,,2023-12-22,1,,,,,シルタ,0
2616,9320003004263,新規,0,2023-12-22,2023-12-22,上海らーめん合同会社,,合同会社,大分県,大分市,府内町１丁目６－４２ＬＨＡＳＡビル１階,,44,201,8700021,,,,,,,2023-12-22,1,,,,,シャンハイラーメン,0
2618,9330003010137,新規,0,2023-12-22,2023-12-22,合同会社ＫＵＳＵ,,合同会社,熊本県,熊本市北区,武蔵ケ丘８丁目５番４４号,,43,105,8618001,,,,,,,2023-12-22,1,,,,,クス,0
2623,9350001018725,新規,0,2023-12-22,2023-12-22,株式会社白甘海老販売,,株式会社,宮崎県,串間市,西浜１丁目１０番地７,,45,207,8880012,,,,,,,2023-12-22,1,,,,,シロアマエビハンバイ,0
2625,9350003004533,新規,0,2023-12-22,2023-12-22,合同会社Ｌｉｍ,,合同会社,宮崎県,都城市,菓子野町９３６６番地１,,45,202,8850111,,,,,,,2023-12-22,1,,,,,リム,0
2628,9360001032980,新規,0,2023-12-22,2023-12-22,株式会社ＫＯＷＡ,,株式会社,沖縄県,石垣市,美崎町９番地２,,47,207,9070012,,,,,,,2023-12-22,1,,,,,コーワ,0
2630,9370001050767,新規,0,2023-12-22,2023-12-22,株式会社Ａｅｒｕ,,株式会社,宮城県,仙台市若林区,卸町４丁目３番１号中央棟１階,,04,103,9840015,,,,,,,2023-12-22,1,,,,,アエル,0
2635,9400001016500,新規,0,2023-12-22,2023-12-22,株式会社ＯＫＵ,,株式会社,岩手県,盛岡市,本町通２丁目７番１号プラザ本町イースト５０５,,03,201,0200015,,,,,,,2023-12-22,1,,,,,オク,0
2637,9410001013678,新規,0,2023-12-22,2023-12-22,株式会社ｍ‐ｔｅａｍ,,株式会社,秋田県,秋田市,中通４丁目１番２号秋田スクエアビル６Ｆ－Ｃ号室,,05,201,0100001,,,,,,,2023-12-22,1,,,,,エムチーム,0
2645,9430001090682,新規,0,2023-12-22,2023-12-22,ニセコ海鮮丼株式会社,,株式会社,北海道,札幌市豊平区,豊平四条３丁目１番１号,,01,105,0620904,,,,,,,2023-12-22,1,,,,,ニセコカイセンドン,0
2655,9700150117762,新規,0,2023-12-22,2023-12-22,ＱｉｎｇＹｕａｎ　ＳｈｕＺｉＹｕｅＤｏｎｇＫｅＪｉ　ＹｏｕＸｉａｎＧｏｎｇＳｉ,,外国会社等,,,,,,,,ＸｉｎＣｈｅｎｇＹｉｎＱｕａｎＢｅｉＬｕＱｉＨａｏ　ＱｉｎｇＹｕａｎＳｈｉ　ＹｏｕＺｈｅｎＪｕ，ＳｈｅｎｇＣｈｅｎＬｏｕ（ＪｉＭａＹｉＳｈｕＺｉＪｉｎｇＪｉＹｕａｎ）ＳｉＣｅｎｇ４３５Ｈａｏ　ＱｉｎｇＹｕａｎＳｈｉ，ＧｕａｎｇＤｏｎｇＳｈｅｎｇ,,,,,,2023-12-22,1,,,,,チンユェンシュズユエドンクージヨウシエンゴンス,0
2656,9700150122993,新規,0,2023-12-22,2023-12-22,Ｓｈｅｎ　ｚｈｅｎ　Ｙｉ　ｍａ　Ｔｒａｄｉｎｇ　Ｃｏｍｐａｎｙ　Ｌｔｄ,,外国会社等,,,,,,,,ＳｈｅｎＺｈｅｎ　ＬｏｎｇＧａｎｇ　ＢａｎＴｉａｎ　Ｓｔｒｅｅｔ　ＭａＡｎＴａｎｇ　Ｃｏｍｍｕｎｉｔｙ　ＢｕＬｏｎｇ　Ｒｏａｄ　ＮＯ．２２７　ＧｅＴａｉＬｏｎｇ　Ｉｎｄｕｓｔｒｉａｌ　Ｐａｒｋ　ＢｕｉｌｄｉｎｇＣ　４Ｆｌｏｏｒ　４０６Ａ,,,,,,2023-12-22,1,,,,,シエンジエンシーイーマーマオイーヨウシエンゴンスー,0
2657,9700150123001,新規,0,2023-12-22,2023-12-22,Ｓｈｅｎｚｈｅｎ　Ｚｈｏｎｇｋｅｒｕｉ　Ｅｌｅｃｔｒｏｎｉｃｓ　Ｃｏ．，Ｌｔｄ,,外国会社等,,,,,,,,ＦＡＣＴＯＲＹ　ＢＬＤＧ　５０１，２ＮＤ　ＩＮＤＵＳＴＲＩＡＬ　ＰＡＲＫＮＡＮＫＥＮＧ，ＢＡＮＴＩＡＮ　ＳＴＲＥＥＴ，ＬＯＮＧＧＡＮＧ　ＤＩＳＴ，ＳＨＥＮＺＨＥＮＧＵＡＮＧＤＯＮＧ,,,,,,2023-12-22,1,,,,,シエンジエンシージヨンコールイデイエンズーヨウシエンゴンスー,0
2658,9700150123034,新規,0,2023-12-22,2023-12-22,Ｗｅｌｌｔｅｃｈ　Ａｐｐｓ　Ｌｉｍｉｔｅｄ,,外国会社等,,,,,,,,Ｋａｒａｉｓｋａｋｉ　１３，３０３２，Ｌｉｍａｓｓｏｌ，Ｃｙｐｒｕｓ,,,,,,2023-12-22,1,,,,,ウエルテツクアツプスリミテツド,0
2659,9700150123042,新規,0,2023-12-22,2023-12-22,Ｗｅｉｈａｉ　Ｘｉｎｃｈｕａｎｇ　ｈｕｗａｉｙｏｎｇｐｉｎｙｏｕｘｉａｎｇｏｎｇｓｉ,,外国会社等,,,,,,,,ｈｕａｎｃｕｉｑｕ　ｙａｎｇｔｉｎｇｚｈｅｎ　ｈｅｘｉｎｇｌｕｆｕ７９－１４ｈａｏＷｅｉｈａｉｓｈｉＳｈａｎｄｏｎｇ２６４２００ＣＮ,,,,,,2023-12-22,1,,,,,ウェイハイシンチュワンフーワイヨンピンヨウシエンゴンスー,0
