sequenceNumber,corporateNumber,process,correct,updateDate,changeDate,name,nameImageId,kind,prefectureName,cityName,streetNumber,addressImageId,prefectureCode,cityCode,postCode,addressOutside,addressOutsideImageId,closeDate,closeCause,successorCorporateNumber,changeCause,assignmentDate,latest,enName,enPrefectureName,enCityName,enAddressOutside,furigana,hihyoji
4,1010001072540,登記記録の閉鎖等,0,2022-08-16,2022-08-09,株式会社セントラルコーポレーション,,株式会社,東京都,世田谷区,桜新町１丁目３６番３号,,13,112,1540015,,,2022-08-09,清算の結了等,,,2015-10-05,1,,,,,セントラルコーポレーション,0
6,1010001124028,登記記録の閉鎖等,0,2022-08-16,2022-08-02,株式会社アーケビジョン,,株式会社,東京都,千代田区,岩本町３丁目２番２号,,13,101,1010032,,,2022-08-02,清算の結了等,,,2015-10-05,1,,,,,アーケビジョン,0
10,1010001170261,登記記録の閉鎖等,0,2022-08-16,2022-08-03,株式会社サンシャイン・レイ,,株式会社,東京都,中央区,銀座７丁目１３番６号サガミビル２階,,13,102,1040061,,,2022-08-03,清算の結了等,,,2015-10-05,1,,,,,サンシャインレイ,0
64,1011303002169,登記記録の閉鎖等,0,2022-08-16,2022-08-10,フードビジネスサポート合同会社,,合同会社,東京都,杉並区,桃井１丁目２３番７号,,13,115,1670034,,,2022-08-10,清算の結了等,,,2015-10-05,1,,,,,フードビジネスサポート,0
74,1011703000623,登記記録の閉鎖等,0,2022-08-16,2022-08-12,合同会社ＶＴＦＡスマートスリー,,合同会社,東京都,江戸川区,東小岩３丁目７番１８号,,13,123,1330052,,,2022-08-12,清算の結了等,,,2015-10-05,1,,,,,ヴイティーエフエースマートスリー,0
78,1013303004665,登記記録の閉鎖等,0,2022-08-16,2022-08-10,合同会社コンセプトエール,,合同会社,東京都,豊島区,南池袋２丁目４９番７号,,13,116,1710022,,,2022-08-10,清算の結了等,,,2019-06-07,1,,,,,コンセプトエール,0
83,1020001035141,登記記録の閉鎖等,0,2022-08-16,2022-08-05,株式会社トキタ住宅建設,,株式会社,神奈川県,横浜市鶴見区,駒岡４丁目２３番４５号,,14,101,2300071,,,2022-08-05,清算の結了等,,,2015-10-05,1,,,,,トキタジュウタクケンセツ,0
93,1020002002074,登記記録の閉鎖等,0,2022-08-16,2022-08-05,有限会社茂木総合エクステリア,,有限会社,神奈川県,横浜市瀬谷区,阿久和東３丁目３０番地７,,14,114,2460023,,,2022-08-05,清算の結了等,,,2015-10-05,1,,,,,モギソウゴウエクステリア,0
100,1021002054758,登記記録の閉鎖等,0,2022-08-16,2022-08-10,有限会社下間工務店,,有限会社,神奈川県,南足柄市,雨坪２５６番地,,14,217,2500134,,,2022-08-10,清算の結了等,,,2015-10-05,1,,,,,シモマコウムテン,0
107,1030001101264,登記記録の閉鎖等,0,2022-08-16,2022-08-01,株式会社都,,株式会社,埼玉県,川越市,大字下小坂４５７番地２７,,11,201,3500812,,,2022-08-01,清算の結了等,,,2015-10-05,1,,,,,ミヤコ,0
131,1050001030767,登記記録の閉鎖等,0,2022-08-16,2022-08-05,株式会社Ｌ＆Ｃ,,株式会社,茨城県,取手市,取手３丁目２番３１号,,08,217,3020004,,,2022-08-05,清算の結了等,,,2015-10-05,1,,,,,エルアンドシー,0
132,1050001049329,登記記録の閉鎖等,0,2022-08-16,2022-08-09,茨城総研株式会社,,株式会社,茨城県,土浦市,生田町５番１号,,08,203,3000047,,,2022-08-09,清算の結了等,,,2021-06-04,1,,,,,イバラキソウケン,0
135,1050002030601,登記記録の閉鎖等,0,2022-08-16,2022-08-08,有限会社澤畑商事,,有限会社,茨城県,日立市,大みか町１丁目２６番５号,,08,202,3191221,,,2022-08-08,清算の結了等,,,2015-10-05,1,,,,,サワハタショウジ,0
151,1110002018656,登記記録の閉鎖等,0,2022-08-16,2022-08-09,白山林業有限会社,,有限会社,新潟県,加茂市,上町７番２６号,,15,209,9591352,,,2022-08-09,清算の結了等,,,2015-10-05,1,,,,,ハクサンリンギョウ,0
156,1120001195990,登記記録の閉鎖等,0,2022-08-16,2022-08-08,株式会社ジィニア,,株式会社,大阪府,大阪市淀川区,新北野１丁目８番１号,,27,123,5320025,,,2022-08-08,合併による解散等,5120002060851,令和４年８月８日大阪市旭区大宮一丁目２１番１６号株式会社ミラージュ（5120002060851）に合併し解散,2016-01-29,1,,,,,ジィニア,0
192,1130002029131,登記記録の閉鎖等,0,2022-08-16,2022-08-05,有限会社増田屋商店,,有限会社,京都府,亀岡市,安町１２番地,,26,206,6210805,,,2022-08-05,清算の結了等,,,2015-10-05,1,,,,,マスダヤショウテン,0
204,1140002046019,登記記録の閉鎖等,0,2022-08-16,2022-08-10,有限会社但馬セレモニー,,有限会社,兵庫県,豊岡市,高屋１１１番地,,28,209,6680064,,,2022-08-10,合併による解散等,8130002033837,令和４年８月１日京都府京丹後市網野町網野３１５６番地株式会社令和（8130002033837）に合併し解散,2015-10-05,1,,,,,,0
205,1140002068806,登記記録の閉鎖等,0,2022-08-16,2022-08-10,有限会社久保商店,,有限会社,兵庫県,洲本市,物部３丁目４番４９号,,28,205,6560051,,,2022-08-10,清算の結了等,,,2015-10-05,1,,,,,クボショウテン,0
210,1160001005543,登記記録の閉鎖等,0,2022-08-16,2022-08-05,信楽スカイセンター株式会社,,株式会社,京都府,京都市伏見区,淀木津町１９７番地ライオンズマンション淀城公園１０２号,,26,109,6130911,,,2022-08-05,清算の結了等,,,2015-10-05,1,,,,,シガラキスカイセンター,0
213,1180001118723,登記記録の閉鎖等,0,2022-08-16,2022-08-10,未来さぽーと株式会社,,株式会社,愛知県,名古屋市昭和区,明月町２丁目５１番地,,23,107,4660034,,,2022-08-10,清算の結了等,,,2015-10-05,1,,,,,ミライサポート,0
234,1290001038357,登記記録の閉鎖等,0,2022-08-16,2022-08-03,辰元コンクリート株式会社,,株式会社,福岡県,糟屋郡志免町,大字吉原１２６番地７,,40,343,8112208,,,2022-08-03,清算の結了等,,,2015-10-05,1,,,,,タツモトコンクリート,0
256,1370302001897,登記記録の閉鎖等,0,2022-08-16,2022-08-09,有限会社パイオニア,,有限会社,宮城県,登米市,豊里町新田町２５８番地１,,04,212,9870361,,,2022-08-09,清算の結了等,,,2015-10-05,1,,,,,パイオニア,0
260,1380002001651,登記記録の閉鎖等,0,2022-08-16,2022-08-08,有限会社シギハラ塗装,,有限会社,福島県,福島市,鳥谷野字二ツ石１１番地の７,,07,201,9608152,,,2022-08-08,清算の結了等,,,2015-10-05,1,,,,,シギハラトソウ,0
263,1400601000976,登記記録の閉鎖等,0,2022-08-16,2022-08-10,株式会社オー・エス・エンジニアリング,,株式会社,岩手県,奥州市,水沢羽田町字北鵜ノ木３７番地,,03,215,0230132,,,2022-08-10,清算の結了等,,,2015-10-05,1,,,,,オーエスエンジニアリング,0
268,1460101003136,登記記録の閉鎖等,0,2022-08-16,2022-08-12,株式会社興新建設,,株式会社,北海道,上川郡新得町,三条南４丁目２番地,,01,635,0810013,,,2022-08-12,清算の結了等,,,2015-10-05,1,,,,,コウシンケンセツ,0
269,1462502000117,登記記録の閉鎖等,0,2022-08-16,2022-08-10,有限会社岡本建設,,有限会社,北海道,標津郡中標津町,東六条南８丁目２０番地,,01,692,0861006,,,2022-08-10,清算の結了等,,,2015-10-05,1,,,,,オカモトケンセツ,0
289,2010403015897,登記記録の閉鎖等,0,2022-08-16,2022-07-25,合同会社ユーフィールド制作四部,,合同会社,東京都,港区,芝公園２丁目１１番１１号,,13,103,1050011,,,2022-07-25,清算の結了等,,,2017-01-11,1,,,,,ユーフィールドセイサクヨンブ,0
295,2010603009204,登記記録の閉鎖等,0,2022-08-16,2022-08-08,Ｊｏｅ’ｓ　Ｉｎｃ．合同会社,,合同会社,東京都,墨田区,東駒形２丁目５番９号大井ビル５階,,13,107,1300005,,,2022-08-08,清算の結了等,,,2021-10-15,1,,,,,ジョーズインク,0
298,2010701036050,登記記録の閉鎖等,0,2022-08-16,2022-08-02,トレタＣＣ株式会社,,株式会社,東京都,品川区,西五反田７丁目２２番１７号,,13,109,1410031,,,2022-08-02,合併による解散等,2010901032543,令和４年８月１日東京都品川区西五反田七丁目２２番１７号株式会社トレタ（2010901032543）に合併し解散,2018-07-04,1,,,,,トレタシーシー,0
316,2011101066720,登記記録の閉鎖等,0,2022-08-16,2022-08-01,ソロモン・インターナショナル株式会社,,株式会社,東京都,千代田区,一番町６番４号９０１号室,,13,101,1020082,,,2022-08-01,清算の結了等,,,2015-10-05,1,,,,,ソロモンインターナショナル,0
328,2011502004659,登記記録の閉鎖等,0,2022-08-16,2022-08-10,有限会社パイプクリーンサービス,,有限会社,東京都,北区,昭和町３丁目５番７号ルシーダ上中里１Ｆ,,13,117,1140011,,,2022-08-10,清算の結了等,,,2015-10-05,1,,,,,,0
335,2012302003149,登記記録の閉鎖等,0,2022-08-16,2022-08-15,有限会社土屋工業,,有限会社,東京都,町田市,野津田町２７５番地１０号,,13,209,1950063,,,2022-08-15,清算の結了等,,,2015-10-05,1,,,,,ツチヤコウギョウ,0
340,2013201003867,登記記録の閉鎖等,0,2022-08-16,2022-07-25,株式会社天輪商店,,株式会社,東京都,目黒区,自由が丘１丁目１５番１６号,,13,110,1520035,,,2022-07-25,清算の結了等,,,2015-10-05,1,,,,,テンリンショウテン,0
341,2013301000748,登記記録の閉鎖等,0,2022-08-16,2022-08-10,株式会社石川ビル美装,,株式会社,東京都,豊島区,南池袋２丁目２７番１７号黒田ビル６階,,13,116,1710022,,,2022-08-10,清算の結了等,,,2015-10-05,1,,,,,イシカワビルビソウ,0
360,2030001098228,登記記録の閉鎖等,0,2022-08-16,2022-08-02,ジーユー株式会社,,株式会社,埼玉県,入間市,春日町２丁目１４番７－５１０号,,11,225,3580006,,,2022-08-02,清算の結了等,,,2015-10-05,1,,,,,ジーユー,0
361,2030001105388,登記記録の閉鎖等,0,2022-08-16,2022-08-09,株式会社ｃｈｅｍｉｔｔａ,,株式会社,埼玉県,新座市,北野３丁目２番１０号メゾンドールＳＫ１階,,11,230,3520003,,,2022-08-09,合併による解散等,4140001047147,令和４年８月１日神戸市東灘区向洋町中六丁目９番地ＫＦＭ内１０Ｅ－０７株式会社Ｋｉｄｓ　Ｄｅｖｅｌｏｐｅｒ（4140001047147）に合併し解散,2015-10-05,1,,,,,チェミッタ,0
366,2030002042738,登記記録の閉鎖等,0,2022-08-16,2022-08-03,有限会社花乃木,,有限会社,埼玉県,羽生市,大字上岩瀬５４５番地,,11,216,3480044,,,2022-08-03,清算の結了等,,,2015-10-05,1,,,,,,0
367,2030002073196,登記記録の閉鎖等,0,2022-08-16,2022-08-02,有限会社皓月,00017077,有限会社,埼玉県,川越市,大字的場１９２２番地４,,11,201,3501101,,,2022-08-02,清算の結了等,,,2015-10-05,1,,,,,コウゲツ,0
368,2030002093715,登記記録の閉鎖等,0,2022-08-16,2022-08-02,有限会社エム・ケイ・ユー,,有限会社,埼玉県,坂戸市,大字紺屋４２４番地１,,11,239,3500204,,,2022-08-02,清算の結了等,,,2015-10-05,1,,,,,エムケイユー,0
379,2050001042968,登記記録の閉鎖等,0,2022-08-16,2022-08-05,株式会社タカミ,,株式会社,茨城県,龍ケ崎市,長山８丁目１６番地９,,08,208,3010042,,,2022-08-05,清算の結了等,,,2017-06-16,1,,,,,タカミ,0
386,2080001013636,登記記録の閉鎖等,0,2022-08-16,2022-08-10,相良エコシステム株式会社,,株式会社,静岡県,牧之原市,白井７番地１０,,22,226,4210502,,,2022-08-10,清算の結了等,,,2015-10-05,1,,,,,サガラエコシステム,0
394,2110002006775,登記記録の閉鎖等,0,2022-08-16,2022-08-09,有限会社山信食肉店,,有限会社,新潟県,新潟市中央区,西受地町４９６５番地１,,15,103,9518082,,,2022-08-09,清算の結了等,,,2015-10-05,1,,,,,ヤマシンショクニクテン,0
450,2140003007844,登記記録の閉鎖等,0,2022-08-16,2022-08-12,合同会社吉田ＩＴコンサルティング,,合同会社,兵庫県,西宮市,上ケ原十番町２番３０－１０５号,,28,204,6620884,,,2022-08-12,清算の結了等,,,2015-10-05,1,,,,,ヨシダアイティーコンサルティング,0
454,2180001016661,登記記録の閉鎖等,0,2022-08-16,2022-08-01,ゴトー企業株式会社,,株式会社,愛知県,名古屋市名東区,本郷１丁目２６８番地,,23,115,4650024,,,2022-08-01,合併による解散等,6180001078806,令和４年７月３１日名古屋市名東区本郷一丁目２６８番地株式会社ゴトー（6180001078806）に合併し解散,2015-10-05,1,,,,,ゴトーキギョウ,0
455,2180001142342,登記記録の閉鎖等,0,2022-08-16,2022-08-12,一道株式会社,,株式会社,愛知県,名古屋市港区,新船町２丁目１番地の２３（宝東海橋ハイツ２１０号）,,23,111,4550071,,,2022-08-12,清算の結了等,,,2020-08-13,1,,,,,イチドウ,0
466,2180302008515,登記記録の閉鎖等,0,2022-08-16,2022-08-12,有限会社司山本組,,有限会社,愛知県,豊橋市,飯村町字高山２２５番地,,23,201,4400833,,,2022-08-12,清算の結了等,,,2015-10-05,1,,,,,ツカサヤマモトグミ,0
474,2240001026076,登記記録の閉鎖等,0,2022-08-16,2022-08-10,相益商事株式会社,,株式会社,広島県,呉市,中央５丁目１２番２４号,,34,202,7370051,,,2022-08-10,清算の結了等,,,2015-10-05,1,,,,,ソウエキショウジ,0
480,2250002005251,登記記録の閉鎖等,0,2022-08-16,2022-08-12,有限会社床波石油商会,,有限会社,山口県,宇部市,床波２丁目１番２３号,,35,202,7550153,,,2022-08-12,清算の結了等,,,2015-10-05,1,,,,,トコナミセキユショウカイ,0
481,2250002011423,登記記録の閉鎖等,0,2022-08-16,2022-08-09,山口ユノカ有限会社,,有限会社,山口県,下関市,彦島福浦町３丁目７番１２号,,35,201,7500087,,,2022-08-09,清算の結了等,,,2015-10-05,1,,,,,ヤマグチユノカ,0
490,2290802024406,登記記録の閉鎖等,0,2022-08-16,2022-08-08,有限会社田川石灰工業所,,有限会社,福岡県,田川市,大字夏吉２８５１番地,,40,206,8250004,,,2022-08-08,清算の結了等,,,2015-10-05,1,,,,,タガワセッカイコウギョウショ,0
495,2330002020960,登記記録の閉鎖等,0,2022-08-16,2022-08-05,有限会社サロンドくみこ,,有限会社,熊本県,玉名市,中１７２９番地,,43,206,8650064,,,2022-08-05,清算の結了等,,,2015-10-05,1,,,,,サロンドクミコ,0
498,2350005005858,登記記録の閉鎖等,0,2022-08-16,2022-07-20,一般社団法人ＬＯＯＰ,,その他の設立登記法人,宮崎県,小林市,細野４４７番地１,,45,205,8860004,,,2022-07-20,清算の結了等,,,2019-05-29,1,,,,,ループ,0
505,2360003010578,登記記録の閉鎖等,0,2022-08-16,2022-07-26,合同会社Ｕｌｕｌａ,,合同会社,沖縄県,那覇市,字小禄９４番地１,,47,201,9010152,,,2022-07-26,清算の結了等,,,2020-10-01,1,,,,,ウルラ,0
510,2380001001882,登記記録の閉鎖等,0,2022-08-16,2022-08-08,こだわりや本舗株式会社,,株式会社,福島県,福島市,渡利字渡利町９番地の５,,07,201,9608141,,,2022-08-08,清算の結了等,,,2015-10-05,1,,,,,コダワリヤホンポ,0
511,2400002001581,登記記録の閉鎖等,0,2022-08-16,2022-08-10,有限会社渋川青果,,有限会社,岩手県,盛岡市,羽場１０地割１００番地,,03,201,0200841,,,2022-08-10,清算の結了等,,,2015-10-05,1,,,,,シブカワセイカ,0
527,2490002010789,登記記録の閉鎖等,0,2022-08-16,2022-08-10,大和興業有限会社,,有限会社,高知県,高岡郡津野町,杉ノ川丙４７番地,,39,411,7850216,,,2022-08-10,清算の結了等,,,2015-10-05,1,,,,,,0
548,3010002002429,登記記録の閉鎖等,0,2022-08-16,2022-08-04,有限会社小森工業所,,有限会社,東京都,文京区,白山３丁目４番１３号,,13,105,1120001,,,2022-08-04,清算の結了等,,,2015-10-05,1,,,,,コモリコウギョウショ,0
550,3010003020355,登記記録の閉鎖等,0,2022-08-16,2022-08-03,合同会社ＭＳ債権管理,,合同会社,東京都,千代田区,有楽町２丁目１０番１号株式会社アセットソリューション内,,13,101,1000006,,,2022-08-03,清算の結了等,,,2015-10-05,1,,,,,エムエスサイケンカンリ,0
563,3010403015896,登記記録の閉鎖等,0,2022-08-16,2022-07-25,合同会社ユーフィールド制作三部,,合同会社,東京都,港区,芝公園２丁目１１番１１号,,13,103,1050011,,,2022-07-25,清算の結了等,,,2017-01-11,1,,,,,ユーフィールドセイサクサンブ,0
572,3010801002174,登記記録の閉鎖等,0,2022-08-16,2022-08-05,大原工業株式会社,,株式会社,東京都,大田区,大森西２丁目２８番６号,,13,111,1430015,,,2022-08-05,清算の結了等,,,2015-10-05,1,,,,,,0
576,3010901035322,登記記録の閉鎖等,0,2022-08-16,2022-08-08,株式会社Ｍｅｄｉｃ　Ｇｌｏｂａｌ,,株式会社,東京都,世田谷区,駒沢１丁目２番３３号,,13,112,1540012,,,2022-08-08,清算の結了等,,,2015-10-05,1,,,,,メディックグローバル,0
591,3011703000811,登記記録の閉鎖等,0,2022-08-16,2022-08-12,合同会社ＶＴＦＡグラシアス,,合同会社,東京都,江戸川区,東小岩３丁目７番１８号,,13,123,1330052,,,2022-08-12,清算の結了等,,,2015-10-05,1,,,,,ヴイティーエフエーグラシアス,0
627,3021002035566,登記記録の閉鎖等,0,2022-08-16,2022-08-10,有限会社三橋鶏園,,有限会社,神奈川県,伊勢原市,上粕屋３３２３番地,,14,214,2591141,,,2022-08-10,清算の結了等,,,2015-10-05,1,,,,,ミツハシケイエン,0
633,3030002019883,登記記録の閉鎖等,0,2022-08-16,2022-08-02,ニューロ医学研究所有限会社,,有限会社,埼玉県,志木市,本町５丁目２３番１３号アリュージュ志木本町１２０４号室,,11,228,3530004,,,2022-08-02,清算の結了等,,,2015-10-05,1,,,,,ニューロイガクケンキュウジョ,0
634,3030002029098,登記記録の閉鎖等,0,2022-08-16,2022-08-03,有限会社ケイズデザイン,,有限会社,埼玉県,所沢市,若狭４丁目２５００番地の６セザール所沢狭山ヶ丘３０４号室,,11,208,3591151,,,2022-08-03,清算の結了等,,,2015-10-05,1,,,,,,0
639,3040001115880,登記記録の閉鎖等,0,2022-08-16,2022-08-01,ワイズ食品株式会社,,株式会社,千葉県,柏市,増尾台２丁目１３番１２号,,12,217,2770052,,,2022-08-01,合併による解散等,5040001068722,令和４年８月１日千葉県柏市増尾台二丁目１３番１２号ワイズ株式会社（5040001068722）に合併し解散,2020-11-17,1,,,,,ワイズショクヒン,0
646,3040003018165,登記記録の閉鎖等,0,2022-08-16,2022-08-02,合同会社しろは,,合同会社,千葉県,野田市,山崎１５７６番地の１,,12,208,2780022,,,2022-08-02,清算の結了等,,,2021-07-13,1,,,,,シロハ,0
649,3050001035079,登記記録の閉鎖等,0,2022-08-16,2022-08-08,株式会社ＪＭＤ,,株式会社,茨城県,つくば市,島名１６５６番地３（香取台Ｂ３８街区８）,,08,220,3002655,,,2022-08-08,清算の結了等,,,2015-10-05,1,,,,,ジェイエムディー,0
655,3060001021887,登記記録の閉鎖等,0,2022-08-16,2022-08-02,宮テック株式会社,,株式会社,栃木県,宇都宮市,川俣町６８番地７０,,09,201,3210977,,,2022-08-02,清算の結了等,,,2015-10-05,1,,,,,ミヤテック,0
660,3080402019743,登記記録の閉鎖等,0,2022-08-16,2022-08-12,有限会社中央宅建,,有限会社,静岡県,磐田市,中泉３７１９番地１１,,22,211,4380078,,,2022-08-12,清算の結了等,,,2015-10-05,1,,,,,チュウオウタッケン,0
671,3120001163178,登記記録の閉鎖等,0,2022-08-16,2022-08-08,株式会社ケーズ,,株式会社,大阪府,大阪市中央区,道修町１丁目４番６号,,27,128,5410045,,,2022-08-08,合併による解散等,5120002060851,令和４年８月８日大阪市旭区大宮一丁目２１番１６号株式会社ミラージュ（5120002060851）に合併し解散,2015-10-05,1,,,,,ケーズ,0
675,3120001195989,登記記録の閉鎖等,0,2022-08-16,2022-08-08,株式会社リブレ,,株式会社,大阪府,大阪市浪速区,難波中１丁目７番１４号,,27,111,5560011,,,2022-08-08,合併による解散等,5120002060851,令和４年８月８日大阪市旭区大宮一丁目２１番１６号株式会社ミラージュ（5120002060851）に合併し解散,2016-01-29,1,,,,,リブレ,0
703,3130002034419,登記記録の閉鎖等,0,2022-08-16,2022-08-08,丹和サービス有限会社,,有限会社,京都府,舞鶴市,字寺内１４３番地の１,,26,202,6240929,,,2022-08-08,清算の結了等,,,2015-10-05,1,,,,,タンワサービス,0
706,3140001001187,登記記録の閉鎖等,0,2022-08-16,2022-08-10,王子冷熱工業株式会社,,株式会社,兵庫県,神戸市東灘区,住吉台９番４－５０１号,,28,101,6580062,,,2022-08-10,清算の結了等,,,2015-10-05,1,,,,,オウジレイネツ,0
716,3150001011078,登記記録の閉鎖等,0,2022-08-16,2022-08-10,株式会社芳村モータース,,株式会社,奈良県,橿原市,一町６８９番地,,29,205,6340824,,,2022-08-10,清算の結了等,,,2015-10-05,1,,,,,ヨシムラモータース,0
721,3180302003457,登記記録の閉鎖等,0,2022-08-16,2022-08-12,豊栄産業有限会社,,有限会社,愛知県,額田郡幸田町,大字野場字大迫１９番地の２,,23,501,4440128,,,2022-08-12,清算の結了等,,,2015-10-05,1,,,,,ホウエイサンギョウ,0
723,3220002017257,登記記録の閉鎖等,0,2022-08-16,2022-08-10,有限会社イー・アール,,有限会社,石川県,かほく市,森ヲ３４番地１１,,17,209,9291123,,,2022-08-10,清算の結了等,,,2015-10-05,1,,,,,イーアール,0
735,3290803001808,登記記録の閉鎖等,0,2022-08-16,2022-08-05,合同会社ラズ,,合同会社,福岡県,京都郡苅田町,小波瀬２丁目６番１１号,,40,621,8000345,,,2022-08-05,合併による解散等,4290803001807,令和４年８月１日福岡県京都郡苅田町小波瀬二丁目６番１１号合同会社コラソン（4290803001807）に合併し解散,2015-10-05,1,,,,,ラズ,0
748,3370003004685,登記記録の閉鎖等,0,2022-08-16,2022-08-09,合同会社日本土建,,合同会社,宮城県,仙台市青葉区,一番町１丁目１６番２３号一番町スクエアビル２階,,04,101,9800811,,,2022-08-09,清算の結了等,,,2020-01-28,1,,,,,ニホンドケン,0
749,3370201003555,登記記録の閉鎖等,0,2022-08-16,2022-08-05,矢崎建設株式会社,,株式会社,宮城県,栗原市,築館源光１７番２９号,,04,213,9872211,,,2022-08-05,清算の結了等,,,2022-06-28,1,,,,,ヤザキケンセツ,0
750,3380001008654,登記記録の閉鎖等,0,2022-08-16,2022-08-05,創和システム株式会社,,株式会社,福島県,田村郡三春町,大字過足字紙漉２３８番地の２２,,07,521,9637718,,,2022-08-05,清算の結了等,,,2015-10-05,1,,,,,,0
759,3430002041228,登記記録の閉鎖等,0,2022-08-16,2022-08-03,有限会社Ｔ＆Ｔ,,有限会社,北海道,札幌市白石区,川下一条８丁目２番３３号,,01,104,0030861,,,2022-08-03,清算の結了等,,,2015-10-05,1,,,,,ティーアンドティー,0
762,3470001000940,登記記録の閉鎖等,0,2022-08-16,2022-08-12,株式会社香川化粧品店,,株式会社,香川県,高松市,南新町２番地の３,,37,201,7600051,,,2022-08-12,清算の結了等,,,2015-10-05,1,,,,,カガワケショウヒンテン,0
771,4010001053042,登記記録の閉鎖等,0,2022-08-16,2022-08-04,株式会社ナプス,,株式会社,神奈川県,横浜市青葉区,鴨志田町５３１番地１２,,14,117,2270033,,,2022-08-04,清算の結了等,,,2015-10-05,1,,,,,ナプス,0
782,4010002046326,登記記録の閉鎖等,0,2022-08-16,2022-08-01,有限会社リョウテック,,有限会社,東京都,千代田区,外神田２丁目１５番１０号,,13,101,1010021,,,2022-08-01,合併による解散等,5010001032202,令和４年８月１日東京都千代田区外神田二丁目１５番１０号菱和電機株式会社（5010001032202）に合併し解散,2015-10-05,1,,,,,リョウテック,0
787,4010005019634,登記記録の閉鎖等,0,2022-08-16,2022-08-03,千代田三信ビル管理組合法人,,その他の設立登記法人,東京都,千代田区,神田神保町２丁目２番３４号,,13,101,1010051,,,2022-08-03,清算の結了等,,,2015-10-05,1,,,,,チヨダサンシンビル,0
801,4010403015895,登記記録の閉鎖等,0,2022-08-16,2022-07-25,合同会社ユーフィールド制作二部,,合同会社,東京都,港区,芝公園２丁目１１番１１号,,13,103,1050011,,,2022-07-25,清算の結了等,,,2017-01-11,1,,,,,ユーフィールドセイサクニブ,0
837,4011102030252,登記記録の閉鎖等,0,2022-08-16,2022-08-01,有限会社サワダ,,有限会社,埼玉県,さいたま市浦和区,前地１丁目１０番２０号,,11,107,3300053,,,2022-08-01,合併による解散等,1030001033755,令和４年８月１日埼玉県さいたま市浦和区岸町四丁目１８番１５号株式会社サワダコーポレーション（1030001033755）に合併し解散,2015-10-05,1,,,,,サワダ,0
846,4011503004441,登記記録の閉鎖等,0,2022-08-16,2022-08-12,合同会社足立,,合同会社,東京都,北区,赤羽１丁目７番９号赤羽第一葉山ビル４階,,13,117,1150045,,,2022-08-12,清算の結了等,,,2020-07-10,1,,,,,アダチ,0
852,4011801000431,登記記録の閉鎖等,0,2022-08-16,2022-08-10,株式会社いのうえやす,,株式会社,東京都,葛飾区,東立石２丁目２６番１３号,,13,122,1240013,,,2022-08-10,清算の結了等,,,2015-10-05,1,,,,,イノウエヤス,0
869,4021002054243,登記記録の閉鎖等,0,2022-08-16,2022-08-12,有限会社ヤマタケ食品,,有限会社,神奈川県,小田原市,永塚３５５－２,00026451,14,206,2500214,,,2022-08-12,清算の結了等,,,2015-10-05,1,,,,,,0
892,4040002062725,登記記録の閉鎖等,0,2022-08-16,2022-08-01,有限会社四街道薬局,,有限会社,千葉県,四街道市,大日４３７番地２４,,12,228,2840001,,,2022-08-01,清算の結了等,,,2015-10-05,1,,,,,ヨツカイドウヤッキョク,0
898,4050002004445,登記記録の閉鎖等,0,2022-08-16,2022-08-08,有限会社桐原ファーム,,有限会社,茨城県,水戸市,西原１丁目１４番４７号,,08,201,3100044,,,2022-08-08,清算の結了等,,,2015-10-05,1,,,,,キリハラファーム,0
908,4070002032221,登記記録の閉鎖等,0,2022-08-16,2022-08-01,有限会社ニッケイ商事,,有限会社,群馬県,太田市,飯田町６２３番地,,10,205,3730851,,,2022-08-01,合併による解散等,1070002029253,令和４年８月１日群馬県太田市飯田町６２３番地株式会社サイセイ（1070002029253）に合併し解散,2015-10-05,1,,,,,ニッケイショウジ,0
913,4100002033307,登記記録の閉鎖等,0,2022-08-16,2022-08-08,有限会社丸光,,有限会社,長野県,伊那市,高遠町西高遠１６８７番地１,,20,209,3960211,,,2022-08-08,清算の結了等,,,2015-10-05,1,,,,,マルコウ,0
914,4100003004744,登記記録の閉鎖等,0,2022-08-16,2022-08-08,合同会社しみずＰＥＯ,,合同会社,長野県,上田市,真田町長７１３５番地４,,20,203,3862201,,,2022-08-08,清算の結了等,,,2017-08-07,1,,,,,シミズピーイーオー,0
923,4120001074085,登記記録の閉鎖等,0,2022-08-16,2022-08-09,亜利通商株式会社,,株式会社,大阪府,大阪市中央区,備後町１丁目２番１４号ディオレ備後町４０１号,,27,128,5410051,,,2022-08-09,清算の結了等,,,2015-10-05,1,,,,,アリツウショウ,0
939,4120101030467,登記記録の閉鎖等,0,2022-08-16,2022-08-10,株式会社浩義,,株式会社,大阪府,堺市堺区,宿屋町西２丁２番１号,,27,141,5900937,,,2022-08-10,清算の結了等,,,2015-10-05,1,,,,,ヒロヨシ,0
956,4130002005105,登記記録の閉鎖等,0,2022-08-16,2022-08-05,有限会社京華堂利保,,有限会社,京都府,京都市左京区,二条通川端東入難波町２２６番地,,26,103,6068374,,,2022-08-05,清算の結了等,,,2015-10-05,1,,,,,キョウカドウトシヤス,0
990,4180002036764,登記記録の閉鎖等,0,2022-08-16,2022-08-12,有限会社イワツキ,,有限会社,愛知県,名古屋市中区,大須２丁目１０番３３号,,23,106,4600011,,,2022-08-12,清算の結了等,,,2015-10-05,1,,,,,イワツキ,0
994,4220003000863,登記記録の閉鎖等,0,2022-08-16,2022-08-09,北光合名会社,,合名会社,石川県,小松市,符津町ナ７８番地１,,17,203,9230302,,,2022-08-09,清算の結了等,,,2015-10-05,1,,,,,キタミツ,0
1000,4240005004885,登記記録の閉鎖等,0,2022-08-16,2022-08-09,宝積寺,,その他の設立登記法人,広島県,三次市,十日市町１８１０番地,,34,209,7280015,,,2022-08-09,清算の結了等,,,2015-10-05,1,,,,,ホウシャクジ,0
1033,4410002002081,登記記録の閉鎖等,0,2022-08-16,2022-08-08,有限会社シルクドール,,有限会社,秋田県,由利本荘市,岩城内道川字新鶴潟３番１８号,,05,210,0181301,,,2022-08-08,清算の結了等,,,2015-10-05,1,,,,,シルクドール,0
1035,4430001023060,登記記録の閉鎖等,0,2022-08-16,2022-08-03,株式会社丸組土建,,株式会社,北海道,札幌市白石区,川北２３１２番地２４,,01,104,0030859,,,2022-08-03,清算の結了等,,,2015-10-05,1,,,,,マルグミドケン,0
1040,4450005004088,登記記録の閉鎖等,0,2022-08-16,2022-08-16,特定非営利活動法人ペアレントサポート,,その他の設立登記法人,北海道,旭川市,宮下通３丁目２１８１番地の２シュロス宮下４０３,,01,204,0700030,,,2022-08-16,清算の結了等,,,2017-01-16,1,,,,,,0
1047,4490002010572,登記記録の閉鎖等,0,2022-08-16,2022-08-12,有限会社中平百貨店,,有限会社,高知県,須崎市,西町１丁目１２番１９号,,39,206,7850009,,,2022-08-12,清算の結了等,,,2015-10-05,1,,,,,,0
1073,5010403015894,登記記録の閉鎖等,0,2022-08-16,2022-07-25,合同会社ユーフィールド制作一部,,合同会社,東京都,港区,芝公園２丁目１１番１１号,,13,103,1050011,,,2022-07-25,清算の結了等,,,2017-01-11,1,,,,,ユーフィールドセイサクイチブ,0
1085,5010903001221,登記記録の閉鎖等,0,2022-08-16,2022-08-08,スマイルガーデン合同会社,,合同会社,東京都,世田谷区,船橋５丁目３０番１０号,,13,112,1560055,,,2022-08-08,清算の結了等,,,2015-10-05,1,,,,,スマイルガーデン,0
1109,5011702007186,登記記録の閉鎖等,0,2022-08-16,2022-08-10,有限会社高樋組,00056670,有限会社,東京都,江戸川区,東松本１丁目３番２５号,,13,123,1330071,,,2022-08-10,清算の結了等,,,2015-10-05,1,,,,,タカヒグミ,0
1120,5012403001692,登記記録の閉鎖等,0,2022-08-16,2022-08-10,合同会社Ｓ．Ｃ．Ｕ．,,合同会社,東京都,小金井市,本町６丁目４番１号,,13,210,1840004,,,2022-08-10,清算の結了等,,,2015-10-05,1,,,,,エスシーユー,0
1126,5013303005536,登記記録の閉鎖等,0,2022-08-16,2022-08-10,合同会社うし,,合同会社,東京都,豊島区,池袋２丁目２１番１号アリーサコート３０３号,,13,116,1710014,,,2022-08-10,清算の結了等,,,2021-02-15,1,,,,,ウシ,0
1130,5021001012903,登記記録の閉鎖等,0,2022-08-16,2022-08-10,株式会社ダイ・コーポレーション,,株式会社,神奈川県,相模原市南区,相模大野２丁目２３番１４号,,14,153,2520303,,,2022-08-10,清算の結了等,,,2015-10-05,1,,,,,ダイコーポレーション,0
1144,5030002009809,登記記録の閉鎖等,0,2022-08-16,2022-08-04,轟自動車有限会社,,有限会社,埼玉県,さいたま市西区,大字中釘２０７０番地,,11,101,3310077,,,2022-08-04,清算の結了等,,,2015-10-05,1,,,,,トドロキジドウシャ,0
1146,5030002017290,登記記録の閉鎖等,0,2022-08-16,2022-08-02,有限会社日照企業,,有限会社,埼玉県,さいたま市西区,大字内野本郷４２４番地の２コトブキコーポ１０１,,11,101,3310045,,,2022-08-02,清算の結了等,,,2015-10-05,1,,,,,ニッショウキギョウ,0
1147,5030002049359,登記記録の閉鎖等,0,2022-08-16,2022-08-01,有限会社テクノコーティング,,有限会社,埼玉県,三郷市,彦江１丁目７０番地,,11,237,3410058,,,2022-08-01,合併による解散等,4030002049558,令和４年８月１日埼玉県三郷市戸ケ崎三丁目７５２番地３株式会社野口工芸（4030002049558）に合併し解散,2015-10-05,1,,,,,テクノコーティング,0
1156,5040002041190,登記記録の閉鎖等,0,2022-08-16,2022-08-02,有限会社竹山,,有限会社,千葉県,浦安市,北栄２丁目２０番１５号,,12,227,2790002,,,2022-08-02,清算の結了等,,,2015-10-05,1,,,,,タケヤマ,0
1157,5040002069100,登記記録の閉鎖等,0,2022-08-16,2022-08-04,有限会社メルテック,,有限会社,千葉県,袖ケ浦市,のぞみ野９７番地９,,12,229,2990251,,,2022-08-04,清算の結了等,,,2015-10-05,1,,,,,メルテック,0
1158,5040002087977,登記記録の閉鎖等,0,2022-08-16,2022-08-04,有限会社東庄工業,,有限会社,千葉県,香取郡東庄町,羽計１０８４番地の２,,12,349,2890617,,,2022-08-04,清算の結了等,,,2015-10-05,1,,,,,トウノショウコウギョウ,0
1165,5080402003745,登記記録の閉鎖等,0,2022-08-16,2022-08-12,有限会社松栄工業,,有限会社,静岡県,浜松市中区,高丘北１丁目１４番１号,,22,131,4338119,,,2022-08-12,清算の結了等,,,2015-10-05,1,,,,,ショウエイコウギョウ,0
1168,5100002025179,登記記録の閉鎖等,0,2022-08-16,2022-08-08,有限会社浜製作所,,有限会社,長野県,塩尻市,大門一番町１４番１７号,,20,215,3990736,,,2022-08-08,清算の結了等,,,2015-10-05,1,,,,,ハマセイサクショ,0
1169,5110002018529,登記記録の閉鎖等,0,2022-08-16,2022-08-09,有限会社小池商店,,有限会社,新潟県,南蒲原郡田上町,大字羽生田丙３５８番地,,15,361,9591512,,,2022-08-09,清算の結了等,,,2015-10-05,1,,,,,コイケショウテン,0
1170,5110002025426,登記記録の閉鎖等,0,2022-08-16,2022-08-12,有限会社おかむら,,有限会社,新潟県,十日町市,八箇甲３７６番地１,,15,210,9480033,,,2022-08-12,清算の結了等,,,2015-10-05,1,,,,,オカムラ,0
1172,5110002032389,登記記録の閉鎖等,0,2022-08-16,2022-08-09,有限会社山田鉄筋工業,,有限会社,新潟県,小千谷市,平沢２丁目２４番２１号,,15,208,9470042,,,2022-08-09,清算の結了等,,,2015-10-05,1,,,,,ヤマダテッキンコウギョウ,0
1195,5130005008277,登記記録の閉鎖等,0,2022-08-16,2022-08-08,特定非営利活動法人住環境改善・京巧会,,その他の設立登記法人,京都府,京都市北区,大宮開町２２番地１０－１,,26,101,6038437,,,2022-08-08,清算の結了等,,,2015-10-05,1,,,,,ジュウカンキョウカイゼンキョウタクミカイ,0
1215,5180001057736,登記記録の閉鎖等,0,2022-08-16,2022-08-05,株式会社ＧＬＡＤ,,株式会社,愛知県,名古屋市中区,丸の内３丁目２３番２３号,,23,106,4600002,,,2022-08-05,清算の結了等,,,2015-10-05,1,,,,,グラッド,0
1224,5180003017119,登記記録の閉鎖等,0,2022-08-16,2022-08-05,合同会社セントラルリアルエステート,,合同会社,愛知県,名古屋市東区,古出来１丁目２番１６号,,23,102,4610049,,,2022-08-05,清算の結了等,,,2016-05-18,1,,,,,セントラルリアルエステート,0
1225,5180003019858,登記記録の閉鎖等,0,2022-08-16,2022-08-10,合同会社ライフトリップ,,合同会社,愛知県,名古屋市熱田区,花表町３番２８号ファミリアーレ神宮前レジデンス２０５号,,23,109,4560033,,,2022-08-10,清算の結了等,,,2019-04-04,1,,,,,ライフトリップ,0
1226,5180302013710,登記記録の閉鎖等,0,2022-08-16,2022-08-08,有限会社中野組,,有限会社,愛知県,豊川市,松原町京田４０番地１,,23,207,4411221,,,2022-08-08,清算の結了等,,,2015-10-05,1,,,,,ナカノグミ,0
1228,5220001001771,登記記録の閉鎖等,0,2022-08-16,2022-08-10,株式会社Ｇ－Ｗｏｒｋｓ,,株式会社,石川県,金沢市,藤江北２丁目８４番地２,,17,201,9200345,,,2022-08-10,清算の結了等,,,2015-10-05,1,,,,,ジーワークス,0
1229,5220001024087,登記記録の閉鎖等,0,2022-08-16,2022-08-04,株式会社北陸地域医療システム研究所,,株式会社,石川県,金沢市,西念１丁目２番２６号,,17,201,9200024,,,2022-08-04,清算の結了等,,,2021-04-08,1,,,,,ホクリクチイキイリョウシステムケンキュウジョ,0
1231,5240005004059,登記記録の閉鎖等,0,2022-08-16,2022-08-10,医療法人社団三戸クリニック,,その他の設立登記法人,広島県,東広島市,西条中央５丁目４番２０号,,34,212,7390025,,,2022-08-10,清算の結了等,,,2015-10-05,1,,,,,ミトクリニック,0
1238,5250002013499,登記記録の閉鎖等,0,2022-08-16,2022-08-12,モリ有限会社,,有限会社,山口県,萩市,大字土原２７１番地の５,,35,204,7580025,,,2022-08-12,清算の結了等,,,2015-10-05,1,,,,,モリ,0
1245,5290001086344,登記記録の閉鎖等,0,2022-08-16,2022-08-02,ｄｅａｒ株式会社,,株式会社,福岡県,福岡市中央区,大名２丁目６－１１,,40,133,8100041,,,2022-08-02,清算の結了等,,,2019-09-04,1,,,,,ディア,0
1246,5290002020888,登記記録の閉鎖等,0,2022-08-16,2022-08-03,有限会社公洋薬品,,有限会社,福岡県,福岡市東区,青葉７丁目９番１２号,,40,131,8130025,,,2022-08-03,清算の結了等,,,2015-10-05,1,,,,,コウヨウヤクヒン,0
1276,5470001000039,登記記録の閉鎖等,0,2022-08-16,2022-08-15,寿協同石材株式会社,,株式会社,香川県,高松市,庵治町３番地３８,,37,201,7610130,,,2022-08-15,清算の結了等,,,2015-10-05,1,,,,,,0
1284,6010001110849,登記記録の閉鎖等,0,2022-08-16,2022-08-02,株式会社エイアイティー,,株式会社,東京都,千代田区,神田平河町１番地第３東ビル９０７号室,,13,101,1010027,,,2022-08-02,清算の結了等,,,2015-10-05,1,,,,,エイアイティー,0
1288,6010001157915,登記記録の閉鎖等,0,2022-08-16,2022-08-03,株式会社神明アグリイノベーション,,株式会社,東京都,中央区,日本橋小網町１６番１５号,,13,102,1030016,,,2022-08-03,清算の結了等,,,2015-10-05,1,,,,,シンメイアグリイノベーション,0
1293,6010001201045,登記記録の閉鎖等,0,2022-08-16,2022-08-01,株式会社Ｓｉｇｎａｔｕｒｅ　Ｓｏｌｕｔｉｏｎ,,株式会社,東京都,中央区,日本橋本町３丁目３番６号ワカ末ビル７階,,13,102,1030023,,,2022-08-01,清算の結了等,,,2019-05-23,1,,,,,シグネチャーソリューション,0
1296,6010001222990,登記記録の閉鎖等,0,2022-08-16,2022-08-01,株式会社稲垣ビルホールディングス,,株式会社,東京都,中央区,銀座４丁目２番２号,,13,102,1040061,,,2022-08-01,合併による解散等,7010001037439,令和４年８月１日東京都中央区銀座四丁目２番２号株式会社稲垣商事（7010001037439）に合併し解散,2021-12-07,1,,,,,イナガキビルホールディングス,0
1304,6010003026127,登記記録の閉鎖等,0,2022-08-16,2022-08-05,合同会社ＦＲＰ,,合同会社,東京都,千代田区,内幸町２丁目１番６号,,13,101,1000011,,,2022-08-05,清算の結了等,,,2017-09-26,1,,,,,エフアールピー,0
1362,6011501012980,登記記録の閉鎖等,0,2022-08-16,2022-08-10,株式会社ピー・シー・エス,,株式会社,東京都,荒川区,東尾久３丁目２０番１０－４０３号,,13,118,1160012,,,2022-08-10,清算の結了等,,,2015-10-05,1,,,,,,0
1365,6012302002246,登記記録の閉鎖等,0,2022-08-16,2022-08-09,有限会社シーサー,,有限会社,東京都,町田市,南つくし野３丁目１０番２８号,,13,209,1940002,,,2022-08-09,清算の結了等,,,2015-10-05,1,,,,,シーサー,0
1369,6013202000661,登記記録の閉鎖等,0,2022-08-16,2022-07-28,有限会社石川商会,,有限会社,東京都,目黒区,青葉台３丁目１９番５号,,13,110,1530042,,,2022-07-28,清算の結了等,,,2015-10-05,1,,,,,イシカワショウカイ,0
1395,6030002030516,登記記録の閉鎖等,0,2022-08-16,2022-07-29,有限会社中村商店,,有限会社,埼玉県,所沢市,くすのき台１丁目１２番地の３,,11,208,3590037,,,2022-07-29,清算の結了等,,,2015-10-05,1,,,,,ナカムラショウテン,0
1423,6110001004941,登記記録の閉鎖等,0,2022-08-16,2022-08-08,株式会社フロンテイア設計,,株式会社,新潟県,新潟市中央区,学校町通３番町５５７番地１,,15,103,9518126,,,2022-08-08,清算の結了等,,,2015-10-05,1,,,,,フロンテイアセッケイ,0
1462,6140001107147,登記記録の閉鎖等,0,2022-08-16,2022-08-05,未在株式会社,,株式会社,東京都,八王子市,元本郷町４丁目３番１１号,,13,201,1920051,,,2022-08-05,清算の結了等,,,2017-08-10,1,,,,,ミザイ,0
1475,6180002068137,登記記録の閉鎖等,0,2022-08-16,2022-08-10,有限会社エムケー電子,,有限会社,愛知県,春日井市,廻間町字落重４３番地の２,,23,206,4870031,,,2022-08-10,清算の結了等,,,2015-10-05,1,,,,,エムケーデンシ,0
1495,6320002022847,登記記録の閉鎖等,0,2022-08-16,2022-08-09,コーメイ宅建有限会社,,有限会社,大分県,大分市,大字森６３３番地の５,,44,201,8700128,,,2022-08-09,清算の結了等,,,2022-02-22,1,,,,,コーメイタッケン,0
1504,6370001017471,登記記録の閉鎖等,0,2022-08-16,2022-08-01,株式会社大友爲吉商店,,株式会社,宮城県,富谷市,富谷新町８５番地,,04,216,9813311,,,2022-08-01,清算の結了等,,,2015-10-05,1,,,,,オオトモタメキチショウテン,0
1515,6400005002367,登記記録の閉鎖等,0,2022-08-16,2022-08-10,特定非営利活動法人いわてユニバーサルデザインセンター,,その他の設立登記法人,岩手県,盛岡市,川目町２３番地１０,,03,201,0200811,,,2022-08-10,清算の結了等,,,2015-10-05,1,,,,,イワテユニバーサルデザインセンター,0
1539,7010001064953,登記記録の閉鎖等,0,2022-08-16,2022-08-02,日経団ビジネス開発株式会社,,株式会社,東京都,千代田区,永田町２丁目９番６号,,13,101,1000014,,,2022-08-02,清算の結了等,,,2015-10-05,1,,,,,ニッケイダンビジネスカイハツ,0
1540,7010001074630,登記記録の閉鎖等,0,2022-08-16,2022-08-03,アクアシティ株式会社,,株式会社,東京都,文京区,西片１丁目１４番９－１０４号,,13,105,1130024,,,2022-08-03,清算の結了等,,,2015-10-05,1,,,,,アクアシティ,0
1541,7010001126539,登記記録の閉鎖等,0,2022-08-16,2022-08-02,サクラ電子計算株式会社,,株式会社,東京都,中央区,築地４丁目２番７号フェニックス９階,,13,102,1040045,,,2022-08-02,清算の結了等,,,2015-10-05,1,,,,,サクラデンシケイサン,0
1550,7010001222585,登記記録の閉鎖等,0,2022-08-16,2022-08-08,株式会社エンカウンター,,株式会社,東京都,中央区,新富１丁目９番５号,,13,102,1040041,,,2022-08-08,合併による解散等,5010001092733,令和４年７月３１日秋田県大仙市協和船岡字一ノ渡１７８株式会社晋遊舎（5010001092733）に合併し解散,2021-11-17,1,,,,,エンカウンター,0
1557,7010003036760,登記記録の閉鎖等,0,2022-08-16,2022-08-03,合同会社ｃｈａｔｅａｕ,,合同会社,東京都,中央区,銀座２丁目１４番１５アヴァンティーク銀座２丁目弐番館６０１,,13,102,1040061,,,2022-08-03,清算の結了等,,,2022-01-14,1,,,,,シャトー,0
1564,7010005020829,登記記録の閉鎖等,0,2022-08-16,2022-08-05,一般社団法人ＭＡＤＥ　ＩＮ　ＪＡＰＡＮ貿易協会,,その他の設立登記法人,東京都,中央区,勝どき２丁目１８番１号黎明スカイレジテルビル西館３階,,13,102,1040054,,,2022-08-05,清算の結了等,,,2015-10-05,1,,,,,メイドインジャパンボウエキキョウカイ,0
1590,7010602031179,登記記録の閉鎖等,0,2022-08-16,2022-08-01,有限会社明和,,有限会社,東京都,墨田区,太平４丁目２番１号,,13,107,1300012,,,2022-08-01,清算の結了等,,,2015-10-05,1,,,,,メイワ,0
1613,7011002035506,登記記録の閉鎖等,0,2022-08-16,2022-08-10,株式会社カラフル,,株式会社,東京都,品川区,西五反田７丁目９番２号,,13,109,1410031,,,2022-08-10,合併による解散等,6010001014918,令和４年８月１日東京都新宿区西新宿三丁目２番４号ＪＲＥ西新宿テラス３階株式会社キュービスト（6010001014918）に合併し解散,2015-10-05,1,,,,,カラフル,0
1634,7011602006377,登記記録の閉鎖等,0,2022-08-16,2022-08-02,有限会社滝本塗装工業,,有限会社,埼玉県,新座市,西堀２丁目１５番４５号,,11,230,3520031,,,2022-08-02,清算の結了等,,,2015-10-05,1,,,,,タキモトトソウコウギョウ,0
1641,7011705001639,登記記録の閉鎖等,0,2022-08-16,2022-08-09,一般社団法人オーガニックアンチエイジング学協会,,その他の設立登記法人,東京都,江戸川区,小松川１丁目２番４－９０４号,,13,123,1320034,,,2022-08-09,清算の結了等,,,2020-10-15,1,,,,,オーガニックアンチエイジングガクキョウカイ,0
1646,7012401032498,登記記録の閉鎖等,0,2022-08-16,2022-08-09,株式会社東京丸金会館,,株式会社,東京都,小金井市,本町５丁目１２番７号,,13,210,1840004,,,2022-08-09,合併による解散等,5040001065447,令和４年８月１日千葉県柏市末広町４番２号株式会社柏丸金会館（5040001065447）に合併し解散,2017-03-15,1,,,,,,0
1675,7030001050951,登記記録の閉鎖等,0,2022-08-16,2022-08-03,株式会社機工舎,,株式会社,埼玉県,春日部市,不動院野２６０８番地,,11,214,3440001,,,2022-08-03,清算の結了等,,,2015-10-05,1,,,,,キコウシャ,0
1705,7080401022637,登記記録の閉鎖等,0,2022-08-16,2022-08-10,株式会社アクアドバイ,,株式会社,静岡県,浜松市中区,富塚町１６１８番地の１２７,,22,131,4328002,,,2022-08-10,清算の結了等,,,2018-01-05,1,,,,,アクアドバイ,0
1720,7120001210034,登記記録の閉鎖等,0,2022-08-16,2022-08-10,株式会社三王,,株式会社,大阪府,大阪市西成区,天下茶屋北２丁目５番１５号,,27,122,5570003,,,2022-08-10,清算の結了等,,,2017-12-12,1,,,,,サンオウ,0
1725,7120101004690,登記記録の閉鎖等,0,2022-08-16,2022-08-15,株式会社ダイユー,,株式会社,大阪府,堺市中区,深阪４丁１４番１２号,,27,142,5998253,,,2022-08-15,清算の結了等,,,2015-10-05,1,,,,,ダイユー,0
1733,7120901043987,登記記録の閉鎖等,0,2022-08-16,2022-08-10,株式会社Ｃａｒｅ　Ｉｎｃｌｕｓｉｏｎ,,株式会社,大阪府,茨木市,東太田４丁目１０番３１号の３,,27,211,5670012,,,2022-08-10,清算の結了等,,,2021-03-08,1,,,,,ケアインクルージョン,0
1734,7120902008618,登記記録の閉鎖等,0,2022-08-16,2022-08-12,有限会社サイモン,,有限会社,大阪府,摂津市,鳥飼本町５丁目２番３８号,,27,224,5660052,,,2022-08-12,清算の結了等,,,2015-10-05,1,,,,,サイモン,0
1750,7140001088601,登記記録の閉鎖等,0,2022-08-16,2022-08-10,株式会社北摂観光バス,,株式会社,兵庫県,三田市,南が丘１丁目５４番１１号,,28,219,6691535,,,2022-08-10,清算の結了等,,,2015-10-05,1,,,,,ホクセツカンコウバス,0
1778,7180301033583,登記記録の閉鎖等,0,2022-08-16,2022-08-08,Ｎｉｐｐｏｎ　ＡＷ株式会社,,株式会社,愛知県,刈谷市,若松町３丁目９番地ＹＦ．ＢＬＤＧ．３Ｆ,,23,210,4480858,,,2022-08-08,清算の結了等,,,2020-04-07,1,,,,,ニッポンエイダブリュー,0
1789,7240002020429,登記記録の閉鎖等,0,2022-08-16,2022-08-10,有限会社富永工務店,,有限会社,広島県,広島市南区,翠１丁目１１番４号今坂ビル２０２号,00000979,34,103,7340005,,,2022-08-10,清算の結了等,,,2015-10-05,1,,,,,トミナガコウムテン,0
1790,7240002030485,登記記録の閉鎖等,0,2022-08-16,2022-08-10,有限会社ユーア不動産,,有限会社,広島県,三次市,廻神町２９６９番地の２,,34,209,7296213,,,2022-08-10,清算の結了等,,,2015-10-05,1,,,,,ユーアフドウサン,0
1792,7250001003805,登記記録の閉鎖等,0,2022-08-16,2022-08-09,三共塗装株式会社,,株式会社,山口県,宇部市,大字妻崎開作字作二四二五ノはノ割１８９５番地２４,,35,202,7590204,,,2022-08-09,清算の結了等,,,2015-10-05,1,,,,,サンキョウトソウ,0
1798,7280002000798,登記記録の閉鎖等,0,2022-08-16,2022-08-15,有限会社香華,,有限会社,島根県,松江市,東本町３丁目７１番地,,32,201,6900842,,,2022-08-15,清算の結了等,,,2015-10-05,1,,,,,コウゲ,0
1822,7380001000153,登記記録の閉鎖等,0,2022-08-16,2022-08-08,一條商事株式会社,,株式会社,福島県,福島市,春日町１２番２６号,,07,201,9608116,,,2022-08-08,清算の結了等,,,2015-10-05,1,,,,,イチジョウショウジ,0
1829,7430001044153,登記記録の閉鎖等,0,2022-08-16,2022-08-02,北大産業株式会社,,株式会社,北海道,千歳市,信濃４丁目８番１０号コーポ信和２－２０３号,,01,224,0660038,,,2022-08-02,清算の結了等,,,2015-10-05,1,,,,,ホクダイサンギョウ,0
1834,7490001009010,登記記録の閉鎖等,0,2022-08-16,2022-08-10,ｃｌｏｕｄ９株式会社,,株式会社,高知県,高知市,若松町８番４号,,39,201,7800812,,,2022-08-10,合併による解散等,4490003000366,令和４年８月１０日高知市若松町８番４号株式会社インフラマネジメント（4490003000366）に合併し解散,2018-07-06,1,,,,,クラウドナイン,0
1835,7500001009009,登記記録の閉鎖等,0,2022-08-16,2022-08-12,株式会社篠原酒店,,株式会社,愛媛県,西条市,大町８３０番地の１,,38,206,7930030,,,2022-08-12,清算の結了等,,,2015-10-05,1,,,,,シノハラサケテン,0
1851,8010002028320,登記記録の閉鎖等,0,2022-08-16,2022-08-01,有限会社コリーナ,,有限会社,東京都,中央区,銀座４丁目２番２号,,13,102,1040061,,,2022-08-01,合併による解散等,7010001037439,令和４年８月１日東京都中央区銀座四丁目２番２号株式会社稲垣商事（7010001037439）に合併し解散,2015-10-05,1,,,,,コリーナ,0
1867,8010601038042,登記記録の閉鎖等,0,2022-08-16,2022-08-12,株式会社日本ルミナス,,株式会社,東京都,渋谷区,道玄坂１丁目１２番１号渋谷マークシティウエスト,,13,113,1500043,,,2022-08-12,合併による解散等,9011101019705,令和４年８月１日東京都中野区中野四丁目１０番２号ボストン・サイエンティフィックジャパン株式会社（9011101019705）に合併し解散,2015-10-05,1,,,,,ニホンルミナス,0
1909,8011602021929,登記記録の閉鎖等,0,2022-08-16,2022-08-10,有限会社サン商事,,有限会社,東京都,練馬区,早宮４丁目１５番６号,,13,120,1790085,,,2022-08-10,清算の結了等,,,2015-10-05,1,,,,,サンショウジ,0
1911,8011703001805,登記記録の閉鎖等,0,2022-08-16,2022-08-04,合同会社弓,,合同会社,千葉県,松戸市,栄町８丁目５９７番地の１７,,12,207,2710062,,,2022-08-04,清算の結了等,,,2017-07-12,1,,,,,ユミ,0
1913,8012301012715,登記記録の閉鎖等,0,2022-08-16,2022-08-15,株式会社ホープデザイアー,,株式会社,東京都,町田市,原町田３丁目７番１０号メゾントリアノン３０１,,13,209,1940013,,,2022-08-15,清算の結了等,,,2021-09-22,1,,,,,ホープデザイアー,0
1917,8012402007317,登記記録の閉鎖等,0,2022-08-16,2022-08-04,有限会社ユニッター,,有限会社,東京都,国分寺市,戸倉３丁目１番地１０メゾングランドール１０２号,,13,214,1850003,,,2022-08-04,清算の結了等,,,2015-10-05,1,,,,,ユニッター,0
1922,8020001049449,登記記録の閉鎖等,0,2022-08-16,2022-08-08,株式会社ＰＡＲＡＤＩＳＥ　ＰＡＲＴＹ,,株式会社,東京都,世田谷区,駒沢１丁目２番３３号,,13,112,1540012,,,2022-08-08,清算の結了等,,,2015-10-05,1,,,,,パラダイスパーティー,0
1939,8020003016265,登記記録の閉鎖等,0,2022-08-16,2022-08-03,合同会社グロウスタイル,,合同会社,神奈川県,川崎市中原区,上丸子八幡町７９９番地ヴィルヌーブ新丸子２０７,,14,133,2110001,,,2022-08-03,清算の結了等,,,2019-06-25,1,,,,,グロウスタイル,0
1951,8030002077596,登記記録の閉鎖等,0,2022-08-16,2022-08-02,有限会社大栄建材工業,,有限会社,埼玉県,比企郡川島町,大字山ケ谷戸５４８番地の１,,11,346,3500126,,,2022-08-02,清算の結了等,,,2015-10-05,1,,,,,ダイエイケンザイコウギョウ,0
1961,8040002003452,登記記録の閉鎖等,0,2022-08-16,2022-08-02,有限会社きゃべつ,,有限会社,千葉県,千葉市花見川区,花見川７－９－５０６,,12,102,2620046,,,2022-08-02,清算の結了等,,,2015-10-05,1,,,,,キャベツ,0
1965,8040002057845,登記記録の閉鎖等,0,2022-08-16,2022-08-02,有限会社船尾,,有限会社,千葉県,我孫子市,布佐酉町５８番地の７,,12,222,2701103,,,2022-08-02,清算の結了等,,,2015-10-05,1,,,,,フナオ,0
1972,8080102006335,登記記録の閉鎖等,0,2022-08-16,2022-08-15,有限会社西星仮設工業,,有限会社,静岡県,沼津市,志下７１７番地,,22,203,4100106,,,2022-08-15,清算の結了等,,,2015-10-05,1,,,,,セイセイカセツコウギョウ,0
1983,8110003004038,登記記録の閉鎖等,0,2022-08-16,2022-08-09,合同会社ＬＯＧＩＣＯ,,合同会社,新潟県,柏崎市,田塚１丁目５番３号リエス東柏崎１０１号,,15,205,9450032,,,2022-08-09,清算の結了等,,,2019-11-06,1,,,,,ロジコ,0
1994,8120902018054,登記記録の閉鎖等,0,2022-08-16,2022-08-12,有限会社金村鉄筋,,有限会社,大阪府,豊中市,小曽根１丁目９番１３号,,27,203,5610813,,,2022-08-12,清算の結了等,,,2015-10-05,1,,,,,カネムラテッキン,0
2004,8130002030165,登記記録の閉鎖等,0,2022-08-16,2022-08-08,有限会社京都モラブ,,有限会社,京都府,綴喜郡井手町,大字多賀小字西北ノ代５２番地の３３,,26,343,6100301,,,2022-08-08,清算の結了等,,,2015-10-05,1,,,,,キョウトモラブ,0
2009,8140002042069,登記記録の閉鎖等,0,2022-08-16,2022-08-08,有限会社のぞみ,,有限会社,兵庫県,尼崎市,立花町２丁目２番１１－１０１号,,28,202,6610025,,,2022-08-08,清算の結了等,,,2015-10-05,1,,,,,ノゾミ,0
2011,8140005025343,登記記録の閉鎖等,0,2022-08-16,2022-08-10,一般社団法人ｓｏｄａ　ｎ　ｓｅｅｄｓ,,その他の設立登記法人,兵庫県,明石市,岬町３２番１０号,,28,203,6730895,,,2022-08-10,清算の結了等,,,2020-10-21,1,,,,,ソウダンシツ,0
2015,8180001021879,登記記録の閉鎖等,0,2022-08-16,2022-08-01,サンコー電子工業株式会社,,株式会社,愛知県,名古屋市熱田区,玉の井町７番２３号,,23,109,4560025,,,2022-08-01,合併による解散等,6180001021872,令和４年８月１日名古屋市熱田区玉の井町７番２３号三幸エンジニアリング株式会社（6180001021872）に合併し解散,2015-10-05,1,,,,,サンコーデンシコウギョウ,0
2021,8180002034450,登記記録の閉鎖等,0,2022-08-16,2022-08-10,有限会社元木商会,,有限会社,愛知県,名古屋市守山区,西城１丁目１１番２７号,,23,113,4630084,,,2022-08-10,清算の結了等,,,2015-10-05,1,,,,,モトキショウカイ,0
2040,8250001012020,登記記録の閉鎖等,0,2022-08-16,2022-08-10,株式会社アクアンドエアー,,株式会社,山口県,岩国市,今津町５丁目１７番５号,,35,208,7400017,,,2022-08-10,清算の結了等,,,2015-10-05,1,,,,,アクアンドエアー,0
2045,8290001003247,登記記録の閉鎖等,0,2022-08-16,2022-08-03,株式会社博多っ子本舗,,株式会社,福岡県,福岡市中央区,港２丁目３番１９号,,40,133,8100075,,,2022-08-03,清算の結了等,,,2015-10-05,1,,,,,ハカタッコホンポ,0
2070,8380002035420,登記記録の閉鎖等,0,2022-08-16,2022-08-08,有限会社オフィス・ミナカワ,,有限会社,福島県,南会津郡南会津町,田島字東荒井甲２５０５番地１,,07,368,9670004,,,2022-08-08,清算の結了等,,,2015-10-05,1,,,,,オフィスミナカワ,0
2079,8500001019320,登記記録の閉鎖等,0,2022-08-16,2022-08-05,株式会社ＥＩＫＩコーポレーション,,株式会社,京都府,京都市伏見区,奉行前町３番地,,26,109,6128108,,,2022-08-05,清算の結了等,,,2015-10-05,1,,,,,エイキコーポレーション,0
2109,9010005031700,登記記録の閉鎖等,0,2022-08-16,2022-08-04,一般社団法人日本医療コンシェルジュ研究所,,その他の設立登記法人,東京都,中央区,日本橋本石町３丁目３番８号日本橋優和ビル５階,,13,102,1030021,,,2022-08-04,清算の結了等,,,2020-04-09,1,,,,,ニホンイリョウコンシェルジュケンキュウジョ,0
2143,9011001138423,登記記録の閉鎖等,0,2022-08-16,2022-08-09,ＧＯＥＳ株式会社,,株式会社,東京都,渋谷区,恵比寿４丁目２０番４号,,13,113,1500013,,,2022-08-09,合併による解散等,4140001047147,令和４年８月１日神戸市東灘区向洋町中六丁目９番地ＫＦＭ内１０Ｅ－０７株式会社Ｋｉｄｓ　Ｄｅｖｅｌｏｐｅｒ（4140001047147）に合併し解散,2021-02-08,1,,,,,,0
2178,9012401037009,登記記録の閉鎖等,0,2022-08-16,2022-08-10,株式会社プロスコート,,株式会社,東京都,小金井市,梶野町４丁目２番７号,,13,210,1840002,,,2022-08-10,清算の結了等,,,2020-09-28,1,,,,,プロスコート,0
2194,9020002044101,登記記録の閉鎖等,0,2022-08-16,2022-08-10,有限会社富屋,,有限会社,静岡県,浜松市中区,元浜町３４番地の３ディーグランセ元浜１１０１号,,22,131,4300942,,,2022-08-10,清算の結了等,,,2015-10-05,1,,,,,トミヤ,0
2206,9021002067521,登記記録の閉鎖等,0,2022-08-16,2022-08-10,有限会社山森工務店,,有限会社,神奈川県,横須賀市,田浦町３丁目８８番地,,14,201,2370075,,,2022-08-10,清算の結了等,,,2015-10-05,1,,,,,ヤマモリコウムテン,0
2215,9030001125553,登記記録の閉鎖等,0,2022-08-16,2022-08-09,株式会社カツヨシハニュウ,,株式会社,埼玉県,羽生市,大字小須賀５７１番地１,,11,216,3480042,,,2022-08-09,合併による解散等,2370001041046,令和４年８月１日宮城県石巻市茜平一丁目２番地４株式会社カツヨシファイン（2370001041046）に合併し解散,2018-05-14,1,,,,,カツヨシハニュウ,0
2218,9030002064263,登記記録の閉鎖等,0,2022-08-16,2022-08-02,有限会社正和,,有限会社,埼玉県,和光市,白子２丁目２４番１４号,,11,229,3510101,,,2022-08-02,清算の結了等,,,2015-10-05,1,,,,,ショウワ,0
2232,9040002003988,登記記録の閉鎖等,0,2022-08-16,2022-08-02,有限会社京葉プランニング,,有限会社,千葉県,松戸市,西馬橋蔵元町１８３番地シティプラザＩＩ１Ｆ,00126975,12,207,2710046,,,2022-08-02,合併による解散等,5040001076592,令和４年８月２日千葉県松戸市西馬橋蔵元町１８３番地シティプラザＩＩ１Ｆアールフィールズ株式会社（5040001076592）に合併し解散,2015-10-05,1,,,,,ケイヨウプランニング,0
2242,9080102014857,登記記録の閉鎖等,0,2022-08-16,2022-08-12,有限会社富士オオトミテニスクラブ,,有限会社,静岡県,富士市,中野１０１２番地の３,,22,210,4170809,,,2022-08-12,清算の結了等,,,2015-10-05,1,,,,,フジオオトミテニスクラブ,0
2249,9110005000777,登記記録の閉鎖等,0,2022-08-16,2022-08-09,学校法人新潟大谷学園,,その他の設立登記法人,新潟県,新潟市中央区,長嶺町１０番１１号,,15,103,9500085,,,2022-08-09,清算の結了等,,,2015-10-05,1,,,,,ニイガタオオタニガクエン,0
2260,9120002015620,登記記録の閉鎖等,0,2022-08-16,2022-08-12,有限会社スナゴ,,有限会社,大阪府,大阪市港区,築港３丁目９番２号,,27,107,5520021,,,2022-08-12,清算の結了等,,,2015-10-05,1,,,,,スナゴ,0
2285,9130001064262,登記記録の閉鎖等,0,2022-08-16,2022-08-03,株式会社Ｊ．Ｈ．Ｔ　ｓｙｓｔｅｍ,,株式会社,京都府,舞鶴市,字倉谷８４５番地８,,26,202,6240906,,,2022-08-03,清算の結了等,,,2019-04-09,1,,,,,ジェイエイチティシステム,0
2294,9150001020180,登記記録の閉鎖等,0,2022-08-16,2022-08-10,株式会社やまと国際総研顧問事務所,,株式会社,奈良県,奈良市,法蓮町３９９番地の８,,29,201,6308113,,,2022-08-10,清算の結了等,,,2015-10-05,1,,,,,ヤマトコクサイソウケンコモンジムショ,0
2304,9180002007422,登記記録の閉鎖等,0,2022-08-16,2022-08-09,有限会社米村商店,,有限会社,愛知県,名古屋市港区,多加良浦町４丁目１３８番地,,23,111,4550825,,,2022-08-09,清算の結了等,,,2015-10-05,1,,,,,ヨネムラショウテン,0
2310,9230001003573,登記記録の閉鎖等,0,2022-08-16,2022-08-12,万葉ペイント株式会社,,株式会社,富山県,砺波市,矢木５８０番地３０,,16,208,9391317,,,2022-08-12,清算の結了等,,,2015-10-05,1,,,,,マンヨウペイント,0
2319,9280002010127,登記記録の閉鎖等,0,2022-08-16,2022-08-10,有限会社ツバキ時計店,,有限会社,島根県,益田市,駅前町１１番１９号,,32,204,6980024,,,2022-08-10,清算の結了等,,,2015-10-05,1,,,,,ツバキトケイテン,0
2320,9280002010795,登記記録の閉鎖等,0,2022-08-16,2022-08-10,株式会社建鈑,,株式会社,島根県,益田市,乙吉町イ３４２番地１第一ビル２０６号室,,32,204,6980003,,,2022-08-10,清算の結了等,,,2015-10-05,1,,,,,ケンバン,0
2343,9380002015314,登記記録の閉鎖等,0,2022-08-16,2022-08-05,有限会社根本運送,,有限会社,福島県,田村市,船引町堀越字二ッ森２９６番地,,07,211,9634204,,,2022-08-05,清算の結了等,,,2015-10-05,1,,,,,,0
