sequenceNumber,corporateNumber,process,correct,updateDate,changeDate,name,nameImageId,kind,prefectureName,cityName,streetNumber,addressImageId,prefectureCode,cityCode,postCode,addressOutside,addressOutsideImageId,closeDate,closeCause,successorCorporateNumber,changeCause,assignmentDate,latest,enName,enPrefectureName,enCityName,enAddressOutside,furigana,hihyoji
5,1010001261168,新規,0,2026-01-13,2026-01-13,ＡＩ　Ｂｅｙｏｎｄ株式会社,,株式会社,東京都,千代田区,紀尾井町３－２９紀尾井町アークビル１０１,,13,101,1020094,,,,,,,2026-01-13,1,,,,,エーアイビヨンド,0
6,1010001261622,新規,0,2026-01-13,2026-01-13,株式会社Ｔｓｕｇｉｙａ,,株式会社,東京都,中央区,日本橋３丁目２番１４号新槇町ビル別館第一１階,,13,102,1030027,,,,,,,2026-01-13,1,,,,,ツギヤ,0
7,1010001261655,新規,0,2026-01-13,2026-01-13,株式会社ｙｕｍｍｙ,,株式会社,東京都,中央区,銀座２丁目２番１９号藤間ビル４階,,13,102,1040061,,,,,,,2026-01-13,1,,,,,ヤミー,0
8,1010001261779,新規,0,2026-01-13,2026-01-13,アリタジャパン株式会社,,株式会社,東京都,中央区,銀座６丁目６番１号銀座風月堂ビル５Ｆ,,13,102,1040061,,,,,,,2026-01-13,1,,,,,アリタジャパン,0
12,1010005041186,新規,0,2026-01-13,2026-01-13,山佐ネクストＮＫＬＭ一般社団法人,,その他の設立登記法人,東京都,千代田区,丸の内１丁目４番１号東京共同会計事務所内,,13,101,1000005,,,,,,,2026-01-13,1,,,,,ヤマサネクストエヌケイエルエム,0
13,1010005041203,新規,0,2026-01-13,2026-01-13,一般社団法人Ｊａｐａｎ　Ｇｒａｎｄ　Ｃｈａｌｌｅｎｇｅ研究会,,その他の設立登記法人,東京都,千代田区,霞が関３丁目６番１４号三久ビル９階,,13,101,1000013,,,,,,,2026-01-13,1,,,,,ジャパングランドチャレンジケンキュウカイ,0
15,1010401195627,新規,0,2026-01-13,2026-01-13,ｂｒａｎｄｎｅｕ株式会社,,株式会社,東京都,港区,南青山２丁目２番１５号ＷｉｎＡｏｙａｍａビルＵＣＦ６３５,,13,103,1070062,,,,,,,2026-01-13,1,,,,,ブランドニュー,0
16,1010401195684,新規,0,2026-01-13,2026-01-13,ＡＡｔｅｋ　Ｊａｐａｎ株式会社,,株式会社,東京都,港区,新橋２丁目２０番１５号新橋駅前ビル１号館４階,,13,103,1050004,,,,,,,2026-01-13,1,,,,,エーエーテックジャパン,0
18,1010501055284,新規,0,2026-01-13,2026-01-13,４Ｃｓ株式会社,,株式会社,東京都,台東区,浅草１丁目１３番５号井門浅草すしや通りビル４階,,13,106,1110032,,,,,,,2026-01-13,1,,,,,フォーシーズ,0
22,1010601068558,新規,0,2026-01-13,2026-01-13,株式会社ＭＡＧＮＥＳＩＵＭ,,株式会社,東京都,江東区,豊洲５丁目６番３６号豊洲プライムスクエア１０Ｆ,,13,108,1350061,,,,,,,2026-01-13,1,,,,,マグネシウム,0
23,1010601068566,新規,0,2026-01-13,2026-01-13,株式会社ＳｍｉｌｅＬｉｎｋ,,株式会社,東京都,墨田区,本所２丁目１番１２号,,13,107,1300004,,,,,,,2026-01-13,1,,,,,スマイルリンク,0
27,1010701048831,新規,0,2026-01-13,2026-01-13,株式会社０３５,,株式会社,東京都,品川区,大井１丁目３１番１－５２６号,,13,109,1400014,,,,,,,2026-01-13,1,,,,,マサコ,0
28,1010701048872,新規,0,2026-01-13,2026-01-13,株式会社ヒラサワ,,株式会社,東京都,品川区,南品川５丁目１１番４１号,,13,109,1400004,,,,,,,2026-01-13,1,,,,,ヒラサワ,0
32,1010801036942,新規,0,2026-01-13,2026-01-13,株式会社ＭＫＳ,,株式会社,東京都,大田区,西糀谷４丁目２９番１６号,,13,111,1440034,,,,,,,2026-01-13,1,,,,,エムケーエス,0
33,1010801036950,新規,0,2026-01-13,2026-01-13,株式会社藤井事務所,,株式会社,東京都,大田区,南馬込４丁目７番６号,,13,111,1430025,,,,,,,2026-01-13,1,,,,,フジイジムショ,0
37,1010901058779,新規,0,2026-01-13,2026-01-13,株式会社ＭＥＤＩＬＩＮＫ,,株式会社,東京都,世田谷区,下馬１丁目２９番５号,,13,112,1540002,,,,,,,2026-01-13,1,,,,,メディリンク,0
38,1010903010548,新規,0,2026-01-13,2026-01-13,合同会社ＭＥＷ　ＷＯＲＫＳ,,合同会社,東京都,世田谷区,太子堂４丁目１８番１５号マガザン三軒茶屋２－３Ｆ－３,,13,112,1540004,,,,,,,2026-01-13,1,,,,,ミュウワークス,0
43,1011001174806,新規,0,2026-01-13,2026-01-13,株式会社ＯｐｅｎＹｏｕｔｈ,,株式会社,東京都,渋谷区,道玄坂１丁目１０番８号渋谷道玄坂東急ビル２Ｆ－Ｃ,,13,113,1500043,,,,,,,2026-01-13,1,,,,,オープンユース,0
44,1011001174839,新規,0,2026-01-13,2026-01-13,株式会社ＭｏｒｉＧｒａｎ,,株式会社,東京都,渋谷区,東３丁目２０番１号Ｂ－ＦＬＡＴ５０１,,13,113,1500011,,,,,,,2026-01-13,1,,,,,モリグラン,0
47,1011003023291,新規,0,2026-01-13,2026-01-13,ＨＵＥ　Ｐｒｉｓｍａｔｉｃａ　Ｉｎｃ．合同会社,,合同会社,東京都,渋谷区,道玄坂１丁目１０番８号渋谷道玄坂東急ビル２Ｆ―Ｃ,,13,113,1500043,,,,,,,2026-01-13,1,,,,,ヒュープリズマティカ,0
54,1011101114331,新規,0,2026-01-13,2026-01-13,株式会社スズアーキテクツ一級建築士事務所,,株式会社,東京都,新宿区,下落合３丁目１５－２０山中ビル４階,,13,104,1610033,,,,,,,2026-01-13,1,,,,,スズアーキテクツイッキュウケンチクシジムショ,0
55,1011103016856,新規,0,2026-01-13,2026-01-13,サウンドバード合同会社,,合同会社,東京都,新宿区,西新宿６丁目５番１号新宿アイランドタワー２階,,13,104,1600023,,,,,,,2026-01-13,1,,,,,サウンドバード,0
56,1011201026889,新規,0,2026-01-13,2026-01-13,株式会社エイチ・アイ,,株式会社,東京都,中野区,弥生町２丁目１１番１０号,,13,114,1640013,,,,,,,2026-01-13,1,,,,,エイチアイ,0
58,1011305003090,新規,0,2026-01-13,2026-01-13,一般社団法人ハルネ,,その他の設立登記法人,東京都,杉並区,和田３丁目６１番８－１００２号,,13,115,1660012,,,,,,,2026-01-13,1,,,,,ハルネ,0
63,1011401027720,新規,0,2026-01-13,2026-01-13,株式会社陽光ソレイユ,,株式会社,東京都,板橋区,南常盤台１丁目１１－６レフア南常盤台１０１号室,,13,119,1740072,,,,,,,2026-01-13,1,,,,,ヨウコウソレイユ,0
65,1011501032975,新規,0,2026-01-13,2026-01-13,ＬＵＭＩＳＴＡＲ株式会社,,株式会社,東京都,北区,浮間１丁目１番１４号リムジンビル２０５号室,,13,117,1150051,,,,,,,2026-01-13,1,,,,,ルミスター,0
68,1011601029302,新規,0,2026-01-13,2026-01-13,株式会社ＳＲ,,株式会社,東京都,練馬区,南大泉１丁目４７番１１号,,13,120,1780064,,,,,,,2026-01-13,1,,,,,エスアール,0
74,1012401044012,新規,0,2026-01-13,2026-01-13,億瓏貿易株式会社,,株式会社,東京都,三鷹市,下連雀３丁目３４番１３号,,13,204,1810013,,,,,,,2026-01-13,1,,,,,イーロンボウエキ,0
76,1012701019267,新規,0,2026-01-13,2026-01-13,株式会社木川電気,,株式会社,東京都,西東京市,保谷町５丁目１１番２６号,,13,229,2020015,,,,,,,2026-01-13,1,,,,,キガワデンキ,0
79,1013301055578,新規,0,2026-01-13,2026-01-13,株式会社鳳翔,,株式会社,東京都,豊島区,東池袋５丁目４０番６号第二赤尾ビル２０１,,13,116,1700013,,,,,,,2026-01-13,1,,,,,ホウショウ,0
86,1020001166589,新規,0,2026-01-13,2026-01-13,株式会社ＧｒａｎＶｅｔ,,株式会社,神奈川県,横浜市港南区,日野５丁目２番７号サンブリッジ貴奈美１階,,14,111,2340051,,,,,,,2026-01-13,1,,,,,グランベット,0
87,1020001166597,新規,0,2026-01-13,2026-01-13,株式会社結,,株式会社,神奈川県,横浜市神奈川区,七島町１１２番地５パレス日生１階１０１号室,,14,102,2210061,,,,,,,2026-01-13,1,,,,,ユイ,0
89,1020003030108,新規,0,2026-01-13,2026-01-13,合同会社メイツ,,合同会社,神奈川県,横浜市青葉区,桜台５番地３１サンライズ青葉台２０６号,,14,117,2270061,,,,,,,2026-01-13,1,,,,,メイツ,0
93,1021001087180,新規,0,2026-01-13,2026-01-13,株式会社オアシスコーポレーション,,株式会社,神奈川県,小田原市,南鴨宮３丁目４番２１号,,14,206,2500875,,,,,,,2026-01-13,1,,,,,オアシスコーポレーション,0
100,1030001170482,新規,0,2026-01-13,2026-01-13,株式会社ＡＫＩＫＡ,,株式会社,埼玉県,吉川市,高富２丁目９－１２ブリエリッシュ１０３,,11,243,3420036,,,,,,,2026-01-13,1,,,,,アキカ,0
101,1030001170516,新規,0,2026-01-13,2026-01-13,株式会社関根農園,,株式会社,埼玉県,春日部市,増田新田３８番地,,11,214,3440025,,,,,,,2026-01-13,1,,,,,セキネノウエン,0
102,1030001170524,新規,0,2026-01-13,2026-01-13,株式会社南彩トラベル,,株式会社,埼玉県,川口市,東川口４丁目１８番１６号セジュール１０１,,11,203,3330801,,,,,,,2026-01-13,1,,,,,ナンサイトラベル,0
104,1030003028423,新規,0,2026-01-13,2026-01-13,合同会社Ｒｕｎｄｏｌｌ,,合同会社,埼玉県,東松山市,大字上押垂１２０番地,,11,212,3550074,,,,,,,2026-01-13,1,,,,,ランドール,0
111,1040001141978,新規,0,2026-01-13,2026-01-13,株式会社Ｌｙｃｏｒｉｓ　Ｐａｒｔｎｅｒｓ,,株式会社,千葉県,浦安市,富士見２丁目１番４２－１０５号リアナリバーパーク舞浜,,12,227,2790043,,,,,,,2026-01-13,1,,,,,リコリスパートナーズ,0
112,1040001142010,新規,0,2026-01-13,2026-01-13,株式会社ｋｒｅｉｓ,,株式会社,千葉県,四街道市,旭ケ丘１丁目１３番１６号,,12,228,2840024,,,,,,,2026-01-13,1,,,,,クライス,0
113,1040001142027,新規,0,2026-01-13,2026-01-13,株式会社マノメリ,,株式会社,千葉県,千葉市花見川区,み春野１丁目９番３号,,12,102,2620007,,,,,,,2026-01-13,1,,,,,マノメリ,0
114,1040001142035,新規,0,2026-01-13,2026-01-13,株式会社ＮＯＥＬＬ,,株式会社,千葉県,成田市,吉倉２６２番地７一心ビル１Ｆ,,12,211,2860133,,,,,,,2026-01-13,1,,,,,ノエル,0
115,1040001142051,新規,0,2026-01-13,2026-01-13,株式会社泰達,,株式会社,千葉県,長生郡長柄町,山根１６９３番地,,12,426,2970206,,,,,,,2026-01-13,1,,,,,タイタツ,0
116,1040001142076,新規,0,2026-01-13,2026-01-13,ハルニップ株式会社,,株式会社,千葉県,松戸市,松戸１３０７番地の１松戸ビル１３Ｆ,,12,207,2710092,,,,,,,2026-01-13,1,,,,,ハルニップ,0
119,1040003029255,新規,0,2026-01-13,2026-01-13,合同会社ＫＯＢＵ介護予防ラボ,,合同会社,千葉県,茂原市,高師５２１番地１,,12,210,2970029,,,,,,,2026-01-13,1,,,,,,0
122,1050003009859,新規,0,2026-01-13,2026-01-13,合同会社ＧＲＥＥＮ　ＭＯＮＳＴＥＲ,,合同会社,茨城県,土浦市,小松３丁目２７番２２号,,08,203,3000823,,,,,,,2026-01-13,1,,,,,グリーンモンスター,0
127,1070001043734,新規,0,2026-01-13,2026-01-13,株式会社ＪＯＮＺ,,株式会社,群馬県,渋川市,北橘町下南室１０５番地３,,10,208,3770054,,,,,,,2026-01-13,1,,,,,ジョンズ,0
129,1080101026002,新規,0,2026-01-13,2026-01-13,株式会社熱川企画,,株式会社,静岡県,賀茂郡東伊豆町,大川１０９５－９４,,22,301,4130301,,,,,,,2026-01-13,1,,,,,アタガワキカク,0
130,1080101026010,新規,0,2026-01-13,2026-01-13,株式会社ＭＯＶＩＮＧ　ＢＡＳＥ　ＳＥＲＶＩＣＥ,,株式会社,静岡県,沼津市,志下７３６番地の２,,22,203,4100106,,,,,,,2026-01-13,1,,,,,ムービングベースサービス,0
131,1080101026019,新規,0,2026-01-13,2026-01-13,株式会社ＭＡＲＩＨＡＲＵ,,株式会社,静岡県,富士宮市,山本４４６番地の５４タウンスクエア高原Ｃ棟２,,22,207,4180023,,,,,,,2026-01-13,1,,,,,マリハル,0
132,1080103003503,新規,0,2026-01-13,2026-01-13,Ｇｌｉｔｔｅｒｉｎｇ　Ｓｔａｒｓ合同会社,,合同会社,静岡県,裾野市,須山２２５５番地の３５０３,,22,220,4101231,,,,,,,2026-01-13,1,,,,,グリッタリングスターズ,0
140,1110001039843,新規,0,2026-01-13,2026-01-13,とちお棚田ブラザーズ株式会社,,株式会社,新潟県,長岡市,栃尾表町９番１号,,15,202,9400218,,,,,,,2026-01-13,1,,,,,トチオタナダブラザーズ,0
158,1120001283184,新規,0,2026-01-13,2026-01-13,株式会社エイトクリエイト,,株式会社,大阪府,大阪市中央区,上町Ｂ－８,,27,128,5400005,,,,,,,2026-01-13,1,,,,,エイトクリエイト,0
159,1120001283226,新規,0,2026-01-13,2026-01-13,Ｍｙｓｅｎ　Ｇｒｏｕｐ株式会社,,株式会社,大阪府,大阪市浪速区,日本橋東１丁目６－７セレニテ日本橋プリエ１１０６号室,,27,111,5560006,,,,,,,2026-01-13,1,,,,,マイセングループ,0
160,1120001283250,新規,0,2026-01-13,2026-01-13,株式会社Ｔ・Ｋ・Ｍ,,株式会社,大阪府,大阪市西成区,岸里東１丁目１１番７号１階,,27,122,5570042,,,,,,,2026-01-13,1,,,,,ティーケーエム,0
161,1120001283259,新規,0,2026-01-13,2026-01-13,株式会社ルシャン・プロフォン,,株式会社,大阪府,大阪市中央区,松屋町３番２３－９１０号,,27,128,5420067,,,,,,,2026-01-13,1,,,,,ルシャンプロフォン,0
162,1120001283267,新規,0,2026-01-13,2026-01-13,株式会社ＱＯＬＯＯＰ,,株式会社,大阪府,大阪市中央区,備後町３丁目４－８フクエイビル６０５,,27,128,5410051,,,,,,,2026-01-13,1,,,,,クオループ,0
164,1120005025343,新規,0,2026-01-13,2026-01-13,一般財団法人フクシマアート＆スポーツ支援財団,,その他の設立登記法人,大阪府,大阪市西淀川区,竹島２丁目６番１８号,,27,113,5550011,,,,,,,2026-01-13,1,,,,,フクシマアートアンドスポーツシエンザイダン,0
167,1120101073056,新規,0,2026-01-13,2026-01-13,株式会社Ｓｕｉｓａｉ,,株式会社,大阪府,堺市南区,三原台２丁７番１－１０１５号,,27,145,5900111,,,,,,,2026-01-13,1,,,,,スイサイ,0
168,1120101073064,新規,0,2026-01-13,2026-01-13,株式会社Ｓａｎ,,株式会社,大阪府,和泉市,葛の葉町２丁目１７番２２号,,27,219,5940081,,,,,,,2026-01-13,1,,,,,サン,0
169,1120101073072,新規,0,2026-01-13,2026-01-13,株式会社ｍｕｋｕ,,株式会社,大阪府,羽曳野市,大黒１０３番地の１４,,27,222,5830847,,,,,,,2026-01-13,1,,,,,ムク,0
172,1120901052077,新規,0,2026-01-13,2026-01-13,株式会社ＲＥＢＯＲＮ,,株式会社,大阪府,摂津市,別府２丁目３０番６号,,27,224,5660046,,,,,,,2026-01-13,1,,,,,リボーン,0
177,1130001081348,新規,0,2026-01-13,2026-01-13,株式会社Ｋａｉ,,株式会社,京都府,京都市東山区,堀池町３７４－５,,26,105,6050038,,,,,,,2026-01-13,1,,,,,カイ,0
178,1130001081372,新規,0,2026-01-13,2026-01-13,株式会社Ｈ．Ｋ．Ｙ,,株式会社,京都府,京都市山科区,竹鼻竹ノ街道町６５番地２,,26,110,6078080,,,,,,,2026-01-13,1,,,,,エイチケイワイ,0
180,1140001141191,新規,0,2026-01-13,2026-01-13,株式会社Ｆｕｎｃｔｉｏｎａｌ,,株式会社,兵庫県,明石市,大久保町大窪２７２６番地の３,,28,203,6740051,,,,,,,2026-01-13,1,,,,,ファンクショナル,0
181,1140001141324,新規,0,2026-01-13,2026-01-13,株式会社ＮＯＡＬＬＩＡ,,株式会社,兵庫県,神戸市中央区,磯辺通１丁目１番１８号カサベラ国際プラザビル７０７号室,,28,110,6510084,,,,,,,2026-01-13,1,,,,,ノアリア,0
185,1150001028644,新規,0,2026-01-13,2026-01-13,株式会社Ｓｔａｙ　ＧＯＬＤ,,株式会社,奈良県,天理市,西長柄町４４６番地,,29,204,6320063,,,,,,,2026-01-13,1,,,,,ステイゴールド,0
186,1150003003802,新規,0,2026-01-13,2026-01-13,合同会社ているうぃんど,,合同会社,奈良県,生駒市,東菜畑１丁目１０３番地２サンロイヤル２０２号室,,29,209,6300215,,,,,,,2026-01-13,1,,,,,テイルウィンド,0
192,1180001170162,新規,0,2026-01-13,2026-01-13,ＴＲＥ’Ｓ　ＤＥＳＩＧＮ株式会社,,株式会社,愛知県,名古屋市中区,新栄２丁目１番地９,,23,106,4600007,,,,,,,2026-01-13,1,,,,,トレスデザイン,0
193,1180001170170,新規,0,2026-01-13,2026-01-13,株式会社丹羽建設,,株式会社,愛知県,名古屋市緑区,藤塚３丁目７１２番地,,23,114,4580813,,,,,,,2026-01-13,1,,,,,ニワケンセツ,0
194,1180001170179,新規,0,2026-01-13,2026-01-13,株式会社眞窯,,株式会社,愛知県,瀬戸市,中品野町３３０番地,,23,204,4801218,,,,,,,2026-01-13,1,,,,,シンガマ,0
195,1180001170229,新規,0,2026-01-13,2026-01-13,ＳＭＧホールディングス株式会社,,株式会社,愛知県,大府市,吉田町６丁目３６番地,,23,223,4740048,,,,,,,2026-01-13,1,,,,,エスエムジーホールディングス,0
200,1180003029588,新規,0,2026-01-13,2026-01-13,合同会社ＮｅｃｏＴｅＣｈｒａｆｔ,,合同会社,愛知県,名古屋市中村区,名駅４丁目２４番５号第２森ビル４０１,,23,105,4500002,,,,,,,2026-01-13,1,,,,,ネコテクラフト,0
201,1180005021386,新規,0,2026-01-13,2026-01-13,弁護士法人Ｌ,,その他の設立登記法人,愛知県,名古屋市中区,栄２丁目９番３０号栄山吉ビル６階,,23,106,4600008,,,,,,,2026-01-13,1,,,,,エル,0
202,1180301040569,新規,0,2026-01-13,2026-01-13,株式会社加古農産,,株式会社,愛知県,西尾市,刈宿町上浜田８番地,,23,213,4440321,,,,,,,2026-01-13,1,,,,,カコノウサン,0
203,1180301040585,新規,0,2026-01-13,2026-01-13,ディー・エース株式会社,,株式会社,愛知県,豊橋市,平川本町２丁目４番地１７,,23,201,4400038,,,,,,,2026-01-13,1,,,,,ディーエース,0
206,1200001044603,新規,0,2026-01-13,2026-01-13,株式会社デジタリゾート,,株式会社,岐阜県,恵那市,大井町２７０９番地２２１,,21,210,5097201,,,,,,,2026-01-13,1,,,,,デジタリゾート,0
210,1210001020454,新規,0,2026-01-13,2026-01-13,株式会社上庄ファーム,,株式会社,福井県,大野市,友兼第６号５７番地,,18,205,9120411,,,,,,,2026-01-13,1,,,,,カミショウファーム,0
218,1220005009030,新規,0,2026-01-13,2026-01-13,農事組合法人ＳＨＩＫＩＲＯ,,その他の設立登記法人,石川県,羽咋郡宝達志水町,敷浪１区７６番地,,17,386,9291415,,,,,,,2026-01-13,1,,,,,シキロ,0
219,1230003002564,新規,0,2026-01-13,2026-01-13,合同会社イアーワン,,合同会社,富山県,射水市,桜町１５－４,,16,211,9340015,,,,,,,2026-01-13,1,,,,,イアーワン,0
221,1240001066024,新規,0,2026-01-13,2026-01-13,広島小水力発電株式会社,,株式会社,広島県,東広島市,高屋町桧山４７６番地２,,34,212,7392105,,,,,,,2026-01-13,1,,,,,ヒロシマショウスイリョクハツデン,0
222,1240001066040,新規,0,2026-01-13,2026-01-13,株式会社ＫＧテック,,株式会社,広島県,福山市,船町５番１８号Ａ,,34,207,7200043,,,,,,,2026-01-13,1,,,,,ケージーテック,0
224,1240003007554,新規,0,2026-01-13,2026-01-13,合同会社Ｋ　ｗｉｔｈ　Ｋ,,合同会社,広島県,広島市南区,松原町１０番２９号,,34,103,7320822,,,,,,,2026-01-13,1,,,,,ケイウィズケイ,0
227,1260001040893,新規,0,2026-01-13,2026-01-13,株式会社三城興産,,株式会社,岡山県,岡山市南区,曽根７３３番地３,,33,104,7010214,,,,,,,2026-01-13,1,,,,,ミキコウサン,0
230,1260003005481,新規,0,2026-01-13,2026-01-13,合同会社蒼林,,合同会社,岡山県,玉野市,築港４丁目１６－１,,33,204,7060002,,,,,,,2026-01-13,1,,,,,ソウリン,0
235,1290001112665,新規,0,2026-01-13,2026-01-13,株式会社ＲＡＷＡ,,株式会社,福岡県,福岡市早良区,内野３丁目１２番３７号,,40,137,8111123,,,,,,,2026-01-13,1,,,,,ラワ,0
236,1290001112756,新規,0,2026-01-13,2026-01-13,株式会社ＬＩＴＥＳＴＯＲＫ,,株式会社,福岡県,久留米市,北野町中１９３番地１、１０１号,,40,203,8301113,,,,,,,2026-01-13,1,,,,,ライトストーク,0
238,1290003017912,新規,0,2026-01-13,2026-01-13,ＮＹＢＩ合同会社,,合同会社,福岡県,福岡市東区,みどりが丘１丁目５番１０号,,40,131,8130021,,,,,,,2026-01-13,1,,,,,エヌワイビーアイ,0
243,1290801032170,新規,0,2026-01-13,2026-01-13,株式会社旭電興,,株式会社,福岡県,宮若市,黒丸１２５４番地,,40,226,8220146,,,,,,,2026-01-13,1,,,,,アサヒデンコウ,0
291,1330005011009,新規,0,2026-01-13,2026-01-13,医療法人有祐会,00142143,その他の設立登記法人,熊本県,人吉市,東間上町２８１１番地１,,43,203,8680043,,,,,,,2026-01-13,1,,,,,ユウユウカイ,0
292,1340001027882,新規,0,2026-01-13,2026-01-13,株式会社西田酪農,,株式会社,鹿児島県,肝属郡東串良町,池之原２０１２番地,,46,482,8931612,,,,,,,2026-01-13,1,,,,,ニシダラクノウ,0
297,1370001053364,新規,0,2026-01-13,2026-01-13,株式会社５１,,株式会社,宮城県,仙台市青葉区,大町２丁目５番３－３０１号,,04,101,9800804,,,,,,,2026-01-13,1,,,,,フィフティワン,0
298,1370001053380,新規,0,2026-01-13,2026-01-13,株式会社レニクス,,株式会社,宮城県,仙台市青葉区,国分町１丁目８－１３仙台協立第一ビル２－８，９,,04,101,9800803,,,,,,,2026-01-13,1,,,,,レニクス,0
299,1370001053389,新規,0,2026-01-13,2026-01-13,クラックス株式会社,,株式会社,宮城県,仙台市若林区,遠見塚１丁目２０番２０－４０３号,,04,103,9840823,,,,,,,2026-01-13,1,,,,,クラックス,0
301,1380001035799,新規,0,2026-01-13,2026-01-13,株式会社Ｋ．ＩＮＤＵＳＴＲＹ,,株式会社,福島県,福島市,永井川字寺屋敷７番地の６,,07,201,9601102,,,,,,,2026-01-13,1,,,,,ケーインダストリィ,0
303,1390003002482,新規,0,2026-01-13,2026-01-13,合同会社上昇,,合同会社,山形県,山形市,嶋南３丁目１４番２４号,,06,201,9900886,,,,,,,2026-01-13,1,,,,,ジョウショウ,0
304,1410001014361,新規,0,2026-01-13,2026-01-13,ＧａｋｋＥグループ株式会社,,株式会社,秋田県,仙北郡美郷町,中野字内城１２０番地１,,05,434,0191521,,,,,,,2026-01-13,1,,,,,ガッケグループ,0
306,1430001096035,新規,0,2026-01-13,2026-01-13,株式会社ｔｙ　ｃｏｍｐａｎｙ,,株式会社,北海道,札幌市厚別区,厚別東三条４丁目２番１７－５０２号,,01,108,0040003,,,,,,,2026-01-13,1,,,,,ティーワイカンパニー,0
307,1440003001743,新規,0,2026-01-13,2026-01-13,合同会社Ｓｏｕｒｉｒｅ　ｒａｄｉｅｕｘ,,合同会社,北海道,函館市,山の手２丁目５番１号,,01,202,0410836,,,,,,,2026-01-13,1,,,,,スリールラディユー,0
312,1490003002084,新規,0,2026-01-13,2026-01-13,安芸農園合同会社,,合同会社,高知県,安芸市,井ノ口甲８５０番地,,39,203,7840051,,,,,,,2026-01-13,1,,,,,アキノウエン,0
315,1700150133908,新規,0,2026-01-13,2026-01-13,Ｔｓｕｙｏｉ　Ｒｏｂａ　Ｐｔｙ　Ｌｔｄ,,外国会社等,,,,,,,,ＰＡＬＥＲＭＯ　ＣＨＡＲＴＥＲＥＤ　ＡＣＣＯＵＮＴＡＮＴＳ，Ｌｅｖｅｌ　１，２８４　Ｏｘｆｏｒｄ　Ｓｔｒｅｅｔ，ＬＥＥＤＥＲＶＩＬＬＥ　ＷＡ　６００７,,,,,,2026-01-13,1,,,,,ツヨイロバピーテイーワイリミテツド,0
317,2010001261324,新規,0,2026-01-13,2026-01-13,株式会社ＴＲＵＳＴＵＭ,,株式会社,東京都,中央区,銀座１丁目２２番１１号銀座大竹ビジデンス２Ｆ,,13,102,1040061,,,,,,,2026-01-13,1,,,,,トラスタム,0
318,2010001261662,新規,0,2026-01-13,2026-01-13,株式会社ａｒｉｋａｔａ,,株式会社,東京都,中央区,日本橋室町１丁目１１番１２号日本橋水野ビル７階,,13,102,1030022,,,,,,,2026-01-13,1,,,,,アリカタ,0
319,2010003049825,新規,0,2026-01-13,2026-01-13,ハーモニーファイブ合同会社,,合同会社,東京都,千代田区,神田和泉町１番地６－１６ヤマトビル４０５,,13,101,1010024,,,,,,,2026-01-13,1,,,,,ハーモニーファイブ,0
327,2010401195592,新規,0,2026-01-13,2026-01-13,株式会社ＲＹＵＡ,,株式会社,東京都,港区,南青山１丁目２１番７号マルラニ南青山１１０１,,13,103,1070062,,,,,,,2026-01-13,1,,,,,リュア,0
333,2010501055275,新規,0,2026-01-13,2026-01-13,ＴＨＥ　ＫＡＢＵＫＵ株式会社,,株式会社,東京都,台東区,花川戸１丁目１０－１６,,13,106,1110033,,,,,,,2026-01-13,1,,,,,ザカブク,0
340,2010701048871,新規,0,2026-01-13,2026-01-13,株式会社スピカディレクション,,株式会社,東京都,品川区,東大井１丁目２番２０号２Ｆ,,13,109,1400011,,,,,,,2026-01-13,1,,,,,スピカディレクション,0
341,2010703008064,新規,0,2026-01-13,2026-01-13,テラトヨホームズ合同会社,,合同会社,東京都,品川区,東品川１丁目８番１号３０４,,13,109,1400002,,,,,,,2026-01-13,1,,,,,テラトヨホームズ,0
343,2010801036933,新規,0,2026-01-13,2026-01-13,株式会社Ｓｐａｃｅ　Ｎｏｍａｄ,,株式会社,東京都,大田区,田園調布２丁目３番１０号カンティーナ田園調布１０３,,13,111,1450071,,,,,,,2026-01-13,1,,,,,スペースノーマッド,0
347,2010901058745,新規,0,2026-01-13,2026-01-13,株式会社ＭＺＴＮ,,株式会社,東京都,世田谷区,北沢２丁目３３番６号奥田ビル１階,,13,112,1550031,,,,,,,2026-01-13,1,,,,,エムゼットティーエヌ,0
348,2010901058778,新規,0,2026-01-13,2026-01-13,Ａｉｘｅｅｄ株式会社,,株式会社,東京都,世田谷区,太子堂４丁目１８－１５マガザン三軒茶屋２－３Ｆ－３,,13,112,1540004,,,,,,,2026-01-13,1,,,,,アイシード,0
353,2011001174672,新規,0,2026-01-13,2026-01-13,株式会社ルーセント・リアルティ,,株式会社,東京都,渋谷区,道玄坂２丁目１５番１号,,13,113,1500043,,,,,,,2026-01-13,1,,,,,ルーセントリアルティ,0
354,2011001174689,新規,0,2026-01-13,2026-01-13,株式会社日本戦略キャピタル,,株式会社,東京都,渋谷区,円山町１３番１１号,,13,113,1500044,,,,,,,2026-01-13,1,,,,,ニホンセンリャクキャピタル,0
355,2011001174755,新規,0,2026-01-13,2026-01-13,株式会社トモコネクト,,株式会社,東京都,渋谷区,西原２丁目４番３号,,13,113,1510066,,,,,,,2026-01-13,1,,,,,トモコネクト,0
356,2011001174796,新規,0,2026-01-13,2026-01-13,株式会社ＴＲＵＳＴ,,株式会社,東京都,渋谷区,恵比寿西２丁目４番８号ウィンド恵比寿ビル８Ｆ,,13,113,1500021,,,,,,,2026-01-13,1,,,,,トラスト,0
357,2011001174870,新規,0,2026-01-13,2026-01-13,ホピネスビール株式会社,,株式会社,東京都,目黒区,上目黒１丁目１８番６号ＮＭビル５階,,13,110,1530051,,,,,,,2026-01-13,1,,,,,ホピネスビール,0
358,2011003023349,新規,0,2026-01-13,2026-01-13,合同会社ＰＬＵＳ,,合同会社,東京都,目黒区,八雲１丁目３番１４号,,13,110,1520023,,,,,,,2026-01-13,1,,,,,プラス,0
362,2011101114636,新規,0,2026-01-13,2026-01-13,株式会社ＺＥＮ,,株式会社,東京都,新宿区,西新宿７丁目４番５号新宿ウエストスクエアビル１０階,,13,104,1600023,,,,,,,2026-01-13,1,,,,,ゼン,0
363,2011103016888,新規,0,2026-01-13,2026-01-13,合同会社スカーレットプロダクション,,合同会社,東京都,新宿区,西新宿３丁目３－１３西新宿水間ビル２Ｆ,,13,104,1600023,,,,,,,2026-01-13,1,,,,,スカーレットプロダクション,0
370,2011303005823,新規,0,2026-01-13,2026-01-13,合同会社第七銀座ウェスト秋葉原,,合同会社,東京都,杉並区,成田東４丁目３８番１７号,,13,115,1660015,,,,,,,2026-01-13,1,,,,,ダイナナギンザウェストアキハバラ,0
377,2011401027711,新規,0,2026-01-13,2026-01-13,株式会社タイムレスボディ,,株式会社,東京都,板橋区,板橋１丁目１４番６号岩永ビル４階,,13,119,1730004,,,,,,,2026-01-13,1,,,,,タイムレスボディ,0
380,2011603004979,新規,0,2026-01-13,2026-01-13,合同会社山下事務所,,合同会社,東京都,練馬区,氷川台３丁目３６番２０－３０５号,,13,120,1790084,,,,,,,2026-01-13,1,,,,,ヤマシタジムショ,0
381,2012401044011,新規,0,2026-01-13,2026-01-13,株式会社トムー,,株式会社,東京都,調布市,調布ケ丘２丁目２０番地５クレアーレＫＭ３０１,,13,208,1820021,,,,,,,2026-01-13,1,,,,,トムー,0
383,2012701019266,新規,0,2026-01-13,2026-01-13,ＣＤＲ空間デザイン株式会社,,株式会社,東京都,小平市,花小金井南町３丁目２０番３－８号,,13,211,1870003,,,,,,,2026-01-13,1,,,,,シーディーアールクウカンデザイン,0
389,2013301055585,新規,0,2026-01-13,2026-01-13,株式会社プラスエム,,株式会社,東京都,豊島区,南池袋１丁目２１番５号Ｂ１階,,13,116,1710022,,,,,,,2026-01-13,1,,,,,プラスエム,0
394,2020001166621,新規,0,2026-01-13,2026-01-13,中古トラック販売株式会社,,株式会社,神奈川県,川崎市麻生区,下麻生１丁目３２番３７号,,14,137,2150022,,,,,,,2026-01-13,1,,,,,チュウコトラックハンバイ,0
402,2030001170473,新規,0,2026-01-13,2026-01-13,彩流ボトリング株式会社,,株式会社,埼玉県,児玉郡神川町,大字二ノ宮１０５番地１,,11,383,3670233,,,,,,,2026-01-13,1,,,,,サイリュウボトリング,0
403,2030001170515,新規,0,2026-01-13,2026-01-13,株式会社日栄農産,,株式会社,埼玉県,加須市,船越３３７番地１,,11,210,3470021,,,,,,,2026-01-13,1,,,,,ニチエイノウサン,0
406,2030003028380,新規,0,2026-01-13,2026-01-13,森デザイン合同会社,,合同会社,埼玉県,羽生市,南羽生３丁目４番地４,,11,216,3480071,,,,,,,2026-01-13,1,,,,,モリデザイン,0
407,2030003028422,新規,0,2026-01-13,2026-01-13,桃嘉合同会社,,合同会社,埼玉県,川越市,大字的場５１０番地２８,,11,201,3501101,,,,,,,2026-01-13,1,,,,,トウカ,0
411,2030005022381,新規,0,2026-01-13,2026-01-13,一般社団法人地域とわたしたち,,その他の設立登記法人,埼玉県,越谷市,大字袋山１３２０番地３（２階）,,11,222,3430032,,,,,,,2026-01-13,1,,,,,チイキトワタシタチ,0
417,2040001141911,新規,0,2026-01-13,2026-01-13,大東テック株式会社,,株式会社,千葉県,我孫子市,船戸１丁目６番４０号２０２号室,,12,222,2701158,,,,,,,2026-01-13,1,,,,,ダイトウテック,0
418,2040001142001,新規,0,2026-01-13,2026-01-13,株式会社アネシロ,,株式会社,千葉県,千葉市緑区,越智町７０５－４７６,,12,105,2670055,,,,,,,2026-01-13,1,,,,,アネシロ,0
419,2040001142026,新規,0,2026-01-13,2026-01-13,株式会社ＳＲＫサポート,,株式会社,千葉県,野田市,桜木２４－４,,12,208,2780028,,,,,,,2026-01-13,1,,,,,エスアールケーサポート,0
420,2040001142042,新規,0,2026-01-13,2026-01-13,Ｉｓｌａｎｄ　Ｃｏｎｎｅｃｔｉｏｎ株式会社,,株式会社,千葉県,大網白里市,北今泉１３１８,,12,239,2993201,,,,,,,2026-01-13,1,,,,,アイランドコネクション,0
423,2050001057850,新規,0,2026-01-13,2026-01-13,株式会社ウスイ良米園,,株式会社,茨城県,潮来市,永山８３２番地２,,08,223,3112437,,,,,,,2026-01-13,1,,,,,ウスイリョウマイエン,0
427,2070001043700,新規,0,2026-01-13,2026-01-13,株式会社ＣＨＩＡＲＡ,,株式会社,群馬県,伊勢崎市,茂呂町２丁目３５２９番地５,,10,204,3720034,,,,,,,2026-01-13,1,,,,,キアラ,0
428,2070001043725,新規,0,2026-01-13,2026-01-13,株式会社ライズ,,株式会社,群馬県,太田市,宝町４番地,,10,205,3730042,,,,,,,2026-01-13,1,,,,,ライズ,0
429,2070001043733,新規,0,2026-01-13,2026-01-13,株式会社ファルコンワークス,,株式会社,群馬県,高崎市,貝沢町２４０１番地７,,10,202,3700042,,,,,,,2026-01-13,1,,,,,ファルコンワークス,0
432,2080001027371,新規,0,2026-01-13,2026-01-13,シズレキ株式会社,,株式会社,静岡県,静岡市葵区,紺屋町４番８号,,22,101,4200852,,,,,,,2026-01-13,1,,,,,シズレキ,0
434,2080103003502,新規,0,2026-01-13,2026-01-13,合同会社Ｆｕｊｉｔａ　Ｃｏｎｄｉｔｉｏｎｉｎｇ　Ａｒｔｓ,,合同会社,静岡県,三島市,大場１８７番地の６,,22,206,4110803,,,,,,,2026-01-13,1,,,,,フジタコンディショニングアーツ,0
435,2080401028333,新規,0,2026-01-13,2026-01-13,株式会社ｑｕｉｎｔ．,,株式会社,静岡県,浜松市中央区,領家３丁目８番８号コーポ三美３０１,,22,138,4300852,,,,,,,2026-01-13,1,,,,,クイント,0
438,2100001039257,新規,0,2026-01-13,2026-01-13,ブリッジクリエイト株式会社,,株式会社,長野県,上田市,殿城９７７番地１３,,20,203,3860004,,,,,,,2026-01-13,1,,,,,ブリッジクリエイト,0
446,2110005017308,新規,0,2026-01-13,2026-01-13,農事組合法人かせじま,,その他の設立登記法人,新潟県,阿賀野市,嘉瀬島２４番地,,15,223,9592148,,,,,,,2026-01-13,1,,,,,カセジマ,0
456,2120001283126,新規,0,2026-01-13,2026-01-13,ＳＴＥＬＬＡ　ＳＨＩＦＴ株式会社,,株式会社,大阪府,大阪市中央区,内本町１丁目１番６号,,27,128,5400026,,,,,,,2026-01-13,1,,,,,ステラシフト,0
457,2120001283150,新規,0,2026-01-13,2026-01-13,株式会社ヨシトラ,,株式会社,大阪府,枚方市,楠葉並木１丁目６番１６号,,27,210,5731118,,,,,,,2026-01-13,1,,,,,ヨシトラ,0
458,2120001283365,新規,0,2026-01-13,2026-01-13,株式会社ＲｅＭＯＡ,,株式会社,大阪府,大阪市平野区,平野本町５丁目６番１６－３０１,,27,126,5470044,,,,,,,2026-01-13,1,,,,,リモア,0
466,2120101073039,新規,0,2026-01-13,2026-01-13,株式会社イヤーサプリ,,株式会社,大阪府,堺市堺区,中瓦町２－３－１８,,27,141,5900000,,,,,,,2026-01-13,1,,,,,イヤーサプリ,0
467,2120101073047,新規,0,2026-01-13,2026-01-13,株式会社清水技建,,株式会社,大阪府,堺市東区,八下町２丁６４番地,,27,143,5998101,,,,,,,2026-01-13,1,,,,,シミズギケン,0
468,2120101073055,新規,0,2026-01-13,2026-01-13,株式会社谷原工業,,株式会社,大阪府,堺市中区,土師町５丁３０番１５－１号,,27,142,5998238,,,,,,,2026-01-13,1,,,,,タニハラコウギョウ,0
469,2120101073071,新規,0,2026-01-13,2026-01-13,北関西シャッター株式会社,,株式会社,大阪府,岸和田市,土生町８０５番地の１２,,27,202,5960825,,,,,,,2026-01-13,1,,,,,キタカンサイシャッター,0
470,2120103006938,新規,0,2026-01-13,2026-01-13,合同会社ＪＦＫ,,合同会社,大阪府,南河内郡太子町,大字春日９８－３７２,,27,381,5830991,,,,,,,2026-01-13,1,,,,,ジェイエフケイ,0
471,2120901052084,新規,0,2026-01-13,2026-01-13,ＺＥＰＨＹＲ株式会社,,株式会社,大阪府,高槻市,藤の里町３３番１８号の２,,27,207,5690025,,,,,,,2026-01-13,1,,,,,ゼフィール,0
472,2120901052092,新規,0,2026-01-13,2026-01-13,株式会社ｍｏｃｃｈｅ,,株式会社,大阪府,高槻市,高槻町１０番１５号,,27,207,5690803,,,,,,,2026-01-13,1,,,,,モッチェ,0
473,2122001040052,新規,0,2026-01-13,2026-01-13,コネクトウォークス株式会社,,株式会社,大阪府,大東市,川中新町１２番４０６号,,27,218,5740031,,,,,,,2026-01-13,1,,,,,コネクトウォークス,0
482,2140001141273,新規,0,2026-01-13,2026-01-13,デジタル・テクノロジー・システム株式会社,,株式会社,兵庫県,伊丹市,稲野町６丁目９０番地３－２Ｆ,,28,207,6640861,,,,,,,2026-01-13,1,,,,,デジタルテクノロジーシステム,0
485,2140005027766,新規,0,2026-01-13,2026-01-13,一般社団法人相続ポータル,,その他の設立登記法人,兵庫県,尼崎市,塚口町１丁目３２番地の４２,,28,202,6610002,,,,,,,2026-01-13,1,,,,,ソウゾクポータル,0
487,2150001028619,新規,0,2026-01-13,2026-01-13,株式会社Ｔｅｒｒａｎｏａｈ,,株式会社,奈良県,大和高田市,大字勝目９５番地１,,29,202,6350042,,,,,,,2026-01-13,1,,,,,テラノア,0
488,2150001028643,新規,0,2026-01-13,2026-01-13,株式会社Ｌｉｓｔａ,,株式会社,奈良県,北葛城郡上牧町,葛城台３丁目１２－１２,,29,424,6390215,,,,,,,2026-01-13,1,,,,,リスタ,0
495,2180001170112,新規,0,2026-01-13,2026-01-13,ＭＡＧＮＩＶ　ＩＮＤＵＳＴＲＹ株式会社,,株式会社,愛知県,名古屋市守山区,更屋敷６番１５号佳山ビル１階,,23,113,4630064,,,,,,,2026-01-13,1,,,,,マグニブインダストリー,0
496,2180001170186,新規,0,2026-01-13,2026-01-13,株式会社アシスト,,株式会社,愛知県,名古屋市中村区,名駅３丁目１３番２８号,,23,105,4500002,,,,,,,2026-01-13,1,,,,,アシスト,0
497,2180001170194,新規,0,2026-01-13,2026-01-13,株式会社Ｔ　ＧＲＡＮ,,株式会社,愛知県,愛知郡東郷町,清水３丁目９番地３９,,23,302,4700165,,,,,,,2026-01-13,1,,,,,ティーグラン,0
498,2180001170203,新規,0,2026-01-13,2026-01-13,ＨＶＡＣ　Ｗｏｒｋｓ株式会社,,株式会社,愛知県,名古屋市西区,上堀越町３丁目５０番地－２０６号,,23,104,4510084,,,,,,,2026-01-13,1,,,,,ヒーバックワークス,0
502,2180003029587,新規,0,2026-01-13,2026-01-13,合同会社マゴコロクリア,,合同会社,愛知県,名古屋市守山区,桔梗平２丁目９１６番地,,23,113,4630814,,,,,,,2026-01-13,1,,,,,マゴコロクリア,0
503,2180003029595,新規,0,2026-01-13,2026-01-13,合同会社ＴＡＮＫ　ＣＯＲＥ,,合同会社,愛知県,津島市,東洋町２丁目３番地１東洋町住宅３１号,,23,208,4960832,,,,,,,2026-01-13,1,,,,,タンクコア,0
504,2180301040592,新規,0,2026-01-13,2026-01-13,株式会社紺野反毛工場,,株式会社,愛知県,岡崎市,丸山町字岩ノ本３－２,,23,202,4440006,,,,,,,2026-01-13,1,,,,,コンノハンモウコウジョウ,0
506,2190001032815,新規,0,2026-01-13,2026-01-13,株式会社ドリームファームＳＡＫＡＩ,,株式会社,三重県,多気郡明和町,大字竹川２２０番地,,24,442,5150325,,,,,,,2026-01-13,1,,,,,ドリームファームサカイ,0
507,2190001032823,新規,0,2026-01-13,2026-01-13,株式会社ＡＫＡＲＩ,,株式会社,三重県,鈴鹿市,稲生塩屋２丁目３番３１号,,24,207,5100207,,,,,,,2026-01-13,1,,,,,アカリ,0
510,2200001044602,新規,0,2026-01-13,2026-01-13,株式会社Ｍ．ｔｅｃｈ,,株式会社,岐阜県,各務原市,前渡東町５丁目４３番地１,,21,213,5040922,,,,,,,2026-01-13,1,,,,,エムテック,0
513,2210001020453,新規,0,2026-01-13,2026-01-13,株式会社越前活イカセンター,,株式会社,福井県,鯖江市,中野町第２３８号４番地１,,18,207,9160033,,,,,,,2026-01-13,1,,,,,エチゼンカツイカセンター,0
515,2230005009516,新規,0,2026-01-13,2026-01-13,税理士法人木勢会計,,その他の設立登記法人,富山県,南砺市,荒木５６９番地１,,16,210,9391732,,,,,,,2026-01-13,1,,,,,キセカイケイ,0
517,2240001066031,新規,0,2026-01-13,2026-01-13,株式会社万来産業,,株式会社,広島県,広島市西区,福島町２丁目９番２－４０６号,,34,104,7330024,,,,,,,2026-01-13,1,,,,,マンライサンギョウ,0
521,2260003005480,新規,0,2026-01-13,2026-01-13,合同会社ＧｉｏｃａＭｏｎｄｏ,,合同会社,岡山県,岡山市中区,高島新屋敷１０１番地７,,33,102,7038241,,,,,,,2026-01-13,1,,,,,ジョカモンド,0
523,2270001009367,新規,0,2026-01-13,2026-01-13,株式会社マストワン,,株式会社,鳥取県,鳥取市,卯垣４丁目１８４番地,,31,201,6800074,,,,,,,2026-01-13,1,,,,,マストワン,0
535,2290001112615,新規,0,2026-01-13,2026-01-13,株式会社Ａｒｔｅｓ　Ｌｉｂｅｒａｌｅｓ,,株式会社,福岡県,福岡市中央区,大名１丁目１５番７－１００１号,,40,133,8100041,,,,,,,2026-01-13,1,,,,,アルテスリベラレス,0
536,2290001112747,新規,0,2026-01-13,2026-01-13,株式会社アローズプロダクション,,株式会社,福岡県,福岡市博多区,住吉２丁目１９番２９－５０３号,,40,132,8120018,,,,,,,2026-01-13,1,,,,,アローズプロダクション,0
537,2290001112771,新規,0,2026-01-13,2026-01-13,株式会社Ｏｎｅ　ｎｅｘｔ,,株式会社,福岡県,福岡市早良区,梅林６丁目２２番２号,,40,137,8140172,,,,,,,2026-01-13,1,,,,,ワンネクスト,0
542,2290003017928,新規,0,2026-01-13,2026-01-13,ＳＥＣＯＮＤ　Ａｃｔ．合同会社,,合同会社,福岡県,福岡市中央区,清川２丁目２－２３白亜館８０１,,40,133,8100005,,,,,,,2026-01-13,1,,,,,セカンドアクト,0
543,2290005019955,新規,0,2026-01-13,2026-01-13,医療法人Ｍａｒｓｈ　Ｍａｌｌｏｗ,,その他の設立登記法人,福岡県,福岡市東区,松島１丁目４０番４号,,40,131,8120062,,,,,,,2026-01-13,1,,,,,マーシュマロウ,0
547,2300001014470,新規,0,2026-01-13,2026-01-13,株式会社シンライ,,株式会社,佐賀県,鳥栖市,田代外町６９６番地１－１０３,,41,203,8410016,,,,,,,2026-01-13,1,,,,,シンライ,0
586,2310005008889,新規,0,2026-01-13,2026-01-13,一般社団法人プラネタリーヘルスアライアンス日本ハブ,,その他の設立登記法人,長崎県,長崎市,坂本１丁目１２番４号長崎大学大学院熱帯医学・グローバルヘルス研究科,,42,201,8528102,,,,,,,2026-01-13,1,,,,,プラネタリーヘルスアライアンスニホンハブ,0
590,2340001027898,新規,0,2026-01-13,2026-01-13,株式会社Ｂｒｏｔｈｅｒｈｏｏｄ,,株式会社,鹿児島県,鹿児島市,城西２丁目２番５号,,46,201,8900041,,,,,,,2026-01-13,1,,,,,ブラザーフッド,0
593,2340005009934,新規,0,2026-01-13,2026-01-13,一般社団法人Ｌ’ｐｅａｃｅ,,その他の設立登記法人,鹿児島県,霧島市,国分中央１丁目１０－１０島津ビル５０２号室,,46,218,8994332,,,,,,,2026-01-13,1,,,,,エルピース,0
595,2350001019886,新規,0,2026-01-13,2026-01-13,ＵＮＥＤＩＴＥＤ株式会社,,株式会社,宮崎県,宮崎市,清武町今泉乙２６５１番地７,,45,201,8891602,,,,,,,2026-01-13,1,,,,,アンエディテッド,0
601,2360001036237,新規,0,2026-01-13,2026-01-13,株式会社ＶＩＶＯＲＡ,,株式会社,沖縄県,石垣市,字大川２７８番地ＴＡＭＡビルＩＩ２０１号,00142142,47,207,9070022,,,,,,,2026-01-13,1,,,,,ヴィヴォラ,0
603,2360003015536,新規,0,2026-01-13,2026-01-13,合同会社キズナトーク,,合同会社,沖縄県,那覇市,字国場８２番地３,,47,201,9020075,,,,,,,2026-01-13,1,,,,,キズナトーク,0
605,2370001053388,新規,0,2026-01-13,2026-01-13,花の匠株式会社,,株式会社,宮城県,栗原市,築館宮野中央２丁目３－１６,,04,213,9872205,,,,,,,2026-01-13,1,,,,,ハナノタクミ,0
606,2370001053396,新規,0,2026-01-13,2026-01-13,株式会社零壱,,株式会社,宮城県,仙台市青葉区,片平１丁目１－８パルティーレＥＸＥ片平タワー１１０４号室,,04,101,9800812,,,,,,,2026-01-13,1,,,,,ゼロイチ,0
608,2380001035798,新規,0,2026-01-13,2026-01-13,株式会社滝本電器,,株式会社,福島県,双葉郡大熊町,大字大川原字南平１２０７番地の１,,07,545,9791306,,,,,,,2026-01-13,1,,,,,タキモトデンキ,0
609,2380001035807,新規,0,2026-01-13,2026-01-13,株式会社Ｇｕｍｍｉ,,株式会社,福島県,郡山市,田村町徳定字下河原１１６番地の４,,07,203,9631165,,,,,,,2026-01-13,1,,,,,ガミー,0
615,2420001019383,新規,0,2026-01-13,2026-01-13,株式会社泉工業,,株式会社,青森県,青森市,大字浦町字奥野３３２番地１,,02,201,0300842,,,,,,,2026-01-13,1,,,,,,0
616,2420001019391,新規,0,2026-01-13,2026-01-13,株式会社馬場果樹園,,株式会社,青森県,三戸郡南部町,大字小向字馬場７２番地１,,02,445,0390104,,,,,,,2026-01-13,1,,,,,ババカジュエン,0
620,2440001009738,新規,0,2026-01-13,2026-01-13,株式会社丸安工業,,株式会社,北海道,函館市,亀田港町２８番１８号,,01,202,0410822,,,,,,,2026-01-13,1,,,,,マルヤスコウギョウ,0
625,2460003001088,新規,0,2026-01-13,2026-01-13,合同会社広野,,合同会社,北海道,釧路市,鶴野東２丁目２０番４号,,01,206,0840923,,,,,,,2026-01-13,1,,,,,コウヤ,0
627,2470001021038,新規,0,2026-01-13,2026-01-13,八千代プロジェクト株式会社,,株式会社,香川県,高松市,香川町川東上１６０番地６,,37,201,7611706,,,,,,,2026-01-13,1,,,,,,0
633,2700150133907,新規,0,2026-01-13,2026-01-13,Ｔｏｋｙｏ　Ｌａｎｄ　Ｈｏｌｄｉｎｇｓ　Ｌｉｍｉｔｅｄ,,外国会社等,,,,,,,,Ｖｉｓｔｒａ　Ｃｏｒｐｏｒａｔｅ　Ｓｅｒｖｉｃｅｓ　Ｃｅｎｔｒｅ，Ｗｉｃｋｈａｍｓ　ＣａｙＩＩ，Ｒｏａｄ　Ｔｏｗｎ，Ｔｏｒｔｏｌａ，ＶＧ１１１０，Ｂｒｉｔｉｓｈ　Ｖｉｒｇｉｎ　Ｉｓｌａｎｄｓ,00142138,,,,,2026-01-13,1,,,,,トウキヨウランドホールデイングスリミテツド,0
637,3010001261496,新規,0,2026-01-13,2026-01-13,青空エレ技研株式会社,,株式会社,東京都,千代田区,神田須田町１丁目７番８号ＶＯＲＴ秋葉原ＩＶ２Ｆ,00142141,13,101,1010041,,,,,,,2026-01-13,1,,,,,アオゾラエレギケン,0
638,3010001261637,新規,0,2026-01-13,2026-01-13,株式会社ｓｈｕｎｓｕｋｅ．２２１,,株式会社,東京都,千代田区,麹町１丁目６番４号,,13,101,1020083,,,,,,,2026-01-13,1,,,,,シュンスケドットニイニイイチ,0
639,3010001261645,新規,0,2026-01-13,2026-01-13,株式会社ＨＡＳＨＩＲＡ,,株式会社,東京都,中央区,銀座１丁目１２番４号Ｎ＆ＥＢＬＤ．６Ｆ,,13,102,1040061,,,,,,,2026-01-13,1,,,,,ハシラ,0
640,3010001261653,新規,0,2026-01-13,2026-01-13,株式会社カストリア,,株式会社,東京都,中央区,湊３丁目１２番２号,,13,102,1040043,,,,,,,2026-01-13,1,,,,,カストリア,0
647,3010103002732,新規,0,2026-01-13,2026-01-13,合同会社ＣＯＭ‐Ｂ,,合同会社,東京都,八王子市,子安町１丁目３２番１７－２０１号,,13,201,1920904,,,,,,,2026-01-13,1,,,,,コムビー,0
651,3010401195526,新規,0,2026-01-13,2026-01-13,株式会社エンバイロス・グループ・ジャパン,,株式会社,東京都,港区,西新橋３丁目１５－１３,,13,103,1050003,,,,,,,2026-01-13,1,,,,,エンバイロスグループジャパン,0
652,3010401195567,新規,0,2026-01-13,2026-01-13,株式会社ＧＡＬｍｉｎｄ,,株式会社,東京都,港区,南青山４丁目２－１２－２１０,,13,103,1070062,,,,,,,2026-01-13,1,,,,,ギャルマインド,0
653,3010401195617,新規,0,2026-01-13,2026-01-13,株式会社マイカンパニー,,株式会社,東京都,港区,六本木４丁目８番７号,,13,103,1060032,,,,,,,2026-01-13,1,,,,,マイカンパニー,0
654,3010401195658,新規,0,2026-01-13,2026-01-13,株式会社ｔｎｋ,,株式会社,東京都,港区,南麻布２丁目７番２３号マーキュリー南麻布１階,,13,103,1060047,,,,,,,2026-01-13,1,,,,,ティーエヌケー,0
657,3010501055258,新規,0,2026-01-13,2026-01-13,株式会社ＭＩＣＨＩＯ,,株式会社,東京都,台東区,北上野２丁目５番３－１５０１号,,13,106,1100014,,,,,,,2026-01-13,1,,,,,ミチオ,0
658,3010501055282,新規,0,2026-01-13,2026-01-13,アミエンタープライズ株式会社,,株式会社,東京都,台東区,浅草４丁目３４番８－１０１号,,13,106,1110032,,,,,,,2026-01-13,1,,,,,アミエンタープライズ,0
659,3010501055290,新規,0,2026-01-13,2026-01-13,株式会社やまんなか企画,,株式会社,東京都,台東区,下谷１丁目１２番２５号,,13,106,1100004,,,,,,,2026-01-13,1,,,,,ヤマンナカキカク,0
660,3010601068548,新規,0,2026-01-13,2026-01-13,株式会社境をこえて,,株式会社,東京都,江東区,東陽３丁目２８番９号山屋東陽ハイツ１０階１００１号室,,13,108,1350016,,,,,,,2026-01-13,1,,,,,サカイヲコエテ,0
663,3010701048870,新規,0,2026-01-13,2026-01-13,株式会社品川コンサルティング,,株式会社,東京都,品川区,西品川１丁目２９番１２号ＣＳＲ品川,,13,109,1410033,,,,,,,2026-01-13,1,,,,,シナガワコンサルティング,0
666,3010801036940,新規,0,2026-01-13,2026-01-13,株式会社リバーサイド,,株式会社,東京都,大田区,大森西３丁目１２番２５号レスポワール１階,,13,111,1430015,,,,,,,2026-01-13,1,,,,,リバーサイド,0
668,3010901058785,新規,0,2026-01-13,2026-01-13,オーガニックベーカリー株式会社,,株式会社,東京都,世田谷区,八幡山１丁目２５番２６－３１３号,,13,112,1560056,,,,,,,2026-01-13,1,,,,,オーガニックベーカリー,0
670,3010903010538,新規,0,2026-01-13,2026-01-13,Ａｒｄｅｕｘ合同会社,,合同会社,東京都,世田谷区,太子堂４丁目１８番１５号マガザン三軒茶屋２－３Ｆ－３,,13,112,1540004,,,,,,,2026-01-13,1,,,,,アルデュクス,0
671,3010903010546,新規,0,2026-01-13,2026-01-13,合同会社アグテック,,合同会社,東京都,世田谷区,桜３丁目２番６号アヴニール桜４０３,,13,112,1560053,,,,,,,2026-01-13,1,,,,,アグテック,0
673,3011001174795,新規,0,2026-01-13,2026-01-13,株式会社Ｅｎｔｉｋ,,株式会社,東京都,渋谷区,道玄坂１丁目１０番８号渋谷道玄坂東急ビル２Ｆ－Ｃ,,13,113,1500043,,,,,,,2026-01-13,1,,,,,エンティック,0
674,3011001174804,新規,0,2026-01-13,2026-01-13,株式会社ペイフォワード,,株式会社,東京都,渋谷区,道玄坂１丁目１０番８号渋谷道玄坂東急ビル２Ｆ－Ｃ,,13,113,1500043,,,,,,,2026-01-13,1,,,,,ペイフォワード,0
676,3011003023298,新規,0,2026-01-13,2026-01-13,合同会社ＭＺ　Ｃａｐｉｔａｌ,,合同会社,東京都,渋谷区,神南１丁目１１番４号ＦＰＧリンクス神南５階,,13,113,1500041,,,,,,,2026-01-13,1,,,,,エムゼットキャピタル,0
680,3011201026879,新規,0,2026-01-13,2026-01-13,株式会社ＧＴ　ＯＲＡＤＵ,,株式会社,東京都,中野区,新井１丁目３番１５－３０４号,,13,114,1650026,,,,,,,2026-01-13,1,,,,,ジーティーオラデュ,0
692,3011501032998,新規,0,2026-01-13,2026-01-13,株式会社ＵＮＢＲＩＯＮ,,株式会社,東京都,荒川区,西日暮里５丁目５番４－５０２号,,13,118,1160013,,,,,,,2026-01-13,1,,,,,アンブリオン,0
694,3011601029291,新規,0,2026-01-13,2026-01-13,雨田三告株式会社,,株式会社,東京都,練馬区,旭町１丁目８番１サンフラワー徳力４２８号室,,13,120,1790071,,,,,,,2026-01-13,1,,,,,アマダサンコク,0
695,3011601029309,新規,0,2026-01-13,2026-01-13,株式会社ＯＭＯＮＰＡＣＡ,,株式会社,東京都,練馬区,桜台３丁目４４番２号クリオ氷川台シーズンテラス４０６,,13,120,1760002,,,,,,,2026-01-13,1,,,,,オモンパカ,0
696,3011603004978,新規,0,2026-01-13,2026-01-13,Ｐｒｉｍｅ　Ｃｅｄａｒ合同会社,,合同会社,東京都,練馬区,東大泉１丁目２０番３４－３０１号,,13,120,1780063,,,,,,,2026-01-13,1,,,,,プライムシダー,0
698,3011801047291,新規,0,2026-01-13,2026-01-13,株式会社ＳＪ　ｐｌｕｍｂｉｎｇ,,株式会社,東京都,葛飾区,亀有２丁目７０－３－６０１,,13,122,1250061,,,,,,,2026-01-13,1,,,,,エスジェイプラミング,0
703,3012303002272,新規,0,2026-01-13,2026-01-13,ＪＡＣＣＲ合同会社,,合同会社,東京都,町田市,三輪緑山１丁目３０番地１１,,13,209,1950055,,,,,,,2026-01-13,1,,,,,ジャックル,0
704,3012401044010,新規,0,2026-01-13,2026-01-13,株式会社ＴＡＦＦ,,株式会社,東京都,多摩市,一ノ宮１丁目２７番地の１ライオンズプラザ聖蹟桜ケ丘１００３,,13,224,2060002,,,,,,,2026-01-13,1,,,,,タフ,0
705,3013101009906,新規,0,2026-01-13,2026-01-13,商栄株式会社,,株式会社,東京都,福生市,加美平１丁目６－１１,,13,218,1970012,,,,,,,2026-01-13,1,,,,,ショウエイ,0
710,3013301055584,新規,0,2026-01-13,2026-01-13,株式会社グレアスマネジメント,,株式会社,東京都,豊島区,駒込２丁目１４番１４号,,13,116,1700003,,,,,,,2026-01-13,1,,,,,グレアスマネジメント,0
714,3013303008053,新規,0,2026-01-13,2026-01-13,ＤＡＩＲＩＮ興産合同会社,,合同会社,東京都,豊島区,池袋３丁目３４－７,,13,116,1710014,,,,,,,2026-01-13,1,,,,,ダイリンコウサン,0
721,3020001166579,新規,0,2026-01-13,2026-01-13,株式会社辻田,00142123,株式会社,神奈川県,川崎市幸区,幸町４丁目１７－１０３,,14,132,2120011,,,,,,,2026-01-13,1,,,,,ツジタ,0
722,3020001166604,新規,0,2026-01-13,2026-01-13,生涯外国語学習支援株式会社,,株式会社,神奈川県,川崎市宮前区,鷺沼３丁目１‐２７ヘロンビル２階,,14,136,2160004,,,,,,,2026-01-13,1,,,,,ショウガイガイコクゴガクシュウシエン,0
723,3020001166620,新規,0,2026-01-13,2026-01-13,株式会社ファイン,,株式会社,神奈川県,横浜市中区,本牧原９番１‐１１０４号,,14,104,2310821,,,,,,,2026-01-13,1,,,,,ファイン,0
725,3020003030031,新規,0,2026-01-13,2026-01-13,合同会社そよ福,,合同会社,神奈川県,横浜市鶴見区,駒岡４丁目３８－５,,14,101,2300071,,,,,,,2026-01-13,1,,,,,ソヨフク,0
726,3020003030114,新規,0,2026-01-13,2026-01-13,日たま韓たま合同会社,,合同会社,神奈川県,川崎市麻生区,高石４丁目３３番１７－２０２号ライオンズヒルズ百合ヶ丘,,14,137,2150003,,,,,,,2026-01-13,1,,,,,ニッタマカンタマ,0
732,3021001087187,新規,0,2026-01-13,2026-01-13,ウィステ株式会社,,株式会社,神奈川県,相模原市緑区,橋本３丁目６番１号アドバンス橋本４０２,,14,151,2520143,,,,,,,2026-01-13,1,,,,,ウィステ,0
735,3021003016978,新規,0,2026-01-13,2026-01-13,合同会社ＳＫＹ,,合同会社,神奈川県,鎌倉市,台３丁目６番２９号,,14,204,2470061,,,,,,,2026-01-13,1,,,,,スカイ,0
740,3030001170506,新規,0,2026-01-13,2026-01-13,株式会社ＳＴＡＲ　ＢＩＲＤ,,株式会社,埼玉県,八潮市,大字大曽根８６３番地１椎ノ木の里１号館２０２,,11,234,3400834,,,,,,,2026-01-13,1,,,,,スターバード,0
741,3030001170547,新規,0,2026-01-13,2026-01-13,株式会社ＩＧＡ,,株式会社,埼玉県,さいたま市見沼区,東大宮６丁目１４番地８,,11,104,3370051,,,,,,,2026-01-13,1,,,,,アイジーエー,0
742,3030001170555,新規,0,2026-01-13,2026-01-13,株式会社錦,,株式会社,埼玉県,蕨市,錦町２丁目１１番１３号,,11,223,3350005,,,,,,,2026-01-13,1,,,,,ニシキ,0
747,3030003028396,新規,0,2026-01-13,2026-01-13,合同会社ひかゆみ,,合同会社,埼玉県,蓮田市,蓮田１丁目１４０番地１,,11,238,3490115,,,,,,,2026-01-13,1,,,,,ヒカユミ,0
748,3030003028421,新規,0,2026-01-13,2026-01-13,合同会社ＮＩＴＢＳ,,合同会社,埼玉県,さいたま市大宮区,東町１丁目１１０番地２,,11,103,3300841,,,,,,,2026-01-13,1,,,,,エヌアイティビーエス,0
749,3030005022380,新規,0,2026-01-13,2026-01-13,一般社団法人数学講演協会,,その他の設立登記法人,埼玉県,八潮市,大字南川崎３９８番地２４,,11,234,3400814,,,,,,,2026-01-13,1,,,,,スウガクコウエンキョウカイ,0
752,3040001142009,新規,0,2026-01-13,2026-01-13,株式会社小野商事,,株式会社,千葉県,船橋市,藤原５丁目４５番２３号,,12,204,2730047,,,,,,,2026-01-13,1,,,,,オノショウジ,0
753,3040001142017,新規,0,2026-01-13,2026-01-13,株式会社松和建創,,株式会社,千葉県,柏市,酒井根６８５番地１,,12,217,2770053,,,,,,,2026-01-13,1,,,,,ショウワケンソウ,0
754,3040001142033,新規,0,2026-01-13,2026-01-13,招金商事株式会社,,株式会社,千葉県,山武市,木原１４０８番地２０,,12,237,2891212,,,,,,,2026-01-13,1,,,,,ショウキンショウジ,0
755,3040001142090,新規,0,2026-01-13,2026-01-13,株式会社Ｗｅｌｂｉｎ,,株式会社,千葉県,市川市,曽谷８丁目１０－１２,,12,203,2720832,,,,,,,2026-01-13,1,,,,,ウェルビン,0
762,3040003029245,新規,0,2026-01-13,2026-01-13,合同会社Ｈａｒｍｏｎｉｅ,,合同会社,千葉県,市川市,南八幡３丁目８番１３号シャトー・デ・ザール・クボタ１０４号室,,12,203,2720023,,,,,,,2026-01-13,1,,,,,ハーモニー,0
763,3040005023023,新規,0,2026-01-13,2026-01-13,農事組合法人ゆい,,その他の設立登記法人,千葉県,富津市,六野９５１番地,,12,226,2991756,,,,,,,2026-01-13,1,,,,,ユイ,0
766,3050001057825,新規,0,2026-01-13,2026-01-13,ルミナス株式会社,,株式会社,茨城県,坂東市,岩井２２３１番地２,,08,228,3060631,,,,,,,2026-01-13,1,,,,,ルミナス,0
768,3050003009849,新規,0,2026-01-13,2026-01-13,合同会社Ｒｙｕｇａｓａｋｉ　Ｃｌｅａｎ,,合同会社,茨城県,龍ケ崎市,平台４丁目１３番地９,,08,208,3010003,,,,,,,2026-01-13,1,,,,,リュウガサキクリーン,0
769,3050003009865,新規,0,2026-01-13,2026-01-13,合同会社ムーランコンシェルジュ,,合同会社,茨城県,つくば市,吾妻１丁目４番地２－７１４号,,08,220,3050031,,,,,,,2026-01-13,1,,,,,ムーランコンシェルジュ,0
770,3050005013741,新規,0,2026-01-13,2026-01-13,特定非営利活動法人市民発のベーシックインカム・サービスの実現を考える会,,その他の設立登記法人,茨城県,鉾田市,飯島６８４番地１５,,08,234,3112112,,,,,,,2026-01-13,1,,,,,シミンハツノベーシックインカムサービスノジツゲンヲカンガエルカイ,0
774,3060001038907,新規,0,2026-01-13,2026-01-13,株式会社のののＷＯＲＫＳ,,株式会社,栃木県,宇都宮市,野高谷字西台２２２－２,,09,201,3210000,,,,,,,2026-01-13,1,,,,,ノノノワークス,0
776,3060003005921,新規,0,2026-01-13,2026-01-13,合同会社小口,,合同会社,栃木県,宇都宮市,戸祭１丁目１２番４７号,,09,201,3200056,,,,,,,2026-01-13,1,,,,,コグチ,0
778,3070001043708,新規,0,2026-01-13,2026-01-13,株式会社リブラーン,,株式会社,群馬県,太田市,西本町５８番６ＴＧビル２階西側,,10,205,3730033,,,,,,,2026-01-13,1,,,,,リブラーン,0
779,3070001043732,新規,0,2026-01-13,2026-01-13,アイオーティーブレイク株式会社,,株式会社,群馬県,吾妻郡草津町,大字草津７４７番地３クルトーア草津９１４号,,10,426,3771711,,,,,,,2026-01-13,1,,,,,アイオーティーブレイク,0
780,3080001027370,新規,0,2026-01-13,2026-01-13,株式会社ステンドグラス工房かわもと,,株式会社,静岡県,静岡市葵区,沓谷４丁目１９番７号,,22,101,4200816,,,,,,,2026-01-13,1,,,,,ステンドグラスコウボウカワモト,0
782,3080003003626,新規,0,2026-01-13,2026-01-13,合同会社Ｋ・ｃｏｎｓｔｒｕｃｔｉｏｎ,,合同会社,静岡県,静岡市駿河区,石田３丁目１８番４０－２０１号,,22,102,4228042,,,,,,,2026-01-13,1,,,,,ケイコンストラクション,0
783,3080101025992,新規,0,2026-01-13,2026-01-13,株式会社ＳＰＤ,,株式会社,静岡県,富士市,今泉３３９番地の１,,22,210,4170001,,,,,,,2026-01-13,1,,,,,エスピーディー,0
784,3080101026017,新規,0,2026-01-13,2026-01-13,株式会社ＨａｌＳｃｅｎｅ,,株式会社,静岡県,裾野市,久根４６６番地の１,,22,220,4101111,,,,,,,2026-01-13,1,,,,,ハルシーン,0
796,3110001039841,新規,0,2026-01-13,2026-01-13,ＬｉｎｋＧｒｏｗ株式会社,,株式会社,新潟県,新潟市中央区,東大通２丁目１番４号ＢＩＺｃｏｍｆｏｒｔ新潟２Ｆ・３Ｆ,,15,103,9500087,,,,,,,2026-01-13,1,,,,,リンクグロウ,0
799,3110005017307,新規,0,2026-01-13,2026-01-13,税理士法人イーグル会計,,その他の設立登記法人,新潟県,新潟市中央区,鐙西１丁目８番１０号,,15,103,9500915,,,,,,,2026-01-13,1,,,,,イーグルカイケイ,0
806,3120001283199,新規,0,2026-01-13,2026-01-13,株式会社ＡＰ,,株式会社,大阪府,大阪市西区,新町２丁目１番２号ワコーレ大阪新町タワーレジデンス１４０３,,27,106,5500013,,,,,,,2026-01-13,1,,,,,エーピー,0
807,3120001283249,新規,0,2026-01-13,2026-01-13,株式会社光,,株式会社,大阪府,大阪市平野区,平野南３丁目６番７号,,27,126,5470031,,,,,,,2026-01-13,1,,,,,ヒカリ,0
808,3120001283265,新規,0,2026-01-13,2026-01-13,株式会社Ｖｏｔｔｏ,,株式会社,大阪府,大阪市東淀川区,下新庄４丁目２１－Ａ６０２,,27,114,5330021,,,,,,,2026-01-13,1,,,,,ボットー,0
810,3120003031688,新規,0,2026-01-13,2026-01-13,合同会社ヒカリオテクノロジーズ,,合同会社,大阪府,大阪市北区,梅田１丁目１‐３大阪駅前第３ビル２９階１‐１‐１号室,,27,127,5300001,,,,,,,2026-01-13,1,,,,,ヒカリオテクノロジーズ,0
811,3120005025333,新規,0,2026-01-13,2026-01-13,行政書士法人運輸交通法務センター,,その他の設立登記法人,大阪府,大阪市北区,西天満３丁目１３番９号,,27,127,5300047,,,,,,,2026-01-13,1,,,,,ウンユコウツウホウムセンター,0
813,3120101073054,新規,0,2026-01-13,2026-01-13,株式会社アグリード,,株式会社,大阪府,堺市東区,日置荘原寺町４１１番地１,,27,143,5998112,,,,,,,2026-01-13,1,,,,,アグリード,0
814,3120101073070,新規,0,2026-01-13,2026-01-13,株式会社商店陽気屋,,株式会社,大阪府,富田林市,大字甘南備７４９番地,,27,214,5840054,,,,,,,2026-01-13,1,,,,,ショウテンヨウキヤ,0
815,3120103006937,新規,0,2026-01-13,2026-01-13,ＹＫコマース合同会社,,合同会社,大阪府,岸和田市,土生町６丁目１２番１４号,,27,202,5960825,,,,,,,2026-01-13,1,,,,,ワイケーコマース,0
817,3120901052067,新規,0,2026-01-13,2026-01-13,株式会社Ｃｏｃｏ　Ｐｌｕｓ,,株式会社,大阪府,豊中市,螢池東町３丁目５番７号,,27,203,5600032,,,,,,,2026-01-13,1,,,,,ココプラス,0
818,3122001040051,新規,0,2026-01-13,2026-01-13,株式会社ｅｃｌｉｐｓｅ,,株式会社,大阪府,東大阪市,川俣３丁目１－２４グランユニゾン７０１,,27,227,5770063,,,,,,,2026-01-13,1,,,,,エクリプス,0
819,3122003003428,新規,0,2026-01-13,2026-01-13,合同会社サンコー,,合同会社,大阪府,東大阪市,長堂２丁目１５－３,,27,227,5770056,,,,,,,2026-01-13,1,,,,,サンコー,0
820,3130001081362,新規,0,2026-01-13,2026-01-13,株式会社中野農園,,株式会社,京都府,八幡市,岩田岩ノ前２６番地,,26,210,6148256,,,,,,,2026-01-13,1,,,,,ナカノノウエン,0
821,3130001081379,新規,0,2026-01-13,2026-01-13,株式会社ＣＯＣＯプランニング,,株式会社,京都府,京都市右京区,太秦安井二条裏町１番地１２,,26,108,6168074,,,,,,,2026-01-13,1,,,,,ココプランニング,0
826,3140001141248,新規,0,2026-01-13,2026-01-13,株式会社世界のごちそう博物館,,株式会社,兵庫県,神戸市東灘区,魚崎南町３丁目１７番１０号先山ビル１階,,28,101,6580025,,,,,,,2026-01-13,1,,,,,セカイノゴチソウハクブツカン,0
827,3140001141272,新規,0,2026-01-13,2026-01-13,株式会社ＡＩＳＵ,,株式会社,兵庫県,神戸市東灘区,魚崎北町５丁目３番１６号ＥＷ３０８,,28,101,6580082,,,,,,,2026-01-13,1,,,,,アイス,0
828,3140001141289,新規,0,2026-01-13,2026-01-13,株式会社ｌｅｎｇｔｈ,,株式会社,兵庫県,加古郡播磨町,大中１丁目６番１号,,28,382,6750142,,,,,,,2026-01-13,1,,,,,レングス,0
833,3140003023064,新規,0,2026-01-13,2026-01-13,合同会社渡辺,,合同会社,兵庫県,神戸市中央区,下山手通３丁目１２－１トア山手フラッツ１０３－１,,28,110,6500011,,,,,,,2026-01-13,1,,,,,ワタナベ,0
837,3150001028650,新規,0,2026-01-13,2026-01-13,株式会社ＬＯＮＩ,,株式会社,奈良県,大和高田市,北本町６番３６号,,29,202,6350097,,,,,,,2026-01-13,1,,,,,ロニ,0
840,3170001018947,新規,0,2026-01-13,2026-01-13,株式会社ノア,,株式会社,和歌山県,和歌山市,直川５４８－２木もれ日館２０５,,30,201,6408481,,,,,,,2026-01-13,1,,,,,ノア,0
842,3180001169954,新規,0,2026-01-13,2026-01-13,Ｇｅｎｉｕｓ株式会社,,株式会社,愛知県,名古屋市中区,錦３丁目１９番１０号シャルトル吉田ビル３階,,23,106,4600003,,,,,,,2026-01-13,1,,,,,ジーニアス,0
843,3180001170177,新規,0,2026-01-13,2026-01-13,株式会社フローリクス,,株式会社,愛知県,春日井市,南下原町５丁目１７番地３,,23,206,4860841,,,,,,,2026-01-13,1,,,,,フローリクス,0
844,3180001170185,新規,0,2026-01-13,2026-01-13,株式会社吉田化学,,株式会社,愛知県,名古屋市守山区,西川原町２５４番地,,23,113,4630089,,,,,,,2026-01-13,1,,,,,ヨシダカガク,0
845,3180001170202,新規,0,2026-01-13,2026-01-13,株式会社ベルアス,,株式会社,愛知県,名古屋市中区,栄５丁目２４番２８号Ｇｒａｎｄｕｋｅ栄ｅｌｉｍａ２０１号,,23,106,4600008,,,,,,,2026-01-13,1,,,,,ベルアス,0
849,3180003029586,新規,0,2026-01-13,2026-01-13,合同会社ＮｉＺ,,合同会社,愛知県,名古屋市天白区,池見２丁目２３６番地の２,,23,116,4680067,,,,,,,2026-01-13,1,,,,,ニーズ,0
850,3180005021384,新規,0,2026-01-13,2026-01-13,医療法人ＫＩＯ,,その他の設立登記法人,愛知県,小牧市,大字久保一色字六反田９２９番地１,,23,219,4850003,,,,,,,2026-01-13,1,,,,,ケイアイオー,0
852,3180301040591,新規,0,2026-01-13,2026-01-13,株式会社ミトテ,,株式会社,愛知県,豊川市,御津町上佐脇六反畑９０番地２,,23,207,4410301,,,,,,,2026-01-13,1,,,,,ミトテ,0
855,3190001032822,新規,0,2026-01-13,2026-01-13,株式会社藤原屋,,株式会社,三重県,伊勢市,村松町１３７９番地５９,,24,203,5150507,,,,,,,2026-01-13,1,,,,,フジワラヤ,0
856,3190003005322,新規,0,2026-01-13,2026-01-13,合同会社エムズ,,合同会社,三重県,名張市,新田１７３番地４,,24,208,5180611,,,,,,,2026-01-13,1,,,,,エムズ,0
860,3200003007192,新規,0,2026-01-13,2026-01-13,合同会社Ｒｅｉｒａ,,合同会社,岐阜県,岐阜市,若宮町４丁目２２番地若宮銀座ビル１階Ａ号室,,21,201,5008828,,,,,,,2026-01-13,1,,,,,レイラ,0
863,3230001021242,新規,0,2026-01-13,2026-01-13,株式会社璃樹,,株式会社,富山県,富山市,星井町３丁目５番６号,,16,201,9300065,,,,,,,2026-01-13,1,,,,,リキ,0
867,3240001066014,新規,0,2026-01-13,2026-01-13,株式会社ＬＩＢＥＲＴＹ　ＧＲＯＵＰ,,株式会社,広島県,広島市中区,榎町１０－１６－７０２,,34,101,7300851,,,,,,,2026-01-13,1,,,,,リバティーグループ,0
868,3240001066039,新規,0,2026-01-13,2026-01-13,株式会社ＳＫＧ,,株式会社,広島県,呉市,下蒲刈町下島２４１９番地の２,,34,202,7370303,,,,,,,2026-01-13,1,,,,,エスケージー,0
872,3260001040859,新規,0,2026-01-13,2026-01-13,Ｓｔａｔｈａｍ株式会社,,株式会社,岡山県,岡山市北区,富田町２丁目１０番１７号,,33,101,7000816,,,,,,,2026-01-13,1,,,,,ステイサム,0
873,3260001040891,新規,0,2026-01-13,2026-01-13,ＲｅＲｕ株式会社,,株式会社,岡山県,倉敷市,曽原６０９番地,,33,202,7100146,,,,,,,2026-01-13,1,,,,,リル,0
874,3260001040900,新規,0,2026-01-13,2026-01-13,ＸＹＲＯＳ株式会社,,株式会社,岡山県,岡山市北区,芳賀１９０９番地２,,33,101,7011221,,,,,,,2026-01-13,1,,,,,ザイロス,0
875,3260005011567,新規,0,2026-01-13,2026-01-13,行政書士法人トラスティル岡山オフィス,,その他の設立登記法人,岡山県,岡山市北区,下石井１丁目１番１７号アクロスキューブビル２階,,33,101,7000907,,,,,,,2026-01-13,1,,,,,トラスティルオカヤマオフィス,0
884,3290001112696,新規,0,2026-01-13,2026-01-13,株式会社篤洋行旅,,株式会社,福岡県,福岡市博多区,博多駅前４丁目３３番７号４階,,40,132,8120011,,,,,,,2026-01-13,1,,,,,トクヨウコウリョ,0
885,3290001112721,新規,0,2026-01-13,2026-01-13,株式会社ＷＩＤＥ　ＢＡＵＭ,,株式会社,福岡県,大野城市,山田４丁目１番２１号,,40,219,8160922,,,,,,,2026-01-13,1,,,,,ワイドバウム,0
889,3290005019962,新規,0,2026-01-13,2026-01-13,医療法人絹子歯科クリニック,,その他の設立登記法人,福岡県,福岡市中央区,薬院２丁目１２番３３号エステート・モア薬院倶楽部１０２号,,40,133,8100022,,,,,,,2026-01-13,1,,,,,キヌコシカクリニック,0
892,3290802026319,新規,0,2026-01-13,2026-01-13,有限会社正和工業所,,有限会社,福岡県,北九州市若松区,響町１丁目５７番地,,40,103,8080021,,,,,,,2026-01-13,1,,,,,ショウワコウギョウショ,0
928,3310001019922,新規,0,2026-01-13,2026-01-13,株式会社対馬のとびら,,株式会社,長崎県,対馬市,美津島町鷄知甲５０番地８マリベール遊海３０３号室,00142145,42,209,8170000,,,,,,,2026-01-13,1,,,,,ツシマノトビラ,0
942,3350003005108,新規,0,2026-01-13,2026-01-13,香川商事合同会社,,合同会社,宮崎県,延岡市,伊達町１丁目１３番地,,45,203,8820874,,,,,,,2026-01-13,1,,,,,カガワショウジ,0
945,3360001036236,新規,0,2026-01-13,2026-01-13,株式会社大安吉日,,株式会社,沖縄県,浦添市,伊祖４丁目２番１７号,,47,208,9012132,,,,,,,2026-01-13,1,,,,,タイアンキチジツ,0
946,3360001036244,新規,0,2026-01-13,2026-01-13,株式会社ＫＩＡ　ＬＩＦＥ,,株式会社,沖縄県,宜野湾市,新城１丁目２２番９号,,47,205,9012201,,,,,,,2026-01-13,1,,,,,キアライフ,0
951,3370001053379,新規,0,2026-01-13,2026-01-13,クラフトリンク株式会社,,株式会社,宮城県,仙台市青葉区,山手町５番２３号,,04,101,9810967,,,,,,,2026-01-13,1,,,,,クラフトリンク,0
952,3370001053387,新規,0,2026-01-13,2026-01-13,株式会社リヴラ住設管理,,株式会社,宮城県,仙台市青葉区,中央２丁目２番１０号仙都会館５Ｆ,,04,101,9800021,,,,,,,2026-01-13,1,,,,,リヴラジュウセツカンリ,0
953,3380001035797,新規,0,2026-01-13,2026-01-13,株式会社鯨岡ファーム,,株式会社,福島県,いわき市,四倉町長友字済戸６３番地,,07,204,9790214,,,,,,,2026-01-13,1,,,,,クジラオカファーム,0
963,3430003018472,新規,0,2026-01-13,2026-01-13,合同会社ＳＹｎカンパニー,,合同会社,北海道,札幌市中央区,北五条西２７丁目１番２０－１４０４号,,01,101,0640825,,,,,,,2026-01-13,1,,,,,シンカンパニー,0
964,3430005015385,新規,0,2026-01-13,2026-01-13,一般社団法人苫小牧スマートシティプラットフォーム,,その他の設立登記法人,北海道,苫小牧市,新明町２丁目４番１号,,01,213,0530055,,,,,,,2026-01-13,1,,,,,トマコマイスマートシティプラットフォーム,0
965,3440001009737,新規,0,2026-01-13,2026-01-13,株式会社カロル,,株式会社,北海道,函館市,本町３２番２９号,,01,202,0400011,,,,,,,2026-01-13,1,,,,,カロル,0
967,3470001021053,新規,0,2026-01-13,2026-01-13,株式会社みんなの居場所,,株式会社,香川県,高松市,西宝町１丁目５番３４号,,37,201,7600004,,,,,,,2026-01-13,1,,,,,ミンナノイバショ,0
968,3480003002372,新規,0,2026-01-13,2026-01-13,Ｔ‐Ｋａｒｓ合同会社,,合同会社,徳島県,板野郡松茂町,中喜来字牛飼野西ノ越１８番地２,,36,401,7710212,,,,,,,2026-01-13,1,,,,,ティーカーズ,0
969,3490001011250,新規,0,2026-01-13,2026-01-13,株式会社ＮｌＧ,,株式会社,高知県,高知市,帯屋町２丁目１番２４号,,39,201,7800841,,,,,,,2026-01-13,1,,,,,ニジ,0
973,3700150133906,新規,0,2026-01-13,2026-01-13,ＴＳＵＢＯ　ＯＫＡ　ＰＴＥ　ＬＴＤ,,外国会社等,,,,,,,,２２　ＧＯＬＤＨＩＬＬ　ＤＲＩＶＥ　ＧＯＬＤＨＩＬＬ　ＧＡＲＤＥＮ　ＳＩＮＧＡＰＯＲＥ,,,,,,2026-01-13,1,,,,,ツボオカピーテイーイーリミテツド,0
974,3700150133914,新規,0,2026-01-13,2026-01-13,ＰＥＲＭＩＲＡ　ＡＤＶＩＳＥＲＳ　ＰＴＥ　ＬＴＤ,,外国会社等,東京都,千代田区,丸の内１丁目４－１　丸の内永楽ビルディング２６階,,13,101,1000005,シンガポール共和国０４９３１５、コリアー・キー１０、オーシャン・フィナンシャル・センター＃２４－０８,,,,,,2026-01-13,1,,,,,パーミラアドバイザーズピーテイーイーエルテイーデイー,0
977,4010001261586,新規,0,2026-01-13,2026-01-13,株式会社Ｌｅｔ’ｓＧｏ,,株式会社,東京都,中央区,日本橋蛎殻町２丁目１１番３号,,13,102,1030014,,,,,,,2026-01-13,1,,,,,レッツゴー,0
978,4010001261628,新規,0,2026-01-13,2026-01-13,株式会社ＳＩＮＡＸ,,株式会社,東京都,千代田区,神田須田町１丁目７番地８ＶＯＲＴ秋葉原ＩＶ２Ｆ,00142126,13,101,1010041,,,,,,,2026-01-13,1,,,,,シナクス,0
979,4010001261660,新規,0,2026-01-13,2026-01-13,株式会社ＳＴＡＲ　Ｗｅｌｌｎｅｓｓ,,株式会社,東京都,文京区,千駄木３丁目４４番１０号,,13,105,1130022,,,,,,,2026-01-13,1,,,,,スターウェルネス,0
980,4010001261719,新規,0,2026-01-13,2026-01-13,ＳｔａｒＲｏｃｋ株式会社,,株式会社,東京都,千代田区,飯田橋１丁目９－７ＩＳＭ飯田橋ビル９Ｆ,,13,101,1020072,,,,,,,2026-01-13,1,,,,,スターロック,0
986,4010003049947,新規,0,2026-01-13,2026-01-13,ＲＥＢＥＬＩＡ合同会社,,合同会社,東京都,中央区,新富１丁目１７番６－６０２号,,13,102,1040041,,,,,,,2026-01-13,1,,,,,リベリア,0
987,4010003049996,新規,0,2026-01-13,2026-01-13,アプリケイト合同会社,,合同会社,東京都,中央区,日本橋大伝馬町１３番１－７０１号,,13,102,1030011,,,,,,,2026-01-13,1,,,,,アプリケイト,0
989,4010005041191,新規,0,2026-01-13,2026-01-13,一般社団法人ＧＭＳホールディングス,,その他の設立登記法人,東京都,千代田区,丸の内１丁目６番５号,,13,101,1000005,,,,,,,2026-01-13,1,,,,,ジーエムエスホールディングス,0
990,4010005041209,新規,0,2026-01-13,2026-01-13,一般社団法人ＴＯＮＫＡＮ,,その他の設立登記法人,東京都,文京区,湯島１丁目７番９号,,13,105,1130034,,,,,,,2026-01-13,1,,,,,トンカン,0
998,4010403036966,新規,0,2026-01-13,2026-01-13,デジタルダイナミック薩摩ＤＣ合同会社,,合同会社,東京都,港区,西新橋１丁目６－１２アイオス虎ノ門４０４号室,,13,103,1050003,,,,,,,2026-01-13,1,,,,,,0
1005,4010601068555,新規,0,2026-01-13,2026-01-13,ＳＫ株式会社,,株式会社,東京都,江東区,亀戸６丁目３９番６号,,13,108,1360071,,,,,,,2026-01-13,1,,,,,エスケー,0
1006,4010601068563,新規,0,2026-01-13,2026-01-13,株式会社ＫＡＷＡＢＥ,,株式会社,東京都,江東区,永代１丁目６番９号,,13,108,1350034,,,,,,,2026-01-13,1,,,,,カワベ,0
1007,4010603012008,新規,0,2026-01-13,2026-01-13,合同会社Ｋａｔｙ　Ａｓｓｅｔ　Ｍａｎａｇｅｍｅｎｔ,,合同会社,東京都,江東区,深川２丁目９番２号,,13,108,1350033,,,,,,,2026-01-13,1,,,,,ケイティアセットマネジメント,0
1017,4010901058751,新規,0,2026-01-13,2026-01-13,株式会社クラムハウス,,株式会社,東京都,世田谷区,深沢５丁目８番６号－６,,13,112,1580081,,,,,,,2026-01-13,1,,,,,クラムハウス,0
1018,4010901058776,新規,0,2026-01-13,2026-01-13,株式会社Ｓｏｕｔ,,株式会社,東京都,世田谷区,赤堤１丁目１１－１７,,13,112,1560044,,,,,,,2026-01-13,1,,,,,ソウト,0
1020,4010903010537,新規,0,2026-01-13,2026-01-13,合同会社ＫＯＴ,,合同会社,東京都,世田谷区,八幡山１丁目１－３－６０２号,,13,112,1560056,,,,,,,2026-01-13,1,,,,,コット,0
1021,4010903010553,新規,0,2026-01-13,2026-01-13,合同会社大屋商店,,合同会社,東京都,世田谷区,等々力６丁目３７－３－６０２,,13,112,1580082,,,,,,,2026-01-13,1,,,,,オオヤショウテン,0
1025,4011001174811,新規,0,2026-01-13,2026-01-13,株式会社Ｆｒａｍｉｎｇ,,株式会社,東京都,渋谷区,桜丘町４番１７号ＰＯＲＴＡＬＡｐａｒｔｍｅｎｔ＆ＡｒｔＰＯＩＮＴ３０４,,13,113,1500031,,,,,,,2026-01-13,1,,,,,フレーミング,0
1026,4011003023231,新規,0,2026-01-13,2026-01-13,Ｆｏｒｆａｎｓ合同会社,,合同会社,東京都,渋谷区,道玄坂１丁目１０番８号渋谷道玄坂東急ビル２Ｆ－Ｃ,,13,113,1500043,,,,,,,2026-01-13,1,,,,,ファーファンズ,0
1027,4011003023297,新規,0,2026-01-13,2026-01-13,合同会社ＦＧアセット,,合同会社,東京都,渋谷区,神宮前６丁目２３番４号桑野ビル２階,,13,113,1500001,,,,,,,2026-01-13,1,,,,,エフジーアセット,0
1028,4011101114320,新規,0,2026-01-13,2026-01-13,株式会社ラシド,,株式会社,東京都,新宿区,西新宿３丁目３番１３号西新宿水間ビル６階,,13,104,1600023,,,,,,,2026-01-13,1,,,,,ラシド,0
1029,4011203004931,新規,0,2026-01-13,2026-01-13,合同会社Ｈａｒｍｏｎｙ　Ｏｎｅ,,合同会社,東京都,中野区,本町４丁目１６番９号,,13,114,1640012,,,,,,,2026-01-13,1,,,,,ハーモニーワン,0
1030,4011301031183,新規,0,2026-01-13,2026-01-13,株式会社ビーエヌエス,,株式会社,東京都,杉並区,松ノ木３丁目１１番３号,,13,115,1660014,,,,,,,2026-01-13,1,,,,,ビーエヌエス,0
1033,4011401027718,新規,0,2026-01-13,2026-01-13,株式会社ＭａｎａＶｉｘ,,株式会社,東京都,板橋区,加賀２丁目１１番地１,,13,119,1730003,,,,,,,2026-01-13,1,,,,,マナヴィクス,0
1034,4011403004995,新規,0,2026-01-13,2026-01-13,合同会社ＵＧＡＴ,,合同会社,東京都,板橋区,１－３２－８グレイス板橋５０３,,13,119,1740000,,,,,,,2026-01-13,1,,,,,ユーガット,0
1035,4011501032997,新規,0,2026-01-13,2026-01-13,吉川プライムアセット株式会社,,株式会社,東京都,北区,滝野川４丁目２８番１１号,,13,117,1140023,,,,,,,2026-01-13,1,,,,,ヨシカワプライムアセット,0
1037,4011503006834,新規,0,2026-01-13,2026-01-13,合同会社ＷＪＭＥ,,合同会社,東京都,荒川区,南千住６丁目１０－３,,13,118,1160003,,,,,,,2026-01-13,1,,,,,ダブリュジェーエムイー,0
1041,4011703004497,新規,0,2026-01-13,2026-01-13,エディコンサルティング合同会社,,合同会社,東京都,江戸川区,中葛西７丁目５－１６－８０５,,13,123,1340083,,,,,,,2026-01-13,1,,,,,エディコンサルティング,0
1042,4012301014665,新規,0,2026-01-13,2026-01-13,カイロスコンサルティング株式会社,,株式会社,東京都,町田市,金井７丁目６番１号,,13,209,1950072,,,,,,,2026-01-13,1,,,,,カイロスコンサルティング,0
1043,4012401044001,新規,0,2026-01-13,2026-01-13,ＲＩＶＥＲＴＨ株式会社,,株式会社,東京都,三鷹市,中原２丁目２４番２号,,13,204,1810005,,,,,,,2026-01-13,1,,,,,リバース,0
1044,4012403007559,新規,0,2026-01-13,2026-01-13,ベストフレンドプロパティ合同会社,,合同会社,東京都,調布市,若葉町１丁目２７番地１８,,13,208,1820003,,,,,,,2026-01-13,1,,,,,ベストフレンドプロパティ,0
1047,4013101009905,新規,0,2026-01-13,2026-01-13,株式会社ネクストサービス,,株式会社,東京都,福生市,加美平１丁目６－１１,,13,218,1970012,,,,,,,2026-01-13,1,,,,,ネクストサービス,0
1053,4013303008052,新規,0,2026-01-13,2026-01-13,合同会社ＭＫアウル・カンパニー,,合同会社,東京都,豊島区,東池袋４丁目２１番１－７１７号,,13,116,1700013,,,,,,,2026-01-13,1,,,,,エムケーアウルカンパニー,0
1055,4020001166578,新規,0,2026-01-13,2026-01-13,株式会社すらっく,,株式会社,神奈川県,川崎市川崎区,追分町６番地の１柴崎ビル２階,,14,131,2100835,,,,,,,2026-01-13,1,,,,,スラック,0
1058,4020003030088,新規,0,2026-01-13,2026-01-13,合同会社ＮＥＸＩＳ,,合同会社,神奈川県,川崎市川崎区,池田１丁目１１番２２－８０４号ツインスクエア２,,14,131,2100022,,,,,,,2026-01-13,1,,,,,ネクシス,0
1059,4020003030105,新規,0,2026-01-13,2026-01-13,合同会社ａｉｌｅ,,合同会社,神奈川県,川崎市麻生区,上麻生７丁目２０番１１号,,14,137,2150021,,,,,,,2026-01-13,1,,,,,エール,0
1060,4020003030121,新規,0,2026-01-13,2026-01-13,合同会社Ｌ．ｅ．ｃ,,合同会社,神奈川県,横浜市青葉区,美しが丘１丁目１９番地１１,,14,117,2250002,,,,,,,2026-01-13,1,,,,,エルイーシー,0
1064,4021001087203,新規,0,2026-01-13,2026-01-13,サステナ・ホールディングス株式会社,,株式会社,神奈川県,逗子市,桜山４丁目７番５号,,14,208,2490005,,,,,,,2026-01-13,1,,,,,サステナホールディングス,0
1065,4021001087228,新規,0,2026-01-13,2026-01-13,株式会社修復工房,,株式会社,神奈川県,相模原市南区,古淵６丁目７番１号,,14,153,2520344,,,,,,,2026-01-13,1,,,,,シュウフクコウボウ,0
1066,4021003016993,新規,0,2026-01-13,2026-01-13,ＰＲＥＳＥＮＣＥ　ＢＬＥＵ合同会社,,合同会社,神奈川県,小田原市,久野４８０番地の１,,14,206,2500055,,,,,,,2026-01-13,1,,,,,プレザンスブルー,0
1077,4030001170422,新規,0,2026-01-13,2026-01-13,株式会社花結び,,株式会社,埼玉県,深谷市,緑ケ丘４番７号,,11,218,3660054,,,,,,,2026-01-13,1,,,,,ハナムスビ,0
1078,4030001170471,新規,0,2026-01-13,2026-01-13,ステラプラティーノ株式会社,,株式会社,埼玉県,狭山市,大字南入曽３８５番地３８,,11,215,3501316,,,,,,,2026-01-13,1,,,,,ステラプラティーノ,0
1079,4030001170496,新規,0,2026-01-13,2026-01-13,株式会社天祐工務店,,株式会社,埼玉県,川口市,芝３丁目１番３－５号,,11,203,3330866,,,,,,,2026-01-13,1,,,,,テンユウコウムテン,0
1080,4030001170505,新規,0,2026-01-13,2026-01-13,岡崎電気工業株式会社,,株式会社,埼玉県,さいたま市見沼区,大字御蔵１１７０番地１,,11,104,3370033,,,,,,,2026-01-13,1,,,,,オカザキデンキコウギョウ,0
1081,4030001170521,新規,0,2026-01-13,2026-01-13,株式会社３１０,,株式会社,埼玉県,富士見市,羽沢３丁目５番２９号,,11,235,3540033,,,,,,,2026-01-13,1,,,,,サンイチゼロ,0
1084,4030003028420,新規,0,2026-01-13,2026-01-13,ＡＳＫ合同会社,,合同会社,埼玉県,児玉郡上里町,大字帯刀２６２番地２,,11,385,3690312,,,,,,,2026-01-13,1,,,,,エーエスケー,0
1085,4030003028437,新規,0,2026-01-13,2026-01-13,合同会社トレアルベリ,,合同会社,埼玉県,比企郡小川町,大字大塚５２７番地,,11,343,3550328,,,,,,,2026-01-13,1,,,,,トレアルベリ,0
1093,4040001142008,新規,0,2026-01-13,2026-01-13,Ａ　Ｔｒｅｅ株式会社,,株式会社,千葉県,我孫子市,寿１丁目２番１９号,,12,222,2701152,,,,,,,2026-01-13,1,,,,,エーツリー,0
1094,4040001142032,新規,0,2026-01-13,2026-01-13,株式会社クラフトプラスワン,,株式会社,千葉県,木更津市,十日市場３０９番地２,,12,206,2920025,,,,,,,2026-01-13,1,,,,,クラフトプラスワン,0
1095,4040001142057,新規,0,2026-01-13,2026-01-13,株式会社ＬＩＢＥＲＡＬ,,株式会社,千葉県,松戸市,千駄堀６２０番地の４４,,12,207,2702252,,,,,,,2026-01-13,1,,,,,リベラル,0
1096,4040001142073,新規,0,2026-01-13,2026-01-13,株式会社ユーエスディー,,株式会社,千葉県,富里市,御料１００５－４８,,12,233,2860211,,,,,,,2026-01-13,1,,,,,ユーエスディ,0
1105,4040003029244,新規,0,2026-01-13,2026-01-13,合同会社Ｌａ　Ｐｌｅｉｎｅ　Ｌｕｎｅ,,合同会社,千葉県,柏市,増尾台４丁目６番４４－３号,,12,217,2770052,,,,,,,2026-01-13,1,,,,,ラプレンヌリュンヌ,0
1106,4040003029260,新規,0,2026-01-13,2026-01-13,ラジ合同会社,,合同会社,千葉県,八街市,八街は４番地１０６,,12,230,2891107,,,,,,,2026-01-13,1,,,,,ラジ,0
1107,4040003029285,新規,0,2026-01-13,2026-01-13,合同会社エステック,,合同会社,千葉県,成田市,玉造２丁目２５番地６６,,12,211,2860011,,,,,,,2026-01-13,1,,,,,エステック,0
1111,4050003009872,新規,0,2026-01-13,2026-01-13,つくばビジネスサポート合同会社,,合同会社,茨城県,つくば市,大曽根２７３９―６,,08,220,3003253,,,,,,,2026-01-13,1,,,,,ツクバビジネスサポート,0
1115,4070001043723,新規,0,2026-01-13,2026-01-13,クラシク株式会社,,株式会社,群馬県,前橋市,紅雲町１丁目１４番１７号,,10,201,3710025,,,,,,,2026-01-13,1,,,,,クラシク,0
1119,4080101026024,新規,0,2026-01-13,2026-01-13,株式会社アメモリ,,株式会社,静岡県,富士市,加島町５－１８,,22,210,4160912,,,,,,,2026-01-13,1,,,,,アメモリ,0
1121,4090003002956,新規,0,2026-01-13,2026-01-13,合同会社Ｍｅｒｉｓｅ,,合同会社,山梨県,南アルプス市,榎原８６３番地３６,,19,208,4000204,,,,,,,2026-01-13,1,,,,,メリゼ,0
1122,4100001039247,新規,0,2026-01-13,2026-01-13,ＹｕｋｉＹａｍａ　ｒｅｓｏｒｔ　ｐｒｏｐｅｒｔｙ株式会社,,株式会社,長野県,飯山市,大字飯山１１４９２番地３３１,,20,213,3892253,,,,,,,2026-01-13,1,,,,,ユキヤマリゾートプロパティ,0
1123,4100001039255,新規,0,2026-01-13,2026-01-13,片山基礎株式会社,,株式会社,長野県,上田市,中之条１０１１番地１１６,,20,203,3860034,,,,,,,2026-01-13,1,,,,,カタヤマキソ,0
1127,4110001039840,新規,0,2026-01-13,2026-01-13,株式会社ＪＫＸ,,株式会社,新潟県,小千谷市,平成１丁目１番１８号,,15,208,9470027,,,,,,,2026-01-13,1,,,,,ジェイケイエックス,0
1128,4110005017306,新規,0,2026-01-13,2026-01-13,税理士法人平会計,,その他の設立登記法人,新潟県,新潟市中央区,米山５丁目６番３１号,,15,103,9500916,,,,,,,2026-01-13,1,,,,,タイラカイケイ,0
1136,4120001283149,新規,0,2026-01-13,2026-01-13,株式会社ＭＩＲＡＩＺ・４,,株式会社,大阪府,大阪市北区,梅田１丁目１番３号大阪駅前第３ビル２９階１－１－１号,,27,127,5300001,,,,,,,2026-01-13,1,,,,,ミライズフォー,0
1137,4120001283198,新規,0,2026-01-13,2026-01-13,株式会社日本エコシステム,,株式会社,大阪府,枚方市,津田北町２丁目３０番３０号,,27,210,5730121,,,,,,,2026-01-13,1,,,,,ニホンエコシステム,0
1138,4120001283231,新規,0,2026-01-13,2026-01-13,エニウェイジャパン株式会社,,株式会社,大阪府,大阪市西成区,玉出西２丁目１４番８－３０２号,,27,122,5570045,,,,,,,2026-01-13,1,,,,,エニウェイジャパン,0
1139,4120001283264,新規,0,2026-01-13,2026-01-13,Ｓｔａｒｔ株式会社,,株式会社,大阪府,大阪市天王寺区,南河堀町９番２６号,,27,109,5430054,,,,,,,2026-01-13,1,,,,,スタート,0
1140,4120001283314,新規,0,2026-01-13,2026-01-13,株式会社ＪＯＰ,,株式会社,大阪府,大阪市西区,靱本町１丁目１８番１０－１００３号,,27,106,5500004,,,,,,,2026-01-13,1,,,,,ジェイオーピー,0
1141,4120001283347,新規,0,2026-01-13,2026-01-13,ユーシンプロダクションエンジニアリング株式会社,,株式会社,大阪府,枚方市,香里ケ丘８丁目３２番地（１－１０２）,,27,210,5730084,,,,,,,2026-01-13,1,,,,,ユーシンプロダクションエンジニアリング,0
1142,4120001283355,新規,0,2026-01-13,2026-01-13,株式会社アレテクシア,,株式会社,大阪府,大阪市北区,梅田１丁目２番２号大阪駅前第２ビル１２－１２,,27,127,5300001,,,,,,,2026-01-13,1,,,,,アレテクシア,0
1143,4120003031588,新規,0,2026-01-13,2026-01-13,合同会社オルタス,,合同会社,大阪府,大阪市北区,梅田１丁目２番２号大阪駅前第２ビル１２‐１２,,27,127,5300001,,,,,,,2026-01-13,1,,,,,オルタス,0
1144,4120003031621,新規,0,2026-01-13,2026-01-13,合同会社Ｓｏｌｕｎａ,,合同会社,大阪府,守口市,大日東町４番Ｇ－２６０５号,,27,209,5700016,,,,,,,2026-01-13,1,,,,,ソルナ,0
1145,4120003031638,新規,0,2026-01-13,2026-01-13,合同会社ＹＴＵ,,合同会社,大阪府,大阪市阿倍野区,昭和町３丁目３番１８号,,27,119,5450011,,,,,,,2026-01-13,1,,,,,ワイティーユー,0
1149,4120101073053,新規,0,2026-01-13,2026-01-13,株式会社叶栄堂,,株式会社,大阪府,藤井寺市,岡２丁目１番５３号,,27,226,5830027,,,,,,,2026-01-13,1,,,,,カナエドウ,0
1150,4120101073078,新規,0,2026-01-13,2026-01-13,株式会社ＹＳＲ,,株式会社,大阪府,堺市南区,泉田中２１８２番地２,,27,145,5900126,,,,,,,2026-01-13,1,,,,,ワイエスアール,0
1152,4120103006936,新規,0,2026-01-13,2026-01-13,合同会社ルミエール,,合同会社,大阪府,泉大津市,豊中町２丁目１３番１８号,,27,206,5950023,,,,,,,2026-01-13,1,,,,,ルミエール,0
1153,4120901052074,新規,0,2026-01-13,2026-01-13,株式会社ＦＯＲＡ一級建築士事務所,,株式会社,大阪府,吹田市,豊津町１番１８号,,27,205,5640051,,,,,,,2026-01-13,1,,,,,フォーライッキュウケンチクシジムショ,0
1154,4120903006029,新規,0,2026-01-13,2026-01-13,合同会社なんくる,,合同会社,大阪府,茨木市,丑寅２丁目１０番１０号,,27,211,5670877,,,,,,,2026-01-13,1,,,,,ナンクル,0
1155,4122001040042,新規,0,2026-01-13,2026-01-13,株式会社ＳＨＯＵＲＩ　ＴＲＡＶＥＬ　ＳＥＲＶＩＣＥＳ,,株式会社,大阪府,東大阪市,高井田西１丁目１番１２－５０１号,,27,227,5770067,,,,,,,2026-01-13,1,,,,,ショウリトラベルサービス,0
1158,4130001081361,新規,0,2026-01-13,2026-01-13,株式会社ＮａＫａＯ,,株式会社,京都府,京都市西京区,大枝西長町２番地３５８,,26,111,6101151,,,,,,,2026-01-13,1,,,,,ナカオ,0
1159,4130003011069,新規,0,2026-01-13,2026-01-13,合同会社オールドテイスト,,合同会社,京都府,京都市中京区,三条大宮町２７３－１ＨＳビルヂング１０１,,26,104,6048336,,,,,,,2026-01-13,1,,,,,オールドテイスト,0
1165,4140001141305,新規,0,2026-01-13,2026-01-13,株式会社Ｓｕｎｎｙハウス,,株式会社,兵庫県,加古川市,加古川町北在家２５９６番地,,28,210,6750031,,,,,,,2026-01-13,1,,,,,サニーハウス,0
1170,4140003023063,新規,0,2026-01-13,2026-01-13,合同会社テルニアン,,合同会社,兵庫県,豊岡市,泉町１６番１２号,,28,209,6680021,,,,,,,2026-01-13,1,,,,,テルニアン,0
1171,4140005027764,新規,0,2026-01-13,2026-01-13,医療法人社団たなかデンタルクリニック,,その他の設立登記法人,兵庫県,尼崎市,西立花町４丁目３番１８号,,28,202,6600054,,,,,,,2026-01-13,1,,,,,タナカデンタルクリニック,0
1174,4150001028641,新規,0,2026-01-13,2026-01-13,株式会社山洋不動産,,株式会社,奈良県,奈良市,大宮町３丁目５番３５号アクティブ宝泉ビル６階,,29,201,6308115,,,,,,,2026-01-13,1,,,,,サンヨウフドウサン,0
1182,4180001170119,新規,0,2026-01-13,2026-01-13,株式会社Ａｔｅｌｉｅｒ　Ｅｌａｎ,,株式会社,愛知県,日進市,竹の山４丁目１７０２番地ガーデンソレジオＡ棟２０２,,23,230,4700136,,,,,,,2026-01-13,1,,,,,アトリエエラン,0
1183,4180001170151,新規,0,2026-01-13,2026-01-13,株式会社五常相建,,株式会社,愛知県,知多郡武豊町,字平井５丁目５５番地,,23,447,4702380,,,,,,,2026-01-13,1,,,,,ゴジョウソウケン,0
1184,4180001170192,新規,0,2026-01-13,2026-01-13,株式会社ｄａｏｄａｏ,,株式会社,愛知県,瀬戸市,北山町１８９番地,,23,204,4890984,,,,,,,2026-01-13,1,,,,,ダオダオ,0
1185,4180001170218,新規,0,2026-01-13,2026-01-13,株式会社フエルサ,,株式会社,愛知県,名古屋市名東区,香坂４０９番地,,23,115,4650007,,,,,,,2026-01-13,1,,,,,フエルサ,0
1186,4180001170226,新規,0,2026-01-13,2026-01-13,株式会社ＳＰ,,株式会社,愛知県,春日井市,中切町１丁目１１番地８Ｍｏｕｎｔ明Ｉ２０１号,00142131,23,206,4860925,,,,,,,2026-01-13,1,,,,,エスピー,0
1188,4180003029585,新規,0,2026-01-13,2026-01-13,合同会社アンナニシヤマ,,合同会社,愛知県,名古屋市名東区,上社３丁目２１１番地,,23,115,4650025,,,,,,,2026-01-13,1,,,,,アンナニシヤマ,0
1189,4180003029593,新規,0,2026-01-13,2026-01-13,合同会社Ｃａｓｔｌｅ,,合同会社,愛知県,津島市,百町字宮跡１６番地１,,23,208,4960017,,,,,,,2026-01-13,1,,,,,キャッスル,0
1190,4180005021383,新規,0,2026-01-13,2026-01-13,一般社団法人全国鍵盤楽器指導者協会,,その他の設立登記法人,愛知県,清須市,春日上須ケ田２１番地１１,,23,233,4520961,,,,,,,2026-01-13,1,,,,,ゼンコクケンバンガッキシドウシャキョウカイ,0
1191,4180301040574,新規,0,2026-01-13,2026-01-13,田中不動産株式会社,,株式会社,愛知県,安城市,今本町８丁目６番地７,,23,212,4460008,,,,,,,2026-01-13,1,,,,,タナカフドウサン,0
1192,4180301040590,新規,0,2026-01-13,2026-01-13,株式会社ｆｅｅｌ　ｏｎｅ,,株式会社,愛知県,岡崎市,六供町字３丁目４番地,,23,202,4440072,,,,,,,2026-01-13,1,,,,,フィールワン,0
1193,4180305009756,新規,0,2026-01-13,2026-01-13,医療法人芳星会,,その他の設立登記法人,愛知県,豊橋市,羽田町３８番地,,23,201,4418012,,,,,,,2026-01-13,1,,,,,ホウセイカイ,0
1194,4190001032821,新規,0,2026-01-13,2026-01-13,株式会社地方創生ＣＯＭＰＡＮＹ,,株式会社,三重県,志摩市,志摩町和具１５３７番地４,,24,215,5170703,,,,,,,2026-01-13,1,,,,,チホウソウセイカンパニー,0
1197,4200001044609,新規,0,2026-01-13,2026-01-13,株式会社かるん岐阜,,株式会社,岐阜県,揖斐郡大野町,大字黒野字相羽３９番地,,21,403,5010521,,,,,,,2026-01-13,1,,,,,カルンギフ,0
1198,4200001044617,新規,0,2026-01-13,2026-01-13,株式会社Ｋａｚｕ　Ｐｒｏｊｅｃｔ,,株式会社,岐阜県,大垣市,長松町８４番地５,,21,202,5030997,,,,,,,2026-01-13,1,,,,,カズプロジェクト,0
1202,4210001020443,新規,0,2026-01-13,2026-01-13,株式会社ソラスペース,,株式会社,福井県,三方郡美浜町,佐田第７１号１１番地,,18,442,9191205,,,,,,,2026-01-13,1,,,,,ソラスペース,0
1204,4220001027124,新規,0,2026-01-13,2026-01-13,株式会社ＰＯＭ,,株式会社,石川県,かほく市,宇野気ヌ１９９番地１１,,17,209,9291125,,,,,,,2026-01-13,1,,,,,ピーオーエム,0
1206,4220003004204,新規,0,2026-01-13,2026-01-13,ＲＥＮＵ合同会社,,合同会社,石川県,金沢市,太陽が丘第７工区５街区１３番地,,17,201,9200000,,,,,,,2026-01-13,1,,,,,リーヌ,0
1210,4240003007551,新規,0,2026-01-13,2026-01-13,合同会社ＯＭＳ,,合同会社,広島県,広島市西区,己斐大迫２丁目３０番１６号,,34,104,7330816,,,,,,,2026-01-13,1,,,,,オーエムエス,0
1211,4240005016022,新規,0,2026-01-13,2026-01-13,一般社団法人みつばち会,,その他の設立登記法人,広島県,福山市,野上町２丁目６番６号８１０号室,,34,207,7200815,,,,,,,2026-01-13,1,,,,,ミツバチカイ,0
1213,4260001040882,新規,0,2026-01-13,2026-01-13,株式会社なかたけ,,株式会社,岡山県,岡山市北区,大元上町１４番１８号,,33,101,7000925,,,,,,,2026-01-13,1,,,,,ナカタケ,0
1214,4260001040890,新規,0,2026-01-13,2026-01-13,株式会社アカネプラント,,株式会社,岡山県,倉敷市,水島東寿町１番２７号,,33,202,7128037,,,,,,,2026-01-13,1,,,,,アカネプラント,0
1215,4260001040899,新規,0,2026-01-13,2026-01-13,株式会社畔倉,,株式会社,岡山県,総社市,黒尾２７１番地１,,33,208,7191105,,,,,,,2026-01-13,1,,,,,アゼクラ,0
1216,4260003005470,新規,0,2026-01-13,2026-01-13,合同会社弥栄,,合同会社,岡山県,津山市,山北６９４－１,,33,203,7080004,,,,,,,2026-01-13,1,,,,,イヤサカ,0
1217,4260003005479,新規,0,2026-01-13,2026-01-13,Ｋ’ｓセラミック合同会社,,合同会社,岡山県,玉野市,築港５丁目１１番８号,,33,204,7060002,,,,,,,2026-01-13,1,,,,,ケイズセラミック,0
1224,4290001112720,新規,0,2026-01-13,2026-01-13,株式会社オンテラス,,株式会社,福岡県,福岡市城南区,七隈６丁目１８番４３－３０２号ロワールマンション城南,,40,136,8140133,,,,,,,2026-01-13,1,,,,,オンテラス,0
1225,4290001112729,新規,0,2026-01-13,2026-01-13,株式会社ゆに和,,株式会社,福岡県,糟屋郡志免町,志免中央３丁目７番８号２０８,,40,343,8112244,,,,,,,2026-01-13,1,,,,,,0
1226,4290001112737,新規,0,2026-01-13,2026-01-13,株式会社青木カンパニー,,株式会社,福岡県,福岡市西区,下山門４丁目１３番１０号,,40,135,8190052,,,,,,,2026-01-13,1,,,,,アオキカンパニー,0
1227,4290001112761,新規,0,2026-01-13,2026-01-13,フレデリック・スタンダード株式会社,,株式会社,福岡県,福岡市中央区,春吉３丁目２３－２７久保田ビル３０３号室,,40,133,8100003,,,,,,,2026-01-13,1,,,,,フレデリックスタンダード,0
1228,4290001112794,新規,0,2026-01-13,2026-01-13,株式会社西山水産,,株式会社,福岡県,春日市,大谷３丁目９８番地２コアマンション春日大谷ＩＩ５０８号,00142124,40,218,8160831,,,,,,,2026-01-13,1,,,,,ニシヤマスイサン,0
1230,4290003017901,新規,0,2026-01-13,2026-01-13,サンドアップ合同会社,,合同会社,福岡県,福岡市東区,箱崎１丁目９番１６号,,40,131,8120053,,,,,,,2026-01-13,1,,,,,サンドアップ,0
1231,4290801032176,新規,0,2026-01-13,2026-01-13,株式会社シェリアン,,株式会社,福岡県,遠賀郡遠賀町,島門７番１２号,,40,384,8114333,,,,,,,2026-01-13,1,,,,,シェリアン,0
1232,4290803005254,新規,0,2026-01-13,2026-01-13,合同会社川口ラボ,,合同会社,福岡県,北九州市門司区,東本町１丁目３番３－１１０２号,,40,101,8010851,,,,,,,2026-01-13,1,,,,,カワグチラボ,0
1233,4300003002397,新規,0,2026-01-13,2026-01-13,合同会社ふじの,,合同会社,佐賀県,佐賀市,諸富町大字徳富５８６番地,,41,201,8402104,,,,,,,2026-01-13,1,,,,,フジノ,0
1280,4310001019913,新規,0,2026-01-13,2026-01-13,株式会社サンビーエル,,株式会社,長崎県,長崎市,田中町５９６番地３,,42,201,8510134,,,,,,,2026-01-13,1,,,,,サンビーエル,0
1281,4310001019921,新規,0,2026-01-13,2026-01-13,株式会社ＵＰ,,株式会社,長崎県,長崎市,平戸小屋町９番２９号,,42,201,8528006,,,,,,,2026-01-13,1,,,,,アップ,0
1290,4330001033895,新規,0,2026-01-13,2026-01-13,株式会社リズムマーケット,,株式会社,熊本県,熊本市南区,薄場２丁目６番６号,,43,104,8614131,,,,,,,2026-01-13,1,,,,,リズムマーケット,0
1291,4330001033912,新規,0,2026-01-13,2026-01-13,春惟和光株式会社,,株式会社,熊本県,熊本市中央区,坪井１丁目５番７－７０４号室,,43,101,8600863,,,,,,,2026-01-13,1,,,,,ハルイワコウ,0
1299,4370001053386,新規,0,2026-01-13,2026-01-13,株式会社Ｆｉｎａｎｃｉａｌ　Ｌｕｃｋ,,株式会社,宮城県,仙台市宮城野区,榴岡３丁目８番２４号２階,,04,102,9830852,,,,,,,2026-01-13,1,,,,,ファイナンシャルラック,0
1301,4380001035796,新規,0,2026-01-13,2026-01-13,株式会社めぶき野,,株式会社,福島県,河沼郡湯川村,大字湊字奈良町丙３２番地,,07,422,9693542,,,,,,,2026-01-13,1,,,,,メブキノ,0
1303,4390005009151,新規,0,2026-01-13,2026-01-13,おばなざわマルチワーク事業協同組合,,その他の設立登記法人,山形県,尾花沢市,大字延沢３６３６番地の１４,,06,212,9994441,,,,,,,2026-01-13,1,,,,,オバナザワマルチワーク,0
1305,4430001096016,新規,0,2026-01-13,2026-01-13,株式会社札幌大通確定拠出年金センター,,株式会社,北海道,札幌市中央区,南二条東１丁目１－１１第三泊ビル,,01,101,0600052,,,,,,,2026-01-13,1,,,,,サッポロオオドオリカクテイキョシュツネンキンセンター,0
1307,4430003018463,新規,0,2026-01-13,2026-01-13,合同会社ＭＪエステート,,合同会社,北海道,札幌市中央区,南九条西１１丁目１番２３－２０３号,,01,101,0640809,,,,,,,2026-01-13,1,,,,,エムジェーエステート,0
1308,4430005015392,新規,0,2026-01-13,2026-01-13,一般社団法人ｊｅｚｅｌｆ,,その他の設立登記法人,北海道,札幌市東区,東雁来十条１丁目５－７,,01,103,0070030,,,,,,,2026-01-13,1,,,,,イェゼルフ,0
1309,4440001009736,新規,0,2026-01-13,2026-01-13,株式会社ＮＯＲＤ　ＭＯＮＴＡＧＮＥ,,株式会社,北海道,瀬棚郡今金町,字今金１１９番地の２,,01,370,0494308,,,,,,,2026-01-13,1,,,,,ノールモンターニュ,0
1310,4450001014834,新規,0,2026-01-13,2026-01-13,北海道ライフデザイン株式会社,,株式会社,北海道,旭川市,緑が丘東一条３丁目１番６号,,01,204,0788801,,,,,,,2026-01-13,1,,,,,ホッカイドウライフデザイン,0
1315,4480003002371,新規,0,2026-01-13,2026-01-13,ワンチーム合同会社,,合同会社,徳島県,吉野川市,鴨島町知恵島７６９番地５,,36,205,7760014,,,,,,,2026-01-13,1,,,,,ワンチーム,0
1319,4500005008843,新規,0,2026-01-13,2026-01-13,一般社団法人モストマスキュラー,,その他の設立登記法人,愛媛県,西条市,神拝甲５３３番地１ポレスター神拝アクアステージ８０３号,,38,206,7930041,,,,,,,2026-01-13,1,,,,,モストマスキュラー,0
1323,4700150133905,新規,0,2026-01-13,2026-01-13,みちのく心臓血管研究会,,その他,福島県,郡山市,向河原町１５９番１号　公益財団法人星総合病院内,,07,203,9638801,,,,,,,2026-01-13,1,,,,,ミチノクシンゾウケッカンケンキュウカイ,0
1324,4700150133913,新規,0,2026-01-13,2026-01-13,Ｓｈｅｎｚｈｅｎ　ＺｈｕｏＫｅｃｈｕａｎｇ　Ｔｅｃｈｎｏｌｏｇｙ　Ｃｏ．，Ｌｔｄ,,外国会社等,,,,,,,,Ｕｎｉｔ　１３Ｍ，Ｂｕｉｌｄｉｎｇ　Ａ１．Ａ２．Ａ３，Ｎｏ．９５，Ｇｏｌｄｅｎ　Ｍａｎｓｉｏｎ，Ｇｏｌｄｅｎ　Ｓｏｕｔｈ　Ｒｏａｄ，Ｎａｎｌｉｎｇ　Ｖｉｌｌａｇｅ　Ｃｏｍｍｕｎｉｔｙ，Ｎａｎｗａｎ　Ｓｔｒｅｅｔ，Ｌｏｎｇｇａｎｇ　Ｄｉｓｔｒｉｃｔ　ｓｈｅｎｚｈｅｎ,,,,,,2026-01-13,1,,,,,シンセンヂュオコーチュアンテクノロジーカンパニーリミテッド,0
1330,5010001261610,新規,0,2026-01-13,2026-01-13,株式会社Ｔｈｅ　Ｒｏｏｍ　Ｍａｋｅｒｓ,,株式会社,東京都,中央区,銀座１丁目２２番１１号銀座大竹ビジデンス２Ｆ,,13,102,1040061,,,,,,,2026-01-13,1,,,,,ルームメイカーズ,0
1331,5010001261619,新規,0,2026-01-13,2026-01-13,株式会社Ｌｉｆｏｒｉａ,,株式会社,東京都,中央区,月島１丁目５番１－５０８号,,13,102,1040052,,,,,,,2026-01-13,1,,,,,ライフォリア,0
1332,5010001261635,新規,0,2026-01-13,2026-01-13,瑞博開發株式会社,,株式会社,東京都,中央区,入船２丁目３番７号築地エー・アイ・ユービル５階,,13,102,1040042,,,,,,,2026-01-13,1,,,,,ズイハクカイハツ,0
1333,5010001261734,新規,0,2026-01-13,2026-01-13,株式会社ｆｏｒ　Ａ,,株式会社,東京都,文京区,白山５丁目１７番２号,,13,105,1120001,,,,,,,2026-01-13,1,,,,,フォーエー,0
1334,5010001261841,新規,0,2026-01-13,2026-01-13,三番町不動産株式会社,,株式会社,東京都,文京区,後楽２丁目６番１－７０８号,,13,105,1120004,,,,,,,2026-01-13,1,,,,,サンバンチョウフドウサン,0
1337,5010003049946,新規,0,2026-01-13,2026-01-13,合同会社ＬＯＧＩ　ＦＬＡＧ１３号,,合同会社,東京都,中央区,日本橋１丁目４番１号,,13,102,1030027,,,,,,,2026-01-13,1,,,,,ロジフラッグジュウサンゴウ,0
1338,5010003049970,新規,0,2026-01-13,2026-01-13,合同会社ＯＣＰＦ５号,,合同会社,東京都,中央区,日本橋１丁目４番１号,,13,102,1030027,,,,,,,2026-01-13,1,,,,,オーシーピーエフゴゴウ,0
1344,5010401195697,新規,0,2026-01-13,2026-01-13,株式会社ノアブリッジ,,株式会社,東京都,港区,六本木３丁目１６番１２号六本木ＫＳビル５Ｆ,,13,103,1060032,,,,,,,2026-01-13,1,,,,,ノアブリッジ,0
1350,5010701048869,新規,0,2026-01-13,2026-01-13,株式会社ＴＯＭＯＤＥ　ＢＡＳＥ,,株式会社,東京都,品川区,北品川４丁目７番３５号御殿山トラストタワー１階ＬＯＣＯＫウェルネスガーデン品川御殿山,,13,109,1400001,,,,,,,2026-01-13,1,,,,,トモードベース,0
1351,5010701048877,新規,0,2026-01-13,2026-01-13,株式会社ＴＲＥＸ　Ｅｓｔａｔｅ,,株式会社,東京都,品川区,東五反田５丁目２２番３７号オフィスサークルＮ五反田４階,,13,109,1410022,,,,,,,2026-01-13,1,,,,,トレックスエステート,0
1353,5010703008078,新規,0,2026-01-13,2026-01-13,合同会社ＬＰ　ＨＯＭＥＳ,,合同会社,東京都,品川区,西品川２丁目１５－８,,13,109,1410033,,,,,,,2026-01-13,1,,,,,エルピーホームズ,0
1354,5010801036939,新規,0,2026-01-13,2026-01-13,株式会社Ｎｏ　Ｌｉｍｉｔ．２０２５,,株式会社,東京都,大田区,南千束２丁目８番３号,,13,111,1450063,,,,,,,2026-01-13,1,,,,,ノーリミットニーマルニーゴー,0
1355,5010801036947,新規,0,2026-01-13,2026-01-13,株式会社ギャランティード,,株式会社,東京都,大田区,中央４丁目３３番４号,,13,111,1430024,,,,,,,2026-01-13,1,,,,,ギャランティード,0
1356,5010901058775,新規,0,2026-01-13,2026-01-13,クオル株式会社,,株式会社,東京都,世田谷区,代沢２丁目４２番７号,,13,112,1550032,,,,,,,2026-01-13,1,,,,,クオル,0
1357,5010903010536,新規,0,2026-01-13,2026-01-13,ＪＭイノベーション合同会社,,合同会社,東京都,世田谷区,経堂４丁目３７番１３号ラビアンローズ２０１号室,,13,112,1560052,,,,,,,2026-01-13,1,,,,,ジェイエムイノベーション,0
1358,5010903010552,新規,0,2026-01-13,2026-01-13,ＭＡＩＳＯＮ　ＯＫＡＫＩ合同会社,,合同会社,東京都,世田谷区,用賀２丁目２１番１－３２０号ラナイヘリテイジ,,13,112,1580097,,,,,,,2026-01-13,1,,,,,メゾンオカキ,0
1368,5011001174744,新規,0,2026-01-13,2026-01-13,株式会社ＤＥＭ,,株式会社,東京都,渋谷区,道玄坂１丁目１０番８号渋谷道玄坂東急ビル２Ｆ－Ｃ,,13,113,1500043,,,,,,,2026-01-13,1,,,,,デム,0
1369,5011001174918,新規,0,2026-01-13,2026-01-13,ＭＵＦＧ　ＧＭＯセキュリティ株式会社,,株式会社,東京都,渋谷区,桜丘町２６番１号,,13,113,1500031,,,,,,,2026-01-13,1,,,,,エムユーエフジージーエムオーセキュリティ,0
1371,5011003023288,新規,0,2026-01-13,2026-01-13,合同会社ｍｅｌｔｉｎｇ　ｂｏｔ,,合同会社,東京都,渋谷区,道玄坂１丁目１０番８号渋谷道玄坂東急ビル２Ｆ－Ｃ,,13,113,1500043,,,,,,,2026-01-13,1,,,,,メルティングボット,0
1372,5011003023296,新規,0,2026-01-13,2026-01-13,合同会社ＵＮＥ　ＨＯＭＥ,,合同会社,東京都,渋谷区,円山町５番５号Ｎａｖｉ渋谷Ｖ３階,00142122,13,113,1500044,,,,,,,2026-01-13,1,,,,,ウネホーム,0
1376,5011101114344,新規,0,2026-01-13,2026-01-13,株式会社ユーフォリア,,株式会社,東京都,新宿区,歌舞伎町２丁目２７番７号第７金嶋ビル２階Ｂ号室,,13,104,1600021,,,,,,,2026-01-13,1,,,,,ユーフォリア,0
1377,5011101114609,新規,0,2026-01-13,2026-01-13,株式会社サイエンスケープ,,株式会社,東京都,新宿区,西新宿６丁目５番１号新宿アイランドタワー２階,,13,104,1600023,,,,,,,2026-01-13,1,,,,,サイエンスケープ,0
1382,5011301031166,新規,0,2026-01-13,2026-01-13,株式会社ＲＯＣＫ　ＳＴＯＮＥ　ＷＡＴＥＲ,,株式会社,東京都,杉並区,成田東５丁目１番２８号,,13,115,1660015,,,,,,,2026-01-13,1,,,,,ロックストーンウォーター,0
1384,5011401027717,新規,0,2026-01-13,2026-01-13,株式会社Ｓｕｎｄａｙ　Ｃｌｉｍｂｉｎｇ　Ｉｎｄｕｓｔｒｙ,,株式会社,東京都,板橋区,常盤台１丁目３６番１４号プレステージ常盤台１階,,13,119,1740071,,,,,,,2026-01-13,1,,,,,サンデークライミングインダストリー,0
1386,5011501032988,新規,0,2026-01-13,2026-01-13,株式会社マスター,,株式会社,東京都,荒川区,西尾久７丁目１３番８号,,13,118,1160011,,,,,,,2026-01-13,1,,,,,マスター,0
1387,5011501032996,新規,0,2026-01-13,2026-01-13,株式会社ＢＲＯＳ,,株式会社,東京都,荒川区,西日暮里２丁目１８番２号イトウビル４Ｆ,,13,118,1160013,,,,,,,2026-01-13,1,,,,,ブロス,0
1389,5011601029307,新規,0,2026-01-13,2026-01-13,竹内ホールディングス株式会社,,株式会社,東京都,練馬区,小竹町２丁目６５番９号,,13,120,1760004,,,,,,,2026-01-13,1,,,,,タケウチホールディングス,0
1395,5011803007267,新規,0,2026-01-13,2026-01-13,合同会社リアメイトレーディング,,合同会社,東京都,足立区,中央本町１丁目１１番２－２０１号,,13,121,1200011,,,,,,,2026-01-13,1,,,,,リアメイトレーディング,0
1396,5012301014672,新規,0,2026-01-13,2026-01-13,株式会社ＫＩＴＯＨＩＴＯ,,株式会社,東京都,町田市,高ヶ坂５丁目１４番１２号,,13,209,1940014,,,,,,,2026-01-13,1,,,,,キトヒト,0
1399,5012801024460,新規,0,2026-01-13,2026-01-13,株式会社Ｂｅｅトラスト,,株式会社,東京都,立川市,柴崎町３丁目８番地５号立川ＮＸビル５Ｆ,,13,202,1900023,,,,,,,2026-01-13,1,,,,,ビートラスト,0
1404,5013303008051,新規,0,2026-01-13,2026-01-13,合同会社泉事務所,,合同会社,東京都,豊島区,西池袋５丁目１３番１８号,,13,116,1710021,,,,,,,2026-01-13,1,,,,,イズミジムショ,0
1408,5020001166486,新規,0,2026-01-13,2026-01-13,株式会社Ｂ‐ＬＩＦＥ,,株式会社,神奈川県,川崎市川崎区,塩浜１丁目１５番１号,,14,131,2100826,,,,,,,2026-01-13,1,,,,,ビーライフ,0
1409,5020001166552,新規,0,2026-01-13,2026-01-13,株式会社ロダン,,株式会社,神奈川県,川崎市宮前区,馬絹６丁目９番３５号,,14,136,2160035,,,,,,,2026-01-13,1,,,,,ロダン,0
1410,5020001166577,新規,0,2026-01-13,2026-01-13,リノヴァワークス株式会社,,株式会社,神奈川県,横浜市神奈川区,羽沢町１２００番地１５４,,14,102,2210863,,,,,,,2026-01-13,1,,,,,リノヴァワークス,0
1411,5020001166585,新規,0,2026-01-13,2026-01-13,株式会社和敬清寂カンパニー,,株式会社,神奈川県,横浜市中区,常盤町４丁目４４番地１ミトリビル４０１,,14,104,2310014,,,,,,,2026-01-13,1,,,,,ワケイセイジャクカンパニー,0
1412,5020001166602,新規,0,2026-01-13,2026-01-13,株式会社星野組,,株式会社,神奈川県,横浜市旭区,中沢１丁目６２番６号テラス・ル・グランブルーＢ,,14,112,2410814,,,,,,,2026-01-13,1,,,,,ホシノグミ,0
1413,5020001166610,新規,0,2026-01-13,2026-01-13,株式会社いっすんぼうし,,株式会社,神奈川県,横浜市保土ケ谷区,神戸町４番地３,,14,106,2400005,,,,,,,2026-01-13,1,,,,,イッスンボウシ,0
1414,5020001166619,新規,0,2026-01-13,2026-01-13,ＯＮＥ　ＥＮＥＲＧＹ株式会社,,株式会社,神奈川県,横浜市港北区,綱島西２丁目５番３０号きくむらビル２Ｆ１号室,,14,109,2230053,,,,,,,2026-01-13,1,,,,,ワンエナジー,0
1416,5020003030087,新規,0,2026-01-13,2026-01-13,合同会社ラインクラウド,,合同会社,神奈川県,川崎市宮前区,宮前平３丁目１１－３１クリフサイド１０６,,14,136,2160006,,,,,,,2026-01-13,1,,,,,ラインクラウド,0
1417,5020003030095,新規,0,2026-01-13,2026-01-13,サイドレイズ合同会社,,合同会社,神奈川県,横浜市中区,曙町３丁目４２番地ストークパレス横浜２０３,,14,104,2310057,,,,,,,2026-01-13,1,,,,,サイドレイズ,0
1418,5020003030104,新規,0,2026-01-13,2026-01-13,合同会社リーダーズアシスト,,合同会社,神奈川県,横浜市都筑区,南山田１丁目３番３－１０６号,,14,118,2240029,,,,,,,2026-01-13,1,,,,,リーダーズアシスト,0
1419,5020003030153,新規,0,2026-01-13,2026-01-13,合同会社アンドゥワークス,,合同会社,神奈川県,横浜市神奈川区,金港町５―１４クアドリフォリオ８階,,14,102,2210056,,,,,,,2026-01-13,1,,,,,アンドゥワークス,0
1422,5021001087210,新規,0,2026-01-13,2026-01-13,株式会社ｎ．ｆｌｏｗｗｏｒｋｓ,,株式会社,神奈川県,相模原市中央区,鹿沼台２丁目２２番１号ハーバルビル４Ａ,,14,152,2520233,,,,,,,2026-01-13,1,,,,,エヌフロウワークス,0
1433,5030001170512,新規,0,2026-01-13,2026-01-13,株式会社ＣｒｏｓｓＬｉｎｋＰａｒｔｎｅｒ,,株式会社,埼玉県,川越市,大字砂新田３７１番地３３,,11,201,3501137,,,,,,,2026-01-13,1,,,,,クロスリンクパートナー,0
1434,5030003028163,新規,0,2026-01-13,2026-01-13,合同会社創研,,合同会社,埼玉県,志木市,本町６丁目１番７号,,11,228,3530004,,,,,,,2026-01-13,1,,,,,ソウケン,0
1435,5030003028411,新規,0,2026-01-13,2026-01-13,ＬＥＯ合同会社,,合同会社,埼玉県,行田市,大字長野１８２９番地３ビレッジハウス行田４－４０８,,11,206,3610023,,,,,,,2026-01-13,1,,,,,レオ,0
1438,5040001141958,新規,0,2026-01-13,2026-01-13,村山グループ株式会社,,株式会社,千葉県,佐倉市,六崎１０５０番地の１,,12,212,2850812,,,,,,,2026-01-13,1,,,,,ムラヤマグループ,0
1439,5040001142031,新規,0,2026-01-13,2026-01-13,ＯｐｅｎＧａｔｅ株式会社,,株式会社,千葉県,千葉市緑区,おゆみ野南３丁目３０番地サンクレイドルおゆみ野１２１５号,,12,105,2660033,,,,,,,2026-01-13,1,,,,,オープンゲート,0
1440,5040001142080,新規,0,2026-01-13,2026-01-13,金沢工業株式会社,,株式会社,千葉県,市川市,鬼高１丁目１２番５－３０４号（ファミリーフジ）,,12,203,2720015,,,,,,,2026-01-13,1,,,,,カナザワコウギョウ,0
1445,5050005013748,新規,0,2026-01-13,2026-01-13,税理士法人ビサイド,,その他の設立登記法人,茨城県,結城市,中央町１丁目８番地８,,08,207,3070052,,,,,,,2026-01-13,1,,,,,ビサイド,0
1448,5070003006256,新規,0,2026-01-13,2026-01-13,ＨＯＰＥ合同会社,,合同会社,群馬県,太田市,龍舞町５２０９番地ＳＦＫマンション３０５号,,10,205,3730806,,,,,,,2026-01-13,1,,,,,ホプ,0
1450,5080101025999,新規,0,2026-01-13,2026-01-13,株式会社ＦＵＪＩ・ＨＡＲＶＥＳＴ,,株式会社,静岡県,三島市,大宮町３丁目２０－２２パークサイドレオ１Ｆ,,22,206,4110035,,,,,,,2026-01-13,1,,,,,フジハーベスト,0
1451,5080101026007,新規,0,2026-01-13,2026-01-13,株式会社一然薬局,,株式会社,静岡県,沼津市,西沢田４２９－６,,22,203,4100007,,,,,,,2026-01-13,1,,,,,イチゼンヤッキョク,0
1459,5100001039262,新規,0,2026-01-13,2026-01-13,株式会社オブセテラ,,株式会社,長野県,長野市,広田７７番地,,20,201,3812213,,,,,,,2026-01-13,1,,,,,オブセテラ,0
1461,5100003008562,新規,0,2026-01-13,2026-01-13,合同会社サカイ匠建,,合同会社,長野県,伊那市,西春近７６０２番地,,20,209,3994431,,,,,,,2026-01-13,1,,,,,サカイショウケン,0
1468,5110005017305,新規,0,2026-01-13,2026-01-13,行政書士法人ＨＡＬ,,その他の設立登記法人,新潟県,新潟市北区,葛塚字本町３３３７番地２階,,15,101,9503321,,,,,,,2026-01-13,1,,,,,ハル,0
1482,5120001283346,新規,0,2026-01-13,2026-01-13,株式会社ＹＵＪＩＮ,,株式会社,大阪府,大阪市西区,江之子島１丁目５番２－２０２号ラシュレエグゼ阿波座,,27,106,5500006,,,,,,,2026-01-13,1,,,,,ユウジン,0
1485,5120003031232,新規,0,2026-01-13,2026-01-13,ウナロサホームメイド合同会社,,合同会社,大阪府,枚方市,大字三矢町一丁目１２番２０２号,,27,210,5730000,,,,,,,2026-01-13,1,,,,,ウナロサホームメイド,0
1486,5120003031629,新規,0,2026-01-13,2026-01-13,合同会社ＧＵＩＤＯ,,合同会社,大阪府,大阪市中央区,船越町１丁目２番９号,,27,128,5400036,,,,,,,2026-01-13,1,,,,,グイード,0
1487,5120003031637,新規,0,2026-01-13,2026-01-13,中村ランドリーホールディングス合同会社,,合同会社,大阪府,大阪市生野区,巽南３丁目５－１４ラモーナ巽南３０５,,27,116,5440015,,,,,,,2026-01-13,1,,,,,ナカムラランドリーホールディングス,0
1490,5120105010101,新規,0,2026-01-13,2026-01-13,一般社団法人次世代グローバル創生機構,,その他の設立登記法人,大阪府,松原市,天美東２丁目１５５番地２,,27,217,5800032,,,,,,,2026-01-13,1,,,,,ジセダイグローバルソウセイキコウ,0
1492,5120901052081,新規,0,2026-01-13,2026-01-13,株式会社ライズリンク,,株式会社,大阪府,茨木市,下穂積３丁目９番１７号,,27,211,5670041,,,,,,,2026-01-13,1,,,,,ライズリンク,0
1493,5120901052098,新規,0,2026-01-13,2026-01-13,株式会社Ｙ．Ｄ．Ｓ,,株式会社,大阪府,摂津市,正雀本町２丁目１１番１９号,,27,224,5660024,,,,,,,2026-01-13,1,,,,,ワイディーエス,0
1494,5120903006028,新規,0,2026-01-13,2026-01-13,合同会社Ｗｅｌｌ‐ｂｅｉｎｇ　Ｐａｒｔｎｅｒｓ,,合同会社,大阪府,豊中市,服部豊町１丁目９－１４ビスタ服部１０２号室,,27,203,5610859,,,,,,,2026-01-13,1,,,,,ウェルビーイングパートナーズ,0
1497,5130001081385,新規,0,2026-01-13,2026-01-13,株式会社Ｔａｋｕｍｉ,,株式会社,京都府,京都市西京区,上桂東ノ口町１４０Ｃ棟,,26,111,6158221,,,,,,,2026-01-13,1,,,,,タクミ,0
1502,5140001141295,新規,0,2026-01-13,2026-01-13,株式会社せかもり,,株式会社,兵庫県,神崎郡市川町,下瀬加１０２７番地,,28,442,6792304,,,,,,,2026-01-13,1,,,,,セカモリ,0
1504,5140003023046,新規,0,2026-01-13,2026-01-13,合同会社ＵＮＫＮＯＷＮ,,合同会社,兵庫県,芦屋市,茶屋之町９番１７－１号,,28,206,6590067,,,,,,,2026-01-13,1,,,,,アンノウン,0
1505,5150005009752,新規,0,2026-01-13,2026-01-13,医療法人Ｍ＆Ｍ,,その他の設立登記法人,奈良県,奈良市,大宮町３丁目４番３４号青垣ビル２Ｆ,,29,201,6308115,,,,,,,2026-01-13,1,,,,,エムアンドエム,0
1510,5170003002369,新規,0,2026-01-13,2026-01-13,みやこエステート合同会社,,合同会社,和歌山県,田辺市,湊１８番１３号,,30,206,6460031,,,,,,,2026-01-13,1,,,,,ミヤコエステート,0
1515,5180001170092,新規,0,2026-01-13,2026-01-13,Ｏｍａｓ株式会社,,株式会社,愛知県,名古屋市千種区,松竹町２丁目１３番地,,23,101,4640823,,,,,,,2026-01-13,1,,,,,オマズ,0
1516,5180001170126,新規,0,2026-01-13,2026-01-13,株式会社ＬＵＭＩＣＡ,,株式会社,愛知県,名古屋市中区,丸の内２丁目１７番１３号ＮＫ丸の内ビル２－８Ｆ,,23,106,4600002,,,,,,,2026-01-13,1,,,,,ルミカ,0
1517,5180001170159,新規,0,2026-01-13,2026-01-13,株式会社ＮＢＬ　ＮＥＸＴ　ＬＩＮＥ,,株式会社,愛知県,春日井市,中野町２丁目３番地の１,,23,206,4860957,,,,,,,2026-01-13,1,,,,,エヌビーエルネクストライン,0
1518,5180001170175,新規,0,2026-01-13,2026-01-13,株式会社ｗｉｔｈ　ｅｙｅ．Ｃ,,株式会社,愛知県,名古屋市熱田区,三本松町１８番４号ミュープラット神宮前４Ｆ,,23,109,4560032,,,,,,,2026-01-13,1,,,,,ウィズアイシー,0
1519,5180001170209,新規,0,2026-01-13,2026-01-13,ウォリックス株式会社,,株式会社,愛知県,名古屋市南区,菊住２丁目１８番３号,,23,112,4570012,,,,,,,2026-01-13,1,,,,,ウォリックス,0
1520,5180001170217,新規,0,2026-01-13,2026-01-13,株式会社暮らしイロドリ舎,,株式会社,愛知県,瀬戸市,井戸金町３８１番地の１,,23,204,4890976,,,,,,,2026-01-13,1,,,,,クラシイロドリシャ,0
1521,5180001170308,新規,0,2026-01-13,2026-01-13,株式会社マロシカ,,株式会社,愛知県,名古屋市中村区,名駅５丁目４番１４号花車ビル北館２階,,23,105,4500002,,,,,,,2026-01-13,1,,,,,マロシカ,0
1523,5180003029519,新規,0,2026-01-13,2026-01-13,合同会社Ｆｏｎｅ,,合同会社,愛知県,長久手市,熊田７０１番地サンハイツいぼら２－Ｃ,,23,238,4801144,,,,,,,2026-01-13,1,,,,,フォン,0
1524,5180003029626,新規,0,2026-01-13,2026-01-13,合同会社ＰａｗｓＷｏｒｋｓ,,合同会社,愛知県,名古屋市中川区,牛立町３丁目５番地の１,,23,110,4540043,,,,,,,2026-01-13,1,,,,,パウズワークス,0
1526,5180005021374,新規,0,2026-01-13,2026-01-13,医療法人グリーンベア,,その他の設立登記法人,愛知県,名古屋市東区,砂田橋４丁目１番５２号コノミヤ砂田橋店２階,,23,102,4610045,,,,,,,2026-01-13,1,,,,,グリーンベア,0
1537,5220001027123,新規,0,2026-01-13,2026-01-13,株式会社Ｓｔｙｌｅ,,株式会社,石川県,野々市市,押野７丁目６２,,17,212,9218802,,,,,,,2026-01-13,1,,,,,スタイル,0
1540,5230001021232,新規,0,2026-01-13,2026-01-13,株式会社テイクツー,,株式会社,富山県,富山市,西荒屋２６４番地,,16,201,9398251,,,,,,,2026-01-13,1,,,,,テイクツー,0
1552,5260001040881,新規,0,2026-01-13,2026-01-13,株式会社五合,,株式会社,岡山県,津山市,小桁６６番地３,,33,203,7080863,,,,,,,2026-01-13,1,,,,,ゴゴウ,0
1555,5260003005478,新規,0,2026-01-13,2026-01-13,せとうちジャパン合同会社,,合同会社,岡山県,倉敷市,茶屋町３７７番地１アイプラザＣ２２１,,33,202,7101101,,,,,,,2026-01-13,1,,,,,セトウチジャパン,0
1564,5290001112686,新規,0,2026-01-13,2026-01-13,株式会社サイラ,,株式会社,福岡県,久留米市,花畑２丁目１５番地１,,40,203,8300039,,,,,,,2026-01-13,1,,,,,サイラ,0
1565,5290001112760,新規,0,2026-01-13,2026-01-13,調理師キャリアサポート株式会社,,株式会社,福岡県,福岡市博多区,冷泉町二丁目２４番４階,,40,132,8120039,,,,,,,2026-01-13,1,,,,,チョウリシキャリアサポート,0
1566,5290001112827,新規,0,2026-01-13,2026-01-13,株式会社レオモカ,,株式会社,福岡県,福岡市南区,大橋１丁目９－１６－３Ｆ,,40,134,8150033,,,,,,,2026-01-13,1,,,,,レオモカ,0
1573,5290003017917,新規,0,2026-01-13,2026-01-13,合同会社ＴＲＡ,,合同会社,福岡県,大野城市,中央２丁目２番１１号シャーメゾン大野城２０１号,,40,219,8160942,,,,,,,2026-01-13,1,,,,,ティーアールエー,0
1575,5290801032167,新規,0,2026-01-13,2026-01-13,株式会社ワン・ユー,,株式会社,福岡県,北九州市門司区,大字猿喰５２８番地,,40,101,8000102,,,,,,,2026-01-13,1,,,,,ワンユー,0
1624,5310001019912,新規,0,2026-01-13,2026-01-13,城山ガラス株式会社,,株式会社,長崎県,長崎市,城山町１８番９号,,42,201,8528021,,,,,,,2026-01-13,1,,,,,シロヤマガラス,0
1629,5330003011394,新規,0,2026-01-13,2026-01-13,嘉耀合同会社,,合同会社,熊本県,熊本市東区,新南部２丁目１番１０６号,,43,102,8618028,,,,,,,2026-01-13,1,,,,,カヨウ,0
1632,5350003005114,新規,0,2026-01-13,2026-01-13,合同会社ケアプランセンター前田,,合同会社,宮崎県,宮崎市,田野町甲６１１７番地４,,45,201,8891701,,,,,,,2026-01-13,1,,,,,ケアプランセンターマエダ,0
1634,5360001036218,新規,0,2026-01-13,2026-01-13,Ｗｅｌｌ‐美ｉｎｇ株式会社,,株式会社,沖縄県,宜野湾市,我如古１丁目５５番１３号,,47,205,9012214,,,,,,,2026-01-13,1,,,,,ウェルビーイング,0
1635,5360001036226,新規,0,2026-01-13,2026-01-13,株式会社ｍａｅｓｈｉｒｏ,,株式会社,沖縄県,浦添市,経塚１丁目１１番１４号,00142128,47,208,9012111,,,,,,,2026-01-13,1,,,,,マエシロ,0
1638,5360003015533,新規,0,2026-01-13,2026-01-13,合同会社本部電装,,合同会社,沖縄県,国頭郡本部町,字崎本部２２０３－３,,47,308,9050225,,,,,,,2026-01-13,1,,,,,モトブデンソウ,0
1639,5360003015541,新規,0,2026-01-13,2026-01-13,合同会社裕心,,合同会社,沖縄県,南城市,大里字古堅１３４８番地６,,47,215,9011207,,,,,,,2026-01-13,1,,,,,ユウシン,0
1642,5370001053377,新規,0,2026-01-13,2026-01-13,株式会社大原屋,,株式会社,宮城県,仙台市青葉区,芋沢字権現森山８番地,,04,101,9893212,,,,,,,2026-01-13,1,,,,,オオハラヤ,0
1643,5370001053393,新規,0,2026-01-13,2026-01-13,株式会社Ｅｃｏｍａｒｕ,,株式会社,宮城県,仙台市青葉区,落合２丁目２番８号,,04,101,9893126,,,,,,,2026-01-13,1,,,,,エコマル,0
1644,5370005011059,新規,0,2026-01-13,2026-01-13,旭日社会保険労務士法人,,その他の設立登記法人,宮城県,仙台市宮城野区,宮城野１丁目１１番６号ブライトンイースト２０１,,04,102,9830045,,,,,,,2026-01-13,1,,,,,アサヒ,0
1647,5380005013054,新規,0,2026-01-13,2026-01-13,社会保険労務士法人あゆみ事務所,,その他の設立登記法人,福島県,福島市,飯坂町湯野字湯ノ上２９番地の４菱沼ビル２Ｆ,,07,201,9600211,,,,,,,2026-01-13,1,,,,,アユミジムショ,0
1655,5420001019380,新規,0,2026-01-13,2026-01-13,株式会社ＫＡＮＫＵＲＯ,,株式会社,青森県,八戸市,大字大久保字西ノ平２５番地５０８,,02,203,0310833,,,,,,,2026-01-13,1,,,,,カンクロ,0
1657,5430003018487,新規,0,2026-01-13,2026-01-13,合同会社アンバーリンク,,合同会社,北海道,苫小牧市,拓勇西町５丁目１０番９号,,01,213,0591302,,,,,,,2026-01-13,1,,,,,アンバーリンク,0
1658,5430005015391,新規,0,2026-01-13,2026-01-13,社会保険労務士法人郷労働法務事務所,,その他の設立登記法人,北海道,札幌市中央区,南一条西１０丁目４番地南大通ビルアネックス４階,,01,101,0600061,,,,,,,2026-01-13,1,,,,,ゴウロウドウホウムジムショ,0
1663,5480003002370,新規,0,2026-01-13,2026-01-13,合同会社といぷーの手,,合同会社,徳島県,板野郡藍住町,矢上字春日３番地３キャロン・エスポワール１０６号室,,36,403,7711252,,,,,,,2026-01-13,1,,,,,トイプーノテ,0
1666,5700150133904,新規,0,2026-01-13,2026-01-13,Ｎ．Ｎ．Ｉ．ＩＮＣ．,,外国会社等,滋賀県,大津市,雄琴５丁目１２番３５号,,25,201,5200101,アメリカ合衆国マサチューセッツ州チェルムズフォード町ステッドマン通り１３１番地７号室,,,,,,2026-01-13,1,,,,,エヌエヌアイアイエヌシー,0
1667,5700150133912,新規,0,2026-01-13,2026-01-13,Ｓｈｅｎｚｈｅｎ　Ｓｈａｎｙｕｅａｎｋｕｏ　Ｔｅｃｈｎｏｌｏｇｙ　Ｃｏ．，Ｌｔｄ,,外国会社等,,,,,,,,１５Ｂ０５２，Ｂｕｉｌｄｉｎｇ　Ｃ，Ｎｏ．３，Ｌａｎｇｊｉｎｇ　Ｒｄ．，Ｘｉｎｓｈｉ　Ｃｏｍｍ．，Ｄａｌａｎｇ　Ｓｔ．，Ｌｏｎｇｈｕａ　Ｄｉｓｔ，Ｓｈｅｎｚｈｅｎ,,,,,,2026-01-13,1,,,,,シンセンシャンユエアンクオテクノロジーカンパニーリミテッド,0
1668,6010001050863,新規,0,2026-01-13,2026-01-13,株式会社鉄砲洲薬局,,株式会社,東京都,中央区,湊１丁目１３番９号,,13,102,1040043,,,,,,,2026-01-13,1,,,,,テッポウスヤッキョク,0
1673,6010001261618,新規,0,2026-01-13,2026-01-13,ＩＲ＆統合報告デザイン株式会社,,株式会社,東京都,千代田区,大手町１丁目５番１号大手町ファーストスクエアイーストタワー４階,,13,101,1000004,,,,,,,2026-01-13,1,,,,,アイアールアンドトウゴウホウコクデザイン,0
1674,6010001261650,新規,0,2026-01-13,2026-01-13,株式会社マクティックスター,,株式会社,東京都,中央区,晴海３丁目１３番２－４６０３号,,13,102,1040053,,,,,,,2026-01-13,1,,,,,マクティックスター,0
1675,6010001261659,新規,0,2026-01-13,2026-01-13,株式会社Ｔｅｃｈ０Ｌａｂ,,株式会社,東京都,中央区,銀座１丁目１２番４号Ｎ＆ＥＢＬＤ．６Ｆ,,13,102,1040061,,,,,,,2026-01-13,1,,,,,テックゼロラボ,0
1694,6010401195440,新規,0,2026-01-13,2026-01-13,株式会社五輪舎,,株式会社,東京都,港区,北青山１丁目３－３三橋ビル３階,,13,103,1070061,,,,,,,2026-01-13,1,,,,,ゴリンシャ,0
1695,6010401195622,新規,0,2026-01-13,2026-01-13,株式会社ＤＡＲＥＡ,,株式会社,東京都,港区,赤坂５丁目２番２０号,,13,103,1070052,,,,,,,2026-01-13,1,,,,,ダリア,0
1696,6010401195696,新規,0,2026-01-13,2026-01-13,株式会社ＴＥＮＥＬＥ　ｊａｐａｎ,,株式会社,東京都,港区,赤坂５丁目１番３号４階,,13,103,1070052,,,,,,,2026-01-13,1,,,,,テネールジャパン,0
1698,6010403036956,新規,0,2026-01-13,2026-01-13,合同会社万事屋,,合同会社,東京都,港区,赤坂８丁目９－５,,13,103,1070052,,,,,,,2026-01-13,1,,,,,ヨロズヤ,0
1700,6010501055239,新規,0,2026-01-13,2026-01-13,株式会社カワニシ,,株式会社,東京都,台東区,根岸４丁目４番１０号,,13,106,1100003,,,,,,,2026-01-13,1,,,,,カワニシ,0
1706,6010701048876,新規,0,2026-01-13,2026-01-13,ＨＮＪ４０株式会社,,株式会社,東京都,品川区,東五反田５丁目２７番６号,,13,109,1410022,,,,,,,2026-01-13,1,,,,,エイチエヌジェイフォーティ,0
1708,6010703008077,新規,0,2026-01-13,2026-01-13,合同会社ＢＡＹ　ＭＯＵＮＴＡＩＮ,,合同会社,東京都,品川区,旗の台５丁目２６番９号,,13,109,1420064,,,,,,,2026-01-13,1,,,,,ベイマウンテン,0
1710,6010801036938,新規,0,2026-01-13,2026-01-13,株式会社マシェリ,,株式会社,東京都,大田区,蒲田５丁目９番１５号コスモス館４階,,13,111,1440052,,,,,,,2026-01-13,1,,,,,マシェリ,0
1711,6010801036946,新規,0,2026-01-13,2026-01-13,株式会社グローシア,,株式会社,東京都,大田区,仲六郷２丁目２８番５号Ｎ’ｓｏｎｅｚｏｓｈｉｋｉ２階,,13,111,1440055,,,,,,,2026-01-13,1,,,,,グローシア,0
1712,6010801036962,新規,0,2026-01-13,2026-01-13,株式会社ＲＥＰＯＳ,,株式会社,東京都,大田区,田園調布１丁目１７番９号,,13,111,1450071,,,,,,,2026-01-13,1,,,,,ルポ,0
1713,6010803005668,新規,0,2026-01-13,2026-01-13,Ｘ２ＥＣ　Ｊａｐａｎ合同会社,,合同会社,東京都,大田区,田園調布１丁目１２番２２号,,13,111,1450071,,,,,,,2026-01-13,1,,,,,クロスツーイーシージャパン,0
1714,6010901058766,新規,0,2026-01-13,2026-01-13,株式会社ＡＵＲＯ,,株式会社,東京都,世田谷区,南烏山１丁目１５番１８号白游居６号室,,13,112,1570062,,,,,,,2026-01-13,1,,,,,オウロ,0
1715,6010903010543,新規,0,2026-01-13,2026-01-13,合同会社ｏｐｔｉｍａｘ　ｉｎｔｅｒｎａｔｉｏｎａｌ,,合同会社,東京都,世田谷区,下馬３丁目３０番７号,,13,112,1540002,,,,,,,2026-01-13,1,,,,,オプティマックスインターナショナル,0
1719,6011001174727,新規,0,2026-01-13,2026-01-13,株式会社ＮＵＣＨＩＭＡＮ,,株式会社,東京都,渋谷区,千駄ヶ谷１丁目７－５ヒロビル３０２,,13,113,1510051,,,,,,,2026-01-13,1,,,,,ヌチマン,0
1720,6011001174743,新規,0,2026-01-13,2026-01-13,株式会社ＴＯＫＹＯ　ＢＵＬＬ,,株式会社,東京都,渋谷区,神宮前３丁目３７番１－５０３,,13,113,1500001,,,,,,,2026-01-13,1,,,,,トウキョウブル,0
1726,6011101114351,新規,0,2026-01-13,2026-01-13,ＳＡＫＵ　Ｅｓｔａｔｅ株式会社,,株式会社,東京都,新宿区,西新宿４丁目２９番４－３１３号,,13,104,1600023,,,,,,,2026-01-13,1,,,,,サクエステート,0
1727,6011103016868,新規,0,2026-01-13,2026-01-13,合同会社ノーズガード,,合同会社,東京都,新宿区,上落合２丁目１４番１号,,13,104,1610034,,,,,,,2026-01-13,1,,,,,ノーズガード,0
1730,6011401027724,新規,0,2026-01-13,2026-01-13,株式会社Ｖａｘｉｖ,,株式会社,東京都,板橋区,赤塚１丁目１４番３号アネックス２０１号室,,13,119,1750092,,,,,,,2026-01-13,1,,,,,ヴァクシヴ,0
1733,6011503006824,新規,0,2026-01-13,2026-01-13,合同会社クラージュ,,合同会社,東京都,北区,田端新町１丁目９番６号,,13,117,1140012,,,,,,,2026-01-13,1,,,,,クラージュ,0
1734,6011603004975,新規,0,2026-01-13,2026-01-13,合同会社ＴＨ運送,,合同会社,東京都,練馬区,土支田４丁目９番３号,,13,120,1790076,,,,,,,2026-01-13,1,,,,,ティーエイチウンソウ,0
1736,6011701029073,新規,0,2026-01-13,2026-01-13,ＥＭＣ　ＮＥＸＵＳ株式会社,,株式会社,東京都,江戸川区,西葛西６丁目１７番６号,,13,123,1340088,,,,,,,2026-01-13,1,,,,,イーエムシーネクサス,0
1737,6011701029081,新規,0,2026-01-13,2026-01-13,株式会社武田,,株式会社,東京都,江戸川区,西一之江３丁目４４番９号,,13,123,1320023,,,,,,,2026-01-13,1,,,,,タケダ,0
1743,6012401044008,新規,0,2026-01-13,2026-01-13,株式会社北町企画,,株式会社,東京都,小金井市,貫井北町３丁目２６番１４号,,13,210,1840015,,,,,,,2026-01-13,1,,,,,キタマチキカク,0
1746,6020001166576,新規,0,2026-01-13,2026-01-13,株式会社イルミナ,,株式会社,神奈川県,横浜市港北区,大倉山２丁目１番１１号,,14,109,2220037,,,,,,,2026-01-13,1,,,,,イルミナ,0
1747,6020001166584,新規,0,2026-01-13,2026-01-13,株式会社ＧＲＡＮＳＨＩＰ,,株式会社,神奈川県,川崎市中原区,新丸子東２丁目８９７番地１１ラポール新丸子１０３,,14,133,2110004,,,,,,,2026-01-13,1,,,,,グランシップ,0
1748,6020001166592,新規,0,2026-01-13,2026-01-13,株式会社ＧＡＲＤＥＮｓ,,株式会社,神奈川県,横浜市栄区,鍛冶ケ谷１丁目９番１３号,,14,115,2470009,,,,,,,2026-01-13,1,,,,,ガーデンズ,0
1752,6020005017107,新規,0,2026-01-13,2026-01-13,特定非営利活動法人ソフィアキッズクリエイト,,その他の設立登記法人,神奈川県,横浜市保土ケ谷区,峰岡町１丁目３番８号ｂ‘ＣＡＳＡ横浜星川１Ｆ,,14,106,2400064,,,,,,,2026-01-13,1,,,,,ソフィアキッズクリエイト,0
1753,6021001040250,新規,0,2026-01-13,2026-01-13,株式会社黒川スポーツ,,株式会社,神奈川県,横須賀市,本町１丁目２番地５,,14,201,2380041,,,,,,,2026-01-13,1,,,,,クロカワスポーツ,0
1759,6021001087192,新規,0,2026-01-13,2026-01-13,株式会社５５ｔｈ　Ｓｔｒｅｅｔ,,株式会社,神奈川県,藤沢市,鵠沼東４番２～２０４号,,14,205,2510026,,,,,,,2026-01-13,1,,,,,フィフティフィフスストリート,0
1760,6021001087201,新規,0,2026-01-13,2026-01-13,株式会社Ｔｒｕｓｔ建設,,株式会社,神奈川県,秦野市,東田原６４３番地の３,,14,211,2570028,,,,,,,2026-01-13,1,,,,,トラストケンセツ,0
1761,6021001087218,新規,0,2026-01-13,2026-01-13,株式会社ユーセル沖湘,,株式会社,神奈川県,藤沢市,城南２丁目５番２３～１０５号,,14,205,2510057,,,,,,,2026-01-13,1,,,,,ユーセルオキショウ,0
1768,6030001170478,新規,0,2026-01-13,2026-01-13,キャロルガーデン株式会社,,株式会社,埼玉県,さいたま市大宮区,桜木町２丁目５１４番地,,11,103,3300854,,,,,,,2026-01-13,1,,,,,キャロルガーデン,0
1769,6030001170511,新規,0,2026-01-13,2026-01-13,株式会社ＣＡＮＯＵ,,株式会社,埼玉県,さいたま市浦和区,木崎３丁目３番１６号,,11,107,3300042,,,,,,,2026-01-13,1,,,,,カノウ,0
1770,6030001170544,新規,0,2026-01-13,2026-01-13,株式会社ハト建機,,株式会社,埼玉県,入間郡越生町,上野東２丁目２番地６,,11,327,3500417,,,,,,,2026-01-13,1,,,,,ハトケンキ,0
1772,6030003028344,新規,0,2026-01-13,2026-01-13,合同会社ＳＣＳ,,合同会社,埼玉県,さいたま市大宮区,大門町３丁目１５６－６コンフォートマンション大門町１１１５室,,11,103,3300846,,,,,,,2026-01-13,1,,,,,エスシーエス,0
1773,6030003028419,新規,0,2026-01-13,2026-01-13,ＲｅｋｍＤｒｅａｍ合同会社,,合同会社,埼玉県,ふじみ野市,市沢３丁目１番Ａ－５０２号,,11,245,3560057,,,,,,,2026-01-13,1,,,,,レクムドリーム,0
1774,6030005022378,新規,0,2026-01-13,2026-01-13,保証責任生糸信用販売利用組合埼玉社矢那瀬組,,その他の設立登記法人,埼玉県,秩父郡長瀞町,大字矢那瀬５４２番地,,11,363,3691301,,,,,,,2026-01-13,1,,,,,ホショウセキニンキイトシンヨウハンバイリヨウクミアイサイタマシャヤナセグミ,0
1780,6040001141908,新規,0,2026-01-13,2026-01-13,株式会社Ｓｕｍｍｉｔ　Ｐａｒｔｎｅｒｓ,,株式会社,千葉県,市川市,行徳駅前２丁目２１番２２－７０４３号,,12,203,2720133,,,,,,,2026-01-13,1,,,,,サミットパートナーズ,0
1781,6040001142006,新規,0,2026-01-13,2026-01-13,株式会社喜創,,株式会社,千葉県,千葉市中央区,本町２丁目１番２０‐１００７号,,12,101,2600012,,,,,,,2026-01-13,1,,,,,キソウ,0
1782,6040001142022,新規,0,2026-01-13,2026-01-13,株式会社ナナサンＳｔｙｌｅ,,株式会社,千葉県,東金市,田間５９０番地コープ野村Ｃ棟１０３,,12,213,2830005,,,,,,,2026-01-13,1,,,,,ナナサンスタイル,0
1785,6040003029283,新規,0,2026-01-13,2026-01-13,合同会社田中商店,,合同会社,千葉県,船橋市,前貝塚町２９２－２４,,12,204,2730042,,,,,,,2026-01-13,1,,,,,タナカショウテン,0
1788,6050001057839,新規,0,2026-01-13,2026-01-13,株式会社大全,,株式会社,茨城県,那珂市,竹ノ内２丁目５番地４,,08,226,3110110,,,,,,,2026-01-13,1,,,,,ダイゼン,0
1791,6060001038929,新規,0,2026-01-13,2026-01-13,株式会社坂田工務店,,株式会社,栃木県,栃木市,都賀町木１０５８番地８,,09,203,3280104,,,,,,,2026-01-13,1,,,,,サカタコウムテン,0
1792,6060005010405,新規,0,2026-01-13,2026-01-13,税理士法人渋木会計事務所,,その他の設立登記法人,栃木県,足利市,西砂原後町１２０４番地,,09,202,3260065,,,,,,,2026-01-13,1,,,,,シブキカイケイジムショ,0
1793,6070003006255,新規,0,2026-01-13,2026-01-13,ＦＵＴＵＲＥ合同会社,,合同会社,群馬県,太田市,宝町７７番地１サンパレス宝町Ｂ－２０１号,,10,205,3730042,,,,,,,2026-01-13,1,,,,,フューチャー,0
1800,6090001019678,新規,0,2026-01-13,2026-01-13,株式会社ｆｅｎｎｅｃ,,株式会社,山梨県,甲斐市,長塚２３７番地,,19,210,4000125,,,,,,,2026-01-13,1,,,,,フェネック,0
1802,6100003008553,新規,0,2026-01-13,2026-01-13,臥竜工務店合同会社,,合同会社,長野県,須坂市,大字塩野１１４３番地１４,,20,207,3820922,,,,,,,2026-01-13,1,,,,,ガリュウコウムテン,0
1803,6100003008561,新規,0,2026-01-13,2026-01-13,Ｗａｂｉ‐Ｓａｂｉ合同会社,,合同会社,長野県,松本市,大字里山辺１５８８番地１,,20,202,3900221,,,,,,,2026-01-13,1,,,,,ワビサビ,0
1822,6120001283171,新規,0,2026-01-13,2026-01-13,麗都財税服務株式会社,,株式会社,大阪府,大阪市天王寺区,国分町８－１３,,27,109,5430044,,,,,,,2026-01-13,1,,,,,レイトザイゼイフクム,0
1823,6120001283246,新規,0,2026-01-13,2026-01-13,株式会社ＦＵＮＳＨＩＦＴ,,株式会社,大阪府,大阪市西区,江戸堀１丁目２７番２４号１階,,27,106,5500002,,,,,,,2026-01-13,1,,,,,ファンシフト,0
1824,6120001283254,新規,0,2026-01-13,2026-01-13,株式会社Ｌｉｔａ,,株式会社,大阪府,大阪市浪速区,桜川２丁目３番２８号市松ビル１Ａ号室,,27,111,5560022,,,,,,,2026-01-13,1,,,,,リタ,0
1825,6120001283287,新規,0,2026-01-13,2026-01-13,株式会社エスキース,,株式会社,大阪府,大阪市淀川区,西中島４丁目４番２０－５０２号,,27,123,5320011,,,,,,,2026-01-13,1,,,,,エスキース,0
1826,6120001283295,新規,0,2026-01-13,2026-01-13,三友株式会社,,株式会社,大阪府,大阪市西成区,潮路１丁目６－２８ＴＳＵＢＡＫＩ天下茶屋３０２,,27,122,5570052,,,,,,,2026-01-13,1,,,,,サンユウ,0
1827,6120001283304,新規,0,2026-01-13,2026-01-13,株式会社ＣＲＯＶＩＡ,,株式会社,大阪府,大阪市港区,弁天３丁目１０－２０港ＯＧＩビル１Ｆ,,27,107,5520007,,,,,,,2026-01-13,1,,,,,クロヴィア,0
1828,6120001283411,新規,0,2026-01-13,2026-01-13,株式会社椛,,株式会社,大阪府,大阪市東淀川区,小松１丁目９番３５号ランドマークＩＩ４０６号,00142125,27,114,5330004,,,,,,,2026-01-13,1,,,,,モミジ,0
1836,6120101073076,新規,0,2026-01-13,2026-01-13,株式会社リレーションリンク,,株式会社,大阪府,堺市堺区,綾之町東１丁２番１３号１Ｆ,,27,141,5900925,,,,,,,2026-01-13,1,,,,,リレーションリンク,0
1837,6120105010100,新規,0,2026-01-13,2026-01-13,一般社団法人リーノ,,その他の設立登記法人,大阪府,堺市西区,浜寺昭和町２丁２９６番地,,27,144,5928345,,,,,,,2026-01-13,1,,,,,リーノ,0
1838,6120901052080,新規,0,2026-01-13,2026-01-13,株式会社ＹｏＨａＫｕ,,株式会社,大阪府,箕面市,新稲５丁目１５番２号,,27,220,5620005,,,,,,,2026-01-13,1,,,,,ヨハク,0
1839,6120903006027,新規,0,2026-01-13,2026-01-13,合同会社ＭｉＲａｉ,,合同会社,大阪府,豊中市,服部豊町１丁目１２－１５,,27,203,5610859,,,,,,,2026-01-13,1,,,,,ミライ,0
1846,6130001081343,新規,0,2026-01-13,2026-01-13,ハウステイト株式会社,,株式会社,京都府,京都市南区,唐橋堂ノ前町２０番山本ビル１Ｆ,,26,107,6018452,,,,,,,2026-01-13,1,,,,,ハウステイト,0
1847,6130003011059,新規,0,2026-01-13,2026-01-13,合同会社ＡＸＥＳＳ,,合同会社,京都府,長岡京市,東神足１丁目１－５,,26,209,6170832,,,,,,,2026-01-13,1,,,,,アクセス,0
1848,6130003011067,新規,0,2026-01-13,2026-01-13,酢屋合同会社,,合同会社,京都府,京都市伏見区,横大路富ノ森町２５番地,,26,109,6128257,,,,,,,2026-01-13,1,,,,,スヤ,0
1849,6130003011075,新規,0,2026-01-13,2026-01-13,合同会社ノスタルディア,,合同会社,京都府,京都市下京区,松原通烏丸西入玉津島町２９４番地,,26,106,6008427,,,,,,,2026-01-13,1,,,,,ノスタルディア,0
1862,6150001028648,新規,0,2026-01-13,2026-01-13,ＭＫＮリアン株式会社,,株式会社,奈良県,奈良市,富雄元町２丁目３番８－２０３号,,29,201,6310078,,,,,,,2026-01-13,1,,,,,エムケーエヌリアン,0
1863,6160001027327,新規,0,2026-01-13,2026-01-13,リアンケー株式会社,,株式会社,滋賀県,彦根市,小泉町４６番地２,,25,202,5220043,,,,,,,2026-01-13,1,,,,,リアンケー,0
1864,6170001018928,新規,0,2026-01-13,2026-01-13,五晃繊維株式会社,,株式会社,和歌山県,有田郡有田川町,大字天満６４番地,,30,366,6430032,,,,,,,2026-01-13,1,,,,,ゴコウセンイ,0
1870,6180001170067,新規,0,2026-01-13,2026-01-13,株式会社ＬＵＭＩＥＬ,,株式会社,愛知県,名古屋市中村区,名駅４丁目２４－５第２森ビル４０１,,23,105,4500002,,,,,,,2026-01-13,1,,,,,ルミエル,0
1871,6180001170166,新規,0,2026-01-13,2026-01-13,株式会社バーバムケア,,株式会社,愛知県,名古屋市西区,樋の口町１番１５号,,23,104,4510034,,,,,,,2026-01-13,1,,,,,バーバムケア,0
1872,6180001170182,新規,0,2026-01-13,2026-01-13,株式会社ＨＵ,,株式会社,愛知県,名古屋市守山区,太田井７番７号,,23,113,4630044,,,,,,,2026-01-13,1,,,,,エイチユー,0
1873,6180001170199,新規,0,2026-01-13,2026-01-13,株式会社松茂屋,,株式会社,愛知県,名古屋市中村区,名駅３丁目２８番１２号大名古屋ビルヂング１１Ｆ,,23,105,4500002,,,,,,,2026-01-13,1,,,,,マツシゲヤ,0
1880,6180003029559,新規,0,2026-01-13,2026-01-13,合同会社ぽんた,,合同会社,愛知県,一宮市,大和町氏永字先角８２６番地１,,23,203,4910923,,,,,,,2026-01-13,1,,,,,ポンタ,0
1881,6180301040589,新規,0,2026-01-13,2026-01-13,ブリランテ株式会社,,株式会社,愛知県,岡崎市,井田新町７番地９,,23,202,4440069,,,,,,,2026-01-13,1,,,,,ブリランテ,0
1884,6190001032803,新規,0,2026-01-13,2026-01-13,株式会社前川レーシング,,株式会社,三重県,鈴鹿市,住吉５丁目１１番８号,,24,207,5130826,,,,,,,2026-01-13,1,,,,,マエカワレーシング,0
1885,6190001032828,新規,0,2026-01-13,2026-01-13,株式会社エース,,株式会社,三重県,桑名市,大字和泉１２３２番地４,,24,205,5110838,,,,,,,2026-01-13,1,,,,,エース,0
1899,6240001066011,新規,0,2026-01-13,2026-01-13,株式会社真輝,,株式会社,広島県,広島市東区,温品５丁目２４番８号,,34,102,7320033,,,,,,,2026-01-13,1,,,,,シンキ,0
1909,6260001040880,新規,0,2026-01-13,2026-01-13,株式会社新,,株式会社,岡山県,倉敷市,上富井３２８番地８,,33,202,7100846,,,,,,,2026-01-13,1,,,,,アラタ,0
1911,6260003005477,新規,0,2026-01-13,2026-01-13,合同会社ＮＥＸＴ,,合同会社,岡山県,岡山市中区,平井２丁目２２３７番地１５,,33,102,7038282,,,,,,,2026-01-13,1,,,,,ネクスト,0
1913,6270001009363,新規,0,2026-01-13,2026-01-13,株式会社茶花庵,,株式会社,鳥取県,西伯郡伯耆町,坂長１６７９番地,,31,390,6894122,,,,,,,2026-01-13,1,,,,,チャバナアン,0
1914,6280001009569,新規,0,2026-01-13,2026-01-13,株式会社令和商事,,株式会社,島根県,松江市,北田町２３７番地聖和マンション１０２,,32,201,6900883,,,,,,,2026-01-13,1,,,,,レイワショウジ,0
1918,6290001112751,新規,0,2026-01-13,2026-01-13,株式会社ＺＯＫＵ,,株式会社,福岡県,福岡市中央区,天神２丁目２番１２号Ｔ＆Ｊビルディング７Ｆ,,40,133,8100001,,,,,,,2026-01-13,1,,,,,ゾク,0
1919,6290001112776,新規,0,2026-01-13,2026-01-13,株式会社Ｍｏｌｔｏ　Ｖｉｎｏ,,株式会社,福岡県,福岡市中央区,赤坂３丁目８番３１－１－１０８号,,40,133,8100042,,,,,,,2026-01-13,1,,,,,モルトヴィーノ,0
1921,6290003017916,新規,0,2026-01-13,2026-01-13,Ａ＆Ｋシステムデザイン合同会社,,合同会社,福岡県,福岡市博多区,博多駅前１丁目２３番２号ＰａｒｋＦｒｏｎｔ博多駅前１丁目５Ｆ－Ｂ,,40,132,8120011,,,,,,,2026-01-13,1,,,,,エーアンドケーシステムデザイン,0
1922,6290003017924,新規,0,2026-01-13,2026-01-13,ＰｒｏｍｉＮｕｔｓ合同会社,,合同会社,福岡県,福岡市中央区,天神４丁目６－２８いちご天神ノースビル７階,,40,133,8100001,,,,,,,2026-01-13,1,,,,,プロミナッツ,0
1923,6290003017932,新規,0,2026-01-13,2026-01-13,合同会社未来,,合同会社,福岡県,糸島市,前原東２丁目３番２０号,,40,230,8191119,,,,,,,2026-01-13,1,,,,,ミレー,0
1985,6330005011012,新規,0,2026-01-13,2026-01-13,一般社団法人全身美容メディカルウェルネス協会,,その他の設立登記法人,熊本県,熊本市中央区,新大江１丁目１７番２０－６０２号,,43,101,8620972,,,,,,,2026-01-13,1,,,,,ゼンシンビヨウメディカルウェルネスキョウカイ,0
1987,6340001027903,新規,0,2026-01-13,2026-01-13,株式会社ＮｅｋｏＮｅｋｏ,,株式会社,鹿児島県,鹿児島市,西千石町１１番２１号鹿児島ＭＳビル５Ｆ６Ｆ,,46,201,8920847,,,,,,,2026-01-13,1,,,,,ネコネコ,0
1988,6350001019890,新規,0,2026-01-13,2026-01-13,株式会社上山,,株式会社,宮崎県,児湯郡新富町,大字新田３０４４番地,,45,402,8891406,,,,,,,2026-01-13,1,,,,,,0
1991,6380001035803,新規,0,2026-01-13,2026-01-13,株式会社Ｙ＆Ｈ　ＣＯＭＰＡＮＹ,,株式会社,福島県,白河市,表郷小松字大岡２０５番地,,07,205,9610405,,,,,,,2026-01-13,1,,,,,ワイアンドエイチカンパニー,0
1994,6400001017286,新規,0,2026-01-13,2026-01-13,株式会社ひかり住建,,株式会社,岩手県,盛岡市,山岸４丁目１３番１８号,,03,201,0200004,,,,,,,2026-01-13,1,,,,,ヒカリジュウケン,0
2000,6430001096014,新規,0,2026-01-13,2026-01-13,株式会社ＲＩＣＯ・ＲＩＶＥＲ,,株式会社,北海道,登別市,緑町１丁目１３番地２,,01,230,0590024,,,,,,,2026-01-13,1,,,,,リコリバー,0
2001,6440001009742,新規,0,2026-01-13,2026-01-13,株式会社ビズロア,,株式会社,北海道,函館市,昭和３丁目１番２７号,,01,202,0410812,,,,,,,2026-01-13,1,,,,,,0
2002,6450001014832,新規,0,2026-01-13,2026-01-13,株式会社Ｙ’ｓ．ｃｏｍ,,株式会社,北海道,旭川市,三条通６丁目３２９番地３,,01,204,0700033,,,,,,,2026-01-13,1,,,,,ワイズドットコム,0
2003,6470003003047,新規,0,2026-01-13,2026-01-13,合同会社みらいへ,,合同会社,香川県,善通寺市,木徳町１００１－２,,37,204,7650033,,,,,,,2026-01-13,1,,,,,ミライヘ,0
2008,6500001026698,新規,0,2026-01-13,2026-01-13,Ｙ．Ａ．Ｄｅｓｉｇｎ株式会社,,株式会社,愛媛県,西予市,城川町田穂２３２９番地１,,38,214,7971715,,,,,,,2026-01-13,1,,,,,ワイエーデザイン,0
2012,6700150132459,新規,0,2026-01-13,2025-10-07,川俣町文化団体連絡協議会,,その他,福島県,伊達郡川俣町,字樋ノ口１１,,07,308,9601463,,,,,,,2025-10-07,1,,,,,カワマタマチブンカダンタイレンラクキヨウギカイ,0
2013,6700150133903,新規,0,2026-01-13,2026-01-13,ＹＵＷＡＮＩＫＡ　ＴＲＡＤＥＲＳ,,外国会社等,栃木県,宇都宮市,川田町１２４３－８コーシュ箕輪１－２０３,,09,201,3210111,スリランカ民主社会主義共和国、コロンボ、ハンウェラ、ジャルタラ、Ｎｏ．２１０／Ｃ１,,,,,,2026-01-13,1,,,,,ユワニカトレーダーズ,0
2014,6700150133911,新規,0,2026-01-13,2026-01-13,Ｃａｒｐｏｄ　Ｔｅｃｈ　Ｌｉｍｉｔｅｄ,,外国会社等,,,,,,,,ＲＭ　ＮＯ．４１　ＢＬＫ．Ａ，３／Ｆ，ＰＨＡＳＥ　Ｉ，ＫＡＩＳＥＲ　ＥＳＴＡＴＥ，３７－４５　ＭＡＮ　ＹＵＥ　ＳＴＲＥＥＴ，ＨＵＮＧ　ＨＯＭ　ＨＯＮＧ　ＫＯＮＧ,00142097,,,,,2026-01-13,1,,,,,カーポッドテックリミテッド,0
2019,7010001261732,新規,0,2026-01-13,2026-01-13,ＡＩ　Ｈｕｍａｎ　Ｃａｐｉｔａｌ株式会社,,株式会社,東京都,千代田区,四番町２番地１－１Ｆ,,13,101,1020081,,,,,,,2026-01-13,1,,,,,エーアイヒューマンキャピタル,0
2025,7010003049969,新規,0,2026-01-13,2026-01-13,合同会社ＹＴビジネスロー,,合同会社,東京都,中央区,日本橋浜町２丁目５５番５－１２０１号,,13,102,1030007,,,,,,,2026-01-13,1,,,,,ワイティービジネスロー,0
2026,7010005041189,新規,0,2026-01-13,2026-01-13,一般社団法人レインボー・インベストメント,,その他の設立登記法人,東京都,中央区,日本橋１丁目４番１号,,13,102,1030027,,,,,,,2026-01-13,1,,,,,レインボーインベストメント,0
2030,7010401195638,新規,0,2026-01-13,2026-01-13,株式会社磯貝ＦＰ会計コンサルティング,,株式会社,東京都,港区,元赤坂１丁目１番７オリエント赤坂モートサイド８１２号,,13,103,1070051,,,,,,,2026-01-13,1,,,,,イソガイエフピーカイケイコンサルティング,0
2031,7010401195704,新規,0,2026-01-13,2026-01-13,高日新化工株式会社,,株式会社,東京都,港区,新橋５丁目１２番１１号天翔オフィス新橋五丁目６０８号,,13,103,1050004,,,,,,,2026-01-13,1,,,,,コウニチシンカコウ,0
2032,7010403036971,新規,0,2026-01-13,2026-01-13,合同会社ｃｈｒｏｌｉｓｓ,,合同会社,東京都,港区,南青山３丁目１番３６号青山丸竹ビル６Ｆ,,13,103,1070062,,,,,,,2026-01-13,1,,,,,クロリス,0
2041,7010601068560,新規,0,2026-01-13,2026-01-13,株式会社ＳＨＯＲＥ　ＳＭＩＬＥ,,株式会社,東京都,江東区,亀戸５丁目６－２１・４Ｆ,,13,108,1360071,,,,,,,2026-01-13,1,,,,,ショアスマイル,0
2042,7010603012013,新規,0,2026-01-13,2026-01-13,ＬｉｎｃｌｅＯｎｅ合同会社,,合同会社,東京都,江東区,森下２丁目１４番８号スイートキャンディーハイム４０２号室,,13,108,1350004,,,,,,,2026-01-13,1,,,,,リンクルワン,0
2047,7010801036945,新規,0,2026-01-13,2026-01-13,株式会社ＭＥＩエステーツ,,株式会社,東京都,大田区,北千束２丁目５２番７号,,13,111,1450062,,,,,,,2026-01-13,1,,,,,エムイーアイエステーツ,0
2053,7010903010550,新規,0,2026-01-13,2026-01-13,合同会社ＧＲＥＹ,,合同会社,東京都,世田谷区,南烏山５丁目１８番１５号光洋コート４Ｆ,,13,112,1570062,,,,,,,2026-01-13,1,,,,,グレイ,0
2056,7011001174791,新規,0,2026-01-13,2026-01-13,株式会社メローワークス,,株式会社,東京都,渋谷区,渋谷２丁目１９番１９号ワコー宮益坂ビル５階,,13,113,1500002,,,,,,,2026-01-13,1,,,,,メローワークス,0
2057,7011001174817,新規,0,2026-01-13,2026-01-13,株式会社なかつぎ,,株式会社,東京都,渋谷区,渋谷１丁目２０番２４－４０４号,,13,113,1500002,,,,,,,2026-01-13,1,,,,,ナカツギ,0
2058,7011001174841,新規,0,2026-01-13,2026-01-13,株式会社ＳＵＮＮＹ　ＷＯＲＫＳ,,株式会社,東京都,渋谷区,広尾５丁目２１番２号長谷部第２ビル５Ｆ,,13,113,1500012,,,,,,,2026-01-13,1,,,,,サニーワークス,0
2062,7011003023229,新規,0,2026-01-13,2026-01-13,ミライワークス合同会社,,合同会社,東京都,渋谷区,道玄坂１丁目１６―６二葉ビル８ｂ,,13,113,1500043,,,,,,,2026-01-13,1,,,,,ミライワークス,0
2063,7011003023344,新規,0,2026-01-13,2026-01-13,スペリクト合同会社,,合同会社,東京都,渋谷区,道玄坂１丁目１６番６号二葉ビル８ｂ,,13,113,1500043,,,,,,,2026-01-13,1,,,,,スペリクト,0
2066,7011101114425,新規,0,2026-01-13,2026-01-13,株式会社ユーティリティワークス,,株式会社,東京都,新宿区,箪笥町３９番地ルネ神楽坂８０１,,13,104,1620833,,,,,,,2026-01-13,1,,,,,ユーティリティワークス,0
2068,7011103016867,新規,0,2026-01-13,2026-01-13,ルクシアントール合同会社,,合同会社,東京都,新宿区,西新宿７丁目１０－１７ダイカンプラザＢ館３０４,,13,104,1600023,,,,,,,2026-01-13,1,,,,,ルクシアントール,0
2069,7011103016925,新規,0,2026-01-13,2026-01-13,合同会社ジョイフルケア,,合同会社,東京都,新宿区,西新宿３丁目３番１３号西新宿水間ビル６階,,13,104,1600023,,,,,,,2026-01-13,1,,,,,ジョイフルケア,0
2076,7011201026891,新規,0,2026-01-13,2026-01-13,株式会社ＯＬＮＥ,,株式会社,東京都,中野区,中野３丁目４０番２７号Ｒｉｖｅｒａ中野１階,,13,114,1640001,,,,,,,2026-01-13,1,,,,,オルネ,0
2087,7011505002721,新規,0,2026-01-13,2026-01-13,税理士法人サンセットタウン,,その他の設立登記法人,東京都,荒川区,西日暮里２丁目２１番４号クレスト秋山３Ｆ,,13,118,1160013,,,,,,,2026-01-13,1,,,,,サンセットタウン,0
2090,7011701029080,新規,0,2026-01-13,2026-01-13,株式会社ＪｅｗｅＬｉｎｋ,,株式会社,東京都,江戸川区,東葛西１丁目１番４－８０１号,,13,123,1340084,,,,,,,2026-01-13,1,,,,,ジュエリンク,0
2092,7012301014670,新規,0,2026-01-13,2026-01-13,株式会社まち音,,株式会社,東京都,町田市,原町田６丁目１５番１６号コマヤビル１０２区画,,13,209,1940013,,,,,,,2026-01-13,1,,,,,マチオト,0
2094,7012401043999,新規,0,2026-01-13,2026-01-13,タモン・インテリア株式会社,,株式会社,東京都,稲城市,大丸６９５番地の８－２０６号,,13,225,2060801,,,,,,,2026-01-13,1,,,,,タモンインテリア,0
2095,7012401044007,新規,0,2026-01-13,2026-01-13,株式会社パンプキンパッチ,,株式会社,東京都,調布市,仙川町１丁目１１番地５,,13,208,1820002,,,,,,,2026-01-13,1,,,,,パンプキンパッチ,0
2096,7012803003964,新規,0,2026-01-13,2026-01-13,合同会社ｃｈａｌｅｕｒ,,合同会社,東京都,日野市,百草４７５－１,,13,212,1910033,,,,,,,2026-01-13,1,,,,,シャルール,0
2107,7020001166526,新規,0,2026-01-13,2026-01-13,株式会社ＫＮＩＧＨＴ,,株式会社,神奈川県,川崎市多摩区,菅稲田堤３丁目１７番１４－５号,,14,135,2140003,,,,,,,2026-01-13,1,,,,,,0
2108,7020001166575,新規,0,2026-01-13,2026-01-13,Ｒ１４１株式会社,,株式会社,神奈川県,横浜市金沢区,東朝比奈２丁目６番４号,,14,108,2360033,,,,,,,2026-01-13,1,,,,,アールイチヨンイチ,0
2109,7020001166583,新規,0,2026-01-13,2026-01-13,株式会社タクミ,,株式会社,神奈川県,川崎市中原区,今井上町１番２５号タクミ２ＮＤＢＧ２０１,,14,133,2110067,,,,,,,2026-01-13,1,,,,,タクミ,0
2110,7020003030127,新規,0,2026-01-13,2026-01-13,合同会社ステラ,,合同会社,神奈川県,横浜市保土ケ谷区,狩場町３０３番地２８,,14,106,2400025,,,,,,,2026-01-13,1,,,,,ステラ,0
2111,7020003030151,新規,0,2026-01-13,2026-01-13,合同会社ＹＵ　ＳＴＵＤＩＯ,,合同会社,神奈川県,横浜市青葉区,みすずが丘１４番地１ビエント３０６号,,14,117,2250016,,,,,,,2026-01-13,1,,,,,ユースタジオ,0
2114,7021001087200,新規,0,2026-01-13,2026-01-13,株式会社Ａｓｅｔｉａ　Ｆｉｅｌｄ,,株式会社,神奈川県,相模原市南区,新磯野３丁目２７番１４号,,14,153,2520325,,,,,,,2026-01-13,1,,,,,アセティアフィールド,0
2115,7021001087225,新規,0,2026-01-13,2026-01-13,株式会社アリカピア,,株式会社,神奈川県,小田原市,前川８２９番地の１,,14,206,2560813,,,,,,,2026-01-13,1,,,,,アリカピア,0
2122,7030001170444,新規,0,2026-01-13,2026-01-13,株式会社井藤機工,,株式会社,埼玉県,幸手市,北１丁目８番３号,,11,240,3400111,,,,,,,2026-01-13,1,,,,,イトウキコウ,0
2123,7030001170452,新規,0,2026-01-13,2026-01-13,株式会社ｎｉｃｏｔｏｗａ,,株式会社,埼玉県,川口市,中青木５丁目１４－５グレーシア川口碧の杜２０１,,11,203,3320032,,,,,,,2026-01-13,1,,,,,ニコトワ,0
2124,7030001170510,新規,0,2026-01-13,2026-01-13,株式会社Ｎｅｏ,,株式会社,埼玉県,本庄市,五十子２丁目１０番３号,,11,211,3670027,,,,,,,2026-01-13,1,,,,,ネオ,0
2125,7030001170527,新規,0,2026-01-13,2026-01-13,株式会社ＢＰＰ,,株式会社,埼玉県,日高市,高麗川１丁目７番地１４,,11,242,3501249,,,,,,,2026-01-13,1,,,,,ビーピーピー,0
2126,7030001170543,新規,0,2026-01-13,2026-01-13,株式会社上戸田エステート,,株式会社,埼玉県,戸田市,上戸田２丁目２８番１１号,,11,224,3350022,,,,,,,2026-01-13,1,,,,,カミトタエステート,0
2133,7030003028418,新規,0,2026-01-13,2026-01-13,近視抑制コンサルティング合同会社,,合同会社,埼玉県,さいたま市大宮区,天沼町１丁目２６８番地３,,11,103,3300834,,,,,,,2026-01-13,1,,,,,キンシヨクセイコンサルティング,0
2137,7040001141956,新規,0,2026-01-13,2026-01-13,株式会社エコー自動車販売,,株式会社,千葉県,八千代市,島田台１２９１番地１,,12,221,2760004,,,,,,,2026-01-13,1,,,,,エコージドウシャハンバイ,0
2138,7040001142021,新規,0,2026-01-13,2026-01-13,圓八株式会社,,株式会社,千葉県,松戸市,高塚新田４９４番地の１３梨香台団地１０棟１０３号室,,12,207,2702222,,,,,,,2026-01-13,1,,,,,マドカヤ,0
2139,7040001142079,新規,0,2026-01-13,2026-01-13,ＨＯＬＥ　ＩＮ　ＦＵＮ株式会社,,株式会社,千葉県,松戸市,東松戸１丁目２５－１レーベンハイム東松戸カーサコンプレアンノ１０５号,,12,207,2702225,,,,,,,2026-01-13,1,,,,,ホールインファン,0
2144,7050001057838,新規,0,2026-01-13,2026-01-13,ピースシード株式会社,,株式会社,茨城県,守谷市,みずき野８丁目１０番地１,,08,224,3020121,,,,,,,2026-01-13,1,,,,,ピースシード,0
2149,7060001038928,新規,0,2026-01-13,2026-01-13,株式会社ＥＩＫＯＵ,,株式会社,栃木県,小山市,城東２丁目１３番１５号ベ・ハーゲンハイム城東１０６号,,09,208,3230807,,,,,,,2026-01-13,1,,,,,エイコウ,0
2151,7070001043720,新規,0,2026-01-13,2026-01-13,株式会社エレメックスプラス,,株式会社,群馬県,太田市,内ケ島町１１３１番地１,,10,205,3730813,,,,,,,2026-01-13,1,,,,,エレメックスプラス,0
2152,7070001043729,新規,0,2026-01-13,2026-01-13,株式会社エステートＷａｋｏ,,株式会社,群馬県,北群馬郡吉岡町,大字大久保９２８番地２,,10,345,3703602,,,,,,,2026-01-13,1,,,,,エステートワコ,0
2156,7080001027367,新規,0,2026-01-13,2026-01-13,静岡ガスエンジニアリングホールディングス株式会社,,株式会社,静岡県,静岡市駿河区,八幡１丁目５番３８号,,22,102,4228076,,,,,,,2026-01-13,1,,,,,シズオカガスエンジニアリングホールディングス,0
2157,7080001027375,新規,0,2026-01-13,2026-01-13,トリプルサムズアップ株式会社,,株式会社,静岡県,静岡市清水区,緑が丘町２２－２６,,22,103,4240928,,,,,,,2026-01-13,1,,,,,トリプルサムズアップ,0
2159,7080101026013,新規,0,2026-01-13,2026-01-13,株式会社匠俊,,株式会社,静岡県,沼津市,我入道秋葉町４３８番地の３,,22,203,4100823,,,,,,,2026-01-13,1,,,,,ショウシュン,0
2163,7080403005425,新規,0,2026-01-13,2026-01-13,合同会社まほろ,,合同会社,静岡県,浜松市中央区,若林町２２３９番地の５,,22,138,4328051,,,,,,,2026-01-13,1,,,,,マホロ,0
2166,7090001019685,新規,0,2026-01-13,2026-01-13,株式会社ＢＥＡＵＴＹ＆ＴＥＣＨＮＯＬＯＧＩＥＳ,,株式会社,山梨県,都留市,大幡１１５９番地１,,19,204,4020045,,,,,,,2026-01-13,1,,,,,ビューティアンドテクノロジーズ,0
2168,7100003008544,新規,0,2026-01-13,2026-01-13,Ｖｏｓｓｅｒｓ合同会社,,合同会社,長野県,大町市,平４１４８番地７,,20,212,3980001,,,,,,,2026-01-13,1,,,,,フォッサス,0
2170,7110001039838,新規,0,2026-01-13,2026-01-13,株式会社Ｓｏｉｌ　Ｗｏｒｋｓ,,株式会社,新潟県,南魚沼市,吉山新田１０３番地,,15,226,9496417,,,,,,,2026-01-13,1,,,,,ソイルワークス,0
2185,7120001283261,新規,0,2026-01-13,2026-01-13,株式会社コトンココット,,株式会社,大阪府,大阪市都島区,都島南通２丁目１番２－１１１号,,27,102,5340023,,,,,,,2026-01-13,1,,,,,コトンココット,0
2186,7120001283278,新規,0,2026-01-13,2026-01-13,株式会社ＨｉｇｈＴｏｐ,,株式会社,大阪府,守口市,梶町３丁目３０番１１号,,27,209,5700015,,,,,,,2026-01-13,1,,,,,ハイトップ,0
2187,7120001283294,新規,0,2026-01-13,2026-01-13,株式会社インテルプラス,,株式会社,大阪府,大阪市北区,梅田１丁目１番３号大阪駅前第３ビル２９階１－１－１号室,,27,127,5300001,,,,,,,2026-01-13,1,,,,,インテルプラス,0
2191,7120101073059,新規,0,2026-01-13,2026-01-13,株式会社ＡＮＣｒｅａｔｅ,,株式会社,大阪府,羽曳野市,高鷲８丁目２４番地の３,,27,222,5830882,,,,,,,2026-01-13,1,,,,,エーエヌクリエイト,0
2192,7120103006941,新規,0,2026-01-13,2026-01-13,合同会社エトス,,合同会社,大阪府,堺市堺区,南三国ヶ丘町４－１－１サンハイティ室谷１０６,,27,141,5900000,,,,,,,2026-01-13,1,,,,,エトス,0
2197,7130003011066,新規,0,2026-01-13,2026-01-13,Ｉｎｓｉｄｅ　Ｐｌａｎ合同会社,,合同会社,京都府,京都市下京区,烏丸通綾小路下る二帖半敷町６４７番地２,,26,106,6008412,,,,,,,2026-01-13,1,,,,,インサイドプラン,0
2204,7140001141260,新規,0,2026-01-13,2026-01-13,株式会社Ｂ‐ｍａｓｓ,,株式会社,兵庫県,姫路市,町坪２２番地ディアス東町ノ坪Ｂ１０３,,28,201,6700984,,,,,,,2026-01-13,1,,,,,ビーマス,0
2206,7150001028647,新規,0,2026-01-13,2026-01-13,株式会社千賀建設,,株式会社,奈良県,葛城市,染野１２８番地１,,29,211,6390273,,,,,,,2026-01-13,1,,,,,センガケンセツ,0
2207,7150003003796,新規,0,2026-01-13,2026-01-13,合同会社Ｋａｂｏｎｅ,,合同会社,奈良県,香芝市,五位堂１丁目４７８番地９,,29,210,6390226,,,,,,,2026-01-13,1,,,,,カボネ,0
2212,7180001170017,新規,0,2026-01-13,2026-01-13,株式会社Ｍｉｌｅ　Ｕｐ,,株式会社,愛知県,名古屋市中区,栄５丁目２６番３９号ＧＳ栄ビル３Ｆ,,23,106,4600008,,,,,,,2026-01-13,1,,,,,マイルアップ,0
2213,7180001170149,新規,0,2026-01-13,2026-01-13,株式会社Ｅｘｐａｎｓｅａ,,株式会社,愛知県,名古屋市中川区,前並町６４－３,,23,110,4540025,,,,,,,2026-01-13,1,,,,,エクスパンシア,0
2214,7180001170173,新規,0,2026-01-13,2026-01-13,株式会社香月コーポレーション,,株式会社,愛知県,名古屋市北区,長喜町４丁目５番地の１,,23,103,4620036,,,,,,,2026-01-13,1,,,,,カズキコーポレーション,0
2215,7180001170198,新規,0,2026-01-13,2026-01-13,ＳＡＭＡ　ＳＡＭＡ株式会社,,株式会社,愛知県,名古屋市東区,泉２丁目２８番２４号東和高岳ビル８Ｆ,,23,102,4610001,,,,,,,2026-01-13,1,,,,,サマサマ,0
2216,7180001170207,新規,0,2026-01-13,2026-01-13,株式会社藤設備工業,,株式会社,愛知県,知多市,八幡字東大平地２９番地の１７,,23,224,4780001,,,,,,,2026-01-13,1,,,,,フジセツビコウギョウ,0
2217,7180001170215,新規,0,2026-01-13,2026-01-13,株式会社若松金属,,株式会社,愛知県,名古屋市港区,畑中２丁目５４５番地,,23,111,4550879,,,,,,,2026-01-13,1,,,,,ワカマツキンゾク,0
2218,7180001170223,新規,0,2026-01-13,2026-01-13,株式会社輝,,株式会社,愛知県,瀬戸市,幡西町２２８番地,,23,204,4890938,,,,,,,2026-01-13,1,,,,,カガヤキ,0
2222,7180005021380,新規,0,2026-01-13,2026-01-13,医療法人ＡＫＣ,,その他の設立登記法人,愛知県,名古屋市昭和区,滝子通３丁目１０－１滝子メディカルステーション２Ｆ,,23,107,4660055,,,,,,,2026-01-13,1,,,,,エーケーシー,0
2224,7180301040588,新規,0,2026-01-13,2026-01-13,株式会社ＨＯＬＯＭＵＡ　ＢＡＳＥ,,株式会社,愛知県,岡崎市,大西町字南ケ原２番地,,23,202,4440812,,,,,,,2026-01-13,1,,,,,ホロムアベース,0
2227,7190001032819,新規,0,2026-01-13,2026-01-13,株式会社ライフデザインプラス,,株式会社,三重県,鈴鹿市,北長太町１１４３番地,,24,207,5130049,,,,,,,2026-01-13,1,,,,,ライフデザインプラス,0
2228,7190001032827,新規,0,2026-01-13,2026-01-13,株式会社鈴鹿総合保険,,株式会社,三重県,鈴鹿市,住吉３丁目３０番２６号森ビル２Ｄ,,24,207,5130826,,,,,,,2026-01-13,1,,,,,スズカソウゴウホケン,0
2229,7190005012107,新規,0,2026-01-13,2026-01-13,特定非営利活動法人ママのとまり木,,その他の設立登記法人,三重県,津市,藤方２２０４番地,,24,201,5140815,,,,,,,2026-01-13,1,,,,,ママノトマリギ,0
2234,7220005009033,新規,0,2026-01-13,2026-01-13,農事組合法人アグリ松本,,その他の設立登記法人,石川県,河北郡津幡町,字能瀬ロ７３番地５,,17,361,9290319,,,,,,,2026-01-13,1,,,,,アグリマツモト,0
2235,7230001021239,新規,0,2026-01-13,2026-01-13,株式会社杉山板金,,株式会社,富山県,射水市,三ケ２２９７番地１１,,16,211,9390341,,,,,,,2026-01-13,1,,,,,スギヤマバンキン,0
2239,7240001066027,新規,0,2026-01-13,2026-01-13,浜電株式会社,,株式会社,広島県,尾道市,向東町３５８０番地２,,34,205,7220062,,,,,,,2026-01-13,1,,,,,ハマデン,0
2243,7240003007549,新規,0,2026-01-13,2026-01-13,合同会社オリエント,,合同会社,広島県,広島市南区,稲荷町５番４号,,34,103,7320827,,,,,,,2026-01-13,1,,,,,オリエント,0
2244,7240003007557,新規,0,2026-01-13,2026-01-13,合同会社スタンド・バイ・ユー,,合同会社,広島県,呉市,押込西平町２１番２０号,,34,202,7370914,,,,,,,2026-01-13,1,,,,,スタンドバイユー,0
2247,7250005009039,新規,0,2026-01-13,2026-01-13,日本基督教団宇部教会,,その他の設立登記法人,山口県,宇部市,常盤町１丁目１番９号,,35,202,7550031,,,,,,山口県宇部市鍋倉町２番２号日本基督教団宇部教会（2250005002428）と山口県宇部市常盤町一丁目１番９号日本基督教団宇部緑橋教会（3250005002427）の合併により設立,2026-01-13,1,,,,,ニホンキリストキョウダンウベキョウカイ,0
2264,7290001112684,新規,0,2026-01-13,2026-01-13,ふかん株式会社,,株式会社,福岡県,福岡市中央区,大濠公園２番８号プレジール大濠公園２０３号,,40,133,8100051,,,,,,,2026-01-13,1,,,,,フカン,0
2276,7290003017915,新規,0,2026-01-13,2026-01-13,ガーネット合同会社,,合同会社,福岡県,福岡市中央区,天神２丁目３番１０号天神パインクレスト７１９号,,40,133,8100001,,,,,,,2026-01-13,1,,,,,ガーネット,0
2277,7290005019959,新規,0,2026-01-13,2026-01-13,医療法人あららぎの杜,,その他の設立登記法人,福岡県,八女郡広川町,大字久泉６０５番地５,,40,544,8340112,,,,,,,2026-01-13,1,,,,,アララギノモリ,0
2279,7290801032173,新規,0,2026-01-13,2026-01-13,株式会社Ｐｏｔ　Ｏｖｅｒ,,株式会社,福岡県,北九州市八幡西区,田町１丁目１番２０号（２０２）,,40,109,8060003,,,,,,,2026-01-13,1,,,,,ポットオーバー,0
2339,7330001033876,新規,0,2026-01-13,2026-01-13,株式会社ＧｏｏｄＷａｖｅホールディングス,,株式会社,熊本県,熊本市西区,八島町７２８番地３２,,43,103,8600057,,,,,,,2026-01-13,1,,,,,グッドウェーブホールディングス,0
2342,7340001027893,新規,0,2026-01-13,2026-01-13,株式会社クリエイティブブリーダーズ,,株式会社,鹿児島県,指宿市,西方５１９５番地１,,46,210,8910311,,,,,,,2026-01-13,1,,,,,クリエイティブブリーダーズ,0
2344,7360001036240,新規,0,2026-01-13,2026-01-13,琉球ペット工房株式会社,,株式会社,沖縄県,南城市,大里字大城１９２７番地,,47,215,9011203,,,,,,,2026-01-13,1,,,,,リュウキュウペットコウボウ,0
2345,7360001036249,新規,0,2026-01-13,2026-01-13,株式会社ＪＭ　ＴＥＣＨ,,株式会社,沖縄県,中頭郡北谷町,字伊平４１４番地５－２階,,47,326,9040102,,,,,,,2026-01-13,1,,,,,ジェイエムテック,0
2347,7360003015548,新規,0,2026-01-13,2026-01-13,合同会社明徳,,合同会社,沖縄県,宮古島市,平良字久貝６６４番地,,47,214,9060015,,,,,,,2026-01-13,1,,,,,メイトク,0
2352,7370003007437,新規,0,2026-01-13,2026-01-13,合同会社岡野上商店,,合同会社,宮城県,大崎市,古川諏訪１丁目５番８－２号,,04,215,9896175,,,,,,,2026-01-13,1,,,,,オカノウエショウテン,0
2354,7380001035810,新規,0,2026-01-13,2026-01-13,浜田農産株式会社,,株式会社,福島県,南相馬市,鹿島区鹿島字鶴田５２番地の４,,07,212,9792335,,,,,,,2026-01-13,1,,,,,,0
2355,7380003006231,新規,0,2026-01-13,2026-01-13,ロワイットレーヌ合同会社,,合同会社,福島県,郡山市,田村町下行合字朝日舞１６８番３号,,07,203,9630726,,,,,,,2026-01-13,1,,,,,ロワイットレーヌ,0
2357,7410001014364,新規,0,2026-01-13,2026-01-13,株式会社リクソン,,株式会社,秋田県,横手市,大森町上溝字末野１０９番地２,,05,203,0130552,,,,,,,2026-01-13,1,,,,,リクソン,0
2359,7420001019395,新規,0,2026-01-13,2026-01-13,株式会社ユニバースフィロソフィー,,株式会社,青森県,弘前市,大字大開１丁目２番地２,,02,202,0368247,,,,,,,2026-01-13,1,,,,,ユニバースフィロソフィー,0
2360,7430001095948,新規,0,2026-01-13,2026-01-13,株式会社アールプラス,,株式会社,北海道,小樽市,東雲町１番ＡＭＳ－ＳＨＩＮＯＮＯＭＥ３０３,,01,203,0470026,,,,,,,2026-01-13,1,,,,,アールプラス,0
2361,7430001096005,新規,0,2026-01-13,2026-01-13,株式会社尽志総業,,株式会社,北海道,赤平市,大町１丁目４番地２２,,01,218,0791141,,,,,,,2026-01-13,1,,,,,ツクシソウギョウ,0
2362,7430001096013,新規,0,2026-01-13,2026-01-13,三浦自動車工業株式会社,,株式会社,北海道,伊達市,弄月町２３９番地７,,01,233,0520013,,,,,,,2026-01-13,1,,,,,ミウラジドウシャコウギョウ,0
2366,7450001014823,新規,0,2026-01-13,2026-01-13,株式会社廣田興産,,株式会社,北海道,士別市,多寄町三十二線西２０番地,,01,220,0980475,,,,,,,2026-01-13,1,,,,,ヒロタコウサン,0
2373,7490003002079,新規,0,2026-01-13,2026-01-13,合同会社上秀瓦,,合同会社,高知県,香美市,土佐山田町西本町４丁目１番２３号,,39,212,7820032,,,,,,,2026-01-13,1,,,,,カミヒデカワラ,0
2378,7700150133910,新規,0,2026-01-13,2026-01-13,ＧＯＬＤＫＥＹ　ＭＡＮＡＧＥＭＥＮＴ　ＬＩＭＩＴＥＤ,,外国会社等,,,,,,,,ＶｉｓｔｒａＣｏｒｐｏｒａｔｅＳｅｒｖｉｃｅｓＣｅｎｔｒｅ，ＷｉｃｋｈａｍｓＣａｙＩＩ，ＲｏａｄＴｏｗｎ，Ｔｏｒｔｏｌａ，ＶＧ１１１０,00142139,,,,,2026-01-13,1,,,,,ゴールドキーマネジメントリミテツド,0
2384,8010001261681,新規,0,2026-01-13,2026-01-13,株式会社アルファＴＫＧセールス,,株式会社,東京都,中央区,日本橋本町４丁目１番１３号,,13,102,1030023,,,,,,,2026-01-13,1,,,,,アルファティーケージーセールス,0
2385,8010001261723,新規,0,2026-01-13,2026-01-13,株式会社セントジェン,,株式会社,東京都,中央区,日本橋３丁目９番１号日本橋三丁目スクエア１１階,,13,102,1030027,,,,,,,2026-01-13,1,,,,,セントジェン,0
2386,8010001261731,新規,0,2026-01-13,2026-01-13,株式会社日庄ビズネット,,株式会社,東京都,中央区,日本橋人形町１丁目１番１１号,,13,102,1030013,,,,,,,2026-01-13,1,,,,,ニッショウビズネット,0
2387,8010001261756,新規,0,2026-01-13,2026-01-13,アルファブリッジ株式会社,,株式会社,東京都,中央区,入船２丁目３番７号築地エー・アイ・ユービル５階,,13,102,1040042,,,,,,,2026-01-13,1,,,,,アルファブリッジ,0
2394,8010003049935,新規,0,2026-01-13,2026-01-13,Ｒｅｄｈｅａｄ　Ｃｏｎｓｕｌｔｉｎｇ合同会社,,合同会社,東京都,中央区,日本橋室町４丁目３番９号,,13,102,1030022,,,,,,,2026-01-13,1,,,,,レッドヘッドコンサルティング,0
2395,8010003049951,新規,0,2026-01-13,2026-01-13,ＳＹＭ合同会社,,合同会社,東京都,中央区,銀座１丁目１２番４号Ｎ＆Ｅ・ＢＬＤ．６Ｆ,,13,102,1040061,,,,,,,2026-01-13,1,,,,,エスワイエム,0
2397,8010005041188,新規,0,2026-01-13,2026-01-13,一般社団法人レインボー・ホールディングス,,その他の設立登記法人,東京都,中央区,日本橋１丁目４番１号,,13,102,1030027,,,,,,,2026-01-13,1,,,,,レインボーホールディングス,0
2402,8010401195612,新規,0,2026-01-13,2026-01-13,株式会社Ｗａｓｈｏｋｕ　Ｉｎｔｅｒｎａｔｉｏｎａｌ,,株式会社,東京都,港区,虎ノ門１丁目１１番１２号,,13,103,1050001,,,,,,,2026-01-13,1,,,,,ワショクインターナショナル,0
2403,8010401195711,新規,0,2026-01-13,2026-01-13,ｒｏｓｅ　ｐｌａｓｔｉｃ　Ｊａｐａｎ株式会社,,株式会社,東京都,港区,西新橋１丁目２番９号日比谷セントラルビル１４階,,13,103,1050003,,,,,,,2026-01-13,1,,,,,ローズプラスティックジャパン,0
2406,8010501055286,新規,0,2026-01-13,2026-01-13,株式会社ぴーぷるグループ,,株式会社,東京都,台東区,北上野２丁目１８番４号,,13,106,1100014,,,,,,,2026-01-13,1,,,,,ピープルグループ,0
2422,8010801036960,新規,0,2026-01-13,2026-01-13,株式会社ワイエス,,株式会社,東京都,大田区,多摩川１丁目１１番３号,,13,111,1460095,,,,,,,2026-01-13,1,,,,,ワイエス,0
2423,8010803005666,新規,0,2026-01-13,2026-01-13,合同会社ＣＦＳ,,合同会社,東京都,大田区,西蒲田７丁目２７番７号扶桑ビル６Ｆ,,13,111,1440051,,,,,,,2026-01-13,1,,,,,シーエフエス,0
2430,8010901058756,新規,0,2026-01-13,2026-01-13,株式会社Ｙ＆Ｃｏ　Ａｓｓｅｔ　Ｍａｎａｇｅｍｅｎｔ,,株式会社,東京都,世田谷区,松原１丁目１８番１９号,,13,112,1560043,,,,,,,2026-01-13,1,,,,,ワイアンドコーアセットマネジメント,0
2431,8010901058764,新規,0,2026-01-13,2026-01-13,株式会社ＲＥＭＩＸ,,株式会社,東京都,世田谷区,粕谷１丁目１９番７－１０１号,,13,112,1570063,,,,,,,2026-01-13,1,,,,,リミックス,0
2435,8011001174774,新規,0,2026-01-13,2026-01-13,株式会社Ｗｅｌｔｉｆｕｌ,,株式会社,東京都,渋谷区,道玄坂１丁目１０番８号渋谷道玄坂東急ビル２Ｆ－Ｃ,,13,113,1500043,,,,,,,2026-01-13,1,,,,,ウェルティフル,0
2436,8011001174782,新規,0,2026-01-13,2026-01-13,株式会社ＳＴＯＶＡＧ,,株式会社,東京都,渋谷区,円山町５番５号Ｎａｖｉ渋谷Ｖ３階,,13,113,1500044,,,,,,,2026-01-13,1,,,,,ストーヴァ,0
2445,8011101114259,新規,0,2026-01-13,2026-01-13,ＭＩＳＴＡＫＥ　ＥＮＴＥＲＴＡＩＮＭＥＮＴ株式会社,,株式会社,東京都,新宿区,西新宿１丁目２６番２号新宿野村ビル３２階,,13,104,1600023,,,,,,,2026-01-13,1,,,,,ミステイクエンターテインメント,0
2446,8011101114341,新規,0,2026-01-13,2026-01-13,グリフォングループホールディングス株式会社,,株式会社,東京都,新宿区,市谷左内町２９－３ＴＥＲＲＡＣＥＨＩＬＬＩＣＨＩＧＡＹＡ２Ｆ,,13,104,1620846,,,,,,,2026-01-13,1,,,,,グリフォングループホールディングス,0
2447,8011103016858,新規,0,2026-01-13,2026-01-13,合同会社Ａｎａｎ,,合同会社,東京都,新宿区,西新宿３丁目３番１３号西新宿水間ビル２Ｆ,,13,104,1600023,,,,,,,2026-01-13,1,,,,,アナン,0
2448,8011103016957,新規,0,2026-01-13,2026-01-13,合同会社吉野不動産研究所,,合同会社,東京都,新宿区,西新宿８丁目１４‐２７,,13,104,1600023,,,,,,,2026-01-13,1,,,,,ヨシノフドウサンケンキュウジョ,0
2449,8011201026882,新規,0,2026-01-13,2026-01-13,株式会社エム・レスト,,株式会社,東京都,中野区,中央１丁目１７番２－５０５号,,13,114,1640011,,,,,,,2026-01-13,1,,,,,エムレスト,0
2451,8011301031171,新規,0,2026-01-13,2026-01-13,株式会社Ｆｌａｘ,,株式会社,東京都,杉並区,梅里１丁目６番８号新高円寺駅前第二富士ビル５Ｆ,,13,115,1660011,,,,,,,2026-01-13,1,,,,,フラックス,0
2454,8011401027722,新規,0,2026-01-13,2026-01-13,株式会社オオハシリンクス,,株式会社,東京都,板橋区,高島平５丁目３８番１６号,,13,119,1750082,,,,,,,2026-01-13,1,,,,,オオハシリンクス,0
2456,8011601029304,新規,0,2026-01-13,2026-01-13,Ａｔｔｏｒｎｅｙ　Ｇｌｏｂａｌ株式会社,,株式会社,東京都,練馬区,石神井町７丁目２番１－３０２号,,13,120,1770041,,,,,,,2026-01-13,1,,,,,アトーニーグローバル,0
2457,8011801047279,新規,0,2026-01-13,2026-01-13,株式会社ｆｉｎｅｕｋ,,株式会社,東京都,足立区,綾瀬１丁目３３番７号ラスール１０３ｎｅｕｋ,,13,121,1200005,,,,,,,2026-01-13,1,,,,,フィヌーク,0
2458,8012403007563,新規,0,2026-01-13,2026-01-13,活知恵合同会社,,合同会社,東京都,狛江市,岩戸南１丁目５番８号,,13,219,2010005,,,,,,,2026-01-13,1,,,,,カッチェ,0
2459,8012803003963,新規,0,2026-01-13,2026-01-13,イーテック合同会社,,合同会社,東京都,昭島市,武蔵野２丁目２番１４－２０１号,,13,207,1960021,,,,,,,2026-01-13,1,,,,,イーテック,0
2460,8013301055522,新規,0,2026-01-13,2026-01-13,株式会社メルヘンレコーズ,,株式会社,東京都,豊島区,東池袋２丁目６２番８号ＢＩＧオフィスプラザ池袋１２０６,,13,116,1700013,,,,,,,2026-01-13,1,,,,,メルヘンレコーズ,0
2464,8020001166616,新規,0,2026-01-13,2026-01-13,大西ホールディングス株式会社,,株式会社,神奈川県,横浜市中区,扇町１丁目１番２５号キンガビル４階,,14,104,2310027,,,,,,,2026-01-13,1,,,,,オオニシホールディングス,0
2465,8020001166723,新規,0,2026-01-13,2026-01-13,株式会社喜古,,株式会社,神奈川県,川崎市中原区,下小田中１丁目１３番１１号,,14,133,2110041,,,,,,,2026-01-13,1,,,,,キコ,0
2467,8020003030118,新規,0,2026-01-13,2026-01-13,合同会社シゲル工業,,合同会社,神奈川県,川崎市川崎区,出来野７番１２号,,14,131,2100825,,,,,,,2026-01-13,1,,,,,シゲルコウギョウ,0
2468,8020005017105,新規,0,2026-01-13,2026-01-13,一般社団法人独り歩き,,その他の設立登記法人,神奈川県,横浜市泉区,新橋町１４６３番地４９,,14,116,2450009,,,,,,,2026-01-13,1,,,,,ヒトリアルキ,0
2470,8021001087224,新規,0,2026-01-13,2026-01-13,株式会社Ｇｒｅｅｎｔｒｅｅ　Ｅｎｇｌｉｓｈ,,株式会社,神奈川県,相模原市南区,新戸１８９５番地９,,14,153,2520326,,,,,,,2026-01-13,1,,,,,グリーンツリーイングリッシュ,0
2476,8030001170518,新規,0,2026-01-13,2026-01-13,株式会社結,,株式会社,埼玉県,川口市,大字石神９４６番地,,11,203,3330823,,,,,,,2026-01-13,1,,,,,ユイ,0
2478,8030003028383,新規,0,2026-01-13,2026-01-13,合同会社ＷＥａＦＡ,,合同会社,埼玉県,さいたま市緑区,大字三室６３６番地１２７,,11,109,3360911,,,,,,,2026-01-13,1,,,,,ウィーファ,0
2479,8030003028400,新規,0,2026-01-13,2026-01-13,合同会社Ｒｅｖｉｖｅ,,合同会社,埼玉県,所沢市,大字山口１６８３番地の１３,,11,208,3591145,,,,,,,2026-01-13,1,,,,,リバイブ,0
2480,8030003028417,新規,0,2026-01-13,2026-01-13,ＫＺｗｏｒｋｓ合同会社,,合同会社,埼玉県,川口市,上青木５丁目１８番２３号ウットビル２Ｆ,,11,203,3330844,,,,,,,2026-01-13,1,,,,,ケーズワークス,0
2485,8040001141864,新規,0,2026-01-13,2026-01-13,株式会社ＨＩＲＯエステート,,株式会社,千葉県,市原市,大和田２０６番地の１,,12,219,2900553,,,,,,,2026-01-13,1,,,,,ヒロエステート,0
2486,8040001142012,新規,0,2026-01-13,2026-01-13,株式会社Ｌｕｚ,,株式会社,千葉県,茂原市,道表１１番地１４,,12,210,2970028,,,,,,,2026-01-13,1,,,,,ルス,0
2487,8040001142037,新規,0,2026-01-13,2026-01-13,株式会社ＺＥＲＯＦＩＲＳＴ,,株式会社,千葉県,千葉市中央区,富士見２丁目２１番１０号ＣＩ－２１ビル１階,00142130,12,101,2600015,,,,,,,2026-01-13,1,,,,,ゼロファースト,0
2488,8040001142053,新規,0,2026-01-13,2026-01-13,株式会社トチウェル,,株式会社,千葉県,八千代市,勝田台２丁目４３番地２,,12,221,2760023,,,,,,,2026-01-13,1,,,,,トチウェル,0
2489,8040001142078,新規,0,2026-01-13,2026-01-13,ＳＢシーリング株式会社,,株式会社,千葉県,千葉市若葉区,貝塚町５６４－５シャーメゾンはなぶさ２０１,,12,104,2640023,,,,,,,2026-01-13,1,,,,,エスビーシーリング,0
2490,8040001142094,新規,0,2026-01-13,2026-01-13,株式会社三浦板金,,株式会社,千葉県,流山市,前ケ崎５１３番地の２,,12,220,2700144,,,,,,,2026-01-13,1,,,,,ミウラバンキン,0
2492,8040003029240,新規,0,2026-01-13,2026-01-13,Ｃｈｉｂｉ　Ｓｔｕｄｉｏ合同会社,,合同会社,千葉県,千葉市美浜区,磯辺５丁目１５番４棟５１２号,,12,106,2610012,,,,,,,2026-01-13,1,,,,,チビスタジオ,0
2495,8050001057845,新規,0,2026-01-13,2026-01-13,株式会社ＮＥＸＴ,,株式会社,茨城県,常総市,豊岡町丙２５５番地３,,08,211,3030041,,,,,,,2026-01-13,1,,,,,ネクスト,0
2497,8050003009869,新規,0,2026-01-13,2026-01-13,合同会社ＭＯＤ,,合同会社,茨城県,つくば市,学園南３丁目５３－３－３０３,,08,220,3050818,,,,,,,2026-01-13,1,,,,,モードオブディー,0
2499,8080001027366,新規,0,2026-01-13,2026-01-13,静岡ガスハウジングホールディングス株式会社,,株式会社,静岡県,静岡市駿河区,八幡１丁目５番３８号,,22,102,4228076,,,,,,,2026-01-13,1,,,,,シズオカガスハウジングホールディングス,0
2500,8080001027374,新規,0,2026-01-13,2026-01-13,ＫＹＯ株式会社,,株式会社,静岡県,静岡市葵区,東千代田１丁目２０番６４号,,22,101,4200801,,,,,,,2026-01-13,1,,,,,ケイワイオー,0
2504,8080403005424,新規,0,2026-01-13,2026-01-13,ＬｉｌｙＢｅｌｌ合同会社,,合同会社,静岡県,浜松市中央区,高丘東３丁目３１番１２号,,22,138,4338117,,,,,,,2026-01-13,1,,,,,リリイベル,0
2506,8090001019684,新規,0,2026-01-13,2026-01-13,株式会社Ｄｕｎｎｏ,,株式会社,山梨県,北杜市,長坂町日野３１５番地,,19,209,4080026,,,,,,,2026-01-13,1,,,,,ダノウ,0
2509,8100001039251,新規,0,2026-01-13,2026-01-13,株式会社ｃｒｏｍｉａ,,株式会社,長野県,松本市,大字笹賀５５０７番地１,,20,202,3990033,,,,,,,2026-01-13,1,,,,,クロミア,0
2513,8110001039837,新規,0,2026-01-13,2026-01-13,株式会社Ｌｅｏｐｅ,,株式会社,新潟県,新潟市中央区,万代１丁目２番３号コープ野村万代１００８号,,15,103,9500088,,,,,,,2026-01-13,1,,,,,レオープ,0
2529,8120001283178,新規,0,2026-01-13,2026-01-13,株式会社ＬＤＳ,,株式会社,大阪府,大阪市中央区,本町２丁目３番４号アソルティ本町４Ｆ,,27,128,5410053,,,,,,,2026-01-13,1,,,,,エルディーエス,0
2530,8120001283244,新規,0,2026-01-13,2026-01-13,株式会社ＧＥＮＥＸ,,株式会社,大阪府,大阪市中央区,大手通１丁目３番６号オキツモビル大手前２Ｆ,,27,128,5400021,,,,,,,2026-01-13,1,,,,,ジェネックス,0
2531,8120001283269,新規,0,2026-01-13,2026-01-13,株式会社Ｋｉｌｂｒｉｄｅ,,株式会社,大阪府,大阪市浪速区,難波中３丁目６番３号リアライズ難波中１００１,,27,111,5560011,,,,,,,2026-01-13,1,,,,,キルブライド,0
2532,8120001283277,新規,0,2026-01-13,2026-01-13,株式会社園舞,,株式会社,大阪府,大阪市福島区,吉野２丁目１１番３０号ネバーランド福島１３０１号室,,27,103,5530006,,,,,,,2026-01-13,1,,,,,エンブ,0
2533,8120001283335,新規,0,2026-01-13,2026-01-13,株式会社クローバーコンストラクションカンパニー,,株式会社,大阪府,大阪市城東区,野江１丁目６番２２号,,27,118,5360006,,,,,,,2026-01-13,1,,,,,クローバーコンストラクションカンパニー,0
2534,8120003031601,新規,0,2026-01-13,2026-01-13,エス合同会社,,合同会社,大阪府,大阪市天王寺区,国分町１７番１９号,,27,109,5430044,,,,,,,2026-01-13,1,,,,,エス,0
2535,8120003031618,新規,0,2026-01-13,2026-01-13,ＮＥＸＴ　Ｏｎｃｏｌｏｇｙ　ＫＭＵ　ＪＡＰＡＮ合同会社,,合同会社,大阪府,枚方市,新町２丁目２番３号,,27,210,5731191,,,,,,,2026-01-13,1,,,,,ネクストオンコロジーケイエムユージャパン,0
2536,8120003031634,新規,0,2026-01-13,2026-01-13,ＮＯＷＫ合同会社,,合同会社,大阪府,大阪市西淀川区,姫島４丁目８番１２号,,27,113,5550033,,,,,,,2026-01-13,1,,,,,ノーク,0
2537,8120003031642,新規,0,2026-01-13,2026-01-13,永昌合同会社,,合同会社,大阪府,大阪市西成区,潮路１丁目３番６－２０２号,,27,122,5570052,,,,,,,2026-01-13,1,,,,,エイショウ,0
2540,8120101073058,新規,0,2026-01-13,2026-01-13,株式会社天竺工建,,株式会社,大阪府,堺市中区,堀上町１７０番地１３,,27,142,5998261,,,,,,,2026-01-13,1,,,,,テンジクコウケン,0
2541,8120101073066,新規,0,2026-01-13,2026-01-13,株式会社アルヴル,,株式会社,大阪府,和泉市,唐国町３丁目１５番３８－２１０号,,27,219,5941151,,,,,,,2026-01-13,1,,,,,アルヴル,0
2543,8120103006924,新規,0,2026-01-13,2026-01-13,舒＿合同会社,00142144,合同会社,大阪府,堺市堺区,一条通１－２５－２Ｆ,,27,141,5900048,,,,,,,2026-01-13,1,,,,,ショシン,0
2544,8120901052054,新規,0,2026-01-13,2026-01-13,吉村マリン株式会社,,株式会社,大阪府,豊中市,豊南町東４丁目５番１号,,27,203,5610814,,,,,,,2026-01-13,1,,,,,ヨシムラマリン,0
2545,8120901052070,新規,0,2026-01-13,2026-01-13,Ｂｒａｉｎ　Ｌｉｆｅ　Ｃｏｎｓｕｌｔｉｎｇ株式会社,,株式会社,大阪府,吹田市,津雲台５丁目１８番３０－５０７号,,27,205,5650862,,,,,,,2026-01-13,1,,,,,ブレインライフコンサルティング,0
2546,8120901052079,新規,0,2026-01-13,2026-01-13,日和株式会社,,株式会社,大阪府,茨木市,稲葉町６番１２号,,27,211,5670827,,,,,,,2026-01-13,1,,,,,ヒヨリ,0
2547,8120901052095,新規,0,2026-01-13,2026-01-13,タイセイ建装株式会社,,株式会社,大阪府,吹田市,千里丘北１番２８－１３１２号,,27,205,5650815,,,,,,,2026-01-13,1,,,,,タイセイケンソウ,0
2548,8122005003867,新規,0,2026-01-13,2026-01-13,一般社団法人大阪繁華街防犯パトロール組合,,その他の設立登記法人,大阪府,東大阪市,加納７丁目２５番７号－２５,,27,227,5780901,,,,,,,2026-01-13,1,,,,,オオサカハンカガイボウハンパトロールクミアイ,0
2554,8130001081325,新規,0,2026-01-13,2026-01-13,株式会社藤建,,株式会社,京都府,京都市上京区,智恵光院出水上ル天秤丸町１８２－４,,26,102,6020000,,,,,,,2026-01-13,1,,,,,フジケン,0
2555,8130001081366,新規,0,2026-01-13,2026-01-13,ＴＲＩＬ株式会社,,株式会社,京都府,京都市右京区,西京極豆田町６京都友禅文化会館,,26,108,6150801,,,,,,,2026-01-13,1,,,,,トゥレイル,0
2559,8140001141243,新規,0,2026-01-13,2026-01-13,株式会社ＭＩＲＡＩ　ＦＲＯＮＴ,,株式会社,兵庫県,宝塚市,長寿ガ丘２１番２－１０２号,,28,214,6650001,,,,,,,2026-01-13,1,,,,,ミライフロント,0
2560,8140001141326,新規,0,2026-01-13,2026-01-13,株式会社Ｇ　ＣＲＡＦＴ,,株式会社,兵庫県,神戸市東灘区,御影中町３丁目２番４－２２０９号,,28,101,6580054,,,,,,,2026-01-13,1,,,,,ジークラフト,0
2561,8140001141391,新規,0,2026-01-13,2026-01-13,株式会社ハマノ通商,,株式会社,兵庫県,尼崎市,椎堂１丁目２２番２７号,,28,202,6610952,,,,,,,2026-01-13,1,,,,,ハマノツウショウ,0
2562,8140003023043,新規,0,2026-01-13,2026-01-13,合同会社ＧＡＴＥ,,合同会社,兵庫県,西宮市,高木東町１４番１２号,,28,204,6638033,,,,,,,2026-01-13,1,,,,,ゲート,0
2566,8150001028646,新規,0,2026-01-13,2026-01-13,株式会社ジオエージェント,,株式会社,奈良県,奈良市,六条西３丁目１６番８号,,29,201,6308044,,,,,,,2026-01-13,1,,,,,ジオエージェント,0
2567,8150001028654,新規,0,2026-01-13,2026-01-13,株式会社ワイズアセット,,株式会社,奈良県,北葛城郡上牧町,ゆりが丘１丁目１番５０号,,29,424,6390206,,,,,,,2026-01-13,1,,,,,ワイズアセット,0
2571,8170001018942,新規,0,2026-01-13,2026-01-13,株式会社ＲｔｏＲ,,株式会社,和歌山県,海南市,七山１３６２番地１,,30,202,6400441,,,,,,,2026-01-13,1,,,,,アールトゥーアール,0
2575,8180001170164,新規,0,2026-01-13,2026-01-13,株式会社ゆうしょう,,株式会社,愛知県,一宮市,柚木颪字蓮池５番地,,23,203,4910011,,,,,,,2026-01-13,1,,,,,ユウショウ,0
2576,8180001170222,新規,0,2026-01-13,2026-01-13,あびこアートギャラリー株式会社,,株式会社,愛知県,一宮市,大毛字小松寺東３番地１,,23,203,4910132,,,,,,,2026-01-13,1,,,,,アビコアートギャラリー,0
2578,8180003029573,新規,0,2026-01-13,2026-01-13,Ｉ＆Ｈ　ｐｒｏ合同会社,,合同会社,愛知県,名古屋市西区,稲生町３丁目４３番地イル・ソーレ３０２号,,23,104,4510012,,,,,,,2026-01-13,1,,,,,アイアンドエイチプロ,0
2579,8180003029598,新規,0,2026-01-13,2026-01-13,合同会社ラインメンテ,,合同会社,愛知県,半田市,石塚町１丁目１８４番地緑ケ丘住宅１０棟４０４号,,23,205,4750001,,,,,,,2026-01-13,1,,,,,ラインメンテ,0
2580,8180003029615,新規,0,2026-01-13,2026-01-13,合同会社ＯＫＡＣＯＮ　ＦＯＯＤ　ＬＡＢ,,合同会社,愛知県,名古屋市西区,名駅２丁目１６番９号プレサンス名古屋ＳＴＡＴＩＯＮビジュ８０２号,,23,104,4510045,,,,,,,2026-01-13,1,,,,,オカコンフードラボ,0
2582,8180301040562,新規,0,2026-01-13,2026-01-13,株式会社はるいろ,,株式会社,愛知県,岡崎市,中田町７番地４,,23,202,4440836,,,,,,,2026-01-13,1,,,,,ハルイロ,0
2583,8180301040587,新規,0,2026-01-13,2026-01-13,株式会社大清水砂場,,株式会社,愛知県,豊橋市,大清水町字大清水７７番地１,,23,201,4418133,,,,,,,2026-01-13,1,,,,,オオシミズスナバ,0
2585,8190001032818,新規,0,2026-01-13,2026-01-13,株式会社永誠商事,,株式会社,三重県,伊勢市,小俣町相合６００番地,,24,203,5190502,,,,,,,2026-01-13,1,,,,,エイセイショウジ,0
2586,8190001032826,新規,0,2026-01-13,2026-01-13,株式会社ＭＩＥクリエイト,,株式会社,三重県,桑名市,大字西別所２８番地の２,,24,205,5110851,,,,,,,2026-01-13,1,,,,,ミエクリエイト,0
2596,8220005009032,新規,0,2026-01-13,2026-01-13,行政書士法人木村経営ブレーン,,その他の設立登記法人,石川県,金沢市,駅西新町３丁目４番３３号,,17,201,9200027,,,,,,,2026-01-13,1,,,,,キムラケイエイブレーン,0
2597,8230001021238,新規,0,2026-01-13,2026-01-13,糀谷工業株式会社,,株式会社,富山県,射水市,片口高場８４番地１７,,16,211,9340036,,,,,,,2026-01-13,1,,,,,コウジタニコウギョウ,0
2599,8240001066026,新規,0,2026-01-13,2026-01-13,株式会社ＸＩＡ,,株式会社,広島県,広島市中区,東平塚町７番１２－７０６号,,34,101,7300025,,,,,,,2026-01-13,1,,,,,シア,0
2600,8240001066034,新規,0,2026-01-13,2026-01-13,株式会社オフィスＹ,,株式会社,広島県,広島市南区,的場町１丁目７番２号,,34,103,7320824,,,,,,,2026-01-13,1,,,,,オフィスワイ,0
2604,8260001040879,新規,0,2026-01-13,2026-01-13,株式会社あゆみアセット,,株式会社,岡山県,岡山市北区,撫川２８４,,33,101,7010164,,,,,,,2026-01-13,1,,,,,アユミアセット,0
2606,8280003002025,新規,0,2026-01-13,2026-01-13,すみ社会福祉士事務所合同会社,,合同会社,島根県,出雲市,大社町修理免５６０番地１６,,32,203,6990721,,,,,,,2026-01-13,1,,,,,スミシャカイフクシシジムショ,0
2616,8290001112709,新規,0,2026-01-13,2026-01-13,株式会社ＬａｎｄＰｌｕｓ,,株式会社,福岡県,糟屋郡篠栗町,大字篠栗４９６３番地１,,40,342,8112405,,,,,,,2026-01-13,1,,,,,ランドプラス,0
2617,8290001112758,新規,0,2026-01-13,2026-01-13,アルトリビング株式会社,,株式会社,福岡県,大野城市,瑞穂町２丁目２番１７号,,40,219,8160933,,,,,,,2026-01-13,1,,,,,アルトリビング,0
2623,8290005019966,新規,0,2026-01-13,2026-01-13,一般社団法人日本の未来のために,,その他の設立登記法人,福岡県,福岡市南区,西長住２丁目７番３４号,,40,134,8111361,,,,,,,2026-01-13,1,,,,,ニホンノミライノタメニ,0
2625,8290801032164,新規,0,2026-01-13,2026-01-13,株式会社エガシラ,,株式会社,福岡県,北九州市小倉北区,中井１丁目１１番１２号,,40,106,8030836,,,,,,,2026-01-13,1,,,,,エガシラ,0
2626,8290801032172,新規,0,2026-01-13,2026-01-13,株式会社ゼロヒャク,,株式会社,福岡県,北九州市八幡西区,田町１丁目１番２０号（２０２）,,40,109,8060003,,,,,,,2026-01-13,1,,,,,ゼロヒャク,0
2685,8320001021526,新規,0,2026-01-13,2026-01-13,株式会社心灯,,株式会社,大分県,大分市,花園２丁目１１番４２号,,44,201,8700846,,,,,,,2026-01-13,1,,,,,シントウ,0
2689,8340001027901,新規,0,2026-01-13,2026-01-13,株式会社Ｓ‐ｔａｔｅ,,株式会社,鹿児島県,日置市,日吉町日置２２１５番地１,,46,216,8993101,,,,,,,2026-01-13,1,,,,,エステイト,0
2693,8360003015547,新規,0,2026-01-13,2026-01-13,合同会社カナサ,,合同会社,沖縄県,豊見城市,字翁長８５４番地１ＭＥＧＡドン・キホーテ内６Ｆ,,47,212,9010223,,,,,,,2026-01-13,1,,,,,カナサ,0
2696,8370005011056,新規,0,2026-01-13,2026-01-13,行政書士法人Ｆｉｎｄ,,その他の設立登記法人,宮城県,仙台市若林区,中倉１丁目１１－２,,04,103,9840821,,,,,,,2026-01-13,1,,,,,ファインド,0
2700,8390001018219,新規,0,2026-01-13,2026-01-13,株式会社ＭＵＮＥ,,株式会社,山形県,山形市,大字下東山９５９番地１,,06,201,9902232,,,,,,,2026-01-13,1,,,,,ムネ,0
2702,8400005008536,新規,0,2026-01-13,2026-01-13,農事組合法人川台,,その他の設立登記法人,岩手県,一関市,萩荘字鹿鼻３４番地,,03,209,0210902,,,,,,,2026-01-13,1,,,,,カワダイ,0
2703,8410001014363,新規,0,2026-01-13,2026-01-13,ｕｎｉｖｅｒｓｅ株式会社,,株式会社,秋田県,秋田市,将軍野東３丁目６番６５－２号プラザルーナ１０２,,05,201,0110931,,,,,,,2026-01-13,1,,,,,ユニバース,0
2705,8410003004197,新規,0,2026-01-13,2026-01-13,合同会社佐々木農園,,合同会社,秋田県,南秋田郡大潟村,字北１丁目２番地２４,,05,368,0100441,,,,,,,2026-01-13,1,,,,,ササキノウエン,0
2709,8430001096012,新規,0,2026-01-13,2026-01-13,株式会社翔栄,,株式会社,北海道,苫小牧市,青雲町２丁目２０番１４号,,01,213,0591263,,,,,,,2026-01-13,1,,,,,ショウエイ,0
2710,8430001096020,新規,0,2026-01-13,2026-01-13,Ｖ‐ｕｐホールディングス株式会社,,株式会社,北海道,札幌市白石区,北郷四条４丁目８番３号,,01,104,0030834,,,,,,,2026-01-13,1,,,,,ブイアップホールディングス,0
2711,8460001006059,新規,0,2026-01-13,2026-01-13,株式会社一井自動車,,株式会社,北海道,厚岸郡浜中町,仲の浜３６番地,,01,663,0881531,,,,,,,2026-01-13,1,,,,,イチイジドウシャ,0
2717,8700150131772,新規,0,2026-01-13,2025-08-15,清瀬市観光協会,,その他,東京都,清瀬市,中里５丁目８４２,,13,221,2040003,,,,,,,2025-08-15,1,,,,,キヨセシカンコウキヨウカイ,0
2721,9010001261565,新規,0,2026-01-13,2026-01-13,株式会社自由な毛先,,株式会社,東京都,文京区,湯島２丁目３番１４号エムサ湯島１０１,,13,105,1130034,,,,,,,2026-01-13,1,,,,,ジユウナケサキ,0
2722,9010001261648,新規,0,2026-01-13,2026-01-13,惑星夜拠株式会社,,株式会社,東京都,千代田区,神田神保町２丁目１０番地３１ＩＷビル１Ｆ,,13,101,1010051,,,,,,,2026-01-13,1,,,,,ワクセイヨルル,0
2723,9010001261722,新規,0,2026-01-13,2026-01-13,株式会社ＬｉＶ　Ｃｏｎｓｕｌｔｉｎｇ,,株式会社,東京都,中央区,日本橋浜町２丁目６０番２号パークサイド日本橋７０３,,13,102,1030007,,,,,,,2026-01-13,1,,,,,リヴコンサルティング,0
2726,9010002057194,新規,0,2026-01-13,2026-01-13,有限会社麻生商事,,有限会社,東京都,中央区,銀座７丁目３番地,,13,102,1040061,,,,,,,2026-01-13,1,,,,,アソウショウジ,0
2729,9010003049827,新規,0,2026-01-13,2026-01-13,ＥＮＡ　ＢＥＳＳ　Ｐｌａｎｔ合同会社,,合同会社,東京都,千代田区,丸の内１丁目１１番１号パシフィックセンチュリープレイス丸の内１３Ｆ,,13,101,1000005,,,,,,,2026-01-13,1,,,,,エナビーイーエスエスプラント,0
2730,9010003049959,新規,0,2026-01-13,2026-01-13,ＮＡＶＥＸ　Ｊａｐａｎ合同会社,,合同会社,東京都,中央区,日本橋３丁目９番１号日本橋三丁目スクエア１１階,,13,102,1030027,,,,,,,2026-01-13,1,,,,,ナベックスジャパン,0
2733,9010005041187,新規,0,2026-01-13,2026-01-13,橋本デベロップメント一般社団法人,,その他の設立登記法人,東京都,千代田区,丸の内１丁目４番１号東京共同会計事務所内,,13,101,1000005,,,,,,,2026-01-13,1,,,,,ハシモトデベロップメント,0
2737,9010401195636,新規,0,2026-01-13,2026-01-13,株式会社Ａｄｖａｎｃｅｄ　Ｓｔｒａｔｅｇｙ＆Ｃｏｎｓｕｌｔｉｎｇ,,株式会社,東京都,港区,六本木３丁目２番１号,,13,103,1060032,,,,,,,2026-01-13,1,,,,,アドバンスドストラテジーアンドコンサルティング,0
2738,9010501055285,新規,0,2026-01-13,2026-01-13,アオイモジョ株式会社,,株式会社,東京都,台東区,西浅草３丁目２７番１４号,,13,106,1110035,,,,,,,2026-01-13,1,,,,,アオイモジョ,0
2742,9010701048873,新規,0,2026-01-13,2026-01-13,株式会社エイコンズ,,株式会社,東京都,品川区,旗の台２丁目９番３２号ベルビューヒル３０４,,13,109,1420064,,,,,,,2026-01-13,1,,,,,エイコンズ,0
2744,9010801036943,新規,0,2026-01-13,2026-01-13,株式会社Ｌｉｅｎ,,株式会社,東京都,大田区,西蒲田８丁目８番１１号,,13,111,1440051,,,,,,,2026-01-13,1,,,,,リアン,0
2747,9010803005681,新規,0,2026-01-13,2026-01-13,ｃａｓａｒａｎａ合同会社,,合同会社,東京都,大田区,大森西３丁目２１－１５,,13,111,1430015,,,,,,,2026-01-13,1,,,,,カサラナ,0
2751,9010901058771,新規,0,2026-01-13,2026-01-13,Ｔａｌｅｎｔ　Ｌｅａｄ株式会社,,株式会社,東京都,世田谷区,東玉川１丁目３６番１２－２０１号,,13,112,1580084,,,,,,,2026-01-13,1,,,,,タレントリード,0
2752,9010903010549,新規,0,2026-01-13,2026-01-13,合同会社石塚デンキ,,合同会社,東京都,世田谷区,玉川４丁目１０番５号,,13,112,1580094,,,,,,,2026-01-13,1,,,,,イシヅカデンキ,0
2757,9011003023284,新規,0,2026-01-13,2026-01-13,合同会社コスピタ,,合同会社,東京都,渋谷区,幡ヶ谷２丁目２１－１シャトレー幡ヶ谷３０８,,13,113,1510072,,,,,,,2026-01-13,1,,,,,コスピタ,0
2758,9011003023301,新規,0,2026-01-13,2026-01-13,合同会社Ｓ＆２ｓｃ,,合同会社,東京都,目黒区,柿の木坂２丁目１３番２号,,13,110,1520022,,,,,,,2026-01-13,1,,,,,エスアンドツーエスシー,0
2760,9011101114349,新規,0,2026-01-13,2026-01-13,株式会社ショウコウサポート,,株式会社,東京都,新宿区,若松町９番１２号,,13,104,1620056,,,,,,,2026-01-13,1,,,,,ショウコウサポート,0
2761,9011101114613,新規,0,2026-01-13,2026-01-13,株式会社フォークワークス,,株式会社,東京都,新宿区,河田町３番５２－４０８号,,13,104,1620054,,,,,,,2026-01-13,1,,,,,フォークワークス,0
2762,9011301031170,新規,0,2026-01-13,2026-01-13,株式会社梓木ホールディングス,,株式会社,東京都,杉並区,阿佐谷北３丁目３３番２３－００１号,,13,115,1660001,,,,,,,2026-01-13,1,,,,,アズサギホールディングス,0
2768,9012401043956,新規,0,2026-01-13,2026-01-13,株式会社ひさや,,株式会社,東京都,武蔵野市,境南町２丁目１１番２２号－８００１,,13,203,1800023,,,,,,,2026-01-13,1,,,,,ヒサヤ,0
2769,9012401044005,新規,0,2026-01-13,2026-01-13,株式会社みくまりアドバンス,,株式会社,東京都,狛江市,東野川３丁目２番２号,,13,219,2010002,,,,,,,2026-01-13,1,,,,,ミクマリアドバンス,0
2770,9012403007546,新規,0,2026-01-13,2026-01-13,合同会社ｋａｍｏｎ,,合同会社,東京都,多摩市,関戸１丁目１１‐３桜ケ丘プラザビル５Ｆ,,13,224,2060011,,,,,,,2026-01-13,1,,,,,カモン,0
2772,9012703003443,新規,0,2026-01-13,2026-01-13,合同会社Ｈｕｅｗ,,合同会社,東京都,小平市,天神町２丁目２４番７号,,13,211,1870004,,,,,,,2026-01-13,1,,,,,ヒュー,0
2773,9012803003962,新規,0,2026-01-13,2026-01-13,合同会社インフィニア,,合同会社,東京都,国分寺市,東恋ヶ窪２丁目１５－７エルメゾン国分寺１０３,,13,214,1850014,,,,,,,2026-01-13,1,,,,,インフィニア,0
2774,9013301055570,新規,0,2026-01-13,2026-01-13,株式会社ＢｅＶｉｃｔａ,,株式会社,東京都,豊島区,東池袋３丁目２０－２０東池袋ハイツ壱番館１５０４,,13,116,1700013,,,,,,,2026-01-13,1,,,,,ビーヴィクタ,0
2775,9013301055587,新規,0,2026-01-13,2026-01-13,株式会社ドロップオン,,株式会社,東京都,豊島区,東池袋３丁目１番１号,,13,116,1700013,,,,,,,2026-01-13,1,,,,,ドロップオン,0
2783,9020001166508,新規,0,2026-01-13,2026-01-13,徳富造苑建設株式会社,,株式会社,神奈川県,川崎市多摩区,長尾７丁目２４番７号,,14,135,2140023,,,,,,,2026-01-13,1,,,,,,0
2784,9020001166532,新規,0,2026-01-13,2026-01-13,ＫＡＮＯＮ　ＭＡＲＩＮＥ株式会社,,株式会社,神奈川県,横浜市神奈川区,金港町１番地１１ナビューレ横浜タワーレジデンス３２０８,,14,102,2210056,,,,,,,2026-01-13,1,,,,,カノンマリーン,0
2785,9020001166549,新規,0,2026-01-13,2026-01-13,株式会社ナル,,株式会社,神奈川県,川崎市幸区,南加瀬４丁目１５番４０号,,14,132,2120055,,,,,,,2026-01-13,1,,,,,ナル,0
2786,9020001166565,新規,0,2026-01-13,2026-01-13,株式会社レジェンダフィット,,株式会社,神奈川県,横浜市旭区,白根７丁目２９番４－４０９号,,14,112,2410005,,,,,,,2026-01-13,1,,,,,レジェンダフィット,0
2787,9020001166598,新規,0,2026-01-13,2026-01-13,株式会社ＢＩＮＧＯ,,株式会社,神奈川県,川崎市多摩区,西生田２丁目１番３０号渋谷ビル１Ｆ,,14,135,2140037,,,,,,,2026-01-13,1,,,,,ビンゴ,0
2788,9020001166623,新規,0,2026-01-13,2026-01-13,トラックファイナンス株式会社,,株式会社,神奈川県,川崎市麻生区,下麻生１丁目３２番３７号,,14,137,2150022,,,,,,,2026-01-13,1,,,,,トラックファイナンス,0
2790,9020003029919,新規,0,2026-01-13,2026-01-13,合同会社ＴＨＥ　ＣＲＯＳＳ‐ＢＯＲＤＥＲ,,合同会社,神奈川県,横浜市青葉区,青葉台２丁目３４番地９青葉台コートテラス７０８号,,14,117,2270062,,,,,,,2026-01-13,1,,,,,ザクロスボーダー,0
2791,9020003030091,新規,0,2026-01-13,2026-01-13,Ｐｈｏｅｎｉｘ　Ｎｅｓｔ合同会社,,合同会社,神奈川県,川崎市幸区,新小倉２番５－８２１号,,14,132,2120031,,,,,,,2026-01-13,1,,,,,フェニックスネスト,0
2792,9020003030109,新規,0,2026-01-13,2026-01-13,合同会社ヒトノワ,,合同会社,神奈川県,横浜市西区,西戸部町２丁目２２２番地,,14,103,2200046,,,,,,,2026-01-13,1,,,,,ヒトノワ,0
2797,9021003016931,新規,0,2026-01-13,2026-01-13,合同会社Ｐｏｔａｌａ,,合同会社,神奈川県,横須賀市,大矢部４丁目３５番１３号,,14,201,2380024,,,,,,,2026-01-13,1,,,,,ポタラ,0
2799,9021003016980,新規,0,2026-01-13,2026-01-13,合同会社ＢｉｚＥｓｔ,,合同会社,神奈川県,相模原市緑区,東橋本２丁目１９番１８号ライフコア橋本１０３,,14,151,2520144,,,,,,,2026-01-13,1,,,,,ビズエスト,0
2805,9030001170509,新規,0,2026-01-13,2026-01-13,株式会社匠羽,,株式会社,埼玉県,川口市,大字赤井５０９番地の７,,11,203,3340073,,,,,,,2026-01-13,1,,,,,ショウハ,0
2806,9030001170517,新規,0,2026-01-13,2026-01-13,ショーマ建機株式会社,,株式会社,埼玉県,川口市,元郷６丁目１１番９号,,11,203,3320011,,,,,,,2026-01-13,1,,,,,ショーマケンキ,0
2807,9030001170525,新規,0,2026-01-13,2026-01-13,株式会社吉田自動車,,株式会社,埼玉県,さいたま市緑区,大字中野田１４０７番地,,11,109,3360972,,,,,,,2026-01-13,1,,,,,ヨシダジドウシャ,0
2808,9030001170533,新規,0,2026-01-13,2026-01-13,株式会社加賀内装,,株式会社,埼玉県,春日部市,藤塚１２９７番地１３,,11,214,3440011,,,,,,,2026-01-13,1,,,,,カガナイソウ,0
2811,9030003028399,新規,0,2026-01-13,2026-01-13,合同会社Ｅｎｂｅｅｄ,,合同会社,埼玉県,川越市,脇田本町２－２コスモウエスト３階,,11,201,3501123,,,,,,,2026-01-13,1,,,,,エンビード,0
2819,9040001142011,新規,0,2026-01-13,2026-01-13,株式会社ＢＬＥＳＳ,,株式会社,千葉県,白井市,大山口２丁目４番３棟４０１号,,12,232,2701434,,,,,,,2026-01-13,1,,,,,ブレス,0
2820,9040001142036,新規,0,2026-01-13,2026-01-13,株式会社トムズ・ワーカーズ,,株式会社,千葉県,習志野市,袖ケ浦４丁目２番４－２号,,12,216,2750021,,,,,,,2026-01-13,1,,,,,トムズワーカーズ,0
2821,9040001142069,新規,0,2026-01-13,2026-01-13,株式会社上総トラスト商事,,株式会社,千葉県,市原市,山田橋１丁目６番地８メゾン田村１Ｆ,,12,219,2900021,,,,,,,2026-01-13,1,,,,,カズサトラストショウジ,0
2823,9040003029207,新規,0,2026-01-13,2026-01-13,合同会社昂衛,,合同会社,千葉県,我孫子市,我孫子１８６１,,12,222,2701166,,,,,,,2026-01-13,1,,,,,コウエイ,0
2824,9040003029256,新規,0,2026-01-13,2026-01-13,恵インターナショナルジャパン合同会社,,合同会社,千葉県,山武市,松尾町高富２３４２番地２４,,12,237,2891522,,,,,,,2026-01-13,1,,,,,メグミインターナショナルジャパン,0
2825,9040003029280,新規,0,2026-01-13,2026-01-13,合同会社２０１９,,合同会社,千葉県,千葉市中央区,富士見１丁目１４番１３号千葉大栄ビル８階,,12,101,2600015,,,,,,,2026-01-13,1,,,,,ニーゼロイチキュー,0
2830,9050001057844,新規,0,2026-01-13,2026-01-13,株式会社和梨,,株式会社,茨城県,結城郡八千代町,大字沼森１１９６番地１,,08,521,3003525,,,,,,,2026-01-13,1,,,,,ワナシ,0
2831,9050001057852,新規,0,2026-01-13,2026-01-13,オーシーアシスト株式会社,,株式会社,茨城県,つくば市,国松１４８７番地,,08,220,3004354,,,,,,,2026-01-13,1,,,,,オーシーアシスト,0
2832,9050003009868,新規,0,2026-01-13,2026-01-13,合同会社ひかりえ,,合同会社,茨城県,筑西市,玉戸１５９６－２８,,08,227,3080847,,,,,,,2026-01-13,1,,,,,ヒカリエ,0
2842,9070001043719,新規,0,2026-01-13,2026-01-13,株式会社湯浅園芸,,株式会社,群馬県,高崎市,南大類町９６３番地,,10,202,3700036,,,,,,,2026-01-13,1,,,,,ユアサエンゲイ,0
2844,9080005007751,新規,0,2026-01-13,2026-01-13,税理士法人吉田アカウンティング,,その他の設立登記法人,静岡県,焼津市,東小川８丁目１１番地の１８,,22,212,4250035,,,,,,,2026-01-13,1,,,,,ヨシダアカウンティング,0
2845,9080101026011,新規,0,2026-01-13,2026-01-13,株式会社光進,,株式会社,静岡県,三島市,谷田５８９番地,,22,206,4110801,,,,,,,2026-01-13,1,,,,,コウシン,0
2854,9100001039259,新規,0,2026-01-13,2026-01-13,株式会社作,,株式会社,長野県,長野市,神楽橋７５番地７３,,20,201,3810053,,,,,,,2026-01-13,1,,,,,ザク,0
2857,9110001039836,新規,0,2026-01-13,2026-01-13,株式会社近藤菜園,,株式会社,新潟県,新潟市北区,濁川１丁目１番７８号,,15,101,9503131,,,,,,,2026-01-13,1,,,,,コンドウサイエン,0
2858,9110001039844,新規,0,2026-01-13,2026-01-13,株式会社オオバサワ外装,,株式会社,新潟県,新潟市秋葉区,新津本町４丁目１３番２９号,,15,105,9560864,,,,,,,2026-01-13,1,,,,,オオバサワガイソウ,0
2860,9110003006017,新規,0,2026-01-13,2026-01-13,ＭＩＢＥＬ　Ｊａｐａｎ合同会社,,合同会社,新潟県,阿賀野市,勝屋９１８番地７２,,15,223,9591923,,,,,,,2026-01-13,1,,,,,ミベルジャパン,0
2870,9120001283292,新規,0,2026-01-13,2026-01-13,Ｒｉｋｉａｉ　Ｂｒｉｄｇｅ株式会社,,株式会社,大阪府,大阪市東成区,深江北１丁目３番５号２階５号室,,27,115,5370001,,,,,,,2026-01-13,1,,,,,リキアイブリッジ,0
2871,9120001283318,新規,0,2026-01-13,2026-01-13,ナインファイヤー株式会社,,株式会社,大阪府,大阪市浪速区,難波中３丁目７番１７－５０８号,,27,111,5560011,,,,,,,2026-01-13,1,,,,,ナインファイヤー,0
2872,9120001283441,新規,0,2026-01-13,2026-01-13,カルテック承継株式会社,,株式会社,大阪府,大阪市中央区,博労町３丁目３番７号,,27,128,5410059,,,,,,,2026-01-13,1,,,,,カルテックショウケイ,0
2876,9120101073057,新規,0,2026-01-13,2026-01-13,株式会社寺地工業,,株式会社,大阪府,堺市西区,浜寺昭和町１丁１６－２－１０２,,27,144,5928345,,,,,,,2026-01-13,1,,,,,テラチコウギョウ,0
2877,9120101073073,新規,0,2026-01-13,2026-01-13,株式会社ベックテック,,株式会社,大阪府,堺市中区,深井北町３３９３番地,,27,142,5998271,,,,,,,2026-01-13,1,,,,,ベックテック,0
2879,9120103006931,新規,0,2026-01-13,2026-01-13,ネクストウィズ合同会社,,合同会社,大阪府,堺市堺区,三国ヶ丘御幸通１番地２ケンスイビル５階Ａ号室,,27,141,5900028,,,,,,,2026-01-13,1,,,,,ネクストウィズ,0
2880,9120901052061,新規,0,2026-01-13,2026-01-13,株式会社ＥｔｅｒｎｏＳｏｒｇｅｎｔｅ,,株式会社,大阪府,三島郡島本町,桜井１丁目４番３号,,27,301,6180022,,,,,,,2026-01-13,1,,,,,エテルノソルジェンテ,0
2881,9120901052078,新規,0,2026-01-13,2026-01-13,Ｂｅ　Ａｒｃｈｉｔｅｃｔｓ株式会社,,株式会社,大阪府,吹田市,藤が丘町３４番１８号,,27,205,5640081,,,,,,,2026-01-13,1,,,,,ビーアーキテクツ,0
2884,9130001004210,新規,0,2026-01-13,2026-01-13,株式会社京都住研,,株式会社,京都府,京都市上京区,上立売通堀川西入芝薬師町６１４番地,,26,102,6028421,,,,,,,2026-01-13,1,,,,,キョウトジュウケン,0
2885,9130001081373,新規,0,2026-01-13,2026-01-13,株式会社ワイケイテラパス,,株式会社,京都府,京都市中京区,蛸薬師通烏丸東入一蓮社町３００番地パームビル３０５号室,,26,104,6048146,,,,,,,2026-01-13,1,,,,,ワイケイテラパス,0
2886,9130001081381,新規,0,2026-01-13,2026-01-13,株式会社インターアクティブ,,株式会社,京都府,京都市上京区,千本通出水下る十四軒町４０５番地ルミエール聚楽３０２号,,26,102,6028164,,,,,,,2026-01-13,1,,,,,インターアクティブ,0
2887,9130003011056,新規,0,2026-01-13,2026-01-13,合同会社ＦＯＲ　ＹＯＵ,,合同会社,京都府,綴喜郡井手町,大字多賀小字宮ノ後１番地の１,,26,343,6100301,,,,,,,2026-01-13,1,,,,,フォーユー,0
2888,9130003011064,新規,0,2026-01-13,2026-01-13,平野合同会社,,合同会社,京都府,木津川市,山城町綺田外高島４７番地１０,,26,214,6190201,,,,,,,2026-01-13,1,,,,,ヒラノ,0
2892,9140001141259,新規,0,2026-01-13,2026-01-13,株式会社めぐみ,,株式会社,兵庫県,加古川市,平岡町土山５９８番地の５,,28,210,6750104,,,,,,,2026-01-13,1,,,,,メグミ,0
2904,9180001170147,新規,0,2026-01-13,2026-01-13,株式会社アンビシオン,,株式会社,愛知県,名古屋市西区,上小田井２丁目１７３番地コーポハンター４０１号,,23,104,4520821,,,,,,,2026-01-13,1,,,,,アンビシオン,0
2905,9180001170163,新規,0,2026-01-13,2026-01-13,株式会社マインスペース,,株式会社,愛知県,津島市,立込町２丁目７０番地１スカイム津島１Ｂ,,23,208,4960044,,,,,,,2026-01-13,1,,,,,マインスペース,0
2906,9180001170171,新規,0,2026-01-13,2026-01-13,株式会社タマオガーデン,,株式会社,愛知県,丹羽郡扶桑町,大字高木字白山前４１５番地,,23,362,4800107,,,,,,,2026-01-13,1,,,,,タマオガーデン,0
2907,9180001170205,新規,0,2026-01-13,2026-01-13,株式会社ラテラル,,株式会社,愛知県,小牧市,常普請３丁目１０４番地１,,23,219,4850044,,,,,,,2026-01-13,1,,,,,ラテラル,0
2908,9180001170221,新規,0,2026-01-13,2026-01-13,株式会社ＯＲＣＡ,,株式会社,愛知県,一宮市,三ツ井１丁目１１番１６－２号,,23,203,4910827,,,,,,,2026-01-13,1,,,,,オルカ,0
2910,9180003029572,新規,0,2026-01-13,2026-01-13,合同会社Ｒｅｉｖｅｎ,,合同会社,愛知県,名古屋市北区,新堀町２５番地の３ＮＡＧＯＹＡｔｈｅＣＡＮＡＬ１０１号室,,23,103,4620801,,,,,,,2026-01-13,1,,,,,レイヴン,0
2914,9180301040586,新規,0,2026-01-13,2026-01-13,株式会社Ｄｅｖｉｃｅ,,株式会社,愛知県,岡崎市,福岡町字天白１２番地２コンフォートエイト２０１,,23,202,4440825,,,,,,,2026-01-13,1,,,,,デバイス,0
2915,9190001032809,新規,0,2026-01-13,2026-01-13,株式会社ダビンチコネクト,,株式会社,三重県,四日市市,西新地７番３号,,24,202,5100087,,,,,,,2026-01-13,1,,,,,ダビンチコネクト,0
2916,9190001032817,新規,0,2026-01-13,2026-01-13,株式会社Ｏｆｆｉｃｅ　ＫＩＳ,,株式会社,三重県,津市,安濃町清水９７,,24,201,5142305,,,,,,,2026-01-13,1,,,,,オフィスケーアイエス,0
2920,9200001044604,新規,0,2026-01-13,2026-01-13,株式会社とりやす,,株式会社,岐阜県,中津川市,太田町２丁目５番３１号,,21,206,5080033,,,,,,,2026-01-13,1,,,,,トリヤス,0
2924,9210001020455,新規,0,2026-01-13,2026-01-13,株式会社ニシデエステート,,株式会社,福井県,福井市,飯塚町第７号３５番地１,,18,201,9188067,,,,,,,2026-01-13,1,,,,,ニシデエステート,0
2927,9240001066000,新規,0,2026-01-13,2026-01-13,株式会社エイシャカン,,株式会社,広島県,広島市中区,大手町３丁目１２番２号,,34,101,7300051,,,,,,,2026-01-13,1,,,,,エイシャカン,0
2928,9240001066025,新規,0,2026-01-13,2026-01-13,隅田農園株式会社,,株式会社,広島県,庄原市,川手町３５１番地,,34,210,7270005,,,,,,,2026-01-13,1,,,,,スミダノウエン,0
2931,9240003007547,新規,0,2026-01-13,2026-01-13,ＣＡＲＯＬＩＮＥ　ＴＲＡＤＥ合同会社,,合同会社,広島県,広島市南区,翠２丁目６番２０－４０３号,,34,103,7340005,,,,,,,2026-01-13,1,,,,,キャロライントレード,0
2932,9240003007555,新規,0,2026-01-13,2026-01-13,合名会社ヤマサキ,,合名会社,広島県,広島市佐伯区,美鈴が丘西５丁目１２番１０号,,34,108,7315114,,,,,,,2026-01-13,1,,,,,ヤマサキ,0
2937,9260003005482,新規,0,2026-01-13,2026-01-13,合同会社エフフード,,合同会社,岡山県,岡山市北区,十日市中町２番３９－２号メゾン純２０８,,33,101,7000855,,,,,,,2026-01-13,1,,,,,エフフード,0
2947,9290001112682,新規,0,2026-01-13,2026-01-13,株式会社２十,,株式会社,福岡県,福岡市南区,野多目４丁目４番１８号,,40,134,8111347,,,,,,,2026-01-13,1,,,,,ニジュウ,0
2948,9290001112724,新規,0,2026-01-13,2026-01-13,株式会社Ｉｋｅ　Ｐａｚ,,株式会社,福岡県,福岡市西区,壱岐団地１４４番４号,,40,135,8190042,,,,,,,2026-01-13,1,,,,,アイクパズ,0
2949,9290001112732,新規,0,2026-01-13,2026-01-13,株式会社ＲＥＩＮＥ,,株式会社,福岡県,福岡市中央区,薬院２丁目１８番２７－５０５号,,40,133,8100022,,,,,,,2026-01-13,1,,,,,レーヌ,0
2959,9290801032163,新規,0,2026-01-13,2026-01-13,マイロジコム株式会社,,株式会社,福岡県,築上郡上毛町,大字八ツ並１４番地８,,40,646,8710903,,,,,,,2026-01-13,1,,,,,マイロジコム,0
2960,9290801032171,新規,0,2026-01-13,2026-01-13,勝山工業株式会社,,株式会社,福岡県,田川市,大字弓削田３１０１番地２,,40,206,8260041,,,,,,,2026-01-13,1,,,,,カツヤマコウギョウ,0
2963,9300003002401,新規,0,2026-01-13,2026-01-13,合同会社Ｌｉｎｋ,,合同会社,佐賀県,佐賀市,水ヶ江２丁目５番１９－１１０１号,,41,201,8400054,,,,,,,2026-01-13,1,,,,,リンク,0
3006,9310001019917,新規,0,2026-01-13,2026-01-13,ＴＯＭＯ　Ｌｉｆｅ株式会社,,株式会社,長崎県,佐世保市,ひうみ町１３１５番地１７６,,42,202,8571167,,,,,,,2026-01-13,1,,,,,トモライフ,0
3014,9330001033908,新規,0,2026-01-13,2026-01-13,株式会社フォレストスケープ,,株式会社,熊本県,葦北郡芦北町,大字芦北２５９３番地１,00142121,43,482,8695461,,,,,,,2026-01-13,1,,,,,フォレストスケープ,0
3015,9330003011374,新規,0,2026-01-13,2026-01-13,合同会社ＨＡＩＲ　ＬＩＦＥ１５,,合同会社,熊本県,熊本市中央区,帯山８丁目６番３８号ソレジオ帯山１０３,,43,101,8620924,,,,,,,2026-01-13,1,,,,,ヘアーライフイチゴ,0
3022,9370003007435,新規,0,2026-01-13,2026-01-13,Ｔｅａｍｓ　Ａｉ合同会社,,合同会社,宮城県,仙台市泉区,高森５丁目１９番２号,,04,105,9813203,,,,,,,2026-01-13,1,,,,,チームスエーアイ,0
3029,9380001035800,新規,0,2026-01-13,2026-01-13,株式会社グッドスピードジャパン,,株式会社,福島県,石川郡石川町,大字双里字白坂下２５番地３,,07,501,9637808,,,,,,,2026-01-13,1,,,,,グッドスピードジャパン,0
3041,9430005015388,新規,0,2026-01-13,2026-01-13,ａｉ行政書士法人,,その他の設立登記法人,北海道,札幌市中央区,南九条西１７丁目２番２４号,,01,101,0640809,,,,,,,2026-01-13,1,,,,,アイ,0
3042,9440003001744,新規,0,2026-01-13,2026-01-13,合同会社ＢＡＳＥ,,合同会社,北海道,北斗市,常盤１丁目５番５号,,01,236,0490171,,,,,,,2026-01-13,1,,,,,ベース,0
3050,9700150133909,新規,0,2026-01-13,2026-01-13,Ｙｕｎｉｓｅｋｏ　Ｐｔｅ　Ｌｔｄ,,外国会社等,,,,,,,,２　Ｔａｎｎｅｒｙ　Ｒｏａｄ，♯０１－０１　Ｃｅｎｃｏｎ　Ｂｕｉｌｄｉｎｇ　Ｓｉｎｇａｐｏｒｅ,,,,,,2026-01-13,1,,,,,ユニセコピーテイーイーリミテツド,0
