sequenceNumber,corporateNumber,process,correct,updateDate,changeDate,name,nameImageId,kind,prefectureName,cityName,streetNumber,addressImageId,prefectureCode,cityCode,postCode,addressOutside,addressOutsideImageId,closeDate,closeCause,successorCorporateNumber,changeCause,assignmentDate,latest,enName,enPrefectureName,enCityName,enAddressOutside,furigana,hihyoji
2,1010001202337,登記記録の閉鎖等,0,2023-10-02,2023-09-25,株式会社イディアフィットネス,,株式会社,東京都,千代田区,鍛冶町１丁目４番７号７階,,13,101,1010044,,,2023-09-25,合併による解散等,9010401064122,令和５年９月２５日東京都千代田区鍛冶町一丁目４番７号７階株式会社イディア（9010401064122）に合併し解散,2019-07-17,1,,,,,イディアフィットネス,0
48,1011103010999,登記記録の閉鎖等,0,2023-10-02,2023-09-26,合同会社Ｗｅｌｆａｒｅ,,合同会社,東京都,新宿区,新宿１丁目３６番２号,,13,104,1600022,,,2023-09-26,清算の結了等,,,2021-09-09,1,,,,,ウェルフェア,0
59,1012303001160,登記記録の閉鎖等,0,2023-10-02,2023-09-27,合同会社アシッドハウスサービス,,合同会社,東京都,町田市,旭町１丁目１９番３号グリーンファーム丸屋１０３,,13,209,1940023,,,2023-09-27,清算の結了等,,,2018-06-07,1,,,,,アシッドハウスサービス,0
66,1020002000623,登記記録の閉鎖等,0,2023-10-02,2023-09-25,有限会社長瀬生花,,有限会社,神奈川県,横浜市栄区,飯島町４３１番地１０,,14,115,2440842,,,2023-09-25,清算の結了等,,,2015-10-05,1,,,,,ナガセセイカ,0
73,1030001117797,登記記録の閉鎖等,0,2023-10-02,2023-09-06,株式会社ナチュラル・ウインド,,株式会社,埼玉県,さいたま市西区,宮前町６３３番地１３,,11,101,3310046,,,2023-09-06,清算の結了等,,,2016-12-21,1,,,,,ナチュラルウインド,0
107,1080102017545,登記記録の閉鎖等,0,2023-10-02,2023-09-28,有限会社フクショー,,有限会社,静岡県,富士宮市,杉田１１３３番地の２１,,22,207,4180021,,,2023-09-28,清算の結了等,,,2015-10-05,1,,,,,フクショー,0
114,1120001044883,登記記録の閉鎖等,0,2023-10-02,2023-09-14,大鋼工業株式会社,,株式会社,大阪府,大阪市西区,南堀江２丁目１番３号,,27,106,5500015,,,2023-09-14,清算の結了等,,,2023-05-08,1,,,,,,0
136,1140002066818,登記記録の閉鎖等,0,2023-10-02,2023-09-27,有限会社ケイズハウス,,有限会社,兵庫県,宝塚市,寿町７番５号,,28,214,6650865,,,2023-09-27,清算の結了等,,,2015-10-05,1,,,,,ケイズハウス,0
152,1180005006073,登記記録の閉鎖等,0,2023-10-02,2023-09-28,名鉄タクシーグループ交通共済協同組合,,その他の設立登記法人,愛知県,名古屋市中川区,西日置２丁目３番５号,,23,110,4540004,,,2023-09-28,清算の結了等,,,2015-10-05,1,,,,,メイテツタクシーグループコウツウキョウサイ,0
154,1180302007559,登記記録の閉鎖等,0,2023-10-02,2023-09-29,有限会社佐原園,,有限会社,愛知県,豊橋市,東七根町字篭田１５３番地の２,,23,201,4413201,,,2023-09-29,清算の結了等,,,2015-10-05,1,,,,,,0
155,1180302013144,登記記録の閉鎖等,0,2023-10-02,2023-09-20,有限会社琥珀,,有限会社,愛知県,豊川市,野口町道下５番地,,23,207,4420851,,,2023-09-20,清算の結了等,,,2015-10-05,1,,,,,コハク,0
158,1180303001230,登記記録の閉鎖等,0,2023-10-02,2023-09-21,合資会社後藤時計店,,合資会社,愛知県,豊橋市,呉服町５０番地,,23,201,4400804,,,2023-09-21,清算の結了等,,,2015-10-05,1,,,,,ゴトウトケイテン,0
186,1290002033233,登記記録の閉鎖等,0,2023-10-02,2023-09-19,有限会社香力団地波多江牧場,,有限会社,福岡県,糸島市,香力８９９番地の８,,40,230,8191147,,,2023-09-19,清算の結了等,,,2015-10-05,1,,,,,コウリキダンチハタエボクジョウ,0
188,1290003006213,登記記録の閉鎖等,0,2023-10-02,2023-09-21,合同会社Ｇｅｅ　Ｕｐ,,合同会社,福岡県,福岡市東区,箱崎ふ頭３丁目４番２０号,,40,131,8120051,,,2023-09-21,清算の結了等,,,2016-01-06,1,,,,,ジーアップ,0
190,1290801013071,登記記録の閉鎖等,0,2023-10-02,2023-09-27,ロケットサービス株式会社,,株式会社,福岡県,北九州市八幡東区,清田２丁目４番１２号,,40,108,8050034,,,2023-09-27,清算の結了等,,,2015-10-05,1,,,,,ロケットサービス,0
194,1330002023171,登記記録の閉鎖等,0,2023-10-02,2023-10-02,株式会社ヤリミズ建装,,株式会社,熊本県,阿蘇郡小国町,大字宮原５７９番地の１７,,43,424,8692501,,,2023-10-02,清算の結了等,,,2015-10-05,1,,,,,ヤリミズケンソウ,0
207,1390002001907,登記記録の閉鎖等,0,2023-10-02,2023-09-28,有限会社東都電設,,有限会社,山形県,山形市,飯塚町２０３４番地,,06,201,9900845,,,2023-09-28,清算の結了等,,,2015-10-05,1,,,,,トウトデンセツ,0
211,1420001004725,登記記録の閉鎖等,0,2023-10-02,2023-09-25,株式会社メディカルフットケア青森,,株式会社,青森県,青森市,浜田１丁目１３番地１５ＴＡＰ浜田ビル,,02,201,0300843,,,2023-09-25,清算の結了等,,,2015-10-05,1,,,,,メディカルフットケアアオモリ,0
242,2010003031915,登記記録の閉鎖等,0,2023-10-02,2023-09-22,合同会社エーエムシー,,合同会社,東京都,中央区,八丁堀４丁目４番５号,,13,102,1040032,,,2023-09-22,清算の結了等,,,2020-03-18,1,,,,,エーエムシー,0
265,2010803003097,登記記録の閉鎖等,0,2023-10-02,2023-09-28,合同会社Ｇｒｅｅｎ,,合同会社,東京都,大田区,萩中１丁目１０番２０号,,13,111,1440047,,,2023-09-28,清算の結了等,,,2019-08-23,1,,,,,グリーン,0
277,2011101050996,登記記録の閉鎖等,0,2023-10-02,2023-09-12,株式会社シーチェック,,株式会社,東京都,港区,港南２丁目１６番１号,,13,103,1080075,,,2023-09-12,清算の結了等,,,2015-10-05,1,,,,,シーチェック,0
293,2012301001525,登記記録の閉鎖等,0,2023-10-02,2023-09-26,株式会社環設計研究所,00057717,株式会社,東京都,町田市,小山町５５５番地７,,13,209,1940212,,,2023-09-26,清算の結了等,,,2015-10-05,1,,,,,カンセッケイケンキュウジョ,0
295,2012302004725,登記記録の閉鎖等,0,2023-10-02,2023-09-25,有限会社水木重機,,有限会社,東京都,町田市,森野４丁目５番１５号,,13,209,1940022,,,2023-09-25,清算の結了等,,,2015-10-05,1,,,,,ミズキジュウキ,0
296,2012302005450,登記記録の閉鎖等,0,2023-10-02,2023-09-22,有限会社マルマサプランニング,,有限会社,東京都,町田市,玉川学園８丁目９番８号,,13,209,1940041,,,2023-09-22,清算の結了等,,,2015-10-05,1,,,,,マルマサプランニング,0
297,2012401003487,登記記録の閉鎖等,0,2023-10-02,2023-09-22,株式会社青木電機,,株式会社,東京都,立川市,曙町２丁目３２番１４号セレナハイム立川スクエアコート１００３号,00106679,13,202,1900012,,,2023-09-22,清算の結了等,,,2015-10-05,1,,,,,アオキデンキ,0
298,2012403005911,登記記録の閉鎖等,0,2023-10-02,2023-09-27,吉祥武蔵野合同会社,,合同会社,東京都,武蔵野市,吉祥寺本町１丁目１３番２号５階,,13,203,1800004,,,2023-09-27,清算の結了等,,,2023-03-31,1,,,,,キチジョウムサシノ,0
301,2012702001256,登記記録の閉鎖等,0,2023-10-02,2023-09-28,有限会社寺川総合事務所,,有限会社,東京都,小平市,花小金井２丁目１２番１８号,,13,211,1870002,,,2023-09-28,清算の結了等,,,2015-10-05,1,,,,,テラカワソウゴウジムショ,0
304,2012802010842,登記記録の閉鎖等,0,2023-10-02,2023-09-22,有限会社いしん,,有限会社,東京都,立川市,幸町３丁目３１－１３ОМＩビル１０１,,13,202,1900002,,,2023-09-22,清算の結了等,,,2015-10-05,1,,,,,イシン,0
316,2020002075474,登記記録の閉鎖等,0,2023-10-02,2023-09-25,有限会社ｆ－ＥＡＳＴ,,有限会社,神奈川県,横浜市旭区,今宿東町１４７４番地,,14,112,2410032,,,2023-09-25,清算の結了等,,,2015-10-05,1,,,,,エフイースト,0
324,2021002015692,登記記録の閉鎖等,0,2023-10-02,2023-09-22,有限会社ミカサ,,有限会社,神奈川県,鎌倉市,由比ガ浜４丁目４番３７－３号,,14,204,2480014,,,2023-09-22,合併による解散等,3021001009199,令和５年８月１日神奈川県鎌倉市大船三丁目１番５号湘南パーキング株式会社（3021001009199）に合併し解散,2015-10-05,1,,,,,ミカサ,0
332,2030002031195,登記記録の閉鎖等,0,2023-10-02,2023-09-06,有限会社マサキ,,有限会社,埼玉県,所沢市,大字山口１０７０番地の３９,,11,208,3591145,,,2023-09-06,清算の結了等,,,2015-10-05,1,,,,,マサキ,0
357,2060005001671,登記記録の閉鎖等,0,2023-10-02,2023-09-22,特定非営利活動法人わかば,,その他の設立登記法人,栃木県,真岡市,根本３３０番地２号,,09,209,3214311,,,2023-09-22,清算の結了等,,,2015-10-05,1,,,,,ワカバ,0
371,2080402001792,登記記録の閉鎖等,0,2023-10-02,2023-09-28,有限会社岡本食品,,有限会社,静岡県,浜松市西区,坪井町１５５９番地の１４,,22,133,4310202,,,2023-09-28,清算の結了等,,,2015-10-05,1,,,,,オカモトショクヒン,0
375,2100002037128,登記記録の閉鎖等,0,2023-10-02,2023-09-21,有限会社日置,,有限会社,長野県,飯田市,下殿岡７１７番地４,,20,205,3950154,,,2023-09-21,清算の結了等,,,2015-10-05,1,,,,,ヒオキ,0
384,2120001222463,登記記録の閉鎖等,0,2023-10-02,2023-09-27,Ｔｏｐ　ｎｅｔｗｏｒｋ株式会社,,株式会社,大阪府,大阪市城東区,野江３丁目２６番１１－１０１号,,27,118,5360006,,,2023-09-27,清算の結了等,,,2019-07-17,1,,,,,トップネットワーク,0
386,2120001228502,登記記録の閉鎖等,0,2023-10-02,2023-09-28,株式会社エイトワン,,株式会社,大阪府,大阪市此花区,梅香３丁目３２番１号２０２号室,,27,104,5540013,,,2023-09-28,清算の結了等,,,2020-04-10,1,,,,,エイトワン,0
424,2180001019284,登記記録の閉鎖等,0,2023-10-02,2023-09-25,株式会社木下商会,,株式会社,愛知県,名古屋市中川区,島井町６１２番地,,23,110,4540974,,,2023-09-25,清算の結了等,,,2023-07-31,1,,,,,キノシタショウカイ,0
427,2180001102701,登記記録の閉鎖等,0,2023-10-02,2023-09-28,株式会社ＴＲＣ,,株式会社,愛知県,名古屋市西区,新木町３０番地,,23,104,4520836,,,2023-09-28,清算の結了等,,,2015-10-05,1,,,,,ティーアールシー,0
442,2200001028596,登記記録の閉鎖等,0,2023-10-02,2023-09-28,ミルテール株式会社,,株式会社,岐阜県,岐阜市,日野南８丁目１２番３号,,21,201,5008212,,,2023-09-28,清算の結了等,,,2015-10-05,1,,,,,ミルテール,0
458,2270001007098,登記記録の閉鎖等,0,2023-10-02,2023-09-29,株式会社つやこー,,株式会社,鳥取県,鳥取市,湖山町西３丁目５３１番地７,,31,201,6800947,,,2023-09-29,清算の結了等,,,2016-11-14,1,,,,,ツヤコー,0
462,2290001084152,登記記録の閉鎖等,0,2023-10-02,2023-09-15,株式会社イッツスタイルビューティー,,株式会社,福岡県,福岡市博多区,博多駅前２丁目１９番１７号トーカン博多第５ビル３１２号室,,40,132,8120011,,,2023-09-15,清算の結了等,,,2019-02-07,1,,,,,イッツスタイルビューティー,0
469,2290801019497,登記記録の閉鎖等,0,2023-10-02,2023-09-26,株式会社クリエイトＫ,,株式会社,福岡県,北九州市八幡西区,熊手３丁目３番３号,,40,109,8060028,,,2023-09-26,清算の結了等,,,2015-10-05,1,,,,,,0
487,2390001011443,登記記録の閉鎖等,0,2023-10-02,2023-09-26,ヤマニ住建株式会社,,株式会社,山形県,西置賜郡白鷹町,大字荒砥甲１００４番地,,06,402,9920831,,,2023-09-26,清算の結了等,,,2015-10-05,1,,,,,ヤマニジュウケン,0
489,2420002009383,登記記録の閉鎖等,0,2023-10-02,2023-09-26,有限会社八幡アルミ工業,,有限会社,青森県,三戸郡南部町,大字麦沢字家ノ向１７番地の１,,02,445,0390803,,,2023-09-26,清算の結了等,,,2015-10-05,1,,,,,ヤワタアルミコウギョウ,0
491,2430001065724,登記記録の閉鎖等,0,2023-10-02,2023-09-14,株式会社山本建築工業,,株式会社,北海道,札幌市白石区,北郷五条５丁目５番４号,,01,104,0030835,,,2023-09-14,清算の結了等,,,2015-10-05,1,,,,,ヤマモトケンチクコウギョウ,0
497,2460102002895,登記記録の閉鎖等,0,2023-10-02,2023-09-28,有限会社文秀堂,,有限会社,北海道,帯広市,東九条南８丁目１番地１２,,01,207,0800809,,,2023-09-28,清算の結了等,,,2015-10-05,1,,,,,ブンシュウドウ,0
505,2700150027852,登記記録の閉鎖等,0,2023-10-02,2023-06-23,兵庫労働局厚生会,,その他,兵庫県,神戸市中央区,東川崎町１丁目１－３神戸クリスタルタワー１４階,,28,110,6500044,,,2023-06-23,その他の清算の結了等,,,2015-10-09,1,,,,,ヒヨウゴロウドウキヨクコウセイカイ,0
506,2700150046258,登記記録の閉鎖等,0,2023-10-02,2023-03-31,浜松市母子寡婦福祉会,,その他,静岡県,浜松市東区,有玉西町１２７０,,22,132,4313123,,,2023-03-31,その他の清算の結了等,,,2015-10-09,1,,,,,ハママツシボシカフフクシカイ,0
507,2700150105583,登記記録の閉鎖等,0,2023-10-02,2023-05-29,なかはらワークショップ,,その他,東京都,新宿区,新宿７丁目３－４２古山様方,,13,104,1600022,,,2023-05-29,その他の清算の結了等,,,2021-11-02,1,,,,,ナカハラワークシヨツプ,0
526,3010002011512,登記記録の閉鎖等,0,2023-10-02,2023-09-22,有限会社スモール,,有限会社,東京都,千代田区,飯田橋２丁目１４番５号,,13,101,1020072,,,2023-09-22,清算の結了等,,,2015-10-05,1,,,,,スモール,0
527,3010003022178,登記記録の閉鎖等,0,2023-10-02,2023-09-22,プライムソーラー志布志合同会社,,合同会社,東京都,中央区,日本橋堀留町１丁目１１番地４号パルサービル４階,,13,102,1030012,,,2023-09-22,清算の結了等,,,2015-10-05,1,,,,,プライムソーラーシブシ,0
548,3010701043624,登記記録の閉鎖等,0,2023-10-02,2023-09-15,ｆｒｅｅｅｖｅｎｔ株式会社,,株式会社,東京都,品川区,大崎１丁目２番２号,,13,109,1410032,,,2023-09-15,清算の結了等,,,2023-02-01,1,,,,,フリーベント,0
576,3011401014642,登記記録の閉鎖等,0,2023-10-02,2023-09-27,株式会社スタジオ．ケイワン,,株式会社,東京都,板橋区,赤塚新町３丁目８番１４号,00065771,13,119,1750093,,,2023-09-27,清算の結了等,,,2015-10-05,1,,,,,スタジオケイワン,0
601,3021002045805,登記記録の閉鎖等,0,2023-10-02,2023-09-20,有限会社吉武商事,00013506,有限会社,神奈川県,海老名市,上郷１丁目１７番３０号,,14,215,2430434,,,2023-09-20,清算の結了等,,,2015-10-05,1,,,,,ヨシタケショウジ,0
614,3030002020239,登記記録の閉鎖等,0,2023-10-02,2023-09-07,有限会社太晃,,有限会社,埼玉県,さいたま市南区,大字円正寺５１１番地１９,,11,108,3360043,,,2023-09-07,清算の結了等,,,2015-10-05,1,,,,,ダイコウ,0
624,3050001012607,登記記録の閉鎖等,0,2023-10-02,2023-09-25,つくばサービス株式会社,,株式会社,茨城県,土浦市,乙戸７０８番地２,,08,203,3000844,,,2023-09-25,清算の結了等,,,2015-10-05,1,,,,,ツクバサービス,0
643,3120001034486,登記記録の閉鎖等,0,2023-10-02,2023-09-28,株式会社オオサキ,,株式会社,大阪府,大阪市福島区,吉野３丁目２７番６号,,27,103,5530006,,,2023-09-28,清算の結了等,,,2015-10-05,1,,,,,オオサキ,0
650,3120001245001,登記記録の閉鎖等,0,2023-10-02,2023-09-27,コトモ株式会社,,株式会社,大阪府,大阪市西成区,南津守６丁目８番２６号,,27,122,5570063,,,2023-09-27,清算の結了等,,,2022-04-06,1,,,,,コトモ,0
662,3130001018249,登記記録の閉鎖等,0,2023-10-02,2023-09-20,ジャパンエール株式会社,,株式会社,京都府,京都市中京区,猪熊通姉小路下る姉猪熊町３２３番地１サンシャイン京都３０３号,,26,104,6048324,,,2023-09-20,清算の結了等,,,2015-10-05,1,,,,,ジャパンエール,0
669,3130003003653,登記記録の閉鎖等,0,2023-10-02,2023-09-15,合同会社マエダクラス,,合同会社,京都府,京都市伏見区,日野田頬町４５番地２５,00047965,26,109,6011424,,,2023-09-15,清算の結了等,,,2015-10-05,1,,,,,マエダクラス,0
699,3220001006839,登記記録の閉鎖等,0,2023-10-02,2023-09-28,株式会社タス,,株式会社,石川県,金沢市,新保本５丁目８０番地,,17,201,9218062,,,2023-09-28,清算の結了等,,,2015-10-05,1,,,,,タス,0
705,3240001042477,登記記録の閉鎖等,0,2023-10-02,2023-09-27,ＫＩＺＵＮＡ株式会社,,株式会社,広島県,福山市,木之庄町４丁目５番２５号,,34,207,7200082,,,2023-09-27,清算の結了等,,,2015-10-05,1,,,,,キズナ,0
715,3290002036432,登記記録の閉鎖等,0,2023-10-02,2023-09-21,有限会社坂田運送,,有限会社,福岡県,糟屋郡宇美町,四王寺坂１丁目１３番５号,,40,341,8112103,,,2023-09-21,清算の結了等,,,2015-10-05,1,,,,,,0
729,3370005004031,登記記録の閉鎖等,0,2023-10-02,2023-09-22,特定非営利活動法人ひまわりの会,,その他の設立登記法人,宮城県,仙台市宮城野区,日の出町３丁目７番８号,,04,102,9830035,,,2023-09-22,清算の結了等,,,2015-10-05,1,,,,,ヒマワリノカイ,0
735,3400002009046,登記記録の閉鎖等,0,2023-10-02,2023-09-22,有限会社アイアイ,,有限会社,岩手県,北上市,黒沢尻２丁目２番２３号,,03,206,0240022,,,2023-09-22,清算の結了等,,,2015-10-05,1,,,,,アイアイ,0
737,3410001009376,登記記録の閉鎖等,0,2023-10-02,2023-09-25,株式会社アグリ創研,,株式会社,秋田県,潟上市,天王字追分西９４番地２,,05,211,0100101,,,2023-09-25,清算の結了等,,,2015-10-05,1,,,,,アグリソウケン,0
738,3420002019167,登記記録の閉鎖等,0,2023-10-02,2023-09-25,有限会社ＦＰ防災設備,,有限会社,青森県,上北郡六戸町,大字犬落瀬字柴山２番地１４８,,02,405,0392371,,,2023-09-25,清算の結了等,,,2015-10-05,1,,,,,エフピーボウサイセツビ,0
739,3430001011594,登記記録の閉鎖等,0,2023-10-02,2023-09-14,アスカトーホク印刷株式会社,,株式会社,北海道,札幌市東区,北九条東１６丁目１番２０号,,01,103,0650009,,,2023-09-14,清算の結了等,,,2015-10-05,1,,,,,アスカトーホクインサツ,0
740,3430001044520,登記記録の閉鎖等,0,2023-10-02,2023-09-25,すまぃる株式会社,,株式会社,北海道,恵庭市,和光町４丁目８番２０号,,01,231,0611406,,,2023-09-25,清算の結了等,,,2015-10-05,1,,,,,スマィル,0
748,3430005012614,登記記録の閉鎖等,0,2023-10-02,2023-09-14,ルスツメンテナンス協同組合,,その他の設立登記法人,北海道,虻田郡留寿都村,字留寿都４５番地１７,,01,397,0481731,,,2023-09-14,清算の結了等,,,2015-10-05,1,,,,,ルスツメンテナンス,0
758,3700150115664,削除,,2023-10-02,,,,,,,,,,,,,,,,,,,,,,,,,
780,4010001194423,登記記録の閉鎖等,0,2023-10-02,2023-09-25,マルペロリーシング株式会社,,株式会社,東京都,千代田区,丸の内１丁目３番２号,,13,101,1000005,,,2023-09-25,清算の結了等,,,2018-08-29,1,,,,,マルペロリーシング,0
837,4011601022485,登記記録の閉鎖等,0,2023-10-02,2023-09-29,株式会社イーエクステート,,株式会社,東京都,渋谷区,渋谷２丁目２２番７号新生ビル６０１,,13,113,1500002,,,2023-09-29,清算の結了等,,,2018-04-11,1,,,,,イーエクステート,0
838,4011705001476,登記記録の閉鎖等,0,2023-10-02,2023-09-19,一般社団法人ＮＲＢ　ＪＡＰＡＮ,,その他の設立登記法人,東京都,江戸川区,西葛西６丁目１８番８－２０５号,,13,123,1340088,,,2023-09-19,清算の結了等,,,2017-08-07,1,,,,,,0
854,4020001144591,登記記録の閉鎖等,0,2023-10-02,2023-09-25,ＴＳ企画株式会社,,株式会社,神奈川県,横浜市緑区,鴨居４丁目７６番１３号イプシロン４０５号,,14,113,2260003,,,2023-09-25,清算の結了等,,,2022-01-06,1,,,,,ティーエスキカク,0
860,4021001017234,登記記録の閉鎖等,0,2023-10-02,2023-09-20,株式会社エム,,株式会社,神奈川県,相模原市緑区,二本松１丁目２番５号,,14,151,2520137,,,2023-09-20,清算の結了等,,,2015-10-05,1,,,,,エム,0
885,4060001004833,登記記録の閉鎖等,0,2023-10-02,2023-09-29,株式会社ヤマハチ冷蔵,,株式会社,徳島県,徳島市,中常三島町３丁目１４番２２号,,36,201,7700813,,,2023-09-29,清算の結了等,,,2015-10-05,1,,,,,ヤマハチレイゾウ,0
896,4090002013797,登記記録の閉鎖等,0,2023-10-02,2023-09-27,有限会社ｈｕｇｅｆｉｒｍ,,有限会社,山梨県,韮崎市,穴山町３６０１番地の６,,19,207,4070263,,,2023-09-27,清算の結了等,,,2015-10-05,1,,,,,ヒュージファーム,0
897,4100001001454,登記記録の閉鎖等,0,2023-10-02,2023-09-20,清水石材株式会社,,株式会社,長野県,長野市,松代町松代７５２番地１,,20,201,3811231,,,2023-09-20,清算の結了等,,,2015-10-05,1,,,,,シミズセキザイ,0
900,4100002017557,登記記録の閉鎖等,0,2023-10-02,2023-09-21,岳北ハイヤー有限会社,,有限会社,長野県,下高井郡木島平村,大字往郷１９番地の８,,20,562,3892302,,,2023-09-21,清算の結了等,,,2015-10-05,1,,,,,ガクホクハイヤー,0
904,4110002024973,登記記録の閉鎖等,0,2023-10-02,2023-09-28,有限会社藤巻学習社,,有限会社,新潟県,妙高市,田町１丁目２番５号,,15,217,9440031,,,2023-09-28,清算の結了等,,,2015-10-05,1,,,,,フジマキガクシュウシャ,0
931,4140001121703,登記記録の閉鎖等,0,2023-10-02,2023-09-28,株式会社アサヤ,,株式会社,大阪府,大阪市浪速区,難波中２丁目７番７,,27,111,5560011,,,2023-09-28,清算の結了等,,,2021-05-26,1,,,,,アサヤ,0
936,4180001100711,登記記録の閉鎖等,0,2023-10-02,2023-09-27,株式会社イノ美創,,株式会社,愛知県,あま市,森６丁目１１番地１３,,23,237,4901107,,,2023-09-27,清算の結了等,,,2015-10-05,1,,,,,イノビソウ,0
941,4180005001930,登記記録の閉鎖等,0,2023-10-02,2023-09-07,天理教明坂分教会,,その他の設立登記法人,愛知県,名古屋市名東区,香坂５２７番地,,23,115,4650007,,,2023-09-07,合併による解散等,9180005008913,令和５年９月７日愛知県瀬戸市城ケ根町７番地１天理教浪越分教会（9180005008913）に合併し解散,2015-10-05,1,,,,,テンリキョウアカサカブンキョウカイ,0
944,4200002012804,登記記録の閉鎖等,0,2023-10-02,2023-09-28,有限会社大真商事,,有限会社,岐阜県,大垣市,昼飯町２０１５番地,,21,202,5032216,,,2023-09-28,清算の結了等,,,2015-10-05,1,,,,,ダイシンショウジ,0
945,4240001042476,登記記録の閉鎖等,0,2023-10-02,2023-09-27,地域のすまいる株式会社,,株式会社,広島県,福山市,木之庄町４丁目５番２５号,,34,207,7200082,,,2023-09-27,清算の結了等,,,2015-10-05,1,,,,,チイキノスマイル,0
954,4290001025443,登記記録の閉鎖等,0,2023-10-02,2023-09-21,株式会社プントウーノ,,株式会社,福岡県,福岡市南区,大楠３丁目２１番５号,,40,134,8150082,,,2023-09-21,清算の結了等,,,2015-10-05,1,,,,,プントウーノ,0
955,4290001036093,登記記録の閉鎖等,0,2023-10-02,2023-09-21,株式会社アジェンテ,,株式会社,福岡県,福岡市東区,箱崎３丁目７番１１－２０１号,,40,131,8120053,,,2023-09-21,清算の結了等,,,2015-10-05,1,,,,,アジェンテ,0
964,4290802000181,登記記録の閉鎖等,0,2023-10-02,2023-09-29,アイエス商事有限会社,,有限会社,福岡県,北九州市小倉南区,北方３丁目５３番１３号,,40,107,8020841,,,2023-09-29,清算の結了等,,,2015-10-05,1,,,,,アイエスショウジ,0
965,4320002001472,登記記録の閉鎖等,0,2023-10-02,2023-09-29,有限会社大在給食センター,,有限会社,大分県,大分市,横塚２丁目５番５５号,,44,201,8700254,,,2023-09-29,清算の結了等,,,2015-10-05,1,,,,,,0
984,4370501000771,登記記録の閉鎖等,0,2023-10-02,2023-09-27,株式会社気仙沼行場商店,,株式会社,宮城県,気仙沼市,弁天町２丁目６番２０号,,04,205,9880036,,,2023-09-27,清算の結了等,,,2015-10-05,1,,,,,ギョウバショウテン,0
986,4380001009172,登記記録の閉鎖等,0,2023-10-02,2023-09-26,株式会社ＫＡＷＡＳＨＩＭＡ,,株式会社,福島県,郡山市,方八町１丁目１番３９号,,07,203,9638811,,,2023-09-26,清算の結了等,,,2015-10-05,1,,,,,カワシマ,0
994,4430001027598,登記記録の閉鎖等,0,2023-10-02,2023-09-20,ニューライフ警備保障株式会社,,株式会社,北海道,札幌市清田区,平岡二条４丁目３番５号,,01,110,0040872,,,2023-09-20,合併による解散等,4430003008621,令和５年９月２０日札幌市清田区平岡二条四丁目３番５号ライトコーポレーション合同会社（4430003008621）に合併し解散,2015-10-05,1,,,,,ニューライフケイビホショウ,0
1001,4470005000911,登記記録の閉鎖等,0,2023-10-02,2023-09-27,高松エルピーガス販売協同組合,,その他の設立登記法人,香川県,高松市,朝日町４丁目２３番１号,,37,201,7600065,,,2023-09-27,清算の結了等,,,2015-10-05,1,,,,,タカマツエルピーガスハンバイ,0
1017,5010001197103,登記記録の閉鎖等,0,2023-10-02,2023-09-15,株式会社Ｍｏｏｎｄｕｓｔ,,株式会社,東京都,中央区,銀座６丁目１３番１６号銀座ＷａｌｌビルＵＣＦ５０１,,13,102,1040061,,,2023-09-15,合併による解散等,6120001241088,令和５年９月１日大阪市中央区北新町２－８Ｔ．Ｄビル４階株式会社ＢＥＬＴＡ（6120001241088）に合併し解散,2018-12-13,1,,,,,ムーンダスト,0
1018,5010001200709,登記記録の閉鎖等,0,2023-10-02,2023-09-27,はつくら株式会社,,株式会社,東京都,台東区,鳥越２丁目１２番１３－１００１号グランシティ鳥越,,13,106,1110054,,,2023-09-27,清算の結了等,,,2019-05-14,1,,,,,ハツクラ,0
1026,5010005027834,登記記録の閉鎖等,0,2023-10-02,2023-09-28,指宿ソーラー一般社団法人,,その他の設立登記法人,東京都,千代田区,丸の内３丁目１番１号東京共同会計事務所内,,13,101,1000005,,,2023-09-28,清算の結了等,,,2017-12-07,1,,,,,イブスキソーラー,0
1049,5010801027021,登記記録の閉鎖等,0,2023-10-02,2023-09-29,株式会社ＲＥＭ,,株式会社,東京都,目黒区,上目黒１丁目１０番４号,,13,110,1530051,,,2023-09-29,清算の結了等,,,2016-09-02,1,,,,,アールイーエム,0
1051,5010902004976,登記記録の閉鎖等,0,2023-10-02,2023-09-25,有限会社クリエイティブ・アソシエイツ,,有限会社,東京都,世田谷区,世田谷４丁目６番１０号,,13,112,1540017,,,2023-09-25,清算の結了等,,,2015-10-05,1,,,,,クリエイティブアソシエイツ,0
1064,5011101097688,登記記録の閉鎖等,0,2023-10-02,2023-09-28,株式会社ＬＩＦＥ,,株式会社,東京都,新宿区,榎町３５番地三四郎ビル５Ｆ,,13,104,1620806,,,2023-09-28,清算の結了等,,,2022-02-03,1,,,,,ライフ,0
1067,5011201000015,登記記録の閉鎖等,0,2023-10-02,2023-09-27,株式会社アイエヌ,,株式会社,東京都,武蔵野市,吉祥寺南町３丁目４番１３号ＮａｋａｎｏＨｏｕｓｅ,,13,203,1800003,,,2023-09-27,清算の結了等,,,2015-10-05,1,,,,,アイエヌ,0
1070,5011301005896,登記記録の閉鎖等,0,2023-10-02,2023-09-25,株式会社美技,,株式会社,東京都,杉並区,方南２丁目９番１号,,13,115,1680062,,,2023-09-25,清算の結了等,,,2015-10-05,1,,,,,,0
1094,5012703001401,登記記録の閉鎖等,0,2023-10-02,2023-09-19,宮地企画合同会社,,合同会社,福岡県,大野城市,川久保１丁目１番２２号,,40,219,8160905,,,2023-09-19,清算の結了等,,,2017-01-11,1,,,,,ミヤジキカク,0
1099,5013405000088,登記記録の閉鎖等,0,2023-10-02,2023-09-28,医療法人社団浩全会,,その他の設立登記法人,東京都,多摩市,落合４丁目９番３号,,13,224,2060033,,,2023-09-28,清算の結了等,,,2015-10-05,1,,,,,コウゼンカイ,0
1115,5021002013586,登記記録の閉鎖等,0,2023-10-02,2023-09-22,有限会社松野技研,,有限会社,神奈川県,茅ヶ崎市,今宿７８１番地の９,,14,207,2530072,,,2023-09-22,清算の結了等,,,2015-10-05,1,,,,,マツノギケン,0
1124,5030001138914,登記記録の閉鎖等,0,2023-10-02,2023-09-05,株式会社貴船鉄工企画,,株式会社,埼玉県,春日部市,小渕３２１番地１０,,11,214,3440007,,,2023-09-05,清算の結了等,,,2020-10-23,1,,,,,キフネテッコウキカク,0
1132,5030003013033,登記記録の閉鎖等,0,2023-10-02,2023-09-01,合同会社パラサイト,,合同会社,埼玉県,さいたま市桜区,道場２丁目１番１－３５１号,,11,106,3380835,,,2023-09-01,合併による解散等,2030001117136,令和５年９月１日さいたま市桜区道場二丁目１番１－３５１号株式会社アンバーウェブ（2030001117136）に合併し解散,2019-02-08,1,,,,,パラサイト,0
1139,5040002012951,登記記録の閉鎖等,0,2023-10-02,2023-09-15,有限会社ジャ・バァ・トレーディング,,有限会社,千葉県,千葉市花見川区,花園２丁目１０番１９号,,12,102,2620025,,,2023-09-15,清算の結了等,,,2015-10-05,1,,,,,ジャバァトレーディング,0
1142,5050001011375,登記記録の閉鎖等,0,2023-10-02,2023-09-20,イセファーム株式会社,,株式会社,茨城県,小美玉市,小岩戸字西峰１９７１番１,,08,236,3190107,,,2023-09-20,合併による解散等,8370201002412,令和５年９月１日宮城県加美郡色麻町黒沢字切付７番地の１０イセファーム東北株式会社（8370201002412）に合併し解散,2015-10-05,1,,,,,イセファーム,0
1158,5100002029015,登記記録の閉鎖等,0,2023-10-02,2023-09-20,有限会社ミドリヤ呉服店,,有限会社,長野県,諏訪市,諏訪２丁目１番２号,,20,206,3920004,,,2023-09-20,清算の結了等,,,2015-10-05,1,,,,,ミドリヤゴフクテン,0
1168,5120002043666,登記記録の閉鎖等,0,2023-10-02,2023-09-27,有限会社フェニックスプラス大阪,,有限会社,兵庫県,川辺郡猪名川町,白金３丁目１２番地１０,,28,301,6660257,,,2023-09-27,清算の結了等,,,2015-10-05,1,,,,,フェニックスプラスオオサカ,0
1199,5180301036984,登記記録の閉鎖等,0,2023-10-02,2023-09-21,株式会社ＮＯＭＵＲＡ　ＨＵＭＡＮ　ＡＧＥＮＣＹ,,株式会社,愛知県,安城市,今池町１丁目２２番１０号,,23,212,4460071,,,2023-09-21,清算の結了等,,,2023-01-13,1,,,,,ノムラヒューマンエージェンシー,0
1202,5210002000798,登記記録の閉鎖等,0,2023-10-02,2023-09-25,有限会社岡田鉄工,,有限会社,福井県,福井市,上野本町第１５号１６番地,,18,201,9100134,,,2023-09-25,清算の結了等,,,2015-10-05,1,,,,,オカダテッコウ,0
1203,5240001040941,登記記録の閉鎖等,0,2023-10-02,2023-09-28,名栄工業株式会社,,株式会社,広島県,竹原市,吉名町４９２３番地の１２,,34,203,7250013,,,2023-09-28,清算の結了等,,,2015-10-05,1,,,,,ミョウエイコウギョウ,0
1211,5260005001021,登記記録の閉鎖等,0,2023-10-02,2023-09-28,岡山県温室園芸農業協同組合,,その他の設立登記法人,岡山県,岡山市南区,藤田５６６番地１２６,,33,104,7010221,,,2023-09-28,清算の結了等,,,2015-10-05,1,,,,,オカヤマケンオンシツエンゲイノウギョウ,0
1226,5340005002003,登記記録の閉鎖等,0,2023-10-02,2023-09-29,恵比須漁業生産組合,,その他の設立登記法人,鹿児島県,日置市,東市来町伊作田１６４６番地４,,46,216,8992203,,,2023-09-29,清算の結了等,,,2015-10-05,1,,,,,エビスギョギョウ,0
1227,5350002008514,登記記録の閉鎖等,0,2023-10-02,2023-09-28,有限会社アスター,,有限会社,宮崎県,宮崎市,丸山２丁目３１番地,,45,201,8800052,,,2023-09-28,清算の結了等,,,2015-10-05,1,,,,,アスター,0
1228,5350002013209,登記記録の閉鎖等,0,2023-10-02,2023-09-27,有限会社新成,,有限会社,宮崎県,延岡市,出北１丁目２８番３号,,45,203,8820856,,,2023-09-27,清算の結了等,,,2015-10-05,1,,,,,シンセイ,0
1236,5360005006365,登記記録の閉鎖等,0,2023-10-02,2023-09-15,一般社団法人ＥＴＥＲＮＡＬ・ＰＯＩＮＴ,,その他の設立登記法人,沖縄県,宜野湾市,真栄原２丁目３－８ミルコマンション真栄原スカイルーク１３０２,,47,205,9012215,,,2023-09-15,清算の結了等,,,2021-02-15,1,,,,,エターナルポイント,0
1243,5380002032180,登記記録の閉鎖等,0,2023-10-02,2023-09-26,有限会社鈴鹿機械製作所,,有限会社,福島県,会津若松市,日新町１７番３８号,,07,202,9650861,,,2023-09-26,清算の結了等,,,2015-10-05,1,,,,,スズカキカイセイサクショ,0
1245,5400002008244,登記記録の閉鎖等,0,2023-10-02,2023-09-21,平興業有限会社,,有限会社,岩手県,花巻市,松園町１丁目４番６２号,,03,205,0250066,,,2023-09-21,清算の結了等,,,2015-10-05,1,,,,,タイラコウギョウ,0
1267,6010001026599,登記記録の閉鎖等,0,2023-10-02,2023-08-18,株式会社パピルス,,株式会社,埼玉県,狭山市,狭山台３丁目８番地の１３,,11,215,3501304,,,2023-08-18,清算の結了等,,,2015-10-05,1,,,,,パピルス,0
1299,6010601039125,登記記録の閉鎖等,0,2023-10-02,2023-09-25,ボーディング株式会社,,株式会社,東京都,江東区,豊洲４丁目９番１３－１０５４号,,13,108,1350061,,,2023-09-25,清算の結了等,,,2015-10-05,1,,,,,ボーディング,0
1301,6010601052169,登記記録の閉鎖等,0,2023-10-02,2023-09-25,株式会社Ｐａｔｒｉｏｔ,,株式会社,東京都,墨田区,錦糸１丁目２番１号アルカセントラル１４Ｆ,,13,107,1300013,,,2023-09-25,清算の結了等,,,2017-09-08,1,,,,,パトリオット,0
1315,6011101059472,登記記録の閉鎖等,0,2023-10-02,2023-09-28,株式会社市川嘉彦事務所,,株式会社,東京都,新宿区,箪笥町９番地,00065131,13,104,1620833,,,2023-09-28,清算の結了等,,,2015-10-05,1,,,,,イチカワヨシヒコジムショ,0
1341,6020003000576,登記記録の閉鎖等,0,2023-10-02,2023-09-25,合同会社釜屋商店,,合同会社,神奈川県,横浜市神奈川区,西神奈川３丁目１１６番地８,,14,102,2210822,,,2023-09-25,清算の結了等,,,2015-10-05,1,,,,,カマヤショウテン,0
1359,6040001054473,登記記録の閉鎖等,0,2023-10-02,2023-09-13,株式会社百花苑,,株式会社,千葉県,市原市,青柳２丁目８番地１１,,12,219,2990102,,,2023-09-13,清算の結了等,,,2015-10-05,1,,,,,,0
1360,6040001067005,登記記録の閉鎖等,0,2023-10-02,2023-09-14,株式会社風沢商店,,株式会社,千葉県,我孫子市,緑１丁目４番１４号,,12,222,2701153,,,2023-09-14,清算の結了等,,,2015-10-05,1,,,,,フウサワショウテン,0
1390,6100002013166,登記記録の閉鎖等,0,2023-10-02,2023-09-20,有限会社しなの企画,,有限会社,長野県,北佐久郡軽井沢町,大字長倉８番地５０,,20,321,3890111,,,2023-09-20,清算の結了等,,,2015-10-05,1,,,,,シナノキカク,0
1392,6120001012943,登記記録の閉鎖等,0,2023-10-02,2023-09-20,田中織縫製株式会社,,株式会社,大阪府,大阪市東成区,中本１丁目５番１０号,,27,115,5370022,,,2023-09-20,清算の結了等,,,2015-10-05,1,,,,,タナカオリホウセイ,0
1411,6140001001011,登記記録の閉鎖等,0,2023-10-02,2023-09-28,株式会社アリス,,株式会社,兵庫県,神戸市東灘区,住吉山手６丁目９番１７号,,28,101,6580063,,,2023-09-28,清算の結了等,,,2015-10-05,1,,,,,アリス,0
1425,6180001118066,登記記録の閉鎖等,0,2023-10-02,2023-09-28,株式会社ファーストステージ,,株式会社,愛知県,名古屋市千種区,萱場２丁目１４番２５号,,23,101,4640086,,,2023-09-28,清算の結了等,,,2015-10-05,1,,,,,ファーストステージ,0
1427,6180002029502,登記記録の閉鎖等,0,2023-10-02,2023-09-28,有限会社六反サービス社,,有限会社,愛知県,名古屋市中村区,中村本町１丁目５番地,,23,105,4530828,,,2023-09-28,清算の結了等,,,2015-10-05,1,,,,,ロクタンサービスシャ,0
1428,6180002054021,登記記録の閉鎖等,0,2023-10-02,2023-09-28,有限会社丸田コーポレーション,,有限会社,愛知県,名古屋市中村区,森田町１丁目６番２号,,23,105,4530036,,,2023-09-28,清算の結了等,,,2015-10-05,1,,,,,マルタコーポレーション,0
1429,6180002054070,登記記録の閉鎖等,0,2023-10-02,2023-09-26,有限会社ケイズユニオン,,有限会社,愛知県,名古屋市守山区,天子田２丁目１２１７番地,,23,113,4630037,,,2023-09-26,清算の結了等,,,2015-10-05,1,,,,,ケイズユニオン,0
1431,6180002076255,登記記録の閉鎖等,0,2023-10-02,2023-09-27,有限会社栗本空調,,有限会社,愛知県,一宮市,多加木５丁目１６番７号,,23,203,4910837,,,2023-09-27,清算の結了等,,,2015-10-05,1,,,,,クリモトクウチョウ,0
1434,6180301036983,登記記録の閉鎖等,0,2023-10-02,2023-09-21,株式会社ゲートキーパー,,株式会社,愛知県,西尾市,羽塚町稲荷山６番地３６,,23,213,4440316,,,2023-09-21,清算の結了等,,,2023-01-17,1,,,,,ゲートキーパー,0
1437,6190001025930,登記記録の閉鎖等,0,2023-10-02,2023-09-28,株式会社フュージョン,,株式会社,三重県,伊賀市,下柘植６９７番地,,24,216,5191412,,,2023-09-28,清算の結了等,,,2018-10-12,1,,,,,フュージョン,0
1443,6200002005310,登記記録の閉鎖等,0,2023-10-02,2023-09-29,有限会社和新都観光,,有限会社,岐阜県,岐阜市,加納水野町１丁目２９番地,,21,201,5008477,,,2023-09-29,清算の結了等,,,2015-10-05,1,,,,,ワシントカンコウ,0
1444,6200002012612,登記記録の閉鎖等,0,2023-10-02,2023-09-28,有限会社三景,,有限会社,岐阜県,大垣市,八島町２４１７番地,,21,202,5030016,,,2023-09-28,清算の結了等,,,2015-10-05,1,,,,,サンケイ,0
1446,6210002013114,登記記録の閉鎖等,0,2023-10-02,2023-09-22,竹内産業有限会社,,有限会社,福井県,鯖江市,杉本町３５号１１０番地,,18,207,9160005,,,2023-09-22,合併による解散等,6210001013057,令和５年９月２１日福井県鯖江市杉本町３５号１５０番地１竹内光学工業株式会社（6210001013057）に合併し解散,2015-10-05,1,,,,,タケウチサンギョウ,0
1457,6290001029731,登記記録の閉鎖等,0,2023-10-02,2023-09-14,株式会社三友工業,,株式会社,福岡県,福岡市東区,多の津４丁目８番１号,,40,131,8130034,,,2023-09-14,清算の結了等,,,2015-10-05,1,,,,,ミトモコウギョウ,0
1458,6290001037494,登記記録の閉鎖等,0,2023-10-02,2023-09-21,株式会社レックス,,株式会社,福岡県,古賀市,新久保１丁目２番１０号,,40,223,8113118,,,2023-09-21,清算の結了等,,,2015-10-05,1,,,,,,0
1476,6380001016423,登記記録の閉鎖等,0,2023-10-02,2023-09-28,株式会社アート,,株式会社,福島県,双葉郡大熊町,大字大川原字西平１３１８番地の１,,07,545,9791306,,,2023-09-28,清算の結了等,,,2015-10-05,1,,,,,アート,0
1482,6430001040979,登記記録の閉鎖等,0,2023-10-02,2023-09-15,株式会社アイズ工房,,株式会社,北海道,札幌市厚別区,厚別北二条２丁目１２番１３号,,01,108,0040072,,,2023-09-15,清算の結了等,,,2015-10-05,1,,,,,アイズコウボウ,0
1484,6430001078615,登記記録の閉鎖等,0,2023-10-02,2023-09-15,株式会社Ｊ－Ｗｏｒｋｓ,,株式会社,北海道,札幌市清田区,清田二条２丁目１２番１３号,,01,110,0040842,,,2023-09-15,清算の結了等,,,2019-04-02,1,,,,,ジェイワークス,0
1506,7010001122249,登記記録の閉鎖等,0,2023-10-02,2023-09-11,新技術開発株式会社,,株式会社,東京都,港区,西新橋２丁目３４番８号,,13,103,1050003,,,2023-09-11,清算の結了等,,,2015-10-05,1,,,,,シンギジュツカイハツ,0
1516,7010002008430,登記記録の閉鎖等,0,2023-10-02,2023-09-22,小幡商事有限会社,,有限会社,東京都,千代田区,内神田３丁目５番２号,,13,101,1010047,,,2023-09-22,清算の結了等,,,2015-10-05,1,,,,,オバタショウジ,0
1545,7010802001089,登記記録の閉鎖等,0,2023-10-02,2023-09-28,有限会社ハナ・マーケット東京,,有限会社,東京都,大田区,東海２丁目２番１号,,13,111,1430001,,,2023-09-28,清算の結了等,,,2015-10-05,1,,,,,ハナマーケットトウキョウ,0
1576,7013402001616,登記記録の閉鎖等,0,2023-10-02,2023-09-21,有限会社ワイズ・エステート,,有限会社,東京都,日野市,豊田４丁目３７番地の１２,,13,212,1910053,,,2023-09-21,清算の結了等,,,2015-10-05,1,,,,,,0
1585,7020002057385,登記記録の閉鎖等,0,2023-10-02,2023-09-22,ケイ・エイチ・エス有限会社,,有限会社,神奈川県,横浜市港南区,日野９丁目１番１７号メゾン港南台５０３号,,14,111,2340051,,,2023-09-22,清算の結了等,,,2015-10-05,1,,,,,ケイエイチエス,0
1590,7021001067409,登記記録の閉鎖等,0,2023-10-02,2023-09-11,湘南台商店株式会社,,株式会社,神奈川県,藤沢市,湘南台２丁目６番地の９－２０１,,14,205,2520804,,,2023-09-11,清算の結了等,,,2019-06-03,1,,,,,ショウナンダイショウテン,0
1593,7030001036430,登記記録の閉鎖等,0,2023-10-02,2023-09-25,株式会社ヤマキ,,株式会社,埼玉県,八潮市,大字鶴ケ曽根８１８番地８,,11,234,3400802,,,2023-09-25,清算の結了等,,,2015-10-05,1,,,,,ヤマキ,0
1608,7040002066293,登記記録の閉鎖等,0,2023-10-02,2023-09-11,有限会社川名商事,,有限会社,千葉県,木更津市,大和２丁目１番１０号,,12,206,2920805,,,2023-09-11,清算の結了等,,,2015-10-05,1,,,,,カワナショウジ,0
1612,7050002026536,登記記録の閉鎖等,0,2023-10-02,2023-09-25,有限会社シィアンドブイピクチャーズ,,有限会社,茨城県,鹿嶋市,港ケ丘１丁目１４番１６号,,08,222,3140011,,,2023-09-25,清算の結了等,,,2015-10-05,1,,,,,シィアンドブイピクチャーズ,0
1622,7080402007562,登記記録の閉鎖等,0,2023-10-02,2023-09-29,有限会社松本エンジニアリング,,有限会社,静岡県,浜松市南区,立野町２３４番地の１,,22,134,4300827,,,2023-09-29,清算の結了等,,,2015-10-05,1,,,,,マツモトエンジニアリング,0
1624,7100001008348,登記記録の閉鎖等,0,2023-10-02,2023-09-21,アポロプロデュース株式会社,,株式会社,長野県,小諸市,諸１丁目４番２３号,,20,208,3840043,,,2023-09-21,清算の結了等,,,2015-10-05,1,,,,,アポロプロデュース,0
1646,7130001006480,登記記録の閉鎖等,0,2023-10-02,2023-09-06,サン・ウッド株式会社,,株式会社,京都府,京都市左京区,吉田中阿達町８番地,,26,103,6068306,,,2023-09-06,清算の結了等,,,2015-10-05,1,,,,,サンウッド,0
1665,7180001050912,登記記録の閉鎖等,0,2023-10-02,2023-09-29,株式会社トーヨープリント,,株式会社,愛知県,名古屋市中川区,一色新町２丁目３１１番地,,23,110,4540946,,,2023-09-29,清算の結了等,,,2015-10-05,1,,,,,トーヨープリント,0
1672,7180002081997,登記記録の閉鎖等,0,2023-10-02,2023-09-26,有限会社タルユウ容器,,有限会社,愛知県,江南市,宮後町船渡５０番地の２,,23,217,4838044,,,2023-09-26,清算の結了等,,,2015-10-05,1,,,,,タルユウヨウキ,0
1675,7180301012513,登記記録の閉鎖等,0,2023-10-02,2023-09-20,株式会社心宝,,株式会社,愛知県,豊川市,上長山町小南口原７９番地,,23,207,4411202,,,2023-09-20,清算の結了等,,,2015-10-05,1,,,,,シンホウ,0
1676,7180301018907,登記記録の閉鎖等,0,2023-10-02,2023-09-20,株式会社豊田センチュリーホテル,,株式会社,愛知県,豊田市,柿本町３丁目３４番地,,23,211,4710855,,,2023-09-20,清算の結了等,,,2015-10-05,1,,,,,トヨタセンチュリーホテル,0
1678,7180302001226,登記記録の閉鎖等,0,2023-10-02,2023-09-19,有限会社児玉商会,,有限会社,愛知県,岡崎市,羽栗町字平松２８番地８,,23,202,4443514,,,2023-09-19,清算の結了等,,,2015-10-05,1,,,,,コダマショウカイ,0
1679,7180302003998,登記記録の閉鎖等,0,2023-10-02,2023-09-28,有限会社もがみ,,有限会社,愛知県,岡崎市,大門４丁目１７番地８,,23,202,4442135,,,2023-09-28,清算の結了等,,,2015-10-05,1,,,,,モガミ,0
1687,7260001001221,登記記録の閉鎖等,0,2023-10-02,2023-09-29,株式会社岡山中央広告社,,株式会社,岡山県,岡山市北区,表町３丁目２１番２１号,,33,101,7000822,,,2023-09-29,清算の結了等,,,2015-10-05,1,,,,,オカヤマチュウオウコウコクシャ,0
1721,7290805000630,登記記録の閉鎖等,0,2023-10-02,2023-09-29,医療法人小林医院,,その他の設立登記法人,福岡県,北九州市小倉南区,星和台１丁目１番８号,,40,107,8020973,,,2023-09-29,清算の結了等,,,2015-10-05,1,,,,,コバヤシイイン,0
1723,7310002010331,登記記録の閉鎖等,0,2023-10-02,2023-09-28,有限会社志田商店,,有限会社,長崎県,佐世保市,天神２丁目１９番３号,,42,202,8571174,,,2023-09-28,清算の結了等,,,2015-10-05,1,,,,,シダショウテン,0
1728,7350001000882,登記記録の閉鎖等,0,2023-10-02,2023-09-27,株式会社セイワ,,株式会社,宮崎県,宮崎市,大坪東３丁目１４番３８号,,45,201,8800934,,,2023-09-27,清算の結了等,,,2015-10-05,1,,,,,セイワ,0
1730,7350002009436,登記記録の閉鎖等,0,2023-10-02,2023-09-25,有限会社パインルート,,有限会社,宮崎県,西都市,大字三宅９３７５番地２,,45,208,8810005,,,2023-09-25,清算の結了等,,,2015-10-05,1,,,,,パインルート,0
1732,7360001010402,登記記録の閉鎖等,0,2023-10-02,2023-09-26,Ｊ・Ｃトンプソン株式会社,,株式会社,沖縄県,宜野湾市,大謝名２丁目６番３４号,,47,205,9012225,,,2023-09-26,清算の結了等,,,2015-10-05,1,,,,,ジェイシートンプソン,0
1755,7430003000162,登記記録の閉鎖等,0,2023-10-02,2023-09-21,合資会社向井,,合資会社,北海道,札幌市中央区,北二条西１３丁目１番地１０,,01,101,0600002,,,2023-09-21,清算の結了等,,,2023-06-06,1,,,,,ムカイ,0
1756,7440001007869,登記記録の閉鎖等,0,2023-10-02,2023-09-26,株式会社クレア,,株式会社,北海道,亀田郡七飯町,大川２丁目１７番５号,,01,337,0411122,,,2023-09-26,清算の結了等,,,2016-04-01,1,,,,,クレア,0
1758,7450002010474,登記記録の閉鎖等,0,2023-10-02,2023-09-27,有限会社廣富,,有限会社,北海道,上川郡剣淵町,仲町３３番７号,,01,465,0980338,,,2023-09-27,清算の結了等,,,2015-10-05,1,,,,,ヒロトミ,0
1780,8010001191499,登記記録の閉鎖等,0,2023-10-02,2023-09-22,株式会社キキリ,,株式会社,東京都,中央区,日本橋２丁目１番３号アーバンネット日本橋二丁目ビル１０Ｆ,,13,102,1030027,,,2023-09-22,清算の結了等,,,2018-05-02,1,,,,,キキリ,0
1819,8010602011163,登記記録の閉鎖等,0,2023-10-02,2023-09-27,コタケ機械有限会社,,有限会社,東京都,墨田区,亀沢４丁目２３番１５号,,13,107,1300014,,,2023-09-27,清算の結了等,,,2015-10-05,1,,,,,コタケキカイ,0
1823,8011001151781,登記記録の閉鎖等,0,2023-10-02,2023-07-25,ＬＩＶＥＳＭＩＬＥ株式会社,,株式会社,東京都,渋谷区,道玄坂１丁目１５番３号プリメーラ道玄坂４１５,,13,113,1500043,,,2023-07-25,清算の結了等,,,2023-01-06,1,,,,,リブスマイル,0
1829,8011101009525,登記記録の閉鎖等,0,2023-10-02,2023-09-26,株式会社ジュエル・ホワイティー,,株式会社,東京都,杉並区,荻窪４丁目１８番５号,,13,115,1670051,,,2023-09-26,清算の結了等,,,2015-10-05,1,,,,,ジュエルホワイティー,0
1837,8011501003689,登記記録の閉鎖等,0,2023-10-02,2023-09-25,株式会社日根製作所,,株式会社,東京都,北区,西ケ原４丁目３２番４号,,13,117,1140024,,,2023-09-25,清算の結了等,,,2015-10-05,1,,,,,ヒネセイサクショ,0
1856,8020001088950,登記記録の閉鎖等,0,2023-10-02,2023-09-22,インダス株式会社,,株式会社,神奈川県,横浜市南区,六ツ川２丁目７５番地の２８グリーンヒル弘明寺１０４号,,14,105,2320066,,,2023-09-22,清算の結了等,,,2015-10-05,1,,,,,インダス,0
1865,8021001046304,登記記録の閉鎖等,0,2023-10-02,2023-09-25,株式会社カマクラワークス,,株式会社,神奈川県,鎌倉市,材木座６丁目８４６番地２２,,14,204,2480013,,,2023-09-25,清算の結了等,,,2015-10-05,1,,,,,カマクラワークス,0
1877,8030001152292,登記記録の閉鎖等,0,2023-10-02,2023-09-05,株式会社英工業,,株式会社,埼玉県,幸手市,大字内国府間１４５－８,,11,240,3400103,,,2023-09-05,清算の結了等,,,2023-02-08,1,,,,,ハナブサコウギョウ,0
1882,8030002066582,登記記録の閉鎖等,0,2023-10-02,2023-09-06,有限会社坂上金物建築,,有限会社,埼玉県,志木市,下宗岡４丁目１７番３号,,11,228,3530003,,,2023-09-06,清算の結了等,,,2015-10-05,1,,,,,サカウエカナモノケンチク,0
1894,8050001009219,登記記録の閉鎖等,0,2023-10-02,2023-09-22,鈴翔建設株式会社,,株式会社,茨城県,土浦市,西根南３丁目４番３９号,,08,203,3000842,,,2023-09-22,清算の結了等,,,2015-10-05,1,,,,,スズショウケンセツ,0
1904,8080401020020,登記記録の閉鎖等,0,2023-10-02,2023-09-29,石新総業株式会社,,株式会社,静岡県,浜松市北区,引佐町金指８８０番地の３２,,22,135,4312213,,,2023-09-29,清算の結了等,,,2015-10-05,1,,,,,セキシンソウギョウ,0
1905,8080402000541,登記記録の閉鎖等,0,2023-10-02,2023-09-28,有限会社新井塗装店,,有限会社,静岡県,浜松市中区,和合北４丁目１２番１０号,,22,131,4338127,,,2023-09-28,清算の結了等,,,2015-10-05,1,,,,,アライトソウテン,0
1940,8130002013590,登記記録の閉鎖等,0,2023-10-02,2023-09-19,有限会社起廣プラン,,有限会社,京都府,京都市伏見区,桃山福島太夫南町６７番地６,,26,109,6120062,,,2023-09-19,清算の結了等,,,2015-10-05,1,,,,,キコウプラン,0
1950,8140002055079,登記記録の閉鎖等,0,2023-10-02,2023-09-27,有限会社オーディーエーワークス,,有限会社,兵庫県,神戸市灘区,大和町３丁目２番１２－９０９号,,28,102,6570031,,,2023-09-27,清算の結了等,,,2015-10-05,1,,,,,オーディーエーワークス,0
1951,8140002056597,登記記録の閉鎖等,0,2023-10-02,2023-09-26,有限会社三信商行,,有限会社,兵庫県,西宮市,和上町１番６号,,28,204,6620971,,,2023-09-26,清算の結了等,,,2015-10-05,1,,,,,サンシンショウコウ,0
1955,8180001092524,登記記録の閉鎖等,0,2023-10-02,2023-09-28,株式会社サムライズ,,株式会社,愛知県,大府市,森岡町２丁目３６３番地,,23,223,4740038,,,2023-09-28,清算の結了等,,,2015-10-05,1,,,,,サムライズ,0
1958,8180001111597,登記記録の閉鎖等,0,2023-10-02,2023-09-25,株式会社ｍｏｎｏｗｏｒｋｓ,,株式会社,愛知県,一宮市,千秋町浮野字中向得３０番５,,23,203,4910806,,,2023-09-25,合併による解散等,7180001111598,令和５年９月２５日愛知県一宮市神山一丁目１０番１号株式会社モワノー（7180001111598）に合併し解散,2015-10-05,1,,,,,モノワークス,0
1959,8180001118072,登記記録の閉鎖等,0,2023-10-02,2023-09-26,株式会社サヴァン,,株式会社,愛知県,一宮市,木曽川町黒田字北宿二の切７０番地,,23,203,4930001,,,2023-09-26,清算の結了等,,,2015-10-05,1,,,,,サヴァン,0
1961,8180002028816,登記記録の閉鎖等,0,2023-10-02,2023-09-28,有限会社ヒビキリネンサービス,,有限会社,愛知県,名古屋市中村区,並木２丁目２２番地,,23,105,4530856,,,2023-09-28,清算の結了等,,,2015-10-05,1,,,,,ヒビキリネンサービス,0
1965,8180005006728,登記記録の閉鎖等,0,2023-10-02,2023-09-26,特定非営利活動法人ハンドフロンティア,,その他の設立登記法人,愛知県,名古屋市千種区,法王町２丁目３番地の１（グランスイート覚王山法王町８０４号）,,23,101,4640057,,,2023-09-26,清算の結了等,,,2015-10-05,1,,,,,ハンドフロンティア,0
1971,8200001025844,登記記録の閉鎖等,0,2023-10-02,2023-09-27,株式会社豊河製作所,,株式会社,岐阜県,下呂市,萩原町羽根２６７５番地,,21,220,5092506,,,2023-09-27,清算の結了等,,,2015-10-05,1,,,,,トヨカワセイサクショ,0
1972,8200002011975,登記記録の閉鎖等,0,2023-10-02,2023-09-25,有限会社オーエス技研,,有限会社,岐阜県,羽島市,正木町大浦２９７３番地２,,21,209,5016224,,,2023-09-25,清算の結了等,,,2015-10-05,1,,,,,オーエスギケン,0
1975,8230003001584,登記記録の閉鎖等,0,2023-10-02,2023-09-28,合同会社さくらフォレストリー,,合同会社,富山県,富山市,八尾町小長谷２５１番地７,,16,201,9392321,,,2023-09-28,清算の結了等,,,2021-01-05,1,,,,,サクラフォレストリー,0
1988,8320002014685,登記記録の閉鎖等,0,2023-10-02,2023-09-28,有限会社福一水産,,有限会社,大分県,東国東郡姫島村,２１４８番地の１,,44,322,8721501,,,2023-09-28,清算の結了等,,,2015-10-05,1,,,,,,0
1996,8350002001417,登記記録の閉鎖等,0,2023-10-02,2023-09-25,有限会社串間企画,,有限会社,宮崎県,宮崎市,橘通東５丁目５番３２号,,45,201,8800805,,,2023-09-25,清算の結了等,,,2015-10-05,1,,,,,クシマキカク,0
2013,8430002054943,登記記録の閉鎖等,0,2023-10-02,2023-09-14,有限会社日勝工務店,,有限会社,北海道,小樽市,住吉町１３番２２号,,01,203,0470015,,,2023-09-14,清算の結了等,,,2015-10-05,1,,,,,ニッショウコウムテン,0
2037,9010001050084,登記記録の閉鎖等,0,2023-10-02,2023-09-26,株式会社為我井商事,,株式会社,東京都,中央区,日本橋蛎殻町１丁目２１番３号,,13,102,1030014,,,2023-09-26,清算の結了等,,,2015-10-05,1,,,,,タメガイショウジ,0
2058,9010401087346,登記記録の閉鎖等,0,2023-10-02,2023-09-27,株式会社リボン,,株式会社,東京都,渋谷区,神宮前６丁目１８番１号クレインズパーク８Ｆ,,13,113,1500001,,,2023-09-27,合併による解散等,4011001109338,令和５年９月２７日東京都渋谷区富ケ谷一丁目９番１６号２Ｆ株式会社アールアンドシー・カンパニー（4011001109338）に合併し解散,2015-10-05,1,,,,,リボン,0
2070,9010601058725,登記記録の閉鎖等,0,2023-10-02,2023-09-19,日本天然気株式会社,,株式会社,東京都,江東区,有明２丁目１番２号,,13,108,1350063,,,2023-09-19,清算の結了等,,,2021-01-29,1,,,,,ニホンテンネンキ,0
2098,9011802019631,登記記録の閉鎖等,0,2023-10-02,2023-09-27,有限会社八百留青果,,有限会社,東京都,足立区,鹿浜２丁目３０番２１号,,13,121,1230864,,,2023-09-27,清算の結了等,,,2015-10-05,1,,,,,ヤオトメエセイカ,0
2101,9012401014809,登記記録の閉鎖等,0,2023-10-02,2023-09-27,株式会社黒木工務店,,株式会社,東京都,狛江市,駒井町３丁目２６番５号,,13,219,2010016,,,2023-09-27,清算の結了等,,,2015-10-05,1,,,,,クロキコウムテン,0
2126,9040002095489,登記記録の閉鎖等,0,2023-10-02,2023-09-14,有限会社はつが屋,,有限会社,千葉県,柏市,高柳１５１４番地３１,,12,217,2770941,,,2023-09-14,清算の結了等,,,2015-10-05,1,,,,,ハツガヤ,0
2132,9050002013177,登記記録の閉鎖等,0,2023-10-02,2023-09-25,来栖商事有限会社,,有限会社,茨城県,稲敷郡美浦村,大字土浦１８９９番地,,08,442,3000404,,,2023-09-25,清算の結了等,,,2015-10-05,1,,,,,クルスショウジ,0
2135,9060001027598,登記記録の閉鎖等,0,2023-10-02,2023-09-22,スズキ建工株式会社,,株式会社,栃木県,宇都宮市,上籠谷町３５０９番地１,,09,201,3213233,,,2023-09-22,清算の結了等,,,2015-10-21,1,,,,,スズキケンコウ,0
2147,9100002030035,登記記録の閉鎖等,0,2023-10-02,2023-09-20,有限会社正英製作所,,有限会社,長野県,茅野市,玉川４８２８番地５,,20,214,3910011,,,2023-09-20,清算の結了等,,,2015-10-05,1,,,,,ショウエイセイサクジョ,0
2148,9100005011560,登記記録の閉鎖等,0,2023-10-02,2023-09-25,特定非営利活動法人大地,,その他の設立登記法人,長野県,上伊那郡辰野町,中央２２６番地１,,20,382,3990427,,,2023-09-25,清算の結了等,,,2015-10-05,1,,,,,ダイチ,0
2171,9140001060319,登記記録の閉鎖等,0,2023-10-02,2023-09-26,長尾食品株式会社,,株式会社,兵庫県,姫路市,延末２９５番地,,28,201,6700966,,,2023-09-26,清算の結了等,,,2015-10-05,1,,,,,,0
2182,9180001105037,登記記録の閉鎖等,0,2023-10-02,2023-09-27,株式会社ＤＨＳＩジャパン,,株式会社,愛知県,常滑市,古場町４丁目７４番地,,23,216,4790818,,,2023-09-27,清算の結了等,,,2015-10-05,1,,,,,ディーエイチエスアイジャパン,0
2196,9180302009085,登記記録の閉鎖等,0,2023-10-02,2023-09-20,有限会社ニプロン化成工業,,有限会社,愛知県,豊橋市,平川本町３丁目６番地３９,,23,201,4400038,,,2023-09-20,清算の結了等,,,2015-10-05,1,,,,,ニプロンカセイコウギョウ,0
2205,9240002043865,登記記録の閉鎖等,0,2023-10-02,2023-09-26,有限会社和田組,,有限会社,広島県,福山市,水呑町４８１８番地,,34,207,7200832,,,2023-09-26,清算の結了等,,,2015-10-05,1,,,,,ワダグミ,0
2213,9260002030853,登記記録の閉鎖等,0,2023-10-02,2023-09-29,有限会社野上工業,,有限会社,岡山県,勝田郡勝央町,黒土３４２番地,,33,622,7094312,,,2023-09-29,清算の結了等,,,2015-10-05,1,,,,,ノガミコウギョウ,0
2217,9280002009508,登記記録の閉鎖等,0,2023-10-02,2023-09-28,有限会社邑智興産,,有限会社,島根県,邑智郡美郷町,浜原８８番地,,32,448,6994701,,,2023-09-28,清算の結了等,,,2015-10-05,1,,,,,オオチコウサン,0
2227,9310001008507,登記記録の閉鎖等,0,2023-10-02,2023-09-27,株式会社カーライフ,,株式会社,長崎県,雲仙市,小浜町南本町２４番地第３,,42,213,8540513,,,2023-09-27,清算の結了等,,,2015-10-05,1,,,,,カーライフ,0
2228,9310003004140,登記記録の閉鎖等,0,2023-10-02,2023-09-27,合同会社南部クリーンサービス,,合同会社,長崎県,対馬市,上対馬町琴１２６番地２,,42,209,8172331,,,2023-09-27,清算の結了等,,,2021-08-18,1,,,,,ナンブクリーンサービス,0
2238,9350002009938,登記記録の閉鎖等,0,2023-10-02,2023-09-25,光洋通信有限会社,,有限会社,宮崎県,西都市,大字岩爪１４５９番地３,,45,208,8810106,,,2023-09-25,清算の結了等,,,2015-10-05,1,,,,,コウヨウツウシン,0
