sequenceNumber,corporateNumber,process,correct,updateDate,changeDate,name,nameImageId,kind,prefectureName,cityName,streetNumber,addressImageId,prefectureCode,cityCode,postCode,addressOutside,addressOutsideImageId,closeDate,closeCause,successorCorporateNumber,changeCause,assignmentDate,latest,enName,enPrefectureName,enCityName,enAddressOutside,furigana,hihyoji
11,1010005035667,新規,0,2022-10-14,2022-10-14,八王子特定目的会社,,その他の設立登記法人,東京都,千代田区,飯田橋４丁目７番１号結和税理士法人内,,13,101,1020072,,,,,,,2022-10-14,1,,,,,ハチオウジ,0
19,1010401170258,新規,0,2022-10-14,2022-10-14,株式会社興格,,株式会社,東京都,港区,赤坂２丁目２１番４天翔オフィス赤坂ＡＮＮＥＸ２０２号室,,13,103,1070052,,,,,,,2022-10-14,1,,,,,キョウカク,0
20,1010403028693,新規,0,2022-10-14,2022-10-14,ＳＴＡ．合同会社,,合同会社,東京都,港区,芝浦１丁目６番４１,,13,103,1050023,,,,,,,2022-10-14,1,,,,,エスティーエー,0
21,1010403028702,新規,0,2022-10-14,2022-10-14,合同会社Ｌｅ　Ｌｉｅｎ,,合同会社,東京都,港区,西麻布３丁目２番４４－３０２号ＣＵＢＥ六本木,,13,103,1060031,,,,,,,2022-10-14,1,,,,,ルリアン,0
22,1010403028727,新規,0,2022-10-14,2022-10-14,ＫＲ　Ｓｈｉｎｔｏｍｉ合同会社,,合同会社,東京都,港区,西新橋１丁目２２番５号６階,,13,103,1050003,,,,,,,2022-10-14,1,,,,,ケイアールシントミ,0
24,1010503006748,新規,0,2022-10-14,2022-10-14,Ｃｏｌｏｒｆｕｌ　Ｌｉｆｅ　Ｄｅｓｉｇｎ合同会社,,合同会社,東京都,台東区,浅草１丁目８番６－１１０６号ファミール浅草一丁目,,13,106,1110032,,,,,,,2022-10-14,1,,,,,カラフルライフデザイン,0
26,1010601061975,新規,0,2022-10-14,2022-10-14,うさぎ救急サービス株式会社,,株式会社,東京都,江東区,亀戸７丁目３９番２－８０９号,,13,108,1360071,,,,,,,2022-10-14,1,,,,,ウサギキュウキュウサービス,0
27,1010601061983,新規,0,2022-10-14,2022-10-14,株式会社マジックハンズＷｏｒｋｓ,,株式会社,東京都,墨田区,江東橋２丁目２番３号,,13,107,1300022,,,,,,,2022-10-14,1,,,,,マジックハンズワークス,0
30,1010701043312,新規,0,2022-10-14,2022-10-14,株式会社エム・チャーリー,,株式会社,東京都,品川区,荏原３丁目３番１１号１０１,,13,109,1420063,,,,,,,2022-10-14,1,,,,,エムチャーリー,0
42,1011001150237,新規,0,2022-10-14,2022-10-14,株式会社ＡＲＰＥＧＧＩＯ,,株式会社,東京都,目黒区,大橋２丁目７番７号ＲＡＤＩＡＮ４０５,,13,110,1530044,,,,,,,2022-10-14,1,,,,,アルペジオ,0
43,1011001150311,新規,0,2022-10-14,2022-10-14,株式会社Ｍｏ２ｄｅｓｉｇｎ,,株式会社,東京都,渋谷区,千駄ヶ谷５丁目２番１５号サンパークハイツ２０１号,,13,113,1510051,,,,,,,2022-10-14,1,,,,,エムオーツーデザイン,0
45,1011101100505,新規,0,2022-10-14,2022-10-14,范瑞斯国際貿易株式会社,,株式会社,東京都,新宿区,下落合１丁目８番１４－２０２号,,13,104,1610033,,,,,,,2022-10-14,1,,,,,ハンズイシコクサイボウエキ,0
59,1011601026290,新規,0,2022-10-14,2022-10-14,株式会社リプロム,,株式会社,東京都,練馬区,向山４丁目２１番１９号,,13,120,1760022,,,,,,,2022-10-14,1,,,,,リプロム,0
63,1011701025696,新規,0,2022-10-14,2022-10-14,株式会社コモンズ,,株式会社,東京都,江戸川区,江戸川５丁目２５番地２４,,13,123,1340013,,,,,,,2022-10-14,1,,,,,コモンズ,0
65,1011801041395,新規,0,2022-10-14,2022-10-14,株式会社藤和エステート,,株式会社,東京都,葛飾区,新宿６丁目２番１－３３１８号,,13,122,1250051,,,,,,,2022-10-14,1,,,,,トウワエステート,0
66,1012301013166,新規,0,2022-10-14,2022-10-14,株式会社はぴねす,,株式会社,東京都,町田市,鶴間３丁目１２－２サンホワイトＦ１０１－１４,,13,209,1940004,,,,,,,2022-10-14,1,,,,,ハピネス,0
76,1013301049786,新規,0,2022-10-14,2022-10-14,ＹＴＹ株式会社,,株式会社,東京都,豊島区,池袋２丁目１１－６萬平ロイヤルビル３０３,,13,116,1710014,,,,,,,2022-10-14,1,,,,,ワイティーワイ,0
77,1013303006331,新規,0,2022-10-14,2022-10-14,ＳＢＮ合同会社,,合同会社,東京都,豊島区,駒込３丁目３番２１号エクセレンシア駒込４０１号,,13,116,1700003,,,,,,,2022-10-14,1,,,,,エスビーエヌ,0
78,1013305003392,新規,0,2022-10-14,2022-10-14,特定非営利活動法人みらいウクライナ・アフガニスタン等難民支援基金,,その他の設立登記法人,東京都,豊島区,高田１丁目３８番１１号,,13,116,1710033,,,,,,,2022-10-14,1,,,,,ミライウクライナアフガニスタントウナンミンシエンキコウ,0
83,1020001148562,新規,0,2022-10-14,2022-10-14,株式会社ｂｉｊｏｕ,,株式会社,神奈川県,横浜市中区,桜木町１丁目１番７号ＴＯＣみなとみらい,,14,104,2310062,,,,,,,2022-10-14,1,,,,,ビジュー,0
84,1020001148570,新規,0,2022-10-14,2022-10-14,株式会社福徳屋,,株式会社,神奈川県,川崎市高津区,下作延４丁目２８番２９号メイプルガーデン溝の口３０１,,14,134,2130033,,,,,,,2022-10-14,1,,,,,フクトクヤ,0
85,1020001148579,新規,0,2022-10-14,2022-10-14,Ｆ‐ＴＨＩＮＫ株式会社,,株式会社,神奈川県,横浜市都筑区,中川２丁目９番５－６０１号,,14,118,2240001,,,,,,,2022-10-14,1,,,,,エフシンク,0
89,1020003022567,新規,0,2022-10-14,2022-10-14,ｄａＴ　Ｓｔｕｄｉｏ合同会社,,合同会社,神奈川県,川崎市川崎区,宮本町６番地１２ＧＳ川崎ビル２１６号,,14,131,2100004,,,,,,,2022-10-14,1,,,,,ダットスタジオ,0
90,1020005015692,新規,0,2022-10-14,2022-10-14,特定非営利活動法人横浜空き家相談センター,,その他の設立登記法人,神奈川県,横浜市中区,尾上町２丁目２７大洋建設関内ビル３Ｆ,,14,104,2310015,,,,,,,2022-10-14,1,,,,,ヨコハマアキヤソウダンセンター,0
95,1021001077173,新規,0,2022-10-14,2022-10-14,ＨＩＲＯＳＨＩ　ＫＵＲＩＳＡＫＩ　ＤＥＳＩＧＮ株式会社,,株式会社,神奈川県,藤沢市,羽鳥１丁目１番１－４６８号,,14,205,2510056,,,,,,,2022-10-14,1,,,,,ヒロシクリサキデザイン,0
96,1021001077181,新規,0,2022-10-14,2022-10-14,ＡＵＴＯ　ＰＲＯＧＲＥＳＳ　ＪＡＰＡＮ株式会社,,株式会社,神奈川県,厚木市,山際８６２番地１オリエントビルＮｏ．６－３０２,,14,212,2430803,,,,,,,2022-10-14,1,,,,,オートプログレスジャパン,0
107,1030001150484,新規,0,2022-10-14,2022-10-14,株式会社根本工業,,株式会社,埼玉県,和光市,新倉１丁目２７番１号２０２,,11,229,3510115,,,,,,,2022-10-14,1,,,,,ネモトコウギョウ,0
108,1030001150550,新規,0,2022-10-14,2022-10-14,株式会社プログレ,,株式会社,埼玉県,越谷市,神明町２丁目１２番地８,,11,222,3430805,,,,,,,2022-10-14,1,,,,,プログレ,0
109,1030001150559,新規,0,2022-10-14,2022-10-14,ＡＤＩＴＩ株式会社,,株式会社,埼玉県,川口市,並木３丁目３番２４－６０１号ＫＴビル,,11,203,3320034,,,,,,,2022-10-14,1,,,,,アディティ,0
110,1030001150567,新規,0,2022-10-14,2022-10-14,株式会社タカノ物流,,株式会社,埼玉県,北本市,荒井４丁目２５９番地２,,11,233,3640026,,,,,,,2022-10-14,1,,,,,タカノブツリュウ,0
111,1030001150575,新規,0,2022-10-14,2022-10-14,株式会社未来工業,,株式会社,埼玉県,さいたま市岩槻区,南平野２丁目１０番地２０,,11,110,3390051,,,,,,,2022-10-14,1,,,,,,0
112,1030001150583,新規,0,2022-10-14,2022-10-14,株式会社パートナーズ,,株式会社,埼玉県,越谷市,レイクタウン６丁目１２番地１２,,11,222,3430828,,,,,,,2022-10-14,1,,,,,パートナーズ,0
116,1030003020396,新規,0,2022-10-14,2022-10-14,合同会社エクシス,,合同会社,埼玉県,さいたま市大宮区,寿能町２丁目２０７番地１,,11,103,3300805,,,,,,,2022-10-14,1,,,,,エクシス,0
117,1030003020405,新規,0,2022-10-14,2022-10-14,しろくまオフィス合同会社,,合同会社,埼玉県,越谷市,相模町１丁目２８２番地４,,11,222,3430823,,,,,,,2022-10-14,1,,,,,シロクマオフィス,0
118,1030003020413,新規,0,2022-10-14,2022-10-14,合同会社アゲラタム,,合同会社,埼玉県,蕨市,塚越７丁目２６番６号プリモ西川口２０５号室,,11,223,3350002,,,,,,,2022-10-14,1,,,,,アゲラタム,0
119,1030005021021,新規,0,2022-10-14,2022-10-14,医療法人社団葵慶会,,その他の設立登記法人,埼玉県,さいたま市岩槻区,南平野３丁目７番地１７,,11,110,3390051,,,,,,,2022-10-14,1,,,,,キキョウカイ,0
122,1040001125436,新規,0,2022-10-14,2022-10-14,株式会社梅山建装,,株式会社,千葉県,八千代市,ゆりのき台６丁目１８番地１パティオ一番館１０３号室,,12,221,2760042,,,,,,,2022-10-14,1,,,,,ウメヤマケンソウ,0
126,1040003021039,新規,0,2022-10-14,2022-10-14,きらり合同会社,,合同会社,千葉県,市川市,福栄３丁目１８番５号,,12,203,2720137,,,,,,,2022-10-14,1,,,,,キラリ,0
127,1040005021763,新規,0,2022-10-14,2022-10-14,税理士法人寺田会計,,その他の設立登記法人,千葉県,松戸市,常盤平西窪町８番地の３,,12,207,2702266,,,,,,,2022-10-14,1,,,,,テラダカイケイ,0
128,1040005021771,新規,0,2022-10-14,2022-10-14,医療法人社団めぶき会,,その他の設立登記法人,千葉県,船橋市,夏見台１丁目１８番７号夏見台ビル１階,,12,204,2730866,,,,,,,2022-10-14,1,,,,,メブキカイ,0
131,1050003006922,新規,0,2022-10-14,2022-10-14,ホークシステムズ合同会社,,合同会社,茨城県,石岡市,柿岡２０７１番地３,,08,205,3150116,,,,,,,2022-10-14,1,,,,,ホークシステムズ,0
133,1060001035352,新規,0,2022-10-14,2022-10-14,株式会社ＭＩＡＮ　ＴＲＡＤＥＲＳ,,株式会社,栃木県,矢板市,倉掛７９９番地２,,09,211,3292154,,,,,,,2022-10-14,1,,,,,ミヤントレーダース,0
134,1070001039740,新規,0,2022-10-14,2022-10-14,株式会社アドジスタ,,株式会社,群馬県,太田市,東金井町１０２０番地３,,10,205,3730022,,,,,,,2022-10-14,1,,,,,,0
135,1070001039749,新規,0,2022-10-14,2022-10-14,株式会社松本商会,,株式会社,群馬県,太田市,堀口町５７４番地３,,10,205,3700414,,,,,,,2022-10-14,1,,,,,マツモトショウカイ,0
137,1070003004651,新規,0,2022-10-14,2022-10-14,レオファクトリー合同会社,,合同会社,群馬県,太田市,藪塚町２０８７－１１グリシーナ・セレッソＡ２０２,,10,205,3792301,,,,,,,2022-10-14,1,,,,,レオファクトリー,0
138,1080005007486,新規,0,2022-10-14,2022-10-14,医療法人社団ＭＳＣ,,その他の設立登記法人,静岡県,静岡市葵区,北安東２丁目２９番８号,,22,101,4200881,,,,,,,2022-10-14,1,,,,,エムエスシー,0
142,1090002015755,新規,0,2022-10-14,2022-10-14,大富士不動産商事有限会社,,有限会社,山梨県,甲府市,塩部４丁目１４番９号,,19,201,4000026,,,,,,,2022-10-14,1,,,,,オオフジフドウサンショウジ,0
146,1100001035785,新規,0,2022-10-14,2022-10-14,株式会社ＧｒｏｗｓＧａｔｅ,,株式会社,長野県,長野市,大字東和田８４２番地ＣＯＲＥＯＦＦＩＣＥ３０１号室,,20,201,3810038,,,,,,,2022-10-14,1,,,,,グロウズゲイト,0
150,1100003006719,新規,0,2022-10-14,2022-10-14,合同会社ｍａｔｓｕ．,,合同会社,長野県,塩尻市,大字広丘吉田１１５４番地７,,20,215,3990701,,,,,,,2022-10-14,1,,,,,マツ,0
153,1110001037038,新規,0,2022-10-14,2022-10-14,株式会社ＴＳＳ,,株式会社,新潟県,新潟市東区,東明３丁目１０番地１,,15,102,9500853,,,,,,,2022-10-14,1,,,,,ティーエスエス,0
169,1120001249425,新規,0,2022-10-14,2022-10-14,株式会社キンダーコプター,,株式会社,大阪府,大阪市北区,池田町３番１号,,27,127,5300033,,,,,,,2022-10-14,1,,,,,キンダーコプター,0
170,1120001249441,新規,0,2022-10-14,2022-10-14,株式会社スギノア,,株式会社,大阪府,大阪市浪速区,日本橋４丁目１６番５号クレシア日本橋４０３号,,27,111,5560005,,,,,,,2022-10-14,1,,,,,スギノア,0
171,1120001249499,新規,0,2022-10-14,2022-10-14,株式会社ちる,,株式会社,大阪府,大阪市天王寺区,筆ケ崎町５番３８号ロイヤルパークス桃坂７１３号室,,27,109,5430027,,,,,,,2022-10-14,1,,,,,チル,0
172,1120001249524,新規,0,2022-10-14,2022-10-14,Ｍ９　ＳＴＵＤＩＯ株式会社,,株式会社,大阪府,大阪市中央区,道修町２丁目６番７号淀屋橋近藤ビル５Ｆ,,27,128,5410045,,,,,,,2022-10-14,1,,,,,エムヌフステュディオ,0
173,1120001249549,新規,0,2022-10-14,2022-10-14,ＩＤＥＡ　ＰＡＣＫＡＧＥ株式会社,,株式会社,大阪府,大阪市城東区,今福南４丁目６番２０－５０１号,,27,118,5360003,,,,,,,2022-10-14,1,,,,,アイデアパッケージ,0
174,1120001249557,新規,0,2022-10-14,2022-10-14,株式会社エアリービーチ,,株式会社,大阪府,大阪市中央区,博労町３丁目６－７御堂筋三都ビル４０５号,,27,128,5410059,,,,,,,2022-10-14,1,,,,,エアリービーチ,0
175,1120001249573,新規,0,2022-10-14,2022-10-14,スタディサポート株式会社,,株式会社,大阪府,大阪市淀川区,宮原１丁目１－１新大阪阪急ビル３Ｆ,,27,123,5320003,,,,,,,2022-10-14,1,,,,,スタディサポート,0
176,1120001249581,新規,0,2022-10-14,2022-10-14,株式会社エーライズ,,株式会社,大阪府,大阪市天王寺区,上汐４丁目４番２０－３０１号,,27,109,5430002,,,,,,,2022-10-14,1,,,,,エーライズ,0
177,1120003022631,新規,0,2022-10-14,2022-10-14,合同会社一,,合同会社,大阪府,大阪市中央区,日本橋２丁目２０番２－１４０４号,,27,128,5420073,,,,,,,2022-10-14,1,,,,,イチ,0
185,1120901046599,新規,0,2022-10-14,2022-10-14,易＿株式会社,00128127,株式会社,大阪府,高槻市,堤町４番１号パストラル堤２０２号,,27,207,5690047,,,,,,,2022-10-14,1,,,,,イキン,0
189,1122001036316,新規,0,2022-10-14,2022-10-14,成和機械株式会社,,株式会社,大阪府,東大阪市,水走１丁目１９番２５号,,27,227,5780921,,,,,,,2022-10-14,1,,,,,セイワキカイ,0
191,1130001072792,新規,0,2022-10-14,2022-10-14,株式会社ＥＳＴ,,株式会社,京都府,宇治市,木幡金草原１２番地の７,,26,204,6110002,,,,,,,2022-10-14,1,,,,,エスト,0
201,1140001127728,新規,0,2022-10-14,2022-10-14,七八空調株式会社,,株式会社,兵庫県,神戸市兵庫区,吉田町２丁目３６番８号ウィングシティ御崎公園１Ｆ,,28,105,6520872,,,,,,,2022-10-14,1,,,,,ナハクウチョウ,0
206,1150001025880,新規,0,2022-10-14,2022-10-14,株式会社彩墨会,,株式会社,奈良県,生駒市,西白庭台１丁目２５番地１２,,29,209,6300137,,,,,,,2022-10-14,1,,,,,サイボクカイ,0
208,1150003002795,新規,0,2022-10-14,2022-10-14,合同会社ＷＳ,,合同会社,奈良県,奈良市,法華寺町２８８番地の１岡専アビタシオン３０２号,,29,201,6308001,,,,,,,2022-10-14,1,,,,,ダブルエス,0
214,1170001017331,新規,0,2022-10-14,2022-10-14,株式会社ハビリスケア,,株式会社,和歌山県,有田市,宮崎町２４５３番地,,30,204,6490316,,,,,,,2022-10-14,1,,,,,ハビリスケア,0
231,1180001153407,新規,0,2022-10-14,2022-10-14,株式会社ポポラス,,株式会社,愛知県,小牧市,大字二重堀１５７２番地,,23,219,4850021,,,,,,,2022-10-14,1,,,,,ポポラス,0
238,1180301036716,新規,0,2022-10-14,2022-10-14,株式会社ＯｌｉＯｌｉ,,株式会社,愛知県,刈谷市,新富町５丁目５０３番地－２０５,,23,210,4480045,,,,,,,2022-10-14,1,,,,,オリオリ,0
239,1180303005470,新規,0,2022-10-14,2022-10-14,合同会社Ａｓｓｅｔｇａｒａｇｅ,,合同会社,愛知県,豊川市,上野３丁目２００番地,,23,207,4420801,,,,,,,2022-10-14,1,,,,,アセットガレージ,0
242,1190001029837,新規,0,2022-10-14,2022-10-14,株式会社ナレッジＣＦ,,株式会社,三重県,四日市市,小林町字小林新田３０２５番１号,,24,202,5100946,,,,,,,2022-10-14,1,,,,,ナレッジシーエフ,0
244,1190003004111,新規,0,2022-10-14,2022-10-14,Ｎａｔｕｒｅ合同会社,,合同会社,三重県,四日市市,朝日町１－９－２,,24,202,5100061,,,,,,,2022-10-14,1,,,,,ナチュール,0
246,1200001040544,新規,0,2022-10-14,2022-10-14,株式会社ＨＩＲＯ　ＧＬＯＢＡＬ　ＪＡＰＡＮ,,株式会社,岐阜県,瑞穂市,居倉７９０番地２,,21,216,5010302,,,,,,,2022-10-14,1,,,,,ヒログローバルジャパン,0
250,1240001060497,新規,0,2022-10-14,2022-10-14,隆旗株式会社,,株式会社,広島県,福山市,城見町２丁目１番２２号,,34,207,7200054,,,,,,,2022-10-14,1,,,,,リュウキ,0
251,1240001060506,新規,0,2022-10-14,2022-10-14,株式会社ＷＥＡＶＥ,,株式会社,広島県,東広島市,鏡山２丁目３１３,,34,212,7390046,,,,,,,2022-10-14,1,,,,,ウイーブ,0
252,1240003005847,新規,0,2022-10-14,2022-10-14,Ｍ４ＰＬＡＮ合同会社,,合同会社,広島県,広島市東区,戸坂山崎町５番１０号,,34,102,7320004,,,,,,,2022-10-14,1,,,,,エムフォープラン,0
265,1290001099119,新規,0,2022-10-14,2022-10-14,株式会社ソアルソ,,株式会社,福岡県,福岡市早良区,原２丁目１３－１９,,40,137,8140022,,,,,,,2022-10-14,1,,,,,ソアルソ,0
266,1290001099226,新規,0,2022-10-14,2022-10-14,株式会社マサハル,,株式会社,福岡県,福岡市南区,長住６丁目１３番８号,,40,134,8111362,,,,,,,2022-10-14,1,,,,,マサハル,0
267,1290001099242,新規,0,2022-10-14,2022-10-14,エスペランサＪＡＰＡＮ株式会社,,株式会社,福岡県,福岡市博多区,祇園町８番１２号ロータリー大和ビル３２７号,,40,132,8120038,,,,,,,2022-10-14,1,,,,,エスペランサジャパン,0
276,1320003003925,新規,0,2022-10-14,2022-10-14,合同会社久留見,,合同会社,大分県,大分市,松が丘３丁目３－９,,44,201,8701168,,,,,,,2022-10-14,1,,,,,クルミ,0
303,1430003014333,新規,0,2022-10-14,2022-10-14,合同会社福祉企画,,合同会社,北海道,札幌市中央区,南三条東３丁目２０番地１リビオ札幌大通１４０４号,,01,101,0600053,,,,,,,2022-10-14,1,,,,,フクシキカク,0
304,1430003014358,新規,0,2022-10-14,2022-10-14,合同会社ＱＯＬ．,,合同会社,北海道,札幌市東区,北五十一条東１４丁目１－８,,01,103,0070851,,,,,,,2022-10-14,1,,,,,キューオーエルドット,0
305,1430003014382,新規,0,2022-10-14,2022-10-14,合同会社サークルホームズ,,合同会社,北海道,江別市,見晴台４７番地の３,,01,217,0670042,,,,,,,2022-10-14,1,,,,,サークルホームズ,0
308,1700150112127,新規,0,2022-10-14,2022-10-14,ＫｉｎｇＣａｍｐ　Ｏｕｔｄｏｏｒ　Ｐｒｏｄｕｃｔｓ　Ｃｏ．Ｌｔｄ,,外国会社等,,,,,,,,１８ｔｈ　Ｆｌｏｏｒ　Ｎｏ．２　Ｈｕａ　Ｔｅｎｇ　Ｉｎｔｅｒｎａｔｉｏｎａｌ　Ｂｕｉｌｄｉｎｇ，Ｄａ　Ｊｉａｏ　Ｔｉｎｇ　Ｍｉｄｄｌｅ　Ｓｔ，Ｃｈａｏｙａｎｇ　Ｄｉｓｔｒｉｃｔ，Ｂｅｉｊｉｎｇ，Ｃｈｉｎａ,,,,,,2022-10-14,1,,,,,キングキヤンプアウトドアプロダクツカンパニーリミテツド,0
309,1700150112143,新規,0,2022-10-14,2022-10-14,ＭＵＮＡＬ　ＴＲＡＮＳＰＯＲＴ　ＡＮＤ　ＳＵＰＰＬＩＥＲＳ　ＰＶＴ．ＬＴＤ．,,外国会社等,東京都,中野区,東中野４丁目５－３コーポラ山口１０２号,,13,114,1640003,ネパール、ルンビニ州、パルパ地区、ティナウ農村自治体、０３番、ズムサ,,,,,,2022-10-14,1,,,,,ムナルトランスポートアンドサプライヤーズプライベートリミテツド,0
318,2010003038860,新規,0,2022-10-14,2022-10-14,合同会社ＳＰＣ５,,合同会社,東京都,千代田区,平河町１丁目６番１５号シルスフィア会計事務所内,,13,101,1020093,,,,,,,2022-10-14,1,,,,,エスピーシーファイブ,0
319,2010003038869,新規,0,2022-10-14,2022-10-14,ジャパン・ウェルネス合同会社,,合同会社,東京都,中央区,銀座１丁目１２番４号Ｎ＆ＥＢＬＤ．６Ｆ,,13,102,1040061,,,,,,,2022-10-14,1,,,,,ジャパンウェルネス,0
326,2010403028593,新規,0,2022-10-14,2022-10-14,合同会社ＭＢＭＬ,,合同会社,東京都,港区,南青山３丁目１番３６号青山丸竹ビル６Ｆ,,13,103,1070062,,,,,,,2022-10-14,1,,,,,エムビーエル,0
327,2010403028701,新規,0,2022-10-14,2022-10-14,合同会社傾奇者,,合同会社,東京都,港区,六本木３丁目４番２－８０２号,,13,103,1060032,,,,,,,2022-10-14,1,,,,,カブキモノ,0
328,2010403028726,新規,0,2022-10-14,2022-10-14,バイアスフォーアクション合同会社,,合同会社,東京都,港区,白金台２丁目２７番９―２０５号,,13,103,1080071,,,,,,,2022-10-14,1,,,,,バイアスフォーアクション,0
334,2010601061982,新規,0,2022-10-14,2022-10-14,株式会社冒険者酒館,,株式会社,東京都,江東区,有明２丁目１番１－２８０４号,,13,108,1350063,,,,,,,2022-10-14,1,,,,,ボウケンシャサケカン,0
339,2010801033352,新規,0,2022-10-14,2022-10-14,スティッキーズ株式会社,,株式会社,東京都,大田区,南馬込３丁目３８番１５号,,13,111,1430025,,,,,,,2022-10-14,1,,,,,スティッキーズ,0
344,2010901051790,新規,0,2022-10-14,2022-10-14,株式会社Ｇｒａｃｅ　Ｆｏｏｄ,,株式会社,東京都,世田谷区,上野毛３丁目２０番６号上野毛の杜Ｌ,,13,112,1580093,,,,,,,2022-10-14,1,,,,,グレイスフード,0
354,2011001150285,新規,0,2022-10-14,2022-10-14,株式会社ａｎｄｃａｆｅ,,株式会社,東京都,渋谷区,恵比寿１丁目７－４ハイライフ恵比寿２０１,,13,113,1500013,,,,,,,2022-10-14,1,,,,,アンドカフェ,0
355,2011001150293,新規,0,2022-10-14,2022-10-14,Ｉｎｈｅｒｉｔｅｃｈ株式会社,,株式会社,東京都,渋谷区,神宮前６丁目２３番４号桑野ビル２階,,13,113,1500001,,,,,,,2022-10-14,1,,,,,インヘリテック,0
356,2011001150310,新規,0,2022-10-14,2022-10-14,株式会社レン,,株式会社,東京都,目黒区,目黒１丁目４番１６号目黒Ｇビル７Ｆ,,13,110,1530063,,,,,,,2022-10-14,1,,,,,レン,0
364,2011101100504,新規,0,2022-10-14,2022-10-14,株式会社アセットエイド,,株式会社,東京都,新宿区,西新宿８丁目１２番１号,,13,104,1600023,,,,,,,2022-10-14,1,,,,,アセットエイド,0
365,2011103012268,新規,0,2022-10-14,2022-10-14,Ｒｏｔｅｔｅ合同会社,,合同会社,東京都,新宿区,西新宿３丁目３－１３西新宿水間ビル６Ｆ,,13,104,1600023,,,,,,,2022-10-14,1,,,,,ロテテ,0
368,2011301028181,新規,0,2022-10-14,2022-10-14,株式会社ウッドストック,,株式会社,東京都,杉並区,荻窪４丁目３０番１６号藤澤ビルディング２階,,13,115,1670051,,,,,,,2022-10-14,1,,,,,ウッドストック,0
370,2011401024601,新規,0,2022-10-14,2022-10-14,株式会社シブキ,,株式会社,東京都,板橋区,双葉町３９－１４ネオス双葉３０３,,13,119,1730011,,,,,,,2022-10-14,1,,,,,シブキ,0
371,2011403003792,新規,0,2022-10-14,2022-10-14,信安合同会社,,合同会社,東京都,板橋区,加賀２丁目５番１９号,,13,119,1730003,,,,,,,2022-10-14,1,,,,,シンアン,0
379,2011603003717,新規,0,2022-10-14,2022-10-14,合同会社ＭＯＮＯ　ＰＯＩＮＴ,,合同会社,東京都,練馬区,早宮４丁目１６－６いずみショップマンション１Ｆ１号室,,13,120,1790085,,,,,,,2022-10-14,1,,,,,モノポイント,0
381,2011701025695,新規,0,2022-10-14,2022-10-14,株式会社谷東,,株式会社,東京都,江戸川区,西葛西８丁目２番１－９１５号,,13,123,1340088,,,,,,,2022-10-14,1,,,,,コクトウ,0
388,2011801041394,新規,0,2022-10-14,2022-10-14,株式会社ＳＴ・Ａｇｅ,,株式会社,東京都,足立区,島根２丁目２２番６号,,13,121,1210815,,,,,,,2022-10-14,1,,,,,ステージ,0
391,2012401039754,新規,0,2022-10-14,2022-10-14,株式会社Ｌｉｆｉｘ　Ｊａｐａｎ,,株式会社,東京都,府中市,紅葉丘１丁目３２番地の１紅葉丘アパート１－２０５,,13,206,1830004,,,,,,,2022-10-14,1,,,,,ライフィックスジャパン,0
397,2013301049793,新規,0,2022-10-14,2022-10-14,正信株式会社,,株式会社,東京都,豊島区,池袋２丁目３２－２－１０２,,13,116,1710014,,,,,,,2022-10-14,1,,,,,セイシン,0
406,2020001148578,新規,0,2022-10-14,2022-10-14,株式会社ＧＲＩＴ,,株式会社,神奈川県,川崎市宮前区,宮前平３丁目７番地２２,,14,136,2160006,,,,,,,2022-10-14,1,,,,,グリット,0
408,2020003022574,新規,0,2022-10-14,2022-10-14,合同会社ＳｋｙＬｉｍｉｔ,,合同会社,神奈川県,横浜市港北区,新羽町６９５番地５,,14,109,2230057,,,,,,,2022-10-14,1,,,,,スカイリミット,0
417,2021001077197,新規,0,2022-10-14,2022-10-14,株式会社光建装,,株式会社,神奈川県,鎌倉市,大船６丁目７番１１号,,14,204,2470056,,,,,,,2022-10-14,1,,,,,ヒカリケンソウ,0
419,2021005012638,新規,0,2022-10-14,2022-10-14,超小型ＥＶ技術研究組合,,その他の設立登記法人,神奈川県,厚木市,七沢２１７８,,14,212,2430121,,,,,,,2022-10-14,1,,,,,,0
421,2030001150566,新規,0,2022-10-14,2022-10-14,ＢＤＴ株式会社,,株式会社,埼玉県,さいたま市緑区,大字大牧１４８９番地２１,,11,109,3360922,,,,,,,2022-10-14,1,,,,,ビーディーティー,0
422,2030001150590,新規,0,2022-10-14,2022-10-14,株式会社浅野興業,,株式会社,埼玉県,ふじみ野市,川崎２丁目１番地９,,11,245,3560001,,,,,,,2022-10-14,1,,,,,アサノコウギョウ,0
426,2030003020387,新規,0,2022-10-14,2022-10-14,Ｓａｎｋａｋｕ　Ｎｕｔｒｉｔｉｏｎ合同会社,,合同会社,埼玉県,川口市,大字芝４９０８番地９,,11,203,3330866,,,,,,,2022-10-14,1,,,,,サンカクニュートリション,0
427,2030003020395,新規,0,2022-10-14,2022-10-14,マスターピース合同会社,,合同会社,埼玉県,川口市,本町２丁目１２番２０－６１８号,,11,203,3320012,,,,,,,2022-10-14,1,,,,,マスターピース,0
428,2030003020404,新規,0,2022-10-14,2022-10-14,ＳＫＹ合同会社,,合同会社,埼玉県,蕨市,中央３丁目２番１号グレイス柳橋６０４号,,11,223,3350004,,,,,,,2022-10-14,1,,,,,スカイ,0
434,2040001125427,新規,0,2022-10-14,2022-10-14,株式会社中嶋,,株式会社,千葉県,柏市,高柳２丁目３番地１,,12,217,2770941,,,,,,,2022-10-14,1,,,,,ナカジマ,0
435,2040001125468,新規,0,2022-10-14,2022-10-14,株式会社ライズコンサルタント,,株式会社,千葉県,白井市,桜台２丁目６番１２棟５０３号,,12,232,2701412,,,,,,,2022-10-14,1,,,,,ライズコンサルタント,0
440,2040003021062,新規,0,2022-10-14,2022-10-14,合同会社賀寿の木,,合同会社,千葉県,船橋市,上山町３丁目６４５番地５メゾンナカムラ１０５号,,12,204,2730046,,,,,,,2022-10-14,1,,,,,ガジュノキ,0
443,2040005021762,新規,0,2022-10-14,2022-10-14,はまだ豆ヂカラ社会保険労務士法人,,その他の設立登記法人,千葉県,柏市,若柴２７６番地１中央１７９街区１リビオ柏の葉キャンパス３０２号,,12,217,2770871,,,,,,,2022-10-14,1,,,,,ハマダマメヂカラ,0
444,2040005021770,新規,0,2022-10-14,2022-10-14,一般社団法人くるりスタンプ会,,その他の設立登記法人,千葉県,君津市,久留里市場５３７番地６,,12,225,2920421,,,,,,,2022-10-14,1,,,,,クルリスタンプカイ,0
449,2050001051812,新規,0,2022-10-14,2022-10-14,アライアンスイノベーション株式会社,,株式会社,茨城県,水戸市,千波町１９５０番地,,08,201,3100851,,,,,,,2022-10-14,1,,,,,アライアンスイノベーション,0
451,2060005010020,新規,0,2022-10-14,2022-10-14,特定非営利活動法人栃木県こども応援なないろ,,その他の設立登記法人,栃木県,宇都宮市,東今泉２丁目３番３０号グリーンハイツ２－１０６,,09,201,3210941,,,,,,,2022-10-14,1,,,,,トチギケンコドモオウエンナナイロ,0
456,2080105006288,新規,0,2022-10-14,2022-10-14,行政書士法人プライムライフ,,その他の設立登記法人,静岡県,富士宮市,北町６番１３号,,22,207,4180061,,,,,,,2022-10-14,1,,,,,プライムライフ,0
464,2110001037037,新規,0,2022-10-14,2022-10-14,株式会社ＫＫＮＴ,,株式会社,新潟県,新発田市,下小中山３６４番地１,,15,206,9592477,,,,,,,2022-10-14,1,,,,,ケーケーエヌティー,0
474,2120001249465,新規,0,2022-10-14,2022-10-14,株式会社ビビアン,,株式会社,大阪府,大阪市中央区,南久宝寺町１丁目９－６エスエルビル５０２,,27,128,5410058,,,,,,,2022-10-14,1,,,,,ビビアン,0
475,2120001249481,新規,0,2022-10-14,2022-10-14,株式会社レインボー,,株式会社,大阪府,大阪市生野区,鶴橋３丁目１番２８－５０４号,,27,116,5440031,,,,,,,2022-10-14,1,,,,,レインボー,0
476,2120001249531,新規,0,2022-10-14,2022-10-14,株式会社Ａｚｉｚ,,株式会社,大阪府,大阪市淀川区,野中南２丁目５番２６号,,27,123,5320022,,,,,,,2022-10-14,1,,,,,アズイズ,0
477,2120001249548,新規,0,2022-10-14,2022-10-14,株式会社ビタミンオフィス・いけじま,,株式会社,大阪府,大阪市城東区,関目６丁目６番２９－１２０２号,,27,118,5360008,,,,,,,2022-10-14,1,,,,,ビタミンオフィスイケジマ,0
478,2120001249564,新規,0,2022-10-14,2022-10-14,株式会社Ｌｕｎａ,,株式会社,大阪府,大阪市北区,国分寺２丁目１番１号,,27,127,5310064,,,,,,,2022-10-14,1,,,,,ルナ,0
479,2120001249580,新規,0,2022-10-14,2022-10-14,株式会社ココスタイル,,株式会社,大阪府,大阪市北区,神山町１０番５号,,27,127,5300026,,,,,,,2022-10-14,1,,,,,ココスタイル,0
481,2120003022639,新規,0,2022-10-14,2022-10-14,合同会社ＦＡＮ　ＳＴＥＰ,,合同会社,大阪府,大阪市鶴見区,今津北５丁目７番８－１００５号,,27,124,5380041,,,,,,,2022-10-14,1,,,,,ファンステップ,0
482,2120003022663,新規,0,2022-10-14,2022-10-14,ＭＴ　Ｐｌａｎ合同会社,,合同会社,大阪府,大阪市阿倍野区,阪南町４丁目１２番２６号,,27,119,5450021,,,,,,,2022-10-14,1,,,,,エムティープラン,0
491,2120903004331,新規,0,2022-10-14,2022-10-14,合同会社ゴルバ,,合同会社,大阪府,豊中市,寺内２丁目１３番１１－８０３号,,27,203,5610872,,,,,,,2022-10-14,1,,,,,ゴルバ,0
492,2122001036323,新規,0,2022-10-14,2022-10-14,株式会社Ｂａｎｋｅｒｎｅｌ,,株式会社,大阪府,東大阪市,中小阪４丁目４番１１号,,27,227,5770804,,,,,,,2022-10-14,1,,,,,バンカーネル,0
505,2140001127702,新規,0,2022-10-14,2022-10-14,株式会社システムズカンサイ,,株式会社,兵庫県,加古川市,尾上町口里４８０番地,,28,210,6750022,,,,,,,2022-10-14,1,,,,,システムズカンサイ,0
506,2140001127710,新規,0,2022-10-14,2022-10-14,株式会社Ａｔｈｅｎａ,,株式会社,兵庫県,神戸市兵庫区,湊川町６丁目２－２３,,28,105,6520041,,,,,,,2022-10-14,1,,,,,アテナ,0
509,2150003002794,新規,0,2022-10-14,2022-10-14,ｍｏｎｏ．ｄｅｓｉｇｎ合同会社,,合同会社,奈良県,橿原市,縄手町７２番地の１－Ａ１０３,,29,205,6340073,,,,,,,2022-10-14,1,,,,,モノデザイン,0
510,2170001017330,新規,0,2022-10-14,2022-10-14,株式会社ＰＥＧＡ,,株式会社,和歌山県,和歌山市,六十谷１０５７番地２,,30,201,6408482,,,,,,,2022-10-14,1,,,,,ペガ,0
522,2190001029836,新規,0,2022-10-14,2022-10-14,株式会社エムゼック,,株式会社,三重県,伊勢市,二見町松下６２２番地２,,24,203,5190601,,,,,,,2022-10-14,1,,,,,エムゼック,0
529,2220001025088,新規,0,2022-10-14,2022-10-14,藏田保温工業株式会社,,株式会社,石川県,七尾市,本府中町ニ部３５番地１信開ドムス本府中２１０号,,17,202,9260021,,,,,,,2022-10-14,1,,,,,クラタホオンコウギョウ,0
532,2220005008709,新規,0,2022-10-14,2022-10-14,一般社団法人アクトリーグループ支援機構,,その他の設立登記法人,石川県,白山市,水澄町３７５番地,,17,210,9240053,,,,,,,2022-10-14,1,,,,,アクトリーグループシエンキコウ,0
545,2290001099225,新規,0,2022-10-14,2022-10-14,株式会社ＫＮＯＴ,,株式会社,福岡県,福岡市中央区,天神４丁目６－２８天神ファーストビル７階,,40,133,8100001,,,,,,,2022-10-14,1,,,,,ノット,0
546,2290001099233,新規,0,2022-10-14,2022-10-14,株式会社ＥＸＥＣＵＴＩＶＥ,,株式会社,福岡県,福岡市早良区,野芥２丁目１２番８号,,40,137,8140171,,,,,,,2022-10-14,1,,,,,,0
547,2290001099241,新規,0,2022-10-14,2022-10-14,株式会社ＭＡＣ,,株式会社,福岡県,大野城市,仲畑１丁目２０番１０号,,40,219,8160921,,,,,,,2022-10-14,1,,,,,マック,0
551,2290003013068,新規,0,2022-10-14,2022-10-14,合同会社ＥＳＴ　ｐａｒｔｎｅｒｓ,,合同会社,福岡県,福岡市中央区,天神３丁目５番２２号７Ｆ,,40,133,8100001,,,,,,,2022-10-14,1,,,,,エストパートナーズ,0
560,2330001030192,新規,0,2022-10-14,2022-10-14,エム・ツーコンサルタント株式会社,,株式会社,熊本県,天草市,亀場町亀川１８１８,,43,215,8630043,,,,,,,2022-10-14,1,,,,,エムツーコンサルタント,0
566,2350003004192,新規,0,2022-10-14,2022-10-14,合同会社ＭＫ,,合同会社,宮崎県,都城市,太郎坊町１８５２番地５,,45,202,8850002,,,,,,,2022-10-14,1,,,,,エムケー,0
570,2380001033190,新規,0,2022-10-14,2022-10-14,株式会社Ｍ・Ｒ・Ｓ　ＴＲＡＤＩＮＧ,,株式会社,福島県,石川郡平田村,大字上蓬田字銭神前６３番地コーケンハイツＩＩ７号室,00128143,07,503,9638202,,,,,,,2022-10-14,1,,,,,エムアールエストレーディング,0
576,2430001087603,新規,0,2022-10-14,2022-10-14,株式会社クレイドル,,株式会社,北海道,札幌市豊平区,平岸四条１０丁目８番１号,,01,105,0620934,,,,,,,2022-10-14,1,,,,,クレイドル,0
578,2430003014349,新規,0,2022-10-14,2022-10-14,合同会社伊澤商事,,合同会社,北海道,札幌市手稲区,新発寒四条５丁目１３番１３号,,01,109,0060804,,,,,,,2022-10-14,1,,,,,イザワショウジ,0
588,2490001010303,新規,0,2022-10-14,2022-10-14,西岡養鰻株式会社,,株式会社,高知県,安芸郡田野町,６６９番地１,,39,303,7816410,,,,,,,2022-10-14,1,,,,,ニシオカヨウマン,0
589,2490001010311,新規,0,2022-10-14,2022-10-14,株式会社シーズ管財,,株式会社,高知県,高知市,上町１丁目１２番１４号,,39,201,7800901,,,,,,,2022-10-14,1,,,,,シーズカンザイ,0
592,2500001024540,新規,0,2022-10-14,2022-10-14,株式会社田窪設備,,株式会社,愛媛県,松山市,天山１丁目２番１号,,38,201,7900951,,,,,,,2022-10-14,1,,,,,タクボセツビ,0
596,2700150112126,新規,0,2022-10-14,2022-10-14,Ｇｕａｎｇｄｏｎｇ　Ｍｃｄｏｄｏ　Ｉｎｄｕｓｔｒｉａｌ　Ｃｏ．，Ｌｔｄ．,,外国会社等,,,,,,,,Ｒｍ　３４０２，Ｊｉｎｚｈｏｎｇｈｕａｎ　Ｂｌｄｇ，Ｎｏ．３０，Ｔｉａｎｈｅｚｈｉ　Ｓｔｒｅｅｔ，Ｇｕａｎｇｚｈｏｕ，Ｇｕａｎｇｄｏｎｇ，Ｃｈｉｎａ,,,,,,2022-10-14,1,,,,,グウアンドンマクドドインダストリアルカンパニーリミテツド,0
597,2700150112159,新規,0,2022-10-14,2022-10-14,Ｈｉｍａｌａｙａｎ　Ｈａｎｄｉ　Ｃｒａｆｔ　Ｅｘｐｏｒｔ　ａｎｄ　Ｉｍｐｏｒｔ,,外国会社等,福島県,いわき市,平字作町一丁目７番地の２コーポ清水Ｂ－Ｄ号,,07,204,9708026,ネパール国カトマンズ郡カトマンズ市ナレファント第３２区,,,,,,2022-10-14,1,,,,,ヒマラヤンハンデイクラフトエクスポートアンドインポート,0
616,3010003038851,新規,0,2022-10-14,2022-10-14,合同会社アトリエ,,合同会社,東京都,中央区,佃１丁目１１番６号６０３室,,13,102,1040051,,,,,,,2022-10-14,1,,,,,アトリエ,0
618,3010005035665,新規,0,2022-10-14,2022-10-14,一般社団法人日本手術医学会,,その他の設立登記法人,東京都,千代田区,一ツ橋１丁目１番１号パレスサイドビル株式会社毎日学術フォーラム内,,13,101,1000003,,,,,,,2022-10-14,1,,,,,ニホンシュジュツイガッカイ,0
619,3010101015364,新規,0,2022-10-14,2022-10-14,株式会社ＹＡＭＡＮＯＢＯＲＩ,,株式会社,東京都,八王子市,横川町１０８番地横川町住宅２４－１０３,,13,201,1930823,,,,,,,2022-10-14,1,,,,,ヤマノボリ,0
630,3010401170009,新規,0,2022-10-14,2022-10-14,Ｓｏｙｏｇｉ株式会社,,株式会社,東京都,港区,赤坂８丁目４－１４青山タワープレイス８階,,13,103,1070052,,,,,,,2022-10-14,1,,,,,ソヨギ,0
631,3010401170256,新規,0,2022-10-14,2022-10-14,株式会社Ｃｉｒｃｌｏｏｐ,,株式会社,東京都,港区,芝浦２丁目１４－７加瀬ビル８９、４０２,,13,103,1080023,,,,,,,2022-10-14,1,,,,,サークループ,0
632,3010401170264,新規,0,2022-10-14,2022-10-14,ナラハ・サステック株式会社,,株式会社,東京都,港区,虎ノ門４丁目１番１号神谷町トラストタワー２３階,,13,103,1050001,,,,,,,2022-10-14,1,,,,,ナラハサステック,0
635,3010403028691,新規,0,2022-10-14,2022-10-14,Ｙ‐Ａｓｃｅｎｔ合同会社,,合同会社,東京都,港区,浜松町２丁目２番１５号浜松町ダイヤビル２Ｆ,,13,103,1050013,,,,,,,2022-10-14,1,,,,,ワイアセント,0
636,3010403028709,新規,0,2022-10-14,2022-10-14,Ｙａｎａｇｉｓｔ合同会社,,合同会社,東京都,港区,赤坂８丁目４－１４青山タワープレイス８階,,13,103,1070052,,,,,,,2022-10-14,1,,,,,ヤナギスト,0
638,3010501049499,新規,0,2022-10-14,2022-10-14,株式会社ＰＩＶＯＴ,,株式会社,東京都,台東区,上野１丁目１７番１０号,,13,106,1100005,,,,,,,2022-10-14,1,,,,,ピボット,0
645,3010603009772,新規,0,2022-10-14,2022-10-14,Ｒｅｇｅｎ　Ｌａｂ　Ｊａｐａｎ合同会社,,合同会社,東京都,江東区,豊洲６丁目２番３１－１９１７号,,13,108,1350061,,,,,,,2022-10-14,1,,,,,リジェンラボジャパン,0
646,3010701043327,新規,0,2022-10-14,2022-10-14,七企画株式会社,,株式会社,東京都,品川区,北品川５丁目９番４３セザール御殿山３１６号,,13,109,1410001,,,,,,,2022-10-14,1,,,,,ナナキカク,0
652,3010901051781,新規,0,2022-10-14,2022-10-14,株式会社渡部商会,,株式会社,東京都,世田谷区,太子堂１丁目１２番３４号,,13,112,1540004,,,,,,,2022-10-14,1,,,,,ワタナベショウカイ,0
660,3011001150152,新規,0,2022-10-14,2022-10-14,株式会社フォーゲルベルク,,株式会社,東京都,渋谷区,渋谷２丁目１１番５号クロスオフィス渋谷メディオ６－Ａ号室,,13,113,1500002,,,,,,,2022-10-14,1,,,,,フォーゲルベルク,0
661,3011001150177,新規,0,2022-10-14,2022-10-14,株式会社エレファントストーンホールディングス,,株式会社,東京都,渋谷区,猿楽町２番１号,,13,113,1500033,,,,,,,2022-10-14,1,,,,,エレファントストーンホールディングス,0
662,3011001150301,新規,0,2022-10-14,2022-10-14,株式会社ＡｎｄＵ,,株式会社,東京都,目黒区,中町１丁目２９番１号シティカレント目黒学芸大学２０４,,13,110,1530065,,,,,,,2022-10-14,1,,,,,アンドユー,0
663,3011003015535,新規,0,2022-10-14,2022-10-14,合同会社ＡＨ,,合同会社,東京都,渋谷区,本町３丁目５番２－４０２号,,13,113,1510071,,,,,,,2022-10-14,1,,,,,エーエイチ,0
671,3011103012259,新規,0,2022-10-14,2022-10-14,合同会社古川産業,,合同会社,東京都,新宿区,西落合２丁目５番１号山田ビル３０６,,13,104,1610031,,,,,,,2022-10-14,1,,,,,フルカワサンギョウ,0
675,3011501028550,新規,0,2022-10-14,2022-10-14,ＭＩＨＡＲＡ株式会社,,株式会社,東京都,荒川区,東尾久４丁目４６－１１ｖｉｏｌａ田端Ｉ－１０３,00128128,13,118,1160012,,,,,,,2022-10-14,1,,,,,ミハラ,0
676,3011501028559,新規,0,2022-10-14,2022-10-14,株式会社ＤＢＴｅｃｈ,,株式会社,東京都,荒川区,西日暮里４丁目１６－３ファミールカワセ１０１号,,13,118,1160013,,,,,,,2022-10-14,1,,,,,ディービーテック,0
677,3011503005317,新規,0,2022-10-14,2022-10-14,合同会社ＭＥＧＡ,,合同会社,東京都,荒川区,東日暮里４丁目１３番１５号,,13,118,1160014,,,,,,,2022-10-14,1,,,,,メガ,0
681,3011701025694,新規,0,2022-10-14,2022-10-14,株式会社ＰＯＭ,,株式会社,東京都,江戸川区,中央２丁目２番８号,,13,123,1320021,,,,,,,2022-10-14,1,,,,,ポム,0
685,3011801041402,新規,0,2022-10-14,2022-10-14,株式会社ｉｓｍ,,株式会社,東京都,足立区,西竹の塚１丁目１１番２－１３０９号,,13,121,1210822,,,,,,,2022-10-14,1,,,,,イズム,0
687,3012401039753,新規,0,2022-10-14,2022-10-14,株式会社Ｉｎｔｅｌｌｉａｎ　Ｊａｐａｎ,,株式会社,東京都,調布市,若葉町３丁目２２番地１１,,13,208,1820003,,,,,,,2022-10-14,1,,,,,インテリアンジャパン,0
701,3020001148552,新規,0,2022-10-14,2022-10-14,株式会社ＦｉｒｓＴ’ｅｃＨ,,株式会社,神奈川県,横浜市都筑区,池辺町１１８３番地２,,14,118,2240053,,,,,,,2022-10-14,1,,,,,ファーステック,0
702,3020001148569,新規,0,2022-10-14,2022-10-14,株式会社ｔｉｆｆ,,株式会社,神奈川県,横浜市南区,宮元町４丁目１０４番地１,,14,105,2320016,,,,,,,2022-10-14,1,,,,,ティフ,0
703,3020001148577,新規,0,2022-10-14,2022-10-14,株式会社トーラス・ライフ,,株式会社,神奈川県,横浜市港北区,綱島台８番６号ピュアハナウエ１０４号,,14,109,2230054,,,,,,,2022-10-14,1,,,,,トーラスライフ,0
704,3020001148602,新規,0,2022-10-14,2022-10-14,カムウィズ株式会社,,株式会社,神奈川県,川崎市幸区,鹿島田１丁目８番１３号,,14,132,2120058,,,,,,,2022-10-14,1,,,,,カムウィズ,0
707,3020003022573,新規,0,2022-10-14,2022-10-14,合同会社ＺＥＲＯ,,合同会社,神奈川県,横浜市青葉区,松風台３３－２－１－８０１,,14,117,2270067,,,,,,,2022-10-14,1,,,,,ゼロ,0
710,3021001077196,新規,0,2022-10-14,2022-10-14,株式会社ベスト・プライム,,株式会社,神奈川県,藤沢市,遠藤７０１番地７,,14,205,2520816,,,,,,,2022-10-14,1,,,,,ベストプライム,0
711,3021001077205,新規,0,2022-10-14,2022-10-14,株式会社五電工,,株式会社,神奈川県,秦野市,平沢７８３番地の１プランタンＡ－２,,14,211,2570015,,,,,,,2022-10-14,1,,,,,ゴデンコウ,0
713,3021003012234,新規,0,2022-10-14,2022-10-14,ＲＴ商会合同会社,,合同会社,神奈川県,藤沢市,用田９８０番地,,14,205,2520821,,,,,,,2022-10-14,1,,,,,アールティーショウカイ,0
714,3021003012250,新規,0,2022-10-14,2022-10-14,ＳＷＥＬＬ合同会社,,合同会社,神奈川県,逗子市,新宿３丁目２番４０号,,14,208,2490007,,,,,,,2022-10-14,1,,,,,スウェル,0
715,3021005012637,新規,0,2022-10-14,2022-10-14,税理士法人ロード＆スカイ,,その他の設立登記法人,神奈川県,藤沢市,鵠沼石上１丁目１２－９－１０２号,,14,205,2510025,,,,,,,2022-10-14,1,,,,,ロードアンドスカイ,0
720,3030001150573,新規,0,2022-10-14,2022-10-14,株式会社ＴＯＹＡＣＨＩ,,株式会社,埼玉県,川口市,大字小谷場３７２番地の５,,11,203,3330857,,,,,,,2022-10-14,1,,,,,トヤチ,0
725,3030003020403,新規,0,2022-10-14,2022-10-14,合同会社ＥＩＧＨＴＥＥＮ,,合同会社,埼玉県,北葛飾郡松伏町,大学松伏２３４０－２,,11,465,3430100,,,,,,,2022-10-14,1,,,,,エイティーン,0
726,3030003020411,新規,0,2022-10-14,2022-10-14,合同会社Ｓａｎａｒｙ,,合同会社,埼玉県,鴻巣市,吹上富士見１丁目４番８号,,11,217,3690121,,,,,,,2022-10-14,1,,,,,サナリィ,0
755,3120001249274,新規,0,2022-10-14,2022-10-14,株式会社Ｌｉｂｅｒｔｙ　Ｇｌｏｒｙ,,株式会社,大阪府,大阪市平野区,平野西４丁目２番２８号グランシャリオ３０２号,,27,126,5470033,,,,,,,2022-10-14,1,,,,,リバティーグローリー,0
756,3120001249480,新規,0,2022-10-14,2022-10-14,株式会社ｍ．ｏ．,,株式会社,大阪府,大阪市西成区,千本北１丁目７番２７号,,27,122,5570053,,,,,,,2022-10-14,1,,,,,エムオー,0
757,3120001249489,新規,0,2022-10-14,2022-10-14,株式会社ＣＩＮＱ,,株式会社,大阪府,大阪市中央区,南久宝寺町２丁目１番８－３０３号フォーリアライズ本町レクス,,27,128,5410058,,,,,,,2022-10-14,1,,,,,サンク,0
758,3120001249506,新規,0,2022-10-14,2022-10-14,株式会社ＣＵＲＡ,,株式会社,大阪府,大阪市城東区,関目５丁目６－１３町田ハイツ１Ｆ,,27,118,5360008,,,,,,,2022-10-14,1,,,,,クーレ,0
759,3120001249571,新規,0,2022-10-14,2022-10-14,ヴィーナス株式会社,,株式会社,大阪府,大阪市西成区,太子２丁目２番２０－１０２号,,27,122,5570002,,,,,,,2022-10-14,1,,,,,ヴィーナス,0
763,3120003022662,新規,0,2022-10-14,2022-10-14,合同会社古延,,合同会社,大阪府,大阪市西区,西本町１丁目５番１３号山本ビル４０４号,,27,106,5500005,,,,,,,2022-10-14,1,,,,,コエン,0
769,3120101066388,新規,0,2022-10-14,2022-10-14,ＮＴ技研工業株式会社,,株式会社,大阪府,堺市北区,長曽根町１３０番地４２,,27,146,5918025,,,,,,,2022-10-14,1,,,,,エヌティギケンコウギョウ,0
775,3122001036306,新規,0,2022-10-14,2022-10-14,株式会社マサユキ興業,,株式会社,大阪府,大東市,野崎３丁目１０番１８号,,27,218,5740015,,,,,,,2022-10-14,1,,,,,マサユキコウギョウ,0
776,3122001036314,新規,0,2022-10-14,2022-10-14,株式会社ＷＩＴＨ,,株式会社,大阪府,東大阪市,鷹殿町７番２９号,,27,227,5798036,,,,,,,2022-10-14,1,,,,,ウィズ,0
782,3130001072808,新規,0,2022-10-14,2022-10-14,株式会社勝美,,株式会社,京都府,京都市山科区,大宅御所田町１３番地９,,26,110,6078179,,,,,,,2022-10-14,1,,,,,カツミ,0
784,3140001127676,新規,0,2022-10-14,2022-10-14,ウェルネスナース株式会社,,株式会社,兵庫県,明石市,大久保町八木７３０番地の４,,28,203,6740063,,,,,,,2022-10-14,1,,,,,ウェルネスナース,0
785,3140001127726,新規,0,2022-10-14,2022-10-14,株式会社神戸ウエストセキュリティ,,株式会社,兵庫県,神戸市垂水区,神陵台２丁目３番２８－４０６号,,28,108,6550041,,,,,,,2022-10-14,1,,,,,コウベウエストセキュリティ,0
792,3150003002793,新規,0,2022-10-14,2022-10-14,合同会社ＷａｋｕＷａｋｕ,,合同会社,奈良県,奈良市,敷島町１丁目５０９番地の９,,29,201,6310031,,,,,,,2022-10-14,1,,,,,ワクワク,0
799,3180001153396,新規,0,2022-10-14,2022-10-14,株式会社東名信,,株式会社,愛知県,名古屋市中区,新栄２丁目９番８号,,23,106,4600007,,,,,,,2022-10-14,1,,,,,トウメイシン,0
806,3180301036714,新規,0,2022-10-14,2022-10-14,株式会社那須田興産,,株式会社,愛知県,豊橋市,井原町４７番地４（６０３）,,23,201,4400025,,,,,,,2022-10-14,1,,,,,ナスダコウサン,0
808,3180303005469,新規,0,2022-10-14,2022-10-14,スペリオリティ合同会社,,合同会社,愛知県,岡崎市,北野町字二番訳１５－２,,23,202,4440951,,,,,,,2022-10-14,1,,,,,スペリオリティ,0
813,3200001040518,新規,0,2022-10-14,2022-10-14,株式会社ＳＨＩＰ,,株式会社,岐阜県,土岐市,下石町８７２番地３,,21,212,5095202,,,,,,,2022-10-14,1,,,,,シップ,0
814,3200001040542,新規,0,2022-10-14,2022-10-14,株式会社割引ぃ,,株式会社,岐阜県,多治見市,京町４丁目９０番地の１,,21,204,5070825,,,,,,,2022-10-14,1,,,,,ワリビキィ,0
816,3200003005700,新規,0,2022-10-14,2022-10-14,合同会社柳ケ瀬Ｅｎｌｉｖｅｎ,,合同会社,岐阜県,岐阜市,若宮町４丁目２２,,21,201,5008828,,,,,,,2022-10-14,1,,,,,ヤナガセエンライブン,0
821,3220001025087,新規,0,2022-10-14,2022-10-14,株式会社ＰＬＯＴ,,株式会社,石川県,金沢市,片町１丁目６番３号夢館Ｉ５０２,00128129,17,201,9200981,,,,,,,2022-10-14,1,,,,,プロット,0
823,3230001019550,新規,0,2022-10-14,2022-10-14,一心株式会社,,株式会社,富山県,南砺市,寺家新屋敷３６６番地,,16,210,9391577,,,,,,,2022-10-14,1,,,,,イッシン,0
827,3240001060495,新規,0,2022-10-14,2022-10-14,Ｒａｊ　Ｔｒａｄｉｎｇ株式会社,,株式会社,広島県,広島市南区,青崎２丁目１９番１－３４１号,,34,103,7340053,,,,,,,2022-10-14,1,,,,,ラージトレーディング,0
843,3290001099224,新規,0,2022-10-14,2022-10-14,アーキテイメントＳＥ株式会社,,株式会社,福岡県,福岡市西区,姪の浜２丁目５番５－４０８号,,40,135,8190002,,,,,,,2022-10-14,1,,,,,アーキテイメントエスイー,0
844,3290003013067,新規,0,2022-10-14,2022-10-14,ＴＰ合同会社,,合同会社,福岡県,福岡市東区,馬出２丁目２－３３－２０２号室,,40,131,8120054,,,,,,,2022-10-14,1,,,,,ティーピー,0
846,3290801028968,新規,0,2022-10-14,2022-10-14,株式会社ＪＡＰＡＮ　ＭＩＳＳＩＯＮ,,株式会社,福岡県,北九州市小倉北区,香春口２丁目１番２０－２０１号,,40,106,8020084,,,,,,,2022-10-14,1,,,,,ジャパンミッション,0
853,3350003004191,新規,0,2022-10-14,2022-10-14,合同会社今富,,合同会社,宮崎県,都城市,都北町５４６７番地２,,45,202,8850004,,,,,,,2022-10-14,1,,,,,イマトミ,0
861,3370001049105,新規,0,2022-10-14,2022-10-14,株式会社エスシティ,,株式会社,宮城県,仙台市泉区,泉中央２丁目２２番地の７アルバ泉パーク７０２,,04,105,9813133,,,,,,,2022-10-14,1,,,,,エスシティ,0
874,3430001087619,新規,0,2022-10-14,2022-10-14,株式会社オーエスビー北海道,,株式会社,北海道,札幌市白石区,菊水八条２丁目２番５号,,01,104,0030808,,,,,,,2022-10-14,1,,,,,オーエスビーホッカイドウ,0
876,3430003014331,新規,0,2022-10-14,2022-10-14,合同会社小樽薬剤師派遣,,合同会社,北海道,小樽市,奥沢１丁目１番３号,,01,203,0470013,,,,,,,2022-10-14,1,,,,,オタルヤクザイシハケン,0
877,3430003014348,新規,0,2022-10-14,2022-10-14,合同会社Ａｌｅｔｔａ,,合同会社,北海道,札幌市東区,北二十五条東２０丁目５番１号元町グランビレッジＫ棟１０２号,,01,103,0650025,,,,,,,2022-10-14,1,,,,,アレッタ,0
878,3430003014372,新規,0,2022-10-14,2022-10-14,イッコーデンソー合同会社,,合同会社,北海道,虻田郡倶知安町,字高砂８７番地２６,,01,400,0440076,,,,,,,2022-10-14,1,,,,,イッコーデンソー,0
879,3440001009167,新規,0,2022-10-14,2022-10-14,株式会社北武,,株式会社,北海道,北斗市,東前６４番地３,,01,236,0411214,,,,,,,2022-10-14,1,,,,,ホクブ,0
886,3700150112125,新規,0,2022-10-14,2022-10-14,Ｎａｕｔｏ，Ｉｎｃ．,,外国会社等,,,,,,,,３６０　Ｐｏｒｔａｇｅ　Ａｖｅ．，Ｐａｌｏ　Ａｌｔｏ．ＣＡ９４３６　ＵＳＡ,,,,,,2022-10-14,1,,,,,ナウトインク,0
887,3700150112141,新規,0,2022-10-14,2022-10-14,片浜自治会,,その他,愛知県,田原市,片浜町南瀬古６４,,23,231,4413404,,,,,,,2022-10-14,1,,,,,カタハマジチカイ,0
888,3700150112158,新規,0,2022-10-14,2022-10-14,Ｍｏｔｉｃ　Ｈｏｎｇ　Ｋｏｎｇ　Ｌｉｍｉｔｅｄ,,外国会社等,,,,,,,,Ｕｎｉｔ　２００２，Ｌ２０，Ｔｏｗｅｒ２，Ｅｎｔｅｒｐｒｉｓｅ　Ｓｑｕａｒｅ５，３８　Ｗａｎｇ　Ｃｈｉｕ　Ｒｏａｄ，Ｋｏｗｌｏｏｎ　Ｂａｙ，Ｈｏｎｇ　Ｋｏｎｇ,,,,,,2022-10-14,1,,,,,モテイツクホンコンリミテツド,0
898,4010003038859,新規,0,2022-10-14,2022-10-14,合同会社麗樹,,合同会社,東京都,千代田区,二番町４番地コンフォリア二番町１３０２号,,13,101,1020084,,,,,,,2022-10-14,1,,,,,レイジュ,0
906,4010401170024,新規,0,2022-10-14,2022-10-14,ＷＡＴＴＢＥＥ株式会社,,株式会社,東京都,港区,元赤坂１丁目７－２０メットライフ元赤坂ウエスト５階,,13,103,1070051,,,,,,,2022-10-14,1,,,,,ワットビー,0
907,4010401170255,新規,0,2022-10-14,2022-10-14,株式会社マイ・エブリシング,,株式会社,東京都,港区,虎ノ門１丁目１７番１号虎ノ門ヒルズビジネスタワー１５階,,13,103,1050001,,,,,,,2022-10-14,1,,,,,マイエブリシング,0
913,4010403028575,新規,0,2022-10-14,2022-10-14,合同会社コレコ,,合同会社,東京都,港区,白金６丁目１６番３０,,13,103,1080072,,,,,,,2022-10-14,1,,,,,コレコ,0
914,4010403028699,新規,0,2022-10-14,2022-10-14,Ｓａｙｕｒｉ合同会社,,合同会社,東京都,港区,麻布十番２丁目７－５－２０９,,13,103,1060045,,,,,,,2022-10-14,1,,,,,サユリ,0
916,4010501049498,新規,0,2022-10-14,2022-10-14,株式会社ｍｏｏｄ,,株式会社,東京都,台東区,下谷３丁目１番２４号,,13,106,1100004,,,,,,,2022-10-14,1,,,,,モード,0
918,4010601061980,新規,0,2022-10-14,2022-10-14,オーガニック・モビリティー株式会社,,株式会社,東京都,江東区,青海２丁目７番４号ｔｈｅＳＯＨＯ,,13,108,1350064,,,,,,,2022-10-14,1,,,,,オーガニックモビリティー,0
920,4010701043334,新規,0,2022-10-14,2022-10-14,株式会社Ｐｏｓｓｉｂｉｌｉｔｙ,,株式会社,東京都,品川区,西五反田１丁目１１番９号,,13,109,1410031,,,,,,,2022-10-14,1,,,,,ポシビリティー,0
925,4010901051789,新規,0,2022-10-14,2022-10-14,Ｒｅｆｌｏｗ株式会社,,株式会社,東京都,世田谷区,池尻３丁目１８－８,,13,112,1540001,,,,,,,2022-10-14,1,,,,,リーフロー,0
930,4011001150234,新規,0,2022-10-14,2022-10-14,株式会社石嵜事務所,,株式会社,東京都,渋谷区,千駄ヶ谷１丁目２３番６号サンビューハイツ北参道２０３号,,13,113,1510051,,,,,,,2022-10-14,1,,,,,イシザキジムショ,0
931,4011001150267,新規,0,2022-10-14,2022-10-14,ナレーターズプラットフォーム株式会社,,株式会社,東京都,渋谷区,神宮前４丁目９－１３ミナガワビレッジ,,13,113,1500001,,,,,,,2022-10-14,1,,,,,ナレーターズプラットフォーム,0
932,4011001150300,新規,0,2022-10-14,2022-10-14,ＰＲＯ　ＭＩＮＤ株式会社,,株式会社,東京都,渋谷区,東１丁目３番１号,,13,113,1500011,,,,,,,2022-10-14,1,,,,,プロマインド,0
933,4011001150309,新規,0,2022-10-14,2022-10-14,シャンティーライフ株式会社,,株式会社,東京都,目黒区,青葉台３丁目１９番６号,,13,110,1530042,,,,,,,2022-10-14,1,,,,,シャンティーライフ,0
934,4011001150317,新規,0,2022-10-14,2022-10-14,ＤＦＣ株式会社,,株式会社,東京都,渋谷区,恵比寿１丁目１０番６号清園ビル５Ｆ,,13,113,1500013,,,,,,,2022-10-14,1,,,,,ディーエフシー,0
936,4011003015526,新規,0,2022-10-14,2022-10-14,合同会社Ｍｅｍｅｎｔｏ,,合同会社,東京都,渋谷区,神泉町１０番１５号,,13,113,1500045,,,,,,,2022-10-14,1,,,,,メメント,0
939,4011101100444,新規,0,2022-10-14,2022-10-14,株式会社サーライフ,,株式会社,東京都,新宿区,上落合２丁目１７番５号,,13,104,1610034,,,,,,,2022-10-14,1,,,,,サーライフ,0
940,4011101100510,新規,0,2022-10-14,2022-10-14,プレシア株式会社,,株式会社,東京都,新宿区,新宿６丁目２７番２９号,,13,104,1600022,,,,,,,2022-10-14,1,,,,,プレシア,0
941,4011101100519,新規,0,2022-10-14,2022-10-14,プリプレモ株式会社,,株式会社,東京都,新宿区,高田馬場１丁目３１番１６号ワイム高田馬場ビル６階,,13,104,1690075,,,,,,,2022-10-14,1,,,,,プリプレモ,0
947,4011301028188,新規,0,2022-10-14,2022-10-14,Ｄ２テクノロジーズ株式会社,,株式会社,東京都,杉並区,下井草３丁目１７番１７号,,13,115,1670022,,,,,,,2022-10-14,1,,,,,,0
948,4011305002866,新規,0,2022-10-14,2022-10-14,一般社団法人月と太陽,,その他の設立登記法人,東京都,杉並区,清水２丁目６番１４‐３０１号,,13,115,1670033,,,,,,,2022-10-14,1,,,,,ツキトタイヨウ,0
959,4011801041401,新規,0,2022-10-14,2022-10-14,ＣＣコンサルティング株式会社,,株式会社,東京都,足立区,竹の塚５丁目３６－１９ヴィラーチェ２０１,,13,121,1210813,,,,,,,2022-10-14,1,,,,,シーシーコンサルティング,0
971,4012801021896,新規,0,2022-10-14,2022-10-14,株式会社Ｐ＆Ｐ,,株式会社,東京都,武蔵村山市,三ツ藤２丁目１５番２号,,13,223,2080021,,,,,,,2022-10-14,1,,,,,ピーアンドピー,0
983,4020001148535,新規,0,2022-10-14,2022-10-14,Ｋｏｓｈｙ株式会社,,株式会社,神奈川県,横浜市旭区,白根６丁目６７番２２号,,14,112,2410005,,,,,,,2022-10-14,1,,,,,コシー,0
984,4020001148576,新規,0,2022-10-14,2022-10-14,株式会社山崎興業,00128139,株式会社,神奈川県,横浜市南区,睦町２丁目１７９番地２４,,14,105,2320041,,,,,,,2022-10-14,1,,,,,ヤマザキコウギョウ,0
990,4020003022572,新規,0,2022-10-14,2022-10-14,合同会社ｕｒｉｂｏ,,合同会社,神奈川県,横浜市南区,大岡１丁目３３番１１号,,14,105,2320061,,,,,,,2022-10-14,1,,,,,ウリボウ,0
997,4021001077195,新規,0,2022-10-14,2022-10-14,株式会社アール・シー,,株式会社,神奈川県,相模原市中央区,相模原４丁目８番１０－９０２号,,14,152,2520231,,,,,,,2022-10-14,1,,,,,アールシー,0
998,4021001077204,新規,0,2022-10-14,2022-10-14,株式会社Ａ．Ｋ．Ｋ．Ｙ．,,株式会社,神奈川県,小田原市,栄町２丁目９－７白鳥ビル３号室,,14,206,2500011,,,,,,,2022-10-14,1,,,,,エーケーケーワイ,0
1014,4030001150564,新規,0,2022-10-14,2022-10-14,株式会社クオーレ,,株式会社,埼玉県,志木市,柏町３丁目３番１２号,,11,228,3530007,,,,,,,2022-10-14,1,,,,,クオーレ,0
1015,4030001150572,新規,0,2022-10-14,2022-10-14,株式会社ＮＯＭＥＮＤＯ,,株式会社,埼玉県,さいたま市南区,南浦和２丁目２８－９フラットナカザワ１０２,,11,108,3360017,,,,,,,2022-10-14,1,,,,,ノメンド,0
1016,4030001150589,新規,0,2022-10-14,2022-10-14,株式会社ワールドストア,,株式会社,埼玉県,八潮市,大字八條２５００番地３２,,11,234,3400801,,,,,,,2022-10-14,1,,,,,ワールドストア,0
1021,4030003020402,新規,0,2022-10-14,2022-10-14,合同会社ワークデザイン,,合同会社,埼玉県,比企郡吉見町,大字前河内３２１番地２,,11,347,3550135,,,,,,,2022-10-14,1,,,,,ワークデザイン,0
1033,4040003021060,新規,0,2022-10-14,2022-10-14,合同会社タケラボ,,合同会社,千葉県,千葉市美浜区,磯辺５丁目１－２－１１１,,12,106,2610012,,,,,,,2022-10-14,1,,,,,タケラボ,0
1034,4040005021760,新規,0,2022-10-14,2022-10-14,医療法人社団ＹＮメディカル,,その他の設立登記法人,千葉県,千葉市花見川区,幕張本郷５丁目５番１６号２階,,12,102,2620033,,,,,,,2022-10-14,1,,,,,ワイエヌメディカル,0
1035,4040005021777,新規,0,2022-10-14,2022-10-14,医療法人社団フィオーレ,,その他の設立登記法人,千葉県,千葉市花見川区,南花園２丁目２番２１号アイエービル２階２０１号室,,12,102,2620022,,,,,,,2022-10-14,1,,,,,フィオーレ,0
1046,4070001039746,新規,0,2022-10-14,2022-10-14,株式会社野代電設,,株式会社,群馬県,邑楽郡板倉町,大字離１０３５番地,,10,521,3740102,,,,,,,2022-10-14,1,,,,,ノシロデンセツ,0
1080,4120001249422,新規,0,2022-10-14,2022-10-14,株式会社ＭＥＴＥＯＲ,,株式会社,大阪府,大阪市中央区,難波１丁目６番１０号３階,,27,128,5420076,,,,,,,2022-10-14,1,,,,,ミーティア,0
1081,4120001249496,新規,0,2022-10-14,2022-10-14,フクコネクト株式会社,,株式会社,大阪府,大阪市東成区,深江北３丁目４番２１号エクラ深江橋８１０Ｂ,,27,115,5370001,,,,,,,2022-10-14,1,,,,,フクコネクト,0
1082,4120001249521,新規,0,2022-10-14,2022-10-14,株式会社Ｌａ　Ｍｅｒ,,株式会社,大阪府,大阪市北区,西天満２丁目７番２２号サンシステム北新地ビル３階,,27,127,5300047,,,,,,,2022-10-14,1,,,,,ラメール,0
1083,4120001249538,新規,0,2022-10-14,2022-10-14,株式会社Ｔ＆Ｍ’ｓ　Ｐａｒｔｎｅｒ,,株式会社,大阪府,大阪市中央区,北久宝寺町３丁目６番１号,,27,128,5410057,,,,,,,2022-10-14,1,,,,,テイーアンドエムズパートナー,0
1084,4120001249570,新規,0,2022-10-14,2022-10-14,国度復興株式会社,,株式会社,大阪府,大阪市都島区,東野田町４丁目５－４４翠連マンション３１４号室,,27,102,5340024,,,,,,,2022-10-14,1,,,,,コクドフッコウ,0
1085,4120001249579,新規,0,2022-10-14,2022-10-14,株式会社ミライズエステート,,株式会社,大阪府,大阪市東住吉区,桑津１丁目９番１４号朝日プラザ桑津第１－１０４号室,,27,121,5460041,,,,,,,2022-10-14,1,,,,,ミライズエステート,0
1092,4120003022653,新規,0,2022-10-14,2022-10-14,Ｓａｎｔａｉ合同会社,,合同会社,大阪府,大阪市西成区,旭１丁目９番４号カトレアマンション３０５号室,,27,122,5570032,,,,,,,2022-10-14,1,,,,,サンタイ,0
1093,4120005023245,新規,0,2022-10-14,2022-10-14,一般社団法人清蘭会,,その他の設立登記法人,大阪府,大阪市北区,西天満４丁目１番２号中之島日光ビル２階,,27,127,5300047,,,,,,,2022-10-14,1,,,,,セイランカイ,0
1099,4120901046613,新規,0,2022-10-14,2022-10-14,株式会社ＳＯ．ＷＡコンサルタンシー,,株式会社,大阪府,茨木市,南春日丘６丁目６番１号,,27,211,5670046,,,,,,,2022-10-14,1,,,,,ソーワコンサルタンシー,0
1101,4120903004338,新規,0,2022-10-14,2022-10-14,合同会社サニープレイス,,合同会社,大阪府,摂津市,南千里丘５番１３－２５０４号,,27,224,5660021,,,,,,,2022-10-14,1,,,,,サニープレイス,0
1104,4122001036313,新規,0,2022-10-14,2022-10-14,株式会社ヤマキカク,,株式会社,大阪府,大東市,平野屋１丁目４番１号,,27,218,5740022,,,,,,,2022-10-14,1,,,,,ヤマキカク,0
1105,4122001036321,新規,0,2022-10-14,2022-10-14,株式会社和,,株式会社,大阪府,東大阪市,衣摺３丁目６番１号,,27,227,5770827,,,,,,,2022-10-14,1,,,,,ナゴミ,0
1115,4140001127700,新規,0,2022-10-14,2022-10-14,Ｄｅｌｉｇｈｔｅｄ八幡株式会社,,株式会社,兵庫県,揖保郡太子町,山田１５０番地,,28,464,6711501,,,,,,,2022-10-14,1,,,,,ディライティドヤハタ,0
1116,4140001127717,新規,0,2022-10-14,2022-10-14,株式会社瀧井商会,,株式会社,兵庫県,神戸市灘区,篠原台５番１－５１１号,,28,102,6570016,,,,,,,2022-10-14,1,,,,,タキイショウカイ,0
1123,4150001025878,新規,0,2022-10-14,2022-10-14,株式会社Ｏｎｅ‐ａｘｅ,,株式会社,奈良県,葛城市,北花内９１１番地,,29,211,6392113,,,,,,,2022-10-14,1,,,,,ワンアクス,0
1126,4170001017329,新規,0,2022-10-14,2022-10-14,株式会社グリーンクリーン,,株式会社,和歌山県,和歌山市,有家２６２番地１０,,30,201,6408316,,,,,,,2022-10-14,1,,,,,グリーンクリーン,0
1128,4170003001776,新規,0,2022-10-14,2022-10-14,合同会社Ｋｎｏｔｓ　Ｃｏｍｍｕｎｉｔｙ,,合同会社,和歌山県,海草郡紀美野町,田１１２,,30,304,6401363,,,,,,,2022-10-14,1,,,,,ノッツコミュニティ,0
1135,4180001153305,新規,0,2022-10-14,2022-10-14,株式会社ロゼオン,,株式会社,愛知県,名古屋市守山区,森孝２丁目８１２番地,,23,113,4630035,,,,,,,2022-10-14,1,,,,,ロゼオン,0
1136,4180003024355,新規,0,2022-10-14,2022-10-14,合同会社ＣＨＲＯＮＵＳ,,合同会社,愛知県,名古屋市千種区,今池南４番７号（Ｓ－ＲＥＳＩＤＥＮＣＥ今池南７０５号）,,23,101,4640851,,,,,,,2022-10-14,1,,,,,クロノス,0
1138,4180005019964,新規,0,2022-10-14,2022-10-14,クロスティ行政書士法人,,その他の設立登記法人,愛知県,名古屋市中区,錦３丁目１５番１５号,,23,106,4600003,,,,,,,2022-10-14,1,,,,,クロスティ,0
1149,4180303005476,新規,0,2022-10-14,2022-10-14,合同会社Ｙ’ｓ,,合同会社,愛知県,豊川市,御油町美世賜１２６番地の４,,23,207,4410211,,,,,,,2022-10-14,1,,,,,ワイズ,0
1152,4220001025086,新規,0,2022-10-14,2022-10-14,株式会社ユーティ,,株式会社,石川県,金沢市,二口町ロ１０番地２,,17,201,9200051,,,,,,,2022-10-14,1,,,,,ユーティ,0
1155,4230003001919,新規,0,2022-10-14,2022-10-14,合同会社ＶＯＲＴＥＸ,,合同会社,富山県,砺波市,一番町１番１７号信開ベルシー砺波５１０号,,16,208,9391373,,,,,,,2022-10-14,1,,,,,,0
1170,4290001099223,新規,0,2022-10-14,2022-10-14,あさひフードサービス株式会社,,株式会社,福岡県,福岡市城南区,別府１丁目１５番２２－５０３号,,40,136,8140104,,,,,,,2022-10-14,1,,,,,アサヒフードサービス,0
1171,4290001099231,新規,0,2022-10-14,2022-10-14,株式会社ＥＮＩＸＩＡ,,株式会社,福岡県,福津市,本木１５３６番地の１７,,40,224,8113203,,,,,,,2022-10-14,1,,,,,エニシア,0
1179,4320001019375,新規,0,2022-10-14,2022-10-14,株式会社アクセル,,株式会社,大分県,大分市,大字皆春２９７番地の５,,44,201,8700131,,,,,,,2022-10-14,1,,,,,アクセル,0
1182,4330001030199,新規,0,2022-10-14,2022-10-14,アイ・メディ・サポート株式会社,,株式会社,熊本県,上益城郡益城町,大字安永４４２－１７,,43,443,8612231,,,,,,,2022-10-14,1,,,,,アイメディサポート,0
1187,4340001025099,新規,0,2022-10-14,2022-10-14,株式会社内門,,株式会社,鹿児島県,鹿児島市,城南町３７番４号,,46,201,8920835,,,,,,,2022-10-14,1,,,,,ウチカド,0
1191,4360001031038,新規,0,2022-10-14,2022-10-14,株式会社ＴＣ企画,,株式会社,沖縄県,那覇市,古波蔵２丁目１７番１６号,,47,201,9000024,,,,,,,2022-10-14,1,,,,,ティーシーキカク,0
1192,4370001049104,新規,0,2022-10-14,2022-10-14,株式会社ＰＨＹＳＩＰＯ,,株式会社,宮城県,仙台市泉区,館１丁目３２番地の１,,04,105,9813214,,,,,,,2022-10-14,1,,,,,フィジポ,0
1193,4370001049153,新規,0,2022-10-14,2022-10-14,株式会社ライブアンドワークス,,株式会社,宮城県,仙台市宮城野区,宮千代２丁目１５番１号,,04,102,9830044,,,,,,,2022-10-14,1,,,,,ライブアンドワークス,0
1206,4430001087618,新規,0,2022-10-14,2022-10-14,株式会社内澤屋,,株式会社,北海道,石狩郡当別町,六軒町６９番地５１,,01,303,0610231,,,,,,,2022-10-14,1,,,,,ウチザワヤ,0
1207,4430001087634,新規,0,2022-10-14,2022-10-14,山田工業株式会社,,株式会社,北海道,伊達市,西浜町８１番地６,,01,233,0520033,,,,,,,2022-10-14,1,,,,,ヤマダコウギョウ,0
1208,4430001087650,新規,0,2022-10-14,2022-10-14,株式会社中津カンパニー,,株式会社,北海道,札幌市手稲区,金山一条３丁目１番３８号,,01,109,0060041,,,,,,,2022-10-14,1,,,,,ナカツカンパニー,0
1211,4430003014339,新規,0,2022-10-14,2022-10-14,合同会社ｓ．ａ．ｈ,,合同会社,北海道,札幌市東区,東雁来十一条４丁目６番１６号,,01,103,0070031,,,,,,,2022-10-14,1,,,,,エスエーエイチ,0
1212,4430003014363,新規,0,2022-10-14,2022-10-14,合同会社ＮＥＸＵＳＡＶＥ,,合同会社,北海道,札幌市中央区,南十三条西８丁目１番３８－３０３号,,01,101,0640913,,,,,,,2022-10-14,1,,,,,ネクセーブ,0
1215,4500001024539,新規,0,2022-10-14,2022-10-14,株式会社りの果樹園,,株式会社,愛媛県,西予市,宇和町皆田２７４７番地,,38,214,7970012,,,,,,,2022-10-14,1,,,,,リノカジュエン,0
1216,4500003002906,新規,0,2022-10-14,2022-10-14,合同会社ＳｅＡ,,合同会社,愛媛県,松山市,二番町１丁目４番地８Ｆ－ＣＩＴＹビル２Ｆ,,38,201,7900002,,,,,,,2022-10-14,1,,,,,セア,0
1217,4700150112124,新規,0,2022-10-14,2022-10-14,姉泊自治会,,その他,鳥取県,鳥取市,気高町八束水４４８番地３,,31,201,6890357,,,,,,,2022-10-14,1,,,,,アネドマリジチカイ,0
1218,4700150112140,新規,0,2022-10-14,2022-10-14,小野町自治会,,その他,滋賀県,彦根市,小野町９３７,,25,202,5220005,,,,,,,2022-10-14,1,,,,,オノチヨウジチカイ,0
1219,4700150112157,新規,0,2022-10-14,2022-10-14,ＡＦＦＩＮＩＴＹ　ＧＲＯＵＰ，ＩＮＣＯＲＰＯＲＡＴＥＤ,,外国会社等,北海道,虻田郡倶知安町,字山田１６３番地９３,,01,400,0440081,７９０　Ｓｏｕｔｈ　Ｍａｒｉｎｅ　Ｃｏｒｐｓ　Ｄｒｉｖｅ，Ｓｕｉｔｅ　２０４，Ｔａｍｕｎｉｎｇ，Ｇｕａｍ　９６９３１,,,,,,2022-10-14,1,,,,,アフイニテイグループインコーポレイテツド,0
1240,5010401170213,新規,0,2022-10-14,2022-10-14,株式会社Ｋ　ＢＥＡＵＴＥ,,株式会社,東京都,港区,西麻布１丁目１番１号ＥＤＧＥビル６階,,13,103,1060031,,,,,,,2022-10-14,1,,,,,ケーボーテ,0
1241,5010401170238,新規,0,2022-10-14,2022-10-14,株式会社ルイーズ,,株式会社,東京都,港区,北青山２丁目１２番１２号,,13,103,1070061,,,,,,,2022-10-14,1,,,,,ルイーズ,0
1242,5010401170246,新規,0,2022-10-14,2022-10-14,Ｐｏｒｔａ　Ｐａｒｔｎｅｒｓ株式会社,,株式会社,東京都,港区,赤坂９丁目７番１号ミッドタウンタワー１８階,,13,103,1070052,,,,,,,2022-10-14,1,,,,,ポルタパートナーズ,0
1243,5010401170254,新規,0,2022-10-14,2022-10-14,株式会社スヤマ,,株式会社,東京都,港区,浜松町２丁目２番１５号浜松町ダイヤビル２Ｆ,,13,103,1050013,,,,,,,2022-10-14,1,,,,,スヤマ,0
1244,5010405021429,新規,0,2022-10-14,2022-10-14,一般財団法人日本医療アートメイク財団,,その他の設立登記法人,東京都,港区,南青山３丁目３番３号リビエラ南青山ビルＢ館３階,,13,103,1070062,,,,,,,2022-10-14,1,,,,,ニホンイリョウアートメイクザイダン,0
1249,5010503006752,新規,0,2022-10-14,2022-10-14,華逸商事合同会社,,合同会社,東京都,台東区,寿２丁目１０番１１号仙石ビル１０１号室,,13,106,1110042,,,,,,,2022-10-14,1,,,,,カイツショウジ,0
1254,5010603009779,新規,0,2022-10-14,2022-10-14,合同会社吉田工業,,合同会社,東京都,江東区,辰巳１丁目１番１３－１００９号,,13,108,1350053,,,,,,,2022-10-14,1,,,,,ヨシダコウギョウ,0
1268,5011001150290,新規,0,2022-10-14,2022-10-14,株式会社バランスフットボール,,株式会社,東京都,渋谷区,千駄ヶ谷４丁目１２番９号,,13,113,1510051,,,,,,,2022-10-14,1,,,,,バランスフットボール,0
1269,5011001150308,新規,0,2022-10-14,2022-10-14,株式会社Ｅａｓｙｔｅｃｈｎｏｌｏｇｙ,,株式会社,東京都,渋谷区,道玄坂１丁目１０番８号渋谷道玄坂東急ビル２Ｆ－Ｃ,,13,113,1500043,,,,,,,2022-10-14,1,,,,,イージーテクノロジー,0
1270,5011001150316,新規,0,2022-10-14,2022-10-14,株式会社ＮＥＸＴ　ＳＴＡＧＥ,,株式会社,東京都,目黒区,上目黒５丁目１０番１１号ソシオ上目黒２０２,,13,110,1530051,,,,,,,2022-10-14,1,,,,,ネクストステージ,0
1271,5011003015541,新規,0,2022-10-14,2022-10-14,合同会社ハウスバンク,,合同会社,東京都,渋谷区,神宮前６丁目２３番４号桑野ビル２階,,13,113,1500001,,,,,,,2022-10-14,1,,,,,ハウスバンク,0
1276,5011101100501,新規,0,2022-10-14,2022-10-14,株式会社サーヴァント,,株式会社,東京都,新宿区,西新宿７丁目１８－１ＴＯＭＯＥビル５階,,13,104,1600023,,,,,,,2022-10-14,1,,,,,サーヴァント,0
1277,5011101100518,新規,0,2022-10-14,2022-10-14,株式会社ＬＡＣＯＮＩＫＯ,,株式会社,東京都,新宿区,西新宿３丁目３番１３号西新宿水間ビル６Ｆ,,13,104,1600023,,,,,,,2022-10-14,1,,,,,ラコニコ,0
1279,5011103012257,新規,0,2022-10-14,2022-10-14,合同会社バランス企画,,合同会社,東京都,新宿区,岩戸町１４－１,,13,104,1620832,,,,,,,2022-10-14,1,,,,,バランスキカク,0
1284,5011301028179,新規,0,2022-10-14,2022-10-14,株式会社Ｒｅｊｉｙ　Ｃｏｎｓｕｌｔｉｎｇ,,株式会社,東京都,杉並区,堀ノ内２丁目５番１８号,,13,115,1660013,,,,,,,2022-10-14,1,,,,,レジーコンサルティング,0
1292,5011401024598,新規,0,2022-10-14,2022-10-14,ファストマーケティング株式会社,,株式会社,東京都,板橋区,富士見町１４－５－１０５,,13,119,1740062,,,,,,,2022-10-14,1,,,,,ファストマーケティング,0
1298,5011601026304,新規,0,2022-10-14,2022-10-14,株式会社スタンリー物産,,株式会社,東京都,練馬区,桜台１丁目７番７－４０７号,,13,120,1760002,,,,,,,2022-10-14,1,,,,,スタンリーブッサン,0
1302,5011701025684,新規,0,2022-10-14,2022-10-14,株式会社ｗａｔｅｒ　ｉｍｐｒｏｖｅｓ,,株式会社,東京都,江戸川区,中葛西３丁目２４番３号,,13,123,1340083,,,,,,,2022-10-14,1,,,,,,0
1303,5011701025692,新規,0,2022-10-14,2022-10-14,トップライブ株式会社,,株式会社,東京都,江戸川区,西葛西６丁目１６番７－１００１,,13,123,1340088,,,,,,,2022-10-14,1,,,,,トップライブ,0
1306,5011705001756,新規,0,2022-10-14,2022-10-14,特定非営利活動法人起点,,その他の設立登記法人,東京都,江戸川区,中葛西７丁目１２番１９号マルアスール中葛西１０１,,13,123,1340083,,,,,,,2022-10-14,1,,,,,キテン,0
1309,5011801041391,新規,0,2022-10-14,2022-10-14,株式会社天勝,,株式会社,東京都,葛飾区,東新小岩１丁目３番５号ライオンズマンション１号館７０１号室,,13,122,1240023,,,,,,,2022-10-14,1,,,,,テンショウ,0
1310,5011801041400,新規,0,2022-10-14,2022-10-14,株式会社アジリティ,,株式会社,東京都,足立区,江北２丁目７番７号,,13,121,1230872,,,,,,,2022-10-14,1,,,,,アジリティ,0
1317,5012703002556,新規,0,2022-10-14,2022-10-14,フィルイン合同会社,,合同会社,東京都,西東京市,泉町１丁目１４番１９号,,13,229,2020011,,,,,,,2022-10-14,1,,,,,フィルイン,0
1318,5012801021895,新規,0,2022-10-14,2022-10-14,レディアホーム株式会社,,株式会社,東京都,国分寺市,本町２丁目２２－２鴨下ビル２０１,,13,214,1850012,,,,,,,2022-10-14,1,,,,,レディアホーム,0
1321,5013301049799,新規,0,2022-10-14,2022-10-14,株式会社ＩＣＨＩＢＡＮ,,株式会社,東京都,豊島区,東池袋１丁目３１番１０号,,13,116,1700013,,,,,,,2022-10-14,1,,,,,イチバン,0
1325,5020001148550,新規,0,2022-10-14,2022-10-14,Ｂｌｏｏｍｉｎｇ株式会社,,株式会社,神奈川県,横浜市神奈川区,白幡東町２８－３３－４０２,,14,102,2210072,,,,,,,2022-10-14,1,,,,,ブルーミング,0
1328,5020003022563,新規,0,2022-10-14,2022-10-14,合同会社Ｍ３,,合同会社,神奈川県,川崎市幸区,遠藤町５８番地－７０１,,14,132,2120006,,,,,,,2022-10-14,1,,,,,エムスリー,0
1334,5021001077178,新規,0,2022-10-14,2022-10-14,ＴＫクリエイティブ株式会社,,株式会社,神奈川県,相模原市中央区,星が丘１丁目１２番５号,,14,152,2520238,,,,,,,2022-10-14,1,,,,,ティーケークリエイティブ,0
1335,5021001077194,新規,0,2022-10-14,2022-10-14,スークス株式会社,,株式会社,神奈川県,鎌倉市,寺分２丁目２６番２号,,14,204,2470064,,,,,,,2022-10-14,1,,,,,スークス,0
1342,5030001150514,新規,0,2022-10-14,2022-10-14,株式会社ＡＳＷ,,株式会社,埼玉県,草加市,金明町１２７７番地１３,,11,221,3400052,,,,,,,2022-10-14,1,,,,,エーエスダブリュー,0
1343,5030001150547,新規,0,2022-10-14,2022-10-14,株式会社リターン,,株式会社,埼玉県,さいたま市南区,白幡４丁目２９番３号第五隆伸ビル５階,,11,108,3360022,,,,,,,2022-10-14,1,,,,,リターン,0
1344,5030001150555,新規,0,2022-10-14,2022-10-14,株式会社猪熊興業,,株式会社,埼玉県,春日部市,備後東７丁目１番３号プランドール２０３,,11,214,3440032,,,,,,,2022-10-14,1,,,,,イノクマコウギョウ,0
1345,5030001150563,新規,0,2022-10-14,2022-10-14,株式会社ＳＡＴＯ,,株式会社,埼玉県,川口市,青木４丁目２１番２１－２０４号インプレスト川口青木,,11,203,3320031,,,,,,,2022-10-14,1,,,,,サトウ,0
1346,5030001150571,新規,0,2022-10-14,2022-10-14,株式会社このみ,,株式会社,埼玉県,北本市,中丸３丁目４０番地,,11,233,3640013,,,,,,,2022-10-14,1,,,,,コノミ,0
1347,5030001150588,新規,0,2022-10-14,2022-10-14,株式会社結プランニング,,株式会社,埼玉県,上尾市,上町２丁目１０番６－６号,,11,219,3620037,,,,,,,2022-10-14,1,,,,,ユイプランニング,0
1348,5030001150613,新規,0,2022-10-14,2022-10-14,徳寿園株式会社,,株式会社,埼玉県,川口市,戸塚２丁目１７番２３号,,11,203,3330811,,,,,,,2022-10-14,1,,,,,トクジュエン,0
1349,5030001150621,新規,0,2022-10-14,2022-10-14,株式会社魚政,,株式会社,埼玉県,深谷市,内ケ島７２４番地１,,11,218,3660831,,,,,,,2022-10-14,1,,,,,ウオマサ,0
1350,5030003020401,新規,0,2022-10-14,2022-10-14,ＰＥＲＦＥＣＴ合同会社,,合同会社,埼玉県,草加市,瀬崎１丁目７番４０－１０２号,,11,221,3400022,,,,,,,2022-10-14,1,,,,,パーフェクト,0
1351,5030003020418,新規,0,2022-10-14,2022-10-14,合同会社ＴＫ,,合同会社,埼玉県,川口市,戸塚２丁目１７番２３号,,11,203,3330811,,,,,,,2022-10-14,1,,,,,ティーケイ,0
1353,5040001125432,新規,0,2022-10-14,2022-10-14,株式会社ＡＬＬ　ＩＮ,,株式会社,千葉県,流山市,富士見台１丁目１０番地の１２８,,12,220,2700127,,,,,,,2022-10-14,1,,,,,オールイン,0
1354,5040001125449,新規,0,2022-10-14,2022-10-14,株式会社ＷＨＩＴＥ　ＢＯＸ　ＧＲＯＵＰ,,株式会社,千葉県,我孫子市,湖北台８丁目６番６号,,12,222,2701132,,,,,,,2022-10-14,1,,,,,ホワイトボックスグループ,0
1355,5040001125457,新規,0,2022-10-14,2022-10-14,株式会社ＡＢＣ　ＮＥＸＴ,,株式会社,千葉県,印西市,高花５丁目５－１４,,12,231,2701342,,,,,,,2022-10-14,1,,,,,エービーシーネクスト,0
1359,5040003021043,新規,0,2022-10-14,2022-10-14,合同会社ファリア,,合同会社,千葉県,野田市,桐ケ作１７５１番地２８,,12,208,2700213,,,,,,,2022-10-14,1,,,,,ファリア,0
1360,5040003021051,新規,0,2022-10-14,2022-10-14,合同会社ＨＡＮＳＩＫＡ　ＩＮＴＥＲＮＡＴＩＯＮＡＬ,,合同会社,千葉県,富里市,十倉２８０番地３２,,12,233,2860212,,,,,,,2022-10-14,1,,,,,ハンシカインターナショナル,0
1362,5040005021776,新規,0,2022-10-14,2022-10-14,一般社団法人円滑相続プラットフォーム,,その他の設立登記法人,千葉県,市川市,新田４丁目６番７―３０５号,,12,203,2720035,,,,,,,2022-10-14,1,,,,,エンカツソウゾクプラットフォーム,0
1367,5050001051818,新規,0,2022-10-14,2022-10-14,株式会社楽享商事,,株式会社,茨城県,常総市,新石下３６３９番地,,08,211,3002706,,,,,,,2022-10-14,1,,,,,ラクキョウショウジ,0
1371,5070001039737,新規,0,2022-10-14,2022-10-14,清水工業株式会社,,株式会社,群馬県,藤岡市,下日野３０５４番地,,10,209,3750046,,,,,,,2022-10-14,1,,,,,シミズコウギョウ,0
1378,5080401026103,新規,0,2022-10-14,2022-10-14,株式会社ケアストーン,,株式会社,静岡県,浜松市中区,富塚町１７０番地の１５,,22,131,4328002,,,,,,,2022-10-14,1,,,,,ケアストーン,0
1379,5080405007495,新規,0,2022-10-14,2022-10-14,医療法人社団晃誠会,,その他の設立登記法人,静岡県,浜松市東区,天王町１９６６番地,,22,132,4350052,,,,,,,2022-10-14,1,,,,,コウセイカイ,0
1385,5100005012926,新規,0,2022-10-14,2022-10-14,医療法人ＢＯＣ,,その他の設立登記法人,長野県,佐久市,原５５番地４３,,20,217,3850052,,,,,,,2022-10-14,1,,,,,ビーオーシー,0
1390,5110003004882,新規,0,2022-10-14,2022-10-14,合同会社がっくん,,合同会社,新潟県,長岡市,表町４丁目４番地１６,,15,202,9400071,,,,,,,2022-10-14,1,,,,,ガックン,0
1405,5120001249413,新規,0,2022-10-14,2022-10-14,株式会社万年青家具製作所,,株式会社,大阪府,大阪市旭区,太子橋１丁目２３－２１,,27,117,5350001,,,,,,,2022-10-14,1,,,,,オモトカグセイサクショ,0
1406,5120001249504,新規,0,2022-10-14,2022-10-14,輝隆株式会社,,株式会社,大阪府,大阪市中央区,松屋町９番２０号ローレルステート松屋町６１０Ａ,,27,128,5420067,,,,,,,2022-10-14,1,,,,,キリュウ,0
1407,5120001249512,新規,0,2022-10-14,2022-10-14,株式会社ディーワーク,,株式会社,大阪府,大阪市中央区,淡路町１丁目３番２号紀陽オリエントビル５０４,,27,128,5410047,,,,,,,2022-10-14,1,,,,,ディーワーク,0
1408,5120001249553,新規,0,2022-10-14,2022-10-14,株式会社ＦＹＭ,,株式会社,大阪府,大阪市住吉区,長居東１丁目２５番５－３０１号,,27,120,5580004,,,,,,,2022-10-14,1,,,,,エフワイエム,0
1409,5120001249594,新規,0,2022-10-14,2022-10-14,株式会社ジャパンホーム管理,,株式会社,大阪府,大阪市福島区,鷺洲４丁目３番２３－１０７号,,27,103,5530002,,,,,,,2022-10-14,1,,,,,ジャパンホームカンリ,0
1410,5120001249644,新規,0,2022-10-14,2022-10-14,株式会社マーキュリー・ファンド２,,株式会社,大阪府,大阪市北区,国分寺２丁目１番１号,,27,127,5310064,,,,,,,2022-10-14,1,,,,,マーキュリーファンドツー,0
1413,5120003022636,新規,0,2022-10-14,2022-10-14,合同会社伯虎座,,合同会社,大阪府,大阪市淀川区,宮原２丁目１２番１４－２１９号,,27,123,5320003,,,,,,,2022-10-14,1,,,,,ハクトラザ,0
1419,5120901046604,新規,0,2022-10-14,2022-10-14,株式会社空,,株式会社,大阪府,豊中市,栗ケ丘町５－４０,,27,203,5600016,,,,,,,2022-10-14,1,,,,,クウ,0
1421,5130001072764,新規,0,2022-10-14,2022-10-14,妙一株式会社,,株式会社,京都府,京都市左京区,田中門前町１０２番地３階,,26,103,6068225,,,,,,,2022-10-14,1,,,,,ミョウイチ,0
1429,5140001127690,新規,0,2022-10-14,2022-10-14,株式会社Ｎｅｗｆｕｚｚ,,株式会社,兵庫県,神戸市西区,和井取１２番１９号,,28,111,6512120,,,,,,,2022-10-14,1,,,,,ニューファズ,0
1430,5140001127708,新規,0,2022-10-14,2022-10-14,株式会社ＭＩＳＩＯＮ,,株式会社,兵庫県,西宮市,甲子園七番町１７番２８－２１０号,,28,204,6638177,,,,,,,2022-10-14,1,,,,,ミシオン,0
1431,5140001127716,新規,0,2022-10-14,2022-10-14,塚本アセット株式会社,,株式会社,兵庫県,西宮市,松原町２番１１－５０４号,,28,204,6620912,,,,,,,2022-10-14,1,,,,,ツカモトアセット,0
1432,5140001127724,新規,0,2022-10-14,2022-10-14,杉山マシナリー株式会社,,株式会社,兵庫県,加西市,福住町５２０番地の１,,28,220,6752334,,,,,,,2022-10-14,1,,,,,スギヤママシナリー,0
1442,5160001024572,新規,0,2022-10-14,2022-10-14,株式会社高木空調,,株式会社,滋賀県,蒲生郡竜王町,大字山中９２３番地１８４,,25,384,5202542,,,,,,,2022-10-14,1,,,,,タカギクウチョウ,0
1443,5160002004813,新規,0,2022-10-14,2022-10-14,有限会社クリエイト・ＪＰ,,有限会社,滋賀県,大津市,北小松１７４８番地の１４３,,25,201,5200501,,,,,,,2022-10-14,1,,,,,,0
1450,5180301036704,新規,0,2022-10-14,2022-10-14,株式会社サギサカホールディングス,,株式会社,愛知県,豊田市,美山町１丁目３６番地,,23,211,4710849,,,,,,,2022-10-14,1,,,,,サギサカホールディングス,0
1451,5180301036729,新規,0,2022-10-14,2022-10-14,株式会社Ｈｉｚｕｒｕｓｙ,,株式会社,愛知県,豊田市,岩滝町滝坂４１６番地４１,,23,211,4710003,,,,,,,2022-10-14,1,,,,,ヒズルシー,0
1453,5180303005467,新規,0,2022-10-14,2022-10-14,合同会社シテン,,合同会社,愛知県,岡崎市,篭田町２１番,,23,202,4440000,,,,,,,2022-10-14,1,,,,,シテン,0
1455,5190001029833,新規,0,2022-10-14,2022-10-14,Ｓａｌｕｔａ　ＡＧＲＩ株式会社,,株式会社,三重県,伊勢市,小俣町宮前６５６番地,,24,203,5190504,,,,,,,2022-10-14,1,,,,,サルータアグリ,0
1466,5220001025085,新規,0,2022-10-14,2022-10-14,株式会社ＬＵＡＮＥＣＴプロスペリティ,,株式会社,石川県,金沢市,長土塀３丁目１７番２４号,,17,201,9200867,,,,,,,2022-10-14,1,,,,,ルアネクトプロスペリティ,0
1473,5240001060510,新規,0,2022-10-14,2022-10-14,株式会社９８４,,株式会社,広島県,廿日市市,佐方１丁目１３番１７号,,34,213,7380001,,,,,,,2022-10-14,1,,,,,キュウハチヨン,0
1480,5290001099230,新規,0,2022-10-14,2022-10-14,株式会社サウザンドアンビションズ,,株式会社,福岡県,太宰府市,大佐野３丁目１１番１８号フィールドパレス１Ｆ,,40,221,8180134,,,,,,,2022-10-14,1,,,,,サウザンドアンビションズ,0
1488,5320001019374,新規,0,2022-10-14,2022-10-14,株式会社和高開発,00128135,株式会社,大分県,臼杵市,野津町大字藤小野９６２番地の１,,44,206,8750235,,,,,,,2022-10-14,1,,,,,ワコウカイハツ,0
1489,5340001025098,新規,0,2022-10-14,2022-10-14,株式会社タイムガーデン,,株式会社,鹿児島県,霧島市,国分府中町７－８トンボパレス２１－３　Ｂ１１３号,,46,218,8994346,,,,,,,2022-10-14,1,,,,,タイムガーデン,0
1495,5360001031061,新規,0,2022-10-14,2022-10-14,株式会社たまざと,,株式会社,沖縄県,名護市,大北１丁目２７番１０号,,47,209,9050019,,,,,,,2022-10-14,1,,,,,タマザト,0
1497,5360003012340,新規,0,2022-10-14,2022-10-14,合同会社シノハラ工務店,,合同会社,沖縄県,石垣市,字平得１１７－３０ＹｈｏｍｅＰｌａｚａ３０３,,47,207,9070003,,,,,,,2022-10-14,1,,,,,シノハラコウムテン,0
1498,5370001049144,新規,0,2022-10-14,2022-10-14,株式会社ＣＯＲＥ‐ＬＩＦＥ,,株式会社,宮城県,遠田郡涌谷町,字今左エ門沖名１５５番地４,,04,501,9870133,,,,,,,2022-10-14,1,,,,,コアライフ,0
1499,5370001049152,新規,0,2022-10-14,2022-10-14,大張不動産管理株式会社,,株式会社,宮城県,仙台市宮城野区,小田原３丁目４番４４号,,04,102,9830803,,,,,,,2022-10-14,1,,,,,オオバリフドウサンカンリ,0
1509,5430001087617,新規,0,2022-10-14,2022-10-14,ディレクト株式会社,,株式会社,北海道,札幌市手稲区,前田５８０番地９,,01,109,0060000,,,,,,,2022-10-14,1,,,,,ディレクト,0
1510,5430001087666,新規,0,2022-10-14,2022-10-14,株式会社かしごえん,,株式会社,北海道,札幌市手稲区,曙二条３丁目３番３５号,,01,109,0060832,,,,,,,2022-10-14,1,,,,,カシゴエン,0
1511,5430001087674,新規,0,2022-10-14,2022-10-14,株式会社トリプレッタ,,株式会社,北海道,札幌市手稲区,星置二条７丁目７番１１号,,01,109,0060852,,,,,,,2022-10-14,1,,,,,トリプレッタ,0
1512,5430003014379,新規,0,2022-10-14,2022-10-14,合同会社札幌エンジニアリングサポート,,合同会社,北海道,札幌市北区,北七条西４丁目１番１号トーカン札幌第一キャステール６０７,,01,102,0600807,,,,,,,2022-10-14,1,,,,,サッポロエンジニアリングサポート,0
1513,5430005014583,新規,0,2022-10-14,2022-10-14,一般社団法人ＪＩＭＯＴＯ‐Ｌ,,その他の設立登記法人,北海道,勇払郡むかわ町,美幸１丁目８６番地１,,01,586,0540042,,,,,,,2022-10-14,1,,,,,ジモトエル,0
1517,5460103001489,新規,0,2022-10-14,2022-10-14,合同会社百音,,合同会社,北海道,帯広市,西九条北７丁目９番地２,,01,207,0800039,,,,,,,2022-10-14,1,,,,,モモネ,0
1524,5500001024538,新規,0,2022-10-14,2022-10-14,株式会社森本空調,,株式会社,愛媛県,東温市,牛渕１４８９番地１１,,38,215,7910213,,,,,,,2022-10-14,1,,,,,モリモトクウチョウ,0
1526,5700150112156,新規,0,2022-10-14,2022-10-14,Ｒ．Ａ．Ｌａｎｋａ　Ｅｎｔｅｒｐｒｉｓｅｓ　Ｐｖｔ　Ｌｔｄ,,外国会社等,千葉県,千葉市若葉区,大宮町１７３２番地１Ｃ,,12,104,2640016,スリランカ民主社会主義共和国、キャンディ、アクラナ、マタレロード、２４７－２,,,,,,2022-10-14,1,,,,,アールエーランカエンタープライズプライベートリミテツド,0
1535,6010001230069,新規,0,2022-10-14,2022-10-14,株式会社Ｐｌａｎ・Ｄｏ・Ｓｅｅ　Ｇｌｏｂａｌ,,株式会社,東京都,千代田区,丸の内２丁目１番１号,,13,101,1000005,,,,,,,2022-10-14,1,,,,,プランドゥシーグローバル,0
1538,6010003038857,新規,0,2022-10-14,2022-10-14,ｄ‐ｆｕ合同会社,,合同会社,東京都,中央区,晴海２丁目３番３０－２７０３号,,13,102,1040053,,,,,,,2022-10-14,1,,,,,ドットエフユー,0
1539,6010005035662,新規,0,2022-10-14,2022-10-14,一般社団法人オンライン型ファクタリング協会,,その他の設立登記法人,東京都,中央区,銀座８丁目１０－５ＤＥＮＳＡＮビルＧ－１４０１５,,13,102,1040061,,,,,,,2022-10-14,1,,,,,オンラインガタファクタリングキョウカイ,0
1543,6010401170278,新規,0,2022-10-14,2022-10-14,株式会社Ｃａｒｅｅｒ　Ｄｉｒｅｃｔｉｏｎ,,株式会社,東京都,港区,虎ノ門５丁目３－９－２０１,,13,103,1050001,,,,,,,2022-10-14,1,,,,,キャリアディレクション,0
1544,6010401170286,新規,0,2022-10-14,2022-10-14,ブイプロパティ株式会社,,株式会社,東京都,港区,西麻布１丁目４番３８千歳ビル３階,,13,103,1060031,,,,,,,2022-10-14,1,,,,,ブイプロパティ,0
1547,6010403028573,新規,0,2022-10-14,2022-10-14,合同会社ａｃｓａｌｏｎ,,合同会社,東京都,港区,三田５丁目１２番３号－５０３,,13,103,1080073,,,,,,,2022-10-14,1,,,,,,0
1548,6010403028680,新規,0,2022-10-14,2022-10-14,合同会社ＫＲＩ,,合同会社,東京都,港区,南麻布１丁目５番２０号ラルーナ南麻布４０１,,13,103,1060047,,,,,,,2022-10-14,1,,,,,ケーアールアイ,0
1550,6010501049505,新規,0,2022-10-14,2022-10-14,株式会社川名石材,,株式会社,東京都,台東区,谷中１丁目６番１８号,,13,106,1100001,,,,,,,2022-10-14,1,,,,,カワナセキザイ,0
1567,6011003015458,新規,0,2022-10-14,2022-10-14,合同会社ＬｉｎｋＵＰ,,合同会社,東京都,渋谷区,幡ヶ谷２丁目３０－１第一笹塚ビル２０４,,13,113,1510072,,,,,,,2022-10-14,1,,,,,リンクアップ,0
1568,6011003015532,新規,0,2022-10-14,2022-10-14,合同会社ＣＯＷＧＲＡＰＨ,,合同会社,東京都,渋谷区,道玄坂１丁目１０番８号渋谷道玄坂東急ビル２Ｆ－Ｃ,,13,113,1500043,,,,,,,2022-10-14,1,,,,,カウグラフ,0
1573,6011101100491,新規,0,2022-10-14,2022-10-14,株式会社Ｌｉｆｅｍａｋｅ,,株式会社,東京都,新宿区,西新宿３丁目３番１３号西新宿水間ビル６階,,13,104,1600023,,,,,,,2022-10-14,1,,,,,ライフメイク,0
1574,6011101100525,新規,0,2022-10-14,2022-10-14,株式会社いろはＦＰ事務所,,株式会社,東京都,新宿区,西新宿３丁目３番１３号西新宿水間ビル２Ｆ,,13,104,1600023,,,,,,,2022-10-14,1,,,,,イロハエフピージムショ,0
1575,6011103012256,新規,0,2022-10-14,2022-10-14,メディニーズ合同会社,,合同会社,東京都,新宿区,市谷八幡町１１番地１市ヶ谷八幡町ビル４Ｆ,,13,104,1620844,,,,,,,2022-10-14,1,,,,,メディニーズ,0
1582,6011201024145,新規,0,2022-10-14,2022-10-14,株式会社Ｉ‐Ｔｉｍｅｓ,,株式会社,東京都,中野区,新井２丁目２９番８号,,13,114,1650026,,,,,,,2022-10-14,1,,,,,アイタイムズ,0
1583,6011203003931,新規,0,2022-10-14,2022-10-14,ＣＯＩＬｓ合同会社,,合同会社,東京都,中野区,南台５丁目３４－９－５０１,,13,114,1640014,,,,,,,2022-10-14,1,,,,,コイルス,0
1590,6011501028523,新規,0,2022-10-14,2022-10-14,株式会社じょいなす,,株式会社,東京都,北区,王子１丁目１４－１２－６０３,,13,117,1140002,,,,,,,2022-10-14,1,,,,,ジョイナス,0
1597,6011703003282,新規,0,2022-10-14,2022-10-14,合同会社スプリング,,合同会社,東京都,江戸川区,船堀２丁目１９－２３,,13,123,1340091,,,,,,,2022-10-14,1,,,,,スプリング,0
1602,6011801041390,新規,0,2022-10-14,2022-10-14,メイ・アジアンワークス株式会社,,株式会社,東京都,足立区,六木３丁目２２番１０号,,13,121,1210052,,,,,,,2022-10-14,1,,,,,メイアジアンワークス,0
1604,6011803005311,新規,0,2022-10-14,2022-10-14,ＣＨ　ｅｄｕｃａｔｉｏｎ合同会社,,合同会社,東京都,足立区,栗原３丁目２６番１号２Ｆ,,13,121,1230842,,,,,,,2022-10-14,1,,,,,シーエイチエデュケーション,0
1605,6012301013161,新規,0,2022-10-14,2022-10-14,株式会社Ａｇａｉｎ　ＳＴ,,株式会社,東京都,町田市,原町田４丁目７番３号内藤ビル２階,,13,209,1940013,,,,,,,2022-10-14,1,,,,,アゲインスト,0
1609,6012401039750,新規,0,2022-10-14,2022-10-14,ニイクラホーム株式会社,,株式会社,東京都,府中市,清水が丘３丁目４４番地の２０,,13,206,1830015,,,,,,,2022-10-14,1,,,,,ニイクラホーム,0
1624,6020001148558,新規,0,2022-10-14,2022-10-14,株式会社Ｍｏｋｕ,,株式会社,神奈川県,川崎市宮前区,宮崎１丁目５番地６,,14,136,2160033,,,,,,,2022-10-14,1,,,,,モク,0
1625,6020001148574,新規,0,2022-10-14,2022-10-14,株式会社ＣＨＥＥＲＳ,,株式会社,神奈川県,横浜市旭区,川島町１９０３番地９ドルチェ横濱鶴ヶ峰１０５号室,,14,112,2410011,,,,,,,2022-10-14,1,,,,,チアーズ,0
1627,6020003022562,新規,0,2022-10-14,2022-10-14,合同会社Ｄ２Ｃマーケティング,,合同会社,神奈川県,川崎市高津区,溝口１丁目９番７号長谷川ビル５階,,14,134,2130001,,,,,,,2022-10-14,1,,,,,ディートゥーシーマーケティング,0
1628,6020005015688,新規,0,2022-10-14,2022-10-14,一般社団法人柴田経営研究機構,,その他の設立登記法人,神奈川県,横浜市青葉区,奈良町２８２４番地１ワコーレ玉川学園Ｂ棟２０５号,,14,117,2270036,,,,,,,2022-10-14,1,,,,,シバタケイエイケンキュウキコウ,0
1635,6021001077185,新規,0,2022-10-14,2022-10-14,マッカーシー株式会社,,株式会社,神奈川県,藤沢市,鵠沼海岸７丁目１９番２３号,,14,205,2510037,,,,,,,2022-10-14,1,,,,,マッカーシー,0
1636,6021003012181,新規,0,2022-10-14,2022-10-14,合同会社Ｒａｙｚ,,合同会社,神奈川県,相模原市中央区,すすきの町１７－２７ユアテラス・Ｇ２０３,,14,152,2520213,,,,,,,2022-10-14,1,,,,,レイズ,0
1637,6021003012256,新規,0,2022-10-14,2022-10-14,Ｍ＆Ｇ　Ｔｒｕｓｔ合同会社,,合同会社,神奈川県,藤沢市,片瀬４丁目６－３,,14,205,2510032,,,,,,,2022-10-14,1,,,,,エムアンドジートラスト,0
1649,6030001150595,新規,0,2022-10-14,2022-10-14,Ｓｕｔｕｄｉｏ　Ａｄ株式会社,,株式会社,埼玉県,戸田市,下前１丁目１番１１号アヴェニール戸田９１２,,11,224,3350016,,,,,,,2022-10-14,1,,,,,スタジオアド,0
1651,6030003020383,新規,0,2022-10-14,2022-10-14,合同会社ＭＫ‐１,,合同会社,埼玉県,八潮市,大字古新田４４４番地５エルブランシュ１０１号室,,11,234,3400823,,,,,,,2022-10-14,1,,,,,エムケイワン,0
1652,6030003020391,新規,0,2022-10-14,2022-10-14,合同会社Ｔａｌｈａ　Ｔｒａｄｅｒｓ,,合同会社,埼玉県,八潮市,中央１丁目８番１号,,11,234,3400816,,,,,,,2022-10-14,1,,,,,,0
1653,6030003020400,新規,0,2022-10-14,2022-10-14,合同会社ＺＥＲＯ１,,合同会社,埼玉県,蕨市,中央２丁目２番７号メゾンド中央４０６号室,,11,223,3350004,,,,,,,2022-10-14,1,,,,,ゼロイチ,0
1654,6030003020409,新規,0,2022-10-14,2022-10-14,ラティルスコンサルティング合同会社,,合同会社,埼玉県,本庄市,栗崎１４６番地１,,11,211,3670032,,,,,,,2022-10-14,1,,,,,ラティルスコンサルティング,0
1655,6030003020417,新規,0,2022-10-14,2022-10-14,合同会社神也,,合同会社,埼玉県,加須市,花崎４丁目２３番地１７,,11,210,3470032,,,,,,,2022-10-14,1,,,,,ジンヤ,0
1656,6030005021009,新規,0,2022-10-14,2022-10-14,医療法人健緑会,,その他の設立登記法人,埼玉県,新座市,栄４丁目４番２１号,,11,230,3520014,,,,,,,2022-10-14,1,,,,,ケンリョクカイ,0
1662,6040001125464,新規,0,2022-10-14,2022-10-14,株式会社Ｋ　ａｓｓｅｔ　ｃｏｍｐａｎｙ,,株式会社,千葉県,四街道市,大日２６４－９,,12,228,2840001,,,,,,,2022-10-14,1,,,,,ケーアッセトカンパニー,0
1664,6040003021050,新規,0,2022-10-14,2022-10-14,カルミアインベストメント合同会社,,合同会社,千葉県,柏市,手賀の杜４丁目５番地５,,12,217,2701447,,,,,,,2022-10-14,1,,,,,カルミアインベストメント,0
1665,6040003021059,新規,0,2022-10-14,2022-10-14,工芸セキ合同会社,,合同会社,千葉県,千葉市花見川区,天戸町１３４０番地８－１０２,,12,102,2620043,,,,,,,2022-10-14,1,,,,,コウゲイセキ,0
1666,6040005021759,新規,0,2022-10-14,2022-10-14,特定非営利活動法人そらの会保育・子育てカウンセリング研究所,,その他の設立登記法人,千葉県,大網白里市,みやこ野１丁目５番地６５,,12,239,2993236,,,,,,,2022-10-14,1,,,,,ソラノカイホイクコソダテカウンセリングケンキュウジョ,0
1667,6040005021775,新規,0,2022-10-14,2022-10-14,医療法人社団達生院,,その他の設立登記法人,千葉県,木更津市,清見台南５丁目１番４号,,12,206,2920042,,,,,,,2022-10-14,1,,,,,タツセイイン,0
1675,6070001039728,新規,0,2022-10-14,2022-10-14,ＫＫＴ　Ａｒｔ　Ｓｔｕｄｉｏ株式会社,,株式会社,群馬県,高崎市,矢中町３１２番地５,,10,202,3701203,,,,,,,2022-10-14,1,,,,,ケイケイティーアートスタジオ,0
1677,6090001017814,新規,0,2022-10-14,2022-10-14,株式会社フジオ住研投資,,株式会社,山梨県,甲府市,丸の内２丁目３１番８号,,19,201,4000031,,,,,,,2022-10-14,1,,,,,フジオジュウケントウシ,0
1680,6100003006722,新規,0,2022-10-14,2022-10-14,合同会社縁互,,合同会社,長野県,長野市,青木島町綱島２８７番地２,,20,201,3812206,,,,,,,2022-10-14,1,,,,,エンゴ,0
1681,6100005012925,新規,0,2022-10-14,2022-10-14,一般社団法人じじバぁバこども食堂,,その他の設立登記法人,長野県,安曇野市,三郷明盛１０６４番地１,,20,220,3998101,,,,,,,2022-10-14,1,,,,,ジジバアバコドモショクドウ,0
1694,6120001249437,新規,0,2022-10-14,2022-10-14,Ｎｕｔｓ株式会社,,株式会社,大阪府,大阪市西区,北堀江２丁目１７番１５号,,27,106,5500014,,,,,,,2022-10-14,1,,,,,ナッツ,0
1695,6120001249494,新規,0,2022-10-14,2022-10-14,冰佳株式会社,,株式会社,大阪府,大阪市住吉区,長居東４丁目１５－２１－５０３,,27,120,5580004,,,,,,,2022-10-14,1,,,,,ヒョウカ,0
1696,6120001249552,新規,0,2022-10-14,2022-10-14,株式会社クリパー,,株式会社,大阪府,大阪市中央区,南船場２丁目１番３号フェニックス南船場ビルＢ１Ｆ,,27,128,5420081,,,,,,,2022-10-14,1,,,,,クリパー,0
1697,6120001249585,新規,0,2022-10-14,2022-10-14,株式会社一遇,,株式会社,大阪府,大阪市旭区,新森４丁目７番３号,,27,117,5350022,,,,,,,2022-10-14,1,,,,,イチグウ,0
1700,6120003022643,新規,0,2022-10-14,2022-10-14,合同会社インフィニティ・コム,,合同会社,大阪府,大阪市東淀川区,大道南３丁目１３番６号ガレージハウス１０５号,,27,114,5330012,,,,,,,2022-10-14,1,,,,,インフィニティコム,0
1711,6120101066377,新規,0,2022-10-14,2022-10-14,株式会社マルクィーン,,株式会社,大阪府,堺市北区,中百舌鳥町４丁１番地１,,27,146,5918023,,,,,,,2022-10-14,1,,,,,マルクィーン,0
1712,6120101066385,新規,0,2022-10-14,2022-10-14,株式会社Ｂ．Ｂ．４,,株式会社,大阪府,堺市美原区,黒山２３０番地,,27,147,5870002,,,,,,,2022-10-14,1,,,,,ビービーフォー,0
1713,6120103004888,新規,0,2022-10-14,2022-10-14,合同会社ＡＣＹ,,合同会社,大阪府,藤井寺市,津堂１丁目１０番４１号,,27,226,5830037,,,,,,,2022-10-14,1,,,,,エーシーワイ,0
1717,6120903004336,新規,0,2022-10-14,2022-10-14,ｈｉｔｏｔｏｋｉ合同会社,,合同会社,大阪府,箕面市,桜ケ丘４丁目１９－３０,,27,220,5620046,,,,,,,2022-10-14,1,,,,,ヒトトキ,0
1718,6122001036311,新規,0,2022-10-14,2022-10-14,株式会社パイオネリック,,株式会社,大阪府,大東市,北条２丁目２番１０号,,27,218,5740011,,,,,,,2022-10-14,1,,,,,パイオネリック,0
1720,6130003008245,新規,0,2022-10-14,2022-10-14,合同会社ＡＫＭｅｅｔｉｎｇ,,合同会社,京都府,京都市左京区,新丸太町通仁王門下る新丸太町５０番地,,26,103,6068386,,,,,,,2022-10-14,1,,,,,エーケーミーティング,0
1725,6140001127590,新規,0,2022-10-14,2022-10-14,ＡＳＨＩＹＡ　ＴＲＡＤＩＮＧ株式会社,,株式会社,兵庫県,神戸市中央区,脇浜町３丁目５－１０,,28,110,6510072,,,,,,,2022-10-14,1,,,,,アシヤトレーディング,0
1726,6140001127723,新規,0,2022-10-14,2022-10-14,株式会社ＳＯＬＩＳ,,株式会社,兵庫県,神戸市兵庫区,荒田町３丁目４０番３号,,28,105,6520032,,,,,,,2022-10-14,1,,,,,ソリス,0
1728,6140003018243,新規,0,2022-10-14,2022-10-14,合同会社ジタキョウエイ,,合同会社,兵庫県,神戸市中央区,坂口通１丁目３番９－２０２号,,28,110,6510062,,,,,,,2022-10-14,1,,,,,ジタキョウエイ,0
1736,6160003002699,新規,0,2022-10-14,2022-10-14,合同会社グループホームそら,,合同会社,滋賀県,蒲生郡竜王町,大字山之上３４０６,,25,384,5202531,,,,,,,2022-10-14,1,,,,,グループホームソラ,0
1741,6180001153360,新規,0,2022-10-14,2022-10-14,株式会社Ｎｉｎｅ,,株式会社,愛知県,江南市,上奈良町緑１０９番地,,23,217,4838259,,,,,,,2022-10-14,1,,,,,ナイン,0
1748,6180303005474,新規,0,2022-10-14,2022-10-14,合同会社アイワン・インベストメント,,合同会社,愛知県,豊橋市,大岩町字南町裏６２番地１４,,23,201,4413147,,,,,,,2022-10-14,1,,,,,アイワンインベストメント,0
1753,6190005011745,新規,0,2022-10-14,2022-10-14,行政書士法人ＯＵＬＡＰ,,その他の設立登記法人,三重県,四日市市,東富田町１４番４号,,24,202,5108006,,,,,,,2022-10-14,1,,,,,オウラップ,0
1757,6200005013401,新規,0,2022-10-14,2022-10-14,一般社団法人ＯＮＥ　ＧＵＪＯ,,その他の設立登記法人,岐阜県,郡上市,八幡町新町９３９町家玄麟２Ｆ,,21,219,5014226,,,,,,,2022-10-14,1,,,,,ワングジョウ,0
1760,6220003003377,新規,0,2022-10-14,2022-10-14,合同会社Ｘｅｒｏｚｅｌｌｏ,,合同会社,石川県,加賀市,塩浜町ち３９番地,,17,206,9220446,,,,,,,2022-10-14,1,,,,,ゼロゼロ,0
1762,6220005008696,新規,0,2022-10-14,2022-10-14,一般社団法人日本ドローンズ,,その他の設立登記法人,石川県,鹿島郡中能登町,井田マ２２,,17,407,9291721,,,,,,,2022-10-14,1,,,,,ニッポンドローンズ,0
1766,6240001060501,新規,0,2022-10-14,2022-10-14,株式会社コモドハウス,,株式会社,広島県,広島市安佐南区,毘沙門台２丁目１８番５号,,34,105,7310152,,,,,,,2022-10-14,1,,,,,コモドハウス,0
1768,6250001019802,新規,0,2022-10-14,2022-10-14,株式会社ＭＹＳ,,株式会社,山口県,山口市,下小鯖４０２５番地４,,35,203,7530212,,,,,,,2022-10-14,1,,,,,エムワイエス,0
1783,6290001099238,新規,0,2022-10-14,2022-10-14,株式会社筒井水産,,株式会社,福岡県,糸島市,加布里５丁目３７番１号,,40,230,8191124,,,,,,,2022-10-14,1,,,,,ツツイスイサン,0
1792,6320001019373,新規,0,2022-10-14,2022-10-14,株式会社心華,,株式会社,大分県,中津市,三光西秣１７０５番地,,44,203,8790222,,,,,,,2022-10-14,1,,,,,シンゲ,0
1795,6340001001767,新規,0,2022-10-14,2022-10-14,株式会社斎野組,,株式会社,鹿児島県,鹿児島市,宇宿２丁目８番２６号,,46,201,8900073,,,,,,,2022-10-14,1,,,,,サイノグミ,0
1799,6360001031060,新規,0,2022-10-14,2022-10-14,株式会社ハルモニアグランデ,,株式会社,沖縄県,那覇市,久茂地１丁目１－１、９Ｆ,,47,201,9000015,,,,,,,2022-10-14,1,,,,,ハルモニアグランデ,0
1809,6370003005862,新規,0,2022-10-14,2022-10-14,合同会社佐々木電機,,合同会社,宮城県,登米市,中田町石森字駒牽３６１番地２,,04,212,9870601,,,,,,,2022-10-14,1,,,,,ササキデンキ,0
1821,6430001087616,新規,0,2022-10-14,2022-10-14,株式会社六本木,,株式会社,北海道,苫小牧市,錦町２丁目４番２号,,01,213,0530023,,,,,,,2022-10-14,1,,,,,ロッポンギ,0
1822,6430001087649,新規,0,2022-10-14,2022-10-14,株式会社ＫＯＹＡＭＡ工業,,株式会社,北海道,江別市,新栄台７６番地の６,,01,217,0690806,,,,,,,2022-10-14,1,,,,,コヤマコウギョウ,0
1825,6430003014386,新規,0,2022-10-14,2022-10-14,合同会社ワンエステート,,合同会社,北海道,札幌市東区,北十六条東１丁目２番２０,,01,103,0650016,,,,,,,2022-10-14,1,,,,,ワンエステート,0
1826,6450001013818,新規,0,2022-10-14,2022-10-14,株式会社モッコウ,,株式会社,北海道,旭川市,永山北一条１０丁目１３番２９号,,01,204,0798451,,,,,,,2022-10-14,1,,,,,モッコウ,0
1831,6460101007264,新規,0,2022-10-14,2022-10-14,株式会社梶尾フラワー,,株式会社,北海道,帯広市,西二十二条北１丁目１３番地,,01,207,0802462,,,,,,,2022-10-14,1,,,,,カジオフラワー,0
1846,7010001230126,新規,0,2022-10-14,2022-10-14,株式会社セワグループ,,株式会社,東京都,中央区,新川２丁目２２番６号,,13,102,1040033,,,,,,,2022-10-14,1,,,,,セワグループ,0
1848,7010003038848,新規,0,2022-10-14,2022-10-14,合同会社フォルモサ太陽光,,合同会社,東京都,千代田区,内幸町１丁目３番３号内幸町ダイビル,,13,101,1000011,,,,,,,2022-10-14,1,,,,,フォルモサタイヨウコウ,0
1849,7010003038864,新規,0,2022-10-14,2022-10-14,合同会社野村事務所,,合同会社,東京都,文京区,本郷４丁目６番７号,,13,105,1130033,,,,,,,2022-10-14,1,,,,,ノムラジムショ,0
1855,7010401170228,新規,0,2022-10-14,2022-10-14,株式会社プラチナファミリー,,株式会社,東京都,港区,南青山３丁目４番２号ＢＡＳＥ南青山オフィス２０３号室,,13,103,1070062,,,,,,,2022-10-14,1,,,,,プラチナファミリー,0
1856,7010401170277,新規,0,2022-10-14,2022-10-14,富博株式会社,,株式会社,東京都,港区,浜松町２丁目２番１５号,,13,103,1050013,,,,,,,2022-10-14,1,,,,,トミヒロ,0
1861,7010403028721,新規,0,2022-10-14,2022-10-14,合同会社オフィス松本,,合同会社,東京都,港区,南青山２丁目２番１５号,,13,103,1070062,,,,,,,2022-10-14,1,,,,,オフィスマツモト,0
1875,7010901051794,新規,0,2022-10-14,2022-10-14,株式会社メディカルポート,,株式会社,東京都,世田谷区,北沢３丁目５番１６号シェモア北沢２０３,,13,112,1550031,,,,,,,2022-10-14,1,,,,,メディカルポート,0
1880,7011001150256,新規,0,2022-10-14,2022-10-14,株式会社ＳＩＮ,,株式会社,東京都,渋谷区,広尾５丁目１－４３広尾ＺＥＲＯ５０１,,13,113,1500012,,,,,,,2022-10-14,1,,,,,シン,0
1881,7011001150297,新規,0,2022-10-14,2022-10-14,株式会社パラミル,,株式会社,東京都,渋谷区,道玄坂１丁目１６番６号二葉ビル８ｂ,,13,113,1500043,,,,,,,2022-10-14,1,,,,,パラミル,0
1882,7011001150306,新規,0,2022-10-14,2022-10-14,株式会社ＵＮＩＳＯＮ　ＨＹＢＲＩＤ,,株式会社,東京都,渋谷区,円山町５番５号Ｎａｖｉ渋谷Ｖ３階,00128137,13,113,1500044,,,,,,,2022-10-14,1,,,,,ユニゾンハイブリッド,0
1883,7011001150347,新規,0,2022-10-14,2022-10-14,株式会社ビバリーヒルズ,,株式会社,東京都,渋谷区,上原１丁目１４番１３号,,13,113,1510064,,,,,,,2022-10-14,1,,,,,ビバリーヒルズ,0
1889,7011101100508,新規,0,2022-10-14,2022-10-14,株式会社プロスパーコンサルティング,,株式会社,東京都,新宿区,大久保２丁目２８番９号,,13,104,1690072,,,,,,,2022-10-14,1,,,,,プロスパーコンサルティング,0
1891,7011201024152,新規,0,2022-10-14,2022-10-14,株式会社Ｆｕｔｕｒｅ　Ｔｒｅｎｄｓ　Ｊａｐａｎ,,株式会社,東京都,中野区,新井２丁目３１番１－４０１号,,13,114,1650026,,,,,,,2022-10-14,1,,,,,フューチャートレンズジャパン,0
1893,7011301028177,新規,0,2022-10-14,2022-10-14,株式会社Ｆｕｕｊｉａ,,株式会社,東京都,杉並区,上井草２丁目２３番９－５１１号グランノア杉並上井草サウスコート,,13,115,1670023,,,,,,,2022-10-14,1,,,,,フウジア,0
1898,7011501028547,新規,0,2022-10-14,2022-10-14,誠達株式会社,,株式会社,東京都,荒川区,東日暮里６丁目３６番１０号３０２号室,,13,118,1160014,,,,,,,2022-10-14,1,,,,,セイタツ,0
1902,7011801041398,新規,0,2022-10-14,2022-10-14,株式会社伸栄ビルド,,株式会社,東京都,葛飾区,東新小岩３丁目４番２１号,,13,122,1240023,,,,,,,2022-10-14,1,,,,,シンエイビルド,0
1910,7020001148334,新規,0,2022-10-14,2022-10-14,株式会社ＯＮＥ　ＲＯＯＴＳ,,株式会社,神奈川県,横浜市中区,扇町３丁目８－６日之出扇町ビル４階,,14,104,2310027,,,,,,,2022-10-14,1,,,,,ワンルーツ,0
1911,7020001148557,新規,0,2022-10-14,2022-10-14,ＰＨＩ株式会社,,株式会社,神奈川県,横浜市中区,尾上町５丁目８０番地神奈川中小企業センタービル７０７,,14,104,2310015,,,,,,,2022-10-14,1,,,,,ピーエイチアイ,0
1912,7020001148565,新規,0,2022-10-14,2022-10-14,株式会社ヴィヴィッド,,株式会社,神奈川県,川崎市中原区,木月１丁目１３番２２号,,14,133,2110025,,,,,,,2022-10-14,1,,,,,ヴィヴィッド,0
1913,7020001148573,新規,0,2022-10-14,2022-10-14,ＯＦＦＩＣＥ　ＹＯＫＯＴＡ株式会社,,株式会社,神奈川県,横浜市青葉区,桂台１丁目８番地３６,,14,117,2270034,,,,,,,2022-10-14,1,,,,,オフィスヨコタ,0
1923,7021001077176,新規,0,2022-10-14,2022-10-14,株式会社Ｓｔｒｅａｍ　ｅｘｐｒｅｓｓ,,株式会社,神奈川県,秦野市,東田原３９３番地６,,14,211,2570028,,,,,,,2022-10-14,1,,,,,ストリームエクスプレス,0
1924,7021001077184,新規,0,2022-10-14,2022-10-14,Ｂｅｌｌ　ｈｏｍｅ株式会社,,株式会社,神奈川県,南足柄市,竹松１７６４番地,,14,217,2500111,,,,,,,2022-10-14,1,,,,,ベルホーム,0
1925,7021001077192,新規,0,2022-10-14,2022-10-14,株式会社ウェルガーデン,,株式会社,神奈川県,相模原市中央区,水郷田名２丁目２２番地３２号,,14,152,2520246,,,,,,,2022-10-14,1,,,,,ウェルガーデン,0
1926,7021001077201,新規,0,2022-10-14,2022-10-14,株式会社インビックス,,株式会社,神奈川県,小田原市,堀之内１９６－２－２平塚店舗１０３,,14,206,2500853,,,,,,,2022-10-14,1,,,,,インビックス,0
1933,7021003012222,新規,0,2022-10-14,2022-10-14,合同会社ＲＡＢＩＬＯＯ　ＪＡＰＡＮ,,合同会社,神奈川県,相模原市中央区,清新１丁目１番１７号荒木ビル３階,,14,152,2520216,,,,,,,2022-10-14,1,,,,,ラビロージャパン,0
1934,7021003012239,新規,0,2022-10-14,2022-10-14,ＢＯＵＮＣＥＢＡＣＫ合同会社,,合同会社,神奈川県,相模原市南区,上鶴間１丁目２３番１６号,,14,153,2520302,,,,,,,2022-10-14,1,,,,,バウンスバック,0
1935,7021003012247,新規,0,2022-10-14,2022-10-14,つくい環境整備合同会社,,合同会社,神奈川県,相模原市緑区,又野２７３番地２,,14,151,2520158,,,,,,,2022-10-14,1,,,,,ツクイカンキョウセイビ,0
1940,7030001150438,新規,0,2022-10-14,2022-10-14,株式会社シマプロ,,株式会社,埼玉県,さいたま市大宮区,宮町２丁目１１６番地ＩｃｈｉｎｏｍｉｙａＢＬＤＧ．２０１,,11,103,3300802,,,,,,,2022-10-14,1,,,,,シマプロ,0
1941,7030001150578,新規,0,2022-10-14,2022-10-14,株式会社ＩＳ・ＮＥＴＷＯＲＫＳ,,株式会社,埼玉県,戸田市,笹目３丁目１９番地の１０ジュネスタウン戸田１０５号室,,11,224,3350034,,,,,,,2022-10-14,1,,,,,アイエスネットワークス,0
1945,7030003020291,新規,0,2022-10-14,2022-10-14,合同会社Ｓｐｌａｓｈ,,合同会社,埼玉県,草加市,稲荷６丁目１６番７号ベルドゥムール草加稲荷７０１号,,11,221,3400003,,,,,,,2022-10-14,1,,,,,スプラッシュ,0
1946,7030003020366,新規,0,2022-10-14,2022-10-14,ＷＥＥＤ合同会社,,合同会社,埼玉県,さいたま市見沼区,東大宮４丁目６８番地１６クレア東大宮ＩＩ１０５号,00128133,11,104,3370051,,,,,,,2022-10-14,1,,,,,ウィード,0
1947,7030003020399,新規,0,2022-10-14,2022-10-14,合同会社鷹,,合同会社,埼玉県,越谷市,東越谷１０丁目５番地１２,,11,222,3430023,,,,,,,2022-10-14,1,,,,,タカ,0
1948,7030003020416,新規,0,2022-10-14,2022-10-14,Ｒｏａｄ　Ｂｕｉｌ合同会社,,合同会社,埼玉県,加須市,上樋遣川４０４７番地２３,,11,210,3470003,,,,,,,2022-10-14,1,,,,,ロードビル,0
1966,7040003021041,新規,0,2022-10-14,2022-10-14,合同会社Ｃｈｒｏｎｏｓ,,合同会社,千葉県,船橋市,西船５丁目２４番３－２０１号,,12,204,2730031,,,,,,,2022-10-14,1,,,,,クロノス,0
1967,7040005021774,新規,0,2022-10-14,2022-10-14,一般社団法人にあとぴあ,,その他の設立登記法人,千葉県,八千代市,八千代台東１丁目１９番１号２階,,12,221,2760032,,,,,,,2022-10-14,1,,,,,ニアトピア,0
1970,7050001051741,新規,0,2022-10-14,2022-10-14,株式会社セネックホールディングス,,株式会社,茨城県,猿島郡境町,７８番地１１,,08,546,3060433,,,,,,,2022-10-14,1,,,,,セネックホールディングス,0
1976,7070001039743,新規,0,2022-10-14,2022-10-14,株式会社Ｇ’ｓ,,株式会社,群馬県,高崎市,下小鳥町７７番地１５リーベン２０３号,,10,202,3700074,,,,,,,2022-10-14,1,,,,,ジーズ,0
1978,7070005010048,新規,0,2022-10-14,2022-10-14,一般社団法人シニアライフサポート協会北関東支部,,その他の設立登記法人,群馬県,前橋市,石関町１６５番地,,10,201,3710006,,,,,,,2022-10-14,1,,,,,シニアライフサポートキョウカイキタカントウシブ,0
1983,7080401026101,新規,0,2022-10-14,2022-10-14,Ｕｌｕ・コンサルティング株式会社,,株式会社,静岡県,浜松市中区,高丘北１丁目２０番１０号,,22,131,4338119,,,,,,,2022-10-14,1,,,,,ウルコンサルティング,0
2009,7120001249477,新規,0,2022-10-14,2022-10-14,エコービジネスホールディングス株式会社,,株式会社,大阪府,大阪市北区,中之島２丁目３番３３号,,27,127,5300005,,,,,,,2022-10-14,1,,,,,エコービジネスホールディングス,0
2010,7120001249519,新規,0,2022-10-14,2022-10-14,ロマン株式会社,,株式会社,大阪府,大阪市北区,天満２丁目１２－３ヴィレッジリバー南森町２－Ｂ,,27,127,5300043,,,,,,,2022-10-14,1,,,,,ロマン,0
2011,7120001249584,新規,0,2022-10-14,2022-10-14,株式会社人の和,,株式会社,大阪府,大阪市阿倍野区,阿倍野筋５丁目１３－２セレッソコート９０１号室,,27,119,5450052,,,,,,,2022-10-14,1,,,,,ヒトノワ,0
2012,7120001249592,新規,0,2022-10-14,2022-10-14,株式会社イマイチジ,,株式会社,大阪府,大阪市北区,本庄東３丁目６番１８号リヴァーＨＯＮＪＹＯ２０１,,27,127,5310074,,,,,,,2022-10-14,1,,,,,イマイチジ,0
2015,7120003022650,新規,0,2022-10-14,2022-10-14,合同会社ＦＦＫＣ,,合同会社,大阪府,大阪市旭区,生江１丁目１番１４号アサヒアパート１６号室,,27,117,5350004,,,,,,,2022-10-14,1,,,,,エフエフケーシー,0
2016,7120003022659,新規,0,2022-10-14,2022-10-14,合同会社１８９,,合同会社,大阪府,大阪市西区,新町１丁目３４番２－９０９号,,27,106,5500013,,,,,,,2022-10-14,1,,,,,イチハチキュウ,0
2017,7120003022667,新規,0,2022-10-14,2022-10-14,イルミネイト合同会社,,合同会社,大阪府,大阪市生野区,小路２丁目３番２６号,,27,116,5440002,,,,,,,2022-10-14,1,,,,,イルミネイト,0
2020,7120101066384,新規,0,2022-10-14,2022-10-14,株式会社プラネット,,株式会社,大阪府,南河内郡河南町,大字加納１番地の１０,,27,382,5850012,,,,,,,2022-10-14,1,,,,,プラネット,0
2025,7122001036319,新規,0,2022-10-14,2022-10-14,株式会社ユニークネス,,株式会社,大阪府,八尾市,志紀町１丁目１０番,,27,212,5810031,,,,,,,2022-10-14,1,,,,,ユニークネス,0
2030,7130005016609,新規,0,2022-10-14,2022-10-14,一般社団法人ひとひら,,その他の設立登記法人,京都府,京都市伏見区,桃山町養斉１６番地２０,,26,109,6128016,,,,,,,2022-10-14,1,,,,,ヒトヒラ,0
2036,7140001127565,新規,0,2022-10-14,2022-10-14,株式会社ｕｓａｆｕｒｕ,,株式会社,兵庫県,神戸市長田区,二葉町１０丁目３－２０,,28,106,6530042,,,,,,,2022-10-14,1,,,,,ウサフル,0
2037,7140001127706,新規,0,2022-10-14,2022-10-14,株式会社ザデイ,,株式会社,兵庫県,姫路市,下寺町１４０番地エンブレイス姫路下寺町１０７,,28,201,6700932,,,,,,,2022-10-14,1,,,,,ザデイ,0
2038,7140001127730,新規,0,2022-10-14,2022-10-14,ＡＹＤ株式会社,,株式会社,兵庫県,西宮市,甲子園六石町４番９－２０３号,,28,204,6638164,,,,,,,2022-10-14,1,,,,,エーワイディー,0
2045,7140003018234,新規,0,2022-10-14,2022-10-14,津田コンサルティング合同会社,,合同会社,兵庫県,三田市,あかしあ台５丁目２９番地Ｄ棟６０２号,,28,219,6691323,,,,,,,2022-10-14,1,,,,,ツダコンサルティング,0
2046,7140005026342,新規,0,2022-10-14,2022-10-14,一般社団法人美宝の会,,その他の設立登記法人,兵庫県,西宮市,花の峯５番７号,,28,204,6691121,,,,,,,2022-10-14,1,,,,,ミホウノカイ,0
2049,7150001025883,新規,0,2022-10-14,2022-10-14,株式会社フクヤ,,株式会社,奈良県,奈良市,元興寺町１０番地,,29,201,6308332,,,,,,,2022-10-14,1,,,,,フクヤ,0
2058,7180001153392,新規,0,2022-10-14,2022-10-14,Ｌｅｂｅｎ株式会社,,株式会社,愛知県,名古屋市名東区,貴船２丁目５０３番地,,23,115,4650058,,,,,,,2022-10-14,1,,,,,リーベン,0
2091,7240001060517,新規,0,2022-10-14,2022-10-14,株式会社ＡＱＵＡリノベーション,,株式会社,広島県,広島市安佐南区,西原４丁目６番２０号,,34,105,7310113,,,,,,,2022-10-14,1,,,,,アクアリノベーション,0
2098,7290001099229,新規,0,2022-10-14,2022-10-14,義禮株式会社,,株式会社,福岡県,糟屋郡粕屋町,大字戸原６３７番地,,40,349,8112312,,,,,,,2022-10-14,1,,,,,ギレイ,0
2099,7290003013055,新規,0,2022-10-14,2022-10-14,アキュムレートバーチュー合同会社,,合同会社,福岡県,宗像市,徳重２５０番地１,,40,220,8114164,,,,,,,2022-10-14,1,,,,,アキュムレートバーチュー,0
2100,7290003013063,新規,0,2022-10-14,2022-10-14,合同会社エアオールサポート,,合同会社,福岡県,福岡市東区,多々良１丁目４６番２２－２０２号,,40,131,8130033,,,,,,,2022-10-14,1,,,,,エアオールサポート,0
2108,7320005010022,新規,0,2022-10-14,2022-10-14,大分県宇佐市清掃事業協同組合,,その他の設立登記法人,大分県,宇佐市,大字四日市字千源寺１０２１番地の１,,44,211,8790471,,,,,,,2022-10-14,1,,,,,オオイタケンウサシセイソウジギョウ,0
2112,7350001017992,新規,0,2022-10-14,2022-10-14,株式会社すいか,,株式会社,宮崎県,宮崎市,花ケ島町南赤江町２１２８番地４,,45,201,8800036,,,,,,,2022-10-14,1,,,,,スイカ,0
2114,7350003004196,新規,0,2022-10-14,2022-10-14,合同会社Ｍｙクエスト,,合同会社,宮崎県,串間市,大字西方３１４２番地８,,45,207,8880001,,,,,,,2022-10-14,1,,,,,マイクエスト,0
2129,7430001087615,新規,0,2022-10-14,2022-10-14,株式会社ＩＣＩ,,株式会社,北海道,札幌市西区,発寒四条７丁目４番１５号,,01,107,0630824,,,,,,,2022-10-14,1,,,,,アイシーアイ,0
2130,7430001087623,新規,0,2022-10-14,2022-10-14,株式会社さっぽろ建築工房,,株式会社,北海道,札幌市白石区,北郷四条７丁目５番１２号,,01,104,0030834,,,,,,,2022-10-14,1,,,,,サッポロケンチクコウボウ,0
2131,7430001087648,新規,0,2022-10-14,2022-10-14,株式会社イクス,,株式会社,北海道,札幌市中央区,北一条西７丁目３番,,01,101,0600001,,,,,,,2022-10-14,1,,,,,イクス,0
2134,7430003014336,新規,0,2022-10-14,2022-10-14,合同会社陽製作所,,合同会社,北海道,千歳市,あずさ５丁目１７番１５号,,01,224,0660076,,,,,,,2022-10-14,1,,,,,ヒナタセイサクショ,0
2135,7430003014344,新規,0,2022-10-14,2022-10-14,合同会社ノースフィールド,,合同会社,北海道,江別市,元江別８４９番地の６１,,01,217,0670032,,,,,,,2022-10-14,1,,,,,ノースフィールド,0
2136,7430003014360,新規,0,2022-10-14,2022-10-14,合同会社Ｋｎｏｔ,,合同会社,北海道,札幌市豊平区,平岸一条１４丁目１番２１号,,01,105,0620931,,,,,,,2022-10-14,1,,,,,ノット,0
2137,7430005014581,新規,0,2022-10-14,2022-10-14,医療法人社団ちとせおひさまこどもクリニック,,その他の設立登記法人,北海道,千歳市,北陽８丁目１２番５号,,01,224,0660032,,,,,,,2022-10-14,1,,,,,チトセオヒサマコドモクリニック,0
2158,8010001230091,新規,0,2022-10-14,2022-10-14,株式会社Ｋ．Ｏ,,株式会社,東京都,中央区,晴海３丁目１３番２－５０１４号,,13,102,1040053,,,,,,,2022-10-14,1,,,,,ケーオー,0
2162,8010003038814,新規,0,2022-10-14,2022-10-14,Ｆｏｎｄ合同会社,,合同会社,東京都,中央区,入船２丁目１０番９―２０８号,,13,102,1040042,,,,,,,2022-10-14,1,,,,,フォン,0
2169,8010401170235,新規,0,2022-10-14,2022-10-14,株式会社ｎｏｃｔｕｒｎａｌ,,株式会社,東京都,港区,高輪４丁目２３番６号ハイホーム高輪７０８,,13,103,1080074,,,,,,,2022-10-14,1,,,,,ノクターナル,0
2170,8010401170276,新規,0,2022-10-14,2022-10-14,株式会社Ｌｉｆａｃｔｉｖｅ,,株式会社,東京都,港区,南麻布２丁目１０番１９号ボヌール南麻布２０３,,13,103,1060047,,,,,,,2022-10-14,1,,,,,リファクティブ,0
2172,8010403028712,新規,0,2022-10-14,2022-10-14,合同会社ｂｅｔｔｅｉ１３６６,,合同会社,東京都,港区,南青山２丁目２番１５号,,13,103,1070062,,,,,,,2022-10-14,1,,,,,ベッテイイチサンロクロク,0
2173,8010403028720,新規,0,2022-10-14,2022-10-14,グローバルバイアウトホールディングス合同会社,,合同会社,東京都,港区,六本木６丁目１０番１号六本木ヒルズ森タワー,,13,103,1060032,,,,,,,2022-10-14,1,,,,,グローバルバイアウトホールディングス,0
2174,8010405021491,新規,0,2022-10-14,2022-10-14,ダイモスインフラホールディングス一般社団法人,,その他の設立登記法人,東京都,港区,虎ノ門３丁目２２番１０－２０１号,,13,103,1050001,,,,,,,2022-10-14,1,,,,,ダイモスインフラホールディングス,0
2184,8010703006418,新規,0,2022-10-14,2022-10-14,合同会社ｋｕｏ,,合同会社,東京都,品川区,東大井４丁目３番１３号クレッセント仙台坂パークサイド４１３,,13,109,1400011,,,,,,,2022-10-14,1,,,,,クオ,0
2186,8010801033347,新規,0,2022-10-14,2022-10-14,株式会社ジオバンク,,株式会社,東京都,大田区,千鳥１丁目９番１号－１０３,,13,111,1460083,,,,,,,2022-10-14,1,,,,,ジオバンク,0
2197,8011001150296,新規,0,2022-10-14,2022-10-14,ＡｋｋｅｙＬａｂ株式会社,,株式会社,東京都,渋谷区,道玄坂１丁目１６－６二葉ビル８Ｂ,,13,113,1500043,,,,,,,2022-10-14,1,,,,,アッキーラボ,0
2198,8011001150305,新規,0,2022-10-14,2022-10-14,なぎのき株式会社,,株式会社,東京都,渋谷区,道玄坂１丁目１０番８号渋谷道玄坂東急ビル２Ｆ－Ｃ,,13,113,1500043,,,,,,,2022-10-14,1,,,,,ナギノキ,0
2199,8011001150313,新規,0,2022-10-14,2022-10-14,株式会社スエズエ,,株式会社,東京都,渋谷区,渋谷２丁目７番１４号ＶＯＲＴ　ＡＯＹＡＭＡ３０２,,13,113,1500002,,,,,,,2022-10-14,1,,,,,スエズエ,0
2200,8011001150321,新規,0,2022-10-14,2022-10-14,ＣＵＢＥ株式会社,,株式会社,東京都,渋谷区,神宮前６丁目２３番４号桑野ビル２階,,13,113,1500001,,,,,,,2022-10-14,1,,,,,キューブ,0
2202,8011101100473,新規,0,2022-10-14,2022-10-14,株式会社Ｇ・Ｆ,,株式会社,東京都,新宿区,北新宿３丁目４０番１４－５０９号,,13,104,1690074,,,,,,,2022-10-14,1,,,,,ジーエフ,0
2203,8011101100507,新規,0,2022-10-14,2022-10-14,株式会社ＰＡＴＵＲＮ,,株式会社,東京都,新宿区,市谷田町３丁目８市ヶ谷科学技術イノベーションセンタービル２Ｆ,,13,104,1620843,,,,,,,2022-10-14,1,,,,,パターン,0
2204,8011101100523,新規,0,2022-10-14,2022-10-14,株式会社Ｎｐｒｉｚｅ,,株式会社,東京都,新宿区,百人町２丁目２０番２号金子ハイツ６０５,,13,104,1690073,,,,,,,2022-10-14,1,,,,,エンプライズ,0
2205,8011103012262,新規,0,2022-10-14,2022-10-14,合同会社カルテット,,合同会社,東京都,新宿区,神楽坂５丁目３２番地八潮第二ビル５Ｆ,,13,104,1620825,,,,,,,2022-10-14,1,,,,,カルテット,0
2212,8011703003280,新規,0,2022-10-14,2022-10-14,合同会社帝国,,合同会社,東京都,江戸川区,南小岩８丁目１０番１号,,13,123,1330056,,,,,,,2022-10-14,1,,,,,テイコク,0
2215,8011801041389,新規,0,2022-10-14,2022-10-14,アロハ商事株式会社,,株式会社,東京都,足立区,千住宮元町１９番１０号,,13,121,1200043,,,,,,,2022-10-14,1,,,,,アロハショウジ,0
2216,8011801041397,新規,0,2022-10-14,2022-10-14,株式会社神田企画,,株式会社,東京都,葛飾区,亀有５丁目５５番６号,,13,122,1250061,,,,,,,2022-10-14,1,,,,,カンダキカク,0
2222,8012303001732,新規,0,2022-10-14,2022-10-14,合同会社スマイルフラワーコーポレーション,,合同会社,東京都,町田市,図師町２７１３,,13,209,1940203,,,,,,,2022-10-14,1,,,,,スマイルフラワーコーポレーション,0
2226,8012403005625,新規,0,2022-10-14,2022-10-14,合同会社ＹＯＲＵＭＵ,,合同会社,東京都,調布市,西つつじケ丘３丁目３７番２号,,13,208,1820006,,,,,,,2022-10-14,1,,,,,ヨルム,0
2234,8013303006317,新規,0,2022-10-14,2022-10-14,ＢＮＢ合同会社,,合同会社,東京都,豊島区,池袋２丁目２３番４号２０１,,13,116,1710014,,,,,,,2022-10-14,1,,,,,ビーアンビー,0
2235,8020001148548,新規,0,2022-10-14,2022-10-14,株式会社冨福,,株式会社,神奈川県,横浜市戸塚区,戸塚町３０９１番地４８,,14,110,2440003,,,,,,,2022-10-14,1,,,,,トミフク,0
2246,8021001077191,新規,0,2022-10-14,2022-10-14,株式会社美翔運送,,株式会社,神奈川県,厚木市,中荻野１２３４番１,,14,212,2430202,,,,,,,2022-10-14,1,,,,,ミトウンソウ,0
2251,8021005012632,新規,0,2022-10-14,2022-10-14,あい税理士法人,,その他の設立登記法人,神奈川県,平塚市,東中原２丁目１６番１７号,,14,203,2540077,,,,,,,2022-10-14,1,,,,,アイ,0
2258,8030001150577,新規,0,2022-10-14,2022-10-14,株式会社Ｎ２エステート,,株式会社,埼玉県,朝霞市,西弁財１丁目１３番１号サニーサイド朝霞台３０１,,11,227,3510021,,,,,,,2022-10-14,1,,,,,エヌツーエステート,0
2259,8030001150602,新規,0,2022-10-14,2022-10-14,株式会社凱虹,,株式会社,埼玉県,川口市,飯塚３丁目６番３３号,,11,203,3320023,,,,,,,2022-10-14,1,,,,,ガイコウ,0
2261,8030003020398,新規,0,2022-10-14,2022-10-14,スクエア合同会社,,合同会社,埼玉県,さいたま市桜区,大字大久保領家５２２－９,,11,106,3380826,,,,,,,2022-10-14,1,,,,,スクエア,0
2264,8030005021007,新規,0,2022-10-14,2022-10-14,一般社団法人日本装具療法協会,,その他の設立登記法人,埼玉県,久喜市,本町６丁目１６番５３号,,11,232,3460005,,,,,,,2022-10-14,1,,,,,ニホンソウグリョウホウキョウカイ,0
2277,8040003021057,新規,0,2022-10-14,2022-10-14,合同会社ＤＤＤ,,合同会社,千葉県,市川市,原木１丁目４－２５－Ａ２０６ハイデンス原木中山,,12,203,2720004,,,,,,,2022-10-14,1,,,,,ディーディーディー,0
2280,8050003006916,新規,0,2022-10-14,2022-10-14,合同会社ＣＥＹＬＯＮ　ＴＥＡ　ＨＵＢ,,合同会社,茨城県,牛久市,岡見町２７３１番地３９－１号室,,08,219,3001204,,,,,,,2022-10-14,1,,,,,セイロンティーハブ,0
2281,8050005013150,新規,0,2022-10-14,2022-10-14,一般社団法人メロウ倶楽部,00128132,その他の設立登記法人,茨城県,つくば市,東２丁目２２番地１５,,08,220,3050046,,,,,,,2022-10-14,1,,,,,メロウクラブ,0
2282,8050005013159,新規,0,2022-10-14,2022-10-14,一般社団法人常総ごじゃっぺ短期大学校,,その他の設立登記法人,茨城県,常総市,水海道宝町２７３６番地２,,08,211,3030023,,,,,,,2022-10-14,1,,,,,ゴジャッペタンキダイガッコウ,0
2284,8060001035362,新規,0,2022-10-14,2022-10-14,株式会社菊地工業,,株式会社,栃木県,宇都宮市,横山３丁目２８番２７号,,09,201,3200005,,,,,,,2022-10-14,1,,,,,キクチコウギョウ,0
2291,8070005010047,新規,0,2022-10-14,2022-10-14,特定非営利活動法人みんなのおうえん団,,その他の設立登記法人,群馬県,富岡市,田篠２０００番地３,,10,210,3702314,,,,,,,2022-10-14,1,,,,,ミンナノオウエンダン,0
2294,8080001025246,新規,0,2022-10-14,2022-10-14,株式会社サイコー,,株式会社,静岡県,藤枝市,南駿河台３丁目２番１０号,,22,214,4260078,,,,,,,2022-10-14,1,,,,,サイコー,0
2298,8080401026100,新規,0,2022-10-14,2022-10-14,株式会社ウィル,,株式会社,静岡県,浜松市中区,蜆塚２丁目１６番２４号,,22,131,4328018,,,,,,,2022-10-14,1,,,,,ウィル,0
2310,8120001249526,新規,0,2022-10-14,2022-10-14,太田工業株式会社,,株式会社,大阪府,大阪市此花区,西九条３丁目３番９号,,27,104,5540012,,,,,,,2022-10-14,1,,,,,オオタコウギョウ,0
2311,8120001249534,新規,0,2022-10-14,2022-10-14,株式会社希美一,,株式会社,大阪府,大阪市中央区,日本橋１丁目１８番１号日本一会館４０１号,,27,128,5420073,,,,,,,2022-10-14,1,,,,,キミイチ,0
2312,8120001249542,新規,0,2022-10-14,2022-10-14,株式会社渥美工務店,,株式会社,大阪府,大阪市大正区,三軒家東１丁目１４番１０号,,27,108,5510002,,,,,,,2022-10-14,1,,,,,アツミコウムテン,0
2313,8120001249559,新規,0,2022-10-14,2022-10-14,株式会社ＴＮＴクリエーション,,株式会社,大阪府,大阪市旭区,高殿４丁目１９番２６号－１１５,,27,117,5350031,,,,,,,2022-10-14,1,,,,,ティエヌティクリエーション,0
2314,8120001249567,新規,0,2022-10-14,2022-10-14,株式会社オフィスワイズ大阪,,株式会社,大阪府,大阪市淀川区,西中島３丁目２０番８号新和ビル６０３,,27,123,5320011,,,,,,,2022-10-14,1,,,,,オフィスワイズオオサカ,0
2321,8120101066375,新規,0,2022-10-14,2022-10-14,ＹＡ株式会社,,株式会社,大阪府,岸和田市,別所町３丁目２０番２号,,27,202,5960045,,,,,,,2022-10-14,1,,,,,ワイエイ,0
2322,8120105009636,新規,0,2022-10-14,2022-10-14,ＮＰＯ法人泉州コアラ,,その他の設立登記法人,大阪府,岸和田市,中井町２丁目６－４,,27,202,5960003,,,,,,,2022-10-14,1,,,,,センシュウコアラ,0
2326,8122001036318,新規,0,2022-10-14,2022-10-14,株式会社ベアポート,,株式会社,大阪府,八尾市,南太子堂２丁目４番４号,,27,212,5810056,,,,,,,2022-10-14,1,,,,,ベアポート,0
2329,8122003002433,新規,0,2022-10-14,2022-10-14,Ｈａｐｐｙ　Ｆｏｏｄ合同会社,,合同会社,大阪府,八尾市,南本町８丁目３番４１号,,27,212,5810081,,,,,,,2022-10-14,1,,,,,ハッピーフード,0
2337,8130001072753,新規,0,2022-10-14,2022-10-14,株式会社松浦設備,,株式会社,京都府,亀岡市,大井町並河坂井３８番地１６,,26,206,6210013,,,,,,,2022-10-14,1,,,,,マツウラセツビ,0
2342,8140001127589,新規,0,2022-10-14,2022-10-14,Ｂｏｎｄｓ　Ａｌｆａ株式会社,,株式会社,兵庫県,加古郡稲美町,国岡３丁目２２番１－２０３号,,28,381,6751115,,,,,,,2022-10-14,1,,,,,バンズアルファ,0
2343,8140001127721,新規,0,2022-10-14,2022-10-14,株式会社栄神,,株式会社,兵庫県,神戸市中央区,磯上通２丁目２番２５－６０１号,,28,110,6510086,,,,,,,2022-10-14,1,,,,,エイシン,0
2345,8140003018241,新規,0,2022-10-14,2022-10-14,ｗｅｂｗｅｂ合同会社,,合同会社,兵庫県,西宮市,松原町４－２１－１０１,,28,204,6620912,,,,,,,2022-10-14,1,,,,,ウェブウェブ,0
2347,8150001025882,新規,0,2022-10-14,2022-10-14,株式会社Ｒｅｎｏｃａｓａ,,株式会社,奈良県,香芝市,五位堂３丁目４４３番地１,,29,210,6390226,,,,,,,2022-10-14,1,,,,,リノカーサ,0
2358,8180005019969,新規,0,2022-10-14,2022-10-14,一般社団法人ぶるーゆりしす,,その他の設立登記法人,愛知県,名古屋市千種区,観月町１丁目８番地,,23,101,4640831,,,,,,,2022-10-14,1,,,,,ブルーユリシス,0
2360,8180301036726,新規,0,2022-10-14,2022-10-14,株式会社ケイテック,,株式会社,愛知県,安城市,東端町用地１３０番地,,23,212,4441213,,,,,,,2022-10-14,1,,,,,ケイテック,0
2363,8180303005472,新規,0,2022-10-14,2022-10-14,合同会社ワンプラネット,,合同会社,愛知県,刈谷市,東刈谷町２丁目９番地９木村事務所２階,,23,210,4480807,,,,,,,2022-10-14,1,,,,,ワンプラネット,0
2378,8220001025090,新規,0,2022-10-14,2022-10-14,株式会社ＲＯＯＴＳ,,株式会社,石川県,金沢市,片町２丁目２１番２７号,,17,201,9200981,,,,,,,2022-10-14,1,,,,,ルーツ,0
2380,8240001060516,新規,0,2022-10-14,2022-10-14,株式会社カンドゥーカンパニー,,株式会社,広島県,広島市中区,紙屋町１丁目６－１紙屋町ガレリア３０１,,34,101,7300031,,,,,,,2022-10-14,1,,,,,カンドゥーカンパニー,0
2382,8250003003166,新規,0,2022-10-14,2022-10-14,室積市場ん合同会社,,合同会社,山口県,光市,室積３丁目１５番１号,,35,210,7430007,,,,,,,2022-10-14,1,,,,,ムロヅミイチバン,0
2383,8270005005530,新規,0,2022-10-14,2022-10-14,一般社団法人エコトーン,,その他の設立登記法人,鳥取県,鳥取市,福部町湯山３７３番地３,,31,201,6890105,,,,,,,2022-10-14,1,,,,,エコトーン,0
2386,8290001099228,新規,0,2022-10-14,2022-10-14,株式会社Ｒｅ　ｃｏｄｅ,,株式会社,福岡県,福岡市博多区,中洲５丁目１番２号ＭＡ中洲川端６階,,40,132,8100801,,,,,,,2022-10-14,1,,,,,リコード,0
2387,8290001099236,新規,0,2022-10-14,2022-10-14,株式会社セルサス,,株式会社,福岡県,福岡市中央区,大名２丁目１２番１５号赤坂セブンビル７階,,40,133,8100041,,,,,,,2022-10-14,1,,,,,セルサス,0
2389,8290801028963,新規,0,2022-10-14,2022-10-14,株式会社フロントゲート,,株式会社,福岡県,遠賀郡遠賀町,大字鬼津９９１番地,,40,384,8114341,,,,,,,2022-10-14,1,,,,,フロントゲート,0
2393,8320003003927,新規,0,2022-10-14,2022-10-14,合同会社こむくのゴルフ,,合同会社,大分県,宇佐市,大字小向野３１０番地,,44,211,8720104,,,,,,,2022-10-14,1,,,,,コムクノゴルフ,0
2404,8360003012370,新規,0,2022-10-14,2022-10-14,合同会社なか,,合同会社,沖縄県,島尻郡南風原町,字兼城３３９番地１１,,47,350,9011111,,,,,,,2022-10-14,1,,,,,ナカ,0
2405,8360005006726,新規,0,2022-10-14,2022-10-14,一般社団法人大兼久護佐喜宮会,,その他の設立登記法人,沖縄県,名護市,大中２丁目１番１７号,,47,209,9050017,,,,,,,2022-10-14,1,,,,,オオガネクゴサキミヤカイ,0
2418,8380001033177,新規,0,2022-10-14,2022-10-14,株式会社サクラ・シスターズ,,株式会社,福島県,相馬郡飯舘村,伊丹沢字山田２２５番地,,07,564,9601803,,,,,,,2022-10-14,1,,,,,,0
2431,8430001087688,新規,0,2022-10-14,2022-10-14,株式会社リムレント,,株式会社,北海道,札幌市北区,太平二条３丁目３番３９号,,01,102,0028002,,,,,,,2022-10-14,1,,,,,リムレント,0
2432,8430003014351,新規,0,2022-10-14,2022-10-14,合同会社ＫＵＢＯ　ＳＡＮ　ＭＡＤＥ,,合同会社,北海道,札幌市中央区,北四条西２５丁目２番１１－５０１号,,01,101,0640824,,,,,,,2022-10-14,1,,,,,クボサンメイド,0
2434,8460001005738,新規,0,2022-10-14,2022-10-14,株式会社リオシャール,,株式会社,北海道,釧路市,栄町２丁目１番１号,,01,206,0850013,,,,,,,2022-10-14,1,,,,,リオシャール,0
2437,8480001011882,新規,0,2022-10-14,2022-10-14,株式会社仁成,,株式会社,徳島県,阿波市,市場町日開谷字岩野６８番地１,,36,206,7711616,,,,,,,2022-10-14,1,,,,,ジンセイ,0
2439,8490001010306,新規,0,2022-10-14,2022-10-14,株式会社宮地鮮魚店,,株式会社,高知県,高岡郡佐川町,甲１２４９番地２２,,39,402,7891201,,,,,,,2022-10-14,1,,,,,ミヤジセンギョテン,0
2459,9010005035643,新規,0,2022-10-14,2022-10-14,一般財団法人日本サンマリノ友好基金,,その他の設立登記法人,東京都,千代田区,神田駿河台２丁目３番地１３,,13,101,1010062,,,,,,,2022-10-14,1,,,,,ニホンサンマリノユウコウキキン,0
2467,9010401170291,新規,0,2022-10-14,2022-10-14,株式会社ニケ,,株式会社,東京都,港区,芝浦４丁目２０番２－３９１６号,,13,103,1080023,,,,,,,2022-10-14,1,,,,,ニケ,0
2469,9010403028686,新規,0,2022-10-14,2022-10-14,Ｋｕｒｉ　Ｉｎｖｅｓｔｍｅｎｔｓ合同会社,,合同会社,東京都,港区,赤坂８丁目１１番３８－１５０２号,,13,103,1070052,,,,,,,2022-10-14,1,,,,,クリインベストメンツ,0
2470,9010403028703,新規,0,2022-10-14,2022-10-14,虎ノ門インパクトキャピタル合同会社,,合同会社,東京都,港区,赤坂１丁目１２番３２号,,13,103,1070052,,,,,,,2022-10-14,1,,,,,トラノモンインパクトキャピタル,0
2475,9010501049493,新規,0,2022-10-14,2022-10-14,株式会社フロントテイナー,,株式会社,東京都,台東区,元浅草１丁目４－１１スカイグランデ新御徒町１３０１,,13,106,1110041,,,,,,,2022-10-14,1,,,,,フロントテイナー,0
2480,9010601061984,新規,0,2022-10-14,2022-10-14,株式会社Ｋ‐Ｆｉｅｌｄ,,株式会社,東京都,江東区,亀戸５丁目４番６－３０１号,,13,108,1360071,,,,,,,2022-10-14,1,,,,,ケイフィールド,0
2489,9010901051751,新規,0,2022-10-14,2022-10-14,株式会社ＢＪｖｅｔ,,株式会社,東京都,世田谷区,祖師谷６丁目２５番１８号,,13,112,1570072,,,,,,,2022-10-14,1,,,,,ビージェイベット,0
2496,9011001150238,新規,0,2022-10-14,2022-10-14,株式会社Ｆｕｎｉｍａｔｅ,,株式会社,東京都,渋谷区,恵比寿西２丁目９－９,,13,113,1500021,,,,,,,2022-10-14,1,,,,,ファニメート,0
2497,9011001150279,新規,0,2022-10-14,2022-10-14,株式会社エンブリッジ,,株式会社,東京都,渋谷区,渋谷２丁目１９－１５宮益坂ビルディング６０９,,13,113,1500002,,,,,,,2022-10-14,1,,,,,エンブリッジ,0
2498,9011001150312,新規,0,2022-10-14,2022-10-14,株式会社ＯＸ,,株式会社,東京都,渋谷区,広尾１丁目１０番５号,,13,113,1500012,,,,,,,2022-10-14,1,,,,,オーエックス,0
2499,9011001150320,新規,0,2022-10-14,2022-10-14,株式会社ＫＯＫＯＭＩ,,株式会社,東京都,渋谷区,代々木神園町３番３号グロブナープレイス神園町５０８,,13,113,1510052,,,,,,,2022-10-14,1,,,,,ココミ,0
2502,9011003015439,新規,0,2022-10-14,2022-10-14,ＳｕｎｎｙＢａｙ合同会社,,合同会社,東京都,渋谷区,広尾４丁目１番３２号Ｈ棟４０８号室,,13,113,1500012,,,,,,,2022-10-14,1,,,,,サニーベイ,0
2508,9011101100489,新規,0,2022-10-14,2022-10-14,株式会社ＢＵＤＤＹ,,株式会社,東京都,新宿区,西新宿３丁目３－１３西新宿水間ビル６Ｆ,,13,104,1600023,,,,,,,2022-10-14,1,,,,,バディ,0
2509,9011101100514,新規,0,2022-10-14,2022-10-14,清泉花株式会社,,株式会社,東京都,新宿区,愛住町１９番地１６富士ビル２階,,13,104,1600005,,,,,,,2022-10-14,1,,,,,セイセンカ,0
2512,9011301028183,新規,0,2022-10-14,2022-10-14,株式会社Ａｍｉｋ,,株式会社,東京都,杉並区,浜田山３丁目２番１９号,,13,115,1680065,,,,,,,2022-10-14,1,,,,,アミーク,0
2514,9011401024603,新規,0,2022-10-14,2022-10-14,心陽株式会社,,株式会社,東京都,板橋区,板橋２丁目９番１１号,,13,119,1730004,,,,,,,2022-10-14,1,,,,,シンヨウ,0
2523,9012701017305,新規,0,2022-10-14,2022-10-14,株式会社生酒ダイレクト,,株式会社,東京都,東久留米市,滝山３丁目１－１２,,13,222,2030033,,,,,,,2022-10-14,1,,,,,ナマサケダイレクト,0
2533,9013301049795,新規,0,2022-10-14,2022-10-14,株式会社インターネット,,株式会社,東京都,豊島区,池袋２丁目１７番８号天翔池袋ＡＮＮＥＸ２１４号,,13,116,1710014,,,,,,,2022-10-14,1,,,,,インターネット,0
2537,9020001148563,新規,0,2022-10-14,2022-10-14,株式会社フジメタル工業,,株式会社,神奈川県,横浜市保土ケ谷区,釜台町２９番７号黎明荘２０７号室,,14,106,2400066,,,,,,,2022-10-14,1,,,,,フジメタルコウギョウ,0
2542,9020003022576,新規,0,2022-10-14,2022-10-14,合同会社ブレスパ,,合同会社,神奈川県,横浜市青葉区,しらとり台１６番地７,,14,117,2270054,,,,,,,2022-10-14,1,,,,,ブレスパ,0
2550,9021003012245,新規,0,2022-10-14,2022-10-14,ＳＡＫＵＲＡ　ＳＳ合同会社,,合同会社,神奈川県,綾瀬市,大上６丁目７番１５号ミオンさがみ野Ｂ棟１０４号,,14,218,2521104,,,,,,,2022-10-14,1,,,,,サクラエスエス,0
2551,9021003012261,新規,0,2022-10-14,2022-10-14,合同会社ＩＷＰコンサルタント,,合同会社,神奈川県,平塚市,南金目１８３７番地の７,,14,203,2591201,,,,,,,2022-10-14,1,,,,,アイダブルピーコンサルタント,0
2555,9030001150568,新規,0,2022-10-14,2022-10-14,文建株式会社,,株式会社,埼玉県,川口市,西青木２丁目１番１０－５１０号,,11,203,3320035,,,,,,,2022-10-14,1,,,,,ブンケン,0
2556,9030001150576,新規,0,2022-10-14,2022-10-14,山平株式会社,,株式会社,埼玉県,飯能市,大字井上４４３番地１,,11,209,3570212,,,,,,,2022-10-14,1,,,,,ヤマヘイ,0
2561,9030003020397,新規,0,2022-10-14,2022-10-14,ＳＡＲＡ合同会社,,合同会社,埼玉県,坂戸市,南町２２番５号,,11,239,3500233,,,,,,,2022-10-14,1,,,,,サラ,0
2562,9030003020422,新規,0,2022-10-14,2022-10-14,合同会社クレル,,合同会社,埼玉県,さいたま市見沼区,大和田町１丁目１７２４番地５,,11,104,3370053,,,,,,,2022-10-14,1,,,,,クレル,0
2564,9030005021006,新規,0,2022-10-14,2022-10-14,一般社団法人秩父ホルモン協会,,その他の設立登記法人,埼玉県,さいたま市大宮区,吉敷町１丁目８１番地１ＨＩビルディング３階Ａフロア,,11,103,3300843,,,,,,,2022-10-14,1,,,,,チチブホルモンキョウカイ,0
2572,9040001125453,新規,0,2022-10-14,2022-10-14,凛音株式会社,,株式会社,千葉県,船橋市,行田１丁目１１番３４号ブライト・パティオ２０１号,,12,204,2730044,,,,,,,2022-10-14,1,,,,,リンネ,0
2573,9040001125478,新規,0,2022-10-14,2022-10-14,株式会社のろし醸造,,株式会社,千葉県,流山市,大字大畔６０２番地,,12,220,2700122,,,,,,,2022-10-14,1,,,,,ノロシジョウゾウ,0
2578,9040003020982,新規,0,2022-10-14,2022-10-14,合同会社オフィスＥｓｔｅｅｍ,,合同会社,千葉県,茂原市,緑ケ丘３丁目１８－９,,12,210,2970065,,,,,,,2022-10-14,1,,,,,オフィスエスティーム,0
2579,9040003021048,新規,0,2022-10-14,2022-10-14,合同会社ＩＳＳ,,合同会社,千葉県,柏市,若柴１７８番地４柏の葉キャンパス１４８街区２ショップ＆オフィス棟６Ｆ,,12,217,2770871,,,,,,,2022-10-14,1,,,,,アイエスエス,0
2580,9040005021772,新規,0,2022-10-14,2022-10-14,税理士法人森山会計事務所,,その他の設立登記法人,千葉県,木更津市,祇園２丁目３１番１６号,00128138,12,206,2920052,,,,,,,2022-10-14,1,,,,,モリヤマカイケイジムショ,0
2583,9050001051814,新規,0,2022-10-14,2022-10-14,株式会社第一建材,,株式会社,茨城県,土浦市,神立中央１丁目１０番８号,,08,203,3000011,,,,,,,2022-10-14,1,,,,,ダイイチケンザイ,0
2584,9050003006915,新規,0,2022-10-14,2022-10-14,カップルック合同会社,,合同会社,茨城県,牛久市,岡見町２７３１番地３９、２号室,,08,219,3001204,,,,,,,2022-10-14,1,,,,,カップルック,0
2591,9070001039741,新規,0,2022-10-14,2022-10-14,株式会社人情左官,,株式会社,群馬県,伊勢崎市,田部井町１丁目１０８１番地８,,10,204,3792222,,,,,,,2022-10-14,1,,,,,ココロサカン,0
2602,9080401026082,新規,0,2022-10-14,2022-10-14,株式会社松下建工,,株式会社,静岡県,御前崎市,白羽３５１３番地の５,,22,223,4371622,,,,,,,2022-10-14,1,,,,,マツシタケンコウ,0
2603,9080401026099,新規,0,2022-10-14,2022-10-14,株式会社ウイリンギフト,,株式会社,静岡県,浜松市中区,佐藤３丁目７番６号コーアビル２０６号室,,22,131,4300807,,,,,,,2022-10-14,1,,,,,ウイリンギフト,0
2622,9120001249467,新規,0,2022-10-14,2022-10-14,株式会社日本健康食品研究所,,株式会社,大阪府,大阪市福島区,福島２丁目１０番１９－６２１号,,27,103,5530003,,,,,,,2022-10-14,1,,,,,ニホンケンコウショクヒンケンキュウショ,0
2623,9120001249475,新規,0,2022-10-14,2022-10-14,Ｌｉｌｙ　Ａｎｅｌａ株式会社,,株式会社,大阪府,大阪市西区,北堀江１丁目９番５号,,27,106,5500014,,,,,,,2022-10-14,1,,,,,リリーアネラ,0
2624,9120001249483,新規,0,2022-10-14,2022-10-14,株式会社御幣島製作所,,株式会社,大阪府,大阪市北区,堂島２丁目２番８－１６０３号,,27,127,5300003,,,,,,,2022-10-14,1,,,,,ミテジマセイサクショ,0
2625,9120001249509,新規,0,2022-10-14,2022-10-14,株式会社サカイ,,株式会社,大阪府,大阪市城東区,古市２丁目２番３３号,,27,118,5360001,,,,,,,2022-10-14,1,,,,,サカイ,0
2626,9120001249533,新規,0,2022-10-14,2022-10-14,一瀬経営サポート株式会社,,株式会社,大阪府,大阪市北区,芝田１丁目４番１７号梅田エステートビル９Ｆ,,27,127,5300012,,,,,,,2022-10-14,1,,,,,イチノセケイエイサポート,0
2627,9120001249558,新規,0,2022-10-14,2022-10-14,芦田工業株式会社,00128130,株式会社,大阪府,大阪市淀川区,三国本町３丁目５番１４号アグリゲート三国Ｗ４,,27,123,5320005,,,,,,,2022-10-14,1,,,,,アシダコウギョウ,0
2628,9120001249566,新規,0,2022-10-14,2022-10-14,伸和株式会社,,株式会社,大阪府,大阪市北区,堂山町８番１１号,,27,127,5300027,,,,,,,2022-10-14,1,,,,,シンワ,0
2629,9120001249574,新規,0,2022-10-14,2022-10-14,株式会社集客王,,株式会社,大阪府,大阪市浪速区,難波中２丁目２－１５高砂ビル５Ｆ,,27,111,5560011,,,,,,,2022-10-14,1,,,,,シュウキャクオウ,0
2630,9120001249590,新規,0,2022-10-14,2022-10-14,株式会社ＭＭＳ,,株式会社,大阪府,大阪市中央区,東平２丁目４番３－５０１号,,27,128,5420063,,,,,,,2022-10-14,1,,,,,エムエムエス,0
2633,9120003022640,新規,0,2022-10-14,2022-10-14,合同会社健康ラボ,,合同会社,大阪府,大阪市淀川区,三国本町２丁目１番３７－８０１号,,27,123,5320005,,,,,,,2022-10-14,1,,,,,ケンコウラボ,0
2636,9120103004885,新規,0,2022-10-14,2022-10-14,合同会社Ｉ‐ｒｉｓ,,合同会社,大阪府,和泉市,はつが野５丁目１６－８,,27,219,5941106,,,,,,,2022-10-14,1,,,,,アイリス,0
2640,9120901046583,新規,0,2022-10-14,2022-10-14,株式会社インパクトワークス,,株式会社,大阪府,吹田市,原町３丁目４０－２５－２,,27,205,5640004,,,,,,,2022-10-14,1,,,,,インパクトワークス,0
2648,9130001072785,新規,0,2022-10-14,2022-10-14,株式会社テクテル,,株式会社,京都府,城陽市,富野北垣内５３番地の１２,,26,207,6100111,,,,,,,2022-10-14,1,,,,,テクテル,0
2649,9130001072851,新規,0,2022-10-14,2022-10-14,株式会社内海硝子,,株式会社,京都府,京都市右京区,梅ケ畑高鼻町１０番地７,,26,108,6168261,,,,,,,2022-10-14,1,,,,,ウツミガラス,0
2659,9140001127605,新規,0,2022-10-14,2022-10-14,エックスホールディングス株式会社,,株式会社,兵庫県,芦屋市,涼風町１５番１０号,,28,206,6590036,,,,,,,2022-10-14,1,,,,,エックスホールディングス,0
2660,9140001127712,新規,0,2022-10-14,2022-10-14,株式会社レ・ジロンデル,,株式会社,兵庫県,神戸市中央区,元町通１丁目２－８,,28,110,6500022,,,,,,,2022-10-14,1,,,,,レジロンデル,0
2670,9150003002796,新規,0,2022-10-14,2022-10-14,合同会社ＳＯＮＩＦＧ,,合同会社,奈良県,宇陀郡曽爾村,大字山粕３３４番地２,,29,385,6331216,,,,,,,2022-10-14,1,,,,,ソニエフジー,0
2674,9170001017332,新規,0,2022-10-14,2022-10-14,株式会社アメハレ,,株式会社,和歌山県,和歌山市,毛見１５０５番地２パシフィックビスタＩＩ２０１,00128144,30,201,6410014,,,,,,,2022-10-14,1,,,,,アメハレ,0
2686,9180001153341,新規,0,2022-10-14,2022-10-14,Ｆコージェスト株式会社,,株式会社,愛知県,一宮市,本町３丁目８番１号,,23,203,4910859,,,,,,,2022-10-14,1,,,,,エフコージェスト,0
2687,9180001153424,新規,0,2022-10-14,2022-10-14,ＲｅＳＥＴ株式会社,,株式会社,愛知県,名古屋市中区,栄２丁目９番３０号,,23,106,4600008,,,,,,,2022-10-14,1,,,,,リセット,0
2694,9180301036725,新規,0,2022-10-14,2022-10-14,株式会社Ｈｉ‐Ｄｅｌｉｇｈｔ,,株式会社,愛知県,豊田市,曙町２丁目５８番地ＳＣＲＯＯＭ　Ａ－０４号,00128136,23,211,4710835,,,,,,,2022-10-14,1,,,,,ハイディライト,0
2696,9180303005471,新規,0,2022-10-14,2022-10-14,ＵＫＥＮ合同会社,,合同会社,愛知県,豊田市,平戸橋町寺前５２番地１２,,23,211,4700331,,,,,,,2022-10-14,1,,,,,ユーケン,0
2698,9190001029838,新規,0,2022-10-14,2022-10-14,株式会社つばめファミリー,,株式会社,三重県,伊勢市,黒瀬町９５３番地,,24,203,5160018,,,,,,,2022-10-14,1,,,,,ツバメファミリー,0
2703,9200001040504,新規,0,2022-10-14,2022-10-14,株式会社幸設備,,株式会社,岐阜県,各務原市,蘇原清住町３丁目６１番地３,,21,213,5040807,,,,,,,2022-10-14,1,,,,,ユキセツビ,0
2704,9200001040545,新規,0,2022-10-14,2022-10-14,株式会社ｔｅａｍＨＡＫＵＲＹＵ,,株式会社,岐阜県,岐阜市,折立９０９番地１,,21,201,5011132,,,,,,,2022-10-14,1,,,,,ティームハクリュウ,0
2715,9240001060498,新規,0,2022-10-14,2022-10-14,慶憲株式会社,,株式会社,広島県,福山市,城見町２丁目１番２２号,,34,207,7200054,,,,,,,2022-10-14,1,,,,,ケイケン,0
2716,9240003005856,新規,0,2022-10-14,2022-10-14,合同会社アルファサポート,,合同会社,広島県,東広島市,八本松町正力２０５番地１リバーコートＤ２０１号,,34,212,7390132,,,,,,,2022-10-14,1,,,,,アルファサポート,0
2722,9290001099227,新規,0,2022-10-14,2022-10-14,株式会社樋口工務店,00128131,株式会社,福岡県,福岡市早良区,次郎丸１丁目１２－１２,,40,137,8140165,,,,,,,2022-10-14,1,,,,,ヒグチコウムテン,0
2723,9290001099235,新規,0,2022-10-14,2022-10-14,株式会社Ｇｏ　ｉｔｓ,,株式会社,福岡県,福岡市早良区,昭代３丁目４番８－１０３号,,40,137,8140012,,,,,,,2022-10-14,1,,,,,ゴウイツ,0
2727,9290801028946,新規,0,2022-10-14,2022-10-14,株式会社４ｉｎｇ,,株式会社,福岡県,行橋市,北泉４丁目１番１号,,40,213,8240033,,,,,,,2022-10-14,1,,,,,フォーイング,0
2730,9290803004219,新規,0,2022-10-14,2022-10-14,平嶋板金技工合同会社,,合同会社,福岡県,田川郡福智町,神崎１０９８－１５５,,40,610,8221202,,,,,,,2022-10-14,1,,,,,ヒラシマバンキンギコウ,0
2736,9320003003926,新規,0,2022-10-14,2022-10-14,合同会社オールドファッション,,合同会社,大分県,大分市,中央町１丁目４番２４号大分セントラルビル２階,,44,201,8700035,,,,,,,2022-10-14,1,,,,,オールドファッション,0
2745,9350003004194,新規,0,2022-10-14,2022-10-14,合同会社プロジェクトＥＴＯ,,合同会社,宮崎県,都城市,菓子野町１０２９８番地１,,45,202,8850111,,,,,,,2022-10-14,1,,,,,プロジェクトエトウ,0
2748,9360003012386,新規,0,2022-10-14,2022-10-14,合同会社ひなフーズサービス,,合同会社,沖縄県,那覇市,松山２丁目２６番３号,,47,201,9000032,,,,,,,2022-10-14,1,,,,,ヒナフーズサービス,0
2750,9370001049149,新規,0,2022-10-14,2022-10-14,株式会社ティーワン,,株式会社,宮城県,仙台市宮城野区,新田３丁目１９番２２号アグロス３０２,,04,102,9830038,,,,,,,2022-10-14,1,,,,,ティーワン,0
2762,9400003002985,新規,0,2022-10-14,2022-10-14,合同会社ファーストステップ,,合同会社,岩手県,陸前高田市,高田町字本丸３２３－４,,03,210,0292205,,,,,,,2022-10-14,1,,,,,ファーストステップ,0
2768,9430001087613,新規,0,2022-10-14,2022-10-14,ＢＵＬＬＥＴ株式会社,,株式会社,北海道,札幌市東区,北二十条東１４丁目４番２７－３０３号,,01,103,0650020,,,,,,,2022-10-14,1,,,,,バレット,0
2769,9430003014350,新規,0,2022-10-14,2022-10-14,合同会社ＡＢＩＲＡミートセンター,,合同会社,北海道,札幌市東区,北十三条東５丁目１番３２－４０１号,,01,103,0650013,,,,,,,2022-10-14,1,,,,,アビラミートセンター,0
2770,9430003014359,新規,0,2022-10-14,2022-10-14,スリーサーティーン合同会社,,合同会社,北海道,恵庭市,住吉町２丁目８番１８号,,01,231,0611441,,,,,,,2022-10-14,1,,,,,スリーサーティーン,0
2771,9460305001985,新規,0,2022-10-14,2022-10-14,医療法人社団亮光会,,その他の設立登記法人,北海道,北見市,小泉３９４－５,,01,208,0900001,,,,,,,2022-10-14,1,,,,,リョウコウカイ,0
2783,9700150108910,新規,0,2022-10-14,2022-05-20,ＵｎＬｉｋｅ　Ｓｏｕｎｄ　Ｐｒｏｄｕｃｔｉｏｎ,,その他,東京都,世田谷区,代田３丁目２５－１３－２０３,,13,112,1550033,,,,,,,2022-05-20,1,,,,,アンライクサウンドプロダクシヨン,0
2784,9700150111121,新規,0,2022-10-14,2022-08-10,０９ＲＥＣＯＲＤＩＮＧＳ,,その他,埼玉県,越谷市,西方１丁目３５３６－４８,,11,222,3430822,,,,,,,2022-08-10,1,,,,,ゼロナインレコーデイングス,0
2786,9700150112136,新規,0,2022-10-14,2022-10-14,Ｈａｒｒｉｓｏｎ　Ｓｔｒｅｅｔ　Ａｓｉａ．ＬＬＣ,,外国会社等,東京都,新宿区,西新宿８丁目５番１号野村不動産西新宿共同ビル８階,,13,104,1600023,米国デラウエア州ウィルミントン、オレンジ・ストリート・エヌ１２０９、コーポレーション・トラスト・カンパニー内,,,,,,2022-10-14,1,,,,,ハリソンストリートアジアエルエルシー,0
