sequenceNumber,corporateNumber,process,correct,updateDate,changeDate,name,nameImageId,kind,prefectureName,cityName,streetNumber,addressImageId,prefectureCode,cityCode,postCode,addressOutside,addressOutsideImageId,closeDate,closeCause,successorCorporateNumber,changeCause,assignmentDate,latest,enName,enPrefectureName,enCityName,enAddressOutside,furigana,hihyoji
20,1010005036351,登記記録の閉鎖等,0,2025-06-04,2025-06-02,アズマソーラーホールディングス一般社団法人,,その他の設立登記法人,東京都,千代田区,麹町２丁目８番地ＭＬＣ麹町ビル４階フィンポート税理士法人内,,13,101,1020083,,,2025-06-02,清算の結了等,,,2023-03-07,1,,,,,アズマソーラーホールディングス,0
23,1010401025899,登記記録の閉鎖等,0,2025-06-04,2025-05-08,福島電機株式会社,,株式会社,東京都,港区,三田２丁目１４番７号１１０４,,13,103,1080073,,,2025-05-08,清算の結了等,,,2015-10-05,1,,,,,フクシマデンキ,0
69,1011105009197,登記記録の閉鎖等,0,2025-06-04,2025-05-14,一般社団法人東海再チャレンジ支援機構,,その他の設立登記法人,東京都,新宿区,白銀町２番１１号,,13,104,1620816,,,2025-05-14,清算の結了等,,,2019-12-17,1,,,,,トウカイサイチャレンジシエンキコウ,0
81,1011801031438,登記記録の閉鎖等,0,2025-06-04,2025-05-29,株式会社朝陽自動車,,株式会社,東京都,葛飾区,東水元４丁目６番１号,,13,122,1250033,,,2025-05-29,合併による解散等,4030002038445,令和７年４月１０日東京都足立区大谷田四丁目１０番９号株式会社朝陽観光バス（4030002038445）に合併し解散,2016-02-24,1,,,,,アサヒジドウシャ,0
112,1021001023219,登記記録の閉鎖等,0,2025-06-04,2025-05-26,株式会社三光,,株式会社,神奈川県,厚木市,下荻野１４８４番地２,,14,212,2430203,,,2025-05-26,清算の結了等,,,2015-10-05,1,,,,,サンコウ,0
122,1030001138884,登記記録の閉鎖等,0,2025-06-04,2025-05-29,株式会社インプルーブ・コネクト,,株式会社,埼玉県,ふじみ野市,清見３丁目３番地４,,11,245,3560002,,,2025-05-29,清算の結了等,,,2020-10-21,1,,,,,インプルーブコネクト,0
146,1080101006326,登記記録の閉鎖等,0,2025-06-04,2025-06-02,株式会社モア住研,,株式会社,静岡県,三島市,壱町田２３０番地の６,,22,206,4110025,,,2025-06-02,清算の結了等,,,2015-10-05,1,,,,,モアジュウケン,0
158,1100001018014,登記記録の閉鎖等,0,2025-06-04,2025-06-02,株式会社ｅｘｙ,,株式会社,長野県,上水内郡信濃町,大字柏原字役屋敷５７番地１、２Ｆ,,20,583,3891305,,,2025-06-02,清算の結了等,,,2015-10-05,1,,,,,エグジィー,0
164,1120001138132,登記記録の閉鎖等,0,2025-06-04,2025-05-28,株式会社サンライズ,,株式会社,大阪府,大阪市北区,西天満４丁目１２番２号オオシマビル３階,,27,127,5300047,,,2025-05-28,清算の結了等,,,2015-10-05,1,,,,,サンライズ,0
173,1120001255332,登記記録の閉鎖等,0,2025-06-04,2025-05-27,同栄観光株式会社,,株式会社,大阪府,大阪市北区,兎我野町１０番６号平田第２レジャービル４０７号室,,27,127,5300056,,,2025-05-27,清算の結了等,,,2023-06-01,1,,,,,ドウエイカンコウ,0
228,1180301003724,登記記録の閉鎖等,0,2025-06-04,2025-05-30,山上水産株式会社,,株式会社,愛知県,額田郡幸田町,大字菱池字桜坂２番地３,,23,501,4440113,,,2025-05-30,清算の結了等,,,2015-10-05,1,,,,,ヤマジョウスイサン,0
234,1200001036492,登記記録の閉鎖等,0,2025-06-04,2025-05-29,株式会社大建,,株式会社,岐阜県,多治見市,昭栄町３０番地の５１,,21,204,5070076,,,2025-05-29,清算の結了等,,,2019-07-26,1,,,,,ダイケン,0
260,1290001085242,登記記録の閉鎖等,0,2025-06-04,2025-05-27,株式会社マキコミ,,株式会社,福岡県,久留米市,東町３６番地８,,40,203,8300032,,,2025-05-27,清算の結了等,,,2019-05-21,1,,,,,マキコミ,0
279,1320002009659,登記記録の閉鎖等,0,2025-06-04,2025-06-02,有限会社キリン企画,,有限会社,福岡県,福岡市南区,平和２丁目２６番２５号,,40,134,8150071,,,2025-06-02,清算の結了等,,,2015-10-05,1,,,,,キリンキカク,0
327,2010001156359,登記記録の閉鎖等,0,2025-06-04,2025-05-23,株式会社幸成,,株式会社,宮城県,仙台市青葉区,五橋１丁目６番６号五橋ビル２階,,04,101,9800022,,,2025-05-23,合併による解散等,8370001018402,令和７年５月２３日仙台市太白区中田町字法地南２２番地の１日成施設株式会社（8370001018402）に合併し解散,2015-10-05,1,,,,,コウセイ,0
330,2010001228975,登記記録の閉鎖等,0,2025-06-04,2025-05-16,株式会社ＡＳＫ,,株式会社,東京都,千代田区,丸の内３丁目２番２号丸の内二重橋ビル２階,,13,101,1000005,,,2025-05-16,清算の結了等,,,2022-08-24,1,,,,,アスク,0
331,2010001229676,登記記録の閉鎖等,0,2025-06-04,2025-05-16,ＰＭ２ＣＭ　Ｊａｐａｎ株式会社,,株式会社,東京都,中央区,銀座１丁目２２番１１号銀座大竹ビジデンス２階,,13,102,1040061,,,2025-05-16,清算の結了等,,,2022-09-26,1,,,,,ピーエムツーシーエムジャパン,0
353,2010401097525,登記記録の閉鎖等,0,2025-06-04,2025-05-19,株式会社セラヴィ,,株式会社,東京都,千代田区,神田小川町１丁目１１ローレルアイ千代田淡路町１６０３号室,,13,101,1010052,,,2025-05-19,清算の結了等,,,2015-10-05,1,,,,,セラヴィ,0
365,2010501032233,登記記録の閉鎖等,0,2025-06-04,2025-05-26,アイ・エヌ・テイ株式会社,,株式会社,東京都,台東区,台東１丁目５番１号,,13,106,1100016,,,2025-05-26,清算の結了等,,,2015-10-05,1,,,,,アイエヌテイ,0
375,2010603009484,登記記録の閉鎖等,0,2025-06-04,2025-05-27,合同会社Ｗｉｎｄｓ　Ｊａｐａｎ,,合同会社,福島県,郡山市,富田東６丁目２６－０２棟２０８,,07,203,9638047,,,2025-05-27,清算の結了等,,,2022-04-11,1,,,,,ウィンズジャパン,0
379,2010801018196,登記記録の閉鎖等,0,2025-06-04,2025-05-28,株式会社商業建築,,株式会社,東京都,世田谷区,梅丘１丁目４番１号,,13,112,1540022,,,2025-05-28,清算の結了等,,,2015-10-05,1,,,,,ショウギョウケンチク,0
406,2011201006907,登記記録の閉鎖等,0,2025-06-04,2025-05-30,株式会社アルファー,,株式会社,東京都,中野区,中央１丁目５０番１７号,,13,114,1640011,,,2025-05-30,合併による解散等,3011201019049,令和７年５月３０日東京都中野区中央一丁目５０番１７－６０８号ＤＡＷＮ株式会社（3011201019049）に合併し解散,2015-10-05,1,,,,,アルファー,0
443,2030001029430,登記記録の閉鎖等,0,2025-06-04,2025-05-30,株式会社進和電設,,株式会社,埼玉県,入間市,久保稲荷２丁目２８番地１１,,11,225,3580024,,,2025-05-30,清算の結了等,,,2015-10-05,1,,,,,シンワデンセツ,0
447,2030001084186,登記記録の閉鎖等,0,2025-06-04,2025-05-28,株式会社サロン＆ホームケア大畑,,株式会社,埼玉県,入間市,牛沢町１番６号,,11,225,3580051,,,2025-05-28,清算の結了等,,,2015-10-05,1,,,,,サロンアンドホームケアオオハタ,0
448,2030001094111,登記記録の閉鎖等,0,2025-06-04,2025-05-30,株式会社学習指導,,株式会社,埼玉県,和光市,白子１丁目１０番１号,,11,229,3510101,,,2025-05-30,清算の結了等,,,2015-10-05,1,,,,,ガクシュウシドウ,0
470,2050002037133,登記記録の閉鎖等,0,2025-06-04,2025-05-30,有限会社フジトータルテック,,有限会社,茨城県,守谷市,薬師台２丁目１３番地５,,08,224,3020105,,,2025-05-30,清算の結了等,,,2015-10-05,1,,,,,フジトータルテック,0
486,2080002003900,登記記録の閉鎖等,0,2025-06-04,2025-05-29,有限会社司製作所,,有限会社,静岡県,静岡市駿河区,西脇９６５番地,,22,102,4228044,,,2025-05-29,清算の結了等,,,2015-10-05,1,,,,,,0
490,2080401005852,登記記録の閉鎖等,0,2025-06-04,2025-06-02,株式会社亮和,,株式会社,静岡県,浜松市中央区,布橋２丁目６番１号,,22,138,4328012,,,2025-06-02,合併による解散等,1080401002628,令和７年６月１日静岡県浜松市中央区布橋二丁目６番１号須山不動産株式会社（1080401002628）に合併し解散,2015-10-05,1,,,,,リョウワ,0
543,2130002021962,登記記録の閉鎖等,0,2025-06-04,2025-06-02,有限会社創楽,,有限会社,京都府,京都市右京区,梅津北川町８番地の５,,26,108,6150937,,,2025-06-02,清算の結了等,,,2015-10-05,1,,,,,ソラ,0
547,2140001076973,登記記録の閉鎖等,0,2025-06-04,2025-05-29,フック精密株式会社,,株式会社,兵庫県,加東市,高岡２２６７番地,,28,228,6790222,,,2025-05-29,清算の結了等,,,2015-10-05,1,,,,,フックセイミツ,0
570,2200002018571,登記記録の閉鎖等,0,2025-06-04,2025-06-02,有限会社カネヤス安田商店,,有限会社,岐阜県,関市,常盤町５７番地,,21,205,5013867,,,2025-06-02,清算の結了等,,,2015-10-05,1,,,,,カネヤスヤスダショウテン,0
572,2220001020972,登記記録の閉鎖等,0,2025-06-04,2025-06-02,株式会社Ｉ．Ａ．Ｏｒｄｅｒ,,株式会社,石川県,金沢市,泉野町４丁目１０番２０号,,17,201,9218034,,,2025-06-02,清算の結了等,,,2016-05-10,1,,,,,アイエーオーダー,0
576,2220002016904,登記記録の閉鎖等,0,2025-06-04,2025-06-02,有限会社駒井,,有限会社,石川県,かほく市,高松ツ１２４番地,,17,209,9291215,,,2025-06-02,清算の結了等,,,2015-10-05,1,,,,,コマイ,0
588,2260001038383,登記記録の閉鎖等,0,2025-06-04,2025-05-30,トゥーリングウェーブ株式会社,,株式会社,岡山県,倉敷市,老松町５丁目３－５３,,33,202,7100826,,,2025-05-30,清算の結了等,,,2023-10-10,1,,,,,トゥーリングウェーブ,0
606,2320002016860,登記記録の閉鎖等,0,2025-06-04,2025-06-02,有限会社スーパーさの,,有限会社,大分県,佐伯市,中の島３丁目４番４３号,,44,205,8760843,,,2025-06-02,清算の結了等,,,2015-10-05,1,,,,,スーパーサノ,0
650,2490002009162,登記記録の閉鎖等,0,2025-06-04,2025-05-30,有限会社田村組,,有限会社,高知県,宿毛市,錦８７４番地６,,39,208,7880032,,,2025-05-30,清算の結了等,,,2015-10-05,1,,,,,タムラグミ,0
667,3010001123903,登記記録の閉鎖等,0,2025-06-04,2025-05-19,株式会社オフィスＮ,,株式会社,東京都,千代田区,大手町１丁目７番２号東京サンケイビル２７階,,13,101,1000004,,,2025-05-19,清算の結了等,,,2015-10-05,1,,,,,オフィスエヌ,0
675,3010003032169,登記記録の閉鎖等,0,2025-06-04,2025-05-07,ＦＯＮ合同会社,,合同会社,東京都,渋谷区,神宮前６丁目２３番４号桑野ビル２Ｆ,,13,113,1500001,,,2025-05-07,清算の結了等,,,2020-05-15,1,,,,,フォン,0
696,3010601031332,登記記録の閉鎖等,0,2025-06-04,2025-05-30,Ｏｐｅｎ　ＩＳＣ株式会社,,株式会社,東京都,江東区,平野４丁目４番１１－６０４号,,13,108,1350023,,,2025-05-30,清算の結了等,,,2015-10-05,1,,,,,,0
703,3010901030703,登記記録の閉鎖等,0,2025-06-04,2025-06-02,株式会社アクティブライフ,,株式会社,東京都,狛江市,岩戸北２丁目１番１６号メゾンドシャルム１階,,13,219,2010004,,,2025-06-02,清算の結了等,,,2015-10-05,1,,,,,,0
707,3010903002931,登記記録の閉鎖等,0,2025-06-04,2025-05-29,神宮前キャピタル合同会社,,合同会社,大阪府,大阪市中央区,今橋４丁目１番１号,,27,128,5410042,,,2025-05-29,合併による解散等,6120001095071,令和７年５月１２日東京都千代田区丸の内一丁目５番１号地主株式会社（6120001095071）に合併し解散,2015-11-04,1,,,,,ジングウマエキャピタル,0
734,3011501006358,登記記録の閉鎖等,0,2025-06-04,2025-05-30,高六商事株式会社,00055633,株式会社,東京都,文京区,本駒込２丁目２８番８号文京グリーンコートセンターオフィス１８階,,13,105,1130021,,,2025-05-30,合併による解散等,9010401174739,令和７年５月１日東京都港区新橋二丁目１２番１７号新橋Ｉ－Ｎビル３階株式会社タカロク（9010401174739）に合併し解散,2015-10-05,1,,,,,タカロクショウジ,0
747,3012701010711,登記記録の閉鎖等,0,2025-06-04,2025-05-29,目崎商事株式会社,,株式会社,東京都,西東京市,南町４丁目１９番２０号,,13,229,1880012,,,2025-05-29,清算の結了等,,,2015-10-05,1,,,,,メザキショウジ,0
750,3013101006688,登記記録の閉鎖等,0,2025-06-04,2025-05-31,株式会社ＶＯＬＬＭＯＮＴ管理供給サービス,,株式会社,東京都,青梅市,新町３丁目１８番地の３,,13,205,1980024,,,2025-05-31,清算の結了等,,,2015-10-05,1,,,,,フォルモントカンリキョウキュウサービス,0
771,3030001025172,登記記録の閉鎖等,0,2025-06-04,2025-05-30,株式会社木声社,,株式会社,埼玉県,所沢市,狭山ケ丘１丁目３００３番地の７７,,11,208,3591161,,,2025-05-30,清算の結了等,,,2015-10-05,1,,,,,モクセイシャ,0
814,3080401005018,登記記録の閉鎖等,0,2025-06-04,2025-06-02,株式会社松屋,,株式会社,静岡県,浜松市中央区,笠井町２９１番地,,22,138,4313107,,,2025-06-02,清算の結了等,,,2015-10-05,1,,,,,マツヤ,0
862,3180001081721,登記記録の閉鎖等,0,2025-06-04,2025-05-29,株式会社ヴォロンティエｉ,,株式会社,岐阜県,土岐市,泉岩畑町２丁目３４番地,,21,212,5095141,,,2025-05-29,清算の結了等,,,2015-10-05,1,,,,,ヴォロンティエアイ,0
868,3180003017392,登記記録の閉鎖等,0,2025-06-04,2025-05-29,合同会社セントラルイースト,,合同会社,愛知県,名古屋市東区,東桜２丁目９番３４号成田ビル１階,,23,102,4610005,,,2025-05-29,合併による解散等,6120001095071,令和７年５月１２日東京都千代田区丸の内一丁目５番１号地主株式会社（6120001095071）に合併し解散,2016-09-27,1,,,,,セントラルイースト,0
879,3220003002662,登記記録の閉鎖等,0,2025-06-04,2025-06-02,ブレース合同会社,,合同会社,石川県,河北郡津幡町,字南中条ニ１６５番地１,,17,361,9290343,,,2025-06-02,清算の結了等,,,2019-09-10,1,,,,,ブレース,0
882,3240001022875,登記記録の閉鎖等,0,2025-06-04,2025-05-30,株式会社村上商店,,株式会社,広島県,東広島市,西条本町１５番８号,,34,212,7390011,,,2025-05-30,清算の結了等,,,2015-10-05,1,,,,,ムラカミショウテン,0
885,3250001007025,登記記録の閉鎖等,0,2025-06-04,2025-05-30,株式会社西武,,株式会社,山口県,下関市,富任町５丁目１５番１号,,35,201,7596613,,,2025-05-30,清算の結了等,,,2015-10-05,1,,,,,セイブ,0
896,3290002038841,登記記録の閉鎖等,0,2025-06-04,2025-05-27,有限会社岡部三甲堂,,有限会社,福岡県,筑紫野市,針摺西１丁目８番３号,00093343,40,217,8180084,,,2025-05-27,清算の結了等,,,2015-10-05,1,,,,,,0
933,3370001041722,登記記録の閉鎖等,0,2025-06-04,2025-05-30,株式会社リフレホールディングス,,株式会社,宮城県,仙台市青葉区,大町１丁目１番８号第３青葉ビル３Ｆ,,04,101,9800804,,,2025-05-30,合併による解散等,9370001017007,令和７年５月２３日仙台市青葉区大町一丁目１番８号第３青葉ビル３Ｆ株式会社メディカルコスモ（9370001017007）に合併し解散,2017-07-07,1,,,,,リフレホールディングス,0
952,3430002001636,登記記録の閉鎖等,0,2025-06-04,2025-05-27,有限会社石高工務店,,有限会社,北海道,札幌市手稲区,前田十三条１０丁目８番１３号,,01,109,0060823,,,2025-05-27,清算の結了等,,,2015-10-05,1,,,,,イシダカコウムテン,0
955,3430003012483,登記記録の閉鎖等,0,2025-06-04,2025-05-30,ティアラ不動産合同会社,,合同会社,北海道,札幌市中央区,南一条西１６丁目１番地３２３春野ビル３Ｆ,,01,101,0600061,,,2025-05-30,清算の結了等,,,2021-03-02,1,,,,,ティアラフドウサン,0
970,4010001018499,登記記録の閉鎖等,0,2025-06-04,2025-06-02,城陽電子機器株式会社,,株式会社,東京都,中野区,上高田２丁目４９番５号,,13,114,1640002,,,2025-06-02,合併による解散等,4011201005725,令和７年６月１日東京都中野区上高田二丁目４９番５号洋光電子株式会社（4011201005725）に合併し解散,2015-10-05,1,,,,,ジョウヨウデンシキキ,0
972,4010001150558,登記記録の閉鎖等,0,2025-06-04,2025-05-16,株式会社ミナ企画,,株式会社,東京都,中央区,新川２丁目１７番１５－１２０１号,,13,102,1040033,,,2025-05-16,清算の結了等,,,2015-10-05,1,,,,,ミナキカク,0
984,4010401070356,登記記録の閉鎖等,0,2025-06-04,2025-04-01,株式会社アスラポート,,株式会社,東京都,中央区,日本橋蛎殻町１丁目５番６号,,13,102,1030014,,,2025-04-01,合併による解散等,2010401066843,令和７年４月１日東京都中央区日本橋蛎殻町一丁目５番６号株式会社ＪＦＬＡホールディングス（2010401066843）に合併し解散,2015-10-05,1,,,,,アスラポート,0
985,4010401128014,登記記録の閉鎖等,0,2025-06-04,2025-05-15,養生堂日本株式会社,,株式会社,東京都,中央区,日本橋３丁目８番２号新日本橋ビル税理士法人東京総合会計内,,13,102,1030027,,,2025-05-15,清算の結了等,,,2016-11-07,1,,,,,ヨウセイドウニホン,0
998,4010601057269,登記記録の閉鎖等,0,2025-06-04,2025-05-28,株式会社ＴＩＭＥ,,株式会社,東京都,江戸川区,東葛西４丁目１７番３号,,13,123,1340084,,,2025-05-28,清算の結了等,,,2020-04-30,1,,,,,タイム,0
1003,4010701023848,登記記録の閉鎖等,0,2025-06-04,2025-05-21,株式会社ケーアイコーポレーション,,株式会社,千葉県,市川市,新井３丁目４－６－３０１,,12,203,2720144,,,2025-05-21,清算の結了等,,,2015-10-05,1,,,,,ケーアイコーポレーション,0
1010,4010903002930,登記記録の閉鎖等,0,2025-06-04,2025-05-29,丸の内土地開発合同会社,,合同会社,愛知県,名古屋市中村区,名駅４丁目７番１号ミッドランドスクエア１０Ｆ,,23,105,4500002,,,2025-05-29,合併による解散等,6120001095071,令和７年５月１２日東京都千代田区丸の内一丁目５番１号地主株式会社（6120001095071）に合併し解散,2015-11-04,1,,,,,マルノウチトチカイハツ,0
1014,4011001111590,登記記録の閉鎖等,0,2025-06-04,2025-05-30,株式会社ｋｉｚｕｎａｚｏｏｎ,,株式会社,東京都,豊島区,南大塚３丁目２５番５号,,13,116,1700005,,,2025-05-30,合併による解散等,9013201018173,令和７年５月１日東京都渋谷区上原二丁目３０番１号株式会社ハイスピードボーイ（9013201018173）に合併し解散,2016-06-29,1,,,,,,0
1016,4011001148385,登記記録の閉鎖等,0,2025-06-04,2025-05-08,株式会社ＷｉｔｈＫ,,株式会社,東京都,渋谷区,千駄ヶ谷３丁目６１番７号,,13,113,1510051,,,2025-05-08,清算の結了等,,,2022-06-30,1,,,,,ウィズケー,0
1051,4012702006757,登記記録の閉鎖等,0,2025-06-04,2025-05-30,有限会社シマリゾートインターナショナル,,有限会社,東京都,東久留米市,滝山７丁目１６番４号,,13,222,2030033,,,2025-05-30,清算の結了等,,,2015-10-05,1,,,,,,0
1062,4020001031220,登記記録の閉鎖等,0,2025-06-04,2025-06-02,株式会社ユタカ環境興業,,株式会社,神奈川県,横浜市旭区,川井宿町２番地の１,,14,112,2410804,,,2025-06-02,清算の結了等,,,2015-10-05,1,,,,,ユタカカンキョウコウギョウ,0
1064,4020001048735,登記記録の閉鎖等,0,2025-06-04,2025-05-30,光翔産業株式会社,,株式会社,神奈川県,横浜市戸塚区,上柏尾町５４８番地,,14,110,2440811,,,2025-05-30,清算の結了等,,,2015-10-05,1,,,,,,0
1075,4020002098696,登記記録の閉鎖等,0,2025-06-04,2025-06-02,有限会社ハウス商事,,有限会社,神奈川県,川崎市川崎区,京町１丁目９番１０号,,14,131,2100848,,,2025-06-02,清算の結了等,,,2015-10-05,1,,,,,ハウスショウジ,0
1087,4030003007829,登記記録の閉鎖等,0,2025-06-04,2025-05-13,芙蓉合同会社,,合同会社,東京都,品川区,東五反田１丁目１２番９号イルヴィアーレ五反田７階,,13,109,1410022,,,2025-05-13,清算の結了等,,,2015-10-05,1,,,,,フヨウ,0
1099,4050001052767,登記記録の閉鎖等,0,2025-06-04,2025-05-30,株式会社ＣＪ商事,,株式会社,茨城県,東茨城郡茨城町,大字小幡１８番地２５,,08,302,3113157,,,2025-05-30,清算の結了等,,,2023-05-08,1,,,,,シージェイショウジ,0
1102,4050002008867,登記記録の閉鎖等,0,2025-06-04,2025-05-29,有限会社ファインプランニング,,有限会社,茨城県,ひたちなか市,大字中根３３３７番地の６０,,08,221,3120011,,,2025-05-29,清算の結了等,,,2015-10-05,1,,,,,ファインプランニング,0
1125,4120001206233,登記記録の閉鎖等,0,2025-06-04,2025-05-22,株式会社Ｍａｐｌｅ＆Ｃｏ．,,株式会社,大阪府,大阪市阿倍野区,橋本町３番３１－４０２号,,27,119,5450031,,,2025-05-22,清算の結了等,,,2017-06-07,1,,,,,メイプルアンドコー,0
1129,4120001247054,登記記録の閉鎖等,0,2025-06-04,2025-05-19,株式会社Ｙ２Ｋ情報技術研究所,,株式会社,大阪府,大阪市北区,野崎町７番１３－１１０２号,,27,127,5300055,,,2025-05-19,清算の結了等,,,2022-07-01,1,,,,,ワイツーケイジョウホウギジュツケンキュウショ,0
1136,4120003012035,登記記録の閉鎖等,0,2025-06-04,2025-05-29,合同会社エイチ・ケー・インベストメント,,合同会社,大阪府,大阪市中央区,本町４丁目８番１号ＳＤ本町ビル７０２号,,27,128,5410053,,,2025-05-29,合併による解散等,6120001095071,令和７年５月１２日東京都千代田区丸の内一丁目５番１号地主株式会社（6120001095071）に合併し解散,2016-09-26,1,,,,,エイチケーインベストメント,0
1154,4150002003949,登記記録の閉鎖等,0,2025-06-04,2025-06-02,有限会社イールドトレーディング,,有限会社,奈良県,生駒市,あすか野北２丁目１４番１７号,,29,209,6300134,,,2025-06-02,清算の結了等,,,2015-10-05,1,,,,,イールドトレーディング,0
1157,4160003000969,登記記録の閉鎖等,0,2025-06-04,2025-05-30,合同会社幸,,合同会社,滋賀県,彦根市,小泉町８１７番地,,25,202,5220043,,,2025-05-30,清算の結了等,,,2015-10-05,1,,,,,サチ,0
1162,4180001085606,登記記録の閉鎖等,0,2025-06-04,2025-06-02,海東織布株式会社,,株式会社,愛知県,稲沢市,平和町東城外山３６４番地２,,23,220,4901321,,,2025-06-02,清算の結了等,,,2015-10-05,1,,,,,カイトウオリフ,0
1166,4180002050419,登記記録の閉鎖等,0,2025-06-04,2025-06-02,ＭＳＴ有限会社,,有限会社,愛知県,名古屋市中区,正木３丁目１１番１号,,23,106,4600024,,,2025-06-02,清算の結了等,,,2015-10-05,1,,,,,エムエスティー,0
1173,4200001022928,登記記録の閉鎖等,0,2025-06-04,2025-06-02,株式会社ケースリー,,株式会社,岐阜県,土岐市,下石町１３９番地の１７,,21,212,5095202,,,2025-06-02,清算の結了等,,,2015-10-05,1,,,,,ケースリー,0
1189,4250001011240,登記記録の閉鎖等,0,2025-06-04,2025-06-02,株式会社大住産業,,株式会社,山口県,岩国市,山手町２丁目１７番１０号,,35,208,7400022,,,2025-06-02,清算の結了等,,,2015-10-05,1,,,,,,0
1204,4290003010963,登記記録の閉鎖等,0,2025-06-04,2025-05-26,ＣＡＴＡＣＲＩ合同会社,,合同会社,福岡県,福岡市中央区,大名２丁目９番地２９号第２プリンスビル７１１,,40,133,8100041,,,2025-05-26,清算の結了等,,,2021-03-05,1,,,,,カタクリ,0
1222,4310005008656,登記記録の閉鎖等,0,2025-06-04,2025-06-03,一般社団法人Ｇｒｅｅｅｎｄｙ,,その他の設立登記法人,長崎県,長崎市,大黒町１０番１０号ＫｏＫｏＲｏビル６１２２号室,,42,201,8500057,,,2025-06-03,清算の結了等,,,2023-02-13,1,,,,,グリーンディ,0
1233,4360001018480,登記記録の閉鎖等,0,2025-06-04,2025-05-29,株式会社シーサイドホーム中城,,株式会社,沖縄県,中頭郡中城村,字久場１９６３番地,,47,328,9012401,,,2025-05-29,清算の結了等,,,2015-10-05,1,,,,,シーサイドホームナカグスク,0
1237,4370003003661,登記記録の閉鎖等,0,2025-06-04,2025-05-29,ウィンスト合同会社,,合同会社,宮城県,黒川郡大和町,吉岡南１丁目１番地の７,,04,421,9813626,,,2025-05-29,清算の結了等,,,2016-12-02,1,,,,,ウィンスト,0
1250,4440002000999,登記記録の閉鎖等,0,2025-06-04,2025-06-02,有限会社カネキュウ石田商店,,有限会社,北海道,函館市,若松町２０番１－７０５号,,01,202,0400063,,,2025-06-02,清算の結了等,,,2015-10-05,1,,,,,カネキュウイシダショウテン,0
1284,5010501026257,登記記録の閉鎖等,0,2025-06-04,2025-05-21,株式会社ジェイクルーズ,,株式会社,千葉県,柏市,しいの木台４丁目２４番地２２,,12,217,2770945,,,2025-05-21,清算の結了等,,,2015-10-05,1,,,,,ジェイクルーズ,0
1285,5010501041009,登記記録の閉鎖等,0,2025-06-04,2025-05-26,株式会社蓮沼興業,,株式会社,東京都,台東区,上野６丁目１番６号御徒町グリーンハイツ１００５号,,13,106,1100005,,,2025-05-26,清算の結了等,,,2017-05-08,1,,,,,ハスヌマコウギョウ,0
1296,5010701041766,登記記録の閉鎖等,0,2025-06-04,2025-05-13,株式会社ＢＰＭ,,株式会社,東京都,品川区,勝島１丁目４番２０－４１１号,,13,109,1400012,,,2025-05-13,清算の結了等,,,2021-11-11,1,BPM Inc.,Tokyo,"411, 1-4-20, Katsushima, Shinagawa ku",,ビーピーエム,0
1312,5011001153839,登記記録の閉鎖等,0,2025-06-04,2025-05-02,株式会社Ｒｅｄ　Ａｎｄ　Ｐｕｒｐｌｅ,,株式会社,東京都,渋谷区,神宮前６丁目２３番４号桑野ビル２階,,13,113,1500001,,,2025-05-02,清算の結了等,,,2023-04-17,1,,,,,レッドアンドパープル,0
1328,5011201021358,登記記録の閉鎖等,0,2025-06-04,2025-06-02,ＵＮＩＣＯＮ株式会社,,株式会社,東京都,中野区,中野５丁目２４番１６号,,13,114,1640001,,,2025-06-02,清算の結了等,,,2019-05-28,1,,,,,ユニコーン,0
1336,5011503005579,登記記録の閉鎖等,0,2025-06-04,2025-06-02,コクウ合同会社,,合同会社,東京都,北区,神谷３丁目２２番５号,,13,117,1150043,,,2025-06-02,清算の結了等,,,2023-04-25,1,,,,,コクウ,0
1340,5011702004860,登記記録の閉鎖等,0,2025-06-04,2025-05-28,有限会社山清建設工業,,有限会社,東京都,江戸川区,中央２丁目１８番７号,,13,123,1320021,,,2025-05-28,清算の結了等,,,2015-10-05,1,,,,,ヤマシンケンセツコウギョウ,0
1359,5013401005859,登記記録の閉鎖等,0,2025-06-04,2025-05-27,株式会社ＴＭコーポレーション,,株式会社,福島県,郡山市,富田東６丁目２６番地県営住宅０２棟２０８号,,07,203,9638047,,,2025-05-27,清算の結了等,,,2015-10-05,1,,,,,ティーエムコーポレーション,0
1360,5020001003466,登記記録の閉鎖等,0,2025-06-04,2025-06-02,横浜協業株式会社,,株式会社,神奈川県,横浜市磯子区,中原１丁目４番２号,,14,107,2350036,,,2025-06-02,清算の結了等,,,2015-10-05,1,,,,,ヨコハマキョウギョウ,0
1367,5020003006913,登記記録の閉鎖等,0,2025-06-04,2025-06-02,ハッピリーケア合同会社,,合同会社,神奈川県,横浜市港北区,樽町３丁目７番５３－８１８号,,14,109,2220001,,,2025-06-02,清算の結了等,,,2015-10-05,1,,,,,ハッピリーケア,0
1387,5030002008876,登記記録の閉鎖等,0,2025-06-04,2025-05-30,智東産業有限会社,,有限会社,埼玉県,さいたま市桜区,西堀３丁目１８番２６号,,11,106,3380832,,,2025-05-30,清算の結了等,,,2015-10-05,1,,,,,チトウサンギョウ,0
1398,5050001050398,登記記録の閉鎖等,0,2025-06-04,2025-06-02,株式会社筑波塗装,,株式会社,茨城県,つくば市,稲岡４９５番地９９,,08,220,3050071,,,2025-06-02,清算の結了等,,,2022-01-05,1,,,,,ツクバトソウ,0
1401,5050002014261,登記記録の閉鎖等,0,2025-06-04,2025-06-02,有限会社田崎木材店,00022797,有限会社,茨城県,かすみがうら市,上佐谷２３９１番地１,,08,230,3150065,,,2025-06-02,清算の結了等,,,2015-10-05,1,,,,,タザキモクザイテン,0
1408,5080002002528,登記記録の閉鎖等,0,2025-06-04,2025-05-30,有限会社新光通信,,有限会社,静岡県,静岡市駿河区,大坪町８番４号,,22,102,4228075,,,2025-05-30,清算の結了等,,,2015-10-05,1,,,,,シンコウツウシン,0
1410,5080401017705,登記記録の閉鎖等,0,2025-06-04,2025-06-02,株式会社つるのや,,株式会社,静岡県,磐田市,天龍３５６番地１,,22,211,4380075,,,2025-06-02,清算の結了等,,,2015-10-05,1,,,,,ツルノヤ,0
1428,5120001224093,登記記録の閉鎖等,0,2025-06-04,2025-05-28,株式会社Ｍａｃｃｏｒｏ,,株式会社,大阪府,守口市,梶町１丁目２４番１号,,27,209,5700015,,,2025-05-28,清算の結了等,,,2019-10-08,1,,,,,マッコロ,0
1446,5120103002307,登記記録の閉鎖等,0,2025-06-04,2025-05-30,合同会社つどい,,合同会社,大阪府,河内長野市,市町２９２番地の９,,27,216,5860002,,,2025-05-30,清算の結了等,,,2015-11-04,1,,,,,ツドイ,0
1454,5130002010112,登記記録の閉鎖等,0,2025-06-04,2025-06-02,有限会社ネクスト・ブレーン,,有限会社,京都府,京都市東山区,今熊野宝蔵町４１番地,,26,105,6050952,,,2025-06-02,清算の結了等,,,2015-10-05,1,,,,,ネクストブレーン,0
1456,5130005012725,登記記録の閉鎖等,0,2025-06-04,2025-06-02,一般社団法人京都朝日会,,その他の設立登記法人,京都府,京都市中京区,柳八幡町６５京都朝日ビル３階,,26,104,6048101,,,2025-06-02,清算の結了等,,,2015-10-05,1,,,,,キョウトアサヒカイ,0
1466,5170002009844,登記記録の閉鎖等,0,2025-06-04,2025-06-02,有限会社綜合,,有限会社,和歌山県,田辺市,神子浜２丁目３番３号,,30,206,6460025,,,2025-06-02,清算の結了等,,,2015-10-05,1,,,,,ソウゴウ,0
1482,5200001012564,登記記録の閉鎖等,0,2025-06-04,2025-06-02,株式会社ＫＡＷＡＭＵＲＡ,,株式会社,岐阜県,本巣市,山口３８１番地１,,21,218,5011201,,,2025-06-02,清算の結了等,,,2015-10-05,1,,,,,カワムラ,0
1489,5230005007698,登記記録の閉鎖等,0,2025-06-04,2025-05-29,新湊地区木材協同組合,,その他の設立登記法人,富山県,射水市,本町２丁目１０番３０号クロスベイ新湊会館内,,16,211,9340011,,,2025-05-29,清算の結了等,,,2015-10-05,1,,,,,シンミナトチクモクザイ,0
1490,5240001042921,登記記録の閉鎖等,0,2025-06-04,2025-06-02,株式会社Ｋサプライヤー,,株式会社,広島県,福山市,東明王台７番１号,,34,207,7200839,,,2025-06-02,清算の結了等,,,2015-10-05,1,,,,,,0
1508,5290001085370,登記記録の閉鎖等,0,2025-06-04,2025-05-28,株式会社フェルビ,,株式会社,福岡県,春日市,桜ヶ丘６丁目５９番地１,,40,218,8160872,,,2025-05-28,清算の結了等,,,2019-06-03,1,,,,,フェルビ,0
1535,5370401000821,登記記録の閉鎖等,0,2025-06-04,2025-05-29,株式会社宝久,,株式会社,宮城県,登米市,豊里町新田町１４８番地２,,04,212,9870361,,,2025-05-29,清算の結了等,,,2015-10-05,1,,,,,,0
1550,5470003001828,登記記録の閉鎖等,0,2025-06-04,2025-06-02,ミライエ合同会社,,合同会社,香川県,高松市,番町１丁目１０番１３－１５０２号,,37,201,7600017,,,2025-06-02,清算の結了等,,,2020-09-03,1,,,,,ミライエ,0
1553,5480002001737,登記記録の閉鎖等,0,2025-06-04,2025-05-30,有限会社古住工業所,,有限会社,徳島県,徳島市,国府町南岩延１０８番地,,36,201,7793120,,,2025-05-30,清算の結了等,,,2015-10-05,1,,,,,コスミコウギョウショ,0
1564,6010001249324,登記記録の閉鎖等,0,2025-06-04,2025-06-02,ＣＡＪＡＩＣ　ＳＰＣ株式会社,,株式会社,東京都,千代田区,平河町２丁目７－５砂防会館本館１階,,13,101,1020093,,,2025-06-02,合併による解散等,9010001151056,令和７年６月１日東京都千代田区平河町二丁目７番５号クラウンエイジェンツ・ジャパン株式会社（9010001151056）に合併し解散,2024-10-29,1,,,,,シーエージェーエーアイシーエスピーシー,0
1584,6010605001741,登記記録の閉鎖等,0,2025-06-04,2025-05-19,特定非営利活動法人イマジン,,その他の設立登記法人,東京都,墨田区,向島３丁目７番１１号,,13,107,1310033,,,2025-05-19,清算の結了等,,,2015-10-05,1,,,,,イマジン,0
1604,6011005003015,登記記録の閉鎖等,0,2025-06-04,2025-05-08,一般社団法人ジャパン・イメージ・カウンシル,,その他の設立登記法人,東京都,渋谷区,渋谷２丁目１０番２号,,13,113,1500002,,,2025-05-08,清算の結了等,,,2015-10-05,1,,,,,ジャパンイメージカウンシル,0
1622,6011801043742,登記記録の閉鎖等,0,2025-06-04,2025-05-30,金倉貿易株式会社,,株式会社,東京都,足立区,西新井本町５丁目２番４－２０３号,,13,121,1230845,,,2025-05-30,清算の結了等,,,2024-02-07,1,,,,,カネクラボウエキ,0
1629,6013102000547,登記記録の閉鎖等,0,2025-06-04,2025-06-02,有限会社ツカモト,,有限会社,東京都,福生市,大字熊川６５１番地１ＥＭフラット１０５,,13,218,1970003,,,2025-06-02,清算の結了等,,,2015-10-05,1,,,,,ツカモト,0
1630,6013201016295,登記記録の閉鎖等,0,2025-06-04,2025-05-07,株式会社ジャパンメディカルリンク,,株式会社,東京都,目黒区,中目黒５丁目１２番２０－３０４号,,13,110,1530061,,,2025-05-07,清算の結了等,,,2015-10-05,1,,,,,ジャパンメディカルリンク,0
1636,6020001041449,登記記録の閉鎖等,0,2025-06-04,2025-05-29,株式会社アッシュ,,株式会社,神奈川県,横浜市青葉区,荏田西３丁目２３番地７,,14,117,2250014,,,2025-05-29,清算の結了等,,,2015-10-05,1,,,,,アッシュ,0
1638,6020001125086,登記記録の閉鎖等,0,2025-06-04,2025-06-02,株式会社インダストリアルサポーターズ,,株式会社,神奈川県,横浜市青葉区,奈良２丁目２６番地８,,14,117,2270038,,,2025-06-02,清算の結了等,,,2018-02-15,1,,,,,インダストリアルサポーターズ,0
1671,6040001094593,登記記録の閉鎖等,0,2025-06-04,2025-05-21,株式会社Ｒｉｖｅｔ,,株式会社,千葉県,千葉市花見川区,三角町１６番地２,,12,102,2620011,,,2025-05-21,清算の結了等,,,2016-03-25,1,,,,,リベット,0
1682,6040002073308,登記記録の閉鎖等,0,2025-06-04,2025-05-20,有限会社ゴルフロード,,有限会社,千葉県,市原市,山倉字北笠松１６０番１,,12,219,2900201,,,2025-05-20,清算の結了等,,,2015-10-05,1,,,,,ゴルフロード,0
1686,6050002010953,登記記録の閉鎖等,0,2025-06-04,2025-05-30,有限会社池辺酒店,,有限会社,茨城県,土浦市,中村南５丁目２２番９号,,08,203,3000843,,,2025-05-30,清算の結了等,,,2015-10-05,1,,,,,イケベサケテン,0
1699,6080402007555,登記記録の閉鎖等,0,2025-06-04,2025-05-30,有限会社マツバラ,,有限会社,静岡県,浜松市中央区,湖東町６１３番地,,22,138,4311103,,,2025-05-30,清算の結了等,,,2015-10-05,1,,,,,マツバラ,0
1706,6110001038130,登記記録の閉鎖等,0,2025-06-04,2025-05-23,株式会社ＢＥ．ｔｒｕｓｔ,,株式会社,新潟県,新潟市西区,西小針台１丁目２番４号,,15,107,9502015,,,2025-05-23,清算の結了等,,,2024-01-24,1,,,,,ビートラスト,0
1708,6110003005005,登記記録の閉鎖等,0,2025-06-04,2025-05-26,東日本トータル合同会社,,合同会社,新潟県,新潟市南区,次郎右エ門興野２０６番地,,15,106,9501433,,,2025-05-26,清算の結了等,,,2023-03-20,1,,,,,ヒガシニホントータル,0
1731,6122001007782,登記記録の閉鎖等,0,2025-06-04,2025-06-02,山一商事株式会社,,株式会社,大阪府,東大阪市,金岡２丁目９番４号,,27,227,5770823,,,2025-06-02,清算の結了等,,,2015-10-05,1,,,,,ヤマイチショウジ,0
1736,6130001033121,登記記録の閉鎖等,0,2025-06-04,2025-06-02,みろく株式会社,,株式会社,京都府,宇治市,伊勢田町井尻５１番地１,,26,204,6110043,,,2025-06-02,清算の結了等,,,2015-10-05,1,,,,,ミロク,0
1754,6180001153253,登記記録の閉鎖等,0,2025-06-04,2025-06-02,株式会社ｔＩＶＩＡ,,株式会社,愛知県,名古屋市中区,錦３丁目８番１９号ライフ錦ビル,,23,106,4600003,,,2025-06-02,合併による解散等,9180301032559,令和７年５月３１日名古屋市中川区供米田二丁目１０８株式会社ＷｉｓＭｉｃ（9180301032559）に合併し解散,2022-10-05,1,,,,,ティビア,0
1798,6290001052758,登記記録の閉鎖等,0,2025-06-04,2025-06-02,株式会社鹿福設備,,株式会社,福岡県,柳川市,三橋町蒲船津５３１番地の２,,40,207,8320827,,,2025-06-02,清算の結了等,,,2015-10-05,1,,,,,カフクセツビ,0
1806,6310005005313,登記記録の閉鎖等,0,2025-06-04,2025-06-02,社会福祉法人美祢会,,その他の設立登記法人,長崎県,島原市,南下川尻町８１１９番地,,42,203,8550866,,,2025-06-02,清算の結了等,,,2015-10-05,1,,,,,ミネカイ,0
1807,6320001014085,登記記録の閉鎖等,0,2025-06-04,2025-05-28,ビット・クルー株式会社,,株式会社,大分県,大分市,府内町２丁目６番９号ＧＬＡＳＳＢＬＤＧ３階,,44,201,8700021,,,2025-05-28,清算の結了等,,,2015-10-05,1,,,,,,0
1812,6330002027944,登記記録の閉鎖等,0,2025-06-04,2025-05-28,有限会社三吉整備,,有限会社,熊本県,葦北郡津奈木町,大字小津奈木２１２０番地の２９,,43,484,8695604,,,2025-05-28,清算の結了等,,,2015-10-05,1,,,,,ミヨシセイビ,0
1820,6400002011536,登記記録の閉鎖等,0,2025-06-04,2025-05-21,有限会社菊池政太郎商店,,有限会社,岩手県,釜石市,大字平田第２地割１６番地１１,,03,211,0260001,,,2025-05-21,清算の結了等,,,2015-10-05,1,,,,,キクチマサタロウ,0
1835,6470002018129,登記記録の閉鎖等,0,2025-06-04,2025-06-02,有限会社デファーニ,,有限会社,香川県,さぬき市,志度４８６７番地４,,37,206,7692101,,,2025-06-02,清算の結了等,,,2015-10-05,1,,,,,デファーニ,0
1840,7010001154713,登記記録の閉鎖等,0,2025-06-04,2025-04-30,株式会社ＧＩＦＭＡＧＡＺＩＮＥ,,株式会社,東京都,渋谷区,本町３丁目１０－９－６０１,,13,113,1510071,,,2025-04-30,清算の結了等,,,2015-10-05,1,,,,,ジフマガジン,0
1845,7010001235471,登記記録の閉鎖等,0,2025-06-04,2025-05-14,株式会社Ｃｏ‐Ｇｒｏｗｔｈ,,株式会社,東京都,中央区,銀座１丁目１２番４号Ｎ＆ＥＢＬＤ．６Ｆ,,13,102,1040061,,,2025-05-14,清算の結了等,,,2023-05-24,1,,,,,コーグロース,0
1847,7010003027891,登記記録の閉鎖等,0,2025-06-04,2025-05-14,合同会社ＳＳ新大阪,,合同会社,東京都,中央区,銀座４丁目６番１号,,13,102,1040061,,,2025-05-14,清算の結了等,,,2018-07-23,1,,,,,エスエスシンオオサカ,0
1849,7010005034151,登記記録の閉鎖等,0,2025-06-04,2025-05-26,一般社団法人護国ファミリートラスト,,その他の設立登記法人,新潟県,新潟市西区,五十嵐中島１丁目１０番１０号,,15,107,9502162,,,2025-05-26,清算の結了等,,,2021-11-01,1,,,,,モリクニファミリートラスト,0
1870,7010405019875,登記記録の閉鎖等,0,2025-06-04,2025-05-08,Ｋｙｒｏｎ特定目的会社,,その他の設立登記法人,東京都,港区,虎ノ門２丁目６番１号,,13,103,1050001,,,2025-05-08,清算の結了等,,,2021-06-03,1,,,,,カイロン,0
1875,7010801024982,登記記録の閉鎖等,0,2025-06-04,2025-05-21,株式会社森水産東京,,株式会社,東京都,大田区,東海３丁目２番８号,,13,111,1430001,,,2025-05-21,合併による解散等,3010801029936,令和７年５月１日東京都大田区東海三丁目７番１号株式会社エフ・エフ・フィッシャーズ（3010801029936）に合併し解散,2015-10-05,1,,,,,モリスイサントウキョウ,0
1878,7010802004166,登記記録の閉鎖等,0,2025-06-04,2025-05-30,有限会社北川工業所,,有限会社,東京都,大田区,大森西２丁目１番６号,,13,111,1430015,,,2025-05-30,清算の結了等,,,2015-10-05,1,,,,,キタガワコウギョウショ,0
1900,7011301025372,登記記録の閉鎖等,0,2025-06-04,2025-05-15,ＳＴＵＤＩＴＩＯＮ株式会社,,株式会社,東京都,新宿区,新宿１丁目３６番２号新宿第七葉山ビル３階,,13,104,1600022,,,2025-05-15,清算の結了等,,,2019-09-25,1,,,,,ストゥディション,0
1904,7011402009605,登記記録の閉鎖等,0,2025-06-04,2025-05-30,有限会社若井田電気,,有限会社,東京都,板橋区,蓮根２丁目３０番１４号,00055424,13,119,1740046,,,2025-05-30,清算の結了等,,,2015-10-05,1,,,,,,0
1906,7011602005817,登記記録の閉鎖等,0,2025-06-04,2025-05-29,有限会社総合住販,,有限会社,東京都,練馬区,大泉学園町２丁目１番１８号,,13,120,1780061,,,2025-05-29,清算の結了等,,,2015-10-05,1,,,,,,0
1907,7011801021714,登記記録の閉鎖等,0,2025-06-04,2025-05-27,株式会社タカス内装,,株式会社,東京都,江戸川区,新堀１丁目２１－５ドマーニ新堀３０２,,13,123,1320001,,,2025-05-27,清算の結了等,,,2015-10-05,1,,,,,タカスナイソウ,0
1917,7020001091542,登記記録の閉鎖等,0,2025-06-04,2025-05-27,株式会社関東ビルサービス,,株式会社,神奈川県,足柄下郡箱根町,仙石原８１７－２２７,,14,382,2500631,,,2025-05-27,清算の結了等,,,2015-10-05,1,,,,,カントウビルサービス,0
1924,7020003006894,登記記録の閉鎖等,0,2025-06-04,2025-05-29,Ｋ２３合同会社,,合同会社,神奈川県,横浜市西区,みなとみらい４丁目９番１－Ｂ１５１１号,,14,103,2200012,,,2025-05-29,清算の結了等,,,2015-10-05,1,,,,,ケーニジュウサン,0
1925,7020003017322,登記記録の閉鎖等,0,2025-06-04,2025-05-29,合同会社樹香,,合同会社,神奈川県,横浜市旭区,白根２丁目１６番１－２０４号,,14,112,2410005,,,2025-05-29,清算の結了等,,,2020-02-05,1,,,,,キカ,0
1983,7100002011549,登記記録の閉鎖等,0,2025-06-04,2025-06-02,有限会社コウシン,,有限会社,長野県,佐久市,岩村田４１９６番地６,,20,217,3850022,,,2025-06-02,清算の結了等,,,2015-10-05,1,,,,,コウシン,0
2017,7130001057549,登記記録の閉鎖等,0,2025-06-04,2025-06-02,アイリス株式会社,,株式会社,京都府,京都市山科区,川田前畑町１９番地１,,26,110,6078333,,,2025-06-02,清算の結了等,,,2016-05-30,1,,,,,アイリス,0
2056,7240001002337,登記記録の閉鎖等,0,2025-06-04,2025-06-02,株式会社可部住宅サービス,,株式会社,広島県,広島市安佐北区,三入１丁目２１番６号,,34,106,7310211,,,2025-06-02,清算の結了等,,,2015-10-05,1,,,,,カベジュウタクサービス,0
2092,7370001016191,登記記録の閉鎖等,0,2025-06-04,2025-05-23,株式会社峰成不動産,,株式会社,宮城県,仙台市太白区,中田５丁目１－４５,,04,104,9811104,,,2025-05-23,合併による解散等,8370001018402,令和７年５月２３日仙台市太白区中田町字法地南２２番地の１日成施設株式会社（8370001018402）に合併し解散,2015-10-05,1,,,,,ホウセイフドウサン,0
2094,7370003004161,登記記録の閉鎖等,0,2025-06-04,2025-05-02,ｆｉｎｄ　ｆｕｎ合同会社,,合同会社,宮城県,宮城郡七ヶ浜町,花渕浜字館下１１５番地,,04,404,9850803,,,2025-05-02,清算の結了等,,,2018-06-08,1,,,,,ファインドファン,0
2117,7480001000317,登記記録の閉鎖等,0,2025-06-04,2025-06-02,ゑび寿商事株式会社,,株式会社,徳島県,徳島市,富田浜１丁目１０番地,,36,201,7700931,,,2025-06-02,清算の結了等,,,2015-10-05,1,,,,,エビスショウジ,0
2143,8010401091019,登記記録の閉鎖等,0,2025-06-04,2025-05-29,株式会社ＤＡインベストメンツ,,株式会社,東京都,港区,赤坂１丁目１２番３２号,,13,103,1070052,,,2025-05-29,合併による解散等,8010601063180,令和７年５月２９日東京都墨田区横川三丁目６番７号バタフライ株式会社（8010601063180）に合併し解散,2015-10-05,1,,,,,ディーエーインベストメンツ,0
2168,8010901019386,登記記録の閉鎖等,0,2025-06-04,2025-05-30,株式会社寿寿,,株式会社,東京都,世田谷区,中町３丁目３３番１９号,,13,112,1580091,,,2025-05-30,合併による解散等,7010001063419,令和７年５月１日東京都港区北青山一丁目３番１号アールキューブ青山３階志賀興業株式会社（7010001063419）に合併し解散,2015-10-05,1,,,,,ジュジュ,0
2169,8010901038270,登記記録の閉鎖等,0,2025-06-04,2025-06-02,Ｓａｌｏｎ　ｄｅ　Ｇａｒｄｅｎｉａ株式会社,,株式会社,東京都,世田谷区,奥沢５丁目１４番１２号,,13,112,1580083,,,2025-06-02,清算の結了等,,,2016-06-13,1,,,,,サロンドガーデニア,0
2185,8011101025902,登記記録の閉鎖等,0,2025-06-04,2025-05-15,ソフトギア株式会社,,株式会社,東京都,千代田区,二番町１１番地３相互二番町ビルディング別館,,13,101,1020084,,,2025-05-15,清算の結了等,,,2015-10-05,1,,,,,ソフトギア,0
2192,8011201015043,登記記録の閉鎖等,0,2025-06-04,2025-05-15,株式会社トラッドジャパン,,株式会社,東京都,中央区,日本橋堀留町２丁目２番４－５０２号,,13,102,1030012,,,2025-05-15,清算の結了等,,,2015-10-05,1,,,,,トラッドジャパン,0
2202,8011802027362,登記記録の閉鎖等,0,2025-06-04,2025-05-30,有限会社堀越コーポレーション,,有限会社,東京都,葛飾区,鎌倉２丁目３１番９号,,13,122,1250053,,,2025-05-30,清算の結了等,,,2015-10-05,1,,,,,ホリコシコーポレーション,0
2220,8021001008808,登記記録の閉鎖等,0,2025-06-04,2025-05-30,株式会社アルファ映像,,株式会社,神奈川県,鎌倉市,梶原２丁目１２番１７号,,14,204,2470063,,,2025-05-30,清算の結了等,,,2015-10-05,1,,,,,アルファエイゾウ,0
2229,8021002070518,登記記録の閉鎖等,0,2025-06-04,2025-05-26,有限会社エコホームシステム,,有限会社,神奈川県,横須賀市,鴨居２丁目２７番１号,,14,201,2390813,,,2025-05-26,清算の結了等,,,2015-10-05,1,,,,,エコホームシステム,0
2237,8030001089907,登記記録の閉鎖等,0,2025-06-04,2025-05-29,株式会社ブラウズ,,株式会社,埼玉県,飯能市,柳町１２番１０号,,11,209,3570035,,,2025-05-29,清算の結了等,,,2015-10-05,1,,,,,ブラウズ,0
2239,8030001123533,登記記録の閉鎖等,0,2025-06-04,2025-05-28,株式会社匠美装,,株式会社,埼玉県,三郷市,戸ケ崎４丁目１１０番地３,,11,237,3410044,,,2025-05-28,清算の結了等,,,2017-12-19,1,,,,,タクミビソウ,0
2240,8030001124011,登記記録の閉鎖等,0,2025-06-04,2025-05-30,株式会社ｍｅｄｅｌ,,株式会社,埼玉県,富士見市,諏訪１丁目２－１０,,11,235,3540023,,,2025-05-30,清算の結了等,,,2018-01-30,1,,,,,メデル,0
2246,8030002112733,登記記録の閉鎖等,0,2025-06-04,2025-05-29,有限会社石井空調,,有限会社,埼玉県,熊谷市,銀座４丁目２番１７－３０２号,,11,202,3600032,,,2025-05-29,清算の結了等,,,2015-10-05,1,,,,,イシイクウチョウ,0
2251,8040001091449,登記記録の閉鎖等,0,2025-06-04,2025-05-21,雄真電通システム株式会社,,株式会社,千葉県,柏市,北柏２丁目１３番地１５,,12,217,2770832,,,2025-05-21,清算の結了等,,,2015-10-05,1,,,,,ユウシンデンツウシステム,0
2259,8050001022304,登記記録の閉鎖等,0,2025-06-04,2025-06-02,株式会社マツオカ鉄工,,株式会社,茨城県,神栖市,大野原８丁目８番７２号,,08,232,3140144,,,2025-06-02,清算の結了等,,,2015-10-05,1,,,,,マツオカテッコウ,0
2275,8060002022764,登記記録の閉鎖等,0,2025-06-04,2025-05-30,有限会社益子造園,,有限会社,栃木県,那須塩原市,鍋掛１２３９番地,,09,213,3250013,,,2025-05-30,清算の結了等,,,2015-10-05,1,,,,,マシコゾウエン,0
2279,8070002009488,登記記録の閉鎖等,0,2025-06-04,2025-05-28,有限会社木村青果,,有限会社,群馬県,高崎市,下和田町１丁目６番９号,,10,202,3700846,,,2025-05-28,清算の結了等,,,2015-10-05,1,,,,,キムラセイカ,0
2296,8110005014902,登記記録の閉鎖等,0,2025-06-04,2025-05-28,特定非営利活動法人太陽と風と水を活かす支援機構,,その他の設立登記法人,新潟県,新潟市中央区,米山４丁目６番１２号,,15,103,9500916,,,2025-05-28,清算の結了等,,,2015-10-05,1,,,,,タイヨウトカゼトミズヲイカスシエンキコウ,0
2312,8120101023129,登記記録の閉鎖等,0,2025-06-04,2025-05-30,株式会社しぜんそざい,,株式会社,大阪府,堺市東区,中茶屋４９番地２,,27,143,5998128,,,2025-05-30,清算の結了等,,,2015-10-05,1,,,,,シゼンソザイ,0
2332,8140002007609,登記記録の閉鎖等,0,2025-06-04,2025-05-29,有限会社ワイツープランニング,,有限会社,兵庫県,神戸市須磨区,友が丘３丁目１０番地,,28,107,6540142,,,2025-05-29,清算の結了等,,,2015-10-05,1,,,,,ワイツープランニング,0
2341,8180001068235,登記記録の閉鎖等,0,2025-06-04,2025-05-29,株式会社加藤工業,,株式会社,愛知県,名古屋市緑区,大高町字巳新田２８番地の２,,23,114,4598001,,,2025-05-29,合併による解散等,6120101022339,令和７年５月２３日大阪市西淀川区姫島三丁目１１番３６号東明エアテクノ株式会社（6120101022339）に合併し解散,2015-10-05,1,,,,,カトウコウギョウ,0
2342,8180001107463,登記記録の閉鎖等,0,2025-06-04,2025-06-02,株式会社谷口工業,,株式会社,愛知県,尾張旭市,南原山町南原山２９番地１,,23,226,4880068,,,2025-06-02,合併による解散等,7180001121977,令和７年６月１日名古屋市名東区猪子石原三丁目６１３番地株式会社三享工業（7180001121977）に合併し解散,2015-10-05,1,,,,,タニグチコウギョウ,0
2344,8180001147831,登記記録の閉鎖等,0,2025-06-04,2025-05-30,株式会社エムデア,,株式会社,愛知県,名古屋市中村区,熊野町１丁目７９番地の１,,23,105,4530814,,,2025-05-30,清算の結了等,,,2021-09-16,1,,,,,エムデア,0
2358,8190002017041,登記記録の閉鎖等,0,2025-06-04,2025-06-02,有限会社平野幸鋳造所,,有限会社,三重県,桑名市,大字福島８５９番地の７,,24,205,5110002,,,2025-06-02,合併による解散等,6190001012508,令和７年６月１日三重県桑名市大字桑名字砂割６５４番地の２６平野鋳工株式会社（6190001012508）に合併し解散,2015-10-05,1,,,,,ヒラノコウチュウゾウショ,0
2368,8220001019076,登記記録の閉鎖等,0,2025-06-04,2025-05-26,ワークアブル株式会社,,株式会社,石川県,金沢市,若宮１丁目３４番地,,17,201,9200054,,,2025-05-26,清算の結了等,,,2015-10-05,1,,,,,ワークアブル,0
2425,8370402002054,登記記録の閉鎖等,0,2025-06-04,2025-05-29,有限会社ナガヌマ,,有限会社,宮城県,登米市,迫町佐沼字中江４丁目１５番地の３,,04,212,9870511,,,2025-05-29,清算の結了等,,,2015-10-05,1,,,,,ナガヌマ,0
2437,8430003016562,登記記録の閉鎖等,0,2025-06-04,2025-05-30,ＲＳＨ合同会社,,合同会社,北海道,札幌市豊平区,平岸八条１３丁目２番２０号,,01,105,0620938,,,2025-05-30,清算の結了等,,,2024-07-17,1,,,,,アールエスエイチ,0
2457,9010001039160,登記記録の閉鎖等,0,2025-06-04,2025-05-16,株式会社ＤＭ,,株式会社,東京都,中央区,築地６丁目１８番１号,,13,102,1040045,,,2025-05-16,清算の結了等,,,2025-03-11,1,,,,,ディーエム,0
2476,9010401064254,登記記録の閉鎖等,0,2025-06-04,2025-05-01,株式会社港コーポレーション,,株式会社,東京都,港区,南青山２丁目２０番５号,,13,103,1070062,,,2025-05-01,合併による解散等,1010401062397,令和７年５月１日東京都港区南青山二丁目２０番５号株式会社青山プロパティーズ（1010401062397）に合併し解散,2015-10-05,1,,,,,ミナトコーポレーション,0
2486,9010403010909,登記記録の閉鎖等,0,2025-06-04,2025-05-07,ｍａｇａｚｉｎｅ合同会社,,合同会社,東京都,港区,西麻布２丁目１２番１号西麻布ハイツ４０２,,13,103,1060031,,,2025-05-07,清算の結了等,,,2015-10-05,1,,,,,マガジン,0
2494,9010701020139,登記記録の閉鎖等,0,2025-06-04,2025-05-12,株式会社ピースバードシステム,,株式会社,東京都,品川区,西五反田８丁目８番１５号,,13,109,1410031,,,2025-05-12,清算の結了等,,,2015-10-05,1,,,,,ピースバードシステム,0
2495,9010703006623,登記記録の閉鎖等,0,2025-06-04,2025-04-28,合同会社ＣＨＡＴＡＮＩ,,合同会社,東京都,品川区,西五反田３丁目１６―１ベルファース目黒１４０３,,13,109,1410031,,,2025-04-28,清算の結了等,,,2023-03-10,1,,,,,チャタニ,0
2535,9012801008609,登記記録の閉鎖等,0,2025-06-04,2025-05-21,リアル成果マーケティング株式会社,,株式会社,東京都,渋谷区,道玄坂１丁目２２番１２号,,13,113,1500043,,,2025-05-21,清算の結了等,,,2015-10-05,1,,,,,リアルセイカマーケティング,0
2543,9020001061097,登記記録の閉鎖等,0,2025-06-04,2025-06-03,株式会社日本システム安全研究所,,株式会社,神奈川県,横浜市港南区,日野中央３丁目１７番２４号,,14,111,2340053,,,2025-06-03,清算の結了等,,,2015-10-05,1,,,,,ニホンシステムアンゼンケンキュウショ,0
2548,9020002004138,登記記録の閉鎖等,0,2025-06-04,2025-05-29,有限会社黒滝商事,,有限会社,神奈川県,横浜市緑区,鴨居３丁目８番４号,,14,113,2260003,,,2025-05-29,清算の結了等,,,2015-10-05,1,,,,,クロタキショウジ,0
2554,9021003011412,登記記録の閉鎖等,0,2025-06-04,2025-05-13,ＭｉＵ－ｃａｔ合同会社,,合同会社,神奈川県,横須賀市,東浦賀２丁目２２番１号,,14,201,2390821,,,2025-05-13,清算の結了等,,,2022-02-18,1,,,,,ミウキャット,0
2558,9030001111371,登記記録の閉鎖等,0,2025-06-04,2025-05-28,廣隆株式会社,,株式会社,埼玉県,行田市,大字斉條１３５５番地１,,11,206,3610000,,,2025-05-28,清算の結了等,,,2015-11-30,1,,,,,コウリュウ,0
2566,9040001032757,登記記録の閉鎖等,0,2025-06-04,2025-05-21,株式会社長谷川サービス,,株式会社,千葉県,船橋市,金杉３丁目４番７号,,12,204,2730853,,,2025-05-21,清算の結了等,,,2015-10-05,1,,,,,ハセガワサービス,0
2568,9040001039744,登記記録の閉鎖等,0,2025-06-04,2025-05-20,株式会社樹大工務店,,株式会社,千葉県,松戸市,常盤平３丁目１４番地５スプリングヒルズ１０２号,,12,207,2702261,,,2025-05-20,清算の結了等,,,2015-10-05,1,,,,,キダイコウムテン,0
2570,9040001103442,登記記録の閉鎖等,0,2025-06-04,2025-05-21,クリーム株式会社,,株式会社,千葉県,船橋市,金杉５丁目１６番３９号,,12,204,2730853,,,2025-05-21,清算の結了等,,,2018-02-07,1,,,,,クリーム,0
2573,9040002071366,登記記録の閉鎖等,0,2025-06-04,2025-05-20,有限会社浜丸商店,,有限会社,千葉県,富津市,富津６７９番地の４,,12,226,2930021,,,2025-05-20,清算の結了等,,,2015-10-05,1,,,,,ハママルショウテン,0
2575,9040002097304,登記記録の閉鎖等,0,2025-06-04,2025-05-21,有限会社テクノバース,,有限会社,千葉県,野田市,山崎１６２３番地の５,,12,208,2780022,,,2025-05-21,清算の結了等,,,2015-10-05,1,,,,,テクノバース,0
2579,9040005014743,登記記録の閉鎖等,0,2025-06-04,2025-05-19,特定非営利活動法人たんぽぽ保育園,,その他の設立登記法人,千葉県,野田市,山崎１０８８番地の２,,12,208,2780022,,,2025-05-19,清算の結了等,,,2015-10-05,1,,,,,タンポポホイクエン,0
2594,9070002028198,登記記録の閉鎖等,0,2025-06-04,2025-05-28,有限会社内田ガラス,,有限会社,群馬県,太田市,宝町８２６番地,,10,205,3730042,,,2025-05-28,清算の結了等,,,2015-10-05,1,,,,,ウチダガラス,0
2602,9100001032882,登記記録の閉鎖等,0,2025-06-04,2025-06-02,株式会社フロンティア,,株式会社,長野県,伊那市,西箕輪２１４８番地５２,,20,209,3994501,,,2025-06-02,清算の結了等,,,2020-01-28,1,,,,,フロンティア,0
2610,9120001238271,商号の登記の抹消,0,2025-06-04,2025-05-22,花王健康エッセンス株式会社,,株式会社,大阪府,大阪市浪速区,芦原１丁目１番７号フォレスト難波西１階,,27,111,5560029,,,,,,,2021-06-16,1,,,,,カオウケンコウエッセンス,0
2612,9120001250441,登記記録の閉鎖等,0,2025-06-04,2025-05-26,株式会社キィープ,,株式会社,大阪府,枚方市,片鉾本町２９番５号,,27,210,5731157,,,2025-05-26,清算の結了等,,,2022-11-21,1,,,,,キィープ,0
2652,9180001081328,登記記録の閉鎖等,0,2025-06-04,2025-05-29,株式会社サクシード,,株式会社,神奈川県,川崎市多摩区,三田１丁目１８番地１,,14,135,2140034,,,2025-05-29,清算の結了等,,,2015-10-05,1,,,,,サクシード,0
2661,9180002043252,登記記録の閉鎖等,0,2025-06-04,2025-06-02,有限会社アドウィン,,有限会社,愛知県,名古屋市西区,上名古屋４丁目７番１７号,,23,104,4510025,,,2025-06-02,清算の結了等,,,2015-10-05,1,,,,,,0
2662,9180002049679,登記記録の閉鎖等,0,2025-06-04,2025-06-02,有限会社ピースコーポレーション,,有限会社,愛知県,名古屋市瑞穂区,内方町１丁目２９番地の２,,23,108,4670068,,,2025-06-02,清算の結了等,,,2015-10-05,1,,,,,ピースコーポレーション,0
2668,9180302003419,登記記録の閉鎖等,0,2025-06-04,2025-06-02,有限会社幸電社,,有限会社,愛知県,額田郡幸田町,大字菱池字野々宮２６番地１,,23,501,4440113,,,2025-06-02,清算の結了等,,,2015-10-05,1,,,,,コウデンシャ,0
2674,9200003002171,登記記録の閉鎖等,0,2025-06-04,2025-06-02,合資会社神谷眼鏡院,,合資会社,岐阜県,関市,本町２丁目５番地,,21,205,5013886,,,2025-06-02,清算の結了等,,,2015-10-05,1,,,,,カミヤメガネイン,0
2687,9250002009287,登記記録の閉鎖等,0,2025-06-04,2025-05-30,有限会社時香,,有限会社,山口県,下関市,安岡町２丁目８番１９号,,35,201,7596603,,,2025-05-30,清算の結了等,,,2015-10-05,1,,,,,ジコウ,0
2689,9260001015698,登記記録の閉鎖等,0,2025-06-04,2025-05-30,株式会社アイテック,,株式会社,岡山県,倉敷市,藤戸町藤戸１１７６番地３,,33,202,7100133,,,2025-05-30,清算の結了等,,,2015-10-05,1,,,,,アイテック,0
2716,9350003002198,登記記録の閉鎖等,0,2025-06-04,2025-05-29,合同会社七福神,,合同会社,宮崎県,都城市,花繰町３８号１３番地コーポホープ１０６号,,45,202,8850037,,,2025-05-29,清算の結了等,,,2015-10-05,1,,,,,シチフクジン,0
2740,9470001005785,登記記録の閉鎖等,0,2025-06-04,2025-06-02,株式会社玉藻うどん,,株式会社,香川県,高松市,北浜町１３番地１１,,37,201,7600031,,,2025-06-02,清算の結了等,,,2015-10-05,1,,,,,タマモウドン,0
2741,9470001008788,登記記録の閉鎖等,0,2025-06-04,2025-06-02,株式会社たかはし,,株式会社,香川県,善通寺市,吉原町８４９番地４,,37,204,7650061,,,2025-06-02,清算の結了等,,,2015-10-05,1,,,,,タカハシ,0
