sequenceNumber,corporateNumber,process,correct,updateDate,changeDate,name,nameImageId,kind,prefectureName,cityName,streetNumber,addressImageId,prefectureCode,cityCode,postCode,addressOutside,addressOutsideImageId,closeDate,closeCause,successorCorporateNumber,changeCause,assignmentDate,latest,enName,enPrefectureName,enCityName,enAddressOutside,furigana,hihyoji
4,1010001258230,新規,0,2025-09-08,2025-09-08,株式会社ＳｅｌｅｃｔＨｕｍａｎＢｉｒｄ,,株式会社,東京都,文京区,小石川１丁目３番１１号ライジングプラザ後楽園７階,,13,105,1120002,,,,,,,2025-09-08,1,,,,,セレクトヒューマンバード,0
5,1010001258305,新規,0,2025-09-08,2025-09-08,株式会社律翔,,株式会社,東京都,千代田区,外神田５丁目１番５号ＡＣＮ秋葉原ＰＬＡＣＥ３階,,13,101,1010021,,,,,,,2025-09-08,1,,,,,リッショウ,0
6,1010003048596,新規,0,2025-09-08,2025-09-08,合同会社ワンネス・ネオ・リジュネファーム,,合同会社,東京都,中央区,築地４丁目１４番１号,,13,102,1040045,,,,,,,2025-09-08,1,,,,,ワンネスネオリジュネファーム,0
8,1010401192789,新規,0,2025-09-08,2025-09-08,株式会社ＧＡＴＥＷＡＹ,,株式会社,東京都,港区,南青山３丁目１番３６号青山丸竹ビル６Ｆ,,13,103,1070062,,,,,,,2025-09-08,1,,,,,ゲートウェイ,0
9,1010401192830,新規,0,2025-09-08,2025-09-08,シノポント・テクノロジーズ・ジャパン株式会社,,株式会社,東京都,港区,新橋２丁目１３番８号,,13,103,1050004,,,,,,,2025-09-08,1,,,,,シノポントテクノロジーズジャパン,0
10,1010401192847,新規,0,2025-09-08,2025-09-08,株式会社ＣｏＤｏＵ,,株式会社,東京都,港区,港南１丁目２番７０号,,13,103,1080075,,,,,,,2025-09-08,1,,,,,コドウ,0
11,1010401192888,新規,0,2025-09-08,2025-09-08,株式会社バレオンＪＡＰＡＮ,,株式会社,東京都,港区,南青山４丁目１８番１１号フォレストヒルズイーストウィング２Ｆ,,13,103,1070062,,,,,,,2025-09-08,1,,,,,バレオンジャパン,0
13,1010403035962,新規,0,2025-09-08,2025-09-08,合同会社ストレージ宮崎１号蓄電所,,合同会社,東京都,港区,麻布永坂町１番地,,13,103,1060043,,,,,,,2025-09-08,1,,,,,ストレージミヤザキイチゴウチクデンショゴウ,0
25,1010703007884,新規,0,2025-09-08,2025-09-08,合同会社Ｉｒｉｓ　Ｗｅｌｌｎｅｓｓ,,合同会社,東京都,品川区,北品川５丁目３番１号パークシティ大崎ザ・タワー７１０号室,,13,109,1410001,,,,,,,2025-09-08,1,,,,,イーリスウェルネス,0
31,1010805003204,新規,0,2025-09-08,2025-09-08,医療法人社団野甚井波,,その他の設立登記法人,東京都,大田区,下丸子４丁目２６番６号,,13,111,1460092,,,,,,,2025-09-08,1,,,,,ノウジンイナミ,0
32,1010901058028,新規,0,2025-09-08,2025-09-08,株式会社Ｆａｍｉｌｙ　Ａｓｓｅｔ,,株式会社,東京都,世田谷区,三宿１丁目１４番８号,,13,112,1540005,,,,,,,2025-09-08,1,,,,,ファミリーアセット,0
33,1010901058036,新規,0,2025-09-08,2025-09-08,ＮＥＯＲＩＡ株式会社,,株式会社,東京都,世田谷区,太子堂４丁目１８番１５号マガザン三軒茶屋２・３Ｆ―３,,13,112,1540004,,,,,,,2025-09-08,1,,,,,ネオリア,0
40,1011001171464,新規,0,2025-09-08,2025-09-08,京玉株式会社,,株式会社,東京都,渋谷区,千駄ヶ谷３丁目３番１０－３０３号,,13,113,1510051,,,,,,,2025-09-08,1,,,,,キョウギョク,0
41,1011001171778,新規,0,2025-09-08,2025-09-08,株式会社ｕｍｕｍｕ,,株式会社,東京都,目黒区,目黒本町５丁目３２番１２号ヴィラ・アドバンス２０１,,13,110,1520002,,,,,,,2025-09-08,1,,,,,ウムム,0
42,1011001171803,新規,0,2025-09-08,2025-09-08,株式会社ＧＬＯＢＡＬ　ＳＴＡＲＳ,,株式会社,東京都,渋谷区,道玄坂１丁目１０番８号渋谷道玄坂東急ビル２Ｆ－Ｃ,,13,113,1500043,,,,,,,2025-09-08,1,,,,,グローバルスターズ,0
50,1011003022302,新規,0,2025-09-08,2025-09-08,合同会社ひたむき,,合同会社,東京都,渋谷区,神南１丁目１１番４号ＦＰＧリンクス神南５階,,13,113,1500041,,,,,,,2025-09-08,1,,,,,ヒタムキ,0
53,1011101112962,新規,0,2025-09-08,2025-09-08,栄昇株式会社,,株式会社,東京都,新宿区,西新宿５丁目５番１－１８０５,,13,104,1600023,,,,,,,2025-09-08,1,,,,,エイショウ,0
54,1011101113003,新規,0,2025-09-08,2025-09-08,日本京東健康国際医療株式会社,,株式会社,東京都,新宿区,北新宿３丁目１０番１０－７１１号－Ｇ,,13,104,1690074,,,,,,,2025-09-08,1,,,,,ニホンジンドンケンコウコクサイイリョウ,0
55,1011103016286,新規,0,2025-09-08,2025-09-08,あさひ合同会社,,合同会社,東京都,新宿区,新宿５丁目１８－１１谷川ビル４０２,,13,104,1600022,,,,,,,2025-09-08,1,,,,,アサヒ,0
56,1011103016344,新規,0,2025-09-08,2025-09-08,ＨＡＹＡＶＥＲＳＥ合同会社,,合同会社,東京都,新宿区,河田町３番５１－２８１１号,,13,104,1620054,,,,,,,2025-09-08,1,,,,,ハヤバース,0
67,1012401043550,新規,0,2025-09-08,2025-09-08,舜楽株式会社,,株式会社,東京都,武蔵野市,吉祥寺東町２丁目４２－４アペゼ吉祥寺２０３号室,,13,203,1800002,,,,,,,2025-09-08,1,,,,,シュンラク,0
68,1012401043567,新規,0,2025-09-08,2025-09-08,株式会社石田造園,,株式会社,東京都,府中市,紅葉丘１丁目２５番地の２０グランドールヒルズ２０１,,13,206,1830004,,,,,,,2025-09-08,1,,,,,イシダゾウエン,0
69,1012701019060,新規,0,2025-09-08,2025-09-08,株式会社ゆうの和,,株式会社,東京都,東久留米市,南沢１丁目７番２６号,,13,222,2030023,,,,,,,2025-09-08,1,,,,,ユウノワ,0
88,1030001168576,新規,0,2025-09-08,2025-09-08,株式会社エルエス,,株式会社,埼玉県,川口市,飯塚４丁目１２番３７‐９０２号シャインノーブル川口リバーパーク,,11,203,3320023,,,,,,,2025-09-08,1,,,,,エルエス,0
89,1030001168584,新規,0,2025-09-08,2025-09-08,ワイズテック株式会社,,株式会社,埼玉県,入間市,大字仏子１６４１番地５８,,11,225,3580053,,,,,,,2025-09-08,1,,,,,ワイズテック,0
94,1040001140344,新規,0,2025-09-08,2025-09-08,株式会社モリノアニマルケア,,株式会社,千葉県,流山市,西平井３丁目９番地の１,,12,220,2700156,,,,,,,2025-09-08,1,,,,,モリノアニマルケア,0
95,1040001140402,新規,0,2025-09-08,2025-09-08,株式会社ライフスタイルエボリューションズ,,株式会社,千葉県,八千代市,大和田新田１０５４番地７,,12,221,2760046,,,,,,,2025-09-08,1,,,,,ライフスタイルエボリューションズ,0
96,1040001140410,新規,0,2025-09-08,2025-09-08,株式会社Ｅ‐ＰＬＵＳ,,株式会社,千葉県,四街道市,鹿放ケ丘１９９番地１,,12,228,2840008,,,,,,,2025-09-08,1,,,,,イープラス,0
97,1040001140419,新規,0,2025-09-08,2025-09-08,株式会社リアンクルール,,株式会社,千葉県,印西市,東の原３丁目１番地３６８,,12,231,2701336,,,,,,,2025-09-08,1,,,,,リアンクルール,0
98,1040003028439,新規,0,2025-09-08,2025-09-08,幽玄ＹＵＧＥＮ合同会社,,合同会社,千葉県,千葉市美浜区,中瀬１丁目６ＢＡＹ・ＰＯＩＮＴ幕張低層棟２階,,12,106,2610023,,,,,,,2025-09-08,1,,,,,ユウゲンユウゲン,0
103,1050001057240,新規,0,2025-09-08,2025-09-08,ケイズ不動産株式会社,,株式会社,茨城県,つくば市,谷田部１１４４番地２８１　（陣場Ｆ３０街区１１）,,08,220,3050861,,,,,,,2025-09-08,1,,,,,ケイズフドウサン,0
104,1050001057249,新規,0,2025-09-08,2025-09-08,株式会社明和ホールディングス,,株式会社,茨城県,神栖市,奥野谷４１９３番地１,,08,232,3140116,,,,,,,2025-09-08,1,,,,,メイワホールディングス,0
106,1060001038545,新規,0,2025-09-08,2025-09-08,株式会社コラソン,,株式会社,栃木県,足利市,五十部町１３５６番地１,,09,202,3260843,,,,,,,2025-09-08,1,,,,,コラソン,0
107,1060003005733,新規,0,2025-09-08,2025-09-08,合同会社いろは,,合同会社,栃木県,芳賀郡芳賀町,大字下延生１９２７,,09,345,3213312,,,,,,,2025-09-08,1,,,,,イロハ,0
108,1070001043296,新規,0,2025-09-08,2025-09-08,株式会社ＮＭＩ,,株式会社,群馬県,桐生市,新里町関甲２８番地,,10,203,3760134,,,,,,,2025-09-08,1,,,,,エヌエムアイ,0
131,1120001279298,新規,0,2025-09-08,2025-09-08,株式会社ＴＥＴＴＥＩ,,株式会社,大阪府,大阪市住吉区,山之内２丁目１４番８号,,27,120,5580023,,,,,,,2025-09-08,1,,,,,テッテイ,0
132,1120001279364,新規,0,2025-09-08,2025-09-08,株式会社ひいこのっこ,,株式会社,大阪府,大阪市此花区,島屋６丁目２番９０－１２１１号,,27,104,5540024,,,,,,,2025-09-08,1,,,,,ヒイコノッコ,0
133,1120001279463,新規,0,2025-09-08,2025-09-08,株式会社大方,,株式会社,大阪府,大阪市旭区,生江３丁目４番２２号Ｃｏｌｌｅｃｔｉｏｎ城北Ｉ２階２Ｄ号室,00140555,27,117,5350004,,,,,,,2025-09-08,1,,,,,タイホウ,0
136,1120003030469,新規,0,2025-09-08,2025-09-08,合同会社トリプルウィン,,合同会社,大阪府,大阪市北区,池田町１５－１－１３０２,,27,127,5300033,,,,,,,2025-09-08,1,,,,,トリプルウィン,0
138,1120005025145,新規,0,2025-09-08,2025-09-08,一般社団法人大阪府ボディビル・フィットネス連盟,,その他の設立登記法人,大阪府,大阪市西淀川区,柏里２丁目７番２６号,,27,113,5550022,,,,,,,2025-09-08,1,,,,,オオサカフボディビルフィットネスレンメイ,0
143,1120101072396,新規,0,2025-09-08,2025-09-08,株式会社バードオン,,株式会社,大阪府,堺市南区,稲葉３丁３１３番地１,,27,145,5900156,,,,,,,2025-09-08,1,,,,,バードオン,0
146,1120901051467,新規,0,2025-09-08,2025-09-08,株式会社ヤマト魂,,株式会社,大阪府,高槻市,清福寺町２３番１６号,,27,207,5691132,,,,,,,2025-09-08,1,,,,,ヤマトダマシイ,0
152,1130001080457,新規,0,2025-09-08,2025-09-08,株式会社わんホーム,,株式会社,京都府,京都市左京区,岩倉中町５２８－１－２０１,,26,103,6060025,,,,,,,2025-09-08,1,,,,,ワンホーム,0
168,1180001168413,新規,0,2025-09-08,2025-09-08,株式会社ＡＣＭＡノヴァテック,,株式会社,愛知県,海部郡大治町,大字東條字中切２２番地の１,,23,424,4901134,,,,,,,2025-09-08,1,,,,,エーシーエムエーノヴァテック,0
169,1180001168438,新規,0,2025-09-08,2025-09-08,株式会社ＤＫ　ＮＥＴＷＯＲＫ,,株式会社,愛知県,名古屋市港区,神宮寺２丁目１０２番地（シャトービオレ１０２、１Ａ号）,,23,111,4550834,,,,,,,2025-09-08,1,,,,,ディーケーネットワーク,0
170,1180001168487,新規,0,2025-09-08,2025-09-08,流創株式会社,,株式会社,愛知県,名古屋市中村区,長筬町１丁目１番地長筬マンション１０２号室,,23,105,4530839,,,,,,,2025-09-08,1,,,,,リュウソウ,0
176,1180003028994,新規,0,2025-09-08,2025-09-08,合同会社ＦＥＲＯＺ　ＳＯＮＳ,,合同会社,愛知県,海部郡飛島村,元起３丁目１０９番地日光アパート西棟２０２号,,23,427,4901437,,,,,,,2025-09-08,1,,,,,フェロズサンズ,0
179,1190001032510,新規,0,2025-09-08,2025-09-08,ネクストフードサービス株式会社,,株式会社,三重県,度会郡玉城町,妙法寺３９８番地の１,,24,461,5190413,,,,,,,2025-09-08,1,,,,,ネクストフードサービス,0
180,1190001032519,新規,0,2025-09-08,2025-09-08,東電ＴＥＣ株式会社,,株式会社,三重県,桑名市,長島町又木３番地１ラドーニ長島風の館６０１号,,24,205,5111126,,,,,,,2025-09-08,1,,,,,トウデンテック,0
184,1200001044198,新規,0,2025-09-08,2025-09-08,株式会社ＭＡＣＯＴＯＹＡ,,株式会社,岐阜県,可児市,桂ケ丘３丁目１３番地,,21,214,5090237,,,,,,,2025-09-08,1,,,,,マコトヤ,0
194,1240001065463,新規,0,2025-09-08,2025-09-08,株式会社みやもと,,株式会社,広島県,東広島市,西条土与丸６丁目３番５９－８号,,34,212,7390007,,,,,,,2025-09-08,1,,,,,ミヤモト,0
196,1260001040514,新規,0,2025-09-08,2025-09-08,総設工業株式会社,,株式会社,岡山県,倉敷市,鶴の浦２丁目５－７５,,33,202,7128007,,,,,,,2025-09-08,1,,,,,ソウセツコウギョウ,0
206,1290005019824,新規,0,2025-09-08,2025-09-08,一般社団法人わかばスポーツ＆カルチャークラブ,,その他の設立登記法人,福岡県,福岡市城南区,七隈６丁目２１番１０－２０１号,,40,136,8140133,,,,,,,2025-09-08,1,,,,,ワカバスポーツアンドカルチャークラブ,0
207,1300003002334,新規,0,2025-09-08,2025-09-08,合同会社ＲＥＬＩＶＥ,,合同会社,佐賀県,伊万里市,大坪町甲２４４３－６８,,41,205,8480021,,,,,,,2025-09-08,1,,,,,リライブ,0
210,1330001033551,新規,0,2025-09-08,2025-09-08,株式会社ファームプロデュース,,株式会社,熊本県,熊本市中央区,水前寺公園７番４３－７０７号,,43,101,8620956,,,,,,,2025-09-08,1,,,,,ファームプロデュース,0
215,1350001019714,新規,0,2025-09-08,2025-09-08,株式会社畑中自動車,,株式会社,宮崎県,東諸県郡国富町,大字本庄５３８番地５,,45,382,8801101,,,,,,,2025-09-08,1,,,,,ハタナカジドウシャ,0
217,1360001035735,新規,0,2025-09-08,2025-09-08,株式会社Ｔｅｅｉｒｏ,,株式会社,沖縄県,那覇市,銘苅１丁目３番４１号レゼルアッシュ５－Ｅ,,47,201,9000004,,,,,,,2025-09-08,1,,,,,ティーロ,0
222,1370001052993,新規,0,2025-09-08,2025-09-08,小山商事株式会社,,株式会社,宮城県,仙台市青葉区,中央２丁目２－１０仙都会館５Ｆ,,04,101,9800021,,,,,,,2025-09-08,1,,,,,コヤマショウジ,0
224,1370003007277,新規,0,2025-09-08,2025-09-08,合同会社ＲＡＮＭＹＵ,,合同会社,宮城県,仙台市宮城野区,岩切字鴻巣１６８番地の７,,04,102,9830821,,,,,,,2025-09-08,1,,,,,ランミュ,0
227,1380001035551,新規,0,2025-09-08,2025-09-08,株式会社桑の実ファーム,,株式会社,福島県,河沼郡会津坂下町,大字船杉字南杉乙６４番地,,07,421,9696585,,,,,,,2025-09-08,1,,,,,クワノミファーム,0
228,1400003003529,新規,0,2025-09-08,2025-09-08,イノックス合同会社,,合同会社,岩手県,北上市,青柳町１丁目６番２８号高章ビル１Ｆ,,03,206,0240031,,,,,,,2025-09-08,1,,,,,イノックス,0
232,1420001019252,新規,0,2025-09-08,2025-09-08,株式会社アイ企画,,株式会社,青森県,青森市,大字高田字日野２１８番地２,,02,201,0300151,,,,,,,2025-09-08,1,,,,,アイキカク,0
234,1430001095152,新規,0,2025-09-08,2025-09-08,グランテ株式会社,,株式会社,北海道,沙流郡日高町,富川北３丁目６番１５号,,01,601,0550001,,,,,,,2025-09-08,1,,,,,グランテ,0
236,1430003018037,新規,0,2025-09-08,2025-09-08,合同会社エディスリンク,,合同会社,北海道,札幌市豊平区,西岡五条２丁目４－２３－３０３,,01,105,0620035,,,,,,,2025-09-08,1,,,,,エディスリンク,0
241,1480003002309,新規,0,2025-09-08,2025-09-08,合同会社ｆｒｅｅｄｏｍ,,合同会社,徳島県,海部郡美波町,西由岐字西７０－１１,,36,387,7792101,,,,,,,2025-09-08,1,,,,,フリーダム,0
244,1490001011153,新規,0,2025-09-08,2025-09-08,株式会社ＪＯＬ　ｗｏｒｋｓ,,株式会社,高知県,吾川郡仁淀川町,大崎３５番地,,39,387,7811501,,,,,,,2025-09-08,1,,,,,ジョルワークス,0
256,2010003048645,新規,0,2025-09-08,2025-09-08,ＤＥ‐ＰＲＯ国際合同会社,,合同会社,東京都,中央区,勝どき４丁目６番１－２７３０号,,13,102,1040054,,,,,,,2025-09-08,1,,,,,デプロコクサイ,0
257,2010005040617,新規,0,2025-09-08,2025-09-08,一般社団法人イノベーション法務支援機構,,その他の設立登記法人,東京都,中央区,八重洲１丁目３－１８,,13,102,1030028,,,,,,,2025-09-08,1,,,,,イノベーションホウムシエンキコウ,0
263,2010401192846,新規,0,2025-09-08,2025-09-08,株式会社ＰＲＯＬＡＢＯ・ＨｅａｌｔｈＴｅｃｈ,,株式会社,東京都,港区,三田３丁目７番１８号イトヤマタワー１５階１５３号室,,13,103,1080073,,,,,,,2025-09-08,1,,,,,プロラボヘルステック,0
264,2010401192854,新規,0,2025-09-08,2025-09-08,株式会社３８,,株式会社,東京都,港区,南麻布４丁目４番１０号グランスイート広尾４０３号,,13,103,1060047,,,,,,,2025-09-08,1,,,,,スリーエイト,0
265,2010401192895,新規,0,2025-09-08,2025-09-08,株式会社ぽんぽんかんぱにー,,株式会社,東京都,港区,南青山３丁目１番３６号青山丸竹ビル６Ｆ,,13,103,1070062,,,,,,,2025-09-08,1,,,,,ポンポンカンパニー,0
266,2010401192920,新規,0,2025-09-08,2025-09-08,株式会社ＡＩＲＥＩＡ,,株式会社,東京都,港区,赤坂７丁目５番１５号,,13,103,1070052,,,,,,,2025-09-08,1,,,,,アイレイア,0
267,2010401192937,新規,0,2025-09-08,2025-09-08,株式会社礒邉商店,,株式会社,東京都,港区,芝４丁目１６番１,,13,103,1080014,,,,,,,2025-09-08,1,,,,,イソベショウテン,0
268,2010401192953,新規,0,2025-09-08,2025-09-08,株式会社ＬｉｖｅＰｉｘＦａｎ,,株式会社,東京都,港区,白金台２丁目２０番３号ピエールリヴィエール白金台ＩＩ１０３,00140571,13,103,1080071,,,,,,,2025-09-08,1,,,,,ライブピックスファン,0
276,2010403035879,新規,0,2025-09-08,2025-09-08,合同会社ＳｕＳｕ,,合同会社,東京都,港区,赤坂７丁目５番２７－４０８号,,13,103,1070052,,,,,,,2025-09-08,1,,,,,スースー,0
277,2010403035961,新規,0,2025-09-08,2025-09-08,合同会社ストレージ徳島１号蓄電所,,合同会社,東京都,港区,麻布永坂町１番地,,13,103,1060043,,,,,,,2025-09-08,1,,,,,ストレージトクシマイチゴウチクデンショ,0
282,2010701048244,新規,0,2025-09-08,2025-09-08,株式会社ミラクルグリッド,,株式会社,東京都,品川区,東品川１丁目３番１５号ＴｈｅＰａｒｋＲｅｘＴＥＮＮＯＺｔｈｅＤＯＣＫ,,13,109,1400002,,,,,,,2025-09-08,1,,,,,ミラクルグリッド,0
283,2010701048252,新規,0,2025-09-08,2025-09-08,株式会社美活ラボ,,株式会社,東京都,品川区,大井１丁目３１番１号シティータワー大井町１００８号室,,13,109,1400014,,,,,,,2025-09-08,1,,,,,ビカツラボ,0
284,2010701048285,新規,0,2025-09-08,2025-09-08,前川アセットマネジメント株式会社,,株式会社,東京都,品川区,東品川５丁目９番６－１９０９号,,13,109,1400002,,,,,,,2025-09-08,1,,,,,マエカワアセットマネジメント,0
289,2010801036561,新規,0,2025-09-08,2025-09-08,アケボノ商会株式会社,,株式会社,東京都,大田区,大森西３丁目９番１４号エクセルサツキ１０１,,13,111,1430015,,,,,,,2025-09-08,1,,,,,アケボノショウカイ,0
290,2010803005523,新規,0,2025-09-08,2025-09-08,合同会社Ａｄ　ｓｐｉｒｅ,,合同会社,東京都,大田区,多摩川２丁目２１番１４号メゾンピエナ２０１,,13,111,1460095,,,,,,,2025-09-08,1,,,,,アドスパイア,0
296,2011001171785,新規,0,2025-09-08,2025-09-08,株式会社ＨｉｓｔｏｒｙＢｅｇｉｎｓ,,株式会社,東京都,目黒区,下目黒１丁目１番１４号コノトラビル７階,,13,110,1530064,,,,,,,2025-09-08,1,,,,,ヒストリービギンズ,0
300,2011003022318,新規,0,2025-09-08,2025-09-08,合同会社ピクニックスタジオ,,合同会社,東京都,渋谷区,神宮前３丁目４２番１１号ローザビアンカ１０５号,,13,113,1500001,,,,,,,2025-09-08,1,,,,,ピクニックスタジオ,0
303,2011101113051,新規,0,2025-09-08,2025-09-08,千霸株式会社,,株式会社,東京都,新宿区,百人町１丁目１８番８号大久保カドビルＬｉｎｋＳｐａｃｅ百人町Ｄ０５号室,,13,104,1690073,,,,,,,2025-09-08,1,,,,,センバ,0
304,2011103016327,新規,0,2025-09-08,2025-09-08,合同会社おもてなし,,合同会社,東京都,新宿区,北新宿３丁目５番２０号ヴィラ・レガート１０１,,13,104,1690074,,,,,,,2025-09-08,1,,,,,オモテナシ,0
306,2011201026624,新規,0,2025-09-08,2025-09-08,レボ株式会社,,株式会社,東京都,中野区,松が丘１丁目２２－１４－２０３,,13,114,1650024,,,,,,,2025-09-08,1,,,,,レボ,0
309,2011503006670,新規,0,2025-09-08,2025-09-08,鉄プロ合同会社,,合同会社,東京都,北区,滝野川１丁目４１番１号,,13,117,1140023,,,,,,,2025-09-08,1,,,,,テツプロ,0
311,2011701028698,新規,0,2025-09-08,2025-09-08,カネデン株式会社,,株式会社,東京都,江戸川区,篠崎町３丁目１６番４号,,13,123,1330061,,,,,,,2025-09-08,1,,,,,カネデン,0
313,2011801046674,新規,0,2025-09-08,2025-09-08,ＬＣ株式会社,,株式会社,東京都,葛飾区,鎌倉４丁目３３－３北鎌倉ハイツ１０２室,,13,122,1250053,,,,,,,2025-09-08,1,,,,,エルシ,0
314,2011801046690,新規,0,2025-09-08,2025-09-08,画新株式会社,,株式会社,東京都,葛飾区,東金町１丁目２６番１号二宮ビル３０２号室,,13,122,1250041,,,,,,,2025-09-08,1,,,,,ガシン,0
324,2012703003367,新規,0,2025-09-08,2025-09-08,合同会社オフィスサポート,,合同会社,東京都,東久留米市,東本町１４番３０号,,13,222,2030014,,,,,,,2025-09-08,1,,,,,オフィスサポート,0
325,2012801024208,新規,0,2025-09-08,2025-09-08,株式会社ロード,,株式会社,東京都,昭島市,宮沢町１丁目１３番２号シャトル宮沢,,13,207,1960024,,,,,,,2025-09-08,1,,,,,ロード,0
341,2020003029289,新規,0,2025-09-08,2025-09-08,ひとえに合同会社,,合同会社,神奈川県,横浜市神奈川区,金港町５―１４クアドリフォリオ８階,,14,102,2210056,,,,,,,2025-09-08,1,,,,,ヒトエニ,0
342,2020003029297,新規,0,2025-09-08,2025-09-08,合同会社中山コンサルティング,,合同会社,神奈川県,横浜市青葉区,あざみ野南４丁目２番地３４,,14,117,2250012,,,,,,,2025-09-08,1,,,,,ナカヤマコンサルティング,0
344,2021001086231,新規,0,2025-09-08,2025-09-08,ＡｇｉｌｅＤｅｖ　Ｉｎｔｅｌｌｉｇｅｎｔ　Ｐｒｅｃｉｓｉｏｎ株式会社,,株式会社,神奈川県,秦野市,南矢名２２２３番地の４東海ビル１１４Ｃ,,14,211,2570003,,,,,,,2025-09-08,1,,,,,アギレデブインテリジェントプリシジョン,0
345,2021001086248,新規,0,2025-09-08,2025-09-08,株式会社Ａｎｄ１,,株式会社,神奈川県,藤沢市,石川６３５番地の９めぐみビル１０５号,,14,205,2520815,,,,,,,2025-09-08,1,,,,,エンドワン,0
348,2021003016418,新規,0,2025-09-08,2025-09-08,合同会社すこやか住建,,合同会社,神奈川県,座間市,ひばりが丘３丁目３５－１１テラスハイムＢ１０１,,14,216,2520003,,,,,,,2025-09-08,1,,,,,スコヤカジュウケン,0
356,2030001168492,新規,0,2025-09-08,2025-09-08,株式会社ｇｒｅｅｄｙ,,株式会社,埼玉県,所沢市,大字下安松２２９番地の１３,,11,208,3590024,,,,,,,2025-09-08,1,,,,,グリーディー,0
357,2030001168526,新規,0,2025-09-08,2025-09-08,緒興業株式会社,,株式会社,埼玉県,さいたま市見沼区,大字御蔵９６４番地,,11,104,3370033,,,,,,,2025-09-08,1,,,,,イトグチコウギョウ,0
362,2040001140343,新規,0,2025-09-08,2025-09-08,株式会社２２ｐｅｒｃｅｎｔ,,株式会社,千葉県,船橋市,本中山２丁目１９番４号第二更月ビル２階,,12,204,2730035,,,,,,,2025-09-08,1,,,,,ニジュウニパーセント,0
363,2040001140392,新規,0,2025-09-08,2025-09-08,株式会社Ｔｈｒｅｅ　Ｗａｖｅ　Ｃａｒｅｅｒ,,株式会社,千葉県,千葉市中央区,富士見２丁目７番９号富士見ビル６０９号,,12,101,2600015,,,,,,,2025-09-08,1,,,,,スリーウェーブキャリア,0
364,2040003028355,新規,0,2025-09-08,2025-09-08,合同会社ホープ,,合同会社,千葉県,大網白里市,みやこ野１丁目３－１５,,12,239,2993236,,,,,,,2025-09-08,1,,,,,ホープ,0
365,2040003028438,新規,0,2025-09-08,2025-09-08,合同会社コンサルふぁーむＭＫ,,合同会社,千葉県,松戸市,仲井町２丁目３０番地の１２,,12,207,2702242,,,,,,,2025-09-08,1,,,,,コンサルファームエムケイ,0
366,2040003028470,新規,0,2025-09-08,2025-09-08,大通商事合同会社,,合同会社,千葉県,千葉市中央区,富士見１丁目１０番６号カネナカ第３ビル５階,,12,101,2600015,,,,,,,2025-09-08,1,,,,,ダイツウショウジ,0
380,2070003006069,新規,0,2025-09-08,2025-09-08,ＬＩＮＨ　ＢＥＮ　ＴＲＥ合同会社,,合同会社,群馬県,太田市,台之郷町８８１－２ハイツサンタフェ１０３,,10,205,3730801,,,,,,,2025-09-08,1,,,,,リンベンチェ,0
395,2120001279058,新規,0,2025-09-08,2025-09-08,ＦＵＴＵＲＥ株式会社,,株式会社,大阪府,大阪市中央区,北久宝寺町１丁目５番６－１０１３号,,27,128,5410057,,,,,,,2025-09-08,1,,,,,フューチャー,0
396,2120001279388,新規,0,2025-09-08,2025-09-08,株式会社ＭＴプランニング,,株式会社,大阪府,寝屋川市,松屋町１２番２９－８０６号,,27,215,5720086,,,,,,,2025-09-08,1,,,,,エムティプランニング,0
397,2120001279405,新規,0,2025-09-08,2025-09-08,株式会社ＭＥＩＳＩＮ,,株式会社,大阪府,大阪市西成区,玉出東１丁目１１番１５号,,27,122,5570043,,,,,,,2025-09-08,1,,,,,メイシン,0
400,2120003030476,新規,0,2025-09-08,2025-09-08,ＬＵＣＩＤＯ合同会社,,合同会社,大阪府,大阪市浪速区,大国２丁目１８番１２号グルパ大国町６Ｂ号,,27,111,5560014,,,,,,,2025-09-08,1,,,,,ルシード,0
402,2120101072395,新規,0,2025-09-08,2025-09-08,株式会社ＬｕｉＫｏｓ,,株式会社,大阪府,岸和田市,別所町３丁目３８番２１号,,27,202,5960045,,,,,,,2025-09-08,1,,,,,ルイコス,0
405,2130001080497,新規,0,2025-09-08,2025-09-08,マルワサンフレッシュ株式会社,,株式会社,京都府,京田辺市,三山木中央４丁目７番地６,,26,211,6100313,,,,,,,2025-09-08,1,,,,,マルワサンフレッシュマルワサンフレッシュ,0
407,2130003010741,新規,0,2025-09-08,2025-09-08,ＴＲＵＮＧ　ＱＵＡＮ　ＰＣ合同会社,,合同会社,京都府,綴喜郡井手町,大字多賀小字宮ノ後６号,,26,343,6100301,,,,,,,2025-09-08,1,,,,,チュンクアンピーシー,0
415,2140001139920,新規,0,2025-09-08,2025-09-08,株式会社Ｏｎｅ‐Ｓｔｅｐ,,株式会社,兵庫県,神戸市北区,筑紫が丘８丁目１２番地の１４,,28,109,6511212,,,,,,,2025-09-08,1,,,,,ワンステップ,0
416,2140001139929,新規,0,2025-09-08,2025-09-08,株式会社小林電気,,株式会社,兵庫県,宍粟市,波賀町野尻２９２番地１,,28,227,6714214,,,,,,,2025-09-08,1,,,,,コバヤシデンキ,0
417,2140001139945,新規,0,2025-09-08,2025-09-08,株式会社ＨＡＲＥＬ,,株式会社,兵庫県,姫路市,町坪６１１番地４,,28,201,6700984,,,,,,,2025-09-08,1,,,,,ハレル,0
437,2180001168552,新規,0,2025-09-08,2025-09-08,ゼニスエステート株式会社,,株式会社,愛知県,名古屋市緑区,桃山３丁目１１０５番地１,,23,114,4580002,,,,,,,2025-09-08,1,,,,,ゼニスエステート,0
438,2180001168560,新規,0,2025-09-08,2025-09-08,株式会社善惠,,株式会社,愛知県,海部郡大治町,大字東條字砂島２７番地の１,,23,424,4901134,,,,,,,2025-09-08,1,,,,,ヨシケイ,0
445,2180003028985,新規,0,2025-09-08,2025-09-08,Ｐｏｋｈａｒａ　Ｉｎｔｅｒｎａｔｉｏｎａｌ合同会社,,合同会社,愛知県,名古屋市中村区,向島町５丁目６６番地の１県営向島住宅１棟６１６号,,23,105,4530838,,,,,,,2025-09-08,1,,,,,ポカラインターナショナル,0
446,2180003028993,新規,0,2025-09-08,2025-09-08,合同会社Ｓ＆Ａ　ＴＲＡＤＩＮＧ　ＣＯＭＰＡＮＹ,,合同会社,愛知県,弥富市,鯏浦町上六５７番地グランドシャトー藤栄６Ｃ号,,23,235,4980023,,,,,,,2025-09-08,1,,,,,エスアンドエートレーディングカンパニー,0
450,2190003005166,新規,0,2025-09-08,2025-09-08,合同会社そらいろ,,合同会社,三重県,津市,香良洲町３７６２番地２,,24,201,5140315,,,,,,,2025-09-08,1,,,,,ソライロ,0
457,2210003001955,新規,0,2025-09-08,2025-09-08,合同会社ＳＡＳＡＫＩ,,合同会社,福井県,福井市,学園２丁目１番２３号,,18,201,9100028,,,,,,,2025-09-08,1,,,,,ササキ,0
461,2220001026912,新規,0,2025-09-08,2025-09-08,株式会社季がさね,,株式会社,石川県,加賀市,片山津温泉乙３０番地１,,17,206,9220412,,,,,,,2025-09-08,1,,,,,トキガサネ,0
463,2220003004115,新規,0,2025-09-08,2025-09-08,Ｎ‐ＢＲＯＴＨＥＲＳ合同会社,,合同会社,石川県,野々市市,位川２８９番地１リーヴ１０７号,,17,212,9218846,,,,,,,2025-09-08,1,,,,,エヌブラザーズ,0
472,2290001111352,新規,0,2025-09-08,2025-09-08,株式会社晩杯会グループ,,株式会社,福岡県,福岡市博多区,中洲４丁目３番８号,,40,132,8100801,,,,,,,2025-09-08,1,,,,,バンパイアグループ,0
478,2310003005079,新規,0,2025-09-08,2025-09-08,合同会社おーじデザイン事務所,,合同会社,長崎県,西彼杵郡長与町,高田郷２３５５番地１４,,42,307,8512127,,,,,,,2025-09-08,1,,,,,オージデザインジムショ,0
480,2320001021325,新規,0,2025-09-08,2025-09-08,株式会社ＭＫワークス,,株式会社,大分県,別府市,大字鶴見字蓮台寺２２１７－５,,44,202,8740840,,,,,,,2025-09-08,1,,,,,エムケーワークス,0
486,2330001033550,新規,0,2025-09-08,2025-09-08,株式会社Ｊｕｌｙ,,株式会社,熊本県,球磨郡あさぎり町,須恵６２０番地２,,43,514,8680451,,,,,,,2025-09-08,1,,,,,ジュライ,0
489,2330003011158,新規,0,2025-09-08,2025-09-08,豊瑞合同会社,,合同会社,熊本県,山鹿市,平山４０５６番地６,,43,208,8610556,,,,,,,2025-09-08,1,,,,,ホウズイ,0
490,2330003011190,新規,0,2025-09-08,2025-09-08,学永合同会社,,合同会社,熊本県,熊本市東区,戸島３丁目８－５３,,43,102,8618041,,,,,,,2025-09-08,1,,,,,ガクエイ,0
491,2350001019721,新規,0,2025-09-08,2025-09-08,株式会社キノトミ,,株式会社,宮崎県,宮崎市,橘通東４丁目１番４号河北ビル,,45,201,8800805,,,,,,,2025-09-08,1,,,,,キノトミ,0
500,2370001053025,新規,0,2025-09-08,2025-09-08,株式会社ＳＡＹ,,株式会社,宮城県,仙台市若林区,五橋３丁目１番３－２１０８号,,04,103,9840022,,,,,,,2025-09-08,1,,,,,セイ,0
502,2370003007276,新規,0,2025-09-08,2025-09-08,ＳＨＡＢＢＩＲ合同会社,,合同会社,宮城県,遠田郡涌谷町,字中島甲４６番地２,,04,501,9870137,,,,,,,2025-09-08,1,,,,,シャビール,0
505,2430001095184,新規,0,2025-09-08,2025-09-08,株式会社ノルドネクサス,,株式会社,北海道,札幌市東区,北十七条東１９丁目１番１０－３０５号,,01,103,0650017,,,,,,,2025-09-08,1,,,,,ノルドネクサス,0
507,2430003018093,新規,0,2025-09-08,2025-09-08,合同会社ブリッジワークス,,合同会社,北海道,札幌市東区,北十二条東１２丁目２番１３号,,01,103,0650012,,,,,,,2025-09-08,1,,,,,ブリッジワークス,0
508,2430005015295,新規,0,2025-09-08,2025-09-08,ＭＩＲＡｉ税理士法人,,その他の設立登記法人,北海道,札幌市中央区,北一条西３丁目２番地,,01,101,0600001,,,,,,,2025-09-08,1,,,,,ミライ,0
511,2470001020881,新規,0,2025-09-08,2025-09-08,株式会社ネクストレベル,,株式会社,香川県,高松市,城東町２丁目１０番２０号,,37,201,7600036,,,,,,,2025-09-08,1,,,,,ネクストレベル,0
519,2700150131745,新規,0,2025-09-08,2025-08-12,右手地域農泊推進協議会,,その他,岡山県,美作市,右手１５６番地,,33,215,7070204,,,,,,,2025-08-12,1,,,,,ウテチイキノウハクスイシンキヨウギカイ,0
529,3010401192705,新規,0,2025-09-08,2025-09-08,株式会社天海,,株式会社,東京都,港区,六本木７丁目３－２６パーク・ノヴァ乃木坂１０４号,,13,103,1060032,,,,,,,2025-09-08,1,,,,,テンカイ,0
530,3010401192894,新規,0,2025-09-08,2025-09-08,株式会社ＮｅｗＣｏ,,株式会社,東京都,港区,南青山４丁目１７番４０号,,13,103,1070062,,,,,,,2025-09-08,1,,,,,ニューコ,0
531,3010401192903,新規,0,2025-09-08,2025-09-08,株式会社ＭＵＳＥ,,株式会社,東京都,港区,六本木７丁目１３番１０号ＴＯＭＡＳビル４階,,13,103,1060032,,,,,,,2025-09-08,1,,,,,ミューズ,0
532,3010401192969,新規,0,2025-09-08,2025-09-08,株式会社Ｉｎｔｅｇｒｉｄｇｅ　Ａｄｖｉｓｏｒｙ,,株式会社,東京都,港区,北青山１丁目３番１号アールキューブ青山３階,,13,103,1070061,,,,,,,2025-09-08,1,,,,,インテグリッジアドバイザリー,0
534,3010403035903,新規,0,2025-09-08,2025-09-08,合同会社ＲＡＬＰＨ,,合同会社,東京都,港区,新橋６丁目１１－１３－１６０３,,13,103,1050004,,,,,,,2025-09-08,1,,,,,ラルフ,0
535,3010403035977,新規,0,2025-09-08,2025-09-08,ＡＮＪ合同会社,,合同会社,東京都,港区,虎ノ門５丁目１番５号メトロシティ神谷町６階,,13,103,1050001,,,,,,,2025-09-08,1,,,,,エイエヌジェイ,0
552,3010605004499,新規,0,2025-09-08,2025-09-08,医療法人社団ＩＳＤ,,その他の設立登記法人,東京都,墨田区,緑１丁目１６番４号パークアクシス両国スクエア１階１０１号室,,13,107,1300021,,,,,,,2025-09-08,1,,,,,アイエスディー,0
559,3010801036478,新規,0,2025-09-08,2025-09-08,株式会社ＭＬアセットマネジメント,,株式会社,東京都,大田区,南馬込２丁目１３番８号,,13,111,1430025,,,,,,,2025-09-08,1,,,,,エムエルアセットマネジメント,0
560,3010801036544,新規,0,2025-09-08,2025-09-08,株式会社モアプロパゲート,,株式会社,東京都,大田区,山王３丁目８番９号－３０２,,13,111,1430023,,,,,,,2025-09-08,1,,,,,モアプロパゲート,0
562,3010805003202,新規,0,2025-09-08,2025-09-08,医療法人社団灯翠会,,その他の設立登記法人,東京都,大田区,南蒲田１丁目１番２１号佐々木ビル５階,,13,111,1440035,,,,,,,2025-09-08,1,,,,,トウスイカイ,0
568,3011001171784,新規,0,2025-09-08,2025-09-08,株式会社ＢＯＷＫ,,株式会社,東京都,渋谷区,道玄坂１丁目１０番８号渋谷道玄坂東急ビル２Ｆ－Ｃ,,13,113,1500043,,,,,,,2025-09-08,1,,,,,ボウク,0
572,3011101112878,新規,0,2025-09-08,2025-09-08,株式会社獅薩不動産,,株式会社,東京都,新宿区,新宿５丁目１番４－５０５号,,13,104,1600022,,,,,,,2025-09-08,1,,,,,シーサーフドウサン,0
573,3011101112993,新規,0,2025-09-08,2025-09-08,株式会社すろーらいふ,,株式会社,東京都,新宿区,西新宿３丁目３番１３号西新宿水間ビル２Ｆ,,13,104,1600023,,,,,,,2025-09-08,1,,,,,スローライフ,0
574,3011101113190,新規,0,2025-09-08,2025-09-08,ＭＴ株式会社,,株式会社,東京都,新宿区,西新宿３丁目３番１３号西新宿水間ビル２Ｆ,,13,104,1600023,,,,,,,2025-09-08,1,,,,,エムティ,0
594,3012403007320,新規,0,2025-09-08,2025-09-08,合同会社でるる,,合同会社,東京都,小金井市,本町６丁目２番１０－１７１６号プラウドタワー武蔵小金井クロス,,13,210,1840004,,,,,,,2025-09-08,1,,,,,デルル,0
598,3012703003366,新規,0,2025-09-08,2025-09-08,ＳＥ合同会社,,合同会社,東京都,東村山市,野口町１丁目２９－３－１０２ｃｏｃｏ・Ｍａｋａｎａ,,13,213,1890022,,,,,,,2025-09-08,1,,,,,エスイー,0
599,3012801024223,新規,0,2025-09-08,2025-09-08,株式会社アイエスワン,,株式会社,東京都,昭島市,拝島町３丁目２番１０号,,13,207,1960002,,,,,,,2025-09-08,1,,,,,アイエスワン,0
607,3020001164673,新規,0,2025-09-08,2025-09-08,株式会社ｇｕｉｄａｎｃｅ,,株式会社,神奈川県,横浜市神奈川区,三枚町４５１－１安西ビル３０１,,14,102,2210862,,,,,,,2025-09-08,1,,,,,ガイダンス,0
616,3030001168442,新規,0,2025-09-08,2025-09-08,株式会社祥鳳,,株式会社,埼玉県,川口市,大字東本郷５６７番地の９２,,11,203,3340063,,,,,,,2025-09-08,1,,,,,ショウホウ,0
619,3030003027530,新規,0,2025-09-08,2025-09-08,合同会社ガンマ,,合同会社,埼玉県,川越市,脇田町１８－１０－３Ｆ,,11,201,3501122,,,,,,,2025-09-08,1,,,,,ガンマ,0
620,3030003027547,新規,0,2025-09-08,2025-09-08,青松合同会社,,合同会社,埼玉県,春日部市,谷原新田２１２４－３,,11,214,3440035,,,,,,,2025-09-08,1,,,,,アオマツ,0
622,3040001140350,新規,0,2025-09-08,2025-09-08,ニコ株式会社,,株式会社,千葉県,佐倉市,宮ノ台１丁目８番１７号,,12,212,2850857,,,,,,,2025-09-08,1,,,,,,0
623,3040001140417,新規,0,2025-09-08,2025-09-08,株式会社Ｓｈａｒｉｎｇ,,株式会社,千葉県,市原市,中高根１１５７番地７２,,12,219,2900242,,,,,,,2025-09-08,1,,,,,シェアリング,0
626,3040003028404,新規,0,2025-09-08,2025-09-08,合同会社正和運送,,合同会社,千葉県,千葉市中央区,南町３丁目１１番４号サンコーポ蘇我２０３号,,12,101,2600842,,,,,,,2025-09-08,1,,,,,セイワウンソウ,0
627,3040003028453,新規,0,2025-09-08,2025-09-08,イーストポイント合同会社,,合同会社,千葉県,木更津市,八幡台２丁目３番１１号,,12,206,2920814,,,,,,,2025-09-08,1,,,,,イーストポイント,0
628,3040003028461,新規,0,2025-09-08,2025-09-08,合同会社Ｊａｐａｎｅｓｅ‐Ｎａｏｔｏ,,合同会社,千葉県,千葉市稲毛区,宮野木町１７２２番地１４５,,12,103,2630054,,,,,,,2025-09-08,1,,,,,ジャパニーズナオト,0
634,3050001057222,新規,0,2025-09-08,2025-09-08,株式会社芋屋はしもと,,株式会社,茨城県,行方市,麻生１３００番地,,08,233,3113832,,,,,,,2025-09-08,1,,,,,イモヤハシモト,0
635,3050001057255,新規,0,2025-09-08,2025-09-08,ＴＺＴ株式会社,,株式会社,茨城県,土浦市,中荒川沖町３－１朝日ビル２０１室,,08,203,3000875,,,,,,,2025-09-08,1,,,,,ティーゼットティー,0
643,3080103003410,新規,0,2025-09-08,2025-09-08,Ｍ＆Ｓ合同会社,,合同会社,静岡県,御殿場市,川島田５３２番地２６ＴＭＢＬＤ,,22,215,4120045,,,,,,,2025-09-08,1,,,,,エムアンドエス,0
644,3080401028159,新規,0,2025-09-08,2025-09-08,株式会社ＣＶＫフレッシュ,,株式会社,静岡県,浜松市浜名区,於呂１４４４番地の２,,22,139,4340015,,,,,,,2025-09-08,1,,,,,シーブイケーフレッシュ,0
646,3090001019499,新規,0,2025-09-08,2025-09-08,山梨配送株式会社,,株式会社,山梨県,笛吹市,八代町南４７２４番地,,19,211,4060822,,,,,,,2025-09-08,1,,,,,ヤマナシハイソウ,0
663,3120001279296,新規,0,2025-09-08,2025-09-08,株式会社Ｓｙｎｃａｄｉａ,,株式会社,大阪府,大阪市北区,梅田１丁目２番２号大阪駅前第２ビル１２－１２,,27,127,5300001,,,,,,,2025-09-08,1,,,,,シンカディア,0
664,3120001279395,新規,0,2025-09-08,2025-09-08,株式会社高麗貿易ジャパン,,株式会社,大阪府,大阪市中央区,道修町１丁目３番１号デイライト北浜ビル２０１,,27,128,5410045,,,,,,,2025-09-08,1,,,,,コウライボウエキジャパン,0
675,3120905006787,新規,0,2025-09-08,2025-09-08,一般社団法人ＲＥＡＤＹ　ＬＵＣＫ,,その他の設立登記法人,大阪府,高槻市,殿町１５番１－４１５号,,27,207,5691126,,,,,,,2025-09-08,1,,,,,レディラック,0
682,3130001080439,新規,0,2025-09-08,2025-09-08,株式会社アントレプレナーシップ投資,,株式会社,京都府,京都市下京区,七条通油小路東入大黒町２２７番地第２キョートビル４０２,,26,106,6008223,,,,,,,2025-09-08,1,,,,,アントレプレナーシップトウシ,0
683,3130001080455,新規,0,2025-09-08,2025-09-08,株式会社大慶,,株式会社,京都府,舞鶴市,字下安久１０１３番地２０,,26,202,6240914,,,,,,,2025-09-08,1,,,,,ダイケイ,0
689,3140001139928,新規,0,2025-09-08,2025-09-08,株式会社ハシモト,,株式会社,兵庫県,丹波市,氷上町西中１１５番地,,28,223,6693603,,,,,,,2025-09-08,1,,,,,ハシモト,0
690,3140001139960,新規,0,2025-09-08,2025-09-08,ＩＮＡＭＩ　ＴＲＡＤＩＮＧ株式会社,,株式会社,兵庫県,加古郡稲美町,下草谷３７８番地の１０６,,28,381,6751101,,,,,,,2025-09-08,1,,,,,イナミトレーディング,0
697,3150001028386,新規,0,2025-09-08,2025-09-08,株式会社竹茗堂左文,,株式会社,奈良県,生駒市,高山町６４３９番地３,,29,209,6300101,,,,,,,2025-09-08,1,,,,,チクメイドウサブン,0
714,3180001168469,新規,0,2025-09-08,2025-09-08,誠栄株式会社,,株式会社,愛知県,半田市,岩滑高山町４丁目３８－１,,23,205,4750962,,,,,,,2025-09-08,1,,,,,セイエイ,0
715,3180001168493,新規,0,2025-09-08,2025-09-08,株式会社Ｂｅａｎｓ,,株式会社,愛知県,知多郡南知多町,大字篠島字堂山１０６番地,,23,445,4703505,,,,,,,2025-09-08,1,,,,,ビーンズ,0
716,3180001168519,新規,0,2025-09-08,2025-09-08,株式会社ＯＮＥ　ＬＩＦＥ,,株式会社,愛知県,名古屋市港区,小賀須４丁目４４８番地の７,,23,111,4550882,,,,,,,2025-09-08,1,,,,,ワンライフ,0
719,3180003028984,新規,0,2025-09-08,2025-09-08,合同会社あうん,,合同会社,愛知県,名古屋市西区,名駅２丁目３４番１７号セントラル名古屋１１０１号,,23,104,4510045,,,,,,,2025-09-08,1,,,,,アウン,0
720,3180003028992,新規,0,2025-09-08,2025-09-08,ユキ商産合同会社,,合同会社,愛知県,知多郡阿久比町,大字矢高字五反田２１番地１,,23,441,4702215,,,,,,,2025-09-08,1,,,,,ユキショウサン,0
723,3180301040170,新規,0,2025-09-08,2025-09-08,株式会社グラソ,,株式会社,愛知県,豊橋市,新栄町字鳥畷８９－１－Ａ－２０２,,23,201,4418016,,,,,,,2025-09-08,1,,,,,グラソ,0
725,3200001044205,新規,0,2025-09-08,2025-09-08,株式会社岡田建材,,株式会社,岐阜県,多治見市,姫町７丁目１８３番地の１,,21,204,5070061,,,,,,,2025-09-08,1,,,,,オカダケンザイ,0
727,3200003007011,新規,0,2025-09-08,2025-09-08,合同会社輝和,,合同会社,岐阜県,高山市,赤保木町１１４７番地,,21,203,5060045,,,,,,,2025-09-08,1,,,,,キワ,0
734,3240001065420,新規,0,2025-09-08,2025-09-08,ＮＩ株式会社,,株式会社,広島県,広島市中区,竹屋町１番２５号,,34,101,7300048,,,,,,,2025-09-08,1,,,,,エヌアイ,0
735,3240005015982,新規,0,2025-09-08,2025-09-08,一般社団法人瀬戸内フォーラム,,その他の設立登記法人,広島県,福山市,西町１丁目１番１号エフピコＲｉＭ１階コワーキングスペースｔｏｖｉｏ内,,34,207,7200067,,,,,,,2025-09-08,1,,,,,セトウチフォーラム,0
745,3290803005148,新規,0,2025-09-08,2025-09-08,パーミル合同会社,,合同会社,福岡県,北九州市八幡西区,浅川台３丁目１１番９号,,40,109,8070875,,,,,,,2025-09-08,1,,,,,パーミル,0
746,3310003005078,新規,0,2025-09-08,2025-09-08,合同会社サニー,,合同会社,長崎県,佐世保市,元町１番８－４０１号,,42,202,8570059,,,,,,,2025-09-08,1,,,,,サニー,0
748,3320001021324,新規,0,2025-09-08,2025-09-08,株式会社大分クラフト建材,,株式会社,大分県,大分市,大字本神崎字古川９８番地１旭商ビル２Ｆ２０１,,44,201,8792111,,,,,,,2025-09-08,1,,,,,オオイタクラフトケンザイ,0
751,3330001033541,新規,0,2025-09-08,2025-09-08,理想エネルギー株式会社,,株式会社,熊本県,熊本市中央区,辛島町４－３５ラ・シック辛島１０階１０１０号室,,43,101,8600804,,,,,,,2025-09-08,1,,,,,リソウエネルギー,0
753,3340001027591,新規,0,2025-09-08,2025-09-08,株式会社ＬＩＢＥＲ,,株式会社,鹿児島県,鹿児島市,上之園町１７番１－２０１,,46,201,8900052,,,,,,,2025-09-08,1,,,,,リベル,0
754,3340003004944,新規,0,2025-09-08,2025-09-08,合同会社Ｎｏａｈ’ｓ・Ａｒｋ,,合同会社,鹿児島県,鹿児島市,武２丁目２３番１４号,,46,201,8900045,,,,,,,2025-09-08,1,,,,,ノアズアーク,0
757,3360001035709,新規,0,2025-09-08,2025-09-08,株式会社當真,,株式会社,沖縄県,国頭郡宜野座村,字松田４２４番地,,47,313,9041301,,,,,,,2025-09-08,1,,,,,トウマ,0
758,3370001053008,新規,0,2025-09-08,2025-09-08,株式会社雅不動産,,株式会社,宮城県,仙台市泉区,泉中央２丁目１７番地の３フリード泉中央２０３,,04,105,9813133,,,,,,,2025-09-08,1,,,,,ミヤビフドウサン,0
763,3420001019250,新規,0,2025-09-08,2025-09-08,南部電機ホールディングス株式会社,,株式会社,青森県,八戸市,沼館１丁目２０番５号,,02,203,0310071,,,,,,,2025-09-08,1,,,,,ナンブデンキホールディングス,0
768,3430001095150,新規,0,2025-09-08,2025-09-08,株式会社ＣｏｕｎｔｒｙＶａｌｌｅｙ,,株式会社,北海道,札幌市北区,新川八条１７丁目７７０番地１６,,01,102,0010928,,,,,,,2025-09-08,1,,,,,カントリバレー,0
774,3480003002315,新規,0,2025-09-08,2025-09-08,合同会社モンブランの森,,合同会社,徳島県,徳島市,北矢三町２丁目６－３８辻マンション１０６号室,,36,201,7700006,,,,,,,2025-09-08,1,,,,,モンブランノモリ,0
786,4010001258327,新規,0,2025-09-08,2025-09-08,株式会社リアルステップ,,株式会社,東京都,中央区,晴海３丁目１３番１号,,13,102,1040053,,,,,,,2025-09-08,1,,,,,リアルステップ,0
791,4010003048643,新規,0,2025-09-08,2025-09-08,合同会社オーナーズブック・スリー,,合同会社,東京都,千代田区,霞が関３丁目２番５号,,13,101,1000013,,,,,,,2025-09-08,1,,,,,オーナーズブックスリー,0
793,4010005040623,新規,0,2025-09-08,2025-09-08,医療法人社団Ｋ＆Ｋ,,その他の設立登記法人,東京都,文京区,関口１丁目４８番９号関口ＲＡビル１階,,13,105,1120014,,,,,,,2025-09-08,1,,,,,ケーアンドケー,0
799,4010401192349,新規,0,2025-09-08,2025-09-08,スリーエスマネジメント株式会社,,株式会社,東京都,港区,芝公園２丁目６－３芝公園フロントタワー１３Ｆ,,13,103,1050011,,,,,,,2025-09-08,1,,,,,スリーエスマネジメント,0
800,4010401192852,新規,0,2025-09-08,2025-09-08,株式会社ｍｉＲｕｍｉ．,,株式会社,東京都,港区,南青山２丁目２番１５－９４２号ウィン青山,,13,103,1070062,,,,,,,2025-09-08,1,,,,,ミルミ,0
801,4010401192976,新規,0,2025-09-08,2025-09-08,株式会社優デザイン,,株式会社,東京都,港区,南青山３丁目１番３６号青山丸竹ビル６Ｆ,,13,103,1070062,,,,,,,2025-09-08,1,,,,,ユウデザイン,0
803,4010403036000,新規,0,2025-09-08,2025-09-08,合同会社ＣＯＲＥ,,合同会社,東京都,港区,西新橋１丁目２番９号メンターキャピタル税理士法人内,,13,103,1050003,,,,,,,2025-09-08,1,,,,,コア,0
808,4010801036568,新規,0,2025-09-08,2025-09-08,株式会社ＡＲアセットマネジメント,,株式会社,東京都,大田区,池上５丁目３番２１－９０１号,,13,111,1460082,,,,,,,2025-09-08,1,,,,,エーアールアセットマネジメント,0
812,4010805003201,新規,0,2025-09-08,2025-09-08,医療法人社団陽花会,,その他の設立登記法人,東京都,大田区,北嶺町３７番２９号ＦＬＯＷＰＬＡＣＥＴＯＫＹＯ２階区画２,,13,111,1450073,,,,,,,2025-09-08,1,,,,,ヨウカカイ,0
813,4010901058033,新規,0,2025-09-08,2025-09-08,株式会社Ｓｕｎｒｉｓｅ,,株式会社,東京都,世田谷区,世田谷２丁目２９番１６号,,13,112,1540017,,,,,,,2025-09-08,1,,,,,サンライズ,0
817,4011001171775,新規,0,2025-09-08,2025-09-08,株式会社ＳＹＬＰＨ,,株式会社,東京都,渋谷区,神宮前４丁目８番１４号表参道リニアＢ１,,13,113,1500001,,,,,,,2025-09-08,1,,,,,シルフィ,0
818,4011001171783,新規,0,2025-09-08,2025-09-08,株式会社メディカドライブ,,株式会社,東京都,渋谷区,神南１丁目１１－４ＦＰＧリンクス神南５階,,13,113,1500041,,,,,,,2025-09-08,1,,,,,メディカドライブ,0
819,4011001171800,新規,0,2025-09-08,2025-09-08,株式会社ラスボス,,株式会社,東京都,渋谷区,道玄坂１丁目１０番８号渋谷道玄坂東急ビル２Ｆ－Ｃ,,13,113,1500043,,,,,,,2025-09-08,1,,,,,ラスボス,0
820,4011001171825,新規,0,2025-09-08,2025-09-08,Ｐａｐｉｌｉｏ　Ｃｒｅａｔｉｏｎ株式会社,,株式会社,東京都,渋谷区,道玄坂１丁目１０－８渋谷道玄坂東急ビル２Ｆ－Ｃ,,13,113,1500043,,,,,,,2025-09-08,1,,,,,パピリオクリエイション,0
822,4011003022316,新規,0,2025-09-08,2025-09-08,合同会社Ｍｏｆｕ‐Ｍｏｆｕ　Ｗｏｒｋｓ,,合同会社,東京都,渋谷区,神南１丁目１１－４ＦＰＧリンクス神南５階,,13,113,1500041,,,,,,,2025-09-08,1,,,,,モフモフワークス,0
828,4011101113033,新規,0,2025-09-08,2025-09-08,株式会社リヒチェ,,株式会社,東京都,新宿区,西新宿３丁目３番１３号西新宿水間ビル６階,,13,104,1600023,,,,,,,2025-09-08,1,,,,,リヒチェ,0
829,4011103016283,新規,0,2025-09-08,2025-09-08,ＴＥＳ　Ｊａｐａｎ合同会社,,合同会社,東京都,新宿区,新宿２丁目６番３号１００９号室,,13,104,1600022,,,,,,,2025-09-08,1,,,,,テスジャパン,0
830,4011103016309,新規,0,2025-09-08,2025-09-08,ナルミスフィア合同会社,,合同会社,東京都,新宿区,歌舞伎町２丁目２５番８号エコプレイス新宿２０９,,13,104,1600021,,,,,,,2025-09-08,1,,,,,ナルミスフィア,0
831,4011103016358,新規,0,2025-09-08,2025-09-08,ＡＦＣＣ合同会社,,合同会社,東京都,新宿区,西新宿６丁目１０番１号日土地西新宿ビル８階,,13,104,1600023,,,,,,,2025-09-08,1,,,,,エイエフシーシー,0
832,4011105011588,新規,0,2025-09-08,2025-09-08,税理士法人ＫＡＳＨ,,その他の設立登記法人,東京都,新宿区,新宿２丁目６番４号新宿通東洋ビル５階,,13,104,1600022,,,,,,,2025-09-08,1,,,,,カッシュ,0
836,4011303005697,新規,0,2025-09-08,2025-09-08,Ｓｔｒｅａｍｓｉｄｅ合同会社,,合同会社,東京都,杉並区,荻窪３丁目４６－１８,,13,115,1670051,,,,,,,2025-09-08,1,,,,,ストリームサイド,0
839,4011501032527,新規,0,2025-09-08,2025-09-08,株式会社東京ＴＡＴＳＵＭＩ,,株式会社,東京都,北区,東十条２丁目１２番９－１０２号,,13,117,1140001,,,,,,,2025-09-08,1,,,,,トウキョウタツミ,0
841,4011701028671,新規,0,2025-09-08,2025-09-08,株式会社Ｌｉｎｇｏ　Ｍｅｄｉａ,,株式会社,東京都,江戸川区,松島２丁目２６番１７号メルディア新小岩２０１,,13,123,1320031,,,,,,,2025-09-08,1,,,,,リンゴメディア,0
842,4011701028688,新規,0,2025-09-08,2025-09-08,エムズプランニング株式会社,,株式会社,東京都,江戸川区,松島１丁目２６番２号,,13,123,1320031,,,,,,,2025-09-08,1,,,,,エムズプランニング,0
844,4011801046689,新規,0,2025-09-08,2025-09-08,ＫＢＳ株式会社,,株式会社,東京都,足立区,東和２丁目１７－７旭マンション３１４,,13,121,1200003,,,,,,,2025-09-08,1,,,,,ケービーエス,0
852,4012805003362,新規,0,2025-09-08,2025-09-08,一般社団法人全国子どもホスピス協会,,その他の設立登記法人,東京都,昭島市,昭和町５丁目１０番１６号森高ビル２Ｆ,,13,207,1960015,,,,,,,2025-09-08,1,,,,,ゼンコクコドモホスピスキョウカイ,0
856,4013301054924,新規,0,2025-09-08,2025-09-08,株式会社画像診断ラボ,,株式会社,東京都,豊島区,東池袋２丁目６２番８号ＢＩＧオフィスプラザ池袋１２０６,,13,116,1700013,,,,,,,2025-09-08,1,,,,,ガゾウシンダンラボ,0
870,4030001168433,新規,0,2025-09-08,2025-09-08,株式会社バーニス,,株式会社,埼玉県,さいたま市大宮区,桜木町１丁目３９８番地１アドグレイス大宮７Ｆ,,11,103,3300854,,,,,,,2025-09-08,1,,,,,バーニス,0
871,4030001168516,新規,0,2025-09-08,2025-09-08,株式会社ｋｓ‐ｈｏｍｅ,,株式会社,埼玉県,朝霞市,宮戸２丁目８番４号,,11,227,3510031,,,,,,,2025-09-08,1,,,,,ケーエスホーム,0
874,4030003027513,新規,0,2025-09-08,2025-09-08,合同会社ＷＡＬＬ　ＴＥＣＨ,,合同会社,埼玉県,入間市,大字野田１４８４番地１ガーデンコート入間６０３,,11,225,3580054,,,,,,,2025-09-08,1,,,,,ウォールテック,0
875,4030003027538,新規,0,2025-09-08,2025-09-08,合同会社丸幸,,合同会社,埼玉県,所沢市,寿町２７番７－４０７号,,11,208,3591122,,,,,,,2025-09-08,1,,,,,マルコウ,0
876,4030003027546,新規,0,2025-09-08,2025-09-08,合同会社中根断熱,,合同会社,埼玉県,上尾市,大字上５２２番地４,,11,219,3620001,,,,,,,2025-09-08,1,,,,,ナカネダンネツ,0
879,4040001140341,新規,0,2025-09-08,2025-09-08,株式会社ＮＯＡ,,株式会社,千葉県,船橋市,二宮１丁目２８番４号,,12,204,2740823,,,,,,,2025-09-08,1,,,,,ノア,0
880,4040001140358,新規,0,2025-09-08,2025-09-08,中展株式会社,,株式会社,千葉県,四街道市,鹿放ケ丘６０４番地１グリーンパーク２０３,,12,228,2840008,,,,,,,2025-09-08,1,,,,,チュウテン,0
881,4040003028485,新規,0,2025-09-08,2025-09-08,合同会社ＤＭ３８号,,合同会社,千葉県,柏市,柏４丁目５番１０号,,12,217,2770005,,,,,,,2025-09-08,1,,,,,ディーエムサンジュウハチゴウ,0
882,4050001057238,新規,0,2025-09-08,2025-09-08,株式会社小島塗装,,株式会社,茨城県,猿島郡境町,大字新田戸１３１５番地,,08,546,3060425,,,,,,,2025-09-08,1,,,,,コジマトソウ,0
883,4050001057246,新規,0,2025-09-08,2025-09-08,広聚オフィス設備株式会社,,株式会社,茨城県,坂東市,中里１１９１－３,,08,228,3060634,,,,,,,2025-09-08,1,,,,,コウシュウオフィスセツビ,0
884,4050001057254,新規,0,2025-09-08,2025-09-08,東日本不動産株式会社,,株式会社,茨城県,日立市,東成沢町３丁目１２番３－１０６号,,08,202,3160034,,,,,,,2025-09-08,1,,,,,ヒガシニホンフドウサン,0
886,4070001043302,新規,0,2025-09-08,2025-09-08,株式会社はこまる,,株式会社,群馬県,桐生市,梅田町３丁目１４番地の５,,10,203,3760601,,,,,,,2025-09-08,1,,,,,ハコマル,0
887,4070001043319,新規,0,2025-09-08,2025-09-08,株式会社Ｓ，Ｔ　Ｓｅｃｕｒｉｔｙ,,株式会社,群馬県,高崎市,倉賀野町５０９番地８,,10,202,3701201,,,,,,,2025-09-08,1,,,,,,0
905,4110003005881,新規,0,2025-09-08,2025-09-08,合同会社雪国貿易,,合同会社,新潟県,魚沼市,渋川１５３０番地１,,15,225,9460203,,,,,,,2025-09-08,1,,,,,ユキグニボウエキ,0
908,4120001023686,新規,0,2025-09-08,2025-09-08,株式会社島村建設,,株式会社,大阪府,大阪市天王寺区,勝山３丁目１０番１１号,,27,109,5430043,,,,,,,2025-09-08,1,,,,,シマムラケンセツ,0
919,4120001279345,新規,0,2025-09-08,2025-09-08,株式会社太陽興業,,株式会社,大阪府,守口市,寺内町２丁目７番３－５０７号,,27,209,5700056,,,,,,,2025-09-08,1,,,,,タイヨウコウギョウ,0
920,4120001279386,新規,0,2025-09-08,2025-09-08,株式会社関西開発,,株式会社,大阪府,大阪市西区,新町２丁目１９番２０号日宝西長堀ビル４０３,,27,106,5500013,,,,,,,2025-09-08,1,,,,,カンサイカイハツ,0
921,4120001279394,新規,0,2025-09-08,2025-09-08,株式会社Ｒｏｃｏ,,株式会社,大阪府,大阪市北区,梅田１丁目２番２号大阪駅前第２ビル１２－１２,,27,127,5300001,,,,,,,2025-09-08,1,,,,,ロコ,0
922,4120001279411,新規,0,2025-09-08,2025-09-08,ジェイ・テラス株式会社,,株式会社,大阪府,大阪市北区,本庄東２丁目２番３１号,,27,127,5310074,,,,,,,2025-09-08,1,,,,,ジェイテラス,0
923,4120001279568,新規,0,2025-09-08,2025-09-08,株式会社Ｇｅｎｅｓｉｓ　Ｇｌｏｂａｌ,,株式会社,大阪府,大阪市生野区,勝山北４丁目１番５８号,,27,116,5440033,,,,,,,2025-09-08,1,,,,,ジェネシスグローバル,0
929,4120003030466,新規,0,2025-09-08,2025-09-08,合同会社ＭＩＮ　ＭＯＯＮ,,合同会社,大阪府,大阪市生野区,新今里５丁目８－５ラレジデンス今里１Ａ,,27,116,5440001,,,,,,,2025-09-08,1,,,,,ミンムーン,0
933,4120103006688,新規,0,2025-09-08,2025-09-08,合同会社米,,合同会社,大阪府,堺市中区,八田北町２番５号,,27,142,5998262,,,,,,,2025-09-08,1,,,,,ヨネ,0
935,4120901051456,新規,0,2025-09-08,2025-09-08,株式会社ヴィオン,,株式会社,大阪府,茨木市,南春日丘７丁目８－３３－６,,27,211,5670046,,,,,,,2025-09-08,1,,,,,ヴィオン,0
937,4122003003303,新規,0,2025-09-08,2025-09-08,合同会社Ｃｕｌｃａ,,合同会社,大阪府,東大阪市,南荘町８番２９－１００７号,,27,227,5798024,,,,,,,2025-09-08,1,,,,,カルカ,0
941,4130003010772,新規,0,2025-09-08,2025-09-08,合同会社洛苑ペットメモリアル,,合同会社,京都府,京都市伏見区,淀生津町１２４Ｌｉｅｒｒｅ淀南２－１０１,,26,109,6130914,,,,,,,2025-09-08,1,,,,,ラクエンペットメモリアル,0
946,4140001139860,新規,0,2025-09-08,2025-09-08,株式会社心愛土建,,株式会社,兵庫県,神戸市北区,有野町唐櫃６番地の１３,,28,109,6511331,,,,,,,2025-09-08,1,,,,,シンアイドケン,0
963,4180001168518,新規,0,2025-09-08,2025-09-08,株式会社あいち子ども包括支援協会,,株式会社,愛知県,尾張旭市,南原山町赤土３１９番地１５第１サクセスビル３階,,23,226,4880066,,,,,,,2025-09-08,1,,,,,アイチコドモホウカツシエンキョウカイ,0
969,4180003028991,新規,0,2025-09-08,2025-09-08,合同会社ＢＲ,,合同会社,愛知県,名古屋市中村区,長筬町１丁目１番地,,23,105,4530839,,,,,,,2025-09-08,1,,,,,ビーアール,0
970,4180005021210,新規,0,2025-09-08,2025-09-08,税理士法人籔本・石田会計,,その他の設立登記法人,愛知県,名古屋市北区,清水３丁目７番９号,,23,103,4620844,,,,,,,2025-09-08,1,,,,,ヤブモトイシダカイケイ,0
977,4200001044212,新規,0,2025-09-08,2025-09-08,ハマダエコー株式会社,,株式会社,岐阜県,多治見市,西山町４丁目４３番６,,21,204,5070066,,,,,,,2025-09-08,1,,,,,ハマダエコー,0
978,4200003007010,新規,0,2025-09-08,2025-09-08,合同会社ＭＩモード,,合同会社,岐阜県,岐阜市,日野北２丁目１２番４号,,21,201,5008207,,,,,,,2025-09-08,1,,,,,エムアイモード,0
985,4240001065469,新規,0,2025-09-08,2025-09-08,株式会社ルクラスイノベーション,,株式会社,広島県,広島市佐伯区,五日市１丁目３番１０号,,34,108,7315127,,,,,,,2025-09-08,1,,,,,ルクラスイノベーション,0
989,4250005009025,新規,0,2025-09-08,2025-09-08,一般社団法人長生炭鉱の水非常を歴史に刻む会,,その他の設立登記法人,山口県,宇部市,西宇部北７丁目９番２３－６号,,35,202,7590211,,,,,,,2025-09-08,1,,,,,チョウセイタンコウノミズヒジョウヲレキシニキザムカイ,0
990,4260001040528,新規,0,2025-09-08,2025-09-08,株式会社Ｃｈａｍｐ　Ｆａｅｒｙ,,株式会社,岡山県,玉野市,築港２丁目５番１０号,,33,204,7060002,,,,,,,2025-09-08,1,,,,,チャンプフェアリー,0
992,4280003001988,新規,0,2025-09-08,2025-09-08,合同会社ジートレランス,,合同会社,島根県,安来市,佐久保町４９６番地７,,32,206,6920031,,,,,,,2025-09-08,1,,,,,ジートレランス,0
999,4330001033557,新規,0,2025-09-08,2025-09-08,株式会社ミライズ,,株式会社,熊本県,八代市,本町４丁目８番２４号,,43,202,8660861,,,,,,,2025-09-08,1,,,,,ミライズ,0
1004,4330003011197,新規,0,2025-09-08,2025-09-08,合同会社ＩＣＳ,,合同会社,熊本県,下益城郡美里町,大井早４１３４番地,,43,348,8614701,,,,,,,2025-09-08,1,,,,,アイシーエス,0
1008,4360001035732,新規,0,2025-09-08,2025-09-08,株式会社ユイーレ沖縄,,株式会社,沖縄県,国頭郡今帰仁村,字古宇利１２１０,,47,306,9050406,,,,,,,2025-09-08,1,,,,,ユイーレオキナワ,0
1009,4360001035749,新規,0,2025-09-08,2025-09-08,株式会社ＩＭＡＭＩ,,株式会社,沖縄県,うるま市,石川東山２丁目２２番地１１,,47,213,9041102,,,,,,,2025-09-08,1,,,,,イマミ,0
1015,4410001014268,新規,0,2025-09-08,2025-09-08,株式会社アーバックホールディングス,,株式会社,秋田県,秋田市,向浜１丁目８番３号,,05,201,0101601,,,,,,,2025-09-08,1,,,,,アーバックホールディングス,0
1032,5010001257724,新規,0,2025-09-08,2025-09-08,金石実業株式会社,,株式会社,東京都,千代田区,麹町１丁目６－９ＤＩＫ麹町ビル８０３号室,,13,101,1020083,,,,,,,2025-09-08,1,,,,,キンセキジツギョウ,0
1033,5010001258037,新規,0,2025-09-08,2025-09-08,オリエンタルタツミ株式会社,,株式会社,東京都,中央区,銀座１丁目１２番４号Ｎ＆ＥＢＬＤ．６Ｆ,,13,102,1040061,,,,,,,2025-09-08,1,,,,,オリエンタルタルミ,0
1034,5010001258367,新規,0,2025-09-08,2025-09-08,株式会社ＫＩＫＯＺＯねっ,,株式会社,東京都,千代田区,神田錦町３丁目１５錦精社神田ビル天翔オフィス大手町竹橋２階２２５号室,,13,101,1010054,,,,,,,2025-09-08,1,,,,,キコゾネッ,0
1035,5010003048510,新規,0,2025-09-08,2025-09-08,山中商事合同会社,,合同会社,東京都,文京区,根津１丁目１８番１３－６０３号,,13,105,1130031,,,,,,,2025-09-08,1,,,,,ヤマナカショウジ,0
1036,5010003048642,新規,0,2025-09-08,2025-09-08,合同会社京都二条城,,合同会社,東京都,千代田区,霞が関３丁目２番５号,,13,101,1000013,,,,,,,2025-09-08,1,,,,,キョウトニジョウジョウ,0
1046,5010005040639,新規,0,2025-09-08,2025-09-08,一般社団法人ＳＭＬ　Ｊ　ＨＯＴＥＬ１,,その他の設立登記法人,東京都,中央区,新川１丁目１７番１８号,,13,102,1040033,,,,,,,2025-09-08,1,,,,,エスエムエルジェイホテルワン,0
1058,5010401192810,新規,0,2025-09-08,2025-09-08,鋼板リースホールディングス株式会社,,株式会社,東京都,港区,西新橋２丁目８番６号,,13,103,1050003,,,,,,,2025-09-08,1,,,,,コウバンリースホールディングス,0
1059,5010401192843,新規,0,2025-09-08,2025-09-08,株式会社ｉｎｓｉｄｅ,,株式会社,東京都,港区,六本木４丁目３番１１号六本木ユニハウス２２３,,13,103,1060032,,,,,,,2025-09-08,1,,,,,インサイド,0
1060,5010401192901,新規,0,2025-09-08,2025-09-08,株式会社ＢｕｙＵｐ,,株式会社,東京都,港区,六本木６丁目１０番１号六本木ヒルズ森タワー１５階,,13,103,1060032,,,,,,,2025-09-08,1,,,,,バイアップ,0
1061,5010401192926,新規,0,2025-09-08,2025-09-08,ＭＨＬ株式会社,,株式会社,東京都,港区,南青山３丁目１８番２０号,,13,103,1070062,,,,,,,2025-09-08,1,,,,,エムエイチエル,0
1063,5010403035959,新規,0,2025-09-08,2025-09-08,ＭｏｆｕＴｅｃｈ合同会社,,合同会社,東京都,港区,南青山３丁目１番３６号青山丸竹ビル６Ｆ,,13,103,1070062,,,,,,,2025-09-08,1,,,,,モフテック,0
1064,5010403035975,新規,0,2025-09-08,2025-09-08,合同会社ＫＭ　Ｆｕｎｄ,,合同会社,東京都,港区,赤坂８丁目８－７アルボレスビル３Ｆ,,13,103,1070052,,,,,,,2025-09-08,1,,,,,ケーエムファンド,0
1065,5010405024745,新規,0,2025-09-08,2025-09-08,一般社団法人ＡＮＪ,,その他の設立登記法人,東京都,港区,虎ノ門３丁目２２番１０－２０１号,,13,103,1050001,,,,,,,2025-09-08,1,,,,,エイエヌジェイ,0
1078,5010803005520,新規,0,2025-09-08,2025-09-08,ＥＲＡ合同会社,,合同会社,東京都,大田区,西蒲田６丁目３２番１５－４０４号,,13,111,1440051,,,,,,,2025-09-08,1,,,,,エラ,0
1079,5010803005529,新規,0,2025-09-08,2025-09-08,合同会社ＮＵＡ,,合同会社,東京都,大田区,新蒲田３丁目１－３鳴島店舗１Ｆ,,13,111,1440054,,,,,,,2025-09-08,1,,,,,ヌア,0
1081,5010901058049,新規,0,2025-09-08,2025-09-08,株式会社Ｎｏｉｓｅｔｔｅ,,株式会社,東京都,世田谷区,北沢３丁目２番地１１,,13,112,1550031,,,,,,,2025-09-08,1,,,,,ノワゼット,0
1086,5011001171774,新規,0,2025-09-08,2025-09-08,株式会社３ＭｉＮＴ,,株式会社,東京都,渋谷区,道玄坂１丁目１０番８号渋谷道玄坂東急ビル２Ｆ－Ｃ,,13,113,1500043,,,,,,,2025-09-08,1,,,,,スリーミント,0
1087,5011001171782,新規,0,2025-09-08,2025-09-08,株式会社ＮＡＰ　ＨＯＵＳＥ,,株式会社,東京都,目黒区,目黒２丁目１０番１１号目黒山手プレイス７Ｆ,,13,110,1530063,,,,,,,2025-09-08,1,,,,,ナップハウス,0
1088,5011001171799,新規,0,2025-09-08,2025-09-08,株式会社Ｋａｉｖｉｓｔａ,,株式会社,東京都,目黒区,中目黒１丁目１０－２２,,13,110,1530061,,,,,,,2025-09-08,1,,,,,カイビスタ,0
1089,5011001172285,新規,0,2025-09-08,2025-09-08,ＢＯＮ株式会社,,株式会社,東京都,渋谷区,渋谷４丁目２番１号,,13,113,1500002,,,,,,,2025-09-08,1,,,,,ボン,0
1090,5011001172335,新規,0,2025-09-08,2025-09-08,ＭｉｒａｉＱ株式会社,,株式会社,東京都,渋谷区,恵比寿西２丁目８番４号ＥＸ恵比寿西ビル５階,,13,113,1500021,,,,,,,2025-09-08,1,,,,,ミライキュー,0
1091,5011003022307,新規,0,2025-09-08,2025-09-08,合同会社Ｃｉｅｌｏ,,合同会社,東京都,目黒区,鷹番３丁目６番１６号,,13,110,1520004,,,,,,,2025-09-08,1,,,,,シエロ,0
1096,5011101112876,新規,0,2025-09-08,2025-09-08,ＳＥＩＫＡ株式会社,,株式会社,東京都,新宿区,下落合２丁目１４番２８－２１５号,,13,104,1610033,,,,,,,2025-09-08,1,,,,,セイカ,0
1097,5011103016349,新規,0,2025-09-08,2025-09-08,紀峰レガシィー合同会社,,合同会社,東京都,新宿区,若松町１５番５号,,13,104,1620056,,,,,,,2025-09-08,1,,,,,キホウレガシィー,0
1098,5011103016381,新規,0,2025-09-08,2025-09-08,合同会社ネクシス,,合同会社,東京都,新宿区,西新宿３丁目３番１３号西新宿水間ビル２Ｆ,,13,104,1600023,,,,,,,2025-09-08,1,,,,,ネクシス,0
1099,5011105011579,新規,0,2025-09-08,2025-09-08,一般社団法人マルベル会,,その他の設立登記法人,東京都,新宿区,歌舞伎町２丁目４５番１６号ＧＥＳＴ３４ビル１０３号室,,13,104,1600021,,,,,,,2025-09-08,1,,,,,マルベルカイ,0
1100,5011201026613,新規,0,2025-09-08,2025-09-08,ＡＢＣ株式会社,,株式会社,東京都,中野区,東中野３丁目１４－２１－８０１号,,13,114,1640003,,,,,,,2025-09-08,1,,,,,エービーシー,0
1103,5011301030795,新規,0,2025-09-08,2025-09-08,ＳＧＰ株式会社,,株式会社,東京都,杉並区,成田東１丁目８―１６,,13,115,1660015,,,,,,,2025-09-08,1,,,,,エスジーピー,0
1110,5011701028687,新規,0,2025-09-08,2025-09-08,かみやホールディングス株式会社,,株式会社,東京都,江戸川区,新堀１丁目４２番５号,,13,123,1320001,,,,,,,2025-09-08,1,,,,,カミヤホールディングス,0
1111,5011701028695,新規,0,2025-09-08,2025-09-08,株式会社双葉木工所,,株式会社,東京都,江戸川区,鹿骨３丁目１０番７号,,13,123,1330073,,,,,,,2025-09-08,1,,,,,フタバモッコウショ,0
1112,5011703004372,新規,0,2025-09-08,2025-09-08,合同会社フェニックス,,合同会社,東京都,江戸川区,西葛西６丁目９番１０号,,13,123,1340088,,,,,,,2025-09-08,1,,,,,フェニックス,0
1124,5012701019057,新規,0,2025-09-08,2025-09-08,株式会社リアン,,株式会社,東京都,東村山市,久米川町１丁目１番地２４,,13,213,1890003,,,,,,,2025-09-08,1,,,,,リアン,0
1125,5012701019065,新規,0,2025-09-08,2025-09-08,株式会社ＪＦＦ,,株式会社,東京都,小平市,学園西町２丁目８番２４号,,13,211,1870045,,,,,,,2025-09-08,1,,,,,ジェイエフエフ,0
1147,5021003016539,新規,0,2025-09-08,2025-09-08,合同会社ユーアンド,,合同会社,神奈川県,小田原市,酒匂２丁目１５番１９号,,14,206,2560816,,,,,,,2025-09-08,1,,,,,ユーアンド,0
1149,5030001168449,新規,0,2025-09-08,2025-09-08,株式会社ＫＭインベストメント,,株式会社,埼玉県,秩父市,桜木町５番２６号Ｂ－２０１,,11,207,3680025,,,,,,,2025-09-08,1,,,,,ケイエムインベストメント,0
1150,5030001168498,新規,0,2025-09-08,2025-09-08,株式会社ＳＵＮＳＥＴ　ＢＬＵＥ,,株式会社,埼玉県,越谷市,南越谷１丁目１３番７号越谷ハローマート内１０２Ｂ号,,11,222,3430845,,,,,,,2025-09-08,1,,,,,サンセットブルー,0
1151,5030001168523,新規,0,2025-09-08,2025-09-08,ｈａｃｈｉ．ｆａｒｍ株式会社,,株式会社,埼玉県,熊谷市,小曽根１１５８番地,,11,202,3600017,,,,,,,2025-09-08,1,,,,,ハチファーム,0
1161,5040001140357,新規,0,2025-09-08,2025-09-08,株式会社ＤＯＮＤＯＮ,,株式会社,千葉県,船橋市,前原西８丁目１１番１３号,,12,204,2740825,,,,,,,2025-09-08,1,,,,,ドンドン,0
1162,5040001140415,新規,0,2025-09-08,2025-09-08,大＿産業株式会社,00140552,株式会社,千葉県,千葉市若葉区,御殿町７１５番地の１,,12,104,2650074,,,,,,,2025-09-08,1,,,,,ダイカサンギョウ,0
1166,5040003028443,新規,0,2025-09-08,2025-09-08,合同会社Ａｃｈｔ,,合同会社,千葉県,船橋市,前貝塚町６５４番地８,,12,204,2730042,,,,,,,2025-09-08,1,,,,,アハト,0
1167,5040003028451,新規,0,2025-09-08,2025-09-08,合同会社しみずや,,合同会社,千葉県,野田市,七光台１２８番地の１,,12,208,2780051,,,,,,,2025-09-08,1,,,,,シミズヤ,0
1170,5050001057229,新規,0,2025-09-08,2025-09-08,Ｋパートナーズ株式会社,,株式会社,茨城県,土浦市,沖宿町２７６３番地,,08,203,3000023,,,,,,,2025-09-08,1,,,,,ケーパートナーズ,0
1171,5050001057237,新規,0,2025-09-08,2025-09-08,株式会社のらびと,,株式会社,茨城県,結城郡八千代町,大字水口６４４番地２,,08,521,3003564,,,,,,,2025-09-08,1,,,,,ノラビト,0
1176,5060005010372,新規,0,2025-09-08,2025-09-08,一般財団法人北欧伝説ドワーフの村,,その他の設立登記法人,栃木県,那須郡那須町,大字高久乙１７０番地１,,09,407,3250303,,,,,,,2025-09-08,1,,,,,ホクオウデンセツドワーフノムラ,0
1177,5070001043318,新規,0,2025-09-08,2025-09-08,株式会社張山工務店,,株式会社,群馬県,吾妻郡長野原町,大字羽根尾４２１番地３,,10,424,3771307,,,,,,,2025-09-08,1,,,,,ハリヤマコウムテン,0
1182,5080105006533,新規,0,2025-09-08,2025-09-08,一般社団法人次世代育成支援機構ＣｏｃｏＬｉｎｋ,,その他の設立登記法人,静岡県,三島市,一番町１５－２６ミシマスルガビル４階,,22,206,4110036,,,,,,,2025-09-08,1,,,,,ジセダイイクセイシエンキコウココリンク,0
1188,5110001039567,新規,0,2025-09-08,2025-09-08,ゴミナクス株式会社,,株式会社,新潟県,長岡市,新産４丁目１－１０ＮＡＲＩＣ１０３号室,,15,202,9402127,,,,,,,2025-09-08,1,,,,,ゴミナクス,0
1195,5120001279344,新規,0,2025-09-08,2025-09-08,株式会社ＤｉｇｉｔａｌＡｇｅ,,株式会社,大阪府,大阪市北区,梅田１丁目２番２号大阪駅前第２ビル１２－１２,,27,127,5300001,,,,,,,2025-09-08,1,,,,,デジタルエイジ,0
1196,5120001279385,新規,0,2025-09-08,2025-09-08,ＧＨジャパン株式会社,,株式会社,大阪府,大阪市中央区,北浜東４番３３号Ｂ１,,27,128,5400031,,,,,,,2025-09-08,1,,,,,ジーエイチジャパン,0
1197,5120001279393,新規,0,2025-09-08,2025-09-08,株式会社ＫＯＴＩサプライ,,株式会社,大阪府,大阪市鶴見区,今津中１丁目１０番２４号,,27,124,5380042,,,,,,,2025-09-08,1,,,,,コティサプライ,0
1200,5120003030473,新規,0,2025-09-08,2025-09-08,斉思遠合同会社,,合同会社,大阪府,大阪市東淀川区,東中島１丁目１７番５－８３１号,,27,114,5330033,,,,,,,2025-09-08,1,,,,,サイシエン,0
1204,5130001080453,新規,0,2025-09-08,2025-09-08,株式会社Ｓ．Ｄ．Ｐｌｕｓ,,株式会社,京都府,舞鶴市,字公文名５４３番地１,,26,202,6240821,,,,,,,2025-09-08,1,,,,,エスディープラス,0
1205,5130003010739,新規,0,2025-09-08,2025-09-08,ＭｅｄｉａＷｉｎｓ合同会社,,合同会社,京都府,京都市下京区,大黒町２２７番地第２キョートビル４０２,,26,106,6008043,,,,,,,2025-09-08,1,,,,,メディアウインズ,0
1209,5140001139868,新規,0,2025-09-08,2025-09-08,株式会社あずきシステム,,株式会社,兵庫県,尼崎市,杭瀬北新町１丁目２番１６号,,28,202,6600815,,,,,,,2025-09-08,1,,,,,アズキシステム,0
1210,5140001139959,新規,0,2025-09-08,2025-09-08,中尾技術開発株式会社,,株式会社,兵庫県,姫路市,砥堀１３１２番地１,,28,201,6700802,,,,,,,2025-09-08,1,,,,,ナカオギジュツカイハツ,0
1211,5140001139975,新規,0,2025-09-08,2025-09-08,Ａｍａｓｅｎｓｅ株式会社,,株式会社,兵庫県,尼崎市,東本町２丁目１０番地ラモーナ東本町１－２０３号,,28,202,6600824,,,,,,,2025-09-08,1,,,,,アマセンス,0
1218,5150001028384,新規,0,2025-09-08,2025-09-08,株式会社ｓａｋｕｌａｓａｋｅ,,株式会社,奈良県,奈良市,青野町１丁目４－２７－１０８号,,29,201,6310841,,,,,,,2025-09-08,1,,,,,サクラサケ,0
1219,5150003003699,新規,0,2025-09-08,2025-09-08,合同会社清穗,,合同会社,奈良県,奈良市,中山町西２丁目９４４－１,,29,201,6310013,,,,,,,2025-09-08,1,,,,,スガホ,0
1228,5180001168558,新規,0,2025-09-08,2025-09-08,株式会社ＵＮＳＨＡＫＥ,,株式会社,愛知県,名古屋市中区,栄３丁目１５番３３号栄ガスビル１３階,,23,106,4600008,,,,,,,2025-09-08,1,,,,,アンシェイク,0
1251,5260003005313,新規,0,2025-09-08,2025-09-08,合同会社ＣＲＥＷＳ　ＳＨＩＰ,,合同会社,岡山県,岡山市南区,福田６６番地１０,,33,104,7028021,,,,,,,2025-09-08,1,,,,,クルーズシップ,0
1257,5290003017355,新規,0,2025-09-08,2025-09-08,コリナイエ合同会社,,合同会社,福岡県,福岡市中央区,警固２丁目１３番１７号１３０８,,40,133,8100023,,,,,,,2025-09-08,1,,,,,コリナイエ,0
1261,5290801031846,新規,0,2025-09-08,2025-09-08,ＨＩＮＯＭＡＲＵ　ＡＲＴ　ＬＡＢ株式会社,,株式会社,福岡県,北九州市小倉南区,徳力新町１丁目２７番８－４０１号,,40,107,8020979,,,,,,,2025-09-08,1,,,,,ヒノマルアートラボ,0
1264,5300001014344,新規,0,2025-09-08,2025-09-08,株式会社デイ・ソフトエンジニアリング,,株式会社,佐賀県,武雄市,北方町大字志久１１９９番地４,,41,206,8492201,,,,,,,2025-09-08,1,,,,,デイソフトエンジニアリング,0
1265,5310003005084,新規,0,2025-09-08,2025-09-08,合同会社トラストレッジ,,合同会社,長崎県,島原市,船泊町丁３３０６－５２,,42,203,8550865,,,,,,,2025-09-08,1,,,,,トラストレッジ,0
1270,5330001033548,新規,0,2025-09-08,2025-09-08,ＩＭ株式会社,,株式会社,熊本県,熊本市南区,田井島３丁目８番４０号,,43,104,8620965,,,,,,,2025-09-08,1,,,,,アイエム,0
1271,5330001033556,新規,0,2025-09-08,2025-09-08,中川重機株式会社,,株式会社,熊本県,玉名郡和水町,前原３４９番地,,43,369,8650126,,,,,,,2025-09-08,1,,,,,ナカガワジュウキ,0
1276,5330005010948,新規,0,2025-09-08,2025-09-08,天峯寺,,その他の設立登記法人,熊本県,上益城郡甲佐町,大字上早川３１２４番地１,,43,444,8614622,,,,,,,2025-09-08,1,,,,,テンプウジ,0
1279,5340003004942,新規,0,2025-09-08,2025-09-08,合同会社ウェルナビ,,合同会社,鹿児島県,薩摩川内市,青山町４１９８番地７,,46,215,8950044,,,,,,,2025-09-08,1,,,,,ウェルナビ,0
1280,5360001035748,新規,0,2025-09-08,2025-09-08,農業生産法人ＹａｎｂａｒｕＮａｔｕｒｅｓ株式会社,,株式会社,沖縄県,国頭郡東村,字慶佐次７１８番３５号,,47,303,9051205,,,,,,,2025-09-08,1,,,,,ヤンバルネイチャーズ,0
1283,5380003006126,新規,0,2025-09-08,2025-09-08,合同会社Ｃａｌｖｏｎ,,合同会社,福島県,喜多方市,字桜ガ丘２丁目２１番地,,07,208,9660802,,,,,,,2025-09-08,1,,,,,カルヴォン,0
1289,5420005007968,新規,0,2025-09-08,2025-09-08,一般社団法人ビッグスマイル,,その他の設立登記法人,青森県,つがる市,豊富町屏風山１番地５２,,02,209,0383302,,,,,,,2025-09-08,1,,,,,ビッグスマイル,0
1294,5430001095157,新規,0,2025-09-08,2025-09-08,タイニーホーム株式会社,,株式会社,北海道,札幌市北区,北三十八条西３丁目１番７号,,01,102,0010038,,,,,,,2025-09-08,1,,,,,タイニーホーム,0
1295,5430001095231,新規,0,2025-09-08,2025-09-08,株式会社ＡｒＴ．,,株式会社,北海道,札幌市北区,北三十八条西４丁目１－１５,,01,102,0010038,,,,,,,2025-09-08,1,,,,,アート,0
1298,5430003018090,新規,0,2025-09-08,2025-09-08,Ｃｌｅａｎビルドアイ合同会社,,合同会社,北海道,恵庭市,美咲野４丁目５番１２号,,01,231,0611427,,,,,,,2025-09-08,1,,,,,クリーンビルドアイ,0
1299,5430005015301,新規,0,2025-09-08,2025-09-08,医療法人さくら,,その他の設立登記法人,北海道,札幌市北区,北二十三条西２丁目１番１号,,01,102,0010023,,,,,,,2025-09-08,1,,,,,サクラ,0
1300,5460001006029,新規,0,2025-09-08,2025-09-08,株式会社Ｗｉｎｇｒｏｗ,,株式会社,北海道,釧路市,緑ケ岡２丁目３８番１１号,,01,206,0850814,,,,,,,2025-09-08,1,,,,,,0
1301,5460103001737,新規,0,2025-09-08,2025-09-08,幕別図鑑合同会社,,合同会社,北海道,中川郡幕別町,札内北町１９番地２３　１０５号,,01,643,0890534,,,,,,,2025-09-08,1,,,,,マクベツズカン,0
1309,5500001026501,新規,0,2025-09-08,2025-09-08,株式会社ＯＫＡＤＡ,,株式会社,愛媛県,新居浜市,中須賀町１丁目１番２２号,,38,205,7920012,,,,,,,2025-09-08,1,,,,,オカダ,0
1318,6010001258102,新規,0,2025-09-08,2025-09-08,株式会社エスシフト総合研究所,,株式会社,東京都,中央区,新川１丁目６番１２号,,13,102,1040033,,,,,,,2025-09-08,1,,,,,エスシフトソウゴウケンキュウジョ,0
1319,6010001258267,新規,0,2025-09-08,2025-09-08,Ｍ＆Ａセルアドバイザリー株式会社,,株式会社,東京都,中央区,銀座１丁目１２番４号Ｎ＆ＥＢＬＤ．７階,,13,102,1040061,,,,,,,2025-09-08,1,,,,,エムアンドエーセルアドバイザリー,0
1321,6010101016847,新規,0,2025-09-08,2025-09-08,株式会社千旭,,株式会社,東京都,八王子市,犬目町３２０番地２４,,13,201,1930802,,,,,,,2025-09-08,1,,,,,チアキ,0
1331,6010401192842,新規,0,2025-09-08,2025-09-08,株式会社ＡＲＴＡ,,株式会社,東京都,港区,南麻布４丁目１３番７号,,13,103,1060047,,,,,,,2025-09-08,1,,,,,アルタ,0
1332,6010401192900,新規,0,2025-09-08,2025-09-08,ＫＹＣパートナーズ株式会社,,株式会社,東京都,港区,麻布十番１丁目６番１号ＴＨＥ，Ｖ－ＣＩＴＹ麻布十番ＰＬＡＣＥ４階,,13,103,1060045,,,,,,,2025-09-08,1,,,,,ケーワイシーパートナーズ,0
1333,6010401192966,新規,0,2025-09-08,2025-09-08,Ｆａｍｉｌｉｅ　ｚｏｎｅ株式会社,,株式会社,東京都,港区,北青山３丁目５番２５号,,13,103,1070061,,,,,,,2025-09-08,1,,,,,ファミリーゾーン,0
1343,6010701048257,新規,0,2025-09-08,2025-09-08,ＯＲＤフードサービス株式会社,,株式会社,東京都,品川区,大崎１丁目１１番２号,,13,109,1410032,,,,,,,2025-09-08,1,,,,,オーアールディーフードサービス,0
1344,6010701048265,新規,0,2025-09-08,2025-09-08,株式会社ＩＴＡＷＡＲＵ,,株式会社,東京都,品川区,西五反田２丁目１３番６号セラヴィ五反田５Ｆ,,13,109,1410031,,,,,,,2025-09-08,1,,,,,イタワル,0
1349,6010901058023,新規,0,2025-09-08,2025-09-08,ｏｕｔｓｔａｎｄｉｎｇ株式会社,,株式会社,東京都,世田谷区,若林３丁目２０番６号,,13,112,1540023,,,,,,,2025-09-08,1,,,,,アウトスタンディング,0
1355,6011001171773,新規,0,2025-09-08,2025-09-08,グレイスエイジング株式会社,,株式会社,東京都,渋谷区,神宮前６丁目２３番４号桑野ビル２階,,13,113,1500001,,,,,,,2025-09-08,1,,,,,グレイスエイジング,0
1356,6011001171798,新規,0,2025-09-08,2025-09-08,株式会社ｄｅｔｏ,,株式会社,東京都,渋谷区,恵比寿西２丁目８番４号ＥＸ恵比寿西ビル５階,,13,113,1500021,,,,,,,2025-09-08,1,,,,,デト,0
1357,6011001171807,新規,0,2025-09-08,2025-09-08,ＭＥＷ株式会社,,株式会社,東京都,渋谷区,恵比寿西２丁目２番６号恵比寿ファイブビル６０７号室,,13,113,1500021,,,,,,,2025-09-08,1,,,,,ミュウ,0
1360,6011003022306,新規,0,2025-09-08,2025-09-08,合同会社ｏａｓｉｓ,,合同会社,東京都,渋谷区,恵比寿１丁目１０番５号中田ビル３０１,,13,113,1500013,,,,,,,2025-09-08,1,,,,,オアシス,0
1361,6011101112867,新規,0,2025-09-08,2025-09-08,株式会社ＹＡＴＡｄｅｓｉｇｎ,,株式会社,東京都,新宿区,西新宿３丁目３番１３号西新宿水間ビル６階,,13,104,1600023,,,,,,,2025-09-08,1,,,,,ヤタデザイン,0
1362,6011101112990,新規,0,2025-09-08,2025-09-08,株式会社Ｍ＆Ｋマネジメント,,株式会社,東京都,新宿区,西新宿３丁目３－１３西新宿水間ビル６Ｆ,,13,104,1600023,,,,,,,2025-09-08,1,,,,,エムアンドケーマネジメント,0
1363,6011101113015,新規,0,2025-09-08,2025-09-08,株式会社ベータクラフト,,株式会社,東京都,新宿区,西新宿３丁目３番１３号西新宿水間ビル２Ｆ,,13,104,1600023,,,,,,,2025-09-08,1,,,,,ベータクラフト,0
1364,6011101113023,新規,0,2025-09-08,2025-09-08,株式会社サラ商事,,株式会社,東京都,新宿区,百人町１丁目３番２８号,,13,104,1690073,,,,,,,2025-09-08,1,,,,,サラショウジ,0
1365,6011101113048,新規,0,2025-09-08,2025-09-08,株式会社ＡＫＩ,,株式会社,東京都,新宿区,百人町１丁目２４番２号カメリアコート新宿４０２,,13,104,1690073,,,,,,,2025-09-08,1,,,,,アキ,0
1366,6011101113064,新規,0,2025-09-08,2025-09-08,株式会社ＳａｔｏＫｅｎ,,株式会社,東京都,新宿区,西新宿３丁目３番１３号西新宿水間ビル６階,,13,104,1600023,,,,,,,2025-09-08,1,,,,,サトケン,0
1367,6011103016315,新規,0,2025-09-08,2025-09-08,合同会社司,,合同会社,東京都,新宿区,西新宿８丁目３番２３号ローズガーデンテラス５０２,,13,104,1600023,,,,,,,2025-09-08,1,,,,,ツカサ,0
1371,6011401027377,新規,0,2025-09-08,2025-09-08,株式会社川崎総研,,株式会社,東京都,板橋区,板橋１丁目３４番２－Ｂ１,,13,119,1730004,,,,,,,2025-09-08,1,,,,,カワサキソウケン,0
1372,6011403004829,新規,0,2025-09-08,2025-09-08,合同会社Ｈ・Ｋ,,合同会社,東京都,板橋区,桜川２丁目２６番４号,,13,119,1740075,,,,,,,2025-09-08,1,,,,,エイチケー,0
1374,6011501032525,新規,0,2025-09-08,2025-09-08,ディベール株式会社,,株式会社,東京都,北区,赤羽南１丁目２８番１号,,13,117,1150044,,,,,,,2025-09-08,1,,,,,ディベール,0
1375,6011701028694,新規,0,2025-09-08,2025-09-08,スチールワイヤー株式会社,,株式会社,東京都,江戸川区,大杉５丁目３５番２号シャトレートミーＩＩ３０１,00140559,13,123,1320022,,,,,,,2025-09-08,1,,,,,スチールワイヤー,0
1376,6011701028703,新規,0,2025-09-08,2025-09-08,Ｆｌｕｆｆｙ　Ｃｒｅａｔｉｖｉｔｙ　Ｃｏｎｓｕｌｔｉｎｇ株式会社,,株式会社,東京都,江戸川区,東小岩５丁目３７番１２号楽新ビル２０３号,,13,123,1330052,,,,,,,2025-09-08,1,,,,,フラッフィークリエイティビティーコンサルティング,0
1379,6012701019064,新規,0,2025-09-08,2025-09-08,株式会社ユニティー,,株式会社,東京都,清瀬市,中清戸２丁目７１８番地２５,,13,221,2040012,,,,,,,2025-09-08,1,,,,,ユニティー,0
1380,6012801024220,新規,0,2025-09-08,2025-09-08,株式会社コマツ商事,,株式会社,東京都,昭島市,武蔵野２丁目１５番３６号,,13,207,1960021,,,,,,,2025-09-08,1,,,,,コマツショウジ,0
1381,6012801024229,新規,0,2025-09-08,2025-09-08,株式会社セブン,,株式会社,東京都,東大和市,奈良橋５丁目７８３番地の２６,,13,220,2070031,,,,,,,2025-09-08,1,,,,,セブン,0
1392,6020001164662,新規,0,2025-09-08,2025-09-08,ベテル株式会社,,株式会社,神奈川県,川崎市川崎区,渡田東町１８番１４号,,14,131,2100842,,,,,,,2025-09-08,1,,,,,ベテル,0
1393,6020001164704,新規,0,2025-09-08,2025-09-08,株式会社ジムニー・プロ,,株式会社,神奈川県,横浜市港北区,新横浜３丁目１９番１１号,,14,109,2220033,,,,,,,2025-09-08,1,,,,,ジムニープロ,0
1399,6020005016967,新規,0,2025-09-08,2025-09-08,一般社団法人クリエイティブアート鶴見,,その他の設立登記法人,神奈川県,横浜市鶴見区,小野町５番地２,,14,101,2300046,,,,,,,2025-09-08,1,,,,,クリエイティブアートツルミ,0
1407,6030001168506,新規,0,2025-09-08,2025-09-08,株式会社熊空,,株式会社,埼玉県,さいたま市南区,大字大谷口５６８２番地３,,11,108,3360042,,,,,,,2025-09-08,1,,,,,クマクウ,0
1420,6040001140414,新規,0,2025-09-08,2025-09-08,株式会社のうふく,,株式会社,千葉県,柏市,松ケ崎１１９７番地９１,,12,217,2770835,,,,,,,2025-09-08,1,,,,,,0
1422,6040003028442,新規,0,2025-09-08,2025-09-08,合同会社ＭＡＹＵＭＩ　Ｉｎｔｅｒｎａｔｉｏｎａｌ,,合同会社,千葉県,松戸市,新松戸北２丁目５番地の１８,,12,207,2700032,,,,,,,2025-09-08,1,,,,,マユミインターナショナル,0
1423,6040003028483,新規,0,2025-09-08,2025-09-08,合同会社ＤＭ４０号,,合同会社,千葉県,柏市,柏４丁目５番１０号,,12,217,2770005,,,,,,,2025-09-08,1,,,,,ディーエムヨンジュウゴウ,0
1427,6050001057228,新規,0,2025-09-08,2025-09-08,株式会社Ｒａｉ,,株式会社,茨城県,土浦市,川口２丁目９番２６－１３０４号,,08,203,3000033,,,,,,,2025-09-08,1,,,,,ライ,0
1428,6050001057244,新規,0,2025-09-08,2025-09-08,飯田設備株式会社,,株式会社,茨城県,鉾田市,上冨田１８６９番地３,,08,234,3111532,,,,,,,2025-09-08,1,,,,,イイダセツビ,0
1429,6050001057252,新規,0,2025-09-08,2025-09-08,株式会社シルソナ,,株式会社,茨城県,取手市,上高井４３４番地４,,08,217,3020035,,,,,,,2025-09-08,1,,,,,シルソナ,0
1430,6070001043325,新規,0,2025-09-08,2025-09-08,株式会社Ｙ　Ｄｅｓｉｇｎ,,株式会社,群馬県,太田市,矢田堀町１２６番地１,,10,205,3730016,,,,,,,2025-09-08,1,,,,,,0
1432,6070003006065,新規,0,2025-09-08,2025-09-08,合同会社翼,,合同会社,群馬県,吾妻郡東吾妻町,大字川戸５０５番地４,,10,429,3770802,,,,,,,2025-09-08,1,,,,,ツバサ,0
1433,6080001027129,新規,0,2025-09-08,2025-09-08,ＫＭホールディングス株式会社,,株式会社,静岡県,藤枝市,堀之内８２５番地の１,,22,214,4260088,,,,,,,2025-09-08,1,,,,,ケイエムホールディングス,0
1434,6080003003549,新規,0,2025-09-08,2025-09-08,合同会社バンブーフォレスト,,合同会社,静岡県,焼津市,大島５８８番地の７,,22,212,4250066,,,,,,,2025-09-08,1,,,,,バンブーフォレスト,0
1436,6090001019496,新規,0,2025-09-08,2025-09-08,エイティーワンエーアイ株式会社,,株式会社,山梨県,南都留郡山中湖村,山中２４８番地の１西区二丁目３２―２５―２０,,19,425,4010501,,,,,,,2025-09-08,1,,,,,エイティーワンエーアイ,0
1443,6110001039566,新規,0,2025-09-08,2025-09-08,株式会社ＭＤ　ＩＮＴＥＲＮＡＴＩＯＮＡＬ,,株式会社,新潟県,村上市,佐々木５５６番地１,,15,212,9593121,,,,,,,2025-09-08,1,,,,,エムディーインターナショナル,0
1451,6120001279319,新規,0,2025-09-08,2025-09-08,ＲｅｓｔＰａｓｓ株式会社,,株式会社,大阪府,大阪市中央区,道修町４丁目１－１武田御堂筋ビル２Ｆ,,27,128,5410045,,,,,,,2025-09-08,1,,,,,レストパス,0
1452,6120001279376,新規,0,2025-09-08,2025-09-08,株式会社ｃａｐｉ,,株式会社,大阪府,枚方市,宇山町３８番４７号,,27,210,5731143,,,,,,,2025-09-08,1,,,,,カピ,0
1453,6120001279392,新規,0,2025-09-08,2025-09-08,株式会社ｓｈｅｌｂｙ,,株式会社,大阪府,大阪市平野区,加美北７丁目７番１４号１０１,,27,126,5470001,,,,,,,2025-09-08,1,,,,,シェルビー,0
1459,6120003030472,新規,0,2025-09-08,2025-09-08,隆勝合同会社,,合同会社,大阪府,大阪市淀川区,西三国３丁目１０番１８号佐藤ハイツＣ号,,27,123,5320006,,,,,,,2025-09-08,1,,,,,リュウショウ,0
1470,6120903005838,新規,0,2025-09-08,2025-09-08,アフロ・ラブ・ユニバース合同会社,,合同会社,大阪府,高槻市,大冠町１丁目８番１号,,27,207,5690031,,,,,,,2025-09-08,1,,,,,アフロラブユニバース,0
1473,6130001080460,新規,0,2025-09-08,2025-09-08,株式会社桐富,,株式会社,京都府,京都市中京区,東洞院通押小路下る船屋町４１２番地プレティナージュ御池東洞院１２０３,,26,104,6040836,,,,,,,2025-09-08,1,,,,,キリトミ,0
1476,6140001139891,新規,0,2025-09-08,2025-09-08,株式会社ＨＫ,,株式会社,兵庫県,高砂市,北浜町西浜４８１番地の２,,28,216,6710123,,,,,,,2025-09-08,1,,,,,エイチケー,0
1482,6150001028383,新規,0,2025-09-08,2025-09-08,株式会社ＬＵＭＯ,,株式会社,奈良県,大和高田市,曽大根１丁目４番６－３号,,29,202,6350055,,,,,,,2025-09-08,1,,,,,ルモ,0
1484,6170001018779,新規,0,2025-09-08,2025-09-08,株式会社明新建設,,株式会社,和歌山県,和歌山市,福島５７２番地７１,,30,201,6408401,,,,,,,2025-09-08,1,,,,,メイシンケンセツ,0
1486,6170003002293,新規,0,2025-09-08,2025-09-08,合同会社Ｈａｕｌｙ,,合同会社,和歌山県,紀の川市,桃山町段５番地１５,,30,208,6496125,,,,,,,2025-09-08,1,,,,,ホーリー,0
1494,6180001168482,新規,0,2025-09-08,2025-09-08,株式会社Ｈｅａｒｔ　ｔｏ　Ｈｅａｒｔ,,株式会社,愛知県,名古屋市天白区,中坪町６番地の１,,23,116,4680048,,,,,,,2025-09-08,1,,,,,ハートトゥハート,0
1497,6180005021200,新規,0,2025-09-08,2025-09-08,ＮＰＯ法人愛知精神医療人権センター,,その他の設立登記法人,愛知県,名古屋市緑区,鳴子町２丁目２８番地の３,,23,114,4580041,,,,,,,2025-09-08,1,,,,,アイチセイシンイリョウジンケンセンター,0
1499,6180303006712,新規,0,2025-09-08,2025-09-08,合同会社Ｓｔｒａｔｅｇｉｃ・Ｐａｒｔｎｅｒ,,合同会社,愛知県,安城市,東栄町３丁目８１８番地１１,,23,212,4460007,,,,,,,2025-09-08,1,,,,,ストラテジックパートナー,0
1501,6190001032522,新規,0,2025-09-08,2025-09-08,株式会社澤建ホーム,,株式会社,三重県,志摩市,大王町波切１７０７番地２,,24,215,5170603,,,,,,,2025-09-08,1,,,,,サワケンホーム,0
1507,6200001044202,新規,0,2025-09-08,2025-09-08,株式会社Ｅ　ＦＯＯＤ　ＣＯＭＰＡＮＹ　ＪＡＰＡＮ,,株式会社,岐阜県,下呂市,森１０３０番地１,,21,220,5092202,,,,,,,2025-09-08,1,,,,,イーフードカンパニージャパン,0
1517,6260003005329,新規,0,2025-09-08,2025-09-08,合同会社やつゆい舎,,合同会社,岡山県,玉野市,玉２丁目２２番１０号,,33,204,7060012,,,,,,,2025-09-08,1,,,,,ヤツユイシャ,0
1522,6320001021321,新規,0,2025-09-08,2025-09-08,株式会社鮨の桐,,株式会社,大分県,大分市,都町４丁目２番２２号フジヒロビルＩＩＩ１０２,00140558,44,201,8700034,,,,,,,2025-09-08,1,,,,,スシノキリ,0
1524,6320003004761,新規,0,2025-09-08,2025-09-08,合同会社西田,,合同会社,大分県,大分市,ひばりケ丘５丁目１０番６号,,44,201,8701115,,,,,,,2025-09-08,1,,,,,ニシダ,0
1529,6330001033555,新規,0,2025-09-08,2025-09-08,株式会社ＸｉＡＤＥＮ,,株式会社,熊本県,熊本市中央区,花畑町１番１４号Ａ＆Ｍ・ＨＡＮＡＢＡＴＡ３０１号,,43,101,8600806,,,,,,,2025-09-08,1,,,,,シアデン,0
1530,6330001033563,新規,0,2025-09-08,2025-09-08,株式会社ＣａｓａＮ,,株式会社,熊本県,熊本市中央区,水前寺公園１６番７２号,,43,101,8620956,,,,,,,2025-09-08,1,,,,,カザン,0
1533,6330003011195,新規,0,2025-09-08,2025-09-08,合同会社アルデバラン,,合同会社,熊本県,人吉市,紺屋町１０９サンビル１Ｆ,,43,203,8680003,,,,,,,2025-09-08,1,,,,,アルデバラン,0
1534,6330003011204,新規,0,2025-09-08,2025-09-08,合同会社十地リース,,合同会社,熊本県,熊本市南区,近見２丁目１１番２号,,43,104,8614101,,,,,,,2025-09-08,1,,,,,ジュッチリース,0
1536,6340003004941,新規,0,2025-09-08,2025-09-08,合同会社みのり,,合同会社,鹿児島県,姶良市,平松６３２０番地４,,46,225,8995652,,,,,,,2025-09-08,1,,,,,ミノリ,0
1543,6360003015202,新規,0,2025-09-08,2025-09-08,合同会社みらいのねっこ,,合同会社,沖縄県,宜野湾市,宇地泊１丁目４番９号ビリーバービル４階,,47,205,9012227,,,,,,,2025-09-08,1,,,,,ミライノネッコ,0
1552,6370003007272,新規,0,2025-09-08,2025-09-08,合同会社ゆう助,,合同会社,宮城県,大崎市,古川駅前大通２丁目１番１１号,,04,215,9896162,,,,,,,2025-09-08,1,,,,,ユウスケ,0
1559,6410001014266,新規,0,2025-09-08,2025-09-08,株式会社Ｓｕｎｓｈｉｎｅ　Ｗｏｒｋｓ,,株式会社,秋田県,秋田市,大町１丁目２－２,,05,201,0100921,,,,,,,2025-09-08,1,,,,,サンシャインワークス,0
1562,6420001019256,新規,0,2025-09-08,2025-09-08,株式会社ハルーヴァ,,株式会社,青森県,五所川原市,字元町４６番地１,,02,205,0370044,,,,,,,2025-09-08,1,,,,,ハルーヴァ,0
1564,6420005007967,新規,0,2025-09-08,2025-09-08,平川サステナブルクリーン協同組合,,その他の設立登記法人,青森県,平川市,大坊竹内２０３番地５３,,02,210,0360146,,,,,,,2025-09-08,1,,,,,ヒラカワサステナブルクリーン,0
1566,6430003018057,新規,0,2025-09-08,2025-09-08,合同会社ＡＲＭ,,合同会社,北海道,札幌市西区,琴似四条４丁目１番１８号,,01,107,0630814,,,,,,,2025-09-08,1,,,,,アーム,0
1575,6490001011157,新規,0,2025-09-08,2025-09-08,株式会社ＵＮＩＲ,,株式会社,高知県,高知市,高須新町２丁目４番１０号,,39,201,7818122,,,,,,,2025-09-08,1,,,,,ユニル,0
1578,6500001026500,新規,0,2025-09-08,2025-09-08,株式会社善惠,,株式会社,愛媛県,松山市,枝松６丁目１１番２０号,,38,201,7900962,,,,,,,2025-09-08,1,,,,,ゼンケイ,0
1582,6500003003588,新規,0,2025-09-08,2025-09-08,合同会社椛,,合同会社,愛媛県,八幡浜市,古町２丁目２番４３号,,38,204,7968003,,,,,,,2025-09-08,1,,,,,モミジ,0
1594,7010001258200,新規,0,2025-09-08,2025-09-08,株式会社ＩＮＡＳＥホールディングス,,株式会社,東京都,中央区,月島３丁目３番２号,,13,102,1040052,,,,,,,2025-09-08,1,,,,,イナセホールディングス,0
1595,7010001258209,新規,0,2025-09-08,2025-09-08,オアシスホールディングス株式会社,,株式会社,東京都,中央区,銀座１丁目２２番１１号銀座大竹ビジデンス２Ｆ,,13,102,1040061,,,,,,,2025-09-08,1,,,,,オアシスホールディングス,0
1596,7010001258241,新規,0,2025-09-08,2025-09-08,ロケットベース株式会社,,株式会社,東京都,千代田区,神田和泉町１番地６－１６ヤマトビル４０５,,13,101,1010024,,,,,,,2025-09-08,1,,,,,ロケットベース,0
1597,7010001258282,新規,0,2025-09-08,2025-09-08,８ＦＩＶＥ２ＪＡＰＡＮ株式会社,,株式会社,東京都,千代田区,霞が関３丁目２番５号,,13,101,1000013,,,,,,,2025-09-08,1,,,,,エイトファイブツージャパン,0
1602,7010003048640,新規,0,2025-09-08,2025-09-08,Ｅｎｐｈａｓｅ　Ｅｎｅｒｇｙ　Ｊａｐａｎ合同会社,,合同会社,東京都,千代田区,霞が関３丁目２番６号東京倶楽部ビルディング１１階,,13,101,1000013,,,,,,,2025-09-08,1,,,,,エンフェーズエナジージャパン,0
1604,7010101016854,新規,0,2025-09-08,2025-09-08,株式会社みなおか,,株式会社,東京都,八王子市,中野山王２丁目３１番１０号ミラフォレストＩＩ２０３号,00140556,13,201,1920042,,,,,,,2025-09-08,1,,,,,ミナオカ,0
1613,7010401192833,新規,0,2025-09-08,2025-09-08,株式会社ノースイトレーディング,,株式会社,東京都,港区,三田３丁目１１番３６号,,13,103,1080073,,,,,,,2025-09-08,1,,,,,ノースイトレーディング,0
1614,7010401192890,新規,0,2025-09-08,2025-09-08,Ｗｉｔｈ　ＡＩ株式会社,,株式会社,東京都,港区,浜松町１丁目１２－８横須賀第８ビル,,13,103,1050013,,,,,,,2025-09-08,1,,,,,ウィズエイアイ,0
1615,7010401192899,新規,0,2025-09-08,2025-09-08,株式会社アクアフェスタ,,株式会社,東京都,港区,六本木３丁目１６番１２号六本木ＫＳビル５Ｆ,,13,103,1060032,,,,,,,2025-09-08,1,,,,,アクアフェスタ,0
1616,7010401192908,新規,0,2025-09-08,2025-09-08,株式会社スリーシード,,株式会社,東京都,港区,赤坂２丁目１４番１１号,,13,103,1070052,,,,,,,2025-09-08,1,,,,,スリーシード,0
1618,7010403035841,新規,0,2025-09-08,2025-09-08,ＹＭＣパートナーズ合同会社,,合同会社,東京都,港区,六本木３丁目１６番１２号六本木ＫＳビル５階,,13,103,1060032,,,,,,,2025-09-08,1,,,,,ワイエムシーパートナーズ,0
1619,7010403035949,新規,0,2025-09-08,2025-09-08,合同会社絆,,合同会社,東京都,港区,赤坂９丁目１番７号赤坂レジデンシャルホテル３５５号室,,13,103,1070052,,,,,,,2025-09-08,1,,,,,キズナ,0
1620,7010403035973,新規,0,2025-09-08,2025-09-08,合同会社サンベイズ,,合同会社,東京都,港区,六本木４丁目１２番６号内田ビル２０２号室,,13,103,1060032,,,,,,,2025-09-08,1,,,,,サンベイズ,0
1630,7010701048264,新規,0,2025-09-08,2025-09-08,サンコモト株式会社,,株式会社,東京都,品川区,旗の台６丁目５番４２号,,13,109,1420064,,,,,,,2025-09-08,1,,,,,サンコモト,0
1632,7010801036540,新規,0,2025-09-08,2025-09-08,ＴＯＧＥＸ株式会社,,株式会社,東京都,大田区,大森東１丁目２５番９－２号,,13,111,1430012,,,,,,,2025-09-08,1,,,,,トジエックス,0
1640,7011001171789,新規,0,2025-09-08,2025-09-08,株式会社ＢｘＹマネジメント,,株式会社,東京都,渋谷区,渋谷１丁目１０番８号,,13,113,1500002,,,,,,,2025-09-08,1,,,,,ベグジーマネジメント,0
1641,7011001171806,新規,0,2025-09-08,2025-09-08,株式会社Ｌｕｄｅｒａ,,株式会社,東京都,渋谷区,恵比寿西２丁目８番４号ＥＸ恵比寿西ビル５階,,13,113,1500021,,,,,,,2025-09-08,1,,,,,ルデラ,0
1645,7011003022230,新規,0,2025-09-08,2025-09-08,合同会社ｅサポート,,合同会社,東京都,渋谷区,恵比寿西２丁目４番８号ウィンド恵比寿ビル８Ｆ,,13,113,1500021,,,,,,,2025-09-08,1,,,,,イーサポート,0
1651,7011401027376,新規,0,2025-09-08,2025-09-08,株式会社ワイズ,,株式会社,東京都,板橋区,徳丸５丁目３６番１０号,,13,119,1750083,,,,,,,2025-09-08,1,,,,,ワイズ,0
1656,7011701028677,新規,0,2025-09-08,2025-09-08,株式会社ＦＬｎｏｔｅｓ,,株式会社,東京都,江戸川区,東葛西９丁目１９－１１,,13,123,1340084,,,,,,,2025-09-08,1,,,,,エフエルノーツ,0
1660,7012401043561,新規,0,2025-09-08,2025-09-08,株式会社祇苗,,株式会社,東京都,三鷹市,上連雀２丁目２番１６号,,13,204,1810012,,,,,,,2025-09-08,1,,,,,タダナエ,0
1661,7012701019047,新規,0,2025-09-08,2025-09-08,株式会社小平ホーム,,株式会社,東京都,小平市,大沼町１丁目１６番１号,,13,211,1870001,,,,,,,2025-09-08,1,,,,,コダイラホーム,0
1662,7012801024228,新規,0,2025-09-08,2025-09-08,株式会社Ｒｅｂｏｏｔ,,株式会社,東京都,昭島市,中神町１丁目３０番２１号,,13,207,1960022,,,,,,,2025-09-08,1,,,,,リブート,0
1675,7020001164728,新規,0,2025-09-08,2025-09-08,株式会社ＶＥＴＳＦＩＬ,,株式会社,神奈川県,横浜市旭区,善部町１０９番地１０プリヴェ南まきが原,,14,112,2410823,,,,,,,2025-09-08,1,,,,,ベッツフィル,0
1679,7020003029318,新規,0,2025-09-08,2025-09-08,ＴＡコンサルティング合同会社,,合同会社,神奈川県,横浜市港北区,箕輪町２丁目６番１７－６１０号,,14,109,2230051,,,,,,,2025-09-08,1,,,,,ティーエーコンサルティング,0
1688,7030001168513,新規,0,2025-09-08,2025-09-08,株式会社親子修繕塗装工業,,株式会社,埼玉県,富士見市,渡戸１丁目１１番８号,,11,235,3540032,,,,,,,2025-09-08,1,,,,,オヤコシュウゼントソウコウギョウ,0
1693,7030003027535,新規,0,2025-09-08,2025-09-08,合同会社中野ファーム,,合同会社,埼玉県,深谷市,大谷２８９４番地３,,11,218,3660814,,,,,,,2025-09-08,1,,,,,ナカノファーム,0
1694,7030003027576,新規,0,2025-09-08,2025-09-08,ボクソラ合同会社,,合同会社,埼玉県,川口市,西川口３丁目１４‐１４フドウ西川口ハイツ８１５室,,11,203,3320021,,,,,,,2025-09-08,1,,,,,ボクソラ,0
1702,7040001140322,新規,0,2025-09-08,2025-09-08,株式会社福ホールディングス,,株式会社,千葉県,鎌ケ谷市,新鎌ケ谷２丁目８番１７号,,12,224,2730107,,,,,,,2025-09-08,1,,,,,フクホールディングス,0
1703,7040001140355,新規,0,2025-09-08,2025-09-08,ＣＯＲＯＮＡ印刷株式会社,,株式会社,千葉県,松戸市,高塚新田１５２番地の７０,00140570,12,207,2702222,,,,,,,2025-09-08,1,,,,,コロナインサツ,0
1704,7040001140413,新規,0,2025-09-08,2025-09-08,ＦＡＹＺ　ＧＬＯＢＡＬ　ＪＡＰＡＮ株式会社,,株式会社,千葉県,千葉市美浜区,真砂５丁目３７番１５－１号,,12,106,2610011,,,,,,,2025-09-08,1,,,,,ファイズグローバルジャパン,0
1706,7040003028425,新規,0,2025-09-08,2025-09-08,合同会社リレル,,合同会社,千葉県,八街市,大木７８６番地４８,,12,230,2891111,,,,,,,2025-09-08,1,,,,,リレル,0
1707,7040003028441,新規,0,2025-09-08,2025-09-08,合同会社野村,,合同会社,千葉県,柏市,中十余二２１０番地６中央１８３－１街区１,,12,217,2770873,,,,,,,2025-09-08,1,,,,,ノムラ,0
1708,7040003028482,新規,0,2025-09-08,2025-09-08,合同会社ＤＭ３７号,,合同会社,千葉県,柏市,柏４丁目５番１０号,,12,217,2770005,,,,,,,2025-09-08,1,,,,,ディーエムサンジュウナナゴウ,0
1710,7050001057243,新規,0,2025-09-08,2025-09-08,アスカ株式会社,,株式会社,茨城県,土浦市,真鍋６丁目１３番３３号,,08,203,3000051,,,,,,,2025-09-08,1,,,,,アスカ,0
1712,7060001038548,新規,0,2025-09-08,2025-09-08,神田株式会社,,株式会社,栃木県,宇都宮市,松が峰１丁目３番１６号グラン宇都宮１階,,09,201,3200807,,,,,,,2025-09-08,1,,,,,カンダ,0
1716,7070003006072,新規,0,2025-09-08,2025-09-08,合同会社Ａｉ．ＳｏＬｉｎｋ,,合同会社,群馬県,伊勢崎市,平和町３－２２,,10,204,3720041,,,,,,,2025-09-08,1,,,,,,0
1719,7080101025774,新規,0,2025-09-08,2025-09-08,株式会社クリート,,株式会社,静岡県,富士市,瓜島町１５２番地の１,,22,210,4170057,,,,,,,2025-09-08,1,,,,,クリート,0
1724,7100001038931,新規,0,2025-09-08,2025-09-08,株式会社彫刻,,株式会社,長野県,諏訪郡富士見町,立沢字南原２２１３－５,,20,362,3990212,,,,,,,2025-09-08,1,,,,,チョウコク,0
1727,7110003005870,新規,0,2025-09-08,2025-09-08,中村商店合同会社,,合同会社,新潟県,佐渡市,両津湊１０１番地,,15,224,9520014,,,,,,,2025-09-08,1,,,,,ナカムラショウテン,0
1740,7120001279235,新規,0,2025-09-08,2025-09-08,コア・ダイナミックストラテジーズ株式会社,,株式会社,大阪府,大阪市北区,芝田１丁目１番４号阪急ターミナルビル１６階,,27,127,5300012,,,,,,,2025-09-08,1,,,,,コアダイナミックストラテジーズ,0
1741,7120001279326,新規,0,2025-09-08,2025-09-08,株式会社Ｍｙ　ａｌｌ,,株式会社,大阪府,大阪市港区,八幡屋３丁目９番１４号,,27,107,5520014,,,,,,,2025-09-08,1,,,,,マイオール,0
1742,7120001279350,新規,0,2025-09-08,2025-09-08,星舟株式会社,,株式会社,大阪府,大阪市西成区,天下茶屋２丁目２０番１６号２０１号室,,27,122,5570014,,,,,,,2025-09-08,1,,,,,セイシュウ,0
1743,7120001279391,新規,0,2025-09-08,2025-09-08,株式会社ＫＯＴＩフーズ,,株式会社,大阪府,大阪市中央区,北浜１丁目５番１０号ＫＯＴＩ北浜ビル,,27,128,5410041,,,,,,,2025-09-08,1,,,,,コティフーズ,0
1744,7120001279490,新規,0,2025-09-08,2025-09-08,株式会社ＳＴＲＡＴＥＣＴＡ,,株式会社,大阪府,大阪市北区,梅田１丁目２番２号大阪駅前第２ビル１２－１２,,27,127,5300001,,,,,,,2025-09-08,1,,,,,ストラテクタ,0
1751,7120101072374,新規,0,2025-09-08,2025-09-08,オクヒラアスリード保険株式会社,,株式会社,大阪府,大阪狭山市,岩室１丁目２６９番地の７,,27,231,5890032,,,,,,,2025-09-08,1,,,,,オクヒラアスリードホケン,0
1754,7120901051445,新規,0,2025-09-08,2025-09-08,株式会社ＫＯＣ,,株式会社,大阪府,高槻市,南松原町８番２３号,,27,207,5690085,,,,,,,2025-09-08,1,,,,,ケーオーシー,0
1759,7130001080451,新規,0,2025-09-08,2025-09-08,株式会社オルタス京都,,株式会社,京都府,京都市中京区,東洞院通二条下る瓦之町３９１番地シンフォニア御池５階,,26,104,6040837,,,,,,,2025-09-08,1,,,,,オルタスキョウト,0
1761,7130003010729,新規,0,2025-09-08,2025-09-08,ＪｔｏＳ合同会社,,合同会社,京都府,京都市下京区,朱雀宝蔵町４４番地協栄ビル２階,,26,106,6008846,,,,,,,2025-09-08,1,,,,,ジェイトゥエス,0
1762,7130003010745,新規,0,2025-09-08,2025-09-08,ＭＹパートナーズ合同会社,,合同会社,京都府,京都市下京区,朱雀宝蔵町４４番地協栄ビル２階京都朱雀スタジオＡＲ－５１０,,26,106,6008846,,,,,,,2025-09-08,1,,,,,エムワイパートナーズ,0
1765,7140001139890,新規,0,2025-09-08,2025-09-08,株式会社桔梗,,株式会社,兵庫県,宝塚市,武庫川町４－８リベルテ宝塚３０１号室,,28,214,6650844,,,,,,,2025-09-08,1,,,,,キキョウ,0
1766,7140001139916,新規,0,2025-09-08,2025-09-08,アレックス株式会社,,株式会社,兵庫県,西宮市,甲子園七番町６番６－３０２号,,28,204,6638177,,,,,,,2025-09-08,1,,,,,アレックス,0
1779,7180001168390,新規,0,2025-09-08,2025-09-08,株式会社ＥＳＰＯＩＲ,,株式会社,愛知県,小牧市,藤島町梵天１１０番地５４,,23,219,4850069,,,,,,,2025-09-08,1,,,,,エスポワール,0
1780,7180001168564,新規,0,2025-09-08,2025-09-08,株式会社ＨＭＤホールディングス,,株式会社,愛知県,名古屋市中区,栄２丁目３番３２号,,23,106,4600008,,,,,,,2025-09-08,1,,,,,エイチエムディーホールディングス,0
1785,7180003028980,新規,0,2025-09-08,2025-09-08,合同会社ＭＫＴ,,合同会社,愛知県,名古屋市港区,当知３丁目３０４番地（しらさぎ３０３号）,,23,111,4550804,,,,,,,2025-09-08,1,,,,,エムケーティー,0
1787,7180301040159,新規,0,2025-09-08,2025-09-08,株式会社ＲＵＮＷＡＹ,,株式会社,愛知県,知立市,谷田町宝土２２番地２フォレスタα２０５号,,23,225,4720013,,,,,,,2025-09-08,1,,,,,ランウェイ,0
1789,7190001032496,新規,0,2025-09-08,2025-09-08,株式会社ａｇｌｅａ,,株式会社,三重県,松阪市,菅生町５０番地,,24,204,5150202,,,,,,,2025-09-08,1,,,,,アグレア,0
1790,7190001032513,新規,0,2025-09-08,2025-09-08,株式会社和助,,株式会社,三重県,津市,栗真中山町３７６番地ＣＡＬＭＦＯＲＥＳＴ２１１,,24,201,5140103,,,,,,,2025-09-08,1,,,,,ワスケ,0
1791,7190001032521,新規,0,2025-09-08,2025-09-08,丸福ホールディングス株式会社,,株式会社,三重県,志摩市,大王町波切２７７１番地３,,24,215,5170603,,,,,,,2025-09-08,1,,,,,マルフクホールディングス,0
1797,7220001026916,新規,0,2025-09-08,2025-09-08,株式会社アント企画,,株式会社,石川県,金沢市,割出町２３５番地１,,17,201,9200062,,,,,,,2025-09-08,1,,,,,,0
1803,7230001021073,新規,0,2025-09-08,2025-09-08,株式会社アトリエ菓子工房ラグリシーヌ,,株式会社,富山県,射水市,庄西町２丁目１７番１１号,,16,211,9340001,,,,,,,2025-09-08,1,,,,,アトリエカシコウボウラグリシーヌ,0
1811,7260003005328,新規,0,2025-09-08,2025-09-08,合同会社ＹＧＨ,,合同会社,岡山県,岡山市北区,表町３丁目１１番５０号ライオンズタワー岡山千日前１８０３,,33,101,7000822,,,,,,,2025-09-08,1,,,,,ワイジーエイチ,0
1814,7290003017329,新規,0,2025-09-08,2025-09-08,合同会社中尊社,,合同会社,福岡県,那珂川市,松木１丁目６０－２０１,,40,231,8111251,,,,,,,2025-09-08,1,,,,,,0
1816,7290803005152,新規,0,2025-09-08,2025-09-08,おんがの赤湯合同会社,,合同会社,福岡県,遠賀郡遠賀町,大字浅木６１番地の１,,40,384,8114312,,,,,,,2025-09-08,1,,,,,オンガノアカユ,0
1817,7310003005082,新規,0,2025-09-08,2025-09-08,合同会社戸尾,,合同会社,長崎県,佐世保市,松川町１番８号,,42,202,8570804,,,,,,,2025-09-08,1,,,,,トノオ,0
1823,7330001033546,新規,0,2025-09-08,2025-09-08,Ｓｈｅｌｌ‐Ｔｓ株式会社,,株式会社,熊本県,熊本市中央区,八王寺町３３番３号,,43,101,8600831,,,,,,,2025-09-08,1,,,,,シェルティス,0
1824,7330001033562,新規,0,2025-09-08,2025-09-08,國武林業株式会社,,株式会社,熊本県,上益城郡御船町,大字七滝４８７２番地,,43,441,8613321,,,,,,,2025-09-08,1,,,,,クニタケリンギョウ,0
1828,7340003004940,新規,0,2025-09-08,2025-09-08,合同会社澤村工務店,,合同会社,鹿児島県,大島郡伊仙町,大字検福１４１番地,,46,532,8918116,,,,,,,2025-09-08,1,,,,,サワムラコウムテン,0
1832,7370001053037,新規,0,2025-09-08,2025-09-08,株式会社カーム,,株式会社,宮城県,多賀城市,山王字北寿福寺７１番地の８,,04,209,9850852,,,,,,,2025-09-08,1,,,,,カーム,0
1841,7430001095106,新規,0,2025-09-08,2025-09-08,アドベンティア株式会社,,株式会社,北海道,札幌市豊平区,平岸三条１３丁目４－２５サンホームＭＳ　Ｎｏ．１２　２０２号,,01,105,0620933,,,,,,,2025-09-08,1,,,,,アドベンティア,0
1842,7430001095130,新規,0,2025-09-08,2025-09-08,株式会社長瀬,,株式会社,北海道,札幌市北区,新琴似十二条３丁目６番５号,,01,102,0010912,,,,,,,2025-09-08,1,,,,,ナガセ,0
1843,7430001095147,新規,0,2025-09-08,2025-09-08,株式会社フォルトゥナホールディングス,,株式会社,北海道,札幌市中央区,南十条西２０丁目２番３号,,01,101,0640810,,,,,,,2025-09-08,1,,,,,フォルトゥナホールディングス,0
1844,7430001095238,新規,0,2025-09-08,2025-09-08,株式会社ジーエー,,株式会社,北海道,札幌市東区,栄町６５６番地３,,01,103,0070852,,,,,,,2025-09-08,1,,,,,ジーエー,0
1846,7430003018056,新規,0,2025-09-08,2025-09-08,ＰＥＮＧＵＩＮ　ＳＮＯＷ　ＳＰＯＲＴＳ合同会社,,合同会社,北海道,虻田郡ニセコ町,字ニセコ３８６番地２４－４０３号室,,01,395,0481511,,,,,,,2025-09-08,1,,,,,ペンギンスノースポーツ,0
1847,7430005015290,新規,0,2025-09-08,2025-09-08,特定非営利活動法人ｉ‐ｖｅｎｔ,,その他の設立登記法人,北海道,札幌市北区,北八条西３丁目札幌エルプラザ２階事務ブースＮｏ．２,,01,102,0600808,,,,,,,2025-09-08,1,,,,,アイベント,0
1852,7490001011156,新規,0,2025-09-08,2025-09-08,株式会社山中興業,,株式会社,高知県,高知市,神田２０８８番地３,,39,201,7808040,,,,,,,2025-09-08,1,,,,,ヤマナカコウギョウ,0
1855,7500001026499,新規,0,2025-09-08,2025-09-08,株式会社三笑,,株式会社,愛媛県,松山市,松前町３丁目２番地２,,38,201,7900812,,,,,,,2025-09-08,1,,,,,サンショウ,0
1856,7500003003587,新規,0,2025-09-08,2025-09-08,合同会社ｆｕｌｕｌｙ,,合同会社,愛媛県,西予市,明浜町狩浜２番耕地２０１番地,,38,214,7970113,,,,,,,2025-09-08,1,,,,,フルリー,0
1867,8010003048656,新規,0,2025-09-08,2025-09-08,ＭＳ１合同会社,,合同会社,東京都,中央区,銀座８丁目１２番３号ＳＲビル５Ｆ,,13,102,1040061,,,,,,,2025-09-08,1,,,,,エムエスワン,0
1875,8010401192188,新規,0,2025-09-08,2025-09-08,ＡｄＮｏｖａ株式会社,,株式会社,東京都,港区,東麻布１丁目９－１１－１４０３,,13,103,1060044,,,,,,,2025-09-08,1,,,,,アドノバ,0
1877,8010401192774,新規,0,2025-09-08,2025-09-08,Ｄ．Ａｇｅｎｔ株式会社,,株式会社,東京都,港区,北青山１丁目３－３三橋ビル３階,,13,103,1070061,,,,,,,2025-09-08,1,,,,,ディーエージェント,0
1878,8010401192782,新規,0,2025-09-08,2025-09-08,ハンドル株式会社,,株式会社,東京都,港区,南青山５丁目４番３５号,,13,103,1070062,,,,,,,2025-09-08,1,,,,,ハンドル,0
1879,8010401192840,新規,0,2025-09-08,2025-09-08,Ｖｉｃｔｕｒａ　Ｔｅｃｈｎｏｌｏｇｉｅｓ株式会社,,株式会社,東京都,港区,麻布台１丁目１１番１０号日総第２２ビル５階,,13,103,1060041,,,,,,,2025-09-08,1,,,,,ヴィクトゥラテクノロジーズ,0
1880,8010401192857,新規,0,2025-09-08,2025-09-08,株式会社ＮＯＤＡ　Ｈｏｌｄｉｎｇｓ,,株式会社,東京都,港区,北青山２丁目１０番２８号リヘイビル１Ｆ,,13,103,1070061,,,,,,,2025-09-08,1,,,,,ノダホールディングス,0
1881,8010401192898,新規,0,2025-09-08,2025-09-08,株式会社Ａｃｃｅｌ　Ｃｏｎｎｅｃｔ,,株式会社,東京都,港区,北青山１丁目３番３号三橋ビル３階,,13,103,1070061,,,,,,,2025-09-08,1,,,,,アクセルコネクト,0
1882,8010401192923,新規,0,2025-09-08,2025-09-08,くじらエクスプレス株式会社,,株式会社,東京都,港区,麻布十番３丁目３番９号－７Ｆ,,13,103,1060045,,,,,,,2025-09-08,1,,,,,クジラエクスプレス,0
1887,8010403035972,新規,0,2025-09-08,2025-09-08,ＮｅｗＡｒｃ合同会社,,合同会社,東京都,港区,南青山２丁目２番１５号,,13,103,1070062,,,,,,,2025-09-08,1,,,,,ニューアーク,0
1890,8010501054668,新規,0,2025-09-08,2025-09-08,布和雅株式会社,,株式会社,東京都,台東区,西浅草２丁目２５－３,,13,106,1110035,,,,,,,2025-09-08,1,,,,,フワガ,0
1895,8010801036564,新規,0,2025-09-08,2025-09-08,株式会社Ｚａｂａａａｎ,,株式会社,東京都,大田区,大森西１丁目１９番３－７０３号,,13,111,1430015,,,,,,,2025-09-08,1,,,,,ザバーン,0
1896,8010801036572,新規,0,2025-09-08,2025-09-08,遠景株式会社,,株式会社,東京都,大田区,大森北３丁目４－４ＫＴ大森北ビル４－Ｃ号室,,13,111,1430016,,,,,,,2025-09-08,1,,,,,エンケイ,0
1906,8010905004830,新規,0,2025-09-08,2025-09-08,一般社団法人アジア・パシフィック環境教育基金,,その他の設立登記法人,東京都,世田谷区,桜新町１丁目１９番１０号,,13,112,1540015,,,,,,,2025-09-08,1,,,,,アジアパシフィックカンキョウキョウイクキキン,0
1913,8011001171755,新規,0,2025-09-08,2025-09-08,株式会社ザデイズ,,株式会社,東京都,渋谷区,恵比寿西２丁目８番４号ＥＸ恵比寿西ビル５階,,13,113,1500021,,,,,,,2025-09-08,1,,,,,ザデイズ,0
1915,8011003022304,新規,0,2025-09-08,2025-09-08,合同会社オフィス紺屋,,合同会社,東京都,渋谷区,道玄坂１丁目１０番８号渋谷道玄坂東急ビル２Ｆ－Ｃ,,13,113,1500043,,,,,,,2025-09-08,1,,,,,オフィスコウヤ,0
1916,8011003022312,新規,0,2025-09-08,2025-09-08,ビッグマウント合同会社,,合同会社,東京都,目黒区,八雲３丁目８番１８号,,13,110,1520023,,,,,,,2025-09-08,1,,,,,ビッグマウント,0
1920,8011101112873,新規,0,2025-09-08,2025-09-08,株式会社ビーケーシー,,株式会社,東京都,新宿区,新宿６丁目２９番７号ウィステリアウッズ５０１号,,13,104,1600022,,,,,,,2025-09-08,1,,,,,ビーケーシー,0
1921,8011101112907,新規,0,2025-09-08,2025-09-08,ＺＷＳ　Ｉｎｖｅｓｔｍｅｎｔ　ＫＫ株式会社,,株式会社,東京都,新宿区,上落合１丁目７－１３－２０５,,13,104,1610034,,,,,,,2025-09-08,1,,,,,ズィーダブリュエスインベストメントケーケー,0
1922,8011101112948,新規,0,2025-09-08,2025-09-08,株式会社ＭＹＤＵＯ,,株式会社,東京都,新宿区,歌舞伎町２丁目９番１８号ライオンズプラザ新宿Ｂ１－１１,,13,104,1600021,,,,,,,2025-09-08,1,,,,,エムワイデュオ,0
1923,8011101113062,新規,0,2025-09-08,2025-09-08,新地国際株式会社,,株式会社,東京都,新宿区,早稲田鶴巻町５０８番地５,,13,104,1620041,,,,,,,2025-09-08,1,,,,,シンチコクサイ,0
1924,8011103016346,新規,0,2025-09-08,2025-09-08,合同会社ジェイ・ジー・エス,,合同会社,東京都,新宿区,下宮比町１番４号,,13,104,1620822,,,,,,,2025-09-08,1,,,,,ジェイジーエス,0
1927,8011201026619,新規,0,2025-09-08,2025-09-08,株式会社ＬＯＣＡＬ　ＳＥＲＶＩＣＥ,,株式会社,東京都,中野区,野方６丁目１５番２号リバーマンション３０３,,13,114,1650027,,,,,,,2025-09-08,1,,,,,ローカルサービス,0
1934,8011305003068,新規,0,2025-09-08,2025-09-08,医療法人社団友松会,,その他の設立登記法人,東京都,杉並区,上井草３丁目３１番２１号,,13,115,1670023,,,,,,,2025-09-08,1,,,,,トモマツカイ,0
1936,8011701028692,新規,0,2025-09-08,2025-09-08,株式会社ＭＫガレージ,,株式会社,東京都,江戸川区,西小松川町３１番６号片山ビル１階,,13,123,1320032,,,,,,,2025-09-08,1,,,,,エムケーガレージ,0
1940,8012401043544,新規,0,2025-09-08,2025-09-08,株式会社ＦＵＫＩＡＧＥ,,株式会社,東京都,調布市,小島町１丁目２１番地６アジャンタ調布ＩＩ１階,00140554,13,208,1820026,,,,,,,2025-09-08,1,,,,,フキアゲ,0
1956,8020001164140,新規,0,2025-09-08,2025-09-08,株式会社Ｍ＆Ａ計画,,株式会社,神奈川県,横浜市鶴見区,小野町４３－３コンアルマーディオ横濱鶴見１００１,,14,101,2300046,,,,,,,2025-09-08,1,,,,,エムアンドエーケイカク,0
1957,8020001164652,新規,0,2025-09-08,2025-09-08,株式会社ＡＲＫ　ＤＩＧＩＴＡＬ　ＥＮＴＥＲＴＡＩＮＭＥＮＴ,,株式会社,神奈川県,川崎市宮前区,宮前平３丁目１１番地１テラスワン２０１,,14,136,2160006,,,,,,,2025-09-08,1,,,,,アークデジタルエンターテイメント,0
1965,8020003029275,新規,0,2025-09-08,2025-09-08,合同会社神金設備,,合同会社,神奈川県,横浜市鶴見区,下末吉５丁目３２番１７－２０３号,,14,101,2300012,,,,,,,2025-09-08,1,,,,,カミキンセツビ,0
1966,8020003029341,新規,0,2025-09-08,2025-09-08,合同会社Ｂｌｕｅｓ,,合同会社,神奈川県,横浜市西区,平沼１丁目４０番９‐３１２号,,14,103,2200023,,,,,,,2025-09-08,1,,,,,ブルース,0
1969,8021001086151,新規,0,2025-09-08,2025-09-08,Ｌｕｍｉｎｏｕｓ株式会社,,株式会社,神奈川県,相模原市緑区,西橋本５丁目２番１３－１６０７号,,14,151,2520131,,,,,,,2025-09-08,1,,,,,ルミナス,0
1977,8030001168504,新規,0,2025-09-08,2025-09-08,株式会社２Ｈ　ＤＡＹ,,株式会社,埼玉県,さいたま市北区,植竹町１丁目５４２番地１－３０１,,11,102,3310813,,,,,,,2025-09-08,1,,,,,ツーエイチデイ,0
1978,8030001168529,新規,0,2025-09-08,2025-09-08,株式会社ＹＭＴ,,株式会社,埼玉県,さいたま市北区,宮原町２丁目１１２番地４３,,11,102,3310812,,,,,,,2025-09-08,1,,,,,ワイエムティー,0
1980,8030003027410,新規,0,2025-09-08,2025-09-08,合同会社だるまさん,,合同会社,埼玉県,川口市,北原台１丁目１７‐２５第２ユタカハイム１０３号室,,11,203,3330815,,,,,,,2025-09-08,1,,,,,ダルマサン,0
1981,8030003027550,新規,0,2025-09-08,2025-09-08,ヘイディズ・フード合同会社,,合同会社,埼玉県,川口市,芝新町７ー９,,11,203,3330851,,,,,,,2025-09-08,1,,,,,ヘイディズフード,0
1982,8030005022260,新規,0,2025-09-08,2025-09-08,一般社団法人プロフェッショナルスポーツコーチング協会,,その他の設立登記法人,埼玉県,久喜市,佐間５３４番地１,,11,232,3491124,,,,,,,2025-09-08,1,,,,,プロフェッショナルスポーツコーチングキョウカイ,0
1986,8040001140362,新規,0,2025-09-08,2025-09-08,株式会社ソリッド,,株式会社,千葉県,松戸市,大谷口３５０番地,,12,207,2700005,,,,,,,2025-09-08,1,,,,,ソリッド,0
1987,8040001140370,新規,0,2025-09-08,2025-09-08,株式会社カマロ８,,株式会社,千葉県,木更津市,牛込１４３３番地１,,12,206,2920001,,,,,,,2025-09-08,1,,,,,カマロエイト,0
1988,8040001140387,新規,0,2025-09-08,2025-09-08,株式会社プライムジャパン,,株式会社,千葉県,八千代市,大和田８０９番地２中央パレス１０２号室,,12,221,2760045,,,,,,,2025-09-08,1,,,,,プライムジャパン,0
1989,8040001140412,新規,0,2025-09-08,2025-09-08,株式会社けーいちろースタイル,,株式会社,千葉県,東金市,二之袋１１０７番地１,,12,213,2830052,,,,,,,2025-09-08,1,,,,,ケーイチロースタイル,0
1992,8040003028481,新規,0,2025-09-08,2025-09-08,合同会社ＤＭ３６号,,合同会社,千葉県,柏市,柏４丁目５番１０号,,12,217,2770005,,,,,,,2025-09-08,1,,,,,ディーエムサンジュウロクゴウ,0
2000,8070001043323,新規,0,2025-09-08,2025-09-08,株式会社万歳技研,,株式会社,群馬県,高崎市,芝塚町１９５８－１ＫＩＣＯＲＴ３０３,,10,202,3700064,,,,,,,2025-09-08,1,,,,,,0
2001,8080001027127,新規,0,2025-09-08,2025-09-08,株式会社ｉ　ｃｏｎｎｅｃｔ,,株式会社,静岡県,焼津市,三ケ名３０２番地の３,,22,212,4250071,,,,,,,2025-09-08,1,,,,,アイコネクト,0
2006,8080101025773,新規,0,2025-09-08,2025-09-08,株式会社Ｍ‐ｆｌｏｗ,,株式会社,静岡県,沼津市,上香貫宮原町１５３３番地の１,,22,203,4100813,,,,,,,2025-09-08,1,,,,,エムフロウ,0
2008,8080403005341,新規,0,2025-09-08,2025-09-08,合同会社ぶどうの木,,合同会社,静岡県,浜松市中央区,幸５丁目５番３３号,,22,138,4338123,,,,,,,2025-09-08,1,,,,,ブドウノキ,0
2010,8090001019494,新規,0,2025-09-08,2025-09-08,山梨ＢＡＮＴＥＣ株式会社,,株式会社,山梨県,甲府市,上町９２５番地,,19,201,4000831,,,,,,,2025-09-08,1,,,,,ヤマナシバンテック,0
2011,8110001039564,新規,0,2025-09-08,2025-09-08,株式会社衣歩組,,株式会社,新潟県,南魚沼市,岡２番地１,,15,226,9497122,,,,,,,2025-09-08,1,,,,,イブグミ,0
2020,8120001279341,新規,0,2025-09-08,2025-09-08,株式会社ｍｕｍ不動産,,株式会社,大阪府,大阪市西区,靱本町２丁目２番２２－２０２号,,27,106,5500004,,,,,,,2025-09-08,1,,,,,マムフドウサン,0
2021,8120001279382,新規,0,2025-09-08,2025-09-08,株式会社ＳＯＲＡ,,株式会社,大阪府,大阪市淀川区,十三東３丁目２７番２号,,27,123,5320023,,,,,,,2025-09-08,1,,,,,ソラ,0
2024,8120003030470,新規,0,2025-09-08,2025-09-08,合同会社ＢＡＣＨ　ＴＲＡＤＩＮＧ,,合同会社,大阪府,大阪市西成区,南津守７丁目１４番６号グリーンマンション３０７号,,27,122,5570063,,,,,,,2025-09-08,1,,,,,バックトレーディング,0
2025,8120003030495,新規,0,2025-09-08,2025-09-08,合同会社ＲＣＳ,,合同会社,大阪府,大阪市西成区,山王１丁目５番８号レジデンス阿倍野１０１号,,27,122,5570001,,,,,,,2025-09-08,1,,,,,アールシーエス,0
2026,8120101072398,新規,0,2025-09-08,2025-09-08,株式会社ＭＡＤＡＮＡＮＤＯ,,株式会社,大阪府,富田林市,廿山２丁目６番５３号,,27,214,5840081,,,,,,,2025-09-08,1,,,,,マダナンド,0
2030,8130001080401,新規,0,2025-09-08,2025-09-08,株式会社優創アーキテクト,,株式会社,京都府,京都市中京区,岩上町７４１番地リライブ堀川２０１,,26,104,6048341,,,,,,,2025-09-08,1,,,,,ユウソウアーキテクト,0
2031,8130001080483,新規,0,2025-09-08,2025-09-08,株式会社Ｖｅｒｔｉｃａｌｓ,,株式会社,京都府,京都市下京区,玉津島町２９４番地,,26,106,6008427,,,,,,,2025-09-08,1,,,,,ヴァーティカルズ,0
2034,8140001139907,新規,0,2025-09-08,2025-09-08,株式会社オルウェイズ,,株式会社,兵庫県,西宮市,甲子園浦風町１４番２０号テラスハウス甲子園１０１,,28,204,6638165,,,,,,,2025-09-08,1,,,,,オルウェイズ,0
2035,8140001139931,新規,0,2025-09-08,2025-09-08,真正電工株式会社,,株式会社,兵庫県,加古川市,尾上町池田４３６番地の２,,28,210,6750023,,,,,,,2025-09-08,1,,,,,シンセイデンコウ,0
2055,8180001168448,新規,0,2025-09-08,2025-09-08,株式会社吉戸業務店,,株式会社,愛知県,小牧市,大山中５９番地,,23,219,4850000,,,,,,,2025-09-08,1,,,,,ヨシトギョウムテン,0
2056,8180001168472,新規,0,2025-09-08,2025-09-08,株式会社Ｃｏｎｄｉｏｓ,,株式会社,愛知県,名古屋市港区,小碓２丁目７８番地の２,,23,111,4550801,,,,,,,2025-09-08,1,,,,,コンディオス,0
2057,8180001168489,新規,0,2025-09-08,2025-09-08,株式会社カナエ堂,,株式会社,愛知県,名古屋市北区,西味鋺１丁目１３０番地宝西味鋺ハイツ３０８号,,23,103,4620016,,,,,,,2025-09-08,1,,,,,カナエドウ,0
2058,8180001168497,新規,0,2025-09-08,2025-09-08,ＬＯＮＧＧＡＭＥ株式会社,,株式会社,愛知県,名古屋市中村区,名駅４丁目２４番５号第２森ビル４０１,,23,105,4500002,,,,,,,2025-09-08,1,,,,,ロングゲーム,0
2059,8180001168514,新規,0,2025-09-08,2025-09-08,コアＩＴソリューションズ株式会社,,株式会社,愛知県,名古屋市中村区,名駅３丁目９番６号,,23,105,4500002,,,,,,,2025-09-08,1,,,,,コアアイティーソリューションズ,0
2060,8180001168530,新規,0,2025-09-08,2025-09-08,Ａｌｉ　ｔｒａｄｉｎｇ株式会社,,株式会社,愛知県,名古屋市港区,宝神町字西屋敷１１１３番地、司マンション宝神３０２,,23,111,4550833,,,,,,,2025-09-08,1,,,,,アリトレーディング,0
2064,8180002081229,新規,0,2025-09-08,2025-09-08,有限会社ヨシゼンホーセイ,,有限会社,愛知県,稲沢市,祖父江町四貫堤外６８番地の２,,23,220,4950033,,,,,,,2025-09-08,1,,,,,,0
2069,8180301040182,新規,0,2025-09-08,2025-09-08,株式会社ＳＭＫＴ,,株式会社,愛知県,西尾市,熊味町小松島５４番地１,,23,213,4450071,,,,,,,2025-09-08,1,,,,,エスエムケーティー,0
2070,8190001032520,新規,0,2025-09-08,2025-09-08,桔梗インターナショナル株式会社,,株式会社,三重県,三重郡川越町,大字南福崎４０８番地４,,24,344,5108124,,,,,,,2025-09-08,1,,,,,キキョウインターナショナル,0
2073,8230001021072,新規,0,2025-09-08,2025-09-08,株式会社ハルアキ,,株式会社,富山県,魚津市,釈迦堂１丁目１６番２２号司ビル２階,,16,204,9370067,,,,,,,2025-09-08,1,,,,,ハルアキ,0
2079,8260001040499,新規,0,2025-09-08,2025-09-08,ＯＹ株式会社,,株式会社,岡山県,岡山市中区,桜橋２丁目２番５号月光旭川リバーサイド弐番館１０３,,33,102,7038285,,,,,,,2025-09-08,1,,,,,オーワイ,0
2080,8260001040516,新規,0,2025-09-08,2025-09-08,株式会社林白,,株式会社,岡山県,岡山市北区,富町２丁目９－７ファミールミモザ富町３０１,,33,101,7000031,,,,,,,2025-09-08,1,,,,,リンバイ,0
2081,8260001040540,新規,0,2025-09-08,2025-09-08,株式会社Ａｑｚｏｏ,,株式会社,岡山県,岡山市北区,津島中３丁目１―１岡山大学共創イノベーションラボ,,33,101,7000082,,,,,,,2025-09-08,1,,,,,アクズー,0
2089,8290005019826,新規,0,2025-09-08,2025-09-08,一般社団法人青少年みらい自立支援協会,,その他の設立登記法人,福岡県,飯塚市,堀池１２１番地１Ｂ号室,,40,205,8200070,,,,,,,2025-09-08,1,,,,,セイショウネンミライジリツシエンキョウカイ,0
2096,8290803005151,新規,0,2025-09-08,2025-09-08,合同会社真珠,,合同会社,福岡県,北九州市若松区,塩屋４丁目２３番５号,,40,103,8080131,,,,,,,2025-09-08,1,,,,,シンジュ,0
2100,8330001033537,新規,0,2025-09-08,2025-09-08,株式会社ＣＬＡＳＳ,,株式会社,熊本県,宇土市,住吉町７０－２,,43,211,8690401,,,,,,,2025-09-08,1,,,,,クラス,0
2101,8330001033553,新規,0,2025-09-08,2025-09-08,株式会社ＡＩＲＥＡＬ,,株式会社,熊本県,菊池郡菊陽町,光の森７丁目４９番地２０,,43,404,8691108,,,,,,,2025-09-08,1,,,,,アイリアル,0
2107,8360003015233,新規,0,2025-09-08,2025-09-08,合同会社クロスゲート,,合同会社,沖縄県,那覇市,牧志２丁目１７番２７号４０１,,47,201,9000013,,,,,,,2025-09-08,1,,,,,クロスゲート,0
2111,8370001053028,新規,0,2025-09-08,2025-09-08,Ｉｎｆｉｎｉｔｅ　Ｔｅｃｈｎｏｌｏｇｉｅｓ株式会社,,株式会社,宮城県,仙台市青葉区,一番町４丁目１番１６号ＨＹビル３階,,04,101,9800811,,,,,,,2025-09-08,1,,,,,インフィニットテクノロジーズ,0
2115,8380005013002,新規,0,2025-09-08,2025-09-08,一般社団法人ファーマーズ北方,,その他の設立登記法人,福島県,石川郡平田村,大字駒形字金作２３番地,,07,503,9638113,,,,,,,2025-09-08,1,,,,,ファーマーズキタカタ,0
2120,8430003018055,新規,0,2025-09-08,2025-09-08,合同会社Ａ‐Ｈａｒｂｏｒ,,合同会社,北海道,札幌市白石区,中央一条６丁目２番１０号,,01,104,0030011,,,,,,,2025-09-08,1,,,,,エーハーバー,0
2126,8480001012939,新規,0,2025-09-08,2025-09-08,株式会社フジカワファーマシー,,株式会社,徳島県,三好郡東みよし町,昼間９２３番地１,,36,489,7712501,,,,,,,2025-09-08,1,,,,,フジカワファーマシー,0
2127,8490001011155,新規,0,2025-09-08,2025-09-08,株式会社ＦＡＲＯ,,株式会社,高知県,香南市,夜須町手結山５６２番地１２,,39,211,7815622,,,,,,,2025-09-08,1,,,,,ファロ,0
2139,9010001258314,新規,0,2025-09-08,2025-09-08,ケティワークス株式会社,,株式会社,東京都,中央区,銀座１丁目１２－４Ｎ＆ＥＢＬＤ．７階,,13,102,1040061,,,,,,,2025-09-08,1,,,,,ケティワークス,0
2140,9010003048655,新規,0,2025-09-08,2025-09-08,ＡＡＺ　Ｌａｂｏ合同会社,,合同会社,東京都,文京区,千石４丁目１４番９号,,13,105,1120011,,,,,,,2025-09-08,1,,,,,エーエーゼットラボ,0
2144,9010005040610,新規,0,2025-09-08,2025-09-08,一般社団法人美食都市研究会,,その他の設立登記法人,東京都,中央区,日本橋蛎殻町１丁目５番地６号盛田ビル３Ｆ（料理王国事務所内）,,13,102,1030014,,,,,,,2025-09-08,1,,,,,ビショクトシケンキュウカイ,0
2146,9010103002644,新規,0,2025-09-08,2025-09-08,Ｋｎｏｗ．Ｉｇ合同会社,,合同会社,東京都,八王子市,七国２丁目３３番１４号,,13,201,1920919,,,,,,,2025-09-08,1,,,,,ノウイグ,0
2153,9010401192831,新規,0,2025-09-08,2025-09-08,株式会社Ｊ．フロントプライムスペース,,株式会社,東京都,港区,東新橋２丁目３番１７号,,13,103,1050021,,,,,,,2025-09-08,1,,,,,ジェイフロントプライムスペース,0
2154,9010401192880,新規,0,2025-09-08,2025-09-08,ＥＲ　ＳＰＯＲＴＳ株式会社,,株式会社,東京都,港区,南青山６丁目７番８－８０５号,,13,103,1070062,,,,,,,2025-09-08,1,,,,,イーアールスポーツ,0
2155,9010403035955,新規,0,2025-09-08,2025-09-08,合同会社クリシュナ,,合同会社,東京都,港区,北青山１丁目３番１号アールキューブ青山３階,,13,103,1070061,,,,,,,2025-09-08,1,,,,,クリシュナ,0
2156,9010403035963,新規,0,2025-09-08,2025-09-08,合同会社ストレージ宮崎２号蓄電所,,合同会社,東京都,港区,麻布永坂町１番地,,13,103,1060043,,,,,,,2025-09-08,1,,,,,ストレージミヤザキニゴウチクデンショ,0
2157,9010403035996,新規,0,2025-09-08,2025-09-08,合同会社Ｔ＆Ｄ不動産,,合同会社,東京都,港区,高輪１丁目２７番３７－２８０６号,,13,103,1080074,,,,,,,2025-09-08,1,,,,,ティーアンドディーフドウサン,0
2169,9010901058045,新規,0,2025-09-08,2025-09-08,ＬｉｆｅＣｕｒａｔｅ株式会社,,株式会社,東京都,世田谷区,上用賀６丁目３番１９号,,13,112,1580098,,,,,,,2025-09-08,1,,,,,ライフキュレート,0
2171,9010903010243,新規,0,2025-09-08,2025-09-08,新垣酒店合同会社,,合同会社,東京都,世田谷区,玉川３丁目７－１川渕ビル１階,,13,112,1580094,,,,,,,2025-09-08,1,,,,,アラカキサケテン,0
2175,9011001171770,新規,0,2025-09-08,2025-09-08,株式会社ｓｃｒｅｅｎ,,株式会社,東京都,渋谷区,富ヶ谷１丁目１４番１２号,,13,113,1510063,,,,,,,2025-09-08,1,,,,,スクリーン,0
2176,9011001171779,新規,0,2025-09-08,2025-09-08,株式会社Ｍ’ｓ　ｃｈｏｉｃｅ,,株式会社,東京都,渋谷区,神南１丁目１１番４号ＦＰＧリンクス神南５階,,13,113,1500041,,,,,,,2025-09-08,1,,,,,エムズチョイス,0
2177,9011001171787,新規,0,2025-09-08,2025-09-08,株式会社瑞陽国際,,株式会社,東京都,渋谷区,神南１丁目１１番４号ＦＰＧリンクス神南５階,,13,113,1500041,,,,,,,2025-09-08,1,,,,,ルイヤンコクサイ,0
2178,9011001171795,新規,0,2025-09-08,2025-09-08,ＬＥＴＴＯ株式会社,,株式会社,東京都,渋谷区,道玄坂１丁目１０番８号渋谷道玄坂東急ビル２Ｆ－Ｃ,,13,113,1500043,,,,,,,2025-09-08,1,,,,,レット,0
2179,9011001171804,新規,0,2025-09-08,2025-09-08,未来電創株式会社,,株式会社,東京都,渋谷区,道玄坂１丁目１８番３号７Ｆ,,13,113,1500043,,,,,,,2025-09-08,1,,,,,ミライデンソウ,0
2180,9011001172109,新規,0,2025-09-08,2025-09-08,株式会社プレスモア,,株式会社,東京都,渋谷区,恵比寿南１丁目４番２号紀伊國屋ビル４階,,13,113,1500022,,,,,,,2025-09-08,1,,,,,プレスモア,0
2181,9011001172389,新規,0,2025-09-08,2025-09-08,株式会社ソリロキービジョン,,株式会社,東京都,渋谷区,円山町６－７渋谷アムフラット１Ｆ,,13,113,1500044,,,,,,,2025-09-08,1,,,,,ソリロキービジョン,0
2185,9011003022303,新規,0,2025-09-08,2025-09-08,合同会社ＡＬＬ　ＬＩＮＥ,,合同会社,東京都,目黒区,目黒本町５丁目１１番５号,,13,110,1520002,,,,,,,2025-09-08,1,,,,,オールライン,0
2186,9011003022311,新規,0,2025-09-08,2025-09-08,合同会社ＲＯＳＳＹ　ＷＯＲＬＤ,,合同会社,東京都,渋谷区,恵比寿西２丁目４番地８号ウィンド恵比寿ビル８Ｆ,,13,113,1500021,,,,,,,2025-09-08,1,,,,,ロッシーワールド,0
2191,9011101112889,新規,0,2025-09-08,2025-09-08,株式会社飛栄,,株式会社,東京都,新宿区,左門町２－５ミクニ四谷ビル４階,,13,104,1600017,,,,,,,2025-09-08,1,,,,,ヒエイ,0
2194,9011103016345,新規,0,2025-09-08,2025-09-08,合同会社ジェイ・ジー・アール,,合同会社,東京都,新宿区,下宮比町１番４号,,13,104,1620822,,,,,,,2025-09-08,1,,,,,ジェイジーアール,0
2203,9011703004369,新規,0,2025-09-08,2025-09-08,三江貿易合同会社,,合同会社,東京都,江戸川区,東小岩５丁目３７－１２、２０９号,,13,123,1330052,,,,,,,2025-09-08,1,,,,,サンコウボウエキ,0
2210,9013301054911,新規,0,2025-09-08,2025-09-08,ＯｐｔｉＶｅｒｓｅ株式会社,,株式会社,東京都,豊島区,南池袋１丁目１６番１５号ダイヤゲート池袋５階,,13,116,1710022,,,,,,,2025-09-08,1,,,,,オプティバース,0
2215,9020001164536,新規,0,2025-09-08,2025-09-08,株式会社ＯＦＦＩＣＥ　Ｍ,,株式会社,神奈川県,横浜市西区,戸部町４丁目１７１番地１,,14,103,2200042,,,,,,,2025-09-08,1,,,,,オフィスエム,0
2216,9020001164692,新規,0,2025-09-08,2025-09-08,Ｔ’ｓ株式会社,,株式会社,神奈川県,横浜市鶴見区,駒岡２丁目６番１１号,,14,101,2300071,,,,,,,2025-09-08,1,,,,,ティーズ,0
2219,9020003029191,新規,0,2025-09-08,2025-09-08,合同会社Ｒｅｖｉｖｅ,,合同会社,神奈川県,横浜市鶴見区,豊岡町１４－２７,,14,101,2300062,,,,,,,2025-09-08,1,,,,,リバイブ,0
2238,9030003027517,新規,0,2025-09-08,2025-09-08,合同会社斎藤ボーリング,,合同会社,埼玉県,春日部市,南１丁目１９番１号,,11,214,3440064,,,,,,,2025-09-08,1,,,,,サイトウボーリング,0
2242,9040001140361,新規,0,2025-09-08,2025-09-08,盛源株式会社,,株式会社,千葉県,千葉市花見川区,千種町２４１番地７,,12,102,2620012,,,,,,,2025-09-08,1,,,,,セイゲン,0
2243,9040001140378,新規,0,2025-09-08,2025-09-08,株式会社ＡＴ企画,,株式会社,千葉県,市川市,南八幡３丁目２番７号、１０１号室,,12,203,2720023,,,,,,,2025-09-08,1,,,,,エーティーキカク,0
2247,9040003028480,新規,0,2025-09-08,2025-09-08,合同会社ＤＭ３９号,,合同会社,千葉県,柏市,柏４丁目５番１０号,,12,217,2770005,,,,,,,2025-09-08,1,,,,,ディーエムサンジュウキュウゴウ,0
2252,9050001057233,新規,0,2025-09-08,2025-09-08,株式会社ふるさと工房,,株式会社,茨城県,水戸市,鯉淵町５９８６番地,,08,201,3190323,,,,,,,2025-09-08,1,,,,,フルサトコウボウ,0
2255,9060001038546,新規,0,2025-09-08,2025-09-08,株式会社ＮＥＸＴ,,株式会社,栃木県,さくら市,氏家３２９０番地１８,,09,214,3291311,,,,,,,2025-09-08,1,,,,,ネクスト,0
2260,9070001043314,新規,0,2025-09-08,2025-09-08,株式会社レイテック,,株式会社,群馬県,富岡市,妙義町下高田３０６番地３,,10,210,3702412,,,,,,,2025-09-08,1,,,,,レイテック,0
2261,9080001027126,新規,0,2025-09-08,2025-09-08,株式会社青木農園,,株式会社,静岡県,静岡市清水区,杉山６２１番地,,22,103,4240106,,,,,,,2025-09-08,1,,,,,アオキノウエン,0
2284,9120001279175,新規,0,2025-09-08,2025-09-08,東悦株式会社,,株式会社,大阪府,大阪市淀川区,十三本町１丁目９番２０－３１０号,,27,123,5320024,,,,,,,2025-09-08,1,,,,,トウエツ,0
2285,9120001279381,新規,0,2025-09-08,2025-09-08,株式会社ユニティ,,株式会社,大阪府,大阪市北区,豊崎３丁目２０番１７－７０３号,,27,127,5310072,,,,,,,2025-09-08,1,,,,,ユニティ,0
2286,9120001279654,新規,0,2025-09-08,2025-09-08,株式会社リモフリ,,株式会社,大阪府,大阪市北区,梅田１丁目２番２号大阪駅前第２ビル１２‐１２,,27,127,5300001,,,,,,,2025-09-08,1,,,,,リモフリ,0
2295,9140001139889,新規,0,2025-09-08,2025-09-08,株式会社ちょびっとカップル,,株式会社,兵庫県,神戸市西区,南別府１丁目５番地の１２,,28,111,6512116,,,,,,,2025-09-08,1,,,,,チョビットカップル,0
2296,9140001139906,新規,0,2025-09-08,2025-09-08,ライウェイ株式会社,,株式会社,兵庫県,神戸市兵庫区,中道通７丁目２番１５号,,28,105,6520801,,,,,,,2025-09-08,1,,,,,ライウェイ,0
2303,9160001027027,新規,0,2025-09-08,2025-09-08,株式会社ＨｅａｖｅｎＳｅａ,,株式会社,滋賀県,守山市,浮気町２４１番地６６,,25,207,5240033,,,,,,,2025-09-08,1,,,,,,0
2304,9160003003595,新規,0,2025-09-08,2025-09-08,合同会社ナカイ,,合同会社,滋賀県,守山市,吉身町７－４－９－５０,,25,207,5240021,,,,,,,2025-09-08,1,,,,,ナカイ,0
2305,9170001018776,新規,0,2025-09-08,2025-09-08,こねくと株式会社,,株式会社,和歌山県,伊都郡かつらぎ町,大字笠田東９７番地２,,30,341,6497161,,,,,,,2025-09-08,1,,,,,コネクト,0
2311,9180001168538,新規,0,2025-09-08,2025-09-08,株式会社おそうぎネット,,株式会社,愛知県,名古屋市守山区,青葉台２１５番地,,23,113,4630815,,,,,,,2025-09-08,1,,,,,オソウギネット,0
2312,9180001168562,新規,0,2025-09-08,2025-09-08,Ａｕｔｏｎｏｍｙ　Ｄｙｎａｍｉｃｓ株式会社,,株式会社,愛知県,名古屋市中村区,井深町１６番１１号,,23,105,4530012,,,,,,,2025-09-08,1,,,,,オートノミーダイナミクス,0
2313,9180001168570,新規,0,2025-09-08,2025-09-08,株式会社サンライズ,,株式会社,愛知県,名古屋市中村区,名駅４丁目２４番５号,,23,105,4500002,,,,,,,2025-09-08,1,,,,,サンライズ,0
2321,9180003028987,新規,0,2025-09-08,2025-09-08,ふうでぃー合同会社,,合同会社,愛知県,春日井市,知多町３丁目１３１番地７,,23,206,4860947,,,,,,,2025-09-08,1,,,,,フウディー,0
2324,9190001032511,新規,0,2025-09-08,2025-09-08,ハットリケンチク株式会社,,株式会社,三重県,三重郡菰野町,大字榊８０１番地３,00140553,24,341,5101325,,,,,,,2025-09-08,1,,,,,ハットリケンチク,0
2336,9220001026914,新規,0,2025-09-08,2025-09-08,ｅ‐Ｐｏｃｋｅｔ株式会社,,株式会社,石川県,金沢市,兼六元町１５番２８号,,17,201,9200931,,,,,,,2025-09-08,1,,,,,イーポケット,0
2340,9240001065472,新規,0,2025-09-08,2025-09-08,株式会社ＵＮＩＴＥ,,株式会社,広島県,広島市安芸区,矢野西４丁目６番３号,,34,107,7360085,,,,,,,2025-09-08,1,,,,,ユナイト,0
2342,9260001040515,新規,0,2025-09-08,2025-09-08,株式会社ＯｆｆｉｃｅＱ,,株式会社,岡山県,岡山市北区,磨屋町３－１０（２Ｆ）ＴＯＧＩＴＯＧＩ,,33,101,7000826,,,,,,,2025-09-08,1,,,,,オフィスキュー,0
2349,9320001021327,新規,0,2025-09-08,2025-09-08,株式会社Ｗｉｔｈ　Ｉｎｎ,,株式会社,大分県,大分市,高松１丁目７番８号サンメゾン高城１０２号室,,44,201,8700917,,,,,,,2025-09-08,1,,,,,ウィズイン,0
2351,9330001033544,新規,0,2025-09-08,2025-09-08,株式会社Ｍｏ．ｕｓｅ,,株式会社,熊本県,熊本市西区,花園１丁目１３番２３号,,43,103,8600072,,,,,,,2025-09-08,1,,,,,マウス,0
2352,9330001033552,新規,0,2025-09-08,2025-09-08,株式会社西青果,,株式会社,熊本県,菊池市,旭志伊坂８１５番地１,,43,210,8691206,,,,,,,2025-09-08,1,,,,,ニシセイカ,0
2353,9330001033560,新規,0,2025-09-08,2025-09-08,株式会社イング,,株式会社,熊本県,熊本市西区,横手４丁目２１番４１号,,43,103,8600046,,,,,,,2025-09-08,1,,,,,イング,0
2358,9360003015232,新規,0,2025-09-08,2025-09-08,合同会社ＬＦｏｒｇｅ,,合同会社,沖縄県,那覇市,山下町７番１９－６０２号ミオビエントアルファ山下,,47,201,9000027,,,,,,,2025-09-08,1,,,,,エルフォージ,0
2359,9370001053035,新規,0,2025-09-08,2025-09-08,株式会社ＣＨＩ,,株式会社,宮城県,大崎市,古川諏訪２丁目９番２３号,,04,215,9896175,,,,,,,2025-09-08,1,,,,,シーエッチアイ,0
2365,9430003018062,新規,0,2025-09-08,2025-09-08,Ｆｈｏｓ合同会社,,合同会社,北海道,札幌市西区,西野四条６丁目７番５号,,01,107,0630034,,,,,,,2025-09-08,1,,,,,フォス,0
2371,9470001020883,新規,0,2025-09-08,2025-09-08,株式会社やるやん,,株式会社,香川県,高松市,天神前１０番５号高松セントラルスカイビルディング,,37,201,7600018,,,,,,,2025-09-08,1,,,,,ヤルヤン,0
2372,9490001011154,新規,0,2025-09-08,2025-09-08,株式会社Ｓｕｋｕｍｏ　Ｇａｒｄｅｎ　Ｆａｒｍ,,株式会社,高知県,宿毛市,平田町黒川椋ノ木２０７７番地１,,39,208,7880781,,,,,,,2025-09-08,1,,,,,スクモガーデンファーム,0
