sequenceNumber,corporateNumber,process,correct,updateDate,changeDate,name,nameImageId,kind,prefectureName,cityName,streetNumber,addressImageId,prefectureCode,cityCode,postCode,addressOutside,addressOutsideImageId,closeDate,closeCause,successorCorporateNumber,changeCause,assignmentDate,latest,enName,enPrefectureName,enCityName,enAddressOutside,furigana,hihyoji
12,1010001237135,新規,0,2023-07-25,2023-07-25,ラビットフォレストリー株式会社,,株式会社,東京都,中央区,日本橋室町１丁目１１番１２号日本橋水野ビル７階,,13,102,1030022,,,,,,,2023-07-25,1,,,,,ラビットフォレストリー,0
13,1010005036995,新規,0,2023-07-25,2023-07-25,一般社団法人ＲＤソーラーパワー,,その他の設立登記法人,東京都,千代田区,丸の内３丁目１番１号東京共同会計事務所内,,13,101,1000005,,,,,,,2023-07-25,1,,,,,アールディーソーラーパワー,0
17,1010401175819,新規,0,2023-07-25,2023-07-25,株式会社ＩｎＦｉＮｉＴｅｅｔＨ,,株式会社,東京都,港区,西新橋２丁目６番３号Ｂ１,,13,103,1050003,,,,,,,2023-07-25,1,,,,,インフィニティース,0
18,1010401175843,新規,0,2023-07-25,2023-07-25,天元株式会社,,株式会社,東京都,港区,三田３丁目１番１９号第１２シグマビル６Ｆ,,13,103,1080073,,,,,,,2023-07-25,1,,,,,テンゲン,0
19,1010401175884,新規,0,2023-07-25,2023-07-25,デジタルギア株式会社,,株式会社,東京都,港区,芝５丁目３２番１２号,,13,103,1080014,,,,,,,2023-07-25,1,,,,,デジタルギア,0
20,1010401175959,新規,0,2023-07-25,2023-07-25,ＬＳ‐Ａｖｉａｔｉｏｎ第５５号株式会社,,株式会社,東京都,港区,六本木１丁目６番１号,,13,103,1060032,,,,,,,2023-07-25,1,,,,,エルエスアビエーションダイゴジュウゴゴウ,0
22,1010403030534,新規,0,2023-07-25,2023-07-25,ボストンプライム合同会社,,合同会社,東京都,港区,浜松町２丁目２番１５号浜松町ダイヤビル２Ｆ,,13,103,1050013,,,,,,,2023-07-25,1,,,,,ボストンプライム,0
23,1010403030550,新規,0,2023-07-25,2023-07-25,ＥＢアドバイザー合同会社,,合同会社,東京都,港区,六本木１丁目４番５号アークヒルズサウスタワー１６階,,13,103,1060032,,,,,,,2023-07-25,1,,,,,イービーアドバイザー,0
24,1010405022356,新規,0,2023-07-25,2023-07-25,一般社団法人地域再生土地流動化協会,,その他の設立登記法人,東京都,港区,赤坂２丁目２１－２第２村嶋ビル４０４,,13,103,1070052,,,,,,,2023-07-25,1,,,,,チイキサイセイトチリュウドウカキョウカイ,0
30,1010901053482,新規,0,2023-07-25,2023-07-25,株式会社ｉｔ　ｐａｙ,,株式会社,東京都,世田谷区,野毛１丁目１０番１９号ディアコート１０１,,13,112,1580092,,,,,,,2023-07-25,1,,,,,イットペイ,0
37,1011001155863,新規,0,2023-07-25,2023-07-25,株式会社エスケージー,,株式会社,東京都,渋谷区,神宮前３丁目３７番１－５０５号,,13,113,1500001,,,,,,,2023-07-25,1,,,,,エスケージー,0
48,1011103013283,新規,0,2023-07-25,2023-07-25,合同会社ネクスト,,合同会社,東京都,新宿区,西新宿７丁目５－５プラザ西新宿ＵＣＦ－４Ｆ,,13,104,1600023,,,,,,,2023-07-25,1,,,,,ネクスト,0
51,1011303004842,新規,0,2023-07-25,2023-07-25,合同会社あつまるところ,,合同会社,東京都,杉並区,下井草５丁目１９－１２（みんなの街の駅２階）,,13,115,1670022,,,,,,,2023-07-25,1,,,,,アツマルトコロ,0
52,1011401025311,新規,0,2023-07-25,2023-07-25,株式会社工房善,,株式会社,東京都,板橋区,小茂根３丁目２番１１号本田ビル１Ｆ,,13,119,1730037,,,,,,,2023-07-25,1,,,,,コウボウゼン,0
56,1011501029559,新規,0,2023-07-25,2023-07-25,株式会社海宝,,株式会社,東京都,北区,栄町２９番７号,,13,117,1140005,,,,,,,2023-07-25,1,,,,,カイホウ,0
59,1011801042781,新規,0,2023-07-25,2023-07-25,セントレジデンス株式会社,,株式会社,東京都,足立区,西新井７丁目２番１４号,,13,121,1230841,,,,,,,2023-07-25,1,,,,,セントレジデンス,0
60,1011803005753,新規,0,2023-07-25,2023-07-25,Ａｓｓｅｔ　Ｐｌａｎ合同会社,,合同会社,東京都,足立区,花畑３丁目３６－１０,,13,121,1210061,,,,,,,2023-07-25,1,,,,,アセットプラン,0
64,1012401040770,新規,0,2023-07-25,2023-07-25,株式会社Ｐｅｎｄｅｍｙ,,株式会社,東京都,府中市,寿町３丁目４番地１０‐３階,,13,206,1830056,,,,,,,2023-07-25,1,,,,,ペンデミー,0
67,1012403006076,新規,0,2023-07-25,2023-07-25,マルコリズム合同会社,,合同会社,東京都,三鷹市,下連雀３丁目４－２０パレステージ三鷹５０１,,13,204,1810013,,,,,,,2023-07-25,1,,,,,マルコリズム,0
84,1020001152655,新規,0,2023-07-25,2023-07-25,日本エヌビゾ・アイ株式会社,,株式会社,神奈川県,横浜市中区,吉浜町１番地２パークスクエア横浜１６２０号室,,14,104,2310024,,,,,,,2023-07-25,1,,,,,ニホンエヌビゾアイ,0
85,1020001152688,新規,0,2023-07-25,2023-07-25,株式会社安立電気,,株式会社,神奈川県,川崎市宮前区,東有馬２丁目３１番３０号,,14,136,2160002,,,,,,,2023-07-25,1,,,,,アダチデンキ,0
88,1020003024274,新規,0,2023-07-25,2023-07-25,合同会社オメガエステート,,合同会社,神奈川県,横浜市港北区,綱島西３丁目１０番１４号,,14,109,2230053,,,,,,,2023-07-25,1,,,,,オメガエステート,0
91,1021001079681,新規,0,2023-07-25,2023-07-25,ヤマノインダストリー株式会社,,株式会社,神奈川県,相模原市中央区,東淵野辺１丁目２番６号,,14,152,2520203,,,,,,,2023-07-25,1,,,,,ヤマノインダストリー,0
92,1021003013341,新規,0,2023-07-25,2023-07-25,ＷＡ・ＴＲＡＤＩＮＧ合同会社,,合同会社,神奈川県,座間市,緑ケ丘６丁目２６番１８号,,14,216,2520021,,,,,,,2023-07-25,1,,,,,ダブルエートレーディング,0
99,1030001154964,新規,0,2023-07-25,2023-07-25,株式会社ルーチェ,,株式会社,埼玉県,八潮市,大字南川崎５８９番地１,,11,234,3400814,,,,,,,2023-07-25,1,,,,,ルーチェ,0
100,1030001155062,新規,0,2023-07-25,2023-07-25,株式会社りすたーと,,株式会社,埼玉県,さいたま市北区,東大成町１丁目３５３番地３,,11,102,3310814,,,,,,,2023-07-25,1,,,,,リスタート,0
111,1040001129354,新規,0,2023-07-25,2023-07-25,株式会社ＫＥＹ　ＢＯＸ,,株式会社,千葉県,船橋市,芝山７丁目１３番２１号,,12,204,2740816,,,,,,,2023-07-25,1,,,,,キーボックス,0
112,1040001129362,新規,0,2023-07-25,2023-07-25,北総イワサキ株式会社,,株式会社,千葉県,白井市,冨士１２７番地,,12,232,2701432,,,,,,,2023-07-25,1,,,,,ホクソウイワサキ,0
117,1050003007656,新規,0,2023-07-25,2023-07-25,ＮＡＴＩＱ　ＴＲＡＤＩＮＧ合同会社,,合同会社,茨城県,東茨城郡茨城町,大字小幡１１９３番地２,,08,302,3113157,,,,,,,2023-07-25,1,,,,,ナティックトレーディング,0
120,1060001036185,新規,0,2023-07-25,2023-07-25,株式会社ｈｒｂ,,株式会社,栃木県,宇都宮市,石井町２９３５－２７,,09,201,3210912,,,,,,,2023-07-25,1,,,,,エイチアールビー,0
124,1070001040657,新規,0,2023-07-25,2023-07-25,株式会社シムシティ,,株式会社,群馬県,高崎市,大橋町３６番地９,,10,202,3700803,,,,,,,2023-07-25,1,,,,,シムシティ,0
125,1070001040665,新規,0,2023-07-25,2023-07-25,株式会社Ｄｅｅｐ　Ｐａｒａｄｏｘ,,株式会社,群馬県,館林市,美園町２１番２０号アミーゴ美園Ａ－１０２,,10,207,3740039,,,,,,,2023-07-25,1,,,,,ディープパラドックス,0
129,1070003005039,新規,0,2023-07-25,2023-07-25,合同会社富士商会,,合同会社,群馬県,前橋市,粕川町女渕１４７４番地６,,10,201,3710214,,,,,,,2023-07-25,1,,,,,フジショウカイ,0
132,1100001036619,新規,0,2023-07-25,2023-07-25,株式会社信越保育環境サービス,,株式会社,長野県,長野市,大字安茂里１０２３,,20,201,3800941,,,,,,,2023-07-25,1,,,,,シンエツホイクカンキョウサービス,0
134,1110005016970,新規,0,2023-07-25,2023-07-25,特定非営利活動法人Ｐａｌｅｔｔｅ,,その他の設立登記法人,新潟県,糸魚川市,大字大野２００８－１,,15,216,9410071,,,,,,,2023-07-25,1,,,,,パレット,0
142,1120001256693,新規,0,2023-07-25,2023-07-25,株式会社プライムリッジ,,株式会社,大阪府,大阪市東住吉区,湯里５丁目１２番２１号,,27,121,5460013,,,,,,,2023-07-25,1,,,,,プライムリッジ,0
150,1120003024537,新規,0,2023-07-25,2023-07-25,合同会社ＷＡＫＡＴＵ,,合同会社,大阪府,大阪市北区,西天満３丁目５番２番地クリエ西天満ビル６０２号,,27,127,5300047,,,,,,,2023-07-25,1,,,,,ワカツ,0
151,1120101067933,新規,0,2023-07-25,2023-07-25,Ｒｏｕｔｅ７株式会社,,株式会社,大阪府,堺市堺区,材木町西２丁２番７－６０４号,,27,141,5900941,,,,,,,2023-07-25,1,,,,,ルートセブン,0
152,1120903004753,新規,0,2023-07-25,2023-07-25,ワークル合同会社,,合同会社,大阪府,吹田市,山田西１丁目２６番１５号,,27,205,5650824,,,,,,,2023-07-25,1,,,,,ワークル,0
153,1130001074764,新規,0,2023-07-25,2023-07-25,株式会社ＳＡＩＴＯ,,株式会社,京都府,亀岡市,南つつじケ丘桜台５丁目４番８号,,26,206,6210847,,,,,,,2023-07-25,1,,,,,サイトウ,0
154,1130001074789,新規,0,2023-07-25,2023-07-25,ＳＡ　ＴＲＡＤＩＮＧ株式会社,,株式会社,京都府,京田辺市,松井古松井１－１,,26,211,6100342,,,,,,,2023-07-25,1,,,,,エスエイトレーディング,0
161,1140001130970,新規,0,2023-07-25,2023-07-25,株式会社ＹＡＲＩＧＡＩ,,株式会社,兵庫県,小野市,小田町３３０３番地,,28,218,6751301,,,,,,,2023-07-25,1,,,,,ヤリガイ,0
162,1140001130995,新規,0,2023-07-25,2023-07-25,株式会社Ａｒｔ　Ｌｉｎｋ,,株式会社,兵庫県,伊丹市,荻野４丁目４９番地,,28,207,6640002,,,,,,,2023-07-25,1,,,,,アートリンク,0
169,1160001025211,新規,0,2023-07-25,2023-07-25,株式会社きいちご家族,,株式会社,滋賀県,高島市,マキノ町新保１８番地,,25,212,5201822,,,,,,,2023-07-25,1,,,,,キイチゴカゾク,0
170,1160003002935,新規,0,2023-07-25,2023-07-25,合同会社シン,,合同会社,滋賀県,彦根市,古沢町６６９番地４フォンテーヌ彦根６０１号,,25,202,5220007,,,,,,,2023-07-25,1,,,,,シン,0
175,1180001157250,新規,0,2023-07-25,2023-07-25,日電株式会社,,株式会社,愛知県,名古屋市中村区,名駅３丁目４－１０－２Ｆ,,23,105,4500002,,,,,,,2023-07-25,1,,,,,ニチデン,0
176,1180001157259,新規,0,2023-07-25,2023-07-25,株式会社ｔａｎｔｏ,,株式会社,愛知県,名古屋市西区,名駅２丁目３４番１７号セントラル名古屋１１０１,,23,104,4510045,,,,,,,2023-07-25,1,,,,,タント,0
177,1180001157267,新規,0,2023-07-25,2023-07-25,株式会社アプリシーエイト,,株式会社,愛知県,名古屋市中区,錦２丁目１０番８号,,23,106,4600003,,,,,,,2023-07-25,1,,,,,アプリシーエイト,0
178,1180001157283,新規,0,2023-07-25,2023-07-25,ＨＡＮＡＢＩ株式会社,,株式会社,愛知県,名古屋市緑区,平子が丘２３０５番地（ウイングヒルＤ棟２０２号）,,23,114,4580826,,,,,,,2023-07-25,1,,,,,ハナビ,0
187,1180301037598,新規,0,2023-07-25,2023-07-25,マツダアセットマネジメント株式会社,,株式会社,愛知県,豊田市,四郷町下古屋４１番地,,23,211,4700373,,,,,,,2023-07-25,1,,,,,マツダアセットマネジメント,0
188,1180303005784,新規,0,2023-07-25,2023-07-25,合同会社ののやま,,合同会社,愛知県,知立市,東上重原６丁目１０５番地,,23,225,4720054,,,,,,,2023-07-25,1,,,,,,0
199,1230001019916,新規,0,2023-07-25,2023-07-25,岡崎美容株式会社,,株式会社,富山県,高岡市,能町南２丁目６３番地,,16,202,9330005,,,,,,,2023-07-25,1,,,,,オカザキビヨウ,0
214,1280001008996,新規,0,2023-07-25,2023-07-25,株式会社ＤＯＲＩＭＡ,,株式会社,島根県,松江市,東本町５丁目１番地,,32,201,6900842,,,,,,,2023-07-25,1,,,,,ドリマ,0
221,1290803004465,新規,0,2023-07-25,2023-07-25,合同会社ｒｅｎｇｅ,,合同会社,福岡県,田川市,大字伊田５１７番地１,,40,206,8250002,,,,,,,2023-07-25,1,,,,,レンゲ,0
233,1350003004400,新規,0,2023-07-25,2023-07-25,ＳＫ　Ｗｅｂ合同会社,,合同会社,宮崎県,宮崎市,大字本郷南方４３６３番地２,,45,201,8800921,,,,,,,2023-07-25,1,,,,,エスケーウェブ,0
236,1360001032328,新規,0,2023-07-25,2023-07-25,株式会社クリーンアップアシスト,,株式会社,沖縄県,那覇市,真嘉比１丁目１３番７号ルミエールＭ１０１,,47,201,9020068,,,,,,,2023-07-25,1,,,,,クリーンアップアシスト,0
238,1380001033869,新規,0,2023-07-25,2023-07-25,株式会社ＲＯＧＵＥ　ＳＴＹＬＥ,,株式会社,福島県,郡山市,西ノ内２丁目１５番１３号,,07,203,9638022,,,,,,,2023-07-25,1,,,,,ローグスタイル,0
243,1390001017326,新規,0,2023-07-25,2023-07-25,株式会社さんかくや,,株式会社,山形県,西村山郡大江町,大字本郷丙３２７番地の１０,,06,324,9901164,,,,,,,2023-07-25,1,,,,,サンカクヤ,0
244,1390005009022,新規,0,2023-07-25,2023-07-25,一般社団法人こころのネットワークやまがた,,その他の設立登記法人,山形県,山形市,あかねケ丘２丁目６番３０号,,06,201,9902481,,,,,,,2023-07-25,1,,,,,ココロノネットワークヤマガタ,0
245,1400001016326,新規,0,2023-07-25,2023-07-25,株式会社ＳＣＡＬＥ,,株式会社,岩手県,盛岡市,上堂１丁目４番１９号ＯＮＥ’Ｓ家ＨＯＭＥ１０３号,,03,201,0200125,,,,,,,2023-07-25,1,,,,,スケール,0
248,1410003003825,新規,0,2023-07-25,2023-07-25,東北エアコン工事合同会社,,合同会社,秋田県,秋田市,雄和芝野新田字中台１番地１,,05,201,0101202,,,,,,,2023-07-25,1,,,,,トウホクエアコンコウジ,0
256,1440001009292,新規,0,2023-07-25,2023-07-25,ライフライン株式会社,,株式会社,北海道,函館市,富岡町３丁目３番１２号,,01,202,0410811,,,,,,,2023-07-25,1,,,,,ライフライン,0
258,1470001019719,新規,0,2023-07-25,2023-07-25,株式会社ｌｉｅｎ,,株式会社,香川県,小豆郡小豆島町,苗羽甲１４０１番地１７,,37,324,7614421,,,,,,,2023-07-25,1,,,,,リアン,0
262,1700150118041,新規,0,2023-07-25,2023-07-25,ｓｈｅｎｚｈｅｎｓｈｉ　ｘｉａｏｊｉｎｇ　ｋｅｊｉ　ｙｏｕｘｉａｎｇｏｎｇｓｉ,,外国会社等,,,,,,,,Ｃｈｉｎａ　Ｇｕａｎｇｄｏｎｇ　Ｓｈｅｎｚｈｅｎ　ＢａｏＡｎＱｕ　ＸｉＸｉａｎｇＪｉｅＤａｏ　ＨａｏＹｅＳｈｅＱｕ　ＢａｏＡｎＨｕ　ＬｉａｎＷａｎｇＣｈａｎＹｅ　ＪｉＤｉ　ＡＱｕ　６Ｄｏｎｇ　７Ｄｏｎｇ　６７１０,,,,,,2023-07-25,1,,,,,シンセンシショウキョウカギユウゲンコウシ,0
263,1700150118603,新規,0,2023-07-25,2023-07-25,ＳＡＹＵＬ　ＥＮＴＥＲＰＲＩＳＥＳ,,外国会社等,茨城県,坂東市,山６２１番地１－２Ｆ,,08,228,3060502,スリランカ民主社会主義共和国クリヤピティヤ、ムッテッツワッタ、２５,,,,,,2023-07-25,1,,,,,サユルエンタープライセス,0
264,1700150118611,新規,0,2023-07-25,2023-07-25,Ｓｕｚｈｏｕ　Ｎｅｗｏｘ　Ｎｅｔｗｏｒｋ　Ｔｅｃｈｎｏｌｏｇｙ　Ｃｏ．，Ｌｔｄ,,外国会社等,,,,,,,,Ｕｎｉｔ　１９Ａ０，Ｐｈａｓｅ　３，Ｉｎｔｅｒｎａｔｉｏｎａｌ　Ｓｃｉｅｎｃｅ　Ｐａｒｋ，Ｎｏ．１３５５，Ｊｉｎｊｉｈｕ　Ａｖｅｎｕｅ，Ｓｕｚｈｏｕ　Ｉｎｄｕｓｔｒｉａｌ　Ｐａｒｋ，Ｃｈｉｎａ（Ｊｉａｎｇｓｕ）Ｐｉｌｏｔ　Ｆｒｅｅ　Ｔｒａｄｅ　Ｚｏｎｅ，Ｓｕｚｈｏｕ　Ｄｉｓｔｒｉｃｔ，Ｓｕｚｈｏｕ，Ｊｉａｎｇｓｕ，Ｃｈｉｎａ,,,,,,2023-07-25,1,,,,,ソシュウショギュウモウラクカギユウゲンコウシ,0
275,2010003041179,新規,0,2023-07-25,2023-07-25,合同会社首都圏レジ開発エイト,,合同会社,東京都,千代田区,平河町１丁目６番１５号シルスフィア会計事務所内,,13,101,1020093,,,,,,,2023-07-25,1,,,,,シュトケンレジカイハツエイト,0
276,2010003041187,新規,0,2023-07-25,2023-07-25,ＣＶ・ジャパン合同会社,,合同会社,東京都,千代田区,飯田橋１丁目３番２号,,13,101,1020072,,,,,,,2023-07-25,1,,,,,シーブイジャパン,0
288,2010401175776,新規,0,2023-07-25,2023-07-25,株式会社ラズロック,,株式会社,東京都,港区,三田３丁目３番６号オーパスホームズ三田１１０１,,13,103,1080073,,,,,,,2023-07-25,1,,,,,ラズロック,0
289,2010401175801,新規,0,2023-07-25,2023-07-25,株式会社成田ＴＯＫＹＯ,,株式会社,東京都,港区,北青山２丁目１２番４号坂本ビル３階,,13,103,1070061,,,,,,,2023-07-25,1,,,,,ナリタトウキョウ,0
290,2010401175818,新規,0,2023-07-25,2023-07-25,株式会社Ｓｏｌｅｉｌ,,株式会社,東京都,港区,南青山５丁目１３番２号南青山池田ビル７階,,13,103,1070062,,,,,,,2023-07-25,1,,,,,ソレイル,0
291,2010401175842,新規,0,2023-07-25,2023-07-25,株式会社Ｄｈｉｌｅａ,,株式会社,東京都,港区,南青山２丁目２－１５ＷＩＮ青山５３１,,13,103,1070062,,,,,,,2023-07-25,1,,,,,ディレア,0
292,2010401175875,新規,0,2023-07-25,2023-07-25,株式会社メディカルコネクト,,株式会社,東京都,港区,西麻布１丁目１４番１６号ベルジュール麻布３０１,,13,103,1060031,,,,,,,2023-07-25,1,,,,,メディカルコネクト,0
293,2010401175958,新規,0,2023-07-25,2023-07-25,ＬＳ‐Ａｖｉａｔｉｏｎ第５４号株式会社,,株式会社,東京都,港区,六本木１丁目６番１号,,13,103,1060032,,,,,,,2023-07-25,1,,,,,エルエスアビエーションダイゴジュウヨンゴウ,0
294,2010403030541,新規,0,2023-07-25,2023-07-25,ＧＳＳＧ　Ｓｏｌａｒ　Ｊａｐａｎ　Ｈｏｌｄｉｎｇｓ１２合同会社,,合同会社,東京都,港区,高輪１丁目３番１３号ＮＢＦ高輪ビル７階,,13,103,1080074,,,,,,,2023-07-25,1,,,,,ジーエスエスジーソーラージャパンホールディングストゥエルブ,0
295,2010403030558,新規,0,2023-07-25,2023-07-25,合同会社Ｓｔａｎｄ　ＵＰ,,合同会社,東京都,港区,西新橋１丁目１０番１号日美ビル４階,,13,103,1050003,,,,,,,2023-07-25,1,,,,,スタンドアップ,0
298,2010405022289,新規,0,2023-07-25,2023-07-25,一般社団法人日本コワーキングスペース＆コミュニティマネージャー協会,,その他の設立登記法人,東京都,港区,麻布十番２丁目２０－７ＢＩＲＴＨＬＡＢ,,13,103,1060045,,,,,,,2023-07-25,1,,,,,ニホンコワーキングスペースアンドコミュニティマネージャーキョウカイ,0
303,2010603010244,新規,0,2023-07-25,2023-07-25,ＬＡＢ　ＰＬＡＮ　Ｂ合同会社,,合同会社,東京都,墨田区,立川３丁目１０－１１小高ビル２号室,,13,107,1300023,,,,,,,2023-07-25,1,,,,,ラボプランビー,0
316,2011001155722,新規,0,2023-07-25,2023-07-25,株式会社九體本草堂,,株式会社,東京都,目黒区,五本木３丁目７番７号,,13,110,1530053,,,,,,,2023-07-25,1,,,,,キュウテイホンゾウドウ,0
317,2011003017235,新規,0,2023-07-25,2023-07-25,合同会社Ｒｅｄｅｃｏｒａｔｅ,,合同会社,東京都,渋谷区,神南１丁目１１番３－５０２号,,13,113,1500041,,,,,,,2023-07-25,1,,,,,リデコレイト,0
321,2011101103696,新規,0,2023-07-25,2023-07-25,株式会社Ｂ‐ＮＯＴＥ,,株式会社,東京都,新宿区,高田馬場１丁目６番１０号ハウスカブラキ１０３,,13,104,1690075,,,,,,,2023-07-25,1,,,,,ビーノート,0
322,2011103013274,新規,0,2023-07-25,2023-07-25,合同会社Ｗｈｉｔｅ,,合同会社,東京都,新宿区,西新宿３丁目９番１４号インタービル５Ｆ,,13,104,1600023,,,,,,,2023-07-25,1,,,,,ホワイト,0
327,2011401025310,新規,0,2023-07-25,2023-07-25,株式会社海,,株式会社,東京都,板橋区,前野町２丁目４番１７号,,13,119,1740063,,,,,,,2023-07-25,1,,,,,ウミ,0
328,2011501029558,新規,0,2023-07-25,2023-07-25,永玲株式会社,,株式会社,東京都,北区,浮間１丁目１－１４リムジンビル１２３,,13,117,1150051,,,,,,,2023-07-25,1,,,,,ヒサレ,0
329,2011503005689,新規,0,2023-07-25,2023-07-25,合同会社はみんぐべあ,,合同会社,東京都,北区,十条仲原１丁目５番地７号サトウショップビル２Ｆ,,13,117,1140031,,,,,,,2023-07-25,1,,,,,ハミングベア,0
331,2011701026454,新規,0,2023-07-25,2023-07-25,株式会社ＪＡＰＡＮ・ＨＡＱＵＥ・ＩＮＴＥＲＮＡＴＩＯＮＡＬ,,株式会社,東京都,江戸川区,南小岩７丁目２６番２１,,13,123,1330056,,,,,,,2023-07-25,1,,,,,ジャパンハックインターナショナル,0
339,2013301051056,新規,0,2023-07-25,2023-07-25,株式会社バトラー警備保障,,株式会社,東京都,豊島区,西池袋２丁目３６番１１号ソフトタウンニュー池袋４０４号室,,13,116,1710021,,,,,,,2023-07-25,1,,,,,バトラーケイビホショウ,0
344,2020003024232,新規,0,2023-07-25,2023-07-25,川崎送業合同会社,,合同会社,神奈川県,川崎市高津区,坂戸１丁目１５番１１号７０７号室,,14,134,2130012,,,,,,,2023-07-25,1,,,,,カワサキソウギョウ,0
345,2020003024257,新規,0,2023-07-25,2023-07-25,合同会社Ｆｉｒｓｔ　Ｃｌａｓｓ,,合同会社,神奈川県,川崎市麻生区,白鳥３丁目１１―５―３,,14,137,2150024,,,,,,,2023-07-25,1,,,,,ファーストクラス,0
350,2030001154988,新規,0,2023-07-25,2023-07-25,株式会社キャリアコンパス,,株式会社,埼玉県,熊谷市,筑波１丁目２０４番地吉見ビル９階,,11,202,3600037,,,,,,,2023-07-25,1,,,,,キャリアコンパス,0
351,2030001154996,新規,0,2023-07-25,2023-07-25,株式会社ムーンブレバリー,,株式会社,埼玉県,飯能市,大字中居３４番地５,,11,209,3570002,,,,,,,2023-07-25,1,,,,,ムーンブレバリー,0
356,2030003022185,新規,0,2023-07-25,2023-07-25,合同会社エンパシー,,合同会社,埼玉県,さいたま市桜区,大字下大久保６５８－２ベルピア北浦和第２－１０３号室,,11,106,3380825,,,,,,,2023-07-25,1,,,,,エンパシー,0
359,2040001129386,新規,0,2023-07-25,2023-07-25,株式会社メダカ屋ライトニング,,株式会社,千葉県,東金市,台方１３９番地５,,12,213,2830811,,,,,,,2023-07-25,1,,,,,メダカヤライトニング,0
360,2040003023001,新規,0,2023-07-25,2023-07-25,けいざい相互支援合同会社,,合同会社,千葉県,我孫子市,布佐８６４番地の１,,12,222,2701101,,,,,,,2023-07-25,1,,,,,ケイザイソウゴシエン,0
371,2070001040664,新規,0,2023-07-25,2023-07-25,株式会社エム・ティー・エス,,株式会社,群馬県,前橋市,上泉町４１１番地１,,10,201,3710007,,,,,,,2023-07-25,1,,,,,エムティーエス,0
376,2070005010151,新規,0,2023-07-25,2023-07-25,医療法人ＳＯＲＲＩＳＯ,,その他の設立登記法人,群馬県,高崎市,棟高町９４番地１,,10,202,3703521,,,,,,,2023-07-25,1,,,,,ソリッソ,0
378,2080003003016,新規,0,2023-07-25,2023-07-25,合同会社ジャーマンアイリス,,合同会社,静岡県,焼津市,相川１０６１番地１,,22,212,4210216,,,,,,,2023-07-25,1,,,,,ジャーマンアイリス,0
384,2110001037714,新規,0,2023-07-25,2023-07-25,株式会社真拓,,株式会社,新潟県,三条市,東三条１丁目２３番１６号,,15,204,9550047,,,,,,,2023-07-25,1,,,,,シンタク,0
397,2120001256651,新規,0,2023-07-25,2023-07-25,株式会社玉利工業,,株式会社,大阪府,寝屋川市,楠根南町８番３号,,27,215,5720811,,,,,,,2023-07-25,1,,,,,タマリコウギョウ,0
398,2120001256701,新規,0,2023-07-25,2023-07-25,株式会社タナマス,,株式会社,大阪府,大阪市中央区,北久宝寺町１丁目５番８号－５Ｄ号室,,27,128,5410057,,,,,,,2023-07-25,1,,,,,タナマス,0
399,2120001256734,新規,0,2023-07-25,2023-07-25,ＺｉＡエンジニアリング株式会社,,株式会社,大阪府,大阪市北区,梅田１丁目２番２号大阪駅前第２ビル１２－１２,,27,127,5300001,,,,,,,2023-07-25,1,,,,,ジアエンジニアリング,0
400,2120001256742,新規,0,2023-07-25,2023-07-25,株式会社サンライト,,株式会社,大阪府,大阪市北区,太融寺町２番１７号太融寺ビル７Ｆ,,27,127,5300051,,,,,,,2023-07-25,1,,,,,サンライト,0
406,2120003024552,新規,0,2023-07-25,2023-07-25,ＴＭＹ合同会社,,合同会社,大阪府,大阪市平野区,喜連東２丁目１番２３号,,27,126,5470021,,,,,,,2023-07-25,1,,,,,ティーエムワイ,0
409,2120101067940,新規,0,2023-07-25,2023-07-25,Ｚｉｏｎ株式会社,,株式会社,大阪府,河内長野市,末広町３－３,,27,216,5860051,,,,,,,2023-07-25,1,,,,,ザイオン,0
416,2130001074763,新規,0,2023-07-25,2023-07-25,株式会社四葉,,株式会社,京都府,京都市下京区,大宮通松原下る西門前町４２６番地五条大宮グリーンマンション３０７,,26,106,6008371,,,,,,,2023-07-25,1,,,,,ヨツバ,0
422,2140001130953,新規,0,2023-07-25,2023-07-25,株式会社ＮｅｘｔＳｅｅｄ,,株式会社,兵庫県,尼崎市,西難波町５丁目９－４－２０１,,28,202,6600893,,,,,,,2023-07-25,1,,,,,ネクシード,0
423,2140001130961,新規,0,2023-07-25,2023-07-25,株式会社金成金属,,株式会社,兵庫県,神戸市垂水区,下畑町１８７７番３８,,28,108,6550861,,,,,,,2023-07-25,1,,,,,カネナリキンゾク,0
429,2180001005747,新規,0,2023-07-25,2023-07-25,山田精密工業株式会社,,株式会社,愛知県,名古屋市千種区,豊年町１番３号,,23,101,4640076,,,,,,,2023-07-25,1,,,,,ヤマダセイミツコウギョウ,0
433,2180001157258,新規,0,2023-07-25,2023-07-25,株式会社ＤＤＤ　Ｇｒｏｕｐ,,株式会社,愛知県,知多郡美浜町,大字野間字中新田１０－１,,23,446,4703235,,,,,,,2023-07-25,1,,,,,ディディディグループ,0
438,2180301037597,新規,0,2023-07-25,2023-07-25,株式会社ジーメンス,,株式会社,愛知県,岡崎市,生平町字上屋敷４８番地,,23,202,4443334,,,,,,,2023-07-25,1,,,,,ジーメンス,0
460,2290001102335,新規,0,2023-07-25,2023-07-25,株式会社９ｓＷｏｎｄｅｒ,,株式会社,福岡県,福岡市南区,長住３丁目２番１－２０１号,,40,134,8111362,,,,,,,2023-07-25,1,,,,,ナインズワンダー,0
461,2290001102351,新規,0,2023-07-25,2023-07-25,株式会社ｅｎ‐Ｊｉｎ,,株式会社,福岡県,福岡市中央区,荒津２丁目１番７号,,40,133,8100076,,,,,,,2023-07-25,1,,,,,エンジン,0
477,2360001032310,新規,0,2023-07-25,2023-07-25,株式会社アグリシステム沖縄,,株式会社,沖縄県,島尻郡八重瀬町,字仲座８３４番地２,,47,362,9010516,,,,,,,2023-07-25,1,,,,,アグリシステムオキナワ,0
490,2390003002127,新規,0,2023-07-25,2023-07-25,技よし建築合同会社,,合同会社,山形県,山形市,寿町１２－２３,,06,201,9902414,,,,,,,2023-07-25,1,,,,,ワザヨシケンチク,0
494,2430003015256,新規,0,2023-07-25,2023-07-25,合同会社大和ハウジング,,合同会社,北海道,札幌市清田区,北野三条４丁目１３番８号,,01,110,0040863,,,,,,,2023-07-25,1,,,,,ダイワハウジング,0
498,2700150118602,新規,0,2023-07-25,2023-07-25,ｐｕｔｉａｎｓｈｉｆｕｌｅｌｅｄｉａｎｚｉｓｈａｎｇｗｕｙｏｕｘｉａｎｇｏｎｇｓｉ,,外国会社等,,,,,,,,ｈａｎ　ｊｉａｎｇ　ｑｕ　ｈａｎ　ｘｉ　ｊｉｅ　ｄａｏ　ｌｉｕ　ｙｉ　ｘｉ　ｌｕ　８８９ｈａｏ　ｙｉ　ｆａ　ｃｈｅｎｇ　６ｈａｏ　ｌｏｕ　１ｔｉ　２３０２ｓｈｉ,,,,,,2023-07-25,1,,,,,プタシフララデンシショウムユウゲンコウシ,0
499,2700150118610,新規,0,2023-07-25,2023-07-25,Ｙｉｗｕ　ｑｉ　ｍｅｎｇ　ｊｉａ　ｊｕ　ｙｏｎｇｐｉｎ　ｙｏｕｘｉａｎ　ｇｏｎｇｓｉ,,外国会社等,,,,,,,,Ｃｈｉｎａ，Ｚｈｅｊｉａｎｇ　ｓｈｅｎｇ　ｙｉｗｕ　ｓｈｉ　ｆｕｔｉａｎ　ｊｉｅｄａｏ　ｃｈｅｎｇ　ｘｉｎ　ｙｉ　ｑｕ　７６　ｃｈｕａｎｇ　１ｈａｏ　２０１,,,,,,2023-07-25,1,,,,,ギウキムカキョヨウヒンユウゲンコウシ,0
501,3010001237091,新規,0,2023-07-25,2023-07-25,株式会社ＮＫＧホールディングス,,株式会社,東京都,中央区,日本橋兜町２１番７号,,13,102,1030026,,,,,,,2023-07-25,1,,,,,エヌケージーホールディングス,0
502,3010001237133,新規,0,2023-07-25,2023-07-25,ＭＵＬＬＲＩＣＨＩ　ＫＩＳＥＮ株式会社,,株式会社,東京都,中央区,銀座５丁目１４番３号,,13,102,1040061,,,,,,,2023-07-25,1,,,,,ムルリッチキセン,0
503,3010003041095,新規,0,2023-07-25,2023-07-25,宮城松島バイオマス発電合同会社,,合同会社,東京都,中央区,八重洲１丁目５番１５号田中八重洲ビル２階,,13,102,1030028,,,,,,,2023-07-25,1,,,,,ミヤギマツシマバイオマスハツデン,0
504,3010003041178,新規,0,2023-07-25,2023-07-25,合同会社首都圏レジ開発セブン,,合同会社,東京都,千代田区,平河町１丁目６番１５号シルスフィア会計事務所内,,13,101,1020093,,,,,,,2023-07-25,1,,,,,シュトケンレジカイハツセブン,0
507,3010005036960,新規,0,2023-07-25,2023-07-25,ＴＨＥ　ＴＯＫＹＯ　ＴＯＷＥＲＳ管理組合法人,,その他の設立登記法人,東京都,中央区,勝どき６丁目３番１号,,13,102,1040054,,,,,,,2023-07-25,1,,,,,ザトウキョウタワーズ,0
512,3010401175800,新規,0,2023-07-25,2023-07-25,ＶｅｒｉｆｙＶＡＳＰ株式会社,,株式会社,東京都,港区,元麻布３丁目１番６号,,13,103,1060046,,,,,,,2023-07-25,1,,,,,ヴェリファイヴィエーエスピー,0
513,3010401175809,新規,0,2023-07-25,2023-07-25,トーセイ・プロップテック株式会社,,株式会社,東京都,港区,芝浦４丁目５番４号,,13,103,1080023,,,,,,,2023-07-25,1,,,,,トーセイプロップテック,0
514,3010401175817,新規,0,2023-07-25,2023-07-25,株式会社ＭｅｄｉＡｌｌ,,株式会社,東京都,港区,虎ノ門４丁目１番１号神谷町トラストタワー２３階,,13,103,1050001,,,,,,,2023-07-25,1,,,,,メディオール,0
515,3010401175841,新規,0,2023-07-25,2023-07-25,株式会社ＡＵＲＯＲＡ,,株式会社,東京都,港区,南青山３丁目１番３６号青山丸竹ビル６Ｆ,,13,103,1070062,,,,,,,2023-07-25,1,,,,,オーロラ,0
516,3010401175858,新規,0,2023-07-25,2023-07-25,株式会社ＦＳＣＲＩＰＴ,,株式会社,東京都,港区,南青山３丁目１－３６青山丸竹ビル６Ｆ,,13,103,1070062,,,,,,,2023-07-25,1,,,,,エフスクリプト,0
517,3010401175874,新規,0,2023-07-25,2023-07-25,Ｇｌｏｗ　Ｂｅｖｅｒａｇｅｓ　Ｊａｐａｎ株式会社,,株式会社,東京都,港区,六本木４丁目１番２６号六本木Ｋビル３階,,13,103,1060032,,,,,,,2023-07-25,1,,,,,グロービバレッジズジャパン,0
518,3010401175882,新規,0,2023-07-25,2023-07-25,株式会社Ｋａｍｏｎ,,株式会社,東京都,港区,南青山３丁目８番４０号青山センタービル２Ｆ,,13,103,1070062,,,,,,,2023-07-25,1,,,,,カモン,0
519,3010401175890,新規,0,2023-07-25,2023-07-25,株式会社李ｎｉｎｅ,,株式会社,東京都,港区,新橋３丁目１１番２号ＣＯＺＹ新橋３階,,13,103,1050004,,,,,,,2023-07-25,1,,,,,リナイン,0
520,3010401175957,新規,0,2023-07-25,2023-07-25,ＬＳ‐Ａｖｉａｔｉｏｎ第５３号株式会社,,株式会社,東京都,港区,六本木１丁目６番１号,,13,103,1060032,,,,,,,2023-07-25,1,,,,,エルエスアビエーションダイゴジュウサンゴウ,0
524,3010403030524,新規,0,2023-07-25,2023-07-25,Ｎｉｔｓｋｏｓｈｉ　Ｇｒｏｕｐ　Ｊａｐａｎ合同会社,,合同会社,東京都,港区,浜松町２丁目２番１５号浜松町ダイヤビル２Ｆ,,13,103,1050013,,,,,,,2023-07-25,1,,,,,ニツコシグループジャパン,0
525,3010403030540,新規,0,2023-07-25,2023-07-25,ＧＳＳＧ　Ｓｏｌａｒ　Ｊａｐａｎ　Ｈｏｌｄｉｎｇｓ１１合同会社,,合同会社,東京都,港区,高輪１丁目３番１３号ＮＢＦ高輪ビル７階,,13,103,1080074,,,,,,,2023-07-25,1,,,,,ジーエスエスジーソーラージャパンホールディングスイレブン,0
527,3010503007091,新規,0,2023-07-25,2023-07-25,合同会社Ｆａｔａｌｉｔａ,,合同会社,東京都,台東区,台東１丁目１３番９号第五光正ビル２Ｂ,,13,106,1100016,,,,,,,2023-07-25,1,,,,,ファタリタ,0
528,3010505003428,新規,0,2023-07-25,2023-07-25,一般社団法人日本ＥＳＧ産業協会,,その他の設立登記法人,東京都,台東区,花川戸２丁目２０番３号クイン・メゾン浅草１０１室,,13,106,1110033,,,,,,,2023-07-25,1,,,,,ニホンイーエスジーサンギョウキョウカイ,0
533,3010605004219,新規,0,2023-07-25,2023-07-25,一般社団法人活水東京,,その他の設立登記法人,東京都,江東区,亀戸４丁目４６－１２、４階,,13,108,1360071,,,,,,,2023-07-25,1,,,,,カッスイトウキョウ,0
535,3010701044597,新規,0,2023-07-25,2023-07-25,株式会社ＫＫコーポレーション,,株式会社,東京都,品川区,北品川１丁目３０－２３するがやビル２０２号室,,13,109,1400001,,,,,,,2023-07-25,1,,,,,ケーケーコーポレーション,0
546,3011001155878,新規,0,2023-07-25,2023-07-25,株式会社ｆｒａｃｔ,,株式会社,東京都,渋谷区,道玄坂１丁目１０番８号渋谷道玄坂東急ビル２Ｆ－Ｃ,,13,113,1500043,,,,,,,2023-07-25,1,,,,,フラクト,0
548,3011003017069,新規,0,2023-07-25,2023-07-25,合同会社ＲＥＴＯＰＲＯ,,合同会社,東京都,渋谷区,本町３丁目３４－１西新宿クレセント１０２,,13,113,1510071,,,,,,,2023-07-25,1,,,,,レトプロ,0
552,3011101103712,新規,0,2023-07-25,2023-07-25,株式会社小福,,株式会社,東京都,新宿区,中落合２丁目１８番１９号大竹荘２０３,,13,104,1610032,,,,,,,2023-07-25,1,,,,,ショウフク,0
553,3011101103720,新規,0,2023-07-25,2023-07-25,ＪＩＮ　Ｃｏｎｓｕｌｔｉｎｇ株式会社,,株式会社,東京都,新宿区,西新宿３丁目３番１３号西新宿水間ビル６階,,13,104,1600023,,,,,,,2023-07-25,1,,,,,ジンコンサルティング,0
554,3011101103729,新規,0,2023-07-25,2023-07-25,株式会社クラウン,,株式会社,東京都,新宿区,山吹町３３６番地レジディア神楽坂５０２号,,13,104,1620801,,,,,,,2023-07-25,1,,,,,クラウン,0
561,3011303004840,新規,0,2023-07-25,2023-07-25,合同会社ワイ・エーＡｓｓｏｃｉａｔｅｓ,,合同会社,東京都,杉並区,高円寺南３丁目６８番１号高架下,,13,115,1660003,,,,,,,2023-07-25,1,,,,,ワイエーアソシエンツ,0
562,3011403004055,新規,0,2023-07-25,2023-07-25,ＨＥＡＤＶＩＬＬＡＧＥ合同会社,,合同会社,東京都,板橋区,上板橋１丁目３番６号,,13,119,1740076,,,,,,,2023-07-25,1,,,,,ヘッドビレッジ,0
565,3011501029565,新規,0,2023-07-25,2023-07-25,株式会社村上塗装工業,,株式会社,東京都,北区,豊島７丁目６番１３号,,13,117,1140003,,,,,,,2023-07-25,1,,,,,ムラカミトソウコウギョウ,0
584,3020003024272,新規,0,2023-07-25,2023-07-25,トモプランニング合同会社,,合同会社,神奈川県,横浜市磯子区,磯子台１１番２０－４０６号,,14,107,2350019,,,,,,,2023-07-25,1,,,,,トモプランニング,0
587,3021001079663,新規,0,2023-07-25,2023-07-25,株式会社イコマ,,株式会社,神奈川県,藤沢市,村岡東２丁目８番地４号,,14,205,2510012,,,,,,,2023-07-25,1,,,,,イコマ,0
592,3040001129360,新規,0,2023-07-25,2023-07-25,株式会社ｃｏｃｏＲ,,株式会社,千葉県,富里市,御料７６１番地,,12,233,2860211,,,,,,,2023-07-25,1,,,,,ココアール,0
593,3040001129385,新規,0,2023-07-25,2023-07-25,株式会社ＭＯＮＯＬＩＴＨ,,株式会社,千葉県,松戸市,小根本１８３番地の３・１０２,,12,207,2710073,,,,,,,2023-07-25,1,,,,,モノリス,0
597,3040003023000,新規,0,2023-07-25,2023-07-25,合同会社ピーチ,,合同会社,千葉県,市原市,荻作５３０番地４,,12,219,2900177,,,,,,,2023-07-25,1,,,,,ピーチ,0
598,3040003023009,新規,0,2023-07-25,2023-07-25,合同会社エヌコンサルティング,,合同会社,千葉県,鎌ケ谷市,東初富４丁目３６番５号,,12,224,2730122,,,,,,,2023-07-25,1,,,,,エヌコンサルティング,0
605,3050003007621,新規,0,2023-07-25,2023-07-25,マッドサウニスト合同会社,,合同会社,茨城県,ひたちなか市,東石川３丁目６番６－３号,,08,221,3120052,,,,,,,2023-07-25,1,,,,,マッドサウニスト,0
606,3050003007662,新規,0,2023-07-25,2023-07-25,合同会社ＣＣ,,合同会社,茨城県,笠間市,平町１７１７番地８１,,08,216,3091722,,,,,,,2023-07-25,1,,,,,シーシー,0
608,3060001036183,新規,0,2023-07-25,2023-07-25,ＢＳ　ＴＲＡＤＩＮＧ株式会社,,株式会社,栃木県,栃木市,岩舟町新里１３０４番地４３号室,,09,203,3294316,,,,,,,2023-07-25,1,,,,,ビーエストレーディング,0
634,3120001256691,新規,0,2023-07-25,2023-07-25,ＢＢ綜合管理株式会社,,株式会社,大阪府,大阪市浪速区,元町２丁目１２番５号,,27,111,5560016,,,,,,,2023-07-25,1,,,,,ビービーソウゴウカンリ,0
635,3120001256709,新規,0,2023-07-25,2023-07-25,株式会社ブライトパス,,株式会社,大阪府,大阪市北区,梅田１丁目２番２号大阪駅前第２ビル１２－１２,,27,127,5300001,,,,,,,2023-07-25,1,,,,,ブライトパス,0
636,3120001256741,新規,0,2023-07-25,2023-07-25,株式会社メディアシーエイト,,株式会社,大阪府,大阪市北区,曾根崎２丁目１６番１９号メッセージ梅田ビル１階ＯＮｔｈｅＵＭＥＤＡ内,,27,127,5300057,,,,,,,2023-07-25,1,,,,,メディアシーエイト,0
639,3120003024477,新規,0,2023-07-25,2023-07-25,匯豊商貿合同会社,,合同会社,大阪府,大阪市港区,市岡元町１丁目６－１１フレンドリー一番館４０４号室,,27,107,5520002,,,,,,,2023-07-25,1,,,,,ワイホウショウボウ,0
640,3120003024543,新規,0,2023-07-25,2023-07-25,ＩＳＧコンサルティング合同会社,,合同会社,大阪府,大阪市西区,靱本町１丁目１４－１１,,27,106,5500004,,,,,,,2023-07-25,1,,,,,アイエスジーコンサルティング,0
644,3120903004751,新規,0,2023-07-25,2023-07-25,プレヴナンス合同会社,,合同会社,大阪府,吹田市,片山町３丁目１５－１８－２０２,,27,205,5640082,,,,,,,2023-07-25,1,,,,,プレヴナンス,0
647,3130003008850,新規,0,2023-07-25,2023-07-25,合同会社ＢＡＣ　ＮＩＮＨ　ＱＵＡＮ,,合同会社,京都府,八幡市,男山石城７番地８－２０５号,,26,210,6148374,,,,,,,2023-07-25,1,,,,,バックニンクワン,0
650,3130005016810,新規,0,2023-07-25,2023-07-25,一般社団法人防窮研究所,,その他の設立登記法人,京都府,京都市北区,小山上総町大谷大学内白取研究室,,26,101,6038143,,,,,,,2023-07-25,1,,,,,ボウキュウケンキュウジョ,0
659,3140001130969,新規,0,2023-07-25,2023-07-25,株式会社ペンタス,,株式会社,兵庫県,神戸市長田区,二葉町３丁目４番１－２０１号,,28,106,6530042,,,,,,,2023-07-25,1,,,,,ペンタス,0
662,3140005026692,新規,0,2023-07-25,2023-07-25,一般社団法人薬剤師のわ,,その他の設立登記法人,兵庫県,尼崎市,昭和南通５丁目９８番地,,28,202,6600882,,,,,,,2023-07-25,1,,,,,ヤクザイシノワ,0
679,3180001157232,新規,0,2023-07-25,2023-07-25,株式会社サンマネジメント,,株式会社,愛知県,一宮市,今伊勢町本神戸字高野池３９番３,,23,203,4910053,,,,,,,2023-07-25,1,,,,,サンマネジメント,0
680,3180001157240,新規,0,2023-07-25,2023-07-25,株式会社Ｔｅｃｈ　Ｌｉｆｔ,,株式会社,愛知県,名古屋市中区,栄１丁目２２番２号,,23,106,4600008,,,,,,,2023-07-25,1,,,,,テックリフト,0
681,3180001157257,新規,0,2023-07-25,2023-07-25,ＳＥＩＫＡ株式会社,,株式会社,愛知県,名古屋市中川区,供米田２丁目７０７番地コーポ錦１０５号室,,23,110,4540984,,,,,,,2023-07-25,1,,,,,セイカ,0
682,3180001157273,新規,0,2023-07-25,2023-07-25,三気東海警備株式会社,,株式会社,愛知県,北名古屋市,九之坪竹田１６６番地１加藤事務所２Ｆ,,23,234,4810041,,,,,,,2023-07-25,1,,,,,サンキトウカイケイビ,0
685,3180003025528,新規,0,2023-07-25,2023-07-25,合同会社フトゥーロ,,合同会社,愛知県,稲沢市,松下２丁目２０－７メゾンむつみ２０１,,23,220,4928208,,,,,,,2023-07-25,1,,,,,フトゥーロ,0
687,3180005020304,新規,0,2023-07-25,2023-07-25,一般社団法人オークトラスト,,その他の設立登記法人,愛知県,名古屋市天白区,八幡山１３０５番地の２パークホームズ八幡山１４０２,,23,116,4680074,,,,,,,2023-07-25,1,,,,,オークトラスト,0
689,3180301037596,新規,0,2023-07-25,2023-07-25,パーツフィールド株式会社,,株式会社,愛知県,豊橋市,豊栄町字東２３１番地の７,,23,201,4413125,,,,,,,2023-07-25,1,,,,,パーツフィールド,0
708,3280001009002,新規,0,2023-07-25,2023-07-25,株式会社シンワホーム,,株式会社,島根県,出雲市,上塩冶町４０４０番地３,,32,203,6930022,,,,,,,2023-07-25,1,,,,,シンワホーム,0
711,3290001102342,新規,0,2023-07-25,2023-07-25,株式会社マサトヨ,,株式会社,福岡県,福岡市博多区,博多駅前３丁目７番１０号,,40,132,8120011,,,,,,,2023-07-25,1,,,,,マサトヨ,0
712,3290001102383,新規,0,2023-07-25,2023-07-25,株式会社壱興,,株式会社,福岡県,福岡市西区,今宿東３丁目５番２４号,,40,135,8190161,,,,,,,2023-07-25,1,,,,,イッキョウ,0
714,3290005019095,新規,0,2023-07-25,2023-07-25,一般社団法人フリースタイル,,その他の設立登記法人,福岡県,福岡市博多区,美野島４丁目１番１０－２０８号パロス美野島,,40,132,8120017,,,,,,,2023-07-25,1,,,,,フリースタイル,0
717,3310001018528,新規,0,2023-07-25,2023-07-25,株式会社天神,,株式会社,長崎県,島原市,片町７３１番地,,42,203,8550042,,,,,,,2023-07-25,1,,,,,テンジン,0
718,3320001019905,新規,0,2023-07-25,2023-07-25,株式会社ｕ．ｄ,,株式会社,大分県,大分市,府内町３丁目４番２０号,,44,201,8700021,,,,,,,2023-07-25,1,,,,,ユーディー,0
725,3340001025744,新規,0,2023-07-25,2023-07-25,株式会社らしさエイム,,株式会社,鹿児島県,鹿児島市,吉野町６００２番地４,,46,201,8920871,,,,,,,2023-07-25,1,,,,,ラシサエイム,0
736,3410003003823,新規,0,2023-07-25,2023-07-25,ＢＡＮＺＡＩ　ＷＯＲＫＳ合同会社,,合同会社,秋田県,潟上市,天王字棒沼台８６番地４８,,05,211,0100201,,,,,,,2023-07-25,1,,,,,バンザイワークス,0
739,3430001089458,新規,0,2023-07-25,2023-07-25,株式会社インプルーブ,,株式会社,北海道,札幌市白石区,北郷三条１４丁目２番１２号メゾン清園Ａ１０１号,,01,104,0030833,,,,,,,2023-07-25,1,,,,,インプルーブ,0
740,3430001089499,新規,0,2023-07-25,2023-07-25,株式会社秀建設,,株式会社,北海道,苫小牧市,北栄町２丁目５番１４号,,01,213,0591304,,,,,,,2023-07-25,1,,,,,ヒデケンセツ,0
741,3430001089524,新規,0,2023-07-25,2023-07-25,株式会社ｍｕｇｅｎ．ｃｍ,,株式会社,北海道,札幌市北区,篠路三条８丁目９番１－３０１号,,01,102,0028023,,,,,,,2023-07-25,1,,,,,ムゲンドットシーエム,0
745,3430003015247,新規,0,2023-07-25,2023-07-25,合同会社楽楽物語,,合同会社,北海道,札幌市手稲区,稲穂一条１丁目１２－５ペルル稲穂８０１号,,01,109,0060031,,,,,,,2023-07-25,1,,,,,ラクラクモノガタリ,0
752,3700150118601,新規,0,2023-07-25,2023-07-25,ＦＵＺＨＯＵＹＡＭＥＩＨＥＤＩＡＮＺＩＳＨＡＮＧＷＵＹＯＵＸＩＡＮＧＯＮＧＳＩ,,外国会社等,,,,,,,,２９６　ｓｔｏｒｅｆｒｏｎｔ，２ｎｄ　ｆｌｏｏｒ，Ｇｕａｎｇｄａ　Ｈｕｉｄｕｏｌｉ　Ｐｒｏｆｅｓｓｉｏｎａｌ　Ｂｕｉｌｄｉｎｇ　Ｍａｔｅｒｉａｌｓ　Ｄｅｃｏｒａｔｉｏｎ　Ｃｉｔｙ，３７８　Ｇｕａｎｇｄａ　Ｒｏａｄ，Ｙａｎｇｚｈｏｎｇ　Ｓｔｒｅｅｔ，Ｔａｉｊｉａｎｇ　Ｄｉｓｔｒｉｃｔ，Ｆｕｚｈｏｕ　Ｃｉｔｙ，Ｆｕｊｉａｎ　Ｐｒｏｖｉｎｃｅ,,,,,,2023-07-25,1,,,,,フクシュウアミワデンシユウゲンコウシ,0
760,4010001237124,新規,0,2023-07-25,2023-07-25,株式会社エヌワイケー,,株式会社,東京都,千代田区,神田神保町１丁目１０３番地東京パークタワー２０１０,,13,101,1010051,,,,,,,2023-07-25,1,,,,,エヌワイケー,0
761,4010001237132,新規,0,2023-07-25,2023-07-25,株式会社レクサス,,株式会社,東京都,千代田区,九段北１丁目４番３号７Ｆ,,13,101,1020073,,,,,,,2023-07-25,1,,,,,レクサス,0
762,4010001237140,新規,0,2023-07-25,2023-07-25,株式会社ｉｎｎｏｖｅ,,株式会社,東京都,千代田区,丸の内１丁目６番５号丸の内北口ビルディング９階ＷｅＷｏｒｋ内,,13,101,1000005,,,,,,,2023-07-25,1,,,,,イノーブ,0
767,4010005037000,新規,0,2023-07-25,2023-07-25,ＭＨＭ　Ｂｏｎｄｈｏｌｄｅｒ一般社団法人,,その他の設立登記法人,東京都,千代田区,霞が関３丁目２番５号霞ヶ関ビル３０階,,13,101,1000013,,,,,,,2023-07-25,1,,,,,,0
774,4010401175840,新規,0,2023-07-25,2023-07-25,株式会社サウンド・シティホールディングス,,株式会社,東京都,港区,麻布台２丁目２番１号,,13,103,1060041,,,,,,,2023-07-25,1,,,,,サウンドシティホールディングス,0
775,4010401175857,新規,0,2023-07-25,2023-07-25,ＰＯＤホールディングス株式会社,,株式会社,東京都,港区,六本木１丁目４番５号アークヒルズサウスタワー１６階,,13,103,1060032,,,,,,,2023-07-25,1,,,,,ピーオーディーホールディングス,0
776,4010401175956,新規,0,2023-07-25,2023-07-25,株式会社ＭＩＮＡＭＩＫＡＺＥ,,株式会社,東京都,港区,北青山１丁目３番１号アールキューブ青山３階,,13,103,1070061,,,,,,,2023-07-25,1,,,,,ミナミカゼ,0
781,4010403030556,新規,0,2023-07-25,2023-07-25,ＫＴ＆Ｙ合同会社,,合同会社,東京都,港区,赤坂７丁目６番４１－６０１号,,13,103,1070052,,,,,,,2023-07-25,1,,,,,ケイティアンドワイ,0
783,4010405022353,新規,0,2023-07-25,2023-07-25,ＳＯＬＡ税理士法人,,その他の設立登記法人,東京都,港区,芝２丁目３０番１５号ＭＭＳビル５階,,13,103,1050014,,,,,,,2023-07-25,1,,,,,ソラ,0
784,4010501050811,新規,0,2023-07-25,2023-07-25,栄昌株式会社,,株式会社,東京都,台東区,上野６丁目７番１６号,,13,106,1100005,,,,,,,2023-07-25,1,,,,,エイショウ,0
787,4010603010267,新規,0,2023-07-25,2023-07-25,合同会社Ｏｆｆｉｃｅ　Ｋ２ＬＩＮＫ,,合同会社,東京都,墨田区,江東橋２丁目２－１４東神ビル２０２,,13,107,1300022,,,,,,,2023-07-25,1,,,,,オフィスケーツーリンク,0
800,4011101103694,新規,0,2023-07-25,2023-07-25,ハッピーアグリテック株式会社,,株式会社,東京都,新宿区,西新宿３丁目３番１３号西新宿水間ビル６階,,13,104,1600023,,,,,,,2023-07-25,1,,,,,ハッピーアグリテック,0
801,4011101103728,新規,0,2023-07-25,2023-07-25,株式会社ノビシロ,,株式会社,東京都,新宿区,若葉１丁目１５番地,,13,104,1600011,,,,,,,2023-07-25,1,,,,,ノビシロ,0
802,4011103013272,新規,0,2023-07-25,2023-07-25,Ｂａｌｖｉｇ合同会社,,合同会社,東京都,新宿区,西新宿３丁目３番１３号西新宿水間ビル６階,,13,104,1600023,,,,,,,2023-07-25,1,,,,,バルビ,0
803,4011301028881,新規,0,2023-07-25,2023-07-25,株式会社だるま堂不動産,,株式会社,東京都,杉並区,浜田山４丁目４番２号,,13,115,1680065,,,,,,,2023-07-25,1,,,,,ダルマドウフドウサン,0
808,4011501029556,新規,0,2023-07-25,2023-07-25,株式会社ａｏｌａｙｉ　ＪＡＰＡＮ,,株式会社,東京都,荒川区,西日暮里２丁目３０番４－７Ｆ,,13,118,1160013,,,,,,,2023-07-25,1,,,,,オーライジャパン,0
809,4011501029564,新規,0,2023-07-25,2023-07-25,株式会社ＧＯＵ,,株式会社,東京都,北区,志茂３丁目４４番２１－７０３号,,13,117,1150042,,,,,,,2023-07-25,1,,,,,ゴウ,0
811,4011503005695,新規,0,2023-07-25,2023-07-25,合同会社翔,,合同会社,東京都,荒川区,荒川４丁目２９番１０号エスポワール町屋４０５,,13,118,1160002,,,,,,,2023-07-25,1,,,,,ショウ,0
815,4011801042762,新規,0,2023-07-25,2023-07-25,株式会社ビューティ花壇東日本分割準備会社,,株式会社,東京都,葛飾区,白鳥４丁目８番１４号,,13,122,1250063,,,,,,,2023-07-25,1,,,,,ビューティカダンヒガシニホンブンカツジュンビガイシャ,0
819,4013301051038,新規,0,2023-07-25,2023-07-25,株式会社リンリンソリューションズ,,株式会社,東京都,豊島区,西巣鴨３丁目２５－１１メトロエステート西巣鴨１０６,,13,116,1700001,,,,,,,2023-07-25,1,,,,,リンリンソリューションズ,0
821,4020001152660,新規,0,2023-07-25,2023-07-25,株式会社ｓｕｎｓｕｎ,,株式会社,神奈川県,川崎市幸区,新川崎５番１－１７０９号,,14,132,2120032,,,,,,,2023-07-25,1,,,,,サンサン,0
823,4020003024239,新規,0,2023-07-25,2023-07-25,合同会社ＮＧＴ,,合同会社,神奈川県,横浜市青葉区,千草台３４番地１９,,14,117,2270051,,,,,,,2023-07-25,1,,,,,エヌジーティー,0
825,4021001079679,新規,0,2023-07-25,2023-07-25,ケーズセキュリティ株式会社,,株式会社,神奈川県,大和市,深見台３丁目５番２６－３０６号,,14,213,2420013,,,,,,,2023-07-25,1,,,,,ケーズセキュリティ,0
833,4030001155002,新規,0,2023-07-25,2023-07-25,株式会社彩厚,,株式会社,埼玉県,ふじみ野市,亀久保１７６２番地１５,,11,245,3560051,,,,,,,2023-07-25,1,,,,,サイコウ,0
834,4030001155019,新規,0,2023-07-25,2023-07-25,株式会社マツモト,,株式会社,埼玉県,志木市,中宗岡４丁目６番３５号,,11,228,3530002,,,,,,,2023-07-25,1,,,,,マツモト,0
835,4030001155035,新規,0,2023-07-25,2023-07-25,株式会社スマイルジャック,,株式会社,埼玉県,蕨市,塚越５丁目１８番９号,,11,223,3350002,,,,,,,2023-07-25,1,,,,,スマイルジャック,0
837,4030003022167,新規,0,2023-07-25,2023-07-25,合同会社ＷＴＳ,,合同会社,埼玉県,さいたま市南区,内谷３丁目２０番１５－７号,,11,108,3360034,,,,,,,2023-07-25,1,,,,,ダブリューティーエス,0
838,4030003022191,新規,0,2023-07-25,2023-07-25,Ｗｅｌｌｎａ合同会社,,合同会社,埼玉県,鴻巣市,本町５丁目１‐９エクレール鴻巣１００４,,11,217,3650038,,,,,,,2023-07-25,1,,,,,ウェルナ,0
842,4040001129368,新規,0,2023-07-25,2023-07-25,リッジウッド・プロテクション・パートナーズ株式会社,,株式会社,千葉県,千葉市中央区,新千葉１丁目７番２号ペリエｐｌｕｓビル３階,,12,101,2600031,,,,,,,2023-07-25,1,,,,,リッジウッドプロテクションパートナーズ,0
843,4040001129376,新規,0,2023-07-25,2023-07-25,株式会社Ｈａｕ’ｏｌｉ,,株式会社,千葉県,市川市,平田２丁目４番２１号,,12,203,2720031,,,,,,,2023-07-25,1,,,,,ハウオリ,0
849,4060001036174,新規,0,2023-07-25,2023-07-25,株式会社カーリスタン,,株式会社,栃木県,鹿沼市,府所町１９０番地１スカイコートＣ棟,,09,205,3220033,,,,,,,2023-07-25,1,,,,,カーリスタン,0
852,4070001040670,新規,0,2023-07-25,2023-07-25,株式会社あるく,,株式会社,群馬県,高崎市,問屋町１丁目２番地１８,,10,202,3700006,,,,,,,2023-07-25,1,,,,,アルク,0
860,4110005016968,新規,0,2023-07-25,2023-07-25,一般社団法人しなしなやらんかや,,その他の設立登記法人,新潟県,佐渡市,小木町２３４番地１,,15,224,9520604,,,,,,,2023-07-25,1,,,,,シナシナヤランカヤ,0
877,4120001256716,新規,0,2023-07-25,2023-07-25,株式会社ラストロング,,株式会社,大阪府,大阪市浪速区,塩草２丁目３番２３号,,27,111,5560024,,,,,,,2023-07-25,1,,,,,ラストロング,0
878,4120001256740,新規,0,2023-07-25,2023-07-25,株式会社裕設備,,株式会社,大阪府,守口市,佐太中町４丁目１９番１３－４１６号,,27,209,5700002,,,,,,,2023-07-25,1,,,,,ユウセツビ,0
880,4120003024550,新規,0,2023-07-25,2023-07-25,ｏｔｏｋｏｉｓｈｉ合同会社,,合同会社,大阪府,大阪市旭区,太子橋１丁目４番３号ギャレグラン１０１,,27,117,5350001,,,,,,,2023-07-25,1,,,,,オトコイシ,0
881,4120003024559,新規,0,2023-07-25,2023-07-25,華与水伝媒合同会社,,合同会社,大阪府,大阪市西区,九条南２丁目１６番１３号２０４,,27,106,5500025,,,,,,,2023-07-25,1,,,,,カヨスイデンバイ,0
883,4120101067922,新規,0,2023-07-25,2023-07-25,株式会社ＳＢＭ,,株式会社,大阪府,貝塚市,畠中１丁目７番１３号,,27,208,5970072,,,,,,,2023-07-25,1,,,,,エスビーエム,0
884,4120101067930,新規,0,2023-07-25,2023-07-25,株式会社都,,株式会社,大阪府,堺市西区,鳳西町１丁７５番地２－２０１号,,27,144,5938326,,,,,,,2023-07-25,1,,,,,ミヤコ,0
900,4140001130951,新規,0,2023-07-25,2023-07-25,株式会社ツナグ家,,株式会社,兵庫県,三田市,すずかけ台４丁目３番地１０７号,,28,219,6691322,,,,,,,2023-07-25,1,,,,,ツナグイエ,0
901,4140001130968,新規,0,2023-07-25,2023-07-25,株式会社ＹＭＢ,,株式会社,兵庫県,神戸市中央区,中山手通１丁目１５番７－７０７号,,28,110,6500004,,,,,,,2023-07-25,1,,,,,ワイエムビー,0
907,4140003019326,新規,0,2023-07-25,2023-07-25,合同会社ウィステリア,,合同会社,兵庫県,明石市,西明石南町１丁目９番２０号,,28,203,6730041,,,,,,,2023-07-25,1,,,,,ウィステリア,0
908,4140003019334,新規,0,2023-07-25,2023-07-25,合同会社Ｍｙｕｓｅ‐ｄｉｖｅ,,合同会社,兵庫県,川西市,山原１丁目４番１９－１号,,28,217,6660154,,,,,,,2023-07-25,1,,,,,ミューズダイブ,0
909,4140003019342,新規,0,2023-07-25,2023-07-25,合同会社エステック,,合同会社,兵庫県,神戸市中央区,元町通５丁目３番６号やない荘３０１号室,,28,110,6500022,,,,,,,2023-07-25,1,,,,,エステック,0
922,4180001157165,新規,0,2023-07-25,2023-07-25,新生ソフト株式会社,,株式会社,愛知県,名古屋市西区,樋の口町１－１５，ホーワビル３階ＳＨＩＲＯＬＡＢＯ，１３号,,23,104,4510034,,,,,,,2023-07-25,1,,,,,シンセイソフト,0
929,4180301037595,新規,0,2023-07-25,2023-07-25,株式会社中部レックス,,株式会社,愛知県,西尾市,新在家町南郷１番地,,23,213,4440311,,,,,,,2023-07-25,1,,,,,チュウブレックス,0
930,4180303005781,新規,0,2023-07-25,2023-07-25,ＬＯＯＰ合同会社,,合同会社,愛知県,豊橋市,錦町１４９番地１（５０３）,,23,201,4418027,,,,,,,2023-07-25,1,,,,,ループ,0
934,4200001041440,新規,0,2023-07-25,2023-07-25,ＡＵＴＯＴＥＣＨ株式会社,,株式会社,岐阜県,養老郡養老町,大場字平東８７１番地２２,,21,341,5031272,,,,,,,2023-07-25,1,,,,,オートテック,0
957,4290003014147,新規,0,2023-07-25,2023-07-25,ＧＲＡＹＥＬ合同会社,,合同会社,福岡県,福岡市博多区,博多駅前１丁目２３番２号ＰａｒｋＦｒｏｎｔ博多駅前１丁目５Ｆ－Ｂ,,40,132,8120011,,,,,,,2023-07-25,1,,,,,グレイエル,0
960,4300001013396,新規,0,2023-07-25,2023-07-25,ＰａｒｉＰａｒｉ株式会社,,株式会社,佐賀県,西松浦郡有田町,応法丙３５７６番地１９,,41,401,8440021,,,,,,,2023-07-25,1,,,,,パリパリ,0
966,4320001019904,新規,0,2023-07-25,2023-07-25,株式会社ＫＯＨＡＲＵ,,株式会社,大分県,臼杵市,大字井村７８番地４６,,44,206,8750083,,,,,,,2023-07-25,1,,,,,コハル,0
983,4360001032325,新規,0,2023-07-25,2023-07-25,八重山企画株式会社,,株式会社,沖縄県,石垣市,字石垣３６６番地,,47,207,9070023,,,,,,,2023-07-25,1,,,,,ヤエヤマキカク,0
985,4360005006886,新規,0,2023-07-25,2023-07-25,一般社団法人おにわ,,その他の設立登記法人,沖縄県,中頭郡西原町,字千原１番地、琉球大学教育学部内,,47,329,9030129,,,,,,,2023-07-25,1,,,,,オニワ,0
986,4370001050210,新規,0,2023-07-25,2023-07-25,ＳＭＧホールディングス株式会社,,株式会社,宮城県,仙台市宮城野区,扇町５丁目１０番６号,,04,102,9830034,,,,,,,2023-07-25,1,,,,,エスエムジーホールディングス,0
988,4370003006219,新規,0,2023-07-25,2023-07-25,合同会社プライム,,合同会社,宮城県,仙台市青葉区,国分町２丁目１２番２５号分町ビル３階,,04,101,9800803,,,,,,,2023-07-25,1,,,,,プライム,0
995,4430003015246,新規,0,2023-07-25,2023-07-25,エルズ北海道合同会社,,合同会社,北海道,札幌市清田区,平岡公園東１０丁目１９－６,,01,110,0040882,,,,,,,2023-07-25,1,,,,,エルズホッカイドウ,0
1008,4700150014196,新規,0,2023-07-25,2015-10-09,藤沢市職員福利厚生会,,その他,神奈川県,藤沢市,朝日町１－１,,14,205,2510054,,,,,,,2015-10-09,1,,,,,フジサワシシヨクインフクリコウセイカイ,0
1009,4700150117395,新規,0,2023-07-25,2023-07-25,ａｎｊｉｚｈｅｎｈｏｎｇ　ｊｉａｊｕ　ｙｏｕｘｉａｎ　ｇｏｎｇｓｉ,,外国会社等,,,,,,,,Ｃｈｉｎａ，ｚｈｅｊｉａｎｇ　ｈｕｚｈｏｕ　ａｎｊｉｘｉａｎ　ｄｉｐｕｊｉｅｄａｏ　ｗａｎｍｕｃｕｎ　ｂａｔｏｕｚｉｒａｎｃｕｎ　ｘｉｂｉａｎ,,,,,,2023-07-25,1,,,,,アンキツシンコウカグユウゲンコウシ,0
1010,4700150118451,新規,0,2023-07-25,2023-07-25,Ｎｉｎｇｂｏ　Ｙｉｎｚｈｏｕ　Ｏｎｅ　ａｎｄ　Ｔｈｉｒｄ　Ｕｎｉｔ　Ｈｏｍｅ　Ｐｒｏｄｕｃｔ　Ｌｔｄ,,外国会社等,,,,,,,,Ｎｏ．２８，Ｄｉｎｇｈａｉ　Ｒｏａｄ，Ｘｉａｎｅｒ　Ｖｉｌｌａｇｅ，Ｘｉａｎｘｉａｎｇ　Ｔｏｗｎ，Ｙｉｎｚｈｏｕ　Ｄｉｓｔｒｉｃｔ，Ｎｉｎｇｂｏ，Ｃｈｉｎａ,,,,,,2023-07-25,1,,,,,ネイハシキンシュウイチムサンブンチカキョヨウヒンユウゲンコウシ,0
1011,4700150118600,新規,0,2023-07-25,2023-07-25,ｄｏｎｇｇｕａｎｇｕｄｅｎａｉｔｅｇｕａｎｇｄｉａｎｙｏｕｘｉａｎｇｏｎｇｓｉ,,外国会社等,,,,,,,,Ｒｏｏｍ　４０１，Ｂｕｉｌｄｉｎｇ　２，Ｎｏ．２５，Ｄｏｎｇｘｉｎｇｙｕａｎ　１ｓｔ　Ｒｏａｄ，Ｄｏｎｇｋｅｎｇ　Ｔｏｗｎ，Ｄｏｎｇｇｕａｎ　Ｃｉｔｙ，Ｇｕａｎｇｄｏｎｇ　Ｐｒｏｖｉｎｃｅ,,,,,,2023-07-25,1,,,,,トンカンコトクタイコウデンユウゲンコウシ,0
1012,4700150118609,新規,0,2023-07-25,2023-07-25,Ｔａｉｙｕａｎｓｈｉｌａｎｂａｎｇｊｉｎｃｈｕｋｏｕｍａｏｙｉｙｏｕｘｉａｎｇｏｎｇｓｉ,,外国会社等,,,,,,,,Ｎｏ．６，１９ｔｈ　Ｆｌｏｏｒ，Ｈｅｘｉｎｓｈａｎｇ　Ｂｕｉｌｄｉｎｇ，Ｎｏ．７０５，Ｃｈａｎｇｆｅｎｇ　Ｓｔｒｅｅｔ，Ｘｉａｏｄｉａｎ　Ｄｉｓｔｒｉｃｔ，Ｔａｉｙｕａｎ　Ｃｉｔｙ，Ｓｈａｎｘｉ，Ｃｈｉｎａ,,,,,,2023-07-25,1,,,,,タイゲンシランホウシンシュツコウボウエキユウゲンコウシ,0
1017,5010001237098,新規,0,2023-07-25,2023-07-25,株式会社サンタヘレナ,,株式会社,東京都,文京区,本郷１丁目１４番８号,,13,105,1130033,,,,,,,2023-07-25,1,,,,,サンタヘレナ,0
1018,5010001237123,新規,0,2023-07-25,2023-07-25,Ｃ’ｌｕｓ株式会社,,株式会社,東京都,千代田区,神田錦町３丁目７番地２－７０７号室,,13,101,1010054,,,,,,,2023-07-25,1,,,,,シェル,0
1019,5010001237156,新規,0,2023-07-25,2023-07-25,ブルーインベストメント株式会社,,株式会社,東京都,中央区,京橋２丁目７番１４号ビュレックス京橋７０３,,13,102,1040031,,,,,,,2023-07-25,1,,,,,ブルーインベストメント,0
1025,5010003041176,新規,0,2023-07-25,2023-07-25,合同会社ＲＤソーラーパワー,,合同会社,東京都,千代田区,丸の内３丁目１番１号東京共同会計事務所内,,13,101,1000005,,,,,,,2023-07-25,1,,,,,アールディーソーラーパワー,0
1037,5010401175781,新規,0,2023-07-25,2023-07-25,株式会社ＰＥＯＰＬＥ,,株式会社,東京都,港区,高輪３丁目１２番８号,,13,103,1080074,,,,,,,2023-07-25,1,,,,,ピープル,0
1038,5010401175831,新規,0,2023-07-25,2023-07-25,株式会社サワムラ,,株式会社,東京都,港区,東麻布１丁目１４番５号,,13,103,1060044,,,,,,,2023-07-25,1,,,,,サワムラ,0
1039,5010401175848,新規,0,2023-07-25,2023-07-25,鈴野トレーディングセンター株式会社,,株式会社,東京都,港区,虎ノ門５丁目１３番１号虎ノ門４０ＭＴビル７Ｆ,,13,103,1050001,,,,,,,2023-07-25,1,,,,,スズノトレーディングセンター,0
1040,5010401175856,新規,0,2023-07-25,2023-07-25,株式会社ライオンズグループ,,株式会社,東京都,港区,白金台１丁目２－１２ライオンズマンション白金台９０３,,13,103,1080071,,,,,,,2023-07-25,1,,,,,ライオンズグループ,0
1041,5010401175880,新規,0,2023-07-25,2023-07-25,株式会社ｅｉｇｈｔ　ｓｏｌｕｔｉｏｎｓ,,株式会社,東京都,港区,東麻布１丁目７番３号５階,,13,103,1060044,,,,,,,2023-07-25,1,,,,,エイトソリューションズ,0
1042,5010401175889,新規,0,2023-07-25,2023-07-25,株式会社メイカヒット,,株式会社,東京都,港区,北青山１丁目３番１号アールキューブ青山３階,,13,103,1070061,,,,,,,2023-07-25,1,,,,,メイカヒット,0
1043,5010401175955,新規,0,2023-07-25,2023-07-25,Ｅｕｒｅｋａ　Ｉｎｔｅｒｎａｔｉｏｎａｌ　Ｇｒｏｕｐ　Ｊａｐａｎ株式会社,,株式会社,東京都,港区,元赤坂１丁目２番７号赤坂Ｋタワー,,13,103,1070051,,,,,,,2023-07-25,1,,,,,ユリイカインターナショナルグループジャパン,0
1045,5010501050777,新規,0,2023-07-25,2023-07-25,倍頓栄養株式会社,,株式会社,東京都,台東区,上野６丁目７－１６川久保ビル８０２号,,13,106,1100005,,,,,,,2023-07-25,1,,,,,バイトンエイヨウ,0
1046,5010505003426,新規,0,2023-07-25,2023-07-25,管理組合法人土田ビル,,その他の設立登記法人,東京都,台東区,浅草橋２丁目８番２号,,13,106,1110053,,,,,,,2023-07-25,1,,,,,ツチダビル,0
1052,5010801034182,新規,0,2023-07-25,2023-07-25,株式会社ソラノイロ,,株式会社,東京都,大田区,西六郷１丁目１２番２２－２２８号,,13,111,1440056,,,,,,,2023-07-25,1,,,,,ソラノイロ,0
1058,5011001155802,新規,0,2023-07-25,2023-07-25,株式会社Ｔｒａｐｅｚｏｉｄ,,株式会社,東京都,渋谷区,富ヶ谷２丁目５－１０,,13,113,1510063,,,,,,,2023-07-25,1,,,,,トラピゾイド,0
1061,5011101103702,新規,0,2023-07-25,2023-07-25,株式会社ＨＡＮＥＭＩ,,株式会社,東京都,新宿区,西新宿７丁目８番１１号中川ビル５階Ａ,,13,104,1600023,,,,,,,2023-07-25,1,,,,,ハネミ,0
1069,5011803005733,新規,0,2023-07-25,2023-07-25,古月之華合同会社,,合同会社,東京都,足立区,日ノ出町４１－８北千住ホワイトハイツ５０２号室,,13,121,1200021,,,,,,,2023-07-25,1,,,,,コツキノハナ,0
1072,5012703002762,新規,0,2023-07-25,2023-07-25,合同会社ｈａｒｒｉｅｒ,,合同会社,東京都,小平市,天神町４丁目２９番３８－５０４号,,13,211,1870004,,,,,,,2023-07-25,1,,,,,ハリアー,0
1083,5021003013354,新規,0,2023-07-25,2023-07-25,合同会社アイル,,合同会社,神奈川県,大和市,中央６丁目２番１８号,,14,213,2420021,,,,,,,2023-07-25,1,,,,,アイル,0
1087,5030003022232,新規,0,2023-07-25,2023-07-25,合同会社プリンシプル,,合同会社,埼玉県,越谷市,東大沢２丁目１０‐９,,11,222,3430022,,,,,,,2023-07-25,1,,,,,プリンシプル,0
1091,5030005021331,新規,0,2023-07-25,2023-07-25,特定非営利活動法人みんなのひろば,,その他の設立登記法人,埼玉県,所沢市,所沢新町２４６７番地の１０,,11,208,3590006,,,,,,,2023-07-25,1,,,,,ミンナノヒロバ,0
1100,5040001129268,新規,0,2023-07-25,2023-07-25,ＧｘＤ株式会社,,株式会社,千葉県,柏市,柏の葉６丁目６－２－４Ｆ,,12,217,2770882,,,,,,,2023-07-25,1,,,,,ジーエクスディー,0
1101,5040001129359,新規,0,2023-07-25,2023-07-25,ママと子ども株式会社,,株式会社,千葉県,千葉市中央区,生実町２５３１番地２８,,12,101,2600813,,,,,,,2023-07-25,1,,,,,ママトコドモ,0
1103,5040003023007,新規,0,2023-07-25,2023-07-25,合同会社ビルクリーン,,合同会社,千葉県,市川市,新井２丁目２番１－２０３号,,12,203,2720144,,,,,,,2023-07-25,1,,,,,ビルクリーン,0
1104,5040005022072,新規,0,2023-07-25,2023-07-25,司法書士法人トライ千葉,,その他の設立登記法人,千葉県,船橋市,本町３丁目３３番１３号フォートリス船橋８階,,12,204,2730005,,,,,,,2023-07-25,1,,,,,トライチバ,0
1105,5050005013302,新規,0,2023-07-25,2023-07-25,協同組合共同積算設計センター,,その他の設立登記法人,茨城県,龍ケ崎市,松ケ丘３丁目３番地１７,,08,208,3010853,,,,,,,2023-07-25,1,,,,,キョウドウセキサンセッケイセンター,0
1110,5060001036149,新規,0,2023-07-25,2023-07-25,株式会社Ｓ・Ｓ・Ｔ,,株式会社,栃木県,足利市,小俣町４５４番地１１－１０１号,,09,202,3260141,,,,,,,2023-07-25,1,,,,,エスエスティー,0
1114,5070001040661,新規,0,2023-07-25,2023-07-25,株式会社Ｕ‐ＴＲＵＳＴ,,株式会社,群馬県,高崎市,正観寺町５５０番地１,,10,202,3700008,,,,,,,2023-07-25,1,,,,,ユートラスト,0
1119,5110005016975,新規,0,2023-07-25,2023-07-25,ＮＰＯ法人プール・ボランティア新潟,,その他の設立登記法人,新潟県,新潟市東区,新岡山２丁目７番２号,,15,102,9500822,,,,,,,2023-07-25,1,,,,,プールボランティアニイガタ,0
1128,5120001256533,新規,0,2023-07-25,2023-07-25,株式会社エクスコード,,株式会社,大阪府,大阪市北区,梅田１丁目２番２号１２－１２,,27,127,5300001,,,,,,,2023-07-25,1,,,,,エクスコード,0
1129,5120001256624,新規,0,2023-07-25,2023-07-25,株式会社Ｂｅａｒ　ｂｒｏ,,株式会社,大阪府,大阪市西区,京町堀１丁目１０番１９号ロッカベラアパートメント６０３号室,,27,106,5500003,,,,,,,2023-07-25,1,,,,,ビアーブロ,0
1130,5120001256665,新規,0,2023-07-25,2023-07-25,株式会社ディー＆アイ,,株式会社,大阪府,大阪市平野区,西脇３丁目２－２２－２０３,,27,126,5470035,,,,,,,2023-07-25,1,,,,,ディーアンドアイ,0
1131,5120001256715,新規,0,2023-07-25,2023-07-25,ＮＥＶＥＲＭＩＮＤ株式会社,,株式会社,大阪府,大阪市西区,西本町１丁目１３番３８号,,27,106,5500005,,,,,,,2023-07-25,1,,,,,ネバーマインド,0
1132,5120001256748,新規,0,2023-07-25,2023-07-25,株式会社こころリンクス,,株式会社,大阪府,大阪市阿倍野区,阪南町５丁目１６番１０－３０１号,,27,119,5450021,,,,,,,2023-07-25,1,,,,,ココロリンクス,0
1137,5120003024558,新規,0,2023-07-25,2023-07-25,合同会社かけつけ太郎,,合同会社,大阪府,枚方市,車塚１丁目１番１号輝きプラザきらら６階インキュベートルーム６号室,00131269,27,210,5731159,,,,,,,2023-07-25,1,,,,,カケツケタロウ,0
1139,5120005023780,新規,0,2023-07-25,2023-07-25,一般社団法人エトワール,,その他の設立登記法人,大阪府,大阪市生野区,巽中３丁目１０番３５号,,27,116,5440013,,,,,,,2023-07-25,1,,,,,エトワール,0
1142,5120103005342,新規,0,2023-07-25,2023-07-25,合同会社輪,,合同会社,大阪府,和泉市,山荘町３丁目１０番２６号,,27,219,5940021,,,,,,,2023-07-25,1,,,,,リン,0
1144,5120901047817,新規,0,2023-07-25,2023-07-25,ラインドプラス株式会社,,株式会社,大阪府,豊中市,夕日丘２丁目１５－１５－３０２,,27,203,5610864,,,,,,,2023-07-25,1,,,,,ラインドプラス,0
1145,5120901047833,新規,0,2023-07-25,2023-07-25,株式会社Ａｎｇｅ,,株式会社,大阪府,豊中市,千成町２丁目７番９号,,27,203,5610829,,,,,,,2023-07-25,1,,,,,アンジュ,0
1156,5140001130942,新規,0,2023-07-25,2023-07-25,株式会社おんげん,,株式会社,兵庫県,神戸市灘区,大内通２丁目６番７－３号,,28,102,6570833,,,,,,,2023-07-25,1,,,,,オンゲン,0
1157,5140001130959,新規,0,2023-07-25,2023-07-25,株式会社Ｌｅｇｅｎｄ　Ｔｉｍｅ,,株式会社,兵庫県,尼崎市,稲葉荘４丁目２２番１２号,,28,202,6600064,,,,,,,2023-07-25,1,,,,,レジェンドタイム,0
1158,5140001130967,新規,0,2023-07-25,2023-07-25,株式会社Ｍｅｗｔｅｃｈ,,株式会社,兵庫県,伊丹市,荒牧５丁目１番３４号,,28,207,6640001,,,,,,,2023-07-25,1,,,,,ミュウテック,0
1159,5140001130975,新規,0,2023-07-25,2023-07-25,株式会社ＡＧＲＥＥ,,株式会社,兵庫県,西宮市,深谷町２番５８－２０１号,,28,204,6620067,,,,,,,2023-07-25,1,,,,,アグリ,0
1160,5140001130983,新規,0,2023-07-25,2023-07-25,中田自動車解体株式会社,,株式会社,兵庫県,加古川市,平岡町西谷１０６番地,,28,210,6750102,,,,,,,2023-07-25,1,,,,,ナカタジドウシャカイタイ,0
1163,5140003019317,新規,0,2023-07-25,2023-07-25,合同会社セーフティ,,合同会社,兵庫県,尼崎市,富松町３丁目１１番６号,,28,202,6610003,,,,,,,2023-07-25,1,,,,,セーフティ,0
1164,5140003019333,新規,0,2023-07-25,2023-07-25,合同会社とうふ,,合同会社,兵庫県,姫路市,南町７６番地姫路城陽ビル４Ｆ,,28,201,6700912,,,,,,,2023-07-25,1,,,,,トウフ,0
1165,5140003019341,新規,0,2023-07-25,2023-07-25,合同会社創,,合同会社,兵庫県,神戸市灘区,鶴甲５丁目１番５０－８０３号,,28,102,6570011,,,,,,,2023-07-25,1,,,,,ソウ,0
1176,5180001157271,新規,0,2023-07-25,2023-07-25,金城産業株式会社,,株式会社,愛知県,名古屋市南区,要町２丁目２３番地の５,,23,112,4570802,,,,,,,2023-07-25,1,,,,,カネシロサンギョウ,0
1182,5180005020302,新規,0,2023-07-25,2023-07-25,一般社団法人感思,,その他の設立登記法人,愛知県,海部郡大治町,大字西條字松下８２番地,,23,424,4901144,,,,,,,2023-07-25,1,,,,,カノン,0
1184,5180301037594,新規,0,2023-07-25,2023-07-25,日伸ホールディングス株式会社,,株式会社,愛知県,豊田市,前林町上納２６番地,,23,211,4730934,,,,,,,2023-07-25,1,,,,,ニッシンホールディングス,0
1191,5200001041522,新規,0,2023-07-25,2023-07-25,株式会社未来企画,,株式会社,岐阜県,揖斐郡大野町,大字瀬古１６９,,21,403,5010563,,,,,,,2023-07-25,1,,,,,ミライキカク,0
1223,5290003014162,新規,0,2023-07-25,2023-07-25,合同会社Ｎ＆Ｎ,,合同会社,福岡県,福岡市東区,香椎２丁目１８番２３－１０５号,,40,131,8130011,,,,,,,2023-07-25,1,,,,,,0
1225,5320001019903,新規,0,2023-07-25,2023-07-25,株式会社ＦＪＣ,,株式会社,大分県,大分市,汐見１丁目１１番１５－１号,,44,201,8700253,,,,,,,2023-07-25,1,,,,,エフジェーシー,0
1247,5380003005516,新規,0,2023-07-25,2023-07-25,ヴェルエール合同会社,,合同会社,福島県,いわき市,平南白土１丁目６番地の９,,07,204,9708025,,,,,,,2023-07-25,1,,,,,ヴェルエール,0
1261,5430001089522,新規,0,2023-07-25,2023-07-25,株式会社柾本住設,,株式会社,北海道,札幌市北区,篠路二条３丁目１１番６号,,01,102,0028022,,,,,,,2023-07-25,1,,,,,マサモトジュウセツ,0
1263,5430002066933,新規,0,2023-07-25,2023-07-25,有限会社小田造林,,有限会社,北海道,余市郡赤井川村,字都５０番地１,,01,409,0460541,,,,,,,2023-07-25,1,,,,,オダゾウリン,0
1273,5700150027998,新規,0,2023-07-25,2015-10-09,兵庫県町議会議長会,,その他,兵庫県,神戸市中央区,下山手通４丁目１６－３兵庫県民会館内,,28,110,6500011,,,,,,,2015-10-09,1,,,,,ヒヨウゴケンチヨウギカイギチヨウカイ,0
1274,5700150118038,新規,0,2023-07-25,2023-07-25,ｓｈｅｎ　ｚｈｅｎ　ｓｈｉ　ｂｉ　ｋｅ　ｄｉａｎ　ｃｈｉ　ｙｏｕ　ｘｉａｎ　ｇｏｎｇ　ｓｉ,,外国会社等,,,,,,,,Ｃｈｉｎａ　ｓｈｅｎ　ｚｈｅｎ　ｓｈｉ　ｌｏｎｇ　ｈｕａ　ｑｕ　ｌｏｎｇ　ｈｕａ　ｊｉｅ　ｄａｏ　ｊｉｎｇ　ｌｏｎｇ　ｓｈｅ　ｑｕ　ｙｉ　ｃｈｅｎｇ　ｈｕａｎ　ｚｈｉ　ｚｈｏｎｇ　ｘｉｎ　２ｚｕｏ　７ｃｅｎｇ　７０６,,,,,,2023-07-25,1,,,,,シンセンシヒカデンチユウゲンガイシャ,0
1275,5700150118599,新規,0,2023-07-25,2023-07-25,ＧＥＣＫＯ　ＭＵＳＩＣＡＬ　ＩＮＳＴＲＵＭＥＮＴ　ＣＯ．，ＬＩＭＩＴＥＤ,,外国会社等,,,,,,,,ＲＯＯＭ　Ｄ　１０／Ｆ　ＴＯＷＥＲ　Ａ　ＢＩＬＬＩＯＮ　ＣＥＮＴＲＥ　１　ＷＡＮＧ　ＫＷＯＮＧ　ＲＯＡＤ　ＫＯＷＬＯＯＮ　ＢＡＹ　ＫＬ　ＨＫ　９９９０７７,,,,,,2023-07-25,1,,,,,ケッコウガッキユウゲンコウシ,0
1276,5700150118608,新規,0,2023-07-25,2023-07-25,ｘｉｎｈｕａｎａｘｉｅｎｉａｎｍａｏｙｉｙｏｕｘｉａｎｇｏｎｇｓｉ,,外国会社等,,,,,,,,Ｎｏ．２３６，Ｂａｉｓｈａ　ｒｅｓｅｔｔｌｅｍｅｎｔ　ａｒｅａ，Ｂａｉｓｈａ　ｃｏｍｍｕｎｉｔｙ，Ｓｈａｎｇｄｕ　Ｘｉｎｈｕａ　Ｃｏｕｎｔｙ　Ｌｏｕｄｉ　Ｃｉｔｙ　Ｈｕｎａｎ　Ｐｒｏｖｉｎｃｅ，Ｃｈｉｎａ,,,,,,2023-07-25,1,,,,,シンカナサネンボウエキユウゲンコウシ,0
1285,6010001237114,新規,0,2023-07-25,2023-07-25,株式会社チューニングフォーク・バイオ・ジャパン,,株式会社,東京都,中央区,日本橋堀留町１丁目９番１０号日本橋ライフサイエンスビルディング７、８階,,13,102,1030012,,,,,,,2023-07-25,1,,,,,チューニングフォークバイオジャパン,0
1286,6010001237147,新規,0,2023-07-25,2023-07-25,株式会社Ａｓｒｉｅｌ,,株式会社,東京都,中央区,銀座１丁目１２－４Ｎ＆ＥＢＬＤ．６Ｆ,,13,102,1040061,,,,,,,2023-07-25,1,,,,,アズリエル,0
1289,6010003041183,新規,0,2023-07-25,2023-07-25,ＧＷＢＳ　Ｏｐｅｒａｔｉｏｎｓ合同会社,,合同会社,東京都,千代田区,丸の内３丁目２番２号丸の内二重橋ビル２階,,13,101,1000005,,,,,,,2023-07-25,1,,,,,ジーダブリュービーエスオペレーションズ,0
1290,6010003041200,新規,0,2023-07-25,2023-07-25,合同会社ｅｔｅ,,合同会社,東京都,中央区,勝どき５丁目１１号１５番リビオレゾン勝どきｎｅｘ１２０１,,13,102,1040054,,,,,,,2023-07-25,1,,,,,,0
1291,6010005036999,新規,0,2023-07-25,2023-07-25,一般社団法人首都圏レジ開発エイト,,その他の設立登記法人,東京都,千代田区,平河町１丁目６番１５号シルスフィア会計事務所内,,13,101,1020093,,,,,,,2023-07-25,1,,,,,シュトケンレジカイハツエイト,0
1292,6010103002184,新規,0,2023-07-25,2023-07-25,合同会社マヤリアルエステート,,合同会社,東京都,八王子市,鑓水２丁目７５番地７,,13,201,1920375,,,,,,,2023-07-25,1,,,,,マヤリアルエステート,0
1296,6010401175871,新規,0,2023-07-25,2023-07-25,株式会社未来型リーダーシッププラットフォーム,,株式会社,東京都,港区,芝４丁目１６番２－Ｅ２２０６号,,13,103,1080014,,,,,,,2023-07-25,1,,,,,ミライガタリーダーシッププラットフォーム,0
1297,6010401175913,新規,0,2023-07-25,2023-07-25,Ｂｅｆｆ株式会社,,株式会社,東京都,港区,南青山３丁目１番３６号,,13,103,1070062,,,,,,,2023-07-25,1,,,,,ベフ,0
1298,6010401175921,新規,0,2023-07-25,2023-07-25,株式会社Ｆａｎ　Ｍａｒｋｅｔｉｎｇ,,株式会社,東京都,港区,麻布十番２丁目４番２号ザ・Ｖシティアベニュー８Ｆ,,13,103,1060045,,,,,,,2023-07-25,1,,,,,ファンマーケティング,0
1300,6010701044611,新規,0,2023-07-25,2023-07-25,株式会社Ｂｒｅａｔｈ,,株式会社,東京都,品川区,上大崎３丁目５番３号朝日目黒ビジネスマンション８０２号,,13,109,1410021,,,,,,,2023-07-25,1,,,,,ブレス,0
1302,6010703006790,新規,0,2023-07-25,2023-07-25,合同会社カタパルト,,合同会社,東京都,品川区,東大井５丁目１５番１０号カンナビル２Ｆ,,13,109,1400011,,,,,,,2023-07-25,1,,,,,カタパルト,0
1317,6011101103726,新規,0,2023-07-25,2023-07-25,株式会社ペルン,,株式会社,東京都,新宿区,西新宿３丁目３番１３号西新宿水間ビル６階,,13,104,1600023,,,,,,,2023-07-25,1,,,,,,0
1319,6011103013279,新規,0,2023-07-25,2023-07-25,合同会社アネスト,,合同会社,東京都,新宿区,西新宿３丁目３番１３号西新宿水間ビル２Ｆ,,13,104,1600023,,,,,,,2023-07-25,1,,,,,アネスト,0
1326,6011303004838,新規,0,2023-07-25,2023-07-25,合同会社まんたろう,,合同会社,東京都,杉並区,和泉１丁目３０番２６－２０１号,,13,115,1680063,,,,,,,2023-07-25,1,,,,,マンタロウ,0
1330,6011501029562,新規,0,2023-07-25,2023-07-25,株式会社ＭＡＮＥＵＶＥ,,株式会社,東京都,北区,滝野川７丁目２４番１号関口ビル２階,,13,117,1140023,,,,,,,2023-07-25,1,,,,,マニューバ,0
1331,6011505002565,新規,0,2023-07-25,2023-07-25,一般社団法人バンクロジ,,その他の設立登記法人,東京都,荒川区,南千住５丁目１５番１号２Ｆ左側,,13,118,1160003,,,,,,,2023-07-25,1,,,,,バンクロジ,0
1345,6013303006715,新規,0,2023-07-25,2023-07-25,地引会計アドバイザリー合同会社,,合同会社,東京都,豊島区,西池袋５丁目５番２１－１１０１号,,13,116,1710021,,,,,,,2023-07-25,1,,,,,ヂビキカイケイアドバイザリー,0
1348,6020001152568,新規,0,2023-07-25,2023-07-25,株式会社グローバルキャッチ,,株式会社,神奈川県,横浜市中区,山下町２００番地１－１Ｆ,,14,104,2310023,,,,,,,2023-07-25,1,,,,,グローバルキャッチ,0
1349,6020001152576,新規,0,2023-07-25,2023-07-25,正奇株式会社,,株式会社,神奈川県,横浜市神奈川区,大口仲町２０８－１－１０４,,14,102,2210003,,,,,,,2023-07-25,1,,,,,セイキ,0
1350,6020001152659,新規,0,2023-07-25,2023-07-25,株式会社ｉｒＯｍｏｃｈａ,,株式会社,神奈川県,横浜市西区,浅間町１丁目４番３号ウィザードビル４０２,,14,103,2200072,,,,,,,2023-07-25,1,,,,,,0
1362,6030001154984,新規,0,2023-07-25,2023-07-25,株式会社ｎａｋａｋｕｒａ,,株式会社,埼玉県,さいたま市緑区,大字三室１２６３番地９,,11,109,3360911,,,,,,,2023-07-25,1,,,,,ナカクラ,0
1363,6030001155108,新規,0,2023-07-25,2023-07-25,株式会社ＫＬＤ　ｓｔｕｄｉｏ,,株式会社,埼玉県,上尾市,大字上尾村１１７６番地１の２,,11,219,3620013,,,,,,,2023-07-25,1,,,,,ケーエルディースタジオ,0
1364,6030003022181,新規,0,2023-07-25,2023-07-25,合同会社桔梗,,合同会社,埼玉県,朝霞市,本町２丁目６－３５,,11,227,3510011,,,,,,,2023-07-25,1,,,,,キキョウ,0
1372,6040001129275,新規,0,2023-07-25,2023-07-25,ＣＨＨｏｌｄｉｎｇｓ株式会社,,株式会社,千葉県,千葉市中央区,祐光３丁目３番地,,12,101,2600007,,,,,,,2023-07-25,1,,,,,シーエイチホールディングス,0
1373,6040001129358,新規,0,2023-07-25,2023-07-25,株式会社圭Ｄｒｅａｍ,,株式会社,千葉県,柏市,高柳２番地４,,12,217,2770941,,,,,,,2023-07-25,1,,,,,ケイドリーム,0
1376,6040003023006,新規,0,2023-07-25,2023-07-25,盛運合同会社,,合同会社,千葉県,千葉市美浜区,高洲２丁目３－１６メゾン高洲１０２,,12,106,2610004,,,,,,,2023-07-25,1,,,,,セイウン,0
1380,6050001053193,新規,0,2023-07-25,2023-07-25,ｍａｒｋｅｔ株式会社,,株式会社,茨城県,坂東市,平八新田３８番地１,,08,228,3060602,,,,,,,2023-07-25,1,,,,,マーケット,0
1385,6060001036189,新規,0,2023-07-25,2023-07-25,ＧＡＪＡＮ　ＴＲＡＤＩＮＧ株式会社,,株式会社,栃木県,栃木市,藤岡町赤麻３２５５番地１,,09,203,3231102,,,,,,,2023-07-25,1,,,,,ガジャントレーデイング,0
1389,6070001040669,新規,0,2023-07-25,2023-07-25,ＨＡＮＡＺＯＮＯふぁーむ株式会社,,株式会社,群馬県,高崎市,引間町１３８番地,,10,202,3703517,,,,,,,2023-07-25,1,,,,,ハナゾノファーム,0
1409,6120001256697,新規,0,2023-07-25,2023-07-25,株式会社Ｔ．Ｅ．Ｗｅｓｔ,,株式会社,大阪府,大阪市福島区,海老江４丁目１６番１５号,,27,103,5530001,,,,,,,2023-07-25,1,,,,,ティーイーウエスト,0
1410,6120001256771,新規,0,2023-07-25,2023-07-25,佳怡株式会社,,株式会社,大阪府,大阪市北区,天満２丁目１－１２天満橋ＳＥビル４Ｆ,,27,127,5300043,,,,,,,2023-07-25,1,,,,,カイ,0
1412,6120003024549,新規,0,2023-07-25,2023-07-25,米子グラフィック合同会社,,合同会社,大阪府,大阪市北区,梅田１丁目２番２号大阪駅前第２ビル１２‐１２,,27,127,5300001,,,,,,,2023-07-25,1,,,,,ヨナゴグラフィック,0
1413,6120003024581,新規,0,2023-07-25,2023-07-25,合同会社メーテルリンク,,合同会社,大阪府,大阪市淀川区,西中島７丁目１番２６号,,27,123,5320011,,,,,,,2023-07-25,1,,,,,メーテルリンク,0
1419,6120103005333,新規,0,2023-07-25,2023-07-25,合同会社モジダマ,,合同会社,大阪府,富田林市,寺池台２丁目８－２８,,27,214,5840073,,,,,,,2023-07-25,1,,,,,モジダマ,0
1421,6120901047816,新規,0,2023-07-25,2023-07-25,アシダカシッピング株式会社,,株式会社,大阪府,高槻市,上牧南駅前町３番３０号の３,,27,207,5690004,,,,,,,2023-07-25,1,,,,,アシダカシッピング,0
1422,6120901047824,新規,0,2023-07-25,2023-07-25,株式会社からだラボ,,株式会社,大阪府,茨木市,新堂３丁目６番２０号,,27,211,5670835,,,,,,,2023-07-25,1,,,,,カラダラボ,0
1423,6120903004749,新規,0,2023-07-25,2023-07-25,合同会社モッズ,,合同会社,大阪府,高槻市,日吉台三番町１番２６号,,27,207,5691022,,,,,,,2023-07-25,1,,,,,モッズ,0
1435,6140001130974,新規,0,2023-07-25,2023-07-25,オウタ株式会社,,株式会社,兵庫県,多可郡多可町,八千代区大屋１２２番地,,28,365,6770101,,,,,,,2023-07-25,1,,,,,オウタ,0
1436,6140001130982,新規,0,2023-07-25,2023-07-25,Ｌｉｌｌｉｅ株式会社,,株式会社,兵庫県,神戸市東灘区,住吉東町３丁目１４番１９号,,28,101,6580052,,,,,,,2023-07-25,1,,,,,リーリエ,0
1437,6140001130990,新規,0,2023-07-25,2023-07-25,株式会社ｋｉｘ,,株式会社,兵庫県,姫路市,城東町京口台７番地サニーハイム１０１号,,28,201,6700845,,,,,,,2023-07-25,1,,,,,キックス,0
1439,6140003019332,新規,0,2023-07-25,2023-07-25,朝陽貿易合同会社,,合同会社,兵庫県,神戸市長田区,四番町７丁目５アロバス第二ビル２０５,,28,106,6530004,,,,,,,2023-07-25,1,,,,,チョウヨウボウエキ,0
1443,6160003002939,新規,0,2023-07-25,2023-07-25,合同会社ＫＯＢＡ建,,合同会社,滋賀県,草津市,野村５丁目１０－１－１０１,,25,206,5250027,,,,,,,2023-07-25,1,,,,,コバケン,0
1450,6180001157270,新規,0,2023-07-25,2023-07-25,株式会社エッセンス,,株式会社,愛知県,名古屋市千種区,内山１丁目１８番１３号富山ビル４Ｆ,,23,101,4640075,,,,,,,2023-07-25,1,,,,,エッセンス,0
1453,6180003025525,新規,0,2023-07-25,2023-07-25,ＳＡＩＲＡ　ＩＮＴＥＲＮＡＴＩＯＮＡＬ合同会社,,合同会社,愛知県,名古屋市中村区,則武２丁目１５番１２号,,23,105,4530014,,,,,,,2023-07-25,1,,,,,サイラインターナショナル,0
1454,6180003025533,新規,0,2023-07-25,2023-07-25,ＳＴＵＤ合同会社,,合同会社,愛知県,名古屋市中村区,黄金通１丁目１４番地の２－２０４,,23,105,4530804,,,,,,,2023-07-25,1,,,,,スタッド,0
1455,6180301037593,新規,0,2023-07-25,2023-07-25,株式会社あおやま工務店,,株式会社,愛知県,豊田市,越戸町安貝戸２０９番地８,,23,211,4700332,,,,,,,2023-07-25,1,,,,,アオヤマコウムテン,0
1460,6210003001670,新規,0,2023-07-25,2023-07-25,合同会社たくみＫＥＮＳＯ,,合同会社,福井県,大飯郡おおい町,本郷第１１０号１番地,,18,483,9192111,,,,,,,2023-07-25,1,,,,,タクミケンソー,0
1463,6230005009322,新規,0,2023-07-25,2023-07-25,一般社団法人Ｔ‐Ｅｎｇｉｎｅ,,その他の設立登記法人,富山県,射水市,西高木７９５番地,,16,211,9390303,,,,,,,2023-07-25,1,,,,,ティーエンジン,0
1465,6240001061854,新規,0,2023-07-25,2023-07-25,ＭＳＨＫ株式会社,,株式会社,広島県,広島市東区,二葉の里２丁目５番１－２０２号,,34,102,7320057,,,,,,,2023-07-25,1,,,,,エムエスエイチケー,0
1470,6250005008842,新規,0,2023-07-25,2023-07-25,一般社団法人美来保全協会,,その他の設立登記法人,山口県,山口市,下小鯖２１５０番地７,,35,203,7530212,,,,,,,2023-07-25,1,,,,,ミライホゼンキョウカイ,0
1473,6290001102323,新規,0,2023-07-25,2023-07-25,株式会社サンガラボ,,株式会社,福岡県,福岡市早良区,重留５丁目３番８号,,40,137,8111101,,,,,,,2023-07-25,1,,,,,サンガラボ,0
1474,6290001102397,新規,0,2023-07-25,2023-07-25,株式会社栄知,,株式会社,福岡県,糟屋郡須惠町,大字植木長谷１３６０番地１,,40,344,8112112,,,,,,,2023-07-25,1,,,,,エイチ,0
1477,6290003014161,新規,0,2023-07-25,2023-07-25,合同会社ＣＩＬＯＣＡＬＡ,,合同会社,福岡県,福岡市中央区,大名１丁目４番３０－９０３号ダイアパレスグランテージ大名,,40,133,8100041,,,,,,,2023-07-25,1,,,,,,0
1482,6320001019902,新規,0,2023-07-25,2023-07-25,株式会社海倶楽部,,株式会社,大分県,豊後高田市,臼野字西浜田３３７９番地６,,44,209,8721107,,,,,,,2023-07-25,1,,,,,シークラブ,0
1490,6360001032323,新規,0,2023-07-25,2023-07-25,株式会社ＡＮＫＥＲ　ＴＨＥ　ＯＣＥＡＮ　ＣＬＵＢ,,株式会社,沖縄県,国頭郡今帰仁村,字謝名１５９,,47,306,9050414,,,,,,,2023-07-25,1,,,,,アンカーザオーシャンクラブ,0
1491,6360003013131,新規,0,2023-07-25,2023-07-25,Ｓａｐｏ合同会社,,合同会社,沖縄県,那覇市,曙１丁目６－３３愛和マンション２階,,47,201,9000002,,,,,,,2023-07-25,1,,,,,サポ,0
1492,6360005006884,新規,0,2023-07-25,2023-07-25,沖縄県南国砂利採取販売事業協同組合,,その他の設立登記法人,沖縄県,那覇市,識名３丁目１番１５号,,47,201,9020078,,,,,,,2023-07-25,1,,,,,オキナワケンナンゴクジャリサイシュハンバイ,0
1511,6490001010539,新規,0,2023-07-25,2023-07-25,株式会社和楽,,株式会社,高知県,高知市,加賀野井２丁目２番１２号,,39,201,7800032,,,,,,,2023-07-25,1,,,,,ワラク,0
1514,6700150117179,新規,0,2023-07-25,2023-06-09,リーベスト桜新町管理組合,,その他,東京都,世田谷区,弦巻３丁目２１－１７,,13,112,1540016,,,,,,,2023-06-09,1,,,,,リーベストサクラシンマチカンリクミアイ,0
1515,6700150118607,新規,0,2023-07-25,2023-07-25,ｌｕｏｙａｎｇ　ｃｈｅｎｇｎｕｏ　ｊｉｎｇｍｉ　ｊｉｘｉｅ　ｙｏｕｘｉａｎ　ｇｏｎｇｓｉ,,外国会社等,,,,,,,,ＣＮ，Ｈｅｎａｎ，Ｌｕｏｙａｎｇ，ｇａｏｘｉｎｑｕ，ｘｉｎｄｉａｎｚｈｅｎ，ｈｏｕｙｉｎｇｃｕｎ,,,,,,2023-07-25,1,,,,,ラクヨウセイダクセイミツキカイユウゲンコウシ,0
1523,7010001237096,新規,0,2023-07-25,2023-07-25,株式会社Ａｕｘｉｌａｒｔ,,株式会社,東京都,中央区,銀座１丁目１２番４号Ｎ＆ＥＢＬＤ．６Ｆ,,13,102,1040061,,,,,,,2023-07-25,1,,,,,オキシルアート,0
1524,7010001237105,新規,0,2023-07-25,2023-07-25,株式会社ゼロふぁみ,,株式会社,東京都,千代田区,二番町５番地２麹町駅プラザ９０１,,13,101,1020084,,,,,,,2023-07-25,1,,,,,ゼロファミ,0
1525,7010001237121,新規,0,2023-07-25,2023-07-25,ＷＩＮＤＵＰ　Ａｄｖｉｓｏｒｙ株式会社,,株式会社,東京都,千代田区,麹町４丁目５番２０号ＫＳビル,,13,101,1020083,,,,,,,2023-07-25,1,,,,,ワインドアップアドバイザリー,0
1526,7010001237146,新規,0,2023-07-25,2023-07-25,株式会社ＯＦ,,株式会社,東京都,千代田区,大手町１丁目１番１号大手町パークビルディング８Ｆ,,13,101,1000004,,,,,,,2023-07-25,1,,,,,オブ,0
1527,7010001237154,新規,0,2023-07-25,2023-07-25,株式会社Ａｌｔｒｕｉｓｔｉｃ,,株式会社,東京都,中央区,日本橋小舟町９番２号ソレイユビルＢ１,,13,102,1030024,,,,,,,2023-07-25,1,,,,,アルトゥルーイスティック,0
1533,7010003041199,新規,0,2023-07-25,2023-07-25,合同会社札幌ホテルマネジメント,,合同会社,東京都,千代田区,霞が関３丁目２番５号,,13,101,1000013,,,,,,,2023-07-25,1,,,,,サッポロホテルマネジメント,0
1534,7010005036998,新規,0,2023-07-25,2023-07-25,一般社団法人首都圏レジ開発セブン,,その他の設立登記法人,東京都,千代田区,平河町１丁目６番１５号シルスフィア会計事務所内,,13,101,1020093,,,,,,,2023-07-25,1,,,,,シュトケンレジカイハツセブン,0
1545,7010401175821,新規,0,2023-07-25,2023-07-25,株式会社エスプロム,,株式会社,東京都,港区,白金１丁目２番２－Ｗ１３１０号,,13,103,1080072,,,,,,,2023-07-25,1,,,,,エスプロム,0
1546,7010401175870,新規,0,2023-07-25,2023-07-25,ＯＰＴ　ＦＬＵＥＮＣＥ株式会社,,株式会社,東京都,港区,六本木６丁目２番３１号六本木ヒルズノースタワー１７階,,13,103,1060032,,,,,,,2023-07-25,1,,,,,オプティフルエンス,0
1551,7010403030553,新規,0,2023-07-25,2023-07-25,ＢＧＯ　Ａｓｉａ　ＩＶ　Ａｄｖｉｓｏｒｓ　Ｊａｐａｎ合同会社,,合同会社,東京都,港区,北青山１丁目２番３号,,13,103,1070061,,,,,,,2023-07-25,1,,,,,ビージーオーアジアフォーアドバイザーズジャパン,0
1552,7010405022301,新規,0,2023-07-25,2023-07-25,一般社団法人ＣＨＥＥＲ　ＵＮＩＴＥ　ＡＳＳＯＣＩＡＴＩＯＮ,,その他の設立登記法人,東京都,港区,南青山２丁目２番１５号,,13,103,1070062,,,,,,,2023-07-25,1,,,,,チアユナイトアソシエーション,0
1554,7010601063421,新規,0,2023-07-25,2023-07-25,株式会社Ｓｕｎｓｈｉｎｅ　Ｔｏｋｙｏ,,株式会社,東京都,墨田区,業平４丁目１５番７号,,13,107,1300002,,,,,,,2023-07-25,1,,,,,サンシャイントウキョウ,0
1573,7011101103725,新規,0,2023-07-25,2023-07-25,ｙｅｚ　ｔｅｃｈ株式会社,,株式会社,東京都,新宿区,西新宿７丁目５番５号Ｐｌａｚａ西新宿ＵＣＦ４０６,,13,104,1600023,,,,,,,2023-07-25,1,,,,,イエズテック,0
1574,7011101103733,新規,0,2023-07-25,2023-07-25,緑河アンテナ株式会社,,株式会社,東京都,新宿区,西新宿３丁目３番１３号西新宿水間ビル６階,,13,104,1600023,,,,,,,2023-07-25,1,,,,,ミドリカワアンテナ,0
1575,7011101103741,新規,0,2023-07-25,2023-07-25,株式会社Ｆｏｒｔｕｎｅ,,株式会社,東京都,新宿区,西新宿６丁目２０番７－８０６号,,13,104,1600023,,,,,,,2023-07-25,1,,,,,フォーチュン,0
1576,7011103013278,新規,0,2023-07-25,2023-07-25,合同会社エクシズ,,合同会社,東京都,新宿区,岩戸町１７番地,,13,104,1620832,,,,,,,2023-07-25,1,,,,,エクシズ,0
1577,7011103013286,新規,0,2023-07-25,2023-07-25,合同会社ＴＩＭＰＡＮＩ,,合同会社,東京都,新宿区,新宿７丁目２６－７ビクセル新宿１Ｆ,,13,104,1600022,,,,,,,2023-07-25,1,,,,,ティンパニー,0
1583,7011501029553,新規,0,2023-07-25,2023-07-25,日本博科科技株式会社,,株式会社,東京都,荒川区,南千住３丁目２７－２浅草ビル,,13,118,1160003,,,,,,,2023-07-25,1,,,,,ジャパンボーケテクノロジー,0
1584,7011503005692,新規,0,2023-07-25,2023-07-25,合同会社まごころ,,合同会社,東京都,荒川区,南千住８丁目８番１号,,13,118,1160003,,,,,,,2023-07-25,1,,,,,マゴコロ,0
1588,7011801042776,新規,0,2023-07-25,2023-07-25,株式会社ありがとう,,株式会社,東京都,葛飾区,東新小岩８丁目２２番１１号,,13,122,1240023,,,,,,,2023-07-25,1,,,,,アリガトウ,0
1592,7012401040773,新規,0,2023-07-25,2023-07-25,株式会社Ｄａｙｌｉｇｈｔ　Ｓｔｏｒｙ,,株式会社,東京都,府中市,住吉町１丁目５８番地の３リヴェール府中中河原５０５,,13,206,1830034,,,,,,,2023-07-25,1,,,,,デイライトストーリー,0
1593,7012403006079,新規,0,2023-07-25,2023-07-25,合同会社かものは,,合同会社,東京都,武蔵野市,御殿山２丁目１０番６－３０３号,,13,203,1800005,,,,,,,2023-07-25,1,,,,,カモノハ,0
1596,7013301051092,新規,0,2023-07-25,2023-07-25,東京本桑製薬科研株式会社,,株式会社,東京都,豊島区,南池袋３丁目１８さつきコーポＢ棟２０２室,,13,116,1710022,,,,,,,2023-07-25,1,,,,,トウキョウホンソウセイヤクカケン,0
1603,7020001152658,新規,0,2023-07-25,2023-07-25,株式会社房コーポレーション,,株式会社,神奈川県,横浜市港北区,箕輪町２丁目８番２０号,,14,109,2230051,,,,,,,2023-07-25,1,,,,,フサコーポレーション,0
1606,7021001079692,新規,0,2023-07-25,2023-07-25,インテルノ株式会社,,株式会社,神奈川県,相模原市中央区,すすきの町３４番１０－２号,,14,152,2520213,,,,,,,2023-07-25,1,,,,,インテルノ,0
1607,7021003013344,新規,0,2023-07-25,2023-07-25,合同会社ＴＩＳ,,合同会社,神奈川県,綾瀬市,大上６丁目１６番１３号河野ハイツ２０２,,14,218,2521104,,,,,,,2023-07-25,1,,,,,ティーアイエス,0
1613,7030001155016,新規,0,2023-07-25,2023-07-25,ピーアールオー株式会社,,株式会社,埼玉県,さいたま市浦和区,高砂３丁目１０番４号Ｍｉｏ高砂,,11,107,3300063,,,,,,,2023-07-25,1,,,,,ピーアールオー,0
1614,7030001155049,新規,0,2023-07-25,2023-07-25,株式会社にこは,,株式会社,埼玉県,比企郡滑川町,大字中尾３７２番地,,11,341,3550804,,,,,,,2023-07-25,1,,,,,ニコハ,0
1617,7030003022189,新規,0,2023-07-25,2023-07-25,Ｇａｌｅ　Ｇａｒａｇｅ合同会社,,合同会社,埼玉県,蓮田市,大字閏戸４１１７番地６８,,11,238,3490133,,,,,,,2023-07-25,1,,,,,ゲイルガレージ,0
1625,7040001129357,新規,0,2023-07-25,2023-07-25,株式会社ＣＯＮＣＥＰＴＷＯＲＫＳ,,株式会社,千葉県,柏市,高田１００４番地１５,,12,217,2770861,,,,,,,2023-07-25,1,,,,,コンセプトワークス,0
1626,7040001129373,新規,0,2023-07-25,2023-07-25,株式会社ａｐｐｌｅ,,株式会社,千葉県,千葉市稲毛区,山王町２５番地２,,12,103,2630002,,,,,,,2023-07-25,1,,,,,アップル,0
1633,7040003023005,新規,0,2023-07-25,2023-07-25,ＡＰＥＸ合同会社,,合同会社,千葉県,山武市,横田１０７７番地１４,,12,237,2891226,,,,,,,2023-07-25,1,,,,,エーペックス,0
1640,7060003004639,新規,0,2023-07-25,2023-07-25,合同会社Ｎ．Ｄ．Ｓ,,合同会社,栃木県,足利市,福居町２０９１番地２,,09,202,3260338,,,,,,,2023-07-25,1,,,,,エヌディーエス,0
1643,7070001040668,新規,0,2023-07-25,2023-07-25,プラスモーションスタジオ株式会社,,株式会社,群馬県,北群馬郡吉岡町,大字大久保３２２１番地１８,,10,345,3703602,,,,,,,2023-07-25,1,,,,,プラスモーションスタジオ,0
1650,7100005013047,新規,0,2023-07-25,2023-07-25,一般社団法人日本総合防災住宅建築研究所,,その他の設立登記法人,長野県,長野市,稲田２丁目１１番６号,,20,201,3810042,,,,,,,2023-07-25,1,,,,,ニホンソウゴウボウサイジュウタクケンチクケンキュウショ,0
1659,7120001256647,新規,0,2023-07-25,2023-07-25,株式会社レイジット,,株式会社,大阪府,大阪市北区,東天満２丁目１０番１７号マツイビル４Ｆ,,27,127,5300044,,,,,,,2023-07-25,1,,,,,レイジット,0
1660,7120001256663,新規,0,2023-07-25,2023-07-25,株式会社ＳＶＬ,,株式会社,大阪府,大阪市淀川区,宮原５丁目１番２８号新大阪八千代ビル別館３階,,27,123,5320003,,,,,,,2023-07-25,1,,,,,エスブイエル,0
1661,7120001256738,新規,0,2023-07-25,2023-07-25,株式会社ＭＡＲＫアソシエイツ,,株式会社,大阪府,守口市,滝井西町１丁目１０番１号３階,,27,209,5700076,,,,,,,2023-07-25,1,,,,,マークアソシエイツ,0
1665,7120003024498,新規,0,2023-07-25,2023-07-25,ミヤビネット合同会社,,合同会社,大阪府,大阪市東住吉区,湯里２丁目５番１９号,,27,121,5460013,,,,,,,2023-07-25,1,,,,,ミヤビネット,0
1666,7120003024564,新規,0,2023-07-25,2023-07-25,合同会社ＳＭＩＮＥＳＳ,,合同会社,大阪府,大阪市北区,中津３丁目１８番８号,,27,127,5310071,,,,,,,2023-07-25,1,,,,,スマイネス,0
1668,7120101067928,新規,0,2023-07-25,2023-07-25,株式会社トレードマーク,,株式会社,大阪府,泉南郡熊取町,大久保中３丁目６番７号,,27,361,5900403,,,,,,,2023-07-25,1,,,,,トレードマーク,0
1669,7120103005340,新規,0,2023-07-25,2023-07-25,合同会社ｉｍａｃｔ,,合同会社,大阪府,泉大津市,北豊中町２丁目６番６号,,27,206,5950012,,,,,,,2023-07-25,1,,,,,イマクト,0
1671,7120901047831,新規,0,2023-07-25,2023-07-25,株式会社ハイウェルマネジメント,,株式会社,大阪府,高槻市,芥川町１丁目１４番２７号ＭＩＤＯＲＩビル４階,,27,207,5691123,,,,,,,2023-07-25,1,,,,,ハイウェルマネジメント,0
1676,7122001037168,新規,0,2023-07-25,2023-07-25,経緯株式会社,,株式会社,大阪府,東大阪市,上小阪４丁目１０番１５－３０７号,,27,227,5770806,,,,,,,2023-07-25,1,,,,,ケイイ,0
1680,7130001074791,新規,0,2023-07-25,2023-07-25,株式会社ケーエスシー,,株式会社,京都府,京都市中京区,錦小路通高倉西入西魚屋町５９３番地,,26,104,6048142,,,,,,,2023-07-25,1,,,,,ケーエスシー,0
1685,7140001130957,新規,0,2023-07-25,2023-07-25,ＢＬＵＥ　ＷＡＴＥＲ　Ｊａｐａｎ株式会社,,株式会社,兵庫県,姫路市,小利木町２２番地の２,,28,201,6700022,,,,,,,2023-07-25,1,,,,,ブルーウォータージャパン,0
1686,7140001130998,新規,0,2023-07-25,2023-07-25,株式会社ＬＩＢＥＲＴＡ,,株式会社,兵庫県,神戸市長田区,若松町３丁目３番２－２０２号,,28,106,6530038,,,,,,,2023-07-25,1,,,,,リベルタ,0
1687,7140001131014,新規,0,2023-07-25,2023-07-25,株式会社イセダ屋,,株式会社,兵庫県,姫路市,綿町１０４番地スクエアビル２Ｆ,,28,201,6700921,,,,,,,2023-07-25,1,,,,,イセダヤ,0
1690,7140003019331,新規,0,2023-07-25,2023-07-25,ａｎｄ　ｎｏｅｌ合同会社,,合同会社,兵庫県,神戸市東灘区,御影中町１丁目１４番５－１３０２号,,28,101,6580054,,,,,,,2023-07-25,1,,,,,アンドノエル,0
1704,7180001157253,新規,0,2023-07-25,2023-07-25,Ｂ＆Ｃキャピタル株式会社,,株式会社,愛知県,名古屋市中川区,露橋２丁目１２番２６号,,23,110,4540022,,,,,,,2023-07-25,1,,,,,ビーアンドシーキャピタル,0
1705,7180001157286,新規,0,2023-07-25,2023-07-25,ＧＲＥＥＮ　ＩＭＰＡＣＴ株式会社,,株式会社,愛知県,名古屋市瑞穂区,姫宮町２丁目１０番地の６,,23,108,4670834,,,,,,,2023-07-25,1,,,,,グリーンインパクト,0
1706,7180001157303,新規,0,2023-07-25,2023-07-25,株式会社ホワイトアッシュ,,株式会社,愛知県,名古屋市港区,小碓３丁目２１８番地の１,,23,111,4550801,,,,,,,2023-07-25,1,,,,,ホワイトアッシュ,0
1715,7180301037592,新規,0,2023-07-25,2023-07-25,ナカザワホールディングス株式会社,,株式会社,愛知県,豊田市,藤岡飯野町井ノ脇３９５番地３,,23,211,4700451,,,,,,,2023-07-25,1,,,,,ナカザワホールディングス,0
1720,7200005013508,新規,0,2023-07-25,2023-07-25,一般社団法人国際バサルトファイバーおよび複合材料協会,,その他の設立登記法人,岐阜県,羽島市,江吉良町江中４丁目７番,,21,209,5016238,,,,,,,2023-07-25,1,,,,,コクサイバサルトファイバーオヨビフクゴウザイリョウキョウカイ,0
1726,7230001019927,新規,0,2023-07-25,2023-07-25,株式会社ＦＢセントラル,,株式会社,富山県,高岡市,小馬出町６８番地の１,,16,202,9330914,,,,,,,2023-07-25,1,,,,,エフビーセントラル,0
1730,7240001061853,新規,0,2023-07-25,2023-07-25,株式会社ＳＰＥＣＩＡＬＥ,,株式会社,広島県,広島市中区,基町１１番５－２０１号,,34,101,7300011,,,,,,,2023-07-25,1,,,,,,0
1741,7270003001540,新規,0,2023-07-25,2023-07-25,合同会社ＫＣＬ,,合同会社,鳥取県,境港市,上道町３２８２,,31,204,6840033,,,,,,,2023-07-25,1,,,,,ククル,0
1746,7290001102363,新規,0,2023-07-25,2023-07-25,株式会社ＨＲＭ,,株式会社,福岡県,糟屋郡須惠町,大字須惠９７２－１７,,40,344,8112113,,,,,,,2023-07-25,1,,,,,エイチアールエム,0
1747,7290001102396,新規,0,2023-07-25,2023-07-25,株式会社ＫｙｕｓｈｕＭｉｒａｉ,,株式会社,福岡県,福岡市博多区,古門戸町１番１号日刊工業新聞ビル４０２,,40,132,8120029,,,,,,,2023-07-25,1,,,,,キュウシュウミライ,0
1754,7300001013385,新規,0,2023-07-25,2023-07-25,株式会社コガ建築,,株式会社,佐賀県,伊万里市,南波多町原屋敷７６０番地１,,41,205,8480016,,,,,,,2023-07-25,1,,,,,コガケンチク,0
1759,7320003004133,新規,0,2023-07-25,2023-07-25,合同会社サークルワイズ,,合同会社,大分県,別府市,大字内竈３１５０番地の２７,,44,202,8740011,,,,,,,2023-07-25,1,,,,,サークルワイズ,0
1760,7330001031079,新規,0,2023-07-25,2023-07-25,株式会社ｅｎ‐ｙａ,,株式会社,熊本県,熊本市南区,良町４丁目７番１１５－４号,,43,104,8620969,,,,,,,2023-07-25,1,,,,,エンヤ,0
1767,7350001018462,新規,0,2023-07-25,2023-07-25,株式会社ＳＷＩＦＥ,,株式会社,宮崎県,延岡市,中島町２丁目２８４番地１,,45,203,8820846,,,,,,,2023-07-25,1,,,,,スワイフ,0
1771,7360003013147,新規,0,2023-07-25,2023-07-25,合同会社Ｈ１企画,,合同会社,沖縄県,糸満市,字座波１０３番地,,47,210,9010314,,,,,,,2023-07-25,1,,,,,エイチワンキカク,0
1784,7430001089495,新規,0,2023-07-25,2023-07-25,アースＨＤ株式会社,,株式会社,北海道,北広島市,大曲工業団地２丁目５番地１,,01,234,0611274,,,,,,,2023-07-25,1,,,,,アースエイチディ,0
1785,7440001009295,新規,0,2023-07-25,2023-07-25,株式会社アイアンドアイ,,株式会社,北海道,函館市,本町３１番８号,,01,202,0400011,,,,,,,2023-07-25,1,,,,,アイアンドアイ,0
1787,7460101007412,新規,0,2023-07-25,2023-07-25,株式会社ヒューマンリンク,,株式会社,北海道,河東郡音更町,新通北１丁目９番地５,,01,631,0800105,,,,,,,2023-07-25,1,,,,,ヒューマンリンク,0
1793,7490001010538,新規,0,2023-07-25,2023-07-25,株式会社Ｃｏｎｎｅｃｔ,,株式会社,高知県,高知市,土居町１４番１号ＧｒａｎｄＴａｇｅ土居町１０２,,39,201,7818001,,,,,,,2023-07-25,1,,,,,コネクト,0
1797,7700150118606,新規,0,2023-07-25,2023-07-25,ｇｕａｎｇｚｈｏｕ　ｌａｎｍｉｎ　ｇｕｏｊｉ　ｍａｏｙｉ　ｙｏｕｘｉａｎ　ｇｏｎｇｓｉ,,外国会社等,,,,,,,,Ｃｈｉｎａ，ｇｕａｎｇｚｈｏｕ　ｔｉａｎｈｅｑｕ　ｈｕａｃｈｅｎｇｄａｄａｏ　３ｈａｏ　１４０１ｆａｎｇ,,,,,,2023-07-25,1,,,,,コウシュウランミンコクサイボウエキユウゲンコウシ,0
1805,8010001237120,新規,0,2023-07-25,2023-07-25,株式会社利連,,株式会社,東京都,中央区,新川２丁目１０番１－８１３号,,13,102,1040033,,,,,,,2023-07-25,1,,,,,リレン,0
1806,8010001237129,新規,0,2023-07-25,2023-07-25,株式会社ブルーイエント,,株式会社,東京都,中央区,月島４丁目２番１７号,,13,102,1040052,,,,,,,2023-07-25,1,,,,,ブルーイエント,0
1808,8010003041165,新規,0,2023-07-25,2023-07-25,合同会社ＢＥ１号,,合同会社,東京都,中央区,日本橋茅場町２丁目７－６晴花ビル６Ｆ,,13,102,1030025,,,,,,,2023-07-25,1,,,,,ビーイーイチゴウ,0
1816,8010401175820,新規,0,2023-07-25,2023-07-25,株式会社ひと,,株式会社,東京都,港区,浜松町２丁目２番１５号浜松町ダイヤビル２Ｆ,,13,103,1050013,,,,,,,2023-07-25,1,,,,,ヒト,0
1817,8010401175911,新規,0,2023-07-25,2023-07-25,Ｂｒｏｗｓｉ　Ｍｏｂｉｌｅ株式会社,,株式会社,東京都,港区,元麻布３丁目１番６号,,13,103,1060046,,,,,,,2023-07-25,1,,,,,ブラウジーモバイル,0
1818,8010401175960,新規,0,2023-07-25,2023-07-25,ＬＳ‐Ａｖｉａｔｉｏｎ第５６号株式会社,,株式会社,東京都,港区,六本木１丁目６番１号,,13,103,1060032,,,,,,,2023-07-25,1,,,,,エルエスアビエーションダイゴジュウロクゴウ,0
1824,8010601063478,新規,0,2023-07-25,2023-07-25,同心株式会社,,株式会社,東京都,墨田区,押上１丁目１５番２－３０２号,,13,107,1310045,,,,,,,2023-07-25,1,,,,,ドウシン,0
1825,8010701044601,新規,0,2023-07-25,2023-07-25,株式会社ｆｏｒ　ｕ,,株式会社,東京都,品川区,西五反田８丁目２番１２号アール五反田７Ｆ,,13,109,1410031,,,,,,,2023-07-25,1,,,,,フォーユー,0
1827,8010801034106,新規,0,2023-07-25,2023-07-25,株式会社Ｍｅｎｔａ‐ｎａｎｃｅ,,株式会社,東京都,大田区,山王１丁目３番１号－２００１,,13,111,1430023,,,,,,,2023-07-25,1,,,,,メンタナンス,0
1843,8011003017238,新規,0,2023-07-25,2023-07-25,合同会社Ｈｏｎｅ,,合同会社,東京都,渋谷区,渋谷３丁目７番１号,,13,113,1500002,,,,,,,2023-07-25,1,,,,,エイチワン,0
1850,8011101103699,新規,0,2023-07-25,2023-07-25,ＩＡＣ株式会社,,株式会社,東京都,新宿区,西新宿６丁目１２－４コイトビル８０３,,13,104,1600023,,,,,,,2023-07-25,1,,,,,アイエーシー,0
1851,8011101103740,新規,0,2023-07-25,2023-07-25,株式会社ＡＩＷ,,株式会社,東京都,新宿区,西新宿３丁目９番７－１５０２号,,13,104,1600023,,,,,,,2023-07-25,1,,,,,エイアイダブリュー,0
1855,8011403004059,新規,0,2023-07-25,2023-07-25,合同会社ワイルドカード・インキュベーター,,合同会社,東京都,板橋区,赤塚１丁目５番２１号,,13,119,1750092,,,,,,,2023-07-25,1,,,,,,0
1857,8011501029552,新規,0,2023-07-25,2023-07-25,日本原岡葉前沿テクノロジー株式会社,,株式会社,東京都,荒川区,南千住３丁目２７－２浅草ビル５０８,,13,118,1160003,,,,,,,2023-07-25,1,,,,,ニホンハラオカバゼンエンテクノロジー,0
1858,8011501029560,新規,0,2023-07-25,2023-07-25,株式会社りゅう産業,,株式会社,東京都,荒川区,西尾久７丁目３９番６号－２０２号,,13,118,1160011,,,,,,,2023-07-25,1,,,,,リュウサンギョウ,0
1871,8013301051034,新規,0,2023-07-25,2023-07-25,株式会社ＰＡＮＤＡ　ＦＯＯＤ,,株式会社,東京都,豊島区,南池袋１丁目１６－２０ぬかりやビル６階,,13,116,1710022,,,,,,,2023-07-25,1,,,,,パンダフード,0
1873,8020001152681,新規,0,2023-07-25,2023-07-25,株式会社勝栄,,株式会社,神奈川県,横浜市戸塚区,深谷町１６４７番地１４,,14,110,2450067,,,,,,,2023-07-25,1,,,,,カツエイ,0
1894,8030001154974,新規,0,2023-07-25,2023-07-25,日新商事株式会社,,株式会社,埼玉県,さいたま市桜区,西堀４丁目１番１－７１７号,,11,106,3380832,,,,,,,2023-07-25,1,,,,,ニッシンショウジ,0
1895,8030001155031,新規,0,2023-07-25,2023-07-25,株式会社ウェルアークス,,株式会社,埼玉県,越谷市,瓦曽根２丁目１１番５４号ハイアットプラザ新越谷２０１,,11,222,3430821,,,,,,,2023-07-25,1,,,,,ウェルアークス,0
1900,8040001129356,新規,0,2023-07-25,2023-07-25,Ｓｋｙルーフ株式会社,,株式会社,千葉県,鎌ケ谷市,軽井沢２１００－４,,12,224,2730131,,,,,,,2023-07-25,1,,,,,エスキュウルーフ,0
1901,8040001129372,新規,0,2023-07-25,2023-07-25,山本工業株式会社,,株式会社,千葉県,八街市,八街ヘ１９９番地８００,,12,230,2891100,,,,,,,2023-07-25,1,,,,,ヤマモトコウギョウ,0
1902,8040001129380,新規,0,2023-07-25,2023-07-25,株式会社仔虎,,株式会社,千葉県,千葉市緑区,おゆみ野中央４丁目３１番５号,,12,105,2660032,,,,,,,2023-07-25,1,,,,,コトラ,0
1906,8040003022988,新規,0,2023-07-25,2023-07-25,ＲＩＳＡＫＭＡ　ＥＮＴＥＲＰＲＩＳＥＳ合同会社,,合同会社,千葉県,山武郡芝山町,岩山２０８９番地,,12,409,2891608,,,,,,,2023-07-25,1,,,,,リサクマエンタープライズ,0
1907,8040003023004,新規,0,2023-07-25,2023-07-25,合同会社まろもかみるく,,合同会社,千葉県,成田市,公津の杜４丁目６番地２サングランデセントラージュＢ１３０２,,12,211,2860048,,,,,,,2023-07-25,1,,,,,マロモカミルク,0
1918,8060001036179,新規,0,2023-07-25,2023-07-25,ＨＡＲＯＯＮ　ＴＲＡＤＩＮＧ株式会社,,株式会社,栃木県,栃木市,大宮町１２９１番地１,,09,203,3280011,,,,,,,2023-07-25,1,,,,,ハルーントレーディング,0
1945,8120001256704,新規,0,2023-07-25,2023-07-25,株式会社食彩工房,,株式会社,大阪府,大阪市此花区,春日出北２丁目１６番９号,,27,104,5540021,,,,,,,2023-07-25,1,,,,,ショクサイコウボウ,0
1946,8120001256720,新規,0,2023-07-25,2023-07-25,株式会社Ｈａｐｐｉｎｅｓｓ　Ｖａｃａｔｉｏｎ,,株式会社,大阪府,大阪市浪速区,難波中３丁目６番８号難波シーサータワービル２階,,27,111,5560011,,,,,,,2023-07-25,1,,,,,ハピネスバケーション,0
1948,8120003024563,新規,0,2023-07-25,2023-07-25,合同会社セカンド,,合同会社,大阪府,大阪市天王寺区,清水谷町３－２２,,27,109,5430011,,,,,,,2023-07-25,1,,,,,セカンド,0
1960,8120903004747,新規,0,2023-07-25,2023-07-25,合同会社月の雫,,合同会社,大阪府,豊中市,服部南町４丁目４番７号,,27,203,5610853,,,,,,,2023-07-25,1,,,,,ツキノシズク,0
1961,8122003002631,新規,0,2023-07-25,2023-07-25,Ｈａｖｉｎａ合同会社,,合同会社,大阪府,東大阪市,近江堂２丁目１０－２４カーサコモダ１０９号室,,27,227,5770817,,,,,,,2023-07-25,1,,,,,ハビナ,0
1964,8130001074683,新規,0,2023-07-25,2023-07-25,星野貿易株式会社,,株式会社,京都府,京都市伏見区,向島丸町１８番地４,,26,109,6128131,,,,,,,2023-07-25,1,,,,,ホシノボウエキ,0
1971,8140001130972,新規,0,2023-07-25,2023-07-25,フルスタックアドバイザリー株式会社,,株式会社,兵庫県,西宮市,枝川町８番１号ファインシティ西宮甲子園５１１,,28,204,6638143,,,,,,,2023-07-25,1,,,,,フルスタックアドバイザリー,0
1972,8140001130980,新規,0,2023-07-25,2023-07-25,ＥＳＣＡＰＥ映画株式会社,,株式会社,兵庫県,神戸市兵庫区,西多聞通２丁目１番１１号－３０２号,,28,105,6520035,,,,,,,2023-07-25,1,,,,,エスケープエイガ,0
1973,8140001130989,新規,0,2023-07-25,2023-07-25,ヨシデン株式会社,,株式会社,兵庫県,姫路市,大津区天神町２丁目１６６番地４,,28,201,6711131,,,,,,,2023-07-25,1,,,,,ヨシデン,0
1974,8140001131005,新規,0,2023-07-25,2023-07-25,美建塗装株式会社,,株式会社,兵庫県,加古川市,加古川町栗津４３７－１－１階,,28,210,6750000,,,,,,,2023-07-25,1,,,,,ビケントソウ,0
1978,8150001026567,新規,0,2023-07-25,2023-07-25,イードム株式会社,,株式会社,奈良県,大和郡山市,石川町２３０番地１,,29,203,6391111,,,,,,,2023-07-25,1,,,,,イードム,0
1983,8180001157260,新規,0,2023-07-25,2023-07-25,株式会社８ｇｏ,,株式会社,愛知県,名古屋市中川区,松葉町１丁目４６番地の１,,23,110,4540818,,,,,,,2023-07-25,1,,,,,エイトゴー,0
1984,8180001157269,新規,0,2023-07-25,2023-07-25,株式会社サンレ,,株式会社,愛知県,名古屋市北区,楠１丁目１００６番地,,23,103,4620012,,,,,,,2023-07-25,1,,,,,サンレ,0
1988,8180301037600,新規,0,2023-07-25,2023-07-25,ＮＥＸＬＩＧＨＴ株式会社,,株式会社,愛知県,豊川市,八幡町鐘鋳場２３２番地,,23,207,4420857,,,,,,,2023-07-25,1,,,,,ネクスライト,0
1989,8200001041528,新規,0,2023-07-25,2023-07-25,株式会社コスモス,,株式会社,岐阜県,各務原市,大野町３丁目２３５番地,,21,213,5040934,,,,,,,2023-07-25,1,,,,,コスモス,0
2001,8260001038139,新規,0,2023-07-25,2023-07-25,株式会社アムール,,株式会社,岡山県,岡山市北区,奥田本町２番１号パートナー奥田２０３号室,,33,101,7000932,,,,,,,2023-07-25,1,,,,,アムール,0
2003,8280001008998,新規,0,2023-07-25,2023-07-25,株式会社ｅｖ・ｈｏｕｓｅ,,株式会社,島根県,松江市,八幡町７９５番地１,,32,201,6900025,,,,,,,2023-07-25,1,,,,,イーブイハウス,0
2009,8290003014143,新規,0,2023-07-25,2023-07-25,合同会社ＢＲＩＤＧＩＮＧ　ＡＳＩＡ,,合同会社,福岡県,福岡市南区,三宅３丁目９番２５号,,40,134,8111344,,,,,,,2023-07-25,1,,,,,ブリッジングアジア,0
2012,8300001013392,新規,0,2023-07-25,2023-07-25,風炉茶花株式会社,,株式会社,佐賀県,鳥栖市,酒井西町７８９－１,,41,203,8410042,,,,,,,2023-07-25,1,,,,,フウロチャバナ,0
2017,8350001000270,新規,0,2023-07-25,2023-07-25,大島リゾートアイランド株式会社,,株式会社,宮崎県,宮崎市,橘通東５丁目２番２５号,,45,201,8800805,,,,,,,2023-07-25,1,,,,,オオシマリゾートアイランド,0
2018,8350001018461,新規,0,2023-07-25,2023-07-25,ＥＬＩＡＳ　ＴＲＡＤＩＮＧ株式会社,,株式会社,宮崎県,えびの市,大字杉水流９１番地３３,,45,209,8894313,,,,,,,2023-07-25,1,,,,,イリアストレーディング,0
2019,8380001033870,新規,0,2023-07-25,2023-07-25,株式会社Ｏｈａｎａ　Ｄｅｓｉｇｎ　Ｗｏｒｋｓ,,株式会社,福島県,須賀川市,あおば町５９８番地,,07,207,9620811,,,,,,,2023-07-25,1,,,,,オハナデザインワークス,0
2024,8400003003118,新規,0,2023-07-25,2023-07-25,合同会社富泰源,,合同会社,岩手県,盛岡市,中央通２丁目２番１９－３０１号,,03,201,0200021,,,,,,,2023-07-25,1,,,,,フタイゲン,0
2025,8410005006530,新規,0,2023-07-25,2023-07-25,特定非営利活動法人フットサルクラブＦＵＬＳＡＴ　ＡＫＩＴＡ,,その他の設立登記法人,秋田県,秋田市,泉中央１丁目２４番１６号,,05,201,0100917,,,,,,,2023-07-25,1,,,,,フットサルクラブフルサトアキタ,0
2030,8430001089503,新規,0,2023-07-25,2023-07-25,株式会社オマエラマ,,株式会社,北海道,札幌市厚別区,厚別北一条３丁目１７番７号,,01,108,0040071,,,,,,,2023-07-25,1,,,,,オマエラマ,0
2032,8440003001530,新規,0,2023-07-25,2023-07-25,合同会社Ｒ．Ｆ,,合同会社,北海道,函館市,本町１８番２１号拾八番街ビル２Ｆ,,01,202,0400011,,,,,,,2023-07-25,1,,,,,アールエフ,0
2037,8500001025079,新規,0,2023-07-25,2023-07-25,株式会社ギフト,,株式会社,愛媛県,松山市,中村３丁目１番２５号,,38,201,7900964,,,,,,,2023-07-25,1,,,,,ギフト,0
2038,8700150118605,新規,0,2023-07-25,2023-07-25,ｇｕａｎｇｚｈｏｕｊｉｓｉｑｉｄｉａｎｚｉｓｈａｎｇｗｕｙｏｕｘｉａｎｇｏｎｇｓｉ,,外国会社等,,,,,,,,ｇｕａｎｇｚｈｏｕｓｈｉｔｉａｎｈｅｑｕｈｕａｑｉａｎｇｌｕ９ｈａｏ１７０１ｆａｎｇｚｉｂｉａｎｏ２,,,,,,2023-07-25,1,,,,,コウシュウシキシキデンシショウムユウゲンコウシ,0
2045,9010001236971,新規,0,2023-07-25,2023-07-25,総合企業株式会社,,株式会社,東京都,中央区,日本橋人形町３丁目３番５号天翔日本橋人形町ビル８階８０３－Ｃ号室,,13,102,1030013,,,,,,,2023-07-25,1,,,,,ソウゴウキギョウ,0
2046,9010001237094,新規,0,2023-07-25,2023-07-25,全日本相続技研株式会社,,株式会社,東京都,中央区,日本橋室町１丁目１１番１２号日本橋水野ビル７階,,13,102,1030022,,,,,,,2023-07-25,1,,,,,ゼンニッポンソウゾクギケン,0
2048,9010003041180,新規,0,2023-07-25,2023-07-25,合同会社三浦商店,,合同会社,東京都,中央区,日本橋堀留町２丁目２番４－１２０３号,,13,102,1030012,,,,,,,2023-07-25,1,,,,,ミウラショウテン,0
2056,9010401175803,新規,0,2023-07-25,2023-07-25,フューロキャピタル株式会社,,株式会社,東京都,港区,西麻布４丁目８番３１号レジデンス西麻布４０２,,13,103,1060031,,,,,,,2023-07-25,1,,,,,フューロキャピタル,0
2057,9010401175836,新規,0,2023-07-25,2023-07-25,株式会社Ｃｏｓｍｅｐｏｌｉｔａｎ　Ｊａｐａｎ,,株式会社,東京都,港区,六本木６丁目１６番１１号,,13,103,1060032,,,,,,,2023-07-25,1,,,,,コスメポリタンジャパン,0
2058,9010401175844,新規,0,2023-07-25,2023-07-25,株式会社リカルベイト・コンサルティング,,株式会社,東京都,港区,北青山３丁目１２－１２ＨＯＬＯＮ－Ｒ１Ｆ,,13,103,1070061,,,,,,,2023-07-25,1,,,,,リカルベイトコンサルティング,0
2059,9010401175893,新規,0,2023-07-25,2023-07-25,ＵｎｅＭｅｔａ株式会社,,株式会社,東京都,港区,南青山１丁目１５番１号みいでらビル２階,,13,103,1070062,,,,,,,2023-07-25,1,,,,,ユネメタ,0
2060,9010401175910,新規,0,2023-07-25,2023-07-25,株式会社かぐら,,株式会社,東京都,港区,芝５丁目１９－７－３０８,,13,103,1080014,,,,,,,2023-07-25,1,,,,,カグラ,0
2061,9010401175919,新規,0,2023-07-25,2023-07-25,株式会社エンスリーサイド,,株式会社,東京都,港区,六本木７丁目１９番１号,,13,103,1060032,,,,,,,2023-07-25,1,,,,,エンスリーサイド,0
2063,9010601063477,新規,0,2023-07-25,2023-07-25,シーナ建設株式会社,,株式会社,東京都,墨田区,錦糸４丁目３番６号シーナビル４Ｆ,,13,107,1300013,,,,,,,2023-07-25,1,,,,,シーナケンセツ,0
2076,9011001155798,新規,0,2023-07-25,2023-07-25,Ｄｅｖｅｓｉｏｎ株式会社,,株式会社,東京都,渋谷区,道玄坂１丁目１０番８号渋谷道玄坂東急ビル２Ｆ－Ｃ,,13,113,1500043,,,,,,,2023-07-25,1,,,,,デヴィジョン,0
2077,9011001155864,新規,0,2023-07-25,2023-07-25,株式会社ノルディスクアパレル,,株式会社,東京都,目黒区,青葉台１丁目１６番１１号,,13,110,1530042,,,,,,,2023-07-25,1,,,,,ノルディスクアパレル,0
2089,9011101103723,新規,0,2023-07-25,2023-07-25,株式会社グローゲイン,,株式会社,東京都,新宿区,高田馬場２丁目１９番７号タックイレブン高田馬場１０３号室,,13,104,1690075,,,,,,,2023-07-25,1,,,,,グローゲイン,0
2094,9011401025312,新規,0,2023-07-25,2023-07-25,株式会社ぬっく,,株式会社,東京都,板橋区,中丸町３３番７号,,13,119,1730026,,,,,,,2023-07-25,1,,,,,ヌック,0
2095,9011403004058,新規,0,2023-07-25,2023-07-25,喜八フーズ合同会社,,合同会社,東京都,板橋区,小豆沢４丁目１１－９スカイコート３０２,,13,119,1740051,,,,,,,2023-07-25,1,,,,,キハチフーズ,0
2096,9011501029568,新規,0,2023-07-25,2023-07-25,株式会社Ｋｎｏｔ　Ｆｏｕｎｄ,,株式会社,東京都,荒川区,東日暮里４丁目２７－１１,,13,118,1160014,,,,,,,2023-07-25,1,,,,,ノットファウンド,0
2104,9013303006687,新規,0,2023-07-25,2023-07-25,ＴｏｇｅｔｈｅｒＡｈｅａｄ合同会社,,合同会社,東京都,豊島区,東池袋１丁目３４－５いちご東池袋ビル６階,,13,116,1700013,,,,,,,2023-07-25,1,,,,,トゥゲザーアヘッド,0
2108,9020001152557,新規,0,2023-07-25,2023-07-25,三興工業株式会社,,株式会社,神奈川県,横浜市都筑区,池辺町３０９７番地１０,,14,118,2240053,,,,,,,2023-07-25,1,,,,,サンコウコウギョウ,0
2110,9021001079682,新規,0,2023-07-25,2023-07-25,ＳｔｏｎｅＳｑｕａｒｅ株式会社,,株式会社,神奈川県,藤沢市,湘南台２丁目２０番地の２,,14,205,2520804,,,,,,,2023-07-25,1,,,,,ストーンスクエア,0
2126,9040001129363,新規,0,2023-07-25,2023-07-25,日新国際株式会社,,株式会社,千葉県,印西市,草深字天王脇１１２２番２８,,12,231,2701337,,,,,,,2023-07-25,1,,,,,ニッシンコクサイ,0
2130,9040003022979,新規,0,2023-07-25,2023-07-25,ｍｉｍｉｚｋ合同会社,,合同会社,千葉県,千葉市中央区,仁戸名町３６１番地４４,,12,101,2600801,,,,,,,2023-07-25,1,,,,,ミミズク,0
2131,9040003022987,新規,0,2023-07-25,2023-07-25,合同会社尾田興業,,合同会社,千葉県,佐倉市,宮ノ台５丁目５番１６号,,12,212,2850857,,,,,,,2023-07-25,1,,,,,オダコウギョウ,0
2132,9040003022995,新規,0,2023-07-25,2023-07-25,澤辰商事合同会社,,合同会社,千葉県,市川市,欠真間２丁目１９番１９号,,12,203,2720142,,,,,,,2023-07-25,1,,,,,ゼチェンショウジ,0
2138,9050005013298,新規,0,2023-07-25,2023-07-25,特定非営利活動法人水の郷ネットワーク協議会,,その他の設立登記法人,茨城県,潮来市,潮来５０４３番地,,08,223,3112424,,,,,,,2023-07-25,1,,,,,ミズノサトネットワークキョウギカイ,0
2147,9070001040666,新規,0,2023-07-25,2023-07-25,株式会社ＹＯＫＯＴＡ,,株式会社,群馬県,高崎市,東町８０番地,,10,202,3700045,,,,,,,2023-07-25,1,,,,,ヨコタ,0
2153,9080403004838,新規,0,2023-07-25,2023-07-25,合同会社ランドロード,,合同会社,静岡県,浜松市東区,有玉北町１２１５番地の１グランティアラＬ,,22,132,4313121,,,,,,,2023-07-25,1,,,,,ランドロード,0
2170,9120001256249,新規,0,2023-07-25,2023-07-25,システムアドミン株式会社,,株式会社,大阪府,大阪市西成区,山王１丁目６番３０号マンションＭＩＳＯＮＯ２０１号,,27,122,5570001,,,,,,,2023-07-25,1,,,,,システムアドミン,0
2171,9120001256728,新規,0,2023-07-25,2023-07-25,株式会社ＮＩＦ,,株式会社,大阪府,大阪市都島区,東野田町１丁目２１番１４号ニュー若杉ビル７０６号室,,27,102,5340024,,,,,,,2023-07-25,1,,,,,エヌアイエフ,0
2176,9120101067934,新規,0,2023-07-25,2023-07-25,ギルーベ株式会社,,株式会社,大阪府,堺市堺区,北三国ヶ丘町６丁２番１６－３０３号室,,27,141,5900021,,,,,,,2023-07-25,1,,,,,ギルーベ,0
2189,9122001037190,新規,0,2023-07-25,2023-07-25,ＫＳＫホールディングス株式会社,,株式会社,大阪府,八尾市,北亀井町２丁目１番３０号,,27,212,5810066,,,,,,,2023-07-25,1,,,,,ケーエスケーホールディングス,0
2190,9130003008861,新規,0,2023-07-25,2023-07-25,合同会社ＴＭ,,合同会社,京都府,京都市下京区,高倉通松原上る葛籠屋町５１７番地,,26,106,6008085,,,,,,,2023-07-25,1,,,,,ティエム,0
2195,9140001130988,新規,0,2023-07-25,2023-07-25,株式会社ＪＥＩ‐ＨＯＵＳＥ,,株式会社,兵庫県,神戸市灘区,泉通１丁目１番１０号,,28,102,6570834,,,,,,,2023-07-25,1,,,,,ジェイハウス,0
2196,9140001131004,新規,0,2023-07-25,2023-07-25,株式会社ＦＲＯＮＴ　ＲＵＮＮＥＲ,,株式会社,兵庫県,尼崎市,稲葉元町２丁目１８番１２号３階,,28,202,6600055,,,,,,,2023-07-25,1,,,,,フロントランナー,0
2214,9180001157276,新規,0,2023-07-25,2023-07-25,株式会社フウゲツ,,株式会社,愛知県,名古屋市名東区,山の手１丁目２１８番地,,23,115,4650011,,,,,,,2023-07-25,1,,,,,フウゲツ,0
2215,9180003025530,新規,0,2023-07-25,2023-07-25,合同会社森田商会,,合同会社,愛知県,名古屋市昭和区,広路町字石坂４２番地の１,,23,107,4660834,,,,,,,2023-07-25,1,,,,,モリタショウカイ,0
2216,9180301037590,新規,0,2023-07-25,2023-07-25,株式会社ＹＫトランスポート,,株式会社,愛知県,碧南市,鷲林町２丁目３７番地１,,23,209,4470802,,,,,,,2023-07-25,1,,,,,ワイケートランスポート,0
2217,9180301037599,新規,0,2023-07-25,2023-07-25,株式会社サングローリー,,株式会社,愛知県,岡崎市,宇頭町字向山４５番地１ニューショップウトー２０３,,23,202,4440905,,,,,,,2023-07-25,1,,,,,サングローリー,0
2219,9180305009495,新規,0,2023-07-25,2023-07-25,特定非営利活動法人こえもじ,,その他の設立登記法人,愛知県,豊田市,若林東町高根下４２番地４,,23,211,4730914,,,,,,,2023-07-25,1,,,,,コエモジ,0
2224,9200001041527,新規,0,2023-07-25,2023-07-25,株式会社宮市,,株式会社,岐阜県,美濃加茂市,西町５丁目３０９番地,,21,211,5050046,,,,,,,2023-07-25,1,,,,,ミヤイチ,0
2231,9220003003556,新規,0,2023-07-25,2023-07-25,合資会社ＡＧＯＲＡ,,合資会社,石川県,河北郡津幡町,字南中条東３１番地１,,17,361,9290343,,,,,,,2023-07-25,1,,,,,アゴラ,0
2245,9280001008997,新規,0,2023-07-25,2023-07-25,株式会社Ｖｏｉｃｅｔｅｐ,,株式会社,島根県,出雲市,大社町杵築東９番地,,32,203,6990701,,,,,,,2023-07-25,1,,,,,ヴォイステップ,0
2252,9300001013391,新規,0,2023-07-25,2023-07-25,株式会社Ｓｏｌｉｄｉｔｙ　Ｍａｔｅｒｉａｌｓ,,株式会社,佐賀県,嬉野市,塩田町大字久間乙２７４２番地１,,41,209,8491402,,,,,,,2023-07-25,1,,,,,ソリリティマテリアルズ,0
2261,9360005006881,新規,0,2023-07-25,2023-07-25,Ｋｕｍｅ＆Ｐａｒｔｎｅｒｓ弁護士法人,,その他の設立登記法人,沖縄県,那覇市,泉崎２丁目２２番４号Ｋ’Ｓビル２０３号,,47,201,9000021,,,,,,,2023-07-25,1,,,,,クメアンドパートナーズ,0
2268,9390001017327,新規,0,2023-07-25,2023-07-25,ミズガミヤホールディングス株式会社,,株式会社,山形県,山形市,立谷川２丁目８６番２７号,,06,201,9902251,,,,,,,2023-07-25,1,,,,,ミズガミヤホールディングス,0
2273,9430001089510,新規,0,2023-07-25,2023-07-25,株式会社ＨＡＮＭＡＮＥ,,株式会社,北海道,札幌市中央区,大通東３丁目４番地１,,01,101,0600041,,,,,,,2023-07-25,1,,,,,ハンマネ,0
2286,9500001025078,新規,0,2023-07-25,2023-07-25,株式会社オダマル,,株式会社,愛媛県,松山市,祝谷東町４４１番地１８オクタワーズ松山道後２０８号,,38,201,7900835,,,,,,,2023-07-25,1,,,,,オダマル,0
2287,9700150118042,新規,0,2023-07-25,2023-07-25,ｇｕａｎｇｚｈｏｕｗｅｉｇｕｉｈｕａｍａｏｙｉｙｏｕｘｉａｎｇｏｎｇｓｉ,,外国会社等,,,,,,,,ｔｉａｎｈｅｑｕ　ｌｉｎｈｅｘｉｌｕ１６１ｈａｏ１５０８ｆａｎｇ　ｇｕａｎｇｚｈｏｕｓｈｉｇｕａｎｇｄｏｎｇｓｈｅｎｇ,,,,,,2023-07-25,1,,,,,コウシュウイキカボウエキユウゲンコウシ,0
2288,9700150118612,新規,0,2023-07-25,2023-07-25,Ｗｏａｎ　Ｔｅｃｈｎｏｌｏｇｙ（Ｓｈｅｎｚｈｅｎ）Ｃｏ．，Ｌｔｄ．,,外国会社等,,,,,,,,Ｈａｉｃｈｅｎｇ　Ｒｏａｄ，Ｍａｂｕ　Ｃｏｍｍｕｎｉｔｙ，Ｘｉｘｉａｎｇ　Ｓｔｒｅｅｔ，Ｂａｏ’ａｎ　Ｄｉｓｔｒｉｃｔ１１０１，Ｑｉａｎｃｈｅｎｇ　Ｃｏｍｍｅｒｃｉａｌ　Ｃｅｎｔｅｒ，Ｎｏ．５,,,,,,2023-07-25,1,,,,,ヲアンテクシンセンユウゲンコウシ,0
