sequenceNumber,corporateNumber,process,correct,updateDate,changeDate,name,nameImageId,kind,prefectureName,cityName,streetNumber,addressImageId,prefectureCode,cityCode,postCode,addressOutside,addressOutsideImageId,closeDate,closeCause,successorCorporateNumber,changeCause,assignmentDate,latest,enName,enPrefectureName,enCityName,enAddressOutside,furigana,hihyoji
1,1010001002836,登記記録の閉鎖等,0,2021-12-01,2021-11-29,株式会社講談社コミッククリエイト,00049093,株式会社,東京都,文京区,音羽１丁目１７番１８号,,13,105,1120013,,,2021-11-29,清算の結了等,,,2015-10-05,1,,,,,コウダンシャコミッククリエイト,0
14,1010003031008,登記記録の閉鎖等,0,2021-12-01,2021-11-25,合同会社ＫＲＦ８９,,合同会社,東京都,千代田区,内幸町２丁目１番６号,,13,101,1000011,,,2021-11-25,清算の結了等,,,2019-11-07,1,,,,,ケイアールエフエイティナイン,0
24,1010401131193,登記記録の閉鎖等,0,2021-12-01,2021-11-24,株式会社コナ,,株式会社,東京都,港区,南青山４丁目１番１５－８０２号,,13,103,1070062,,,2021-11-24,清算の結了等,,,2017-05-12,1,,,,,コナ,0
36,1010905003392,登記記録の閉鎖等,0,2021-12-01,2021-11-24,一般社団法人日本流通管理支援機構,,その他の設立登記法人,東京都,世田谷区,北沢２丁目３０番８号,,13,112,1550031,,,2021-11-24,清算の結了等,,,2017-05-11,1,,,,,ニホンリュウツウカンリシエンキコウ,0
40,1011001132383,登記記録の閉鎖等,0,2021-12-01,2021-11-22,ＷｏｒｋＢａｓｅ株式会社,,株式会社,東京都,渋谷区,広尾５丁目１９番１１号,,13,113,1500012,,,2021-11-22,清算の結了等,,,2020-02-14,1,,,,,ワークベース,0
66,1011802021512,登記記録の閉鎖等,0,2021-12-01,2021-11-30,有限会社中島歯研,,有限会社,東京都,葛飾区,立石７丁目３番１１号,,13,122,1240012,,,2021-11-30,清算の結了等,,,2015-10-05,1,,,,,,0
82,1021002020859,登記記録の閉鎖等,0,2021-12-01,2021-11-26,有限会社三輪ビニール,,有限会社,神奈川県,相模原市南区,上鶴間１丁目７番５０号,,14,153,2520302,,,2021-11-26,清算の結了等,,,2015-10-05,1,,,,,ミワビニール,0
85,1030001059899,登記記録の閉鎖等,0,2021-12-01,2021-11-30,インターメディア・インフィニティ株式会社,,株式会社,埼玉県,加須市,花崎北２丁目１６番地１Ｃ－９０１,,11,210,3470016,,,2021-11-30,清算の結了等,,,2015-10-05,1,,,,,インターメディアインフィニティ,0
94,1030002032814,登記記録の閉鎖等,0,2021-12-01,2021-11-26,有限会社ケイ・エム・ティー,,有限会社,埼玉県,所沢市,大字下富１４４５番１９,,11,208,3590001,,,2021-11-26,清算の結了等,,,2015-10-05,1,,,,,ケイエムティー,0
95,1030002093534,登記記録の閉鎖等,0,2021-12-01,2021-11-25,有限会社花の木,,有限会社,埼玉県,鶴ヶ島市,富士見２丁目１３番１１号,,11,241,3502201,,,2021-11-25,清算の結了等,,,2015-10-05,1,,,,,ハナノキ,0
118,1050001042093,登記記録の閉鎖等,0,2021-12-01,2021-11-29,エス・オー・シー株式会社,,株式会社,茨城県,ひたちなか市,大字堀口５９９番地の２,,08,221,3120034,,,2021-11-29,清算の結了等,,,2017-01-16,1,,,,,エスオーシー,0
127,1080101003439,登記記録の閉鎖等,0,2021-12-01,2021-11-29,株式会社わかば,,株式会社,静岡県,沼津市,双葉町７番１４号ルネッサファミーユ３０３号,,22,203,4100005,,,2021-11-29,清算の結了等,,,2015-10-05,1,,,,,ワカバ,0
135,1110001009747,登記記録の閉鎖等,0,2021-12-01,2021-11-29,株式会社ＫＯＵＤＥＮ,,株式会社,新潟県,新潟市秋葉区,古田４丁目６番１５号,,15,105,9560025,,,2021-11-29,清算の結了等,,,2015-10-05,1,,,,,コウデン,0
138,1110002004689,登記記録の閉鎖等,0,2021-12-01,2021-11-26,有限会社新潟オガ販,,有限会社,新潟県,新潟市東区,新松崎２丁目１９番１６号,,15,102,9500017,,,2021-11-26,清算の結了等,,,2015-10-05,1,,,,,ニイガタオガハン,0
139,1110002028861,登記記録の閉鎖等,0,2021-12-01,2021-11-29,有限会社樋口保険センター,,有限会社,新潟県,長岡市,高島町４３７番地,,15,202,9401139,,,2021-11-29,清算の結了等,,,2015-10-05,1,,,,,ヒグチホケンセンター,0
140,1110003001660,登記記録の閉鎖等,0,2021-12-01,2021-11-26,合同会社克味,,合同会社,新潟県,十日町市,高田町３丁目南３０５番地７,,15,210,9480065,,,2021-11-26,清算の結了等,,,2015-10-05,1,,,,,カツミ,0
145,1120001082215,登記記録の閉鎖等,0,2021-12-01,2021-11-26,株式会社スタジオ九十二,,株式会社,大阪府,大阪市天王寺区,玉造元町３番２号２０３号,,27,109,5430014,,,2021-11-26,清算の結了等,,,2015-10-05,1,,,,,,0
191,1170001014403,登記記録の閉鎖等,0,2021-12-01,2021-11-29,本宮建設株式会社,,株式会社,和歌山県,田辺市,本宮町土河屋１０４３番地の２,,30,206,6471753,,,2021-11-29,清算の結了等,,,2016-09-05,1,,,,,ホングウケンセツ,0
196,1180001147045,登記記録の閉鎖等,0,2021-12-01,2021-11-29,新川株式会社,,株式会社,愛知県,名古屋市名東区,貴船２丁目３０５番地アーバン貴船２０１号,,23,115,4650058,,,2021-11-29,清算の結了等,,,2021-07-26,1,,,,,ニイカワ,0
197,1180002011431,登記記録の閉鎖等,0,2021-12-01,2021-11-26,有限会社アイ・アイ,,有限会社,愛知県,名古屋市北区,柳原４丁目７番７号,,23,103,4620845,,,2021-11-26,清算の結了等,,,2015-10-05,1,,,,,アイアイ,0
209,1240003004205,登記記録の閉鎖等,0,2021-12-01,2021-11-25,合同会社こうらごう,,合同会社,広島県,神石郡神石高原町,５８５番地１,,34,545,7201800,,,2021-11-25,清算の結了等,,,2019-04-11,1,,,,,コウラゴウ,0
227,1290802021148,登記記録の閉鎖等,0,2021-12-01,2021-11-29,有限会社和田工務店,,有限会社,福岡県,宮若市,本城２４０番地３,,40,226,8230003,,,2021-11-29,清算の結了等,,,2015-10-05,1,,,,,ワダコウムテン,0
258,1390005004122,登記記録の閉鎖等,0,2021-12-01,2021-11-29,湯田川殖産生産森林組合,,その他の設立登記法人,山形県,鶴岡市,湯田川丙６４番地,,06,203,9970752,,,2021-11-29,清算の結了等,,,2015-10-05,1,,,,,ユタガワショクサンセイサン,0
263,1430001080006,登記記録の閉鎖等,0,2021-12-01,2021-11-29,アイティコンサルタント株式会社,,株式会社,北海道,札幌市中央区,南三条西１２丁目３２６－２，ダイアパレス大通公園南７０５,,01,101,0600063,,,2021-11-29,清算の結了等,,,2019-10-08,1,,,,,アイティコンサルタント,0
294,2010001030704,登記記録の閉鎖等,0,2021-12-01,2021-11-12,株式会社メック,,株式会社,東京都,千代田区,神田三崎町１丁目３番１２号,,13,101,1010061,,,2021-11-12,合併による解散等,3010001212004,令和３年１１月１日東京都千代田区神田三崎町一丁目３番１２号株式会社メック（3010001212004）に合併し解散,2015-10-05,1,,,,,メック,0
304,2010005023571,登記記録の閉鎖等,0,2021-12-01,2021-11-29,一般社団法人時事通信ビル,,その他の設立登記法人,東京都,千代田区,丸の内３丁目１番１号東京共同会計事務所内,,13,101,1000005,,,2021-11-29,清算の結了等,,,2015-10-05,1,,,,,ジジツウシンビル,0
307,2010401114296,登記記録の閉鎖等,0,2021-12-01,2021-11-24,株式会社ＡＣインベストメント,,株式会社,東京都,港区,虎ノ門４丁目３番１号城山トラストタワー,,13,103,1050001,,,2021-11-24,清算の結了等,,,2015-10-05,1,,,,,エイシーインベストメント,0
308,2010401132554,登記記録の閉鎖等,0,2021-12-01,2021-11-24,株式会社トトノエ,,株式会社,東京都,港区,六本木３丁目１１番６号野沢ビル５Ｆ,,13,103,1060032,,,2021-11-24,清算の結了等,,,2017-07-20,1,,,,,,0
320,2010701019492,登記記録の閉鎖等,0,2021-12-01,2021-11-29,株式会社ミーム,,株式会社,東京都,品川区,東五反田２丁目１６番１号,,13,109,1410022,,,2021-11-29,清算の結了等,,,2015-10-05,1,,,,,ミーム,0
333,2011005005155,登記記録の閉鎖等,0,2021-12-01,2021-11-15,一般社団法人みんなの相続サポートセンター,,その他の設立登記法人,東京都,渋谷区,千駄ヶ谷４丁目２０番３号東栄神宮外苑ビル７Ｆ,,13,113,1510051,,,2021-11-15,清算の結了等,,,2015-10-05,1,,,,,ミンナノソウゾクサポートセンター,0
341,2011103008753,登記記録の閉鎖等,0,2021-12-01,2021-11-29,合同会社ビッグバン,,合同会社,東京都,新宿区,歌舞伎町１丁目１３番５号三経４３ビル地下１階,,13,104,1600021,,,2021-11-29,清算の結了等,,,2019-04-25,1,,,,,ビッグバン,0
382,2030002031798,登記記録の閉鎖等,0,2021-12-01,2021-11-30,有限会社エポック,,有限会社,埼玉県,所沢市,緑町２丁目７番２０号Ｆ－グランデ１Ｆ,,11,208,3591111,,,2021-11-30,清算の結了等,,,2015-10-05,1,,,,,エポック,0
384,2030002059963,登記記録の閉鎖等,0,2021-12-01,2021-11-29,有限会社新映精機,,有限会社,埼玉県,志木市,下宗岡２丁目３番１６号,,11,228,3530003,,,2021-11-29,清算の結了等,,,2015-10-05,1,,,,,シンエイセイキ,0
396,2040002015585,登記記録の閉鎖等,0,2021-12-01,2021-11-25,有限会社フジタファミリーカンパニー,,有限会社,千葉県,千葉市美浜区,中瀬２丁目６番地１,,12,106,2610023,,,2021-11-25,清算の結了等,,,2015-10-05,1,,,,,フジタファミリーカンパニー,0
399,2050001016014,登記記録の閉鎖等,0,2021-12-01,2021-11-26,株式会社長岡,,株式会社,茨城県,土浦市,小野６２８番地,,08,203,3004108,,,2021-11-26,清算の結了等,,,2015-10-05,1,,,,,ナガオカ,0
402,2050003003530,登記記録の閉鎖等,0,2021-12-01,2021-11-25,ジャパン・クオリティ合同会社,,合同会社,茨城県,龍ケ崎市,緑町１４番地２－１０３号,,08,208,3010832,,,2021-11-25,清算の結了等,,,2016-12-27,1,,,,,ジャパンクオリティ,0
406,2070003002794,登記記録の閉鎖等,0,2021-12-01,2021-11-29,合同会社ＳＫＤサービス研究所,,合同会社,群馬県,桐生市,堤町１丁目６番６号,,10,203,3760042,,,2021-11-29,清算の結了等,,,2017-01-04,1,,,,,エスケイデイサービスケンキュウジョ,0
412,2080105005059,登記記録の閉鎖等,0,2021-12-01,2021-11-29,特定非営利活動法人いずみ,,その他の設立登記法人,静岡県,富士宮市,泉町７４１番地,,22,207,4180043,,,2021-11-29,清算の結了等,,,2015-10-05,1,,,,,イズミ,0
423,2120001202812,登記記録の閉鎖等,0,2021-12-01,2021-11-30,株式会社ＷＢＦホテルオペレーションズ大阪,,株式会社,大阪府,大阪市北区,豊崎３丁目１４番９号,,27,127,5310072,,,2021-11-30,清算の結了等,,,2017-01-05,1,,,,,ダブリュービーエフホテルオペレーションズオオサカ,0
427,2120002073930,登記記録の閉鎖等,0,2021-12-01,2021-11-29,有限会社木村米穀店,,有限会社,大阪府,枚方市,中宮山戸町１０番３３号,,27,210,5730011,,,2021-11-29,清算の結了等,,,2015-10-05,1,,,,,キムラベイコクテン,0
453,2180001130999,登記記録の閉鎖等,0,2021-12-01,2021-11-25,株式会社チャンスパートナーズ,,株式会社,愛知県,名古屋市中区,丸の内３丁目７番９号チサンマンション丸の内第二４階４０１号室,,23,106,4600002,,,2021-11-25,清算の結了等,,,2018-01-31,1,,,,,チャンスパートナーズ,0
465,2200001033860,登記記録の閉鎖等,0,2021-12-01,2021-11-29,株式会社バンブートータルソーイング,,株式会社,岐阜県,揖斐郡池田町,草深１１９番地の７,,21,404,5032418,,,2021-11-29,清算の結了等,,,2017-03-21,1,,,,,バンブートータルソーイング,0
475,2260002013550,登記記録の閉鎖等,0,2021-12-01,2021-11-26,有限会社ＫＡＩＺＵ,,有限会社,岡山県,岡山市北区,表町１丁目１０番地２８号,,33,101,7000822,,,2021-11-26,清算の結了等,,,2015-10-05,1,,,,,カイズ,0
517,2430005013398,登記記録の閉鎖等,0,2021-12-01,2021-11-26,農事組合法人種部農園,,その他の設立登記法人,北海道,勇払郡厚真町,字豊丘３４９番地２,,01,581,0591753,,,2021-11-26,清算の結了等,,,2018-04-23,1,,,,,タネベノウエン,0
541,3010001058224,登記記録の閉鎖等,0,2021-12-01,2021-11-26,株式会社宮崎製袋,,株式会社,東京都,中央区,日本橋浜町３丁目９番８号,,13,102,1030007,,,2021-11-26,清算の結了等,,,2015-10-05,1,,,,,ミヤザキセイタイ,0
564,3010601054770,登記記録の閉鎖等,0,2021-12-01,2021-12-01,株式会社クロスボーダー,,株式会社,東京都,港区,北青山２丁目９－８－９０１,,13,103,1070061,,,2021-12-01,清算の結了等,,,2018-12-13,1,,,,,クロスボーダー,0
570,3011001024554,登記記録の閉鎖等,0,2021-12-01,2021-11-18,株式会社和計画コンサルタント,,株式会社,東京都,渋谷区,幡ヶ谷２丁目１３番６号富士ビル３階Ｂ号室,,13,113,1510072,,,2021-11-18,清算の結了等,,,2015-10-05,1,,,,,ヤマトケイカクコンサルタント,0
572,3011001125443,登記記録の閉鎖等,0,2021-12-01,2021-11-26,原田メソッド株式会社,,株式会社,東京都,品川区,東五反田２丁目５番２号アリエッタビル２Ｆ,,13,109,1410022,,,2021-11-26,清算の結了等,,,2018-11-30,1,,,,,ハラダメソッド,0
587,3011801001158,登記記録の閉鎖等,0,2021-12-01,2021-11-30,株式会社木村商店,,株式会社,東京都,葛飾区,細田２丁目６番６号,,13,122,1240021,,,2021-11-30,清算の結了等,,,2015-10-05,1,,,,,キムラショウテン,0
596,3020001028894,登記記録の閉鎖等,0,2021-12-01,2021-11-26,株式会社マイクロテクノハウス,,株式会社,神奈川県,横浜市中区,本牧三之谷１７番９号,,14,104,2310824,,,2021-11-26,清算の結了等,,,2015-10-05,1,,,,,マイクロテクノハウス,0
604,3020002040659,登記記録の閉鎖等,0,2021-12-01,2021-11-26,有限会社山仁設備,,有限会社,神奈川県,横浜市鶴見区,生麦４丁目７番２０号,,14,101,2300052,,,2021-11-26,清算の結了等,,,2015-10-05,1,,,,,ヤマジンセツビ,0
605,3020002076810,登記記録の閉鎖等,0,2021-12-01,2021-11-26,有限会社蘇生会,,有限会社,神奈川県,横浜市港北区,篠原町３０１４番地,,14,109,2220026,,,2021-11-26,清算の結了等,,,2015-10-05,1,,,,,,0
606,3020002094944,登記記録の閉鎖等,0,2021-12-01,2021-11-26,有限会社富士屋酒店,,有限会社,神奈川県,川崎市麻生区,王禅寺東３丁目１６番１１号,,14,137,2150018,,,2021-11-26,清算の結了等,,,2015-10-05,1,,,,,フジヤサケテン,0
614,3030001051929,登記記録の閉鎖等,0,2021-12-01,2021-11-30,南国商事株式会社,,株式会社,埼玉県,北葛飾郡杉戸町,清地５丁目２３番１０号,,11,464,3450025,,,2021-11-30,清算の結了等,,,2015-10-05,1,,,,,ナンゴクショウジ,0
622,3030002115856,登記記録の閉鎖等,0,2021-12-01,2021-11-26,有限会社関製作所,,有限会社,埼玉県,大里郡寄居町,大字牟礼９４１番地４,,11,408,3691215,,,2021-11-26,清算の結了等,,,2015-10-05,1,,,,,セキセイサクジョ,0
625,3040001075489,登記記録の閉鎖等,0,2021-12-01,2021-11-25,株式会社ワンフォアオール,,株式会社,千葉県,夷隅郡御宿町,御宿台２０５番地１４,,12,443,2995112,,,2021-11-25,清算の結了等,,,2015-10-05,1,,,,,ワンフォアオール,0
632,3050001015089,登記記録の閉鎖等,0,2021-12-01,2021-11-26,株式会社築凜クラブ,,株式会社,茨城県,結城郡八千代町,大字菅谷６１１番地２,,08,521,3003572,,,2021-11-26,清算の結了等,,,2015-10-05,1,,,,,,0
634,3050001016062,登記記録の閉鎖等,0,2021-12-01,2021-11-26,株式会社花室,,株式会社,茨城県,つくば市,花室８８２番地４,,08,220,3050025,,,2021-11-26,清算の結了等,,,2015-10-05,1,,,,,ハナムロ,0
680,3140001093010,登記記録の閉鎖等,0,2021-12-01,2021-11-29,株式会社三匠建設,,株式会社,兵庫県,洲本市,宇原８０番地８,,28,205,6560054,,,2021-11-29,清算の結了等,,,2015-10-05,1,,,,,サンショウケンセツ,0
706,3190001023887,登記記録の閉鎖等,0,2021-12-01,2021-11-29,エムアンドティ株式会社,,株式会社,三重県,桑名市,大字東方１６２０番地４４,,24,205,5110811,,,2021-11-29,清算の結了等,,,2016-08-04,1,,,,,エムアンドティ,0
736,3290003010626,登記記録の閉鎖等,0,2021-12-01,2021-11-24,合同会社マリン・コンサルティング・イケダ,,合同会社,福岡県,福津市,有弥の里１丁目９番地の９,,40,224,8113211,,,2021-11-24,清算の結了等,,,2020-11-13,1,,,,,マリンコンサルティングイケダ,0
738,3290802020197,登記記録の閉鎖等,0,2021-12-01,2021-11-26,有限会社賀匠,,有限会社,福岡県,直方市,大字下境２５８５番地の１,,40,204,8220007,,,2021-11-26,清算の結了等,,,2015-10-05,1,,,,,,0
757,3400002010425,登記記録の閉鎖等,0,2021-12-01,2021-11-30,有限会社北日本産業,,有限会社,岩手県,遠野市,松崎町白岩字地森６７番地５,,03,208,0280541,,,2021-11-30,清算の結了等,,,2015-10-05,1,,,,,キタニホンサンギョウ,0
758,3400605000070,登記記録の閉鎖等,0,2021-12-01,2021-11-29,一般財団法人水沢ロータリー青山社会奉仕事業団,,その他の設立登記法人,岩手県,奥州市,水沢佐倉河字後田２９番地,,03,215,0230003,,,2021-11-29,清算の結了等,,,2015-10-05,1,,,,,ミズサワロータリーアオヤマシャカイホウシジギョウダン,0
764,3430002006197,登記記録の閉鎖等,0,2021-12-01,2021-11-12,共和商事有限会社,,有限会社,北海道,札幌市中央区,北四条西４丁目１番地,,01,101,0600004,,,2021-11-12,清算の結了等,,,2015-10-05,1,,,,,キョウワショウジ,0
793,4010001132639,登記記録の閉鎖等,0,2021-12-01,2021-11-26,株式会社ＤＥＮＸＩＮ,,株式会社,埼玉県,さいたま市大宮区,土手町１丁目２番地,,11,103,3300801,,,2021-11-26,清算の結了等,,,2015-10-05,1,,,,,デンシン,0
798,4010001161951,登記記録の閉鎖等,0,2021-12-01,2021-11-24,株式会社ＫＰＤソリューションズ,,株式会社,東京都,港区,海岸１丁目２番３号汐留芝離宮ビルディング１０階,,13,103,1050022,,,2021-11-24,清算の結了等,,,2015-10-05,1,,,,,ケーピーディーソリューションズ,0
800,4010001204388,登記記録の閉鎖等,0,2021-12-01,2021-11-26,株式会社ツーグレイテスト,,株式会社,埼玉県,熊谷市,肥塚２丁目７番１２号,00122741,11,202,3600015,,,2021-11-26,清算の結了等,,,2019-10-03,1,,,,,ツーグレイテスト,0
809,4010401095840,登記記録の閉鎖等,0,2021-12-01,2021-11-25,プロップスコーポレーション株式会社,,株式会社,宮城県,仙台市青葉区,本町１丁目１３番２８号,,04,101,9800014,,,2021-11-25,清算の結了等,,,2015-10-05,1,,,,,プロップスコーポレーション,0
821,4010801018640,登記記録の閉鎖等,0,2021-12-01,2021-11-26,株式会社新光,,株式会社,東京都,大田区,大森西６丁目１１番２１号,,13,111,1430015,,,2021-11-26,清算の結了等,,,2015-10-05,1,,,,,シンコウ,0
827,4010902026162,登記記録の閉鎖等,0,2021-12-01,2021-11-29,有限会社カッティングルーズ,,有限会社,東京都,世田谷区,三宿２丁目３５番１３号,,13,112,1540005,,,2021-11-29,清算の結了等,,,2015-10-05,1,,,,,カッティングルーズ,0
831,4010905001823,登記記録の閉鎖等,0,2021-12-01,2021-11-26,特定非営利活動法人臨床パストラル教育研究センター,,その他の設立登記法人,東京都,大田区,南雪谷１丁目１７番８号,,13,111,1450066,,,2021-11-26,清算の結了等,,,2015-10-05,1,,,,,リンショウパストラルキョウイクケンキュウセンター,0
842,4011101005313,登記記録の閉鎖等,0,2021-12-01,2021-11-26,株式会社玉翠会,,株式会社,東京都,新宿区,上落合１丁目１３番１７号,,13,104,1610034,,,2021-11-26,清算の結了等,,,2015-10-05,1,,,,,ギョクスイカイ,0
845,4011403002982,登記記録の閉鎖等,0,2021-12-01,2021-11-30,Ａｌｕｂｅｓｈｉ合同会社,,合同会社,東京都,板橋区,南常盤台１丁目１１－６－１０１,,13,119,1740072,,,2021-11-30,清算の結了等,,,2020-04-20,1,,,,,アルベシ,0
850,4011802003425,登記記録の閉鎖等,0,2021-12-01,2021-11-25,有限会社三邦産業,,有限会社,東京都,葛飾区,東水元１丁目１４番１号,,13,122,1250033,,,2021-11-25,清算の結了等,,,2015-10-05,1,,,,,サンポウサンギョウ,0
851,4011802010215,登記記録の閉鎖等,0,2021-12-01,2021-11-30,有限会社永紘商事,,有限会社,東京都,足立区,綾瀬１丁目３３番１４号,,13,121,1200005,,,2021-11-30,清算の結了等,,,2015-10-05,1,,,,,,0
857,4020001038744,登記記録の閉鎖等,0,2021-12-01,2021-11-26,株式会社パレスホーム,,株式会社,神奈川県,相模原市南区,相模台２丁目４番５号,,14,153,2520321,,,2021-11-26,清算の結了等,,,2015-10-05,1,,,,,パレスホーム,0
896,4040002023157,登記記録の閉鎖等,0,2021-12-01,2021-11-25,有限会社関本石油,,有限会社,千葉県,船橋市,宮本２丁目１４番５－船橋スカイマンション１０６号,,12,204,2730003,,,2021-11-25,清算の結了等,,,2015-10-05,1,,,,,セキモトセキユ,0
897,4040002056454,登記記録の閉鎖等,0,2021-12-01,2021-11-25,萩原電工有限会社,,有限会社,千葉県,富里市,七栄８９６番地の１３,,12,233,2860221,,,2021-11-25,清算の結了等,,,2015-10-05,1,,,,,ハギワラデンコウ,0
904,4070001032073,登記記録の閉鎖等,0,2021-12-01,2021-11-29,株式会社フーズエイト,,株式会社,群馬県,高崎市,行力町２７０番地３,,10,202,3700088,,,2021-11-29,清算の結了等,,,2016-04-21,1,,,,,フーズエイト,0
954,4180001133356,登記記録の閉鎖等,0,2021-12-01,2021-11-19,株式会社真秀櫓芭,,株式会社,愛知県,尾張旭市,印場元町５丁目１１番地２４,,23,226,4880840,,,2021-11-19,清算の結了等,,,2018-08-08,1,,,,,マホロバ,0
975,4240002045544,登記記録の閉鎖等,0,2021-12-01,2021-11-29,しばた薬局有限会社,,有限会社,広島県,福山市,新市町大字金丸４６６番地１６,,34,207,7293111,,,2021-11-29,清算の結了等,,,2015-10-05,1,,,,,シバタヤッキョク,0
978,4260001012072,登記記録の閉鎖等,0,2021-12-01,2021-11-30,株式会社百々花,,株式会社,岡山県,岡山市北区,表町３丁目４番１４号,,33,101,7000822,,,2021-11-30,清算の結了等,,,2015-10-05,1,,,,,モモカ,0
979,4260002010570,登記記録の閉鎖等,0,2021-12-01,2021-11-30,有限会社ヨシノ岡山,,有限会社,岡山県,岡山市東区,西大寺中野４２番地の２０,,33,103,7048191,,,2021-11-30,清算の結了等,,,2015-10-05,1,,,,,,0
991,4290802016756,登記記録の閉鎖等,0,2021-12-01,2021-11-25,有限会社山建設,,有限会社,福岡県,遠賀郡岡垣町,吉木東１丁目３番２１号,,40,383,8114241,,,2021-11-25,清算の結了等,,,2015-10-05,1,,,,,ヤマケンセツ,0
998,4330003006577,登記記録の閉鎖等,0,2021-12-01,2021-11-29,合同会社居酒屋はまさき村,,合同会社,熊本県,熊本市東区,長嶺南３丁目２番８号,,43,102,8618039,,,2021-11-29,清算の結了等,,,2016-01-07,1,,,,,イザカヤハマサキムラ,0
1012,4430001000811,登記記録の閉鎖等,0,2021-12-01,2021-11-29,株式会社アドニス北海道,,株式会社,北海道,札幌市中央区,南三条西２０丁目２番１号,,01,101,0640803,,,2021-11-29,清算の結了等,,,2015-10-05,1,,,,,アドニスホッカイドウ,0
1017,4460402000151,登記記録の閉鎖等,0,2021-12-01,2021-11-30,有限会社吉田産業,00091412,有限会社,北海道,根室市,光洋町５丁目９５番地,,01,223,0870004,,,2021-11-30,清算の結了等,,,2015-10-05,1,,,,,ヨシダサンギョウ,0
1067,5011001113768,登記記録の閉鎖等,0,2021-12-01,2021-11-17,ＩｎｎｅｒＷｏｒｋｉｎｇｓ　Ｊａｐａｎ株式会社,,株式会社,東京都,渋谷区,恵比寿西１丁目７番７号ＥＢＳビル２Ｆ,,13,113,1500021,,,2021-11-17,合併による解散等,7010401099483,令和３年１１月１日東京都渋谷区恵比寿西１－７－７ＥＢＳビル２階ＨＨ　Ｇｌｏｂａｌ株式会社（7010401099483）に合併し解散,2016-11-25,1,,,,,インナーワーキングスジャパン,0
1098,5020001047281,登記記録の閉鎖等,0,2021-12-01,2021-11-26,株式会社Ｒｅ　ｒｏｏｍ,,株式会社,神奈川県,相模原市南区,相模台２丁目４番５号,,14,153,2520321,,,2021-11-26,清算の結了等,,,2015-10-05,1,,,,,リルーム,0
1100,5020001080027,登記記録の閉鎖等,0,2021-12-01,2021-11-26,株式会社アップル・リレーションサービス,,株式会社,神奈川県,川崎市中原区,小杉町３丁目６９番地１今井ビル１０１号室,,14,133,2110063,,,2021-11-26,清算の結了等,,,2015-10-05,1,,,,,アップルリレーションサービス,0
1112,5030001027902,登記記録の閉鎖等,0,2021-12-01,2021-11-29,株式会社エムエス・コーポレーション,,株式会社,埼玉県,狭山市,大字堀兼１９８０番地の６,,11,215,3501312,,,2021-11-29,清算の結了等,,,2015-10-05,1,,,,,,0
1136,5040002081484,登記記録の閉鎖等,0,2021-12-01,2021-11-29,有限会社美味,,有限会社,千葉県,茂原市,小林３４９３番地４,,12,210,2970074,,,2021-11-29,清算の結了等,,,2015-10-05,1,,,,,ビミ,0
1143,5060001020937,登記記録の閉鎖等,0,2021-12-01,2021-11-18,Ｙ．Ｓマニュファクチャリング株式会社,,株式会社,栃木県,佐野市,葛生東１丁目９番２６号,,09,204,3270501,,,2021-11-18,清算の結了等,,,2015-10-05,1,,,,,ワイエスマニュファクチャリング,0
1148,5080101000110,登記記録の閉鎖等,0,2021-12-01,2021-11-30,天城綿株式会社,,株式会社,静岡県,沼津市,松長７１２番地の１,,22,203,4100874,,,2021-11-30,清算の結了等,,,2015-10-05,1,,,,,アマギワタ,0
1150,5080401017110,登記記録の閉鎖等,0,2021-12-01,2021-11-29,株式会社イワタヤ工業,,株式会社,静岡県,袋井市,高尾１９３０番地の１,,22,216,4370023,,,2021-11-29,清算の結了等,,,2015-10-05,1,,,,,イワタヤコウギョウ,0
1155,5120001030293,登記記録の閉鎖等,0,2021-12-01,2021-11-25,井上工業株式会社,,株式会社,大阪府,大阪市住之江区,安立１丁目２番１６号,,27,125,5590003,,,2021-11-25,清算の結了等,,,2015-10-05,1,,,,,イノウエコウギョウ,0
1205,5180001098540,登記記録の閉鎖等,0,2021-12-01,2021-11-26,株式会社大地,,株式会社,愛知県,弥富市,神戸７丁目３０番地の１,,23,235,4901405,,,2021-11-26,清算の結了等,,,2015-10-05,1,,,,,ダイチ,0
1213,5180002013309,登記記録の閉鎖等,0,2021-12-01,2021-11-26,有限会社エヌ・エッカ,,有限会社,愛知県,名古屋市南区,鶴田１丁目４番２６号,,23,112,4570003,,,2021-11-26,清算の結了等,,,2015-10-05,1,,,,,エヌエッカ,0
1227,5200002010393,登記記録の閉鎖等,0,2021-12-01,2021-11-29,有限会社市橋塗装,,有限会社,岐阜県,羽島市,正木町新井５４５番地の５,,21,209,5016225,,,2021-11-29,清算の結了等,,,2015-10-05,1,,,,,イチハシトソウ,0
1230,5240001023863,登記記録の閉鎖等,0,2021-12-01,2021-11-26,株式会社ＨＢＳ,,株式会社,広島県,東広島市,西条町寺家５４６７番地２７,,34,212,7390041,,,2021-11-26,清算の結了等,,,2015-10-05,1,,,,,エイチビーエス,0
1240,5290001043766,登記記録の閉鎖等,0,2021-12-01,2021-11-25,株式会社オールスターズ,,株式会社,福岡県,宗像市,三倉１２番７号,,40,220,8113439,,,2021-11-25,清算の結了等,,,2015-10-05,1,,,,,オールスターズ,0
1270,5430001017409,登記記録の閉鎖等,0,2021-12-01,2021-11-30,株式会社ヤマト工業,,株式会社,北海道,札幌市白石区,本郷通１２丁目北５－１５ペルドゥエープス本郷,,01,104,0030025,,,2021-11-30,清算の結了等,,,2015-10-05,1,,,,,ヤマトコウギョウ,0
1281,5470001001937,登記記録の閉鎖等,0,2021-12-01,2021-11-29,四国日産車体株式会社,,株式会社,香川県,高松市,花園町１丁目１番８号,,37,201,7600072,,,2021-11-29,清算の結了等,,,2015-10-05,1,,,,,シコクニッサンシャタイ,0
1304,6010005032932,登記記録の閉鎖等,0,2021-12-01,2021-11-30,Ｐｒｉｍｏ　Ｈｏｔｅｌ特定目的会社,,その他の設立登記法人,東京都,千代田区,丸の内３丁目１番１号東京共同会計事務所内,,13,101,1000005,,,2021-11-30,清算の結了等,,,2021-02-15,1,,,,,プリモホテル,0
1337,6010802011097,登記記録の閉鎖等,0,2021-12-01,2021-11-22,有限会社日伸化成製作所,,有限会社,東京都,大田区,西糀谷２丁目１０番２０号,,13,111,1440034,,,2021-11-22,清算の結了等,,,2015-10-05,1,,,,,ニッシンカセイセイサクショ,0
1366,6020001066140,登記記録の閉鎖等,0,2021-12-01,2021-11-26,久地工業株式会社,,株式会社,神奈川県,川崎市高津区,坂戸３丁目１６番２４号,,14,134,2130012,,,2021-11-26,清算の結了等,,,2015-10-05,1,,,,,,0
1371,6020001132041,登記記録の閉鎖等,0,2021-12-01,2021-11-26,株式会社ＳＴＡＲＲＹ,,株式会社,神奈川県,横浜市磯子区,新杉田町８番地８,,14,107,2350032,,,2021-11-26,清算の結了等,,,2019-07-19,1,,,,,スターリー,0
1400,6070001013658,登記記録の閉鎖等,0,2021-12-01,2021-11-26,ＨＭヤマト株式会社,,株式会社,群馬県,伊勢崎市,長沼町２０４番地２,,10,204,3720855,,,2021-11-26,清算の結了等,,,2015-10-05,1,,,,,エイチエムヤマト,0
1414,6120001114533,登記記録の閉鎖等,0,2021-12-01,2021-11-26,株式会社セレクション,,株式会社,大阪府,大阪市中央区,南久宝寺町４丁目６番６号,,27,128,5410058,,,2021-11-26,清算の結了等,,,2015-10-05,1,,,,,,0
1419,6120001152483,登記記録の閉鎖等,0,2021-12-01,2021-11-26,株式会社リューマン,,株式会社,大阪府,枚方市,養父丘１丁目２番２１号,,27,210,5731134,,,2021-11-26,清算の結了等,,,2015-10-05,1,,,,,リューマン,0
1421,6120001178768,登記記録の閉鎖等,0,2021-12-01,2021-11-26,株式会社アストラル,,株式会社,大阪府,大阪市西区,南堀江２丁目４番１５号４階,,27,106,5500015,,,2021-11-26,清算の結了等,,,2015-10-05,1,,,,,アストラル,0
1432,6120901036034,登記記録の閉鎖等,0,2021-12-01,2021-11-29,株式会社もったいない社,,株式会社,大阪府,豊中市,新千里南町２丁目５番３号,,27,203,5600084,,,2021-11-29,清算の結了等,,,2015-10-21,1,,,,,モッタイナイシャ,0
1442,6140002043597,登記記録の閉鎖等,0,2021-12-01,2021-11-25,有限会社ロード,,有限会社,兵庫県,尼崎市,名神町３丁目２番２号,,28,202,6610021,,,2021-11-25,清算の結了等,,,2015-10-05,1,,,,,ロード,0
1452,6180302016935,登記記録の閉鎖等,0,2021-12-01,2021-11-30,有限会社テーラーツヅキ,,有限会社,愛知県,安城市,桜井町大役田１４番地３,,23,212,4441154,,,2021-11-30,清算の結了等,,,2015-10-05,1,,,,,テーラーツヅキ,0
1455,6190001021830,登記記録の閉鎖等,0,2021-12-01,2021-11-29,株式会社粂内通信,,株式会社,三重県,四日市市,清水町４番３号,,24,202,5100814,,,2021-11-29,清算の結了等,,,2015-10-05,1,,,,,クメウチツウシン,0
1480,6290803003009,登記記録の閉鎖等,0,2021-12-01,2021-11-24,ブロックチェーンクリエイト合同会社,,合同会社,福岡県,福岡市博多区,博多駅前２丁目１９番１７号トーカン博多第５ビル３１２号室,,40,132,8120011,,,2021-11-24,清算の結了等,,,2017-10-19,1,,,,,ブロックチェーンクリエイト,0
1485,6330001004399,登記記録の閉鎖等,0,2021-12-01,2021-11-29,マルエ株式会社,,株式会社,熊本県,熊本市中央区,紺屋町２丁目２９番地,,43,101,8600025,,,2021-11-29,清算の結了等,,,2015-10-05,1,,,,,,0
1511,6430002065645,登記記録の閉鎖等,0,2021-12-01,2021-11-29,有限会社マルタ高橋商店,00089868,有限会社,北海道,登別市,千歳町４丁目５番地１０１,,01,230,0590003,,,2021-11-29,清算の結了等,,,2015-10-05,1,,,,,マルタタカハシショウテン,0
1514,6460101001580,登記記録の閉鎖等,0,2021-12-01,2021-11-26,株式会社北武建設,,株式会社,北海道,帯広市,東九条南８丁目１番地１３,,01,207,0800809,,,2021-11-26,清算の結了等,,,2015-10-05,1,,,,,ホクブケンセツ,0
1532,7010003026092,登記記録の閉鎖等,0,2021-12-01,2021-11-22,Ａ３ＪＰ堂島浜合同会社,,合同会社,東京都,港区,赤坂２丁目１５番１６号赤坂ふく源ビル４階,,13,103,1070052,,,2021-11-22,清算の結了等,,,2017-09-15,1,,,,,エースリージェイピードウジマハマ,0
1534,7010005032915,登記記録の閉鎖等,0,2021-12-01,2021-11-30,一般社団法人ＰＳＧ,,その他の設立登記法人,東京都,千代田区,丸の内３丁目１番１号東京共同会計事務所内,,13,101,1000005,,,2021-11-30,清算の結了等,,,2021-02-10,1,,,,,ピーエスジー,0
1560,7011001034129,登記記録の閉鎖等,0,2021-12-01,2021-11-18,エーライフフットウェアー株式会社,,株式会社,東京都,渋谷区,神宮前３丁目１５番１０号,,13,113,1500001,,,2021-11-18,清算の結了等,,,2015-10-05,1,,,,,エーライフフットウェアー,0
1586,7011801010840,登記記録の閉鎖等,0,2021-12-01,2021-11-30,株式会社エックス電子設計,,株式会社,東京都,足立区,大谷田１丁目３６番１－１１０号,,13,121,1200001,,,2021-11-30,清算の結了等,,,2015-10-05,1,,,,,エックスデンシセッケイ,0
1588,7011801018594,登記記録の閉鎖等,0,2021-12-01,2021-11-29,株式会社ケーアールケー,,株式会社,東京都,葛飾区,白鳥１丁目１番８号,,13,122,1250063,,,2021-11-29,清算の結了等,,,2015-10-05,1,,,,,ケーアールケー,0
1592,7012402015114,登記記録の閉鎖等,0,2021-12-01,2021-11-29,有限会社ソウエイ,,有限会社,東京都,国立市,谷保６丁目１２番地の２３,,13,215,1860011,,,2021-11-29,清算の結了等,,,2015-10-05,1,,,,,ソウエイ,0
1601,7020003017033,登記記録の閉鎖等,0,2021-12-01,2021-11-26,合同会社アール・ピー・エス,,合同会社,神奈川県,横浜市鶴見区,菅沢町５番３号,,14,101,2300027,,,2021-11-26,清算の結了等,,,2019-12-10,1,,,,,アールピーエス,0
1608,7021002056658,登記記録の閉鎖等,0,2021-12-01,2021-11-15,有限会社アムーク,,有限会社,神奈川県,平塚市,根坂間３５８番地,,14,203,2540904,,,2021-11-15,清算の結了等,,,2015-10-05,1,,,,,アムーク,0
1619,7030001043162,登記記録の閉鎖等,0,2021-12-01,2021-11-30,株式会社ナイクウイン,,株式会社,埼玉県,桶川市,若宮１丁目８番７－３０４号,,11,231,3630022,,,2021-11-30,清算の結了等,,,2015-10-05,1,,,,,ナイクウイン,0
1620,7030001051090,登記記録の閉鎖等,0,2021-12-01,2021-11-25,新和建設株式会社,,株式会社,埼玉県,春日部市,大沼６丁目２７番地１,,11,214,3440038,,,2021-11-25,清算の結了等,,,2015-10-05,1,,,,,シンワケンセツ,0
1636,7040002078454,登記記録の閉鎖等,0,2021-12-01,2021-11-25,有限会社トレンド,,有限会社,千葉県,大網白里市,南横川３８４８番地２,,12,239,2993223,,,2021-11-25,清算の結了等,,,2015-10-05,1,,,,,トレンド,0
1664,7120001027577,登記記録の閉鎖等,0,2021-12-01,2021-11-25,株式会社泉尾商事,,株式会社,大阪府,大阪市大正区,泉尾１丁目１７番２８号,,27,108,5510031,,,2021-11-25,清算の結了等,,,2015-10-05,1,,,,,,0
1692,7140001040090,登記記録の閉鎖等,0,2021-12-01,2021-11-29,株式会社西武観光,,株式会社,兵庫県,赤穂市,細野町５２番地,,28,212,6780231,,,2021-11-29,清算の結了等,,,2015-10-05,1,,,,,,0
1699,7140003009134,登記記録の閉鎖等,0,2021-12-01,2021-11-22,Ｍ　ＳＱＵＡＲＥ合同会社,,合同会社,兵庫県,神戸市東灘区,住吉東町２丁目１番２－４０３号,,28,101,6580052,,,2021-11-22,清算の結了等,,,2015-10-05,1,,,,,エムスクエア,0
1747,7260002006590,登記記録の閉鎖等,0,2021-12-01,2021-11-30,有限会社ティー・エー・エヌ・シー,,有限会社,岡山県,岡山市北区,平田１６３番地の１０２,,33,101,7000952,,,2021-11-30,清算の結了等,,,2015-10-05,1,,,,,ティーエーエヌシー,0
1752,7290001029929,登記記録の閉鎖等,0,2021-12-01,2021-11-25,株式会社シーダスモール,,株式会社,福岡県,福岡市博多区,千代３丁目６番７号,,40,132,8120044,,,2021-11-25,清算の結了等,,,2015-10-05,1,,,,,,0
1763,7310001001736,登記記録の閉鎖等,0,2021-12-01,2021-11-29,株式会社阪九オプト,,株式会社,長崎県,長崎市,岩川町６番７号,,42,201,8528106,,,2021-11-29,清算の結了等,,,2015-10-05,1,,,,,ハンキュウオプト,0
1778,7340001002277,登記記録の閉鎖等,0,2021-12-01,2021-11-29,スズキ石販株式会社,,株式会社,鹿児島県,鹿児島市,荒田１丁目１番８号シティライフ荒田１Ｆ,,46,201,8900054,,,2021-11-29,清算の結了等,,,2015-10-05,1,,,,,スズキセキハン,0
1800,7480001010621,登記記録の閉鎖等,0,2021-12-01,2021-11-30,株式会社Ｗ,,株式会社,徳島県,徳島市,中央通４丁目５,,36,201,7700936,,,2021-11-30,清算の結了等,,,2019-02-22,1,,,,,,0
1807,8010005003519,登記記録の閉鎖等,0,2021-12-01,2021-11-26,一般社団法人日本レジャーダイビング協会,,その他の設立登記法人,東京都,千代田区,麹町１丁目７相互半蔵門ビル２Ｆ,,13,101,1020083,,,2021-11-26,清算の結了等,,,2015-10-05,1,,,,,ニホンレジャーダイビングキョウカイ,0
1814,8010401068025,登記記録の閉鎖等,0,2021-12-01,2021-11-15,株式会社Ｃｉｅｌｏ,,株式会社,東京都,港区,赤坂８丁目１２番２８号,,13,103,1070052,,,2021-11-15,清算の結了等,,,2015-10-05,1,,,,,シエロ,0
1868,8020001026943,登記記録の閉鎖等,0,2021-12-01,2021-11-26,株式会社順海閣,,株式会社,神奈川県,横浜市中区,山下町１４７番地,,14,104,2310023,,,2021-11-26,清算の結了等,,,2015-10-05,1,,,,,ジュンカイカク,0
1871,8020005001884,登記記録の閉鎖等,0,2021-12-01,2021-11-26,医療法人社団三ツ矢会,,その他の設立登記法人,神奈川県,横浜市戸塚区,汲沢８丁目１１番２７号,00011993,14,110,2450061,,,2021-11-26,清算の結了等,,,2015-10-05,1,,,,,ミツヤカイ,0
1878,8021005003169,登記記録の閉鎖等,0,2021-12-01,2021-11-26,鎌沢生産森林組合,,その他の設立登記法人,神奈川県,相模原市緑区,佐野川１２４６番地,,14,151,2520181,,,2021-11-26,清算の結了等,,,2015-10-05,1,,,,,カマサワ,0
1879,8030001066889,登記記録の閉鎖等,0,2021-12-01,2021-11-29,株式会社ベッド市場,,株式会社,埼玉県,越谷市,大字南荻島６０番地４藤和シティコープ北越谷１０７号,,11,222,3430804,,,2021-11-29,清算の結了等,,,2015-10-05,1,,,,,ベッドシジョウ,0
1883,8030002067457,登記記録の閉鎖等,0,2021-12-01,2021-11-26,有限会社巴工業,,有限会社,埼玉県,新座市,栄４丁目８番３８号,,11,230,3520014,,,2021-11-26,清算の結了等,,,2015-10-05,1,,,,,トモエコウギョウ,0
1895,8050001026123,登記記録の閉鎖等,0,2021-12-01,2021-11-24,株式会社茨城ファミリーデパート,00022293,株式会社,茨城県,龍ケ崎市,馴馬町字上米７５４番地,,08,208,3010004,,,2021-11-24,清算の結了等,,,2015-10-05,1,,,,,イバラキファミリーデパート,0
1896,8050003003509,登記記録の閉鎖等,0,2021-12-01,2021-11-26,合同会社中田企画,,合同会社,茨城県,古河市,大堤１００９番地２,,08,204,3060236,,,2021-11-26,清算の結了等,,,2016-12-13,1,,,,,,0
1901,8080001020619,登記記録の閉鎖等,0,2021-12-01,2021-11-30,健美堂株式会社,,株式会社,静岡県,静岡市駿河区,見瀬７７番地,,22,102,4228057,,,2021-11-30,清算の結了等,,,2015-11-27,1,,,,,ケンビドウ,0
1905,8080101010825,登記記録の閉鎖等,0,2021-12-01,2021-11-30,株式会社アレックス,,株式会社,静岡県,富士市,日乃出町５６番地の３,,22,210,4170056,,,2021-11-30,清算の結了等,,,2015-10-05,1,,,,,アレックス,0
1910,8080105005631,登記記録の閉鎖等,0,2021-12-01,2021-11-29,一般社団法人地消地産推進協議会,,その他の設立登記法人,静岡県,富士宮市,宮町９番１９号,,22,207,4180067,,,2021-11-29,清算の結了等,,,2016-04-19,1,,,,,チショウチサンスイシンキョウギカイ,0
1915,8110001022495,登記記録の閉鎖等,0,2021-12-01,2021-11-17,株式会社エコ・リサイクル・ロジスコ,,株式会社,新潟県,長岡市,鳥越２２５５番地４,,15,202,9402316,,,2021-11-17,清算の結了等,,,2015-10-05,1,,,,,エコリサイクルロジスコ,0
1919,8120001015127,登記記録の閉鎖等,0,2021-12-01,2021-11-18,株式会社城東化学,,株式会社,大阪府,大阪市東成区,中本４丁目１番１１－２０６号,,27,115,5370022,,,2021-11-18,清算の結了等,,,2015-10-05,1,,,,,ジョウトウカガク,0
1945,8130002017798,登記記録の閉鎖等,0,2021-12-01,2021-11-29,和広有限会社,,有限会社,京都府,京都市中京区,両替町通押小路上る金吹町４６５番地,,26,104,6040846,,,2021-11-29,清算の結了等,,,2015-10-05,1,,,,,ワコウ,0
1947,8140003014323,登記記録の閉鎖等,0,2021-12-01,2021-11-25,ＳＡＫＵＲＡ合同会社,,合同会社,兵庫県,姫路市,南町７６番地姫路城陽ビル４階,,28,201,6700912,,,2021-11-25,清算の結了等,,,2019-10-01,1,,,,,サクラ,0
1967,8180302012313,登記記録の閉鎖等,0,2021-12-01,2021-11-29,有限会社インターテック,,有限会社,愛知県,豊橋市,西橋良町４１番地の１,,23,201,4418039,,,2021-11-29,清算の結了等,,,2015-10-05,1,,,,,インターテック,0
1978,8260001015146,登記記録の閉鎖等,0,2021-12-01,2021-11-30,株式会社ラインワールド,,株式会社,岡山県,倉敷市,児島赤崎２丁目７番５７号,,33,202,7110931,,,2021-11-30,清算の結了等,,,2015-10-05,1,,,,,ラインワールド,0
2008,8430001067822,登記記録の閉鎖等,0,2021-12-01,2021-11-26,リエス北海道株式会社,,株式会社,北海道,札幌市中央区,北二条西１０丁目２番地７,,01,101,0600002,,,2021-11-26,清算の結了等,,,2015-10-05,1,,,,,リエスホッカイドウ,0
2022,9010001146808,登記記録の閉鎖等,0,2021-12-01,2021-11-25,クヴォン・デ・ミニムジャポン株式会社,,株式会社,東京都,港区,北青山１丁目３番３号,,13,103,1070061,,,2021-11-25,清算の結了等,,,2015-10-05,1,,,,,クヴォンデミニムジャポン,0
2024,9010001193882,登記記録の閉鎖等,0,2021-12-01,2021-11-22,Ｓｔｏｒｅｌｌｅｔ　Ｊａｐａｎ株式会社,,株式会社,東京都,渋谷区,富ヶ谷１丁目３５番２０号富ヶ谷スプリングス４０５,,13,113,1510063,,,2021-11-22,清算の結了等,,,2018-08-10,1,,,,,ストアレットジャパン,0
2047,9010501010579,登記記録の閉鎖等,0,2021-12-01,2021-11-29,日本モードシューズ株式会社,,株式会社,東京都,台東区,浅草７丁目２番７号,,13,106,1110032,,,2021-11-29,清算の結了等,,,2015-10-05,1,,,,,ニホンモードシューズ,0
2061,9011001001473,登記記録の閉鎖等,0,2021-12-01,2021-11-08,株式会社アビリテイーシステムセンター,,株式会社,東京都,港区,芝浦４丁目１０番１－２７０１号,,13,103,1080023,,,2021-11-08,清算の結了等,,,2015-10-05,1,,,,,アビリティーシステムセンター,0
2078,9011301011420,登記記録の閉鎖等,0,2021-12-01,2021-11-25,株式会社ウィン２１,,株式会社,東京都,杉並区,成田西２丁目１２番２０号ハイツ浜田山５０９号,,13,115,1660016,,,2021-11-25,清算の結了等,,,2015-10-05,1,,,,,ウィンニジュウイチ,0
2105,9020002010318,登記記録の閉鎖等,0,2021-12-01,2021-11-11,有限会社ドリームトラベル,,有限会社,神奈川県,横浜市港南区,芹が谷２丁目２２番１－４０８号,,14,111,2330006,,,2021-11-11,清算の結了等,,,2015-10-05,1,,,,,ドリームトラベル,0
2106,9020002071707,登記記録の閉鎖等,0,2021-12-01,2021-11-26,セイフプレーン株式会社,,株式会社,神奈川県,横浜市中区,羽衣町３丁目６３羽衣ビル６Ｆ－Ａ号,,14,104,2310047,,,2021-11-26,清算の結了等,,,2015-10-05,1,,,,,セイフプレーン,0
2114,9030001033665,登記記録の閉鎖等,0,2021-12-01,2021-11-30,株式会社岡野製作所,,株式会社,埼玉県,幸手市,東１丁目３３番５号,,11,240,3400114,,,2021-11-30,清算の結了等,,,2015-10-05,1,,,,,オカノセイサクジョ,0
2117,9030001095747,登記記録の閉鎖等,0,2021-12-01,2021-11-29,株式会社カワマタ,,株式会社,埼玉県,富士見市,鶴馬２丁目１６番２０号,,11,235,3540021,,,2021-11-29,清算の結了等,,,2015-10-05,1,,,,,,0
2138,9040002034793,登記記録の閉鎖等,0,2021-12-01,2021-11-25,有限会社セイシン,,有限会社,千葉県,市川市,市川南３丁目２番９号,,12,203,2720033,,,2021-11-25,清算の結了等,,,2015-10-05,1,,,,,セイシン,0
2141,9050001003204,登記記録の閉鎖等,0,2021-12-01,2021-11-24,株式会社棟匠エンジニアリング,,株式会社,茨城県,東茨城郡城里町,大字上圷８５２番地,,08,310,3114323,,,2021-11-24,合併による解散等,1050001001776,令和３年１１月２１日茨城県水戸市河和田一丁目１８１４番地６株式会社棟匠（1050001001776）に合併し解散,2015-10-05,1,,,,,トウショウエンジニアリング,0
2155,9110001018220,登記記録の閉鎖等,0,2021-12-01,2021-11-25,株式会社浅野家,,株式会社,東京都,大田区,仲六郷３丁目７番８号グランドメゾン多摩川６０８号,,13,111,1440055,,,2021-11-25,清算の結了等,,,2015-10-05,1,,,,,アサノケ,0
2156,9110001021174,登記記録の閉鎖等,0,2021-12-01,2021-11-29,株式会社苗場高原ハーブ,,株式会社,新潟県,中魚沼郡津南町,大字中深見丁１１４番地,,15,482,9498311,,,2021-11-29,清算の結了等,,,2015-10-05,1,,,,,ナエバコウゲンハーブ,0
2183,9130005010865,登記記録の閉鎖等,0,2021-12-01,2021-11-26,三津漁業生産組合,,その他の設立登記法人,京都府,京丹後市,網野町三津小字下地無番地,,26,212,6293111,,,2021-11-26,清算の結了等,,,2015-10-05,1,,,,,ミツ,0
2198,9150001001354,登記記録の閉鎖等,0,2021-12-01,2021-11-30,大和寿運送株式会社,,株式会社,奈良県,奈良市,西木辻町１４３番地の５,00042607,29,201,6308325,,,2021-11-30,清算の結了等,,,2015-10-05,1,,,,,ヤマトコトブキウンソウ,0
2201,9160002005717,登記記録の閉鎖等,0,2021-12-01,2021-11-30,有限会社村田電設,,有限会社,滋賀県,湖南市,平松２７３番地,,25,211,5203232,,,2021-11-30,清算の結了等,,,2015-10-05,1,,,,,ムラタデンセツ,0
2222,9200001014111,登記記録の閉鎖等,0,2021-12-01,2021-11-30,株式会社ニューガーデン,,株式会社,岐阜県,大垣市,美和町１７１８番地の４,,21,202,5030857,,,2021-11-30,清算の結了等,,,2015-10-05,1,,,,,ニューガーデン,0
2230,9240002033354,登記記録の閉鎖等,0,2021-12-01,2021-11-22,有限会社凡合同,,有限会社,広島県,呉市,西中央１丁目３番９号,,34,202,7370811,,,2021-11-22,清算の結了等,,,2015-10-05,1,,,,,ボンゴウドウ,0
2251,9330001011698,登記記録の閉鎖等,0,2021-12-01,2021-11-25,有明物産株式会社,,株式会社,熊本県,玉名郡長洲町,大字上沖洲３０番地の２,,43,368,8690104,,,2021-11-25,清算の結了等,,,2015-10-05,1,,,,,アリアケブッサン,0
2264,9430001009419,登記記録の閉鎖等,0,2021-12-01,2021-11-29,大進和商事株式会社,,株式会社,北海道,札幌市東区,北十四条東１６丁目１番２０号,,01,103,0650014,,,2021-11-29,清算の結了等,,,2015-10-05,1,,,,,ダイシンワショウジ,0
2269,9460101000118,登記記録の閉鎖等,0,2021-12-01,2021-11-26,加藤家具店株式会社,,株式会社,北海道,帯広市,東九条南８丁目１番地１３,,01,207,0800809,,,2021-11-26,清算の結了等,,,2015-10-05,1,,,,,カトウカグテン,0
2270,9460403000229,登記記録の閉鎖等,0,2021-12-01,2021-11-29,合同会社エストファン,,合同会社,北海道,根室市,緑町１丁目１０番地,,01,223,0870051,,,2021-11-29,清算の結了等,,,2018-07-09,1,,,,,エストファン,0
2272,9480003000610,登記記録の閉鎖等,0,2021-12-01,2021-11-29,阿波絆合同会社,,合同会社,徳島県,阿波市,市場町香美字住吉本２２７番地１,,36,206,7711610,,,2021-11-29,清算の結了等,,,2015-10-05,1,,,,,アワキズナ,0
