sequenceNumber,corporateNumber,process,correct,updateDate,changeDate,name,nameImageId,kind,prefectureName,cityName,streetNumber,addressImageId,prefectureCode,cityCode,postCode,addressOutside,addressOutsideImageId,closeDate,closeCause,successorCorporateNumber,changeCause,assignmentDate,latest,enName,enPrefectureName,enCityName,enAddressOutside,furigana,hihyoji
5,1010001262785,新規,0,2026-02-17,2026-02-17,株式会社東京百錦,,株式会社,東京都,千代田区,神田三崎町２丁目１９番４号７Ｆ,,13,101,1010061,,,,,,,2026-02-17,1,,,,,トウキョウヒャクキン,0
6,1010001262876,新規,0,2026-02-17,2026-02-17,株式会社Ｆｕｊｉｉ　ａｎｄ　Ｃｏｍｐａｎｙ,,株式会社,東京都,中央区,新川１丁目３番２１－２２４号,,13,102,1040033,,,,,,,2026-02-17,1,,,,,フジイアンドカンパニー,0
7,1010001262901,新規,0,2026-02-17,2026-02-17,株式会社スキルエキスプレス,,株式会社,東京都,中央区,銀座１丁目１２－４Ｎ＆ＥＢＬＤ．７階,,13,102,1040061,,,,,,,2026-02-17,1,,,,,スキルエキスプレス,0
8,1010001262942,新規,0,2026-02-17,2026-02-17,ウィザース株式会社,,株式会社,東京都,文京区,本郷３丁目２１番１１号,,13,105,1130033,,,,,,,2026-02-17,1,,,,,ウィザース,0
9,1010001262950,新規,0,2026-02-17,2026-02-17,トラス・ギルド株式会社,,株式会社,東京都,千代田区,平河町１丁目９番１号メゾン平河町７０３号,,13,101,1020093,,,,,,,2026-02-17,1,,,,,トラスギルド,0
12,1010003050387,新規,0,2026-02-17,2026-02-17,合同会社Ｓｏｇａ,,合同会社,東京都,中央区,新川１丁目１７番１８号,,13,102,1040033,,,,,,,2026-02-17,1,,,,,ソガ,0
13,1010003050404,新規,0,2026-02-17,2026-02-17,合同会社エルエルライフ,,合同会社,東京都,中央区,銀座１丁目１２－４Ｎ＆Ｅ　ＢＬＤ．７階,,13,102,1040061,,,,,,,2026-02-17,1,,,,,エルエルライフ,0
14,1010003050420,新規,0,2026-02-17,2026-02-17,合同会社紫陽花信用サービス,,合同会社,東京都,千代田区,丸の内１丁目４番１号東京共同会計事務所内,,13,101,1000005,,,,,,,2026-02-17,1,,,,,アジサイシンヨウサービス,0
16,1010005041392,新規,0,2026-02-17,2026-02-17,一般社団法人ＴＲ１アセットファンディング,,その他の設立登記法人,東京都,中央区,日本橋１丁目４番１号日本橋一丁目ビルディング,,13,102,1030027,,,,,,,2026-02-17,1,,,,,ティーアールワンアセットファンディング,0
25,1010401196245,新規,0,2026-02-17,2026-02-17,ＴｅｒａＮｅｘｔ株式会社,,株式会社,東京都,港区,南青山３丁目１番３６号青山丸竹ビル６階,,13,103,1070062,,,,,,,2026-02-17,1,,,,,テーラネクスト,0
26,1010401196542,新規,0,2026-02-17,2026-02-17,ＭＡＲＣＯ株式会社,,株式会社,東京都,港区,西麻布１丁目２－３アクティブ六本木５０５,,13,103,1060031,,,,,,,2026-02-17,1,,,,,マルコ,0
27,1010401196591,新規,0,2026-02-17,2026-02-17,ＭＰ‐２６０３株式会社,,株式会社,東京都,港区,虎ノ門２丁目６番１号,,13,103,1050001,,,,,,,2026-02-17,1,,,,,エムピーニーロクゼロサン,0
29,1010403037323,新規,0,2026-02-17,2026-02-17,Ｂｒｉｇｈｔ　Ｌｉｆｅ　Ｌａｂ合同会社,,合同会社,東京都,港区,西麻布４丁目２２番１５－２０５号,,13,103,1060031,,,,,,,2026-02-17,1,,,,,ブライトライフラボ,0
35,1010603012076,新規,0,2026-02-17,2026-02-17,丸山合同会社,,合同会社,東京都,墨田区,太平４丁目４番６－４０２号,,13,107,1300012,,,,,,,2026-02-17,1,,,,,マルヤマ,0
36,1010701049037,新規,0,2026-02-17,2026-02-17,株式会社ＡＩｄｏｌ,,株式会社,東京都,品川区,西品川１丁目１番１号住友不動産大崎ガーデンタワー９Ｆ,,13,109,1410033,,,,,,,2026-02-17,1,,,,,アイドル,0
41,1010801037049,新規,0,2026-02-17,2026-02-17,株式会社ＶＡＮＴＡＧＥ,,株式会社,東京都,大田区,久が原４丁目４３番６号レオパレスドミール久が原１０４,,13,111,1460085,,,,,,,2026-02-17,1,,,,,ヴァンテージ,0
42,1010803005722,新規,0,2026-02-17,2026-02-17,合同会社優聖系統,,合同会社,東京都,大田区,南六郷３丁目１０番１６号,,13,111,1440045,,,,,,,2026-02-17,1,,,,,ユウセイケイトウ,0
48,1011001175408,新規,0,2026-02-17,2026-02-17,Ａｒｃｈｉ　ＡＩ株式会社,,株式会社,東京都,渋谷区,神宮前３丁目３５番１６号,,13,113,1500001,,,,,,,2026-02-17,1,,,,,アーキエーアイ,0
49,1011001175498,新規,0,2026-02-17,2026-02-17,株式会社ＫＡＭＥＮＯＫＯ,,株式会社,東京都,渋谷区,千駄ヶ谷５丁目２４番３号,,13,113,1510051,,,,,,,2026-02-17,1,,,,,カメノコ,0
50,1011001175597,新規,0,2026-02-17,2026-02-17,ニュージーカシスジャパン株式会社,,株式会社,東京都,渋谷区,神宮前４丁目１９番８ー２２１号,,13,113,1500001,,,,,,,2026-02-17,1,,,,,ニュージーカシスジャパン,0
51,1011003023390,新規,0,2026-02-17,2026-02-17,Ａｒｃｈｅ　Ｎｅｘｕｓ　Ｈｕｂ合同会社,,合同会社,東京都,渋谷区,道玄坂１丁目１０番８号渋谷道玄坂東急ビル２Ｆ－Ｃ,,13,113,1500043,,,,,,,2026-02-17,1,,,,,アーキネクサスハブ,0
56,1011101114785,新規,0,2026-02-17,2026-02-17,株式会社ＣＩＷ分割準備会社Ａ,,株式会社,東京都,新宿区,新宿２丁目１９番１号,,13,104,1600022,,,,,,,2026-02-17,1,,,,,シーアイダブリューブンカツジュンビガイシャエー,0
58,1011403005039,新規,0,2026-02-17,2026-02-17,合同会社Ｐｒｏｊｉｍｏ,,合同会社,東京都,板橋区,舟渡２丁目３１番１－４１５号,,13,119,1740041,,,,,,,2026-02-17,1,,,,,プロジモ,0
60,1011501033107,新規,0,2026-02-17,2026-02-17,株式会社ＫＡＩ　ＲＹＵ,,株式会社,東京都,荒川区,西日暮里５丁目１６番７号三福ビル１階,,13,118,1160013,,,,,,,2026-02-17,1,,,,,カイリュウ,0
65,1011701029177,新規,0,2026-02-17,2026-02-17,株式会社青津ホールディングス,,株式会社,東京都,江戸川区,一之江７丁目３１番４－１０１号,,13,123,1320024,,,,,,,2026-02-17,1,,,,,アオツホールディングス,0
66,1011705001933,新規,0,2026-02-17,2026-02-17,一般社団法人日本華僑華人工商総会,,その他の設立登記法人,東京都,江戸川区,東小岩５丁目３７番１２号,,13,123,1330052,,,,,,,2026-02-17,1,,,,,ニホンカキョウカジンコウショウソウカイ,0
69,1011801047442,新規,0,2026-02-17,2026-02-17,アセンド・グローバル株式会社,,株式会社,東京都,葛飾区,亀有３丁目１番１号,,13,122,1250061,,,,,,,2026-02-17,1,,,,,アセンドグローバル,0
71,1012301014718,新規,0,2026-02-17,2026-02-17,株式会社ＲＳＲ,,株式会社,東京都,町田市,原町田６丁目１４番４号興輪ビル４階,,13,209,1940013,,,,,,,2026-02-17,1,,,,,アールエスアール,0
76,1013101009932,新規,0,2026-02-17,2026-02-17,株式会社サイブラン,,株式会社,東京都,青梅市,東青梅１丁目４－６井村高木ビル４０１号室,,13,205,1980042,,,,,,,2026-02-17,1,,,,,サイブラン,0
87,1021001087379,新規,0,2026-02-17,2026-02-17,アイリスリンク株式会社,,株式会社,神奈川県,相模原市南区,栄町３番１７号今井方,,14,153,2520306,,,,,,,2026-02-17,1,,,,,アイリスリンク,0
88,1021001087536,新規,0,2026-02-17,2026-02-17,株式会社ＬＵＣＯＬ,,株式会社,神奈川県,平塚市,撫子原８番１１－１号,,14,203,2540825,,,,,,,2026-02-17,1,,,,,ルコル,0
89,1021003017152,新規,0,2026-02-17,2026-02-17,合同会社アートマン,,合同会社,神奈川県,藤沢市,鵠沼桜が岡１丁目７番２号,00142589,14,205,2510027,,,,,,,2026-02-17,1,,,,,アートマン,0
92,1030001170697,新規,0,2026-02-17,2026-02-17,株式会社Ｓｔａｇｅ,,株式会社,埼玉県,上尾市,小泉７丁目３１番地２１,,11,219,3620063,,,,,,,2026-02-17,1,,,,,ステージ,0
93,1030001171010,新規,0,2026-02-17,2026-02-17,恒嘉エステート株式会社,,株式会社,埼玉県,入間市,大字小谷田８５７番地２６,,11,225,3580026,,,,,,,2026-02-17,1,,,,,コウカエステート,0
94,1030001171076,新規,0,2026-02-17,2026-02-17,株式会社ＫＩＣＨＩ　ＬＡＢＯ,,株式会社,埼玉県,所沢市,上新井２丁目１１番８号,,11,208,3591142,,,,,,,2026-02-17,1,,,,,キチラボ,0
105,1040001142480,新規,0,2026-02-17,2026-02-17,株式会社パライソ,,株式会社,千葉県,大網白里市,みやこ野１丁目５番地３０,,12,239,2993236,,,,,,,2026-02-17,1,,,,,パライソ,0
106,1040001142497,新規,0,2026-02-17,2026-02-17,沃錦商事株式会社,,株式会社,千葉県,香取市,玉造１８８番地１,,12,236,2870041,,,,,,,2026-02-17,1,,,,,ヨクキンショウジ,0
108,1050001028885,新規,0,2026-02-17,2026-02-17,大好建設株式会社,,株式会社,茨城県,つくばみらい市,上長沼１２３９番地,,08,235,3002453,,,,,,,2026-02-17,1,,,,,,0
119,1060003005964,新規,0,2026-02-17,2026-02-17,合同会社ＭＲＳ,,合同会社,栃木県,小山市,大字神鳥谷１８７１番地４８１,,09,208,3230827,,,,,,,2026-02-17,1,,,,,エムアールエス,0
136,1090001019740,新規,0,2026-02-17,2026-02-17,株式会社開成建設,,株式会社,山梨県,南都留郡富士河口湖町,船津９８１番地,,19,430,4010301,,,,,,,2026-02-17,1,,,,,カイセイケンセツ,0
137,1100001039340,新規,0,2026-02-17,2026-02-17,株式会社野いちご,,株式会社,長野県,小諸市,大字御影新田２２３８番地１３,,20,208,3840808,,,,,,,2026-02-17,1,,,,,ノイチゴ,0
141,1110001039901,新規,0,2026-02-17,2026-02-17,株式会社結び,,株式会社,新潟県,胎内市,あかね町２３番１０号,,15,227,9592659,,,,,,,2026-02-17,1,,,,,ムスビ,0
149,1120001284208,新規,0,2026-02-17,2026-02-17,株式会社上田資材店,,株式会社,大阪府,大阪市浪速区,元町２丁目４番９号,,27,111,5560016,,,,,,,2026-02-17,1,,,,,ウエダシザイテン,0
153,1120003031921,新規,0,2026-02-17,2026-02-17,合同会社Ｔｒｉｐｌｅ　Ｂｏｇｅｙ,,合同会社,大阪府,枚方市,高田２丁目３０番４号,,27,210,5730073,,,,,,,2026-02-17,1,,,,,トリプルボギー,0
154,1120003031938,新規,0,2026-02-17,2026-02-17,合同会社玄,,合同会社,大阪府,大阪市北区,梅田１丁目１－３大阪駅前第３ビル２９階１－１－１号室,,27,127,5300001,,,,,,,2026-02-17,1,,,,,ゲン,0
157,1120903006080,新規,0,2026-02-17,2026-02-17,エムアイアセット合同会社,,合同会社,大阪府,池田市,井口堂２丁目２番２３号Ａ,,27,204,5630023,,,,,,,2026-02-17,1,,,,,エムアイアセット,0
162,1130003011162,新規,0,2026-02-17,2026-02-17,合同会社Ｈｅｄｏｏｒ,,合同会社,京都府,宇治市,神明宮東８５番地の１５,,26,204,6110025,,,,,,,2026-02-17,1,,,,,ハドール,0
170,1140001141737,新規,0,2026-02-17,2026-02-17,株式会社ＳＯＵＫＥＮＥＸＰＲＥＳＳ,,株式会社,兵庫県,神戸市中央区,磯辺通１丁目１番１８－７０７号,,28,110,6510084,,,,,,,2026-02-17,1,,,,,ソウケンエクスプレス,0
171,1140001141745,新規,0,2026-02-17,2026-02-17,Ｐｌａｓｔｒｕｃｌｕｂ株式会社,,株式会社,兵庫県,神戸市中央区,東川崎町１丁目８番４号神戸市産業振興センター５階,,28,110,6500044,,,,,,,2026-02-17,1,,,,,プラストラクラブ,0
179,1150001028735,新規,0,2026-02-17,2026-02-17,株式会社空間演出,,株式会社,奈良県,磯城郡三宅町,大字伴堂６８９交流まちづくりセンターＭｉｉＭｏ内コワーキングカフェ,,29,362,6360213,,,,,,,2026-02-17,1,,,,,クウカンエンシュツ,0
180,1160001009065,新規,0,2026-02-17,2026-02-17,西建工業株式会社,,株式会社,滋賀県,彦根市,小泉町３３１番地,,25,202,5220043,,,,,,,2026-02-17,1,,,,,ニシケンコウギョウ,0
182,1170001018981,新規,0,2026-02-17,2026-02-17,株式会社陽星園,,株式会社,和歌山県,紀の川市,桃山町市場４５７番地３,,30,208,6496124,,,,,,,2026-02-17,1,,,,,ヨウセイエン,0
194,1180003029729,新規,0,2026-02-17,2026-02-17,合同会社ユマニテ,,合同会社,愛知県,名古屋市天白区,平針１丁目１８０９番地の３,,23,116,4680011,,,,,,,2026-02-17,1,,,,,ユマニテ,0
199,1180303006898,新規,0,2026-02-17,2026-02-17,合同会社ＬＯＯＰＡ,,合同会社,愛知県,西尾市,羽塚町北側６６番地３キャラウェイ１０１号室,00142605,23,213,4440316,,,,,,,2026-02-17,1,,,,,,0
201,1190003005357,新規,0,2026-02-17,2026-02-17,合同会社ＢＺ,,合同会社,三重県,津市,中央６番３号,,24,201,5140032,,,,,,,2026-02-17,1,,,,,ビーゼッド,0
204,1230001021302,新規,0,2026-02-17,2026-02-17,株式会社ＭＯＯＮ,,株式会社,富山県,富山市,金代８５番地２金代ロイヤルハイツ１０６号,,16,201,9300926,,,,,,,2026-02-17,1,,,,,ムーン,0
208,1260003005515,新規,0,2026-02-17,2026-02-17,合同会社茂平レンタルサービス,,合同会社,岡山県,笠岡市,西茂平５－１３,,33,205,7140064,,,,,,,2026-02-17,1,,,,,モビラレンタルサービス,0
209,1270003001843,新規,0,2026-02-17,2026-02-17,合同会社Ｆｉｅｌｄ　Ｖｅｔｓ,,合同会社,鳥取県,鳥取市,吉成７３１番地１,,31,201,6800864,,,,,,,2026-02-17,1,,,,,フィールドヴェッツ,0
211,1290001113184,新規,0,2026-02-17,2026-02-17,Ｅｉｇｈｔ　Ｗｏｒｋｓ株式会社,,株式会社,福岡県,福岡市中央区,天神３丁目７－１７－９０５,,40,133,8100001,,,,,,,2026-02-17,1,,,,,エイトワークス,0
213,1290801032253,新規,0,2026-02-17,2026-02-17,みんなのバナナ株式会社,,株式会社,福岡県,北九州市小倉北区,高峰町１２番８号高峰第６晴和ビル３０１号,,40,106,8030826,,,,,,,2026-02-17,1,,,,,ミンナノバナナ,0
215,1300001014513,新規,0,2026-02-17,2026-02-17,株式会社クリーン発酵佐賀,,株式会社,佐賀県,杵島郡白石町,大字八平１１０３番地,,41,425,8490403,,,,,,,2026-02-17,1,,,,,クリーンハッコウサガ,0
216,1310001019965,新規,0,2026-02-17,2026-02-17,株式会社ＴＯｉＲＯ,,株式会社,長崎県,大村市,小路口本町１８番地５５,,42,205,8560020,,,,,,,2026-02-17,1,,,,,トイロ,0
220,1320003004898,新規,0,2026-02-17,2026-02-17,合同会社シャローム・コンサルティング,,合同会社,大分県,別府市,石垣東６丁目２番４号,,44,202,8740919,,,,,,,2026-02-17,1,,,,,シャロームコンサルティング,0
232,1380001035881,新規,0,2026-02-17,2026-02-17,株式会社ふくふじファーム,,株式会社,福島県,白河市,大久保１８番地,,07,205,9610051,,,,,,,2026-02-17,1,,,,,フクフジ,0
237,1400001017324,新規,0,2026-02-17,2026-02-17,株式会社Ｃ＆Ｈ,,株式会社,岩手県,盛岡市,津志田１４地割１３０,,03,201,0200835,,,,,,,2026-02-17,1,,,,,シーアンドエイチ,0
246,1430001096282,新規,0,2026-02-17,2026-02-17,株式会社Ｌｅａｐ,,株式会社,北海道,札幌市豊平区,美園八条２丁目２－７ＤＰレジデンス豊平公園３０１,,01,105,0620008,,,,,,,2026-02-17,1,,,,,リープ,0
258,1500001026785,新規,0,2026-02-17,2026-02-17,株式会社ハルトリン,,株式会社,愛媛県,松山市,大街道１丁目１番地７,,38,201,7900004,,,,,,,2026-02-17,1,,,,,ハルトリン,0
259,1700150134518,新規,0,2026-02-17,2026-02-17,ＭＡＪＥＳＴＩＣ　ＴＯＰ　ＬＩＭＩＴＥＤ,,外国会社等,,,,,,,,Ｖｉｓｔｒａ　Ｃｏｒｐｏｒａｔｅ　Ｓｅｒｖｉｃｅｓ　Ｃｅｎｔｒｅ　Ｗｉｃｋｈａｍｓ　Ｃａｙ　ＩＩ　Ｒｏａｄ　Ｔｏｗｎ　Ｔｏｒｔｏｌａ　ＶＧ１１１０，ＢＶＩ,00142603,,,,,2026-02-17,1,,,,,マジエステイツクトツプリミテツド,0
260,1700150134526,新規,0,2026-02-17,2026-02-17,ＣＨＥＮＧ　ＱＩ　ＴＥＣＨＮＯＬＯＧＹ　ＣＯ．，ＬＩＭＩＴＥＤ,,外国会社等,,,,,,,,ＯＦＦＩＣＥ３Ａ－９，１２／ＦＫＡＩＳＥＲＣＴＲＮＯ１８ＣＥＮＴＲＥＳＴＳＡＩＹＩＮＧＰＵＮＨＫ,,,,,,2026-02-17,1,,,,,チエンチーテクノロジーカンパニーリミテド,0
268,2010001262438,新規,0,2026-02-17,2026-02-17,株式会社ＣｏｒｅＳｈａｒｅｓ,,株式会社,東京都,千代田区,四番町２番地１,,13,101,1020081,,,,,,,2026-02-17,1,,,,,コアシェアーズ,0
269,2010001262941,新規,0,2026-02-17,2026-02-17,ＦＦ　Ｊａｐａｎ株式会社,,株式会社,東京都,中央区,銀座１丁目１２番４号,,13,102,1040061,,,,,,,2026-02-17,1,,,,,エフエフジャパン,0
270,2010005041400,新規,0,2026-02-17,2026-02-17,一般社団法人ヴィレッジイレブン,,その他の設立登記法人,東京都,中央区,日本橋１丁目４番１号,,13,102,1030027,,,,,,,2026-02-17,1,,,,,ヴィレッジイレブン,0
275,2010401196525,新規,0,2026-02-17,2026-02-17,株式会社上杉拓哉,,株式会社,東京都,港区,虎ノ門４丁目３－２０神谷町ＭＴビル１４階,,13,103,1050001,,,,,,,2026-02-17,1,,,,,ウエスギタクヤ,0
276,2010401196590,新規,0,2026-02-17,2026-02-17,株式会社Ｋｅｎｋｏｎｅ　ＭｅｄＴｅｃｈ,,株式会社,東京都,港区,海岸１丁目２番２０号汐留ビルディング３Ｆ,,13,103,1050022,,,,,,,2026-02-17,1,,,,,ケンコネメドテック,0
277,2010401196649,新規,0,2026-02-17,2026-02-17,株式会社ＬＥＡＮ＆Ｘ,,株式会社,東京都,港区,六本木３丁目１６‐１２六本木ＫＳビル５Ｆ,,13,103,1060032,,,,,,,2026-02-17,1,,,,,リーンアンドエックス,0
278,2010401196681,新規,0,2026-02-17,2026-02-17,株式会社Ｄｅｅｐ,,株式会社,東京都,港区,南青山３丁目１‐３６青山丸竹ビル６階,,13,103,1070062,,,,,,,2026-02-17,1,,,,,ディープ,0
282,2010403037074,新規,0,2026-02-17,2026-02-17,日本つかさ開発合同会社,,合同会社,東京都,港区,赤坂２丁目１７番４６号,,13,103,1070052,,,,,,,2026-02-17,1,,,,,ニホンツカサカイハツ,0
283,2010403037314,新規,0,2026-02-17,2026-02-17,合同会社ＢＦ‐Ｐｏｐｐｙ,,合同会社,東京都,港区,六本木６丁目１０番１号六本木ヒルズ森タワー１５Ｆ,,13,103,1060032,,,,,,,2026-02-17,1,,,,,ビーエフポピー,0
290,2010501055358,新規,0,2026-02-17,2026-02-17,Ｃｈｉｊａ　Ｗｏｒｌｄ株式会社,,株式会社,東京都,台東区,浅草橋５丁目２番３号２階,,13,106,1110053,,,,,,,2026-02-17,1,,,,,チャイジャワールド,0
291,2010505003684,新規,0,2026-02-17,2026-02-17,一般社団法人東京レホボテキリスト教会,,その他の設立登記法人,東京都,台東区,小島２丁目１２番７号,,13,106,1110056,,,,,,,2026-02-17,1,,,,,トウキョウレホボテキリストキョウカイ,0
295,2010601068739,新規,0,2026-02-17,2026-02-17,株式会社エニシア・パートナーズ,,株式会社,東京都,墨田区,錦糸３丁目２番１号,,13,107,1300013,,,,,,,2026-02-17,1,,,,,エニシアパートナーズ,0
296,2010601068755,新規,0,2026-02-17,2026-02-17,株式会社２５６技研,,株式会社,東京都,墨田区,業平１丁目７番９号ＰＬＡＴ２９５,,13,107,1300002,,,,,,,2026-02-17,1,,,,,ニゴロギケン,0
297,2010601068763,新規,0,2026-02-17,2026-02-17,株式会社桃太郎オフィス,,株式会社,東京都,江東区,東雲１丁目９番４－１５０９号,,13,108,1350062,,,,,,,2026-02-17,1,,,,,モモタロウオフィス,0
298,2010603012075,新規,0,2026-02-17,2026-02-17,田中合同会社,,合同会社,東京都,墨田区,太平４丁目４番６－４０２号,,13,107,1300012,,,,,,,2026-02-17,1,,,,,タナカ,0
299,2010703008130,新規,0,2026-02-17,2026-02-17,合同会社ＲＹＫ,,合同会社,東京都,品川区,大崎２丁目９番１号,,13,109,1410032,,,,,,,2026-02-17,1,,,,,,0
301,2010805003244,新規,0,2026-02-17,2026-02-17,一般社団法人Ｒｏｌｅ　Ｆｒｅｅ,,その他の設立登記法人,東京都,大田区,田園調布２丁目３９番５号,,13,111,1450071,,,,,,,2026-02-17,1,,,,,ロールフリー,0
309,2011003023555,新規,0,2026-02-17,2026-02-17,合同会社ｏｂｅｒｈａｕｌ,,合同会社,東京都,渋谷区,道玄坂１丁目１０番８号渋谷道玄坂東急ビル２Ｆ－Ｃ,,13,113,1500043,,,,,,,2026-02-17,1,,,,,オーバーホール,0
319,2011401027802,新規,0,2026-02-17,2026-02-17,株式会社ＧＬＯＷＶＩＡ,,株式会社,東京都,板橋区,西台２丁目１６番２８号,,13,119,1750045,,,,,,,2026-02-17,1,,,,,グローヴイア,0
322,2011601029383,新規,0,2026-02-17,2026-02-17,株式会社Ｌｅａｄ　Ｌｉｎｋｓ,,株式会社,東京都,練馬区,中村北２丁目２０番１３号シャルマン上原６０１,,13,120,1760023,,,,,,,2026-02-17,1,,,,,リードリンクス,0
323,2011701029168,新規,0,2026-02-17,2026-02-17,株式会社ＧｒｏｗｔｈＥｄｇｅ,,株式会社,東京都,江戸川区,上篠崎３丁目１６番１９－２０２号,,13,123,1330054,,,,,,,2026-02-17,1,,,,,グロースエッジ,0
346,2020003030321,新規,0,2026-02-17,2026-02-17,合同会社ＡＲＲＯＷ,,合同会社,神奈川県,横浜市青葉区,荏田西３丁目１３番地２０,,14,117,2250014,,,,,,,2026-02-17,1,,,,,アロー,0
347,2020003030354,新規,0,2026-02-17,2026-02-17,ヒノカベセキュリティ合同会社,,合同会社,神奈川県,横浜市鶴見区,鶴見中央５丁目７番２号プラーズ鶴見中央３－２１９,,14,101,2300051,,,,,,,2026-02-17,1,,,,,ヒノカベセキュリティ,0
348,2020003030379,新規,0,2026-02-17,2026-02-17,合同会社マイレ,,合同会社,神奈川県,横浜市金沢区,釜利谷南２丁目３番３９－２号,,14,108,2360045,,,,,,,2026-02-17,1,,,,,マイレ,0
349,2021001087485,新規,0,2026-02-17,2026-02-17,株式会社Ｙ　Ｐｌｕｓ,,株式会社,神奈川県,小田原市,飯泉１８４番地の１３,,14,206,2500863,,,,,,,2026-02-17,1,,,,,ワイプラス,0
350,2021003017151,新規,0,2026-02-17,2026-02-17,合同会社ミノリ,,合同会社,神奈川県,藤沢市,辻堂西海岸３丁目１－４１－２３２,,14,205,2510046,,,,,,,2026-02-17,1,,,,,ミノリ,0
351,2021003017176,新規,0,2026-02-17,2026-02-17,合同会社ＰＩＮＥ　ＷＡＶＥ,,合同会社,神奈川県,鎌倉市,今泉台７丁目４番２０号,,14,204,2470053,,,,,,,2026-02-17,1,,,,,パインウェーブ,0
358,2030001171018,新規,0,2026-02-17,2026-02-17,株式会社ＳＡＷＡＴＯ,,株式会社,埼玉県,加須市,豊野台１丁目３１７番地５,,11,210,3491148,,,,,,,2026-02-17,1,,,,,サワト,0
359,2030001171034,新規,0,2026-02-17,2026-02-17,Ｎｅｘｔサービス株式会社,,株式会社,埼玉県,深谷市,上野台２７５番地１,,11,218,3660801,,,,,,,2026-02-17,1,,,,,ネクストサービス,0
363,2030003028587,新規,0,2026-02-17,2026-02-17,合同会社ハクヒラ,,合同会社,埼玉県,戸田市,美女木１丁目３０番地８号５１３号室,,11,224,3350031,,,,,,,2026-02-17,1,,,,,ハクヒラ,0
366,2040003029452,新規,0,2026-02-17,2026-02-17,合同会社ヤマダイ,,合同会社,千葉県,市原市,五井２５４７番地,,12,219,2900056,,,,,,,2026-02-17,1,,,,,ヤマダイ,0
373,2060003005963,新規,0,2026-02-17,2026-02-17,合同会社ルナリア,,合同会社,栃木県,宇都宮市,戸祭台２９－３,,09,201,3200017,,,,,,,2026-02-17,1,,,,,ルナリア,0
374,2070001043824,新規,0,2026-02-17,2026-02-17,株式会社ＩＭＰメディカル,,株式会社,群馬県,高崎市,本郷町６０７番地５,,10,202,3703334,,,,,,,2026-02-17,1,,,,,,0
375,2070001043840,新規,0,2026-02-17,2026-02-17,株式会社ＳＨＩＮＯＢＩ,,株式会社,群馬県,高崎市,東町７０番地１２－５０１号,,10,202,3700045,,,,,,,2026-02-17,1,,,,,シノビ,0
380,2080101026075,新規,0,2026-02-17,2026-02-17,ＨＫみらい株式会社,,株式会社,静岡県,御殿場市,中清水６１９番地,,22,215,4120037,,,,,,,2026-02-17,1,,,,,エイチケイミライ,0
381,2080401028449,新規,0,2026-02-17,2026-02-17,株式会社はまこく,,株式会社,静岡県,浜松市中央区,板屋町１１１番地の２浜松アクトタワー１０階,,22,138,4300928,,,,,,,2026-02-17,1,,,,,ハマコク,0
384,2090003002990,新規,0,2026-02-17,2026-02-17,合同会社渡辺事務所,,合同会社,山梨県,大月市,御太刀１丁目１４番１２号,,19,206,4010012,,,,,,,2026-02-17,1,,,,,ワタナベジムショ,0
387,2100003008615,新規,0,2026-02-17,2026-02-17,合同会社松村,,合同会社,長野県,上伊那郡箕輪町,大字中箕輪１０４１番地１,,20,383,3994601,,,,,,,2026-02-17,1,,,,,マツムラ,0
403,2120001284215,新規,0,2026-02-17,2026-02-17,株式会社グリッドワーク,,株式会社,大阪府,大阪市北区,梅田１丁目２番２号大阪駅前第２ビル１２－１２,,27,127,5300001,,,,,,,2026-02-17,1,,,,,グリッドワーク,0
404,2120003031945,新規,0,2026-02-17,2026-02-17,合同会社恒安一成,,合同会社,大阪府,大阪市北区,西天満５丁目９番１０号,,27,127,5300047,,,,,,,2026-02-17,1,,,,,コウアンイッセイ,0
409,2120103006995,新規,0,2026-02-17,2026-02-17,合同会社Ａｒｋｏｎ,,合同会社,大阪府,南河内郡太子町,聖和台２丁目３番地の４,,27,381,5830996,,,,,,,2026-02-17,1,,,,,アーコン,0
410,2120105010120,新規,0,2026-02-17,2026-02-17,一般社団法人日本手洗い洗車協会,,その他の設立登記法人,大阪府,堺市堺区,北向陽町１丁１番３４号３階,,27,141,5900071,,,,,,,2026-02-17,1,,,,,ニホンテアライセンシャキョウカイ,0
412,2120901052209,新規,0,2026-02-17,2026-02-17,株式会社ＢＬＵＥ　ＢＥＡＲ　ＢＡＳＥ,,株式会社,大阪府,池田市,伏尾町７２番２０,,27,204,5630011,,,,,,,2026-02-17,1,,,,,ブルーベアベース,0
418,2130001081628,新規,0,2026-02-17,2026-02-17,Ｆｉｔｎｅｓｓ　ＴＯＡ株式会社,,株式会社,京都府,京都市中京区,夷川通富小路東入木屋町４８７,,26,104,6040961,,,,,,,2026-02-17,1,,,,,フィットネストーア,0
421,2140001141744,新規,0,2026-02-17,2026-02-17,Ｓｗｅｅｔ　Ｓｈｏｐ　Ｌｉｅｔｏ株式会社,,株式会社,兵庫県,宍粟市,山崎町今宿１１８番地１,,28,227,6712573,,,,,,,2026-02-17,1,,,,,スウィートショップリエート,0
422,2140001141760,新規,0,2026-02-17,2026-02-17,株式会社すまいるＨｕｇ,,株式会社,兵庫県,加古川市,野口町水足１－８,,28,210,6750019,,,,,,,2026-02-17,1,,,,,スマイルハグ,0
423,2140001141785,新規,0,2026-02-17,2026-02-17,株式会社ネオコン,,株式会社,兵庫県,姫路市,別所町北宿６４２番地１,,28,201,6710223,,,,,,,2026-02-17,1,,,,,ネオコン,0
424,2140003023131,新規,0,2026-02-17,2026-02-17,合同会社Ｔｅｋｔｏｎ　ｅｔｃ,,合同会社,兵庫県,西宮市,甲子園春風町５－３３春風マンション５０５,,28,204,6638161,,,,,,,2026-02-17,1,,,,,テクトンエトセトラ,0
425,2140005027799,新規,0,2026-02-17,2026-02-17,一般社団法人Ｊａｐａｎ　Ｉｎｔｅｇｒｉｔｙ　Ｓｕｐｐｏｒｔ　Ｔｅａｍ,,その他の設立登記法人,兵庫県,西宮市,鳴尾浜１丁目６番３０号,,28,204,6638142,,,,,,,2026-02-17,1,,,,,ジャパンインテグリティサポートチーム,0
426,2150001028734,新規,0,2026-02-17,2026-02-17,ＲＥＤ　ＳＴＡＲ株式会社,,株式会社,奈良県,奈良市,都祁南之庄町６９１番地の１,00142596,29,201,6320241,,,,,,,2026-02-17,1,,,,,レッドスター,0
431,2180001170731,新規,0,2026-02-17,2026-02-17,株式会社クラフタリー,,株式会社,愛知県,名古屋市中村区,名駅３丁目４－１０アルティメイト名駅１ｓｔ２階,,23,105,4500002,,,,,,,2026-02-17,1,,,,,クラフタリー,0
447,2190003005356,新規,0,2026-02-17,2026-02-17,合同会社ＨＳＫ,,合同会社,三重県,伊勢市,二見町光の街１５０６‐３,,24,203,5190611,,,,,,,2026-02-17,1,,,,,エイチエスケー,0
453,2240001066171,新規,0,2026-02-17,2026-02-17,Ａｒｃｈｉｔｅｃｔｕｒｅ　Ｍａｇａｚｉｎｅ株式会社,,株式会社,広島県,広島市東区,中山上２丁目２５番１７号,,34,102,7320027,,,,,,,2026-02-17,1,,,,,アーキテクチャーマガジン,0
455,2250001021539,新規,0,2026-02-17,2026-02-17,株式会社重松組,,株式会社,山口県,下関市,竹崎町２丁目１３番１７号Ｋビル１階,,35,201,7500025,,,,,,,2026-02-17,1,,,,,シゲマツグミ,0
460,2280001009589,新規,0,2026-02-17,2026-02-17,魁株式会社,,株式会社,島根県,出雲市,上塩冶町２６６４番地３マルエフガーデン２階,,32,203,6930022,,,,,,,2026-02-17,1,,,,,サキガケ,0
469,2290001113126,新規,0,2026-02-17,2026-02-17,株式会社Ｓキーパーズ九州,,株式会社,福岡県,福岡市博多区,比恵町１９番２８号,,40,132,8120014,,,,,,,2026-02-17,1,,,,,エスキーパーズキュウシュウ,0
470,2290002035625,新規,0,2026-02-17,2026-02-17,山栄機工有限会社,,有限会社,福岡県,宗像市,徳重２丁目６番２２号,,40,220,8114164,,,,,,,2026-02-17,1,,,,,,0
475,2290003018075,新規,0,2026-02-17,2026-02-17,合同会社ファットスワン,,合同会社,福岡県,久留米市,荒木町荒木１９４７番地１５,,40,203,8300063,,,,,,,2026-02-17,1,,,,,ファットスワン,0
480,2310003005186,新規,0,2026-02-17,2026-02-17,合同会社ＡＴＥＬＩＥＲ　ＭＡＲＥ　ＶＩＴＡ,,合同会社,長崎県,雲仙市,小浜町北野７７３番地１０,,42,213,8540515,,,,,,,2026-02-17,1,,,,,アトリエマレヴィータ,0
482,2330003011439,新規,0,2026-02-17,2026-02-17,合同会社イケダコンサルティング,,合同会社,熊本県,天草市,五和町御領４６３,,43,215,8632201,,,,,,,2026-02-17,1,,,,,イケダコンサルティング,0
484,2340001027972,新規,0,2026-02-17,2026-02-17,ＬＤアグリ株式会社,,株式会社,鹿児島県,南九州市,知覧町永里石坂之上４０００番地３,,46,223,8970303,,,,,,,2026-02-17,1,,,,,エルディーアグリ,0
490,2370001053470,新規,0,2026-02-17,2026-02-17,株式会社ＣＡＲＺＹ,,株式会社,宮城県,栗原市,築館字上高森５３番地１,00142594,04,213,9872246,,,,,,,2026-02-17,1,,,,,カージー,0
494,2390001018265,新規,0,2026-02-17,2026-02-17,里守り株式会社,,株式会社,山形県,最上郡鮭川村,大字川口１４番地,,06,366,9995203,,,,,,,2026-02-17,1,,,,,サトモリ,0
500,2420003000408,新規,0,2026-02-17,2026-02-17,浅香商事合資会社,,合資会社,青森県,八戸市,大字徒士町７番地２,,02,203,0310053,,,,,,,2026-02-17,1,,,,,アサカショウジ,0
508,2470003003075,新規,0,2026-02-17,2026-02-17,シャノワール合同会社,,合同会社,香川県,高松市,多肥上町１７１８番地１,,37,201,7618076,,,,,,,2026-02-17,1,,,,,シャノワール,0
514,2500005008853,新規,0,2026-02-17,2026-02-17,一般社団法人Ｎｕｒｔｕｒｅ　Ａｒｔｓ　ＴＯＯＮ,,その他の設立登記法人,愛媛県,東温市,見奈良１１２５番地,,38,215,7910211,,,,,,,2026-02-17,1,,,,,ナーチャーアーツトウオン,0
517,2700150134137,新規,0,2026-02-17,2026-01-27,草加市防犯協会,,その他,埼玉県,草加市,高砂１丁目１番１号,,11,221,3400015,,,,,,,2026-01-27,1,,,,,ソウカシボウハンキョウカイ,0
518,2700150134509,新規,0,2026-02-17,2026-02-17,デュオヒルズ藤が丘管理組合,,その他,愛知県,長久手市,下川原１４番地１５,,23,238,4801137,,,,,,,2026-02-17,1,,,,,デュオヒルズフジガオカカンリクミアイ,0
519,2700150134517,新規,0,2026-02-17,2026-02-17,Ｖｉｅｔｎａｍ　ｋａｎｄｅｎｋｏ　Ｃｏ．，Ｌｔｄ,,外国会社等,,,,,,,,１２ｔｈ　ｆｌｏｏｒ，ＩＣＯＮ４Ｔｏｗｅｒ，２４３Ａ　Ｄｅ　Ｌａ　Ｔｈａｎｈ　ｓｔｒｅｅｔ，Ｌａｎｇ　Ｗａｒｄ，Ｈａｎｏｉ　ｃｉｔｙ，Ｖｉｅｔｎａｍ,,,,,,2026-02-17,1,,,,,ベトナムカンデンコウ,0
520,2700150134525,新規,0,2026-02-17,2026-02-17,Ｈｏｎｇ　Ｋｏｎｇ　Ｑｉｆａｎ　Ｅ－ｃｏｍｍｅｒｃｅ　Ｃｏ．，Ｌｉｍｉｔｅｄ,,外国会社等,,,,,,,,０４（Ｂ１），７／Ｆ，Ｂｌｏｃｋ３ＮａｎＦｕｎｇＩｎｄｕｓｔｒｉａｌＣｉｔｙ，１８ＴｉｎＨａｕＲｏａｄ，ＴｕｅｎＭｕｎ，ＨｏｎｇＫｏｎｇ,,,,,,2026-02-17,1,,,,,ホンコンチーフアンイーコマースカンパニーリミテツド,0
527,3010001262750,新規,0,2026-02-17,2026-02-17,株式会社ＭＩＫ,,株式会社,東京都,中央区,銀座１丁目２２番１１号銀座大竹ビジデンス２Ｆ,,13,102,1040061,,,,,,,2026-02-17,1,,,,,エムアイケー,0
528,3010001262866,新規,0,2026-02-17,2026-02-17,ｔａｃｔｉｃｔｅｃ株式会社,,株式会社,東京都,中央区,銀座１丁目２２番１１号銀座大竹ビジデンス２階,,13,102,1040061,,,,,,,2026-02-17,1,,,,,タクティックテック,0
529,3010001262908,新規,0,2026-02-17,2026-02-17,株式会社Ｓｉｍｐｌｅａｓｙ　Ｍａｒｋｅｔｉｎｇ,,株式会社,東京都,中央区,日本橋箱崎町３－１２、５セントラル４階,,13,102,1030015,,,,,,,2026-02-17,1,,,,,シンプリージーマーケティング,0
530,3010001262949,新規,0,2026-02-17,2026-02-17,株式会社ＥＶ,,株式会社,東京都,中央区,銀座１丁目１２－４Ｎ＆ＥＢＬＤ．７階,,13,102,1040061,,,,,,,2026-02-17,1,,,,,イーブイ,0
533,3010003050410,新規,0,2026-02-17,2026-02-17,合同会社Ｂｏｏｓｃａ,,合同会社,東京都,中央区,日本橋室町１丁目１１番１２号日本橋水野ビル７階,,13,102,1030022,,,,,,,2026-02-17,1,,,,,ブースカ,0
534,3010003050419,新規,0,2026-02-17,2026-02-17,ＢＴＭ合同会社,,合同会社,東京都,中央区,日本橋１丁目４番１号,,13,102,1030027,,,,,,,2026-02-17,1,,,,,ビーティーエム,0
535,3010005041390,新規,0,2026-02-17,2026-02-17,グローブ一般社団法人,,その他の設立登記法人,東京都,中央区,銀座１丁目６番１１号アースタックス税理士法人内,,13,102,1040061,,,,,,,2026-02-17,1,,,,,グローブ,0
536,3010005041408,新規,0,2026-02-17,2026-02-17,Ｓｐｒｉｎｔ　ＴＲ　Ａｒｍ一般社団法人,,その他の設立登記法人,東京都,千代田区,霞が関３丁目２番５号,,13,101,1000013,,,,,,,2026-02-17,1,,,,,スプリントティーアールアーム,0
542,3010401196400,新規,0,2026-02-17,2026-02-17,株式会社タイラス,,株式会社,東京都,港区,高輪１丁目１９番１５号,,13,103,1080074,,,,,,,2026-02-17,1,,,,,タイラス,0
543,3010401196598,新規,0,2026-02-17,2026-02-17,レイ・エナジーソリューションズ株式会社,,株式会社,東京都,港区,浜松町１丁目１２番１４号１階,,13,103,1050013,,,,,,,2026-02-17,1,,,,,レイエナジーソリューションズ,0
546,3010403037313,新規,0,2026-02-17,2026-02-17,合同会社ＢＦ‐Ｉｒｉｓ,,合同会社,東京都,港区,六本木６丁目１０番１号六本木ヒルズ森タワー１５Ｆ,,13,103,1060032,,,,,,,2026-02-17,1,,,,,ビーエフアイリス,0
547,3010403037321,新規,0,2026-02-17,2026-02-17,Ｂｉｚ　Ｌｉｎｋ　Ａｇｅｎｃｙ合同会社,,合同会社,東京都,港区,六本木３丁目１６番１２号六本木ＫＳビル５Ｆ,,13,103,1060032,,,,,,,2026-02-17,1,,,,,ビズリンクエージェンシー,0
552,3010501055456,新規,0,2026-02-17,2026-02-17,株式会社９ＶＣ,,株式会社,東京都,台東区,上野１丁目１７番６号広小路ビル８Ｆ－Ｂ,,13,106,1100005,,,,,,,2026-02-17,1,,,,,ナインブイシー,0
553,3010505003683,新規,0,2026-02-17,2026-02-17,一般社団法人ユースフットボール協会,,その他の設立登記法人,東京都,台東区,三筋１丁目２番１６－７０３号,,13,106,1110055,,,,,,,2026-02-17,1,,,,,ユースフットボールキョウカイ,0
556,3010603012074,新規,0,2026-02-17,2026-02-17,合同会社紙飛行機,,合同会社,東京都,江東区,塩浜２丁目１８番４号,,13,108,1350043,,,,,,,2026-02-17,1,,,,,カミヒコウキ,0
557,3010603012082,新規,0,2026-02-17,2026-02-17,マデイラジャパン合同会社,,合同会社,東京都,江東区,白河４丁目３番１－２９０２号,,13,108,1350021,,,,,,,2026-02-17,1,,,,,マデイラジャパン,0
559,3010801037039,新規,0,2026-02-17,2026-02-17,舩末ホールディングス株式会社,,株式会社,東京都,大田区,東海３丁目２番６号,,13,111,1430001,,,,,,,2026-02-17,1,,,,,フナスエホールディングス,0
560,3010801037055,新規,0,2026-02-17,2026-02-17,Ｋ＆Ｓ　ＦＡＳ株式会社,,株式会社,東京都,大田区,蒲田５丁目１９番７号,,13,111,1440052,,,,,,,2026-02-17,1,,,,,ケーアンドエスファス,0
561,3010805003243,新規,0,2026-02-17,2026-02-17,一般社団法人ＢｒｉｄｇｅＳｃｉｅｎｃｅ,,その他の設立登記法人,東京都,大田区,西蒲田８丁目２４番１号ミマツビル,,13,111,1440051,,,,,,,2026-02-17,1,,,,,ブリッジサイエンス,0
570,3011001175439,新規,0,2026-02-17,2026-02-17,株式会社Ａｔｈｅｎａ,,株式会社,東京都,渋谷区,宇田川町１番１２号,,13,113,1500042,,,,,,,2026-02-17,1,,,,,アテナ,0
571,3011001175513,新規,0,2026-02-17,2026-02-17,株式会社ａｉｂｉｅｎｔ,,株式会社,東京都,渋谷区,恵比寿西２丁目８番４号ＥＸ恵比寿西ビル５階,,13,113,1500021,,,,,,,2026-02-17,1,,,,,アイビエント,0
573,3011003023579,新規,0,2026-02-17,2026-02-17,合同会社アールツー,,合同会社,東京都,渋谷区,道玄坂１丁目１０―８渋谷道玄坂東京ビル２Ｆ―Ｃ,,13,113,1500043,,,,,,,2026-02-17,1,,,,,アールツー,0
582,3011101114973,新規,0,2026-02-17,2026-02-17,株式会社ＧｈｏｓｔＤｒｉｆｔ数理研究所,,株式会社,東京都,新宿区,北新宿４丁目４番４号１１０号室,,13,104,1690074,,,,,,,2026-02-17,1,,,,,ゴーストドリフトスウリケンキュウジョ,0
583,3011101115022,新規,0,2026-02-17,2026-02-17,株式会社ＤＡＫＥ３,,株式会社,東京都,新宿区,歌舞伎町２丁目１０番８号ゆきざきビル７階,,13,104,1600021,,,,,,,2026-02-17,1,,,,,ダケサン,0
592,3011703004523,新規,0,2026-02-17,2026-02-17,ＡＩＦ合同会社,,合同会社,東京都,江戸川区,東小岩６丁目１８番８号,,13,123,1330052,,,,,,,2026-02-17,1,,,,,エーアイエフ,0
595,3011803007327,新規,0,2026-02-17,2026-02-17,合同会社ＬＤＰ,,合同会社,東京都,足立区,舎人５丁目７番１２号,,13,121,1210831,,,,,,,2026-02-17,1,,,,,エルディーピー,0
596,3011803007335,新規,0,2026-02-17,2026-02-17,ＥｄｇｅＳｃｒｕｍ合同会社,,合同会社,東京都,葛飾区,細田４丁目１２－１０,,13,122,1240021,,,,,,,2026-02-17,1,,,,,エッジスクラム,0
597,3012301014724,新規,0,2026-02-17,2026-02-17,株式会社ＡＶＡＮＴＥ　ＪＡＰＡＮ,,株式会社,東京都,町田市,原町田６丁目９番－８号ＡＥＴＡ町田４Ｆ,,13,209,1940013,,,,,,,2026-02-17,1,,,,,アヴァンテジャパン,0
603,3012401044150,新規,0,2026-02-17,2026-02-17,株式会社テンミュー,,株式会社,東京都,調布市,仙川町１丁目１―２,,13,208,1820002,,,,,,,2026-02-17,1,,,,,テンミュー,0
620,3020001167049,新規,0,2026-02-17,2026-02-17,株式会社ＲｉｎｇＵＰ,,株式会社,神奈川県,川崎市中原区,今井上町１０番１－３２１号ガーデンティアラ武蔵小杉,,14,133,2110067,,,,,,,2026-02-17,1,,,,,リングアップ,0
621,3020001167107,新規,0,2026-02-17,2026-02-17,株式会社コサテム,,株式会社,神奈川県,横浜市西区,浅間町１丁目４番地３ウィザードビル４０２,,14,103,2200072,,,,,,,2026-02-17,1,,,,,コサテム,0
622,3020001167123,新規,0,2026-02-17,2026-02-17,株式会社銀将,,株式会社,神奈川県,川崎市多摩区,菅北浦４丁目５番１５号,,14,135,2140008,,,,,,,2026-02-17,1,,,,,ギンショウ,0
623,3020003030320,新規,0,2026-02-17,2026-02-17,合同会社プロント,,合同会社,神奈川県,横浜市西区,北幸２丁目１０－４８むつみビル３Ｆ,,14,103,2200004,,,,,,,2026-02-17,1,,,,,プロント,0
624,3020003030361,新規,0,2026-02-17,2026-02-17,合同会社ユウジヒロユキ,,合同会社,神奈川県,横浜市保土ケ谷区,狩場町２６番地１コープ保土ケ谷Ａ棟３１０号,,14,106,2400025,,,,,,,2026-02-17,1,,,,,ユウジヒロユキ,0
625,3021001087559,新規,0,2026-02-17,2026-02-17,株式会社結大,,株式会社,神奈川県,秦野市,北矢名９６番地の９,,14,211,2570006,,,,,,,2026-02-17,1,,,,,ユウダイ,0
626,3021005013552,新規,0,2026-02-17,2026-02-17,一般社団法人蒼いキジバト,,その他の設立登記法人,神奈川県,平塚市,長持３０３番地の３,,14,203,2591217,,,,,,,2026-02-17,1,,,,,アオイキジバト,0
630,3030001171058,新規,0,2026-02-17,2026-02-17,株式会社ヤマキホールディングス,,株式会社,埼玉県,熊谷市,三ヶ尻字新山３８８４番地,,11,202,3600843,,,,,,,2026-02-17,1,,,,,ヤマキホールディングス,0
631,3030001171066,新規,0,2026-02-17,2026-02-17,株式会社アール,,株式会社,埼玉県,戸田市,上戸田２丁目８－５ラ・ティーダ戸田公園１０４,,11,224,3350022,,,,,,,2026-02-17,1,,,,,アール,0
636,3030003028537,新規,0,2026-02-17,2026-02-17,合同会社ヒロ開発,,合同会社,埼玉県,さいたま市中央区,大戸５丁目１６―２,,11,105,3380012,,,,,,,2026-02-17,1,,,,,ヒロカイハツ,0
637,3030003028652,新規,0,2026-02-17,2026-02-17,合同会社ＮＡＧＡＳＡＫＡ＆Ｃｏ．,,合同会社,埼玉県,越谷市,赤山町１丁目１０７番地１アンビシャスシティ越谷１０３号,,11,222,3430807,,,,,,,2026-02-17,1,,,,,ナガサカアンドコー,0
646,3040001142371,新規,0,2026-02-17,2026-02-17,株式会社いとをかし,,株式会社,千葉県,浦安市,堀江４丁目２４番４号,,12,227,2790041,,,,,,,2026-02-17,1,,,,,イトヲカシ,0
647,3040001142537,新規,0,2026-02-17,2026-02-17,株式会社ＬＡＹＥＲ,,株式会社,千葉県,野田市,みずき１丁目８番地の１３,,12,208,2780027,,,,,,,2026-02-17,1,,,,,レイヤー,0
650,3050003009948,新規,0,2026-02-17,2026-02-17,合同会社エール,,合同会社,茨城県,土浦市,木田余西台１８番３８号ソラーナＡ２０２,,08,203,3000056,,,,,,,2026-02-17,1,,,,,エール,0
651,3050005013758,新規,0,2026-02-17,2026-02-17,一般社団法人キルシッカ,,その他の設立登記法人,茨城県,牛久市,柏田町３０３６番地,,08,219,3001211,,,,,,,2026-02-17,1,,,,,キルシッカ,0
655,3060001039013,新規,0,2026-02-17,2026-02-17,株式会社トリプルベネフィッツ,,株式会社,栃木県,宇都宮市,横田新町４番１８号,,09,201,3210105,,,,,,,2026-02-17,1,,,,,トリプルベネフィッツ,0
660,3060003005962,新規,0,2026-02-17,2026-02-17,結び目エーゼンシー合同会社,,合同会社,栃木県,宇都宮市,一ノ沢町２８５番地４１,,09,201,3200049,,,,,,,2026-02-17,1,,,,,ムスビメエーゼンシー,0
662,3070001043823,新規,0,2026-02-17,2026-02-17,株式会社エネアフター,,株式会社,群馬県,高崎市,小八木町１４１６番地１,,10,202,3700071,,,,,,,2026-02-17,1,,,,,エネアフター,0
663,3070001043831,新規,0,2026-02-17,2026-02-17,株式会社ウェルファーマ,,株式会社,群馬県,太田市,下小林町５１番地３,,10,205,3730807,,,,,,,2026-02-17,1,,,,,ウェルファーマ,0
665,3080101026090,新規,0,2026-02-17,2026-02-17,株式会社ＴＡＫＡＮＥ,,株式会社,静岡県,伊東市,玖須美元和田７２７番地の８０１,,22,208,4140045,,,,,,,2026-02-17,1,,,,,タカネ,0
684,3120001284222,新規,0,2026-02-17,2026-02-17,株式会社ＭＩＤＤＬＥ,,株式会社,大阪府,大阪市天王寺区,大道２丁目１番地２３号３階,,27,109,5430052,,,,,,,2026-02-17,1,,,,,ミッドル,0
685,3120001284230,新規,0,2026-02-17,2026-02-17,株式会社ＲｅＶ,,株式会社,大阪府,大阪市中央区,北久宝寺町３丁目６－１,,27,128,5410057,,,,,,,2026-02-17,1,,,,,レヴ,0
686,3120001284288,新規,0,2026-02-17,2026-02-17,ねこ畑株式会社,,株式会社,大阪府,大阪市淀川区,西宮原１丁目８番１－９０７号,,27,123,5320004,,,,,,,2026-02-17,1,,,,,ネコバタケ,0
690,3120003031903,新規,0,2026-02-17,2026-02-17,合同会社ＭＡＲＩＥＬＨＯＯＰ,,合同会社,大阪府,大阪市生野区,巽中３丁目４番１３号,00142592,27,116,5440013,,,,,,,2026-02-17,1,,,,,マリエルフープ,0
691,3120003031928,新規,0,2026-02-17,2026-02-17,合同会社松間照,,合同会社,大阪府,大阪市天王寺区,生玉町１１－１４シャルマンフジリッツ夕陽丘７０７,,27,109,5430071,,,,,,,2026-02-17,1,,,,,ショウカンショウ,0
692,3120003031944,新規,0,2026-02-17,2026-02-17,合同会社恒安中和,,合同会社,大阪府,大阪市北区,西天満５丁目９番１０号,,27,127,5300047,,,,,,,2026-02-17,1,,,,,コウアンチュウワ,0
696,3120901052208,新規,0,2026-02-17,2026-02-17,株式会社ｉｍｍｏｂｉｌｅ,,株式会社,大阪府,吹田市,江坂町１丁目１２番１号家村商事ビル１階,,27,205,5640063,,,,,,,2026-02-17,1,,,,,イモビル,0
697,3120901052240,新規,0,2026-02-17,2026-02-17,株式会社経論,,株式会社,大阪府,豊中市,柴原町２丁目７番７－１０２号,,27,203,5600055,,,,,,,2026-02-17,1,,,,,ケイロン,0
710,3140001141768,新規,0,2026-02-17,2026-02-17,株式会社技建幸,,株式会社,兵庫県,三木市,吉川町楠原７６３番地１,,28,215,6731241,,,,,,,2026-02-17,1,,,,,ギケンコウ,0
711,3140001141792,新規,0,2026-02-17,2026-02-17,株式会社ＲＳＩ,,株式会社,兵庫県,神戸市中央区,三宮町１丁目２－１日住神戸三宮ビルディング４Ｆ,,28,110,6500021,,,,,,,2026-02-17,1,,,,,アールエスアイ,0
740,3190001032896,新規,0,2026-02-17,2026-02-17,ソーシャルディライト株式会社,,株式会社,三重県,桑名市,寿町１丁目１５番地９０５号,,24,205,5110061,,,,,,,2026-02-17,1,,,,,ソーシャルディライト,0
745,3220001027166,新規,0,2026-02-17,2026-02-17,株式会社つなぐエステート,,株式会社,石川県,白山市,七原町イ６番地３,,17,210,9202143,,,,,,,2026-02-17,1,,,,,ツナグエステート,0
748,3240001066170,新規,0,2026-02-17,2026-02-17,株式会社Ｌｉｅｂｅ,,株式会社,広島県,福山市,神辺町大字新道上３１番地１６,,34,207,7202107,,,,,,,2026-02-17,1,,,,,リーベ,0
749,3240001066179,新規,0,2026-02-17,2026-02-17,Ａ・Ｃ・Ｈｅａｌｔｈｃａｒｅ株式会社,,株式会社,広島県,庄原市,西本町２丁目１８－８新興第２ビル３階３号室,,34,210,7270013,,,,,,,2026-02-17,1,,,,,エーシーヘルスケア,0
753,3240005016048,新規,0,2026-02-17,2026-02-17,一般社団法人サードプレイスラボ,,その他の設立登記法人,広島県,広島市安芸区,中野３丁目１１番６号,,34,107,7390321,,,,,,,2026-02-17,1,,,,,サードプレイスラボ,0
760,3260005011575,新規,0,2026-02-17,2026-02-17,一般社団法人岡山医療連携機構,,その他の設立登記法人,岡山県,津山市,川崎５５１番地１,,33,203,7080841,,,,,,,2026-02-17,1,,,,,オカヤマイリョウレンケイキコウ,0
767,3290001113174,新規,0,2026-02-17,2026-02-17,株式会社アライブ,,株式会社,福岡県,福岡市南区,平和２丁目８番１号,,40,134,8150071,,,,,,,2026-02-17,1,,,,,アライブ,0
769,3290003018074,新規,0,2026-02-17,2026-02-17,合同会社トミヤス,,合同会社,福岡県,福岡市東区,和白東１丁目６番３７－１０１号,,40,131,8110214,,,,,,,2026-02-17,1,,,,,トミヤス,0
784,3360001036384,新規,0,2026-02-17,2026-02-17,Ｓｏｕｔｈ　Ｍａｎａｇｅｍｅｎｔ株式会社,,株式会社,沖縄県,名護市,大西３丁目５番９－１号,,47,209,9050018,,,,,,,2026-02-17,1,,,,,サウスマネージメント,0
794,3430001096280,新規,0,2026-02-17,2026-02-17,オープンセサミ仙台株式会社,,株式会社,北海道,札幌市東区,北十四条東７丁目１番３６号マサハルビル２階株式会社フェイバーズクリエイション内,,01,103,0650014,,,,,,,2026-02-17,1,,,,,オープンセサミセンダイ,0
796,3430003018555,新規,0,2026-02-17,2026-02-17,合同会社Ｔｒｕｓｔｍａｔｅｒｉａｌ,,合同会社,北海道,札幌市豊平区,西岡五条１丁目６番２０－４０２号,,01,105,0620035,,,,,,,2026-02-17,1,,,,,トラストマテリアル,0
798,3470005006678,新規,0,2026-02-17,2026-02-17,高松市下水道施設維持管理業協同組合,,その他の設立登記法人,香川県,高松市,亀岡町１４番１１号,,37,201,7600006,,,,,,,2026-02-17,1,,,,,,0
803,3700150134508,新規,0,2026-02-17,2026-02-17,ｇｅｎＥｐｌａｎｅｔ　ｄ．ｏ．ｏ．,,外国会社等,,,,,,,,Ｃｅｓｔａ　ｎａ　Ｐｏｌｊａｎｅ　３Ａ，１２１０　Ｌｊｕｂｌｊａｎａ　＿ｅｎｔｖｉｄ，　Ｓｌｏｖｅｎｉａ,00142564,,,,,2026-02-17,1,,,,,ジェネプラネット,0
804,3700150134516,新規,0,2026-02-17,2026-02-17,Ｔｈａｉ　Ｋａｎｄｅｎｋｏ　Ｃｏ．，Ｌｔｄ,,外国会社等,,,,,,,,Ｎｏ．１０／１０７　Ｔｈｅ　Ｔｒｅｎｄｙ　Ｏｆｆｉｃｅ　Ｂｕｉｌｄｉｎｇ，８ｔｈ　Ｆｌｏｏｒ，Ｓｏｉ　Ｓｕｋｈｕｍｖｉｔ　１３，Ｓｕｋｈｕｍｖｉｔ　Ｒｄ．，Ｋｈｗａｅｎｇ　Ｋｈｌｏｎｇ　Ｔｏｅｉ　Ｎｕｅａ，Ｋｈｅｔ　Ｗａｔｔｈａｎａ，Ｂａｎｇｋｏｋ　１０１１０，Ｔｈａｉｌａｎｄ,,,,,,2026-02-17,1,,,,,タイカンデンコウ,0
805,3700150134524,新規,0,2026-02-17,2026-02-17,ＨＯＮＧ　ＫＯＮＧ　ＦＥＮＧＬＩＡＮ　Ｅ－ＣＯＭＭＥＲＣＥ　ＬＩＭＩＴＥＤ,,外国会社等,,,,,,,,ＲＭ　Ａ５０，ＵＮＩＴ　１８，ＦＬＯＯＲ　１２　ＮＥＷ　ＣＩＴＹ　ＣＴＲ，ＮＯ．２　ＬＥＩ　ＹＵＥ　ＭＵＮ　ＲＤ，ＫＷＵＮ　ＴＯＮＧ，ＨＯＮＧ　ＫＯＮＧ,,,,,,2026-02-17,1,,,,,ホンコンフエンリアンイーコマースカンパニーリミテツド,0
814,4010001262857,新規,0,2026-02-17,2026-02-17,Ｓｅｅｋｃｏｄ株式会社,,株式会社,東京都,文京区,本郷３丁目２４－２ＨＰ本郷７階,,13,105,1130033,,,,,,,2026-02-17,1,,,,,シークコード,0
818,4010003050351,新規,0,2026-02-17,2026-02-17,合同会社大森商会,,合同会社,東京都,中央区,佃２丁目１１番６－６１１号,,13,102,1040051,,,,,,,2026-02-17,1,,,,,オオモリショウカイ,0
820,4010005041407,新規,0,2026-02-17,2026-02-17,Ｓｐｒｉｎｔ　ＴＲ特定目的会社,,その他の設立登記法人,東京都,千代田区,霞が関３丁目２番５号,,13,101,1000013,,,,,,,2026-02-17,1,,,,,スプリントティーアール,0
828,4010401196473,新規,0,2026-02-17,2026-02-17,Ｚａｃｋｏｏ株式会社,,株式会社,東京都,港区,芝５丁目３６－４札の辻スクエア９階港区立産業振興センター,,13,103,1080014,,,,,,,2026-02-17,1,,,,,ザクー,0
829,4010401196481,新規,0,2026-02-17,2026-02-17,Ｍｕｌｔｉｐｌｉｅｒ　Ｓｏｌｕｔｉｏｎｓ株式会社,,株式会社,東京都,港区,海岸１丁目２番２０号汐留ビルディング３階ＣＳＣＪａｐａｎＣｏｒｐｏｒａｔｅＳｅｒｖｉｃｅｓ株式会社内,,13,103,1050022,,,,,,,2026-02-17,1,,,,,マルチプライヤーソリューションズ,0
830,4010401196572,新規,0,2026-02-17,2026-02-17,ＹＨＭＹメディカル株式会社,,株式会社,東京都,港区,南青山３丁目１番３６号青山丸竹ビル６階,,13,103,1070062,,,,,,,2026-02-17,1,,,,,ワイエイチエムワイメディカル,0
831,4010401196580,新規,0,2026-02-17,2026-02-17,株式会社ＮＳＳＫ‐Ｎ１,,株式会社,東京都,港区,愛宕２丁目５番１号愛宕グリーンヒルズＭＯＲＩタワー,,13,103,1050002,,,,,,,2026-02-17,1,,,,,エヌエスエスケーエヌワン,0
835,4010403037304,新規,0,2026-02-17,2026-02-17,ＢＢＨ１合同会社,,合同会社,東京都,港区,虎ノ門５丁目３番２０号株式会社アカウンティング・マネジメント・サービス内,,13,103,1050001,,,,,,,2026-02-17,1,,,,,ビービーエイチワン,0
836,4010403037320,新規,0,2026-02-17,2026-02-17,合同会社ｍｉｋａｎ,,合同会社,東京都,港区,六本木３丁目１６番１２号六本木ＫＳビル５Ｆ,,13,103,1060032,,,,,,,2026-02-17,1,,,,,ミカン,0
837,4010403037329,新規,0,2026-02-17,2026-02-17,Ｐｅｒｒｙ合同会社,,合同会社,東京都,港区,虎ノ門４丁目３番１号,,13,103,1050001,,,,,,,2026-02-17,1,,,,,ペリー,0
849,4010801037046,新規,0,2026-02-17,2026-02-17,株式会社ＴＡＧＩＲＩ,,株式会社,東京都,大田区,山王４丁目２３－１２,,13,111,1430023,,,,,,,2026-02-17,1,,,,,タギリ,0
859,4011001175553,新規,0,2026-02-17,2026-02-17,株式会社ｍａｔｅ．,,株式会社,東京都,渋谷区,広尾１丁目９番１８号雨宮ビル２階,,13,113,1500012,,,,,,,2026-02-17,1,,,,,メイト,0
860,4011001175784,新規,0,2026-02-17,2026-02-17,フリーハンド株式会社,,株式会社,東京都,渋谷区,恵比寿西１丁目３番１３－５０１号グランドヘリテージ,,13,113,1500021,,,,,,,2026-02-17,1,,,,,フリーハンド,0
863,4011003023487,新規,0,2026-02-17,2026-02-17,合同会社ＦｌｏｗＳｔｕｄｉｏ,,合同会社,東京都,渋谷区,道玄坂１丁目１０番８号渋谷道玄坂東急ビル二階Ｃ,,13,113,1500043,,,,,,,2026-02-17,1,,,,,フロウスタジオ,0
864,4011003023603,新規,0,2026-02-17,2026-02-17,合同会社ＴＡＩＤＡＩ,,合同会社,東京都,渋谷区,道玄坂１丁目１０番８号渋谷道玄坂東急ビル２Ｆ―Ｃ,,13,113,1500043,,,,,,,2026-02-17,1,,,,,タイダイ,0
869,4011103017100,新規,0,2026-02-17,2026-02-17,エースイット合同会社,,合同会社,東京都,新宿区,西新宿３丁目３番１３号西新宿水間ビル２Ｆ,,13,104,1600023,,,,,,,2026-02-17,1,,,,,エースイット,0
877,4011505002724,新規,0,2026-02-17,2026-02-17,一般社団法人整心整体ＤＯセルフケア普及協会,,その他の設立登記法人,東京都,荒川区,南千住８丁目１１番１－８０８号,,13,118,1160003,,,,,,,2026-02-17,1,,,,,セイシンセイタイドウセルフケアフキュウキョウカイ,0
879,4011701029190,新規,0,2026-02-17,2026-02-17,株式会社ＮＹＳ,,株式会社,東京都,江戸川区,篠崎町７丁目２６番２号,,13,123,1330061,,,,,,,2026-02-17,1,,,,,エヌワイエス,0
881,4011801047456,新規,0,2026-02-17,2026-02-17,株式会社ペットライド,,株式会社,東京都,葛飾区,新小岩３丁目２５番１号葛飾区新小岩創業支援施設２０１号室,,13,122,1240024,,,,,,,2026-02-17,1,,,,,ペットライド,0
883,4012401044141,新規,0,2026-02-17,2026-02-17,小金井エンバイロ株式会社,,株式会社,東京都,小金井市,中町２丁目１５番２０号,,13,210,1840012,,,,,,,2026-02-17,1,,,,,コガネイエンバイロ,0
891,4020001167023,新規,0,2026-02-17,2026-02-17,株式会社ＳＳホールディングス,,株式会社,神奈川県,横浜市中区,山手町６８番地１４,,14,104,2310862,,,,,,,2026-02-17,1,,,,,エスエスホールディングス,0
892,4020001167056,新規,0,2026-02-17,2026-02-17,株式会社互幸プランニング,,株式会社,神奈川県,川崎市宮前区,有馬７丁目９番１２号,,14,136,2160003,,,,,,,2026-02-17,1,,,,,ゴコウプランニング,0
893,4020001167064,新規,0,2026-02-17,2026-02-17,宙太工業株式会社,,株式会社,神奈川県,横浜市緑区,寺山町５８７番地１フラッツＫ２０３号,,14,113,2260013,,,,,,,2026-02-17,1,,,,,チュウタコウギョウ,0
894,4020001167171,新規,0,2026-02-17,2026-02-17,株式会社ＨＩＫＡＲＩＯ,,株式会社,神奈川県,川崎市中原区,小杉町３丁目６００番,,14,133,2110063,,,,,,,2026-02-17,1,,,,,ヒカリオ,0
895,4020001167205,新規,0,2026-02-17,2026-02-17,アンジュホールディングス株式会社,,株式会社,神奈川県,川崎市宮前区,宮崎６丁目５番地９５,,14,136,2160033,,,,,,,2026-02-17,1,,,,,アンジュホールディングス,0
896,4020001167221,新規,0,2026-02-17,2026-02-17,株式会社Ｒｉｓｅ　Ｕｐ　Ｆｉｅｌｄ,,株式会社,神奈川県,横浜市鶴見区,東寺尾東台９番３３－３号,,14,101,2300018,,,,,,,2026-02-17,1,,,,,ライズアップフィールド,0
899,4020003030360,新規,0,2026-02-17,2026-02-17,ＬＢ　ＦＡＭＩＬＹ合同会社,,合同会社,神奈川県,横浜市都筑区,仲町台５丁目２－３４第一関ビル２０２,,14,118,2240041,,,,,,,2026-02-17,1,,,,,エルビーファミリー,0
900,4020003030393,新規,0,2026-02-17,2026-02-17,Ｒ２ＫＭ合同会社,,合同会社,神奈川県,横浜市青葉区,千草台２２番地１８クリオ藤が丘壱番館２０３号室,,14,117,2270051,,,,,,,2026-02-17,1,,,,,アールツーケーエム,0
902,4021003017034,新規,0,2026-02-17,2026-02-17,合同会社Ｏｎｉｏｎｌａｂ．,,合同会社,神奈川県,逗子市,新宿１丁目２番１９号Ｓｏｌｅ・ｅ・Ｓｐｉａｇｇｉａ逗子海岸Ｆ号室,,14,208,2490007,,,,,,,2026-02-17,1,,,,,オニオンラボ,0
903,4021003017117,新規,0,2026-02-17,2026-02-17,Ｙｏｒｉｍｏ合同会社,,合同会社,神奈川県,海老名市,国分南４丁目１２－２アクティブ大岳２０２,,14,215,2430405,,,,,,,2026-02-17,1,,,,,ヨリモ,0
904,4021005013543,新規,0,2026-02-17,2026-02-17,社会保険労務士法人まもる,,その他の設立登記法人,神奈川県,相模原市南区,相模大野３丁目１６番１５号相模大野スカイビル３０２,,14,153,2520303,,,,,,,2026-02-17,1,,,,,マモル,0
911,4030001170950,新規,0,2026-02-17,2026-02-17,アンセイ埼玉株式会社,,株式会社,埼玉県,秩父市,みどりが丘８１番地,,11,207,3680067,,,,,,,2026-02-17,1,,,,,アンセイサイタマ,0
912,4030001171057,新規,0,2026-02-17,2026-02-17,株式会社未来工,,株式会社,埼玉県,戸田市,下戸田２丁目３１番２０号スカイラーク蕨４０２,,11,224,3350011,,,,,,,2026-02-17,1,,,,,ミライコウ,0
927,4040003029483,新規,0,2026-02-17,2026-02-17,ＧＹＹ合同会社,,合同会社,千葉県,流山市,木１丁目３５－６ＷＥＳＴ,,12,220,2700162,,,,,,,2026-02-17,1,,,,,ジーワイワイ,0
929,4060001039012,新規,0,2026-02-17,2026-02-17,株式会社ＮＩＧＰ．,,株式会社,栃木県,那須塩原市,豊町３番１２号,,09,213,3250051,,,,,,,2026-02-17,1,,,,,エヌアイジーピー,0
931,4070001043830,新規,0,2026-02-17,2026-02-17,株式会社地域の編集室,,株式会社,群馬県,吾妻郡草津町,大字草津３２１－１２,,10,426,3771711,,,,,,,2026-02-17,1,,,,,チイキノヘンシュウシツ,0
932,4070003006307,新規,0,2026-02-17,2026-02-17,ＳＨＡＭ　ＴＲＡＤＩＮＧ合同会社,,合同会社,群馬県,太田市,福沢町２９９番地１３親和ハイツＢ－３号,,10,205,3730831,,,,,,,2026-02-17,1,,,,,シャムトレーディング,0
953,4120001284188,新規,0,2026-02-17,2026-02-17,株式会社Ｃａｎｄｙ,,株式会社,大阪府,大阪市鶴見区,横堤１丁目１１－７４－１０１,,27,124,5380052,,,,,,,2026-02-17,1,,,,,キャンディ,0
954,4120001284205,新規,0,2026-02-17,2026-02-17,株式会社廻屋,,株式会社,大阪府,大阪市港区,磯路２丁目１９番２４号三石ビル２Ｆ,,27,107,5520003,,,,,,,2026-02-17,1,,,,,メグリヤ,0
955,4120001284213,新規,0,2026-02-17,2026-02-17,株式会社近電設,,株式会社,大阪府,大阪市淀川区,塚本６丁目６番７号,,27,123,5320026,,,,,,,2026-02-17,1,,,,,チカデンセツ,0
956,4120001284221,新規,0,2026-02-17,2026-02-17,大城金属株式会社,,株式会社,大阪府,大阪市東淀川区,下新庄２丁目８－１６セントラル淡路３０１室,,27,114,5330021,,,,,,,2026-02-17,1,,,,,ダイキキンゾク,0
957,4120001284270,新規,0,2026-02-17,2026-02-17,株式会社ＩＴＯデザイン工房,,株式会社,大阪府,大阪市中央区,備後町２丁目４番９号日本精化ビル６階エムアールビジネス内,,27,128,5410051,,,,,,,2026-02-17,1,,,,,アイティーオーデザインコウボウ,0
960,4120003031885,新規,0,2026-02-17,2026-02-17,合同会社Ｇｒａｎｄｅ　Ｊｏｕｒｎｅｙ　Ｌａｂ,,合同会社,大阪府,大阪市城東区,今福西６丁目２番１号７０２号室,,27,118,5360004,,,,,,,2026-02-17,1,,,,,グランデジャーニーラボ,0
961,4120003031935,新規,0,2026-02-17,2026-02-17,合同会社大泉・南花田霊園管理事務局,,合同会社,大阪府,大阪市阿倍野区,阿倍野元町４番４号ＨＡＫＵ阿倍野２０１号室,,27,119,5450034,,,,,,,2026-02-17,1,,,,,オオイズミミナミハナダレイエンカンリジムキョク,0
962,4120003031943,新規,0,2026-02-17,2026-02-17,合同会社恒安智勝,,合同会社,大阪府,大阪市北区,西天満５丁目９番１０号,,27,127,5300047,,,,,,,2026-02-17,1,,,,,コウアンチショウ,0
963,4120101073210,新規,0,2026-02-17,2026-02-17,株式会社Ｔ＆Ｍ,,株式会社,大阪府,河内長野市,南青葉台２８番２７号,,27,216,5860067,,,,,,,2026-02-17,1,,,,,ティーアンドエム,0
969,4130005017584,新規,0,2026-02-17,2026-02-17,大正念本部道場,,その他の設立登記法人,京都府,京都市南区,上鳥羽北島田町８０番地,,26,107,6018182,,,,,,,2026-02-17,1,,,,,タイショウネンホンブドウジョウ,0
973,4140001141759,新規,0,2026-02-17,2026-02-17,ＣＲＯＳＳ株式会社,,株式会社,兵庫県,尼崎市,南武庫之荘２丁目１７番２０号２０１,,28,202,6610033,,,,,,,2026-02-17,1,,,,,クロス,0
979,4160003003724,新規,0,2026-02-17,2026-02-17,合同会社Ｗｅｓｔ　Ｆｉｅｌｄ,,合同会社,滋賀県,野洲市,西河原２６８６－３０１,,25,210,5202423,,,,,,,2026-02-17,1,,,,,,0
993,4180005021367,新規,0,2026-02-17,2026-02-17,特定非営利活動法人つむぐ,,その他の設立登記法人,愛知県,春日井市,松本町５３５番地の４,,23,206,4870027,,,,,,,2026-02-17,1,,,,,ツムグ,0
1001,4190001032912,新規,0,2026-02-17,2026-02-17,株式会社ＣＯＲＥ　ＢＡＳＥ,,株式会社,三重県,四日市市,追分２丁目４番１９‐２号,,24,202,5100882,,,,,,,2026-02-17,1,,,,,コアベース,0
1005,4220001027173,新規,0,2026-02-17,2026-02-17,株式会社Ｏｎｅ　Ｂｌａｃｋｓ,,株式会社,石川県,金沢市,木曳野３丁目１６９番地,,17,201,9200339,,,,,,,2026-02-17,1,,,,,ワンブラックス,0
1007,4230001021299,新規,0,2026-02-17,2026-02-17,株式会社水のまち黒部,,株式会社,富山県,黒部市,宇奈月町浦山８０８－５,,16,207,9380862,,,,,,,2026-02-17,1,,,,,ミズノマチクロベ,0
1008,4230001021308,新規,0,2026-02-17,2026-02-17,株式会社Ｙ．Ｎ　Ｋｉｔｃｈｅｎ　Ｗｏｒｋｓ,,株式会社,富山県,砺波市,太郎丸６５６８番地１,,16,208,9391363,,,,,,,2026-02-17,1,,,,,ワイエヌキッチンワークス,0
1009,4230005009522,新規,0,2026-02-17,2026-02-17,一般社団法人トヤママーケット,,その他の設立登記法人,富山県,富山市,五番町５番１号,,16,201,9300052,,,,,,,2026-02-17,1,,,,,トヤママーケット,0
1013,4240005016047,新規,0,2026-02-17,2026-02-17,医療法人こころの浮島,,その他の設立登記法人,広島県,安芸郡海田町,新町１１番２０号丹京ビル１Ｆ,,34,304,7360068,,,,,,,2026-02-17,1,,,,,ココロノウキシマ,0
1018,4280001009587,新規,0,2026-02-17,2026-02-17,一両編成株式会社,,株式会社,島根県,松江市,寺町２１１番地１６,,32,201,6900063,,,,,,,2026-02-17,1,,,,,イチリョウヘンセイ,0
1023,4290001113157,新規,0,2026-02-17,2026-02-17,株式会社アンビー,,株式会社,福岡県,福岡市早良区,賀茂４丁目２１番２８－１号,,40,137,8140164,,,,,,,2026-02-17,1,,,,,アンビー,0
1031,4290801032250,新規,0,2026-02-17,2026-02-17,株式会社上村板金,,株式会社,福岡県,北九州市小倉南区,上石田２丁目２４番５１号,,40,107,8020833,,,,,,,2026-02-17,1,,,,,ウエムラバンキン,0
1035,4310003005184,新規,0,2026-02-17,2026-02-17,あいか合同会社,,合同会社,長崎県,五島市,三井楽町濱ノ畔１０５０番地１７,,42,211,8530601,,,,,,,2026-02-17,1,,,,,アイカ,0
1045,4340001027970,新規,0,2026-02-17,2026-02-17,アオリス株式会社,,株式会社,鹿児島県,鹿児島市,松原町１１番７号ＳＴＥＰ６０１号,,46,201,8920833,,,,,,,2026-02-17,1,,,,,アオリス,0
1046,4340001027979,新規,0,2026-02-17,2026-02-17,株式会社興架技術,,株式会社,鹿児島県,鹿児島市,吉野町８３４番地１０,,46,201,8920871,,,,,,,2026-02-17,1,,,,,コウカギジュツ,0
1064,4430001096271,新規,0,2026-02-17,2026-02-17,株式会社カルチャーリー,,株式会社,北海道,札幌市中央区,南一条西２丁目１番地２木ＮＩＮＡＲＵ　ＢＬＤＧ．,,01,101,0600061,,,,,,,2026-02-17,1,,,,,カルチャーリー,0
1067,4430003018554,新規,0,2026-02-17,2026-02-17,合同会社極商事,,合同会社,北海道,札幌市白石区,平和通２丁目南１番１２号ルミエールＧＬＡＹ－１０１号,,01,104,0030028,,,,,,,2026-02-17,1,,,,,キワミショウジ,0
1068,4430003018595,新規,0,2026-02-17,2026-02-17,合同会社真心,,合同会社,北海道,札幌市中央区,南十八条西１６丁目１番１－１００３号,,01,101,0640918,,,,,,,2026-02-17,1,,,,,マゴコロ,0
1073,4480003002388,新規,0,2026-02-17,2026-02-17,合同会社Ｓｐｉｃｅｓ３２,,合同会社,徳島県,徳島市,南島田町１丁目２８番地の９,,36,201,7700053,,,,,,,2026-02-17,1,,,,,スパイシズサーティツー,0
1076,4700150066064,新規,0,2026-02-17,2015-10-09,糸満市職員労働組合,,その他,沖縄県,糸満市,潮崎町１丁目１番地,,47,210,9010364,,,,,,,2015-10-09,1,,,,,イトマンシシヨクインロウドウクミアイ,0
1077,4700150134515,新規,0,2026-02-17,2026-02-17,ＳＤＣＣ　ＰＲＯＪＥＣＴ　ＬＴＤ,,外国会社等,,,,,,,,Ｒｏｏｍ６Ａ，６／ＦＣｈｅｕｎｇＬｕｎｇＩｎｄｕｓｔｒｉａｌＢｕｉｌｄｉｎｇ，１０ＣｈｅｕｎｇＹｅｅＳｔ．ＬａｉＣｈｉＫｏｋ，Ｋｌｎ，ＨｏｎｇＫｏｎｇ,,,,,,2026-02-17,1,,,,,エスデイシーシープロジエクトリミテツド,0
1078,4700150134523,新規,0,2026-02-17,2026-02-17,Ｖａｎｔａｇｅ　Ｈｉｌｌ　Ｌｉｍｉｔｅｄ,,外国会社等,,,,,,,,７０１－７０２，Ｌｙｎｄｈｕｒｓｔ　Ｔｏｗｅｒ，１　Ｌｙｎｄｈｕｒｓｔ　Ｔｅｒｒａｃｅ，Ｃｅｎｔｒａｌ，Ｈｏｎｇ　Ｋｏｎｇ,,,,,,2026-02-17,1,,,,,バンテージヒルリミテツド,0
1086,5010001262906,新規,0,2026-02-17,2026-02-17,株式会社ディーグリップ,,株式会社,東京都,千代田区,神田佐久間町３丁目３８番地第５東ビル５Ｆ,,13,101,1010025,,,,,,,2026-02-17,1,,,,,ディーグリップ,0
1088,5010003050359,新規,0,2026-02-17,2026-02-17,合同会社オーリン・エステート東京,,合同会社,東京都,中央区,湊２丁目１５－１４－２５０９,,13,102,1040043,,,,,,,2026-02-17,1,,,,,オーリンエステートトウキョウ,0
1097,5010401196555,新規,0,2026-02-17,2026-02-17,ＨＩｎｏＭＯＴＯ株式会社,,株式会社,東京都,港区,南青山２丁目２番１５号,,13,103,1070062,,,,,,,2026-02-17,1,,,,,ヒノモト,0
1098,5010401196596,新規,0,2026-02-17,2026-02-17,株式会社個性分析士養成スクール,,株式会社,東京都,港区,芝２丁目２番１２号３階,,13,103,1050014,,,,,,,2026-02-17,1,,,,,コセイブンセキシヨウセイスクール,0
1099,5010401196687,新規,0,2026-02-17,2026-02-17,株式会社ＢｉＳＰＯＫＥ,,株式会社,東京都,港区,南青山２丁目５番１７号ポーラ青山ビルディング５階Ｏｖｅｒｌａｐ,,13,103,1070062,,,,,,,2026-02-17,1,,,,,ビスポーク,0
1106,5010405025297,新規,0,2026-02-17,2026-02-17,一般社団法人ＬｅＡｒｃｈａｅｏｌｏｇｙ,,その他の設立登記法人,東京都,港区,北青山１丁目３－３三橋ビル３階,,13,103,1070061,,,,,,,2026-02-17,1,,,,,ラーケオロジー,0
1110,5010503008187,新規,0,2026-02-17,2026-02-17,Ｒｙｕｕｍｉ合同会社,,合同会社,東京都,台東区,蔵前１丁目１番６－５０１号ウィルローズ蔵前リバースイート,,13,106,1110051,,,,,,,2026-02-17,1,,,,,リューミ,0
1113,5010601068744,新規,0,2026-02-17,2026-02-17,株式会社プラムハーバー,,株式会社,東京都,江東区,亀戸５丁目２１番３号,,13,108,1360071,,,,,,,2026-02-17,1,,,,,プラムハーバー,0
1114,5010601068760,新規,0,2026-02-17,2026-02-17,ＬＵＸ　ＩＫ　Ｈｏｌｄｉｎｇｓ株式会社,,株式会社,東京都,江東区,有明３丁目７番２６号有明フロンティアビルＢ棟９階,,13,108,1350063,,,,,,,2026-02-17,1,,,,,ラックスアイケーホールディングス,0
1115,5010603012048,新規,0,2026-02-17,2026-02-17,合同会社ＫＯＫＯＲＯ　ＨＯＵＳＥ,,合同会社,東京都,墨田区,業平４丁目１８番１３号,,13,107,1300002,,,,,,,2026-02-17,1,,,,,ココロハウス,0
1118,5010801037061,新規,0,2026-02-17,2026-02-17,株式会社Ｉステップ,,株式会社,東京都,大田区,北千束２丁目１６番７号,,13,111,1450062,,,,,,,2026-02-17,1,,,,,アイステップ,0
1121,5010901058981,新規,0,2026-02-17,2026-02-17,株式会社ａｉｍｅｒ,,株式会社,東京都,世田谷区,太子堂４丁目１８番１５号マガザン三軒茶屋２－３Ｆ－３,,13,112,1540004,,,,,,,2026-02-17,1,,,,,エメ,0
1123,5011001173234,新規,0,2026-02-17,2026-02-17,株式会社ＧＴ２,,株式会社,東京都,渋谷区,神泉町１０－１０アシジ神泉ビル１０Ｆ,,13,113,1500045,,,,,,,2026-02-17,1,,,,,ジーティーツー,0
1124,5011001175437,新規,0,2026-02-17,2026-02-17,株式会社ＲＯＭＡＮＥ,,株式会社,東京都,渋谷区,円山町５番３号ＭＩＥＵＸ渋谷ビル８階,,13,113,1500044,,,,,,,2026-02-17,1,,,,,ロマネ,0
1125,5011001175742,新規,0,2026-02-17,2026-02-17,株式会社ルミナエンターテインメント,,株式会社,東京都,渋谷区,円山町５番３号ＭＩＥＵＸ渋谷ビル８階,,13,113,1500044,,,,,,,2026-02-17,1,,,,,エンターテインメント,0
1126,5011001175775,新規,0,2026-02-17,2026-02-17,株式会社ＢＡＡＬ,,株式会社,東京都,目黒区,青葉台１丁目６―５４テラス青葉台Ｇ,,13,110,1530042,,,,,,,2026-02-17,1,,,,,バール,0
1132,5011003023701,新規,0,2026-02-17,2026-02-17,北垣戸物産合同会社,,合同会社,東京都,目黒区,上目黒５丁目１番１０号,,13,110,1530051,,,,,,,2026-02-17,1,,,,,キタガイトブッサン,0
1142,5011201026968,新規,0,2026-02-17,2026-02-17,株式会社Ｓｕｉｒｏ,,株式会社,東京都,中野区,若宮２丁目２０番１３号,,13,114,1650033,,,,,,,2026-02-17,1,,,,,スイロ,0
1144,5011301031182,新規,0,2026-02-17,2026-02-17,株式会社ＩＰＰＵＫＵ,,株式会社,東京都,杉並区,下高井戸１丁目１番３号河合ビル１Ｆ,,13,115,1680073,,,,,,,2026-02-17,1,,,,,イップク,0
1148,5011503006866,新規,0,2026-02-17,2026-02-17,合同会社クールリビング,,合同会社,東京都,荒川区,町屋５丁目１９番３号富島ビル４階,,13,118,1160001,,,,,,,2026-02-17,1,,,,,クールリビング,0
1149,5011601029372,新規,0,2026-02-17,2026-02-17,株式会社アバランチクリエイト,,株式会社,東京都,練馬区,北町８丁目３３番１１号１階,,13,120,1790081,,,,,,,2026-02-17,1,,,,,アバランチクリエイト,0
1161,5013103001529,新規,0,2026-02-17,2026-02-17,ＡＩファーマ合同会社,,合同会社,東京都,あきる野市,秋川５丁目１２－６,,13,228,1970804,,,,,,,2026-02-17,1,,,,,エーアイファーマ,0
1167,5013305003827,新規,0,2026-02-17,2026-02-17,一般社団法人プライムレジデンスホールディングス,,その他の設立登記法人,東京都,豊島区,池袋２丁目６０番１１号８階,,13,116,1710014,,,,,,,2026-02-17,1,,,,,プライムレジデンスホールディングス,0
1174,5020001167055,新規,0,2026-02-17,2026-02-17,ナインノック株式会社,,株式会社,神奈川県,横浜市金沢区,鳥浜町１２番地３１ＢＵＩＬＳＹＳＴＥＭ鳥浜ＢＳ倉庫３Ｆ,,14,108,2360002,,,,,,,2026-02-17,1,,,,,ナインノック,0
1175,5020001167105,新規,0,2026-02-17,2026-02-17,株式会社テイクオフ,,株式会社,神奈川県,横浜市港北区,大倉山２丁目３番５号,,14,109,2220037,,,,,,,2026-02-17,1,,,,,テイクオフ,0
1176,5020001167154,新規,0,2026-02-17,2026-02-17,関東トータルプランニング株式会社,,株式会社,神奈川県,川崎市川崎区,浅田２丁目１２番８号１０８,,14,131,2100847,,,,,,,2026-02-17,1,,,,,カントウトータルプランニング,0
1177,5020001167204,新規,0,2026-02-17,2026-02-17,株式会社ＨＥＬＩＸ,,株式会社,神奈川県,横浜市西区,北幸２丁目１０番４８号むつみビル３階,,14,103,2200004,,,,,,,2026-02-17,1,,,,,ヘリックス,0
1184,5021003017149,新規,0,2026-02-17,2026-02-17,リターノ合同会社,,合同会社,神奈川県,藤沢市,打戻１６７５番地の２,,14,205,2520824,,,,,,,2026-02-17,1,,,,,リターノ,0
1185,5021003017157,新規,0,2026-02-17,2026-02-17,合同会社渡邉商店,,合同会社,神奈川県,茅ヶ崎市,松浪２丁目８番２３号,,14,207,2530022,,,,,,,2026-02-17,1,,,,,ワタナベショウテン,0
1198,5030003028642,新規,0,2026-02-17,2026-02-17,合同会社マルシオフーズ,,合同会社,埼玉県,朝霞市,膝折町２丁目１０－１,,11,227,3510014,,,,,,,2026-02-17,1,,,,,マルシオフーズ,0
1199,5030003028650,新規,0,2026-02-17,2026-02-17,合同会社ＥＡＳＴ　Ｋ,,合同会社,埼玉県,川口市,戸塚２丁目４番８号－１階,,11,203,3330811,,,,,,,2026-02-17,1,,,,,イーストケー,0
1208,5040001142502,新規,0,2026-02-17,2026-02-17,株式会社ｃｈｅｅｅｓｅ,,株式会社,千葉県,長生郡一宮町,一宮８３６５番地８,,12,421,2994301,,,,,,,2026-02-17,1,,,,,チーズ,0
1209,5040001142510,新規,0,2026-02-17,2026-02-17,株式会社ＨＯＮＤＹ,,株式会社,千葉県,市川市,行徳駅前２丁目１７番５号青山ビル４０１,,12,203,2720133,,,,,,,2026-02-17,1,,,,,ホンディ,0
1210,5040001142551,新規,0,2026-02-17,2026-02-17,株式会社ＭＥＥＴＥＣ,,株式会社,千葉県,市原市,五井東１丁目４番地４－２０１号,,12,219,2900055,,,,,,,2026-02-17,1,,,,,ミーテック,0
1214,5040003029466,新規,0,2026-02-17,2026-02-17,合同会社ＱｗＱ,,合同会社,千葉県,市川市,田尻４丁目３番１２号,,12,203,2720014,,,,,,,2026-02-17,1,,,,,キューダブリューキュー,0
1215,5040003029474,新規,0,2026-02-17,2026-02-17,結合同会社,,合同会社,千葉県,浦安市,富士見４丁目７番３８号,,12,227,2790043,,,,,,,2026-02-17,1,,,,,ムスビ,0
1216,5040003029508,新規,0,2026-02-17,2026-02-17,合同会社アプリコット,,合同会社,千葉県,市川市,八幡３丁目３番２－２７０１号（グランドターミナルタワー本八幡）,,12,203,2720021,,,,,,,2026-02-17,1,,,,,アプリコット,0
1217,5040005023046,新規,0,2026-02-17,2026-02-17,特定非営利活動法人Ｓｈａｋｅ　Ｈａｎｄｓ　Ｊａｐａｎ,,その他の設立登記法人,千葉県,印西市,牧の原６丁目８番地７０,,12,231,2701331,,,,,,,2026-02-17,1,,,,,シェイクハンズジャパン,0
1218,5050001057988,新規,0,2026-02-17,2026-02-17,株式会社渡美急送,,株式会社,茨城県,龍ケ崎市,長山６丁目１０番地１３,,08,208,3010042,,,,,,,2026-02-17,1,,,,,ワタミキュウソウ,0
1220,5050003009946,新規,0,2026-02-17,2026-02-17,合同会社ブルーバード,,合同会社,茨城県,つくば市,天久保２丁目６‐１２,,08,220,3050005,,,,,,,2026-02-17,1,,,,,ブルーバード,0
1221,5060001039011,新規,0,2026-02-17,2026-02-17,株式会社ｏｗｌ,,株式会社,栃木県,宇都宮市,若草３丁目１９番２２号,,09,201,3200072,,,,,,,2026-02-17,1,,,,,アウル,0
1223,5070001043821,新規,0,2026-02-17,2026-02-17,株式会社Ｇ．Ｏ．Ｄ．,,株式会社,群馬県,太田市,六千石町１３５番地８,,10,205,3792305,,,,,,,2026-02-17,1,,,,,ジーオーディー,0
1224,5070003006306,新規,0,2026-02-17,2026-02-17,ＲＡＺＡ　ＴＲＡＤＩＮＧ合同会社,,合同会社,群馬県,太田市,宝町１４０番地１クレムリン２０１号,,10,205,3730042,,,,,,,2026-02-17,1,,,,,ラザトレーディング,0
1226,5080001027427,新規,0,2026-02-17,2026-02-17,株式会社ＴＳエンジニアリング,,株式会社,静岡県,静岡市清水区,三保６５４番地の２１,,22,103,4240901,,,,,,,2026-02-17,1,,,,,ティーエスエンジニアリング,0
1229,5080401028446,新規,0,2026-02-17,2026-02-17,株式会社Ｐｒｉｍｅｘ,,株式会社,静岡県,浜松市中央区,入野町２００２０番地の５,,22,138,4328061,,,,,,,2026-02-17,1,,,,,プライメックス,0
1231,5100003008604,新規,0,2026-02-17,2026-02-17,合同会社ステップ,,合同会社,長野県,諏訪郡原村,１７２１７番地１３５９,,20,363,3910100,,,,,,,2026-02-17,1,,,,,ステップ,0
1232,5100003008620,新規,0,2026-02-17,2026-02-17,合同会社よろず,,合同会社,長野県,塩尻市,大字広丘野村１５７２番地４－３０４号,,20,215,3990702,,,,,,,2026-02-17,1,,,,,ヨロズ,0
1244,5120001284170,新規,0,2026-02-17,2026-02-17,シンクヘッド精密株式会社,,株式会社,大阪府,大阪市住之江区,南港北２丁目１－１０ＡＴＣビルＯ’ｓ棟北館５２０,,27,125,5590034,,,,,,,2026-02-17,1,,,,,シンクヘッドセイミツ,0
1245,5120001284179,新規,0,2026-02-17,2026-02-17,株式会社ショウビ,,株式会社,大阪府,大阪市阿倍野区,阪南町２丁目７番４号,,27,119,5450021,,,,,,,2026-02-17,1,,,,,ショウビ,0
1251,5120003031934,新規,0,2026-02-17,2026-02-17,合同会社アイ,,合同会社,大阪府,大阪市中央区,日本橋１丁目２５番２３号アミスタ．ユウ１０５号室,,27,128,5420073,,,,,,,2026-02-17,1,,,,,アイ,0
1252,5120003031942,新規,0,2026-02-17,2026-02-17,合同会社恒安万誠,,合同会社,大阪府,大阪市北区,西天満５丁目９番１０号,,27,127,5300047,,,,,,,2026-02-17,1,,,,,コウアンバンセイ,0
1257,5122001040181,新規,0,2026-02-17,2026-02-17,協和電線ホールディングス株式会社,,株式会社,大阪府,八尾市,曙町１丁目７番地,00142604,27,212,5810026,,,,,,,2026-02-17,1,,,,,キョウワデンセンホールディングス,0
1266,5140001141741,新規,0,2026-02-17,2026-02-17,株式会社オスモ＆エーデルＨＤ,,株式会社,兵庫県,三木市,吉川町上荒川字奧山７４８番の６,,28,215,6731111,,,,,,,2026-02-17,1,,,,,オスモアンドエーデルホールディングス,0
1267,5140001141758,新規,0,2026-02-17,2026-02-17,株式会社惻隠坊,,株式会社,兵庫県,宝塚市,寿楽荘１番３３号,,28,214,6650012,,,,,,,2026-02-17,1,,,,,ソクインボウ,0
1268,5140001141774,新規,0,2026-02-17,2026-02-17,株式会社ＫＯＢＥＳＴ,,株式会社,兵庫県,神戸市中央区,磯上通４丁目３番１０－１３０６号,,28,110,6510086,,,,,,,2026-02-17,1,,,,,コウベスト,0
1272,5160001027419,新規,0,2026-02-17,2026-02-17,株式会社ＫＯＨＡＮ,,株式会社,滋賀県,大津市,国分１丁目３９番２６号,,25,201,5200844,,,,,,,2026-02-17,1,,,,,コハン,0
1279,5180001170662,新規,0,2026-02-17,2026-02-17,ＷＨＲ株式会社,,株式会社,愛知県,名古屋市中区,錦１丁目５番１１号伊藤忠ビル４階,,23,106,4600003,,,,,,,2026-02-17,1,,,,,ダブルエイチアール,0
1281,5180003029758,新規,0,2026-02-17,2026-02-17,ＴＡＦ合同会社,,合同会社,愛知県,名古屋市緑区,鳴海町字中汐田１４７番地の５,,23,114,4580801,,,,,,,2026-02-17,1,,,,,タフ,0
1282,5180003029782,新規,0,2026-02-17,2026-02-17,合同会社ＡｇｅＷｅｌｌ,,合同会社,愛知県,名古屋市熱田区,金山町１丁目３－２イトーピア紅葉舎金山マンション１１０５号,,23,109,4560002,,,,,,,2026-02-17,1,,,,,エイジウェル,0
1296,5220001027172,新規,0,2026-02-17,2026-02-17,株式会社瓦伝,,株式会社,石川県,河北郡津幡町,字太田ヘ６番地４,,17,361,9290345,,,,,,,2026-02-17,1,,,,,カワラデン,0
1297,5230001021307,新規,0,2026-02-17,2026-02-17,株式会社ＧＬＩ’ｘ,,株式会社,富山県,砺波市,太郎丸６５６８番地１,,16,208,9391363,,,,,,,2026-02-17,1,,,,,グリックス,0
1298,5230003002577,新規,0,2026-02-17,2026-02-17,ＡＴＡＭＣ合同会社,,合同会社,富山県,黒部市,牧野７５４番地３,,16,207,9380035,,,,,,,2026-02-17,1,,,,,エーティーエーエムシー,0
1299,5240005016046,新規,0,2026-02-17,2026-02-17,一般社団法人フリーランス支援協会,,その他の設立登記法人,広島県,広島市西区,庚午中４丁目２１－２０－２０３,,34,104,7330822,,,,,,,2026-02-17,1,,,,,フリーランスシエンキョウカイ,0
1301,5260001040989,新規,0,2026-02-17,2026-02-17,株式会社インテックスサポート,,株式会社,岡山県,瀬戸内市,牛窓町鹿忍６１２９番地,,33,212,7014303,,,,,,,2026-02-17,1,,,,,インテックスサポート,0
1306,5290001113156,新規,0,2026-02-17,2026-02-17,株式会社焼肉味彩,,株式会社,福岡県,大牟田市,八江町１－３八江町店舗弐番館,,40,202,8360847,,,,,,,2026-02-17,1,,,,,,0
1313,5300003002421,新規,0,2026-02-17,2026-02-17,合同会社Ｌａｔｔｅ,,合同会社,佐賀県,唐津市,竹木場５１０９－１４,,41,202,8470881,,,,,,,2026-02-17,1,,,,,ラテ,0
1316,5320003004894,新規,0,2026-02-17,2026-02-17,合同会社るぽあ,,合同会社,大分県,日田市,大字田島７５９番地１プリムローズガーデンＩＩ－１０２号,00142598,44,204,8770023,,,,,,,2026-02-17,1,,,,,ルポア,0
1317,5320005010288,新規,0,2026-02-17,2026-02-17,ロジスティクス大分協同組合,,その他の設立登記法人,大分県,別府市,新別府町４２番１４号,,44,202,8740834,,,,,,,2026-02-17,1,,,,,ロジスティクスオオイタ,0
1319,5340001027978,新規,0,2026-02-17,2026-02-17,株式会社ＢｏＬ,,株式会社,鹿児島県,肝属郡肝付町,富山９２１番地５,,46,492,8931204,,,,,,,2026-02-17,1,,,,,ビーオーエル,0
1331,5380001035886,新規,0,2026-02-17,2026-02-17,株式会社グロー,,株式会社,福島県,南会津郡南会津町,田島字田部原１４６番地５,,07,368,9670004,,,,,,,2026-02-17,1,,,,,グロー,0
1336,5430001096262,新規,0,2026-02-17,2026-02-17,シティーズ株式会社,,株式会社,北海道,札幌市豊平区,美園九条７丁目２番５号ＣＩＴＩＥＳ　ＭＩＳＯＮＯ１Ｆ,,01,105,0620009,,,,,,,2026-02-17,1,,,,,シティーズ,0
1337,5430001096279,新規,0,2026-02-17,2026-02-17,株式会社Ｂｒｉｌｌｉａｎｔｓ,,株式会社,北海道,空知郡南幌町,南１６線西７番地,,01,423,0690216,,,,,,,2026-02-17,1,,,,,ブリリアンツ,0
1338,5430001096287,新規,0,2026-02-17,2026-02-17,株式会社慶真工業,,株式会社,北海道,札幌市北区,北二十九条西１１丁目２番１号第五角栄ビル１Ｆ,,01,102,0010029,,,,,,,2026-02-17,1,,,,,ケイシンコウギョウ,0
1339,5430003018586,新規,0,2026-02-17,2026-02-17,合同会社Ｓ,,合同会社,北海道,札幌市中央区,南六条西３丁目６－２４第２桂和ビル３Ｆ,,01,101,0640806,,,,,,,2026-02-17,1,,,,,エス,0
1346,5490003002097,新規,0,2026-02-17,2026-02-17,合同会社ＮＩＹＯＤＯ　ＢＬＵＥ　ＰＡＲＫ,,合同会社,高知県,吾川郡仁淀川町,葛原字灰ノ谷１９１,,39,387,7811517,,,,,,,2026-02-17,1,,,,,ニヨドブルーパーク,0
1347,5700150134506,新規,0,2026-02-17,2026-02-17,都筑が丘第２自治会,,その他,神奈川県,横浜市都筑区,川和町１７１５番地の５２,,14,118,2240057,,,,,,,2026-02-17,1,,,,,ツヅキガオカダイニジチカイ,0
1348,5700150134514,新規,0,2026-02-17,2026-02-17,ＰＡＤ　ＩＮＶＥＳＴ　ｓｒｌ,,外国会社等,東京都,新宿区,余丁町８－４,,13,104,1620055,クルージュ県クルージュナポカ市プロピロール通り５７－６２,,,,,,2026-02-17,1,,,,,パツドインベストエスアールエル,0
1349,5700150134522,新規,0,2026-02-17,2026-02-17,ＲＯＳＨＡＮ　ＥＮＴＥＲＰＲＩＳＥＳ,,外国会社等,大阪府,藤井寺市,道明寺１丁目１９－２４－２０３号,,27,226,5830012,Ｎｏ．５７，Ｂｏｇｈａｈｅｎａ　Ｗａｔｈｔｈａ，Ｈｅｒａｌｉｙａｗａｌａ，Ｋｕｒｕｎｅｇａｌａ，Ｓｒｉ　Ｌａｎｋａ,,,,,,2026-02-17,1,,,,,ロシヤンエンタープライズ,0
1362,6010001262855,新規,0,2026-02-17,2026-02-17,株式会社ｎａｐｏｒｉ,,株式会社,東京都,中央区,銀座１丁目２２番１１号銀座大竹ビジデンス２Ｆ,,13,102,1040061,,,,,,,2026-02-17,1,,,,,ナポリ,0
1363,6010001262896,新規,0,2026-02-17,2026-02-17,株式会社Ｓｅｖｅｎ　Ｕｎｉｖｅｒｓ,,株式会社,東京都,千代田区,岩本町１丁目３番９号ＫＡＮＤＡＨＩＫＯＢＡＥビル５Ｆ,,13,101,1010032,,,,,,,2026-02-17,1,,,,,セブンユニバース,0
1364,6010001262905,新規,0,2026-02-17,2026-02-17,株式会社祖川,,株式会社,東京都,中央区,銀座１丁目２７番８号セントラルビル７０３号,,13,102,1040061,,,,,,,2026-02-17,1,,,,,ソガワ,0
1374,6010003049978,新規,0,2026-02-17,2026-02-17,ねこまた商会合同会社,,合同会社,東京都,文京区,千駄木４丁目１２－３－１１０３,,13,105,1130022,,,,,,,2026-02-17,1,,,,,ネコマタショウカイ,0
1375,6010003050201,新規,0,2026-02-17,2026-02-17,合同会社九華会,,合同会社,東京都,千代田区,隼町２－１２－１０１,,13,101,1020092,,,,,,,2026-02-17,1,,,,,キュウカカイ,0
1376,6010003050374,新規,0,2026-02-17,2026-02-17,合同会社ＥｎＭｅｄｅｌ,,合同会社,東京都,中央区,日本橋室町１丁目１１番１２号日本橋水野ビル７階,,13,102,1030022,,,,,,,2026-02-17,1,,,,,エンメデル,0
1377,6010003050424,新規,0,2026-02-17,2026-02-17,合同会社浅草ホテルＰＪ,,合同会社,東京都,千代田区,霞が関３丁目２番５号,,13,101,1000013,,,,,,,2026-02-17,1,,,,,アサクサホテルピージェイ,0
1378,6010003050432,新規,0,2026-02-17,2026-02-17,シンハコザキ１００合同会社,,合同会社,東京都,千代田区,丸の内１丁目４番１号東京共同会計事務所内,,13,101,1000005,,,,,,,2026-02-17,1,,,,,シンハコザキイチゼロゼロ,0
1380,6010005041396,新規,0,2026-02-17,2026-02-17,トリピックエムエー特定目的会社,,その他の設立登記法人,東京都,千代田区,丸の内１丁目４番１号東京共同会計事務所内,,13,101,1000005,,,,,,,2026-02-17,1,,,,,トリピックエムエー,0
1390,6010401196579,新規,0,2026-02-17,2026-02-17,株式会社ワットラボ,,株式会社,東京都,港区,浜松町２丁目２番１５号浜松町ダイヤビル２Ｆ,,13,103,1050013,,,,,,,2026-02-17,1,,,,,ワットラボ,0
1393,6010403037327,新規,0,2026-02-17,2026-02-17,Ｈａｈｍｍｙ　Ｈｏｓｐｉｔａｌｉｔｙ合同会社,,合同会社,東京都,港区,南麻布４丁目４番１０－４０１号,,13,103,1060047,,,,,,,2026-02-17,1,,,,,ハミホスピタリティ,0
1406,6010601068743,新規,0,2026-02-17,2026-02-17,株式会社ポリティカル・ブリッジ,,株式会社,東京都,江東区,亀戸９丁目１０番１－１３１６号,,13,108,1360071,,,,,,,2026-02-17,1,,,,,ポリティカルブリッジ,0
1410,6010803005726,新規,0,2026-02-17,2026-02-17,合同会社アークセブンプロパティ,,合同会社,東京都,大田区,大森東３丁目２７－１９グリーンハイツ大森東,,13,111,1430012,,,,,,,2026-02-17,1,,,,,アークセブンプロパティ,0
1411,6010803005734,新規,0,2026-02-17,2026-02-17,合同会社アロー,,合同会社,東京都,大田区,鵜の木２丁目３２番８号,,13,111,1460091,,,,,,,2026-02-17,1,,,,,アロー,0
1420,6011001175403,新規,0,2026-02-17,2026-02-17,Ｔｙｓｏｎ＆Ｃｏｍｐａｎｙ株式会社,,株式会社,東京都,渋谷区,大山町４６番１８号,,13,113,1510065,,,,,,,2026-02-17,1,,,,,タイソンアンドカンパニー,0
1421,6011001175519,新規,0,2026-02-17,2026-02-17,株式会社Ｓａｎｔａ,,株式会社,東京都,渋谷区,道玄坂１丁目１０番８号渋谷道玄坂東急ビル２Ｆ―Ｃ,,13,113,1500043,,,,,,,2026-02-17,1,,,,,サンタ,0
1422,6011003023659,新規,0,2026-02-17,2026-02-17,ＡＩＬＥＸ合同会社,,合同会社,東京都,渋谷区,道玄坂１丁目１０―８,,13,113,1500043,,,,,,,2026-02-17,1,,,,,エーアイレックス,0
1423,6011005011364,新規,0,2026-02-17,2026-02-17,一般社団法人日本ランディングページ協会,,その他の設立登記法人,東京都,渋谷区,道玄坂１丁目１０－８渋谷道玄坂東急ビル２Ｆ－Ｃ,,13,113,1500043,,,,,,,2026-02-17,1,,,,,ニホンランディングページキョウカイ,0
1432,6011301031272,新規,0,2026-02-17,2026-02-17,株式会社スピポ,,株式会社,東京都,杉並区,阿佐谷南１丁目３５番２号ＰＰ阿佐ヶ谷ビル４階,,13,115,1660004,,,,,,,2026-02-17,1,,,,,スピポ,0
1441,6012401044148,新規,0,2026-02-17,2026-02-17,株式会社エイト企画,,株式会社,東京都,狛江市,中和泉４丁目３番９号,,13,219,2010012,,,,,,,2026-02-17,1,,,,,エイトキカク,0
1443,6012801024542,新規,0,2026-02-17,2026-02-17,株式会社ＴＥＳＫ,,株式会社,東京都,立川市,上砂町５丁目６０番１号リーベスト立川２２０,,13,202,1900032,,,,,,,2026-02-17,1,,,,,テスク,0
1448,6020001167062,新規,0,2026-02-17,2026-02-17,ステラアセット株式会社,,株式会社,神奈川県,横浜市港北区,富士塚１丁目１９番８号,,14,109,2220012,,,,,,,2026-02-17,1,,,,,ステラアセット,0
1449,6020001167129,新規,0,2026-02-17,2026-02-17,株式会社ＲｅｐｒｏＬｉｎｋｓ,,株式会社,神奈川県,川崎市多摩区,宿河原３丁目１３番８－３号,,14,135,2140021,,,,,,,2026-02-17,1,,,,,リプロリンクス,0
1453,6020003030359,新規,0,2026-02-17,2026-02-17,合同会社ＦＬＩＧＨＴＬＩＮＥ,,合同会社,神奈川県,横浜市中区,初音町２丁目４２－１３－１０１,,14,104,2310053,,,,,,,2026-02-17,1,,,,,フライトライン,0
1455,6021001087556,新規,0,2026-02-17,2026-02-17,株式会社粕谷プロダクション,,株式会社,神奈川県,相模原市南区,大野台７丁目１番５号,,14,153,2520331,,,,,,,2026-02-17,1,,,,,カスヤプロダクション,0
1456,6021001087564,新規,0,2026-02-17,2026-02-17,株式会社ツナグ,,株式会社,神奈川県,鎌倉市,常盤３５番地４,,14,204,2480022,,,,,,,2026-02-17,1,,,,,ツナグ,0
1459,6021003017148,新規,0,2026-02-17,2026-02-17,合同会社ベリット,,合同会社,神奈川県,藤沢市,打戻１６７５番地の２,,14,205,2520824,,,,,,,2026-02-17,1,,,,,ベリット,0
1461,6030001074877,新規,0,2026-02-17,2026-02-17,株式会社小峰建設,,株式会社,埼玉県,川口市,芝３丁目３番１号,,11,203,3330866,,,,,,,2026-02-17,1,,,,,コミネケンセツ,0
1467,6030001171030,新規,0,2026-02-17,2026-02-17,株式会社ＳＳ建設,,株式会社,埼玉県,川口市,差間１丁目１７番３０号,,11,203,3330816,,,,,,,2026-02-17,1,,,,,エスエスケンセツ,0
1468,6030001171055,新規,0,2026-02-17,2026-02-17,株式会社アクア,,株式会社,埼玉県,川越市,大手町４番地５－３０７号室,,11,201,3500057,,,,,,,2026-02-17,1,,,,,アクア,0
1469,6030001171071,新規,0,2026-02-17,2026-02-17,株式会社アクセルホールディングス,,株式会社,埼玉県,蕨市,中央６丁目６番４号,,11,223,3350004,,,,,,,2026-02-17,1,,,,,アクセルホールディングス,0
1474,6030003028658,新規,0,2026-02-17,2026-02-17,池乃樹合同会社,,合同会社,埼玉県,川越市,六軒町１丁目２１番地２,,11,201,3500041,,,,,,,2026-02-17,1,,,,,イケノキ,0
1477,6040005023045,新規,0,2026-02-17,2026-02-17,医療法人社団ながつき,,その他の設立登記法人,千葉県,松戸市,常盤平１丁目８番地２階,,12,207,2702261,,,,,,,2026-02-17,1,,,,,ナガツキ,0
1483,6050003009945,新規,0,2026-02-17,2026-02-17,合同会社基ゐ家,,合同会社,茨城県,稲敷郡阿見町,本郷１丁目１９番地７,,08,443,3001159,,,,,,,2026-02-17,1,,,,,キイチ,0
1484,6060001039002,新規,0,2026-02-17,2026-02-17,大協リバブル株式会社,,株式会社,栃木県,足利市,永楽町９番地５,,09,202,3260055,,,,,,,2026-02-17,1,,,,,ダイキョウリバブル,0
1485,6060001039010,新規,0,2026-02-17,2026-02-17,ＭＯＮＫＥＹＢＡＳＥ株式会社,,株式会社,栃木県,栃木市,樋ノ口町４９４番地１,,09,203,3280024,,,,,,,2026-02-17,1,,,,,モンキーベース,0
1486,6070001043837,新規,0,2026-02-17,2026-02-17,株式会社リンクロス,,株式会社,群馬県,高崎市,本町１１８番地２,,10,202,3700813,,,,,,,2026-02-17,1,,,,,リンクロス,0
1492,6080001027426,新規,0,2026-02-17,2026-02-17,株式会社ＦＫＳピクチャーズ,,株式会社,静岡県,静岡市駿河区,大谷３丁目２３番１０号,,22,102,4228017,,,,,,,2026-02-17,1,,,,,エフケイエスピクチャーズ,0
1493,6080005007762,新規,0,2026-02-17,2026-02-17,一般社団法人グッドセンス,,その他の設立登記法人,静岡県,静岡市清水区,追分４丁目２２８７番地の１,,22,103,4240841,,,,,,,2026-02-17,1,,,,,グッドセンス,0
1495,6080101026088,新規,0,2026-02-17,2026-02-17,株式会社グローバルウェル,,株式会社,静岡県,沼津市,大岡２４７９番地の２,,22,203,4100022,,,,,,,2026-02-17,1,,,,,グローバルウェル,0
1496,6080103003531,新規,0,2026-02-17,2026-02-17,合同会社ＭＡＴＥＲＩＡＬＩＺＥ,,合同会社,静岡県,駿東郡長泉町,上土狩７０９番地の１０,,22,342,4110941,,,,,,,2026-02-17,1,,,,,マテリアライズ,0
1517,6120001284021,新規,0,2026-02-17,2026-02-17,株式会社ＳＬＡＳＨ,,株式会社,大阪府,大阪市北区,堂島浜１丁目４番４号アクア堂島フォンターナ３階,,27,127,5300004,,,,,,,2026-02-17,1,,,,,スラッシュ,0
1518,6120001284186,新規,0,2026-02-17,2026-02-17,株式会社和の旨みラボ,,株式会社,大阪府,大阪市天王寺区,上汐３丁目２番１６号アリビオ上本町１階,,27,109,5430002,,,,,,,2026-02-17,1,,,,,ワノウマミラボ,0
1519,6120001284228,新規,0,2026-02-17,2026-02-17,リルコエージェンシー株式会社,,株式会社,大阪府,大阪市中央区,上町１丁目１番２３－３０２号,,27,128,5400005,,,,,,,2026-02-17,1,,,,,リルコエージェンシー,0
1529,6120103006991,新規,0,2026-02-17,2026-02-17,合同会社Ｍｉｌｌｅｎｎｉｕｍ,,合同会社,大阪府,和泉市,今福町２丁目５番１７号,,27,219,5940063,,,,,,,2026-02-17,1,,,,,ミレニアム,0
1534,6120903006084,新規,0,2026-02-17,2026-02-17,Ｌｕｖｉｔ合同会社,,合同会社,大阪府,茨木市,新郡山２丁目２６番郡山団地Ａ２６－３０６号,,27,211,5670074,,,,,,,2026-02-17,1,,,,,ラヴィット,0
1535,6120905006850,新規,0,2026-02-17,2026-02-17,一般財団法人佐久川平和共生財団,,その他の設立登記法人,大阪府,高槻市,城北町２丁目１１番１７号,,27,207,5690071,,,,,,,2026-02-17,1,,,,,サクガワヘイワキョウセイザイダン,0
1539,6130001081624,新規,0,2026-02-17,2026-02-17,株式会社ＭＩＬＡＣＴ,,株式会社,京都府,京都市下京区,中堂寺粟田町９３ＫＲＰ４号館,,26,106,6008815,,,,,,,2026-02-17,1,,,,,ミラクト,0
1542,6140001050339,新規,0,2026-02-17,2026-02-17,日本ハウス株式会社,,株式会社,兵庫県,尼崎市,南塚口町６丁目１０番４５号,,28,202,6610012,,,,,,,2026-02-17,1,,,,,ニホンハウス,0
1543,6140001141740,新規,0,2026-02-17,2026-02-17,株式会社ｕｋＷｏｒｋｓ,,株式会社,兵庫県,尼崎市,武庫之荘１丁目３番４号,,28,202,6610035,,,,,,,2026-02-17,1,,,,,ユーケーワークス,0
1544,6140001141749,新規,0,2026-02-17,2026-02-17,株式会社エスティ建築設備,,株式会社,兵庫県,尼崎市,潮江１丁目１３番９号ラメゾンドゥヨシムラＩＩ６Ａ号室,00142590,28,202,6610976,,,,,,,2026-02-17,1,,,,,エスティケンチクセツビ,0
1545,6140001141765,新規,0,2026-02-17,2026-02-17,株式会社デクタ,,株式会社,兵庫県,明石市,大久保町ゆりのき通２丁目５０－６－Ａ１１５,,28,203,6740068,,,,,,,2026-02-17,1,,,,,デクタ,0
1546,6140001141773,新規,0,2026-02-17,2026-02-17,ＵＮＩＴＥ　ＶＥＩＬ株式会社,,株式会社,兵庫県,西宮市,甲子園四番町４番２４－２号,,28,204,6638174,,,,,,,2026-02-17,1,,,,,ユナイトヴェール,0
1548,6150001028722,新規,0,2026-02-17,2026-02-17,株式会社風致,,株式会社,奈良県,吉野郡十津川村,大字神下４０５,,29,449,6471581,,,,,,,2026-02-17,1,,,,,フウチ,0
1552,6170001018977,新規,0,2026-02-17,2026-02-17,株式会社Ａｕｒｉ,,株式会社,和歌山県,和歌山市,八番丁９パーク県信ビル２１７－３,,30,201,6408157,,,,,,,2026-02-17,1,,,,,オーリ,0
1576,6200001044722,新規,0,2026-02-17,2026-02-17,株式会社ボガード,,株式会社,岐阜県,岐阜市,長良福光１３番地２,,21,201,5020817,,,,,,,2026-02-17,1,,,,,ボガード,0
1578,6220001027163,新規,0,2026-02-17,2026-02-17,株式会社三宅ハウス,,株式会社,石川県,かほく市,高松キ７番地１,,17,209,9291215,,,,,,,2026-02-17,1,,,,,ミヤケハウス,0
1579,6220001027171,新規,0,2026-02-17,2026-02-17,株式会社ＳＡＫＵＲＡ　ＢＯＥＫＩ,,株式会社,石川県,金沢市,彦三町１丁目２－１,,17,201,9200901,,,,,,,2026-02-17,1,,,,,サクラボウエキ,0
1580,6220003004227,新規,0,2026-02-17,2026-02-17,合同会社一匠,,合同会社,石川県,白山市,みずほ４丁目４番地６,,17,210,9240822,,,,,,,2026-02-17,1,,,,,イッショウ,0
1584,6240003007608,新規,0,2026-02-17,2026-02-17,合同会社ＣＡＳＡＳ,,合同会社,広島県,尾道市,瀬戸田町瀬戸田３０番６号,,34,205,7222411,,,,,,,2026-02-17,1,,,,,,0
1585,6260001040988,新規,0,2026-02-17,2026-02-17,株式会社アイアルケア和,,株式会社,岡山県,岡山市中区,東川原１８４番地３コンフォートケヤキ４０２,,33,102,7038255,,,,,,,2026-02-17,1,,,,,アイアルケアナゴミ,0
1593,6290001113163,新規,0,2026-02-17,2026-02-17,株式会社ＭＡＲＵＧＡＭＩ,,株式会社,福岡県,那珂川市,大字山田１００１番地１,,40,231,8111244,,,,,,,2026-02-17,1,,,,,マルガミ,0
1594,6290001113171,新規,0,2026-02-17,2026-02-17,株式会社Ｐｌａｉｎ　Ｃｏｎｎｅｃｔ,,株式会社,福岡県,福岡市南区,南大橋２丁目３２番１号,,40,134,8150034,,,,,,,2026-02-17,1,,,,,,0
1598,6290003018063,新規,0,2026-02-17,2026-02-17,福岡竹炭合同会社,,合同会社,福岡県,糟屋郡粕屋町,大字大隈３２７－１今井住宅Ａ棟,,40,349,8112302,,,,,,,2026-02-17,1,,,,,フクオカチクタン,0
1605,6290803005277,新規,0,2026-02-17,2026-02-17,合同会社あっぷびーと,,合同会社,福岡県,宮若市,磯光１８２７番地４４１,,40,226,8230004,,,,,,,2026-02-17,1,,,,,アップビート,0
1608,6300005007293,新規,0,2026-02-17,2026-02-17,一般社団法人嬉野コネクションセンター,,その他の設立登記法人,佐賀県,嬉野市,塩田町大字谷所乙５４４番地,,41,209,8491423,,,,,,,2026-02-17,1,,,,,ウレシノコネクションセンター,0
1610,6310005008893,新規,0,2026-02-17,2026-02-17,特定非営利活動法人学童保育つぼみっ子,,その他の設立登記法人,長崎県,諫早市,多良見町中里４０番地２８,,42,204,8590405,,,,,,,2026-02-17,1,,,,,ガクドウホイクツボミッコ,0
1614,6320005010287,新規,0,2026-02-17,2026-02-17,ジョブサポートつくみ協同組合,,その他の設立登記法人,大分県,津久見市,高洲町８番１０号,,44,207,8792412,,,,,,,2026-02-17,1,,,,,ジョブサポートツクミ,0
1620,6340001027977,新規,0,2026-02-17,2026-02-17,株式会社ｍｅｒｃｉ,,株式会社,鹿児島県,霧島市,国分下井３０５１番地２,,46,218,8994463,,,,,,,2026-02-17,1,,,,,メルシー,0
1621,6360001036381,新規,0,2026-02-17,2026-02-17,株式会社ロングライスフィールド,,株式会社,沖縄県,浦添市,城間４丁目８番９－１００５号ライオンズシティ城間,,47,208,9012133,,,,,,,2026-02-17,1,,,,,ロングライスフィールド,0
1625,6390003002494,新規,0,2026-02-17,2026-02-17,ＳｏｌｅＦｉｌ合同会社,,合同会社,山形県,鶴岡市,三和字街道下６３番地５,,06,203,9997634,,,,,,,2026-02-17,1,,,,,ソレフィル,0
1626,6400001017328,新規,0,2026-02-17,2026-02-17,株式会社ＲＡＹＴ,,株式会社,岩手県,盛岡市,茶畑１丁目１番６号グリーンビレッジＣ２０７,,03,201,0200822,,,,,,,2026-02-17,1,,,,,レイト,0
1633,6430001096286,新規,0,2026-02-17,2026-02-17,丸絢小松商店株式会社,,株式会社,北海道,千歳市,梅ケ丘２丁目１５番８号,,01,224,0660025,,,,,,,2026-02-17,1,,,,,マルアヤコマツショウテン,0
1637,6700150048176,新規,0,2026-02-17,2015-10-09,太田自治会,,その他,岐阜県,海津市,南濃町太田３５７,,21,221,5030532,,,,,,,2015-10-09,1,,,,,オオタジチカイ,0
1638,6700150134513,新規,0,2026-02-17,2026-02-17,ＳＨＡＲＰ　ＦＲＯＮＴＩＥＲ　ＥＬＥＣＴＲＯＮＩＣＳ　ＤＥＶＩＣＥ　ＰＴＥ．ＬＴＤ．,,外国会社等,,,,,,,,３９１Ｂ　ＯＲＣＨＡＲＤ　ＲＯＡＤ，♯２１－０６，ＮＧＥＥ　ＡＮＮ　ＣＩＴＹ，ＳＩＮＧＡＰＯＲＥ　２３８８７４,,,,,,2026-02-17,1,,,,,シヤープフロンテイアエレクトロニクスデバイスプライベートリミテツド,0
1639,6700150134521,新規,0,2026-02-17,2026-02-17,ＴｓｕｋｉｍｉｋａｎＬＬＣ,,外国会社等,京都府,京都市伏見区,桃山町泰長老１６０番地４,,26,109,6128034,２５１　Ｌｉｔｔｌｅ　Ｆａｌｌｓ　Ｄｒｉｖｅ，Ｗｉｌｍｉｎｇｔｏｎ，Ｄｅｌａｗａｒｅ　１９８０８，ＵＳＡ,,,,,,2026-02-17,1,,,,,ツキミカンエルエルシー,0
1640,7010001262854,新規,0,2026-02-17,2026-02-17,Ｏｏｔｏｒｉ　Ｐａｒｔｎｅｒｓ株式会社,,株式会社,東京都,千代田区,丸の内１丁目８－２鉄鋼ビルディング４Ｆ,,13,101,1000005,,,,,,,2026-02-17,1,,,,,オオトリパートナーズ,0
1641,7010001262945,新規,0,2026-02-17,2026-02-17,株式会社海澄,,株式会社,東京都,中央区,銀座３丁目７番１３号成田屋ビル６Ｆ,,13,102,1040061,,,,,,,2026-02-17,1,,,,,カイチョウ,0
1647,7010003050407,新規,0,2026-02-17,2026-02-17,合同会社ＯＮＥ,,合同会社,東京都,千代田区,神田和泉町一丁目６番地１６号ヤマトビル４０５,,13,101,1010024,,,,,,,2026-02-17,1,,,,,ワン,0
1648,7010003050431,新規,0,2026-02-17,2026-02-17,アクト合同会社,,合同会社,東京都,千代田区,丸の内１丁目４番１号東京共同会計事務所内,,13,101,1000005,,,,,,,2026-02-17,1,,,,,アクト,0
1649,7010005041379,新規,0,2026-02-17,2026-02-17,一般社団法人ＣＰＴ‐Ｊａｐａｎ,,その他の設立登記法人,東京都,文京区,白山５丁目２８番２０号東洋大学片柳章子研究室,,13,105,1120001,,,,,,,2026-02-17,1,,,,,シーピーティージャパン,0
1650,7010005041404,新規,0,2026-02-17,2026-02-17,シンハコザキ１００一般社団法人,,その他の設立登記法人,東京都,千代田区,丸の内１丁目４番１号東京共同会計事務所内,,13,101,1000005,,,,,,,2026-02-17,1,,,,,シンハコザキイチゼロゼロ,0
1651,7010101017092,新規,0,2026-02-17,2026-02-17,Ｆｒｅｅ　Ｓｔｙｌｅ株式会社,,株式会社,東京都,八王子市,横山町１１番２号ＡＳ八王子ビル５階－Ｂ,,13,201,1920081,,,,,,,2026-02-17,1,,,,,フリースタイル,0
1653,7010401196487,新規,0,2026-02-17,2026-02-17,ジェットワンテクノロジージャパン株式会社,,株式会社,東京都,港区,三田１丁目２番１８号ＴＴＤビル,,13,103,1080073,,,,,,,2026-02-17,1,,,,,,0
1654,7010401196586,新規,0,2026-02-17,2026-02-17,エブリネクス株式会社,,株式会社,東京都,港区,赤坂２丁目２０－４ＤＡＭ赤坂ビル２Ｆ,,13,103,1070052,,,,,,,2026-02-17,1,,,,,エブリネクス,0
1655,7010401196652,新規,0,2026-02-17,2026-02-17,ＩＴＳＰ株式会社,,株式会社,東京都,港区,北青山２丁目５番１号,,13,103,1070061,,,,,,,2026-02-17,1,,,,,アイティーエスピー,0
1660,7010403037284,新規,0,2026-02-17,2026-02-17,合同会社ＫＩＲＯＫＵ,,合同会社,東京都,港区,北青山１丁目３－３三橋ビル３Ｆ,,13,103,1070061,,,,,,,2026-02-17,1,,,,,,0
1661,7010403037318,新規,0,2026-02-17,2026-02-17,コーナーストーン合同会社,,合同会社,東京都,港区,六本木１丁目９番１０号アークヒルズ仙石山森タワー４０階,,13,103,1060032,,,,,,,2026-02-17,1,,,,,コーナーストーン,0
1670,7010601068718,新規,0,2026-02-17,2026-02-17,ＳＫＣ株式会社,,株式会社,東京都,墨田区,錦糸３丁目２番１号アルカイースト１２Ｆ,,13,107,1300013,,,,,,,2026-02-17,1,,,,,エスケーシー,0
1671,7010601068742,新規,0,2026-02-17,2026-02-17,Ｏｋｈｏｔｓｋ　Ｌｏｇｉｓｔｉｃｓ株式会社,,株式会社,東京都,江東区,大島１丁目２番１－２４０７号,,13,108,1360072,,,,,,,2026-02-17,1,,,,,オホーツクロジスティクス,0
1673,7010603012079,新規,0,2026-02-17,2026-02-17,合同会社Ｘ　ＡＲＴＳ,,合同会社,東京都,江東区,牡丹３丁目２４番６－１０３号,,13,108,1350046,,,,,,,2026-02-17,1,,,,,バイアーツ,0
1675,7010801037043,新規,0,2026-02-17,2026-02-17,株式会社ふく,,株式会社,東京都,大田区,西糀谷２丁目１１番５号,,13,111,1440034,,,,,,,2026-02-17,1,,,,,フク,0
1676,7010803005717,新規,0,2026-02-17,2026-02-17,合同会社志野,,合同会社,東京都,大田区,西馬込１丁目２－１５－３０３,,13,111,1430026,,,,,,,2026-02-17,1,,,,,シノ,0
1682,7011001175278,新規,0,2026-02-17,2026-02-17,株式会社セカイワ,,株式会社,東京都,渋谷区,神南１丁目１１番４号ＦＰＧｌｉｎｋｓＪＩＮＮＡＮ５階,,13,113,1500041,,,,,,,2026-02-17,1,,,,,セカイワ,0
1684,7011003023253,新規,0,2026-02-17,2026-02-17,コンチネンタルイノベーションジャパン合同会社,,合同会社,東京都,渋谷区,道玄坂１丁目１０番８号渋谷道玄坂東急ビル２Ｆ―Ｃ,,13,113,1500043,,,,,,,2026-02-17,1,,,,,コンチネンタルイノベーションジャパン,0
1685,7011003023641,新規,0,2026-02-17,2026-02-17,合同会社ＧＡＳＡ,,合同会社,東京都,渋谷区,円山町５番３号ＭＩＥＵＸ渋谷ビル８階,,13,113,1500044,,,,,,,2026-02-17,1,,,,,ガサ,0
1708,7012401044139,新規,0,2026-02-17,2026-02-17,株式会社Ｂａｒｒａｖｅｎｔｏ,,株式会社,東京都,府中市,清水が丘２丁目４３番地の２ヴィル清水ヶ丘１０８,,13,206,1830015,,,,,,,2026-02-17,1,,,,,バラヴェント,0
1717,7013301055754,新規,0,2026-02-17,2026-02-17,株式会社ＴＡＫＥ４,,株式会社,東京都,豊島区,雑司が谷１丁目４８番２２号,,13,116,1710032,,,,,,,2026-02-17,1,,,,,テイクフォー,0
1722,7020001167103,新規,0,2026-02-17,2026-02-17,株式会社エールワークス,,株式会社,神奈川県,横浜市都筑区,茅ケ崎中央３０番１６号,,14,118,2240032,,,,,,,2026-02-17,1,,,,,エールワークス,0
1723,7020001167160,新規,0,2026-02-17,2026-02-17,株式会社ＮｅｘｔＳｙｎｅｘ,,株式会社,神奈川県,横浜市鶴見区,鶴見中央１丁目７番１１－６０４号,,14,101,2300051,,,,,,,2026-02-17,1,,,,,ネクストシネックス,0
1730,7020003030358,新規,0,2026-02-17,2026-02-17,合同会社ＴＯＫＩ,,合同会社,神奈川県,川崎市麻生区,万福寺３丁目１２番２－８０２号,,14,137,2150004,,,,,,,2026-02-17,1,,,,,トキ,0
1732,7021001087555,新規,0,2026-02-17,2026-02-17,株式会社テックイミデン,,株式会社,神奈川県,相模原市南区,新磯野１丁目１７番１号,,14,153,2520325,,,,,,,2026-02-17,1,,,,,テックイミデン,0
1733,7021001087563,新規,0,2026-02-17,2026-02-17,株式会社Ｓ．Ｍ,,株式会社,神奈川県,平塚市,馬入１９４８番地,,14,203,2540023,,,,,,,2026-02-17,1,,,,,エスエム,0
1735,7021003017089,新規,0,2026-02-17,2026-02-17,合同会社ライフレシオ,,合同会社,神奈川県,伊勢原市,高森３丁目４番２２号ＡＺＴＯ伊勢原Ａ棟,,14,214,2591114,,,,,,,2026-02-17,1,,,,,ライフレシオ,0
1739,7030001171013,新規,0,2026-02-17,2026-02-17,株式会社未来クリエイト,,株式会社,埼玉県,さいたま市緑区,原山１丁目２７番６号,,11,109,3360931,,,,,,,2026-02-17,1,,,,,ミライクリエイト,0
1740,7030001171021,新規,0,2026-02-17,2026-02-17,株式会社ＴＡＫＥＹＯ,,株式会社,埼玉県,行田市,門井町１丁目１００番地１,,11,206,3610044,,,,,,,2026-02-17,1,,,,,タケヨ,0
1741,7030001171038,新規,0,2026-02-17,2026-02-17,株式会社ｎｅｇｉｍａ,,株式会社,埼玉県,さいたま市南区,辻２丁目２１番２０号,00142595,11,108,3360026,,,,,,,2026-02-17,1,,,,,ネギマ,0
1742,7030001171054,新規,0,2026-02-17,2026-02-17,株式会社ＥＪＭ,,株式会社,埼玉県,さいたま市桜区,田島４丁目３６‐１６‐１０２,,11,106,3380837,,,,,,,2026-02-17,1,,,,,イージェーエム,0
1745,7030003028624,新規,0,2026-02-17,2026-02-17,合同会社地域ＤＸラボ,,合同会社,埼玉県,さいたま市大宮区,桜木町２丁目３番地大宮マルイ７階,,11,103,3300854,,,,,,,2026-02-17,1,,,,,チイキディーエックスラボ,0
1746,7030003028665,新規,0,2026-02-17,2026-02-17,合同会社ソリューション・ラボ,,合同会社,埼玉県,狭山市,新狭山２丁目３番地の４ライオンズプラザ新狭山３０２,,11,215,3501331,,,,,,,2026-02-17,1,,,,,ソリューションラボ,0
1753,7040001142491,新規,0,2026-02-17,2026-02-17,株式会社ブレイブシード,,株式会社,千葉県,千葉市若葉区,殿台町４２０番地２,,12,104,2640036,,,,,,,2026-02-17,1,,,,,ブレイブシード,0
1755,7040005023028,新規,0,2026-02-17,2026-02-17,ＮＰＯ法人東習志野フットボールクラブ,,その他の設立登記法人,千葉県,船橋市,松が丘３丁目１６番２号,,12,204,2740064,,,,,,,2026-02-17,1,,,,,ヒガシナラシノフットボールクラブ,0
1759,7050003009911,新規,0,2026-02-17,2026-02-17,合同会社スマートトランスポーター,,合同会社,茨城県,常総市,岡田５０１,,08,211,3002743,,,,,,,2026-02-17,1,,,,,スマートトランスポーター,0
1762,7070001043836,新規,0,2026-02-17,2026-02-17,株式会社ＭａｎｏＬｉｎｋ　Ｍ,,株式会社,群馬県,高崎市,小八木町３１２番地１５ビジネスパーク小八木２Ｆ,,10,202,3700071,,,,,,,2026-02-17,1,,,,,マノリンクエム,0
1764,7080001027425,新規,0,2026-02-17,2026-02-17,共生株式会社,,株式会社,静岡県,静岡市駿河区,大谷３丁目２３番１０号,,22,102,4228017,,,,,,,2026-02-17,1,,,,,キョウセイ,0
1765,7080003003655,新規,0,2026-02-17,2026-02-17,合同会社ドリームブリーダーズ,,合同会社,静岡県,静岡市駿河区,西中原２丁目７番６３号メゾン西中原８０６,,22,102,4228053,,,,,,,2026-02-17,1,,,,,ドリームブリーダーズ,0
1769,7090001019743,新規,0,2026-02-17,2026-02-17,外国人総合支援株式会社,,株式会社,山梨県,甲府市,丸の内２丁目２番１号,,19,201,4000031,,,,,,,2026-02-17,1,,,,,ガイコクジンソウゴウシエン,0
1773,7100001039343,新規,0,2026-02-17,2026-02-17,鎌倉電気工事株式会社,,株式会社,長野県,諏訪郡原村,５４５５番地２,,20,363,3910100,,,,,,,2026-02-17,1,,,,,カマクラデンキコウジ,0
1775,7100005013451,新規,0,2026-02-17,2026-02-17,特定非営利活動法人ＧＯＯＤ　ＦＯＲＥＳＴ,,その他の設立登記法人,長野県,小諸市,大字菱平１７６番地３１,,20,208,3840041,,,,,,,2026-02-17,1,,,,,グッドフォレスト,0
1776,7110001039904,新規,0,2026-02-17,2026-02-17,株式会社天池家,,株式会社,新潟県,柏崎市,長浜町８番３９号ＳＫビル２Ｆ,,15,205,9450042,,,,,,,2026-02-17,1,,,,,アマイケヤ,0
1789,7120001283724,新規,0,2026-02-17,2026-02-17,株式会社Ｋ２コンサルティング,,株式会社,大阪府,大阪市中央区,南本町２丁目５番１３－２００２号,,27,128,5410054,,,,,,,2026-02-17,1,,,,,ケーツーコンサルティング,0
1790,7120001284210,新規,0,2026-02-17,2026-02-17,日昇株式会社,,株式会社,大阪府,大阪市浪速区,敷津西２丁目７番５号グランヴァレ１０１,,27,111,5560015,,,,,,,2026-02-17,1,,,,,ニッショウ,0
1791,7120001284243,新規,0,2026-02-17,2026-02-17,株式会社ＳＹＵＩＤ　ＰＬＵＳ,,株式会社,大阪府,大阪市東住吉区,東田辺１丁目１７番２号,,27,121,5460032,,,,,,,2026-02-17,1,,,,,シュアイディープラス,0
1795,7120003031916,新規,0,2026-02-17,2026-02-17,オスメックビジネスコンサルティング合同会社,,合同会社,大阪府,大阪市住吉区,長居東４丁目２番３号２階２Ｅ,,27,120,5580004,,,,,,,2026-02-17,1,,,,,オスメックビジネスコンサルティング,0
1797,7120005025420,新規,0,2026-02-17,2026-02-17,一般社団法人ＳＥＥＤＳ,,その他の設立登記法人,大阪府,大阪市東住吉区,針中野４丁目４番３号,,27,121,5460011,,,,,,,2026-02-17,1,,,,,シーズ,0
1798,7120101073208,新規,0,2026-02-17,2026-02-17,福禄寿株式会社,,株式会社,大阪府,松原市,東新町２丁目２１２番地,,27,217,5800024,,,,,,,2026-02-17,1,,,,,フクロクジュ,0
1812,7140001141756,新規,0,2026-02-17,2026-02-17,株式会社ＵＴＳＵＲＯＩ,,株式会社,兵庫県,豊岡市,正法寺４８０番地の２５,,28,209,6680063,,,,,,,2026-02-17,1,,,,,ウツロイ,0
1813,7140001141772,新規,0,2026-02-17,2026-02-17,株式会社共伸,,株式会社,兵庫県,姫路市,御国野町国分寺５９番地１,,28,201,6710234,,,,,,,2026-02-17,1,,,,,キョウシン,0
1815,7140003023201,新規,0,2026-02-17,2026-02-17,合同会社Ｌｉｅｎグループ,,合同会社,兵庫県,加古川市,野口町長砂６４４番地の１９,,28,210,6750016,,,,,,,2026-02-17,1,,,,,リアングループ,0
1816,7140003023218,新規,0,2026-02-17,2026-02-17,合同会社ＬＵＭＩＮＡ,,合同会社,兵庫県,宝塚市,平井４丁目１９－１４,,28,214,6650816,,,,,,,2026-02-17,1,,,,,ルミナ,0
1818,7150001028738,新規,0,2026-02-17,2026-02-17,株式会社ダイユウ企画,,株式会社,奈良県,葛城市,平岡２１５番地５,,29,211,6392136,,,,,,,2026-02-17,1,,,,,ダイユウキカク,0
1830,7200003007230,新規,0,2026-02-17,2026-02-17,ＦａｓｔＰａｔｈ合同会社,,合同会社,岐阜県,可児市,下恵土２８４３番９４ハイツ杉松３０１,,21,214,5090203,,,,,,,2026-02-17,1,,,,,ファストパス,0
1831,7210001020498,新規,0,2026-02-17,2026-02-17,晴レ家カンパニー株式会社,,株式会社,福井県,坂井市,三国町北本町１丁目３－１９,,18,210,9130046,,,,,,,2026-02-17,1,,,,,ハレイエカンパニー,0
1833,7230001021305,新規,0,2026-02-17,2026-02-17,タカリョー株式会社,,株式会社,富山県,富山市,黒崎２６８番地,,16,201,9398214,,,,,,,2026-02-17,1,,,,,タカリョー,0
1837,7240003007607,新規,0,2026-02-17,2026-02-17,合同会社コジティム,,合同会社,広島県,福山市,大黒町１‐３３,,34,207,7200053,,,,,,,2026-02-17,1,,,,,コジティム,0
1842,7280001009584,新規,0,2026-02-17,2026-02-17,株式会社Ｌｉｖｅｎ　ｕｐ,,株式会社,島根県,安来市,西恵乃島町８３７番地３０,,32,206,6920058,,,,,,,2026-02-17,1,,,,,リベンアップ,0
1847,7290001113162,新規,0,2026-02-17,2026-02-17,株式会社ＴＡＭＡＴＥＢＡＫＯ,,株式会社,福岡県,福岡市中央区,警固２丁目１１番１０－３０７号室,,40,133,8100023,,,,,,,2026-02-17,1,,,,,タマテバコ,0
1852,7290003018062,新規,0,2026-02-17,2026-02-17,アミクス合同会社,,合同会社,福岡県,福岡市東区,西戸崎６丁目１番５号,,40,131,8110321,,,,,,,2026-02-17,1,,,,,アミクス,0
1861,7330001033975,新規,0,2026-02-17,2026-02-17,株式会社ＭＩＮＵ,,株式会社,熊本県,菊池郡菊陽町,大字津久礼１９８２番地２３,,43,404,8691101,,,,,,,2026-02-17,1,,,,,ミヌ,0
1865,7340001000751,新規,0,2026-02-17,2026-02-17,株式会社修工務店,,株式会社,鹿児島県,鹿児島市,紫原１丁目２番４０号,,46,201,8900082,,,,,,,2026-02-17,1,,,,,シュウコウムテン,0
1866,7340001027976,新規,0,2026-02-17,2026-02-17,株式会社ＮＡＮＡＳＥ,,株式会社,鹿児島県,鹿児島市,原良２丁目６番３号,,46,201,8900026,,,,,,,2026-02-17,1,,,,,ナナセ,0
1867,7350001019948,新規,0,2026-02-17,2026-02-17,株式会社ＥｐｉｃＶｅｎｔｕｒｅ,,株式会社,宮崎県,宮崎市,大島町笹原２０１８日神パレステージ宮崎３０１,,45,201,8800824,,,,,,,2026-02-17,1,,,,,エピックベンチャー,0
1878,7380005013069,新規,0,2026-02-17,2026-02-17,一般社団法人二本松風の家,,その他の設立登記法人,福島県,二本松市,表１丁目４８４番地３,,07,210,9640901,,,,,,,2026-02-17,1,,,,,ニホンマツカゼノイエ,0
1885,7430001096244,新規,0,2026-02-17,2026-02-17,株式会社ＲＳＧ,,株式会社,北海道,札幌市白石区,本郷通５丁目南３番７－６０３号,,01,104,0030024,,,,,,,2026-02-17,1,,,,,アールエスジー,0
1889,7480005007127,新規,0,2026-02-17,2026-02-17,一般社団法人みんなの森管理協議会,,その他の設立登記法人,徳島県,徳島市,上八万町上中筋５５９番地の２,,36,201,7708040,,,,,,,2026-02-17,1,,,,,ミンナノモリカンリキョウギカイ,0
1891,7700150134512,新規,0,2026-02-17,2026-02-17,ＨＩＬＬ　ＳＴＥＰ　ＬＩＭＩＴＥＤ,,外国会社等,,,,,,,,Ｓｕｉｔｅ３０９，Ｃａｐｉｔａｌ　Ｃｉｔｙ　Ｂｕｉｌｄｉｎｇ，Ｉｎｄｅｐｅｎｄｅｎｃｅ　Ａｖｅｎｕｅ，Ｖｉｃｔｏｒｉａ，Ｍａｈｅ，Ｒｅｐｕｂｌｉｃ　ｏｆ　Ｓｅｙｃｈｅｌｌｅｓ,,,,,,2026-02-17,1,,,,,ヒルステツプリミテツド,0
1892,7700150134520,新規,0,2026-02-17,2026-02-17,Ａｅｒｏｍｉｎｄ　ＬＬＣ,,外国会社等,,,,,,,,５４２５　Ｗ　８４ｔｈ　Ｓｔ．Ｉｎｄｉａｎａｐｏｌｉｓ，ＩＮ，４６２６８．ＵＳＡ,,,,,,2026-02-17,1,,,,,エアロマインドエルエルシー,0
1899,8010001262787,新規,0,2026-02-17,2026-02-17,株式会社ｃｈｉｌｌａｘ,,株式会社,東京都,千代田区,神田佐久間町１丁目１６－１大橋ビル５０３,,13,101,1010025,,,,,,,2026-02-17,1,,,,,チラックス,0
1900,8010003050397,新規,0,2026-02-17,2026-02-17,合同会社真如庵,,合同会社,東京都,千代田区,神田須田町１丁目７番地８ＶＯＲＴ秋葉原ＩＶ２Ｆ,00142597,13,101,1010041,,,,,,,2026-02-17,1,,,,,シンニョアン,0
1901,8010003050406,新規,0,2026-02-17,2026-02-17,ＮＥＸＴＤＣ合同会社,,合同会社,東京都,千代田区,丸の内３丁目２番２号,,13,101,1000005,,,,,,,2026-02-17,1,,,,,ネクストディーシー,0
1902,8010005041196,新規,0,2026-02-17,2026-02-17,一般社団法人コラボカフェ協会,,その他の設立登記法人,東京都,中央区,銀座１丁目１２番４号Ｎ＆ＥＢＬＤ．６Ｆ,,13,102,1040061,,,,,,,2026-02-17,1,,,,,コラボカフェキョウカイ,0
1903,8010005041337,新規,0,2026-02-17,2026-02-17,しえんＨ．Ｒパートナーズ社会保険労務士法人,,その他の設立登記法人,東京都,千代田区,四番町２番地１クレール東郷坂１Ｆ,,13,101,1020081,,,,,,,2026-02-17,1,,,,,シエンエイチアールパートナーズ,0
1904,8010005041403,新規,0,2026-02-17,2026-02-17,アクト一般社団法人,,その他の設立登記法人,東京都,千代田区,丸の内１丁目４番１号東京共同会計事務所内,,13,101,1000005,,,,,,,2026-02-17,1,,,,,アクト,0
1914,8010401196445,新規,0,2026-02-17,2026-02-17,株式会社Ｄｉｖｅｒｓｅ　Ｎｅｘｕｓ,,株式会社,東京都,港区,六本木６丁目１０－１六本木ヒルズ森タワー１６階,,13,103,1060032,,,,,,,2026-02-17,1,,,,,ダイバースネクサス,0
1915,8010401196511,新規,0,2026-02-17,2026-02-17,株式会社ｋｉｓｍｅｔ,,株式会社,東京都,港区,新橋２丁目２－３ル・グラシエルＢＬＤＧ．２８,,13,103,1050004,,,,,,,2026-02-17,1,,,,,キスメット,0
1916,8010401196528,新規,0,2026-02-17,2026-02-17,株式会社いろ,,株式会社,東京都,港区,芝４丁目１６番１－８０９号,,13,103,1080014,,,,,,,2026-02-17,1,,,,,イロ,0
1917,8010401196577,新規,0,2026-02-17,2026-02-17,アーカイド株式会社,,株式会社,東京都,港区,浜松町２丁目２番１５号浜松町ダイヤビル２Ｆ,,13,103,1050013,,,,,,,2026-02-17,1,,,,,アーカイド,0
1918,8010401196593,新規,0,2026-02-17,2026-02-17,ＭＰ‐２６０５株式会社,,株式会社,東京都,港区,虎ノ門２丁目６番１号,,13,103,1050001,,,,,,,2026-02-17,1,,,,,エムピーニーロクゼロゴ,0
1919,8010401196627,新規,0,2026-02-17,2026-02-17,株式会社ＣＩＲＵＥＬＡ産業医事務所,,株式会社,東京都,港区,南青山３丁目１番３６号青山丸竹ビル６Ｆ,,13,103,1070062,,,,,,,2026-02-17,1,,,,,シルエラサンギョウイジムショ,0
1932,8010601068709,新規,0,2026-02-17,2026-02-17,ＧＩＬＴＥＸパートナーズ株式会社,,株式会社,東京都,江東区,千石２丁目５番１０号,,13,108,1350015,,,,,,,2026-02-17,1,,,,,ギルテックスパートナーズ,0
1933,8010601068758,新規,0,2026-02-17,2026-02-17,株式会社ＨＡＮＥＮＯＴＥ,,株式会社,東京都,墨田区,錦糸４丁目１番２６－９０５号,,13,107,1300013,,,,,,,2026-02-17,1,,,,,ハネノート,0
1934,8010601068766,新規,0,2026-02-17,2026-02-17,株式会社ＤＯＴＳ,,株式会社,東京都,江東区,木場６丁目１０番８－２０２号,,13,108,1350042,,,,,,,2026-02-17,1,,,,,ドッツ,0
1947,8010801037067,新規,0,2026-02-17,2026-02-17,株式会社リクシア,,株式会社,東京都,大田区,池上７丁目２－７,,13,111,1460082,,,,,,,2026-02-17,1,,,,,リクシア,0
1959,8011001175509,新規,0,2026-02-17,2026-02-17,株式会社ＯＲＶＩＮＣＩＡ,,株式会社,東京都,渋谷区,道玄坂１丁目１０番８号渋谷道玄坂東急ビル２Ｆ－Ｃ,,13,113,1500043,,,,,,,2026-02-17,1,,,,,オーヴィンシア,0
1960,8011001175616,新規,0,2026-02-17,2026-02-17,株式会社Ａ２Ｚ,,株式会社,東京都,渋谷区,道玄坂１丁目１０番８号渋谷道玄坂東急ビル２Ｆ－Ｃ,,13,113,1500043,,,,,,,2026-02-17,1,,,,,エートゥーゼット,0
1961,8011001175780,新規,0,2026-02-17,2026-02-17,株式会社Ｅｐｉｃｕｒｅａｎ,,株式会社,東京都,渋谷区,猿楽町２４番７号代官山プラザ１４０１,,13,113,1500033,,,,,,,2026-02-17,1,,,,,エピキュリアン,0
1970,8011101114770,新規,0,2026-02-17,2026-02-17,株式会社ＨＪＪＪ,,株式会社,東京都,新宿区,西新宿３丁目３番１３号西新宿水間ビル６階,,13,104,1600023,,,,,,,2026-02-17,1,,,,,エイチジェイジェイジェイ,0
1975,8011301031262,新規,0,2026-02-17,2026-02-17,Ａｌｉｔ　Ｔ　Ｊａｐａｎ株式会社,,株式会社,東京都,杉並区,堀ノ内３丁目４６番２号新高円寺ダイカンプラザＣｉｔｙ２０１,,13,115,1660013,,,,,,,2026-02-17,1,,,,,アリットティジャパン,0
1976,8011301031270,新規,0,2026-02-17,2026-02-17,株式会社ライフマップ,,株式会社,東京都,杉並区,善福寺２丁目１６番１１号,,13,115,1670041,,,,,,,2026-02-17,1,,,,,ライフマップ,0
1979,8011501033109,新規,0,2026-02-17,2026-02-17,株式会社めぐりの,,株式会社,東京都,北区,上十条４丁目９番１９号,,13,117,1140034,,,,,,,2026-02-17,1,,,,,メグリノ,0
1983,8011701029170,新規,0,2026-02-17,2026-02-17,Ｈｉｒｏ　ｏｎｅ株式会社,,株式会社,東京都,江戸川区,瑞江１丁目２９番１１号プレミアムガレージハウス江戸川区瑞江ＢＡＳＥＢ号室,,13,123,1320011,,,,,,,2026-02-17,1,,,,,ヒロワン,0
1985,8011801047452,新規,0,2026-02-17,2026-02-17,豊益株式会社,,株式会社,東京都,葛飾区,西新小岩４丁目１６番１１－２１０号ライオンズマンション西新小岩,,13,122,1240025,,,,,,,2026-02-17,1,,,,,トヨマス,0
1988,8012401044121,新規,0,2026-02-17,2026-02-17,アンノウンバーズ株式会社,,株式会社,東京都,三鷹市,大沢３丁目１１番１１号,,13,204,1810015,,,,,,,2026-02-17,1,,,,,アンノウンバーズ,0
1989,8013101009934,新規,0,2026-02-17,2026-02-17,株式会社エコクリエイト,,株式会社,東京都,福生市,加美平１丁目６－１１,,13,218,1970012,,,,,,,2026-02-17,1,,,,,エコクリエイト,0
1995,8020001166987,新規,0,2026-02-17,2026-02-17,株式会社ファミリーホームズ,,株式会社,神奈川県,横浜市西区,藤棚町２丁目２１２番地９パール西横浜２０３号室,,14,103,2200053,,,,,,,2026-02-17,1,,,,,ファミリーホームズ,0
1996,8020001167060,新規,0,2026-02-17,2026-02-17,株式会社Ｃｙｂｅｒ　Ｔａｎｋ,,株式会社,神奈川県,横浜市泉区,和泉町４８８９番地,,14,116,2450016,,,,,,,2026-02-17,1,,,,,サイバータンク,0
1997,8020001167102,新規,0,2026-02-17,2026-02-17,株式会社人事評価パートナー,,株式会社,神奈川県,横浜市西区,北幸２丁目１０－４８むつみビル３階,,14,103,2200004,,,,,,,2026-02-17,1,,,,,ジンジヒョウカパートナー,0
1998,8020001167110,新規,0,2026-02-17,2026-02-17,株式会社リアン,,株式会社,神奈川県,横浜市神奈川区,金港町５番地１４クアドリフォリオ８階,,14,102,2210056,,,,,,,2026-02-17,1,,,,,リアン,0
1999,8020001167151,新規,0,2026-02-17,2026-02-17,株式会社ＲＥｓｔａｒｔ,,株式会社,神奈川県,横浜市青葉区,鉄町１７５０番地４ボナール６－１０１,,14,117,2250025,,,,,,,2026-02-17,1,,,,,リスタート,0
2003,8021001087546,新規,0,2026-02-17,2026-02-17,株式会社ストックベース,,株式会社,神奈川県,大和市,大和東３丁目５－１７,,14,213,2420017,,,,,,,2026-02-17,1,,,,,ストックベース,0
2005,8021003017138,新規,0,2026-02-17,2026-02-17,合同会社夢跳嬉,,合同会社,神奈川県,厚木市,長谷３７２－２,,14,212,2430036,,,,,,,2026-02-17,1,,,,,ムトウ,0
2013,8030001171029,新規,0,2026-02-17,2026-02-17,株式会社誠心ＴＮ,,株式会社,埼玉県,志木市,館２丁目４番８－６０４号,,11,228,3530006,,,,,,,2026-02-17,1,,,,,セイシンティエヌ,0
2014,8030001171045,新規,0,2026-02-17,2026-02-17,松王株式会社,,株式会社,埼玉県,児玉郡神川町,大字八日市５４６番地１,,11,383,3670244,,,,,,,2026-02-17,1,,,,,マツオウ,0
2017,8030003028499,新規,0,2026-02-17,2026-02-17,合同会社悠久,,合同会社,埼玉県,入間市,下藤沢３丁目２７番地２,,11,225,3580011,,,,,,,2026-02-17,1,,,,,ユウキュウ,0
2021,8040001142235,新規,0,2026-02-17,2026-02-17,株式会社カーシェン,,株式会社,千葉県,木更津市,畑沢１丁目８－１４,,12,206,2920825,,,,,,,2026-02-17,1,,,,,カーシェン,0
2022,8040001142573,新規,0,2026-02-17,2026-02-17,青馬情報株式会社,,株式会社,千葉県,印西市,中央南１丁目９－４０３,,12,231,2701340,,,,,,,2026-02-17,1,,,,,アオバジョウホウ,0
2032,8080003003654,新規,0,2026-02-17,2026-02-17,Ｋ‐ｆｉｖｅ合同会社,,合同会社,静岡県,静岡市葵区,松富上組３６番地の１,,22,101,4200942,,,,,,,2026-02-17,1,,,,,ケイファイブ,0
2035,8080403005449,新規,0,2026-02-17,2026-02-17,合同会社ルセル,,合同会社,静岡県,浜松市中央区,西伊場町５８番１号,,22,138,4328038,,,,,,,2026-02-17,1,,,,,ルセル,0
2040,8100001039342,新規,0,2026-02-17,2026-02-17,株式会社軽井沢ＦＲＥＡＫＳ,,株式会社,長野県,北佐久郡軽井沢町,大字長倉１４３０番地,,20,321,3890111,,,,,,,2026-02-17,1,,,,,カルイザワフリークス,0
2043,8110003006067,新規,0,2026-02-17,2026-02-17,合同会社宮狐,,合同会社,新潟県,新潟市中央区,米山２丁目１番地５,,15,103,9500916,,,,,,,2026-02-17,1,,,,,ミヤコ,0
2044,8110003006075,新規,0,2026-02-17,2026-02-17,合同会社リベルテ・パートナーズ,,合同会社,新潟県,上越市,東雲町２丁目９番４号,,15,222,9420071,,,,,,,2026-02-17,1,,,,,リベルテパートナーズ,0
2056,8120001284192,新規,0,2026-02-17,2026-02-17,ＣＳアグリネクサス株式会社,,株式会社,大阪府,大阪市港区,築港４丁目１番１号,,27,107,5520021,,,,,,,2026-02-17,1,,,,,シーエスアグリネクサス,0
2057,8120001284234,新規,0,2026-02-17,2026-02-17,株式会社Ｋｉｆｕｍｏｆｕ,,株式会社,大阪府,大阪市北区,松ケ枝町１番３６－９０４号,,27,127,5300037,,,,,,,2026-02-17,1,,,,,キフモフ,0
2058,8120001284300,新規,0,2026-02-17,2026-02-17,キリン不動産株式会社,,株式会社,大阪府,大阪市阿倍野区,晴明通３‐１‐６０３,,27,119,5450032,,,,,,,2026-02-17,1,,,,,キリンフドウサン,0
2069,8120101073207,新規,0,2026-02-17,2026-02-17,株式会社西福,,株式会社,大阪府,堺市中区,陶器北３２９番地,,27,142,5998242,,,,,,,2026-02-17,1,,,,,ニシフク,0
2075,8120901052236,新規,0,2026-02-17,2026-02-17,株式会社プラウド,,株式会社,大阪府,箕面市,彩都粟生北３丁目７番１５号,,27,220,5620029,,,,,,,2026-02-17,1,,,,,プラウド,0
2076,8120905006849,新規,0,2026-02-17,2026-02-17,一般社団法人日本脳卒中データバンク,,その他の設立登記法人,大阪府,吹田市,岸辺新町６番１号国立循環器病研究センター内,,27,205,5640000,,,,,,,2026-02-17,1,,,,,ニホンノウソッチュウデータバンク,0
2078,8130001081606,新規,0,2026-02-17,2026-02-17,株式会社ＨＯＫＵＨＯＫＵ,,株式会社,京都府,南丹市,美山町安掛寺ノ上１４番地,,26,213,6010722,,,,,,,2026-02-17,1,,,,,ホクホク,0
2083,8140001141763,新規,0,2026-02-17,2026-02-17,株式会社Ｂａｓｅ　Ｈｏｕｓｅ,,株式会社,兵庫県,豊岡市,気比４４－３５,,28,209,6696124,,,,,,,2026-02-17,1,,,,,ベースハウス,0
2084,8140003023217,新規,0,2026-02-17,2026-02-17,合同会社クラウドフィッシュ,,合同会社,兵庫県,西宮市,甲子園網引町２－１９,,28,204,6638156,,,,,,,2026-02-17,1,,,,,クラウドフィッシュ,0
2085,8140005027802,新規,0,2026-02-17,2026-02-17,一般社団法人ともに育む暮らし研究所,,その他の設立登記法人,兵庫県,西宮市,山口町船坂３９３番地,,28,204,6511423,,,,,,,2026-02-17,1,,,,,トモニハグクムクラシケンキュウジョ,0
2096,8180001170701,新規,0,2026-02-17,2026-02-17,株式会社Ｋワークス,,株式会社,愛知県,小牧市,大字間々４０３－１,,23,219,4850015,,,,,,,2026-02-17,1,,,,,ケーワークス,0
2106,8190001032909,新規,0,2026-02-17,2026-02-17,株式会社エイチティーグループホールディングス,,株式会社,三重県,四日市市,安島１丁目２番２５号,,24,202,5100075,,,,,,,2026-02-17,1,,,,,エイチティーグループホールディングス,0
2107,8210001020497,新規,0,2026-02-17,2026-02-17,株式会社サンタイム,,株式会社,福井県,坂井市,丸岡町東陽２丁目３１,,18,210,9100233,,,,,,,2026-02-17,1,,,,,サンタイム,0
2110,8230001021287,新規,0,2026-02-17,2026-02-17,株式会社共栄キャリア,,株式会社,富山県,黒部市,堀切３３４０－１,,16,207,9380041,,,,,,,2026-02-17,1,,,,,,0
2111,8230001021312,新規,0,2026-02-17,2026-02-17,株式会社Ｙｏｘｉｓ,,株式会社,富山県,砺波市,太郎丸６５６８番地１,,16,208,9391363,,,,,,,2026-02-17,1,,,,,ヨクシス,0
2114,8240001066174,新規,0,2026-02-17,2026-02-17,株式会社ＹＥＬＬＯＷ,,株式会社,広島県,広島市安佐南区,中須１丁目３１番１４号,,34,105,7310121,,,,,,,2026-02-17,1,,,,,イエロー,0
2117,8250001021541,新規,0,2026-02-17,2026-02-17,アープラスリンク株式会社,,株式会社,山口県,下関市,貴船町３丁目１番２５号アープラスシアン３階,,35,201,7510823,,,,,,,2026-02-17,1,,,,,アープラスリンク,0
2122,8260003005517,新規,0,2026-02-17,2026-02-17,合同会社Ｔｏｗａ,,合同会社,岡山県,井原市,笹賀町４６８番地,,33,207,7150025,,,,,,,2026-02-17,1,,,,,トワ,0
2134,8290003018053,新規,0,2026-02-17,2026-02-17,合同会社太陽の種,,合同会社,福岡県,福岡市中央区,薬院３丁目１６番２６号西鉄薬院ビル５階,,40,133,8100022,,,,,,,2026-02-17,1,,,,,タイヨウノタネ,0
2138,8290801032255,新規,0,2026-02-17,2026-02-17,株式会社ＳＯＬＡＲＩＳ,,株式会社,福岡県,築上郡築上町,大字下別府１５０４－１,,40,647,8290108,,,,,,,2026-02-17,1,,,,,ソラリス,0
2142,8330001033999,新規,0,2026-02-17,2026-02-17,株式会社ガレージカオス,,株式会社,熊本県,菊池郡菊陽町,大字津久礼１３１番地７,,43,404,8691101,,,,,,,2026-02-17,1,,,,,ガレージカオス,0
2143,8330003011441,新規,0,2026-02-17,2026-02-17,合同会社ｒｅｊｏｉｎ,,合同会社,熊本県,熊本市南区,江越１丁目２９番１６号パレステージ平成１０３号室,,43,104,8600834,,,,,,,2026-02-17,1,,,,,リジョイン,0
2146,8360001036388,新規,0,2026-02-17,2026-02-17,株式会社眞榮商会,,株式会社,沖縄県,浦添市,安波茶１丁目２６番１５号,,47,208,9012114,,,,,,,2026-02-17,1,,,,,シンエイショウカイ,0
2153,8430001096227,新規,0,2026-02-17,2026-02-17,Ｎｉｃｏ株式会社,,株式会社,北海道,苫小牧市,日吉町１丁目２番６号,,01,213,0530816,,,,,,,2026-02-17,1,,,,,ニコ,0
2154,8430001096276,新規,0,2026-02-17,2026-02-17,Ｓｕｂａｙａｓａ株式会社,,株式会社,北海道,札幌市手稲区,前田一条６丁目１－２１,,01,109,0060811,,,,,,,2026-02-17,1,,,,,スバヤサ,0
2156,8430003018600,新規,0,2026-02-17,2026-02-17,合同会社ＴＲＹＢ,,合同会社,北海道,札幌市中央区,南十条西１２丁目２番３４－４０２号,,01,101,0640810,,,,,,,2026-02-17,1,,,,,トライブ,0
2157,8430003018609,新規,0,2026-02-17,2026-02-17,合同会社継実,,合同会社,北海道,千歳市,北斗４丁目６番１９‐１０４号第１ロイヤルマンション恵,,01,224,0660073,,,,,,,2026-02-17,1,,,,,ツグミ,0
2163,8460101007816,新規,0,2026-02-17,2026-02-17,株式会社Ｍ・Ｏファーム,,株式会社,北海道,帯広市,西十条南９丁目２０番地２Ｆｏｒｅｓｔ１０９,,01,207,0800020,,,,,,,2026-02-17,1,,,,,エムオーファーム,0
2165,8460301005347,新規,0,2026-02-17,2026-02-17,北見調熱株式会社,,株式会社,北海道,北見市,美山町東４丁目８２番地４８,,01,208,0900069,,,,,,,2026-02-17,1,,,,,キタミチョウネツ,0
2169,8480003002392,新規,0,2026-02-17,2026-02-17,合同会社スターリング,,合同会社,徳島県,三好市,池田町白地ウマバ３８８番地２,,36,208,7785251,,,,,,,2026-02-17,1,,,,,スターリング,0
2171,8500001026787,新規,0,2026-02-17,2026-02-17,株式会社まるしげ,,株式会社,愛媛県,松山市,東石井３丁目１２番１６号,,38,201,7900932,,,,,,,2026-02-17,1,,,,,マルシゲ,0
2173,8700150134511,新規,0,2026-02-17,2026-02-17,ＷＩＳＥＡＲＮ　ＬＩＭＩＴＥＤ,,外国会社等,,,,,,,,Ｖｉｓｔｒａ　Ｃｏｒｐｏｒａｔｅ　Ｓｅｒｖｉｃｅｓ　Ｃｅｎｔｒｅ，Ｗｉｃｋｈａｍｓ　Ｃａｙ　ＩＩ，Ｒｏａｄ　Ｔｏｗｎ，Ｔｏｒｔｏｌａ，Ｂ．Ｖ．Ｉ．,00142602,,,,,2026-02-17,1,,,,,ワイザーンリミテツド,0
2174,8700150134528,新規,0,2026-02-17,2026-02-17,東白川台自治会,,その他,兵庫県,神戸市須磨区,東白川台２丁目１０－１,,28,107,6540102,,,,,,,2026-02-17,1,,,,,ヒガシシラカワダイジチカイ,0
2183,9010001262877,新規,0,2026-02-17,2026-02-17,株式会社ＥＭＩＴ,,株式会社,東京都,中央区,銀座１丁目１５－４ヒューリック銀座一丁目昭和通りビル７階,,13,102,1040061,,,,,,,2026-02-17,1,,,,,エミット,0
2184,9010001262902,新規,0,2026-02-17,2026-02-17,株式会社ＭａｔｃｈａＥｄｕｃａｔｉｏｎＣｅｎｔｅｒ,,株式会社,東京都,千代田区,四番町４－１９ＣＩＲＣＬＥＳ市ヶ谷６階,,13,101,1020081,,,,,,,2026-02-17,1,,,,,マッチャエデュケーションセンター,0
2185,9010001262927,新規,0,2026-02-17,2026-02-17,株式会社ｇＵｒｅｎ,,株式会社,東京都,千代田区,神田佐久間河岸５５朝風染常ビル２階,,13,101,1010026,,,,,,,2026-02-17,1,,,,,グレン,0
2186,9010001262951,新規,0,2026-02-17,2026-02-17,ＤｅｂｔＩｓ　Ｃａｐｉｔａｌ株式会社,,株式会社,東京都,中央区,日本橋蛎殻町２丁目１５番９－３０３号,,13,102,1030014,,,,,,,2026-02-17,1,,,,,デッティスキャピタル,0
2197,9010401195561,新規,0,2026-02-17,2026-02-17,株式会社ＴＳＵＮＡＧＵ　ＪＡＰＡＮ,,株式会社,東京都,港区,元麻布３丁目４番２７号２０１,,13,103,1060046,,,,,,,2026-02-17,1,,,,,ツナグジャパン,0
2198,9010401196519,新規,0,2026-02-17,2026-02-17,ワンダプラス株式会社,,株式会社,東京都,港区,港南４丁目６番７－１７０４号,,13,103,1080075,,,,,,,2026-02-17,1,,,,,ワンダプラス,0
2199,9010401196551,新規,0,2026-02-17,2026-02-17,株式会社ＩＮＰＥＸバロン,,株式会社,東京都,港区,赤坂５丁目３番１号,,13,103,1070052,,,,,,,2026-02-17,1,,,,,インペックスバロン,0
2200,9010401196592,新規,0,2026-02-17,2026-02-17,ＭＰ‐２６０４株式会社,,株式会社,東京都,港区,虎ノ門２丁目６番１号,,13,103,1050001,,,,,,,2026-02-17,1,,,,,エムピーニーロクゼロヨン,0
2205,9010403037299,新規,0,2026-02-17,2026-02-17,合同会社瑞地,,合同会社,東京都,港区,北青山１丁目３－３三橋ビル３階,,13,103,1070061,,,,,,,2026-02-17,1,,,,,ズイチ,0
2212,9010601068740,新規,0,2026-02-17,2026-02-17,ｍ株式会社,,株式会社,東京都,江東区,東砂５丁目８番１２号,,13,108,1360074,,,,,,,2026-02-17,1,,,,,エム,0
2216,9010801037066,新規,0,2026-02-17,2026-02-17,ＬｉｔｔｌｅＣｈｕｃｋｌｙ株式会社,,株式会社,東京都,大田区,西六郷１丁目１２－２２－１０３,,13,111,1440056,,,,,,,2026-02-17,1,,,,,リトルチャックリー,0
2218,9010803005731,新規,0,2026-02-17,2026-02-17,合同会社黄金の手,,合同会社,東京都,大田区,中央８丁目１８番６号,,13,111,1430024,,,,,,,2026-02-17,1,,,,,コガネノテ,0
2221,9010901058920,新規,0,2026-02-17,2026-02-17,ＭＡＹＡ　Ｄｅｓｉｇｎ株式会社,,株式会社,東京都,世田谷区,代田１丁目４０－８,,13,112,1550033,,,,,,,2026-02-17,1,,,,,マヤデザイン,0
2222,9010901058978,新規,0,2026-02-17,2026-02-17,株式会社カノック,,株式会社,東京都,世田谷区,上馬４丁目１番３号東急上馬ビル６Ｆ,,13,112,1540011,,,,,,,2026-02-17,1,,,,,カノック,0
2226,9011001175400,新規,0,2026-02-17,2026-02-17,株式会社メガネのしろがね,,株式会社,東京都,目黒区,自由が丘１丁目３番地１１号,,13,110,1520035,,,,,,,2026-02-17,1,,,,,メガネノシロガネ,0
2228,9011003023540,新規,0,2026-02-17,2026-02-17,合同会社ｄｅｆ　ｗｏｒｋｓ,,合同会社,東京都,渋谷区,道玄坂１丁目１０番８号渋谷道玄坂東急ビル２Ｆ－Ｃ,,13,113,1500043,,,,,,,2026-02-17,1,,,,,デフワークス,0
2229,9011005011361,新規,0,2026-02-17,2026-02-17,一般社団法人中東・アジア太平洋ハラル機構,,その他の設立登記法人,東京都,渋谷区,恵比寿西１丁目３６－２ＴＨＥ・ＣＯＮＯＥ代官山４０１,,13,113,1500021,,,,,,,2026-02-17,1,,,,,チュウトウアジアタイヘイヨウハラルキコウ,0
2233,9011101114786,新規,0,2026-02-17,2026-02-17,株式会社ＣＩＷ分割準備会社Ｂ,,株式会社,東京都,新宿区,新宿２丁目１９番１号,,13,104,1600022,,,,,,,2026-02-17,1,,,,,シーアイダブリューブンカツジュンビガイシャビー,0
2236,9011401027804,新規,0,2026-02-17,2026-02-17,株式会社ＤＥＺＡＩＮ,,株式会社,東京都,板橋区,小茂根２丁目５－２,,13,119,1730037,,,,,,,2026-02-17,1,,,,,デザイン,0
2239,9011501033082,新規,0,2026-02-17,2026-02-17,サウンドデザイン株式会社,,株式会社,東京都,北区,滝野川２丁目３２番１０－６１２号,,13,117,1140023,,,,,,,2026-02-17,1,,,,,サウンドデザイン,0
2253,9012803004003,新規,0,2026-02-17,2026-02-17,合同会社タテデン,,合同会社,東京都,国立市,富士見台４丁目５番地の６パークハイツ富士見台２０１,,13,215,1860003,,,,,,,2026-02-17,1,,,,,タテデン,0
2265,9020001166978,新規,0,2026-02-17,2026-02-17,株式会社藤山,,株式会社,神奈川県,横浜市中区,新山下１丁目１０番地１１号,,14,104,2310801,,,,,,,2026-02-17,1,,,,,フジヤマ,0
2270,9020003030281,新規,0,2026-02-17,2026-02-17,合同会社Ｎｙｍｐｈａｅａ,,合同会社,神奈川県,横浜市神奈川区,金港町５―１４クアドリフォリオ８階,,14,102,2210056,,,,,,,2026-02-17,1,,,,,ニンフィア,0
2271,9020003030331,新規,0,2026-02-17,2026-02-17,フラボワークス合同会社,,合同会社,神奈川県,横浜市西区,浅間町１丁目４番３号ウィザードビル４０２,,14,103,2200072,,,,,,,2026-02-17,1,,,,,フラボワークス,0
2272,9020003030348,新規,0,2026-02-17,2026-02-17,合同会社ＴＳＵＲＵＧＩ,,合同会社,神奈川県,川崎市幸区,小向仲野町４番１７－２号,,14,132,2120002,,,,,,,2026-02-17,1,,,,,ツルギ,0
2273,9020003030380,新規,0,2026-02-17,2026-02-17,フジアセットマネジメント合同会社,,合同会社,神奈川県,横浜市神奈川区,金港町８番地１,,14,102,2210056,,,,,,,2026-02-17,1,,,,,フジアセットマネジメント,0
2274,9020003030397,新規,0,2026-02-17,2026-02-17,ＰＥＡＣＥＦＵＬ　ＣＡＮＹＯＮ合同会社,,合同会社,神奈川県,横浜市港南区,笹下３丁目２７番４号,,14,111,2340052,,,,,,,2026-02-17,1,,,,,ピースフルキャニオン,0
2276,9021001087553,新規,0,2026-02-17,2026-02-17,ＩＭＣ株式会社,,株式会社,神奈川県,鎌倉市,上町屋６６７番地,,14,204,2470065,,,,,,,2026-02-17,1,,,,,アイエムシー,0
2277,9021003017145,新規,0,2026-02-17,2026-02-17,ファミオラ合同会社,,合同会社,神奈川県,足柄上郡松田町,寄１２１－３３,,14,363,2580001,,,,,,,2026-02-17,1,,,,,ファミオラ,0
2281,9030001171011,新規,0,2026-02-17,2026-02-17,株式会社中村建設,,株式会社,埼玉県,東松山市,大字下唐子１０２９番地２,,11,212,3550076,,,,,,,2026-02-17,1,,,,,ナカムラケンセツ,0
2282,9030001171077,新規,0,2026-02-17,2026-02-17,株式会社ＣｒｏｓｓＥｄｇｅ,,株式会社,埼玉県,川口市,大字辻６７２番地の５,,11,203,3340004,,,,,,,2026-02-17,1,,,,,クロスエッジ,0
2284,9030003028663,新規,0,2026-02-17,2026-02-17,合同会社ＲＥＳ,,合同会社,埼玉県,加須市,富士見町６番３２号,,11,210,3470045,,,,,,,2026-02-17,1,,,,,アールイーエス,0
2290,9040001142515,新規,0,2026-02-17,2026-02-17,株式会社リップル,,株式会社,千葉県,市原市,山田橋２丁目１番地２５,,12,219,2900021,,,,,,,2026-02-17,1,,,,,リップル,0
2294,9040003029462,新規,0,2026-02-17,2026-02-17,合同会社ＧＣＳＣ,,合同会社,千葉県,柏市,若柴１７８番地４・柏の葉キャンパス１４８街区１・Ｗ－３６０２,,12,217,2770871,,,,,,,2026-02-17,1,,,,,ジーシーエスシー,0
2295,9040003029470,新規,0,2026-02-17,2026-02-17,合同会社内房園芸,,合同会社,千葉県,木更津市,祇園１丁目１６番１１号,00142599,12,206,2920052,,,,,,,2026-02-17,1,,,,,ウチボウエンゲイ,0
2300,9050003009942,新規,0,2026-02-17,2026-02-17,Ｓｔｏｒｙ　Ｓｅｅｄｓ合同会社,,合同会社,茨城県,つくば市,みどりの中央２９番地１２,,08,220,3050882,,,,,,,2026-02-17,1,,,,,ストーリーシーズ,0
2301,9050003009950,新規,0,2026-02-17,2026-02-17,ＦＵＪＩ　ＢＬＯＯＭ合同会社,,合同会社,茨城県,日立市,日高町４丁目１２番３０号,,08,202,3191414,,,,,,,2026-02-17,1,,,,,フジブルーム,0
2305,9070001043834,新規,0,2026-02-17,2026-02-17,株式会社坂下,,株式会社,群馬県,太田市,末広町１２２５番地７,,10,205,3730862,,,,,,,2026-02-17,1,,,,,サカシタ,0
2312,9100003008617,新規,0,2026-02-17,2026-02-17,ココロザ合同会社,,合同会社,長野県,松本市,中央２丁目５番９号遠茂ビル３階,,20,202,3900811,,,,,,,2026-02-17,1,,,,,ココロザ,0
2315,9110001039902,新規,0,2026-02-17,2026-02-17,株式会社ｎｅｎｅｔｔｉＡＩ,,株式会社,新潟県,新潟市東区,津島屋３丁目１６８番地２１,,15,102,9500801,,,,,,,2026-02-17,1,,,,,ネネッチエーアイ,0
2325,9120001284159,新規,0,2026-02-17,2026-02-17,株式会社Ａｌｏｈａ　Ｃａｒｄ　Ｓｈｏｐ　Ｊａｐａｎ,,株式会社,大阪府,大阪市北区,梅田２丁目２番２号ヒルトンプラザウエストオフィスタワー１９階,,27,127,5300001,,,,,,,2026-02-17,1,,,,,アロハカードショップジャパン,0
2326,9120001284175,新規,0,2026-02-17,2026-02-17,白玉京株式会社,,株式会社,大阪府,大阪市中央区,東心斎橋１丁目１８番１１号ＬＩＢＥＲＴＹ心斎橋ビル１Ｆ－Ａ号,,27,128,5420083,,,,,,,2026-02-17,1,,,,,ハクギョクキョウ,0
2333,9120103006989,新規,0,2026-02-17,2026-02-17,合同会社カーム,,合同会社,大阪府,泉大津市,上之町９－３－５,,27,206,5950046,,,,,,,2026-02-17,1,,,,,カーム,0
2337,9120901052235,新規,0,2026-02-17,2026-02-17,株式会社ＣＴプロダクション,,株式会社,大阪府,摂津市,鳥飼銘木町１番４０号,,27,224,5660063,,,,,,,2026-02-17,1,,,,,シーティープロダクション,0
2338,9122001040186,新規,0,2026-02-17,2026-02-17,藤山・ＨＤ株式会社,,株式会社,大阪府,東大阪市,長田東２丁目４番４７号,,27,227,5770012,,,,,,,2026-02-17,1,,,,,フジヤマホールディングス,0
2343,9130005017588,新規,0,2026-02-17,2026-02-17,一般社団法人子ども・食支援センター,,その他の設立登記法人,京都府,京都市下京区,西七条南月読町９３－２,,26,106,6008885,,,,,,,2026-02-17,1,,,,,コドモショクシエンセンター,0
2350,9140001141688,新規,0,2026-02-17,2026-02-17,株式会社慧和,,株式会社,兵庫県,姫路市,飾磨区英賀東町１丁目２６,,28,201,6728087,,,,,,,2026-02-17,1,,,,,ケイワ,0
2351,9140001141721,新規,0,2026-02-17,2026-02-17,株式会社マハナイム,,株式会社,兵庫県,姫路市,東雲町４丁目６番地２メゾン東雲６Ｃ,,28,201,6700046,,,,,,,2026-02-17,1,,,,,マハナイム,0
2352,9140001141738,新規,0,2026-02-17,2026-02-17,株式会社一会百笑,,株式会社,兵庫県,神戸市中央区,磯辺通４丁目２番２６号,,28,110,6510084,,,,,,,2026-02-17,1,,,,,ヒトエヒャクエ,0
2353,9140001141746,新規,0,2026-02-17,2026-02-17,ＮＩＰＰＯＮＩＡコモンズパートナーズ株式会社,,株式会社,兵庫県,丹波篠山市,二階町１８番地１,,28,221,6692331,,,,,,,2026-02-17,1,,,,,ニッポニアコモンズパートナーズ,0
2354,9140001141754,新規,0,2026-02-17,2026-02-17,株式会社Ｌｉｎｏ,,株式会社,兵庫県,神戸市東灘区,青木６丁目４－１２,,28,101,6580027,,,,,,,2026-02-17,1,,,,,リノ,0
2355,9140001141762,新規,0,2026-02-17,2026-02-17,株式会社レイエス,,株式会社,兵庫県,姫路市,神子岡前４丁目１０番２０号,,28,201,6700055,,,,,,,2026-02-17,1,,,,,レイエス,0
2356,9140001141787,新規,0,2026-02-17,2026-02-17,株式会社Ｌｉｔｏｎａ,,株式会社,兵庫県,神戸市中央区,磯辺通２丁目２－１０－１００６号室,,28,110,6510084,,,,,,,2026-02-17,1,,,,,リトナ,0
2364,9150001028736,新規,0,2026-02-17,2026-02-17,Ｈ＆Ｔトレーディング株式会社,,株式会社,奈良県,山辺郡山添村,大字西波多１２７３番地１,,29,322,6302346,,,,,,,2026-02-17,1,,,,,エイチアンドティートレーディング,0
2369,9180001170626,新規,0,2026-02-17,2026-02-17,株式会社ユニオン,,株式会社,愛知県,東海市,加木屋町留木４番地の１,,23,222,4770032,,,,,,,2026-02-17,1,,,,,ユニオン,0
2370,9180001170717,新規,0,2026-02-17,2026-02-17,株式会社ドロッセル,,株式会社,愛知県,名古屋市中川区,新家３丁目３０３番地,,23,110,4540972,,,,,,,2026-02-17,1,,,,,ドロッセル,0
2371,9180002053573,新規,0,2026-02-17,2026-02-17,有限会社エムビーエス,,有限会社,愛知県,名古屋市中川区,東起町３丁目４０番地,,23,110,4540935,,,,,,,2026-02-17,1,,,,,エムビーエス,0
2376,9190001032908,新規,0,2026-02-17,2026-02-17,株式会社和泉商事,,株式会社,三重県,桑名市,大字和泉６２６番地５,,24,205,5110838,,,,,,,2026-02-17,1,,,,,イズミショウジ,0
2377,9190001032916,新規,0,2026-02-17,2026-02-17,株式会社ＮＥＷ　ＦＡＳＴ　ＭＯＴＯＲＳ,,株式会社,三重県,員弁郡東員町,大字筑紫９１５番地,,24,324,5110253,,,,,,,2026-02-17,1,,,,,ニューファストモータース,0
2378,9190003005358,新規,0,2026-02-17,2026-02-17,合同会社Ｗ,,合同会社,三重県,津市,河芸町上野３９９６‐１ＳＬＲ１０１,,24,201,5100304,,,,,,,2026-02-17,1,,,,,ダブル,0
2379,9190005012121,新規,0,2026-02-17,2026-02-17,ネオ事業協同組合,,その他の設立登記法人,三重県,四日市市,青葉町８００番地１５２,,24,202,5100839,,,,,,,2026-02-17,1,,,,,ネオジギョウ,0
2380,9200001044728,新規,0,2026-02-17,2026-02-17,株式会社ワンＬＤＫ,,株式会社,岐阜県,高山市,岡本町２丁目１番地６エムスビル,,21,203,5060054,,,,,,,2026-02-17,1,,,,,ワンエルディーケー,0
2383,9230001021303,新規,0,2026-02-17,2026-02-17,ＩＳ　ＧＲＯＵＰ株式会社,,株式会社,富山県,射水市,本江２３１６番地５,,16,211,9330244,,,,,,,2026-02-17,1,,,,,アイエスグループ,0
2385,9240001066173,新規,0,2026-02-17,2026-02-17,株式会社アットタイム,,株式会社,広島県,広島市南区,松原町３番２－４００８号,,34,103,7320822,,,,,,,2026-02-17,1,,,,,アットタイム,0
2386,9240003007571,新規,0,2026-02-17,2026-02-17,ＢＯＬＤ　ＧＥＮＥＳＩＳ合同会社,,合同会社,広島県,広島市安佐北区,亀山８丁目９番１－６号,,34,106,7310231,,,,,,,2026-02-17,1,,,,,ボールドジェネシス,0
2389,9250001021540,新規,0,2026-02-17,2026-02-17,株式会社秋葉原Ｒｏｃｋｅｔｓ,,株式会社,山口県,下松市,藤光町１丁目２番８号ＭａｉｓｏｎＮｏａｈＣ,,35,207,7440028,,,,,,,2026-02-17,1,,,,,アキハバラロケッツ,0
2393,9260003005516,新規,0,2026-02-17,2026-02-17,合同会社Ｐｕｒｅ,,合同会社,岡山県,岡山市北区,中央町１番２３号レジデンス西川３０３号,,33,101,7000836,,,,,,,2026-02-17,1,,,,,ピュア,0
2398,9290001113160,新規,0,2026-02-17,2026-02-17,株式会社ＫＡＩＹＵ,,株式会社,福岡県,福岡市中央区,薬院１丁目６番１５号,,40,133,8100022,,,,,,,2026-02-17,1,,,,,カイユウ,0
2400,9290801032246,新規,0,2026-02-17,2026-02-17,ＫＬホールディングス株式会社,,株式会社,福岡県,北九州市小倉北区,金田２丁目８－３０－１００４,,40,106,8030816,,,,,,,2026-02-17,1,,,,,ケイエルホールディングス,0
2407,9310001019966,新規,0,2026-02-17,2026-02-17,株式会社ブルーム,,株式会社,長崎県,長崎市,戸町３丁目２４番２号,,42,201,8500952,,,,,,,2026-02-17,1,,,,,ブルーム,0
2415,9360003015629,新規,0,2026-02-17,2026-02-17,合同会社ＡＷＡＩ　ＷＯＲＫＳ,,合同会社,沖縄県,那覇市,楚辺１丁目８－１９Ｒｉ－ｃａｓａ３０３,,47,201,9000023,,,,,,,2026-02-17,1,,,,,アワイワークス,0
2416,9370001053489,新規,0,2026-02-17,2026-02-17,株式会社ｗａｌｋ,,株式会社,宮城県,仙台市若林区,遠見塚１丁目１９番３６号,,04,103,9840823,,,,,,,2026-02-17,1,,,,,ウォーク,0
2418,9380001035882,新規,0,2026-02-17,2026-02-17,株式会社朝日旅行,,株式会社,福島県,郡山市,安積町日出山１丁目１４５番地,,07,203,9630101,,,,,,,2026-02-17,1,,,,,アサヒリョコウ,0
2422,9410003004213,新規,0,2026-02-17,2026-02-17,アユターレ合同会社,,合同会社,秋田県,大仙市,大花町１８番２４号,,05,212,0140022,,,,,,,2026-02-17,1,,,,,アユターレ,0
2425,9430001096275,新規,0,2026-02-17,2026-02-17,株式会社ＧＲＯＷ,,株式会社,北海道,札幌市白石区,菊水上町三条２丁目５２番地１４１富美マンションＢ２０１号,,01,104,0030813,,,,,,,2026-02-17,1,,,,,グロウ,0
2427,9470001021097,新規,0,2026-02-17,2026-02-17,デジタルリンク株式会社,,株式会社,香川県,高松市,御厩町１３４４番地２,00142593,37,201,7618042,,,,,,,2026-02-17,1,,,,,,0
2428,9470003003069,新規,0,2026-02-17,2026-02-17,合同会社ＣＨＥＦ　ＯＮ,,合同会社,香川県,高松市,築地町１－２２－４０２,,37,201,7600061,,,,,,,2026-02-17,1,,,,,,0
2429,9470003003077,新規,0,2026-02-17,2026-02-17,アカリテラス合同会社,,合同会社,香川県,高松市,新田町甲３９３番地６,,37,201,7610102,,,,,,,2026-02-17,1,,,,,,0
2431,9700150134510,新規,0,2026-02-17,2026-02-17,Ｓｅａｒｃｈ　Ｔｏｋｙｏ　Ｃｏ．，Ｌｔｄ，,,外国会社等,,,,,,,,Ｉｎｔｅｒｓｈｏｒｅ　Ｓｕｉｔｅ，Ｌｅ　Ｓａｎａｌｅｌｅ　Ｃｏｍｐｌｅｘ，Ａｐｉａ，Ｓａｍｏａ,,,,,,2026-02-17,1,,,,,サーチトウキヨ,0
2432,9700150134519,新規,0,2026-02-17,2026-02-17,ＷＥＧＹＭ　ＬＩＭＩＴＥＤ,,外国会社等,,,,,,,,ＦＬＡＴ　Ｓ　１３／Ｆ　ＢＬＯＣＫ　２　ＧＯＬＤＦＩＥＬＤ　ＩＮＤＵＳＴＲＩＡＬ　ＢＵＩＬＤＩＮＧ　１４４－１５０　ＴＡＩ　ＬＩＮ　ＰＡＩ　ＲＯＡＤ　ＫＷＡＩ　ＣＨＵＮＧ　ＮＴ,,,,,,2026-02-17,1,,,,,ウエジムリミテツド,0
2433,9700150134527,新規,0,2026-02-17,2026-02-17,桑栄ビルマンション敷地売却組合,,その他,三重県,桑名市,桑栄町２番地内,,24,205,5110078,,,,,,,2026-02-17,1,,,,,ソウエイビルマンシヨンシキチバイキヤククミアイ,0
