sequenceNumber,corporateNumber,process,correct,updateDate,changeDate,name,nameImageId,kind,prefectureName,cityName,streetNumber,addressImageId,prefectureCode,cityCode,postCode,addressOutside,addressOutsideImageId,closeDate,closeCause,successorCorporateNumber,changeCause,assignmentDate,latest,enName,enPrefectureName,enCityName,enAddressOutside,furigana,hihyoji
3,1010001185598,登記記録の閉鎖等,0,2025-07-02,2025-06-30,株式会社ヴィオーラ,,株式会社,東京都,中央区,月島３丁目１番１－５０５号,,13,102,1040052,,,2025-06-30,合併による解散等,2011501013883,令和７年６月２１日東京都荒川区西日暮里二丁目１０番５号泉ビル２階株式会社爽風舎（2011501013883）に合併し解散,2017-08-16,1,,,,,ヴィオーラ,0
4,1010001192958,登記記録の閉鎖等,0,2025-07-02,2025-06-13,ＪＰＡ第１３４号株式会社,,株式会社,東京都,千代田区,霞が関３丁目２番１号,,13,101,1000013,,,2025-06-13,清算の結了等,,,2018-07-03,1,,,,,ジェイピーエーダイヒャクサンジュウヨンゴウ,0
11,1010003028160,登記記録の閉鎖等,0,2025-07-02,2025-06-10,ＪＭＪ　ＳＡＦ投資合同会社,,合同会社,東京都,千代田区,大手町１丁目４番２号,,13,101,1000004,,,2025-06-10,清算の結了等,,,2018-08-27,1,,,,,ジェイエムジェイエスエーエフトウシ,0
23,1010403009454,登記記録の閉鎖等,0,2025-07-02,2025-06-13,合同会社ＣＬＦ第２５号,,合同会社,東京都,千代田区,霞が関３丁目２番１号,,13,101,1000013,,,2025-06-13,清算の結了等,,,2015-10-05,1,,,,,シーエルエフダイニジュウゴゴウ,0
52,1011102019471,登記記録の閉鎖等,0,2025-07-02,2025-06-06,有限会社花園新社,,有限会社,東京都,新宿区,歌舞伎町２丁目３番２１号,,13,104,1600021,,,2025-06-06,清算の結了等,,,2015-10-05,1,,,,,ハナゾノシンシャ,0
64,1011702007520,登記記録の閉鎖等,0,2025-07-02,2025-06-25,有限会社長商店,,有限会社,東京都,江戸川区,瑞江１丁目１６番６号,,13,123,1320011,,,2025-06-25,清算の結了等,,,2015-10-05,1,,,,,チョウショウテン,0
90,1021001036773,登記記録の閉鎖等,0,2025-07-02,2025-06-23,株式会社西武工機,,株式会社,神奈川県,平塚市,中堂１２番２２号,,14,203,2540026,,,2025-06-23,清算の結了等,,,2015-10-05,1,,,,,セイブコウキ,0
94,1021002014316,登記記録の閉鎖等,0,2025-07-02,2025-06-27,有限会社金沢石材,,有限会社,神奈川県,鎌倉市,十二所６６５番地１７,,14,204,2480001,,,2025-06-27,清算の結了等,,,2015-10-05,1,,,,,カナザワセキザイ,0
102,1040003006857,登記記録の閉鎖等,0,2025-07-02,2025-06-17,オリーブ合同会社,,合同会社,千葉県,市川市,市川南１丁目７番１４号,,12,203,2720033,,,2025-06-17,清算の結了等,,,2015-10-05,1,,,,,オリーブ,0
108,1050003004240,登記記録の閉鎖等,0,2025-07-02,2025-06-25,合同会社ＴＭＳ,,合同会社,茨城県,古河市,小堤９９１番地,,08,204,3060231,,,2025-06-25,清算の結了等,,,2018-06-22,1,,,,,ティーエムエス,0
154,1150005008667,登記記録の閉鎖等,0,2025-07-02,2025-06-30,一般社団法人Ｊｕｓｔ－ｌｅａｒｎｉｎｇ,,その他の設立登記法人,奈良県,奈良市,あやめ池北３丁目１番１５－２号,,29,201,6310032,,,2025-06-30,清算の結了等,,,2015-12-11,1,,,,,ジャストラーニング,0
177,1240002006301,登記記録の閉鎖等,0,2025-07-02,2025-06-26,有限会社山陽衣料,,有限会社,広島県,広島市南区,京橋町６番８号,,34,103,7320828,,,2025-06-26,清算の結了等,,,2015-10-05,1,,,,,サンヨウイリョウ,0
178,1240002027388,登記記録の閉鎖等,0,2025-07-02,2025-06-27,有限会社カジヤマ,,有限会社,広島県,東広島市,黒瀬町宗近柳国９６６番地の２,,34,212,7392504,,,2025-06-27,清算の結了等,,,2015-10-05,1,,,,,カジヤマ,0
183,1290001101032,登記記録の閉鎖等,0,2025-07-02,2025-06-26,株式会社ＡＣＴＩＯＮ‐Ｌ,,株式会社,福岡県,福岡市早良区,次郎丸４丁目１５－２０－１０５,,40,137,8140165,,,2025-06-26,合併による解散等,4110001033059,令和７年６月１０日千葉県千葉市美浜区中瀬１－３幕張テクノガーデンＣＢ棟ＭＢＰ内株式会社ソウルシンクス（4110001033059）に合併し解散,2023-04-05,1,,,,,アクションエル,0
205,1370801001654,登記記録の閉鎖等,0,2025-07-02,2025-06-20,ナンコン株式会社,,株式会社,宮城県,名取市,愛島台６丁目１９番地の２２,,04,207,9811251,,,2025-06-20,清算の結了等,,,2015-10-05,1,,,,,ナンコン,0
208,1410005004474,登記記録の閉鎖等,0,2025-07-02,2025-06-05,天理教長野郷分教会,,その他の設立登記法人,秋田県,仙北郡美郷町,六郷字宝門清水６３番地１０,,05,434,0191404,,,2025-06-05,合併による解散等,3410005004290,令和７年６月５日秋田県仙北郡美郷町六郷字宝門清水５８番地天理教六郷分教会（3410005004290）に合併し解散,2015-10-05,1,,,,,,0
215,1430001077621,登記記録の閉鎖等,0,2025-07-02,2025-06-30,株式会社Ｂｒｅａｔｈｉｎｇ　Ｅａｒｔｈ,,株式会社,北海道,室蘭市,中島町１丁目９番１号ほんまビル１－２,,01,205,0500074,,,2025-06-30,清算の結了等,,,2018-11-01,1,,,,,ブリージングアース,0
217,1430001092075,登記記録の閉鎖等,0,2025-07-02,2025-06-23,株式会社ＨＬワークス,,株式会社,北海道,札幌市中央区,大通西２５丁目１番２号,,01,101,0640820,,,2025-06-23,清算の結了等,,,2024-06-20,1,,,,,エイチエルワークス,0
222,1480001003795,登記記録の閉鎖等,0,2025-07-02,2025-06-23,株式会社ＩＳＴ,,株式会社,徳島県,徳島市,東沖洲２丁目１番地１５,,36,201,7700873,,,2025-06-23,清算の結了等,,,2015-10-05,1,,,,,アイエスティ,0
226,1500001012389,登記記録の閉鎖等,0,2025-07-02,2025-06-25,株式会社みのや洋装店,,株式会社,愛媛県,今治市,常盤町２丁目５番地の１,,38,202,7940015,,,2025-06-25,清算の結了等,,,2015-10-05,1,,,,,ミノヤヨウソウテン,0
230,2010001005359,登記記録の閉鎖等,0,2025-07-02,2025-06-09,東洋出版印刷株式会社,,株式会社,東京都,文京区,本郷２丁目４０番１３号,,13,105,1130033,,,2025-06-09,清算の結了等,,,2015-10-05,1,,,,,,0
233,2010001116123,登記記録の閉鎖等,0,2025-07-02,2025-07-01,確定拠出年金サービス株式会社,,株式会社,東京都,中央区,明石町８番１号,,13,102,1040044,,,2025-07-01,合併による解散等,6010001008845,令和７年７月１日東京都千代田区大手町一丁目５番５号株式会社みずほ銀行（6010001008845）に合併し解散,2015-10-05,1,,,,,カクテイキョシュツネンキンサービス,0
237,2010001187759,登記記録の閉鎖等,0,2025-07-02,2025-06-06,ＦＣＤパートナーズ株式会社,,株式会社,東京都,港区,六本木３丁目２番１号,,13,103,1060032,,,2025-06-06,清算の結了等,,,2017-11-20,1,,,,,エフシーディーパートナーズ,0
238,2010001196124,登記記録の閉鎖等,0,2025-07-02,2025-06-26,すばるコンサルティング株式会社,,株式会社,東京都,葛飾区,立石１丁目８番１６号,,13,122,1240012,,,2025-06-26,清算の結了等,,,2018-11-07,1,,,,,スバルコンサルティング,0
255,2010403008190,登記記録の閉鎖等,0,2025-07-02,2025-06-13,合同会社ＣＬＦ第２２号,,合同会社,東京都,千代田区,霞が関３丁目２番１号,,13,101,1000013,,,2025-06-13,清算の結了等,,,2015-10-05,1,,,,,シーエルエフダイニジュウニゴウ,0
266,2010801011473,登記記録の閉鎖等,0,2025-07-02,2025-06-23,株式会社ミスズ金型,,株式会社,東京都,大田区,矢口１丁目１９番２０号,,13,111,1460093,,,2025-06-23,清算の結了等,,,2015-10-05,1,,,,,ミスズカナガタ,0
297,2011702009061,登記記録の閉鎖等,0,2025-07-02,2025-06-25,有限会社ノボル繊維,,有限会社,東京都,江戸川区,一之江３丁目６番１８号,,13,123,1320024,,,2025-06-25,清算の結了等,,,2015-10-05,1,,,,,ノボルセンイ,0
302,2011805002558,登記記録の閉鎖等,0,2025-07-02,2025-06-27,医療法人社団おもいやりステーション,,その他の設立登記法人,東京都,葛飾区,立石７丁目３番４号水沢ビル１階,,13,122,1240012,,,2025-06-27,清算の結了等,,,2016-03-08,1,,,,,オモイヤリステーション,0
307,2013301004220,登記記録の閉鎖等,0,2025-07-02,2025-06-13,株式会社コンポーズ発送,,株式会社,東京都,豊島区,南大塚１丁目１３番４号,,13,116,1700005,,,2025-06-13,合併による解散等,7010401028896,令和７年６月１日東京都千代田区内幸町一丁目３番１号幸ビルディング６Ｆ株式会社マックス（7010401028896）に合併し解散,2015-10-05,1,,,,,コンポーズハッソウ,0
310,2020001049594,登記記録の閉鎖等,0,2025-07-02,2025-06-17,株式会社ベストラガーコンサルタント,,株式会社,神奈川県,横浜市西区,みなとみらい４丁目１０番２－Ｓ１３０８号,,14,103,2200012,,,2025-06-17,清算の結了等,,,2015-10-05,1,,,,,ベストラガーコンサルタント,0
320,2021002010000,登記記録の閉鎖等,0,2025-07-02,2025-06-23,有限会社青木ブロック,,有限会社,神奈川県,茅ヶ崎市,松尾６番５６号,,14,207,2530065,,,2025-06-23,清算の結了等,,,2015-10-05,1,,,,,アオキブロック,0
321,2021002022020,登記記録の閉鎖等,0,2025-07-02,2025-06-27,有限会社高孝工務店,00013178,有限会社,神奈川県,相模原市中央区,富士見４丁目１０番７号,,14,152,2520236,,,2025-06-27,清算の結了等,,,2015-10-05,1,,,,,タカコウコウムテン,0
326,2030002026303,登記記録の閉鎖等,0,2025-07-02,2025-06-20,有限会社ホーム薬品,,有限会社,埼玉県,蕨市,中央３丁目１９番２０号,,11,223,3350004,,,2025-06-20,清算の結了等,,,2015-10-05,1,,,,,ホームヤクヒン,0
338,2060002015699,登記記録の閉鎖等,0,2025-07-02,2025-06-26,有限会社紫明堂,,有限会社,栃木県,日光市,中宮祠２４７８番地,,09,206,3211661,,,2025-06-26,清算の結了等,,,2015-10-05,1,,,,,シメイドウ,0
343,2080101024054,登記記録の閉鎖等,0,2025-07-02,2025-06-25,株式会社三幸創建,,株式会社,静岡県,富士宮市,東町９番１７号東町事務所,,22,207,4180077,,,2025-06-25,清算の結了等,,,2023-06-06,1,,,,,サンコウソウケン,0
348,2100001033219,登記記録の閉鎖等,0,2025-07-02,2025-06-20,シナジー株式会社,,株式会社,長野県,長野市,松代町東条８０２番地,,20,201,3811221,,,2025-06-20,合併による解散等,9010001139019,令和７年６月２０日長野市大字安茂里５２６番地６３株式会社ティースリー（9010001139019）に合併し解散,2020-06-02,1,,,,,シナジー,0
351,2110005003794,登記記録の閉鎖等,0,2025-07-02,2025-06-05,天理教越後安田分教会,,その他の設立登記法人,新潟県,阿賀野市,六野瀬４８番地,,15,223,9592215,,,2025-06-05,合併による解散等,8110005004184,令和７年６月５日新潟県五泉市村松乙１３４番地２天理教中蒲原分教会（8110005004184）に合併し解散,2015-10-05,1,,,,,テンリキョウエチゴヤスダブンキョウカイ,0
388,2180002010085,登記記録の閉鎖等,0,2025-07-02,2025-06-19,有限会社長谷川プラスチック,,有限会社,愛知県,名古屋市瑞穂区,松月町４丁目２番地,,23,108,4670004,,,2025-06-19,清算の結了等,,,2015-10-05,1,,,,,ハセガワプラスチック,0
407,2250001012414,登記記録の閉鎖等,0,2025-07-02,2025-06-27,株式会社オガワ,,株式会社,山口県,柳井市,柳井１５７４番地５７,,35,212,7420021,,,2025-06-27,清算の結了等,,,2015-10-05,1,,,,,オガワ,0
421,2290001101155,登記記録の閉鎖等,0,2025-07-02,2025-06-20,株式会社キッド,,株式会社,福岡県,福岡市博多区,築港本町５番１９号,,40,132,8120021,,,2025-06-20,清算の結了等,,,2023-04-21,1,,,,,キッド,0
432,2360001020777,登記記録の閉鎖等,0,2025-07-02,2025-06-25,株式会社ＥＣ－ＧＡＩＮ,,株式会社,沖縄県,那覇市,久茂地２丁目２－２,,47,201,9000015,,,2025-06-25,清算の結了等,,,2016-04-28,1,,,,,イーシーゲイン,0
436,2370003004249,登記記録の閉鎖等,0,2025-07-02,2025-06-23,合同会社フレッシュワン,,合同会社,宮城県,仙台市太白区,八木山南１丁目２番地の１２,,04,104,9820807,,,2025-06-23,清算の結了等,,,2018-09-12,1,,,,,フレッシュワン,0
437,2400001013099,登記記録の閉鎖等,0,2025-07-02,2025-06-12,花巻ソーラー株式会社,,株式会社,岩手県,花巻市,東和町安俵１区２１９番１,,03,205,0280115,,,2025-06-12,清算の結了等,,,2016-03-10,1,,,,,ハナマキソーラー,0
446,2470001002335,登記記録の閉鎖等,0,2025-07-02,2025-06-27,株式会社セトロン,,株式会社,香川県,高松市,上福岡町８８８番地,,37,201,7600077,,,2025-06-27,清算の結了等,,,2015-10-05,1,,,,,セトロン,0
456,3010001057390,登記記録の閉鎖等,0,2025-07-02,2025-06-13,丸谷商事株式会社,,株式会社,東京都,中央区,日本橋１丁目２１番４号,,13,102,1030027,,,2025-06-13,清算の結了等,,,2015-10-05,1,,,,,マルタニショウジ,0
459,3010001170359,登記記録の閉鎖等,0,2025-07-02,2025-06-13,ＪＰＶ第３号株式会社,,株式会社,東京都,千代田区,霞が関３丁目２番１号,,13,101,1000013,,,2025-06-13,清算の結了等,,,2015-10-05,1,,,,,ジェイピーブイダイサンゴウ,0
477,3010403008280,登記記録の閉鎖等,0,2025-07-02,2025-06-13,合同会社ＣＬＦ第２３号,,合同会社,東京都,千代田区,霞が関３丁目２番１号,,13,101,1000013,,,2025-06-13,清算の結了等,,,2015-10-05,1,,,,,シーエルエフダイニジュウサンゴウ,0
478,3010403008875,登記記録の閉鎖等,0,2025-07-02,2025-06-13,合同会社ＣＬＦ第２４号,,合同会社,東京都,千代田区,霞が関３丁目２番１号,,13,101,1000013,,,2025-06-13,清算の結了等,,,2015-10-05,1,,,,,シーエルエフダイニジュウヨンゴウ,0
481,3010405010631,登記記録の閉鎖等,0,2025-07-02,2025-06-10,特定非営利活動法人現代浮世絵文化協議会,,その他の設立登記法人,東京都,港区,元赤坂１丁目５番２０－７１０号,,13,103,1070051,,,2025-06-10,清算の結了等,,,2015-10-05,1,,,,,ゲンダイウキヨエブンカキョウギカイ,0
513,3012402014573,登記記録の閉鎖等,0,2025-07-02,2025-06-23,有限会社エンジョイライフ,,有限会社,東京都,国立市,北１丁目３番の２８アーデル国立ヒルズ８０１,,13,215,1860001,,,2025-06-23,清算の結了等,,,2015-10-05,1,,,,,エンジョイライフ,0
514,3012801007087,登記記録の閉鎖等,0,2025-07-02,2025-06-23,拝島住宅産業株式会社,,株式会社,東京都,昭島市,田中町１丁目９番１号,,13,207,1960014,,,2025-06-23,清算の結了等,,,2015-10-05,1,,,,,ハイジマジュウタクサンギョウ,0
523,3020001153222,登記記録の閉鎖等,0,2025-07-02,2025-06-26,アイビーシーネットワークス株式会社,,株式会社,神奈川県,横浜市港北区,高田西５丁目１２番２号,,14,109,2230066,,,2025-06-26,清算の結了等,,,2023-08-30,1,,,,,アイビーシーネットワークス,0
532,3021002048808,登記記録の閉鎖等,0,2025-07-02,2025-06-23,有限会社ヤマトヤ電子,,有限会社,神奈川県,綾瀬市,深谷中６丁目１３番５３号,,14,218,2521107,,,2025-06-23,清算の結了等,,,2015-10-05,1,,,,,ヤマトヤデンシ,0
540,3030002045640,登記記録の閉鎖等,0,2025-07-02,2025-06-26,古田印刷有限会社,,有限会社,埼玉県,草加市,新里町１０９２番地,,11,221,3400031,,,2025-06-26,清算の結了等,,,2015-10-05,1,,,,,フルタインサツ,0
542,3040001078748,登記記録の閉鎖等,0,2025-07-02,2025-06-16,ベルメンテナンス株式会社,,株式会社,千葉県,千葉市緑区,おゆみ野南１丁目１番地１４,,12,105,2660033,,,2025-06-16,清算の結了等,,,2015-10-05,1,,,,,ベルメンテナンス,0
546,3040003005709,登記記録の閉鎖等,0,2025-07-02,2025-06-16,Ｆｒｅｓｈ　Ｗｉｎｄ合同会社,,合同会社,千葉県,千葉市緑区,おゆみ野有吉２６番地８,,12,105,2660034,,,2025-06-16,清算の結了等,,,2015-10-05,1,,,,,フレッシュウインド,0
555,3080002016463,登記記録の閉鎖等,0,2025-07-02,2025-06-19,有限会社ワークス・ヤギ,,有限会社,静岡県,焼津市,小柳津６５９番地の１,,22,212,4250073,,,2025-06-19,清算の結了等,,,2015-10-05,1,,,,,ワークスヤギ,0
565,3110002030139,登記記録の閉鎖等,0,2025-07-02,2025-06-16,有限会社ヒロコー,,有限会社,新潟県,長岡市,大山１丁目６番地１５,,15,202,9402113,,,2025-06-16,清算の結了等,,,2015-10-05,1,,,,,ヒロコー,0
573,3120003025970,登記記録の閉鎖等,0,2025-07-02,2025-06-24,豊澄ホールディングス合同会社,,合同会社,東京都,江東区,豊洲５丁目６番２９－１２３０号,,13,108,1350061,,,2025-06-24,清算の結了等,,,2024-02-20,1,,,,,トヨズミホールディングス,0
578,3120101029485,登記記録の閉鎖等,0,2025-07-02,2025-06-20,豊星鍍金工業株式会社,,株式会社,大阪府,堺市堺区,北三国ヶ丘町３丁２番２４号,,27,141,5900021,,,2025-06-20,清算の結了等,,,2015-10-05,1,,,,,ホウセイメッキコウギョウ,0
592,3150001014015,登記記録の閉鎖等,0,2025-07-02,2025-06-30,株式会社吉川,,株式会社,奈良県,御所市,大字森脇５８２番地,,29,208,6392318,,,2025-06-30,清算の結了等,,,2015-10-05,1,,,,,ヨシカワ,0
594,3180001141806,登記記録の閉鎖等,0,2025-07-02,2025-06-30,株式会社オーガニックスマートジャパン,,株式会社,愛知県,名古屋市中区,錦２丁目１９番１号,,23,106,4600003,,,2025-06-30,清算の結了等,,,2020-07-06,1,,,,,オーガニックスマートジャパン,0
595,3180001157496,登記記録の閉鎖等,0,2025-07-02,2025-06-23,株式会社Ｎ‐ＨＯＰＥ,,株式会社,愛知県,名古屋市守山区,泉が丘１０５番地,,23,113,4630804,,,2025-06-23,清算の結了等,,,2023-08-09,1,,,,,エヌホープ,0
604,3190002021394,登記記録の閉鎖等,0,2025-07-02,2025-06-24,有限会社西村写真機店,,有限会社,三重県,四日市市,諏訪町３番１３号,,24,202,5100085,,,2025-06-24,清算の結了等,,,2015-10-05,1,,,,,ニシムラシャシンキテン,0
612,3230005002750,登記記録の閉鎖等,0,2025-07-02,2025-06-11,熊野神社,,その他の設立登記法人,富山県,富山市,八尾町東坂下３４２番地,,16,201,9392324,,,2025-06-11,合併による解散等,7230005002788,令和７年６月１１日富山市八尾町黒田３９２８番地杉原神社（7230005002788）に合併し解散,2015-10-05,1,,,,,,0
622,3270005004925,登記記録の閉鎖等,0,2025-07-02,2025-06-26,一般財団法人岩美町振興公社,,その他の設立登記法人,鳥取県,岩美郡岩美町,大字浦富６７５番地１,,31,302,6810003,,,2025-06-26,清算の結了等,,,2015-10-05,1,,,,,イワミチョウシンコウコウシャ,0
669,4010001133199,登記記録の閉鎖等,0,2025-07-02,2025-06-09,ニイガタテクノマリン株式会社,,株式会社,東京都,中央区,八丁堀３丁目１番７号,,13,102,1040032,,,2025-06-09,清算の結了等,,,2015-10-05,1,,,,,ニイガタテクノマリン,0
671,4010001167453,登記記録の閉鎖等,0,2025-07-02,2025-06-13,ＪＰＣ第１７号株式会社,,株式会社,東京都,千代田区,霞が関３丁目２番１号,,13,101,1000013,,,2025-06-13,清算の結了等,,,2015-10-05,1,,,,,ジェイピーシーダイジュウナナゴウ,0
677,4010003035245,登記記録の閉鎖等,0,2025-07-02,2025-05-19,合同会社Ｍｏｒｉｆｙ,,合同会社,東京都,中央区,銀座１丁目２２番１１号銀座大竹ビジデンス２階,,13,102,1040061,,,2025-05-19,清算の結了等,,,2021-07-07,1,,,,,モリファイ,0
692,4010405018764,登記記録の閉鎖等,0,2025-07-02,2025-06-16,一般社団法人Ｋｉｅｌ,,その他の設立登記法人,東京都,港区,虎ノ門５丁目１番４号,,13,103,1050001,,,2025-06-16,清算の結了等,,,2020-05-21,1,,,,,キール,0
705,4010701037699,登記記録の閉鎖等,0,2025-07-02,2025-06-10,株式会社ＩＲＪ,,株式会社,東京都,中央区,築地７丁目９番１５号パークハイツ築地５０３号室,,13,102,1040045,,,2025-06-10,清算の結了等,,,2019-06-12,1,,,,,アイアールジェイ,0
716,4011001157056,登記記録の閉鎖等,0,2025-07-02,2025-06-04,フラットリー株式会社,,株式会社,東京都,渋谷区,神宮前６丁目２３番４号桑野ビル２階,,13,113,1500001,,,2025-06-04,清算の結了等,,,2023-09-25,1,,,,,フラットリー,0
722,4011101058121,登記記録の閉鎖等,0,2025-07-02,2025-06-10,ウエル東京株式会社,,株式会社,東京都,新宿区,西新宿４丁目３２番１２号,,13,104,1600023,,,2025-06-10,清算の結了等,,,2015-10-05,1,,,,,ウエルトウキョウ,0
728,4011502006133,登記記録の閉鎖等,0,2025-07-02,2025-06-25,有限会社山崎印刷,,有限会社,東京都,北区,滝野川４丁目１４番１３号,,13,117,1140023,,,2025-06-25,清算の結了等,,,2015-10-05,1,,,,,,0
731,4011801015446,登記記録の閉鎖等,0,2025-07-02,2025-06-27,株式会社エムケイビルディング,,株式会社,東京都,葛飾区,新小岩２丁目４番５号,,13,122,1240024,,,2025-06-27,清算の結了等,,,2015-10-05,1,,,,,エムケイビルディング,0
737,4012302005003,登記記録の閉鎖等,0,2025-07-02,2025-06-24,有限会社優美,,有限会社,東京都,町田市,常盤町３５８８番地２７,,13,209,1940213,,,2025-06-24,清算の結了等,,,2015-10-05,1,,,,,,0
738,4012401012296,登記記録の閉鎖等,0,2025-07-02,2025-06-26,株式会社オービテック,,株式会社,東京都,三鷹市,井の頭４丁目１９番５号,,13,204,1810001,,,2025-06-26,清算の結了等,,,2015-10-05,1,,,,,オービテック,0
752,4021001023703,登記記録の閉鎖等,0,2025-07-02,2025-06-25,株式会社パイオニア・マネジメント,,株式会社,神奈川県,愛甲郡愛川町,半原５６９５番地,,14,401,2430307,,,2025-06-25,清算の結了等,,,2015-10-05,1,,,,,,0
784,4090002006933,登記記録の閉鎖等,0,2025-07-02,2025-06-25,有限会社秀峰,,有限会社,山梨県,甲府市,国母８丁目１０番１３号,,19,201,4000043,,,2025-06-25,清算の結了等,,,2015-10-05,1,,,,,シュウホウ,0
795,4120001235315,登記記録の閉鎖等,0,2025-07-02,2025-06-30,株式会社富士門,,株式会社,大阪府,柏原市,大県３丁目８番２０号ロイヤル柏原２２０号室,,27,221,5820018,,,2025-06-30,清算の結了等,,,2021-02-17,1,,,,,フジモン,0
809,4130001045894,登記記録の閉鎖等,0,2025-07-02,2025-06-10,株式会社ライフケアサービス,,株式会社,東京都,中央区,勝どき６丁目３番２－４８２２号,,13,102,1040054,,,2025-06-10,清算の結了等,,,2015-10-05,1,,,,,ライフケアサービス,0
830,4190003003119,登記記録の閉鎖等,0,2025-07-02,2025-06-23,合同会社ＶＩＲＹＡ,,合同会社,三重県,熊野市,遊木町３２４番地,,24,212,5194205,,,2025-06-23,清算の結了等,,,2019-04-24,1,,,,,ヴィリヤ,0
831,4200001023422,登記記録の閉鎖等,0,2025-07-02,2025-06-27,株式会社つた花屋,,株式会社,岐阜県,中津川市,太田町３丁目５番３０号,,21,206,5080033,,,2025-06-27,清算の結了等,,,2015-10-05,1,,,,,ツタバナヤ,0
874,4380001018446,登記記録の閉鎖等,0,2025-07-02,2025-06-18,株式会社恒和,,株式会社,福島県,大沼郡金山町,大字川口字新町５６５番地８,,07,445,9680011,,,2025-06-18,清算の結了等,,,2015-10-05,1,,,,,,0
875,4380002025350,登記記録の閉鎖等,0,2025-07-02,2025-06-23,有限会社根本企画,,有限会社,福島県,いわき市,小川町上小川字赤沼１４番地の３,,07,204,9793124,,,2025-06-23,清算の結了等,,,2015-10-05,1,,,,,ネモトキカク,0
890,4430002039849,登記記録の閉鎖等,0,2025-07-02,2025-06-23,有限会社テクニカルケーズ,,有限会社,北海道,札幌市東区,北二十八条東１丁目４番２５号,,01,103,0650028,,,2025-06-23,清算の結了等,,,2015-10-05,1,,,,,テクニカルケーズ,0
894,4460003000030,登記記録の閉鎖等,0,2025-07-02,2025-06-10,合資会社大成商亊,,合資会社,北海道,釧路市,新栄町６番５号,,01,206,0850032,,,2025-06-10,清算の結了等,,,2015-10-05,1,,,,,タイセイショウジ,0
901,5010001147025,登記記録の閉鎖等,0,2025-07-02,2025-06-09,株式会社九段エステート,,株式会社,東京都,千代田区,九段南２丁目２番７号,,13,101,1020074,,,2025-06-09,清算の結了等,,,2015-10-05,1,,,,,クダンエステート,0
902,5010001169176,登記記録の閉鎖等,0,2025-07-02,2025-06-30,株式会社ひなびや,,株式会社,東京都,中央区,日本橋蛎殻町１丁目３２番１１号エクセラージュ日本橋蛎殻町６０３号,,13,102,1030014,,,2025-06-30,合併による解散等,2011501013883,令和７年６月２１日東京都荒川区西日暮里二丁目１０番５号泉ビル２階株式会社爽風舎（2011501013883）に合併し解散,2015-10-05,1,,,,,ヒナビヤ,0
903,5010001172155,登記記録の閉鎖等,0,2025-07-02,2025-06-13,ＪＰＡ第３０号株式会社,,株式会社,東京都,千代田区,霞が関３丁目２番１号,,13,101,1000013,,,2025-06-13,清算の結了等,,,2015-12-08,1,,,,,ジェイピーエーダイサンジュウウゴウ,0
906,5010001195247,登記記録の閉鎖等,0,2025-07-02,2025-06-13,ＪＰＡ第１３８号株式会社,,株式会社,東京都,千代田区,霞が関３丁目２番１号,,13,101,1000013,,,2025-06-13,清算の結了等,,,2018-10-04,1,,,,,ジェイピーエーダイヒャクサンジュウハチゴウ,0
912,5010003042406,登記記録の閉鎖等,0,2025-07-02,2025-06-30,ＭＡＩＳＯＮ　ＴＯＭＯＫＩ合同会社,,合同会社,東京都,世田谷区,駒沢２丁目１８－１３,,13,112,1540012,,,2025-06-30,清算の結了等,,,2023-12-12,1,,,,,メゾントモキ,0
919,5010005033155,登記記録の閉鎖等,0,2025-07-02,2025-06-23,歌川一般社団法人,,その他の設立登記法人,東京都,千代田区,霞が関３丁目２番５号,,13,101,1000013,,,2025-06-23,清算の結了等,,,2021-03-31,1,,,,,ウタガワ,0
928,5010401173364,登記記録の閉鎖等,0,2025-07-02,2025-06-30,デュークズ・プラン株式会社,,株式会社,東京都,世田谷区,上馬１丁目１番７－１１０号,,13,112,1540011,,,2025-06-30,清算の結了等,,,2023-03-31,1,,,,,デュークズプラン,0
937,5010502013865,登記記録の閉鎖等,0,2025-07-02,2025-06-16,野川薬品有限会社,,有限会社,東京都,台東区,松が谷３丁目２０番６号,,13,106,1110036,,,2025-06-16,清算の結了等,,,2015-10-05,1,,,,,ノガワヤクヒン,0
945,5011101041209,登記記録の閉鎖等,0,2025-07-02,2025-06-09,信和地所株式会社,,株式会社,東京都,新宿区,北新宿１丁目７番２１号,,13,104,1690074,,,2025-06-09,清算の結了等,,,2015-10-05,1,,,,,シンワジショ,0
967,5012702004652,登記記録の閉鎖等,0,2025-07-02,2025-06-26,有限会社並木鉄工所,,有限会社,東京都,西東京市,柳沢５丁目１５番２６号,,13,229,2020022,,,2025-06-26,清算の結了等,,,2015-10-05,1,,,,,ナミキテッコウジョ,0
969,5013301028679,登記記録の閉鎖等,0,2025-07-02,2025-06-18,株式会社ドットコム・リレーションズ,,株式会社,福島県,耶麻郡猪苗代町,字林崎４６１－３,,07,408,9693103,,,2025-06-18,清算の結了等,,,2015-10-05,1,,,,,,0
986,5021001078639,登記記録の閉鎖等,0,2025-07-02,2025-06-30,株式会社千年彫刻,,株式会社,神奈川県,鎌倉市,二階堂２４７番地１６,,14,204,2480002,,,2025-06-30,清算の結了等,,,2023-04-06,1,,,,,センネンチョウコク,0
993,5021002059522,登記記録の閉鎖等,0,2025-07-02,2025-06-30,有限会社古川工務店,,有限会社,神奈川県,平塚市,横内４１９１番地,,14,203,2540002,,,2025-06-30,清算の結了等,,,2015-10-05,1,,,,,コガワコウムテン,0
999,5030002073103,登記記録の閉鎖等,0,2025-07-02,2025-06-25,有限会社黒須設計,,有限会社,埼玉県,川越市,的場新町３番地４,,11,201,3501107,,,2025-06-25,清算の結了等,,,2015-10-05,1,,,,,クロスセッケイ,0
1001,5040001026416,登記記録の閉鎖等,0,2025-07-02,2025-06-16,株式会社サンリビング,,株式会社,千葉県,市川市,曽谷１丁目３０番１８号,,12,203,2720832,,,2025-06-16,清算の結了等,,,2015-10-05,1,,,,,サンリビング,0
1050,5180003018678,登記記録の閉鎖等,0,2025-07-02,2025-06-23,合同会社七蓮,,合同会社,愛知県,名古屋市中区,千代田３丁目１７番７号,,23,106,4600012,,,2025-06-23,合併による解散等,6180001116425,令和７年５月３１日名古屋市中区千代田三丁目１７番７号株式会社ジェイ・トラッド（6180001116425）に合併し解散,2018-02-07,1,,,,,ナナハス,0
1062,5250002007138,登記記録の閉鎖等,0,2025-07-02,2025-06-26,有限会社エフプロジェクト,,有限会社,山口県,宇部市,西宇部南２丁目８番６号,,35,202,7590208,,,2025-06-26,清算の結了等,,,2015-10-05,1,,,,,エフプロジェクト,0
1066,5260002010363,登記記録の閉鎖等,0,2025-07-02,2025-06-18,有限会社ヤマムロ商会,,有限会社,岡山県,岡山市南区,福成１丁目１７５番地の４,,33,104,7028022,,,2025-06-18,清算の結了等,,,2015-10-05,1,,,,,ヤマムロショウカイ,0
1070,5280002005758,登記記録の閉鎖等,0,2025-07-02,2025-06-27,有限会社椿電工,,有限会社,島根県,出雲市,中野町８７０番地１,,32,203,6930062,,,2025-06-27,清算の結了等,,,2015-10-05,1,,,,,ツバキデンコウ,0
1077,5290002050480,登記記録の閉鎖等,0,2025-07-02,2025-06-20,有限会社しき,,有限会社,福岡県,久留米市,城島町江上本１３１５番地の１,,40,203,8300214,,,2025-06-20,清算の結了等,,,2015-10-05,1,,,,,シキ,0
1093,5370002004461,登記記録の閉鎖等,0,2025-07-02,2025-06-20,有限会社阿部蔬菜加工センター,,有限会社,宮城県,仙台市若林区,若林２丁目５番３号,,04,103,9840826,,,2025-06-20,清算の結了等,,,2015-10-05,1,,,,,,0
1096,5380001017562,登記記録の閉鎖等,0,2025-07-02,2025-06-18,株式会社大生,,株式会社,福島県,会津若松市,中町２番５４号,,07,202,9650878,,,2025-06-18,清算の結了等,,,2015-10-05,1,,,,,,0
1108,5430001083418,登記記録の閉鎖等,0,2025-07-02,2025-06-20,株式会社ＬＴＧ,,株式会社,北海道,札幌市西区,二十四軒一条４丁目１番１０号,,01,107,0630801,,,2025-06-20,清算の結了等,,,2021-02-12,1,,,,,エルティージー,0
1114,5470002005482,登記記録の閉鎖等,0,2025-07-02,2025-06-25,有限会社花商,,有限会社,香川県,高松市,花ノ宮町２丁目７番３号,,37,201,7618063,,,2025-06-25,清算の結了等,,,2015-10-05,1,,,,,ハナショウ,0
1118,5480001010680,登記記録の閉鎖等,0,2025-07-02,2025-06-23,株式会社アイエヌケー建築企画,,株式会社,徳島県,徳島市,住吉６丁目１番６号,,36,201,7700861,,,2025-06-23,清算の結了等,,,2019-04-26,1,,,,,アイエヌケーケンチクキカク,0
1120,5480002013757,登記記録の閉鎖等,0,2025-07-02,2025-06-23,有限会社メディック住友,,有限会社,徳島県,阿南市,羽ノ浦町宮倉南浦１９番地の２,,36,204,7791102,,,2025-06-23,清算の結了等,,,2015-10-05,1,,,,,,0
1136,6010001233369,登記記録の閉鎖等,0,2025-07-02,2025-06-16,日本天準株式会社,,株式会社,千葉県,柏市,末広町８番１８号田口ビル３０３,,12,217,2770842,,,2025-06-16,清算の結了等,,,2023-03-06,1,,,,,ニホンテンジュン,0
1151,6010501053655,登記記録の閉鎖等,0,2025-07-02,2025-06-16,株式会社ＳＴＹ,,株式会社,東京都,台東区,竜泉３丁目４２番７号,,13,106,1100012,,,2025-06-16,清算の結了等,,,2025-02-17,1,,,,,エスティーワイ,0
1169,6011003010343,登記記録の閉鎖等,0,2025-07-02,2025-06-06,合同会社ＥＮＪＯＹ,,合同会社,東京都,新宿区,歌舞伎町２丁目１９－１５てなむタウンビル６階～８階,,13,104,1600021,,,2025-06-06,清算の結了等,,,2019-09-17,1,,,,,エンジョイ,0
1193,6011801023232,登記記録の閉鎖等,0,2025-07-02,2025-06-30,Ａ．ＴＯＳＯ株式会社,,株式会社,東京都,足立区,神明３丁目４番１５号,,13,121,1210051,,,2025-06-30,清算の結了等,,,2015-10-05,1,,,,,トーソー,0
1194,6011801043321,登記記録の閉鎖等,0,2025-07-02,2025-06-25,株式会社小丸子,,株式会社,東京都,足立区,小台１丁目２２－２－１０２４室,,13,121,1200046,,,2025-06-25,清算の結了等,,,2023-11-10,1,,,,,ショウマルコ,0
1197,6011803000287,登記記録の閉鎖等,0,2025-07-02,2025-06-26,合名会社新小岩浴場,,合名会社,東京都,葛飾区,新小岩２丁目３番１５号,,13,122,1240024,,,2025-06-26,清算の結了等,,,2015-10-05,1,,,,,シンコイワヨクジョウ,0
1208,6021005008649,登記記録の閉鎖等,0,2025-07-02,2025-06-11,医療法人慶恭会,,その他の設立登記法人,神奈川県,鎌倉市,小町１丁目６番８号リアスコビル１階・２階,,14,204,2480006,,,2025-06-11,合併による解散等,2020005011468,令和７年５月２９日横浜市戸塚区戸塚町１６番地１トツカーナ５Ｆ医療法人メビア（2020005011468）に合併し解散,2015-10-05,1,,,,,ケイキョウカイ,0
1217,6030002012183,登記記録の閉鎖等,0,2025-07-02,2025-06-27,有限会社北斗,,有限会社,埼玉県,さいたま市浦和区,元町３丁目１２番１３号,,11,107,3300073,,,2025-06-27,清算の結了等,,,2015-10-05,1,,,,,ホクト,0
1220,6030002080321,登記記録の閉鎖等,0,2025-07-02,2025-06-25,有限会社ハピネスホームサービス,,有限会社,埼玉県,川越市,大字木野目３９３番地２３,,11,201,3500016,,,2025-06-25,清算の結了等,,,2015-10-05,1,,,,,ハピネスホームサービス,0
1225,6040002037808,登記記録の閉鎖等,0,2025-07-02,2025-06-10,有限会社暮喜工業,,有限会社,千葉県,鎌ケ谷市,丸山１丁目１７番４９号,,12,224,2730103,,,2025-06-10,清算の結了等,,,2015-10-05,1,,,,,クレキコウギョウ,0
1226,6040002078604,登記記録の閉鎖等,0,2025-07-02,2025-06-16,有限会社ヤマソー段ボール,,有限会社,千葉県,大網白里市,永田１９９番地,,12,239,2993233,,,2025-06-16,清算の結了等,,,2015-10-05,1,,,,,ヤマソーダンボール,0
1227,6040002100276,登記記録の閉鎖等,0,2025-07-02,2025-06-25,有限会社伊豆観光サービス,,有限会社,静岡県,伊東市,宇佐美４２４番地の４,,22,208,4140001,,,2025-06-25,清算の結了等,,,2015-10-05,1,,,,,イズカンコウサービス,0
1238,6080005007556,登記記録の閉鎖等,0,2025-07-02,2025-06-23,一般社団法人大井川種苗採捕,,その他の設立登記法人,静岡県,焼津市,高新田２２１９番地の６,,22,212,4210204,,,2025-06-23,清算の結了等,,,2023-08-15,1,,,,,オオイガワシュビョウサイホ,0
1243,6090003001048,登記記録の閉鎖等,0,2025-07-02,2025-06-23,コムキャット合同会社,,合同会社,山梨県,都留市,四日市場４７７番地３,,19,204,4020005,,,2025-06-23,清算の結了等,,,2015-10-05,1,,,,,コムキャット,0
1266,6120002077597,登記記録の閉鎖等,0,2025-07-02,2025-06-26,幸板金工業有限会社,,有限会社,大阪府,守口市,大久保町３丁目１３番１７号,,27,209,5700012,,,2025-06-26,清算の結了等,,,2015-10-05,1,,,,,サイワイバンキンコウギョウ,0
1273,6122001003278,登記記録の閉鎖等,0,2025-07-02,2025-06-24,シマ産業株式会社,,株式会社,大阪府,東大阪市,新上小阪２３番７号,,27,227,5770813,,,2025-06-24,清算の結了等,,,2015-10-05,1,,,,,シマサンギョウ,0
1274,6122001014341,登記記録の閉鎖等,0,2025-07-02,2025-06-23,株式会社コスモス,,株式会社,大阪府,東大阪市,御厨栄町２丁目１２番２１号,,27,227,5770036,,,2025-06-23,清算の結了等,,,2015-10-05,1,,,,,コスモス,0
1292,6180001102986,登記記録の閉鎖等,0,2025-07-02,2025-06-20,リ・ハヤシコンサルティング株式会社,,株式会社,愛知県,名古屋市緑区,藤塚３丁目２２１４番地,,23,114,4580813,,,2025-06-20,清算の結了等,,,2015-10-05,1,,,,,リハヤシコンサルティング,0
1297,6180005001004,登記記録の閉鎖等,0,2025-07-02,2025-06-25,神理教神祗中教会,,その他の設立登記法人,愛知県,名古屋市西区,西藪下町二丁目１２番地,,23,104,4510000,,,2025-06-25,清算の結了等,,,2015-10-05,1,,,,,シンリキョウシンギナカキョウカイ,1
1333,6380005000349,登記記録の閉鎖等,0,2025-07-02,2025-06-18,福島花卉商業協同組合,,その他の設立登記法人,福島県,福島市,北矢野目字樋越１番地,00084328,07,201,9600113,,,2025-06-18,清算の結了等,,,2015-10-05,1,,,,,フクシマカキショウギョウ,0
1336,6400001006875,登記記録の閉鎖等,0,2025-07-02,2025-06-13,澤田自動車工業株式会社,,株式会社,岩手県,宮古市,和見町６番２５号,,03,202,0270075,,,2025-06-13,清算の結了等,,,2015-10-05,1,,,,,サワダジドウシャコウギョウ,0
1339,6400002008763,登記記録の閉鎖等,0,2025-07-02,2025-06-16,有限会社伊藤技建,,有限会社,岩手県,花巻市,大迫町大迫第８地割１４番地７,,03,205,0283203,,,2025-06-16,清算の結了等,,,2015-10-05,1,,,,,,0
1346,6430005003370,登記記録の閉鎖等,0,2025-07-02,2025-06-23,医療法人社団小林胃腸科内科クリニック,,その他の設立登記法人,北海道,札幌市南区,石山一条６丁目１番１８号,,01,106,0050841,,,2025-06-23,清算の結了等,,,2015-10-05,1,,,,,コバヤシイチョウカナイカクリニック,0
1349,6450002004543,登記記録の閉鎖等,0,2025-07-02,2025-06-16,有限会社富士原商店,,有限会社,北海道,旭川市,二条通１３丁目７３４番地３,,01,204,0700032,,,2025-06-16,合併による解散等,8450001011869,令和７年６月１６日北海道旭川市永山十二条二丁目６番４号株式会社新生商事（8450001011869）に合併し解散,2015-10-05,1,,,,,フジハラショウテン,0
1355,6470002017493,登記記録の閉鎖等,0,2025-07-02,2025-06-25,有限会社はりまや,,有限会社,香川県,観音寺市,天神町１丁目３番５号,,37,205,7680068,,,2025-06-25,清算の結了等,,,2015-10-05,1,,,,,ハリマヤ,0
1374,7010005033129,登記記録の閉鎖等,0,2025-07-02,2025-06-26,広重一般社団法人,,その他の設立登記法人,東京都,千代田区,霞が関３丁目２番５号,,13,101,1000013,,,2025-06-26,清算の結了等,,,2021-03-23,1,,,,,ヒロシゲ,0
1378,7010401082092,登記記録の閉鎖等,0,2025-07-02,2025-06-20,株式会社ＨＹＧＧＥ　ＧＩＮＺＡ,,株式会社,東京都,中央区,銀座６丁目５番６号,,13,102,1040061,,,2025-06-20,合併による解散等,5010001087535,令和７年６月２０日東京都中央区銀座六丁目５番６号株式会社ＳＳＡ（5010001087535）に合併し解散,2015-10-05,1,,,,,ヒュッゲギンザ,0
1383,7010403022435,登記記録の閉鎖等,0,2025-07-02,2025-05-13,合同会社アルーシャ,,合同会社,東京都,港区,浜松町２丁目２番１５号浜松町ダイヤビル２Ｆ,,13,103,1050013,,,2025-05-13,清算の結了等,,,2020-03-02,1,,,,,アルーシャ,0
1387,7010601041344,登記記録の閉鎖等,0,2025-07-02,2025-06-18,株式会社スイッチスマイル,,株式会社,福島県,郡山市,緑町９番１２号三部会計事務所第２ビル１階,,07,203,9638023,,,2025-06-18,清算の結了等,,,2015-10-05,1,,,,,スイッチスマイル,0
1390,7010603000595,登記記録の閉鎖等,0,2025-07-02,2025-06-24,合資会社高ばし三岩,00051781,合資会社,東京都,江東区,清澄３丁目８番１０号,,13,108,1350024,,,2025-06-24,清算の結了等,,,2015-10-05,1,,,,,タカバシサンイワ,0
1399,7011001168959,登記記録の閉鎖等,0,2025-07-02,2025-06-04,江中東京相互住宅株式会社,,株式会社,東京都,目黒区,八雲１丁目１２番１１号,,13,110,1520023,,,2025-06-04,清算の結了等,,,2025-04-10,1,,,,,エナカトウキョウソウゴジュウタク,0
1411,7012301010265,登記記録の閉鎖等,0,2025-07-02,2025-06-26,株式会社ほんだな,,株式会社,東京都,町田市,小山町６０７番地,,13,209,1940212,,,2025-06-26,清算の結了等,,,2015-10-05,1,,,,,ホンダナ,0
1412,7012401037530,登記記録の閉鎖等,0,2025-07-02,2025-06-03,株式会社ＭＩＰ,,株式会社,東京都,渋谷区,恵比寿西１丁目７番１５号エビスＫＡＴＯＨビル１階,,13,113,1500021,,,2025-06-03,合併による解散等,7010401101307,令和７年６月１日東京都渋谷区恵比寿西一丁目７番１５号エビスＫＡＴＯＨビル１階ジーアールインベストメント株式会社（7010401101307）に合併し解散,2021-02-16,1,,,,,エムアイピー,0
1414,7012701011045,登記記録の閉鎖等,0,2025-07-02,2025-06-26,株式会社イオテクノ,,株式会社,東京都,東久留米市,八幡町１丁目９番２８号,,13,222,2030042,,,2025-06-26,清算の結了等,,,2015-10-05,1,,,,,イオテクノ,0
1436,7021001082300,登記記録の閉鎖等,0,2025-07-02,2025-06-26,株式会社ＢＨ,,株式会社,神奈川県,相模原市中央区,横山台１丁目３１番９‐４０７号,,14,152,2520241,,,2025-06-26,清算の結了等,,,2024-05-29,1,,,,,ビーエイチ,0
1444,7030001069083,登記記録の閉鎖等,0,2025-07-02,2025-06-25,株式会社サンワールド,,株式会社,埼玉県,鶴ヶ島市,若葉２丁目８番地１０,,11,241,3502207,,,2025-06-25,清算の結了等,,,2015-10-05,1,,,,,サンワールド,0
1467,7070002020636,登記記録の閉鎖等,0,2025-07-02,2025-06-25,有限会社ウインブルドン,,有限会社,群馬県,佐波郡玉村町,大字樋越１６２１番地,,10,464,3701103,,,2025-06-25,清算の結了等,,,2015-10-05,1,,,,,ウインブルドン,0
1472,7100002020319,登記記録の閉鎖等,0,2025-07-02,2025-06-27,松竹物産有限会社,,有限会社,長野県,松本市,鎌田１丁目２番２号鎌田マンション５０２号,,20,202,3900837,,,2025-06-27,清算の結了等,,,2015-10-05,1,,,,,ショウチクブッサン,0
1473,7100002038534,登記記録の閉鎖等,0,2025-07-02,2025-06-27,有限会社才覚,,有限会社,長野県,下伊那郡泰阜村,２４６９番地３,,20,414,3991801,,,2025-06-27,清算の結了等,,,2015-10-05,1,,,,,サイカク,0
1475,7110001025227,登記記録の閉鎖等,0,2025-07-02,2025-06-13,ミチ株式会社,,株式会社,新潟県,長岡市,中興野４３１番地３,,15,202,9540131,,,2025-06-13,合併による解散等,1110002032005,令和７年５月２０日新潟県長岡市中興野４３１番地３株式会社エル・アンド・アール（1110002032005）に合併し解散,2015-10-05,1,,,,,,0
1476,7110001036109,登記記録の閉鎖等,0,2025-07-02,2025-06-17,株式会社縁ｉｎｇ,,株式会社,新潟県,長岡市,中島７丁目５番１９号,,15,202,9400094,,,2025-06-17,清算の結了等,,,2021-10-14,1,,,,,エニシング,0
1513,7140003020074,登記記録の閉鎖等,0,2025-07-02,2025-06-27,合同会社ＣＶＳＥソーラー,,合同会社,兵庫県,神戸市東灘区,住吉宮町３丁目７番１４号,,28,101,6580053,,,2025-06-27,清算の結了等,,,2024-02-06,1,,,,,シーブイエスイーソーラー,0
1517,7180001011773,登記記録の閉鎖等,0,2025-07-02,2025-06-23,大野電工株式会社,,株式会社,愛知県,名古屋市北区,清水１丁目８番９号,,23,103,4620844,,,2025-06-23,清算の結了等,,,2015-10-05,1,,,,,オオノデンコウ,0
1518,7180001032464,登記記録の閉鎖等,0,2025-07-02,2025-06-11,富士工業株式会社,,株式会社,愛知県,大府市,横根町箕手５９番地,,23,223,4740011,,,2025-06-11,合併による解散等,8010001243119,令和７年６月１日東京都千代田区丸の内二丁目５番１号丸の内二丁目ビル６階エンデバー・ユナイテッド・パートナーズ・３０株式会社（8010001243119）に合併し解散,2015-10-05,1,,,,,フジコウギョウ,0
1526,7180001145035,登記記録の閉鎖等,0,2025-07-02,2025-06-18,株式会社Ｍｏｒｅ　Ｇｌｏｗ,,株式会社,愛知県,名古屋市中区,富士見町５番７号さくらＨｉｌｌｓ富士見１３０２号,,23,106,4600014,,,2025-06-18,清算の結了等,,,2021-03-08,1,,,,,モアグロウ,0
1529,7180002002920,登記記録の閉鎖等,0,2025-07-02,2025-06-23,有限会社エヌケイコーポレーシヨン,,有限会社,愛知県,名古屋市北区,米が瀬町６８番地,,23,103,4620031,,,2025-06-23,清算の結了等,,,2015-10-05,1,,,,,エヌケイコーポレーション,0
1530,7180002090627,登記記録の閉鎖等,0,2025-07-02,2025-06-20,有限会社ワイズシステム,,有限会社,愛知県,弥富市,子宝２丁目３４番地,,23,235,4901413,,,2025-06-20,清算の結了等,,,2015-10-05,1,,,,,ワイズシステム,0
1558,7280002011647,登記記録の閉鎖等,0,2025-07-02,2025-06-30,有限会社可部屋林産,,有限会社,島根県,仁多郡奥出雲町,上阿井１６５５番地,,32,343,6991621,,,2025-06-30,清算の結了等,,,2025-06-17,1,,,,,カベヤリンサン,0
1571,7340002018578,登記記録の閉鎖等,0,2025-07-02,2025-06-20,有限会社鹿児島パラメヂカルサプライ社,,有限会社,鹿児島県,指宿市,湊４丁目５－２２,,46,210,8910405,,,2025-06-20,清算の結了等,,,2015-10-05,1,,,,,カゴシマパラメヂカルサプライシャ,0
1575,7370002004864,登記記録の閉鎖等,0,2025-07-02,2025-06-20,有限会社キタウラ食品販売,,有限会社,宮城県,仙台市若林区,今泉１丁目１３番２１号,,04,103,9840835,,,2025-06-20,清算の結了等,,,2015-10-05,1,,,,,キタウラショクヒンハンバイ,0
1589,7430003016877,登記記録の閉鎖等,0,2025-07-02,2025-06-23,合同会社Ｆｏｏｄ　Ｔｅｃｈ．ＮＫ,,合同会社,北海道,札幌市中央区,北二条西１０丁目１番地１４植物園グランドハイツ西１０７号,,01,101,0600002,,,2025-06-23,清算の結了等,,,2024-10-21,1,,,,,フードテックエヌケー,0
1596,7470002011223,登記記録の閉鎖等,0,2025-07-02,2025-06-20,有限会社プラウド,,有限会社,香川県,綾歌郡綾川町,陶２７５９番地３,,37,387,7612103,,,2025-06-20,清算の結了等,,,2015-10-05,1,,,,,,0
1601,7480002003649,登記記録の閉鎖等,0,2025-07-02,2025-06-24,西商事有限会社,,有限会社,徳島県,徳島市,幸町３丁目６６番地,,36,201,7700847,,,2025-06-24,清算の結了等,,,2015-10-05,1,,,,,ニシショウジ,0
1610,8010001066420,登記記録の閉鎖等,0,2025-07-02,2025-06-13,平和管理株式会社,,株式会社,東京都,千代田区,神田神保町２丁目１４番地朝日神保町プラザ１００６,,13,101,1010051,,,2025-06-13,清算の結了等,,,2015-10-05,1,,,,,ヘイワカンリ,0
1612,8010001165478,登記記録の閉鎖等,0,2025-07-02,2025-06-13,ＪＰＣ第８号株式会社,,株式会社,東京都,千代田区,霞が関３丁目２番１号,,13,101,1000013,,,2025-06-13,清算の結了等,,,2015-10-05,1,,,,,ジェイピーシーダイハチゴウ,0
1622,8010401016438,登記記録の閉鎖等,0,2025-07-02,2025-06-20,株式会社大行社,,株式会社,東京都,港区,芝４丁目５番１２号,,13,103,1080014,,,2025-06-20,清算の結了等,,,2024-09-26,1,,,,,ダイコウシャ,0
1631,8010501030677,登記記録の閉鎖等,0,2025-07-02,2025-06-25,株式会社イーネクスト,,株式会社,埼玉県,南埼玉郡宮代町,大字西粂原９６３番地,,11,442,3450833,,,2025-06-25,清算の結了等,,,2015-10-05,1,,,,,イーネクスト,0
1646,8011001114202,登記記録の閉鎖等,0,2025-07-02,2025-06-10,株式会社ＲＡＹ,,株式会社,東京都,港区,浜松町２丁目２番１５号,,13,103,1050013,,,2025-06-10,清算の結了等,,,2016-12-26,1,,,,,レイ,0
1680,8021002057853,登記記録の閉鎖等,0,2025-07-02,2025-06-26,有限会社サウンドショップとりうみ,,有限会社,神奈川県,平塚市,徳延６５８番地の３,,14,203,2540902,,,2025-06-26,清算の結了等,,,2015-10-05,1,,,,,サウンドショップトリウミ,0
1681,8021002066689,登記記録の閉鎖等,0,2025-07-02,2025-06-30,有限会社平成自動車販売,,有限会社,神奈川県,横須賀市,大矢部３丁目３５番２号,,14,201,2380024,,,2025-06-30,清算の結了等,,,2015-10-05,1,,,,,ヘイセイジドウシャハンバイ,0
1697,8040003014044,登記記録の閉鎖等,0,2025-07-02,2025-05-20,合同会社Ｍａｖｅｒｉｃｋ,,合同会社,東京都,渋谷区,上原１丁目４２番９号,,13,113,1510064,,,2025-05-20,合併による解散等,1040003008358,令和７年５月２０日東京都渋谷区上原一丁目４２番９号合同会社ＮＳ企画（1040003008358）に合併し解散,2019-09-18,1,,,,,マーベリック,0
1704,8050002029793,登記記録の閉鎖等,0,2025-07-02,2025-06-23,有限会社伊原保険事務所,,有限会社,茨城県,鉾田市,串挽７９３番地の２,,08,234,3111523,,,2025-06-23,清算の結了等,,,2015-10-05,1,,,,,イハラホケンジムショ,0
1710,8070002026500,登記記録の閉鎖等,0,2025-07-02,2025-06-25,有限会社武井商店,,有限会社,群馬県,渋川市,赤城町敷島４５１番地,,10,208,3791104,,,2025-06-25,清算の結了等,,,2024-11-11,1,,,,,タケイショウテン,0
1717,8100001026836,登記記録の閉鎖等,0,2025-07-02,2025-06-27,株式会社清和電設,,株式会社,長野県,松本市,元町１丁目４番２６号,,20,202,3900803,,,2025-06-27,清算の結了等,,,2015-10-05,1,,,,,セイワデンセツ,0
1737,8120901038672,登記記録の閉鎖等,0,2025-07-02,2025-06-26,佐々木総建株式会社,,株式会社,大阪府,茨木市,下穂積２丁目６番１７号,,27,211,5670041,,,2025-06-26,清算の結了等,,,2017-07-12,1,,,,,,0
1743,8140001136722,登記記録の閉鎖等,0,2025-07-02,2025-06-11,須田興産株式会社,,株式会社,兵庫県,西宮市,奥畑６番１２４号,,28,204,6620022,,,2025-06-11,合併による解散等,7010801005735,令和７年６月１日東京都大田区西糀谷三丁目７番１０号シャフトセンター株式会社（7010801005735）に合併し解散,2024-12-11,1,,,,,スダコウサン,0
1748,8150005005815,登記記録の閉鎖等,0,2025-07-02,2025-06-17,熊野神社,,その他の設立登記法人,奈良県,北葛城郡広陵町,大字弁財天３５０番地,,29,426,6350811,,,2025-06-17,合併による解散等,1150005005813,令和７年６月１７日奈良県北葛城郡広陵町大字弁財天３９９番地櫛玉比女命神社（1150005005813）に合併し解散,2015-10-05,1,,,,,,0
1753,8180003018345,登記記録の閉鎖等,0,2025-07-02,2025-06-23,合同会社Ｇ・ＱＵＯＬ,,合同会社,愛知県,名古屋市中区,千代田３丁目１７番７号,,23,106,4600012,,,2025-06-23,合併による解散等,6180001116425,令和７年５月３１日名古屋市中区千代田三丁目１７番７号株式会社ジェイ・トラッド（6180001116425）に合併し解散,2017-10-11,1,,,,,ジークォル,0
1759,8190001011359,登記記録の閉鎖等,0,2025-07-02,2025-06-24,株式会社アカツキ,,株式会社,三重県,松阪市,大黒田町４２５番地１５,,24,204,5150063,,,2025-06-24,清算の結了等,,,2015-10-05,1,,,,,アカツキ,0
1767,8240002000355,登記記録の閉鎖等,0,2025-07-02,2025-06-27,株式会社ＭＳ,,株式会社,広島県,広島市中区,田中町４番１４号,,34,101,7300026,,,2025-06-27,清算の結了等,,,2015-10-05,1,,,,,エムエス,0
1771,8290001058968,登記記録の閉鎖等,0,2025-07-02,2025-06-16,ＧＯＴＯＵ株式会社,,株式会社,福岡県,福岡市中央区,天神４丁目７番１１号,,40,133,8100001,,,2025-06-16,清算の結了等,,,2015-10-05,1,,,,,ゴトウ,0
1772,8290001062739,登記記録の閉鎖等,0,2025-07-02,2025-06-20,株式会社秀和,,株式会社,福岡県,久留米市,国分町１９２９番地６,,40,203,8390863,,,2025-06-20,清算の結了等,,,2015-10-05,1,,,,,シュウワ,0
1780,8290002008294,登記記録の閉鎖等,0,2025-07-02,2025-06-16,有限会社スクランブル,,有限会社,福岡県,福岡市早良区,南庄１丁目６番１７号,,40,137,8140031,,,2025-06-16,清算の結了等,,,2015-10-05,1,,,,,スクランブル,0
1802,8390001017328,登記記録の閉鎖等,0,2025-07-02,2025-06-09,株式会社ブライトネス,,株式会社,東京都,新宿区,北新宿４丁目１９番１２号ＭＹＦＬＡＴ１０２,,13,104,1690074,,,2025-06-09,清算の結了等,,,2023-07-31,1,,,,,ブライトネス,0
1806,8420002017257,登記記録の閉鎖等,0,2025-07-02,2025-06-16,有限会社六戸車検センター,,有限会社,青森県,上北郡六戸町,大字折茂字上折茂６７番地８８,,02,405,0330072,,,2025-06-16,清算の結了等,,,2015-10-05,1,,,,,ロクノヘシャケンセンター,0
1810,8450001000822,登記記録の閉鎖等,0,2025-07-02,2025-06-16,株式会社カネキチ商店,,株式会社,北海道,旭川市,二条通１３丁目左３号,,01,204,0700032,,,2025-06-16,合併による解散等,8450001011869,令和７年６月１６日北海道旭川市永山十二条二丁目６番４号株式会社新生商事（8450001011869）に合併し解散,2015-10-05,1,,,,,カネキチショウテン,0
1814,8470005003407,登記記録の閉鎖等,0,2025-07-02,2025-06-27,坂出サイロ事業協同組合,,その他の設立登記法人,香川県,坂出市,入船町１丁目６番１５号,,37,203,7620002,,,2025-06-27,清算の結了等,,,2015-10-05,1,,,,,サカイデサイロ,0
1819,8500002008719,登記記録の閉鎖等,0,2025-07-02,2025-06-23,有限会社犬寄国際クレー射撃場,,有限会社,愛媛県,伊予市,双海町上灘戊９９番地８,00007872,38,210,7993202,,,2025-06-23,清算の結了等,,,2015-10-05,1,,,,,イヌヨセコクサイクレーシャゲキジョウ,0
1890,9012301011914,登記記録の閉鎖等,0,2025-07-02,2025-06-16,株式会社ＴＨＫ,,株式会社,千葉県,千葉市中央区,新宿２丁目３－６エステート秀８０５,,12,101,2600021,,,2025-06-16,清算の結了等,,,2019-11-15,1,,,,,ティーエイチケー,0
1896,9020003021669,登記記録の閉鎖等,0,2025-07-02,2025-06-24,合同会社スプリングファームＳＳ鈴鹿１号,,合同会社,神奈川県,横浜市港北区,新横浜２丁目５番地２新横浜Ｕ・Ｕビル５階,,14,109,2220033,,,2025-06-24,清算の結了等,,,2022-04-25,1,,,,,スプリングファームエスエススズカイチゴウ,0
1906,9030001112196,登記記録の閉鎖等,0,2025-07-02,2025-06-25,株式会社夢工房,,株式会社,埼玉県,上尾市,大字原市４１６２番地,,11,219,3620021,,,2025-06-25,清算の結了等,,,2016-01-12,1,,,,,ユメコウボウ,0
1912,9030002024151,登記記録の閉鎖等,0,2025-07-02,2025-06-26,有限会社光美堂,,有限会社,埼玉県,戸田市,中町２丁目１６番２８号,,11,224,3350012,,,2025-06-26,清算の結了等,,,2015-10-05,1,,,,,コウビドウ,0
1916,9040003006239,登記記録の閉鎖等,0,2025-07-02,2025-06-05,株式会社ビジョン経営東京,,株式会社,東京都,千代田区,神田佐久間町２丁目１８番１号,,13,101,1010025,,,2025-06-05,清算の結了等,,,2015-10-05,1,,,,,ビジョンケイエイトウキョウ,0
1925,9050003008192,登記記録の閉鎖等,0,2025-07-02,2025-06-27,合同会社ＮＩＮＥ,,合同会社,茨城県,つくば市,花畑３丁目２４番地１ＹＳ－Ｉ１０２号,00134066,08,220,3003261,,,2025-06-27,合併による解散等,6030003007579,令和７年６月２０日埼玉県さいたま市南区南浦和二丁目３９番地１６第五大雄ビル６Ｂ合同会社ＭＡＨ（6030003007579）に合併し解散,2024-03-15,1,,,,,ナイン,0
1937,9090002013727,登記記録の閉鎖等,0,2025-07-02,2025-06-25,有限会社滝澤観光バス,,有限会社,山梨県,韮崎市,本町４丁目８番２２号,,19,207,4070024,,,2025-06-25,清算の結了等,,,2015-10-05,1,,,,,タキザワカンコウバス,0
1985,9180002086202,登記記録の閉鎖等,0,2025-07-02,2025-06-20,有限会社中兵,,有限会社,愛知県,常滑市,大野町９丁目１番地,,23,216,4790866,,,2025-06-20,清算の結了等,,,2015-10-05,1,,,,,ナカヒョウ,0
2010,9290001057804,登記記録の閉鎖等,0,2025-07-02,2025-06-16,株式会社ちいろば,,株式会社,福岡県,久留米市,北野町今山１０２７番地１,,40,203,8301122,,,2025-06-16,清算の結了等,,,2015-10-05,1,,,,,チイロバ,0
2023,9360001029985,登記記録の閉鎖等,0,2025-07-02,2025-06-16,株式会社クリピカＳＳ沖縄,,株式会社,沖縄県,那覇市,泊１丁目３番地２,,47,201,9000012,,,2025-06-16,合併による解散等,4130001025285,令和７年６月１日京都市山科区竹鼻木ノ本町２２番地３株式会社ＳＲＴコーポレーション（4130001025285）に合併し解散,2022-02-07,1,,,,,クリピカエスエスオキナワ,0
2034,9400601000829,登記記録の閉鎖等,0,2025-07-02,2025-06-11,エムズ・コンストラクション株式会社,,株式会社,岩手県,奥州市,水沢太日通り３丁目５番３号,,03,215,0230827,,,2025-06-11,清算の結了等,,,2015-10-05,1,,,,,エムズコンストラクション,0
2037,9430001046965,登記記録の閉鎖等,0,2025-07-02,2025-06-17,株式会社サンワールド,,株式会社,北海道,三笠市,岡山４４０番地１２,,01,222,0682165,,,2025-06-17,清算の結了等,,,2015-10-05,1,,,,,サンワールド,0
2047,9450002001091,登記記録の閉鎖等,0,2025-07-02,2025-06-26,有限会社オーガニックフードプラン,,有限会社,北海道,上川郡美瑛町,字水上３６４６番地２,,01,459,0710241,,,2025-06-26,清算の結了等,,,2015-10-05,1,,,,,,0
2052,9480001011428,登記記録の閉鎖等,0,2025-07-02,2025-06-24,大塚綜業株式会社,,株式会社,徳島県,阿波市,土成町宮川内字落久保７１番地２,,36,206,7711508,,,2025-06-24,清算の結了等,,,2021-07-14,1,,,,,オオツカソウギョウ,0
