sequenceNumber,corporateNumber,process,correct,updateDate,changeDate,name,nameImageId,kind,prefectureName,cityName,streetNumber,addressImageId,prefectureCode,cityCode,postCode,addressOutside,addressOutsideImageId,closeDate,closeCause,successorCorporateNumber,changeCause,assignmentDate,latest,enName,enPrefectureName,enCityName,enAddressOutside,furigana,hihyoji
2,1010001142137,登記記録の閉鎖等,0,2023-11-06,2023-11-02,暁星プランニング株式会社,,株式会社,東京都,新宿区,山吹町３４４番地第三英晃ビル５階,,13,104,1620801,,,2023-11-02,清算の結了等,,,2015-10-05,1,,,,,,0
5,1010001221378,登記記録の閉鎖等,0,2023-11-06,2023-10-30,株式会社ｎｕｂｅｓ,,株式会社,東京都,港区,赤坂１丁目１２番３２号アーク森ビル３階,,13,103,1070052,,,2023-10-30,清算の結了等,,,2021-09-27,1,,,,,ヌーベース,0
23,1010405016093,登記記録の閉鎖等,0,2023-11-06,2023-10-30,一般社団法人省エネ創エネ支援機構,,その他の設立登記法人,東京都,港区,芝２丁目１０番２－１２０１号,,13,103,1050014,,,2023-10-30,清算の結了等,,,2017-09-29,1,,,,,ショウエネソウエネシエンキコウ,0
45,1011101101552,登記記録の閉鎖等,0,2023-11-06,2023-10-31,株式会社Ｇｒｏｕｐ　Ｌｉｖｅ,,株式会社,東京都,新宿区,西早稲田３丁目２０番１２号ＴＳＫビル２Ｆ,,13,104,1690051,,,2023-10-31,合併による解散等,8010401075789,令和５年１０月２５日東京都港区赤坂四丁目１１番２１号株式会社ほうれんそう（8010401075789）に合併し解散,2023-01-19,1,,,,,グループライブ,0
56,1011201001446,登記記録の閉鎖等,0,2023-11-06,2023-11-01,久保田・ライフスペース・エンジニアリング株式会社,,株式会社,東京都,中野区,野方２丁目４６番５号,,13,114,1650027,,,2023-11-01,清算の結了等,,,2015-10-05,1,,,,,クボタライフスペースエンジニアリング,0
58,1011401002087,登記記録の閉鎖等,0,2023-11-06,2023-10-31,広明製紙株式会社,,株式会社,東京都,板橋区,成増２丁目４０番１号,,13,119,1750094,,,2023-10-31,清算の結了等,,,2015-10-05,1,,,,,コウメイセイシ,0
81,1020002030298,登記記録の閉鎖等,0,2023-11-06,2023-10-24,有限会社下村クリーニング店,,有限会社,神奈川県,横浜市南区,中島町４丁目８９番地,,14,105,2320055,,,2023-10-24,清算の結了等,,,2015-10-05,1,,,,,シモムラクリーニングテン,0
89,1021002014563,登記記録の閉鎖等,0,2023-11-06,2023-10-26,有限会社小池商店,,有限会社,神奈川県,横浜市港南区,大久保２丁目３５番６号,,14,111,2330007,,,2023-10-26,清算の結了等,,,2015-10-05,1,,,,,コイケショウテン,0
96,1030001046170,登記記録の閉鎖等,0,2023-11-06,2023-10-30,株式会社ユニテク,,株式会社,埼玉県,新座市,菅沢１丁目１０番１８号,,11,230,3520017,,,2023-10-30,合併による解散等,7012702003561,令和５年１０月１日東京都東村山市秋津町四丁目２４番地３３株式会社丸進工営（7012702003561）に合併し解散,2015-10-05,1,,,,,ユニテク,0
110,1030003013796,登記記録の閉鎖等,0,2023-11-06,2023-10-26,ナイロンケミカルサポート合同会社,,合同会社,埼玉県,加須市,花崎北４丁目２番地７７号,,11,210,3470016,,,2023-10-26,清算の結了等,,,2019-07-11,1,,,,,ナイロンケミカルサポート,0
116,1040001034208,登記記録の閉鎖等,0,2023-11-06,2023-10-25,東野株式会社,,株式会社,千葉県,市川市,大野町２丁目２２８番地１,,12,203,2720805,,,2023-10-25,清算の結了等,,,2015-10-05,1,,,,,ヒガシノ,0
122,1040001106980,登記記録の閉鎖等,0,2023-11-06,2023-11-01,株式会社パワートラスト,,株式会社,大阪府,大阪市北区,梅田１丁目２番２－２００号大阪駅前第２ビル２階１の１の１,,27,127,5300001,,,2023-11-01,清算の結了等,,,2018-11-21,1,,,,,パワートラスト,0
128,1040003010363,登記記録の閉鎖等,0,2023-11-06,2023-10-24,合同会社エムアンドティエンジニアリング,,合同会社,千葉県,佐倉市,新臼井田１３番１７号,,12,212,2850862,,,2023-10-24,清算の結了等,,,2017-07-25,1,,,,,エムアンドティエンジニアリング,0
131,1040005009189,登記記録の閉鎖等,0,2023-11-06,2023-10-27,医療法人社団西広会,,その他の設立登記法人,千葉県,市原市,南国分寺台４丁目７番地９,,12,219,2900075,,,2023-10-27,清算の結了等,,,2015-10-05,1,,,,,サイヒロカイ,0
134,1050001038744,登記記録の閉鎖等,0,2023-11-06,2023-10-31,大光フードサービス株式会社,,株式会社,茨城県,取手市,白山５丁目１３番５－３０４号,,08,217,3020023,,,2023-10-31,合併による解散等,2040001049907,令和５年１０月１日千葉県八街市文違３０１番地３１７６株式会社ノダ（2040001049907）に合併し解散,2015-10-05,1,,,,,,0
139,1070001021104,登記記録の閉鎖等,0,2023-11-06,2023-10-31,みつぼし不動産株式会社,,株式会社,群馬県,太田市,飯田町１２７９番地,,10,205,3730851,,,2023-10-31,清算の結了等,,,2015-10-05,1,,,,,ミツボシフドウサン,0
141,1070001029329,登記記録の閉鎖等,0,2023-11-06,2023-10-31,株式会社クロスプランニング,,株式会社,群馬県,前橋市,亀里町１１６１番地１,,10,201,3792147,,,2023-10-31,清算の結了等,,,2015-10-05,1,,,,,,0
156,1100002005390,登記記録の閉鎖等,0,2023-11-06,2023-10-27,有限会社山上文具店,,有限会社,長野県,長野市,大字鶴賀権堂町２３７３番地,,20,201,3800833,,,2023-10-27,清算の結了等,,,2015-10-05,1,,,,,ヤマカミブングテン,0
162,1110002015629,登記記録の閉鎖等,0,2023-11-06,2023-11-01,有限会社ヨシダ環境サービス,,有限会社,新潟県,新発田市,島潟２０３番地１,,15,206,9570011,,,2023-11-01,清算の結了等,,,2015-10-05,1,,,,,ヨシダカンキョウサービス,0
178,1120002046854,登記記録の閉鎖等,0,2023-11-06,2023-11-02,有限会社岡崎鉄工所,,有限会社,大阪府,大阪市港区,弁天５丁目１５番８－４０４号,,27,107,5520007,,,2023-11-02,清算の結了等,,,2015-10-05,1,,,,,オカザキテッコウショ,0
180,1120005013637,登記記録の閉鎖等,0,2023-11-06,2023-11-01,特定非営利活動法人しまなみ,,その他の設立登記法人,大阪府,枚方市,南楠葉２丁目２２番９号,,27,210,5731105,,,2023-11-01,清算の結了等,,,2015-10-05,1,,,,,シマナミ,0
218,1150002002482,登記記録の閉鎖等,0,2023-11-06,2023-11-02,有限会社郁青社,,有限会社,奈良県,奈良市,千代ヶ丘２丁目７番地の３,,29,201,6310045,,,2023-11-02,清算の結了等,,,2015-10-05,1,,,,,,0
227,1180003024341,登記記録の閉鎖等,0,2023-11-06,2023-10-30,ＲＡＢＢＩＴ　ＨＯＵＳＥ合同会社,,合同会社,愛知県,名古屋市中区,栄５丁目２６番３９号ＧＳ栄ビル３Ｆ,,23,106,4600008,,,2023-10-30,清算の結了等,,,2022-10-07,1,,,,,ラビットハウス,0
231,1180305005337,登記記録の閉鎖等,0,2023-11-06,2023-10-31,特定非営利活動法人ワールドヒストリーファウンデーション,,その他の設立登記法人,愛知県,名古屋市名東区,西里町１丁目４６番地,,23,115,4650084,,,2023-10-31,清算の結了等,,,2015-10-05,1,,,,,ワールドヒストリーファウンデーション,0
238,1200001034694,登記記録の閉鎖等,0,2023-11-06,2023-11-01,丹羽商ハーネス株式会社,,株式会社,岐阜県,羽島市,竹鼻町西野町５番地,,21,209,5016243,,,2023-11-01,合併による解散等,6200001004098,令和５年１１月１日岐阜県羽島市竹鼻町西野町５番地丹羽商株式会社（6200001004098）に合併し解散,2017-12-07,1,,,,,ニワショウハーネス,0
245,1210001013739,登記記録の閉鎖等,0,2023-11-06,2023-10-31,株式会社エステートブロードバンド,,株式会社,福井県,鯖江市,丸山町１丁目２番７号丸山ビル１０２号室,,18,207,9160019,,,2023-10-31,清算の結了等,,,2015-10-05,1,,,,,エステートブロードバンド,0
248,1220001014777,登記記録の閉鎖等,0,2023-11-06,2023-11-01,株式会社くさのね,,株式会社,石川県,白山市,鹿島平１１番地６０,,17,210,9290206,,,2023-11-01,清算の結了等,,,2015-10-05,1,,,,,クサノネ,0
249,1220001015940,登記記録の閉鎖等,0,2023-11-06,2023-10-31,若林忠大若本陣株式会社,,株式会社,石川県,七尾市,橘町５３番地,,17,202,9260043,,,2023-10-31,清算の結了等,,,2015-10-05,1,,,,,ワカバヤシチュウダイワカホンジン,0
250,1220001022920,登記記録の閉鎖等,0,2023-11-06,2023-10-30,株式会社ＨＡＳＳＩＮ,,株式会社,石川県,金沢市,玉鉾２丁目５０７番地２Ｆ,,17,201,9218002,,,2023-10-30,清算の結了等,,,2019-06-03,1,,,,,ハッシン,0
256,1240001058434,登記記録の閉鎖等,0,2023-11-06,2023-11-02,株式会社ＶＩＢＥＳ,,株式会社,広島県,広島市中区,薬研堀４番１３号さくらビル,,34,101,7300027,,,2023-11-02,清算の結了等,,,2021-08-11,1,,,,,バイブス,0
272,1290005010989,登記記録の閉鎖等,0,2023-11-06,2023-10-30,一般社団法人日本コソラジイ協会,,その他の設立登記法人,福岡県,久留米市,山川野口町１６番３１号大島ハイツＩＩ－３０１号,00094005,40,203,8390816,,,2023-10-30,清算の結了等,,,2015-10-05,1,,,,,ニホンコソラジイキョウカイ,0
305,1390002002797,登記記録の閉鎖等,0,2023-11-06,2023-11-01,有限会社山形へら鮒釣センター,,有限会社,山形県,山形市,千石４４番地,,06,201,9902227,,,2023-11-01,清算の結了等,,,2015-10-05,1,,,,,ヤマガタヘラブナツリセンター,0
320,1430002005226,登記記録の閉鎖等,0,2023-11-06,2023-10-17,有限会社兼佳長谷川建設,,有限会社,北海道,札幌市東区,北四十七条東２丁目３番１０号,,01,103,0070847,,,2023-10-17,清算の結了等,,,2015-10-05,1,,,,,カネヨシハセガワケンセツ,0
327,1460305001349,登記記録の閉鎖等,0,2023-11-06,2023-11-02,網走第一水産加工業協同組合,,その他の設立登記法人,北海道,網走市,能取港町３丁目２番地,,01,211,0930131,,,2023-11-02,清算の結了等,,,2015-10-05,1,,,,,アバシリダイイチ,0
330,1470002010370,登記記録の閉鎖等,0,2023-11-06,2023-11-01,有限会社聖,,有限会社,香川県,高松市,屋島東町１０９５番地１１３,,37,201,7610111,,,2023-11-01,合併による解散等,1470002001568,令和５年１１月１日香川県高松市塩上町一丁目２番５号株式会社オオタ理工社（1470002001568）に合併し解散,2015-10-05,1,,,,,ヒジリ,0
341,1700150017838,登記記録の閉鎖等,0,2023-11-06,2023-07-12,三田ケ谷農林公園コスモス工房,,その他,埼玉県,羽生市,大字三田ケ谷１７２５三田ケ谷農林公園内,,11,216,3480011,,,2023-07-12,その他の清算の結了等,,,2015-10-09,1,,,,,ミタカヤノウリンコウエンコスモスコウボウ,0
350,2010002004847,登記記録の閉鎖等,0,2023-11-06,2023-10-26,有限会社ハヤカワプランニング,,有限会社,東京都,文京区,本郷１丁目１０番１２－８０１号,,13,105,1130033,,,2023-10-26,清算の結了等,,,2015-10-05,1,,,,,ハヤカワプランニング,0
352,2010003032533,登記記録の閉鎖等,0,2023-11-06,2023-10-27,Ｇｒｙｐｈｏｎ４合同会社,,合同会社,東京都,中央区,八丁堀４丁目２番１０号ＡＯＪ税理士法人内,,13,102,1040032,,,2023-10-27,清算の結了等,,,2020-07-01,1,,,,,グリフォンフォー,0
357,2010101002660,登記記録の閉鎖等,0,2023-11-06,2023-10-31,東伸産業株式会社,,株式会社,東京都,武蔵野市,吉祥寺東町２丁目２番１５号,,13,203,1800002,,,2023-10-31,清算の結了等,,,2015-10-05,1,,,,,トウシンサンギョウ,0
358,2010401048115,登記記録の閉鎖等,0,2023-11-06,2023-10-30,株式会社エイチ・アイ・シープランニング,,株式会社,東京都,港区,赤坂８丁目５番２８－１２０５号,,13,103,1070052,,,2023-10-30,清算の結了等,,,2015-10-05,1,,,,,,0
359,2010401167468,登記記録の閉鎖等,0,2023-11-06,2023-10-30,株式会社Ｄｉｇｉｔａｌ　Ｄｉｎｏｓａｕｒ,,株式会社,東京都,港区,浜松町２丁目１０番１号浜松町ビル５階,,13,103,1050013,,,2023-10-30,清算の結了等,,,2022-05-30,1,,,,,デジタルダイナソー,0
361,2010501032811,登記記録の閉鎖等,0,2023-11-06,2023-10-26,株式会社ＭＲ綜合企画,,株式会社,東京都,中央区,銀座７丁目７番６号,,13,102,1040061,,,2023-10-26,清算の結了等,,,2015-10-05,1,,,,,エムアールソウゴウキカク,0
362,2010501035194,登記記録の閉鎖等,0,2023-11-06,2023-11-01,株式会社ダイニングエッジインターナショナル,,株式会社,東京都,新宿区,西新宿２丁目４番１号,,13,104,1600023,,,2023-11-01,合併による解散等,5011101080339,令和５年１１月１日東京都新宿区西新宿二丁目４番１号株式会社ＦＣＥ　Ｈｏｌｄｉｎｇｓ（5011101080339）に合併し解散,2015-10-05,1,,,,,ダイニングエッジインターナショナル,0
364,2010601050052,登記記録の閉鎖等,0,2023-11-06,2023-10-27,ＡＩＭＳ株式会社,,株式会社,東京都,中央区,東日本橋２丁目２８番４号日本橋ＣＥＴビル２階,,13,102,1030004,,,2023-10-27,清算の結了等,,,2016-07-19,1,,,,,エイアイエムエス,0
376,2010902002371,登記記録の閉鎖等,0,2023-11-06,2023-10-27,有限会社エクィップ,,有限会社,東京都,世田谷区,成城６丁目１３番１号,,13,112,1570066,,,2023-10-27,清算の結了等,,,2015-10-05,1,,,,,エクィップ,0
390,2011003012830,登記記録の閉鎖等,0,2023-11-06,2023-10-27,ＢＡＳＩＣＳ合同会社,,合同会社,東京都,港区,元麻布３丁目１番６号,,13,103,1060046,,,2023-10-27,清算の結了等,,,2021-06-01,1,,,,,ベーシックス,0
412,2011201005157,登記記録の閉鎖等,0,2023-11-06,2023-10-31,マルエス商事株式会社,,株式会社,東京都,練馬区,南大泉１丁目２４番８号,,13,120,1780064,,,2023-10-31,清算の結了等,,,2015-10-05,1,,,,,,0
434,2013301049158,登記記録の閉鎖等,0,2023-11-06,2023-10-31,株式会社Ａ＆Ｔ,,株式会社,東京都,豊島区,南長崎５丁目２７番１２号アーバンヒルズ東長崎１０７,,13,116,1710052,,,2023-10-31,合併による解散等,5013303004777,令和５年１０月３１日東京都豊島区東池袋一丁目１７番１１号パークハイツ池袋１１０５号合同会社ＨＫプロパティ（5013303004777）に合併し解散,2022-05-26,1,,,,,エイアンドティー,0
435,2020001063059,登記記録の閉鎖等,0,2023-11-06,2023-10-25,株式会社ル・シャポン,,株式会社,神奈川県,横浜市金沢区,釜利谷東２丁目１６番３２号,,14,108,2360042,,,2023-10-25,清算の結了等,,,2015-10-05,1,,,,,ルシャポン,0
442,2020005014900,登記記録の閉鎖等,0,2023-11-06,2023-10-25,一般社団法人オンライン教育支援センター,,その他の設立登記法人,神奈川県,横浜市中区,日本大通７,,14,104,2310021,,,2023-10-25,清算の結了等,,,2020-12-22,1,,,,,オンラインキョウイクシエンセンター,0
445,2021002060185,登記記録の閉鎖等,0,2023-11-06,2023-11-02,有限会社ローズライフ,,有限会社,神奈川県,平塚市,南金目１０５８番地,,14,203,2591201,,,2023-11-02,清算の結了等,,,2015-10-05,1,,,,,ローズライフ,0
447,2030001020471,登記記録の閉鎖等,0,2023-11-06,2023-10-23,脱臭装置株式会社,,株式会社,埼玉県,戸田市,美女木東２丁目３番地の８,,11,224,3350032,,,2023-10-23,清算の結了等,,,2015-10-05,1,,,,,ダッシュウソウチ,0
449,2030001060617,登記記録の閉鎖等,0,2023-11-06,2023-10-25,株式会社児玉農機,,株式会社,埼玉県,本庄市,児玉町児玉３９０番地,,11,211,3670212,,,2023-10-25,清算の結了等,,,2015-10-05,1,,,,,コダマノウキ,0
455,2030001128513,登記記録の閉鎖等,0,2023-11-06,2023-10-31,株式会社シエン,,株式会社,埼玉県,加須市,割目３９６番地１,,11,210,3470025,,,2023-10-31,清算の結了等,,,2018-12-11,1,,,,,シエン,0
461,2030002051053,登記記録の閉鎖等,0,2023-11-06,2023-10-25,有限会社ユニヴァーサル梱包,,有限会社,埼玉県,春日部市,緑町３丁目９番４２号,,11,214,3440063,,,2023-10-25,清算の結了等,,,2015-10-05,1,,,,,ユニヴァーサルコンポウ,0
471,2040001107994,登記記録の閉鎖等,0,2023-11-06,2023-10-30,株式会社ＳｅｅＵ,,株式会社,千葉県,四街道市,四街道１丁目４番８号,,12,228,2840005,,,2023-10-30,清算の結了等,,,2019-02-15,1,,,,,シユ,0
476,2040002094852,登記記録の閉鎖等,0,2023-11-06,2023-10-24,有限会社エフ．ビー．エフ,,有限会社,千葉県,柏市,篠籠田７１８番地の１６,,12,217,2770862,,,2023-10-24,清算の結了等,,,2015-10-05,1,,,,,エフビーエフ,0
483,2070001014957,登記記録の閉鎖等,0,2023-11-06,2023-10-31,株式会社ＭＹ企画,,株式会社,群馬県,伊勢崎市,大手町１４番１４号,,10,204,3720048,,,2023-10-31,清算の結了等,,,2015-10-05,1,,,,,マイキカク,0
491,2080402001826,登記記録の閉鎖等,0,2023-11-06,2023-10-31,有限会社おしやれ空間美輝,,有限会社,静岡県,浜松市中区,早出町６９３番地,,22,131,4350054,,,2023-10-31,清算の結了等,,,2015-10-05,1,,,,,オシャレクウカンミキ,0
504,2120001224393,登記記録の閉鎖等,0,2023-11-06,2023-11-01,西部マシナリー株式会社,,株式会社,大阪府,大阪市住之江区,南港北１丁目２３番２号,,27,125,5590034,,,2023-11-01,清算の結了等,,,2019-10-09,1,,,,,セイブマシナリー,0
518,2120003002797,登記記録の閉鎖等,0,2023-11-06,2023-11-01,合資会社佐村木商店,,合資会社,大阪府,大阪市東住吉区,今川１丁目４番７号,,27,121,5460003,,,2023-11-01,清算の結了等,,,2015-10-05,1,,,,,サムラキショウテン,0
545,2140001096229,登記記録の閉鎖等,0,2023-11-06,2023-10-31,株式会社ＰＵＰＰＹ　ＦＡＴ,,株式会社,兵庫県,西宮市,池田町１２番３３－５０９号,,28,204,6620911,,,2023-10-31,合併による解散等,8140001105974,令和５年１０月３１日兵庫県西宮市池田町１２番３３－５０９号株式会社ＫＩＴＴＹ　ＣＡＴ（8140001105974）に合併し解散,2015-10-05,1,,,,,,0
563,2170001008560,登記記録の閉鎖等,0,2023-11-06,2023-11-01,株式会社弁慶,,株式会社,和歌山県,田辺市,秋津町８５９番地,,30,206,6460005,,,2023-11-01,清算の結了等,,,2015-10-05,1,,,,,ベンケイ,0
566,2180001060032,登記記録の閉鎖等,0,2023-11-06,2023-11-01,株式会社樹,,株式会社,愛知県,名古屋市中村区,並木１丁目６５番地,,23,105,4530856,,,2023-11-01,清算の結了等,,,2015-10-05,1,,,,,イツキ,0
581,2180002026742,登記記録の閉鎖等,0,2023-11-06,2023-10-30,有限会社メック販売,,有限会社,愛知県,名古屋市南区,鳴浜町１丁目３９番地,,23,112,4570806,,,2023-10-30,清算の結了等,,,2015-10-05,1,,,,,メックハンバイ,0
584,2180002060642,登記記録の閉鎖等,0,2023-11-06,2023-10-31,有限会社アローウェーブ,,有限会社,愛知県,名古屋市千種区,向陽町１丁目８番,,23,101,4640062,,,2023-10-31,清算の結了等,,,2015-10-05,1,,,,,アローウェーブ,0
586,2180002090458,登記記録の閉鎖等,0,2023-11-06,2023-10-31,有限会社ハットリエムエス,,有限会社,愛知県,愛西市,千引町郷前２６番地,,23,232,4968003,,,2023-10-31,清算の結了等,,,2015-10-05,1,,,,,ハットリエムエス,0
588,2180301034850,登記記録の閉鎖等,0,2023-11-06,2023-10-27,株式会社ＹＣコーポレーション,,株式会社,愛知県,豊川市,伊奈町南山新田１００番地５８,,23,207,4410105,,,2023-10-27,清算の結了等,,,2021-04-16,1,,,,,ワイシーコーポレーション,0
593,2200001030858,登記記録の閉鎖等,0,2023-11-06,2023-11-01,株式会社進守丸,,株式会社,岐阜県,羽島市,正木町坂丸３丁目２７番地,,21,209,5016229,,,2023-11-01,清算の結了等,,,2015-10-05,1,,,,,シンシュマル,0
603,2240001052808,登記記録の閉鎖等,0,2023-11-06,2023-11-01,株式会社砂田商事,,株式会社,広島県,広島市東区,若草町７番６－９０３号,,34,102,7320053,,,2023-11-01,清算の結了等,,,2018-05-18,1,,,,,スナダショウジ,0
618,2290002037794,登記記録の閉鎖等,0,2023-11-06,2023-10-23,有限会社スカイハイツ２１,,有限会社,福岡県,糟屋郡志免町,御手洗２丁目３番１号,,40,343,8112206,,,2023-10-23,清算の結了等,,,2015-10-05,1,,,,,スカイハイツ,0
631,2340002024333,登記記録の閉鎖等,0,2023-11-06,2023-11-01,有限会社西ファーム,,有限会社,鹿児島県,南九州市,川辺町下山田２０８８番地２,,46,223,8970133,,,2023-11-01,合併による解散等,3340001004269,令和５年１１月１日鹿児島市谷山港一丁目４番１１号南日本畜産株式会社（3340001004269）に合併し解散,2015-10-05,1,,,,,ニシファーム,0
655,2390005007438,登記記録の閉鎖等,0,2023-11-06,2023-10-31,法雲寺,,その他の設立登記法人,山形県,寒河江市,七日町３番１号,,06,206,9910022,,,2023-10-31,清算の結了等,,,2015-10-05,1,,,,,ホウウンジ,0
667,2430001078651,登記記録の閉鎖等,0,2023-11-06,2023-10-26,株式会社北海道トラベル,,株式会社,北海道,石狩市,花川南二条６丁目２５３番地,,01,235,0613202,,,2023-10-26,清算の結了等,,,2019-04-05,1,,,,,ホッカイドウトラベル,0
674,2430005006088,登記記録の閉鎖等,0,2023-11-06,2023-10-24,特定非営利活動法人ライフヘルプちとせ,,その他の設立登記法人,北海道,千歳市,北栄１丁目８番１４号,,01,224,0660036,,,2023-10-24,清算の結了等,,,2015-10-05,1,,,,,ライフヘルプチトセ,0
679,2450002005454,登記記録の閉鎖等,0,2023-11-06,2023-11-02,有限会社丸西菊川商店,,有限会社,北海道,旭川市,豊岡十三条３丁目２番１４号,,01,204,0788243,,,2023-11-02,清算の結了等,,,2015-10-05,1,,,,,マルニシキクカワショウテン,0
687,2480002013280,登記記録の閉鎖等,0,2023-11-06,2023-11-01,田中金物有限会社,,有限会社,徳島県,阿南市,橘町幸野８番地の５,,36,204,7740023,,,2023-11-01,清算の結了等,,,2015-10-05,1,,,,,タナカカナモノ,0
691,2500002002371,登記記録の閉鎖等,0,2023-11-06,2023-11-02,有限会社空港コンタクトレンズセンター,,有限会社,愛媛県,松山市,高岡町６１９番地５,,38,201,7918036,,,2023-11-02,清算の結了等,,,2015-10-05,1,,,,,クウコウコンタクトレンズセンタア,0
693,2700150110831,登記記録の閉鎖等,0,2023-11-06,2023-05-31,香恵ピアノ財団,,その他,神奈川県,横浜市中区,真砂町３丁目３３セルテ１２階　ダイニングライブヤンキース内,,14,104,2310016,,,2023-05-31,その他の清算の結了等,,,2022-07-07,1,,,,,カエピアノザイダン,0
706,3010501041745,登記記録の閉鎖等,0,2023-11-06,2023-11-01,ＳＭＬ株式会社,,株式会社,東京都,台東区,雷門２丁目１４番２号,,13,106,1110034,,,2023-11-01,清算の結了等,,,2017-11-01,1,,,,,エスエムエル,0
716,3011001105759,登記記録の閉鎖等,0,2023-11-06,2023-11-01,株式会社ＡＬＬ　ＢＬＵＥＺ,,株式会社,東京都,渋谷区,東１丁目１４－１２常盤松マンション１階,,13,113,1500011,,,2023-11-01,清算の結了等,,,2015-10-05,1,,,,,オールブルーズ,0
752,3020001016008,登記記録の閉鎖等,0,2023-11-06,2023-10-25,株式会社マニュアル,,株式会社,神奈川県,横浜市西区,高島２丁目６番４１号,,14,103,2200011,,,2023-10-25,清算の結了等,,,2015-10-05,1,,,,,マニュアル,0
759,3020002017450,登記記録の閉鎖等,0,2023-11-06,2023-10-25,有限会社ベン・インターナショナル,,有限会社,神奈川県,横浜市西区,藤棚町１丁目８５番地,,14,103,2200053,,,2023-10-25,清算の結了等,,,2015-10-05,1,,,,,ベンインターナショナル,0
771,3030001018052,登記記録の閉鎖等,0,2023-11-06,2023-10-24,株式会社豊島加工,,株式会社,埼玉県,さいたま市岩槻区,上野４丁目６番地８,,11,110,3390073,,,2023-10-24,清算の結了等,,,2015-10-05,1,,,,,トヨシマカコウ,0
772,3030001022847,登記記録の閉鎖等,0,2023-11-06,2023-10-26,株式会社アイ．エス．アイ,,株式会社,埼玉県,戸田市,笹目４丁目７番１１号,,11,224,3350034,,,2023-10-26,清算の結了等,,,2015-10-05,1,,,,,アイエスアイ,0
790,3030002096295,登記記録の閉鎖等,0,2023-11-06,2023-10-25,有限会社堀越合成,,有限会社,埼玉県,東松山市,大字上唐子１１００番地,,11,212,3550077,,,2023-10-25,清算の結了等,,,2015-10-05,1,,,,,ホリコシゴウセイ,0
799,3040005013858,登記記録の閉鎖等,0,2023-11-06,2023-10-26,我孫子自動車整備協同組合,,その他の設立登記法人,千葉県,我孫子市,布施２７３８番地１,,12,222,2701162,,,2023-10-26,清算の結了等,,,2015-10-05,1,,,,,アビコジドウシャセイビ,0
800,3050001031103,登記記録の閉鎖等,0,2023-11-06,2023-10-27,株式会社杉山ハウジング,,株式会社,茨城県,取手市,宮和田５７８番地５,,08,217,3001514,,,2023-10-27,清算の結了等,,,2015-10-05,1,,,,,,0
802,3050002028800,登記記録の閉鎖等,0,2023-11-06,2023-10-27,有限会社ツチコ,,有限会社,茨城県,行方市,小高１３０４番地の３,,08,233,3113804,,,2023-10-27,清算の結了等,,,2015-10-05,1,,,,,ツチコ,0
803,3060001030707,登記記録の閉鎖等,0,2023-11-06,2023-10-31,株式会社ケイファーム,,株式会社,栃木県,佐野市,鉢木町１８番３号,,09,204,3270508,,,2023-10-31,合併による解散等,5060001020870,令和５年１０月３１日栃木県佐野市鉢木町１３番３３号協立機興株式会社（5060001020870）に合併し解散,2018-07-09,1,,,,,ケイファーム,0
811,3080101019714,登記記録の閉鎖等,0,2023-11-06,2023-11-01,株式会社エル・テンペスタ,,株式会社,静岡県,富士宮市,小泉１７２７番地の１０,,22,207,4180022,,,2023-11-01,清算の結了等,,,2017-04-11,1,,,,,エルテンペスタ,0
813,3100001012205,登記記録の閉鎖等,0,2023-11-06,2023-10-27,三信電機設備株式会社,,株式会社,長野県,下高井郡山ノ内町,大字平穏４２２３番地７,,20,561,3810401,,,2023-10-27,清算の結了等,,,2015-10-05,1,,,,,サンシンデンキセツビ,0
825,3110002009422,登記記録の閉鎖等,0,2023-11-06,2023-11-01,金津産業有限会社,,有限会社,新潟県,新潟市秋葉区,程島２５５番地,,15,105,9560035,,,2023-11-01,清算の結了等,,,2015-10-05,1,,,,,カナツサンギョウ,0
826,3110002009455,登記記録の閉鎖等,0,2023-11-06,2023-10-31,有限会社北川製＿所,00070709,有限会社,新潟県,新潟市秋葉区,新保５７番地１,,15,105,9560112,,,2023-10-31,清算の結了等,,,2015-10-05,1,,,,,キタガワセイアンショ,0
829,3120001044576,登記記録の閉鎖等,0,2023-11-06,2023-11-01,西部エンジニアリング株式会社,,株式会社,大阪府,大阪市住之江区,南港北１丁目２３番２号,,27,125,5590034,,,2023-11-01,清算の結了等,,,2015-10-05,1,,,,,セイブエンジニアリング,0
862,3130002024881,登記記録の閉鎖等,0,2023-11-06,2023-10-23,有限会社長岡クリーニング,,有限会社,京都府,長岡京市,長岡２丁目１２番７号,,26,209,6170823,,,2023-10-23,清算の結了等,,,2015-10-05,1,,,,,ナガオカクリーニング,0
875,3160005005760,登記記録の閉鎖等,0,2023-11-06,2023-11-01,一般財団法人彦根橋本町繁栄会,,その他の設立登記法人,滋賀県,彦根市,河原２丁目７番５号,,25,202,5220083,,,2023-11-01,清算の結了等,,,2015-10-05,1,,,,,ヒコネハシモトチョウハンエイカイ,0
890,3180301026772,登記記録の閉鎖等,0,2023-11-06,2023-11-01,株式会社テクムズ,,株式会社,愛知県,豊橋市,草間町字郷西８７番地２,,23,201,4418141,,,2023-11-01,清算の結了等,,,2015-10-05,1,,,,,テクムズ,0
900,3230002010046,登記記録の閉鎖等,0,2023-11-06,2023-11-01,有限会社シバタギケン,,有限会社,富山県,小矢部市,松尾５２６０番地,,16,209,9320845,,,2023-11-01,清算の結了等,,,2015-10-05,1,,,,,シバタギケン,0
914,3280002005297,登記記録の閉鎖等,0,2023-11-06,2023-10-30,有限会社オブジェ,,有限会社,島根県,出雲市,今市町北本町２丁目５番地８,,32,203,6930002,,,2023-10-30,清算の結了等,,,2015-10-05,1,,,,,オブジェ,0
946,3380002020815,登記記録の閉鎖等,0,2023-11-06,2023-11-01,有限会社秋山組,,有限会社,福島県,石川郡石川町,字北町６７番地,,07,501,9637844,,,2023-11-01,清算の結了等,,,2015-10-05,1,,,,,アキヤマグミ,0
950,3390002006516,登記記録の閉鎖等,0,2023-11-06,2023-11-01,有限会社阿吽,,有限会社,山形県,山形市,東青田２丁目１０番１７号,,06,201,9902423,,,2023-11-01,清算の結了等,,,2015-10-05,1,,,,,アウン,0
954,3400005004333,登記記録の閉鎖等,0,2023-11-06,2023-10-25,特定非営利活動法人みやこ自立サポートセンター,,その他の設立登記法人,岩手県,宮古市,八木沢４丁目１番２５号,,03,202,0270031,,,2023-10-25,清算の結了等,,,2015-10-05,1,,,,,,0
964,3430002050633,登記記録の閉鎖等,0,2023-11-06,2023-10-24,いとう石材工業有限会社,,有限会社,北海道,岩見沢市,緑が丘４丁目２２１番地１５３,,01,210,0680835,,,2023-10-24,清算の結了等,,,2015-10-05,1,,,,,,0
967,3460002004792,登記記録の閉鎖等,0,2023-11-06,2023-11-01,有限会社屈斜路湖荘,,有限会社,北海道,川上郡弟子屈町,字サワンチサップ９番地,,01,665,0883464,,,2023-11-01,合併による解散等,4460002004791,令和５年１１月１日北海道川上郡弟子屈町字サワンチサップ１１番地株式会社ＮＫＳグループ（4460002004791）に合併し解散,2015-10-05,1,,,,,クッシャロコソウ,0
979,3700150096186,登記記録の閉鎖等,0,2023-11-06,2023-07-26,阿見町荒川本郷第三土地区画整理組合,,その他,茨城県,稲敷郡阿見町,大字荒川本郷字丸山２００１番地１,,08,443,3001152,,,2023-07-26,その他の清算の結了等,,,2019-10-08,1,,,,,アミマチアラカワホンゴウダイサントチクカクセイリクミアイ,0
980,3700150107521,登記記録の閉鎖等,0,2023-11-06,2023-07-01,ＷＡＴＡＲｏｏｍ,,その他,東京都,中野区,上高田２丁目１４－８エルウィング上高田３０１,,13,114,1640002,,,2023-07-01,その他の清算の結了等,,,2022-03-28,1,,,,,ワタルーム,0
984,4010001199488,登記記録の閉鎖等,0,2023-11-06,2023-10-27,ライコン・カレンシー・ジャパン株式会社,,株式会社,東京都,千代田区,大手町１丁目５番１号,,13,101,1000004,,,2023-10-27,清算の結了等,,,2019-03-27,1,,,,,ライコンカレンシージャパン,0
995,4010401021251,登記記録の閉鎖等,0,2023-11-06,2023-10-30,那須屋商店株式会社,,株式会社,東京都,港区,芝浦２丁目４番６号秀和田町レジデンス２０９号,,13,103,1080023,,,2023-10-30,清算の結了等,,,2015-10-05,1,,,,,ナスヤショウテン,0
1023,4010902024298,登記記録の閉鎖等,0,2023-11-06,2023-10-31,有限会社こひつじ訪問看護,,有限会社,東京都,目黒区,駒場１丁目２８番１号田村ビル３０２,,13,110,1530041,,,2023-10-31,清算の結了等,,,2015-10-05,1,,,,,コヒツジホウモンカンゴ,0
1043,4011801022062,登記記録の閉鎖等,0,2023-11-06,2023-10-30,株式会社手塚製材,,株式会社,茨城県,筑西市,藤ケ谷２３９４番地,,08,227,3080112,,,2023-10-30,清算の結了等,,,2015-10-05,1,,,,,テヅカセイザイ,0
1044,4011801023250,登記記録の閉鎖等,0,2023-11-06,2023-10-31,株式会社グリーンガーデン,,株式会社,東京都,足立区,梅田３丁目１１番１９号,,13,121,1230851,,,2023-10-31,清算の結了等,,,2015-10-05,1,,,,,グリーンガーデン,0
1045,4012401000193,登記記録の閉鎖等,0,2023-11-06,2023-11-01,市川建設工業株式会社,,株式会社,東京都,府中市,美好町１丁目８番地３,,13,206,1830045,,,2023-11-01,清算の結了等,,,2015-10-05,1,,,,,イチカワケンセツコウギョウ,0
1052,4013302000563,登記記録の閉鎖等,0,2023-11-06,2023-10-30,有限会社秋山金属製作所,,有限会社,東京都,豊島区,西巣鴨２丁目１１番１号,,13,116,1700001,,,2023-10-30,清算の結了等,,,2015-10-05,1,,,,,アキヤマキンゾクセイサクジョ,0
1054,4013303005479,登記記録の閉鎖等,0,2023-11-06,2023-10-27,フリーフライ合同会社,,合同会社,東京都,豊島区,西池袋１丁目２９番１４－４０３号,,13,116,1710021,,,2023-10-27,清算の結了等,,,2021-01-13,1,,,,,フリーフライ,0
1067,4021001006204,登記記録の閉鎖等,0,2023-11-06,2023-10-31,株式会社岡本製作所,,株式会社,神奈川県,藤沢市,辻堂新町１丁目８番１３号,,14,205,2510042,,,2023-10-31,清算の結了等,,,2015-10-05,1,,,,,オカモトセイサクジョ,0
1074,4021002051190,登記記録の閉鎖等,0,2023-11-06,2023-11-01,有限会社小田原建設,,有限会社,神奈川県,小田原市,府川４８４番地の１,,14,206,2500052,,,2023-11-01,清算の結了等,,,2015-10-05,1,,,,,オダワラケンセツ,0
1075,4021003013297,登記記録の閉鎖等,0,2023-11-06,2023-11-01,オフィスＲ合同会社,,合同会社,神奈川県,相模原市南区,上鶴間５丁目８－１ブリリア東林間２１２,,14,153,2520302,,,2023-11-01,清算の結了等,,,2023-07-11,1,,,,,オフィスアール,0
1082,4030003011780,登記記録の閉鎖等,0,2023-11-06,2023-10-23,合同会社オーブ,,合同会社,埼玉県,さいたま市南区,内谷１丁目８番３号,,11,108,3360034,,,2023-10-23,清算の結了等,,,2018-04-19,1,,,,,オーブ,0
1086,4040002003679,登記記録の閉鎖等,0,2023-11-06,2023-10-27,有限会社桑原塗装,,有限会社,千葉県,千葉市若葉区,小倉町１７３４番地の２４,,12,104,2640007,,,2023-10-27,清算の結了等,,,2015-10-05,1,,,,,クワバラトソウ,0
1087,4040002066494,登記記録の閉鎖等,0,2023-11-06,2023-10-27,有限会社キシカワインテリア,,有限会社,千葉県,木更津市,若葉町１２番地１４,,12,206,2920013,,,2023-10-27,清算の結了等,,,2015-10-05,1,,,,,キシカワインテリア,0
1107,4100002012665,登記記録の閉鎖等,0,2023-11-06,2023-10-26,有限会社花屋書店,,有限会社,長野県,小諸市,大手２丁目１番１０号,,20,208,3840031,,,2023-10-26,清算の結了等,,,2015-10-05,1,,,,,ハナヤショテン,0
1110,4110002010734,登記記録の閉鎖等,0,2023-11-06,2023-11-01,有限会社竹徳,,有限会社,新潟県,新潟市北区,早通北２丁目１２番８号,,15,101,9503376,,,2023-11-01,清算の結了等,,,2015-10-05,1,,,,,タケトク,0
1112,4120001031243,登記記録の閉鎖等,0,2023-11-06,2023-10-31,株式会社トヤマ,,株式会社,大阪府,大阪市住之江区,安立１丁目１３番１３号,,27,125,5590003,,,2023-10-31,清算の結了等,,,2015-10-05,1,,,,,トヤマ,0
1130,4120003001178,登記記録の閉鎖等,0,2023-11-06,2023-11-01,津和合名会社,,合名会社,大阪府,大阪市住吉区,帝塚山東３丁目３番１４号,,27,120,5580054,,,2023-11-01,合併による解散等,2120001038348,令和５年１１月１日大阪市浪速区元町一丁目１１番２１号三陽地所株式会社（2120001038348）に合併し解散,2015-10-05,1,,,,,ツワ,0
1134,4120005019474,登記記録の閉鎖等,0,2023-11-06,2023-10-31,一般財団法人国際メディケア・センター,,その他の設立登記法人,大阪府,大阪市北区,梅田２丁目５番２５号,,27,127,5300001,,,2023-10-31,清算の結了等,,,2017-05-15,1,,,,,コクサイメディケアセンター,0
1155,4140001026605,登記記録の閉鎖等,0,2023-11-06,2023-10-30,株式会社ユニオン・エス・キューブ,,株式会社,兵庫県,神戸市東灘区,本山北町３丁目１３番３１号,,28,101,6580003,,,2023-10-30,清算の結了等,,,2015-10-05,1,,,,,ユニオンエスキューブ,0
1163,4140003017156,登記記録の閉鎖等,0,2023-11-06,2023-10-31,合同会社アドバンス,,合同会社,兵庫県,宝塚市,伊孑志３丁目１８番６号,,28,214,6650033,,,2023-10-31,清算の結了等,,,2022-01-06,1,,,,,アドバンス,0
1167,4180001060419,登記記録の閉鎖等,0,2023-11-06,2023-11-01,株式会社飛龍,,株式会社,愛知県,名古屋市中村区,並木２丁目２３番地,,23,105,4530856,,,2023-11-01,清算の結了等,,,2015-10-05,1,,,,,ヒリュウ,0
1195,4240003003138,登記記録の閉鎖等,0,2023-11-06,2023-10-31,合同会社プラネットワン,,合同会社,広島県,広島市西区,三篠町２丁目４番１６号,,34,104,7330003,,,2023-10-31,清算の結了等,,,2015-12-04,1,,,,,プラネットワン,0
1201,4290001031937,登記記録の閉鎖等,0,2023-11-06,2023-10-23,リアルティ・データ・サービス株式会社,,株式会社,福岡県,福岡市博多区,博多駅東１丁目９番２９号,,40,132,8120013,,,2023-10-23,清算の結了等,,,2015-10-05,1,,,,,リアルティデータサービス,0
1218,4330002029604,登記記録の閉鎖等,0,2023-11-06,2023-10-31,有限会社池田ホーム,,有限会社,熊本県,上天草市,大矢野町上９４０番地の１,,43,212,8693602,,,2023-10-31,清算の結了等,,,2015-10-05,1,,,,,イケダホーム,0
1221,4340001015513,登記記録の閉鎖等,0,2023-11-06,2023-11-02,株式会社佐元養蜂場,,株式会社,鹿児島県,曽於郡大崎町,野方２２６６番地１,,46,468,8998313,,,2023-11-02,清算の結了等,,,2015-10-05,1,,,,,サモトヨウホウジョウ,0
1245,4430002057116,登記記録の閉鎖等,0,2023-11-06,2023-10-26,有限会社日進堂,,有限会社,北海道,虻田郡倶知安町,北一条西２丁目１３番地,,01,400,0440051,,,2023-10-26,清算の結了等,,,2015-10-05,1,,,,,ニッシンドウ,0
1248,4460102000807,登記記録の閉鎖等,0,2023-11-06,2023-10-31,有限会社川口鉄工場,,有限会社,北海道,帯広市,西二十条北２丁目２３番地５,,01,207,0802460,,,2023-10-31,清算の結了等,,,2015-10-05,1,,,,,カワグチテッコウジョウ,0
1255,4500001006545,登記記録の閉鎖等,0,2023-11-06,2023-11-02,ネットグローバル株式会社,,株式会社,愛媛県,松山市,古川西２丁目１４番２０号,,38,201,7900944,,,2023-11-02,清算の結了等,,,2015-10-05,1,,,,,ネットグローバル,0
1259,5010001058676,登記記録の閉鎖等,0,2023-11-06,2023-10-12,株式会社ムラヤマ,,株式会社,東京都,渋谷区,笹塚２丁目１番６号,,13,113,1510073,,,2023-10-12,合併による解散等,7011001073135,令和５年１０月１日東京都渋谷区笹塚二丁目１番６号昭プラ株式会社（7011001073135）に合併し解散,2015-10-05,1,,,,,ムラヤマ,0
1260,5010001136589,登記記録の閉鎖等,0,2023-11-06,2023-10-26,トヨミクリーン株式会社,,株式会社,東京都,文京区,大塚３丁目２２番５号,,13,105,1120012,,,2023-10-26,清算の結了等,,,2015-10-05,1,,,,,トヨミクリーン,0
1277,5010501040992,登記記録の閉鎖等,0,2023-11-06,2023-10-26,株式会社グラップデザイン,,株式会社,千葉県,香取市,小見川２０８６－１グランディール２０１,,12,236,2890313,,,2023-10-26,清算の結了等,,,2017-05-02,1,,,,,グラップデザイン,0
1280,5010601034696,登記記録の閉鎖等,0,2023-11-06,2023-11-01,ティエヌティエクスプレス合同会社,,合同会社,東京都,江東区,有明３丁目５番７号ＴＯＣ有明イーストタワー６階,,13,108,1350063,,,2023-11-01,清算の結了等,,,2015-10-05,1,,,,,ティエヌティエクスプレス,0
1283,5010605003400,登記記録の閉鎖等,0,2023-11-06,2023-10-27,一般社団法人全国タワーマンション協会,,その他の設立登記法人,東京都,江東区,東雲１丁目９番５０－５００７号,,13,108,1350062,,,2023-10-27,清算の結了等,,,2017-05-16,1,,,,,ゼンコクタワーマンションキョウカイ,0
1295,5011003013462,登記記録の閉鎖等,0,2023-11-06,2023-10-30,合同会社東,,合同会社,東京都,渋谷区,道玄坂１丁目６番３号道玄坂パールビル３階,,13,113,1500043,,,2023-10-30,清算の結了等,,,2021-09-28,1,,,,,トウ,0
1311,5011801002377,登記記録の閉鎖等,0,2023-11-06,2023-10-31,スチロン化学工業株式会社,,株式会社,東京都,葛飾区,奥戸２丁目１７番３０号,,13,122,1240022,,,2023-10-31,清算の結了等,,,2015-10-05,1,,,,,スチロンカガクコウギョウ,0
1312,5011802029808,登記記録の閉鎖等,0,2023-11-06,2023-10-31,有限会社ジョイスサービス,,有限会社,東京都,足立区,扇２丁目３番２号,,13,121,1230873,,,2023-10-31,清算の結了等,,,2015-10-05,1,,,,,ジョイスサービス,0
1314,5012401008863,登記記録の閉鎖等,0,2023-11-06,2023-10-30,渡辺運送株式会社,,株式会社,東京都,調布市,多摩川３丁目３３番地４,,13,208,1820025,,,2023-10-30,清算の結了等,,,2015-10-05,1,,,,,ワタナベウンソウ,0
1323,5013402004125,登記記録の閉鎖等,0,2023-11-06,2023-11-01,有限会社ライヴィット,,有限会社,東京都,多摩市,豊ヶ丘２丁目１１番地４－４０１,,13,224,2060031,,,2023-11-01,清算の結了等,,,2015-10-05,1,,,,,,0
1325,5020001047166,登記記録の閉鎖等,0,2023-11-06,2023-10-25,シドーコンサルティング株式会社,,株式会社,神奈川県,横浜市中区,海岸通３丁目１２番１号ミナトイセビル５階藤田公認会計士事務所内,,14,104,2310002,,,2023-10-25,清算の結了等,,,2015-10-05,1,,,,,シドーコンサルティング,0
1338,5020002009173,登記記録の閉鎖等,0,2023-11-06,2023-10-25,有限会社吉木,,有限会社,神奈川県,横浜市金沢区,富岡東５丁目１５番１０号,,14,108,2360051,,,2023-10-25,清算の結了等,,,2015-10-05,1,,,,,ヨシキ,0
1339,5020003023181,登記記録の閉鎖等,0,2023-11-06,2023-10-05,合同会社いちとぜん,,合同会社,神奈川県,川崎市高津区,溝口２丁目１３－２３－８０４,,14,134,2130001,,,2023-10-05,清算の結了等,,,2023-01-26,1,,,,,イチトゼン,0
1345,5021001047172,登記記録の閉鎖等,0,2023-11-06,2023-10-31,データアシストソリューションズ株式会社,,株式会社,神奈川県,相模原市中央区,田名３０３９番地１６,,14,152,2520244,,,2023-10-31,清算の結了等,,,2015-10-05,1,,,,,データアシストソリューションズ,0
1349,5021002070561,登記記録の閉鎖等,0,2023-11-06,2023-10-24,有限会社タカクラ技研,,有限会社,神奈川県,横須賀市,池田町１丁目１４番９号,,14,201,2390806,,,2023-10-24,清算の結了等,,,2015-10-05,1,,,,,タカクラギケン,0
1350,5021003004700,登記記録の閉鎖等,0,2023-11-06,2023-10-31,合同会社オーエム,,合同会社,神奈川県,藤沢市,羽鳥３丁目１７番３９号,,14,205,2510056,,,2023-10-31,清算の結了等,,,2015-10-05,1,,,,,オーエム,0
1377,5050001018676,登記記録の閉鎖等,0,2023-11-06,2023-10-30,斉藤石油株式会社,,株式会社,茨城県,古河市,女沼２８４番地の１,,08,204,3060226,,,2023-10-30,清算の結了等,,,2015-10-05,1,,,,,サイトウセキユ,0
1381,5060001009096,登記記録の閉鎖等,0,2023-11-06,2023-10-31,株式会社ジョブパートナー,,株式会社,栃木県,塩谷郡塩谷町,大字船生３８６５番地２,,09,384,3292441,,,2023-10-31,清算の結了等,,,2015-10-05,1,,,,,ジョブパートナー,0
1398,5100001002393,登記記録の閉鎖等,0,2023-11-06,2023-10-26,株式会社アオダモ,,株式会社,長野県,長野市,篠ノ井会３４７番地６,,20,201,3888004,,,2023-10-26,清算の結了等,,,2015-10-05,1,,,,,アオダモ,0
1404,5120001017662,登記記録の閉鎖等,0,2023-11-06,2023-11-01,株式会社しまず,,株式会社,大阪府,大阪市生野区,桃谷１丁目１２番１６号,,27,116,5440034,,,2023-11-01,合併による解散等,6120001187042,令和５年１１月１日大阪市天王寺区烏ケ辻一丁目３番２４号Ｋ’ｓスクエア株式会社Ｋ’ｓスクエア（6120001187042）に合併し解散,2015-10-05,1,,,,,シマズ,0
1433,5120002072302,登記記録の閉鎖等,0,2023-11-06,2023-10-31,有限会社コスモス,,有限会社,大阪府,寝屋川市,成田東が丘１５番１８号,,27,215,5720002,,,2023-10-31,清算の結了等,,,2015-10-05,1,,,,,コスモス,0
1458,5140002007529,登記記録の閉鎖等,0,2023-11-06,2023-10-31,有限会社立石冷蔵,,有限会社,兵庫県,神戸市須磨区,白川台１丁目２８番地の１,,28,107,6540103,,,2023-10-31,清算の結了等,,,2015-10-05,1,,,,,タテイシレイゾウ,0
1480,5180301024337,登記記録の閉鎖等,0,2023-11-06,2023-10-27,豊新技建株式会社,,株式会社,愛知県,新城市,有海字飛塚５番地１,00074761,23,221,4411317,,,2023-10-27,清算の結了等,,,2015-10-05,1,,,,,ホウシンギケン,0
1481,5180301035144,登記記録の閉鎖等,0,2023-11-06,2023-10-26,株式会社Ｋクール,,株式会社,愛知県,岡崎市,板屋町１４４番地２,,23,202,4440053,,,2023-10-26,清算の結了等,,,2021-07-08,1,,,,,ケイクール,0
1485,5200002001483,登記記録の閉鎖等,0,2023-11-06,2023-11-01,有限会社ＧＩＰ,,有限会社,岐阜県,岐阜市,則武中４丁目３番１２号,,21,201,5020932,,,2023-11-01,清算の結了等,,,2015-10-05,1,,,,,ジップ,0
1488,5200002026266,登記記録の閉鎖等,0,2023-11-06,2023-10-31,有限会社渋草柳造窯,,有限会社,岐阜県,高山市,新宮町４２４９番地の２９,,21,203,5060035,,,2023-10-31,清算の結了等,,,2015-10-05,1,,,,,シブクサリュウゾウガマ,0
1496,5230001016694,登記記録の閉鎖等,0,2023-11-06,2023-11-01,株式会社アール・エム・オカモト,,株式会社,富山県,富山市,上野１１８番地,,16,201,9398195,,,2023-11-01,清算の結了等,,,2016-11-01,1,,,,,アールエムオカモト,0
1501,5240001007429,登記記録の閉鎖等,0,2023-11-06,2023-11-01,東亜調査設計株式会社,,株式会社,広島県,広島市西区,三篠町３丁目６番９号,,34,104,7330003,,,2023-11-01,清算の結了等,,,2015-10-05,1,,,,,トウアチョウサセッケイ,0
1502,5240001056921,登記記録の閉鎖等,0,2023-11-06,2023-10-31,エンジニアスタッフィング株式会社,,株式会社,広島県,広島市中区,袋町５番２８号,,34,101,7300036,,,2023-10-31,清算の結了等,,,2020-11-12,1,,,,,エンジニアスタッフィング,0
1537,5300001009360,登記記録の閉鎖等,0,2023-11-06,2023-10-31,太陽食品株式会社,,株式会社,佐賀県,武雄市,武雄町大字武雄１３３番地１,,41,206,8430022,,,2023-10-31,清算の結了等,,,2015-10-05,1,,,,,タイヨウショクヒン,0
1541,5320001008393,登記記録の閉鎖等,0,2023-11-06,2023-10-31,株式会社野原電子工業,,株式会社,大分県,杵築市,山香町大字野原１４４９番地の６,,44,210,8791307,,,2023-10-31,清算の結了等,,,2015-10-05,1,,,,,ノハラデンシコウギョウ,0
1543,5320001014846,登記記録の閉鎖等,0,2023-11-06,2023-10-31,株式会社ＹＵＭＥＹＡ,,株式会社,大分県,日田市,大字日高４６０番地８,,44,204,8770000,,,2023-10-31,清算の結了等,,,2016-04-07,1,,,,,ユメヤ,0
1562,5380002036339,登記記録の閉鎖等,0,2023-11-06,2023-10-31,有限会社ファンデーション,,有限会社,福島県,郡山市,安積町笹川字北向６番地の２２,,07,203,9630102,,,2023-10-31,清算の結了等,,,2023-08-23,1,,,,,ファンデーション,0
1583,5700150034755,登記記録の閉鎖等,0,2023-11-06,2023-07-26,果夢林ショップ運営協議会,,その他,北海道,北見市,留辺蘂町松山１－４,,01,208,0910153,,,2023-07-26,その他の清算の結了等,,,2015-10-09,1,,,,,カムリンシヨツプウンエイキヨウギカイ,0
1585,6010001038479,登記記録の閉鎖等,0,2023-11-06,2023-10-30,タートル旅行サービス株式会社,,株式会社,東京都,港区,赤坂２丁目１０－２吉川ビル２階,00121574,13,103,1070052,,,2023-10-30,清算の結了等,,,2015-10-05,1,,,,,タートルリョコウサービス,0
1603,6010403023483,登記記録の閉鎖等,0,2023-11-06,2023-10-30,合同会社レジデンス・エイト,,合同会社,東京都,港区,赤坂２丁目１０番５号税理士法人赤坂国際会計事務所内,,13,103,1070052,,,2023-10-30,清算の結了等,,,2020-08-12,1,,,,,,0
1607,6010405017962,登記記録の閉鎖等,0,2023-11-06,2023-10-30,一般社団法人サーキュラーエコノミー・ジャパン,,その他の設立登記法人,東京都,港区,六本木４丁目３番１１－２２３号,,13,103,1060032,,,2023-10-30,清算の結了等,,,2019-08-22,1,,,,,サーキュラーエコノミージャパン,0
1638,6011101013710,登記記録の閉鎖等,0,2023-11-06,2023-10-31,株式会社デベロツプメント・リサーチ,,株式会社,東京都,新宿区,四谷４丁目１０番１２号,,13,104,1600004,,,2023-10-31,清算の結了等,,,2015-10-05,1,,,,,デベロップメントリサーチ,0
1639,6011101024393,登記記録の閉鎖等,0,2023-11-06,2023-11-02,株式会社想アソシエイツ,,株式会社,東京都,新宿区,市谷田町２丁目７番地,,13,104,1620843,,,2023-11-02,清算の結了等,,,2015-10-05,1,,,,,,0
1642,6011101091780,登記記録の閉鎖等,0,2023-11-06,2023-10-31,Ｌａ　Ｖｅｒｉｔｅ　Ｅｙｅ株式会社,,株式会社,東京都,新宿区,西新宿４丁目２９番４号西新宿ハウス１０３,,13,104,1600023,,,2023-10-31,清算の結了等,,,2020-07-03,1,,,,,ラヴェリーテアイ,0
1662,6012302005050,登記記録の閉鎖等,0,2023-11-06,2023-10-31,有限会社ヨシムラ,,有限会社,東京都,町田市,相原町字和田１１５８番地３１,,13,209,1940211,,,2023-10-31,清算の結了等,,,2015-10-05,1,,,,,ヨシムラ,0
1671,6012405000477,登記記録の閉鎖等,0,2023-11-06,2023-11-01,特定非営利活動法人鳩の翼,,その他の設立登記法人,東京都,小金井市,前原町３丁目９番３号,,13,210,1840013,,,2023-11-01,清算の結了等,,,2015-10-05,1,,,,,ハトノツバサ,0
1680,6020001089463,登記記録の閉鎖等,0,2023-11-06,2023-11-01,ＥＮＯＫＩ株式会社,,株式会社,東京都,大田区,蒲田本町１丁目８番９号,,13,111,1440053,,,2023-11-01,合併による解散等,6020001044617,令和５年１０月１日横浜市南区花之木町三丁目５４番地ＮＴＴ横浜南ビル株式会社イニシャルベイ（6020001044617）に合併し解散,2015-10-05,1,,,,,エノキ,0
1693,6021001052535,登記記録の閉鎖等,0,2023-11-06,2023-11-02,株式会社マルカ,,株式会社,神奈川県,高座郡寒川町,一之宮９丁目２番１３号,,14,321,2530111,,,2023-11-02,清算の結了等,,,2015-10-05,1,,,,,マルカ,0
1698,6030001042017,登記記録の閉鎖等,0,2023-11-06,2023-10-26,株式会社サエキ機工,,株式会社,埼玉県,桶川市,大字上日出谷１０３３番地の１７,,11,231,3630026,,,2023-10-26,清算の結了等,,,2015-10-05,1,,,,,サエキキコウ,0
1701,6030001143896,登記記録の閉鎖等,0,2023-11-06,2023-10-26,株式会社エフスリープランニング,,株式会社,埼玉県,川口市,元郷４丁目７番１３－４０３号クランドール南平,,11,203,3320011,,,2023-10-26,清算の結了等,,,2021-08-18,1,,,,,エフスリープランニング,0
1702,6030001145307,登記記録の閉鎖等,0,2023-11-06,2023-10-26,株式会社アースワークス,,株式会社,埼玉県,熊谷市,万平町２丁目４番地１Ｍプラザ４熊谷２０２号,,11,202,3600034,,,2023-10-26,清算の結了等,,,2021-11-11,1,,,,,アースワークス,0
1710,6040001047221,登記記録の閉鎖等,0,2023-11-06,2023-10-27,オオタシステム株式会社,,株式会社,千葉県,四街道市,みそら４丁目１８番７号,,12,228,2840023,,,2023-10-27,清算の結了等,,,2015-10-05,1,,,,,オオタシステム,0
1717,6040002000187,登記記録の閉鎖等,0,2023-11-06,2023-10-27,有限会社カズプロジェクト,,有限会社,千葉県,千葉市花見川区,畑町４５３番地３,,12,102,2620018,,,2023-10-27,清算の結了等,,,2015-10-05,1,,,,,カズプロジェクト,0
1725,6070001023500,登記記録の閉鎖等,0,2023-11-06,2023-10-31,株式会社桑原呉服店,,株式会社,群馬県,沼田市,材木町１７３番地,,10,206,3780045,,,2023-10-31,清算の結了等,,,2015-10-05,1,,,,,クワバラゴフクテン,0
1733,6080102007582,登記記録の閉鎖等,0,2023-11-06,2023-11-01,有限会社やま城,,有限会社,静岡県,御殿場市,山尾田１５７番地の１,,22,215,4120019,,,2023-11-01,清算の結了等,,,2015-10-05,1,,,,,ヤマシロ,0
1747,6120001004362,登記記録の閉鎖等,0,2023-11-06,2023-11-02,株式会社水口創芸社,,株式会社,大阪府,大阪市阿倍野区,松虫通２丁目３番１８号,,27,119,5450043,,,2023-11-02,清算の結了等,,,2015-10-05,1,,,,,ミズグチソウゲイシャ,0
1769,6120002048284,登記記録の閉鎖等,0,2023-11-06,2023-11-01,有限会社リファイン・エム,,有限会社,大阪府,大阪市淀川区,十三本町１丁目１２番２０号,,27,123,5320024,,,2023-11-01,清算の結了等,,,2015-10-05,1,,,,,リファインエム,0
1795,6140001084535,登記記録の閉鎖等,0,2023-11-06,2023-10-31,株式会社くまさんハウス,,株式会社,兵庫県,川西市,小戸２丁目４番１１号,,28,217,6660014,,,2023-10-31,清算の結了等,,,2015-10-05,1,,,,,クマサンハウス,0
1808,6150005008373,登記記録の閉鎖等,0,2023-11-06,2023-10-30,特定非営利活動法人カンガルーポケット,,その他の設立登記法人,奈良県,大和郡山市,九条町８２２番地３,,29,203,6391001,,,2023-10-30,清算の結了等,,,2015-10-05,1,,,,,カンガルーポケット,0
1824,6180005007075,登記記録の閉鎖等,0,2023-11-06,2023-11-01,特定非営利活動法人有用プランツ普及協会,,その他の設立登記法人,愛知県,名古屋市北区,金城１丁目２番Ｆー３０２号,,23,103,4620847,,,2023-11-01,清算の結了等,,,2015-10-05,1,,,,,ユウヨウプランツフキュウキョウカイ,0
1827,6180302003479,登記記録の閉鎖等,0,2023-11-06,2023-10-27,有限会社新増改ホーム,,有限会社,愛知県,額田郡幸田町,大字芦谷字鍛治山２３番地２,00074874,23,501,4440116,,,2023-10-27,清算の結了等,,,2015-10-05,1,,,,,シンゾウカイホーム,0
1833,6200002016266,登記記録の閉鎖等,0,2023-11-06,2023-10-31,有限会社順天,,有限会社,岐阜県,美濃加茂市,加茂野町加茂野２２４番地の５,,21,211,5050054,,,2023-10-31,清算の結了等,,,2015-10-05,1,,,,,ジュンテン,0
1840,6220002004236,登記記録の閉鎖等,0,2023-11-06,2023-11-01,有限会社中川プラント,,有限会社,石川県,金沢市,森山１丁目４番１６号,,17,201,9200843,,,2023-11-01,清算の結了等,,,2015-10-05,1,,,,,ナカガワプラント,0
1882,6320202000149,登記記録の閉鎖等,0,2023-11-06,2023-11-01,有限会社環整備,,有限会社,大分県,臼杵市,大字臼杵字洲崎７２番地の１８１,,44,206,8750041,,,2023-11-01,合併による解散等,8320202000072,令和５年１１月１日大分県臼杵市大字板知屋字大寺浦１２５７番地株式会社臼杵環境センター（8320202000072）に合併し解散,2015-10-05,1,,,,,カンセイビ,0
1883,6330001003772,登記記録の閉鎖等,0,2023-11-06,2023-10-30,株式会社磐石,,株式会社,熊本県,熊本市中央区,上京塚町２番１５号,,43,101,8620953,,,2023-10-30,清算の結了等,,,2015-10-05,1,,,,,バンジャク,0
1891,6340001018324,登記記録の閉鎖等,0,2023-11-06,2023-11-02,株式会社Ｈｏｎｅｙ　ｈｏｕｓｅ　ＳＭＴ,,株式会社,鹿児島県,曽於郡大崎町,野方２２６６番地１,,46,468,8998313,,,2023-11-02,清算の結了等,,,2015-10-05,1,,,,,ハニーハウスエスエムティ,0
1898,6350002016904,登記記録の閉鎖等,0,2023-11-06,2023-10-30,有限会社宮原電技,,有限会社,宮崎県,日南市,上平野町２丁目１番地１５,,45,204,8870022,,,2023-10-30,清算の結了等,,,2015-10-05,1,,,,,ミヤハラデンギ,0
1914,6430001088309,登記記録の閉鎖等,0,2023-11-06,2023-10-27,株式会社クラフトスコーレ,,株式会社,北海道,札幌市北区,北十条西３丁目２３番地１ＴＨＥ　ＰＥＡＫ　ＳＡＰＰＯＲＯ１階,,01,102,0010010,,,2023-10-27,清算の結了等,,,2023-01-31,1,,,,,クラフトスコーレ,0
1923,6500001005867,登記記録の閉鎖等,0,2023-11-06,2023-11-02,タイヨー工機株式会社,,株式会社,愛媛県,松山市,山西町７８３番地１,,38,201,7918026,,,2023-11-02,清算の結了等,,,2015-10-05,1,,,,,タイヨーコウキ,0
1927,6700150089947,登記記録の閉鎖等,0,2023-11-06,2023-04-17,七日町第５ブロック南地区市街地再開発組合,,その他,東京都,千代田区,丸の内２丁目２番３号株式会社フージャースコーポレーション内,,13,101,1000005,,,2023-04-17,その他の清算の結了等,,,2018-07-06,1,,,,,ナノカマチダイゴブロツクミナミチクシガイチサイカイハツクミアイ,0
1936,7010005026495,登記記録の閉鎖等,0,2023-11-06,2023-10-17,社会保険労務士法人せんだ事務所,,その他の設立登記法人,東京都,中央区,築地２丁目１５番１５号セントラル東銀座６１９号,,13,102,1040045,,,2023-10-17,清算の結了等,,,2017-03-08,1,,,,,センダジムショ,0
1939,7010401142722,登記記録の閉鎖等,0,2023-11-06,2023-10-30,株式会社ＧＥＲＯＤＩ,,株式会社,東京都,港区,芝４丁目７番６号芝ビルディング７０４,,13,103,1080014,,,2023-10-30,清算の結了等,,,2018-12-26,1,,,,,ジェロディ,0
1943,7010403027095,登記記録の閉鎖等,0,2023-11-06,2023-10-30,Ｋｎｉｇｈｔ　Ｌａｂｓ　Ｊａｐａｎ合同会社,,合同会社,東京都,港区,元麻布３丁目１番６号,,13,103,1060046,,,2023-10-30,清算の結了等,,,2022-02-18,1,,,,,ナイトラボジャパン,0
1974,7011501001371,登記記録の閉鎖等,0,2023-11-06,2023-10-30,ケイ企画株式会社,,株式会社,東京都,北区,浮間１丁目１４番１０－２０５号,,13,117,1150051,,,2023-10-30,清算の結了等,,,2015-10-05,1,,,,,ケイキカク,0
1983,7011802009527,登記記録の閉鎖等,0,2023-11-06,2023-10-31,有限会社池田屋和裁所,,有限会社,東京都,足立区,伊興４丁目１０番３号,,13,121,1210823,,,2023-10-31,清算の結了等,,,2015-10-05,1,,,,,イケダヤワサイジョ,0
1997,7013302005130,登記記録の閉鎖等,0,2023-11-06,2023-10-31,有限会社菅沢米穀店,,有限会社,東京都,豊島区,池袋本町１丁目１８番３号,,13,116,1700011,,,2023-10-31,清算の結了等,,,2015-10-05,1,,,,,スガサワベイコクテン,0
2005,7020002013628,登記記録の閉鎖等,0,2023-11-06,2023-10-25,有限会社ウッドヴィレッジ,,有限会社,神奈川県,横浜市神奈川区,斎藤分町２－７,,14,102,2210811,,,2023-10-25,清算の結了等,,,2015-10-05,1,,,,,ウッドヴィレッジ,0
2008,7020003012001,登記記録の閉鎖等,0,2023-11-06,2023-10-18,合同会社Ｋ．Ｓ　ＣＯＬＯＲＳ,,合同会社,神奈川県,横浜市青葉区,美しが丘西２丁目２３番地５,,14,117,2250001,,,2023-10-18,清算の結了等,,,2016-11-07,1,,,,,ケイエスカラーズ,0
2019,7021003004450,登記記録の閉鎖等,0,2023-11-06,2023-11-02,合同会社シラカバ,,合同会社,神奈川県,横須賀市,ハイランド５丁目１４番９号,,14,201,2390833,,,2023-11-02,清算の結了等,,,2015-10-05,1,,,,,シラカバ,0
2023,7030001003703,登記記録の閉鎖等,0,2023-11-06,2023-10-20,株式会社サット,,株式会社,埼玉県,さいたま市北区,宮原町２丁目４１－８,,11,102,3310812,,,2023-10-20,清算の結了等,,,2015-10-05,1,,,,,サット,0
2026,7030001085634,登記記録の閉鎖等,0,2023-11-06,2023-10-25,株式会社国土再生研究所,,株式会社,埼玉県,熊谷市,桜木町２丁目８６番地１,,11,202,3600036,,,2023-10-25,清算の結了等,,,2015-10-05,1,,,,,コクドサイセイケンキュウショ,0
2029,7030001146766,登記記録の閉鎖等,0,2023-11-06,2023-10-19,株式会社西野建設,,株式会社,埼玉県,吉川市,吉川団地２－２－３０３,,11,243,3420054,,,2023-10-19,清算の結了等,,,2022-02-15,1,,,,,ニシノケンセツ,0
2036,7030002112445,登記記録の閉鎖等,0,2023-11-06,2023-10-24,有限会社アイ・エム・アイ,,有限会社,埼玉県,川口市,本蓮１丁目７番１号,00017905,11,203,3340076,,,2023-10-24,清算の結了等,,,2015-10-05,1,,,,,アイエムアイ,0
2044,7040001058820,登記記録の閉鎖等,0,2023-11-06,2023-10-27,株式会社豆厨ゆばせい,,株式会社,千葉県,東金市,道庭６０８番地,,12,213,2830003,,,2023-10-27,清算の結了等,,,2015-10-05,1,,,,,,0
2055,7040002094922,登記記録の閉鎖等,0,2023-11-06,2023-10-25,有限会社渡建商事,,有限会社,千葉県,柏市,中原２丁目１４番１３号,,12,217,2770085,,,2023-10-25,清算の結了等,,,2015-10-05,1,,,,,ワタケンショウジ,0
2070,7070001030066,登記記録の閉鎖等,0,2023-11-06,2023-11-01,株式会社ゼンシン,,株式会社,群馬県,前橋市,上細井町９７６番地４,,10,201,3710051,,,2023-11-01,清算の結了等,,,2015-10-05,1,,,,,ゼンシン,0
2091,7120001013073,登記記録の閉鎖等,0,2023-11-06,2023-10-24,東陽鋼鉄株式会社,,株式会社,大阪府,大阪市東成区,深江南２丁目６番２５号,,27,115,5370002,,,2023-10-24,清算の結了等,,,2015-10-05,1,,,,,トウヨウコウテツ,0
2118,7120005023325,登記記録の閉鎖等,0,2023-11-06,2023-11-01,一般社団法人英語プレゼンテーション検定協会,,その他の設立登記法人,大阪府,大阪市天王寺区,生玉寺町３－３アイリス大阪ビル６Ｆ,,27,109,5430073,,,2023-11-01,清算の結了等,,,2022-12-05,1,,,,,エイゴプレゼンテーションケンテイキョウカイ,0
2138,7140001094698,登記記録の閉鎖等,0,2023-11-06,2023-10-31,小川ソリューション株式会社,,株式会社,兵庫県,神戸市西区,桜が丘西町５丁目７番地の７,,28,111,6512227,,,2023-10-31,清算の結了等,,,2015-10-05,1,,,,,オガワソリューション,0
2139,7140001107930,登記記録の閉鎖等,0,2023-11-06,2023-10-31,ＡＫＣ株式会社,,株式会社,兵庫県,西宮市,柏堂町１番２５号,,28,204,6620097,,,2023-10-31,清算の結了等,,,2017-10-20,1,,,,,エーケーシー,0
2146,7140002011272,登記記録の閉鎖等,0,2023-11-06,2023-11-02,有限会社小西ビル,,有限会社,兵庫県,神戸市兵庫区,湊山町２５番１１号,,28,105,6520012,,,2023-11-02,清算の結了等,,,2015-10-05,1,,,,,コニシビル,0
2167,7200001026884,登記記録の閉鎖等,0,2023-11-06,2023-11-01,Ｅ－Ｓｅｎｓｅ株式会社,,株式会社,岐阜県,関市,下有知１２４番地１２,,21,205,5013217,,,2023-11-01,合併による解散等,5200001019213,令和５年１１月１日岐阜県関市下有知１２４番地の１２株式会社シティーホテルセキ（5200001019213）に合併し解散,2015-10-05,1,,,,,イーセンス,0
2184,7260002024072,登記記録の閉鎖等,0,2023-11-06,2023-11-01,有限会社やかげや,,有限会社,岡山県,総社市,中原５６番地の７,,33,208,7191133,,,2023-11-01,清算の結了等,,,2015-10-05,1,,,,,ヤカゲヤ,0
2198,7290005018184,登記記録の閉鎖等,0,2023-11-06,2023-10-30,一般社団法人持続可能なまちづくり機構,,その他の設立登記法人,福岡県,福岡市西区,北原１丁目１４番１９号,,40,135,8190379,,,2023-10-30,清算の結了等,,,2021-04-23,1,,,,,ジゾクカノウナマツヅクリキコウ,0
2234,7450001007232,登記記録の閉鎖等,0,2023-11-06,2023-10-27,株式会社ほくせい,,株式会社,北海道,札幌市中央区,南十二条西１丁目２番２０－２５０６号,,01,101,0640912,,,2023-10-27,清算の結了等,,,2015-10-05,1,,,,,ホクセイ,0
2235,7450002001580,登記記録の閉鎖等,0,2023-11-06,2023-11-02,有限会社旭央,,有限会社,北海道,旭川市,緑が丘東五条２丁目３番１４号,,01,204,0788805,,,2023-11-02,清算の結了等,,,2015-10-05,1,,,,,キョクオウ,0
2275,8010401160756,登記記録の閉鎖等,0,2023-11-06,2023-10-27,ＱＵＡＤＲＡＣホールディングス株式会社,,株式会社,東京都,港区,南青山１丁目１５番９号,,13,103,1070062,,,2023-10-27,合併による解散等,6011001070471,令和５年１０月１８日東京都港区南青山一丁目１５番９号ＱＵＡＤＲＡＣ株式会社（6011001070471）に合併し解散,2021-06-15,1,,,,,クアドラックホールディングス,0
2281,8010601050947,登記記録の閉鎖等,0,2023-11-06,2023-10-25,株式会社アイティブレインズ,,株式会社,千葉県,八千代市,ゆりのき台５丁目１３番地８,,12,221,2760042,,,2023-10-25,清算の結了等,,,2017-01-13,1,,,,,アイティブレインズ,0
2286,8010801015972,登記記録の閉鎖等,0,2023-11-06,2023-11-01,株式会社サイビッグネット,,株式会社,東京都,大田区,鵜の木３丁目１６番１号,,13,111,1460091,,,2023-11-01,清算の結了等,,,2015-10-05,1,,,,,サイビッグネット,0
2295,8011001123129,登記記録の閉鎖等,0,2023-11-06,2023-08-10,株式会社ｒｏｕｎｄｃｅｌｌ,,株式会社,東京都,渋谷区,代官山町１４番１２号オカダリネンビル,,13,113,1500034,,,2023-08-10,清算の結了等,,,2018-07-06,1,,,,,ランドセル,0
2331,8012401021509,登記記録の閉鎖等,0,2023-11-06,2023-10-24,株式会社絆アライアンス,,株式会社,埼玉県,川口市,桜町１丁目６番１３号,,11,203,3340001,,,2023-10-24,清算の結了等,,,2015-10-05,1,,,,,キズナアライアンス,0
2338,8012803002643,登記記録の閉鎖等,0,2023-11-06,2023-10-26,合同会社フロンティアワン,,合同会社,東京都,立川市,曙町３丁目７番１４号曙マンション２０２号,,13,202,1900012,,,2023-10-26,清算の結了等,,,2021-11-10,1,,,,,フロンティアワン,0
2364,8030001038095,登記記録の閉鎖等,0,2023-11-06,2023-10-20,株式会社愛らんど,,株式会社,埼玉県,草加市,青柳８丁目７番５号,,11,221,3400002,,,2023-10-20,清算の結了等,,,2015-10-05,1,,,,,アイランド,0
2370,8030003012032,登記記録の閉鎖等,0,2023-11-06,2023-10-20,アルドーレ合同会社,,合同会社,埼玉県,川越市,大字南田島２２０６番地,,11,201,3500027,,,2023-10-20,清算の結了等,,,2018-06-14,1,,,,,アルドーレ,0
2384,8040003004689,登記記録の閉鎖等,0,2023-11-06,2023-10-30,合同会社セイコウ,,合同会社,千葉県,千葉市緑区,あすみが丘８丁目３８番地２８,,12,105,2670066,,,2023-10-30,清算の結了等,,,2015-10-05,1,,,,,セイコウ,0
2389,8050002042391,登記記録の閉鎖等,0,2023-11-06,2023-10-30,有限会社林製作所,,有限会社,茨城県,筑西市,嘉家佐和１９２７番地,,08,227,3080837,,,2023-10-30,清算の結了等,,,2015-10-05,1,,,,,ハヤシセイサクジョ,0
2426,8120005007640,登記記録の閉鎖等,0,2023-11-06,2023-11-01,医療法人長原会,,その他の設立登記法人,大阪府,大阪市平野区,長吉長原東３丁目２番３３号,,27,126,5470013,,,2023-11-01,清算の結了等,,,2015-10-05,1,,,,,ナガハラカイ,0
2428,8120101031593,登記記録の閉鎖等,0,2023-11-06,2023-10-26,株式会社ウェルカム,,株式会社,大阪府,大阪市天王寺区,玉造元町１６番５号ＷＣＭマンション１０１号,,27,109,5430014,,,2023-10-26,清算の結了等,,,2015-10-05,1,,,,,ウェルカム,0
2433,8120901037617,登記記録の閉鎖等,0,2023-11-06,2023-10-25,株式会社光輝,,株式会社,大阪府,吹田市,元町１９番１２,,27,205,5640031,,,2023-10-25,合併による解散等,5120001057089,令和５年９月３０日大阪府吹田市元町１９番１２株式会社興進（5120001057089）に合併し解散,2016-11-01,1,,,,,コウキ,0
2435,8120903001042,登記記録の閉鎖等,0,2023-11-06,2023-11-02,合資会社フジエコテック,,合資会社,大阪府,大阪市淀川区,野中南１丁目９番１０号,,27,123,5320022,,,2023-11-02,清算の結了等,,,2015-10-05,1,,,,,フジエコテック,0
2440,8130002021866,登記記録の閉鎖等,0,2023-11-06,2023-10-23,有限会社アクアテックリサーチ,,有限会社,京都府,京都市北区,上賀茂藤ノ木町１６番地２,,26,101,6038077,,,2023-10-23,清算の結了等,,,2015-10-05,1,,,,,アクアテックリサーチ,0
2463,8180001056033,登記記録の閉鎖等,0,2023-11-06,2023-10-31,株式会社ハウジングコミュニケーション,,株式会社,愛知県,西春日井郡豊山町,大字青山字東栄３０番地３,,23,342,4800201,,,2023-10-31,清算の結了等,,,2015-10-05,1,,,,,ハウジングコミュニケーション,0
2466,8180001149142,登記記録の閉鎖等,0,2023-11-06,2023-11-01,株式会社ＭａｇｉＣｕｌｔｕｒｅ,,株式会社,愛知県,あま市,甚目寺郷前８３番地４,,23,237,4901111,,,2023-11-01,清算の結了等,,,2021-12-16,1,,,,,マジカルチャー,0
2474,8190003003528,登記記録の閉鎖等,0,2023-11-06,2023-11-01,合同会社日本電材,,合同会社,三重県,津市,藤方１９６４番地２,,24,201,5140815,,,2023-11-01,清算の結了等,,,2020-11-19,1,,,,,ニホンデンザイ,0
2477,8220001021222,登記記録の閉鎖等,0,2023-11-06,2023-11-01,株式会社ＳＴＡＹ　ＩＮ,,株式会社,石川県,金沢市,並木町２番１号浅野川マンション１０１号室,,17,201,9200928,,,2023-11-01,合併による解散等,5230001016637,令和５年９月１日富山市西中野町一丁目１番１号株式会社富山ホームズ（5230001016637）に合併し解散,2016-09-09,1,,,,,,0
2482,8230001009506,登記記録の閉鎖等,0,2023-11-06,2023-11-01,株式会社ヒスコム,,株式会社,富山県,砺波市,三郎丸２０８番地,,16,208,9391308,,,2023-11-01,合併による解散等,8230001016080,令和５年１１月１日富山県高岡市内島３５５０番地ＧＲＮ株式会社（8230001016080）に合併し解散,2015-10-05,1,,,,,ヒスコム,0
2499,8270002004361,登記記録の閉鎖等,0,2023-11-06,2023-11-02,有限会社友和産業,,有限会社,鳥取県,八頭郡八頭町,井古２８番地４,,31,329,6800425,,,2023-11-02,清算の結了等,,,2015-10-05,1,,,,,,0
2553,8430002065544,登記記録の閉鎖等,0,2023-11-06,2023-10-26,有限会社白鳥技術サービス,,有限会社,北海道,登別市,柏木町４丁目１３番地４,,01,230,0590017,,,2023-10-26,清算の結了等,,,2015-10-05,1,,,,,ハクチョウギジュツサービス,0
2564,8470002015561,登記記録の閉鎖等,0,2023-11-06,2023-11-01,有限会社四国マリンエージェンシー,,有限会社,香川県,坂出市,八幡町１丁目２番１２号,,37,203,7620041,,,2023-11-01,清算の結了等,,,2015-10-05,1,,,,,シコクマリンエージェンシー,0
2571,8700150039719,登記記録の閉鎖等,0,2023-11-06,2022-03-31,洗平ふるさとクラブ,,その他,青森県,十和田市,大字相坂字上鴨入１３５－１十和田土地改良区内,,02,206,0340041,,,2022-03-31,その他の清算の結了等,,,2015-10-09,1,,,,,アライダイフルサトクラブ,0
2588,9010403026822,登記記録の閉鎖等,0,2023-11-06,2023-10-25,合同会社ＢＯＳＥ,,合同会社,東京都,港区,南麻布３丁目８番６－１０２号,,13,103,1060047,,,2023-10-25,清算の結了等,,,2022-01-06,1,,,,,ボーズ,0
2595,9010601045871,登記記録の閉鎖等,0,2023-11-06,2023-10-31,株式会社サマンサパワー,,株式会社,東京都,江東区,住吉１丁目１７番２０号,,13,108,1350002,,,2023-10-31,清算の結了等,,,2015-10-05,1,,,,,サマンサパワー,0
2643,9013401001838,登記記録の閉鎖等,0,2023-11-06,2023-10-31,株式会社弘輝,,株式会社,東京都,多摩市,連光寺３丁目１９番地の１８,,13,224,2060021,,,2023-10-31,清算の結了等,,,2015-10-05,1,,,,,コウキ,0
2670,9040001106981,登記記録の閉鎖等,0,2023-11-06,2023-11-01,株式会社ＹＦＫ,,株式会社,大阪府,大阪市北区,梅田１丁目２番２－２００号大阪駅前第２ビル２階１の１の１,,27,127,5300001,,,2023-11-01,清算の結了等,,,2018-11-21,1,,,,,ワイエフケイ,0
2681,9050001049593,登記記録の閉鎖等,0,2023-11-06,2023-11-01,株式会社Ｔ＆Ｋ,,株式会社,茨城県,常総市,新石下３５３６番地,,08,211,3002706,,,2023-11-01,合併による解散等,6040001091376,令和５年１０月２３日千葉県野田市中野台４４０番地の８株式会社太志（6040001091376）に合併し解散,2021-07-28,1,,,,,ティーアンドケー,0
2699,9080101016474,登記記録の閉鎖等,0,2023-11-06,2023-10-31,株式会社フォンテ,,株式会社,静岡県,駿東郡清水町,玉川２０７番地の５０,,22,341,4110902,,,2023-10-31,清算の結了等,,,2015-10-05,1,,,,,フォンテ,0
2708,9100001023642,登記記録の閉鎖等,0,2023-11-06,2023-10-27,株式会社フューチャーネット,,株式会社,長野県,長野市,大字栗田９２７番地,,20,201,3800921,,,2023-10-27,清算の結了等,,,2015-10-05,1,,,,,フューチャーネット,0
2710,9100002002439,登記記録の閉鎖等,0,2023-11-06,2023-10-26,有限会社信陽工業,,有限会社,長野県,長野市,小島田町９９４番地１,,20,201,3812212,,,2023-10-26,清算の結了等,,,2015-10-05,1,,,,,シンヨウコウギョウ,0
2711,9100003000573,登記記録の閉鎖等,0,2023-11-06,2023-10-25,ＩＴラボ長野合同会社,,合同会社,長野県,長野市,青木島町大塚１０６２番地５,,20,201,3812205,,,2023-10-25,清算の結了等,,,2015-10-05,1,,,,,アイティラボナガノ,0
2735,9120105004909,登記記録の閉鎖等,0,2023-11-06,2023-11-01,医療法人藏本医院,,その他の設立登記法人,大阪府,富田林市,小金台２丁目２番３号,,27,214,5840083,,,2023-11-01,清算の結了等,,,2015-10-05,1,,,,,クラモトイイン,0
2755,9140005008041,登記記録の閉鎖等,0,2023-11-06,2023-10-31,兵庫県パルプ材産業協同組合,,その他の設立登記法人,兵庫県,丹波市,山南町谷川８５８番地,,28,223,6693131,,,2023-10-31,清算の結了等,,,2015-10-05,1,,,,,ヒョウゴケンパルプザイサンギョウ,0
2757,9150001001577,登記記録の閉鎖等,0,2023-11-06,2023-11-01,株式会社中室金物店,,株式会社,奈良県,奈良市,角振町２３番地,,29,201,6308224,,,2023-11-01,清算の結了等,,,2015-10-05,1,,,,,ナカムロカナモノテン,0
2760,9160005002298,登記記録の閉鎖等,0,2023-11-06,2023-11-02,特定非営利活動法人ＳＯＬ,,その他の設立登記法人,滋賀県,大津市,浜大津４丁目１番１－１４０２号,,25,201,5200047,,,2023-11-02,清算の結了等,,,2015-10-05,1,,,,,ソル,0
2761,9170001000107,登記記録の閉鎖等,0,2023-11-06,2023-11-02,株式会社朝本工務店,,株式会社,和歌山県,和歌山市,土入１３０番地の６,,30,201,6408432,,,2023-11-02,清算の結了等,,,2015-10-05,1,,,,,アサモトコウムテン,0
2763,9170001008868,登記記録の閉鎖等,0,2023-11-06,2023-11-01,半島クリエート株式会社,,株式会社,和歌山県,田辺市,高雄３丁目１１番２８号,,30,206,6460028,,,2023-11-01,清算の結了等,,,2015-10-05,1,,,,,ハントウクリエート,0
2812,9330002009824,登記記録の閉鎖等,0,2023-11-06,2023-11-01,有限会社松商,,有限会社,熊本県,熊本市中央区,新屋敷３丁目３番７号,,43,101,8620975,,,2023-11-01,清算の結了等,,,2015-10-05,1,,,,,マツショウ,0
2827,9380001006875,登記記録の閉鎖等,0,2023-11-06,2023-11-01,株式会社結城,,株式会社,福島県,郡山市,田村町細田字時内１１６番地の１,,07,203,9631152,,,2023-11-01,清算の結了等,,,2015-10-05,1,,,,,ユウキ,0
2834,9400001009727,登記記録の閉鎖等,0,2023-11-06,2023-10-24,エムケイ自販機サービス株式会社,,株式会社,岩手県,宮古市,佐原４丁目７番８－２２号,,03,202,0270095,,,2023-10-24,清算の結了等,,,2015-10-05,1,,,,,エムケイジハンキサービス,0
2848,9460301003011,登記記録の閉鎖等,0,2023-11-06,2023-11-02,フィットネスジャパン株式会社,,株式会社,北海道,北見市,光西町１６９番地３８号,,01,208,0900835,,,2023-11-02,清算の結了等,,,2015-10-05,1,,,,,フィットネスジャパン,0
2850,9470001007047,登記記録の閉鎖等,0,2023-11-06,2023-11-01,株式会社ステップ,,株式会社,香川県,木田郡三木町,大字氷上１６９番地２,,37,341,7610612,,,2023-11-01,清算の結了等,,,2015-10-05,1,,,,,ステップ,0
2853,9470002006345,登記記録の閉鎖等,0,2023-11-06,2023-11-01,有限会社町川電機,,有限会社,香川県,高松市,西ハゼ町８４番地１,,37,201,7618053,,,2023-11-01,清算の結了等,,,2015-10-05,1,,,,,マチカワデンキ,0
