sequenceNumber,corporateNumber,process,correct,updateDate,changeDate,name,nameImageId,kind,prefectureName,cityName,streetNumber,addressImageId,prefectureCode,cityCode,postCode,addressOutside,addressOutsideImageId,closeDate,closeCause,successorCorporateNumber,changeCause,assignmentDate,latest,enName,enPrefectureName,enCityName,enAddressOutside,furigana,hihyoji
5,1010003044471,新規,0,2024-07-31,2024-07-31,合同会社ｍｉｒａｃｅｔｉ,,合同会社,東京都,中央区,銀座１丁目２２番１１号銀座大竹ビジデンス２Ｆ,,13,102,1040061,,,,,,,2024-07-31,1,,,,,ミラセッティ,0
6,1010101016257,新規,0,2024-07-31,2024-07-31,株式会社ダイマクション,,株式会社,東京都,八王子市,越野３９番地５３,,13,201,1920361,,,,,,,2024-07-31,1,,,,,ダイマクション,0
7,1010401018481,新規,0,2024-07-31,2024-07-31,株式会社データ・ワールド,,株式会社,東京都,港区,元赤坂１丁目４番２１号,,13,103,1070051,,,,,,,2024-07-31,1,,,,,,0
10,1010401184092,新規,0,2024-07-31,2024-07-31,ボーダレスデザインスクール株式会社,,株式会社,東京都,港区,北青山１丁目３番１号アールキューブ青山３階,,13,103,1070061,,,,,,,2024-07-31,1,,,,,ボーダレスデザインスクール,0
11,1010401184118,新規,0,2024-07-31,2024-07-31,ＮＣＳアールイーキャピタル株式会社,,株式会社,東京都,港区,港南２丁目１５番３号,,13,103,1080075,,,,,,,2024-07-31,1,,,,,エヌシーエスアールイーキャピタル,0
12,1010401184134,新規,0,2024-07-31,2024-07-31,株式会社フェスティナ,,株式会社,東京都,港区,西新橋１丁目１２－６－７Ｆ,,13,103,1050003,,,,,,,2024-07-31,1,,,,,フェスティナ,0
16,1010501052661,新規,0,2024-07-31,2024-07-31,株式会社ライフバンク,,株式会社,東京都,台東区,浅草橋５丁目１－３１ロッキービル３階ＤＡＯＳＰＡＣＥ浅草橋３０３号室,,13,106,1110053,,,,,,,2024-07-31,1,,,,,ライフバンク,0
17,1010501052678,新規,0,2024-07-31,2024-07-31,Ｋｅｅｐ　Ｒｏｌｌｉｎｇ株式会社,,株式会社,東京都,台東区,上野６丁目１番６号御徒町グリーンハイツ１００５号,,13,106,1100005,,,,,,,2024-07-31,1,,,,,キープローリング,0
18,1010501052694,新規,0,2024-07-31,2024-07-31,株式会社Ｐｒｏｍｏｔｅ,,株式会社,東京都,台東区,浅草１丁目１３番５号,,13,106,1110032,,,,,,,2024-07-31,1,,,,,プロモート,0
21,1010603010988,新規,0,2024-07-31,2024-07-31,合同会社ＴＫＭ,,合同会社,東京都,江東区,有明３丁目７番２６号有明フロンティアビルＢ棟９階,,13,108,1350063,,,,,,,2024-07-31,1,,,,,ティーケーエム,0
26,1010901055735,新規,0,2024-07-31,2024-07-31,株式会社ＢＩＬ　ＣＥＲＴ,,株式会社,東京都,世田谷区,深沢４丁目２２番９号,,13,112,1580081,,,,,,,2024-07-31,1,,,,,ビルサート,0
35,1011001163726,新規,0,2024-07-31,2024-07-31,株式会社ＦＪ　ＰＡＩＮＴ,,株式会社,東京都,渋谷区,本町５丁目６番１１号,,13,113,1510071,,,,,,,2024-07-31,1,,,,,エフジェーペイント,0
36,1011001163759,新規,0,2024-07-31,2024-07-31,セールスプロセス株式会社,,株式会社,東京都,渋谷区,南平台町２番１３号南平台大崎ビル３階,,13,113,1500036,,,,,,,2024-07-31,1,,,,,セールスプロセス,0
37,1011001163775,新規,0,2024-07-31,2024-07-31,Ｅ・ウェルスマネジメント株式会社,,株式会社,東京都,渋谷区,道玄坂２丁目１５番１号ノア道玄坂１２１３,,13,113,1500043,,,,,,,2024-07-31,1,,,,,イーウェルスマネジメント,0
38,1011003019686,新規,0,2024-07-31,2024-07-31,合同会社リライ,,合同会社,東京都,目黒区,上目黒１丁目１６番１２号鈴房ビル２０１Ａ中目ＦＯ,,13,110,1530051,,,,,,,2024-07-31,1,,,,,リライ,0
42,1011101108176,新規,0,2024-07-31,2024-07-31,株式会社ひゅうがキャピタル,,株式会社,東京都,新宿区,市谷砂土原町３丁目１８,,13,104,1620842,,,,,,,2024-07-31,1,,,,,ヒュウガキャピタル,0
43,1011103014736,新規,0,2024-07-31,2024-07-31,合同会社エスケーシープロダクト,,合同会社,東京都,新宿区,西新宿３丁目３番１３号西新宿水間ビル６階,,13,104,1600023,,,,,,,2024-07-31,1,,,,,エスケーシープロダクト,0
44,1011103014760,新規,0,2024-07-31,2024-07-31,絵夢遊芸合同会社,,合同会社,東京都,新宿区,百人町１丁目１８番８号大久保カドビル２階ＬｉｎｋＳｐａｃｅ百人町Ｃ０２号室,,13,104,1690073,,,,,,,2024-07-31,1,,,,,エムユウゲイ,0
45,1011201025676,新規,0,2024-07-31,2024-07-31,ピクシーズ株式会社,,株式会社,東京都,中野区,上高田２丁目２１－１２フェリス成田２０２号室,,13,114,1640002,,,,,,,2024-07-31,1,,,,,ピクシーズ,0
46,1011201025684,新規,0,2024-07-31,2024-07-31,株式会社Ｈｅｂｅ,,株式会社,東京都,中野区,上鷺宮１丁目２４番１号,,13,114,1650031,,,,,,,2024-07-31,1,,,,,ヘーベー,0
51,1011501030987,新規,0,2024-07-31,2024-07-31,株式会社ピープルセントル,,株式会社,東京都,北区,東十条４丁目１１番地１１－７０１号ネオマイム東十条プライム,,13,117,1140001,,,,,,,2024-07-31,1,,,,,ピープルセントル,0
53,1011601027941,新規,0,2024-07-31,2024-07-31,株式会社廣木,,株式会社,東京都,練馬区,大泉学園町７丁目６番２３－２０６号,,13,120,1780061,,,,,,,2024-07-31,1,,,,,ヒロキ,0
57,1011701027486,新規,0,2024-07-31,2024-07-31,信和土木株式会社,,株式会社,東京都,江戸川区,平井４丁目１２番１８号,,13,123,1320035,,,,,,,2024-07-31,1,,,,,シンワドボク,0
58,1011801044605,新規,0,2024-07-31,2024-07-31,株式会社ＣＣＦＰ,,株式会社,東京都,足立区,西新井７丁目１１番８－８０１号,,13,121,1230841,,,,,,,2024-07-31,1,,,,,シーシーエフピー,0
66,1012401042131,新規,0,2024-07-31,2024-07-31,トラベルプライド株式会社,,株式会社,東京都,調布市,深大寺東町５丁目２９番地２１,,13,208,1820012,,,,,,,2024-07-31,1,,,,,トラベルプライド,0
74,1013301052914,新規,0,2024-07-31,2024-07-31,株式会社玩味,,株式会社,東京都,豊島区,東池袋５丁目５２番１０－６０４号,,13,116,1700013,,,,,,,2024-07-31,1,,,,,ガンミ,0
79,1020001158124,新規,0,2024-07-31,2024-07-31,オンリーワンスタイル株式会社,,株式会社,神奈川県,横浜市南区,永田北２丁目３９番１３号,,14,105,2320071,,,,,,,2024-07-31,1,,,,,オンリーワンスタイル,0
80,1020001158264,新規,0,2024-07-31,2024-07-31,株式会社ＮＥＬＬ,,株式会社,神奈川県,川崎市多摩区,東生田１丁目１０番３号,,14,135,2140031,,,,,,,2024-07-31,1,,,,,ネル,0
85,1021001082859,新規,0,2024-07-31,2024-07-31,株式会社ＧＥＭ,,株式会社,神奈川県,相模原市中央区,南橋本２丁目２番４号,,14,152,2520253,,,,,,,2024-07-31,1,,,,,ジェム,0
88,1021003014843,新規,0,2024-07-31,2024-07-31,合同会社ｌｏｏｋｗｉｔｈｉｎ,,合同会社,神奈川県,藤沢市,藤が岡２丁目１番Ｅ３号棟１０４号室,,14,205,2510004,,,,,,,2024-07-31,1,,,,,ルックウィズイン,0
99,1040001134701,新規,0,2024-07-31,2024-07-31,ＢＳＴ株式会社,,株式会社,千葉県,千葉市稲毛区,長沼町２９３番地４６,,12,103,2630005,,,,,,,2024-07-31,1,,,,,ビーエスティ,0
104,1040003025493,新規,0,2024-07-31,2024-07-31,合同会社Ｑｕｉｃｋ　Ｅｍｏｔｉｏｎ,,合同会社,千葉県,八千代市,大和田新田１０７５番地１３,,12,221,2760046,,,,,,,2024-07-31,1,,,,,クイックエモーション,0
105,1040003025502,新規,0,2024-07-31,2024-07-31,呉竹カルチャー合同会社,,合同会社,千葉県,船橋市,松が丘１丁目５２番５６号,,12,204,2740064,,,,,,,2024-07-31,1,,,,,クレタケカルチャー,0
106,1050001055211,新規,0,2024-07-31,2024-07-31,株式会社ＣＲＯＳＳ　ＡＩ,,株式会社,茨城県,取手市,西１丁目１３－２０,,08,217,3020025,,,,,,,2024-07-31,1,,,,,クロスエーアイ,0
110,1060001037349,新規,0,2024-07-31,2024-07-31,株式会社農健,,株式会社,栃木県,日光市,塩野室町２２６１番地,,09,206,3212351,,,,,,,2024-07-31,1,,,,,ノウケン,0
117,1080101024930,新規,0,2024-07-31,2024-07-31,奥平株式会社,,株式会社,静岡県,富士市,一色８５番地の２,,22,210,4170808,,,,,,,2024-07-31,1,,,,,オクダイラ,0
134,1120001267204,新規,0,2024-07-31,2024-07-31,＿ＳＨＢＳ株式会社,00135746,株式会社,大阪府,大阪市大正区,三軒家西１丁目２３－１３－５０１,,27,108,5510001,,,,,,,2024-07-31,1,,,,,ケイエスエイチビーエス,0
135,1120001267212,新規,0,2024-07-31,2024-07-31,株式会社ＪＵＳＴ,,株式会社,大阪府,大阪市城東区,野江３丁目２７番７号野江１番館５０９号室,,27,118,5360006,,,,,,,2024-07-31,1,,,,,ジャスト,0
136,1120001267278,新規,0,2024-07-31,2024-07-31,ＵＴ‐Ｃｏｎｎｅｃｔ株式会社,,株式会社,大阪府,大阪市福島区,海老江３丁目１６番２０号,,27,103,5530001,,,,,,,2024-07-31,1,,,,,ユーティーコネクト,0
137,1120001267352,新規,0,2024-07-31,2024-07-31,株式会社ｏｎ,,株式会社,大阪府,大阪市北区,浪花町１２番２４号,,27,127,5300022,,,,,,,2024-07-31,1,,,,,オン,0
138,1120001267385,新規,0,2024-07-31,2024-07-31,株式会社上,,株式会社,大阪府,大阪市東住吉区,公園南矢田４丁目２番１３－２０３号,,27,121,5460024,,,,,,,2024-07-31,1,,,,,ウエ,0
139,1120001267393,新規,0,2024-07-31,2024-07-31,Ｃｏｎｙ‐Ｃｏ‐Ｃｒｅａｔｉｏｎ株式会社,,株式会社,大阪府,大阪市西区,西本町１丁目４－１オリックス本町ビル４階,,27,106,5500005,,,,,,,2024-07-31,1,,,,,コニーコクリエイション,0
142,1120005024460,新規,0,2024-07-31,2024-07-31,スターグレード行政書士法人,,その他の設立登記法人,大阪府,大阪市西区,江戸堀１丁目２０番２２号ウエスト船場ビル４０３号,,27,106,5500002,,,,,,,2024-07-31,1,,,,,スターグレード,0
144,1120103005981,新規,0,2024-07-31,2024-07-31,合同会社リーガルアシスト,,合同会社,大阪府,泉大津市,松之浜町１丁目１９番１１号,,27,206,5950072,,,,,,,2024-07-31,1,,,,,リーガルアシスト,0
152,1122001038312,新規,0,2024-07-31,2024-07-31,株式会社かしはら,,株式会社,大阪府,東大阪市,御厨東１丁目９番３６号,,27,227,5770033,,,,,,,2024-07-31,1,,,,,カシハラ,0
156,1130001077602,新規,0,2024-07-31,2024-07-31,株式会社辨慶マネジメント,,株式会社,京都府,京都市右京区,嵯峨天龍寺芒ノ馬場町１０番地２６,,26,108,6168385,,,,,,,2024-07-31,1,,,,,ベンケイマネジメント,0
157,1130003009735,新規,0,2024-07-31,2024-07-31,合同会社ハンヨン,,合同会社,京都府,京都市山科区,御陵四丁野町２１番地５７,,26,110,6078412,,,,,,,2024-07-31,1,,,,,ハンヨン,0
159,1140001135268,新規,0,2024-07-31,2024-07-31,株式会社エヌカルテット,,株式会社,兵庫県,西宮市,神祇官町１番４号,00135749,28,204,6620843,,,,,,,2024-07-31,1,,,,,エヌカルテット,0
160,1140001135334,新規,0,2024-07-31,2024-07-31,株式会社Ｙｏｕ　ｔｗｏ,,株式会社,兵庫県,尼崎市,南武庫之荘１丁目２８番３１号,,28,202,6610033,,,,,,,2024-07-31,1,,,,,ユーツー,0
161,1140001135350,新規,0,2024-07-31,2024-07-31,ＮＡＥ　ＬＡＢ株式会社,,株式会社,兵庫県,神戸市北区,大沢町日西原１１８７,,28,109,6511525,,,,,,,2024-07-31,1,,,,,ナエラボ,0
162,1140003020880,新規,0,2024-07-31,2024-07-31,エフアイラボ合同会社,,合同会社,兵庫県,尼崎市,富松町１丁目２６番２９－７０３号,,28,202,6610003,,,,,,,2024-07-31,1,,,,,エフアイラボ,0
163,1150001027456,新規,0,2024-07-31,2024-07-31,株式会社ＭＩＮＫＡＷＡ,,株式会社,奈良県,大和高田市,西三倉堂１丁目４番２０号,,29,202,6350046,,,,,,,2024-07-31,1,,,,,ミンカワ,0
164,1160001026127,新規,0,2024-07-31,2024-07-31,株式会社ケイズテック,,株式会社,滋賀県,愛知郡愛荘町,市４４番地２,,25,425,5291313,,,,,,,2024-07-31,1,,,,,ケイズテック,0
169,1170003002083,新規,0,2024-07-31,2024-07-31,ティーエムトランスジャパン合同会社,,合同会社,和歌山県,岩出市,桜台３６９番地,,30,209,6496203,,,,,,,2024-07-31,1,,,,,ティーエムトランスジャパン,0
177,1180001162473,新規,0,2024-07-31,2024-07-31,株式会社ＣＭＯＳ‐Ｋ,,株式会社,愛知県,津島市,下新田町４丁目９７番地,,23,208,4960875,,,,,,,2024-07-31,1,,,,,シーモスケー,0
178,1180001162515,新規,0,2024-07-31,2024-07-31,ニューシステムホールディングス株式会社,,株式会社,愛知県,名古屋市南区,要町５丁目６０番地,,23,112,4570802,,,,,,,2024-07-31,1,,,,,ニューシステムホールディングス,0
179,1180001162523,新規,0,2024-07-31,2024-07-31,株式会社オートワークスアライ,,株式会社,愛知県,名古屋市天白区,高坂町２７５番地宝マンション天白高坂４０８号,,23,116,4680025,,,,,,,2024-07-31,1,,,,,オートワークスアライ,0
180,1180001162531,新規,0,2024-07-31,2024-07-31,株式会社Ｐｅａｃｈ,,株式会社,愛知県,知多郡武豊町,字二ケ崎２丁目３２番地,,23,447,4702316,,,,,,,2024-07-31,1,,,,,ピーチ,0
181,1180001162564,新規,0,2024-07-31,2024-07-31,アークライズ株式会社,,株式会社,愛知県,名古屋市南区,要町１丁目１１番地の５３,,23,112,4570802,,,,,,,2024-07-31,1,,,,,アークライズ,0
182,1180001162572,新規,0,2024-07-31,2024-07-31,株式会社ＳＤＰＣ,,株式会社,愛知県,名古屋市中区,三の丸１丁目１４番７号本丸ビル２０２,,23,106,4600001,,,,,,,2024-07-31,1,,,,,エスディーピーシー,0
183,1180001162663,新規,0,2024-07-31,2024-07-31,株式会社Ａ．ＬＩＮＥ,,株式会社,愛知県,あま市,下萱津九反田５８メゾンパドトロワ１Ｆ,,23,237,4901114,,,,,,,2024-07-31,1,,,,,エーライン,0
186,1180005020710,新規,0,2024-07-31,2024-07-31,一般社団法人太陽の木,,その他の設立登記法人,愛知県,名古屋市中村区,豊国通４丁目４９番地の１,,23,105,4530834,,,,,,,2024-07-31,1,,,,,タイヨウノキ,0
187,1180301038910,新規,0,2024-07-31,2024-07-31,ＳｕｎＦｏｒｉａ株式会社,,株式会社,愛知県,知立市,牛田町西裏１３６番地,,23,225,4720007,,,,,,,2024-07-31,1,,,,,サンフォリア,0
188,1180303006213,新規,0,2024-07-31,2024-07-31,合同会社三六,,合同会社,愛知県,安城市,和泉町八兵エ３５,,23,212,4441224,,,,,,,2024-07-31,1,,,,,ミロク,0
190,1190001031529,新規,0,2024-07-31,2024-07-31,株式会社ＫＫＣ,,株式会社,三重県,四日市市,天カ須賀２丁目２１番５号,,24,202,5108001,,,,,,,2024-07-31,1,,,,,ケーケーシー,0
192,1210001019843,新規,0,2024-07-31,2024-07-31,ダイノセキュリティ株式会社,,株式会社,福井県,福井市,成和１丁目３００２,,18,201,9188239,,,,,,,2024-07-31,1,,,,,ダイノセキュリティ,0
195,1230001020469,新規,0,2024-07-31,2024-07-31,共栄板金株式会社,,株式会社,富山県,高岡市,二塚１３８０番地,,16,202,9330816,,,,,,,2024-07-31,1,,,,,キョウエイバンキン,0
198,1240001063590,新規,0,2024-07-31,2024-07-31,ＲＩＳＥ株式会社,,株式会社,広島県,広島市中区,富士見町１３番１３号３Ｆ,,34,101,7300043,,,,,,,2024-07-31,1,,,,,ライズ,0
199,1240001063599,新規,0,2024-07-31,2024-07-31,株式会社ＳＰ,,株式会社,広島県,廿日市市,宮内３１１９番地５,,34,213,7380034,,,,,,,2024-07-31,1,,,,,エスピー,0
200,1240001063608,新規,0,2024-07-31,2024-07-31,株式会社井口設備,,株式会社,広島県,広島市西区,井口鈴が台３丁目４番２２号,,34,104,7330843,,,,,,,2024-07-31,1,,,,,イノクチセツビ,0
201,1240001063616,新規,0,2024-07-31,2024-07-31,女鹿原産業株式会社,,株式会社,広島県,山県郡北広島町,大塚６１７番地,,34,369,7312107,,,,,,,2024-07-31,1,,,,,メガワラサンギョウ,0
202,1240001063624,新規,0,2024-07-31,2024-07-31,株式会社てんぐん,,株式会社,広島県,三次市,三良坂町長田１３９４番地２,,34,209,7294305,,,,,,,2024-07-31,1,,,,,テングン,0
204,1240003006787,新規,0,2024-07-31,2024-07-31,合同会社みらい計劃,,合同会社,広島県,福山市,川口町５丁目１２番４０号,,34,207,7200822,,,,,,,2024-07-31,1,,,,,ミライケイカク,0
205,1250001020756,新規,0,2024-07-31,2024-07-31,株式会社ＪＩＮＫＩＴ,,株式会社,山口県,防府市,桑山２丁目１１－２２もっくのもり内（株式会社ＪＩＮＫＩＴ）,,35,206,7470808,,,,,,,2024-07-31,1,,,,,ジンキット,0
206,1260001039309,新規,0,2024-07-31,2024-07-31,ＳＡＹＡＫＡ株式会社,,株式会社,岡山県,岡山市北区,野田１丁目１４－１８（９０４）,,33,101,7000971,,,,,,,2024-07-31,1,,,,,サヤカ,0
207,1260001039317,新規,0,2024-07-31,2024-07-31,株式会社Ｕｓｅｆｕｌ,,株式会社,岡山県,岡山市北区,津島南１丁目９番５－７号,,33,101,7000085,,,,,,,2024-07-31,1,,,,,ユースフル,0
208,1260001039325,新規,0,2024-07-31,2024-07-31,株式会社ＣＡＲＲＹ,,株式会社,岡山県,岡山市南区,泉田３丁目７番１９ー５号,,33,104,7000944,,,,,,,2024-07-31,1,,,,,キャリー,0
209,1260003004830,新規,0,2024-07-31,2024-07-31,合同会社ｐａｄｄｉｅｓ,,合同会社,岡山県,岡山市中区,藤崎１８６－１３,,33,102,7028006,,,,,,,2024-07-31,1,,,,,パディーズ,0
211,1270001009021,新規,0,2024-07-31,2024-07-31,株式会社ｆｕｎ,,株式会社,鳥取県,岩美郡岩美町,大字牧谷３９０番地,,31,302,6810001,,,,,,,2024-07-31,1,,,,,ファン,0
217,1290001106551,新規,0,2024-07-31,2024-07-31,株式会社Ｓｐａｒｋｌｅ,,株式会社,福岡県,福岡市博多区,博多駅前１丁目２３番２号,,40,132,8120011,,,,,,,2024-07-31,1,,,,,スパークル,0
218,1290001106601,新規,0,2024-07-31,2024-07-31,株式会社ＩＭＡ,,株式会社,福岡県,福岡市東区,香椎照葉７丁目８番３－１０１３号,,40,131,8130017,,,,,,,2024-07-31,1,,,,,アイエムエー,0
219,1290001106700,新規,0,2024-07-31,2024-07-31,あおぞら株式会社,,株式会社,福岡県,福岡市中央区,大名２丁目１０番８,,40,133,8100041,,,,,,,2024-07-31,1,,,,,アオゾラ,0
224,1290003015593,新規,0,2024-07-31,2024-07-31,原田洋合同会社,,合同会社,福岡県,福岡市南区,平和２丁目５番１５号,,40,134,8150071,,,,,,,2024-07-31,1,,,,,ハラダヒロシ,0
227,1290801030728,新規,0,2024-07-31,2024-07-31,ＹＤ　Ｏｆｆｉｃｅ株式会社,,株式会社,福岡県,行橋市,西宮市１丁目１４番２２号,,40,213,8240031,,,,,,,2024-07-31,1,,,,,ワイディーオフィス,0
228,1290801030744,新規,0,2024-07-31,2024-07-31,株式会社ＡＸｉＯ,,株式会社,福岡県,遠賀郡遠賀町,松の本５丁目１番２号,,40,384,8114305,,,,,,,2024-07-31,1,,,,,アクシオ,0
230,1290803004795,新規,0,2024-07-31,2024-07-31,合同会社Ｇ‐Ｇｉｒｌｚ,,合同会社,福岡県,北九州市八幡西区,折尾４丁目２番１８号折尾駅前ビル１Ｆ,,40,109,8070825,,,,,,,2024-07-31,1,,,,,ジーガールズ,0
232,1320001020625,新規,0,2024-07-31,2024-07-31,株式会社ラディアローズ,,株式会社,大分県,大分市,大字佐賀関４９番地の１,,44,201,8792201,,,,,,,2024-07-31,1,,,,,ラディアローズ,0
235,1330001032280,新規,0,2024-07-31,2024-07-31,科瑞同創株式会社,,株式会社,熊本県,熊本市中央区,新屋敷３丁目４－３エリーナ新屋敷４０１号室,,43,101,8620975,,,,,,,2024-07-31,1,,,,,カズイドウソウ,0
236,1340001026686,新規,0,2024-07-31,2024-07-31,株式会社福丸オートサービス,,株式会社,鹿児島県,鹿児島市,吉野町１３３０番地２,,46,201,8920871,,,,,,,2024-07-31,1,,,,,フクマルオートサービス,0
237,1340001026694,新規,0,2024-07-31,2024-07-31,株式会社トカラｎａｎａｉｒｏ,,株式会社,鹿児島県,鹿児島郡十島村,大字中之島１５０番地,,46,304,8915201,,,,,,,2024-07-31,1,,,,,トカラナナイロ,0
238,1350001019111,新規,0,2024-07-31,2024-07-31,株式会社Ｒ・Ｋ・Ｙ,,株式会社,宮崎県,宮崎市,月見ケ丘６丁目２３番７号,,45,201,8800926,,,,,,,2024-07-31,1,,,,,アールケイワイ,0
241,1360001034010,新規,0,2024-07-31,2024-07-31,株式会社オーシャンブルー,,株式会社,沖縄県,豊見城市,字名嘉地２７８－１Ｆ,,47,212,9010235,,,,,,,2024-07-31,1,,,,,オーシャンブルー,0
242,1360003014183,新規,0,2024-07-31,2024-07-31,合同会社ＴＥＮ　Ｔ＆Ｏ　ＳＥＮ,,合同会社,沖縄県,名護市,大西３丁目２番１９号,,47,209,9050018,,,,,,,2024-07-31,1,,,,,テントセン,0
243,1360005007078,新規,0,2024-07-31,2024-07-31,一般社団法人うみがめ,,その他の設立登記法人,沖縄県,宜野湾市,普天間１丁目７－３－６０３,,47,205,9012202,,,,,,,2024-07-31,1,,,,,ウミガメ,0
250,1380001034693,新規,0,2024-07-31,2024-07-31,株式会社ステッペンＣＣ．エンジニアリング,,株式会社,福島県,福島市,郷野目字宝来町１２番地１ヴィラ宝来３０１号,,07,201,9608161,,,,,,,2024-07-31,1,,,,,ステッペンシーシーエンジニアリング,0
251,1380001034702,新規,0,2024-07-31,2024-07-31,株式会社みなと技建,,株式会社,福島県,相馬市,塚ノ町１丁目８番地４,,07,209,9760015,,,,,,,2024-07-31,1,,,,,ミナトギケン,0
268,1430001092372,新規,0,2024-07-31,2024-07-31,ＭＡＩＮ株式会社,,株式会社,北海道,札幌市中央区,南一条西１３丁目３１７番地２,,01,101,0600061,,,,,,,2024-07-31,1,,,,,マイン,0
269,1430003016627,新規,0,2024-07-31,2024-07-31,アメタ商店合同会社,,合同会社,北海道,苫小牧市,元町３丁目２番４,,01,213,0530804,,,,,,,2024-07-31,1,,,,,アメタショウテン,0
271,1460103001641,新規,0,2024-07-31,2024-07-31,合同会社ＧＲＡＣＥＦＩＯＲＥ,,合同会社,北海道,帯広市,西三条南９丁目２５番地,,01,207,0800013,,,,,,,2024-07-31,1,,,,,グレースフィオーレ,0
275,1480001012557,新規,0,2024-07-31,2024-07-31,株式会社ｍａｋａｎａ,,株式会社,徳島県,徳島市,北田宮２丁目１番５１号メゾン・ド・ハーレーＨ,,36,201,7700003,,,,,,,2024-07-31,1,,,,,マカナ,0
277,1490003001912,新規,0,2024-07-31,2024-07-31,ＮＥＭ合同会社,,合同会社,高知県,高知市,はりまや町１丁目７番５号ａｒｋビル５Ｆ,,39,201,7800822,,,,,,,2024-07-31,1,,,,,ネム,0
288,2010001247001,新規,0,2024-07-31,2024-07-31,株式会社ＳＰＡＲＫ　ＮＥＸＵＳ,,株式会社,東京都,中央区,日本橋茅場町３丁目１番８－１００２号,,13,102,1030025,,,,,,,2024-07-31,1,,,,,スパークネクサス,0
289,2010001247026,新規,0,2024-07-31,2024-07-31,株式会社Ａｃｔ,,株式会社,東京都,千代田区,神田錦町３丁目２２番地テラススクエア８階,,13,101,1010054,,,,,,,2024-07-31,1,,,,,アクト,0
290,2010001247034,新規,0,2024-07-31,2024-07-31,株式会社医療教育ラボ,,株式会社,東京都,千代田区,飯田橋２丁目１番５号,,13,101,1020072,,,,,,,2024-07-31,1,,,,,イリョウキョウイクラボ,0
291,2010001247083,新規,0,2024-07-31,2024-07-31,東四国バイオマス発電株式会社,,株式会社,東京都,千代田区,丸の内３丁目１番１号,,13,101,1000005,,,,,,,2024-07-31,1,,,,,ヒガシシコクバイオマスハツデン,0
292,2010003044470,新規,0,2024-07-31,2024-07-31,ＰＵＲＯＴＯＮ　ＥＮＴＥＲＴＡＩＮＭＥＮＴ合同会社,,合同会社,東京都,千代田区,神田須田町１丁目７番地８ＶＯＲＴ秋葉原ＩＶ２Ｆ,00135741,13,101,1010041,,,,,,,2024-07-31,1,,,,,プロトンエンターテインメント,0
299,2010401183820,新規,0,2024-07-31,2024-07-31,フォーステック株式会社,,株式会社,東京都,港区,元赤坂１丁目２番７号,,13,103,1070051,,,,,,,2024-07-31,1,,,,,フォーステック,0
300,2010401184042,新規,0,2024-07-31,2024-07-31,幹細胞バンク株式会社,,株式会社,東京都,港区,白金台４丁目３番１９号,,13,103,1080071,,,,,,,2024-07-31,1,,,,,カンサイボウバンク,0
314,2010603010995,新規,0,2024-07-31,2024-07-31,合同会社システムケア,,合同会社,東京都,墨田区,千歳２丁目９番１３－３０５号木下ダイヤモンドパレス,,13,107,1300025,,,,,,,2024-07-31,1,,,,,システムケア,0
317,2010703007280,新規,0,2024-07-31,2024-07-31,合同会社ＮＯＭＹ,,合同会社,東京都,品川区,東品川４丁目１２－９－１２０４,,13,109,1400002,,,,,,,2024-07-31,1,,,,,ノーマイ,0
320,2010801035274,新規,0,2024-07-31,2024-07-31,株式会社ボイ・アップ,,株式会社,東京都,大田区,羽田空港１丁目１番４号ＨＩＣｉｔｙＺｏｎｅＫ２０１号室,,13,111,1440041,,,,,,,2024-07-31,1,,,,,ボイアップ,0
324,2010903009250,新規,0,2024-07-31,2024-07-31,合同会社たねも商店,,合同会社,東京都,世田谷区,深沢２丁目３番４号駒沢公園シティハウス５０３,,13,112,1580081,,,,,,,2024-07-31,1,,,,,タネモショウテン,0
328,2011001163700,新規,0,2024-07-31,2024-07-31,株式会社三喜,,株式会社,東京都,渋谷区,富ヶ谷１丁目１４番１４号３階,,13,113,1510063,,,,,,,2024-07-31,1,,,,,サンキ,0
334,2011101108175,新規,0,2024-07-31,2024-07-31,株式会社ＡＩＣＯＲＥ,,株式会社,東京都,新宿区,西新宿３丁目３番１３号西新宿水間ビル６階,,13,104,1600023,,,,,,,2024-07-31,1,,,,,アイコア,0
336,2011201025675,新規,0,2024-07-31,2024-07-31,Ｊ＆Ｔテック株式会社,,株式会社,東京都,中野区,中野５丁目４６番５号,,13,114,1640001,,,,,,,2024-07-31,1,,,,,ジェイアンドティーテック,0
339,2011501030978,新規,0,2024-07-31,2024-07-31,株式会社ＨＯＴＥＬ　ＳＴＡＴＩＯＮ　ＧＲＯＵＰ,,株式会社,東京都,荒川区,東日暮里５丁目５番７号シーメゾン本社内,,13,118,1160014,,,,,,,2024-07-31,1,,,,,ホテルステーショングループ,0
347,2012401042130,新規,0,2024-07-31,2024-07-31,株式会社ミドルホース,,株式会社,東京都,調布市,富士見町１丁目５番地３２,,13,208,1820033,,,,,,,2024-07-31,1,,,,,ミドルホース,0
349,2012403006686,新規,0,2024-07-31,2024-07-31,人事労務計画合同会社,,合同会社,東京都,武蔵野市,西久保３丁目２番１号アルベルゴ武蔵野５０５,,13,203,1800013,,,,,,,2024-07-31,1,,,,,ジンジロウムケイカク,0
351,2012701018383,新規,0,2024-07-31,2024-07-31,株式会社琥珀,,株式会社,東京都,東久留米市,中央町６丁目７番１１号,,13,222,2030054,,,,,,,2024-07-31,1,,,,,コハク,0
352,2012801023366,新規,0,2024-07-31,2024-07-31,株式会社ベルポルト,,株式会社,東京都,立川市,富士見町２丁目１番９号,,13,202,1900013,,,,,,,2024-07-31,1,,,,,ベルポルト,0
354,2020001158271,新規,0,2024-07-31,2024-07-31,エヌアンドエイチカンパニー株式会社,,株式会社,神奈川県,川崎市宮前区,鷺沼４丁目１６番地１３クオス鷺沼ザブライトコート５０１,,14,136,2160004,,,,,,,2024-07-31,1,,,,,エヌアンドエイチカンパニー,0
358,2020003026550,新規,0,2024-07-31,2024-07-31,アルテス合同会社,,合同会社,神奈川県,横浜市南区,永田北２丁目２４番１８号,,14,105,2320071,,,,,,,2024-07-31,1,,,,,アルテス,0
359,2020003026575,新規,0,2024-07-31,2024-07-31,ウッドブレーン合同会社,,合同会社,神奈川県,横浜市港北区,樽町２丁目４番２５号ナイスアーバン綱島３、５０２号室,,14,109,2220001,,,,,,,2024-07-31,1,,,,,ウッドブレーン,0
362,2021001082833,新規,0,2024-07-31,2024-07-31,大住不動産株式会社,,株式会社,神奈川県,平塚市,明石町７番３号,,14,203,2540042,,,,,,,2024-07-31,1,,,,,オオスミフドウサン,0
363,2021001082841,新規,0,2024-07-31,2024-07-31,株式会社ＣＲＥＡ,,株式会社,神奈川県,大和市,南林間７丁目１番１８－２号,,14,213,2420006,,,,,,,2024-07-31,1,,,,,クレア,0
365,2021003014842,新規,0,2024-07-31,2024-07-31,ＣＥＮＴＵＲＹ　ＡＵＴＯ　ＴＲＡＤＩＮＧ合同会社,,合同会社,神奈川県,相模原市緑区,長竹字奈良８５番,,14,151,2520154,,,,,,,2024-07-31,1,,,,,センチュリーオートトレーディング,0
377,2050001055136,新規,0,2024-07-31,2024-07-31,株式会社キラリごかタウン,,株式会社,茨城県,猿島郡五霞町,大字冬木７３０番地１,,08,542,3060305,,,,,,,2024-07-31,1,,,,,キラリゴカタウン,0
378,2050001055160,新規,0,2024-07-31,2024-07-31,ＴＭ株式会社,,株式会社,茨城県,常総市,大生郷町４５３４番地１８,,08,211,3002521,,,,,,,2024-07-31,1,,,,,ティエム,0
384,2060001037348,新規,0,2024-07-31,2024-07-31,株式会社大橋ファーム,,株式会社,栃木県,下野市,川中子１５３３番地１,,09,216,3290415,,,,,,,2024-07-31,1,,,,,オオハシファーム,0
386,2070001042025,新規,0,2024-07-31,2024-07-31,株式会社薫ｃｏｍｐａｎｙ,,株式会社,群馬県,高崎市,藤塚町４２３番地１,,10,202,3700875,,,,,,,2024-07-31,1,,,,,カオルカンパニー,0
387,2070003005525,新規,0,2024-07-31,2024-07-31,ＴＭＩコンサル合同会社,,合同会社,群馬県,桐生市,堤町３丁目７番３５号,,10,203,3760042,,,,,,,2024-07-31,1,,,,,,0
390,2080003003263,新規,0,2024-07-31,2024-07-31,合同会社エヌエフシー,,合同会社,静岡県,静岡市葵区,長沼南１０番８号クレアーレＣ号,,22,101,4200814,,,,,,,2024-07-31,1,,,,,エヌエフシー,0
395,2080405007655,新規,0,2024-07-31,2024-07-31,ＮＰＯ法人ＲｅＦｒａｍｅ,,その他の設立登記法人,静岡県,浜松市中央区,田町２２８番地の５,,22,138,4300944,,,,,,,2024-07-31,1,,,,,リフレイム,0
401,2100005013200,新規,0,2024-07-31,2024-07-31,一般社団法人天空の農産品普及促進プロジェクト,,その他の設立登記法人,長野県,佐久市,前山６０７番地１,,20,217,3850046,,,,,,,2024-07-31,1,,,,,テンクウノノウサンヒンフキュウソクシンプロジェクト,0
414,2120001267104,新規,0,2024-07-31,2024-07-31,株式会社Ｄａｙｓ,,株式会社,大阪府,守口市,大久保町５丁目６２－１９・３番,,27,209,5700012,,,,,,,2024-07-31,1,,,,,デイズ,0
415,2120001267244,新規,0,2024-07-31,2024-07-31,株式会社ウィスティリア,,株式会社,大阪府,大阪市中央区,博労町４丁目２番１５号,,27,128,5410059,,,,,,,2024-07-31,1,,,,,ウィスティリア,0
416,2120001267285,新規,0,2024-07-31,2024-07-31,株式会社ＭＳ’ＣＲＥＡＴＥ,,株式会社,大阪府,守口市,寺方本通３丁目２－６,,27,209,5700048,,,,,,,2024-07-31,1,,,,,エムズクリエイト,0
421,2120003027035,新規,0,2024-07-31,2024-07-31,西林プランニング合同会社,,合同会社,大阪府,大阪市都島区,東野田町３丁目１番３号,,27,102,5340024,,,,,,,2024-07-31,1,,,,,ニシバヤシプランニング,0
423,2120901049485,新規,0,2024-07-31,2024-07-31,株式会社イグノタ,,株式会社,大阪府,茨木市,駅前２丁目１番２５－３０２号,,27,211,5670888,,,,,,,2024-07-31,1,,,,,イグノタ,0
424,2120901049551,新規,0,2024-07-31,2024-07-31,株式会社Ｂｅｓｉｄｅ,,株式会社,大阪府,茨木市,駅前２丁目１番２０号,,27,211,5670888,,,,,,,2024-07-31,1,,,,,ビサイド,0
425,2122003002950,新規,0,2024-07-31,2024-07-31,合同会社あど,,合同会社,大阪府,東大阪市,長田西２丁目７番１７－１００９号,,27,227,5770016,,,,,,,2024-07-31,1,,,,,アド,0
428,2130001077527,新規,0,2024-07-31,2024-07-31,株式会社ｃｏｔｏｎｅ,,株式会社,京都府,京都市左京区,吉田上阿達町１７番地,,26,103,6068307,,,,,,,2024-07-31,1,,,,,コトネ,0
429,2130001077568,新規,0,2024-07-31,2024-07-31,Ｗｏｒｌｄ　Ｏｎｅ　Ｂｅａｕｔｙ株式会社,,株式会社,京都府,京都市左京区,松ケ崎小竹藪町３番地３,,26,103,6060000,,,,,,,2024-07-31,1,,,,,ワールドワンビューティ,0
434,2140001135283,新規,0,2024-07-31,2024-07-31,株式会社享鷹,,株式会社,兵庫県,姫路市,御立中３丁目９番２７号,,28,201,6700073,,,,,,,2024-07-31,1,,,,,キョウタカ,0
436,2140003020905,新規,0,2024-07-31,2024-07-31,合同会社プラタナスシステム,,合同会社,兵庫県,西宮市,大畑町１０番２６－３０３号,,28,204,6620836,,,,,,,2024-07-31,1,,,,,プラタナスシステム,0
438,2140005027171,新規,0,2024-07-31,2024-07-31,一般社団法人よつば,,その他の設立登記法人,兵庫県,西脇市,明楽寺町９９２番地の１,,28,213,6770067,,,,,,,2024-07-31,1,,,,,ヨツバ,0
439,2150001027455,新規,0,2024-07-31,2024-07-31,株式会社鶴不動産,,株式会社,奈良県,奈良市,神殿町１９６番地の４,,29,201,6308441,,,,,,,2024-07-31,1,,,,,ツルフドウサン,0
440,2150001027463,新規,0,2024-07-31,2024-07-31,ＥＥＬ株式会社,,株式会社,奈良県,奈良市,青山８丁目２２番地,,29,201,6308101,,,,,,,2024-07-31,1,,,,,イール,0
441,2150005009615,新規,0,2024-07-31,2024-07-31,一般社団法人書道教育普及協会,,その他の設立登記法人,奈良県,生駒市,西白庭台１丁目２５番地１２,,29,209,6300137,,,,,,,2024-07-31,1,,,,,ショドウキョウイクフキュウキョウカイ,0
442,2160001026118,新規,0,2024-07-31,2024-07-31,株式会社いぶきハーブ・ガーデン,,株式会社,滋賀県,米原市,上板並１７５９番地１,,25,214,5210305,,,,,,,2024-07-31,1,,,,,イブキハーブガーデン,0
443,2160001026126,新規,0,2024-07-31,2024-07-31,株式会社Ｐｒｉｎｃｉｐｌｅ,,株式会社,滋賀県,守山市,二町町１９５番地４,,25,207,5240043,,,,,,,2024-07-31,1,,,,,プリンシプル,0
448,2180001162506,新規,0,2024-07-31,2024-07-31,株式会社４Ｐｌａｙ,,株式会社,愛知県,名古屋市昭和区,五軒家町２１番地,,23,107,4660838,,,,,,,2024-07-31,1,,,,,フォープレイ,0
449,2180001162522,新規,0,2024-07-31,2024-07-31,サニーテック株式会社,,株式会社,愛知県,あま市,下萱津五反田４０番地,,23,237,4901114,,,,,,,2024-07-31,1,,,,,サニーテック,0
450,2180001162539,新規,0,2024-07-31,2024-07-31,株式会社レイアップ,,株式会社,愛知県,知多郡阿久比町,宮津３丁目７１番地,,23,441,4702204,,,,,,,2024-07-31,1,,,,,レイアップ,0
451,2180001162547,新規,0,2024-07-31,2024-07-31,株式会社Ｐｉｃｋ　Ｖｉｌｌａｇｅ,,株式会社,愛知県,名古屋市中村区,名楽町１丁目１４番地,,23,105,4530024,,,,,,,2024-07-31,1,,,,,ピックビレッジ,0
452,2180001162638,新規,0,2024-07-31,2024-07-31,株式会社ユート,,株式会社,愛知県,東海市,富木島町東山３２番地の２,,23,222,4760011,,,,,,,2024-07-31,1,,,,,ユート,0
453,2180002000739,新規,0,2024-07-31,2024-07-31,東雲産業有限会社,,有限会社,愛知県,名古屋市守山区,天子田３丁目４１０番地,,23,113,4630037,,,,,,,2024-07-31,1,,,,,シノノメサンギョウ,0
456,2180003027120,新規,0,2024-07-31,2024-07-31,合同会社都南,,合同会社,愛知県,名古屋市昭和区,川名本町１丁目４７番地２レイナビル２Ｅ,,23,107,4660855,,,,,,,2024-07-31,1,,,,,トナン,0
459,2180301038901,新規,0,2024-07-31,2024-07-31,矢沢建設株式会社,,株式会社,愛知県,豊田市,西中山町稲場１１５－１１,,23,211,4700431,,,,,,,2024-07-31,1,,,,,ヤザワケンセツ,0
465,2190001031528,新規,0,2024-07-31,2024-07-31,株式会社三輝電工,,株式会社,三重県,津市,戸木町３５６６番地３,,24,201,5141138,,,,,,,2024-07-31,1,,,,,サンキデンコウ,0
471,2210001019850,新規,0,2024-07-31,2024-07-31,福福堂株式会社,,株式会社,福井県,福井市,若杉３丁目１７２３番地,,18,201,9188055,,,,,,,2024-07-31,1,,,,,フクフクドウ,0
473,2230001020468,新規,0,2024-07-31,2024-07-31,株式会社うさぎより亀,,株式会社,富山県,射水市,下若７５番地１,,16,211,9390243,,,,,,,2024-07-31,1,,,,,ウサギヨリカメ,0
475,2240001063615,新規,0,2024-07-31,2024-07-31,株式会社五黄グループ,,株式会社,広島県,広島市中区,宝町４番２１－２０１号,,34,101,7300044,,,,,,,2024-07-31,1,,,,,ゴオウグループ,0
476,2240001063623,新規,0,2024-07-31,2024-07-31,リガコネクト株式会社,,株式会社,広島県,広島市東区,矢賀新町５丁目９番１４号,,34,102,7320044,,,,,,,2024-07-31,1,,,,,リガコネクト,0
480,2240003006786,新規,0,2024-07-31,2024-07-31,合同会社ネクロゴンド,,合同会社,広島県,廿日市市,地御前１丁目７番１０－５０４号,,34,213,7380042,,,,,,,2024-07-31,1,,,,,ネクロゴンド,0
481,2240005015802,新規,0,2024-07-31,2024-07-31,一般社団法人Ｌａｎａ‐Ｏｈａｎａ,,その他の設立登記法人,広島県,広島市西区,楠木町３丁目１６番１８－２号,,34,104,7330002,,,,,,,2024-07-31,1,,,,,ラナオハナ,0
485,2250001020747,新規,0,2024-07-31,2024-07-31,株式会社新輝,,株式会社,山口県,岩国市,室の木町２丁目９番７－１号,,35,208,7400021,,,,,,,2024-07-31,1,,,,,シンキ,0
487,2260001039308,新規,0,2024-07-31,2024-07-31,株式会社ｉ．,,株式会社,岡山県,岡山市北区,津高８３５番地１０,,33,101,7011152,,,,,,,2024-07-31,1,,,,,アイドット,0
488,2260001039316,新規,0,2024-07-31,2024-07-31,サステナブルＣＫ株式会社,,株式会社,岡山県,岡山市南区,豊成２丁目７番３６号,,33,104,7000942,,,,,,,2024-07-31,1,,,,,サステナブルシーケイ,0
489,2260001039332,新規,0,2024-07-31,2024-07-31,株式会社ＧＲＡＣＥ,,株式会社,岡山県,岡山市北区,今村６５１番地１１３,,33,101,7000974,,,,,,,2024-07-31,1,,,,,グラース,0
491,2260003004838,新規,0,2024-07-31,2024-07-31,合同会社プレシャスリンク,,合同会社,岡山県,倉敷市,水江１５５３－７,,33,202,7100802,,,,,,,2024-07-31,1,,,,,プレシャスリンク,0
497,2290001106575,新規,0,2024-07-31,2024-07-31,株式会社ＮＡＣ,,株式会社,福岡県,福岡市博多区,博多駅南３丁目２番３号,,40,132,8120016,,,,,,,2024-07-31,1,,,,,ナック,0
498,2290001106708,新規,0,2024-07-31,2024-07-31,株式会社Ｆｒｅｅｌｙ　Ａｇｅｎｔ,,株式会社,福岡県,福岡市中央区,薬院１丁目７番１号角屋ビル２０６号,,40,133,8100022,,,,,,,2024-07-31,1,,,,,フリーリーエージェント,0
502,2290801030727,新規,0,2024-07-31,2024-07-31,株式会社ＰＥＧ　ＣＲＥＡＴＩＯＮＳ,,株式会社,福岡県,中間市,長津１丁目１９番１号Ａ－３,,40,215,8090036,,,,,,,2024-07-31,1,,,,,ペグクリエイション,0
503,2290801030735,新規,0,2024-07-31,2024-07-31,株式会社ＳＨＯＷＳＡＹ,,株式会社,福岡県,北九州市若松区,迫田町２番１０８号,,40,103,8080041,,,,,,,2024-07-31,1,,,,,ショウセイ,0
504,2290801030743,新規,0,2024-07-31,2024-07-31,株式会社ときめき,,株式会社,福岡県,北九州市小倉南区,湯川新町４丁目１番１９－１０６号,,40,107,8000256,,,,,,,2024-07-31,1,,,,,トキメキ,0
507,2290803004794,新規,0,2024-07-31,2024-07-31,合同会社ｅｌｅｖｅｎ,,合同会社,福岡県,北九州市八幡西区,折尾４丁目７番２３号ＯＲＩＯセンタービル３Ｆ,,40,109,8070825,,,,,,,2024-07-31,1,,,,,イレブン,0
512,2320003004435,新規,0,2024-07-31,2024-07-31,合同会社アンジュ,,合同会社,大分県,国東市,国東町小原９９３番地１,,44,214,8730511,,,,,,,2024-07-31,1,,,,,アンジュ,0
513,2330003010498,新規,0,2024-07-31,2024-07-31,合同会社Ｐ＆Ｉ,,合同会社,熊本県,熊本市中央区,平成１丁目１番１７号３０２,,43,101,8600833,,,,,,,2024-07-31,1,,,,,ピーアンドアイ,0
521,2360001033993,新規,0,2024-07-31,2024-07-31,株式会社プロジェクト８,,株式会社,沖縄県,那覇市,首里金城町４丁目７番地３,,47,201,9030815,,,,,,,2024-07-31,1,,,,,プロジェクトエイト,0
522,2360001034001,新規,0,2024-07-31,2024-07-31,株式会社ＦＬＩＣＫ　ＴＯＮＥ,,株式会社,沖縄県,沖縄市,仲宗根町３５番８号２Ｆ,,47,211,9040014,,,,,,,2024-07-31,1,,,,,フリックトーン,0
523,2360003014174,新規,0,2024-07-31,2024-07-31,合同会社琉球都市開発,,合同会社,沖縄県,那覇市,前島３丁目２５番２号泊ポート　ビル１Ｆ,,47,201,9000016,,,,,,,2024-07-31,1,,,,,リュウキュウトシカイハツ,0
524,2360003014190,新規,0,2024-07-31,2024-07-31,合同会社ＦＲＥＥ　ＯＮＥ,,合同会社,沖縄県,宮古島市,平良字東仲宗根９９,,47,214,9060007,,,,,,,2024-07-31,1,,,,,フリーワン,0
533,2430001092347,新規,0,2024-07-31,2024-07-31,ＵＢＷｏｒｋｓ株式会社,,株式会社,北海道,札幌市白石区,菊水五条１丁目３番１０－７０５号,,01,104,0030805,,,,,,,2024-07-31,1,,,,,ユービーワークス,0
534,2430001092363,新規,0,2024-07-31,2024-07-31,株式会社ヒルズライフサポート,,株式会社,北海道,札幌市中央区,南三条西４丁目２０番地東昌ビル,,01,101,0600063,,,,,,,2024-07-31,1,,,,,ヒルズライフサポート,0
536,2430003016626,新規,0,2024-07-31,2024-07-31,合同会社ＣＨＩＢＡＹＵＫＩ,,合同会社,北海道,札幌市白石区,北郷三条２丁目４番２９号,,01,104,0030833,,,,,,,2024-07-31,1,,,,,チバユキ,0
537,2430003016634,新規,0,2024-07-31,2024-07-31,合同会社ティアラ,,合同会社,北海道,札幌市白石区,栄通３丁目１番１号,,01,104,0030021,,,,,,,2024-07-31,1,,,,,ティアラ,0
539,2450001014373,新規,0,2024-07-31,2024-07-31,株式会社Ｎｏｒｔｈｅｒｎ　ｌｉｇｈｔｓ　ｋａｍｕｉ,,株式会社,北海道,旭川市,神居二条８丁目１番１０号ミカミビル第一１０２,,01,204,0708012,,,,,,,2024-07-31,1,,,,,ノーザンライツカムイ,0
542,2460103001640,新規,0,2024-07-31,2024-07-31,合同会社マミーハイツ,,合同会社,北海道,中川郡幕別町,字相川７９１番地,,01,643,0890621,,,,,,,2024-07-31,1,,,,,マミーハイツ,0
543,2462501001008,新規,0,2024-07-31,2024-07-31,株式会社園部設備,,株式会社,北海道,標津郡中標津町,東三十七条北４丁目２番地２,,01,692,0861077,,,,,,,2024-07-31,1,,,,,ソノベセツビ,0
544,2470001020320,新規,0,2024-07-31,2024-07-31,マナベ精機株式会社,,株式会社,香川県,観音寺市,大野原町大野原４６３４番地２,,37,205,7691611,,,,,,,2024-07-31,1,,,,,マナベセイキ,0
546,2480001012556,新規,0,2024-07-31,2024-07-31,株式会社阿讃エンブリオテック,,株式会社,徳島県,阿波市,阿波町桜ノ岡１０４番地２,,36,206,7711705,,,,,,,2024-07-31,1,,,,,アサンエンブリオテック,0
550,2500005008721,新規,0,2024-07-31,2024-07-31,一般社団法人はた楽の杜,,その他の設立登記法人,愛媛県,松山市,和泉北２丁目６番１号,,38,201,7900038,,,,,,,2024-07-31,1,,,,,ハタラクノモリ,0
556,3010001246968,新規,0,2024-07-31,2024-07-31,株式会社ＭＫ企画,,株式会社,東京都,中央区,銀座６丁目１３番１６号銀座ＷａｌｌビルＵＣＦ５０１,,13,102,1040061,,,,,,,2024-07-31,1,,,,,エムケーキカク,0
557,3010001247082,新規,0,2024-07-31,2024-07-31,琉球バイオマス発電株式会社,,株式会社,東京都,千代田区,丸の内３丁目１番１号,,13,101,1000005,,,,,,,2024-07-31,1,,,,,リュウキュウバイオマスハツデン,0
558,3010101016255,新規,0,2024-07-31,2024-07-31,株式会社Ｒｉｄｇｅ　Ｈｉｌｌ,,株式会社,東京都,八王子市,元本郷町２丁目９番９号２,,13,201,1920051,,,,,,,2024-07-31,1,,,,,リッジヒル,0
560,3010105002284,新規,0,2024-07-31,2024-07-31,一般社団法人支援事業協会,,その他の設立登記法人,東京都,八王子市,みつい台２丁目４６番２号,,13,201,1920014,,,,,,,2024-07-31,1,,,,,シエンジギョウキョウカイ,0
570,3010403033163,新規,0,2024-07-31,2024-07-31,合同会社Ａｌｆａ　Ａｓｓｅｔ,,合同会社,東京都,港区,南青山２丁目２番１５号,,13,103,1070062,,,,,,,2024-07-31,1,,,,,アルファアセット,0
572,3010501052701,新規,0,2024-07-31,2024-07-31,株式会社ＣＥＲＮＵＳＣＯ,,株式会社,東京都,台東区,寿３丁目２番３号,,13,106,1110042,,,,,,,2024-07-31,1,,,,,チェルヌスコ,0
573,3010601065660,新規,0,2024-07-31,2024-07-31,株式会社ＮＡＤＵＭＩＣＯ,,株式会社,東京都,江東区,古石場２丁目１０番５号プロス古石場２０１,,13,108,1350045,,,,,,,2024-07-31,1,,,,,ナヅミコ,0
575,3010603010994,新規,0,2024-07-31,2024-07-31,４ｓｅａｓｏｎｓ合同会社,,合同会社,東京都,江東区,新砂３丁目４番４３－３３２号,,13,108,1360075,,,,,,,2024-07-31,1,,,,,フォーシーズンズ,0
580,3010801035273,新規,0,2024-07-31,2024-07-31,心斗輝株式会社,,株式会社,東京都,大田区,西蒲田１丁目１２番１２号,,13,111,1440051,,,,,,,2024-07-31,1,,,,,ココトキ,0
583,3011001163699,新規,0,2024-07-31,2024-07-31,株式会社ＴｅｃｈＳｈｉｖ,,株式会社,東京都,目黒区,青葉台３丁目１－１－４０８,,13,110,1530042,,,,,,,2024-07-31,1,,,,,テクシブ,0
584,3011001163724,新規,0,2024-07-31,2024-07-31,ＣｏｎｎｅｃｔＥＸ株式会社,,株式会社,東京都,渋谷区,富ヶ谷２丁目６番１号メゾンクレール５０３,,13,113,1510063,,,,,,,2024-07-31,1,,,,,コネクトエクス,0
592,3011101108232,新規,0,2024-07-31,2024-07-31,英潔商務諮詢株式会社,,株式会社,東京都,新宿区,東五軒町１番９号ＳＢＳ・Ｂ－８,,13,104,1620813,,,,,,,2024-07-31,1,,,,,エイケツショウムシジュン,0
593,3011103014718,新規,0,2024-07-31,2024-07-31,Ｔｒｉｏｚ合同会社,,合同会社,東京都,新宿区,榎町３４－３榎町ビル７階－０９室,,13,104,1620806,,,,,,,2024-07-31,1,,,,,トリオズ,0
594,3011201025674,新規,0,2024-07-31,2024-07-31,株式会社インカムリード,,株式会社,東京都,中野区,白鷺１丁目１番９号,,13,114,1650035,,,,,,,2024-07-31,1,,,,,インカムリード,0
596,3011303005244,新規,0,2024-07-31,2024-07-31,フォーマルハウト合同会社,,合同会社,東京都,杉並区,井草２丁目１８番１５号,,13,115,1670021,,,,,,,2024-07-31,1,,,,,フォーマルハウト,0
599,3011501030985,新規,0,2024-07-31,2024-07-31,株式会社ツルプルン,,株式会社,東京都,北区,昭和町１丁目２番７－３０３号ルピナス昭和町,,13,117,1140011,,,,,,,2024-07-31,1,,,,,ツルプルン,0
600,3011501030993,新規,0,2024-07-31,2024-07-31,ＪｕＳＥＡ株式会社,,株式会社,東京都,荒川区,荒川１丁目７－４,,13,118,1160002,,,,,,,2024-07-31,1,,,,,ジューセー,0
603,3011601027931,新規,0,2024-07-31,2024-07-31,平山株式会社,,株式会社,東京都,練馬区,北町８丁目１２－１６ボヌール・マ・メゾンＢ１－Ｅ号室,,13,120,1790081,,,,,,,2024-07-31,1,,,,,ヒラヤマ,0
605,3011603004400,新規,0,2024-07-31,2024-07-31,ａｎｄ　Ｌｅａｐｓ合同会社,,合同会社,東京都,練馬区,南田中１丁目１３－４７,,13,120,1770035,,,,,,,2024-07-31,1,,,,,アンドリープス,0
607,3011701027484,新規,0,2024-07-31,2024-07-31,盛世国際旅程株式会社,,株式会社,東京都,江戸川区,江戸川６丁目４０－１４－１２９,,13,123,1340013,,,,,,,2024-07-31,1,,,,,セイセイコクサイリョテイ,0
612,3012301014014,新規,0,2024-07-31,2024-07-31,株式会社ＣＯＮＴＥＣ,,株式会社,東京都,町田市,森野４丁目１４番２号,,13,209,1940022,,,,,,,2024-07-31,1,,,,,コンテック,0
614,3012401042138,新規,0,2024-07-31,2024-07-31,株式会社ＳＴガラス,,株式会社,東京都,調布市,深大寺南町１丁目７番地８,,13,208,1820013,,,,,,,2024-07-31,1,,,,,エスティーガラス,0
615,3012403006685,新規,0,2024-07-31,2024-07-31,合同会社ＡＩＫＡ,,合同会社,東京都,調布市,柴崎２丁目４番地１－１１０６号,,13,208,1820014,,,,,,,2024-07-31,1,,,,,アイカ,0
616,3013301052912,新規,0,2024-07-31,2024-07-31,株式会社Ｕ‐Ｏｎｅ,,株式会社,東京都,豊島区,南池袋１丁目２１番５号第７野萩ビルＢ１階,,13,116,1710022,,,,,,,2024-07-31,1,,,,,ウワン,0
617,3013301052920,新規,0,2024-07-31,2024-07-31,株式会社ＡＵ　ＢＲＡＮＤＺ　ＪＡＰＡＮ,,株式会社,東京都,豊島区,東池袋５丁目７番３号アゼリア東池袋４０１,,13,116,1700013,,,,,,,2024-07-31,1,,,,,エーユーブランズジャパン,0
632,3021001082824,新規,0,2024-07-31,2024-07-31,株式会社季音ホスピタリティグループ,,株式会社,神奈川県,鎌倉市,笛田４丁目２３－３８,,14,204,2480027,,,,,,,2024-07-31,1,,,,,キノンホスピタリティグループ,0
633,3021001082832,新規,0,2024-07-31,2024-07-31,株式会社ＰＬＵＭ,,株式会社,神奈川県,大和市,桜森２丁目２３番１２号,,14,213,2420028,,,,,,,2024-07-31,1,,,,,プラム,0
634,3021001082849,新規,0,2024-07-31,2024-07-31,株式会社モイスティーヌ大船ソレイユ,,株式会社,神奈川県,鎌倉市,梶原３丁目２７番４号,,14,204,2470063,,,,,,,2024-07-31,1,,,,,モイスティーヌオオフナソレイユ,0
635,3021001082865,新規,0,2024-07-31,2024-07-31,ブルーフエンジニアリング株式会社,,株式会社,神奈川県,平塚市,めぐみが丘２丁目１５番１７号,,14,203,2591220,,,,,,,2024-07-31,1,,,,,ブルーフエンジニアリング,0
637,3021003014833,新規,0,2024-07-31,2024-07-31,合同会社ＨＣＣ,,合同会社,神奈川県,相模原市南区,相南１丁目２４番４－１０３号,,14,153,2520312,,,,,,,2024-07-31,1,,,,,エイチシーシー,0
643,3030001161686,新規,0,2024-07-31,2024-07-31,株式会社ＯＲＩＳ,,株式会社,埼玉県,桶川市,上日出谷南１丁目４６番地の１５,,11,231,3630020,,,,,,,2024-07-31,1,,,,,オリス,0
644,3030001161694,新規,0,2024-07-31,2024-07-31,株式会社Ｉ・Ｍ・Ｈ,,株式会社,埼玉県,越谷市,大字袋山１０８番地１３,,11,222,3430032,,,,,,,2024-07-31,1,,,,,アイエムエイチ,0
654,3050001055151,新規,0,2024-07-31,2024-07-31,株式会社京通商事,,株式会社,茨城県,古河市,釈迦１９９１番地エスポアールイナバ１１５室,,08,204,3060222,,,,,,,2024-07-31,1,,,,,ケイツウショウジ,0
660,3070001042032,新規,0,2024-07-31,2024-07-31,株式会社ＨＲｅｉｇｈｔ,,株式会社,群馬県,高崎市,大橋町１９６番地３,,10,202,3700803,,,,,,,2024-07-31,1,,,,,エイチアールエイト,0
665,3080101024929,新規,0,2024-07-31,2024-07-31,株式会社つながる,,株式会社,静岡県,富士市,岩本５３７番地の４２,,22,210,4160901,,,,,,,2024-07-31,1,,,,,ツナガル,0
669,3080405007654,新規,0,2024-07-31,2024-07-31,一般社団法人日本塩ソムリエ協会,,その他の設立登記法人,静岡県,浜松市天竜区,山東４２９５番地の１,,22,140,4313303,,,,,,,2024-07-31,1,,,,,ニホンシオソムリエキョウカイ,0
675,3110005017117,新規,0,2024-07-31,2024-07-31,特定非営利活動法人長岡健康麻雀さくらフェニックス,,その他の設立登記法人,新潟県,長岡市,弓町２丁目１番６号,,15,202,9400047,,,,,,,2024-07-31,1,,,,,ナガオカケンコウマージャンサクラフェニックス,0
683,3120001267111,新規,0,2024-07-31,2024-07-31,卓尓株式会社,00135740,株式会社,大阪府,大阪市城東区,野江３丁目２７番７号,,27,118,5360006,,,,,,,2024-07-31,1,,,,,タクジ,0
684,3120001267235,新規,0,2024-07-31,2024-07-31,株式会社布袋,,株式会社,大阪府,大阪市中央区,南船場２丁目４番８号,,27,128,5420081,,,,,,,2024-07-31,1,,,,,ホテイ,0
685,3120001267276,新規,0,2024-07-31,2024-07-31,株式会社香里,,株式会社,大阪府,寝屋川市,香里新町２０番１３号,,27,215,5720085,,,,,,,2024-07-31,1,,,,,コウリ,0
686,3120001267284,新規,0,2024-07-31,2024-07-31,株式会社Ｐｅｒｆｅｃｔ　Ｐａｒｔｎｅｒ,,株式会社,大阪府,大阪市北区,池田町１６番６－６１２号,,27,127,5300033,,,,,,,2024-07-31,1,,,,,パーフェクトパートナー,0
687,3120001267292,新規,0,2024-07-31,2024-07-31,株式会社三女神,,株式会社,大阪府,大阪市北区,大淀中３丁目１１番２５－１２０５号,,27,127,5310076,,,,,,,2024-07-31,1,,,,,サンジョシン,0
688,3120001267375,新規,0,2024-07-31,2024-07-31,株式会社あいＭＡＸ,,株式会社,大阪府,大阪市東淀川区,豊里１丁目７番１５号豊里松茂マンション１階奥号室,,27,114,5330013,,,,,,,2024-07-31,1,,,,,アイマックス,0
689,3120001267383,新規,0,2024-07-31,2024-07-31,株式会社ＴＵＲＮ　Ｔｅｃｈｎｏｌｏｇｙ,,株式会社,大阪府,大阪市東成区,東中本３丁目８番１０号,,27,115,5370021,,,,,,,2024-07-31,1,,,,,ターンテクノロジー,0
692,3120003027158,新規,0,2024-07-31,2024-07-31,Ｇｒｅｅｎ　Ｒｏｃｋ　Ｆｏｒｅｓｔｒｙ合同会社,,合同会社,大阪府,大阪市福島区,福島１丁目２番４号,,27,103,5530003,,,,,,,2024-07-31,1,,,,,グリーンロックフォレストリー,0
693,3120003027166,新規,0,2024-07-31,2024-07-31,ＦＢ　ｗｏｒｋｓ合同会社,,合同会社,大阪府,大阪市中央区,谷町５丁目７番９－６０２号,,27,128,5400012,,,,,,,2024-07-31,1,,,,,エフビーワークス,0
695,3120005024459,新規,0,2024-07-31,2024-07-31,レイコーポレートパートナーズ税理士法人,,その他の設立登記法人,大阪府,大阪市西淀川区,御幣島２丁目１６番４－３０１号,,27,113,5550012,,,,,,,2024-07-31,1,,,,,レイコーポレートパートナーズ,0
698,3120101070051,新規,0,2024-07-31,2024-07-31,株式会社ＩＣＩＫＡ,,株式会社,大阪府,堺市堺区,竜神橋町２丁３番１号ステュディオ堺フェニックス９０２号,,27,141,5900972,,,,,,,2024-07-31,1,,,,,アイシカ,0
699,3120101070084,新規,0,2024-07-31,2024-07-31,株式会社未来,,株式会社,大阪府,松原市,田井城２丁目２番２号１１Ｆ,,27,217,5800044,,,,,,,2024-07-31,1,,,,,ミライ,0
708,3140001135167,新規,0,2024-07-31,2024-07-31,株式会社通天,,株式会社,兵庫県,たつの市,揖保川町山津屋１１２番地１バン・プロピスＩ、１Ｃ,,28,229,6711631,,,,,,,2024-07-31,1,,,,,ツウテン,0
709,3140001135241,新規,0,2024-07-31,2024-07-31,オーエムビジネス株式会社,,株式会社,兵庫県,豊岡市,泉町６番２５号,,28,209,6680021,,,,,,,2024-07-31,1,,,,,オーエムビジネス,0
710,3140001135282,新規,0,2024-07-31,2024-07-31,株式会社柿原建設,,株式会社,兵庫県,丹波市,春日町中山９１４番地１市営住宅中山団地３０３号,,28,223,6694265,,,,,,,2024-07-31,1,,,,,カキハラケンセツ,0
711,3140001135340,新規,0,2024-07-31,2024-07-31,株式会社ＮＡＧＡＮＯ　ＡＳＳＥＴ　ＭＡＮＡＧＥＭＥＮＴ,,株式会社,兵庫県,神戸市長田区,苅藻通５丁目３番９号,,28,106,6530032,,,,,,,2024-07-31,1,,,,,ナガノアセットマネジメント,0
712,3140001135349,新規,0,2024-07-31,2024-07-31,株式会社大志工業,,株式会社,兵庫県,姫路市,大津区長松３０５番地２９,,28,201,6711144,,,,,,,2024-07-31,1,,,,,タイシコウギョウ,0
713,3140003020904,新規,0,2024-07-31,2024-07-31,合同会社まつり,,合同会社,兵庫県,揖保郡太子町,糸井５１３番地２,,28,464,6711532,,,,,,,2024-07-31,1,,,,,マツリ,0
716,3160003003254,新規,0,2024-07-31,2024-07-31,合同会社楽湖,,合同会社,滋賀県,彦根市,高宮町２０７３番地２,,25,202,5220201,,,,,,,2024-07-31,1,,,,,,0
717,3170001018237,新規,0,2024-07-31,2024-07-31,株式会社池田鉄工所,,株式会社,和歌山県,有田郡有田川町,大字下津野５７０番地１,,30,366,6430021,,,,,,,2024-07-31,1,,,,,イケダテッコウショ,0
723,3180001162414,新規,0,2024-07-31,2024-07-31,株式会社ＭＫＨＤ,,株式会社,愛知県,名古屋市熱田区,千年２丁目１６０２番地,,23,109,4560054,,,,,,,2024-07-31,1,,,,,エムケイエイチディー,0
724,3180001162521,新規,0,2024-07-31,2024-07-31,株式会社誠華,,株式会社,愛知県,名古屋市北区,長田町１丁目１３番地４ファースト尼ヶ坂１０２号,,23,103,4620834,,,,,,,2024-07-31,1,,,,,セイカ,0
725,3180001162570,新規,0,2024-07-31,2024-07-31,株式会社万年青,,株式会社,愛知県,名古屋市西区,稲生町５丁目６加藤コーポ１０２,,23,104,4510012,,,,,,,2024-07-31,1,,,,,オモト,0
728,3180003027152,新規,0,2024-07-31,2024-07-31,合同会社ＥＮＺＩＮ,,合同会社,愛知県,名古屋市東区,泉２丁目７－１３ライジング泉Ｈ・Ｍビル７０２,,23,102,4610001,,,,,,,2024-07-31,1,,,,,エンジン,0
733,3190001031502,新規,0,2024-07-31,2024-07-31,川喜田テクノ株式会社,,株式会社,三重県,四日市市,富士町２６３５番地１,,24,202,5100013,,,,,,,2024-07-31,1,,,,,カワキタテクノ,0
734,3190001031519,新規,0,2024-07-31,2024-07-31,株式会社美水,,株式会社,三重県,桑名市,赤尾台２丁目１３番地４,,24,205,5110935,,,,,,,2024-07-31,1,,,,,ビスイ,0
741,3230001020467,新規,0,2024-07-31,2024-07-31,株式会社北岡,,株式会社,富山県,富山市,西長江４丁目２番１０号,,16,201,9300975,,,,,,,2024-07-31,1,,,,,キタオカ,0
746,3240001063589,新規,0,2024-07-31,2024-07-31,株式会社プロステージＳＴＭ,,株式会社,広島県,福山市,大門町１丁目３９番２８号,,34,207,7210926,,,,,,,2024-07-31,1,,,,,プロステージエスティエム,0
747,3240001063597,新規,0,2024-07-31,2024-07-31,株式会社ＰＡＳＩ,,株式会社,広島県,尾道市,御調町中原４１８番地２,,34,205,7220325,,,,,,,2024-07-31,1,,,,,パシィ,0
748,3240001063606,新規,0,2024-07-31,2024-07-31,株式会社竹原商店,,株式会社,広島県,広島市安佐南区,沼田町大字阿戸２８７２番地,,34,105,7313271,,,,,,,2024-07-31,1,,,,,タケハラショウテン,0
749,3240001063614,新規,0,2024-07-31,2024-07-31,株式会社ｆｅｒｍｔｅｃｈ,,株式会社,広島県,広島市南区,京橋町１－７アスティ広島京橋ビルディング,,34,103,7320828,,,,,,,2024-07-31,1,,,,,ファームテック,0
751,3240003006785,新規,0,2024-07-31,2024-07-31,合同会社３ｒｄ　ｐｌａｃｅ,,合同会社,広島県,広島市南区,出汐３丁目９番１７号,,34,103,7340001,,,,,,,2024-07-31,1,,,,,サードプレイス,0
754,3260001039298,新規,0,2024-07-31,2024-07-31,松原企業株式会社,,株式会社,岡山県,総社市,中原８５４番地９,,33,208,7191133,,,,,,,2024-07-31,1,,,,,ショウゲンキギョウ,0
755,3260001039315,新規,0,2024-07-31,2024-07-31,株式会社ＫＯ‐ＵＮ,,株式会社,岡山県,倉敷市,白楽町２９４番地,,33,202,7100824,,,,,,,2024-07-31,1,,,,,コーウン,0
756,3260001039331,新規,0,2024-07-31,2024-07-31,株式会社浜田青果,,株式会社,岡山県,岡山市北区,平田１２８－１２６,,33,101,7000952,,,,,,,2024-07-31,1,,,,,ハマダセイカ,0
759,3270003001651,新規,0,2024-07-31,2024-07-31,ｌｏｋｉ合同会社,,合同会社,鳥取県,米子市,四日市町８６ＳＫＹビル３階,,31,202,6830061,,,,,,,2024-07-31,1,,,,,ロキ,0
760,3280001009225,新規,0,2024-07-31,2024-07-31,株式会社ｉｚｕｍｏトレーニングセンター,,株式会社,島根県,出雲市,国富町８３８番地２,,32,203,6910011,,,,,,,2024-07-31,1,,,,,イズモトレーニングセンター,0
764,3290001106517,新規,0,2024-07-31,2024-07-31,株式会社優ハウス,,株式会社,福岡県,福岡市南区,寺塚２丁目２７番２号,,40,134,8150074,,,,,,,2024-07-31,1,,,,,ユウハウス,0
766,3290003015567,新規,0,2024-07-31,2024-07-31,合同会社ＴＥＮＹＡＳＨＡ,,合同会社,福岡県,飯塚市,小正２９番地１,,40,205,8200089,,,,,,,2024-07-31,1,,,,,テンヤシャ,0
767,3290003015583,新規,0,2024-07-31,2024-07-31,合同会社田村会計,,合同会社,福岡県,福岡市中央区,赤坂３丁目４番２２－１３０８号,,40,133,8100042,,,,,,,2024-07-31,1,,,,,タムラカイケイ,0
768,3290005019467,新規,0,2024-07-31,2024-07-31,一般社団法人地域笑舎やめ,,その他の設立登記法人,福岡県,八女市,本町１番地２８１の４,,40,210,8340031,,,,,,,2024-07-31,1,,,,,チイキショウシャヤメ,0
770,3290801030734,新規,0,2024-07-31,2024-07-31,株式会社Ｒ．ｂｒｏｗ,,株式会社,福岡県,北九州市小倉南区,北方２丁目３番１３号２Ｆ,,40,107,8020841,,,,,,,2024-07-31,1,,,,,アールブロウ,0
771,3290801030742,新規,0,2024-07-31,2024-07-31,株式会社トライサークルズ,,株式会社,福岡県,北九州市小倉北区,上富野１丁目４番１号,,40,106,8020022,,,,,,,2024-07-31,1,,,,,トライサークルズ,0
773,3290803004793,新規,0,2024-07-31,2024-07-31,合同会社Ｎｕｍｂｅｒ　Ｆｉｖｅ,,合同会社,福岡県,北九州市八幡西区,折尾４丁目７番２３号ＯＲＩＯセンタービル３Ｆ,,40,109,8070825,,,,,,,2024-07-31,1,,,,,ナンバーファイブ,0
774,3300001013851,新規,0,2024-07-31,2024-07-31,株式会社シンライズ,,株式会社,佐賀県,佐賀市,大和町大字尼寺１１３９番地１０,,41,201,8400201,,,,,,,2024-07-31,1,,,,,シンライズ,0
775,3320001020615,新規,0,2024-07-31,2024-07-31,技巧株式会社,,株式会社,大分県,宇佐市,大字辛島３２４番地の３,,44,211,8790456,,,,,,,2024-07-31,1,,,,,ワザコウ,0
776,3320001020623,新規,0,2024-07-31,2024-07-31,株式会社ケイス,,株式会社,大分県,大分市,大字寒田３８２番地の８８,,44,201,8701123,,,,,,,2024-07-31,1,,,,,ケイス,0
777,3320003004434,新規,0,2024-07-31,2024-07-31,ｂｌｉｓｓｆｕｌ　ｓｐａｃｅ合同会社,,合同会社,大分県,別府市,石垣西２丁目５番２１号,,44,202,8740910,,,,,,,2024-07-31,1,,,,,ブリスフルスペース,0
778,3330001032304,新規,0,2024-07-31,2024-07-31,株式会社ＫＫワールド,,株式会社,熊本県,熊本市北区,龍田陣内三丁目１７－１５,,43,105,8610000,,,,,,,2024-07-31,1,,,,,ケイケイワールド,0
783,3340003004556,新規,0,2024-07-31,2024-07-31,合同会社神木,,合同会社,鹿児島県,鹿児島市,山之口町８番１７号,,46,201,8920844,,,,,,,2024-07-31,1,,,,,カミキ,0
784,3350001019118,新規,0,2024-07-31,2024-07-31,ＷＡｌＫｓＷＯＲＫｓ株式会社,,株式会社,宮崎県,東諸県郡国富町,大字本庄２７２５番地,,45,382,8801101,,,,,,,2024-07-31,1,,,,,ワクワク,0
787,3360003014173,新規,0,2024-07-31,2024-07-31,合同会社スタープロズ,,合同会社,沖縄県,那覇市,松山２丁目２６－１０－１Ｆ,,47,201,9000032,,,,,,,2024-07-31,1,,,,,スタープロズ,0
788,3360003014181,新規,0,2024-07-31,2024-07-31,合同会社源丸,,合同会社,沖縄県,石垣市,字石垣１８０番地,,47,207,9070023,,,,,,,2024-07-31,1,,,,,ゲンマル,0
799,3430001092338,新規,0,2024-07-31,2024-07-31,Ｓｐａｒｋ　Ｃｏｍｍｕｎｉｃａｔｉｏｎｓ株式会社,,株式会社,北海道,札幌市中央区,北六条西１２丁目９番地１サーパス桑園５０２号,,01,101,0600006,,,,,,,2024-07-31,1,,,,,スパークコミュニケーションズ,0
800,3430001092346,新規,0,2024-07-31,2024-07-31,株式会社あんるる,,株式会社,北海道,札幌市中央区,北一条西２５丁目１－２３サニーハイツＮｏ．３　１階１０３号室,,01,101,0640821,,,,,,,2024-07-31,1,,,,,アンルル,0
804,3430003016633,新規,0,2024-07-31,2024-07-31,合同会社Ｂｅｌｌｖｉｌｌａｇｅ,,合同会社,北海道,札幌市豊平区,美園一条８丁目２番２７－２０７号,,01,105,0620001,,,,,,,2024-07-31,1,,,,,ベルビレッジ,0
808,3480001012555,新規,0,2024-07-31,2024-07-31,株式会社４６パートナーズ,,株式会社,徳島県,小松島市,中田町字奥林６０番地１,,36,203,7730015,,,,,,,2024-07-31,1,,,,,ヨンロクパートナーズ,0
812,3500001025769,新規,0,2024-07-31,2024-07-31,ＭＧＭホールディングス株式会社,,株式会社,愛媛県,松山市,北斎院町５８番地１,,38,201,7918031,,,,,,,2024-07-31,1,,,,,エムジーエムホールディングス,0
815,3700150126439,新規,0,2024-07-31,2024-07-10,酒四柔道クラブ,,その他,山形県,酒田市,錦町５丁目６７－５２,,06,204,9980103,,,,,,,2024-07-10,1,,,,,サカヨンジユウドウクラブ,0
816,3700150126570,新規,0,2024-07-31,2024-07-29,岩手県公認心理師協会,,その他,岩手県,紫波郡矢巾町,医大通１丁目１－１岩手医科大学　いわてこどもケアセンター　内,,03,322,0283609,,,,,,,2024-07-29,1,,,,,イワテケンコウニンシンリシキヨウカイ,0
825,4010001246694,新規,0,2024-07-31,2024-07-31,ＳＴＲＹ株式会社,,株式会社,東京都,中央区,銀座１丁目１２番４号Ｎ＆ＥＢＬＤ．６Ｆ,,13,102,1040061,,,,,,,2024-07-31,1,,,,,ストリ,0
826,4010001246942,新規,0,2024-07-31,2024-07-31,新成株式会社,,株式会社,東京都,千代田区,内神田２丁目４番２号一広グローバルビル１００１号,,13,101,1010047,,,,,,,2024-07-31,1,,,,,シンセイ,0
827,4010001247032,新規,0,2024-07-31,2024-07-31,レオセキュアテック株式会社,,株式会社,東京都,中央区,日本橋兜町１７－２兜町第６葉山ビル４Ｆ,,13,102,1030026,,,,,,,2024-07-31,1,,,,,レオセキュアテック,0
828,4010001247081,新規,0,2024-07-31,2024-07-31,株式会社Ｌｏｃｏ,,株式会社,東京都,中央区,銀座１丁目１２番４号Ｎ＆ＥＢＬＤ．７階,,13,102,1040061,,,,,,,2024-07-31,1,,,,,ロコ,0
831,4010003044469,新規,0,2024-07-31,2024-07-31,Ｍ‐ＳＭＹ２インベストメント合同会社,,合同会社,東京都,中央区,日本橋１丁目４番１号,,13,102,1030027,,,,,,,2024-07-31,1,,,,,エムエスエムワイツーインベストメント,0
835,4010401184098,新規,0,2024-07-31,2024-07-31,Ｆｕｔｕｒｅ　Ｃｅｌｌ　Ｔｈｅｒａｐｙ　Ｊａｐａｎ株式会社,,株式会社,東京都,港区,三田１丁目２番１８号ＴＴＤビル３階３０５号室,,13,103,1080073,,,,,,,2024-07-31,1,,,,,フューチャーセルセラピージャパン,0
838,4010403033113,新規,0,2024-07-31,2024-07-31,インテグラル合同会社,,合同会社,東京都,港区,海岸３丁目１８番２４号ジェノヴィア田町スカイガーデン６０４号室,,13,103,1080022,,,,,,,2024-07-31,1,,,,,インテグラル,0
839,4010403033146,新規,0,2024-07-31,2024-07-31,合同会社ＳＭＯ　Ｄｅｖｅｌｏｐｍｅｎｔ,,合同会社,東京都,港区,南青山３丁目１７番３号,,13,103,1070062,,,,,,,2024-07-31,1,,,,,エスエムオーデベロップメント,0
849,4010601065651,新規,0,2024-07-31,2024-07-31,スリーアイズ株式会社,,株式会社,東京都,墨田区,両国４丁目３７番２号,,13,107,1300026,,,,,,,2024-07-31,1,,,,,スリーアイズ,0
850,4010605004358,新規,0,2024-07-31,2024-07-31,特定非営利活動法人アュボーワン,,その他の設立登記法人,東京都,墨田区,石原４丁目１５番１０号,,13,107,1300011,,,,,,,2024-07-31,1,,,,,アュボーワン,0
851,4010703007279,新規,0,2024-07-31,2024-07-31,ＥＮＴＲＯＰＩＣＯ合同会社,,合同会社,東京都,品川区,戸越３丁目７番７号,,13,109,1420041,,,,,,,2024-07-31,1,,,,,エントロピコ,0
854,4010801035272,新規,0,2024-07-31,2024-07-31,ＲｕＴｅｎ株式会社,,株式会社,東京都,大田区,南蒲田２丁目１４番１１ベルツリー１０２号,,13,111,1440035,,,,,,,2024-07-31,1,,,,,ルテン,0
858,4010903009249,新規,0,2024-07-31,2024-07-31,ＴＯＣ＆ＫＥＹ合同会社,,合同会社,東京都,世田谷区,宮坂３丁目１５番７号,,13,112,1560051,,,,,,,2024-07-31,1,,,,,トッキー,0
864,4011001163723,新規,0,2024-07-31,2024-07-31,株式会社レーキ,,株式会社,東京都,渋谷区,幡ヶ谷３丁目４８番１号幡ヶ谷ＹＭビル１０２,,13,113,1510072,,,,,,,2024-07-31,1,,,,,レーキ,0
868,4011003019691,新規,0,2024-07-31,2024-07-31,ＡＫ合同会社,,合同会社,東京都,目黒区,八雲５丁目１８番２４号,,13,110,1520023,,,,,,,2024-07-31,1,,,,,エーケー,0
872,4011101108248,新規,0,2024-07-31,2024-07-31,株式会社大友建物,,株式会社,東京都,新宿区,新宿１丁目２３番６－２０３号,,13,104,1600022,,,,,,,2024-07-31,1,,,,,オオトモタテモノ,0
873,4011101108272,新規,0,2024-07-31,2024-07-31,株式会社うみへび,,株式会社,東京都,新宿区,西新宿６丁目５番１号新宿アイランドタワー２階,,13,104,1600023,,,,,,,2024-07-31,1,,,,,ウミヘビ,0
877,4011103014717,新規,0,2024-07-31,2024-07-31,Ｃａｍｉｌａ合同会社,,合同会社,東京都,新宿区,榎町３４－３榎町ビル７階－１８室,,13,104,1620806,,,,,,,2024-07-31,1,,,,,カミラ,0
881,4011203004452,新規,0,2024-07-31,2024-07-31,ＶＩＬＬＡＧＥＲＳ　ＩＮＣ．合同会社,,合同会社,東京都,中野区,中央５丁目４２番１４号オオノハウス２０２号,,13,114,1640011,,,,,,,2024-07-31,1,,,,,ヴィレジャーズインク,0
884,4011501030984,新規,0,2024-07-31,2024-07-31,Ｒ　ｍｕｓｉｃ株式会社,,株式会社,東京都,北区,王子１丁目１４－７パレス内田６号館８０１号,,13,117,1140002,,,,,,,2024-07-31,1,,,,,アールミュージック,0
885,4011601027947,新規,0,2024-07-31,2024-07-31,株式会社ＮＡ,,株式会社,東京都,練馬区,大泉町５丁目１６番１号,,13,120,1780062,,,,,,,2024-07-31,1,,,,,エヌエイ,0
887,4011603004408,新規,0,2024-07-31,2024-07-31,Ａｇｅｎｔ１合同会社,,合同会社,東京都,練馬区,東大泉３丁目１番７号ガーデンコート大泉学園６０６,,13,120,1780063,,,,,,,2024-07-31,1,,,,,エージェントワン,0
888,4011701027491,新規,0,2024-07-31,2024-07-31,株式会社Ｍｉｙａｂｉ　Ｔｒａｎｓｐｏｒｔ,,株式会社,東京都,江戸川区,東葛西５丁目１番１４号第７片田ビル８０１,,13,123,1340084,,,,,,,2024-07-31,1,,,,,ミヤビトランスポート,0
891,4011801044619,新規,0,2024-07-31,2024-07-31,株式会社ＮＴＣ,,株式会社,東京都,足立区,宮城１丁目１６－２０－１Ｆ,,13,121,1200047,,,,,,,2024-07-31,1,,,,,エヌティシー,0
893,4011803006369,新規,0,2024-07-31,2024-07-31,ＦＵＪＩＬＡＫＫＡ合同会社,,合同会社,東京都,足立区,綾瀬１丁目１５番地１１,,13,121,1200005,,,,,,,2024-07-31,1,,,,,フジラッカ,0
897,4012401042137,新規,0,2024-07-31,2024-07-31,株式会社ＭＡ,,株式会社,東京都,三鷹市,上連雀３丁目１３番１５号,,13,204,1810012,,,,,,,2024-07-31,1,,,,,エムエー,0
900,4013301052911,新規,0,2024-07-31,2024-07-31,株式会社オサム,,株式会社,東京都,豊島区,北大塚２丁目１８－８大塚エースビル３０２,,13,116,1700004,,,,,,,2024-07-31,1,,,,,オサム,0
907,4021001082848,新規,0,2024-07-31,2024-07-31,株式会社Ｇｒｅｅｎ　Ｔｅｒｒａｃｅ,,株式会社,神奈川県,伊勢原市,上粕屋１２９６番地３乙幸ハウス１０３号室,,14,214,2591141,,,,,,,2024-07-31,1,,,,,グリーンテラス,0
909,4021003014832,新規,0,2024-07-31,2024-07-31,ピボットネット合同会社,,合同会社,神奈川県,座間市,入谷東２丁目２２番２号,,14,216,2520028,,,,,,,2024-07-31,1,,,,,ピボットネット,0
932,4070003005523,新規,0,2024-07-31,2024-07-31,ＥＩＭＩ合同会社,,合同会社,群馬県,太田市,高林東町２４４７番地平成ハイツＨ号,,10,205,3730825,,,,,,,2024-07-31,1,,,,,エイミ,0
936,4080001026405,新規,0,2024-07-31,2024-07-31,株式会社Ａｚｒａｎ,,株式会社,静岡県,静岡市葵区,水落５－２４,,22,101,4220000,,,,,,,2024-07-31,1,,,,,,0
941,4080401027333,新規,0,2024-07-31,2024-07-31,株式会社ＭＩＮＡ　ＴＲＥＳＯＲ,,株式会社,静岡県,磐田市,福田３９００番地,,22,211,4371203,,,,,,,2024-07-31,1,,,,,ミナトレゾール,0
943,4100003007672,新規,0,2024-07-31,2024-07-31,合同会社あさゆう,,合同会社,長野県,松本市,大字島立４９番地１,,20,202,3900852,,,,,,,2024-07-31,1,,,,,アサユウ,0
960,4120001267218,新規,0,2024-07-31,2024-07-31,ＨＡＮＡ株式会社,,株式会社,大阪府,大阪市西淀川区,千舟１丁目２番２３号,,27,113,5550013,,,,,,,2024-07-31,1,,,,,ハナ,0
961,4120001267250,新規,0,2024-07-31,2024-07-31,株式会社ヤマヒロプレジャーグループ,,株式会社,大阪府,大阪市北区,西天満４丁目１２番６－７１０号,,27,127,5300047,,,,,,,2024-07-31,1,,,,,ヤマヒロプレジャーグループ,0
962,4120001267309,新規,0,2024-07-31,2024-07-31,株式会社Ｆｉｒｓｔ　Ｂｒａｎｃｈ,,株式会社,大阪府,大阪市北区,錦町３番１－１０６号,,27,127,5300034,,,,,,,2024-07-31,1,,,,,ファーストブランチ,0
963,4120001267333,新規,0,2024-07-31,2024-07-31,株式会社ｗａＲａｗａ,,株式会社,大阪府,大阪市中央区,南船場３丁目９－６,,27,128,5420081,,,,,,,2024-07-31,1,,,,,ワラワ,0
965,4120003027149,新規,0,2024-07-31,2024-07-31,合同会社市来会計センター,,合同会社,大阪府,大阪市天王寺区,東高津町９－４－３０２号,,27,109,5430021,,,,,,,2024-07-31,1,,,,,イチキカイケイセンター,0
966,4120005024458,新規,0,2024-07-31,2024-07-31,弁理士法人テイクオフ,,その他の設立登記法人,大阪府,大阪市中央区,北浜１丁目１番２７号エムズ北浜ビルディング８Ｆ,,27,128,5410041,,,,,,,2024-07-31,1,,,,,テイクオフ,0
967,4120101070075,新規,0,2024-07-31,2024-07-31,株式会社櫻井テック,,株式会社,大阪府,富田林市,若松町５丁目１９番９号,,27,214,5840024,,,,,,,2024-07-31,1,,,,,サクライテック,0
970,4120901049525,新規,0,2024-07-31,2024-07-31,株式会社アシスト,,株式会社,大阪府,高槻市,松原町４－１７,,27,207,5690086,,,,,,,2024-07-31,1,,,,,アシスト,0
980,4130001077574,新規,0,2024-07-31,2024-07-31,ＫＥ‐ＲＩＣＨ株式会社,,株式会社,京都府,京都市中京区,西ノ京西月光町６４番地,,26,104,6048423,,,,,,,2024-07-31,1,,,,,ケーリッチ,0
981,4130001077582,新規,0,2024-07-31,2024-07-31,株式会社ＫＯＭＯＴＯ,,株式会社,京都府,京都市中京区,蛸薬師通烏丸東入一蓮社町３００番地,,26,104,6048146,,,,,,,2024-07-31,1,,,,,コモト,0
982,4130001077599,新規,0,2024-07-31,2024-07-31,吉澤設備工業株式会社,,株式会社,京都府,京都市右京区,太秦京ノ道町２７番地３１,,26,108,6168181,,,,,,,2024-07-31,1,,,,,ヨシザワセツビコウギョウ,0
989,4140001135281,新規,0,2024-07-31,2024-07-31,株式会社ｃｌｉｍｂ,,株式会社,兵庫県,宝塚市,宝梅１丁目１０番１８号,,28,214,6650013,,,,,,,2024-07-31,1,,,,,クライム,0
991,4140003020903,新規,0,2024-07-31,2024-07-31,合同会社ＩＳＡＯ総研,,合同会社,兵庫県,神戸市中央区,相生町４丁目２番２８号神戸駅前千代田ビル,,28,110,6500025,,,,,,,2024-07-31,1,,,,,イサオソウケン,0
993,4150001027461,新規,0,2024-07-31,2024-07-31,株式会社寺西建設,,株式会社,奈良県,北葛城郡広陵町,馬見北９丁目１１番２０号ロイヤルハイツＢ２０３号,,29,426,6350831,,,,,,,2024-07-31,1,,,,,テラニシケンセツ,0
996,4160001026108,新規,0,2024-07-31,2024-07-31,トリップレックス株式会社,,株式会社,滋賀県,守山市,金森町８６９番地２ＲＯＯＴコワーキングスペース,,25,207,5240045,,,,,,,2024-07-31,1,,,,,トリップレックス,0
997,4160001026132,新規,0,2024-07-31,2024-07-31,株式会社ＬＶＣＨ,,株式会社,滋賀県,大津市,今堅田２丁目１８番１１号２Ｆ,,25,201,5200241,,,,,,,2024-07-31,1,,,,,レベチ,0
999,4160003003253,新規,0,2024-07-31,2024-07-31,合同会社Ｂｒａｎｃｈ,,合同会社,滋賀県,近江八幡市,出町１６２番地２,,25,204,5230892,,,,,,,2024-07-31,1,,,,,ブランチ,0
1010,4180001162479,新規,0,2024-07-31,2024-07-31,株式会社Ｙ．Ｎ．Ａ,,株式会社,愛知県,一宮市,千秋町小山字新屋敷６８８番地,,23,203,4910814,,,,,,,2024-07-31,1,,,,,ワイエヌエー,0
1011,4180001162504,新規,0,2024-07-31,2024-07-31,梓旭国際株式会社,,株式会社,愛知県,名古屋市中川区,二女子町６丁目７２番地の２,,23,110,4540036,,,,,,,2024-07-31,1,,,,,アズヒコクサイ,0
1012,4180001162520,新規,0,2024-07-31,2024-07-31,ＣＯＭＰＡＳＳＩＯＮＡＴＥ株式会社,,株式会社,愛知県,名古屋市中村区,名駅４丁目８番２６号エニシオ名駅１６階,,23,105,4500002,,,,,,,2024-07-31,1,,,,,コムパショネート,0
1013,4180001162529,新規,0,2024-07-31,2024-07-31,株式会社ＰＨＯＥＮＩＸ,,株式会社,愛知県,名古屋市中村区,則武１丁目７番１０号,,23,105,4530014,,,,,,,2024-07-31,1,,,,,フェニックス,0
1016,4180005020708,新規,0,2024-07-31,2024-07-31,一般社団法人心,,その他の設立登記法人,愛知県,名古屋市中村区,椿町１４番１３号,,23,105,4530015,,,,,,,2024-07-31,1,,,,,ココロ,0
1018,4180301038899,新規,0,2024-07-31,2024-07-31,株式会社ＰｅＧＴ,,株式会社,愛知県,西尾市,吉良町友国前田６－１,,23,213,4440504,,,,,,,2024-07-31,1,,,,,ピージーティー,0
1019,4180301038916,新規,0,2024-07-31,2024-07-31,株式会社ＭＡＥＳＴＲＯ　ＪＡＰＡＮ,,株式会社,愛知県,知立市,南新地２丁目７番地２,,23,225,4720053,,,,,,,2024-07-31,1,,,,,マエストロジャパン,0
1020,4180301038924,新規,0,2024-07-31,2024-07-31,株式会社Ｌａｕｇｈ,,株式会社,愛知県,額田郡幸田町,大字桐山字上屋敷１番地２,,23,501,4440126,,,,,,,2024-07-31,1,,,,,ラフ,0
1021,4180303006210,新規,0,2024-07-31,2024-07-31,合同会社ＹＡＭＡＮＯＲＩ,,合同会社,愛知県,岡崎市,藤川町字北荒古６番地７,,23,202,4443523,,,,,,,2024-07-31,1,,,,,ヤマノリ,0
1022,4180305009599,新規,0,2024-07-31,2024-07-31,一般社団法人ドリーマーズ・ラボ,,その他の設立登記法人,愛知県,豊川市,国府町流霞５４番地,,23,207,4420854,,,,,,,2024-07-31,1,,,,,ドリーマーズラボ,0
1025,4190001031518,新規,0,2024-07-31,2024-07-31,スケールアップストラテジー株式会社,,株式会社,三重県,鳥羽市,安楽島町１４４９番地８,,24,211,5170021,,,,,,,2024-07-31,1,,,,,スケールアップストラテジー,0
1026,4190001031526,新規,0,2024-07-31,2024-07-31,株式会社Ｋａｄｏ,,株式会社,三重県,四日市市,西新地７番３号,,24,202,5100087,,,,,,,2024-07-31,1,,,,,カド,0
1027,4190001031534,新規,0,2024-07-31,2024-07-31,ＡＴＴ株式会社,,株式会社,三重県,桑名市,中央町１丁目９１,,24,205,5110068,,,,,,,2024-07-31,1,,,,,エーティーティ,0
1028,4190003004760,新規,0,2024-07-31,2024-07-31,オートパークリゾートジャパン合同会社,,合同会社,三重県,津市,白山町佐田２７４５番地１,,24,201,5152621,,,,,,,2024-07-31,1,,,,,オートパークリゾートジャパン,0
1031,4210001019849,新規,0,2024-07-31,2024-07-31,料食流通株式会社,,株式会社,福井県,坂井市,三国町米ケ脇２丁目６０１番３号,,18,210,9130057,,,,,,,2024-07-31,1,,,,,リョウショクリュウツウ,0
1034,4220001026126,新規,0,2024-07-31,2024-07-31,白山フーズ株式会社,,株式会社,石川県,白山市,宮永町２８４７番地１,,17,210,9240017,,,,,,,2024-07-31,1,,,,,ハクサンフーズ,0
1035,4240001063596,新規,0,2024-07-31,2024-07-31,ナガユキ株式会社,,株式会社,広島県,広島市東区,温品２丁目１８番１号,,34,102,7320033,,,,,,,2024-07-31,1,,,,,ナガユキ,0
1036,4240001063605,新規,0,2024-07-31,2024-07-31,ＯＩＣＴ株式会社,,株式会社,広島県,東広島市,西条町西条東１２９２番地９,,34,212,7390042,,,,,,,2024-07-31,1,,,,,オーアイシーティー,0
1037,4240001063613,新規,0,2024-07-31,2024-07-31,ＬＩＦＡＣＴ株式会社,,株式会社,広島県,広島市西区,天満町１９番２６－２０５号,,34,104,7330022,,,,,,,2024-07-31,1,,,,,リファクト,0
1038,4240001063621,新規,0,2024-07-31,2024-07-31,株式会社藤健創美,,株式会社,広島県,安芸郡府中町,浜田本町５番８―３号,,34,302,7350023,,,,,,,2024-07-31,1,,,,,フジケンソウビ,0
1040,4240003006784,新規,0,2024-07-31,2024-07-31,合同会社元氣になるところ,,合同会社,広島県,福山市,東吉津町１番２－１０６号,,34,207,7200071,,,,,,,2024-07-31,1,,,,,ゲンキニナルトコロ,0
1041,4250001020745,新規,0,2024-07-31,2024-07-31,山東ボーリング株式会社,,株式会社,山口県,周南市,大字呼坂７４６番地の１,,35,215,7450612,,,,,,,2024-07-31,1,,,,,,0
1042,4250001020753,新規,0,2024-07-31,2024-07-31,株式会社足からここから,,株式会社,山口県,岩国市,錦見７丁目２番２２号,,35,208,7410061,,,,,,,2024-07-31,1,,,,,アシカラココカラ,0
1045,4270003001650,新規,0,2024-07-31,2024-07-31,合同会社ＡｌｗｅｙｓＫｅｅｐＮｉｃｅ,,合同会社,鳥取県,鳥取市,西品治５０４番地１,,31,201,6800811,,,,,,,2024-07-31,1,,,,,オルウェイズキープナイス,0
1046,4280001009224,新規,0,2024-07-31,2024-07-31,株式会社いぬ結,,株式会社,島根県,出雲市,今市町１６７０番地４,,32,203,6930001,,,,,,,2024-07-31,1,,,,,イヌユイ,0
1048,4290001106540,新規,0,2024-07-31,2024-07-31,株式会社Ｐ．Ｌ．Ｔ,,株式会社,福岡県,久留米市,田主丸町益生田１４５２番地２,,40,203,8391213,,,,,,,2024-07-31,1,,,,,ピーエルティー,0
1052,4290801030733,新規,0,2024-07-31,2024-07-31,株式会社Ｓｔａｒｌｉｎｋ,,株式会社,福岡県,北九州市小倉南区,北方３丁目６９番３号,,40,107,8020841,,,,,,,2024-07-31,1,,,,,スターリンク,0
1053,4290801030741,新規,0,2024-07-31,2024-07-31,株式会社フロンティア,,株式会社,福岡県,北九州市若松区,高須南２丁目１番１７号高須ビル２階,,40,103,8080145,,,,,,,2024-07-31,1,,,,,フロンティア,0
1057,4320001020622,新規,0,2024-07-31,2024-07-31,株式会社ｇａｌｌｅｒｙ　ｒｉｐｐｌｅ,,株式会社,大分県,由布市,湯布院町川上１２６７番地７,,44,213,8795102,,,,,,,2024-07-31,1,,,,,ギャラリーリップル,0
1070,4360001033991,新規,0,2024-07-31,2024-07-31,株式会社リンク,,株式会社,沖縄県,名護市,字為又２６５番地－１０２,,47,209,9050005,,,,,,,2024-07-31,1,,,,,リンク,0
1071,4360001034008,新規,0,2024-07-31,2024-07-31,株式会社ＡＲＥＹＮＣＯＮＳＵＬ,,株式会社,沖縄県,中頭郡北谷町,字北前２３９番地５,,47,326,9040117,,,,,,,2024-07-31,1,,,,,アレインコンサル,0
1077,4370001051555,新規,0,2024-07-31,2024-07-31,ＣＲＯＳＳ　ＬＩＮＫ株式会社,,株式会社,宮城県,名取市,愛島台６丁目１３番地の１８,,04,207,9811251,,,,,,,2024-07-31,1,,,,,クロスリンク,0
1078,4370001051563,新規,0,2024-07-31,2024-07-31,株式会社ＲＥｖｏＣｏ,,株式会社,宮城県,岩沼市,たけくま２丁目４番１９号,,04,211,9892459,,,,,,,2024-07-31,1,,,,,レボコ,0
1079,4370001051571,新規,0,2024-07-31,2024-07-31,株式会社ＫＯ．,,株式会社,宮城県,仙台市若林区,河原町２丁目１番１３号Ｇａｒｄｅｎｗａｎ‐Ｃ,,04,103,9840816,,,,,,,2024-07-31,1,,,,,ケーオードット,0
1080,4380001034699,新規,0,2024-07-31,2024-07-31,株式会社八巻荷役ライン,,株式会社,福島県,石川郡平田村,大字永田字戸花３０番地１,,07,503,9638205,,,,,,,2024-07-31,1,,,,,ヤマキニエキライン,0
1081,4380003005830,新規,0,2024-07-31,2024-07-31,Ｂｅａｕｔｉｆｕｌ　Ｎｉｎｅ合同会社,,合同会社,福島県,郡山市,備前舘２番地の５０,,07,203,9630000,,,,,,,2024-07-31,1,,,,,ビューティフルナイン,0
1089,4430001092337,新規,0,2024-07-31,2024-07-31,株式会社コーラルリーフ,,株式会社,北海道,札幌市北区,新琴似一条１０丁目５番２２号,,01,102,0010901,,,,,,,2024-07-31,1,,,,,コーラルリーフ,0
1090,4430001092353,新規,0,2024-07-31,2024-07-31,株式会社フェアネス,,株式会社,北海道,札幌市白石区,菊水九条３丁目５番１９号キャッスルニッコー３１８,,01,104,0030809,,,,,,,2024-07-31,1,,,,,フェアネス,0
1094,4430003016599,新規,0,2024-07-31,2024-07-31,合同会社ＹＳ,,合同会社,北海道,札幌市中央区,宮の森二条６丁目１－２７宮の森みたか第２マンション４０５号室,,01,101,0640952,,,,,,,2024-07-31,1,,,,,ワイエス,0
1103,4480001012554,新規,0,2024-07-31,2024-07-31,株式会社ＰＬＦＪａｐａｎ,,株式会社,徳島県,徳島市,上八万町下中筋３６８番地,,36,201,7708040,,,,,,,2024-07-31,1,,,,,ピーエルエフジャパン,0
1113,5010001247031,新規,0,2024-07-31,2024-07-31,株式会社Ｔｏｃａｓｉ,,株式会社,東京都,千代田区,六番町６番地１,,13,101,1020085,,,,,,,2024-07-31,1,,,,,トカシ,0
1116,5010003044451,新規,0,2024-07-31,2024-07-31,合同会社Ｐｅｒｐｅｔｕａｌ　Ｓｔｒｅａｍ,,合同会社,東京都,千代田区,紀尾井町４番１号,,13,101,1020094,,,,,,,2024-07-31,1,,,,,パーペチュアルストリーム,0
1117,5010005038567,新規,0,2024-07-31,2024-07-31,一般社団法人ＢＩＣＳＩ日本支部,,その他の設立登記法人,東京都,中央区,銀座７丁目１３番６号サガミビル２階,,13,102,1040061,,,,,,,2024-07-31,1,,,,,ビクシニホンシブ,0
1120,5010401184097,新規,0,2024-07-31,2024-07-31,ＲＭＴ　Ｓｕｐｅｒｃｅｌｌ　Ｊａｐａｎ株式会社,,株式会社,東京都,港区,三田１丁目２番１８号ＴＴＤビル３階３０５号室,,13,103,1080073,,,,,,,2024-07-31,1,,,,,アールエムティースーパーセルジャパン,0
1121,5010401184155,新規,0,2024-07-31,2024-07-31,株式会社ミライエ,,株式会社,東京都,港区,北青山１丁目３番１号アールキューブ青山３階,,13,103,1070061,,,,,,,2024-07-31,1,,,,,ミライエ,0
1123,5010403033129,新規,0,2024-07-31,2024-07-31,ＹＴＳ‐Ｓｏｌａｒ合同会社,,合同会社,東京都,港区,六本木６丁目１０番１号六本木ヒルズ森タワー１５Ｆ,,13,103,1060032,,,,,,,2024-07-31,1,,,,,ワイティーエスソーラー,0
1124,5010601065642,新規,0,2024-07-31,2024-07-31,株式会社ＫＹＫ,,株式会社,東京都,江東区,森下５丁目５番７号リバーコート森下２０２,,13,108,1350004,,,,,,,2024-07-31,1,,,,,ケーワイケー,0
1125,5010603010992,新規,0,2024-07-31,2024-07-31,合同会社有明経営パートナーズ,,合同会社,東京都,江東区,有明１丁目６番３０－１６０４号,,13,108,1350063,,,,,,,2024-07-31,1,,,,,アリアケケイエイパートナーズ,0
1134,5010901055715,新規,0,2024-07-31,2024-07-31,ａｓｏＢＩＢＡ　Ｅｎｔｅｒｔａｉｎｍｅｎｔ株式会社,,株式会社,東京都,世田谷区,駒沢１丁目１７番１１号駒沢Ｎ・Ｓビル地下一階,,13,112,1540012,,,,,,,2024-07-31,1,,,,,アソビバエンターテイメント,0
1135,5010903009248,新規,0,2024-07-31,2024-07-31,ケープティップ合同会社,,合同会社,東京都,世田谷区,北沢３丁目２７番１１号ブランミュール２０１,,13,112,1550031,,,,,,,2024-07-31,1,,,,,ケープティップ,0
1140,5011001163689,新規,0,2024-07-31,2024-07-31,株式会社ＪＡＭＭＹ,,株式会社,東京都,渋谷区,渋谷２丁目１９－１５宮益坂ビルディング６０９,,13,113,1500002,,,,,,,2024-07-31,1,,,,,ジャミー,0
1141,5011001163697,新規,0,2024-07-31,2024-07-31,株式会社ＧＡＯＮＨＡＥ,,株式会社,東京都,渋谷区,初台１丁目５１番１号初台センタービル３０９号室,,13,113,1510061,,,,,,,2024-07-31,1,,,,,ガオンヘ,0
1142,5011001163730,新規,0,2024-07-31,2024-07-31,株式会社ＥｍｂｅｄｄｉｎｇＣｏｒｅ,,株式会社,東京都,渋谷区,代々木５丁目２６番１号,,13,113,1510053,,,,,,,2024-07-31,1,,,,,エンベディングコア,0
1143,5011001163739,新規,0,2024-07-31,2024-07-31,株式会社サンデイモーニング,,株式会社,東京都,渋谷区,猿楽町１１番３－２０７号,,13,113,1500033,,,,,,,2024-07-31,1,,,,,サンデイモーニング,0
1149,5011101108255,新規,0,2024-07-31,2024-07-31,株式会社Ｘｗｏｒｌｄ　Ｓｔｒａｔｅｇｉｅｓ,,株式会社,東京都,新宿区,西落合１丁目２２番３－６０４号,,13,104,1610031,,,,,,,2024-07-31,1,,,,,クロスワールドストラテギーズ,0
1150,5011101108263,新規,0,2024-07-31,2024-07-31,株式会社ＥＢＩＳＵＹＡ,,株式会社,東京都,新宿区,新宿７丁目２７番４－１００１号,,13,104,1600022,,,,,,,2024-07-31,1,,,,,エビスヤ,0
1151,5011101108271,新規,0,2024-07-31,2024-07-31,株式会社ＤＭｓｕｎ,,株式会社,東京都,新宿区,大京町１３番地１８－５０１,,13,104,1600015,,,,,,,2024-07-31,1,,,,,ディエムサン,0
1155,5011201025680,新規,0,2024-07-31,2024-07-31,ＣＢＩ株式会社,,株式会社,東京都,中野区,江古田４丁目３０番１９－１１０号,,13,114,1650022,,,,,,,2024-07-31,1,,,,,シービーアイ,0
1158,5011301029887,新規,0,2024-07-31,2024-07-31,株式会社ワールドクラス,,株式会社,東京都,杉並区,成田東４丁目３６番１９号Ｌｕｂｉｎａ１０１,,13,115,1660015,,,,,,,2024-07-31,1,,,,,ワールドクラス,0
1162,5011701027490,新規,0,2024-07-31,2024-07-31,星園株式会社,,株式会社,東京都,江戸川区,西葛西５丁目７番６－４０１号,,13,123,1340088,,,,,,,2024-07-31,1,,,,,ホシゾノ,0
1164,5011803006368,新規,0,2024-07-31,2024-07-31,合同会社Ｒａｙ,,合同会社,東京都,足立区,西新井栄町１丁目４番１７号,,13,121,1230843,,,,,,,2024-07-31,1,,,,,レイ,0
1168,5012701018380,新規,0,2024-07-31,2024-07-31,Ｅｌｉｔｅ株式会社,,株式会社,東京都,小平市,小川東町１丁目３３番１２号,,13,211,1870031,,,,,,,2024-07-31,1,,,,,エリート,0
1178,5020001158244,新規,0,2024-07-31,2024-07-31,株式会社ＴＲ　ｗｏｒｋｓ,,株式会社,神奈川県,横浜市港北区,新吉田東４丁目８－１,,14,109,2230058,,,,,,,2024-07-31,1,,,,,ティーアールワークス,0
1179,5020001158319,新規,0,2024-07-31,2024-07-31,株式会社Ｒｅ　ｄｅｓｉｇｎ,,株式会社,神奈川県,横浜市中区,山下町７９番地４松方ビル３階,,14,104,2310023,,,,,,,2024-07-31,1,,,,,リデザイン,0
1183,5020003026556,新規,0,2024-07-31,2024-07-31,ＨＳ　ＣＯＭＭＵＮＩＣＡＴＩＯＮ合同会社,,合同会社,神奈川県,横浜市西区,北幸２丁目１０番４８号むつみビル３階,,14,103,2200004,,,,,,,2024-07-31,1,,,,,エイチエスコミュニケーション,0
1187,5021001082847,新規,0,2024-07-31,2024-07-31,株式会社ブレインラボカマクラ,,株式会社,神奈川県,鎌倉市,御成町１１－２ヤノヤビル２Ｆ,,14,204,2480012,,,,,,,2024-07-31,1,,,,,ブレインラボカマクラ,0
1188,5021001082871,新規,0,2024-07-31,2024-07-31,株式会社ＮＥＷ　ＨＥＤＧＥ,,株式会社,神奈川県,茅ヶ崎市,松浪１丁目５番１０－２号ＮｅｗｐｏｒｔＢｅａｃｈＢ号,,14,207,2530022,,,,,,,2024-07-31,1,,,,,ニューヘッジ,0
1204,5030003024815,新規,0,2024-07-31,2024-07-31,廣一郎合同会社,,合同会社,埼玉県,深谷市,原郷１９４１番地,,11,218,3660035,,,,,,,2024-07-31,1,,,,,コウイチロウ,0
1206,5030005021785,新規,0,2024-07-31,2024-07-31,一般社団法人ＦＵＴＢＯＬ　ＢＡＳＥ,,その他の設立登記法人,埼玉県,川口市,芝高木１丁目６番１６－１０３号,,11,203,3330868,,,,,,,2024-07-31,1,,,,,フットボールバセ,0
1207,5030005021793,新規,0,2024-07-31,2024-07-31,一般社団法人赤ちゃんの頭のかたちサポーターズ,,その他の設立登記法人,埼玉県,久喜市,桜田２丁目１３３－６株式会社ハタノシステムサービスセンター内,,11,232,3400203,,,,,,,2024-07-31,1,,,,,アカチャンノアタマノカタチサポーターズ,0
1213,5040001134573,新規,0,2024-07-31,2024-07-31,株式会社ＨＩＲＡ　ＩＮＴＥＲＮＡＴＩＯＮＡＬ,,株式会社,千葉県,市川市,市川南３丁目２番３０号,,12,203,2720033,,,,,,,2024-07-31,1,,,,,ヒラインターナショナル,0
1214,5040001134730,新規,0,2024-07-31,2024-07-31,株式会社ｗｉｌｌ　ｆｕｔｕｒｅ,,株式会社,千葉県,千葉市花見川区,幕張本郷６丁目２７番３０号１０３号室,,12,102,2620033,,,,,,,2024-07-31,1,,,,,ウィルフューチャー,0
1216,5040003025408,新規,0,2024-07-31,2024-07-31,合同会社ａｉｌｅ,,合同会社,千葉県,千葉市稲毛区,黒砂４丁目８番２１号フォルテッシモ２０１号,,12,103,2630042,,,,,,,2024-07-31,1,,,,,エール,0
1224,5060001037345,新規,0,2024-07-31,2024-07-31,あゆみ技建株式会社,,株式会社,栃木県,下野市,下古山３丁目１４番地２,,09,216,3290502,,,,,,,2024-07-31,1,,,,,アユミギケン,0
1230,5080005007631,新規,0,2024-07-31,2024-07-31,特定非営利活動法人Ｓｅａ　Ｇｌａｓｓ,,その他の設立登記法人,静岡県,静岡市駿河区,中島３２９３ＬｕｐｉｎａＵ２０１,,22,102,4228046,,,,,,,2024-07-31,1,,,,,,0
1232,5080101024910,新規,0,2024-07-31,2024-07-31,東洋造機株式会社,,株式会社,静岡県,富士宮市,大宮１１番地の１,,22,207,4180000,,,,,,,2024-07-31,1,,,,,トウヨウゾウキ,0
1233,5080101024927,新規,0,2024-07-31,2024-07-31,株式会社万屋,,株式会社,静岡県,富士宮市,下稲子１２５番地の１,,22,207,4190312,,,,,,,2024-07-31,1,,,,,ヨロズヤ,0
1239,5110001038602,新規,0,2024-07-31,2024-07-31,株式会社ハートほっと,,株式会社,新潟県,見附市,新町１丁目１４番５９号,,15,211,9540057,,,,,,,2024-07-31,1,,,,,ハートホット,0
1254,5120001267043,新規,0,2024-07-31,2024-07-31,株式会社Ａｌｏ,,株式会社,大阪府,大阪市北区,梅田１丁目２－２大阪駅前第２ビル１２－１２,,27,127,5300001,,,,,,,2024-07-31,1,,,,,アロ,0
1255,5120001267191,新規,0,2024-07-31,2024-07-31,晟玖株式会社,,株式会社,大阪府,大阪市中央区,本町２丁目３番４号アソルティ本町４階,,27,128,5410053,,,,,,,2024-07-31,1,,,,,セイキュウ,0
1256,5120001267209,新規,0,2024-07-31,2024-07-31,小林科技株式会社,,株式会社,大阪府,大阪市住吉区,万代東１丁目３番２２号メゾン東和１０２号室,,27,120,5580056,,,,,,,2024-07-31,1,,,,,コバヤシカギ,0
1257,5120001267217,新規,0,2024-07-31,2024-07-31,株式会社新キムチのふるさと,,株式会社,大阪府,大阪市生野区,桃谷５丁目５番７号,,27,116,5440034,,,,,,,2024-07-31,1,,,,,シンキムチノフルサト,0
1258,5120001267233,新規,0,2024-07-31,2024-07-31,北浜ＧＲＦ株式会社,,株式会社,大阪府,大阪市中央区,北浜２丁目１番１３号,,27,128,5410041,,,,,,,2024-07-31,1,,,,,キタハマジーアールエフ,0
1259,5120001267241,新規,0,2024-07-31,2024-07-31,株式会社ＣＣＩ,,株式会社,大阪府,大阪市城東区,天王田４番３１号,,27,118,5360012,,,,,,,2024-07-31,1,,,,,シーシーアイ,0
1260,5120001267290,新規,0,2024-07-31,2024-07-31,株式会社ナイルビューティー,,株式会社,大阪府,大阪市北区,天満２丁目２番６号肥後屋ビル３Ｆ,,27,127,5300043,,,,,,,2024-07-31,1,,,,,ナイルビューティー,0
1261,5120001267324,新規,0,2024-07-31,2024-07-31,汐岸国際株式会社,,株式会社,大阪府,大阪市浪速区,元町１丁目１１番１０－８０１号,,27,111,5560016,,,,,,,2024-07-31,1,,,,,セキシコクサイ,0
1262,5120001267332,新規,0,2024-07-31,2024-07-31,ザイオニクス株式会社,,株式会社,大阪府,大阪市福島区,野田５丁目１１番３号,,27,103,5530005,,,,,,,2024-07-31,1,,,,,ザイオニクス,0
1263,5120001267340,新規,0,2024-07-31,2024-07-31,北浜コンサルティング株式会社,,株式会社,大阪府,大阪市中央区,北浜３丁目２番２５号京阪淀屋橋ビル８階,,27,128,5410041,,,,,,,2024-07-31,1,,,,,キタハマコンサルティング,0
1264,5120001267357,新規,0,2024-07-31,2024-07-31,英利株式会社,,株式会社,大阪府,大阪市平野区,瓜破東２丁目１番１２号,,27,126,5470022,,,,,,,2024-07-31,1,,,,,エイリ,0
1265,5120001267365,新規,0,2024-07-31,2024-07-31,株式会社ａｓｋ,,株式会社,大阪府,大阪市西区,本田２丁目１３番８号－第二南海ハイツ１階,,27,106,5500022,,,,,,,2024-07-31,1,,,,,アスク,0
1266,5120001267373,新規,0,2024-07-31,2024-07-31,株式会社ＲＩＳＥ,,株式会社,大阪府,枚方市,牧野阪１丁目８番１４号２階,,27,210,5731146,,,,,,,2024-07-31,1,,,,,ライズ,0
1269,5120003027197,新規,0,2024-07-31,2024-07-31,合同会社ＳＹＷ,,合同会社,大阪府,枚方市,南楠葉２丁目１１番９号,,27,210,5731105,,,,,,,2024-07-31,1,,,,,エスワイダブリュー,0
1271,5120005024457,新規,0,2024-07-31,2024-07-31,一般社団法人Ｐｏｐｐｉｎｇ　Ｓｈｏｗｅｒ　Ｗｏｒｌｄ,,その他の設立登記法人,大阪府,大阪市天王寺区,悲田院町８番２６号天王寺センターハイツ１２０３号,,27,109,5430055,,,,,,,2024-07-31,1,,,,,ポッピングシャワーワールド,0
1274,5120101070066,新規,0,2024-07-31,2024-07-31,株式会社ｇｏａｔｓ,,株式会社,大阪府,和泉市,舞町６６番地の３,,27,219,5940001,,,,,,,2024-07-31,1,,,,,ゴーツ,0
1281,5122001038300,新規,0,2024-07-31,2024-07-31,株式会社ＮＣＹ,,株式会社,大阪府,東大阪市,西石切町３丁目４－２７城戸新石切駅前ビル３０２号,,27,227,5798013,,,,,,,2024-07-31,1,,,,,エヌシーワイ,0
1282,5122001038309,新規,0,2024-07-31,2024-07-31,株式会社ＵＮＩＳＥＥＤ,,株式会社,大阪府,東大阪市,瓜生堂１丁目２２番３２号オークリッジマンション１Ｆ,,27,227,5780946,,,,,,,2024-07-31,1,,,,,ユニシード,0
1284,5130001077557,新規,0,2024-07-31,2024-07-31,株式会社恒明商事,,株式会社,京都府,京都市北区,西賀茂北川上町６８番１,,26,101,6038816,,,,,,,2024-07-31,1,,,,,コウメイショウジ,0
1285,5130001077573,新規,0,2024-07-31,2024-07-31,株式会社ＴＳＩＮＧＹＡＯ,,株式会社,京都府,京都市東山区,石泉院町３９４－４－２０５,,26,105,6050021,,,,,,,2024-07-31,1,,,,,ツィンヤオ,0
1289,5140001135280,新規,0,2024-07-31,2024-07-31,Ａｓｉａ　ｃａｐｉｔａｌ　ｈｏｌｄｉｎｇｓ株式会社,,株式会社,兵庫県,芦屋市,涼風町１２－１０,,28,206,6590036,,,,,,,2024-07-31,1,,,,,アジアキャピタルホールディングス,0
1290,5140001135289,新規,0,2024-07-31,2024-07-31,株式会社アンビルドサービス,,株式会社,兵庫県,加古川市,加古川町寺家町６０６番地,,28,210,6750066,,,,,,,2024-07-31,1,,,,,アンビルドサービス,0
1291,5140001135330,新規,0,2024-07-31,2024-07-31,株式会社ＣＯＲＳＡ,,株式会社,兵庫県,神戸市灘区,篠原北町２丁目１番９号,,28,102,6570068,,,,,,,2024-07-31,1,,,,,コルサ,0
1292,5140001135339,新規,0,2024-07-31,2024-07-31,株式会社ＳＫＲ,,株式会社,兵庫県,明石市,大久保町ゆりのき通２丁目３番５号オーズタウンサウススクエア３番館１０３号,,28,203,6740068,,,,,,,2024-07-31,1,,,,,エスケーアール,0
1294,5140005027169,新規,0,2024-07-31,2024-07-31,一般社団法人神蓮華,,その他の設立登記法人,兵庫県,神戸市東灘区,魚崎南町４丁目１６番４号,,28,101,6580025,,,,,,,2024-07-31,1,,,,,カミレンゲ,0
1295,5150001027452,新規,0,2024-07-31,2024-07-31,株式会社なつめ農園,,株式会社,奈良県,五條市,中町３９０番地,,29,207,6370061,,,,,,,2024-07-31,1,,,,,ナツメノウエン,0
1296,5150001027460,新規,0,2024-07-31,2024-07-31,株式会社清光ランジェリー,,株式会社,奈良県,桜井市,大字三輪６５番地の６,,29,206,6330001,,,,,,,2024-07-31,1,,,,,セイコウランジェリー,0
1297,5160001026123,新規,0,2024-07-31,2024-07-31,株式会社ＬＩＮＫ,,株式会社,滋賀県,草津市,南草津プリムタウン４丁目１番地５,,25,206,5250068,,,,,,,2024-07-31,1,,,,,リンク,0
1298,5160001026131,新規,0,2024-07-31,2024-07-31,株式会社ライズ,,株式会社,滋賀県,大津市,京町４丁目５番１３号澤甚本館ビル,,25,201,5200044,,,,,,,2024-07-31,1,,,,,ライズ,0
1299,5160003003252,新規,0,2024-07-31,2024-07-31,ＰＯＲＴＡＬｄｅポルトガル合同会社,,合同会社,滋賀県,大津市,大平１丁目１５番１７号,,25,201,5200867,,,,,,,2024-07-31,1,,,,,ポルタルデポルトガル,0
1301,5170001018243,新規,0,2024-07-31,2024-07-31,株式会社ＯＮＥａｎｄＯＮＬＹ,,株式会社,和歌山県,御坊市,野口１１６７番地,,30,205,6440031,,,,,,,2024-07-31,1,,,,,ワンアンドオンリー,0
1313,5180001162536,新規,0,2024-07-31,2024-07-31,株式会社ピクトグラム,,株式会社,愛知県,名古屋市西区,児玉２丁目８番２０号（１号）,,23,104,4510066,,,,,,,2024-07-31,1,,,,,ピクトグラム,0
1316,5180003027150,新規,0,2024-07-31,2024-07-31,合同会社たかなび,,合同会社,愛知県,名古屋市中川区,上高畑１丁目１３番地,,23,110,4540873,,,,,,,2024-07-31,1,,,,,タカナビ,0
1324,5190001031517,新規,0,2024-07-31,2024-07-31,株式会社Ｏｆｆｓｈｏｒｅ　Ｆｒｅａｋ,,株式会社,三重県,鈴鹿市,稲生西３丁目９番３１号,,24,207,5100204,,,,,,,2024-07-31,1,,,,,オフショアフリーク,0
1325,5190001031525,新規,0,2024-07-31,2024-07-31,株式会社Ｃｒｅｓｃｉｔａ,,株式会社,三重県,桑名市,大字矢田１２０番地３,,24,205,5110821,,,,,,,2024-07-31,1,,,,,クレシタ,0
1327,5210001019848,新規,0,2024-07-31,2024-07-31,株式会社はぴねすせれくと,,株式会社,福井県,坂井市,坂井町宮領２９－１２－２,,18,210,9190512,,,,,,,2024-07-31,1,,,,,ハピネスセレクト,0
1328,5210001019856,新規,0,2024-07-31,2024-07-31,千羚幸建株式会社,,株式会社,福井県,勝山市,旭町２丁目３番４５号,,18,206,9110803,,,,,,,2024-07-31,1,,,,,センリョウコウケン,0
1329,5210003001820,新規,0,2024-07-31,2024-07-31,ｋｅｍｕｒｉｙａ　ｊａｐａｎ合同会社,,合同会社,福井県,福井市,大手２丁目７－２３,,18,201,9100005,,,,,,,2024-07-31,1,,,,,ケムリヤジャパン,0
1333,5230003002263,新規,0,2024-07-31,2024-07-31,合同会社白百合企画,,合同会社,富山県,氷見市,島尾６６４番地６,,16,205,9350032,,,,,,,2024-07-31,1,,,,,シラユリキカク,0
1337,5240001063595,新規,0,2024-07-31,2024-07-31,株式会社きのえたつ,,株式会社,広島県,福山市,多治米町２丁目２１番３号,,34,207,7200824,,,,,,,2024-07-31,1,,,,,キノエタツ,0
1338,5240001063620,新規,0,2024-07-31,2024-07-31,株式会社慧雅商事,,株式会社,広島県,広島市中区,田中町４－２１田中ビル,,34,101,7300026,,,,,,,2024-07-31,1,,,,,エミショウジ,0
1341,5250001020752,新規,0,2024-07-31,2024-07-31,中村興業株式会社,,株式会社,山口県,長門市,仙崎１３５８番地２,,35,211,7594106,,,,,,,2024-07-31,1,,,,,ナカムラコウギョウ,0
1342,5260001039305,新規,0,2024-07-31,2024-07-31,株式会社林重機,,株式会社,岡山県,新見市,神郷下神代４４４３番地１,,33,210,7193611,,,,,,,2024-07-31,1,,,,,ハヤシジュウキ,0
1343,5260001039321,新規,0,2024-07-31,2024-07-31,株式会社勇心,,株式会社,岡山県,倉敷市,鶴の浦３丁目３番６－１２号,,33,202,7128007,,,,,,,2024-07-31,1,,,,,ユウシン,0
1344,5280001009223,新規,0,2024-07-31,2024-07-31,株式会社アモネスフィア,,株式会社,島根県,出雲市,斐川町阿宮２１４番地１,,32,203,6990611,,,,,,,2024-07-31,1,,,,,アモネスフィア,0
1348,5290001106416,新規,0,2024-07-31,2024-07-31,株式会社Ａｒｉ．ａｎｄ,,株式会社,福岡県,福岡市博多区,博多駅前２丁目１９－１７トーカン博多第５ビル３１２号室,,40,132,8120011,,,,,,,2024-07-31,1,,,,,アリアンド,0
1349,5290001106531,新規,0,2024-07-31,2024-07-31,ストーク商事株式会社,,株式会社,福岡県,福岡市中央区,渡辺通５丁目１番２６号,,40,133,8100004,,,,,,,2024-07-31,1,,,,,ストークショウジ,0
1354,5290801030732,新規,0,2024-07-31,2024-07-31,明星企画株式会社,,株式会社,福岡県,北九州市門司区,田野浦３丁目５番６号,,40,101,8010803,,,,,,,2024-07-31,1,,,,,ミョウジョウキカク,0
1357,5320001020621,新規,0,2024-07-31,2024-07-31,株式会社鶏小舎,,株式会社,大分県,大分市,大字三芳１５２３番地の２ＪＧＭヴェルデにじが丘弐番館４０１,,44,201,8700030,,,,,,,2024-07-31,1,,,,,トリゴヤ,0
1364,5340001026682,新規,0,2024-07-31,2024-07-31,あまみ土地建物株式会社,,株式会社,鹿児島県,奄美市,名瀬大字大熊１３２９番地４（２）,,46,222,8940001,,,,,,,2024-07-31,1,,,,,アマミトチタテモノ,0
1365,5360003014188,新規,0,2024-07-31,2024-07-31,合同会社紡,,合同会社,沖縄県,島尻郡南風原町,字宮平６番地,,47,350,9011104,,,,,,,2024-07-31,1,,,,,ツムグ,0
1366,5370001051488,新規,0,2024-07-31,2024-07-31,Ｔｈｇｉｌ　Ｔｏｐｓ株式会社,,株式会社,宮城県,仙台市青葉区,北山３丁目８番１９号,,04,101,9810931,,,,,,,2024-07-31,1,,,,,シギルトップス,0
1368,5370003006696,新規,0,2024-07-31,2024-07-31,ＵＪＵＡＧＵ　ＴＲＡＤＩＮＧ合同会社,,合同会社,宮城県,黒川郡大衡村,大瓜字西沢２２６－１,,04,424,9813601,,,,,,,2024-07-31,1,,,,,ウジュアグトレーディング,0
1382,5430001092336,新規,0,2024-07-31,2024-07-31,株式会社ＺＩＶＡ　ＳＰＡＣＥ,,株式会社,北海道,江別市,文京台９番地の１８,,01,217,0690833,,,,,,,2024-07-31,1,,,,,ジーヴァスペース,0
1383,5430001092344,新規,0,2024-07-31,2024-07-31,グラッド・ヒューマン株式会社,,株式会社,北海道,札幌市中央区,南八条西１２丁目２番７－７０２号,,01,101,0640808,,,,,,,2024-07-31,1,,,,,グラッドヒューマン,0
1384,5430001092360,新規,0,2024-07-31,2024-07-31,株式会社Ｏｎｅ　Ｓｍｉｌｅ,,株式会社,北海道,札幌市中央区,南三条西３丁目５番地２都ビル,,01,101,0600063,,,,,,,2024-07-31,1,,,,,ワンスマイル,0
1395,5460001005930,新規,0,2024-07-31,2024-07-31,株式会社泰和商事,,株式会社,北海道,白糠郡白糠町,和天別１３６番地５,,01,668,0880351,,,,,,,2024-07-31,1,,,,,ヤスカズショウジ,0
1396,5470003002685,新規,0,2024-07-31,2024-07-31,ＮＭＡＳＯＯＤ　Ｔｒａｄｉｎｇ合同会社,,合同会社,香川県,高松市,飯田町２１３番地９,,37,201,7618033,,,,,,,2024-07-31,1,,,,,エヌマスードトレーディング,0
1403,6010001246957,新規,0,2024-07-31,2024-07-31,株式会社東京交通,,株式会社,東京都,文京区,湯島３丁目１３番８号湯島不二ビル７０２,,13,105,1130034,,,,,,,2024-07-31,1,,,,,トウキョウコウツウ,0
1407,6010003044459,新規,0,2024-07-31,2024-07-31,エネストジャパン４合同会社,,合同会社,東京都,千代田区,四番町２番地１２,,13,101,1020081,,,,,,,2024-07-31,1,,,,,エネストジャパンヨン,0
1416,6010401183833,新規,0,2024-07-31,2024-07-31,Ｋ．Ｓ．Ｐ株式会社,,株式会社,東京都,港区,港南２丁目１６番１号,,13,103,1080075,,,,,,,2024-07-31,1,,,,,ケーエスピー,0
1417,6010401184154,新規,0,2024-07-31,2024-07-31,株式会社Ｄｅｓａｆｉｏ,,株式会社,東京都,港区,六本木４丁目５番１１号ＳＩＸ４階,,13,103,1060032,,,,,,,2024-07-31,1,,,,,デサフィオ,0
1418,6010401184229,新規,0,2024-07-31,2024-07-31,ｙｏｈａｋｕ株式会社,,株式会社,東京都,港区,南青山３丁目１－３６青山丸竹ビル６Ｆ,,13,103,1070062,,,,,,,2024-07-31,1,,,,,ヨハク,0
1424,6010701046327,新規,0,2024-07-31,2024-07-31,ＮＯＳＩＤＥ株式会社,,株式会社,東京都,品川区,戸越４丁目８番１４号ＡＩＦＬＡＴ品川戸越４０１,,13,109,1420041,,,,,,,2024-07-31,1,,,,,ノーサイド,0
1429,6010903009247,新規,0,2024-07-31,2024-07-31,Ｂｅｓｔ　Ｏｎｌｉｎｅ合同会社,,合同会社,東京都,世田谷区,世田谷４丁目４番２２号クラン世田谷１０５,,13,112,1540017,,,,,,,2024-07-31,1,,,,,ベストオンライン,0
1430,6011001163721,新規,0,2024-07-31,2024-07-31,スコーピオン出版株式会社,,株式会社,東京都,渋谷区,神宮前３丁目１４番１７号神宮苑２０１号室,,13,113,1500001,,,,,,,2024-07-31,1,,,,,スコーピオンシュッパン,0
1431,6011001163738,新規,0,2024-07-31,2024-07-31,株式会社シンクアライク,,株式会社,東京都,目黒区,目黒本町４丁目８番７号,,13,110,1520002,,,,,,,2024-07-31,1,,,,,シンクアライク,0
1432,6011001163779,新規,0,2024-07-31,2024-07-31,株式会社ｚａｉｐｈｅｒ,,株式会社,東京都,渋谷区,神宮前６丁目２５番２－７０１号,,13,113,1500001,,,,,,,2024-07-31,1,,,,,サイファー,0
1438,6011101108122,新規,0,2024-07-31,2024-07-31,株式会社設計構築チャンネル,,株式会社,東京都,新宿区,西新宿３丁目３番１３号西新宿水間ビル２Ｆ,,13,104,1600023,,,,,,,2024-07-31,1,,,,,セッケイコウチクチャンネル,0
1439,6011101108130,新規,0,2024-07-31,2024-07-31,馳軒株式会社,,株式会社,東京都,新宿区,東五軒町１－９新宿神楽坂ビジネスサロンＣ－１０,,13,104,1620813,,,,,,,2024-07-31,1,,,,,チケン,0
1440,6011101108254,新規,0,2024-07-31,2024-07-31,株式会社Ｒｕｉｍ．Ｓｔｕｄｉｏ．,,株式会社,東京都,新宿区,大久保２丁目２番１２号ＶＯＲＴ東新宿９０１,,13,104,1690072,,,,,,,2024-07-31,1,,,,,ルイムスタジオ,0
1444,6011401026305,新規,0,2024-07-31,2024-07-31,株式会社ｕｎｒｅｖｅ,,株式会社,東京都,板橋区,板橋２丁目６４－１３ＧＬＯ板橋７階,,13,119,1730004,,,,,,,2024-07-31,1,,,,,アンレーヴ,0
1457,6011801044591,新規,0,2024-07-31,2024-07-31,タンポポ株式会社,,株式会社,東京都,足立区,本木南町１１番１１号,,13,121,1230855,,,,,,,2024-07-31,1,,,,,タンポポ,0
1463,6012301014011,新規,0,2024-07-31,2024-07-31,株式会社ｊｕｎｋ,,株式会社,東京都,町田市,原町田２丁目６－１４ドミトリー原町田３０６,,13,209,1940013,,,,,,,2024-07-31,1,,,,,ジャンク,0
1464,6012401042127,新規,0,2024-07-31,2024-07-31,株式会社エスティーコーポレーション,,株式会社,東京都,調布市,上石原２丁目３９番地１６コーホハイム１Ａ,,13,208,1820035,,,,,,,2024-07-31,1,,,,,エスティーコーポレーション,0
1465,6012401042135,新規,0,2024-07-31,2024-07-31,株式会社トム財産ネットワークス,,株式会社,東京都,調布市,布田１丁目１４番地１,,13,208,1820024,,,,,,,2024-07-31,1,,,,,トムザイサンネットワークス,0
1467,6013101009473,新規,0,2024-07-31,2024-07-31,株式会社ＦＵＮＴＥＣＨ,,株式会社,東京都,福生市,大字熊川８７９番地１,,13,218,1970003,,,,,,,2024-07-31,1,,,,,ファンテック,0
1473,6020001158268,新規,0,2024-07-31,2024-07-31,株式会社カイゼンプロジェクト,,株式会社,神奈川県,横浜市神奈川区,三ツ沢南町７番１０号,,14,102,2210854,,,,,,,2024-07-31,1,,,,,カイゼンプロジェクト,0
1475,6020003026530,新規,0,2024-07-31,2024-07-31,合同会社ツタンカーメンプロジェクト,,合同会社,神奈川県,横浜市中区,新山下２丁目４番３号４階,,14,104,2310801,,,,,,,2024-07-31,1,,,,,ツタンカーメンプロジェクト,0
1482,6021003014830,新規,0,2024-07-31,2024-07-31,合同会社ＵＮａｎｄＯＮ,,合同会社,神奈川県,鎌倉市,雪ノ下４丁目４番１０－２号,,14,204,2480005,,,,,,,2024-07-31,1,,,,,ウンエンドオン,0
1486,6030003024814,新規,0,2024-07-31,2024-07-31,鎹社中合同会社,,合同会社,埼玉県,深谷市,原郷１９４１番地,,11,218,3660035,,,,,,,2024-07-31,1,,,,,カスガイシャチュウ,0
1490,6040001134721,新規,0,2024-07-31,2024-07-31,杏奈商事株式会社,,株式会社,千葉県,松戸市,秋山２６３－２０,,12,207,2702223,,,,,,,2024-07-31,1,,,,,アンナショウジ,0
1492,6040003025506,新規,0,2024-07-31,2024-07-31,合同会社昭吉,,合同会社,千葉県,四街道市,大日３３４番地３,,12,228,2840001,,,,,,,2024-07-31,1,,,,,アキヨシ,0
1494,6050001055157,新規,0,2024-07-31,2024-07-31,株式会社Ｋｏｕｆｕｋｕ　Ｉｎｔｅｒｎａｔｉｏｎａｌ,,株式会社,茨城県,古河市,柳橋字西原５１２番地６,,08,204,3060203,,,,,,,2024-07-31,1,,,,,コウフクインターナショナル,0
1495,6060001037352,新規,0,2024-07-31,2024-07-31,株式会社ＤｏｎｋＢｅｔ,,株式会社,栃木県,宇都宮市,今宮１丁目１１番２２号,,09,201,3210166,,,,,,,2024-07-31,1,,,,,ドンクベット,0
1500,6070001042013,新規,0,2024-07-31,2024-07-31,株式会社まゆ‐ごもり,,株式会社,群馬県,前橋市,日吉町２丁目１２番地１１,,10,201,3710017,,,,,,,2024-07-31,1,,,,,マユゴモリ,0
1520,6120001267249,新規,0,2024-07-31,2024-07-31,株式会社ＬｅａｒｎｉｎｇＮｅｘｔ,,株式会社,大阪府,大阪市淀川区,西中島５丁目７番７号ビジネスＶＩＰ第２新大阪ビル４０４号,00135744,27,123,5320011,,,,,,,2024-07-31,1,,,,,ラーニングネクスト,0
1521,6120001267265,新規,0,2024-07-31,2024-07-31,株式会社ＳＣＲＡＴＣＨ,,株式会社,大阪府,大阪市福島区,玉川４丁目１０－８－２Ｆ,,27,103,5530004,,,,,,,2024-07-31,1,,,,,スクラッチ,0
1522,6120001267307,新規,0,2024-07-31,2024-07-31,株式会社シェルランド,,株式会社,大阪府,大阪市北区,中津２丁目６番６－９１０号,,27,127,5310071,,,,,,,2024-07-31,1,,,,,シェルランド,0
1523,6120001267356,新規,0,2024-07-31,2024-07-31,株式会社ル・ブルジョン,,株式会社,大阪府,大阪市西区,北堀江３丁目７番２９号９０１,,27,106,5500014,,,,,,,2024-07-31,1,,,,,ルブルジョン,0
1524,6120001267372,新規,0,2024-07-31,2024-07-31,株式会社Ａｋａｌａ,,株式会社,大阪府,枚方市,岡東町２２番１２号１階,,27,210,5730032,,,,,,,2024-07-31,1,,,,,アカラ,0
1529,6120003027188,新規,0,2024-07-31,2024-07-31,合同会社ＪＯＨＮＮＹＷＯＲＫＳ,,合同会社,大阪府,大阪市北区,本庄東１丁目１８番８号ベルハイツ１－１Ｆコミュニティスペース５．６,,27,127,5310074,,,,,,,2024-07-31,1,,,,,ジョニーワークス,0
1530,6120003027196,新規,0,2024-07-31,2024-07-31,合同会社ほほえみ,,合同会社,大阪府,枚方市,楠葉丘２丁目７番１６号,,27,210,5731104,,,,,,,2024-07-31,1,,,,,ホホエミ,0
1533,6120005024456,新規,0,2024-07-31,2024-07-31,一般社団法人三方よし,,その他の設立登記法人,大阪府,大阪市中央区,船越町１丁目５番２号,,27,128,5400036,,,,,,,2024-07-31,1,,,,,サンポウヨシ,0
1540,6130001077556,新規,0,2024-07-31,2024-07-31,Ｍｏｔｔａｉｎａｉ株式会社,,株式会社,京都府,京都市伏見区,向島東定請２９番地１,,26,109,6128155,,,,,,,2024-07-31,1,,,,,モッタイナイ,0
1541,6130001077572,新規,0,2024-07-31,2024-07-31,株式会社ワールドピース,,株式会社,京都府,京都市下京区,中堂寺粟田町９３番地ＫＲＰ６号館,,26,106,6008815,,,,,,,2024-07-31,1,,,,,ワールドピース,0
1551,6140001135189,新規,0,2024-07-31,2024-07-31,タイ貿易株式会社,,株式会社,兵庫県,神戸市東灘区,魚崎南町５丁目５番１１－２０１号,,28,101,6580025,,,,,,,2024-07-31,1,,,,,タイボウエキ,0
1552,6140001135271,新規,0,2024-07-31,2024-07-31,株式会社５‐ＨＴ,,株式会社,兵庫県,尼崎市,西大物町１２番６６－５０１号,,28,202,6600827,,,,,,,2024-07-31,1,,,,,ファイヴハイフンエイチティー,0
1554,6140003020851,新規,0,2024-07-31,2024-07-31,合同会社そとねる,,合同会社,兵庫県,加古川市,加古川町溝之口４０８番地の２,,28,210,6750064,,,,,,,2024-07-31,1,,,,,ソトネル,0
1559,6170001018234,新規,0,2024-07-31,2024-07-31,株式会社クレアプラス,,株式会社,和歌山県,和歌山市,平井字西前島１０８番地７,,30,201,6408442,,,,,,,2024-07-31,1,,,,,クレアプラス,0
1560,6170001018242,新規,0,2024-07-31,2024-07-31,株式会社廣本工務店,00135737,株式会社,和歌山県,和歌山市,吉原７４１番地３,,30,201,6400331,,,,,,,2024-07-31,1,,,,,ヒロモトコウムテン,0
1571,6180001162519,新規,0,2024-07-31,2024-07-31,株式会社Ｉ．Ｔ　ＭＯＴＯＲＩＮＧ,,株式会社,愛知県,一宮市,浅野字大西２１番地,,23,203,4910871,,,,,,,2024-07-31,1,,,,,アイティーモータリング,0
1572,6180001162543,新規,0,2024-07-31,2024-07-31,株式会社ＢＩＯ,,株式会社,愛知県,春日井市,二子町１丁目５－８二子山キャッスル,,23,206,4860955,,,,,,,2024-07-31,1,,,,,ビオ,0
1573,6180001162601,新規,0,2024-07-31,2024-07-31,サーキュラーグロウス株式会社,,株式会社,愛知県,東海市,浅山３丁目１２３番地,,23,222,4760006,,,,,,,2024-07-31,1,,,,,サーキュラーグロウス,0
1574,6180001162683,新規,0,2024-07-31,2024-07-31,株式会社Ｖｉｔａ　Ｂｒｉｌｌａｎｔｅ,,株式会社,愛知県,名古屋市中区,大須４丁目９番１号（ラシュレ大須３０５号）,,23,106,4600011,,,,,,,2024-07-31,1,,,,,ヴィータブリランテ,0
1579,6180003027125,新規,0,2024-07-31,2024-07-31,合同会社ＴＦＴ,,合同会社,愛知県,名古屋市中区,錦３丁目１番１４号,,23,106,4600003,,,,,,,2024-07-31,1,,,,,ティーエフティー,0
1580,6180003027141,新規,0,2024-07-31,2024-07-31,合同会社ファクトリーサービス山田,,合同会社,愛知県,名古屋市名東区,猪子石１丁目２８１８の４,,23,115,4650021,,,,,,,2024-07-31,1,,,,,ファクトリーサービスヤマダ,0
1582,6180301038914,新規,0,2024-07-31,2024-07-31,豊橋ネクストパーク株式会社,,株式会社,愛知県,豊橋市,花田一番町１７７番地,,23,201,4418013,,,,,,,2024-07-31,1,,,,,トヨハシネクストパーク,0
1589,6200003006448,新規,0,2024-07-31,2024-07-31,合同会社Ｇｏｏｄ　Ｎｅｗｓ　Ｆｏｏｄ　Ｆａｃｔｏｒｙ,,合同会社,岐阜県,岐阜市,若松町１４番地,,21,201,5008089,,,,,,,2024-07-31,1,,,,,グッドニュースフードファクトリー,0
1592,6220001026124,新規,0,2024-07-31,2024-07-31,株式会社黒木総業,,株式会社,石川県,小松市,矢田野町ヘ９６番地２,,17,203,9230342,,,,,,,2024-07-31,1,,,,,クロキソウギョウ,0
1595,6220003003781,新規,0,2024-07-31,2024-07-31,合同会社つなぐ,,合同会社,石川県,能美市,東任田町ニ３９番地,,17,211,9231122,,,,,,,2024-07-31,1,,,,,ツナグ,0
1602,6240001063594,新規,0,2024-07-31,2024-07-31,株式会社Ｔ‐Ｌｉｆｅ,,株式会社,広島県,広島市西区,己斐大迫２丁目４２－９Ｃ棟１０２,,34,104,7330816,,,,,,,2024-07-31,1,,,,,ティーライフ,0
1603,6240001063603,新規,0,2024-07-31,2024-07-31,株式会社ＬｉｎｋＴｈ,,株式会社,広島県,広島市中区,十日市町１丁目１番２６号,,34,101,7300805,,,,,,,2024-07-31,1,,,,,リンクス,0
1604,6240003006782,新規,0,2024-07-31,2024-07-31,合同会社ｍ．ｔ　ｆｉｒｓｔ,,合同会社,広島県,広島市東区,馬木８丁目５２４番地３,,34,102,7320031,,,,,,,2024-07-31,1,,,,,エムティーファースト,0
1607,6260001039304,新規,0,2024-07-31,2024-07-31,株式会社ｍｏｎｉｑｕｅ,,株式会社,岡山県,岡山市北区,奉還町３丁目９番５号,,33,101,7000026,,,,,,,2024-07-31,1,,,,,モニーク,0
1608,6260003004834,新規,0,2024-07-31,2024-07-31,合同会社ｓａｌｏｎ　ｎｉｃｏ,,合同会社,岡山県,瀬戸内市,長船町福岡１１２２番地３,,33,212,7014265,,,,,,,2024-07-31,1,,,,,サロンニコ,0
1610,6280003001870,新規,0,2024-07-31,2024-07-31,合同会社てのひら,,合同会社,島根県,隠岐郡隠岐の島町,西町吉田の三１２番地,,32,528,6850014,,,,,,,2024-07-31,1,,,,,テノヒラ,0
1612,6290001106563,新規,0,2024-07-31,2024-07-31,株式会社九州アートセンター,,株式会社,福岡県,福岡市中央区,梅光園団地２番８０１号,,40,133,8100036,,,,,,,2024-07-31,1,,,,,キュウシュウアートセンター,0
1619,6290003015606,新規,0,2024-07-31,2024-07-31,ＧＯＧＯＺ合同会社,,合同会社,福岡県,福岡市博多区,博多駅前１丁目２３番２号ＰａｒｋＦｒｏｎｔ博多駅前１丁目５Ｆ－Ｂ,,40,132,8120011,,,,,,,2024-07-31,1,,,,,ゴゴス,0
1620,6290801030731,新規,0,2024-07-31,2024-07-31,株式会社秋山自動車,,株式会社,福岡県,中間市,大字中底井野１１６４番地５０,,40,215,8090002,,,,,,,2024-07-31,1,,,,,アキヤマジドウシャ,0
1621,6290801030748,新規,0,2024-07-31,2024-07-31,株式会社ＢＯＴＡＮＩＣＡＬ　ＳＴＹＬＥ,,株式会社,福岡県,豊前市,大字鳥越７６６－８,,40,214,8280012,,,,,,,2024-07-31,1,,,,,ボタニカルスタイル,0
1622,6290803004799,新規,0,2024-07-31,2024-07-31,合同会社ＹＯＳＨＩＭＩ,,合同会社,福岡県,北九州市八幡西区,松寿山１丁目５番１１号,,40,109,8070855,,,,,,,2024-07-31,1,,,,,ヨシミ,0
1623,6300001013849,新規,0,2024-07-31,2024-07-31,株式会社サカタ,,株式会社,佐賀県,佐賀市,高木瀬町大字長瀬９４９番地８,,41,201,8490917,,,,,,,2024-07-31,1,,,,,サカタ,0
1625,6320001020612,新規,0,2024-07-31,2024-07-31,株式会社さいかち,,株式会社,大分県,別府市,幸町４－２８,,44,202,8740907,,,,,,,2024-07-31,1,,,,,サイカチ,0
1626,6320001020620,新規,0,2024-07-31,2024-07-31,株式会社由祥,,株式会社,大分県,大分市,大字鴛野８８６番地の９２,,44,201,8701121,,,,,,,2024-07-31,1,,,,,ユウショウ,0
1627,6320001020629,新規,0,2024-07-31,2024-07-31,株式会社ハウスドクターズホールディングス,,株式会社,大分県,大分市,王子西町９番４０号レジーナビル１階,,44,201,8700008,,,,,,,2024-07-31,1,,,,,ハウスドクターズホールディングス,0
1628,6330005010815,新規,0,2024-07-31,2024-07-31,一般社団法人藤間生大希望の歴史学記念館,,その他の設立登記法人,熊本県,合志市,栄２１２７番地１６４,,43,216,8611113,,,,,,,2024-07-31,1,,,,,トウマセイタキボウノレキシガクキネンカン,0
1630,6340001002419,新規,0,2024-07-31,2024-07-31,そうしんファイナンス株式会社,,株式会社,鹿児島県,鹿児島市,泉町３番１１号,,46,201,8920822,,,,,,,2024-07-31,1,,,,,ソウシンファイナンス,0
1631,6340001026673,新規,0,2024-07-31,2024-07-31,株式会社Ｌｏｋ,,株式会社,鹿児島県,鹿児島市,坂元町３２６８,,46,201,8920862,,,,,,,2024-07-31,1,,,,,ロック,0
1632,6340001026681,新規,0,2024-07-31,2024-07-31,株式会社ナカムラワークス,,株式会社,鹿児島県,鹿児島市,山田町５０９番地１,,46,201,8910104,,,,,,,2024-07-31,1,,,,,ナカムラワークス,0
1635,6350001019107,新規,0,2024-07-31,2024-07-31,株式会社どこでも訪問看護ステーション,,株式会社,宮崎県,宮崎市,高千穂通２丁目４番３号－２０３号,,45,201,8800812,,,,,,,2024-07-31,1,,,,,ドコデモホウモンカンゴステーション,0
1637,6350003004718,新規,0,2024-07-31,2024-07-31,合同会社ｋｉｒａｒｉ,,合同会社,宮崎県,延岡市,土々呂町４丁目４１９６番地３,,45,203,8890513,,,,,,,2024-07-31,1,,,,,キラリ,0
1640,6360001034006,新規,0,2024-07-31,2024-07-31,株式会社琉球Ｌｏｖｅｒｓ,,株式会社,沖縄県,中頭郡北谷町,字宮城１番地６６７Ｈ－２２,,47,326,9040113,,,,,,,2024-07-31,1,,,,,リュウキュウラバーズ,0
1641,6360001034014,新規,0,2024-07-31,2024-07-31,株式会社未来コンサルタント,,株式会社,沖縄県,糸満市,字賀数３９０－１番地,,47,210,9010313,,,,,,,2024-07-31,1,,,,,ミライコンサルタント,0
1647,6360003014179,新規,0,2024-07-31,2024-07-31,沖縄コミュニティ合同会社,,合同会社,沖縄県,那覇市,壺屋２丁目１番３０号,,47,201,9020065,,,,,,,2024-07-31,1,,,,,オキナワコミュニティ,0
1648,6360005007081,新規,0,2024-07-31,2024-07-31,社会福祉法人ともいき福祉会,,その他の設立登記法人,沖縄県,国頭郡金武町,字金武１０７２２番地,,47,314,9041201,,,,,,,2024-07-31,1,,,,,トモイキフクシカイ,0
1654,6380001034697,新規,0,2024-07-31,2024-07-31,株式会社ＣＭＫ,,株式会社,福島県,南相馬市,小高区関場２丁目３３番地の４,,07,212,9792113,,,,,,,2024-07-31,1,,,,,シーエムケー,0
1663,6430001092343,新規,0,2024-07-31,2024-07-31,株式会社真陽設備,,株式会社,北海道,札幌市北区,篠路九条２丁目１１番１０号,,01,102,0028029,,,,,,,2024-07-31,1,,,,,シンヨウセツビ,0
1668,6430003016606,新規,0,2024-07-31,2024-07-31,グロウヘア合同会社,,合同会社,北海道,札幌市東区,北十三条東１丁目２番２０－２０２号,,01,103,0650013,,,,,,,2024-07-31,1,,,,,グロウヘア,0
1669,6430003016630,新規,0,2024-07-31,2024-07-31,合同会社フィールドプランニング,,合同会社,北海道,札幌市東区,丘珠町６３８番地１,,01,103,0070880,,,,,,,2024-07-31,1,,,,,フィールドプランニング,0
1673,6470003002684,新規,0,2024-07-31,2024-07-31,ミコト電機工業合同会社,,合同会社,香川県,高松市,西の丸町５－１９西の丸ビル２階,,37,201,7600021,,,,,,,2024-07-31,1,,,,,ミコトデンキコウギョウ,0
1675,6490003001916,新規,0,2024-07-31,2024-07-31,合同会社ＫＷＯＳ,,合同会社,高知県,高知市,廿代町１５－１９,,39,201,7800843,,,,,,,2024-07-31,1,,,,,ケイウォス,0
1681,7010001247095,新規,0,2024-07-31,2024-07-31,八栄開発株式会社,,株式会社,東京都,千代田区,神田駿河台２丁目５番地５,,13,101,1010062,,,,,,,2024-07-31,1,,,,,ハチエイカイハツ,0
1686,7010103002398,新規,0,2024-07-31,2024-07-31,合同会社ＯＮＷＡ,,合同会社,東京都,八王子市,小宮町９５５番地,,13,201,1920031,,,,,,,2024-07-31,1,,,,,オンワ,0
1692,7010403033143,新規,0,2024-07-31,2024-07-31,合同会社Ｃｏｎｃｏｒｄｉａ　ＬＬＣ,,合同会社,東京都,港区,南青山３丁目１番３６号青山丸竹ビル６Ｆ,,13,103,1070062,,,,,,,2024-07-31,1,,,,,コンコルディアエルエルシー,0
1703,7010601065657,新規,0,2024-07-31,2024-07-31,株式会社ｗｉｍｐｙ,,株式会社,東京都,墨田区,両国４丁目３２－１９高島マンション３０５,,13,107,1300026,,,,,,,2024-07-31,1,,,,,ウィンピー,0
1705,7010603010990,新規,0,2024-07-31,2024-07-31,Ｇｏｏｄ　Ｌｕｃｋ　Ｆｏｒｅｖｅｒ合同会社,,合同会社,東京都,江東区,大島４丁目７番１３－３０８号,,13,108,1360072,,,,,,,2024-07-31,1,,,,,グッドラックフォーエバー,0
1709,7011001163654,新規,0,2024-07-31,2024-07-31,株式会社ＧＨＯＳＴ,,株式会社,東京都,渋谷区,道玄坂１丁目１０番８号,,13,113,1500043,,,,,,,2024-07-31,1,,,,,ゴースト,0
1711,7011003019680,新規,0,2024-07-31,2024-07-31,ＨＳＫ　Ｌｉｖｉｎｇ合同会社,,合同会社,東京都,渋谷区,渋谷４丁目２－６クレマージュ南青山５０３,,13,113,1500002,,,,,,,2024-07-31,1,,,,,エイチエスケーリビング,0
1714,7011101108261,新規,0,2024-07-31,2024-07-31,株式会社ハウセス,,株式会社,東京都,新宿区,北新宿１丁目３５番１４－３０１号,,13,104,1690074,,,,,,,2024-07-31,1,,,,,ハウセス,0
1715,7011103014755,新規,0,2024-07-31,2024-07-31,合同会社Ｙ’ｓ‐ｓｕｐｐｏｒｔ,,合同会社,東京都,新宿区,西新宿６丁目２５番８－７０６号,,13,104,1600023,,,,,,,2024-07-31,1,,,,,ワイズサポート,0
1719,7011603004405,新規,0,2024-07-31,2024-07-31,合同会社ｂｅｔａ,,合同会社,東京都,練馬区,石神井町３丁目２７番３号三幸ビル１階,,13,120,1770041,,,,,,,2024-07-31,1,,,,,ベータ,0
1720,7011701027497,新規,0,2024-07-31,2024-07-31,株式会社セブン,,株式会社,東京都,江戸川区,篠崎町５丁目１４番１０－１００４号,,13,123,1330061,,,,,,,2024-07-31,1,,,,,セブン,0
1725,7012401042142,新規,0,2024-07-31,2024-07-31,株式会社ウィリングエステート,,株式会社,東京都,武蔵野市,境５丁目１７番２０号,,13,203,1800022,,,,,,,2024-07-31,1,,,,,ウィリングエステート,0
1730,7012703003057,新規,0,2024-07-31,2024-07-31,合同会社マナオラナ,,合同会社,東京都,小平市,仲町２８０,,13,211,1870042,,,,,,,2024-07-31,1,,,,,マナオラナ,0
1736,7020001158267,新規,0,2024-07-31,2024-07-31,山崎建設株式会社,,株式会社,神奈川県,横浜市戸塚区,秋葉町４８７－１０５,,14,110,2450052,,,,,,,2024-07-31,1,,,,,ヤマザキケンセツ,0
1742,7021001082853,新規,0,2024-07-31,2024-07-31,ＳＨＩＭＡ建設株式会社,,株式会社,神奈川県,藤沢市,石川３丁目２２番地の７オンコールビル２０２,,14,205,2520815,,,,,,,2024-07-31,1,,,,,シマケンセツ,0
1743,7021001082861,新規,0,2024-07-31,2024-07-31,株式会社ダブルアクト,,株式会社,神奈川県,逗子市,新宿５丁目２番８号シーサイドコート逗子海岸ウェリスステージ２０８,,14,208,2490007,,,,,,,2024-07-31,1,,,,,ダブルアクト,0
1762,7080101024917,新規,0,2024-07-31,2024-07-31,Ｓｏｕｌｔｏｕｒｉｓｔ株式会社,,株式会社,静岡県,熱海市,咲見町１番１号,,22,205,4130019,,,,,,,2024-07-31,1,,,,,ソウルツーリスト,0
1769,7110001038600,新規,0,2024-07-31,2024-07-31,株式会社菊池屋,,株式会社,新潟県,新潟市中央区,西堀通４番町８１４番地２,,15,103,9518061,,,,,,,2024-07-31,1,,,,,キクチヤ,0
1770,7110001038609,新規,0,2024-07-31,2024-07-31,株式会社大輝ジェネラルスタッフコンサルティング,,株式会社,新潟県,新発田市,池ノ端８３０番地,,15,206,9592321,,,,,,,2024-07-31,1,,,,,ダイキジェネラルスタッフコンサルティング,0
1781,7120001266877,新規,0,2024-07-31,2024-07-31,緑星能源株式会社,,株式会社,大阪府,大阪市旭区,生江３丁目４－２２,,27,117,5350004,,,,,,,2024-07-31,1,,,,,ミドリボシノウゲン,0
1782,7120001267256,新規,0,2024-07-31,2024-07-31,株式会社野崎ボーリング,00135747,株式会社,大阪府,門真市,沖町８番４０号,,27,223,5710022,,,,,,,2024-07-31,1,,,,,ノザキボーリング,0
1783,7120001267264,新規,0,2024-07-31,2024-07-31,株式会社ナシロＣ２Ｓ,,株式会社,大阪府,門真市,沖町１２番８号,,27,223,5710022,,,,,,,2024-07-31,1,,,,,ナシロシーツーエス,0
1784,7120001267347,新規,0,2024-07-31,2024-07-31,株式会社ＭＲＣ,,株式会社,大阪府,大阪市北区,鶴野町３－９ザ・梅田タワー３９０７号,,27,127,5300014,,,,,,,2024-07-31,1,,,,,エムアールシー,0
1786,7120003027204,新規,0,2024-07-31,2024-07-31,合同会社ＴＡＳＳ,,合同会社,大阪府,大阪市天王寺区,上汐３丁目２－１６－２０６号,,27,109,5430002,,,,,,,2024-07-31,1,,,,,タス,0
1787,7120003027212,新規,0,2024-07-31,2024-07-31,恵明合同会社,,合同会社,大阪府,大阪市中央区,常盤町１丁目１－９－３０５,,27,128,5400028,,,,,,,2024-07-31,1,,,,,ケイメイ,0
1790,7120101070080,新規,0,2024-07-31,2024-07-31,Ｉ・Ｋ株式会社,,株式会社,大阪府,堺市堺区,神石市之町１５番３号,,27,141,5900813,,,,,,,2024-07-31,1,,,,,アイケイ,0
1794,7120901049522,新規,0,2024-07-31,2024-07-31,アシアトウアン株式会社,,株式会社,大阪府,吹田市,青山台３丁目３４番４号,,27,205,5650875,,,,,,,2024-07-31,1,,,,,アシアトウアン,0
1798,7120903005275,新規,0,2024-07-31,2024-07-31,合同会社ＢＩＶＯＵＡＣ,,合同会社,大阪府,三島郡島本町,高浜２丁目２４番１号,,27,301,6180012,,,,,,,2024-07-31,1,,,,,ビバーク,0
1799,7120903005283,新規,0,2024-07-31,2024-07-31,合同会社Ｎ．オウル,,合同会社,大阪府,豊中市,西泉丘１丁目１５番１号アリストクオーレ緑地公園４０７号室,,27,203,5610862,,,,,,,2024-07-31,1,,,,,エヌドットオウル,0
1801,7122001038315,新規,0,2024-07-31,2024-07-31,株式会社菊太屋米穀店,,株式会社,大阪府,東大阪市,長田西６丁目１番１号,,27,227,5770016,,,,,,,2024-07-31,1,,,,,キクタヤベイコクテン,0
1805,7130001077605,新規,0,2024-07-31,2024-07-31,株式会社エピックグロウ,,株式会社,京都府,京都市中京区,中島町７８明治屋京都ビル８０２,,26,104,6048004,,,,,,,2024-07-31,1,,,,,エピックグロウ,0
1808,7140001135287,新規,0,2024-07-31,2024-07-31,リマースフル株式会社,,株式会社,兵庫県,神戸市中央区,海岸通３丁目１番１号,,28,110,6500024,,,,,,,2024-07-31,1,,,,,リマースフル,0
1810,7160001026121,新規,0,2024-07-31,2024-07-31,株式会社Ｄｒｅａｍ８８,,株式会社,滋賀県,大津市,朝日が丘１丁目１６－３６,,25,201,5200052,,,,,,,2024-07-31,1,,,,,ドリームエイティエイト,0
1812,7170001018241,新規,0,2024-07-31,2024-07-31,株式会社Ｐａｗ’ｓ,,株式会社,和歌山県,和歌山市,狐島６１５番地８９,,30,201,6408412,,,,,,,2024-07-31,1,,,,,パウズ,0
1823,7180001162526,新規,0,2024-07-31,2024-07-31,株式会社ＫＭフーズ企画,,株式会社,愛知県,名古屋市東区,葵１丁目２５番１号,,23,102,4610004,,,,,,,2024-07-31,1,,,,,ケーエムフーズキカク,0
1824,7180001162559,新規,0,2024-07-31,2024-07-31,株式会社オキガルニドウゾ,,株式会社,愛知県,春日井市,割塚町１９４,,23,206,4860824,,,,,,,2024-07-31,1,,,,,オキガルニドウゾ,0
1825,7180001162591,新規,0,2024-07-31,2024-07-31,株式会社Ｈａｍａｌｕ,,株式会社,愛知県,名古屋市中村区,名駅４丁目２４番５号第２森ビル４０１,,23,105,4500002,,,,,,,2024-07-31,1,,,,,ハマル,0
1826,7180001162609,新規,0,2024-07-31,2024-07-31,幸徳商事株式会社,,株式会社,愛知県,清須市,春日宮重町２２５番地,,23,233,4520961,,,,,,,2024-07-31,1,,,,,コウトクショウジ,0
1827,7180001162617,新規,0,2024-07-31,2024-07-31,株式会社Ｍ’ｓクリエイト,,株式会社,愛知県,名古屋市中川区,尾頭橋３丁目１０番１０号,,23,110,4540012,,,,,,,2024-07-31,1,,,,,エムズクリエイト,0
1831,7180003027116,新規,0,2024-07-31,2024-07-31,合同会社ＳＵＧＩＵＲＡ,,合同会社,愛知県,名古屋市中村区,名駅４丁目２４番５号第２森ビル４０１,,23,105,4500002,,,,,,,2024-07-31,1,,,,,スギウラ,0
1833,7180301038896,新規,0,2024-07-31,2024-07-31,株式会社五城,,株式会社,愛知県,豊田市,小坂本町２丁目４３番地１,,23,211,4710034,,,,,,,2024-07-31,1,,,,,ゴジョウ,0
1834,7180301038905,新規,0,2024-07-31,2024-07-31,株式会社Ａｍｂｉｅｎｔｅ　ｃｏｍｏｄｏ,,株式会社,愛知県,豊田市,御立町８丁目３０番地１,,23,211,4710811,,,,,,,2024-07-31,1,,,,,アンビエンテコモド,0
1835,7180301038913,新規,0,2024-07-31,2024-07-31,株式会社ＭＡＴＳＵＰＬＡ,,株式会社,愛知県,西尾市,米津町桜道５４番地２,,23,213,4450802,,,,,,,2024-07-31,1,,,,,マツプラ,0
1836,7190001031515,新規,0,2024-07-31,2024-07-31,天神アセットマネジメント株式会社,,株式会社,三重県,津市,垂水３０３２番地２,,24,201,5140821,,,,,,,2024-07-31,1,,,,,テンジンアセットマネジメント,0
1837,7190001031531,新規,0,2024-07-31,2024-07-31,高尾工業株式会社,,株式会社,三重県,松阪市,松名瀬町１０１２番地１,,24,204,5150102,,,,,,,2024-07-31,1,,,,,タカオコウギョウ,0
1838,7190003004758,新規,0,2024-07-31,2024-07-31,ＳｏａｒＷｉｎｄ合同会社,,合同会社,三重県,桑名市,大字蓮花寺２６９番地８,,24,205,5110854,,,,,,,2024-07-31,1,,,,,ソアウインド,0
1841,7200003006447,新規,0,2024-07-31,2024-07-31,合同会社Ｔｒａｎｓｃｅｎｄｉｘ,,合同会社,岐阜県,羽島市,竹鼻町丸の内６丁目１４０番地３,,21,209,5016244,,,,,,,2024-07-31,1,,,,,トランセンディックス,0
1842,7210001019846,新規,0,2024-07-31,2024-07-31,株式会社安田塗装工業,,株式会社,福井県,鯖江市,二丁掛町第５号３番地１６,,18,207,9160068,,,,,,,2024-07-31,1,,,,,ヤスダトソウコウギョウ,0
1846,7230001020463,新規,0,2024-07-31,2024-07-31,株式会社渡津海,,株式会社,富山県,氷見市,宇波１０番地１,,16,205,9350422,,,,,,,2024-07-31,1,,,,,ワダツミ,0
1847,7230001020471,新規,0,2024-07-31,2024-07-31,山田酒商事株式会社,,株式会社,富山県,高岡市,波岡１１６番地,,16,202,9330958,,,,,,,2024-07-31,1,,,,,ヤマダサケショウジ,0
1852,7260003004833,新規,0,2024-07-31,2024-07-31,ＢＥＮＴＥＮ合同会社,,合同会社,岡山県,岡山市北区,奥田南町４番１１号,,33,101,7000934,,,,,,,2024-07-31,1,,,,,ベンテン,0
1854,7280001009221,新規,0,2024-07-31,2024-07-31,株式会社金絲雀,,株式会社,島根県,出雲市,今市町７４３番地１９,,32,203,6930001,,,,,,,2024-07-31,1,,,,,カナリア,0
1857,7290001106620,新規,0,2024-07-31,2024-07-31,株式会社ＢＲＥＳＴ,,株式会社,福岡県,糟屋郡志免町,志免中央３丁目１番２号,,40,343,8112244,,,,,,,2024-07-31,1,,,,,ブレスト,0
1858,7290001106752,新規,0,2024-07-31,2024-07-31,株式会社Ｒａｉｓｏｎ,,株式会社,福岡県,福岡市中央区,大名２丁目１０番４－Ｄ１３０５号,,40,133,8100041,,,,,,,2024-07-31,1,,,,,レゾン,0
1860,7290801030730,新規,0,2024-07-31,2024-07-31,祐徳株式会社,,株式会社,福岡県,北九州市小倉北区,井堀１丁目１番５－３０１号,,40,106,8030835,,,,,,,2024-07-31,1,,,,,ユウトク,0
1861,7290801030739,新規,0,2024-07-31,2024-07-31,株式会社Ｊ　ｔｅｃ,,株式会社,福岡県,北九州市小倉南区,長野東町１番２５号,,40,107,8000247,,,,,,,2024-07-31,1,,,,,ジェイテック,0
1863,7290803004798,新規,0,2024-07-31,2024-07-31,合同会社ＫＭＢ,,合同会社,福岡県,北九州市若松区,塩屋１丁目６番５号,,40,103,8080131,,,,,,,2024-07-31,1,,,,,ケイエムビー,0
1865,7300001013856,新規,0,2024-07-31,2024-07-31,株式会社Ｋｅｉｓｕｋｅ,,株式会社,佐賀県,佐賀市,川副町大字犬井道４４７０番地１４,,41,201,8402212,,,,,,,2024-07-31,1,,,,,ケイスケ,0
1872,7330003010493,新規,0,2024-07-31,2024-07-31,合同会社Ｐｒａｉｓｅ‐ｕｐ,,合同会社,熊本県,宇土市,本町２丁目１１番地,,43,211,8690431,,,,,,,2024-07-31,1,,,,,プライズアップ,0
1873,7330005010814,新規,0,2024-07-31,2024-07-31,一般社団法人Ｔａｂｌｅ,,その他の設立登記法人,熊本県,上益城郡益城町,大字宮園４０４番地１,,43,443,8612241,,,,,,,2024-07-31,1,,,,,テーブル,0
1875,7340001026689,新規,0,2024-07-31,2024-07-31,株式会社くじら警備,,株式会社,鹿児島県,日置市,日吉町日置１４５０番地,,46,216,8993101,,,,,,,2024-07-31,1,,,,,クジラケイビ,0
1879,7350001019114,新規,0,2024-07-31,2024-07-31,株式会社ＡＲＴ,,株式会社,宮崎県,宮崎市,清武町加納乙１８２－８,,45,201,8891605,,,,,,,2024-07-31,1,,,,,アート,0
1880,7350003004717,新規,0,2024-07-31,2024-07-31,合同会社ＧＲＯＷＴＨ,,合同会社,宮崎県,西都市,大字平郡５４９－３,,45,208,8810102,,,,,,,2024-07-31,1,,,,,グロース,0
1882,7360001034013,新規,0,2024-07-31,2024-07-31,Ｂｌｕｅ　Ｓｔｏｎｅ株式会社,,株式会社,沖縄県,浦添市,城間４丁目３番３号グランシャリオ２０２,,47,208,9012133,,,,,,,2024-07-31,1,,,,,ブルーストーン,0
1883,7360003014186,新規,0,2024-07-31,2024-07-31,合同会社ＳＨＯＭＯＮ,,合同会社,沖縄県,宮古島市,下地字川満４９０番地,,47,214,9060301,,,,,,,2024-07-31,1,,,,,ショウモン,0
1885,7370003006694,新規,0,2024-07-31,2024-07-31,合同会社レイズ東北,,合同会社,宮城県,仙台市青葉区,花京院１丁目４番４７号ＡＬＬＥＬＬ花京院５Ｆ,,04,101,9800013,,,,,,,2024-07-31,1,,,,,レイズトウホク,0
1890,7380001034696,新規,0,2024-07-31,2024-07-31,株式会社オーシャンクラス,,株式会社,福島県,福島市,方木田字上原２番地の４,,07,201,9608163,,,,,,,2024-07-31,1,,,,,オーシャンクラス,0
1891,7380003005828,新規,0,2024-07-31,2024-07-31,合同会社コマメ,,合同会社,福島県,相馬郡飯舘村,草野字壁地内１１０番地の５,,07,564,9601801,,,,,,,2024-07-31,1,,,,,コマメ,0
1899,7430001092342,新規,0,2024-07-31,2024-07-31,株式会社Ｔ・Ｓ・Ｉ,,株式会社,北海道,札幌市北区,新川西四条４丁目１番８号,,01,102,0010934,,,,,,,2024-07-31,1,,,,,ティエスアイ,0
1900,7430001092359,新規,0,2024-07-31,2024-07-31,株式会社カベレオン,,株式会社,北海道,札幌市厚別区,厚別西四条５丁目３番２６号,,01,108,0040064,,,,,,,2024-07-31,1,,,,,カベレオン,0
1913,7490001010827,新規,0,2024-07-31,2024-07-31,グッドワンＲＵＰ株式会社,,株式会社,高知県,香美市,土佐山田町須江１２３番地１,,39,212,7820055,,,,,,,2024-07-31,1,,,,,グッドワンアールユーピー,0
1914,7490003001915,新規,0,2024-07-31,2024-07-31,新日本林業合同会社,,合同会社,高知県,高知市,南御座１番３９号,,39,201,7810084,,,,,,,2024-07-31,1,,,,,シンニホンリンギョウ,0
1917,7700150035140,新規,0,2024-07-31,2015-10-09,士幌町農民協議会,,その他,北海道,河東郡士幌町,字士幌西２線１５９番地,,01,632,0801200,,,,,,,2015-10-09,1,,,,,シホロチヨウノウミンキヨウギカイ,0
1929,8010001246922,新規,0,2024-07-31,2024-07-31,淘宝日本株式会社,,株式会社,東京都,中央区,京橋２丁目２番１号京橋エドグラン２６階,,13,102,1040031,,,,,,,2024-07-31,1,,,,,タオバオニホン,0
1930,8010001247004,新規,0,2024-07-31,2024-07-31,株式会社Ｗａｖｅｌｉｎｋｓ,,株式会社,東京都,千代田区,丸の内２丁目３－２郵船ビルディング１階,,13,101,1000005,,,,,,,2024-07-31,1,,,,,ウェーブリンクス,0
1932,8010003044449,新規,0,2024-07-31,2024-07-31,合同会社けむり,,合同会社,東京都,千代田区,飯田橋１丁目８番９－７０７号ニューシティハイツ飯田橋,,13,101,1020072,,,,,,,2024-07-31,1,,,,,ケムリ,0
1933,8010003044473,新規,0,2024-07-31,2024-07-31,ＩＥ　Ｌａｂｏ合同会社,,合同会社,東京都,中央区,日本橋室町１丁目１１番１２号日本橋水野ビル７階,,13,102,1030022,,,,,,,2024-07-31,1,,,,,アイイーラボ,0
1935,8010101016259,新規,0,2024-07-31,2024-07-31,株式会社エムケイプランニング,,株式会社,東京都,八王子市,川口町１５０５番地１５,,13,201,1930801,,,,,,,2024-07-31,1,,,,,エムケイプランニング,0
1936,8010103002397,新規,0,2024-07-31,2024-07-31,合同会社大日,,合同会社,東京都,八王子市,八幡町４番１１－７０１号オーベルグランディオ八王子エアーズ,,13,201,1920053,,,,,,,2024-07-31,1,,,,,ダイニチ,0
1939,8010401184111,新規,0,2024-07-31,2024-07-31,株式会社キャリオット,,株式会社,東京都,港区,芝浦１丁目１番１号,,13,103,1050023,,,,,,,2024-07-31,1,,,,,キャリオット,0
1940,8010401184144,新規,0,2024-07-31,2024-07-31,株式会社ＴＨＥ　ＤＡＹ　ＨＯＬＤＩＮＧＳ,,株式会社,東京都,港区,南青山６丁目６番２０号,,13,103,1070062,,,,,,,2024-07-31,1,,,,,ザデイホールディングス,0
1941,8010403033142,新規,0,2024-07-31,2024-07-31,合同会社ＭＢＳＲ,,合同会社,東京都,港区,南青山３丁目１番３６号青山丸竹ビル６Ｆ,,13,103,1070062,,,,,,,2024-07-31,1,,,,,,0
1944,8010501052696,新規,0,2024-07-31,2024-07-31,麦風テクノロジー株式会社,,株式会社,東京都,台東区,清川１丁目２１－５ＷＡＬＬａｐａｒｔｍｅｎｔ５階大区画号室,,13,106,1110022,,,,,,,2024-07-31,1,,,,,バクフウテクノロジー,0
1945,8010601065648,新規,0,2024-07-31,2024-07-31,株式会社ソラヒカ,,株式会社,東京都,江東区,豊洲５丁目１番１３－２７２１号,,13,108,1350061,,,,,,,2024-07-31,1,,,,,ソラヒカ,0
1946,8010601065656,新規,0,2024-07-31,2024-07-31,心陽株式会社,,株式会社,東京都,江東区,豊洲３丁目４番１－２７０５号,,13,108,1350061,,,,,,,2024-07-31,1,,,,,コハル,0
1954,8010901055720,新規,0,2024-07-31,2024-07-31,ライフバリュークリエーション株式会社,,株式会社,東京都,世田谷区,松原４丁目２４－１０アプリコット１０２,,13,112,1560043,,,,,,,2024-07-31,1,,,,,ライフバリュークリエーション,0
1955,8010901055729,新規,0,2024-07-31,2024-07-31,株式会社スマートフォース,,株式会社,東京都,世田谷区,砧１丁目６番４号,,13,112,1570073,,,,,,,2024-07-31,1,,,,,スマートフォース,0
1956,8010903009245,新規,0,2024-07-31,2024-07-31,合同会社ＯＮＥＤＡＹ,,合同会社,東京都,世田谷区,桜１丁目２７番３２－４１１号,,13,112,1560053,,,,,,,2024-07-31,1,,,,,ワンデイ,0
1957,8010903009253,新規,0,2024-07-31,2024-07-31,合同会社ｔｅａ　ｗｉｔｈ　ｍｉｌｋ,,合同会社,東京都,世田谷区,代田６丁目２９番６号,,13,112,1550033,,,,,,,2024-07-31,1,,,,,ティーウィズミルク,0
1963,8011001163298,新規,0,2024-07-31,2024-07-31,ｍｏ．ｎｏ．ｆｏｒ株式会社,,株式会社,東京都,渋谷区,恵比寿西２丁目８番４号ＥＸ恵比寿西ビル５階,,13,113,1500021,,,,,,,2024-07-31,1,,,,,モノフォア,0
1964,8011001163637,新規,0,2024-07-31,2024-07-31,株式会社ストーモア,,株式会社,東京都,渋谷区,道玄坂１丁目１０番８号渋谷道玄坂東急ビル２Ｆ－Ｃ,,13,113,1500043,,,,,,,2024-07-31,1,,,,,ストーモア,0
1965,8011001163661,新規,0,2024-07-31,2024-07-31,ＡＤ‐ａｐＴ株式会社,,株式会社,東京都,渋谷区,円山町５番５号Ｎａｖｉ渋谷Ｖ３階,,13,113,1500044,,,,,,,2024-07-31,1,,,,,アダプト,0
1968,8011101108252,新規,0,2024-07-31,2024-07-31,ＱＡ　ｔｅｃ株式会社,,株式会社,東京都,新宿区,西新宿１丁目２６番２号,,13,104,1600023,,,,,,,2024-07-31,1,,,,,キューエーテック,0
1969,8011101108269,新規,0,2024-07-31,2024-07-31,ＣｙｐｈｅＲｉｎｇ株式会社,,株式会社,東京都,新宿区,高田馬場４丁目１８番１５号１０１,,13,104,1690075,,,,,,,2024-07-31,1,,,,,サイファリング,0
1980,8011501030989,新規,0,2024-07-31,2024-07-31,株式会社Ｐｉｃｃｏｌｏ　Ｍａｒｅ,,株式会社,東京都,荒川区,荒川３丁目３６番１号Ｏｃｅａｎ’ｓ９－１０２号,,13,118,1160002,,,,,,,2024-07-31,1,,,,,ピッコロマーレ,0
1981,8011503006161,新規,0,2024-07-31,2024-07-31,香川合同会社,,合同会社,東京都,荒川区,町屋３丁目１８番１２号ＮＤビル２１５,,13,118,1160001,,,,,,,2024-07-31,1,,,,,カガワ,0
1982,8011601027943,新規,0,2024-07-31,2024-07-31,変な建設株式会社,,株式会社,東京都,練馬区,小竹町２丁目８番８号,,13,120,1760004,,,,,,,2024-07-31,1,,,,,ヘンナケンセツ,0
1984,8011701027496,新規,0,2024-07-31,2024-07-31,株式会社一二三,,株式会社,東京都,江戸川区,松江７丁目１４番２０号ライオンズマンション３０５,,13,123,1320025,,,,,,,2024-07-31,1,,,,,ヒフミ,0
1986,8011801044615,新規,0,2024-07-31,2024-07-31,株式会社ＡＬＧＯＶＡ,,株式会社,東京都,葛飾区,東堀切１丁目２０番１６号リグランドお花茶屋４０４号室,,13,122,1240004,,,,,,,2024-07-31,1,,,,,アルゴヴァ,0
1989,8011803006365,新規,0,2024-07-31,2024-07-31,合同会社クワットプラス,,合同会社,東京都,足立区,千住宮元町２０－９レーベン北千住エアクロスタワー６０２,,13,121,1200043,,,,,,,2024-07-31,1,,,,,クワットプラス,0
1991,8012401042133,新規,0,2024-07-31,2024-07-31,株式会社Ｔｈａｎｋｓ　ｔｏ,,株式会社,東京都,三鷹市,新川３丁目１２番２２－４０１号,,13,204,1810004,,,,,,,2024-07-31,1,,,,,サンクストゥー,0
1992,8012401042141,新規,0,2024-07-31,2024-07-31,株式会社ＫＯＤＡＭＡ精密,,株式会社,東京都,調布市,深大寺元町５丁目３番地１,,13,208,1820017,,,,,,,2024-07-31,1,,,,,コダマセイミツ,0
1994,8012403006689,新規,0,2024-07-31,2024-07-31,１０２ｃａ合同会社,,合同会社,東京都,調布市,佐須町２丁目１９番地５パークエレガンスＫ・Ｔ４０２,,13,208,1820016,,,,,,,2024-07-31,1,,,,,トツカ,0
1995,8012703003056,新規,0,2024-07-31,2024-07-31,合同会社ＴＥＮＫＯ,,合同会社,東京都,東村山市,栄町１丁目２３番地６,,13,213,1890013,,,,,,,2024-07-31,1,,,,,テンコ,0
2000,8020001158175,新規,0,2024-07-31,2024-07-31,株式会社やまねこカンパニー,,株式会社,神奈川県,川崎市宮前区,神木本町２丁目４番１７号,,14,136,2160031,,,,,,,2024-07-31,1,,,,,ヤマネコカンパニー,0
2011,8021001082828,新規,0,2024-07-31,2024-07-31,イケ金属株式会社,,株式会社,神奈川県,南足柄市,中沼４６１番地６,,14,217,2500123,,,,,,,2024-07-31,1,,,,,イケキンゾク,0
2012,8021001082869,新規,0,2024-07-31,2024-07-31,株式会社旅する発酵倶楽部,,株式会社,神奈川県,秦野市,鶴巻１４１９番地の１プランヴェール鶴巻９０１号,,14,211,2570007,,,,,,,2024-07-31,1,,,,,タビスルハッコウクラブ,0
2015,8021003014837,新規,0,2024-07-31,2024-07-31,合同会社Ｔｏｗａ　ｒｅａｌ　ｅｓｔａｔｅ,,合同会社,神奈川県,大和市,つきみ野１丁目６番地７１,,14,213,2420002,,,,,,,2024-07-31,1,,,,,トウワリアルエステート,0
2024,8040003025512,新規,0,2024-07-31,2024-07-31,Ｂａｓｔｅｔ合同会社,,合同会社,千葉県,松戸市,竹ケ花１１２番地の６,,12,207,2710072,,,,,,,2024-07-31,1,,,,,バステト,0
2026,8060001037350,新規,0,2024-07-31,2024-07-31,株式会社トソーリスト,,株式会社,栃木県,さくら市,葛城２２２０番地８,,09,214,3291413,,,,,,,2024-07-31,1,,,,,トソーリスト,0
2030,8070001042028,新規,0,2024-07-31,2024-07-31,株式会社ＮＧＩ,,株式会社,群馬県,高崎市,東貝沢町１丁目１８番地５,,10,202,3700041,,,,,,,2024-07-31,1,,,,,エヌジーアイ,0
2031,8070005010303,新規,0,2024-07-31,2024-07-31,ＭＩＡ弁護士法人,,その他の設立登記法人,群馬県,高崎市,東町３２番地１号２０１号,,10,202,3700045,,,,,,,2024-07-31,1,,,,,,0
2033,8080003003266,新規,0,2024-07-31,2024-07-31,ＫＩＯ　ＪＡＰＡＮ合同会社,,合同会社,静岡県,静岡市清水区,巴町７番９号伊埜谷ビル２Ｆ,,22,103,4240829,,,,,,,2024-07-31,1,,,,,,0
2034,8080101024924,新規,0,2024-07-31,2024-07-31,株式会社カネザシ,,株式会社,静岡県,富士市,本市場２６－１,,22,210,4160906,,,,,,,2024-07-31,1,,,,,カネザシ,0
2049,8120001267288,新規,0,2024-07-31,2024-07-31,株式会社ＫＵＯＮ,,株式会社,大阪府,大阪市都島区,都島北通２丁目１８番２７号１００１,,27,102,5340014,,,,,,,2024-07-31,1,,,,,クオン,0
2050,8120001267313,新規,0,2024-07-31,2024-07-31,株式会社誠佳堂,,株式会社,大阪府,大阪市北区,曾根崎２丁目１５－１６－３５０７,,27,127,5300057,,,,,,,2024-07-31,1,,,,,セイカドウ,0
2051,8120001267321,新規,0,2024-07-31,2024-07-31,株式会社アレス,,株式会社,大阪府,大阪市北区,西天満５丁目８番８号,,27,127,5300047,,,,,,,2024-07-31,1,,,,,アレス,0
2052,8120001267370,新規,0,2024-07-31,2024-07-31,株式会社スパークルスリー,,株式会社,大阪府,大阪市北区,梅田１丁目２番２号大阪駅前第２ビル１２－１２,,27,127,5300001,,,,,,,2024-07-31,1,,,,,スパークルスリー,0
2053,8120001267379,新規,0,2024-07-31,2024-07-31,株式会社大生管工,,株式会社,大阪府,大阪市生野区,巽西３丁目１８番１７号,00135738,27,116,5440012,,,,,,,2024-07-31,1,,,,,タイセイカンコウ,0
2055,8120003027211,新規,0,2024-07-31,2024-07-31,偉亭合同会社,,合同会社,大阪府,大阪市生野区,勝山北４丁目１－１９－３Ｆ,,27,116,5440033,,,,,,,2024-07-31,1,,,,,エイテイ,0
2068,8140001135278,新規,0,2024-07-31,2024-07-31,株式会社夜明け,,株式会社,兵庫県,芦屋市,東山町１２番１８号１０１,,28,206,6590091,,,,,,,2024-07-31,1,,,,,ヨアケ,0
2069,8140001135286,新規,0,2024-07-31,2024-07-31,関西コンストラクション株式会社,,株式会社,兵庫県,神戸市西区,王塚台７丁目３５－１,,28,111,6512135,,,,,,,2024-07-31,1,,,,,カンサイコンストラクション,0
2070,8140001135344,新規,0,2024-07-31,2024-07-31,株式会社ＹＯＮ,,株式会社,兵庫県,神戸市長田区,水笠通４丁目４番１５号,,28,106,6530842,,,,,,,2024-07-31,1,,,,,ワイオーエヌ,0
2071,8140001135352,新規,0,2024-07-31,2024-07-31,株式会社ＥＭＩＣＬＥ,,株式会社,兵庫県,尼崎市,武庫之荘東２丁目１４－１－１０１号室,,28,202,6610032,,,,,,,2024-07-31,1,,,,,エミクル,0
2072,8140001135360,新規,0,2024-07-31,2024-07-31,株式会社ハイブリッジ,,株式会社,兵庫県,尼崎市,上坂部１丁目８番１－１２３号,,28,202,6610979,,,,,,,2024-07-31,1,,,,,,0
2074,8140003020899,新規,0,2024-07-31,2024-07-31,ＧＥＮＫＡコンサルティング合同会社,,合同会社,兵庫県,芦屋市,朝日ケ丘町２４番１２号セザール芦屋３０２号,00135750,28,206,6590012,,,,,,,2024-07-31,1,,,,,ゲンカコンサルティング,0
2079,8150001027458,新規,0,2024-07-31,2024-07-31,Ｌａｕｇｈ株式会社,,株式会社,奈良県,奈良市,法蓮町１８４番地の１８,,29,201,6308113,,,,,,,2024-07-31,1,,,,,ラーフ,0
2082,8160001026120,新規,0,2024-07-31,2024-07-31,株式会社ＡＲホーム,,株式会社,滋賀県,草津市,南草津プリムタウン３丁目１６番地１－２０３ＧＫ榊差Ｉ,00135745,25,206,5250068,,,,,,,2024-07-31,1,,,,,エーアールホーム,0
2091,8180001162491,新規,0,2024-07-31,2024-07-31,株式会社ＭＯＯＮ,,株式会社,愛知県,名古屋市南区,明円町１５番地の５,,23,112,4570022,,,,,,,2024-07-31,1,,,,,ムーン,0
2092,8180001162509,新規,0,2024-07-31,2024-07-31,株式会社コネクト名古屋,,株式会社,愛知県,名古屋市中村区,豊幡町７４番地の４,,23,105,4530051,,,,,,,2024-07-31,1,,,,,コネクトナゴヤ,0
2093,8180001162525,新規,0,2024-07-31,2024-07-31,ＬＥＧＥ株式会社,,株式会社,愛知県,一宮市,木曽川町外割田字北乙五郎９０番地Ｋ－ＳＡＫＵＲＡ２号室,,23,203,4930007,,,,,,,2024-07-31,1,,,,,レジェ,0
2094,8180001162558,新規,0,2024-07-31,2024-07-31,株式会社なんでもや,,株式会社,愛知県,名古屋市中川区,中須町２３３番地の１,,23,110,4540925,,,,,,,2024-07-31,1,,,,,ナンデモヤ,0
2095,8180001162574,新規,0,2024-07-31,2024-07-31,株式会社千田商事,,株式会社,愛知県,北名古屋市,鍜冶ケ一色宮浦５番地５,,23,234,4810000,,,,,,,2024-07-31,1,,,,,センダショウジ,0
2097,8180003027123,新規,0,2024-07-31,2024-07-31,Ｍａｒｉｅ　ａｎｉｍａｌ合同会社,,合同会社,愛知県,尾張旭市,渋川町３丁目２番地１３,,23,226,4880839,,,,,,,2024-07-31,1,,,,,マリーアニマル,0
2101,8180301038895,新規,0,2024-07-31,2024-07-31,株式会社一六八,,株式会社,愛知県,豊橋市,吉前町字西吉前新田１６１番地５,,23,201,4418004,,,,,,,2024-07-31,1,,,,,イロハ,0
2102,8180301038904,新規,0,2024-07-31,2024-07-31,株式会社リバイブサービス,,株式会社,愛知県,豊田市,永覚新町３丁目６３番地２,,23,211,4701206,,,,,,,2024-07-31,1,,,,,リバイブサービス,0
2103,8180301038912,新規,0,2024-07-31,2024-07-31,株式会社ＧＯＥＮ,,株式会社,愛知県,岡崎市,大平町字西田潰１４番地３,,23,202,4440007,,,,,,,2024-07-31,1,,,,,ゴエン,0
2104,8190001031530,新規,0,2024-07-31,2024-07-31,株式会社飛翔,,株式会社,三重県,津市,城山２丁目１７番５号,,24,201,5140818,,,,,,,2024-07-31,1,,,,,ヒショウ,0
2105,8190003004757,新規,0,2024-07-31,2024-07-31,合同会社近藤自動車,,合同会社,三重県,三重郡川越町,大字南福崎５０６番地１ステラＫＩＩ１０５号,00135752,24,344,5108124,,,,,,,2024-07-31,1,,,,,コンドウジドウシャ,0
2108,8210001019845,新規,0,2024-07-31,2024-07-31,株式会社Ｅ‐ＳＴＹＬＥ,,株式会社,福井県,大野市,南六呂師第８８号８番地,,18,205,9120131,,,,,,,2024-07-31,1,,,,,イースタイル,0
2112,8230001020462,新規,0,2024-07-31,2024-07-31,とやまアリーナコンセッション株式会社,,株式会社,富山県,富山市,牛島町１８番７号,,16,201,9300858,,,,,,,2024-07-31,1,,,,,トヤマアリーナコンセッション,0
2113,8230001020470,新規,0,2024-07-31,2024-07-31,株式会社マイベジズ,,株式会社,富山県,南砺市,立野原東９１７番地,,16,210,9391835,,,,,,,2024-07-31,1,,,,,マイベジズ,0
2116,8240001063584,新規,0,2024-07-31,2024-07-31,Ｍ．ＣＲＡＦＴ株式会社,,株式会社,広島県,広島市西区,草津浜町２５番４号,,34,104,7330862,,,,,,,2024-07-31,1,,,,,エムクラフト,0
2117,8240001063592,新規,0,2024-07-31,2024-07-31,株式会社カネコボディ,,株式会社,広島県,広島市安佐北区,可部町上町屋１６６５－６,,34,106,7391700,,,,,,,2024-07-31,1,,,,,カネコボディ,0
2118,8240001063618,新規,0,2024-07-31,2024-07-31,株式会社Ｂｅｙｏｎｄ,,株式会社,広島県,広島市安佐南区,祇園３丁目３０番１－１０１１号,,34,105,7310138,,,,,,,2024-07-31,1,,,,,ビヨンド,0
2119,8240001063626,新規,0,2024-07-31,2024-07-31,株式会社ＴＫ　ＣＲＥＡＴＩＯＮ,,株式会社,広島県,広島市中区,宝町５－９－１９０２,,34,101,7300044,,,,,,,2024-07-31,1,,,,,ティーケークリエイション,0
2123,8260001039319,新規,0,2024-07-31,2024-07-31,株式会社ＣＨＡＭ,,株式会社,岡山県,岡山市北区,南中央町１番４号ＳＳビル２０１号,,33,101,7000837,,,,,,,2024-07-31,1,,,,,チャム,0
2124,8260003004824,新規,0,2024-07-31,2024-07-31,Ａｆｔｅｒ　Ｌｉｆｅ合同会社,,合同会社,岡山県,久米郡美咲町,連石５１３番地１,,33,666,7081516,,,,,,,2024-07-31,1,,,,,アフターライフ,0
2127,8280003001869,新規,0,2024-07-31,2024-07-31,合同会社カナエル・パートナーズ,,合同会社,島根県,出雲市,渡橋町４２９番地３久谷ビル３０１号室,,32,203,6930004,,,,,,,2024-07-31,1,,,,,カナエルパートナーズ,0
2135,8290001106529,新規,0,2024-07-31,2024-07-31,株式会社ひかファーマシー,,株式会社,福岡県,福岡市早良区,荒江３丁目１１－３１シティガーデン荒江,,40,137,8140021,,,,,,,2024-07-31,1,,,,,ヒカファーマシー,0
2136,8290003015570,新規,0,2024-07-31,2024-07-31,合同会社ＭＯＲＥＵＳＥ,,合同会社,福岡県,糟屋郡久山町,大字猪野３５１番地１,,40,348,8112503,,,,,,,2024-07-31,1,,,,,モリユース,0
2138,8290803004797,新規,0,2024-07-31,2024-07-31,合同会社東洋ビズ,,合同会社,福岡県,遠賀郡岡垣町,東高倉２丁目２番１８号,,40,383,8114237,,,,,,,2024-07-31,1,,,,,トウヨウビズ,0
2142,8310001019125,新規,0,2024-07-31,2024-07-31,株式会社くぬぎ,,株式会社,長崎県,松浦市,志佐町浦免１５１１番地８,,42,208,8594501,,,,,,,2024-07-31,1,,,,,クヌギ,0
2143,8320001020619,新規,0,2024-07-31,2024-07-31,株式会社粋‐ｉｋｉ,,株式会社,大分県,大分市,東浜２丁目５番１２号,,44,201,8700932,,,,,,,2024-07-31,1,,,,,イキ,0
2146,8330005010813,新規,0,2024-07-31,2024-07-31,土地家屋調査士法人松田事務所,,その他の設立登記法人,熊本県,宇城市,松橋町久具３５８番地２２,,43,213,8690532,,,,,,,2024-07-31,1,,,,,マツダジムショ,0
2151,8360001033996,新規,0,2024-07-31,2024-07-31,株式会社ｗａｎｉｎａｒｕ,,株式会社,沖縄県,那覇市,久米２丁目３番１５号ＣＯＩ那覇ビル５階,,47,201,9000033,,,,,,,2024-07-31,1,,,,,ワニナル,0
2152,8360001034012,新規,0,2024-07-31,2024-07-31,株式会社ＫＯＵ,,株式会社,沖縄県,那覇市,牧志２丁目１７－２７,,47,201,9000013,,,,,,,2024-07-31,1,,,,,コウ,0
2155,8360003014177,新規,0,2024-07-31,2024-07-31,合同会社エンシエイト,,合同会社,沖縄県,沖縄市,山内２丁目３６番１４号,,47,211,9040034,,,,,,,2024-07-31,1,,,,,エンシエイト,0
2162,8380001034695,新規,0,2024-07-31,2024-07-31,株式会社ＮＥＸＴ　ＯＮＥ,,株式会社,福島県,いわき市,平字五色町６３,,07,204,9708026,,,,,,,2024-07-31,1,,,,,ネクストワン,0
2165,8400001016740,新規,0,2024-07-31,2024-07-31,株式会社ミライファーム,,株式会社,岩手県,北上市,青柳町１丁目７番２０号ＡＯＹＡＧＩ８０５ＢＩＬ３Ｆ－Ｂ,,03,206,0240031,,,,,,,2024-07-31,1,,,,,ミライファーム,0
2175,8430001092317,新規,0,2024-07-31,2024-07-31,株式会社ササホーム,,株式会社,北海道,札幌市中央区,北八条西１９丁目３５番地７１コローレ８１９－３０１号,,01,101,0600008,,,,,,,2024-07-31,1,,,,,ササホーム,0
2176,8430001092341,新規,0,2024-07-31,2024-07-31,サービスライン株式会社,,株式会社,北海道,札幌市北区,北二十条西６丁目２番３４－４０１号,,01,102,0010020,,,,,,,2024-07-31,1,,,,,サービスライン,0
2181,8450001014376,新規,0,2024-07-31,2024-07-31,株式会社ＲＩＳＥ　ＤＥＳＩＧＮ,,株式会社,北海道,旭川市,六条通１７丁目８１番地の３,,01,204,0700036,,,,,,,2024-07-31,1,,,,,ライスデザイン,0
2185,8480001012559,新規,0,2024-07-31,2024-07-31,株式会社ＡＷＡ不動産,,株式会社,徳島県,板野郡上板町,椎本字亀ノ本２０３番地,,36,405,7711343,,,,,,,2024-07-31,1,,,,,アワフドウサン,0
2188,8490001010826,新規,0,2024-07-31,2024-07-31,株式会社トゥーシリンダー,,株式会社,高知県,安芸郡田野町,２７０９,,39,303,7816410,,,,,,,2024-07-31,1,,,,,トゥーシリンダー,0
2190,8490003001914,新規,0,2024-07-31,2024-07-31,合同会社スマイルテラス,,合同会社,高知県,高知市,一ツ橋町２丁目３０番地２,,39,201,7800981,,,,,,,2024-07-31,1,,,,,,0
2199,9010001246839,新規,0,2024-07-31,2024-07-31,淘品国際商務株式会社,,株式会社,東京都,中央区,勝どき６丁目３番２－３２１２号,,13,102,1040054,,,,,,,2024-07-31,1,,,,,トウヒンコクサイショウム,0
2200,9010001246970,新規,0,2024-07-31,2024-07-31,株式会社ＧｅｎｅｓｉｓＡＩ,,株式会社,東京都,千代田区,神田和泉町１番地６－１６ヤマトビル４０５,,13,101,1010024,,,,,,,2024-07-31,1,,,,,ジェネシスエーアイ,0
2202,9010003044448,新規,0,2024-07-31,2024-07-31,合同会社Ｇｒｅｅｎ　Ｆｉｎｇｅｒｓ,,合同会社,東京都,中央区,日本橋室町１丁目１１番１２号日本橋水野ビル７階,,13,102,1030022,,,,,,,2024-07-31,1,,,,,グリーンフィンガーズ,0
2204,9010005038563,新規,0,2024-07-31,2024-07-31,一般社団法人Ｓｒｉ　Ｌａｎｋａ‐Ｊａｐａｎ　Ｃａｒｅｅｒ　Ａｓｓｏｃｉａｔｉｏｎ,,その他の設立登記法人,東京都,中央区,勝どき３丁目２番３－２３０３号,,13,102,1040054,,,,,,,2024-07-31,1,,,,,スリランカジャパンキャリアアソシエーション,0
2205,9010101016258,新規,0,2024-07-31,2024-07-31,株式会社プリモ,,株式会社,東京都,八王子市,椚田町８９番地,,13,201,1930942,,,,,,,2024-07-31,1,,,,,プリモ,0
2209,9010401184143,新規,0,2024-07-31,2024-07-31,ＡＩ　Ｌａｂ株式会社,,株式会社,東京都,港区,南青山３丁目１番３６号,,13,103,1070062,,,,,,,2024-07-31,1,,,,,エーアイラボ,0
2210,9010401184151,新規,0,2024-07-31,2024-07-31,株式会社サントムーン,,株式会社,東京都,港区,高輪２丁目１７－１２カスタリア高輪６１９,,13,103,1080074,,,,,,,2024-07-31,1,,,,,サントムーン,0
2213,9010405023446,新規,0,2024-07-31,2024-07-31,紅葉坂一般社団法人,,その他の設立登記法人,東京都,港区,虎ノ門３丁目２２番１０－２０１号,,13,103,1050001,,,,,,,2024-07-31,1,,,,,モミジザカ,0
2218,9010601065655,新規,0,2024-07-31,2024-07-31,株式会社貴,,株式会社,東京都,江東区,枝川１丁目１２－１－２階,,13,108,1350051,,,,,,,2024-07-31,1,,,,,タカ,0
2220,9010803005038,新規,0,2024-07-31,2024-07-31,合同会社ミキ・エステート,,合同会社,東京都,大田区,蒲田５丁目４２－６－６０１,,13,111,1440052,,,,,,,2024-07-31,1,,,,,ミキエステート,0
2221,9010901055728,新規,0,2024-07-31,2024-07-31,株式会社ヴィ・エール,,株式会社,東京都,世田谷区,桜丘１丁目１５番４号,,13,112,1560054,,,,,,,2024-07-31,1,,,,,ヴィエール,0
2224,9011001163660,新規,0,2024-07-31,2024-07-31,株式会社Ｃｈｉｒｏｎ,,株式会社,東京都,渋谷区,道玄坂２丁目１８番１１号サンモール道玄坂２２８,,13,113,1500043,,,,,,,2024-07-31,1,,,,,カイロン,0
2225,9011001163702,新規,0,2024-07-31,2024-07-31,株式会社Ｍｅｗ‐ｓｔｙｌｅ,,株式会社,東京都,渋谷区,神宮前６丁目１０番９号原宿菫友ビル４Ｆ,,13,113,1500001,,,,,,,2024-07-31,1,,,,,ミュースタイル,0
2228,9011003019679,新規,0,2024-07-31,2024-07-31,ＨｉＬＬ　ＣＬｉＭＢ合同会社,,合同会社,東京都,渋谷区,道玄坂１丁目１０番８号渋谷道玄坂東急ビル２Ｆ－Ｃ,,13,113,1500043,,,,,,,2024-07-31,1,,,,,ヒルクライム,0
2229,9011003019704,新規,0,2024-07-31,2024-07-31,ＡＴＡＭＩ　ＡＲＴ　ＬＩＮＫ　ＤＡＯ合同会社,,合同会社,東京都,渋谷区,神宮前６丁目１２番９号ＢＬＯＣＫＨＯＵＳＥ２Ｆ,,13,113,1500001,,,,,,,2024-07-31,1,,,,,アタミアートリンクダオ,0
2233,9011201025677,新規,0,2024-07-31,2024-07-31,株式会社としみ,,株式会社,東京都,中野区,中央５丁目２７番３０号シープスＩＩ１０１,00135743,13,114,1640011,,,,,,,2024-07-31,1,,,,,トシミ,0
2238,9011503006160,新規,0,2024-07-31,2024-07-31,ＲＥＡＬＰＡＸ合同会社,,合同会社,東京都,北区,上中里１丁目２５－３三栄荘Ｅ号室,,13,117,1140016,,,,,,,2024-07-31,1,,,,,リアルパックス,0
2242,9011601027942,新規,0,2024-07-31,2024-07-31,東新株式会社,,株式会社,東京都,練馬区,錦１丁目８－１６,,13,120,1790082,,,,,,,2024-07-31,1,,,,,トウシン,0
2243,9011603004403,新規,0,2024-07-31,2024-07-31,ＭＫエンタプライズ合同会社,,合同会社,東京都,練馬区,富士見台１丁目２２番２８号,,13,120,1770034,,,,,,,2024-07-31,1,,,,,エムケーエンタプライズ,0
2245,9011701027487,新規,0,2024-07-31,2024-07-31,株式会社Ｇｒｏｗｔｈ　Ｍｉｎｄｓｅｔ,,株式会社,東京都,江戸川区,一之江８丁目１３番９アポロ３０９号,,13,123,1320024,,,,,,,2024-07-31,1,,,,,グロースマインドセット,0
2249,9011801044589,新規,0,2024-07-31,2024-07-31,伊美佳株式会社,,株式会社,東京都,葛飾区,東新小岩１丁目１１番４－５０２号,,13,122,1240023,,,,,,,2024-07-31,1,,,,,イミカ,0
2253,9012401042124,新規,0,2024-07-31,2024-07-31,株式会社ＭｘＣＯＮＳＥＩＬ,,株式会社,東京都,武蔵野市,吉祥寺北町４丁目７－１６,,13,203,1800001,,,,,,,2024-07-31,1,,,,,エムコンセイユ,0
2255,9012703003055,新規,0,2024-07-31,2024-07-31,合同会社橋田流通サービス,,合同会社,東京都,東久留米市,中央町３丁目６番３号,,13,222,2030054,,,,,,,2024-07-31,1,,,,,ハシダリュウツウサービス,0
2272,9021001082835,新規,0,2024-07-31,2024-07-31,株式会社Ｂｒｕｓｈ　ｕｐ,,株式会社,神奈川県,厚木市,水引１丁目１５番１７－３０２号,,14,212,2430004,,,,,,,2024-07-31,1,,,,,ブラッシュアップ,0
2273,9021001082868,新規,0,2024-07-31,2024-07-31,株式会社大和ダイナース,,株式会社,神奈川県,大和市,上草柳１０２１番地,,14,213,2420029,,,,,,,2024-07-31,1,,,,,ヤマトダイナース,0
2274,9021001082876,新規,0,2024-07-31,2024-07-31,株式会社ナーディス,,株式会社,神奈川県,中郡二宮町,中里２丁目８番３１号,,14,342,2590131,,,,,,,2024-07-31,1,,,,,ナーディス,0
2277,9021003014844,新規,0,2024-07-31,2024-07-31,フラン合同会社,,合同会社,神奈川県,茅ヶ崎市,本村４丁目１５番１７号,,14,207,2530042,,,,,,,2024-07-31,1,,,,,フラン,0
2295,9040001134719,新規,0,2024-07-31,2024-07-31,株式会社とめり,,株式会社,千葉県,千葉市花見川区,柏井１丁目３０－４,,12,102,2620048,,,,,,,2024-07-31,1,,,,,トメリ,0
2309,9070001042019,新規,0,2024-07-31,2024-07-31,徳沢株式会社,,株式会社,群馬県,館林市,大街道１丁目３番２６号,,10,207,3740066,,,,,,,2024-07-31,1,,,,,トクサワ,0
2315,9080003003265,新規,0,2024-07-31,2024-07-31,合同会社ＮＹＧ,,合同会社,静岡県,藤枝市,駿河台１丁目１８番２号,,22,214,4260077,,,,,,,2024-07-31,1,,,,,エヌワイジー,0
2317,9080101024923,新規,0,2024-07-31,2024-07-31,株式会社ＬＩＢｅＮＹ,,株式会社,静岡県,富士市,富士岡１３４番地の９,,22,210,4170841,,,,,,,2024-07-31,1,,,,,リブニー,0
2319,9080401027329,新規,0,2024-07-31,2024-07-31,株式会社奥遠州Ｘ,,株式会社,静岡県,浜松市天竜区,佐久間町中部１５３番地,,22,140,4313908,,,,,,,2024-07-31,1,,,,,オクエンシュウエックス,0
2320,9080401027345,新規,0,2024-07-31,2024-07-31,株式会社Ｒｉｐｐｌｅｓ,,株式会社,静岡県,磐田市,福田３９００,,22,211,4371203,,,,,,,2024-07-31,1,,,,,リップルズ,0
2321,9100001037683,新規,0,2024-07-31,2024-07-31,株式会社Ｄｅｗ’ｓ,,株式会社,長野県,北佐久郡軽井沢町,中軽井沢７番地８,,20,321,3890112,,,,,,,2024-07-31,1,,,,,デューズ,0
2332,9120001267114,新規,0,2024-07-31,2024-07-31,株式会社ｃｏｎｎｅｃｔ．ｗｉｔｈ,,株式会社,大阪府,枚方市,藤阪元町２丁目４０－３,,27,210,5730157,,,,,,,2024-07-31,1,,,,,コネクトウィズ,0
2333,9120001267205,新規,0,2024-07-31,2024-07-31,小一株式会社,,株式会社,大阪府,大阪市東淀川区,大桐３丁目６番２１号アイプラスＩＩ２０１,00135751,27,114,5330011,,,,,,,2024-07-31,1,,,,,ショウイチ,0
2334,9120001267238,新規,0,2024-07-31,2024-07-31,株式会社イッショーホールディングス,,株式会社,大阪府,大阪市中央区,瓦町３丁目２番７号グリーンビル５Ｆ,,27,128,5410048,,,,,,,2024-07-31,1,,,,,イッショーホールディングス,0
2335,9120001267295,新規,0,2024-07-31,2024-07-31,Ｃａｉｒａ株式会社,,株式会社,大阪府,大阪市北区,堂島３丁目３番２８－１３０２号,,27,127,5300003,,,,,,,2024-07-31,1,,,,,サイラ,0
2336,9120001267337,新規,0,2024-07-31,2024-07-31,株式会社ＬＡＮＤ　Ｘ　ＭＥＤＩＣＡＬ,,株式会社,大阪府,大阪市中央区,南久宝寺町３丁目２番７号９階,,27,128,5410058,,,,,,,2024-07-31,1,,,,,ランドバイメディカル,0
2337,9120001267361,新規,0,2024-07-31,2024-07-31,Ｒｙｓ‐Ｅｎ株式会社,,株式会社,大阪府,大阪市北区,紅梅町１番１８号４Ｆ,,27,127,5300038,,,,,,,2024-07-31,1,,,,,ライゼン,0
2339,9120003027177,新規,0,2024-07-31,2024-07-31,合同会社美舟,,合同会社,大阪府,大阪市北区,小松原町１番１７号,,27,127,5300018,,,,,,,2024-07-31,1,,,,,ミフネ,0
2341,9120005024461,新規,0,2024-07-31,2024-07-31,一般社団法人ルミエール,,その他の設立登記法人,大阪府,大阪市北区,中津２丁目４番７号ミラージュパレス梅田グランツ７０３号室,,27,127,5310071,,,,,,,2024-07-31,1,,,,,ルミエール,0
2345,9120101070079,新規,0,2024-07-31,2024-07-31,株式会社Ｔ．Ｆ,,株式会社,大阪府,岸和田市,磯上町５丁目２６番５号,,27,202,5960001,,,,,,,2024-07-31,1,,,,,ティーエフ,0
2347,9120103005982,新規,0,2024-07-31,2024-07-31,双葉合同会社,,合同会社,大阪府,富田林市,甲田３丁目１２番１３号,,27,214,5840036,,,,,,,2024-07-31,1,,,,,フタバ,0
2349,9120903005281,新規,0,2024-07-31,2024-07-31,合同会社ＮＡＫＡＮＯ　Ｆａｃｔｏｒｙ,,合同会社,大阪府,摂津市,鳥飼銘木町８番地１４,,27,224,5660063,,,,,,,2024-07-31,1,,,,,ナカノファクトリー,0
2350,9122001038313,新規,0,2024-07-31,2024-07-31,株式会社ゆにこーん,,株式会社,大阪府,東大阪市,高井田２１－４,,27,227,5770053,,,,,,,2024-07-31,1,,,,,ユニコーン,0
2352,9122003002952,新規,0,2024-07-31,2024-07-31,マジェスティックスタンド合同会社,,合同会社,大阪府,柏原市,法善寺４丁目３番２１号,,27,221,5820005,,,,,,,2024-07-31,1,,,,,マジェスティックスタンド,0
2354,9130001077611,新規,0,2024-07-31,2024-07-31,ホワイトギア株式会社,,株式会社,京都府,向日市,寺戸町初田２４番地,,26,208,6170002,,,,,,,2024-07-31,1,,,,,ホワイトギア,0
2356,9130003009744,新規,0,2024-07-31,2024-07-31,合同会社Ｂｒｉｇｈｔ　Ｆｕｔｕｒｅ,,合同会社,京都府,京都市伏見区,竹田向代町川町２５番地ウイングヒルズ京都南５１０,,26,109,6128417,,,,,,,2024-07-31,1,,,,,ブライトフューチャー,0
2361,9140001135269,新規,0,2024-07-31,2024-07-31,株式会社ＥＬＳ,,株式会社,兵庫県,神戸市灘区,薬師通３丁目３－４１,,28,102,6570815,,,,,,,2024-07-31,1,,,,,イーエルエス,0
2362,9140001135285,新規,0,2024-07-31,2024-07-31,株式会社ｓｙｂａｙａ,,株式会社,兵庫県,神戸市東灘区,御影塚町１丁目５番２３号,,28,101,6580044,,,,,,,2024-07-31,1,,,,,シバヤ,0
2363,9140001135335,新規,0,2024-07-31,2024-07-31,株式会社スティールフォース,,株式会社,兵庫県,神戸市中央区,浪花町５６Ｋｉｐ内,,28,110,6500035,,,,,,,2024-07-31,1,,,,,スティールフォース,0
2364,9140001135351,新規,0,2024-07-31,2024-07-31,グレイラット株式会社,,株式会社,兵庫県,尼崎市,崇徳院１丁目１９番６号,,28,202,6600071,,,,,,,2024-07-31,1,,,,,グレイラット,0
2367,9140003020881,新規,0,2024-07-31,2024-07-31,Ｍｏｏｎａｒｃ合同会社,,合同会社,兵庫県,西宮市,上大市２丁目６―１３,,28,204,6638003,,,,,,,2024-07-31,1,,,,,ムーンアーク,0
2368,9140003020898,新規,0,2024-07-31,2024-07-31,合同会社平澤伊佐男総合研究所,,合同会社,兵庫県,神戸市中央区,相生町４丁目２番２８号神戸駅前千代田ビル,,28,110,6500025,,,,,,,2024-07-31,1,,,,,ヒラサワイサオソウゴウケンキュウジョ,0
2370,9150001027457,新規,0,2024-07-31,2024-07-31,株式会社Ｂ．Ｃ．ＬＡＢＯ,,株式会社,奈良県,奈良市,中町４０８－２０,,29,201,6310052,,,,,,,2024-07-31,1,,,,,ビーシーラボ,0
2373,9170003002084,新規,0,2024-07-31,2024-07-31,合同会社ＡＫＡＮＡ,,合同会社,和歌山県,橋本市,胡麻生４５７番地,,30,203,6480066,,,,,,,2024-07-31,1,,,,,アカナ,0
2379,9180001162516,新規,0,2024-07-31,2024-07-31,クリエイト株式会社,,株式会社,愛知県,愛知郡東郷町,清水１丁目１３番地２,,23,302,4700165,,,,,,,2024-07-31,1,,,,,クリエイト,0
2380,9180001162540,新規,0,2024-07-31,2024-07-31,モノショー株式会社,,株式会社,愛知県,名古屋市千種区,振甫町４丁目１番地の１（ディアコート池下４０３号）,,23,101,4640072,,,,,,,2024-07-31,1,,,,,モノショー,0
2384,9180003027114,新規,0,2024-07-31,2024-07-31,合同会社リノア,,合同会社,愛知県,名古屋市名東区,山の手１丁目５０９番地,,23,115,4650011,,,,,,,2024-07-31,1,,,,,リノア,0
2385,9180003027122,新規,0,2024-07-31,2024-07-31,合同会社丸一商店,,合同会社,愛知県,知多郡南知多町,大字豊浜字会下坪２２番地の１,,23,445,4703412,,,,,,,2024-07-31,1,,,,,マルイチショウテン,0
2386,9180003027130,新規,0,2024-07-31,2024-07-31,合同会社ＹＡＭＡＴＯ,,合同会社,愛知県,名古屋市緑区,潮見が丘３丁目１０８番地,,23,114,4580037,,,,,,,2024-07-31,1,,,,,ヤマト,0
2388,9180301038894,新規,0,2024-07-31,2024-07-31,Ｍｙ　ｓｔｙｌｅ　ｃａｒｅｅｒ株式会社,,株式会社,愛知県,碧南市,大坪町３丁目３－６,,23,209,4470012,,,,,,,2024-07-31,1,,,,,マイスタイルキャリア,0
2389,9180301038903,新規,0,2024-07-31,2024-07-31,株式会社殿中,,株式会社,愛知県,岡崎市,野畑町字下河原１０番地２,,23,202,4440211,,,,,,,2024-07-31,1,,,,,デンチュウ,0
2391,9190001031521,新規,0,2024-07-31,2024-07-31,株式会社琉翔,,株式会社,三重県,度会郡玉城町,長更１００５番地１,,24,461,5190404,,,,,,,2024-07-31,1,,,,,リュウショウ,0
2393,9190005011973,新規,0,2024-07-31,2024-07-31,一般社団法人伊勢神桜流桜聖会,,その他の設立登記法人,三重県,伊勢市,勢田町２９５番地６３,,24,203,5160035,,,,,,,2024-07-31,1,,,,,イセシンオウリュウオウセイカイ,0
2400,9240001063617,新規,0,2024-07-31,2024-07-31,株式会社夢心,,株式会社,広島県,広島市安佐北区,可部町大字桐原２９１番地１,,34,106,7310214,,,,,,,2024-07-31,1,,,,,ユメシン,0
2401,9240001063625,新規,0,2024-07-31,2024-07-31,樹創建株式会社,,株式会社,広島県,東広島市,八本松東６丁目２－３１八本松ガーデンプレイスｗ７,,34,212,7390142,,,,,,,2024-07-31,1,,,,,イツキソウケン,0
2404,9240005015804,新規,0,2024-07-31,2024-07-31,特定非営利活動法人Ｌｕｎａ,,その他の設立登記法人,広島県,福山市,山手町６丁目３番３号,,34,207,7200092,,,,,,,2024-07-31,1,,,,,ルーナ,0
2407,9250001020749,新規,0,2024-07-31,2024-07-31,天の石材株式会社,,株式会社,山口県,下関市,上田中町２丁目６番９号,,35,201,7500009,,,,,,,2024-07-31,1,,,,,アマノセキザイ,0
2411,9260001039318,新規,0,2024-07-31,2024-07-31,株式会社Ｔ’ｓＤＯ,,株式会社,岡山県,倉敷市,船倉町１２９３番地の１０,,33,202,7100045,,,,,,,2024-07-31,1,,,,,ティーズディーオー,0
2412,9260003004831,新規,0,2024-07-31,2024-07-31,合同会社エールラボ,,合同会社,岡山県,倉敷市,中島５０２番地９,,33,202,7100803,,,,,,,2024-07-31,1,,,,,エールラボ,0
2416,9290001106569,新規,0,2024-07-31,2024-07-31,株式会社ジャストエディット,,株式会社,福岡県,福岡市博多区,竹下４丁目５番５－２１５号アクタス博多グランミライ,,40,132,8120895,,,,,,,2024-07-31,1,,,,,ジャストエディット,0
2419,9290003015578,新規,0,2024-07-31,2024-07-31,Ｋ‐ｓｔｙｌｅ合同会社,,合同会社,福岡県,宗像市,鐘崎４８７番６号,,40,220,8113512,,,,,,,2024-07-31,1,,,,,ケイスタイル,0
2421,9290801030737,新規,0,2024-07-31,2024-07-31,株式会社九信建設,,株式会社,福岡県,遠賀郡水巻町,二西１丁目８番２８号,,40,382,8070055,,,,,,,2024-07-31,1,,,,,キュウシンケンセツ,0
2423,9290803004796,新規,0,2024-07-31,2024-07-31,合同会社Ｃｏｎｔｒａｉｌ,,合同会社,福岡県,田川郡香春町,大字中津原１３１６番地５,,40,601,8221405,,,,,,,2024-07-31,1,,,,,コントレイル,0
2430,9340001026687,新規,0,2024-07-31,2024-07-31,株式会社Ｎａｎｉｗａ,,株式会社,鹿児島県,鹿屋市,串良町細山田５０６５番地２,,46,203,8931601,,,,,,,2024-07-31,1,,,,,ナニワ,0
2431,9350001019104,新規,0,2024-07-31,2024-07-31,ｏｎｅｄａｙ株式会社,,株式会社,宮崎県,宮崎市,源藤町原田３６３番地２,,45,201,8800927,,,,,,,2024-07-31,1,,,,,ワンデイ,0
2432,9350001019112,新規,0,2024-07-31,2024-07-31,株式会社うんこ電池,,株式会社,宮崎県,宮崎市,中央通８番１３号宮崎ビル２階Ｃ室,,45,201,8800002,,,,,,,2024-07-31,1,,,,,ウンコデンチ,0
2433,9350003004715,新規,0,2024-07-31,2024-07-31,エム・フラッグ合同会社,,合同会社,宮崎県,宮崎市,橘通東４丁目１番地４河北ビル１Ｆ,,45,201,8800805,,,,,,,2024-07-31,1,,,,,,0
2434,9360001033979,新規,0,2024-07-31,2024-07-31,株式会社ＷＳＢ,,株式会社,沖縄県,那覇市,牧志２丁目１７番４号２０２,,47,201,9000013,,,,,,,2024-07-31,1,,,,,ダブリューエスビー,0
2435,9360003014184,新規,0,2024-07-31,2024-07-31,合同会社よもきち,,合同会社,沖縄県,那覇市,字国場７１７番地Ｙ’ＧＬＯＲＹ４０２,,47,201,9020075,,,,,,,2024-07-31,1,,,,,ヨモキチ,0
2439,9380001034703,新規,0,2024-07-31,2024-07-31,株式会社ＳｃｅｎｅＳｈｉｆｔ,,株式会社,福島県,いわき市,金山町朝日台３８番地の１,,07,204,9748211,,,,,,,2024-07-31,1,,,,,シーンシフト,0
2450,9430001092340,新規,0,2024-07-31,2024-07-31,株式会社ＡＳｉＤ計画設計,,株式会社,北海道,札幌市東区,北十五条東７丁目１－２０,,01,103,0650015,,,,,,,2024-07-31,1,,,,,アシドケイカクセッケイ,0
2451,9430001092373,新規,0,2024-07-31,2024-07-31,株式会社ロータスラボ,,株式会社,北海道,札幌市中央区,南四条西５丁目１０番地第４藤井ビル５階,,01,101,0640804,,,,,,,2024-07-31,1,,,,,ロータスラボ,0
2455,9430003016628,新規,0,2024-07-31,2024-07-31,合同会社Ｕｎｅｅｄ’ｓ,,合同会社,北海道,札幌市中央区,南十三条西２１丁目１番１６－５０３号,,01,101,0640913,,,,,,,2024-07-31,1,,,,,ユニーズ,0
2457,9450001014375,新規,0,2024-07-31,2024-07-31,株式会社ウッドライフプランニング,,株式会社,北海道,旭川市,大雪通９丁目５１２番地の３７ＰＲＥＭＩＵＭ大雪通２階Ｅ号,,01,204,0700010,,,,,,,2024-07-31,1,,,,,ウッドライフプランニング,0
2458,9460101007583,新規,0,2024-07-31,2024-07-31,株式会社ＷＩＤＥ　ＦＩＥＬＤＳ,,株式会社,北海道,帯広市,西十七条南４丁目２番１号トーアビル,,01,207,0800027,,,,,,,2024-07-31,1,,,,,ワイドフィールズ,0
2460,9480001012558,新規,0,2024-07-31,2024-07-31,株式会社ライズオン,,株式会社,徳島県,小松島市,坂野町字ミぞ口６番地の１,,36,203,7730023,,,,,,,2024-07-31,1,,,,,ライズオン,0
2461,9500001025788,新規,0,2024-07-31,2024-07-31,株式会社石丸産業,,株式会社,愛媛県,上浮穴郡久万高原町,上野尻甲２５９番,,38,386,7911206,,,,,,,2024-07-31,1,,,,,イシマルサンギョウ,0
2463,9700150119602,新規,0,2024-07-31,2024-07-29,倉敷ウイスキーフォーラム,,その他,岡山県,倉敷市,中央２丁目１０－７富田トラストビル２Ｆ－Ｄ,,33,202,7100046,,,,,,,2024-07-29,1,,,,,クラシキウイスキーフオーラム,0
