sequenceNumber,corporateNumber,process,correct,updateDate,changeDate,name,nameImageId,kind,prefectureName,cityName,streetNumber,addressImageId,prefectureCode,cityCode,postCode,addressOutside,addressOutsideImageId,closeDate,closeCause,successorCorporateNumber,changeCause,assignmentDate,latest,enName,enPrefectureName,enCityName,enAddressOutside,furigana,hihyoji
3,1010001182934,登記記録の閉鎖等,0,2025-02-27,2025-02-18,ＪＥｘｅｌ　Ｎｕｃｌｅａｒ株式会社,,株式会社,東京都,台東区,上野５丁目２番１号,,13,106,1100005,,,2025-02-18,清算の結了等,,,2017-04-20,1,,,,,ジェクセルニュークリア,0
6,1010001189070,登記記録の閉鎖等,0,2025-02-27,2025-02-10,株式会社ＭＳＤホールディングス,,株式会社,東京都,千代田区,神田練塀町３番地,,13,101,1010022,,,2025-02-10,合併による解散等,6011101076757,令和７年２月１日東京都千代田区神田練塀町３番地株式会社ＭＩＲＡＩｔ　Ｓｅｒｖｉｃｅ　Ｄｅｓｉｇｎ（6011101076757）に合併し解散,2018-01-22,1,,,,,エムエスディホールディングス,0
31,1010601060498,登記記録の閉鎖等,0,2025-02-27,2025-02-25,株式会社虹色の木,,株式会社,東京都,墨田区,業平１丁目７番９号,,13,107,1300002,,,2025-02-25,清算の結了等,,,2022-01-13,1,,,,,ニジイロノキ,0
40,1010903001200,登記記録の閉鎖等,0,2025-02-27,2025-02-21,ロゼッタリサーチ合同会社,,合同会社,東京都,世田谷区,若林１丁目３９番１１号,,13,112,1540023,,,2025-02-21,清算の結了等,,,2015-10-05,1,,,,,,0
50,1011003013788,登記記録の閉鎖等,0,2025-02-27,2025-02-25,株式会社Ｅｎａｒ,,株式会社,東京都,荒川区,西日暮里２丁目２１－７第２ムサシビル５０５,,13,118,1160013,,,2025-02-25,清算の結了等,,,2021-12-07,1,,,,,エナー,0
61,1011502009675,登記記録の閉鎖等,0,2025-02-27,2025-02-25,有限会社タック,,有限会社,東京都,荒川区,東日暮里５丁目５４番４号の５０２,,13,118,1160014,,,2025-02-25,清算の結了等,,,2015-10-05,1,,,,,,0
68,1012301012580,登記記録の閉鎖等,0,2025-02-27,2025-02-25,株式会社Ｏｈａｎａ　Ｍａｕ,,株式会社,東京都,町田市,図師町１６２９番地１０,,13,209,1940203,,,2025-02-25,清算の結了等,,,2021-06-07,1,,,,,オハナマウ,0
93,1020003015166,登記記録の閉鎖等,0,2025-02-27,2025-02-07,合同会社トゥモロージェン,,合同会社,神奈川県,川崎市中原区,中丸子１３番地１７－２５１０,,14,133,2110012,,,2025-02-07,合併による解散等,4020003013423,令和６年１１月１日川崎市中原区中丸子１３番地１７－２５１０合同会社Ｔ＆Ｍマネジメント（4020003013423）に合併し解散,2018-11-07,1,,,,,トゥモロージェン,0
94,1020005002443,登記記録の閉鎖等,0,2025-02-27,2025-02-10,横浜果実協同組合,,その他の設立登記法人,神奈川県,横浜市神奈川区,橋本町１丁目１番地,,14,102,2210053,,,2025-02-10,清算の結了等,,,2015-10-05,1,,,,,ヨコハマカジツ,0
119,1040002080374,登記記録の閉鎖等,0,2025-02-27,2025-02-20,有限会社しのざき荘,,有限会社,千葉県,長生郡白子町,中里４３７０番地の１４,,12,424,2994215,,,2025-02-20,清算の結了等,,,2015-10-05,1,,,,,シノザキソウ,0
124,1050005007159,登記記録の閉鎖等,0,2025-02-27,2025-02-18,ワイビー商業協同組合,,その他の設立登記法人,茨城県,日立市,弁天町１丁目８番１５号,,08,202,3170072,,,2025-02-18,清算の結了等,,,2015-10-05,1,,,,,ワイビーショウギョウ,0
127,1060002022770,登記記録の閉鎖等,0,2025-02-27,2025-02-20,有限会社マルモリ,,有限会社,栃木県,那須塩原市,黒磯６番地５０,,09,213,3250017,,,2025-02-20,清算の結了等,,,2015-10-05,1,,,,,マルモリ,0
130,1070002031481,登記記録の閉鎖等,0,2025-02-27,2025-02-21,有限会社ヴェニーレ,,有限会社,群馬県,館林市,日向町１１４３番地５２,,10,207,3740076,,,2025-02-21,清算の結了等,,,2015-10-05,1,,,,,ヴェニーレ,0
133,1080002014469,登記記録の閉鎖等,0,2025-02-27,2025-02-25,有限会社あさひ,,有限会社,静岡県,牧之原市,坂部５０３番地の１,,22,226,4210412,,,2025-02-25,清算の結了等,,,2015-10-05,1,,,,,アサヒ,0
135,1090001008941,登記記録の閉鎖等,0,2025-02-27,2025-02-20,株式会社野沢不動産,,株式会社,山梨県,山梨市,上神内川８４５番地４,,19,205,4050018,,,2025-02-20,清算の結了等,,,2015-10-05,1,,,,,ノザワフドウサン,0
148,1120001257865,登記記録の閉鎖等,0,2025-02-27,2025-02-25,株式会社Ａｌｌ　Ｍｉｇｈｔｙ　Ｌａｂ,,株式会社,埼玉県,上尾市,大字瓦葺１９９４番地１,,11,219,3620022,,,2025-02-25,清算の結了等,,,2023-09-11,1,,,,,オールマイティラボ,0
165,1140001029065,登記記録の閉鎖等,0,2025-02-27,2025-02-20,株式会社ボワ,,株式会社,兵庫県,神戸市中央区,海岸通１丁目２番１９号,,28,110,6500024,,,2025-02-20,清算の結了等,,,2015-10-05,1,,,,,ボワ,0
196,1230001017060,登記記録の閉鎖等,0,2025-02-27,2025-02-26,株式会社宮田,,株式会社,富山県,高岡市,戸出町４丁目１３番８５号,,16,202,9391104,,,2025-02-26,清算の結了等,,,2017-07-26,1,,,,,ミヤタ,0
199,1250002018155,登記記録の閉鎖等,0,2025-02-27,2025-02-25,有限会社スエヒロ設計事務所,,有限会社,山口県,岩国市,今津町１丁目８番２１号,,35,208,7400017,,,2025-02-25,清算の結了等,,,2015-10-05,1,,,,,,0
220,1370002004688,登記記録の閉鎖等,0,2025-02-27,2025-02-20,有限会社大熊工業,,有限会社,宮城県,仙台市若林区,荒井字南原田２２番地の２,,04,103,9840032,,,2025-02-20,清算の結了等,,,2015-10-05,1,,,,,オオクマコウギョウ,0
228,1420005004291,登記記録の閉鎖等,0,2025-02-27,2025-02-19,医療法人原子整形外科医院,,その他の設立登記法人,青森県,弘前市,大字代官町５９番地１,,02,202,0368001,,,2025-02-19,清算の結了等,,,2015-10-05,1,,,,,ハラコセイケイゲカイイン,0
236,1470001005628,登記記録の閉鎖等,0,2025-02-27,2025-02-25,ホワイトリリー四国販売株式会社,,株式会社,香川県,高松市,木太町１２３１番地６,,37,201,7600080,,,2025-02-25,清算の結了等,,,2015-10-05,1,,,,,,0
238,1480002005221,登記記録の閉鎖等,0,2025-02-27,2025-02-25,有限会社森隆管工,,有限会社,徳島県,板野郡松茂町,広島字北ノ川４７番地２７,,36,401,7710220,,,2025-02-25,清算の結了等,,,2015-10-05,1,,,,,,0
252,2010005032886,登記記録の閉鎖等,0,2025-02-27,2025-02-25,一般社団法人ＧＳＩＸ１１,,その他の設立登記法人,東京都,千代田区,丸の内１丁目４番１号東京共同会計事務所内,,13,101,1000005,,,2025-02-25,清算の結了等,,,2021-02-05,1,,,,,ジーシックスイレブン,0
262,2010501002252,登記記録の閉鎖等,0,2025-02-27,2025-02-25,オメガライター商事株式会社,,株式会社,東京都,足立区,大谷田３丁目１０番２３号,,13,121,1200001,,,2025-02-25,清算の結了等,,,2015-10-05,1,,,,,オメガライターショウジ,0
294,2011103012111,登記記録の閉鎖等,0,2025-02-27,2025-02-20,合同会社ＧＡＢＡＮＡ,,合同会社,東京都,新宿区,西新宿３丁目３番１３号西新宿水間ビル６階,,13,104,1600023,,,2025-02-20,清算の結了等,,,2022-08-30,1,,,,,ガバナ,0
311,2020001010944,登記記録の閉鎖等,0,2025-02-27,2025-02-10,株式会社アンチーノ,,株式会社,神奈川県,横浜市青葉区,千草台１３番地３２,,14,117,2270051,,,2025-02-10,清算の結了等,,,2015-10-05,1,,,,,アンチーノ,0
315,2020001103327,登記記録の閉鎖等,0,2025-02-27,2025-02-12,久豊株式会社,,株式会社,神奈川県,川崎市宮前区,西野川２丁目２５番２１号,,14,136,2160044,,,2025-02-12,清算の結了等,,,2015-10-05,1,,,,,キュウホウ,0
318,2020002092577,登記記録の閉鎖等,0,2025-02-27,2025-02-13,有限会社多摩デンタルラボラトリー,,有限会社,神奈川県,川崎市多摩区,東生田１丁目１７番４号,,14,135,2140031,,,2025-02-13,清算の結了等,,,2015-10-05,1,,,,,タマデンタルラボラトリー,0
342,2040005017950,登記記録の閉鎖等,0,2025-02-27,2025-02-20,一般社団法人ミラクルバスト倶楽部,,その他の設立登記法人,千葉県,習志野市,津田沼１丁目２番７号,,12,216,2750016,,,2025-02-20,清算の結了等,,,2015-10-05,1,,,,,ミラクルバストクラブ,0
352,2080402014415,登記記録の閉鎖等,0,2025-02-27,2025-02-14,有限会社びたつ,,有限会社,静岡県,浜松市中央区,広沢２丁目４６番３８号,,22,138,4328013,,,2025-02-14,合併による解散等,6080403003594,令和７年２月１日静岡県浜松市中央区広沢二丁目４６番３８号合同会社アムナグス（6080403003594）に合併し解散,2015-10-05,1,,,,,,0
383,2120902019891,登記記録の閉鎖等,0,2025-02-27,2025-02-20,有限会社ミズホ商事,,有限会社,大阪府,豊中市,豊南町南４丁目５番１１号,,27,203,5610815,,,2025-02-20,清算の結了等,,,2015-10-05,1,,,,,ミズホショウジ,0
384,2120903001304,登記記録の閉鎖等,0,2025-02-27,2025-02-19,合同会社オフィス中野,,合同会社,大阪府,豊中市,曽根東町１丁目１０番３号曽根イーストテラス３０７号,,27,203,5610802,,,2025-02-19,清算の結了等,,,2015-10-05,1,,,,,オフィスナカノ,0
387,2140001014999,登記記録の閉鎖等,0,2025-02-27,2025-02-20,小谷設備工業株式会社,,株式会社,兵庫県,神戸市北区,鈴蘭台南町７丁目１３番１号,,28,109,6511113,,,2025-02-20,清算の結了等,,,2015-10-05,1,,,,,コタニセツビコウギョウ,0
390,2140002016821,登記記録の閉鎖等,0,2025-02-27,2025-02-20,有限会社翔千,,有限会社,兵庫県,神戸市垂水区,清玄町４番地の７エステート清玄１０１号,,28,108,6550865,,,2025-02-20,清算の結了等,,,2015-10-05,1,,,,,ショウセン,0
397,2150001020740,登記記録の閉鎖等,0,2025-02-27,2025-02-25,株式会社ＧＲｅｅＤ　ＥＮＴＥＲＴＡＩＮＭＥＮＴ,,株式会社,奈良県,奈良市,杉ヶ町３２番５－３Ｆ,,29,201,6308357,,,2025-02-25,清算の結了等,,,2016-05-24,1,,,,,グリードエンターテインメント,0
414,2180002023772,登記記録の閉鎖等,0,2025-02-27,2025-02-25,ダィテック有限会社,,有限会社,愛知県,名古屋市西区,菊井２丁目９番１２号菊井中京ハイツ１０１号,,23,104,4510044,,,2025-02-25,清算の結了等,,,2015-10-05,1,,,,,ダィテック,0
416,2180003004359,登記記録の閉鎖等,0,2025-02-27,2025-02-21,合資会社寿,,合資会社,愛知県,名古屋市中村区,賑町２６番地,,23,105,4530025,,,2025-02-21,合併による解散等,9180003004328,令和７年２月１８日名古屋市千種区高見二丁目１番２６号セントラルガーデン・レジデンスＩＩＥ－３０１号合資会社珪（9180003004328）に合併し解散,2015-10-05,1,,,,,コトブキ,0
431,2260001032519,登記記録の閉鎖等,0,2025-02-27,2025-02-25,エスケーエンジニアリング株式会社,,株式会社,岡山県,笠岡市,大井南８２番地１４,,33,205,7140013,,,2025-02-25,清算の結了等,,,2018-10-19,1,,,,,エスケーエンジニアリング,0
434,2290001087428,登記記録の閉鎖等,0,2025-02-27,2025-02-17,株式会社Ｃｌｕｔｃｈ,,株式会社,福岡県,福岡市中央区,小笹１丁目１０番５－５２号,,40,133,8100033,,,2025-02-17,清算の結了等,,,2019-12-12,1,,,,,クラッチ,0
436,2290003010718,登記記録の閉鎖等,0,2025-02-27,2025-02-14,合同会社ＦｒｅｅＨａｃｋ,,合同会社,福岡県,福岡市中央区,大名２丁目９番２９号,,40,133,8100041,,,2025-02-14,清算の結了等,,,2020-12-14,1,,,,,フリーハック,0
447,2350001013988,登記記録の閉鎖等,0,2025-02-27,2025-02-25,株式会社ＢＡＫＥＯＮ,,株式会社,宮崎県,宮崎市,清武町今泉甲４５９８－３,,45,201,8891602,,,2025-02-25,清算の結了等,,,2016-04-21,1,,,,,ベーコン,0
452,2370001021790,登記記録の閉鎖等,0,2025-02-27,2025-02-10,株式会社Ｌａ・ｇｅｍｍｅ,,株式会社,東京都,渋谷区,道玄坂１丁目１０番８号渋谷道玄坂東急ビル２Ｆ－Ｃ,,13,113,1500043,,,2025-02-10,清算の結了等,,,2015-10-05,1,,,,,ラジェム,0
462,2410001011770,登記記録の閉鎖等,0,2025-02-27,2025-02-25,株式会社農業舎,,株式会社,秋田県,大仙市,大沢郷寺字野田家越２４１番地２,,05,212,0192103,,,2025-02-25,清算の結了等,,,2018-02-20,1,,,,,,0
477,2500005004308,登記記録の閉鎖等,0,2025-02-27,2025-02-20,特定非営利活動法人ＧＯＯＤＷＩＬＬ,,その他の設立登記法人,愛媛県,新居浜市,久保田町３丁目９番２７号,,38,205,7920026,,,2025-02-20,清算の結了等,,,2015-10-05,1,,,,,グッドウイル,0
554,3020001002016,登記記録の閉鎖等,0,2025-02-27,2025-02-13,株式会社五大,,株式会社,神奈川県,横浜市緑区,三保町２５３２番地,,14,113,2260015,,,2025-02-13,清算の結了等,,,2015-10-05,1,,,,,ゴダイ,0
568,3030001134816,登記記録の閉鎖等,0,2025-02-27,2025-02-21,楽怡株式会社,,株式会社,東京都,北区,赤羽２丁目４９－９赤羽ローヤルコーポ９０２号,,13,117,1150045,,,2025-02-21,清算の結了等,,,2020-01-22,1,,,,,ラクイ,0
581,3050001047231,登記記録の閉鎖等,0,2025-02-27,2025-02-20,株式会社宮田電気商会,,株式会社,茨城県,日立市,金沢町１丁目２番１４号,,08,202,3160015,,,2025-02-20,清算の結了等,,,2020-03-05,1,,,,,ミヤタデンキショウカイ,0
589,3070001016226,登記記録の閉鎖等,0,2025-02-27,2025-02-21,大地住販株式会社,,株式会社,群馬県,桐生市,相生町５丁目４９６番地２,,10,203,3760011,,,2025-02-21,清算の結了等,,,2015-10-05,1,,,,,ダイチジュウハン,0
590,3070005009069,登記記録の閉鎖等,0,2025-02-27,2025-02-25,特定非営利活動法人ハートフルつつじ会,,その他の設立登記法人,群馬県,前橋市,亀泉町２６５番地８６,,10,201,3710004,,,2025-02-25,清算の結了等,,,2015-10-05,1,,,,,ハートフルツツジカイ,0
591,3080001007653,登記記録の閉鎖等,0,2025-02-27,2025-02-25,庵原建設株式会社,,株式会社,静岡県,静岡市清水区,庵原町１４２番地の９,,22,103,4240114,,,2025-02-25,清算の結了等,,,2015-10-05,1,,,,,イハラケンセツ,0
599,3110001013623,登記記録の閉鎖等,0,2025-02-27,2025-02-25,株式会社ケアセンターこころ,,株式会社,新潟県,新発田市,大伝６０２番地１,,15,206,9592304,,,2025-02-25,清算の結了等,,,2015-10-05,1,,,,,ケアセンターココロ,0
600,3110001030420,登記記録の閉鎖等,0,2025-02-27,2025-02-26,株式会社北信越住宅,,株式会社,新潟県,新潟市中央区,新光町１１番７号,,15,103,9500965,,,2025-02-26,清算の結了等,,,2015-10-05,1,,,,,ホクシンエツジュウタク,0
605,3120001250942,登記記録の閉鎖等,0,2025-02-27,2025-02-14,株式会社ドリームウィーバー,,株式会社,大阪府,大阪市城東区,関目２丁目１２番３７－６０２号,,27,118,5360008,,,2025-02-14,清算の結了等,,,2022-12-09,1,,,,,ドリームウィーバー,0
606,3120001253375,登記記録の閉鎖等,0,2025-02-27,2025-02-25,全正株式会社,,株式会社,大阪府,大阪市大正区,三軒家西３丁目４番１６号中山ビル２１２Ａ,,27,108,5510001,,,2025-02-25,清算の結了等,,,2023-03-23,1,,,,,ゼンショウ,0
615,3120005024509,登記記録の閉鎖等,0,2025-02-27,2025-02-25,特定非営利活動法人おうち‐ＯＵＣＨＩ,,その他の設立登記法人,大阪府,大阪市浪速区,桜川１丁目２番２０号桜川シティハイツ４０７,,27,111,5560022,,,2025-02-25,清算の結了等,,,2024-08-29,1,,,,,オウチオウチ,0
616,3120101031846,登記記録の閉鎖等,0,2025-02-27,2025-02-21,淡路産業株式会社,,株式会社,大阪府,羽曳野市,駒ケ谷５番地４３,,27,222,5830841,,,2025-02-21,清算の結了等,,,2015-10-05,1,,,,,アワジサンギョウ,0
617,3120102013843,登記記録の閉鎖等,0,2025-02-27,2025-02-21,有限会社村井,,有限会社,大阪府,松原市,天美我堂４丁目９番１４号,,27,217,5800026,,,2025-02-21,清算の結了等,,,2015-10-05,1,,,,,ムライ,0
622,3120905002695,登記記録の閉鎖等,0,2025-02-27,2025-02-20,特定非営利活動法人ふくろうハウス,,その他の設立登記法人,大阪府,茨木市,上野町１６－９,,27,211,5670064,,,2025-02-20,清算の結了等,,,2015-10-05,1,,,,,フクロウハウス,0
623,3120905006531,登記記録の閉鎖等,0,2025-02-27,2025-02-21,一般社団法人マンション管理組合サポートセンター,,その他の設立登記法人,大阪府,吹田市,千里山竹園１丁目６番３－１１２号,,27,205,5650852,,,2025-02-21,清算の結了等,,,2023-11-08,1,,,,,マンションカンリクミアイサポートセンター,0
632,3140001033940,登記記録の閉鎖等,0,2025-02-27,2025-02-21,株式会社樽正本店,,株式会社,兵庫県,養父市,建屋５８３番地の２,,28,222,6670142,,,2025-02-21,清算の結了等,,,2015-10-05,1,,,,,タルマサホンテン,0
639,3150001005419,登記記録の閉鎖等,0,2025-02-27,2025-02-25,株式会社中村化学工業,,株式会社,奈良県,奈良市,上深川町７５２番地の６,,29,201,6320102,,,2025-02-25,清算の結了等,,,2015-10-05,1,,,,,,0
645,3160002010912,登記記録の閉鎖等,0,2025-02-27,2025-02-26,有限会社陽光,,有限会社,滋賀県,近江八幡市,江頭町６１９番地の５,,25,204,5230061,,,2025-02-26,清算の結了等,,,2015-10-05,1,,,,,ヨウコウ,0
648,3180001116171,登記記録の閉鎖等,0,2025-02-27,2025-02-25,株式会社トーワエナジー,,株式会社,愛知県,春日井市,高山町１丁目２番地６,,23,206,4860912,,,2025-02-25,清算の結了等,,,2015-10-05,1,,,,,トーワエナジー,0
656,3180302013596,登記記録の閉鎖等,0,2025-02-27,2025-02-25,有限会社ディーエムシー,,有限会社,愛知県,豊川市,若宮町７３番地１,,23,207,4420047,,,2025-02-25,清算の結了等,,,2015-10-05,1,,,,,ディーエムシー,0
693,3300002005708,登記記録の閉鎖等,0,2025-02-27,2025-02-25,有限会社ＷＡＴＴ,,有限会社,佐賀県,多久市,東多久町大字別府６４９８番地１,,41,204,8460012,,,2025-02-25,清算の結了等,,,2015-10-05,1,,,,,ワット,0
694,3300005006463,登記記録の閉鎖等,0,2025-02-27,2025-02-26,特定非営利活動法人佐賀空地・空家管理サービス,,その他の設立登記法人,佐賀県,佐賀市,東与賀町大字飯盛１０４７番地１,,41,201,8402223,,,2025-02-26,清算の結了等,,,2015-10-05,1,,,,,サガアキチアキヤカンリサービス,0
703,3340003004325,登記記録の閉鎖等,0,2025-02-27,2025-02-18,合同会社小春日和,,合同会社,鹿児島県,霧島市,国分重久１７４７－１,,46,218,8994301,,,2025-02-18,清算の結了等,,,2023-12-12,1,,,,,コハルビヨリ,0
714,3390002008702,登記記録の閉鎖等,0,2025-02-27,2025-02-21,太陽交通有限会社,,有限会社,山形県,酒田市,光ケ丘５丁目３番３０号,,06,204,9980061,,,2025-02-21,清算の結了等,,,2015-10-05,1,,,,,,0
716,3420003002205,登記記録の閉鎖等,0,2025-02-27,2025-02-20,合同会社ＪＳフーズ,,合同会社,青森県,八戸市,白銀２丁目５番地１,,02,203,0310821,,,2025-02-20,清算の結了等,,,2020-11-06,1,,,,,ジェイエスフーズ,0
717,3430001069848,登記記録の閉鎖等,0,2025-02-27,2025-02-20,株式会社サントレ,,株式会社,北海道,札幌市北区,北十条西１丁目１０番地１ＭＣビル,,01,102,0010010,,,2025-02-20,清算の結了等,,,2015-10-05,1,,,,,サントレ,0
725,3450001011535,登記記録の閉鎖等,0,2025-02-27,2025-02-25,株式会社ナウプラス,,株式会社,北海道,旭川市,東四条１１丁目３番１８号,,01,204,0700024,,,2025-02-25,清算の結了等,,,2015-10-07,1,,,,,,0
753,4010401072261,登記記録の閉鎖等,0,2025-02-27,2025-02-07,株式会社クロスメディア・ジャパン,,株式会社,東京都,港区,芝５丁目１４番１号,,13,103,1080014,,,2025-02-07,清算の結了等,,,2015-10-05,1,,,,,クロスメディアジャパン,0
755,4010402021234,登記記録の閉鎖等,0,2025-02-27,2025-02-20,有限会社クリエイティブ・イズ,,有限会社,東京都,町田市,本町田２９３７番６６号,,13,209,1940032,,,2025-02-20,清算の結了等,,,2015-10-05,1,,,,,クリエイティブイズ,0
759,4010701045784,登記記録の閉鎖等,0,2025-02-27,2025-02-07,光コーポレーション株式会社,,株式会社,東京都,品川区,北品川６丁目６番１４号ＢＥＬＩＳＴＡ御殿山１０５,,13,109,1410001,,,2025-02-07,清算の結了等,,,2024-04-17,1,,,,,ヒカリコーポレーション,0
764,4011001019470,登記記録の閉鎖等,0,2025-02-27,2025-02-25,株式会社樋口事務所,,株式会社,東京都,江東区,木場５丁目１２番１３号,,13,108,1350042,,,2025-02-25,清算の結了等,,,2015-10-05,1,,,,,ヒグチジムショ,0
797,4012301012727,登記記録の閉鎖等,0,2025-02-27,2025-02-21,株式会社ジャストマリッジ,,株式会社,東京都,町田市,玉川学園８丁目９番１７号,,13,209,1940041,,,2025-02-21,清算の結了等,,,2021-09-30,1,,,,,ジャストマリッジ,0
800,4012401032633,登記記録の閉鎖等,0,2025-02-27,2025-02-25,ｏｔｏｍｏ株式会社,,株式会社,東京都,武蔵野市,吉祥寺本町１丁目１３番２号シラカバビル５階,,13,203,1800004,,,2025-02-25,清算の結了等,,,2017-04-20,1,,,,,オトモ,0
801,4012401036502,登記記録の閉鎖等,0,2025-02-27,2025-02-25,長谷川貿易株式会社,,株式会社,東京都,三鷹市,下連雀６丁目７番２４号,,13,204,1810013,,,2025-02-25,清算の結了等,,,2020-05-12,1,,,,,ハセガワボウエキ,0
805,4013201010085,登記記録の閉鎖等,0,2025-02-27,2025-02-14,株式会社シーゲルコミュニケイションズ,,株式会社,東京都,目黒区,大岡山１丁目３０番１４号,,13,110,1520033,,,2025-02-14,清算の結了等,,,2015-10-05,1,,,,,シーゲルコミュニケイションズ,0
809,4020001004820,登記記録の閉鎖等,0,2025-02-27,2025-02-10,株式会社エージェント,,株式会社,神奈川県,横浜市瀬谷区,上瀬谷町３９番１２,,14,114,2460006,,,2025-02-10,清算の結了等,,,2015-10-05,1,,,,,エージェント,0
810,4020001053941,登記記録の閉鎖等,0,2025-02-27,2025-02-25,株式会社三水,,株式会社,神奈川県,横須賀市,船越町６丁目１７番地,,14,201,2370076,,,2025-02-25,清算の結了等,,,2015-10-05,1,,,,,サンスイ,0
813,4020001137760,登記記録の閉鎖等,0,2025-02-27,2025-02-14,株式会社ＡＬＣ,,株式会社,神奈川県,横浜市神奈川区,広台太田町４番地２１トラストワンビル２２・５０２号室,,14,102,2210824,,,2025-02-14,清算の結了等,,,2020-09-18,1,,,,,アルク,0
815,4020002039816,登記記録の閉鎖等,0,2025-02-27,2025-02-12,有限会社新潟製作所,,有限会社,神奈川県,横浜市鶴見区,下末吉１丁目７番９号,,14,101,2300012,,,2025-02-12,清算の結了等,,,2015-10-05,1,,,,,,0
816,4020002073988,登記記録の閉鎖等,0,2025-02-27,2025-02-10,有限会社シエスタ,,有限会社,神奈川県,横浜市鶴見区,北寺尾７丁目３０番１２号,,14,101,2300074,,,2025-02-10,清算の結了等,,,2015-10-05,1,,,,,シエスタ,0
823,4021002015063,登記記録の閉鎖等,0,2025-02-27,2025-02-25,有限会社竹よし,,有限会社,神奈川県,鎌倉市,小町２丁目２番１６号,,14,204,2480006,,,2025-02-25,清算の結了等,,,2015-10-05,1,,,,,タケヨシ,0
835,4030005006127,登記記録の閉鎖等,0,2025-02-27,2025-02-21,特定非営利活動法人新和あゆみ会,,その他の設立登記法人,埼玉県,三郷市,新和４丁目４４６番地,,11,237,3410034,,,2025-02-21,清算の結了等,,,2015-10-05,1,,,,,シンワアユミカイ,0
870,4120001212256,登記記録の閉鎖等,0,2025-02-27,2025-02-21,株式会社グラディア,,株式会社,大阪府,大阪市中央区,淡路町１丁目４番１６号,,27,128,5410047,,,2025-02-21,合併による解散等,7120001039952,令和７年２月２１日大阪市中央区淡路町一丁目４番１６号マリアンボレ株式会社（7120001039952）に合併し解散,2018-03-29,1,,,,,グラディア,0
888,4140005004326,登記記録の閉鎖等,0,2025-02-27,2025-02-20,特定非営利活動法人ＣＣ愛編集室,,その他の設立登記法人,兵庫県,神戸市東灘区,住吉山手２丁目５番７号,,28,101,6580063,,,2025-02-20,清算の結了等,,,2015-10-05,1,,,,,シーシーアイヘンシュウシツ,0
894,4180001008302,登記記録の閉鎖等,0,2025-02-27,2025-02-21,サンエイ株式会社,,株式会社,愛知県,名古屋市昭和区,丸屋町４丁目１０１番地,,23,107,4660045,,,2025-02-21,清算の結了等,,,2015-10-05,1,,,,,サンエイ,0
897,4180001035247,登記記録の閉鎖等,0,2025-02-27,2025-02-25,株式会社カネ正,,株式会社,愛知県,名古屋市中区,大須３丁目９番４０号,,23,106,4600011,,,2025-02-25,清算の結了等,,,2015-10-05,1,,,,,カネショウ,0
898,4180001103672,登記記録の閉鎖等,0,2025-02-27,2025-02-19,株式会社Ａｒｔｅｇｇ,,株式会社,愛知県,名古屋市千種区,上野１丁目２番２４号,,23,101,4640082,,,2025-02-19,清算の結了等,,,2015-10-05,1,,,,,アートエッグ,0
903,4180302015451,登記記録の閉鎖等,0,2025-02-27,2025-02-25,三越運輸有限会社,,有限会社,愛知県,蒲郡市,三谷町東１丁目１６４番地,,23,214,4430021,,,2025-02-25,清算の結了等,,,2015-10-05,1,,,,,,0
906,4200005004170,登記記録の閉鎖等,0,2025-02-27,2025-02-20,医療法人社団泉周会,,その他の設立登記法人,岐阜県,大垣市,新町２丁目１００番地,,21,202,5030872,,,2025-02-20,清算の結了等,,,2015-10-05,1,,,,,センシュウカイ,0
911,4210003001111,登記記録の閉鎖等,0,2025-02-27,2025-02-21,アバンダンスコンサルティング合同会社,,合同会社,福井県,坂井市,坂井町長屋第３２号１番地１４,,18,210,9190503,,,2025-02-21,清算の結了等,,,2018-10-03,1,,,,,アバンダンスコンサルティング,0
913,4230001013874,登記記録の閉鎖等,0,2025-02-27,2025-02-25,光触媒サンブレス株式会社,,株式会社,富山県,高岡市,中川本町１６番１号,,16,202,9330046,,,2025-02-25,清算の結了等,,,2015-10-05,1,,,,,ヒカリショクバイサンブレス,0
944,4380002001277,登記記録の閉鎖等,0,2025-02-27,2025-02-26,有限会社近藤全治堂,,有限会社,福島県,福島市,栄町９番２号,,07,201,9608031,,,2025-02-26,清算の結了等,,,2015-10-05,1,,,,,コンドウゼンチドウ,0
946,4420002010034,登記記録の閉鎖等,0,2025-02-27,2025-02-25,有限会社若本測量,,有限会社,青森県,三戸郡南部町,大字下名久井字前田７番地５,,02,445,0390502,,,2025-02-25,清算の結了等,,,2015-10-05,1,,,,,ワカモトソクリョウ,0
947,4420002015917,登記記録の閉鎖等,0,2025-02-27,2025-02-21,有限会社緑清会,,有限会社,青森県,平川市,大光寺一滝本１２３番地,,02,210,0360101,,,2025-02-21,清算の結了等,,,2015-10-05,1,,,,,リョクセイカイ,0
960,5010001173244,登記記録の閉鎖等,0,2025-02-27,2025-02-05,アルコニックス・エムティ株式会社,,株式会社,東京都,千代田区,永田町２丁目１１番１号,,13,101,1000014,,,2025-02-05,合併による解散等,1010401042424,令和７年１月２９日東京都千代田区永田町二丁目１１番１号アルコニックス株式会社（1010401042424）に合併し解散,2016-01-28,1,,,,,アルコニックスエムティ,0
968,5010005018247,登記記録の閉鎖等,0,2025-02-27,2025-02-21,特定非営利活動法人日本小児外科学会,,その他の設立登記法人,東京都,文京区,大塚５丁目３番１３号,,13,105,1120012,,,2025-02-21,清算の結了等,,,2015-10-05,1,,,,,ショウニゲカガッカイ,0
1005,5011501012742,登記記録の閉鎖等,0,2025-02-27,2025-02-25,株式会社プレシャス・リンク,,株式会社,東京都,北区,上中里１丁目１７番１３号,,13,117,1140016,,,2025-02-25,清算の結了等,,,2015-10-05,1,,,,,,0
1011,5012301009499,登記記録の閉鎖等,0,2025-02-27,2025-02-06,株式会社エフエイト,,株式会社,東京都,渋谷区,代々木２丁目３９番７号,,13,113,1510053,,,2025-02-06,清算の結了等,,,2015-10-05,1,,,,,エフエイト,0
1014,5012402006338,登記記録の閉鎖等,0,2025-02-27,2025-02-13,有限会社高橋電設,,有限会社,東京都,国立市,谷保５９５６番地の３,,13,215,1860011,,,2025-02-13,清算の結了等,,,2015-10-05,1,,,,,タカハシデンセツ,0
1019,5020001068939,登記記録の閉鎖等,0,2025-02-27,2025-02-07,エルゴ電子株式会社,,株式会社,神奈川県,川崎市中原区,小杉御殿町２丁目６７番地６,,14,133,2110068,,,2025-02-07,清算の結了等,,,2015-10-05,1,,,,,エルゴデンシ,0
1025,5020002067816,登記記録の閉鎖等,0,2025-02-27,2025-02-12,有限会社サーマルオフィス,,有限会社,神奈川県,横浜市中区,石川町５丁目２３２番６,,14,104,2310868,,,2025-02-12,清算の結了等,,,2015-10-05,1,,,,,サーマルオフィス,0
1026,5020003023826,登記記録の閉鎖等,0,2025-02-27,2025-02-07,Ｒｏｏｔ　Ｏｎｅ　Ｙｏｇａ合同会社,,合同会社,神奈川県,川崎市多摩区,宿河原４丁目２５－３７ジョイウエスト西山Ｂ１号室,,14,135,2140021,,,2025-02-07,清算の結了等,,,2023-04-28,1,,,,,ルートワンヨガ,0
1054,5060001003982,登記記録の閉鎖等,0,2025-02-27,2025-02-21,フルワ建設株式会社,,株式会社,栃木県,宇都宮市,平出町３５１７番地３０,,09,201,3210901,,,2025-02-21,清算の結了等,,,2015-10-05,1,,,,,フルワケンセツ,0
1077,5122001036989,登記記録の閉鎖等,0,2025-02-27,2025-02-20,零度科技株式会社,,株式会社,大阪府,東大阪市,上石切町２丁目１２番１４号,,27,227,5798012,,,2025-02-20,清算の結了等,,,2023-05-19,1,,,,,レイドカギ,0
1082,5140001072490,登記記録の閉鎖等,0,2025-02-27,2025-02-21,米田炉工株式会社,,株式会社,兵庫県,西宮市,小松南町１丁目５番１５号,,28,204,6638124,,,2025-02-21,清算の結了等,,,2015-10-05,1,,,,,ヨネダロコウ,0
1084,5140001101448,登記記録の閉鎖等,0,2025-02-27,2025-02-20,株式会社こすみ,,株式会社,兵庫県,明石市,松の内２丁目１番地の６,,28,203,6730016,,,2025-02-20,清算の結了等,,,2016-03-24,1,,,,,コスミ,0
1088,5150001014649,登記記録の閉鎖等,0,2025-02-27,2025-02-25,株式会社ウィズ,,株式会社,奈良県,橿原市,曽我町４９２番地,,29,205,6340831,,,2025-02-25,清算の結了等,,,2015-10-05,1,,,,,ウィズ,0
1163,5380002021183,登記記録の閉鎖等,0,2025-02-27,2025-02-18,有限会社矢部ソーイング,,有限会社,福島県,石川郡玉川村,大字川辺字池下１６３番地の２,,07,502,9636313,,,2025-02-18,清算の結了等,,,2015-10-05,1,,,,,ヤベソーイング,0
1165,5400002003352,登記記録の閉鎖等,0,2025-02-27,2025-02-17,有限会社盛岡合作社,,有限会社,岩手県,盛岡市,材木町４番２７号,,03,201,0200063,,,2025-02-17,清算の結了等,,,2015-10-05,1,,,,,モリオカガッサクシャ,0
1172,5430001059715,登記記録の閉鎖等,0,2025-02-27,2025-02-13,株式会社オフィスクローバー,,株式会社,北海道,札幌市東区,北三十四条東２３丁目４番１６号,,01,103,0070834,,,2025-02-13,清算の結了等,,,2015-10-05,1,,,,,オフィスクローバー,0
1174,5430001072635,登記記録の閉鎖等,0,2025-02-27,2025-02-21,株式会社ＪＣＦ,,株式会社,北海道,札幌市北区,麻生町２丁目４番１３号,,01,102,0010045,,,2025-02-21,清算の結了等,,,2016-11-04,1,,,,,ジェイシーエフ,0
1194,6010001069648,登記記録の閉鎖等,0,2025-02-27,2025-02-03,株式会社メディサーチ,,株式会社,東京都,千代田区,岩本町３丁目９－２,,13,101,1010032,,,2025-02-03,合併による解散等,4010001117598,令和７年２月１日東京都千代田区岩本町３－９－２オンウェーブ株式会社（4010001117598）に合併し解散,2015-10-05,1,,,,,メディサーチ,0
1216,6010701003063,登記記録の閉鎖等,0,2025-02-27,2025-02-10,株式会社健生製薬社,,株式会社,東京都,品川区,西大井２丁目４番１１号,,13,109,1400015,,,2025-02-10,清算の結了等,,,2015-10-05,1,,,,,ケンセイセイヤクシャ,0
1217,6010701017559,登記記録の閉鎖等,0,2025-02-27,2025-02-07,株式会社ＵＮＩＴＥＤ　ＦＯＯＤ　ＳＹＳＴＥＭ,,株式会社,東京都,品川区,西五反田５丁目１０番６号,,13,109,1410031,,,2025-02-07,清算の結了等,,,2015-10-05,1,,,,,ユナイテッドフードシステム,0
1231,6011001142725,登記記録の閉鎖等,0,2025-02-27,2025-02-06,株式会社ベルージェ,,株式会社,東京都,渋谷区,神宮前６丁目２３番４号桑野ビル２階,,13,113,1500001,,,2025-02-06,清算の結了等,,,2021-09-09,1,,,,,ベルージェ,0
1248,6011503004992,登記記録の閉鎖等,0,2025-02-27,2025-02-25,合同会社キャンティ,,合同会社,東京都,荒川区,南千住４丁目９番２－５１０号,,13,118,1160003,,,2025-02-25,清算の結了等,,,2021-11-30,1,,,,,キャンティ,0
1268,6020002018520,登記記録の閉鎖等,0,2025-02-27,2025-02-12,有限会社協同運輸,,有限会社,神奈川県,横浜市港南区,芹が谷４丁目２９番２８号,,14,111,2330006,,,2025-02-12,清算の結了等,,,2015-10-05,1,,,,,キョウドウウンユ,0
1270,6020002070232,登記記録の閉鎖等,0,2025-02-27,2025-02-12,株式会社Ｋｕｄｏｕｇｈ,,株式会社,神奈川県,横浜市都筑区,高山１９番８－４０７号,,14,118,2240065,,,2025-02-12,清算の結了等,,,2015-10-05,1,,,,,クドウ,0
1280,6030001148739,登記記録の閉鎖等,0,2025-02-27,2025-02-21,城北ホールディングス株式会社,,株式会社,埼玉県,東松山市,大字新郷４０１番地,,11,212,3550071,,,2025-02-21,合併による解散等,8011401003203,令和７年２月２１日埼玉県東松山市大字新郷４０１番地城北伸鉄株式会社（8011401003203）に合併し解散,2022-06-16,1,,,,,ジョウホクホールディングス,0
1286,6040001059159,登記記録の閉鎖等,0,2025-02-27,2025-02-20,株式会社京葉ボールト,,株式会社,千葉県,茂原市,小林２５８１番地の１,,12,210,2970074,,,2025-02-20,清算の結了等,,,2015-10-05,1,,,,,ケイヨウボールト,0
1290,6040001082912,登記記録の閉鎖等,0,2025-02-27,2025-02-21,株式会社カタヤマ商会,,株式会社,千葉県,千葉市稲毛区,緑町２丁目１４番１６号,,12,103,2630023,,,2025-02-21,清算の結了等,,,2015-10-05,1,,,,,カタヤマショウカイ,0
1293,6040001113304,登記記録の閉鎖等,0,2025-02-27,2025-02-25,株式会社近藤グループ検見川,,株式会社,山梨県,中央市,東花輪９４６番地１,,19,214,4093842,,,2025-02-25,清算の結了等,,,2020-04-13,1,,,,,コンドウグループケミガワ,0
1327,6110005013501,登記記録の閉鎖等,0,2025-02-27,2025-02-25,社会福祉法人泉の会,,その他の設立登記法人,新潟県,南魚沼市,東泉田字前島８９８番地１,,15,226,9496612,,,2025-02-25,清算の結了等,,,2015-10-05,1,,,,,イズミノカイ,0
1332,6120001260988,登記記録の閉鎖等,0,2025-02-27,2025-02-19,非同凡響株式会社,,株式会社,大阪府,大阪市西淀川区,姫島２丁目４番１０号パークアベニュー２階Ａ室,,27,113,5550033,,,2025-02-19,清算の結了等,,,2024-01-04,1,,,,,ヒドウボンキョウ,0
1345,6130003006091,登記記録の閉鎖等,0,2025-02-27,2025-02-17,合同会社ｉ－Ｔｅｃｈｎｏ,00120010,合同会社,京都府,京都市下京区,西七条南東野町１４番ＧＬＡＮＺ七条通５０２,,26,106,6008872,,,2025-02-17,清算の結了等,,,2019-07-05,1,,,,,アイテクノ,0
1354,6140005021609,登記記録の閉鎖等,0,2025-02-27,2025-02-21,特定目的会社ＳＡＮ　ＰＲＯＪＥＣＴ,,その他の設立登記法人,東京都,千代田区,神田司町２丁目１９番,,13,101,1010048,,,2025-02-21,清算の結了等,,,2015-10-05,1,,,,,サンプロジェクト,0
1360,6180001117811,登記記録の閉鎖等,0,2025-02-27,2025-02-25,株式会社ＳＥＶＥＮ　ＳＥＮＳＥ,,株式会社,三重県,鈴鹿市,三日市１丁目８番３０号カレン曙２０３,,24,207,5130807,,,2025-02-25,清算の結了等,,,2015-10-05,1,,,,,,0
1362,6180001129963,登記記録の閉鎖等,0,2025-02-27,2025-02-26,株式会社ＦＩＤ,,株式会社,愛知県,名古屋市熱田区,六野２丁目１番３号,,23,109,4560023,,,2025-02-26,合併による解散等,5180001044296,令和７年２月１日名古屋市中区栄三丁目２２番２９号株式会社フリーインターナショナル（5180001044296）に合併し解散,2017-11-01,1,,,,,エフアイディー,0
1363,6180001146694,登記記録の閉鎖等,0,2025-02-27,2025-02-25,Ｏｎｅ　Ｚｅｒｏ株式会社,,株式会社,愛知県,名古屋市中区,丸の内３丁目４番３３号,,23,106,4600002,,,2025-02-25,清算の結了等,,,2021-06-23,1,,,,,ワンゼロ,0
1369,6180002000090,登記記録の閉鎖等,0,2025-02-27,2025-02-25,有限会社寿設備工業,,有限会社,愛知県,名古屋市守山区,川村町１７２番地の２,,23,113,4630097,,,2025-02-25,清算の結了等,,,2015-10-05,1,,,,,コトブキセツビコウギョウ,0
1370,6180002006765,登記記録の閉鎖等,0,2025-02-27,2025-02-20,有限会社鳥山工具店,,有限会社,愛知県,名古屋市港区,当知１丁目１１０４番地,,23,111,4550804,,,2025-02-20,清算の結了等,,,2015-10-05,1,,,,,トリヤマコウグテン,0
1371,6180002066842,登記記録の閉鎖等,0,2025-02-27,2025-02-21,有限会社中村組,,有限会社,愛知県,春日井市,如意申町８丁目１２番地３,,23,206,4860918,,,2025-02-21,清算の結了等,,,2015-10-05,1,,,,,ナカムラグミ,0
1372,6180003018140,登記記録の閉鎖等,0,2025-02-27,2025-02-20,合同会社ＭＯＭＯ,,合同会社,愛知県,瀬戸市,東横山町６２番地の５エムズシティ新瀬戸８０１,,23,204,4890066,,,2025-02-20,清算の結了等,,,2017-08-01,1,,,,,モモ,0
1375,6180301006202,登記記録の閉鎖等,0,2025-02-27,2025-02-19,大一建工株式会社,,株式会社,愛知県,豊橋市,東森岡１丁目４番地の１４,,23,201,4411113,,,2025-02-19,清算の結了等,,,2015-10-05,1,,,,,ダイイチケンコウ,0
1376,6180301024154,登記記録の閉鎖等,0,2025-02-27,2025-02-21,株式会社住工房,,株式会社,愛知県,新城市,下吉田字小阿寺３３番地,,23,221,4411621,,,2025-02-21,清算の結了等,,,2015-10-05,1,,,,,ジュウコウボウ,0
1386,6220002008971,登記記録の閉鎖等,0,2025-02-27,2025-02-20,有限会社コスモ交通,,有限会社,石川県,金沢市,小坂町中１６番地６,,17,201,9200811,,,2025-02-20,清算の結了等,,,2015-10-05,1,,,,,コスモコウツウ,0
1391,6240001022559,登記記録の閉鎖等,0,2025-02-27,2025-02-20,株式会社カゲヤマ,,株式会社,広島県,東広島市,西条本町１６番２６号,,34,212,7390011,,,2025-02-20,清算の結了等,,,2015-10-05,1,,,,,カゲヤマ,0
1395,6240002008012,登記記録の閉鎖等,0,2025-02-27,2025-02-21,有限会社城南商会,,有限会社,広島県,広島市安佐南区,八木２丁目１２番３４号,,34,105,7310101,,,2025-02-21,清算の結了等,,,2015-10-05,1,,,,,ジョウナンショウカイ,0
1406,6290001097258,登記記録の閉鎖等,0,2025-02-27,2025-02-14,株式会社ブリリオ,,株式会社,福岡県,福岡市南区,筑紫丘１丁目２２番２１号,,40,134,8150036,,,2025-02-14,清算の結了等,,,2022-04-20,1,,,,,ブリリオ,0
1435,6370301000739,登記記録の閉鎖等,0,2025-02-27,2025-02-20,株式会社静楽園,,株式会社,宮城県,石巻市,鹿又字新田町浦８０番地の３,,04,202,9861111,,,2025-02-20,清算の結了等,,,2015-10-05,1,,,,,セイラクエン,0
1440,6390002014689,登記記録の閉鎖等,0,2025-02-27,2025-02-21,有限会社ひまわり産業,,有限会社,山形県,東置賜郡川西町,大字吉田３２１９番地１,,06,382,9990214,,,2025-02-21,清算の結了等,,,2015-10-05,1,,,,,,0
1451,6430002016029,登記記録の閉鎖等,0,2025-02-27,2025-02-21,有限会社早川商事,,有限会社,北海道,札幌市北区,北四十条西５丁目５番１号,,01,102,0010040,,,2025-02-21,清算の結了等,,,2015-10-05,1,,,,,ハヤカワショウジ,0
1463,7010001193686,登記記録の閉鎖等,0,2025-02-27,2025-02-05,株式会社プラン・レジデンシャルリース,,株式会社,東京都,千代田区,神田須田町１丁目１番地９,,13,101,1010041,,,2025-02-05,合併による解散等,3010401072915,令和７年２月１日東京都千代田区神田須田町一丁目１番地９株式会社プラン・ドゥ（3010401072915）に合併し解散,2018-07-30,1,,,,,プランレジデンシャルリース,0
1483,7010601035965,登記記録の閉鎖等,0,2025-02-27,2025-02-25,株式会社ピュアフィット,,株式会社,東京都,墨田区,両国４丁目２番８号,,13,107,1300026,,,2025-02-25,清算の結了等,,,2015-10-05,1,,,,,ピュアフィット,0
1496,7011003002694,登記記録の閉鎖等,0,2025-02-27,2025-02-13,合同会社トリノ,,合同会社,東京都,渋谷区,代官山町２０番９号,,13,113,1500034,,,2025-02-13,清算の結了等,,,2015-10-05,1,,,,,トリノ,0
1504,7011502010248,登記記録の閉鎖等,0,2025-02-27,2025-02-21,有限会社ナミ川商店,,有限会社,東京都,荒川区,東尾久４丁目６番７号,,13,118,1160012,,,2025-02-21,清算の結了等,,,2015-10-05,1,,,,,ナミカワショウテン,0
1509,7011802009675,登記記録の閉鎖等,0,2025-02-27,2025-02-25,有限会社石巻屋,,有限会社,東京都,足立区,保木間１丁目２６番８号,,13,121,1210064,,,2025-02-25,清算の結了等,,,2015-10-05,1,,,,,イシマキヤ,0
1522,7020001128633,登記記録の閉鎖等,0,2025-02-27,2025-02-07,株式会社ＦＵＪＩＣＡＭＥＲＡ,,株式会社,神奈川県,横浜市泉区,中田北３丁目３１－１０西が丘テラスＡ,,14,116,2450012,,,2025-02-07,清算の結了等,,,2018-11-14,1,,,,,フジカメラ,0
1530,7020002095294,登記記録の閉鎖等,0,2025-02-27,2025-02-12,有限会社アキモト機器,,有限会社,神奈川県,川崎市川崎区,小田栄１丁目１３番６号,,14,131,2100843,,,2025-02-12,清算の結了等,,,2015-10-05,1,,,,,アキモトキキ,0
1553,7050001026207,登記記録の閉鎖等,0,2025-02-27,2025-02-19,株式会社ホットスタッフサービス,,株式会社,茨城県,水戸市,河和田町３８９１番地の１０５,,08,201,3114153,,,2025-02-19,清算の結了等,,,2015-10-05,1,,,,,ホットスタッフサービス,0
1565,7120001046156,登記記録の閉鎖等,0,2025-02-27,2025-02-26,西川設備工業株式会社,,株式会社,大阪府,大阪市西区,土佐堀１丁目１番１３号,,27,106,5500001,,,2025-02-26,清算の結了等,,,2015-10-05,1,,,,,ニシカワセツビコウギョウ,0
1575,7120001260211,登記記録の閉鎖等,0,2025-02-27,2025-02-25,株式会社Ｓｙｍｆｆｏｎｉｘ,,株式会社,大阪府,大阪市北区,梅田１丁目２番２号大阪駅前第２ビル１２－１２,,27,127,5300001,,,2025-02-25,清算の結了等,,,2023-11-28,1,,,,,シンフォニクス,0
1586,7122001008276,登記記録の閉鎖等,0,2025-02-27,2025-02-21,ユーピースポーツ株式会社,,株式会社,大阪府,大阪市平野区,瓜破１丁目１１番１７号,,27,126,5470024,,,2025-02-21,清算の結了等,,,2015-10-05,1,,,,,ユーピースポーツ,0
1588,7130002000301,登記記録の閉鎖等,0,2025-02-27,2025-02-25,有限会社エルフ,,有限会社,京都府,京都市西京区,大枝北沓掛町５丁目６番地１,,26,111,6101101,,,2025-02-25,清算の結了等,,,2015-10-05,1,,,,,エルフ,0
1593,7140001109266,登記記録の閉鎖等,0,2025-02-27,2025-02-21,株式会社石井商会,,株式会社,兵庫県,姫路市,香寺町田野３３番地１,,28,201,6792153,,,2025-02-21,清算の結了等,,,2018-03-01,1,,,,,,0
1609,7180002008348,登記記録の閉鎖等,0,2025-02-27,2025-02-20,田中レール有限会社,,有限会社,愛知県,名古屋市昭和区,白金２丁目１４番１７号,,23,107,4660058,,,2025-02-20,清算の結了等,,,2015-10-05,1,,,,,タナカレール,0
1618,7210001011134,登記記録の閉鎖等,0,2025-02-27,2025-02-25,三和建設株式会社,,株式会社,福井県,三方上中郡若狭町,大鳥羽３６号３番地４,,18,501,9191504,,,2025-02-25,清算の結了等,,,2015-10-05,1,,,,,サンワケンセツ,0
1626,7240001009844,登記記録の閉鎖等,0,2025-02-27,2025-02-25,株式会社ビッグ・バイク,,株式会社,広島県,広島市佐伯区,城山２丁目１番１２号,,34,108,7315155,,,2025-02-25,清算の結了等,,,2015-10-05,1,,,,,ビッグバイク,0
1628,7240003005107,登記記録の閉鎖等,0,2025-02-27,2025-02-21,合同会社Ｂｅｌｌ,,合同会社,広島県,広島市中区,中町１番１７－６０１号メンタービル,,34,101,7300037,,,2025-02-21,清算の結了等,,,2021-05-21,1,,,,,ベル,0
1635,7280001006755,登記記録の閉鎖等,0,2025-02-27,2025-02-25,ディオルジュ株式会社,,株式会社,島根県,松江市,寺町９９番地１,,32,201,6900063,,,2025-02-25,清算の結了等,,,2015-10-05,1,,,,,ディオルジュ,0
1660,7390005007631,登記記録の閉鎖等,0,2025-02-27,2025-02-20,医療法人中正堂高橋医院,,その他の設立登記法人,山形県,寒河江市,大字白岩２２０番地,,06,206,9900505,,,2025-02-20,清算の結了等,,,2015-10-05,1,,,,,チュウセイドウタカハシイイン,0
1662,7410001006849,登記記録の閉鎖等,0,2025-02-27,2025-02-25,株式会社Ｗｅｓｔ,,株式会社,秋田県,大館市,比内町笹館字前田野７３番地６,,05,204,0185731,,,2025-02-25,清算の結了等,,,2015-10-05,1,,,,,,0
1664,7430001053559,登記記録の閉鎖等,0,2025-02-27,2025-02-21,株式会社日胆住設,,株式会社,北海道,苫小牧市,新開町４丁目２番１０号,,01,213,0530052,,,2025-02-21,清算の結了等,,,2015-10-05,1,,,,,ニッタンジュウセツ,0
1676,8010003028484,登記記録の閉鎖等,0,2025-02-27,2025-02-13,ジェネシスシステムズ合同会社,,合同会社,東京都,中央区,東日本橋２丁目２８番４号日本橋ＣＥＴビル２階,,13,102,1030004,,,2025-02-13,清算の結了等,,,2018-10-23,1,,,,,ジェネシスシステムズ,0
1677,8010003042238,登記記録の閉鎖等,0,2025-02-27,2025-02-13,合同会社サターン,,合同会社,東京都,千代田区,霞が関３丁目２番５号,,13,101,1000013,,,2025-02-13,清算の結了等,,,2023-11-20,1,,,,,サターン,0
1694,8010501047829,登記記録の閉鎖等,0,2025-02-27,2025-02-14,株式会社フューチャー,,株式会社,東京都,台東区,東上野１丁目２２番３号片岡ビル４Ｆ,,13,106,1100015,,,2025-02-14,清算の結了等,,,2021-09-14,1,,,,,フューチャー,0
1704,8010901043915,登記記録の閉鎖等,0,2025-02-27,2025-02-21,ＡＮＫＯ株式会社,,株式会社,東京都,世田谷区,代沢４丁目３２番３号,,13,112,1550032,,,2025-02-21,清算の結了等,,,2019-04-02,1,,,,,アンコ,0
1705,8011001025119,登記記録の閉鎖等,0,2025-02-27,2025-02-17,株式会社リブロコーポレーション,,株式会社,東京都,渋谷区,代々木３丁目３５番４号,,13,113,1510053,,,2025-02-17,清算の結了等,,,2015-10-05,1,,,,,リブロコーポレーション,0
1727,8011701016953,登記記録の閉鎖等,0,2025-02-27,2025-02-18,株式会社フードデザイン,,株式会社,東京都,江戸川区,東小松川２丁目１８番６号,,13,123,1320033,,,2025-02-18,清算の結了等,,,2015-10-05,1,,,,,フードデザイン,0
1732,8012801018666,登記記録の閉鎖等,0,2025-02-27,2025-02-12,日野エレクトロニクス株式会社,,株式会社,東京都,日野市,南平２丁目３６番地の２１,,13,212,1910041,,,2025-02-12,清算の結了等,,,2018-04-12,1,,,,,ヒノエレクトロニクス,0
1746,8020001139984,登記記録の閉鎖等,0,2025-02-27,2025-02-10,株式会社ローデザイン,,株式会社,神奈川県,横浜市西区,高島２丁目１１番２号スカイメナー横浜５１９,,14,103,2200011,,,2025-02-10,清算の結了等,,,2021-02-17,1,,,,,ローデザイン,0
1757,8021001050669,登記記録の閉鎖等,0,2025-02-27,2025-02-25,株式会社フォルニクス,,株式会社,神奈川県,逗子市,久木８丁目３番３３号,,14,208,2490001,,,2025-02-25,清算の結了等,,,2015-10-05,1,,,,,フォルニクス,0
1766,8030001120828,登記記録の閉鎖等,0,2025-02-27,2025-02-13,株式会社ロンギヌス,,株式会社,東京都,新宿区,北新宿４丁目２８番８号ＹＴビル３Ｆ,,13,104,1690074,,,2025-02-13,清算の結了等,,,2017-06-15,1,,,,,ロンギヌス,0
1781,8040002034670,登記記録の閉鎖等,0,2025-02-27,2025-02-20,有限会社杉浦電機,,有限会社,千葉県,市川市,南八幡４丁目４番２４号,,12,203,2720023,,,2025-02-20,清算の結了等,,,2015-10-05,1,,,,,スギウラデンキ,0
1790,8080402015886,登記記録の閉鎖等,0,2025-02-27,2025-02-18,有限会社サンキューオート,,有限会社,静岡県,浜松市浜名区,細江町中川６３６７番地,,22,139,4311304,,,2025-02-18,清算の結了等,,,2015-10-05,1,,,,,サンキューオート,0
1808,8122001017417,登記記録の閉鎖等,0,2025-02-27,2025-02-20,株式会社ＴＹ総合,,株式会社,大阪府,大東市,津の辺町２１番３６号,,27,218,5740017,,,2025-02-20,清算の結了等,,,2015-10-05,1,,,,,ティワイソウゴウ,0
1829,8180001086947,登記記録の閉鎖等,0,2025-02-27,2025-02-25,株式会社ヒロサ建工,,株式会社,愛知県,一宮市,丹陽町外崎６３１番地２,,23,203,4910825,,,2025-02-25,清算の結了等,,,2015-10-05,1,,,,,ヒロサケンコウ,0
1830,8180001117850,登記記録の閉鎖等,0,2025-02-27,2025-02-25,株式会社セプティレ,,株式会社,愛知県,名古屋市千種区,赤坂町５丁目４０番３,,23,101,4640094,,,2025-02-25,清算の結了等,,,2015-10-05,1,,,,,セプティレ,0
1835,8190005006727,登記記録の閉鎖等,0,2025-02-27,2025-02-25,宗教法人伊勢荒神山稲荷教会,,その他の設立登記法人,三重県,松阪市,垣鼻町１２３２番地,,24,204,5150033,,,2025-02-25,清算の結了等,,,2015-10-05,1,,,,,イセコウジンヤマイナリキョウカイ,0
1839,8230001002931,登記記録の閉鎖等,0,2025-02-27,2025-02-26,北陸交易株式会社,,株式会社,富山県,富山市,太郎丸本町１丁目７番地の６,,16,201,9398272,,,2025-02-26,清算の結了等,,,2015-10-05,1,,,,,ホクリクコウエキ,0
1844,8250001000818,登記記録の閉鎖等,0,2025-02-27,2025-02-25,株式会社山寅楼,,株式会社,山口県,山口市,新馬場２番地の３,,35,203,7530085,,,2025-02-25,清算の結了等,,,2015-10-05,1,,,,,ヤマトラロウ,0
1845,8250001008670,登記記録の閉鎖等,0,2025-02-27,2025-02-20,株式会社朝日印刷社,,株式会社,山口県,周南市,橋本町２丁目２０番地,,35,215,7450022,,,2025-02-20,清算の結了等,,,2015-10-05,1,,,,,アサヒインサツシャ,0
1859,8310002017904,登記記録の閉鎖等,0,2025-02-27,2025-02-25,有限会社キック・オフ,,有限会社,長崎県,島原市,北門町１５６６番地３,,42,203,8550032,,,2025-02-25,清算の結了等,,,2015-10-05,1,,,,,キックオフ,0
1860,8310003003399,登記記録の閉鎖等,0,2025-02-27,2025-02-21,田中町再開発合同会社,,合同会社,長崎県,長崎市,田中町１２０１番地,,42,201,8510134,,,2025-02-21,清算の結了等,,,2018-01-09,1,,,,,タナカマチサイカイハツ,0
1870,8370105000124,登記記録の閉鎖等,0,2025-02-27,2025-02-17,テーデーエフ労働組合,,その他の設立登記法人,宮城県,柴田郡村田町,大字沼辺字方作３９番地,,04,322,9891321,,,2025-02-17,清算の結了等,,,2015-10-05,1,,,,,テーデーエフ,0
1879,8420001009899,登記記録の閉鎖等,0,2025-02-27,2025-02-25,株式会社岩谷商店,,株式会社,青森県,黒石市,大字横町１７番地１号,,02,204,0360368,,,2025-02-25,清算の結了等,,,2015-10-05,1,,,,,イワヤショウテン,0
1880,8420005007354,登記記録の閉鎖等,0,2025-02-27,2025-02-21,特定非営利活動法人コミュサーあおもり,,その他の設立登記法人,青森県,青森市,長島２丁目４番１９号,,02,201,0300861,,,2025-02-21,清算の結了等,,,2015-10-05,1,,,,,コミュサーアオモリ,0
1893,8470002010546,登記記録の閉鎖等,0,2025-02-27,2025-02-25,有限会社伊藤電気商会,,有限会社,香川県,木田郡三木町,大字池戸３３１９番地１,,37,341,7610701,,,2025-02-25,清算の結了等,,,2015-10-05,1,,,,,イトウデンキショウカイ,0
1894,8480001005892,登記記録の閉鎖等,0,2025-02-27,2025-02-25,グローバル・コンセプト株式会社,,株式会社,徳島県,徳島市,名東町３丁目１５１番地,,36,201,7700047,,,2025-02-25,清算の結了等,,,2015-10-05,1,,,,,グローバルコンセプト,0
1896,8500001007853,登記記録の閉鎖等,0,2025-02-27,2025-02-25,株式会社城ヶ滝材木店,,株式会社,愛媛県,大洲市,長浜甲１０１９番地,,38,207,7993401,,,2025-02-25,清算の結了等,,,2015-10-05,1,,,,,ジョウガタキザイモクテン,0
1915,9010003034333,登記記録の閉鎖等,0,2025-02-27,2025-02-20,金華山南合同会社,,合同会社,東京都,千代田区,平河町１丁目６番１５号シルスフィア会計事務所内,,13,101,1020093,,,2025-02-20,清算の結了等,,,2021-03-03,1,,,,,キンカザンミナミ,0
1937,9011001067127,登記記録の閉鎖等,0,2025-02-27,2025-02-06,株式会社Ｃｏｐｙｒｉｇｈｔｓ　Ｖｉｓｉｏｎ,,株式会社,東京都,渋谷区,千駄ヶ谷５丁目６番７号トーエイハイツ２階Ｃ号,,13,113,1510051,,,2025-02-06,清算の結了等,,,2015-10-05,1,,,,,,0
1938,9011001067952,登記記録の閉鎖等,0,2025-02-27,2025-02-17,ラヴィータ株式会社,,株式会社,東京都,渋谷区,千駄ヶ谷５丁目４番９号第２０スカイビル３０１号,,13,113,1510051,,,2025-02-17,清算の結了等,,,2015-10-05,1,,,,,ラヴィータ,0
1940,9011001133713,登記記録の閉鎖等,0,2025-02-27,2025-02-06,三優アドバイザリー株式会社,,株式会社,東京都,渋谷区,恵比寿南２丁目２６番１－３１３号,,13,113,1500022,,,2025-02-06,清算の結了等,,,2020-05-20,1,,,,,,0
1945,9011003009300,登記記録の閉鎖等,0,2025-02-27,2025-02-19,合同会社イヴォルヴィング・ミー,,合同会社,長野県,北佐久郡軽井沢町,大字追分６６－１２,,20,321,3890115,,,2025-02-19,清算の結了等,,,2018-10-19,1,,,,,イヴォルヴィングミー,0
1948,9011402000652,登記記録の閉鎖等,0,2025-02-27,2025-02-20,有限会社アルスユウ,,有限会社,東京都,板橋区,高島平３丁目１０番２４号,,13,119,1750082,,,2025-02-20,清算の結了等,,,2015-10-05,1,,,,,アルスユウ,0
1955,9011802023781,登記記録の閉鎖等,0,2025-02-27,2025-02-25,有限会社大和田建商,,有限会社,東京都,葛飾区,宝町２丁目４番１２号,,13,122,1240005,,,2025-02-25,清算の結了等,,,2015-10-05,1,,,,,オオワダケンショウ,0
1956,9012302001022,登記記録の閉鎖等,0,2025-02-27,2025-02-21,有限会社オーエム技研,,有限会社,東京都,町田市,相原町１１８７番地２３,,13,209,1940211,,,2025-02-21,清算の結了等,,,2015-10-05,1,,,,,,0
1958,9012402006986,登記記録の閉鎖等,0,2025-02-27,2025-02-13,有限会社オガワ通信サービス,,有限会社,東京都,国分寺市,西元町２丁目１３番１９号,,13,214,1850023,,,2025-02-13,清算の結了等,,,2015-10-05,1,,,,,オガワツウシンサービス,0
1970,9020001076847,登記記録の閉鎖等,0,2025-02-27,2025-02-10,株式会社設計団ベイスポイント,,株式会社,神奈川県,川崎市川崎区,大島上町１番６－８Ｂ号,,14,131,2100836,,,2025-02-10,清算の結了等,,,2015-10-05,1,,,,,セッケイダンベイスポイント,0
1977,9021002000977,登記記録の閉鎖等,0,2025-02-27,2025-02-25,有限会社大久保薬局,,有限会社,神奈川県,藤沢市,亀井野１丁目１０番地の４,,14,205,2520813,,,2025-02-25,清算の結了等,,,2015-10-05,1,,,,,オオクボヤッキョク,0
1979,9021003010216,登記記録の閉鎖等,0,2025-02-27,2025-02-25,ＪＳＸ合同会社,,合同会社,神奈川県,小田原市,小竹１８４１番地の６,,14,206,2560802,,,2025-02-25,清算の結了等,,,2021-03-10,1,,,,,ジェーエスエックス,0
1985,9030002039348,登記記録の閉鎖等,0,2025-02-27,2025-02-21,有限会社源建築,,有限会社,埼玉県,久喜市,南栗橋２丁目５番地７,,11,232,3491117,,,2025-02-21,清算の結了等,,,2015-10-05,1,,,,,ゲンケンチク,0
1994,9040002048265,登記記録の閉鎖等,0,2025-02-27,2025-02-20,有限会社ふくふく亭,,有限会社,千葉県,松戸市,稔台７丁目３番地の２２,,12,207,2702231,,,2025-02-20,清算の結了等,,,2015-10-05,1,,,,,,0
1996,9040005018570,登記記録の閉鎖等,0,2025-02-27,2025-02-20,医療法人社団悠正会,,その他の設立登記法人,千葉県,我孫子市,寿２丁目２５番１３号,,12,222,2701152,,,2025-02-20,清算の結了等,,,2015-10-05,1,,,,,ユウセイカイ,0
2000,9050002004399,登記記録の閉鎖等,0,2025-02-27,2025-02-19,有限会社永建工業,,有限会社,茨城県,東茨城郡茨城町,大字前田１６７７番地２０５,,08,302,3113115,,,2025-02-19,清算の結了等,,,2015-10-05,1,,,,,エイケンコウギョウ,0
2002,9060001018993,登記記録の閉鎖等,0,2025-02-27,2025-02-20,株式会社明建,,株式会社,栃木県,足利市,五十部町１６３５番地,,09,202,3260843,,,2025-02-20,清算の結了等,,,2015-10-05,1,,,,,メイケン,0
2017,9120001129405,登記記録の閉鎖等,0,2025-02-27,2025-02-21,エネストコーポレーション株式会社,,株式会社,大阪府,大阪市北区,万歳町４番１２号,,27,127,5300028,,,2025-02-21,清算の結了等,,,2015-10-05,1,,,,,エネストコーポレーション,0
2029,9120901014409,登記記録の閉鎖等,0,2025-02-27,2025-02-21,株式会社ＢＥＳＴ,,株式会社,大阪府,茨木市,東太田２丁目２番１８号の４,,27,211,5670012,,,2025-02-21,清算の結了等,,,2015-10-05,1,,,,,ベスト,0
2042,9140003020114,登記記録の閉鎖等,0,2025-02-27,2025-02-21,合同会社輝洋,,合同会社,兵庫県,川西市,鼓が滝２丁目１４番２５－２号,,28,217,6660123,,,2025-02-21,清算の結了等,,,2024-02-02,1,,,,,キヨウ,0
2051,9180001149447,登記記録の閉鎖等,0,2025-02-27,2025-02-21,株式会社中京機械,,株式会社,愛知県,名古屋市名東区,一社４丁目３０番地２,,23,115,4650093,,,2025-02-21,清算の結了等,,,2022-01-12,1,,,,,チュウキョウキカイ,0
2081,9290805000744,登記記録の閉鎖等,0,2025-02-27,2025-02-20,北九州塗料商業協同組合,,その他の設立登記法人,福岡県,北九州市小倉北区,熊谷４丁目１５番２６号,,40,106,8030864,,,2025-02-20,清算の結了等,,,2015-10-05,1,,,,,キタキュウシュウトリョウショウギョウ,0
2088,9330003008635,登記記録の閉鎖等,0,2025-02-27,2025-02-20,アクワーノ合同会社,,合同会社,熊本県,熊本市北区,梶尾町１２１９番地１１,,43,105,8615512,,,2025-02-20,清算の結了等,,,2020-11-13,1,,,,,アクワーノ,0
2092,9340001019022,登記記録の閉鎖等,0,2025-02-27,2025-02-20,株式会社ｋＡｇｏ－ｌｅ,,株式会社,鹿児島県,曽於市,大隅町岩川４９８８番地２,,46,217,8998102,,,2025-02-20,清算の結了等,,,2016-01-08,1,,,,,カゴーレ,0
2109,9430002035546,登記記録の閉鎖等,0,2025-02-27,2025-02-25,有限会社シャルレ油谷,,有限会社,東京都,町田市,鶴間３丁目３－７,,13,209,1940004,,,2025-02-25,清算の結了等,,,2015-10-05,1,,,,,シャルレユタニ,0
