sequenceNumber,corporateNumber,process,correct,updateDate,changeDate,name,nameImageId,kind,prefectureName,cityName,streetNumber,addressImageId,prefectureCode,cityCode,postCode,addressOutside,addressOutsideImageId,closeDate,closeCause,successorCorporateNumber,changeCause,assignmentDate,latest,enName,enPrefectureName,enCityName,enAddressOutside,furigana,hihyoji
4,1010001125430,登記記録の閉鎖等,0,2025-11-13,2025-11-06,株式会社イデア,,株式会社,東京都,墨田区,立川２丁目１０番１号,,13,107,1300023,,,2025-11-06,清算の結了等,,,2015-10-05,1,,,,,イデア,0
9,1010001216015,登記記録の閉鎖等,0,2025-11-13,2025-10-23,株式会社日本橋産業,,株式会社,東京都,中央区,日本橋兜町１７番１－７０６号,,13,102,1030026,,,2025-10-23,清算の結了等,,,2021-02-22,1,,,,,ニホンバシサンギョウ,0
16,1010401071415,登記記録の閉鎖等,0,2025-11-13,2025-10-20,株式会社グロムジャパン,,株式会社,東京都,港区,西麻布３丁目５番３５号,,13,103,1060031,,,2025-10-20,清算の結了等,,,2015-10-05,1,,,,,グロムジャパン,0
51,1011201006057,登記記録の閉鎖等,0,2025-11-13,2025-11-04,株式会社トラベルジャーナル,,株式会社,東京都,千代田区,隼町３番１９号,,13,101,1020092,,,2025-11-04,清算の結了等,,,2015-10-05,1,,,,,トラベルジャーナル,0
55,1011501032042,登記記録の閉鎖等,0,2025-11-13,2025-11-06,旭晟株式会社,,株式会社,東京都,北区,豊島４丁目１－１６－３０２室,,13,117,1140003,,,2025-11-06,清算の結了等,,,2025-05-16,1,,,,,キョクセイ,0
72,1013303003881,登記記録の閉鎖等,0,2025-11-13,2025-11-04,合同会社モンシャーレ,,合同会社,東京都,豊島区,東池袋１丁目５番６号,,13,116,1700013,,,2025-11-04,合併による解散等,1013301030564,令和７年１１月１日東京都豊島区東池袋一丁目５番６号株式会社ダッチパートナーズ（1013301030564）に合併し解散,2017-10-05,1,,,,,モンシャーレ,0
103,1040001055617,登記記録の閉鎖等,0,2025-11-13,2025-09-29,ＫＭメディカル株式会社,,株式会社,千葉県,市原市,白金町１丁目７０番地,,12,219,2900059,,,2025-09-29,合併による解散等,6040002074801,令和７年９月２９日千葉県市原市白金町一丁目７０番地株式会社ピウ（6040002074801）に合併し解散,2015-10-05,1,,,,,ケーエムメディカル,0
119,1060002027687,登記記録の閉鎖等,0,2025-11-13,2025-11-10,有限会社アカイシ,,有限会社,栃木県,小山市,城東１丁目１１番７号,,09,208,3230807,,,2025-11-10,清算の結了等,,,2015-10-05,1,,,,,アカイシ,0
122,1070003005253,登記記録の閉鎖等,0,2025-11-13,2025-11-06,合同会社Ｉｎｓｐｅｃｔｉｏｎ,,合同会社,群馬県,太田市,鶴生田町２６１番地,,10,205,3730008,,,2025-11-06,清算の結了等,,,2024-01-29,1,,,,,インスペクション,0
123,1080002011854,登記記録の閉鎖等,0,2025-11-13,2025-11-10,有限会社ダイヤハイツ,,有限会社,静岡県,静岡市駿河区,中田３丁目１番４０－２０１号,,22,102,4228041,,,2025-11-10,清算の結了等,,,2015-10-05,1,,,,,ダイヤハイツ,0
159,1120105009626,登記記録の閉鎖等,0,2025-11-13,2025-11-04,一般社団法人伝統文化ＮＦＴ協議会,,その他の設立登記法人,大阪府,堺市東区,白鷺町１丁６番１０－３０５号,,27,143,5998107,,,2025-11-04,清算の結了等,,,2022-09-28,1,,,,,デントウブンカエヌエフティーキョウギカイ,0
166,1130001007939,登記記録の閉鎖等,0,2025-11-13,2025-11-10,株式会社オーク,,株式会社,京都府,京都市西京区,川島有栖川町５１番地,,26,111,6158191,,,2025-11-10,清算の結了等,,,2015-10-05,1,,,,,オーク,0
185,1140003020419,登記記録の閉鎖等,0,2025-11-13,2025-11-04,合同会社フォーシー,,合同会社,兵庫県,赤穂市,海浜町７２番地メゾン・ド・プラージュＡ２０１,,28,212,6780225,,,2025-11-04,清算の結了等,,,2024-04-12,1,,,,,フォーシー,0
195,1180003018137,登記記録の閉鎖等,0,2025-11-13,2025-11-11,合同会社ひらのや,,合同会社,愛知県,名古屋市名東区,神丘町３丁目４１番地,,23,115,4650083,,,2025-11-11,清算の結了等,,,2017-08-03,1,,,,,ヒラノヤ,0
199,1180301039256,登記記録の閉鎖等,0,2025-11-13,2025-11-07,株式会社比良プラント,,株式会社,愛知県,安城市,古井町亀山１１番地ガーデンコート古井Ｂ１０１,,23,212,4460025,,,2025-11-07,清算の結了等,,,2024-11-19,1,,,,,ヒラプラント,0
218,1270001000541,登記記録の閉鎖等,0,2025-11-13,2025-11-12,株式会社アジャスト,,株式会社,鳥取県,鳥取市,鹿野町鹿野５７６番地４,,31,201,6890405,,,2025-11-12,清算の結了等,,,2015-10-05,1,,,,,アジャスト,0
239,1380002021146,登記記録の閉鎖等,0,2025-11-13,2025-11-05,有限会社宝屋商店,,有限会社,福島県,石川郡玉川村,大字南須釜字中奥平２２番地の１,,07,502,9636302,,,2025-11-05,清算の結了等,,,2015-10-05,1,,,,,タカラヤショウテン,0
251,1460101005818,登記記録の閉鎖等,0,2025-11-13,2025-11-10,株式会社櫻華,,株式会社,北海道,帯広市,西六条南１丁目１９番地ハイムスリーエイトＡ－１,,01,207,0800016,,,2025-11-10,清算の結了等,,,2015-10-21,1,,,,,,0
253,1460102001403,登記記録の閉鎖等,0,2025-11-13,2025-11-11,有限会社早苗農場,,有限会社,北海道,河西郡芽室町,中美生３線２３番地１１,,01,637,0820086,,,2025-11-11,清算の結了等,,,2015-10-05,1,,,,,サナエノウジョウ,0
254,1460102006773,登記記録の閉鎖等,0,2025-11-13,2025-11-10,有限会社森本商会,,有限会社,北海道,中川郡幕別町,忠類幸町１７番地,,01,643,0891709,,,2025-11-10,清算の結了等,,,2015-10-05,1,,,,,モリモトショウカイ,0
256,1480001009594,登記記録の閉鎖等,0,2025-11-13,2025-11-12,株式会社アイ・コーポレーション,,株式会社,徳島県,徳島市,沖浜東２丁目２６番地,,36,201,7708053,,,2025-11-12,清算の結了等,,,2016-04-06,1,,,,,アイコーポレーション,0
260,1700150075506,登記記録の閉鎖等,0,2025-11-13,2024-07-31,安里会館,,その他,沖縄県,那覇市,字安里４９番地,,47,201,9020067,,,2024-07-31,その他の清算の結了等,,,2016-09-09,1,,,,,アサトカイカン,0
283,2010403024741,登記記録の閉鎖等,0,2025-11-13,2025-11-04,合同会社ＤｘｔａｌＢｒａｎｄｉｎｇ,,合同会社,東京都,中央区,銀座１丁目１２－４Ｎ＆ＥＢＬＤ．７階,,13,102,1040061,,,2025-11-04,清算の結了等,,,2021-02-22,1,,,,,デクスタルブランディング,0
284,2010403033040,登記記録の閉鎖等,0,2025-11-13,2025-10-22,合同会社アップジャスミン,,合同会社,東京都,港区,南青山２丁目２番１５号,,13,103,1070062,,,2025-10-22,清算の結了等,,,2024-07-24,1,,,,,アップジャスミン,0
286,2010405022116,登記記録の閉鎖等,0,2025-11-13,2025-10-17,ＮＧＹホテル特定目的会社,,その他の設立登記法人,東京都,港区,元赤坂１丁目１番７号,,13,103,1070051,,,2025-10-17,清算の結了等,,,2023-05-23,1,,,,,エヌジーワイホテル,0
288,2010501024676,登記記録の閉鎖等,0,2025-11-13,2025-11-06,株式会社ハナヤマ,,株式会社,東京都,台東区,寿１丁目６番７号,,13,106,1110042,,,2025-11-06,清算の結了等,,,2015-10-05,1,,,,,ハナヤマ,0
310,2011101049568,登記記録の閉鎖等,0,2025-11-13,2025-11-07,株式会社ユーエムテック,,株式会社,神奈川県,横浜市港北区,仲手原２丁目２８－５,,14,109,2220023,,,2025-11-07,清算の結了等,,,2015-10-05,1,,,,,ユーエムテック,0
320,2011501001566,登記記録の閉鎖等,0,2025-11-13,2025-11-07,株式会社寿工業写真社,,株式会社,東京都,北区,滝野川１丁目９０番８号,,13,117,1140023,,,2025-11-07,清算の結了等,,,2015-10-05,1,,,,,コトブキコウギョウシャシンシャ,0
326,2011801035958,登記記録の閉鎖等,0,2025-11-13,2025-11-04,株式会社ＲＥＴＶＡＬ,,株式会社,東京都,葛飾区,東金町１丁目４５番１２号,,13,122,1250041,,,2025-11-04,清算の結了等,,,2019-04-03,1,,,,,リトバル,0
329,2012402018889,登記記録の閉鎖等,0,2025-11-13,2025-11-11,有限会社さつきや,,有限会社,東京都,三鷹市,下連雀３丁目２８番２０号,,13,204,1810013,,,2025-11-11,清算の結了等,,,2015-10-05,1,,,,,サツキヤ,0
330,2012403006562,登記記録の閉鎖等,0,2025-11-13,2025-11-10,小春日和合同会社,,合同会社,東京都,狛江市,西野川４丁目３３番７号ベルローズ２０３号室,,13,219,2010001,,,2025-11-10,清算の結了等,,,2024-05-17,1,,,,,コハルビヨリ,0
333,2012801016147,登記記録の閉鎖等,0,2025-11-13,2025-11-05,株式会社テハラ,,株式会社,東京都,日野市,栄町２丁目１番９号,,13,212,1910001,,,2025-11-05,清算の結了等,,,2015-10-05,1,,,,,テハラ,0
336,2013301044349,登記記録の閉鎖等,0,2025-11-13,2025-11-04,株式会社やまもと笑店,,株式会社,東京都,豊島区,駒込２丁目３番３号,,13,116,1700003,,,2025-11-04,合併による解散等,2010401090174,令和７年１１月４日東京都豊島区駒込二丁目３番３号裕建株式会社（2010401090174）に合併し解散,2019-08-15,1,,,,,ヤマモトショウテン,0
337,2013301050470,登記記録の閉鎖等,0,2025-11-13,2025-10-31,株式会社ＴＨＥ　ＮＡＴＵＲＥ　ＪＡＰＡＮ,,株式会社,東京都,豊島区,東池袋５丁目７番３号アゼリア東池袋４０１,,13,116,1700013,,,2025-10-31,清算の結了等,,,2023-03-22,1,,,,,ザネイチャージャパン,0
387,2070001022984,登記記録の閉鎖等,0,2025-11-13,2025-11-10,司コーポレーション株式会社,,株式会社,群馬県,沼田市,白沢町上古語父１５６番地,,10,206,3780126,,,2025-11-10,清算の結了等,,,2015-10-05,1,,,,,ツカサコーポレーション,0
391,2070005005399,登記記録の閉鎖等,0,2025-11-13,2025-11-06,群馬県興行生活衛生同業組合,,その他の設立登記法人,群馬県,太田市,石原町８１番地イオンモール太田２Ｆ,,10,205,3730808,,,2025-11-06,清算の結了等,,,2015-10-05,1,,,,,グンマケンコウギョウ,0
395,2100001016231,登記記録の閉鎖等,0,2025-11-13,2025-11-11,株式会社寄ってけや,,株式会社,長野県,松本市,中川２５１８番地,,20,202,3997411,,,2025-11-11,清算の結了等,,,2015-10-05,1,,,,,ヨッテケヤ,0
399,2110002003384,登記記録の閉鎖等,0,2025-11-13,2025-11-05,有限会社鈴木米穀店,,有限会社,新潟県,新潟市西区,小針南台１番２３号,,15,107,9502026,,,2025-11-05,清算の結了等,,,2015-10-05,1,,,,,スズキベイコクテン,0
401,2120001089036,登記記録の閉鎖等,0,2025-11-13,2025-11-10,株式会社文正堂,,株式会社,大阪府,守口市,西郷通１丁目２２番２号,,27,209,5700034,,,2025-11-10,清算の結了等,,,2015-10-05,1,,,,,ブンショウドウ,0
415,2120002048486,登記記録の閉鎖等,0,2025-11-13,2025-11-10,有限会社かずもり,,有限会社,大阪府,大阪市中央区,谷町２丁目５番４号インテリジェントインフタバ,,27,128,5400012,,,2025-11-10,清算の結了等,,,2015-10-05,1,,,,,カズモリ,0
428,2130001011147,登記記録の閉鎖等,0,2025-11-13,2025-11-11,株式会社玉田製鑵,,株式会社,京都府,京都市南区,東九条北松ノ木町２４番地,,26,107,6018022,,,2025-11-11,清算の結了等,,,2015-10-05,1,,,,,タマダセイカン,0
459,2180002092215,登記記録の閉鎖等,0,2025-11-13,2025-11-07,有限会社立建,,有限会社,愛知県,海部郡大治町,大字長牧字中道１３９番地,,23,424,4901131,,,2025-11-07,清算の結了等,,,2015-10-05,1,,,,,タテケン,0
460,2180003015496,登記記録の閉鎖等,0,2025-11-13,2025-11-10,合同会社ニュースショップ青山,,合同会社,愛知県,一宮市,千秋町加納馬場字井ノ上西１９番地,,23,203,4910811,,,2025-11-10,清算の結了等,,,2015-10-05,1,,,,,ニュースショップアオヤマ,0
467,2190001020869,登記記録の閉鎖等,0,2025-11-13,2025-11-10,株式会社前川建築研究所,,株式会社,三重県,津市,大谷町８７－１０大谷ヒルズＣ２０７,,24,201,5140007,,,2025-11-10,清算の結了等,,,2015-10-05,1,,,,,マエカワケンチクケンキュウショ,0
470,2190002019646,登記記録の閉鎖等,0,2025-11-13,2025-11-05,有限会社御料理平成昴,,有限会社,三重県,四日市市,大井の川町１丁目１６４４番地の４,,24,202,5100846,,,2025-11-05,清算の結了等,,,2015-10-05,1,,,,,,0
472,2200001025230,登記記録の閉鎖等,0,2025-11-13,2025-11-10,株式会社宮春,,株式会社,岐阜県,高山市,清見町夏厩９９８番地の１,00076718,21,203,5060205,,,2025-11-10,清算の結了等,,,2015-10-05,1,,,,,ミヤハル,0
477,2220001016054,登記記録の閉鎖等,0,2025-11-13,2025-11-11,株式会社高田石材店,,株式会社,石川県,羽咋市,東川原町三俵刈２１番地１,,17,207,9250032,,,2025-11-11,清算の結了等,,,2015-10-05,1,,,,,タカダセキザイテン,0
480,2230001000734,登記記録の閉鎖等,0,2025-11-13,2025-10-30,富山企画株式会社,,株式会社,東京都,千代田区,丸の内１丁目９番２号グラントウキョウサウスタワー,,13,101,1000005,,,2025-10-30,清算の結了等,,,2015-10-05,1,,,,,トヤマキカク,0
490,2250002010565,登記記録の閉鎖等,0,2025-11-13,2025-11-10,有限会社彦島調剤薬局,,有限会社,山口県,下関市,彦島角倉町１丁目１１番２７号,,35,201,7500081,,,2025-11-10,清算の結了等,,,2015-10-05,1,,,,,ヒコシマチョウザイヤッキョク,0
493,2270002004870,登記記録の閉鎖等,0,2025-11-13,2025-11-12,有限会社ビコウトレースエレメンツ,,有限会社,鳥取県,鳥取市,鹿野町鹿野５７６番地４,,31,201,6890405,,,2025-11-12,清算の結了等,,,2015-10-05,1,,,,,ビコウトレースエレメンツ,0
527,2440002002254,登記記録の閉鎖等,0,2025-11-13,2025-11-11,有限会社＿金,00090361,有限会社,北海道,函館市,松風町７番１８号,,01,202,0400035,,,2025-11-11,清算の結了等,,,2015-10-05,1,,,,,スシキン,0
528,2450001001256,登記記録の閉鎖等,0,2025-11-13,2025-11-06,株式会社国土開発興業,,株式会社,北海道,旭川市,高砂台６丁目５番１１号,,01,204,0708061,,,2025-11-06,清算の結了等,,,2015-10-05,1,,,,,コクドカイハツコウギョウ,0
529,2460102003472,登記記録の閉鎖等,0,2025-11-13,2025-11-07,有限会社みらい企画,,有限会社,北海道,帯広市,西一条南１０丁目１番地,,01,207,0800011,,,2025-11-07,清算の結了等,,,2015-10-05,1,,,,,ミライキカク,0
531,2460103000907,登記記録の閉鎖等,0,2025-11-13,2025-11-07,夢愛合同会社,,合同会社,北海道,中川郡幕別町,札内中央町４６４番地の２,,01,643,0890543,,,2025-11-07,清算の結了等,,,2015-10-05,1,,,,,ユメアイ,0
532,2460103001005,登記記録の閉鎖等,0,2025-11-13,2025-11-07,合同会社中商,,合同会社,北海道,中川郡幕別町,札内中央町５３２番地,,01,643,0890543,,,2025-11-07,清算の結了等,,,2016-08-26,1,,,,,ナカショウ,0
566,3010702007116,登記記録の閉鎖等,0,2025-11-13,2025-11-07,有限会社ふじ荘,,有限会社,東京都,品川区,東品川３丁目２４番１９号,,13,109,1400002,,,2025-11-07,清算の結了等,,,2015-10-05,1,,,,,フジソウ,0
567,3010703006091,登記記録の閉鎖等,0,2025-11-13,2025-11-04,ｓａｃｈｉｂａｋｏ合同会社,,合同会社,東京都,品川区,西五反田１丁目２６番２号五反田サンハイツ９１１,,13,109,1410031,,,2025-11-04,清算の結了等,,,2022-01-31,1,,,,,サチバコ,0
583,3011101061101,登記記録の閉鎖等,0,2025-11-13,2025-11-07,株式会社ＧＡＫＫＥＮ　ＣＣ,,株式会社,東京都,品川区,西五反田２丁目１１番８号,,13,109,1410031,,,2025-11-07,合併による解散等,7012401031599,令和７年１０月１日東京都品川区西五反田二丁目１１番８号株式会社Ｇｌａｔｓ（7012401031599）に合併し解散,2015-10-05,1,,,,,ガッケンシーシー,0
592,3011702017113,登記記録の閉鎖等,0,2025-11-13,2025-10-30,有限会社クリエイティブワープス,,有限会社,東京都,江戸川区,西葛西２丁目２番２０号,,13,123,1340088,,,2025-10-30,清算の結了等,,,2015-10-05,1,,,,,クリエイティブワープス,0
604,3013201003833,登記記録の閉鎖等,0,2025-11-13,2025-10-14,株式会社テックメイト,,株式会社,東京都,目黒区,中目黒５丁目２８番１４号,,13,110,1530061,,,2025-10-14,清算の結了等,,,2015-10-05,1,,,,,テックメイト,0
608,3013301048159,登記記録の閉鎖等,0,2025-11-13,2025-10-31,株式会社コーウェルフードサービス,,株式会社,東京都,豊島区,北大塚２丁目２０番４号,,13,116,1700004,,,2025-10-31,清算の結了等,,,2021-10-15,1,,,,,コーウェルフードサービス,0
637,3030002042489,登記記録の閉鎖等,0,2025-11-13,2025-11-06,有限会社エスエイピー,,有限会社,埼玉県,羽生市,大字藤井上組１２０番地２,,11,216,3480064,,,2025-11-06,清算の結了等,,,2015-10-05,1,,,,,エスエイピー,0
648,3060001006062,登記記録の閉鎖等,0,2025-11-13,2025-11-11,手塚光学株式会社,00023981,株式会社,栃木県,さくら市,喜連川７６番地,,09,214,3291412,,,2025-11-11,清算の結了等,,,2015-10-05,1,,,,,テツカコウガク,0
652,3070001040424,登記記録の閉鎖等,0,2025-11-13,2025-11-11,ＷＩＣＲＥＡＤ株式会社,,株式会社,群馬県,藤岡市,浄法寺１１６８－７,,10,209,3701406,,,2025-11-11,合併による解散等,2010601056132,令和７年１０月２日東京都江東区有明三丁目７番２６号有明フロンティアビルＢ棟９階株式会社ＢＡＳＡＲＡＮ（2010601056132）に合併し解散,2023-05-09,1,,,,,ウィクリード,0
655,3080001008065,登記記録の閉鎖等,0,2025-11-13,2025-11-10,株式会社サスニ,,株式会社,静岡県,静岡市清水区,小島本町１２６番地の１,,22,103,4240306,,,2025-11-10,清算の結了等,,,2015-10-05,1,,,,,サスニ,0
660,3120001012806,登記記録の閉鎖等,0,2025-11-13,2025-11-10,株式会社大同,,株式会社,大阪府,大阪市西区,江戸堀１丁目１４番１号平和相互肥後橋ビル６０５,,27,106,5500002,,,2025-11-10,清算の結了等,,,2015-10-05,1,,,,,,0
662,3120001074474,登記記録の閉鎖等,0,2025-11-13,2025-11-10,ＹＩ株式会社,,株式会社,大阪府,大阪市中央区,道頓堀１丁目東３番２１号,,27,128,5420071,,,2025-11-10,清算の結了等,,,2015-10-05,1,,,,,ワイアイ,0
682,3120002014462,登記記録の閉鎖等,0,2025-11-13,2025-11-10,有限会社リタルーダンド,,有限会社,大阪府,大阪市此花区,高見３丁目１２番１５号,,27,104,5540001,,,2025-11-10,清算の結了等,,,2015-10-05,1,,,,,リタルーダンド,0
695,3130001043255,登記記録の閉鎖等,0,2025-11-13,2025-11-11,株式会社イイタニ,,株式会社,京都府,舞鶴市,倉梯町２７番地１１,,26,202,6250056,,,2025-11-11,清算の結了等,,,2015-10-05,1,,,,,イイタニ,0
697,3130002029088,登記記録の閉鎖等,0,2025-11-13,2025-11-11,有限会社平井染工,,有限会社,京都府,亀岡市,曽我部町重利風ノ口２５の１,,26,206,6210021,,,2025-11-11,清算の結了等,,,2015-10-05,1,,,,,ヒライセンコウ,0
725,3180005013365,登記記録の閉鎖等,0,2025-11-13,2025-11-11,真友寺,,その他の設立登記法人,愛知県,愛西市,上東川町宮東１１６番地,,23,232,4968031,,,2025-11-11,清算の結了等,,,2015-10-05,1,,,,,シンユウジ,0
728,3180301036739,登記記録の閉鎖等,0,2025-11-13,2025-11-10,株式会社エーケーエス,,株式会社,愛知県,安城市,安城町社口堂１２番地７,,23,212,4460026,,,2025-11-10,清算の結了等,,,2022-10-20,1,,,,,エーケーエス,0
730,3190002000869,登記記録の閉鎖等,0,2025-11-13,2025-11-06,有限会社タウンサービス,,有限会社,三重県,津市,高茶屋小森町１８１２番地の３,,24,201,5140817,,,2025-11-06,清算の結了等,,,2015-10-05,1,,,,,タウンサービス,0
732,3200001002121,登記記録の閉鎖等,0,2025-11-13,2025-11-06,株式会社三起,,株式会社,岐阜県,岐阜市,加野６丁目３１番５号,,21,201,5013107,,,2025-11-06,清算の結了等,,,2015-10-05,1,,,,,サンキ,0
735,3200002027852,登記記録の閉鎖等,0,2025-11-13,2025-11-07,有限会社末松製作所,,有限会社,岐阜県,郡上市,八幡町吉野１３６８番地,,21,219,5014206,,,2025-11-07,清算の結了等,,,2015-10-05,1,,,,,スエマツセイサクショ,0
744,3240002013106,登記記録の閉鎖等,0,2025-11-13,2025-11-06,有限会社広島ヤマノ,,有限会社,広島県,広島市中区,八丁堀５番２９号,,34,101,7300013,,,2025-11-06,清算の結了等,,,2015-10-05,1,,,,,ヒロシマヤマノ,0
747,3250002013633,登記記録の閉鎖等,0,2025-11-13,2025-11-07,有限会社美志満屋,,有限会社,山口県,萩市,大字須佐４７６６番地,,35,204,7593411,,,2025-11-07,清算の結了等,,,2015-10-05,1,,,,,ミシマヤ,0
758,3290002055102,登記記録の閉鎖等,0,2025-11-13,2025-10-15,有限会社城戸商行,,有限会社,福岡県,大牟田市,恵比須町１番地１,,40,202,8360014,,,2025-10-15,清算の結了等,,,2015-10-05,1,,,,,,0
788,3430002012229,登記記録の閉鎖等,0,2025-11-13,2025-11-06,高橋タイヤー工業有限会社,,有限会社,北海道,札幌市厚別区,もみじ台北６丁目３番３６－２０８号,,01,108,0040014,,,2025-11-06,清算の結了等,,,2015-10-05,1,,,,,タカハシタイヤーコウギョウ,0
809,4010001209032,登記記録の閉鎖等,0,2025-11-13,2025-10-30,株式会社徳禅庵,,株式会社,東京都,千代田区,神田佐久間町４丁目２２番１号,,13,101,1010025,,,2025-10-30,清算の結了等,,,2020-04-24,1,,,,,トクゼンアン,0
817,4010401021508,登記記録の閉鎖等,0,2025-11-13,2025-10-17,株式会社日音プランニング,,株式会社,東京都,港区,赤坂４丁目２番６号住友不動産新赤坂ビル,,13,103,1070052,,,2025-10-17,清算の結了等,,,2015-10-05,1,,,,,ニチオンプランニング,0
825,4010401168431,登記記録の閉鎖等,0,2025-11-13,2025-10-20,トルパニオン・ジャパン株式会社,,株式会社,東京都,港区,白金台３丁目１０番１０号,,13,103,1080071,,,2025-10-20,清算の結了等,,,2022-07-11,1,,,,,トルパニオンジャパン,0
840,4010801018946,登記記録の閉鎖等,0,2025-11-13,2025-11-11,株式会社マリーンインターナショナル,,株式会社,東京都,江東区,大島５丁目２８番６号,,13,108,1360072,,,2025-11-11,合併による解散等,2013301026875,令和７年１１月１日東京都豊島区北大塚二丁目１６番９号株式会社マリーンインターナショナル（2013301026875）に合併し解散,2015-10-05,1,,,,,マリーンインターナショナル,0
841,4010802019084,登記記録の閉鎖等,0,2025-11-13,2025-11-04,有限会社たかさごや,,有限会社,東京都,大田区,上池台１丁目２１番３号,,13,111,1450064,,,2025-11-04,清算の結了等,,,2015-10-05,1,,,,,タカサゴヤ,0
863,4011802016550,登記記録の閉鎖等,0,2025-11-13,2025-11-10,有限会社友善工務店,,有限会社,東京都,足立区,青井４丁目１番１０号,,13,121,1210012,,,2025-11-10,清算の結了等,,,2015-10-05,1,,,,,トモヨシコウムテン,0
864,4011803004686,登記記録の閉鎖等,0,2025-11-13,2025-11-07,ガンズアンドカンパニー合同会社,,合同会社,東京都,足立区,神明３丁目１６番２号,,13,121,1210051,,,2025-11-07,清算の結了等,,,2021-07-05,1,,,,,ガンズアンドカンパニー,0
867,4012403001041,登記記録の閉鎖等,0,2025-11-13,2025-10-30,合同会社Ｍ’ｓ,,合同会社,東京都,国分寺市,本多５丁目２０番２１号,,13,214,1850011,,,2025-10-30,清算の結了等,,,2015-10-05,1,,,,,エムズ,0
870,4012701012310,登記記録の閉鎖等,0,2025-11-13,2025-11-06,株式会社オフィスＭＡＥＤＡ,,株式会社,東京都,西東京市,谷戸町３丁目２１番５号,,13,229,1880001,,,2025-11-06,清算の結了等,,,2015-10-05,1,,,,,オフィスマエダ,0
888,4021001076809,登記記録の閉鎖等,0,2025-11-13,2025-10-20,Ａｄｖａｎ株式会社,,株式会社,神奈川県,藤沢市,辻堂元町１丁目１１番３号山口ビル２Ｆ,,14,205,2510043,,,2025-10-20,清算の結了等,,,2022-08-19,1,,,,,アドゥヴァン,0
891,4021002057295,登記記録の閉鎖等,0,2025-11-13,2025-10-24,有限会社かごや,,有限会社,神奈川県,平塚市,幸町１１番２６号,,14,203,2540804,,,2025-10-24,清算の結了等,,,2015-10-05,1,,,,,カゴヤ,0
895,4030001100024,登記記録の閉鎖等,0,2025-11-13,2025-10-14,株式会社ヤマノプラス,,株式会社,東京都,渋谷区,代々木１丁目３０番７号,,13,113,1510053,,,2025-10-14,合併による解散等,4011001030931,令和７年１０月１日東京都渋谷区代々木一丁目３０番７号株式会社ヤマノホールディングス（4011001030931）に合併し解散,2015-10-05,1,,,,,ヤマノプラス,0
910,4060001014312,登記記録の閉鎖等,0,2025-11-13,2025-11-11,篠崎電機株式会社,,株式会社,栃木県,小山市,城東３丁目５番１４号,,09,208,3230807,,,2025-11-11,清算の結了等,,,2015-10-05,1,,,,,シノザキデンキ,0
912,4060002037766,登記記録の閉鎖等,0,2025-11-13,2025-11-11,有限会社ランチ・ボックス,,有限会社,栃木県,足利市,多田木町５５番地,,09,202,3294214,,,2025-11-11,清算の結了等,,,2015-10-05,1,,,,,ランチボックス,0
915,4070002023154,登記記録の閉鎖等,0,2025-11-13,2025-11-06,有限会社桐生コンタクトレンズ,,有限会社,群馬県,桐生市,本町６丁目１２番地,,10,203,3760031,,,2025-11-06,清算の結了等,,,2015-10-05,1,,,,,キリュウコンタクトレンズ,0
938,4120001221653,登記記録の閉鎖等,0,2025-11-13,2025-11-07,ＡＲＴＥ　ＰＬＡＣＥ株式会社,,株式会社,大阪府,大阪市中央区,島之内１丁目２２番２０号,,27,128,5420082,,,2025-11-07,清算の結了等,,,2019-06-13,1,,,,,アートプレイス,0
948,4120005022008,登記記録の閉鎖等,0,2025-11-13,2025-11-10,行政書士法人こんどう法務事務所,,その他の設立登記法人,大阪府,寝屋川市,昭栄町１７番１３号,,27,215,5720834,,,2025-11-10,清算の結了等,,,2020-12-17,1,,,,,コンドウホウムジムショ,0
953,4120902019675,登記記録の閉鎖等,0,2025-11-13,2025-10-28,有限会社プラネットワーク,,有限会社,大阪府,豊中市,千成町２丁目４番２９－５０２号,,27,203,5610829,,,2025-10-28,清算の結了等,,,2015-10-05,1,,,,,プラネットワーク,0
959,4130003010178,登記記録の閉鎖等,0,2025-11-13,2025-11-07,合同会社Ａｓｔｒａｖｉａ　Ｐｉｘｅｌｓ,,合同会社,京都府,京都市下京区,七条通油小路東入大黒町２２７番地第２キョートビル４０２,,26,106,6008223,,,2025-11-07,清算の結了等,,,2025-01-30,1,,,,,アストラヴィアピクセルズ,0
963,4140001111860,登記記録の閉鎖等,0,2025-11-13,2025-11-04,株式会社ＴＯＦＵ　ＤＥＳＩＧＮ　ＳＴＵＤＩＯ,,株式会社,東京都,大田区,上池台１丁目７－１６－１１０,,13,111,1450064,,,2025-11-04,清算の結了等,,,2018-11-14,1,,,,,トーフデザインスタジオ,0
968,4160002002462,登記記録の閉鎖等,0,2025-11-13,2025-11-10,有限会社日本テクノマネジメント,,有限会社,滋賀県,大津市,瀬田３丁目１１番８号,,25,201,5202134,,,2025-11-10,清算の結了等,,,2015-10-05,1,,,,,ニホンテクノマネジメント,0
989,4250002011660,登記記録の閉鎖等,0,2025-11-13,2025-11-10,有限会社松栄丸水産,,有限会社,山口県,下関市,豊浦町大字川棚１６８０番地の２,,35,201,7596301,,,2025-11-10,清算の結了等,,,2015-10-05,1,,,,,マツエイマルスイサン,0
1016,4370002014833,登記記録の閉鎖等,0,2025-11-13,2025-10-27,有限会社佐々木建築構造設計事務所,,有限会社,宮城県,仙台市青葉区,川平３丁目２７番２２号,,04,101,9810954,,,2025-10-27,清算の結了等,,,2015-10-05,1,,,,,ササキケンチクコウゾウセッケイジムショ,0
1025,4410002006529,登記記録の閉鎖等,0,2025-11-13,2025-11-11,有限会社アキセー,,有限会社,秋田県,由利本荘市,給人町８０番地,,05,210,0150874,,,2025-11-11,清算の結了等,,,2015-10-05,1,,,,,アキセー,0
1046,5010001140797,登記記録の閉鎖等,0,2025-11-13,2025-10-14,アクセラレート株式会社,,株式会社,東京都,渋谷区,幡ヶ谷２丁目２２番１号オアーキスタケビビル４Ｆ,,13,113,1510072,,,2025-10-14,清算の結了等,,,2015-10-05,1,,,,,アクセラレート,0
1061,5010401170551,登記記録の閉鎖等,0,2025-11-13,2025-10-20,株式会社Ａｌｔｕｓ　Ｓｅａｒｃｈ,,株式会社,東京都,港区,南青山２丁目２番１５号ウィン青山９４２,,13,103,1070062,,,2025-10-20,清算の結了等,,,2022-11-01,1,,,,,アルタスサーチ,0
1066,5010403032972,登記記録の閉鎖等,0,2025-11-13,2025-10-16,合同会社Ｅｐｉｐｈａｎｙ,,合同会社,東京都,港区,新橋６丁目５－４－５２０,,13,103,1050004,,,2025-10-16,清算の結了等,,,2024-07-05,1,,,,,エピファニー,0
1086,5010901008796,登記記録の閉鎖等,0,2025-11-13,2025-11-10,株式会社ナカ峰商事,,株式会社,東京都,世田谷区,千歳台５丁目１７番２２号,,13,112,1570071,,,2025-11-10,清算の結了等,,,2015-10-05,1,,,,,ナカミネショウジ,0
1120,5011802016608,登記記録の閉鎖等,0,2025-11-13,2025-11-04,有限会社鳥宗商店,,有限会社,東京都,足立区,西新井１丁目２１番８号,,13,121,1230841,,,2025-11-04,清算の結了等,,,2015-10-05,1,,,,,,0
1123,5012702012746,登記記録の閉鎖等,0,2025-11-13,2025-11-04,有限会社城北設備,,有限会社,東京都,豊島区,東池袋４丁目１４番８号,,13,116,1700013,,,2025-11-04,清算の結了等,,,2015-10-05,1,,,,,ジョウホクセツビ,0
1141,5021001000610,登記記録の閉鎖等,0,2025-11-13,2025-10-22,クローバーエンジニアリング株式会社,,株式会社,神奈川県,藤沢市,菖蒲沢８３９番地の５,,14,205,2520823,,,2025-10-22,清算の結了等,,,2015-10-05,1,,,,,,0
1153,5030002117264,登記記録の閉鎖等,0,2025-11-13,2025-11-06,有限会社マツキプランニング,,有限会社,埼玉県,深谷市,上柴町西５丁目１６番６号,,11,218,3660052,,,2025-11-06,清算の結了等,,,2015-10-05,1,,,,,マツキプランニング,0
1155,5040001059878,登記記録の閉鎖等,0,2025-11-13,2025-10-16,伊藤漬物工業株式会社,,株式会社,千葉県,長生郡長生村,金田１６３番地,,12,423,2994332,,,2025-10-16,清算の結了等,,,2015-10-05,1,,,,,,0
1160,5040005009672,登記記録の閉鎖等,0,2025-11-13,2025-10-17,市原市測量設計業協同組合,,その他の設立登記法人,千葉県,市原市,八幡北町１丁目８番２号,,12,219,2900069,,,2025-10-17,清算の結了等,,,2015-10-05,1,,,,,イチハラシソクリョウセッケイギョウ,0
1165,5070001024615,登記記録の閉鎖等,0,2025-11-13,2025-11-06,フジダイナミックス株式会社,,株式会社,群馬県,太田市,大原町３８５番地３２,,10,205,3792304,,,2025-11-06,清算の結了等,,,2015-10-05,1,,,,,フジダイナミックス,0
1187,5120001273074,登記記録の閉鎖等,0,2025-11-13,2025-11-04,一枚株式会社,,株式会社,大阪府,大阪市東住吉区,東田辺３丁目１番１号３Ｆ－Ｅ,,27,121,5460032,,,2025-11-04,清算の結了等,,,2025-02-20,1,,,,,イチマイ,0
1196,5122001006216,登記記録の閉鎖等,0,2025-11-13,2025-11-10,株式会社パナウエンズ,,株式会社,大阪府,東大阪市,友井２丁目２９番６号,,27,227,5770816,,,2025-11-10,清算の結了等,,,2015-10-05,1,,,,,パナウエンズ,0
1253,5220002004484,登記記録の閉鎖等,0,2025-11-13,2025-11-11,有限会社ジーエルティー,,有限会社,石川県,金沢市,間明町２丁目１１６番地,,17,201,9218005,,,2025-11-11,清算の結了等,,,2015-10-05,1,,,,,ジーエルティー,0
1257,5240001021339,登記記録の閉鎖等,0,2025-11-13,2025-11-06,株式会社ひろしま相続相談室,,株式会社,広島県,広島市佐伯区,五日市５丁目１０番１０号,,34,108,7315127,,,2025-11-06,清算の結了等,,,2015-10-05,1,,,,,ヒロシマソウゾクソウダンシツ,0
1263,5250005003233,登記記録の閉鎖等,0,2025-11-13,2025-11-06,医療法人上野医院,,その他の設立登記法人,山口県,下関市,秋根西町１丁目７番２６号,,35,201,7510873,,,2025-11-06,清算の結了等,,,2015-10-05,1,,,,,ウエノイイン,0
1271,5270001002352,登記記録の閉鎖等,0,2025-11-13,2025-11-12,株式会社イシガコーポレーション,,株式会社,鳥取県,鳥取市,掛出町３番地の２,,31,201,6800041,,,2025-11-12,清算の結了等,,,2015-10-05,1,,,,,イシガコーポレーション,0
1273,5280001000636,登記記録の閉鎖等,0,2025-11-13,2025-11-11,株式会社ふなきや呉服店,,株式会社,島根県,松江市,西茶町７７番地,,32,201,6900845,,,2025-11-11,清算の結了等,,,2015-10-05,1,,,,,フナキヤゴフクテン,0
1279,5290801001345,登記記録の閉鎖等,0,2025-11-13,2025-11-12,株式会社国際観光トラベル,,株式会社,福岡県,北九州市小倉北区,江南町５番２９号,,40,106,8020083,,,2025-11-12,清算の結了等,,,2015-10-05,1,,,,,コクサイカンコウトラベル,0
1288,5330003005116,登記記録の閉鎖等,0,2025-11-13,2025-10-31,合同会社愛光サービス,,合同会社,熊本県,菊池郡菊陽町,大字久保田２８２１番地１,,43,404,8691103,,,2025-10-31,清算の結了等,,,2015-10-05,1,,,,,アイコウサービス,0
1300,5400002002305,登記記録の閉鎖等,0,2025-11-13,2025-11-05,都南西部水道有限会社,,有限会社,岩手県,盛岡市,三本柳２２地割１２番地,,03,201,0200831,,,2025-11-05,清算の結了等,,,2015-10-05,1,,,,,トナンセイブスイドウ,0
1301,5410001000110,登記記録の閉鎖等,0,2025-11-13,2025-11-11,株式会社あたご,,株式会社,秋田県,秋田市,楢山愛宕下１１番６１号,,05,201,0100037,,,2025-11-11,清算の結了等,,,2015-10-05,1,,,,,アタゴ,0
1315,5700150107759,登記記録の閉鎖等,0,2025-11-13,2025-06-30,野田村農林水産物直売所組合,,その他,岩手県,九戸郡野田村,大字野田第３１地割３１－１,,03,503,0288201,,,2025-06-30,その他の清算の結了等,,,2022-04-11,1,,,,,ノダムラノウリンスイサンブツチヨクバイジヨクミアイ,0
1324,6010401159057,登記記録の閉鎖等,0,2025-11-13,2025-10-14,株式会社ＺＧｒｏｕｐ,,株式会社,東京都,港区,赤坂６丁目１９番７－４０１号,,13,103,1070052,,,2025-10-14,清算の結了等,,,2021-03-25,1,,,,,ゼットグループ,0
1325,6010401160601,登記記録の閉鎖等,0,2025-11-13,2025-10-22,スコール株式会社,,株式会社,東京都,港区,南青山３丁目８番４０号,,13,103,1070062,,,2025-10-22,清算の結了等,,,2021-06-04,1,,,,,スコール,0
1326,6010401169444,登記記録の閉鎖等,0,2025-11-13,2025-10-15,Ｂ１Ｇ１Ｊａｐａｎ株式会社,,株式会社,東京都,港区,南青山２丁目２番１５号ＷｉｎＡｏｙａｍａビルＵＣＦ６階,,13,103,1070062,,,2025-10-15,清算の結了等,,,2022-09-05,1,,,,,ビーワンジーワンジャパン,0
1355,6011005006629,登記記録の閉鎖等,0,2025-11-13,2025-10-14,一般社団法人日本テレワーク経理支援機構,,その他の設立登記法人,東京都,渋谷区,代々木２丁目２１番８－９０３号,,13,113,1510053,,,2025-10-14,清算の結了等,,,2016-01-21,1,,,,,ニホンテレワークケイリシエンキコウ,0
1361,6011501003682,登記記録の閉鎖等,0,2025-11-13,2025-11-07,日東養魚株式会社,,株式会社,東京都,北区,赤羽南１丁目２４番３号,,13,117,1150044,,,2025-11-07,清算の結了等,,,2015-10-05,1,,,,,ニットウヨウギョ,0
1362,6011601024579,登記記録の閉鎖等,0,2025-11-13,2025-11-06,株式会社ＮｅｏＷ,,株式会社,東京都,練馬区,東大泉７丁目３８－２３,,13,120,1780063,,,2025-11-06,清算の結了等,,,2020-10-21,1,,,,,ネオダブリュー,0
1364,6011701015395,登記記録の閉鎖等,0,2025-11-13,2025-11-04,株式会社渋海川,,株式会社,東京都,江戸川区,北小岩４丁目１５番８号,,13,123,1330051,,,2025-11-04,清算の結了等,,,2015-10-05,1,,,,,シブミガワ,0
1369,6012801007407,登記記録の閉鎖等,0,2025-11-13,2025-11-06,株式会社マットンジャパン,,株式会社,東京都,杉並区,南荻窪４丁目３９番１９号,,13,115,1670052,,,2025-11-06,清算の結了等,,,2015-10-05,1,,,,,マットンジャパン,0
1371,6012801023057,登記記録の閉鎖等,0,2025-11-13,2025-09-22,ＭＵＧＩ商事株式会社,,株式会社,東京都,立川市,錦町１丁目２０番２１号ヴィークコート立川５０３号,,13,202,1900022,,,2025-09-22,清算の結了等,,,2024-03-26,1,,,,,ムギショウジ,0
1380,6020001074498,登記記録の閉鎖等,0,2025-11-13,2025-11-04,株式会社峰伸電気,,株式会社,神奈川県,川崎市川崎区,伊勢町１６番１号,,14,131,2100805,,,2025-11-04,清算の結了等,,,2015-10-05,1,,,,,ミネシンデンキ,0
1385,6020002094883,登記記録の閉鎖等,0,2025-11-13,2025-10-27,有限会社日吉屋,,有限会社,神奈川県,川崎市麻生区,白山４丁目１番３－１０１号,,14,137,2150014,,,2025-10-27,清算の結了等,,,2015-10-05,1,,,,,ヒヨシヤ,0
1398,6030002071774,登記記録の閉鎖等,0,2025-11-13,2025-11-10,有限会社かいしゃごっこ,,有限会社,埼玉県,春日部市,内牧４１５８番地,,11,214,3440051,,,2025-11-10,清算の結了等,,,2015-10-05,1,,,,,カイシャゴッコ,0
1399,6030002073903,登記記録の閉鎖等,0,2025-11-13,2025-11-06,有限会社政経タイムス社,,有限会社,埼玉県,ふじみ野市,元福岡３丁目９番１０号,,11,245,3560008,,,2025-11-06,清算の結了等,,,2015-10-05,1,,,,,セイケイタイムスシャ,0
1413,6050005001025,登記記録の閉鎖等,0,2025-11-13,2025-11-05,特定非営利活動法人蛍の会,,その他の設立登記法人,茨城県,水戸市,本町２丁目１番３０号,,08,201,3100815,,,2025-11-05,清算の結了等,,,2015-10-05,1,,,,,ホタルノカイ,0
1416,6060002012206,登記記録の閉鎖等,0,2025-11-13,2025-11-11,信徳有限会社,,有限会社,栃木県,宇都宮市,富士見が丘３丁目３番１２号,,09,201,3200011,,,2025-11-11,清算の結了等,,,2015-10-05,1,,,,,シントク,0
1419,6070001029522,登記記録の閉鎖等,0,2025-11-13,2025-11-07,株式会社風間金型,,株式会社,群馬県,伊勢崎市,市場町１丁目３５０番地５,,10,204,3792211,,,2025-11-07,清算の結了等,,,2015-10-05,1,,,,,カザマカナガタ,0
1421,6070002031717,登記記録の閉鎖等,0,2025-11-13,2025-11-06,有限会社おおやグループ,,有限会社,群馬県,邑楽郡千代田町,大字舞木２５２番地の８,,10,523,3700504,,,2025-11-06,清算の結了等,,,2015-10-05,1,,,,,オオヤグループ,0
1425,6100002009643,登記記録の閉鎖等,0,2025-11-13,2025-11-11,有限会社いわかた薬局,,有限会社,長野県,千曲市,大字戸倉１７８７番地の９,,20,218,3890804,,,2025-11-11,清算の結了等,,,2015-10-05,1,,,,,イワカタヤッキョク,0
1429,6110001012275,登記記録の閉鎖等,0,2025-11-13,2025-11-05,株式会社北水テクノシード,,株式会社,新潟県,阿賀野市,南安野町１７８３番地１,,15,223,9592004,,,2025-11-05,清算の結了等,,,2015-10-05,1,,,,,ホクスイテクノシード,0
1431,6110002003216,登記記録の閉鎖等,0,2025-11-13,2025-11-04,有限会社勝英工務,,有限会社,新潟県,新潟市東区,浜谷町１丁目６番１４号,,15,102,9500034,,,2025-11-04,清算の結了等,,,2015-10-05,1,,,,,ショウエイコウム,0
1438,6120001257571,登記記録の閉鎖等,0,2025-11-13,2025-11-10,ＮＩＮＥ　Ｏ　ＮＩＮＥ株式会社,,株式会社,大阪府,大阪市港区,南市岡３丁目１０－２グリシーヌ弁天町６０３号室,,27,107,5520011,,,2025-11-10,清算の結了等,,,2023-08-24,1,,,,,ナインオーナイン,0
1440,6120001270938,登記記録の閉鎖等,0,2025-11-13,2025-11-10,Ｏｘｂｒｉｄｇｅ　Ａｓｉａ株式会社,,株式会社,大阪府,大阪市東住吉区,矢田４丁目９－１５－２０３,,27,121,5460023,,,2025-11-10,清算の結了等,,,2024-12-10,1,,,,,オックスブリッジアジア,0
1450,6120003020242,登記記録の閉鎖等,0,2025-11-13,2025-11-05,合同会社ＨＡＮＩＣＯ,,合同会社,大阪府,大阪市北区,本庄西２丁目１８番９号,,27,127,5310073,,,2025-11-05,清算の結了等,,,2021-09-16,1,,,,,ハニコ,0
1454,6120101064372,登記記録の閉鎖等,0,2025-11-13,2025-10-31,株式会社ｏｈａｎａ,,株式会社,大阪府,大阪市都島区,都島北通１丁目１番４号,,27,102,5340014,,,2025-10-31,清算の結了等,,,2021-10-01,1,,,,,オハナ,0
1486,6180002088028,登記記録の閉鎖等,0,2025-11-13,2025-11-07,有限会社マリエ・ドウ・ヒロ,,有限会社,愛知県,東海市,荒尾町水深７７番地の２,,23,222,4760004,,,2025-11-07,清算の結了等,,,2015-10-05,1,,,,,マリエドウヒロ,0
1488,6180005006580,登記記録の閉鎖等,0,2025-11-13,2025-11-10,医療法人もりさき耳鼻咽喉科,,その他の設立登記法人,愛知県,名古屋市熱田区,三本松町１２番１７号,,23,109,4560032,,,2025-11-10,清算の結了等,,,2015-10-05,1,,,,,モリサキジビインコウカ,0
1493,6180302006663,登記記録の閉鎖等,0,2025-11-13,2025-11-10,有限会社エヌエヌ,,有限会社,愛知県,豊橋市,三本木町字新三本木５７番地の５,,23,201,4418152,,,2025-11-10,清算の結了等,,,2015-10-05,1,,,,,エヌエヌ,0
1502,6210001000856,登記記録の閉鎖等,0,2025-11-13,2025-11-11,株式会社Ｎ・Ｙ総建,,株式会社,福井県,福井市,布施田町第１０号９番地,,18,201,9103104,,,2025-11-11,清算の結了等,,,2015-10-05,1,,,,,エヌワイソウケン,0
1512,6240001051962,登記記録の閉鎖等,0,2025-11-13,2025-11-04,株式会社ツネイシクルーズシップコンサルタント,,株式会社,広島県,福山市,沼隈町大字常石１０８３番地,,34,207,7200313,,,2025-11-04,清算の結了等,,,2017-11-16,1,,,,,ツネイシクルーズシップコンサルタント,0
1513,6240001052770,登記記録の閉鎖等,0,2025-11-13,2025-11-04,株式会社ＴＯＳ,,株式会社,広島県,呉市,安浦町安登西６丁目５番１１号,,34,202,7372512,,,2025-11-04,合併による解散等,6240001042904,令和７年１１月１日広島県呉市安浦町安登西六丁目５番１１号株式会社シンコウ（6240001042904）に合併し解散,2018-05-07,1,,,,,ティーオーエス,0
1540,6360003010252,登記記録の閉鎖等,0,2025-11-13,2025-11-07,株式会社創遊建築企画,,株式会社,沖縄県,浦添市,内間４丁目１７番３号,,47,208,9012121,,,2025-11-07,清算の結了等,,,2020-04-21,1,,,,,ソウユウケンチクキカク,0
1553,6430002004124,登記記録の閉鎖等,0,2025-11-13,2025-11-10,有限会社オクデ塗装,,有限会社,北海道,札幌市手稲区,前田九条１４丁目２番１０号,,01,109,0060819,,,2025-11-10,清算の結了等,,,2015-10-05,1,,,,,オクデトソウ,0
1555,6430003014907,登記記録の閉鎖等,0,2025-11-13,2025-11-07,合同会社Ｓｏｃｉａｌ,,合同会社,北海道,札幌市中央区,南十六条西１９丁目１番３２号,,01,101,0640916,,,2025-11-07,清算の結了等,,,2023-04-13,1,,,,,ソーシャル,0
1556,6430005008808,登記記録の閉鎖等,0,2025-11-13,2025-11-06,医療法人社団メモリアル整形外科,,その他の設立登記法人,北海道,苫小牧市,花園町４丁目２番５号,,01,213,0530853,,,2025-11-06,清算の結了等,,,2015-10-05,1,,,,,メモリアルセイケイゲカ,0
1567,6500002004315,登記記録の閉鎖等,0,2025-11-13,2025-11-10,有限会社田中正洋家具店,,有限会社,愛媛県,松山市,鷹子町６２５番地１,,38,201,7900925,,,2025-11-10,清算の結了等,,,2015-10-05,1,,,,,タナカマサヒロカグテン,0
1574,7010001202471,登記記録の閉鎖等,0,2025-11-13,2025-11-04,株式会社Ｓｈｅｌｔｅｒ＆Ｂｉｚ,,株式会社,東京都,中央区,銀座１丁目２２番１１号銀座大竹ビジデンス２Ｆ,,13,102,1040061,,,2025-11-04,清算の結了等,,,2019-07-17,1,,,,,シェルターアンドビズ,0
1619,7012402022077,登記記録の閉鎖等,0,2025-11-13,2025-11-12,有限会社アシスト管理,,有限会社,東京都,武蔵野市,桜堤１丁目６番２８号カルチャー武蔵野第２棟３０６号,,13,203,1800021,,,2025-11-12,清算の結了等,,,2015-10-05,1,,,,,アシストカンリ,0
1643,7040001014625,登記記録の閉鎖等,0,2025-11-13,2025-10-14,株式会社ティー・アイ・トレーディング,,株式会社,千葉県,習志野市,香澄６丁目１３番１号,,12,216,2750022,,,2025-10-14,清算の結了等,,,2015-10-05,1,,,,,テイーアイトレーディング,0
1647,7040002073810,登記記録の閉鎖等,0,2025-11-13,2025-10-16,有限会社鈴木任工務店,,有限会社,千葉県,市原市,月崎３８１番地,,12,219,2900547,,,2025-10-16,清算の結了等,,,2015-10-05,1,,,,,スズキヒデコウムテン,0
1658,7060002032855,登記記録の閉鎖等,0,2025-11-13,2025-11-11,有限会社飯野製作所,,有限会社,栃木県,栃木市,大平町西水代７０３番地の１,,09,203,3294423,,,2025-11-11,清算の結了等,,,2015-10-05,1,,,,,イイノセイサクジョ,0
1663,7080001023606,登記記録の閉鎖等,0,2025-11-13,2025-11-10,株式会社ライブミクシィ,,株式会社,静岡県,静岡市清水区,千歳町７番３－５０３号,,22,103,4240828,,,2025-11-10,清算の結了等,,,2020-07-03,1,,,,,ライブミクシィ,0
1664,7080101016055,登記記録の閉鎖等,0,2025-11-13,2025-11-06,アリエル株式会社,,株式会社,静岡県,伊東市,十足６４７番地の４,,22,208,4140052,,,2025-11-06,清算の結了等,,,2015-10-05,1,,,,,アリエル,0
1674,7120002005788,登記記録の閉鎖等,0,2025-11-13,2025-11-11,有限会社大量販売新聞社,,有限会社,大阪府,大阪市東住吉区,桑津５丁目１番９号,,27,121,5460041,,,2025-11-11,清算の結了等,,,2015-10-05,1,,,,,タイリョウハンバイシンブンシャ,0
1689,7130001047673,登記記録の閉鎖等,0,2025-11-13,2025-11-10,株式会社アニスト,,株式会社,京都府,京都市北区,小山西大野町９５番地,,26,101,6038167,,,2025-11-10,清算の結了等,,,2015-10-05,1,,,,,アニスト,0
1705,7180001101483,登記記録の閉鎖等,0,2025-11-13,2025-11-10,株式会社アイム,,株式会社,愛知県,大府市,東新町３丁目１番地の１コープ野村共和Ａ棟５０９号,,23,223,4740073,,,2025-11-10,清算の結了等,,,2015-10-05,1,,,,,アイム,0
1706,7180001140564,登記記録の閉鎖等,0,2025-11-13,2025-11-05,株式会社メディカルガイダンス,,株式会社,愛知県,名古屋市瑞穂区,駒場町４丁目１９番地フォレシティ桜山２０９,,23,108,4670807,,,2025-11-05,清算の結了等,,,2020-03-30,1,,,,,メディカルガイダンス,0
1709,7180001161255,登記記録の閉鎖等,0,2025-11-13,2025-11-10,株式会社リファイン,,株式会社,愛知県,名古屋市北区,丸新町４８４番地,,23,103,4620063,,,2025-11-10,清算の結了等,,,2024-05-09,1,,,,,リファイン,0
1715,7180003021440,登記記録の閉鎖等,0,2025-11-13,2025-11-04,合同会社ＣＡＮＺＥＡＬ,,合同会社,愛知県,あま市,甚目寺乾出６４－１,,23,237,4901111,,,2025-11-04,合併による解散等,5180003023414,令和７年１１月１日名古屋市中村区名駅南五丁目４番１９号４０１ここちよい株式会社（5180003023414）に合併し解散,2020-07-28,1,,,,,カンジール,0
1725,7190002021977,登記記録の閉鎖等,0,2025-11-13,2025-11-06,有限会社正喜商事,,有限会社,三重県,四日市市,三重１丁目８６番地,,24,202,5120912,,,2025-11-06,清算の結了等,,,2015-10-05,1,,,,,マサキショウジ,0
1732,7240001029000,登記記録の閉鎖等,0,2025-11-13,2025-11-04,株式会社岡村電機,,株式会社,広島県,廿日市市,宮島口西２丁目１２番２０号,,34,213,7390412,,,2025-11-04,清算の結了等,,,2015-10-05,1,,,,,オカムラデンキ,0
1750,7340001014058,登記記録の閉鎖等,0,2025-11-13,2025-11-06,株式会社ニューヤマシタ,,株式会社,鹿児島県,肝属郡錦江町,城元３２１番地１,,46,490,8932302,,,2025-11-06,清算の結了等,,,2015-10-05,1,,,,,ニューヤマシタ,0
1771,7440002002794,登記記録の閉鎖等,0,2025-11-13,2025-11-11,有限会社ツジサキ,,有限会社,北海道,函館市,中道２丁目２９番８号,,01,202,0410853,,,2025-11-11,清算の結了等,,,2015-10-05,1,,,,,ツジサキ,0
1782,7500001018752,登記記録の閉鎖等,0,2025-11-13,2025-11-05,株式会社アスタスミライ,,株式会社,愛媛県,松山市,河原町６番地２,,38,201,7900013,,,2025-11-05,清算の結了等,,,2015-10-05,1,,,,,アスタスミライ,0
1784,7700150043366,登記記録の閉鎖等,0,2025-11-13,2015-11-30,みはま奥田土地改良区,,その他,愛知県,知多郡美浜町,大字河和字北田面１０６,,23,446,4702406,,,2015-11-30,その他の清算の結了等,,,2015-10-09,1,,,,,ミハマオクダトチカイリヨウク,0
1809,8010401183807,登記記録の閉鎖等,0,2025-11-13,2025-10-20,株式会社ＮＥＸＵＳ　Ｓｔｒａｔｅｇｉｅｓ,,株式会社,東京都,港区,芝大門１丁目４番４号ノア芝大門２０２,,13,103,1050012,,,2025-10-20,清算の結了等,,,2024-07-12,1,,,,,ネクサスストラテジーズ,0
1816,8010403023589,登記記録の閉鎖等,0,2025-11-13,2025-10-16,合同会社ＥＸＩＴ,,合同会社,東京都,港区,浜松町２丁目２番１５号浜松町ダイヤビル２Ｆ,,13,103,1050013,,,2025-10-16,清算の結了等,,,2020-08-31,1,,,,,イグジット,0
1858,8011701015303,登記記録の閉鎖等,0,2025-11-13,2025-11-06,株式会社Ｔａｎａｂｅ,,株式会社,東京都,小平市,中島町１０－１９,,13,211,1870033,,,2025-11-06,清算の結了等,,,2015-10-05,1,,,,,タナベ,0
1866,8013302002176,登記記録の閉鎖等,0,2025-11-13,2025-11-04,有限会社亀甲商事,,有限会社,東京都,豊島区,西池袋３丁目３２番９号,,13,116,1710021,,,2025-11-04,清算の結了等,,,2015-10-05,1,,,,,キッコウショウジ,0
1867,8020001069232,登記記録の閉鎖等,0,2025-11-13,2025-11-06,株式会社小林建設,,株式会社,神奈川県,川崎市中原区,上平間１６８番地３,,14,133,2110013,,,2025-11-06,清算の結了等,,,2015-10-05,1,,,,,コバヤシケンセツ,0
1887,8030002010714,登記記録の閉鎖等,0,2025-11-13,2025-11-06,有限会社ハコサン,,有限会社,埼玉県,さいたま市南区,辻５丁目２番２号,00016123,11,108,3360026,,,2025-11-06,清算の結了等,,,2015-10-05,1,,,,,ハコサン,0
1891,8040001136575,登記記録の閉鎖等,0,2025-11-13,2025-10-20,先端電子技術株式会社,,株式会社,千葉県,印西市,牧の原５丁目３００番地１６,,12,231,2701331,,,2025-10-20,清算の結了等,,,2024-12-17,1,,,,,センタンデンシギジュツ,0
1893,8050001032377,登記記録の閉鎖等,0,2025-11-13,2025-11-05,株式会社ＳＫ工業,,株式会社,茨城県,筑西市,桑山２０８１番地,,08,227,3091127,,,2025-11-05,清算の結了等,,,2015-10-05,1,,,,,エスケイコウギョウ,0
1894,8050002003534,登記記録の閉鎖等,0,2025-11-13,2025-11-07,有限会社渡辺左官工業,,有限会社,茨城県,水戸市,柳町１丁目９番１３号,,08,201,3100817,,,2025-11-07,清算の結了等,,,2015-10-05,1,,,,,ワタナベサカンコウギョウ,0
1904,8080001001585,登記記録の閉鎖等,0,2025-11-13,2025-11-10,三愛土地株式会社,,株式会社,静岡県,静岡市葵区,天王町４番２１号,,22,101,4200045,,,2025-11-10,清算の結了等,,,2015-10-05,1,,,,,サンアイトチ,0
1912,8120001142516,登記記録の閉鎖等,0,2025-11-13,2025-11-11,株式会社日本精神医学研究所,,株式会社,大阪府,大阪市浪速区,難波中１丁目８番１４号,,27,111,5560011,,,2025-11-11,清算の結了等,,,2015-10-05,1,,,,,ニホンセイシンイガクケンキュウショ,0
1913,8120001165079,登記記録の閉鎖等,0,2025-11-13,2025-11-10,植村紙工株式会社,,株式会社,大阪府,大阪市阿倍野区,北畠１丁目２３番２４号植村惠則方,,27,119,5450035,,,2025-11-10,清算の結了等,,,2015-10-05,1,,,,,ウエムラシコウ,0
1917,8120001187362,登記記録の閉鎖等,0,2025-11-13,2025-11-10,株式会社アルコバ,,株式会社,大阪府,大阪市中央区,南船場４丁目１２－２２－５０１,,27,128,5420081,,,2025-11-10,清算の結了等,,,2015-10-05,1,,,,,アルコバ,0
1924,8120001238834,登記記録の閉鎖等,0,2025-11-13,2025-11-10,葵ペイント株式会社,,株式会社,大阪府,大阪市天王寺区,勝山１丁目５番５号,,27,109,5430043,,,2025-11-10,清算の結了等,,,2021-07-05,1,,,,,アオイペイント,0
1945,8130001053489,登記記録の閉鎖等,0,2025-11-13,2025-11-10,株式会社ビーシーエムコーポレーション,,株式会社,京都府,京都市南区,上鳥羽城ケ前町２４８番地らくなんビル３０１－Ｂ,,26,107,6018137,,,2025-11-10,清算の結了等,,,2015-10-05,1,,,,,ビーシーエムコーポレーション,0
1946,8130001060345,登記記録の閉鎖等,0,2025-11-13,2025-11-10,株式会社ｃｏｌｌｅｃｔ,,株式会社,京都府,久世郡久御山町,田井新荒見１４１－４,,26,322,6130036,,,2025-11-10,清算の結了等,,,2017-08-16,1,,,,,コレクト,0
1956,8160001023092,登記記録の閉鎖等,0,2025-11-13,2025-11-11,株式会社ＨＡＲＺＥＬ,,株式会社,滋賀県,大津市,仰木の里東８丁目２１番地２,,25,201,5200248,,,2025-11-11,清算の結了等,,,2021-02-09,1,,,,,ハーゼル,0
1961,8180001042388,登記記録の閉鎖等,0,2025-11-13,2025-11-04,クリエイティ株式会社,,株式会社,愛知県,名古屋市瑞穂区,塩入町７番２０号,,23,108,4670851,,,2025-11-04,合併による解散等,5180001011123,令和７年１１月４日名古屋市瑞穂区塩入町８番１８号ウィンカム株式会社（5180001011123）に合併し解散,2015-10-05,1,,,,,クリエイティ,0
1963,8180001134243,登記記録の閉鎖等,0,2025-11-13,2025-11-10,株式会社エルプラス,,株式会社,愛知県,一宮市,三条字ヱグロ８２番地三条センタービル１階,,23,203,4940003,,,2025-11-10,清算の結了等,,,2018-10-31,1,,,,,エルプラス,0
1968,8180002069711,登記記録の閉鎖等,0,2025-11-13,2025-11-05,有限会社ハミングバード,,有限会社,愛知県,小牧市,大字上末３４４０番地の３５６,,23,219,4850822,,,2025-11-05,清算の結了等,,,2015-10-05,1,,,,,ハミングバード,0
1970,8180003018733,登記記録の閉鎖等,0,2025-11-13,2025-11-05,合同会社ワショー,,合同会社,愛知県,長久手市,北浦２５１８番地１２６,,23,238,4801301,,,2025-11-05,清算の結了等,,,2018-03-07,1,,,,,ワショー,0
1989,8240001009868,登記記録の閉鎖等,0,2025-11-13,2025-11-07,日乃本ホーム産業株式会社,,株式会社,広島県,広島市安佐南区,中須１丁目４６番１２号,,34,105,7310121,,,2025-11-07,清算の結了等,,,2015-10-05,1,,,,,ヒノモトホームサンギョウ,0
1990,8240001029981,登記記録の閉鎖等,0,2025-11-13,2025-11-06,株式会社胡子屋,,株式会社,広島県,福山市,若松町６番４号,,34,207,7200034,,,2025-11-06,清算の結了等,,,2015-10-05,1,,,,,エビスヤ,0
2007,8320001007368,登記記録の閉鎖等,0,2025-11-13,2025-10-30,株式会社大分ＡＣＥ,,株式会社,大分県,別府市,大字南立石４３４番地の３,,44,202,8740000,,,2025-10-30,清算の結了等,,,2015-10-05,1,,,,,オオイタエース,0
2009,8330003002671,登記記録の閉鎖等,0,2025-11-13,2025-11-06,合資会社飯干製材所,,合資会社,熊本県,阿蘇郡高森町,大字高森２０１５番地,,43,428,8691602,,,2025-11-06,清算の結了等,,,2015-10-05,1,,,,,イイホシセイザイショ,0
2021,8390001016024,登記記録の閉鎖等,0,2025-11-13,2025-11-11,株式会社真永工業,,株式会社,山形県,米沢市,窪田町矢野目１０４６番３,,06,202,9920002,,,2025-11-11,清算の結了等,,,2020-03-24,1,,,,,シンエイコウギョウ,0
2027,8430003009327,登記記録の閉鎖等,0,2025-11-13,2025-11-10,合同会社Ｍａｍ’ｓカンパニー,,合同会社,北海道,札幌市中央区,南十五条西８丁目２番３６－２０１号,,01,101,0640915,,,2025-11-10,清算の結了等,,,2018-04-26,1,,,,,マムズカンパニー,0
2029,8440001007067,登記記録の閉鎖等,0,2025-11-13,2025-11-12,株式会社只野塗工所,,株式会社,北海道,檜山郡厚沢部町,館町１０１番地,,01,363,0431351,,,2025-11-12,清算の結了等,,,2015-10-05,1,,,,,タダノトコウジョ,0
2032,8450005003920,登記記録の閉鎖等,0,2025-11-13,2025-11-07,一般社団法人占冠村木質バイオマス生産組合,,その他の設立登記法人,北海道,勇払郡占冠村,字シムカプ原野４８番６,,01,463,0792200,,,2025-11-07,清算の結了等,,,2015-10-05,1,,,,,シムカップムラモクシツバイオマスセイサンクミアイ,0
2033,8460101005431,登記記録の閉鎖等,0,2025-11-13,2025-11-10,株式会社平原ファーム,,株式会社,北海道,中川郡池田町,字川合２７番地５,,01,644,0830041,,,2025-11-10,清算の結了等,,,2015-10-05,1,,,,,ヘイゲンファーム,0
2034,8460102003293,登記記録の閉鎖等,0,2025-11-13,2025-11-07,有限会社マエダ機材,,有限会社,北海道,河西郡芽室町,東芽室北１線２０番地３０,,01,637,0820004,,,2025-11-07,清算の結了等,,,2015-10-05,1,,,,,マエダキザイ,0
2036,8700150109521,登記記録の閉鎖等,0,2025-11-13,2025-08-06,ｉｒｏｄｏｒｉ　ｅｎｓｅｍｂｌｅ,,その他,東京都,世田谷区,北烏山９丁目１５－２アルタスＩ　１Ａ号室,00134513,13,112,1570061,,,2025-08-06,その他の清算の結了等,,,2022-06-13,1,,,,,イロドリアンサンブル,0
2037,8700150123852,登記記録の閉鎖等,0,2025-11-13,2024-06-17,セラミックバレー協議会,,その他,岐阜県,多治見市,東町４丁目２番地の５セラミックパークＭＩＮＯ,,21,204,5070801,,,2024-06-17,その他の清算の結了等,,,2024-02-07,1,,,,,セラミツクバレーキヨウギカイ,0
2050,9010001214779,登記記録の閉鎖等,0,2025-11-13,2025-11-04,株式会社仲和ブリッジ,,株式会社,東京都,中央区,銀座１丁目１４番５号８Ｆ,,13,102,1040061,,,2025-11-04,清算の結了等,,,2021-01-05,1,,,,,チュウワブリッジ,0
2051,9010001219539,登記記録の閉鎖等,0,2025-11-13,2025-10-29,日本上期商事株式会社,,株式会社,東京都,中央区,新富１丁目１５番３号ジパングアウトソーシングサービス内,,13,102,1040041,,,2025-10-29,清算の結了等,,,2021-07-09,1,,,,,ニホンジョウキショウジ,0
2060,9010401029356,登記記録の閉鎖等,0,2025-11-13,2025-10-14,株式会社メディアプリントサービス,,株式会社,東京都,港区,芝３丁目１７番１４号,,13,103,1050014,,,2025-10-14,清算の結了等,,,2015-10-05,1,,,,,メディアプリントサービス,0
2063,9010401089243,登記記録の閉鎖等,0,2025-11-13,2025-10-20,ルコライン・ジャパン株式会社,,株式会社,東京都,港区,虎ノ門４丁目３番１号城山トラストタワー東京赤坂法律事務所内,,13,103,1050001,,,2025-10-20,清算の結了等,,,2015-10-05,1,,,,,ルコラインジャパン,0
2065,9010401149641,登記記録の閉鎖等,0,2025-11-13,2025-10-22,株式会社佐雄堂,,株式会社,東京都,港区,浜松町２丁目２番１５号浜松町ダイヤビル２階,,13,103,1050013,,,2025-10-22,清算の結了等,,,2019-12-09,1,,,,,サオドウ,0
2077,9010901044813,登記記録の閉鎖等,0,2025-11-13,2025-10-14,株式会社ロギアデザイン,,株式会社,東京都,港区,港南２丁目３番１号,,13,103,1080075,,,2025-10-14,清算の結了等,,,2019-09-05,1,,,,,ロギアデザイン,0
2099,9011201023375,登記記録の閉鎖等,0,2025-11-13,2025-11-10,コントローラーカンパニー株式会社,,株式会社,東京都,中野区,中央５丁目４９番６号３階,,13,114,1640011,,,2025-11-10,清算の結了等,,,2021-11-04,1,,,,,コントローラーカンパニー,0
2118,9020001035200,登記記録の閉鎖等,0,2025-11-13,2025-10-03,株式会社ハルド,,株式会社,神奈川県,横浜市西区,みなとみらい２丁目２番１号横浜ランドマークタワー３９階,,14,103,2200012,,,2025-10-03,合併による解散等,3021002069424,令和７年１０月１日横浜市西区みなとみらい二丁目２番１号横浜ランドマークタワー３９階株式会社シムス（3021002069424）に合併し解散,2015-10-05,1,,,,,ハルド,0
2120,9020001112585,登記記録の閉鎖等,0,2025-11-13,2025-10-15,株式会社ＺＡＰ　ＣＡＰＩＴＡＬ,,株式会社,東京都,港区,南麻布１丁目１８番２－３０１号,,13,103,1060047,,,2025-10-15,清算の結了等,,,2015-10-20,1,,,,,ザップキャピタル,0
2123,9020001162052,登記記録の閉鎖等,0,2025-11-13,2025-10-30,東正株式会社,,株式会社,神奈川県,横浜市中区,本牧町１丁目２２番地３,,14,104,2310806,,,2025-10-30,清算の結了等,,,2025-03-31,1,,,,,トウセイ,0
2129,9021001019143,登記記録の閉鎖等,0,2025-11-13,2025-10-27,イーストハウジング株式会社,,株式会社,神奈川県,高座郡寒川町,中瀬４番２０号,,14,321,2530112,,,2025-10-27,清算の結了等,,,2015-10-05,1,,,,,イーストハウジング,0
2136,9030001122212,登記記録の閉鎖等,0,2025-11-13,2025-11-06,株式会社鈴木通商,,株式会社,埼玉県,さいたま市岩槻区,大字釣上新田３２７番地,,11,110,3390025,,,2025-11-06,清算の結了等,,,2017-09-15,1,,,,,スズキツウショウ,0
2145,9030003020950,登記記録の閉鎖等,0,2025-11-13,2025-11-06,合同会社宇根商会,,合同会社,埼玉県,春日部市,一ノ割１丁目７番６号,,11,214,3440031,,,2025-11-06,清算の結了等,,,2023-01-18,1,,,,,ウネショウカイ,0
2156,9050001034348,登記記録の閉鎖等,0,2025-11-13,2025-11-06,株式会社カービックホールディングス,,株式会社,茨城県,北茨城市,関本町富士ケ丘５４番地の１２,,08,215,3191725,,,2025-11-06,清算の結了等,,,2015-10-05,1,,,,,カービックホールディングス,0
2166,9060001035576,登記記録の閉鎖等,0,2025-11-13,2025-11-04,ＳＶアセットマネジメント株式会社,,株式会社,埼玉県,さいたま市大宮区,吉敷町１丁目１３５番地Ａｒａｉビル９階,,11,103,3300843,,,2025-11-04,合併による解散等,2030001000473,令和７年１１月１日埼玉県さいたま市岩槻区加倉二丁目８番８号旭電気工業株式会社（2030001000473）に合併し解散,2023-01-06,1,,,,,エスブイアセットマネジメント,0
2167,9060001036731,登記記録の閉鎖等,0,2025-11-13,2025-11-12,株式会社ＡＬＦＡ,,株式会社,栃木県,宇都宮市,下川俣町２０９番地１５５,,09,201,3210972,,,2025-11-12,清算の結了等,,,2024-01-11,1,,,,,アルファ,0
2185,9110005011188,登記記録の閉鎖等,0,2025-11-13,2025-11-04,医療法人神谷厚生会,,その他の設立登記法人,新潟県,長岡市,柏町２丁目６番３０号,,15,202,9400088,,,2025-11-04,清算の結了等,,,2015-10-05,1,,,,,カミヤコウセイカイ,0
2187,9120001145963,登記記録の閉鎖等,0,2025-11-13,2025-11-10,株式会社イマスル,,株式会社,奈良県,奈良市,菅野台１番３３－５号,,29,201,6310043,,,2025-11-10,清算の結了等,,,2015-10-05,1,,,,,イマスル,0
2207,9120901033004,登記記録の閉鎖等,0,2025-11-13,2025-10-29,ＲＥａＬ株式会社,,株式会社,大阪府,池田市,井口堂１丁目５番１６－１３号,,27,204,5630023,,,2025-10-29,清算の結了等,,,2015-10-05,1,,,,,レアル,0
2217,9130001070962,登記記録の閉鎖等,0,2025-11-13,2025-09-04,株式会社ａｒｉｃａ,,株式会社,京都府,京都市右京区,太秦帷子ケ辻町１１番地５３,00125472,26,108,6168151,,,2025-09-04,清算の結了等,,,2022-01-21,1,,,,,アリカ,0
2230,9150001015718,登記記録の閉鎖等,0,2025-11-13,2025-11-11,株式会社森組,,株式会社,奈良県,吉野郡十津川村,大字小原１２７５番地,,29,449,6371333,,,2025-11-11,清算の結了等,,,2015-10-05,1,,,,,モリグミ,0
2231,9150001022318,登記記録の閉鎖等,0,2025-11-13,2025-11-10,ｙｍｔ株式会社,,株式会社,奈良県,磯城郡田原本町,大字松本４１３番地５,,29,363,6360351,,,2025-11-10,清算の結了等,,,2018-06-06,1,,,,,ワイエムティー,0
2246,9180002082572,登記記録の閉鎖等,0,2025-11-13,2025-11-10,有限会社森磯,,有限会社,愛知県,岩倉市,曽野町１８番地,,23,228,4820003,,,2025-11-10,清算の結了等,,,2015-10-05,1,,,,,モリイソ,0
2248,9180003012248,登記記録の閉鎖等,0,2025-11-13,2025-11-05,合資会社大功電気商会,,合資会社,愛知県,稲沢市,大塚南２丁目３２番地,,23,220,4928214,,,2025-11-05,清算の結了等,,,2015-10-05,1,,,,,タイコウデンキショウカイ,0
2256,9180303004696,登記記録の閉鎖等,0,2025-11-13,2025-11-04,ＮＥＸＴ　ＩＮＮＯＶＡＴＩＯＮ合同会社,,合同会社,愛知県,名古屋市東区,東桜２丁目９－３４成田ビル１Ｆ,,23,102,4610005,,,2025-11-04,清算の結了等,,,2020-07-28,1,,,,,ネクストイノベーション,0
2259,9200001008451,登記記録の閉鎖等,0,2025-11-13,2025-11-06,株式会社尚美,,株式会社,岐阜県,岐阜市,東鶉３丁目５３番地２,,21,201,5008281,,,2025-11-06,清算の結了等,,,2015-10-05,1,,,,,ショウビ,0
2260,9200001011422,登記記録の閉鎖等,0,2025-11-13,2025-11-06,株式会社ビクトリア,,株式会社,岐阜県,羽島郡岐南町,伏屋３丁目２２２番地,,21,302,5016006,,,2025-11-06,清算の結了等,,,2015-10-05,1,,,,,ビクトリア,0
2262,9200005000768,登記記録の閉鎖等,0,2025-11-13,2025-11-11,神理教加納分教会,,その他の設立登記法人,岐阜県,岐阜市,加納黒木町１丁目２６番地,,21,201,5008461,,,2025-11-11,清算の結了等,,,2015-10-05,1,,,,,,0
2275,9250001011368,登記記録の閉鎖等,0,2025-11-13,2025-11-11,株式会社佐川塗料商会,,株式会社,山口県,岩国市,山手町４丁目３番６号,,35,208,7400022,,,2025-11-11,清算の結了等,,,2015-10-05,1,,,,,サガワトリョウショウカイ,0
2277,9260002022710,登記記録の閉鎖等,0,2025-11-13,2025-11-07,有限会社ベイシス,,有限会社,岡山県,倉敷市,西阿知町１０１６番地の１０,,33,202,7100807,,,2025-11-07,清算の結了等,,,2015-10-05,1,,,,,ベイシス,0
2285,9290005005338,登記記録の閉鎖等,0,2025-11-13,2025-10-17,特定非営利活動法人長寿命化建物推進協会,,その他の設立登記法人,福岡県,福岡市中央区,港２丁目２番１１号,,40,133,8100075,,,2025-10-17,清算の結了等,,,2015-10-05,1,,,,,チョウジュミョウカタテモノスイシンキョウカイ,0
2304,9370002007527,登記記録の閉鎖等,0,2025-11-13,2025-11-04,有限会社佐藤式義肢製作所,,有限会社,宮城県,仙台市宮城野区,新田２丁目１１番１０号,,04,102,9830038,,,2025-11-04,清算の結了等,,,2015-10-05,1,,,,,サトウシキギシセイサクショ,0
2307,9370305000055,登記記録の閉鎖等,0,2025-11-13,2025-10-28,宮城県旋網漁業協同組合,,その他の設立登記法人,宮城県,石巻市,魚町２丁目１２番地３石巻市水産総合振興センター２１１号室,,04,202,9860022,,,2025-10-28,清算の結了等,,,2015-10-05,1,,,,,ミヤギケンマキアミギョギョウ,0
2321,9470002007401,登記記録の閉鎖等,0,2025-11-13,2025-11-07,有限会社ラタンハウス,,有限会社,香川県,高松市,塩上町３丁目２０番６号,,37,201,7600062,,,2025-11-07,清算の結了等,,,2015-10-05,1,,,,,,0
