sequenceNumber,corporateNumber,process,correct,updateDate,changeDate,name,nameImageId,kind,prefectureName,cityName,streetNumber,addressImageId,prefectureCode,cityCode,postCode,addressOutside,addressOutsideImageId,closeDate,closeCause,successorCorporateNumber,changeCause,assignmentDate,latest,enName,enPrefectureName,enCityName,enAddressOutside,furigana,hihyoji
1,1010001046239,登記記録の閉鎖等,0,2023-12-21,2023-12-18,湘南ケミー株式会社,,株式会社,東京都,中央区,日本橋小舟町１４番７号,,13,102,1030024,,,2023-12-18,清算の結了等,,,2015-10-05,1,,,,,ショウナンケミー,0
2,1010001051957,登記記録の閉鎖等,0,2023-12-21,2023-12-18,東洋薬化株式会社,,株式会社,東京都,中央区,日本橋小舟町１４番７号,,13,102,1030024,,,2023-12-18,清算の結了等,,,2015-10-05,1,,,,,トウヨウヤッカ,0
5,1010001176589,登記記録の閉鎖等,0,2023-12-21,2023-12-19,株式会社トラスト,,株式会社,東京都,中央区,八重洲２丁目４番１号ユニゾ八重洲ビル,,13,102,1040028,,,2023-12-19,清算の結了等,,,2016-06-24,1,,,,,トラスト,0
8,1010001229867,登記記録の閉鎖等,0,2023-12-21,2023-12-13,ライジングスター株式会社,,株式会社,東京都,港区,新橋６丁目４番３号ル・グラシエルＢＬＤＧ．７－３Ｆ－Ａ,,13,103,1050004,,,2023-12-13,清算の結了等,,,2022-10-04,1,,,,,ライジングスター,0
36,1011001036394,登記記録の閉鎖等,0,2023-12-21,2023-12-13,株式会社日浩キングスメン,,株式会社,東京都,世田谷区,三軒茶屋２丁目２番１６号,,13,112,1540024,,,2023-12-13,清算の結了等,,,2015-10-05,1,KINGSMEN NIKKO LIMITED,Tokyo,"2-2-16 Sangenjaya, Setagaya ku",,ニッコウキングスメン,0
37,1011001066417,登記記録の閉鎖等,0,2023-12-21,2023-12-15,株式会社シミズ,,株式会社,東京都,渋谷区,千駄ヶ谷４丁目２９番１２号,,13,113,1510051,,,2023-12-15,清算の結了等,,,2015-10-05,1,,,,,シミズ,0
58,1011802029992,登記記録の閉鎖等,0,2023-12-21,2023-12-15,有限会社畑商業研究所,,有限会社,東京都,足立区,小台１丁目２２番２号,,13,121,1200046,,,2023-12-15,清算の結了等,,,2015-10-05,1,,,,,ハタショウギョウケンキュウショ,0
64,1020001023658,登記記録の閉鎖等,0,2023-12-21,2023-12-14,株式会社竹内商会,,株式会社,神奈川県,横浜市神奈川区,松本町４丁目２９番地の１,,14,102,2210841,,,2023-12-14,清算の結了等,,,2015-10-05,1,,,,,タケウチショウカイ,0
75,1021002033373,登記記録の閉鎖等,0,2023-12-21,2023-12-04,株式会社ＦＧＳ,,株式会社,神奈川県,伊勢原市,伊勢原３丁目１９番２３号,,14,214,2591131,,,2023-12-04,合併による解散等,6021001047213,令和５年１２月１日神奈川県鎌倉市小町一丁目３番５号２階株式会社Ｌｉｂｒａ（6021001047213）に合併し解散,2015-10-05,1,,,,,エフジーエス,0
89,1030002010712,登記記録の閉鎖等,0,2023-12-21,2023-12-13,有限会社博栄堂,,有限会社,埼玉県,さいたま市浦和区,本太２丁目２番１８－３０１号,,11,107,3300052,,,2023-12-13,清算の結了等,,,2015-10-05,1,,,,,,0
94,1030002044108,登記記録の閉鎖等,0,2023-12-21,2023-12-14,有限会社近藤プレス工業,,有限会社,埼玉県,草加市,青柳２丁目１１番２６号,,11,221,3400002,,,2023-12-14,清算の結了等,,,2015-10-05,1,,,,,コンドウプレスコウギョウ,0
111,1080102014212,登記記録の閉鎖等,0,2023-12-21,2023-12-20,有限会社鈴木樹脂加工,,有限会社,静岡県,富士市,原田８９６番地の２,,22,210,4170852,,,2023-12-20,清算の結了等,,,2015-10-05,1,,,,,スズキジュシカコウ,0
122,1120001080103,登記記録の閉鎖等,0,2023-12-21,2023-12-18,株式会社サンクリエイティブワークス,,株式会社,大阪府,大阪市中央区,内平野町１丁目５番４号,,27,128,5400037,,,2023-12-18,清算の結了等,,,2015-10-05,1,,,,,サンクリエイティブワークス,0
127,1120102010999,登記記録の閉鎖等,0,2023-12-21,2023-12-19,有限会社ベスト保険,,有限会社,大阪府,堺市南区,豊田１２２４－１,,27,145,5900106,,,2023-12-19,清算の結了等,,,2015-10-05,1,,,,,ベストホケン,0
142,1150001010387,登記記録の閉鎖等,0,2023-12-21,2023-12-19,橿原興産株式会社,,株式会社,奈良県,高市郡明日香村,大字岡１２１５番地,,29,402,6340111,,,2023-12-19,清算の結了等,,,2015-10-05,1,,,,,カシハラコウサン,0
144,1150001024552,登記記録の閉鎖等,0,2023-12-21,2023-12-20,株式会社縁ｅｎｉｓｈｉ,,株式会社,奈良県,奈良市,百楽園５丁目１番２３－３１２号,,29,201,6310024,,,2023-12-20,清算の結了等,,,2021-04-08,1,,,,,エニシ,0
150,1180003015943,登記記録の閉鎖等,0,2023-12-21,2023-12-05,富山市大川寺２合同会社,,合同会社,愛知県,名古屋市中区,栄５丁目２６番３９号,,23,106,4600008,,,2023-12-05,合併による解散等,6180003015939,令和５年１２月１日名古屋市中区栄五丁目２６番３９号アンビー・ファシリティ合同会社（6180003015939）に合併し解散,2015-10-05,1,,,,,トヤマシオオカワテラニ,0
151,1180003015976,登記記録の閉鎖等,0,2023-12-21,2023-12-05,石川敷浪合同会社,,合同会社,愛知県,名古屋市中区,栄５丁目２６番３９号,,23,106,4600008,,,2023-12-05,合併による解散等,6180003015939,令和５年１２月１日名古屋市中区栄五丁目２６番３９号アンビー・ファシリティ合同会社（6180003015939）に合併し解散,2015-10-05,1,,,,,イシカワシキナミ,0
169,1290001083056,登記記録の閉鎖等,0,2023-12-21,2023-12-12,株式会社ＡＳ‐ＦＵＫＵＯＫＡ,,株式会社,福岡県,福岡市中央区,大名２丁目６番３９号５Ｆ,,40,133,8100041,,,2023-12-12,清算の結了等,,,2018-10-12,1,,,,,エイエスフクオカ,0
201,1410003001218,登記記録の閉鎖等,0,2023-12-21,2023-12-18,合同会社吉田商店,,合同会社,秋田県,湯沢市,清水町４丁目５番１９号,,05,207,0120033,,,2023-12-18,清算の結了等,,,2015-10-05,1,,,,,ヨシダショウテン,0
231,2010401092658,登記記録の閉鎖等,0,2023-12-21,2023-12-14,株式会社まほらパートナーズ,,株式会社,東京都,港区,麻布十番２丁目７番２号,,13,103,1060045,,,2023-12-14,清算の結了等,,,2015-10-05,1,,,,,,0
233,2010401147783,登記記録の閉鎖等,0,2023-12-21,2023-12-18,株式会社デルタシェアードサービス,,株式会社,東京都,港区,新橋２丁目２０番１５号,,13,103,1050004,,,2023-12-18,合併による解散等,6013301036111,令和５年７月１日東京都千代田区丸の内二丁目５番２号ＤＥＬＴＡ　Ｈｏｌｄｉｎｇｓ株式会社（6013301036111）に合併し解散,2019-09-03,1,,,,,デルタシェアードサービス,0
241,2010502017679,登記記録の閉鎖等,0,2023-12-21,2023-12-18,有限会社めがねレンズ工房,,有限会社,東京都,台東区,蔵前３丁目１８－４、１Ｆ,,13,106,1110051,,,2023-12-18,清算の結了等,,,2015-10-05,1,,,,,,0
249,2010805002584,登記記録の閉鎖等,0,2023-12-21,2023-12-15,一般社団法人あんしん若月,,その他の設立登記法人,東京都,大田区,池上８丁目２３番１１－６０１号,,13,111,1460082,,,2023-12-15,清算の結了等,,,2018-08-29,1,,,,,アンシンワカツキ,0
279,2013101001211,登記記録の閉鎖等,0,2023-12-21,2023-12-15,株式会社ユニックス,,株式会社,東京都,あきる野市,瀬戸岡４２７番地１,,13,228,1970803,,,2023-12-15,清算の結了等,,,2015-10-05,1,,,,,ユニックス,0
280,2013101005724,登記記録の閉鎖等,0,2023-12-21,2023-12-19,福生源産業株式会社,,株式会社,東京都,青梅市,今井２丁目１０２２番地の２,,13,205,1980023,,,2023-12-19,清算の結了等,,,2015-10-05,1,,,,,,0
286,2013302014532,登記記録の閉鎖等,0,2023-12-21,2023-12-14,有限会社コナンド,,有限会社,東京都,豊島区,東池袋３丁目２番７号,,13,116,1700013,,,2023-12-14,清算の結了等,,,2015-10-05,1,,,,,コナンド,0
296,2020001143744,登記記録の閉鎖等,0,2023-12-21,2023-12-15,株式会社国際人材交流協会,,株式会社,神奈川県,横浜市港北区,日吉本町１丁目３８番３－２１８号,,14,109,2230062,,,2023-12-15,清算の結了等,,,2021-11-09,1,,,,,コクサイジンザイコウリュウキョウカイ,0
302,2020002048661,登記記録の閉鎖等,0,2023-12-21,2023-12-15,有限会社ヒロタ,,有限会社,神奈川県,横浜市保土ケ谷区,星川１丁目２２番２６号,,14,106,2400006,,,2023-12-15,清算の結了等,,,2015-10-05,1,,,,,ヒロタ,0
312,2030002091173,登記記録の閉鎖等,0,2023-12-21,2023-12-11,有限会社神田直昭商店,,有限会社,埼玉県,越谷市,千間台西５丁目３番２号,,11,222,3430041,,,2023-12-11,清算の結了等,,,2015-10-05,1,,,,,カンダナオアキショウテン,0
317,2030002112210,登記記録の閉鎖等,0,2023-12-21,2023-12-15,有限会社ＳＡＲＡ,,有限会社,埼玉県,川口市,鳩ヶ谷緑町２丁目１８番１７号,,11,203,3340015,,,2023-12-15,清算の結了等,,,2015-10-05,1,,,,,サラ,0
321,2040001087931,登記記録の閉鎖等,0,2023-12-21,2023-12-13,株式会社ニックスサービス,,株式会社,千葉県,千葉市花見川区,千種町３１３番地３,,12,102,2620012,,,2023-12-13,清算の結了等,,,2015-10-05,1,,,,,ニックスサービス,0
328,2050002007854,登記記録の閉鎖等,0,2023-12-21,2023-12-18,有限会社アンシス,,有限会社,茨城県,水戸市,全隈町２８番地２,,08,201,3114161,,,2023-12-18,清算の結了等,,,2015-10-05,1,,,,,,0
331,2050002012177,登記記録の閉鎖等,0,2023-12-21,2023-12-14,藤森商事有限会社,,有限会社,茨城県,土浦市,並木２丁目１８番１３号,,08,203,3000061,,,2023-12-14,清算の結了等,,,2015-10-05,1,,,,,フジモリショウジ,0
334,2080401023937,登記記録の閉鎖等,0,2023-12-21,2023-12-20,さかえ不動産株式会社,,株式会社,静岡県,浜松市東区,下石田町１７８１番地の１,,22,132,4350006,,,2023-12-20,清算の結了等,,,2019-10-21,1,,,,,サカエフドウサン,0
341,2110002009002,登記記録の閉鎖等,0,2023-12-21,2023-12-19,有限会社ランニング,,有限会社,新潟県,新潟市中央区,桜木町９番１５号,,15,103,9500949,,,2023-12-19,清算の結了等,,,2015-10-05,1,,,,,,0
346,2120001069830,登記記録の閉鎖等,0,2023-12-21,2023-12-19,株式会社藤総,,株式会社,大阪府,大阪市北区,芝田２丁目６番３０号梅田清和ビル６Ｆ,,27,127,5300012,,,2023-12-19,清算の結了等,,,2015-10-05,1,,,,,フジソウソウ,0
347,2120001081752,登記記録の閉鎖等,0,2023-12-21,2023-12-15,株式会社シンエスプラン,,株式会社,大阪府,大阪市天王寺区,小橋町３番６号,,27,109,5430028,,,2023-12-15,清算の結了等,,,2015-10-05,1,,,,,シンエスプラン,0
372,2140002042818,登記記録の閉鎖等,0,2023-12-21,2023-12-18,有限会社武庫川湯,,有限会社,兵庫県,尼崎市,大庄西町１丁目３９番２５号,,28,202,6600077,,,2023-12-18,清算の結了等,,,2023-12-07,1,,,,,ムコガワユ,0
380,2180001027535,登記記録の閉鎖等,0,2023-12-21,2023-12-18,株式会社山田商会,,株式会社,愛知県,名古屋市西区,浅間２丁目４番１号,,23,104,4510035,,,2023-12-18,清算の結了等,,,2015-10-05,1,,,,,ヤマダショウカイ,0
381,2180001050173,登記記録の閉鎖等,0,2023-12-21,2023-12-18,株式会社袋屋,,株式会社,愛知県,名古屋市熱田区,伝馬２丁目１６番１９号,,23,109,4560034,,,2023-12-18,清算の結了等,,,2015-10-05,1,,,,,フクロヤ,0
384,2180002082257,登記記録の閉鎖等,0,2023-12-21,2023-12-12,有限会社ヤマダ損保事務所,,有限会社,愛知県,江南市,小折本町小松原１７２番地,,23,217,4838127,,,2023-12-12,清算の結了等,,,2015-10-05,1,,,,,ヤマダソンポジムショ,0
393,2220001020840,登記記録の閉鎖等,0,2023-12-21,2023-12-13,たくみやホールディングス株式会社,,株式会社,石川県,小松市,矢田野町西３２番地１２,,17,203,9230342,,,2023-12-13,合併による解散等,7220001018310,令和５年１２月１日石川県小松市矢田野町西３２番地１２株式会社たくみや（7220001018310）に合併し解散,2016-02-29,1,,,,,タクミヤホールディングス,0
416,2260003002024,登記記録の閉鎖等,0,2023-12-21,2023-12-20,合同会社旅の途中,,合同会社,岡山県,高梁市,石火矢町３２番１号,,33,209,7160015,,,2023-12-20,清算の結了等,,,2016-06-09,1,,,,,タビノトチュウ,0
419,2290001038158,登記記録の閉鎖等,0,2023-12-21,2023-12-12,粕屋南倉庫株式会社,,株式会社,福岡県,糟屋郡粕屋町,内橋東２丁目１５番１８号,,40,349,8112320,,,2023-12-12,清算の結了等,,,2015-10-05,1,,,,,カスヤミナミソウコ,0
434,2330002028814,登記記録の閉鎖等,0,2023-12-21,2023-12-13,有限会社長井商会,,有限会社,熊本県,天草市,御所浦町牧島１２３番地の２,,43,215,8660334,,,2023-12-13,清算の結了等,,,2015-10-05,1,,,,,ナガイショウカイ,0
440,2350005003928,登記記録の閉鎖等,0,2023-12-21,2023-12-13,株式会社ひまわり牧場,,株式会社,宮崎県,都城市,高城町石山３３１６番地,,45,202,8851205,,,2023-12-13,合併による解散等,8430002052336,令和５年１１月２２日北海道樺戸郡浦臼町字オサツナイ３１５番地１３１神内ファーム二十一株式会社（8430002052336）に合併し解散,2015-10-05,1,,,,,ヒマワリボクジョウ,0
448,2370002005413,登記記録の閉鎖等,0,2023-12-21,2023-12-19,株式会社センシン,,株式会社,宮城県,仙台市若林区,志波町１５番３６号,,04,103,9840041,,,2023-12-19,清算の結了等,,,2015-10-05,1,,,,,センシン,0
453,2390001014413,登記記録の閉鎖等,0,2023-12-21,2023-12-19,株式会社リーコ,,株式会社,山形県,新庄市,沼田町６番１６号,,06,205,9960083,,,2023-12-19,清算の結了等,,,2016-03-14,1,,,,,リーコ,0
456,2410002010219,登記記録の閉鎖等,0,2023-12-21,2023-12-15,有限会社経営管理センター,,有限会社,秋田県,能代市,昭南町６番４７号,,05,202,0160897,,,2023-12-15,清算の結了等,,,2015-10-05,1,,,,,ケイエイカンリセンター,0
468,2480005000771,登記記録の閉鎖等,0,2023-12-21,2023-12-20,ハウスジー住宅センター協同組合,,その他の設立登記法人,徳島県,徳島市,中昭和町１丁目３番地,,36,201,7700943,,,2023-12-20,清算の結了等,,,2015-10-05,1,,,,,ハウスジージュウタクセンター,0
469,2490002004130,登記記録の閉鎖等,0,2023-12-21,2023-12-19,畠中商事有限会社,,有限会社,高知県,高知市,上町４丁目８番２１号,,39,201,7800901,,,2023-12-19,清算の結了等,,,2015-10-05,1,,,,,ハタケナカショウジ,0
475,3010001065105,登記記録の閉鎖等,0,2023-12-21,2023-12-14,日本メディカルオネスト株式会社,,株式会社,東京都,豊島区,東池袋３丁目２３番１３号池袋ＫＳビル５階,,13,116,1700013,,,2023-12-14,清算の結了等,,,2015-10-05,1,,,,,ニホンメディカルオネスト,0
483,3010003027821,登記記録の閉鎖等,0,2023-12-21,2023-12-15,合同会社ワンズモール,,合同会社,東京都,千代田区,丸の内３丁目１番１号東京共同会計事務所内,,13,101,1000005,,,2023-12-15,清算の結了等,,,2018-06-29,1,,,,,ワンズモール,0
500,3010405018393,登記記録の閉鎖等,0,2023-12-21,2023-12-14,一般社団法人ＥＢＥＣ,,その他の設立登記法人,東京都,港区,白金１丁目２７番６号,,13,103,1080072,,,2023-12-14,清算の結了等,,,2020-01-21,1,,,,,エベック,0
507,3010901031718,登記記録の閉鎖等,0,2023-12-21,2023-12-15,株式会社村山事務所,,株式会社,長野県,北佐久郡軽井沢町,大字軽井沢１３２３番地６６３,,20,321,3890102,,,2023-12-15,清算の結了等,,,2015-10-05,1,,,,,ムラヤマジムショ,0
534,3011802004861,登記記録の閉鎖等,0,2023-12-21,2023-12-18,有限会社竹本興業,,有限会社,東京都,葛飾区,西水元６丁目１番１８号,,13,122,1250031,,,2023-12-18,清算の結了等,,,2015-10-05,1,,,,,タケモトコウギョウ,0
536,3013102002835,登記記録の閉鎖等,0,2023-12-21,2023-12-19,有限会社システムプリント,,有限会社,東京都,西多摩郡瑞穂町,大字高根６４６番地１２,,13,303,1901203,,,2023-12-19,清算の結了等,,,2015-10-05,1,,,,,システムプリント,0
561,3040001021476,登記記録の閉鎖等,0,2023-12-21,2023-12-18,株式会社オージー,,株式会社,東京都,新宿区,四谷４丁目１番地,,13,104,1600004,,,2023-12-18,清算の結了等,,,2015-10-05,1,,,,,オージー,0
566,3040002024973,登記記録の閉鎖等,0,2023-12-21,2023-12-14,有限会社ブティックジル,,有限会社,千葉県,船橋市,習志野台２丁目７２番１７号,,12,204,2740063,,,2023-12-14,清算の結了等,,,2015-10-05,1,,,,,ブティックジル,0
567,3040003006112,登記記録の閉鎖等,0,2023-12-21,2023-12-12,合同会社ＫＯＲ　ＪＡＰＡＮ,,合同会社,千葉県,松戸市,和名ケ谷８０８番地の１４,,12,207,2702232,,,2023-12-12,清算の結了等,,,2015-10-05,1,,,,,ケーオーアールジャパン,0
576,3080102001687,登記記録の閉鎖等,0,2023-12-21,2023-12-19,有限会社シモヤマ,,有限会社,静岡県,沼津市,町方町８７番地,,22,203,4100882,,,2023-12-19,清算の結了等,,,2015-10-05,1,,,,,シモヤマ,0
585,3110002023349,登記記録の閉鎖等,0,2023-12-21,2023-12-19,有限会社ヒグチ住建,,有限会社,新潟県,上越市,木田１丁目７番２７号,,15,222,9430805,,,2023-12-19,清算の結了等,,,2015-10-05,1,,,,,ヒグチジュウケン,0
593,3120001232404,登記記録の閉鎖等,0,2023-12-21,2023-12-15,株式会社ｓａｋｉｔｏｍｏ,,株式会社,大阪府,大阪市中央区,玉造２丁目３番１８号,,27,128,5400004,,,2023-12-15,清算の結了等,,,2020-10-12,1,,,,,サキトモ,0
595,3120001250785,登記記録の閉鎖等,0,2023-12-21,2023-12-14,亀岡テクノ株式会社,,株式会社,大阪府,大阪市港区,波除５丁目８番１０号,,27,107,5520001,,,2023-12-14,清算の結了等,,,2022-12-05,1,,,,,カメオカテクノ,0
609,3140001039888,登記記録の閉鎖等,0,2023-12-21,2023-12-13,株式会社中西,,株式会社,兵庫県,赤穂市,加里屋５３番地の２,,28,212,6780239,,,2023-12-13,清算の結了等,,,2015-10-05,1,,,,,ナカニシ,0
610,3140001083969,登記記録の閉鎖等,0,2023-12-21,2023-12-13,株式会社ＴＨ都市デザイン研究所,,株式会社,兵庫県,宝塚市,仁川台１６１番地の５,,28,214,6650074,,,2023-12-13,清算の結了等,,,2015-10-05,1,,,,,ティーエイチトシデザインケンキュウショ,0
613,3140001112694,登記記録の閉鎖等,0,2023-12-21,2023-12-18,神戸電装株式会社,,株式会社,兵庫県,神戸市中央区,港島５丁目３番地日産サービスセンター株式会社工場内,,28,110,6500045,,,2023-12-18,清算の結了等,,,2019-02-13,1,,,,,コウベデンソウ,0
619,3170005000059,登記記録の閉鎖等,0,2023-12-21,2023-12-20,医療法人史の会,,その他の設立登記法人,和歌山県,和歌山市,北ノ新地裏田町１番地の１,,30,201,6408352,,,2023-12-20,清算の結了等,,,2015-10-05,1,,,,,フミノカイ,0
625,3180003015966,登記記録の閉鎖等,0,2023-12-21,2023-12-05,石川花見月２合同会社,,合同会社,愛知県,名古屋市中区,栄５丁目２６番３９号,,23,106,4600008,,,2023-12-05,合併による解散等,6180003015939,令和５年１２月１日名古屋市中区栄五丁目２６番３９号アンビー・ファシリティ合同会社（6180003015939）に合併し解散,2015-10-05,1,,,,,イシカワハナミツキニ,0
634,3220005001497,登記記録の閉鎖等,0,2023-12-21,2023-12-15,石川県醸造機器工業協同組合,,その他の設立登記法人,石川県,金沢市,武蔵町１７番８号,,17,201,9200855,,,2023-12-15,清算の結了等,,,2015-10-05,1,,,,,イシカワケンジョウゾウキキコウギョウ,0
668,3310002003462,登記記録の閉鎖等,0,2023-12-21,2023-12-20,有限会社トウサイ,,有限会社,長崎県,長崎市,つつじが丘４丁目１９番１５号,,42,201,8510102,,,2023-12-20,清算の結了等,,,2015-10-05,1,,,,,トウサイ,0
675,3340001002537,登記記録の閉鎖等,0,2023-12-21,2023-12-19,株式会社大実建設,,株式会社,鹿児島県,鹿児島市,宇宿６丁目５番２５号,,46,201,8900073,,,2023-12-19,清算の結了等,,,2015-10-05,1,,,,,ダイジツケンセツ,0
679,3370001042010,登記記録の閉鎖等,0,2023-12-21,2023-12-18,株式会社優飛,,株式会社,宮城県,岩沼市,藤浪１丁目３番５１号,,04,211,9892434,,,2023-12-18,清算の結了等,,,2017-09-06,1,,,,,ユウヒ,0
683,3370802001131,登記記録の閉鎖等,0,2023-12-21,2023-12-18,有限会社山田ハウジング,,有限会社,宮城県,岩沼市,桑原２丁目４番２５号,,04,211,9892445,,,2023-12-18,清算の結了等,,,2015-10-05,1,,,,,ヤマダハウジング,0
684,3380003004098,登記記録の閉鎖等,0,2023-12-21,2023-12-19,ＭＫ工房合同会社,,合同会社,福島県,大沼郡会津美里町,氷玉字関山甲１１００番地,,07,447,9696143,,,2023-12-19,清算の結了等,,,2017-09-14,1,,,,,エムケイコウボウ,0
694,3430005013034,登記記録の閉鎖等,0,2023-12-21,2023-12-11,一般社団法人日本色彩療法士協会,,その他の設立登記法人,北海道,札幌市中央区,南一条西１６丁目１番地３２３春野ビル３階,,01,101,0600061,,,2023-12-11,清算の結了等,,,2017-02-10,1,,,,,ニホンシキサイリョウホウシキョウカイ,0
695,3450002003218,登記記録の閉鎖等,0,2023-12-21,2023-12-20,有限会社大正総合保険事務所,,有限会社,北海道,旭川市,北門町２１丁目２１６８番地,,01,204,0700825,,,2023-12-20,清算の結了等,,,2015-10-05,1,,,,,タイショウソウゴウホケンジムショ,0
700,3490002004352,登記記録の閉鎖等,0,2023-12-21,2023-12-15,シビルウエディングハウス有限会社オワゾブルー,,有限会社,高知県,高知市,はりまや町２丁目５番１５号,,39,201,7800822,,,2023-12-15,清算の結了等,,,2015-10-05,1,,,,,シビルウエディングハウスオアゾブルー,0
713,4010003034073,登記記録の閉鎖等,0,2023-12-21,2023-12-15,合同会社望月会計事務所,,合同会社,東京都,中央区,勝どき５丁目３番１－２０１４号,,13,102,1040054,,,2023-12-15,清算の結了等,,,2021-02-02,1,,,,,モチヅキカイケイジムショ,0
773,4012702009710,登記記録の閉鎖等,0,2023-12-21,2023-12-15,有限会社スタジオミトン,,有限会社,東京都,東久留米市,野火止２丁目４番９号,,13,222,2030041,,,2023-12-15,清算の結了等,,,2015-10-05,1,,,,,スタジオミトン,0
790,4021001039195,登記記録の閉鎖等,0,2023-12-21,2023-12-18,株式会社オフィスＮＫ,,株式会社,神奈川県,平塚市,万田１丁目２１番１－４０１号マイメゾン湘南十番館,,14,203,2540913,,,2023-12-18,清算の結了等,,,2015-10-05,1,,,,,オフィスエヌケイ,0
805,4030002012359,登記記録の閉鎖等,0,2023-12-21,2023-12-15,有限会社ホステックシステムズ,,有限会社,埼玉県,さいたま市西区,三橋６丁目１６９２番地の４,,11,101,3310052,,,2023-12-15,清算の結了等,,,2015-10-05,1,,,,,ホステックシステムズ,0
807,4030003010551,登記記録の閉鎖等,0,2023-12-21,2023-12-14,合同会社埼北クラフト,,合同会社,埼玉県,春日部市,東中野１５２５番地７８,,11,214,3440114,,,2023-12-14,清算の結了等,,,2017-07-26,1,,,,,サイホククラフト,0
811,4040003011136,登記記録の閉鎖等,0,2023-12-21,2023-12-14,やおきグループ合同会社,,合同会社,千葉県,柏市,布施８３５番地１－１０１号,,12,217,2770825,,,2023-12-14,清算の結了等,,,2018-01-23,1,,,,,ヤオキグループ,0
828,4080001024879,登記記録の閉鎖等,0,2023-12-21,2023-12-20,杉山土木株式会社,,株式会社,静岡県,静岡市葵区,千代田１丁目１番２１－６号,,22,101,4200803,,,2023-12-20,清算の結了等,,,2022-04-13,1,,,,,スギヤマドボク,0
836,4100002032713,登記記録の閉鎖等,0,2023-12-21,2023-12-15,有限会社木本重建,,有限会社,長野県,伊那市,西箕輪３３４０番地１７６,,20,209,3994501,,,2023-12-15,清算の結了等,,,2015-10-05,1,,,,,キモトジュウケン,0
854,4120002025574,登記記録の閉鎖等,0,2023-12-21,2023-12-19,有限会社ハートめがね,,有限会社,大阪府,大阪市東淀川区,淡路４丁目１４番１３号,,27,114,5330032,,,2023-12-19,清算の結了等,,,2015-10-05,1,,,,,ハートメガネ,0
873,4140001004453,登記記録の閉鎖等,0,2023-12-21,2023-12-19,井上建設工業株式会社,,株式会社,兵庫県,神戸市西区,押部谷町高和西山ノ下６１８番地２,,28,111,6512204,,,2023-12-19,清算の結了等,,,2015-10-05,1,,,,,イノウエケンセツコウギョウ,0
875,4140001042024,登記記録の閉鎖等,0,2023-12-21,2023-12-18,株式会社クオル,,株式会社,兵庫県,丹波篠山市,西町３０番地,,28,221,6692342,,,2023-12-18,清算の結了等,,,2015-10-05,1,,,,,クオル,0
876,4140001089552,登記記録の閉鎖等,0,2023-12-21,2023-12-18,株式会社アヴァンティ・ペレ,,株式会社,兵庫県,姫路市,花田町高木８０番地,,28,201,6710256,,,2023-12-18,清算の結了等,,,2015-10-05,1,,,,,アヴァンティペレ,0
888,4180002002460,登記記録の閉鎖等,0,2023-12-21,2023-12-15,有限会社ビーエムシー,,有限会社,愛知県,名古屋市名東区,藤が丘５２番地,,23,115,4650032,,,2023-12-15,清算の結了等,,,2015-10-05,1,,,,,ビーエムシー,0
889,4180002048818,登記記録の閉鎖等,0,2023-12-21,2023-12-14,有限会社ブライトアップ,,有限会社,愛知県,名古屋市守山区,翠松園２丁目１０１１番地,,23,113,4630010,,,2023-12-14,清算の結了等,,,2015-10-05,1,,,,,ブライトアップ,0
894,4180003024280,登記記録の閉鎖等,0,2023-12-21,2023-12-18,合同会社未踏未達,,合同会社,愛知県,名古屋市港区,秋葉１丁目１８１番地の４３,,23,111,4550857,,,2023-12-18,清算の結了等,,,2022-09-28,1,,,,,ミトウミタツ,0
896,4180005011277,登記記録の閉鎖等,0,2023-12-21,2023-12-19,特定非営利活動法人わいわいわい,,その他の設立登記法人,愛知県,江南市,大間町南大間１３番地,,23,217,4838252,,,2023-12-19,清算の結了等,,,2015-10-05,1,,,,,ワイワイワイ,0
902,4200002021697,登記記録の閉鎖等,0,2023-12-21,2023-12-19,有限会社ミヤタ商会,,有限会社,岐阜県,土岐市,妻木町５３２番地,,21,212,5095301,,,2023-12-19,清算の結了等,,,2015-10-05,1,,,,,ミヤタショウカイ,0
904,4210001003621,登記記録の閉鎖等,0,2023-12-21,2023-12-15,福井高圧工業株式会社,,株式会社,福井県,福井市,上中町２０号１０番,,18,201,9100826,,,2023-12-15,清算の結了等,,,2015-10-05,1,,,,,フクイコウアツコウギョウ,0
915,4250002020356,登記記録の閉鎖等,0,2023-12-21,2023-12-18,有限会社新照ホームサービス,,有限会社,山口県,大島郡周防大島町,大字西安下庄３６５０番地,,35,305,7422806,,,2023-12-18,清算の結了等,,,2015-10-05,1,,,,,シンテルホームサービス,0
947,4390002000526,登記記録の閉鎖等,0,2023-12-21,2023-12-18,有限会社奥山会計事務所,,有限会社,山形県,山形市,浜崎７６番地７,,06,201,9900072,,,2023-12-18,清算の結了等,,,2015-10-05,1,,,,,オクヤマカイケイジムショ,0
952,4410001007503,登記記録の閉鎖等,0,2023-12-21,2023-12-14,ＡＭサービス株式会社,,株式会社,秋田県,能代市,能代町字中川原２６番地,,05,202,0160814,,,2023-12-14,清算の結了等,,,2015-10-05,1,,,,,エーエムサービス,0
964,4480005006494,登記記録の閉鎖等,0,2023-12-21,2023-12-20,一般社団法人徳島県家土地古木活用センター,,その他の設立登記法人,徳島県,徳島市,中昭和町１丁目３番地,,36,201,7700943,,,2023-12-20,清算の結了等,,,2016-07-05,1,,,,,トクシマケンイエトチコボクカツヨウセンター,0
971,5010001106352,登記記録の閉鎖等,0,2023-12-21,2023-12-19,株式会社テルスター,,株式会社,山梨県,南都留郡山中湖村,平野３７７７番地の３エーブル山中湖６０２号室,,19,425,4010502,,,2023-12-19,合併による解散等,7020002080081,令和５年１１月１日東京都町田市成瀬が丘二丁目２３番５号ＳＮビル４０１号株式会社ピーアンドエム（7020002080081）に合併し解散,2015-10-05,1,,,,,,0
983,5010102001576,登記記録の閉鎖等,0,2023-12-21,2023-12-20,有限会社小川屋,,有限会社,東京都,八王子市,諏訪町７３番地,,13,201,1930812,,,2023-12-20,清算の結了等,,,2015-10-05,1,,,,,オガワヤ,0
998,5010501010780,登記記録の閉鎖等,0,2023-12-21,2023-12-18,日本トイズサービス株式会社,,株式会社,東京都,台東区,雷門２丁目６番１号雷門ミハマビル７Ｆ,,13,106,1110034,,,2023-12-18,清算の結了等,,,2015-10-05,1,,,,,ニホントイズサービス,0
1002,5010601047970,登記記録の閉鎖等,0,2023-12-21,2023-12-08,アップドラフト株式会社,,株式会社,埼玉県,川口市,南町２丁目６番２３号,,11,203,3320026,,,2023-12-08,清算の結了等,,,2015-10-05,1,,,,,アップドラフト,0
1011,5010801006743,登記記録の閉鎖等,0,2023-12-21,2023-12-18,第二京浜自動車株式会社,,株式会社,東京都,大田区,池上３丁目１番８－１０１,,13,111,1460082,,,2023-12-18,清算の結了等,,,2015-10-05,1,,,,,ダイニケイヒンジドウシャ,0
1041,5011602002493,登記記録の閉鎖等,0,2023-12-21,2023-12-14,有限会社加賀屋,,有限会社,東京都,練馬区,旭丘１丁目４４番３号,,13,120,1760005,,,2023-12-14,清算の結了等,,,2015-10-05,1,,,,,カガヤ,0
1045,5012401020736,登記記録の閉鎖等,0,2023-12-21,2023-12-15,狛江グリーン薬局株式会社,,株式会社,東京都,狛江市,中和泉５丁目３１番１９号,,13,219,2010012,,,2023-12-15,清算の結了等,,,2015-10-05,1,,,,,コマエグリーンヤッキョク,0
1051,5013401004902,登記記録の閉鎖等,0,2023-12-21,2023-12-11,株式会社エフティホーム,,株式会社,東京都,日野市,大坂上１丁目２９番地の１,,13,212,1910061,,,2023-12-11,清算の結了等,,,2015-10-05,1,,,,,エフティホーム,0
1052,5020001000174,登記記録の閉鎖等,0,2023-12-21,2023-12-15,Ｌｏｖｅ　Ｓｕｎ＆Ｓｅａ医薬品販売株式会社,,株式会社,神奈川県,横浜市栄区,元大橋２丁目４番１号,,14,115,2470011,,,2023-12-15,清算の結了等,,,2015-10-05,1,,,,,ラブサンアンドシィーイヤクヒンハンバイ,0
1054,5020001013060,登記記録の閉鎖等,0,2023-12-21,2023-12-15,株式会社島幸,,株式会社,神奈川県,横浜市磯子区,峰町６４４番地１,,14,107,2350044,,,2023-12-15,清算の結了等,,,2015-10-05,1,,,,,シマコウ,0
1076,5030001063583,登記記録の閉鎖等,0,2023-12-21,2023-12-14,飯泉工業株式会社,,株式会社,埼玉県,越谷市,川柳町２丁目５５５番地,,11,222,3430827,,,2023-12-14,清算の結了等,,,2015-10-05,1,,,,,イイイズミコウギョウ,0
1082,5030002005147,登記記録の閉鎖等,0,2023-12-21,2023-12-15,興菱電気工事有限会社,,有限会社,埼玉県,さいたま市北区,吉野町２丁目２２６番地の１,,11,102,3310811,,,2023-12-15,清算の結了等,,,2015-10-05,1,,,,,コウリョウデンキコウジ,0
1105,5080102017104,登記記録の閉鎖等,0,2023-12-21,2023-12-19,有限会社八大商会,,有限会社,静岡県,富士宮市,中原町２４８番地,,22,207,4180002,,,2023-12-19,清算の結了等,,,2015-10-05,1,,,,,ハチダイショウカイ,0
1106,5080401015659,登記記録の閉鎖等,0,2023-12-21,2023-12-12,株式会社まるやま農場,,株式会社,静岡県,掛川市,板沢５００番地の５,,22,213,4360016,,,2023-12-12,合併による解散等,9080401014475,令和５年１２月１２日静岡県掛川市板沢５１０番地の３丸山製茶株式会社（9080401014475）に合併し解散,2015-10-05,1,,,,,マルヤマノウジョウ,0
1112,5090002014910,登記記録の閉鎖等,0,2023-12-21,2023-12-19,有限会社シマヤ表札,,有限会社,山梨県,西八代郡市川三郷町,岩間１９７８番地,,19,346,4093244,,,2023-12-19,清算の結了等,,,2015-10-05,1,,,,,,0
1119,5120001017712,登記記録の閉鎖等,0,2023-12-21,2023-12-15,株式会社昇栄製作所,,株式会社,大阪府,大阪市生野区,巽南１丁目１４番９号,00027387,27,116,5440015,,,2023-12-15,清算の結了等,,,2015-10-05,1,,,,,ショウエイセイサクショ,0
1144,5130001031159,登記記録の閉鎖等,0,2023-12-21,2023-12-19,株式会社インターフェイス,,株式会社,京都府,京都市右京区,嵯峨折戸町２０番地の１５,,26,108,6168345,,,2023-12-19,清算の結了等,,,2015-10-05,1,,,,,インターフェイス,0
1148,5140002018591,登記記録の閉鎖等,0,2023-12-21,2023-12-19,有限会社イフ,,有限会社,兵庫県,神戸市兵庫区,上沢通６丁目３番８号,,28,105,6520046,,,2023-12-19,清算の結了等,,,2015-10-05,1,,,,,イフ,0
1156,5150001020911,登記記録の閉鎖等,0,2023-12-21,2023-12-20,株式会社堀川,,株式会社,奈良県,橿原市,新口町４５１番地,,29,205,6340802,,,2023-12-20,清算の結了等,,,2016-08-09,1,,,,,,0
1162,5170001010729,登記記録の閉鎖等,0,2023-12-21,2023-12-20,株式会社プラザ橋本,,株式会社,和歌山県,橋本市,隅田町下兵庫４１４番地,,30,203,6480016,,,2023-12-20,清算の結了等,,,2015-10-05,1,,,,,プラザハシモト,0
1174,5190001023695,登記記録の閉鎖等,0,2023-12-21,2023-12-19,株式会社ラシーヌ,,株式会社,三重県,亀山市,小下町６５６番地３,,24,210,5190113,,,2023-12-19,清算の結了等,,,2016-05-25,1,,,,,ラシーヌ,0
1184,5240002035890,登記記録の閉鎖等,0,2023-12-21,2023-12-15,久保海運有限会社,,有限会社,広島県,江田島市,大柿町深江８５５番地,,34,215,7372214,,,2023-12-15,清算の結了等,,,2015-10-05,1,,,,,クボカイウン,0
1186,5240005004975,登記記録の閉鎖等,0,2023-12-21,2023-12-06,五丹生産森林組合,,その他の設立登記法人,広島県,安芸高田市,八千代町勝田２４３番地１北原集会所内,,34,214,7310302,,,2023-12-06,清算の結了等,,,2015-10-05,1,,,,,ゴタン,0
1192,5260001002618,登記記録の閉鎖等,0,2023-12-21,2023-12-20,株式会社山陽軌道,,株式会社,岡山県,岡山市北区,野田５丁目１００番地の３,,33,101,7000971,,,2023-12-20,清算の結了等,,,2015-10-05,1,,,,,サンヨウキドウ,0
1216,5330002030395,登記記録の閉鎖等,0,2023-12-21,2023-12-18,有限会社日栄建設,,有限会社,熊本県,人吉市,東間上町２７５８番地の１,,43,203,8680043,,,2023-12-18,清算の結了等,,,2015-10-05,1,,,,,ニチエイケンセツ,0
1222,5370002002746,登記記録の閉鎖等,0,2023-12-21,2023-12-20,有限会社くろす美容室,,有限会社,宮城県,仙台市太白区,桜木町２０番２０号,,04,104,9820835,,,2023-12-20,清算の結了等,,,2015-10-05,1,,,,,クロスビヨウシツ,0
1225,5370005009219,登記記録の閉鎖等,0,2023-12-21,2023-12-18,一般社団法人東日本都市技能者連携機構,,その他の設立登記法人,宮城県,仙台市青葉区,錦町１丁目１２番１－５０１号,,04,101,9800012,,,2023-12-18,清算の結了等,,,2017-05-12,1,,,,,ヒガシニホントシギノウシャレンケイキコウ,0
1240,5430005007959,登記記録の閉鎖等,0,2023-12-21,2023-12-15,小樽中央卸商業協同組合,00090159,その他の設立登記法人,北海道,小樽市,稲穂３丁目１１番４号,,01,203,0470032,,,2023-12-15,清算の結了等,,,2015-10-05,1,,,,,オタルチュウオウオロシショウギョウ,0
1252,6010001075638,登記記録の閉鎖等,0,2023-12-21,2023-12-18,株式会社アスペクト・エス・ピー・シー,,株式会社,東京都,台東区,上野７丁目１１番６号,,13,106,1100005,,,2023-12-18,清算の結了等,,,2015-10-05,1,,,,,,0
1263,6010003018628,登記記録の閉鎖等,0,2023-12-21,2023-12-18,合同会社プレミアムオートモーティブアセット,,合同会社,東京都,千代田区,丸の内３丁目１番１号東京共同会計事務所内,,13,101,1000005,,,2023-12-18,清算の結了等,,,2015-10-05,1,,,,,プレミアムオートモーティブアセット,0
1277,6010501011530,登記記録の閉鎖等,0,2023-12-21,2023-12-08,株式会社ヒロヤ,,株式会社,東京都,台東区,西浅草２丁目１５番９号３階,,13,106,1110035,,,2023-12-08,清算の結了等,,,2015-10-05,1,,,,,,0
1283,6010602033309,登記記録の閉鎖等,0,2023-12-21,2023-12-12,株式会社アールファイブ,,株式会社,沖縄県,那覇市,久茂地１丁目２番２５号,,47,201,9000015,,,2023-12-12,清算の結了等,,,2015-10-05,1,,,,,アールファイブ,0
1291,6010703005891,登記記録の閉鎖等,0,2023-12-21,2023-12-15,スカイクレイン合同会社,,合同会社,東京都,品川区,荏原４丁目１２－１９アーバイル武蔵小山３０２,,13,109,1420063,,,2023-12-15,清算の結了等,,,2021-08-12,1,,,,,スカイクレイン,0
1293,6010902003795,登記記録の閉鎖等,0,2023-12-21,2023-12-13,オンリョウ興産有限会社,,有限会社,東京都,世田谷区,宮坂３丁目２１番１８号,,13,112,1560051,,,2023-12-13,清算の結了等,,,2015-10-05,1,,,,,オンリョウコウサン,0
1314,6011105004739,登記記録の閉鎖等,0,2023-12-21,2023-12-18,特定非営利活動法人スローライフ・ジャパン,,その他の設立登記法人,東京都,新宿区,若葉１丁目６番１号,,13,104,1600011,,,2023-12-18,清算の結了等,,,2015-10-05,1,,,,,スローライフジャパン,0
1320,6011701020569,登記記録の閉鎖等,0,2023-12-21,2023-12-18,ＳＹＰ株式会社,,株式会社,東京都,江戸川区,上篠崎２丁目１番１３号,,13,123,1330054,,,2023-12-18,清算の結了等,,,2017-02-03,1,,,,,エスワイピー,0
1325,6012702000543,登記記録の閉鎖等,0,2023-12-21,2023-12-18,有限会社カトウスポーツマーク,,有限会社,東京都,小平市,仲町５０６番地の４,,13,211,1870042,,,2023-12-18,清算の結了等,,,2015-10-05,1,,,,,カトウスポーツマーク,0
1327,6013102000019,登記記録の閉鎖等,0,2023-12-21,2023-12-19,有限会社安藤建材店,,有限会社,東京都,福生市,大字熊川６３６番地,,13,218,1970003,,,2023-12-19,清算の結了等,,,2015-10-05,1,,,,,アンドウケンザイテン,0
1329,6013301002971,登記記録の閉鎖等,0,2023-12-21,2023-12-15,株式会社ケイ・エス・テイ,,株式会社,東京都,豊島区,高田２丁目１６番１３号シティテラス目白Ｆ４０１号,,13,116,1710033,,,2023-12-15,清算の結了等,,,2015-10-05,1,,,,,ケイエステイ,0
1332,6013303003877,登記記録の閉鎖等,0,2023-12-21,2023-12-15,合同会社ジェノーラン,,合同会社,東京都,豊島区,東池袋１丁目１７番１１号パークハイツ池袋１１０５号,,13,116,1700013,,,2023-12-15,清算の結了等,,,2017-10-03,1,,,,,ジェノーラン,0
1343,6021003003890,登記記録の閉鎖等,0,2023-12-21,2023-12-14,ワールドブリッジ合同会社,,合同会社,神奈川県,横浜市西区,北幸１丁目１１番１号水信ビル７階,,14,103,2200004,,,2023-12-14,清算の結了等,,,2015-10-05,1,,,,,ワールドブリッジ,0
1351,6030002059150,登記記録の閉鎖等,0,2023-12-21,2023-12-15,有限会社橋本電機工業所,,有限会社,埼玉県,朝霞市,本町２丁目２番２５号,,11,227,3510011,,,2023-12-15,清算の結了等,,,2015-10-05,1,,,,,ハシモトデンキコウギョウショ,0
1352,6030002074827,登記記録の閉鎖等,0,2023-12-21,2023-12-15,有限会社ハウジングセンターサンサン,,有限会社,埼玉県,比企郡川島町,大字上伊草１５６４番地１,,11,346,3500152,,,2023-12-15,清算の結了等,,,2015-10-05,1,,,,,ハウジングセンターサンサン,0
1362,6050001002638,登記記録の閉鎖等,0,2023-12-21,2023-12-18,株式会社ミヤモト,,株式会社,茨城県,水戸市,三の丸１丁目４番１６号,,08,201,3100011,,,2023-12-18,清算の結了等,,,2015-10-05,1,,,,,ミヤモト,0
1369,6080002000365,登記記録の閉鎖等,0,2023-12-21,2023-12-20,有限会社アラキ不動産,,有限会社,静岡県,静岡市葵区,新富町２丁目２３番地の４,,22,101,4200061,,,2023-12-20,清算の結了等,,,2015-10-05,1,,,,,,0
1370,6080401006418,登記記録の閉鎖等,0,2023-12-21,2023-12-15,株式会社湘南ワークス,,株式会社,静岡県,浜松市南区,三島町９７番地の１,,22,134,4300853,,,2023-12-15,清算の結了等,,,2015-10-05,1,,,,,ショウナンワークス,0
1374,6080402005889,登記記録の閉鎖等,0,2023-12-21,2023-12-15,西丘化成有限会社,,有限会社,静岡県,浜松市中区,西丘町８６２番地の２,,22,131,4338116,,,2023-12-15,清算の結了等,,,2015-10-05,1,,,,,ニシオカカセイ,0
1375,6080402016449,登記記録の閉鎖等,0,2023-12-21,2023-12-15,有限会社亀井,,有限会社,静岡県,浜松市中区,元浜町３５３番地,,22,131,4300942,,,2023-12-15,清算の結了等,,,2015-10-05,1,,,,,カメイ,0
1377,6080402019930,登記記録の閉鎖等,0,2023-12-21,2023-12-15,有限会社松本電設,,有限会社,静岡県,磐田市,笠梅５９０番地の２,,22,211,4380011,,,2023-12-15,清算の結了等,,,2015-10-05,1,,,,,マツモトデンセツ,0
1420,6180001124205,登記記録の閉鎖等,0,2023-12-21,2023-12-15,株式会社トレジャー,,株式会社,愛知県,名古屋市中区,大須１丁目２１番３９号,,23,106,4600011,,,2023-12-15,清算の結了等,,,2016-07-26,1,,,,,トレジャー,0
1426,6180003015963,登記記録の閉鎖等,0,2023-12-21,2023-12-05,福井菖蒲谷合同会社,,合同会社,愛知県,名古屋市中区,栄５丁目２６番３９号,,23,106,4600008,,,2023-12-05,合併による解散等,6180003015939,令和５年１２月１日名古屋市中区栄五丁目２６番３９号アンビー・ファシリティ合同会社（6180003015939）に合併し解散,2015-10-05,1,,,,,フクイショウブダニ,0
1427,6180003024808,登記記録の閉鎖等,0,2023-12-21,2023-12-11,合同会社エイチ,,合同会社,愛知県,津島市,東柳原町３丁目１７番地,,23,208,4960045,,,2023-12-11,合併による解散等,4180001141441,令和５年１１月１日愛知県津島市東柳原町三丁目１７番地株式会社清芳屋ホールディングス（4180001141441）に合併し解散,2023-02-06,1,,,,,エイチ,0
1434,6200002007851,登記記録の閉鎖等,0,2023-12-21,2023-12-18,有限会社テクノ・アース,,有限会社,岐阜県,各務原市,新鵜沼台４丁目７７番地,,21,213,5090122,,,2023-12-18,清算の結了等,,,2015-10-05,1,,,,,テクノアース,0
1458,6290003003701,登記記録の閉鎖等,0,2023-12-21,2023-12-14,合同会社ＡＩＲグループ,,合同会社,福岡県,福岡市東区,香住ケ丘２丁目１５番２１号しのはらビル３０２号,,40,131,8130003,,,2023-12-14,清算の結了等,,,2015-10-05,1,,,,,,0
1463,6340001019297,登記記録の閉鎖等,0,2023-12-21,2023-12-14,株式会社末廣企画,,株式会社,鹿児島県,鹿屋市,西原３丁目４番４１号,,46,203,8930064,,,2023-12-14,清算の結了等,,,2016-05-06,1,,,,,スエヒロキカク,0
1477,6370002014567,登記記録の閉鎖等,0,2023-12-21,2023-12-20,仙台旅行サービス有限会社,,有限会社,宮城県,仙台市青葉区,東勝山２丁目２７番３号,,04,101,9810923,,,2023-12-20,清算の結了等,,,2015-10-05,1,,,,,センダイリョコウサービス,0
1492,6430001017110,登記記録の閉鎖等,0,2023-12-21,2023-12-13,株式会社モリケン・コーポレーション,,株式会社,北海道,札幌市西区,山の手二条１２丁目７番１６号,,01,107,0630002,,,2023-12-13,清算の結了等,,,2015-10-05,1,,,,,モリケンコーポレーション,0
1499,6500002021946,登記記録の閉鎖等,0,2023-12-21,2023-12-19,有限会社ヤマオ,,有限会社,愛媛県,四国中央市,金生町下分１２９４番地,,38,213,7990111,,,2023-12-19,清算の結了等,,,2015-10-05,1,,,,,ヤマオ,0
1516,7010003040639,登記記録の閉鎖等,0,2023-12-21,2023-12-04,大青貿易合同会社,,合同会社,東京都,千代田区,神田和泉町１－７－１４,,13,101,1010024,,,2023-12-04,清算の結了等,,,2023-05-19,1,,,,,タイセイボウエキ,0
1544,7010605003290,登記記録の閉鎖等,0,2023-12-21,2023-12-14,一般社団法人ＨＲＤサポートネットワークス,,その他の設立登記法人,東京都,港区,芝大門２丁目１２番５－６０１号,,13,103,1050012,,,2023-12-14,清算の結了等,,,2016-09-23,1,,,,,エイチアールディーサポートネットワークス,0
1553,7010901042744,登記記録の閉鎖等,0,2023-12-21,2023-12-13,株式会社Ｏｎｅ　Ｈｅａｌｔｈ,,株式会社,東京都,世田谷区,成城２丁目３５番１８号,,13,112,1570066,,,2023-12-13,清算の結了等,,,2018-09-13,1,One Health Limited,Tokyo,"2-35-18, Seijo, Setagaya ku",,ワンヘルス,0
1556,7011001101705,登記記録の閉鎖等,0,2023-12-21,2023-12-15,株式会社レナヴィス,,株式会社,東京都,渋谷区,道玄坂２丁目１６番４号,,13,113,1500043,,,2023-12-15,清算の結了等,,,2015-10-05,1,,,,,レナヴィス,0
1560,7011001156807,登記記録の閉鎖等,0,2023-12-21,2023-12-13,株式会社ココナラリーガルコネクト,,株式会社,東京都,渋谷区,桜丘町１２番１０号,,13,113,1500031,,,2023-12-13,合併による解散等,9010701026061,令和５年１２月１日東京都渋谷区桜丘町２０番１号株式会社ココナラ（9010701026061）に合併し解散,2023-09-08,1,,,,,ココナラリーガルコネクト,0
1563,7011005000770,登記記録の閉鎖等,0,2023-12-21,2023-12-14,東京都運送事業協同組合,,その他の設立登記法人,東京都,渋谷区,恵比寿１丁目２２番２１号,,13,113,1500013,,,2023-12-14,清算の結了等,,,2015-10-05,1,,,,,トウキョウトウンソウ,0
1571,7011101098008,登記記録の閉鎖等,0,2023-12-21,2023-12-14,株式会社ピンカシオン,,株式会社,東京都,新宿区,新宿５丁目４番１号新宿Ｑフラットビル６１１,,13,104,1600022,,,2023-12-14,清算の結了等,,,2022-03-02,1,,,,,ピンカシオン,0
1575,7011103005449,登記記録の閉鎖等,0,2023-12-21,2023-12-15,合同会社赤坂エルナ,,合同会社,東京都,新宿区,西新宿７丁目１７番１４号,,13,104,1600023,,,2023-12-15,清算の結了等,,,2015-10-05,1,,,,,アカサカエルナ,0
1594,7012801017388,登記記録の閉鎖等,0,2023-12-21,2023-12-14,株式会社アスパンプランニング,,株式会社,東京都,国立市,西２丁目２４番地の１,,13,215,1860005,,,2023-12-14,清算の結了等,,,2016-07-19,1,,,,,,0
1604,7020001064184,登記記録の閉鎖等,0,2023-12-21,2023-12-11,株式会社システムサントス,,株式会社,神奈川県,川崎市多摩区,長尾７丁目１９番１９－１号,,14,135,2140023,,,2023-12-11,清算の結了等,,,2015-10-05,1,,,,,システムサントス,0
1623,7021001039060,登記記録の閉鎖等,0,2023-12-21,2023-12-18,株式会社ダイテクノ,,株式会社,神奈川県,平塚市,長持５４６番地の５,,14,203,2591217,,,2023-12-18,清算の結了等,,,2015-10-05,1,,,,,ダイテクノ,0
1625,7021001064117,登記記録の閉鎖等,0,2023-12-21,2023-12-18,株式会社Ｅｘｃｅｅｄｓ,,株式会社,神奈川県,相模原市中央区,淵野辺１丁目１番１９号グランディヒルズ一階,,14,152,2520206,,,2023-12-18,清算の結了等,,,2018-02-08,1,,,,,エクシード,0
1637,7030002043161,登記記録の閉鎖等,0,2023-12-21,2023-12-18,阿部建設工業有限会社,,有限会社,埼玉県,草加市,草加２丁目３番２号,,11,221,3400043,,,2023-12-18,清算の結了等,,,2015-10-05,1,,,,,アベケンセツコウギョウ,0
1638,7030002113807,登記記録の閉鎖等,0,2023-12-21,2023-12-14,有限会社東豐宅建,,有限会社,埼玉県,熊谷市,中央２丁目３２８番地,,11,202,3600018,,,2023-12-14,清算の結了等,,,2015-10-05,1,,,,,トウホウタッケン,0
1655,7060002032624,登記記録の閉鎖等,0,2023-12-21,2023-12-15,有限会社巻嶋,,有限会社,栃木県,栃木市,薗部町１丁目４番３号,,09,203,3280074,,,2023-12-15,清算の結了等,,,2015-10-05,1,,,,,マキシマ,0
1658,7070002035080,登記記録の閉鎖等,0,2023-12-21,2023-12-18,有限会社林建築,,有限会社,群馬県,沼田市,上沼須町１７３番地１,,10,206,3780011,,,2023-12-18,清算の結了等,,,2015-10-05,1,,,,,ハヤシケンチク,0
1666,7110005012576,登記記録の閉鎖等,0,2023-12-21,2023-12-19,農事組合法人太田農場,,その他の設立登記法人,新潟県,見附市,太田町６１番地子,,15,211,9540031,,,2023-12-19,清算の結了等,,,2015-10-05,1,,,,,オオタノウジョウ,0
1668,7120001054084,登記記録の閉鎖等,0,2023-12-21,2023-12-20,株式会社エージーティ,,株式会社,大阪府,大阪市中央区,瓦町４丁目３番１４号御堂アーバンライフ３階３０８号室,,27,128,5410048,,,2023-12-20,清算の結了等,,,2015-10-05,1,,,,,エージーティ,0
1671,7120001160262,登記記録の閉鎖等,0,2023-12-21,2023-12-18,株式会社エビス通商,,株式会社,大阪府,門真市,三ツ島６丁目２４番８号,,27,223,5710015,,,2023-12-18,清算の結了等,,,2015-10-05,1,,,,,エビスツウショウ,0
1687,7120101059000,登記記録の閉鎖等,0,2023-12-21,2023-12-19,北島電機工業株式会社,,株式会社,大阪府,堺市北区,百舌鳥赤畑町５丁３９９番地１６,,27,146,5918037,,,2023-12-19,清算の結了等,,,2018-11-13,1,,,,,キタジマデンキコウギョウ,0
1700,7140002043084,登記記録の閉鎖等,0,2023-12-21,2023-12-15,有限会社吉田看護婦家政婦紹介所,00041070,有限会社,兵庫県,尼崎市,大庄西町１丁目３番３号,,28,202,6600077,,,2023-12-15,清算の結了等,,,2015-10-05,1,,,,,ヨシダカンゴフカセイフショウカイショ,0
1701,7140002064403,登記記録の閉鎖等,0,2023-12-21,2023-12-18,有限会社カワベ,,有限会社,兵庫県,川西市,大和東２丁目３番地の２３,,28,217,6660111,,,2023-12-18,清算の結了等,,,2015-10-05,1,,,,,カワベ,0
1705,7170001008119,登記記録の閉鎖等,0,2023-12-21,2023-12-19,株式会社コスモ技研,,株式会社,和歌山県,紀の川市,粉河６２２番地の７３,,30,208,6496531,,,2023-12-19,清算の結了等,,,2015-10-05,1,,,,,コスモギケン,0
1710,7180003015979,登記記録の閉鎖等,0,2023-12-21,2023-12-05,石川志賀町千ノ浦１合同会社,,合同会社,愛知県,名古屋市中区,栄５丁目２６番３９号,,23,106,4600008,,,2023-12-05,合併による解散等,6180003015939,令和５年１２月１日名古屋市中区栄五丁目２６番３９号アンビー・ファシリティ合同会社（6180003015939）に合併し解散,2015-10-05,1,,,,,イシカワシガチョウセンノウライチ,0
1730,7290001005624,登記記録の閉鎖等,0,2023-12-21,2023-12-13,株式会社福岡インテリア,,株式会社,福岡県,福岡市早良区,飯倉３丁目２７番９号,,40,137,8140161,,,2023-12-13,清算の結了等,,,2015-10-05,1,,,,,フクオカインテリア,0
1743,7290002046790,登記記録の閉鎖等,0,2023-12-21,2023-12-12,有限会社國丸組,,有限会社,福岡県,飯塚市,舎利蔵２５１番地,,40,205,8200087,,,2023-12-12,清算の結了等,,,2015-10-05,1,,,,,クニマルグミ,0
1749,7340001008150,登記記録の閉鎖等,0,2023-12-21,2023-12-20,株式会社ＶＩＳＡＧＥＳ,,株式会社,鹿児島県,霧島市,国分広瀬２丁目２７番４２号,,46,218,8994321,,,2023-12-20,清算の結了等,,,2015-10-05,1,,,,,,0
1750,7340002014809,登記記録の閉鎖等,0,2023-12-21,2023-12-15,有限会社飛鳥アルミ工業,,有限会社,鹿児島県,伊佐市,菱刈前目３２０１番地２,,46,224,8952701,,,2023-12-15,清算の結了等,,,2015-10-05,1,,,,,アスカアルミコウギョウ,0
1764,7390001004335,登記記録の閉鎖等,0,2023-12-21,2023-12-15,株式会社カーサービス山形天童店,,株式会社,山形県,天童市,清池東２丁目１番７号,,06,210,9940069,,,2023-12-15,合併による解散等,2390001000413,令和５年１２月１５日山形市上山家町字下宿７６６番地の６株式会社カーサービス山形（2390001000413）に合併し解散,2015-10-05,1,,,,,,0
1778,8010001106457,登記記録の閉鎖等,0,2023-12-21,2023-12-15,Ｇ　ＤＡＴＡ　Ｓｏｆｔｗａｒｅ株式会社,,株式会社,東京都,中央区,日本橋本町３丁目３番６号,,13,102,1030023,,,2023-12-15,清算の結了等,,,2015-10-05,1,,,,,ジーデータソフトウェア,0
1836,8011602006533,登記記録の閉鎖等,0,2023-12-21,2023-12-14,有限会社田端屋呉服店,,有限会社,東京都,練馬区,北町１丁目２５番１５号,,13,120,1790081,,,2023-12-14,清算の結了等,,,2015-10-05,1,,,,,タバタヤゴフクテン,0
1845,8012403000717,登記記録の閉鎖等,0,2023-12-21,2023-12-18,合資会社ヨロヅ湯,,合資会社,東京都,武蔵野市,吉祥寺本町１丁目１８番９号,,13,203,1800004,,,2023-12-18,清算の結了等,,,2015-10-05,1,,,,,ヨロヅユ,0
1862,8021003003930,登記記録の閉鎖等,0,2023-12-21,2023-12-14,ワールドネット合同会社,,合同会社,神奈川県,横浜市西区,北幸１丁目１１番１号水信ビル７階,,14,103,2200004,,,2023-12-14,清算の結了等,,,2015-10-05,1,,,,,ワールドネット,0
1893,8080002005346,登記記録の閉鎖等,0,2023-12-21,2023-12-14,有限会社まこと工務店,,有限会社,静岡県,静岡市葵区,牧ケ谷１１０３番地,,22,101,4211221,,,2023-12-14,清算の結了等,,,2015-10-05,1,,,,,マコトコウムテン,0
1896,8080102000957,登記記録の閉鎖等,0,2023-12-21,2023-12-18,有限会社カワグチ,,有限会社,静岡県,駿東郡長泉町,下土狩１０１２番地の６,,22,342,4110943,,,2023-12-18,清算の結了等,,,2015-10-05,1,,,,,カワグチ,0
1899,8080402016538,登記記録の閉鎖等,0,2023-12-21,2023-12-11,有限会社伊東工業所,,有限会社,静岡県,浜松市天竜区,東雲名６９５番地の１,,22,137,4313751,,,2023-12-11,清算の結了等,,,2015-10-05,1,,,,,イトウコウギョウショ,0
1904,8120001006464,登記記録の閉鎖等,0,2023-12-21,2023-12-19,株式会社丸信商会,,株式会社,大阪府,大阪市阿倍野区,松崎町４丁目５番３４号,,27,119,5450053,,,2023-12-19,清算の結了等,,,2015-10-05,1,,,,,マルシンショウカイ,0
1925,8122001029180,登記記録の閉鎖等,0,2023-12-21,2023-12-20,株式会社ｆ・ｕ,,株式会社,大阪府,大東市,赤井１丁目１５番１号,,27,218,5740046,,,2023-12-20,清算の結了等,,,2016-01-08,1,,,,,,0
1927,8130001060709,登記記録の閉鎖等,0,2023-12-21,2023-12-19,株式会社リブフリー,,株式会社,滋賀県,大津市,柳が崎９番１１－２０１号,,25,201,5200022,,,2023-12-19,清算の結了等,,,2017-10-13,1,,,,,リブフリー,0
1934,8140001113184,登記記録の閉鎖等,0,2023-12-21,2023-12-15,株式会社ＫＧ,,株式会社,兵庫県,神戸市中央区,布引町１丁目１番７号,,28,110,6510097,,,2023-12-15,清算の結了等,,,2019-04-04,1,,,,,ケイジー,0
1938,8150001010455,登記記録の閉鎖等,0,2023-12-21,2023-12-20,株式会社木村,,株式会社,奈良県,橿原市,新堂町１４０番地の３,,29,205,6340836,,,2023-12-20,清算の結了等,,,2015-10-05,1,,,,,キムラ,0
1946,8180003015953,登記記録の閉鎖等,0,2023-12-21,2023-12-05,福井敦賀Ａ合同会社,,合同会社,愛知県,名古屋市中区,栄５丁目２６番３９号,,23,106,4600008,,,2023-12-05,合併による解散等,6180003015939,令和５年１２月１日名古屋市中区栄五丁目２６番３９号アンビー・ファシリティ合同会社（6180003015939）に合併し解散,2015-10-05,1,,,,,フクイツルガエー,0
1947,8180003019608,登記記録の閉鎖等,0,2023-12-21,2023-12-15,Ｔｒｉｕｍｐｈ　Ａｅｒｏｓｐａｃｅ　Ｏｐｅｒａｔｉｏｎｓ　Ｊａｐａｎ合同会社,,合同会社,東京都,千代田区,五番町２番７五番町片岡ビル４階小島国際法律事務所内,,13,101,1020076,,,2023-12-15,清算の結了等,,,2019-01-17,1,,,,,トライアンフエアロスペースオペレーションズジャパン,0
1948,8180003024624,登記記録の閉鎖等,0,2023-12-21,2023-12-11,合同会社アイ,,合同会社,愛知県,津島市,東柳原町３丁目１７番地,,23,208,4960045,,,2023-12-11,合併による解散等,4180001141441,令和５年１１月１日愛知県津島市東柳原町三丁目１７番地株式会社清芳屋ホールディングス（4180001141441）に合併し解散,2022-12-20,1,,,,,アイ,0
1965,8260001006888,登記記録の閉鎖等,0,2023-12-21,2023-12-19,株式会社横山菓機製作所,,株式会社,岡山県,岡山市南区,藤田６５７番地１８,,33,104,7010221,,,2023-12-19,清算の結了等,,,2015-10-05,1,,,,,ヨコヤマカキセイサクショ,0
1983,8310001004845,登記記録の閉鎖等,0,2023-12-21,2023-12-19,株式会社ウォーター・アース,,株式会社,長崎県,長崎市,小江町２７３４番地１０７,,42,201,8511133,,,2023-12-19,清算の結了等,,,2015-10-05,1,,,,,ウォーターアース,0
1987,8320002003985,登記記録の閉鎖等,0,2023-12-21,2023-12-20,有限会社第一白蟻研究所,,有限会社,大分県,大分市,大字寒田１１９５番地の１１,,44,201,8701123,,,2023-12-20,清算の結了等,,,2015-10-05,1,,,,,ダイイチシロアリケンキュウショ,0
2002,8410001012342,登記記録の閉鎖等,0,2023-12-21,2023-12-15,株式会社ｌｉｅｎ,,株式会社,秋田県,秋田市,保戸野桜町１３番２７号,,05,201,0100901,,,2023-12-15,清算の結了等,,,2019-12-06,1,,,,,リアン,0
2008,8430001082549,登記記録の閉鎖等,0,2023-12-21,2023-12-11,株式会社ワンダーイーツ,,株式会社,北海道,札幌市白石区,菊水三条２丁目１番１０号リネット丸友２Ｆ,,01,104,0030803,,,2023-12-11,合併による解散等,8430001067582,令和５年１２月１０日札幌市白石区菊水三条二丁目１番１０号リネット丸友２Ｆ株式会社ジョブタス（8430001067582）に合併し解散,2020-10-19,1,,,,,ワンダーイーツ,0
2024,9010001007051,登記記録の閉鎖等,0,2023-12-21,2023-12-15,株式会社ペンシヨンサトウ,,株式会社,東京都,文京区,本郷２丁目６番１０号,,13,105,1130033,,,2023-12-15,清算の結了等,,,2015-10-05,1,,,,,ペンシヨンサトウ,0
2025,9010001124490,登記記録の閉鎖等,0,2023-12-21,2023-12-19,株式会社ライズ,,株式会社,東京都,中央区,八重洲２丁目４番１号常和八重洲ビル,,13,102,1040028,,,2023-12-19,清算の結了等,,,2015-10-05,1,,,,,ライズ,0
2026,9010001149265,登記記録の閉鎖等,0,2023-12-21,2023-12-15,株式会社ましま,,株式会社,東京都,中央区,銀座８丁目８番地１５号,,13,102,1040061,,,2023-12-15,清算の結了等,,,2015-10-05,1,,,,,マシマ,0
2033,9010003016827,登記記録の閉鎖等,0,2023-12-21,2023-12-14,合同会社八重洲２３１ビル,,合同会社,東京都,中央区,日本橋１丁目４番１号日本橋一丁目ビルディング,,13,102,1030027,,,2023-12-14,清算の結了等,,,2015-10-05,1,,,,,ヤエスニイサンイチビル,0
2035,9010401038258,登記記録の閉鎖等,0,2023-12-21,2023-12-19,株式会社マスコットコーポレーション,,株式会社,東京都,品川区,西大井１丁目１０番１１号,,13,109,1400015,,,2023-12-19,清算の結了等,,,2015-10-05,1,,,,,マスコットコーポレーション,0
2037,9010401175662,登記記録の閉鎖等,0,2023-12-21,2023-12-19,デジタルバリューチェーンパートナーズ株式会社,,株式会社,東京都,港区,北青山２丁目５番１号,,13,103,1070061,,,2023-12-19,清算の結了等,,,2023-07-10,1,,,,,デジタルバリューチェーンパートナーズ,0
2042,9010403014604,登記記録の閉鎖等,0,2023-12-21,2023-12-15,合同会社ＣＲＴ旭川,,合同会社,東京都,千代田区,丸の内３丁目１番１号東京共同会計事務所内,,13,101,1000005,,,2023-12-15,清算の結了等,,,2016-03-23,1,,,,,シーアールティーアサヒカワ,0
2048,9010601000892,登記記録の閉鎖等,0,2023-12-21,2023-12-14,株式会社和泉商店,,株式会社,東京都,江東区,佐賀１丁目１２番９号,,13,108,1350031,,,2023-12-14,清算の結了等,,,2015-10-05,1,,,,,イズミショウテン,0
2056,9010801018421,登記記録の閉鎖等,0,2023-12-21,2023-12-15,アップグロウス株式会社,,株式会社,東京都,大田区,南雪谷１丁目１５番６号,,13,111,1450066,,,2023-12-15,清算の結了等,,,2015-10-05,1,,,,,アップグロウス,0
2062,9010901037065,登記記録の閉鎖等,0,2023-12-21,2023-12-13,株式会社スマートメディア,,株式会社,東京都,港区,南青山１丁目２４－３,,13,103,1070062,,,2023-12-13,合併による解散等,6010401027065,令和５年１２月１日東京都港区赤坂四丁目１５番１号株式会社ベクトル（6010401027065）に合併し解散,2015-11-16,1,,,,,スマートメディア,0
2068,9011003004722,登記記録の閉鎖等,0,2023-12-21,2023-12-18,合同会社Ｃｈａｔ　Ｐａｒｔｙ,,合同会社,東京都,渋谷区,道玄坂１丁目２１番１号渋谷ソラスタ１５階,,13,113,1500043,,,2023-12-18,合併による解散等,6011001068854,令和５年１２月１５日東京都渋谷区道玄坂一丁目２１番１号渋谷ソラスタ１５階株式会社ＣＡＲＴＡ　ＭＡＲＫＥＴＩＮＧ　ＦＩＲＭ（6011001068854）に合併し解散,2015-10-05,1,,,,,チャットパーティー,0
2069,9011101070625,登記記録の閉鎖等,0,2023-12-21,2023-12-13,株式会社たくみ,,株式会社,東京都,練馬区,光が丘７丁目８番１－９０５号,,13,120,1790072,,,2023-12-13,清算の結了等,,,2015-10-05,1,,,,,タクミ,0
2074,9011201015174,登記記録の閉鎖等,0,2023-12-21,2023-12-19,フリーホールド株式会社,,株式会社,東京都,中野区,中野３丁目２１番７号野上ハウス１Ｂ,,13,114,1640001,,,2023-12-19,清算の結了等,,,2015-10-05,1,,,,,フリーホールド,0
2104,9020003013897,登記記録の閉鎖等,0,2023-12-21,2023-12-15,合同会社ダイゴ,,合同会社,神奈川県,横浜市瀬谷区,中屋敷１丁目４番地４,,14,114,2460004,,,2023-12-15,清算の結了等,,,2018-02-13,1,,,,,ダイゴ,0
2123,9040003021106,登記記録の閉鎖等,0,2023-12-21,2023-12-13,合同会社八街商事,,合同会社,千葉県,八街市,山田台１０２９番地２,,12,230,2891124,,,2023-12-13,清算の結了等,,,2022-10-21,1,,,,,ヤチマタショウジ,0
2127,9050001029331,登記記録の閉鎖等,0,2023-12-21,2023-12-15,株式会社青木,,株式会社,茨城県,常総市,水海道宝町３３８７番地,,08,211,3030023,,,2023-12-15,清算の結了等,,,2015-10-05,1,,,,,アオキ,0
2130,9050002026170,登記記録の閉鎖等,0,2023-12-21,2023-12-15,有限会社ライジングインターナショナル,,有限会社,茨城県,つくば市,古来１３６１番地１,,08,220,3050021,,,2023-12-15,清算の結了等,,,2015-10-05,1,,,,,ライジングインターナショナル,0
2133,9070002034766,登記記録の閉鎖等,0,2023-12-21,2023-12-18,有限会社ケイエスケイ,,有限会社,群馬県,沼田市,大釜町６０番地６,,10,206,3780067,,,2023-12-18,清算の結了等,,,2015-10-05,1,,,,,ケイエスケイ,0
2137,9090002004676,登記記録の閉鎖等,0,2023-12-21,2023-12-18,有限会社宗興業,,有限会社,山梨県,中巨摩郡昭和町,築地新居８２１番地の１,,19,384,4093853,,,2023-12-18,清算の結了等,,,2015-10-05,1,,,,,ツカサコウギョウ,0
2145,9120001032468,登記記録の閉鎖等,0,2023-12-21,2023-12-19,北島電機工業株式会社,,株式会社,大阪府,大阪市住吉区,苅田７丁目５番１１号,,27,120,5580011,,,2023-12-19,清算の結了等,,,2015-10-05,1,,,,,キタジマデンキコウギョウ,0
2157,9120002011438,登記記録の閉鎖等,0,2023-12-21,2023-12-15,有限会社竹野,,有限会社,大阪府,大阪市平野区,長吉出戸６丁目１３番１１号,,27,126,5470011,,,2023-12-15,清算の結了等,,,2015-10-05,1,,,,,タケノ,0
2158,9120003021972,登記記録の閉鎖等,0,2023-12-21,2023-12-19,ＤＯＮＧ　ＮＡＭ　ＢＯ合同会社,,合同会社,大阪府,大阪市平野区,加美鞍作２丁目８番４号,,27,126,5470004,,,2023-12-19,清算の結了等,,,2022-06-27,1,,,,,ドンナムポ,0
2160,9120101043092,登記記録の閉鎖等,0,2023-12-21,2023-12-19,株式会社オオトモ建築研究所,,株式会社,大阪府,和泉市,いぶき野３丁目１２番９号,,27,219,5940041,,,2023-12-19,清算の結了等,,,2015-10-05,1,,,,,オオトモケンチクケンキュウショ,0
2179,9170001003266,登記記録の閉鎖等,0,2023-12-21,2023-12-19,株式会社宮本商店,,株式会社,和歌山県,和歌山市,中之島１４００番地,,30,201,6408392,,,2023-12-19,清算の結了等,,,2015-10-05,1,,,,,ミヤモトショウテン,0
2180,9170001004999,登記記録の閉鎖等,0,2023-12-21,2023-12-21,株式会社小幡工業所,,株式会社,和歌山県,和歌山市,杭ノ瀬８１番地の７,,30,201,6410001,,,2023-12-21,清算の結了等,,,2015-10-05,1,,,,,オバタコウギョウショ,0
2188,9180003015969,登記記録の閉鎖等,0,2023-12-21,2023-12-05,富山市大山上野合同会社,,合同会社,愛知県,名古屋市中区,栄５丁目２６番３９号,,23,106,4600008,,,2023-12-05,合併による解散等,6180003015939,令和５年１２月１日名古屋市中区栄五丁目２６番３９号アンビー・ファシリティ合同会社（6180003015939）に合併し解散,2015-10-05,1,,,,,トヤマシオオヤマウエノ,0
2213,9290005012929,登記記録の閉鎖等,0,2023-12-21,2023-12-13,医療法人大橋医院,,その他の設立登記法人,福岡県,大川市,大字津字古賀前２６番地１,,40,212,8310035,,,2023-12-13,清算の結了等,,,2015-10-05,1,,,,,オオハシイイン,0
2221,9320003004057,登記記録の閉鎖等,0,2023-12-21,2023-12-18,合同会社ストーンウェーブ,,合同会社,大分県,大分市,南津留６番４号,,44,201,8700937,,,2023-12-18,清算の結了等,,,2023-04-12,1,,,,,ストーンウェーブ,0
2233,9370001011562,登記記録の閉鎖等,0,2023-12-21,2023-12-20,株式会社エム・アイ・シー,,株式会社,宮城県,仙台市若林区,東九番丁５番地,,04,103,9840071,,,2023-12-20,清算の結了等,,,2015-10-05,1,,,,,エムアイシー,0
2237,9370201002956,登記記録の閉鎖等,0,2023-12-21,2023-12-19,東興石油株式会社,,株式会社,宮城県,栗原市,築館伊豆４丁目１番１号,,04,213,9872216,,,2023-12-19,清算の結了等,,,2015-10-05,1,,,,,トウコウセキユ,0
2238,9370402001922,登記記録の閉鎖等,0,2023-12-21,2023-12-19,有限会社タネタ,,有限会社,宮城県,登米市,南方町八の森５６番地の５,,04,212,9870401,,,2023-12-19,清算の結了等,,,2015-10-05,1,,,,,タネタ,0
2241,9370603000351,登記記録の閉鎖等,0,2023-12-21,2023-12-19,合同会社自然体験桂島,,合同会社,宮城県,塩竈市,浦戸桂島字神手洗４３番地,,04,203,9850192,,,2023-12-19,清算の結了等,,,2015-10-05,1,,,,,シゼンタイケンカツラシマ,0
2262,9500001002259,登記記録の閉鎖等,0,2023-12-21,2023-12-19,株式会社数理応用研究所,,株式会社,愛媛県,松山市,末広町１８番地８,,38,201,7900023,,,2023-12-19,清算の結了等,,,2015-10-05,1,,,,,スウリオウヨウケンキュウジョ,0
