sequenceNumber,corporateNumber,process,correct,updateDate,changeDate,name,nameImageId,kind,prefectureName,cityName,streetNumber,addressImageId,prefectureCode,cityCode,postCode,addressOutside,addressOutsideImageId,closeDate,closeCause,successorCorporateNumber,changeCause,assignmentDate,latest,enName,enPrefectureName,enCityName,enAddressOutside,furigana,hihyoji
7,1010001148968,登記記録の閉鎖等,0,2022-04-01,2022-03-28,株式会社晨成商会,,株式会社,東京都,文京区,白山２丁目２１番７号,,13,105,1120001,,,2022-03-28,合併による解散等,2010001003123,令和４年３月２８日東京都文京区白山二丁目２１番７号株式会社三省堂ブックポート（2010001003123）に合併し解散,2015-10-05,1,,,,,シンセイショウカイ,0
9,1010005027648,登記記録の閉鎖等,0,2022-04-01,2022-03-28,薬研坂特定目的会社,,その他の設立登記法人,東京都,千代田区,平河町１丁目６番１５号シルスフィア会計事務所内,,13,101,1020093,,,2022-03-28,清算の結了等,,,2017-10-26,1,,,,,ヤゲンザカ,0
24,1010901029524,登記記録の閉鎖等,0,2022-04-01,2022-03-30,株式会社アルファー,,株式会社,東京都,世田谷区,若林２丁目１５番地９号,,13,112,1540023,,,2022-03-30,清算の結了等,,,2015-10-05,1,,,,,アルファー,0
36,1011002015298,登記記録の閉鎖等,0,2022-04-01,2022-03-23,有限会社丸栄工務店,,有限会社,東京都,渋谷区,恵比寿３丁目１０番８号,,13,113,1500013,,,2022-03-23,清算の結了等,,,2015-10-05,1,,,,,マルエイコウムテン,0
42,1011301012005,登記記録の閉鎖等,0,2022-04-01,2022-03-30,株式会社ツースリー商会,,株式会社,東京都,杉並区,高円寺南３丁目３０番１９号,,13,115,1660003,,,2022-03-30,清算の結了等,,,2015-10-05,1,,,,,ツースリーショウカイ,0
50,1012401031142,登記記録の閉鎖等,0,2022-04-01,2022-03-30,株式会社一戸工務店,,株式会社,東京都,府中市,押立町５丁目１４番地の６川重コーポ２０１号,,13,206,1830012,,,2022-03-30,清算の結了等,,,2016-03-10,1,,,,,イチノヘコウムテン,0
54,1020001033046,登記記録の閉鎖等,0,2022-04-01,2022-03-29,株式会社アローズ,,株式会社,神奈川県,横浜市西区,北幸２丁目１５番１４号,,14,103,2200004,,,2022-03-29,清算の結了等,,,2015-10-05,1,,,,,アローズ,0
59,1020002066697,登記記録の閉鎖等,0,2022-04-01,2022-03-30,有限会社小澤建設,,有限会社,神奈川県,横浜市戸塚区,下倉田町７９９番地,,14,110,2440815,,,2022-03-30,清算の結了等,,,2015-10-05,1,,,,,オザワケンセツ,0
65,1030001141698,登記記録の閉鎖等,0,2022-04-01,2022-03-04,株式会社７Ａ．ＪＡＰＡＮ,,株式会社,栃木県,小山市,大字羽川８１２－１４プランドールコット２０１,,09,208,3230012,,,2022-03-04,清算の結了等,,,2021-04-13,1,,,,,セブンエージャパン,0
71,1030002067208,登記記録の閉鎖等,0,2022-04-01,2022-03-29,有限会社島田加工所,,有限会社,埼玉県,志木市,上宗岡３丁目１１番４１号,,11,228,3530001,,,2022-03-29,清算の結了等,,,2015-10-05,1,,,,,シマダカコウショ,0
79,1040001050403,登記記録の閉鎖等,0,2022-04-01,2022-03-28,株式会社エス・エム・シー,,株式会社,千葉県,木更津市,真里６８７番地１,,12,206,2920212,,,2022-03-28,清算の結了等,,,2015-10-05,1,,,,,エスエムシー,0
85,1040005013331,登記記録の閉鎖等,0,2022-04-01,2022-03-28,協同組合佐原信販,,その他の設立登記法人,千葉県,香取市,佐原イ５２５番地,,12,236,2870003,,,2022-03-28,清算の結了等,,,2015-10-05,1,,,,,サワラシンパン,0
96,1080002002358,登記記録の閉鎖等,0,2022-04-01,2022-03-31,有限会社佐野電算センター,,有限会社,静岡県,静岡市駿河区,石田２丁目１６番１号,,22,102,4228042,,,2022-03-31,清算の結了等,,,2015-10-05,1,,,,,サノデンサンセンター,0
97,1080002017793,登記記録の閉鎖等,0,2022-04-01,2022-03-30,有限会社徳谷薬局,,有限会社,静岡県,藤枝市,藤枝３丁目１番２６号,,22,214,4260025,,,2022-03-30,清算の結了等,,,2015-10-05,1,,,,,トクタニヤッキョク,0
101,1080402003963,登記記録の閉鎖等,0,2022-04-01,2022-03-31,有限会社スカイ・ハイ,,有限会社,静岡県,浜松市中区,龍禅寺町８６２番地の３,,22,131,4300924,,,2022-03-31,清算の結了等,,,2015-10-05,1,,,,,スカイハイ,0
105,1100005008894,登記記録の閉鎖等,0,2022-04-01,2022-03-30,与地生産森林組合,,その他の設立登記法人,長野県,伊那市,西箕輪６０９９番地３,,20,209,3994501,,,2022-03-30,清算の結了等,,,2015-10-05,1,,,,,ヨチ,0
119,1120002038059,登記記録の閉鎖等,0,2022-04-01,2022-03-29,有限会社髭野,,有限会社,大阪府,大阪市中央区,瓦屋町３丁目１番２号,,27,128,5420066,,,2022-03-29,清算の結了等,,,2015-10-05,1,,,,,ヒゲノ,0
152,1150001013290,登記記録の閉鎖等,0,2022-04-01,2022-03-31,株式会社浜野下工務店,,株式会社,奈良県,北葛城郡広陵町,馬見南１丁目６番４号,,29,426,6350833,,,2022-03-31,清算の結了等,,,2015-10-05,1,,,,,ハマノシタコウムテン,0
158,1180001047294,登記記録の閉鎖等,0,2022-04-01,2022-03-31,株式会社ジェイケーエスプランニング,,株式会社,愛知県,名古屋市港区,木場町２番地の５６,,23,111,4550021,,,2022-03-31,清算の結了等,,,2015-10-05,1,,,,,ジェイケーエスプランニング,0
172,1200001016528,登記記録の閉鎖等,0,2022-04-01,2022-03-31,エスケイ観光開発株式会社,,株式会社,岐阜県,大垣市,静里町１６５番地,,21,202,5030983,,,2022-03-31,清算の結了等,,,2015-10-05,1,,,,,エスケイカンコウカイハツ,0
196,1290801025521,登記記録の閉鎖等,0,2022-04-01,2022-03-29,株式会社Ｂｒｉｌｌｉａｎｔ,,株式会社,東京都,墨田区,太平３丁目１１番２号,,13,107,1300012,,,2022-03-29,清算の結了等,,,2019-05-21,1,,,,,ブリリアント,0
198,1290802017773,登記記録の閉鎖等,0,2022-04-01,2022-03-28,有限会社松本ハウジング,,有限会社,福岡県,遠賀郡遠賀町,広渡１丁目１２番１号,,40,384,8114302,,,2022-03-28,清算の結了等,,,2015-10-05,1,,,,,マツモトハウジング,0
222,1430001079510,登記記録の閉鎖等,0,2022-04-01,2022-03-30,株式会社北海道広告社,,株式会社,北海道,札幌市中央区,北五条西９丁目１１番地ジェミスＢＬＤ２階,,01,101,0600005,,,2022-03-30,清算の結了等,,,2019-07-29,1,,,,,ホッカイドウコウコクシャ,0
223,1430001084337,登記記録の閉鎖等,0,2022-04-01,2022-03-28,株式会社Ｒａｉｓｅ,,株式会社,北海道,札幌市北区,北十六条西４丁目２番２６号,,01,102,0010016,,,2022-03-28,清算の結了等,,,2021-06-21,1,,,,,レイズ,0
229,1450002004829,登記記録の閉鎖等,0,2022-04-01,2022-03-30,有限会社ボディーシヨップ千葉,,有限会社,北海道,旭川市,旭神二条１丁目１番７号,,01,204,0788372,,,2022-03-30,清算の結了等,,,2015-10-05,1,,,,,ボディーショップチバ,0
240,1500002019474,登記記録の閉鎖等,0,2022-04-01,2022-03-30,リリーフ不動産有限会社,,有限会社,愛媛県,今治市,常盤町５丁目８番３１号,,38,202,7940015,,,2022-03-30,清算の結了等,,,2015-10-05,1,,,,,リリーフフドウサン,0
243,2010001090137,登記記録の閉鎖等,0,2022-04-01,2022-03-25,株式会社アドバンス,,株式会社,東京都,中央区,日本橋浜町３丁目３４番５号,,13,102,1030007,,,2022-03-25,清算の結了等,,,2015-10-05,1,,,,,アドバンス,0
272,2010901040604,登記記録の閉鎖等,0,2022-04-01,2022-03-31,株式会社ＴＭＲパートナーズ,,株式会社,東京都,世田谷区,新町３丁目１２番１０号２０２,,13,112,1540014,,,2022-03-31,清算の結了等,,,2017-08-07,1,,,,,ティーエムアールパートナーズ,0
279,2011002030874,登記記録の閉鎖等,0,2022-04-01,2022-03-23,有限会社サイクロン,,有限会社,東京都,渋谷区,恵比寿２丁目３６番７－６０６号,,13,113,1500013,,,2022-03-23,清算の結了等,,,2015-10-05,1,,,,,サイクロン,0
289,2011402010088,登記記録の閉鎖等,0,2022-04-01,2022-03-29,不二将産業有限会社,,有限会社,東京都,板橋区,徳丸２丁目７番２１号,,13,119,1750083,,,2022-03-29,清算の結了等,,,2015-10-05,1,,,,,フジショウサンギョウ,0
317,2021001059658,登記記録の閉鎖等,0,2022-04-01,2022-03-28,株式会社みかんの香,,株式会社,神奈川県,南足柄市,中沼３０５番地１,,14,217,2500123,,,2022-03-28,清算の結了等,,,2016-06-30,1,,,,,ミカンノカ,0
319,2030001075664,登記記録の閉鎖等,0,2022-04-01,2022-03-30,セントラル自動車技研株式会社,,株式会社,埼玉県,川口市,末広１丁目１１番２号,,11,203,3320006,,,2022-03-30,合併による解散等,5021001004306,令和４年３月２８日埼玉県川口市末広一丁目１１番２号セントラル自動車技研株式会社（5021001004306）に合併し解散,2015-10-05,1,,,,,セントラルジドウシャギケン,0
328,2040002046218,登記記録の閉鎖等,0,2022-04-01,2022-03-25,有限会社神光電機,,有限会社,千葉県,松戸市,古ケ崎４丁目３６３８番地３,,12,207,2710068,,,2022-03-25,清算の結了等,,,2015-10-05,1,,,,,シンコウデンキ,0
329,2040002084390,登記記録の閉鎖等,0,2022-04-01,2022-03-28,有限会社黄鶴,,有限会社,千葉県,旭市,鎌数９２２９番地の１,,12,215,2892505,,,2022-03-28,清算の結了等,,,2015-10-05,1,,,,,,0
361,2140001056158,登記記録の閉鎖等,0,2022-04-01,2022-03-30,読売豊岡販売株式会社,,株式会社,兵庫県,豊岡市,大手町８番２２号,,28,209,6680031,,,2022-03-30,合併による解散等,2120001004531,令和４年３月２５日大阪市西成区岸里東一丁目１３番２号読売大阪南販売株式会社（2120001004531）に合併し解散,2015-10-05,1,,,,,ヨミウリトヨオカハンバイ,0
366,2140002036464,登記記録の閉鎖等,0,2022-04-01,2022-03-31,有限会社パパハウスコーポレーション,,有限会社,兵庫県,加古川市,東神吉町西井ノ口６２３番地の４,,28,210,6750055,,,2022-03-31,清算の結了等,,,2015-10-05,1,,,,,パパハウスコーポレーション,0
372,2170002011183,登記記録の閉鎖等,0,2022-04-01,2022-03-30,嶋本商事有限会社,,有限会社,和歌山県,新宮市,徐福１丁目１番１０号,,30,207,6470020,,,2022-03-30,清算の結了等,,,2015-10-05,1,,,,,シマモトショウジ,0
388,2180301017070,登記記録の閉鎖等,0,2022-04-01,2022-03-30,株式会社日輪交通,,株式会社,愛知県,刈谷市,昭和町２丁目３７番,,23,210,4480029,,,2022-03-30,清算の結了等,,,2015-10-05,1,,,,,ニチリンコウツウ,0
389,2190005006484,登記記録の閉鎖等,0,2022-04-01,2022-03-30,一般財団法人伊勢の国,,その他の設立登記法人,三重県,伊勢市,神久３丁目５番１８号,,24,203,5160017,,,2022-03-30,清算の結了等,,,2015-10-05,1,,,,,イセノクニ,0
391,2200001017995,登記記録の閉鎖等,0,2022-04-01,2022-03-31,ライン魚菜市場株式会社,,株式会社,岐阜県,可児市,川合６３６番地,,21,214,5090201,,,2022-03-31,清算の結了等,,,2015-10-05,1,,,,,,0
397,2240001020616,登記記録の閉鎖等,0,2022-04-01,2022-03-30,株式会社ＴＭＯ,,株式会社,広島県,広島市西区,三篠町１丁目１２番１２号柏原ビル２Ｆ,,34,104,7330003,,,2022-03-30,清算の結了等,,,2015-10-05,1,,,,,ティエムオー,0
398,2240001036174,登記記録の閉鎖等,0,2022-04-01,2022-03-31,エイト産業株式会社,,株式会社,広島県,安芸郡府中町,本町１丁目１２番２１号,,34,302,7350006,,,2022-03-31,清算の結了等,,,2015-10-05,1,,,,,エイトサンギョウ,0
399,2240001039953,登記記録の閉鎖等,0,2022-04-01,2022-03-31,本郷ホテル株式会社,,株式会社,広島県,三原市,本郷南６丁目２３番３５号,,34,204,7290417,,,2022-03-31,清算の結了等,,,2015-10-05,1,,,,,ホンゴウホテル,0
422,2310001005163,登記記録の閉鎖等,0,2022-04-01,2022-03-31,株式会社Ｅａｒｔｈ　Ｆｒｉｅｎｄｌｙ,,株式会社,長崎県,佐世保市,大塔町１７３０番地１５－１階,,42,202,8571161,,,2022-03-31,清算の結了等,,,2015-10-05,1,,,,,アースフレンドリー,0
489,3010901004764,登記記録の閉鎖等,0,2022-04-01,2022-03-31,株式会社サン・トウキョウ,,株式会社,東京都,世田谷区,世田谷４丁目２０番５－１０２号,,13,112,1540017,,,2022-03-31,清算の結了等,,,2015-10-05,1,,,,,,0
504,3011105007819,登記記録の閉鎖等,0,2022-04-01,2022-03-28,一般財団法人大学ＩＲ総研,,その他の設立登記法人,東京都,新宿区,西新宿２丁目１番１号新宿三井ビルディング,,13,104,1600023,,,2022-03-28,清算の結了等,,,2017-05-30,1,,,,,ダイガクアイアールソウケン,0
532,3020002015719,登記記録の閉鎖等,0,2022-04-01,2022-03-29,有限会社ユーエムワイ,,有限会社,神奈川県,横浜市青葉区,しらとり台４９番地２８,,14,117,2270054,,,2022-03-29,清算の結了等,,,2015-10-05,1,,,,,ユーエムワイ,0
539,3021002057321,登記記録の閉鎖等,0,2022-04-01,2022-03-29,有限会社柏柳工務店,,有限会社,神奈川県,平塚市,中原３丁目１２番１２号,,14,203,2540075,,,2022-03-29,清算の結了等,,,2015-10-05,1,,,,,カヤナギコウムテン,0
540,3030001068411,登記記録の閉鎖等,0,2022-04-01,2022-03-30,株式会社アクティライズ,,株式会社,埼玉県,吉川市,大字八子新田３６７番地３,,11,243,3420003,,,2022-03-30,清算の結了等,,,2015-10-05,1,,,,,アクティライズ,0
551,3040001010520,登記記録の閉鎖等,0,2022-04-01,2022-03-28,株式会社ディアラコ,,株式会社,千葉県,千葉市美浜区,打瀬２丁目１０番地,,12,106,2610013,,,2022-03-28,清算の結了等,,,2015-10-05,1,,,,,ディアラコ,0
560,3050002021160,登記記録の閉鎖等,0,2022-04-01,2022-03-29,有限会社菊地製作所,,有限会社,茨城県,つくば市,春日４丁目２３番地２３,,08,220,3050821,,,2022-03-29,清算の結了等,,,2015-10-05,1,,,,,キクチセイサクジョ,0
576,3080105004365,登記記録の閉鎖等,0,2022-04-01,2022-03-30,北湯ケ野生産森林組合,,その他の設立登記法人,静岡県,下田市,北湯ケ野３３２番地,,22,219,4130714,,,2022-03-30,清算の結了等,,,2015-10-05,1,,,,,キタユガノ,0
588,3120001221480,登記記録の閉鎖等,0,2022-04-01,2022-03-28,株式会社シーカー,,株式会社,大阪府,大阪市中央区,本町４丁目４－１７ＲＥ－０１２・３０９号,,27,128,5410053,,,2022-03-28,清算の結了等,,,2019-06-11,1,,,,,シーカー,0
618,3180001027724,登記記録の閉鎖等,0,2022-04-01,2022-03-29,青木商事株式会社,,株式会社,愛知県,名古屋市緑区,左京山５５４番地,,23,114,4580825,,,2022-03-29,清算の結了等,,,2015-10-05,1,,,,,アオキショウジ,0
628,3180002069798,登記記録の閉鎖等,0,2022-04-01,2022-03-30,有限会社不二燦小牧,,有限会社,愛知県,小牧市,小牧２丁目２８３番地,,23,219,4850041,,,2022-03-30,清算の結了等,,,2015-10-05,1,,,,,フジサンコマキ,0
632,3180301030007,登記記録の閉鎖等,0,2022-04-01,2022-03-30,株式会社ＴＦ＆エスト,,株式会社,愛知県,名古屋市中区,丸の内２丁目１７番１３号ＮＫ丸の内ビル２階,,23,106,4600002,,,2022-03-30,清算の結了等,,,2017-02-06,1,,,,,ティーエフアンドエスト,0
644,3230005006041,登記記録の閉鎖等,0,2022-04-01,2022-03-29,高岡地区木材協同組合,,その他の設立登記法人,富山県,高岡市,内免５丁目３番８号,,16,202,9330941,,,2022-03-29,清算の結了等,,,2015-10-05,1,,,,,タカオカチクモクザイ,0
649,3250001013221,登記記録の閉鎖等,0,2022-04-01,2022-03-29,株式会社パイルテック,,株式会社,山口県,山陽小野田市,港町５９００－１,,35,216,7560834,,,2022-03-29,清算の結了等,,,2015-10-05,1,,,,,パイルテック,0
656,3290802018101,登記記録の閉鎖等,0,2022-04-01,2022-03-23,有限会社疋田黒板製作所,,有限会社,福岡県,北九州市八幡西区,南鷹見町１１番１５号,,40,109,8070833,,,2022-03-23,清算の結了等,,,2015-10-05,1,,,,,ヒキタコクバンセイサクショ,0
685,3430001070087,登記記録の閉鎖等,0,2022-04-01,2022-03-28,株式会社ＡＭＮ北海道,,株式会社,北海道,札幌市中央区,北四条西２６丁目２－１０瀬比亜館円山Ａ棟１Ｆ－１０２,,01,101,0640824,,,2022-03-28,合併による解散等,9012801004467,令和４年２月２８日東京都立川市錦町二丁目６番３号朝日立川ビル３階株式会社朝日メディアネットワーク（9012801004467）に合併し解散,2015-10-15,1,,,,,エーエムエヌホッカイドウ,0
687,3430002003137,登記記録の閉鎖等,0,2022-04-01,2022-03-30,有限会社エス・ワイ・サービス・カンパニー,,有限会社,北海道,札幌市中央区,南十一条西６丁目４１５番地,,01,101,0640811,,,2022-03-30,清算の結了等,,,2015-10-05,1,,,,,エスワイサービスカンパニー,0
699,3480005006025,登記記録の閉鎖等,0,2022-04-01,2022-03-30,特定非営利活動法人学校ＩＣＴサポーターズ,,その他の設立登記法人,徳島県,板野郡藍住町,東中富字東安永１６番地２Ｆ,,36,403,7711224,,,2022-03-30,清算の結了等,,,2015-10-05,1,,,,,ガッコウアイシーティサポーターズ,0
727,4010805000702,登記記録の閉鎖等,0,2022-04-01,2022-03-29,医療法人財団安田病院,,その他の設立登記法人,東京都,大田区,大森北１丁目１１番１８号,,13,111,1430016,,,2022-03-29,清算の結了等,,,2015-10-05,1,,,,,ヤスダビョウイン,0
745,4011303002356,登記記録の閉鎖等,0,2022-04-01,2022-03-30,合同会社ボン,,合同会社,東京都,杉並区,桃井４丁目１１番２０号,,13,115,1670034,,,2022-03-30,清算の結了等,,,2015-12-09,1,,,,,ボン,0
753,4011803002913,登記記録の閉鎖等,0,2022-04-01,2022-03-30,合同会社復優,,合同会社,神奈川県,横浜市南区,永田北１丁目２８－２４ホドガヤスカイハイツ５１０,,14,105,2320071,,,2022-03-30,清算の結了等,,,2017-06-07,1,,,,,フクユウ,0
764,4021002017613,登記記録の閉鎖等,0,2022-04-01,2022-03-30,有限会社アトリエ・エヌ,,有限会社,神奈川県,相模原市中央区,星が丘１丁目２０番１１号,,14,152,2520238,,,2022-03-30,清算の結了等,,,2015-10-05,1,,,,,アトリエエヌ,0
774,4040001087517,登記記録の閉鎖等,0,2022-04-01,2022-03-25,株式会社健明,,株式会社,東京都,千代田区,大手町１丁目１番地１号大手町パークビルディング８階８２４号室,,13,101,1000004,,,2022-03-25,清算の結了等,,,2015-10-05,1,,,,,ケンミン,0
777,4040002011616,登記記録の閉鎖等,0,2022-04-01,2022-03-28,有限会社名城恒産,,有限会社,千葉県,千葉市若葉区,加曽利町１０３２番地７０,,12,104,2640017,,,2022-03-28,清算の結了等,,,2015-10-05,1,,,,,,0
778,4040002014866,登記記録の閉鎖等,0,2022-04-01,2022-03-28,有限会社システムエイト,,有限会社,千葉県,千葉市花見川区,作新台６丁目５番２２号,,12,102,2620045,,,2022-03-28,清算の結了等,,,2015-10-05,1,,,,,システムエイト,0
782,4050002026448,登記記録の閉鎖等,0,2022-04-01,2022-03-28,有限会社幸栄,,有限会社,茨城県,鹿嶋市,大字宮中３１１番地の３,,08,222,3140031,,,2022-03-28,清算の結了等,,,2015-10-05,1,,,,,コウエイ,0
783,4060001023065,登記記録の閉鎖等,0,2022-04-01,2022-03-28,株式会社ＹＯ企画,,株式会社,栃木県,足利市,島田町８６１番地４,,09,202,3260337,,,2022-03-28,清算の結了等,,,2015-10-05,1,,,,,ワイオーキカク,0
786,4060002025309,登記記録の閉鎖等,0,2022-04-01,2022-03-28,有限会社コーセ製作所,,有限会社,栃木県,大田原市,佐久山２３５３番地,,09,210,3240032,,,2022-03-28,清算の結了等,,,2015-10-05,1,,,,,コーセセイサクショ,0
804,4120001111292,登記記録の閉鎖等,0,2022-04-01,2022-03-28,メークプログレス４３株式会社,,株式会社,大阪府,大阪市東淀川区,下新庄５丁目１５番１４号,,27,114,5330021,,,2022-03-28,清算の結了等,,,2015-10-05,1,,,,,,0
819,4120902000775,登記記録の閉鎖等,0,2022-04-01,2022-03-30,有限会社佐野トレーディング,,有限会社,広島県,東広島市,西条町寺家７４１４番地２,,34,212,7390041,,,2022-03-30,清算の結了等,,,2015-10-05,1,,,,,サノトレーディング,0
822,4122002014648,登記記録の閉鎖等,0,2022-04-01,2022-03-30,有限会社富士産業,,有限会社,大阪府,八尾市,南木の本２丁目２７番地の１３,,27,212,5810042,,,2022-03-30,清算の結了等,,,2015-10-05,1,,,,,フジサンギョウ,0
836,4160001019391,登記記録の閉鎖等,0,2022-04-01,2022-03-30,ウッドアイ株式会社,,株式会社,滋賀県,野洲市,南桜１８８番地２,,25,210,5202300,,,2022-03-30,清算の結了等,,,2016-04-08,1,,,,,ウッドアイ,0
839,4170002000688,登記記録の閉鎖等,0,2022-04-01,2022-03-31,扇ノ芝有限会社,00045440,有限会社,和歌山県,和歌山市,吹上３丁目２番３２号,,30,201,6408137,,,2022-03-31,清算の結了等,,,2015-10-05,1,,,,,オウギノシバ,0
843,4180001036716,登記記録の閉鎖等,0,2022-04-01,2022-03-29,株式会社ジェムス,,株式会社,愛知県,名古屋市中区,古渡町１８番９号,,23,106,4600025,,,2022-03-29,清算の結了等,,,2015-10-05,1,,,,,ジェムス,0
870,4220001013306,登記記録の閉鎖等,0,2022-04-01,2022-03-29,株式会社トラヤ事務機,,株式会社,石川県,加賀市,黒瀬町ル６９番地１,,17,206,9220823,,,2022-03-29,清算の結了等,,,2015-10-05,1,,,,,トラヤジムキ,0
871,4220001017034,登記記録の閉鎖等,0,2022-04-01,2022-03-29,株式会社マザーネイチャー,,株式会社,石川県,珠洲市,熊谷町８の部３番地,,17,205,9271212,,,2022-03-29,清算の結了等,,,2015-10-05,1,,,,,マザーネイチャー,0
872,4220005006834,登記記録の閉鎖等,0,2022-04-01,2022-03-29,一般社団法人ソーシャルビジネス創出機構,,その他の設立登記法人,石川県,珠洲市,熊谷町８の部３番地,,17,205,9271212,,,2022-03-29,清算の結了等,,,2015-10-05,1,,,,,ソーシャルビジネスソウシツキコウ,0
907,4360001019891,登記記録の閉鎖等,0,2022-04-01,2022-03-28,ホルス・レジデンス沖縄株式会社,,株式会社,沖縄県,国頭郡本部町,字瀬底２２６８番地１ｔｉｌｌａＳｅａＱ２０５,,47,308,9050227,,,2022-03-28,清算の結了等,,,2015-10-05,1,,,,,,0
913,4380005008690,登記記録の閉鎖等,0,2022-04-01,2022-03-30,特定非営利活動法人かわひがしクリエート２１,,その他の設立登記法人,福島県,会津若松市,河東町郡山字休ミ石１４番地,,07,202,9693481,,,2022-03-30,清算の結了等,,,2015-10-05,1,,,,,カワヒガシクリエートニイチ,0
930,4460302001803,登記記録の閉鎖等,0,2022-04-01,2022-03-31,有限会社スズキ,,有限会社,北海道,北見市,留辺蘂町元町７５番地８,,01,208,0910001,,,2022-03-31,清算の結了等,,,2015-10-05,1,,,,,スズキ,0
931,4470001007844,登記記録の閉鎖等,0,2022-04-01,2022-03-29,天草船舶塗装工業株式会社,,株式会社,香川県,仲多度郡多度津町,西港町４６番地２,,37,404,7640017,,,2022-03-29,清算の結了等,,,2015-10-05,1,,,,,アマクサセンパクトソウコウギョウ,0
956,5010401019179,登記記録の閉鎖等,0,2022-04-01,2022-03-24,東機不動産株式会社,,株式会社,東京都,港区,三田３丁目１１番３６号,,13,103,1080073,,,2022-03-24,清算の結了等,,,2015-10-05,1,,,,,トウキフドウサン,0
967,5010602015175,登記記録の閉鎖等,0,2022-04-01,2022-03-30,有限会社マムス,,有限会社,東京都,墨田区,石原１丁目３３番１１号,,13,107,1300011,,,2022-03-30,清算の結了等,,,2015-10-05,1,,,,,マムス,0
968,5010801004334,登記記録の閉鎖等,0,2022-04-01,2022-03-30,株式会社サンコー・エージェンシー,,株式会社,東京都,大田区,矢口１丁目１６番３号,,13,111,1460093,,,2022-03-30,清算の結了等,,,2015-10-05,1,,,,,サンコーエージェンシー,0
984,5011002019997,登記記録の閉鎖等,0,2022-04-01,2022-03-23,有限会社ノーブ,,有限会社,東京都,渋谷区,笹塚１丁目２５番５－６０２号,00064928,13,113,1510073,,,2022-03-23,清算の結了等,,,2015-10-05,1,,,,,ノーブ,0
1003,5011502007477,登記記録の閉鎖等,0,2022-04-01,2022-03-29,有限会社大隅スポーツ商会,,有限会社,東京都,荒川区,西日暮里３丁目１４番１０号,,13,118,1160013,,,2022-03-29,清算の結了等,,,2015-10-05,1,,,,,オオスミスポーツショウカイ,0
1014,5012703001574,登記記録の閉鎖等,0,2022-04-01,2022-03-30,Ｋ＆Ａ１２３合同会社,,合同会社,東京都,東久留米市,東本町６番１号,,13,222,2030014,,,2022-03-30,清算の結了等,,,2018-01-19,1,,,,,ケイアンドエーワンツースリー,0
1018,5013302004910,登記記録の閉鎖等,0,2022-04-01,2022-03-25,有限会社城北馬場ダンススクール,,有限会社,東京都,豊島区,西池袋１丁目２３番１号,,13,116,1710021,,,2022-03-25,清算の結了等,,,2015-10-05,1,,,,,ジョウホクババダンススクール,0
1021,5020001045764,登記記録の閉鎖等,0,2022-04-01,2022-03-30,株式会社Ｈｉ－ＲＯＥマネジメント,,株式会社,神奈川県,横浜市戸塚区,戸塚町４２７番地２,,14,110,2440003,,,2022-03-30,清算の結了等,,,2015-10-05,1,,,,,ヒロエマネジメント,0
1039,5040001029906,登記記録の閉鎖等,0,2022-04-01,2022-03-25,株式会社彦田,,株式会社,千葉県,浦安市,猫実４丁目１８番１８号,,12,227,2790004,,,2022-03-25,清算の結了等,,,2015-10-05,1,,,,,ヒコタ,0
1040,5040002077706,登記記録の閉鎖等,0,2022-04-01,2022-03-28,有限会社福島印刷,,有限会社,千葉県,東金市,東金９８０番地,,12,213,2830802,,,2022-03-28,清算の結了等,,,2015-10-05,1,,,,,フクシマインサツ,0
1054,5080002016478,登記記録の閉鎖等,0,2022-04-01,2022-03-29,有限会社岩本工機,,有限会社,静岡県,焼津市,吉永５６６番地,,22,212,4210211,,,2022-03-29,清算の結了等,,,2015-10-05,1,,,,,イワモトコウキ,0
1059,5080402015732,登記記録の閉鎖等,0,2022-04-01,2022-03-31,有限会社勇志屋,,有限会社,静岡県,浜松市浜北区,貴布祢４４５番地の２,,22,136,4340038,,,2022-03-31,清算の結了等,,,2015-10-05,1,,,,,ユウシヤ,0
1078,5120901036118,登記記録の閉鎖等,0,2022-04-01,2022-03-31,ＣＨＡＮＣＥ株式会社,,株式会社,大阪府,池田市,神田３丁目１３番３５号,,27,204,5630043,,,2022-03-31,清算の結了等,,,2015-11-10,1,,,,,,0
1085,5130001052816,登記記録の閉鎖等,0,2022-04-01,2022-03-30,株式会社Ｏｎｅ’ｓ,,株式会社,京都府,京都市右京区,西院春栄町２７,,26,108,6150005,,,2022-03-30,清算の結了等,,,2015-10-05,1,,,,,ワンズ,0
1090,5140001070271,登記記録の閉鎖等,0,2022-04-01,2022-03-29,株式会社平成企画,,株式会社,兵庫県,西宮市,今津社前町４番５号,,28,204,6638229,,,2022-03-29,清算の結了等,,,2015-10-05,1,,,,,ヘイセイキカク,0
1125,5230001003222,登記記録の閉鎖等,0,2022-04-01,2022-03-30,株式会社麦谷実業,,株式会社,富山県,富山市,牛島新町３番７－８１号レジデンス牛島ニュー香港内,,16,201,9300856,,,2022-03-30,清算の結了等,,,2015-10-05,1,,,,,ムギタニジツギョウ,0
1160,5340001010637,登記記録の閉鎖等,0,2022-04-01,2022-03-31,株式会社ダスキン珊瑚,,株式会社,鹿児島県,奄美市,名瀬入舟町１番５号,,46,222,8940034,,,2022-03-31,清算の結了等,,,2015-10-05,1,,,,,ダスキンサンゴ,0
1167,5380002003090,登記記録の閉鎖等,0,2022-04-01,2022-03-30,有限会社不忘商会,,有限会社,福島県,福島市,置賜町８番１４号,,07,201,9608034,,,2022-03-30,清算の結了等,,,2015-10-05,1,,,,,,0
1172,5430001022920,登記記録の閉鎖等,0,2022-04-01,2022-03-29,株式会社丸興地建,,株式会社,北海道,札幌市白石区,中央一条５丁目３番２３号,,01,104,0030011,,,2022-03-29,清算の結了等,,,2015-10-05,1,,,,,マルコウチケン,0
1177,5430005004411,登記記録の閉鎖等,0,2022-04-01,2022-03-30,特定非営利活動法人ほっとステーションひだまり,,その他の設立登記法人,北海道,札幌市手稲区,新発寒四条５丁目１４番３号ハイツライラック１０２号,,01,109,0060804,,,2022-03-30,清算の結了等,,,2015-10-05,1,,,,,ホットステーションヒダマリ,0
1198,6010005026439,登記記録の閉鎖等,0,2022-04-01,2022-03-29,ＡＳＭ２一般社団法人,,その他の設立登記法人,東京都,中央区,日本橋１丁目４番１号日本橋一丁目ビルディング,,13,102,1030027,,,2022-03-29,清算の結了等,,,2017-02-17,1,,,,,エイエスエムツー,0
1239,6011603001213,登記記録の閉鎖等,0,2022-04-01,2022-03-31,ターラロジック合同会社,,合同会社,東京都,練馬区,石神井台５丁目１０番９号,,13,120,1770045,,,2022-03-31,清算の結了等,,,2015-10-05,1,,,,,ターラロジック,0
1253,6021001054358,登記記録の閉鎖等,0,2022-04-01,2022-03-29,津久井湖メンテナンス株式会社,,株式会社,神奈川県,相模原市緑区,三ケ木４９２番地,,14,151,2520159,,,2022-03-29,清算の結了等,,,2015-10-05,1,,,,,ツクイコメンテナンス,0
1274,6060001011646,登記記録の閉鎖等,0,2022-04-01,2022-03-30,株式会社大幸,,株式会社,栃木県,那須郡那須町,大字高久乙２７２５番地９２,,09,407,3250303,,,2022-03-30,清算の結了等,,,2015-10-05,1,,,,,,0
1276,6060002026949,登記記録の閉鎖等,0,2022-04-01,2022-03-29,有限会社共進塗装,,有限会社,栃木県,矢板市,館ノ川９００番地２,,09,211,3292152,,,2022-03-29,清算の結了等,,,2015-10-05,1,,,,,キョウシントソウ,0
1284,6070002027137,登記記録の閉鎖等,0,2022-04-01,2022-03-30,有限会社モギ保険事務所,,有限会社,群馬県,渋川市,赤城町溝呂木１１５６番地４,,10,208,3791115,,,2022-03-30,清算の結了等,,,2015-10-05,1,,,,,モギホケンジムショ,0
1291,6100001026268,登記記録の閉鎖等,0,2022-04-01,2022-03-30,株式会社アルテマーケティング,,株式会社,長野県,上田市,秋和５３１番地１,,20,203,3860041,,,2022-03-30,清算の結了等,,,2015-10-05,1,,,,,アルテマーケティング,0
1309,6120001236121,登記記録の閉鎖等,0,2022-04-01,2022-03-28,株式会社ｇｌａｄ,,株式会社,大阪府,大阪市中央区,南船場４丁目１０－５南船場ＳＯＨＯビル７０２,,27,128,5420081,,,2022-03-28,清算の結了等,,,2021-03-22,1,,,,,グラッド,0
1320,6120903002166,登記記録の閉鎖等,0,2022-04-01,2022-03-31,合同会社ＴＡＫＫ,,合同会社,大阪府,豊中市,上津島３丁目３番３の１９号,,27,203,5610843,,,2022-03-31,清算の結了等,,,2017-04-06,1,,,,,,0
1336,6170001002551,登記記録の閉鎖等,0,2022-04-01,2022-03-30,日通和歌山運輸株式会社,00045222,株式会社,和歌山県,和歌山市,西浜７９６番地１,,30,201,6410036,,,2022-03-30,清算の結了等,,,2015-10-05,1,,,,,ニッツウワカヤマウンユ,0
1352,6180301004593,登記記録の閉鎖等,0,2022-04-01,2022-03-30,エール東海株式会社,,株式会社,愛知県,岡崎市,蓑川新町３丁目７番地３,,23,202,4443526,,,2022-03-30,清算の結了等,,,2015-10-05,1,,,,,エールトウカイ,0
1353,6180302024046,登記記録の閉鎖等,0,2022-04-01,2022-03-30,有限会社オフィスキャン,,有限会社,愛知県,みよし市,三好丘緑３丁目２番地の７,,23,236,4700205,,,2022-03-30,清算の結了等,,,2015-10-05,1,,,,,オフィスキャン,0
1377,6320002017954,登記記録の閉鎖等,0,2022-04-01,2022-03-31,有限会社玉来薬品,,有限会社,大分県,竹田市,大字玉来９１０番地３,,44,208,8780024,,,2022-03-31,清算の結了等,,,2015-10-05,1,,,,,タマライヤクヒン,0
1403,6480002005761,登記記録の閉鎖等,0,2022-04-01,2022-03-31,有限会社石井レンタカー,,有限会社,徳島県,名西郡石井町,高原字平島９１番地１,,36,341,7793203,,,2022-03-31,合併による解散等,4480002005763,令和４年３月３１日徳島県名西郡石井町高原字平島９１番地の１株式会社石井観光（4480002005763）に合併し解散,2015-10-05,1,,,,,イシイレンタカー,0
1421,7010401147688,登記記録の閉鎖等,0,2022-04-01,2022-03-24,株式会社エバーホワイト,,株式会社,東京都,港区,麻布十番３丁目２－７,,13,103,1060045,,,2022-03-24,清算の結了等,,,2019-08-29,1,,,,,エバーホワイト,0
1433,7010603006790,登記記録の閉鎖等,0,2022-04-01,2022-03-30,ＦＦサポート合同会社,,合同会社,東京都,墨田区,緑４丁目１０番６号森川ビル２階,,13,107,1300021,,,2022-03-30,清算の結了等,,,2017-06-12,1,,,,,エフエフサポート,0
1439,7011001095195,登記記録の閉鎖等,0,2022-04-01,2022-03-28,株式会社シーアイワークス,,株式会社,埼玉県,さいたま市大宮区,桜木町１丁目２６６の３番地シンワＫＩビル２階,,11,103,3300854,,,2022-03-28,清算の結了等,,,2015-10-05,1,,,,,シーアイワークス,0
1440,7011001105367,登記記録の閉鎖等,0,2022-04-01,2022-03-25,株式会社ジンユウ,,株式会社,東京都,港区,虎ノ門１丁目１３番４号,,13,103,1050001,,,2022-03-25,清算の結了等,,,2015-10-05,1,,,,,ジンユウ,0
1441,7011001118162,登記記録の閉鎖等,0,2022-04-01,2022-02-14,御利口総研株式会社,,株式会社,東京都,渋谷区,道玄坂２丁目１９－６－１２０６,,13,113,1500043,,,2022-02-14,清算の結了等,,,2017-09-05,1,,,,,オリグチソウケン,0
1454,7011501010372,登記記録の閉鎖等,0,2022-04-01,2022-03-29,東京セラミック株式会社,,株式会社,東京都,荒川区,荒川３丁目５１番１号,,13,118,1160002,,,2022-03-29,清算の結了等,,,2015-10-05,1,,,,,トウキョウセラミック,0
1465,7012301001561,登記記録の閉鎖等,0,2022-04-01,2022-03-30,中央サーベ株式会社,,株式会社,東京都,町田市,木曽西３丁目１１番地２０,,13,209,1940037,,,2022-03-30,清算の結了等,,,2015-10-05,1,,,,,チュウオウサーベ,0
1466,7012401036251,登記記録の閉鎖等,0,2022-04-01,2022-03-28,株式会社ＬＳＥ,,株式会社,東京都,武蔵野市,御殿山１丁目２番１号,,13,203,1800005,,,2022-03-28,清算の結了等,,,2020-02-13,1,,,,,エルエスイー,0
1467,7012702009294,登記記録の閉鎖等,0,2022-04-01,2022-03-29,有限会社ナニモ,,有限会社,東京都,東村山市,恩多町５丁目１４番地３５,,13,213,1890011,,,2022-03-29,清算の結了等,,,2015-10-05,1,,,,,ナニモ,0
1475,7020001023009,登記記録の閉鎖等,0,2022-04-01,2022-03-30,弘清サービス株式会社,,株式会社,神奈川県,横浜市西区,西戸部町３丁目２８４番地３,,14,103,2200046,,,2022-03-30,清算の結了等,,,2015-10-05,1,,,,,コウセイサービス,0
1484,7020005005457,登記記録の閉鎖等,0,2022-04-01,2022-03-30,特定非営利活動法人ハーモニー虹,,その他の設立登記法人,神奈川県,横浜市青葉区,青葉台１丁目２８番地１６,,14,117,2270062,,,2022-03-30,清算の結了等,,,2015-10-05,1,,,,,ハーモニーニジ,0
1499,7040001032692,登記記録の閉鎖等,0,2022-04-01,2022-03-28,株式会社環境照明社,,株式会社,千葉県,浦安市,猫実５丁目１２番２３－１０１号,,12,227,2790004,,,2022-03-28,清算の結了等,,,2015-10-05,1,,,,,カンキョウショウメイシャ,0
1505,7040002050330,登記記録の閉鎖等,0,2022-04-01,2022-03-28,有限会社トーカツ会計センター,,有限会社,千葉県,松戸市,栄町１丁目３０番地の４,,12,207,2710062,,,2022-03-28,清算の結了等,,,2015-10-05,1,,,,,トーカツカイケイセンター,0
1528,7120001167778,登記記録の閉鎖等,0,2022-04-01,2022-03-30,株式会社石津事務所,,株式会社,奈良県,奈良市,富雄元町２丁目６番４８号－７０１,,29,201,6310078,,,2022-03-30,清算の結了等,,,2015-10-05,1,,,,,イシヅジムショ,0
1536,7120002077836,登記記録の閉鎖等,0,2022-04-01,2022-03-28,有限会社サインサービス,,有限会社,大阪府,交野市,星田北１丁目５１番１号,,27,230,5760017,,,2022-03-28,清算の結了等,,,2015-10-05,1,,,,,,0
1603,7240001039123,登記記録の閉鎖等,0,2022-04-01,2022-03-31,株式会社アットホーム,,株式会社,広島県,尾道市,向東町９５２８番地１３,,34,205,7220062,,,2022-03-31,清算の結了等,,,2015-10-05,1,,,,,アットホーム,0
1609,7260001013951,登記記録の閉鎖等,0,2022-04-01,2022-03-30,株式会社滝澤機工製作所,,株式会社,岡山県,倉敷市,玉島１丁目８番３０号,,33,202,7138102,,,2022-03-30,清算の結了等,,,2015-10-05,1,,,,,タキザワキコウセイサクショ,0
1653,7400002008523,登記記録の閉鎖等,0,2022-04-01,2022-03-30,有限会社メガネ・時計・宝石の阿部,,有限会社,岩手県,花巻市,大通り１丁目１４番２７号,,03,205,0250092,,,2022-03-30,清算の結了等,,,2015-10-05,1,,,,,メガネトケイホウセキノアベ,0
1674,7490002012343,登記記録の閉鎖等,0,2022-04-01,2022-03-31,有限会社まる原贈答,,有限会社,高知県,香南市,野市町母代寺４１０番地１,,39,211,7815222,,,2022-03-31,清算の結了等,,,2015-10-05,1,,,,,マルハラゾウトウ,0
1681,8010001026572,登記記録の閉鎖等,0,2022-04-01,2022-03-25,株式会社パシフィックミクロネシアツアーズ,,株式会社,東京都,千代田区,鍛冶町１丁目８番８号,,13,101,1010044,,,2022-03-25,清算の結了等,,,2015-10-05,1,,,,,パシフィックミクロネシアツアーズ,0
1684,8010001109906,登記記録の閉鎖等,0,2022-04-01,2022-03-25,株式会社ＮＩＡＣ,,株式会社,東京都,中央区,入船３丁目２番７号第２明治ビル５Ｆ,,13,102,1040042,,,2022-03-25,清算の結了等,,,2015-10-05,1,,,,,エヌアイエーシー,0
1687,8010001205754,登記記録の閉鎖等,0,2022-04-01,2022-03-24,Ｖｉｃｔｏｒｉａ株式会社,,株式会社,東京都,千代田区,大手町１丁目１番１号,,13,101,1000004,,,2022-03-24,合併による解散等,4010001187600,令和４年３月２１日東京都千代田区大手町一丁目１番１号ＮＩＣ０１株式会社（4010001187600）に合併し解散,2019-12-02,1,,,,,ビクトリア,0
1688,8010003028162,登記記録の閉鎖等,0,2022-04-01,2022-03-29,利源合同会社,,合同会社,東京都,千代田区,神田佐久間町３丁目３２,,13,101,1010025,,,2022-03-29,清算の結了等,,,2018-08-27,1,,,,,リゲン,0
1709,8010801028603,登記記録の閉鎖等,0,2022-04-01,2022-03-30,株式会社山本山大森工場,,株式会社,東京都,大田区,大森本町２丁目２５番１９号,,13,111,1430011,,,2022-03-30,清算の結了等,,,2018-03-06,1,,,,,ヤマモトヤマオオモリコウジョウ,0
1736,8011702002589,登記記録の閉鎖等,0,2022-04-01,2022-03-31,有限会社オフィス三坂,,有限会社,東京都,江戸川区,鹿骨４丁目１７番１６号,,13,123,1330073,,,2022-03-31,清算の結了等,,,2015-10-05,1,,,,,オフィスミサカ,0
1737,8011702003918,登記記録の閉鎖等,0,2022-04-01,2022-03-30,有限会社ケイワイジェー,,有限会社,東京都,江戸川区,東瑞江１丁目３５番１号,,13,123,1320014,,,2022-03-30,清算の結了等,,,2015-10-05,1,,,,,ケイワイジェー,0
1741,8011803001432,登記記録の閉鎖等,0,2022-04-01,2022-03-29,カムワン合同会社,,合同会社,東京都,葛飾区,高砂１丁目２５番２３－１５０４号,,13,122,1250054,,,2022-03-29,清算の結了等,,,2015-10-05,1,,,,,カムワン,0
1742,8012302002500,登記記録の閉鎖等,0,2022-04-01,2022-03-28,有限会社昌興,,有限会社,東京都,町田市,旭町２丁目５番３号,,13,209,1940023,,,2022-03-28,清算の結了等,,,2015-10-05,1,,,,,ショウコウ,0
1745,8012401021632,登記記録の閉鎖等,0,2022-04-01,2022-03-28,株式会社富創ホールディングス,,株式会社,東京都,調布市,柴崎１丁目５２番地９,,13,208,1820014,,,2022-03-28,合併による解散等,5012401036583,令和４年３月１８日東京都調布市柴崎一丁目５２番地９株式会社富創グループ（5012401036583）に合併し解散,2015-10-05,1,,,,,フソウホールディングス,0
1766,8020002093347,登記記録の閉鎖等,0,2022-04-01,2022-03-29,有限会社雅,,有限会社,神奈川県,川崎市多摩区,栗谷４丁目６番８号,,14,135,2140039,,,2022-03-29,清算の結了等,,,2015-10-05,1,,,,,ミヤビ,0
1776,8030005015784,登記記録の閉鎖等,0,2022-04-01,2022-03-29,ＮＰＯ法人シニアドいきいき埼玉,,その他の設立登記法人,埼玉県,春日部市,栄町１丁目１２８番地１,,11,214,3440058,,,2022-03-29,清算の結了等,,,2015-10-05,1,,,,,,0
1789,8060005000536,登記記録の閉鎖等,0,2022-04-01,2022-03-30,栃木県不動産評価協同組合,,その他の設立登記法人,栃木県,宇都宮市,下戸祭２丁目１２番１４号,,09,201,3200055,,,2022-03-30,清算の結了等,,,2015-10-05,1,,,,,トチギケンフドウサンヒョウカ,0
1793,8080002015361,登記記録の閉鎖等,0,2022-04-01,2022-03-30,有限会社さがら産業開発くらぶ,,有限会社,静岡県,牧之原市,片浜７８３番地１,,22,226,4210511,,,2022-03-30,清算の結了等,,,2015-10-05,1,,,,,サガラサンギョウカイハツクラブ,0
1800,8110001022297,登記記録の閉鎖等,0,2022-04-01,2022-03-29,カシー化粧品新潟販売株式会社,,株式会社,新潟県,長岡市,金房１丁目３番２１号,,15,202,9400045,,,2022-03-29,清算の結了等,,,2015-10-05,1,,,,,カシーケショウヒンニイガタハンバイ,0
1812,8120101042401,登記記録の閉鎖等,0,2022-04-01,2022-03-30,株式会社スタジオエスポワール,,株式会社,大阪府,和泉市,寺門町１丁目１３番２９号,,27,219,5940064,,,2022-03-30,清算の結了等,,,2015-10-05,1,,,,,,0
1819,8120903003294,登記記録の閉鎖等,0,2022-04-01,2022-03-31,合同会社ナルシスト,,合同会社,大阪府,茨木市,山手台２丁目４番１－１０７号,,27,211,5670009,,,2022-03-31,清算の結了等,,,2020-07-21,1,,,,,ナルシスト,0
1820,8122001018729,登記記録の閉鎖等,0,2022-04-01,2022-03-29,清水金属工業株式会社,,株式会社,大阪府,八尾市,老原８丁目５１番地の１,,27,212,5810092,,,2022-03-29,清算の結了等,,,2015-10-05,1,,,,,シミズキンゾクコウギョウ,0
1823,8130001002859,登記記録の閉鎖等,0,2022-04-01,2022-03-29,株式会社切島塗装店,,株式会社,京都府,京都市上京区,中立売通土屋町東入田丸町３７３番地の１,,26,102,6028288,,,2022-03-29,清算の結了等,,,2015-10-05,1,,,,,キリシマトソウテン,0
1831,8140001121988,登記記録の閉鎖等,0,2022-04-01,2022-03-31,株式会社ナルシストホールディングス,,株式会社,兵庫県,明石市,本町１丁目１２番２０号ヨシイビル２階,,28,203,6730892,,,2022-03-31,清算の結了等,,,2021-06-15,1,,,,,ナルシストホールディングス,0
1835,8140005017910,登記記録の閉鎖等,0,2022-04-01,2022-04-01,一般財団法人ひょうご憩の宿,,その他の設立登記法人,兵庫県,神戸市中央区,下山手通６丁目３番２８号,,28,110,6500011,,,2022-04-01,合併による解散等,2140005025951,令和４年４月１日神戸市中央区下山手通六丁目３番２８号一般社団法人ひょうご憩の宿（2140005025951）に合併し解散,2015-10-05,1,,,,,ヒョウゴイコイノヤド,0
1848,8180002083324,登記記録の閉鎖等,0,2022-04-01,2022-03-30,有限会社兄弟電気,,有限会社,愛知県,半田市,山代町２丁目１０４番地の３,,23,205,4750974,,,2022-03-30,清算の結了等,,,2015-10-05,1,,,,,ケイテイデンキ,0
1851,8180302015877,登記記録の閉鎖等,0,2022-04-01,2022-03-31,有限会社松本織布,,有限会社,愛知県,蒲郡市,三谷北通２丁目２５３番地,,23,214,4430022,,,2022-03-31,清算の結了等,,,2015-10-05,1,,,,,マツモトショクフ,0
1853,8190002021869,登記記録の閉鎖等,0,2022-04-01,2022-03-30,有限会社別所鉄工所,,有限会社,三重県,四日市市,楠町北五味塚３４７番地,,24,202,5100103,,,2022-03-30,清算の結了等,,,2015-10-05,1,,,,,ベッショテッコウショ,0
1860,8200005002336,登記記録の閉鎖等,0,2022-04-01,2022-03-30,特定非営利活動法人国際産業技術研修センター,,その他の設立登記法人,岐阜県,各務原市,鵜沼三ツ池町３丁目５９番地,,21,213,5090146,,,2022-03-30,清算の結了等,,,2015-10-05,1,,,,,コクサイサンギョウギジュツケンシュウセンター,0
1878,8260002000931,登記記録の閉鎖等,0,2022-04-01,2022-03-31,有限会社今川商店,,有限会社,岡山県,岡山市南区,市場１丁目１番地,,33,104,7028052,,,2022-03-31,清算の結了等,,,2015-10-05,1,,,,,イマガワショウテン,0
1879,8260002027363,登記記録の閉鎖等,0,2022-04-01,2022-03-30,毛利建設有限会社,,有限会社,岡山県,新見市,上熊谷４３５４番地の１,,33,210,7180001,,,2022-03-30,清算の結了等,,,2015-10-05,1,,,,,モウリケンセツ,0
1896,8320002010131,登記記録の閉鎖等,0,2022-04-01,2022-03-31,有限会社ネクサス,,有限会社,大分県,大分市,下郡山の手１番３３号,,44,201,8700961,,,2022-03-31,合併による解散等,2320001000667,令和４年３月３１日大分市下郡山の手１番３３号株式会社エル・シー・ワイ（2320001000667）に合併し解散,2015-10-05,1,,,,,,0
1908,8380005011427,登記記録の閉鎖等,0,2022-04-01,2022-03-30,奥裏磐梯未来企業組合,,その他の設立登記法人,福島県,耶麻郡北塩原村,大字桧原字中原１０４７番７７,,07,402,9660501,,,2022-03-30,清算の結了等,,,2015-10-05,1,,,,,オクウラバンダイミライ,0
1912,8400501000335,登記記録の閉鎖等,0,2022-04-01,2022-03-31,丸正建設株式会社,,株式会社,岩手県,西磐井郡平泉町,平泉字南沖１２番地５,,03,402,0294102,,,2022-03-31,清算の結了等,,,2015-10-05,1,,,,,,0
1930,8480001007848,登記記録の閉鎖等,0,2022-04-01,2022-03-31,株式会社愛染観光,,株式会社,徳島県,板野郡藍住町,東中富字長江傍示３５番地２,,36,403,7711221,,,2022-03-31,清算の結了等,,,2015-10-05,1,,,,,,0
1932,8480003001601,登記記録の閉鎖等,0,2022-04-01,2022-03-31,合同会社ＴＭＣ,,合同会社,徳島県,徳島市,南田宮３丁目５番３１－１０号,,36,201,7700004,,,2022-03-31,清算の結了等,,,2021-01-05,1,,,,,ティーエムシー,0
1938,9010001139662,登記記録の閉鎖等,0,2022-04-01,2022-03-30,株式会社ＴＡＣグループ出版販売,,株式会社,東京都,千代田区,神田三崎町３丁目２番１８号,,13,101,1010061,,,2022-03-30,合併による解散等,8010001126728,令和４年３月３０日東京都千代田区神田三崎町三丁目２番１８号株式会社早稲田経営出版（8010001126728）に合併し解散,2015-10-05,1,,,,,タックグループシュッパンハンバイ,0
1987,9011201023516,登記記録の閉鎖等,0,2022-04-01,2022-03-29,株式会社ボディワークプラス,,株式会社,東京都,中野区,東中野２丁目２２番２３号,,13,114,1640003,,,2022-03-29,清算の結了等,,,2022-01-05,1,,,,,ボディワークプラス,0
2002,9013401001862,登記記録の閉鎖等,0,2022-04-01,2022-03-30,株式会社サカタ電子,,株式会社,東京都,稲城市,東長沼１３６８番地２,,13,225,2060802,,,2022-03-30,清算の結了等,,,2015-10-05,1,,,,,,0
2007,9021001056211,登記記録の閉鎖等,0,2022-04-01,2022-03-29,株式会社たんじゅん野菜いかす,,株式会社,神奈川県,中郡二宮町,山西６６９番地の５５,,14,342,2590124,,,2022-03-29,清算の結了等,,,2015-10-05,1,,,,,タンジュンヤサイイカス,0
2012,9030001079064,登記記録の閉鎖等,0,2022-04-01,2022-03-31,Ｔ・Ｏ設備設計株式会社,,株式会社,東京都,練馬区,関町北４丁目３０番２３－１０４号,,13,120,1770051,,,2022-03-31,清算の結了等,,,2015-10-05,1,,,,,ティーオーセツビセッケイ,0
2013,9030002026676,登記記録の閉鎖等,0,2022-04-01,2022-03-30,アゴラネット有限会社,,有限会社,埼玉県,戸田市,新曽南３丁目２番６－８１０号,,11,224,3350026,,,2022-03-30,清算の結了等,,,2015-10-05,1,,,,,アゴラネット,0
2031,9080002014619,登記記録の閉鎖等,0,2022-04-01,2022-03-29,有限会社スズキ工業所,,有限会社,静岡県,榛原郡吉田町,住吉３６２５番地の３,,22,424,4210301,,,2022-03-29,清算の結了等,,,2015-10-05,1,,,,,スズキコウギョウショ,0
2033,9080005005086,登記記録の閉鎖等,0,2022-04-01,2022-03-31,東遠環境保全事業協同組合,,その他の設立登記法人,静岡県,牧之原市,相良２３７番地の１０,,22,226,4210522,,,2022-03-31,清算の結了等,,,2015-10-05,1,,,,,トウエンカンキョウホゼン,0
2052,9120002051442,登記記録の閉鎖等,0,2022-04-01,2022-03-28,有限会社イナダ住建,,有限会社,大阪府,大阪市東住吉区,中野２丁目４番３０号,,27,121,5460012,,,2022-03-28,清算の結了等,,,2015-10-05,1,,,,,,0
2055,9120003015611,登記記録の閉鎖等,0,2022-04-01,2022-03-28,合同会社Ｃｒｅａｔｉｖｅ　Ｆｉｅｌｄｓ,,合同会社,大阪府,大阪市西区,新町１丁目１４番４３号日宝ニュー立売堀ビル４Ｆ,,27,106,5500013,,,2022-03-28,清算の結了等,,,2019-04-16,1,,,,,,0
2090,9230003001261,登記記録の閉鎖等,0,2022-04-01,2022-03-29,合同会社ＮＴＳシステム,,合同会社,富山県,魚津市,六郎丸７３２番地３２,,16,204,9370042,,,2022-03-29,清算の結了等,,,2018-10-29,1,,,,,,0
2103,9250002020814,登記記録の閉鎖等,0,2022-04-01,2022-03-30,有限会社安達農機商会,,有限会社,山口県,防府市,大字高井５４８番地,,35,206,7470064,,,2022-03-30,清算の結了等,,,2022-01-05,1,,,,,アダチノウキショウカイ,0
