sequenceNumber,corporateNumber,process,correct,updateDate,changeDate,name,nameImageId,kind,prefectureName,cityName,streetNumber,addressImageId,prefectureCode,cityCode,postCode,addressOutside,addressOutsideImageId,closeDate,closeCause,successorCorporateNumber,changeCause,assignmentDate,latest,enName,enPrefectureName,enCityName,enAddressOutside,furigana,hihyoji
2,1010001046924,登記記録の閉鎖等,0,2025-12-17,2025-12-02,株式会社ジャスティス,,株式会社,東京都,中央区,新川２丁目２番１号,,13,102,1040033,,,2025-12-02,清算の結了等,,,2015-10-05,1,,,,,ジャスティス,0
21,1010401171421,登記記録の閉鎖等,0,2025-12-17,2025-11-27,株式会社ＴＯＮＥ,,株式会社,東京都,港区,南青山４丁目１８番１１号フォレストヒルズイーストウィング２階,,13,103,1070062,,,2025-11-27,清算の結了等,,,2022-12-20,1,,,,,トーン,0
26,1010403019602,登記記録の閉鎖等,0,2025-12-17,2025-11-27,Ａｕｒｏｒａ　Ｇｌｏｂａｌ　Ｉｎｃ．合同会社,,合同会社,東京都,港区,愛宕２丁目５－１,,13,103,1050002,,,2025-11-27,清算の結了等,,,2018-11-02,1,,,,,オーロラグローバルインク,0
47,1011102019240,登記記録の閉鎖等,0,2025-12-17,2025-12-12,株式会社ウィンガー,,株式会社,東京都,練馬区,練馬１丁目２０番８号日建練馬ビル２Ｆ,,13,120,1760001,,,2025-12-12,清算の結了等,,,2015-10-05,1,,,,,ウィンガー,0
62,1012701007800,登記記録の閉鎖等,0,2025-12-17,2025-12-09,株式会社白色矮星,,株式会社,東京都,西東京市,下保谷３丁目８番９号,,13,229,2020004,,,2025-12-09,清算の結了等,,,2015-10-05,1,,,,,ハクショクワイセイ,0
66,1012801008203,登記記録の閉鎖等,0,2025-12-17,2025-12-15,株式会社アネックスコーポレーション,,株式会社,東京都,立川市,一番町６丁目１７番地の１－１－１０２,,13,202,1900033,,,2025-12-15,清算の結了等,,,2015-10-05,1,,,,,アネックスコーポレーション,0
69,1013105000284,登記記録の閉鎖等,0,2025-12-17,2025-12-12,医療法人社団惠心会,,その他の設立登記法人,東京都,福生市,加美平３丁目３４番地５,,13,218,1970012,,,2025-12-12,清算の結了等,,,2015-10-05,1,,,,,ケイシンカイ,0
92,1021003006411,登記記録の閉鎖等,0,2025-12-17,2025-11-28,合同会社シロクマ企画,,合同会社,神奈川県,平塚市,宮の前４番１７号,,14,203,2540035,,,2025-11-28,清算の結了等,,,2017-01-17,1,,,,,シロクマキカク,0
104,1040001122053,登記記録の閉鎖等,0,2025-12-17,2025-11-27,株式会社ＢｕｎｃｈＴｅｃｔ,,株式会社,千葉県,船橋市,坪井町１５９番地１０,,12,204,2740062,,,2025-11-27,清算の結了等,,,2022-02-03,1,,,,,バンチテクト,0
107,1040002043810,登記記録の閉鎖等,0,2025-12-17,2025-11-26,有限会社トーパル,,有限会社,千葉県,浦安市,北栄２丁目２０番２３号,,12,227,2790002,,,2025-11-26,清算の結了等,,,2015-10-05,1,,,,,トーパル,0
108,1040003012293,登記記録の閉鎖等,0,2025-12-17,2025-11-04,合同会社ｙｕｍｅ５,,合同会社,千葉県,市原市,岩野見６０２番地１４号アーバンイワノミ２０２号,,12,219,2900052,,,2025-11-04,清算の結了等,,,2018-10-16,1,,,,,ユメゴ,0
114,1070002022010,登記記録の閉鎖等,0,2025-12-17,2025-12-15,有限会社シルバーライン,,有限会社,群馬県,伊勢崎市,宮前町１４９７番地,,10,204,3720026,,,2025-12-15,清算の結了等,,,2015-10-05,1,,,,,シルバーライン,0
123,1120001059411,登記記録の閉鎖等,0,2025-12-17,2025-12-16,日本ソフトウェアー開発株式会社,,株式会社,大阪府,大阪市淀川区,宮原４丁目４番６４号,,27,123,5320003,,,2025-12-16,清算の結了等,,,2015-10-05,1,,,,,ニホンソフトウェアーカイハツ,0
145,1120903002914,登記記録の閉鎖等,0,2025-12-17,2025-12-16,ＹＯＹＯＴＯ合同会社,,合同会社,大阪府,池田市,菅原町１０番７号,,27,204,5630055,,,2025-12-16,清算の結了等,,,2019-07-23,1,,,,,,0
154,1140001074680,登記記録の閉鎖等,0,2025-12-17,2025-12-05,株式会社前川,,株式会社,兵庫県,西宮市,甲子園七番町６番６－６０５号,,28,204,6638177,,,2025-12-05,清算の結了等,,,2015-10-05,1,,,,,マエカワ,0
162,1170001016309,登記記録の閉鎖等,0,2025-12-17,2025-12-15,株式会社Ａｖａｌｉｎｇ,,株式会社,和歌山県,和歌山市,本町２丁目３７番地ＵＥＤＥビル５Ｆ,,30,201,6408033,,,2025-12-15,清算の結了等,,,2020-10-22,1,,,,,アヴェリング,0
165,1170002004304,登記記録の閉鎖等,0,2025-12-17,2025-12-15,有限会社和成商会,,有限会社,和歌山県,和歌山市,築港５丁目１７番地,,30,201,6408287,,,2025-12-15,清算の結了等,,,2015-10-05,1,,,,,ワセイショウカイ,0
185,1190002006612,登記記録の閉鎖等,0,2025-12-17,2025-12-15,有限会社大善,,有限会社,三重県,鈴鹿市,寺家３丁目３番１８号,,24,207,5100254,,,2025-12-15,清算の結了等,,,2015-10-05,1,,,,,ダイゼン,0
189,1220002014421,登記記録の閉鎖等,0,2025-12-17,2025-12-15,有限会社マルゴニット,,有限会社,石川県,鹿島郡中能登町,徳前ら部２８番地,,17,407,9291817,,,2025-12-15,清算の結了等,,,2015-10-05,1,,,,,マルゴニット,0
191,1240001001476,登記記録の閉鎖等,0,2025-12-17,2025-11-26,佐藤商会株式会社,,株式会社,千葉県,浦安市,北栄１丁目１６番１６号,,12,227,2790002,,,2025-11-26,清算の結了等,,,2015-10-05,1,,,,,サトウショウカイ,0
202,1290002056044,登記記録の閉鎖等,0,2025-12-17,2025-12-11,株式会社大牟田ホンダ販売,,株式会社,福岡県,大牟田市,一浦町４番地の１８,,40,202,8360863,,,2025-12-11,清算の結了等,,,2015-10-05,1,,,,,オオムタホンダハンバイ,0
216,1330002012538,登記記録の閉鎖等,0,2025-12-17,2025-11-04,有限会社ディスペンサー,,有限会社,兵庫県,尼崎市,御園町２４番地尼崎第一ビル４０２号,,28,202,6600861,,,2025-11-04,合併による解散等,3140001115004,令和７年１１月１日兵庫県尼崎市御園町２４番地尼崎第一ビル４０２号株式会社ｈ‐ｓｔｙｌｅ（3140001115004）に合併し解散,2015-10-05,1,,,,,ディスペンサー,0
220,1360001016891,登記記録の閉鎖等,0,2025-12-17,2025-11-04,株式会社大詠,,株式会社,沖縄県,島尻郡南大東村,字在所２６４番地４,,47,357,9013805,,,2025-11-04,合併による解散等,8360001005979,令和７年１１月１日沖縄県那覇市前島二丁目４番１６号株式会社アンディルＹｓ（8360001005979）に合併し解散,2015-10-05,1,,,,,ダイエイ,0
231,1380002033703,登記記録の閉鎖等,0,2025-12-17,2025-12-15,有限会社ノースプランニング,,有限会社,福島県,会津若松市,中央３丁目１０番６－１００１号レーベン会津若松ＴＨＥＭＩＤＴＯＷＥＲ,,07,202,9650037,,,2025-12-15,清算の結了等,,,2015-10-05,1,,,,,ノースプランニング,0
236,1410005001380,登記記録の閉鎖等,0,2025-12-17,2025-11-04,社会福祉法人昭和ふくし会,,その他の設立登記法人,秋田県,潟上市,昭和大久保字北野海老漉沼端７４番地３,,05,211,0181401,,,2025-11-04,合併による解散等,5410005001220,令和７年１１月４日秋田市土崎港西三丁目１１番５号社会福祉法人令和ふくし会（5410005001220）に合併し解散,2015-10-05,1,,,,,ショウワフクシカイ,0
237,1420002019961,登記記録の閉鎖等,0,2025-12-17,2025-12-09,有限会社東通総合計画,,有限会社,青森県,下北郡東通村,大字目名字九根合５番地２,,02,424,0350002,,,2025-12-09,清算の結了等,,,2015-10-05,1,,,,,ヒガシドオリソウゴウケイカク,0
259,1500002021827,登記記録の閉鎖等,0,2025-12-17,2025-12-15,有限会社寿芳,,有限会社,愛媛県,四国中央市,川之江町１７１３番地,,38,213,7990101,,,2025-12-15,清算の結了等,,,2015-10-05,1,,,,,ヒサヨシ,0
288,2010005027671,登記記録の閉鎖等,0,2025-12-17,2025-12-15,特定非営利活動法人リライフ社会デザイン協会,,その他の設立登記法人,東京都,文京区,弥生２丁目１２番３号２階,,13,105,1130032,,,2025-12-15,清算の結了等,,,2017-11-01,1,,,,,リライフシャカイデザインキョウカイ,0
293,2010401012517,登記記録の閉鎖等,0,2025-12-17,2025-12-10,ジェイフォックス株式会社,,株式会社,神奈川県,横浜市青葉区,みたけ台３３番地６７,,14,117,2270047,,,2025-12-10,清算の結了等,,,2015-10-05,1,,,,,ジェイフォックス,0
295,2010401085496,登記記録の閉鎖等,0,2025-12-17,2025-10-06,株式会社ゲートウェイアーチ,,株式会社,東京都,新宿区,市谷仲之町３番１７号アークレジデンス市谷仲之町１０１,,13,104,1620064,,,2025-10-06,合併による解散等,2010001248998,令和７年９月２６日東京都新宿区市谷仲之町３番１７号アークレジデンス市谷仲之町１０１株式会社ゲートウェイアーチ（2010001248998）に合併して解散,2015-10-05,1,,,,,ゲートウェイアーチ,0
312,2010602011747,登記記録の閉鎖等,0,2025-12-17,2025-12-10,有限会社小山商店,,有限会社,東京都,墨田区,東向島２丁目１０番９号,,13,107,1310032,,,2025-12-10,清算の結了等,,,2015-10-05,1,,,,,コヤマショウテン,0
315,2010803004129,登記記録の閉鎖等,0,2025-12-17,2025-12-08,合同会社山口,,合同会社,東京都,大田区,東雪谷４丁目１４番１６号,,13,111,1450065,,,2025-12-08,清算の結了等,,,2022-04-11,1,,,,,ヤマグチ,0
318,2010903003798,登記記録の閉鎖等,0,2025-12-17,2025-12-15,合同会社神興リアルエステート,,合同会社,東京都,世田谷区,池尻２丁目１３番３号,,13,112,1540001,,,2025-12-15,清算の結了等,,,2017-08-08,1,,,,,シンコウリアルエステート,0
319,2011001120949,登記記録の閉鎖等,0,2025-12-17,2025-12-10,エム・トライブ株式会社,,株式会社,神奈川県,横浜市旭区,白根７丁目２９番４－２１７号,,14,112,2410005,,,2025-12-10,清算の結了等,,,2018-03-02,1,,,,,エムトライブ,0
327,2011303003752,登記記録の閉鎖等,0,2025-12-17,2025-12-02,合同会社ベック,,合同会社,東京都,千代田区,九段南１丁目５番６号りそな九段ビル５階ＫＳフロア,,13,101,1020074,,,2025-12-02,清算の結了等,,,2020-09-07,1,,,,,ベック,0
333,2011602011638,登記記録の閉鎖等,0,2025-12-17,2025-12-12,有限会社サイバープラス,,有限会社,東京都,練馬区,田柄２丁目１７番３１号,,13,120,1790073,,,2025-12-12,清算の結了等,,,2015-10-05,1,,,,,サイバープラス,0
336,2011802030248,登記記録の閉鎖等,0,2025-12-17,2025-12-12,有限会社東和設備,,有限会社,東京都,足立区,宮城２丁目８番３号,,13,121,1200047,,,2025-12-12,清算の結了等,,,2015-10-05,1,,,,,トウワセツビ,0
340,2012801021163,登記記録の閉鎖等,0,2025-12-17,2025-11-18,株式会社Ｔｏｉｒｏ,,株式会社,東京都,新宿区,西新宿３丁目３番１３号西新宿水間ビル６階,,13,104,1600023,,,2025-11-18,清算の結了等,,,2021-10-11,1,,,,,トイロ,0
342,2013301007306,登記記録の閉鎖等,0,2025-12-17,2025-12-08,竹本精機株式会社,,株式会社,東京都,豊島区,高松２丁目４０番２号,,13,116,1710042,,,2025-12-08,清算の結了等,,,2015-10-05,1,,,,,タケモトセイキ,0
346,2020001028994,登記記録の閉鎖等,0,2025-12-17,2025-12-12,株式会社まるゆいタオル,,株式会社,神奈川県,横浜市中区,初音町３丁目４６番地,,14,104,2310053,,,2025-12-12,清算の結了等,,,2015-10-05,1,,,,,マルユイタオル,0
347,2020001073272,登記記録の閉鎖等,0,2025-12-17,2025-12-12,株式会社重野工業,,株式会社,神奈川県,川崎市川崎区,池上新町２丁目１６番２号,,14,131,2100832,,,2025-12-12,清算の結了等,,,2015-10-05,1,,,,,シゲノコウギョウ,0
358,2021002012962,登記記録の閉鎖等,0,2025-12-17,2025-12-01,有限会社出口設計,,有限会社,神奈川県,茅ヶ崎市,今宿３９６コスモ茅ヶ崎プレシオ３０９号,,14,207,2530072,,,2025-12-01,清算の結了等,,,2015-10-05,1,,,,,,0
372,2030002098516,登記記録の閉鎖等,0,2025-12-17,2025-12-10,有限会社リジマーク,,有限会社,埼玉県,さいたま市浦和区,本太１丁目３１番２号,,11,107,3300052,,,2025-12-10,清算の結了等,,,2015-10-05,1,,,,,リジマーク,0
386,2040003018158,登記記録の閉鎖等,0,2025-12-17,2025-11-26,合同会社ＭＡＴ,,合同会社,千葉県,船橋市,本町３丁目６－２,,12,204,2730005,,,2025-11-26,清算の結了等,,,2021-07-12,1,,,,,マット,0
387,2050001028496,登記記録の閉鎖等,0,2025-12-17,2025-12-10,株式会社ビューテック,,株式会社,茨城県,守谷市,百合ケ丘３丁目２７８７番地７,,08,224,3020110,,,2025-12-10,清算の結了等,,,2015-10-05,1,,,,,ビューテック,0
430,2120905006433,登記記録の閉鎖等,0,2025-12-17,2025-12-09,一般社団法人Ｋｏｒｎ　ＳｃｉＴｅｃｈ,,その他の設立登記法人,大阪府,箕面市,箕面５丁目１４番２５号,,27,220,5620001,,,2025-12-09,清算の結了等,,,2023-02-22,1,,,,,コーンサイテック,0
444,2140001111301,登記記録の閉鎖等,0,2025-12-17,2025-12-12,中華蘭州拉麺株式会社,,株式会社,兵庫県,神戸市中央区,元町通２丁目６番１号,,28,110,6500022,,,2025-12-12,清算の結了等,,,2018-09-25,1,,,,,チュウカランシュウラーメン,0
449,2140002042611,登記記録の閉鎖等,0,2025-12-17,2025-12-12,有限会社マツセイ,,有限会社,兵庫県,尼崎市,西長洲町３丁目７番１１号,,28,202,6600805,,,2025-12-12,清算の結了等,,,2015-10-05,1,,,,,マツセイ,0
450,2140002046967,登記記録の閉鎖等,0,2025-12-17,2025-12-12,有限会社中本電気商会,,有限会社,兵庫県,美方郡新温泉町,浜坂９４１番地の１,,28,586,6696702,,,2025-12-12,清算の結了等,,,2015-10-05,1,,,,,ナカモトデンキショウカイ,0
466,2180001064735,登記記録の閉鎖等,0,2025-12-17,2025-12-12,株式会社アクアイズム,,株式会社,愛知県,名古屋市緑区,横吹町２００９番地２,,23,114,4580816,,,2025-12-12,清算の結了等,,,2015-10-05,1,,,,,アクアイズム,0
467,2180001103848,登記記録の閉鎖等,0,2025-12-17,2025-11-26,株式会社ａｂｅｉｌｌｅ,,株式会社,愛知県,名古屋市千種区,井上町７２番地の１,,23,101,4640026,,,2025-11-26,清算の結了等,,,2015-10-05,1,,,,,アベイユ,0
468,2180001147762,登記記録の閉鎖等,0,2025-12-17,2025-12-10,ホクリスＢｒｏｓ株式会社,,株式会社,愛知県,瀬戸市,西松山町２丁目１９３番地,,23,204,4890912,,,2025-12-10,清算の結了等,,,2021-09-08,1,,,,,ホクリスブロス,0
478,2190002016692,登記記録の閉鎖等,0,2025-12-17,2025-12-15,有限会社正直仏壇具店,,有限会社,三重県,桑名市,鍜冶町１１番地,,24,205,5110047,,,2025-12-15,清算の結了等,,,2015-10-05,1,,,,,ショウジキブツダングテン,0
490,2220002014503,登記記録の閉鎖等,0,2025-12-17,2025-12-15,有限会社ワカクサ運輸,,有限会社,石川県,鹿島郡中能登町,能登部上若草６６番地,,17,407,9291602,,,2025-12-15,清算の結了等,,,2015-10-05,1,,,,,ワカクサウンユ,0
492,2240005009911,登記記録の閉鎖等,0,2025-12-17,2025-12-12,農事組合法人仙養,,その他の設立登記法人,広島県,神石郡神石高原町,近田９４８番地,,34,545,7201622,,,2025-12-12,清算の結了等,,,2015-10-05,1,,,,,センヨウ,0
505,2290002036400,登記記録の閉鎖等,0,2025-12-17,2025-12-03,有限会社Ｓ・Ｔファシリティー,,有限会社,福岡県,糟屋郡篠栗町,和田１丁目１３番７号,,40,342,8112414,,,2025-12-03,清算の結了等,,,2015-10-05,1,,,,,エスティーファシリティー,0
510,2290005012035,登記記録の閉鎖等,0,2025-12-17,2025-12-02,特定非営利活動法人エヌピーオーかりん,,その他の設立登記法人,福岡県,柳川市,三橋町蒲船津１２３７番７,,40,207,8320827,,,2025-12-02,清算の結了等,,,2015-10-05,1,,,,,エヌピーオーカリン,0
522,2340002018830,登記記録の閉鎖等,0,2025-12-17,2025-12-09,有限会社湯通堂商会,,有限会社,鹿児島県,指宿市,十町２６６０番地８,,46,210,8910402,,,2025-12-09,清算の結了等,,,2015-10-05,1,,,,,ユツドウショウカイ,0
538,2370301003159,登記記録の閉鎖等,0,2025-12-17,2025-12-10,株式会社前野建築,,株式会社,宮城県,石巻市,恵み野１丁目１０番地２,,04,202,9860868,,,2025-12-10,清算の結了等,,,2015-10-05,1,,,,,マエノケンチク,0
541,2390003002226,登記記録の閉鎖等,0,2025-12-17,2025-12-10,デジタル生活開発合同会社,,合同会社,山形県,米沢市,東大通２丁目４番３６号,,06,202,9920024,,,2025-12-10,清算の結了等,,,2024-04-03,1,,,,,デジタルセイカツカイハツ,0
542,2400001016102,登記記録の閉鎖等,0,2025-12-17,2025-12-05,株式会社ＲＡＳＩＣ　Ｕ,,株式会社,岩手県,盛岡市,本町通２丁目１番８号,,03,201,0200015,,,2025-12-05,清算の結了等,,,2022-12-28,1,,,,,ラシク,0
547,2420002010721,登記記録の閉鎖等,0,2025-12-17,2025-12-04,朝日農林有限会社,,有限会社,青森県,三戸郡階上町,大字赤保内字大上２６番地４０,,02,446,0391202,,,2025-12-04,合併による解散等,1420001012505,令和７年１２月１日青森県八戸市小中野八丁目８番１６号みちのく資源開発株式会社（1420001012505）に合併し解散,2015-10-05,1,,,,,アサヒノウリン,0
548,2420003002569,登記記録の閉鎖等,0,2025-12-17,2025-12-10,合同会社みちのく不動産,,合同会社,青森県,青森市,浪岡大字浪岡字細田１４７番地,,02,201,0381311,,,2025-12-10,清算の結了等,,,2022-09-06,1,,,,,ミチノクフドウサン,0
552,2430001093270,登記記録の閉鎖等,0,2025-12-17,2025-12-10,株式会社Ａｉｌｅ,,株式会社,北海道,札幌市中央区,南二条西５丁目３１－１ＲＭＢ１ｄ．７０１,,01,101,0600062,,,2025-12-10,清算の結了等,,,2024-12-16,1,,,,,エール,0
556,2430002042598,登記記録の閉鎖等,0,2025-12-17,2025-12-10,有限会社リフレッシング,,有限会社,北海道,札幌市中央区,南四条東１丁目５番地,,01,101,0600054,,,2025-12-10,清算の結了等,,,2015-10-05,1,,,,,リフレッシング,0
576,3010001201956,登記記録の閉鎖等,0,2025-12-17,2025-12-01,Ｍａｉｎｅｔｔｉ　Ｊａｐａｎ株式会社,,株式会社,東京都,中央区,日本橋室町１丁目２番６号,,13,102,1030022,,,2025-12-01,清算の結了等,,,2019-06-28,1,,,,,マイネッティジャパン,0
588,3010401142924,登記記録の閉鎖等,0,2025-12-17,2025-12-12,エッセンスフォー株式会社,,株式会社,大阪府,大阪市天王寺区,空清町１番地２１－２階,,27,109,5430018,,,2025-12-12,清算の結了等,,,2018-12-28,1,,,,,エッセンスフォー,0
615,3011001112615,登記記録の閉鎖等,0,2025-12-17,2025-11-25,株式会社３６５,,株式会社,東京都,渋谷区,広尾１丁目１－３９恵比寿プライムスクエアタワー５Ｆ,,13,113,1500012,,,2025-11-25,清算の結了等,,,2016-09-06,1,,,,,サンロクゴ,0
636,3011702008608,登記記録の閉鎖等,0,2025-12-17,2025-12-10,有限会社中村製鎖工業所,,有限会社,東京都,江戸川区,西瑞江４丁目２１番地,,13,123,1340015,,,2025-12-10,清算の結了等,,,2015-10-05,1,,,,,ナカムラセイサコウギョウショ,0
664,3030001133165,登記記録の閉鎖等,0,2025-12-17,2025-12-12,株式会社イノベーションライフ,,株式会社,東京都,新宿区,住吉町２番１８号,,13,104,1620065,,,2025-12-12,清算の結了等,,,2019-10-08,1,,,,,イノベーションライフ,0
673,3030002058691,登記記録の閉鎖等,0,2025-12-17,2025-12-11,有限会社シンワ空調,,有限会社,埼玉県,朝霞市,根岸台６丁目１０番３３号,,11,227,3510005,,,2025-12-11,清算の結了等,,,2015-10-05,1,,,,,シンワクウチョウ,0
683,3060001024543,登記記録の閉鎖等,0,2025-12-17,2025-12-15,株式会社チームバリスタ,,株式会社,栃木県,宇都宮市,西１丁目１番８号２階,,09,201,3200861,,,2025-12-15,合併による解散等,3010401189874,令和７年１２月１日東京都港区六本木三丁目２番１号株式会社チームバリスタ（3010401189874）に合併し解散,2015-10-05,1,,,,,,0
695,3110001026113,登記記録の閉鎖等,0,2025-12-17,2025-12-10,株式会社マネッツ,,株式会社,新潟県,長岡市,関原町１丁目３１１７番地２,,15,202,9402035,,,2025-12-10,清算の結了等,,,2015-10-05,1,,,,,マネッツ,0
699,3110002029148,登記記録の閉鎖等,0,2025-12-17,2025-12-11,有限会社松川商店,,有限会社,新潟県,長岡市,南町１丁目１０番５号,,15,202,9400081,,,2025-12-11,清算の結了等,,,2015-10-05,1,,,,,マツカワショウテン,0
712,3120001218808,登記記録の閉鎖等,0,2025-12-17,2025-12-12,キック株式会社,,株式会社,大阪府,大阪市中央区,瓦町１丁目７番１号,,27,128,5410048,,,2025-12-12,合併による解散等,6120001166995,令和７年１２月１日大阪市中央区瓦町一丁目７番１号株式会社リブレ（6120001166995）に合併し解散,2019-02-06,1,,,,,キック,0
718,3120002005726,登記記録の閉鎖等,0,2025-12-17,2025-12-15,有限会社タツイ靴店,,有限会社,大阪府,大阪市東住吉区,北田辺４丁目１５番１５号,,27,121,5460044,,,2025-12-15,清算の結了等,,,2015-10-05,1,,,,,,0
722,3120101029312,登記記録の閉鎖等,0,2025-12-17,2025-12-11,株式会社えこ２１製作所,,株式会社,大阪府,堺市西区,平岡町６１番地,,27,144,5938307,,,2025-12-11,清算の結了等,,,2015-10-05,1,,,,,エコニジュウイチセイサクショ,0
723,3120901000406,登記記録の閉鎖等,0,2025-12-17,2025-12-12,株式会社オズプランニング,,株式会社,大阪府,茨木市,春日１丁目６番３３号,,27,211,5670031,,,2025-12-12,清算の結了等,,,2015-10-05,1,,,,,オズプランニング,0
729,3122001027420,登記記録の閉鎖等,0,2025-12-17,2025-12-09,株式会社ニシノ,,株式会社,大阪府,東大阪市,東山町５番１２号,,27,227,5798027,,,2025-12-09,清算の結了等,,,2015-10-05,1,,,,,ニシノ,0
730,3122003001101,登記記録の閉鎖等,0,2025-12-17,2025-12-10,ＳＡＫＵＲＡ合同会社,,合同会社,大阪府,東大阪市,松原２丁目３番２７号,,27,227,5780922,,,2025-12-10,清算の結了等,,,2015-10-05,1,,,,,サクラ,0
736,3130003006045,登記記録の閉鎖等,0,2025-12-17,2025-12-12,合同会社ＡＲＫ,,合同会社,滋賀県,大津市,桜野町１丁目１番２０号ステーションプラスワン２０２号室,,25,201,5200026,,,2025-12-12,清算の結了等,,,2019-06-11,1,,,,,アーク,0
742,3140001044806,登記記録の閉鎖等,0,2025-12-17,2025-12-15,株式会社凌駕,,株式会社,兵庫県,加古川市,東神吉町砂部字土江３２３番地１,,28,210,6750056,,,2025-12-15,清算の結了等,,,2015-10-05,1,,,,,リョウガ,0
744,3140001090627,登記記録の閉鎖等,0,2025-12-17,2025-12-12,株式会社カインドネス,,株式会社,兵庫県,尼崎市,東園田町５丁目１番２－２１７号,,28,202,6610953,,,2025-12-12,清算の結了等,,,2015-10-05,1,,,,,カインドネス,0
749,3140002006862,登記記録の閉鎖等,0,2025-12-17,2025-12-12,有限会社神戸損害保険事務所,,有限会社,兵庫県,神戸市垂水区,西脇１丁目３番１３号,,28,108,6550042,,,2025-12-12,清算の結了等,,,2015-10-05,1,,,,,コウベソンガイホケンジムショ,0
753,3150001026778,登記記録の閉鎖等,0,2025-12-17,2025-12-05,株式会社みのり,,株式会社,大阪府,大阪市中央区,南船場３丁目２番２２号おおきに南船場ビル２０５,,27,128,5420081,,,2025-12-05,清算の結了等,,,2023-10-12,1,,,,,ミノリ,0
757,3180001085813,登記記録の閉鎖等,0,2025-12-17,2025-12-12,株式会社サイト薬品,,株式会社,愛知県,稲沢市,松下２丁目１番６－１０２号,,23,220,4928208,,,2025-12-12,合併による解散等,5190001026302,令和７年１２月１日三重県津市西丸之内３６番２５号株式会社メディカル一光（5190001026302）に合併し解散,2015-10-05,1,,,,,サイトヤクヒン,0
759,3180001088072,登記記録の閉鎖等,0,2025-12-17,2025-12-10,いわくら不動産センター株式会社,,株式会社,愛知県,岩倉市,旭町１丁目５０番地,,23,228,4820024,,,2025-12-10,清算の結了等,,,2015-10-05,1,,,,,,0
764,3180001149312,登記記録の閉鎖等,0,2025-12-17,2025-12-11,株式会社Ｂｅｓｅｌ,,株式会社,愛知県,名古屋市中区,錦１丁目１０番１２号服部ビル１０Ｆ,,23,106,4600003,,,2025-12-11,清算の結了等,,,2021-12-28,1,,,,,ベゼル,0
765,3180001165292,登記記録の閉鎖等,0,2025-12-17,2025-12-04,株式会社ＨＲ　Ｐｌａｔｆｏｒｍ,,株式会社,愛知県,名古屋市中村区,名駅４丁目２４番５号第２森ビル４０１,,23,105,4500002,,,2025-12-04,清算の結了等,,,2025-02-06,1,,,,,エイチアールプラットフォーム,0
768,3180002019423,登記記録の閉鎖等,0,2025-12-17,2025-12-12,有限会社丸塚商店,,有限会社,愛知県,名古屋市中川区,江松５丁目２１０６番地,,23,110,4540954,,,2025-12-12,清算の結了等,,,2015-10-05,1,,,,,マルツカショウテン,0
779,3250002006629,登記記録の閉鎖等,0,2025-12-17,2025-12-15,有限会社山野工務店,,有限会社,山口県,宇部市,則貞５丁目５番２１号,,35,202,7550003,,,2025-12-15,清算の結了等,,,2015-10-05,1,,,,,ヤマノコウムテン,0
781,3260001008625,登記記録の閉鎖等,0,2025-12-17,2025-12-12,株式会社エーピーエル．インク,,株式会社,岡山県,岡山市中区,原尾島１丁目１７番１１－１号,,33,102,7038235,,,2025-12-12,清算の結了等,,,2015-10-05,1,,,,,エーピーエルインク,0
802,3340002024613,登記記録の閉鎖等,0,2025-12-17,2025-12-09,有限会社広瀬製茶,,有限会社,鹿児島県,南九州市,頴娃町郡５０２４番地２,,46,223,8910701,,,2025-12-09,清算の結了等,,,2015-10-05,1,,,,,ヒロセセイチャ,0
806,3380001029262,登記記録の閉鎖等,0,2025-12-17,2025-12-09,鐺山工房株式会社,,株式会社,福島県,白河市,円明寺２３番地１,,07,205,9610921,,,2025-12-09,合併による解散等,4380001010337,令和７年１０月９日福島県白河市池下向山１番地の３トーモク株式会社（4380001010337）に合併し解散,2018-07-05,1,,,,,コテヤマコウボウ,0
807,3390002007415,登記記録の閉鎖等,0,2025-12-17,2025-12-16,もあん庄内セキュリティー有限会社,,有限会社,山形県,酒田市,こがね町１丁目２３番地の６,,06,204,9980852,,,2025-12-16,清算の結了等,,,2015-10-05,1,,,,,モアンショウナイセキュリティー,0
821,3460102002548,登記記録の閉鎖等,0,2025-12-17,2025-12-15,有限会社ニイダ,,有限会社,北海道,帯広市,東四条南７丁目１番地,,01,207,0800804,,,2025-12-15,清算の結了等,,,2015-10-05,1,,,,,ニイダ,0
822,3460301002415,登記記録の閉鎖等,0,2025-12-17,2025-12-16,株式会社堀口商店,,株式会社,北海道,常呂郡佐呂間町,字永代町７８番地,,01,552,0930502,,,2025-12-16,清算の結了等,,,2015-10-05,1,,,,,ホリグチショウテン,0
825,3470001018405,登記記録の閉鎖等,0,2025-12-17,2025-12-15,ナカロジ株式会社,,株式会社,香川県,高松市,庵治町丸山６３９１番地１９,,37,201,7610130,,,2025-12-15,清算の結了等,,,2021-03-04,1,,,,,ナカロジ,0
846,4010003035880,登記記録の閉鎖等,0,2025-12-17,2025-11-27,Ｍｅｌｏｃｏｔｏｎ合同会社,,合同会社,東京都,中央区,銀座１丁目２２番１１号銀座大竹ビジデンス２階,,13,102,1040061,,,2025-11-27,清算の結了等,,,2021-09-24,1,,,,,メロコトン,0
862,4010403028740,登記記録の閉鎖等,0,2025-12-17,2025-11-27,一三八合同会社,,合同会社,東京都,港区,南青山２丁目２５番１０号エスト南青山２階,,13,103,1070062,,,2025-11-27,清算の結了等,,,2022-10-19,1,,,,,イチサンパチ,0
867,4010501014824,登記記録の閉鎖等,0,2025-12-17,2025-12-10,株式会社リブルス,,株式会社,東京都,台東区,浅草橋３丁目１８番１号,,13,106,1110053,,,2025-12-10,清算の結了等,,,2015-10-05,1,,,,,リブルス,0
868,4010601003017,登記記録の閉鎖等,0,2025-12-17,2025-12-09,株式会社サスカンパニー,,株式会社,東京都,江東区,東陽２丁目４番２４号,,13,108,1350016,,,2025-12-09,清算の結了等,,,2015-10-05,1,,,,,サスカンパニー,0
870,4010701020341,登記記録の閉鎖等,0,2025-12-17,2025-12-16,株式会社ケィエムアィ,,株式会社,秋田県,秋田市,新屋比内町８番７５号,,05,201,0101636,,,2025-12-16,清算の結了等,,,2015-10-05,1,,,,,ケイエムアイ,0
882,4011003020253,登記記録の閉鎖等,0,2025-12-17,2025-11-25,合同会社ＳＰ販売,,合同会社,東京都,目黒区,中目黒２丁目７番９号ＫｕｋａｉＴｅｒｒａｃｅ中目黒２０１,,13,110,1530061,,,2025-11-25,清算の結了等,,,2024-10-24,1,,,,,エスピーハンバイ,0
889,4011202006631,登記記録の閉鎖等,0,2025-12-17,2025-12-10,有限会社レイシングジャパンブラッドストック,,有限会社,東京都,中野区,弥生町４丁目１４番１３号,,13,114,1640013,,,2025-12-10,清算の結了等,,,2015-10-05,1,,,,,レイシングジャパンブラッドストック,0
896,4011501016158,登記記録の閉鎖等,0,2025-12-17,2025-12-08,株式会社ＹＵＮＡＲＩ,,株式会社,東京都,品川区,東五反田５丁目１０番１８号,,13,109,1410022,,,2025-12-08,合併による解散等,6430002033981,令和７年１２月１日東京都品川区東五反田五丁目１０番１８号株式会社クリエイト・ヌードルズ（6430002033981）に合併し解散,2015-10-05,1,,,,,ユナリ,0
897,4011601016462,登記記録の閉鎖等,0,2025-12-17,2025-12-08,株式会社ケア・キャンプ,,株式会社,東京都,練馬区,東大泉３丁目５８番６－６０３,,13,120,1780063,,,2025-12-08,清算の結了等,,,2015-10-05,1,,,,,ケアキャンプ,0
898,4011601024969,登記記録の閉鎖等,0,2025-12-17,2025-09-10,株式会社ケイエスケイ,,株式会社,東京都,練馬区,大泉町６丁目２２番７号,,13,120,1780062,,,2025-09-10,清算の結了等,,,2021-04-01,1,,,,,ケイエスケイ,0
900,4011701003947,登記記録の閉鎖等,0,2025-12-17,2025-12-11,株式会社島村不動産,,株式会社,東京都,江戸川区,西一之江２丁目１４番４号,,13,123,1320023,,,2025-12-11,清算の結了等,,,2015-10-05,1,,,,,,0
901,4011701023342,登記記録の閉鎖等,0,2025-12-17,2025-12-15,株式会社ＶＩＳＩＴ,,株式会社,東京都,江戸川区,船堀２丁目２１－８－００２Ｆ,,13,123,1340091,,,2025-12-15,合併による解散等,7370001013965,令和７年１１月１日東京都目黒区上目黒二丁目１番１号株式会社ＬＩＴＡＬＩＣＯパートナーズ（7370001013965）に合併し解散,2020-03-04,1,,,,,ヴィジット,0
909,4012302004310,登記記録の閉鎖等,0,2025-12-17,2025-12-10,有限会社ボニータ・タエ,,有限会社,東京都,町田市,中町４丁目９番１８号,,13,209,1940021,,,2025-12-10,清算の結了等,,,2015-10-05,1,,,,,ボニータタエ,0
910,4012401016421,登記記録の閉鎖等,0,2025-12-17,2025-12-12,株式会社健翔,,株式会社,東京都,武蔵野市,中町３丁目２２番１４号,,13,203,1800006,,,2025-12-12,清算の結了等,,,2015-10-05,1,,,,,ケンショウ,0
916,4012801001477,登記記録の閉鎖等,0,2025-12-17,2025-12-09,株式会社弁慶,,株式会社,東京都,立川市,曙町２丁目１４番３２号,00058700,13,202,1900012,,,2025-12-09,合併による解散等,1012801001562,令和７年１２月９日東京都立川市曙町二丁目１４番３２号丸富株式会社（1012801001562）に合併し解散,2015-10-05,1,,,,,ベンケイ,0
917,4012802003076,登記記録の閉鎖等,0,2025-12-17,2025-12-15,有限会社コトブキ住建,,有限会社,東京都,昭島市,宮沢町２丁目２３番５号,,13,207,1960024,,,2025-12-15,清算の結了等,,,2015-10-05,1,,,,,コトブキジュウケン,0
918,4013201013682,登記記録の閉鎖等,0,2025-12-17,2025-11-21,株式会社サクセス,,株式会社,東京都,目黒区,中目黒１丁目９番５号,,13,110,1530061,,,2025-11-21,合併による解散等,1013201001186,令和７年１１月２０日東京都目黒区中目黒一丁目９番５号株式会社大仁（1013201001186）に合併し解散,2015-10-05,1,,,,,サクセス,0
924,4020001085150,登記記録の閉鎖等,0,2025-12-17,2025-12-12,アーバン・キャピタル・インベストメント株式会社,,株式会社,神奈川県,横浜市西区,高島１丁目２番５号,,14,103,2200011,,,2025-12-12,清算の結了等,,,2015-10-05,1,,,,,アーバンキャピタルインベストメント,0
939,4021002042215,登記記録の閉鎖等,0,2025-12-17,2025-12-12,有限会社フジエステート,,有限会社,群馬県,前橋市,山王町１丁目１番地７,,10,201,3792123,,,2025-12-12,清算の結了等,,,2015-10-05,1,,,,,フジエステート,0
940,4030001020429,登記記録の閉鎖等,0,2025-12-17,2025-12-03,株式会社大起建設,,株式会社,埼玉県,戸田市,上戸田３丁目２番１５号,,11,224,3350022,,,2025-12-03,清算の結了等,,,2015-10-05,1,,,,,ダイキケンセツ,0
943,4030001032192,登記記録の閉鎖等,0,2025-12-17,2025-12-10,株式会社クランド,,株式会社,埼玉県,白岡市,小久喜３１２番地３,,11,246,3490217,,,2025-12-10,清算の結了等,,,2015-10-05,1,,,,,クランド,0
945,4030001126845,登記記録の閉鎖等,0,2025-12-17,2025-12-12,モチモチ・ドリーム・カンパニー株式会社,,株式会社,埼玉県,蓮田市,関山１丁目２番２２号,,11,238,3490121,,,2025-12-12,合併による解散等,3011101053271,令和７年１１月３０日東京都大田区仲六郷三丁目６番１株式会社モチモチ・ドリーム・カンパニー（3011101053271）に合併し解散,2018-08-03,1,,,,,モチモチドリームカンパニー,0
950,4040001021731,登記記録の閉鎖等,0,2025-12-17,2025-11-26,株式会社アイ設計開発,,株式会社,千葉県,船橋市,三咲４丁目１４番２５号,,12,204,2740812,,,2025-11-26,清算の結了等,,,2015-10-05,1,,,,,アイセッケイカイハツ,0
957,4040002048286,登記記録の閉鎖等,0,2025-12-17,2025-11-27,有限会社不二軽印事務機商会,,有限会社,千葉県,松戸市,三矢小台５丁目５番地５,,12,207,2710087,,,2025-11-27,清算の結了等,,,2015-10-05,1,,,,,フジケイインジムキショウカイ,0
963,4070002024202,登記記録の閉鎖等,0,2025-12-17,2025-12-08,有限会社東峰製作所,,有限会社,群馬県,桐生市,広沢町４丁目２２２９番地,,10,203,3760013,,,2025-12-08,清算の結了等,,,2015-10-05,1,,,,,トウミネセイサクショ,0
965,4080101011158,登記記録の閉鎖等,0,2025-12-17,2025-12-15,株式会社かやはら,,株式会社,静岡県,富士市,川成島３０６番地の７,,22,210,4160939,,,2025-12-15,清算の結了等,,,2015-10-05,1,,,,,カヤハラ,0
971,4100001024018,登記記録の閉鎖等,0,2025-12-17,2025-12-15,株式会社モイスティーヌ笑,,株式会社,長野県,長野市,篠ノ井御幣川１１３６番地,,20,201,3888006,,,2025-12-15,清算の結了等,,,2015-10-05,1,,,,,モイスティーヌエミィ,0
973,4100002008969,登記記録の閉鎖等,0,2025-12-17,2025-12-12,有限会社高山電機,,有限会社,長野県,上高井郡高山村,大字高井字二ッ石前４５０６番地３,,20,543,3820800,,,2025-12-12,清算の結了等,,,2015-10-05,1,,,,,タカヤマデンキ,0
979,4120001137775,登記記録の閉鎖等,0,2025-12-17,2025-12-04,マミークオリティー株式会社,,株式会社,大阪府,大阪市東成区,中道３丁目６－１９,,27,115,5370025,,,2025-12-04,清算の結了等,,,2015-10-05,1,,,,,マミークオリティー,0
980,4120001153013,登記記録の閉鎖等,0,2025-12-17,2025-12-12,株式会社エムケイオートサービス,,株式会社,大阪府,交野市,倉治４丁目２０番１号,,27,230,5760051,,,2025-12-12,清算の結了等,,,2015-10-05,1,,,,,エムケイオートサービス,0
999,4120003015715,登記記録の閉鎖等,0,2025-12-17,2025-12-12,ＧＤシステムパートナーズ合同会社,,合同会社,大阪府,枚方市,藤阪元町３丁目５番３８号,,27,210,5730157,,,2025-12-12,清算の結了等,,,2019-05-15,1,,,,,ジーディーシステムパートナーズ,0
1017,4140001014188,登記記録の閉鎖等,0,2025-12-17,2025-12-15,松林商事株式会社,,株式会社,兵庫県,神戸市兵庫区,羽坂通２丁目１番４１号,,28,105,6520805,,,2025-12-15,清算の結了等,,,2015-10-05,1,,,,,マツバヤシショウジ,0
1018,4140001037651,登記記録の閉鎖等,0,2025-12-17,2025-12-15,株式会社Ｄ．Ｓ．Ｔ．,,株式会社,兵庫県,三木市,末広３丁目２１番１０号,,28,215,6730403,,,2025-12-15,清算の結了等,,,2015-10-05,1,,,,,ディーエスティー,0
1034,4160001008007,登記記録の閉鎖等,0,2025-12-17,2025-12-12,株式会社東産業,,株式会社,滋賀県,彦根市,西今町１３７番地,,25,202,5220054,,,2025-12-12,清算の結了等,,,2015-10-05,1,,,,,アズマサンギョウ,0
1047,4190001005265,登記記録の閉鎖等,0,2025-12-17,2025-12-15,株式会社ナゴヤトランスレーターズ,,株式会社,三重県,鈴鹿市,十宮１丁目３番２６号,,24,207,5130037,,,2025-12-15,清算の結了等,,,2015-10-05,1,,,,,ナゴヤトランスレーターズ,0
1052,4210002000709,登記記録の閉鎖等,0,2025-12-17,2025-12-12,有限会社大井コルセット,,有限会社,福井県,福井市,四ツ井１丁目２８番２７号,,18,201,9100846,,,2025-12-12,清算の結了等,,,2015-10-05,1,,,,,オオイコルセット,0
1053,4210002007605,登記記録の閉鎖等,0,2025-12-17,2025-12-12,大門設備工業有限会社,,有限会社,福井県,あわら市,二面３丁目５０３番地１,,18,208,9104103,,,2025-12-12,清算の結了等,,,2015-10-05,1,,,,,ダイモンセツビコウギョウ,0
1055,4230001014633,登記記録の閉鎖等,0,2025-12-17,2025-12-15,Ｗ．ｔｒａｎｓ株式会社,,株式会社,富山県,富山市,手屋３丁目５番１１号,,16,201,9300901,,,2025-12-15,清算の結了等,,,2015-10-05,1,,,,,ダブルトランス,0
1068,4250005006427,登記記録の閉鎖等,0,2025-12-17,2025-10-29,和木漁業協同組合,,その他の設立登記法人,山口県,玖珂郡和木町,和木５丁目１０番２６－６号,,35,321,7400061,,,2025-10-29,合併による解散等,9250005005952,令和７年１０月２９日山口県岩国市中津町二丁目１５番２５号岩国市漁業協同組合（9250005005952）に合併し解散,2015-10-05,1,,,,,,0
1081,4310002016967,登記記録の閉鎖等,0,2025-12-17,2025-12-15,有限会社アグリ,,有限会社,長崎県,大村市,諏訪１丁目７４６番地１２,,42,205,8560024,,,2025-12-15,清算の結了等,,,2015-10-05,1,,,,,アグリ,0
1091,4370001012540,登記記録の閉鎖等,0,2025-12-17,2025-12-12,株式会社ＳＤ２１,,株式会社,宮城県,仙台市若林区,卸町東２丁目２番地２,,04,103,9840002,,,2025-12-12,清算の結了等,,,2015-10-05,1,,,,,,0
1098,4380003004254,登記記録の閉鎖等,0,2025-12-17,2025-12-08,合同会社ネオス,,合同会社,福島県,郡山市,長者２丁目１０番８号サーパス長者プレミアコート２０２号,,07,203,9638017,,,2025-12-08,清算の結了等,,,2018-05-28,1,,,,,ネオス,0
1099,4390003000946,登記記録の閉鎖等,0,2025-12-17,2025-12-15,株式会社ありがとう,,株式会社,山形県,寒河江市,本町２丁目４番２２号,,06,206,9910031,,,2025-12-15,清算の結了等,,,2015-10-05,1,,,,,アリガトウ,0
1102,4420002012501,登記記録の閉鎖等,0,2025-12-17,2025-12-11,有限会社山口工業,,有限会社,青森県,つがる市,木造大畑滝井１３番地１０,,02,209,0383277,,,2025-12-11,清算の結了等,,,2015-10-05,1,,,,,ヤマグチコウギョウ,0
1107,4430001076315,登記記録の閉鎖等,0,2025-12-17,2025-12-15,株式会社ＢＷＯＲＫＳ,,株式会社,北海道,札幌市中央区,大通西８丁目２番地２４,,01,101,0600042,,,2025-12-15,清算の結了等,,,2018-04-06,1,,,,,ビーワークス,0
1111,4430003005057,登記記録の閉鎖等,0,2025-12-17,2025-12-11,カオサン札幌合同会社,,合同会社,大分県,別府市,南的ケ浜町１番２５号,,44,202,8740929,,,2025-12-11,清算の結了等,,,2015-10-05,1,,,,,カオサン,0
1117,4480001006969,登記記録の閉鎖等,0,2025-12-17,2025-12-15,株式会社日水機械,,株式会社,徳島県,海部郡牟岐町,大字河内字しもつい１７２番地１,,36,383,7750001,,,2025-12-15,清算の結了等,,,2015-10-05,1,,,,,ニッスイキカイ,0
1118,4500001000614,登記記録の閉鎖等,0,2025-12-17,2025-12-15,株式会社いろは屋,,株式会社,愛媛県,松山市,清水町３丁目７０番地２,,38,201,7900823,,,2025-12-15,清算の結了等,,,2015-10-05,1,,,,,,0
1128,5010001124214,登記記録の閉鎖等,0,2025-12-17,2025-11-18,株式会社トラストシステムズ,,株式会社,東京都,中央区,晴海１丁目８番１２号晴海アイランドトリトンスクエアオフィスタワーＺ７Ｆ,,13,102,1040053,,,2025-11-18,清算の結了等,,,2015-10-05,1,,,,,トラストシステムズ,0
1144,5010003018463,登記記録の閉鎖等,0,2025-12-17,2025-12-02,合同会社馬場先ゲート,,合同会社,東京都,千代田区,丸の内２丁目５番２号,,13,101,1000005,,,2025-12-02,清算の結了等,,,2015-10-05,1,,,,,,0
1152,5010401178132,登記記録の閉鎖等,0,2025-12-17,2025-11-27,一三八株式会社,,株式会社,東京都,港区,南青山２丁目２５番１０号エスト南青山２階,,13,103,1070062,,,2025-11-27,清算の結了等,,,2023-10-26,1,,,,,イチサンパチ,0
1157,5010402008164,登記記録の閉鎖等,0,2025-12-17,2025-11-27,有限会社田中鍼灸指圧治療院,,有限会社,東京都,港区,南青山２丁目２５番１０号エスト南青山２階,,13,103,1070062,,,2025-11-27,清算の結了等,,,2015-10-05,1,,,,,,0
1158,5010403019672,登記記録の閉鎖等,0,2025-12-17,2025-11-28,合同会社ＢＲＤ２,,合同会社,東京都,港区,赤坂４丁目２番６号アクタス税理士法人内,,13,103,1070052,,,2025-11-28,清算の結了等,,,2018-11-15,1,,,,,ビーアールディーツー,0
1160,5010501016183,登記記録の閉鎖等,0,2025-12-17,2025-12-08,株式会社永山,,株式会社,東京都,台東区,寿１丁目５番１０号,,13,106,1110042,,,2025-12-08,清算の結了等,,,2015-10-05,1,,,,,エイサン,0
1170,5010801022237,登記記録の閉鎖等,0,2025-12-17,2025-12-04,株式会社コスモスコア,,株式会社,東京都,大田区,蒲田１丁目１０番３１号,,13,111,1440052,,,2025-12-04,清算の結了等,,,2015-10-05,1,,,,,,0
1206,5011802013274,登記記録の閉鎖等,0,2025-12-17,2025-12-12,有限会社佐々木聖デザイン室,,有限会社,東京都,足立区,舎人５丁目２番１２号,,13,121,1210831,,,2025-12-12,清算の結了等,,,2015-10-05,1,,,,,ササキヒジリデザインシツ,0
1208,5012303001900,登記記録の閉鎖等,0,2025-12-17,2025-12-05,Ｄｓｉｃｓ合同会社,,合同会社,東京都,町田市,小山町１２１６－１－１０３,,13,209,1940212,,,2025-12-05,清算の結了等,,,2023-11-10,1,,,,,ディーシックス,0
1210,5012401019844,登記記録の閉鎖等,0,2025-12-17,2025-12-09,株式会社ハウスビズ,,株式会社,東京都,調布市,布田６丁目４５番地２９,,13,208,1820024,,,2025-12-09,清算の結了等,,,2015-10-05,1,,,,,ハウスビズ,0
1212,5012701007755,登記記録の閉鎖等,0,2025-12-17,2025-12-10,株式会社ＡＩＴＹワークスタット,,株式会社,東京都,東村山市,青葉町１丁目１３番２３号,,13,213,1890002,,,2025-12-10,清算の結了等,,,2015-10-05,1,,,,,エイティーワークスタット,0
1226,5020003005329,登記記録の閉鎖等,0,2025-12-17,2025-12-12,合名会社正和興業,,合名会社,神奈川県,川崎市川崎区,東門前３丁目１２番１７号,,14,131,2100812,,,2025-12-12,清算の結了等,,,2015-10-05,1,,,,,ショウワコウギョウ,0
1238,5021002060182,登記記録の閉鎖等,0,2025-12-17,2025-12-01,有限会社レインボー警備保障,,有限会社,神奈川県,平塚市,根坂間７１６番地の２,,14,203,2540904,,,2025-12-01,合併による解散等,4021001036325,令和７年１２月１日神奈川県平塚市根坂間７１６番地２株式会社加藤建設工業（4021001036325）に合併し解散,2015-10-05,1,,,,,レインボーケイビホショウ,0
1241,5030001069374,登記記録の閉鎖等,0,2025-12-17,2025-12-11,株式会社福田建設,,株式会社,埼玉県,入間郡毛呂山町,岩井西４丁目１５番地１９,,11,326,3500465,,,2025-12-11,清算の結了等,,,2015-10-05,1,,,,,フクダケンセツ,0
1253,5030002090932,登記記録の閉鎖等,0,2025-12-17,2025-12-10,シンメイ物産有限会社,,有限会社,埼玉県,越谷市,宮本町１丁目６１番地,,11,222,3430806,,,2025-12-10,清算の結了等,,,2015-10-05,1,,,,,シンメイブッサン,0
1254,5030002092037,登記記録の閉鎖等,0,2025-12-17,2025-12-10,有限会社有慶,,有限会社,埼玉県,越谷市,大字小曽川５６２番地１,,11,222,3430802,,,2025-12-10,清算の結了等,,,2015-10-05,1,,,,,ユウケイ,0
1255,5030005015424,登記記録の閉鎖等,0,2025-12-17,2025-12-11,特定非営利活動法人けやき,,その他の設立登記法人,埼玉県,秩父市,熊木町２４番１４号,,11,207,3680032,,,2025-12-11,清算の結了等,,,2015-10-05,1,,,,,ケヤキ,0
1257,5040001015708,登記記録の閉鎖等,0,2025-12-17,2025-11-27,シーテンジャパン株式会社,,株式会社,東京都,港区,海岸１丁目２－３汐留芝離宮ビルディング２１階,,13,103,1050022,,,2025-11-27,清算の結了等,,,2015-10-05,1,,,,,シーテンジャパン,0
1275,5050005004680,登記記録の閉鎖等,0,2025-12-17,2025-11-06,天理教弓馬田分教会,,その他の設立登記法人,茨城県,坂東市,弓田１５９３番地の２,,08,228,3060607,,,2025-11-06,合併による解散等,6030005005606,令和７年１０月２８日埼玉県草加市稲荷二丁目２９番２３号天理教立野堀大教会（6030005005606）に合併し解散,2015-10-05,1,,,,,テンリキョウユマタブンキョウカイ,0
1282,5070001021273,登記記録の閉鎖等,0,2025-12-17,2025-11-07,株式会社高義,,株式会社,群馬県,太田市,山之神町６１５番地８,,10,205,3792302,,,2025-11-07,合併による解散等,2060001010395,令和７年１１月１日栃木県鹿沼市流通センター７２番地晃南運輸株式会社（2060001010395）に合併し解散,2015-10-05,1,,,,,タカヨシ,0
1313,5120101051149,登記記録の閉鎖等,0,2025-12-17,2025-12-10,株式会社エスケイ工業,,株式会社,大阪府,堺市西区,草部３０３番地５,,27,144,5938312,,,2025-12-10,清算の結了等,,,2015-10-05,1,,,,,エスケイコウギョウ,0
1320,5130001017793,登記記録の閉鎖等,0,2025-12-17,2025-12-15,ソフテレック株式会社,,株式会社,京都府,京都市伏見区,横大路千両松町１７０番地,,26,109,6128244,,,2025-12-15,清算の結了等,,,2015-10-05,1,,,,,ソフテレック,0
1325,5130005003781,登記記録の閉鎖等,0,2025-12-17,2025-12-15,医療法人伊吹医院,,その他の設立登記法人,京都府,京都市北区,紫竹西高縄町９５番地,,26,101,6038205,,,2025-12-15,清算の結了等,,,2015-10-05,1,,,,,イブキイイン,0
1331,5140001115811,登記記録の閉鎖等,0,2025-12-17,2025-12-15,株式会社Ｆａｓｔｌｉｆｅ,,株式会社,兵庫県,神戸市垂水区,舞子台７丁目２番１８－２０９号,,28,108,6550046,,,2025-12-15,清算の結了等,,,2019-12-11,1,,,,,ファストライフ,0
1343,5140005026699,登記記録の閉鎖等,0,2025-12-17,2025-12-12,一般社団法人星の樹,,その他の設立登記法人,兵庫県,神戸市中央区,橘通３丁目３番６号,,28,110,6500016,,,2025-12-12,清算の結了等,,,2023-08-01,1,,,,,ホシノキ,0
1345,5160003002725,登記記録の閉鎖等,0,2025-12-17,2025-12-12,合同会社ＷＩＹＮペット,,合同会社,滋賀県,大津市,二本松１－１,,25,201,5200021,,,2025-12-12,清算の結了等,,,2022-11-08,1,,,,,ウィンペット,0
1348,5170002005372,登記記録の閉鎖等,0,2025-12-17,2025-12-15,紀州紀文会有限会社,,有限会社,和歌山県,和歌山市,岩橋５５５番地の５,,30,201,6408301,,,2025-12-15,清算の結了等,,,2015-10-05,1,,,,,キシュウキブンカイ,0
1355,5180302002597,登記記録の閉鎖等,0,2025-12-17,2025-12-08,有限会社フラワー巽,,有限会社,愛知県,岡崎市,城北町１２番地３,,23,202,4440064,,,2025-12-08,清算の結了等,,,2015-10-05,1,,,,,フラワータツミ,0
1356,5180303003495,登記記録の閉鎖等,0,2025-12-17,2025-12-10,合同会社Ｒｙｏ－和,,合同会社,愛知県,岡崎市,日名南町９番地５,,23,202,4440915,,,2025-12-10,清算の結了等,,,2015-10-05,1,,,,,リョーワ,0
1360,5200001032744,登記記録の閉鎖等,0,2025-12-17,2025-12-15,寿鉄筋鋼業株式会社,,株式会社,岐阜県,岐阜市,領下１４９６番地２,,21,201,5008241,,,2025-12-15,清算の結了等,,,2016-04-11,1,,,,,,0
1370,5230001008799,登記記録の閉鎖等,0,2025-12-17,2025-12-15,明和精型株式会社,,株式会社,富山県,南砺市,梅原８６７３番地,,16,210,9391716,,,2025-12-15,清算の結了等,,,2015-10-05,1,,,,,メイワセイケイ,0
1380,5250002013524,登記記録の閉鎖等,0,2025-12-17,2025-12-15,有限会社大和電化センター,,有限会社,山口県,萩市,大字吉田町８番地の４,,35,204,7580027,,,2025-12-15,清算の結了等,,,2015-10-05,1,,,,,ヤマトデンカセンター,0
1381,5250002016948,登記記録の閉鎖等,0,2025-12-17,2025-12-11,有限会社コウジン石油,,有限会社,山口県,光市,虹ケ丘１丁目１６番３１号,,35,210,7430031,,,2025-12-11,清算の結了等,,,2015-10-05,1,,,,,コウジンセキユ,0
1391,5290003000996,登記記録の閉鎖等,0,2025-12-17,2025-12-01,株式会社夢光翔,,株式会社,福岡県,福岡市博多区,博多駅南３丁目１７番１０号コアマンション博多駅南１２０２号,,40,132,8120016,,,2025-12-01,清算の結了等,,,2015-10-05,1,,,,,,0
1393,5290803002036,登記記録の閉鎖等,0,2025-12-17,2025-12-03,株式会社ワン,,株式会社,福岡県,田川郡香春町,大字中津原１５３３－３０,,40,601,8221405,,,2025-12-03,清算の結了等,,,2015-10-05,1,,,,,ワン,0
1397,5310002019399,登記記録の閉鎖等,0,2025-12-17,2025-12-15,中部タクシー有限会社,,有限会社,長崎県,平戸市,紐差町１０８１番地,,42,207,8595361,,,2025-12-15,清算の結了等,,,2015-10-05,1,,,,,チュウブタクシー,0
1401,5340001017310,登記記録の閉鎖等,0,2025-12-17,2025-12-09,エスケーグループ株式会社,,株式会社,鹿児島県,奄美市,名瀬平田町３番１３号,,46,222,8940014,,,2025-12-09,清算の結了等,,,2015-10-05,1,,,,,エスケーグループ,0
1420,5410005004339,登記記録の閉鎖等,0,2025-12-17,2025-10-29,本照寺,,その他の設立登記法人,秋田県,大仙市,藤木字丙大久保２３番地,,05,212,0141412,,,2025-10-29,合併による解散等,6410005004338,令和７年１０月２９日秋田県仙北郡美郷町六郷字東高方町６５番地本善寺（6410005004338）に合併し解散,2015-10-05,1,,,,,ホンショウジ,0
1421,5420001016072,登記記録の閉鎖等,0,2025-12-17,2025-12-11,株式会社彩実コーポレーション,,株式会社,青森県,八戸市,南類家１丁目２０番７号,,02,203,0310004,,,2025-12-11,清算の結了等,,,2018-02-16,1,,,,,アヤミコーポレーション,0
1423,5420005004643,登記記録の閉鎖等,0,2025-12-17,2025-11-06,法典院,,その他の設立登記法人,青森県,弘前市,大字新里字西里見８２番地の１,,02,202,0368083,,,2025-11-06,合併による解散等,2420005004654,令和７年１１月６日青森県弘前市大字亀甲町１００番地東大宣寺（2420005004654）に合併し解散,2015-10-05,1,,,,,ホウテンイン,0
1431,5460305001931,登記記録の閉鎖等,0,2025-12-17,2025-12-12,一般社団法人知床スロウワークス,,その他の設立登記法人,北海道,斜里郡斜里町,本町４１番地４,,01,545,0994113,,,2025-12-12,清算の結了等,,,2019-07-25,1,,,,,シレトコスロウワークス,0
1436,5500002018902,登記記録の閉鎖等,0,2025-12-17,2025-12-15,有限会社ハウジング今治,,有限会社,愛媛県,今治市,中寺５４６番地,,38,202,7940840,,,2025-12-15,清算の結了等,,,2015-10-05,1,,,,,ハウジングイマバリ,0
1445,6010001110659,登記記録の閉鎖等,0,2025-12-17,2025-12-10,株式会社ティー・ワイ・ユー,,株式会社,愛知県,名古屋市中区,栄２丁目２番２１号,,23,106,4600008,,,2025-12-10,清算の結了等,,,2015-10-05,1,,,,,,0
1448,6010001226100,登記記録の閉鎖等,0,2025-12-17,2025-12-02,株式会社ビンテージレガシーグループ,,株式会社,東京都,中央区,銀座６丁目１３番１６号銀座ＷａｌｌビルＵＣＦ５階,,13,102,1040061,,,2025-12-02,清算の結了等,,,2022-04-25,1,,,,,ビンテージレガシーグループ,0
1468,6010501026396,登記記録の閉鎖等,0,2025-12-17,2025-12-08,オードリープロダクト株式会社,,株式会社,東京都,台東区,寿３丁目９番５号蔵前コヤマハイツ５０２,,13,106,1110042,,,2025-12-08,清算の結了等,,,2015-10-05,1,,,,,オードリープロダクト,0
1473,6010501047335,登記記録の閉鎖等,0,2025-12-17,2025-12-12,株式会社コーポレーションシミズ,,株式会社,東京都,台東区,上野５丁目２４番１７号ＨＡＬ上野２Ｆ,,13,106,1100005,,,2025-12-12,清算の結了等,,,2021-05-18,1,,,,,コーポレーションシミズ,0
1493,6011001127445,登記記録の閉鎖等,0,2025-12-17,2025-11-21,株式会社エグジスタンス・コミュニティ,,株式会社,東京都,渋谷区,東１丁目２６番３０号ＳＨＩＢＵＹＡＥＡＳＴＢＬＤＧ．３階,,13,113,1500011,,,2025-11-21,合併による解散等,7011001061585,令和７年１１月２１日東京都渋谷区東一丁目２６番３０号ＳＨＩＢＵＹＡＥＡＳＴＢＬＤＧ．３階株式会社エグジスタンス（7011001061585）に合併し解散,2019-04-08,1,,,,,エグジスタンスコミュニティ,0
1494,6011001134573,登記記録の閉鎖等,0,2025-12-17,2025-12-10,株式会社ＶＡＮＥＳＳＡ,,株式会社,東京都,渋谷区,神宮前１丁目１４番１３号,,13,113,1500001,,,2025-12-10,清算の結了等,,,2020-07-08,1,,,,,ヴァネッサ,0
1506,6011101099329,登記記録の閉鎖等,0,2025-12-17,2025-11-27,株式会社ルームプロダクツ,,株式会社,東京都,港区,浜松町２丁目２番１５号浜松町ダイヤビル２Ｆ,,13,103,1050013,,,2025-11-27,清算の結了等,,,2022-06-24,1,,,,,ルームプロダクツ,0
1520,6012703003124,登記記録の閉鎖等,0,2025-12-17,2025-12-08,合同会社ＷＴＪ,,合同会社,東京都,東村山市,萩山町３丁目１４番地１１,,13,213,1890012,,,2025-12-08,清算の結了等,,,2024-10-30,1,,,,,ダブリューティージェイ,0
1527,6020002058302,登記記録の閉鎖等,0,2025-12-17,2025-12-01,有限会社未来設計,,有限会社,神奈川県,足柄上郡中井町,北田２７８番地１,,14,361,2590143,,,2025-12-01,清算の結了等,,,2015-10-05,1,,,,,ミライセッケイ,0
1531,6021001035936,登記記録の閉鎖等,0,2025-12-17,2025-11-28,ＶＩＶＡ　ＫＯＪＯ株式会社,,株式会社,神奈川県,秦野市,名古木４０６番地,,14,211,2570024,,,2025-11-28,清算の結了等,,,2015-10-05,1,,,,,ビバコジョウ,0
1540,6030002092795,登記記録の閉鎖等,0,2025-12-17,2025-12-11,有限会社原功電設,,有限会社,埼玉県,坂戸市,本町３番４号,,11,239,3500226,,,2025-12-11,清算の結了等,,,2015-10-05,1,,,,,ハラコウデンセツ,0
1545,6040001074109,登記記録の閉鎖等,0,2025-12-17,2025-11-13,房総開発株式会社,,株式会社,千葉県,南房総市,和田町花園１０００番地,,12,234,2992701,,,2025-11-13,清算の結了等,,,2015-10-05,1,,,,,ボウソウカイハツ,0
1549,6040002005491,登記記録の閉鎖等,0,2025-12-17,2025-11-18,有限会社芝浦機工,,有限会社,千葉県,千葉市花見川区,柏井１丁目３３番１４号,,12,102,2620048,,,2025-11-18,清算の結了等,,,2015-10-05,1,,,,,シバウラキコウ,0
1552,6060001030910,登記記録の閉鎖等,0,2025-12-17,2025-12-12,株式会社山氏畜産,,株式会社,栃木県,鹿沼市,上大久保１６２番地,,09,205,3220102,,,2025-12-12,清算の結了等,,,2018-09-25,1,,,,,ヤマウジチクサン,0
1555,6060003004929,登記記録の閉鎖等,0,2025-12-17,2025-12-15,ＨＳアライブ合同会社,,合同会社,栃木県,足利市,南大町１１５１－６,,09,202,3260836,,,2025-12-15,清算の結了等,,,2024-02-26,1,,,,,エイチエスアライブ,0
1589,6122002005001,登記記録の閉鎖等,0,2025-12-17,2025-12-11,有限会社めぐみ,,有限会社,大阪府,東大阪市,小阪本町１丁目３番２号,,27,227,5770802,,,2025-12-11,清算の結了等,,,2015-10-05,1,,,,,メグミ,0
1590,6122002016980,登記記録の閉鎖等,0,2025-12-17,2025-12-02,有限会社真,,有限会社,大阪府,八尾市,高安町南３丁目９１番地,,27,212,5810875,,,2025-12-02,清算の結了等,,,2015-10-05,1,,,,,マコト,0
1603,6140002052020,登記記録の閉鎖等,0,2025-12-17,2025-12-10,有限会社きしね,,有限会社,兵庫県,姫路市,御立中４丁目３番６号,,28,201,6700073,,,2025-12-10,清算の結了等,,,2015-10-05,1,,,,,キシネ,0
1612,6180001061530,登記記録の閉鎖等,0,2025-12-17,2025-12-10,株式会社アライヴァル,,株式会社,愛知県,名古屋市中区,栄５丁目１２番２４号,,23,106,4600008,,,2025-12-10,清算の結了等,,,2015-10-05,1,,,,,,0
1627,6180301038352,登記記録の閉鎖等,0,2025-12-17,2025-12-09,株式会社ブルークリプト,,株式会社,愛知県,岡崎市,明大寺町字畔土７番地２フェリカーサ明大寺５０１,,23,202,4440864,,,2025-12-09,清算の結了等,,,2024-02-26,1,,,,,ブルークリプト,0
1629,6180302027874,登記記録の閉鎖等,0,2025-12-17,2025-12-10,有限会社かねやま,,有限会社,愛知県,新城市,長篠字竹田２０番地の１,,23,221,4411634,,,2025-12-10,清算の結了等,,,2015-10-05,1,,,,,カネヤマ,0
1635,6200002004163,登記記録の閉鎖等,0,2025-12-17,2025-12-15,有限会社ヘルシー・ウスイ,,有限会社,岐阜県,岐阜市,南鶉６丁目７０番地の１,,21,201,5008285,,,2025-12-15,清算の結了等,,,2015-10-05,1,,,,,ヘルシーウスイ,0
1645,6290001027512,登記記録の閉鎖等,0,2025-12-17,2025-12-01,株式会社サン建産業,,株式会社,福岡県,福岡市東区,千早２丁目２番４３号,,40,131,8130044,,,2025-12-01,合併による解散等,3290001003202,令和７年１２月１日福岡市東区千早二丁目２番４３号株式会社三和興業（3290001003202）に合併し解散,2015-10-05,1,,,,,サンケンサンギョウ,0
1658,6340005009212,登記記録の閉鎖等,0,2025-12-17,2025-11-17,一般社団法人日本犬愛護会,,その他の設立登記法人,鹿児島県,鹿児島市,東坂元１丁目１番１５号,,46,201,8920861,,,2025-11-17,清算の結了等,,,2020-11-09,1,,,,,ニホンケンアイゴカイ,0
1670,6430001029072,登記記録の閉鎖等,0,2025-12-17,2025-12-09,株式会社チカコーポレーション,,株式会社,北海道,札幌市中央区,南六条西２２丁目３番２５号ライオンズマンション円山南２０７,,01,101,0640806,,,2025-12-09,清算の結了等,,,2015-10-05,1,,,,,チカコーポレーション,0
1677,6460101003296,登記記録の閉鎖等,0,2025-12-17,2025-12-11,株式会社佐藤建設,,株式会社,北海道,足寄郡陸別町,字陸別原野基線３２７番地,,01,648,0894300,,,2025-12-11,清算の結了等,,,2015-10-05,1,,,,,サトウケンセツ,0
1678,6470001011084,登記記録の閉鎖等,0,2025-12-17,2025-12-15,サンウェルド株式会社,,株式会社,香川県,さぬき市,志度２２１４番地７５,,37,206,7692101,,,2025-12-15,清算の結了等,,,2015-10-05,1,,,,,サンウェルド,0
1679,6470001017437,登記記録の閉鎖等,0,2025-12-17,2025-12-15,富丘不動産株式会社,,株式会社,香川県,小豆郡土庄町,上庄６４６番地,,37,322,7614122,,,2025-12-15,清算の結了等,,,2019-05-15,1,,,,,トミオカフドウサン,0
1695,7010001194230,登記記録の閉鎖等,0,2025-12-17,2025-12-10,株式会社ひらめき,,株式会社,埼玉県,さいたま市浦和区,前地２丁目２番３号シャーメゾン５５－１浦和２０１,,11,107,3300053,,,2025-12-10,清算の結了等,,,2018-08-17,1,,,,,ヒラメキ,0
1704,7010005034696,登記記録の閉鎖等,0,2025-12-17,2025-12-12,一般社団法人日本財団ドワンゴ学園準備会,,その他の設立登記法人,東京都,中央区,銀座４丁目１２番１５号,,13,102,1040061,,,2025-12-12,清算の結了等,,,2022-03-07,1,,,,,ニッポンザイダンドワンゴガクエンジュンビカイ,0
1708,7010401020168,登記記録の閉鎖等,0,2025-12-17,2025-12-01,豊通アグリフーズ株式会社,,株式会社,東京都,港区,芝公園２丁目４番１号,,13,103,1050011,,,2025-12-01,合併による解散等,2010401091338,令和７年１２月１日東京都港区港南二丁目３番１３号豊通食料株式会社（2010401091338）に合併し解散,2015-10-05,1,,,,,トヨツウアグリフーズ,0
1709,7010401032849,登記記録の閉鎖等,0,2025-12-17,2025-12-04,株式会社チャイナオイル・ジャパン,,株式会社,東京都,港区,東新橋１丁目９番２号,,13,103,1050021,,,2025-12-04,清算の結了等,,,2015-10-05,1,,,,,チャイナオイルジャパン,0
1712,7010401137986,登記記録の閉鎖等,0,2025-12-17,2025-12-10,株式会社Ｂｕｓｉｎｅｓｓ　Ｉｎｔｅｌｌｉｇｅｎｃｅ,,株式会社,埼玉県,さいたま市浦和区,前地２丁目２番３号シャーメゾン５５－１浦和２０１,,11,107,3300053,,,2025-12-10,清算の結了等,,,2018-04-26,1,,,,,ビジネスインテリジェンス,0
1716,7010401180136,登記記録の閉鎖等,0,2025-12-17,2025-11-27,株式会社ＳＵＯＮＯ,,株式会社,東京都,港区,南青山４丁目１８番１１号フォレストヒルズイーストウィング２階,,13,103,1070062,,,2025-11-27,清算の結了等,,,2024-02-02,1,,,,,スオーノ,0
1720,7010403025462,登記記録の閉鎖等,0,2025-12-17,2025-11-27,合同会社ＨｉＪｏＪｏ　Ｆｕｎｄ１８,,合同会社,東京都,港区,西新橋１丁目７番２号,,13,103,1050003,,,2025-11-27,清算の結了等,,,2021-06-07,1,,,,,ヒジョージョーファンドジュウハチ,0
1721,7010403031700,登記記録の閉鎖等,0,2025-12-17,2025-11-27,ＰＧＳ２合同会社,,合同会社,東京都,港区,六本木３丁目２番１号六本木グランドタワー,,13,103,1060032,,,2025-11-27,清算の結了等,,,2024-01-16,1,,,,,ピージーエスツー,0
1724,7010502019183,登記記録の閉鎖等,0,2025-12-17,2025-12-10,有限会社オハナコーポレーション,,有限会社,東京都,台東区,花川戸１丁目２番８号,,13,106,1110033,,,2025-12-10,清算の結了等,,,2015-10-05,1,,,,,オハナコーポレーション,0
1730,7010805000567,登記記録の閉鎖等,0,2025-12-17,2025-12-08,やぶ久麺業協同組合,,その他の設立登記法人,東京都,大田区,東糀谷２丁目６番１３号,,13,111,1440033,,,2025-12-08,清算の結了等,,,2015-10-05,1,,,,,ヤブキュウメンギョウ,0
1736,7011001100863,登記記録の閉鎖等,0,2025-12-17,2025-12-09,Ｂ．Ｓｎｏｗ　Ｃｏｍｐａｎｙ株式会社,,株式会社,東京都,江東区,亀戸９丁目１９番７号,,13,108,1360071,,,2025-12-09,清算の結了等,,,2015-10-05,1,,,,,ビィスノウカンパニィ,0
1769,7011701015460,登記記録の閉鎖等,0,2025-12-17,2025-12-12,ヒルバンク株式会社,,株式会社,東京都,江戸川区,一之江７丁目８８番２１号,,13,123,1320024,,,2025-12-12,清算の結了等,,,2015-10-05,1,,,,,ヒルバンク,0
1771,7011801005502,登記記録の閉鎖等,0,2025-12-17,2025-12-15,株式会社アイザワ,,株式会社,東京都,足立区,西新井４丁目２７番１５号,,13,121,1230841,,,2025-12-15,清算の結了等,,,2015-10-05,1,,,,,アイザワ,0
1773,7012301002592,登記記録の閉鎖等,0,2025-12-17,2025-12-05,株式会社山下自動車,,株式会社,東京都,町田市,木曽東２丁目５番１号,,13,209,1940036,,,2025-12-05,清算の結了等,,,2015-10-05,1,,,,,ヤマシタジドウシャ,0
1784,7020001016350,登記記録の閉鎖等,0,2025-12-17,2025-12-08,株式会社横浜フキ,,株式会社,神奈川県,横浜市西区,浜松町１０番３号,,14,103,2200055,,,2025-12-08,清算の結了等,,,2015-10-05,1,,,,,ヨコハマフキ,0
1786,7020001029567,登記記録の閉鎖等,0,2025-12-17,2025-12-15,株式会社横浜貿易ビル,,株式会社,神奈川県,横浜市中区,山下町２番地,,14,104,2310023,,,2025-12-15,合併による解散等,9021001041956,令和７年１１月３０日神奈川県横須賀市久里浜八丁目１７番５号東京湾フェリー株式会社（9021001041956）に合併し解散,2015-10-05,1,,,,,ヨコハマボウエキビル,0
1796,7021001064728,登記記録の閉鎖等,0,2025-12-17,2025-12-01,ヒザワ電気株式会社,,株式会社,神奈川県,座間市,相模が丘３丁目６９番３号,,14,216,2520001,,,2025-12-01,清算の結了等,,,2018-05-08,1,,,,,ヒザワデンキ,0
1797,7021002045297,登記記録の閉鎖等,0,2025-12-17,2025-12-01,有限会社田邉薬局,,有限会社,神奈川県,海老名市,河原口１丁目１９番１０号,,14,215,2430433,,,2025-12-01,清算の結了等,,,2015-10-05,1,,,,,タナベヤッキョク,0
1809,7040001049530,登記記録の閉鎖等,0,2025-12-17,2025-11-28,池田産業株式会社,,株式会社,千葉県,八街市,八街ほ９４５番地,,12,230,2891115,,,2025-11-28,清算の結了等,,,2015-10-05,1,,,,,イケダサンギョウ,0
1810,7040001078414,登記記録の閉鎖等,0,2025-12-17,2025-12-02,株式会社Ｗａｒａｋｏｍｅ,,株式会社,東京都,中央区,日本橋兜町１７番２号兜町第６葉山ビル４階,,13,102,1030026,,,2025-12-02,清算の結了等,,,2015-10-05,1,,,,,ワラコメ,0
1811,7040002059512,登記記録の閉鎖等,0,2025-12-17,2025-11-26,有限会社タケトモ建設,,有限会社,千葉県,白井市,堀込２丁目４番１３棟３０４号,,12,232,2701424,,,2025-11-26,清算の結了等,,,2015-10-05,1,,,,,タケトモケンセツ,0
1817,7060002013483,登記記録の閉鎖等,0,2025-12-17,2025-12-15,有限会社ふきのとう,,有限会社,栃木県,宇都宮市,下平出町２５３番地７,,09,201,3210903,,,2025-12-15,清算の結了等,,,2015-10-05,1,,,,,フキノトウ,0
1841,7120001166895,登記記録の閉鎖等,0,2025-12-17,2025-12-12,株式会社ハリウッド・イースト,,株式会社,大阪府,大阪市西区,北堀江１丁目１番７号,,27,106,5500014,,,2025-12-12,合併による解散等,7120001162614,令和７年１２月１２日大阪市西区北堀江一丁目１番７号株式会社ベストプラクティス（7120001162614）に合併し解散,2015-10-05,1,,,,,ハリウッドイースト,0
1846,7120001207963,登記記録の閉鎖等,0,2025-12-17,2025-12-15,株式会社クラブルソレイユ,,株式会社,大阪府,大阪市西区,西本町２丁目６番１１号,,27,106,5500005,,,2025-12-15,清算の結了等,,,2017-09-07,1,,,,,クラブルソレイユ,0
1859,7120901028261,登記記録の閉鎖等,0,2025-12-17,2025-12-08,株式会社谷口園芸,,株式会社,大阪府,池田市,古江町１９６番地の２,,27,204,5630015,,,2025-12-08,清算の結了等,,,2015-10-05,1,,,,,タニグチエンゲイ,0
1868,7140001127920,登記記録の閉鎖等,0,2025-12-17,2025-12-08,フライデー株式会社,,株式会社,東京都,町田市,木曽東３丁目３１番１０号ＳＴ木曽１１１,,13,209,1940036,,,2025-12-08,清算の結了等,,,2022-11-04,1,,,,,フライデー,0
1873,7140002026733,登記記録の閉鎖等,0,2025-12-17,2025-12-11,有限会社センターマネージメント,,有限会社,兵庫県,三木市,口吉川町保木３５６番地,,28,215,6730742,,,2025-12-11,清算の結了等,,,2015-10-05,1,,,,,センターマネージメント,0
1874,7140002035230,登記記録の閉鎖等,0,2025-12-17,2025-12-10,有限会社アカシヤ,,有限会社,兵庫県,加古川市,東神吉町神吉５４２番地－２,,28,210,6750057,,,2025-12-10,清算の結了等,,,2015-10-05,1,,,,,アカシヤ,0
1876,7140005026747,登記記録の閉鎖等,0,2025-12-17,2025-12-15,一般社団法人み・ら・い,,その他の設立登記法人,兵庫県,淡路市,岩屋４２２番地４,,28,226,6562401,,,2025-12-15,清算の結了等,,,2023-09-20,1,,,,,ミライ,0
1881,7180001057288,登記記録の閉鎖等,0,2025-12-17,2025-12-10,株式会社イマムラ商会,,株式会社,愛知県,名古屋市昭和区,川名山町１６０番地の２,,23,107,4660827,,,2025-12-10,清算の結了等,,,2015-10-05,1,,,,,,0
1895,7180005002018,登記記録の閉鎖等,0,2025-12-17,2025-11-05,寂光院,,その他の設立登記法人,愛知県,北名古屋市,石橋郷２６０番地,,23,234,4810046,,,2025-11-05,合併による解散等,6180005002118,令和７年１１月５日愛知県北名古屋市北野天神３５番地霊松寺（6180005002118）に合併し解散,2015-10-05,1,,,,,ジャコウイン,0
1904,7210002011100,登記記録の閉鎖等,0,2025-12-17,2025-12-10,有限会社ＭＡＳ工業,,有限会社,福井県,三方上中郡若狭町,相田第３７号６番地,,18,501,9191312,,,2025-12-10,清算の結了等,,,2015-10-05,1,,,,,エムエーエスコウギョウ,0
1906,7210002012635,登記記録の閉鎖等,0,2025-12-17,2025-12-11,有限会社福井新聞越前朝日販売店,,有限会社,福井県,丹生郡越前町,西田中２丁目６０６番地,,18,423,9160141,,,2025-12-11,清算の結了等,,,2015-10-05,1,,,,,フクイシンブンエチゼンアサヒハンバイテン,0
1907,7230002002766,登記記録の閉鎖等,0,2025-12-17,2025-12-15,有限会社八田,,有限会社,富山県,富山市,西長江１丁目１番５号,,16,201,9300975,,,2025-12-15,清算の結了等,,,2015-10-05,1,,,,,ハッタ,0
1913,7260005004583,登記記録の閉鎖等,0,2025-12-17,2025-10-29,金光教大塚教会,00004091,その他の設立登記法人,岡山県,総社市,西阿曽５００番地,,33,208,7191103,,,2025-10-29,合併による解散等,3260005000413,令和７年１０月２９日岡山市中区福泊２９７番地金光教操山教会（3260005000413）に合併し解散,2015-10-05,1,,,,,コンコウキョウオオツカキョウカイ,0
1933,7360001011862,登記記録の閉鎖等,0,2025-12-17,2025-12-08,サンコー株式会社,,株式会社,沖縄県,那覇市,字松川５６番地１,,47,201,9020062,,,2025-12-08,清算の結了等,,,2015-10-05,1,,,,,サンコー,0
1941,7390002008459,登記記録の閉鎖等,0,2025-12-17,2025-12-15,有限会社遠藤組,,有限会社,山形県,東田川郡庄内町,余目字山谷７１番地,,06,428,9997781,,,2025-12-15,清算の結了等,,,2015-10-05,1,,,,,エンドウグミ,0
1943,7400001006767,登記記録の閉鎖等,0,2025-12-17,2025-12-08,株式会社三成食品遠野,,株式会社,岩手県,遠野市,松崎町白岩２５地割１９番１,,03,208,0280541,,,2025-12-08,清算の結了等,,,2015-10-05,1,,,,,ミツナリショクヒントオノ,0
1947,7420001001997,登記記録の閉鎖等,0,2025-12-17,2025-12-12,株式会社シー・ジー・シー,,株式会社,青森県,青森市,問屋町１丁目９番６号,,02,201,0300131,,,2025-12-12,清算の結了等,,,2015-10-05,1,,,,,シージーシー,0
1962,7470001009680,登記記録の閉鎖等,0,2025-12-17,2025-12-12,瀬戸内金属株式会社,,株式会社,香川県,仲多度郡多度津町,桜川１丁目９番３号,,37,404,7640012,,,2025-12-12,清算の結了等,,,2015-10-05,1,,,,,セトウチキンゾク,0
1972,8010001241618,登記記録の閉鎖等,0,2025-12-17,2025-12-01,株式会社大日精化保険サービス,,株式会社,東京都,中央区,日本橋馬喰町１丁目７番６号,,13,102,1030002,,,2025-12-01,清算の結了等,,,2024-01-19,1,,,,,ダイニチセイカホケンサービス,0
1979,8010003012975,登記記録の閉鎖等,0,2025-12-17,2025-11-27,御堂筋マネージメント合同会社,,合同会社,東京都,港区,虎ノ門３丁目２２番１０－２０１号,,13,103,1050001,,,2025-11-27,清算の結了等,,,2015-10-05,1,,,,,ミドウスジマネージメント,0
1980,8010003046932,登記記録の閉鎖等,0,2025-12-17,2025-12-02,合同会社ＭＡＴＳＵＲＩ,,合同会社,東京都,中央区,京橋２丁目１２番６号ＡＯＪ税理士法人内,,13,102,1040031,,,2025-12-02,清算の結了等,,,2025-04-03,1,,,,,マツリ,0
1989,8010403018647,登記記録の閉鎖等,0,2025-12-17,2025-11-28,合同会社タイガー１,,合同会社,東京都,港区,西新橋１丁目２番９号メンターキャピタル税理士法人内,,13,103,1050003,,,2025-11-28,清算の結了等,,,2018-05-25,1,,,,,タイガーワン,0
2018,8011003014128,登記記録の閉鎖等,0,2025-12-17,2025-11-11,アン‐ヤル合同会社,,合同会社,東京都,渋谷区,道玄坂１丁目１０番８号渋谷道玄坂東急ビル２Ｆ－Ｃ,,13,113,1500043,,,2025-11-11,清算の結了等,,,2022-02-02,1,,,,,アンヤル,0
2030,8011305002268,登記記録の閉鎖等,0,2025-12-17,2025-12-10,特定非営利活動法人くらしの助っ人,,その他の設立登記法人,東京都,杉並区,上高井戸１丁目８番２０号第一島田ビル４０２,,13,115,1680074,,,2025-12-10,清算の結了等,,,2015-11-26,1,,,,,クラシノスケット,0
2037,8011802023238,登記記録の閉鎖等,0,2025-12-17,2025-12-10,有限会社トロワフィーユ,,有限会社,東京都,足立区,西竹の塚２丁目４番１６号,,13,121,1210822,,,2025-12-10,清算の結了等,,,2015-10-05,1,,,,,,0
2054,8020001161914,登記記録の閉鎖等,0,2025-12-17,2025-12-12,ファーイースト・リミテッド株式会社,,株式会社,神奈川県,横浜市南区,唐沢１８番地,,14,105,2320034,,,2025-12-12,清算の結了等,,,2025-03-17,1,,,,,ファーイーストリミテッド,0
2066,8030001028286,登記記録の閉鎖等,0,2025-12-17,2025-12-11,セレブラルダイナミックス株式会社,,株式会社,埼玉県,所沢市,上新井３丁目４４番地の１５,,11,208,3591142,,,2025-12-11,清算の結了等,,,2015-10-05,1,,,,,セレブラルダイナミックス,0
2068,8030001131734,登記記録の閉鎖等,0,2025-12-17,2025-12-09,株式会社ヒカリ物流,,株式会社,埼玉県,入間郡三芳町,大字藤久保２８９番地１,,11,324,3540041,,,2025-12-09,清算の結了等,,,2019-07-02,1,,,,,ヒカリブツリュウ,0
2070,8030001159222,登記記録の閉鎖等,0,2025-12-17,2025-12-09,スタッフワン株式会社,,株式会社,埼玉県,所沢市,小手指町４丁目１３番地の２０,,11,208,3591141,,,2025-12-09,清算の結了等,,,2024-03-18,1,,,,,スタッフワン,0
2122,8122002015056,登記記録の閉鎖等,0,2025-12-17,2025-12-09,有限会社山喜商店,,有限会社,大阪府,八尾市,神宮寺１丁目１番地の２,,27,212,5810885,,,2025-12-09,清算の結了等,,,2015-10-05,1,,,,,ヤマキショウテン,0
2126,8140001063669,登記記録の閉鎖等,0,2025-12-17,2025-12-11,山本製箸株式会社,00039887,株式会社,兵庫県,神崎郡福崎町,西田原１１４２番地２,,28,443,6792204,,,2025-12-11,清算の結了等,,,2015-10-05,1,,,,,ヤマモトセイハシ,0
2153,8180002029392,登記記録の閉鎖等,0,2025-12-17,2025-12-12,有限会社山本商店,,有限会社,愛知県,名古屋市中村区,千原町４番７号,,23,105,4530011,,,2025-12-12,清算の結了等,,,2015-10-05,1,,,,,ヤマモトショウテン,0
2157,8180301021050,登記記録の閉鎖等,0,2025-12-17,2025-12-11,株式会社須藤,,株式会社,愛知県,豊田市,土橋町４丁目６７番地,,23,211,4710842,,,2025-12-11,合併による解散等,8180303002478,令和７年１２月９日愛知県豊田市土橋町四丁目６７番地合資会社ひふみ商店（8180303002478）に合併し解散,2015-10-05,1,,,,,スドウ,0
2172,8240001020783,登記記録の閉鎖等,0,2025-12-17,2025-11-26,株式会社佐藤商店,,株式会社,千葉県,浦安市,北栄１丁目１６番１６号,,12,227,2790002,,,2025-11-26,清算の結了等,,,2015-10-05,1,,,,,サトウショウテン,0
2176,8240002048007,登記記録の閉鎖等,0,2025-12-17,2025-12-12,有限会社クリスタル,,有限会社,広島県,安芸郡府中町,宮の町３丁目６番１１号,,34,302,7350005,,,2025-12-12,清算の結了等,,,2015-10-05,1,,,,,クリスタル,0
2181,8270005003237,登記記録の閉鎖等,0,2025-12-17,2025-12-16,皆生温泉旅館業協同組合,,その他の設立登記法人,鳥取県,米子市,皆生温泉４丁目２９番１０号,,31,202,6830001,,,2025-12-16,清算の結了等,,,2015-10-05,1,,,,,カイケオンセンリョカンギョウ,0
2198,8300002007939,登記記録の閉鎖等,0,2025-12-17,2025-12-12,有限会社伊万里中央保険,,有限会社,佐賀県,伊万里市,東山代町里５７６番地３,,41,205,8494282,,,2025-12-12,清算の結了等,,,2015-10-05,1,,,,,イマリチュウオウホケン,0
2201,8310003003746,登記記録の閉鎖等,0,2025-12-17,2025-12-15,合同会社ウェルス,,合同会社,長崎県,佐世保市,谷郷町１番２４号,,42,202,8570027,,,2025-12-15,清算の結了等,,,2019-10-04,1,,,,,ウェルス,0
2204,8320005007216,登記記録の閉鎖等,0,2025-12-17,2025-12-11,農事組合法人扇山農園,,その他の設立登記法人,大分県,玖珠郡九重町,大字田野２４１５番地の２５９,,44,461,8794911,,,2025-12-11,清算の結了等,,,2015-10-05,1,,,,,オオギヤマノウエン,0
2218,8370002010696,登記記録の閉鎖等,0,2025-12-17,2025-12-11,有限会社車田総合経営,,有限会社,宮城県,仙台市青葉区,通町２丁目１番１４号,,04,101,9810915,,,2025-12-11,清算の結了等,,,2015-10-05,1,,,,,クルマダソウゴウケイエイ,0
2226,8390002001132,登記記録の閉鎖等,0,2025-12-17,2025-12-16,有限会社三栄印刷,,有限会社,山形県,山形市,大字下東山１０９５番地１,,06,201,9902232,,,2025-12-16,清算の結了等,,,2015-10-05,1,,,,,,0
2228,8400002003283,登記記録の閉鎖等,0,2025-12-17,2025-12-09,有限会社村井金物店,,有限会社,岩手県,盛岡市,南大通３丁目１２番５２号,,03,201,0200874,,,2025-12-09,清算の結了等,,,2015-10-05,1,,,,,ムライカナモノテン,0
2230,8420001007358,登記記録の閉鎖等,0,2025-12-17,2025-12-04,株式会社ウッドフッド,,株式会社,青森県,八戸市,小中野８丁目８番１６号,,02,203,0310802,,,2025-12-04,合併による解散等,1420001012505,令和７年１２月１日青森県八戸市小中野八丁目８番１６号みちのく資源開発株式会社（1420001012505）に合併し解散,2015-10-05,1,,,,,ウッドフッド,0
2233,8430001002770,登記記録の閉鎖等,0,2025-12-17,2025-12-09,株式会社エリア,,株式会社,北海道,札幌市清田区,北野六条３丁目７番１７号,,01,110,0040866,,,2025-12-09,清算の結了等,,,2015-10-05,1,,,,,エリア,0
2239,8430002053409,登記記録の閉鎖等,0,2025-12-17,2025-12-11,有限会社よろずや結,,有限会社,北海道,滝川市,東町３丁目１０３番地３５,,01,225,0730024,,,2025-12-11,清算の結了等,,,2015-10-05,1,,,,,ヨロズヤユイ,0
2243,8460301002286,登記記録の閉鎖等,0,2025-12-17,2025-12-16,株式会社コシヤ,,株式会社,北海道,紋別郡遠軽町,大通南２丁目１番地の１４,,01,555,0990416,,,2025-12-16,清算の結了等,,,2015-10-05,1,,,,,コシヤ,0
2244,8480001002584,登記記録の閉鎖等,0,2025-12-17,2025-12-16,鳴門緑地株式会社,,株式会社,徳島県,名西郡石井町,藍畑字高畑５４２番地の１,,36,341,7793213,,,2025-12-16,清算の結了等,,,2015-10-05,1,,,,,ナルトリョクチ,0
2269,9010005034100,登記記録の閉鎖等,0,2025-12-17,2025-12-15,一般社団法人エステック戸畑,,その他の設立登記法人,東京都,中央区,京橋２丁目７番１９号,,13,102,1040031,,,2025-12-15,清算の結了等,,,2021-10-18,1,,,,,エステックトバタ,0
2280,9010405009593,登記記録の閉鎖等,0,2025-12-17,2025-12-12,一般社団法人リキッドテン,,その他の設立登記法人,東京都,千代田区,丸の内１丁目４番１号東京共同会計事務所内,,13,101,1000005,,,2025-12-12,清算の結了等,,,2015-10-05,1,,,,,リキッドテン,0
2300,9011001123821,登記記録の閉鎖等,0,2025-12-17,2025-11-25,株式会社Ｚ世代キャリア,,株式会社,東京都,渋谷区,広尾１丁目１－３９恵比寿プライムスクエアタワー５Ｆ,,13,113,1500012,,,2025-11-25,清算の結了等,,,2018-08-23,1,,,,,ゼットセダイキャリア,0
2327,9012301000157,登記記録の閉鎖等,0,2025-12-17,2025-12-05,株式会社旭ホーム,,株式会社,東京都,町田市,中町２丁目２番１０号,,13,209,1940021,,,2025-12-05,清算の結了等,,,2015-10-05,1,,,,,,0
2330,9012301012227,登記記録の閉鎖等,0,2025-12-17,2025-12-08,株式会社ジーエヌシー,,株式会社,東京都,町田市,中町１丁目２番５号ＳＨＥＬＬＭＩＹＡＫＯＶ３Ｆ,,13,209,1940021,,,2025-12-08,清算の結了等,,,2020-08-14,1,,,,,ジーエヌシー,0
2332,9012702003584,登記記録の閉鎖等,0,2025-12-17,2025-12-09,有限会社美樹,,有限会社,東京都,東村山市,栄町２丁目２０番２５号,,13,213,1890013,,,2025-12-09,清算の結了等,,,2015-10-05,1,,,,,ミキ,0
2335,9013201013422,登記記録の閉鎖等,0,2025-12-17,2025-11-25,株式会社ブランズ,,株式会社,東京都,目黒区,碑文谷４丁目２３番１３－７０６号,,13,110,1520003,,,2025-11-25,清算の結了等,,,2015-10-05,1,,,,,ブランズ,0
2340,9020001005608,登記記録の閉鎖等,0,2025-12-17,2025-12-10,株式会社丸子,,株式会社,神奈川県,横浜市旭区,笹野台４丁目３６番１０号,,14,112,2410816,,,2025-12-10,清算の結了等,,,2015-10-05,1,,,,,マルコ,0
2347,9020002007421,登記記録の閉鎖等,0,2025-12-17,2025-12-10,有限会社アイゼン葬儀社,,有限会社,神奈川県,横浜市金沢区,釜利谷東２丁目１３番１２号,,14,108,2360042,,,2025-12-10,清算の結了等,,,2015-10-05,1,,,,,アイゼンソウギシャ,0
2356,9021001067828,登記記録の閉鎖等,0,2025-12-17,2025-12-01,株式会社相澤商事,,株式会社,神奈川県,藤沢市,川名１８１番地の１８Ｂ－７１５,,14,205,2510015,,,2025-12-01,清算の結了等,,,2019-07-26,1,,,,,アイザワショウジ,0
2357,9021002051401,登記記録の閉鎖等,0,2025-12-17,2025-12-01,有限会社楓,,有限会社,神奈川県,小田原市,本町３丁目４番１３号,,14,206,2500012,,,2025-12-01,清算の結了等,,,2015-10-05,1,,,,,カエデ,0
2360,9030001014574,登記記録の閉鎖等,0,2025-12-17,2025-12-08,株式会社狼煙,,株式会社,東京都,品川区,東五反田５丁目１０番１８号,,13,109,1410022,,,2025-12-08,合併による解散等,6430002033981,令和７年１２月１日東京都品川区東五反田五丁目１０番１８号株式会社クリエイト・ヌードルズ（6430002033981）に合併し解散,2015-10-05,1,,,,,ノロシ,0
2367,9030001081524,登記記録の閉鎖等,0,2025-12-17,2025-12-10,株式会社ダイアップ,,株式会社,埼玉県,川口市,安行出羽３丁目１１番１６号,,11,203,3340052,,,2025-12-10,清算の結了等,,,2015-10-05,1,,,,,ダイアップ,0
2376,9030002030505,登記記録の閉鎖等,0,2025-12-17,2025-12-10,有限会社なかむら,,有限会社,埼玉県,所沢市,大字山口１２０７番地,,11,208,3591145,,,2025-12-10,清算の結了等,,,2015-10-05,1,,,,,ナカムラ,0
2385,9060001031402,登記記録の閉鎖等,0,2025-12-17,2025-12-15,株式会社匠工業,,株式会社,栃木県,宇都宮市,西川田町９５０番地１,,09,201,3210151,,,2025-12-15,清算の結了等,,,2019-03-14,1,,,,,タクミコウギョウ,0
2390,9080402018525,登記記録の閉鎖等,0,2025-12-17,2025-12-15,有限会社アートスピード,,有限会社,静岡県,菊川市,加茂５４３６番地,,22,224,4390031,,,2025-12-15,清算の結了等,,,2015-10-05,1,,,,,,0
2394,9110001016991,登記記録の閉鎖等,0,2025-12-17,2025-12-11,株式会社リアルホーム,,株式会社,新潟県,長岡市,富島町１３番地３,,15,202,9400881,,,2025-12-11,清算の結了等,,,2015-10-05,1,,,,,リアルホーム,0
2395,9110001026090,登記記録の閉鎖等,0,2025-12-17,2025-12-08,アプリエコ株式会社,,株式会社,新潟県,長岡市,末広２丁目３番３号,,15,202,9400834,,,2025-12-08,清算の結了等,,,2015-10-05,1,,,,,アプリエコ,0
2404,9120001199729,登記記録の閉鎖等,0,2025-12-17,2025-12-01,クロスフィットジャパン株式会社,,株式会社,大阪府,大阪市中央区,久太郎町４丁目２番３号,,27,128,5410056,,,2025-12-01,合併による解散等,6120001115614,令和７年１２月１日大阪市生野区勝山北四丁目１番４８号アスリート株式会社（6120001115614）に合併し解散,2016-07-27,1,,,,,クロスフィットジャパン,0
2422,9120102012955,登記記録の閉鎖等,0,2025-12-17,2025-12-11,有限会社ケイツ,,有限会社,大阪府,堺市西区,平岡町６１番地,,27,144,5938307,,,2025-12-11,清算の結了等,,,2015-10-05,1,,,,,ケイツ,0
2436,9140001096569,登記記録の閉鎖等,0,2025-12-17,2025-12-15,株式会社ＤＡＩｓ,,株式会社,兵庫県,神戸市兵庫区,新開地１丁目４番２６号,,28,105,6520811,,,2025-12-15,清算の結了等,,,2015-10-05,1,,,,,ダイス,0
2438,9140001117614,登記記録の閉鎖等,0,2025-12-17,2025-12-12,株式会社ぐらん,,株式会社,兵庫県,朝来市,和田山町法興寺１８０番地,,28,225,6695267,,,2025-12-12,清算の結了等,,,2020-06-09,1,,,,,グラン,0
2440,9140001126887,登記記録の閉鎖等,0,2025-12-17,2025-12-15,株式会社ファインエステート,,株式会社,兵庫県,明石市,桜町一丁目６番地グリシーヌ桜町１０１号,,28,203,6730885,,,2025-12-15,清算の結了等,,,2022-07-27,1,,,,,ファインエステート,0
2442,9140002039865,登記記録の閉鎖等,0,2025-12-17,2025-12-15,有限会社アルファ商事,,有限会社,鳥取県,米子市,義方町９番１４号,,31,202,6830844,,,2025-12-15,清算の結了等,,,2015-10-05,1,,,,,アルファショウジ,0
2451,9170002000907,登記記録の閉鎖等,0,2025-12-17,2025-12-16,カネマツ物流有限会社,,有限会社,和歌山県,和歌山市,向１１４番地２,,30,201,6408431,,,2025-12-16,清算の結了等,,,2015-10-05,1,,,,,カネマツブツリュウ,0
2453,9180001103362,登記記録の閉鎖等,0,2025-12-17,2025-12-10,株式会社ミヤコ技研,,株式会社,愛知県,一宮市,萩原町串作字下口１番地,,23,203,4910376,,,2025-12-10,清算の結了等,,,2015-10-05,1,,,,,ミヤコギケン,0
2455,9180001159727,登記記録の閉鎖等,0,2025-12-17,2025-12-10,株式会社ｃｏｎｃｏｃｏ,,株式会社,愛知県,名古屋市中区,栄３丁目１９番２７号,,23,106,4600008,,,2025-12-10,清算の結了等,,,2024-01-15,1,,,,,コンココ,0
2457,9180002010343,登記記録の閉鎖等,0,2025-12-17,2025-12-12,有限会社水野鉄工所,,有限会社,愛知県,名古屋市瑞穂区,平郷町６丁目２２番地の３,,23,108,4670879,,,2025-12-12,清算の結了等,,,2015-10-05,1,,,,,ミズノテッコウショ,0
2459,9180002043005,登記記録の閉鎖等,0,2025-12-17,2025-12-10,有限会社ワース,,有限会社,愛知県,名古屋市東区,東桜１丁目８番１３号,,23,102,4610005,,,2025-12-10,清算の結了等,,,2015-10-05,1,,,,,,0
2481,9260005010332,登記記録の閉鎖等,0,2025-12-17,2025-12-11,一般社団法人未来野良,,その他の設立登記法人,岡山県,井原市,青野町１２３５番地,,33,207,7150012,,,2025-12-11,清算の結了等,,,2017-09-25,1,,,,,ミラノラ,0
2487,9290001045585,登記記録の閉鎖等,0,2025-12-17,2025-12-01,下川建設株式会社,,株式会社,福岡県,飯塚市,中３８８番地５,,40,205,8200065,,,2025-12-01,清算の結了等,,,2015-10-05,1,,,,,シモカワケンセツ,0
2492,9290001078131,登記記録の閉鎖等,0,2025-12-17,2025-12-01,プラネット・アカデミー株式会社,,株式会社,福岡県,福岡市早良区,城西２丁目５番２７号１Ｆ,,40,137,8140003,,,2025-12-01,合併による解散等,1290002019298,令和７年１２月１日福岡市早良区城西二丁目５番２７号アメニティ城西１Ｆ株式会社アメニティ企画（1290002019298）に合併し解散,2017-06-07,1,,,,,プラネットアカデミー,0
2496,9290003012955,登記記録の閉鎖等,0,2025-12-17,2025-12-02,合同会社ＭＩＣＨＩＫＵＳＡ,,合同会社,福岡県,福岡市中央区,大名２丁目９‐３５トウセン天神ビル９Ｆ,,40,133,8100041,,,2025-12-02,清算の結了等,,,2022-09-15,1,,,,,ミチクサ,0
2529,9400001000280,登記記録の閉鎖等,0,2025-12-17,2025-12-09,岩医厚生株式会社,,株式会社,岩手県,盛岡市,菜園２丁目８番２０号,,03,201,0200024,,,2025-12-09,清算の結了等,,,2015-10-05,1,,,,,イワイコウセイ,0
2535,9420002019789,登記記録の閉鎖等,0,2025-12-17,2025-12-09,有限会社ひまわり調剤薬局,,有限会社,青森県,むつ市,緑ヶ丘６番１５号,,02,208,0350066,,,2025-12-09,清算の結了等,,,2015-10-05,1,,,,,ヒマワリチョウザイヤッキョク,0
2538,9430002065584,登記記録の閉鎖等,0,2025-12-17,2025-12-10,有限会社富士熱機,,有限会社,北海道,登別市,新生町３丁目２２番地２,,01,230,0590032,,,2025-12-10,清算の結了等,,,2015-10-05,1,,,,,フジネツキ,0
2539,9430003009994,登記記録の閉鎖等,0,2025-12-17,2025-12-08,合同会社ラメール,,合同会社,北海道,札幌市西区,西野五条８丁目４番７号,,01,107,0630035,,,2025-12-08,清算の結了等,,,2018-12-20,1,,,,,ラメール,0
