sequenceNumber,corporateNumber,process,correct,updateDate,changeDate,name,nameImageId,kind,prefectureName,cityName,streetNumber,addressImageId,prefectureCode,cityCode,postCode,addressOutside,addressOutsideImageId,closeDate,closeCause,successorCorporateNumber,changeCause,assignmentDate,latest,enName,enPrefectureName,enCityName,enAddressOutside,furigana,hihyoji
3,1010001230866,新規,0,2022-11-16,2022-11-16,株式会社Ｌｉｎｏｖａ,,株式会社,東京都,中央区,銀座１丁目２２－１１,,13,102,1040061,,,,,,,2022-11-16,1,,,,,リノヴァ,0
4,1010001230899,新規,0,2022-11-16,2022-11-16,ＦＬＯＡＴＢＡＳＥ株式会社,,株式会社,東京都,千代田区,九段南１丁目５番６号りそな九段ビル５ＦＫＳフロア,,13,101,1020074,,,,,,,2022-11-16,1,,,,,フロートベース,0
6,1010003039083,新規,0,2022-11-16,2022-11-16,東京レジ３１合同会社,,合同会社,東京都,千代田区,丸の内３丁目１番１号東京共同会計事務所内,,13,101,1000005,,,,,,,2022-11-16,1,,,,,トウキョウレジサーティワン,0
7,1010101015416,新規,0,2022-11-16,2022-11-16,ＳＫ架設株式会社,,株式会社,東京都,八王子市,石川町８０１番地３,,13,201,1920032,,,,,,,2022-11-16,1,,,,,エスケーカセツ,0
16,1010401170778,新規,0,2022-11-16,2022-11-16,Ｖｅｒｋａｄａ　Ｊａｐａｎ株式会社,,株式会社,東京都,港区,元麻布３丁目１番６号,,13,103,1060046,,,,,,,2022-11-16,1,,,,,ベルカーダジャパン,0
17,1010401170828,新規,0,2022-11-16,2022-11-16,株式会社エヌティエスジャパン,,株式会社,東京都,港区,浜松町１丁目３番２－３５０７号,,13,103,1050013,,,,,,,2022-11-16,1,,,,,エヌティエスジャパン,0
18,1010401170860,新規,0,2022-11-16,2022-11-16,株式会社パーセントライズ,,株式会社,東京都,港区,南青山２丁目２番１５号ウィン青山９４２,,13,103,1070062,,,,,,,2022-11-16,1,,,,,パーセントライズ,0
20,1010403028900,新規,0,2022-11-16,2022-11-16,バンザイ・モーター・ワークス合同会社,,合同会社,東京都,港区,赤坂１丁目３番５号３Ｆ,,13,103,1070052,,,,,,,2022-11-16,1,,,,,バンザイモーターワークス,0
21,1010405021556,新規,0,2022-11-16,2022-11-16,一般社団法人日本ベトナム料理協会,,その他の設立登記法人,東京都,港区,西麻布４丁目４番１２号ニュー西麻布ビル２Ｆ,,13,103,1060031,,,,,,,2022-11-16,1,,,,,ニホンベトナムリョウリキョウカイ,0
22,1010501049641,新規,0,2022-11-16,2022-11-16,株式会社ＳＪ,,株式会社,東京都,台東区,東上野１丁目１８番７号,,13,106,1100015,,,,,,,2022-11-16,1,,,,,エスジェイ,0
24,1010601062156,新規,0,2022-11-16,2022-11-16,株式会社マグベース,,株式会社,東京都,江東区,亀戸４丁目２０番１号,,13,108,1360071,,,,,,,2022-11-16,1,,,,,マグベース,0
25,1010601062172,新規,0,2022-11-16,2022-11-16,蒲公英株式会社,,株式会社,東京都,墨田区,横川３丁目６番７号２－Ｄ室,,13,107,1300003,,,,,,,2022-11-16,1,,,,,タンポポ,0
29,1010901051981,新規,0,2022-11-16,2022-11-16,株式会社ＴＡカンパニー,,株式会社,東京都,世田谷区,祖師谷５丁目４８番１０号,,13,112,1570072,,,,,,,2022-11-16,1,,,,,,0
30,1010903007775,新規,0,2022-11-16,2022-11-16,合同会社仮想定規,,合同会社,東京都,世田谷区,桜上水２丁目１１番２１号,,13,112,1560045,,,,,,,2022-11-16,1,,,,,カソウジョウギ,0
40,1011001150988,新規,0,2022-11-16,2022-11-16,株式会社ｐｏｔｓ,,株式会社,東京都,渋谷区,神泉町２１番１－７０５号,,13,113,1500045,,,,,,,2022-11-16,1,,,,,ポッツ,0
42,1011003015719,新規,0,2022-11-16,2022-11-16,ほへとデザイン合同会社,,合同会社,東京都,渋谷区,道玄坂１丁目１６番６号二葉ビル８ｂ,,13,113,1500043,,,,,,,2022-11-16,1,,,,,ホヘトデザイン,0
48,1011101100876,新規,0,2022-11-16,2022-11-16,株式会社セルフケア整体,,株式会社,東京都,新宿区,百人町１丁目５番４号東都ビル５０２号,,13,104,1690073,,,,,,,2022-11-16,1,,,,,セルフケアセイタイ,0
54,1011403003827,新規,0,2022-11-16,2022-11-16,合同会社大黒天,,合同会社,東京都,板橋区,仲宿４３番１号,,13,119,1730005,,,,,,,2022-11-16,1,,,,,ダイコクテン,0
55,1011501028668,新規,0,2022-11-16,2022-11-16,株式会社ミカンファルマ,,株式会社,東京都,北区,神谷１丁目３０番１号富士マンション４０４号,,13,117,1150043,,,,,,,2022-11-16,1,,,,,ミカンファルマ,0
58,1011701025779,新規,0,2022-11-16,2022-11-16,株式会社日成リース,,株式会社,東京都,江戸川区,東葛西３丁目１７－１５,,13,123,1340084,,,,,,,2022-11-16,1,,,,,ニッセイリース,0
62,1011801041560,新規,0,2022-11-16,2022-11-16,ＫＵＴＥ　ＪＡＰＡＮ株式会社,,株式会社,東京都,足立区,栗原３丁目２６番１号２Ｆ,,13,121,1230842,,,,,,,2022-11-16,1,,,,,クタジャパン,0
63,1011801041569,新規,0,2022-11-16,2022-11-16,佳三商事株式会社,,株式会社,東京都,足立区,東保木間２丁目１番１３号,,13,121,1210063,,,,,,,2022-11-16,1,,,,,ヨシミツショウジ,0
65,1011803005381,新規,0,2022-11-16,2022-11-16,合同会社ヨシヒロ,,合同会社,東京都,足立区,宮城１丁目１番２３－１２０９号,,13,121,1200047,,,,,,,2022-11-16,1,,,,,ヨシヒロ,0
66,1012403005689,新規,0,2022-11-16,2022-11-16,ＴｒｅｅＣｈｉｌｄ合同会社,,合同会社,東京都,府中市,新町１丁目３－３４ニューエクセルＢ１０２,,13,206,1830052,,,,,,,2022-11-16,1,,,,,トゥリーチャイルド,0
75,1020001148983,新規,0,2022-11-16,2022-11-16,株式会社Ｃａｃｈｅ‐Ｃａｃｈｅ,,株式会社,神奈川県,横浜市保土ケ谷区,西谷３丁目１６番３号,,14,106,2400054,,,,,,,2022-11-16,1,,,,,カシュカシュ,0
80,1020003022749,新規,0,2022-11-16,2022-11-16,ＨＡＭ合同会社,,合同会社,神奈川県,川崎市川崎区,本町１１番地２川崎フロンティアビル４階,,14,131,2100000,,,,,,,2022-11-16,1,,,,,エイチエイエム,0
82,1021001077462,新規,0,2022-11-16,2022-11-16,株式会社ＡＳＡ,,株式会社,神奈川県,小田原市,国府津２丁目３－２３,,14,206,2560812,,,,,,,2022-11-16,1,,,,,,0
83,1021001077470,新規,0,2022-11-16,2022-11-16,株式会社正明,,株式会社,神奈川県,綾瀬市,深谷中３丁目９番５８号,,14,218,2521107,,,,,,,2022-11-16,1,,,,,セイメイ,0
88,1030001151053,新規,0,2022-11-16,2022-11-16,惠の国株式会社,,株式会社,埼玉県,所沢市,小手指町４丁目２５番２０号共栄ビル２０２,,11,208,3591141,,,,,,,2022-11-16,1,,,,,メグミノクニ,0
89,1030001151078,新規,0,2022-11-16,2022-11-16,株式会社レニアン,,株式会社,埼玉県,越谷市,登戸町７番２４号,,11,222,3430846,,,,,,,2022-11-16,1,,,,,レニアン,0
90,1030001151086,新規,0,2022-11-16,2022-11-16,ＩＳＥＫＡＩ株式会社,,株式会社,埼玉県,戸田市,上戸田１丁目１７番１９－５０１号,,11,224,3350022,,,,,,,2022-11-16,1,,,,,イセカイ,0
91,1030001151103,新規,0,2022-11-16,2022-11-16,ステラテック株式会社,,株式会社,埼玉県,さいたま市岩槻区,大字笹久保１２３３番地２ソレジオ幸子弐番館１０１,,11,110,3390034,,,,,,,2022-11-16,1,,,,,ステラテック,0
95,1030003020586,新規,0,2022-11-16,2022-11-16,ＳＯＮ　ＴＨＡＣＨ合同会社,,合同会社,埼玉県,川越市,南台３丁目１番地１７南台レジデンス１０１号,,11,201,3501165,,,,,,,2022-11-16,1,,,,,ソンタック,0
100,1040001125898,新規,0,2022-11-16,2022-11-16,株式会社アドハリヤー,,株式会社,千葉県,船橋市,市場３丁目１０番３号１階,,12,204,2730001,,,,,,,2022-11-16,1,,,,,アドハリヤー,0
101,1040001125907,新規,0,2022-11-16,2022-11-16,株式会社ＫＡＥＤＥ,,株式会社,千葉県,千葉市中央区,南町１丁目１３－１７ポレスター蘇我２０３号,,12,101,2600842,,,,,,,2022-11-16,1,,,,,カエデ,0
106,1040003021286,新規,0,2022-11-16,2022-11-16,ＨＩＧＨ　ＳＴＲＥＥＴ合同会社,,合同会社,千葉県,東金市,日吉台１丁目２番地１０Ａ,,12,213,2830803,,,,,,,2022-11-16,1,,,,,ハイストリート,0
112,1080001025302,新規,0,2022-11-16,2022-11-16,株式会社アクトヴァン,,株式会社,静岡県,静岡市清水区,有東坂４５１番地の２,,22,103,4240873,,,,,,,2022-11-16,1,,,,,アクトヴァン,0
123,1110001037120,新規,0,2022-11-16,2022-11-16,Ｂｅｌｌｅ　Ｓｔａｇｅ株式会社,,株式会社,新潟県,上越市,大字土橋１１５４番地１ワグリオフィスＤ,,15,222,9430821,,,,,,,2022-11-16,1,,,,,ベルステージ,0
131,1120001250218,新規,0,2022-11-16,2022-11-16,あんコーポレーション株式会社,,株式会社,大阪府,大阪市北区,梅田１丁目１番３号大阪駅前第３ビル２９階１－１－１号室,,27,127,5300001,,,,,,,2022-11-16,1,,,,,アンコーポレーション,0
132,1120001250226,新規,0,2022-11-16,2022-11-16,株式会社ａｉ,,株式会社,大阪府,大阪市中央区,淡路町３丁目５番１３号創建御堂筋ビル２階,,27,128,5410047,,,,,,,2022-11-16,1,,,,,エーアイ,0
133,1120001250358,新規,0,2022-11-16,2022-11-16,ＰＲＯＪＥＣＴ　Ａ株式会社,,株式会社,大阪府,大阪市北区,芝田２丁目７番１８号,,27,127,5300012,,,,,,,2022-11-16,1,,,,,プロジェクトエー,0
134,1120001250390,新規,0,2022-11-16,2022-11-16,株式会社Ｌｉｎｏ　Ｒｅａｌ　Ｅｓｔａｔｅ,,株式会社,大阪府,大阪市西区,阿波座１丁目３番１８号,,27,106,5500011,,,,,,,2022-11-16,1,,,,,リノリアルエステート,0
149,1120901046756,新規,0,2022-11-16,2022-11-16,株式会社カムラッド,,株式会社,大阪府,箕面市,外院３丁目３２番９号,,27,220,5620026,,,,,,,2022-11-16,1,,,,,カムラッド,0
157,1130001073114,新規,0,2022-11-16,2022-11-16,株式会社ブレベット情報サービス,,株式会社,京都府,京都市西京区,上桂前川町１１６番地,,26,111,6158211,,,,,,,2022-11-16,1,,,,,ブレベットジョウホウサービス,0
164,1140001128098,新規,0,2022-11-16,2022-11-16,株式会社Ｇｒａｎｄ　Ｂｌｅｕ,,株式会社,兵庫県,神戸市西区,北別府５丁目２８番地の４ハイツサンフレア１－Ｂ,,28,111,6512117,,,,,,,2022-11-16,1,,,,,グランブルー,0
166,1140003018371,新規,0,2022-11-16,2022-11-16,合同会社まるまる,,合同会社,兵庫県,加東市,北野３０３番地１,,28,228,6790205,,,,,,,2022-11-16,1,,,,,マルマル,0
168,1150001025955,新規,0,2022-11-16,2022-11-16,恒和金属株式会社,,株式会社,奈良県,天理市,福住町４５２３番地の２,,29,204,6320122,,,,,,,2022-11-16,1,,,,,コウワキンゾク,0
178,1180001153877,新規,0,2022-11-16,2022-11-16,株式会社リンクシア,,株式会社,愛知県,小牧市,新町１丁目１４７番地,,23,219,4850013,,,,,,,2022-11-16,1,,,,,リンクシア,0
180,1180003024498,新規,0,2022-11-16,2022-11-16,合同会社ＮｅｏＢａｓｅ,,合同会社,愛知県,名古屋市東区,代官町３１番１４号ソレーユ代官町２０１号,,23,102,4610002,,,,,,,2022-11-16,1,,,,,ネオベース,0
194,1190003004144,新規,0,2022-11-16,2022-11-16,合同会社Ｎａｔｉｖｅ　Ａｓｉａｎ　Ｄｙｎａｍｉｓｍ,,合同会社,三重県,多気郡明和町,大字行部５９７番地５,,24,442,5150354,,,,,,,2022-11-16,1,,,,,ネイティブアジアンダイナミズム,0
196,1200003005743,新規,0,2022-11-16,2022-11-16,合同会社無人フーズ,,合同会社,岐阜県,可児市,広見５丁目４３番,,21,214,5090214,,,,,,,2022-11-16,1,,,,,ムジンフーズ,0
201,1240001060670,新規,0,2022-11-16,2022-11-16,株式会社久保崎屋,,株式会社,広島県,広島市佐伯区,海老山町２番１５号,,34,108,7315134,,,,,,,2022-11-16,1,,,,,クボサキヤ,0
208,1250003003180,新規,0,2022-11-16,2022-11-16,合同会社ＴＲＥＦＬＥ　ＣＲＥＡＴＩＯＮ,,合同会社,山口県,下関市,彦島福浦町２丁目２２－１９,,35,201,7500087,,,,,,,2022-11-16,1,,,,,トレフルクリエーション,0
210,1290001099589,新規,0,2022-11-16,2022-11-16,株式会社健誠工業,,株式会社,福岡県,小郡市,希みが丘４丁目５番地１２,,40,216,8380107,,,,,,,2022-11-16,1,,,,,ケンセイコウギョウ,0
211,1290001099597,新規,0,2022-11-16,2022-11-16,Ｅ‐ＴＥＣＨ株式会社,,株式会社,福岡県,久留米市,西町１２２５番地１,,40,203,8300038,,,,,,,2022-11-16,1,,,,,イーテック,0
212,1290001099606,新規,0,2022-11-16,2022-11-16,諸藤工業株式会社,,株式会社,福岡県,那珂川市,今光１丁目７５番地,,40,231,8111211,,,,,,,2022-11-16,1,,,,,モロフジコウギョウ,0
213,1290003013201,新規,0,2022-11-16,2022-11-16,合同会社うまかアサリ,,合同会社,福岡県,福岡市博多区,千代１丁目３０番２４－１２１５号,,40,132,8120044,,,,,,,2022-11-16,1,,,,,ウマカアサリ,0
220,1310001018117,新規,0,2022-11-16,2022-11-16,株式会社ライル,,株式会社,長崎県,諫早市,宇都町３番５０号,,42,204,8540061,,,,,,,2022-11-16,1,,,,,ライル,0
239,1380003005321,新規,0,2022-11-16,2022-11-16,合同会社天鏡エナジー,,合同会社,福島県,耶麻郡猪苗代町,大字川桁字家ノ前３６１４番地,,07,408,9692663,,,,,,,2022-11-16,1,,,,,テンキョウエナジー,0
252,1700150112944,新規,0,2022-11-16,2022-11-16,青島築城建築咨詢有限公司駐日事務所,,外国会社等,東京都,中央区,明石町５－１３シャルマン築地明石町４１７,,13,102,1040044,中華人民共和国,,,,,,2022-11-16,1,,,,,セイトウチクジヨウケンチクシシユンユウゲンコウシチユウニチジムシヨ,0
256,2010001230741,新規,0,2022-11-16,2022-11-16,株式会社ＣＥＥＳＡＷ,,株式会社,東京都,千代田区,岩本町３丁目３番８号２１６,,13,101,1010032,,,,,,,2022-11-16,1,,,,,シーソー,0
257,2010001230857,新規,0,2022-11-16,2022-11-16,住友生命第３回劣後ローン流動化株式会社,,株式会社,東京都,千代田区,丸の内３丁目１番１号東京共同会計事務所内,,13,101,1000005,,,,,,,2022-11-16,1,,,,,スミトモセイメイダイサンカイレツゴローンリュウドウカ,0
258,2010001230907,新規,0,2022-11-16,2022-11-16,サニトレ株式会社,,株式会社,東京都,千代田区,内神田２丁目３番６号,,13,101,1010047,,,,,,,2022-11-16,1,,,,,サニトレ,0
260,2010003039082,新規,0,2022-11-16,2022-11-16,東京レジ３２合同会社,,合同会社,東京都,千代田区,丸の内３丁目１番１号東京共同会計事務所内,,13,101,1000005,,,,,,,2022-11-16,1,,,,,トウキョウレジサーティツー,0
261,2010003039099,新規,0,2022-11-16,2022-11-16,ＡＤＤエナジー１号合同会社,,合同会社,東京都,千代田区,神田練塀町３番地,,13,101,1010022,,,,,,,2022-11-16,1,,,,,エーディーディーエナジーイチゴウ,0
262,2010003039108,新規,0,2022-11-16,2022-11-16,合同会社ＩＴＳ,,合同会社,東京都,文京区,弥生２丁目１６－４,,13,105,1130032,,,,,,,2022-11-16,1,,,,,アイティーエス,0
265,2010101015407,新規,0,2022-11-16,2022-11-16,株式会社Ｎｅｏ建設,,株式会社,東京都,八王子市,川口町４９４番地３,,13,201,1930801,,,,,,,2022-11-16,1,,,,,ネオケンセツ,0
270,2010401170703,新規,0,2022-11-16,2022-11-16,デジタルフロント株式会社,,株式会社,東京都,港区,南青山２丁目２－１５ＷＩＮ青山５３１,,13,103,1070062,,,,,,,2022-11-16,1,,,,,デジタルフロント,0
271,2010401170884,新規,0,2022-11-16,2022-11-16,株式会社ＳＬＩＴ,,株式会社,東京都,港区,六本木７丁目８番６号ＡＸＡＬＬ・ＲＯＰＰＯＮＧＩ,,13,103,1060032,,,,,,,2022-11-16,1,,,,,スリット,0
272,2010403028899,新規,0,2022-11-16,2022-11-16,合同会社Ｐｌａｔｒｉ,,合同会社,東京都,港区,芝浦２丁目６番１１－１４０５号,,13,103,1080023,,,,,,,2022-11-16,1,,,,,プラトリ,0
274,2010405021555,新規,0,2022-11-16,2022-11-16,一般社団法人ＳＤＧｓ　ＪＡＰＡＮアスリート支援機構,,その他の設立登記法人,東京都,港区,虎ノ門５丁目１１番１３号虎ノ門ＲＩＣＨビル２階,,13,103,1050001,,,,,,,2022-11-16,1,,,,,エスディージーズジャパンアスリートシエンキコウ,0
275,2010501049640,新規,0,2022-11-16,2022-11-16,大洋隆盛株式会社,,株式会社,東京都,台東区,上野３丁目１６番２号天翔上野末広町ビル５０５－Ｆ号室,,13,106,1100005,,,,,,,2022-11-16,1,,,,,タイヨウリュウセイ,0
288,2010901051972,新規,0,2022-11-16,2022-11-16,株式会社ＨｉＶＥ,,株式会社,東京都,世田谷区,代田５丁目３１番１６号,,13,112,1550033,,,,,,,2022-11-16,1,,,,,ハイヴ,0
289,2010901051980,新規,0,2022-11-16,2022-11-16,株式会社イテカニ,,株式会社,東京都,世田谷区,駒沢２丁目２１番１６号,,13,112,1540012,,,,,,,2022-11-16,1,,,,,,0
292,2010903007774,新規,0,2022-11-16,2022-11-16,合同会社ｖｉｔａｆｅｌｉｃｅ．ｅ,,合同会社,東京都,世田谷区,玉川３丁目２０－２マノア玉川第３、５０１号室,,13,112,1580094,,,,,,,2022-11-16,1,,,,,,0
295,2011001150987,新規,0,2022-11-16,2022-11-16,株式会社ａｌａｎｉｚｅ,,株式会社,東京都,渋谷区,恵比寿１丁目２１番１０号,,13,113,1500013,,,,,,,2022-11-16,1,,,,,アラナイズ,0
296,2011001151011,新規,0,2022-11-16,2022-11-16,Ｅｎｔｒｙ　Ｄｏｏｒ株式会社,,株式会社,東京都,渋谷区,道玄坂１丁目１０番８号渋谷東急ビル２Ｆ－Ｃ,,13,113,1500043,,,,,,,2022-11-16,1,,,,,エントリードア,0
299,2011101100883,新規,0,2022-11-16,2022-11-16,ＭＥＴＡ　Ｚ株式会社,,株式会社,東京都,新宿区,新宿５丁目１４－１２－５０５号室,,13,104,1600022,,,,,,,2022-11-16,1,,,,,メタゼット,0
306,2011701025778,新規,0,2022-11-16,2022-11-16,株式会社ラポリア,,株式会社,東京都,江戸川区,大杉１丁目２２番２－５０３号ライオンズマンション小岩大杉公園,,13,123,1320022,,,,,,,2022-11-16,1,,,,,ラポリア,0
307,2011701025794,新規,0,2022-11-16,2022-11-16,桓景株式会社,,株式会社,東京都,江戸川区,松江２丁目１－１３－３０４号室,,13,123,1320025,,,,,,,2022-11-16,1,,,,,カンケイ,0
312,2012403005688,新規,0,2022-11-16,2022-11-16,合同会社チューチューカンパニー,,合同会社,東京都,三鷹市,井口３丁目２番１５号ハイネス福寿１０２,,13,204,1810011,,,,,,,2022-11-16,1,,,,,チューチューカンパニー,0
315,2013301049942,新規,0,2022-11-16,2022-11-16,ファイズ株式会社,,株式会社,東京都,豊島区,東池袋１丁目３０番６号セイコーサンシャインビルＸＩＩ９階,00128502,13,116,1700013,,,,,,,2022-11-16,1,,,,,ファイズ,0
327,2020001148850,新規,0,2022-11-16,2022-11-16,シルエットジャパン株式会社,,株式会社,神奈川県,横浜市戸塚区,品濃町５０３番１０号,,14,110,2440801,,,,,,,2022-11-16,1,,,,,シルエットジャパン,0
328,2020001148999,新規,0,2022-11-16,2022-11-16,株式会社雲昇内装,,株式会社,神奈川県,川崎市幸区,南幸町２丁目５０番地１,,14,132,2120016,,,,,,,2022-11-16,1,,,,,ウンショウナイソウ,0
330,2020003022475,新規,0,2022-11-16,2022-11-16,水熊印合同会社,,合同会社,神奈川県,川崎市宮前区,野川台１丁目１０番２９号,,14,136,2160043,,,,,,,2022-11-16,1,,,,,ミズクマジルシ,0
331,2020003022748,新規,0,2022-11-16,2022-11-16,Ｗｉｓｅ　Ｍａｐ合同会社,,合同会社,神奈川県,横浜市西区,北幸２丁目１０－２８むつみビル３Ｆ,,14,103,2200004,,,,,,,2022-11-16,1,,,,,ワイズマップ,0
335,2021001077478,新規,0,2022-11-16,2022-11-16,株式会社ａ‐ｐｌａｎ,,株式会社,神奈川県,相模原市中央区,大野台３丁目１番１７号,,14,152,2520251,,,,,,,2022-11-16,1,,,,,エープラン,0
342,2030001151085,新規,0,2022-11-16,2022-11-16,株式会社ランアンドガン,,株式会社,埼玉県,蕨市,中央７丁目５６－１４,,11,223,3350004,,,,,,,2022-11-16,1,,,,,ランアンドガン,0
343,2030001151093,新規,0,2022-11-16,2022-11-16,株式会社よろずや,,株式会社,埼玉県,川越市,新宿町１丁目１７－１７ウエスタ川越５１９号,,11,201,3501124,,,,,,,2022-11-16,1,,,,,ヨロズヤ,0
344,2030001151102,新規,0,2022-11-16,2022-11-16,Ｈａｌｇａｉ　Ｊａｐａｎ株式会社,,株式会社,埼玉県,川口市,元郷２丁目１４番１７－２号,,11,203,3320011,,,,,,,2022-11-16,1,,,,,ハルガイジャパン,0
349,2030003020536,新規,0,2022-11-16,2022-11-16,ＳＷＯＲＫ合同会社,,合同会社,埼玉県,戸田市,新曽南３丁目６番１－４２１号,,11,224,3350026,,,,,,,2022-11-16,1,,,,,エスワーク,0
353,2040001125872,新規,0,2022-11-16,2022-11-16,株式会社ＭＫ,,株式会社,千葉県,市川市,曽谷３丁目２９番１３号（ハイネスブリッヂＢ－１０１号）,,12,203,2720832,,,,,,,2022-11-16,1,,,,,エムケー,0
354,2040001125897,新規,0,2022-11-16,2022-11-16,株式会社プロキスタジャパン,,株式会社,千葉県,千葉市中央区,新千葉３丁目２番１号１０９号室,,12,101,2600031,,,,,,,2022-11-16,1,,,,,プロキスタジャパン,0
357,2040003021260,新規,0,2022-11-16,2022-11-16,乾坤合同会社,,合同会社,千葉県,我孫子市,布佐３２７５番地１１号２０３号室,,12,222,2701101,,,,,,,2022-11-16,1,,,,,ケンコン,0
358,2040003021285,新規,0,2022-11-16,2022-11-16,合同会社ジェイアールオートトレーディング,,合同会社,千葉県,八街市,東吉田７２５番地東吉田オフィスＡ,,12,230,2891114,,,,,,,2022-11-16,1,,,,,ジェイアールオートトレーディング,0
359,2040003021293,新規,0,2022-11-16,2022-11-16,ＹＵＷＩ　ＭＩＲＡＩ　ＩＮＴＥＲＮＡＴＩＯＮＡＬ合同会社,,合同会社,千葉県,富里市,十倉２４５０－５６,,12,233,2860212,,,,,,,2022-11-16,1,,,,,ユウィミライインターナショナル,0
361,2050001051977,新規,0,2022-11-16,2022-11-16,森食品株式会社,,株式会社,茨城県,つくば市,前野１１３５番地１,,08,220,3003267,,,,,,,2022-11-16,1,,,,,モリショクヒン,0
391,2120001250431,新規,0,2022-11-16,2022-11-16,株式会社ｌｉｍｅｒ,,株式会社,大阪府,大阪市中央区,南船場４丁目１０番５号南船場ＳＯＨＯビル７０２,,27,128,5420081,,,,,,,2022-11-16,1,,,,,リメル,0
396,2120003022804,新規,0,2022-11-16,2022-11-16,合同会社カムサハムニダ,,合同会社,大阪府,大阪市天王寺区,下味原町２番１０号,,27,109,5430025,,,,,,,2022-11-16,1,,,,,カムサハムニダ,0
398,2120005023296,新規,0,2022-11-16,2022-11-16,アミアカルヴァ行政書士法人,,その他の設立登記法人,大阪府,守口市,本町１丁目６番１３号,,27,209,5700028,,,,,,,2022-11-16,1,,,,,アミアカルヴァ,0
405,2130003008323,新規,0,2022-11-16,2022-11-16,合同会社プライムタイム,,合同会社,京都府,京都市西京区,松室北河原町１０６,,26,111,6158204,,,,,,,2022-11-16,1,,,,,プライムタイム,0
412,2140001128097,新規,0,2022-11-16,2022-11-16,株式会社一岡興業,,株式会社,兵庫県,加古川市,志方町原９０４番地,,28,210,6750335,,,,,,,2022-11-16,1,,,,,イチオカコウギョウ,0
413,2140001128106,新規,0,2022-11-16,2022-11-16,エイチプラスナイン株式会社,,株式会社,兵庫県,芦屋市,大桝町１番１８号,,28,206,6590066,,,,,,,2022-11-16,1,,,,,エイチプラスナイン,0
414,2140001128114,新規,0,2022-11-16,2022-11-16,株式会社メンテック,,株式会社,兵庫県,尼崎市,昭和南通５丁目７５番地の１,,28,202,6600882,,,,,,,2022-11-16,1,,,,,メンテック,0
428,2180001153736,新規,0,2022-11-16,2022-11-16,ＥＬＡＮ　ＳＯＬＥＩＬ株式会社,,株式会社,愛知県,名古屋市中村区,中村町６丁目２番地太閤軒ビル１階,,23,105,4530053,,,,,,,2022-11-16,1,,,,,エランソレイユ,0
429,2180001153851,新規,0,2022-11-16,2022-11-16,株式会社アイティオー,,株式会社,愛知県,日進市,梅森台２丁目８８番地１,,23,230,4700133,,,,,,,2022-11-16,1,,,,,アイティオー,0
432,2180003024497,新規,0,2022-11-16,2022-11-16,合同会社オン,,合同会社,愛知県,名古屋市西区,大野木４丁目２４２番地,,23,104,4520803,,,,,,,2022-11-16,1,,,,,オン,0
433,2180005019999,新規,0,2022-11-16,2022-11-16,司法書士法人さくらグループ,,その他の設立登記法人,愛知県,知多郡東浦町,大字緒川字家下１５番地の２,,23,442,4702102,,,,,,,2022-11-16,1,,,,,サクラグループ,0
441,2200003005742,新規,0,2022-11-16,2022-11-16,合同会社Ｆｕｎ　Ｃｏｎｎｅｃｔ,,合同会社,岐阜県,不破郡垂井町,綾戸１０３－７,,21,361,5032112,,,,,,,2022-11-16,1,,,,,ファンコネクト,0
452,2290001099596,新規,0,2022-11-16,2022-11-16,株式会社美昊,,株式会社,福岡県,福津市,西福間２丁目２０番７号,,40,224,8113219,,,,,,,2022-11-16,1,,,,,ビコウ,0
463,2330001030300,新規,0,2022-11-16,2022-11-16,株式会社ＬＥＡＦ,,株式会社,熊本県,熊本市中央区,上鍛冶屋町１２－１コアマンション慶徳１０３号室,,43,101,8600021,,,,,,,2022-11-16,1,,,,,リーフ,0
465,2340003003971,新規,0,2022-11-16,2022-11-16,合同会社灯る日,,合同会社,鹿児島県,鹿児島市,田上６丁目９番７号Ｌｕｃｅ２０３,,46,201,8900034,,,,,,,2022-11-16,1,,,,,トモルヒ,0
473,2370003005899,新規,0,2022-11-16,2022-11-16,合同会社サウザンドリーフ,,合同会社,宮城県,仙台市青葉区,国見ケ丘５丁目３番３４号,,04,101,9893201,,,,,,,2022-11-16,1,,,,,サウザンドリーフ,0
476,2380001033273,新規,0,2022-11-16,2022-11-16,ＧＲＥＥＬＥＹ・ＨＤ株式会社,,株式会社,福島県,郡山市,田村町上行合字辰ノ尾６番地２,,07,203,9630724,,,,,,,2022-11-16,1,,,,,グリーリーエイチディー,0
503,3010001230716,新規,0,2022-11-16,2022-11-16,神源株式会社,,株式会社,東京都,中央区,銀座１丁目１２番４号Ｎ＆ＥＢＬＤ．７階,,13,102,1040061,,,,,,,2022-11-16,1,,,,,カンゲン,0
504,3010001230922,新規,0,2022-11-16,2022-11-16,株式会社ＣＡＨｉＥＲ,,株式会社,東京都,千代田区,平河町１丁目１－８,,13,101,1020093,,,,,,,2022-11-16,1,,,,,カイエ,0
507,3010003039081,新規,0,2022-11-16,2022-11-16,東京レジ３３合同会社,,合同会社,東京都,千代田区,丸の内３丁目１番１号東京共同会計事務所内,,13,101,1000005,,,,,,,2022-11-16,1,,,,,トウキョウレジサーティスリー,0
515,3010401170834,新規,0,2022-11-16,2022-11-16,イレヴンバイツー株式会社,,株式会社,東京都,港区,麻布十番２丁目１６番５号ラ・ピアッツァ麻布十番１００５,,13,103,1060045,,,,,,,2022-11-16,1,,,,,イレヴンバイツー,0
516,3010401170859,新規,0,2022-11-16,2022-11-16,ＡＭダブルブレイン株式会社,,株式会社,東京都,港区,西新橋２丁目８番６号,,13,103,1050003,,,,,,,2022-11-16,1,,,,,エーエムダブルブレイン,0
518,3010403028907,新規,0,2022-11-16,2022-11-16,合同会社リペインティング,,合同会社,東京都,港区,芝大門１丁目１１番８－３０７号,,13,103,1050012,,,,,,,2022-11-16,1,,,,,リペインティング,0
519,3010405021546,新規,0,2022-11-16,2022-11-16,弁護士法人サンライズ・イースト,,その他の設立登記法人,東京都,港区,赤坂５丁目４番１５号ＡＲＡプレイス赤坂８階,,13,103,1070052,,,,,,,2022-11-16,1,,,,,サンライズイースト,0
521,3010503006787,新規,0,2022-11-16,2022-11-16,合同会社マルヤス酒場柏,,合同会社,東京都,台東区,台東２丁目１０番２－３０１号,,13,106,1100016,,,,,,,2022-11-16,1,,,,,マルヤスサカバカシワ,0
523,3010703006439,新規,0,2022-11-16,2022-11-16,合同会社ＧＡＲＭ　ＶＡＬＵＥ,,合同会社,東京都,品川区,東品川４丁目１１－３６－１７２８,,13,109,1400002,,,,,,,2022-11-16,1,,,,,ガームバリュー,0
527,3010901051971,新規,0,2022-11-16,2022-11-16,株式会社ＨＵＩＩＫＵ,,株式会社,東京都,世田谷区,経堂３丁目１６番１３号,,13,112,1560052,,,,,,,2022-11-16,1,,,,,フイイク,0
537,3011001150879,新規,0,2022-11-16,2022-11-16,株式会社Ｓｕｎａｄａ,,株式会社,東京都,渋谷区,広尾３丁目１２番３７号ＣａｓａＶｅｒｄｅ１０２,,13,113,1500012,,,,,,,2022-11-16,1,,,,,スナダ,0
538,3011001151010,新規,0,2022-11-16,2022-11-16,株式会社エイタスリンク,,株式会社,東京都,目黒区,五本木１丁目１６番６号,,13,110,1530053,,,,,,,2022-11-16,1,,,,,エイタスリンク,0
549,3011701025793,新規,0,2022-11-16,2022-11-16,数玄株式会社,,株式会社,東京都,江戸川区,松江２丁目１－１３－３０９号室,,13,123,1320025,,,,,,,2022-11-16,1,,,,,スウゲン,0
551,3011801041559,新規,0,2022-11-16,2022-11-16,ＱＣＤ　ＪＡＰＡＮ株式会社,,株式会社,東京都,足立区,栗原３丁目２６番１号２Ｆ,,13,121,1230842,,,,,,,2022-11-16,1,,,,,キューシーディージャパン,0
552,3011801041567,新規,0,2022-11-16,2022-11-16,株式会社パックス,,株式会社,東京都,足立区,伊興４丁目１番３２号アルシオン竹ノ塚１０２,,13,121,1210823,,,,,,,2022-11-16,1,,,,,パックス,0
562,3013301049941,新規,0,2022-11-16,2022-11-16,ＬＩＦＥＬＩＮＥ株式会社,,株式会社,東京都,豊島区,上池袋１丁目１４番２号,,13,116,1700012,,,,,,,2022-11-16,1,,,,,ライフライン,0
568,3020001149006,新規,0,2022-11-16,2022-11-16,Ｓｔｅｌｌａ株式会社,,株式会社,神奈川県,川崎市中原区,上平間１７１番地ドルフ平間６０２,,14,133,2110013,,,,,,,2022-11-16,1,,,,,ステラ,0
569,3020001149014,新規,0,2022-11-16,2022-11-16,株式会社三輪,,株式会社,神奈川県,横浜市鶴見区,仲通１丁目５４番地１０パールハイツ３０１,,14,101,2300042,,,,,,,2022-11-16,1,,,,,ミワ,0
578,3021001077485,新規,0,2022-11-16,2022-11-16,Ｔ’ｓエンターテイメント株式会社,,株式会社,神奈川県,平塚市,紅谷町６番３０号第二古木ビル２階,,14,203,2540043,,,,,,,2022-11-16,1,,,,,ティーズエンターテイメント,0
579,3021003012390,新規,0,2022-11-16,2022-11-16,フレンドフィールド合同会社,,合同会社,神奈川県,茅ヶ崎市,美住町１８番３７号,,14,207,2530023,,,,,,,2022-11-16,1,,,,,フレンドフィールド,0
586,3030001151084,新規,0,2022-11-16,2022-11-16,株式会社テルミホールディングス,,株式会社,埼玉県,さいたま市見沼区,東大宮５丁目３５番地１０,,11,104,3370051,,,,,,,2022-11-16,1,,,,,テルミホールディングス,0
590,3030005021069,新規,0,2022-11-16,2022-11-16,特定非営利活動法人Ｂｅａｖｅｒ,,その他の設立登記法人,埼玉県,さいたま市南区,辻４丁目１９番６－２号,,11,108,3360026,,,,,,,2022-11-16,1,,,,,ビーバー,0
593,3040001125871,新規,0,2022-11-16,2022-11-16,株式会社ＤＢＪ,,株式会社,千葉県,八千代市,緑が丘西４丁目５番１２号,,12,221,2760040,,,,,,,2022-11-16,1,,,,,ディービージェイ,0
596,3040003021292,新規,0,2022-11-16,2022-11-16,合同会社石宮,,合同会社,千葉県,千葉市花見川区,幕張本郷２丁目２番２０－１０２号,,12,102,2620033,,,,,,,2022-11-16,1,,,,,イシミヤ,0
602,3060001035458,新規,0,2022-11-16,2022-11-16,株式会社さくら,,株式会社,栃木県,さくら市,氏家２４５６番地３,,09,214,3291311,,,,,,,2022-11-16,1,,,,,サクラ,0
603,3060003004312,新規,0,2022-11-16,2022-11-16,ＭＫ　ＢＯＮＤ合同会社,,合同会社,栃木県,那須郡那須町,大字高久乙１８７８番地１０４,,09,407,3250303,,,,,,,2022-11-16,1,,,,,エムケイボンド,0
604,3070001039838,新規,0,2022-11-16,2022-11-16,株式会社Ｌｉｅｎ　ｆｏｒｔ,,株式会社,群馬県,太田市,下田島町１０４９番,,10,205,3730844,,,,,,,2022-11-16,1,,,,,リアンフォール,0
621,3120001250356,新規,0,2022-11-16,2022-11-16,株式会社舛田空調,00128500,株式会社,大阪府,枚方市,高野道２丁目９－１３,,27,210,5731131,,,,,,,2022-11-16,1,,,,,マスダクウチョウ,0
622,3120001250364,新規,0,2022-11-16,2022-11-16,株式会社ＫＡＮＤ,,株式会社,大阪府,大阪市中央区,久太郎町３丁目１番６号伊藤佑ビル大阪本町,,27,128,5410056,,,,,,,2022-11-16,1,,,,,カンド,0
623,3120001250380,新規,0,2022-11-16,2022-11-16,株式会社ｐａｄ,,株式会社,大阪府,大阪市西区,京町堀１丁目８－３１安田ビル本館２０１,,27,106,5500003,,,,,,,2022-11-16,1,,,,,パッド,0
624,3120001250389,新規,0,2022-11-16,2022-11-16,カーサービスＫ＆Ｐ株式会社,,株式会社,大阪府,大阪市平野区,長吉長原西１丁目３番１３号,,27,126,5470015,,,,,,,2022-11-16,1,,,,,カーサービスケーアンドピー,0
630,3120101066545,新規,0,2022-11-16,2022-11-16,株式会社堺建築事務所,,株式会社,大阪府,泉南郡熊取町,つばさが丘東１丁目１０番３号,,27,361,5900442,,,,,,,2022-11-16,1,,,,,サカイケンチクジムショ,0
633,3120901046754,新規,0,2022-11-16,2022-11-16,株式会社コニコ,,株式会社,大阪府,茨木市,上穂積４丁目１番３５－３０５号,,27,211,5670036,,,,,,,2022-11-16,1,,,,,コニコ,0
638,3130001073062,新規,0,2022-11-16,2022-11-16,株式会社ＭＡＧＮＯＳ,,株式会社,京都府,京都市南区,八条内田町４４番地２,,26,107,6018475,,,,,,,2022-11-16,1,,,,,マグノス,0
639,3130001073104,新規,0,2022-11-16,2022-11-16,株式会社ＴＷＯＯＧＡＴＥ,,株式会社,京都府,京都市山科区,御陵中内町３８番地８,,26,110,6078414,,,,,,,2022-11-16,1,,,,,ツーゲート,0
640,3130001073120,新規,0,2022-11-16,2022-11-16,株式会社そのべ農産,,株式会社,京都府,南丹市,園部町城南町池ノ下４番地１,,26,213,6220044,,,,,,,2022-11-16,1,,,,,ソノベノウサン,0
648,3140001128047,新規,0,2022-11-16,2022-11-16,株式会社東西舎,,株式会社,兵庫県,神戸市東灘区,住吉東町３丁目９番５号,,28,101,6580052,,,,,,,2022-11-16,1,,,,,トウザイシャ,0
649,3140001128088,新規,0,2022-11-16,2022-11-16,株式会社花信,,株式会社,兵庫県,姫路市,香寺町中仁野７０番地５,,28,201,6792143,,,,,,,2022-11-16,1,,,,,カシン,0
650,3140001128096,新規,0,2022-11-16,2022-11-16,株式会社ＬｕｍｉＮｏｕｓ,,株式会社,兵庫県,西宮市,津門稲荷町５番８号,,28,204,6638247,,,,,,,2022-11-16,1,,,,,ルミナス,0
651,3140001128113,新規,0,2022-11-16,2022-11-16,株式会社ＲＵＤＯ,,株式会社,兵庫県,西宮市,仁川百合野町１番７５号,,28,204,6620815,,,,,,,2022-11-16,1,,,,,ルード,0
653,3140005026379,新規,0,2022-11-16,2022-11-16,一般社団法人梅華会,,その他の設立登記法人,兵庫県,尼崎市,南武庫之荘１丁目１９－８－３階,,28,202,6610033,,,,,,,2022-11-16,1,,,,,ウメハナカイ,0
660,3180001153743,新規,0,2022-11-16,2022-11-16,ＭＳホールディングス株式会社,,株式会社,愛知県,春日井市,牛山町字沖仲３０３０番地,,23,206,4860901,,,,,,,2022-11-16,1,,,,,エムエスホールディングス,0
670,3200005013412,新規,0,2022-11-16,2022-11-16,養老町養蚕農業協同組合,,その他の設立登記法人,岐阜県,養老郡養老町,高田７９８番地,,21,341,5031314,,,,,,,2022-11-16,1,,,,,ヨウロウチョウヨウサン,0
680,3240001060660,新規,0,2022-11-16,2022-11-16,ＡＲＳ株式会社,,株式会社,広島県,広島市中区,大手町１丁目１番２６号大手町一番ビル３０５,,34,101,7300051,,,,,,,2022-11-16,1,,,,,エーアールエス,0
685,3260001037418,新規,0,2022-11-16,2022-11-16,株式会社オレンジリング,,株式会社,岡山県,岡山市南区,宗津９５８番地５,,33,104,7091216,,,,,,,2022-11-16,1,,,,,オレンジリング,0
697,3290001099587,新規,0,2022-11-16,2022-11-16,株式会社ＲＩＴＡ,,株式会社,福岡県,朝倉郡筑前町,下高場１９４８番地５,00128507,40,447,8380211,,,,,,,2022-11-16,1,,,,,リタ,0
698,3290001099604,新規,0,2022-11-16,2022-11-16,株式会社８０９４,,株式会社,福岡県,久留米市,北野町今山５３４番地１,,40,203,8301122,,,,,,,2022-11-16,1,,,,,ハチマルキュウヨン,0
699,3290003013199,新規,0,2022-11-16,2022-11-16,合同会社サンスベリアアグリ,,合同会社,福岡県,春日市,若葉台東５丁目８２番地７,,40,218,8160821,,,,,,,2022-11-16,1,,,,,サンスベリアアグリ,0
706,3310001018123,新規,0,2022-11-16,2022-11-16,株式会社Ｂｏｏｏｎ,,株式会社,長崎県,長崎市,油屋町１－１,,42,201,8500832,,,,,,,2022-11-16,1,,,,,ブーン,0
712,3340003003970,新規,0,2022-11-16,2022-11-16,合同会社ガクゲン,,合同会社,鹿児島県,日置市,伊集院町郡１６６６番地１１４,,46,216,8992504,,,,,,,2022-11-16,1,,,,,ガクゲン,0
715,3360001031212,新規,0,2022-11-16,2022-11-16,株式会社Ｕｍｕサポート,,株式会社,沖縄県,那覇市,曙２丁目９番８号,,47,201,9000002,,,,,,,2022-11-16,1,,,,,ウムサポート,0
723,3380001033272,新規,0,2022-11-16,2022-11-16,株式会社ナリミオン,,株式会社,福島県,福島市,御山字中川原８８番地の１,,07,201,9608252,,,,,,,2022-11-16,1,,,,,ナリミオン,0
743,3430001087866,新規,0,2022-11-16,2022-11-16,株式会社平野設備工業,,株式会社,北海道,江別市,東光町９９番地の２,,01,217,0670023,,,,,,,2022-11-16,1,,,,,ヒラノセツビコウギョウ,0
744,3430003014455,新規,0,2022-11-16,2022-11-16,合同会社想ｂｌｏｏｍ,,合同会社,北海道,札幌市中央区,南五条西２丁目１番１１号,,01,101,0640805,,,,,,,2022-11-16,1,,,,,ソウブルーム,0
764,4010001230839,新規,0,2022-11-16,2022-11-16,株式会社ＭＩＴＯＭＯ,,株式会社,東京都,千代田区,鍛冶町１丁目５番２号３階,,13,101,1010044,,,,,,,2022-11-16,1,,,,,ミトモ,0
765,4010001230888,新規,0,2022-11-16,2022-11-16,株式会社ＥＴＥＮ,,株式会社,東京都,文京区,本駒込６丁目１３－１０六義園杉ハイム１０４,,13,105,1130021,,,,,,,2022-11-16,1,,,,,エテン,0
766,4010003039106,新規,0,2022-11-16,2022-11-16,合同会社フクケイ,,合同会社,東京都,千代田区,神田和泉町１番地１０の５ルネ神田和泉町５０５号,,13,101,1010024,,,,,,,2022-11-16,1,,,,,フクケイ,0
767,4010003039114,新規,0,2022-11-16,2022-11-16,合同会社パスター,,合同会社,東京都,千代田区,丸の内３丁目１番１号東京共同会計事務所内,,13,101,1000005,,,,,,,2022-11-16,1,,,,,パスター,0
773,4010401170874,新規,0,2022-11-16,2022-11-16,株式会社ＹＥＢＩＳＳ　ＨＯＬＤＩＮＧＳ,,株式会社,東京都,港区,港南２丁目３番１号大信秋山ビル３階,,13,103,1080075,,,,,,,2022-11-16,1,,,,,エビスホールディングス,0
778,4010403028906,新規,0,2022-11-16,2022-11-16,合同会社ブライトリボン,,合同会社,東京都,港区,浜松町２丁目２－１５浜松町ダイヤビル２階,,13,103,1050013,,,,,,,2022-11-16,1,,,,,ブライトリボン,0
780,4010405021545,新規,0,2022-11-16,2022-11-16,一般社団法人国際アートメイク療法協会,,その他の設立登記法人,東京都,港区,南麻布５丁目１５番２号,,13,103,1060047,,,,,,,2022-11-16,1,,,,,コクサイアートメイクリョウホウキョウカイ,0
783,4010601062161,新規,0,2022-11-16,2022-11-16,株式会社プエルト・デ・リベルタ,,株式会社,東京都,江東区,豊洲６丁目２番２９－４０９号,,13,108,1350061,,,,,,,2022-11-16,1,,,,,プエルトデリベルタ,0
796,4010901051970,新規,0,2022-11-16,2022-11-16,Ｂａｂｙ　ｂｅ株式会社,,株式会社,東京都,世田谷区,岡本２丁目２８番７号,,13,112,1570076,,,,,,,2022-11-16,1,,,,,ベイビービー,0
798,4010905004396,新規,0,2022-11-16,2022-11-16,一般社団法人日本ひとり親活躍推進機構,,その他の設立登記法人,東京都,世田谷区,中町５丁目１０番２９号,,13,112,1580091,,,,,,,2022-11-16,1,,,,,ニホンヒトリオヤカツヤクスイシンキコウ,0
801,4011001150977,新規,0,2022-11-16,2022-11-16,株式会社ＳｕｉｔＹａ,,株式会社,東京都,渋谷区,渋谷１丁目１番３号アミーホール３階,,13,113,1500002,,,,,,,2022-11-16,1,,,,,スーツヤ,0
802,4011001150985,新規,0,2022-11-16,2022-11-16,ＳＴＡＲＤＵＳＴ株式会社,,株式会社,東京都,渋谷区,千駄ヶ谷５丁目１７番２１号芝山ビル１階,,13,113,1510051,,,,,,,2022-11-16,1,,,,,スターダスト,0
808,4011101100849,新規,0,2022-11-16,2022-11-16,株式会社メディカインベスト,,株式会社,東京都,新宿区,四谷２丁目４番地１８アマシンビル３Ｆ,,13,104,1600004,,,,,,,2022-11-16,1,,,,,メディカインベスト,0
822,4011701025792,新規,0,2022-11-16,2022-11-16,宜商株式会社,,株式会社,東京都,江戸川区,松江２丁目１－１３－３０８号室,,13,123,1320025,,,,,,,2022-11-16,1,,,,,ギショウ,0
827,4011801041558,新規,0,2022-11-16,2022-11-16,株式会社真明綜合企画,,株式会社,東京都,足立区,花畑３丁目１７番２６号,,13,121,1210061,,,,,,,2022-11-16,1,,,,,シンメイソウゴウキカク,0
832,4011805003224,新規,0,2022-11-16,2022-11-16,一般社団法人あだちつながるラボ,,その他の設立登記法人,東京都,足立区,梅田８丁目１０番１号２階,,13,121,1230851,,,,,,,2022-11-16,1,,,,,アダチツナガルラボ,0
835,4012801021970,新規,0,2022-11-16,2022-11-16,株式会社ホームズプラス,,株式会社,東京都,国分寺市,東戸倉１丁目１１番３７号,,13,214,1850002,,,,,,,2022-11-16,1,,,,,ホームズプラス,0
845,4020001148997,新規,0,2022-11-16,2022-11-16,Ｎｅｘｔｗａｙ株式会社,,株式会社,神奈川県,横浜市西区,みなとみらい３丁目７番１号,,14,103,2200012,,,,,,,2022-11-16,1,,,,,ネクストウェイ,0
846,4020001149005,新規,0,2022-11-16,2022-11-16,株式会社トモヨシ,,株式会社,神奈川県,横浜市戸塚区,戸塚町４６１８番地７,,14,110,2440003,,,,,,,2022-11-16,1,,,,,トモヨシ,0
847,4020001149013,新規,0,2022-11-16,2022-11-16,株式会社４４４,,株式会社,神奈川県,川崎市高津区,溝口３丁目９番５号,,14,134,2130001,,,,,,,2022-11-16,1,,,,,ヨンヒャクヨンジュウヨン,0
859,4021001077468,新規,0,2022-11-16,2022-11-16,株式会社いとう薬局,,株式会社,神奈川県,愛甲郡愛川町,中津７４７８番地１０,,14,401,2430303,,,,,,,2022-11-16,1,,,,,イトウヤッキョク,0
867,4030001151075,新規,0,2022-11-16,2022-11-16,株式会社ＪＯＹ　ＳＰＡＲＫ,,株式会社,埼玉県,さいたま市中央区,上落合２丁目４番３号,,11,105,3380001,,,,,,,2022-11-16,1,,,,,ジョイスパーク,0
868,4030001151100,新規,0,2022-11-16,2022-11-16,株式会社Ｖａｌｕｅ　Ｐｌｕｓ,,株式会社,埼玉県,草加市,花栗１丁目２８番４２号,,11,221,3400044,,,,,,,2022-11-16,1,,,,,バリュープラス,0
875,4040001125870,新規,0,2022-11-16,2022-11-16,株式会社ウメツ工業,,株式会社,千葉県,山武郡横芝光町,横芝２４４６番地１５,,12,410,2891732,,,,,,,2022-11-16,1,,,,,ウメツコウギョウ,0
876,4040001125879,新規,0,2022-11-16,2022-11-16,株式会社丸蔦,,株式会社,千葉県,我孫子市,中峠１７７２番地の２３,,12,222,2701121,,,,,,,2022-11-16,1,,,,,マルツタ,0
877,4040001125895,新規,0,2022-11-16,2022-11-16,株式会社Ｈａｌｏ　Ｔｅｃｈ,,株式会社,千葉県,市川市,相之川４丁目６番６－１４０１号（ＲｏｙａｌＢｌｉｓｓ南行徳駅前）,,12,203,2720143,,,,,,,2022-11-16,1,,,,,ヘイローテック,0
883,4040003021275,新規,0,2022-11-16,2022-11-16,合同会社Ｓｉｌｖａ　Ｉｎｔｅｒｎａｔｉｏｎａｌ,,合同会社,千葉県,山武郡芝山町,小池２４５５番地３,,12,409,2891624,,,,,,,2022-11-16,1,,,,,シルバインターナショナル,0
884,4040003021283,新規,0,2022-11-16,2022-11-16,Ａｓｉａｎ　ｅｘｐｅｒｔ合同会社,,合同会社,千葉県,八街市,八街ほ１０４０番地２－２０７号室,,12,230,2891115,,,,,,,2022-11-16,1,,,,,エイシアンエキスパート,0
890,4050001051918,新規,0,2022-11-16,2022-11-16,Ｌｐｒｏｕｄ株式会社,,株式会社,茨城県,つくばみらい市,山王新田２９０番地６,,08,235,3002332,,,,,,,2022-11-16,1,,,,,エルプラウド,0
891,4050001051975,新規,0,2022-11-16,2022-11-16,株式会社カモノハシ,,株式会社,茨城県,守谷市,中央２丁目５３番地ブランチ守谷Ａ０１０,,08,224,3020115,,,,,,,2022-11-16,1,,,,,カモノハシ,0
895,4060001035457,新規,0,2022-11-16,2022-11-16,株式会社ＥＴＩサービス,,株式会社,栃木県,宇都宮市,峰４丁目１０番２８号１Ｆ,,09,201,3210942,,,,,,,2022-11-16,1,,,,,イーティーアイサービス,0
913,4100005012943,新規,0,2022-11-16,2022-11-16,特定非営利活動法人長野県選択無形民俗文化財焼き餅文化保存会,,その他の設立登記法人,長野県,上水内郡小川村,大字小根山４０１３番地１,,20,588,3813303,,,,,,,2022-11-16,1,,,,,ナガノケンセンタクムケイミンゾクブンカザイヤキモチブンカホゾンカイ,0
927,4120003022884,新規,0,2022-11-16,2022-11-16,合同会社Ｔａｍａｒｉｂａ,,合同会社,大阪府,大阪市北区,角田町８－４７阪急グランドビル２０階,,27,127,5300017,,,,,,,2022-11-16,1,,,,,タマリバ,0
932,4120901046761,新規,0,2022-11-16,2022-11-16,株式会社ＴＨＥ　Ｎ,,株式会社,大阪府,三島郡島本町,高浜３丁目５番３５号,,27,301,6180012,,,,,,,2022-11-16,1,,,,,ザエヌ,0
945,4140001128087,新規,0,2022-11-16,2022-11-16,株式会社ガウディエステート,,株式会社,兵庫県,神戸市兵庫区,湊町１丁目５７番地２０５号,,28,105,6520812,,,,,,,2022-11-16,1,,,,,ガウディエステート,0
946,4140001128095,新規,0,2022-11-16,2022-11-16,株式会社ＤＭＹ,,株式会社,兵庫県,西宮市,山口町上山口３丁目２９番,,28,204,6511421,,,,,,,2022-11-16,1,,,,,ディーエムワイ,0
959,4180001153817,新規,0,2022-11-16,2022-11-16,株式会社Ｓｅｒｅｎｉｔｙ,,株式会社,愛知県,名古屋市中区,錦３丁目２－２６パックス錦ビル３,,23,106,4600003,,,,,,,2022-11-16,1,,,,,セレニティ,0
982,4210003001581,新規,0,2022-11-16,2022-11-16,合同会社Ａｎｏｄｅ,,合同会社,福井県,越前市,平林町第１９号６０番地,,18,209,9150044,,,,,,,2022-11-16,1,,,,,アノード,0
1000,4260001037417,新規,0,2022-11-16,2022-11-16,株式会社ＰＬＡＮＺＡ,,株式会社,岡山県,岡山市北区,野田３丁目１１番２０号,,33,101,7000971,,,,,,,2022-11-16,1,,,,,プランザ,0
1004,4290001099594,新規,0,2022-11-16,2022-11-16,株式会社ステラ,,株式会社,福岡県,福岡市南区,長丘１丁目１１番５号,,40,134,8150075,,,,,,,2022-11-16,1,,,,,ステラ,0
1005,4290001099603,新規,0,2022-11-16,2022-11-16,株式会社井手設備,,株式会社,福岡県,柳川市,西浜武４４３番地１,,40,207,8320081,,,,,,,2022-11-16,1,,,,,イデセツビ,0
1006,4290001099611,新規,0,2022-11-16,2022-11-16,株式会社ｙｏｋｏＳａｐｏ,,株式会社,福岡県,福岡市博多区,博多駅南３丁目４番３３号,,40,132,8120016,,,,,,,2022-11-16,1,,,,,ヨコサポ,0
1008,4290003013198,新規,0,2022-11-16,2022-11-16,合同会社あまゆみ,,合同会社,福岡県,福岡市博多区,博多駅南３丁目１７番５－１００５号,,40,132,8120016,,,,,,,2022-11-16,1,,,,,アマユミ,0
1009,4290003013207,新規,0,2022-11-16,2022-11-16,ＤＤＴ合同会社,,合同会社,福岡県,福岡市南区,大楠２丁目１０番１５号,,40,134,8150082,,,,,,,2022-11-16,1,,,,,ディーディーティー,0
1010,4290005018856,新規,0,2022-11-16,2022-11-16,一般社団法人つくも,,その他の設立登記法人,福岡県,八女市,本町１－１７－１,,40,210,8340031,,,,,,,2022-11-16,1,,,,,ツクモ,0
1021,4350001018044,新規,0,2022-11-16,2022-11-16,株式会社Ｍ企画,,株式会社,宮崎県,宮崎市,大坪西２丁目１２番３０号,,45,201,8800932,,,,,,,2022-11-16,1,,,,,エムキカク,0
1025,4360001031211,新規,0,2022-11-16,2022-11-16,株式会社ルート,,株式会社,沖縄県,沖縄市,高原７丁目２８番１７号,,47,211,9042171,,,,,,,2022-11-16,1,,,,,ルート,0
1027,4360003012465,新規,0,2022-11-16,2022-11-16,合同会社今泉真也写真事務所,,合同会社,沖縄県,沖縄市,知花６丁目１０番１６号メゾンウェンダ１０３号室,,47,211,9042143,,,,,,,2022-11-16,1,,,,,イマイズミシンヤシャシンジムショ,0
1042,4420003002591,新規,0,2022-11-16,2022-11-16,グリーンフォレスト合同会社,,合同会社,青森県,弘前市,大字和田町７番地２,,02,202,0368368,,,,,,,2022-11-16,1,,,,,グリーンフォレスト,0
1045,4430001087865,新規,0,2022-11-16,2022-11-16,ＮＥＳＴコンサルティング株式会社,,株式会社,北海道,札幌市中央区,大通西１１丁目４番地２２,,01,101,0600042,,,,,,,2022-11-16,1,,,,,ネストコンサルティング,0
1046,4430001087898,新規,0,2022-11-16,2022-11-16,株式会社オーケー企画,,株式会社,北海道,札幌市西区,二十四軒三条７丁目４番４６－６１１号,,01,107,0630803,,,,,,,2022-11-16,1,,,,,オーケーキカク,0
1051,4430003014462,新規,0,2022-11-16,2022-11-16,合同会社Ｏｈａｎａ,,合同会社,北海道,岩見沢市,南町六条２丁目８番８号,,01,210,0680806,,,,,,,2022-11-16,1,,,,,オハナ,0
1066,5010001230920,新規,0,2022-11-16,2022-11-16,沛楽みらい株式会社,,株式会社,東京都,千代田区,岩本町３丁目８－８秋葉原岩本町オフィス７Ｆ－３５,,13,101,1010032,,,,,,,2022-11-16,1,,,,,ハイラクミライ,0
1067,5010003039113,新規,0,2022-11-16,2022-11-16,未来合同会社,,合同会社,東京都,中央区,日本橋箱崎町１９番７－２０２号,,13,102,1030015,,,,,,,2022-11-16,1,,,,,ミライ,0
1087,5010401170857,新規,0,2022-11-16,2022-11-16,株式会社ＡＮＤＥＲＳ,,株式会社,東京都,港区,浜松町２丁目２－１５浜松町ダイヤビル２Ｆ,,13,103,1050013,,,,,,,2022-11-16,1,,,,,アンダーズ,0
1088,5010401170873,新規,0,2022-11-16,2022-11-16,株式会社Ｌａｐｉｎ,,株式会社,東京都,港区,南青山３丁目１番３６号青山丸竹ビル６Ｆ,,13,103,1070062,,,,,,,2022-11-16,1,,,,,ラパン,0
1092,5010403028905,新規,0,2022-11-16,2022-11-16,ＯｒａｎｇｅＧｕｉｌｄ合同会社,,合同会社,東京都,港区,南青山３丁目１番３６号青山丸竹ビル６Ｆ,,13,103,1070062,,,,,,,2022-11-16,1,,,,,オレンジギルド,0
1099,5010601062160,新規,0,2022-11-16,2022-11-16,株式会社ホライズンテーブル,,株式会社,東京都,江東区,有明３丁目５番７号ＴＯＣ有明イーストタワー７階,,13,108,1350063,,,,,,,2022-11-16,1,,,,,ホライズンテーブル,0
1100,5010603009845,新規,0,2022-11-16,2022-11-16,アイチ合同会社,,合同会社,東京都,墨田区,業平１丁目１２番７号,,13,107,1300002,,,,,,,2022-11-16,1,,,,,アイチ,0
1104,5010801033424,新規,0,2022-11-16,2022-11-16,株式会社セキコーポレーション,,株式会社,東京都,大田区,西馬込２丁目２３番１４号,,13,111,1430026,,,,,,,2022-11-16,1,,,,,,0
1109,5010903007788,新規,0,2022-11-16,2022-11-16,ティーワイ合同会社,,合同会社,東京都,世田谷区,三軒茶屋１丁目１５－１０－１１０,,13,112,1540024,,,,,,,2022-11-16,1,,,,,,0
1110,5010905004387,新規,0,2022-11-16,2022-11-16,一般社団法人漁業ブ,,その他の設立登記法人,東京都,世田谷区,東玉川１丁目２０番１７号,,13,112,1580084,,,,,,,2022-11-16,1,,,,,ギヨギヨウブ,0
1114,5011001150968,新規,0,2022-11-16,2022-11-16,株式会社ベストウェイジャパン,,株式会社,東京都,渋谷区,初台１丁目４６番３号シモモトビル３Ｆ,,13,113,1510061,,,,,,,2022-11-16,1,,,,,ベストウェイジャパン,0
1115,5011001150984,新規,0,2022-11-16,2022-11-16,株式会社ＨＡＮＡＢＩ,,株式会社,東京都,渋谷区,恵比寿３丁目３７番２号,,13,113,1500013,,,,,,,2022-11-16,1,,,,,ハナビ,0
1116,5011001151000,新規,0,2022-11-16,2022-11-16,株式会社ケーズアップ,,株式会社,東京都,渋谷区,千駄ヶ谷５丁目２１番８号代々木第１０下田ビル３階,,13,113,1510051,,,,,,,2022-11-16,1,,,,,ケーズアップ,0
1117,5011003015748,新規,0,2022-11-16,2022-11-16,合同会社アルト,,合同会社,東京都,目黒区,洗足１丁目１３―１０,,13,110,1520012,,,,,,,2022-11-16,1,,,,,アルト,0
1123,5011101100848,新規,0,2022-11-16,2022-11-16,株式会社Ｓｈｉｐｓ,,株式会社,東京都,新宿区,西新宿３丁目３番１３号,,13,104,1600023,,,,,,,2022-11-16,1,,,,,シップス,0
1129,5011305002873,新規,0,2022-11-16,2022-11-16,特定非営利活動法人アシストプラス,,その他の設立登記法人,東京都,杉並区,松庵３丁目３９番１１号シティコープ西荻２０１号,,13,115,1670054,,,,,,,2022-11-16,1,,,,,,0
1130,5011401024689,新規,0,2022-11-16,2022-11-16,株式会社Ｒｅｂｏｒｎ,,株式会社,東京都,板橋区,小豆沢４丁目１８番２１－２０２号,,13,119,1740051,,,,,,,2022-11-16,1,,,,,リボーン,0
1132,5011601026378,新規,0,2022-11-16,2022-11-16,極星コンサルティング株式会社,,株式会社,東京都,練馬区,桜台１丁目７番７号４階４０６号室,,13,120,1760002,,,,,,,2022-11-16,1,,,,,キョクセイコンサルティング,0
1133,5011603003747,新規,0,2022-11-16,2022-11-16,合同会社ティーオアシム,,合同会社,東京都,練馬区,桜台１丁目６番９号渡邊ビル１０２,,13,120,1760002,,,,,,,2022-11-16,1,,,,,ティーオアシム,0
1137,5011801041557,新規,0,2022-11-16,2022-11-16,株式会社フューチャー,,株式会社,東京都,足立区,西新井本町５丁目２番４－１０１号,,13,121,1230845,,,,,,,2022-11-16,1,,,,,フューチャー,0
1138,5011801041565,新規,0,2022-11-16,2022-11-16,四海グループ株式会社,,株式会社,東京都,葛飾区,新宿６丁目２番１－１２０４号シティタワー金町,,13,122,1250051,,,,,,,2022-11-16,1,,,,,シカイグループ,0
1144,5012401039875,新規,0,2022-11-16,2022-11-16,株式会社ＺＥＲＯ,,株式会社,東京都,三鷹市,大沢２丁目７番３０号,,13,204,1810015,,,,,,,2022-11-16,1,,,,,ゼロ,0
1145,5012701017358,新規,0,2022-11-16,2022-11-16,株式会社ＤＵＳＴ　ＭＡＧＮＥＴ　ＣＬＵＢ,,株式会社,東京都,小平市,花小金井８丁目８番３２号,,13,211,1870002,,,,,,,2022-11-16,1,,,,,ダストマグネットクラブ,0
1146,5012801021937,新規,0,2022-11-16,2022-11-16,株式会社森企画,,株式会社,東京都,立川市,一番町２丁目１４番地の４１,,13,202,1900033,,,,,,,2022-11-16,1,,,,,モリキカク,0
1159,5021001077475,新規,0,2022-11-16,2022-11-16,株式会社虎鐵,,株式会社,神奈川県,座間市,入谷東４丁目１７番２０号,,14,216,2520028,,,,,,,2022-11-16,1,,,,,コテツ,0
1161,5021003012372,新規,0,2022-11-16,2022-11-16,合同会社ナイン,,合同会社,神奈川県,横須賀市,野比２丁目２４－３１－１０４,,14,201,2390841,,,,,,,2022-11-16,1,,,,,ナイン,0
1162,5021003012389,新規,0,2022-11-16,2022-11-16,Ｎｉｈｏｎ　Ｃａｒ　Ｓｙｓｔｅｍ合同会社,,合同会社,神奈川県,横須賀市,佐原４丁目４番１０号,,14,201,2390835,,,,,,,2022-11-16,1,,,,,ニホンカーシステム,0
1170,5030001151066,新規,0,2022-11-16,2022-11-16,株式会社ＲＩＦＩＸ,,株式会社,埼玉県,越谷市,弥生町３番７号プリモ越谷Ｄ．Ｅ,,11,222,3430816,,,,,,,2022-11-16,1,,,,,リフィックス,0
1171,5030001151090,新規,0,2022-11-16,2022-11-16,株式会社Ｒｅｆｉｎｅ,,株式会社,埼玉県,三郷市,戸ケ崎２丁目３５２番地１,,11,237,3410044,,,,,,,2022-11-16,1,,,,,リファイン,0
1172,5030001151099,新規,0,2022-11-16,2022-11-16,株式会社スリーフィールド,,株式会社,埼玉県,朝霞市,宮戸３丁目８番４５号蓮沼アパート２０１号室,,11,227,3510031,,,,,,,2022-11-16,1,,,,,スリーフィールド,0
1180,5040001125861,新規,0,2022-11-16,2022-11-16,コネクション株式会社,,株式会社,千葉県,東金市,押堀７１０番地４,,12,213,2830065,,,,,,,2022-11-16,1,,,,,コネクション,0
1181,5040001125878,新規,0,2022-11-16,2022-11-16,株式会社テトラ開発,,株式会社,千葉県,千葉市若葉区,桜木１丁目３２番５０号,,12,104,2640028,,,,,,,2022-11-16,1,,,,,テトラカイハツ,0
1182,5040001125886,新規,0,2022-11-16,2022-11-16,株式会社ＦＩＬ　ＦＯＲＣＥ,,株式会社,千葉県,船橋市,芝山７丁目３９番１２号,,12,204,2740816,,,,,,,2022-11-16,1,,,,,フィルフォース,0
1183,5040001125894,新規,0,2022-11-16,2022-11-16,株式会社エースカーズ,,株式会社,千葉県,白井市,復１４５７－１６１,,12,232,2701422,,,,,,,2022-11-16,1,,,,,エースカーズ,0
1184,5040001125911,新規,0,2022-11-16,2022-11-16,ユキコ株式会社,,株式会社,千葉県,野田市,古布内１５９０番地１３,,12,208,2700221,,,,,,,2022-11-16,1,,,,,ユキコ,0
1187,5040003021274,新規,0,2022-11-16,2022-11-16,合同会社ＥＸＣＥＬ　ＭＯＴＯＲＳ,,合同会社,千葉県,成田市,吉岡１２１７番地１０６,,12,211,2870225,,,,,,,2022-11-16,1,,,,,エクセルモータース,0
1194,5050003007025,新規,0,2022-11-16,2022-11-16,ＴＡＭＡシステムソリューションズ合同会社,,合同会社,茨城県,つくば市,みどりの１丁目４５番地１０,,08,220,3050881,,,,,,,2022-11-16,1,,,,,タマシステムソリューションズ,0
1196,5060001035456,新規,0,2022-11-16,2022-11-16,株式会社ブレーメンデザイン,,株式会社,栃木県,小山市,犬塚６丁目６番地３,,09,208,3230811,,,,,,,2022-11-16,1,,,,,ブレーメンデザイン,0
1199,5070003004706,新規,0,2022-11-16,2022-11-16,合同会社Ｄａｙｓ　ｗｉｔｈｏｕｔ　ｓｕｆｆｅｒｉｎｇ,,合同会社,群馬県,沼田市,屋形原町５４３,,10,206,3780022,,,,,,,2022-11-16,1,,,,,デイズサウトサッフェリング,0
1215,5120001250379,新規,0,2022-11-16,2022-11-16,株式会社ｌｉｂｅｒｔｅ,,株式会社,大阪府,大阪市北区,西天満４丁目１２番１５号重光ビル３Ｆ,,27,127,5300047,,,,,,,2022-11-16,1,,,,,リベルテ,0
1217,5120003022883,新規,0,2022-11-16,2022-11-16,オイエール・サンチェス合同会社,,合同会社,大阪府,大阪市北区,梅田１丁目２番２号大阪駅前第２ビル２階５－６号室,,27,127,5300001,,,,,,,2022-11-16,1,,,,,オイエールサンチェス,0
1220,5122001036411,新規,0,2022-11-16,2022-11-16,株式会社ＬＩＢＥＲＯ,,株式会社,大阪府,東大阪市,吉原２丁目７番２６号,,27,227,5780904,,,,,,,2022-11-16,1,,,,,リベロ,0
1230,5130003008320,新規,0,2022-11-16,2022-11-16,フルエール合同会社,,合同会社,京都府,京都市左京区,田中東春菜町２７,,26,103,6068247,,,,,,,2022-11-16,1,,,,,フルエール,0
1231,5130005016635,新規,0,2022-11-16,2022-11-16,特定非営利活動法人Ｓｏｇｎａｔｏｒｅ,,その他の設立登記法人,京都府,京都市山科区,椥辻中在家町１１番地２ディアコート山科４０４号室,,26,110,6078161,,,,,,,2022-11-16,1,,,,,ソニャトーレ,0
1233,5140001128086,新規,0,2022-11-16,2022-11-16,株式会社ＦＵＪＩマネジメント,,株式会社,兵庫県,伊丹市,東有岡４丁目４２番地８,,28,207,6640845,,,,,,,2022-11-16,1,,,,,フジマネジメント,0
1234,5140001128094,新規,0,2022-11-16,2022-11-16,株式会社Ｒｅｍａｇｅ,,株式会社,兵庫県,明石市,藤が丘１丁目１８番５－６号,,28,203,6730046,,,,,,,2022-11-16,1,,,,,リメージ,0
1238,5140003018368,新規,0,2022-11-16,2022-11-16,ＭＩＮＨ　ＤＵＣ合同会社,,合同会社,兵庫県,神戸市兵庫区,駅前通４丁目２番７号松本ビル１Ｆ,,28,105,6520898,,,,,,,2022-11-16,1,,,,,ミンドック,0
1239,5140005026377,新規,0,2022-11-16,2022-11-16,一般社団法人ｍｅｄｉｕｍ,,その他の設立登記法人,兵庫県,明石市,二見町福里１０３番地の９,,28,203,6740091,,,,,,,2022-11-16,1,,,,,ミディアム,0
1253,5180001153849,新規,0,2022-11-16,2022-11-16,株式会社生Ｎａｉｓｏ,,株式会社,愛知県,春日井市,上条町１０丁目１９７番地６,,23,206,4860833,,,,,,,2022-11-16,1,,,,,ショウナイソウ,0
1261,5180003024503,新規,0,2022-11-16,2022-11-16,合同会社ハルホーム,,合同会社,愛知県,大府市,北崎町３丁目２１５番地,,23,223,4740002,,,,,,,2022-11-16,1,,,,,ハルホーム,0
1270,5200001040672,新規,0,2022-11-16,2022-11-16,中央鋼板株式会社,,株式会社,岐阜県,揖斐郡大野町,大字五之里字塚町１０６番地,,21,403,5010554,,,,,,,2022-11-16,1,,,,,チュウオウコウハン,0
1276,5240001060667,新規,0,2022-11-16,2022-11-16,ＫＥＮ工業株式会社,,株式会社,広島県,尾道市,瀬戸田町鹿田原４１番地１Ａ１０３,,34,205,7222414,,,,,,,2022-11-16,1,,,,,ケンコウギョウ,0
1281,5260001037416,新規,0,2022-11-16,2022-11-16,ＲＩＳＥ株式会社,,株式会社,岡山県,玉野市,築港４丁目１２番２７号,,33,204,7060002,,,,,,,2022-11-16,1,,,,,ライズ,0
1288,5290001099585,新規,0,2022-11-16,2022-11-16,株式会社高松架設工業,,株式会社,福岡県,那珂川市,大字西畑２３１番地６,,40,231,8111246,,,,,,,2022-11-16,1,,,,,タカマツカセツコウギョウ,0
1289,5290001099602,新規,0,2022-11-16,2022-11-16,株式会社リーフマネジメントパートナーズ,,株式会社,福岡県,福岡市博多区,祇園町８番１３号,,40,132,8120038,,,,,,,2022-11-16,1,,,,,リーフマネジメントパートナーズ,0
1290,5290003013206,新規,0,2022-11-16,2022-11-16,合同会社マルオカ,,合同会社,福岡県,糟屋郡篠栗町,和田３丁目４番４１号,,40,342,8112414,,,,,,,2022-11-16,1,,,,,マルオカ,0
1291,5290005018855,新規,0,2022-11-16,2022-11-16,一般社団法人ＫＹＯＥＩ,,その他の設立登記法人,福岡県,糟屋郡篠栗町,和田５丁目５番７号,,40,342,8112414,,,,,,,2022-11-16,1,,,,,キョウエイ,0
1293,5300003001902,新規,0,2022-11-16,2022-11-16,アース設計合同会社,,合同会社,佐賀県,三養基郡上峰町,大字坊所１５７０番地１２ユーミーマンション上峰Ｆ１０１,,41,345,8490123,,,,,,,2022-11-16,1,,,,,アースセッケイ,0
1308,5360003012464,新規,0,2022-11-16,2022-11-16,合同会社ちゃれんじど沖縄,,合同会社,沖縄県,うるま市,みどり町１丁目１２番７号,,47,213,9042215,,,,,,,2022-11-16,1,,,,,チャレンジドオキナワ,0
1311,5370001049268,新規,0,2022-11-16,2022-11-16,株式会社Ｍ．ｉｎｖｅｓｔｍｅｎｔ,,株式会社,宮城県,仙台市青葉区,国分町２丁目１０番１号,,04,101,9800803,,,,,,,2022-11-16,1,,,,,エムインベストメント,0
1314,5380001033270,新規,0,2022-11-16,2022-11-16,株式会社ＮＡＯ,,株式会社,福島県,郡山市,亀田１丁目５３番１８号,,07,203,9638033,,,,,,,2022-11-16,1,,,,,エヌエーオー,0
1321,5420001018077,新規,0,2022-11-16,2022-11-16,株式会社さくらアカデミー,,株式会社,青森県,十和田市,西二番町４番３号,,02,206,0340082,,,,,,,2022-11-16,1,,,,,サクラアカデミー,0
1329,5430001087848,新規,0,2022-11-16,2022-11-16,株式会社グローバルストリート,,株式会社,北海道,江別市,文京台東町３１番地１４,,01,217,0690834,,,,,,,2022-11-16,1,,,,,グローバルストリート,0
1330,5430001087856,新規,0,2022-11-16,2022-11-16,株式会社まさよし,,株式会社,北海道,札幌市白石区,南郷通２０丁目南８番１－５０５号,,01,104,0030022,,,,,,,2022-11-16,1,,,,,マサヨシ,0
1331,5430003014453,新規,0,2022-11-16,2022-11-16,合同会社ＣＳＡショップ,,合同会社,北海道,小樽市,花園２丁目６番１６号,,01,203,0470024,,,,,,,2022-11-16,1,,,,,シーエスエーショップ,0
1335,5480003001884,新規,0,2022-11-16,2022-11-16,合同会社ＤｏｐｅＮｅｓｓ,,合同会社,徳島県,徳島市,吉野本町２丁目１１番地１,,36,201,7700802,,,,,,,2022-11-16,1,,,,,ドープネス,0
1343,6010001230820,新規,0,2022-11-16,2022-11-16,株式会社ｍｋｍｋ,,株式会社,東京都,文京区,春日１丁目１２番６号パーク白木１階,,13,105,1120003,,,,,,,2022-11-16,1,,,,,モクモク,0
1344,6010001230837,新規,0,2022-11-16,2022-11-16,株式会社メタピア,,株式会社,東京都,千代田区,九段北１丁目１０番１号九段勧業ビル７Ｆ,,13,101,1020073,,,,,,,2022-11-16,1,,,,,メタピア,0
1345,6010001230911,新規,0,2022-11-16,2022-11-16,ＢＣＣＡ株式会社,,株式会社,東京都,千代田区,一番町２番地,,13,101,1020082,,,,,,,2022-11-16,1,,,,,ビーシーシーエー,0
1348,6010103002028,新規,0,2022-11-16,2022-11-16,合同会社リエゾン,,合同会社,東京都,八王子市,大塚４８４番地１中島ビルＩＩＩ２０４号,00128501,13,201,1920352,,,,,,,2022-11-16,1,,,,,リエゾン,0
1356,6010401170856,新規,0,2022-11-16,2022-11-16,株式会社日本医業経営研究所,,株式会社,東京都,港区,赤坂１丁目４番８号５階,,13,103,1070052,,,,,,,2022-11-16,1,,,,,ニホンイギョウケイエイケンキュウショ,0
1357,6010401170872,新規,0,2022-11-16,2022-11-16,株式会社ｌｅｇａｒｅ,,株式会社,東京都,港区,白金台２丁目２５番５号アラ井ビル１Ｆ,,13,103,1080071,,,,,,,2022-11-16,1,,,,,レガーレ,0
1358,6010401170880,新規,0,2022-11-16,2022-11-16,株式会社ＷＤＩ　Ｄｉｍ　Ｓｕｍ　Ｊａｐａｎ,,株式会社,東京都,港区,六本木５丁目５番１号,,13,103,1060032,,,,,,,2022-11-16,1,,,,,ダブリューディーアイディムサムジャパン,0
1361,6010403028895,新規,0,2022-11-16,2022-11-16,レネックスみらい合同会社,,合同会社,東京都,港区,芝４丁目１０番１号,,13,103,1080014,,,,,,,2022-11-16,1,,,,,レネックスミライ,0
1362,6010403028912,新規,0,2022-11-16,2022-11-16,パリジャパン合同会社,,合同会社,東京都,港区,虎ノ門４丁目１番１号神谷町トラストタワー２３階,,13,103,1050001,,,,,,,2022-11-16,1,,,,,パリジャパン,0
1365,6010405021469,新規,0,2022-11-16,2022-11-16,一般社団法人Ａｅｓｔｈｅｔｉｃ　Ｍｅｄｉｃａｌ　Ａｃａｄｅｍｙ,,その他の設立登記法人,東京都,港区,六本木７丁目１８番８号第ＩＩＩ大栄ビル７Ｆ,00128506,13,103,1060032,,,,,,,2022-11-16,1,,,,,エステティックメディカルアカデミー,0
1366,6010405021592,新規,0,2022-11-16,2022-11-16,ＳＨＫホールディング一般社団法人,,その他の設立登記法人,東京都,港区,元赤坂１丁目１番７号,,13,103,1070051,,,,,,,2022-11-16,1,,,,,エスエイチケイホールディング,0
1368,6010503006784,新規,0,2022-11-16,2022-11-16,真心ケア合同会社,,合同会社,東京都,台東区,入谷１丁目８－２,,13,106,1100013,,,,,,,2022-11-16,1,,,,,マゴコロケア,0
1375,6010701043464,新規,0,2022-11-16,2022-11-16,ブレイクスルー・イニシアティブ株式会社,,株式会社,東京都,品川区,西五反田１丁目２６番２号五反田サンハイツ９１１,,13,109,1410031,,,,,,,2022-11-16,1,,,,,ブレイクスルーイニシアティブ,0
1376,6010703006452,新規,0,2022-11-16,2022-11-16,ローミングセイバー合同会社,,合同会社,東京都,品川区,南品川６丁目１２－８ＭＡＮ大井町２０２号,,13,109,1400004,,,,,,,2022-11-16,1,,,,,ローミングセイバー,0
1379,6010901051969,新規,0,2022-11-16,2022-11-16,ＪＹＥＳ株式会社,,株式会社,東京都,世田谷区,深沢４丁目２５番６号,,13,112,1580081,,,,,,,2022-11-16,1,,,,,ジェイス,0
1380,6010903007770,新規,0,2022-11-16,2022-11-16,ｆｕｌｆｉｌｌ．ｃ合同会社,,合同会社,東京都,世田谷区,中町２丁目３９番２号ハイツ丸山２０１,,13,112,1580091,,,,,,,2022-11-16,1,,,,,フルフィルドットシー,0
1384,6011001150991,新規,0,2022-11-16,2022-11-16,株式会社マグパイズ,,株式会社,東京都,渋谷区,神宮前２丁目３２番１１号,,13,113,1500001,,,,,,,2022-11-16,1,,,,,マグパイズ,0
1385,6011001151008,新規,0,2022-11-16,2022-11-16,Ｈｅｌａ株式会社,,株式会社,東京都,渋谷区,恵比寿西２丁目１４番７号パークアクシス代官山１００３,,13,113,1500021,,,,,,,2022-11-16,1,,,,,ヒーラ,0
1391,6011103012396,新規,0,2022-11-16,2022-11-16,ＴＯＤＡＹＳ　ＭＥ合同会社,,合同会社,東京都,新宿区,西新宿３丁目２番９号新宿ワシントンビル本館２階２０６号,,13,104,1600023,,,,,,,2022-11-16,1,,,,,トゥデイズミー,0
1392,6011105010472,新規,0,2022-11-16,2022-11-16,一般社団法人人生診断協会,,その他の設立登記法人,東京都,新宿区,新宿１丁目３６番７号,,13,104,1600022,,,,,,,2022-11-16,1,,,,,ジンセイシンダンキョウカイ,0
1405,6011803005352,新規,0,2022-11-16,2022-11-16,ＤＯＲＩＳ合同会社,,合同会社,東京都,足立区,日ノ出町２７番３－３３１号,,13,121,1200021,,,,,,,2022-11-16,1,,,,,ドリス,0
1406,6012401039866,新規,0,2022-11-16,2022-11-16,株式会社ＴＲＡＮＳＣＥＮＤＥＮＣＥ,,株式会社,東京都,調布市,西つつじケ丘３丁目２６番７号アーバンフラッツＭＡ２０３,,13,208,1820006,,,,,,,2022-11-16,1,,,,,トランセンデンス,0
1407,6012403005651,新規,0,2022-11-16,2022-11-16,Ｇｏｏｄ　Ｉｓｌａｎｄ合同会社,,合同会社,東京都,小金井市,貫井北町３丁目１８番１７号,,13,210,1840015,,,,,,,2022-11-16,1,,,,,グッドアイランド,0
1427,6020002108825,新規,0,2022-11-16,2022-11-16,有限会社石川電気設備,,有限会社,神奈川県,川崎市中原区,下小田中４４１番地,,14,133,,,,,,,,2022-11-16,1,,,,,,0
1433,6021001077474,新規,0,2022-11-16,2022-11-16,Ｓｍｉｌｅ　Ｓｔｏｒｙ株式会社,,株式会社,神奈川県,逗子市,桜山９丁目２番１８号,,14,208,2490005,,,,,,,2022-11-16,1,,,,,スマイルストーリー,0
1437,6021003012363,新規,0,2022-11-16,2022-11-16,ヴァルダトレーディング合同会社,,合同会社,神奈川県,平塚市,桃浜町２９番１７号,,14,203,2540815,,,,,,,2022-11-16,1,,,,,ヴァルダトレーディング,0
1441,6030001151065,新規,0,2022-11-16,2022-11-16,株式会社恒久商事,,株式会社,埼玉県,川口市,大字小谷場２９６番地の７９,,11,203,3330857,,,,,,,2022-11-16,1,,,,,ツネヒサショウジ,0
1442,6030001151073,新規,0,2022-11-16,2022-11-16,ムーンスコア株式会社,,株式会社,埼玉県,幸手市,大字千塚４８３番地６,,11,240,3400161,,,,,,,2022-11-16,1,,,,,ムーンスコア,0
1443,6030001151098,新規,0,2022-11-16,2022-11-16,株式会社匠硝子工事,,株式会社,埼玉県,越谷市,東越谷２丁目９番地２３,,11,222,3430023,,,,,,,2022-11-16,1,,,,,タクミガラスコウジ,0
1455,6040001125885,新規,0,2022-11-16,2022-11-16,株式会社Ｃｒｏｗｄ　Ｍｏｏｖｅ,,株式会社,千葉県,市川市,曽谷６丁目２１番５号,,12,203,2720832,,,,,,,2022-11-16,1,,,,,クラウドムーブ,0
1456,6040001125902,新規,0,2022-11-16,2022-11-16,ＫＥＩＨＡＮ株式会社,,株式会社,千葉県,佐倉市,大崎台３丁目４－１０－２０２,,12,212,2850817,,,,,,,2022-11-16,1,,,,,ケイハン,0
1466,6040003021249,新規,0,2022-11-16,2022-11-16,合同会社Ｃｏｒａｌ,,合同会社,千葉県,長生郡長生村,本郷９００－２,,12,423,2994345,,,,,,,2022-11-16,1,,,,,コーラル,0
1467,6040003021273,新規,0,2022-11-16,2022-11-16,グローバルヴィレッジ合同会社,,合同会社,千葉県,成田市,名古屋５９０,,12,211,2890116,,,,,,,2022-11-16,1,,,,,グローバルヴィレッジ,0
1468,6040005021809,新規,0,2022-11-16,2022-11-16,医療法人社団いとおり,,その他の設立登記法人,千葉県,松戸市,小金きよしケ丘３丁目２０番地２シャンボール新松戸１０３,,12,207,2700013,,,,,,,2022-11-16,1,,,,,イトオリ,0
1469,6050001051973,新規,0,2022-11-16,2022-11-16,常南ファーム株式会社,,株式会社,茨城県,稲敷郡河内町,生板７１６番地,,08,447,3001331,,,,,,,2022-11-16,1,,,,,ジョウナンファーム,0
1470,6050003007016,新規,0,2022-11-16,2022-11-16,合同会社沖縄マース,,合同会社,茨城県,石岡市,旭台３丁目４番１号,,08,205,3150038,,,,,,,2022-11-16,1,,,,,オキナワマース,0
1472,6050005013169,新規,0,2022-11-16,2022-11-16,一般社団法人おかえりホーム,,その他の設立登記法人,茨城県,那珂市,古徳１９２０番地１,,08,226,3192105,,,,,,,2022-11-16,1,,,,,オカエリホーム,0
1474,6060001035447,新規,0,2022-11-16,2022-11-16,株式会社高齢者の住まい探しセンター飯田,,株式会社,栃木県,足利市,高松町５７０－１,,09,202,3260325,,,,,,,2022-11-16,1,,,,,コウレイシャノスマイサガシセンターイイダ,0
1475,6060001035455,新規,0,2022-11-16,2022-11-16,株式会社ＨＵＳＳＡＩＮ　ＭＯＴＯＲＳ,,株式会社,栃木県,那須塩原市,鍋掛１１０２番地１４,,09,213,3250013,,,,,,,2022-11-16,1,,,,,フセインモータース,0
1478,6070001039843,新規,0,2022-11-16,2022-11-16,オールハウジング株式会社,,株式会社,群馬県,高崎市,緑町１丁目６番地５,,10,202,3700073,,,,,,,2022-11-16,1,,,,,オールハウジング,0
1485,6100001035888,新規,0,2022-11-16,2022-11-16,株式会社トーエン,,株式会社,長野県,安曇野市,豊科南穂高７８８番地３,,20,220,3998201,,,,,,,2022-11-16,1,,,,,トーエン,0
1497,6120001250345,新規,0,2022-11-16,2022-11-16,株式会社ここずきっちん,,株式会社,大阪府,大阪市住吉区,南住吉３丁目１８番２２号,,27,120,5580041,,,,,,,2022-11-16,1,,,,,ココズキッチン,0
1498,6120001250386,新規,0,2022-11-16,2022-11-16,スミウル株式会社,,株式会社,大阪府,大阪市中央区,日本橋１丁目９番１１号弥生プラザ日本橋５０１号,,27,128,5420073,,,,,,,2022-11-16,1,,,,,スミウル,0
1499,6120001250394,新規,0,2022-11-16,2022-11-16,株式会社Ｒ．ｗａｎｇ．Ｊ　ｃｏｒｐｏｒａｔｉｏｎ,,株式会社,大阪府,大阪市鶴見区,諸口１丁目１３番４号,,27,124,5380051,,,,,,,2022-11-16,1,,,,,アールワンジェイコーポレーション,0
1514,6130001073092,新規,0,2022-11-16,2022-11-16,株式会社煌輝,,株式会社,京都府,京都市左京区,岩倉下在地町５１９番地,,26,103,6060013,,,,,,,2022-11-16,1,,,,,コオキ,0
1516,6130005016634,新規,0,2022-11-16,2022-11-16,一般社団法人セルフマッサージ研究会,,その他の設立登記法人,京都府,京都市山科区,勧修寺福岡町２６７番地２,,26,110,6078232,,,,,,,2022-11-16,1,,,,,セルフマッサージケンキュウカイ,0
1526,6140001128085,新規,0,2022-11-16,2022-11-16,ＭｏＭＲ　ＪＡＰＡＮ株式会社,,株式会社,兵庫県,神戸市中央区,磯辺通４丁目１番２８－１５１７号,,28,110,6510084,,,,,,,2022-11-16,1,,,,,エムオーエムアールジャパン,0
1527,6140001128093,新規,0,2022-11-16,2022-11-16,株式会社ウェルビーイング,,株式会社,兵庫県,尼崎市,水堂町２丁目１２番１８－１号,,28,202,6610026,,,,,,,2022-11-16,1,,,,,ウェルビーイング,0
1528,6140001128110,新規,0,2022-11-16,2022-11-16,株式会社カーリボーン,,株式会社,兵庫県,川西市,山下町１９番３号,,28,217,6660106,,,,,,,2022-11-16,1,,,,,カーリボーン,0
1530,6140003018350,新規,0,2022-11-16,2022-11-16,描く８９８合同会社,,合同会社,兵庫県,丹波市,柏原町柏原７０９番地１,,28,223,6693309,,,,,,,2022-11-16,1,,,,,エガクハチキュウハチ,0
1531,6140003018359,新規,0,2022-11-16,2022-11-16,合同会社ｖｅｒｄｅ,,合同会社,兵庫県,神戸市東灘区,御影郡家２丁目７番３－１０４号,,28,101,6580048,,,,,,,2022-11-16,1,,,,,ヴェルデ,0
1532,6140003018367,新規,0,2022-11-16,2022-11-16,合同会社ｈｉｎａ,,合同会社,兵庫県,姫路市,飾磨区構３丁目５３２－１,,28,201,6728071,,,,,,,2022-11-16,1,,,,,ヒナ,0
1534,6150001025959,新規,0,2022-11-16,2022-11-16,ＡＦＲＯ　ＮＩＰＰＯ株式会社,,株式会社,奈良県,奈良市,学園中４丁目５４０－１０－２１９,,29,201,6310035,,,,,,,2022-11-16,1,,,,,アフロニッポ,0
1539,6180001153856,新規,0,2022-11-16,2022-11-16,株式会社ウィンクルム,,株式会社,愛知県,名古屋市東区,白壁２丁目４番３０号,,23,102,4610011,,,,,,,2022-11-16,1,,,,,ウィンクルム,0
1540,6180001153872,新規,0,2022-11-16,2022-11-16,株式会社ベルフォート,,株式会社,愛知県,名古屋市南区,千竃通一丁目４６番地の３,,23,112,4570000,,,,,,,2022-11-16,1,,,,,ベルフォート,0
1543,6180003024493,新規,0,2022-11-16,2022-11-16,合同会社ウエスト２７,,合同会社,愛知県,名古屋市中区,丸の内３丁目７番２６号ＡＣＡビル９Ｆ,,23,106,4600002,,,,,,,2022-11-16,1,,,,,ウエストニジュウナナ,0
1555,6200003005739,新規,0,2022-11-16,2022-11-16,ありさ合同会社,,合同会社,岐阜県,多治見市,平和町７番地の３５レジデンスありさ北館１階,,21,204,5070000,,,,,,,2022-11-16,1,,,,,アリサ,0
1561,6240001060674,新規,0,2022-11-16,2022-11-16,Ｍ’ｓ　ｃｏｍｐａｎｙ株式会社,,株式会社,広島県,広島市中区,大手町４丁目２番２３－２０２号,,34,101,7300051,,,,,,,2022-11-16,1,,,,,エムズカンパニー,0
1564,6250003003176,新規,0,2022-11-16,2022-11-16,ＪＡＤＯＯＮ　ＣＡＲ’Ｓ合同会社,,合同会社,山口県,防府市,大字切畑３８７番地,,35,206,7471231,,,,,,,2022-11-16,1,,,,,ジャドゥーンカーズ,0
1567,6290001099568,新規,0,2022-11-16,2022-11-16,尚美商事株式会社,,株式会社,福岡県,福岡市中央区,渡辺通２丁目３番１９－７０１号,,40,133,8100004,,,,,,,2022-11-16,1,,,,,ナオミショウジ,0
1568,6290001099584,新規,0,2022-11-16,2022-11-16,株式会社ムラタ建設,,株式会社,福岡県,太宰府市,国分１丁目１４番２３号,,40,221,8180132,,,,,,,2022-11-16,1,,,,,ムラタケンセツ,0
1569,6290001099592,新規,0,2022-11-16,2022-11-16,株式会社ｎｕｍｅｒｏ,,株式会社,福岡県,福岡市中央区,六本松２丁目６番６号ＨＩＬＬＴＯＰ・ＢＵＩＬＤＩＮＧ２Ｆ,,40,133,8100044,,,,,,,2022-11-16,1,,,,,ニューメロ,0
1570,6290001099601,新規,0,2022-11-16,2022-11-16,アーバン株式会社,,株式会社,福岡県,古賀市,中央３丁目９番１９号,,40,223,8113103,,,,,,,2022-11-16,1,,,,,アーバン,0
1571,6290003013196,新規,0,2022-11-16,2022-11-16,合同会社ＣＯＬＯＲＡＮ　ＫＯＲＡＮ．ＪＰ,,合同会社,福岡県,糸島市,二丈福井４５４番地１,,40,230,8191631,,,,,,,2022-11-16,1,,,,,カラランコランドットジェイピー,0
1572,6290003013205,新規,0,2022-11-16,2022-11-16,合同会社ＬＵＭＯ,,合同会社,福岡県,福岡市中央区,谷２丁目２－１３馬屋谷テラス１０１,,40,133,8100031,,,,,,,2022-11-16,1,,,,,ルーモ,0
1588,6350001018042,新規,0,2022-11-16,2022-11-16,株式会社ＥＧＯ‐ＳＴＵＤＩＯ,,株式会社,宮崎県,宮崎市,本郷３丁目１４番８号,,45,201,8800922,,,,,,,2022-11-16,1,,,,,エゴスタジオ,0
1590,6360001031218,新規,0,2022-11-16,2022-11-16,リードハピネス株式会社,,株式会社,沖縄県,浦添市,城間４丁目２０番３、１－Ａ,,47,208,9012133,,,,,,,2022-11-16,1,,,,,リードハピネス,0
1594,6370001049267,新規,0,2022-11-16,2022-11-16,株式会社トータルパッケージ,,株式会社,宮城県,仙台市泉区,東黒松６番１１号,,04,105,9818005,,,,,,,2022-11-16,1,,,,,トータルパッケージ,0
1608,6430001087855,新規,0,2022-11-16,2022-11-16,リンドコ日本株式会社,,株式会社,北海道,札幌市中央区,南一条西１２丁目４番地１８８ドエルラクーン大通公園３０１号,,01,101,0600061,,,,,,,2022-11-16,1,,,,,リンドコニホン,0
1609,6430001087896,新規,0,2022-11-16,2022-11-16,株式会社一商,,株式会社,北海道,江別市,工栄町１３番地の５,,01,217,0670051,,,,,,,2022-11-16,1,,,,,イッショウ,0
1622,6490001010340,新規,0,2022-11-16,2022-11-16,ＬＧｏｎ株式会社,,株式会社,高知県,四万十市,具同５３９０番地,,39,210,7870019,,,,,,,2022-11-16,1,,,,,エルジーオン,0
1630,7010001230869,新規,0,2022-11-16,2022-11-16,Ｂｉｇ　ｗａｌｌｅｔ株式会社,,株式会社,東京都,中央区,新富１丁目９－９,,13,102,1040041,,,,,,,2022-11-16,1,,,,,ビッグウォレット,0
1631,7010001230893,新規,0,2022-11-16,2022-11-16,株式会社ライフサプライズ,,株式会社,東京都,千代田区,神田三崎町３丁目３番３号３０２,,13,101,1010061,,,,,,,2022-11-16,1,,,,,ライフサプライズ,0
1650,7010405021550,新規,0,2022-11-16,2022-11-16,フェニックス国際税理士法人,,その他の設立登記法人,東京都,港区,西新橋２丁目１９番４号喜助西新橋ビル３階,,13,103,1050003,,,,,,,2022-11-16,1,,,,,フェニックスコクサイ,0
1651,7010405021591,新規,0,2022-11-16,2022-11-16,一般社団法人エルインベストメント２,,その他の設立登記法人,東京都,港区,元赤坂１丁目１番８号株式会社赤坂国際会計内,,13,103,1070051,,,,,,,2022-11-16,1,,,,,エルインベストメントツー,0
1652,7010501049636,新規,0,2022-11-16,2022-11-16,株式会社朝日美容医学研究所,,株式会社,東京都,台東区,上野６丁目１番６号御徒町グリーンハイツ１００５号,,13,106,1100005,,,,,,,2022-11-16,1,,,,,アサヒビヨウイガクケンキュウジョ,0
1653,7010503006783,新規,0,2022-11-16,2022-11-16,昭和総合サービス合同会社,,合同会社,東京都,台東区,入谷１丁目８－２,,13,106,1100013,,,,,,,2022-11-16,1,,,,,ショウワソウゴウサービス,0
1659,7010603009843,新規,0,2022-11-16,2022-11-16,Ｆコンシェルジュ合同会社,,合同会社,東京都,江東区,豊洲６丁目２番地２９－１１１４号,,13,108,1350061,,,,,,,2022-11-16,1,,,,,エフコンシェルジュ,0
1664,7010901051984,新規,0,2022-11-16,2022-11-16,株式会社小田元ホールディングス,,株式会社,東京都,世田谷区,奥沢７丁目４番１１号クレスト自由が丘２０２号室,,13,112,1580083,,,,,,,2022-11-16,1,,,,,,0
1668,7011001150990,新規,0,2022-11-16,2022-11-16,株式会社ハートモール,,株式会社,東京都,目黒区,上目黒１丁目１６番１２号,,13,110,1530051,,,,,,,2022-11-16,1,,,,,ハートモール,0
1676,7011101100870,新規,0,2022-11-16,2022-11-16,Ｃｏ‐Ｒｉｓｅ　Ｇｒｏｕｐ株式会社,,株式会社,東京都,新宿区,西新宿３丁目７－１新宿パークタワーＮ３０階,,13,104,1600023,,,,,,,2022-11-16,1,,,,,コーライズグループ,0
1679,7011103012387,新規,0,2022-11-16,2022-11-16,ＨＭ信濃町合同会社,,合同会社,東京都,新宿区,南元町１９信濃町外苑ビル２０１,,13,104,1600012,,,,,,,2022-11-16,1,,,,,エイチエムシナノマチ,0
1680,7011103012395,新規,0,2022-11-16,2022-11-16,合同会社Ｂ１,,合同会社,東京都,新宿区,富久町９－１１ハイホーム本陣８０４,,13,104,1620067,,,,,,,2022-11-16,1,,,,,ビーワン,0
1687,7011703003307,新規,0,2022-11-16,2022-11-16,ＡＩＲ　ＷＩＮＧＳ合同会社,,合同会社,東京都,江戸川区,春江町３丁目２番１２－４０９号,,13,123,1320003,,,,,,,2022-11-16,1,,,,,エアーウイングス,0
1690,7012301013202,新規,0,2022-11-16,2022-11-16,森谷耀子商店株式会社,,株式会社,東京都,町田市,原町田２丁目１４－１３シャトレー町田ガーデン５０８,,13,209,1940013,,,,,,,2022-11-16,1,,,,,モリヤヨウコショウテン,0
1693,7012701017356,新規,0,2022-11-16,2022-11-16,株式会社ＳｙｓｔｅｒＴｅｃｈ,,株式会社,東京都,小平市,花小金井南町１丁目１３番１２－２０５号,,13,211,1870003,,,,,,,2022-11-16,1,,,,,シスターテック,0
1706,7020001149002,新規,0,2022-11-16,2022-11-16,株式会社ＫＯＫＯＹＵ,,株式会社,神奈川県,川崎市川崎区,大島１丁目１７番７－１号,,14,131,2100834,,,,,,,2022-11-16,1,,,,,ココユウ,0
1707,7020001149019,新規,0,2022-11-16,2022-11-16,株式会社ＡＭＰＥＲＳＡＮＤ　ＪＡＰＡＮ,,株式会社,神奈川県,横浜市西区,みなとみらい２丁目２番１号ランドマークプラザ５階,,14,103,2200012,,,,,,,2022-11-16,1,,,,,アンパーサンドジャパン,0
1721,7021001077457,新規,0,2022-11-16,2022-11-16,株式会社エヌケースリー,,株式会社,神奈川県,逗子市,小坪５丁目１７番３－６１０号,,14,208,2490008,,,,,,,2022-11-16,1,,,,,エヌケースリー,0
1724,7021003012387,新規,0,2022-11-16,2022-11-16,合同会社プログレス,,合同会社,神奈川県,茅ヶ崎市,菱沼２丁目６番２－２０５号ベルビュー湘南,,14,207,2530011,,,,,,,2022-11-16,1,,,,,プログレス,0
1725,7021003012395,新規,0,2022-11-16,2022-11-16,合同会社遠藤,,合同会社,神奈川県,相模原市中央区,相模原３丁目５番８－４０２号,,14,152,2520231,,,,,,,2022-11-16,1,,,,,エンドウ,0
1731,7030001151089,新規,0,2022-11-16,2022-11-16,株式会社日本リアベル,,株式会社,埼玉県,朝霞市,本町２丁目１４番４－１００１号,,11,227,3510011,,,,,,,2022-11-16,1,,,,,ニホンリアベル,0
1735,7030003020572,新規,0,2022-11-16,2022-11-16,合同会社新葉,,合同会社,埼玉県,さいたま市緑区,東大門２丁目７番地５２,,11,109,3360964,,,,,,,2022-11-16,1,,,,,ワカバ,0
1736,7030003020580,新規,0,2022-11-16,2022-11-16,ＴＲＩＡＩＮＡ合同会社,,合同会社,埼玉県,さいたま市中央区,本町東２丁目１３番２１号,,11,105,3380003,,,,,,,2022-11-16,1,,,,,トリアイナ,0
1741,7040001125876,新規,0,2022-11-16,2022-11-16,ワイテック株式会社,,株式会社,千葉県,山武市,白幡１６１９番地４３,,12,237,2891306,,,,,,,2022-11-16,1,,,,,ワイテック,0
1742,7040001125884,新規,0,2022-11-16,2022-11-16,株式会社Ｄｉｇｉｌｉｃ,,株式会社,千葉県,山武市,板中新田２０７,,12,237,2891222,,,,,,,2022-11-16,1,,,,,デジリック,0
1743,7040001125892,新規,0,2022-11-16,2022-11-16,アシストプラス株式会社,,株式会社,千葉県,印旛郡栄町,安食３２０９番地,,12,329,2701516,,,,,,,2022-11-16,1,,,,,アシストプラス,0
1748,7040003021256,新規,0,2022-11-16,2022-11-16,合同会社オアシス,,合同会社,千葉県,松戸市,常盤平５丁目１１番地の９今井ビル１階Ｃ－１号室,,12,207,2702261,,,,,,,2022-11-16,1,,,,,オアシス,0
1749,7050001051964,新規,0,2022-11-16,2022-11-16,ＢＨＡＴＴＩ　ＩＮＴＥＲＮＡＴＩＯＮＡＬ株式会社,,株式会社,茨城県,筑西市,玉戸１３０９番地２７,,08,227,3080847,,,,,,,2022-11-16,1,,,,,バッティーインターナショナル,0
1750,7050001051972,新規,0,2022-11-16,2022-11-16,株式会社松浦,,株式会社,茨城県,久慈郡大子町,大字矢田１３８６番地３,,08,364,3193552,,,,,,,2022-11-16,1,,,,,マツウラ,0
1758,7060003004309,新規,0,2022-11-16,2022-11-16,日光アイナ合同会社,,合同会社,栃木県,日光市,松原町１４－１,,09,206,3211406,,,,,,,2022-11-16,1,,,,,ニッコウアイナ,0
1761,7080401026159,新規,0,2022-11-16,2022-11-16,株式会社エムテック,,株式会社,静岡県,袋井市,村松２２８１番地の２５,,22,216,4370011,,,,,,,2022-11-16,1,,,,,エムテック,0
1762,7090001017846,新規,0,2022-11-16,2022-11-16,株式会社フィッシュアンドティップス,,株式会社,山梨県,北杜市,高根町清里３５４５－３７４１,,19,209,4070301,,,,,,,2022-11-16,1,,,,,フィッシュアンドティップス,0
1776,7120001250377,新規,0,2022-11-16,2022-11-16,株式会社Ｕｐ　Ｖｉｌｌａｇｅ,,株式会社,大阪府,大阪市北区,長柄西２丁目９番１９号片山ビルディング３０１,,27,127,5310061,,,,,,,2022-11-16,1,,,,,アップビレッジ,0
1777,7120001250385,新規,0,2022-11-16,2022-11-16,ミルフィーユ・コンポジット株式会社,,株式会社,大阪府,大阪市都島区,網島町７番１０号,,27,102,5340026,,,,,,,2022-11-16,1,,,,,ミルフィーユコンポジット,0
1778,7120001250393,新規,0,2022-11-16,2022-11-16,株式会社ＨＥＫＩＲＥＫＩ,,株式会社,大阪府,大阪市北区,万歳町４番１２号浪速ビル東館８階,,27,127,5300028,,,,,,,2022-11-16,1,,,,,ヘキレキ,0
1781,7120003022865,新規,0,2022-11-16,2022-11-16,合同会社ＭＡＨＡＬＯ,,合同会社,大阪府,大阪市住吉区,苅田８丁目１１番３０－１２号,,27,120,5580011,,,,,,,2022-11-16,1,,,,,マハロ,0
1782,7120003022873,新規,0,2022-11-16,2022-11-16,合同会社ＧＡＮＧＡ,,合同会社,大阪府,大阪市淀川区,東三国２丁目３０番７,,27,123,5320002,,,,,,,2022-11-16,1,,,,,ガンガ,0
1783,7120003022881,新規,0,2022-11-16,2022-11-16,合同会社ＭＥＤＩＣＯＯＬ,,合同会社,大阪府,大阪市北区,樋之口町１番２０－３４０６号,,27,127,5300032,,,,,,,2022-11-16,1,,,,,メディクール,0
1787,7120101066541,新規,0,2022-11-16,2022-11-16,パークアリトレーディング株式会社,,株式会社,大阪府,泉大津市,森町１丁目５番２０号,,27,206,5950005,,,,,,,2022-11-16,1,,,,,パークアリトレーディング,0
1799,7140001128084,新規,0,2022-11-16,2022-11-16,株式会社ＦＫ,,株式会社,兵庫県,高砂市,高砂町北本町１１８５番地,,28,216,6760064,,,,,,,2022-11-16,1,,,,,エフケイ,0
1800,7140001128092,新規,0,2022-11-16,2022-11-16,株式会社ＲＴＲ,,株式会社,兵庫県,神戸市長田区,四番町２丁目６番地の９,,28,106,6530004,,,,,,,2022-11-16,1,,,,,アールティーアール,0
1801,7140001128101,新規,0,2022-11-16,2022-11-16,株式会社トレジャーハンター,,株式会社,兵庫県,三木市,末広３丁目８番３５号,,28,215,6730403,,,,,,,2022-11-16,1,,,,,トレジャーハンター,0
1802,7140003018291,新規,0,2022-11-16,2022-11-16,合同会社鈴吉,,合同会社,兵庫県,小野市,高山町１８３４番地の４７,,28,218,6751362,,,,,,,2022-11-16,1,,,,,スズヨシ,0
1803,7140003018366,新規,0,2022-11-16,2022-11-16,エミオ合同会社,,合同会社,兵庫県,加古川市,西神吉町岸７１６番地の１７,,28,210,6750045,,,,,,,2022-11-16,1,,,,,エミオ,0
1809,7180001153871,新規,0,2022-11-16,2022-11-16,株式会社アイホウ,,株式会社,愛知県,春日井市,梅ケ坪町７番地ドミール梅ケ坪１０３号,,23,206,4860856,,,,,,,2022-11-16,1,,,,,アイホウ,0
1810,7180003024492,新規,0,2022-11-16,2022-11-16,合同会社桐易,,合同会社,愛知県,名古屋市西区,名駅２丁目３４番１７号セントラル名古屋１１０１号,,23,104,4510045,,,,,,,2022-11-16,1,,,,,トウイ,0
1811,7180003024501,新規,0,2022-11-16,2022-11-16,合同会社ＰＳＷ,,合同会社,愛知県,名古屋市天白区,八幡山１０３八事裏山ハイツ１Ｆ,,23,116,4680074,,,,,,,2022-11-16,1,,,,,ピーエスダブリュー,0
1833,7210001019160,新規,0,2022-11-16,2022-11-16,株式会社匠,,株式会社,福井県,大野市,中挾３丁目７０３番地パレスメイト２０３号室,,18,205,9120015,,,,,,,2022-11-16,1,,,,,タクミ,0
1834,7220001025133,新規,0,2022-11-16,2022-11-16,株式会社Ｌｉｂｅｒａ,,株式会社,石川県,金沢市,彦三町１丁目２番１号アソルティ金沢彦三１階,,17,201,9200901,,,,,,,2022-11-16,1,,,,,リベラ,0
1842,7240003005899,新規,0,2022-11-16,2022-11-16,ＳａＱＲａ　ＬＬＣ合同会社,,合同会社,広島県,広島市南区,松川町１－１５ポエム松川ビル７階,,34,103,7320826,,,,,,,2022-11-16,1,,,,,サクラエルエルシー,0
1853,7290001099591,新規,0,2022-11-16,2022-11-16,株式会社煌設,,株式会社,福岡県,福岡市東区,香椎照葉６丁目３番１２‐７０２号,,40,131,8130017,,,,,,,2022-11-16,1,,,,,オウセツ,0
1854,7290001099600,新規,0,2022-11-16,2022-11-16,ドライド‐ワンズ株式会社,,株式会社,福岡県,古賀市,川原１２５５－１,,40,223,8113132,,,,,,,2022-11-16,1,,,,,ドライドワンズ,0
1855,7290001099609,新規,0,2022-11-16,2022-11-16,株式会社ＲＥＦＩＮＯ,,株式会社,福岡県,大川市,大字鐘ケ江６５４番地７,,40,212,8310008,,,,,,,2022-11-16,1,,,,,レフィーノ,0
1857,7290003013204,新規,0,2022-11-16,2022-11-16,合同会社Ｔｏｍｏｒｒｏｗ,,合同会社,福岡県,福岡市東区,美和台３丁目７番地１３号メイゾンハイツ２号館１０２号,,40,131,8110212,,,,,,,2022-11-16,1,,,,,トゥモロー,0
1858,7290005018853,新規,0,2022-11-16,2022-11-16,一般社団法人ＣＯＰむなかた大島,,その他の設立登記法人,福岡県,宗像市,日の里５丁目３日の里団地４８号棟２０３,,40,220,8113425,,,,,,,2022-11-16,1,,,,,コップムナカタオオシマ,0
1859,7290801029062,新規,0,2022-11-16,2022-11-16,株式会社ＤＬＰ９,,株式会社,福岡県,北九州市小倉北区,井堀３丁目１６番３号,,40,106,8030835,,,,,,,2022-11-16,1,,,,,ディーエルピーナイン,0
1861,7300005007111,新規,0,2022-11-16,2022-11-16,医療法人ひまわりクリニック,,その他の設立登記法人,佐賀県,佐賀市,鍋島３丁目６番９号,,41,201,8490937,,,,,,,2022-11-16,1,,,,,ヒマワリクリニック,0
1862,7320001019422,新規,0,2022-11-16,2022-11-16,株式会社慈雨,,株式会社,大分県,大分市,東津留１丁目１番２１号,,44,201,8700934,,,,,,,2022-11-16,1,,,,,ジウ,0
1866,7370001049266,新規,0,2022-11-16,2022-11-16,Ｃ‐Ｔｅｃｈ株式会社,,株式会社,宮城県,仙台市青葉区,国見６丁目２２番３８号,,04,101,9810943,,,,,,,2022-11-16,1,,,,,シーテック,0
1871,7370005010554,新規,0,2022-11-16,2022-11-16,一般社団法人ぶりす,,その他の設立登記法人,宮城県,仙台市泉区,山の寺２丁目１３番８号,,04,105,9813103,,,,,,,2022-11-16,1,,,,,ブリス,0
1874,7380001033269,新規,0,2022-11-16,2022-11-16,株式会社サンキュープラス,,株式会社,福島県,会津若松市,湊町大字共和字西田面２７２番地,,07,202,9650202,,,,,,,2022-11-16,1,,,,,サンキュープラス,0
1879,7420001018075,新規,0,2022-11-16,2022-11-16,鶴源貿易株式会社,,株式会社,青森県,北津軽郡鶴田町,大字鶴泊字東田１２番地２,,02,384,0383522,,,,,,,2022-11-16,1,,,,,ツルゲンボウエキ,0
1887,7430001087838,新規,0,2022-11-16,2022-11-16,ロデオデザイン株式会社,,株式会社,北海道,小樽市,緑１丁目１７番６号,,01,203,0470034,,,,,,,2022-11-16,1,,,,,ロデオデザイン,0
1888,7430001087854,新規,0,2022-11-16,2022-11-16,株式会社Ｐｒｉｍａ　Ｓｔｅｌｌａ,,株式会社,北海道,札幌市中央区,北五条西２４丁目１番８－５０２号,,01,101,0600005,,,,,,,2022-11-16,1,,,,,プリマステッラ,0
1889,7430001087862,新規,0,2022-11-16,2022-11-16,株式会社ＩＦＣビルダーズ,,株式会社,北海道,札幌市手稲区,稲穂二条４丁目１３番１号,,01,109,0060032,,,,,,,2022-11-16,1,,,,,アイエフシービルダーズ,0
1902,7440001009188,新規,0,2022-11-16,2022-11-16,株式会社Ｋｅｅｐシャイニング,,株式会社,北海道,函館市,銭亀町２１０番地６６,,01,202,0420922,,,,,,,2022-11-16,1,,,,,キープシャイニング,0
1904,7460003000928,新規,0,2022-11-16,2022-11-16,合同会社のんの,,合同会社,北海道,釧路郡釧路町,北見団地６丁目１５番地,,01,661,0880625,,,,,,,2022-11-16,1,,,,,ノンノ,0
1908,7470003002287,新規,0,2022-11-16,2022-11-16,合同会社エシャン工業,,合同会社,香川県,坂出市,八幡町３丁目６番３７号,,37,203,7620041,,,,,,,2022-11-16,1,,,,,エシャンコウギョウ,0
1910,7480001011925,新規,0,2022-11-16,2022-11-16,株式会社Ｗｅｓｔｏｎｅ,,株式会社,徳島県,徳島市,川内町榎瀬６６９番地４,,36,201,7710144,,,,,,,2022-11-16,1,,,,,ウエストワン,0
1923,8010001230851,新規,0,2022-11-16,2022-11-16,ＳＴＹ株式会社,,株式会社,東京都,千代田区,一番町４番５号,,13,101,1020082,,,,,,,2022-11-16,1,,,,,エスティーワイ,0
1924,8010003039102,新規,0,2022-11-16,2022-11-16,合同会社高萩ソーラーパーク２,,合同会社,東京都,千代田区,丸の内３丁目１番１号東京共同会計事務所内,,13,101,1000005,,,,,,,2022-11-16,1,,,,,タカハギソーラーパークツー,0
1925,8010003039110,新規,0,2022-11-16,2022-11-16,合同会社ＫＡＲＡＴＥ,,合同会社,東京都,文京区,大塚４丁目１９―１３,,13,105,1120012,,,,,,,2022-11-16,1,,,,,カラテ,0
1926,8010005035801,新規,0,2022-11-16,2022-11-16,一般社団法人日本ＮＫＴ細胞標的治療研究会,,その他の設立登記法人,東京都,千代田区,一番町１０番２号,,13,101,1020082,,,,,,,2022-11-16,1,,,,,ニホンエヌケーティーサイボウヒョウテキチリョウケンキュウカイ,0
1942,8010401170854,新規,0,2022-11-16,2022-11-16,帝国Ｄｅａｌ株式会社,,株式会社,東京都,港区,赤坂２丁目４番１号白亜ビル６Ｂ,,13,103,1070052,,,,,,,2022-11-16,1,,,,,テイコクディール,0
1943,8010401170879,新規,0,2022-11-16,2022-11-16,日本一株式会社,,株式会社,東京都,港区,東麻布１丁目９番１１号ＧＲＯＷＴＨＢＹＩＯＱＷ－１５,,13,103,1060044,,,,,,,2022-11-16,1,,,,,ニホンイチ,0
1954,8010601062158,新規,0,2022-11-16,2022-11-16,株式会社ギガキューズ,,株式会社,東京都,江東区,豊洲５丁目５番３６－９０１号,,13,108,1350061,,,,,,,2022-11-16,1,,,,,ギガキューズ,0
1956,8010703006467,新規,0,2022-11-16,2022-11-16,合同会社新川,,合同会社,東京都,品川区,東五反田２丁目１０番２号,,13,109,1410022,,,,,,,2022-11-16,1,,,,,シンカワ,0
1968,8011001150890,新規,0,2022-11-16,2022-11-16,アトラス号株式会社,,株式会社,東京都,渋谷区,富ヶ谷１丁目１４番１４号４階,,13,113,1510063,,,,,,,2022-11-16,1,,,,,アトラスゴウ,0
1969,8011001150973,新規,0,2022-11-16,2022-11-16,ピックルリンク株式会社,,株式会社,東京都,渋谷区,代々木１丁目３０番３号,,13,113,1510053,,,,,,,2022-11-16,1,,,,,ピックルリンク,0
1971,8011101100837,新規,0,2022-11-16,2022-11-16,株式会社日税ホールディングス,,株式会社,東京都,新宿区,西新宿１丁目６番１号,,13,104,1600023,,,,,,,2022-11-16,1,,,,,ニチゼイホールディングス,0
1980,8011403003820,新規,0,2022-11-16,2022-11-16,合同会社たお,,合同会社,東京都,板橋区,前野町３丁目３３－１－２１７,,13,119,1740063,,,,,,,2022-11-16,1,,,,,タオ,0
1988,8011603003752,新規,0,2022-11-16,2022-11-16,合同会社ＭＴＧ,,合同会社,東京都,練馬区,練馬１丁目３２番５号,,13,120,1760001,,,,,,,2022-11-16,1,,,,,エムティージー,0
1990,8011701025772,新規,0,2022-11-16,2022-11-16,株式会社Ｏｎｅ,,株式会社,東京都,江戸川区,北小岩３丁目２３番２号イースタイル江戸川１０２,,13,123,1330051,,,,,,,2022-11-16,1,,,,,ワン,0
1991,8011701025789,新規,0,2022-11-16,2022-11-16,株式会社ＳＮＤ,,株式会社,東京都,江戸川区,東葛西６丁目４番３号第３ロイヤルシラコビル３Ｆ,,13,123,1340084,,,,,,,2022-11-16,1,,,,,エスエヌディー,0
1992,8011801041570,新規,0,2022-11-16,2022-11-16,株式会社ナイン,,株式会社,東京都,足立区,東伊興３丁目１９番１８号,,13,121,1210801,,,,,,,2022-11-16,1,,,,,ナイン,0
1993,8011803005383,新規,0,2022-11-16,2022-11-16,合同会社Ａｃｃ,,合同会社,東京都,足立区,新田３丁目３６番２－４０５号,,13,121,1230865,,,,,,,2022-11-16,1,,,,,エーシーシー,0
1995,8012401039831,新規,0,2022-11-16,2022-11-16,ＧＬＢアシスト株式会社,,株式会社,東京都,武蔵野市,西久保２丁目１０－１－２０３,,13,203,1800013,,,,,,,2022-11-16,1,,,,,ジーエルビーアシスト,0
2000,8013301049945,新規,0,2022-11-16,2022-11-16,Ｌｉｌｙ　ｏｆ　ｔｈｅ　Ｖａｌｌｅｙ株式会社,,株式会社,東京都,豊島区,池袋本町１丁目３３番４号,,13,116,1700011,,,,,,,2022-11-16,1,,,,,リリーオブザバレー,0
2001,8013303006374,新規,0,2022-11-16,2022-11-16,合同会社新月,,合同会社,東京都,豊島区,西巣鴨３丁目６番７号,,13,116,1700001,,,,,,,2022-11-16,1,,,,,シンゲツ,0
2002,8013305003411,新規,0,2022-11-16,2022-11-16,一般社団法人インターパーク倉持,,その他の設立登記法人,東京都,豊島区,駒込１丁目３４－２ヒルクレスト駒込１Ｆ,,13,116,1700003,,,,,,,2022-11-16,1,,,,,インターパーククラモチ,0
2011,8020001149018,新規,0,2022-11-16,2022-11-16,ノゾミ工業株式会社,,株式会社,神奈川県,川崎市川崎区,渡田新町３丁目１０番２０号,,14,131,2100844,,,,,,,2022-11-16,1,,,,,ノゾミコウギョウ,0
2015,8021001077472,新規,0,2022-11-16,2022-11-16,株式会社Ｆ．ＥＹＬ,,株式会社,神奈川県,足柄上郡大井町,金手８番地１０－１１Ａ,,14,362,2580018,,,,,,,2022-11-16,1,,,,,エイル,0
2016,8021001077489,新規,0,2022-11-16,2022-11-16,株式会社水越工業,,株式会社,神奈川県,相模原市緑区,橋本６丁目３７番５号,,14,151,2520143,,,,,,,2022-11-16,1,,,,,,0
2018,8021003012386,新規,0,2022-11-16,2022-11-16,グリーンメディカルサポート合同会社,,合同会社,神奈川県,座間市,緑ケ丘３丁目１８－６－２,,14,216,2520021,,,,,,,2022-11-16,1,,,,,グリーンメディカルサポート,0
2019,8021005012657,新規,0,2022-11-16,2022-11-16,一般社団法人鎌倉さかなの協同販売所,,その他の設立登記法人,神奈川県,鎌倉市,今泉台４丁目１２番１号,,14,204,2470053,,,,,,,2022-11-16,1,,,,,カマクラサカナノキョウドウハンバイショ,0
2020,8021005012665,新規,0,2022-11-16,2022-11-16,ダイアパレス久里浜フローラルガーデン管理組合法人,,その他の設立登記法人,神奈川県,横須賀市,舟倉２丁目６番１号ダイアパレス久里浜フローラルガーデン管理事務室,,14,201,2390805,,,,,,,2022-11-16,1,,,,,ダイアパレスクリハマフローラルガーデン,0
2025,8030001151088,新規,0,2022-11-16,2022-11-16,ＫＥＹＳＫＹ株式会社,,株式会社,埼玉県,さいたま市見沼区,大字東門前１７３番３号,,11,104,3370016,,,,,,,2022-11-16,1,,,,,キースカイ,0
2026,8030001151096,新規,0,2022-11-16,2022-11-16,株式会社フィールズソフト,,株式会社,埼玉県,春日部市,本田町２丁目９５番地６号,,11,214,3440016,,,,,,,2022-11-16,1,,,,,フィールズソフト,0
2038,8040001125867,新規,0,2022-11-16,2022-11-16,株式会社日越貿易,,株式会社,千葉県,成田市,大袋６５３－Ｂ２０１,,12,211,2860043,,,,,,,2022-11-16,1,,,,,ニチエツボウエキ,0
2039,8040001125875,新規,0,2022-11-16,2022-11-16,ナカイチホールディングス株式会社,,株式会社,千葉県,浦安市,港６６番,,12,227,2790024,,,,,,,2022-11-16,1,,,,,ナカイチホールディングス,0
2040,8040001125909,新規,0,2022-11-16,2022-11-16,株式会社アズクラフトネット,,株式会社,千葉県,千葉市若葉区,みつわ台２丁目３番地１８号,,12,104,2640032,,,,,,,2022-11-16,1,,,,,アズクラフトネット,0
2047,8040005021807,新規,0,2022-11-16,2022-11-16,一般社団法人Ｙｏ‐ｉｎ,,その他の設立登記法人,千葉県,千葉市稲毛区,黒砂台３丁目９番３０－１号,,12,103,2630041,,,,,,,2022-11-16,1,,,,,ヨイン,0
2049,8050001051963,新規,0,2022-11-16,2022-11-16,ＫＵＷＡＩＴ　ＴＲＡＤＩＮＧ株式会社,,株式会社,茨城県,古河市,茶屋新田１４２番地１城南ハイツＢ２０３号室,,08,204,3060051,,,,,,,2022-11-16,1,,,,,クウェイトトレーディング,0
2050,8050001051971,新規,0,2022-11-16,2022-11-16,株式会社ＺＵＯ,,株式会社,茨城県,水戸市,河和田３丁目２３２９番１,,08,201,3114152,,,,,,,2022-11-16,1,,,,,ゾー,0
2051,8050003007022,新規,0,2022-11-16,2022-11-16,ＳｕｐｅｒＴｒａｍｐ合同会社,,合同会社,茨城県,つくば市,北条３４６－１０６室,,08,220,3004231,,,,,,,2022-11-16,1,,,,,スーパートランプ,0
2052,8060001035453,新規,0,2022-11-16,2022-11-16,株式会社ドリームカンパニー,,株式会社,栃木県,宇都宮市,下欠町８５０番地１,,09,201,3200853,,,,,,,2022-11-16,1,,,,,ドリームカンパニー,0
2056,8060003004308,新規,0,2022-11-16,2022-11-16,合同会社ＸｔｏＹ,,合同会社,栃木県,宇都宮市,鶴田町６２２－２ＥＬＤＯＲＡＤＯ１,,09,201,3200851,,,,,,,2022-11-16,1,,,,,エックストゥーワイ,0
2060,8070001039833,新規,0,2022-11-16,2022-11-16,株式会社グッドラック,,株式会社,群馬県,太田市,由良町１８１０番地３,,10,205,3730036,,,,,,,2022-11-16,1,,,,,グッドラック,0
2074,8100001035894,新規,0,2022-11-16,2022-11-16,株式会社ＳＳカンパニー,,株式会社,長野県,長野市,大字徳間３０７０番地,,20,201,3810041,,,,,,,2022-11-16,1,,,,,エスエスカンパニー,0
2075,8110001037122,新規,0,2022-11-16,2022-11-16,Ｔｓｕｋｕｄａ＆Ｃｏ．株式会社,,株式会社,新潟県,妙高市,大字猪野山１２０－８,,15,217,9440075,,,,,,,2022-11-16,1,,,,,ツクダアンドカンパニー,0
2089,8120001250343,新規,0,2022-11-16,2022-11-16,株式会社まみむめも,,株式会社,大阪府,大阪市西区,江戸堀１丁目２６番２４－２０３号,,27,106,5500002,,,,,,,2022-11-16,1,,,,,マミムメモ,0
2090,8120001250368,新規,0,2022-11-16,2022-11-16,ＵＢＡＹ株式会社,,株式会社,大阪府,大阪市西成区,玉出中２丁目９番６号１０１,,27,122,5570044,,,,,,,2022-11-16,1,,,,,ユーベー,0
2091,8120001250384,新規,0,2022-11-16,2022-11-16,株式会社アルテナ,,株式会社,大阪府,大阪市西区,北堀江１丁目１４－７－３Ｆ,,27,106,5500014,,,,,,,2022-11-16,1,,,,,アルテナ,0
2095,8120003022864,新規,0,2022-11-16,2022-11-16,合同会社ファミリー集,,合同会社,大阪府,大阪市浪速区,敷津西２丁目１番１２号,,27,111,5560015,,,,,,,2022-11-16,1,,,,,ファミリーツドイ,0
2096,8120003022872,新規,0,2022-11-16,2022-11-16,エーエーエス大阪合同会社,,合同会社,大阪府,大阪市西淀川区,野里２丁目１２－４,,27,113,5550024,,,,,,,2022-11-16,1,,,,,エーエーエスオオサカ,0
2097,8120003022880,新規,0,2022-11-16,2022-11-16,ＴＴＫ合同会社,,合同会社,大阪府,大阪市淀川区,加島４丁目４番３８号アイビーハイム加島１Ａ,,27,123,5320031,,,,,,,2022-11-16,1,,,,,ティーティーケー,0
2101,8120901046758,新規,0,2022-11-16,2022-11-16,株式会社Ｄｉｘ,,株式会社,大阪府,豊中市,上野西３丁目１４番１８号,,27,203,5600011,,,,,,,2022-11-16,1,,,,,ディックス,0
2102,8120903004367,新規,0,2022-11-16,2022-11-16,安岡寺Ｗｅｂワークス合同会社,,合同会社,大阪府,高槻市,安岡寺町１丁目３５番１３号,,27,207,5691029,,,,,,,2022-11-16,1,,,,,アンコウジウェブワークス,0
2103,8122001036409,新規,0,2022-11-16,2022-11-16,ソロン株式会社,,株式会社,大阪府,八尾市,堤町３丁目１３番地の１,,27,212,5810832,,,,,,,2022-11-16,1,,,,,ソロン,0
2108,8130001073074,新規,0,2022-11-16,2022-11-16,株式会社ＨＹＤＲＯＧＥＮ,,株式会社,京都府,長岡京市,城の里１８－５,,26,209,6170835,,,,,,,2022-11-16,1,,,,,ハイドロゲン,0
2109,8130001073108,新規,0,2022-11-16,2022-11-16,株式会社Ｋｉｒｏｈａｎａ,,株式会社,京都府,京都市下京区,富小路通綾小路下る塩屋町６８番地,,26,106,6008052,,,,,,,2022-11-16,1,,,,,キロハナ,0
2117,8140001128100,新規,0,2022-11-16,2022-11-16,株式会社オノホーム,,株式会社,兵庫県,小野市,粟生町１６８６番地の１,,28,218,6751358,,,,,,,2022-11-16,1,,,,,オノホーム,0
2118,8140001128109,新規,0,2022-11-16,2022-11-16,株式会社ＭＯＣＣＨＩ,,株式会社,兵庫県,神戸市灘区,王子町１丁目３番３号,,28,102,6570838,,,,,,,2022-11-16,1,,,,,モッチ,0
2121,8140003018365,新規,0,2022-11-16,2022-11-16,合同会社ｅｎｔ,,合同会社,兵庫県,神戸市長田区,久保町６丁目１－１－２０２,,28,106,6530041,,,,,,,2022-11-16,1,,,,,,0
2122,8140003018373,新規,0,2022-11-16,2022-11-16,合同会社ＷｏｏｏｏＤ,,合同会社,兵庫県,神戸市中央区,磯上通８丁目１番２９号カサベラビルＣ＆Ｍ４０３号室,,28,110,6510086,,,,,,,2022-11-16,1,,,,,ウッド,0
2124,8150001025957,新規,0,2022-11-16,2022-11-16,ソノゴ株式会社,,株式会社,奈良県,生駒市,俵口町６８０番地,,29,209,6300243,,,,,,,2022-11-16,1,,,,,ソノゴ,0
2126,8180001153862,新規,0,2022-11-16,2022-11-16,株式会社ツナグ,,株式会社,愛知県,一宮市,木曽川町黒田字川北９番地８,,23,203,4930001,,,,,,,2022-11-16,1,,,,,ツナグ,0
2128,8180003024459,新規,0,2022-11-16,2022-11-16,ＣＲマーケティング合同会社,,合同会社,愛知県,名古屋市中川区,尾頭橋１丁目５番１６号登り松マンション１階１０１号室,,23,110,4540012,,,,,,,2022-11-16,1,,,,,シーアールマーケティング,0
2129,8180003024475,新規,0,2022-11-16,2022-11-16,リンコネクト合同会社,,合同会社,愛知県,名古屋市南区,元桜田町４丁目７番地,,23,112,4570032,,,,,,,2022-11-16,1,,,,,リンコネクト,0
2130,8180003024491,新規,0,2022-11-16,2022-11-16,名東設備合同会社,,合同会社,愛知県,名古屋市名東区,明が丘７３番地１クレール藤ケ丘１０３号室,,23,115,4650033,,,,,,,2022-11-16,1,,,,,メイトウセツビ,0
2140,8190001029938,新規,0,2022-11-16,2022-11-16,株式会社クレアール,,株式会社,三重県,桑名市,東正和台６丁目８番地３ＡＩＫＡ・Ｂ棟１０２号,,24,205,5110932,,,,,,,2022-11-16,1,,,,,クレアール,0
2163,8290001099590,新規,0,2022-11-16,2022-11-16,シード株式会社,,株式会社,福岡県,福岡市西区,姪浜駅南２丁目２６番１４号,,40,135,8190006,,,,,,,2022-11-16,1,,,,,シード,0
2164,8290001099599,新規,0,2022-11-16,2022-11-16,株式会社いとのＫＩＫＯＲＩ,,株式会社,福岡県,糸島市,志摩小富士３５３番地,,40,230,8191321,,,,,,,2022-11-16,1,,,,,イトノキコリ,0
2165,8290001099608,新規,0,2022-11-16,2022-11-16,株式会社サンテック,,株式会社,福岡県,飯塚市,小正３１４番地３２,,40,205,8200089,,,,,,,2022-11-16,1,,,,,サンテック,0
2182,8370001049273,新規,0,2022-11-16,2022-11-16,株式会社グランドベル,,株式会社,宮城県,仙台市泉区,館１丁目２４番地の１７,,04,105,9813214,,,,,,,2022-11-16,1,,,,,グランドベル,0
2185,8380001033268,新規,0,2022-11-16,2022-11-16,共伸設備工業株式会社,,株式会社,福島県,郡山市,久留米２丁目１４６番地の１５,,07,203,9638846,,,,,,,2022-11-16,1,,,,,キョウシンセツビコウギョウ,0
2189,8400001016055,新規,0,2022-11-16,2022-11-16,株式会社廣和建匠,,株式会社,岩手県,上閉伊郡大槌町,小鎚第２６地割２０番地１,,03,461,0281121,,,,,,,2022-11-16,1,,,,,コウワケンショウ,0
2193,8410001013324,新規,0,2022-11-16,2022-11-16,アサヒ物産株式会社,,株式会社,秋田県,秋田市,茨島７丁目３番１０号,,05,201,0100065,,,,,,,2022-11-16,1,,,,,アサヒブッサン,0
2201,8430001087853,新規,0,2022-11-16,2022-11-16,株式会社ＮＩＤＵＳ,,株式会社,北海道,札幌市豊平区,平岸三条８丁目２番１５－１０８号,,01,105,0620933,,,,,,,2022-11-16,1,,,,,ナイダス,0
2203,8430003014459,新規,0,2022-11-16,2022-11-16,合同会社エヌケー技建,,合同会社,北海道,札幌市豊平区,月寒西三条１０丁目２番３８－７０２号,,01,105,0620023,,,,,,,2022-11-16,1,,,,,エヌケーギケン,0
2213,8700150112946,新規,0,2022-11-16,2022-11-16,ＭＡＴＴＥＲＰＯＲＴ，ＩＮＣ．,,外国会社等,,,,,,,,９４０８９　アメリカ合衆国　カリフォルニア州　サニーベール　イーストジャバドライブ　３５２,,,,,,2022-11-16,1,,,,,マーターポートインク,0
2216,9010001230850,新規,0,2022-11-16,2022-11-16,株式会社ＷＯＲＬＤ　ＳＭＩＬＥ,,株式会社,東京都,中央区,銀座１丁目２２番１号,,13,102,1040061,,,,,,,2022-11-16,1,,,,,ワールドスマイル,0
2217,9010001230891,新規,0,2022-11-16,2022-11-16,株式会社ＳＧＣ産業技術研究院,,株式会社,東京都,千代田区,丸の内３丁目２番２号丸の内二重橋ビル２階,,13,101,1000005,,,,,,,2022-11-16,1,,,,,エスジーシーサンギョウギジュツケンキュウイン,0
2218,9010001230925,新規,0,2022-11-16,2022-11-16,株式会社メガマシン,,株式会社,東京都,中央区,京橋２丁目１２番９号寺沢ビル７階,,13,102,1040031,,,,,,,2022-11-16,1,,,,,メガマシン,0
2221,9010003039084,新規,0,2022-11-16,2022-11-16,東京レジ３０合同会社,,合同会社,東京都,千代田区,丸の内３丁目１番１号東京共同会計事務所内,,13,101,1000005,,,,,,,2022-11-16,1,,,,,トウキョウレジサーティ,0
2224,9010101015400,新規,0,2022-11-16,2022-11-16,株式会社ＬＣＫ　Ｌａｂｏ,,株式会社,東京都,八王子市,千人町２丁目３番１０号エクセレント１階,,13,201,1930835,,,,,,,2022-11-16,1,,,,,エルシーケイラボ,0
2234,9010401170696,新規,0,2022-11-16,2022-11-16,株式会社テックスカフェ,,株式会社,東京都,港区,浜松町２丁目２番１５号浜松町ダイヤビル２Ｆ,,13,103,1050013,,,,,,,2022-11-16,1,,,,,テックスカフェ,0
2239,9010405021549,新規,0,2022-11-16,2022-11-16,一般社団法人日本秘書大学,,その他の設立登記法人,東京都,港区,芝１丁目３番７－１００２号,,13,103,1050014,,,,,,,2022-11-16,1,,,,,ニホンヒショダイガク,0
2242,9010601062165,新規,0,2022-11-16,2022-11-16,株式会社つながるらぼ,,株式会社,東京都,江東区,東陽２丁目３番１－１０４号,,13,108,1350016,,,,,,,2022-11-16,1,,,,,ツナガルラボ,0
2249,9010803004353,新規,0,2022-11-16,2022-11-16,合同会社暁,,合同会社,東京都,大田区,大森西２丁目４－１０,,13,111,1430015,,,,,,,2022-11-16,1,,,,,アカツキ,0
2253,9010903007784,新規,0,2022-11-16,2022-11-16,合同会社ＩＤＥ,,合同会社,東京都,世田谷区,玉川２丁目１１番２号ステイツ二子玉川園４０６,,13,112,1580094,,,,,,,2022-11-16,1,,,,,アイディーイー,0
2263,9011003015661,新規,0,2022-11-16,2022-11-16,合同会社ＮＡＳ,,合同会社,東京都,渋谷区,代々木３丁目９番１号カーサーヴィバーチェ代々木１０２,,13,113,1510053,,,,,,,2022-11-16,1,,,,,エヌエーエス,0
2264,9011003015728,新規,0,2022-11-16,2022-11-16,合同会社Ｒｅｖｅｒｓｅ,,合同会社,東京都,目黒区,洗足１丁目２０番１号,,13,110,1520012,,,,,,,2022-11-16,1,,,,,リバース,0
2268,9011101100860,新規,0,2022-11-16,2022-11-16,株式会社Ｒｅ,,株式会社,東京都,新宿区,北新宿３丁目２番１－１４０５号,,13,104,1690074,,,,,,,2022-11-16,1,,,,,アールイー,0
2269,9011103012393,新規,0,2022-11-16,2022-11-16,救急駆けつけサービス合同会社,,合同会社,東京都,新宿区,西新宿３丁目３番１３号西新宿水間ビル２Ｆ,,13,104,1600023,,,,,,,2022-11-16,1,,,,,キュウキュウカケツケサービス,0
2277,9011501028652,新規,0,2022-11-16,2022-11-16,Ｄｙｎａｉｃｈｉ　Ｊａｐａｎ株式会社,,株式会社,東京都,荒川区,荒川２丁目１８番１号,,13,118,1160002,,,,,,,2022-11-16,1,,,,,ダイナイチジャパン,0
2278,9011501028669,新規,0,2022-11-16,2022-11-16,ＬＯＫ株式会社,,株式会社,東京都,荒川区,町屋３丁目１－１３,,13,118,1160001,,,,,,,2022-11-16,1,,,,,エルオーケー,0
2283,9011603003751,新規,0,2022-11-16,2022-11-16,合同会社練馬興業,,合同会社,東京都,練馬区,南大泉５丁目１２番３－２０８号,,13,120,1780064,,,,,,,2022-11-16,1,,,,,ネリマコウギョウ,0
2292,9011803005382,新規,0,2022-11-16,2022-11-16,合同会社直,,合同会社,東京都,葛飾区,南水元２丁目２番７号アネックスＩＩＩ１０３,00128499,13,122,1250035,,,,,,,2022-11-16,1,,,,,ナオ,0
2295,9012701017354,新規,0,2022-11-16,2022-11-16,ＨＭコンサルティング株式会社,,株式会社,東京都,東村山市,久米川町４丁目４３番地４,,13,213,1890003,,,,,,,2022-11-16,1,,,,,エイチエムコンサルティング,0
2298,9013301049936,新規,0,2022-11-16,2022-11-16,株式会社ディーフォー,,株式会社,東京都,豊島区,上池袋４丁目１５番１５号,,13,116,1700012,,,,,,,2022-11-16,1,,,,,ディーフォー,0
2299,9013301049944,新規,0,2022-11-16,2022-11-16,株式会社ファースト・システムズ,,株式会社,東京都,豊島区,南長崎１丁目６番７号グランプラス西目白１０５,,13,116,1710052,,,,,,,2022-11-16,1,,,,,ファーストシステムズ,0
2300,9013303006365,新規,0,2022-11-16,2022-11-16,ナナネット合同会社,,合同会社,東京都,豊島区,高田３丁目１０番２２号,,13,116,1710033,,,,,,,2022-11-16,1,,,,,ナナネット,0
2314,9020001149009,新規,0,2022-11-16,2022-11-16,株式会社ＢｕｚｚＦｒｏｎｔ,,株式会社,神奈川県,横浜市西区,北幸２丁目７番１０号高見澤ビルディング地下１階,,14,103,2200004,,,,,,,2022-11-16,1,,,,,バズフロント,0
2315,9020001149017,新規,0,2022-11-16,2022-11-16,ＫＯＢＡＮＡ株式会社,,株式会社,神奈川県,横浜市鶴見区,潮田町３丁目１４７－１８,,14,101,2300041,,,,,,,2022-11-16,1,,,,,コバナ,0
2316,9020003022725,新規,0,2022-11-16,2022-11-16,ＫＡＩＨＡＮ　ＥＮＥＲＧＹ　ＪＡＰＡＮ合同会社,,合同会社,神奈川県,横浜市港北区,新横浜２丁目６番１２号ＳＴＡＦ８階,,14,109,2220033,,,,,,,2022-11-16,1,,,,,カイハンエナジージャパン,0
2317,9020003022741,新規,0,2022-11-16,2022-11-16,ブローガル合同会社,,合同会社,神奈川県,横浜市旭区,笹野台４丁目３５番３７－１号,,14,112,2410816,,,,,,,2022-11-16,1,,,,,ブローガル,0
2323,9021001077471,新規,0,2022-11-16,2022-11-16,株式会社もりくる,,株式会社,神奈川県,綾瀬市,吉岡東４丁目６番２９号,,14,218,2521125,,,,,,,2022-11-16,1,,,,,モリクル,0
2327,9021005012648,新規,0,2022-11-16,2022-11-16,ケイデンス・ジャパン,,その他の設立登記法人,神奈川県,横須賀市,深田台４５番地１,,14,201,2380016,,,,,,,2022-11-16,1,,,,,ケイデンスジャパン,0
2335,9030001151070,新規,0,2022-11-16,2022-11-16,株式会社船木ＪＵＫＵ,,株式会社,埼玉県,所沢市,弥生町２８８５番地の３３,,11,208,3590043,,,,,,,2022-11-16,1,,,,,フナキジュク,0
2336,9030001151087,新規,0,2022-11-16,2022-11-16,クオーレ株式会社,,株式会社,埼玉県,所沢市,小手指元町２丁目２９番３０号コーポ６０９－Ａ,,11,208,3591147,,,,,,,2022-11-16,1,,,,,クオーレ,0
2337,9030001151095,新規,0,2022-11-16,2022-11-16,ｂｕｌｌｓｔｏｎｅ株式会社,,株式会社,埼玉県,川越市,久保町１１番地４ヴィオラ２０５号,,11,201,3500055,,,,,,,2022-11-16,1,,,,,ブルストーン,0
2339,9030003020579,新規,0,2022-11-16,2022-11-16,アスエイト合同会社,,合同会社,埼玉県,八潮市,中央３丁目１７番地１５,,11,234,3400816,,,,,,,2022-11-16,1,,,,,アスエイト,0
2340,9030003020587,新規,0,2022-11-16,2022-11-16,岸川経営コンサルティング合同会社,,合同会社,埼玉県,ふじみ野市,北野１丁目８番２号,,11,245,3560007,,,,,,,2022-11-16,1,,,,,キシカワケイエイコンサルティング,0
2341,9030003020595,新規,0,2022-11-16,2022-11-16,合同会社ＢａｓｅＯｎｅ,,合同会社,埼玉県,入間市,大字新久９１５番地４１（５６－７２７）,,11,225,3580031,,,,,,,2022-11-16,1,,,,,ベースワン,0
2346,9030005021071,新規,0,2022-11-16,2022-11-16,一般社団法人全国マンション修繕コンサルタント協会,,その他の設立登記法人,埼玉県,川口市,栄町２丁目２番１０－１３０２号,,11,203,3320017,,,,,,,2022-11-16,1,,,,,ゼンコクマンションシュウゼンコンサルタントキョウカイ,0
2350,9040001125882,新規,0,2022-11-16,2022-11-16,株式会社メロディー,,株式会社,千葉県,市原市,新堀１３３４番地,,12,219,2900206,,,,,,,2022-11-16,1,,,,,メロディー,0
2351,9040001125899,新規,0,2022-11-16,2022-11-16,株式会社ジムホール,,株式会社,千葉県,船橋市,市場３丁目１０番３号１階,,12,204,2730001,,,,,,,2022-11-16,1,,,,,ジムホール,0
2354,9040003021270,新規,0,2022-11-16,2022-11-16,ＹＧＭカンパニー合同会社,,合同会社,千葉県,市川市,北方町４丁目１６８８番地３,,12,203,2720811,,,,,,,2022-11-16,1,,,,,ワイジーエムカンパニー,0
2355,9040003021295,新規,0,2022-11-16,2022-11-16,ＷＨＥＥＬＳ＆ＤＥＡＬＳ合同会社,,合同会社,千葉県,山武市,森１２７３－１７,,12,237,2891214,,,,,,,2022-11-16,1,,,,,ホイールアンドディールズ,0
2358,9050001051962,新規,0,2022-11-16,2022-11-16,株式会社ＡＨＭＡＤ　ＴＲＡＤＩＮＧ,,株式会社,茨城県,筑西市,玉戸１３０９番地２７（５）,,08,227,3080847,,,,,,,2022-11-16,1,,,,,アハマドトレーディング,0
2364,9080001025303,新規,0,2022-11-16,2022-11-16,株式会社グレイスストリーム,,株式会社,静岡県,静岡市駿河区,大谷２９００番地の３５,,22,102,4228017,,,,,,,2022-11-16,1,,,,,グレイスストリーム,0
2368,9080401026157,新規,0,2022-11-16,2022-11-16,株式会社ＳＰＩＲＡＬヘルスケアホールディングス,,株式会社,静岡県,磐田市,気子島９７８番地,,22,211,4380814,,,,,,,2022-11-16,1,,,,,スパイラルヘルスケアホールディングス,0
2391,9120001250227,新規,0,2022-11-16,2022-11-16,株式会社グロー,,株式会社,大阪府,大阪市中央区,南船場３丁目６番１号サイプレス心斎橋４１３,,27,128,5420081,,,,,,,2022-11-16,1,,,,,グロー,0
2392,9120001250391,新規,0,2022-11-16,2022-11-16,安禾株式会社,,株式会社,大阪府,大阪市天王寺区,上本町６丁目９－２－３０２号,,27,109,5430001,,,,,,,2022-11-16,1,,,,,アンカ,0
2394,9120005023298,新規,0,2022-11-16,2022-11-16,一般社団法人レ・アンバサドール・デュ・パン・デュ・ジャポン,,その他の設立登記法人,大阪府,大阪市天王寺区,上本町９丁目３番４号,,27,109,5430001,,,,,,,2022-11-16,1,,,,,レアンバサドールデュパンデュジャポン,0
2403,9120903004374,新規,0,2022-11-16,2022-11-16,合同会社ＴｓｕｎａｍｉＡｕｔｏＪａｐａｎ,,合同会社,大阪府,高槻市,浦堂２丁目３６,,27,207,5691027,,,,,,,2022-11-16,1,,,,,ツナミオートジャパン,0
2407,9130001073098,新規,0,2022-11-16,2022-11-16,株式会社Ｒｅ．Ｕ．Ｃ,,株式会社,京都府,宇治市,木幡正中１５番地の１フラウメンドルフ１０１号,,26,204,6110002,,,,,,,2022-11-16,1,,,,,リィユゥシィ,0
2409,9130003008317,新規,0,2022-11-16,2022-11-16,合同会社ＩＮＩＴＩＡＬ,,合同会社,京都府,京都市北区,西賀茂柿ノ木町１０番地２,,26,101,6038821,,,,,,,2022-11-16,1,,,,,イニシアル,0
2427,9140001128090,新規,0,2022-11-16,2022-11-16,おうち総合サービス株式会社,,株式会社,兵庫県,三田市,けやき台３丁目２３番地１,,28,219,6691321,,,,,,,2022-11-16,1,,,,,オウチソウゴウサービス,0
2428,9140001128108,新規,0,2022-11-16,2022-11-16,株式会社Ｍｅｒ,,株式会社,兵庫県,尼崎市,水堂町２丁目１２番１８－１号,,28,202,6610026,,,,,,,2022-11-16,1,,,,,メール,0
2431,9140003018372,新規,0,2022-11-16,2022-11-16,合同会社ＰＩＮＫＹ,,合同会社,兵庫県,尼崎市,金楽寺町２丁目３０番２２号,,28,202,6600806,,,,,,,2022-11-16,1,,,,,ピンキー,0
2447,9180001153878,新規,0,2022-11-16,2022-11-16,株式会社Ｍ＆Ｋコーポレーション,,株式会社,愛知県,名古屋市中区,栄１丁目７番２８号ローレルタワー名古屋栄１４０３号,,23,106,4600008,,,,,,,2022-11-16,1,,,,,エムアンドケーコーポレーション,0
2448,9180003024508,新規,0,2022-11-16,2022-11-16,合同会社ＶＩＳＴＡ　ＪＡＰＡＮ,,合同会社,愛知県,名古屋市瑞穂区,内浜町３４－９－３０５,,23,108,4670853,,,,,,,2022-11-16,1,,,,,ビスタジャパン,0
2469,9240001060655,新規,0,2022-11-16,2022-11-16,株式会社ＰＲＯＸＥＳ,,株式会社,広島県,福山市,駅家町大字今岡１４５番地１,,34,207,7201145,,,,,,,2022-11-16,1,,,,,プロクセス,0
2472,9240003005897,新規,0,2022-11-16,2022-11-16,ネレウス合同会社,,合同会社,広島県,広島市南区,京橋町１番７号アスティ広島京橋ビルディング,,34,103,7320828,,,,,,,2022-11-16,1,,,,,ネレウス,0
2481,9260003004105,新規,0,2022-11-16,2022-11-16,合同会社一心,,合同会社,岡山県,岡山市北区,表町１丁目８番９号共和ビル１Ｆ,,33,101,7000822,,,,,,,2022-11-16,1,,,,,イッシン,0
2486,9290001099598,新規,0,2022-11-16,2022-11-16,株式会社Ｃｅｎｔｒａｌ　Ｅｍｂｏｄｙ,,株式会社,福岡県,福岡市中央区,今泉１丁目１２番８号天神ＱＲビル,,40,133,8100021,,,,,,,2022-11-16,1,,,,,セントラルエンバディ,0
2487,9290003013193,新規,0,2022-11-16,2022-11-16,合同会社ダイバラボ,,合同会社,福岡県,福岡市中央区,唐人町２丁目１番２９号,,40,133,8100063,,,,,,,2022-11-16,1,,,,,ダイバラボ,0
2497,9320003003950,新規,0,2022-11-16,2022-11-16,合同会社嫁一味,,合同会社,大分県,大分市,中鶴崎１丁目１番３０号,,44,201,8700101,,,,,,,2022-11-16,1,,,,,ヨメイチミ,0
2498,9330001030310,新規,0,2022-11-16,2022-11-16,株式会社ｃｈａｒｌｅｓ,,株式会社,熊本県,熊本市中央区,九品寺５丁目２番５０―１０３号レクシアシティ九品寺グラナス,,43,101,8620976,,,,,,,2022-11-16,1,,,,,シャルル,0
2507,9380001033267,新規,0,2022-11-16,2022-11-16,株式会社ＣｏｌｏｒｆｕｌＨａｒｖｅｓｔ,,株式会社,福島県,いわき市,常磐藤原町藤代１０３番地,,07,204,9728326,,,,,,,2022-11-16,1,,,,,カラフルハーベスト,0
2514,9410003003719,新規,0,2022-11-16,2022-11-16,合同会社ＨＹＲＳ,,合同会社,秋田県,大仙市,川目字月山３５番地１,,05,212,0140066,,,,,,,2022-11-16,1,,,,,ヒルズ,0
2515,9420003002604,新規,0,2022-11-16,2022-11-16,合同会社ジェイ,,合同会社,青森県,むつ市,大平町３２番１１号,,02,208,0350083,,,,,,,2022-11-16,1,,,,,ジェイ,0
2519,9430001087844,新規,0,2022-11-16,2022-11-16,株式会社ＬＩＢＥＲＴＡ,,株式会社,北海道,札幌市清田区,美しが丘三条１丁目１番５号,,01,110,0040813,,,,,,,2022-11-16,1,,,,,リベルタ,0
2523,9430003014458,新規,0,2022-11-16,2022-11-16,合同会社ｍａｃｈｉｔｏ,,合同会社,北海道,千歳市,錦町２丁目３０番地１　２Ｆ,,01,224,0660064,,,,,,,2022-11-16,1,,,,,マチト,0
2533,9700150112945,新規,0,2022-11-16,2022-11-16,フォルモサ生殖医学コンサルティング日本オフィス,,外国会社等,東京都,港区,港南２丁目１５－１品川インターシティＡ棟２８階,,13,103,1080075,３３８　Ｓ　ＬＥＭＯＮ　ＡＶＥ，ＷＡＬＮＵＴ，ＣＡ　９１７８９,,,,,,2022-11-16,1,,,,,フオルモサセイシヨクイガクコンサルテイングニホンオフイス,0
