sequenceNumber,corporateNumber,process,correct,updateDate,changeDate,name,nameImageId,kind,prefectureName,cityName,streetNumber,addressImageId,prefectureCode,cityCode,postCode,addressOutside,addressOutsideImageId,closeDate,closeCause,successorCorporateNumber,changeCause,assignmentDate,latest,enName,enPrefectureName,enCityName,enAddressOutside,furigana,hihyoji
19,1010401184704,新規,0,2024-08-22,2024-08-22,ＥＮＫＡ株式会社,,株式会社,東京都,港区,六本木１丁目６番１号泉ガーデンタワー,,13,103,1060032,,,,,,,2024-08-22,1,,,,,エンカ,0
24,1010403033223,新規,0,2024-08-22,2024-08-22,合同会社パーフェクトプラン,,合同会社,東京都,港区,南青山１丁目２６番１６号乃木坂リリエンハイム５０４,,13,103,1070062,,,,,,,2024-08-22,1,,,,,パーフェクトプラン,0
38,1010801035341,新規,0,2024-08-22,2024-08-22,株式会社Ｄｒｅａｍ　Ｓｃｏｏｐｓ,,株式会社,東京都,大田区,大森南２丁目１８番２号,,13,111,1430013,,,,,,,2024-08-22,1,,,,,ドリームスクープス,0
53,1011001164187,新規,0,2024-08-22,2024-08-22,株式会社リトレジャー,,株式会社,東京都,渋谷区,宇田川町６番２０号パークアクシス渋谷神南１００５,,13,113,1500042,,,,,,,2024-08-22,1,,,,,リトレジャー,0
54,1011001164220,新規,0,2024-08-22,2024-08-22,株式会社テイクスオン,,株式会社,東京都,目黒区,青葉台４丁目４番１２号ＴＨＥ・Ｎ３－ＦＤ１０,,13,110,1530042,,,,,,,2024-08-22,1,,,,,テイクスオン,0
59,1011401026367,新規,0,2024-08-22,2024-08-22,蓉生株式会社,,株式会社,東京都,板橋区,氷川町２０番８－１０１号,,13,119,1730013,,,,,,,2024-08-22,1,,,,,ロンセイ,0
60,1011601027982,新規,0,2024-08-22,2024-08-22,株式会社セツビーノ,,株式会社,東京都,練馬区,関町北２丁目３３番１０号ライオンズプラザ武蔵関リュイール４０６,,13,120,1770051,,,,,,,2024-08-22,1,,,,,セツビーノ,0
62,1011801044729,新規,0,2024-08-22,2024-08-22,福華株式会社,,株式会社,東京都,葛飾区,四つ木５丁目１１－４サニー四つ木３０２号室,,13,122,1240011,,,,,,,2024-08-22,1,,,,,フクカ,0
65,1012401042206,新規,0,2024-08-22,2024-08-22,株式会社一絲,,株式会社,東京都,武蔵野市,吉祥寺南町３丁目２７番２２号,,13,203,1800003,,,,,,,2024-08-22,1,,,,,イッシ,0
66,1012703003079,新規,0,2024-08-22,2024-08-22,ライトパス合同会社,,合同会社,東京都,西東京市,西原町３丁目２番地１２サンクレスト西原５０３,,13,229,1880004,,,,,,,2024-08-22,1,,,,,ライトパス,0
67,1013101009494,新規,0,2024-08-22,2024-08-22,株式会社白丸ｖｉｌｌａｇｅ,,株式会社,東京都,西多摩郡奥多摩町,白丸２７―１８,,13,308,1980107,,,,,,,2024-08-22,1,,,,,シロマルビレッジ,0
68,1013301053004,新規,0,2024-08-22,2024-08-22,株式会社エスティーム,,株式会社,東京都,豊島区,南池袋１丁目１３番２１号藤和ビル８Ｆ,,13,116,1710022,,,,,,,2024-08-22,1,,,,,エスティーム,0
75,1020001158529,新規,0,2024-08-22,2024-08-22,ｙａｎｇｔｒｅｅ株式会社,,株式会社,神奈川県,横浜市青葉区,美しが丘１丁目１３番地１０吉村ビル１０７号,,14,117,2250002,,,,,,,2024-08-22,1,,,,,ヤングツリー,0
76,1020001158553,新規,0,2024-08-22,2024-08-22,株式会社結,,株式会社,神奈川県,横浜市南区,前里町４丁目９７番地,,14,105,2320004,,,,,,,2024-08-22,1,,,,,ムズブ,0
77,1020001158561,新規,0,2024-08-22,2024-08-22,株式会社アナザールート,,株式会社,神奈川県,横浜市神奈川区,金港町５－１４クアドリフォリオ８階,,14,102,2210056,,,,,,,2024-08-22,1,,,,,アナザールート,0
78,1020001158578,新規,0,2024-08-22,2024-08-22,株式会社ｉｍｏｙａｓｕｍｉ,,株式会社,神奈川県,川崎市麻生区,万福寺５丁目１３番６号アートヒルズ新百合山手３０２,,14,137,2150004,,,,,,,2024-08-22,1,,,,,イモヤスミ,0
79,1020001158586,新規,0,2024-08-22,2024-08-22,株式会社クジライト,,株式会社,神奈川県,川崎市川崎区,宮本町６番地２－８０５,,14,131,2100004,,,,,,,2024-08-22,1,,,,,クジライト,0
80,1020001158594,新規,0,2024-08-22,2024-08-22,株式会社横浜Ｆアクロス,,株式会社,神奈川県,横浜市中区,曙町１丁目３番地藤和伊勢佐木町ハイタウン８１９号室,,14,104,2310057,,,,,,,2024-08-22,1,,,,,ヨコハマエフアクロス,0
81,1020001158603,新規,0,2024-08-22,2024-08-22,株式会社山崎不動産,00136034,株式会社,神奈川県,川崎市多摩区,菅２丁目１０番２６号,,14,135,2140001,,,,,,,2024-08-22,1,,,,,ヤマザキフドウサン,0
85,1020003026675,新規,0,2024-08-22,2024-08-22,合同会社ＷｉｌｌｘＷｉｌｌ,,合同会社,神奈川県,川崎市多摩区,登戸２５６８ゴールデン街ビル４Ｆ,,14,135,2140014,,,,,,,2024-08-22,1,,,,,ウィルウィル,0
86,1020003026683,新規,0,2024-08-22,2024-08-22,Ｋａｗａｍａｔａ合同会社,,合同会社,神奈川県,川崎市川崎区,砂子２丁目７番地１４－２０１号室,,14,131,2100006,,,,,,,2024-08-22,1,,,,,カワマタ,0
87,1020003026700,新規,0,2024-08-22,2024-08-22,Ｓｏｆｕｃａ合同会社,,合同会社,神奈川県,横浜市西区,北幸２丁目１０番４８号むつみビル３階,,14,103,2200004,,,,,,,2024-08-22,1,,,,,ソフカ,0
100,1030001162050,新規,0,2024-08-22,2024-08-22,ＳＲＤ株式会社,,株式会社,埼玉県,三郷市,彦川戸１丁目１６８,,11,237,3410005,,,,,,,2024-08-22,1,,,,,エスアールディー,0
105,1040001135047,新規,0,2024-08-22,2024-08-22,株式会社白樺堂,,株式会社,千葉県,我孫子市,天王台６丁目１０番１号ＫＯＳＨＯビル１階,,12,222,2701143,,,,,,,2024-08-22,1,,,,,シラカバドウ,0
110,1040003025642,新規,0,2024-08-22,2024-08-22,合同会社Ｃｈｅｒｒｙ　Ｏｒｃｈａｒｄ,,合同会社,千葉県,松戸市,串崎南町３９番地,,12,207,2702215,,,,,,,2024-08-22,1,,,,,チェリーオーチャード,0
111,1040003025650,新規,0,2024-08-22,2024-08-22,ヒューマンエクイティ合同会社,,合同会社,千葉県,流山市,西平井１丁目１番地の１ポレスター流山平和台７０９,,12,220,2700156,,,,,,,2024-08-22,1,,,,,ヒューマンエクイティ,0
112,1040005022472,新規,0,2024-08-22,2024-08-22,一般社団法人地域ふれあいＪＡＰＡＮ,,その他の設立登記法人,千葉県,市川市,入船３番１－１０５号,,12,203,2720134,,,,,,,2024-08-22,1,,,,,チイキフレアイジャパン,0
113,1050001055236,新規,0,2024-08-22,2024-08-22,あおと測建株式会社,,株式会社,茨城県,つくば市,金田１１３番地１,,08,220,3050018,,,,,,,2024-08-22,1,,,,,アオトソッケン,0
114,1050001055285,新規,0,2024-08-22,2024-08-22,エムジーネクスト株式会社,,株式会社,茨城県,つくばみらい市,絹の台３丁目１９番地２,,08,235,3002436,,,,,,,2024-08-22,1,,,,,エムジーネクスト,0
115,1050001055293,新規,0,2024-08-22,2024-08-22,株式会社ベルプランニング,,株式会社,茨城県,北茨城市,華川町上小津田１３４１番地１３,,08,215,3191532,,,,,,,2024-08-22,1,,,,,ベルプランニング,0
117,1060003005213,新規,0,2024-08-22,2024-08-22,クールラボ合同会社,,合同会社,栃木県,下野市,薬師寺１４７７番地,,09,216,3290431,,,,,,,2024-08-22,1,,,,,クールラボ,0
121,1080001026457,新規,0,2024-08-22,2024-08-22,株式会社ＴＳＯＬ,,株式会社,静岡県,静岡市駿河区,稲川２丁目９番８号パークマンション４０１,,22,102,4228062,,,,,,,2024-08-22,1,,,,,,0
122,1080003003280,新規,0,2024-08-22,2024-08-22,合同会社Ｅｘｐｌｏｒｅｒ,,合同会社,静岡県,島田市,本通２丁目５－６,,22,209,4270022,,,,,,,2024-08-22,1,,,,,エクスプローラー,0
125,1080401027393,新規,0,2024-08-22,2024-08-22,株式会社エスケーホームサービス,,株式会社,静岡県,磐田市,森下６９ルート０３ビル３Ｆ３２１号室,,22,211,4380834,,,,,,,2024-08-22,1,,,,,エスケーホームサービス,0
137,1120001267939,新規,0,2024-08-22,2024-08-22,ＥＣＯ　ＥＡＲＴＨ株式会社,,株式会社,大阪府,大阪市阿倍野区,晴明通１１番１１号,,27,119,5450032,,,,,,,2024-08-22,1,,,,,エコアース,0
142,1120101070185,新規,0,2024-08-22,2024-08-22,株式会社グラスワイド,,株式会社,大阪府,富田林市,若松町２丁目７番１３号,,27,214,5840024,,,,,,,2024-08-22,1,,,,,グラスワイド,0
150,1130001077767,新規,0,2024-08-22,2024-08-22,ＰＬＵＭ　ＰＩＮＥ株式会社,,株式会社,京都府,京都市左京区,松ケ崎雲路町１７－１ＡＩＭ北山３－北,,26,103,6060955,,,,,,,2024-08-22,1,,,,,プラムパイン,0
153,1130003009801,新規,0,2024-08-22,2024-08-22,Ａｉ‐ｅＴｒｅｋ合同会社,,合同会社,京都府,京都市下京区,朱雀宝蔵町４４番地協栄ビル２階京都朱雀スタジオ,,26,106,6008846,,,,,,,2024-08-22,1,,,,,エイアイイートレック,0
158,1140001135490,新規,0,2024-08-22,2024-08-22,株式会社ＣＩＣＡ,,株式会社,兵庫県,神戸市灘区,篠原台１２番６号,,28,102,6570016,,,,,,,2024-08-22,1,,,,,シカ,0
159,1140001135581,新規,0,2024-08-22,2024-08-22,エコノ・リソース株式会社,,株式会社,兵庫県,宝塚市,川面５丁目１０－６１－１０４,,28,214,6650842,,,,,,,2024-08-22,1,,,,,エコノリソース,0
162,1140003020996,新規,0,2024-08-22,2024-08-22,合同会社ＳＵＰＯ,,合同会社,兵庫県,神戸市東灘区,森北町７丁目２番９号,,28,101,6580001,,,,,,,2024-08-22,1,,,,,サポ,0
163,1150001027514,新規,0,2024-08-22,2024-08-22,株式会社Ｂｉｌｉｓｈｅ,,株式会社,奈良県,北葛城郡河合町,高塚台２丁目１６番地１,00136033,29,427,6360071,,,,,,,2024-08-22,1,,,,,ビリシー,0
174,1180001162977,新規,0,2024-08-22,2024-08-22,株式会社ＲａｎＲａｎ,,株式会社,愛知県,名古屋市中区,千代田５丁目７番５号,,23,106,4600012,,,,,,,2024-08-22,1,,,,,ランラン,0
176,1180003027229,新規,0,2024-08-22,2024-08-22,合同会社ＳＴＥＰ　ＯＵＴ,,合同会社,愛知県,名古屋市中区,千代田４丁目１２番２７号（サンパーク千代田２０６号）,,23,106,4600012,,,,,,,2024-08-22,1,,,,,ステップアウト,0
182,1190001031578,新規,0,2024-08-22,2024-08-22,徳栄丸水産株式会社,,株式会社,三重県,尾鷲市,中村町１番９号,,24,209,5193616,,,,,,,2024-08-22,1,,,,,トクエイマルスイサン,0
183,1200001042854,新規,0,2024-08-22,2024-08-22,株式会社トミテック,,株式会社,岐阜県,大垣市,坂下町９７番地５,,21,202,5030009,,,,,,,2024-08-22,1,,,,,トミテック,0
187,1240003006820,新規,0,2024-08-22,2024-08-22,合同会社ＦＦバウム,,合同会社,広島県,福山市,沼隈町大字常石９９０番地１,,34,207,7200313,,,,,,,2024-08-22,1,,,,,エフエフバウム,0
190,1260003004871,新規,0,2024-08-22,2024-08-22,合同会社クラフトプレイス,,合同会社,岡山県,苫田郡鏡野町,女原１０１番地,,33,606,7080423,,,,,,,2024-08-22,1,,,,,クラフトプレイス,0
191,1270001009038,新規,0,2024-08-22,2024-08-22,ポージャパン株式会社,,株式会社,鳥取県,米子市,上後藤６丁目９番１７号,,31,202,6830841,,,,,,,2024-08-22,1,,,,,ポージャパン,0
193,1290003015684,新規,0,2024-08-22,2024-08-22,アイデザイン合同会社,,合同会社,福岡県,大牟田市,大字三池９１５番地１,,40,202,8370921,,,,,,,2024-08-22,1,,,,,アイデザイン,0
194,1290003015726,新規,0,2024-08-22,2024-08-22,ＮＡＳＴ合同会社,,合同会社,福岡県,小郡市,美鈴が丘５丁目４番地１８,,40,216,8380101,,,,,,,2024-08-22,1,,,,,ナスト,0
197,1320003004452,新規,0,2024-08-22,2024-08-22,合同会社快適住宅供給,,合同会社,大分県,大分市,松が丘３丁目１３番１６号,,44,201,8701168,,,,,,,2024-08-22,1,,,,,カイテキジュウタクキョウキュウ,0
198,1330001032388,新規,0,2024-08-22,2024-08-22,通洋工程株式会社,,株式会社,熊本県,菊池郡大津町,大字町３３７番地１４,,43,403,8691224,,,,,,,2024-08-22,1,,,,,ツウヨウコウテイ,0
207,1400001016763,新規,0,2024-08-22,2024-08-22,エール不動産株式会社,,株式会社,岩手県,花巻市,四日町３丁目１９番１７号オニキススクエアＢ号室,,03,205,0250072,,,,,,,2024-08-22,1,,,,,エールフドウサン,0
212,1430001092521,新規,0,2024-08-22,2024-08-22,株式会社ＩＧサポート,,株式会社,北海道,滝川市,東町４丁目９４番地６,,01,225,0730024,,,,,,,2024-08-22,1,,,,,アイジィサポート,0
216,1460105002299,新規,0,2024-08-22,2024-08-22,農事組合法人松木農場,,その他の設立登記法人,北海道,広尾郡広尾町,字野塚４線４４番地１４,,01,642,0892561,,,,,,,2024-08-22,1,,,,,,0
227,2010001247455,新規,0,2024-08-22,2024-08-22,株式会社ＳＴＡＲＴＡＩＬ,,株式会社,東京都,千代田区,外神田４丁目４番８号Ａ－ＦＲＯＮＴ６階,,13,101,1010021,,,,,,,2024-08-22,1,,,,,スターテール,0
228,2010001247612,新規,0,2024-08-22,2024-08-22,株式会社ＡＦ　Ｔｅｃｈ,,株式会社,東京都,中央区,日本橋馬喰町１丁目４番１４－１２０３号,,13,102,1030002,,,,,,,2024-08-22,1,,,,,エーエフテック,0
231,2010003044561,新規,0,2024-08-22,2024-08-22,合同会社ＳＴＡＹ６,,合同会社,東京都,中央区,京橋２丁目１２番６号ＡＯＪ税理士法人内,,13,102,1040031,,,,,,,2024-08-22,1,,,,,ステイシックス,0
237,2010401184496,新規,0,2024-08-22,2024-08-22,株式会社民泊消防設備,,株式会社,東京都,港区,芝４丁目１６番１号Ｗ１１１５,,13,103,1080014,,,,,,,2024-08-22,1,,,,,ミンパクショウボウセツビ,0
238,2010401184587,新規,0,2024-08-22,2024-08-22,リレーションプラス株式会社,,株式会社,東京都,港区,赤坂９丁目６番３０号ルイマーブル乃木坂３１１,,13,103,1070052,,,,,,,2024-08-22,1,,,,,リレーションプラス,0
239,2010403033271,新規,0,2024-08-22,2024-08-22,合同会社Ｃｏｍｓｏｌ,,合同会社,東京都,港区,浜松町２丁目２番１５号浜松町ダイヤビル２Ｆ,,13,103,1050013,,,,,,,2024-08-22,1,,,,,コムソル,0
250,2010903009309,新規,0,2024-08-22,2024-08-22,合同会社Ａｔｈａｎａｓｉａ,,合同会社,東京都,世田谷区,深沢１丁目２０－７,,13,112,1580081,,,,,,,2024-08-22,1,,,,,アタナシア,0
254,2011001163997,新規,0,2024-08-22,2024-08-22,株式会社ｇｒｕｂｉｏ,,株式会社,東京都,渋谷区,渋谷２丁目１９－１５宮益坂ビルディング６０９,,13,113,1500002,,,,,,,2024-08-22,1,,,,,グルビオ,0
255,2011001164054,新規,0,2024-08-22,2024-08-22,ｎｏｗｈｅｒｅ　ｆｉｌｍ株式会社,,株式会社,東京都,渋谷区,円山町２８番地８号第１８宮廷マンション１０４,,13,113,1500044,,,,,,,2024-08-22,1,,,,,ノーウェアフィルム,0
256,2011001164194,新規,0,2024-08-22,2024-08-22,株式会社メディアノマド,,株式会社,東京都,目黒区,目黒２丁目１５番１２号,,13,110,1530063,,,,,,,2024-08-22,1,,,,,メディアノマド,0
262,2011103014818,新規,0,2024-08-22,2024-08-22,ｔｈｅ３合同会社,,合同会社,東京都,新宿区,西新宿３丁目３番１３号西新宿水間ビル６階,,13,104,1600023,,,,,,,2024-08-22,1,,,,,ザスリー,0
266,2011803006420,新規,0,2024-08-22,2024-08-22,合同会社エテルノ,,合同会社,東京都,葛飾区,鎌倉１丁目３４番２３号ＨＯＯＺＵＫＩハイム２０２,,13,122,1250053,,,,,,,2024-08-22,1,,,,,エテルノ,0
269,2013301052987,新規,0,2024-08-22,2024-08-22,株式会社ＦＧＣ,,株式会社,東京都,豊島区,東池袋３丁目２２番２１－１２０９号,,13,116,1700013,,,,,,,2024-08-22,1,,,,,エフジーシー,0
270,2013301053011,新規,0,2024-08-22,2024-08-22,楽易株式会社,,株式会社,東京都,豊島区,東池袋１丁目３６番３号池袋陽光ハイツ１００３,,13,116,1700013,,,,,,,2024-08-22,1,,,,,ラクイ,0
274,2020001158569,新規,0,2024-08-22,2024-08-22,株式会社Ｏｔｅｔｅ,,株式会社,神奈川県,横浜市中区,北仲通５丁目５７－２ＫＩＴＡＮＡＫＡＢＲＩＣＫ＆ＷＨＩＴＥＢＲＩＣＫｓｏｕｔｈニサンカイＥ－２,,14,104,2310003,,,,,,,2024-08-22,1,,,,,オテテ,0
275,2020001158593,新規,0,2024-08-22,2024-08-22,株式会社ワン・ファミリー,,株式会社,神奈川県,川崎市高津区,北見方１丁目１９番１８－２号,,14,134,2130005,,,,,,,2024-08-22,1,,,,,ワンファミリー,0
276,2020001158602,新規,0,2024-08-22,2024-08-22,株式会社リユーステラス,,株式会社,神奈川県,横浜市南区,中村町２丁目１２６番地１３リベルテ石川町壱番館２０２,,14,105,2320033,,,,,,,2024-08-22,1,,,,,リユーステラス,0
279,2020003026716,新規,0,2024-08-22,2024-08-22,ＰＴ　ＪＡＰＡＮ合同会社,,合同会社,神奈川県,横浜市中区,山下町１番地シルクセンター１００７,,14,104,2310023,,,,,,,2024-08-22,1,,,,,ピーティージャパン,0
281,2021001083055,新規,0,2024-08-22,2024-08-22,株式会社辻,00136031,株式会社,神奈川県,横須賀市,大滝町１丁目４番地,,14,201,2380008,,,,,,,2024-08-22,1,,,,,ツジ,0
282,2021001083063,新規,0,2024-08-22,2024-08-22,株式会社ＭＹハウジング,,株式会社,神奈川県,相模原市南区,新磯野１丁目３５番１４号１Ｂ,,14,153,2520325,,,,,,,2024-08-22,1,,,,,マイハウジング,0
285,2021003014933,新規,0,2024-08-22,2024-08-22,合同会社あい,,合同会社,神奈川県,足柄上郡松田町,寄４７８,,14,363,2580001,,,,,,,2024-08-22,1,,,,,アイ,0
302,2040001135046,新規,0,2024-08-22,2024-08-22,株式会社エスハウスドットコム,,株式会社,千葉県,千葉市中央区,要町２番１２号豊和東千葉ビル５階,,12,101,2600017,,,,,,,2024-08-22,1,,,,,エスハウスドットコム,0
303,2040001135070,新規,0,2024-08-22,2024-08-22,株式会社Ｒａｋａｎ,,株式会社,千葉県,八千代市,ゆりのき台５丁目１２番地５,,12,221,2760042,,,,,,,2024-08-22,1,,,,,ラカン,0
305,2040005022471,新規,0,2024-08-22,2024-08-22,一般社団法人松戸ボートクラブ,,その他の設立登記法人,千葉県,松戸市,小金原３丁目４番地の１５,,12,207,2700021,,,,,,,2024-08-22,1,,,,,マツドボートクラブ,0
307,2050001055292,新規,0,2024-08-22,2024-08-22,株式会社ＨｕｔｔｅＭａｒｋ,,株式会社,茨城県,つくば市,研究学園３丁目１７番地８,,08,220,3050817,,,,,,,2024-08-22,1,,,,,ヒュッテマーク,0
311,2050003008620,新規,0,2024-08-22,2024-08-22,合同会社Ｌｕｘ,,合同会社,茨城県,小美玉市,小岩戸１２９８番地２,,08,236,3190107,,,,,,,2024-08-22,1,,,,,ラックス,0
314,2060001037397,新規,0,2024-08-22,2024-08-22,水木株式会社,,株式会社,栃木県,佐野市,赤坂町９７３番地の１５,,09,204,3270004,,,,,,,2024-08-22,1,,,,,ミズキ,0
320,2070003005558,新規,0,2024-08-22,2024-08-22,ＨＭＣ合同会社,,合同会社,群馬県,伊勢崎市,大手町２５－５,,10,204,3720048,,,,,,,2024-08-22,1,,,,,エイチエムシー,0
332,2110001038654,新規,0,2024-08-22,2024-08-22,株式会社ウエスト,,株式会社,新潟県,長岡市,新保４丁目１６番５号,,15,202,9400875,,,,,,,2024-08-22,1,,,,,ウエスト,0
334,2110003005495,新規,0,2024-08-22,2024-08-22,合同会社フィレン,,合同会社,新潟県,新潟市西区,坂井１丁目１３番６号,,15,107,9502042,,,,,,,2024-08-22,1,,,,,フィレン,0
347,2120001267772,新規,0,2024-08-22,2024-08-22,株式会社アイリード,,株式会社,大阪府,大阪市西区,阿波座１丁目１１番１９号,,27,106,5500011,,,,,,,2024-08-22,1,,,,,アイリード,0
348,2120001267970,新規,0,2024-08-22,2024-08-22,株式会社マナベホールディングス,,株式会社,大阪府,大阪市旭区,大宮４丁目１０－１８,,27,117,5350002,,,,,,,2024-08-22,1,,,,,マナベホールディングス,0
349,2120003027349,新規,0,2024-08-22,2024-08-22,合同会社ＴＡＫＥ・ｓ,,合同会社,大阪府,大阪市天王寺区,味原町７－１８ＴＳマンション壱番館２０１号,,27,109,5430023,,,,,,,2024-08-22,1,,,,,タケドットエス,0
354,2120103006021,新規,0,2024-08-22,2024-08-22,合同会社ｈｕｍｍｅｒ,,合同会社,大阪府,泉南市,信達牧野４００－３美福ビル２Ａ号室,,27,228,5900522,,,,,,,2024-08-22,1,,,,,ハマー,0
359,2130001077758,新規,0,2024-08-22,2024-08-22,株式会社晃月Ｌｉｆｅ,,株式会社,京都府,亀岡市,安町中畠３９番地,,26,206,6210805,,,,,,,2024-08-22,1,,,,,コウヅキライフ,0
360,2130001077766,新規,0,2024-08-22,2024-08-22,株式会社ｎｉｃｏｒｉ,,株式会社,京都府,京都市山科区,竹鼻竹ノ街道町３４番地５ドエル竹鼻４０３号,,26,110,6078080,,,,,,,2024-08-22,1,,,,,ニコリ,0
361,2130001077774,新規,0,2024-08-22,2024-08-22,株式会社Ｓｔ・Ｋｅｌｌｙ,,株式会社,京都府,南丹市,日吉町上胡麻辻ノ本５番地,00136035,26,213,6290312,,,,,,,2024-08-22,1,,,,,セントケリー,0
362,2130001077790,新規,0,2024-08-22,2024-08-22,株式会社眞空,,株式会社,京都府,京都市南区,吉祥院中河原西屋敷町７番地,,26,107,6018395,,,,,,,2024-08-22,1,,,,,シンクウ,0
363,2130003009809,新規,0,2024-08-22,2024-08-22,合同会社仲善,,合同会社,京都府,向日市,初田１番地石井マンション１０１,,26,208,6170000,,,,,,,2024-08-22,1,,,,,ナカヨシ,0
365,2140003020995,新規,0,2024-08-22,2024-08-22,合同会社芙蓉インターナショナル,,合同会社,兵庫県,神戸市西区,樫野台５丁目３番地６－２５０３号,,28,111,6512275,,,,,,,2024-08-22,1,,,,,フヨウインターナショナル,0
367,2140005027188,新規,0,2024-08-22,2024-08-22,農事組合法人アグリ安田の郷,,その他の設立登記法人,兵庫県,多可郡多可町,中区中安田３３番地,,28,365,6791122,,,,,,,2024-08-22,1,,,,,アグリヤスダノサト,0
369,2150001027513,新規,0,2024-08-22,2024-08-22,株式会社フミ＆シモンズ,,株式会社,奈良県,生駒市,山崎町３番７－Ａ４０８号,,29,209,6300252,,,,,,,2024-08-22,1,,,,,フミアンドシモンズ,0
380,2180001162984,新規,0,2024-08-22,2024-08-22,株式会社Ｃａｓｃａｄｅ　Ｔａｋｅｕｃｈｉ,,株式会社,愛知県,知多郡武豊町,大字冨貴字中田１番地２５,,23,447,4702531,,,,,,,2024-08-22,1,,,,,カスケードタケウチ,0
393,2240003006811,新規,0,2024-08-22,2024-08-22,Ｗａｋｏｕ　Ｊａｐａｎ　Ｔｒａｄｅ合同会社,,合同会社,広島県,庄原市,七塚町５６３－３,,34,210,7270023,,,,,,,2024-08-22,1,,,,,ワコウジャパントレード,0
396,2270001009037,新規,0,2024-08-22,2024-08-22,株式会社みのり技建,,株式会社,鳥取県,米子市,美吉２３０番地９,,31,202,6830034,,,,,,,2024-08-22,1,,,,,ミノリギケン,0
405,2290001106897,新規,0,2024-08-22,2024-08-22,株式会社ＡＤ‐Ｓｔｙｌｅ．,,株式会社,福岡県,福岡市中央区,天神１丁目１番１号アクロス福岡１Ｆ,,40,133,8100001,,,,,,,2024-08-22,1,,,,,エーディースタイル,0
406,2290001106939,新規,0,2024-08-22,2024-08-22,株式会社ＩＮＳＴ,,株式会社,福岡県,糟屋郡志免町,別府西２丁目２３番３号,,40,343,8112232,,,,,,,2024-08-22,1,,,,,インエスティ,0
411,2290003015683,新規,0,2024-08-22,2024-08-22,合同会社Ｒｏｃｋ,,合同会社,福岡県,福岡市中央区,渡辺通２丁目９－２０,,40,133,8100004,,,,,,,2024-08-22,1,,,,,ロック,0
416,2330001032387,新規,0,2024-08-22,2024-08-22,株式会社Ｔ．ＷＯＲＫ,,株式会社,熊本県,菊池郡大津町,大字室３２７番地１グリーンハイツ１０３号,,43,403,8691235,,,,,,,2024-08-22,1,,,,,ティーワーク,0
417,2330001032395,新規,0,2024-08-22,2024-08-22,株式会社ＧｒｏＶｉｔ,,株式会社,熊本県,熊本市中央区,上通町６番１５号２Ｆ,,43,101,8600845,,,,,,,2024-08-22,1,,,,,グロヴィット,0
430,2390001017713,新規,0,2024-08-22,2024-08-22,三宝株式会社,,株式会社,山形県,酒田市,刈屋字堂ノ前１７番地,,06,204,9998132,,,,,,,2024-08-22,1,,,,,サンポウ,0
431,2410003003972,新規,0,2024-08-22,2024-08-22,合同会社ＷＩＭ,,合同会社,秋田県,大館市,中神明町３番１３号,,05,204,0170867,,,,,,,2024-08-22,1,,,,,ウィム,0
437,2430003016700,新規,0,2024-08-22,2024-08-22,合同会社Ｆｏｒｅｌｓｋｅｔ,,合同会社,北海道,虻田郡ニセコ町,字ニセコ３２７番地８２,,01,395,0481511,,,,,,,2024-08-22,1,,,,,フォレルスケット,0
440,2450003002533,新規,0,2024-08-22,2024-08-22,合同会社ガレージペントルーフ,,合同会社,北海道,旭川市,東旭川北一条５丁目９－７,,01,204,0788251,,,,,,,2024-08-22,1,,,,,ガレージペントルーフ,0
441,2460105002298,新規,0,2024-08-22,2024-08-22,農事組合法人藤田農場,,その他の設立登記法人,北海道,広尾郡広尾町,東二条１２丁目１番地の２,,01,642,0892602,,,,,,,2024-08-22,1,,,,,,0
442,2470001020353,新規,0,2024-08-22,2024-08-22,誠信商事株式会社,,株式会社,香川県,高松市,川島東町１４１３番地,,37,201,7610443,,,,,,,2024-08-22,1,,,,,セイシンショウジ,0
445,2490001010856,新規,0,2024-08-22,2024-08-22,龍馬商事株式会社,,株式会社,高知県,香南市,野市町西野２１２２－４ひなたコーポ３０３,,39,211,7815232,,,,,,,2024-08-22,1,,,,,リュウマショウジ,0
448,2700150123131,新規,0,2024-08-22,2024-08-22,ＯＥＭ　Ｔｅｃｈ　Ｂａｒｇａｉｎｓ　ＬＬＣ,,外国会社等,,,,,,,,４４６　Ｗ．４ｔｈ　Ａｖｅ　Ｄａｙｔｏｎ　ＷＹ　８２８３６　ＵＳ,,,,,,2024-08-22,1,,,,,オーイーエムテックバーゲンズエルエルシー,0
455,3010001247594,新規,0,2024-08-22,2024-08-22,株式会社ＳＵＺＵ,,株式会社,東京都,中央区,日本橋室町１丁目１１番１２号日本橋水野ビル７階,,13,102,1030022,,,,,,,2024-08-22,1,,,,,スズ,0
456,3010001247628,新規,0,2024-08-22,2024-08-22,株式会社ＣＹＬＯＮ,,株式会社,東京都,中央区,日本橋２丁目２番３号ＲＩＳＨＥビルＵＣＦ４０２,,13,102,1030027,,,,,,,2024-08-22,1,,,,,サイロン,0
457,3010001247636,新規,0,2024-08-22,2024-08-22,株式会社エスアイエーメディア,,株式会社,東京都,千代田区,大手町１丁目８番１号,,13,101,1000004,,,,,,,2024-08-22,1,,,,,エスアイエーメディア,0
458,3010001247735,新規,0,2024-08-22,2024-08-22,株式会社アール,,株式会社,東京都,中央区,銀座８丁目１２番６号２Ｆ,,13,102,1040061,,,,,,,2024-08-22,1,,,,,アール,0
460,3010003044560,新規,0,2024-08-22,2024-08-22,福島小高ソーラーリース合同会社,,合同会社,東京都,中央区,京橋２丁目１２番６号ＡＯＪ税理士法人内,,13,102,1040031,,,,,,,2024-08-22,1,,,,,フクシマオダカソーラーリース,0
461,3010005038627,新規,0,2024-08-22,2024-08-22,一般社団法人Ｎｅｘｔ　Ｓｍａｒｔ,,その他の設立登記法人,東京都,千代田区,鍛冶町２丁目６番２号２階,,13,101,1010044,,,,,,,2024-08-22,1,,,,,ネクストスマート,0
468,3010401184553,新規,0,2024-08-22,2024-08-22,Ｍｉ‐Ｍｏ株式会社,,株式会社,東京都,港区,芝４丁目５－１２三田ハイツ５０４,,13,103,1080014,,,,,,,2024-08-22,1,,,,,ミーモ,0
469,3010401184586,新規,0,2024-08-22,2024-08-22,株式会社エルピス,,株式会社,東京都,港区,南青山１丁目１１番３１号,,13,103,1070062,,,,,,,2024-08-22,1,,,,,エルピス,0
470,3010401184685,新規,0,2024-08-22,2024-08-22,株式会社イミロン,,株式会社,東京都,港区,虎ノ門５丁目９－１麻布台ヒルズガーデンＢ５Ｆ,,13,103,1050001,,,,,,,2024-08-22,1,,,,,イミロン,0
473,3010501052800,新規,0,2024-08-22,2024-08-22,株式会社ピュアホーム,,株式会社,東京都,台東区,竜泉２丁目１２番１２－９０４号,,13,106,1100012,,,,,,,2024-08-22,1,,,,,ピュアホーム,0
476,3010703007313,新規,0,2024-08-22,2024-08-22,合同会社Ｓｔｕｄｉｏ　Ｒｅｎｄｅｚｖｏｕｓ,,合同会社,東京都,品川区,南品川１丁目５―１１,,13,109,1400004,,,,,,,2024-08-22,1,,,,,スタジオランデヴー,0
481,3010901055840,新規,0,2024-08-22,2024-08-22,株式会社ＴＲＡＤ　ＮＯＷＡＤＡＹＳ,,株式会社,東京都,世田谷区,駒沢５丁目２０番１７号パークサイド駒沢１０２,,13,112,1540012,,,,,,,2024-08-22,1,,,,,トラッドナウアデェイズ,0
482,3010901055849,新規,0,2024-08-22,2024-08-22,ＡＮＴＺ　ＦＩＬＭ　ＳＴＵＤＩＯ株式会社,,株式会社,東京都,世田谷区,桜３丁目２３番１号サクラハウスＦ,,13,112,1560053,,,,,,,2024-08-22,1,,,,,アンツフィルムスタジオ,0
483,3010901055857,新規,0,2024-08-22,2024-08-22,株式会社Ｃｒｅｎｉｔｙ,,株式会社,東京都,世田谷区,粕谷４丁目１５－６グランデュール千歳烏山５０４,,13,112,1570063,,,,,,,2024-08-22,1,,,,,クリニティ,0
488,3011101108521,新規,0,2024-08-22,2024-08-22,３Ｘ３Ｇｌｏｂａｌ　Ｇａｍｅｓ株式会社,,株式会社,東京都,新宿区,西新宿３丁目３番１３号,,13,104,1600023,,,,,,,2024-08-22,1,,,,,スリーエックススリーグローバルゲームズ,0
492,3011501031067,新規,0,2024-08-22,2024-08-22,株式会社Ｓｈｅｌｐ　Ｌｉｎｋ,,株式会社,東京都,荒川区,荒川７丁目５０番９－２００２号センターまちや,,13,118,1160002,,,,,,,2024-08-22,1,,,,,シェルプリンク,0
495,3011801044702,新規,0,2024-08-22,2024-08-22,株式会社レオナ,,株式会社,東京都,葛飾区,青戸２丁目７番１４号,,13,122,1250062,,,,,,,2024-08-22,1,,,,,レオナ,0
496,3012301014055,新規,0,2024-08-22,2024-08-22,株式会社ＬＩＮＯ,,株式会社,東京都,町田市,南町田３丁目３２番２９号ルピナス南町田４０６,,13,209,1940005,,,,,,,2024-08-22,1,,,,,リノ,0
497,3012403006719,新規,0,2024-08-22,2024-08-22,ラニウェルネス合同会社,,合同会社,東京都,調布市,佐須町１丁目２４番地５,,13,208,1820016,,,,,,,2024-08-22,1,,,,,,0
499,3012801023407,新規,0,2024-08-22,2024-08-22,最前線株式会社,,株式会社,東京都,日野市,日野本町３丁目１４番１８号谷井ビル４階４０４室,,13,212,1910011,,,,,,,2024-08-22,1,,,,,サイゼンセン,0
500,3013301052994,新規,0,2024-08-22,2024-08-22,株式会社ＴＯＨＫＩ,,株式会社,東京都,豊島区,東池袋３丁目１５番２,,13,116,1700013,,,,,,,2024-08-22,1,,,,,トーキ,0
507,3020001158527,新規,0,2024-08-22,2024-08-22,株式会社アーティファクト,,株式会社,神奈川県,横浜市港北区,箕輪町２丁目１８番１３－３０１号,,14,109,2230051,,,,,,,2024-08-22,1,,,,,アーティファクト,0
508,3020001158551,新規,0,2024-08-22,2024-08-22,株式会社ＣａｒｅｅｒＲｏｌｅ,,株式会社,神奈川県,横浜市神奈川区,金港町５－１４クアドリフォリオ８階,,14,102,2210056,,,,,,,2024-08-22,1,,,,,キャリアロール,0
509,3020001158568,新規,0,2024-08-22,2024-08-22,ＧＲＡＴＩＴＵＤＥ　ＢＩＳＴＲＯ　ＤＩＹＯ株式会社,,株式会社,神奈川県,川崎市幸区,南加瀬２丁目１９－２,,14,132,2120055,,,,,,,2024-08-22,1,,,,,グラティテュービストロディヨ,0
510,3020001158642,新規,0,2024-08-22,2024-08-22,株式会社ＧｏＡｌ,,株式会社,神奈川県,川崎市宮前区,鷺沼４丁目１４番地２,,14,136,2160004,,,,,,,2024-08-22,1,,,,,ゴール,0
514,3020003026681,新規,0,2024-08-22,2024-08-22,ＮＴ企画合同会社,,合同会社,神奈川県,川崎市高津区,久本３丁目３番１２号,,14,134,2130011,,,,,,,2024-08-22,1,,,,,エヌティキカク,0
515,3020003026698,新規,0,2024-08-22,2024-08-22,ＡＣ‐ＤＣ　ＥＬＥＣＴＲＩＣＡＬ　ＳＯＬＵＴＩＯＮＳ合同会社,,合同会社,神奈川県,横浜市神奈川区,金港町５－１４クアドリフォリオ８階,,14,102,2210056,,,,,,,2024-08-22,1,,,,,エーシーディーシーエレクトリカルソリューション,0
516,3021001083062,新規,0,2024-08-22,2024-08-22,株式会社グランツＫ,,株式会社,神奈川県,鎌倉市,植木６８０番地,,14,204,2470073,,,,,,,2024-08-22,1,,,,,グランツケー,0
518,3021003014932,新規,0,2024-08-22,2024-08-22,ＹＳＴ合同会社,,合同会社,神奈川県,横須賀市,野比１丁目３６番２７号,,14,201,2390841,,,,,,,2024-08-22,1,,,,,ワイエスティー,0
522,3030001162032,新規,0,2024-08-22,2024-08-22,フレスタ株式会社,,株式会社,埼玉県,久喜市,上川崎２２９番地５,,11,232,3400204,,,,,,,2024-08-22,1,,,,,フレスタ,0
523,3030001162049,新規,0,2024-08-22,2024-08-22,株式会社ＤＩＹＯＮ　ＬＡＮＫＡ,,株式会社,埼玉県,坂戸市,浅羽野３丁目２番地７ＫＩＳ亜州商会館坂戸Ｃ号室,,11,239,3500237,,,,,,,2024-08-22,1,,,,,ディヨーンランカ,0
525,3030005021812,新規,0,2024-08-22,2024-08-22,一般社団法人さんくねっと,,その他の設立登記法人,埼玉県,さいたま市中央区,大字下落合１７２２番地ＳＷ－１７０５号,,11,105,3380002,,,,,,,2024-08-22,1,,,,,サンクネット,0
532,3040003025649,新規,0,2024-08-22,2024-08-22,合同会社ウィズ,,合同会社,千葉県,市川市,南八幡２丁目７番１号,,12,203,2720023,,,,,,,2024-08-22,1,,,,,ウィズ,0
557,3120001267978,新規,0,2024-08-22,2024-08-22,株式会社杉本よしエステート,,株式会社,大阪府,大阪市旭区,大宮３丁目２０番２２－３０６号,,27,117,5350002,,,,,,,2024-08-22,1,,,,,スギモトヨシエステート,0
559,3120003027364,新規,0,2024-08-22,2024-08-22,合同会社ｓｏａｒ　ｃｏｍｐａｎｙ,,合同会社,大阪府,大阪市平野区,加美東５丁目４－１６ラ・ソラーナ２０６号,,27,126,5470002,,,,,,,2024-08-22,1,,,,,ソアーカンパニー,0
562,3130001077716,新規,0,2024-08-22,2024-08-22,秋井電工株式会社,,株式会社,京都府,京都市伏見区,竹田青池町１０３番地,,26,109,6128426,,,,,,,2024-08-22,1,,,,,アキイデンコウ,0
563,3130001077773,新規,0,2024-08-22,2024-08-22,株式会社Ｑ,,株式会社,京都府,京都市上京区,西洞院通上長者町上る菊屋町２５４番地５,,26,102,6028076,,,,,,,2024-08-22,1,,,,,キュー,0
564,3130001077781,新規,0,2024-08-22,2024-08-22,株式会社Ｋコーポレーション,,株式会社,京都府,京都市中京区,三条通御幸町西入弁慶石町４８番地,,26,104,6048082,,,,,,,2024-08-22,1,,,,,ケイコーポレーション,0
573,3140001135588,新規,0,2024-08-22,2024-08-22,株式会社大成電工,,株式会社,兵庫県,尼崎市,南塚口町３丁目１９番２８－２０２号,,28,202,6610012,,,,,,,2024-08-22,1,,,,,タイセイデンコウ,0
574,3140001135596,新規,0,2024-08-22,2024-08-22,神戸マリーンサービス株式会社,,株式会社,兵庫県,神戸市中央区,下山手通６丁目１番４号オフィス下山手ビル５Ｂ,,28,110,6500011,,,,,,,2024-08-22,1,,,,,コウベマリーンサービス,0
578,3150001027512,新規,0,2024-08-22,2024-08-22,ＰＩＲＡＴＡ　ＴＲＡＤＥ　ＧＲＯＵＰ株式会社,,株式会社,奈良県,橿原市,中町１０９番地１,,29,205,6340009,,,,,,,2024-08-22,1,,,,,ピラタトレードグループ,0
581,3160003003270,新規,0,2024-08-22,2024-08-22,合同会社ライフインフィニティ,,合同会社,滋賀県,守山市,勝部４丁目１番７１－１０号,,25,207,5240041,,,,,,,2024-08-22,1,,,,,ライフインフィニティ,0
587,3180001162686,新規,0,2024-08-22,2024-08-22,株式会社トレジャーボックス,,株式会社,愛知県,日進市,藤塚５丁目１００番地１,,23,230,4700117,,,,,,,2024-08-22,1,,,,,トレジャーボックス,0
588,3180001162950,新規,0,2024-08-22,2024-08-22,株式会社電撃,,株式会社,愛知県,名古屋市中村区,名駅４丁目２４番５号第２森ビル４０１,,23,105,4500002,,,,,,,2024-08-22,1,,,,,デンゲキ,0
589,3180001162967,新規,0,2024-08-22,2024-08-22,株式会社ライフブリッジ,,株式会社,愛知県,名古屋市中村区,名駅４丁目２４番５号第２森ビル４０１,,23,105,4500002,,,,,,,2024-08-22,1,,,,,ライフブリッジ,0
591,3180003027235,新規,0,2024-08-22,2024-08-22,合同会社ゴールド,,合同会社,愛知県,名古屋市中区,栄５丁目２０番２４号フローラル栄ＩＩ４０６号,00136030,23,106,4600008,,,,,,,2024-08-22,1,,,,,ゴールド,0
592,3180003027251,新規,0,2024-08-22,2024-08-22,アーク保険エージェント合同会社,,合同会社,愛知県,愛西市,早尾町北河原３２,,23,232,4960931,,,,,,,2024-08-22,1,,,,,アークホケンエージェント,0
593,3180003027268,新規,0,2024-08-22,2024-08-22,合同会社ふくろう倶楽部,,合同会社,愛知県,名古屋市緑区,滝ノ水５丁目１８０４番地,,23,114,4580021,,,,,,,2024-08-22,1,,,,,フクロウクラブ,0
595,3180005020741,新規,0,2024-08-22,2024-08-22,一般社団法人日本華僑華人企業振興会,,その他の設立登記法人,愛知県,名古屋市熱田区,大宝１丁目１番１号ヴェルクレート日比野Ａ棟２２０号,,23,109,4560062,,,,,,,2024-08-22,1,,,,,ニホンカキョウカジンキギョウシンコウカイ,0
617,3280001009241,新規,0,2024-08-22,2024-08-22,株式会社アンパサンドＫ,,株式会社,島根県,浜田市,金城町七条イ４１９番地,,32,202,6970123,,,,,,,2024-08-22,1,,,,,アンパサンドケイ,0
622,3290001106871,新規,0,2024-08-22,2024-08-22,フェイズ株式会社,,株式会社,福岡県,福岡市博多区,金の隈１丁目１８番１７－２０１号,,40,132,8120863,,,,,,,2024-08-22,1,,,,,フェイズ,0
623,3290001106896,新規,0,2024-08-22,2024-08-22,株式会社Ｓｋｙ　Ｗａｌｋｅｒ　Ｇｒｏｕｐ,,株式会社,福岡県,八女市,立花町山崎２５３９番地,,40,210,8340081,,,,,,,2024-08-22,1,,,,,スカイウォーカーグループ,0
624,3290001106938,新規,0,2024-08-22,2024-08-22,株式会社ＭＯＲＩＸ,,株式会社,福岡県,福岡市城南区,片江５丁目１２番１２号アドヴァンス’９１Ｂ１,,40,136,8140142,,,,,,,2024-08-22,1,,,,,モリックス,0
629,3290005019459,新規,0,2024-08-22,2024-08-22,一般社団法人越境キャリア,,その他の設立登記法人,福岡県,福岡市中央区,赤坂１丁目８番２３号,,40,133,8100042,,,,,,,2024-08-22,1,,,,,エッキョウキャリア,0
630,3290801030817,新規,0,2024-08-22,2024-08-22,株式会社アストラ九州,,株式会社,福岡県,京都郡みやこ町,国作１７３番地２,,40,625,8240125,,,,,,,2024-08-22,1,,,,,アストラキュウシュウ,0
634,3330001032394,新規,0,2024-08-22,2024-08-22,株式会社山川工業,,株式会社,熊本県,熊本市東区,小山町１６３０番地８２,,43,102,8618030,,,,,,,2024-08-22,1,,,,,ヤマカワコウギョウ,0
638,3350003004729,新規,0,2024-08-22,2024-08-22,合同会社ａｎａｔａｎｏ,,合同会社,宮崎県,宮崎市,清武町加納甲１９５９番地７,,45,201,8891605,,,,,,,2024-08-22,1,,,,,アナタノ,0
640,3360001034108,新規,0,2024-08-22,2024-08-22,株式会社ＹＯＬＯ,,株式会社,沖縄県,宜野湾市,真志喜２丁目７番２０－１号、４Ｆ,,47,205,9012224,,,,,,,2024-08-22,1,,,,,ヨロ,0
642,3370001051671,新規,0,2024-08-22,2024-08-22,株式会社藤礼,,株式会社,宮城県,仙台市泉区,永和台７番５号,,04,105,9813104,,,,,,,2024-08-22,1,,,,,フジレイ,0
645,3380001034741,新規,0,2024-08-22,2024-08-22,株式会社ＬＩＦＥ　ＡＩ,,株式会社,福島県,双葉郡大熊町,大字下野上字清水２３０,,07,545,9791308,,,,,,,2024-08-22,1,,,,,ライフエーアイ,0
646,3390001017720,新規,0,2024-08-22,2024-08-22,株式会社Ｈｉｔｏ,,株式会社,山形県,米沢市,春日５丁目２番６１－４号,,06,202,9920044,,,,,,,2024-08-22,1,,,,,ヒト,0
651,3420001018839,新規,0,2024-08-22,2024-08-22,株式会社Ｗｏｒｋｓ　Ｊａｐａｎ,,株式会社,青森県,弘前市,大字取上２丁目１４番地１３,,02,202,0368171,,,,,,,2024-08-22,1,,,,,ワークスジャパン,0
653,3430001092511,新規,0,2024-08-22,2024-08-22,Ｄｅｅ　Ｄｅａｌ株式会社,,株式会社,北海道,札幌市手稲区,金山一条３丁目３番２６号,,01,109,0060041,,,,,,,2024-08-22,1,,,,,ディーディール,0
654,3440003001618,新規,0,2024-08-22,2024-08-22,合同会社リアセット・アシストコム,,合同会社,北海道,函館市,戸倉町２７番１９号,,01,202,0420953,,,,,,,2024-08-22,1,,,,,リアセットアシストコム,0
656,3460301005244,新規,0,2024-08-22,2024-08-22,株式会社ｃｏｃｏ　Ｌｉｆｅ,,株式会社,北海道,北見市,幸町６丁目４番２３号,,01,208,0900036,,,,,,,2024-08-22,1,,,,,ココライフ,0
667,4010001247461,新規,0,2024-08-22,2024-08-22,株式会社価値蔵,,株式会社,東京都,千代田区,飯田橋１丁目６番９号１０階,,13,101,1020072,,,,,,,2024-08-22,1,,,,,カチゾウ,0
668,4010001247511,新規,0,2024-08-22,2024-08-22,株式会社サンライズ,,株式会社,東京都,文京区,白山１丁目６番４号文京ＶｅｎｔｕｒｅＢａｓｅ２１８号室,,13,105,1130001,,,,,,,2024-08-22,1,,,,,サンライズ,0
671,4010003044634,新規,0,2024-08-22,2024-08-22,ワンズビュー合同会社,,合同会社,東京都,中央区,日本橋室町１丁目１１番１２号日本橋水野ビル７階,,13,102,1030022,,,,,,,2024-08-22,1,,,,,ワンズビュー,0
674,4010005038634,新規,0,2024-08-22,2024-08-22,一般社団法人彌野会,,その他の設立登記法人,東京都,中央区,日本橋浜町３丁目３－１トルナーレ日本橋浜町２３０３,,13,102,1030007,,,,,,,2024-08-22,1,,,,,ヤノカイ,0
679,4010401184453,新規,0,2024-08-22,2024-08-22,株式会社ヴァーサブル,,株式会社,東京都,港区,港南２丁目１６番１号品川イーストワンタワー４Ｆ,,13,103,1080075,,,,,,,2024-08-22,1,,,,,ヴァーサヴル,0
680,4010401184503,新規,0,2024-08-22,2024-08-22,ＫＩＨＡＣＨＩフードプロジェクト株式会社,,株式会社,東京都,港区,赤坂３丁目６－１７,,13,103,1070052,,,,,,,2024-08-22,1,,,,,キハチフードプロジェクト,0
683,4010403033204,新規,0,2024-08-22,2024-08-22,ＭＨＩ合同会社,,合同会社,東京都,港区,白金１丁目１７番１－４１０１号,,13,103,1080072,,,,,,,2024-08-22,1,,,,,エムエイチアイ,0
686,4010603011042,新規,0,2024-08-22,2024-08-22,合同会社ＧＯＯＤ　ＣＯＮＤＩＴＩＯＮ,,合同会社,東京都,江東区,新大橋３丁目１３－５ＣＡＳＡＰＯＮＴＥ１０１,,13,108,1350007,,,,,,,2024-08-22,1,,,,,グッドコンディション,0
698,4010901055848,新規,0,2024-08-22,2024-08-22,ＫＬＧマーケティング株式会社,,株式会社,東京都,世田谷区,代田４丁目３５番１９号ライズ１９７６－２０２,,13,112,1550033,,,,,,,2024-08-22,1,,,,,ケーエルジーマーケティング,0
699,4010903009307,新規,0,2024-08-22,2024-08-22,合同会社ＭＯＨＩＲＯ,,合同会社,東京都,世田谷区,粕谷２丁目１８番２３－５１６号,,13,112,1570063,,,,,,,2024-08-22,1,,,,,モヒロ,0
703,4011001164192,新規,0,2024-08-22,2024-08-22,株式会社ＡＭＡＮＡＴＩＯＮ,,株式会社,東京都,渋谷区,広尾５丁目４番１６号ＥＡＴＰＬＡＹＷＯＲＫＳ３階,,13,113,1500012,,,,,,,2024-08-22,1,,,,,アマネイション,0
704,4011001164201,新規,0,2024-08-22,2024-08-22,株式会社ＣｏｎｉＣｏｒｎ,,株式会社,東京都,渋谷区,道玄坂１丁目１０番８号渋谷道玄坂東急ビル２Ｆ－Ｃ,,13,113,1500043,,,,,,,2024-08-22,1,,,,,コニコーン,0
705,4011003019857,新規,0,2024-08-22,2024-08-22,ラトリテ合同会社,,合同会社,東京都,渋谷区,道玄坂１丁目１０番８号渋谷道玄坂東急ビル２Ｆ－Ｃ,,13,113,1500043,,,,,,,2024-08-22,1,,,,,ラトリテ,0
714,4011401026356,新規,0,2024-08-22,2024-08-22,株式会社ミライキャピタル,,株式会社,東京都,板橋区,熊野町３３－１植木コーポ１Ｆ－Ａ,,13,119,1730025,,,,,,,2024-08-22,1,,,,,ミライキャピタル,0
715,4011801044734,新規,0,2024-08-22,2024-08-22,株式会社ＪＮＣコーポレーション,,株式会社,東京都,葛飾区,西水元３丁目２３－１,,13,122,1250031,,,,,,,2024-08-22,1,,,,,ジェイエヌシーコーポレーション,0
716,4012301014054,新規,0,2024-08-22,2024-08-22,株式会社ルーキス,,株式会社,東京都,町田市,薬師台２丁目３５番地６,,13,209,1950073,,,,,,,2024-08-22,1,,,,,ルーキス,0
718,4012403006718,新規,0,2024-08-22,2024-08-22,Ｔｈｒｅｅ　ａｎｔ合同会社,,合同会社,東京都,武蔵野市,吉祥寺北町４丁目１３番１８号ルナシオン吉祥寺Ａ１０２,,13,203,1800001,,,,,,,2024-08-22,1,,,,,スリーアント,0
720,4013303007269,新規,0,2024-08-22,2024-08-22,ＳｅａＴｒｅｅ合同会社,,合同会社,東京都,豊島区,西巣鴨４丁目３０番６号,,13,116,1700001,,,,,,,2024-08-22,1,,,,,シーツリー,0
722,4020001158534,新規,0,2024-08-22,2024-08-22,株式会社ＡｓｉａｎＢｏｘ,,株式会社,神奈川県,横浜市中区,山下町１０６番地１２,,14,104,2310023,,,,,,,2024-08-22,1,,,,,アジアンボックス,0
724,4020003026680,新規,0,2024-08-22,2024-08-22,合同会社パキラ,,合同会社,神奈川県,横浜市西区,北幸２丁目１０番４８号むつみビル３階,,14,103,2200004,,,,,,,2024-08-22,1,,,,,パキラ,0
725,4020003026689,新規,0,2024-08-22,2024-08-22,ＫＫコンサルティング合同会社,,合同会社,神奈川県,川崎市麻生区,東百合丘１丁目８番４８号,,14,137,2150012,,,,,,,2024-08-22,1,,,,,ケイケイコンサルティング,0
726,4021001083061,新規,0,2024-08-22,2024-08-22,株式会社奥津,,株式会社,神奈川県,小田原市,蓮正寺２８４番地,00136032,14,206,2500865,,,,,,,2024-08-22,1,,,,,オクツ,0
727,4021001083078,新規,0,2024-08-22,2024-08-22,株式会社ＹＭＴ接骨院,,株式会社,神奈川県,大和市,鶴間１丁目８－１９－２Ｆ,,14,213,2420004,,,,,,,2024-08-22,1,,,,,ワイエムティーセッコツイン,0
738,4030003024948,新規,0,2024-08-22,2024-08-22,合同会社ｒｕｎ　ｕｐ,,合同会社,埼玉県,北葛飾郡松伏町,ゆめみ野１丁目１０番１１号,,11,465,3430113,,,,,,,2024-08-22,1,,,,,ランアップ,0
743,4040001135052,新規,0,2024-08-22,2024-08-22,株式会社椿農場,,株式会社,千葉県,旭市,清和甲１６５１番地,,12,215,2890507,,,,,,,2024-08-22,1,,,,,ツバキノウジョウ,0
748,4050001055290,新規,0,2024-08-22,2024-08-22,ＪＭ　ＷＯＲＬＤ株式会社,,株式会社,茨城県,坂東市,みどり町１６番３６号,,08,228,3060637,,,,,,,2024-08-22,1,,,,,ジェイエムワールド,0
749,4050003008627,新規,0,2024-08-22,2024-08-22,合同会社ＡＫＥＭＩ,,合同会社,茨城県,土浦市,右籾２１４４番地,,08,203,3000837,,,,,,,2024-08-22,1,,,,,アケミ,0
753,4060001037420,新規,0,2024-08-22,2024-08-22,株式会社一翔工業,,株式会社,栃木県,宇都宮市,下田原町２７９６番地２１,,09,201,3291115,,,,,,,2024-08-22,1,,,,,イチカコウギョウ,0
754,4070003005556,新規,0,2024-08-22,2024-08-22,ＳＡＳカンパニー合同会社,,合同会社,群馬県,吾妻郡嬬恋村,大字大前１５３番地２,,10,425,3771612,,,,,,,2024-08-22,1,,,,,エスエーエスカンパニー,0
758,4080401027390,新規,0,2024-08-22,2024-08-22,株式会社ＺｅｎＲｏａｄ,,株式会社,静岡県,浜松市浜名区,沼３０１番地の４,,22,139,4340037,,,,,,,2024-08-22,1,,,,,ゼンロード,0
767,4110001038652,新規,0,2024-08-22,2024-08-22,株式会社Ｌｉｌｌｉｅ,,株式会社,新潟県,上越市,藤巻８番５９号２Ｆ,,15,222,9430817,,,,,,,2024-08-22,1,,,,,リーリエ,0
775,4120001267886,新規,0,2024-08-22,2024-08-22,株式会社日本行政新聞,,株式会社,大阪府,大阪市中央区,淡路町２丁目１－１３奥野ビル１階ノース内,,27,128,5410047,,,,,,,2024-08-22,1,,,,,ニッポンギョウセイシンブン,0
776,4120001267969,新規,0,2024-08-22,2024-08-22,株式会社漢哥,,株式会社,大阪府,大阪市港区,弁天１丁目２番１－２８０９号,,27,107,5520007,,,,,,,2024-08-22,1,,,,,カンコ,0
780,4120101070174,新規,0,2024-08-22,2024-08-22,日本鼎豊国際株式会社,,株式会社,大阪府,堺市堺区,中安井町１丁３番２１号,,27,141,5900063,,,,,,,2024-08-22,1,,,,,ニホンテイホウコクサイ,0
787,4130001077772,新規,0,2024-08-22,2024-08-22,株式会社向龍,,株式会社,京都府,京都市北区,紫野上柏野町５９番地１０,,26,101,6038311,,,,,,,2024-08-22,1,,,,,コウリュウ,0
789,4140001135595,新規,0,2024-08-22,2024-08-22,株式会社マルフジ,,株式会社,兵庫県,姫路市,梅ケ谷町二丁目１７番グリーンハイツ梅ケ谷３１１号,,28,201,6700894,,,,,,,2024-08-22,1,,,,,マルフジ,0
804,4180001162925,新規,0,2024-08-22,2024-08-22,株式会社ＡＩＥＮ建設,,株式会社,愛知県,名古屋市中村区,藤江町３丁目１７４－３,,23,105,4530045,,,,,,,2024-08-22,1,,,,,アイエンケンセツ,0
805,4180001162982,新規,0,2024-08-22,2024-08-22,ＭＹＫＥ　ＭＥＲＣＨＡＮＤＩＳＥ　ＩＮＴＥＲＮＡＴＩＯＮＡＬ株式会社,,株式会社,愛知県,名古屋市中区,正木１丁目２番１２号,,23,106,4600024,,,,,,,2024-08-22,1,,,,,マイクマーチャンダイスインターナショナル,0
810,4180003027250,新規,0,2024-08-22,2024-08-22,クレバーハートテック合同会社,,合同会社,愛知県,名古屋市北区,志賀本通２丁目４２番地（エテルノＴＡＫＩ３０５号）,,23,103,4620853,,,,,,,2024-08-22,1,,,,,クレバーハートテック,0
813,4190003004769,新規,0,2024-08-22,2024-08-22,合同会社ツルマルサービス訪問介護事業所,,合同会社,三重県,桑名市,大字下深谷部４６８９番地５,,24,205,5110808,,,,,,,2024-08-22,1,,,,,ツルマルサービスホウモンカイゴジギョウショ,0
817,4200003006474,新規,0,2024-08-22,2024-08-22,合同会社ＣＬＥＡＮ　ＵＰ,,合同会社,岐阜県,岐阜市,八代１丁目２番２３号,,21,201,5020812,,,,,,,2024-08-22,1,,,,,クリーンアップ,0
821,4230001020499,新規,0,2024-08-22,2024-08-22,オートキングジャパン株式会社,,株式会社,富山県,射水市,射水町２丁目４番地１,,16,211,9330227,,,,,,,2024-08-22,1,,,,,オートキングジャパン,0
835,4290001106879,新規,0,2024-08-22,2024-08-22,株式会社すみとーる,,株式会社,福岡県,春日市,小倉２丁目２８番地,,40,218,8160824,,,,,,,2024-08-22,1,,,,,スミトール,0
836,4290001106929,新規,0,2024-08-22,2024-08-22,株式会社芯,,株式会社,福岡県,福岡市南区,弥永団地３５番８０１号,,40,134,8111322,,,,,,,2024-08-22,1,,,,,シン,0
837,4290001107027,新規,0,2024-08-22,2024-08-22,Ｋ‐ＴＯＰ株式会社,,株式会社,福岡県,福岡市東区,香椎照葉３丁目１番１３号,,40,131,8130017,,,,,,,2024-08-22,1,,,,,ケートップ,0
838,4290003015715,新規,0,2024-08-22,2024-08-22,合同会社モザイクドット,,合同会社,福岡県,福岡市中央区,天神２丁目２番１２号Ｔ＆Ｊビルディング７Ｆ,,40,133,8100001,,,,,,,2024-08-22,1,,,,,モザイクドット,0
839,4290801030816,新規,0,2024-08-22,2024-08-22,株式会社吉永産業,,株式会社,福岡県,田川市,大字夏吉４００５番地,,40,206,8250004,,,,,,,2024-08-22,1,,,,,ヨシナガサンギョウ,0
840,4300001013883,新規,0,2024-08-22,2024-08-22,久保総合株式会社,,株式会社,佐賀県,佐賀市,久保泉町大字川久保１４０２番地２,,41,201,8490901,,,,,,,2024-08-22,1,,,,,クボソウゴウ,0
847,4360001034098,新規,0,2024-08-22,2024-08-22,Ｎａｇｏｍｉ株式会社,,株式会社,沖縄県,名護市,字宮里１００４番地,,47,209,9050011,,,,,,,2024-08-22,1,,,,,ナゴミ,0
848,4360003014255,新規,0,2024-08-22,2024-08-22,合同会社ＨＳＳ,,合同会社,沖縄県,那覇市,上之屋１丁目１６番５号３階,,47,201,9000011,,,,,,,2024-08-22,1,,,,,エイチエスエス,0
850,4370001051670,新規,0,2024-08-22,2024-08-22,株式会社那由多,,株式会社,宮城県,仙台市青葉区,小松島３丁目１－４８,,04,101,9810905,,,,,,,2024-08-22,1,,,,,ナユタ,0
856,4380001034732,新規,0,2024-08-22,2024-08-22,株式会社ＹＫ,,株式会社,福島県,福島市,御山字田中５２－１シャトー桜花１０１,,07,201,9608252,,,,,,,2024-08-22,1,,,,,ワイケー,0
869,4450001014388,新規,0,2024-08-22,2024-08-22,株式会社ＹＯＲＩＡＳ,,株式会社,北海道,旭川市,東光八条４丁目１番２４号,,01,204,0788348,,,,,,,2024-08-22,1,,,,,ヨリアス,0
881,4700150123154,新規,0,2024-08-22,2024-08-22,ＳＨＥＮＺＨＥＮ　ＸＩＡＯＺＨＡＩ　ＴＥＣＨＮＯＬＯＧＹ　ＣＯ．，ＬＴＤ．,,外国会社等,,,,,,,,Ｂｕｉｌｄｉｎｇ　４１－１，Ｕｎｉｖｅｒｓｉａｄｅ　Ｓｏｆｔｗａｒｅ　Ｔｏｗｎ，８２８８　Ｌｏｎｇｇａｎｇ　Ａｖｅｎｕｅ，Ｈｅ’ａｏ　Ｃｏｍｍｕｎｉｔｙ，Ｙｕａｎｓｈａｎ　Ｓｔｒｅｅｔ，Ｌｏｎｇｇａｎｇ　Ｄｉｓｔｒｉｃｔ，Ｓｈｅｎｚｈｅｎ,,,,,,2024-08-22,1,,,,,シェンジェンシャオジャイテクノロジーカンパニーリミテッド,0
892,5010001247650,新規,0,2024-08-22,2024-08-22,Ｌｉｎｋ　Ｊａｐａｎ　Ｉｎｖｅｓｔｍｅｎｔ　Ｈｏｌｄｉｎｇｓ株式会社,,株式会社,東京都,中央区,日本橋３丁目９番１号日本橋三丁目スクエア１１階,,13,102,1030027,,,,,,,2024-08-22,1,,,,,リンクジャパンインベストメントホールディングス,0
905,5010401184353,新規,0,2024-08-22,2024-08-22,ＤＶＳＩ株式会社,,株式会社,東京都,港区,元麻布３丁目１番６号,,13,103,1060046,,,,,,,2024-08-22,1,,,,,ディーブイエスアイ,0
906,5010401184502,新規,0,2024-08-22,2024-08-22,株式会社Ｂｕｆｆｓｔａｔｉｏｎ,,株式会社,東京都,港区,南青山３丁目１番３６号青山丸竹ビル６Ｆ,,13,103,1070062,,,,,,,2024-08-22,1,,,,,バフステイション,0
907,5010401184519,新規,0,2024-08-22,2024-08-22,株式会社オーアールパートナーズ,,株式会社,東京都,港区,西新橋１丁目１３番５号５階,,13,103,1050003,,,,,,,2024-08-22,1,,,,,オーアールパートナーズ,0
909,5010405023466,新規,0,2024-08-22,2024-08-22,一般社団法人東京医療機構,,その他の設立登記法人,東京都,港区,芝浦２丁目１３番地６号田町センチュリーマンション６０７,,13,103,1080023,,,,,,,2024-08-22,1,,,,,トウキョウイリョウキコウ,0
917,5010901055839,新規,0,2024-08-22,2024-08-22,株式会社囃,,株式会社,東京都,世田谷区,玉川台１丁目４番１３号－３,,13,112,1580096,,,,,,,2024-08-22,1,,,,,ハヤシ,0
921,5011001164027,新規,0,2024-08-22,2024-08-22,ＪＩＮＧＵ株式会社,,株式会社,東京都,渋谷区,神宮前２丁目３３－５,,13,113,1500001,,,,,,,2024-08-22,1,,,,,ジング,0
922,5011001164084,新規,0,2024-08-22,2024-08-22,株式会社Ｐａｒａｄｉｓ,,株式会社,東京都,渋谷区,円山町５番５号Ｎａｖｉ渋谷Ｖ３階,,13,113,1500044,,,,,,,2024-08-22,1,,,,,パラディス,0
926,5011101108494,新規,0,2024-08-22,2024-08-22,大未来株式会社,,株式会社,東京都,新宿区,北新宿１丁目１２番１２号サンエスビル４Ｆ,,13,104,1690074,,,,,,,2024-08-22,1,,,,,ダイミライ,0
927,5011101108511,新規,0,2024-08-22,2024-08-22,株式会社ＣＲＥＳＴ,,株式会社,東京都,新宿区,榎町７２番地８ルフレプレミアム神楽坂１００３,,13,104,1620806,,,,,,,2024-08-22,1,,,,,クレスト,0
928,5011103014740,新規,0,2024-08-22,2024-08-22,Ｔｏｋｙｏ　Ｐｒｅｍｉｅｒ　Ｓｏｌｕｔｉｏｎｓ合同会社,,合同会社,東京都,新宿区,内藤町１番地５３ザ・パークハウス御苑内藤町２０４,,13,104,1600014,,,,,,,2024-08-22,1,,,,,トウキョウプレミアソリューションズ,0
929,5011103014815,新規,0,2024-08-22,2024-08-22,吾舎合同会社,,合同会社,東京都,新宿区,百人町１丁目２３－１４－１０２号,,13,104,1690073,,,,,,,2024-08-22,1,,,,,ゴシャ,0
932,5011301029945,新規,0,2024-08-22,2024-08-22,株式会社ディファレンシア,,株式会社,東京都,杉並区,浜田山３丁目６番１５号,,13,115,1680065,,,,,,,2024-08-22,1,,,,,ディファレンシア,0
937,5012301014053,新規,0,2024-08-22,2024-08-22,株式会社カラー,,株式会社,東京都,町田市,原町田３丁目７番１０号メゾントリアノン３０１,,13,209,1940013,,,,,,,2024-08-22,1,,,,,カラー,0
938,5012401042210,新規,0,2024-08-22,2024-08-22,株式会社ＷＡＮ,,株式会社,東京都,調布市,入間町２丁目２８番地１６グランドメゾン仙川１０４,,13,208,1820004,,,,,,,2024-08-22,1,,,,,ワン,0
941,5012803003495,新規,0,2024-08-22,2024-08-22,合同会社ＡＬＫＥＳ,,合同会社,東京都,昭島市,中神町２丁目３６番１２号,,13,207,1960022,,,,,,,2024-08-22,1,,,,,アルケス,0
945,5020001158533,新規,0,2024-08-22,2024-08-22,株式会社ＣＲＡＶＡ　ＲＡＩＳＥ,,株式会社,神奈川県,川崎市多摩区,登戸１７９２番地２グランドゥール登戸５０２,,14,135,2140014,,,,,,,2024-08-22,1,,,,,クレイヴレイズ,0
946,5020001158574,新規,0,2024-08-22,2024-08-22,株式会社ＳＩＤＥＫＩＣＫ,,株式会社,神奈川県,川崎市中原区,下小田中３丁目２０番２５号クレスト鹿島１０５,,14,133,2110041,,,,,,,2024-08-22,1,,,,,サイドキック,0
947,5020001158632,新規,0,2024-08-22,2024-08-22,株式会社スリーダブリュー,,株式会社,神奈川県,横浜市瀬谷区,阿久和東２丁目５０番地１６ＮＩＣガーデンハイム３１２,,14,114,2460023,,,,,,,2024-08-22,1,,,,,スリーダブリュー,0
950,5020003026671,新規,0,2024-08-22,2024-08-22,合同会社Ｐｒｅｓｅｎｔ,,合同会社,神奈川県,川崎市麻生区,王禅寺西１丁目３０－７－２０５,,14,137,2150017,,,,,,,2024-08-22,1,,,,,プレゼント,0
951,5020003026688,新規,0,2024-08-22,2024-08-22,Ｖｏｙａｇｅ　Ｃｒｅｗ合同会社,,合同会社,神奈川県,横浜市西区,北幸２丁目１０番４８号むつみビル３階,,14,103,2200004,,,,,,,2024-08-22,1,,,,,ボヤージュクルー,0
952,5020003026696,新規,0,2024-08-22,2024-08-22,合同会社テキスタイル,,合同会社,神奈川県,川崎市幸区,古市場１丁目４４番地１０,,14,132,2120052,,,,,,,2024-08-22,1,,,,,テキスタイル,0
954,5021001083052,新規,0,2024-08-22,2024-08-22,株式会社ヨコエレ,,株式会社,神奈川県,横須賀市,光の丘８番３号ＹＲＰベンチャー棟２１０,,14,201,2390847,,,,,,,2024-08-22,1,,,,,ヨコエレ,0
955,5021001083060,新規,0,2024-08-22,2024-08-22,株式会社Ｋ・Ｙエステート,,株式会社,神奈川県,鎌倉市,関谷３３２番地,,14,204,2470075,,,,,,,2024-08-22,1,,,,,ケーワイエステート,0
957,5021003014914,新規,0,2024-08-22,2024-08-22,合同会社ＫＹＵＳＯＫＵ,,合同会社,神奈川県,平塚市,南原３丁目２番３２号,,14,203,2540065,,,,,,,2024-08-22,1,,,,,キュウソク,0
975,5040001135051,新規,0,2024-08-22,2024-08-22,株式会社全日通,,株式会社,千葉県,千葉市花見川区,犢橋町１５７２－１,,12,102,2620013,,,,,,,2024-08-22,1,,,,,ゼンニッツウ,0
981,5050001055298,新規,0,2024-08-22,2024-08-22,妙法株式会社,,株式会社,茨城県,ひたちなか市,大字稲田１１１４番地－９８,,08,221,3120061,,,,,,,2024-08-22,1,,,,,ミョウホウ,0
985,5070001042105,新規,0,2024-08-22,2024-08-22,株式会社Ｔ‐ＲＩＳＩＮＧ,,株式会社,群馬県,佐波郡玉村町,大字藤川１９５番地１レジデンス２１Ｃ１０３,,10,464,3701101,,,,,,,2024-08-22,1,,,,,ティーライジング,0
988,5120001267951,新規,0,2024-08-22,2024-08-22,株式会社まゆぐらし,,株式会社,大阪府,大阪市北区,梅田１丁目２番２号大阪駅前第２ビル１２－１２,,27,127,5300001,,,,,,,2024-08-22,1,,,,,マユグラシ,0
989,5120001267984,新規,0,2024-08-22,2024-08-22,株式会社ケアｃｈａｔ,,株式会社,大阪府,大阪市北区,梅田１丁目１－３大阪駅前第３ビル２９階１－１－１号室,,27,127,5300001,,,,,,,2024-08-22,1,,,,,ケアチャット,0
991,5120003027362,新規,0,2024-08-22,2024-08-22,合同会社ＭＥＲＣＳ,,合同会社,大阪府,交野市,私部２丁目２８－１５,,27,230,5760052,,,,,,,2024-08-22,1,,,,,メルクス,0
992,5120005024507,新規,0,2024-08-22,2024-08-22,一般社団法人Ｌｏｃａｌ　ｃｏｎｔｒｉｂｕｔｉｏｎ,,その他の設立登記法人,大阪府,大阪市城東区,蒲生４丁目２番２２－５０５号,,27,118,5360016,,,,,,,2024-08-22,1,,,,,ローカルコントリビューション,0
993,5120101070181,新規,0,2024-08-22,2024-08-22,株式会社ＳＳ,,株式会社,大阪府,堺市中区,八田北町７１５番地１ノーブルバティール２０１号,,27,142,5998262,,,,,,,2024-08-22,1,,,,,エスエス,0
1005,5140001135578,新規,0,2024-08-22,2024-08-22,株式会社Ｄｒｅａｎａ　ｐｌｕｓ,,株式会社,兵庫県,神戸市中央区,磯辺通４丁目２番８号,,28,110,6510084,,,,,,,2024-08-22,1,,,,,ドリーナプラス,0
1006,5140001135603,新規,0,2024-08-22,2024-08-22,ＤＭエバーラスティング株式会社,,株式会社,兵庫県,神戸市西区,玉津町上池２３３－１,,28,111,6512126,,,,,,,2024-08-22,1,,,,,ディーエムエバーラスティング,0
1010,5140003021000,新規,0,2024-08-22,2024-08-22,アクロスＶＪ合同会社,,合同会社,兵庫県,神戸市西区,糀台４丁目１６番地の６,,28,111,6512273,,,,,,,2024-08-22,1,,,,,アクロスブイジェイ,0
1012,5150001027510,新規,0,2024-08-22,2024-08-22,タナカ鉄構設計株式会社,,株式会社,奈良県,大和高田市,片塩町４番６号アーベインビル３１４号室,,29,202,6350085,,,,,,,2024-08-22,1,,,,,タナカテッコウセッケイ,0
1017,5180001162932,新規,0,2024-08-22,2024-08-22,株式会社フジシンＦａｃｔｏｒｙ,,株式会社,愛知県,あま市,甚目寺町桑丸６７番地３,,23,237,4901111,,,,,,,2024-08-22,1,,,,,フジシンファクトリー,0
1021,5210001019872,新規,0,2024-08-22,2024-08-22,株式会社ＴＡＲＧＥＴ　ＪＡＭＭ,,株式会社,福井県,三方郡美浜町,早瀬１９号村中庄９２番１,,18,442,9191124,,,,,,,2024-08-22,1,,,,,ターゲットジャム,0
1025,5220001026174,新規,0,2024-08-22,2024-08-22,株式会社Ｂｅｙｏｎｄ　Ｉｓｈｉｋａｗａ,,株式会社,石川県,鳳珠郡能登町,字宇出津新３６番地１,,17,463,9270432,,,,,,,2024-08-22,1,,,,,ビヨンドイシカワ,0
1026,5220003003824,新規,0,2024-08-22,2024-08-22,アップパートナーズ合同会社,,合同会社,石川県,金沢市,問屋町２丁目４３,,17,201,9200061,,,,,,,2024-08-22,1,,,,,アップパートナーズ,0
1044,5290001106903,新規,0,2024-08-22,2024-08-22,株式会社Ｃｅｒｏｓ,,株式会社,福岡県,福岡市中央区,赤坂２丁目２番４０号マイプレイス赤坂５Ｆ,,40,133,8100042,,,,,,,2024-08-22,1,,,,,セロス,0
1052,5330001032392,新規,0,2024-08-22,2024-08-22,株式会社インテリア・サカタ,,株式会社,熊本県,天草市,本渡町本戸馬場７６１番地１７,,43,215,8630002,,,,,,,2024-08-22,1,,,,,インテリアサカタ,0
1063,5360003014254,新規,0,2024-08-22,2024-08-22,シルクのかりゆしウェア合同会社,,合同会社,沖縄県,沖縄市,住吉２丁目２４番１号,,47,211,9040003,,,,,,,2024-08-22,1,,,,,,0
1090,5480001012578,新規,0,2024-08-22,2024-08-22,株式会社よつばコーポレーション,,株式会社,徳島県,徳島市,沖浜２丁目３４番地,,36,201,7708052,,,,,,,2024-08-22,1,,,,,ヨツバコーポレーション,0
1095,5700150122601,新規,0,2024-08-22,2024-08-22,ＤＩＧＩＰＡＳ　ＴＥＣＨＮＯＬＯＧＩＥＳ　ＩＮＣ,,外国会社等,,,,,,,,２００　Ｓｐｅｃｔｒｕｍ　Ｃｅｎｔｅｒ　Ｄｒｉｖｅ，Ｓｕｉｔｅ　３００，Ｉｒｖｉｎｅ，ＣＡ　９２６１８，Ｕｎｉｔｅｄ　Ｓｔａｔｅｓ,,,,,,2024-08-22,1,,,,,ディジパステクノロジーズインク,0
1118,6010401184352,新規,0,2024-08-22,2024-08-22,株式会社ＧＯＡＬＤ　ＷＯＲＫＳ,,株式会社,東京都,港区,南青山３丁目１番３６号青山丸竹ビル６Ｆ,,13,103,1070062,,,,,,,2024-08-22,1,,,,,ゴールドワークス,0
1119,6010401184542,新規,0,2024-08-22,2024-08-22,株式会社Ｎ‐ＤＲＡＧＯＮ,,株式会社,東京都,港区,六本木３丁目８番２号ＷＨＡＲＦ六本木１Ｆ２Ｆ,,13,103,1060032,,,,,,,2024-08-22,1,,,,,エヌドラゴン,0
1120,6010401184633,新規,0,2024-08-22,2024-08-22,株式会社エンデバーズ,,株式会社,東京都,港区,南青山３丁目１番３６号青山丸竹ビル６階,,13,103,1070062,,,,,,,2024-08-22,1,,,,,エンデバーズ,0
1121,6010401184658,新規,0,2024-08-22,2024-08-22,株式会社ジンギ,,株式会社,東京都,港区,六本木７丁目３－１２六本木インターナショナルビル５Ｂ,,13,103,1060032,,,,,,,2024-08-22,1,,,,,ジンギ,0
1122,6010403033235,新規,0,2024-08-22,2024-08-22,ＰＯＲＩＮ合同会社,,合同会社,東京都,港区,南青山２丁目２番１５号,,13,103,1070062,,,,,,,2024-08-22,1,,,,,ポリン,0
1123,6010403033268,新規,0,2024-08-22,2024-08-22,Ｓｋｙ　Ｔｈｅ　Ｌｉｍｉｔ合同会社,,合同会社,東京都,港区,三田４丁目１８番２０－１１０５号,,13,103,1080073,,,,,,,2024-08-22,1,,,,,スカイザリミット,0
1124,6010405023515,新規,0,2024-08-22,2024-08-22,日本橋９一般社団法人,,その他の設立登記法人,東京都,港区,西新橋１丁目２番９号メンターキャピタル税理士法人内,,13,103,1050003,,,,,,,2024-08-22,1,,,,,ニホンバシナイン,0
1126,6010603011040,新規,0,2024-08-22,2024-08-22,一盛合同会社,,合同会社,東京都,江東区,亀戸２丁目３７－８,,13,108,1360071,,,,,,,2024-08-22,1,,,,,イチモリ,0
1128,6010701046434,新規,0,2024-08-22,2024-08-22,株式会社ｔｉｐｐｕ,,株式会社,東京都,品川区,大井３丁目９番９－８０８号,,13,109,1400014,,,,,,,2024-08-22,1,,,,,チップ,0
1136,6010901055796,新規,0,2024-08-22,2024-08-22,Ｅｉｓｙｕ株式会社,,株式会社,東京都,世田谷区,上馬１丁目１７番２号,,13,112,1540011,,,,,,,2024-08-22,1,,,,,エイシュウ,0
1137,6010901055854,新規,0,2024-08-22,2024-08-22,株式会社ミテコネクト,,株式会社,東京都,世田谷区,奥沢３丁目８－６,,13,112,1580083,,,,,,,2024-08-22,1,,,,,ミテコネクト,0
1141,6011001163977,新規,0,2024-08-22,2024-08-22,株式会社ＬＢホールディングス,,株式会社,東京都,渋谷区,広尾１丁目７－２６－１０２,,13,113,1500012,,,,,,,2024-08-22,1,,,,,エルビーホールディングス,0
1142,6011001163993,新規,0,2024-08-22,2024-08-22,株式会社ａｍｖｉｓｉｏｎ,,株式会社,東京都,渋谷区,神宮前４丁目３０－３東急プラザ表参道「オモカド」５Ｆ,,13,113,1500001,,,,,,,2024-08-22,1,,,,,アンビジョン,0
1143,6011001164034,新規,0,2024-08-22,2024-08-22,株式会社ジョック,,株式会社,東京都,目黒区,大橋１丁目５番１－１７２０号,,13,110,1530044,,,,,,,2024-08-22,1,,,,,ジョック,0
1144,6011001164091,新規,0,2024-08-22,2024-08-22,株式会社カマリ・インターナショナル・ジャパン,,株式会社,東京都,渋谷区,富ヶ谷１丁目１４番１４号３Ｆ,,13,113,1510063,,,,,,,2024-08-22,1,,,,,カマリインターナショナルジャパン,0
1145,6011001164216,新規,0,2024-08-22,2024-08-22,株式会社Ｆｕｎ‐Ｆｏｕｎｄ,,株式会社,東京都,渋谷区,道玄坂１丁目１７番９号ヴェラハイツ道玄坂４０４,,13,113,1500043,,,,,,,2024-08-22,1,,,,,ファンファウンド,0
1146,6011001164240,新規,0,2024-08-22,2024-08-22,株式会社グローバルキャピタル,,株式会社,東京都,渋谷区,恵比寿西２丁目８番４号ＥＸ恵比寿西ビル５階,,13,113,1500021,,,,,,,2024-08-22,1,,,,,グローバルキャピタル,0
1153,6011301029944,新規,0,2024-08-22,2024-08-22,株式会社愛寿物流,,株式会社,東京都,杉並区,荻窪４丁目３２番５号,,13,115,1670051,,,,,,,2024-08-22,1,,,,,アイジュブツリュウ,0
1156,6011501031064,新規,0,2024-08-22,2024-08-22,株式会社ことぶき,,株式会社,東京都,北区,神谷１丁目７番地１２フローラ神谷橋１０２,,13,117,1150043,,,,,,,2024-08-22,1,,,,,コトブキ,0
1158,6011603004430,新規,0,2024-08-22,2024-08-22,合同会社Ｇｒｅｅｎ　Ｇａｔｅ,,合同会社,東京都,練馬区,高松２丁目２６番１７号,,13,120,1790075,,,,,,,2024-08-22,1,,,,,グリーンゲート,0
1161,6011801044699,新規,0,2024-08-22,2024-08-22,株式会社Ｒｉｃｈ,,株式会社,東京都,足立区,千住寿町２番１６－１００２号,,13,121,1200033,,,,,,,2024-08-22,1,,,,,リッチ,0
1167,6012803003486,新規,0,2024-08-22,2024-08-22,合同会社Ｙ‐ｓｔｙｌｅ,,合同会社,東京都,武蔵村山市,本町２丁目１３番地の１１,,13,223,2080004,,,,,,,2024-08-22,1,,,,,ワイスタイル,0
1169,6013301052975,新規,0,2024-08-22,2024-08-22,株式会社ＴＩＬ,,株式会社,東京都,豊島区,高田３丁目３番１６号東方高田ビル２１８号室,,13,116,1710033,,,,,,,2024-08-22,1,,,,,ティーアイエル,0
1170,6013301053008,新規,0,2024-08-22,2024-08-22,カティックアセット株式会社,,株式会社,東京都,豊島区,西池袋５丁目５番２１－３４０３号,,13,116,1710021,,,,,,,2024-08-22,1,,,,,カティックアセット,0
1173,6020001158549,新規,0,2024-08-22,2024-08-22,株式会社ダイキンホールディングス,,株式会社,神奈川県,川崎市川崎区,本町１丁目８番地２３,,14,131,2100001,,,,,,,2024-08-22,1,,,,,ダイキンホールディングス,0
1174,6020001158581,新規,0,2024-08-22,2024-08-22,Ｔｗｉｓｔ　Ｂｉｏｓｃｉｅｎｃｅ　Ｊａｐａｎ株式会社,,株式会社,神奈川県,横浜市西区,みなとみらい３丁目６番１号みなとみらいセンタービル１９階,,14,103,2200012,,,,,,,2024-08-22,1,,,,,ツイストバイオサイエンスジャパン,0
1175,6020001158623,新規,0,2024-08-22,2024-08-22,株式会社建鋒,,株式会社,神奈川県,横浜市鶴見区,元宮１丁目７番７－３０３号,,14,101,2300004,,,,,,,2024-08-22,1,,,,,ケンホウ,0
1176,6020001158648,新規,0,2024-08-22,2024-08-22,株式会社合縁,,株式会社,神奈川県,川崎市宮前区,鷺沼２丁目２番地１７古川テラスハウス１０１,,14,136,2160004,,,,,,,2024-08-22,1,,,,,アイエン,0
1177,6020001158656,新規,0,2024-08-22,2024-08-22,株式会社Ｒｉｍｉｋａ,,株式会社,神奈川県,川崎市川崎区,渡田新町１丁目９番１５号,,14,131,2100844,,,,,,,2024-08-22,1,,,,,リミカ,0
1178,6020003026670,新規,0,2024-08-22,2024-08-22,コロネオ合同会社,,合同会社,神奈川県,横浜市青葉区,藤が丘２丁目３８番２２号,,14,117,2270043,,,,,,,2024-08-22,1,,,,,コロネオ,0
1179,6020003026687,新規,0,2024-08-22,2024-08-22,合同会社ＦＹＢＥ．ｊｐ,,合同会社,神奈川県,川崎市幸区,南加瀬２丁目１４番２３－３０１号ビッグヴァン新川崎,,14,132,2120055,,,,,,,2024-08-22,1,,,,,ファイブドットジェービー,0
1180,6020003026704,新規,0,2024-08-22,2024-08-22,ＳＴＵＤＩＯ　ＨＹＧＧＥ合同会社,,合同会社,神奈川県,横浜市緑区,白山１丁目８番１－６２０号,,14,113,2260006,,,,,,,2024-08-22,1,,,,,スタジオハイジ,0
1182,6021003014938,新規,0,2024-08-22,2024-08-22,合同会社楽生,,合同会社,神奈川県,茅ヶ崎市,下寺尾１３４８番地１０,,14,207,2530081,,,,,,,2024-08-22,1,,,,,ラクショウ,0
1186,6030001162054,新規,0,2024-08-22,2024-08-22,セリシール株式会社,,株式会社,埼玉県,越谷市,大字南荻島８１番地１越谷ダイヤモンドマンション２０３,,11,222,3430804,,,,,,,2024-08-22,1,,,,,セリシール,0
1205,6040003025646,新規,0,2024-08-22,2024-08-22,合同会社ＣＥＮＫＡ,,合同会社,千葉県,柏市,若柴１７８番地４柏の葉キャンパス１４８街区２パークアクシス柏の葉９０４号,,12,217,2770871,,,,,,,2024-08-22,1,,,,,センカ,0
1209,6050001055297,新規,0,2024-08-22,2024-08-22,株式会社石ヶ城,,株式会社,茨城県,ひたちなか市,大字津田１９４８番地２,,08,221,3120032,,,,,,,2024-08-22,1,,,,,イシガキ,0
1211,6050003008625,新規,0,2024-08-22,2024-08-22,Ｋｉｎｔｓｕｇｉ　Ｍｉｎｄ合同会社,,合同会社,茨城県,つくば市,沼田１４８７番地５,,08,220,3004353,,,,,,,2024-08-22,1,,,,,キンツギマインド,0
1212,6060001037419,新規,0,2024-08-22,2024-08-22,Ｋ．Ｆａｍｉｌｉｅ株式会社,,株式会社,栃木県,さくら市,狹間田１９２８番地８,,09,214,3291305,,,,,,,2024-08-22,1,,,,,ケーファミリエ,0
1213,6060003005217,新規,0,2024-08-22,2024-08-22,合同会社デジタルテクノス,,合同会社,栃木県,真岡市,長田１丁目９番地１クオレッティＡ２０５,,09,209,3214364,,,,,,,2024-08-22,1,,,,,デジタルテクノス,0
1215,6070001042104,新規,0,2024-08-22,2024-08-22,株式会社ジャオスホールディングス,,株式会社,群馬県,北群馬郡榛東村,大字広馬場３５８６番地１,,10,344,3703504,,,,,,,2024-08-22,1,,,,,ジャオスホールディングス,0
1216,6080101024967,新規,0,2024-08-22,2024-08-22,コーセイ株式会社,,株式会社,静岡県,伊豆の国市,原木５０番１,,22,225,4102124,,,,,,,2024-08-22,1,,,,,コーセイ,0
1219,6090005007646,新規,0,2024-08-22,2024-08-22,一般社団法人結愛会,,その他の設立登記法人,山梨県,北杜市,大泉町谷戸２２３０番地,,19,209,4091502,,,,,,,2024-08-22,1,,,,,ユウアカイ,0
1239,6120001267967,新規,0,2024-08-22,2024-08-22,陽溢科技株式会社,,株式会社,大阪府,大阪市淀川区,西中島５丁目８番２９－６１３号,,27,123,5320011,,,,,,,2024-08-22,1,,,,,ヨウイツカギ,0
1240,6120003027246,新規,0,2024-08-22,2024-08-22,日谷合同会社,,合同会社,大阪府,大阪市港区,市岡元町１丁目６番１１－２０３号室,,27,107,5520002,,,,,,,2024-08-22,1,,,,,ニチタニ,0
1251,6140001135585,新規,0,2024-08-22,2024-08-22,雄建工業株式会社,,株式会社,兵庫県,神戸市垂水区,神陵台９丁目１番３４号,,28,108,6550041,,,,,,,2024-08-22,1,,,,,ユウケンコウギョウ,0
1254,6140003020934,新規,0,2024-08-22,2024-08-22,ＫＥＮＲＹＵ　ＩＭＰＥＸ合同会社,,合同会社,兵庫県,神戸市中央区,磯辺通１丁目１－２０ＫＯＷＡビル１Ｆ,,28,110,6510084,,,,,,,2024-08-22,1,,,,,ケンリュウインペック,0
1258,6150001027518,新規,0,2024-08-22,2024-08-22,株式会社ＢＡＬＴＡＮ,,株式会社,奈良県,奈良市,大宮町２丁目１－２０ローレルコートエスタ新大宮３０１,,29,201,6308115,,,,,,,2024-08-22,1,,,,,バルタン,0
1260,6170003002095,新規,0,2024-08-22,2024-08-22,合同会社ｎｏｎｄｏ,,合同会社,和歌山県,紀の川市,東国分３１６番地１,,30,208,6496428,,,,,,,2024-08-22,1,,,,,ノンド,0
1266,6180001162972,新規,0,2024-08-22,2024-08-22,株式会社アップセット,,株式会社,愛知県,名古屋市天白区,梅が丘３丁目２２０９番地,,23,116,4680004,,,,,,,2024-08-22,1,,,,,アップセット,0
1268,6180003027117,新規,0,2024-08-22,2024-08-22,恵愛合同会社,,合同会社,愛知県,あま市,二ツ寺六町４２－５,,23,237,4901207,,,,,,,2024-08-22,1,,,,,ケイアイ,0
1269,6180003027265,新規,0,2024-08-22,2024-08-22,合同会社泥中の蓮,,合同会社,愛知県,稲沢市,祖父江町二俣須賀垂１８０番地２３,,23,220,4950013,,,,,,,2024-08-22,1,,,,,デイチュウノハス,0
1274,6220001026173,新規,0,2024-08-22,2024-08-22,ＢＣＭ石川株式会社,,株式会社,石川県,鳳珠郡能登町,字宇出津新３６番地１,,17,463,9270432,,,,,,,2024-08-22,1,,,,,ビーシーエムイシカワ,0
1280,6270001009041,新規,0,2024-08-22,2024-08-22,株式会社建心,,株式会社,鳥取県,鳥取市,下味野６５番地１,,31,201,6801165,,,,,,,2024-08-22,1,,,,,ケンシン,0
1281,6280001009239,新規,0,2024-08-22,2024-08-22,株式会社ＩＭサービス,,株式会社,島根県,出雲市,浜町３３５番地５,,32,203,6930054,,,,,,,2024-08-22,1,,,,,アイエムサービス,0
1287,6290001106919,新規,0,2024-08-22,2024-08-22,株式会社Ｌｉｎｏ,,株式会社,福岡県,福岡市東区,塩浜３丁目４１３番地１－２１０号,,40,131,8110203,,,,,,,2024-08-22,1,,,,,リノ,0
1293,6290003015655,新規,0,2024-08-22,2024-08-22,合同会社ＲｅＰｒｏ　Ｇｅｎｅｔｉｃｓ,,合同会社,福岡県,福岡市早良区,有田７丁目２４－１０,,40,137,8140033,,,,,,,2024-08-22,1,,,,,リプロジェネティクス,0
1295,6310003004845,新規,0,2024-08-22,2024-08-22,合同会社高以耒,00136046,合同会社,長崎県,長崎市,西海町１７７６番地２７４,,42,201,8513101,,,,,,,2024-08-22,1,,,,,タカイラ,0
1297,6330001032391,新規,0,2024-08-22,2024-08-22,株式会社Ｍａｕ　ｌｏａ,,株式会社,熊本県,熊本市北区,龍田１丁目１５番８号,,43,105,8618006,,,,,,,2024-08-22,1,,,,,マウロア,0
1299,6330003010528,新規,0,2024-08-22,2024-08-22,ＫＭＴソリューションズ合同会社,,合同会社,熊本県,熊本市中央区,草葉町２－２８,,43,101,8600843,,,,,,,2024-08-22,1,,,,,ケーエムティーソリューションズ,0
1304,6360001034105,新規,0,2024-08-22,2024-08-22,株式会社ＲＯＹＡＬ,,株式会社,沖縄県,豊見城市,字座安３１５－７,,47,212,9010221,,,,,,,2024-08-22,1,,,,,ロイヤル,0
1321,6462501001012,新規,0,2024-08-22,2024-08-22,株式会社Ａｎｋｈ,,株式会社,北海道,野付郡別海町,別海宮舞町３番地,,01,691,0860201,,,,,,,2024-08-22,1,,,,,アンク,0
1334,7010003044648,新規,0,2024-08-22,2024-08-22,ＶＲｔａｎａｂｅ合同会社,,合同会社,東京都,文京区,湯島２丁目３３番１号,,13,105,1130034,,,,,,,2024-08-22,1,,,,,ブイアールタナベ,0
1341,7010401184228,新規,0,2024-08-22,2024-08-22,新品川株式会社,,株式会社,東京都,港区,白金１丁目２番１－Ｅ３３１１号,,13,103,1080072,,,,,,,2024-08-22,1,,,,,シンシナガワ,0
1342,7010401184426,新規,0,2024-08-22,2024-08-22,株式会社ＳＪＳ,,株式会社,東京都,港区,赤坂２丁目２１番８号,,13,103,1070052,,,,,,,2024-08-22,1,,,,,エスジェイエス,0
1343,7010401184566,新規,0,2024-08-22,2024-08-22,株式会社ＤＥＳ　ＩＮＴＥＲＮＡＴＩＯＮＡＬ,,株式会社,東京都,港区,白金１丁目１－８グレース白金３０２,,13,103,1080072,,,,,,,2024-08-22,1,,,,,ディーイーエスインターナショナル,0
1344,7010401184599,新規,0,2024-08-22,2024-08-22,株式会社ＷＡＩ　Ｌｏｕｎｇｅ　Ｊａｐａｎ,,株式会社,東京都,港区,赤坂２丁目１１番７号,,13,103,1070052,,,,,,,2024-08-22,1,,,,,ダブルエーアイラウンジジャパン,0
1345,7010401184673,新規,0,2024-08-22,2024-08-22,ＤＸラボＩＭＰＡＣＴ株式会社,,株式会社,東京都,港区,南青山３丁目１番３６号青山丸竹ビル６Ｆ,,13,103,1070062,,,,,,,2024-08-22,1,,,,,ディーエックスラボインパクト,0
1347,7010403033250,新規,0,2024-08-22,2024-08-22,Ｇキャピタル２号合同会社,,合同会社,東京都,港区,西新橋１丁目２０番１０号,,13,103,1050003,,,,,,,2024-08-22,1,,,,,ジーキャピタルニゴウ,0
1349,7010405023456,新規,0,2024-08-22,2024-08-22,一般社団法人Ｓｏｃｉａｌ　Ｆｅｍｔｅｃｈ　Ｔｏｋｙｏ,,その他の設立登記法人,東京都,港区,六本木２丁目３番６－１２０１号,,13,103,1060032,,,,,,,2024-08-22,1,,,,,ソーシャルフェムテックトウキョウ,0
1354,7010503007550,新規,0,2024-08-22,2024-08-22,合同会社ＩＺＵＭＩ,,合同会社,東京都,台東区,日本堤２丁目９番１１－５０１号,,13,106,1110021,,,,,,,2024-08-22,1,,,,,イズミ,0
1355,7010601065789,新規,0,2024-08-22,2024-08-22,ＲＥＡＬＭＡＮ　ＲＯＢＯＴＩＣＳ株式会社,,株式会社,東京都,江東区,北砂３丁目４番１５－８０７号,,13,108,1360073,,,,,,,2024-08-22,1,,,,,リアルマンロボティックス,0
1357,7010801035344,新規,0,2024-08-22,2024-08-22,株式会社アカデミア・ネクサス,,株式会社,東京都,大田区,南千束３丁目１４番１６号,,13,111,1450063,,,,,,,2024-08-22,1,,,,,アカデミアネクサス,0
1360,7010901055845,新規,0,2024-08-22,2024-08-22,天下十番建築土木株式会社,,株式会社,東京都,世田谷区,成城８丁目２５番１号１０２,,13,112,1570066,,,,,,,2024-08-22,1,,,,,テンカジュウバンケンチクドボク,0
1361,7010903009304,新規,0,2024-08-22,2024-08-22,合同会社順和堂,,合同会社,東京都,世田谷区,三軒茶屋２丁目９番２３号,,13,112,1540024,,,,,,,2024-08-22,1,,,,,ジュンワドウ,0
1364,7011001164041,新規,0,2024-08-22,2024-08-22,Ｓ＆Ｔアセットマネジメント株式会社,,株式会社,東京都,目黒区,下目黒１丁目１番１４号コノトラビル７階,,13,110,1530064,,,,,,,2024-08-22,1,,,,,エスアンドティーアセットマネジメント,0
1365,7011001164215,新規,0,2024-08-22,2024-08-22,株式会社クモノイト,,株式会社,東京都,渋谷区,恵比寿１丁目１５－９シルク恵比寿１Ｆ,,13,113,1500013,,,,,,,2024-08-22,1,,,,,クモノイト,0
1366,7011003019838,新規,0,2024-08-22,2024-08-22,ビーウォーター合同会社,,合同会社,東京都,渋谷区,恵比寿西２丁目８番４号ＥＸ恵比寿西ビル５階,,13,113,1500021,,,,,,,2024-08-22,1,,,,,ビーウォーター,0
1370,7011101108559,新規,0,2024-08-22,2024-08-22,株式会社ＤＩ,,株式会社,東京都,新宿区,西新宿３丁目３番１３号西新宿水間ビル６階,,13,104,1600023,,,,,,,2024-08-22,1,,,,,ディアイ,0
1375,7011603004438,新規,0,2024-08-22,2024-08-22,フォーベル合同会社,,合同会社,東京都,練馬区,関町北３丁目４４番１６号,,13,120,1770051,,,,,,,2024-08-22,1,,,,,フォーベル,0
1382,7020001158523,新規,0,2024-08-22,2024-08-22,キープクリーンシステム株式会社,,株式会社,神奈川県,横浜市西区,北幸２丁目１０番４８号むつみビル３階,,14,103,2200004,,,,,,,2024-08-22,1,,,,,キープクリーンシステム,0
1383,7020001158548,新規,0,2024-08-22,2024-08-22,株式会社鈴の桜,,株式会社,神奈川県,横浜市戸塚区,影取町１６０－２,,14,110,2450064,,,,,,,2024-08-22,1,,,,,スズノサクラ,0
1384,7020001158572,新規,0,2024-08-22,2024-08-22,リベルタ株式会社,,株式会社,神奈川県,横浜市港南区,港南台１丁目３７番２６号,,14,111,2340054,,,,,,,2024-08-22,1,,,,,リベルタ,0
1385,7020001158639,新規,0,2024-08-22,2024-08-22,株式会社ＡＮＤ,,株式会社,神奈川県,横浜市西区,北幸２丁目１０番４８号むつみビル３階,,14,103,2200004,,,,,,,2024-08-22,1,,,,,アンド,0
1386,7020001158655,新規,0,2024-08-22,2024-08-22,ＮＡＩＳ住建株式会社,,株式会社,神奈川県,横浜市戸塚区,戸塚町７５２番地２リバーサイド伊東３０１号,00136050,14,110,2440000,,,,,,,2024-08-22,1,,,,,ナイスジュウケン,0
1387,7020003026703,新規,0,2024-08-22,2024-08-22,合同会社北地,,合同会社,神奈川県,川崎市中原区,宮内１丁目１８番１１号,,14,133,2110051,,,,,,,2024-08-22,1,,,,,キタジ,0
1393,7021003014929,新規,0,2024-08-22,2024-08-22,合同会社ＴＭＮ,,合同会社,神奈川県,藤沢市,鵠沼石上１丁目４番２号,,14,205,2510025,,,,,,,2024-08-22,1,,,,,テイーエムエヌ,0
1394,7021003014937,新規,0,2024-08-22,2024-08-22,合同会社フラミンゴ,,合同会社,神奈川県,南足柄市,塚原１３５９番地１,,14,217,2500117,,,,,,,2024-08-22,1,,,,,フラミンゴ,0
1397,7030001162103,新規,0,2024-08-22,2024-08-22,ＴＡＲＵ　ＪＡＰＡＮ株式会社,,株式会社,埼玉県,川口市,芝１丁目１８番７号,,11,203,3330866,,,,,,,2024-08-22,1,,,,,タルジャパン,0
1399,7030003024961,新規,0,2024-08-22,2024-08-22,Ｉ　ＴＲＡＤＩＮＧ合同会社,,合同会社,埼玉県,東松山市,大字石橋１７４４－４,,11,212,3550072,,,,,,,2024-08-22,1,,,,,アイトレーディング,0
1400,7030005021825,新規,0,2024-08-22,2024-08-22,彩北司法書士法人,,その他の設立登記法人,埼玉県,熊谷市,曙町３丁目７７番地,,11,202,3600033,,,,,,,2024-08-22,1,,,,,サイホク,0
1405,7050001055288,新規,0,2024-08-22,2024-08-22,株式会社ウェルビ建設,,株式会社,茨城県,那珂郡東海村,豊白１丁目３番３３号,,08,341,3191107,,,,,,,2024-08-22,1,,,,,ウェルビケンセツ,0
1406,7050001055296,新規,0,2024-08-22,2024-08-22,ＬｉｆｅＦｉｔ株式会社,,株式会社,茨城県,水戸市,金町２丁目３番８－７０１号サーパス金町壱番館,,08,201,3100066,,,,,,,2024-08-22,1,,,,,ライフフィット,0
1408,7050003008624,新規,0,2024-08-22,2024-08-22,合同会社ＭＡＭＩＯ,,合同会社,茨城県,常総市,豊岡町乙２０１４,,08,211,3030041,,,,,,,2024-08-22,1,,,,,マミオ,0
1411,7070001042103,新規,0,2024-08-22,2024-08-22,しきしまＳＷＩＭオアシス株式会社,,株式会社,群馬県,高崎市,栄町１４番５号５階,,10,202,3700841,,,,,,,2024-08-22,1,,,,,シキシマスイムオアシス,0
1414,7080005007638,新規,0,2024-08-22,2024-08-22,クロスケア協同組合,,その他の設立登記法人,静岡県,牧之原市,坂部５６４番地６,,22,226,4210412,,,,,,,2024-08-22,1,,,,,クロスケア,0
1417,7080101024966,新規,0,2024-08-22,2024-08-22,株式会社ＩＯＩＣＨＩ,,株式会社,静岡県,田方郡函南町,間宮４４０番地の５,,22,325,4190123,,,,,,,2024-08-22,1,,,,,イオイチ,0
1438,7120001267834,新規,0,2024-08-22,2024-08-22,奇翌株式会社,,株式会社,大阪府,大阪市浪速区,大国１丁目９－１３マンション鷹４０２－Ａ,,27,111,5560014,,,,,,,2024-08-22,1,,,,,キヨク,0
1441,7120003027377,新規,0,2024-08-22,2024-08-22,３Ｔ‐ＣＥＮＲＡＶＮ合同会社,,合同会社,大阪府,大阪市西成区,南津森７－８－６アクティー玉手１Ａ号室,,27,122,5570000,,,,,,,2024-08-22,1,,,,,サンテチェラビエヌ,0
1447,7120103006017,新規,0,2024-08-22,2024-08-22,合同会社シンリク,,合同会社,大阪府,堺市堺区,五月町６番１２－８号,,27,141,5900031,,,,,,,2024-08-22,1,,,,,シンリク,0
1449,7130001077522,新規,0,2024-08-22,2024-08-22,株式会社ポライト相続相談所,,株式会社,京都府,京都市中京区,姥柳町２０３パラドール烏丸ビル２１３,,26,104,6048213,,,,,,,2024-08-22,1,,,,,ポライトソウゾクソウダンジョ,0
1450,7130001077778,新規,0,2024-08-22,2024-08-22,株式会社ＳＴＫ商会,,株式会社,京都府,宇治市,大久保町井ノ尻３９番地３,,26,204,6110033,,,,,,,2024-08-22,1,,,,,エスティーケーショウカイ,0
1453,7140001135568,新規,0,2024-08-22,2024-08-22,株式会社ＭＳＷ．４,,株式会社,兵庫県,神戸市垂水区,坂上２丁目１番１４－２０１号,,28,108,6550895,,,,,,,2024-08-22,1,,,,,エムエスダブリューフォー,0
1454,7140001135592,新規,0,2024-08-22,2024-08-22,株式会社アンドシングス,,株式会社,兵庫県,神戸市中央区,北野町２丁目１６番２３号,,28,110,6500002,,,,,,,2024-08-22,1,,,,,アンドシングス,0
1460,7180001162988,新規,0,2024-08-22,2024-08-22,株式会社Ｋ＆Ｍ,,株式会社,愛知県,名古屋市中村区,名駅４丁目２４番５号第２森ビル４０１,,23,105,4500002,,,,,,,2024-08-22,1,,,,,ケーアンドエム,0
1463,7180303006240,新規,0,2024-08-22,2024-08-22,合同会社ＳＨｉｎｍｉ,,合同会社,愛知県,刈谷市,原崎町１丁目２０４番地Ｓ・ＫＴＥＭＰＯＡ号室,,23,210,4480039,,,,,,,2024-08-22,1,,,,,シンミ,0
1464,7190001031580,新規,0,2024-08-22,2024-08-22,エヌ・エー・シー株式会社,,株式会社,三重県,伊賀市,朝屋字越中２０５２番地,,24,216,5180032,,,,,,,2024-08-22,1,,,,,エヌエーシー,0
1466,7220001026172,新規,0,2024-08-22,2024-08-22,タイガープライム株式会社,,株式会社,石川県,河北郡内灘町,字大根布７丁目１２１番地,,17,365,9200266,,,,,,,2024-08-22,1,,,,,タイガープライム,0
1468,7240001063734,新規,0,2024-08-22,2024-08-22,株式会社ＴＡＭ,,株式会社,広島県,広島市安佐南区,八木６丁目１２番５－３０８号,,34,105,7310101,,,,,,,2024-08-22,1,,,,,ティーエーエム,0
1469,7240003006823,新規,0,2024-08-22,2024-08-22,合同会社アルゴイメージ,,合同会社,広島県,広島市中区,大手町１丁目１－２０相生橋ビル７階Ａ号室,,34,101,7300051,,,,,,,2024-08-22,1,,,,,アルゴイメージ,0
1480,7290001106926,新規,0,2024-08-22,2024-08-22,株式会社あおいろサークル,,株式会社,福岡県,福岡市博多区,博多駅前１丁目２３番２号ＰａｒｋＦｒｏｎｔ博多駅前１丁目５Ｆ－Ｂ,,40,132,8120011,,,,,,,2024-08-22,1,,,,,アオイロサークル,0
1481,7290001107032,新規,0,2024-08-22,2024-08-22,株式会社ＴＵプランニング,,株式会社,福岡県,福岡市博多区,東雲町３丁目４番２－２０５号,,40,132,8120871,,,,,,,2024-08-22,1,,,,,ティーユープランニング,0
1482,7290003015704,新規,0,2024-08-22,2024-08-22,合同会社コネクトアップ,,合同会社,福岡県,福岡市中央区,大名２丁目１０番１号シャンポール大名Ａ棟１２０８号,,40,133,8100041,,,,,,,2024-08-22,1,,,,,コネクトアップ,0
1483,7300003002171,新規,0,2024-08-22,2024-08-22,合同会社つばさの風,,合同会社,佐賀県,鹿島市,大字高津原２８番地１,,41,207,8491311,,,,,,,2024-08-22,1,,,,,ツバサノカゼ,0
1491,7360001034112,新規,0,2024-08-22,2024-08-22,株式会社ＯＫＩＢＩＺ,,株式会社,沖縄県,沖縄市,池原１丁目１３番１１号１Ｆ－Ｂ,,47,211,9042141,,,,,,,2024-08-22,1,,,,,オキビズ,0
1493,7360003014236,新規,0,2024-08-22,2024-08-22,ブエノス合同会社,,合同会社,沖縄県,名護市,字為又１０８－２プレサンスロジェ名護為又ヴォール１００２,,47,209,9050005,,,,,,,2024-08-22,1,,,,,ブエノス,0
1494,7360003014252,新規,0,2024-08-22,2024-08-22,合同会社ｓｔａｒｌｅｔ,,合同会社,沖縄県,浦添市,勢理客１丁目１９番５－１０１号立山アパート,,47,208,9012122,,,,,,,2024-08-22,1,,,,,スターレット,0
1499,7370001051676,新規,0,2024-08-22,2024-08-22,株式会社東セラファインテック,,株式会社,宮城県,角田市,梶賀字西８２番地２,,04,208,9811523,,,,,,,2024-08-22,1,,,,,トウセラファインテック,0
1511,7430001092532,新規,0,2024-08-22,2024-08-22,株式会社ＪＡＰＡＮ　ＦＯＯＤ　ＳＵＰＰＬＹ,,株式会社,北海道,石狩市,花川南一条４丁目２５６,,01,235,0613201,,,,,,,2024-08-22,1,,,,,ジャパンフードサプライ,0
1513,7462501001011,新規,0,2024-08-22,2024-08-22,株式会社ＫＯＰＥ,,株式会社,北海道,標津郡中標津町,東五条南１丁目１番地,,01,692,0861005,,,,,,,2024-08-22,1,,,,,コペ,0
1518,7700150123390,新規,0,2024-08-22,2024-08-22,ＳＨＥＮ　ＺＨＥＮ　ＬＯＮＧ　ＪＩＮ　ＸＩＡＮＧ　ＳＨＡＮＧ　ＹＥ　ＹＯＵ　ＸＩＡＮ　ＧＯＮＧ　ＳＩ,,外国会社等,,,,,,,,ｑｉａｎｈａｉｓｈｅｎｇａｎｇ　ｈｅｚｕｏｑｕ　ｑｉａｎｗａｎｙｉｌｕ　１ｈａｏ　Ａｄｏｎｇ　２０１ｓｈｉ，ｓｈｅｎｚｈｅｎｓｈｉ，ｇｕａｎｇｄｏｎｇｓｈｅｎｇ,,,,,,2024-08-22,1,,,,,シェンジェンロンジンシアンシャンイェヨウシエンゴンス,0
1528,8010003044564,新規,0,2024-08-22,2024-08-22,合同会社マンテンネット,,合同会社,東京都,千代田区,神田和泉町１番地６－１６ヤマトビル４０５,,13,101,1010024,,,,,,,2024-08-22,1,,,,,マンテンネット,0
1538,8010401184598,新規,0,2024-08-22,2024-08-22,株式会社六本木管理１１号,,株式会社,東京都,港区,六本木３丁目２番１号,,13,103,1060032,,,,,,,2024-08-22,1,,,,,ロッポンギカンリジュウイチゴウ,0
1539,8010401184656,新規,0,2024-08-22,2024-08-22,株式会社ＰＩＧＮＵＳ　Ｄｅｖｅｌｏｐｍｅｎｔ,,株式会社,東京都,港区,六本木１丁目４番５号,,13,103,1060032,,,,,,,2024-08-22,1,,,,,ピグナスディベロップメント,0
1541,8010403033183,新規,0,2024-08-22,2024-08-22,スマイル合同会社,,合同会社,東京都,港区,赤坂２丁目１７番１号,,13,103,1070052,,,,,,,2024-08-22,1,,,,,スマイル,0
1548,8010701046440,新規,0,2024-08-22,2024-08-22,株式会社ｍａｎｅ,,株式会社,東京都,品川区,大井３丁目１８番１５－６２３号,,13,109,1400014,,,,,,,2024-08-22,1,,,,,マーネ,0
1550,8010901055844,新規,0,2024-08-22,2024-08-22,ビジョンシード株式会社,,株式会社,東京都,世田谷区,尾山台３丁目１３番９号,,13,112,1580086,,,,,,,2024-08-22,1,,,,,ビジョンシード,0
1554,8011001164024,新規,0,2024-08-22,2024-08-22,株式会社フィジコム・ラボ,,株式会社,東京都,渋谷区,神宮前６丁目２３番４号桑野ビル２階,,13,113,1500001,,,,,,,2024-08-22,1,,,,,フィジコムラボ,0
1555,8011001164123,新規,0,2024-08-22,2024-08-22,ＶＧＩ株式会社,,株式会社,東京都,渋谷区,千駄ヶ谷３丁目１４番５号,,13,113,1510051,,,,,,,2024-08-22,1,,,,,ブイアイジー,0
1556,8011001164148,新規,0,2024-08-22,2024-08-22,株式会社Ｃｅｒｏ,,株式会社,東京都,渋谷区,恵比寿２丁目１７番１０号３０１,,13,113,1500013,,,,,,,2024-08-22,1,,,,,セロ,0
1557,8011001164189,新規,0,2024-08-22,2024-08-22,Ｙ’ｓ　Ｃａｐｉｔａｌ株式会社,,株式会社,東京都,渋谷区,円山町５－１８道玄坂スクエア６Ｆ,,13,113,1500044,,,,,,,2024-08-22,1,,,,,ワイズキャピタル,0
1558,8011101108368,新規,0,2024-08-22,2024-08-22,クリスタルリサーチ株式会社,,株式会社,東京都,新宿区,西新宿８丁目６番１３号,,13,104,1600023,,,,,,,2024-08-22,1,,,,,クリスタルリサーチ,0
1565,8011301029942,新規,0,2024-08-22,2024-08-22,株式会社ＭＩＮＥＡ,,株式会社,東京都,杉並区,浜田山４丁目１６番４－７０２号ライオンズ浜田山セントマークス,,13,115,1680065,,,,,,,2024-08-22,1,,,,,,0
1569,8012301014050,新規,0,2024-08-22,2024-08-22,株式会社ｏｔｔ．ｐａｒｔｎｅｒｓ,,株式会社,東京都,町田市,原町田２丁目１４番１３号シャトレー町田ガーデン５０２,,13,209,1940013,,,,,,,2024-08-22,1,,,,,オーティーティーパートナーズ,0
1570,8012303002037,新規,0,2024-08-22,2024-08-22,ＭＧ企画合同会社,,合同会社,東京都,町田市,南大谷６丁目３３番５４号,,13,209,1940031,,,,,,,2024-08-22,1,,,,,エムジーキカク,0
1577,8013301053006,新規,0,2024-08-22,2024-08-22,株式会社ＳＳＴ,,株式会社,東京都,豊島区,千早１丁目３番１４号田嶋ハイツ４０２,,13,116,1710044,,,,,,,2024-08-22,1,,,,,エスエスティー,0
1578,8020001158448,新規,0,2024-08-22,2024-08-22,株式会社Ｗｉｌｌａｌｌｕｒｅ,,株式会社,神奈川県,横浜市神奈川区,金港町５－１４クアドリフォリオ８階,,14,102,2210056,,,,,,,2024-08-22,1,,,,,ウィルアリュール,0
1579,8020001158530,新規,0,2024-08-22,2024-08-22,株式会社ホワイトホール,,株式会社,神奈川県,川崎市中原区,上丸子山王町２丁目１３３２グランデュール山王１０２,,14,133,2110002,,,,,,,2024-08-22,1,,,,,ホワイトホール,0
1580,8020001158547,新規,0,2024-08-22,2024-08-22,株式会社Ｇｏｏｄｂｅ,,株式会社,神奈川県,横浜市神奈川区,金港町５－１４クアドリフォリオ８階,,14,102,2210056,,,,,,,2024-08-22,1,,,,,グッドビィ,0
1581,8020001158555,新規,0,2024-08-22,2024-08-22,株式会社三上,,株式会社,神奈川県,横浜市鶴見区,下末吉２丁目１１番９号,,14,101,2300012,,,,,,,2024-08-22,1,,,,,ミカミ,0
1585,8020003026710,新規,0,2024-08-22,2024-08-22,合同会社横濱山手土地建物,,合同会社,神奈川県,横浜市中区,根岸旭台１１番地レガティス横濱山手４０６号室,,14,104,2310854,,,,,,,2024-08-22,1,,,,,ヨコハマヤマテトチタテモノ,0
1589,8021001083058,新規,0,2024-08-22,2024-08-22,株式会社キノシタ・アカウンティングサービス,,株式会社,神奈川県,高座郡寒川町,一之宮５丁目４番８－３０６号,,14,321,2530111,,,,,,,2024-08-22,1,,,,,キノシタアカウンティングサービス,0
1590,8021001083066,新規,0,2024-08-22,2024-08-22,株式会社リフォームプラス,,株式会社,神奈川県,厚木市,恩名１丁目２０番３０号らびっとはいむ１０１,,14,212,2430032,,,,,,,2024-08-22,1,,,,,リフォームプラス,0
1591,8021003014944,新規,0,2024-08-22,2024-08-22,合同会社ＮＥＬＫＥ,,合同会社,神奈川県,相模原市南区,相模大野７丁目３５―２―４０３,,14,153,2520303,,,,,,,2024-08-22,1,,,,,ネルケ,0
1592,8021005013168,新規,0,2024-08-22,2024-08-22,一般社団法人オンラインペットクリニック,,その他の設立登記法人,神奈川県,小田原市,城山１丁目４４０番地２ナイスロイヤルテラス小田原城山５０６号室,,14,206,2500045,,,,,,,2024-08-22,1,,,,,オンラインペットクリニック,0
1618,8040003025644,新規,0,2024-08-22,2024-08-22,合同会社時間旅行,,合同会社,千葉県,富津市,八幡１６２番地１,,12,226,2930056,,,,,,,2024-08-22,1,,,,,,0
1622,8050003008623,新規,0,2024-08-22,2024-08-22,合同会社ＨＡＲＵｎｏＨＩ,,合同会社,茨城県,つくば市,城山３１番地９,,08,220,3001251,,,,,,,2024-08-22,1,,,,,ハルノヒ,0
1624,8080001026459,新規,0,2024-08-22,2024-08-22,ＭＦＣＲ株式会社,,株式会社,静岡県,静岡市駿河区,馬渕３丁目２０番３４号,,22,102,4228063,,,,,,,2024-08-22,1,,,,,エムエフシーアール,0
1626,8080003003282,新規,0,2024-08-22,2024-08-22,Ｓ＆Ｓ合同会社,,合同会社,静岡県,藤枝市,大洲５丁目２－２,,22,214,4260051,,,,,,,2024-08-22,1,,,,,エスアンドエス,0
1641,8120001267833,新規,0,2024-08-22,2024-08-22,天潤株式会社,,株式会社,大阪府,大阪市東住吉区,東田辺３丁目１－１－１Ｆ－Ａ,,27,121,5460032,,,,,,,2024-08-22,1,,,,,テンジュン,0
1642,8120001267949,新規,0,2024-08-22,2024-08-22,株式会社エレファン,,株式会社,大阪府,大阪市中央区,瓦屋町２丁目１２番１５－１２０９号,,27,128,5420066,,,,,,,2024-08-22,1,,,,,エレファン,0
1643,8120001267965,新規,0,2024-08-22,2024-08-22,株式会社ＭＡＲＵ,,株式会社,大阪府,枚方市,田口４丁目２０番１２号,,27,210,5731162,,,,,,,2024-08-22,1,,,,,マル,0
1649,8120101070187,新規,0,2024-08-22,2024-08-22,南山竹藤株式会社,,株式会社,大阪府,堺市堺区,中安井町３丁３番６号,,27,141,5900063,,,,,,,2024-08-22,1,,,,,ミナミヤマタケフジ,0
1653,8130001077785,新規,0,2024-08-22,2024-08-22,株式会社一期一会,,株式会社,京都府,亀岡市,千代川町小川３丁目４番２２号,,26,206,6210041,,,,,,,2024-08-22,1,,,,,イチゴイチエ,0
1654,8130001077793,新規,0,2024-08-22,2024-08-22,株式会社エモン,,株式会社,京都府,京都市伏見区,桃山町島津５８番地１２,,26,109,6120854,,,,,,,2024-08-22,1,,,,,エモン,0
1660,8140001135600,新規,0,2024-08-22,2024-08-22,株式会社ｂｅｒｒｙ’ｓ,,株式会社,兵庫県,姫路市,船津町８１９－１,,28,201,6792101,,,,,,,2024-08-22,1,,,,,ベリーズ,0
1663,8150001027508,新規,0,2024-08-22,2024-08-22,三谷建設株式会社,,株式会社,奈良県,宇陀市,榛原天満台西１丁目１６番の１０,,29,212,6330206,,,,,,,2024-08-22,1,,,,,ミタニケンセツ,0
1665,8150005009618,新規,0,2024-08-22,2024-08-22,一般社団法人ポールスター,,その他の設立登記法人,奈良県,桜井市,大字川合２５９番地の３,,29,206,6330063,,,,,,,2024-08-22,1,,,,,ポールスター,0
1674,8180001162970,新規,0,2024-08-22,2024-08-22,株式会社一宮訪問看護ステーション,,株式会社,愛知県,一宮市,宮西通７丁目３番地３クリーンハイツ宮西２０２号室,,23,203,4910064,,,,,,,2024-08-22,1,,,,,イチノミヤホウモンカンゴステーション,0
1675,8180001162979,新規,0,2024-08-22,2024-08-22,株式会社クライス薬局,,株式会社,愛知県,名古屋市瑞穂区,玉水町２丁目３５番５,,23,108,4670046,,,,,,,2024-08-22,1,,,,,クライスヤッキョク,0
1677,8180003027271,新規,0,2024-08-22,2024-08-22,合同会社ｆｊデザイン,,合同会社,愛知県,名古屋市西区,上橋町１３８番地,,23,104,4520844,,,,,,,2024-08-22,1,,,,,エフジェイデザイン,0
1686,8200001042856,新規,0,2024-08-22,2024-08-22,株式会社ＭＩＹＡ,,株式会社,岐阜県,可児市,下恵土２８９０番地１,,21,214,5090203,,,,,,,2024-08-22,1,,,,,ミヤ,0
1701,8240005015813,新規,0,2024-08-22,2024-08-22,一般社団法人日本トランスポーツ連盟,,その他の設立登記法人,広島県,安芸郡熊野町,川角１丁目８番２８号,,34,307,7314223,,,,,,,2024-08-22,1,,,,,ニホントランスポーツレンメイ,0
1705,8260001039376,新規,0,2024-08-22,2024-08-22,株式会社雪月花,,株式会社,岡山県,岡山市北区,表町３丁目１２番５号,,33,101,7000822,,,,,,,2024-08-22,1,,,,,セツゲツカ,0
1711,8290001107048,新規,0,2024-08-22,2024-08-22,アトラクト・アール・イー株式会社,,株式会社,福岡県,福岡市中央区,今泉１丁目１２－８天神ＱＲビル５０７号,,40,133,8100021,,,,,,,2024-08-22,1,,,,,アトラクトアールイー,0
1714,8290801030820,新規,0,2024-08-22,2024-08-22,株式会社ＨＡＮＡ,,株式会社,福岡県,行橋市,南泉２丁目１３番３号,,40,213,8240036,,,,,,,2024-08-22,1,,,,,ハナ,0
1718,8330003010534,新規,0,2024-08-22,2024-08-22,合同会社丸翔,,合同会社,熊本県,球磨郡山江村,大字山田乙１７２８－７９,,43,512,8680092,,,,,,,2024-08-22,1,,,,,マルショウ,0
1723,8350001019154,新規,0,2024-08-22,2024-08-22,株式会社Ｏｏｗｅｎｓ　ｉｎｔｅｒｖｉｅｗ,,株式会社,宮崎県,宮崎市,青島２丁目８番地１１号,,45,201,8892162,,,,,,,2024-08-22,1,,,,,オーウェンズインタビュー,0
1724,8360001034103,新規,0,2024-08-22,2024-08-22,株式会社ＲｅＬＩＦＥ,,株式会社,沖縄県,浦添市,牧港２丁目３６番３－４０２号カナヴィアル・エムＩＩ,00136047,47,208,9012131,,,,,,,2024-08-22,1,,,,,リライフ,0
1725,8360003014251,新規,0,2024-08-22,2024-08-22,合同会社ＧＣ,,合同会社,沖縄県,名護市,字源河１０７１番地３,,47,209,9051141,,,,,,,2024-08-22,1,,,,,ジーシー,0
1727,8370001051675,新規,0,2024-08-22,2024-08-22,株式会社ＩＭＸ,,株式会社,宮城県,仙台市青葉区,台原４丁目１３番１７号,,04,101,9810911,,,,,,,2024-08-22,1,,,,,アイエムエックス,0
1735,8410001013919,新規,0,2024-08-22,2024-08-22,株式会社ＬＩＦＥＥＤ,,株式会社,秋田県,秋田市,手形字西谷地７４番地２,,05,201,0100851,,,,,,,2024-08-22,1,,,,,ライフィード,0
1741,8500001025839,新規,0,2024-08-22,2024-08-22,株式会社サウザンドショー,,株式会社,愛媛県,松山市,湊町３丁目８番地１２,,38,201,7900012,,,,,,,2024-08-22,1,,,,,サウザンドショー,0
1743,8700150123142,新規,0,2024-08-22,2024-08-22,ＳＨＥＮＺＨＥＮＳＨＩＹＩＷＵＢＡＫＥＪＩＹＯＵＸＩＡＮＧＯＮＧＳＩ,,外国会社等,,,,,,,,ｑｉａｎ　ｈａｉ　ｓｈｅｎ　ｇａｎｇ　ｈｅ　ｚｕｏ　ｑｕ　ｎａｎ　ｓｈａｎ　ｊｉｅ　ｄａｏ　ｇｕｉ　ｗａｎ　ｓａｎ　ｌｕ　９１ｈａｏ　ｊｉｎｇ　ｘｉｎｇ　ｈａｉ　ｓｈａｎｇ　ｄａ　ｓｈａ　１００２　ｓｈｅｎ　ｚｈｅｎ　ｓｈｉ　ｇｕａｎｇ　ｄｏｎｇ　ｓｈｅｎｇ　５１８０００　ＣＮ,,,,,,2024-08-22,1,,,,,シェンジェンシイウバクージヨウシエンゴンス,0
1747,9010001247440,新規,0,2024-08-22,2024-08-22,株式会社ＢＥＡＲＳ　ｐａｌａｃｅ,,株式会社,東京都,千代田区,有楽町１丁目５番２号,,13,101,1000006,,,,,,,2024-08-22,1,,,,,ベアーズパレス,0
1751,9010401184597,新規,0,2024-08-22,2024-08-22,株式会社六本木管理１０号,,株式会社,東京都,港区,六本木３丁目２番１号,,13,103,1060032,,,,,,,2024-08-22,1,,,,,ロッポンギカンリジュウゴウ,0
1752,9010401184606,新規,0,2024-08-22,2024-08-22,株式会社Ｋａｙａ,,株式会社,東京都,港区,浜松町２丁目２番１５号浜松町ダイヤビル２階,,13,103,1050013,,,,,,,2024-08-22,1,,,,,カヤ,0
1754,9010403033240,新規,0,2024-08-22,2024-08-22,リドスジャパン合同会社,,合同会社,東京都,港区,新橋６丁目５番４号２階,,13,103,1050004,,,,,,,2024-08-22,1,,,,,リドスジャパン,0
1758,9010603011038,新規,0,2024-08-22,2024-08-22,ＪＡＰＡＮＴＯＲＹ合同会社,,合同会社,東京都,江東区,有明３丁目７番２６号有明フロンティアビルＢ棟９階,,13,108,1350063,,,,,,,2024-08-22,1,,,,,ジャパントリー,0
1763,9010901055843,新規,0,2024-08-22,2024-08-22,ＤＥＬＴＡＭＡＮＮ株式会社,,株式会社,東京都,世田谷区,尾山台１丁目１３－１３,,13,112,1580086,,,,,,,2024-08-22,1,,,,,デルタマン,0
1766,9011001164015,新規,0,2024-08-22,2024-08-22,Ｒｏｍａｎ株式会社,,株式会社,東京都,目黒区,東が丘２丁目１１番２０号,,13,110,1520021,,,,,,,2024-08-22,1,,,,,ロマン,0
1767,9011001164188,新規,0,2024-08-22,2024-08-22,ｕｄｏｎ　ｕｄｏｎ　ＴＯＫＹＯ株式会社,,株式会社,東京都,渋谷区,神泉町９番１２号Ｃａｓａ・ｄｅ・Ｃｉｅｌｏ１階,,13,113,1500045,,,,,,,2024-08-22,1,,,,,ウドンウドントウキョウ,0
1768,9011001164196,新規,0,2024-08-22,2024-08-22,ｔｉｐｓ株式会社,,株式会社,東京都,渋谷区,神南１丁目１２番１４号渋谷宮田ビル６Ｆ,,13,113,1500041,,,,,,,2024-08-22,1,,,,,ティップス,0
1770,9011003019828,新規,0,2024-08-22,2024-08-22,合同会社マイコーポレーション,,合同会社,東京都,渋谷区,松濤１丁目２８番６号ＶＯＲＴ渋谷松濤ｒｅｓｉｄｅｎｃｅ２０２,,13,113,1500046,,,,,,,2024-08-22,1,,,,,マイコーポレーション,0
1771,9011003019844,新規,0,2024-08-22,2024-08-22,合同会社Ｈｉｌｌｔｏｐ　Ｆｏｒｅｓｔ,,合同会社,東京都,渋谷区,渋谷２丁目５番１２号,,13,113,1500002,,,,,,,2024-08-22,1,,,,,ヒルトップフォレスト,0
1772,9011003019869,新規,0,2024-08-22,2024-08-22,合同会社サーカスアーキテクツ一級建築士事務所,,合同会社,東京都,渋谷区,千駄ヶ谷５丁目６番７号,,13,113,1510051,,,,,,,2024-08-22,1,,,,,サーカスアーキテクツイッキュウケンチクシジムショ,0
1773,9011005010628,新規,0,2024-08-22,2024-08-22,一般社団法人国際全人統合医療研究機構,,その他の設立登記法人,東京都,渋谷区,神宮前６丁目１９番１５号,,13,113,1500001,,,,,,,2024-08-22,1,,,,,コクサイゼンジントウゴウイリョウケンキュウキコウ,0
1780,9011301029941,新規,0,2024-08-22,2024-08-22,株式会社矢崎,,株式会社,東京都,杉並区,和田３丁目６２番５号,,13,115,1660012,,,,,,,2024-08-22,1,,,,,ヤザキ,0
1791,9012303002036,新規,0,2024-08-22,2024-08-22,アステラ合同会社,,合同会社,東京都,町田市,図師町６１４－５,,13,209,1940203,,,,,,,2024-08-22,1,,,,,アステラ,0
1792,9012403006721,新規,0,2024-08-22,2024-08-22,チャンスワン合同会社,,合同会社,東京都,府中市,多磨町２丁目５番地の６６,,13,206,1830002,,,,,,,2024-08-22,1,,,,,チャンスワン,0
1794,9013303007272,新規,0,2024-08-22,2024-08-22,合同会社タイタン,,合同会社,東京都,豊島区,北大塚２丁目６番８号佐川ビル３Ａ号,,13,116,1700004,,,,,,,2024-08-22,1,,,,,,0
1802,9020001158554,新規,0,2024-08-22,2024-08-22,株式会社ＴｅｎｄＩｔ,,株式会社,神奈川県,横浜市中区,桜木町１丁目１０１番地１クロスゲート７階,,14,104,2310062,,,,,,,2024-08-22,1,,,,,テンディット,0
1803,9020001158579,新規,0,2024-08-22,2024-08-22,株式会社リアルケミストリー,,株式会社,神奈川県,横浜市中区,山下町２００番地１,,14,104,2310023,,,,,,,2024-08-22,1,,,,,リアルケミストリー,0
1804,9020001158587,新規,0,2024-08-22,2024-08-22,株式会社ＭＡＲＳ,,株式会社,神奈川県,横浜市青葉区,新石川２丁目１番地１２－６１５,,14,117,2250003,,,,,,,2024-08-22,1,,,,,マーズ,0
1805,9020001158595,新規,0,2024-08-22,2024-08-22,テネル株式会社,,株式会社,神奈川県,横浜市南区,永田北２丁目２６番２１－２号,,14,105,2320071,,,,,,,2024-08-22,1,,,,,テネル,0
1806,9020001158851,新規,0,2024-08-22,2024-08-22,株式会社麺匠濱星,,株式会社,神奈川県,横浜市中区,弁天通２丁目２８番地ライオンズマンション関内１０３,,14,104,2310007,,,,,,,2024-08-22,1,,,,,メンショウハマボシ,0
1809,9020003026676,新規,0,2024-08-22,2024-08-22,合同会社ディロード,,合同会社,神奈川県,横浜市神奈川区,高島台８番地１,,14,102,2210833,,,,,,,2024-08-22,1,,,,,ディロード,0
1810,9020003026718,新規,0,2024-08-22,2024-08-22,プラネット・ゼータ合同会社,,合同会社,神奈川県,横浜市西区,浅間町１丁目４番３号ウィザードビル４０２,,14,103,2200072,,,,,,,2024-08-22,1,,,,,プラネットゼータ,0
1811,9020005016510,新規,0,2024-08-22,2024-08-22,一般社団法人サービス総合研究所,,その他の設立登記法人,神奈川県,横浜市港北区,新横浜３丁目２５番１号１００２,,14,109,2220033,,,,,,,2024-08-22,1,,,,,サービスソウゴウケンキュウショ,0
1813,9021001083057,新規,0,2024-08-22,2024-08-22,株式会社ＳＤＮ,,株式会社,神奈川県,茅ヶ崎市,浜之郷３４８番地２６,,14,207,2530086,,,,,,,2024-08-22,1,,,,,エスディーエヌ,0
1814,9021001083065,新規,0,2024-08-22,2024-08-22,株式会社大葉,,株式会社,神奈川県,藤沢市,円行２丁目１６番地の１グリーン露木２０３号,,14,205,2520805,,,,,,,2024-08-22,1,,,,,タイヨウ,0
1815,9021001083073,新規,0,2024-08-22,2024-08-22,株式会社グランドーガ,,株式会社,神奈川県,藤沢市,川名１丁目３番２０～９０３号,,14,205,2510015,,,,,,,2024-08-22,1,,,,,グランドーガ,0
1816,9021003014943,新規,0,2024-08-22,2024-08-22,合同会社ＴＫＹ,,合同会社,神奈川県,藤沢市,本町４丁目１２番地１～３０８号,,14,205,2510053,,,,,,,2024-08-22,1,,,,,ティーケーワイ,0
1820,9030001161929,新規,0,2024-08-22,2024-08-22,株式会社タイガービル,,株式会社,埼玉県,さいたま市大宮区,北袋町１丁目６０１番１号シントシティＤ棟１３５２号,,11,103,3300835,,,,,,,2024-08-22,1,,,,,タイガービル,0
1823,9030005021823,新規,0,2024-08-22,2024-08-22,一般社団法人Ｏｍｏｈａｉ,,その他の設立登記法人,埼玉県,所沢市,大字山口６４７の４,,11,208,3591145,,,,,,,2024-08-22,1,,,,,オモハイ,0
1830,9040001134875,新規,0,2024-08-22,2024-08-22,株式会社ジーニアス建設,,株式会社,千葉県,千葉市中央区,中央４丁目１０番１１号,,12,101,2600013,,,,,,,2024-08-22,1,,,,,ジーニアスケンセツ,0
1831,9040001135048,新規,0,2024-08-22,2024-08-22,株式会社京葉おぐら産業医事務所,,株式会社,千葉県,千葉市中央区,中央２丁目３番１６号千葉センタースクエアビル５階ネクスタ千葉葭川公園前７号室,,12,101,2600013,,,,,,,2024-08-22,1,,,,,ケイヨウオグラサンギョウイジムショ,0
1832,9040001135056,新規,0,2024-08-22,2024-08-22,株式会社ＢＯＳＳ総合設備,,株式会社,千葉県,南房総市,富浦町原岡４５６,,12,234,2992403,,,,,,,2024-08-22,1,,,,,ボスソウゴウセツビ,0
1834,9040003025602,新規,0,2024-08-22,2024-08-22,合同会社１９６３,,合同会社,千葉県,流山市,前ケ崎６６９番地の２,,12,220,2700144,,,,,,,2024-08-22,1,,,,,イチキュウロクサン,0
1835,9050001055294,新規,0,2024-08-22,2024-08-22,株式会社スマイル・エー,,株式会社,茨城県,土浦市,木田余４９９２番地２,,08,203,3000026,,,,,,,2024-08-22,1,,,,,スマイルエー,0
1842,9080001026458,新規,0,2024-08-22,2024-08-22,株式会社ＣＯＡ,,株式会社,静岡県,焼津市,石津向町１番地の１,,22,212,4250044,,,,,,,2024-08-22,1,,,,,コア,0
1844,9080401027394,新規,0,2024-08-22,2024-08-22,株式会社ＳＵＮ＆ＲＡＩＮ,,株式会社,静岡県,掛川市,大坂２９１４番地の３,,22,213,4371421,,,,,,,2024-08-22,1,,,,,サンアンドレイン,0
1845,9090001018875,新規,0,2024-08-22,2024-08-22,株式会社セントラル・サービス,,株式会社,山梨県,中央市,井之口１５２０番地１０,,19,214,4093804,,,,,,,2024-08-22,1,,,,,セントラルサービス,0
1860,9100001037790,新規,0,2024-08-22,2024-08-22,フルパワー株式会社,,株式会社,長野県,長野市,南千歳１丁目１０－６東邦ビル７Ｆ－Ｂ,,20,201,3800823,,,,,,,2024-08-22,1,,,,,フルパワー,0
1870,9120001267832,新規,0,2024-08-22,2024-08-22,碧発株式会社,,株式会社,大阪府,大阪市東住吉区,鷹合４丁目２１番１６号３Ｆ－Ｂ,,27,121,5460014,,,,,,,2024-08-22,1,,,,,ヘキハツ,0
1871,9120001267907,新規,0,2024-08-22,2024-08-22,株式会社フレスカ不動産販売,,株式会社,大阪府,大阪市中央区,上汐２丁目３番５号,,27,128,5420064,,,,,,,2024-08-22,1,,,,,フレスカフドウサンハンバイ,0
1872,9120001267980,新規,0,2024-08-22,2024-08-22,株式会社ホームラン,,株式会社,大阪府,守口市,南寺方東通２丁目１番１３号,,27,209,5700043,,,,,,,2024-08-22,1,,,,,ホームラン,0
1880,9120103006007,新規,0,2024-08-22,2024-08-22,条野長合同会社,,合同会社,大阪府,岸和田市,南上町１丁目２６番１４号,,27,202,5960078,,,,,,,2024-08-22,1,,,,,ジョウノチョウ,0
1881,9120103006015,新規,0,2024-08-22,2024-08-22,バニラゴルフ合同会社,,合同会社,大阪府,泉佐野市,元町３番１９号,,27,213,5980056,,,,,,,2024-08-22,1,,,,,バニラゴルフ,0
1882,9120103006023,新規,0,2024-08-22,2024-08-22,エンタープライズ合同会社,,合同会社,大阪府,堺市堺区,翁橋町１丁９番２号スウィングプラザ翁橋６０１号,,27,141,5900061,,,,,,,2024-08-22,1,,,,,エンタープライズ,0
1883,9120901049660,新規,0,2024-08-22,2024-08-22,株式会社前田,,株式会社,大阪府,池田市,室町８番２２号,,27,204,5630047,,,,,,,2024-08-22,1,,,,,マエダ,0
1889,9130003009810,新規,0,2024-08-22,2024-08-22,Ｖｉｓｉｏｎ　Ｇａｔｅ合同会社,,合同会社,京都府,京都市西京区,松尾万石町１５番地１６－３０５,,26,111,6158287,,,,,,,2024-08-22,1,,,,,ヴィジョンゲート,0
1891,9130005017167,新規,0,2024-08-22,2024-08-22,一般社団法人面会交流支援センター面会ネット,,その他の設立登記法人,京都府,京都市山科区,日ノ岡堤谷町１８番地２,,26,110,6078494,,,,,,,2024-08-22,1,,,,,メンカイコウリュウシエンセンターメンカイネット,0
1892,9140001135582,新規,0,2024-08-22,2024-08-22,中山株式会社,,株式会社,兵庫県,豊岡市,中陰３９９番地の８,,28,209,6680013,,,,,,,2024-08-22,1,,,,,ナカヤマ,0
1893,9140001135590,新規,0,2024-08-22,2024-08-22,天一株式会社,,株式会社,兵庫県,神戸市北区,緑町２丁目２番１１号１０１室,,28,109,6511221,,,,,,,2024-08-22,1,,,,,テンイチ,0
1895,9150001027515,新規,0,2024-08-22,2024-08-22,株式会社あほうどり,,株式会社,奈良県,奈良市,南京終町７８０番地の１５,,29,201,6308141,,,,,,,2024-08-22,1,,,,,アホウドリ,0
1902,9180001162912,新規,0,2024-08-22,2024-08-22,甲斐総合商事株式会社,,株式会社,愛知県,名古屋市中村区,名駅３丁目４番１０号アルティメイト名駅１ｓｔ２階,,23,105,4500002,,,,,,,2024-08-22,1,,,,,カイソウゴウショウジ,0
1903,9180001162937,新規,0,2024-08-22,2024-08-22,株式会社ＡＲＡＴＡ,,株式会社,愛知県,豊明市,栄町南舘２２１番地３シティライツ栄１０２号,,23,229,4701168,,,,,,,2024-08-22,1,,,,,アラタ,0
1904,9180003027262,新規,0,2024-08-22,2024-08-22,合同会社ＨＡＰＩＡＲＫ,,合同会社,愛知県,名古屋市中川区,愛知町２６番１４号,,23,110,4540807,,,,,,,2024-08-22,1,,,,,ハピアーク,0
1906,9190001031579,新規,0,2024-08-22,2024-08-22,株式会社Ｒ．Ｆ．Ｔｒａｄｉｎｇ,,株式会社,三重県,桑名市,大字北別所１０８２番地９８,,24,205,5110819,,,,,,,2024-08-22,1,,,,,アールエフトレーディング,0
1913,9210003001833,新規,0,2024-08-22,2024-08-22,合同会社えいおう,,合同会社,福井県,大野市,春日２丁目１０―４,,18,205,9120053,,,,,,,2024-08-22,1,,,,,エイオウ,0
1917,9240003006821,新規,0,2024-08-22,2024-08-22,合同会社あけぼの通信商会,,合同会社,広島県,安芸郡熊野町,呉地２丁目６番１７号,,34,307,7314222,,,,,,,2024-08-22,1,,,,,アケボノツウシンショウカイ,0
1920,9270001009039,新規,0,2024-08-22,2024-08-22,株式会社ＣＯＭＦＯＲＴ,,株式会社,鳥取県,鳥取市,賀露町西３丁目１番４号１０３,,31,201,6800908,,,,,,,2024-08-22,1,,,,,コンフォート,0
1931,9290003015669,新規,0,2024-08-22,2024-08-22,合同会社ＡＬＯＨＡＳ,,合同会社,福岡県,太宰府市,青山４丁目２４番８号,,40,221,8180121,,,,,,,2024-08-22,1,,,,,アロハス,0
1932,9290003015685,新規,0,2024-08-22,2024-08-22,合同会社Ｔ．Ｆｅａｔｈｅｒ,,合同会社,福岡県,福岡市博多区,住吉２丁目３番７－６１６号エンクレスト博多ＰＲＥＭＩＥＲ,,40,132,8120018,,,,,,,2024-08-22,1,,,,,ティーフェザー,0
1933,9320003004453,新規,0,2024-08-22,2024-08-22,合同会社バイバック,,合同会社,大分県,大分市,牧１丁目６番２３号,,44,201,8700924,,,,,,,2024-08-22,1,,,,,バイバック,0
1934,9330001032397,新規,0,2024-08-22,2024-08-22,株式会社菊池中央不動産,,株式会社,熊本県,菊池市,隈府４９６番地１,,43,210,8611331,,,,,,,2024-08-22,1,,,,,キクチチュウオウフドウサン,0
1936,9360001034102,新規,0,2024-08-22,2024-08-22,株式会社マンタインターナショナル,,株式会社,沖縄県,那覇市,字安里３８８,,47,201,9020067,,,,,,,2024-08-22,1,,,,,マンタインターナショナル,0
1937,9360001034110,新規,0,2024-08-22,2024-08-22,株式会社ＨｙｄｒｏＲｅｓｃｕｅ,,株式会社,沖縄県,那覇市,泉崎１丁目２０番１号３階,,47,201,9000021,,,,,,,2024-08-22,1,,,,,ハイドロレスキュー,0
1938,9360003014250,新規,0,2024-08-22,2024-08-22,合同会社エコライフ,,合同会社,沖縄県,浦添市,西原４丁目１９番２号,,47,208,9012101,,,,,,,2024-08-22,1,,,,,エコライフ,0
1946,9420001018841,新規,0,2024-08-22,2024-08-22,株式会社ボディーショップガイ,,株式会社,青森県,五所川原市,大字浅井字西広１２８番地２,,02,205,0370613,,,,,,,2024-08-22,1,,,,,ボディーショップガイ,0
1947,9430001092530,新規,0,2024-08-22,2024-08-22,株式会社ミライジング,,株式会社,北海道,苫小牧市,弥生町２丁目３番１号,,01,213,0530802,,,,,,,2024-08-22,1,,,,,ミライジング,0
