sequenceNumber,corporateNumber,process,correct,updateDate,changeDate,name,nameImageId,kind,prefectureName,cityName,streetNumber,addressImageId,prefectureCode,cityCode,postCode,addressOutside,addressOutsideImageId,closeDate,closeCause,successorCorporateNumber,changeCause,assignmentDate,latest,enName,enPrefectureName,enCityName,enAddressOutside,furigana,hihyoji
7,1010001246714,新規,0,2024-07-24,2024-07-24,ナノイズムホールディングス株式会社,,株式会社,東京都,中央区,日本橋室町４丁目４番３号５階,,13,102,1030022,,,,,,,2024-07-24,1,,,,,ナノイズムホールディングス,0
12,1010003044372,新規,0,2024-07-24,2024-07-24,合同会社ＡＩＯ‐ＥＦ　Ｎｏｎ‐ＦＩＴ１号,,合同会社,東京都,千代田区,丸の内２丁目２番１号岸本ビルヂング１０階株式会社レイズ内,,13,101,1000005,,,,,,,2024-07-24,1,,,,,エーアイオーイーエフノンフィットイチゴウ,0
20,1010401183986,新規,0,2024-07-24,2024-07-24,ＭＡＦ　Ｊａｐａｎ株式会社,,株式会社,東京都,港区,元麻布３丁目１番６号,,13,103,1060046,,,,,,,2024-07-24,1,,,,,エムエーエフジャパン,0
24,1010403033099,新規,0,2024-07-24,2024-07-24,合同会社トレック・プルート,,合同会社,東京都,港区,赤坂７丁目６番１５号,,13,103,1070052,,,,,,,2024-07-24,1,,,,,トレックプルート,0
29,1010501052521,新規,0,2024-07-24,2024-07-24,安達株式会社,,株式会社,東京都,台東区,下谷２丁目３番１６－２０２,,13,106,1100004,,,,,,,2024-07-24,1,,,,,アダチ,0
30,1010503007523,新規,0,2024-07-24,2024-07-24,合同会社Ｊ‐ＭｅｄｉＫｏ,,合同会社,東京都,台東区,池之端２丁目１番１－２０６号,,13,106,1100008,,,,,,,2024-07-24,1,,,,,ジェイメディコ,0
36,1010701046307,新規,0,2024-07-24,2024-07-24,株式会社ＯＺ　Ｐａｒｔｎｅｒ,,株式会社,東京都,品川区,東品川１丁目３９－１８－１５０５,,13,109,1400002,,,,,,,2024-07-24,1,,,,,オズパートナー,0
43,1010901055685,新規,0,2024-07-24,2024-07-24,株式会社ＨＩＫＡＬＡＳ,,株式会社,東京都,世田谷区,鎌田４丁目１２番５号,,13,112,1570077,,,,,,,2024-07-24,1,,,,,ヒカラス,0
53,1011101108102,新規,0,2024-07-24,2024-07-24,株式会社ＮＡＯ,,株式会社,東京都,新宿区,新宿６丁目２７番２９号２６１５号室,,13,104,1600022,,,,,,,2024-07-24,1,,,,,ナオ,0
54,1011101108127,新規,0,2024-07-24,2024-07-24,株式会社ＹＡＲＡＩ,,株式会社,東京都,新宿区,矢来町３３番地,,13,104,1620805,,,,,,,2024-07-24,1,,,,,ヤライ,0
55,1011101108143,新規,0,2024-07-24,2024-07-24,株式会社ｍａｄｅａｌ,,株式会社,東京都,新宿区,西新宿３丁目３番１３号,,13,104,1600023,,,,,,,2024-07-24,1,,,,,マデアル,0
56,1011101108151,新規,0,2024-07-24,2024-07-24,株式会社太興,,株式会社,東京都,新宿区,新宿２丁目１番地７号サンパレス藤川ビル４０２,,13,104,1600022,,,,,,,2024-07-24,1,,,,,タイキョウ,0
58,1011203004447,新規,0,2024-07-24,2024-07-24,合同会社ＯｕｔｅｒＢｒａｉｎ,,合同会社,東京都,中野区,新井１丁目１４－１７チョコラータ中野４０１,,13,114,1650026,,,,,,,2024-07-24,1,,,,,,0
62,1011801044555,新規,0,2024-07-24,2024-07-24,株式会社北嶋不動産,,株式会社,東京都,足立区,六木４丁目１番２４号,,13,121,1210052,,,,,,,2024-07-24,1,,,,,キタジマフドウサン,0
63,1011801044571,新規,0,2024-07-24,2024-07-24,株式会社蝶々,,株式会社,東京都,足立区,舎人３丁目５番２０号,,13,121,1210831,,,,,,,2024-07-24,1,,,,,チョウチョウ,0
66,1011803006355,新規,0,2024-07-24,2024-07-24,合同会社ＭＡ　Ｃｏｍｍｕｎｉｃａｔｉｏｎｓ,,合同会社,東京都,足立区,大谷田３丁目１４番８－２０１,,13,121,1200001,,,,,,,2024-07-24,1,,,,,エムエーコミュニケーションズ,0
75,1012701018376,新規,0,2024-07-24,2024-07-24,株式会社オンサイトワークス,,株式会社,東京都,西東京市,住吉町１丁目１６番地１９号,,13,229,2020005,,,,,,,2024-07-24,1,,,,,オンサイトワークス,0
77,1013301052864,新規,0,2024-07-24,2024-07-24,株式会社リブハック,,株式会社,東京都,豊島区,池袋２丁目５７番６号ＭＣオフィス池袋西口２０１,,13,116,1710014,,,,,,,2024-07-24,1,,,,,リブハック,0
78,1013301052872,新規,0,2024-07-24,2024-07-24,株式会社ｂｅｌｌｅ,,株式会社,東京都,豊島区,東池袋１丁目１５番８号フジプラザ３階,,13,116,1700013,,,,,,,2024-07-24,1,,,,,ベル,0
79,1013303007239,新規,0,2024-07-24,2024-07-24,合同会社リビンイート,,合同会社,東京都,豊島区,高田１丁目２３番２８号川口マンション４階,,13,116,1710033,,,,,,,2024-07-24,1,,,,,リビンイート,0
95,1021005013158,新規,0,2024-07-24,2024-07-24,湯河原シーサイドマンション管理組合法人,,その他の設立登記法人,神奈川県,足柄下郡湯河原町,中央１丁目１６１７番地２２,,14,384,2590301,,,,,,,2024-07-24,1,,,,,,0
99,1030001161589,新規,0,2024-07-24,2024-07-24,株式会社三立,,株式会社,埼玉県,川口市,芝中田２丁目７番８号,,11,203,3330847,,,,,,,2024-07-24,1,,,,,,0
102,1030003024777,新規,0,2024-07-24,2024-07-24,ＮＳ　ＴＲＡＤＩＮＧＳ合同会社,,合同会社,埼玉県,狭山市,大字堀兼２４９６－１０,,11,215,3501312,,,,,,,2024-07-24,1,,,,,エヌエストレーディングス,0
103,1040001134627,新規,0,2024-07-24,2024-07-24,プロスペリティ株式会社,,株式会社,千葉県,松戸市,小金原４丁目３８番地の１６,,12,207,2700021,,,,,,,2024-07-24,1,,,,,プロスペリティ,0
104,1040001134684,新規,0,2024-07-24,2024-07-24,澤川塑化株式会社,,株式会社,千葉県,千葉市中央区,新宿２丁目２－５藤ビル６階,,12,101,2600021,,,,,,,2024-07-24,1,,,,,サワカワソカ,0
108,1040003025444,新規,0,2024-07-24,2024-07-24,千弘国際合同会社,,合同会社,千葉県,佐倉市,生谷９７３－２,,12,212,2850836,,,,,,,2024-07-24,1,,,,,チヒロコクサイ,0
109,1040003025469,新規,0,2024-07-24,2024-07-24,Ｔａｋｅ合同会社,,合同会社,千葉県,千葉市稲毛区,稲毛町５丁目２５２番地１,,12,103,2630035,,,,,,,2024-07-24,1,,,,,テイク,0
122,1100003007659,新規,0,2024-07-24,2024-07-24,八ヶ岳エナジー合同会社,,合同会社,長野県,諏訪郡原村,６１４３番地５,,20,363,3910100,,,,,,,2024-07-24,1,,,,,ヤツガタケエナジー,0
124,1110001038580,新規,0,2024-07-24,2024-07-24,ツクモダモータース株式会社,,株式会社,新潟県,新潟市西蒲区,津雲田７５０番地,,15,108,9530123,,,,,,,2024-07-24,1,,,,,ツクモダモータース,0
135,1120001266783,新規,0,2024-07-24,2024-07-24,株式会社ルキンフォー,,株式会社,大阪府,大阪市中央区,内淡路町２丁目３－１０－６０３,,27,128,5400038,,,,,,,2024-07-24,1,,,,,ルキンフォー,0
136,1120001266998,新規,0,2024-07-24,2024-07-24,ＲＵＮＳＵＮ　ＣＬＯＵＤ株式会社,,株式会社,大阪府,大阪市中央区,博労町１丁目１６－１３いろはビル３０６,,27,128,5410059,,,,,,,2024-07-24,1,,,,,ランサンクラウド,0
137,1120001267014,新規,0,2024-07-24,2024-07-24,株式会社ＭＡ,,株式会社,大阪府,大阪市北区,梅田２丁目１番２２号野村不動産西梅田ビル１２階,,27,127,5300001,,,,,,,2024-07-24,1,,,,,エムエー,0
138,1120001267039,新規,0,2024-07-24,2024-07-24,旺昇株式会社,,株式会社,大阪府,大阪市住之江区,安立２丁目１０番１４号三坂ビル２０３号室,,27,125,5590003,,,,,,,2024-07-24,1,,,,,オウショウ,0
141,1120003027077,新規,0,2024-07-24,2024-07-24,ニャットアン合同会社,,合同会社,大阪府,大阪市北区,天神橋２丁目２番８号日宝南森町ビル１階,,27,127,5300041,,,,,,,2024-07-24,1,,,,,ニャットアン,0
142,1120003027085,新規,0,2024-07-24,2024-07-24,合同会社Ｙ‐ＳＰＯＲＴＳ,,合同会社,大阪府,大阪市東住吉区,駒川４丁目３番１６号駒川中野ハウス１,,27,121,5460043,,,,,,,2024-07-24,1,,,,,ワイスポーツ,0
143,1120003027102,新規,0,2024-07-24,2024-07-24,合同会社ＩＫＭ,,合同会社,大阪府,寝屋川市,平池町１６－１６,,27,215,5720839,,,,,,,2024-07-24,1,,,,,アイケーエム,0
144,1120003027110,新規,0,2024-07-24,2024-07-24,Ｋｉｅ　Ｌｅ合同会社,,合同会社,大阪府,大阪市北区,豊崎７丁目３－６メゾンドール山中２０３号,,27,127,5310072,,,,,,,2024-07-24,1,,,,,キイレ,0
151,1120901049395,新規,0,2024-07-24,2024-07-24,株式会社時鳴,,株式会社,大阪府,池田市,鉢塚３丁目１－２２－２０２室,,27,204,5630024,,,,,,,2024-07-24,1,,,,,トキメイ,0
155,1130001077494,新規,0,2024-07-24,2024-07-24,洛安株式会社,,株式会社,京都府,京都市中京区,東洞院蛸薬師下る元竹田町６３０番地プレサンスグラン京都東洞院４０５,,26,104,6040000,,,,,,,2024-07-24,1,,,,,ラクアン,0
156,1130001077536,新規,0,2024-07-24,2024-07-24,株式会社ＮＥＲＯＬＹ,,株式会社,京都府,京都市中京区,河原町通御池下る下丸屋町３９０番地２ＱＵＥＳＴＩＯＮ内,,26,104,6048006,,,,,,,2024-07-24,1,,,,,ネロリィ,0
159,1130003009719,新規,0,2024-07-24,2024-07-24,Ｎｅｗ　Ｌｉｆｅ　Ｉｎｖｅｓｔ合同会社,,合同会社,京都府,長岡京市,天神４丁目５番３７号,,26,209,6170824,,,,,,,2024-07-24,1,,,,,ニューライフインベスト,0
161,1130005017141,新規,0,2024-07-24,2024-07-24,一般財団法人本願寺未来財団,,その他の設立登記法人,京都府,京都市下京区,堀川通花屋町下る本願寺門前町,,26,106,6000000,,,,,,,2024-07-24,1,,,,,ホンガンジミライザイダン,0
169,1140003020856,新規,0,2024-07-24,2024-07-24,未来創建合同会社,,合同会社,兵庫県,姫路市,勝原区宮田６４番１,,28,201,6711213,,,,,,,2024-07-24,1,,,,,ミライソウケン,0
172,1180001162465,新規,0,2024-07-24,2024-07-24,リアルワースＲ＆Ｋ株式会社,,株式会社,愛知県,名古屋市中村区,名駅５丁目３１－１０リンクス名駅ビル５階．６階,,23,105,4500002,,,,,,,2024-07-24,1,,,,,リアルワースアールアンドケイ,0
177,1180301038877,新規,0,2024-07-24,2024-07-24,株式会社ＬＯＣＫ　ＯＮ,,株式会社,愛知県,豊川市,東曙町２７３番地東曙ビル２Ｃ号室,,23,207,4420011,,,,,,,2024-07-24,1,,,,,ロックオン,0
184,1200003006436,新規,0,2024-07-24,2024-07-24,合同会社ＡＧＥＮＴＰＬＵＳ,,合同会社,岐阜県,本巣市,海老２０６‐１,,21,218,5010476,,,,,,,2024-07-24,1,,,,,エージェントプラス,0
188,1240001063574,新規,0,2024-07-24,2024-07-24,株式会社久保屋木村久左衛門,,株式会社,広島県,呉市,蒲刈町向１２９４番地１６,,34,202,7370311,,,,,,,2024-07-24,1,,,,,クボヤキムラキュウザエモン,0
189,1240001063582,新規,0,2024-07-24,2024-07-24,株式会社エンネ,,株式会社,広島県,東広島市,鏡山２丁目３１３,,34,212,7390046,,,,,,,2024-07-24,1,,,,,エンネ,0
191,1240003006779,新規,0,2024-07-24,2024-07-24,ＡＯＩハピネス合同会社,,合同会社,広島県,広島市西区,己斐中３丁目１９－６,,34,104,7330813,,,,,,,2024-07-24,1,,,,,アオイハピネス,0
200,1290001106477,新規,0,2024-07-24,2024-07-24,株式会社ホシノワークス,,株式会社,福岡県,福岡市南区,大橋２丁目５番５－１００５号,,40,134,8150033,,,,,,,2024-07-24,1,,,,,ホシノワークス,0
204,1290803004787,新規,0,2024-07-24,2024-07-24,合同会社昌栄,,合同会社,福岡県,北九州市戸畑区,菅原２丁目２番４号,,40,105,8040044,,,,,,,2024-07-24,1,,,,,ショウエイ,0
208,1310003004825,新規,0,2024-07-24,2024-07-24,Ｒｉｓｉｎｇ合同会社,,合同会社,長崎県,大村市,大里町１５４２番地２８,,42,205,8560845,,,,,,,2024-07-24,1,,,,,ライシング,0
213,1360001033961,新規,0,2024-07-24,2024-07-24,沖縄リビングＣＧ株式会社,,株式会社,沖縄県,那覇市,久茂地２丁目２番２号,,47,201,9000015,,,,,,,2024-07-24,1,,,,,オキナワリビングシージー,0
219,1380003005825,新規,0,2024-07-24,2024-07-24,ヤマト・スマートファーム合同会社,,合同会社,福島県,須賀川市,保土原字古戸屋敷９３番地,,07,207,9620045,,,,,,,2024-07-24,1,,,,,ヤマトスマートファーム,0
226,1410005006594,新規,0,2024-07-24,2024-07-24,医療法人ＧＲＩＴ,,その他の設立登記法人,秋田県,秋田市,川元開和町１０番２０号,,05,201,0100932,,,,,,,2024-07-24,1,,,,,グリット,0
227,1420001018808,新規,0,2024-07-24,2024-07-24,龍騰産業株式会社,,株式会社,青森県,十和田市,大字三本木字西金崎４５１番地６,,02,206,0340001,,,,,,,2024-07-24,1,,,,,リュウトウサンギョウ,0
235,1430005015032,新規,0,2024-07-24,2024-07-24,一般社団法人Ｅｒｐ,,その他の設立登記法人,北海道,札幌市豊平区,豊平四条１０丁目２番１９号,,01,105,0620904,,,,,,,2024-07-24,1,,,,,イーアールピー,0
236,1460101007574,新規,0,2024-07-24,2024-07-24,株式会社エスプーロ,,株式会社,北海道,上川郡清水町,本通６丁目５番地１,,01,636,0890136,,,,,,,2024-07-24,1,,,,,エスプーロ,0
251,2010001246283,新規,0,2024-07-24,2024-07-24,株式会社Ｋｏａｌａ,,株式会社,東京都,中央区,銀座１丁目１２番４号Ｎ＆ＥＢＬＤ．６Ｆ,,13,102,1040061,,,,,,,2024-07-24,1,,,,,コアラ,0
252,2010001246754,新規,0,2024-07-24,2024-07-24,株式会社ｅｎｎ,,株式会社,東京都,中央区,日本橋室町１丁目１１番１２号７階,,13,102,1030022,,,,,,,2024-07-24,1,,,,,エン,0
253,2010001246762,新規,0,2024-07-24,2024-07-24,インフィニティクス・ジャパン株式会社,,株式会社,東京都,千代田区,丸の内１丁目６番５号丸の内北口ビルディング９階,,13,101,1000005,,,,,,,2024-07-24,1,,,,,インフィニティクスジャパン,0
254,2010001246779,新規,0,2024-07-24,2024-07-24,株式会社ｃｈｏｃｏｃｈｏｂｉ,,株式会社,東京都,中央区,晴海２丁目３番３０－２７０９号,,13,102,1040053,,,,,,,2024-07-24,1,,,,,チョコチョビ,0
255,2010001246804,新規,0,2024-07-24,2024-07-24,株式会社丸富ホールディングス,,株式会社,東京都,千代田区,神田須田町１丁目１６番地ＲＡＸＡ神田須田町４階,,13,101,1010041,,,,,,,2024-07-24,1,,,,,マルトミホールディングス,0
256,2010001246812,新規,0,2024-07-24,2024-07-24,Ｒｉｐｐｌｅ　Ｃｏｎｓｕｌｔｉｎｇ株式会社,,株式会社,東京都,中央区,銀座１丁目１２番４号Ｎ＆ＥＢＬＤ．６Ｆ,,13,102,1040061,,,,,,,2024-07-24,1,,,,,リップルコンサルティング,0
259,2010003044363,新規,0,2024-07-24,2024-07-24,ＩＴＤＡＭ　ＪＡＰＡＮ合同会社,,合同会社,東京都,千代田区,丸の内１丁目６番５号丸の内北口ビル９階,,13,101,1000005,,,,,,,2024-07-24,1,,,,,イッダムジャパン,0
260,2010003044371,新規,0,2024-07-24,2024-07-24,合同会社ＧＥ‐ＦＩＴ１号,,合同会社,東京都,千代田区,丸の内２丁目２番１号岸本ビルヂング１０階株式会社レイズ内,,13,101,1000005,,,,,,,2024-07-24,1,,,,,ジーイーフィットイチゴウ,0
261,2010003044388,新規,0,2024-07-24,2024-07-24,合同会社千代田トレーディング,,合同会社,東京都,中央区,日本橋兜町１７－２兜町第６葉山ビル６Ｆ,,13,102,1030026,,,,,,,2024-07-24,1,,,,,チヨダトレーディング,0
274,2010401183944,新規,0,2024-07-24,2024-07-24,株式会社Ｒｏｏｔ　Ｍａｎａｇｅｍｅｎｔ,,株式会社,東京都,港区,白金６丁目５－１２６０４,,13,103,1080072,,,,,,,2024-07-24,1,,,,,ルーツマネジメント,0
275,2010401183985,新規,0,2024-07-24,2024-07-24,株式会社ＬａｓｔＲｅｓｏｒｔ,,株式会社,東京都,港区,港南４丁目１番６ウエリスアーバン品川タワー－１４０６号室,,13,103,1080075,,,,,,,2024-07-24,1,,,,,ラストリゾート,0
277,2010403033040,新規,0,2024-07-24,2024-07-24,合同会社アップジャスミン,,合同会社,東京都,港区,南青山２丁目２番１５号,,13,103,1070062,,,,,,,2024-07-24,1,,,,,アップジャスミン,0
280,2010601065604,新規,0,2024-07-24,2024-07-24,ライフ．フォース株式会社,,株式会社,東京都,江東区,亀戸７丁目６３番３－５０４号,,13,108,1360071,,,,,,,2024-07-24,1,,,,,ライフフォース,0
289,2010901055651,新規,0,2024-07-24,2024-07-24,株式会社ＡＭＤＣＴＥＣ,,株式会社,東京都,世田谷区,下馬４丁目１６番５号,,13,112,1540002,,,,,,,2024-07-24,1,,,,,エーエムデーシーテック,0
290,2010901055676,新規,0,2024-07-24,2024-07-24,株式会社相想,,株式会社,東京都,世田谷区,代田２丁目１０－８,,13,112,1550033,,,,,,,2024-07-24,1,,,,,ソウソウ,0
294,2011001163502,新規,0,2024-07-24,2024-07-24,株式会社Ｏａｋｒｉｃｈ,,株式会社,東京都,渋谷区,渋谷２丁目１９－１５宮益坂ビルディング６０９,,13,113,1500002,,,,,,,2024-07-24,1,,,,,オークリッチ,0
295,2011001163551,新規,0,2024-07-24,2024-07-24,株式会社吉川,,株式会社,東京都,渋谷区,千駄ヶ谷５丁目１３番１８号,,13,113,1510051,,,,,,,2024-07-24,1,,,,,ヨシカワ,0
296,2011001163576,新規,0,2024-07-24,2024-07-24,ＲＵＵＴＥＥ株式会社,,株式会社,東京都,渋谷区,東３丁目２５－３－７０１,,13,113,1500011,,,,,,,2024-07-24,1,,,,,ルーティー,0
302,2011101108118,新規,0,2024-07-24,2024-07-24,株式会社ＳｔｒａｔｅｇｉＸ　Ｊａｐａｎ,,株式会社,東京都,新宿区,新宿３丁目５番６号キュープラザ新宿三丁目４Ｆ,,13,104,1600022,,,,,,,2024-07-24,1,,,,,ストラテジックスジャパン,0
308,2011403004452,新規,0,2024-07-24,2024-07-24,合同会社ペルソン,,合同会社,東京都,板橋区,赤塚７丁目２３－５,,13,119,1750092,,,,,,,2024-07-24,1,,,,,ペルソン,0
313,2011701027436,新規,0,2024-07-24,2024-07-24,株式会社Ａｂｏｄｅ,,株式会社,東京都,江戸川区,松島１丁目１３番１０号,,13,123,1320031,,,,,,,2024-07-24,1,,,,,アボード,0
314,2011703003914,新規,0,2024-07-24,2024-07-24,合同会社太陽,,合同会社,東京都,江戸川区,船堀６丁目２番１９号,,13,123,1340091,,,,,,,2024-07-24,1,,,,,タイヨウ,0
317,2011801044570,新規,0,2024-07-24,2024-07-24,株式会社ビバリー,,株式会社,東京都,足立区,南花畑３丁目３４番１１号,,13,121,1210062,,,,,,,2024-07-24,1,,,,,ビバリー,0
319,2011803006346,新規,0,2024-07-24,2024-07-24,合同会社アサクラリフト,,合同会社,東京都,葛飾区,堀切７丁目３番６号,,13,122,1240006,,,,,,,2024-07-24,1,,,,,アサクラリフト,0
326,2012701018375,新規,0,2024-07-24,2024-07-24,日中人材教育センター株式会社,,株式会社,東京都,西東京市,中町５丁目８番６号,,13,229,2020013,,,,,,,2024-07-24,1,,,,,ニッチュウジンザイキョウイクセンター,0
332,2013301052871,新規,0,2024-07-24,2024-07-24,匠仁株式会社,,株式会社,東京都,豊島区,東池袋４丁目６番２号匠ビル４Ｆ,,13,116,1700013,,,,,,,2024-07-24,1,,,,,ショウジン,0
334,2013303007238,新規,0,2024-07-24,2024-07-24,合同会社Ｔｕｂｅｌｅｓｓ　Ｗｏｒｋｓ,,合同会社,東京都,豊島区,目白５丁目３番９－３０８号,,13,116,1710031,,,,,,,2024-07-24,1,,,,,チューブレスワークス,0
347,2021003014818,新規,0,2024-07-24,2024-07-24,をん合同会社,,合同会社,神奈川県,相模原市中央区,上溝２０３３－１０,,14,152,2520243,,,,,,,2024-07-24,1,,,,,ヲン,0
348,2021005013157,新規,0,2024-07-24,2024-07-24,税理士法人ＢＥＹＯＮＤ,,その他の設立登記法人,神奈川県,鎌倉市,御成町１１番４０号ＫＮビル３階,,14,204,2480012,,,,,,,2024-07-24,1,,,,,ビヨンド,0
356,2040001134642,新規,0,2024-07-24,2024-07-24,株式会社ＳＬＪ,,株式会社,千葉県,市川市,南八幡２丁目１５－２０,,12,203,2720023,,,,,,,2024-07-24,1,,,,,エスエルジェイ,0
357,2040001134659,新規,0,2024-07-24,2024-07-24,株式会社ＳＨＩＰシステムズ,,株式会社,千葉県,千葉市花見川区,幕張町４丁目８０６番地１８,,12,102,2620032,,,,,,,2024-07-24,1,,,,,シップシステムズ,0
358,2040001134700,新規,0,2024-07-24,2024-07-24,Ｂｅｓｔ　Ｓｔａｙ株式会社,,株式会社,千葉県,袖ケ浦市,袖ケ浦駅前２丁目６－６ガウベース２０１,,12,229,2990269,,,,,,,2024-07-24,1,,,,,ベストステイ,0
370,2080401027319,新規,0,2024-07-24,2024-07-24,カワイエ株式会社,,株式会社,静岡県,浜松市中央区,坪井町５４０５番地,,22,138,4310202,,,,,,,2024-07-24,1,,,,,カワイエ,0
371,2080401027327,新規,0,2024-07-24,2024-07-24,株式会社鳴潮製作所,,株式会社,静岡県,浜松市中央区,三新町３００,,22,138,4300833,,,,,,,2024-07-24,1,,,,,ナルシオセイサクショ,0
390,2120001266816,新規,0,2024-07-24,2024-07-24,株式会社盛利,,株式会社,大阪府,大阪市中央区,高津３丁目１５－１０朝日プラザ夕陽ケ丘ＩＩＩ９０３号室,00135682,27,128,5420072,,,,,,,2024-07-24,1,,,,,セイリ,0
391,2120001267021,新規,0,2024-07-24,2024-07-24,尚古堂文化株式会社,,株式会社,大阪府,大阪市北区,長柄東３丁目１－２３,,27,127,5310063,,,,,,,2024-07-24,1,,,,,ショウコドウブンカ,0
392,2120001267054,新規,0,2024-07-24,2024-07-24,繁栄株式会社,,株式会社,大阪府,大阪市中央区,船場中央２丁目３－６－３１２号,,27,128,5410055,,,,,,,2024-07-24,1,,,,,ハンエイ,0
393,2120001267062,新規,0,2024-07-24,2024-07-24,株式会社レイ・ラ・アイ,,株式会社,大阪府,大阪市西区,阿波座２丁目３－２３有恒ビル２０５,,27,106,5500011,,,,,,,2024-07-24,1,,,,,レイラアイ,0
395,2120003027118,新規,0,2024-07-24,2024-07-24,文友合同会社,,合同会社,大阪府,大阪市中央区,常盤町１丁目１－９－４０２,,27,128,5400028,,,,,,,2024-07-24,1,,,,,ブンユウ,0
410,2140003020855,新規,0,2024-07-24,2024-07-24,合同会社ＢＲＩＣＫＴＯＰ,,合同会社,兵庫県,神戸市中央区,再度筋町２０番１号,,28,110,6500005,,,,,,,2024-07-24,1,,,,,ブリックトップ,0
421,2180303006204,新規,0,2024-07-24,2024-07-24,合同会社ＬＨＴ,,合同会社,愛知県,豊田市,泉町山田１９８－８３,,23,211,4710803,,,,,,,2024-07-24,1,,,,,エルエイチティー,0
423,2190003004746,新規,0,2024-07-24,2024-07-24,Ｌ＆Ｋ合同会社,,合同会社,三重県,津市,高茶屋小森町１８２２‐１,,24,201,5140817,,,,,,,2024-07-24,1,,,,,エルアンドケイ,0
424,2200001042738,新規,0,2024-07-24,2024-07-24,株式会社ＳＯＲＡ,,株式会社,岐阜県,大垣市,見取町１丁目９８番地１,,21,202,5030025,,,,,,,2024-07-24,1,,,,,ソラ,0
426,2220001026111,新規,0,2024-07-24,2024-07-24,株式会社Ｉ’ｍ,,株式会社,石川県,羽咋市,御坊山町６番地１４,,17,207,9250047,,,,,,,2024-07-24,1,,,,,アイム,0
430,2230001020451,新規,0,2024-07-24,2024-07-24,株式会社ＦＵＪＩ・ＡＲＢＥＬＯ,,株式会社,富山県,高岡市,能町南１丁目３３番地３フレンド愛２０７号,,16,202,9330005,,,,,,,2024-07-24,1,,,,,フジアルベロ,0
433,2240001063573,新規,0,2024-07-24,2024-07-24,株式会社Ｋ’Ｓエネルギー,,株式会社,広島県,安芸高田市,向原町長田４６３番地,,34,214,7391203,,,,,,,2024-07-24,1,,,,,ケイズエネルギー,0
434,2240001063581,新規,0,2024-07-24,2024-07-24,株式会社ｂｌｕｅ　ｐｏｃｋｅｔ,,株式会社,広島県,福山市,長者町２番７号,,34,207,7200075,,,,,,,2024-07-24,1,,,,,ブルーポケット,0
437,2260001039290,新規,0,2024-07-24,2024-07-24,株式会社サンワワーク,,株式会社,岡山県,倉敷市,浜ノ茶屋２丁目６番２７号,,33,202,7100061,,,,,,,2024-07-24,1,,,,,サンワワーク,0
439,2280003001866,新規,0,2024-07-24,2024-07-24,合同会社隠岐デジタルラボ,,合同会社,島根県,隠岐郡西ノ島町,大字美田１１２９番地,,32,526,6840303,,,,,,,2024-07-24,1,,,,,オキデジタルラボ,0
440,2280005007622,新規,0,2024-07-24,2024-07-24,医療法人八重垣,,その他の設立登記法人,島根県,松江市,上乃木４丁目１０番２７号,,32,201,6900015,,,,,,,2024-07-24,1,,,,,ヤエガキ,0
442,2290001106484,新規,0,2024-07-24,2024-07-24,株式会社Ｒｅｖｒｅｅｌ,,株式会社,福岡県,福岡市東区,松崎１丁目５番３－２０１号モンテ松崎,,40,131,8130035,,,,,,,2024-07-24,1,,,,,リヴリール,0
443,2290001106518,新規,0,2024-07-24,2024-07-24,株式会社楽ｇｒｅｅｎ,,株式会社,福岡県,福岡市東区,高美台１丁目１６番５号,,40,131,8110215,,,,,,,2024-07-24,1,,,,,ラクグリーン,0
455,2360001033944,新規,0,2024-07-24,2024-07-24,株式会社ＣＨＡＫＫＡＺＡＩ,,株式会社,沖縄県,宮古島市,平良字東仲宗根９３４－１,,47,214,9060007,,,,,,,2024-07-24,1,,,,,チャッカザイ,0
457,2370001051557,新規,0,2024-07-24,2024-07-24,アイトランジット株式会社,,株式会社,宮城県,仙台市青葉区,中山１丁目４番１号メゾンド中山１０６,,04,101,9810952,,,,,,,2024-07-24,1,,,,,アイトランジット,0
477,3010001246704,新規,0,2024-07-24,2024-07-24,株式会社ＴＯＲＯ,,株式会社,東京都,中央区,銀座８丁目１７番５号ＴＨＥＨＵＢ銀座ＯＣＴ６階,,13,102,1040061,,,,,,,2024-07-24,1,,,,,トロ,0
478,3010001246729,新規,0,2024-07-24,2024-07-24,量子ＡＩソリューションズ株式会社,,株式会社,東京都,文京区,千石３丁目２５－９,,13,105,1120011,,,,,,,2024-07-24,1,,,,,リョウシエーアイソリューションズ,0
479,3010001246753,新規,0,2024-07-24,2024-07-24,ＳＴｒｅａＭ株式会社,,株式会社,東京都,千代田区,一番町９番地１０アーノンブライト一番町１１０１号,,13,101,1020082,,,,,,,2024-07-24,1,,,,,ストリーム,0
480,3010001246761,新規,0,2024-07-24,2024-07-24,株式会社エリエス,,株式会社,東京都,中央区,銀座７丁目１３番２１号銀座ｓｉｎｒｏｋｕｓｙｕビル２階,,13,102,1040061,,,,,,,2024-07-24,1,,,,,エリエス,0
481,3010001246794,新規,0,2024-07-24,2024-07-24,株式会社タハ山,,株式会社,東京都,中央区,日本橋人形町２丁目３５番５号,,13,102,1030013,,,,,,,2024-07-24,1,,,,,タハヤマ,0
489,3010401183935,新規,0,2024-07-24,2024-07-24,豊正科技株式会社,,株式会社,東京都,港区,三田３丁目４－１１ＴＲＵＳＴＶＡＬＵＥ三田８０１号室,,13,103,1080073,,,,,,,2024-07-24,1,,,,,ホウセイカギ,0
490,3010401183968,新規,0,2024-07-24,2024-07-24,クリアルホテルズ株式会社,,株式会社,東京都,港区,新橋２丁目１２番１１号,,13,103,1050004,,,,,,,2024-07-24,1,,,,,クリアルホテルズ,0
491,3010401183984,新規,0,2024-07-24,2024-07-24,株式会社３ｉｎｃ,,株式会社,東京都,港区,南青山５丁目１２－３－４０３,,13,103,1070062,,,,,,,2024-07-24,1,,,,,スリーインク,0
492,3010401184009,新規,0,2024-07-24,2024-07-24,株式会社知的創造サイクルラボ,,株式会社,東京都,港区,元赤坂１丁目２番７号,,13,103,1070051,,,,,,,2024-07-24,1,,,,,チテキソウゾウサイクルラボ,0
504,3010801035249,新規,0,2024-07-24,2024-07-24,おもてなしトラスト株式会社,,株式会社,東京都,大田区,中央２丁目８番３号,,13,111,1430024,,,,,,,2024-07-24,1,,,,,オモテナシトラスト,0
513,3011003019651,新規,0,2024-07-24,2024-07-24,途杯合同会社,,合同会社,東京都,目黒区,下目黒１丁目１－１４コノトラビル７Ｆ,,13,110,1530064,,,,,,,2024-07-24,1,,,,,トハイ,0
514,3011005010617,新規,0,2024-07-24,2024-07-24,土地家屋調査士法人ａｃｒｏ,,その他の設立登記法人,東京都,渋谷区,渋谷１丁目６番１０号,,13,113,1500002,,,,,,,2024-07-24,1,,,,,アクロ,0
516,3011101108166,新規,0,2024-07-24,2024-07-24,株式会社ゆたかカレッジ,,株式会社,東京都,新宿区,西新宿３丁目９番７号,,13,104,1600023,,,,,,,2024-07-24,1,,,,,ユタカカレッジ,0
517,3011103014692,新規,0,2024-07-24,2024-07-24,合同会社Ｓｏｌａｒｉｓ,,合同会社,東京都,新宿区,若葉２丁目１０番地５グランカーサ四谷２０３,,13,104,1600011,,,,,,,2024-07-24,1,,,,,ソラリス,0
521,3011403004451,新規,0,2024-07-24,2024-07-24,Ｚｍｂ　Ｉｍｐｏｒｔ合同会社,,合同会社,東京都,板橋区,蓮根２丁目２７番１２号,,13,119,1740046,,,,,,,2024-07-24,1,,,,,ゼッドエムビーインポート,0
534,3011801044578,新規,0,2024-07-24,2024-07-24,フミマーレ株式会社,,株式会社,東京都,葛飾区,亀有２丁目３８番７号サトーハイムＥ号,,13,122,1250061,,,,,,,2024-07-24,1,,,,,フミマーレ,0
535,3011803006353,新規,0,2024-07-24,2024-07-24,合同会社ＦｒｅｅＦｏｒｍ　Ｓｃｈｏｏｌ,,合同会社,東京都,葛飾区,東四つ木３丁目６番地２６号梅沢荘２０２,,13,122,1240014,,,,,,,2024-07-24,1,,,,,フリーフォームスクール,0
537,3012703003052,新規,0,2024-07-24,2024-07-24,合同会社ナイトライフ,,合同会社,東京都,西東京市,田無町３丁目１番２号佐濃本ビル３Ｆ,,13,229,1880011,,,,,,,2024-07-24,1,,,,,ナイトライフ,0
538,3013301052870,新規,0,2024-07-24,2024-07-24,三友株式会社,,株式会社,東京都,豊島区,南大塚２丁目４３－１ゆうモアマンション５０１号室,,13,116,1700005,,,,,,,2024-07-24,1,,,,,ミトモ,0
547,3020005016490,新規,0,2024-07-24,2024-07-24,一般社団法人市民連帯経済つながるかながわ,,その他の設立登記法人,神奈川県,横浜市中区,南仲通４丁目３９番地石橋ビル４階,,14,104,2310006,,,,,,,2024-07-24,1,,,,,シミンレンタイケイザイツナガルカナガワ,0
558,3030001161579,新規,0,2024-07-24,2024-07-24,株式会社ＩＶＹ,,株式会社,埼玉県,朝霞市,東弁財３丁目１７－１６ロイヤルコーポ渡辺２１１,,11,227,3510022,,,,,,,2024-07-24,1,,,,,アイブイワイ,0
564,3040001134625,新規,0,2024-07-24,2024-07-24,光彩電工株式会社,,株式会社,千葉県,木更津市,請西南５丁目１番５号,,12,206,2920807,,,,,,,2024-07-24,1,,,,,ヒイロデンコウ,0
565,3040001134682,新規,0,2024-07-24,2024-07-24,株式会社別府測建,,株式会社,千葉県,船橋市,湊町２丁目１２番２４号湊町日本橋ビル６階,,12,204,2730011,,,,,,,2024-07-24,1,,,,,ベップソッケン,0
570,3040005022454,新規,0,2024-07-24,2024-07-24,ＮＰＯ法人柏介護予防講師ネットワーク,,その他の設立登記法人,千葉県,柏市,日立台２丁目４番１９号,,12,217,2770083,,,,,,,2024-07-24,1,,,,,カシワカイゴヨボウコウシネットワーク,0
571,3050001055135,新規,0,2024-07-24,2024-07-24,たやま株式会社,,株式会社,茨城県,鉾田市,鉾田１５８２番地,,08,234,3111517,,,,,,,2024-07-24,1,,,,,タヤマ,0
572,3050001055143,新規,0,2024-07-24,2024-07-24,株式会社鶴田ウェルディング,00135677,株式会社,茨城県,鉾田市,上太田３９２番地６,,08,234,3111405,,,,,,,2024-07-24,1,,,,,ツルタウェルディング,0
590,3090003002602,新規,0,2024-07-24,2024-07-24,８ＭＥＡＴ合同会社,,合同会社,山梨県,中央市,布施２０６１番地１サンライフ荻原Ａ２号,,19,214,4093841,,,,,,,2024-07-24,1,,,,,エイトミート,0
591,3100001037689,新規,0,2024-07-24,2024-07-24,株式会社ネクサススタート,,株式会社,長野県,千曲市,大字上山田８０５番地１,,20,218,3890822,,,,,,,2024-07-24,1,,,,,ネクサススタート,0
596,3100003007657,新規,0,2024-07-24,2024-07-24,合同会社ケネディ・ライフスタイル,,合同会社,長野県,長野市,戸隠３６１１番地,,20,201,3814101,,,,,,,2024-07-24,1,,,,,ケネディライフスタイル,0
598,3110001038579,新規,0,2024-07-24,2024-07-24,ＭＩＹＡＢＩ溶接工業株式会社,,株式会社,新潟県,三条市,井栗１丁目２２番２１号,,15,204,9550013,,,,,,,2024-07-24,1,,,,,ミヤビヨウセツコウギョウ,0
608,3120001266807,新規,0,2024-07-24,2024-07-24,御百豪株式会社,,株式会社,大阪府,大阪市住之江区,安立２丁目１０番１４号三坂ビル１０６号室,,27,125,5590003,,,,,,,2024-07-24,1,,,,,ゴヒャクゴウ,0
609,3120001266955,新規,0,2024-07-24,2024-07-24,Ｚｅｎｉｔｈ株式会社,,株式会社,大阪府,大阪市城東区,中浜３丁目２５番１５－４０３号,,27,118,5360024,,,,,,,2024-07-24,1,,,,,ゼニス,0
610,3120001267012,新規,0,2024-07-24,2024-07-24,ピーキナ株式会社,,株式会社,大阪府,大阪市福島区,福島４丁目３番２３－７０９号,,27,103,5530003,,,,,,,2024-07-24,1,,,,,ピーキナ,0
611,3120001267029,新規,0,2024-07-24,2024-07-24,株式会社Ｋｃｏｍｆｏｒｔ,,株式会社,大阪府,大阪市中央区,瓦町４丁目３番１４－７０６号,,27,128,5410048,,,,,,,2024-07-24,1,,,,,ケィコンフォート,0
612,3120001267045,新規,0,2024-07-24,2024-07-24,おかもとＨＤ株式会社,,株式会社,大阪府,守口市,寺内町２丁目７番３号２１０,,27,209,5700056,,,,,,,2024-07-24,1,,,,,オカモトホールディングス,0
613,3120001267053,新規,0,2024-07-24,2024-07-24,株式会社ＴＳＵＢＡＳＡ,,株式会社,大阪府,大阪市天王寺区,上本町３丁目１番１９－７０２号,,27,109,5430001,,,,,,,2024-07-24,1,,,,,ツバサ,0
614,3120001267061,新規,0,2024-07-24,2024-07-24,株式会社トータルソリューション,,株式会社,大阪府,大阪市天王寺区,寺田町２丁目１番２２号ロッキービル２階,,27,109,5430045,,,,,,,2024-07-24,1,,,,,トータルソリューション,0
615,3120001267078,新規,0,2024-07-24,2024-07-24,株式会社ｏｎｅ,,株式会社,大阪府,大阪市港区,弁天１丁目２番１号,,27,107,5520007,,,,,,,2024-07-24,1,,,,,ワン,0
619,3120003027109,新規,0,2024-07-24,2024-07-24,合同会社エルコンテンツ,,合同会社,大阪府,大阪市北区,梅田１丁目２番２号大阪駅前第２ビル１２－１２,,27,127,5300001,,,,,,,2024-07-24,1,,,,,エルコンテンツ,0
620,3120003027125,新規,0,2024-07-24,2024-07-24,秋木企画合同会社,,合同会社,大阪府,大阪市中央区,南船場３丁目２番２２号おおきに南船場ビル２０５,,27,128,5420081,,,,,,,2024-07-24,1,,,,,アキキキカク,0
625,3120103005963,新規,0,2024-07-24,2024-07-24,合同会社Ｒ＆Ｒ,,合同会社,大阪府,大阪狭山市,西山台６丁目１６番３号,,27,231,5890022,,,,,,,2024-07-24,1,,,,,アールアンドアール,0
626,3120105009888,新規,0,2024-07-24,2024-07-24,医療法人雅会,,その他の設立登記法人,大阪府,堺市中区,大野芝町２３番地１,,27,142,5998233,,,,,,,2024-07-24,1,,,,,ミヤビカイ,0
638,3140001135225,新規,0,2024-07-24,2024-07-24,ＳＩＢリビング株式会社,,株式会社,兵庫県,神戸市中央区,脇浜町１丁目５番１－６０２号,,28,110,6510072,,,,,,,2024-07-24,1,,,,,エスアイビーリビング,0
639,3140001135233,新規,0,2024-07-24,2024-07-24,株式会社リライフマネジメント,,株式会社,兵庫県,神戸市兵庫区,羽坂通４丁目２番１１号兵庫駅前中川ビル２Ｆ,,28,105,6520805,,,,,,,2024-07-24,1,,,,,リライフマネジメント,0
642,3140003020854,新規,0,2024-07-24,2024-07-24,関西企画合同会社,,合同会社,兵庫県,姫路市,林田町下伊勢３８４番地２,,28,201,6794233,,,,,,,2024-07-24,1,,,,,カンサイキカク,0
643,3140003020862,新規,0,2024-07-24,2024-07-24,合同会社ｅモール,,合同会社,兵庫県,尼崎市,西長洲町２丁目８－１４－１階,,28,202,6600805,,,,,,,2024-07-24,1,,,,,イーモール,0
644,3150001027438,新規,0,2024-07-24,2024-07-24,安泰園株式会社,,株式会社,奈良県,生駒市,小明町１８５８番地１５,,29,209,6300201,,,,,,,2024-07-24,1,,,,,アンタイエン,0
646,3170001018229,新規,0,2024-07-24,2024-07-24,イートランス株式会社,,株式会社,和歌山県,和歌山市,つつじが丘６丁目５番地１５,,30,201,6400115,,,,,,,2024-07-24,1,,,,,イートランス,0
649,3180001162406,新規,0,2024-07-24,2024-07-24,株式会社ＰＬＵＳ,,株式会社,愛知県,名古屋市中区,平和１丁目１番１２号,,23,106,4600021,,,,,,,2024-07-24,1,,,,,プラス,0
650,3180001162422,新規,0,2024-07-24,2024-07-24,株式会社海幸一番,,株式会社,愛知県,愛知郡東郷町,清水３丁目５番地１２,,23,302,4700165,,,,,,,2024-07-24,1,,,,,カイコウイチバン,0
651,3180001162488,新規,0,2024-07-24,2024-07-24,株式会社ＭＩＴ,,株式会社,愛知県,名古屋市中村区,竹橋町１５番１６号,,23,105,4530016,,,,,,,2024-07-24,1,,,,,エムアイティ,0
652,3180003027103,新規,0,2024-07-24,2024-07-24,日本クリエイト合同会社,,合同会社,愛知県,名古屋市中村区,並木２丁目８,,23,105,4530856,,,,,,,2024-07-24,1,,,,,ニホンクリエイト,0
653,3180005020700,新規,0,2024-07-24,2024-07-24,あじさい土地家屋調査士法人,,その他の設立登記法人,愛知県,一宮市,篭屋４丁目１３番６号,,23,203,4940002,,,,,,,2024-07-24,1,,,,,アジサイ,0
659,3180303006194,新規,0,2024-07-24,2024-07-24,ニコル警備合同会社,,合同会社,愛知県,みよし市,明知町山中５８番地１,,23,236,4700214,,,,,,,2024-07-24,1,,,,,ニコルケイビ,0
669,3240001063564,新規,0,2024-07-24,2024-07-24,株式会社コレクト,,株式会社,広島県,福山市,東川口町４丁目１番４１－２号Ｂ２０２,,34,207,7200821,,,,,,,2024-07-24,1,,,,,コレクト,0
670,3240001063572,新規,0,2024-07-24,2024-07-24,株式会社ヨウＦＯＸ,,株式会社,広島県,広島市中区,堺町２丁目６番２０－３０２号,,34,101,7300853,,,,,,,2024-07-24,1,,,,,ヨウフォックス,0
671,3240001063580,新規,0,2024-07-24,2024-07-24,株式会社佐賀田,,株式会社,広島県,尾道市,向島町７７１４番地４,,34,205,7220073,,,,,,,2024-07-24,1,,,,,サガタ,0
675,3240003006777,新規,0,2024-07-24,2024-07-24,ＯＲＥＮＯ合同会社,,合同会社,広島県,広島市東区,牛田本町６丁目１番２７号５Ｆ,,34,102,7320066,,,,,,,2024-07-24,1,,,,,オレノ,0
676,3240005015801,新規,0,2024-07-24,2024-07-24,一般社団法人結音の会,,その他の設立登記法人,広島県,大竹市,元町１丁目１３番１号,,34,211,7390615,,,,,,,2024-07-24,1,,,,,ユイネノカイ,0
685,3290001106500,新規,0,2024-07-24,2024-07-24,路遇株式会社,,株式会社,福岡県,福岡市西区,小戸１丁目４５番１１－２０１号,,40,135,8190001,,,,,,,2024-07-24,1,,,,,ログウ,0
690,3310001019121,新規,0,2024-07-24,2024-07-24,ＫＭＯ　Ｃｏｎｎｅｃｔ株式会社,,株式会社,長崎県,長崎市,草住町５番地,,42,201,8500981,,,,,,,2024-07-24,1,,,,,ケイエムオーコネクト,0
693,3320005010174,新規,0,2024-07-24,2024-07-24,無限責任金田負債整理組合,,その他の設立登記法人,大分県,豊後大野市,三重町,,44,212,8797100,,,,,,,2024-07-24,1,,,,,ムゲンセキニンカネダ,0
695,3370001051548,新規,0,2024-07-24,2024-07-24,株式会社ＴＯＲＢＹ,,株式会社,宮城県,仙台市太白区,中田町字前沖９１,,04,104,9811103,,,,,,,2024-07-24,1,,,,,トービー,0
702,3390001017687,新規,0,2024-07-24,2024-07-24,株式会社ＢＩＧ‐ＴＲＥＥ,,株式会社,山形県,山形市,久保田３丁目１１番１２号,,06,201,9902482,,,,,,,2024-07-24,1,,,,,ビッグツリー,0
703,3390003002266,新規,0,2024-07-24,2024-07-24,合同会社ＨＳソリューションジャパン,,合同会社,山形県,山形市,本町１丁目５番１９号やまがたクリエイティブシティセンターＱ１、３Ｆシェアオフィス０３,,06,201,9900043,,,,,,,2024-07-24,1,,,,,エイチエスソリューションジャパン,0
711,3430001092296,新規,0,2024-07-24,2024-07-24,フリーベース株式会社,,株式会社,北海道,札幌市北区,新琴似九条１丁目４番１－７０２号,,01,102,0010909,,,,,,,2024-07-24,1,,,,,フリーベース,0
715,3450001014364,新規,0,2024-07-24,2024-07-24,株式会社ガイネット,,株式会社,北海道,旭川市,東旭川南一条１丁目３番２３号,,01,204,0788261,,,,,,,2024-07-24,1,,,,,ガイネット,0
716,3460101007580,新規,0,2024-07-24,2024-07-24,蟻十工業株式会社,,株式会社,北海道,中川郡幕別町,札内北町２８番地の８,,01,643,0890534,,,,,,,2024-07-24,1,,,,,アリトコウギョウ,0
717,3490001010822,新規,0,2024-07-24,2024-07-24,株式会社グッドコレクト,,株式会社,高知県,高知市,潮新町１丁目１３番５号,,39,201,7818008,,,,,,,2024-07-24,1,,,,,グッドコレクト,0
726,4010001246736,新規,0,2024-07-24,2024-07-24,株式会社アキーム,,株式会社,東京都,中央区,日本橋室町１丁目１１番１２号日本橋水野ビル７階,,13,102,1030022,,,,,,,2024-07-24,1,,,,,アキーム,0
727,4010001246752,新規,0,2024-07-24,2024-07-24,株式会社八重桜,,株式会社,東京都,千代田区,有楽町２丁目１０番１号東京交通会館地下１階Ｂ１５３号室,,13,101,1000006,,,,,,,2024-07-24,1,,,,,ヤエザクラ,0
728,4010001246777,新規,0,2024-07-24,2024-07-24,株式会社ｏｍｏｉｔｏ,,株式会社,東京都,中央区,銀座７丁目１５番８号タウンハイツ銀座４０６,,13,102,1040061,,,,,,,2024-07-24,1,,,,,オモイト,0
729,4010001246802,新規,0,2024-07-24,2024-07-24,株式会社ＢｅｅＦａｂｌｅ,,株式会社,東京都,中央区,銀座１丁目１２番４号,,13,102,1040061,,,,,,,2024-07-24,1,,,,,ビーフェイブル,0
731,4010003044394,新規,0,2024-07-24,2024-07-24,合同会社Ｇｒｅｉｔｉｖｅ,,合同会社,東京都,千代田区,神田須田町１丁目７番８号,,13,101,1010041,,,,,,,2024-07-24,1,,,,,グレイティブ,0
732,4010003044403,新規,0,2024-07-24,2024-07-24,Ｓ２キャピタルマネジメント合同会社,,合同会社,東京都,千代田区,富士見２丁目７－１－６１２,,13,101,1020071,,,,,,,2024-07-24,1,,,,,エスツーキャピタルマネジメント,0
733,4010101016246,新規,0,2024-07-24,2024-07-24,株式会社フライト,,株式会社,東京都,八王子市,千人町３丁目１９番９号Ｆ’ＮＥＳＴ千人町１０２号,,13,201,1930835,,,,,,,2024-07-24,1,,,,,フライト,0
736,4010401183967,新規,0,2024-07-24,2024-07-24,株式会社ＺＥＡＬ,,株式会社,東京都,港区,白金１丁目１番８－３０２号,,13,103,1080072,,,,,,,2024-07-24,1,,,,,ジール,0
737,4010401183975,新規,0,2024-07-24,2024-07-24,株式会社ＫＡＮＡ‐Ｌ　ＡＧＥＮＴ,,株式会社,東京都,港区,赤坂６丁目９番１７号赤坂メープルヒル４階,,13,103,1070052,,,,,,,2024-07-24,1,,,,,カナエルエージェント,0
738,4010401183983,新規,0,2024-07-24,2024-07-24,株式会社ＫＵＲＯ,,株式会社,東京都,港区,高輪３丁目１０－２グラスプラス高輪,,13,103,1080074,,,,,,,2024-07-24,1,,,,,クロ,0
746,4010601065593,新規,0,2024-07-24,2024-07-24,ＥＦ株式会社,,株式会社,東京都,江東区,木場５丁目１番５号メイプルハイム木場Ｂ１２３号室,,13,108,1350042,,,,,,,2024-07-24,1,,,,,イーエフ,0
747,4010603010977,新規,0,2024-07-24,2024-07-24,カエデ合同会社,,合同会社,東京都,墨田区,立川２丁目５番４－３０１号,,13,107,1300023,,,,,,,2024-07-24,1,,,,,カエデ,0
752,4010901055625,新規,0,2024-07-24,2024-07-24,ＳＯＤＡ　Ｃｏｎｓｕｌｔｉｎｇ株式会社,,株式会社,東京都,世田谷区,代田２丁目７番１７号,,13,112,1550033,,,,,,,2024-07-24,1,,,,,ソーダコンサルティング,0
753,4010903009232,新規,0,2024-07-24,2024-07-24,合同会社ＴＢＩ,,合同会社,東京都,世田谷区,桜上水５丁目２番８号,,13,112,1560045,,,,,,,2024-07-24,1,,,,,ティービーアイ,0
759,4011003019626,新規,0,2024-07-24,2024-07-24,合同会社Ｍ　Ｐｒｏｊｅｃｔ,,合同会社,東京都,渋谷区,道玄坂１丁目１０番８号渋谷道玄坂東急ビル２Ｆ－Ｃ,,13,113,1500043,,,,,,,2024-07-24,1,,,,,エムプロジェクト,0
760,4011101108082,新規,0,2024-07-24,2024-07-24,株式会社ＳＥ‐ＷＯＲＫＳ,,株式会社,東京都,新宿区,新宿２丁目１６番８号,,13,104,1600022,,,,,,,2024-07-24,1,,,,,エスイーワークス,0
761,4011101108124,新規,0,2024-07-24,2024-07-24,株式会社ゴールデンボーイ．ｊｒ,,株式会社,東京都,新宿区,西落合１丁目２９番１１号,,13,104,1610031,,,,,,,2024-07-24,1,,,,,ゴールデンボーイジュニア,0
771,4011801044569,新規,0,2024-07-24,2024-07-24,株式会社Ｊ’ｓ,,株式会社,東京都,足立区,西新井２丁目７番８号,,13,121,1230841,,,,,,,2024-07-24,1,,,,,ジェイズ,0
772,4011801044577,新規,0,2024-07-24,2024-07-24,株式会社ななつぼし,,株式会社,東京都,足立区,綾瀬１丁目３３番１４号,,13,121,1200005,,,,,,,2024-07-24,1,,,,,ナナツボシ,0
781,4012803003463,新規,0,2024-07-24,2024-07-24,合同会社ＲＣ２,,合同会社,東京都,立川市,高松町３丁目１３番１２号エクセルＫ４０１,,13,202,1900011,,,,,,,2024-07-24,1,,,,,アールシーツー,0
785,4013303007236,新規,0,2024-07-24,2024-07-24,ヒューレフト合同会社,,合同会社,東京都,豊島区,東池袋４丁目３番１５号,,13,116,1700013,,,,,,,2024-07-24,1,,,,,ヒューレフト,0
789,4020005016481,新規,0,2024-07-24,2024-07-24,一般社団法人ＡＴＴＡＭＡＬＡＴＴＥ,,その他の設立登記法人,神奈川県,川崎市幸区,塚越１丁目１０８番地,,14,132,2120024,,,,,,,2024-07-24,1,,,,,アッタマラッテ,0
791,4021001082798,新規,0,2024-07-24,2024-07-24,株式会社ＵｎｉＨａｃｋ,,株式会社,神奈川県,相模原市中央区,富士見６丁目１５番地１０,,14,152,2520236,,,,,,,2024-07-24,1,,,,,ユニハック,0
801,4030001161545,新規,0,2024-07-24,2024-07-24,株式会社ＨＭＳ,,株式会社,埼玉県,児玉郡上里町,大字堤４９２番地１,,11,385,3690313,,,,,,,2024-07-24,1,,,,,エイチエムエス,0
810,4040003025482,新規,0,2024-07-24,2024-07-24,合同会社コンテナクリエイションズ,,合同会社,千葉県,富里市,七栄６４６番地４５０,,12,233,2860221,,,,,,,2024-07-24,1,,,,,コンテナクリエイションズ,0
814,4060005010233,新規,0,2024-07-24,2024-07-24,一般社団法人住友ミュージアム協会,,その他の設立登記法人,栃木県,矢板市,下伊佐野９７６番地４,,09,211,3292502,,,,,,,2024-07-24,1,,,,,スミトモミュージアムキョウカイ,0
818,4080003003261,新規,0,2024-07-24,2024-07-24,合同会社うむ,,合同会社,静岡県,藤枝市,滝沢４０７６番地,,22,214,4260134,,,,,,,2024-07-24,1,,,,,ウム,0
822,4080403005064,新規,0,2024-07-24,2024-07-24,合同会社バイツマチ,,合同会社,静岡県,浜松市中央区,遠州浜３丁目３６番１９号,,22,138,4300835,,,,,,,2024-07-24,1,,,,,バイツマチ,0
831,4110001038586,新規,0,2024-07-24,2024-07-24,株式会社ＫＩＭ,,株式会社,新潟県,新潟市西区,真砂１丁目１２番９号,,15,107,9502074,,,,,,,2024-07-24,1,,,,,ケーアイエム,0
844,4120001266938,新規,0,2024-07-24,2024-07-24,株式会社大真トランスポート,,株式会社,大阪府,守口市,寺内町１丁目６番６号,,27,209,5700056,,,,,,,2024-07-24,1,,,,,ダイシントランスポート,0
845,4120001267036,新規,0,2024-07-24,2024-07-24,ＰａｔｒｉｃｋＲｉｃｈ株式会社,,株式会社,大阪府,大阪市中央区,谷町７丁目３番４－４０８号,,27,128,5420012,,,,,,,2024-07-24,1,,,,,パトリックリッチ,0
846,4120001267060,新規,0,2024-07-24,2024-07-24,ＡＱＵＡＭＡＲＩＮＥ株式会社,,株式会社,大阪府,大阪市中央区,上町１丁目２５－２,,27,128,5400005,,,,,,,2024-07-24,1,,,,,アクアマリン,0
850,4120003027099,新規,0,2024-07-24,2024-07-24,ＴＫ　Ｆｉｎａｎｃｅ合同会社,,合同会社,大阪府,大阪市北区,梅田１丁目２番２号大阪駅前第２ビル１２－１２,,27,127,5300001,,,,,,,2024-07-24,1,,,,,ティーケーファイナンス,0
851,4120003027116,新規,0,2024-07-24,2024-07-24,美和貿易合同会社,,合同会社,大阪府,大阪市浪速区,恵美須西１丁目４－２３－３０５,,27,111,5560003,,,,,,,2024-07-24,1,,,,,ミワボウエキ,0
852,4120005024433,新規,0,2024-07-24,2024-07-24,日本の未来協同組合,,その他の設立登記法人,大阪府,大阪市東住吉区,北田辺５丁目９番２４号朝日プラザ北田辺１０３号,,27,121,5460044,,,,,,,2024-07-24,1,,,,,ニホンノミライ,0
856,4120101070026,新規,0,2024-07-24,2024-07-24,株式会社Ｏｆｆｉｃｅ　Ｋａｓｕｇａ,,株式会社,大阪府,河内長野市,南花台４丁目１７番１５号,,27,216,5860077,,,,,,,2024-07-24,1,,,,,オフィスカスガ,0
873,4130001077491,新規,0,2024-07-24,2024-07-24,株式会社Ｊｕｓｔ　ｒｉｇｈｔ,,株式会社,京都府,亀岡市,吉川町吉田越田３６番地,,26,206,6210015,,,,,,,2024-07-24,1,,,,,ジャストライト,0
874,4130001077533,新規,0,2024-07-24,2024-07-24,株式会社成戸総設,,株式会社,京都府,京都市山科区,上花山坂尻１０７番地５４,,26,110,6078465,,,,,,,2024-07-24,1,,,,,セイトソウセツ,0
875,4130003009716,新規,0,2024-07-24,2024-07-24,合同会社ミーシャ,,合同会社,京都府,京都市山科区,西野様子見町１番地２、２棟１０６２,,26,110,6078342,,,,,,,2024-07-24,1,,,,,ミーシャ,0
882,4140001135208,新規,0,2024-07-24,2024-07-24,株式会社ＡＷＥ,,株式会社,兵庫県,姫路市,増位新町１丁目２４番地ミラキタシティ姫路１００６,,28,201,6700806,,,,,,,2024-07-24,1,,,,,エーダブリューイー,0
886,4140003020853,新規,0,2024-07-24,2024-07-24,合同会社扇嘉,,合同会社,兵庫県,神戸市北区,杉尾台１丁目１７番地の１９,,28,109,6511146,,,,,,,2024-07-24,1,,,,,ミヨシ,0
888,4160001026082,新規,0,2024-07-24,2024-07-24,株式会社ＲＶＩＳＩＯＮ　Ｔｅｃｈｎｏｌｏｇｙ,,株式会社,滋賀県,彦根市,野瀬町９３番地１２,,25,202,5220055,,,,,,,2024-07-24,1,,,,,リヴィジョンテクノロジィ,0
889,4160001026090,新規,0,2024-07-24,2024-07-24,株式会社秀栄工務店,,株式会社,滋賀県,彦根市,中央町４－２清水ビル１階,,25,202,5220063,,,,,,,2024-07-24,1,,,,,シュウエイコウムテン,0
892,4180001162396,新規,0,2024-07-24,2024-07-24,株式会社ＬＩＦＥ　ＦＲＡＭＥ　ＶＩＳＩＯＮ,,株式会社,愛知県,名古屋市中区,丸の内２丁目１９番３２号,,23,106,4600002,,,,,,,2024-07-24,1,,,,,ライフフレームビジョン,0
893,4180001162512,新規,0,2024-07-24,2024-07-24,エッジ・エンジニアリング株式会社,,株式会社,愛知県,稲沢市,西町３丁目１４番３３号アーバン・ミニオン２０２,,23,220,4928218,,,,,,,2024-07-24,1,,,,,エッジエンジニアリング,0
897,4180003027102,新規,0,2024-07-24,2024-07-24,コトベース合同会社,,合同会社,愛知県,常滑市,新田町３丁目８５番地,,23,216,4790855,,,,,,,2024-07-24,1,,,,,コトベース,0
898,4180005020699,新規,0,2024-07-24,2024-07-24,特定非営利活動法人Ａｎｇｅｌ　Ｓｔａｒｗａｙ,,その他の設立登記法人,愛知県,名古屋市天白区,表山１丁目１７２７番地プラウド八事４１０号,,23,116,4680069,,,,,,,2024-07-24,1,,,,,エンジェルスターウェイ,0
900,4180301038874,新規,0,2024-07-24,2024-07-24,株式会社嘉誠貿易,,株式会社,愛知県,豊橋市,中原町字中島７番地１,,23,201,4413106,,,,,,,2024-07-24,1,,,,,カセボウエキ,0
902,4180303006202,新規,0,2024-07-24,2024-07-24,田島商會合同会社,,合同会社,愛知県,刈谷市,一ツ木町若宮６番地１,,23,210,4480003,,,,,,,2024-07-24,1,,,,,タジマショウカイ,0
904,4200001042728,新規,0,2024-07-24,2024-07-24,株式会社河田,,株式会社,岐阜県,加茂郡富加町,羽生１４２８番地２,,21,502,5013303,,,,,,,2024-07-24,1,,,,,カワダ,0
907,4240003006776,新規,0,2024-07-24,2024-07-24,Ｒｅｉ合同会社,,合同会社,広島県,広島市安佐南区,長束西４丁目２３番７－２０２号Ｃ棟,,34,105,7310136,,,,,,,2024-07-24,1,,,,,レイ,0
914,4290001106383,新規,0,2024-07-24,2024-07-24,株式会社サニックスホームビルドサービス,,株式会社,福岡県,福岡市博多区,博多駅東２丁目１番２３号,,40,132,8120013,,,,,,,2024-07-24,1,,,,,サニックスホームビルドサービス,0
915,4290001106482,新規,0,2024-07-24,2024-07-24,株式会社ＰｈｏＰｉｃ,,株式会社,福岡県,大川市,大字下林３９３番地２,,40,212,8310002,,,,,,,2024-07-24,1,,,,,フォピック,0
916,4290001106524,新規,0,2024-07-24,2024-07-24,株式会社ＴＹＣ管理,,株式会社,福岡県,糟屋郡久山町,大字猪野９５５番地２,,40,348,8112503,,,,,,,2024-07-24,1,,,,,ティーワイシーカンリ,0
917,4290001106598,新規,0,2024-07-24,2024-07-24,株式会社Ｂｅ　Ｒｉｎｇ,,株式会社,福岡県,福岡市博多区,大字板付８６８番地２,,40,132,8120888,,,,,,,2024-07-24,1,,,,,ビーリング,0
918,4290003015582,新規,0,2024-07-24,2024-07-24,合同会社ＬＵＡＮＡ　ＷＯＲＫＥＲＳ,,合同会社,福岡県,みやま市,瀬高町長田４２９８番地,,40,229,8350007,,,,,,,2024-07-24,1,,,,,ルアナワーカーズ,0
920,4290801030717,新規,0,2024-07-24,2024-07-24,株式会社グラケン,,株式会社,福岡県,京都郡苅田町,大字鋤崎４８９番地１,,40,621,8000332,,,,,,,2024-07-24,1,,,,,グラケン,0
930,4360001033967,新規,0,2024-07-24,2024-07-24,株式会社サクラ,,株式会社,沖縄県,宜野湾市,神山１丁目３番７号２Ｆ,,47,205,9012207,,,,,,,2024-07-24,1,,,,,サクラ,0
931,4370001051539,新規,0,2024-07-24,2024-07-24,株式会社Ｊ‐ｂｏｘ,,株式会社,宮城県,亘理郡亘理町,字龍円寺前１１３番地１,,04,361,9892361,,,,,,,2024-07-24,1,,,,,ジェイボックス,0
932,4370001051547,新規,0,2024-07-24,2024-07-24,キュリオリティ株式会社,,株式会社,宮城県,仙台市青葉区,霊屋下１番１号アカデメイアおたまや３０４,,04,101,9800814,,,,,,,2024-07-24,1,,,,,キュリオリティ,0
935,4370003006689,新規,0,2024-07-24,2024-07-24,ハイブリッド合同会社,,合同会社,宮城県,石巻市,大瓜字小福地１３番地,,04,202,9860005,,,,,,,2024-07-24,1,,,,,ハイブリッド,0
942,4380001034682,新規,0,2024-07-24,2024-07-24,株式会社Ａ＆ＴＫ　Ｉｎｔｅｒｎａｔｉｏｎａｌ,,株式会社,福島県,郡山市,緑町９番１２号,,07,203,9638023,,,,,,,2024-07-24,1,,,,,エーアンドティーケーインターナショナル,0
954,4430001092213,新規,0,2024-07-24,2024-07-24,雪国メディアソリューションズ株式会社,,株式会社,北海道,小樽市,緑１丁目６番８号－１０１号,,01,203,0470034,,,,,,,2024-07-24,1,,,,,ユキグニメディアソリューションズ,0
955,4430001092312,新規,0,2024-07-24,2024-07-24,株式会社雄英,,株式会社,北海道,札幌市中央区,南八条西１丁目５－４Ｒｉｔｚ　ｇｒａｎｄｅ中島公園４０５,,01,101,0640808,,,,,,,2024-07-24,1,,,,,ユウエイ,0
960,4450001014363,新規,0,2024-07-24,2024-07-24,阿部機械工業株式会社,,株式会社,北海道,留萌市,大和田３丁目２２６番３,,01,212,0770012,,,,,,,2024-07-24,1,,,,,アベキカイコウギョウ,0
962,4700150126537,新規,0,2024-07-24,2024-07-24,Ｓｈｅｎｚｈｅｎ　Ｌｉｎｋｏ　Ｅｌｅｃｔｒｉｃ　Ｃｏ．，Ｌｔｄ,,外国会社等,,,,,,,,Ｂａｏａｎ　Ｆｕｈａｉ　Ｓｔｒｅｅｔ　Ｚｈａｎｃｈｅｎｇ　Ｃｏｍｍｕｎｉｔｙ　Ｈｉ－ｔｅｃｈ　Ｐａｒｋ　Ｈｅｊｉｎｇ　Ｉｎｄｕｓｔｒｉａｌ　Ｐａｒｋ，Ｂｕｉｌｄｉｎｇ　Ｈ，１／２／３／４Ｆ　１０１　Ｓｈｅｎｚｈｅｎ　Ｇｕａｎｇｄｏｎｇ，Ｃｈｉｎａ,,,,,,2024-07-24,1,,,,,シンセンリンコウイレクトゥリックカンパニーリミテッド,0
967,5010001246710,新規,0,2024-07-24,2024-07-24,Ｓ＆Ｂ　ＣＯＲＰＯＲＡＴＩＯＮ株式会社,,株式会社,東京都,千代田区,西神田２丁目１番１２号梅澤ビル２階,,13,101,1010065,,,,,,,2024-07-24,1,,,,,エスアンドビーコーポレーション,0
968,5010001246735,新規,0,2024-07-24,2024-07-24,株式会社リュンヌドー,,株式会社,東京都,文京区,本郷１丁目３５番２４－９０２号,,13,105,1130033,,,,,,,2024-07-24,1,,,,,リュンヌドー,0
969,5010001246751,新規,0,2024-07-24,2024-07-24,株式会社Ｅｎｇｉｎｅｅｒ　Ｌｉｆｅ,,株式会社,東京都,中央区,銀座１丁目１２番４号Ｎ＆ＥＢＬＤ．６Ｆ,,13,102,1040061,,,,,,,2024-07-24,1,,,,,エンジニアライフ,0
970,5010001246784,新規,0,2024-07-24,2024-07-24,株式会社ｍａｒｎｉｑＵｅ,,株式会社,東京都,中央区,勝どき６丁目３番２－５０１号,,13,102,1040054,,,,,,,2024-07-24,1,,,,,マルニーク,0
971,5010001246842,新規,0,2024-07-24,2024-07-24,Ｍｒｓ．Ｂｉｏ株式会社,,株式会社,東京都,中央区,銀座１丁目３番３号Ｇ１ビル７階,,13,102,1040061,,,,,,,2024-07-24,1,,,,,ミセスバイオ,0
972,5010003044377,新規,0,2024-07-24,2024-07-24,合同会社ＥＳＳマネジメント,,合同会社,東京都,中央区,日本橋茅場町１丁目１１番７号大成ビル５階,,13,102,1030025,,,,,,,2024-07-24,1,,,,,イーエスエスマネジメント,0
973,5010003044385,新規,0,2024-07-24,2024-07-24,合同会社Ｌｙｄｉａｎ,,合同会社,東京都,中央区,銀座１丁目１２番４号Ｎ＆ＥＢＬＤ．６Ｆ,,13,102,1040061,,,,,,,2024-07-24,1,,,,,リディアン,0
974,5010005038575,新規,0,2024-07-24,2024-07-24,一般社団法人ＥＭＰ１,,その他の設立登記法人,東京都,千代田区,丸の内３丁目１番１号東京共同会計事務所内,,13,101,1000005,,,,,,,2024-07-24,1,,,,,イーエムピーワン,0
975,5010101016237,新規,0,2024-07-24,2024-07-24,株式会社スマートリンク,,株式会社,東京都,八王子市,追分町７－１４シオン八王子４０５,,13,201,1920056,,,,,,,2024-07-24,1,,,,,,0
981,5010401183561,新規,0,2024-07-24,2024-07-24,株式会社ＴＶｅｒ　ＤＡＴＡ　ＭＡＲＫＥＴＩＮＧ,,株式会社,東京都,港区,新橋２丁目１９番１０号,,13,103,1050004,,,,,,,2024-07-24,1,,,,,ティーバーデータマーケティング,0
983,5010401183966,新規,0,2024-07-24,2024-07-24,株式会社Ｒｅｖｅ,,株式会社,東京都,港区,白金１丁目１番８－３０２号,,13,103,1080072,,,,,,,2024-07-24,1,,,,,レーヴ,0
984,5010401183974,新規,0,2024-07-24,2024-07-24,株式会社ＨＸ　Ｇｒｏｕｐ,,株式会社,東京都,港区,赤坂９丁目７番１号ミッドタウン・タワー３７階,,13,103,1070052,,,,,,,2024-07-24,1,,,,,エイチエックスグループ,0
985,5010401183982,新規,0,2024-07-24,2024-07-24,株式会社ＯＴ３,,株式会社,東京都,港区,六本木３丁目１５番１１号,,13,103,1060032,,,,,,,2024-07-24,1,,,,,オーティースリー,0
987,5010403033087,新規,0,2024-07-24,2024-07-24,ＬＳ‐ＤＡＬ第１５号合同会社,,合同会社,東京都,港区,六本木１丁目６番１号,,13,103,1060032,,,,,,,2024-07-24,1,,,,,エルエスディーエーエルダイジュウゴゴウ,0
988,5010403033104,新規,0,2024-07-24,2024-07-24,合同会社ライオンステージ,,合同会社,東京都,港区,港南２丁目１５番１号品川インターシティＡ棟２８階,,13,103,1080075,,,,,,,2024-07-24,1,,,,,ライオンステージ,0
992,5010603010976,新規,0,2024-07-24,2024-07-24,エナジーブリッジ合同会社,,合同会社,東京都,江東区,有明３丁目７番２６号有明フロンティアビルＢ棟９階,,13,108,1350063,,,,,,,2024-07-24,1,,,,,エナジーブリッジ,0
998,5010805003118,新規,0,2024-07-24,2024-07-24,一般社団法人空港グランドハンドリング協会,,その他の設立登記法人,東京都,大田区,羽田空港３丁目３番２号,,13,111,1440041,,,,,,,2024-07-24,1,,,,,クウコウグランドハンドリングキョウカイ,0
1002,5010901055681,新規,0,2024-07-24,2024-07-24,Ｃｈａｐｏｓ株式会社,,株式会社,東京都,世田谷区,南烏山３丁目１番１２号,,13,112,1570062,,,,,,,2024-07-24,1,,,,,チャポス,0
1004,5010903009231,新規,0,2024-07-24,2024-07-24,合同会社ＡＩ　ＣＡＴＳ,,合同会社,東京都,世田谷区,代田１丁目２番１２号,,13,112,1550033,,,,,,,2024-07-24,1,,,,,エーアイキャッツ,0
1007,5011001163581,新規,0,2024-07-24,2024-07-24,ＳＥＥＤ株式会社,,株式会社,東京都,渋谷区,道玄坂１丁目１０番８号渋谷道玄坂東急ビル２Ｆ－Ｃ,,13,113,1500043,,,,,,,2024-07-24,1,,,,,シード,0
1012,5011003019658,新規,0,2024-07-24,2024-07-24,合同会社ＹＫＨインベストメント,,合同会社,東京都,目黒区,南２丁目１０番１３号,,13,110,1520013,,,,,,,2024-07-24,1,,,,,ワイケーエイチインベストメント,0
1017,5011403004433,新規,0,2024-07-24,2024-07-24,合同会社ベルサラ,,合同会社,東京都,板橋区,新河岸１丁目２４－２４,,13,119,1750081,,,,,,,2024-07-24,1,,,,,ベルサラ,0
1019,5011501030959,新規,0,2024-07-24,2024-07-24,金千住株式会社,,株式会社,東京都,荒川区,西日暮里６丁目～１３～１２フジメゾン西日暮里４０３号室,,13,118,1160013,,,,,,,2024-07-24,1,,,,,キンセンジュ,0
1025,5011701027466,新規,0,2024-07-24,2024-07-24,株式会社ＭＩＹＡＢＩ,,株式会社,東京都,江戸川区,西葛西６丁目５番１号コーポアイダ３０１,,13,123,1340088,,,,,,,2024-07-24,1,,,,,ミヤビ,0
1027,5011803006351,新規,0,2024-07-24,2024-07-24,合同会社みらい,,合同会社,東京都,足立区,竹の塚１丁目３２番３号庄和ビル３０３,,13,121,1210813,,,,,,,2024-07-24,1,,,,,ミライ,0
1030,5012701018372,新規,0,2024-07-24,2024-07-24,株式会社ＳＡＷＡ,,株式会社,東京都,小平市,仲町６７０番地の１５,,13,211,1870042,,,,,,,2024-07-24,1,,,,,サワ,0
1035,5013301052869,新規,0,2024-07-24,2024-07-24,株式会社クリージメント・コンサルティング,,株式会社,東京都,豊島区,西池袋１丁目１１－１メトロポリタンプラザビル１４Ｆ,,13,116,1710021,,,,,,,2024-07-24,1,,,,,クリージメントコンサルティング,0
1036,5013305003620,新規,0,2024-07-24,2024-07-24,一般社団法人在日上海ゴルフ協会,,その他の設立登記法人,東京都,豊島区,池袋４丁目２５番５号アルスビル２階,,13,116,1710014,,,,,,,2024-07-24,1,,,,,ザイニチシャンハイゴルフキョウカイ,0
1042,5021001082797,新規,0,2024-07-24,2024-07-24,株式会社スポーツライズ,,株式会社,神奈川県,鎌倉市,由比ガ浜２丁目２３－２８－５０７,,14,204,2480014,,,,,,,2024-07-24,1,,,,,スポーツライズ,0
1044,5021003014773,新規,0,2024-07-24,2024-07-24,合同会社ＡｃｔｉｖｅＬｅｐ,,合同会社,神奈川県,茅ヶ崎市,中海岸４丁目２－２６－３,,14,207,2530055,,,,,,,2024-07-24,1,,,,,アクティブレップ,0
1045,5021003014798,新規,0,2024-07-24,2024-07-24,ＳＯＮ合同会社,,合同会社,神奈川県,海老名市,東柏ケ谷２丁目２１番３９号コーポジュネス１０６号,,14,215,2430401,,,,,,,2024-07-24,1,,,,,エスオーエヌ,0
1051,5030001161577,新規,0,2024-07-24,2024-07-24,株式会社ＴＦｃｏｍｐａｎｙ,,株式会社,埼玉県,八潮市,中央２丁目２０番１９号グランシャトーけやき１０１,,11,234,3400816,,,,,,,2024-07-24,1,,,,,ティーエフカンパニー,0
1056,5030003024765,新規,0,2024-07-24,2024-07-24,合同会社マネび,,合同会社,埼玉県,坂戸市,大字北峰６－１,,11,239,3500258,,,,,,,2024-07-24,1,,,,,マネビ,0
1058,5030005021777,新規,0,2024-07-24,2024-07-24,一般社団法人Ｉｎｔｅｒｎｅｔ　Ｓｏｃｉｅｔｙ　Ｊａｐａｎ　Ｃｈａｐｔｅｒ,,その他の設立登記法人,埼玉県,さいたま市大宮区,天沼町２丁目１８８番地,,11,103,3300834,,,,,,,2024-07-24,1,,,,,インターネットソサエティジャパンチャプター,0
1072,5050001055125,新規,0,2024-07-24,2024-07-24,株式会社茨城水工サービス,,株式会社,茨城県,水戸市,堀町１１０８番地８,,08,201,3100903,,,,,,,2024-07-24,1,,,,,イバラキスイコウサービス,0
1074,5060001037329,新規,0,2024-07-24,2024-07-24,株式会社ＦＯＲＥＳＴ　ＬＩＦＥ,,株式会社,栃木県,宇都宮市,西２丁目２番２４号,,09,201,3200861,,,,,,,2024-07-24,1,,,,,フォレストライフ,0
1080,5100001037662,新規,0,2024-07-24,2024-07-24,株式会社わたなべ,,株式会社,長野県,佐久市,内山３３９番地６,,20,217,3850031,,,,,,,2024-07-24,1,,,,,ワタナベ,0
1083,5110001038585,新規,0,2024-07-24,2024-07-24,株式会社中野工業,,株式会社,新潟県,新潟市秋葉区,車場４丁目１６番６号,,15,105,9560011,,,,,,,2024-07-24,1,,,,,ナカノコウギョウ,0
1097,5120001266862,新規,0,2024-07-24,2024-07-24,株式会社ビューティタマイ,,株式会社,大阪府,守口市,河原町１－１コンコース２Ｆ,,27,209,5700038,,,,,,,2024-07-24,1,,,,,ビューティタマイ,0
1098,5120001266929,新規,0,2024-07-24,2024-07-24,ウェイエル生化株式会社,,株式会社,大阪府,大阪市中央区,安堂寺町２丁目３番５号第１８松屋ビル１２１０号,,27,128,5420061,,,,,,,2024-07-24,1,,,,,ウェイエルセイカ,0
1099,5120001266961,新規,0,2024-07-24,2024-07-24,株式会社ワイズ,,株式会社,大阪府,大阪市東淀川区,下新庄５丁目２番１５号,,27,114,5330021,,,,,,,2024-07-24,1,,,,,ワイズ,0
1100,5120001266986,新規,0,2024-07-24,2024-07-24,旭日株式会社,,株式会社,大阪府,大阪市中央区,船場中央２丁目２番５号船場センタービル５号館地下一階Ｂ１２９,,27,128,5410055,,,,,,,2024-07-24,1,,,,,キョクジツ,0
1101,5120001267002,新規,0,2024-07-24,2024-07-24,ＸＹ株式会社,,株式会社,大阪府,大阪市北区,西天満２丁目６番８号堂島ビルヂング６Ｆ新東京国際リーガル内,,27,127,5300047,,,,,,,2024-07-24,1,,,,,エクスワイ,0
1102,5120001267027,新規,0,2024-07-24,2024-07-24,ＡＭＯＲＥＳＹ株式会社,,株式会社,大阪府,寝屋川市,木田元宮２丁目８番１号,,27,215,5720822,,,,,,,2024-07-24,1,,,,,アモレシー,0
1103,5120001267051,新規,0,2024-07-24,2024-07-24,新峰株式会社,,株式会社,大阪府,大阪市西成区,天下茶屋東２丁目１３－１１,,27,122,5570011,,,,,,,2024-07-24,1,,,,,シンホウ,0
1104,5120001267068,新規,0,2024-07-24,2024-07-24,株式会社和商通,,株式会社,大阪府,大阪市東成区,東中本３丁目２０番２２号関西マンション１０４号室,,27,115,5370021,,,,,,,2024-07-24,1,,,,,ワショウツウ,0
1105,5120001267076,新規,0,2024-07-24,2024-07-24,株式会社ＨＭコンサルティングパートナーズ,,株式会社,大阪府,寝屋川市,高柳１丁目５番７号,,27,215,5720051,,,,,,,2024-07-24,1,,,,,エイチエムコンサルティングパートナーズ,0
1107,5120003027107,新規,0,2024-07-24,2024-07-24,合同会社世陽会,,合同会社,大阪府,大阪市北区,梅田１丁目２番２号大阪駅前第２ビル,,27,127,5300001,,,,,,,2024-07-24,1,,,,,セイヨウカイ,0
1108,5120003027115,新規,0,2024-07-24,2024-07-24,廣瀬商店合同会社,,合同会社,大阪府,枚方市,南中振１丁目１番２８号,,27,210,5730094,,,,,,,2024-07-24,1,,,,,ヒロセショウテン,0
1109,5120005024449,新規,0,2024-07-24,2024-07-24,アストロン社会保険労務士法人,,その他の設立登記法人,大阪府,大阪市中央区,南船場２丁目２番７号２階,,27,128,5420081,,,,,,,2024-07-24,1,,,,,アストロン,0
1120,5130001077524,新規,0,2024-07-24,2024-07-24,株式会社ＨＡＭ,,株式会社,京都府,京都市下京区,市之町西木屋町通松原上る三丁目２５２－３,,26,106,6008018,,,,,,,2024-07-24,1,,,,,エイチエーエム,0
1126,5140001135173,新規,0,2024-07-24,2024-07-24,株式会社恵園居,,株式会社,兵庫県,神戸市兵庫区,下三条町３－２０日ノ出ビル１Ｆ,,28,105,6520014,,,,,,,2024-07-24,1,,,,,ケイエンキョ,0
1127,5140001135181,新規,0,2024-07-24,2024-07-24,株式会社ＯＺＩＺＯ,,株式会社,兵庫県,神戸市長田区,松野通１丁目１０番１３号,,28,106,6530841,,,,,,,2024-07-24,1,,,,,オジゾ,0
1128,5140001135223,新規,0,2024-07-24,2024-07-24,株式会社ｅＸｍａｒｋｓ,,株式会社,兵庫県,丹波市,氷上町下新庄１９１番地１４,,28,223,6693614,,,,,,,2024-07-24,1,,,,,エクマークス,0
1129,5140001135231,新規,0,2024-07-24,2024-07-24,株式会社ＴＲ＆Ａ,,株式会社,兵庫県,神戸市中央区,加納町２丁目１３番１０－８０６号,,28,110,6500001,,,,,,,2024-07-24,1,,,,,ティーアールアンドエー,0
1131,5140003020844,新規,0,2024-07-24,2024-07-24,合同会社ＡＬＬＫＡ,,合同会社,兵庫県,神戸市長田区,二葉町６丁目７－１－６０２,,28,106,6530042,,,,,,,2024-07-24,1,,,,,オルカ,0
1132,5140003020860,新規,0,2024-07-24,2024-07-24,合同会社ＨＡＷＫ,,合同会社,兵庫県,尼崎市,富松町２丁目１９番２４－３０２号,,28,202,6610003,,,,,,,2024-07-24,1,,,,,ホーク,0
1147,5180301038873,新規,0,2024-07-24,2024-07-24,株式会社木本モータース,,株式会社,愛知県,刈谷市,東境町登り坂１番地１,,23,210,4480007,,,,,,,2024-07-24,1,,,,,キモトモータース,0
1149,5190001031509,新規,0,2024-07-24,2024-07-24,株式会社Ｌｉｅｎ,,株式会社,三重県,松阪市,下村町１０４５番地５,,24,204,5150043,,,,,,,2024-07-24,1,,,,,リアン,0
1151,5200003006440,新規,0,2024-07-24,2024-07-24,Ｄｒｅａｍｓ　Ｃｒｅａｔｅ　Ｇａｒａｇｅ合同会社,,合同会社,岐阜県,加茂郡坂祝町,黒岩字北ノ前９０１番２号,,21,501,5050071,,,,,,,2024-07-24,1,,,,,ドリームスクリエイトガレージ,0
1154,5220003003799,新規,0,2024-07-24,2024-07-24,合同会社レモン薬局,,合同会社,石川県,小松市,安宅町甲２０番地,,17,203,9230003,,,,,,,2024-07-24,1,,,,,レモンヤッキョク,0
1173,5290001106424,新規,0,2024-07-24,2024-07-24,株式会社庭ランド,,株式会社,福岡県,糟屋郡宇美町,神武原２丁目６番３７号,,40,341,8112129,,,,,,,2024-07-24,1,,,,,ニワランド,0
1175,5290003015557,新規,0,2024-07-24,2024-07-24,グロース合同会社,,合同会社,福岡県,福岡市中央区,小笹５丁目１０番１１－２０６号,,40,133,8100033,,,,,,,2024-07-24,1,,,,,グロース,0
1179,5290801030716,新規,0,2024-07-24,2024-07-24,株式会社吉留建設,,株式会社,福岡県,京都郡みやこ町,綾野１２７番地１,,40,625,8240104,,,,,,,2024-07-24,1,,,,,ヨシトメケンセツ,0
1192,5370001051538,新規,0,2024-07-24,2024-07-24,株式会社タニック,,株式会社,宮城県,仙台市宮城野区,燕沢東１丁目７番１２号,,04,102,9830822,,,,,,,2024-07-24,1,,,,,タニック,0
1193,5370001051546,新規,0,2024-07-24,2024-07-24,ユナイテッドランド株式会社,,株式会社,宮城県,仙台市青葉区,福沢町５番４３－５０４号,,04,101,9800002,,,,,,,2024-07-24,1,,,,,ユナイテッドランド,0
1194,5370003006688,新規,0,2024-07-24,2024-07-24,ＳＨＩＲＯＫＵＲＯ合同会社,,合同会社,宮城県,仙台市宮城野区,小田原１丁目１０－１－８１９,,04,102,9830803,,,,,,,2024-07-24,1,,,,,シロクロ,0
1202,5410001013888,新規,0,2024-07-24,2024-07-24,株式会社米処縁,,株式会社,秋田県,潟上市,飯田川下虻川字井戸沢２２番地,,05,211,0181502,,,,,,,2024-07-24,1,,,,,コメドコロユカリ,0
1207,5430001092311,新規,0,2024-07-24,2024-07-24,株式会社Ｍｅｒｒｉｓｃｅｎｔ,,株式会社,北海道,札幌市中央区,南二条西４丁目１６－６第２コンタクトオフビル５Ｆ,,01,101,0600062,,,,,,,2024-07-24,1,,,,,メリーセント,0
1210,5430003016581,新規,0,2024-07-24,2024-07-24,合同会社忍者の里,,合同会社,北海道,札幌市中央区,南一条西８丁目１１－４ブランジェミス６０１,,01,101,0600061,,,,,,,2024-07-24,1,,,,,ニンジャノサト,0
1215,5490001010820,新規,0,2024-07-24,2024-07-24,株式会社義鉄工業,,株式会社,高知県,高知市,愛宕山９０番地９０,,39,201,7800025,,,,,,,2024-07-24,1,,,,,ヨシテツコウギョウ,0
1218,5700150126536,新規,0,2024-07-24,2024-07-24,ＡｉＰｕＬｕＷａｎｇＬｕｏＫｅＪｉ（ＤａＬｉａｎ）ＹｏｕＸｉａｎＧｏｎｇＳｉ,,外国会社等,,,,,,,,ＤａＬｉａｎＢａｏＳｈｕｉＱｕＨａｉＨｅＬｕ１６－２Ｈａｏ５６９ＺｈｏｎｇＧｕｏ（ＬｉａｏＮｉｎｇ）ＺｉＹｏｕＭａｏＹｉＳｈｉＹａｎＱｕ　Ｃｈｉｎａ,,,,,,2024-07-24,1,,,,,アイプルワンロウカギダレンユウゲンコウシ,0
1230,6010001246734,新規,0,2024-07-24,2024-07-24,カミオン・アセット・マネジメント株式会社,,株式会社,東京都,千代田区,霞が関３丁目２番１号,,13,101,1000013,,,,,,,2024-07-24,1,,,,,カミオンアセットマネジメント,0
1231,6010001246742,新規,0,2024-07-24,2024-07-24,Ｆｅｌｏ株式会社,,株式会社,東京都,中央区,日本橋小伝馬町６番１２号３階,,13,102,1030001,,,,,,,2024-07-24,1,,,,,フェロー,0
1232,6010001246783,新規,0,2024-07-24,2024-07-24,株式会社メタゼン,,株式会社,東京都,千代田区,神田神保町１丁目２６番地ＣＫ１２６－４０２号,,13,101,1010051,,,,,,,2024-07-24,1,,,,,メタゼン,0
1233,6010001246791,新規,0,2024-07-24,2024-07-24,株式会社Ｉｍｐｅｒｉａｌ　Ｎａｔｉｏｎ,,株式会社,東京都,千代田区,神田和泉町１番地６－１６ヤマトビル４０５,,13,101,1010024,,,,,,,2024-07-24,1,,,,,インペリアルネイション,0
1234,6010001246841,新規,0,2024-07-24,2024-07-24,株式会社キクチ学園,,株式会社,東京都,千代田区,岩本町２丁目４番５号Ｒ１１０３,,13,101,1010032,,,,,,,2024-07-24,1,,,,,キクチガクエン,0
1235,6010003044384,新規,0,2024-07-24,2024-07-24,Ｅｄｎｎｏｖ合同会社,,合同会社,東京都,千代田区,神田神保町３丁目２１番７号みらいスタジオ,,13,101,1010051,,,,,,,2024-07-24,1,,,,,エドノヴ,0
1239,6010401183973,新規,0,2024-07-24,2024-07-24,Ｓｔｒｉｄｅｒ　Ｔｅｃｈｎｏｌｏｇｉｅｓ　Ｊａｐａｎ株式会社,,株式会社,東京都,港区,元麻布３丁目１番６号,,13,103,1060046,,,,,,,2024-07-24,1,,,,,ストライダーテクノロジーズジャパン,0
1240,6010401183981,新規,0,2024-07-24,2024-07-24,株式会社ＯＴ２,,株式会社,東京都,港区,六本木３丁目１５番１１号,,13,103,1060032,,,,,,,2024-07-24,1,,,,,オーティーツー,0
1241,6010401184006,新規,0,2024-07-24,2024-07-24,ＡＩＰコンサルティング株式会社,,株式会社,東京都,港区,南青山２丁目２番１５号ウィン青山９４２,,13,103,1070062,,,,,,,2024-07-24,1,,,,,エーアイピーコンサルティング,0
1242,6010401184014,新規,0,2024-07-24,2024-07-24,株式会社ＲａＦ　ＡＩＴ　Ａｇｅｎｃｙ,,株式会社,東京都,港区,南青山３丁目１番３６号青山丸竹ビル６階,,13,103,1070062,,,,,,,2024-07-24,1,,,,,ラフエイトエージェンシー,0
1243,6010403033094,新規,0,2024-07-24,2024-07-24,合同会社ＮＡＯ,,合同会社,東京都,港区,西麻布３丁目２３番１４－１０１号,,13,103,1060031,,,,,,,2024-07-24,1,,,,,ナオ,0
1244,6010403033103,新規,0,2024-07-24,2024-07-24,Ｃａｌｌｅｔ合同会社,,合同会社,東京都,港区,浜松町２丁目２番１５号浜松町ダイヤビル２Ｆ,,13,103,1050013,,,,,,,2024-07-24,1,,,,,キャレット,0
1245,6010405023390,新規,0,2024-07-24,2024-07-24,一般社団法人エネグローバルグリーンパワー２号,,その他の設立登記法人,東京都,港区,西新橋１丁目１８番１７号明産西新橋ビル３Ｆ,,13,103,1050003,,,,,,,2024-07-24,1,,,,,エネグローバルグリーンパワーニゴウ,0
1246,6010501052640,新規,0,2024-07-24,2024-07-24,ニューウェイ国際貿易株式会社,,株式会社,東京都,台東区,台東１丁目２４番９号ブライト秋葉原Ｂ１Ｆ,,13,106,1100016,,,,,,,2024-07-24,1,,,,,ニューウェイコクサイボウエキ,0
1252,6010601065583,新規,0,2024-07-24,2024-07-24,株式会社ビズル,,株式会社,東京都,江東区,亀戸３丁目１０番１７号,,13,108,1360071,,,,,,,2024-07-24,1,,,,,ビズル,0
1253,6010701046269,新規,0,2024-07-24,2024-07-24,株式会社ＴＯ　ＢＥ,,株式会社,東京都,品川区,東五反田１丁目１７－７大宗五反田ビル６０３,,13,109,1410022,,,,,,,2024-07-24,1,,,,,トゥービー,0
1254,6010703007252,新規,0,2024-07-24,2024-07-24,合同会社カンポースタンド,,合同会社,東京都,品川区,上大崎３丁目１４－１４－３０６,,13,109,1410021,,,,,,,2024-07-24,1,,,,,カンポースタンド,0
1259,6010901055697,新規,0,2024-07-24,2024-07-24,株式会社ｃｌｏｃｈｅ,,株式会社,東京都,世田谷区,太子堂１丁目１２番３８－３０７号,,13,112,1540004,,,,,,,2024-07-24,1,,,,,クローシュ,0
1262,6011001163473,新規,0,2024-07-24,2024-07-24,株式会社ＲＩＣＩＵＳ,,株式会社,東京都,目黒区,中目黒３丁目２１番１０号,,13,110,1530061,,,,,,,2024-07-24,1,,,,,リシアス,0
1263,6011001163507,新規,0,2024-07-24,2024-07-24,株式会社ＳＵＫＩＰＰＵ,,株式会社,東京都,渋谷区,恵比寿４丁目２０－４恵比寿ガーデンプレイスグラススクエアＢ１ＬＢ－４０,,13,113,1500013,,,,,,,2024-07-24,1,,,,,スキップ,0
1269,6011101108089,新規,0,2024-07-24,2024-07-24,株式会社インサイトログ,,株式会社,東京都,新宿区,新小川町４番１号,,13,104,1620814,,,,,,,2024-07-24,1,,,,,インサイトログ,0
1270,6011101108097,新規,0,2024-07-24,2024-07-24,株式会社Ａ＆Ａ,,株式会社,東京都,新宿区,下落合３丁目６番２９－２０１号,,13,104,1610033,,,,,,,2024-07-24,1,,,,,エーアンドエー,0
1274,6011301029853,新規,0,2024-07-24,2024-07-24,株式会社ｄａｒｅｔｏ,,株式会社,東京都,杉並区,上荻２丁目３９番２号,,13,115,1670043,,,,,,,2024-07-24,1,,,,,ダレト,0
1275,6011301029861,新規,0,2024-07-24,2024-07-24,株式会社ウィルトラスト,,株式会社,東京都,杉並区,高円寺北１丁目２１番５号高円寺Ｌｏｏｐ７４Ｆ－４,,13,115,1660002,,,,,,,2024-07-24,1,,,,,ウィルトラスト,0
1278,6011503006155,新規,0,2024-07-24,2024-07-24,合同会社オリエント商会,,合同会社,東京都,北区,豊島５丁目４番４－６０７号,,13,117,1140003,,,,,,,2024-07-24,1,,,,,オリエントショウカイ,0
1281,6011703003902,新規,0,2024-07-24,2024-07-24,合同会社リブレロジ,,合同会社,東京都,江戸川区,鹿骨２丁目４１－１２サンライズマンション１０３,,13,123,1330073,,,,,,,2024-07-24,1,,,,,リブレロジ,0
1286,6012401042119,新規,0,2024-07-24,2024-07-24,株式会社Ｍｙｕｇｇｅ,,株式会社,東京都,三鷹市,井の頭３丁目１４番地２８号,,13,204,1810001,,,,,,,2024-07-24,1,,,,,ミュッゲ,0
1288,6012405005022,新規,0,2024-07-24,2024-07-24,一般社団法人バリアフリー教養大学設立準備法人,,その他の設立登記法人,東京都,武蔵野市,境１丁目１６－３１ペガサスマンション１０２,,13,203,1800022,,,,,,,2024-07-24,1,,,,,バリアフリーキョウヨウダイガクセツリツジュンビホウジン,0
1289,6012701018371,新規,0,2024-07-24,2024-07-24,株式会社清五,,株式会社,東京都,西東京市,富士町３丁目９番４号,,13,229,2020014,,,,,,,2024-07-24,1,,,,,セイゴ,0
1292,6013301052868,新規,0,2024-07-24,2024-07-24,株式会社ＡｉＮａｃｏ,,株式会社,東京都,豊島区,西池袋４丁目２１番１４－４０４号,,13,116,1710021,,,,,,,2024-07-24,1,,,,,アイナコ,0
1304,6021003014715,新規,0,2024-07-24,2024-07-24,ｒｕｉアース合同会社,,合同会社,神奈川県,横須賀市,日の出町１丁目４番地１プレミアムレジデンス横須賀中央９１５,,14,201,2380006,,,,,,,2024-07-24,1,,,,,ルイアース,0
1305,6021003014814,新規,0,2024-07-24,2024-07-24,ＴＨＥ　ＷＨＥＥＬＳ　ＣＯＵＲＴ合同会社,,合同会社,神奈川県,厚木市,山際５０－３ファミーユ中丸１０３,,14,212,2430803,,,,,,,2024-07-24,1,,,,,ザホイールスコート,0
1313,6030001161576,新規,0,2024-07-24,2024-07-24,株式会社ＹＵＵＫＩＭＡＳＡＲＵ,,株式会社,埼玉県,本庄市,駅南１丁目３１２４番地２－２０２,,11,211,3670041,,,,,,,2024-07-24,1,,,,,ユウキマサル,0
1321,6040001134622,新規,0,2024-07-24,2024-07-24,株式会社スズショウ,,株式会社,千葉県,佐倉市,江原台１丁目１８番地１９,,12,212,2850825,,,,,,,2024-07-24,1,,,,,スズショウ,0
1322,6040001134663,新規,0,2024-07-24,2024-07-24,株式会社オオタ,,株式会社,千葉県,香取郡多古町,南玉造２１３９番地３,,12,347,2892325,,,,,,,2024-07-24,1,,,,,オオタ,0
1327,6040003025456,新規,0,2024-07-24,2024-07-24,北桑地所合同会社,,合同会社,千葉県,松戸市,北松戸３丁目８番地の９,,12,207,2710063,,,,,,,2024-07-24,1,,,,,ホクソウジショ,0
1328,6040003025464,新規,0,2024-07-24,2024-07-24,合同会社身土,,合同会社,千葉県,長生郡白子町,剃金２７２９番地６ダイアパレス白子第２－９１７,,12,424,2994203,,,,,,,2024-07-24,1,,,,,シンド,0
1330,6050001055132,新規,0,2024-07-24,2024-07-24,株式会社ワイクリーン,,株式会社,茨城県,稲敷郡美浦村,大字信太２８４５番地１３,,08,442,3000414,,,,,,,2024-07-24,1,,,,,ワイクリーン,0
1334,6060003005167,新規,0,2024-07-24,2024-07-24,合同会社Ｒｅｌａｔｅ,,合同会社,栃木県,宇都宮市,駒生町１０６１－１７,,09,201,3200065,,,,,,,2024-07-24,1,,,,,,0
1337,6080001026394,新規,0,2024-07-24,2024-07-24,株式会社ロックス,,株式会社,静岡県,静岡市葵区,東千代田３丁目６番２号ＭＪ東千代田ＩＩＩ１０１号,00135675,22,101,4200801,,,,,,,2024-07-24,1,,,,,ロックス,0
1339,6080401027323,新規,0,2024-07-24,2024-07-24,株式会社ＪＦＭ,,株式会社,静岡県,浜松市中央区,西山町２番地パリタＩＩ,00135681,22,138,4328001,,,,,,,2024-07-24,1,,,,,ジェーエフエム,0
1345,6110001038584,新規,0,2024-07-24,2024-07-24,株式会社ｅｓｔ,,株式会社,新潟県,新潟市秋葉区,北上新田１８７１番地１,,15,105,9560021,,,,,,,2024-07-24,1,,,,,エスト,0
1347,6110003005459,新規,0,2024-07-24,2024-07-24,合同会社ＴＫフーズ,,合同会社,新潟県,上越市,春日山町３丁目１２番４号,,15,222,9430807,,,,,,,2024-07-24,1,,,,,ティーケーフーズ,0
1356,6120001266985,新規,0,2024-07-24,2024-07-24,全愛株式会社,,株式会社,大阪府,大阪市東住吉区,照ケ丘矢田２丁目７番２号淘金ビルＥ号室,,27,121,5460021,,,,,,,2024-07-24,1,,,,,ゼンアイ,0
1357,6120001267001,新規,0,2024-07-24,2024-07-24,風和株式会社,,株式会社,大阪府,大阪市東成区,大今里南１丁目１８番７号大宝今里ロイヤルハイツ２０３号室,,27,115,5370013,,,,,,,2024-07-24,1,,,,,フウワ,0
1358,6120001267034,新規,0,2024-07-24,2024-07-24,玖玖株式会社,,株式会社,大阪府,大阪市旭区,赤川１丁目５番１３号天理マンション２０７,,27,117,5350005,,,,,,,2024-07-24,1,,,,,ジュウジュウ,0
1359,6120001267042,新規,0,2024-07-24,2024-07-24,株式会社ｐａｌｅｔｔｅ,,株式会社,大阪府,大阪市中央区,南船場１丁目１３番１４号南船場スクエアビル,,27,128,5420081,,,,,,,2024-07-24,1,,,,,パレット,0
1360,6120001267050,新規,0,2024-07-24,2024-07-24,株式会社フジシンエステート,,株式会社,大阪府,大阪市天王寺区,味原町１３－９サンエイ下味原第二ビル３Ｆ－２９号室,,27,109,5430023,,,,,,,2024-07-24,1,,,,,フジシンエステート,0
1361,6120001267059,新規,0,2024-07-24,2024-07-24,株式会社アトラース,,株式会社,大阪府,門真市,一番町１０番６－７０２号,,27,223,5710033,,,,,,,2024-07-24,1,,,,,アトラース,0
1362,6120001267067,新規,0,2024-07-24,2024-07-24,株式会社ベオ,,株式会社,大阪府,大阪市中央区,上汐２丁目３番１２－１５０１号,,27,128,5420064,,,,,,,2024-07-24,1,,,,,ベオ,0
1363,6120001267091,新規,0,2024-07-24,2024-07-24,高倉株式会社,,株式会社,大阪府,大阪市大正区,平尾４丁目１１番７号（２０６）,,27,108,5510012,,,,,,,2024-07-24,1,,,,,タカクラ,0
1369,6120003027106,新規,0,2024-07-24,2024-07-24,合同会社ＥＬＬＹＹ’Ｓ　ＤＥＰＯＴ,,合同会社,大阪府,大阪市港区,弁天６丁目７－１５,,27,107,5520007,,,,,,,2024-07-24,1,,,,,エリーズデポ,0
1370,6120003027114,新規,0,2024-07-24,2024-07-24,合同会社ＬｕＭＩＮＡ,,合同会社,大阪府,大阪市都島区,高倉町２丁目９番２２号,,27,102,5340011,,,,,,,2024-07-24,1,,,,,ルミナ,0
1373,6120101070016,新規,0,2024-07-24,2024-07-24,金盛興業株式会社,,株式会社,大阪府,松原市,岡７丁目２３８番地Ｅ－１０,,27,217,5800014,,,,,,,2024-07-24,1,,,,,カナモリコウギョウ,0
1382,6130001077481,新規,0,2024-07-24,2024-07-24,株式会社林笑店,,株式会社,京都府,京都市伏見区,深草開土町３番地,,26,109,6120806,,,,,,,2024-07-24,1,,,,,ハヤシショウテン,0
1384,6130003009714,新規,0,2024-07-24,2024-07-24,合同会社光田ＳＧＯ,,合同会社,京都府,京都市伏見区,中島秋ノ山町５６番地,,26,109,6128462,,,,,,,2024-07-24,1,,,,,ミツタエスゴー,0
1392,6150001027435,新規,0,2024-07-24,2024-07-24,株式会社ステイオリジン,,株式会社,奈良県,奈良市,学園中２丁目１３２２番地の８,,29,201,6310035,,,,,,,2024-07-24,1,,,,,ステイオリジン,0
1397,6180001162411,新規,0,2024-07-24,2024-07-24,ＭｙＵｐ株式会社,,株式会社,愛知県,名古屋市中区,大須２丁目１８番５号,,23,106,4600011,,,,,,,2024-07-24,1,,,,,マイアップ,0
1399,6180301038872,新規,0,2024-07-24,2024-07-24,株式会社ＰｒｏｆｉＴＲＡＩＬ,,株式会社,愛知県,刈谷市,寿町４丁目３０３番地カメリオンビル１ＳＴ２０２,,23,210,4480856,,,,,,,2024-07-24,1,,,,,プロフィットレイル,0
1403,6180303006200,新規,0,2024-07-24,2024-07-24,Ａｌｉｅｎｆｏｒｃｅ合同会社,,合同会社,愛知県,豊橋市,向草間町字向郷７０番地１０,,23,201,4418142,,,,,,,2024-07-24,1,,,,,エイリアンフォース,0
1406,6200001042726,新規,0,2024-07-24,2024-07-24,株式会社ＦＵＬＬＨＯＵＳＥ,,株式会社,岐阜県,可児市,今渡２４９番地１,,21,214,5090207,,,,,,,2024-07-24,1,,,,,フルハウス,0
1407,6200003006431,新規,0,2024-07-24,2024-07-24,エアステック合同会社,,合同会社,岐阜県,可児市,川合北２丁目９１,,21,214,5090208,,,,,,,2024-07-24,1,,,,,エアステック,0
1413,6220003003798,新規,0,2024-07-24,2024-07-24,合同会社ニュース加賀,,合同会社,石川県,加賀市,松が丘４丁目１６番地１１,,17,206,9220436,,,,,,,2024-07-24,1,,,,,ニュースカガ,0
1414,6230001020448,新規,0,2024-07-24,2024-07-24,株式会社三宝,,株式会社,富山県,高岡市,池田２２９番地１,,16,202,9330318,,,,,,,2024-07-24,1,,,,,サンポウ,0
1426,6260001039287,新規,0,2024-07-24,2024-07-24,Ｎ　Ｇｒｏｕｐ株式会社,,株式会社,岡山県,真庭郡新庄村,野土路４７４４－１,,33,586,7170201,,,,,,,2024-07-24,1,,,,,エヌグループ,0
1440,6310003004820,新規,0,2024-07-24,2024-07-24,ＭＹＮ合同会社,,合同会社,長崎県,長崎市,住吉町４番１２号フォーレ住吉１Ｆ,,42,201,8528154,,,,,,,2024-07-24,1,,,,,マイン,0
1443,6340001026665,新規,0,2024-07-24,2024-07-24,株式会社ベイスサポート,,株式会社,鹿児島県,鹿児島市,花野光ヶ丘２丁目１番１３号,,46,201,8911204,,,,,,,2024-07-24,1,,,,,ベイスサポート,0
1460,6430001092310,新規,0,2024-07-24,2024-07-24,株式会社ＣＡＭＥＬＬＩＡ　ＬＩＦＥ,,株式会社,北海道,千歳市,清流６丁目７番４号フォークフェザータワー７０４号室,,01,224,0660081,,,,,,,2024-07-24,1,,,,,キャメリアライフ,0
1467,6700150126535,新規,0,2024-07-24,2024-07-24,Ｄｏｎｇｇｕａｎ　Ｄｉａｏｊｉａｎｇ　Ｉｎｔｅｌｌｉｇｅｎｔ　Ｔｅｃｈｎｏｌｏｇｙ　Ｃｏ．，Ｌｔｄ,,外国会社等,,,,,,,,Ｒｏｏｍ　３０１，２ｎｄ　Ｂｕｉｌｄｉｎｇ，Ｎｏ．５　Ｌｏｎｇｘｉ　Ｒｏａｄ，Ｎａｎｃｈｅｎｇ　Ｓｔｒｅｅｔ，Ｄｏｎｇｇｕａｎ　Ｃｉｔｙ，Ｇｕａｎｇｄｏｎｇ　Ｐｒｏｖｉｎｃｅ，Ｃｈｉｎａ,,,,,,2024-07-24,1,,,,,ドングゥアンディアオジャンインテリジェントテクノロジーカンパニーリミテッド,0
1473,7010001246824,新規,0,2024-07-24,2024-07-24,ＬＨペングライピーク株式会社,,株式会社,東京都,千代田区,丸の内１丁目１１番１号パシフィックセンチュリープレイス丸の内８階,,13,101,1000005,,,,,,,2024-07-24,1,,,,,エルエイチペングライピーク,0
1476,7010003044391,新規,0,2024-07-24,2024-07-24,合同会社ＬＯＧＩ　ＦＬＡＧ９号,,合同会社,東京都,中央区,日本橋１丁目４番１号,,13,102,1030027,,,,,,,2024-07-24,1,,,,,ロジフラッグキュウゴウ,0
1483,7010401183980,新規,0,2024-07-24,2024-07-24,株式会社ＯＴ１,,株式会社,東京都,港区,六本木３丁目１５番１１号,,13,103,1060032,,,,,,,2024-07-24,1,,,,,オーティーワン,0
1484,7010401183997,新規,0,2024-07-24,2024-07-24,株式会社ＢＬＵＥＭ,,株式会社,東京都,港区,北青山１丁目３番１号アールキューブ青山３階,,13,103,1070061,,,,,,,2024-07-24,1,,,,,ブルーム,0
1485,7010401184013,新規,0,2024-07-24,2024-07-24,株式会社日本再生医療細胞研究所,,株式会社,東京都,港区,台場２丁目２－４ザ・タワーズ台場クリニックモール２Ｆ,,13,103,1350091,,,,,,,2024-07-24,1,,,,,ニホンサイセイイリョウサイボウケンキュウジョ,0
1488,7010403033102,新規,0,2024-07-24,2024-07-24,Ｔ．Ｉ．プロジェクト合同会社,,合同会社,東京都,港区,六本木６丁目１番７号,,13,103,1060032,,,,,,,2024-07-24,1,,,,,ティーアイプロジェクト,0
1489,7010403033110,新規,0,2024-07-24,2024-07-24,合同会社ｃｍｂ,,合同会社,東京都,港区,浜松町２丁目２番１５号浜松町ダイヤビル２階,,13,103,1050013,,,,,,,2024-07-24,1,,,,,シーエムビー,0
1497,7010501052631,新規,0,2024-07-24,2024-07-24,株式会社ＯＳＳＩＡ,,株式会社,東京都,台東区,千束１丁目６番２号,,13,106,1110031,,,,,,,2024-07-24,1,,,,,オッシア,0
1515,7011001163308,新規,0,2024-07-24,2024-07-24,株式会社浪江陸上養殖,,株式会社,東京都,渋谷区,２－１９－１５宮益坂ビルディング６０９,,13,113,1500000,,,,,,,2024-07-24,1,,,,,ナミエリクジョウヨウショク,0
1519,7011003019631,新規,0,2024-07-24,2024-07-24,合同会社朧,,合同会社,東京都,渋谷区,渋谷２丁目１９番１５号宮益坂ビルディング６０９,,13,113,1500002,,,,,,,2024-07-24,1,,,,,オボロ,0
1523,7011103014672,新規,0,2024-07-24,2024-07-24,茨木ロジスティクス合同会社,,合同会社,東京都,新宿区,四谷２丁目９番地１５東京ユナイテッド綜合事務所内,,13,104,1600004,,,,,,,2024-07-24,1,,,,,イバラキロジスティクス,0
1524,7011103014689,新規,0,2024-07-24,2024-07-24,合同会社ヨビゴエ,,合同会社,東京都,新宿区,西新宿３丁目３番１３号西新宿水間ビル６Ｆ,,13,104,1600023,,,,,,,2024-07-24,1,,,,,ヨビゴエ,0
1536,7011801044558,新規,0,2024-07-24,2024-07-24,株式会社レガロジー,,株式会社,東京都,足立区,加平１丁目２３番９号,,13,121,1210055,,,,,,,2024-07-24,1,,,,,レガロジー,0
1539,7012401041929,新規,0,2024-07-24,2024-07-24,照射場機器開発株式会社,,株式会社,東京都,多摩市,桜ヶ丘４丁目４２番地の４,,13,224,2060013,,,,,,,2024-07-24,1,,,,,ショウシャバキキカイハツ,0
1540,7012701018370,新規,0,2024-07-24,2024-07-24,株式会社中村内装‐ＲＳ,,株式会社,東京都,清瀬市,旭が丘１丁目２６８番地４,,13,221,2040002,,,,,,,2024-07-24,1,,,,,ナカムラナイソウアールエス,0
1557,7021003014796,新規,0,2024-07-24,2024-07-24,合同会社ｔｈｅｔａ　ｏｆｆｉｃｅ,,合同会社,神奈川県,中郡二宮町,緑が丘２丁目２番地の３,,14,342,2590132,,,,,,,2024-07-24,1,,,,,シータオフィス,0
1558,7021003014813,新規,0,2024-07-24,2024-07-24,合同会社イプシロン・ラボ,,合同会社,神奈川県,中郡大磯町,大磯１１７５番地,,14,341,2550003,,,,,,,2024-07-24,1,,,,,イプシロンラボ,0
1561,7030001161583,新規,0,2024-07-24,2024-07-24,株式会社コンサル,,株式会社,埼玉県,川越市,脇田本町６番地７－４Ｆ,,11,201,3501123,,,,,,,2024-07-24,1,,,,,コンサル,0
1564,7030003024747,新規,0,2024-07-24,2024-07-24,合同会社Ｖｅｎｕｓ,,合同会社,埼玉県,所沢市,緑町３丁目３－８サニー１０４,,11,208,3591111,,,,,,,2024-07-24,1,,,,,ヴィーナス,0
1573,7040001134621,新規,0,2024-07-24,2024-07-24,福宏商事株式会社,,株式会社,千葉県,鎌ケ谷市,南初富５丁目９番６６号,,12,224,2730123,,,,,,,2024-07-24,1,,,,,,0
1574,7040003025463,新規,0,2024-07-24,2024-07-24,合同会社エージェントワン,,合同会社,千葉県,船橋市,小室町４１５番地,,12,204,2701471,,,,,,,2024-07-24,1,,,,,エージェントワン,0
1576,7050001055148,新規,0,2024-07-24,2024-07-24,株式会社ドットエクゼック,,株式会社,茨城県,古河市,東２丁目２番１号,,08,204,3060011,,,,,,,2024-07-24,1,,,,,ドットエクゼック,0
1577,7050003008558,新規,0,2024-07-24,2024-07-24,ＡＬＩ　ＴＲＡＤＩＮＧ合同会社,,合同会社,茨城県,筑西市,関本中７８,,08,227,3080126,,,,,,,2024-07-24,1,,,,,アリトレーディング,0
1581,7080001026393,新規,0,2024-07-24,2024-07-24,株式会社カビス,,株式会社,静岡県,静岡市葵区,駒形通４丁目２番２４号,,22,101,4200042,,,,,,,2024-07-24,1,,,,,カビス,0
1587,7080401027322,新規,0,2024-07-24,2024-07-24,株式会社川林,,株式会社,静岡県,浜松市中央区,坪井町４６２５番地の１,,22,138,4310202,,,,,,,2024-07-24,1,,,,,センリン,0
1593,7110003005458,新規,0,2024-07-24,2024-07-24,合同会社ＪＵＮＲＩＮＡ,,合同会社,新潟県,南魚沼郡湯沢町,大字土樽１７８番地２－２０１号,00135678,15,461,9496103,,,,,,,2024-07-24,1,,,,,ジュンリナ,0
1605,7120001266910,新規,0,2024-07-24,2024-07-24,万永株式会社,,株式会社,大阪府,大阪市中央区,島之内１丁目１１番２９－９０５号,,27,128,5420082,,,,,,,2024-07-24,1,,,,,マンエイ,0
1606,7120001266935,新規,0,2024-07-24,2024-07-24,株式会社Ｗｉｔｈ　Ｄｒｅａｍ,,株式会社,大阪府,大阪市西成区,花園南２丁目９番１５－４０５号,,27,122,5570015,,,,,,,2024-07-24,1,,,,,ウィズドリーム,0
1607,7120001266951,新規,0,2024-07-24,2024-07-24,株式会社Ｔ．Ｍ．４,,株式会社,大阪府,大阪市中央区,内本町２丁目３番１１号,,27,128,5400026,,,,,,,2024-07-24,1,,,,,ティーエムフォー,0
1608,7120001266984,新規,0,2024-07-24,2024-07-24,優逸宝株式会社,,株式会社,大阪府,大阪市東住吉区,照ケ丘矢田２丁目７番２号淘金ビルＡ号室,,27,121,5460021,,,,,,,2024-07-24,1,,,,,ユウイツホウ,0
1609,7120001267025,新規,0,2024-07-24,2024-07-24,株式会社ＬＩＢＥＲＯ,,株式会社,大阪府,大阪市中央区,常盤町２丁目２番５－２７０３号,,27,128,5400028,,,,,,,2024-07-24,1,,,,,リベロ,0
1610,7120001267066,新規,0,2024-07-24,2024-07-24,株式会社エアル,,株式会社,大阪府,大阪市中央区,上汐２丁目３番１２－１５０１号,,27,128,5420064,,,,,,,2024-07-24,1,,,,,エアル,0
1613,7120003027105,新規,0,2024-07-24,2024-07-24,合同会社たんち,,合同会社,大阪府,大阪市中央区,北浜２丁目２番２１－２４０９号,,27,128,5410041,,,,,,,2024-07-24,1,,,,,タンチ,0
1619,7122005003769,新規,0,2024-07-24,2024-07-24,Ｕ．Ａ．Ｏパートナーズ税理士法人,,その他の設立登記法人,大阪府,八尾市,高美町６丁目７番６号,,27,212,5810017,,,,,,,2024-07-24,1,,,,,ユーエイオーパートナーズ,0
1621,7130001077506,新規,0,2024-07-24,2024-07-24,安嵐株式会社,,株式会社,京都府,京都市西京区,嵐山中尾下町２２番地４,,26,111,6160004,,,,,,,2024-07-24,1,,,,,アンラン,0
1622,7130001077530,新規,0,2024-07-24,2024-07-24,Ｌ＆Ｓ株式会社,,株式会社,京都府,京都市伏見区,深草飯食山町５－２,,26,109,6120815,,,,,,,2024-07-24,1,,,,,エルアンドエス,0
1623,7130001077555,新規,0,2024-07-24,2024-07-24,株式会社Ｈａｌｅｌｅａ,,株式会社,京都府,京田辺市,同志社山手４丁目１番地１５,,26,211,6100315,,,,,,,2024-07-24,1,,,,,,0
1626,7130003009721,新規,0,2024-07-24,2024-07-24,合同会社サイビット,,合同会社,京都府,宇治市,大久保町田原３６－１－４０９,,26,204,6110033,,,,,,,2024-07-24,1,,,,,サイビット,0
1631,7140001135188,新規,0,2024-07-24,2024-07-24,株式会社エイトシップ,,株式会社,兵庫県,神戸市垂水区,西舞子７丁目１６番３－２０１号,,28,108,6550048,,,,,,,2024-07-24,1,,,,,エイトシップ,0
1642,7140003020834,新規,0,2024-07-24,2024-07-24,合同会社ｇｒｅｅｎ,,合同会社,兵庫県,神戸市中央区,熊内町７丁目６番１号,,28,110,6510056,,,,,,,2024-07-24,1,,,,,グリーン,0
1643,7140003020850,新規,0,2024-07-24,2024-07-24,ＥＭＮＥＴ合同会社,,合同会社,兵庫県,神戸市中央区,磯辺通１丁目１番２０号,,28,110,6510084,,,,,,,2024-07-24,1,,,,,エムネット,0
1647,7170001018225,新規,0,2024-07-24,2024-07-24,株式会社正統,,株式会社,和歌山県,和歌山市,中之島１９３０番地,,30,201,6408392,,,,,,,2024-07-24,1,,,,,セイトウ,0
1650,7180001162419,新規,0,2024-07-24,2024-07-24,株式会社エスプラス,,株式会社,愛知県,名古屋市中区,新栄１丁目１４番８号,,23,106,4600007,,,,,,,2024-07-24,1,,,,,エスプラス,0
1651,7180001162427,新規,0,2024-07-24,2024-07-24,株式会社ＫＭグループ,,株式会社,愛知県,豊明市,前後町五軒屋１５７１番地９,,23,229,4701151,,,,,,,2024-07-24,1,,,,,ケーエムグループ,0
1655,7180003027099,新規,0,2024-07-24,2024-07-24,合同会社ｙｅｐｐｉ,,合同会社,愛知県,名古屋市東区,葵１丁目１８番３２号,,23,102,4610004,,,,,,,2024-07-24,1,,,,,イェッピ,0
1665,7180303006199,新規,0,2024-07-24,2024-07-24,合同会社しずく,,合同会社,愛知県,豊川市,宿町弥重１６０番地１,,23,207,4410101,,,,,,,2024-07-24,1,,,,,シズク,0
1666,7190001031507,新規,0,2024-07-24,2024-07-24,株式会社エクソソーム・ラボ,,株式会社,三重県,三重郡菰野町,大字神森８７７番地１‐２階,,24,341,5101231,,,,,,,2024-07-24,1,,,,,,0
1675,7260001039286,新規,0,2024-07-24,2024-07-24,神建ＳＴＥＥＬ株式会社,,株式会社,岡山県,倉敷市,中畝１０丁目５番３８号,,33,202,7128051,,,,,,,2024-07-24,1,,,,,カミケンスチール,0
1679,7290001106595,新規,0,2024-07-24,2024-07-24,株式会社博多一翔,,株式会社,福岡県,糟屋郡志免町,別府北１丁目６番８－５１０号,,40,343,8112233,,,,,,,2024-07-24,1,,,,,ハカタイッショウ,0
1681,7290005019463,新規,0,2024-07-24,2024-07-24,一般財団法人シンビジョン,,その他の設立登記法人,福岡県,那珂川市,今光６丁目２３,,40,231,8111211,,,,,,,2024-07-24,1,,,,,,0
1696,7360001033964,新規,0,2024-07-24,2024-07-24,株式会社ホールパイン,,株式会社,沖縄県,豊見城市,字高安４７４外間功店舗２０２号室,,47,212,9010242,,,,,,,2024-07-24,1,,,,,ホールパイン,0
1699,7370001051536,新規,0,2024-07-24,2024-07-24,株式会社ＲＫＵ,,株式会社,宮城県,多賀城市,高橋３丁目５番２１号,,04,209,9850853,,,,,,,2024-07-24,1,,,,,アールケーユー,0
1720,7460001005929,新規,0,2024-07-24,2024-07-24,ＬＡＮＤＡＳ株式会社,,株式会社,北海道,釧路市,黒金町７丁目１番地１－２階１号室,,01,206,0850018,,,,,,,2024-07-24,1,,,,,ランダス,0
1722,7490001010819,新規,0,2024-07-24,2024-07-24,株式会社サニースタッフサービス,,株式会社,高知県,高知市,南御座１２番１９号,,39,201,7810084,,,,,,,2024-07-24,1,,,,,サニースタッフサービス,0
1734,8010001246617,新規,0,2024-07-24,2024-07-24,株式会社Ｏ,,株式会社,東京都,文京区,本郷１丁目３０番８号,,13,105,1130033,,,,,,,2024-07-24,1,,,,,オー,0
1735,8010001246765,新規,0,2024-07-24,2024-07-24,株式会社Ｎａｃｏｓａｒ,,株式会社,東京都,中央区,銀座１丁目１２－４Ｎ＆ＥＢＬＤ．７階,,13,102,1040061,,,,,,,2024-07-24,1,,,,,ナコサー,0
1736,8010001246798,新規,0,2024-07-24,2024-07-24,ＳＥグループ株式会社,,株式会社,東京都,中央区,銀座１丁目１２番４号Ｎ＆ＥＢＬＤ．７階,,13,102,1040061,,,,,,,2024-07-24,1,,,,,エスイーグループ,0
1737,8010001246815,新規,0,2024-07-24,2024-07-24,株式会社Ｒｏｓｅｎｋａｖａｌｉｅｒ,,株式会社,東京都,中央区,銀座８丁目５番１０号並木ビル７階Ａ号室,,13,102,1040061,,,,,,,2024-07-24,1,,,,,ローゼンカヴァリエ,0
1738,8010001246831,新規,0,2024-07-24,2024-07-24,ラリッサリース株式会社,,株式会社,東京都,中央区,銀座８丁目１３番１号,,13,102,1040061,,,,,,,2024-07-24,1,,,,,ラリッサリース,0
1740,8010003044366,新規,0,2024-07-24,2024-07-24,合同会社ハンプス,,合同会社,東京都,中央区,銀座１丁目１２番４号Ｎ＆ＥＢＬＤ．６Ｆ,,13,102,1040061,,,,,,,2024-07-24,1,,,,,ハンプス,0
1741,8010003044390,新規,0,2024-07-24,2024-07-24,合同会社フォーカスライト,,合同会社,東京都,中央区,銀座１丁目１２－４Ｎ＆ＥＢＬＤ．７階,,13,102,1040061,,,,,,,2024-07-24,1,,,,,フォーカスライト,0
1747,8010401183914,新規,0,2024-07-24,2024-07-24,株式会社ＣＬＯＶＥＲ,,株式会社,東京都,港区,南麻布２丁目１０番１６号デュフレベース南麻布０１０,,13,103,1060047,,,,,,,2024-07-24,1,,,,,クローバー,0
1748,8010401183955,新規,0,2024-07-24,2024-07-24,株式会社アクターバース,,株式会社,東京都,港区,南青山３丁目１番３６号青山丸竹ビル６階,,13,103,1070062,,,,,,,2024-07-24,1,,,,,アクターバース,0
1749,8010403033084,新規,0,2024-07-24,2024-07-24,合同会社ＲＭ,,合同会社,東京都,港区,赤坂６丁目１２番１４－３０２号,,13,103,1070052,,,,,,,2024-07-24,1,,,,,アールエム,0
1752,8010501052622,新規,0,2024-07-24,2024-07-24,Ｍａｎｉｆｏｌｄ　Ｓｏｌｕｔｉｏｎｓ株式会社,,株式会社,東京都,台東区,根岸３丁目７番７号ブランシエスタ台東根岸３０７号室,,13,106,1100003,,,,,,,2024-07-24,1,,,,,マニフォールドソリューションズ,0
1757,8010601065615,新規,0,2024-07-24,2024-07-24,ＣＯＴＡＺＵ株式会社,,株式会社,東京都,江東区,白河２丁目１１番９号,,13,108,1350021,,,,,,,2024-07-24,1,,,,,コターズ,0
1771,8011001163414,新規,0,2024-07-24,2024-07-24,Ｈｉｋａｒｉ　ｍａｒｒｉａｇｅ株式会社,,株式会社,東京都,渋谷区,道玄坂１丁目１０番８号渋谷道玄坂東急ビル２Ｆ－Ｃ,,13,113,1500043,,,,,,,2024-07-24,1,,,,,ヒカリマリッジ,0
1772,8011001163505,新規,0,2024-07-24,2024-07-24,黎明株式会社,,株式会社,東京都,渋谷区,恵比寿１丁目１５－９日宝恵比寿ビル４０３,,13,113,1500013,,,,,,,2024-07-24,1,,,,,レイメイ,0
1773,8011001163554,新規,0,2024-07-24,2024-07-24,武若アセットコンサルティング株式会社,,株式会社,東京都,渋谷区,代々木１丁目２５番５号,,13,113,1510053,,,,,,,2024-07-24,1,,,,,タケワカアセットコンサルティング,0
1785,8011101108087,新規,0,2024-07-24,2024-07-24,株式会社Ｌｉ’ｒｕｋｉａ　Ｅｎｔｅｒｔａｉｎｍｅｎｔ,,株式会社,東京都,新宿区,西新宿７丁目７番地３３号新銘ビル２階,,13,104,1600023,,,,,,,2024-07-24,1,,,,,リルキアエンタテインメント,0
1786,8011101108129,新規,0,2024-07-24,2024-07-24,株式会社ＵＭＡＵＭＡ,,株式会社,東京都,新宿区,四谷３丁目８番４号,,13,104,1600004,,,,,,,2024-07-24,1,,,,,ウマウマ,0
1787,8011101108161,新規,0,2024-07-24,2024-07-24,株式会社ｋａｈａｚｕ,,株式会社,東京都,新宿区,新宿２丁目１２番１３号新宿アントレサロンビル２階,,13,104,1600022,,,,,,,2024-07-24,1,,,,,カハズ,0
1788,8011103014688,新規,0,2024-07-24,2024-07-24,ＳＧＩ合同会社,,合同会社,東京都,新宿区,改代町１６番地ＧＬＡＳｉＯ５０１,,13,104,1620802,,,,,,,2024-07-24,1,,,,,エスジーアイ,0
1795,8011403004447,新規,0,2024-07-24,2024-07-24,合同会社マーケットアイ,,合同会社,東京都,板橋区,四葉２丁目１５番１号,,13,119,1750084,,,,,,,2024-07-24,1,,,,,マーケットアイ,0
1796,8011503006153,新規,0,2024-07-24,2024-07-24,ＮＥＬＵＮＡ合同会社,,合同会社,東京都,北区,王子１丁目２３番１－３０４号,,13,117,1140002,,,,,,,2024-07-24,1,,,,,ネルナ,0
1801,8011801044573,新規,0,2024-07-24,2024-07-24,株式会社トランセンド,,株式会社,東京都,足立区,千住１丁目３番３号カネダビル４０２,,13,121,1200034,,,,,,,2024-07-24,1,,,,,トランセンド,0
1810,8013303007240,新規,0,2024-07-24,2024-07-24,Ｔ＆Ｔ合同会社,,合同会社,東京都,豊島区,東池袋１丁目３１番５－１００２号,,13,116,1700013,,,,,,,2024-07-24,1,,,,,ティーアンドティー,0
1828,8021003014812,新規,0,2024-07-24,2024-07-24,合同会社ＬＯＴＵＳＬＯＴＵＳ,,合同会社,神奈川県,横須賀市,秋谷５３６１番地,,14,201,2400105,,,,,,,2024-07-24,1,,,,,ロータスロータス,0
1838,8040001134629,新規,0,2024-07-24,2024-07-24,株式会社アルファ,,株式会社,千葉県,習志野市,鷺沼３丁目５番１１号,,12,216,2750014,,,,,,,2024-07-24,1,,,,,アルファ,0
1841,8040003025462,新規,0,2024-07-24,2024-07-24,合同会社ＭＯＵＮＴＡＩＮ　ＡＮＤ　ＳＥＡ,,合同会社,千葉県,八千代市,勝田台３丁目１７－２,,12,221,2760023,,,,,,,2024-07-24,1,,,,,マウンテンアンドシー,0
1842,8050001055147,新規,0,2024-07-24,2024-07-24,株式会社ＩＧＡＫＯＵ,,株式会社,茨城県,水戸市,城東２丁目３番５１号,,08,201,3100012,,,,,,,2024-07-24,1,,,,,イガコウ,0
1844,8050003008557,新規,0,2024-07-24,2024-07-24,ＺＥ　Ｇｒｏｕｐ合同会社,,合同会社,茨城県,古河市,上辺見１７６番地１０,,08,204,3060234,,,,,,,2024-07-24,1,,,,,ゼットイーグループ,0
1850,8080005007629,新規,0,2024-07-24,2024-07-24,一般社団法人青葉ＤＥ大道芸の会,,その他の設立登記法人,静岡県,静岡市葵区,紺屋町１７－１葵タワー１Ｆリージャス内,,22,101,4200852,,,,,,,2024-07-24,1,,,,,アオバデダイドウゲイノカイ,0
1851,8080401027321,新規,0,2024-07-24,2024-07-24,株式会社Ｍｏａｎａ,,株式会社,静岡県,御前崎市,白羽２４５１番地の６,,22,223,4371622,,,,,,,2024-07-24,1,,,,,モアナ,0
1855,8100001037668,新規,0,2024-07-24,2024-07-24,株式会社ディライズ,,株式会社,長野県,上伊那郡辰野町,大字伊那富２８３５番地１５,,20,382,3990428,,,,,,,2024-07-24,1,,,,,ディライズ,0
1860,8110001038582,新規,0,2024-07-24,2024-07-24,株式会社巧和,,株式会社,新潟県,村上市,山辺里１６０９番地４,,15,212,9580821,,,,,,,2024-07-24,1,,,,,コウワ,0
1872,8120001267040,新規,0,2024-07-24,2024-07-24,ＧＹＧ株式会社,,株式会社,大阪府,大阪市東淀川区,瑞光１丁目２番１１－３０６号,,27,114,5330005,,,,,,,2024-07-24,1,,,,,ジーワイジー,0
1873,8120001267065,新規,0,2024-07-24,2024-07-24,株式会社ももの音,,株式会社,大阪府,大阪市中央区,上汐２丁目３番１２－１５０１号,,27,128,5420064,,,,,,,2024-07-24,1,,,,,モモノネ,0
1874,8120001267073,新規,0,2024-07-24,2024-07-24,株式会社グッドエモーション,,株式会社,大阪府,大阪市北区,梅田１丁目１－３大阪駅前第３ビル２９階１－１－１号室,,27,127,5300001,,,,,,,2024-07-24,1,,,,,グッドエモーション,0
1875,8120001267098,新規,0,2024-07-24,2024-07-24,文慧株式会社,,株式会社,大阪府,枚方市,東田宮１丁目３番２９－６０３号,,27,210,5730023,,,,,,,2024-07-24,1,,,,,ブンエ,0
1884,8120105009891,新規,0,2024-07-24,2024-07-24,医療法人のだ歯科クリニック,,その他の設立登記法人,大阪府,高石市,綾園１丁目３番１４号高石ＤＳビル１０２,,27,225,5920014,,,,,,,2024-07-24,1,,,,,ノダシカクリニック,0
1886,8120903005274,新規,0,2024-07-24,2024-07-24,合同会社立東商会,,合同会社,大阪府,吹田市,南吹田５丁目３９番２５号,,27,205,5640043,,,,,,,2024-07-24,1,,,,,リットウショウカイ,0
1891,8130001077521,新規,0,2024-07-24,2024-07-24,株式会社ルークス,,株式会社,京都府,京都市山科区,東野中井ノ上町１３－５１,,26,110,6078142,,,,,,,2024-07-24,1,,,,,ルークス,0
1899,8140001135229,新規,0,2024-07-24,2024-07-24,株式会社ｒａｙ,,株式会社,兵庫県,神戸市東灘区,本山南町９丁目８番４５－２０７号,,28,101,6580015,,,,,,,2024-07-24,1,,,,,レイ,0
1902,8140005027158,新規,0,2024-07-24,2024-07-24,労働者協同組合地の塩,,その他の設立登記法人,兵庫県,川辺郡猪名川町,若葉２丁目４１番,,28,301,6660251,,,,,,,2024-07-24,1,,,,,チノシオ,0
1903,8140005027166,新規,0,2024-07-24,2024-07-24,社会保険労務士法人谷口労務管理事務所,,その他の設立登記法人,兵庫県,姫路市,手柄１丁目１００番地,,28,201,6700972,,,,,,,2024-07-24,1,,,,,タニグチロウムカンリジムショ,0
1907,8150001027441,新規,0,2024-07-24,2024-07-24,株式会社ＢＹＳ‐ＣＯＭＰＡＮＹ,,株式会社,奈良県,宇陀市,大宇陀藤井４３１番地,,29,212,6332123,,,,,,,2024-07-24,1,,,,,バイスカンパニー,0
1908,8160003003241,新規,0,2024-07-24,2024-07-24,合同会社ＲＥＮ,,合同会社,滋賀県,守山市,古高町８４２番地,,25,207,5240044,,,,,,,2024-07-24,1,,,,,レン,0
1909,8170001018224,新規,0,2024-07-24,2024-07-24,株式会社Ｌｉｎｏ,,株式会社,和歌山県,田辺市,芳養松原１丁目３番２５号,,30,206,6460063,,,,,,,2024-07-24,1,,,,,リノ,0
1910,8170003002077,新規,0,2024-07-24,2024-07-24,合同会社タカスオ,,合同会社,和歌山県,紀の川市,桃山町神田７００番地,,30,208,6496123,,,,,,,2024-07-24,1,,,,,タカスオ,0
1916,8180001162368,新規,0,2024-07-24,2024-07-24,株式会社イノヴィア,,株式会社,愛知県,一宮市,栄３丁目１番２号尾張一宮駅前ビル６階,,23,203,4910858,,,,,,,2024-07-24,1,,,,,イノヴィア,0
1917,8180001162392,新規,0,2024-07-24,2024-07-24,株式会社クラルス,,株式会社,愛知県,名古屋市中区,門前町６番２８号,,23,106,4600018,,,,,,,2024-07-24,1,,,,,クラルス,0
1918,8180003027081,新規,0,2024-07-24,2024-07-24,合同会社Ａｔ　Ｂｅｒｒｙ,,合同会社,愛知県,名古屋市中村区,名駅３丁目４－１０アルティメイト名駅１ｓｔ２階,,23,105,4500002,,,,,,,2024-07-24,1,,,,,アットベリー,0
1920,8180301038862,新規,0,2024-07-24,2024-07-24,株式会社三樹工業,,株式会社,愛知県,西尾市,一色町赤羽南荒子４７番地３,,23,213,4440427,,,,,,,2024-07-24,1,,,,,サンキコウギョウ,0
1921,8180301038870,新規,0,2024-07-24,2024-07-24,株式会社バリュードライフ,,株式会社,愛知県,豊田市,梅坪町８丁目２番地４リコット梅坪駅前１３０３号,,23,211,4710064,,,,,,,2024-07-24,1,,,,,バリュードライフ,0
1922,8180303006198,新規,0,2024-07-24,2024-07-24,合同会社ＷＡＮ,,合同会社,愛知県,刈谷市,相生町２丁目５番地３,,23,210,4480027,,,,,,,2024-07-24,1,,,,,ワン,0
1925,8190001031497,新規,0,2024-07-24,2024-07-24,株式会社鈴鹿機材,,株式会社,三重県,亀山市,小下町１４番３６号,,24,210,5190113,,,,,,,2024-07-24,1,,,,,スズカキザイ,0
1936,8240001063576,新規,0,2024-07-24,2024-07-24,株式会社みわ薬局,,株式会社,広島県,広島市安佐北区,可部３丁目２４番２８号,,34,106,7310221,,,,,,,2024-07-24,1,,,,,ミワヤッキョク,0
1942,8270003001647,新規,0,2024-07-24,2024-07-24,合同会社まるだい農園,,合同会社,鳥取県,八頭郡八頭町,山上２６６番地,,31,329,6800433,,,,,,,2024-07-24,1,,,,,マルダイノウエン,0
1951,8290001106495,新規,0,2024-07-24,2024-07-24,株式会社エクセルアート,,株式会社,福岡県,久留米市,三潴町草場４９４番地,,40,203,8300105,,,,,,,2024-07-24,1,,,,,エクセルアート,0
1953,8290003015562,新規,0,2024-07-24,2024-07-24,合同会社カメとジャスミン,,合同会社,福岡県,福岡市東区,名島２丁目２６番１７－１０１号ローザンヌ,,40,131,8130043,,,,,,,2024-07-24,1,,,,,カメトジャスミン,0
1964,8360001033947,新規,0,2024-07-24,2024-07-24,株式会社たいよう工業,,株式会社,沖縄県,中頭郡北谷町,字吉原７１８番地２（１０１）,,47,326,9040105,,,,,,,2024-07-24,1,,,,,タイヨウコウギョウ,0
1965,8370003006693,新規,0,2024-07-24,2024-07-24,伊藤．合同会社,,合同会社,宮城県,仙台市泉区,桂１丁目３番地の１桂パークハウス東街区弐番館５０４,,04,105,9813134,,,,,,,2024-07-24,1,,,,,イトウ,0
1987,8430005015034,新規,0,2024-07-24,2024-07-24,一般社団法人中小企業確定拠出年金普及協会,,その他の設立登記法人,北海道,札幌市東区,北七条東３丁目２８番地３２井門札幌東ビル４階,,01,103,0600907,,,,,,,2024-07-24,1,,,,,チュウショウキギョウカクテイキョシュツネンキンフキュウキョウカイ,0
1991,8490001010818,新規,0,2024-07-24,2024-07-24,株式会社Ｂａｍｂｏｏ・Ｓｈｏｏｔ,,株式会社,高知県,安芸市,本町３丁目１０番３６号,,39,203,7840004,,,,,,,2024-07-24,1,,,,,バンブーシュート,0
2000,9010001246731,新規,0,2024-07-24,2024-07-24,株式会社アクセントエース,,株式会社,東京都,中央区,銀座７丁目１３番２０号銀座ＴＨビル９階,,13,102,1040061,,,,,,,2024-07-24,1,,,,,アクセントエース,0
2001,9010001246756,新規,0,2024-07-24,2024-07-24,株式会社ＰＧ．Ｂｕｉｌｄｉｎｇ　Ｍａｎａｇｅｍｅｎｔ,,株式会社,東京都,中央区,日本橋室町４丁目１番５号,,13,102,1030022,,,,,,,2024-07-24,1,,,,,ピージービルディングマネジメント,0
2002,9010001246814,新規,0,2024-07-24,2024-07-24,株式会社公政組,,株式会社,東京都,中央区,築地６丁目１１番３号ウィンド築地ＩＩＩビル４Ｆ,00135679,13,102,1040045,,,,,,,2024-07-24,1,,,,,キミマサグミ,0
2003,9010001246830,新規,0,2024-07-24,2024-07-24,Ｐ＆Ｊ　Ｈｏｌｄｉｎｇｓ株式会社,,株式会社,東京都,千代田区,有楽町１丁目１３番２号第一生命日比谷ファースト１８階,,13,101,1000006,,,,,,,2024-07-24,1,,,,,ピーアンドジェーホールディングス,0
2009,9010401183698,新規,0,2024-07-24,2024-07-24,株式会社Ａｎｎｏｕｎ　Ｃａｒｅｅｒ,,株式会社,東京都,港区,新橋５丁目１６番５号,,13,103,1050004,,,,,,,2024-07-24,1,,,,,アンノウンキャリア,0
2010,9010401183954,新規,0,2024-07-24,2024-07-24,株式会社ライブラリーカンパニー,,株式会社,東京都,港区,六本木７丁目１４－２３,,13,103,1060032,,,,,,,2024-07-24,1,,,,,ライブラリーカンパニー,0
2011,9010401183970,新規,0,2024-07-24,2024-07-24,株式会社ニューミレニアム,,株式会社,東京都,港区,麻布十番２丁目２１番６－２１０２号,,13,103,1060045,,,,,,,2024-07-24,1,,,,,ニューミレニアム,0
2012,9010401183979,新規,0,2024-07-24,2024-07-24,サニーサイド・ジャパン株式会社,,株式会社,東京都,港区,六本木３丁目７番１－２９０１号,,13,103,1060032,,,,,,,2024-07-24,1,,,,,サニーサイドジャパン,0
2013,9010401184011,新規,0,2024-07-24,2024-07-24,Ｈｙｐｅｒｉｏｎ株式会社,,株式会社,東京都,港区,虎ノ門５丁目９－１麻布台ヒルズガーデンプラザＢ,,13,103,1050001,,,,,,,2024-07-24,1,,,,,パイペリオン,0
2015,9010403032985,新規,0,2024-07-24,2024-07-24,エネグローバルグリーンパワー２号合同会社,,合同会社,東京都,港区,西新橋１丁目１８番１７号明産西新橋ビル３Ｆ,,13,103,1050003,,,,,,,2024-07-24,1,,,,,エネグローバルグリーンパワーニゴウ,0
2016,9010403033091,新規,0,2024-07-24,2024-07-24,ａｃｔｉｖｅ合同会社,,合同会社,東京都,港区,新橋４丁目２４－３エムエフ新橋５０４号,,13,103,1050004,,,,,,,2024-07-24,1,,,,,アクティブ,0
2018,9010501052638,新規,0,2024-07-24,2024-07-24,株式会社日本キャリア総研,,株式会社,東京都,台東区,上野７丁目６番５号ＶＯＲＴ上野ＩＩ４Ｆ,00135680,13,106,1100005,,,,,,,2024-07-24,1,,,,,ニホンキャリアソウケン,0
2024,9010703007266,新規,0,2024-07-24,2024-07-24,合同会社ＡＯＫＩリビング,,合同会社,東京都,品川区,東五反田５丁目５番２４号,,13,109,1410022,,,,,,,2024-07-24,1,,,,,アオキリビング,0
2031,9011001163438,新規,0,2024-07-24,2024-07-24,ＧｏｌｄｅｎＭｅｓｓａｇｅ株式会社,,株式会社,東京都,渋谷区,恵比寿西２丁目８番４号ＥＸ恵比寿西ビル５階,,13,113,1500021,,,,,,,2024-07-24,1,,,,,ゴールデンメッセージ,0
2032,9011001163578,新規,0,2024-07-24,2024-07-24,株式会社ＩＴ療育ラボ,,株式会社,東京都,目黒区,柿の木坂２丁目２９番７号,,13,110,1520022,,,,,,,2024-07-24,1,,,,,アイティーリョウイクラボ,0
2036,9011003019654,新規,0,2024-07-24,2024-07-24,合同会社Ｌｅｖｉｃａ,,合同会社,東京都,渋谷区,道玄坂１丁目１０番８号渋谷道玄坂東急ビル２Ｆ‐Ｃ,,13,113,1500043,,,,,,,2024-07-24,1,,,,,レヴィカ,0
2039,9011105011113,新規,0,2024-07-24,2024-07-24,バルクアップ弁護士法人,,その他の設立登記法人,東京都,新宿区,市谷田町２丁目７番地東ビル４階,,13,104,1620843,,,,,,,2024-07-24,1,,,,,バルクアップ,0
2042,9011301029859,新規,0,2024-07-24,2024-07-24,瑞達国際株式会社,,株式会社,東京都,杉並区,高円寺南３丁目４３番１１号１階,,13,115,1660003,,,,,,,2024-07-24,1,,,,,ズイタツコクサイ,0
2043,9011301029867,新規,0,2024-07-24,2024-07-24,株式会社きみ・スマイル,,株式会社,東京都,杉並区,桃井４丁目１２番２１－２０７号,,13,115,1670034,,,,,,,2024-07-24,1,,,,,キミスマイル,0
2058,9011801044572,新規,0,2024-07-24,2024-07-24,株式会社ＵＴＡＧＥ,,株式会社,東京都,足立区,竹の塚１丁目２９番４号Ｒｉｒｉビル６階,,13,121,1210813,,,,,,,2024-07-24,1,,,,,ウタゲ,0
2060,9011803006348,新規,0,2024-07-24,2024-07-24,合同会社お徳川家安,,合同会社,東京都,足立区,皿沼２丁目２０番１５－２０２号,,13,121,1230862,,,,,,,2024-07-24,1,,,,,オトクガワイエヤス,0
2067,9012401042116,新規,0,2024-07-24,2024-07-24,株式会社ＴＲＵＥＣＡＲＥＥＲ,,株式会社,東京都,三鷹市,深大寺２丁目３５―２３,,13,204,1810016,,,,,,,2024-07-24,1,,,,,トゥルーキャリア,0
2069,9013301052865,新規,0,2024-07-24,2024-07-24,株式会社ケンウ,,株式会社,東京都,豊島区,池袋２丁目６１番５エシールＫＴ８０２,,13,116,1710014,,,,,,,2024-07-24,1,,,,,ケンウ,0
2070,9013301052873,新規,0,2024-07-24,2024-07-24,東雲株式会社,,株式会社,東京都,豊島区,池袋１丁目８番４号白ゆり荘２０２号,,13,116,1700014,,,,,,,2024-07-24,1,,,,,シノノメ,0
2082,9021001082793,新規,0,2024-07-24,2024-07-24,株式会社エネクトファーム,,株式会社,神奈川県,厚木市,旭町１丁目１６番４号島村ビル１０２,,14,212,2430014,,,,,,,2024-07-24,1,,,,,エネクトファーム,0
2088,9030001161581,新規,0,2024-07-24,2024-07-24,龍祥株式会社,,株式会社,埼玉県,川口市,芝富士１丁目２６番１６号Ｂ棟,,11,203,3330854,,,,,,,2024-07-24,1,,,,,リュウショウ,0
2092,9030003024753,新規,0,2024-07-24,2024-07-24,合同会社氏郷,,合同会社,埼玉県,さいたま市北区,盆栽町３１３番地８,,11,102,3310805,,,,,,,2024-07-24,1,,,,,ウジサト,0
2093,9030003024761,新規,0,2024-07-24,2024-07-24,合同会社ヒーラス,,合同会社,埼玉県,入間郡毛呂山町,前久保南１丁目５－１０－２Ｆ,,11,326,3500463,,,,,,,2024-07-24,1,,,,,ヒーラス,0
2094,9030003024778,新規,0,2024-07-24,2024-07-24,合同会社Ｉ’ｓ,,合同会社,埼玉県,久喜市,青葉５丁目２３番地１ブールブランシュ１０５,,11,232,3460013,,,,,,,2024-07-24,1,,,,,イズ,0
2099,9040001134685,新規,0,2024-07-24,2024-07-24,京良材料株式会社,,株式会社,千葉県,千葉市中央区,新宿２丁目２－５藤ビル６階,,12,101,2600021,,,,,,,2024-07-24,1,,,,,キョウリョウザイリョウ,0
2105,9050001055138,新規,0,2024-07-24,2024-07-24,株式会社鈴木電気,,株式会社,茨城県,水戸市,河和田３丁目２３８１番地の１０,,08,201,3114152,,,,,,,2024-07-24,1,,,,,スズキデンキ,0
2111,9060001037309,新規,0,2024-07-24,2024-07-24,株式会社ＥｘｉｔｏＰｌｕｓ,,株式会社,栃木県,宇都宮市,下栗町２３１４番地１２ＲｉｚレジデンスＢ－１Ａ,,09,201,3210923,,,,,,,2024-07-24,1,,,,,エクシトプラス,0
2121,9080001026400,新規,0,2024-07-24,2024-07-24,株式会社ミライクル,,株式会社,静岡県,島田市,阪本３８８３番地,,22,209,4270111,,,,,,,2024-07-24,1,,,,,ミライクル,0
2122,9080003003257,新規,0,2024-07-24,2024-07-24,合同会社レニアル,,合同会社,静岡県,静岡市葵区,常磐町２丁目５番地の１７ＯＳトキワビル５Ｆ,,22,101,4200034,,,,,,,2024-07-24,1,,,,,レニアル,0
2128,9080401027320,新規,0,2024-07-24,2024-07-24,株式会社ファミリー,,株式会社,静岡県,浜松市中央区,助信町２６番１２号,,22,138,4300903,,,,,,,2024-07-24,1,,,,,ファミリー,0
2130,9090003002605,新規,0,2024-07-24,2024-07-24,丹屋合同会社,,合同会社,山梨県,笛吹市,石和町市部１４７番地７,,19,211,4060031,,,,,,,2024-07-24,1,,,,,タンヤ,0
2134,9110001038581,新規,0,2024-07-24,2024-07-24,株式会社Ｇｒｅｅ,,株式会社,新潟県,十日町市,川治４２０９番地,,15,210,9480036,,,,,,,2024-07-24,1,,,,,グリー,0
2148,9120001266751,新規,0,2024-07-24,2024-07-24,Ｗ．ＳＨＡＲＥ株式会社,,株式会社,大阪府,大阪市中央区,平野町１丁目８番１３号平野町八千代ビル５階Ａ,,27,128,5410046,,,,,,,2024-07-24,1,,,,,ダブリュードットシェア,0
2149,9120001266850,新規,0,2024-07-24,2024-07-24,芍藥株式会社,,株式会社,大阪府,大阪市天王寺区,上汐３丁目８番２号ノバカネイチ谷九６０１号,,27,109,5430002,,,,,,,2024-07-24,1,,,,,シャクヤク,0
2150,9120001267015,新規,0,2024-07-24,2024-07-24,株式会社六度永竹,,株式会社,大阪府,大阪市住之江区,新北島２丁目２番２９－４０７号,,27,125,5590024,,,,,,,2024-07-24,1,,,,,ロクドエイチク,0
2151,9120001267048,新規,0,2024-07-24,2024-07-24,不動産買取センター株式会社,,株式会社,大阪府,大阪市港区,南市岡２丁目２番３号１Ｆ,,27,107,5520011,,,,,,,2024-07-24,1,,,,,フドウサンカイトリセンター,0
2152,9120001267064,新規,0,2024-07-24,2024-07-24,建偉株式会社,,株式会社,大阪府,大阪市阿倍野区,天王寺町北１丁目８－１３アキュラメゾン２０４号室,,27,119,5450001,,,,,,,2024-07-24,1,,,,,ケンイ,0
2153,9120001267072,新規,0,2024-07-24,2024-07-24,株式会社ＪＨＤ,,株式会社,大阪府,大阪市東住吉区,矢田４丁目１０－２４,,27,121,5460023,,,,,,,2024-07-24,1,,,,,ジェーエイチディー,0
2155,9120003027094,新規,0,2024-07-24,2024-07-24,合同会社ＰＬＡＮＥＴ,,合同会社,大阪府,大阪市浪速区,浪速西１丁目８番１０－８０５号,,27,111,5560026,,,,,,,2024-07-24,1,,,,,プラネット,0
2156,9120003027111,新規,0,2024-07-24,2024-07-24,合同会社Ｔｏｇｅｔｈｅｒ,,合同会社,大阪府,大阪市生野区,巽南５丁目１４－１４－２０２,00135676,27,116,5440015,,,,,,,2024-07-24,1,,,,,トゥギャザー,0
2161,9120101070005,新規,0,2024-07-24,2024-07-24,ＲＯＭ　ＪＡＰＡＮ株式会社,,株式会社,大阪府,泉大津市,なぎさ町２番７－２０３号,,27,206,5950055,,,,,,,2024-07-24,1,,,,,ロムジャパン,0
2162,9120103005958,新規,0,2024-07-24,2024-07-24,Ｒｅｔｒｏ　Ｖ　Ｇａｍｅｓ合同会社,,合同会社,大阪府,南河内郡河南町,大字寛弘寺８８５－２,,27,382,5850035,,,,,,,2024-07-24,1,,,,,レトロブイゲームズ,0
2165,9130001077470,新規,0,2024-07-24,2024-07-24,ＹＫＳ　ＰＲＥＳＳ株式会社,,株式会社,京都府,京都市左京区,岡崎最勝寺町５番地３ザ・京都レジデンス岡崎４０１,,26,103,6068342,,,,,,,2024-07-24,1,,,,,ワイケスプレス,0
2177,9140003020849,新規,0,2024-07-24,2024-07-24,Ａｒｋ　Ｎ合同会社,,合同会社,兵庫県,神戸市中央区,磯辺通１丁目１番２０号,,28,110,6510084,,,,,,,2024-07-24,1,,,,,アークエヌ,0
2178,9140005027157,新規,0,2024-07-24,2024-07-24,一般社団法人Ｓｍｉｌｅ．Ｕｐ,,その他の設立登記法人,兵庫県,西宮市,甲子園口６丁目１６番１２号リッツ甲子園パートＩＩ,00135674,28,204,6638113,,,,,,,2024-07-24,1,,,,,スマイルアップ,0
2192,9180001162441,新規,0,2024-07-24,2024-07-24,株式会社Ｌｉｎｏ,,株式会社,愛知県,名古屋市北区,喜惣治１丁目３０７番地,,23,103,4620065,,,,,,,2024-07-24,1,,,,,リノ,0
2193,9180001162474,新規,0,2024-07-24,2024-07-24,株式会社ｉＳＧ　Ｃｏｍｍｕｎｉｃａｔｉｏｎｓ,,株式会社,愛知県,名古屋市中区,栄３丁目２－３名古屋日興証券ビル４階,,23,106,4600008,,,,,,,2024-07-24,1,,,,,アイエスジーコミュニケーションズ,0
2199,9180301038853,新規,0,2024-07-24,2024-07-24,株式会社ＣＦＰＢ,,株式会社,愛知県,刈谷市,板倉町２丁目５番地１グローリアス刈谷板倉公園３０１,,23,210,4480801,,,,,,,2024-07-24,1,,,,,シーエフピービー,0
2201,9180303006197,新規,0,2024-07-24,2024-07-24,合同会社ＴＡＲＡＲ　ＴＲＡＤＩＮＧ,,合同会社,愛知県,刈谷市,板倉町３丁目８番地９,,23,210,4480801,,,,,,,2024-07-24,1,,,,,タラルトレーディング,0
2205,9200001042731,新規,0,2024-07-24,2024-07-24,株式会社ＧＭサービス,,株式会社,岐阜県,山県市,高木１０８０番地２,,21,215,5012113,,,,,,,2024-07-24,1,,,,,ジーエムサービス,0
2207,9220001026113,新規,0,2024-07-24,2024-07-24,株式会社いまここ,,株式会社,石川県,金沢市,観音堂町ホ４１‐８,,17,201,9200352,,,,,,,2024-07-24,1,,,,,イマココ,0
2226,9290001106478,新規,0,2024-07-24,2024-07-24,株式会社ＹＳＣｏｒｐｏｒａｔｉｏｎ,,株式会社,福岡県,福岡市東区,若宮４丁目４番１６号,,40,131,8130036,,,,,,,2024-07-24,1,,,,,ワイエスコーポレーション,0
2230,9290003015553,新規,0,2024-07-24,2024-07-24,ＷＥＢＡＬＰＨＡ合同会社,,合同会社,福岡県,福津市,中央４丁目１９－８,,40,224,8113217,,,,,,,2024-07-24,1,,,,,ウェブアルファ,0
2233,9290803004788,新規,0,2024-07-24,2024-07-24,合同会社トラスト,,合同会社,福岡県,北九州市小倉南区,田原３丁目１１番１５－２０３号,,40,107,8000225,,,,,,,2024-07-24,1,,,,,トラスト,0
2252,9370001051542,新規,0,2024-07-24,2024-07-24,株式会社ＧＡＴＥ,,株式会社,宮城県,仙台市若林区,卸町２丁目９番地の１,,04,103,9840015,,,,,,,2024-07-24,1,,,,,ゲート,0
2262,9410005006595,新規,0,2024-07-24,2024-07-24,一般社団法人ＫＥＮＢＲＩＤＧＥ,,その他の設立登記法人,秋田県,秋田市,新藤田字高梨台８番地１６,,05,201,0100826,,,,,,,2024-07-24,1,,,,,,0
