sequenceNumber,corporateNumber,process,correct,updateDate,changeDate,name,nameImageId,kind,prefectureName,cityName,streetNumber,addressImageId,prefectureCode,cityCode,postCode,addressOutside,addressOutsideImageId,closeDate,closeCause,successorCorporateNumber,changeCause,assignmentDate,latest,enName,enPrefectureName,enCityName,enAddressOutside,furigana,hihyoji
14,1010401137562,登記記録の閉鎖等,0,2025-09-19,2025-08-20,株式会社ＢＣテクノロジー研究所,,株式会社,東京都,港区,赤坂３丁目１番１６号ＢＩビル７Ｆ,,13,103,1070052,,,2025-08-20,清算の結了等,,,2018-04-06,1,,,,,ビーシーテクノロジーケンキュウジョ,0
38,1010903006604,登記記録の閉鎖等,0,2025-09-19,2025-08-04,合同会社オフィスニレ,,合同会社,東京都,世田谷区,玉川台１丁目２番７－２０６号,,13,112,1580096,,,2025-08-04,清算の結了等,,,2021-06-16,1,,,,,オフィスニレ,0
47,1011003009118,登記記録の閉鎖等,0,2025-09-19,2025-08-20,合同会社ライフバリューパートナー,,合同会社,東京都,渋谷区,神宮前１丁目１５番１３号ファルファーレ原宿,,13,113,1500001,,,2025-08-20,清算の結了等,,,2018-08-31,1,,,,,ライフバリューパートナー,0
54,1011101072067,登記記録の閉鎖等,0,2025-09-19,2025-08-27,株式会社ピープルジャパン,,株式会社,東京都,新宿区,西新宿６丁目１２番１号,,13,104,1600023,,,2025-08-27,清算の結了等,,,2015-10-05,1,,,,,ピープルジャパン,0
63,1011505001737,登記記録の閉鎖等,0,2025-09-19,2025-09-16,一般社団法人こども支援チェルク,,その他の設立登記法人,東京都,葛飾区,亀有５丁目３４番１０－２０１,,13,122,1250061,,,2025-09-16,清算の結了等,,,2015-10-05,1,,,,,コドモシエンチェルク,0
95,1020002058158,登記記録の閉鎖等,0,2025-09-19,2025-09-02,有限会社ソフトタウン,,有限会社,神奈川県,横浜市港北区,菊名７丁目２番２号富士ビル１階,,14,109,2220011,,,2025-09-02,清算の結了等,,,2015-10-05,1,,,,,ソフトタウン,0
106,1030002062324,登記記録の閉鎖等,0,2025-09-19,2025-09-08,有限会社マエダデンキ,,有限会社,埼玉県,富士見市,大字水子６３４番地３１,,11,235,3540011,,,2025-09-08,清算の結了等,,,2015-10-05,1,,,,,マエダデンキ,0
136,1090001008009,登記記録の閉鎖等,0,2025-09-19,2025-09-10,株式会社フジオ精工,,株式会社,山梨県,大月市,初狩町中初狩２４８７番地,,19,206,4010022,,,2025-09-10,清算の結了等,,,2015-10-05,1,,,,,フジオセイコウ,0
139,1110001007404,登記記録の閉鎖等,0,2025-09-19,2025-09-04,株式会社青木製作所,,株式会社,新潟県,新潟市南区,鷲ノ木新田２１６０番地１,,15,106,9501407,,,2025-09-04,清算の結了等,,,2015-10-05,1,,,,,アオキセイサクジョ,0
143,1110002023747,登記記録の閉鎖等,0,2025-09-19,2025-09-05,有限会社綿貫左官工業,,有限会社,新潟県,上越市,東城町１丁目２番３１号,,15,222,9430836,,,2025-09-05,清算の結了等,,,2015-10-05,1,,,,,,0
166,1130001002031,登記記録の閉鎖等,0,2025-09-19,2025-09-10,株式会社明和製作所,,株式会社,京都府,京都市右京区,太秦下角田町１２番地の１,,26,108,6168111,,,2025-09-10,清算の結了等,,,2015-10-05,1,,,,,メイワセイサクショ,0
168,1130002006733,登記記録の閉鎖等,0,2025-09-19,2025-09-11,有限会社榮壽屋,,有限会社,京都府,京都市下京区,四条通大宮東入立中町４７８番地,,26,106,6008490,,,2025-09-11,清算の結了等,,,2015-10-05,1,,,,,エイジュヤ,0
192,1180005014613,登記記録の閉鎖等,0,2025-09-19,2025-09-16,公益財団法人愛知県シルバーサービス振興会,,その他の設立登記法人,愛知県,名古屋市中区,栄２丁目１０番１９号,,23,106,4600008,,,2025-09-16,清算の結了等,,,2015-10-05,1,,,,,アイチケンシルバーサービスシンコウカイ,0
195,1180301024349,登記記録の閉鎖等,0,2025-09-19,2025-09-18,株式会社いころ,,株式会社,愛知県,新城市,字屋敷１０３番地２,,23,221,4411368,,,2025-09-18,清算の結了等,,,2015-10-05,1,,,,,イコロ,0
209,1220005006110,登記記録の閉鎖等,0,2025-09-19,2025-09-17,農事組合法人柳田肉用牛生産組合,,その他の設立登記法人,石川県,鳳珠郡能登町,字当目３１字６９番甲地,,17,463,9280334,,,2025-09-17,清算の結了等,,,2015-10-05,1,,,,,ヤナギダニクヨウギュウセイサンクミアイ,0
210,1240002023701,登記記録の閉鎖等,0,2025-09-19,2025-09-09,有限会社イットワークス,,有限会社,広島県,広島市西区,草津本町５番１７号,,34,104,7330865,,,2025-09-09,清算の結了等,,,2015-10-05,1,,,,,,0
231,1340001014609,登記記録の閉鎖等,0,2025-09-19,2025-09-11,ネオ・オアシス株式会社,,株式会社,鹿児島県,鹿屋市,古前城町５番７号,,46,203,8930001,,,2025-09-11,清算の結了等,,,2015-10-05,1,,,,,ネオオアシス,0
232,1340002010887,登記記録の閉鎖等,0,2025-09-19,2025-09-11,有限会社上東労務管理事務所,,有限会社,鹿児島県,鹿児島市,薬師２丁目２５番２０号,,46,201,8900042,,,2025-09-11,清算の結了等,,,2015-10-05,1,,,,,ウエヒガシロウムカンリジムショ,0
243,1410002005830,登記記録の閉鎖等,0,2025-09-19,2025-09-16,有限会社ファーム,,有限会社,秋田県,南秋田郡五城目町,字上町８３番地,,05,361,0181705,,,2025-09-16,清算の結了等,,,2015-10-05,1,,,,,ファーム,0
247,1440002004029,登記記録の閉鎖等,0,2025-09-19,2025-09-17,有限会社豊栄試錘,,有限会社,北海道,函館市,恵山町４８７番地,,01,202,0410522,,,2025-09-17,清算の結了等,,,2015-10-05,1,,,,,ホウエイシスイ,0
250,1450002011057,登記記録の閉鎖等,0,2025-09-19,2025-09-16,有限会社東洋商事,,有限会社,北海道,稚内市,緑６丁目２７番８号,,01,214,0970004,,,2025-09-16,清算の結了等,,,2015-10-05,1,,,,,トウヨウショウジ,0
253,1490001010535,登記記録の閉鎖等,0,2025-09-19,2025-09-17,株式会社Ｔｏｙｏ　ｆｕｅｌ,,株式会社,高知県,安芸郡東洋町,大字野根丙２７７番地,,39,301,7817301,,,2025-09-17,清算の結了等,,,2023-07-13,1,,,,,トーヨーヒューエル,0
257,1500002008337,登記記録の閉鎖等,0,2025-09-19,2025-09-16,有限会社ゆり美容室,,有限会社,愛媛県,伊予市,灘町１０番地２９,00007867,38,210,7993114,,,2025-09-16,清算の結了等,,,2015-10-05,1,,,,,ユリビヨウシツ,0
263,2010001003123,登記記録の閉鎖等,0,2025-09-19,2025-09-01,株式会社三省堂ブックポート,,株式会社,東京都,文京区,白山２丁目２１番７号,,13,105,1120001,,,2025-09-01,合併による解散等,7010001016830,令和７年９月１日東京都千代田区神田神保町一丁目１番地株式会社三省堂書店（7010001016830）に合併し解散,2015-10-05,1,,,,,サンセイドウブックポート,0
283,2010403033172,登記記録の閉鎖等,0,2025-09-19,2025-08-20,合同会社ＥＮＩＳＨＩ,,合同会社,東京都,港区,浜松町２丁目２番１５号,,13,103,1050013,,,2025-08-20,清算の結了等,,,2024-08-05,1,,,,,エニシ,0
286,2010405017487,登記記録の閉鎖等,0,2025-09-19,2025-08-20,一般社団法人プレストン,,その他の設立登記法人,東京都,港区,新橋４丁目３０番６号京急中はらビル５階,,13,103,1050004,,,2025-08-20,清算の結了等,,,2019-02-27,1,,,,,プレストン,0
288,2010501044765,登記記録の閉鎖等,0,2025-09-19,2025-09-05,株式会社ウエスト,,株式会社,東京都,台東区,千束４丁目１７番８号,,13,106,1110031,,,2025-09-05,清算の結了等,,,2019-10-10,1,,,,,ウエスト,0
298,2010902021495,登記記録の閉鎖等,0,2025-09-19,2025-09-16,有限会社マコテック,,有限会社,東京都,世田谷区,代沢２丁目１２番１号,,13,112,1550032,,,2025-09-16,清算の結了等,,,2015-10-05,1,,,,,マコテック,0
304,2011001161803,登記記録の閉鎖等,0,2025-09-19,2025-08-18,株式会社ｍｏ９,,株式会社,東京都,渋谷区,神宮前６丁目２３番４号桑野ビル２階,,13,113,1500001,,,2025-08-18,清算の結了等,,,2024-05-09,1,,,,,モキュ,0
343,2020003023647,登記記録の閉鎖等,0,2025-09-19,2025-09-02,Ｌｃ　Ｔｅｃｈｎｏ合同会社,,合同会社,神奈川県,横浜市神奈川区,台町７－１２－１０１,,14,102,2210834,,,2025-09-02,清算の結了等,,,2023-04-10,1,,,,,エルシーテクノ,0
356,2030002097294,登記記録の閉鎖等,0,2025-09-19,2025-09-09,有限会社エルガ,,有限会社,埼玉県,比企郡小川町,大字角山２０８番地２,,11,343,3550316,,,2025-09-09,清算の結了等,,,2015-10-05,1,,,,,エルガ,0
363,2040002078244,登記記録の閉鎖等,0,2025-09-19,2025-08-28,有限会社角源電器,,有限会社,千葉県,大網白里市,大網字新宿６８９番,,12,239,2993251,,,2025-08-28,清算の結了等,,,2015-10-05,1,,,,,,0
372,2050005008684,登記記録の閉鎖等,0,2025-09-19,2025-09-04,郡戸村農業會,,その他の設立登記法人,茨城県,常陸太田市,松栄町１０２８番地,,08,212,3130133,,,2025-09-04,清算の結了等,,,2016-07-11,1,,,,,グンドムラノウギョウカイ,0
382,2110001038464,登記記録の閉鎖等,0,2025-09-19,2025-09-04,Ｊコネクト株式会社,,株式会社,新潟県,新潟市西区,流通３丁目１番１０号,,15,107,9501125,,,2025-09-04,清算の結了等,,,2024-06-06,1,,,,,ジェイコネクト,0
390,2120001220277,登記記録の閉鎖等,0,2025-09-19,2025-09-08,株式会社ＴＭＴ,,株式会社,大阪府,大阪市東住吉区,公園南矢田３丁目１－９,,27,121,5460024,,,2025-09-08,清算の結了等,,,2019-04-15,1,,,,,ティーエムティー,0
416,2130002016839,登記記録の閉鎖等,0,2025-09-19,2025-09-10,有限会社中央ビル,,有限会社,京都府,京都市中京区,大宮通四条上る錦大宮町１４０番地,,26,104,6048365,,,2025-09-10,清算の結了等,,,2015-10-05,1,,,,,チュウオウビル,0
441,2180302012715,登記記録の閉鎖等,0,2025-09-19,2025-09-18,アイキューフーズ有限会社,,有限会社,愛知県,豊川市,新豊町１丁目１０６番地,,23,207,4420012,,,2025-09-18,清算の結了等,,,2015-10-05,1,,,,,,0
443,2180305001079,登記記録の閉鎖等,0,2025-09-19,2025-09-05,特定非営利活動法人まるい,,その他の設立登記法人,愛知県,岡崎市,井田町字４丁目１３０番地,,23,202,4440076,,,2025-09-05,清算の結了等,,,2015-10-05,1,,,,,マルイ,0
452,2230001005080,登記記録の閉鎖等,0,2025-09-19,2025-09-12,株式会社ヒラバヤシ,,株式会社,富山県,富山市,婦中町萩島７５５番地,,16,201,9392723,,,2025-09-12,清算の結了等,,,2015-10-05,1,,,,,ヒラバヤシ,0
463,2290001047027,登記記録の閉鎖等,0,2025-09-19,2025-08-22,株式会社スプレンド,,株式会社,福岡県,福岡市中央区,天神３丁目８番１１号,,40,133,8100001,,,2025-08-22,清算の結了等,,,2015-10-05,1,,,,,スプレンド,0
464,2290001049254,登記記録の閉鎖等,0,2025-09-19,2025-08-26,株式会社とどろき,,株式会社,福岡県,久留米市,篠山町１７９番地３,,40,203,8300021,,,2025-08-26,清算の結了等,,,2015-10-05,1,,,,,トドロキ,0
465,2290001097393,登記記録の閉鎖等,0,2025-09-19,2025-08-22,株式会社ぬくもりの家,,株式会社,福岡県,福岡市南区,弥永２丁目９番２４号,,40,134,8111323,,,2025-08-22,清算の結了等,,,2022-05-02,1,,,,,ヌクモリノイエ,0
468,2290002050756,登記記録の閉鎖等,0,2025-09-19,2025-08-18,株式会社ＡＦＦＥＣＴ,,株式会社,福岡県,久留米市,山川町１６６２番地１,,40,203,8390817,,,2025-08-18,合併による解散等,9290001048836,令和７年８月１日福岡県久留米市山川町１６６１番地１株式会社小林建設（9290001048836）に合併し解散,2015-10-05,1,,,,,アフェクト,0
472,2290802013053,登記記録の閉鎖等,0,2025-09-19,2025-09-17,八幡くろがね調味有限会社,,有限会社,福岡県,北九州市八幡東区,豊町６番６号,,40,108,8050044,,,2025-09-17,清算の結了等,,,2015-10-05,1,,,,,ヤハタクロガネチョウミ,0
493,2370505000027,登記記録の閉鎖等,0,2025-09-19,2025-09-03,学校法人少林寺学園,,その他の設立登記法人,宮城県,気仙沼市,三日町２丁目３番２号,,04,205,9880085,,,2025-09-03,清算の結了等,,,2015-10-05,1,,,,,ショウリンジガクエン,0
504,2430002049172,登記記録の閉鎖等,0,2025-09-19,2025-09-01,有限会社大平商店,,有限会社,北海道,岩見沢市,北四条西１０丁目４番６号,,01,210,0680044,,,2025-09-01,清算の結了等,,,2015-10-05,1,,,,,オオヒラショウテン,0
524,3010001020588,登記記録の閉鎖等,0,2025-09-19,2025-09-16,清和産業株式会社,,株式会社,東京都,葛飾区,堀切３丁目７番４号清和ビル,,13,122,1240006,,,2025-09-16,清算の結了等,,,2015-10-05,1,,,,,セイワサンギョウ,0
552,3010701012216,登記記録の閉鎖等,0,2025-09-19,2025-08-26,ドラゴンハープタイルジャパン株式会社,,株式会社,千葉県,松戸市,北松戸１丁目８番地１０,,12,207,2710063,,,2025-08-26,清算の結了等,,,2015-10-05,1,,,,,ドラゴンハープタイルジャパン,0
603,3012402021561,登記記録の閉鎖等,0,2025-09-19,2025-09-11,有限会社インフォベース,,有限会社,東京都,武蔵野市,関前３丁目２０番８号,,13,203,1800014,,,2025-09-11,清算の結了等,,,2015-10-05,1,,,,,インフォベース,0
608,3013301047986,登記記録の閉鎖等,0,2025-09-19,2025-08-21,株式会社フライトフォレスト,,株式会社,東京都,渋谷区,東１丁目８番３号トキワマツユープレイス１０１,,13,113,1500011,,,2025-08-21,清算の結了等,,,2021-09-07,1,,,,,フライトフォレスト,0
634,3030003009735,登記記録の閉鎖等,0,2025-09-19,2025-09-09,合同会社Ｓｋｙｍａｒｅ,,合同会社,埼玉県,北葛飾郡松伏町,大字松伏２２４９番地ラ・パンセ２０３,,11,465,3430111,,,2025-09-09,清算の結了等,,,2017-01-10,1,,,,,スカイマーレ,0
657,3100005001187,登記記録の閉鎖等,0,2025-09-19,2025-09-11,更北有線放送電話農業協同組合,,その他の設立登記法人,長野県,長野市,青木島町大塚８９１番地,,20,201,3812205,,,2025-09-11,清算の結了等,,,2015-10-05,1,,,,,コウホクユウセンホウソウデンワ,0
668,3120001219376,登記記録の閉鎖等,0,2025-09-19,2025-09-08,株式会社バダス,,株式会社,大阪府,大阪市北区,天神橋３丁目２番１０号スリージェ南森町ビル７階,,27,127,5300041,,,2025-09-08,清算の結了等,,,2019-03-07,1,,,,,バダス,0
706,3140001055753,登記記録の閉鎖等,0,2025-09-19,2025-09-11,株式会社ＨＡＲＵＲＵ,,株式会社,兵庫県,尼崎市,富松町４丁目２２番２８号,,28,202,6610003,,,2025-09-11,清算の結了等,,,2015-10-05,1,,,,,ハルル,0
708,3140001115623,登記記録の閉鎖等,0,2025-09-19,2025-09-12,インプロティ株式会社,,株式会社,兵庫県,西宮市,上甲子園４丁目３番４号,,28,204,6638114,,,2025-09-12,清算の結了等,,,2019-11-26,1,,,,,インプロティ,0
709,3140002006953,登記記録の閉鎖等,0,2025-09-19,2025-09-11,有限会社アワタ印刷,,有限会社,兵庫県,神戸市須磨区,禅昌寺町１丁目４番１号,,28,107,6540001,,,2025-09-11,清算の結了等,,,2015-10-05,1,,,,,アワタインサツ,0
713,3140005018847,登記記録の閉鎖等,0,2025-09-19,2025-09-11,特定非営利活動法人ポレ・ポレ,,その他の設立登記法人,兵庫県,宝塚市,社町１番６号,,28,214,6650071,,,2025-09-11,清算の結了等,,,2015-10-05,1,,,,,ポレポレ,0
744,3200001042266,登記記録の閉鎖等,0,2025-09-19,2025-09-16,株式会社高山グリーンエナジー,,株式会社,岐阜県,高山市,松之木町１５８２番地,,21,203,5060802,,,2025-09-16,清算の結了等,,,2024-03-19,1,,,,,タカヤマグリーンエナジー,0
764,3270002002881,登記記録の閉鎖等,0,2025-09-19,2025-09-19,有限会社オフィステラサカ,,有限会社,鳥取県,鳥取市,西町３丁目１０５番地サーパス西町７０２号,,31,201,6800022,,,2025-09-19,清算の結了等,,,2015-10-05,1,,,,,オフィステラサカ,0
767,3290001033950,登記記録の閉鎖等,0,2025-09-19,2025-08-22,株式会社リックスプランニング,,株式会社,福岡県,福岡市東区,多の津４丁目５番１３号スギヤマビル１Ｆ,,40,131,8130034,,,2025-08-22,清算の結了等,,,2015-10-05,1,,,,,リックスプランニング,0
773,3290002008407,登記記録の閉鎖等,0,2025-09-19,2025-08-22,有限会社竹田テント,,有限会社,福岡県,福岡市早良区,田村４丁目１７番１６号,,40,137,8140175,,,2025-08-22,清算の結了等,,,2015-10-05,1,,,,,タケダテント,0
774,3290002017589,登記記録の閉鎖等,0,2025-09-19,2025-08-25,有限会社まるい,,有限会社,福岡県,福岡市南区,市崎２丁目１５番７号,,40,134,8150084,,,2025-08-25,清算の結了等,,,2015-10-05,1,,,,,マルイ,0
782,3330001009302,登記記録の閉鎖等,0,2025-09-19,2025-09-05,株式会社クリア,,株式会社,熊本県,合志市,須屋１９８３番地７,,43,216,8611102,,,2025-09-05,清算の結了等,,,2015-10-05,1,,,,,クリア,0
783,3330001033153,登記記録の閉鎖等,0,2025-09-19,2025-09-08,株式会社いちごいろ,,株式会社,熊本県,熊本市東区,広木町２２番４５号エントピアレークタウンＢ－１０２号室,,43,102,8620906,,,2025-09-08,清算の結了等,,,2025-05-02,1,,,,,イチゴイロ,0
797,3380001013092,登記記録の閉鎖等,0,2025-09-19,2025-09-05,ジュシ総合設備株式会社,,株式会社,福島県,いわき市,小名浜南富岡字富士前３８番地１,,07,204,9718112,,,2025-09-05,清算の結了等,,,2015-10-05,1,,,,,ジュシソウゴウセツビ,0
812,3420002005935,登記記録の閉鎖等,0,2025-09-19,2025-09-11,有限会社青森カシマソフトウェア,,有限会社,青森県,八戸市,売市３丁目７番２６号,,02,203,0310073,,,2025-09-11,合併による解散等,9013401005343,令和７年９月１日川崎市川崎区小島町６番地２大陽日酸ＡＴＩ株式会社（9013401005343）に合併し解散,2015-10-05,1,,,,,アオモリカシマソフトウェア,0
825,4010001058116,登記記録の閉鎖等,0,2025-09-19,2025-08-28,株式会社三吉や,,株式会社,東京都,中央区,日本橋室町４丁目３番４号,,13,102,1030022,,,2025-08-28,清算の結了等,,,2015-10-05,1,,,,,ミヨシヤ,0
833,4010005022489,登記記録の閉鎖等,0,2025-09-19,2025-09-03,Ｕｅｎｏ　Ｈｏｔｅｌ特定目的会社,,その他の設立登記法人,東京都,千代田区,丸の内１丁目４番１号東京共同会計事務所内,,13,101,1000005,,,2025-09-03,清算の結了等,,,2015-10-05,1,,,,,ウエノホテル,0
862,4011002019180,登記記録の閉鎖等,0,2025-09-19,2025-08-21,有限会社アートスタッフ,,有限会社,東京都,渋谷区,幡ヶ谷１丁目３３番２号,,13,113,1510072,,,2025-08-21,清算の結了等,,,2015-10-05,1,,,,,,0
876,4011103009527,登記記録の閉鎖等,0,2025-09-19,2025-08-27,プロセススマートテック合同会社,,合同会社,東京都,新宿区,新宿２丁目１２番１３号,,13,104,1600022,,,2025-08-27,清算の結了等,,,2020-03-16,1,,,,,プロセススマートテック,0
901,4020001008318,登記記録の閉鎖等,0,2025-09-19,2025-09-02,株式会社エイム,,株式会社,神奈川県,川崎市宮前区,鷺沼４丁目１番１号２Ｆ,,14,136,2160004,,,2025-09-02,清算の結了等,,,2015-10-05,1,,,,,エイム,0
917,4030002108215,登記記録の閉鎖等,0,2025-09-19,2025-09-04,有限会社ヨシダ工業,,有限会社,埼玉県,川口市,中青木５丁目１５番４号,,11,203,3320032,,,2025-09-04,清算の結了等,,,2015-10-05,1,,,,,ヨシダコウギョウ,0
932,4070001016695,登記記録の閉鎖等,0,2025-09-19,2025-09-11,株式会社山嘉,,株式会社,群馬県,桐生市,新宿２丁目５番３０号,,10,203,3760006,,,2025-09-11,清算の結了等,,,2015-10-05,1,,,,,ヤマカ,0
945,4100002014703,登記記録の閉鎖等,0,2025-09-19,2025-09-12,有限会社プラネット,,有限会社,長野県,上田市,上塩尻１１６番地３,,20,203,3860042,,,2025-09-12,清算の結了等,,,2015-10-05,1,,,,,プラネット,0
984,4130001064639,登記記録の閉鎖等,0,2025-09-19,2025-09-16,株式会社ＨＹＯ－ＳＨＯ,,株式会社,京都府,京都市西京区,樫原庭井９－１,,26,111,6158132,,,2025-09-16,清算の結了等,,,2019-06-05,1,,,,,ヒョウショウ,0
987,4130003003842,登記記録の閉鎖等,0,2025-09-19,2025-09-12,合同会社ドルサテック,,合同会社,京都府,京都市北区,小山下初音町５１番地,,26,101,6038173,,,2025-09-12,清算の結了等,,,2015-10-05,1,,,,,ドルサテック,0
1017,4220001024955,登記記録の閉鎖等,0,2025-09-19,2025-09-17,株式会社ナイスフーズ,,株式会社,石川県,金沢市,片町２丁目５番８号勝田ビル４Ｆ,,17,201,9200981,,,2025-09-17,清算の結了等,,,2022-07-14,1,,,,,ナイスフーズ,0
1019,4230003002140,登記記録の閉鎖等,0,2025-09-19,2025-09-12,ＮＲ工業合同会社,,合同会社,富山県,射水市,太閤山１丁目７番地２０,,16,211,9390362,,,2025-09-12,清算の結了等,,,2024-01-29,1,,,,,エヌアールコウギョウ,0
1026,4290001083292,登記記録の閉鎖等,0,2025-09-19,2025-08-18,株式会社小林建設ホールディングス,,株式会社,福岡県,久留米市,山川町１６６１番地１,,40,203,8390817,,,2025-08-18,合併による解散等,9290001048836,令和７年８月１日福岡県久留米市山川町１６６１番地１株式会社小林建設（9290001048836）に合併し解散,2018-11-12,1,,,,,コバヤシケンセツホールディングス,0
1036,4290003006557,登記記録の閉鎖等,0,2025-09-19,2025-08-13,フリートレック・ワークス合同会社,,合同会社,福岡県,古賀市,花鶴丘３丁目１０番１５２,,40,223,8113104,,,2025-08-13,清算の結了等,,,2016-07-08,1,,,,,フリートレックワークス,0
1046,4340001018152,登記記録の閉鎖等,0,2025-09-19,2025-09-09,株式会社常清ｍａｉｎ　ｏｆｆｉｃｅ,,株式会社,鹿児島県,鹿児島市,紫原４丁目４番２号,,46,201,8900082,,,2025-09-09,清算の結了等,,,2015-10-05,1,,,,,ジョウセイメインオフィス,0
1055,4390001011961,登記記録の閉鎖等,0,2025-09-19,2025-09-16,株式会社芳村屋商店,,株式会社,山形県,寒河江市,八幡町１番８号,,06,206,9910025,,,2025-09-16,清算の結了等,,,2015-10-05,1,,,,,ヨシムラヤショウテン,0
1056,4400001007289,登記記録の閉鎖等,0,2025-09-19,2025-09-03,岩手総合住宅株式会社,,株式会社,岩手県,釜石市,定内町３丁目１２番３９号,,03,211,0260053,,,2025-09-03,清算の結了等,,,2015-10-05,1,,,,,イワテソウゴウジュウタク,0
1057,4402701000218,登記記録の閉鎖等,0,2025-09-19,2025-09-08,株式会社まるよ,,株式会社,岩手県,大船渡市,盛町字木町９番地１,,03,203,0220003,,,2025-09-08,清算の結了等,,,2015-10-05,1,,,,,マルヨ,0
1062,4430002062396,登記記録の閉鎖等,0,2025-09-19,2025-09-01,有限会社マルミ防災設備,,有限会社,北海道,浦河郡浦河町,字井寒台１１４番地の１,,01,607,0570035,,,2025-09-01,清算の結了等,,,2015-10-05,1,,,,,マルミボウサイセツビ,0
1072,5010001146381,登記記録の閉鎖等,0,2025-09-19,2025-08-20,ニューロ株式会社,,株式会社,東京都,渋谷区,恵比寿南１丁目２０番６号,,13,113,1500022,,,2025-08-20,清算の結了等,,,2015-10-05,1,,,,,ニューロ,0
1080,5010005027660,登記記録の閉鎖等,0,2025-09-19,2025-09-03,一般社団法人イソノ,,その他の設立登記法人,東京都,文京区,本駒込６丁目１１番２２号,,13,105,1130021,,,2025-09-03,清算の結了等,,,2017-10-31,1,,,,,イソノ,0
1102,5010702007948,登記記録の閉鎖等,0,2025-09-19,2025-09-08,株式会社ミカド・ユニ,,株式会社,東京都,品川区,平塚２丁目５番８号,,13,109,1420051,,,2025-09-08,清算の結了等,,,2015-10-05,1,,,,,ミカドユニ,0
1131,5011801021336,登記記録の閉鎖等,0,2025-09-19,2025-09-12,株式会社小坂建築設計事務所,,株式会社,東京都,足立区,西新井５丁目８番５号,,13,121,1230841,,,2025-09-12,清算の結了等,,,2015-10-05,1,,,,,コサカケンチクセッケイジムショ,0
1149,5021002000320,登記記録の閉鎖等,0,2025-09-19,2025-09-10,有限会社阿部タイル店,,有限会社,神奈川県,藤沢市,羽鳥１丁目５番１０号,,14,205,2510056,,,2025-09-10,清算の結了等,,,2015-10-05,1,,,,,アベタイルテン,0
1150,5021003004477,登記記録の閉鎖等,0,2025-09-19,2025-09-18,合同会社ＪＳグローバルフード,,合同会社,神奈川県,小田原市,入生田１６５番地,,14,206,2500031,,,2025-09-18,清算の結了等,,,2015-10-05,1,,,,,ジェイエスグローバルフード,0
1174,5050002031620,登記記録の閉鎖等,0,2025-09-19,2025-09-08,有限会社和晃住設,,有限会社,茨城県,日立市,千石町３丁目１６番４号,,08,202,3160013,,,2025-09-08,清算の結了等,,,2015-10-05,1,,,,,ワコウジュウセツ,0
1176,5060001010335,登記記録の閉鎖等,0,2025-09-19,2025-09-11,鹿沼レストラン株式会社,,株式会社,栃木県,鹿沼市,さつき町１５番地,,09,205,3220014,,,2025-09-11,清算の結了等,,,2015-10-05,1,,,,,カヌマレストラン,0
1184,5070001022429,登記記録の閉鎖等,0,2025-09-19,2025-09-12,株式会社相進産業,,株式会社,群馬県,太田市,末広町５４７番地１４,,10,205,3730862,,,2025-09-12,清算の結了等,,,2015-10-05,1,,,,,アイシンサンギョウ,0
1190,5080401021070,登記記録の閉鎖等,0,2025-09-19,2025-09-11,株式会社上村,,株式会社,静岡県,浜松市中央区,高丘西３丁目２９番１０号,,22,138,4338118,,,2025-09-11,清算の結了等,,,2015-10-05,1,,,,,カミムラ,0
1197,5110001002500,登記記録の閉鎖等,0,2025-09-19,2025-09-04,信善ビル株式会社,,株式会社,新潟県,新潟市中央区,信濃町２番１０号,,15,103,9518152,,,2025-09-04,清算の結了等,,,2015-10-05,1,,,,,シンゼンビル,0
1223,5130001006490,登記記録の閉鎖等,0,2025-09-19,2025-09-11,株式会社三輝,,株式会社,京都府,京都市左京区,一乗寺薬師堂町２４番地の９,,26,103,6068155,,,2025-09-11,清算の結了等,,,2015-10-05,1,,,,,サンキ,0
1260,5240002001637,登記記録の閉鎖等,0,2025-09-19,2025-09-12,有限会社岩田組工業,,有限会社,広島県,広島市安佐北区,深川４丁目１４番２号,,34,106,7391751,,,2025-09-12,清算の結了等,,,2015-10-05,1,,,,,イワタグミコウギョウ,0
1269,5300001014195,登記記録の閉鎖等,0,2025-09-19,2025-09-16,株式会社優良産業,,株式会社,佐賀県,唐津市,浦５４６１番地３,,41,202,8470124,,,2025-09-16,清算の結了等,,,2025-05-27,1,,,,,ユラサンギョウ,0
1273,5320005004397,登記記録の閉鎖等,0,2025-09-19,2025-09-18,豊後建設業協同組合,,その他の設立登記法人,大分県,杵築市,大字日野字新宮２３８９番地の１,,44,210,8730013,,,2025-09-18,清算の結了等,,,2015-10-05,1,,,,,ブンゴケンセツギョウ,0
1293,5430001046820,登記記録の閉鎖等,0,2025-09-19,2025-09-01,昭和ハイヤー株式会社,,株式会社,北海道,美唄市,字光珠内６５２番地２６,,01,215,0720000,,,2025-09-01,清算の結了等,,,2015-10-05,1,,,,,ショウワハイヤー,0
1295,5460002002893,登記記録の閉鎖等,0,2025-09-19,2025-09-16,丸五漁業有限会社,,有限会社,北海道,釧路市,宝町５番１３号,,01,206,0850025,,,2025-09-16,清算の結了等,,,2015-10-05,1,,,,,,0
1298,5490002004549,登記記録の閉鎖等,0,2025-09-19,2025-09-16,有限会社ブティックまちだ,,有限会社,高知県,高知市,鴨部９７３番地４,,39,201,7808050,,,2025-09-16,清算の結了等,,,2015-10-05,1,,,,,ブティックマチダ,0
1299,5500002004646,登記記録の閉鎖等,0,2025-09-19,2025-09-18,有限会社ドゥー・サポート,,有限会社,愛媛県,松山市,本町２丁目４番地２０,,38,201,7900811,,,2025-09-18,清算の結了等,,,2015-10-05,1,,,,,ドゥーサポート,0
1305,6010002006047,登記記録の閉鎖等,0,2025-09-19,2025-09-01,有限会社メガネオプト,,有限会社,東京都,文京区,本郷２丁目３０番１４－２０７号,,13,105,1130033,,,2025-09-01,合併による解散等,1010001103097,令和７年８月３１日東京都文京区本郷二丁目３０番１４－２０７号株式会社アイケア（1010001103097）に合併し解散,2015-10-05,1,,,,,メガネオプト,0
1344,6011303002866,登記記録の閉鎖等,0,2025-09-19,2025-09-16,合同会社稲葉,,合同会社,東京都,杉並区,天沼２丁目３６番２４号,,13,115,1670032,,,2025-09-16,清算の結了等,,,2017-11-29,1,,,,,イナバ,0
1362,6020001090413,登記記録の閉鎖等,0,2025-09-19,2025-09-11,株式会社パートナー,,株式会社,神奈川県,大和市,南林間６丁目１番１３－２号,,14,213,2420006,,,2025-09-11,清算の結了等,,,2015-10-05,1,,,,,パートナー,0
1386,6040001039235,登記記録の閉鎖等,0,2025-09-19,2025-08-25,株式会社一成,,株式会社,千葉県,松戸市,上本郷３１１８番地の４,,12,207,2710064,,,2025-08-25,清算の結了等,,,2015-10-05,1,,,,,イッセイ,0
1398,6060001006183,登記記録の閉鎖等,0,2025-09-19,2025-09-09,株式会社ビジネスホームサービス,,株式会社,栃木県,塩谷郡高根沢町,大字宝積寺２２４１番地１,,09,386,3291233,,,2025-09-09,合併による解散等,5060001011993,令和７年９月１日栃木県那須塩原市太夫塚一丁目１９５番地株式会社三和住宅（5060001011993）に合併し解散,2015-10-05,1,,,,,ビジネスホームサービス,0
1405,6080102009752,登記記録の閉鎖等,0,2025-09-19,2025-09-16,有限会社大滝建設,,有限会社,静岡県,三島市,長伏２番地の４,,22,206,4110824,,,2025-09-16,清算の結了等,,,2015-10-05,1,,,,,オオタキケンセツ,0
1407,6080401024650,登記記録の閉鎖等,0,2025-09-19,2025-09-11,株式会社ｃｏｕｌｅｕｒ　ｉｎｄｏｃｈｉｎｅ,,株式会社,静岡県,浜松市中央区,田町２２３番地の２１ビオラ田町３Ｆ,,22,138,4300944,,,2025-09-11,清算の結了等,,,2020-11-10,1,,,,,クラールインドシン,0
1409,6100001005008,登記記録の閉鎖等,0,2025-09-19,2025-09-12,株式会社イセダイ,,株式会社,長野県,長野市,伊勢宮１丁目２０番１６号,,20,201,3800958,,,2025-09-12,清算の結了等,,,2015-10-05,1,,,,,イセダイ,0
1414,6110001013348,登記記録の閉鎖等,0,2025-09-19,2025-09-05,株式会社熊倉工業,,株式会社,新潟県,胎内市,星の宮町４番１５号,,15,227,9592636,,,2025-09-05,清算の結了等,,,2015-10-05,1,,,,,クマクラコウギョウ,0
1419,6110003002349,登記記録の閉鎖等,0,2025-09-19,2025-09-04,合資会社持吉鉄工所,,合資会社,新潟県,魚沼市,山口２７１番地,,15,225,9460115,,,2025-09-04,清算の結了等,,,2015-10-05,1,,,,,モチヨシテッコウジョ,0
1420,6120001128855,登記記録の閉鎖等,0,2025-09-19,2025-09-11,株式会社フジトレーディング,,株式会社,滋賀県,高島市,今津町浜分８８番地５１,,25,212,5201604,,,2025-09-11,清算の結了等,,,2015-10-05,1,,,,,フジトレーディング,0
1443,6130001045926,登記記録の閉鎖等,0,2025-09-19,2025-09-12,株式会社一幸堂,,株式会社,京都府,宮津市,字小寺７９４番地,,26,205,6260075,,,2025-09-12,清算の結了等,,,2015-10-05,1,,,,,イッコウドウ,0
1444,6130001064174,登記記録の閉鎖等,0,2025-09-19,2025-09-12,株式会社ＪＥＳＳ,,株式会社,京都府,京都市中京区,壬生相合町２５番４の１０１,,26,104,6048812,,,2025-09-12,清算の結了等,,,2019-03-27,1,,,,,ジェス,0
1475,6210001017289,登記記録の閉鎖等,0,2025-09-19,2025-09-17,ＦＵＬＬ　ＦＯＲＣＥ株式会社,,株式会社,福井県,福井市,大宮５丁目１２番３１号,,18,201,9100016,,,2025-09-17,清算の結了等,,,2018-09-20,1,,,,,フルフォース,0
1486,6260003002326,登記記録の閉鎖等,0,2025-09-19,2025-09-04,合同会社スカラトーレ,,合同会社,岡山県,岡山市北区,奥田２丁目６番３２号,,33,101,7000933,,,2025-09-04,清算の結了等,,,2017-08-03,1,,,,,スカラトーレ,0
1496,6300001008700,登記記録の閉鎖等,0,2025-09-19,2025-09-11,株式会社クロカワ,,株式会社,佐賀県,伊万里市,二里町八谷搦６２７番地６,,41,205,8480031,,,2025-09-11,清算の結了等,,,2015-10-05,1,,,,,クロカワ,0
1506,6330002000059,登記記録の閉鎖等,0,2025-09-19,2025-09-05,有限会社アオキ管財,,有限会社,熊本県,熊本市東区,長嶺東２丁目１４番１２号,,43,102,8618038,,,2025-09-05,清算の結了等,,,2015-10-05,1,,,,,アオキカンザイ,0
1507,6330002012715,登記記録の閉鎖等,0,2025-09-19,2025-09-05,有限会社松村保険事務所,,有限会社,熊本県,熊本市東区,八反田３丁目１番３２号,,43,102,8618034,,,2025-09-05,清算の結了等,,,2015-10-05,1,,,,,マツムラホケンジムショ,0
1514,6360001034476,登記記録の閉鎖等,0,2025-09-19,2025-09-10,株式会社あ・い・う・え本舗,,株式会社,沖縄県,名護市,字饒平名７３７番地２,,47,209,9051632,,,2025-09-10,清算の結了等,,,2024-11-26,1,,,,,アイウエホンポ,0
1530,6430001001923,登記記録の閉鎖等,0,2025-09-19,2025-09-01,ウエノ機材株式会社,,株式会社,北海道,札幌市西区,発寒十四条１４丁目１番１０号,,01,107,0630834,,,2025-09-01,清算の結了等,,,2015-10-05,1,,,,,ウエノキザイ,0
1535,6430002051554,登記記録の閉鎖等,0,2025-09-19,2025-09-01,有限会社テスコ,,有限会社,北海道,空知郡南幌町,南１０線西１４番地,,01,423,0690210,,,2025-09-01,合併による解散等,5430001009810,令和７年９月１日札幌市西区琴似一条三丁目１番３３号ダイアックス株式会社（5430001009810）に合併し解散,2015-10-05,1,,,,,テスコ,0
1537,6440002001277,登記記録の閉鎖等,0,2025-09-19,2025-09-12,有限会社木村印判店,,有限会社,北海道,函館市,松風町６番１２号,,01,202,0400035,,,2025-09-12,清算の結了等,,,2015-10-05,1,,,,,キムラインバンテン,0
1550,7010001245941,登記記録の閉鎖等,0,2025-09-19,2025-08-25,株式会社ｌｕｍｉｐｏｒｔ,,株式会社,東京都,中央区,銀座１丁目１２－４Ｎ＆Ｅ－ＢＬＤ．７階,,13,102,1040061,,,2025-08-25,清算の結了等,,,2024-06-20,1,,,,,ルミポート,0
1551,7010002007556,登記記録の閉鎖等,0,2025-09-19,2025-09-01,有限会社インパルス,,有限会社,東京都,千代田区,外神田１丁目１５番１６号,,13,101,1010021,,,2025-09-01,清算の結了等,,,2015-10-05,1,,,,,インパルス,0
1564,7010501015588,登記記録の閉鎖等,0,2025-09-19,2025-09-08,株式会社トモエ紙工社,,株式会社,東京都,品川区,北品川１丁目１１番６号ＴＹビル,,13,109,1400001,,,2025-09-08,清算の結了等,,,2015-10-05,1,,,,,トモエカミコウシャ,0
1565,7010602025461,登記記録の閉鎖等,0,2025-09-19,2025-08-26,有限会社サービスネットワーク,,有限会社,千葉県,いすみ市,大原３３９９番地,,12,238,2980004,,,2025-08-26,清算の結了等,,,2015-10-05,1,,,,,サービスネットワーク,0
1586,7011502000661,登記記録の閉鎖等,0,2025-09-19,2025-09-16,有限会社岩崎紙工所,00055748,有限会社,東京都,北区,田端新町１丁目６番８号,,13,117,1140012,,,2025-09-16,清算の結了等,,,2015-10-05,1,,,,,イワサキシコウショ,0
1596,7012801000476,登記記録の閉鎖等,0,2025-09-19,2025-09-03,株式会社小金井工業,,株式会社,東京都,立川市,錦町１丁目６番１７号,,13,202,1900022,,,2025-09-03,清算の結了等,,,2015-10-05,1,,,,,コガネイコウギョウ,0
1600,7020001145562,登記記録の閉鎖等,0,2025-09-19,2025-09-02,株式会社サンセイホールディングス,,株式会社,神奈川県,横浜市磯子区,岡村４丁目５番１６号,,14,107,2350021,,,2025-09-02,合併による解散等,2020001120842,令和７年９月２日横浜市磯子区岡村四丁目５番１６号株式会社ニュー＆ネクスト（2020001120842）に合併し解散,2022-03-08,1,,,,,サンセイホールディングス,0
1616,7040001031752,登記記録の閉鎖等,0,2025-09-19,2025-08-26,アスター株式会社,,株式会社,千葉県,浦安市,入船４丁目６番１２号,,12,227,2790012,,,2025-08-26,清算の結了等,,,2015-10-05,1,,,,,アスター,0
1621,7040002005409,登記記録の閉鎖等,0,2025-09-19,2025-08-25,有限会社市東設備,,有限会社,千葉県,千葉市緑区,東山科町７番４２,,12,105,2660001,,,2025-08-25,清算の結了等,,,2015-10-05,1,,,,,シトウセツビ,0
1628,7050002009664,登記記録の閉鎖等,0,2025-09-19,2025-09-09,有限会社ヒーリングネットワーク,,有限会社,茨城県,ひたちなか市,青葉町１２番３３号,,08,221,3120056,,,2025-09-09,清算の結了等,,,2015-10-05,1,,,,,ヒーリングネットワーク,0
1629,7050002037888,登記記録の閉鎖等,0,2025-09-19,2025-09-08,有限会社福田管工,,有限会社,茨城県,牛久市,さくら台１丁目６８番地１０,,08,219,3001217,,,2025-09-08,清算の結了等,,,2015-10-05,1,,,,,フクダカンコウ,0
1634,7070001034109,登記記録の閉鎖等,0,2025-09-19,2025-09-11,株式会社エム・アイフレッシュ工房,,株式会社,群馬県,前橋市,野中町７６番地３,,10,201,3792166,,,2025-09-11,合併による解散等,9070001032614,令和７年８月２８日群馬県前橋市野中町７６番地３株式会社志村商事（9070001032614）に合併し解散,2017-11-07,1,,,,,,0
1635,7070005006483,登記記録の閉鎖等,0,2025-09-19,2025-09-11,一般社団法人群馬東部読売会,,その他の設立登記法人,群馬県,太田市,八重笠町３６１番地１,,10,205,3730805,,,2025-09-11,清算の結了等,,,2015-10-05,1,,,,,グンマトウブヨミウリカイ,0
1636,7080001020347,登記記録の閉鎖等,0,2025-09-19,2025-09-10,株式会社ＳＧ・Ｂａｎｇ　Ｂｏパワーホールディング,,株式会社,静岡県,静岡市駿河区,八幡１丁目５番３８号,,22,102,4228076,,,2025-09-10,清算の結了等,,,2015-10-05,1,,,,,エスジーバンボーパワーホールディング,0
1641,7080402009939,登記記録の閉鎖等,0,2025-09-19,2025-09-11,有限会社加藤鮮魚店,,有限会社,静岡県,浜松市中央区,舞阪町舞阪１９４１番地,,22,138,4310211,,,2025-09-11,清算の結了等,,,2015-10-05,1,,,,,カトウセンギョテン,0
1642,7080405001455,登記記録の閉鎖等,0,2025-09-19,2025-09-12,医療法人社団仁壽会,,その他の設立登記法人,静岡県,浜松市中央区,篠原町２０８９５番地,,22,138,4310201,,,2025-09-12,清算の結了等,,,2015-10-05,1,,,,,ジンジュカイ,0
1646,7110002015326,登記記録の閉鎖等,0,2025-09-19,2025-09-04,有限会社とやだ金物店,,有限会社,新潟県,北蒲原郡聖籠町,大字大夫２１３４番地の２,,15,307,9570121,,,2025-09-04,清算の結了等,,,2015-10-05,1,,,,,トヤダカナモノテン,0
1647,7120001030036,登記記録の閉鎖等,0,2025-09-19,2025-09-08,株式会社ユーキ,,株式会社,大阪府,大阪市港区,市岡３丁目１２番１７号,,27,107,5520012,,,2025-09-08,清算の結了等,,,2015-10-05,1,,,,,ユーキ,0
1668,7120101021661,登記記録の閉鎖等,0,2025-09-19,2025-09-08,株式会社トライアル,,株式会社,大阪府,堺市美原区,小寺７５６番地,,27,147,5870065,,,2025-09-08,清算の結了等,,,2015-10-05,1,,,,,トライアル,0
1670,7120101065766,登記記録の閉鎖等,0,2025-09-19,2025-09-08,株式会社ｃｒａｎｅ,,株式会社,大阪府,貝塚市,近木町７番１２号,,27,208,5970001,,,2025-09-08,清算の結了等,,,2022-06-24,1,,,,,クレイン,0
1680,7140001010837,登記記録の閉鎖等,0,2025-09-19,2025-09-16,株式会社星野製作所,,株式会社,兵庫県,神戸市西区,神出町北３５１番地の１,,28,111,6512332,,,2025-09-16,清算の結了等,,,2015-10-05,1,,,,,ホシノセイサクショ,0
1688,7140002001348,登記記録の閉鎖等,0,2025-09-19,2025-09-10,有限会社環研テクニカ,,有限会社,兵庫県,神戸市東灘区,住吉宮町３丁目１４番２０号,,28,101,6580053,,,2025-09-10,清算の結了等,,,2015-10-05,1,,,,,カンケンテクニカ,0
1698,7160001005505,登記記録の閉鎖等,0,2025-09-19,2025-09-11,株式会社カジヤス,,株式会社,滋賀県,甲賀市,信楽町長野７７１番地,,25,209,5291851,,,2025-09-11,清算の結了等,,,2015-10-05,1,,,,,カジヤス,0
1716,7200001034557,登記記録の閉鎖等,0,2025-09-19,2025-09-16,株式会社マイプラス,,株式会社,岐阜県,各務原市,鵜沼宝積寺町３丁目１１７番地４,,21,213,5090123,,,2025-09-16,清算の結了等,,,2017-10-24,1,,,,,マイプラス,0
1738,7290002051477,登記記録の閉鎖等,0,2025-09-19,2025-08-21,有限会社ＲＴＳ,,有限会社,福岡県,小郡市,二森１５７３番地１,,40,216,8380126,,,2025-08-21,清算の結了等,,,2015-10-05,1,,,,,アールティーエス,0
1761,7380002002792,登記記録の閉鎖等,0,2025-09-19,2025-09-02,有限会社花のセイカエン,,有限会社,福島県,福島市,北町３番３号,,07,201,9608102,,,2025-09-02,清算の結了等,,,2015-10-05,1,,,,,ハナノセイカエン,0
1771,7430005004335,登記記録の閉鎖等,0,2025-09-19,2025-09-03,特定非営利活動法人日本介護福祉サポートセンター,,その他の設立登記法人,北海道,札幌市中央区,南九条西７丁目１番２８号,,01,101,0640809,,,2025-09-03,清算の結了等,,,2015-10-05,1,,,,,ニホンカイゴフクシサポートセンター,0
1775,7480003001536,登記記録の閉鎖等,0,2025-09-19,2025-09-17,合同会社ケイド,,合同会社,徳島県,徳島市,上助任町三本松３６３番地の５,,36,201,7700801,,,2025-09-17,清算の結了等,,,2020-08-27,1,,,,,ケイド,0
1777,7490002002195,登記記録の閉鎖等,0,2025-09-19,2025-09-17,有限会社酒パルたどころ,,有限会社,高知県,高知市,愛宕町２丁目１７番１２号,,39,201,7800051,,,2025-09-17,清算の結了等,,,2015-10-05,1,,,,,サケパルタドコロ,0
1808,8010403011841,登記記録の閉鎖等,0,2025-09-19,2025-09-01,合同会社ブラックトップアドバイザーズ,,合同会社,東京都,港区,元赤坂１丁目１番７－１２０９号株式会社赤坂国際会計内,,13,103,1070051,,,2025-09-01,合併による解散等,2010401133676,令和７年９月１日東京都港区元赤坂一丁目１番７－１２０９号株式会社赤坂国際会計内株式会社ＢＴキャピタル（2010401133676）に合併し解散,2015-10-05,1,,,,,ブラックトップアドバイザーズ,0
1855,8011403000207,登記記録の閉鎖等,0,2025-09-19,2025-09-12,合資会社ホビーライフジャパン,,合資会社,東京都,板橋区,赤塚新町１丁目１８番１８号,00066479,13,119,1750093,,,2025-09-12,清算の結了等,,,2015-10-05,1,,,,,ホビーライフジャパン,0
1856,8011601027679,登記記録の閉鎖等,0,2025-09-19,2025-09-08,株式会社メディックス,,株式会社,東京都,練馬区,練馬３丁目２５－６ゲートフィールド練馬３０２,,13,120,1760001,,,2025-09-08,清算の結了等,,,2024-04-11,1,,,,,メディックス,0
1858,8011701026696,登記記録の閉鎖等,0,2025-09-19,2025-09-02,御国山株式会社,,株式会社,東京都,江戸川区,東小岩６丁目１２－１６－１０１,,13,123,1330052,,,2025-09-02,清算の結了等,,,2023-10-24,1,,,,,ミクニヤマ,0
1861,8011801023783,登記記録の閉鎖等,0,2025-09-19,2025-09-11,株式会社アクス,,株式会社,東京都,葛飾区,高砂３丁目２７番３－５０１号,,13,122,1250054,,,2025-09-11,清算の結了等,,,2015-10-05,1,,,,,,0
1874,8020002065123,登記記録の閉鎖等,0,2025-09-19,2025-09-02,有限会社常盤工業,,有限会社,神奈川県,横浜市保土ケ谷区,星川２丁目１５番３号,,14,106,2400006,,,2025-09-02,清算の結了等,,,2015-10-05,1,,,,,トキワコウギョウ,0
1883,8030001032619,登記記録の閉鎖等,0,2025-09-19,2025-09-10,株式会社並木貴金属,,株式会社,埼玉県,加須市,東栄１丁目１３番２６号,,11,210,3470064,,,2025-09-10,合併による解散等,6030001032620,令和７年９月１日埼玉県加須市東栄一丁目１３番２６号株式会社並木製作所（6030001032620）に合併し解散,2015-10-05,1,,,,,ナミキキキンゾク,0
1898,8040002083057,登記記録の閉鎖等,0,2025-09-19,2025-08-22,有限会社近藤工業,,有限会社,千葉県,匝瑳市,平木字上島１７７９番地３,,12,235,2892113,,,2025-08-22,清算の結了等,,,2015-10-05,1,,,,,コンドウコウギョウ,0
1903,8050002002528,登記記録の閉鎖等,0,2025-09-19,2025-09-09,有限会社ネットワーク太陽,,有限会社,茨城県,水戸市,根本１丁目２１３番地の２,,08,201,3100067,,,2025-09-09,清算の結了等,,,2015-10-05,1,,,,,ネットワークタイヨウ,0
1912,8080002006542,登記記録の閉鎖等,0,2025-09-19,2025-09-12,有限会社アサヒトータルプランナー,,有限会社,静岡県,静岡市清水区,折戸４７３番地の２３,,22,103,4240902,,,2025-09-12,清算の結了等,,,2015-10-05,1,,,,,アサヒトータルプランナー,0
1918,8110002001069,登記記録の閉鎖等,0,2025-09-19,2025-09-05,有限会社上沼商事,,有限会社,新潟県,新潟市中央区,上沼６３７番地,,15,103,9501148,,,2025-09-05,清算の結了等,,,2015-10-05,1,,,,,ウワヌマショウジ,0
1928,8120001216773,登記記録の閉鎖等,0,2025-09-19,2025-09-03,株式会社アジアネットワーク,,株式会社,大阪府,大阪市平野区,平野東１丁目１番２３号１階,,27,126,5470043,,,2025-09-03,清算の結了等,,,2018-10-31,1,,,,,アジアネットワーク,0
1948,8130001027757,登記記録の閉鎖等,0,2025-09-19,2025-09-10,株式会社京都住設販売,,株式会社,京都府,京都市伏見区,羽束師鴨川町７９番地１リジェール鴨川４０２号,,26,109,6128484,,,2025-09-10,清算の結了等,,,2015-10-05,1,,,,,キョウトジュウセツハンバイ,0
1954,8140001010340,登記記録の閉鎖等,0,2025-09-19,2025-09-16,東甲子園企業株式会社,,株式会社,兵庫県,西宮市,鳴尾町１丁目３番４号,,28,204,6638184,,,2025-09-16,清算の結了等,,,2015-10-05,1,,,,,ヒガシコウシエンキギョウ,0
1958,8140002061481,登記記録の閉鎖等,0,2025-09-19,2025-09-16,有限会社パンプ,,有限会社,兵庫県,西脇市,和布町１６５番地の２,,28,213,6770053,,,2025-09-16,清算の結了等,,,2015-10-05,1,,,,,パンプ,0
1965,8180001078507,登記記録の閉鎖等,0,2025-09-19,2025-09-01,株式会社ａｒｔ　ｏｆ　Ｌｉｆｅ,,株式会社,愛知県,春日井市,美濃町２丁目２１８番地,,23,206,4860917,,,2025-09-01,合併による解散等,6180001076859,令和７年８月３１日愛知県春日井市美濃町二丁目２１８番地株式会社マスダビジョン（6180001076859）に合併し解散,2015-10-05,1,,,,,アートオブライフ,0
1988,8220001002643,登記記録の閉鎖等,0,2025-09-19,2025-09-16,コーコク機械株式会社,,株式会社,石川県,金沢市,古府町南４５９番地,,17,201,9200363,,,2025-09-16,清算の結了等,,,2015-10-05,1,,,,,コーコクキカイ,0
1994,8250005008394,登記記録の閉鎖等,0,2025-09-19,2025-09-17,一般社団法人山口竹バイオマス協会,,その他の設立登記法人,山口県,宇部市,大字小野４４３７番地,,35,202,7541311,,,2025-09-17,清算の結了等,,,2018-03-05,1,,,,,ヤマグチタケバイオマスキョウカイ,0
2002,8260005010374,登記記録の閉鎖等,0,2025-09-19,2025-09-08,一般社団法人岡山県既存住宅状況調査協会,,その他の設立登記法人,岡山県,岡山市北区,春日町７番１９号,,33,101,7000905,,,2025-09-08,清算の結了等,,,2017-12-12,1,,,,,オカヤマケンキゾンジュウタウジョウキョウチョウサキョウカイ,0
2004,8290001071079,登記記録の閉鎖等,0,2025-09-19,2025-08-26,株式会社ワールドコム,,株式会社,福岡県,福岡市博多区,大字立花寺１番地７１,,40,132,8120862,,,2025-08-26,清算の結了等,,,2015-10-05,1,,,,,ワールドコム,0
2010,8310002019702,登記記録の閉鎖等,0,2025-09-19,2025-09-16,有限会社熊本材木店,,有限会社,長崎県,松浦市,志佐町庄野免１５２番地の７,,42,208,8594507,,,2025-09-16,清算の結了等,,,2015-10-05,1,,,,,クマモトザイモクテン,0
2013,8330002027117,登記記録の閉鎖等,0,2025-09-19,2025-09-08,有限会社タネのウィズ,,有限会社,熊本県,八代市,築添町１７８３番地の１３２,,43,202,8660015,,,2025-09-08,清算の結了等,,,2015-10-05,1,,,,,タネノウィズ,0
2021,8370001015300,登記記録の閉鎖等,0,2025-09-19,2025-09-01,株式会社マルカワ,,株式会社,宮城県,仙台市若林区,沖野７丁目１３番８号,,04,103,9840831,,,2025-09-01,清算の結了等,,,2015-10-05,1,,,,,マルカワ,0
2023,8370002014499,登記記録の閉鎖等,0,2025-09-19,2025-09-04,有限会社仙台綜合技研,,有限会社,宮城県,名取市,杜せきのした１丁目２番地の７ＭＫＫビル３Ｆ,,04,207,9811227,,,2025-09-04,清算の結了等,,,2015-10-05,1,,,,,センダイソウゴウギケン,0
2028,8390003001008,登記記録の閉鎖等,0,2025-09-19,2025-09-16,合同会社アシスト．コーポレーション,,合同会社,山形県,南陽市,二色根５３－１,,06,213,9992231,,,2025-09-16,清算の結了等,,,2015-10-05,1,,,,,,0
2032,8400005005087,登記記録の閉鎖等,0,2025-09-19,2025-09-04,特定非営利活動法人どんぐり工房,,その他の設立登記法人,岩手県,久慈市,長内町第９地割６７番地２,,03,207,0280041,,,2025-09-04,清算の結了等,,,2015-10-05,1,,,,,ドングリコウボウ,0
2040,8460002000110,登記記録の閉鎖等,0,2025-09-19,2025-09-17,有限会社アトム電器,,有限会社,北海道,釧路郡釧路町,桂１丁目６番地２,,01,661,0880626,,,2025-09-17,清算の結了等,,,2015-10-05,1,,,,,アトムデンキ,0
2057,9010001204994,登記記録の閉鎖等,0,2025-09-19,2025-09-16,エクイス環境ジャパン株式会社,,株式会社,東京都,中央区,京橋２丁目２番１号京橋エドグラン,,13,102,1040031,,,2025-09-16,合併による解散等,1380002012054,令和７年８月１５日福島県相馬郡飯舘村小宮字沼平５１５番地３福島農林合同会社（1380002012054）に合併し解散,2019-10-29,1,,,,,エクイスカンキョウジャパン,0
2072,9010401103326,登記記録の閉鎖等,0,2025-09-19,2025-08-20,株式会社ＨＳアライアンス,,株式会社,東京都,港区,六本木３丁目７番１号,,13,103,1060032,,,2025-08-20,清算の結了等,,,2015-10-05,1,,,,,エイチエスアライアンス,0
2101,9011003012642,登記記録の閉鎖等,0,2025-09-19,2025-08-21,クリエイティブクック合同会社,,合同会社,東京都,渋谷区,代々木５丁目２９－８代々木コーポラス４０６,,13,113,1510053,,,2025-08-21,清算の結了等,,,2021-05-06,1,,,,,クリエイティブクック,0
2102,9011003018986,登記記録の閉鎖等,0,2025-09-19,2025-08-21,合同会社Ｆｏｒ　ＡＬＬ,,合同会社,東京都,渋谷区,神宮前３丁目５番６－２０４号,,13,113,1500001,,,2025-08-21,清算の結了等,,,2024-04-22,1,,,,,フォーオール,0
2105,9011101001225,登記記録の閉鎖等,0,2025-09-19,2025-09-16,野村不動産アメニティサービス株式会社,,株式会社,東京都,新宿区,西新宿８丁目４番１号,,13,104,1600023,,,2025-09-16,合併による解散等,8011101017057,令和７年９月１日東京都港区芝浦一丁目１番１号野村不動産パートナーズ株式会社（8011101017057）に合併し解散,2015-10-05,1,,,,,ノムラフドウサンアメニティサービス,0
2112,9011101086290,登記記録の閉鎖等,0,2025-09-19,2025-08-06,株式会社ＧＲＩＰＰＰ,,株式会社,東京都,新宿区,新宿７丁目１７番１８号,,13,104,1600022,,,2025-08-06,清算の結了等,,,2018-12-17,1,,,,,グリップ,0
2118,9011202002956,登記記録の閉鎖等,0,2025-09-19,2025-09-09,有限会社志村商店,,有限会社,東京都,中野区,中央２丁目２番８号,,13,114,1640011,,,2025-09-09,清算の結了等,,,2015-10-05,1,,,,,シムラショウテン,0
2123,9011801036355,登記記録の閉鎖等,0,2025-09-19,2025-09-11,株式会社アンタレス,,株式会社,東京都,足立区,新田１丁目８番６－１１１１号,,13,121,1230865,,,2025-09-11,清算の結了等,,,2019-07-09,1,,,,,アンタレス,0
2140,9021002019679,登記記録の閉鎖等,0,2025-09-19,2025-09-10,有限会社黒木建設,,有限会社,神奈川県,相模原市南区,麻溝台７丁目２８番４０号,,14,153,2520328,,,2025-09-10,清算の結了等,,,2015-10-05,1,,,,,クロキケンセツ,0
2159,9040001062358,登記記録の閉鎖等,0,2025-09-19,2025-08-26,仲吉漁業株式会社,,株式会社,千葉県,銚子市,内浜町１５４８番地,,12,202,2880068,,,2025-08-26,清算の結了等,,,2015-10-05,1,,,,,ナカヨシギョギョウ,0
2168,9040002021222,登記記録の閉鎖等,0,2025-09-19,2025-08-25,有限会社小田切ギフト,,有限会社,千葉県,船橋市,習志野台４丁目５０番３号,,12,204,2740063,,,2025-08-25,清算の結了等,,,2015-10-05,1,,,,,オダギリギフト,0
2174,9050002011874,登記記録の閉鎖等,0,2025-09-19,2025-09-09,有限会社千代田機械製作所,,有限会社,茨城県,土浦市,白鳥町１１０６番地の１３３,,08,203,3000022,,,2025-09-09,清算の結了等,,,2015-10-05,1,,,,,チヨダキカイセイサクショ,0
2194,9110002028152,登記記録の閉鎖等,0,2025-09-19,2025-09-05,有限会社第一酒店,,有限会社,新潟県,長岡市,袋町２丁目１１００番地,,15,202,9400055,,,2025-09-05,清算の結了等,,,2015-10-05,1,,,,,ダイイチサケテン,0
2195,9110003000192,登記記録の閉鎖等,0,2025-09-19,2025-09-04,合資会社中北車体工作所,,合資会社,新潟県,新潟市東区,榎町７０番地,,15,102,9500881,,,2025-09-04,清算の結了等,,,2015-10-05,1,,,,,ナカキタシャタイコウサクショ,0
2198,9120001210775,登記記録の閉鎖等,0,2025-09-19,2025-09-16,株式会社Ｎ．ｄｅｓｉｇｎ,,株式会社,和歌山県,和歌山市,福島４０７番地,,30,201,6408401,,,2025-09-16,清算の結了等,,,2018-01-17,1,,,,,エヌデザイン,0
2214,9120002074303,登記記録の閉鎖等,0,2025-09-19,2025-09-09,有限会社ジャストライフ,,有限会社,大阪府,枚方市,杉山手１丁目１０番８号,,27,210,5730118,,,2025-09-09,清算の結了等,,,2015-10-05,1,,,,,ジャストライフ,0
2230,9140001079301,登記記録の閉鎖等,0,2025-09-19,2025-09-16,グリーン興業株式会社,,株式会社,兵庫県,川西市,火打１丁目２０番７号,,28,217,6660017,,,2025-09-16,清算の結了等,,,2015-10-05,1,,,,,,0
2240,9140002062462,登記記録の閉鎖等,0,2025-09-19,2025-09-16,有限会社内藤鉄工所,,有限会社,兵庫県,加西市,玉丘町１３８番地の１,,28,220,6790109,,,2025-09-16,清算の結了等,,,2015-10-05,1,,,,,ナイトウテッコウショ,0
2241,9140003017647,登記記録の閉鎖等,0,2025-09-19,2025-09-12,合同会社中村商店,,合同会社,兵庫県,明石市,大久保町大久保町４６１番地の６,,28,203,6740067,,,2025-09-12,清算の結了等,,,2022-05-16,1,,,,,ナカムラショウテン,0
2258,9180003016521,登記記録の閉鎖等,0,2025-09-19,2025-08-25,合同会社ＤＳｐｏｒｔＥｄ,,合同会社,愛知県,春日井市,出川町５丁目３０番地１,,23,206,4870025,,,2025-08-25,清算の結了等,,,2015-10-05,1,,,,,ディースポーティド,0
2263,9210001009738,登記記録の閉鎖等,0,2025-09-19,2025-09-16,大野製材工業株式会社,,株式会社,福井県,大野市,下据第３１号９番地１,,18,205,9120431,,,2025-09-16,清算の結了等,,,2015-10-05,1,,,,,オオノセイザイコウギョウ,0
2282,9290002009894,登記記録の閉鎖等,0,2025-09-19,2025-08-26,有限会社エヌ・ケイコーポレーション,,有限会社,福岡県,福岡市南区,大橋２丁目３番５号,,40,134,8150033,,,2025-08-26,清算の結了等,,,2015-10-05,1,,,,,エヌケイコーポレーション,0
2301,9400005004939,登記記録の閉鎖等,0,2025-09-19,2025-09-05,久慈市冷凍水産加工業協同組合,,その他の設立登記法人,岩手県,久慈市,長内町第４０地割１８番地の１,,03,207,0280041,,,2025-09-05,清算の結了等,,,2015-10-05,1,,,,,クジシレイトウ,0
2303,9430001055628,登記記録の閉鎖等,0,2025-09-19,2025-09-01,株式会社レイア,,株式会社,北海道,幌泉郡えりも町,字庶野１６０番地５,,01,609,0580421,,,2025-09-01,清算の結了等,,,2015-10-05,1,,,,,レイア,0
2313,9490002008579,登記記録の閉鎖等,0,2025-09-19,2025-09-16,有限会社双海砂利,,有限会社,高知県,四万十市,下田１８１３番地１,,39,210,7870155,,,2025-09-16,清算の結了等,,,2015-10-05,1,,,,,フタミジャリ,0
2315,9500001014502,登記記録の閉鎖等,0,2025-09-19,2025-09-16,森下製紙株式会社,,株式会社,愛媛県,四国中央市,三島宮川３丁目７番３３号,,38,213,7990404,,,2025-09-16,清算の結了等,,,2015-10-05,1,,,,,モリシタセイシ,0
