sequenceNumber,corporateNumber,process,correct,updateDate,changeDate,name,nameImageId,kind,prefectureName,cityName,streetNumber,addressImageId,prefectureCode,cityCode,postCode,addressOutside,addressOutsideImageId,closeDate,closeCause,successorCorporateNumber,changeCause,assignmentDate,latest,enName,enPrefectureName,enCityName,enAddressOutside,furigana,hihyoji
24,1010405021011,登記記録の閉鎖等,0,2025-10-20,2025-09-16,特定目的会社ツインシティツー,,その他の設立登記法人,東京都,港区,虎ノ門２丁目６番１号虎ノ門ヒルズステーションタワー,,13,103,1050001,,,2025-09-16,清算の結了等,,,2022-05-12,1,,,,,ツインシティツー,0
30,1010901007694,登記記録の閉鎖等,0,2025-10-20,2025-10-10,株式会社テイクコーポレーション,,株式会社,埼玉県,上尾市,大字瓦葺２４０８番地２１,,11,219,3620022,,,2025-10-10,清算の結了等,,,2015-10-05,1,,,,,テイクコーポレーション,0
54,1011301006386,登記記録の閉鎖等,0,2025-10-20,2025-10-09,平和宝徳不動産株式会社,,株式会社,東京都,杉並区,上荻２丁目３１番１２号,,13,115,1670043,,,2025-10-09,清算の結了等,,,2015-10-05,1,,,,,ヘイワホウトクフドウサン,0
68,1013201006508,登記記録の閉鎖等,0,2025-10-20,2025-09-17,朝日アド株式会社,,株式会社,東京都,目黒区,下目黒１丁目４番７－２１４,,13,110,1530064,,,2025-09-17,清算の結了等,,,2015-10-05,1,,,,,アサヒアド,0
85,1021001072835,登記記録の閉鎖等,0,2025-10-20,2025-10-03,株式会社ＲＥＮＤＥＺ－ＶＯＵＳ,,株式会社,神奈川県,逗子市,久木１丁目７－２０,,14,208,2490001,,,2025-10-03,清算の結了等,,,2021-05-25,1,,,,,ランデヴー,0
90,1030002105339,登記記録の閉鎖等,0,2025-10-20,2025-10-08,有限会社徳蔵測量事務所,,有限会社,埼玉県,川口市,大字東内野４５２番地の７,,11,203,3330821,,,2025-10-08,清算の結了等,,,2015-10-05,1,,,,,トクゾウソクリョウジムショ,0
95,1040001059460,登記記録の閉鎖等,0,2025-10-20,2025-09-16,株式会社みづさわや,,株式会社,千葉県,茂原市,高師８５１番地,,12,210,2970029,,,2025-09-16,清算の結了等,,,2015-10-05,1,,,,,ミヅサワヤ,0
104,1040003022029,登記記録の閉鎖等,0,2025-10-20,2025-09-10,合同会社ゆうあい・らぼ,,合同会社,千葉県,長生郡睦沢町,佐貫１９３４,,12,422,2994425,,,2025-09-10,清算の結了等,,,2023-02-24,1,,,,,ユウアイラボ,0
110,1060001002848,登記記録の閉鎖等,0,2025-10-20,2025-10-16,株式会社テイクス設計事務所,,株式会社,栃木県,宇都宮市,簗瀬町１８３４番地６,,09,201,3210933,,,2025-10-16,清算の結了等,,,2015-10-05,1,,,,,テイクスセッケイジムショ,0
112,1060001020916,登記記録の閉鎖等,0,2025-10-20,2025-10-15,日本シリカ工業株式会社,,株式会社,栃木県,佐野市,山菅町３４９１番地,,09,204,3270505,,,2025-10-15,清算の結了等,,,2015-10-05,1,,,,,ニホンシリカコウギョウ,0
113,1060003002623,登記記録の閉鎖等,0,2025-10-20,2025-10-15,合同会社ＺＥＳＴ,,合同会社,栃木県,佐野市,田島町８７番地１ララフラッツ２０３,,09,204,3270031,,,2025-10-15,清算の結了等,,,2017-08-03,1,,,,,ゼスト,0
117,1080001026663,登記記録の閉鎖等,0,2025-10-20,2025-10-15,日立空調清水株式会社,,株式会社,静岡県,静岡市清水区,村松３９０番地,,22,103,4240926,,,2025-10-15,合併による解散等,8010401057011,令和７年１０月１日東京都港区西新橋二丁目１５番１２号日立グローバルライフソリューションズ株式会社（8010401057011）に合併し解散,2024-12-13,1,,,,,ヒタチクウチョウシミズ,0
119,1080005007395,登記記録の閉鎖等,0,2025-10-20,2025-10-09,一般社団法人しずおか住環境防災サポートセンター,,その他の設立登記法人,静岡県,静岡市駿河区,国吉田３丁目２番２２－２０８号,,22,102,4228004,,,2025-10-09,清算の結了等,,,2021-09-06,1,,,,,シズオカジュウカンキョウボウサイサポートセンター,0
124,1090002007793,登記記録の閉鎖等,0,2025-10-20,2025-10-10,有限会社ベスト技研,,有限会社,山梨県,南アルプス市,桃園１３５２番地,,19,208,4000301,,,2025-10-10,清算の結了等,,,2015-10-05,1,,,,,ベストギケン,0
125,1100001002034,登記記録の閉鎖等,0,2025-10-20,2025-10-15,株式会社北信臨床,,株式会社,長野県,長野市,アークス１番１９号,,20,201,3800918,,,2025-10-15,合併による解散等,9130001033548,令和７年１０月１日京都府久世郡久御山町大橋辺１６番地１０株式会社日本医学臨床検査研究所（9130001033548）に合併し解散,2015-10-05,1,,,,,ホクシンリンショウ,0
131,1120001154014,登記記録の閉鎖等,0,2025-10-20,2025-10-09,株式会社カタノコンピュータサービス,,株式会社,大阪府,交野市,星田１丁目２１番２号,,27,230,5760016,,,2025-10-09,清算の結了等,,,2015-10-05,1,,,,,カタノコンピュータサービス,0
132,1120001164987,登記記録の閉鎖等,0,2025-10-20,2025-10-14,株式会社プロジェクトタオ,,株式会社,大阪府,大阪市中央区,淡路町２丁目５番８号,,27,128,5410047,,,2025-10-14,清算の結了等,,,2015-10-05,1,,,,,プロジェクトタオ,0
151,1120002073188,登記記録の閉鎖等,0,2025-10-20,2025-10-07,有限会社村上塗装店,,有限会社,大阪府,寝屋川市,出雲町１６番３号,,27,215,5720821,,,2025-10-07,清算の結了等,,,2015-10-05,1,,,,,ムラカミトソウテン,0
158,1120102014538,登記記録の閉鎖等,0,2025-10-20,2025-10-03,有限会社プリムローズ,,有限会社,大阪府,松原市,立部２丁目５８３番地,,27,217,5800012,,,2025-10-03,清算の結了等,,,2015-10-05,1,,,,,プリムローズ,0
160,1120105005138,登記記録の閉鎖等,0,2025-10-20,2025-09-12,天理教鷲藤分教会,,その他の設立登記法人,大阪府,藤井寺市,御舟町５番２１号,,27,226,5830021,,,2025-09-12,合併による解散等,5120105005126,令和７年９月１２日大阪府羽曳野市島泉四丁目２番４号天理教高鷲分教会（5120105005126）に合併し解散,2015-10-05,1,,,,,テンリキョウワシフジブンキョウカイ,0
166,1130001010208,登記記録の閉鎖等,0,2025-10-20,2025-10-14,株式会社奥田商店,,株式会社,京都府,京都市南区,吉祥院定成町１８番地,,26,107,6018322,,,2025-10-14,清算の結了等,,,2015-10-05,1,,,,,オクダショウテン,0
182,1180001081896,登記記録の閉鎖等,0,2025-10-20,2025-10-06,株式会社アラビカ,,株式会社,愛知県,一宮市,浅井町小日比野字平野１８番地の１,,23,203,4910104,,,2025-10-06,清算の結了等,,,2015-10-05,1,,,,,アラビカ,0
183,1180001119481,登記記録の閉鎖等,0,2025-10-20,2025-09-30,株式会社フジ・ピコ・ウォーター,,株式会社,愛知県,犬山市,大字栗栖６５３番地,,23,215,4840002,,,2025-09-30,清算の結了等,,,2015-10-05,1,,,,,フジピコウォーター,0
189,1180003021347,登記記録の閉鎖等,0,2025-10-20,2025-10-06,合同会社エイム,,合同会社,愛知県,名古屋市天白区,平針１丁目６０１番地,,23,116,4680011,,,2025-10-06,清算の結了等,,,2020-07-07,1,,,,,エイム,0
195,1180301022039,登記記録の閉鎖等,0,2025-10-20,2025-10-01,株式会社トチスマコーポレーション,,株式会社,愛知県,岡崎市,戸崎町字越舞２８番５,,23,202,4440840,,,2025-10-01,合併による解散等,2180301001702,令和７年９月３０日愛知県岡崎市洞町字寺前３番地１株式会社ネイブレイン（2180301001702）に合併し解散,2015-10-05,1,,,,,トチスマコーポレーション,0
201,1200001012700,登記記録の閉鎖等,0,2025-10-20,2025-10-14,株式会社シルフシルフェ,,株式会社,岐阜県,各務原市,蘇原青雲町２丁目４８番地,,21,213,5040843,,,2025-10-14,清算の結了等,,,2015-10-05,1,,,,,シルフシルフェ,0
208,1200005008166,登記記録の閉鎖等,0,2025-10-20,2025-10-15,医療法人社団清祥会,,その他の設立登記法人,岐阜県,多治見市,市之倉町８丁目１１４番地,,21,204,5070814,,,2025-10-15,清算の結了等,,,2015-10-05,1,,,,,セイショウカイ,0
211,1240001004306,登記記録の閉鎖等,0,2025-10-20,2025-10-10,株式会社三友商会,,株式会社,広島県,広島市西区,南観音町１８番３号,,34,104,7330034,,,2025-10-10,清算の結了等,,,2015-10-05,1,,,,,,0
216,1250002007447,登記記録の閉鎖等,0,2025-10-20,2025-10-15,有限会社野村製材所,,有限会社,山口県,美祢市,大嶺町北分６５４番地の１,,35,213,7592211,,,2025-10-15,清算の結了等,,,2015-10-05,1,,,,,ノムラセイザイショ,0
222,1290001048463,登記記録の閉鎖等,0,2025-10-20,2025-10-01,株式会社江藤建設,,株式会社,福岡県,久留米市,善導寺町飯田４１５番地１,,40,203,8390824,,,2025-10-01,合併による解散等,4290002056710,令和７年１０月１日福岡県久留米市善導寺町飯田４１５番地１株式会社宮崎建設（4290002056710）に合併し解散,2015-10-05,1,,,,,エトウケンセツ,0
223,1290001079005,登記記録の閉鎖等,0,2025-10-20,2025-09-18,株式会社鈴与カーゴサービス九州,,株式会社,福岡県,福岡市東区,みなと香椎３丁目２８番４号,,40,131,8130019,,,2025-09-18,合併による解散等,1140001073963,令和７年９月１日兵庫県西宮市西宮浜一丁目２番地株式会社鈴与カーゴサービス西日本（1140001073963）に合併し解散,2017-09-08,1,,,,,スズヨカーゴサービスキュウシュウ,0
235,1330003003395,登記記録の閉鎖等,0,2025-10-20,2025-10-01,ＭＧＳ株式会社,,株式会社,熊本県,八代市,毘舎丸町１番３号,,43,202,8660851,,,2025-10-01,合併による解散等,7330001026021,令和７年１０月１日熊本県八代市毘舎丸町１番３号株式会社ＭＡＴＳＵＫＩ（7330001026021）に合併し解散,2015-10-05,1,,,,,エムジーエス,0
237,1350002012131,登記記録の閉鎖等,0,2025-10-20,2025-10-09,有限会社新興商事,,有限会社,宮崎県,延岡市,大貫町３丁目９８２番地２,,45,203,8820803,,,2025-10-09,清算の結了等,,,2015-10-05,1,,,,,シンコウショウジ,0
239,1370003006139,登記記録の閉鎖等,0,2025-10-20,2025-10-16,合同会社ＨＡＬＥ,,合同会社,宮城県,仙台市宮城野区,原町２丁目３番２５－１１０４号,,04,102,9830841,,,2025-10-16,清算の結了等,,,2023-05-19,1,,,,,ハレ,0
267,2010002052680,登記記録の閉鎖等,0,2025-10-20,2025-10-01,有限会社ブーランジェリー,,有限会社,東京都,八丈島八丈町,三根１６８７番地,,13,401,1001511,,,2025-10-01,清算の結了等,,,2015-10-05,1,,,,,ブーランジェリー,0
281,2010403023297,登記記録の閉鎖等,0,2025-10-20,2025-09-16,奈良中央アネックス２合同会社,,合同会社,東京都,港区,六本木１丁目６番１号泉ガーデンタワー,,13,103,1060032,,,2025-09-16,清算の結了等,,,2020-07-16,1,,,,,ナラチュウオウアネックスツー,0
283,2010501004067,登記記録の閉鎖等,0,2025-10-20,2025-10-07,共同企業株式会社,,株式会社,東京都,墨田区,吾妻橋１丁目８番９－１００３号日神パレステージ本所吾妻橋,,13,107,1300001,,,2025-10-07,清算の結了等,,,2015-10-05,1,,,,,キョウドウキギョウ,0
284,2010501029576,登記記録の閉鎖等,0,2025-10-20,2025-09-18,株式会社アインス,,株式会社,福岡県,福岡市東区,青葉２丁目１４番２号,,40,131,8130025,,,2025-09-18,清算の結了等,,,2015-10-05,1,,,,,アインス,0
285,2010502022480,登記記録の閉鎖等,0,2025-10-20,2025-10-06,有限会社フジオ・モデーロ,,有限会社,東京都,台東区,花川戸２丁目４番１１号奥栄ビル１階,,13,106,1110033,,,2025-10-06,清算の結了等,,,2015-10-05,1,,,,,フジオモデーロ,0
287,2010601051273,登記記録の閉鎖等,0,2025-10-20,2025-10-07,株式会社Ｎａ空調,,株式会社,東京都,江東区,東砂６丁目１６－１ＴＥＣＲｅｓｉｄｅｎｃｅ９０３号室,,13,108,1360074,,,2025-10-07,清算の結了等,,,2017-03-15,1,,,,,エヌエイクウチョウ,0
292,2010702008692,登記記録の閉鎖等,0,2025-10-20,2025-10-10,有限会社ゆたか岩崎住建,,有限会社,東京都,品川区,戸越１丁目１９番２１号,,13,109,1420041,,,2025-10-10,清算の結了等,,,2015-10-05,1,,,,,ユタカイワサキジュウケン,0
296,2010905002162,登記記録の閉鎖等,0,2025-10-20,2025-10-08,一般社団法人ランガール,,その他の設立登記法人,東京都,練馬区,中村南１丁目３３番１３－８０２号,,13,120,1760025,,,2025-10-08,清算の結了等,,,2015-10-05,1,,,,,ランガール,0
299,2011001069047,登記記録の閉鎖等,0,2025-10-20,2025-10-16,株式会社ピュアパール,,株式会社,東京都,渋谷区,代々木１丁目３０番７号,,13,113,1510053,,,2025-10-16,合併による解散等,8012401010189,令和７年９月８日東京都新宿区西新宿六丁目１５番１－３９１２号株式会社ＹＴジェムコ（8012401010189）に合併し解散,2015-10-05,1,,,,,ピュアパール,0
300,2011001104893,登記記録の閉鎖等,0,2025-10-20,2025-10-09,株式会社ｕｐｓ,,株式会社,東京都,杉並区,堀ノ内３丁目７番２号,,13,115,1660013,,,2025-10-09,清算の結了等,,,2015-10-05,1,,,,,アップス,0
333,2011801040702,登記記録の閉鎖等,0,2025-10-20,2025-10-14,株式会社Ａｃｅ,,株式会社,東京都,荒川区,東日暮里５丁目３９－１３ハイネス東日暮里４０１号室,,13,118,1160014,,,2025-10-14,清算の結了等,,,2022-05-11,1,,,,,エイス,0
334,2011802005654,登記記録の閉鎖等,0,2025-10-20,2025-10-10,有限会社鳥久,,有限会社,東京都,葛飾区,立石４丁目２７番１６号,,13,122,1240012,,,2025-10-10,清算の結了等,,,2015-10-05,1,,,,,トリキュウ,0
340,2012401021844,登記記録の閉鎖等,0,2025-10-20,2025-10-09,ケンフ株式会社,,株式会社,東京都,府中市,宮西町１丁目１２番地の２,,13,206,1830022,,,2025-10-09,清算の結了等,,,2015-10-05,1,,,,,ケンフ,0
353,2020001080582,登記記録の閉鎖等,0,2025-10-20,2025-10-01,株式会社平山商事,,株式会社,神奈川県,川崎市宮前区,小台１丁目７番地５－３０５号,,14,136,2160007,,,2025-10-01,合併による解散等,3020001080581,令和７年１０月１日川崎市宮前区小台一丁目７番地５－３０５号株式会社平山産業（3020001080581）に合併し解散,2015-10-05,1,,,,,ヒラヤマショウジ,0
358,2021001001454,登記記録の閉鎖等,0,2025-10-20,2025-09-29,株式会社テクノフォーラム,,株式会社,神奈川県,藤沢市,鵠沼桜が岡４丁目８番１６号,,14,205,2510027,,,2025-09-29,清算の結了等,,,2015-10-05,1,,,,,テクノフォーラム,0
368,2030002025486,登記記録の閉鎖等,0,2025-10-20,2025-10-09,有限会社横田工業,,有限会社,埼玉県,戸田市,下前１丁目８番８号,,11,224,3350016,,,2025-10-09,清算の結了等,,,2015-10-05,1,,,,,ヨコタコウギョウ,0
369,2030002028241,登記記録の閉鎖等,0,2025-10-20,2025-10-08,有限会社石羽澤建築,00016403,有限会社,埼玉県,所沢市,大字下富１１１２番地の１３,,11,208,3590001,,,2025-10-08,清算の結了等,,,2015-10-05,1,,,,,イシハネザワケンチク,0
370,2030002056399,登記記録の閉鎖等,0,2025-10-20,2025-10-09,有限会社フタバ,,有限会社,埼玉県,北足立郡伊奈町,大字小室８１５８番地１,,11,301,3620806,,,2025-10-09,清算の結了等,,,2015-10-05,1,,,,,フタバ,0
371,2030002102095,登記記録の閉鎖等,0,2025-10-20,2025-10-09,共生金型工業有限会社,,有限会社,埼玉県,川口市,西川口３丁目９番３２号,,11,203,3320021,,,2025-10-09,清算の結了等,,,2015-10-05,1,,,,,キョウセイカナガタコウギョウ,0
383,2040002018860,登記記録の閉鎖等,0,2025-10-20,2025-09-17,パウテック有限会社,,有限会社,千葉県,習志野市,藤崎７丁目７番３号,,12,216,2750017,,,2025-09-17,清算の結了等,,,2015-10-05,1,,,,,パウテック,0
384,2040002026574,登記記録の閉鎖等,0,2025-10-20,2025-09-16,有限会社東京マイミック,,有限会社,千葉県,船橋市,夏見４丁目７番１３号,,12,204,2730865,,,2025-09-16,清算の結了等,,,2015-10-05,1,,,,,トウキョウマイミック,0
394,2060001007292,登記記録の閉鎖等,0,2025-10-20,2025-10-15,レンダー商事株式会社,,株式会社,栃木県,宇都宮市,西川田南１丁目１０番１０号、１０３号,,09,201,3210155,,,2025-10-15,清算の結了等,,,2015-10-05,1,,,,,レンダーショウジ,0
404,2080001025739,登記記録の閉鎖等,0,2025-10-20,2025-10-10,株式会社Ｃｕｒｅ,,株式会社,静岡県,藤枝市,末広２丁目８番地の７,,22,214,4260065,,,2025-10-10,清算の結了等,,,2023-07-14,1,,,,,キュア,0
405,2080402022013,登記記録の閉鎖等,0,2025-10-20,2025-10-06,有限会社松下企画,,有限会社,静岡県,袋井市,中新田３１３番地,,22,216,4371111,,,2025-10-06,清算の結了等,,,2015-10-05,1,,,,,マツシタキカク,0
407,2090001014105,登記記録の閉鎖等,0,2025-10-20,2025-10-09,株式会社ＰＨ,,株式会社,山梨県,甲府市,下石田２丁目２１番１７号コーポ笹本１０２,,19,201,4000046,,,2025-10-09,清算の結了等,,,2015-10-05,1,,,,,,0
412,2120001007344,登記記録の閉鎖等,0,2025-10-20,2025-10-14,近畿製畳株式会社,,株式会社,大阪府,大阪市都島区,高倉町１丁目４番３１号,,27,102,5340011,,,2025-10-14,合併による解散等,8120001007207,令和７年１０月１日大阪市都島区高倉町一丁目４番３１号神原産業株式会社（8120001007207）に合併し解散,2015-10-05,1,,,,,キンキセイジョウ,0
417,2120001085266,登記記録の閉鎖等,0,2025-10-20,2025-10-01,東海アルコック工業株式会社,,株式会社,大阪府,東大阪市,金物町３番７号,,27,227,5770815,,,2025-10-01,合併による解散等,3120001085851,令和７年１０月１日大阪府東大阪市金物町３番７号鳥居金属興業株式会社（3120001085851）に合併し解散,2015-10-05,1,,,,,トウカイアルコックコウギョウ,0
418,2120001117119,登記記録の閉鎖等,0,2025-10-20,2025-10-14,株式会社ケイズ・パートナーズ,,株式会社,大阪府,大阪市東淀川区,豊新５丁目１９番１号,,27,114,5330014,,,2025-10-14,清算の結了等,,,2015-10-05,1,,,,,ケイズパートナーズ,0
420,2120001149070,登記記録の閉鎖等,0,2025-10-20,2025-10-14,株式会社インテック,,株式会社,大阪府,枚方市,東香里元町４番９号,,27,210,5730076,,,2025-10-14,清算の結了等,,,2015-10-05,1,,,,,インテック,0
423,2120001216135,登記記録の閉鎖等,0,2025-10-20,2025-10-07,アンノウン株式会社,,株式会社,大阪府,大阪市中央区,博労町１丁目２番１１号－７０６,,27,128,5410059,,,2025-10-07,清算の結了等,,,2018-09-28,1,,,,,アンノウン,0
426,2120001250902,登記記録の閉鎖等,0,2025-10-20,2025-10-15,株式会社ＪＡＰＡＮ　ＢＥＡＵＴＹ　ＬＡＢ,,株式会社,大阪府,大阪市中央区,淡路町２丁目１番１号堺筋千島ビル,,27,128,5410047,,,2025-10-15,清算の結了等,,,2022-12-09,1,,,,,ジャパンビューティーラボ,0
442,2120002021699,登記記録の閉鎖等,0,2025-10-20,2025-10-10,有限会社粂ビル,,有限会社,大阪府,大阪市西区,京町堀１丁目９番１９号,,27,106,5500003,,,2025-10-10,清算の結了等,,,2015-10-05,1,,,,,クメビル,0
446,2120002073402,登記記録の閉鎖等,0,2025-10-20,2025-10-14,有限会社松尾商事,,有限会社,大阪府,枚方市,星丘２丁目２６番４号,,27,210,5730013,,,2025-10-14,清算の結了等,,,2015-10-05,1,,,,,マツオショウジ,0
449,2120003028248,登記記録の閉鎖等,0,2025-10-20,2025-10-08,合同会社ＦＯＲＴＥ,,合同会社,大阪府,大阪市城東区,鴫野西２丁目１番３－６０１号,,27,118,5360014,,,2025-10-08,清算の結了等,,,2025-01-16,1,,,,,フォルテ,0
491,2180301019950,登記記録の閉鎖等,0,2025-10-20,2025-10-03,株式会社協友建築,,株式会社,愛知県,豊田市,野林町西ノ洞１１番地１,,23,211,4442303,,,2025-10-03,清算の結了等,,,2015-10-05,1,,,,,キョウユウケンチク,0
497,2190005003151,登記記録の閉鎖等,0,2025-10-20,2025-10-09,特定非営利活動法人安濃津福祉会,,その他の設立登記法人,三重県,津市,夢が丘１丁目６番地２,,24,201,5140116,,,2025-10-09,清算の結了等,,,2015-10-05,1,,,,,アノツフクシカイ,0
500,2200002001973,登記記録の閉鎖等,0,2025-10-20,2025-10-17,有限会社さくら造園,,有限会社,岐阜県,岐阜市,粟野西２丁目１４８番地,,21,201,5020006,,,2025-10-17,清算の結了等,,,2015-10-05,1,,,,,サクラゾウエン,0
504,2230002006441,登記記録の閉鎖等,0,2025-10-20,2025-10-10,有限会社高柳,,有限会社,富山県,富山市,下大久保３２２４番地の１,,16,201,9392251,,,2025-10-10,清算の結了等,,,2015-10-05,1,,,,,タカヤナギ,0
509,2260002013609,登記記録の閉鎖等,0,2025-10-20,2025-10-08,有限会社ヒロエンタープライズ,,有限会社,岡山県,岡山市北区,南中央町９－８,,33,101,7000837,,,2025-10-08,清算の結了等,,,2015-10-05,1,,,,,ヒロエンタープライズ,0
515,2290001048108,登記記録の閉鎖等,0,2025-10-20,2025-10-01,株式会社平山企画,,株式会社,神奈川県,川崎市宮前区,小台１丁目７番地５－３０５号,,14,136,2160007,,,2025-10-01,合併による解散等,3020001080581,令和７年１０月１日川崎市宮前区小台一丁目７番地５－３０５号株式会社平山産業（3020001080581）に合併し解散,2015-10-05,1,,,,,ヒラヤマキカク,0
533,2300001010899,登記記録の閉鎖等,0,2025-10-20,2025-10-16,株式会社ケイサポート,,株式会社,佐賀県,唐津市,和多田大土井７番３８号,,41,202,8470083,,,2025-10-16,清算の結了等,,,2017-07-04,1,,,,,,0
549,2370603000333,登記記録の閉鎖等,0,2025-10-20,2025-10-14,合同会社トリプルワンアクト,,合同会社,新潟県,新潟市中央区,有明台５－３４,,15,103,9518145,,,2025-10-14,清算の結了等,,,2015-10-05,1,,,,,トリプルワンアクト,0
553,2400002012125,登記記録の閉鎖等,0,2025-10-20,2025-10-02,有限会社ダイチ,,有限会社,岩手県,釜石市,只越町３丁目６番１７号,,03,211,0260021,,,2025-10-02,清算の結了等,,,2015-10-05,1,,,,,ダイチ,0
557,2420002008922,登記記録の閉鎖等,0,2025-10-20,2025-10-02,有限会社マズミタイル商会,,有限会社,青森県,八戸市,青葉１丁目１７番１７号,,02,203,0310804,,,2025-10-02,清算の結了等,,,2015-10-05,1,,,,,,0
560,2430001062110,登記記録の閉鎖等,0,2025-10-20,2025-10-07,株式会社Ｍ工房,,株式会社,北海道,苫小牧市,東開町４丁目５番７号,,01,213,0591301,,,2025-10-07,清算の結了等,,,2015-10-05,1,,,,,エムコウボウ,0
566,2470001018018,登記記録の閉鎖等,0,2025-10-20,2025-10-16,株式会社天力,,株式会社,香川県,丸亀市,川西町北４９３番地４,,37,202,7630091,,,2025-10-16,清算の結了等,,,2020-04-27,1,,,,,テンリキ,0
585,3010005036481,登記記録の閉鎖等,0,2025-10-20,2025-10-15,一般社団法人国際人材投資ラボ,,その他の設立登記法人,東京都,千代田区,内神田１丁目１５番７号,,13,101,1010047,,,2025-10-15,清算の結了等,,,2023-04-12,1,,,,,コクサイジンザイトウシラボ,0
587,3010401008134,登記記録の閉鎖等,0,2025-10-20,2025-09-16,株式会社共和,,株式会社,東京都,港区,芝２丁目３番１０号サトービル３階,,13,103,1050014,,,2025-09-16,清算の結了等,,,2015-10-05,1,,,,,キョウワ,0
589,3010401119914,登記記録の閉鎖等,0,2025-10-20,2025-09-16,ＴＭ東京不動産株式会社,,株式会社,東京都,港区,高輪３丁目１９番２３号,,13,103,1080074,,,2025-09-16,清算の結了等,,,2015-10-05,1,,,,,ティーエムトウキョウフドウサン,0
606,3011001103077,登記記録の閉鎖等,0,2025-10-20,2025-09-16,株式会社ｚｅｓ,,株式会社,東京都,新宿区,西新宿３丁目５番１２号トーカン新宿第２キャステール２０９号室,,13,104,1600023,,,2025-09-16,清算の結了等,,,2015-10-05,1,,,,,ズィーイーエス,0
618,3011101097657,登記記録の閉鎖等,0,2025-10-20,2025-09-10,株式会社リライト,,株式会社,東京都,新宿区,西新宿７丁目１７番１４－１０６号,,13,104,1600023,,,2025-09-10,清算の結了等,,,2022-02-01,1,,,,,リライト,0
634,3011601025984,登記記録の閉鎖等,0,2025-10-20,2025-10-08,株式会社ＦＲＳ,,株式会社,東京都,練馬区,南大泉１丁目４７－１１－１０６,,13,120,1780064,,,2025-10-08,清算の結了等,,,2022-05-26,1,,,,,エフアールエス,0
638,3011703002576,登記記録の閉鎖等,0,2025-10-20,2025-10-06,３２合同会社,,合同会社,東京都,江戸川区,北葛西２丁目２３番１５－２０５号,,13,123,1340081,,,2025-10-06,清算の結了等,,,2020-06-23,1,,,,,サンジュウニ,0
643,3012402017774,登記記録の閉鎖等,0,2025-10-20,2025-09-11,株式会社松井商店,,株式会社,千葉県,流山市,大字鰭ケ崎１４７５番地の１４３,,12,220,2700161,,,2025-09-11,清算の結了等,,,2015-10-05,1,,,,,マツイショウテン,0
645,3012701014976,登記記録の閉鎖等,0,2025-10-20,2025-10-10,ＹＥＳ株式会社,,株式会社,東京都,東久留米市,東本町７番１１号,,13,222,2030014,,,2025-10-10,清算の結了等,,,2018-08-29,1,,,,,イエス,0
700,3120001052001,登記記録の閉鎖等,0,2025-10-20,2025-10-08,株式会社昭和興産,,株式会社,大阪府,大阪市東淀川区,小松３丁目６番８号,,27,114,5330004,,,2025-10-08,清算の結了等,,,2015-10-05,1,,,,,ショウワコウサン,0
701,3120001080217,登記記録の閉鎖等,0,2025-10-20,2025-10-09,株式会社サン・プリンティング,,株式会社,大阪府,大阪市中央区,本町橋８番１５号,,27,128,5400029,,,2025-10-09,清算の結了等,,,2015-10-05,1,,,,,サンプリンティング,0
724,3120101041465,登記記録の閉鎖等,0,2025-10-20,2025-10-01,三伸富士工業株式会社,,株式会社,大阪府,堺市西区,鳳東町２丁１９３番地,,27,144,5938324,,,2025-10-01,合併による解散等,6120101047906,令和７年１０月１日大阪府和泉市平井町１５０番地１株式会社三伸（6120101047906）に合併し解散,2015-10-05,1,,,,,サンシンフジコウギョウ,0
725,3120101046217,登記記録の閉鎖等,0,2025-10-20,2025-10-06,株式会社山田建設,,株式会社,大阪府,岸和田市,南町１１番２１号,,27,202,5960067,,,2025-10-06,清算の結了等,,,2015-10-05,1,,,,,ヤマダケンセツ,0
744,3130001034196,登記記録の閉鎖等,0,2025-10-20,2025-10-14,ネクストムーヴ株式会社,,株式会社,京都府,京都市下京区,朱雀宝蔵町４４番地協栄ビル２階京都朱雀スタジオ,,26,106,6008846,,,2025-10-14,清算の結了等,,,2015-10-05,1,,,,,ネクストムーヴ,0
745,3130001049649,登記記録の閉鎖等,0,2025-10-20,2025-10-16,株式会社リバーフィールドコミュニケーションズ,,株式会社,京都府,長岡京市,今里２丁目１１番１７号,,26,209,6170814,,,2025-10-16,清算の結了等,,,2015-10-05,1,,,,,リバーフィールドコミュニケーションズ,0
747,3130002027926,登記記録の閉鎖等,0,2025-10-20,2025-10-16,有限会社Ｋ．Ｓ．プランニング,,有限会社,京都府,宇治市,木幡熊小路１９番地の４３,,26,204,6110002,,,2025-10-16,清算の結了等,,,2015-10-05,1,,,,,ケイエスプランニング,0
783,3190002021642,登記記録の閉鎖等,0,2025-10-20,2025-10-14,有限会社ヒダ,,有限会社,三重県,四日市市,垂坂町８６４番地の７,,24,202,5108037,,,2025-10-14,清算の結了等,,,2015-10-05,1,,,,,ヒダ,0
793,3240001056155,登記記録の閉鎖等,0,2025-10-20,2025-10-14,ソルポート株式会社,,株式会社,広島県,広島市中区,大手町３丁目８番１号大手町中央ビル１２Ｆ,,34,101,7300051,,,2025-10-14,清算の結了等,,,2020-05-29,1,,,,,ソルポート,0
801,3260002028416,登記記録の閉鎖等,0,2025-10-20,2025-09-19,有限会社三協食鳥,,有限会社,岡山県,津山市,河辺１１０２番地の１,,33,203,7080842,,,2025-09-19,合併による解散等,4140001139893,令和７年９月１日岡山市南区山田１００１番地３株式会社せとうち三協食鳥（4260001037722）、岡山県津山市河辺１１０２番地の１株式会社ナチュラルノーサン（6260001020081）、兵庫県姫路市網干区興浜２０９３番地の１３３株式会社プーレまつもと（6140002050544）、神戸市西区平野町中津字北川５８９番地の１０株式会社サンショク（2140002004561）及び京都市南区上鳥羽南島田町７２番地株式会社京都三協食鳥（8130001057151）と合併して神戸市西区平野町中津字北川５８９番地の１０株式会社三協食鳥（4140001139893）を設立し解散,2015-10-05,1,,,,,サンキョウショクチョウ,0
820,3330001013618,登記記録の閉鎖等,0,2025-10-20,2025-10-01,大日産業株式会社,,株式会社,熊本県,八代市,毘舎丸町１番３号,,43,202,8660851,,,2025-10-01,合併による解散等,7330001026021,令和７年１０月１日熊本県八代市毘舎丸町１番３号株式会社ＭＡＴＳＵＫＩ（7330001026021）に合併し解散,2015-10-05,1,,,,,ダイニチサンギョウ,0
852,3440002003540,登記記録の閉鎖等,0,2025-10-20,2025-10-16,有限会社伯昭商事,,有限会社,北海道,北斗市,追分４丁目１１番３０号,,01,236,0490101,,,2025-10-16,清算の結了等,,,2015-10-05,1,,,,,ハクショウショウジ,0
861,4010001219139,登記記録の閉鎖等,0,2025-10-20,2025-10-01,Ｍｅｒａｋ株式会社,,株式会社,東京都,千代田区,神田平河町１番地第３東ビル５階,,13,101,1010027,,,2025-10-01,清算の結了等,,,2021-06-23,1,,,,,メラク,0
871,4010401106614,登記記録の閉鎖等,0,2025-10-20,2025-09-17,インペリアル・ブランズ・ジャパン合同会社,,合同会社,東京都,港区,海岸１丁目２番３号汐留芝離宮ビルディング２１階,,13,103,1050022,,,2025-09-17,清算の結了等,,,2015-10-05,1,,,,,インペリアルブランズジャパン,0
879,4010403032800,登記記録の閉鎖等,0,2025-10-20,2025-09-17,ユニバーサルビューティーテック合同会社,,合同会社,東京都,港区,南青山３丁目１番３６号青山丸竹ビル６Ｆ,,13,103,1070062,,,2025-09-17,清算の結了等,,,2024-06-21,1,,,,,ユニバーサルビューティーテック,0
888,4010602028723,登記記録の閉鎖等,0,2025-10-20,2025-10-06,有限会社エム管理,,有限会社,東京都,江東区,大島５丁目４７番８号,,13,108,1360072,,,2025-10-06,清算の結了等,,,2015-10-05,1,,,,,エムカンリ,0
891,4010901004846,登記記録の閉鎖等,0,2025-10-20,2025-10-15,株式会社さのや,,株式会社,東京都,世田谷区,北烏山４丁目１８番１４号,,13,112,1570061,,,2025-10-15,合併による解散等,4013201002900,令和７年８月３１日東京都府中市宮西町三丁目１６番地の１ルフォン府中７０３株式会社シヤブロン（4013201002900）に合併し解散,2015-10-05,1,,,,,サノヤ,0
898,4011101053477,登記記録の閉鎖等,0,2025-10-20,2025-09-12,株式会社松坂屋,,株式会社,東京都,新宿区,喜久井町３４番地,,13,104,1620044,,,2025-09-12,清算の結了等,,,2015-10-05,1,,,,,マツザカヤ,0
902,4011102002648,登記記録の閉鎖等,0,2025-10-20,2025-09-16,有限会社オガワスタジオ,,有限会社,東京都,新宿区,早稲田鶴巻町５６０番地,,13,104,1620041,,,2025-09-16,清算の結了等,,,2015-10-05,1,,,,,オガワスタジオ,0
905,4011201011129,登記記録の閉鎖等,0,2025-10-20,2025-10-09,松野産業株式会社,,株式会社,東京都,中野区,中野２丁目１２番１５号中野リハイム２０３号,,13,114,1640001,,,2025-10-09,清算の結了等,,,2015-10-05,1,,,,,マツノサンギョウ,0
907,4011301015153,登記記録の閉鎖等,0,2025-10-20,2025-10-09,株式会社廣戸ホールディングス,,株式会社,東京都,杉並区,高円寺南４丁目１２番１８号大竹マンション１Ｆ,,13,115,1660003,,,2025-10-09,清算の結了等,,,2015-10-05,1,,,,,ヒロトホールディングス,0
909,4011501017783,登記記録の閉鎖等,0,2025-10-20,2025-10-14,株式会社Ａ・Ｐ・Ｍ,,株式会社,東京都,北区,赤羽１丁目２１番１－２０２号,,13,117,1150045,,,2025-10-14,清算の結了等,,,2015-10-05,1,,,,,エーピーエム,0
911,4011501023402,登記記録の閉鎖等,0,2025-10-20,2025-10-14,株式会社青木塗装,,株式会社,東京都,荒川区,荒川６丁目２０番１５号,,13,118,1160002,,,2025-10-14,清算の結了等,,,2018-01-29,1,,,,,,0
922,4012402018870,登記記録の閉鎖等,0,2025-10-20,2025-10-06,有限会社佐々木洋服店,,有限会社,東京都,三鷹市,新川６丁目１５番５号ペガサスマンション２０５号,,13,204,1810004,,,2025-10-06,清算の結了等,,,2015-10-05,1,,,,,ササキヨウフクテン,0
937,4020001080580,登記記録の閉鎖等,0,2025-10-20,2025-10-01,株式会社ＤＨＦホールディングス,,株式会社,神奈川県,川崎市宮前区,小台１丁目７番地５－３０５号,,14,136,2160007,,,2025-10-01,合併による解散等,3020001080581,令和７年１０月１日川崎市宮前区小台一丁目７番地５－３０５号株式会社平山産業（3020001080581）に合併し解散,2015-10-05,1,,,,,ディエイチエフホールディングス,0
951,4030001029107,登記記録の閉鎖等,0,2025-10-20,2025-10-01,株式会社平山ミュージック,,株式会社,神奈川県,川崎市宮前区,小台１丁目７番地５－３０５号,,14,136,2160007,,,2025-10-01,合併による解散等,3020001080581,令和７年１０月１日川崎市宮前区小台一丁目７番地５－３０５号株式会社平山産業（3020001080581）に合併し解散,2015-10-05,1,,,,,ヒラヤマミュージック,0
956,4030001061332,登記記録の閉鎖等,0,2025-10-20,2025-10-01,株式会社平山工芸,,株式会社,神奈川県,川崎市宮前区,小台１丁目７番地５－３０５号,,14,136,2160007,,,2025-10-01,合併による解散等,3020001080581,令和７年１０月１日川崎市宮前区小台一丁目７番地５－３０５号株式会社平山産業（3020001080581）に合併し解散,2015-10-05,1,,,,,ヒラヤマコウゲイ,0
957,4030001089373,登記記録の閉鎖等,0,2025-10-20,2025-10-09,株式会社弦,,株式会社,埼玉県,飯能市,大字赤沢１０４０番地３,,11,209,3570128,,,2025-10-09,清算の結了等,,,2015-10-05,1,,,,,ゲン,0
959,4030001123173,登記記録の閉鎖等,0,2025-10-20,2025-10-08,株式会社田崎電気設備,,株式会社,埼玉県,所沢市,小手指元町３丁目２２番地の１２,,11,208,3591147,,,2025-10-08,清算の結了等,,,2017-11-28,1,,,,,タザキデンキセツビ,0
962,4030002042785,登記記録の閉鎖等,0,2025-10-20,2025-10-08,有限会社花みずき,,有限会社,埼玉県,加須市,花崎北１丁目６番地８佐藤ビル２階,,11,210,3470016,,,2025-10-08,清算の結了等,,,2015-10-05,1,,,,,ハナミズキ,0
979,4060001023759,登記記録の閉鎖等,0,2025-10-20,2025-10-15,株式会社トップランサービス,,株式会社,栃木県,佐野市,小見町４６６番地,,09,204,3270316,,,2025-10-15,清算の結了等,,,2015-10-05,1,,,,,トップランサービス,0
988,4090001010044,登記記録の閉鎖等,0,2025-10-20,2025-10-09,ＦＦ株式会社,,株式会社,山梨県,富士吉田市,上吉田１丁目６番１８号,,19,202,4030005,,,2025-10-09,清算の結了等,,,2015-10-05,1,,,,,エフエフ,0
996,4120001202182,登記記録の閉鎖等,0,2025-10-20,2025-10-08,ブス－エスエムエス－カンツラー株式会社,,株式会社,大阪府,大阪市東淀川区,東中島１丁目１７番５号,,27,114,5330033,,,2025-10-08,清算の結了等,,,2016-11-30,1,,,,,ブスエスエムエスカンツラー,0
998,4120001231594,登記記録の閉鎖等,0,2025-10-20,2025-10-09,大手前イクスチェンバー株式会社,,株式会社,大阪府,大阪市中央区,谷町２丁目３番６号大手前ストークマンション７０１号,,27,128,5400012,,,2025-10-09,清算の結了等,,,2020-09-08,1,,,,,オオテマエイクスチェンバー,0
1002,4120001248300,登記記録の閉鎖等,0,2025-10-20,2025-10-14,株式会社スカイ,,株式会社,大阪府,大阪市中央区,北浜３丁目５番１９号,,27,128,5410041,,,2025-10-14,清算の結了等,,,2022-08-22,1,,,,,スカイ,0
1019,4120101042173,登記記録の閉鎖等,0,2025-10-20,2025-10-03,株式会社飯端,,株式会社,大阪府,泉大津市,池浦町３丁目６番３４号,,27,206,5950024,,,2025-10-03,清算の結了等,,,2015-10-05,1,,,,,イイバタ,0
1020,4120101063822,登記記録の閉鎖等,0,2025-10-20,2025-10-02,西嶼株式会社,,株式会社,大阪府,和泉市,和田町１５６番地の７,,27,219,5941102,,,2025-10-02,清算の結了等,,,2021-06-16,1,,,,,シーユー,0
1044,4160001016810,登記記録の閉鎖等,0,2025-10-20,2025-10-14,クラスホールディングス株式会社,,株式会社,滋賀県,栗東市,安養寺７丁目２番２２号,,25,208,5203015,,,2025-10-14,合併による解散等,1010001250096,令和７年１０月１日東京都千代田区大手町一丁目９番２号クラスホールディングス株式会社（1010001250096）に合併し解散,2015-10-05,1,,,,,クラスホールディングス,0
1050,4180001048612,登記記録の閉鎖等,0,2025-10-20,2025-10-06,株式会社プレイザール,,株式会社,愛知県,名古屋市中区,金山１丁目４番２号アーバンラフレ金山５０７号,,23,106,4600022,,,2025-10-06,清算の結了等,,,2015-10-05,1,,,,,プレイザール,0
1051,4180001061359,登記記録の閉鎖等,0,2025-10-20,2025-10-01,株式会社ミツワ産業,,株式会社,愛知県,名古屋市西区,城北町３丁目６９番地１,,23,104,4510023,,,2025-10-01,合併による解散等,5180001046516,令和７年１０月１日名古屋市西区城北町三丁目６９番地１ドクターエアータオル株式会社（5180001046516）に合併し解散,2015-10-05,1,,,,,ミツワサンギョウ,0
1056,4180001165077,登記記録の閉鎖等,0,2025-10-20,2025-10-06,シャイニーアン株式会社,,株式会社,愛知県,名古屋市中区,松原２丁目１０番７号１階,,23,106,4600017,,,2025-10-06,清算の結了等,,,2025-01-21,1,,,,,シャイニーアン,0
1061,4180003028513,登記記録の閉鎖等,0,2025-10-20,2025-10-01,合同会社フォーディービジョン,,合同会社,愛知県,名古屋市中区,丸の内３丁目１７番６号,,23,106,4600002,,,2025-10-01,合併による解散等,6180001050260,令和７年１０月１日名古屋市中区丸の内三丁目１７番６号ディプロス株式会社（6180001050260）に合併し解散,2025-05-26,1,,,,,フォーディービジョン,0
1067,4200001037629,登記記録の閉鎖等,0,2025-10-20,2025-10-10,株式会社メディカルサービスＦＵＫＡＷＡ,,株式会社,岐阜県,美濃加茂市,加茂野町今泉６４１番地２,,21,211,5050052,,,2025-10-10,清算の結了等,,,2020-07-20,1,,,,,メディカルサービスフカワ,0
1069,4200002001328,登記記録の閉鎖等,0,2025-10-20,2025-10-16,有限会社イーストキャニオン,,有限会社,岐阜県,岐阜市,上土居２丁目２番１１号,,21,201,5020803,,,2025-10-16,清算の結了等,,,2015-10-05,1,,,,,イーストキャニオン,0
1077,4260001037722,登記記録の閉鎖等,0,2025-10-20,2025-09-19,株式会社せとうち三協食鳥,,株式会社,岡山県,岡山市南区,山田１００１番地３,,33,104,7010202,,,2025-09-19,合併による解散等,4140001139893,令和７年９月１日岡山県津山市河辺１１０２番地の１有限会社三協食鳥（3260002028416）、岡山県津山市河辺１１０２番地の１株式会社ナチュラルノーサン（6260001020081）、兵庫県姫路市網干区興浜２０９３番地の１３３株式会社プーレまつもと（6140002050544）、神戸市西区平野町中津字北川５８９番地の１０株式会社サンショク（2140002004561）及び京都市南区上鳥羽南島田町７２番地株式会社京都三協食鳥（8130001057151）と合併して神戸市西区平野町中津字北川５８９番地の１０株式会社三協食鳥（4140001139893）を設立し解散,2023-03-09,1,,,,,セトウチサンキョウショクチョウ,0
1097,4310002015333,登記記録の閉鎖等,0,2025-10-20,2025-10-16,有限会社筑前工業,,有限会社,長崎県,諫早市,天満町５８番１０号,,42,204,8540006,,,2025-10-16,清算の結了等,,,2015-10-05,1,,,,,チクゼンコウギョウ,0
1103,4330001013716,登記記録の閉鎖等,0,2025-10-20,2025-10-01,松木産業株式会社,,株式会社,熊本県,八代市,毘舎丸町１番３号,,43,202,8660851,,,2025-10-01,合併による解散等,7330001026021,令和７年１０月１日熊本県八代市毘舎丸町１番３号株式会社ＭＡＴＳＵＫＩ（7330001026021）に合併し解散,2015-10-05,1,,,,,マツキサンギョウ,0
1106,4340002010892,登記記録の閉鎖等,0,2025-10-20,2025-10-08,有限会社柿本自動車販売,,有限会社,鹿児島県,鹿児島市,上福元町５９５９番地１３,,46,201,8910116,,,2025-10-08,清算の結了等,,,2015-10-05,1,,,,,,0
1108,4350002009926,登記記録の閉鎖等,0,2025-10-20,2025-10-09,新富エッグシステム株式会社,,株式会社,宮崎県,児湯郡新富町,大字日置５７３５番地１,,45,402,8891401,,,2025-10-09,合併による解散等,6350001005940,令和７年９月３０日宮崎県日向市大字平岩８３５６番地アミューズ株式会社（6350001005940）に合併し解散,2015-10-05,1,,,,,シントミエッグシステム,0
1123,4370002001609,登記記録の閉鎖等,0,2025-10-20,2025-10-02,有限会社プロス,,有限会社,宮城県,仙台市泉区,館６丁目１４番８号,,04,105,9813214,,,2025-10-02,清算の結了等,,,2015-10-05,1,,,,,プロス,0
1124,4370002009800,登記記録の閉鎖等,0,2025-10-20,2025-10-03,有限会社魚政,,有限会社,宮城県,仙台市青葉区,国見３丁目１１番４８号,,04,101,9810943,,,2025-10-03,清算の結了等,,,2015-10-05,1,,,,,ウオマサ,0
1133,4410005003052,登記記録の閉鎖等,0,2025-10-20,2025-10-16,農事組合法人畑沢農事組合,,その他の設立登記法人,秋田県,大館市,比内町八木橋字畑沢岱５９番地の２,,05,204,0185744,,,2025-10-16,清算の結了等,,,2015-10-05,1,,,,,ハタケサワノウジクミアイ,0
1135,4420001014507,登記記録の閉鎖等,0,2025-10-20,2025-10-03,株式会社ケー・エス・カンパニー,,株式会社,青森県,八戸市,大字新井田字常光田１６番地５５,,02,203,0310813,,,2025-10-03,清算の結了等,,,2015-10-05,1,,,,,,0
1142,4430002048156,登記記録の閉鎖等,0,2025-10-20,2025-10-06,有限会社フランス菓子パリ壱六区,,有限会社,北海道,千歳市,栄町４丁目１０番地の１,,01,224,0660061,,,2025-10-06,清算の結了等,,,2015-10-05,1,,,,,フランスカシパリジュウロック,0
1176,5010403027642,登記記録の閉鎖等,0,2025-10-20,2025-09-16,合同会社ツインシティリーシングツー,,合同会社,東京都,港区,虎ノ門２丁目６番１号虎ノ門ヒルズステーションタワー,,13,103,1050001,,,2025-09-16,清算の結了等,,,2022-05-09,1,,,,,ツインシティリーシングツー,0
1197,5011002014833,登記記録の閉鎖等,0,2025-10-20,2025-09-16,有限会社永森総合研究所,,有限会社,東京都,渋谷区,代々木１丁目５８番１０号,,13,113,1510053,,,2025-09-16,清算の結了等,,,2015-10-05,1,,,,,ナガモリソウゴウケンキュウジョ,0
1201,5011101093811,登記記録の閉鎖等,0,2025-10-20,2025-09-11,株式会社ａｎｖｉｖｉｄ,,株式会社,東京都,新宿区,西新宿７丁目１９番１０号,,13,104,1600023,,,2025-09-11,合併による解散等,9010601050797,令和７年９月１日東京都新宿区西新宿七丁目１９番１０号株式会社Ｈａｐｐｙ　Ｈｏｌｄｉｎｇｓ（9010601050797）に合併し解散,2021-01-21,1,,,,,アンビビッド,0
1218,5011801013102,登記記録の閉鎖等,0,2025-10-20,2025-10-15,株式会社ラッシュ,,株式会社,東京都,足立区,保木間４丁目１９－７,,13,121,1210064,,,2025-10-15,清算の結了等,,,2015-10-05,1,,,,,ラッシュ,0
1230,5020001151257,登記記録の閉鎖等,0,2025-10-20,2025-10-06,久創電子株式会社,,株式会社,青森県,上北郡六戸町,大字犬落瀬字堀切沢６０番地１１７８,,02,405,0330071,,,2025-10-06,清算の結了等,,,2023-04-20,1,,,,,キュウソウデンシ,0
1240,5020005000435,登記記録の閉鎖等,0,2025-10-20,2025-09-18,宗教法人天理教元神川分教会,,その他の設立登記法人,神奈川県,横浜市港北区,大倉山７丁目２６番８号,,14,109,2220037,,,2025-09-18,合併による解散等,3080105000612,令和７年９月１１日静岡県裾野市茶畑２０５番地天理教佐野原大教会（3080105000612）に合併し解散,2015-10-05,1,,,,,,0
1246,5030001159019,登記記録の閉鎖等,0,2025-10-20,2025-10-01,株式会社レントケア,,株式会社,埼玉県,新座市,栄５丁目４番４号,,11,230,3520014,,,2025-10-01,合併による解散等,7030003021892,令和７年１０月１日埼玉県新座市栄五丁目４番４号エルエルケアリング株式会社（7030003021892）に合併し解散,2024-03-06,1,,,,,レントケア,0
1247,5030002111861,登記記録の閉鎖等,0,2025-10-20,2025-10-09,有限会社重原工務店,,有限会社,埼玉県,川口市,幸町３丁目１０番１１号,,11,203,3320016,,,2025-10-09,清算の結了等,,,2015-10-05,1,,,,,シゲハラコウムテン,0
1248,5030003022471,登記記録の閉鎖等,0,2025-10-20,2025-10-08,合同会社インテルメッゾ,,合同会社,埼玉県,越谷市,レイクタウン５丁目１８番地８,,11,222,3430828,,,2025-10-08,清算の結了等,,,2023-09-28,1,,,,,インテルメッゾ,0
1287,5120001252342,登記記録の閉鎖等,0,2025-10-20,2025-10-09,株式会社ＳＴＥＬＬＡ　ＥＮＴＥＲＴＡＩＮＭＥＮＴ,,株式会社,大阪府,大阪市西区,靱本町１丁目１８番８号８０１号室,,27,106,5500004,,,2025-10-09,清算の結了等,,,2023-02-08,1,,,,,ステラエンターテインメント,0
1298,5120002001211,登記記録の閉鎖等,0,2025-10-20,2025-10-06,有限会社辰己鉄工所,,有限会社,大阪府,大阪市鶴見区,鶴見２丁目２番２０号,,27,124,5380053,,,2025-10-06,清算の結了等,,,2015-10-05,1,,,,,タツミテッコウショ,0
1301,5120002026679,登記記録の閉鎖等,0,2025-10-20,2025-10-15,有限会社河野製作所,,有限会社,大阪府,大阪市淀川区,新高４丁目６番２１号,,27,123,5320033,,,2025-10-15,清算の結了等,,,2015-10-05,1,,,,,コウノセイサクショ,0
1302,5120002032982,登記記録の閉鎖等,0,2025-10-20,2025-10-07,有限会社ミナカワ,,有限会社,大阪府,大阪市北区,西天満４丁目１番１５号西天満内藤ビル４階,,27,127,5300047,,,2025-10-07,清算の結了等,,,2015-10-05,1,,,,,,0
1313,5130001050150,登記記録の閉鎖等,0,2025-10-20,2025-10-16,株式会社薬寿の森,,株式会社,京都府,亀岡市,宮前町神前障子１１番地,,26,206,6210242,,,2025-10-16,清算の結了等,,,2015-10-05,1,,,,,ヤクジュノモリ,0
1315,5130003009112,登記記録の閉鎖等,0,2025-10-20,2025-10-15,ネコトバ合同会社,,合同会社,京都府,京都市上京区,七本松通一条下る三軒町７１番地１３号,,26,102,6028341,,,2025-10-15,清算の結了等,,,2023-11-21,1,,,,,ネコトバ,0
1316,5130003009806,登記記録の閉鎖等,0,2025-10-20,2025-10-15,合同会社ななみ会,,合同会社,京都府,宇治市,木幡南山８６番地の１１,,26,204,6110002,,,2025-10-15,清算の結了等,,,2024-08-21,1,,,,,ナナミカイ,0
1326,5160002007980,登記記録の閉鎖等,0,2025-10-20,2025-10-16,有限会社岡部工務店,,有限会社,滋賀県,愛知郡愛荘町,栗田４９３番地,,25,425,5291225,,,2025-10-16,清算の結了等,,,2015-10-05,1,,,,,オカベコウムテン,0
1329,5180001061226,登記記録の閉鎖等,0,2025-10-20,2025-10-01,株式会社アイエスティ,,株式会社,愛知県,名古屋市中区,錦１丁目１１番２０号,,23,106,4600003,,,2025-10-01,合併による解散等,1180001059447,令和７年１０月１日名古屋市中区錦一丁目１１番２０号株式会社エイエイエスティ（1180001059447）に合併し解散,2015-10-05,1,,,,,アイエスティ,0
1330,5180001100297,登記記録の閉鎖等,0,2025-10-20,2025-10-01,興和ファシリティマネジメント株式会社,,株式会社,愛知県,名古屋市中区,錦３丁目２３番１８号,,23,106,4600003,,,2025-10-01,合併による解散等,3180001040644,令和７年１０月１日名古屋市中区栄三丁目３番１号興和ファシリティズ株式会社（3180001040644）に合併し解散,2015-10-05,1,,,,,コウワファシリティマネジメント,0
1342,5180301024989,登記記録の閉鎖等,0,2025-10-20,2025-10-06,株式会社ビーム,,株式会社,愛知県,豊田市,昭和町４丁目６３番地,,23,211,4710078,,,2025-10-06,清算の結了等,,,2015-10-05,1,,,,,ビーム,0
1344,5180302002515,登記記録の閉鎖等,0,2025-10-20,2025-10-07,有限会社ハナオカ,,有限会社,愛知県,岡崎市,明大寺町字西郷中３０番地１,,23,202,4440867,,,2025-10-07,清算の結了等,,,2015-10-05,1,,,,,ハナオカ,0
1345,5180302006747,登記記録の閉鎖等,0,2025-10-20,2025-10-10,有限会社大木配管工業,,有限会社,愛知県,豊橋市,飯村南５丁目３番地２３,,23,201,4400835,,,2025-10-10,清算の結了等,,,2015-10-05,1,,,,,オオギハイカンコウギョウ,0
1348,5200003003215,登記記録の閉鎖等,0,2025-10-20,2025-10-10,山ぼうし合同会社,,合同会社,岐阜県,高山市,下切町４３１番地,,21,203,5060041,,,2025-10-10,清算の結了等,,,2015-10-05,1,,,,,ヤマボウシ,0
1350,5230001003809,登記記録の閉鎖等,0,2025-10-20,2025-10-09,株式会社フレーズ,,株式会社,富山県,富山市,中央通り１丁目６番２９号,,16,201,9300044,,,2025-10-09,清算の結了等,,,2015-10-05,1,,,,,フレーズ,0
1351,5240001053919,登記記録の閉鎖等,0,2025-10-20,2025-10-08,モダナイズ株式会社,,株式会社,東京都,江戸川区,東葛西５丁目１２番１５号ビジネスゲート葛西２ＦＣ号室,,13,123,1340084,,,2025-10-08,清算の結了等,,,2019-02-08,1,,,,,モダナイズ,0
1358,5260005010154,登記記録の閉鎖等,0,2025-10-20,2025-10-02,特定非営利活動法人和気サンシュユの会,,その他の設立登記法人,岡山県,和気郡和気町,藤野６４９番地,,33,346,7090412,,,2025-10-02,清算の結了等,,,2016-09-16,1,,,,,ワケサンシュユノカイ,0
1359,5280001005932,登記記録の閉鎖等,0,2025-10-20,2025-10-16,株式会社読連島根,,株式会社,島根県,松江市,東奥谷町３６３番地２,,32,201,6900871,,,2025-10-16,清算の結了等,,,2015-10-05,1,,,,,ヨミレンシマネ,0
1363,5290001037520,登記記録の閉鎖等,0,2025-10-20,2025-10-01,株式会社平山コンサルティング,,株式会社,神奈川県,川崎市宮前区,小台１丁目７番地５－３０５号,,14,136,2160007,,,2025-10-01,合併による解散等,3020001080581,令和７年１０月１日川崎市宮前区小台一丁目７番地５－３０５号株式会社平山産業（3020001080581）に合併し解散,2015-10-05,1,,,,,ヒラヤマコンサルティング,0
1369,5290002005006,登記記録の閉鎖等,0,2025-10-20,2025-09-17,システムサポート有限会社,,有限会社,福岡県,福岡市東区,多々良２丁目５１番３１－２０１号,,40,131,8130033,,,2025-09-17,清算の結了等,,,2015-10-05,1,,,,,システムサポート,0
1371,5290002026976,登記記録の閉鎖等,0,2025-10-20,2025-09-17,有限会社石倉電化設備,,有限会社,福岡県,福岡市博多区,上牟田１丁目３０番１９号,,40,132,8120006,,,2025-09-17,清算の結了等,,,2015-10-05,1,,,,,イシクラデンカセツビ,0
1381,5330001013715,登記記録の閉鎖等,0,2025-10-20,2025-10-01,松木運輸株式会社,,株式会社,熊本県,八代市,毘舎丸町１番３号,,43,202,8660851,,,2025-10-01,合併による解散等,7330001026021,令和７年１０月１日熊本県八代市毘舎丸町１番３号株式会社ＭＡＴＳＵＫＩ（7330001026021）に合併し解散,2015-10-05,1,,,,,マツキウンユ,0
1385,5340002006989,登記記録の閉鎖等,0,2025-10-20,2025-10-03,有限会社中原工業,,有限会社,鹿児島県,鹿児島市,平川町５８００番地２９,,46,201,8910133,,,2025-10-03,清算の結了等,,,2015-10-05,1,,,,,,0
1396,5360005006786,登記記録の閉鎖等,0,2025-10-20,2025-10-14,行政書士法人ニライ,,その他の設立登記法人,沖縄県,中頭郡北谷町,字浜川８番地２４しまぜんビル２Ｆ－Ｂ,,47,326,9040112,,,2025-10-14,清算の結了等,,,2023-02-10,1,,,,,ニライ,0
1414,5500005007828,登記記録の閉鎖等,0,2025-10-20,2025-10-15,一般社団法人ひかりの樹,,その他の設立登記法人,愛媛県,西条市,明屋敷６５７番地５,,38,206,7930023,,,2025-10-15,清算の結了等,,,2017-01-10,1,,,,,ヒカリノキ,0
1426,6010003032587,登記記録の閉鎖等,0,2025-10-20,2025-09-30,ＡＲＴＬＥＳＳ　ＳＴＵＤＩＯ合同会社,,合同会社,東京都,千代田区,富士見２丁目１０番３－２５０７号,,13,101,1020071,,,2025-09-30,清算の結了等,,,2020-07-10,1,,,,,アートレスストゥディオ,0
1467,6011201025390,登記記録の閉鎖等,0,2025-10-20,2025-10-01,株式会社Ｄ１Ｍ,,株式会社,東京都,中野区,大和町４丁目５０－７,,13,114,1650034,,,2025-10-01,清算の結了等,,,2024-04-10,1,,,,,ディーワンエム,0
1468,6011301023501,登記記録の閉鎖等,0,2025-10-20,2025-09-11,ユニバーサルアーティスト株式会社,,株式会社,東京都,新宿区,西新宿７丁目１９番１０号,,13,104,1600023,,,2025-09-11,合併による解散等,9010601050797,令和７年９月１日東京都新宿区西新宿七丁目１９番１０号株式会社Ｈａｐｐｙ　Ｈｏｌｄｉｎｇｓ（9010601050797）に合併し解散,2017-09-07,1,,,,,ユニバーサルアーティスト,0
1470,6011401019738,登記記録の閉鎖等,0,2025-10-20,2025-10-06,株式会社都ホールディングス,,株式会社,東京都,江東区,南砂７丁目１０番９－６１８号,,13,108,1360076,,,2025-10-06,清算の結了等,,,2016-09-27,1,,,,,ミヤコホールディングス,0
1479,6011803006425,登記記録の閉鎖等,0,2025-10-20,2025-10-10,合同会社ＫＭＧＤ,,合同会社,東京都,葛飾区,西水元１丁目１８番２１号センターハウスＢ棟２０２,,13,122,1250031,,,2025-10-10,清算の結了等,,,2024-08-26,1,,,,,ケーエムジーディー,0
1481,6012305001716,登記記録の閉鎖等,0,2025-10-20,2025-09-30,一般社団法人町田測量・設計協会,,その他の設立登記法人,東京都,町田市,本町田３１４８番地２,,13,209,1940032,,,2025-09-30,清算の結了等,,,2015-10-05,1,,,,,マチダソクリョウセッケイキョウカイ,0
1492,6020001077583,登記記録の閉鎖等,0,2025-10-20,2025-09-25,株式会社アキ設計,,株式会社,神奈川県,川崎市中原区,木月４丁目２４番１号,,14,133,2110025,,,2025-09-25,清算の結了等,,,2015-10-05,1,,,,,アキセッケイ,0
1501,6030001036084,登記記録の閉鎖等,0,2025-10-20,2025-10-09,篠崎運輸倉庫株式会社,00014838,株式会社,埼玉県,八潮市,大字西袋１４６１番地の１,,11,234,3400833,,,2025-10-09,清算の結了等,,,2015-10-05,1,,,,,シノザキウンユソウコ,0
1504,6030001121951,登記記録の閉鎖等,0,2025-10-20,2025-10-09,株式会社ＪＳ,,株式会社,埼玉県,入間市,東藤沢５丁目１０番３号,,11,225,3580012,,,2025-10-09,清算の結了等,,,2017-08-25,1,,,,,ジェイエス,0
1511,6030002072962,登記記録の閉鎖等,0,2025-10-20,2025-10-08,有限会社キングス・ジャパン,,有限会社,埼玉県,川越市,今成２丁目８番地１２,,11,201,3501105,,,2025-10-08,清算の結了等,,,2015-10-05,1,,,,,キングスジャパン,0
1528,6060001023344,登記記録の閉鎖等,0,2025-10-20,2025-10-14,関沢建工株式会社,,株式会社,栃木県,宇都宮市,下荒針町３８０８番地２１,,09,201,3210346,,,2025-10-14,清算の結了等,,,2015-10-05,1,,,,,セキザワケンコウ,0
1531,6080003001890,登記記録の閉鎖等,0,2025-10-20,2025-10-09,Ａ－ＴＡ合同会社,,合同会社,静岡県,静岡市葵区,瀬名川２丁目３４番３号,,22,101,4200913,,,2025-10-09,清算の結了等,,,2016-08-03,1,,,,,エーティーエー,0
1534,6080401002219,登記記録の閉鎖等,0,2025-10-20,2025-10-08,静幸建設株式会社,,株式会社,静岡県,浜松市中央区,豊西町３６番地,,22,138,4313102,,,2025-10-08,清算の結了等,,,2015-10-05,1,,,,,セイコウケンセツ,0
1550,6110001037454,登記記録の閉鎖等,0,2025-10-20,2025-10-14,株式会社ハグオーバー,,株式会社,新潟県,新潟市中央区,米山３丁目１－３１パストラルハイム米山弐番館１３０１,,15,103,9500916,,,2025-10-14,清算の結了等,,,2023-04-14,1,,,,,ハグオーバー,0
1559,6120001120993,登記記録の閉鎖等,0,2025-10-20,2025-10-14,株式会社ヤマデン,,株式会社,大阪府,大阪市西成区,玉出東２丁目３番２１－８０１号,,27,122,5570043,,,2025-10-14,清算の結了等,,,2015-10-05,1,,,,,ヤマデン,0
1587,6130001004733,登記記録の閉鎖等,0,2025-10-20,2025-10-14,株式会社コウリョウ,,株式会社,京都府,京都市北区,西賀茂北鎮守菴町１２１番地,,26,101,6038847,,,2025-10-14,清算の結了等,,,2015-10-05,1,,,,,コウリョウ,0
1589,6130001075824,登記記録の閉鎖等,0,2025-10-20,2025-10-16,株式会社ＳＯ‐ＤＡＩ,,株式会社,京都府,京都市伏見区,桃山町丹後８－４,,26,109,6128018,,,2025-10-16,清算の結了等,,,2023-11-29,1,,,,,ソーダイ,0
1600,6140002060592,登記記録の閉鎖等,0,2025-10-20,2025-10-09,有限会社ジャストホーム,,有限会社,兵庫県,西宮市,今津曙町１１番１１号,00041387,28,204,6638214,,,2025-10-09,清算の結了等,,,2015-10-05,1,,,,,ジャストホーム,0
1613,6180001054435,登記記録の閉鎖等,0,2025-10-20,2025-10-14,東海フィードワン販売株式会社,,株式会社,愛知県,名古屋市港区,船見町１９番地,,23,111,4550027,,,2025-10-14,合併による解散等,4050001011450,令和７年１０月１日茨城県石岡市国府二丁目１番２５号鹿島フィードワン販売株式会社（4050001011450）に合併し解散,2015-10-05,1,,,,,トウカイフィードワンハンバイ,0
1614,6180001111839,登記記録の閉鎖等,0,2025-10-20,2025-10-03,株式会社ＧＦＣ,,株式会社,愛知県,名古屋市守山区,桔梗平３丁目２４０３番地の５,,23,113,4630814,,,2025-10-03,清算の結了等,,,2015-10-05,1,,,,,ジーエフシー,0
1617,6180002000834,登記記録の閉鎖等,0,2025-10-20,2025-10-06,有限会社スマイル・ノノ,,有限会社,愛知県,名古屋市守山区,川北町３５０番地,,23,113,4630098,,,2025-10-06,清算の結了等,,,2015-10-05,1,,,,,スマイルノノ,0
1618,6180002014867,登記記録の閉鎖等,0,2025-10-20,2025-10-06,有限会社水谷工作所,,有限会社,愛知県,名古屋市南区,汐田町２番２号,,23,112,4570016,,,2025-10-06,清算の結了等,,,2015-10-05,1,,,,,ミズタニコウサクショ,0
1633,6240002006156,登記記録の閉鎖等,0,2025-10-20,2025-10-10,有限会社コンベンションクリエイト,,有限会社,広島県,広島市中区,八丁堀４番１２号,,34,101,7300013,,,2025-10-10,清算の結了等,,,2015-10-05,1,,,,,,0
1640,6260001020081,登記記録の閉鎖等,0,2025-10-20,2025-09-19,株式会社ナチュラルノーサン,,株式会社,岡山県,津山市,河辺１１０２番地の１,,33,203,7080842,,,2025-09-19,合併による解散等,4140001139893,令和７年９月１日岡山県津山市河辺１１０２番地の１有限会社三協食鳥（3260002028416）、岡山市南区山田１００１番地３株式会社せとうち三協食鳥（4260001037722）、兵庫県姫路市網干区興浜２０９３番地の１３３株式会社プーレまつもと（6140002050544）、神戸市西区平野町中津字北川５８９番地の１０株式会社サンショク（2140002004561）及び京都市南区上鳥羽南島田町７２番地株式会社京都三協食鳥（8130001057151）と合併して神戸市西区平野町中津字北川５８９番地の１０株式会社三協食鳥（4140001139893）を設立し解散,2015-10-05,1,,,,,ナチュラルノーサン,0
1653,6290001099056,登記記録の閉鎖等,0,2025-10-20,2025-09-18,株式会社のばるくん,,株式会社,福岡県,福岡市中央区,天神１丁目１番１号,,40,133,8100001,,,2025-09-18,清算の結了等,,,2022-10-03,1,,,,,ノバルクン,0
1660,6290005012766,登記記録の閉鎖等,0,2025-10-20,2025-09-18,公益財団法人大牟田市地域活性化センター,,その他の設立登記法人,福岡県,大牟田市,健老町４６１番地,,40,202,8360011,,,2025-09-18,清算の結了等,,,2015-10-05,1,,,,,,0
1678,6350002011979,登記記録の閉鎖等,0,2025-10-20,2025-10-14,有限会社黒田電業,,有限会社,宮崎県,延岡市,野田町５０１０番地７９,,45,203,8820801,,,2025-10-14,清算の結了等,,,2015-10-05,1,,,,,クロダデンギョウ,0
1709,6470002003774,登記記録の閉鎖等,0,2025-10-20,2025-10-10,有限会社スエザワ不動産,,有限会社,香川県,高松市,勅使町２４０番地３,,37,201,7618058,,,2025-10-10,清算の結了等,,,2015-10-05,1,,,,,スエザワフドウサン,0
1710,6470002007973,登記記録の閉鎖等,0,2025-10-20,2025-10-15,有限会社熊野興業,,有限会社,香川県,高松市,元山町２７２番地,,37,201,7610311,,,2025-10-15,清算の結了等,,,2015-10-05,1,,,,,,0
1728,7010401187387,登記記録の閉鎖等,0,2025-10-20,2025-09-16,デザインマネジメント株式会社,,株式会社,東京都,港区,西新橋１丁目７番５号ＢＩＲＴＨＷＯＲＫ虎の門,,13,103,1050003,,,2025-09-16,清算の結了等,,,2025-01-08,1,,,,,デザインマネジメント,0
1738,7010701027499,登記記録の閉鎖等,0,2025-10-20,2025-10-10,株式会社ロキグループ,,株式会社,東京都,品川区,南大井６丁目２０番１２号,,13,109,1400013,,,2025-10-10,合併による解散等,2010701010575,令和７年１０月１日東京都品川区南大井六丁目２０番１２号株式会社ロキテクノ（2010701010575）に合併し解散,2015-10-05,1,,,,,ロキグループ,0
1741,7010901036325,登記記録の閉鎖等,0,2025-10-20,2025-10-17,株式会社ＵＮＩＴＥＱ　ＤＥＳＩＧＮ,,株式会社,東京都,世田谷区,深沢３丁目２６－３－１０２,,13,112,1580081,,,2025-10-17,清算の結了等,,,2015-10-05,1,,,,,ユニテックデザイン,0
1746,7011002003586,登記記録の閉鎖等,0,2025-10-20,2025-09-17,有限会社クリエーターズマネージメントスタジオホワイト,,有限会社,東京都,目黒区,駒場３丁目５番１３号,,13,110,1530041,,,2025-09-17,清算の結了等,,,2015-10-05,1,,,,,クリエーターズマネージメントスタジオホワイト,0
1757,7011501030602,登記記録の閉鎖等,0,2025-10-20,2025-10-14,イノベーションデザイン株式会社,,株式会社,東京都,荒川区,東日暮里５丁目３９－１３ハイネス東日暮里４０１号室,,13,118,1160014,,,2025-10-14,清算の結了等,,,2024-05-30,1,,,,,イノベーションデザイン,0
1760,7011603001427,登記記録の閉鎖等,0,2025-10-20,2025-09-16,合同会社エテルナ,,合同会社,東京都,港区,高輪３丁目９番１６号ＬＹＮＸ高輪,,13,103,1080074,,,2025-09-16,清算の結了等,,,2015-10-05,1,,,,,エテルナ,0
1764,7012301006065,登記記録の閉鎖等,0,2025-10-20,2025-10-01,株式会社タック,,株式会社,東京都,町田市,広袴町４３８番地１５,,13,209,1950052,,,2025-10-01,清算の結了等,,,2015-10-05,1,,,,,タック,0
1776,7020001085040,登記記録の閉鎖等,0,2025-10-20,2025-10-15,ＵＴエフサス・クリエ株式会社,,株式会社,神奈川県,川崎市中原区,小杉町１丁目４０３番地３５,,14,133,2110063,,,2025-10-15,合併による解散等,9020001070107,令和７年１０月１日東京都品川区東五反田一丁目１１番１５号ＦＪＵＴプラス株式会社（9020001070107）に合併し解散,2015-10-05,1,,,,,ユーティーエフサスクリエ,0
1785,7030001144679,登記記録の閉鎖等,0,2025-10-20,2025-10-08,株式会社ＬＩＮＫＳ,,株式会社,埼玉県,所沢市,美原町５丁目２０４０－２,,11,208,3590045,,,2025-10-08,清算の結了等,,,2021-10-08,1,,,,,リンクス,0
1788,7030001154117,登記記録の閉鎖等,0,2025-10-20,2025-10-09,株式会社Ａｄｏｎｉｓｓ,,株式会社,埼玉県,草加市,吉町１丁目１番２５号,,11,221,3400017,,,2025-10-09,清算の結了等,,,2023-05-29,1,,,,,アドニス,0
1789,7030002047113,登記記録の閉鎖等,0,2025-10-20,2025-10-09,有限会社篠崎流通管理センター,,有限会社,埼玉県,八潮市,大字西袋１４６１番地の１,,11,234,3400833,,,2025-10-09,清算の結了等,,,2015-10-05,1,,,,,シノザキリュウツウカンリセンター,0
1800,7050002010696,登記記録の閉鎖等,0,2025-10-20,2025-10-07,有限会社ケイエス,,有限会社,茨城県,笠間市,日沢４６番地,,08,216,3091606,,,2025-10-07,清算の結了等,,,2015-10-05,1,,,,,ケイエス,0
1802,7070001001034,登記記録の閉鎖等,0,2025-10-20,2025-10-15,株式会社エスアールエル北関東検査センター,,株式会社,群馬県,前橋市,鶴光路町１４１番地の１５,,10,201,3792141,,,2025-10-15,合併による解散等,9130001033548,令和７年１０月１日京都府久世郡久御山町大橋辺１６番地１０株式会社日本医学臨床検査研究所（9130001033548）に合併し解散,2015-10-05,1,,,,,エスアールエルキタカントウケンサセンター,0
1805,7080002014876,登記記録の閉鎖等,0,2025-10-20,2025-10-10,有限会社サンエース,,有限会社,静岡県,牧之原市,大江１３８６番地の３,,22,226,4210512,,,2025-10-10,清算の結了等,,,2015-10-05,1,,,,,サンエース,0
1807,7080402005401,登記記録の閉鎖等,0,2025-10-20,2025-10-08,有限会社トウキョウマテリアル,,有限会社,静岡県,浜松市中央区,入野町９３９番５,,22,138,4328061,,,2025-10-08,清算の結了等,,,2015-10-05,1,,,,,トウキョウマテリアル,0
1808,7090001010009,登記記録の閉鎖等,0,2025-10-20,2025-10-09,ＦＨＫ株式会社,,株式会社,山梨県,南都留郡富士河口湖町,河口１８３２番地,,19,430,4010304,,,2025-10-09,清算の結了等,,,2015-10-05,1,,,,,エフエイチケー,0
1821,7120001140529,登記記録の閉鎖等,0,2025-10-20,2025-09-01,株式会社エス・アール・ビー,,株式会社,大阪府,大阪市北区,西天満４丁目１０番１９号ＯＰＳ西天満ビル５階,,27,127,5300047,,,2025-09-01,合併による解散等,7120001193238,令和７年９月１日大阪市北区西天満二丁目６番８号堂島ビルヂング９階ＹＳホールディングス株式会社（7120001193238）に合併し解散,2015-10-05,1,,,,,エスアールビー,0
1848,7120101036437,登記記録の閉鎖等,0,2025-10-20,2025-10-06,河内商事株式会社,,株式会社,大阪府,岸和田市,沼町２４番３２号,,27,202,5960053,,,2025-10-06,清算の結了等,,,2015-10-05,1,,,,,カワチショウジ,0
1849,7120101047673,登記記録の閉鎖等,0,2025-10-20,2025-10-06,株式会社Ｍｏｎ　Ｃｏｅｕｒ,,株式会社,大阪府,泉佐野市,下瓦屋３４７番地の１,,27,213,5980062,,,2025-10-06,清算の結了等,,,2015-10-05,1,,,,,,0
1854,7122001004382,登記記録の閉鎖等,0,2025-10-20,2025-10-02,株式会社武田製作所,,株式会社,大阪府,東大阪市,大蓮南２丁目２０番１３号,,27,227,5770825,,,2025-10-02,清算の結了等,,,2015-10-05,1,,,,,タケダセイサクショ,0
1880,7180001143071,登記記録の閉鎖等,0,2025-10-20,2025-10-01,株式会社エイエイエスシー,,株式会社,愛知県,名古屋市中区,錦１丁目１１番２０号,,23,106,4600003,,,2025-10-01,合併による解散等,1180001059447,令和７年１０月１日名古屋市中区錦一丁目１１番２０号株式会社エイエイエスティ（1180001059447）に合併し解散,2020-10-06,1,,,,,エイエイエスシー,0
1886,7180002000073,登記記録の閉鎖等,0,2025-10-20,2025-10-06,有限会社アサヒ技研,,有限会社,愛知県,名古屋市守山区,守山２丁目１０番２５号,,23,113,4630067,,,2025-10-06,清算の結了等,,,2015-10-05,1,,,,,アサヒギケン,0
1905,7230001014110,登記記録の閉鎖等,0,2025-10-20,2025-09-12,トレジア株式会社,,株式会社,東京都,新宿区,西新宿３丁目３番１３号西新宿水間ビル６階,,13,104,1600023,,,2025-09-12,清算の結了等,,,2015-10-05,1,,,,,トレジア,0
1908,7260002009676,登記記録の閉鎖等,0,2025-10-20,2025-10-08,有限会社味工房四季,,有限会社,岡山県,岡山市北区,内山下２丁目３番５号,,33,101,7000824,,,2025-10-08,清算の結了等,,,2015-10-05,1,,,,,アジコウボウシキ,0
1921,7330001024553,登記記録の閉鎖等,0,2025-10-20,2025-10-01,ＫＭＩ株式会社,,株式会社,熊本県,八代市,毘舎丸町１番３号,,43,202,8660851,,,2025-10-01,合併による解散等,7330001026021,令和７年１０月１日熊本県八代市毘舎丸町１番３号株式会社ＭＡＴＳＵＫＩ（7330001026021）に合併し解散,2017-09-29,1,,,,,ケイエムアイ,0
1922,7330001028158,登記記録の閉鎖等,0,2025-10-20,2025-10-01,Ｃａｒｒｙ　ＭＡＭＡ株式会社,,株式会社,熊本県,八代市,毘舎丸町１番３号,,43,202,8660851,,,2025-10-01,合併による解散等,7330001026021,令和７年１０月１日熊本県八代市毘舎丸町１番３号株式会社ＭＡＴＳＵＫＩ（7330001026021）に合併し解散,2021-01-04,1,,,,,キャリーママ,0
1939,7420005002579,登記記録の閉鎖等,0,2025-10-20,2025-10-01,八戸魚市場仲買人協同組合連合会,,その他の設立登記法人,青森県,八戸市,大字鮫町字日ノ出町４番地,,02,203,0310841,,,2025-10-01,合併による解散等,9420005002577,令和７年１０月１日青森県八戸市大字鮫町字日ノ出町４番地八戸水産仲買人協同組合（9420005002577）に合併し解散,2015-10-05,1,,,,,ハチノヘギョシジョウナカガイニン,0
1969,8010502020693,登記記録の閉鎖等,0,2025-10-20,2025-10-14,有限会社凡,,有限会社,東京都,台東区,根岸２丁目１３番４号,,13,106,1100003,,,2025-10-14,清算の結了等,,,2015-10-05,1,,,,,ボン,0
1977,8010802018198,登記記録の閉鎖等,0,2025-10-20,2025-10-14,有限会社いわき精機製作所,,有限会社,東京都,大田区,大森南２丁目２４番４号,,13,111,1430013,,,2025-10-14,清算の結了等,,,2015-10-05,1,,,,,イワキセイキセイサクショ,0
1989,8011401024678,登記記録の閉鎖等,0,2025-10-20,2025-10-10,株式会社金谷塗装工業,,株式会社,東京都,板橋区,赤塚新町１丁目１７番８号アネックスＢ１０３号,,13,119,1750093,,,2025-10-10,清算の結了等,,,2022-11-14,1,,,,,カナヤトソウコウギョウ,0
1990,8011601005445,登記記録の閉鎖等,0,2025-10-20,2025-10-08,株式会社ネイバー,,株式会社,東京都,練馬区,上石神井４丁目２番２０号,,13,120,1770044,,,2025-10-08,清算の結了等,,,2015-10-05,1,,,,,ネイバー,0
2002,8012402019997,登記記録の閉鎖等,0,2025-10-20,2025-10-07,有限会社和食工房,,有限会社,東京都,三鷹市,下連雀３丁目１７番２４号,,13,204,1810013,,,2025-10-07,清算の結了等,,,2015-10-05,1,,,,,ワショクコウボウ,0
2018,8030001075163,登記記録の閉鎖等,0,2025-10-20,2025-10-09,株式会社サトー電子,,株式会社,埼玉県,川口市,並木２丁目４０番２６号,,11,203,3320034,,,2025-10-09,清算の結了等,,,2015-10-05,1,,,,,サトーデンシ,0
2036,8050002031023,登記記録の閉鎖等,0,2025-10-20,2025-10-08,有限会社東栄工業所,,有限会社,茨城県,日立市,桜川町３丁目７番８号,,08,202,3160002,,,2025-10-08,清算の結了等,,,2015-10-05,1,,,,,トウエイコウギョウショ,0
2039,8080001019999,登記記録の閉鎖等,0,2025-10-20,2025-10-08,株式会社ベーシックリフォーム静岡,,株式会社,静岡県,静岡市清水区,能島２８９番地の３,,22,103,4240063,,,2025-10-08,清算の結了等,,,2015-10-05,1,,,,,ベーシックリフォームシズオカ,0
2040,8090001009859,登記記録の閉鎖等,0,2025-10-20,2025-10-09,株式会社Ｄ,,株式会社,山梨県,富士吉田市,上吉田１丁目６番１８号,,19,202,4030005,,,2025-10-09,清算の結了等,,,2015-10-05,1,,,,,ディー,0
2042,8100001003728,登記記録の閉鎖等,0,2025-10-20,2025-10-16,株式会社ライフエンジニアリング,,株式会社,長野県,長野市,南高田１丁目８番地２,,20,201,3810033,,,2025-10-16,清算の結了等,,,2015-10-05,1,,,,,ライフエンジニアリング,0
2043,8100001023908,登記記録の閉鎖等,0,2025-10-20,2025-10-15,勝和商事株式会社,,株式会社,長野県,東御市,常田３１８番地１３,,20,219,3890515,,,2025-10-15,清算の結了等,,,2015-10-05,1,,,,,ショウワショウジ,0
2046,8100005007584,登記記録の閉鎖等,0,2025-10-20,2025-10-10,木挽の里協同組合,00070071,その他の設立登記法人,長野県,木曽郡大桑村,大字須原１０３２番地１,,20,430,3995502,,,2025-10-10,清算の結了等,,,2015-10-05,1,,,,,コビキノサト,0
2050,8110001030300,登記記録の閉鎖等,0,2025-10-20,2025-10-09,株式会社クオリティプラン,,株式会社,新潟県,新潟市北区,名目所２丁目１５０４番地,,15,101,9503114,,,2025-10-09,清算の結了等,,,2015-10-05,1,,,,,クオリティプラン,0
2056,8120001009186,登記記録の閉鎖等,0,2025-10-20,2025-10-06,株式会社イエモト電機,,株式会社,大阪府,大阪市東住吉区,公園南矢田２丁目２５番４号,,27,121,5460024,,,2025-10-06,清算の結了等,,,2015-10-05,1,,,,,イエモトデンキ,0
2057,8120001018856,登記記録の閉鎖等,0,2025-10-20,2025-10-09,丸岩塗裝株式会社,,株式会社,大阪府,大阪市鶴見区,今津中１丁目６番４１号,,27,124,5380042,,,2025-10-09,清算の結了等,,,2015-10-05,1,,,,,マルイワトソウ,0
2058,8120001181043,登記記録の閉鎖等,0,2025-10-20,2025-10-07,株式会社リンカラン,,株式会社,滋賀県,大津市,長等３丁目４番１３－７０３号,,25,201,5200046,,,2025-10-07,清算の結了等,,,2015-10-05,1,,,,,リンカラン,0
2060,8120001233637,登記記録の閉鎖等,0,2025-10-20,2025-10-07,株式会社アレイズリフォーム,,株式会社,大阪府,大阪市浪速区,敷津東２丁目１番２４号２０４－Ｂ号室,,27,111,5560012,,,2025-10-07,清算の結了等,,,2020-12-08,1,,,,,アレイズリフォーム,0
2063,8120001267718,登記記録の閉鎖等,0,2025-10-20,2025-10-14,株式会社Ｂｅｓｐｏｒｋ．,,株式会社,大阪府,大阪市中央区,南船場２丁目５番８号５Ａ,,27,128,5420081,,,2025-10-14,清算の結了等,,,2024-08-13,1,,,,,ビースポーク,0
2091,8130001021198,登記記録の閉鎖等,0,2025-10-20,2025-10-14,スーパー松屋株式会社,,株式会社,京都府,京都市中京区,堺町通三条下る道祐町１４４番地,,26,104,6048118,,,2025-10-14,清算の結了等,,,2015-10-05,1,,,,,スーパーマツヤ,0
2092,8130001032303,登記記録の閉鎖等,0,2025-10-20,2025-10-14,株式会社ワイドビズ,,株式会社,京都府,京都市下京区,朱雀宝蔵町４４番地協栄ビル２階京都朱雀スタジオ,,26,106,6008846,,,2025-10-14,清算の結了等,,,2015-10-05,1,,,,,ワイドビズ,0
2094,8130001057151,登記記録の閉鎖等,0,2025-10-20,2025-09-19,株式会社京都三協食鳥,,株式会社,京都府,京都市南区,上鳥羽南島田町７２番地,,26,107,6018183,,,2025-09-19,合併による解散等,4140001139893,令和７年９月１日岡山県津山市河辺１１０２番地の１有限会社三協食鳥（3260002028416）、岡山県津山市河辺１１０２番地の１株式会社ナチュラルノーサン（6260001020081）、神戸市西区平野町中津字北川５８９番地の１０株式会社サンショク（2140002004561）、岡山市南区山田１００１番地３株式会社せとうち三協食鳥（4260001037722）及び兵庫県姫路市網干区興浜２０９３番地の１３３株式会社プーレまつもと（6140002050544）と合併して神戸市西区平野町中津字北川５８９番地の１０株式会社三協食鳥（4140001139893）を設立し解散,2016-04-01,1,,,,,キョウトサンキョウショクチョウ,0
2106,8170001018026,登記記録の閉鎖等,0,2025-10-20,2025-10-16,株式会社鈴木衛生,,株式会社,和歌山県,有田市,初島町浜１７６９－１,,30,204,6490306,,,2025-10-16,清算の結了等,,,2024-03-05,1,,,,,スズキエイセイ,0
2109,8180001039896,登記記録の閉鎖等,0,2025-10-20,2025-10-09,馬場正株式会社,,株式会社,愛知県,名古屋市千種区,西崎町１丁目２番地,,23,101,4640825,,,2025-10-09,清算の結了等,,,2015-10-05,1,,,,,ババショウ,0
2111,8180001098736,登記記録の閉鎖等,0,2025-10-20,2025-09-18,株式会社鈴与カーゴサービス名古屋,,株式会社,愛知県,海部郡飛島村,竹之郷３丁目１８８番地,,23,427,4901436,,,2025-09-18,合併による解散等,1140001073963,令和７年９月１日兵庫県西宮市西宮浜一丁目２番地株式会社鈴与カーゴサービス西日本（1140001073963）に合併し解散,2015-10-05,1,,,,,スズヨカーゴサービスナゴヤ,0
2125,8180302026437,登記記録の閉鎖等,0,2025-10-20,2025-10-01,有限会社明芳園製茶,,有限会社,愛知県,西尾市,上町横町屋敷１５番地,,23,213,4450894,,,2025-10-01,合併による解散等,6180301022249,令和７年１０月１日愛知県西尾市上町横町屋敷１５番地株式会社あいや（6180301022249）に合併し解散,2015-10-05,1,,,,,メイホウエンセイチャ,0
2130,8200002006876,登記記録の閉鎖等,0,2025-10-20,2025-10-16,有限会社アートクラブ,,有限会社,岐阜県,各務原市,蘇原東島町４丁目５６番地,,21,213,5040816,,,2025-10-16,清算の結了等,,,2015-10-05,1,,,,,アートクラブ,0
2131,8200002014383,登記記録の閉鎖等,0,2025-10-20,2025-10-16,有限会社オーエス,,有限会社,岐阜県,大垣市,横曽根４丁目４１番地１,,21,202,5030944,,,2025-10-16,合併による解散等,7190002001764,令和７年１０月１日三重県津市庄田町字大部１９１５番地株式会社青山商店荷役（7190002001764）に合併し解散,2015-10-05,1,,,,,オーエス,0
2138,8230002001016,登記記録の閉鎖等,0,2025-10-20,2025-10-10,有限会社クボタ電設,,有限会社,富山県,富山市,水橋平塚４４番地,,16,201,9390568,,,2025-10-10,清算の結了等,,,2015-10-05,1,,,,,クボタデンセツ,0
2139,8240001037547,登記記録の閉鎖等,0,2025-10-20,2025-10-14,株式会社Ｋスポーツ,,株式会社,広島県,竹原市,竹原町３６１６番地１,,34,203,7250021,,,2025-10-14,清算の結了等,,,2015-10-05,1,,,,,ケースポーツ,0
2157,8290001079766,登記記録の閉鎖等,0,2025-10-20,2025-09-17,株式会社美味楽食コーポレーション,,株式会社,福岡県,福岡市中央区,黒門６番３３－１３０１号,,40,133,8100055,,,2025-09-17,清算の結了等,,,2017-11-27,1,,,,,ビミラクショクコーポレーション,0
2171,8320003001393,登記記録の閉鎖等,0,2025-10-20,2025-10-07,合資会社財津薬品,,合資会社,大分県,玖珠郡玖珠町,大字帆足２３１番地の６,,44,462,8794403,,,2025-10-07,清算の結了等,,,2015-10-05,1,,,,,ザイツヤクヒン,0
2174,8330001016806,登記記録の閉鎖等,0,2025-10-20,2025-10-01,八代港湾倉庫株式会社,,株式会社,熊本県,八代市,毘舎丸町１番３号,,43,202,8660851,,,2025-10-01,合併による解散等,7330001026021,令和７年１０月１日熊本県八代市毘舎丸町１番３号株式会社ＭＡＴＳＵＫＩ（7330001026021）に合併し解散,2015-10-05,1,,,,,ヤツシロコウワンソウコ,0
2176,8330001026078,登記記録の閉鎖等,0,2025-10-20,2025-10-01,ＦＤＰ株式会社,,株式会社,熊本県,八代市,毘舎丸町１番３号,,43,202,8660851,,,2025-10-01,合併による解散等,7330001026021,令和７年１０月１日熊本県八代市毘舎丸町１番３号株式会社ＭＡＴＳＵＫＩ（7330001026021）に合併し解散,2019-02-06,1,,,,,エフディピー,0
2180,8340001005543,登記記録の閉鎖等,0,2025-10-20,2025-10-06,株式会社有園,,株式会社,鹿児島県,日置市,吹上町湯之浦１１９４番地４,,46,216,8993303,,,2025-10-06,清算の結了等,,,2023-09-11,1,,,,,ユウエン,0
2188,8370302002220,登記記録の閉鎖等,0,2025-10-20,2025-09-29,有限会社マルミ内海商店,,有限会社,宮城県,石巻市,三和町８番３号,,04,202,9862111,,,2025-09-29,清算の結了等,,,2015-10-05,1,,,,,マルミウツミショウテン,0
2205,8470001001356,登記記録の閉鎖等,0,2025-10-20,2025-10-16,株式会社グリーンタクシー,,株式会社,香川県,高松市,川島本町１６７番地６,,37,201,7610442,,,2025-10-16,清算の結了等,,,2015-10-05,1,,,,,グリーンタクシー,0
2206,8470001013153,登記記録の閉鎖等,0,2025-10-20,2025-10-09,株式会社アイシード・プラス,,株式会社,香川県,高松市,木太町６１４番地１８,,37,201,7600080,,,2025-10-09,清算の結了等,,,2015-10-05,1,,,,,アイシードプラス,0
2208,8480005002597,登記記録の閉鎖等,0,2025-10-20,2025-10-15,医療法人えもとこどもクリニック,,その他の設立登記法人,徳島県,徳島市,北沖洲３丁目１番２４号,,36,201,7700872,,,2025-10-15,清算の結了等,,,2015-10-05,1,,,,,エモトコドモクリニック,0
2223,9010002030944,登記記録の閉鎖等,0,2025-10-20,2025-10-02,有限会社サンリミテッド,,有限会社,東京都,中央区,日本橋小網町１番５号小網町ハイツ３０３,,13,102,1030016,,,2025-10-02,清算の結了等,,,2015-10-05,1,,,,,サンリミテッド,0
2244,9010501014976,登記記録の閉鎖等,0,2025-10-20,2025-10-08,ロビン商事株式会社,,株式会社,東京都,台東区,蔵前４丁目１７番１１号,,13,106,1110051,,,2025-10-08,清算の結了等,,,2015-10-05,1,,,,,ロビンショウジ,0
2258,9010903009104,登記記録の閉鎖等,0,2025-10-20,2025-10-15,合同会社ココカラマリー,,合同会社,東京都,世田谷区,用賀２丁目３２－２１,,13,112,1580097,,,2025-10-15,清算の結了等,,,2024-05-30,1,,,,,ココカラマリー,0
2275,9011301017624,登記記録の閉鎖等,0,2025-10-20,2025-10-09,株式会社Ｓ＆Ｅ,,株式会社,東京都,杉並区,高井戸西１丁目５番３０号,,13,115,1680071,,,2025-10-09,清算の結了等,,,2015-10-05,1,,,,,エスアンドイー,0
2280,9011601007928,登記記録の閉鎖等,0,2025-10-20,2025-10-07,リプロ株式会社,,株式会社,東京都,練馬区,高野台３丁目１７番２１号,,13,120,1770033,,,2025-10-07,清算の結了等,,,2015-10-05,1,,,,,リプロ,0
2285,9012301000875,登記記録の閉鎖等,0,2025-10-20,2025-09-30,株式会社弘友社,,株式会社,東京都,町田市,山崎町２１３０番地６－３－１０３,,13,209,1950074,,,2025-09-30,清算の結了等,,,2015-10-05,1,,,,,コウユウシャ,0
2290,9012702010192,登記記録の閉鎖等,0,2025-10-20,2025-10-10,有限会社ローズ・プロスタァー,,有限会社,東京都,清瀬市,松山２丁目５番１９号コーポユートピアＢ－１０２号,,13,221,2040022,,,2025-10-10,清算の結了等,,,2015-10-05,1,,,,,ローズプロスタァー,0
2293,9013201000123,登記記録の閉鎖等,0,2025-10-20,2025-09-16,株式会社アーバインホーム,,株式会社,東京都,目黒区,八雲５丁目１９番５号,,13,110,1520023,,,2025-09-16,清算の結了等,,,2015-10-05,1,,,,,アーバインホーム,0
2294,9013201000131,登記記録の閉鎖等,0,2025-10-20,2025-09-17,株式会社青葉台企業,,株式会社,東京都,目黒区,青葉台２丁目１２番１９号,,13,110,1530042,,,2025-09-17,清算の結了等,,,2015-10-05,1,,,,,アオバダイキギョウ,0
2296,9013202005154,登記記録の閉鎖等,0,2025-10-20,2025-09-17,有限会社林クリーニング商会,,有限会社,東京都,目黒区,下目黒３丁目１６番８号,,13,110,1530064,,,2025-09-17,清算の結了等,,,2015-10-05,1,,,,,ハヤシクリーニングショウカイ,0
2327,9050001023004,登記記録の閉鎖等,0,2025-10-20,2025-10-06,株式会社エヌ・ケイ・ビープロダクツ,,株式会社,茨城県,日立市,東大沼町３丁目２４番１９号,,08,202,3160023,,,2025-10-06,清算の結了等,,,2015-10-05,1,,,,,エヌケイビープロダクツ,0
2331,9050002025965,登記記録の閉鎖等,0,2025-10-20,2025-10-07,有限会社山崎住宅,,有限会社,茨城県,古河市,尾崎３０１３番地の２０,,08,204,3060101,,,2025-10-07,清算の結了等,,,2015-10-05,1,,,,,ヤマザキジュウタク,0
2334,9080002004660,登記記録の閉鎖等,0,2025-10-20,2025-10-10,有限会社半田切断所,,有限会社,静岡県,静岡市葵区,一番町１番地,,22,101,4200071,,,2025-10-10,清算の結了等,,,2015-10-05,1,,,,,ハンダセツダンジョ,0
2338,9080103002712,登記記録の閉鎖等,0,2025-10-20,2025-10-14,ＡＫＡＯ合同会社,,合同会社,静岡県,熱海市,笹良ヶ台町１番１２号,,22,205,4130037,,,2025-10-14,清算の結了等,,,2022-12-19,1,,,,,アカオ,0
2339,9080402014136,登記記録の閉鎖等,0,2025-10-20,2025-10-08,有限会社パブリック,,有限会社,静岡県,浜松市中央区,恩地町１７０番地の４,,22,138,4300814,,,2025-10-08,清算の結了等,,,2015-10-05,1,,,,,パブリック,0
2345,9110002017262,登記記録の閉鎖等,0,2025-10-20,2025-10-08,有限会社鈴誠製作所,,有限会社,新潟県,三条市,西本成寺１丁目１６番８号,,15,204,9550845,,,2025-10-08,清算の結了等,,,2015-10-05,1,,,,,スズセイセイサクショ,0
2347,9120001006471,登記記録の閉鎖等,0,2025-10-20,2025-10-14,株式会社丸善商会,,株式会社,大阪府,大阪市阿倍野区,阪南町４丁目１１番７号,,27,119,5450021,,,2025-10-14,清算の結了等,,,2015-10-05,1,,,,,マルゼンショウカイ,0
2350,9120001126146,登記記録の閉鎖等,0,2025-10-20,2025-10-14,株式会社ＮＥＸＴ,,株式会社,大阪府,大阪市淀川区,宮原１丁目１番１号新大阪阪急ビル,,27,123,5320003,,,2025-10-14,清算の結了等,,,2015-10-05,1,,,,,ネクスト,0
2372,9120101034166,登記記録の閉鎖等,0,2025-10-20,2025-10-06,株式会社さかもと,,株式会社,大阪府,羽曳野市,はびきの２丁目６番１２号,,27,222,5830872,,,2025-10-06,清算の結了等,,,2015-10-05,1,,,,,サカモト,0
2378,9120902000622,登記記録の閉鎖等,0,2025-10-20,2025-10-09,有限会社ケイディエイ,,有限会社,大阪府,寝屋川市,香里新町２８番３０－２８０８号,,27,215,5720085,,,2025-10-09,清算の結了等,,,2015-10-05,1,,,,,ケイディエイ,0
2383,9130001044314,登記記録の閉鎖等,0,2025-10-20,2025-10-14,株式会社ｕｒｕｏｉ,,株式会社,京都府,京都市左京区,粟田口鳥居町３１番地１,,26,103,6068436,,,2025-10-14,清算の結了等,,,2015-10-05,1,,,,,ウルオイ,0
2386,9140001113175,登記記録の閉鎖等,0,2025-10-20,2025-10-16,株式会社Ｌｏｋａｈｉ,,株式会社,長野県,諏訪郡原村,１６２６８－４６,,20,363,3910100,,,2025-10-16,清算の結了等,,,2019-04-02,1,,,,,ロカヒ,0
2390,9170002006549,登記記録の閉鎖等,0,2025-10-20,2025-10-15,有限会社西田集配センター,,有限会社,和歌山県,海南市,重根３９番地の２,,30,202,6420023,,,2025-10-15,清算の結了等,,,2015-10-05,1,,,,,ニシダシュウハイセンター,0
2401,9180302020034,登記記録の閉鎖等,0,2025-10-20,2025-10-10,有限会社指光,,有限会社,愛知県,碧南市,中山町７丁目６番地,,23,209,4470035,,,2025-10-10,清算の結了等,,,2015-10-05,1,,,,,サシミツ,0
2402,9190001001490,登記記録の閉鎖等,0,2025-10-20,2025-10-14,株式会社吉井組,00075580,株式会社,三重県,津市,一志町高野５２６番地の１,,24,201,5152504,,,2025-10-14,清算の結了等,,,2015-10-05,1,,,,,ヨシイグミ,0
2438,9290002051921,登記記録の閉鎖等,0,2025-10-20,2025-09-17,有限会社ヨネムラ,,有限会社,福岡県,小郡市,二森５４０番地の１０,,40,216,8380126,,,2025-09-17,清算の結了等,,,2015-10-05,1,,,,,ヨネムラ,0
2444,9330001013587,登記記録の閉鎖等,0,2025-10-20,2025-10-01,松栄整備株式会社,,株式会社,熊本県,八代市,毘舎丸町１番３号,,43,202,8660851,,,2025-10-01,合併による解散等,7330001026021,令和７年１０月１日熊本県八代市毘舎丸町１番３号株式会社ＭＡＴＳＵＫＩ（7330001026021）に合併し解散,2015-10-05,1,,,,,ショウエイセイビ,0
2452,9400502000143,登記記録の閉鎖等,0,2025-10-20,2025-10-01,一関製氷冷蔵有限会社,,有限会社,岩手県,一関市,山目字前田７４番地の２,,03,209,0210026,,,2025-10-01,清算の結了等,,,2015-10-05,1,,,,,イチノセキセイヒョウレイゾウ,0
2456,9430001056502,登記記録の閉鎖等,0,2025-10-20,2025-10-06,株式会社銘菓司くまや,,株式会社,北海道,虻田郡洞爺湖町,旭町２番地,,01,584,0495611,,,2025-10-06,清算の結了等,,,2015-10-05,1,,,,,メイカシクマヤ,0
2457,9430001060157,商号の登記の抹消,0,2025-10-20,2025-10-01,株式会社ライフコネクト,,株式会社,東京都,板橋区,蓮沼町２番３号１０２,,13,119,1740052,,,,,,,2015-10-05,1,,,,,ライフコネクト,0
2463,9460102006436,登記記録の閉鎖等,0,2025-10-20,2025-10-16,有限会社浦幌農業開発,,有限会社,北海道,十勝郡浦幌町,字貴老路５０番地８,,01,649,0893587,,,2025-10-16,清算の結了等,,,2015-10-05,1,,,,,ウラホロノウギョウカイハツ,0
2464,9470001014290,登記記録の閉鎖等,0,2025-10-20,2025-10-10,株式会社馬場企画,,株式会社,香川県,綾歌郡綾川町,畑田１６８７番地１２,,37,387,7612101,,,2025-10-10,清算の結了等,,,2015-10-05,1,,,,,ババキカク,0
2469,9500002014963,登記記録の閉鎖等,0,2025-10-20,2025-10-15,庄内陸運有限会社,,有限会社,愛媛県,西条市,壬生川６３８番地７,,38,206,7991341,,,2025-10-15,清算の結了等,,,2015-10-05,1,,,,,ショウナイリクウン,0
