sequenceNumber,corporateNumber,process,correct,updateDate,changeDate,name,nameImageId,kind,prefectureName,cityName,streetNumber,addressImageId,prefectureCode,cityCode,postCode,addressOutside,addressOutsideImageId,closeDate,closeCause,successorCorporateNumber,changeCause,assignmentDate,latest,enName,enPrefectureName,enCityName,enAddressOutside,furigana,hihyoji
27,1010502018851,登記記録の閉鎖等,0,2023-12-13,2023-12-11,有限会社荒保険事務所,,有限会社,東京都,台東区,雷門２丁目１９番１５号,,13,106,1110034,,,2023-12-11,清算の結了等,,,2015-10-05,1,,,,,アラホケンジムショ,0
38,1010901030325,登記記録の閉鎖等,0,2023-12-13,2023-12-06,株式会社アトリエグリニス,,株式会社,東京都,武蔵村山市,中原２丁目４２番地の１８,,13,223,2080035,,,2023-12-06,清算の結了等,,,2015-10-05,1,,,,,アトリエグリニス,0
42,1010902000987,登記記録の閉鎖等,0,2023-12-13,2023-12-06,有限会社アムタスク,,有限会社,東京都,世田谷区,赤堤４丁目３２番１５号,,13,112,1560044,,,2023-12-06,清算の結了等,,,2015-10-05,1,,,,,アムタスク,0
64,1011202001734,登記記録の閉鎖等,0,2023-12-13,2023-12-12,有限会社北村損害保険事務所,,有限会社,東京都,中野区,江古田４丁目４０番８号,,13,114,1650022,,,2023-12-12,清算の結了等,,,2015-10-05,1,,,,,キタムラソンガイホケンジムショ,0
94,1020002075203,登記記録の閉鎖等,0,2023-12-13,2023-12-07,有限会社宇佐美梱包,,有限会社,神奈川県,横浜市金沢区,幸浦１丁目２番２０号富島運輸株式会社内,,14,108,2360003,,,2023-12-07,清算の結了等,,,2015-10-05,1,,,,,ウサミコンポウ,0
95,1020002098039,登記記録の閉鎖等,0,2023-12-13,2023-12-07,秩父商事有限会社,,有限会社,神奈川県,川崎市川崎区,日進町９番地１４,,14,131,2100024,,,2023-12-07,清算の結了等,,,2015-10-05,1,,,,,チチブショウジ,0
105,1030001018335,登記記録の閉鎖等,0,2023-12-13,2023-12-05,飯野不動産株式会社,,株式会社,埼玉県,蓮田市,関山１丁目１番１８号,,11,238,3490121,,,2023-12-05,清算の結了等,,,2015-10-05,1,,,,,イイノフドウサン,0
117,1040002033299,登記記録の閉鎖等,0,2023-12-13,2023-12-06,有限会社梶川事務所,,有限会社,千葉県,市川市,高谷２丁目１番２３号,,12,203,2720013,,,2023-12-06,清算の結了等,,,2015-10-05,1,,,,,カジカワジムショ,0
120,1040003005173,登記記録の閉鎖等,0,2023-12-13,2023-12-06,合同会社りんのう,,合同会社,千葉県,銚子市,小長町３２９４番地の５,,12,202,2880866,,,2023-12-06,清算の結了等,,,2015-10-05,1,,,,,リンノウ,0
130,1080001013414,登記記録の閉鎖等,0,2023-12-13,2023-12-01,鈴木建設株式会社,,株式会社,静岡県,島田市,竹下１７番地の３,,22,209,4280008,,,2023-12-01,清算の結了等,,,2015-10-05,1,,,,,スズキケンセツ,0
176,1140001056225,登記記録の閉鎖等,0,2023-12-13,2023-12-08,岩見印刷株式会社,,株式会社,兵庫県,豊岡市,日高町土居６７番地の１,,28,209,6695321,,,2023-12-08,清算の結了等,,,2015-10-05,1,,,,,イワミインサツ,0
187,1160005007445,登記記録の閉鎖等,0,2023-12-13,2023-12-08,公益社団法人高島青年会議所,,その他の設立登記法人,滋賀県,高島市,新旭町旭７０７番地,,25,212,5201501,,,2023-12-08,清算の結了等,,,2015-10-05,1,,,,,タカシマセイネンカイギショ,0
200,1180003024390,登記記録の閉鎖等,0,2023-12-13,2023-12-11,合同会社ｅｌａ,,合同会社,愛知県,あま市,七宝町安松上屋敷２００９番地ウィルステージ１０３号,,23,237,4970011,,,2023-12-11,清算の結了等,,,2022-10-27,1,,,,,エラ,0
204,1210002009810,登記記録の閉鎖等,0,2023-12-13,2023-12-06,有限会社竹留,,有限会社,福井県,勝山市,沢町１丁目７番２２号,,18,206,9110801,,,2023-12-06,清算の結了等,,,2015-10-05,1,,,,,タケトメ,0
216,1240002012002,登記記録の閉鎖等,0,2023-12-13,2023-12-11,有限会社ナベタ,,有限会社,広島県,広島市東区,温品２丁目１４番１４号,,34,102,7320033,,,2023-12-11,清算の結了等,,,2015-10-05,1,,,,,ナベタ,0
220,1280003001735,登記記録の閉鎖等,0,2023-12-13,2023-12-11,合同会社未来,,合同会社,島根県,出雲市,小津町１７３番地４,,32,203,6910041,,,2023-12-11,清算の結了等,,,2023-06-07,1,,,,,ミライ,0
229,1290801010291,登記記録の閉鎖等,0,2023-12-13,2023-12-11,株式会社ラマツィーニ,,株式会社,福岡県,北九州市八幡西区,医生ケ丘１番１号,,40,109,8070804,,,2023-12-11,清算の結了等,,,2015-10-05,1,,,,,ラマツィーニ,0
250,1370001039339,登記記録の閉鎖等,0,2023-12-13,2023-12-08,株式会社双葉東洋,,株式会社,福島県,西白河郡泉崎村,大字関和久字八雲神社１３番地９,,07,464,9690106,,,2023-12-08,清算の結了等,,,2016-03-22,1,,,,,フタバトウヨウ,0
255,1370502000476,登記記録の閉鎖等,0,2023-12-13,2023-12-06,有限会社三陸建業,,有限会社,宮城県,本吉郡南三陸町,志津川字林７９番地の３,,04,606,9860765,,,2023-12-06,清算の結了等,,,2015-10-05,1,,,,,サンリクケンギョウ,0
264,1430002043960,登記記録の閉鎖等,0,2023-12-13,2023-12-04,有限会社大西商事,,有限会社,北海道,石狩市,花川南七条２丁目１５７番地,,01,235,0613207,,,2023-12-04,清算の結了等,,,2015-10-05,1,,,,,オオニシショウジ,0
267,1450002004762,登記記録の閉鎖等,0,2023-12-13,2023-12-12,有限会社古川サッシ工業,,有限会社,北海道,旭川市,永山四条１１丁目１番１４号,,01,204,0798414,,,2023-12-12,清算の結了等,,,2015-10-05,1,,,,,フルカワサッシコウギョウ,0
271,1460301004883,登記記録の閉鎖等,0,2023-12-13,2023-12-11,株式会社設備工房アシスト,,株式会社,北海道,北見市,無加川町４３６番地１１,,01,208,0900825,,,2023-12-11,清算の結了等,,,2020-06-02,1,,,,,セツビコウボウアシスト,0
282,2010001003362,登記記録の閉鎖等,0,2023-12-13,2023-12-06,株式会社ジェイムーン,,株式会社,東京都,文京区,音羽１丁目２２番１８号,,13,105,1120013,,,2023-12-06,清算の結了等,,,2015-10-05,1,,,,,ジェイムーン,0
288,2010001174245,登記記録の閉鎖等,0,2023-12-13,2023-12-05,株式会社ヨシダインサツ,,株式会社,東京都,中央区,新川１丁目１１番５号,,13,102,1040033,,,2023-12-05,清算の結了等,,,2016-03-15,1,,,,,ヨシダインサツ,0
297,2010101012528,登記記録の閉鎖等,0,2023-12-13,2023-12-04,株式会社エフネット,,株式会社,東京都,八王子市,西浅川町１５６番地２０,,13,201,1930842,,,2023-12-04,清算の結了等,,,2016-10-13,1,,,,,エフネット,0
298,2010401123867,登記記録の閉鎖等,0,2023-12-13,2023-12-07,株式会社ＫＵＵＭＡ　ＷＯＲＫＳ,,株式会社,東京都,港区,南青山２丁目１５番５号,,13,103,1070062,,,2023-12-07,清算の結了等,,,2016-03-28,1,,,,,クマワークス,0
310,2010405018601,登記記録の閉鎖等,0,2023-12-13,2023-12-06,一般社団法人ＳＨ０３１,,その他の設立登記法人,東京都,港区,虎ノ門３丁目２２番１０－２０１号,,13,103,1050001,,,2023-12-06,清算の結了等,,,2020-03-16,1,,,,,エスエイチゼロスリーワン,0
318,2010902007214,登記記録の閉鎖等,0,2023-12-13,2023-12-06,有限会社シギー,,有限会社,東京都,世田谷区,弦巻５丁目１番８－１１４３号,,13,112,1540016,,,2023-12-06,清算の結了等,,,2015-10-05,1,,,,,シギー,0
352,2011803003822,登記記録の閉鎖等,0,2023-12-13,2023-12-06,錦汐合同会社,,合同会社,東京都,足立区,千住１丁目２３番１８号ウエラコート３０１号室,,13,121,1200034,,,2023-12-06,清算の結了等,,,2019-09-05,1,,,,,キンセキ,0
379,2021002001552,登記記録の閉鎖等,0,2023-12-13,2023-12-11,有限会社クドウ商事,,有限会社,神奈川県,藤沢市,西俣野１９８９番地,,14,205,2520812,,,2023-12-11,清算の結了等,,,2015-10-05,1,,,,,クドウショウジ,0
381,2021002012293,登記記録の閉鎖等,0,2023-12-13,2023-12-11,森山工業有限会社,,有限会社,神奈川県,茅ヶ崎市,西久保１２７９番地１１,,14,207,2530083,,,2023-12-11,清算の結了等,,,2015-10-05,1,,,,,モリヤマコウギョウ,0
382,2021002013250,登記記録の閉鎖等,0,2023-12-13,2023-12-08,有限会社オフィスぴぴ,,有限会社,神奈川県,茅ヶ崎市,矢畑７８２番地３の１－８１５号ライオンズ茅ヶ崎ザ・アイランズ,,14,207,2530085,,,2023-12-08,清算の結了等,,,2015-10-05,1,,,,,オフィスピピ,0
383,2021005006160,登記記録の閉鎖等,0,2023-12-13,2023-12-08,特定非営利活動法人　野外体験学習研究所,,その他の設立登記法人,神奈川県,南足柄市,中沼３０５番地１,,14,217,2500123,,,2023-12-08,清算の結了等,,,2015-10-05,1,,,,,ヤガイタイケンガクシュウケンキュウジョ,0
409,2050001050574,登記記録の閉鎖等,0,2023-12-13,2023-12-08,株式会社ベンサン,,株式会社,茨城県,取手市,稲１１４４番地１,,08,217,3020026,,,2023-12-08,合併による解散等,5030001080851,令和５年１２月１日埼玉県川口市南鳩ヶ谷一丁目１８番１３号ベンサン・エンジニアリング株式会社（5030001080851）に合併し解散,2022-02-04,1,,,,,,0
415,2050002043544,登記記録の閉鎖等,0,2023-12-13,2023-12-07,有限会社ジョイ・ホース,,有限会社,茨城県,筑西市,海老ヶ島１２３２番地の１,,08,227,3004517,,,2023-12-07,清算の結了等,,,2015-10-05,1,,,,,ジョイホース,0
418,2060002022233,登記記録の閉鎖等,0,2023-12-13,2023-12-08,サンエム有限会社,,有限会社,栃木県,那須塩原市,上中野３１０番地,,09,213,3293154,,,2023-12-08,清算の結了等,,,2015-10-05,1,,,,,サンエム,0
428,2120001074509,登記記録の閉鎖等,0,2023-12-13,2023-12-11,泉産業株式会社,,株式会社,大阪府,大阪市中央区,高麗橋２丁目４番２２号,,27,128,5410043,,,2023-12-11,清算の結了等,,,2015-10-05,1,,,,,イズミサンギョウ,0
429,2120001118414,登記記録の閉鎖等,0,2023-12-13,2023-12-11,株式会社大輝,,株式会社,大阪府,東大阪市,足代３丁目３番１０号喜多ビル２０２号,,27,227,5770841,,,2023-12-11,清算の結了等,,,2015-10-05,1,,,,,,0
450,2130001011881,登記記録の閉鎖等,0,2023-12-13,2023-12-11,弥栄洲オート株式会社,,株式会社,京都府,京都市南区,吉祥院中河原里北町１番地,,26,107,6018394,,,2023-12-11,清算の結了等,,,2015-10-05,1,,,,,ヤエスオート,0
458,2140001017746,登記記録の閉鎖等,0,2023-12-13,2023-12-07,株式会社ドルジバ神戸,,株式会社,兵庫県,神戸市中央区,熊内町７丁目３番１５－１４０２号,,28,110,6510056,,,2023-12-07,清算の結了等,,,2015-10-05,1,,,,,,0
460,2140001032084,登記記録の閉鎖等,0,2023-12-13,2023-12-06,株式会社甲南興業,,株式会社,兵庫県,神戸市東灘区,甲南町３丁目７番１１号,,28,101,6580084,,,2023-12-06,合併による解散等,3010401089018,令和５年１２月１日東京都港区南青山二丁目２番１５号ＷｉｎＡｏｙａｍａビル－ＵＣＦ９１７株式会社アンドトラスト（3010401089018）に合併し解散,2015-10-05,1,,,,,コウナンコウギョウ,0
462,2140001060589,登記記録の閉鎖等,0,2023-12-13,2023-12-07,日本フエルト工業株式会社,,株式会社,兵庫県,姫路市,城東町１８０番地,,28,201,6700841,,,2023-12-07,合併による解散等,3030001051648,令和５年１２月１日埼玉県北葛飾郡杉戸町本郷４３８番地１株式会社ファンズプレシジョン（3030001051648）に合併し解散,2015-10-05,1,,,,,ニホンフエルトコウギョウ,0
466,2140002003885,登記記録の閉鎖等,0,2023-12-13,2023-12-07,有限会社山口佳男商店,,有限会社,兵庫県,神戸市灘区,大石東町６丁目５番１３号,,28,102,6570043,,,2023-12-07,清算の結了等,,,2015-10-05,1,,,,,ヤマグチヨシオショウテン,0
472,2150001005691,登記記録の閉鎖等,0,2023-12-13,2023-12-11,岸田電機工業株式会社,,株式会社,奈良県,大和郡山市,小泉町２８６７番地,,29,203,6391042,,,2023-12-11,清算の結了等,,,2015-10-05,1,,,,,キシダデンキコウギョウ,0
480,2160005010191,登記記録の閉鎖等,0,2023-12-13,2023-12-11,一般社団法人福来朗,,その他の設立登記法人,滋賀県,東近江市,沖野４丁目４番３４号,,25,213,5270034,,,2023-12-11,清算の結了等,,,2016-01-21,1,,,,,フクロウ,0
500,2180005006816,登記記録の閉鎖等,0,2023-12-13,2023-12-11,特定非営利活動法人グローバルスポーツアカデミー,,その他の設立登記法人,愛知県,名古屋市瑞穂区,塩入町１７番１号,,23,108,4670851,,,2023-12-11,清算の結了等,,,2015-10-05,1,,,,,グローバルスポーツアカデミー,0
534,2290801023598,登記記録の閉鎖等,0,2023-12-13,2023-12-11,Ｌａ　Ｃａｓｉｎａ　Ｊａｐａｎ株式会社,,株式会社,福岡県,宮若市,小伏１５９２－１,,40,226,8220132,,,2023-12-11,合併による解散等,8290001095912,令和５年１２月１日福岡市中央区舞鶴三丁目７－１５舞鶴ジーエルビル４階ＭＫソリューション株式会社（8290001095912）に合併し解散,2017-05-09,1,,,,,ラカシーナジャパン,0
552,2380002002954,登記記録の閉鎖等,0,2023-12-13,2023-12-11,有限会社フイニツシユ・アート,,有限会社,福島県,福島市,東浜町７番３５号,,07,201,9608132,,,2023-12-11,清算の結了等,,,2015-10-05,1,,,,,フィニッシュアート,0
554,2380002034799,登記記録の閉鎖等,0,2023-12-13,2023-12-08,有限会社けいざいや,,有限会社,福島県,喜多方市,字中島７５１１番地２,,07,208,9660833,,,2023-12-08,清算の結了等,,,2015-10-05,1,,,,,ケイザイヤ,0
566,2480002000675,登記記録の閉鎖等,0,2023-12-13,2023-12-12,有限会社乾商店,,有限会社,徳島県,徳島市,大道１丁目２８番地,,36,201,7700923,,,2023-12-12,清算の結了等,,,2015-10-05,1,,,,,イヌイショウテン,0
568,2480002003975,登記記録の閉鎖等,0,2023-12-13,2023-12-12,有限会社ヴェールテック,,有限会社,徳島県,徳島市,南矢三町２丁目５番２２号,,36,201,7700005,,,2023-12-12,清算の結了等,,,2015-10-05,1,,,,,ヴェールテック,0
570,2490002009534,登記記録の閉鎖等,0,2023-12-13,2023-12-08,有限会社土居製紙加工所,,有限会社,高知県,吾川郡いの町,波川１９４８番地,,39,386,7812128,,,2023-12-08,清算の結了等,,,2015-10-05,1,,,,,ドイセイシカコウショ,0
578,3010001146598,登記記録の閉鎖等,0,2023-12-13,2023-12-06,大信貿易株式会社東京デンタル,,株式会社,東京都,千代田区,西神田１丁目３番１４号,,13,101,1010065,,,2023-12-06,清算の結了等,,,2015-10-05,1,,,,,ダイシンボウエキトウキョウデンタル,0
595,3010401060374,登記記録の閉鎖等,0,2023-12-13,2023-12-06,株式会社ワイエスプロジェクツ,,株式会社,東京都,中央区,新川１丁目５番１９号,,13,102,1040033,,,2023-12-06,清算の結了等,,,2015-10-05,1,,,,,ワイエスプロジェクツ,0
602,3010402002235,登記記録の閉鎖等,0,2023-12-13,2023-12-08,有限会社エデイシヨン・ミロ,,有限会社,東京都,港区,六本木７丁目２番２８号,,13,103,1060032,,,2023-12-08,清算の結了等,,,2015-10-05,1,,,,,エデイシヨンミロ,0
604,3010403010823,登記記録の閉鎖等,0,2023-12-13,2023-12-08,合同会社ＳＯＬＡＥＲ　ＯＮＣＥ,,合同会社,東京都,港区,南麻布４丁目５番４８号,,13,103,1060047,,,2023-12-08,清算の結了等,,,2015-10-05,1,,,,,ソラエルオンセ,0
608,3010405002380,登記記録の閉鎖等,0,2023-12-13,2023-12-04,富士通ビー・エス・シー労働組合,,その他の設立登記法人,神奈川県,川崎市幸区,大宮町１番地５,,14,132,2120014,,,2023-12-04,清算の結了等,,,2015-10-05,1,,,,,フジツウビーエスシー,0
609,3010501042405,登記記録の閉鎖等,0,2023-12-13,2023-12-06,株式会社アート・カンパニー,,株式会社,東京都,台東区,谷中３丁目１５番４号谷中ハウス２０２号,,13,106,1100001,,,2023-12-06,清算の結了等,,,2018-04-06,1,,,,,アートカンパニー,0
620,3010701033880,登記記録の閉鎖等,0,2023-12-13,2023-12-07,ＣＳｉＤＯＢＡＴＡ株式会社,,株式会社,東京都,品川区,西五反田８丁目１番１３号タケウチビル２階,,13,109,1410031,,,2023-12-07,清算の結了等,,,2017-03-10,1,,,,,シーエスイドバタ,0
650,3011705000297,登記記録の閉鎖等,0,2023-12-13,2023-12-11,末広会運送事業協同組合,,その他の設立登記法人,東京都,江戸川区,南葛西１丁目１３番１５号小島ビル２階,,13,123,1340085,,,2023-12-11,清算の結了等,,,2015-10-05,1,,,,,スエヒロカイウンソウ,0
654,3012401014789,登記記録の閉鎖等,0,2023-12-13,2023-12-07,株式会社アイエムジー,,株式会社,東京都,小金井市,緑町５丁目１３番１０号,,13,210,1840003,,,2023-12-07,清算の結了等,,,2015-10-05,1,,,,,アイエムジー,0
664,3021001060821,登記記録の閉鎖等,0,2023-12-13,2023-12-08,株式会社ＡＣＪ,,株式会社,神奈川県,秦野市,曽屋９９３番地８,,14,211,2570031,,,2023-12-08,合併による解散等,3180001067571,令和５年１２月１日横浜市都筑区川向町９２２番地１６株式会社エアロクラフトジャパン（3180001067571）に合併し解散,2016-12-06,1,,,,,エーシージェイ,0
675,3030003013118,登記記録の閉鎖等,0,2023-12-13,2023-12-05,シャルム合同会社,,合同会社,埼玉県,川口市,芝宮根町１２番２０号,,11,203,3330869,,,2023-12-05,清算の結了等,,,2019-02-21,1,,,,,シャルム,0
687,3050002017357,登記記録の閉鎖等,0,2023-12-13,2023-12-11,有限会社白菊,,有限会社,茨城県,結城郡八千代町,大字尾崎３８０番地の９,,08,521,3003554,,,2023-12-11,清算の結了等,,,2015-10-05,1,,,,,,0
709,3110003004760,登記記録の閉鎖等,0,2023-12-13,2023-12-08,合同会社訪問介護・ヴィレッジ,,合同会社,新潟県,新潟市西区,五十嵐西３３番１１号,,15,107,9502161,,,2023-12-08,清算の結了等,,,2022-05-13,1,,,,,ホウモンカイゴヴィレッジ,0
713,3120001122729,登記記録の閉鎖等,0,2023-12-13,2023-12-07,株式会社フォレスト,,株式会社,大阪府,大阪市生野区,巽南５丁目２番４１号,,27,116,5440015,,,2023-12-07,清算の結了等,,,2015-10-05,1,,,,,フォレスト,0
719,3120001190437,登記記録の閉鎖等,0,2023-12-13,2023-12-12,株式会社ジモネタ,,株式会社,大阪府,守口市,金下町１丁目１番９号,,27,209,5700079,,,2023-12-12,清算の結了等,,,2015-10-05,1,,,,,ジモネタ,0
722,3120001229334,登記記録の閉鎖等,0,2023-12-13,2023-12-07,中日メディカルサポート株式会社,,株式会社,大阪府,大阪市東成区,深江北２丁目１番３号,,27,115,5370001,,,2023-12-07,清算の結了等,,,2020-06-03,1,,,,,チュウニチメディカルサポート,0
731,3120002041267,登記記録の閉鎖等,0,2023-12-13,2023-12-07,山崎技研産業有限会社,,有限会社,大阪府,大阪市住吉区,住吉１丁目４番２９号,,27,120,5580045,,,2023-12-07,清算の結了等,,,2015-10-05,1,,,,,ヤマサキギケンサンギョウ,0
736,3120101024833,登記記録の閉鎖等,0,2023-12-13,2023-12-11,株式会社ダイワ,,株式会社,大阪府,堺市北区,北長尾町１丁４－３,,27,146,5918043,,,2023-12-11,清算の結了等,,,2015-10-05,1,,,,,ダイワ,0
740,3120102021821,登記記録の閉鎖等,0,2023-12-13,2023-12-11,有限会社東照,,有限会社,大阪府,岸和田市,作才町１丁目９番１２号,,27,202,5960826,,,2023-12-11,清算の結了等,,,2015-10-05,1,,,,,トウショウ,0
741,3120103002011,登記記録の閉鎖等,0,2023-12-13,2023-12-08,合同会社プロスペクト陸前高田,,合同会社,東京都,港区,南麻布４丁目５番４８号,,13,103,1060047,,,2023-12-08,清算の結了等,,,2015-10-05,1,,,,,プロスペクトリクゼンタカダ,0
744,3120902001485,登記記録の閉鎖等,0,2023-12-13,2023-12-08,有限会社穂積荘,,有限会社,兵庫県,神戸市東灘区,向洋町中３丁目２番地の５、１５１４号,,28,101,6580032,,,2023-12-08,清算の結了等,,,2015-10-05,1,,,,,ホズミソウ,0
746,3122001024525,登記記録の閉鎖等,0,2023-12-13,2023-12-11,株式会社エヌコーポレーション,,株式会社,大阪府,東大阪市,新池島町３丁目６番４号,,27,227,5798065,,,2023-12-11,清算の結了等,,,2015-10-05,1,,,,,エヌコーポレーション,0
755,3140001010106,登記記録の閉鎖等,0,2023-12-13,2023-12-05,パーソナルソフト株式会社,,株式会社,兵庫県,神戸市中央区,三宮町１丁目３番５号,,28,110,6500021,,,2023-12-05,清算の結了等,,,2015-10-05,1,,,,,パーソナルソフト,0
765,3140003010087,登記記録の閉鎖等,0,2023-12-13,2023-12-08,合同会社プロスペクト山武南,,合同会社,東京都,港区,南麻布４丁目５番４８号,,13,103,1060047,,,2023-12-08,清算の結了等,,,2015-10-05,1,,,,,プロスペクトサンブミナミ,0
801,3240001044655,登記記録の閉鎖等,0,2023-12-13,2023-11-29,株式会社合同メンテナンス,,株式会社,広島県,呉市,音戸町波多見２丁目１０番１０号,,34,202,7371207,,,2023-11-29,清算の結了等,,,2015-10-05,1,,,,,ゴウドウメンテナンス,0
804,3240002023369,登記記録の閉鎖等,0,2023-12-13,2023-12-11,広島エコサービス有限会社,,有限会社,広島県,広島市安芸区,矢野東３丁目１３番２号,,34,107,7360083,,,2023-12-11,清算の結了等,,,2015-10-05,1,,,,,ヒロシマエコサービス,0
824,3290002048320,登記記録の閉鎖等,0,2023-12-13,2023-12-08,株式会社アサヒ,,株式会社,大阪府,大阪市平野区,瓜破２丁目２番６号,,27,126,5470024,,,2023-12-08,清算の結了等,,,2015-10-05,1,,,,,アサヒ,0
842,3340001016735,登記記録の閉鎖等,0,2023-12-13,2023-12-11,大陸人材愛育株式会社,,株式会社,鹿児島県,鹿児島市,鴨池新町５番６号,,46,201,8900064,,,2023-12-11,清算の結了等,,,2015-10-05,1,,,,,タイリクジンザイアイイク,0
843,3340001017659,登記記録の閉鎖等,0,2023-12-13,2023-12-12,ＮＭＴ開発株式会社,,株式会社,鹿児島県,鹿児島市,下荒田４丁目３４番１６号,,46,201,8900056,,,2023-12-12,合併による解散等,9340001013017,令和５年１２月１日鹿児島市下荒田四丁目３４番１６号株式会社光産業（9340001013017）に合併し解散,2015-10-05,1,,,,,エヌエムティカイハツ,0
851,3370003003596,登記記録の閉鎖等,0,2023-12-13,2023-12-08,Ｒ＆Ａ合同会社,,合同会社,宮城県,宮城郡七ヶ浜町,遠山１丁目１０番４１号,,04,404,9850823,,,2023-12-08,清算の結了等,,,2016-09-16,1,,,,,,0
862,3390005007668,登記記録の閉鎖等,0,2023-12-13,2023-12-11,農事組合法人耕心生産組合,,その他の設立登記法人,山形県,寒河江市,仲谷地２丁目１５番地の８,,06,206,9910054,,,2023-12-11,清算の結了等,,,2015-10-05,1,,,,,コウシンセイサンクミアイ,0
873,3430002037143,登記記録の閉鎖等,0,2023-12-13,2023-12-07,有限会社山中工営,,有限会社,北海道,札幌市豊平区,平岸六条１３丁目２番２１号,,01,105,0620936,,,2023-12-07,清算の結了等,,,2015-10-05,1,,,,,ヤマナカコウエイ,0
877,3450003000908,登記記録の閉鎖等,0,2023-12-13,2023-12-11,合同会社丸山削蹄,,合同会社,北海道,天塩郡天塩町,字ウブシ５１５４番地の１３,,01,487,0983311,,,2023-12-11,清算の結了等,,,2015-10-05,1,,,,,マルヤマサクテイ,0
878,3460001000173,登記記録の閉鎖等,0,2023-12-13,2023-12-08,永楽交通株式会社,,株式会社,北海道,釧路市,緑ケ岡５丁目３番２号,,01,206,0850814,,,2023-12-08,合併による解散等,2370001001537,令和５年１２月１日仙台市太白区東郡山一丁目１番１１号永楽交通株式会社（2370001001537）に合併し解散,2015-10-05,1,,,,,,0
891,4010001009250,登記記録の閉鎖等,0,2023-12-13,2023-12-07,株式会社あるふぁ企画,,株式会社,埼玉県,飯能市,大字双柳１３５７番地の１１,,11,209,3570021,,,2023-12-07,清算の結了等,,,2015-10-05,1,,,,,アルファキカク,0
896,4010001220674,登記記録の閉鎖等,0,2023-12-13,2023-12-06,株式会社Ｗａｖｙ,,株式会社,東京都,中央区,銀座１丁目３－３Ｇ１ビル７階,,13,102,1040061,,,2023-12-06,清算の結了等,,,2021-08-31,1,,,,,ウェビー,0
924,4010502001474,登記記録の閉鎖等,0,2023-12-13,2023-12-06,有限会社上のたむら,,有限会社,東京都,台東区,雷門１丁目１５番１２－９０３号,,13,106,1110034,,,2023-12-06,清算の結了等,,,2015-10-05,1,,,,,ウエノタムラ,0
926,4010603004905,登記記録の閉鎖等,0,2023-12-13,2023-12-01,合同会社ラ・ジェッド,,合同会社,北海道,札幌市中央区,大通西７丁目２番地２アセットプランニング大通ビル４階,,01,101,0600042,,,2023-12-01,清算の結了等,,,2015-10-05,1,,,,,ラジェッド,0
939,4011001121391,登記記録の閉鎖等,0,2023-12-13,2023-12-05,Ｅ－ＦＯＸ株式会社,,株式会社,東京都,杉並区,高円寺南３丁目２番１４号,,13,115,1660003,,,2023-12-05,清算の結了等,,,2018-03-29,1,,,,,イーフォックス,0
940,4011001131218,登記記録の閉鎖等,0,2023-12-13,2023-12-11,株式会社ＴＤＢＲ,,株式会社,東京都,渋谷区,鉢山町４番６号ユーロハイツ鉢山１０４,,13,113,1500035,,,2023-12-11,清算の結了等,,,2019-12-09,1,,,,,ティーディービーアール,0
944,4011003003051,登記記録の閉鎖等,0,2023-12-13,2023-12-06,Ａ．Ｉ．Ｎ．コンサルティング合同会社,,合同会社,東京都,中央区,日本橋兜町９番５号,,13,102,1030026,,,2023-12-06,清算の結了等,,,2015-10-05,1,,,,,エーアイエヌコンサルティング,0
947,4011101041523,登記記録の閉鎖等,0,2023-12-13,2023-12-05,株式会社キャリア・アンカー,,株式会社,東京都,新宿区,北新宿３丁目４０－１４－３０６,,13,104,1690074,,,2023-12-05,清算の結了等,,,2015-10-05,1,,,,,キャリアアンカー,0
955,4011103004833,登記記録の閉鎖等,0,2023-12-13,2023-12-04,ｆｌｙ合同会社,,合同会社,埼玉県,川口市,飯塚４丁目１５番２３号,,11,203,3320023,,,2023-12-04,清算の結了等,,,2015-10-05,1,,,,,フライ,0
981,4021001035574,登記記録の閉鎖等,0,2023-12-13,2023-12-11,株式会社カサドール,,株式会社,神奈川県,鎌倉市,大船１丁目２５番３６号第２榎本ビルＢ－１,,14,204,2470056,,,2023-12-11,清算の結了等,,,2015-10-05,1,,,,,カサドール,0
985,4030001087550,登記記録の閉鎖等,0,2023-12-13,2023-12-05,株式会社コーワテクノ,,株式会社,埼玉県,深谷市,畠山４３１番地,,11,218,3691107,,,2023-12-05,清算の結了等,,,2015-10-05,1,,,,,コーワテクノ,0
1007,4060002029193,登記記録の閉鎖等,0,2023-12-13,2023-12-08,有限会社松芳,,有限会社,栃木県,小山市,駅南町１丁目１６番１８号,,09,208,3230822,,,2023-12-08,清算の結了等,,,2015-10-05,1,,,,,ショウホウ,0
1022,4110002019916,登記記録の閉鎖等,0,2023-12-13,2023-12-08,有限会社フェニックス,,有限会社,新潟県,燕市,大曲６６０番地,,15,213,9591263,,,2023-12-08,清算の結了等,,,2015-10-05,1,,,,,フェニックス,0
1042,4120002052734,登記記録の閉鎖等,0,2023-12-13,2023-12-11,有限会社英優,,有限会社,大阪府,大阪市港区,田中１丁目８番５号,,27,107,5520005,,,2023-12-11,清算の結了等,,,2015-10-05,1,,,,,エイユウ,0
1045,4120005019045,登記記録の閉鎖等,0,2023-12-13,2023-12-07,明和マネジメント税理士法人,,その他の設立登記法人,大阪府,大阪市北区,西天満５丁目１６番３号,,27,127,5300047,,,2023-12-07,清算の結了等,,,2016-11-09,1,,,,,メイワマネジメント,0
1046,4120101002598,登記記録の閉鎖等,0,2023-12-13,2023-12-11,栄住宅株式会社,,株式会社,大阪府,堺市堺区,東上野芝町１丁１３８番地の１３,,27,141,5900803,,,2023-12-11,清算の結了等,,,2015-10-05,1,,,,,サカエジュウタク,0
1049,4120101065678,登記記録の閉鎖等,0,2023-12-13,2023-12-08,さくら産業株式会社,,株式会社,大阪府,藤井寺市,津堂４丁目３１９－４,,27,226,5830037,,,2023-12-08,清算の結了等,,,2022-06-02,1,,,,,サクラサンギョウ,0
1062,4130003004295,登記記録の閉鎖等,0,2023-12-13,2023-12-07,合同会社ＨＩＤＡＫＡ,,合同会社,京都府,京都市東山区,大黒町通松原下る３丁目大黒町３０２番地９,,26,105,6050832,,,2023-12-07,清算の結了等,,,2015-10-05,1,,,,,ヒダカ,0
1065,4140001033881,登記記録の閉鎖等,0,2023-12-13,2023-12-07,株式会社ミカミ,,株式会社,兵庫県,芦屋市,松浜町３番１３号,,28,206,6590053,,,2023-12-07,清算の結了等,,,2015-10-05,1,,,,,ミカミ,0
1072,4140003010086,登記記録の閉鎖等,0,2023-12-13,2023-12-08,合同会社プロスペクト山武西,,合同会社,東京都,港区,南麻布４丁目５番４８号,,13,103,1060047,,,2023-12-08,清算の結了等,,,2015-10-05,1,,,,,プロスペクトサンブニシ,0
1083,4180001086686,登記記録の閉鎖等,0,2023-12-13,2023-11-30,アメハマ製菓株式会社,,株式会社,愛知県,一宮市,三条字ヱグロ７３番地,,23,203,4940003,,,2023-11-30,清算の結了等,,,2015-10-05,1,,,,,アメハマセイカ,0
1084,4180001139262,登記記録の閉鎖等,0,2023-12-13,2023-12-05,俺達は株式会社,,株式会社,愛知県,名古屋市中区,栄５丁目１８番１３号,,23,106,4600008,,,2023-12-05,清算の結了等,,,2019-12-16,1,,,,,オレタチハ,0
1098,4220001018098,登記記録の閉鎖等,0,2023-12-13,2023-12-08,株式会社太陽軒,,株式会社,石川県,河北郡内灘町,字大根布２丁目８５番地１,,17,365,9200266,,,2023-12-08,清算の結了等,,,2015-10-05,1,,,,,タイヨウケン,0
1120,4360003006054,登記記録の閉鎖等,0,2023-12-13,2023-12-01,株式会社ＲＥＥ,,株式会社,沖縄県,名護市,字仲尾次１５７７番地３２,,47,209,9051144,,,2023-12-01,合併による解散等,9360003004953,令和５年１２月１日沖縄県名護市大東一丁目２１番２号合資会社アラカキ（9360003004953）に合併し解散,2015-10-05,1,,,,,アールイーイー,0
1128,4390002001243,登記記録の閉鎖等,0,2023-12-13,2023-12-08,サリアパレス有限会社,,有限会社,山形県,山形市,香澄町２丁目２番３０号片山ビル１階,,06,201,9900039,,,2023-12-08,清算の結了等,,,2015-10-05,1,,,,,サリアパレス,0
1139,4460001005709,登記記録の閉鎖等,0,2023-12-13,2023-12-08,株式会社セナヴィーノ,,株式会社,北海道,川上郡弟子屈町,字奥春別原野４０８番地２２,,01,665,0883200,,,2023-12-08,合併による解散等,6460001005830,令和５年１２月１日北海道川上郡弟子屈町字弟子屈原野７８９番地３株式会社セナヴィーノ（6460001005830）に合併し解散,2022-06-28,1,,,,,セナヴィーノ,0
1140,4460305001833,登記記録の閉鎖等,0,2023-12-13,2023-12-11,一般財団法人ふれ愛こしみず,,その他の設立登記法人,北海道,斜里郡小清水町,南町１丁目２０番１号,,01,547,0993642,,,2023-12-11,清算の結了等,,,2015-10-05,1,,,,,フレアイコシミズ,0
1151,5010001225383,登記記録の閉鎖等,0,2023-12-13,2023-12-06,元騰石油株式会社,,株式会社,東京都,中央区,東日本橋２丁目２８番４号日本橋ＣＥＴビル２階,,13,102,1030004,,,2023-12-06,清算の結了等,,,2022-03-28,1,,,,,ゲントウセキユ,0
1161,5010002004456,登記記録の閉鎖等,0,2023-12-13,2023-11-30,有限会社中村製本所,,有限会社,東京都,文京区,千石１丁目１４番３号,,13,105,1120011,,,2023-11-30,清算の結了等,,,2015-10-05,1,,,,,ナカムラセイホンジョ,0
1162,5010005032413,登記記録の閉鎖等,0,2023-12-13,2023-12-11,一般社団法人しごと・しあわせラボ,,その他の設立登記法人,東京都,文京区,小石川３丁目３６番４号,,13,105,1120002,,,2023-12-11,清算の結了等,,,2020-10-15,1,,,,,シゴトシアワセラボ,0
1163,5010005032925,登記記録の閉鎖等,0,2023-12-13,2023-12-08,一般社団法人Ｒｅ,,その他の設立登記法人,東京都,千代田区,永田町２丁目１２番４号,,13,101,1000014,,,2023-12-08,清算の結了等,,,2021-02-15,1,,,,,アールイー,0
1182,5010405009143,登記記録の閉鎖等,0,2023-12-13,2023-12-07,特定非営利活動法人医療情報広報局,,その他の設立登記法人,東京都,港区,南麻布３丁目１０番１－５０２号,,13,103,1060047,,,2023-12-07,清算の結了等,,,2015-10-05,1,,,,,イリョウジョウホウコウホウキョク,0
1183,5010405020026,登記記録の閉鎖等,0,2023-12-13,2023-12-06,ソーラーパッション３ホールディングス一般社団法人,,その他の設立登記法人,東京都,港区,虎ノ門３丁目２２番１０－２０１号,,13,103,1050001,,,2023-12-06,清算の結了等,,,2021-07-20,1,,,,,ソーラーパッションスリーホールディングス,0
1205,5011002005816,登記記録の閉鎖等,0,2023-12-13,2023-11-30,有限会社エジテス,,有限会社,東京都,渋谷区,恵比寿南２丁目４番９号,,13,113,1500022,,,2023-11-30,合併による解散等,5011001003894,令和５年１１月２０日東京都渋谷区東一丁目２２番１１号遠藤電機株式会社（5011001003894）に合併し解散,2015-10-05,1,,,,,エジテス,0
1227,5013301005892,登記記録の閉鎖等,0,2023-12-13,2023-12-07,株式会社千修企画印刷,,株式会社,東京都,豊島区,北大塚３丁目１２番１７号,,13,116,1700004,,,2023-12-07,清算の結了等,,,2015-10-05,1,,,,,センシュウキカクインサツ,0
1229,5020001113488,登記記録の閉鎖等,0,2023-12-13,2023-12-07,株式会社エヌ・エイチ・ピー・メディックス,,株式会社,神奈川県,川崎市麻生区,下麻生２丁目４３番２号,,14,137,2150022,,,2023-12-07,清算の結了等,,,2015-11-06,1,,,,,エヌエイチピーメディックス,0
1266,5070002023797,登記記録の閉鎖等,0,2023-12-13,2023-12-08,鈴木工業有限会社,,有限会社,群馬県,桐生市,元宿町１０番３１号,,10,203,3760027,,,2023-12-08,清算の結了等,,,2015-10-05,1,,,,,スズキコウギョウ,0
1279,5120001058161,登記記録の閉鎖等,0,2023-12-13,2023-12-11,フューチャーテック株式会社,,株式会社,大阪府,大阪市北区,天神橋１丁目９番１号,,27,127,5300041,,,2023-12-11,清算の結了等,,,2015-10-05,1,,,,,フューチャーテック,0
1285,5120001238812,登記記録の閉鎖等,0,2023-12-13,2023-12-12,Ｖｉｅｗｔｙ製薬株式会社,,株式会社,大阪府,大阪市中央区,本町４丁目２－１２野村不動産御堂筋本町ビル８Ｆ,,27,128,5410053,,,2023-12-12,清算の結了等,,,2021-07-16,1,,,,,ビューティーセイヤク,0
1299,5122001035173,登記記録の閉鎖等,0,2023-12-13,2023-12-04,Ｋ．Ａ．Ｙ株式会社,,株式会社,大阪府,大阪市平野区,加美正覚寺４丁目４番１１号中央ハウジング加美正覚寺ビルディング２Ｆ－Ｂ号室,,27,126,5470006,,,2023-12-04,清算の結了等,,,2021-09-16,1,,,,,ケイエイワイ,0
1308,5140001019764,登記記録の閉鎖等,0,2023-12-13,2023-12-07,株式会社ＴＤ,,株式会社,兵庫県,神戸市須磨区,白川台３丁目６７番地の１５,,28,107,6540103,,,2023-12-07,清算の結了等,,,2015-10-05,1,,,,,ティーディー,0
1320,5160001002504,登記記録の閉鎖等,0,2023-12-13,2023-12-11,株式会社滋賀求人求職情報センター,,株式会社,滋賀県,東近江市,小川町６６７番地,,25,213,5211204,,,2023-12-11,清算の結了等,,,2015-10-05,1,,,,,シガキュウジンキュウショクジョウホウセンター,0
1324,5170001014168,登記記録の閉鎖等,0,2023-12-13,2023-12-11,株式会社みずほ,,株式会社,和歌山県,和歌山市,太田１丁目１０番１５号２０１号,,30,201,6408323,,,2023-12-11,清算の結了等,,,2016-03-03,1,,,,,ミズホ,0
1326,5180001059113,登記記録の閉鎖等,0,2023-12-13,2023-12-07,株式会社オズシステム,,株式会社,愛知県,名古屋市名東区,文教台１丁目７０９番地,,23,115,4650012,,,2023-12-07,清算の結了等,,,2015-10-05,1,,,,,オズシステム,0
1329,5180001119214,登記記録の閉鎖等,0,2023-12-13,2023-12-05,下郷総研株式会社,,株式会社,愛知県,名古屋市緑区,鳴海町字矢切１０１番地,,23,114,4580801,,,2023-12-05,清算の結了等,,,2015-10-05,1,,,,,シモザトソウケン,0
1335,5180005014246,登記記録の閉鎖等,0,2023-12-13,2023-12-05,特定非営利活動法人ＮＡＧＯＮＡＧＯ式ＣＯＣＯアイランド,,その他の設立登記法人,愛知県,名古屋市昭和区,八雲町８１番地の２,,23,107,4660823,,,2023-12-05,清算の結了等,,,2015-10-05,1,,,,,ナゴナゴシキココアイランド,0
1352,5260002025972,登記記録の閉鎖等,0,2023-12-13,2023-12-11,有限会社山陽不動産,,有限会社,岡山県,小田郡矢掛町,矢掛２５３９番地,,33,461,7141201,,,2023-12-11,清算の結了等,,,2015-10-05,1,,,,,サンヨウフドウサン,0
1353,5280002010147,登記記録の閉鎖等,0,2023-12-13,2023-12-11,ときわ商事有限会社,,有限会社,島根県,益田市,常盤町２番７号,,32,204,6980023,,,2023-12-11,清算の結了等,,,2015-10-05,1,,,,,トキワショウジ,0
1364,5290801014289,登記記録の閉鎖等,0,2023-12-13,2023-12-11,株式会社パイテック大塚,,株式会社,福岡県,直方市,大字中泉８８５番地の２３,,40,204,8220011,,,2023-12-11,清算の結了等,,,2015-10-05,1,,,,,パイテックオオツカ,0
1447,6010901004984,登記記録の閉鎖等,0,2023-12-13,2023-12-08,山洋建物株式会社,,株式会社,東京都,世田谷区,玉川台２丁目４番８号,,13,112,1580096,,,2023-12-08,清算の結了等,,,2015-10-05,1,,,,,サンヨウタテモノ,0
1450,6011001007829,登記記録の閉鎖等,0,2023-12-13,2023-12-11,弘明商事株式会社,,株式会社,東京都,渋谷区,西原３丁目１１番７号,,13,113,1510066,,,2023-12-11,清算の結了等,,,2015-10-05,1,,,,,,0
1474,6011301019879,登記記録の閉鎖等,0,2023-12-13,2023-12-06,株式会社エムスカイ,,株式会社,東京都,杉並区,西荻南１丁目１３番４号,,13,115,1670053,,,2023-12-06,清算の結了等,,,2015-10-05,1,,,,,エムスカイ,0
1478,6011501015100,登記記録の閉鎖等,0,2023-12-13,2023-12-06,株式会社クリエイトパージュ,,株式会社,東京都,北区,堀船１丁目２８番９号,,13,117,1140004,,,2023-12-06,清算の結了等,,,2015-10-05,1,,,,,クリエイトパージュ,0
1489,6013301030452,登記記録の閉鎖等,0,2023-12-13,2023-12-08,株式会社ニュースデリバリーサポート,,株式会社,東京都,府中市,押立町４丁目１２番地の４－２０６,,13,206,1830012,,,2023-12-08,清算の結了等,,,2015-10-05,1,,,,,ニュースデリバリーサポート,0
1492,6020001129863,登記記録の閉鎖等,0,2023-12-13,2023-12-07,株式会社フォルトゥーナ,,株式会社,神奈川県,横浜市港南区,上大岡西１丁目１３番１１号,,14,111,2330002,,,2023-12-07,清算の結了等,,,2019-02-08,1,,,,,フォルトゥーナ,0
1499,6020002093019,登記記録の閉鎖等,0,2023-12-13,2023-12-07,有限会社登戸栄屋,,有限会社,神奈川県,川崎市多摩区,登戸２０９１番地,,14,135,2140014,,,2023-12-07,清算の結了等,,,2015-10-05,1,,,,,ノボリトサカエヤ,0
1501,6020003016705,登記記録の閉鎖等,0,2023-12-13,2023-12-07,合同会社ベタ,,合同会社,東京都,豊島区,南大塚３丁目３８番１１－７０２号,,13,116,1700005,,,2023-12-07,清算の結了等,,,2019-09-30,1,,,,,ベタ,0
1510,6021002012042,登記記録の閉鎖等,0,2023-12-13,2023-12-11,有限会社ベック,,有限会社,神奈川県,茅ヶ崎市,今宿１２１５番地１－１１０４号第一ハイツ茅ヶ崎,,14,207,2530072,,,2023-12-11,清算の結了等,,,2015-10-05,1,,,,,ベック,0
1514,6030001076205,登記記録の閉鎖等,0,2023-12-13,2023-12-07,株式会社トウエイ,,株式会社,東京都,墨田区,江東橋４丁目２９番１２号３階やざわ法律事務所内,,13,107,1300022,,,2023-12-07,清算の結了等,,,2015-10-05,1,,,,,トウエイ,0
1533,6040002004411,登記記録の閉鎖等,0,2023-12-13,2023-12-06,株式会社コヤス,,株式会社,千葉県,千葉市若葉区,貝塚２丁目６番１０号,,12,104,2640020,,,2023-12-06,清算の結了等,,,2015-10-05,1,,,,,コヤス,0
1536,6050001000138,登記記録の閉鎖等,0,2023-12-13,2023-12-08,あさ川製菓株式会社,00021769,株式会社,茨城県,水戸市,元石川町字富士山３２５番地１９,,08,201,3100843,,,2023-12-08,清算の結了等,,,2015-10-05,1,,,,,アサカワセイカ,0
1538,6050001033154,登記記録の閉鎖等,0,2023-12-13,2023-12-08,株式会社ゲートワン,,株式会社,茨城県,筑西市,丙２４９番地４,,08,227,3080031,,,2023-12-08,清算の結了等,,,2015-10-05,1,,,,,ゲートワン,0
1545,6060001035364,登記記録の閉鎖等,0,2023-12-13,2023-12-08,株式会社アイランドヒルズ,,株式会社,栃木県,宇都宮市,曲師町３番８号アーバンビル３Ｆ,,09,201,3200803,,,2023-12-08,清算の結了等,,,2022-10-17,1,,,,,アイランドヒルズ,0
1547,6060002023384,登記記録の閉鎖等,0,2023-12-13,2023-12-08,有限会社ナガオカ,,有限会社,栃木県,那須郡那須町,大字高久乙字湯道西２７９４番地５,,09,407,3250303,,,2023-12-08,清算の結了等,,,2015-10-05,1,,,,,ナガオカ,0
1553,6080401020600,登記記録の閉鎖等,0,2023-12-13,2023-12-08,ＫＭＥＷ東海株式会社,,株式会社,静岡県,掛川市,南１丁目９番７号シャトーボナール３０３号,,22,213,4360029,,,2023-12-08,清算の結了等,,,2015-10-05,1,,,,,ケィミュウトウカイ,0
1560,6100003004131,登記記録の閉鎖等,0,2023-12-13,2023-12-06,合同会社Ｇｒａｔｕｓ,,合同会社,長野県,駒ヶ根市,中央１２番１９号,,20,210,3994112,,,2023-12-06,清算の結了等,,,2015-10-05,1,,,,,グラートス,0
1565,6120001071510,登記記録の閉鎖等,0,2023-12-13,2023-12-08,山田電音株式会社,,株式会社,大阪府,大阪市北区,長柄中３丁目１３番１０号,,27,127,5310062,,,2023-12-08,清算の結了等,,,2015-10-05,1,,,,,ヤマダデンオン,0
1595,6130001010145,登記記録の閉鎖等,0,2023-12-13,2023-12-11,株式会社吉祥,,株式会社,京都府,京都市南区,吉祥院這登中町３番地,00035337,26,107,6018353,,,2023-12-11,清算の結了等,,,2015-10-05,1,,,,,キッショウ,0
1602,6140001011381,登記記録の閉鎖等,0,2023-12-13,2023-12-08,株式会社森本商店,,株式会社,兵庫県,神戸市中央区,中山手通１丁目４番１４号,,28,110,6500004,,,2023-12-08,清算の結了等,,,2015-10-05,1,,,,,モリモトショウテン,0
1603,6140001011472,登記記録の閉鎖等,0,2023-12-13,2023-12-07,大和屋シヤツ株式会社,,株式会社,兵庫県,西宮市,六湛寺町２番２－１６０２号,,28,204,6620918,,,2023-12-07,清算の結了等,,,2015-10-05,1,,,,,ヤマトヤシヤツ,0
1615,6160005010576,登記記録の閉鎖等,0,2023-12-13,2023-12-04,一般社団法人米原駅東口まちづくり協議会,,その他の設立登記法人,滋賀県,米原市,米原１０１６番地,,25,214,5210012,,,2023-12-04,清算の結了等,,,2018-05-08,1,,,,,マイバラエキヒガシグチマチヅクリキョウギカイ,0
1628,6200002014484,登記記録の閉鎖等,0,2023-12-13,2023-12-06,有限会社プラム,,有限会社,岐阜県,大垣市,大井３丁目５４番地１,,21,202,5030836,,,2023-12-06,清算の結了等,,,2015-10-05,1,,,,,プラム,0
1635,6240001057027,登記記録の閉鎖等,0,2023-12-13,2023-12-08,株式会社未来屋,,株式会社,広島県,広島市中区,胡町４番２６号,,34,101,7300021,,,2023-12-08,合併による解散等,7010001205904,令和５年１２月１日大阪府貝塚市半田５９１番地８サンプレス半田Ｂ棟１号室株式会社ペタゴー（7010001205904）に合併し解散,2020-12-03,1,,,,,ミライヤ,0
1642,6260001018737,登記記録の閉鎖等,0,2023-12-13,2023-12-07,イオス株式会社,,株式会社,岡山県,笠岡市,茂平１３８１番地３６,,33,205,7140062,,,2023-12-07,清算の結了等,,,2015-10-05,1,,,,,イオス,0
1671,6340002011807,登記記録の閉鎖等,0,2023-12-13,2023-12-12,有限会社アシスト消毒,,有限会社,鹿児島県,鹿児島市,荒田１丁目５２番２２号,,46,201,8900054,,,2023-12-12,清算の結了等,,,2015-10-05,1,,,,,アシストショウドク,0
1689,6400001015397,登記記録の閉鎖等,0,2023-12-13,2023-12-08,株式会社ＷＯＯＤＬＩＶＥ,,株式会社,岩手県,北上市,上江釣子１５地割１６３番地２,,03,206,0240071,,,2023-12-08,合併による解散等,1370201002336,令和５年１１月３０日宮城県大崎市古川休塚字新西田３８番地の１株式会社タカカツ建材（1370201002336）に合併し解散,2021-04-06,1,,,,,ウッドライブ,0
1691,6420001017796,登記記録の閉鎖等,0,2023-12-13,2023-12-06,バイオシェル東北株式会社,,株式会社,青森県,青森市,大字石江字江渡１０５番地９１,,02,201,0380003,,,2023-12-06,清算の結了等,,,2022-04-08,1,,,,,バイオシェルトウホク,0
1693,6430001023083,登記記録の閉鎖等,0,2023-12-13,2023-12-04,マルカワ食品株式会社,,株式会社,北海道,札幌市清田区,平岡二条１丁目１番１号,,01,110,0040872,,,2023-12-04,清算の結了等,,,2015-10-05,1,,,,,マルカワショクヒン,0
1707,6500001012822,登記記録の閉鎖等,0,2023-12-13,2023-12-01,内海商船株式会社,,株式会社,愛媛県,今治市,伯方町木浦甲１６３０番地,,38,202,7942305,,,2023-12-01,合併による解散等,7500001012821,令和５年１２月１日愛媛県今治市伯方町木浦甲１６３０番地内海汽船株式会社（7500001012821）に合併し解散,2015-10-05,1,,,,,ナイカイショウセン,0
1727,7010003037305,登記記録の閉鎖等,0,2023-12-13,2023-12-06,ＲＢソーラースカイ合同会社,,合同会社,東京都,千代田区,麹町２丁目８番地ＭＬＣ麹町ビル４階フィンポート税理士法人内,,13,101,1020083,,,2023-12-06,清算の結了等,,,2022-03-23,1,,,,,アールビーソーラースカイ,0
1730,7010005030167,登記記録の閉鎖等,0,2023-12-13,2023-12-08,一般社団法人Ｄｅｎａｌｉ－ＨＰ１,,その他の設立登記法人,東京都,千代田区,内神田２丁目２番６号５階あすな会計事務所内,,13,101,1010047,,,2023-12-08,清算の結了等,,,2019-05-21,1,,,,,デナリエイチピーワン,0
1733,7010401096373,登記記録の閉鎖等,0,2023-12-13,2023-12-07,株式会社グリーンシューズ,,株式会社,東京都,港区,新橋３丁目４番３号新橋加藤ビル３０２,,13,103,1050004,,,2023-12-07,清算の結了等,,,2015-10-05,1,,,,,グリーンシューズ,0
1747,7010602015487,登記記録の閉鎖等,0,2023-12-13,2023-12-07,有限会社吉野商会,,有限会社,東京都,墨田区,東向島１丁目１７番５号,,13,107,1310032,,,2023-12-07,清算の結了等,,,2015-10-05,1,,,,,ヨシノショウカイ,0
1764,7011302008178,登記記録の閉鎖等,0,2023-12-13,2023-12-05,有限会社富士金物店,,有限会社,東京都,杉並区,堀ノ内３丁目３番８号,,13,115,1660013,,,2023-12-05,清算の結了等,,,2015-10-05,1,,,,,フジカナモノテン,0
1772,7011701002599,登記記録の閉鎖等,0,2023-12-13,2023-11-30,株式会社クリスタルグリーン,,株式会社,東京都,港区,港南１丁目８番２７号,,13,103,1080075,,,2023-11-30,清算の結了等,,,2015-10-05,1,,,,,クリスタルグリーン,0
1796,7021001035761,登記記録の閉鎖等,0,2023-12-13,2023-12-08,株式会社リペアワーク,,株式会社,神奈川県,厚木市,棚沢３９番地,,14,212,2430205,,,2023-12-08,清算の結了等,,,2015-10-05,1,,,,,リペアワーク,0
1802,7021005005471,登記記録の閉鎖等,0,2023-12-13,2023-12-08,ＮＰＯ法人相模原市合気道連盟,,その他の設立登記法人,神奈川県,相模原市緑区,橋本６丁目３７番１３号,,14,151,2520143,,,2023-12-08,清算の結了等,,,2015-10-05,1,,,,,サガミハラシアイキドウレンメイ,0
1804,7030001027090,登記記録の閉鎖等,0,2023-12-13,2023-12-05,株式会社足袋庄呉服店,,株式会社,埼玉県,入間市,高倉１丁目３番１０号,,11,225,3580021,,,2023-12-05,清算の結了等,,,2015-10-05,1,,,,,タビショウゴフクテン,0
1814,7030002059455,登記記録の閉鎖等,0,2023-12-13,2023-12-07,有限会社山口興業,,有限会社,埼玉県,朝霞市,岡３丁目９番６７号,,11,227,3510007,,,2023-12-07,清算の結了等,,,2015-10-05,1,,,,,ヤマグチコウギョウ,0
1825,7040001059083,登記記録の閉鎖等,0,2023-12-13,2023-12-07,エデン地建株式会社,,株式会社,千葉県,茂原市,七渡２４５６番地,,12,210,2970001,,,2023-12-07,清算の結了等,,,2015-10-05,1,,,,,エデンチケン,0
1829,7040002022354,登記記録の閉鎖等,0,2023-12-13,2023-12-06,有限会社三創,,有限会社,千葉県,船橋市,南三咲４丁目５番１７号,,12,204,2740813,,,2023-12-06,清算の結了等,,,2015-10-05,1,,,,,サンソウ,0
1844,7050002035231,登記記録の閉鎖等,0,2023-12-13,2023-12-08,有限会社井坂,,有限会社,茨城県,常陸太田市,松栄町２２６６番地,,08,212,3130133,,,2023-12-08,清算の結了等,,,2015-10-05,1,,,,,イサカ,0
1845,7050002039810,登記記録の閉鎖等,0,2023-12-13,2023-12-08,有限会社高山建具店,,有限会社,茨城県,常総市,水海道橋本町３３４８番地,,08,211,3030003,,,2023-12-08,清算の結了等,,,2015-10-05,1,,,,,,0
1856,7100001009924,登記記録の閉鎖等,0,2023-12-13,2023-12-01,株式会社田中プロパン商会,,株式会社,長野県,上田市,上田１７８０番地５,,20,203,3860001,,,2023-12-01,合併による解散等,4100001009984,令和５年１２月１日長野県上田市住吉２７０番地４株式会社田中商会（4100001009984）に合併し解散,2015-10-05,1,,,,,タナカプロパンショウカイ,0
1859,7110001007761,登記記録の閉鎖等,0,2023-12-13,2023-12-11,株式会社小林鉄工所,,株式会社,新潟県,新潟市北区,木崎字尾山前８７１番地,,15,101,9503304,,,2023-12-11,清算の結了等,,,2015-10-05,1,,,,,コバヤシテッコウジョ,0
1862,7110002033848,登記記録の閉鎖等,0,2023-12-13,2023-12-11,有限会社山喜屋,,有限会社,新潟県,魚沼市,四日町３０９番地,,15,225,9460007,,,2023-12-11,清算の結了等,,,2015-10-05,1,,,,,ヤマキヤ,0
1863,7110005006702,登記記録の閉鎖等,0,2023-12-13,2023-12-08,協同組合ニューエネルギーリサーチ,,その他の設立登記法人,新潟県,柏崎市,松波２丁目２５番１２号,,15,205,9450011,,,2023-12-08,清算の結了等,,,2015-10-05,1,,,,,ニューエネルギーリサーチ,0
1876,7120002015028,登記記録の閉鎖等,0,2023-12-13,2023-12-11,有限会社フェアリー,,有限会社,大阪府,大阪市大正区,三軒家西１丁目２４番２２号,,27,108,5510001,,,2023-12-11,清算の結了等,,,2015-10-05,1,,,,,フェアリー,0
1890,7120901002324,登記記録の閉鎖等,0,2023-12-13,2023-12-11,読売新聞茨木販売株式会社,00033294,株式会社,大阪府,枚方市,牧野北町６番５号,,27,210,5731149,,,2023-12-11,清算の結了等,,,2015-10-05,1,,,,,ヨミウリシンブンイバラキハンバイ,0
1908,7130002026362,登記記録の閉鎖等,0,2023-12-13,2023-12-11,有限会社クレヨンハウス,,有限会社,大阪府,大阪市東淀川区,下新庄３丁目５シティコート下新庄５－３０７,,27,114,5330021,,,2023-12-11,清算の結了等,,,2015-10-05,1,,,,,クレヨンハウス,0
1915,7140001094657,登記記録の閉鎖等,0,2023-12-13,2023-12-08,株式会社ＪｕＪｕ－ｐｌｕｓ,,株式会社,兵庫県,小野市,復井町８７１番地９０,,28,218,6751352,,,2023-12-08,清算の結了等,,,2015-10-05,1,,,,,,0
1919,7140001129735,登記記録の閉鎖等,0,2023-12-13,2023-12-08,株式会社セキュリティつばさ,,株式会社,兵庫県,加古川市,加古川町溝之口２２１番地の６エトワールシャトーＩＩ１階,00130105,28,210,6750064,,,2023-12-08,清算の結了等,,,2023-04-14,1,,,,,セキュリティツバサ,0
1923,7140003006577,登記記録の閉鎖等,0,2023-12-13,2023-12-07,合資会社木谷パソコンサービス,,合資会社,兵庫県,尼崎市,西難波町１丁目４番１４号,,28,202,6600893,,,2023-12-07,清算の結了等,,,2015-10-05,1,,,,,キタニパソコンサービス,0
1928,7160002009620,登記記録の閉鎖等,0,2023-12-13,2023-12-08,有限会社正野博文堂,,有限会社,滋賀県,蒲生郡日野町,松尾２丁目２６番地,,25,383,5291601,,,2023-12-08,合併による解散等,6120001019690,令和５年１１月３０日大阪市平野区背戸口四丁目２番１４号株式会社エム・デー・エス（6120001019690）に合併し解散,2015-10-05,1,,,,,ショウノハクブンドウ,0
1929,7170001010553,登記記録の閉鎖等,0,2023-12-13,2023-12-11,株式会社シンセリティ,,株式会社,和歌山県,和歌山市,善明寺３７４番地の１,,30,201,6408471,,,2023-12-11,清算の結了等,,,2015-10-05,1,,,,,シンセリティ,0
1951,7200002017404,登記記録の閉鎖等,0,2023-12-13,2023-12-11,有限会社若尾食料品店,,有限会社,岐阜県,可児市,土田２５４９番地の１１,,21,214,5090206,,,2023-12-11,清算の結了等,,,2015-10-05,1,,,,,ワカオショクリョウヒンテン,0
1956,7230001005571,登記記録の閉鎖等,0,2023-12-13,2023-12-08,株式会社アリコーポレーション,,株式会社,石川県,金沢市,新神田１丁目１０番９２号,,17,201,9218013,,,2023-12-08,清算の結了等,,,2015-10-05,1,,,,,アリコーポレーション,0
1957,7240001028407,登記記録の閉鎖等,0,2023-12-13,2023-12-01,株式会社エーアイシー,,株式会社,広島県,大竹市,西栄３丁目１番１２号,,34,211,7390603,,,2023-12-01,清算の結了等,,,2015-10-05,1,,,,,エーアイシー,0
1965,7290001028798,登記記録の閉鎖等,0,2023-12-13,2023-12-11,株式会社オートレックス,,株式会社,福岡県,北九州市門司区,西新町２丁目１２番１３号,,40,101,8000056,,,2023-12-11,清算の結了等,,,2015-10-05,1,,,,,オートレックス,0
1972,7290002042567,登記記録の閉鎖等,0,2023-12-13,2023-12-04,有限会社アオイ産業,,有限会社,福岡県,筑紫野市,杉塚２丁目１２番３３－１０１,,40,217,8180054,,,2023-12-04,清算の結了等,,,2015-10-05,1,,,,,アオイサンギョウ,0
2027,8010001229547,登記記録の閉鎖等,0,2023-12-13,2023-12-07,株式会社ＹＳＫ９,,株式会社,東京都,千代田区,麹町２丁目６番地５,,13,101,1020083,,,2023-12-07,合併による解散等,6140001013519,令和５年１２月１日神戸市兵庫区今出在家町一丁目２番４号竹内マネージメント株式会社（6140001013519）に合併し解散,2022-09-16,1,,,,,ワイエスケイナイン,0
2050,8010501000531,登記記録の閉鎖等,0,2023-12-13,2023-12-06,株式会社アールネオン,,株式会社,東京都,台東区,竜泉１丁目２０番１４号小嶋ビル１階,,13,106,1100012,,,2023-12-06,清算の結了等,,,2015-10-05,1,,,,,アールネオン,0
2055,8010601059030,登記記録の閉鎖等,0,2023-12-13,2023-12-11,株式会社ＢＲＯＳＳ,,株式会社,和歌山県,和歌山市,粟２５８－１レジデンス粟ＩＩ２階Ｃ室,00129335,30,201,6408462,,,2023-12-11,清算の結了等,,,2021-03-26,1,,,,,ブロス,0
2057,8010703003043,登記記録の閉鎖等,0,2023-12-13,2023-12-06,合同会社フリーネクサス,,合同会社,東京都,品川区,上大崎２丁目１６番４号甲陽ビル６Ｆ,,13,109,1410021,,,2023-12-06,清算の結了等,,,2016-03-14,1,,,,,フリーネクサス,0
2076,8011003010341,登記記録の閉鎖等,0,2023-12-13,2023-12-08,合同会社プロスペクト寄居,,合同会社,東京都,港区,南麻布４丁目５番４８号,,13,103,1060047,,,2023-12-08,清算の結了等,,,2019-09-18,1,,,,,プロスペクトヨリイ,0
2102,8011802010863,登記記録の閉鎖等,0,2023-12-13,2023-12-06,有限会社大橋エアシステム,,有限会社,東京都,足立区,谷中３丁目２番７号,,13,121,1200006,,,2023-12-06,清算の結了等,,,2015-10-05,1,,,,,オオハシエアシステム,0
2110,8013301004215,登記記録の閉鎖等,0,2023-12-13,2023-12-08,株式会社小西,,株式会社,東京都,豊島区,南大塚２丁目４４番３号,00066831,13,116,1700005,,,2023-12-08,清算の結了等,,,2015-10-05,1,,,,,コニシ,0
2119,8020002097471,登記記録の閉鎖等,0,2023-12-13,2023-12-07,有限会社塩沢商店,,有限会社,神奈川県,川崎市川崎区,大島４丁目１３番８号,,14,131,2100834,,,2023-12-07,清算の結了等,,,2015-10-05,1,,,,,シオザワショウテン,0
2125,8030001107081,登記記録の閉鎖等,0,2023-12-13,2023-11-29,株式会社ＡＩソリューション,,株式会社,埼玉県,越谷市,流通団地３丁目１－１０,,11,222,3430824,,,2023-11-29,清算の結了等,,,2015-10-05,1,,,,,アイソリューション,0
2142,8040002037789,登記記録の閉鎖等,0,2023-12-13,2023-12-06,有限会社清田,,有限会社,千葉県,鎌ケ谷市,南初富３丁目１８番２０号,,12,224,2730123,,,2023-12-06,清算の結了等,,,2015-10-05,1,,,,,キヨタ,0
2149,8060001007287,登記記録の閉鎖等,0,2023-12-13,2023-12-08,株式会社タヒチまな,,株式会社,栃木県,宇都宮市,立伏町４４７番地７１,,09,201,3291116,,,2023-12-08,清算の結了等,,,2015-10-05,1,,,,,タヒチマナ,0
2172,8100002019525,登記記録の閉鎖等,0,2023-12-13,2023-12-04,有限会社岡田食糧販売店,,有限会社,長野県,松本市,大字岡田松岡５０７番地９,,20,202,3900312,,,2023-12-04,清算の結了等,,,2015-10-05,1,,,,,オカダショクリョウハンバイテン,0
2179,8120001116016,登記記録の閉鎖等,0,2023-12-13,2023-12-08,株式会社Ｃ・Ｈ・Ｓ,,株式会社,大阪府,大阪市港区,市岡１丁目９番８号,,27,107,5520012,,,2023-12-08,清算の結了等,,,2015-10-05,1,,,,,シーエイチエス,0
2195,8120901025233,登記記録の閉鎖等,0,2023-12-13,2023-12-11,株式会社パイプライン,,株式会社,大阪府,豊中市,庄内西町４丁目９番２１号,,27,203,5610832,,,2023-12-11,清算の結了等,,,2015-10-05,1,,,,,パイプライン,0
2204,8130001037310,登記記録の閉鎖等,0,2023-12-13,2023-12-11,株式会社未来建築,,株式会社,京都府,宇治市,宇治米阪７番地１３,,26,204,6110021,,,2023-12-11,清算の結了等,,,2015-10-05,1,,,,,ミライケンチク,0
2207,8130002007667,登記記録の閉鎖等,0,2023-12-13,2023-12-11,有限会社橋本広告亊務所,,有限会社,京都府,京都市南区,吉祥院蒔絵南町１－１番地塔南蒔絵ハイツ１１８号,,26,107,6018345,,,2023-12-11,清算の結了等,,,2015-10-05,1,,,,,ハシモトコウコクジムショ,0
2224,8180001087086,登記記録の閉鎖等,0,2023-12-13,2023-12-08,株式会社ｅガーデン,,株式会社,愛知県,一宮市,木曽川町里小牧字宮東２７番地１,,23,203,4930005,,,2023-12-08,清算の結了等,,,2015-10-05,1,,,,,イーガーデン,0
2232,8200002007965,登記記録の閉鎖等,0,2023-12-13,2023-12-11,丹羽建通信有限会社,,有限会社,岐阜県,各務原市,前渡東町１丁目１１０番地,,21,213,5040922,,,2023-12-11,清算の結了等,,,2015-10-05,1,,,,,ニワケンツウシン,0
2235,8220001023540,登記記録の閉鎖等,0,2023-12-13,2023-12-08,マリス・ステラ株式会社,,株式会社,石川県,七尾市,国分町ナ３１番地４,,17,202,9260821,,,2023-12-08,清算の結了等,,,2020-05-12,1,,,,,マリスステラ,0
2276,8330003003026,登記記録の閉鎖等,0,2023-12-13,2023-12-05,合資会社浦中蒲鉾店,,合資会社,熊本県,宇城市,三角町三角浦１１６０番地１７９,,43,213,8693207,,,2023-12-05,清算の結了等,,,2015-10-05,1,,,,,ウラナカカマボコテン,0
2281,8340005004112,登記記録の閉鎖等,0,2023-12-13,2023-12-08,いぶすき運送協同組合,,その他の設立登記法人,鹿児島県,指宿市,山川成川３０８５番地２,,46,210,8910516,,,2023-12-08,清算の結了等,,,2015-10-05,1,,,,,イブスキウンソウ,0
2292,8370003005274,登記記録の閉鎖等,0,2023-12-13,2023-12-06,合同会社窮星禮和会,,合同会社,宮城県,仙台市宮城野区,鶴ケ谷１丁目２７番地の１８,,04,102,9830824,,,2023-12-06,清算の結了等,,,2021-06-15,1,,,,,キュウセイレイワカイ,0
2308,9010001079818,登記記録の閉鎖等,0,2023-12-13,2023-12-06,株式会社ジーマ,,株式会社,東京都,千代田区,九段南２丁目５番５号,,13,101,1020074,,,2023-12-06,清算の結了等,,,2015-10-05,1,,,,,ジーマ,0
2311,9010001131066,登記記録の閉鎖等,0,2023-12-13,2023-12-06,ミューコンセプト株式会社,,株式会社,東京都,中央区,銀座１丁目３番６号,,13,102,1040061,,,2023-12-06,清算の結了等,,,2015-10-05,1,,,,,ミューコンセプト,0
2312,9010001148515,登記記録の閉鎖等,0,2023-12-13,2023-12-06,エフティテック株式会社,,株式会社,東京都,千代田区,神田多町２丁目８番地佐一多町ビル,,13,101,1010046,,,2023-12-06,清算の結了等,,,2015-10-05,1,,,,,エフティテック,0
2332,9010401084475,登記記録の閉鎖等,0,2023-12-13,2023-12-07,株式会社Ａｅｌｌ,,株式会社,東京都,中央区,勝どき６丁目３番２－７３０号ＴＴＴ－ＭＩＤＴＯＷＥＲ,,13,102,1040054,,,2023-12-07,清算の結了等,,,2015-10-05,1,,,,,エール,0
2345,9010402003475,登記記録の閉鎖等,0,2023-12-13,2023-12-07,華昌株式会社,,株式会社,長野県,北佐久郡軽井沢町,大字軽井沢１１５１番地５,,20,321,3890102,,,2023-12-07,合併による解散等,4011001066521,令和５年１２月１日東京都中央区銀座五丁目１番１０号株式会社ホワイトストーン（4011001066521）に合併し解散,2015-10-05,1,,,,,カショウ,0
2363,9011001137706,登記記録の閉鎖等,0,2023-12-13,2023-12-04,株式会社ＬＥＬＡ,,株式会社,東京都,中央区,東日本橋１丁目６番９号セレサ東日本橋５０２,,13,102,1030004,,,2023-12-04,清算の結了等,,,2021-01-05,1,,,,,リラ,0
2379,9011302009629,登記記録の閉鎖等,0,2023-12-13,2023-12-07,有限会社友和サービス,,有限会社,東京都,港区,三田３丁目１１番３６号,,13,103,1080073,,,2023-12-07,合併による解散等,7011301007338,令和５年１２月１日東京都港区三田三丁目１１番３６号友和商工株式会社（7011301007338）に合併し解散,2015-10-05,1,,,,,ユウワサービス,0
2381,9011303004331,登記記録の閉鎖等,0,2023-12-13,2023-12-07,スタジオシンス合同会社,,合同会社,東京都,杉並区,永福３丁目２９番２号１０１,,13,115,1680064,,,2023-12-07,清算の結了等,,,2022-03-08,1,,,,,,0
2388,9011702007959,登記記録の閉鎖等,0,2023-12-13,2023-12-04,有限会社東栄住宅,,有限会社,東京都,江戸川区,中葛西３丁目１番６－７０１号,,13,123,1340083,,,2023-12-04,合併による解散等,8011701001063,令和５年１１月３０日東京都江戸川区中葛西三丁目３７番１号株式会社宇田川商事（8011701001063）に合併し解散,2015-10-05,1,,,,,トウエイジュウタク,0
2393,9013301002069,登記記録の閉鎖等,0,2023-12-13,2023-12-04,株式会社大ごもり建築事務所,,株式会社,東京都,豊島区,東池袋１丁目４７番１３号,,13,116,1700013,,,2023-12-04,清算の結了等,,,2015-10-05,1,,,,,オオゴモリケンチクジムショ,0
2406,9021001023871,登記記録の閉鎖等,0,2023-12-13,2023-12-11,株式会社山村,,株式会社,神奈川県,秦野市,南矢名９１５番地の９,,14,211,2570003,,,2023-12-11,清算の結了等,,,2015-10-05,1,,,,,ヤマムラ,0
2407,9021001027229,登記記録の閉鎖等,0,2023-12-13,2023-12-08,株式会社ｎｅｘｔＰＣＴ,,株式会社,神奈川県,綾瀬市,早川２７７１－９,,14,218,2521123,,,2023-12-08,合併による解散等,4010501032909,令和５年１２月１日東京都千代田区丸の内一丁目８番３号株式会社ＰＣＴ（4010501032909）に合併し解散,2015-10-05,1,,,,,ネクストピーシーティー,0
2410,9021002046855,登記記録の閉鎖等,0,2023-12-13,2023-12-08,有限会社福島製作所,,有限会社,神奈川県,綾瀬市,落合南２丁目１４番２６号,,14,218,2521115,,,2023-12-08,清算の結了等,,,2015-10-05,1,,,,,フクシマセイサクショ,0
2411,9021002064584,登記記録の閉鎖等,0,2023-12-13,2023-12-08,有限会社座間表具店,,有限会社,神奈川県,横須賀市,追浜本町１丁目７番地,,14,201,2370068,,,2023-12-08,清算の結了等,,,2015-10-05,1,,,,,ザマヒョウグテン,0
2425,9040001075681,登記記録の閉鎖等,0,2023-12-13,2023-12-06,株式会社ナノソフトウェア,,株式会社,千葉県,千葉市緑区,越智町７０５番地の２６９,,12,105,2670055,,,2023-12-06,清算の結了等,,,2015-10-05,1,,,,,ナノソフトウェア,0
2450,9110005016773,登記記録の閉鎖等,0,2023-12-13,2023-12-11,ワールド架け橋事業協同組合,,その他の設立登記法人,新潟県,中魚沼郡津南町,大字下船渡己６１１６番地,,15,482,9498201,,,2023-12-11,清算の結了等,,,2022-03-29,1,,,,,ワールドカケハシ,0
2453,9120001093865,登記記録の閉鎖等,0,2023-12-13,2023-12-07,エイ・アイ・シー株式会社,,株式会社,東京都,港区,愛宕２丁目５番１号愛宕グリーンヒルズＭＯＲＩタワー２４階,,13,103,1050002,,,2023-12-07,清算の結了等,,,2015-10-05,1,,,,,エイアイシー,0
2476,9120902006462,登記記録の閉鎖等,0,2023-12-13,2023-12-08,有限会社ジー・カンパニー,,有限会社,大阪府,吹田市,垂水町２丁目２０番１８号,,27,205,5640062,,,2023-12-08,清算の結了等,,,2015-10-05,1,,,,,ジーカンパニー,0
2478,9122001022168,登記記録の閉鎖等,0,2023-12-13,2023-12-07,株式会社三栄精版印刷所,,株式会社,大阪府,八尾市,南本町３丁目２番２４号,,27,212,5810081,,,2023-12-07,清算の結了等,,,2015-10-05,1,,,,,サンエイセイハンインサツショ,0
2501,9170002011739,登記記録の閉鎖等,0,2023-12-13,2023-12-11,有限会社ナカムラ,,有限会社,和歌山県,東牟婁郡串本町,串本１８０７番地,,30,428,6493503,,,2023-12-11,清算の結了等,,,2015-10-05,1,,,,,ナカムラ,0
2530,9220001010967,登記記録の閉鎖等,0,2023-12-13,2023-12-11,飛永工業株式会社,,株式会社,石川県,金沢市,千木町リ１番地１,,17,201,9200001,,,2023-12-11,合併による解散等,2220001018934,令和５年１２月１１日石川県金沢市千木町リ２番地３株式会社Ｄｅｖｅｌｏｐｓ（2220001018934）に合併し解散,2015-10-05,1,,,,,トビナガコウギョウ,0
2543,9260002031109,登記記録の閉鎖等,0,2023-12-13,2023-12-11,株式会社人形の徳永,,株式会社,岡山県,和気郡和気町,藤野９３５番地の４,,33,346,7090412,,,2023-12-11,清算の結了等,,,2015-10-05,1,,,,,ニンギョウノトクナガ,0
2555,9330002007555,登記記録の閉鎖等,0,2023-12-13,2023-12-06,有限会社長田水産,,有限会社,熊本県,熊本市東区,保田窪５丁目３番１２号,,43,102,8620926,,,2023-12-06,清算の結了等,,,2015-10-05,1,,,,,ナガタスイサン,0
2568,9370401000116,登記記録の閉鎖等,0,2023-12-13,2023-12-07,株式会社阿部建設,,株式会社,宮城県,登米市,豊里町寿崎５２番地,,04,212,9870352,,,2023-12-07,清算の結了等,,,2015-10-05,1,,,,,アベケンセツ,0
2572,9380002030908,登記記録の閉鎖等,0,2023-12-13,2023-12-08,有限会社会津白衣,,有限会社,福島県,会津若松市,七日町６番２１号,,07,202,9650044,,,2023-12-08,清算の結了等,,,2015-10-05,1,,,,,アイヅハクイ,0
2584,9450002007923,登記記録の閉鎖等,0,2023-12-13,2023-12-12,有限会社オリエントメディカル,,有限会社,北海道,旭川市,豊岡四条３丁目７番９号,,01,204,0788234,,,2023-12-12,清算の結了等,,,2015-10-05,1,,,,,,0
