sequenceNumber,corporateNumber,process,correct,updateDate,changeDate,name,nameImageId,kind,prefectureName,cityName,streetNumber,addressImageId,prefectureCode,cityCode,postCode,addressOutside,addressOutsideImageId,closeDate,closeCause,successorCorporateNumber,changeCause,assignmentDate,latest,enName,enPrefectureName,enCityName,enAddressOutside,furigana,hihyoji
5,1010005012807,登記記録の閉鎖等,0,2021-10-05,2021-09-29,特定非営利活動法人科学宅配塾,,その他の設立登記法人,東京都,千代田区,神田小川町３丁目１４番３,,13,101,1010052,,,2021-09-29,清算の結了等,,,2015-10-05,1,,,,,カガクタクハイジュク,0
9,1010403010494,登記記録の閉鎖等,0,2021-10-05,2021-10-01,合同会社ＪＲＥ和歌山岩出市,,合同会社,東京都,港区,六本木６丁目２番３１号六本木ヒルズノースタワー１５階,,13,103,1060032,,,2021-10-01,合併による解散等,4010403025886,令和３年１０月１日東京都港区六本木六丁目２番３１号六本木ヒルズノースタワー１５階合同会社ＪＲＥアルバ（4010403025886）に合併し解散,2015-10-05,1,,,,,ジェイアールイーワカヤマイワデシ,0
10,1010403013002,登記記録の閉鎖等,0,2021-10-05,2021-10-01,合同会社ＪＲＥ稲敷伊佐津,,合同会社,東京都,港区,六本木６丁目２番３１号六本木ヒルズノースタワー１５階,,13,103,1060032,,,2021-10-01,合併による解散等,4010403025886,令和３年１０月１日東京都港区六本木六丁目２番３１号六本木ヒルズノースタワー１５階合同会社ＪＲＥアルバ（4010403025886）に合併し解散,2015-10-05,1,,,,,ジェイアールイーイナシキイサツ,0
34,1011101044149,登記記録の閉鎖等,0,2021-10-05,2021-09-21,エポック販売株式会社,,株式会社,東京都,新宿区,新宿２丁目１５番２５号カテリーナ御苑２０４号,,13,104,1600022,,,2021-09-21,清算の結了等,,,2015-10-05,1,,,,,エポックハンバイ,0
39,1011102009984,登記記録の閉鎖等,0,2021-10-05,2021-09-24,有限会社延本通信,,有限会社,東京都,新宿区,新宿５丁目１８番２０号ルックハイツ新宿８０３,,13,104,1600022,,,2021-09-24,清算の結了等,,,2015-10-05,1,,,,,ノブモトツウシン,0
45,1011301003045,登記記録の閉鎖等,0,2021-10-05,2021-09-30,株式会社シーアンドピー,,株式会社,東京都,杉並区,阿佐谷北２丁目１４番４号,,13,115,1660001,,,2021-09-30,清算の結了等,,,2015-10-05,1,,,,,シーアンドピー,0
48,1011301021303,登記記録の閉鎖等,0,2021-10-05,2021-09-29,Ｓｔｒａｔｅｘ株式会社,,株式会社,東京都,豊島区,南大塚２丁目１１番１０号ミモザビル３Ｆ,,13,116,1700005,,,2021-09-29,清算の結了等,,,2015-10-05,1,,,,,ストラテックス,0
51,1011601016060,登記記録の閉鎖等,0,2021-10-05,2021-09-28,株式会社Ｄｒｅａｍ　Ａｒｒｏｗ,,株式会社,東京都,台東区,台東３丁目４６－８ＷＩＴＨ大橋ビル３－４Ｆ,,13,106,1100016,,,2021-09-28,清算の結了等,,,2015-10-05,1,,,,,ドリームアロー,0
54,1011701012645,登記記録の閉鎖等,0,2021-10-05,2021-09-27,慶総技研株式会社,,株式会社,千葉県,浦安市,美浜５丁目７番６０３号,,12,227,2790011,,,2021-09-27,清算の結了等,,,2015-10-05,1,,,,,ケイソウギケン,0
88,1030001051303,登記記録の閉鎖等,0,2021-10-05,2021-09-24,トキタ園芸株式会社,,株式会社,埼玉県,春日部市,粕壁３丁目５番３８号,,11,214,3440061,,,2021-09-24,清算の結了等,,,2015-10-05,1,,,,,トキタエンゲイ,0
105,1030002121724,登記記録の閉鎖等,0,2021-10-05,2021-09-22,星野タクシー有限会社,,有限会社,埼玉県,秩父市,宮側町４番１号,,11,207,3680046,,,2021-09-22,清算の結了等,,,2015-10-05,1,,,,,ホシノタクシー,0
117,1050003000859,登記記録の閉鎖等,0,2021-10-05,2021-09-30,合資会社沼田商店,,合資会社,茨城県,小美玉市,小岩戸１２９９番地１,,08,236,3190107,,,2021-09-30,清算の結了等,,,2015-10-05,1,,,,,ヌマタショウテン,0
118,1060001009538,登記記録の閉鎖等,0,2021-10-05,2021-09-29,株式会社野村商店,,株式会社,栃木県,真岡市,久下田１５２０番地,,09,209,3214521,,,2021-09-29,清算の結了等,,,2015-10-05,1,,,,,ノムラショウテン,0
140,1080402004499,登記記録の閉鎖等,0,2021-10-05,2021-10-01,有限会社曽根研磨工業所,,有限会社,静岡県,浜松市南区,江之島町３３番地の１,,22,134,4300844,,,2021-10-01,清算の結了等,,,2015-10-05,1,,,,,ソネケンマコウギョウショ,0
150,1120001049676,登記記録の閉鎖等,0,2021-10-05,2021-10-01,株式会社サンニットー,,株式会社,大阪府,大阪市中央区,本町４丁目７番４号,,27,128,5410053,,,2021-10-01,合併による解散等,6120001050753,令和３年１０月１日大阪市中央区本町四丁目７番４号株式会社ＭＩＴＡＫＡ（6120001050753）に合併し解散,2015-10-05,1,,,,,サンニットー,0
153,1120001116955,登記記録の閉鎖等,0,2021-10-05,2021-09-29,イー・モーション株式会社,,株式会社,大阪府,大阪市中央区,瓦町３丁目３番１０号,,27,128,5410048,,,2021-09-29,清算の結了等,,,2015-10-05,1,,,,,イーモーション,0
173,1120102010685,登記記録の閉鎖等,0,2021-10-05,2021-10-01,有限会社狩野建設,,有限会社,大阪府,堺市西区,浜寺元町４丁４１１番地の２,,27,144,5928343,,,2021-10-01,清算の結了等,,,2015-10-05,1,,,,,カノケンセツ,0
176,1120901023664,登記記録の閉鎖等,0,2021-10-05,2021-09-30,株式会社弘機金属商行,,株式会社,大阪府,豊中市,蛍池西町二丁目５番４０－２０１号,,27,203,5600000,,,2021-09-30,清算の結了等,,,2015-10-05,1,,,,,コウキキンゾクショウコウ,0
194,1140005006754,登記記録の閉鎖等,0,2021-10-05,2021-08-20,天理教浪神分教会,,その他の設立登記法人,兵庫県,揖保郡太子町,原７４０番地,,28,464,6711502,,,2021-08-20,合併による解散等,9120005000371,令和３年８月１９日大阪市中央区（大阪市東区玉造二丁目７番１４号）天理教浪北分教会（9120005000371）に合併し解散,2015-10-05,1,,,,,テンリキョウロウシンブンキョウカイ,0
197,1160001012894,登記記録の閉鎖等,0,2021-10-05,2021-09-30,株式会社エスマック,,株式会社,滋賀県,草津市,草津３丁目１１番２７号,,25,206,5250034,,,2021-09-30,清算の結了等,,,2015-10-05,1,,,,,エスマック,0
208,1180002058943,登記記録の閉鎖等,0,2021-10-05,2021-09-30,有限会社イッツプロ,,有限会社,愛知県,名古屋市東区,白壁４丁目５番地の２,,23,102,4610011,,,2021-09-30,清算の結了等,,,2015-10-05,1,,,,,イッツプロ,0
210,1180301011264,登記記録の閉鎖等,0,2021-10-05,2021-10-04,ノザキ株式会社,,株式会社,愛知県,蒲郡市,形原町出口３２番地の２,,23,214,4430104,,,2021-10-04,清算の結了等,,,2015-10-05,1,,,,,ノザキ,0
264,1310002012151,登記記録の閉鎖等,0,2021-10-05,2021-09-30,和興エンジニアリング有限会社,,有限会社,長崎県,佐世保市,石坂町１７７番地３,,42,202,8570037,,,2021-09-30,清算の結了等,,,2015-10-05,1,,,,,ワコウエンジニアリング,0
270,1330002009996,登記記録の閉鎖等,0,2021-10-05,2021-09-30,有限会社丸繁,,有限会社,熊本県,熊本市南区,今町５２０番地１,,43,104,8615251,,,2021-09-30,清算の結了等,,,2015-10-05,1,,,,,マルシゲ,0
282,1360002016197,登記記録の閉鎖等,0,2021-10-05,2021-09-28,有限会社タカナミ商事,,有限会社,沖縄県,中頭郡西原町,字翁長８４２－１,,47,329,9030117,,,2021-09-28,清算の結了等,,,2015-10-05,1,,,,,,0
306,1430002048002,登記記録の閉鎖等,0,2021-10-05,2021-09-30,有限会社中村燃料設備,,有限会社,北海道,恵庭市,恵み野北４丁目５番１０,,01,231,0611374,,,2021-09-30,清算の結了等,,,2015-10-05,1,,,,,ナカムラネンリョウセツビ,0
325,2010401056514,登記記録の閉鎖等,0,2021-10-05,2021-09-22,スポーツ情報センター株式会社,,株式会社,東京都,港区,新橋５丁目７番１３号,,13,103,1050004,,,2021-09-22,清算の結了等,,,2015-10-05,1,,,,,スポーツジョウホウセンター,0
329,2010401091032,登記記録の閉鎖等,0,2021-10-05,2021-09-22,ＴＦＣＦインターナショナル・プロダクションズ・ジャパン株式会社,,株式会社,東京都,港区,六本木３丁目１６番３３号,,13,103,1060032,,,2021-09-22,清算の結了等,,,2015-10-05,1,,,,,ティーエフシーエフインターナショナルプロダクションズジャパン,0
330,2010401104537,登記記録の閉鎖等,0,2021-10-05,2021-09-22,Ｗａｙｐｏｉｎｔ　Ｉｎｖｅｓｔｍｅｎｔｓ　Ｊａｐａｎ合同会社,,合同会社,東京都,港区,虎ノ門３丁目２２番１０－２０１号,,13,103,1050001,,,2021-09-22,清算の結了等,,,2015-10-05,1,,,,,ウェイポイントインベストメンツジャパン,0
334,2010403016193,登記記録の閉鎖等,0,2021-10-05,2021-09-22,寶聖グローバルマリーン合同会社,,合同会社,東京都,港区,海岸３丁目３３番１７号東京ベイサイドビル,,13,103,1080022,,,2021-09-22,清算の結了等,,,2017-02-23,1,,,,,ホウセイグローバルマリーン,0
338,2010405018782,登記記録の閉鎖等,0,2021-10-05,2021-09-29,一般社団法人新型コロナ対策支援協会,,その他の設立登記法人,東京都,中央区,銀座７丁目１３番６号サガミビル２階,,13,102,1040061,,,2021-09-29,清算の結了等,,,2020-06-11,1,,,,,シンガタコロナタイサクシエンキョウカイ,0
347,2010701007563,登記記録の閉鎖等,0,2021-10-05,2021-10-01,株式会社ニューブリッヂ,,株式会社,東京都,品川区,東品川４丁目９番１９－２０６号,,13,109,1400002,,,2021-10-01,清算の結了等,,,2015-10-05,1,,,,,ニューブリッヂ,0
361,2011001107608,登記記録の閉鎖等,0,2021-10-05,2021-09-15,株式会社ＬＩＢＥＲＴＹ,,株式会社,東京都,渋谷区,神宮前１丁目４番２０号,,13,113,1500001,,,2021-09-15,清算の結了等,,,2015-10-05,1,,,,,リバティ,0
362,2011001122433,登記記録の閉鎖等,0,2021-10-05,2021-09-22,恵愛株式会社,,株式会社,東京都,港区,六本木１丁目５番１７号,,13,103,1060032,,,2021-09-22,清算の結了等,,,2018-05-30,1,,,,,ケイアイ,0
368,2011101043091,登記記録の閉鎖等,0,2021-10-05,2021-09-29,株式会社ぷう,,株式会社,東京都,品川区,北品川５丁目７番１４号,,13,109,1410001,,,2021-09-29,清算の結了等,,,2015-10-05,1,,,,,プウ,0
381,2011703000754,登記記録の閉鎖等,0,2021-10-05,2021-09-27,合同会社ＶＴＦＡグリット,,合同会社,東京都,江戸川区,東小岩３丁目７番１８号,,13,123,1330052,,,2021-09-27,清算の結了等,,,2015-10-05,1,,,,,ヴイティーエフエーグリット,0
382,2011703001604,登記記録の閉鎖等,0,2021-10-05,2021-09-27,リノーヴォ合同会社,,合同会社,東京都,江戸川区,東小岩３丁目７番１８号,,13,123,1330052,,,2021-09-27,清算の結了等,,,2016-11-14,1,,,,,リノーヴォ,0
410,2020005013646,登記記録の閉鎖等,0,2021-10-05,2021-09-30,一般社団法人健康長寿科学栄養研究所,,その他の設立登記法人,神奈川県,横浜市神奈川区,平川町２３番地１・５０９号,,14,102,2210812,,,2021-09-30,清算の結了等,,,2018-04-18,1,,,,,ケンコウチョウジュカガクエイヨウケンキュウジョ,0
430,2030002045261,登記記録の閉鎖等,0,2021-10-05,2021-09-21,有限会社成田屋精肉店,,有限会社,埼玉県,草加市,原町１丁目３番３３号,,11,221,3400048,,,2021-09-21,清算の結了等,,,2015-10-05,1,,,,,ナリタヤセイニクテン,0
442,2040001074087,登記記録の閉鎖等,0,2021-10-05,2021-09-27,水島商事株式会社,,株式会社,千葉県,南房総市,千倉町南朝夷１０５８番地,,12,234,2950012,,,2021-09-27,清算の結了等,,,2015-10-05,1,,,,,ミズシマショウジ,0
443,2040001097377,登記記録の閉鎖等,0,2021-10-05,2021-09-15,株式会社綾部商店,,株式会社,千葉県,木更津市,潮浜１丁目１７番地３１,,12,206,2920838,,,2021-09-15,清算の結了等,,,2016-10-21,1,,,,,アヤベショウテン,0
448,2040002068303,登記記録の閉鎖等,0,2021-10-05,2021-09-16,有限会社木村孵卵場,,有限会社,千葉県,袖ケ浦市,神納４１３５番地,,12,229,2990257,,,2021-09-16,清算の結了等,,,2016-04-18,1,,,,,キムラフランジョウ,0
462,2080001014948,登記記録の閉鎖等,0,2021-10-05,2021-10-01,株式会社スズシオテック,,株式会社,静岡県,焼津市,大住２０３番地,,22,212,4250072,,,2021-10-01,清算の結了等,,,2015-10-05,1,,,,,スズシオテック,0
480,2100002018458,登記記録の閉鎖等,0,2021-10-05,2021-09-30,有限会社大井,,有限会社,長野県,下高井郡山ノ内町,大字夜間瀬４３０２番地１,,20,561,3810405,,,2021-09-30,清算の結了等,,,2015-10-05,1,,,,,オオイ,0
481,2100005005528,登記記録の閉鎖等,0,2021-10-05,2021-09-29,農事組合法人きのこ屋,,その他の設立登記法人,長野県,中野市,大字壁田６０７番地,,20,211,3830061,,,2021-09-29,清算の結了等,,,2015-10-05,1,,,,,,0
489,2110005013273,登記記録の閉鎖等,0,2021-10-05,2021-08-23,天理教五十澤分教会,,その他の設立登記法人,新潟県,南魚沼市,中川新田２８８番地,,15,226,9496762,,,2021-08-23,合併による解散等,6070005005668,令和３年８月１９日群馬県渋川市北橘町八崎２７４番地の２天理教溝呂木分教会（6070005005668）に合併し解散,2015-10-05,1,,,,,,0
497,2120001166017,登記記録の閉鎖等,0,2021-10-05,2021-09-30,株式会社ハーベスト,,株式会社,大阪府,大阪市西区,立売堀１丁目９番１０号ＨＯＷＡビル７０１,,27,106,5500012,,,2021-09-30,清算の結了等,,,2015-10-05,1,,,,,ハーベスト,0
514,2120002077279,登記記録の閉鎖等,0,2021-10-05,2021-10-01,ヤマウチプレシジョン有限会社,,有限会社,大阪府,枚方市,招提田近２丁目７番地,,27,210,5731132,,,2021-10-01,合併による解散等,1120002074698,令和３年１０月１日大阪府枚方市招提田近二丁目７番地株式会社阪神興産（1120002074698）に合併し解散,2015-10-05,1,,,,,ヤマウチプレシジョン,0
520,2120105005608,登記記録の閉鎖等,0,2021-10-05,2021-10-01,特定非営利活動法人安全な食べものネットワークオルター,,その他の設立登記法人,大阪府,南河内郡千早赤阪村,大字森屋９６２番地１,,27,383,5850044,,,2021-10-01,清算の結了等,,,2015-10-05,1,,,,,アンゼンナタベモノネットワークオルター,0
522,2120901025932,登記記録の閉鎖等,0,2021-10-05,2021-09-30,森商事株式会社,,株式会社,大阪府,豊中市,北桜塚４丁目１２番２０号,,27,203,5600022,,,2021-09-30,清算の結了等,,,2015-10-05,1,,,,,モリショウジ,0
527,2130001020032,登記記録の閉鎖等,0,2021-10-05,2021-10-01,株式会社エステートジャパン,,株式会社,京都府,京都市中京区,烏丸通押小路上る秋野々町５３５日土地京都ビル,,26,104,6040847,,,2021-10-01,清算の結了等,,,2015-10-05,1,,,,,エステートジャパン,0
575,2240001047683,登記記録の閉鎖等,0,2021-10-05,2021-09-30,株式会社ザメディアジョンプレス,,株式会社,広島県,広島市西区,横川町２丁目５番１５号横川ビルディング,,34,104,7330011,,,2021-09-30,清算の結了等,,,2015-10-05,1,,,,,ザメディアジョンプレス,0
613,2320002019145,登記記録の閉鎖等,0,2021-10-05,2021-09-30,有限会社木下土木,,有限会社,大分県,日田市,大字高瀬４０４４番地の４,,44,204,8770000,,,2021-09-30,清算の結了等,,,2015-10-05,1,,,,,キノシタドボク,0
659,2430002003204,登記記録の閉鎖等,0,2021-10-05,2021-09-28,有限会社江戸前おでん深谷,,有限会社,北海道,札幌市中央区,南三条東２丁目１番地パシフィック南３条９０７号,,01,101,0600053,,,2021-09-28,清算の結了等,,,2015-10-05,1,,,,,エドマエオデンフカヤ,0
663,2430005004926,登記記録の閉鎖等,0,2021-10-05,2021-09-24,北海道セールスレップ協同組合,,その他の設立登記法人,北海道,札幌市中央区,南一条西４丁目１３番地,,01,101,0600061,,,2021-09-24,清算の結了等,,,2015-10-05,1,,,,,ホッカイドウセールスレップ,0
673,2460301002449,登記記録の閉鎖等,0,2021-10-05,2021-09-30,株式会社丸信,,株式会社,北海道,紋別郡湧別町,曙町２０番地１,,01,559,0996402,,,2021-09-30,清算の結了等,,,2015-10-05,1,,,,,マルシン,0
676,2470001013431,登記記録の閉鎖等,0,2021-10-05,2021-10-01,株式会社アクセレーション,,株式会社,香川県,木田郡三木町,大字鹿伏５４３番地６５,,37,341,7610703,,,2021-10-01,清算の結了等,,,2015-10-05,1,,,,,アクセレーション,0
680,2490002013123,登記記録の閉鎖等,0,2021-10-05,2021-10-01,有限会社川越建設,,有限会社,高知県,室戸市,吉良川町乙１８４１番地,,39,202,7816831,,,2021-10-01,清算の結了等,,,2015-10-05,1,,,,,カワゴエケンセツ,0
695,3010501010808,登記記録の閉鎖等,0,2021-10-05,2021-09-28,日証株式会社,,株式会社,東京都,台東区,池之端２丁目７番１０号,,13,106,1100008,,,2021-09-28,清算の結了等,,,2015-10-05,1,,,,,ニッショウ,0
703,3010802000400,登記記録の閉鎖等,0,2021-10-05,2021-09-22,有限会社アクト金属工業,,有限会社,東京都,大田区,下丸子２丁目７番３－３０６号,,13,111,1460092,,,2021-09-22,清算の結了等,,,2015-10-05,1,,,,,,0
709,3010902007683,登記記録の閉鎖等,0,2021-10-05,2021-09-29,昭神漁業有限会社,,有限会社,東京都,世田谷区,上野毛１丁目３４番２７号,,13,112,1580093,,,2021-09-29,清算の結了等,,,2015-10-05,1,,,,,ショウジンギョギョウ,0
710,3010902022014,登記記録の閉鎖等,0,2021-10-05,2021-09-28,有限会社エポック・ハウス,,有限会社,東京都,世田谷区,経堂１丁目３０番２１号,,13,112,1560052,,,2021-09-28,清算の結了等,,,2015-10-05,1,,,,,,0
720,3011101028521,登記記録の閉鎖等,0,2021-10-05,2021-10-01,株式会社ルプロ,,株式会社,東京都,新宿区,西新宿３丁目７番１号,,13,104,1600023,,,2021-10-01,合併による解散等,1011101025784,令和３年１０月１日東京都新宿区荒木町１４番地株式会社グローバルスタッフ（1011101025784）に合併し解散,2015-10-05,1,,,,,ルプロ,0
721,3011101030320,登記記録の閉鎖等,0,2021-10-05,2021-09-24,株式会社マック,,株式会社,東京都,新宿区,新宿２丁目８番８号,,13,104,1600022,,,2021-09-24,清算の結了等,,,2015-10-05,1,,,,,マック,0
738,3011501023428,登記記録の閉鎖等,0,2021-10-05,2021-09-30,株式会社エミーコーポレーション,,株式会社,東京都,江戸川区,東小岩４丁目３２番１１号,,13,123,1330052,,,2021-09-30,清算の結了等,,,2018-02-06,1,,,,,エミーコーポレーション,0
757,3020001077116,登記記録の閉鎖等,0,2021-10-05,2021-10-01,オフィスプラン・ドゥ株式会社,,株式会社,神奈川県,川崎市川崎区,南町２－１１,,14,131,2100015,,,2021-10-01,清算の結了等,,,2015-10-05,1,,,,,オフィスプランドゥ,0
762,3020002021964,登記記録の閉鎖等,0,2021-10-05,2021-09-30,有限会社トップ企画,,有限会社,神奈川県,横浜市港北区,新横浜２丁目１８番地１４セレスト新横浜１００３,,14,109,2220033,,,2021-09-30,清算の結了等,,,2015-10-05,1,,,,,,0
765,3020005009569,登記記録の閉鎖等,0,2021-10-05,2021-09-30,ＮＰＯ法人ツブヤ・ユニバーシティー,,その他の設立登記法人,神奈川県,横浜市西区,高島１丁目１番地２,,14,103,2200011,,,2021-09-30,清算の結了等,,,2015-10-05,1,,,,,ツブヤユニバーシティー,0
768,3021001068501,登記記録の閉鎖等,0,2021-10-05,2021-09-30,株式会社エアーライフ,,株式会社,神奈川県,横須賀市,佐原４丁目１４番１－３０１号,,14,201,2390835,,,2021-09-30,清算の結了等,,,2019-10-31,1,,,,,エアーライフ,0
779,3030005007183,登記記録の閉鎖等,0,2021-10-05,2021-09-21,東京エネルギー企業組合,,その他の設立登記法人,埼玉県,志木市,本町４丁目１４番２号,,11,228,3530004,,,2021-09-21,清算の結了等,,,2015-10-05,1,,,,,トウキョウエネルギー,0
781,3040001061811,登記記録の閉鎖等,0,2021-10-05,2021-09-28,株式会社武蔵野,,株式会社,千葉県,旭市,イの２７９２番地,,12,215,2892511,,,2021-09-28,清算の結了等,,,2015-10-05,1,,,,,ムサシノ,0
815,3080405006895,登記記録の閉鎖等,0,2021-10-05,2021-10-01,ＮＰＯ法人みかんの花,,その他の設立登記法人,静岡県,浜松市北区,三ヶ日町平山６７８番地の１,,22,135,4311417,,,2021-10-01,清算の結了等,,,2016-09-01,1,,,,,ミカンノハナ,0
838,3120001197738,登記記録の閉鎖等,0,2021-10-05,2021-09-30,株式会社リベルタ,,株式会社,大阪府,枚方市,東中振１丁目９番１１号,,27,210,5730093,,,2021-09-30,清算の結了等,,,2016-04-22,1,,,,,,0
841,3120001205401,登記記録の閉鎖等,0,2021-10-05,2021-09-30,株式会社大道プランニング,,株式会社,大阪府,大阪市阿倍野区,松崎町４丁目１１番４－８０１号,,27,119,5450053,,,2021-09-30,合併による解散等,8120001168882,令和３年９月３０日大阪市天王寺区大道三丁目８番１２号株式会社大道エステート（8120001168882）に合併し解散,2017-05-11,1,,,,,ダイドウプランニング,0
852,3120003000040,登記記録の閉鎖等,0,2021-10-05,2021-10-01,合名会社三隆金属工業所,00031516,合名会社,大阪府,大阪市中央区,本町４丁目７番４号,,27,128,5410053,,,2021-10-01,合併による解散等,6120001050753,令和３年１０月１日大阪市中央区本町四丁目７番４号株式会社ＭＩＴＡＫＡ（6120001050753）に合併し解散,2015-10-05,1,,,,,ミタカキンゾクコウギョウショ,0
868,3140001038378,登記記録の閉鎖等,0,2021-10-05,2021-09-29,株式会社青雲ゼミ,,株式会社,兵庫県,たつの市,神岡町東觜崎２６６番地,,28,229,6794109,,,2021-09-29,清算の結了等,,,2015-10-05,1,,,,,セイウンゼミ,0
869,3140001049994,登記記録の閉鎖等,0,2021-10-05,2021-09-28,住精産業株式会社,,株式会社,兵庫県,尼崎市,扶桑町１番１０号,,28,202,6600891,,,2021-09-28,清算の結了等,,,2015-10-05,1,,,,,スミセイサンギョウ,0
877,3140002030029,登記記録の閉鎖等,0,2021-10-05,2021-09-29,有限会社ワールドスタッフ,,有限会社,兵庫県,明石市,魚住町西岡２４８０番地の１,,28,203,6740084,,,2021-09-29,清算の結了等,,,2015-10-05,1,,,,,ワールドスタッフ,0
910,3230001008330,登記記録の閉鎖等,0,2021-10-05,2021-09-30,株式会社砺波製材所,,株式会社,富山県,砺波市,福岡２５２番地,,16,208,9391405,,,2021-09-30,清算の結了等,,,2015-10-05,1,,,,,トナミセイザイショ,0
928,3290001067560,登記記録の閉鎖等,0,2021-10-05,2021-09-15,株式会社ベストアレンジ,,株式会社,福岡県,福岡市南区,柏原６丁目２８番１０号,,40,134,8111353,,,2021-09-15,清算の結了等,,,2015-10-05,1,,,,,ベストアレンジ,0
957,3330002021925,登記記録の閉鎖等,0,2021-10-05,2021-09-29,有限会社フジタチメカニカル,,有限会社,熊本県,荒尾市,下井手１２２１番地２,,43,204,8640011,,,2021-09-29,清算の結了等,,,2015-10-05,1,,,,,フジタチメカニカル,0
964,3350001008946,登記記録の閉鎖等,0,2021-10-05,2021-09-29,株式会社ＬＤＫ,,株式会社,宮崎県,都城市,年見町１０街区１０号,,45,202,8850017,,,2021-09-29,清算の結了等,,,2015-10-05,1,,,,,エルディーケイ,0
982,3420002011124,登記記録の閉鎖等,0,2021-10-05,2021-09-29,有限会社佐藤板金,,有限会社,青森県,五所川原市,大字川山字千本４９番地２,,02,205,0370094,,,2021-09-29,清算の結了等,,,2015-10-05,1,,,,,サトウバンキン,0
990,3430003000538,登記記録の閉鎖等,0,2021-10-05,2021-09-30,丸本親和合名会社,,合名会社,北海道,札幌市中央区,北六条西１０丁目３番地,,01,101,0600006,,,2021-09-30,清算の結了等,,,2015-10-05,1,,,,,マルホンシンワ,0
1018,4010005026341,登記記録の閉鎖等,0,2021-10-05,2021-09-30,一般社団法人エーエフサーティーン,,その他の設立登記法人,東京都,千代田区,神田神保町３丁目５番地,,13,101,1010051,,,2021-09-30,清算の結了等,,,2017-01-27,1,,,,,エーエフサーティーン,0
1019,4010005028759,登記記録の閉鎖等,0,2021-10-05,2021-09-29,ＥＳＲ守谷特定目的会社,,その他の設立登記法人,東京都,中央区,日本橋１丁目４番１号日本橋一丁目ビルディング,,13,102,1030027,,,2021-09-29,清算の結了等,,,2018-07-05,1,,,,,イーエスアールモリヤ,0
1028,4010403012083,登記記録の閉鎖等,0,2021-10-05,2021-10-01,合同会社ＪＲＥ枕崎,,合同会社,東京都,港区,六本木６丁目２番３１号六本木ヒルズノースタワー１５階,,13,103,1060032,,,2021-10-01,合併による解散等,4010403025886,令和３年１０月１日東京都港区六本木六丁目２番３１号六本木ヒルズノースタワー１５階合同会社ＪＲＥアルバ（4010403025886）に合併し解散,2015-10-05,1,,,,,ジェイアールイーマクラザキ,0
1032,4010501002044,登記記録の閉鎖等,0,2021-10-05,2021-10-01,大塚工芸株式会社,,株式会社,東京都,板橋区,高島平９丁目１４番５号,,13,119,1750082,,,2021-10-01,合併による解散等,9011401003565,令和３年１０月１日東京都板橋区高島平九丁目１４番５号セリアート株式会社（9011401003565）に合併し解散,2015-10-05,1,,,,,オオツカコウゲイ,0
1034,4010503004146,登記記録の閉鎖等,0,2021-10-05,2021-09-22,Ｙ＆Ｚ合同会社,,合同会社,埼玉県,さいたま市大宮区,土手町１丁目６６－１ライオンズプラザ大宮第２－５０５号,,11,103,3300801,,,2021-09-22,清算の結了等,,,2015-10-05,1,,,,,ワイアンドゼット,0
1037,4010602004716,登記記録の閉鎖等,0,2021-10-05,2021-09-21,有限会社後大建設,,有限会社,東京都,江東区,大島３丁目２１番２号,,13,108,1360072,,,2021-09-21,清算の結了等,,,2015-10-05,1,,,,,ゴダイケンセツ,0
1039,4010801010093,登記記録の閉鎖等,0,2021-10-05,2021-09-28,株式会社港三田エステート,,株式会社,千葉県,市川市,香取１丁目１０番１３号,,12,203,2720141,,,2021-09-28,清算の結了等,,,2015-10-05,1,,,,,ミナトミタエステート,0
1043,4010901023160,登記記録の閉鎖等,0,2021-10-05,2021-09-30,鶴見土地建物株式会社,,株式会社,神奈川県,横浜市鶴見区,鶴見中央４丁目３３番１号,,14,101,2300051,,,2021-09-30,清算の結了等,,,2015-10-05,1,,,,,ツルミトチタテモノ,0
1074,4011105005094,登記記録の閉鎖等,0,2021-10-05,2021-09-07,一般社団法人気仙沼サポートビューロー,,その他の設立登記法人,東京都,新宿区,四谷４丁目１３番１号山崎ビル,,13,104,1600004,,,2021-09-07,清算の結了等,,,2015-10-05,1,,,,,ケセンヌマサポートビューロー,0
1078,4011302011424,登記記録の閉鎖等,0,2021-10-05,2021-09-28,有限会社エム・ハート,,有限会社,東京都,中野区,白鷺３丁目１１番１２号,,13,114,1650035,,,2021-09-28,清算の結了等,,,2015-10-05,1,,,,,エムハート,0
1092,4013102000937,登記記録の閉鎖等,0,2021-10-05,2021-09-30,有限会社アベラ商会,,有限会社,東京都,羽村市,小作台２丁目１２番地の２,,13,227,2050001,,,2021-09-30,清算の結了等,,,2015-10-05,1,,,,,,0
1095,4013402000455,登記記録の閉鎖等,0,2021-10-05,2021-09-22,有限会社協栄事務器,,有限会社,東京都,日野市,日野台５丁目１６番地３５,,13,212,1910003,,,2021-09-22,清算の結了等,,,2015-10-05,1,,,,,キョウエイジムキ,0
1098,4020001025346,登記記録の閉鎖等,0,2021-10-05,2021-09-30,株式会社一光,,株式会社,神奈川県,横浜市中区,初音町１丁目１２番地,,14,104,2310053,,,2021-09-30,合併による解散等,5010501012439,令和３年９月２０日東京都台東区柳橋二丁目９番３号株式会社三光リビング（5010501012439）に合併し解散,2015-10-05,1,,,,,,0
1101,4020001081125,登記記録の閉鎖等,0,2021-10-05,2021-09-30,株式会社ＳＦＣ,,株式会社,神奈川県,川崎市麻生区,岡上１４４１番地２２スターホームズ鶴川２０６号,,14,137,2150027,,,2021-09-30,清算の結了等,,,2015-10-05,1,,,,,エスエフシー,0
1106,4020002096279,登記記録の閉鎖等,0,2021-10-05,2021-09-30,有限会社金崎工業所,,有限会社,神奈川県,川崎市川崎区,小田７丁目３番２８号,,14,131,2100846,,,2021-09-30,清算の結了等,,,2015-10-05,1,,,,,,0
1109,4021001015980,登記記録の閉鎖等,0,2021-10-05,2021-09-30,株式会社竹中,,株式会社,神奈川県,相模原市緑区,橋本７丁目３番２４号,,14,151,2520143,,,2021-09-30,清算の結了等,,,2015-10-05,1,,,,,,0
1128,4030002087459,登記記録の閉鎖等,0,2021-10-05,2021-09-24,有限会社ネルサコーボ,,有限会社,埼玉県,越谷市,七左町６丁目３２番地１,,11,222,3430851,,,2021-09-24,清算の結了等,,,2015-10-05,1,,,,,ネルサコーボ,0
1130,4030002113883,登記記録の閉鎖等,0,2021-10-05,2021-09-27,有限会社中山工務店,,有限会社,埼玉県,熊谷市,新堀３６番地３,,11,202,3600841,,,2021-09-27,清算の結了等,,,2015-10-05,1,,,,,ナカヤマコウムテン,0
1175,4100002012780,登記記録の閉鎖等,0,2021-10-05,2021-09-30,有限会社友和技研,,有限会社,長野県,小諸市,甲字笠石１９０６番地１,,20,208,3840801,,,2021-09-30,清算の結了等,,,2015-10-05,1,,,,,ユウワギケン,0
1177,4110001018877,登記記録の閉鎖等,0,2021-10-05,2021-09-28,エフエム上越株式会社,,株式会社,新潟県,上越市,本町３丁目２番２６号,,15,222,9430832,,,2021-09-28,清算の結了等,,,2015-10-05,1,,,,,エフエムジョウエツ,0
1180,4110002004579,登記記録の閉鎖等,0,2021-10-05,2021-09-29,有限会社中電機,,有限会社,新潟県,新潟市東区,東中野山４丁目１３番１４号,,15,102,9500836,,,2021-09-29,清算の結了等,,,2015-10-05,1,,,,,ナカデンキ,0
1182,4120001034246,登記記録の閉鎖等,0,2021-10-05,2021-09-30,株式会社泉屋,,株式会社,大阪府,大阪市福島区,福島８丁目２０番１号,,27,103,5530003,,,2021-09-30,清算の結了等,,,2015-10-05,1,,,,,イズミヤ,0
1188,4120001108611,登記記録の閉鎖等,0,2021-10-05,2021-09-24,株式会社レアルキャピタル,,株式会社,大阪府,大阪市浪速区,元町１丁目７番２１号,,27,111,5560016,,,2021-09-24,清算の結了等,,,2015-10-05,1,,,,,レアルキャピタル,0
1214,4120005018856,登記記録の閉鎖等,0,2021-10-05,2021-09-30,一般社団法人勝ＪＡＰＡＮ,,その他の設立登記法人,大阪府,大阪市淀川区,野中北２丁目１番２２号,,27,123,5320034,,,2021-09-30,清算の結了等,,,2016-08-01,1,,,,,カツジャパン,0
1223,4120901034436,登記記録の閉鎖等,0,2021-10-05,2021-10-01,株式会社日本カークリーン,,株式会社,大阪府,摂津市,東別府４丁目８番１９号,,27,224,5660042,,,2021-10-01,清算の結了等,,,2015-10-05,1,,,,,ニホンカークリーン,0
1279,4240002047532,登記記録の閉鎖等,0,2021-10-05,2021-09-30,有限会社Ｋ・Ｔ興産,,有限会社,広島県,福山市,大黒町２番４０号,,34,207,7200053,,,2021-09-30,清算の結了等,,,2015-10-05,1,,,,,ケイティコウサン,0
1305,4320001015580,登記記録の閉鎖等,0,2021-10-05,2021-10-01,新生工業株式会社,,株式会社,大分県,大分市,大字青崎３番１号,,44,201,8700278,,,2021-10-01,清算の結了等,,,2017-04-12,1,,,,,シンセイコウギョウ,0
1320,4370002003828,登記記録の閉鎖等,0,2021-10-05,2021-09-27,有限会社ベルウッド,,有限会社,宮城県,仙台市太白区,茂庭台５丁目１９番３号,,04,104,9820252,,,2021-09-27,清算の結了等,,,2015-10-05,1,,,,,ベルウッド,0
1333,4420002008904,登記記録の閉鎖等,0,2021-10-05,2021-09-29,有限会社松田事務所,,有限会社,青森県,八戸市,湊高台３丁目２０番２号,,02,203,0310823,,,2021-09-29,清算の結了等,,,2015-10-05,1,,,,,マツダジムショ,0
1337,4430001021997,登記記録の閉鎖等,0,2021-10-05,2021-08-03,北海道サービス株式会社,,株式会社,北海道,札幌市清田区,清田一条１丁目３番１０号,,01,110,0040841,,,2021-08-03,合併による解散等,9430002012561,令和３年８月１日札幌市清田区清田一条一丁目３番１０号北海道サービス株式会社（9430002012561）に合併し解散,2015-10-05,1,,,,,ホッカイドウサービス,0
1345,4450002004248,登記記録の閉鎖等,0,2021-10-05,2021-10-04,有限会社売店鈴木,,有限会社,北海道,旭川市,金星町１丁目市立旭川病院内,,01,204,0700029,,,2021-10-04,清算の結了等,,,2015-10-05,1,,,,,バイテンスズキ,0
1353,4490005002187,登記記録の閉鎖等,0,2021-10-05,2021-09-27,土佐清水市土地開発公社,,その他の設立登記法人,高知県,土佐清水市,天神町１１番２号,,39,209,7870305,,,2021-09-27,清算の結了等,,,2015-10-05,1,,,,,トサシミズシ,0
1371,5010005032009,登記記録の閉鎖等,0,2021-10-05,2021-09-30,一般社団法人ＲＥＸＣＯ４号,,その他の設立登記法人,東京都,千代田区,丸の内３丁目１番１号東京共同会計事務所内,,13,101,1000005,,,2021-09-30,清算の結了等,,,2020-07-10,1,,,,,レクスコヨンゴウ,0
1382,5010701025414,登記記録の閉鎖等,0,2021-10-05,2021-10-01,コミュニティワン株式会社,,株式会社,東京都,世田谷区,用賀４丁目１０番１号,,13,112,1580097,,,2021-10-01,合併による解散等,4010901008681,令和３年１０月１日東京都世田谷区用賀四丁目１０番１号株式会社東急コミュニティー（4010901008681）に合併し解散,2015-10-05,1,,,,,コミュニティワン,0
1401,5011302014500,登記記録の閉鎖等,0,2021-10-05,2021-09-30,有限会社リーフグリーン,,有限会社,東京都,杉並区,久我山５丁目５番１７号,,13,115,1680082,,,2021-09-30,清算の結了等,,,2015-10-05,1,,,,,リーフグリーン,0
1423,5020002019503,登記記録の閉鎖等,0,2021-10-05,2021-09-30,有限会社日圧中井圧送,,有限会社,神奈川県,横浜市戸塚区,平戸町４０１番地１３７,,14,110,2440803,,,2021-09-30,清算の結了等,,,2015-10-05,1,,,,,ニチアツナカイアッソウ,0
1450,5030002116860,登記記録の閉鎖等,0,2021-10-05,2021-09-22,有限会社すぎもと不動産,,有限会社,埼玉県,深谷市,国済寺３７７番地１,,11,218,3660033,,,2021-09-22,清算の結了等,,,2015-10-05,1,,,,,スギモトフドウサン,0
1461,5050001024872,登記記録の閉鎖等,0,2021-10-05,2021-09-30,株式会社テイクオフホールディング,,株式会社,茨城県,日立市,大みか町４丁目１６番７号,,08,202,3191221,,,2021-09-30,清算の結了等,,,2015-10-05,1,,,,,テイクオフホールディング,0
1484,5080105002103,登記記録の閉鎖等,0,2021-10-05,2021-08-25,天理教凾南分教会,,その他の設立登記法人,静岡県,田方郡函南町,塚本１５５番地の２,,22,325,4190124,,,2021-08-25,合併による解散等,8080105002991,令和３年８月２５日静岡県富士市横割二丁目８番２３号天理教富士分教会（8080105002991）に合併し解散,2015-10-05,1,,,,,,0
1497,5110002006780,登記記録の閉鎖等,0,2021-10-05,2021-09-29,有限会社山下室内裝飾店,,有限会社,新潟県,新潟市中央区,姥ケ山２丁目１１番３号,,15,103,9500923,,,2021-09-29,清算の結了等,,,2015-10-05,1,,,,,ヤマシタシツナイソウショクテン,0
1524,5120901016466,登記記録の閉鎖等,0,2021-10-05,2021-10-01,玖安株式会社,,株式会社,大阪府,高槻市,柱本６丁目２８番２号,,27,207,5690844,,,2021-10-01,清算の結了等,,,2015-10-05,1,,,,,キュウアン,0
1536,5140001016811,登記記録の閉鎖等,0,2021-10-05,2021-10-01,萌生食品株式会社,,株式会社,兵庫県,神戸市長田区,東尻池町２丁目５番３号,,28,106,6530022,,,2021-10-01,合併による解散等,6140001015952,令和３年１０月１日神戸市長田区東尻池町二丁目５番３号株式会社オイシス（6140001015952）に合併し解散,2015-10-05,1,,,,,ホウセイショクヒン,0
1537,5140001070395,登記記録の閉鎖等,0,2021-10-05,2021-09-30,パナソニック化研株式会社,,株式会社,兵庫県,西宮市,西宮浜４丁目１番２０号,,28,204,6620934,,,2021-09-30,清算の結了等,,,2015-10-05,1,,,,,パナソニックカケン,0
1549,5160001004442,登記記録の閉鎖等,0,2021-10-05,2021-09-29,株式会社吉田人形,00044225,株式会社,滋賀県,大津市,本堅田３丁目２１番１５号,,25,201,5200242,,,2021-09-29,清算の結了等,,,2015-10-05,1,,,,,ヨシダニンギョウ,0
1556,5180001127051,登記記録の閉鎖等,0,2021-10-05,2021-09-29,幸心サービス株式会社,,株式会社,愛知県,名古屋市天白区,野並２丁目２８４番地,,23,116,4680045,,,2021-09-29,清算の結了等,,,2017-03-27,1,,,,,コウシンサービス,0
1565,5190001010586,登記記録の閉鎖等,0,2021-10-05,2021-09-21,株式会社宮本組,,株式会社,三重県,松阪市,京町一区３３番地の１２,,24,204,5150018,,,2021-09-21,清算の結了等,,,2015-10-05,1,,,,,ミヤモトグミ,0
1579,5240005014256,登記記録の閉鎖等,0,2021-10-05,2021-09-30,社会保険労務士法人シプス,,その他の設立登記法人,広島県,廿日市市,串戸４丁目１１番１５－１号,,34,213,7380033,,,2021-09-30,清算の結了等,,,2016-10-07,1,,,,,シプス,0
1611,5320005009173,登記記録の閉鎖等,0,2021-10-05,2021-10-04,特定非営利活動法人ばりあな,,その他の設立登記法人,大分県,別府市,北浜１丁目１番２０号やよいビル１階,,44,202,8740920,,,2021-10-04,清算の結了等,,,2015-10-05,1,,,,,バリアナ,0
1620,5350002000405,登記記録の閉鎖等,0,2021-10-05,2021-10-01,有限会社一茶すし,,有限会社,宮崎県,宮崎市,大字芳士７５９番地５,,45,201,8800123,,,2021-10-01,清算の結了等,,,2015-10-05,1,,,,,イッサスシ,0
1627,5370102001904,登記記録の閉鎖等,0,2021-10-05,2021-09-22,有限会社ササモリサプライズ,,有限会社,宮城県,角田市,角田字町２０６番地,,04,208,9811505,,,2021-09-22,清算の結了等,,,2015-10-05,1,,,,,ササモリサプライズ,0
1632,5410002000381,登記記録の閉鎖等,0,2021-10-05,2021-10-01,有限会社秋田桜設備サービス,,有限会社,秋田県,秋田市,桜４丁目６番１０号,,05,201,0100042,,,2021-10-01,清算の結了等,,,2015-10-05,1,,,,,アキタサクラセツビサービス,0
1634,5420002006072,登記記録の閉鎖等,0,2021-10-05,2021-09-30,有限会社荒井,,有限会社,青森県,八戸市,大字沢里字沢里山４６番地４,,02,203,0391167,,,2021-09-30,清算の結了等,,,2015-10-05,1,,,,,アライ,0
1646,5430002006798,登記記録の閉鎖等,0,2021-10-05,2021-09-30,有限会社くわじま,,有限会社,北海道,札幌市中央区,南二条西５丁目２０番地,,01,101,0600062,,,2021-09-30,清算の結了等,,,2015-10-05,1,,,,,クワジマ,0
1649,5430002012359,登記記録の閉鎖等,0,2021-10-05,2021-09-29,タカラサポート有限会社,,有限会社,北海道,札幌市手稲区,星置一条３丁目４番１号,,01,109,0060851,,,2021-09-29,合併による解散等,2430001010127,令和３年９月２９日札幌市手稲区星置一条三丁目４番１号ティービーエル株式会社（2430001010127）に合併し解散,2015-10-05,1,,,,,タカラサポート,0
1651,5430002013290,登記記録の閉鎖等,0,2021-10-05,2021-09-29,有限会社タカラサプライ,,有限会社,北海道,札幌市手稲区,星置一条３丁目４番１号,,01,109,0060851,,,2021-09-29,合併による解散等,2430001010127,令和３年９月２９日札幌市手稲区星置一条三丁目４番１号ティービーエル株式会社（2430001010127）に合併し解散,2015-10-05,1,,,,,タカラサプライ,0
1671,6010001160588,登記記録の閉鎖等,0,2021-10-05,2021-09-27,株式会社ＳＰＲＩＮＧ,,株式会社,東京都,新宿区,西新宿６丁目２０－７－１６０８,,13,104,1600023,,,2021-09-27,清算の結了等,,,2015-10-05,1,,,,,スプリング,0
1696,6010701035511,登記記録の閉鎖等,0,2021-10-05,2021-09-30,ハンガーズ株式会社,,株式会社,東京都,品川区,西五反田３丁目１２番１４号,,13,109,1410031,,,2021-09-30,合併による解散等,8010801028223,令和３年９月３０日東京都品川区西五反田三丁目１２番１４号株式会社エンジン（8010801028223）に合併し解散,2018-03-22,1,,,,,ハンガーズ,0
1703,6011001103966,登記記録の閉鎖等,0,2021-10-05,2021-09-15,株式会社椎名誠旅する文学館,,株式会社,東京都,渋谷区,笹塚３丁目２１番５号,,13,113,1510073,,,2021-09-15,清算の結了等,,,2015-10-05,1,,,,,シイナマコトタビスルブンガクカン,0
1715,6011105004359,登記記録の閉鎖等,0,2021-10-05,2021-09-15,特定非営利活動法人日中国際交流協会,,その他の設立登記法人,東京都,渋谷区,道玄坂２丁目１５番１－２１５号,,13,113,1500043,,,2021-09-15,清算の結了等,,,2015-10-05,1,,,,,ニッチュウコクサイコウリュウキョウカイ,0
1730,6011601019827,登記記録の閉鎖等,0,2021-10-05,2021-10-01,内田商店株式会社,,株式会社,東京都,練馬区,関町北５丁目１９－２５－５０２,,13,120,1770051,,,2021-10-01,清算の結了等,,,2015-10-05,1,,,,,ウチダショウテン,0
1732,6011701011642,登記記録の閉鎖等,0,2021-10-05,2021-09-28,株式会社ヤマニ,,株式会社,東京都,江戸川区,南葛西５丁目１８番１－８１０号,,13,123,1340085,,,2021-09-28,清算の結了等,,,2015-10-05,1,,,,,,0
1748,6020001054459,登記記録の閉鎖等,0,2021-10-05,2021-09-30,株式会社カワワ,,株式会社,神奈川県,横浜市緑区,十日市場町８４１番地９,,14,113,2260025,,,2021-09-30,清算の結了等,,,2015-10-05,1,,,,,カワワ,0
1756,6020002015402,登記記録の閉鎖等,0,2021-10-05,2021-09-30,有限会社星住設工業,,有限会社,神奈川県,横浜市青葉区,藤が丘１丁目３番地１７ヒロック藤が丘２０５,,14,117,2270043,,,2021-09-30,清算の結了等,,,2015-10-05,1,,,,,ホシジュウセツコウギョウ,0
1757,6020002042529,登記記録の閉鎖等,0,2021-10-05,2021-09-30,有限会社小じま呉服店,,有限会社,神奈川県,横浜市中区,伊勢佐木町５丁目１２７番地,,14,104,2310045,,,2021-09-30,清算の結了等,,,2015-10-05,1,,,,,コジマゴフクテン,0
1778,6040001027735,登記記録の閉鎖等,0,2021-10-05,2021-09-28,株式会社メディコ,,株式会社,千葉県,市川市,本北方１丁目３７番６号,,12,203,2720816,,,2021-09-28,清算の結了等,,,2015-10-05,1,,,,,メディコ,0
1796,6070002022600,登記記録の閉鎖等,0,2021-10-05,2021-10-01,有限会社イーアンドティー,,有限会社,群馬県,桐生市,広沢町２丁目３１８７番地の１,,10,203,3760013,,,2021-10-01,合併による解散等,8070001029009,令和３年１０月１日群馬県桐生市小梅町３番９号株式会社フレンド（8070001029009）に合併し解散,2015-10-05,1,,,,,イーアンドティー,0
1798,6070002031808,登記記録の閉鎖等,0,2021-10-05,2021-09-30,有限会社さいとう,,有限会社,群馬県,太田市,龍舞町５０９１番地,,10,205,3730806,,,2021-09-30,清算の結了等,,,2015-10-05,1,,,,,サイトウ,0
1803,6080102008853,登記記録の閉鎖等,0,2021-10-05,2021-09-30,ワイズ・コーポレーション有限会社,,有限会社,静岡県,伊豆の国市,大仁４１５番地の２,,22,225,4102323,,,2021-09-30,清算の結了等,,,2015-10-05,1,,,,,,0
1804,6080102012211,登記記録の閉鎖等,0,2021-10-05,2021-09-30,有限会社東和工業,,有限会社,静岡県,田方郡函南町,丹那４８４番地の１,,22,325,4190105,,,2021-09-30,清算の結了等,,,2015-10-05,1,,,,,,0
1822,6110002006160,登記記録の閉鎖等,0,2021-10-05,2021-09-29,有限会社マツタカ,,有限会社,新潟県,新潟市中央区,上近江１丁目３番８号,,15,103,9500973,,,2021-09-29,清算の結了等,,,2015-10-05,1,,,,,マツタカ,0
1841,6120001203666,登記記録の閉鎖等,0,2021-10-05,2021-09-27,株式会社ＳＨＯＪＩ,,株式会社,大阪府,枚方市,三矢町１番２１号,,27,210,5730051,,,2021-09-27,清算の結了等,,,2017-02-13,1,,,,,ショオジ,0
1884,6180001142891,登記記録の閉鎖等,0,2021-10-05,2021-09-27,ＯＶＥＲ　ＴＨＥ　ＷａＬＬ株式会社,,株式会社,愛知県,名古屋市東区,筒井１丁目４番３号（メゾン筒井２０１号）,,23,102,4610003,,,2021-09-27,清算の結了等,,,2020-09-17,1,,,,,オーバーザウォール,0
1919,6240005012052,登記記録の閉鎖等,0,2021-10-05,2021-09-30,本郷振興協同組合,,その他の設立登記法人,広島県,三原市,本郷南６丁目３番２６号,,34,204,7290417,,,2021-09-30,清算の結了等,,,2015-10-05,1,,,,,ホンゴウシンコウ,0
1924,6260002017358,登記記録の閉鎖等,0,2021-10-05,2021-10-04,有限会社金子事務所,,有限会社,岡山県,倉敷市,水島西弥生町２番１５号,,33,202,7128036,,,2021-10-04,清算の結了等,,,2015-10-05,1,,,,,カネコジムショ,0
1930,6290001089429,登記記録の閉鎖等,0,2021-10-05,2021-08-02,パズ・テック株式会社,,株式会社,福岡県,福岡市博多区,博多駅前３丁目７番１号葵ビル４０５号,,40,132,8120011,,,2021-08-02,合併による解散等,9290001077579,令和３年８月１日福岡市博多区博多駅前四丁目３－２２産恵ビル５Ｆ、Ｋイメージングシステム株式会社（9290001077579）に合併し解散,2020-07-09,1,,,,,パズテック,0
1936,6290003007066,登記記録の閉鎖等,0,2021-10-05,2021-09-16,バルーン福津合同会社,,合同会社,福岡県,福津市,若木台１丁目２１番地の２,,40,224,8113221,,,2021-09-16,清算の結了等,,,2017-03-07,1,,,,,バルーンフクツ,0
1955,6330002014356,登記記録の閉鎖等,0,2021-10-05,2021-09-30,有限会社ＪＩＣサポートサービス,,有限会社,熊本県,熊本市北区,楡木６丁目４番１０号,,43,105,8618083,,,2021-09-30,清算の結了等,,,2015-10-05,1,,,,,ジェイアイシーサポートサービス,0
1966,6350001013910,登記記録の閉鎖等,0,2021-10-05,2021-09-30,株式会社田代養鶏,,株式会社,宮崎県,日向市,東郷町山陰甲７０４番地１８,,45,206,8891121,,,2021-09-30,清算の結了等,,,2016-03-08,1,,,,,タシロヨウケイ,0
1974,6370001015178,登記記録の閉鎖等,0,2021-10-05,2021-09-22,株式会社コープ総合サービス,,株式会社,宮城県,仙台市泉区,八乙女４丁目２番地の２,,04,105,9813112,,,2021-09-22,合併による解散等,2370001001330,令和３年９月２１日仙台市泉区八乙女四丁目２番地の３５株式会社宮城県学校用品協会（2370001001330）に合併し解散,2015-10-05,1,,,,,コープソウゴウサービス,0
1982,6380002020283,登記記録の閉鎖等,0,2021-10-05,2021-09-29,有限会社三河屋商店,,有限会社,福島県,須賀川市,北町９８番地３,,07,207,9620856,,,2021-09-29,清算の結了等,,,2015-10-05,1,,,,,ミカワヤショウテン,0
1992,6430001026045,登記記録の閉鎖等,0,2021-10-05,2021-10-01,株式会社北海道ジェイ・アール・フレッシュネス・リテール,,株式会社,北海道,札幌市東区,北六条東３丁目３番地２０,,01,103,0600906,,,2021-10-01,合併による解散等,6430001021888,令和３年１０月１日札幌市中央区北二条西一丁目１番地１ＪＲ北海道フレッシュキヨスク株式会社（6430001021888）に合併し解散,2015-10-05,1,,,,,ジェイアールフレッシュネスリテール,0
1993,6430001048270,登記記録の閉鎖等,0,2021-10-05,2021-09-27,村田機工株式会社,,株式会社,北海道,砂川市,豊沼町１番地,,01,226,0730138,,,2021-09-27,清算の結了等,,,2015-10-05,1,,,,,ムラタキコウ,0
1996,6430001073129,登記記録の閉鎖等,0,2021-10-05,2021-08-23,アルティコア株式会社,,株式会社,北海道,札幌市中央区,南二条西２丁目８番地,,01,101,0600062,,,2021-08-23,合併による解散等,4020001116450,令和３年８月１日神奈川県横浜市青葉区つつじが丘１１番地２株式会社無芸塾（4020001116450）に合併し解散,2017-01-18,1,,,,,アルティコア,0
2009,6460101006489,登記記録の閉鎖等,0,2021-10-05,2021-09-30,株式会社ファームステッドテーブル,,株式会社,北海道,帯広市,西六条南１３丁目１１番地,,01,207,0800016,,,2021-09-30,清算の結了等,,,2019-01-08,1,,,,,ファームステッドテーブル,0
2011,6460402000174,登記記録の閉鎖等,0,2021-10-05,2021-10-01,有限会社四島の家,,有限会社,北海道,根室市,花園町７丁目１７番地,,01,223,0870045,,,2021-10-01,清算の結了等,,,2015-10-05,1,,,,,シマノイエ,0
2022,6500005004543,登記記録の閉鎖等,0,2021-10-05,2021-08-24,天理教高垣分教会,,その他の設立登記法人,愛媛県,新居浜市,八幡３丁目６番２号,,38,205,7920871,,,2021-08-24,合併による解散等,8500005004533,令和３年８月２４日愛媛県新居浜市阿島三丁目１番２２号天理教阿島分教会（8500005004533）に合併し解散,2015-10-05,1,,,,,テンリキョウタカガキブンキョウカイ,0
2026,7010001199394,登記記録の閉鎖等,0,2021-10-05,2021-09-30,株式会社ＪＳネット,,株式会社,東京都,中央区,日本橋茅場町３丁目２番２号ＥＫＫビル,,13,102,1030025,,,2021-09-30,清算の結了等,,,2019-03-20,1,,,,,ジェイエスネット,0
2032,7010003026613,登記記録の閉鎖等,0,2021-10-05,2021-09-30,みつばち環境研究所合同会社,,合同会社,東京都,千代田区,内神田１丁目１８番１１号６０８号室,,13,101,1010047,,,2021-09-30,清算の結了等,,,2017-12-19,1,,,,,ミツバチカンキョウケンキュウショ,0
2036,7010005024284,登記記録の閉鎖等,0,2021-10-05,2021-09-30,一般社団法人Ｓ．Ｏ．Ｗ．アセットファイナンスイオン,,その他の設立登記法人,東京都,千代田区,神田神保町３丁目５番地,,13,101,1010051,,,2021-09-30,清算の結了等,,,2015-10-05,1,,,,,エスオーダブリューアセットファイナンスイオン,0
2037,7010005027799,登記記録の閉鎖等,0,2021-10-05,2021-09-30,一般社団法人エーエフフォーティーン,,その他の設立登記法人,東京都,千代田区,神田神保町３丁目５番地,,13,101,1010051,,,2021-09-30,清算の結了等,,,2017-12-01,1,,,,,エーエフフォーティーン,0
2039,7010401092075,登記記録の閉鎖等,0,2021-10-05,2021-09-22,株式会社トリイ,,株式会社,東京都,港区,南麻布３丁目２０番１号麻布グリーンテラス５階,,13,103,1060047,,,2021-09-22,清算の結了等,,,2015-10-05,1,,,,,トリイ,0
2064,7011102002991,登記記録の閉鎖等,0,2021-10-05,2021-09-22,有限会社柿の木住宅,,有限会社,東京都,新宿区,高田馬場３丁目１６番８号,,13,104,1690075,,,2021-09-22,清算の結了等,,,2015-10-05,1,,,,,カキノキジュウタク,0
2083,7011702003654,登記記録の閉鎖等,0,2021-10-05,2021-09-21,有限会社黒嵜組,,有限会社,東京都,墨田区,八広３丁目９番６号,,13,107,1310041,,,2021-09-21,清算の結了等,,,2015-10-05,1,,,,,クロサキグミ,0
2085,7011802009139,登記記録の閉鎖等,0,2021-10-05,2021-10-01,有限会社朝田商工,,有限会社,東京都,足立区,青井６丁目１１番２号,,13,121,1210012,,,2021-10-01,清算の結了等,,,2015-10-05,1,,,,,,0
2090,7012801014138,登記記録の閉鎖等,0,2021-10-05,2021-09-24,知念鉄筋株式会社,,株式会社,東京都,東大和市,仲原３丁目１９番地の５,,13,220,2070016,,,2021-09-24,清算の結了等,,,2015-10-05,1,,,,,,0
2118,7030001009238,登記記録の閉鎖等,0,2021-10-05,2021-09-24,東京イナスチール株式会社,,株式会社,埼玉県,さいたま市中央区,大字下落合１７１１番地シティマークタワー２１（１８０３号）,,11,105,3380002,,,2021-09-24,清算の結了等,,,2015-10-05,1,,,,,トウキョウイナスチール,0
2123,7030001062443,登記記録の閉鎖等,0,2021-10-05,2021-09-16,株式会社アイ・ティ・オー・エス,,株式会社,埼玉県,鴻巣市,滝馬室３０９番地４,,11,217,3650044,,,2021-09-16,清算の結了等,,,2015-10-05,1,,,,,アイティオーエス,0
2133,7030002011408,登記記録の閉鎖等,0,2021-10-05,2021-09-22,富士不動産有限会社,,有限会社,埼玉県,さいたま市南区,大字大谷口６８４番地,,11,108,3360042,,,2021-09-22,清算の結了等,,,2015-10-05,1,,,,,フジフドウサン,0
2134,7030002088925,登記記録の閉鎖等,0,2021-10-05,2021-09-22,有限会社エディアール,,有限会社,埼玉県,北葛飾郡松伏町,大字大川戸３２４５番地,,11,465,3430106,,,2021-09-22,清算の結了等,,,2015-10-05,1,,,,,エディアール,0
2156,7070002015099,登記記録の閉鎖等,0,2021-10-05,2021-09-30,有限会社ホテル峠,,有限会社,群馬県,安中市,松井田町新堀１０３６番地１,,10,211,3790221,,,2021-09-30,清算の結了等,,,2015-10-05,1,,,,,ホテルトウゲ,0
2160,7080102019148,登記記録の閉鎖等,0,2021-10-05,2021-09-30,有限会社三坂屋食品,,有限会社,静岡県,伊東市,鎌田９６８番地の７,,22,208,4140054,,,2021-09-30,清算の結了等,,,2015-10-05,1,,,,,,0
2201,7120002075105,登記記録の閉鎖等,0,2021-10-05,2021-10-01,有限会社マルヤ,,有限会社,大阪府,枚方市,招提田近２丁目７番地,,27,210,5731132,,,2021-10-01,合併による解散等,1120002074698,令和３年１０月１日大阪府枚方市招提田近二丁目７番地株式会社阪神興産（1120002074698）に合併し解散,2015-10-05,1,,,,,マルヤ,0
2205,7120901021786,登記記録の閉鎖等,0,2021-10-05,2021-08-20,株式会社カワムラ九州,,株式会社,大阪府,池田市,豊島南２丁目１０番１０号,,27,204,5630035,,,2021-08-20,合併による解散等,6160001006140,令和３年８月１日滋賀県湖南市小砂町１番地７葵機械工業株式会社（6160001006140）に合併し解散,2015-10-05,1,,,,,カワムラキュウシュウ,0
2209,7120905005109,登記記録の閉鎖等,0,2021-10-05,2021-10-01,一般社団法人ＣＬＵＢＳＴＯＲＹ,,その他の設立登記法人,兵庫県,宝塚市,伊孑志４丁目２－６８－１０５号,,28,214,6650033,,,2021-10-01,清算の結了等,,,2015-10-05,1,,,,,クラブストーリー,0
2241,7180302022536,登記記録の閉鎖等,0,2021-10-05,2021-10-01,有限会社ダイキサービス,,有限会社,愛知県,豊田市,京町７丁目８番地１,,23,211,4710063,,,2021-10-01,清算の結了等,,,2015-10-05,1,,,,,ダイキサービス,0
2249,7200002005318,登記記録の閉鎖等,0,2021-10-05,2021-10-04,有限会社渡邉機械木型製作所,,有限会社,岐阜県,岐阜市,昭和町１丁目１７番地,,21,201,5008865,,,2021-10-04,清算の結了等,,,2015-10-05,1,,,,,ワタナベキカイキガタセイサクショ,0
2256,7230005003118,登記記録の閉鎖等,0,2021-10-05,2021-09-30,協同組合宝,,その他の設立登記法人,富山県,射水市,上条６６番地１５,,16,211,9390255,,,2021-09-30,清算の結了等,,,2015-10-05,1,,,,,タカラ,0
2260,7240002005454,登記記録の閉鎖等,0,2021-10-05,2021-10-01,有限会社ケイ・パル,,有限会社,広島県,広島市安佐北区,口田１丁目７番３－２０１号,,34,106,7391734,,,2021-10-01,清算の結了等,,,2015-10-05,1,,,,,ケイパル,0
2298,7320002001998,登記記録の閉鎖等,0,2021-10-05,2021-10-04,有限会社かわの,,有限会社,大分県,大分市,都町３丁目６番７号,,44,201,8700034,,,2021-10-04,清算の結了等,,,2015-10-05,1,,,,,カワノ,0
2302,7330001016146,登記記録の閉鎖等,0,2021-10-05,2021-09-29,株式会社人吉・球磨林業機械センター,,株式会社,熊本県,球磨郡多良木町,大字多良木１０５０番地の６,,43,505,8680501,,,2021-09-29,清算の結了等,,,2015-10-05,1,,,,,ヒトヨシクマリンギョウキカイセンター,0
2310,7330002031565,登記記録の閉鎖等,0,2021-10-05,2021-09-24,有限会社前畑建設,,有限会社,熊本県,玉名市,秋丸４１５番地,,43,206,8650026,,,2021-09-24,清算の結了等,,,2020-10-01,1,,,,,マエハタケンセツ,0
2318,7350002008223,登記記録の閉鎖等,0,2021-10-05,2021-10-01,有限会社田中建設工業,,有限会社,宮崎県,宮崎市,吉村町江田原甲２１１番地３,,45,201,8800841,,,2021-10-01,清算の結了等,,,2015-12-07,1,,,,,タナカケンセツコウギョウ,0
2325,7380001008031,登記記録の閉鎖等,0,2021-10-05,2021-09-29,シチズン電子船引株式会社,,株式会社,福島県,田村市,船引町光陽台６番地２,,07,211,9634318,,,2021-09-29,清算の結了等,,,2015-10-05,1,,,,,シチズンデンシフネヒキ,0
2335,7410002008646,登記記録の閉鎖等,0,2021-10-05,2021-09-30,有限会社田村縫製,,有限会社,秋田県,大館市,清水５丁目７番７０号,,05,204,0170046,,,2021-09-30,清算の結了等,,,2015-10-05,1,,,,,タムラホウセイ,0
2337,7420001014124,登記記録の閉鎖等,0,2021-10-05,2021-09-30,ゆうき潜水工業株式会社,,株式会社,青森県,八戸市,下長５丁目６番１０号,,02,203,0391164,,,2021-09-30,清算の結了等,,,2015-10-05,1,,,,,ユウキセンスイコウギョウ,0
2355,7470002017930,登記記録の閉鎖等,0,2021-10-05,2021-10-01,有限会社中川プロパン,,有限会社,香川県,さぬき市,志度１４０６番地１,,37,206,7692101,,,2021-10-01,清算の結了等,,,2015-10-05,1,,,,,ナカガワプロパン,0
2357,7490001000398,登記記録の閉鎖等,0,2021-10-05,2021-10-04,片岡商事株式会社,,株式会社,高知県,高知市,上町３丁目４番３号,,39,201,7800901,,,2021-10-04,清算の結了等,,,2015-10-05,1,,,,,,0
2375,8010003022405,登記記録の閉鎖等,0,2021-10-05,2021-10-01,合同会社さきがけスクエア・ワン,,合同会社,東京都,千代田区,丸の内３丁目１番１号東京共同会計事務所内,,13,101,1000005,,,2021-10-01,清算の結了等,,,2015-10-05,1,,,,,サキガケスクエアワン,0
2386,8010402005745,登記記録の閉鎖等,0,2021-10-05,2021-09-24,有限会社サワ商事,,有限会社,東京都,港区,六本木４丁目２番２０号パークサイド六本木１０２号室,,13,103,1060032,,,2021-09-24,清算の結了等,,,2015-10-05,1,,,,,サワショウジ,0
2387,8010403010496,登記記録の閉鎖等,0,2021-10-05,2021-10-01,合同会社ＪＲＥ八戸高森,,合同会社,東京都,港区,六本木６丁目２番３１号六本木ヒルズノースタワー１５階,,13,103,1060032,,,2021-10-01,合併による解散等,4010403025886,令和３年１０月１日東京都港区六本木六丁目２番３１号六本木ヒルズノースタワー１５階合同会社ＪＲＥアルバ（4010403025886）に合併し解散,2015-10-05,1,,,,,ジェイアールイーハチノヘタカモリ,0
2394,8010501024225,登記記録の閉鎖等,0,2021-10-05,2021-09-28,佐々木防災設備株式会社,,株式会社,東京都,台東区,浅草５丁目４番２号,,13,106,1110032,,,2021-09-28,清算の結了等,,,2015-10-05,1,,,,,ササキボウサイセツビ,0
2405,8011001008197,登記記録の閉鎖等,0,2021-10-05,2021-09-16,株式会社寿書店,,株式会社,東京都,渋谷区,西原１丁目６番６号,,13,113,1510066,,,2021-09-16,清算の結了等,,,2015-10-05,1,,,,,コトブキショテン,0
2422,8011502014479,登記記録の閉鎖等,0,2021-10-05,2021-09-07,有限会社ほほえみ,,有限会社,東京都,北区,十条仲原４丁目９番１８号,,13,117,1140031,,,2021-09-07,清算の結了等,,,2015-10-05,1,,,,,ホホエミ,0
2455,8021001009608,登記記録の閉鎖等,0,2021-10-05,2021-09-30,やまと商事株式会社,,株式会社,神奈川県,鎌倉市,岡本１丁目２番３５号,,14,204,2470072,,,2021-09-30,清算の結了等,,,2015-10-05,1,,,,,ヤマトショウジ,0
2487,8060002000290,登記記録の閉鎖等,0,2021-10-05,2021-09-29,有限会社テクニカルプロモーション・オオモリ,,有限会社,栃木県,宇都宮市,下田原町２８０１番地９,,09,201,3291115,,,2021-09-29,清算の結了等,,,2015-10-05,1,,,,,テクニカルプロモーションオオモリ,0
2492,8070005006904,登記記録の閉鎖等,0,2021-10-05,2021-09-28,社団法人沼田商工會議所,,その他の設立登記法人,群馬県,沼田市,大字沼田９０７番地,,10,206,3780000,,,2021-09-28,清算の結了等,,,2015-10-05,1,,,,,,1
2493,8080001012145,登記記録の閉鎖等,0,2021-10-05,2021-10-01,株式会社三栄通商,,株式会社,静岡県,静岡市葵区,両替町２丁目３番地７号,,22,101,4200032,,,2021-10-01,清算の結了等,,,2015-10-05,1,,,,,サンエイツウショウ,0
2494,8080001023134,登記記録の閉鎖等,0,2021-10-05,2021-09-30,株式会社一星フーズ,,株式会社,静岡県,静岡市清水区,入船町１３番１５号エスパルスドリームプラザ一階いりふね通り,,22,103,4240942,,,2021-09-30,清算の結了等,,,2019-10-03,1,,,,,イッセイフーズ,0
2500,8080402020473,登記記録の閉鎖等,0,2021-10-05,2021-10-01,有限会社モリ・コート,,有限会社,静岡県,磐田市,大原３７１４番地１,,22,211,4371211,,,2021-10-01,清算の結了等,,,2015-10-05,1,,,,,モリコート,0
2506,8110001007505,登記記録の閉鎖等,0,2021-10-05,2021-09-30,株式会社須田商店,,株式会社,新潟県,新潟市南区,田中２７番地,,15,106,9501477,,,2021-09-30,清算の結了等,,,2015-10-05,1,,,,,スダショウテン,0
2511,8120001022627,登記記録の閉鎖等,0,2021-10-05,2021-09-30,株式会社アクト・サウンド・プロダクト,,株式会社,大阪府,大阪市天王寺区,生玉前町２番１８号,,27,109,5430072,,,2021-09-30,清算の結了等,,,2015-10-05,1,,,,,アクトサウンドプロダクト,0
2525,8120001220032,登記記録の閉鎖等,0,2021-10-05,2021-09-29,株式会社ＰＭＦ,,株式会社,大阪府,大阪市北区,南扇町７番１７号ＭＦ梅田ビル１Ｆ,,27,127,5300052,,,2021-09-29,清算の結了等,,,2019-04-08,1,,,,,ピーエムエフ,0
2532,8120101050684,登記記録の閉鎖等,0,2021-10-05,2021-09-30,株式会社プリムチャーム,,株式会社,大阪府,富田林市,錦織北１丁目５番１０号,,27,214,5840066,,,2021-09-30,清算の結了等,,,2015-10-05,1,,,,,プリムチャーム,0
2543,8130005005164,登記記録の閉鎖等,0,2021-10-05,2021-09-30,特定非営利活動法人再生医療推進センター,,その他の設立登記法人,京都府,京都市下京区,四条通烏丸西入ル北側函谷鉾ビル５階,,26,106,6000000,,,2021-09-30,清算の結了等,,,2015-10-05,1,,,,,サイセイイリョウスイシンセンター,0
2544,8140001023821,登記記録の閉鎖等,0,2021-10-05,2021-09-29,株式会社ドットコム,,株式会社,大阪府,大阪市中央区,安土町３丁目５－６ナカヒロビル６階,,27,128,5410052,,,2021-09-29,清算の結了等,,,2015-10-05,1,,,,,ドットコム,0
2556,8180001012449,登記記録の閉鎖等,0,2021-10-05,2021-09-30,鈴木工業株式会社,,株式会社,愛知県,名古屋市北区,成願寺１丁目１番１１号,,23,103,4620021,,,2021-09-30,清算の結了等,,,2015-10-05,1,,,,,スズキコウギョウ,0
2566,8180002071485,登記記録の閉鎖等,0,2021-10-05,2021-09-29,有限会社井上製陶所,,有限会社,愛知県,瀬戸市,西洞町２９番地,,23,204,4890837,,,2021-09-29,清算の結了等,,,2015-10-05,1,,,,,イノウエセイトウジョ,0
2577,8190002016159,登記記録の閉鎖等,0,2021-10-05,2021-10-01,北栄ハウジング有限会社,,有限会社,三重県,松阪市,中央町３０６番地の１,,24,204,5150019,,,2021-10-01,合併による解散等,1190001011877,令和３年１０月１日三重県松阪市中央町３０６番地１北栄アセットマネジメント株式会社（1190001011877）に合併し解散,2015-10-05,1,,,,,ホクエイハウジング,0
2607,8260001022332,登記記録の閉鎖等,0,2021-10-05,2021-10-01,玉野鯨屋物産株式会社,,株式会社,岡山県,玉野市,築港１丁目２１番２号,,33,204,7060002,,,2021-10-01,合併による解散等,7260001015221,令和３年１０月１日岡山県倉敷市広江八丁目１番１号レモンフーヅ株式会社（7260001015221）に合併し解散,2015-10-05,1,,,,,タマノクジラヤブッサン,0
2616,8280001000055,登記記録の閉鎖等,0,2021-10-05,2021-10-01,株式会社アラキ,,株式会社,島根県,松江市,八雲町熊野２６９６番地,,32,201,6902104,,,2021-10-01,清算の結了等,,,2015-10-05,1,,,,,アラキ,0
2629,8290002054520,登記記録の閉鎖等,0,2021-10-05,2021-09-16,有限会社山川薬草研究協会,,有限会社,福岡県,みやま市,山川町原町３５０番地１４,,40,229,8350115,,,2021-09-16,清算の結了等,,,2015-10-05,1,,,,,ヤマカワヤクソウケンキュウキョウカイ,0
2658,8430001037346,登記記録の閉鎖等,0,2021-10-05,2021-09-29,株式会社フロント・インタレスト,,株式会社,北海道,札幌市中央区,北二条東１丁目４番９号,,01,101,0600032,,,2021-09-29,清算の結了等,,,2015-10-05,1,,,,,フロントインタレスト,0
2664,8430005009977,登記記録の閉鎖等,0,2021-10-05,2021-08-12,天理教東室蘭分教会,,その他の設立登記法人,北海道,室蘭市,水元町６６番１９号,,01,205,0500071,,,2021-08-12,合併による解散等,2430005009974,令和３年８月１２日北海道室蘭市御崎町二丁目８番２０号天理教南夷分教会（2430005009974）に合併し解散,2015-10-05,1,,,,,テンリキョウヒガシムロランブンキョウカイ,0
2669,8460102002130,登記記録の閉鎖等,0,2021-10-05,2021-09-30,有限会社テイー・オー・ヴイ,,有限会社,北海道,帯広市,自由が丘１丁目７番地２８,,01,207,0800848,,,2021-09-30,清算の結了等,,,2015-10-05,1,,,,,テイーオーヴイ,0
2687,9010401133471,登記記録の閉鎖等,0,2021-10-05,2021-09-22,ＹＯＺＭＡ　ＧＲＯＵＰ　ＪＡＰＡＮ株式会社,,株式会社,東京都,港区,六本木３丁目２番１号,,13,103,1060032,,,2021-09-22,清算の結了等,,,2017-08-31,1,,,,,ヨズマグループジャパン,0
2708,9011001106421,登記記録の閉鎖等,0,2021-10-05,2021-08-17,株式会社ＨＥＧ,,株式会社,東京都,渋谷区,渋谷１丁目３番１８号,,13,113,1500002,,,2021-08-17,合併による解散等,9200002002164,令和３年８月１２日岐阜市長住町九丁目７番地株式会社シークハート（9200002002164）に合併し解散,2015-10-05,1,,,,,ヘグ,0
2711,9011005001858,登記記録の閉鎖等,0,2021-10-05,2021-09-14,一般社団法人日本福音ルーテル社団,,その他の設立登記法人,東京都,渋谷区,恵比寿１丁目２０番２６号,,13,113,1500013,,,2021-09-14,合併による解散等,4011005009063,令和３年９月１日東京都渋谷区恵比寿一丁目２０番２６号一般財団法人ＪＥＬＡ（4011005009063）に合併し解散,2015-10-05,1,,,,,ニホンフクインルーテルシャダン,0
2717,9011101092727,登記記録の閉鎖等,0,2021-10-05,2021-09-22,株式会社スマトシ,,株式会社,東京都,新宿区,築地町１番地１,,13,104,1620818,,,2021-09-22,清算の結了等,,,2020-10-07,1,,,,,スマトシ,0
2728,9011505001151,登記記録の閉鎖等,0,2021-10-05,2021-09-29,特定非営利活動法人すずらん子育ての会,,その他の設立登記法人,東京都,北区,滝野川１丁目８１番８－６０３号ライオンズマンション西巣鴨,,13,117,1140023,,,2021-09-29,清算の結了等,,,2015-10-05,1,,,,,,0
2730,9011601002648,登記記録の閉鎖等,0,2021-10-05,2021-10-01,株式会社山翠苑,,株式会社,東京都,板橋区,徳丸２丁目７番２１号,,13,119,1750083,,,2021-10-01,清算の結了等,,,2015-10-05,1,,,,,,0
2735,9011701010237,登記記録の閉鎖等,0,2021-10-05,2021-09-29,株式会社イービーコヅツミ,,株式会社,東京都,江戸川区,江戸川５丁目２５番地２２,,13,123,1340013,,,2021-09-29,清算の結了等,,,2015-10-05,1,,,,,イービーコヅツミ,0
2762,9021002050700,登記記録の閉鎖等,0,2021-10-05,2021-09-30,有限会社湯本新聞販売所,,有限会社,神奈川県,足柄下郡箱根町,湯本６９２番地,,14,382,2500311,,,2021-09-30,清算の結了等,,,2015-10-05,1,,,,,ユモトシンブンハンバイショ,0
2763,9021002063685,登記記録の閉鎖等,0,2021-10-05,2021-10-01,有限会社川島小間物化粧品店,,有限会社,神奈川県,横須賀市,汐入町５丁目１番地,,14,201,2380042,,,2021-10-01,清算の結了等,,,2015-10-05,1,,,,,カワシマコマモノケショウヒンテン,0
2772,9030002002925,登記記録の閉鎖等,0,2021-10-05,2021-09-27,有限会社大宮豊田ビル,,有限会社,埼玉県,さいたま市大宮区,大門三丁目１９０番地,,11,103,3300800,,,2021-09-27,清算の結了等,,,2015-10-05,1,,,,,オオミヤトヨダビル,0
2789,9060002020899,登記記録の閉鎖等,0,2021-10-05,2021-09-29,有限会社松浦製作所,,有限会社,栃木県,鹿沼市,下日向６９７番地,,09,205,3220075,,,2021-09-29,清算の結了等,,,2015-10-05,1,,,,,マツウラセイサクジョ,0
2791,9060005000964,登記記録の閉鎖等,0,2021-10-05,2021-09-29,医療法人社団豊和会,,その他の設立登記法人,栃木県,宇都宮市,陽東１丁目１０番５号,,09,201,3210904,,,2021-09-29,清算の結了等,,,2015-10-05,1,,,,,ホウワカイ,0
2800,9080001008539,登記記録の閉鎖等,0,2021-10-05,2021-09-24,株式会社総合開発,,株式会社,静岡県,静岡市清水区,島崎町７番２１号,,22,103,4240823,,,2021-09-24,清算の結了等,,,2015-10-05,1,,,,,ソウゴウカイハツ,0
2819,9100002011794,登記記録の閉鎖等,0,2021-10-05,2021-09-30,有限会社ニューボトルズ,,有限会社,長野県,佐久市,前山大堀３２１番地３,,20,217,3850046,,,2021-09-30,合併による解散等,1010401085745,令和３年９月１日東京都港区海岸一丁目２番３号－１０４株式会社カスケード東京（1010401085745）に合併し解散,2015-10-05,1,,,,,ニューボトルズ,0
2861,9120901019465,登記記録の閉鎖等,0,2021-10-05,2021-08-20,株式会社川村金属製作所,,株式会社,大阪府,池田市,豊島南２丁目１０番１０号,,27,204,5630035,,,2021-08-20,合併による解散等,6160001006140,令和３年８月１日滋賀県湖南市小砂町１番地７葵機械工業株式会社（6160001006140）に合併し解散,2015-10-05,1,,,,,カワムラキンゾクセイサクショ,0
2880,9160001017837,登記記録の閉鎖等,0,2021-10-05,2021-09-30,栗東技建株式会社,,株式会社,滋賀県,栗東市,川辺１９５番地４,,25,208,5203014,,,2021-09-30,清算の結了等,,,2015-10-05,1,,,,,リットウギケン,0
2891,9180002082465,登記記録の閉鎖等,0,2021-10-05,2021-09-30,有限会社田中屋,,有限会社,愛知県,岩倉市,下本町下市場１０８番地,,23,228,4820005,,,2021-09-30,清算の結了等,,,2015-10-05,1,,,,,タナカヤ,0
2893,9180003019367,登記記録の閉鎖等,0,2021-10-05,2021-09-21,合同会社ＳＦＹ,,合同会社,愛知県,名古屋市南区,鳥山町１丁目３４－２,,23,112,4570057,,,2021-09-21,清算の結了等,,,2018-10-17,1,,,,,エスエフワイ,0
2904,9190001008585,登記記録の閉鎖等,0,2021-10-05,2021-09-30,株式会社中村建設興業,,株式会社,三重県,伊賀市,千歳１０９４番地,,24,216,5180002,,,2021-09-30,清算の結了等,,,2015-10-05,1,,,,,ナカムラケンセツコウギョウ,0
2971,9340002017834,登記記録の閉鎖等,0,2021-10-05,2021-09-27,有限会社クリーンえびす,,有限会社,鹿児島県,いちき串木野市,別府４３５７番地３,,46,219,8960037,,,2021-09-27,清算の結了等,,,2015-10-05,1,,,,,クリーンエビス,0
2981,9390001013185,登記記録の閉鎖等,0,2021-10-05,2021-09-30,株式会社ナガオカ通信,,株式会社,山形県,寒河江市,元町２丁目１８番地の１８,,06,206,9910053,,,2021-09-30,清算の結了等,,,2015-10-05,1,,,,,ナガオカツウシン,0
2988,9410002006581,登記記録の閉鎖等,0,2021-10-05,2021-09-30,有限会社大場商店,,有限会社,秋田県,由利本荘市,万願寺字舘ノ内６４番地の１,,05,210,0150064,,,2021-09-30,清算の結了等,,,2015-10-05,1,,,,,オオバショウテン,0
2991,9420002019260,登記記録の閉鎖等,0,2021-10-05,2021-09-30,有限会社誼工業,,有限会社,青森県,上北郡六ヶ所村,大字鷹架字千樽３番地４１６,00087876,02,411,0393213,,,2021-09-30,清算の結了等,,,2015-10-05,1,,,,,ヨシミコウギョウ,0
2997,9430002034580,登記記録の閉鎖等,0,2021-10-05,2021-09-29,タカラアテンダント有限会社,,有限会社,北海道,札幌市手稲区,星置一条３丁目４番１号,,01,109,0060851,,,2021-09-29,合併による解散等,2430001010127,令和３年９月２９日札幌市手稲区星置一条三丁目４番１号ティービーエル株式会社（2430001010127）に合併し解散,2015-10-05,1,,,,,タカラアテンダント,0
3005,9440005001833,登記記録の閉鎖等,0,2021-10-05,2021-08-23,天理教北茅分教会,,その他の設立登記法人,北海道,茅部郡森町,字森川町２８１番地３８,,01,345,0492313,,,2021-08-23,合併による解散等,6440005000788,令和３年８月２３日北海道函館市千代台町２３番７号天理教北開分教会（6440005000788）に合併し解散,2015-10-05,1,,,,,テンリキョウキタカヤブンキョウカイ,0
3022,9500005004532,登記記録の閉鎖等,0,2021-10-05,2021-08-24,天理教愛船分教会,,その他の設立登記法人,愛媛県,新居浜市,船木１４７８番地,,38,205,7920856,,,2021-08-24,合併による解散等,8500005004533,令和３年８月２４日愛媛県新居浜市阿島三丁目１番２２号天理教阿島分教会（8500005004533）に合併し解散,2015-10-05,1,,,,,テンリキョウアイフネブンキョウカイ,0
3023,9500005005398,登記記録の閉鎖等,0,2021-10-05,2021-08-05,天理教伊予津分教会,,その他の設立登記法人,愛媛県,今治市,吉海町本庄２４９４番地,,38,202,7942112,,,2021-08-05,合併による解散等,7260005008205,令和３年８月２日岡山県玉野市田井五丁目８番１７号天理教吉備分教会（7260005008205）に合併し解散,2015-10-05,1,,,,,,0
