sequenceNumber,corporateNumber,process,correct,updateDate,changeDate,name,nameImageId,kind,prefectureName,cityName,streetNumber,addressImageId,prefectureCode,cityCode,postCode,addressOutside,addressOutsideImageId,closeDate,closeCause,successorCorporateNumber,changeCause,assignmentDate,latest,enName,enPrefectureName,enCityName,enAddressOutside,furigana,hihyoji
4,1010001247836,新規,0,2024-08-30,2024-08-30,株式会社ベストセラーズ,,株式会社,東京都,文京区,音羽１丁目１５番１５号シティ音羽２階,,13,105,1120013,,,,,,,2024-08-30,1,,,,,ベストセラーズ,0
5,1010001247869,新規,0,2024-08-30,2024-08-30,万利ツール株式会社,,株式会社,東京都,千代田区,神田神保町２丁目３４番１鳴海ビル２１３号,,13,101,1010051,,,,,,,2024-08-30,1,,,,,マンリツール,0
6,1010001247919,新規,0,2024-08-30,2024-08-30,株式会社フォレス,,株式会社,東京都,千代田区,神田須田町１丁目７－８ＶＯＲＴ秋葉原ＩＶ２Ｆ,00136127,13,101,1010041,,,,,,,2024-08-30,1,,,,,フォレス,0
12,1010003044711,新規,0,2024-08-30,2024-08-30,エラブルインフラファンド合同会社,,合同会社,東京都,千代田区,麹町２丁目８番地ＭＬＣ麹町ビル４階フィンポート税理士法人内,,13,101,1020083,,,,,,,2024-08-30,1,,,,,エラブルインフラファンド,0
13,1010003044736,新規,0,2024-08-30,2024-08-30,日本橋ソーラー合同会社,,合同会社,東京都,中央区,日本橋３丁目９番１号日本橋三丁目スクエア２階,,13,102,1030027,,,,,,,2024-08-30,1,,,,,ニホンバシソーラー,0
15,1010005038736,新規,0,2024-08-30,2024-08-30,一般社団法人Ｐｅａｒｌ,,その他の設立登記法人,東京都,千代田区,霞が関３丁目２番５号,,13,101,1000013,,,,,,,2024-08-30,1,,,,,パール,0
26,1010403033280,新規,0,2024-08-30,2024-08-30,合同会社キャシー,,合同会社,東京都,港区,白金６丁目１６番２５,,13,103,1080072,,,,,,,2024-08-30,1,,,,,キャシー,0
27,1010403033297,新規,0,2024-08-30,2024-08-30,Ｊａｓｍｉｎｅ　Ｅｄｕ合同会社,,合同会社,東京都,港区,南麻布２丁目９－４０－４０４,,13,103,1060047,,,,,,,2024-08-30,1,,,,,ジャスミンエデュ,0
29,1010405023486,新規,0,2024-08-30,2024-08-30,一般社団法人国際医療福祉産業センター,,その他の設立登記法人,東京都,港区,赤坂４丁目１番２号シントミ赤坂一ツ木ビル６階,,13,103,1070052,,,,,,,2024-08-30,1,,,,,コクサイイリョウフクシサンギョウセンター,0
40,1010601065836,新規,0,2024-08-30,2024-08-30,星洲株式会社,,株式会社,東京都,江東区,豊洲４丁目９―１３―１１４０,,13,108,1350061,,,,,,,2024-08-30,1,,,,,ホシノシマ,0
42,1010603011053,新規,0,2024-08-30,2024-08-30,理想国際合同会社,,合同会社,東京都,墨田区,横川３丁目６番７号３－Ｅ室,,13,107,1300003,,,,,,,2024-08-30,1,,,,,リソウコクサイ,0
43,1010803005078,新規,0,2024-08-30,2024-08-30,ＭＥＩＫＡ合同会社,,合同会社,東京都,大田区,蒲田１丁目７番２４号,,13,111,1440052,,,,,,,2024-08-30,1,,,,,メイカ,0
44,1010901055875,新規,0,2024-08-30,2024-08-30,ホスピタリアン株式会社,,株式会社,東京都,世田谷区,船橋３丁目１７番７－９０１号,,13,112,1560055,,,,,,,2024-08-30,1,,,,,ホスピタリアン,0
45,1010901055891,新規,0,2024-08-30,2024-08-30,ＣＯＬＯＲ　ＤＥＰＯＴ株式会社,,株式会社,東京都,世田谷区,代田４丁目１３番１７号２Ｆ,,13,112,1550033,,,,,,,2024-08-30,1,,,,,カラーデポ,0
46,1010901055900,新規,0,2024-08-30,2024-08-30,株式会社ＫＥＳＨＩＫＩ,,株式会社,東京都,世田谷区,松原５丁目９番１１号,,13,112,1560043,,,,,,,2024-08-30,1,,,,,ケシキ,0
49,1010905004663,新規,0,2024-08-30,2024-08-30,一般社団法人ＲＷＯ,,その他の設立登記法人,東京都,世田谷区,祖師谷３丁目４１番７号,,13,112,1570072,,,,,,,2024-08-30,1,,,,,アールダブリュオー,0
58,1011101108606,新規,0,2024-08-30,2024-08-30,株式会社ａｒｒｏｗ,,株式会社,東京都,新宿区,新宿３丁目９番９号ワタセイタマビル３Ｆ,,13,104,1600022,,,,,,,2024-08-30,1,,,,,アロー,0
59,1011201025759,新規,0,2024-08-30,2024-08-30,株式会社青竹,,株式会社,東京都,中野区,丸山２丁目２２－６ラ・レンヌ１Ｆ,,13,114,1650021,,,,,,,2024-08-30,1,,,,,アオタケ,0
66,1012401042230,新規,0,2024-08-30,2024-08-30,竹内資産管理株式会社,,株式会社,東京都,武蔵野市,西久保２丁目１４番５号,,13,203,1800013,,,,,,,2024-08-30,1,,,,,タケウチシサンカンリ,0
76,1020003026758,新規,0,2024-08-30,2024-08-30,合同会社ＤｉＶＥ,,合同会社,神奈川県,川崎市麻生区,細山８丁目４－７－２,,14,137,2150001,,,,,,,2024-08-30,1,,,,,ダイブ,0
85,1030001162158,新規,0,2024-08-30,2024-08-30,株式会社新井建材興業,,株式会社,埼玉県,行田市,大字前谷１７９５番地,,11,206,3610038,,,,,,,2024-08-30,1,,,,,アライケンザイコウギョウ,0
86,1030001162232,新規,0,2024-08-30,2024-08-30,株式会社日本水機,,株式会社,埼玉県,上尾市,大字平方４２８０番地１,,11,219,3620059,,,,,,,2024-08-30,1,,,,,ニホンスイキ,0
89,1030003025032,新規,0,2024-08-30,2024-08-30,合同会社マックスファクター,,合同会社,埼玉県,草加市,八塚町６２８番２号,,11,221,3400000,,,,,,,2024-08-30,1,,,,,マックスファクター,0
93,1030005021830,新規,0,2024-08-30,2024-08-30,一般社団法人埼玉県生産性本部,,その他の設立登記法人,埼玉県,さいたま市浦和区,高砂３丁目１０番４号,,11,107,3300063,,,,,,,2024-08-30,1,,,,,サイタマケンセイサンセイホンブ,0
99,1040001135187,新規,0,2024-08-30,2024-08-30,株式会社ＩＫＩ,,株式会社,千葉県,東金市,北之幸谷９３０番地４１,,12,213,2830061,,,,,,,2024-08-30,1,,,,,アイキ,0
104,1040003025709,新規,0,2024-08-30,2024-08-30,合同会社エヌカンパニーグループ,,合同会社,千葉県,袖ケ浦市,川原井４４５番地,,12,229,2990201,,,,,,,2024-08-30,1,,,,,エヌカンパニーグループ,0
109,1060001037448,新規,0,2024-08-30,2024-08-30,株式会社ＳＯＢＨＡＮアカデミー,,株式会社,栃木県,大田原市,住吉町２丁目６番２号,,09,210,3240057,,,,,,,2024-08-30,1,,,,,ソバンアカデミー,0
111,1070001042117,新規,0,2024-08-30,2024-08-30,株式会社勢多板金,,株式会社,群馬県,渋川市,赤城町栄５６４番地１,,10,208,3791114,,,,,,,2024-08-30,1,,,,,セタバンキン,0
125,1120001268128,新規,0,2024-08-30,2024-08-30,瑞豊株式会社,,株式会社,大阪府,大阪市大正区,三軒家西３丁目４番１６号中山ビル１０３１,,27,108,5510001,,,,,,,2024-08-30,1,,,,,スイホウ,0
126,1120001268144,新規,0,2024-08-30,2024-08-30,株式会社ｏｄｄｏ,,株式会社,大阪府,大阪市中央区,西心斎橋１丁目６番３４号,,27,128,5420086,,,,,,,2024-08-30,1,,,,,オッド,0
127,1120001268160,新規,0,2024-08-30,2024-08-30,株式会社松海不動産,,株式会社,大阪府,寝屋川市,石津東町１９番８０号,,27,215,5720027,,,,,,,2024-08-30,1,,,,,マツウミフドウサン,0
128,1120003027424,新規,0,2024-08-30,2024-08-30,Ａｍｐｅｒｓａｎｄ合同会社,,合同会社,大阪府,大阪市生野区,巽北１丁目２１番２９号生野ハイツ３１３号室,00136122,27,116,5440004,,,,,,,2024-08-30,1,,,,,アンパサンド,0
134,1122001038403,新規,0,2024-08-30,2024-08-30,株式会社昇瑛,,株式会社,大阪府,東大阪市,柏田西２丁目５番１９号,,27,227,5770835,,,,,,,2024-08-30,1,,,,,ショウエイ,0
135,1122003002976,新規,0,2024-08-30,2024-08-30,合同会社ＳＯＣＩＡ　ＫＯＳＨＩＭＩＺＵ,,合同会社,大阪府,東大阪市,中鴻池町２丁目５番１３号,,27,227,5780975,,,,,,,2024-08-30,1,,,,,ソシアコシミズ,0
136,1130001077817,新規,0,2024-08-30,2024-08-30,長和マネジメント株式会社,,株式会社,京都府,京都市北区,衣笠西御所ノ内町１７番地,,26,101,6038377,,,,,,,2024-08-30,1,,,,,チョウワマネジメント,0
138,1130003009818,新規,0,2024-08-30,2024-08-30,合同会社食堂おがわ,,合同会社,京都府,京都市下京区,船頭町２０４番地,,26,106,6008019,,,,,,,2024-08-30,1,,,,,ショクドウオガワ,0
147,1140001135615,新規,0,2024-08-30,2024-08-30,ＯｎｅＰｌｕｓ株式会社,,株式会社,兵庫県,三木市,宿原字新田山１２６５番地１３７,,28,215,6730423,,,,,,,2024-08-30,1,,,,,ワンプラス,0
148,1140001135631,新規,0,2024-08-30,2024-08-30,Ａｎｉｍｏｓ株式会社,,株式会社,兵庫県,三田市,三田町３１番１６号,,28,219,6691533,,,,,,,2024-08-30,1,,,,,アニモス,0
149,1140003021029,新規,0,2024-08-30,2024-08-30,合同会社ラックアント,,合同会社,兵庫県,伊丹市,下河原１丁目９番５－１０１号,,28,207,6640832,,,,,,,2024-08-30,1,,,,,ラックアント,0
158,1180001163059,新規,0,2024-08-30,2024-08-30,株式会社ファーストテック,,株式会社,愛知県,名古屋市瑞穂区,井の元町１００番地の１,,23,108,4670057,,,,,,,2024-08-30,1,,,,,ファーストテック,0
159,1180001163067,新規,0,2024-08-30,2024-08-30,川合自動車株式会社,,株式会社,愛知県,一宮市,小信中島字東鵯平４３番地,,23,203,4940007,,,,,,,2024-08-30,1,,,,,カワイジドウシャ,0
165,1190001031594,新規,0,2024-08-30,2024-08-30,ｆｏｗＷｏｒｌｄ株式会社,,株式会社,三重県,四日市市,東日野町１２４８トゥインクルパーク１０１号,,24,202,5100942,,,,,,,2024-08-30,1,,,,,フォーワールド,0
174,1210001019892,新規,0,2024-08-30,2024-08-30,株式会社ＡｃｅＲｏｇｕｅ,,株式会社,福井県,福井市,高木中央１丁目１０１８番地７,,18,201,9100804,,,,,,,2024-08-30,1,,,,,エースローグ,0
176,1220001026186,新規,0,2024-08-30,2024-08-30,株式会社ＭＯＭＯ,,株式会社,石川県,能美市,泉台町中１７２番地,,17,211,9231111,,,,,,,2024-08-30,1,,,,,モモ,0
178,1220003003828,新規,0,2024-08-30,2024-08-30,合同会社Ｗａｆｆｌｅ,,合同会社,石川県,金沢市,高畠１丁目２番地１,,17,201,9218001,,,,,,,2024-08-30,1,,,,,ワッフル,0
184,1240001063756,新規,0,2024-08-30,2024-08-30,株式会社ＯＮＥ　ＬＩＦＥ,,株式会社,広島県,広島市西区,南観音８丁目２番１－４０２号,,34,104,7330035,,,,,,,2024-08-30,1,,,,,ワンライフ,0
187,1250001020789,新規,0,2024-08-30,2024-08-30,株式会社ＪＩＮ,,株式会社,山口県,萩市,大字椿２９３８番地５,,35,204,7580061,,,,,,,2024-08-30,1,,,,,ジン,0
188,1290001107112,新規,0,2024-08-30,2024-08-30,株式会社ｍａｒｕｋａｉ,,株式会社,福岡県,福岡市博多区,東光寺町２丁目１番１２号,,40,132,8120896,,,,,,,2024-08-30,1,,,,,マルカイ,0
195,1350001019160,新規,0,2024-08-30,2024-08-30,株式会社Ａ‐ｐｌｕｓ,,株式会社,宮崎県,宮崎市,大字本郷南方５０５０番地１１０,,45,201,8800921,,,,,,,2024-08-30,1,,,,,エープラス,0
203,1390003002276,新規,0,2024-08-30,2024-08-30,合同会社ＬａｕｒｅＬ,,合同会社,山形県,山形市,南館５丁目８番６号ビアンカ南館１０１号,,06,201,9902461,,,,,,,2024-08-30,1,,,,,ローレル,0
206,1430003016742,新規,0,2024-08-30,2024-08-30,合同会社ＱＵＥＥＮＳ,,合同会社,北海道,札幌市南区,簾舞一条５丁目５番１号,,01,106,0612261,,,,,,,2024-08-30,1,,,,,クイーンズ,0
208,1470003002706,新規,0,2024-08-30,2024-08-30,合同会社ＲＯＣＣＯ,,合同会社,香川県,東かがわ市,松原３４８番地２,,37,207,7692702,,,,,,,2024-08-30,1,,,,,ロッコ,0
210,1480005007033,新規,0,2024-08-30,2024-08-30,特定非営利活動法人持続可能な農業を考えるＳＹ会,,その他の設立登記法人,徳島県,阿南市,住吉町横見境６９番地３,,36,204,7740041,,,,,,,2024-08-30,1,,,,,ジゾクカノウナノウギョウヲカンガエルエスワイカイ,0
219,2010001247819,新規,0,2024-08-30,2024-08-30,株式会社Ｙｏｕｒ　Ａｎａｌｙｓｔ,,株式会社,東京都,文京区,本郷５丁目３０番１８－１３０２号,,13,105,1130033,,,,,,,2024-08-30,1,,,,,ユアアナリスト,0
220,2010001247868,新規,0,2024-08-30,2024-08-30,株式会社絆愛,,株式会社,東京都,中央区,銀座７丁目１３番２０号銀座ＴＨビル９階,,13,102,1040061,,,,,,,2024-08-30,1,,,,,クレア,0
221,2010001247892,新規,0,2024-08-30,2024-08-30,株式会社ＲＥＯＮＡ,,株式会社,東京都,中央区,晴海１丁目６番１号,,13,102,1040053,,,,,,,2024-08-30,1,,,,,レオナ,0
222,2010001247901,新規,0,2024-08-30,2024-08-30,栄泰北上野不動産株式会社,,株式会社,東京都,中央区,京橋２丁目１２－９寺沢ビル７階,,13,102,1040031,,,,,,,2024-08-30,1,,,,,エイタイキタウエノフドウサン,0
226,2010003044751,新規,0,2024-08-30,2024-08-30,合同会社Ｎ＆Ｉ,,合同会社,東京都,中央区,日本橋横山町６番１０－３０５号,,13,102,1030003,,,,,,,2024-08-30,1,,,,,エヌアンドアイ,0
227,2010003044768,新規,0,2024-08-30,2024-08-30,Ｔｅａｍｓｈａｒｅｓ　Ｈｏｌｄｉｎｇｓ合同会社,,合同会社,東京都,千代田区,大手町１丁目７番２号東京サンケイビル２７階,,13,101,1000004,,,,,,,2024-08-30,1,,,,,チームシェアーズホールディングス,0
230,2010005038735,新規,0,2024-08-30,2024-08-30,一般社団法人ＺＡＳ０１,,その他の設立登記法人,東京都,千代田区,霞が関３丁目２番５号,,13,101,1000013,,,,,,,2024-08-30,1,,,,,ザスゼロイチ,0
231,2010005038751,新規,0,2024-08-30,2024-08-30,一般社団法人池田太陽光発電,,その他の設立登記法人,東京都,千代田区,丸の内１丁目４番１号東京共同会計事務所内,,13,101,1000005,,,,,,,2024-08-30,1,,,,,イケダタイヨウコウハツデン,0
239,2010401184769,新規,0,2024-08-30,2024-08-30,株式会社Ｃｈｏｃｏｌａｔｅ,,株式会社,東京都,港区,北青山１丁目３番１号アールキューブ青山３階,,13,103,1070061,,,,,,,2024-08-30,1,,,,,チョコレート,0
240,2010401184777,新規,0,2024-08-30,2024-08-30,株式会社Ａｆｆｉｎｅａｔｓ,,株式会社,東京都,港区,港南４丁目７番５９号グランシティ天王洲アイル６０５,,13,103,1080075,,,,,,,2024-08-30,1,,,,,アフィニーツ,0
241,2010403033305,新規,0,2024-08-30,2024-08-30,合同会社プロオペ,,合同会社,東京都,港区,浜松町２丁目１番１６号,,13,103,1050013,,,,,,,2024-08-30,1,,,,,,0
242,2010403033321,新規,0,2024-08-30,2024-08-30,合同会社Ｍ,,合同会社,東京都,港区,六本木４丁目１番４号黒崎ビル３階,,13,103,1060032,,,,,,,2024-08-30,1,,,,,エム,0
246,2010503007555,新規,0,2024-08-30,2024-08-30,東誠合同会社,,合同会社,東京都,台東区,千束３丁目２１－１２キートスビル５０２号室,,13,106,1110031,,,,,,,2024-08-30,1,,,,,トウセイ,0
247,2010601065835,新規,0,2024-08-30,2024-08-30,ＲＳＳ株式会社,,株式会社,東京都,江東区,有明１丁目４番２０－１９１０号,,13,108,1350063,,,,,,,2024-08-30,1,,,,,アールエスエス,0
249,2010603011052,新規,0,2024-08-30,2024-08-30,申夢上荷合同会社,,合同会社,東京都,墨田区,京島１丁目４３番２号２－Ｃ室,,13,107,1310046,,,,,,,2024-08-30,1,,,,,シンムジョウカ,0
252,2010901055882,新規,0,2024-08-30,2024-08-30,株式会社ＲＡＴＡＴＡ,,株式会社,東京都,世田谷区,下馬１丁目４０番７号サウンドプルーフプロ三軒茶屋２－３０３,,13,112,1540002,,,,,,,2024-08-30,1,,,,,ラタタ,0
253,2010901055890,新規,0,2024-08-30,2024-08-30,Ｗｉｎｄｅｎ株式会社,,株式会社,東京都,世田谷区,祖師谷６丁目２７－５,,13,112,1570072,,,,,,,2024-08-30,1,,,,,ウィンデン,0
261,2011101108605,新規,0,2024-08-30,2024-08-30,フレックスグループ株式会社,,株式会社,東京都,新宿区,西新宿６丁目２４番１号西新宿三井ビルディング１３階,,13,104,1600023,,,,,,,2024-08-30,1,,,,,フレックスグループ,0
262,2011103014842,新規,0,2024-08-30,2024-08-30,ＢＡ７合同会社,,合同会社,東京都,新宿区,榎町３４番地３榎町ビル５階,,13,104,1620806,,,,,,,2024-08-30,1,,,,,ビーエーセブン,0
267,2011403004485,新規,0,2024-08-30,2024-08-30,合同会社ｏｎｅｔｏ,,合同会社,東京都,板橋区,氷川町２１番１２－１０１号,,13,119,1730013,,,,,,,2024-08-30,1,,,,,ワント,0
268,2011503006200,新規,0,2024-08-30,2024-08-30,清一合同会社,,合同会社,東京都,荒川区,町屋３丁目１８番１２号ＮＤビル２２１,,13,118,1160001,,,,,,,2024-08-30,1,,,,,セイイツ,0
272,2011603004442,新規,0,2024-08-30,2024-08-30,合同会社ＲＩＳＥＬＩＮＸ,,合同会社,東京都,練馬区,東大泉１丁目３２番３号第二セブンビル３階,,13,120,1780063,,,,,,,2024-08-30,1,,,,,ライズリンクス,0
275,2011701027584,新規,0,2024-08-30,2024-08-30,株式会社ビリーフリンクス,,株式会社,東京都,江戸川区,鹿骨５丁目４－１５アネックスＩＩＩ１０６,00136120,13,123,1330073,,,,,,,2024-08-30,1,,,,,ビリーフリンクス,0
277,2011801044678,新規,0,2024-08-30,2024-08-30,三霖株式会社,,株式会社,東京都,足立区,千住柳町２５－１－２０１号室,,13,121,1200032,,,,,,,2024-08-30,1,,,,,サンリン,0
278,2011801044769,新規,0,2024-08-30,2024-08-30,ＯｎＤｅｍａｎｄ　Ｄｅｖ　Ｓｔｕｄｉｏ株式会社,,株式会社,東京都,葛飾区,新小岩２丁目１９番１８号福岡ビル３０５,,13,122,1240024,,,,,,,2024-08-30,1,,,,,オンデマンドデヴスタジオ,0
282,2012301014064,新規,0,2024-08-30,2024-08-30,株式会社ｌｅａｐｍｏｄｅｌ,,株式会社,東京都,町田市,原町田４丁目１９番１２－１００２号,,13,209,1940013,,,,,,,2024-08-30,1,,,,,リープモデル,0
287,2012701018433,新規,0,2024-08-30,2024-08-30,ＮｅｘＴｅｃｈ株式会社,,株式会社,東京都,西東京市,富士町６丁目８－２２,,13,229,2020014,,,,,,,2024-08-30,1,,,,,ネックステック,0
290,2013103001366,新規,0,2024-08-30,2024-08-30,＿風合同会社,00136125,合同会社,東京都,青梅市,東青梅１丁目４番６－４０１－Ｃ号室,,13,205,1980042,,,,,,,2024-08-30,1,,,,,,0
297,2020005016541,新規,0,2024-08-30,2024-08-30,司法書士法人Ｐａｓｉｏ,,その他の設立登記法人,神奈川県,横浜市西区,高島２丁目１９番１２号横浜スカイビル２０Ｆ,,14,103,2200011,,,,,,,2024-08-30,1,,,,,パシオ,0
298,2021001083096,新規,0,2024-08-30,2024-08-30,株式会社Ｂｕｉｌｄ,,株式会社,神奈川県,平塚市,田村５丁目８番８号,,14,203,2540013,,,,,,,2024-08-30,1,,,,,ビルド,0
299,2021001083121,新規,0,2024-08-30,2024-08-30,株式会社Ｌｉｂｅｒａｌ　Ｃｈｅｆｓ,,株式会社,神奈川県,横須賀市,林２丁目１番３３号,,14,201,2380315,,,,,,,2024-08-30,1,,,,,リベラルシェフ,0
300,2021003014958,新規,0,2024-08-30,2024-08-30,合同会社ゴーゴースター,,合同会社,神奈川県,茅ヶ崎市,本村５丁目１４番地１４号,,14,207,2530042,,,,,,,2024-08-30,1,,,,,ゴーゴースター,0
306,2030001162207,新規,0,2024-08-30,2024-08-30,ブルーセカンド株式会社,,株式会社,埼玉県,川越市,中台元町２丁目５番地１１プロベニール２０７号室,,11,201,3501138,,,,,,,2024-08-30,1,,,,,ブルーセカンド,0
307,2030001162223,新規,0,2024-08-30,2024-08-30,株式会社ＭｙＧｅａｒ,,株式会社,埼玉県,さいたま市大宮区,桜木町１丁目１９５－１大宮ソラミチＫＯＺ４階,,11,103,3300854,,,,,,,2024-08-30,1,,,,,マイギア,0
313,2040001135153,新規,0,2024-08-30,2024-08-30,株式会社ＮＶＳ,,株式会社,千葉県,千葉市若葉区,桜木北２丁目２６番４３号,,12,104,2640029,,,,,,,2024-08-30,1,,,,,エヌブイエス,0
314,2040001135178,新規,0,2024-08-30,2024-08-30,株式会社ＳＦパートナー,,株式会社,千葉県,我孫子市,つくし野２丁目２０番９号,,12,222,2701164,,,,,,,2024-08-30,1,,,,,エスエフパートナー,0
315,2040001135186,新規,0,2024-08-30,2024-08-30,ＩＣＣビルディング株式会社,,株式会社,千葉県,香取市,北２丁目６番３,,12,236,2870002,,,,,,,2024-08-30,1,,,,,アイシーシービルディング,0
317,2040003025708,新規,0,2024-08-30,2024-08-30,リーベルタース合同会社,,合同会社,千葉県,我孫子市,栄２７番２８号,,12,222,2701141,,,,,,,2024-08-30,1,,,,,リーベルタース,0
331,2120001267401,新規,0,2024-08-30,2024-08-30,株式会社ＯＫＯＭＡＲＩＧＯＴＯ,,株式会社,大阪府,枚方市,牧野阪２丁目５番３１号,,27,210,5731146,,,,,,,2024-08-30,1,,,,,オコマリゴト,0
332,2120001268069,新規,0,2024-08-30,2024-08-30,株式会社ＥＡＩ,,株式会社,大阪府,大阪市北区,梅田１丁目２番２号大阪駅前第２ビル１２‐１２,,27,127,5300001,,,,,,,2024-08-30,1,,,,,イーエイアイ,0
333,2120001268143,新規,0,2024-08-30,2024-08-30,金轍株式会社,,株式会社,大阪府,大阪市西成区,北津守４丁目１１番１０号,,27,122,5570061,,,,,,,2024-08-30,1,,,,,キンワダチ,0
334,2120001268151,新規,0,2024-08-30,2024-08-30,ワンダリア株式会社,,株式会社,大阪府,大阪市東住吉区,北田辺６丁目５番６－６０２号,,27,121,5460044,,,,,,,2024-08-30,1,,,,,ワンダリア,0
335,2120001268192,新規,0,2024-08-30,2024-08-30,株式会社ファーストインパクト,,株式会社,大阪府,大阪市西区,西本町２丁目５番２４号昭和ビルディング６０２,,27,106,5500005,,,,,,,2024-08-30,1,,,,,ファーストインパクト,0
340,2120003027423,新規,0,2024-08-30,2024-08-30,東赤合同会社,,合同会社,大阪府,大阪市淀川区,西宮原３丁目２番１号新大阪ビジネス第２ニッケンマンション６１８号室,,27,123,5320004,,,,,,,2024-08-30,1,,,,,トウセキ,0
341,2120003027431,新規,0,2024-08-30,2024-08-30,合同会社ファーム事務所,,合同会社,大阪府,大阪市福島区,福島６丁目１２－１２－７０２,,27,103,5530003,,,,,,,2024-08-30,1,,,,,ファームジムショ,0
349,2120901049683,新規,0,2024-08-30,2024-08-30,株式会社セカンドクエスト,,株式会社,大阪府,吹田市,江の木町１６番３４号,,27,205,5640053,,,,,,,2024-08-30,1,,,,,セカンドクエスト,0
350,2120901049700,新規,0,2024-08-30,2024-08-30,株式会社Ａｂｅｒｍａｌｓ,,株式会社,大阪府,豊中市,東豊中町４丁目１１番１４号,,27,203,5600003,,,,,,,2024-08-30,1,,,,,アーバーマールス,0
351,2122001038402,新規,0,2024-08-30,2024-08-30,株式会社Ｔ．ｔｅｃ,,株式会社,大阪府,東大阪市,花園西町２丁目６番３号,,27,227,5780936,,,,,,,2024-08-30,1,,,,,ティーテック,0
352,2130001077832,新規,0,2024-08-30,2024-08-30,チームエム株式会社,,株式会社,京都府,舞鶴市,字南田辺１２６番地の５,,26,202,6240853,,,,,,,2024-08-30,1,,,,,チームエム,0
353,2140001135457,新規,0,2024-08-30,2024-08-30,株式会社ＴＯＲＯ,,株式会社,兵庫県,赤穂市,坂越１５４０,,28,212,6780172,,,,,,,2024-08-30,1,,,,,トロ,0
354,2140001135630,新規,0,2024-08-30,2024-08-30,株式会社卯月,,株式会社,兵庫県,三田市,天神３丁目４３番１３号,,28,219,6691531,,,,,,,2024-08-30,1,,,,,ウゲツ,0
355,2140001135655,新規,0,2024-08-30,2024-08-30,株式会社Ｍｉｒａｉ．Ｋ,,株式会社,兵庫県,姫路市,広畑区才５０３番地２,,28,201,6711104,,,,,,,2024-08-30,1,,,,,ミライケー,0
356,2140003021028,新規,0,2024-08-30,2024-08-30,ＺＯＥ合同会社,,合同会社,兵庫県,神戸市東灘区,魚崎西町４丁目１０番５－１号,,28,101,6580026,,,,,,,2024-08-30,1,,,,,ゾイ,0
357,2160001026191,新規,0,2024-08-30,2024-08-30,株式会社ＭｉＬＵＸ,,株式会社,滋賀県,守山市,吉身１丁目９番５４号,,25,207,5240021,,,,,,,2024-08-30,1,,,,,ミラックス,0
368,2180001163058,新規,0,2024-08-30,2024-08-30,株式会社ＴＯＬＤＥ,,株式会社,愛知県,一宮市,大和町氏永字仲林１４０番地１,,23,203,4910923,,,,,,,2024-08-30,1,,,,,トリデ,0
372,2180003027293,新規,0,2024-08-30,2024-08-30,Ｊａｐａｎ　Ｔｉｍｅｓ　Ｓｈｏｐｐｉｎｇ＆Ｐｒｅｏｒｄｅｒ合同会社,,合同会社,愛知県,名古屋市北区,清水２丁目２０番３号,,23,103,4620844,,,,,,,2024-08-30,1,,,,,ジャパンタイムスショッピングアンドプリオーダー,0
373,2180301039008,新規,0,2024-08-30,2024-08-30,株式会社リーフェット,,株式会社,愛知県,刈谷市,西境町兵九前６２番地,,23,210,4480006,,,,,,,2024-08-30,1,,,,,リーフェット,0
374,2190001031593,新規,0,2024-08-30,2024-08-30,長谷ホールディングス株式会社,,株式会社,三重県,松阪市,上川町３６３９番地の２０,,24,204,5150041,,,,,,,2024-08-30,1,,,,,ハセホールディングス,0
375,2190003004779,新規,0,2024-08-30,2024-08-30,合同会社Ｂ‐ｓｕｍ,,合同会社,三重県,松阪市,本町２１１０番地６,,24,204,5150081,,,,,,,2024-08-30,1,,,,,ビーサム,0
383,2240001063739,新規,0,2024-08-30,2024-08-30,株式会社Ｃｌａｓｓｉｃ　Ｈｏｍｅ,,株式会社,広島県,福山市,明治町１番１号クレスト明治町３０２号室,,34,207,7200807,,,,,,,2024-08-30,1,,,,,クラシックホーム,0
384,2240001063755,新規,0,2024-08-30,2024-08-30,株式会社ＫＴＲ,,株式会社,広島県,広島市安佐南区,伴中央３丁目２４７１番地,,34,105,7313165,,,,,,,2024-08-30,1,,,,,ケイティーアール,0
412,2430003016741,新規,0,2024-08-30,2024-08-30,合同会社Ｐｒｏｐｅｒｔｙ,,合同会社,北海道,札幌市中央区,北二条東２丁目１番３４号,,01,101,0600032,,,,,,,2024-08-30,1,,,,,プロパティ,0
413,2440003001619,新規,0,2024-08-30,2024-08-30,合同会社ＳＯＵＫＡＩ,,合同会社,北海道,函館市,亀田港町５９番１９号大田ハイツＩＩＩ２０３,00136131,01,202,0410822,,,,,,,2024-08-30,1,,,,,ソウカイ,0
414,2460001005933,新規,0,2024-08-30,2024-08-30,株式会社ユナイト,,株式会社,北海道,川上郡弟子屈町,川湯温泉３丁目２番４０号,,01,665,0883465,,,,,,,2024-08-30,1,,,,,ユナイト,0
415,2460301005245,新規,0,2024-08-30,2024-08-30,株式会社オホーツクアイサービス,,株式会社,北海道,北見市,美芳町６丁目１番２９号センターフィールドＷｅｓｔ１０５号,,01,208,0900064,,,,,,,2024-08-30,1,,,,,オホーツクアイサービス,0
419,2480003002175,新規,0,2024-08-30,2024-08-30,かたづける合同会社,,合同会社,徳島県,徳島市,明神町６丁目２０番地,,36,201,7700938,,,,,,,2024-08-30,1,,,,,カタヅケル,0
431,3010001247652,新規,0,2024-08-30,2024-08-30,株式会社ＯＮＥ’Ｓ　ＮＥＸＴ,,株式会社,東京都,文京区,湯島３丁目２７－９－９０１,,13,105,1130034,,,,,,,2024-08-30,1,,,,,ワンズネクスト,0
432,3010001247818,新規,0,2024-08-30,2024-08-30,金誠株式会社,,株式会社,東京都,文京区,白山１丁目６－４同栄マンション２階文京ＶＥＮＴＵＲＥＢＡＳＥ２２３号室,,13,105,1130001,,,,,,,2024-08-30,1,,,,,キンセイ,0
433,3010001247917,新規,0,2024-08-30,2024-08-30,株式会社ｗａｃｈｉｎｅｔ,,株式会社,東京都,中央区,日本橋馬喰町２丁目７番１５号ザ・パークレックス日本橋馬喰町７Ｆ,,13,102,1030002,,,,,,,2024-08-30,1,,,,,ワチネット,0
437,3010005038750,新規,0,2024-08-30,2024-08-30,一般社団法人Ｃａｓａホールディング,,その他の設立登記法人,東京都,千代田区,丸の内１丁目４番１号東京共同会計事務所内,,13,101,1000005,,,,,,,2024-08-30,1,,,,,カーサホールディング,0
441,3010401184776,新規,0,2024-08-30,2024-08-30,株式会社ＪＥＧ,,株式会社,東京都,港区,芝公園４丁目２－８東京電波塔ビルディング４階,,13,103,1050011,,,,,,,2024-08-30,1,,,,,ジェーイージー,0
442,3010401184792,新規,0,2024-08-30,2024-08-30,Ｈｏｌｏｍｕａ４４株式会社,,株式会社,東京都,港区,南青山２丁目２番１５号ウィン青山９４２,,13,103,1070062,,,,,,,2024-08-30,1,,,,,ホロムアフォーティフォー,0
444,3010403033320,新規,0,2024-08-30,2024-08-30,合同会社Ｓ,,合同会社,東京都,港区,六本木４丁目１番４号黒崎ビル３階,,13,103,1060032,,,,,,,2024-08-30,1,,,,,エス,0
451,3010703007321,新規,0,2024-08-30,2024-08-30,合同会社ＴＹサポート,,合同会社,東京都,品川区,西五反田５丁目２６番１９号ベルヴィル不動前２０２,,13,109,1410031,,,,,,,2024-08-30,1,,,,,ティーワイサポート,0
456,3010901055898,新規,0,2024-08-30,2024-08-30,株式会社ＵＮＬＯＣＫ,,株式会社,東京都,世田谷区,北沢３丁目２－１１－２Ｆ－０３,,13,112,1550031,,,,,,,2024-08-30,1,,,,,アンロック,0
457,3010905004661,新規,0,2024-08-30,2024-08-30,特定非営利活動法人東京都防災士会,,その他の設立登記法人,東京都,世田谷区,北沢２丁目１４番１号ＯＴビル３ｂ室,,13,112,1550031,,,,,,,2024-08-30,1,,,,,トウキョウトボウサイシカイ,0
461,3011005010641,新規,0,2024-08-30,2024-08-30,一般財団法人自己肯定感学会,,その他の設立登記法人,東京都,渋谷区,恵比寿西１丁目２０番８号コンド恵比寿７０２,,13,113,1500021,,,,,,,2024-08-30,1,,,,,ジココウテイカンガッカイ,0
473,3011703003954,新規,0,2024-08-30,2024-08-30,合同会社Ｐｒｉｍｏ,,合同会社,東京都,江戸川区,西小岩１丁目１５番２号,,13,123,1330057,,,,,,,2024-08-30,1,,,,,プリモ,0
474,3011801044768,新規,0,2024-08-30,2024-08-30,Ｒｅコーポレーション株式会社,,株式会社,東京都,足立区,西新井５丁目３５番１３号,,13,121,1230841,,,,,,,2024-08-30,1,,,,,アールイーコーポレーション,0
475,3012301014063,新規,0,2024-08-30,2024-08-30,株式会社フェイズツー,,株式会社,東京都,町田市,中町１丁目４番２号町田新産業創造センター内２階,,13,209,1940021,,,,,,,2024-08-30,1,,,,,フェイズツー,0
478,3012805003289,新規,0,2024-08-30,2024-08-30,一般社団法人Ｓ国際交流センター,,その他の設立登記法人,東京都,日野市,大字上田９５－６,,13,212,1910014,,,,,,,2024-08-30,1,,,,,エスコクサイコウリュウセンター,0
486,3020001158725,新規,0,2024-08-30,2024-08-30,Ｂ‐ＳＴＥＰ株式会社,,株式会社,神奈川県,横浜市都筑区,牛久保町１７０２番地１４,,14,118,2240011,,,,,,,2024-08-30,1,,,,,ビーステップ,0
487,3020001158832,新規,0,2024-08-30,2024-08-30,株式会社ＴＴクリエイション,,株式会社,神奈川県,横浜市戸塚区,上矢部町１５７３番地３,,14,110,2450053,,,,,,,2024-08-30,1,,,,,ティーティークリエイション,0
488,3020001158865,新規,0,2024-08-30,2024-08-30,株式会社野口建商,,株式会社,神奈川県,横浜市緑区,北八朔町１６０２番地８,,14,113,2260021,,,,,,,2024-08-30,1,,,,,ノグチケンショウ,0
490,3020005016508,新規,0,2024-08-30,2024-08-30,一般社団法人横浜相続遺言研究会,,その他の設立登記法人,神奈川県,横浜市金沢区,野島町３番２８号,,14,108,2360025,,,,,,,2024-08-30,1,,,,,ヨコハマソウゾクユイゴンケンキュウカイ,0
494,3021001082915,新規,0,2024-08-30,2024-08-30,三潤通商株式会社,,株式会社,神奈川県,藤沢市,藤沢５４５番地の１ライオンズマンション湘南藤沢第二６０５号,,14,205,2510052,,,,,,,2024-08-30,1,,,,,サンジュンツウショウ,0
495,3021003014957,新規,0,2024-08-30,2024-08-30,合同会社つなはぐ相模湖,,合同会社,神奈川県,相模原市緑区,牧野５５４２番２６号,,14,151,2520186,,,,,,,2024-08-30,1,,,,,ツナハグサガミコ,0
496,3021003014965,新規,0,2024-08-30,2024-08-30,合同会社ＧＯＫＯＫＵ,,合同会社,神奈川県,大和市,上和田２４１２上和田団地３－７－４０６,,14,213,2420014,,,,,,,2024-08-30,1,,,,,ゴコク,0
497,3021005013172,新規,0,2024-08-30,2024-08-30,一般社団法人ヴェルニー後見・身元保証・相続相談センター,,その他の設立登記法人,神奈川県,横須賀市,若松町３丁目２７番地,,14,201,2380007,,,,,,,2024-08-30,1,,,,,ヴェルニーコウケンミモトホショウソウゾクソウダンセンター,0
501,3030001162189,新規,0,2024-08-30,2024-08-30,株式会社つむぎコーポレーション,,株式会社,埼玉県,さいたま市浦和区,元町１丁目７番８－２０５号,,11,107,3300073,,,,,,,2024-08-30,1,,,,,ツムギコーポレーション,0
502,3030001162239,新規,0,2024-08-30,2024-08-30,株式会社ユウアイ草加工場,,株式会社,埼玉県,八潮市,八潮８丁目１０番地８,,11,234,3400815,,,,,,,2024-08-30,1,,,,,ユウアイソウカコウジョウ,0
507,3040001135177,新規,0,2024-08-30,2024-08-30,株式会社キイチ,,株式会社,千葉県,市川市,行徳駅前３丁目５番１３号（さつきハイツ１０６）,,12,203,2720133,,,,,,,2024-08-30,1,,,,,キイチ,0
511,3050001055341,新規,0,2024-08-30,2024-08-30,株式会社Ｂｌｅｄｇｅｐｏｎｄ,,株式会社,茨城県,那珂市,菅谷２６６１番地８,,08,226,3110105,,,,,,,2024-08-30,1,,,,,ブレッジポンド,0
522,3090005007649,新規,0,2024-08-30,2024-08-30,一般社団法人ダイバーシティネットワークＶＥＮＴＯＳ,,その他の設立登記法人,山梨県,甲府市,塩部４丁目７番１１号,,19,201,4000026,,,,,,,2024-08-30,1,,,,,ダイバーシティネットワークベントス,0
532,3120001268134,新規,0,2024-08-30,2024-08-30,近畿タクシー株式会社,,株式会社,大阪府,門真市,桑才新町３１番９号,,27,223,5710043,,,,,,,2024-08-30,1,,,,,キンキタクシー,0
533,3120001268150,新規,0,2024-08-30,2024-08-30,株式会社永浩,,株式会社,大阪府,門真市,五月田町１０番１４－５０２号,,27,223,5710027,,,,,,,2024-08-30,1,,,,,エイコウ,0
534,3120001268159,新規,0,2024-08-30,2024-08-30,株式会社ＰＥ　ＲＯＮ,,株式会社,大阪府,大阪市中央区,大手通２丁目１番７号２Ｆ,,27,128,5400021,,,,,,,2024-08-30,1,,,,,ペロン,0
535,3120001268167,新規,0,2024-08-30,2024-08-30,株式会社ＹＭロジ,,株式会社,大阪府,大阪市住之江区,中加賀屋２丁目１４番６号,,27,125,5590017,,,,,,,2024-08-30,1,,,,,ワイエムロジ,0
536,3120001268183,新規,0,2024-08-30,2024-08-30,株式会社ＯＳＤ,,株式会社,大阪府,大阪市北区,西天満３丁目１３番２０号ＡＳビル６階,,27,127,5300047,,,,,,,2024-08-30,1,,,,,オーエスディー,0
538,3120005024517,新規,0,2024-08-30,2024-08-30,一般社団法人ＤＯＣＳＦ‐ＪＡＰＡＮ,,その他の設立登記法人,大阪府,大阪市北区,梅田１丁目２番２号大阪駅前第２ビル１２－１２,,27,127,5300001,,,,,,,2024-08-30,1,,,,,ドックエスエフジャパン,0
539,3120101070225,新規,0,2024-08-30,2024-08-30,株式会社エース,,株式会社,大阪府,泉南郡熊取町,大久保中４丁目１０番２４号,,27,361,5900403,,,,,,,2024-08-30,1,,,,,エース,0
544,3130001077823,新規,0,2024-08-30,2024-08-30,エミリー株式会社,,株式会社,京都府,宇治市,宇治矢落３８番地の３６,,26,204,6110021,,,,,,,2024-08-30,1,,,,,エミリー,0
545,3130003009816,新規,0,2024-08-30,2024-08-30,ＴＲＵＯＮＧ　ＴＨＡＯ合同会社,,合同会社,京都府,京都市南区,東九条河西町１７番地７,,26,107,6018014,,,,,,,2024-08-30,1,,,,,トゥオンタオ,0
551,3140001135638,新規,0,2024-08-30,2024-08-30,日本進興商事株式会社,,株式会社,兵庫県,神戸市中央区,海岸通８神港ビルヂング６Ｆ－６００号,,28,110,6500024,,,,,,,2024-08-30,1,,,,,ニホンシンコウショウジ,0
552,3140001135654,新規,0,2024-08-30,2024-08-30,株式会社オネット,,株式会社,兵庫県,芦屋市,浜風町２６番６号,,28,206,6590032,,,,,,,2024-08-30,1,,,,,オネット,0
553,3140001135662,新規,0,2024-08-30,2024-08-30,シキセン株式会社,,株式会社,兵庫県,神戸市中央区,相生町１丁目１番１－８０３号,,28,110,6500025,,,,,,,2024-08-30,1,,,,,シキセン,0
555,3140003021010,新規,0,2024-08-30,2024-08-30,合同会社Ｒｅｖｉｓｉｏｎ,,合同会社,兵庫県,明石市,二見町東二見１２０番地の５,,28,203,6740092,,,,,,,2024-08-30,1,,,,,リヴィジョン,0
556,3140003021027,新規,0,2024-08-30,2024-08-30,合同会社Ｂｕｄｄｙ,,合同会社,兵庫県,伊丹市,昆陽池２丁目５０番地３,,28,207,6640015,,,,,,,2024-08-30,1,,,,,バディ,0
557,3140005027195,新規,0,2024-08-30,2024-08-30,一般社団法人スポーツウィッシュ兵庫,,その他の設立登記法人,兵庫県,神戸市兵庫区,吉田町３丁目７番２５号,,28,105,6520872,,,,,,,2024-08-30,1,,,,,スポーツウィッシュヒョウゴ,0
558,3150001027529,新規,0,2024-08-30,2024-08-30,御音建設株式会社,,株式会社,奈良県,北葛城郡広陵町,大字平尾６４３－１２,,29,426,6350822,,,,,,,2024-08-30,1,,,,,ゴオンケンセツ,0
559,3150005009622,新規,0,2024-08-30,2024-08-30,一般社団法人真美健康体操協会,,その他の設立登記法人,奈良県,天理市,豊井町９３－３結充ｉｍｍｅｕｂｌｅＢ館３１０,,29,204,6320013,,,,,,,2024-08-30,1,,,,,シンビケンコウタイソウキョウカイ,0
561,3170003002098,新規,0,2024-08-30,2024-08-30,合同会社ルネシオン,,合同会社,和歌山県,海南市,下津町小松原１３４番地２０,,30,202,6490143,,,,,,,2024-08-30,1,,,,,ルネシオン,0
566,3180001163040,新規,0,2024-08-30,2024-08-30,株式会社ＭＡＴ’Ｓ,,株式会社,愛知県,名古屋市中区,栄３丁目７番１０２号,,23,106,4600008,,,,,,,2024-08-30,1,,,,,マッツ,0
567,3180001163049,新規,0,2024-08-30,2024-08-30,株式会社Ｓ．Ｋ商店,,株式会社,愛知県,常滑市,明和町４丁目３０番地,,23,216,4790841,,,,,,,2024-08-30,1,,,,,エスケイショウテン,0
568,3180001163065,新規,0,2024-08-30,2024-08-30,アシストワークス株式会社,,株式会社,愛知県,丹羽郡大口町,河北２丁目３７５番地８,,23,361,4800121,,,,,,,2024-08-30,1,,,,,アシストワークス,0
572,3180003027292,新規,0,2024-08-30,2024-08-30,ＲＦ　ＥＮＴＥＲＰＲＩＳＥＳ合同会社,,合同会社,愛知県,名古屋市昭和区,川名町４丁目９３番地の５メゾン・ド・カンパーニュ４０８号,,23,107,4660856,,,,,,,2024-08-30,1,,,,,アールエフエンタープライズ,0
578,3190001031592,新規,0,2024-08-30,2024-08-30,ＳＡＭホールディングス株式会社,,株式会社,三重県,桑名市,星見ヶ丘３丁目１０５番地,,24,205,5110912,,,,,,,2024-08-30,1,,,,,サムホールディングス,0
581,3200001042877,新規,0,2024-08-30,2024-08-30,株式会社電気保安ＨＩＫＡＲＩ,,株式会社,岐阜県,岐阜市,加納本石町３丁目７番地テイクオフビル３,,21,201,5008466,,,,,,,2024-08-30,1,,,,,デンキホアンヒカリ,0
594,3260001039397,新規,0,2024-08-30,2024-08-30,創建株式会社,,株式会社,岡山県,倉敷市,児島塩生２３７８番地,,33,202,7110934,,,,,,,2024-08-30,1,,,,,,0
598,3280003001881,新規,0,2024-08-30,2024-08-30,合同会社舞,,合同会社,島根県,出雲市,白枝町１２３９番地,,32,203,6930006,,,,,,,2024-08-30,1,,,,,マイ,0
600,3290003015765,新規,0,2024-08-30,2024-08-30,合同会社Ｔｈｒｅｅ　ｆｉｅｌｄｓ,,合同会社,福岡県,福岡市西区,下山門２丁目２０番３－１０６号スプリングコートＩＶ,00136123,40,135,8190052,,,,,,,2024-08-30,1,,,,,スリーフィールド,0
616,3390001017729,新規,0,2024-08-30,2024-08-30,株式会社Ｗａｉｄａｖｏ,,株式会社,山形県,山形市,幸町２番９号,,06,201,9900038,,,,,,,2024-08-30,1,,,,,ワイダヴォ,0
617,3390003002274,新規,0,2024-08-30,2024-08-30,合同会社上杉北参道,,合同会社,山形県,米沢市,塩井町塩野２１３９番地,,06,202,9920042,,,,,,,2024-08-30,1,,,,,ウエスギキタサンドウ,0
626,3470001020360,新規,0,2024-08-30,2024-08-30,株式会社Ｃｏｎｎｅｃｔ・Ｎａｔｕｒｅ,,株式会社,香川県,高松市,鹿角町２７番地１６,,37,201,7618082,,,,,,,2024-08-30,1,,,,,コネクトネイチャー,0
628,3480003002174,新規,0,2024-08-30,2024-08-30,合同会社ＴＣＮ,,合同会社,徳島県,徳島市,佐古一番町１２番７－６０８号ライオンズマンション徳島佐古一番町,,36,201,7700021,,,,,,,2024-08-30,1,,,,,ティーシーエヌ,0
636,4010001247817,新規,0,2024-08-30,2024-08-30,永升株式会社,,株式会社,東京都,文京区,白山１丁目６－４同栄マンション２階文京ＶＥＮＴＵＲＥＢＡＳＥ２１４号室,,13,105,1130001,,,,,,,2024-08-30,1,,,,,エイショウ,0
637,4010001247833,新規,0,2024-08-30,2024-08-30,勇志電気株式会社,,株式会社,東京都,千代田区,神田和泉町１番地６の１６ヤマトビル４０５,,13,101,1010024,,,,,,,2024-08-30,1,,,,,ユウシデンキ,0
638,4010001247841,新規,0,2024-08-30,2024-08-30,株式会社アテロス,,株式会社,東京都,千代田区,大手町１丁目６番１号大手町ビル,,13,101,1000004,,,,,,,2024-08-30,1,,,,,アテロス,0
639,4010001247899,新規,0,2024-08-30,2024-08-30,株式会社プレシャス,,株式会社,東京都,中央区,築地６丁目９番１－９０３号,,13,102,1040045,,,,,,,2024-08-30,1,,,,,プレシャス,0
640,4010001247924,新規,0,2024-08-30,2024-08-30,株式会社Ｇｏｌｄｅｎｓｏｆｔ,,株式会社,東京都,千代田区,麹町２丁目４番地,,13,101,1020083,,,,,,,2024-08-30,1,,,,,ゴールデンソフト,0
652,4010401184750,新規,0,2024-08-30,2024-08-30,株式会社エージェントリ,,株式会社,東京都,港区,白金１丁目２５番２１－７０１号,,13,103,1080072,,,,,,,2024-08-30,1,,,,,エージェントリ,0
653,4010401184767,新規,0,2024-08-30,2024-08-30,株式会社メディカルマナー＆マネジメント,,株式会社,東京都,港区,高輪４丁目２３番６号ハイホーム高輪７０８,,13,103,1080074,,,,,,,2024-08-30,1,,,,,,0
654,4010401184800,新規,0,2024-08-30,2024-08-30,ランドホールディング株式会社,,株式会社,東京都,港区,南麻布４丁目９番３４－５０３号,,13,103,1060047,,,,,,,2024-08-30,1,,,,,ランドホールディング,0
656,4010403033328,新規,0,2024-08-30,2024-08-30,合同会社ファルコンリーシング,,合同会社,東京都,港区,虎ノ門２丁目６番１号虎ノ門ヒルズステーションタワー,,13,103,1050001,,,,,,,2024-08-30,1,,,,,ファルコンリーシング,0
657,4010405023491,新規,0,2024-08-30,2024-08-30,一般社団法人再スタート支援協会,,その他の設立登記法人,東京都,港区,三田３丁目７番１３号ハイライフ三田６０３号,,13,103,1080073,,,,,,,2024-08-30,1,,,,,サイスタートシエンキョウカイ,0
666,4010801035355,新規,0,2024-08-30,2024-08-30,ユニコーン株式会社,,株式会社,東京都,大田区,西蒲田４丁目１９番９号,,13,111,1440051,,,,,,,2024-08-30,1,,,,,ユニコーン,0
667,4010803005083,新規,0,2024-08-30,2024-08-30,合同会社Ｒ・Ｓ,,合同会社,東京都,大田区,東雪谷１丁目１２番２号,,13,111,1450065,,,,,,,2024-08-30,1,,,,,アールエス,0
668,4010903009323,新規,0,2024-08-30,2024-08-30,ＡｉＳｉｍｐｌｉｆｙ合同会社,,合同会社,東京都,世田谷区,祖師谷３丁目２３番１１号－４,,13,112,1570072,,,,,,,2024-08-30,1,,,,,アーアイシンプリファイ,0
676,4011101108611,新規,0,2024-08-30,2024-08-30,株式会社Ｒｏｏｍ,,株式会社,東京都,新宿区,四谷３丁目１３番地ＳＥＡＢＩＲＤビル２階,,13,104,1600004,,,,,,,2024-08-30,1,,,,,ルーム,0
680,4011103014881,新規,0,2024-08-30,2024-08-30,ＹＡＳＭＩＮＡ合同会社,,合同会社,東京都,新宿区,西新宿５丁目５－１－５６１２,,13,104,1600023,,,,,,,2024-08-30,1,,,,,ヤスミナ,0
685,4011503006198,新規,0,2024-08-30,2024-08-30,合同会社Ｔｕｎｅ　Ｓｙｓｔｅｍｓ,,合同会社,東京都,北区,志茂１丁目３番１０号,,13,117,1150042,,,,,,,2024-08-30,1,,,,,チューンシステムズ,0
693,4011701027574,新規,0,2024-08-30,2024-08-30,ＰＲＥＣＩＳＩＯＮ株式会社,,株式会社,東京都,江戸川区,西葛西５丁目７番６号－４０４号室,,13,123,1340088,,,,,,,2024-08-30,1,,,,,プレシジョン,0
696,4011801044750,新規,0,2024-08-30,2024-08-30,株式会社ＳＲ企画,,株式会社,東京都,葛飾区,柴又２丁目１４番１４号アビタシオン柴又３０７号,,13,122,1250052,,,,,,,2024-08-30,1,,,,,エスアールキカク,0
697,4013301053050,新規,0,2024-08-30,2024-08-30,Ｓｕｃｃｅｓｓ　Ｎｅｐａｌ　Ｍａｎｐｏｗｅｒ　Ａｇｅｎｃｙ株式会社,,株式会社,東京都,豊島区,東池袋４丁目１７番５号２Ｆ,,13,116,1700013,,,,,,,2024-08-30,1,,,,,サクセスネパールマンパワーエージェンシー,0
709,4020003026763,新規,0,2024-08-30,2024-08-30,合同会社アクシア,,合同会社,神奈川県,横浜市保土ケ谷区,瀬戸ケ谷町１０３番地福本ハイツ１０１号,,14,106,2400024,,,,,,,2024-08-30,1,,,,,アクシア,0
715,4021001083128,新規,0,2024-08-30,2024-08-30,株式会社ｆｕｔｕｒｅ　ｏｃｅａｎ,,株式会社,神奈川県,藤沢市,本藤沢２丁目１１番１号,,14,205,2510875,,,,,,,2024-08-30,1,,,,,フューチャーオーシャン,0
717,4021005013171,新規,0,2024-08-30,2024-08-30,一般社団法人ひかり,,その他の設立登記法人,神奈川県,相模原市中央区,相模原２丁目４番１２－４１０号,,14,152,2520231,,,,,,,2024-08-30,1,,,,,ヒカリ,0
724,4030003025021,新規,0,2024-08-30,2024-08-30,ＤｏｇｅＮｅｔ合同会社,,合同会社,埼玉県,川口市,西川口１丁目３０番２０－２０２号,,11,203,3320021,,,,,,,2024-08-30,1,,,,,ドージネット,0
730,4040001135184,新規,0,2024-08-30,2024-08-30,株式会社ＨＯＫＵＲＡ,,株式会社,千葉県,市川市,市川１丁目２４番９号,,12,203,2720034,,,,,,,2024-08-30,1,,,,,ホクラ,0
734,4050001055332,新規,0,2024-08-30,2024-08-30,株式会社ＫＥＮＫＩ　ＢＯＥＫＩ,,株式会社,茨城県,古河市,尾崎４７７９番地１６,,08,204,3060101,,,,,,,2024-08-30,1,,,,,ケンキボウエキ,0
735,4050001055340,新規,0,2024-08-30,2024-08-30,株式会社日本ちくわぶ産業,,株式会社,茨城県,水戸市,小林町１１９９番２８,,08,201,3190325,,,,,,,2024-08-30,1,,,,,ニホンチクワブサンギョウ,0
738,4060003005227,新規,0,2024-08-30,2024-08-30,合同会社ｍｏｎｏｌｉｔｈ,,合同会社,栃木県,宇都宮市,陽東２丁目１番２号,,09,201,3210904,,,,,,,2024-08-30,1,,,,,モノリス,0
739,4070001042122,新規,0,2024-08-30,2024-08-30,株式会社ｓａｕｍｍｉｔ,,株式会社,群馬県,前橋市,上大島町８４４番地,,10,201,3792153,,,,,,,2024-08-30,1,,,,,サウミット,0
740,4070003005564,新規,0,2024-08-30,2024-08-30,合同会社ＭＳＳＴ,,合同会社,群馬県,太田市,由良町１４７３番地７７,,10,205,3730036,,,,,,,2024-08-30,1,,,,,エムエスエスティー,0
745,4110003005502,新規,0,2024-08-30,2024-08-30,合同会社落霞,,合同会社,新潟県,南魚沼郡湯沢町,大字土樽１１１番地３－１１１６号,00136132,15,461,9496103,,,,,,,2024-08-30,1,,,,,ラッカ,0
755,4120001268133,新規,0,2024-08-30,2024-08-30,嘉美商事株式会社,,株式会社,大阪府,大阪市浪速区,元町１丁目１０番６号８階,,27,111,5560016,,,,,,,2024-08-30,1,,,,,カミショウジ,0
756,4120001268158,新規,0,2024-08-30,2024-08-30,株式会社ＡＢＹＵ,,株式会社,大阪府,大阪市中央区,本町４丁目５－７サンドール本町ビル４Ｆ,,27,128,5410053,,,,,,,2024-08-30,1,,,,,アブユー,0
759,4120003027396,新規,0,2024-08-30,2024-08-30,合同会社ＩｏＴ　Ｅｄｕｃａｔｉｏｎ,,合同会社,大阪府,大阪市都島区,都島北通１丁目１番４号,,27,102,5340014,,,,,,,2024-08-30,1,,,,,アイオーティーエデュケーション,0
760,4120101070216,新規,0,2024-08-30,2024-08-30,株式会社Ｅｎ　ｆａｍｉｌｌｅ,,株式会社,大阪府,富田林市,錦織南２丁目６番１０号,,27,214,5840067,,,,,,,2024-08-30,1,,,,,アンファミーユ,0
765,4120901049698,新規,0,2024-08-30,2024-08-30,ぐっとスマイルクリエーション株式会社,,株式会社,大阪府,茨木市,南春日丘２丁目１３番６号サンシャイン茨木Ｐａｒｔ１Ａ棟１０１号,,27,211,5670046,,,,,,,2024-08-30,1,,,,,グットスマイルクリエーション,0
771,4130001077806,新規,0,2024-08-30,2024-08-30,京蘭アートプロジェクト株式会社,,株式会社,京都府,京都市下京区,高倉通花屋町下る若松町４３３番地１,,26,106,6008198,,,,,,,2024-08-30,1,,,,,キョウランアートプロジェクト,0
772,4130001077839,新規,0,2024-08-30,2024-08-30,株式会社啓晨,,株式会社,京都府,京都市下京区,西新屋敷下之町２８番地４北側,,26,106,6000000,,,,,,,2024-08-30,1,,,,,ケイシン,0
775,4130005017171,新規,0,2024-08-30,2024-08-30,一般社団法人子どもと育ちのコホート研究・実践協会,,その他の設立登記法人,京都府,京都市左京区,下鴨北園町８８番地７,,26,103,6060831,,,,,,,2024-08-30,1,,,,,コドモトソダチノコホートケンキュウジッセンキョウカイ,0
776,4140001135645,新規,0,2024-08-30,2024-08-30,株式会社福栄,,株式会社,兵庫県,神戸市中央区,上筒井通４丁目１番１０号,,28,110,6510061,,,,,,,2024-08-30,1,,,,,フクエイ,0
779,4140003021018,新規,0,2024-08-30,2024-08-30,合同会社クジラカンパニー,,合同会社,兵庫県,西宮市,松籟荘１１－１５,,28,204,6620822,,,,,,,2024-08-30,1,,,,,クジラカンパニー,0
781,4150003003353,新規,0,2024-08-30,2024-08-30,合同会社ウィアネ,,合同会社,奈良県,生駒郡安堵町,大字西安堵１６番地の４,,29,345,6391066,,,,,,,2024-08-30,1,,,,,ウィアネ,0
789,4180001163056,新規,0,2024-08-30,2024-08-30,株式会社Ｓｅａ‐Ｎｉｎｅ,,株式会社,愛知県,稲沢市,重本１丁目８０番地,,23,220,4928261,,,,,,,2024-08-30,1,,,,,シーナイン,0
790,4180001163064,新規,0,2024-08-30,2024-08-30,株式会社ＮＥＯ　ＲＩＳＥ,,株式会社,愛知県,名古屋市南区,西桜町１７番地の６,,23,112,4570039,,,,,,,2024-08-30,1,,,,,ネオライズ,0
791,4180001163072,新規,0,2024-08-30,2024-08-30,株式会社イデアル,,株式会社,愛知県,日進市,竹の山１丁目２００１番地ｃａｓａ竹の山中央２０１号室,,23,230,4700136,,,,,,,2024-08-30,1,,,,,イデアル,0
795,4180003027291,新規,0,2024-08-30,2024-08-30,かいわれ福祉サービス合同会社,,合同会社,愛知県,尾張旭市,平子町長池上６２４６番地２,,23,226,4880872,,,,,,,2024-08-30,1,,,,,カイワレフクシサービス,0
796,4180003027300,新規,0,2024-08-30,2024-08-30,Ａｒｔｏｐｉａ合同会社,,合同会社,愛知県,名古屋市中村区,名駅南３丁目９番地５号スクエア名駅南９１０号,,23,105,4500003,,,,,,,2024-08-30,1,,,,,アートピア,0
806,4270001009043,新規,0,2024-08-30,2024-08-30,智頭ツーリズムデザイン株式会社,,株式会社,鳥取県,八頭郡智頭町,大字智頭４９５番地,,31,328,6891402,,,,,,,2024-08-30,1,,,,,チヅツーリズムデザイン,0
809,4290001107068,新規,0,2024-08-30,2024-08-30,株式会社アップルプロダクション,,株式会社,福岡県,福岡市中央区,天神２丁目２番１２号Ｔ＆Ｊビルディング７Ｆ,,40,133,8100001,,,,,,,2024-08-30,1,,,,,アップルプロダクション,0
810,4290003015707,新規,0,2024-08-30,2024-08-30,合同会社Ｂｉｏ　Ｃｏｎｎｅｃｔ,,合同会社,福岡県,福岡市南区,野間３丁目１４番２９号‐１１０２,,40,134,8150041,,,,,,,2024-08-30,1,,,,,ビオコネクト,0
811,4290003015764,新規,0,2024-08-30,2024-08-30,ＰｉｎｅＴｒｅｅ　Ｅｓｔａｔｅ合同会社,,合同会社,福岡県,福岡市南区,柏原６丁目６２番１３号,,40,134,8111353,,,,,,,2024-08-30,1,,,,,パインツリーエステート,0
821,4370001051596,新規,0,2024-08-30,2024-08-30,ＨＹＤホールディングス株式会社,,株式会社,宮城県,牡鹿郡女川町,浦宿浜字袖山７２番地の１,,04,581,9862231,,,,,,,2024-08-30,1,,,,,エイチワイディーホールディングス,0
835,4430003016723,新規,0,2024-08-30,2024-08-30,革音合同会社,,合同会社,北海道,札幌市東区,東苗穂六条１丁目１５番２０号,,01,103,0070806,,,,,,,2024-08-30,1,,,,,カクオン,0
842,4500003003318,新規,0,2024-08-30,2024-08-30,合同会社ＨＩＤＥＺＡＫＩ,,合同会社,愛媛県,今治市,大三島町宮浦５３０７番地３,,38,202,7941304,,,,,,,2024-08-30,1,,,,,ヒデザキ,0
855,5010001247601,新規,0,2024-08-30,2024-08-30,株式会社オモイビト,,株式会社,東京都,中央区,銀座１丁目１２番地４号Ｎ＆ＥＢＬＤ．６Ｆ,,13,102,1040061,,,,,,,2024-08-30,1,,,,,オモイビト,0
856,5010001247618,新規,0,2024-08-30,2024-08-30,株式会社ＹＸ　Ｐａｒｔｎｅｒｓ,,株式会社,東京都,中央区,日本橋茅場町１丁目８－１,,13,102,1030025,,,,,,,2024-08-30,1,,,,,ワイエックスパートナーズ,0
857,5010001247808,新規,0,2024-08-30,2024-08-30,株式会社Ｇｒａｎｖｉａ,,株式会社,東京都,中央区,銀座１丁目１２番４号Ｎ＆ＥＢＬＤ．６Ｆ,,13,102,1040061,,,,,,,2024-08-30,1,,,,,グランビア,0
858,5010001247857,新規,0,2024-08-30,2024-08-30,株式会社ピクセル,,株式会社,東京都,千代田区,永田町２丁目１１番１号山王パークタワー５階トラスティーズ・コンサルティングＬＬＰ内,,13,101,1000014,,,,,,,2024-08-30,1,,,,,ピクセル,0
859,5010001247898,新規,0,2024-08-30,2024-08-30,株式会社Ｎｏｂｉｓｕｋｏ,,株式会社,東京都,千代田区,九段南２丁目６番１３－１０２号,,13,101,1020074,,,,,,,2024-08-30,1,,,,,ノビスコ,0
860,5010003044716,新規,0,2024-08-30,2024-08-30,拓海合同会社,,合同会社,東京都,千代田区,神田神保町２丁目３４－１鳴海ビル２１２室,,13,101,1010051,,,,,,,2024-08-30,1,,,,,タクミ,0
861,5010003044732,新規,0,2024-08-30,2024-08-30,ＴＦＪ１０合同会社,,合同会社,東京都,中央区,新川１丁目１７番１８号,,13,102,1040033,,,,,,,2024-08-30,1,,,,,ティーエフジェイテン,0
866,5010401184700,新規,0,2024-08-30,2024-08-30,じおなす株式会社,,株式会社,東京都,港区,南青山２丁目２番１５号ＷｉｎＡｏｙａｍａビルＵＣＦ６階,,13,103,1070062,,,,,,,2024-08-30,1,,,,,ジオナス,0
867,5010401184774,新規,0,2024-08-30,2024-08-30,株式会社ＳＤＣｓ,,株式会社,東京都,港区,北青山１丁目３番１号アールキューブ青山３階,,13,103,1070061,,,,,,,2024-08-30,1,,,,,エスディーシーズ,0
868,5010401184849,新規,0,2024-08-30,2024-08-30,ＫＣＡＰＢＯ６株式会社,,株式会社,東京都,港区,南青山３丁目１０番４３号,,13,103,1070062,,,,,,,2024-08-30,1,,,,,ケーシーエーピービーオーシックス,0
869,5010403033277,新規,0,2024-08-30,2024-08-30,合同会社ＮＯＴ　ＡＩカンパニー,,合同会社,東京都,港区,白金台４丁目３番５号,,13,103,1080071,,,,,,,2024-08-30,1,,,,,ノットアンエーアイカンパニー,0
870,5010403033319,新規,0,2024-08-30,2024-08-30,合同会社Ｔ,,合同会社,東京都,港区,六本木４丁目１番４号黒崎ビル３階,,13,103,1060032,,,,,,,2024-08-30,1,,,,,ティー,0
877,5010705003671,新規,0,2024-08-30,2024-08-30,司法書士法人スターフォード,,その他の設立登記法人,東京都,品川区,西五反田１丁目１１番１号アイオス五反田駅前６０１,,13,109,1410031,,,,,,,2024-08-30,1,,,,,スターフォード,0
881,5011001164142,新規,0,2024-08-30,2024-08-30,株式会社ＫＣ,,株式会社,東京都,渋谷区,恵比寿西２丁目４－８ウィンド恵比寿ビル８階,,13,113,1500021,,,,,,,2024-08-30,1,,,,,ケーシー,0
883,5011003019914,新規,0,2024-08-30,2024-08-30,合同会社東京リプラス総合調査,,合同会社,東京都,渋谷区,道玄坂１丁目１５番３号,,13,113,1500043,,,,,,,2024-08-30,1,,,,,トウキョウリプラスソウゴウチョウサ,0
885,5011101108593,新規,0,2024-08-30,2024-08-30,株式会社ＧＲＡＮＤＩＲ,,株式会社,東京都,新宿区,天神町６４番地１,,13,104,1620808,,,,,,,2024-08-30,1,,,,,グランディール,0
893,5011801044766,新規,0,2024-08-30,2024-08-30,株式会社プラン・ドゥ・ホールディングス,,株式会社,東京都,葛飾区,亀有５丁目４５番１号クロスビル６０１号,,13,122,1250061,,,,,,,2024-08-30,1,,,,,プランドゥホールディングス,0
894,5012701018430,新規,0,2024-08-30,2024-08-30,Ｍ・ＳＳ株式会社,,株式会社,東京都,小平市,仲町４６６－６９－２,,13,211,1870042,,,,,,,2024-08-30,1,,,,,エムエスエス,0
898,5013101009499,新規,0,2024-08-30,2024-08-30,株式会社緑心,,株式会社,東京都,あきる野市,秋留４丁目５番地４,,13,228,1970828,,,,,,,2024-08-30,1,,,,,リョクシン,0
905,5020001158789,新規,0,2024-08-30,2024-08-30,株式会社ハマディー不動産,,株式会社,神奈川県,横浜市戸塚区,東俣野町３６－１エンゼルハイム戸塚４０５,,14,110,2450065,,,,,,,2024-08-30,1,,,,,ハマディーフドウサン,0
906,5020001158839,新規,0,2024-08-30,2024-08-30,株式会社パリスエージェント,,株式会社,神奈川県,川崎市中原区,今井仲町１２番１０－１０３号ＭＫ今井仲町,,14,133,2110065,,,,,,,2024-08-30,1,,,,,パリスエージェント,0
910,5020003026597,新規,0,2024-08-30,2024-08-30,合同会社ウッドクラフトＯＫＴ,,合同会社,神奈川県,横浜市南区,六ッ川二丁目５８番９,,14,105,2320000,,,,,,,2024-08-30,1,,,,,ウッドクラフトオーケーティー,0
911,5020003026762,新規,0,2024-08-30,2024-08-30,Ｓｋｙｏｃｅａｎ合同会社,,合同会社,神奈川県,横浜市西区,北幸２丁目１０番４８号むつみビル３階,,14,103,2200004,,,,,,,2024-08-30,1,,,,,スカイオーシャン,0
914,5021001083127,新規,0,2024-08-30,2024-08-30,株式会社ブレス,,株式会社,神奈川県,平塚市,山下３丁目２１番４３号,,14,203,2540911,,,,,,,2024-08-30,1,,,,,ブレス,0
918,5030001162179,新規,0,2024-08-30,2024-08-30,株式会社翔健美装,,株式会社,埼玉県,さいたま市岩槻区,加倉４丁目１９番６４－１号,,11,110,3390056,,,,,,,2024-08-30,1,,,,,ショウケンビソウ,0
922,5030003025029,新規,0,2024-08-30,2024-08-30,Ｌａｔｏｎａ合同会社,,合同会社,埼玉県,さいたま市緑区,大字大門２５７６番地２６,,11,109,3360963,,,,,,,2024-08-30,1,,,,,ラトナ,0
923,5030003025037,新規,0,2024-08-30,2024-08-30,合同会社大塚工業,,合同会社,埼玉県,戸田市,大字新曽１９９１番地リノリーゾ１００７号室,,11,224,3350021,,,,,,,2024-08-30,1,,,,,オオツカコウギョウ,0
927,5040001135200,新規,0,2024-08-30,2024-08-30,株式会社ｌｅｍ,,株式会社,千葉県,千葉市花見川区,幕張町３丁目１５３０番地３,,12,102,2620032,,,,,,,2024-08-30,1,,,,,レム,0
932,5050001055348,新規,0,2024-08-30,2024-08-30,株式会社マルジュウホールディングス,,株式会社,茨城県,神栖市,息栖２９７４番地４,,08,232,3140133,,,,,,,2024-08-30,1,,,,,マルジュウホールディングス,0
933,5050003008642,新規,0,2024-08-30,2024-08-30,ＲＩＶＪＯＹ合同会社,,合同会社,茨城県,日立市,多賀町１丁目１２－２４鈴木第三ビル２Ｆ,,08,202,3160003,,,,,,,2024-08-30,1,,,,,リヴァジョイ,0
937,5060003005226,新規,0,2024-08-30,2024-08-30,Ｓ．Ｂ．Ｋ　ＴＲＡＤＩＮＧ合同会社,,合同会社,栃木県,足利市,大町１３－１５,,09,202,3260056,,,,,,,2024-08-30,1,,,,,エスビーケートレーディング,0
938,5080003003285,新規,0,2024-08-30,2024-08-30,合同会社ＺＥＮ,,合同会社,静岡県,静岡市駿河区,中吉田２４番１４‐３０５号,,22,102,4228001,,,,,,,2024-08-30,1,,,,,ゼン,0
944,5080103003136,新規,0,2024-08-30,2024-08-30,合同会社ゴールド,,合同会社,静岡県,沼津市,原町中２丁目１４番地の２８コーポ大川２０３,,22,203,4100311,,,,,,,2024-08-30,1,,,,,,0
952,5120001268132,新規,0,2024-08-30,2024-08-30,駿昇新材料株式会社,,株式会社,大阪府,大阪市西成区,橘１丁目１１－２８オフィスポート橘４０６号室,,27,122,5570051,,,,,,,2024-08-30,1,,,,,シュンショウシンザイリョウ,0
953,5120001268140,新規,0,2024-08-30,2024-08-30,株式会社ＦＳＣ,,株式会社,大阪府,大阪市北区,野崎町１－２６豊ビル２０１号室,,27,127,5300055,,,,,,,2024-08-30,1,,,,,エフエスシー,0
954,5120001268165,新規,0,2024-08-30,2024-08-30,株式会社チョップスタイル,,株式会社,大阪府,大阪市西淀川区,柏里２丁目７番３６号チョップビルディング,,27,113,5550022,,,,,,,2024-08-30,1,,,,,チョップスタイル,0
955,5120001268173,新規,0,2024-08-30,2024-08-30,盛広貿易株式会社,,株式会社,大阪府,大阪市中央区,十二軒町３－２ダイアパレス谷町第三５１１号室,,27,128,5400015,,,,,,,2024-08-30,1,,,,,セイコウボウエキ,0
960,5120003027395,新規,0,2024-08-30,2024-08-30,合同会社ｃｏｒｔｏ,,合同会社,大阪府,大阪市住之江区,安立４丁目１３‐２４,,27,125,5590003,,,,,,,2024-08-30,1,,,,,コルト,0
961,5120003027420,新規,0,2024-08-30,2024-08-30,Ｆｌａｔｉｅｒ合同会社,,合同会社,大阪府,大阪市東淀川区,東中島１丁目１７番５－６３５号,,27,114,5330033,,,,,,,2024-08-30,1,,,,,フラッティア,0
962,5120101070223,新規,0,2024-08-30,2024-08-30,コクショウホールディングス株式会社,,株式会社,大阪府,堺市中区,楢葉３８番地４,,27,142,5998252,,,,,,,2024-08-30,1,,,,,コクショウホールディングス,0
964,5120901049706,新規,0,2024-08-30,2024-08-30,昭和塗装株式会社,,株式会社,大阪府,高槻市,南平台１丁目２番５２,,27,207,5691042,,,,,,,2024-08-30,1,,,,,ショウワトソウ,0
967,5120903005319,新規,0,2024-08-30,2024-08-30,合同会社赤木,,合同会社,大阪府,豊中市,西泉丘１丁目１１番３５,,27,203,5610862,,,,,,,2024-08-30,1,,,,,アカギ,0
970,5122001038390,新規,0,2024-08-30,2024-08-30,株式会社フラワー,,株式会社,大阪府,東大阪市,太平寺２丁目６番８号,,27,227,5770844,,,,,,,2024-08-30,1,,,,,フラワー,0
979,5140003021017,新規,0,2024-08-30,2024-08-30,合同会社Ｓｐｒｅａｄ,,合同会社,兵庫県,尼崎市,神田中通３丁目７９－１０１,,28,202,6600884,,,,,,,2024-08-30,1,,,,,スプレッド,0
980,5140003021025,新規,0,2024-08-30,2024-08-30,パノプティコン合同会社,,合同会社,兵庫県,神戸市東灘区,住吉宮町３丁目７番１１号,,28,101,6580053,,,,,,,2024-08-30,1,,,,,パノプティコン,0
982,5160001026189,新規,0,2024-08-30,2024-08-30,株式会社シダウット,,株式会社,滋賀県,大津市,別保２丁目８番３号,,25,201,5200835,,,,,,,2024-08-30,1,,,,,シダウット,0
984,5170001018292,新規,0,2024-08-30,2024-08-30,株式会社イーテック,,株式会社,和歌山県,和歌山市,神前３０８番地８,,30,201,6408314,,,,,,,2024-08-30,1,,,,,イーテック,0
988,5180001163063,新規,0,2024-08-30,2024-08-30,株式会社家のちえ,,株式会社,愛知県,名古屋市東区,代官町２７－３０,,23,102,4610002,,,,,,,2024-08-30,1,,,,,イエノチエ,0
991,5180003027299,新規,0,2024-08-30,2024-08-30,合同会社ツルガサワ,,合同会社,愛知県,名古屋市緑区,鶴が沢１丁目１７１７番地の１３,,23,114,4580814,,,,,,,2024-08-30,1,,,,,ツルガサワ,0
997,5220001026182,新規,0,2024-08-30,2024-08-30,エステックプラス株式会社,,株式会社,石川県,金沢市,新神田５丁目５番地,,17,201,9218013,,,,,,,2024-08-30,1,,,,,エステックプラス,0
1001,5240001063752,新規,0,2024-08-30,2024-08-30,株式会社おてもやんず,,株式会社,広島県,呉市,蒲刈町大浦８２６番地１,,34,202,7370402,,,,,,,2024-08-30,1,,,,,オテモヤンズ,0
1003,5240005015816,新規,0,2024-08-30,2024-08-30,一般社団法人広島華人互助協会,,その他の設立登記法人,広島県,広島市安佐北区,小河原町１０２６番地１,,34,106,7391754,,,,,,,2024-08-30,1,,,,,ヒロシマカジンゴジョキョウカイ,0
1011,5280001009248,新規,0,2024-08-30,2024-08-30,株式会社オシジア,,株式会社,島根県,出雲市,渡橋町１２１１,,32,203,6930004,,,,,,,2024-08-30,1,,,,,オシジア,0
1017,5290001107091,新規,0,2024-08-30,2024-08-30,貴金貿易株式会社,,株式会社,福岡県,大野城市,大字乙金１２８２番,,40,219,8160902,,,,,,,2024-08-30,1,,,,,キキンボウエキ,0
1018,5290001107100,新規,0,2024-08-30,2024-08-30,株式会社ＮＳトランスポート,,株式会社,福岡県,福岡市博多区,上川端町１２番２０号,,40,132,8120026,,,,,,,2024-08-30,1,,,,,エヌエストランスポート,0
1019,5290001107109,新規,0,2024-08-30,2024-08-30,株式会社ユーティリティ,,株式会社,福岡県,福岡市博多区,竹丘町２丁目５番１８号Ｊ，ｓＳＴＡＧＥ６０４,,40,132,8120878,,,,,,,2024-08-30,1,,,,,ユーティリティ,0
1020,5290003015763,新規,0,2024-08-30,2024-08-30,合同会社Ｇｒａｃｅ,,合同会社,福岡県,福岡市中央区,天神４丁目６－２８天神ファーストビル７階,,40,133,8100001,,,,,,,2024-08-30,1,,,,,グレイス,0
1021,5300001013890,新規,0,2024-08-30,2024-08-30,株式会社Ｔ‐ｍｏｕｎｄ,,株式会社,佐賀県,神埼郡吉野ヶ里町,立野１１６１番地９,,41,327,8420032,,,,,,,2024-08-30,1,,,,,ティーマウンド,0
1024,5310001019185,新規,0,2024-08-30,2024-08-30,株式会社一龍,,株式会社,長崎県,長崎市,大手２丁目２８番１９号,,42,201,8528127,,,,,,,2024-08-30,1,,,,,イチリュウ,0
1026,5330001032418,新規,0,2024-08-30,2024-08-30,株式会社ＮＯＤＡグループ,,株式会社,熊本県,玉名市,岱明町野口１１４５－１５,,43,206,8690222,,,,,,,2024-08-30,1,,,,,ノダグループ,0
1035,5390001017727,新規,0,2024-08-30,2024-08-30,株式会社米マックス,,株式会社,山形県,鶴岡市,伊勢横内字伊勢郷６２番地２,,06,203,9970803,,,,,,,2024-08-30,1,,,,,ベイマックス,0
1045,5430001092575,新規,0,2024-08-30,2024-08-30,株式会社ＭＴ美建,,株式会社,北海道,札幌市白石区,菊水上町四条２丁目１３６番地１０サンブライト１－３０２号,,01,104,0030814,,,,,,,2024-08-30,1,,,,,エムティービケン,0
1065,6010001247807,新規,0,2024-08-30,2024-08-30,株式会社ＮＥＳ,,株式会社,東京都,中央区,日本橋兜町１７番１号,,13,102,1030026,,,,,,,2024-08-30,1,,,,,エヌイーエス,0
1066,6010001247815,新規,0,2024-08-30,2024-08-30,株式会社ゴールドストーン,,株式会社,東京都,文京区,千駄木３丁目４１－８,,13,105,1130022,,,,,,,2024-08-30,1,,,,,ゴールドストーン,0
1067,6010001247856,新規,0,2024-08-30,2024-08-30,株式会社ＴＡＫＡＨＡＳＨＩ,,株式会社,東京都,中央区,京橋２丁目５番２号京橋東邦センタービル１０階,,13,102,1040031,,,,,,,2024-08-30,1,,,,,タカハシ,0
1068,6010001247897,新規,0,2024-08-30,2024-08-30,ＴＯＲＵＩ株式会社,,株式会社,東京都,文京区,向丘１丁目１４番６号アーバンコートサカス３－４０４,,13,105,1130023,,,,,,,2024-08-30,1,,,,,トウルイ,0
1069,6010001247906,新規,0,2024-08-30,2024-08-30,高陽資本株式会社,,株式会社,東京都,千代田区,神田和泉町１－７－６オリシンプル秋葉原ビル１０１,,13,101,1010024,,,,,,,2024-08-30,1,,,,,コウヨウシホン,0
1070,6010001247939,新規,0,2024-08-30,2024-08-30,ＷｈｙｚｅＬｉｎｋ株式会社,,株式会社,東京都,中央区,日本橋２丁目２番３号ＲＩＳＨＥビルＵＣＦ４０２,,13,102,1030027,,,,,,,2024-08-30,1,,,,,ワイズリンク,0
1071,6010001247947,新規,0,2024-08-30,2024-08-30,株式会社マネーシフト,,株式会社,東京都,千代田区,有楽町１丁目６番３号日比谷頴川ビル６階,,13,101,1000006,,,,,,,2024-08-30,1,,,,,マネーシフト,0
1072,6010003044715,新規,0,2024-08-30,2024-08-30,合同会社ＢＲＧサフィール,,合同会社,東京都,千代田区,丸の内１丁目４番１号東京共同会計事務所内,,13,101,1000005,,,,,,,2024-08-30,1,,,,,ビーアールジーサフィール,0
1074,6010005038731,新規,0,2024-08-30,2024-08-30,一般社団法人ＢＲＧサフィール,,その他の設立登記法人,東京都,千代田区,丸の内１丁目４番１号東京共同会計事務所内,,13,101,1000005,,,,,,,2024-08-30,1,,,,,ビーアールジーサフィール,0
1075,6010101016302,新規,0,2024-08-30,2024-08-30,株式会社留盃,,株式会社,東京都,八王子市,打越町１４８１番地１４６,,13,201,1920911,,,,,,,2024-08-30,1,,,,,ルバイ,0
1080,6010401184666,新規,0,2024-08-30,2024-08-30,ＡＶＩＳ　ＣＡＮＥＮＳ株式会社,,株式会社,東京都,港区,北青山３丁目６番７号青山パラシオタワー十一階,,13,103,1070061,,,,,,,2024-08-30,1,,,,,アヴィスカネンス,0
1081,6010401184815,新規,0,2024-08-30,2024-08-30,株式会社１１０,,株式会社,東京都,港区,南青山３丁目１－３６青山丸竹ビル６Ｆ,,13,103,1070062,,,,,,,2024-08-30,1,,,,,ワンワンゼロ,0
1082,6010401184823,新規,0,2024-08-30,2024-08-30,株式会社ビジネスＥＸ,,株式会社,東京都,港区,南麻布２丁目１０番２号シェラン南麻布５Ｆ,,13,103,1060047,,,,,,,2024-08-30,1,,,,,ビジネスイーエックス,0
1088,6010603011049,新規,0,2024-08-30,2024-08-30,合同会社ジャイアントツリー,,合同会社,東京都,江東区,東雲１丁目９番４３－１３０１号,,13,108,1350062,,,,,,,2024-08-30,1,,,,,ジャイアントツリー,0
1098,6011005010639,新規,0,2024-08-30,2024-08-30,特定非営利活動法人相続・不動産サポートセンター,,その他の設立登記法人,東京都,渋谷区,東１丁目１番３７号大希青山ビル,,13,113,1500011,,,,,,,2024-08-30,1,,,,,ソウゾクフドウサンサポートセンター,0
1100,6011101108601,新規,0,2024-08-30,2024-08-30,株式会社ストライクゾーン,,株式会社,東京都,新宿区,西新宿３丁目１３番１１号いづみタウン新宿４１２号,,13,104,1600023,,,,,,,2024-08-30,1,,,,,ストライクゾーン,0
1102,6011201025754,新規,0,2024-08-30,2024-08-30,株式会社なつめ,,株式会社,東京都,中野区,中野２丁目１９－２,,13,114,1640001,,,,,,,2024-08-30,1,,,,,ナツメ,0
1103,6011301029960,新規,0,2024-08-30,2024-08-30,Ｙ＆株式会社,,株式会社,東京都,杉並区,永福１丁目３８番１４号,,13,115,1680064,,,,,,,2024-08-30,1,,,,,ユーアンド,0
1105,6011501031089,新規,0,2024-08-30,2024-08-30,ＫＩＮＧＳ　ＥＭＰＩＲＥ株式会社,,株式会社,東京都,北区,中里２丁目４番７－２０２号銀座コーポ,,13,117,1140015,,,,,,,2024-08-30,1,,,,,キングスエンパイア,0
1106,6011503006205,新規,0,2024-08-30,2024-08-30,合同会社光月,,合同会社,東京都,北区,中十条２丁目１０番１１－４０２号ウエストインパート１０,,13,117,1140032,,,,,,,2024-08-30,1,,,,,コウヅキ,0
1122,6020001158870,新規,0,2024-08-30,2024-08-30,株式会社チェスキー,,株式会社,神奈川県,横浜市戸塚区,品濃町１７７５番地１ネオマイム東戸塚パークアレーヌ５０６号,,14,110,2440801,,,,,,,2024-08-30,1,,,,,チェスキー,0
1125,6020003026778,新規,0,2024-08-30,2024-08-30,ＴｒｕｅＰａｔｈ　Ｉｎｔｅｒｎａｔｉｏｎａｌ合同会社,,合同会社,神奈川県,横浜市南区,永田山王台３番４０－４０９号,,14,105,2320074,,,,,,,2024-08-30,1,,,,,トゥルーパスインターナショナル,0
1132,6030001162194,新規,0,2024-08-30,2024-08-30,株式会社エンラックオン,,株式会社,埼玉県,上尾市,中妻３丁目８番地５,,11,219,3620072,,,,,,,2024-08-30,1,,,,,エンラックオン,0
1133,6030001162211,新規,0,2024-08-30,2024-08-30,株式会社ＳＴＩＬＴＳ,,株式会社,埼玉県,越谷市,花田４丁目１５番地１０,,11,222,3430015,,,,,,,2024-08-30,1,,,,,スティルツ,0
1143,6040001135182,新規,0,2024-08-30,2024-08-30,株式会社Ｒａｉｓｅ,,株式会社,千葉県,柏市,中央２丁目５番１５号花形コーポ１０１号室,,12,217,2770023,,,,,,,2024-08-30,1,,,,,レイズ,0
1158,6070003005570,新規,0,2024-08-30,2024-08-30,一電気設備合同会社,,合同会社,群馬県,前橋市,広瀬町２丁目４６－６,,10,201,3710812,,,,,,,2024-08-30,1,,,,,ハジメデンキセツビ,0
1162,6080103003135,新規,0,2024-08-30,2024-08-30,合同会社ままに,,合同会社,静岡県,駿東郡清水町,新宿８１９－１４,,22,341,4110901,,,,,,,2024-08-30,1,,,,,ママニ,0
1164,6090003002632,新規,0,2024-08-30,2024-08-30,合同会社学眞,,合同会社,山梨県,甲府市,塩部３丁目１５番１３号ステラコート山の手５０１号室,,19,201,4000026,,,,,,,2024-08-30,1,,,,,ガクシン,0
1166,6100001037752,新規,0,2024-08-30,2024-08-30,Ｌｏｃａｌ　Ｋｎｏｔ株式会社,,株式会社,長野県,長野市,中御所１丁目６－２,,20,201,3800935,,,,,,,2024-08-30,1,,,,,ローカルノット,0
1167,6100001037769,新規,0,2024-08-30,2024-08-30,株式会社幸友不動産,,株式会社,長野県,北佐久郡御代田町,大字御代田１７０３番地,,20,323,3890206,,,,,,,2024-08-30,1,,,,,コウユウフドウサン,0
1176,6120001268148,新規,0,2024-08-30,2024-08-30,向音株式会社,,株式会社,大阪府,大阪市住之江区,粉浜１丁目３番２５－２０１号,,27,125,5590001,,,,,,,2024-08-30,1,,,,,コウイン,0
1177,6120001268164,新規,0,2024-08-30,2024-08-30,ｓｎａｚｚｉｅｓｔ株式会社,,株式会社,大阪府,大阪市北区,梅田１丁目２番２号大阪駅前第２ビル１２－１２,,27,127,5300001,,,,,,,2024-08-30,1,,,,,スナズィエスト,0
1181,6130003009821,新規,0,2024-08-30,2024-08-30,合同会社プロネクト,,合同会社,京都府,宇治市,神明宮北４１番地の３７,,26,204,6110025,,,,,,,2024-08-30,1,,,,,プロネクト,0
1182,6140001135651,新規,0,2024-08-30,2024-08-30,Ｓｏｐｈ‐ＹＥＬＬ株式会社,,株式会社,兵庫県,西宮市,荒木町２１番２３－１０２号,,28,204,6638025,,,,,,,2024-08-30,1,,,,,ソフィエール,0
1187,6170001018291,新規,0,2024-08-30,2024-08-30,株式会社ＯＫＳ,,株式会社,和歌山県,和歌山市,三木町堀詰３８番地シティアーク三木町４１０号室,,30,201,6408107,,,,,,,2024-08-30,1,,,,,オーケーエス,0
1192,6180005020747,新規,0,2024-08-30,2024-08-30,一般社団法人再生医療安全推進委員会,,その他の設立登記法人,愛知県,名古屋市中村区,太閤１丁目２０番１０号４Ｆ,,23,105,4530801,,,,,,,2024-08-30,1,,,,,サイセイイリョウアンゼンスイシンイインカイ,0
1193,6180301039004,新規,0,2024-08-30,2024-08-30,株式会社キャッテリーエリシオン,,株式会社,愛知県,みよし市,三好町天王８４番地６,,23,236,4700224,,,,,,,2024-08-30,1,,,,,キャッテリーエリシオン,0
1198,6240005015815,新規,0,2024-08-30,2024-08-30,学校法人庄原こどもの夢学園,,その他の設立登記法人,広島県,庄原市,川北町１１４８番地,,34,210,7270203,,,,,,,2024-08-30,1,,,,,ショウバラコドモノユメガクエン,0
1199,6250003003556,新規,0,2024-08-30,2024-08-30,合同会社ＥＭＹＳＴＩ,,合同会社,山口県,下関市,南大坪町２６３番３６,,35,201,7500055,,,,,,,2024-08-30,1,,,,,エミスティ,0
1206,6290001106992,新規,0,2024-08-30,2024-08-30,株式会社アール・スリー,,株式会社,福岡県,筑紫野市,筑紫駅前通１丁目１３８番地１,,40,217,8180022,,,,,,,2024-08-30,1,,,,,アールスリー,0
1207,6290001107058,新規,0,2024-08-30,2024-08-30,Ｋ‐システム株式会社,,株式会社,福岡県,福岡市博多区,博多駅前１丁目２３番２号ＰａｒｋＦｒｏｎｔ博多駅前一丁目５Ｆ－Ｂ,,40,132,8120011,,,,,,,2024-08-30,1,,,,,ケイシステム,0
1208,6290001107082,新規,0,2024-08-30,2024-08-30,博恒株式会社,,株式会社,福岡県,福岡市南区,清水２丁目１３番４１号,,40,134,8150031,,,,,,,2024-08-30,1,,,,,ハクコウ,0
1209,6290001107090,新規,0,2024-08-30,2024-08-30,天堯株式会社,,株式会社,福岡県,福岡市博多区,博多駅前３丁目２７番２５号第二岡部ビル８・９階,,40,132,8120011,,,,,,,2024-08-30,1,,,,,テンギョウ,0
1210,6290001107099,新規,0,2024-08-30,2024-08-30,ＳＡＬＩＣＥ株式会社,,株式会社,福岡県,福岡市中央区,荒戸３丁目１番５－１００１号,,40,133,8100062,,,,,,,2024-08-30,1,,,,,サリーチェ,0
1211,6290003015762,新規,0,2024-08-30,2024-08-30,合同会社ｃｏｃｈｉ,,合同会社,福岡県,福岡市中央区,大名２丁目６番１１号ＦｕｋｕｏｋａＧｒｏｗｔｈＮｅｘｔ,,40,133,8100041,,,,,,,2024-08-30,1,,,,,コチ,0
1214,6310005008794,新規,0,2024-08-30,2024-08-30,一般社団法人長崎聖福寺修復協力会,,その他の設立登記法人,長崎県,長崎市,上町１番２５号ドムス桜２０２号,,42,201,8500054,,,,,,,2024-08-30,1,,,,,ナガサキショウフクジシュウフクキョウリョクカイ,0
1215,6330001032417,新規,0,2024-08-30,2024-08-30,株式会社ＮｏＷａｌｌｓ,,株式会社,熊本県,熊本市中央区,京町２丁目７番１５－３号,,43,101,8600078,,,,,,,2024-08-30,1,,,,,ノーウォールズ,0
1221,6390001017726,新規,0,2024-08-30,2024-08-30,株式会社Ｔｒａｎｓｃｅｎｄｅｎｔ,,株式会社,山形県,米沢市,中央１丁目４番１８号,,06,202,9920045,,,,,,,2024-08-30,1,,,,,トランセンデント,0
1225,6430003016738,新規,0,2024-08-30,2024-08-30,エルム合同会社,,合同会社,北海道,札幌市北区,北二十一条西１３丁目４番４号,,01,102,0010021,,,,,,,2024-08-30,1,,,,,エルム,0
1228,6450001014394,新規,0,2024-08-30,2024-08-30,株式会社ライズホーム,,株式会社,北海道,旭川市,西御料二条２丁目１１番５号,,01,204,0788822,,,,,,,2024-08-30,1,,,,,ライズホーム,0
1229,6460003001010,新規,0,2024-08-30,2024-08-30,ＧＥＮＥＲＡＬ　ＳＴＯＲＥ　ＹＵＫＩＴＡ‐ＴＩＲＥ合同会社,,合同会社,北海道,厚岸郡浜中町,茶内橋北西１１３番地,,01,663,0881366,,,,,,,2024-08-30,1,,,,,ゼネラルストアユキタタイヤ,0
1245,7010001247384,新規,0,2024-08-30,2024-08-30,浜海株式会社,,株式会社,東京都,文京区,白山１丁目６－４同栄マンション２階文京ＶＥＮＴＵＲＥＢＡＳＥ２０６号室,,13,105,1130001,,,,,,,2024-08-30,1,,,,,ハマウミ,0
1246,7010001247896,新規,0,2024-08-30,2024-08-30,ＭＥＬＡＮＯＯＳＰＯＲＵＭ株式会社,,株式会社,東京都,中央区,日本橋室町４丁目３番９号,,13,102,1030022,,,,,,,2024-08-30,1,,,,,メラノスポロン,0
1247,7010001247921,新規,0,2024-08-30,2024-08-30,株式会社レクト,,株式会社,東京都,千代田区,神田和泉町１番地６－１６ヤマトビル４０５,,13,101,1010024,,,,,,,2024-08-30,1,,,,,レクト,0
1252,7010003044755,新規,0,2024-08-30,2024-08-30,合同会社みどりやか,,合同会社,東京都,文京区,本郷３丁目３８番１０号さかえビル２Ｆ,,13,105,1130033,,,,,,,2024-08-30,1,,,,,ミドリヤカ,0
1256,7010005038730,新規,0,2024-08-30,2024-08-30,札幌ステーションフロント一般社団法人,,その他の設立登記法人,東京都,千代田区,丸の内１丁目４番１号東京共同会計事務所内,,13,101,1000005,,,,,,,2024-08-30,1,,,,,サッポロステーションフロント,0
1257,7010101016301,新規,0,2024-08-30,2024-08-30,ＴＡＩＦ株式会社,,株式会社,東京都,八王子市,南大沢２丁目２１３番地９パークハウス南大沢４０１号室,,13,201,1920364,,,,,,,2024-08-30,1,,,,,タイフ,0
1261,7010401184748,新規,0,2024-08-30,2024-08-30,株式会社ブブジ,,株式会社,東京都,港区,南青山３丁目１番３６号青山丸竹ビル６階,,13,103,1070062,,,,,,,2024-08-30,1,,,,,ブブジ,0
1262,7010403033309,新規,0,2024-08-30,2024-08-30,アンドゥ・トロワーズ合同会社,,合同会社,東京都,港区,南青山３丁目１－３６青山丸竹ビル６Ｆ,,13,103,1070062,,,,,,,2024-08-30,1,,,,,アンドゥトロワーズ,0
1263,7010403033317,新規,0,2024-08-30,2024-08-30,スピークジャパン合同会社,,合同会社,東京都,港区,元麻布３丁目１番６号,,13,103,1060046,,,,,,,2024-08-30,1,,,,,スピークジャパン,0
1264,7010403033325,新規,0,2024-08-30,2024-08-30,Ｓｋｙアセットホールディングス合同会社,,合同会社,東京都,港区,六本木６丁目１５番１号六本木ヒルズけやき坂テラス６階,,13,103,1060032,,,,,,,2024-08-30,1,,,,,スカイアセットホールディングス,0
1272,7010901055878,新規,0,2024-08-30,2024-08-30,株式会社Ｓプラス,,株式会社,東京都,世田谷区,鎌田３丁目１５番７号,,13,112,1570077,,,,,,,2024-08-30,1,,,,,エスプラス,0
1278,7011005010638,新規,0,2024-08-30,2024-08-30,一般社団法人ザ・ワールドダンサーズ,,その他の設立登記法人,東京都,渋谷区,宇田川町２８番３号Ａ２ビル７Ｆクワバラダンススクール,,13,113,1500042,,,,,,,2024-08-30,1,,,,,ザワールドダンサーズ,0
1284,7011101108600,新規,0,2024-08-30,2024-08-30,株式会社Ｍｕｓｉｃｉａｎ,,株式会社,東京都,新宿区,新小川町５番４号ＮＩＣビル１階,,13,104,1620814,,,,,,,2024-08-30,1,,,,,ミュージシャン,0
1286,7011203004474,新規,0,2024-08-30,2024-08-30,合同会社ＶＬＡＤＩＡＮＱＺ,,合同会社,東京都,中野区,新井１丁目１６番１４号ＣＩＣＡＤＡＮＡＫＡＮＯ２０３,,13,114,1650026,,,,,,,2024-08-30,1,,,,,ブラディアンズ,0
1289,7011503006204,新規,0,2024-08-30,2024-08-30,ＯＮＥ　ＦＡＭＩＬＹ合同会社,,合同会社,東京都,北区,赤羽１丁目６５番１１－６０２号,,13,117,1150045,,,,,,,2024-08-30,1,,,,,ワンファミリー,0
1293,7011801044789,新規,0,2024-08-30,2024-08-30,株式会社ＫＶＬ,,株式会社,東京都,足立区,足立２丁目４３番地１８プライヴェル足立パークフロント８０２,,13,121,1200015,,,,,,,2024-08-30,1,,,,,ケーブイエル,0
1295,7012401042233,新規,0,2024-08-30,2024-08-30,株式会社Ｃｒｅｓｃｅｎｔ,,株式会社,東京都,三鷹市,上連雀７丁目３２番１４号,,13,204,1810012,,,,,,,2024-08-30,1,,,,,クレセント,0
1301,7013305003635,新規,0,2024-08-30,2024-08-30,一般社団法人ＮＥＯ　ＪＡＰＡＮ,,その他の設立登記法人,東京都,豊島区,南大塚２丁目２５番１５号Ｓｏｕｔｈ新大塚ビル１２Ｆ,,13,116,1700005,,,,,,,2024-08-30,1,,,,,ネオジャパン,0
1308,7020001158804,新規,0,2024-08-30,2024-08-30,株式会社パん,,株式会社,神奈川県,川崎市麻生区,片平１丁目５－４２,,14,137,2150023,,,,,,,2024-08-30,1,,,,,パン,0
1309,7020001158812,新規,0,2024-08-30,2024-08-30,株式会社Ｃｈｅｒｒｙ　Ｂｅａｒ,,株式会社,神奈川県,横浜市西区,みなとみらい４丁目４番２号横浜ブルーアベニュー１２階,,14,103,2200012,,,,,,,2024-08-30,1,,,,,チェリーベア,0
1310,7020001158845,新規,0,2024-08-30,2024-08-30,株式会社ＫＥＭ,,株式会社,神奈川県,横浜市旭区,善部町１３８番地２７,,14,112,2410823,,,,,,,2024-08-30,1,,,,,ケム,0
1312,7020003026760,新規,0,2024-08-30,2024-08-30,合同会社ＴＯＫＯ,,合同会社,神奈川県,川崎市宮前区,神木本町４丁目１７－６ミヤマ１－１０２,,14,136,2160031,,,,,,,2024-08-30,1,,,,,トコ,0
1314,7021001083109,新規,0,2024-08-30,2024-08-30,ニシノホールディングス株式会社,,株式会社,神奈川県,相模原市中央区,星が丘４丁目１番１９号,,14,152,2520238,,,,,,,2024-08-30,1,,,,,ニシノホールディングス,0
1328,7030003025019,新規,0,2024-08-30,2024-08-30,合同会社Ｓｕｎ　Ｒｏａｄ,,合同会社,埼玉県,桶川市,大字上日出谷１３１９番地の５,,11,231,3630026,,,,,,,2024-08-30,1,,,,,サンロード,0
1336,7040001135157,新規,0,2024-08-30,2024-08-30,株式会社仲とうや醸造所,,株式会社,千葉県,柏市,新十余二５番地,,12,217,2770804,,,,,,,2024-08-30,1,,,,,ナカトウヤジョウゾウショ,0
1337,7040001135181,新規,0,2024-08-30,2024-08-30,株式会社Ｍｉｒａｂｅｌ,,株式会社,千葉県,八千代市,萱田町５１７番地１４,,12,221,2760044,,,,,,,2024-08-30,1,,,,,ミラベル,0
1347,7080101024982,新規,0,2024-08-30,2024-08-30,株式会社ファイナンシャルボランチ,,株式会社,静岡県,三島市,中央町６－２みしま未来研究所内,,22,206,4110858,,,,,,,2024-08-30,1,,,,,ファイナンシャルボランチ,0
1349,7080403005086,新規,0,2024-08-30,2024-08-30,合同会社カネコ,,合同会社,静岡県,袋井市,久能１７５８番地の９,,22,216,4370061,,,,,,,2024-08-30,1,,,,,カネコ,0
1353,7120001268155,新規,0,2024-08-30,2024-08-30,株式会社ＴＵＲＴＬＥ　ｔｗｏ　Ｌ,,株式会社,大阪府,大阪市都島区,都島本通１丁目７番１９号都島楠風ビル５０６,,27,102,5340021,,,,,,,2024-08-30,1,,,,,タートルツーエル,0
1354,7120001268196,新規,0,2024-08-30,2024-08-30,株式会社ＡＩ　Ｓａｌｅｓ総合研究所,,株式会社,大阪府,大阪市中央区,平野町３丁目１番６号ＢｉｚＭｉｉＸ・Ｙｏｄｏｙａｂａｓｈｉ４階,,27,128,5410046,,,,,,,2024-08-30,1,,,,,エーアイセールスソウゴウケンキュウショ,0
1355,7120005024521,新規,0,2024-08-30,2024-08-30,一般社団法人グリーン,,その他の設立登記法人,大阪府,大阪市平野区,平野市町１丁目１番１０号,,27,126,5470042,,,,,,,2024-08-30,1,,,,,グリーン,0
1358,7120103006025,新規,0,2024-08-30,2024-08-30,合同会社ＴＥＮＭＥＩ,,合同会社,大阪府,大阪狭山市,西山台５丁目１番４－３０６号,,27,231,5890022,,,,,,,2024-08-30,1,,,,,テンメイ,0
1359,7120901049679,新規,0,2024-08-30,2024-08-30,株式会社フローレスラボ,,株式会社,大阪府,豊中市,新千里南町３丁目８番１２－５１４号,,27,203,5600084,,,,,,,2024-08-30,1,,,,,フローレスラボ,0
1360,7120901049704,新規,0,2024-08-30,2024-08-30,フィルブリッジ株式会社,,株式会社,大阪府,箕面市,牧落２丁目２２番４号,,27,220,5620004,,,,,,,2024-08-30,1,,,,,フィルブリッジ,0
1365,7130001077828,新規,0,2024-08-30,2024-08-30,株式会社大山建材,,株式会社,京都府,京田辺市,興戸塚ノ本６７番地の８,00136126,26,211,6100332,,,,,,,2024-08-30,1,,,,,オオヤマケンザイ,0
1366,7130001077836,新規,0,2024-08-30,2024-08-30,株式会社Ｒ’ｓ,,株式会社,京都府,京都市南区,上鳥羽北島田町７－２,,26,107,6018182,,,,,,,2024-08-30,1,,,,,アールズ,0
1372,7140003021023,新規,0,2024-08-30,2024-08-30,ＡＲＴＰＡＲＫ合同会社,,合同会社,兵庫県,高砂市,高砂町農人町１８８２番地,,28,216,6760061,,,,,,,2024-08-30,1,,,,,アートパーク,0
1373,7160001026187,新規,0,2024-08-30,2024-08-30,株式会社ココア,,株式会社,滋賀県,草津市,下笠町１１６５番地２,,25,206,5250029,,,,,,,2024-08-30,1,,,,,ココア,0
1377,7170001018290,新規,0,2024-08-30,2024-08-30,株式会社稲垣,,株式会社,和歌山県,日高郡日高町,大字志賀２０－１,,30,382,6491221,,,,,,,2024-08-30,1,,,,,イナガキ,0
1379,7180001163037,新規,0,2024-08-30,2024-08-30,ＧＩＭ株式会社,,株式会社,愛知県,名古屋市中川区,長良町１丁目１８番地ＧＲＡＺＩＯＳＯ４０５号,,23,110,4540815,,,,,,,2024-08-30,1,,,,,ジーアイエム,0
1380,7180001163061,新規,0,2024-08-30,2024-08-30,株式会社てしごと屋,,株式会社,愛知県,瀬戸市,赤津町５９番地の２１,,23,204,4890022,,,,,,,2024-08-30,1,,,,,テシゴトヤ,0
1381,7180001163078,新規,0,2024-08-30,2024-08-30,株式会社ＡＡＮ　ＴＲＡＤＥＲＳ,,株式会社,愛知県,犬山市,字郷中２３８番地１,,23,215,4840014,,,,,,,2024-08-30,1,,,,,エーエーエヌトレーダーズ,0
1387,7180003027207,新規,0,2024-08-30,2024-08-30,合同会社ＮＡＫＡＧＡＷＡ,,合同会社,愛知県,名古屋市中川区,川前町１７５,,23,110,4540916,,,,,,,2024-08-30,1,,,,,ナカガワ,0
1392,7180301039003,新規,0,2024-08-30,2024-08-30,株式会社好建デベロップメント,,株式会社,愛知県,みよし市,三好町天王８４番地６,,23,236,4700224,,,,,,,2024-08-30,1,,,,,コウケンデベロップメント,0
1394,7190001031597,新規,0,2024-08-30,2024-08-30,株式会社亀山銃砲火薬店,,株式会社,三重県,亀山市,辺法寺町２０５番地,,24,210,5190221,,,,,,,2024-08-30,1,,,,,カメヤマジュウホウカヤクテン,0
1400,7210003001835,新規,0,2024-08-30,2024-08-30,Ａｌｌ‐Ｉｎ合同会社,,合同会社,福井県,敦賀市,新松島町１番１０号,,18,202,9140803,,,,,,,2024-08-30,1,,,,,オールイン,0
1403,7220001026180,新規,0,2024-08-30,2024-08-30,株式会社Ｓ．Ｒ．ｓｙｓｔｅｍ,,株式会社,石川県,金沢市,横川２丁目１２３番地ルポゼ・Ｉ号,,17,201,9218163,,,,,,,2024-08-30,1,,,,,エスアールシステム,0
1405,7230001020505,新規,0,2024-08-30,2024-08-30,株式会社ＡＵＴＯ　ＡＲＴＩＳＡＮＳ,,株式会社,富山県,富山市,上野新町１２番１２号,,16,201,9318326,,,,,,,2024-08-30,1,,,,,オートアーティサンス,0
1414,7270003001664,新規,0,2024-08-30,2024-08-30,汐彦合同会社,,合同会社,鳥取県,境港市,米川町２２１番地,,31,204,6840061,,,,,,,2024-08-30,1,,,,,シオヒコ,0
1415,7280001009246,新規,0,2024-08-30,2024-08-30,株式会社佐香運送,,株式会社,島根県,出雲市,園町１２６１番地,,32,203,6910076,,,,,,,2024-08-30,1,,,,,サカウンソウ,0
1420,7290001107073,新規,0,2024-08-30,2024-08-30,テックインフォ株式会社,,株式会社,福岡県,福岡市博多区,博多駅前１丁目２３番２号ＰａｒｋＦｒｏｎｔ博多駅前１丁目５Ｆ－Ｂ,,40,132,8120011,,,,,,,2024-08-30,1,,,,,テックインフォ,0
1421,7290001107123,新規,0,2024-08-30,2024-08-30,株式会社Ａｌｄｅｂａｒａｎ,,株式会社,福岡県,福岡市南区,高宮５丁目２０番２４－２０２号,,40,134,8150083,,,,,,,2024-08-30,1,,,,,アルデバラン,0
1434,7400001016774,新規,0,2024-08-30,2024-08-30,株式会社桜羽ステラス,,株式会社,岩手県,遠野市,遠野町４１地割３番地ｖｉｏｌａ１０５号室,,03,208,0280514,,,,,,,2024-08-30,1,,,,,オウウステラス,0
1445,7500003003315,新規,0,2024-08-30,2024-08-30,合同会社希望,,合同会社,愛媛県,松山市,北井門４丁目２４番８号カルムＩ２０２号,00136133,38,201,7911105,,,,,,,2024-08-30,1,,,,,キボウ,0
1449,8010001247821,新規,0,2024-08-30,2024-08-30,土谷インテリジェンス株式会社,,株式会社,東京都,中央区,銀座１丁目１２－４Ｎ＆ＥＢＬＤ．７階,,13,102,1040061,,,,,,,2024-08-30,1,,,,,ツチヤインテリジェンス,0
1450,8010001247854,新規,0,2024-08-30,2024-08-30,株式会社Ｃｅｌｅｓｔｅ,,株式会社,東京都,中央区,日本橋堀留町２丁目９番１－２０３号,,13,102,1030012,,,,,,,2024-08-30,1,,,,,セレスト,0
1451,8010001247887,新規,0,2024-08-30,2024-08-30,株式会社ＭＳファースト,,株式会社,東京都,中央区,銀座８丁目５番１０号金成ビル７Ｆ,,13,102,1040061,,,,,,,2024-08-30,1,,,,,エムエスファースト,0
1452,8010001247920,新規,0,2024-08-30,2024-08-30,株式会社バパウス,,株式会社,東京都,中央区,銀座１丁目１２－４Ｎ＆ＥＢＬＤ．７階,,13,102,1040061,,,,,,,2024-08-30,1,,,,,バパウス,0
1453,8010003044696,新規,0,2024-08-30,2024-08-30,喬木商事合同会社,,合同会社,東京都,千代田区,神田神保町２丁目３４番地１・鳴海ビル２１０号室,,13,101,1010051,,,,,,,2024-08-30,1,,,,,キョウギショウジ,0
1454,8010003044746,新規,0,2024-08-30,2024-08-30,御殿場ティー・エス・イー合同会社,,合同会社,東京都,千代田区,丸の内１丁目４番１号東京共同会計事務所内,,13,101,1000005,,,,,,,2024-08-30,1,,,,,ゴテンバティーエスイー,0
1455,8010003044770,新規,0,2024-08-30,2024-08-30,香杏堂漢方薬局合同会社,,合同会社,東京都,中央区,日本橋室町１丁目１１番１２号日本橋水野ビル７階,,13,102,1030022,,,,,,,2024-08-30,1,,,,,コウアンドウカンポウヤッキョク,0
1457,8010005038738,新規,0,2024-08-30,2024-08-30,一般社団法人銀河第１０号,,その他の設立登記法人,東京都,中央区,日本橋１丁目４番１号日本橋一丁目ビルディング,,13,102,1030027,,,,,,,2024-08-30,1,,,,,ギンガダイジュウゴウ,0
1462,8010401184565,新規,0,2024-08-30,2024-08-30,株式会社４ｏａｋ,,株式会社,東京都,港区,赤坂２丁目１３－２３赤坂ＭＹビル３Ｆ,,13,103,1070052,,,,,,,2024-08-30,1,,,,,フォーオブアカインド,0
1464,8010403033316,新規,0,2024-08-30,2024-08-30,Ｉｎｃａ　Ｈｏｌｄｉｎｇｓ　Ｊａｐａｎ合同会社,,合同会社,東京都,港区,北青山３丁目６番７号青山パラシオタワー１１階,,13,103,1070061,,,,,,,2024-08-30,1,,,,,インカホールディングスジャパン,0
1472,8010601065838,新規,0,2024-08-30,2024-08-30,株式会社Ｈｅｌｉｏｓ,,株式会社,東京都,墨田区,業平１丁目８－３,,13,107,1300002,,,,,,,2024-08-30,1,,,,,ヘリオス,0
1473,8010605004370,新規,0,2024-08-30,2024-08-30,一般社団法人光寿会,,その他の設立登記法人,東京都,江東区,豊洲４丁目２番３号,,13,108,1350061,,,,,,,2024-08-30,1,,,,,コウジュカイ,0
1474,8010701046473,新規,0,2024-08-30,2024-08-30,株式会社ＮＩＢＵＮＮＯＩＣＨＩ　ＢＡＬＣＯＮＹ,,株式会社,東京都,品川区,中延４丁目６番６号,,13,109,1420053,,,,,,,2024-08-30,1,,,,,ニブンノイチバルコニー,0
1490,8011301029959,新規,0,2024-08-30,2024-08-30,株式会社ＲＵＴＳＵＢＯＷＯＲＫＳ,,株式会社,東京都,杉並区,梅里１丁目５番１５号,,13,115,1660011,,,,,,,2024-08-30,1,,,,,ルツボワークス,0
1493,8011701027587,新規,0,2024-08-30,2024-08-30,ＣＡＹＡ株式会社,,株式会社,東京都,江戸川区,江戸川６丁目４０番１４－１０２号,,13,123,1340013,,,,,,,2024-08-30,1,,,,,カヤ,0
1495,8011801044771,新規,0,2024-08-30,2024-08-30,天楽行株式会社,,株式会社,東京都,足立区,六月１丁目１５－１８－２０５,,13,121,1210814,,,,,,,2024-08-30,1,,,,,テンラクコウ,0
1499,8012403006730,新規,0,2024-08-30,2024-08-30,合同会社Ｍｏｕｈａｎｄ,,合同会社,東京都,武蔵野市,桜堤３丁目３７－１７,,13,203,1800021,,,,,,,2024-08-30,1,,,,,マウハンド,0
1502,8013301053055,新規,0,2024-08-30,2024-08-30,インシュラントグループ株式会社,,株式会社,東京都,豊島区,西池袋１丁目４番１０号,,13,116,1710021,,,,,,,2024-08-30,1,,,,,インシュラントグループ,0
1506,8020001158811,新規,0,2024-08-30,2024-08-30,株式会社サニー,,株式会社,神奈川県,横浜市南区,中村町５丁目３３８番地,,14,105,2320033,,,,,,,2024-08-30,1,,,,,サニー,0
1507,8020001158844,新規,0,2024-08-30,2024-08-30,株式会社アクアヒート,,株式会社,神奈川県,川崎市川崎区,砂子１丁目２－１２－３０２,,14,131,2100006,,,,,,,2024-08-30,1,,,,,アクアヒート,0
1508,8020001158860,新規,0,2024-08-30,2024-08-30,株式会社若杉企画,,株式会社,神奈川県,横浜市南区,三春台９７番地,,14,105,2320002,,,,,,,2024-08-30,1,,,,,ワカスギキカク,0
1509,8020001158976,新規,0,2024-08-30,2024-08-30,株式会社マイシン,,株式会社,神奈川県,川崎市麻生区,栗木台２丁目８番２０－１号,,14,137,2150032,,,,,,,2024-08-30,1,,,,,マイシン,0
1513,8020003026768,新規,0,2024-08-30,2024-08-30,Ａｉｄ　Ｂｒｉｄｇｅ合同会社,,合同会社,神奈川県,横浜市西区,浅間町１丁目４番３号ウィザードビル４０２,,14,103,2200072,,,,,,,2024-08-30,1,,,,,エイドブリッジ,0
1518,8030001162192,新規,0,2024-08-30,2024-08-30,株式会社ＴｏＫｏＬｉａ,,株式会社,埼玉県,所沢市,くすのき台３丁目７４７－１,,11,208,3590037,,,,,,,2024-08-30,1,,,,,トコリア,0
1519,8030001162226,新規,0,2024-08-30,2024-08-30,株式会社きらら,,株式会社,埼玉県,三郷市,三郷１丁目１９番地２１,,11,237,3410024,,,,,,,2024-08-30,1,,,,,キララ,0
1520,8030001162234,新規,0,2024-08-30,2024-08-30,ふるさと再生株式会社,,株式会社,埼玉県,東松山市,大字今泉５９９番地,,11,212,3550042,,,,,,,2024-08-30,1,,,,,フルサトサイセイ,0
1522,8030003025018,新規,0,2024-08-30,2024-08-30,合同会社一花,,合同会社,埼玉県,行田市,持田２丁目１番２０－２号,,11,206,3610056,,,,,,,2024-08-30,1,,,,,ヒトハナ,0
1534,8040003025727,新規,0,2024-08-30,2024-08-30,ファインジョブ合同会社,,合同会社,千葉県,千葉市中央区,新千葉１丁目７―２,,12,101,2600031,,,,,,,2024-08-30,1,,,,,ファインジョブ,0
1536,8050005013480,新規,0,2024-08-30,2024-08-30,霞ヶ浦レイクコーポ管理組合法人,,その他の設立登記法人,茨城県,土浦市,港町１丁目１番１１号霞ヶ浦レイクコーポ２０７号室,,08,203,3000034,,,,,,,2024-08-30,1,,,,,カスミガウラレイクコーポ,0
1540,8070001042119,新規,0,2024-08-30,2024-08-30,株式会社タッキー,,株式会社,群馬県,高崎市,吉井町吉井川４６３番地１０,,10,202,3702133,,,,,,,2024-08-30,1,,,,,タッキー,0
1542,8070003005569,新規,0,2024-08-30,2024-08-30,合同会社ＰｌｕｓＳｔｙｌｅ,,合同会社,群馬県,太田市,清原町１－９,,10,205,3730012,,,,,,,2024-08-30,1,,,,,,0
1543,8080001026467,新規,0,2024-08-30,2024-08-30,ＡＢファーム株式会社,,株式会社,静岡県,牧之原市,相良２６４番地の６,,22,226,4210522,,,,,,,2024-08-30,1,,,,,,0
1551,8110001038673,新規,0,2024-08-30,2024-08-30,株式会社エールタウン,,株式会社,新潟県,柏崎市,岩上２０番７３号,,15,205,9450811,,,,,,,2024-08-30,1,,,,,エールタウン,0
1564,8120001268105,新規,0,2024-08-30,2024-08-30,日升メンテ株式会社,,株式会社,大阪府,大阪市阿倍野区,昭和町４丁目１０番１６号,,27,119,5450011,,,,,,,2024-08-30,1,,,,,ニッショウメンテ,0
1565,8120001268121,新規,0,2024-08-30,2024-08-30,株式会社Ｂ‐ｃｌａｓｓ,,株式会社,大阪府,大阪市北区,梅田１丁目２番２号大阪駅前第２ビル１２－１２,,27,127,5300001,,,,,,,2024-08-30,1,,,,,ビークラス,0
1566,8120001268146,新規,0,2024-08-30,2024-08-30,森源頌鉢貿易株式会社,,株式会社,大阪府,大阪市住之江区,粉浜１丁目３番２５－２０５号,,27,125,5590001,,,,,,,2024-08-30,1,,,,,シンゲンショウハツボウエキ,0
1567,8120001268162,新規,0,2024-08-30,2024-08-30,株式会社Ｅｒｆｏｌｇ,,株式会社,大阪府,大阪市西区,江戸堀１丁目２５番２７－２０４号,,27,106,5500002,,,,,,,2024-08-30,1,,,,,エアフォルク,0
1568,8120001268170,新規,0,2024-08-30,2024-08-30,株式会社Ｗサポート,,株式会社,大阪府,大阪市平野区,長吉六反４丁目４番３３号,,27,126,5470012,,,,,,,2024-08-30,1,,,,,ダブルサポート,0
1569,8120001268187,新規,0,2024-08-30,2024-08-30,ＦＬＩＮＳＥＮ株式会社,,株式会社,大阪府,大阪市平野区,瓜破２丁目１番４８号,,27,126,5470024,,,,,,,2024-08-30,1,,,,,フリンセン,0
1572,8120005024512,新規,0,2024-08-30,2024-08-30,一般社団法人日本がん患者支援協会,,その他の設立登記法人,大阪府,大阪市淀川区,宮原３丁目３番３４号新大阪ＤＯＩビル８階,,27,123,5320003,,,,,,,2024-08-30,1,,,,,ニホンガンカンジャシエンキョウカイ,0
1579,8122001038405,新規,0,2024-08-30,2024-08-30,株式会社新井テクノ,,株式会社,大阪府,東大阪市,柏田西３丁目９番２２号,,27,227,5770835,,,,,,,2024-08-30,1,,,,,アライテクノ,0
1580,8122003002978,新規,0,2024-08-30,2024-08-30,合同会社ＴＴＣ,,合同会社,大阪府,東大阪市,大蓮東４丁目１３番１９号,,27,227,5770824,,,,,,,2024-08-30,1,,,,,ティティシ,0
1582,8130001077819,新規,0,2024-08-30,2024-08-30,ことコンサルティング株式会社,,株式会社,京都府,京都市中京区,西ノ京南聖町２１番地９津田ビル４階,,26,104,6048412,,,,,,,2024-08-30,1,,,,,コトコンサルティング,0
1583,8130001077835,新規,0,2024-08-30,2024-08-30,株式会社Ｇ．Ｇ,,株式会社,京都府,京都市山科区,大塚西浦町３－５７,,26,110,6078125,,,,,,,2024-08-30,1,,,,,ジージー,0
1587,8140001135641,新規,0,2024-08-30,2024-08-30,株式会社Ｃ‐Ｐｌｕｓ,,株式会社,兵庫県,神戸市東灘区,本山北町３丁目５番３号山本ビル１Ｆ東,,28,101,6580003,,,,,,,2024-08-30,1,,,,,シープラス,0
1588,8140001135658,新規,0,2024-08-30,2024-08-30,株式会社Ｓｈｉｍ,,株式会社,兵庫県,神戸市中央区,海岸通３丁目１番５号,,28,110,6500024,,,,,,,2024-08-30,1,,,,,シム,0
1594,8180001163069,新規,0,2024-08-30,2024-08-30,株式会社コスモスインターナショナル,,株式会社,愛知県,東海市,大田町呉天石１０３５番地,,23,222,4770031,,,,,,,2024-08-30,1,,,,,コスモスインターナショナル,0
1598,8180003027247,新規,0,2024-08-30,2024-08-30,合同会社Ｆｉｆｔｙ‐Ｔｗｏ,,合同会社,愛知県,春日井市,出川町３丁目１１－３グランドゥール出川３０３,,23,206,4870025,,,,,,,2024-08-30,1,,,,,フィフティーツー,0
1599,8180003027296,新規,0,2024-08-30,2024-08-30,エフエフテクノス合同会社,,合同会社,愛知県,名古屋市昭和区,山手通１丁目１７番地の１,,23,107,4660815,,,,,,,2024-08-30,1,,,,,エフエフテクノス,0
1601,8180301039002,新規,0,2024-08-30,2024-08-30,株式会社好建コーポレーション,,株式会社,愛知県,みよし市,三好町天王８４番地６,,23,236,4700224,,,,,,,2024-08-30,1,,,,,コウケンコーポレーション,0
1606,8210001019894,新規,0,2024-08-30,2024-08-30,ＹＧＹＬ日本外国語学院株式会社,,株式会社,福井県,福井市,月見４丁目４番９号,,18,201,9188011,,,,,,,2024-08-30,1,,,,,ワイジーワイエルニホンガイコクゴガクイン,0
1616,8290001107007,新規,0,2024-08-30,2024-08-30,株式会社ユースクイード,,株式会社,福岡県,福岡市西区,能古２４２－１,,40,135,8190012,,,,,,,2024-08-30,1,,,,,ユースクイード,0
1617,8290001107072,新規,0,2024-08-30,2024-08-30,株式会社ＡＣ企画,,株式会社,福岡県,福岡市中央区,高砂２丁目１０番１３－１００１号,,40,133,8100011,,,,,,,2024-08-30,1,,,,,エーシーキカク,0
1618,8290001107097,新規,0,2024-08-30,2024-08-30,ＴＨＥ　ＡＲＴ株式会社,,株式会社,福岡県,飯塚市,津原７０８番地７,,40,205,8200086,,,,,,,2024-08-30,1,,,,,ザアート,0
1619,8290801030845,新規,0,2024-08-30,2024-08-30,株式会社サステナ・アグリ・ソリューション,,株式会社,福岡県,北九州市戸畑区,新池１丁目５番１－１１０４号,,40,105,8040082,,,,,,,2024-08-30,1,,,,,サステナアグリソリューション,0
1626,8370001051683,新規,0,2024-08-30,2024-08-30,北道産業株式会社,,株式会社,宮城県,白石市,大鷹沢大町字矢ノ口下５１番地の１,,04,206,9890212,,,,,,,2024-08-30,1,,,,,ホクドウサンギョウ,0
1636,8400001016773,新規,0,2024-08-30,2024-08-30,株式会社ＴＳＵＮＯ,,株式会社,岩手県,滝沢市,鵜飼鬼越１６番地１１１,,03,216,0200686,,,,,,,2024-08-30,1,,,,,ツノ,0
1639,8430001092572,新規,0,2024-08-30,2024-08-30,Ｆａｃｉｌｉ‐ｐｏｒｔ株式会社,,株式会社,北海道,札幌市北区,北十条西３丁目２３番地１ＴＨＥ　ＰＥＡＫ　ＳＡＰＰＯＲＯ１階ＢＩＺｃｏｍｆｏｒｔ,,01,102,0010010,,,,,,,2024-08-30,1,,,,,ファシリポート,0
1647,9010001247894,新規,0,2024-08-30,2024-08-30,株式会社ブリッジハイ,,株式会社,東京都,千代田区,外神田４丁目５番４号,,13,101,1010021,,,,,,,2024-08-30,1,,,,,ブリッジハイ,0
1648,9010001247936,新規,0,2024-08-30,2024-08-30,たからやま醸造株式会社,,株式会社,東京都,中央区,日本橋室町２丁目４番３号日本橋室町野村ビル３階,,13,102,1030022,,,,,,,2024-08-30,1,,,,,タカラヤマジョウゾウ,0
1653,9010005038729,新規,0,2024-08-30,2024-08-30,一般社団法人キッズアイシングプロジェクト,,その他の設立登記法人,東京都,中央区,銀座３丁目１７番１４号,,13,102,1040061,,,,,,,2024-08-30,1,,,,,キッズアイシングプロジェクト,0
1654,9010005038737,新規,0,2024-08-30,2024-08-30,ＮＧＰ一般社団法人,,その他の設立登記法人,東京都,中央区,日本橋１丁目４番１号日本橋一丁目ビルディング,,13,102,1030027,,,,,,,2024-08-30,1,,,,,エヌジーピー,0
1662,9010401184762,新規,0,2024-08-30,2024-08-30,株式会社ＮａｂｉＲｅｙ,,株式会社,東京都,港区,南青山２丁目２番１５号ウィン青山９４２,,13,103,1070062,,,,,,,2024-08-30,1,,,,,ナビレイ,0
1663,9010401184779,新規,0,2024-08-30,2024-08-30,コネクトリー株式会社,,株式会社,東京都,港区,赤坂２丁目２２番２０－２０１号,,13,103,1070052,,,,,,,2024-08-30,1,,,,,コネクトリー,0
1664,9010401184845,新規,0,2024-08-30,2024-08-30,株式会社播磨商事,,株式会社,東京都,港区,白金３丁目１６番９号メヌエット白金３０２,,13,103,1080072,,,,,,,2024-08-30,1,,,,,ハリマショウジ,0
1667,9010405023487,新規,0,2024-08-30,2024-08-30,一般社団法人ＵＮＩＶ．ＣＡＭＢＲＩＤＧＥ　ＪＡＰＡＮ　ＡＣＡＤＥＭＹ,,その他の設立登記法人,東京都,港区,赤坂３丁目５番５号ストロング赤坂ビル６階,,13,103,1070052,,,,,,,2024-08-30,1,,,,,ユニバケンブリッジジャパンアカデミー,0
1677,9010801035359,新規,0,2024-08-30,2024-08-30,カイモジ株式会社,,株式会社,東京都,大田区,山王４丁目２０番１２号,,13,111,1430023,,,,,,,2024-08-30,1,,,,,カイモジ,0
1679,9010901055884,新規,0,2024-08-30,2024-08-30,株式会社ＶＩＤＡ,,株式会社,東京都,世田谷区,桜新町２丁目２１番１１号,,13,112,1540015,,,,,,,2024-08-30,1,,,,,ヴィーダ,0
1680,9010903009327,新規,0,2024-08-30,2024-08-30,合同会社ＧＬＯＢＥＡＵ,,合同会社,東京都,世田谷区,池尻３丁目１１番１２－３０１号,,13,112,1540001,,,,,,,2024-08-30,1,,,,,グロウビュ,0
1685,9011003019877,新規,0,2024-08-30,2024-08-30,合同会社ｓｈｏｗ　ｃｒｅａｔｉｏｎ,,合同会社,東京都,渋谷区,道玄坂１丁目１０番８号渋谷道玄坂東急ビル２Ｆ－Ｃ,,13,113,1500043,,,,,,,2024-08-30,1,,,,,ショークリエイション,0
1686,9011005010652,新規,0,2024-08-30,2024-08-30,社会保険労務士法人表参道ＨＲオフィス,,その他の設立登記法人,東京都,渋谷区,神宮前６丁目１２番２８号神宮前目良ビル３Ｆ,,13,113,1500001,,,,,,,2024-08-30,1,,,,,オモテサンドウエイチアールオフィス,0
1688,9011201025751,新規,0,2024-08-30,2024-08-30,株式会社ＷＩＸＩＯ,,株式会社,東京都,中野区,若宮１丁目５３番６号,,13,114,1650033,,,,,,,2024-08-30,1,,,,,ウィーシオ,0
1689,9011301029958,新規,0,2024-08-30,2024-08-30,株式会社ヤマザキ治療院,,株式会社,東京都,杉並区,和泉３丁目１６番１９号,,13,115,1680063,,,,,,,2024-08-30,1,,,,,ヤマザキチリョウイン,0
1693,9011801044779,新規,0,2024-08-30,2024-08-30,株式会社住居,,株式会社,東京都,葛飾区,西新小岩５丁目２８番２０号１１３号室,,13,122,1240025,,,,,,,2024-08-30,1,,,,,スマイル,0
1698,9012305002100,新規,0,2024-08-30,2024-08-30,医療法人社団Ｋｉｎｄｎｅｓｓ,,その他の設立登記法人,東京都,町田市,能ヶ谷４丁目３番１８号第２京香ビル１階１０１,,13,209,1950053,,,,,,,2024-08-30,1,,,,,カインドネス,0
1702,9012401042231,新規,0,2024-08-30,2024-08-30,株式会社あいぼう,,株式会社,東京都,調布市,菊野台３丁目５１番地２４７パークハウスザガーデンＣ－４１８,,13,208,1820007,,,,,,,2024-08-30,1,,,,,アイボウ,0
1703,9012701018427,新規,0,2024-08-30,2024-08-30,株式会社ＴＯＲＡＳＯ,,株式会社,東京都,東村山市,秋津町３丁目３１番地４５,,13,213,1890001,,,,,,,2024-08-30,1,,,,,トラソ,0
1708,9020001158736,新規,0,2024-08-30,2024-08-30,株式会社植達,,株式会社,神奈川県,横浜市磯子区,岡村７丁目２番１２－１号,,14,107,2350021,,,,,,,2024-08-30,1,,,,,ウエタツ,0
1709,9020001158802,新規,0,2024-08-30,2024-08-30,株式会社タイガーアンドソン,,株式会社,神奈川県,川崎市高津区,溝口１丁目１２番５号永原ビル４階,,14,134,2130001,,,,,,,2024-08-30,1,,,,,タイガーアンドソン,0
1710,9020001158810,新規,0,2024-08-30,2024-08-30,株式会社ケンシン,,株式会社,神奈川県,横浜市神奈川区,三枚町１３８番地１,,14,102,2210862,,,,,,,2024-08-30,1,,,,,ケンシン,0
1711,9020001158835,新規,0,2024-08-30,2024-08-30,ＥｄｕＴｅｃｈＪａｐａｎ株式会社,,株式会社,神奈川県,横浜市緑区,長津田２丁目３３－１,,14,113,2260027,,,,,,,2024-08-30,1,,,,,エデュテックジャパン,0
1714,9020003026775,新規,0,2024-08-30,2024-08-30,合同会社ＲＩＶＥＲ‐ＵＰ,,合同会社,神奈川県,横浜市青葉区,すみよし台３６番地２４アステリア青葉台１０８号,,14,117,2270035,,,,,,,2024-08-30,1,,,,,リバーアップ,0
1715,9021001083123,新規,0,2024-08-30,2024-08-30,株式会社坐す森,,株式会社,神奈川県,足柄下郡真鶴町,真鶴１００７番地,,14,383,2590201,,,,,,,2024-08-30,1,,,,,オワスモリ,0
1725,9030001162142,新規,0,2024-08-30,2024-08-30,株式会社みなも,,株式会社,埼玉県,上尾市,緑丘４丁目６番１１号,,11,219,3620015,,,,,,,2024-08-30,1,,,,,ミナモ,0
1726,9030001162225,新規,0,2024-08-30,2024-08-30,株式会社Ｋａｌｅｉｄｏｓｃｏｐｅ＆Ｋ,,株式会社,埼玉県,鶴ヶ島市,富士見１丁目１９番３０－６０１号エーデル・バウ栄和,,11,241,3502201,,,,,,,2024-08-30,1,,,,,カレイドスコープアンドケー,0
1727,9030001162233,新規,0,2024-08-30,2024-08-30,株式会社ＩＺＡＮＡＩ,,株式会社,埼玉県,越谷市,蒲生西町１丁目４番１８－２０２号,,11,222,3430835,,,,,,,2024-08-30,1,,,,,イザナイ,0
1730,9030003025033,新規,0,2024-08-30,2024-08-30,合同会社ＵＬＴＲＡ,,合同会社,埼玉県,さいたま市緑区,大字三室２２１３番地９浦和グリーンマンション２０６号室,,11,109,3360911,,,,,,,2024-08-30,1,,,,,ウルトラ,0
1735,9040001135188,新規,0,2024-08-30,2024-08-30,ツブラ株式会社,,株式会社,千葉県,印旛郡酒々井町,馬橋６５８番地５,,12,322,2850914,,,,,,,2024-08-30,1,,,,,ツブラ,0
1740,9040005022481,新規,0,2024-08-30,2024-08-30,千葉県菓子工業協同組合,,その他の設立登記法人,千葉県,千葉市中央区,栄町４１番３号,,12,101,2600016,,,,,,,2024-08-30,1,,,,,チバケンカシコウギョウ,0
1743,9050001055336,新規,0,2024-08-30,2024-08-30,株式会社Ｖｉｄｅｌｏｇ,,株式会社,茨城県,つくば市,春日３丁目５番地２９－１０１号,,08,220,3050821,,,,,,,2024-08-30,1,,,,,ビデログ,0
1753,9070001042118,新規,0,2024-08-30,2024-08-30,株式会社ＲｅＲＡＹ,,株式会社,群馬県,前橋市,六供町４丁目８番地８ビバーチェＣ号室,,10,201,3710804,,,,,,,2024-08-30,1,,,,,リレイ,0
1754,9070003005568,新規,0,2024-08-30,2024-08-30,合同会社ＴＭハウスクリーニング,,合同会社,群馬県,前橋市,南町４丁目３７番地１アルファ南１階１０２号,,10,201,3710805,,,,,,,2024-08-30,1,,,,,ティーエムハウスクリーニング,0
1758,9080103003132,新規,0,2024-08-30,2024-08-30,合同会社ｋｉｋｉ,,合同会社,静岡県,田方郡函南町,平井６０６番地の６,,22,325,4190107,,,,,,,2024-08-30,1,,,,,キキ,0
1760,9100001037774,新規,0,2024-08-30,2024-08-30,松本平ゼロカーボンエネルギー株式会社,,株式会社,長野県,松本市,渚２丁目７番９号,,20,202,3900841,,,,,,,2024-08-30,1,,,,,マツモトタイラゼロカーボンエネルギー,0
1761,9100001037816,新規,0,2024-08-30,2024-08-30,株式会社信州キャピタル,,株式会社,長野県,長野市,上松５丁目１０番１８号,,20,201,3800802,,,,,,,2024-08-30,1,,,,,シンシュウキャピタル,0
1775,9120001268070,新規,0,2024-08-30,2024-08-30,株式会社Ｆ,,株式会社,大阪府,大阪市西区,靱本町１丁目１０番７号プレミストタワー１８０３号室,,27,106,5500004,,,,,,,2024-08-30,1,,,,,エフ,0
1776,9120001268120,新規,0,2024-08-30,2024-08-30,株式会社アレックスジャパン,,株式会社,大阪府,大阪市北区,豊崎３丁目１５番５号ＴＫビル３０１号室,,27,127,5310072,,,,,,,2024-08-30,1,,,,,アレックスジャパン,0
1777,9120001268129,新規,0,2024-08-30,2024-08-30,九洲商貿株式会社,,株式会社,大阪府,大阪市大正区,三軒家西３丁目４番１６号中山ビル３０９Ｂ,,27,108,5510001,,,,,,,2024-08-30,1,,,,,キュウシュウショウボウ,0
1778,9120001268153,新規,0,2024-08-30,2024-08-30,Ａｖｏｃｅｔ　Ｌａｗ株式会社,,株式会社,大阪府,大阪市北区,梅田２丁目２番２号ヒルトンプラザウエストオフィスタワー１８．１９階,,27,127,5300001,,,,,,,2024-08-30,1,,,,,アボセットロー,0
1779,9120001268161,新規,0,2024-08-30,2024-08-30,鈴蘭開発株式会社,,株式会社,大阪府,枚方市,山之上西町３５番１０号,,27,210,5730048,,,,,,,2024-08-30,1,,,,,スズランカイハツ,0
1780,9120001268194,新規,0,2024-08-30,2024-08-30,株式会社櫻井建築事務所,,株式会社,大阪府,大阪市淀川区,東三国４丁目４－１５ＣＯＬＵＭＮ新大阪３Ｆ,,27,123,5320002,,,,,,,2024-08-30,1,,,,,サクライケンチクジムショ,0
1782,9120003027400,新規,0,2024-08-30,2024-08-30,合同会社ＢＴＣ,,合同会社,大阪府,枚方市,藤阪西町２番１－５０２号,,27,210,5730158,,,,,,,2024-08-30,1,,,,,ビティシー,0
1783,9120003027425,新規,0,2024-08-30,2024-08-30,合同会社Ｏｃｅａｎ,,合同会社,大阪府,大阪市西成区,岸里２丁目５番４号マンションイレブン１１１号室,,27,122,5570041,,,,,,,2024-08-30,1,,,,,オーシャン,0
1784,9120003027433,新規,0,2024-08-30,2024-08-30,ＳＡＮ合同会社,,合同会社,大阪府,大阪市港区,南市岡１丁目１１－８,,27,107,5520011,,,,,,,2024-08-30,1,,,,,サン,0
1788,9120901049702,新規,0,2024-08-30,2024-08-30,森不動産管理株式会社,,株式会社,大阪府,豊中市,螢池東町２丁目５番１１号,,27,203,5600032,,,,,,,2024-08-30,1,,,,,モリフドウサンカンリ,0
1789,9130001077784,新規,0,2024-08-30,2024-08-30,草枕株式会社,,株式会社,京都府,京都市中京区,西ノ京大炊御門町８－４９ファミリエ円町３０２号室,,26,104,6048467,,,,,,,2024-08-30,1,,,,,クサマクラ,0
1792,9130003009819,新規,0,2024-08-30,2024-08-30,合同会社ＬＳ,,合同会社,京都府,京都市山科区,西野山中臣町７２番地２０,,26,110,6078305,,,,,,,2024-08-30,1,,,,,エルエス,0
1796,9140001135624,新規,0,2024-08-30,2024-08-30,株式会社Ａｎｔｗｏｒｋｓ,,株式会社,兵庫県,小野市,万勝寺町９８４番地の１８,,28,218,6751311,,,,,,,2024-08-30,1,,,,,アントワークス,0
1797,9140001135665,新規,0,2024-08-30,2024-08-30,株式会社ＭＡＴＣＨ　ＧＬＯＢＡＬ　ＪＡＰＡＮ,,株式会社,兵庫県,神戸市西区,竹の台６丁目６番地６－６０６号,,28,111,6512274,,,,,,,2024-08-30,1,,,,,マッチグローバルジャパン,0
1800,9140003021013,新規,0,2024-08-30,2024-08-30,合同会社ＴＭ工房,,合同会社,兵庫県,神戸市垂水区,名谷町字入野６８５番地の１,,28,108,6550852,,,,,,,2024-08-30,1,,,,,ティーエムコウボウ,0
1801,9150001027531,新規,0,2024-08-30,2024-08-30,株式会社ｃｏｒａｚｏｎ,,株式会社,奈良県,大和高田市,材木町４番２８号フラッツ大和高田１０４号室,,29,202,6350011,,,,,,,2024-08-30,1,,,,,コラソン,0
1808,9180001163068,新規,0,2024-08-30,2024-08-30,株式会社丸福インターナショナル,,株式会社,愛知県,東海市,大田町呉天石１０３５番地,,23,222,4770031,,,,,,,2024-08-30,1,,,,,マルフクインターナショナル,0
1809,9180001163076,新規,0,2024-08-30,2024-08-30,株式会社葵の家,,株式会社,愛知県,名古屋市東区,葵３丁目７番１４号,,23,102,4610004,,,,,,,2024-08-30,1,,,,,アオイノイエ,0
1811,9180301039001,新規,0,2024-08-30,2024-08-30,株式会社好建都市開発,,株式会社,愛知県,みよし市,三好町天王８４番地６,,23,236,4700224,,,,,,,2024-08-30,1,,,,,コウケントシカイハツ,0
1813,9200001017056,新規,0,2024-08-30,2024-08-30,株式会社アオイ,,株式会社,岐阜県,美濃加茂市,牧野２２９６番地,,21,211,5050016,,,,,,,2024-08-30,1,,,,,アオイ,0
1818,9220005008875,新規,0,2024-08-30,2024-08-30,社会保険労務士法人石川労務管理事務所,,その他の設立登記法人,石川県,金沢市,白菊町１番１１号,,17,201,9218024,,,,,,,2024-08-30,1,,,,,イシカワロウムカンリジムショ,0
1825,9260001039400,新規,0,2024-08-30,2024-08-30,株式会社レンタＵＰ,,株式会社,岡山県,岡山市北区,田中６２４番地８,,33,101,7000951,,,,,,,2024-08-30,1,,,,,レンタアップ,0
1826,9260001039409,新規,0,2024-08-30,2024-08-30,株式会社リングス,,株式会社,岡山県,倉敷市,中島１３３４番地,,33,202,7100803,,,,,,,2024-08-30,1,,,,,リングス,0
1827,9270003001662,新規,0,2024-08-30,2024-08-30,エコリビレッジ合同会社,,合同会社,鳥取県,日野郡日南町,上萩山４８６番地,,31,401,6895223,,,,,,,2024-08-30,1,,,,,エコリビレッジ,0
1831,9290003015768,新規,0,2024-08-30,2024-08-30,合同会社モリモリパーク,,合同会社,福岡県,大牟田市,西新町２０―９,,40,202,8360031,,,,,,,2024-08-30,1,,,,,モリモリパーク,0
1834,9350001019161,新規,0,2024-08-30,2024-08-30,株式会社スマイリング・パーク,,株式会社,宮崎県,都城市,若葉町７４号６番地,,45,202,8850054,,,,,,,2024-08-30,1,,,,,スマイリングパーク,0
1839,9360001034135,新規,0,2024-08-30,2024-08-30,株式会社こじょう,,株式会社,沖縄県,那覇市,首里金城町２丁目２２番地４,,47,201,9030815,,,,,,,2024-08-30,1,,,,,コジョウ,0
1842,9360003014267,新規,0,2024-08-30,2024-08-30,幸運企画合同会社,,合同会社,沖縄県,那覇市,東町２７番１９号Ｋｅｉビル７階,,47,201,9000034,,,,,,,2024-08-30,1,,,,,コウウンキカク,0
1845,9370005010833,新規,0,2024-08-30,2024-08-30,一般社団法人二日町ファッションデザイナーズ,,その他の設立登記法人,宮城県,仙台市青葉区,荒巻字坊主門１３番地の３,,04,101,9810945,,,,,,,2024-08-30,1,,,,,フツカマチファッションデザイナーズ,0
1853,9430001092563,新規,0,2024-08-30,2024-08-30,株式会社ＹＡＭＡＴＯ,,株式会社,北海道,札幌市西区,山の手二条１１丁目１番２号,,01,107,0630002,,,,,,,2024-08-30,1,,,,,ヤマト,0
1854,9430003016727,新規,0,2024-08-30,2024-08-30,合同会社ＣＯＮＴＲＯＬ,,合同会社,北海道,札幌市西区,二十四軒三条２丁目８番２６号ベルチェドマーニ１０３,,01,107,0630803,,,,,,,2024-08-30,1,,,,,コントロール,0
