sequenceNumber,corporateNumber,process,correct,updateDate,changeDate,name,nameImageId,kind,prefectureName,cityName,streetNumber,addressImageId,prefectureCode,cityCode,postCode,addressOutside,addressOutsideImageId,closeDate,closeCause,successorCorporateNumber,changeCause,assignmentDate,latest,enName,enPrefectureName,enCityName,enAddressOutside,furigana,hihyoji
5,1010001242192,新規,0,2024-02-14,2024-02-14,ＡＲＡ　Ｔｅｃｈｎｏｌｏｇｉｅｓ株式会社,,株式会社,東京都,千代田区,神田和泉町一丁目６番１６号ヤマトビル４０５,,13,101,1010024,,,,,,,2024-02-14,1,,,,,アラテクノロジーズ,0
6,1010001242317,新規,0,2024-02-14,2024-02-14,冠和株式会社,,株式会社,東京都,中央区,新富２丁目５番２－５０２号,,13,102,1040041,,,,,,,2024-02-14,1,,,,,カンワ,0
10,1010005037886,新規,0,2024-02-14,2024-02-14,一般社団法人ペット整体協会,,その他の設立登記法人,東京都,千代田区,神田三崎町２丁目２２番８号梨本ビル２階,,13,101,1010061,,,,,,,2024-02-14,1,,,,,ペットセイタイキョウカイ,0
18,1010401180372,新規,0,2024-02-14,2024-02-14,株式会社ｖｉｎｏ　ｂｏｎｄｓ,,株式会社,東京都,港区,高輪１丁目４－３レキシントンスクエア白金高輪６０９,,13,103,1080074,,,,,,,2024-02-14,1,,,,,ヴィーノボンズ,0
19,1010403031945,新規,0,2024-02-14,2024-02-14,合同会社バテリア伊奈,,合同会社,東京都,港区,虎ノ門１丁目２番８号リニューアブル・ジャパン株式会社内,,13,103,1050001,,,,,,,2024-02-14,1,,,,,バテリアイナ,0
20,1010403031953,新規,0,2024-02-14,2024-02-14,アワーズ合同会社,,合同会社,東京都,港区,北青山１丁目３番１号アールキューブ青山３階,,13,103,1070061,,,,,,,2024-02-14,1,,,,,アワーズ,0
21,1010405022942,新規,0,2024-02-14,2024-02-14,行政書士法人赤坂共同事務所,,その他の設立登記法人,東京都,港区,赤坂２丁目２３番１号アークヒルズフロントタワー１００４号,,13,103,1070052,,,,,,,2024-02-14,1,,,,,アカサカキョウドウジムショ,0
22,1010501051779,新規,0,2024-02-14,2024-02-14,Ｃａｒｍｅｎ’Ｓ株式会社,,株式会社,東京都,台東区,上野５丁目１６番１７号,,13,106,1100005,,,,,,,2024-02-14,1,,,,,カルメンズ,0
23,1010501051787,新規,0,2024-02-14,2024-02-14,Ｒエステートホールディングス株式会社,,株式会社,東京都,台東区,東浅草１丁目８－１０サンクレイドル浅草レジデンス１１０２,,13,106,1110025,,,,,,,2024-02-14,1,,,,,リアルエステートホールディングス,0
27,1010601064648,新規,0,2024-02-14,2024-02-14,株式会社ＷｅＧｒｏｗ,,株式会社,東京都,江東区,枝川１丁目１－４－７０２,,13,108,1350051,,,,,,,2024-02-14,1,,,,,ウィーグロウ,0
30,1010801034780,新規,0,2024-02-14,2024-02-14,株式会社Ｒｅ・ｇｅｎｅｒａｔ,,株式会社,東京都,大田区,北千束３丁目１７番１０号,,13,111,1450062,,,,,,,2024-02-14,1,,,,,リジェネレイト,0
32,1010901054720,新規,0,2024-02-14,2024-02-14,株式会社ｉｃｅＤＯＧ,,株式会社,東京都,世田谷区,代田５丁目９番１１号ローズコート代田１０５,,13,112,1550033,,,,,,,2024-02-14,1,,,,,アイスドッグ,0
33,1010903008807,新規,0,2024-02-14,2024-02-14,ＹＫ　Ｐｅｒｆｏｒｍａｎｃｅ合同会社,,合同会社,東京都,世田谷区,宮坂１丁目３７番地７号,,13,112,1560051,,,,,,,2024-02-14,1,,,,,ワイケーパフォーマンス,0
39,1011001160005,新規,0,2024-02-14,2024-02-14,株式会社ＡＬＭＡ,,株式会社,東京都,渋谷区,恵比寿４丁目２２番８－５０１号,,13,113,1500013,,,,,,,2024-02-14,1,,,,,アルマ,0
40,1011003018399,新規,0,2024-02-14,2024-02-14,ＳＧピオノル合同会社,,合同会社,東京都,渋谷区,道玄坂１丁目１０番８号渋谷道玄坂東急ビル２Ｆ－Ｃ,,13,113,1500043,,,,,,,2024-02-14,1,,,,,エスジーピオノル,0
41,1011003018465,新規,0,2024-02-14,2024-02-14,たぐる合同会社,,合同会社,東京都,渋谷区,代々木３丁目５８－７－１０１,,13,113,1510053,,,,,,,2024-02-14,1,,,,,タグル,0
42,1011003018481,新規,0,2024-02-14,2024-02-14,ａｎｄ　Ｓ　ｓｔｕｄｉｏ合同会社,,合同会社,東京都,目黒区,下目黒１丁目１番１４号コノトラビル７Ｆ,,13,110,1530064,,,,,,,2024-02-14,1,,,,,アンドエススタジオ,0
44,1011101106171,新規,0,2024-02-14,2024-02-14,株式会社ＳＨＩＯＮ,,株式会社,東京都,新宿区,西早稲田２丁目１８番３０号,,13,104,1690051,,,,,,,2024-02-14,1,,,,,シオン,0
47,1011601027520,新規,0,2024-02-14,2024-02-14,株式会社輝,,株式会社,東京都,練馬区,練馬１丁目１９番７号９０６,,13,120,1760001,,,,,,,2024-02-14,1,,,,,カガヤキ,0
48,1011701027016,新規,0,2024-02-14,2024-02-14,エド工業株式会社,,株式会社,東京都,江戸川区,北葛西１丁目２３番３１号,,13,123,1340081,,,,,,,2024-02-14,1,,,,,エドコウギョウ,0
49,1011701027024,新規,0,2024-02-14,2024-02-14,徳筑基金株式会社,,株式会社,東京都,江戸川区,松島３丁目１４番７－２０６号若林ビル,,13,123,1320031,,,,,,,2024-02-14,1,,,,,トクチクキキン,0
52,1012401041513,新規,0,2024-02-14,2024-02-14,株式会社カトラリー,,株式会社,東京都,武蔵野市,西久保２丁目１７番１０号,,13,203,1800013,,,,,,,2024-02-14,1,,,,,カトラリー,0
56,1012801022963,新規,0,2024-02-14,2024-02-14,株式会社ＳＫＹ,,株式会社,東京都,日野市,程久保３丁目２０番７号,,13,212,1910042,,,,,,,2024-02-14,1,,,,,スカイ,0
58,1013101009346,新規,0,2024-02-14,2024-02-14,株式会社ＳＴＣ,,株式会社,東京都,青梅市,根ヶ布１丁目３８０番地,,13,205,1980004,,,,,,,2024-02-14,1,,,,,エスティーシー,0
66,1020001155732,新規,0,2024-02-14,2024-02-14,株式会社一心,,株式会社,神奈川県,横浜市旭区,白根８丁目９番３－２０２号,,14,112,2410005,,,,,,,2024-02-14,1,,,,,イッシン,0
67,1020001155807,新規,0,2024-02-14,2024-02-14,ＭＵＤＡ株式会社,,株式会社,神奈川県,横浜市泉区,和泉中央南５丁目１３番６,,14,116,2450023,,,,,,,2024-02-14,1,,,,,ムーダ,0
71,1020003025545,新規,0,2024-02-14,2024-02-14,合同会社瑛章,,合同会社,神奈川県,横浜市西区,浅間町１丁目４番３号ウィザードビル４０２,,14,103,2200072,,,,,,,2024-02-14,1,,,,,エイショー,0
75,1021001081456,新規,0,2024-02-14,2024-02-14,株式会社Ａｌｔｍａｔａ,,株式会社,神奈川県,海老名市,扇町１４番２－１９０１号,,14,215,2430436,,,,,,,2024-02-14,1,,,,,オートマタ,0
76,1021003014125,新規,0,2024-02-14,2024-02-14,合同会社夢豊,,合同会社,神奈川県,相模原市緑区,鳥屋２６６１番地,,14,151,2520155,,,,,,,2024-02-14,1,,,,,ユメト,0
77,1030001158577,新規,0,2024-02-14,2024-02-14,板倉電工関東株式会社,,株式会社,埼玉県,川越市,大字笠幡４００４－２笠幡グリーンパーク５－４０２,,11,201,3501175,,,,,,,2024-02-14,1,,,,,イタクラデンコウカントウ,0
78,1030001158635,新規,0,2024-02-14,2024-02-14,株式会社中榕商会,,株式会社,埼玉県,川口市,緑町３－６,,11,203,3320027,,,,,,,2024-02-14,1,,,,,チュウヨウショウカイ,0
79,1030001158651,新規,0,2024-02-14,2024-02-14,キクケ株式会社,,株式会社,埼玉県,川越市,今成１丁目６番地４,,11,201,3501105,,,,,,,2024-02-14,1,,,,,キクケ,0
80,1030001158668,新規,0,2024-02-14,2024-02-14,株式会社ＥＬＥＰＨＡＮＤ,,株式会社,埼玉県,川越市,脇田町９番地５菊屋ビル２０２号室,,11,201,3501122,,,,,,,2024-02-14,1,,,,,エレファント,0
82,1030003023606,新規,0,2024-02-14,2024-02-14,合同会社Ｃｉｔｒｉｎｅ,,合同会社,埼玉県,さいたま市大宮区,桜木町２丁目３大宮マルイ７階,,11,103,3300854,,,,,,,2024-02-14,1,,,,,シトリン,0
83,1030003023614,新規,0,2024-02-14,2024-02-14,合同会社ＬＥＶＥＬＹ,,合同会社,埼玉県,北足立郡伊奈町,中央３丁目３１９,,11,301,3620809,,,,,,,2024-02-14,1,,,,,レヴェリー,0
88,1040001132168,新規,0,2024-02-14,2024-02-14,株式会社ＯＲＩＺＵＲＵ,,株式会社,千葉県,佐倉市,宮小路町３１番地２,,12,212,2850016,,,,,,,2024-02-14,1,,,,,オリズル,0
89,1040001132192,新規,0,2024-02-14,2024-02-14,ＳＬ株式会社,,株式会社,千葉県,松戸市,五香西３丁目２４番地の１７,,12,207,2702218,,,,,,,2024-02-14,1,,,,,エスエル,0
96,1050001054254,新規,0,2024-02-14,2024-02-14,株式会社Ｔｉｄａ,,株式会社,茨城県,ひたちなか市,東石川３丁目１番３,,08,221,3120052,,,,,,,2024-02-14,1,,,,,ティダ,0
97,1050001054270,新規,0,2024-02-14,2024-02-14,ＡＵＴＯ　ＫＩＮＧ　ＪＡＰＡＮ株式会社,,株式会社,茨城県,坂東市,みむら６３３番地２２,,08,228,3060655,,,,,,,2024-02-14,1,,,,,オートキングジャパン,0
98,1050003008126,新規,0,2024-02-14,2024-02-14,ＳＵＧＡ合同会社,,合同会社,茨城県,鹿嶋市,大字平井１３０７番地８４,,08,222,3140012,,,,,,,2024-02-14,1,,,,,スガ,0
99,1050005013388,新規,0,2024-02-14,2024-02-14,特定非営利活動法人つながりつながる研究所,,その他の設立登記法人,茨城県,石岡市,柿岡３４３１－５,,08,205,3150116,,,,,,,2024-02-14,1,,,,,ツナガリツナガルケンキュウジョ,0
101,1070001041390,新規,0,2024-02-14,2024-02-14,株式会社ＳｈａｒｅＦｏｏｄ,,株式会社,群馬県,太田市,新井町５７４番地２０あおいビル１－１,,10,205,3730852,,,,,,,2024-02-14,1,,,,,シェアフード,0
106,1080105006396,新規,0,2024-02-14,2024-02-14,一般社団法人世界環境センター,,その他の設立登記法人,静岡県,沼津市,戸田３７０２番１７,,22,203,4103402,,,,,,,2024-02-14,1,,,,,セカイカンキョウセンター,0
107,1080401026998,新規,0,2024-02-14,2024-02-14,株式会社里山再生クラブ,,株式会社,静岡県,菊川市,倉沢１１３８番地の２,,22,224,4390002,,,,,,,2024-02-14,1,,,,,サトヤマサイセイクラブ,0
111,1090003002496,新規,0,2024-02-14,2024-02-14,ＥＣＯ　ＩＯＮＩＸ合同会社,,合同会社,山梨県,韮崎市,龍岡町下條南割２７７－７,,19,207,4070033,,,,,,,2024-02-14,1,,,,,エコイオニックス,0
114,1110001038176,新規,0,2024-02-14,2024-02-14,坂口建材株式会社,,株式会社,新潟県,長岡市,中之島高畑６０２番地１,,15,202,9540152,,,,,,,2024-02-14,1,,,,,サカグチケンザイ,0
119,1120001261966,新規,0,2024-02-14,2024-02-14,株式会社ＰＥＴ,,株式会社,大阪府,大阪市淀川区,宮原２丁目１番１７号新大阪第２ＹＳビル７０１号,,27,123,5320003,,,,,,,2024-02-14,1,,,,,ピーイーティー,0
120,1120001262106,新規,0,2024-02-14,2024-02-14,トキワフィナンシャルサービス株式会社,,株式会社,大阪府,大阪市中央区,北浜３丁目５番１９号淀屋橋ホワイトビル３０５,,27,128,5410041,,,,,,,2024-02-14,1,,,,,トキワフィナンシャルサービス,0
121,1120001262139,新規,0,2024-02-14,2024-02-14,ＬＢＡ株式会社,,株式会社,大阪府,大阪市西区,新町１丁目２４番８号ノース四ツ橋ビル９０１,,27,106,5500013,,,,,,,2024-02-14,1,,,,,エルビーエー,0
122,1120001262196,新規,0,2024-02-14,2024-02-14,株式会社となる,,株式会社,大阪府,大阪市住吉区,長居４丁目３番２３号エマーブル３０３号室,,27,120,5580003,,,,,,,2024-02-14,1,,,,,トナル,0
123,1120001262213,新規,0,2024-02-14,2024-02-14,株式会社Ｎｏｖｅｌ　Ｐｌｕｓ,,株式会社,大阪府,大阪市淀川区,三津屋中２丁目１１番７号ライゼホビー２号,,27,123,5320036,,,,,,,2024-02-14,1,,,,,ノベルプラス,0
124,1120001262221,新規,0,2024-02-14,2024-02-14,株式会社一和,,株式会社,大阪府,大阪市西区,本田２丁目８－７ラパンジール九条８Ｅ,,27,106,5500022,,,,,,,2024-02-14,1,,,,,イチワ,0
125,1120001262254,新規,0,2024-02-14,2024-02-14,ＴＯＡＭＡＳ株式会社,,株式会社,大阪府,大阪市北区,天神橋３丁目１番４３－５０２号,,27,127,5300041,,,,,,,2024-02-14,1,,,,,トアマス,0
129,1120003025873,新規,0,2024-02-14,2024-02-14,合同会社百希,,合同会社,大阪府,大阪市住吉区,我孫子西１丁目１４番１６号,,27,120,5580015,,,,,,,2024-02-14,1,,,,,ヒャッキ,0
130,1120003025907,新規,0,2024-02-14,2024-02-14,合同会社ＭＡＮＡＫＡＭＡＮＡ　ＭＡＲＴ,,合同会社,大阪府,大阪市天王寺区,堂ケ芝２丁目１２番５号,,27,109,5430033,,,,,,,2024-02-14,1,,,,,マナカマナマート,0
131,1120005024155,新規,0,2024-02-14,2024-02-14,医療法人新昇会かん歯科医院,,その他の設立登記法人,大阪府,大阪市旭区,生江１丁目９番１８号,,27,117,5350004,,,,,,,2024-02-14,1,,,,,シンショウカイカンシカイイン,0
135,1120101069046,新規,0,2024-02-14,2024-02-14,Ｐｌｕｓ‐Ｏｎｅ株式会社,,株式会社,大阪府,堺市西区,鳳中町１０丁１２番地３,,27,144,5938327,,,,,,,2024-02-14,1,,,,,プラスワン,0
142,1130001076364,新規,0,2024-02-14,2024-02-14,株式会社ＣＨＡＳＥ,,株式会社,京都府,京都市北区,紫竹西野山東町２番地ＡＺビルＢＦ１,,26,101,6038442,,,,,,,2024-02-14,1,,,,,チェイス,0
151,1180001160097,新規,0,2024-02-14,2024-02-14,日本再エネ電力株式会社,,株式会社,愛知県,一宮市,小信中島字西五反田４６番地４,,23,203,4940007,,,,,,,2024-02-14,1,,,,,ニホンサイエネデンリョク,0
152,1180001160139,新規,0,2024-02-14,2024-02-14,株式会社Ｄｉａｍｏｎｄ　Ｈａｎｄｓ,,株式会社,愛知県,名古屋市中区,栄５丁目２６番３６号,,23,106,4600008,,,,,,,2024-02-14,1,,,,,ダイヤモンドハンズ,0
157,1180301038316,新規,0,2024-02-14,2024-02-14,ジャパンテック株式会社,,株式会社,愛知県,岡崎市,真伝吉祥１丁目３２番地１１,,23,202,4443176,,,,,,,2024-02-14,1,,,,,ジャパンテック,0
163,1200001042152,新規,0,2024-02-14,2024-02-14,株式会社タジマホールディングス,,株式会社,岐阜県,美濃加茂市,田島町３丁目１３番地２,,21,211,5050032,,,,,,,2024-02-14,1,,,,,タジマホールディングス,0
164,1200001042160,新規,0,2024-02-14,2024-02-14,株式会社コムテック,,株式会社,岐阜県,各務原市,尾崎北町１丁目３４番地,,21,213,5040002,,,,,,,2024-02-14,1,,,,,コムテック,0
170,1230001020213,新規,0,2024-02-14,2024-02-14,株式会社尾谷運輸,,株式会社,富山県,魚津市,仏田３７２５‐５,,16,204,9370061,,,,,,,2024-02-14,1,,,,,オダニウンユ,0
175,1250001020517,新規,0,2024-02-14,2024-02-14,株式会社ｂｅａｍｉｎｇ,,株式会社,山口県,長門市,東深川２４９４番地２,,35,211,7594101,,,,,,,2024-02-14,1,,,,,ビーミング,0
176,1260001038756,新規,0,2024-02-14,2024-02-14,株式会社ＢＵＬＬ,,株式会社,岡山県,岡山市南区,豊成１丁目１１番７号Ｌ・ＳＭＡＲＴ　ＷＥＳＴ０２号室,,33,104,7000942,,,,,,,2024-02-14,1,,,,,ブル,0
182,1290003014967,新規,0,2024-02-14,2024-02-14,合同会社ＧＡ．ｇｒｏｕｐ,,合同会社,福岡県,福岡市博多区,住吉３丁目５番８号ケイジェイ博多住吉ビル４０１,,40,132,8120018,,,,,,,2024-02-14,1,,,,,ジーエーグループ,0
189,1290801030281,新規,0,2024-02-14,2024-02-14,日本京和株式会社,,株式会社,福岡県,北九州市小倉北区,大田町一丁目１１番５号,,40,106,8020015,,,,,,,2024-02-14,1,,,,,ニッポンキョウワ,0
190,1290801030307,新規,0,2024-02-14,2024-02-14,ＪＡＥプロジェクト株式会社,,株式会社,福岡県,北九州市八幡東区,枝光３丁目１０番６号,,40,108,8050002,,,,,,,2024-02-14,1,,,,,ジェイエイイープロジェクト,0
191,1290803004614,新規,0,2024-02-14,2024-02-14,合同会社ＷｉｔＳｅｎｓｅ,,合同会社,福岡県,遠賀郡岡垣町,海老津３丁目１－５,,40,383,8114231,,,,,,,2024-02-14,1,,,,,ウィットセンス,0
196,1310001018851,新規,0,2024-02-14,2024-02-14,株式会社まーぶるぷらん,,株式会社,長崎県,諫早市,幸町１９番３４号,,42,204,8540022,,,,,,,2024-02-14,1,,,,,マーブルプラン,0
200,1350005006213,新規,0,2024-02-14,2024-02-14,一般社団法人ｅｄｕｃｏｌａｂｏ,,その他の設立登記法人,宮崎県,宮崎市,大淀４丁目５番２５号南宮崎駅前ビルＤ棟１階,,45,201,8800902,,,,,,,2024-02-14,1,,,,,エデュコラボ,0
201,1360003013697,新規,0,2024-02-14,2024-02-14,邦旺合同会社,,合同会社,沖縄県,那覇市,首里当蔵町２丁目２２番地４,,47,201,9030812,,,,,,,2024-02-14,1,,,,,ホウオウ,0
208,1390001017524,新規,0,2024-02-14,2024-02-14,Ｅ‐Ｔｏｐホールディングス株式会社,,株式会社,山形県,鶴岡市,藤浪３丁目９５番地２,,06,203,9997604,,,,,,,2024-02-14,1,,,,,イートップホールディングス,0
211,1410003003890,新規,0,2024-02-14,2024-02-14,合同会社アガベー,,合同会社,秋田県,大仙市,鑓見内字幕林２６７－２,,05,212,0140205,,,,,,,2024-02-14,1,,,,,アガベー,0
216,1430003015926,新規,0,2024-02-14,2024-02-14,合同会社ＮｏｒｔｈＮｅｘｔ,,合同会社,北海道,江別市,対雁１１５番地の２３０,,01,217,0670033,,,,,,,2024-02-14,1,,,,,ノースネクスト,0
217,1430003015950,新規,0,2024-02-14,2024-02-14,ＦｒｏｎｔｉｅｅｒＪａｐａｎ合同会社,,合同会社,北海道,札幌市中央区,南一条西１６丁目１番地３２３春野ビル３Ｆ,,01,101,0600061,,,,,,,2024-02-14,1,,,,,フロンティーアジャパン,0
225,1490001010700,新規,0,2024-02-14,2024-02-14,株式会社クリハラガス設備,,株式会社,高知県,高知市,介良甲９８４番地１,,39,201,7815105,,,,,,,2024-02-14,1,,,,,クリハラガスセツビ,0
232,2010005037885,新規,0,2024-02-14,2024-02-14,Ｂｌｕｅ　Ｍａｐ　Ａｌｐｈａ一般社団法人,,その他の設立登記法人,東京都,千代田区,霞が関３丁目２番５号,,13,101,1000013,,,,,,,2024-02-14,1,,,,,ブルーマップアルファ,0
244,2010401180215,新規,0,2024-02-14,2024-02-14,韜哲ジャパン株式会社,,株式会社,東京都,港区,虎ノ門４丁目３番１号城山トラストタワー２７階,,13,103,1050001,,,,,,,2024-02-14,1,,,,,トウテツジャパン,0
245,2010401180371,新規,0,2024-02-14,2024-02-14,ＡＫＩＮＯＶＡ株式会社,,株式会社,東京都,港区,高輪４丁目２３－６ハイホーム高輪５０９号,,13,103,1080074,,,,,,,2024-02-14,1,,,,,アキノバ,0
246,2010401180413,新規,0,2024-02-14,2024-02-14,ステージングホールディングス株式会社,,株式会社,東京都,港区,高輪２丁目２１番４１号高輪第一ビル３階,,13,103,1080074,,,,,,,2024-02-14,1,,,,,ステージングホールディングス,0
248,2010403031886,新規,0,2024-02-14,2024-02-14,合同会社イルフューメ,,合同会社,東京都,港区,南青山３丁目１番３６号青山丸竹ビル６Ｆ,,13,103,1070062,,,,,,,2024-02-14,1,,,,,イルフューメ,0
249,2010403031960,新規,0,2024-02-14,2024-02-14,合同会社ｍｉｅｒｏｏ,,合同会社,東京都,港区,南青山２丁目２番１５号,,13,103,1070062,,,,,,,2024-02-14,1,,,,,ミエルオ,0
250,2010403031969,新規,0,2024-02-14,2024-02-14,ＬＰＪ　Ｔｒａｄｅ合同会社,,合同会社,東京都,港区,虎ノ門３丁目８－２５近鉄虎ノ門ビル７０１,,13,103,1050001,,,,,,,2024-02-14,1,,,,,エルピージェイトレード,0
251,2010501051778,新規,0,2024-02-14,2024-02-14,ひとながグロバール株式会社,,株式会社,東京都,台東区,上野３丁目１１番５号,,13,106,1100005,,,,,,,2024-02-14,1,,,,,ヒトナガグロバール,0
268,2011001160004,新規,0,2024-02-14,2024-02-14,株式会社グルメジェム,,株式会社,東京都,渋谷区,代々木３丁目１３番４号代々木コートＣ,,13,113,1510053,,,,,,,2024-02-14,1,,,,,グルメジェム,0
271,2011003018480,新規,0,2024-02-14,2024-02-14,合同会社ＫＯＨＡＫＵ,,合同会社,東京都,渋谷区,代々木２丁目２６番５号,,13,113,1510053,,,,,,,2024-02-14,1,,,,,コハク,0
272,2011101105899,新規,0,2024-02-14,2024-02-14,東屋株式会社,,株式会社,東京都,新宿区,高田馬場４丁目１７－１５―５０８,,13,104,1690075,,,,,,,2024-02-14,1,,,,,トウヤ,0
273,2011101106179,新規,0,2024-02-14,2024-02-14,株式会社Ｇｒａｃｅ７,,株式会社,東京都,新宿区,北新宿４丁目３２番１１号３０２室,,13,104,1690074,,,,,,,2024-02-14,1,,,,,グレースセブン,0
274,2011201025238,新規,0,2024-02-14,2024-02-14,株式会社ＨＡＴＡＭＯ,,株式会社,東京都,中野区,野方６丁目８番４号,,13,114,1650027,,,,,,,2024-02-14,1,,,,,ハタモ,0
278,2011503005945,新規,0,2024-02-14,2024-02-14,ＲｅＭＡＰ合同会社,,合同会社,東京都,荒川区,町屋１丁目８番１０号パークホームズ町屋３０４,,13,118,1160001,,,,,,,2024-02-14,1,,,,,リマップ,0
280,2011701027015,新規,0,2024-02-14,2024-02-14,株式会社カンパネル,,株式会社,東京都,江戸川区,瑞江２丁目１５番８－３０１号セントラルビル,,13,123,1320011,,,,,,,2024-02-14,1,,,,,カンパネル,0
281,2011801043787,新規,0,2024-02-14,2024-02-14,輝ジュエリー株式会社,,株式会社,東京都,葛飾区,水元２丁目１０番７号エリービル１２０２,,13,122,1250032,,,,,,,2024-02-14,1,,,,,カガヤキジュエリー,0
284,2012401041520,新規,0,2024-02-14,2024-02-14,株式会社ＤＤＩ,,株式会社,東京都,調布市,深大寺北町２丁目３３番地９,,13,208,1820011,,,,,,,2024-02-14,1,,,,,ディディアイ,0
285,2012403006414,新規,0,2024-02-14,2024-02-14,合同会社さだくろ,,合同会社,東京都,府中市,紅葉丘１丁目１２番地の３９,,13,206,1830004,,,,,,,2024-02-14,1,,,,,サダクロ,0
288,2012803003317,新規,0,2024-02-14,2024-02-14,合同会社Ｈｅａｒｔｆａｃｔｏｒｙ,,合同会社,東京都,立川市,柏町３丁目１２番地の７,,13,202,1900004,,,,,,,2024-02-14,1,,,,,ハートファクトリー,0
300,2020001155780,新規,0,2024-02-14,2024-02-14,株式会社ティーユーテック,,株式会社,神奈川県,横浜市西区,北幸２丁目１３番９号北幸ぐうはうすＢ棟１０１,,14,103,2200004,,,,,,,2024-02-14,1,,,,,ティーユーテック,0
301,2020001155806,新規,0,2024-02-14,2024-02-14,株式会社プラス,,株式会社,神奈川県,横浜市栄区,本郷台３丁目３番２８号,,14,115,2470008,,,,,,,2024-02-14,1,,,,,プラス,0
303,2021001081471,新規,0,2024-02-14,2024-02-14,株式会社ファグリ,,株式会社,神奈川県,平塚市,纒６０２番地の４,,14,203,2540901,,,,,,,2024-02-14,1,,,,,ファグリ,0
311,2030001158618,新規,0,2024-02-14,2024-02-14,株式会社富輝コーポレーション,,株式会社,埼玉県,越谷市,蒲生寿町１２－２２,,11,222,3430836,,,,,,,2024-02-14,1,,,,,トミテルコーポレーション,0
312,2030001158634,新規,0,2024-02-14,2024-02-14,ＥＡＣＨ　ＳＴＡＲ株式会社,,株式会社,埼玉県,さいたま市浦和区,北浦和３丁目２－４ＫＳビル５０１,,11,107,3300074,,,,,,,2024-02-14,1,,,,,イーチスター,0
313,2030001158642,新規,0,2024-02-14,2024-02-14,株式会社モア・オートメーション,,株式会社,埼玉県,春日部市,緑町３丁目１番４７－４０３号,,11,214,3440063,,,,,,,2024-02-14,1,,,,,モアオートメーション,0
314,2030001158659,新規,0,2024-02-14,2024-02-14,株式会社ＭＳ　ＴＲＡＤＩＮＧ,,株式会社,埼玉県,深谷市,岡１１８６番地７,,11,218,3690201,,,,,,,2024-02-14,1,,,,,エムエストレーディング,0
315,2030001158667,新規,0,2024-02-14,2024-02-14,星工業株式会社,,株式会社,埼玉県,比企郡滑川町,月の輪５丁目２２番地１７,,11,341,3550815,,,,,,,2024-02-14,1,,,,,ホシコウギョウ,0
319,2030003023621,新規,0,2024-02-14,2024-02-14,合同会社ビリジアン,,合同会社,埼玉県,羽生市,大字三田ケ谷１７１９－１,,11,216,3480011,,,,,,,2024-02-14,1,,,,,ビリジアン,0
328,2040001132183,新規,0,2024-02-14,2024-02-14,株式会社サーティファイブ,,株式会社,千葉県,市川市,宮久保５丁目４番１７号,,12,203,2720822,,,,,,,2024-02-14,1,,,,,サーティファイブ,0
339,2080003003131,新規,0,2024-02-14,2024-02-14,合同会社なないろアソシエイト,,合同会社,静岡県,静岡市葵区,栄町２番地５アークビルディング５０２,,22,101,4200859,,,,,,,2024-02-14,1,,,,,ナナイロアソシエイト,0
341,2080103002982,新規,0,2024-02-14,2024-02-14,合同会社セミオーダー,,合同会社,静岡県,賀茂郡東伊豆町,奈良本１２６５番地１１シーアイヴィラ１２１０,,22,301,4130302,,,,,,,2024-02-14,1,,,,,セミオーダー,0
344,2090003002495,新規,0,2024-02-14,2024-02-14,ＳＡＩＫＡＩ３１合同会社,,合同会社,山梨県,北杜市,高根町清里３５４５番地４２１０,,19,209,4070301,,,,,,,2024-02-14,1,,,,,サイカイサイ,0
345,2090005007609,新規,0,2024-02-14,2024-02-14,一般財団法人山日ＹＢＳグループ野口奨学財団,,その他の設立登記法人,山梨県,甲府市,北口２丁目６番１０号,,19,201,4000024,,,,,,,2024-02-14,1,,,,,サンニチワイビーエスグループノグチショウガクザイダン,0
348,2110001038183,新規,0,2024-02-14,2024-02-14,株式会社山本板金工業,,株式会社,新潟県,糸魚川市,上刈３丁目９番２１号,,15,216,9410064,,,,,,,2024-02-14,1,,,,,ヤマモトバンキンコウギョウ,0
356,2120001262179,新規,0,2024-02-14,2024-02-14,株式会社Ｌｅｇｉａｎ,,株式会社,大阪府,大阪市平野区,長吉六反５丁目９番２５号,,27,126,5470012,,,,,,,2024-02-14,1,,,,,レギャン,0
357,2120001262195,新規,0,2024-02-14,2024-02-14,Ｊ＆Ａ伊＿株式会社,00133709,株式会社,大阪府,大阪市西成区,南津守６丁目３－７３,,27,122,5570063,,,,,,,2024-02-14,1,,,,,ジェイアンドエーイシン,0
358,2120001262204,新規,0,2024-02-14,2024-02-14,炎峰実業株式会社,,株式会社,大阪府,大阪市港区,市岡３丁目１３－９－１０１Ａ,,27,107,5520012,,,,,,,2024-02-14,1,,,,,エンホウジツギョウ,0
359,2120001262212,新規,0,2024-02-14,2024-02-14,株式会社おとなみルーム,,株式会社,大阪府,大阪市北区,長柄中２丁目１番２９号,,27,127,5310062,,,,,,,2024-02-14,1,,,,,オトナミルーム,0
360,2120001262237,新規,0,2024-02-14,2024-02-14,株式会社三輝工業,,株式会社,大阪府,大阪市都島区,友渕町１丁目３番２３－１１１号,,27,102,5340016,,,,,,,2024-02-14,1,,,,,ミキコウギョウ,0
361,2120001262294,新規,0,2024-02-14,2024-02-14,株式会社福田商事,,株式会社,大阪府,大阪市東住吉区,住道矢田６丁目９－２７,,27,121,5460022,,,,,,,2024-02-14,1,,,,,フクダショウジ,0
364,2120003025906,新規,0,2024-02-14,2024-02-14,ＭＩＧＡＫＩマーケティング合同会社,,合同会社,大阪府,大阪市東淀川区,北江口１丁目１番５８－５０号,,27,114,5330002,,,,,,,2024-02-14,1,,,,,ミガキマーケティング,0
365,2120005024154,新規,0,2024-02-14,2024-02-14,一般社団法人ＥＶＥＲ　ＧＲＡＣＥ　ＮＩＰＰＯＮ,,その他の設立登記法人,大阪府,大阪市中央区,玉造２丁目２６番４７号,,27,128,5400004,,,,,,,2024-02-14,1,,,,,エバーグレイスニッポン,0
366,2120005024162,新規,0,2024-02-14,2024-02-14,ＮＰＯ法人大阪府釣り団体協議会,,その他の設立登記法人,大阪府,大阪市住吉区,遠里小野１丁目１２番２２号,,27,120,5580032,,,,,,,2024-02-14,1,,,,,オオサカフツリダンタイキョウギカイ,0
369,2120101069029,新規,0,2024-02-14,2024-02-14,長豊精工株式会社,,株式会社,大阪府,大阪狭山市,今熊２丁目１８２３狭山ヒルズＡ棟２０９,,27,231,5890021,,,,,,,2024-02-14,1,,,,,ナガトヨセイコウ,0
373,2130001076355,新規,0,2024-02-14,2024-02-14,株式会社Ｔｒｉｐｌｅ・Ｈ,,株式会社,京都府,京都市中京区,御池通り御幸町西入御池大東町５９５美幸ビル６階,,26,104,6040000,,,,,,,2024-02-14,1,,,,,トリプルエイチ,0
374,2130001076363,新規,0,2024-02-14,2024-02-14,株式会社ＹＯＳＨＩＭＯＴＯ,,株式会社,京都府,京都市山科区,西野山射庭ノ上町６７番地７７,,26,110,6078307,,,,,,,2024-02-14,1,,,,,ヨシモト,0
377,2140001133287,新規,0,2024-02-14,2024-02-14,錦宜隆株式会社,,株式会社,兵庫県,芦屋市,涼風町２１番２１号１Ａ,,28,206,6590036,,,,,,,2024-02-14,1,,,,,キンギリュウ,0
378,2140003020161,新規,0,2024-02-14,2024-02-14,合同会社マンレッジ,,合同会社,兵庫県,神戸市北区,唐櫃六甲台６番地の５,,28,109,6511334,,,,,,,2024-02-14,1,,,,,マンレッジ,0
385,2170001018007,新規,0,2024-02-14,2024-02-14,株式会社山幸ホールディングス,,株式会社,和歌山県,田辺市,朝日ヶ丘１７番１４－１０１号,,30,206,6460027,,,,,,,2024-02-14,1,,,,,ヤマコウホールディングス,0
388,2180001160138,新規,0,2024-02-14,2024-02-14,株式会社ＡｌｐｈＡ,,株式会社,愛知県,名古屋市中区,上前津２丁目９番地１６号ビラ三秀６０１号,,23,106,4600013,,,,,,,2024-02-14,1,,,,,アルファ,0
393,2190001031107,新規,0,2024-02-14,2024-02-14,株式会社ＫＩホールディングス,,株式会社,三重県,四日市市,平尾町３２５４番地１,,24,202,5121205,,,,,,,2024-02-14,1,,,,,ケーアイホールディングス,0
404,2240003006522,新規,0,2024-02-14,2024-02-14,合同会社Ｕｒａｒａ,,合同会社,広島県,広島市南区,南蟹屋１丁目１０番３５－１００７号,,34,103,7320803,,,,,,,2024-02-14,1,,,,,ウララ,0
409,2260001038747,新規,0,2024-02-14,2024-02-14,株式会社鍵屋,,株式会社,岡山県,苫田郡鏡野町,女原１０７番地２,,33,606,7080423,,,,,,,2024-02-14,1,,,,,カギヤ,0
416,2290001104653,新規,0,2024-02-14,2024-02-14,株式会社ＯＮＥ　ＰＬＵＳ　ＯＮＥ,,株式会社,福岡県,福岡市東区,香椎照葉７丁目８番３－８２２号照葉オーシャンステージＥＡＳＴ棟,,40,131,8130017,,,,,,,2024-02-14,1,,,,,ワンプラスワン,0
417,2290001104694,新規,0,2024-02-14,2024-02-14,株式会社ＲＡＶＥＮ,,株式会社,福岡県,福岡市博多区,中洲５丁目６番２８号リバーフロント中洲川端５階,,40,132,8100801,,,,,,,2024-02-14,1,,,,,レイブン,0
419,2290801030314,新規,0,2024-02-14,2024-02-14,株式会社リアエ,,株式会社,福岡県,京都郡苅田町,新津３丁目６番地１（２０１号）,,40,621,8000344,,,,,,,2024-02-14,1,,,,,リアエ,0
422,2290803004613,新規,0,2024-02-14,2024-02-14,合同会社Ｒｉｚｚ,,合同会社,福岡県,北九州市八幡西区,黒崎１丁目９番６－４０１号,,40,109,8060021,,,,,,,2024-02-14,1,,,,,リズ,0
423,2300001013621,新規,0,2024-02-14,2024-02-14,ソラドレ株式会社,,株式会社,佐賀県,佐賀市,中央本町１番１０号ニュー寺元ビル５階,,41,201,8400825,,,,,,,2024-02-14,1,,,,,ソラドレ,0
429,2320001020293,新規,0,2024-02-14,2024-02-14,株式会社アールシーレイズ,,株式会社,大分県,大分市,横田２丁目７番２１号レーブルサグレス２０２,,44,201,8700263,,,,,,,2024-02-14,1,,,,,,0
431,2340001026280,新規,0,2024-02-14,2024-02-14,株式会社三輪車,,株式会社,鹿児島県,霧島市,国分府中町７番１７号,,46,218,8994346,,,,,,,2024-02-14,1,,,,,サンリンシャ,0
432,2340001026289,新規,0,2024-02-14,2024-02-14,株式会社ＫＨＣｏｎｎｅｃｔｉｏｎ,,株式会社,鹿児島県,鹿児島市,呉服町１番１８号Ｌｉｎｋビル７階,,46,201,8920826,,,,,,,2024-02-14,1,,,,,ケイエイチコネクション,0
435,2360001033184,新規,0,2024-02-14,2024-02-14,ＨＵＧＥ株式会社,,株式会社,沖縄県,那覇市,字小禄１８３１番地１－３１６号室Ａ,,47,201,9010152,,,,,,,2024-02-14,1,,,,,ヒュージ,0
436,2370001050939,新規,0,2024-02-14,2024-02-14,株式会社アドワースループ,,株式会社,宮城県,仙台市宮城野区,宮城野２丁目１３－３２,,04,102,9830045,,,,,,,2024-02-14,1,,,,,アドワースループ,0
442,2380005012793,新規,0,2024-02-14,2024-02-14,一般社団法人相双フィルムコミッション,,その他の設立登記法人,福島県,双葉郡浪江町,大字井手字北川原７４番地,,07,547,9791535,,,,,,,2024-02-14,1,,,,,ソウソウフィルムコミッション,0
451,2470003002580,新規,0,2024-02-14,2024-02-14,合同会社Ｈｉｌｌ　ｔｏｐ　Ｌｉｆｅ,,合同会社,香川県,高松市,岡本町５５６番地１６,,37,201,7618047,,,,,,,2024-02-14,1,,,,,ヒルトップライフ,0
464,3010005037884,新規,0,2024-02-14,2024-02-14,一般社団法人茨石,,その他の設立登記法人,東京都,千代田区,内幸町２丁目２番２号富国生命ビル１３階,,13,101,1000011,,,,,,,2024-02-14,1,,,,,イバセキ,0
468,3010401180214,新規,0,2024-02-14,2024-02-14,環吉ジャパン株式会社,,株式会社,東京都,港区,虎ノ門４丁目３番１号城山トラストタワー２７階,,13,103,1050001,,,,,,,2024-02-14,1,,,,,カンキチジャパン,0
469,3010401180354,新規,0,2024-02-14,2024-02-14,株式会社ＬＩＧＰＬＵＳ,,株式会社,東京都,港区,南青山３丁目８－４０青山センタービル２Ｆ,,13,103,1070062,,,,,,,2024-02-14,1,,,,,リグプラス,0
474,3010501051777,新規,0,2024-02-14,2024-02-14,ＪＩＮホールディングス株式会社,,株式会社,東京都,台東区,上野２丁目１１－１３センチュリオン池之端ビル１階,,13,106,1100005,,,,,,,2024-02-14,1,,,,,,0
481,3010801034779,新規,0,2024-02-14,2024-02-14,基点電子株式会社,,株式会社,東京都,大田区,東海３丁目７番３号東海ビル,,13,111,1430001,,,,,,,2024-02-14,1,,,,,,0
484,3010903008805,新規,0,2024-02-14,2024-02-14,Ｗｅｌｆａｒｅ２５合同会社,,合同会社,東京都,世田谷区,上野毛４丁目６番９号,,13,112,1580093,,,,,,,2024-02-14,1,,,,,ウェルフェアニジュウゴ,0
490,3011001159937,新規,0,2024-02-14,2024-02-14,株式会社ＣｏｉｎＴｏｓｓ,,株式会社,東京都,渋谷区,神泉町１０番１５号アネックス神泉３０１,,13,113,1500045,,,,,,,2024-02-14,1,,,,,コイントス,0
491,3011001159986,新規,0,2024-02-14,2024-02-14,株式会社ＲｏｏｔｓＣｏｎｓｕｌｔｉｎｇ,,株式会社,東京都,渋谷区,道玄坂１丁目１０番８号渋谷道玄坂東急ビル２Ｆ－Ｃ,,13,113,1500043,,,,,,,2024-02-14,1,,,,,ルーツコンサルティング,0
492,3011001159994,新規,0,2024-02-14,2024-02-14,株式会社ワイズ・プランニング,,株式会社,東京都,渋谷区,恵比寿南１丁目１番１号ヒューマックス恵比寿ビル６Ｆ,,13,113,1500022,,,,,,,2024-02-14,1,,,,,ワイズプランニング,0
493,3011001160028,新規,0,2024-02-14,2024-02-14,株式会社ＳＵＡ,,株式会社,東京都,目黒区,三田２丁目４番６号,,13,110,1530062,,,,,,,2024-02-14,1,,,,,スア,0
499,3011101106145,新規,0,2024-02-14,2024-02-14,株式会社佳勝商事,,株式会社,東京都,新宿区,北新宿１丁目３０－３０,,13,104,1690074,,,,,,,2024-02-14,1,,,,,カショウショウジ,0
505,3011601027527,新規,0,2024-02-14,2024-02-14,キーズ都市デザイン株式会社,,株式会社,東京都,練馬区,田柄５丁目２番３号,,13,120,1790073,,,,,,,2024-02-14,1,,,,,キーズトシデザイン,0
506,3011603004243,新規,0,2024-02-14,2024-02-14,合同会社ＫＡＩ,,合同会社,東京都,練馬区,早宮４丁目２８番１４号３０２,,13,120,1790085,,,,,,,2024-02-14,1,,,,,カイ,0
509,3011801043786,新規,0,2024-02-14,2024-02-14,コナテック株式会社,,株式会社,東京都,葛飾区,亀有３丁目１６番２号セトビル２０６号室,,13,122,1250061,,,,,,,2024-02-14,1,,,,,コナテック,0
510,3011803006089,新規,0,2024-02-14,2024-02-14,合同会社ＰＥＥＲ,,合同会社,東京都,足立区,綾瀬４丁目２８―１９,,13,121,1200005,,,,,,,2024-02-14,1,,,,,ピアー,0
512,3012701018085,新規,0,2024-02-14,2024-02-14,株式会社Ｃｏｌｌｅａｇｕｅ,,株式会社,東京都,東久留米市,幸町２丁目７番５号,,13,222,2030052,,,,,,,2024-02-14,1,,,,,コリーグ,0
522,3020001155763,新規,0,2024-02-14,2024-02-14,３Ｒ株式会社,,株式会社,神奈川県,川崎市中原区,小杉町１丁目５１３番地クロムフィット武蔵小杉ＩＩ１Ｆ,00133716,14,133,2110063,,,,,,,2024-02-14,1,,,,,スリーアール,0
523,3020001155805,新規,0,2024-02-14,2024-02-14,株式会社やさしいこころ,,株式会社,神奈川県,横浜市西区,北幸２丁目１０番４８号むつみビル３階,,14,103,2200004,,,,,,,2024-02-14,1,,,,,ヤサシイココロ,0
524,3020003025543,新規,0,2024-02-14,2024-02-14,Ｆｉｌｍｓｓｉｍｏ合同会社,,合同会社,神奈川県,横浜市瀬谷区,二ツ橋町４２３番地１３,,14,114,2460021,,,,,,,2024-02-14,1,,,,,,0
526,3021001081413,新規,0,2024-02-14,2024-02-14,株式会社Ｍ＆Ｕ　ａｇｅｎｃｙ,,株式会社,神奈川県,海老名市,大谷北２丁目９－１５,,14,215,2430419,,,,,,,2024-02-14,1,,,,,エムアンドユーエージェンシー,0
532,3030001158617,新規,0,2024-02-14,2024-02-14,ななほしハウス株式会社,,株式会社,埼玉県,さいたま市南区,別所２丁目３７番地１７号船岡ビル１０２号室,,11,108,3360021,,,,,,,2024-02-14,1,,,,,ナナホシハウス,0
533,3030001158658,新規,0,2024-02-14,2024-02-14,株式会社ユリチャート,,株式会社,埼玉県,所沢市,小手指町１丁目２６番地の１,,11,208,3591141,,,,,,,2024-02-14,1,,,,,ユリチャート,0
534,3030001158674,新規,0,2024-02-14,2024-02-14,株式会社ＮＩＪＹＵＧＯＤＯ,,株式会社,埼玉県,新座市,東３丁目２－８,,11,230,3520002,,,,,,,2024-02-14,1,,,,,ニジュウゴド,0
539,3030003023620,新規,0,2024-02-14,2024-02-14,ＶＡＮＰＲＯＭＯＴＩＯＮ合同会社,,合同会社,埼玉県,越谷市,七左町６丁目１６０－２,,11,222,3430851,,,,,,,2024-02-14,1,,,,,ヴァンプロモーション,0
540,3030003023637,新規,0,2024-02-14,2024-02-14,Ｆｕｊｉｂａ合同会社,,合同会社,埼玉県,川口市,元郷１丁目３番８号ワコーレ川口Ｖ２０４号,,11,203,3320011,,,,,,,2024-02-14,1,,,,,フジバ,0
546,3040001132026,新規,0,2024-02-14,2024-02-14,株式会社隼和,,株式会社,千葉県,八千代市,上高野１２０１番地１セトオーズ１０２号,,12,221,2760022,,,,,,,2024-02-14,1,,,,,シュンワ,0
547,3040001132174,新規,0,2024-02-14,2024-02-14,ＦｒｏｎｔｉｅｒＤｙｎｅ株式会社,,株式会社,千葉県,船橋市,本町１丁目３１番２６号セブン船橋１Ｆ,,12,204,2730005,,,,,,,2024-02-14,1,,,,,フロンティアダイン,0
548,3040001132190,新規,0,2024-02-14,2024-02-14,株式会社彩サポート,,株式会社,千葉県,船橋市,大穴南４丁目３２番１０号,,12,204,2740067,,,,,,,2024-02-14,1,,,,,イロドリサポート,0
549,3040001132208,新規,0,2024-02-14,2024-02-14,株式会社ジーテック,,株式会社,千葉県,君津市,北子安２丁目１７番１０号,,12,225,2991161,,,,,,,2024-02-14,1,,,,,ジーテック,0
550,3040001132216,新規,0,2024-02-14,2024-02-14,株式会社タイコウ,,株式会社,千葉県,千葉市稲毛区,小中台町７１４番地,,12,103,2630044,,,,,,,2024-02-14,1,,,,,タイコウ,0
555,3050001054269,新規,0,2024-02-14,2024-02-14,ＴＡＫＡＳＨＩＭＡ　ＩＮＴＥＲＮＡＴＩＯＮＡＬ株式会社,,株式会社,茨城県,かすみがうら市,下稲吉２６７３番地２３０,,08,230,3150052,,,,,,,2024-02-14,1,,,,,タカシマインターナショナル,0
556,3050001054277,新規,0,2024-02-14,2024-02-14,株式会社グッドフェローズ,,株式会社,茨城県,土浦市,桜町２丁目５番１２号,,08,203,3000037,,,,,,,2024-02-14,1,,,,,グッドフェローズ,0
557,3050001054285,新規,0,2024-02-14,2024-02-14,株式会社ふじえだ農園ＳＣ,,株式会社,茨城県,東茨城郡茨城町,大字海老沢１５１０番地２,,08,302,3113135,,,,,,,2024-02-14,1,,,,,フジエダノウエンエスシー,0
561,3070001041380,新規,0,2024-02-14,2024-02-14,株式会社鈴木牧場,,株式会社,群馬県,前橋市,勝沢町１０８番地,,10,201,3710124,,,,,,,2024-02-14,1,,,,,スズキボクジョウ,0
567,3090001018542,新規,0,2024-02-14,2024-02-14,株式会社ＡＭＥ,,株式会社,山梨県,甲府市,北口３丁目４番３３号セインツ２５－４０３,,19,201,4000024,,,,,,,2024-02-14,1,,,,,エーエムイー,0
570,3090005007608,新規,0,2024-02-14,2024-02-14,医療法人社団ばば歯科医院,,その他の設立登記法人,山梨県,甲府市,川田町５３７番地１,,19,201,4000811,,,,,,,2024-02-14,1,,,,,ババシカイイン,0
573,3100005013117,新規,0,2024-02-14,2024-02-14,一般社団法人わけしょ,,その他の設立登記法人,長野県,上水内郡飯綱町,大字川上１５３５番地,,20,590,3891226,,,,,,,2024-02-14,1,,,,,ワケショ,0
584,3120001262054,新規,0,2024-02-14,2024-02-14,宇駱株式会社,,株式会社,大阪府,大阪市城東区,鴫野東１丁目６－９小野ライトマンションＡ４０２号室,,27,118,5360013,,,,,,,2024-02-14,1,,,,,ウラク,0
585,3120001262145,新規,0,2024-02-14,2024-02-14,株式会社コンプロマイズコーポレーション,,株式会社,大阪府,門真市,三ツ島２丁目１－１５,,27,223,5710015,,,,,,,2024-02-14,1,,,,,コンプロマイズコーポレーション,0
586,3120001262236,新規,0,2024-02-14,2024-02-14,株式会社ＳＵＳＡＮＯ,,株式会社,大阪府,大阪市中央区,瓦町２丁目４番５号,,27,128,5410048,,,,,,,2024-02-14,1,,,,,スサノオ,0
587,3120001262252,新規,0,2024-02-14,2024-02-14,宝籠商事株式会社,,株式会社,大阪府,大阪市東成区,中道４丁目１６番２１－４０３号,,27,115,5370025,,,,,,,2024-02-14,1,,,,,ホウロウショウジ,0
588,3120001262277,新規,0,2024-02-14,2024-02-14,株式会社武芸シザー,,株式会社,大阪府,大阪市都島区,都島中通３丁目１４番９－２０２号,,27,102,5340022,,,,,,,2024-02-14,1,,,,,ブゲイシザー,0
589,3120001262368,新規,0,2024-02-14,2024-02-14,三徳パートナーズ株式会社,,株式会社,大阪府,大阪市港区,磯路３丁目２６番９号,,27,107,5520003,,,,,,,2024-02-14,1,,,,,サントクパートナーズ,0
592,3120003025871,新規,0,2024-02-14,2024-02-14,合同会社ラインワーク,,合同会社,大阪府,大阪市中央区,博労町４丁目７番１－７０６号,,27,128,5410059,,,,,,,2024-02-14,1,,,,,ラインワーク,0
593,3120003025938,新規,0,2024-02-14,2024-02-14,合同会社幸謙,,合同会社,大阪府,大阪市住吉区,遠里小野１丁目７番８号,,27,120,5580032,,,,,,,2024-02-14,1,,,,,コウケン,0
595,3120005024161,新規,0,2024-02-14,2024-02-14,特定非営利活動法人ジョイアス,,その他の設立登記法人,大阪府,大阪市天王寺区,味原町１０番３号,,27,109,5430023,,,,,,,2024-02-14,1,,,,,ジョイアス,0
596,3120101069036,新規,0,2024-02-14,2024-02-14,株式会社カンタク,,株式会社,大阪府,貝塚市,鳥羽１１８番地１,,27,208,5970084,,,,,,,2024-02-14,1,,,,,カンタク,0
600,3120901048759,新規,0,2024-02-14,2024-02-14,株式会社ドリーマーズギルド,,株式会社,大阪府,吹田市,千里山西４丁目２７番２号,,27,205,5650851,,,,,,,2024-02-14,1,,,,,ドリーマーズギルド,0
601,3130001076362,新規,0,2024-02-14,2024-02-14,株式会社幹,,株式会社,京都府,京都市北区,大宮釈迦谷４番地２０,,26,101,6038478,,,,,,,2024-02-14,1,,,,,ミキ,0
603,3130003009295,新規,0,2024-02-14,2024-02-14,Ｏｐｄｅａｉ合同会社,,合同会社,京都府,京都市右京区,花園伊町１２番地,,26,108,6168042,,,,,,,2024-02-14,1,,,,,オプディー,0
604,3130005017008,新規,0,2024-02-14,2024-02-14,一般社団法人これから,,その他の設立登記法人,京都府,向日市,向日町南山３９番地の１６,,26,208,6170005,,,,,,,2024-02-14,1,,,,,コレカラ,0
605,3140001133328,新規,0,2024-02-14,2024-02-14,エースリー株式会社,,株式会社,兵庫県,加古川市,野口町良野７７３番地の１３,,28,210,6750017,,,,,,,2024-02-14,1,,,,,エースリー,0
606,3140003020160,新規,0,2024-02-14,2024-02-14,合同会社Ｈｕｇｓ,,合同会社,兵庫県,加古郡播磨町,上野添１丁目１番３－１００６号,,28,382,6750157,,,,,,,2024-02-14,1,,,,,ハグス,0
615,3180303006005,新規,0,2024-02-14,2024-02-14,合同会社わいわい,,合同会社,愛知県,西尾市,吉良町宮迫神田１１番地,,23,213,4440502,,,,,,,2024-02-14,1,,,,,ワイワイ,0
624,3200001042159,新規,0,2024-02-14,2024-02-14,株式会社ユア,,株式会社,岐阜県,岐阜市,中１丁目１番地１,,21,201,5011173,,,,,,,2024-02-14,1,,,,,ユア,0
625,3210001019635,新規,0,2024-02-14,2024-02-14,グランドホープ株式会社,,株式会社,福井県,福井市,清水杉谷町第２６号１０５番地,,18,201,9103607,,,,,,,2024-02-14,1,,,,,グランドホープ,0
627,3220001025822,新規,0,2024-02-14,2024-02-14,株式会社能登カワラ,,株式会社,石川県,七尾市,湊町１丁目６８番地,,17,202,9260058,,,,,,,2024-02-14,1,,,,,ノトカワラ,0
630,3220005008807,新規,0,2024-02-14,2024-02-14,一般社団法人能登地震地域復興サポート,,その他の設立登記法人,石川県,鳳珠郡能登町,字矢波２７字２６番地３,,17,463,9270443,,,,,,,2024-02-14,1,,,,,ノトジシンチイキフッコウサポート,0
644,3290001104677,新規,0,2024-02-14,2024-02-14,ＧＯ福岡株式会社,,株式会社,福岡県,福岡市南区,曰佐３丁目５番３１－１号,,40,134,8111313,,,,,,,2024-02-14,1,,,,,ゴーフクオカ,0
645,3290001104685,新規,0,2024-02-14,2024-02-14,株式会社Ｎａｏコネクション,,株式会社,福岡県,福岡市中央区,渡辺通５丁目２３－２東急ドエルアルス天神３階３０３号室,,40,133,8100004,,,,,,,2024-02-14,1,,,,,ナオコネクション,0
647,3290003014965,新規,0,2024-02-14,2024-02-14,合同会社ｈａｉｒ　ｍａｋｅ　ｒｉｎ,,合同会社,福岡県,福岡市中央区,白金１丁目１６番２５号１階,,40,133,8100012,,,,,,,2024-02-14,1,,,,,ヘアーメイクリン,0
651,3290005019293,新規,0,2024-02-14,2024-02-14,一般財団法人伝統文化振興財団たくみ,,その他の設立登記法人,福岡県,福岡市中央区,今川２丁目１番１７号,,40,133,8100054,,,,,,,2024-02-14,1,,,,,デントウブンカシンコウザイダンタクミ,0
653,3290801030313,新規,0,2024-02-14,2024-02-14,株式会社野田商店,,株式会社,福岡県,北九州市八幡西区,萩原２丁目１番１３号,,40,109,8060059,,,,,,,2024-02-14,1,,,,,ノダショウテン,0
654,3290805009709,新規,0,2024-02-14,2024-02-14,一般社団法人オフィスラピート,,その他の設立登記法人,福岡県,北九州市小倉南区,北方２丁目２４番１－５０１号,,40,107,8020841,,,,,,,2024-02-14,1,,,,,オフィスラピート,0
657,3310001018858,新規,0,2024-02-14,2024-02-14,株式会社Ｏｎｅ　ｏｒ　Ｅｉｇｈｔ,,株式会社,長崎県,長崎市,みなと坂２丁目２７番２号,,42,201,8500079,,,,,,,2024-02-14,1,,,,,ワンオアエイト,0
659,3320001020284,新規,0,2024-02-14,2024-02-14,平成商運株式会社,,株式会社,大分県,佐伯市,野岡町２丁目２番２１号,,44,205,8760815,,,,,,,2024-02-14,1,,,,,ヘイセイショウウン,0
660,3320001020292,新規,0,2024-02-14,2024-02-14,株式会社春日屋,,株式会社,大分県,玖珠郡九重町,大字粟野１１４０番地の１,,44,461,8794721,,,,,,,2024-02-14,1,,,,,カスガヤ,0
663,3330003010209,新規,0,2024-02-14,2024-02-14,合同会社サンプラス,,合同会社,熊本県,熊本市中央区,新市街１０－８,,43,101,8600803,,,,,,,2024-02-14,1,,,,,サンプラス,0
667,3340003004366,新規,0,2024-02-14,2024-02-14,ＬＩＮＫ合同会社,,合同会社,鹿児島県,鹿屋市,寿８丁目２３番３２－１号,,46,203,8930014,,,,,,,2024-02-14,1,,,,,リンク,0
670,3350001018788,新規,0,2024-02-14,2024-02-14,株式会社わくわくセンター,,株式会社,宮崎県,宮崎市,別府町４番３３号,,45,201,8800802,,,,,,,2024-02-14,1,,,,,ワクワクセンター,0
671,3350005006211,新規,0,2024-02-14,2024-02-14,特定非営利活動法人ＫＲＡＰ,,その他の設立登記法人,宮崎県,えびの市,大字浦１５６２番地１,,45,209,8894153,,,,,,,2024-02-14,1,,,,,クラップ,0
672,3360001033191,新規,0,2024-02-14,2024-02-14,株式会社辰一建設,,株式会社,沖縄県,那覇市,牧志１丁目４番２７号共立マンション牧志Ｉ２０１,00133707,47,201,9000013,,,,,,,2024-02-14,1,,,,,タツイチケンセツ,0
684,3430001091083,新規,0,2024-02-14,2024-02-14,株式会社Ｋ’ｓＨ,,株式会社,北海道,札幌市北区,南あいの里７丁目２番６号,,01,102,0028091,,,,,,,2024-02-14,1,,,,,ケーズエイチ,0
686,3430005014890,新規,0,2024-02-14,2024-02-14,一般社団法人真栄スポーツクラブ,,その他の設立登記法人,北海道,札幌市清田区,真栄五条４丁目６番３８号,,01,110,0040835,,,,,,,2024-02-14,1,,,,,シンエイスポーツクラブ,0
690,3490001010698,新規,0,2024-02-14,2024-02-14,轟商会株式会社,,株式会社,高知県,高知市,弘化台１５番１６号,,39,201,7810811,,,,,,,2024-02-14,1,,,,,トドロキショウカイ,0
693,3700150123972,新規,0,2024-02-14,2024-02-14,株式会社ウインマンダレートレーディング,,外国会社等,東京都,新宿区,高田馬場２丁目１４番５号鈴木ビル２階,,13,104,1690075,ミャンマー連邦共和国セッカンターストリート上ブロックヤンゴン管区９Ｃ、チャウタダー地区９階２５６，６６番地、ミャンマーマンダレー管区パテインジー地区、ヤンキンアウン小区パダウッストリート３５３／３５４,,,,,,2024-02-14,1,,,,,ウインマンダレートレーデイング,0
702,4010001242256,新規,0,2024-02-14,2024-02-14,株式会社ａｎｙｔｏｏｌｓ,,株式会社,東京都,中央区,銀座１丁目１２－４Ｎ＆Ｅ・ＢＬＤ．７階,,13,102,1040061,,,,,,,2024-02-14,1,,,,,エニィツールズ,0
706,4010101016007,新規,0,2024-02-14,2024-02-14,才谷屋株式会社,,株式会社,東京都,八王子市,下柚木３丁目３番地４－９０４,,13,201,1920372,,,,,,,2024-02-14,1,,,,,サイタニヤ,0
707,4010103002310,新規,0,2024-02-14,2024-02-14,ＬＥ　ＳＯＥ合同会社,,合同会社,東京都,八王子市,絹ケ丘１丁目５０番２号クーネル絹ケ丘１０６号,,13,201,1920912,,,,,,,2024-02-14,1,,,,,ルソー,0
716,4010401180386,新規,0,2024-02-14,2024-02-14,ＭＩＲＡＩ株式会社,,株式会社,東京都,港区,東麻布１丁目７番３号第二渡邊ビル７階,,13,103,1060044,,,,,,,2024-02-14,1,,,,,ミライ,0
717,4010401180394,新規,0,2024-02-14,2024-02-14,株式会社海上パワーグリッド,,株式会社,東京都,港区,赤坂９丁目７番１号ミッドタウン・タワー４３階,,13,103,1070052,,,,,,,2024-02-14,1,,,,,カイジョウパワーグリッド,0
722,4010501051784,新規,0,2024-02-14,2024-02-14,株式会社Ｔｕｌｉｐ,,株式会社,東京都,台東区,浅草５丁目５６番９号,,13,106,1110032,,,,,,,2024-02-14,1,,,,,チューリップ,0
723,4010503007339,新規,0,2024-02-14,2024-02-14,合同会社スリーチェック,,合同会社,東京都,台東区,清川２丁目３１－３,,13,106,1110022,,,,,,,2024-02-14,1,,,,,スリーチェック,0
725,4010601064645,新規,0,2024-02-14,2024-02-14,株式会社ＣＨＡＭＢＥＲＳ,,株式会社,東京都,江東区,平野１丁目１４番１号ブランボヌール清澄白河１Ｆ,,13,108,1350023,,,,,,,2024-02-14,1,,,,,チェンバース,0
726,4010603010647,新規,0,2024-02-14,2024-02-14,合同会社Ａｇｉｔａｔｉｏｎ，Ｉｎｃ．,,合同会社,東京都,墨田区,向島３丁目２９‐１３アトリエ３２９、１０２号室,,13,107,1310033,,,,,,,2024-02-14,1,,,,,アジテーションインク,0
737,4011001159936,新規,0,2024-02-14,2024-02-14,株式会社オークス,,株式会社,東京都,目黒区,青葉台４丁目４番５－４０４号コンフォリア渋谷ＷＥＳＴ,,13,110,1530042,,,,,,,2024-02-14,1,,,,,オークス,0
738,4011001160002,新規,0,2024-02-14,2024-02-14,株式会社ヒカリキューブ,,株式会社,東京都,渋谷区,桜丘町２３番１７－４０８号,,13,113,1500031,,,,,,,2024-02-14,1,,,,,ヒカリキューブ,0
741,4011101106169,新規,0,2024-02-14,2024-02-14,舟町産業株式会社,,株式会社,東京都,新宿区,舟町２番地３,,13,104,1600006,,,,,,,2024-02-14,1,,,,,フナマチサンギョウ,0
742,4011101106185,新規,0,2024-02-14,2024-02-14,株式会社ｖａｌｖｉｘ,,株式会社,東京都,新宿区,西新宿３丁目２番９号新宿ワシントンホテルビル本館２Ｆ,,13,104,1600023,,,,,,,2024-02-14,1,,,,,バルビックス,0
750,4011401025861,新規,0,2024-02-14,2024-02-14,株式会社アンドツリー,,株式会社,東京都,板橋区,前野町４丁目１９番２号,,13,119,1740063,,,,,,,2024-02-14,1,,,,,アンドツリー,0
752,4011503005951,新規,0,2024-02-14,2024-02-14,ワイズ合同会社,,合同会社,東京都,北区,赤羽１丁目７番９号赤羽第一葉山ビル４階,,13,117,1150045,,,,,,,2024-02-14,1,,,,,ワイズ,0
753,4011601027518,新規,0,2024-02-14,2024-02-14,株式会社Ｔａｎａｋｅｎ,,株式会社,東京都,練馬区,練馬１丁目２０番８号日建練馬ビル２Ｆ,,13,120,1760001,,,,,,,2024-02-14,1,,,,,タナケン,0
756,4011801043785,新規,0,2024-02-14,2024-02-14,株式会社誠,,株式会社,東京都,足立区,大谷田３丁目２番７号,,13,121,1200001,,,,,,,2024-02-14,1,,,,,マコト,0
757,4012301013782,新規,0,2024-02-14,2024-02-14,株式会社Ｓｍｉｌｅ‐ａｒｔ,,株式会社,東京都,町田市,原町田４丁目９番８‐１６０３号,,13,209,1940013,,,,,,,2024-02-14,1,,,,,スマイルアート,0
758,4012401041502,新規,0,2024-02-14,2024-02-14,株式会社ＧＬＤ　ｐｒｏｄｕｃｔ,,株式会社,東京都,稲城市,百村１４５４番地,,13,225,2060804,,,,,,,2024-02-14,1,,,,,ジーエルディープロダクト,0
762,4013301052069,新規,0,2024-02-14,2024-02-14,株式会社イイネクルー,,株式会社,東京都,豊島区,長崎３丁目４番３号,,13,116,1710051,,,,,,,2024-02-14,1,,,,,イイネクルー,0
764,4020001155812,新規,0,2024-02-14,2024-02-14,株式会社アイビー,,株式会社,神奈川県,横浜市西区,高島２丁目７－２,,14,103,2200011,,,,,,,2024-02-14,1,,,,,アイビー,0
768,4020003025518,新規,0,2024-02-14,2024-02-14,合同会社コエノマ,,合同会社,神奈川県,横浜市西区,浅間町１丁目４番３号ウィザードビル４０２,,14,103,2200072,,,,,,,2024-02-14,1,,,,,コエノマ,0
784,4030001158616,新規,0,2024-02-14,2024-02-14,株式会社オートショップホリコシ,,株式会社,埼玉県,久喜市,間鎌２５４番地,,11,232,3491123,,,,,,,2024-02-14,1,,,,,オートショップホリコシ,0
785,4030001158624,新規,0,2024-02-14,2024-02-14,日本衆＿達貿易株式会社,00133704,株式会社,埼玉県,さいたま市南区,文蔵３丁目１８－３－５１０,,11,108,3360025,,,,,,,2024-02-14,1,,,,,ニホンシュウキンタツボウエキ,0
786,4030001158640,新規,0,2024-02-14,2024-02-14,株式会社ａｎｄ　ｐａｓｔ,,株式会社,埼玉県,上尾市,大字瓦葺１４５６－４,,11,219,3620022,,,,,,,2024-02-14,1,,,,,アンドパスト,0
787,4030001158657,新規,0,2024-02-14,2024-02-14,株式会社Ｈｅａｄ‐ｏｎアドバイザリー,,株式会社,埼玉県,さいたま市南区,別所３丁目４番１号ＫＥＳＳＨＯＢＬＤＧ．３０１号,,11,108,3360021,,,,,,,2024-02-14,1,,,,,ヘッドオンアドバイザリー,0
788,4030001158665,新規,0,2024-02-14,2024-02-14,株式会社ＫＰＭ,,株式会社,埼玉県,所沢市,西住吉１１番１６号ＳＯＮＩＣＳＱＵＡＲＥＢｌｄ．２Ｆ,,11,208,3591126,,,,,,,2024-02-14,1,,,,,ケーピーエム,0
789,4030001158673,新規,0,2024-02-14,2024-02-14,銀座商事株式会社,,株式会社,埼玉県,熊谷市,代９３０番地９,,11,202,3600804,,,,,,,2024-02-14,1,,,,,ギンザショウジ,0
808,4050001054251,新規,0,2024-02-14,2024-02-14,株式会社暮らしの計画,,株式会社,茨城県,龍ケ崎市,緑町２７番地,,08,208,3010832,,,,,,,2024-02-14,1,,,,,クラシノケイカク,0
809,4050001054268,新規,0,2024-02-14,2024-02-14,ピックオート株式会社,,株式会社,茨城県,古河市,大和田１８３６番地１,,08,204,3060111,,,,,,,2024-02-14,1,,,,,ピックオート,0
812,4050003008123,新規,0,2024-02-14,2024-02-14,合同会社ＮＯＶＥＬ　ＦＬＡＲＥ,,合同会社,茨城県,土浦市,小野５８０番地,,08,203,3004108,,,,,,,2024-02-14,1,,,,,ノーベルフレア,0
813,4050003008131,新規,0,2024-02-14,2024-02-14,デライト・フル合同会社,,合同会社,茨城県,古河市,中田２２６８,,08,204,3060053,,,,,,,2024-02-14,1,,,,,デライトフル,0
826,4080401027003,新規,0,2024-02-14,2024-02-14,株式会社ヴァークスウッド,,株式会社,静岡県,磐田市,上岡田１００７番地１３,,22,211,4380045,,,,,,,2024-02-14,1,,,,,ヴァークスウッド,0
831,4110001038181,新規,0,2024-02-14,2024-02-14,株式会社ロードコンサルティング,,株式会社,新潟県,新潟市中央区,本町通７番町１０９８番地１ＷｏｒｋＷｉｔｈ本町２階,,15,103,9518067,,,,,,,2024-02-14,1,,,,,ロードコンサルティング,0
836,4120001262169,新規,0,2024-02-14,2024-02-14,株式会社Ａｏ,,株式会社,大阪府,大阪市西区,阿波座２丁目３－２３有恒ビル４０６,,27,106,5500011,,,,,,,2024-02-14,1,,,,,アオ,0
837,4120001262202,新規,0,2024-02-14,2024-02-14,株式会社ＴＬＳ,,株式会社,大阪府,大阪市生野区,勝山南４丁目３番２３号朝日プラザプロシード桃谷東７０６号室,,27,116,5440021,,,,,,,2024-02-14,1,,,,,ティーエルエス,0
839,4120003025895,新規,0,2024-02-14,2024-02-14,合同会社ニンフ,,合同会社,大阪府,守口市,滝井西町２丁目２番３号,,27,209,5700076,,,,,,,2024-02-14,1,,,,,ニンフ,0
841,4120101069035,新規,0,2024-02-14,2024-02-14,株式会社Ｍ３ＮＹ,,株式会社,大阪府,堺市南区,城山台３丁４番５２号,,27,145,5900137,,,,,,,2024-02-14,1,,,,,エムスリーエヌワイ,0
843,4120103005673,新規,0,2024-02-14,2024-02-14,Ａｄｄ　Ｗａｌｌ合同会社,,合同会社,大阪府,堺市南区,泉田中７番地１,,27,145,5900126,,,,,,,2024-02-14,1,,,,,アドウォール,0
848,4120903005047,新規,0,2024-02-14,2024-02-14,合同会社ＯＭプロパティーズ,,合同会社,大阪府,吹田市,豊津町１３番２４号,,27,205,5640051,,,,,,,2024-02-14,1,,,,,オーエムプロパティーズ,0
855,4140001133319,新規,0,2024-02-14,2024-02-14,株式会社ＳＨＩ‐ＳＯＧＵ,,株式会社,兵庫県,宍粟市,山崎町御名１５４番地１２,,28,227,6712554,,,,,,,2024-02-14,1,,,,,シーソーグ,0
856,4140001133327,新規,0,2024-02-14,2024-02-14,株式会社ＹＡテック,,株式会社,兵庫県,加古川市,野口町長砂２７４番地の５,,28,210,6750016,,,,,,,2024-02-14,1,,,,,ワイエーテック,0
872,4180001160111,新規,0,2024-02-14,2024-02-14,株式会社アシスト,,株式会社,愛知県,名古屋市熱田区,千年２丁目１９番４号,,23,109,4560054,,,,,,,2024-02-14,1,,,,,アシスト,0
874,4180005020518,新規,0,2024-02-14,2024-02-14,一般社団法人ねこあしラボ,,その他の設立登記法人,愛知県,名古屋市天白区,表山１丁目３０１番地,,23,116,4680069,,,,,,,2024-02-14,1,,,,,ネコアシラボ,0
875,4180301038321,新規,0,2024-02-14,2024-02-14,株式会社ｖａｌｍｅ,,株式会社,愛知県,みよし市,三好丘桜２丁目８番地４Ａ棟２０２号,,23,236,4700204,,,,,,,2024-02-14,1,,,,,ヴァルメ,0
885,4200001042158,新規,0,2024-02-14,2024-02-14,株式会社ウェブスター,,株式会社,岐阜県,大垣市,林町７丁目６５８番地１,,21,202,5030015,,,,,,,2024-02-14,1,,,,,ウェブスター,0
886,4220001025821,新規,0,2024-02-14,2024-02-14,株式会社ｆｏｒｃｅ,,株式会社,石川県,小松市,北浅井町舟津１８番地,,17,203,9230851,,,,,,,2024-02-14,1,,,,,フォース,0
898,4290801030304,新規,0,2024-02-14,2024-02-14,株式会社Ｕｎｉｖｅｒｓａｌ,,株式会社,福岡県,田川郡添田町,大字添田２６３６番地,,40,602,8240602,,,,,,,2024-02-14,1,,,,,ユニバーサル,0
900,4310001018857,新規,0,2024-02-14,2024-02-14,株式会社長崎テクノ,,株式会社,長崎県,長崎市,大浜町１５３２番地,,42,201,8500066,,,,,,,2024-02-14,1,,,,,ナガサキテクノ,0
901,4320001020291,新規,0,2024-02-14,2024-02-14,ＯＴＯＲＡＫＵ株式会社,,株式会社,大分県,臼杵市,大字市浜１３４７番地の６,,44,206,8750052,,,,,,,2024-02-14,1,,,,,オトラク,0
903,4330001031726,新規,0,2024-02-14,2024-02-14,Ｆｕｒｂｏ株式会社,,株式会社,熊本県,天草市,船之尾町３－３０・６０３,,43,215,8630017,,,,,,,2024-02-14,1,,,,,,0
912,4370003006482,新規,0,2024-02-14,2024-02-14,ＳＥＮ　ＬＬＣ合同会社,,合同会社,宮城県,仙台市青葉区,花京院１丁目４－２５シティタワー仙台１４０６号室,,04,101,9800013,,,,,,,2024-02-14,1,,,,,センエルエルシー,0
927,4450003002440,新規,0,2024-02-14,2024-02-14,合同会社マカベファーム,,合同会社,北海道,枝幸郡枝幸町,風烈布９１６番地２,,01,514,0985953,,,,,,,2024-02-14,1,,,,,マカベファーム,0
931,4470003002562,新規,0,2024-02-14,2024-02-14,合同会社スノーエン,,合同会社,香川県,三豊市,高瀬町佐股甲２５３４番地８,,37,208,7670021,,,,,,,2024-02-14,1,,,,,スノーエン,0
932,4490001010697,新規,0,2024-02-14,2024-02-14,株式会社Ｗｅｌｌｂｅｉｎｇ,,株式会社,高知県,高知市,本町２丁目４番３０－４０７号,,39,201,7800870,,,,,,,2024-02-14,1,,,,,ウェルビーイング,0
949,5010003042918,新規,0,2024-02-14,2024-02-14,ＣＩＰＡ　ＪＡＰＡＮ合同会社,,合同会社,東京都,中央区,新川２丁目１番３号,,13,102,1040033,,,,,,,2024-02-14,1,,,,,シパジャパン,0
959,5010401180237,新規,0,2024-02-14,2024-02-14,株式会社Ｂｅｘｉｎ　Ｊａｐａｎ,,株式会社,東京都,港区,赤坂２丁目１７－５０赤坂タワーレジデンストップオブザヒル４１２号室,,13,103,1070052,,,,,,,2024-02-14,1,,,,,ベクシンジャパン,0
960,5010401180369,新規,0,2024-02-14,2024-02-14,ハイライフプロパティ株式会社,,株式会社,東京都,港区,三田１丁目４番２８号,,13,103,1080073,,,,,,,2024-02-14,1,,,,,ハイライフプロパティ,0
961,5010401180377,新規,0,2024-02-14,2024-02-14,株式会社ＣｈａｎＢｏ,,株式会社,東京都,港区,南青山２丁目２９番６号,,13,103,1070062,,,,,,,2024-02-14,1,,,,,チャンボ,0
962,5010401180385,新規,0,2024-02-14,2024-02-14,澤のや株式会社,,株式会社,東京都,港区,白金台５丁目５番４－８０２号,,13,103,1080071,,,,,,,2024-02-14,1,,,,,サワノヤ,0
967,5010501051742,新規,0,2024-02-14,2024-02-14,株式会社三休,,株式会社,東京都,台東区,上野１丁目２番９号,,13,106,1100005,,,,,,,2024-02-14,1,,,,,サンキュウ,0
968,5010501051783,新規,0,2024-02-14,2024-02-14,株式会社ＵＯＬＯ,,株式会社,東京都,台東区,小島１丁目１５番１１－７０３号Ｓ－ＲＥＳＩＤＥＮＣＥ新御徒町ＥＡＳＴ,,13,106,1110056,,,,,,,2024-02-14,1,,,,,ユーロウ,0
971,5010601064652,新規,0,2024-02-14,2024-02-14,株式会社ＬＥＯ８,,株式会社,東京都,江東区,豊洲６丁目２番３１号,,13,108,1350061,,,,,,,2024-02-14,1,,,,,レオエイト,0
972,5010603010646,新規,0,2024-02-14,2024-02-14,合同会社Ｂｖｅｒ,,合同会社,東京都,墨田区,文花１丁目１８－３,,13,107,1310044,,,,,,,2024-02-14,1,,,,,ビーヴァー,0
979,5010901054709,新規,0,2024-02-14,2024-02-14,ＳＴＥＥＧ株式会社,,株式会社,東京都,世田谷区,下馬３丁目２１－１０サンライズ下馬３０２,,13,112,1540002,,,,,,,2024-02-14,1,,,,,スティーグ,0
980,5010903008828,新規,0,2024-02-14,2024-02-14,ＫＥＩ　ＴＯＹＯＳＨＩＭＡ合同会社,,合同会社,東京都,世田谷区,松原２丁目２１番１７号,,13,112,1560043,,,,,,,2024-02-14,1,,,,,ケイトヨシマ,0
988,5011001159893,新規,0,2024-02-14,2024-02-14,株式会社ＡＫＳ,,株式会社,東京都,渋谷区,代々木１丁目１８番１５号,,13,113,1510053,,,,,,,2024-02-14,1,,,,,エーケーエス,0
989,5011001159943,新規,0,2024-02-14,2024-02-14,株式会社ハイドロダマリス,,株式会社,東京都,渋谷区,松濤１丁目４番８号ＥＡＳＴ１Ｆ,,13,113,1500046,,,,,,,2024-02-14,1,,,,,ハイドロダマリス,0
990,5011001159976,新規,0,2024-02-14,2024-02-14,株式会社ＴＡＳＵＫＥＡＩ,,株式会社,東京都,渋谷区,恵比寿１丁目１６番２６号協和ビル３０１,,13,113,1500013,,,,,,,2024-02-14,1,,,,,タスケアイ,0
991,5011001159984,新規,0,2024-02-14,2024-02-14,株式会社Ｙｅｌｌｏｗ　Ｃｏｍｐａｎｙ,,株式会社,東京都,渋谷区,広尾２丁目７番７号,,13,113,1500012,,,,,,,2024-02-14,1,,,,,イエローカンパニー,0
992,5011001159992,新規,0,2024-02-14,2024-02-14,セレナコンサルティング株式会社,,株式会社,東京都,渋谷区,道玄坂１丁目１０番８号渋谷道玄坂東急ビル２Ｆ－Ｃ,,13,113,1500043,,,,,,,2024-02-14,1,,,,,セレナコンサルティング,0
994,5011003018486,新規,0,2024-02-14,2024-02-14,合同会社ミタリフォーム,,合同会社,東京都,目黒区,三田２丁目７番２２号三田ハイツ２０４,,13,110,1530062,,,,,,,2024-02-14,1,,,,,ミタリフォーム,0
995,5011005010367,新規,0,2024-02-14,2024-02-14,一般社団法人日本教育協会,,その他の設立登記法人,東京都,渋谷区,代々木１丁目２２番１号ＪＲＥ代々木一丁目ビル１０Ｆ,,13,113,1510053,,,,,,,2024-02-14,1,,,,,ニホンキョウイクキョウカイ,0
1009,5011601027517,新規,0,2024-02-14,2024-02-14,ハウスメンテ株式会社,,株式会社,東京都,練馬区,関町北１丁目１２番１号,,13,120,1770051,,,,,,,2024-02-14,1,,,,,ハウスメンテ,0
1011,5011701027012,新規,0,2024-02-14,2024-02-14,株式会社Ｙｏｎａｓｉｎｄｏ　Ｉｎｔｒａ　Ｐｒａｔａｍａ,,株式会社,東京都,江戸川区,本一色３丁目３９番１２号,,13,123,1330044,,,,,,,2024-02-14,1,,,,,ヨナシンドイントラプラタマ,0
1012,5011703003746,新規,0,2024-02-14,2024-02-14,ＬＩＬＬＩ合同会社,,合同会社,東京都,江戸川区,東葛西５丁目２２番７－４０３号,,13,123,1340084,,,,,,,2024-02-14,1,,,,,リリ,0
1015,5012301013781,新規,0,2024-02-14,2024-02-14,株式会社オーケン,,株式会社,東京都,町田市,金井ヶ丘４丁目２７番２１号ビッグハウス金井４－１０２,,13,209,1950076,,,,,,,2024-02-14,1,,,,,オーケン,0
1017,5012403006411,新規,0,2024-02-14,2024-02-14,合同会社Ｒａｉｎｂｏｗ　Ｈｅａｒｔ,,合同会社,東京都,狛江市,東和泉１丁目２７番１７号,,13,219,2010014,,,,,,,2024-02-14,1,,,,,レインボーハート,0
1019,5012701018083,新規,0,2024-02-14,2024-02-14,株式会社ヒムカデザイン,,株式会社,東京都,西東京市,北原町３丁目６－１２グリーンコーポナカジマ２０５,,13,229,1880003,,,,,,,2024-02-14,1,,,,,ヒムカデザイン,0
1023,5013301052076,新規,0,2024-02-14,2024-02-14,株式会社ティーアップ,,株式会社,東京都,豊島区,西池袋５丁目１８番１１号,,13,116,1710021,,,,,,,2024-02-14,1,,,,,ティーアップ,0
1031,5021001081345,新規,0,2024-02-14,2024-02-14,株式会社クレア,,株式会社,神奈川県,座間市,相模が丘１丁目３４番２７号,,14,216,2520001,,,,,,,2024-02-14,1,,,,,クレア,0
1032,5021001081469,新規,0,2024-02-14,2024-02-14,株式会社Ｎｅｗ　Ｅｄｇｅ,,株式会社,神奈川県,高座郡寒川町,岡田６丁目７番２２号,,14,321,2530105,,,,,,,2024-02-14,1,,,,,ニューエッジ,0
1037,5030001158631,新規,0,2024-02-14,2024-02-14,株式会社ＫＤ,,株式会社,埼玉県,さいたま市北区,本郷町９７２番地１２,,11,102,3310802,,,,,,,2024-02-14,1,,,,,ケーディー,0
1038,5030001158648,新規,0,2024-02-14,2024-02-14,竹島メディカルデベロップメント株式会社,,株式会社,埼玉県,さいたま市中央区,新中里５丁目５番３０号,,11,105,3380011,,,,,,,2024-02-14,1,,,,,タケシマメディカルデベロップメント,0
1039,5030001158664,新規,0,2024-02-14,2024-02-14,株式会社ＯＴＴＯＭＡＮ,,株式会社,埼玉県,さいたま市南区,辻４丁目８番５号フォーリッジハイツ２Ｅ,00133708,11,108,3360026,,,,,,,2024-02-14,1,,,,,オットマン,0
1040,5030001158672,新規,0,2024-02-14,2024-02-14,株式会社ＨＹＢＬＩＳＨ,,株式会社,埼玉県,三郷市,中央５丁目２４番地１７,,11,237,3410038,,,,,,,2024-02-14,1,,,,,ハイブリッシュ,0
1044,5030003023619,新規,0,2024-02-14,2024-02-14,ＧＥＮＪＩ合同会社,,合同会社,埼玉県,幸手市,大字上高野１１８０番６,,11,240,3400155,,,,,,,2024-02-14,1,,,,,ゲンジ,0
1045,5030003023627,新規,0,2024-02-14,2024-02-14,合同会社カクラ工務店,,合同会社,埼玉県,さいたま市岩槻区,加倉４丁目３１番２７－３号,,11,110,3390056,,,,,,,2024-02-14,1,,,,,カクラコウムテン,0
1047,5040001132214,新規,0,2024-02-14,2024-02-14,恩渡し株式会社,,株式会社,千葉県,浦安市,高洲６丁目２番３－３０２号ザ・パークハウス新浦安マリンヴィラ,,12,227,2790023,,,,,,,2024-02-14,1,,,,,オンワタシ,0
1058,5040003024310,新規,0,2024-02-14,2024-02-14,合同会社Ｌｕｘ,,合同会社,千葉県,千葉市美浜区,打瀬３丁目５番地マリンフォート２－１３０１号,,12,106,2610013,,,,,,,2024-02-14,1,,,,,ラックス,0
1060,5050001054242,新規,0,2024-02-14,2024-02-14,Ｇ＆Ｐパートナーズ株式会社,,株式会社,茨城県,つくば市,小茎２２８番地１,,08,220,3001255,,,,,,,2024-02-14,1,,,,,ジーアンドピーパートナーズ,0
1065,5060001036826,新規,0,2024-02-14,2024-02-14,株式会社クロスオーバー,,株式会社,栃木県,小山市,八幡町２丁目１２番２６号ヤマジビル１０１,,09,208,3230031,,,,,,,2024-02-14,1,,,,,クロスオーバー,0
1068,5070001041387,新規,0,2024-02-14,2024-02-14,株式会社成エンタープライズ,,株式会社,群馬県,太田市,新島町９３７番地２－１Ｆ,,10,205,3730819,,,,,,,2024-02-14,1,,,,,ナルエンタープライズ,0
1074,5110001038172,新規,0,2024-02-14,2024-02-14,敬和不動産株式会社,,株式会社,新潟県,新潟市中央区,川端町３丁目１５番地１,,15,103,9518053,,,,,,,2024-02-14,1,,,,,ケイワフドウサン,0
1075,5110001038180,新規,0,2024-02-14,2024-02-14,株式会社雅,,株式会社,新潟県,新潟市西蒲区,和納５７６７番地２８,,15,108,9530125,,,,,,,2024-02-14,1,,,,,ミヤビ,0
1078,5110003005286,新規,0,2024-02-14,2024-02-14,Ｍｙｏｋｏ　Ｈｉｎｏｄｅ合同会社,,合同会社,新潟県,妙高市,大字赤倉１０８番地４７,,15,217,9492111,,,,,,,2024-02-14,1,,,,,ミョウコウヒノデ,0
1079,5110005017049,新規,0,2024-02-14,2024-02-14,魚沼農業協同組合,,その他の設立登記法人,新潟県,十日町市,高田町６丁目６４１番地１,,15,210,9480056,,,,,,新潟県小千谷市城内四丁目１番５５号越後おぢや農業協同組合（3110005012976）と新潟県魚沼市中原２５８番地３北魚沼農業協同組合（4110005013528）と新潟県十日町市高田町六丁目６４１番地１十日町農業協同組合（5110005010128）と新潟県中魚沼郡津南町大字下船渡戊１２５番地１津南町農業協同組合（6110005010127）の合併により設立,2024-02-14,1,,,,,ウオヌマ,0
1084,5120001262093,新規,0,2024-02-14,2024-02-14,一暁株式会社,,株式会社,大阪府,大阪市東成区,大今里１丁目３１番１２号アクセル今里３０３号室,,27,115,5370012,,,,,,,2024-02-14,1,,,,,イチギョウ,0
1085,5120001262135,新規,0,2024-02-14,2024-02-14,株式会社バルクハウジング,,株式会社,大阪府,大阪市淀川区,木川東４丁目１番１－１００８号,,27,123,5320012,,,,,,,2024-02-14,1,,,,,バルクハウジング,0
1086,5120001262218,新規,0,2024-02-14,2024-02-14,株式会社ＨＩＫＡＲＩ,,株式会社,大阪府,大阪市淀川区,野中南２丁目７番２３号,,27,123,5320022,,,,,,,2024-02-14,1,,,,,ヒカリ,0
1087,5120001262234,新規,0,2024-02-14,2024-02-14,楓商事株式会社,,株式会社,大阪府,大阪市平野区,瓜破２丁目１番６ウェルバード瓜破４０３号,,27,126,5470024,,,,,,,2024-02-14,1,,,,,カエデショウジ,0
1088,5120001262309,新規,0,2024-02-14,2024-02-14,ＨＴＴコンサルティング株式会社,,株式会社,大阪府,大阪市浪速区,下寺３丁目１－１４エクレール夕陽ケ丘５号２０２室,,27,111,5560001,,,,,,,2024-02-14,1,,,,,エイチティーティーコンサルティング,0
1089,5120005024151,新規,0,2024-02-14,2024-02-14,一般社団法人豊澄,,その他の設立登記法人,大阪府,大阪市西淀川区,歌島２丁目９番１７号,,27,113,5550021,,,,,,,2024-02-14,1,,,,,トヨズミ,0
1096,5120901048757,新規,0,2024-02-14,2024-02-14,ケンロード株式会社,,株式会社,大阪府,高槻市,宮田町２丁目９番７号,,27,207,5691142,,,,,,,2024-02-14,1,,,,,ケンロード,0
1097,5120901048765,新規,0,2024-02-14,2024-02-14,株式会社ウエムラ,,株式会社,大阪府,茨木市,沢良宜浜１丁目１４番２２号,,27,211,5670864,,,,,,,2024-02-14,1,,,,,ウエムラ,0
1099,5122003002790,新規,0,2024-02-14,2024-02-14,前岡工務店合同会社,,合同会社,大阪府,八尾市,亀井町３丁目２番１０号,,27,212,5810065,,,,,,,2024-02-14,1,,,,,マエオカコウムテン,0
1100,5130001076360,新規,0,2024-02-14,2024-02-14,株式会社ｈａｎａｍａｒｕ,,株式会社,京都府,京都市左京区,粟田口鳥居町１８番地９,,26,103,6068436,,,,,,,2024-02-14,1,,,,,ハナマル,0
1101,5130003009302,新規,0,2024-02-14,2024-02-14,合同会社ＢｒａｖｏＤｅｓｉｇｎ,,合同会社,京都府,京都市下京区,朱雀宝蔵町４４番地,,26,106,6008846,,,,,,,2024-02-14,1,,,,,ブラボーデザイン,0
1106,5140001133276,新規,0,2024-02-14,2024-02-14,ＢＯＳＣＯ　ＭＥＤＩＸ　ＪＡＰＡＮ株式会社,,株式会社,兵庫県,神戸市中央区,北長狭通４丁目９番２６号西北神ビル６Ｃ,,28,110,6500012,,,,,,,2024-02-14,1,,,,,ボスコメディックスジャパン,0
1107,5140001133284,新規,0,2024-02-14,2024-02-14,株式会社ＮＫ,,株式会社,兵庫県,伊丹市,中央２丁目１番１号伊丹中央ビル２階,,28,207,6640851,,,,,,,2024-02-14,1,,,,,エヌケイ,0
1108,5140001133334,新規,0,2024-02-14,2024-02-14,株式会社大雅興業,,株式会社,兵庫県,宝塚市,小林５丁目４－３６,,28,214,6650034,,,,,,,2024-02-14,1,,,,,タイガコウギョウ,0
1111,5150001027072,新規,0,2024-02-14,2024-02-14,ＡＶＬ株式会社,,株式会社,奈良県,大和郡山市,池沢町４５番地の６,,29,203,6391032,,,,,,,2024-02-14,1,,,,,エーヴイエル,0
1112,5160001025686,新規,0,2024-02-14,2024-02-14,萬盛株式会社,,株式会社,滋賀県,大津市,北比良９６５番地の１,,25,201,5200503,,,,,,,2024-02-14,1,,,,,マンセイ,0
1123,5180001160135,新規,0,2024-02-14,2024-02-14,株式会社翔運,,株式会社,愛知県,一宮市,伝法寺６丁目１番地１９,,23,203,4910828,,,,,,,2024-02-14,1,,,,,ショウウン,0
1130,5200001042149,新規,0,2024-02-14,2024-02-14,株式会社尾関企画,,株式会社,岐阜県,中津川市,田瀬６１６番地８,,21,206,5080201,,,,,,,2024-02-14,1,,,,,オゼキキカク,0
1132,5210001019633,新規,0,2024-02-14,2024-02-14,株式会社アールズ,,株式会社,福井県,鯖江市,定次町３３番地,,18,207,9160043,,,,,,,2024-02-14,1,,,,,アールズ,0
1135,5220003003675,新規,0,2024-02-14,2024-02-14,輪島塗雪割草会合同会社,,合同会社,石川県,輪島市,名舟町ト部８番地,,17,204,9280254,,,,,,,2024-02-14,1,,,,,ワジマヌリユキワリソウカイ,0
1136,5220005008805,新規,0,2024-02-14,2024-02-14,特定非営利活動法人落石防災技術フォーラム,,その他の設立登記法人,石川県,金沢市,高尾台１丁目４４２ベネフィットステージ３Ｆ,,17,201,9218155,,,,,,,2024-02-14,1,,,,,ラクセキボウサイギジュツフォーラム,0
1142,5250001020513,新規,0,2024-02-14,2024-02-14,株式会社アルケミスト,,株式会社,山口県,下関市,秋根新町１番１２グランドヒルズＦ１－２１７号,,35,201,7510874,,,,,,,2024-02-14,1,,,,,アルケミスト,0
1147,5290001104675,新規,0,2024-02-14,2024-02-14,株式会社ライズサポート,,株式会社,福岡県,福岡市博多区,博多駅東３丁目１番２９号博多第２ムカヰビル,,40,132,8120013,,,,,,,2024-02-14,1,,,,,ライズサポート,0
1148,5290001104683,新規,0,2024-02-14,2024-02-14,株式会社利屋,,株式会社,福岡県,福岡市中央区,天神１丁目１番１号アクロス福岡１階,,40,133,8100001,,,,,,,2024-02-14,1,,,,,トギヤ,0
1149,5290001104691,新規,0,2024-02-14,2024-02-14,Ｌｅａｐｆｒｏｇ株式会社,,株式会社,福岡県,福岡市東区,香椎駅前３丁目２２－３０－４１０号,,40,131,8130013,,,,,,,2024-02-14,1,,,,,リープフロッグ,0
1154,5290801030311,新規,0,2024-02-14,2024-02-14,株式会社ＷＩＬＬ‐ＴＥＣＨ,,株式会社,福岡県,直方市,大字下境３８２０番地,,40,204,8220007,,,,,,,2024-02-14,1,,,,,ウィルテック,0
1157,5310001018856,新規,0,2024-02-14,2024-02-14,株式会社廣瀬興業,00133710,株式会社,長崎県,佐世保市,折橋町５４－１０４Ｅ１０８,,42,202,8570021,,,,,,,2024-02-14,1,,,,,ヒロセコウギョウ,0
1158,5320001020290,新規,0,2024-02-14,2024-02-14,株式会社Ｔ‐Ｃｒｅｅｋ,,株式会社,大分県,大分市,上野丘西２番１５号,,44,201,8700834,,,,,,,2024-02-14,1,,,,,ティークリーク,0
1162,5340005009700,新規,0,2024-02-14,2024-02-14,一般社団法人支援の和キャンナス奄美,,その他の設立登記法人,鹿児島県,奄美市,名瀬末広町１１番８号,,46,222,8940027,,,,,,,2024-02-14,1,,,,,シエンノワキャンナスアマミ,0
1163,5350001018786,新規,0,2024-02-14,2024-02-14,株式会社ソアリング,,株式会社,宮崎県,宮崎市,船塚３丁目１３６番地２レスペランス船塚３０１号,,45,201,8800031,,,,,,,2024-02-14,1,,,,,ソアリング,0
1169,5370001050936,新規,0,2024-02-14,2024-02-14,ＰＧシステム株式会社,,株式会社,宮城県,仙台市泉区,明石南３丁目９番地の１,,04,105,9813101,,,,,,,2024-02-14,1,,,,,ピージーシステム,0
1175,5380001034302,新規,0,2024-02-14,2024-02-14,株式会社天満堂,,株式会社,福島県,郡山市,安積町荒井字下北井前３６番地の３,,07,203,9630111,,,,,,,2024-02-14,1,,,,,テンマドウ,0
1186,5470001020029,新規,0,2024-02-14,2024-02-14,株式会社きさらぎ,,株式会社,香川県,高松市,太田上町９１５番地１,,37,201,7618074,,,,,,,2024-02-14,1,,,,,キサラギ,0
1190,5500003003184,新規,0,2024-02-14,2024-02-14,合同会社Ｊｅｗｅｌｒｙ　Ｕｒｉ,,合同会社,愛媛県,松山市,土居町１１１４番地２２,,38,201,7911115,,,,,,,2024-02-14,1,,,,,ジュエリーウリ,0
1199,6010001242320,新規,0,2024-02-14,2024-02-14,株式会社ｐｅｒｒｏｔ,,株式会社,東京都,中央区,日本橋小舟町３－１２,,13,102,1030024,,,,,,,2024-02-14,1,,,,,ペロット,0
1205,6010003042933,新規,0,2024-02-14,2024-02-14,合同会社サードルート,,合同会社,東京都,千代田区,神田和泉町１番地６－１６ヤマトビル４０５,,13,101,1010024,,,,,,,2024-02-14,1,,,,,サードルート,0
1207,6010101015997,新規,0,2024-02-14,2024-02-14,株式会社まごころ,,株式会社,東京都,八王子市,小門町４８番地１３,,13,201,1920054,,,,,,,2024-02-14,1,,,,,マゴコロ,0
1209,6010103002309,新規,0,2024-02-14,2024-02-14,合同会社イブチ,,合同会社,東京都,八王子市,南新町４番地１２ベルヴ八王子５０４号,,13,201,1920075,,,,,,,2024-02-14,1,,,,,イブチ,0
1211,6010401180335,新規,0,2024-02-14,2024-02-14,株式会社ｓｗｅｌｌ,,株式会社,東京都,港区,南青山２丁目２番１５号,,13,103,1070062,,,,,,,2024-02-14,1,,,,,スウェル,0
1212,6010401180343,新規,0,2024-02-14,2024-02-14,株式会社Ｅｖｏｌｖｅｒ,,株式会社,東京都,港区,白金６丁目１１番７号,,13,103,1080072,,,,,,,2024-02-14,1,,,,,イヴォルバー,0
1213,6010401180351,新規,0,2024-02-14,2024-02-14,株式会社ＲＬＯＩＮ,,株式会社,東京都,港区,北青山１丁目３番１号アールキューブ青山３階,,13,103,1070061,,,,,,,2024-02-14,1,,,,,ロイン,0
1214,6010401180368,新規,0,2024-02-14,2024-02-14,株式会社Ｓｐｅｃｉａｌ　Ｇｒｏｕｐ　Ｊａｐａｎ,,株式会社,東京都,港区,白金２丁目７番２６号１２０２,,13,103,1080072,,,,,,,2024-02-14,1,,,,,スペシャルグループジャパン,0
1217,6010403031916,新規,0,2024-02-14,2024-02-14,Ａ．ｉｉ　Ｓｔｕｄｉｏ合同会社,,合同会社,東京都,港区,南青山５丁目１７番２号,,13,103,1070062,,,,,,,2024-02-14,1,,,,,エードットアイアイスタジオ,0
1218,6010501051741,新規,0,2024-02-14,2024-02-14,治誠商事株式会社,,株式会社,東京都,台東区,上野６丁目７－１６川久保ビル７１８号室,,13,106,1100005,,,,,,,2024-02-14,1,,,,,チセイショウジ,0
1219,6010501051782,新規,0,2024-02-14,2024-02-14,株式会社ＴＫ　Ｈｏｌｄｉｎｇｓ,,株式会社,東京都,台東区,池之端１丁目１番１号,,13,106,1100008,,,,,,,2024-02-14,1,,,,,ティーケーホールディングス,0
1231,6010903008810,新規,0,2024-02-14,2024-02-14,シーシェルトラスト合同会社,,合同会社,東京都,世田谷区,玉川台２丁目８番３号,,13,112,1580096,,,,,,,2024-02-14,1,,,,,シーシェルトラスト,0
1233,6011001159918,新規,0,2024-02-14,2024-02-14,ドゥオタイエレク株式会社,,株式会社,東京都,渋谷区,千駄ヶ谷３丁目２８番５号コーポ葵５０４号,,13,113,1510051,,,,,,,2024-02-14,1,,,,,ドゥオタイエレク,0
1234,6011001159942,新規,0,2024-02-14,2024-02-14,株式会社Ｏｎｅ　Ｒｅｐ,,株式会社,東京都,渋谷区,神宮前６丁目２３番４号桑野ビル２階,,13,113,1500001,,,,,,,2024-02-14,1,,,,,ワンレップ,0
1235,6011001159975,新規,0,2024-02-14,2024-02-14,株式会社リバイバルアセット,,株式会社,東京都,渋谷区,東３丁目１８番６号八幡屋ビル２０２,,13,113,1500011,,,,,,,2024-02-14,1,,,,,リバイバルアセット,0
1236,6011001160000,新規,0,2024-02-14,2024-02-14,株式会社Ｔ＆Ｅ,,株式会社,東京都,目黒区,自由が丘１丁目２０番２０号,,13,110,1520035,,,,,,,2024-02-14,1,,,,,ディーアンドイー,0
1237,6011001160025,新規,0,2024-02-14,2024-02-14,株式会社ロアスフィード,,株式会社,東京都,目黒区,下目黒１丁目１番１４号コノトラビル７Ｆ,,13,110,1530064,,,,,,,2024-02-14,1,,,,,ロアスフィード,0
1238,6011003018452,新規,0,2024-02-14,2024-02-14,合同会社ビューティーライフ,,合同会社,東京都,渋谷区,恵比寿西２丁目８番４号ＥＸ恵比寿西ビル５階,,13,113,1500021,,,,,,,2024-02-14,1,,,,,ビューティーライフ,0
1244,6011101106142,新規,0,2024-02-14,2024-02-14,株式会社ｐｌａｎｔＸ,,株式会社,東京都,新宿区,西新宿６丁目２０番７－２４０６号,,13,104,1600023,,,,,,,2024-02-14,1,,,,,プラントエックス,0
1245,6011101106159,新規,0,2024-02-14,2024-02-14,火Ｋｙｌｉｎ株式会社,,株式会社,東京都,新宿区,四谷三栄町１２番４４号東洋四谷ビルＢ１－７Ａ号室,,13,104,1600008,,,,,,,2024-02-14,1,,,,,ヒキリン,0
1246,6011101106191,新規,0,2024-02-14,2024-02-14,株式会社Ｔ．Ｓ．Ｍ,,株式会社,東京都,新宿区,西新宿３丁目３番１３号西新宿水間ビル２Ｆ,,13,104,1600023,,,,,,,2024-02-14,1,,,,,ティーエスエム,0
1252,6011601027516,新規,0,2024-02-14,2024-02-14,株式会社アレウス設備,,株式会社,東京都,練馬区,大泉町４丁目３４番８号,,13,120,1780062,,,,,,,2024-02-14,1,,,,,アレウスセツビ,0
1253,6011603004216,新規,0,2024-02-14,2024-02-14,Ｋｒｏｎｏｓ合同会社,,合同会社,東京都,練馬区,貫井４丁目２１番３号,,13,120,1760021,,,,,,,2024-02-14,1,,,,,クロノス,0
1254,6011603004240,新規,0,2024-02-14,2024-02-14,ＳＢＳ合同会社,,合同会社,東京都,練馬区,高野台１丁目１番地１１号４１０号室,,13,120,1770033,,,,,,,2024-02-14,1,,,,,エスビーエス,0
1255,6011605002564,新規,0,2024-02-14,2024-02-14,一般社団法人練馬区ドローン協会,,その他の設立登記法人,東京都,練馬区,高松３丁目２４番２５号,,13,120,1790075,,,,,,,2024-02-14,1,,,,,ネリマクドローンキョウカイ,0
1258,6011801043783,新規,0,2024-02-14,2024-02-14,ａｓｐａｒａｇｕｓ株式会社,,株式会社,東京都,足立区,東和５丁目７番４号ソフトタウン綾瀬７０２,,13,121,1200003,,,,,,,2024-02-14,1,,,,,アスパラガス,0
1259,6011801043791,新規,0,2024-02-14,2024-02-14,仁馨株式会社,,株式会社,東京都,足立区,佐野２丁目２８番４号サンパーク９２・２０５号室,,13,121,1210053,,,,,,,2024-02-14,1,,,,,ジンケイ,0
1261,6012301013780,新規,0,2024-02-14,2024-02-14,株式会社３８５,,株式会社,東京都,町田市,小野路町４４１０番地,,13,209,1950064,,,,,,,2024-02-14,1,,,,,ミヤゴ,0
1262,6012401041517,新規,0,2024-02-14,2024-02-14,株式会社融資代行プロ,,株式会社,東京都,武蔵野市,桜堤１丁目２番１４号,,13,203,1800021,,,,,,,2024-02-14,1,,,,,ユウシダイコウプロ,0
1263,6012701018082,新規,0,2024-02-14,2024-02-14,株式会社アルファオンライン,,株式会社,東京都,東村山市,恩多町５丁目９番地９,,13,213,1890011,,,,,,,2024-02-14,1,,,,,アルファオンライン,0
1265,6012801022967,新規,0,2024-02-14,2024-02-14,株式会社プラスラパン,,株式会社,東京都,国分寺市,本町４丁目２３番４号,,13,214,1850012,,,,,,,2024-02-14,1,,,,,プラスラパン,0
1273,6020003025540,新規,0,2024-02-14,2024-02-14,合同会社ディープビー,,合同会社,神奈川県,横浜市磯子区,森２丁目８番１３号,,14,107,2350023,,,,,,,2024-02-14,1,,,,,ディープビー,0
1274,6020003025549,新規,0,2024-02-14,2024-02-14,整体院指楽合同会社,,合同会社,神奈川県,横浜市鶴見区,豊岡町１４－２４伊藤ビル１０１,,14,101,2300062,,,,,,,2024-02-14,1,,,,,セイタイインシラク,0
1276,6021001081468,新規,0,2024-02-14,2024-02-14,株式会社ＴＥＮＣＯＭＭＩＴ,,株式会社,神奈川県,藤沢市,高倉字枯藪１２３３番５,,14,205,2520802,,,,,,,2024-02-14,1,,,,,テンコミット,0
1295,6030001158473,新規,0,2024-02-14,2024-02-14,株式会社Ｓａｌｖａｔｉｏｎ　Ｓｙｓｔｅｍ,,株式会社,埼玉県,入間郡越生町,大字大満１３１１番地４０,,11,327,3500423,,,,,,,2024-02-14,1,,,,,サルベーションシステム,0
1296,6030001158548,新規,0,2024-02-14,2024-02-14,株式会社Ｋａｒｉｎ,,株式会社,埼玉県,越谷市,花田４丁目７番地４２,,11,222,3430015,,,,,,,2024-02-14,1,,,,,カリン,0
1297,6030001158614,新規,0,2024-02-14,2024-02-14,株式会社Ｓｈａｎｔｉ３,,株式会社,埼玉県,草加市,谷塚１丁目１番１４号第一並木ビル３階,,11,221,3400028,,,,,,,2024-02-14,1,,,,,シャンティスリー,0
1298,6030001158630,新規,0,2024-02-14,2024-02-14,株式会社成澤,,株式会社,埼玉県,越谷市,東柳田町１３番８号ウインディア柴田２０２,,11,222,3430814,,,,,,,2024-02-14,1,,,,,ナリサワ,0
1299,6030001158663,新規,0,2024-02-14,2024-02-14,株式会社フェニックス,,株式会社,埼玉県,蕨市,中央４丁目２－２－２０１号室,,11,223,3350004,,,,,,,2024-02-14,1,,,,,フェニックス,0
1304,6030003023626,新規,0,2024-02-14,2024-02-14,合同会社アシスト,,合同会社,埼玉県,川口市,東川口６丁目１９番８号,,11,203,3330801,,,,,,,2024-02-14,1,,,,,アシスト,0
1316,6040005022286,新規,0,2024-02-14,2024-02-14,一般社団法人館山戦歿者慰霊奉仕会櫻晴,,その他の設立登記法人,千葉県,館山市,高井１９５番地５,,12,205,2940041,,,,,,,2024-02-14,1,,,,,タテヤマセンボツシャイレイホウシカイサクラバレ,0
1318,6050003007965,新規,0,2024-02-14,2024-02-14,合同会社ＧＥＡＲＨＯＵＳＥ　ＪＡＰＡＮ,,合同会社,茨城県,小美玉市,大谷８９６番地２１,,08,236,3190126,,,,,,,2024-02-14,1,,,,,ギアハウスジャパン,0
1319,6060001036825,新規,0,2024-02-14,2024-02-14,株式会社ＥＶ,,株式会社,栃木県,下都賀郡壬生町,大字壬生丁２３７番地２,,09,361,3210216,,,,,,,2024-02-14,1,,,,,イーブイ,0
1325,6080101024513,新規,0,2024-02-14,2024-02-14,ローカナットジャパン株式会社,,株式会社,静岡県,伊東市,赤沢１７１番地の２３民宿ビルマ,,22,208,4130233,,,,,,,2024-02-14,1,,,,,ローカナットジャパン,0
1341,6120001262191,新規,0,2024-02-14,2024-02-14,株式会社ＧＯＬＦ　ＳＰＯＴ,,株式会社,大阪府,大阪市中央区,南船場２丁目４－８長堀プラザビル５階Ｆ室,,27,128,5420081,,,,,,,2024-02-14,1,,,,,ゴルフスポット,0
1342,6120001262209,新規,0,2024-02-14,2024-02-14,ａｎｄ株式会社,,株式会社,大阪府,大阪市中央区,材木町１番６号第１２新興ビル７０５号,,27,128,5400010,,,,,,,2024-02-14,1,,,,,アンド,0
1343,6120001262217,新規,0,2024-02-14,2024-02-14,抱朴株式会社,,株式会社,大阪府,大阪市北区,天満４丁目５番３号,,27,127,5300043,,,,,,,2024-02-14,1,,,,,ホウボク,0
1345,6120005024150,新規,0,2024-02-14,2024-02-14,一般社団法人日本温冷浴協会,,その他の設立登記法人,大阪府,大阪市中央区,久太郎町１丁目９番７号,,27,128,5410056,,,,,,,2024-02-14,1,,,,,ニホンオンレイヨクキョウカイ,0
1348,6120901048756,新規,0,2024-02-14,2024-02-14,株式会社リフォームクラス,,株式会社,大阪府,箕面市,西宿２丁目１３番３号,,27,220,5620034,,,,,,,2024-02-14,1,,,,,リフォームクラス,0
1353,6130001076368,新規,0,2024-02-14,2024-02-14,株式会社ＳＫＫ,,株式会社,京都府,京都市下京区,四条大宮東入る立中町５０２番地,,26,106,6000000,,,,,,,2024-02-14,1,,,,,エスケーケー,0
1358,6140001133283,新規,0,2024-02-14,2024-02-14,株式会社優貴防犯設備,,株式会社,兵庫県,姫路市,南条２丁目８７－２０１,,28,201,6700952,,,,,,,2024-02-14,1,,,,,ユウキボウハンセツビ,0
1359,6140001133317,新規,0,2024-02-14,2024-02-14,朝晋株式会社,,株式会社,兵庫県,神戸市中央区,楠町１丁目８－２４－２０２,,28,110,6500017,,,,,,,2024-02-14,1,,,,,アサシン,0
1360,6140003020158,新規,0,2024-02-14,2024-02-14,ＧｒｅｙＲｉｇｇｅ　Ａｓｓｏｃｉａｔｅｓ合同会社,,合同会社,兵庫県,神戸市中央区,山本通２丁目１３番１５号,,28,110,6500003,,,,,,,2024-02-14,1,,,,,グレイリッジアソシエイツ,0
1364,6150001027071,新規,0,2024-02-14,2024-02-14,株式会社トラスト,,株式会社,奈良県,大和高田市,礒野町１番１－４１１号,,29,202,6350093,,,,,,,2024-02-14,1,,,,,トラスト,0
1365,6160001025693,新規,0,2024-02-14,2024-02-14,株式会社Ｗｏｎｄｅｒ　Ｃｒｅａｔｉｏｎ,,株式会社,滋賀県,彦根市,馬場１丁目６番２０号,,25,202,5220069,,,,,,,2024-02-14,1,,,,,ワンダークリエイション,0
1367,6160005011269,新規,0,2024-02-14,2024-02-14,一般社団法人ｄａｙＳ,,その他の設立登記法人,滋賀県,長浜市,南浜町４３１番地,,25,203,5260113,,,,,,,2024-02-14,1,,,,,デイズ,0
1370,6180001160092,新規,0,2024-02-14,2024-02-14,株式会社逸風商事,,株式会社,愛知県,名古屋市中区,千代田２丁目２５番１３号ダイアパレス上前津８階,,23,106,4600012,,,,,,,2024-02-14,1,,,,,イップウショウジ,0
1371,6180001160126,新規,0,2024-02-14,2024-02-14,株式会社ミルザイトレーディング,,株式会社,愛知県,名古屋市中川区,野田２丁目２０５番地の２,,23,110,4540912,,,,,,,2024-02-14,1,,,,,ミルザイトレーディング,0
1372,6180005020499,新規,0,2024-02-14,2024-02-14,一般社団法人あいちフューチャーフェス,,その他の設立登記法人,愛知県,名古屋市東区,泉１丁目１７番３９号Ｍ’ｓＡｒｋＨｉｓａｙａ－Ｏｄｏｒｉ５０４号室,,23,102,4610001,,,,,,,2024-02-14,1,,,,,アイチフューチャーフェス,0
1373,6180005020516,新規,0,2024-02-14,2024-02-14,一般社団法人音楽のちから,,その他の設立登記法人,愛知県,名古屋市熱田区,二番２丁目１８番１２号,,23,109,4560052,,,,,,,2024-02-14,1,,,,,オンガクノチカラ,0
1376,6180303006002,新規,0,2024-02-14,2024-02-14,Ａｌｔｉｔｕｄｅ　Ｌｉｎｅ　Ｊａｐａｎ合同会社,,合同会社,愛知県,豊橋市,神明町１１２番地１,,23,201,4400882,,,,,,,2024-02-14,1,,,,,アルティチュードラインジャパン,0
1379,6200001042156,新規,0,2024-02-14,2024-02-14,株式会社翔裕,,株式会社,岐阜県,岐阜市,旦島４丁目４番１６号,,21,201,5020926,,,,,,,2024-02-14,1,,,,,ショウユウ,0
1381,6230001020209,新規,0,2024-02-14,2024-02-14,ＥｄｕＱｕｅｓｔ株式会社,,株式会社,富山県,富山市,秋吉新町３１－２９,,16,201,9300954,,,,,,,2024-02-14,1,,,,,,0
1383,6240001062786,新規,0,2024-02-14,2024-02-14,株式会社Ｍａｒ,,株式会社,広島県,東広島市,西条町寺家７４２８番地１シャトー・ドゥ・エスポワール３０４号,,34,212,7390041,,,,,,,2024-02-14,1,,,,,マール,0
1390,6260001038751,新規,0,2024-02-14,2024-02-14,株式会社三東,,株式会社,岡山県,笠岡市,東大戸石塔３５１７番地１,,33,205,7140071,,,,,,,2024-02-14,1,,,,,サントウ,0
1397,6310001018855,新規,0,2024-02-14,2024-02-14,マリンエビス株式会社,,株式会社,長崎県,佐世保市,針尾北町１１４１番地１,,42,202,8593454,,,,,,,2024-02-14,1,,,,,マリンエビス,0
1403,6330003010214,新規,0,2024-02-14,2024-02-14,合同会社ＣｈｉｈｉｒｏｎｏＴ,,合同会社,熊本県,球磨郡あさぎり町,深田南３９９－１,,43,514,8680443,,,,,,,2024-02-14,1,,,,,チヒロノット,0
1405,6350001018785,新規,0,2024-02-14,2024-02-14,株式会社不動産プラス,,株式会社,宮崎県,都城市,広原町１６号１番地,,45,202,8850036,,,,,,,2024-02-14,1,,,,,フドウサンプラス,0
1407,6370001050935,新規,0,2024-02-14,2024-02-14,日の出ホールディングス株式会社,,株式会社,宮城県,仙台市太白区,長町１丁目４番２号,,04,104,9820011,,,,,,,2024-02-14,1,,,,,ヒノデホールディングス,0
1408,6370001050943,新規,0,2024-02-14,2024-02-14,株式会社Ｅｎ　Ｆａｃｅ,,株式会社,宮城県,仙台市泉区,七北田字東裏７４番地の２,,04,105,9813131,,,,,,,2024-02-14,1,,,,,アンファス,0
1412,6380001034301,新規,0,2024-02-14,2024-02-14,株式会社フラワーガーデン,,株式会社,福島県,喜多方市,字花園５番地,,07,208,9660893,,,,,,,2024-02-14,1,,,,,フラワーガーデン,0
1420,6400001016552,新規,0,2024-02-14,2024-02-14,株式会社ハートキャピタル,,株式会社,岩手県,岩手郡雫石町,上平５５番地３９,,03,301,0200557,,,,,,,2024-02-14,1,,,,,ハートキャピタル,0
1434,6490003001866,新規,0,2024-02-14,2024-02-14,合同会社ＨＯＲＩＺＯＮ,,合同会社,高知県,高知市,大川筋２丁目２番４号,,39,201,7800052,,,,,,,2024-02-14,1,,,,,ホライズン,0
1458,7010003042932,新規,0,2024-02-14,2024-02-14,Ｒｉｃｃｏ合同会社,,合同会社,東京都,中央区,日本橋室町１丁目１１番１２号日本橋水野ビル７階,,13,102,1030022,,,,,,,2024-02-14,1,,,,,リッコ,0
1467,7010401180350,新規,0,2024-02-14,2024-02-14,株式会社Ｐａｎｔｈｅｒｅ,,株式会社,東京都,港区,南青山４丁目１５番７号ヒルトップ南青山１０２号室,,13,103,1070062,,,,,,,2024-02-14,1,,,,,パンテール,0
1468,7010401180391,新規,0,2024-02-14,2024-02-14,株式会社化成,,株式会社,東京都,港区,芝２丁目１０番６号ＥＡＲＴＨＳＨＩＢＡＢＬＤ．３Ｆイントリム内,,13,103,1050014,,,,,,,2024-02-14,1,,,,,カセイ,0
1469,7010401180409,新規,0,2024-02-14,2024-02-14,株式会社カブ＆ピース,,株式会社,東京都,港区,赤坂１丁目８番１号,,13,103,1070052,,,,,,,2024-02-14,1,,,,,カブアンドピース,0
1474,7010601064650,新規,0,2024-02-14,2024-02-14,唐舎株式会社,,株式会社,東京都,江東区,佐賀１丁目１６番３号２階Ｆ号室,,13,108,1350031,,,,,,,2024-02-14,1,,,,,トウシャ,0
1475,7010601064659,新規,0,2024-02-14,2024-02-14,ＡＲＫ株式会社,,株式会社,東京都,墨田区,緑３丁目１５番１１－８０１号両国アムフラット,,13,107,1300021,,,,,,,2024-02-14,1,,,,,アーク,0
1479,7010701045484,新規,0,2024-02-14,2024-02-14,ＤＨ　Ｐｒｏｔｅｃｔｉｏｎジャパン株式会社,,株式会社,東京都,品川区,東品川３丁目２３番２２－２０４号,,13,109,1400002,,,,,,,2024-02-14,1,,,,,ディーエイチプロテクションジャパン,0
1481,7010803004842,新規,0,2024-02-14,2024-02-14,合同会社２Ｃ,,合同会社,東京都,大田区,山王２丁目７番１５－５０４号,,13,111,1430023,,,,,,,2024-02-14,1,,,,,ツーシー,0
1484,7010901054698,新規,0,2024-02-14,2024-02-14,株式会社Ｎｅｗ　Ｂｒｉｇｈｔ　Ｃｏｎｓｕｌｔｉｎｇ,,株式会社,東京都,世田谷区,代沢２丁目２９番１２号ファミール北沢２０３号,,13,112,1550032,,,,,,,2024-02-14,1,,,,,ニューブライトコンサルティング,0
1485,7010901054707,新規,0,2024-02-14,2024-02-14,株式会社ＮＵＥＦ,,株式会社,東京都,世田谷区,羽根木１丁目１９番２０号インターナショナルガーデンハウスＡ０９,,13,112,1560042,,,,,,,2024-02-14,1,,,,,ヌエフ,0
1486,7010901054723,新規,0,2024-02-14,2024-02-14,株式会社Ｙ８,,株式会社,東京都,世田谷区,深沢１丁目２０番９号,,13,112,1580081,,,,,,,2024-02-14,1,,,,,ワイエイト,0
1487,7010903008818,新規,0,2024-02-14,2024-02-14,合同会社ケイアイプラス,,合同会社,東京都,世田谷区,上馬２丁目３３番３号,,13,112,1540011,,,,,,,2024-02-14,1,,,,,ケイアイプラス,0
1488,7010905004575,新規,0,2024-02-14,2024-02-14,一般社団法人オレンジ,,その他の設立登記法人,東京都,世田谷区,千歳台２丁目３０番４号,,13,112,1570071,,,,,,,2024-02-14,1,,,,,オレンジ,0
1495,7011001159982,新規,0,2024-02-14,2024-02-14,株式会社Ｆｒｅｉｈｅｉｔ,,株式会社,東京都,渋谷区,道玄坂１丁目２番３号,,13,113,1500043,,,,,,,2024-02-14,1,,,,,フライハイト,0
1496,7011001159990,新規,0,2024-02-14,2024-02-14,株式会社Ｆｉｄｅｓ　Ｐｏｌｉｃｙ＆Ｓｔｒａｔｅｇｙ　Ｃｏｎｓｕｌｔｉｎｇ,,株式会社,東京都,渋谷区,道玄坂１丁目１０番８号渋谷道玄坂東急ビル２Ｆ－Ｃ,,13,113,1500043,,,,,,,2024-02-14,1,,,,,フィデスポリシーアンドストラテジーコンサルティング,0
1497,7011001159999,新規,0,2024-02-14,2024-02-14,株式会社ＰＥＴＨＩＬＬＳ,,株式会社,東京都,渋谷区,渋谷１丁目１番１１号,,13,113,1500002,,,,,,,2024-02-14,1,,,,,ペットヒルズ,0
1498,7011001160024,新規,0,2024-02-14,2024-02-14,株式会社Ｔｏｕｔｏｕ　Ｃｏｍｐａｎｙ,,株式会社,東京都,渋谷区,桜丘町２６番１号セルリアンタワー１５階,,13,113,1500031,,,,,,,2024-02-14,1,,,,,トゥトゥカンパニー,0
1503,7011003018484,新規,0,2024-02-14,2024-02-14,合同会社ワタビキオフィス,,合同会社,東京都,渋谷区,上原１丁目１９番９号,,13,113,1510064,,,,,,,2024-02-14,1,,,,,ワタビキオフィス,0
1509,7011101106117,新規,0,2024-02-14,2024-02-14,株式会社パンテーラ,,株式会社,東京都,新宿区,舟町１番地８シティタワー四谷４０９,,13,104,1600006,,,,,,,2024-02-14,1,,,,,パンテーラ,0
1510,7011101106190,新規,0,2024-02-14,2024-02-14,株式会社ＫＯＺＯ,,株式会社,東京都,新宿区,市谷本村町２番１０号,,13,104,1620845,,,,,,,2024-02-14,1,,,,,コウゾウ,0
1512,7011201025241,新規,0,2024-02-14,2024-02-14,株式会社ａｇｅ,,株式会社,東京都,中野区,本町１丁目１７－９－１０２,,13,114,1640012,,,,,,,2024-02-14,1,,,,,エイジ,0
1513,7011203004301,新規,0,2024-02-14,2024-02-14,合同会社Ｇｒｅｅｎ　Ｐｉｎｅ,,合同会社,東京都,中野区,沼袋２丁目３番９号アルクコート３０３,,13,114,1650025,,,,,,,2024-02-14,1,,,,,グリーンパイン,0
1514,7011501030346,新規,0,2024-02-14,2024-02-14,株式会社Ｔａｋｅ　Ｒｉｓｋ,,株式会社,東京都,北区,東十条６丁目４－３ザルームズ東十条１０１,,13,117,1140001,,,,,,,2024-02-14,1,,,,,テイクリスク,0
1515,7011503005949,新規,0,2024-02-14,2024-02-14,合同会社ＥＴ’Ｓ,,合同会社,東京都,北区,東田端１丁目９番８号,,13,117,1140013,,,,,,,2024-02-14,1,,,,,イーティーズ,0
1516,7011601027515,新規,0,2024-02-14,2024-02-14,株式会社英輝,,株式会社,東京都,練馬区,練馬３丁目２５番６号,,13,120,1760001,,,,,,,2024-02-14,1,,,,,エイキ,0
1517,7011601027523,新規,0,2024-02-14,2024-02-14,Ｔｒｅｓ　Ｅｙｅｓ株式会社,,株式会社,東京都,練馬区,豊玉上１丁目１９－８メゾン清和１０６,,13,120,1760011,,,,,,,2024-02-14,1,,,,,トレスアイズ,0
1522,7011801043774,新規,0,2024-02-14,2024-02-14,東京技術開発株式会社,,株式会社,東京都,足立区,西新井６丁目３０－６,,13,121,1230841,,,,,,,2024-02-14,1,,,,,トウキョウギジュツカイハツ,0
1524,7012401041508,新規,0,2024-02-14,2024-02-14,株式会社グロース・ストラテジー,,株式会社,東京都,府中市,住吉町４丁目３番地の１３,,13,206,1830034,,,,,,,2024-02-14,1,,,,,グロースストラテジー,0
1525,7012701018081,新規,0,2024-02-14,2024-02-14,安全コンサル・環境システム株式会社,,株式会社,東京都,西東京市,谷戸町２丁目２－３－１１１５,,13,229,1880001,,,,,,,2024-02-14,1,,,,,アンゼンコンサルカンキョウシステム,0
1532,7020001155727,新規,0,2024-02-14,2024-02-14,亜華株式会社,,株式会社,神奈川県,川崎市川崎区,藤崎３丁目１３番６号,,14,131,2100804,,,,,,,2024-02-14,1,,,,,ヤカ,0
1533,7020001155768,新規,0,2024-02-14,2024-02-14,株式会社スリーハイホールディングス,,株式会社,神奈川県,横浜市都筑区,東山田４丁目４２番１６号,,14,118,2240023,,,,,,,2024-02-14,1,,,,,スリーハイホールディングス,0
1534,7020001155792,新規,0,2024-02-14,2024-02-14,ＣｏＣｏ　Ｃｏｎｓｕｌｔｉｎｇ株式会社,,株式会社,神奈川県,横浜市中区,元町５丁目２０２番地,,14,104,2310861,,,,,,,2024-02-14,1,,,,,コココンサルティング,0
1546,7030001158555,新規,0,2024-02-14,2024-02-14,翔宇物産株式会社,,株式会社,埼玉県,越谷市,赤山本町６番地９オレンジキャッスル東都３０３号,,11,222,3430808,,,,,,,2024-02-14,1,,,,,ショウウブッサン,0
1547,7030001158621,新規,0,2024-02-14,2024-02-14,株式会社Ｍａｃｈｉｃｏｒｏ,,株式会社,埼玉県,越谷市,新川町２丁目１３７番地１,,11,222,3430852,,,,,,,2024-02-14,1,,,,,マチコロ,0
1548,7030001158654,新規,0,2024-02-14,2024-02-14,株式会社ＴＫ産業,,株式会社,埼玉県,白岡市,高岩１５０３番地１,,11,246,3490213,,,,,,,2024-02-14,1,,,,,ティーケーサンギョウ,0
1549,7030001158670,新規,0,2024-02-14,2024-02-14,株式会社Ｍｉｒａｉｕｓ,,株式会社,埼玉県,さいたま市西区,西大宮２丁目６番地１６,,11,101,3310078,,,,,,,2024-02-14,1,,,,,ミライアス,0
1550,7030001158687,新規,0,2024-02-14,2024-02-14,株式会社ＨＩＮＯＫＩ,,株式会社,埼玉県,戸田市,大字新曽２１９５番地１,,11,224,3350021,,,,,,,2024-02-14,1,,,,,ヒノキ,0
1559,7040001132204,新規,0,2024-02-14,2024-02-14,株式会社Ｂｕｌｌｓ,,株式会社,千葉県,千葉市花見川区,宇那谷町１０１番地１,,12,102,2620003,,,,,,,2024-02-14,1,,,,,ブルズ,0
1560,7040001132212,新規,0,2024-02-14,2024-02-14,株式会社ＡＡＪ,,株式会社,千葉県,印西市,美瀬１丁目１２－１９,,12,231,2701607,,,,,,,2024-02-14,1,,,,,エーエージェイ,0
1563,7050001054281,新規,0,2024-02-14,2024-02-14,株式会社福島総建,,株式会社,茨城県,北茨城市,磯原町磯原４丁目６番地メゾン高橋３０２,,08,215,3191541,,,,,,,2024-02-14,1,,,,,フクシマソウケン,0
1565,7070001041393,新規,0,2024-02-14,2024-02-14,１２３商会株式会社,,株式会社,群馬県,高崎市,下佐野町４５４番地,,10,202,3700855,,,,,,,2024-02-14,1,,,,,イチニサンショウカイ,0
1583,7120001262208,新規,0,2024-02-14,2024-02-14,株式会社Ｄｅｓｓｅ,,株式会社,大阪府,大阪市淀川区,西宮原１丁目３－１５－８０３,,27,123,5320004,,,,,,,2024-02-14,1,,,,,デッセ,0
1585,7120101069040,新規,0,2024-02-14,2024-02-14,サコーピア株式会社,,株式会社,大阪府,堺市中区,東山４６５番地,,27,142,5998247,,,,,,,2024-02-14,1,,,,,サコーピア,0
1586,7120101069049,新規,0,2024-02-14,2024-02-14,株式会社ありがとう,,株式会社,大阪府,泉大津市,板原町４丁目１６番１４号,,27,206,5950033,,,,,,,2024-02-14,1,,,,,アリガトウ,0
1590,7120103005670,新規,0,2024-02-14,2024-02-14,合同会社Ｎｉｕｔｏ,,合同会社,大阪府,堺市東区,引野町３丁１５１番地１０,,27,143,5998104,,,,,,,2024-02-14,1,,,,,ニウト,0
1591,7120103005679,新規,0,2024-02-14,2024-02-14,合同会社ＳＭＣ,,合同会社,大阪府,松原市,松ケ丘４丁目１７番６号,,27,217,5800042,,,,,,,2024-02-14,1,,,,,エスエムシー,0
1598,7122003002797,新規,0,2024-02-14,2024-02-14,合同会社Ｆａｍｉｌｉａ,,合同会社,大阪府,大東市,明美の里町２２番４号,,27,218,5740003,,,,,,,2024-02-14,1,,,,,ファミリア,0
1608,7130001076367,新規,0,2024-02-14,2024-02-14,ＤＩＣＥ株式会社,,株式会社,京都府,京都市中京区,元本能寺町３８２番地ＭＢビル２Ｆ,,26,104,6048244,,,,,,,2024-02-14,1,,,,,ダイス,0
1613,7140001133282,新規,0,2024-02-14,2024-02-14,ＳＴ環境クリーンセンター株式会社,,株式会社,兵庫県,丹波市,市島町中竹田３９３番地の１,,28,223,6694302,,,,,,,2024-02-14,1,,,,,エスティーカンキョウクリーンセンター,0
1614,7140001133324,新規,0,2024-02-14,2024-02-14,株式会社ＮＯＮＬＩＦＥ,,株式会社,兵庫県,神戸市中央区,磯辺通１丁目１番１８号カサベラ国際プラザビル７０７号室,,28,110,6510084,,,,,,,2024-02-14,1,,,,,ノンライフ,0
1618,7140003020132,新規,0,2024-02-14,2024-02-14,ＮＧＵＹＥＮＨＵＯＮＧ合同会社,,合同会社,兵庫県,姫路市,花田町小川１０２７番地３,,28,201,6710255,,,,,,,2024-02-14,1,,,,,グエンフォン,0
1619,7140003020165,新規,0,2024-02-14,2024-02-14,合同会社ＫＴＳ,,合同会社,兵庫県,伊丹市,平松７丁目５番２９号,,28,207,6640853,,,,,,,2024-02-14,1,,,,,ケーティーエス,0
1628,7180301038319,新規,0,2024-02-14,2024-02-14,株式会社ＭＩＨＹ,,株式会社,愛知県,西尾市,桜町奥新田１６番地１,,23,213,4450803,,,,,,,2024-02-14,1,,,,,エムアイエイチワイ,0
1634,7220001025819,新規,0,2024-02-14,2024-02-14,株式会社ＥＧＯＥＮ,,株式会社,石川県,羽咋郡宝達志水町,散田ハ７８番地１,,17,386,9291406,,,,,,,2024-02-14,1,,,,,イーゴエン,0
1635,7230003002154,新規,0,2024-02-14,2024-02-14,合同会社ＴＡＫＡＫＵＲＡ,,合同会社,富山県,富山市,婦中町響の杜２９７番地１０,,16,201,9392729,,,,,,,2024-02-14,1,,,,,タカクラ,0
1653,7290801030301,新規,0,2024-02-14,2024-02-14,株式会社八幡パワープラント,,株式会社,福岡県,北九州市八幡西区,千代ケ崎１丁目４番２２－１０４号,,40,109,8070803,,,,,,,2024-02-14,1,,,,,ヤハタパワープラント,0
1656,7290805009713,新規,0,2024-02-14,2024-02-14,一般社団法人フィールド協働ロボット工学会,,その他の設立登記法人,福岡県,北九州市小倉南区,中曽根１丁目１番３１－２０７号,,40,107,8000222,,,,,,,2024-02-14,1,,,,,フィールドキョウドウロボットコウガクカイ,0
1665,7350005006216,新規,0,2024-02-14,2024-02-14,医療法人真光輝会,,その他の設立登記法人,宮崎県,宮崎市,大字恒久６００６番地１,,45,201,8800916,,,,,,,2024-02-14,1,,,,,シンコウキカイ,0
1681,7380003005679,新規,0,2024-02-14,2024-02-14,リング合同会社,,合同会社,福島県,郡山市,並木３丁目１番地９－６０１,,07,203,9638026,,,,,,,2024-02-14,1,,,,,リング,0
1682,7420001018595,新規,0,2024-02-14,2024-02-14,エーアール企画株式会社,,株式会社,青森県,十和田市,大字三本木字下平１４２番地１５,,02,206,0340001,,,,,,,2024-02-14,1,,,,,エーアールキカク,0
1695,7430003015870,新規,0,2024-02-14,2024-02-14,合同会社ランス,,合同会社,北海道,札幌市中央区,大通西６丁目クリーンハイツ６０８号,,01,101,0600042,,,,,,,2024-02-14,1,,,,,ランス,0
1697,7480001012386,新規,0,2024-02-14,2024-02-14,株式会社サポＮＥＳ,,株式会社,徳島県,徳島市,丈六町八万免５６番地の１０,,36,201,7714261,,,,,,,2024-02-14,1,,,,,サポネス,0
1699,7490001010694,新規,0,2024-02-14,2024-02-14,株式会社Ｔｅａｍ６６１０,,株式会社,高知県,室戸市,吉良川町乙１６５７番地,,39,202,7816831,,,,,,,2024-02-14,1,,,,,チームムロト,0
1712,8010005037888,新規,0,2024-02-14,2024-02-14,一般社団法人トラスティー美咲,,その他の設立登記法人,東京都,中央区,日本橋１丁目４番１号日本橋一丁目ビルディング,,13,102,1030027,,,,,,,2024-02-14,1,,,,,トラスティーミサキ,0
1713,8010101016003,新規,0,2024-02-14,2024-02-14,株式会社水野内装,,株式会社,東京都,八王子市,泉町１９１１番地１８７,,13,201,1930814,,,,,,,2024-02-14,1,,,,,,0
1716,8010401180317,新規,0,2024-02-14,2024-02-14,タクトテック株式会社,,株式会社,東京都,港区,港南２丁目１６番１号,,13,103,1080075,,,,,,,2024-02-14,1,,,,,タクトテック,0
1717,8010401180341,新規,0,2024-02-14,2024-02-14,株式会社松濤美容,,株式会社,東京都,港区,北青山３丁目１２番７号カプリース青山９０８,,13,103,1070061,,,,,,,2024-02-14,1,,,,,ショウトウビヨウ,0
1718,8010401180382,新規,0,2024-02-14,2024-02-14,株式会社シカミ,,株式会社,東京都,港区,南麻布１丁目１７番５号イクシクス麻布十番２０３,,13,103,1060047,,,,,,,2024-02-14,1,,,,,シカミ,0
1719,8010401180399,新規,0,2024-02-14,2024-02-14,シミズホールディングス株式会社,,株式会社,東京都,港区,南麻布１丁目２６番１号,,13,103,1060047,,,,,,,2024-02-14,1,,,,,シミズホールディングス,0
1724,8010403031807,新規,0,2024-02-14,2024-02-14,合同会社ＴＫコーポレーション,,合同会社,東京都,港区,芝４丁目６－１６ライオンズ三田８０１号,,13,103,1080014,,,,,,,2024-02-14,1,,,,,ティーケーコーポレーション,0
1725,8010403031947,新規,0,2024-02-14,2024-02-14,合同会社バテリア白石,,合同会社,東京都,港区,虎ノ門１丁目２番８号リニューアブル・ジャパン株式会社内,,13,103,1050001,,,,,,,2024-02-14,1,,,,,バテリアシロイシ,0
1727,8010501051715,新規,0,2024-02-14,2024-02-14,東超株式会社,,株式会社,東京都,台東区,上野３丁目１６番２号天翔上野末広町ビル６階６０４―Ｉ号室,,13,106,1100005,,,,,,,2024-02-14,1,,,,,トウチョウ,0
1728,8010501051780,新規,0,2024-02-14,2024-02-14,新時代株式会社,,株式会社,東京都,台東区,下谷２丁目１１番５号－９０１号クレアシティ入谷ＩＩ,00133703,13,106,1100004,,,,,,,2024-02-14,1,,,,,シンジダイ,0
1729,8010601064633,新規,0,2024-02-14,2024-02-14,誠和産業株式会社,,株式会社,東京都,江東区,北砂３丁目２８－１不動コーポ１０６号室,,13,108,1360073,,,,,,,2024-02-14,1,,,,,セイワサンギョウ,0
1742,8011001159924,新規,0,2024-02-14,2024-02-14,株式会社ＲＡＹＢＡＣＫ,,株式会社,東京都,渋谷区,渋谷２丁目１９－１５宮益坂ビルディング６０９,,13,113,1500002,,,,,,,2024-02-14,1,,,,,レイバック,0
1743,8011001159940,新規,0,2024-02-14,2024-02-14,株式会社ＲＡＮＧＩ,,株式会社,東京都,目黒区,碑文谷３丁目２番１７号,,13,110,1520003,,,,,,,2024-02-14,1,,,,,ランギ,0
1744,8011001160007,新規,0,2024-02-14,2024-02-14,株式会社ＦＩＬｉｕｍ,,株式会社,東京都,渋谷区,千駄ヶ谷２丁目３２番２号リベルテ青山１Ｆ,,13,113,1510051,,,,,,,2024-02-14,1,,,,,フィリウム,0
1745,8011001160015,新規,0,2024-02-14,2024-02-14,株式会社クロスオーバー,,株式会社,東京都,渋谷区,神泉町７番２号,,13,113,1500045,,,,,,,2024-02-14,1,,,,,クロスオーバー,0
1751,8011003018475,新規,0,2024-02-14,2024-02-14,合同会社Ｙｏｕ＆Ｓ,,合同会社,東京都,渋谷区,神宮前６丁目２３番４号,,13,113,1500001,,,,,,,2024-02-14,1,,,,,ユウアンドエス,0
1763,8011101106116,新規,0,2024-02-14,2024-02-14,株式会社ＬｏｎｅＰｉｎｅＣａｐｉｔａｌ,,株式会社,東京都,新宿区,上落合１丁目７番１３－１０２,,13,104,1610034,,,,,,,2024-02-14,1,,,,,ローンパインキャピタル,0
1764,8011101106181,新規,0,2024-02-14,2024-02-14,マスマ精工自動車部品株式会社,,株式会社,東京都,新宿区,西新宿１丁目２０番３号８２０,,13,104,1600023,,,,,,,2024-02-14,1,,,,,マスマセイコウジドウシャブヒン,0
1769,8011601027522,新規,0,2024-02-14,2024-02-14,株式会社広住装,,株式会社,東京都,練馬区,関町北３丁目２２番１３号,,13,120,1770051,,,,,,,2024-02-14,1,,,,,ヒロジュウソウ,0
1771,8011603004230,新規,0,2024-02-14,2024-02-14,合同会社ＳＰＥＥＤ　ＦＬＹＥＲ’Ｓ,,合同会社,東京都,練馬区,南大泉１丁目６－２７ロイヤル南大泉１０６,,13,120,1780064,,,,,,,2024-02-14,1,,,,,スピードフライヤーズ,0
1772,8011701027026,新規,0,2024-02-14,2024-02-14,華興株式会社,,株式会社,東京都,江戸川区,北小岩６丁目１７番５号４Ｂ,,13,123,1330051,,,,,,,2024-02-14,1,,,,,カコウ,0
1776,8011801043765,新規,0,2024-02-14,2024-02-14,無境貿易株式会社,,株式会社,東京都,葛飾区,東新小岩２丁目２８番１号２階Ｎｏ．１１室,,13,122,1240023,,,,,,,2024-02-14,1,,,,,ムキョウボウエキ,0
1777,8011801043781,新規,0,2024-02-14,2024-02-14,株式会社ＲＡＮ商事,,株式会社,東京都,足立区,谷中２丁目５番１４－５０４号,,13,121,1200006,,,,,,,2024-02-14,1,,,,,アールエーエヌショウジ,0
1778,8012301013779,新規,0,2024-02-14,2024-02-14,パン以上ケーキ未満株式会社,,株式会社,東京都,町田市,原町田６丁目１０番１９号,,13,209,1940013,,,,,,,2024-02-14,1,,,,,パンイジョウケーキミマン,0
1779,8012303001939,新規,0,2024-02-14,2024-02-14,合同会社落合企画,,合同会社,東京都,町田市,小山町１６１３番地４２号,,13,209,1940212,,,,,,,2024-02-14,1,,,,,オチアイキカク,0
1780,8012401041507,新規,0,2024-02-14,2024-02-14,ＴＭ　ＳＫＹ株式会社,,株式会社,東京都,調布市,国領町８丁目８番地１ブリリア調布国領３２０,,13,208,1820022,,,,,,,2024-02-14,1,,,,,ティーエムスカイ,0
1781,8012401041523,新規,0,2024-02-14,2024-02-14,株式会社ハイネット,,株式会社,東京都,多摩市,貝取１５１０－１永山ＪＯＹビル５階,,13,224,2060012,,,,,,,2024-02-14,1,,,,,ハイネット,0
1782,8012701018080,新規,0,2024-02-14,2024-02-14,雅コンサルティング株式会社,,株式会社,東京都,東村山市,秋津町５丁目３７番地２９,,13,213,1890001,,,,,,,2024-02-14,1,,,,,ミヤビコンサルティング,0
1785,8013301052057,新規,0,2024-02-14,2024-02-14,楽通国際株式会社,,株式会社,東京都,豊島区,東池袋３丁目１３－１２グランメール池袋５０６,,13,116,1700013,,,,,,,2024-02-14,1,,,,,ラクツウコクサイ,0
1786,8013301052065,新規,0,2024-02-14,2024-02-14,株式会社ＢＲＡＴ,,株式会社,東京都,豊島区,南大塚１丁目４３番４号マジェスティ２０１号,,13,116,1700005,,,,,,,2024-02-14,1,,,,,ブラット,0
1787,8013303007001,新規,0,2024-02-14,2024-02-14,ＭＡＨＩＲＡ合同会社,,合同会社,東京都,豊島区,南大塚２丁目１８番１０号天栄ハウス１０１号,,13,116,1700005,,,,,,,2024-02-14,1,,,,,マヒラ,0
1794,8020001155800,新規,0,2024-02-14,2024-02-14,株式会社ホーミー,,株式会社,神奈川県,川崎市川崎区,渡田新町３丁目３番４－３０９号,,14,131,2100844,,,,,,,2024-02-14,1,,,,,ホーミー,0
1795,8020001155817,新規,0,2024-02-14,2024-02-14,株式会社Ｏｎｅ　ｕｕｕｐ,,株式会社,神奈川県,横浜市神奈川区,栗田谷６番６号,,14,102,2210804,,,,,,,2024-02-14,1,,,,,ワンアップ,0
1797,8020003025539,新規,0,2024-02-14,2024-02-14,合同会社コームラエンターテイメント,,合同会社,神奈川県,横浜市神奈川区,鶴屋町３丁目３３－１アザレア横浜１階,,14,102,2210835,,,,,,,2024-02-14,1,,,,,コームラエンターテイメント,0
1798,8021001081466,新規,0,2024-02-14,2024-02-14,株式会社星邑,,株式会社,神奈川県,平塚市,片岡１２７５番地の２４,,14,203,2591213,,,,,,,2024-02-14,1,,,,,ホシムラ,0
1803,8030001158629,新規,0,2024-02-14,2024-02-14,株式会社ステムハウス,,株式会社,埼玉県,児玉郡上里町,大字七本木２５２８番地２,,11,385,3690306,,,,,,,2024-02-14,1,,,,,ステムハウス,0
1804,8030001158703,新規,0,2024-02-14,2024-02-14,株式会社エコナム,,株式会社,埼玉県,北葛飾郡杉戸町,大字本郷９５９番地１１,,11,464,3450023,,,,,,,2024-02-14,1,,,,,エコナム,0
1807,8030003023566,新規,0,2024-02-14,2024-02-14,合同会社ＣＣＺ,,合同会社,埼玉県,さいたま市大宮区,寿能町２丁目１０５番地,,11,103,3300805,,,,,,,2024-02-14,1,,,,,シーシーゼット,0
1808,8030003023616,新規,0,2024-02-14,2024-02-14,Ｉ　Ｔｏアイ工房合同会社,,合同会社,埼玉県,草加市,谷塚町９４６番地４,,11,221,3400023,,,,,,,2024-02-14,1,,,,,アイトゥアイコウボウ,0
1809,8030003023624,新規,0,2024-02-14,2024-02-14,ＪＨＣ合同会社,,合同会社,埼玉県,さいたま市浦和区,木崎２丁目２２番１５－５号,,11,107,3300042,,,,,,,2024-02-14,1,,,,,ジェイエイチシー,0
1819,8040001132186,新規,0,2024-02-14,2024-02-14,株式会社ツクリカエ,,株式会社,千葉県,船橋市,坪井町１０７番地,,12,204,2740062,,,,,,,2024-02-14,1,,,,,ツクリカエ,0
1820,8040001132203,新規,0,2024-02-14,2024-02-14,株式会社輝兆,,株式会社,千葉県,浦安市,高洲６丁目２番２－１０８号,,12,227,2790023,,,,,,,2024-02-14,1,,,,,キチョウ,0
1825,8040003024316,新規,0,2024-02-14,2024-02-14,合同会社Ｋｉｊｉ　Ｆｏｏｔ,,合同会社,千葉県,千葉市中央区,都町１丁目３４番４号,,12,101,2600001,,,,,,,2024-02-14,1,,,,,キジフット,0
1828,8040005022284,新規,0,2024-02-14,2024-02-14,特定非営利活動法人あぶにーる,,その他の設立登記法人,千葉県,旭市,井戸野１０６３番地１,,12,215,2892531,,,,,,,2024-02-14,1,,,,,アブニール,0
1830,8050001054264,新規,0,2024-02-14,2024-02-14,株式会社稲吉東ストア,,株式会社,茨城県,かすみがうら市,稲吉東４丁目１４－７,,08,230,3150053,,,,,,,2024-02-14,1,,,,,イナヨシヒガシストア,0
1838,8090001018546,新規,0,2024-02-14,2024-02-14,株式会社ＨＯＰＥ’ｓ,,株式会社,山梨県,笛吹市,石和町唐柏１３７番地６,,19,211,4060034,,,,,,,2024-02-14,1,,,,,ホープス,0
1839,8100003007396,新規,0,2024-02-14,2024-02-14,合同会社中屋敷,,合同会社,長野県,上伊那郡南箕輪村,５１０番地,,20,385,3994511,,,,,,,2024-02-14,1,,,,,ナカヤシキ,0
1841,8110001038178,新規,0,2024-02-14,2024-02-14,明治ヘルスケア株式会社,,株式会社,新潟県,新発田市,住吉町２丁目８番６号２,,15,206,9570061,,,,,,,2024-02-14,1,,,,,メイジヘルスケア,0
1842,8110001038186,新規,0,2024-02-14,2024-02-14,株式会社Ｋｒａｆｔ,,株式会社,新潟県,上越市,大字野尻１３４５番地１,,15,222,9430116,,,,,,,2024-02-14,1,,,,,クラフト,0
1851,8120001262181,新規,0,2024-02-14,2024-02-14,金澤株式会社,,株式会社,大阪府,大阪市西区,立売堀１丁目９番１９－８０３号,,27,106,5500012,,,,,,,2024-02-14,1,,,,,カナザワ,0
1852,8120001262207,新規,0,2024-02-14,2024-02-14,東潤株式会社,,株式会社,大阪府,大阪市中央区,南船場１丁目３－１４ストークビル南船場４０６号,,27,128,5420081,,,,,,,2024-02-14,1,,,,,トウジュン,0
1853,8120001262223,新規,0,2024-02-14,2024-02-14,あさひ信息貿易株式会社,,株式会社,大阪府,大阪市東住吉区,矢田４丁目９番１５号信栄ビル３０３号,,27,121,5460023,,,,,,,2024-02-14,1,,,,,アサヒシンソクボウエキ,0
1854,8120001262231,新規,0,2024-02-14,2024-02-14,株式会社ＡｚＣｒｅａｔｅ,,株式会社,大阪府,大阪市中央区,南船場３丁目２番２８号,,27,128,5420081,,,,,,,2024-02-14,1,,,,,アズクリエイト,0
1858,8120003025900,新規,0,2024-02-14,2024-02-14,合同会社ＭＡＲＵ,,合同会社,大阪府,大阪市北区,梅田１丁目２番２号大阪駅前第２ビル１２－１２,,27,127,5300001,,,,,,,2024-02-14,1,,,,,マル,0
1859,8120003025909,新規,0,2024-02-14,2024-02-14,合同会社タレントリンク,,合同会社,大阪府,大阪市阿倍野区,三明町２丁目７番９号クレセール阿倍野２０４号,,27,119,5450005,,,,,,,2024-02-14,1,,,,,タレントリンク,0
1860,8120003025941,新規,0,2024-02-14,2024-02-14,クラウドネイティブコンピューティング合同会社,,合同会社,大阪府,大阪市北区,梅田１丁目２番２号大阪駅前第２ビル１２‐１２,,27,127,5300001,,,,,,,2024-02-14,1,,,,,クラウドネイティブコンピューティング,0
1865,8120103005653,新規,0,2024-02-14,2024-02-14,じょの合同会社,,合同会社,大阪府,泉佐野市,上町３丁目４番６号,,27,213,5980007,,,,,,,2024-02-14,1,,,,,ジョノ,0
1868,8122001037828,新規,0,2024-02-14,2024-02-14,株式会社アバトレ,,株式会社,大阪府,東大阪市,花園東町１丁目１５番１６号,,27,227,5780931,,,,,,,2024-02-14,1,,,,,アバトレ,0
1870,8130001076317,新規,0,2024-02-14,2024-02-14,株式会社全宜,,株式会社,京都府,京都市左京区,浄土寺下南田町１３４番地２３,,26,103,6068404,,,,,,,2024-02-14,1,,,,,ゼンギ,0
1871,8130001076341,新規,0,2024-02-14,2024-02-14,グラセナチュール株式会社,,株式会社,京都府,京都市左京区,下鴨宮崎町１１９番地１,,26,103,6060802,,,,,,,2024-02-14,1,,,,,グラセナチュール,0
1872,8130001076358,新規,0,2024-02-14,2024-02-14,株式会社仁華里,,株式会社,京都府,京都市中京区,壬生高樋町４３－１４－３０５,,26,104,6048824,,,,,,,2024-02-14,1,,,,,レンファーリー,0
1873,8130001076366,新規,0,2024-02-14,2024-02-14,株式会社Ｍ＆Ｈフューチャーアセット,,株式会社,京都府,宇治市,平尾台１丁目２番地の３,,26,204,6110003,,,,,,,2024-02-14,1,,,,,エムアンドエイチフューチャーアセット,0
1874,8140001133323,新規,0,2024-02-14,2024-02-14,株式会社メディエクシー,,株式会社,兵庫県,神戸市中央区,筒井町１丁目２番４号,,28,110,6510071,,,,,,,2024-02-14,1,,,,,メディエクシー,0
1876,8140003020164,新規,0,2024-02-14,2024-02-14,玲合同会社,,合同会社,兵庫県,神戸市北区,広陵町３丁目１２５番地,,28,109,6511213,,,,,,,2024-02-14,1,,,,,レイ,0
1881,8160001025691,新規,0,2024-02-14,2024-02-14,株式会社ヒューティー,,株式会社,滋賀県,彦根市,西今町９１９番地１,,25,202,5220054,,,,,,,2024-02-14,1,,,,,ヒューティー,0
1892,8180003026348,新規,0,2024-02-14,2024-02-14,合同会社Ｋ＆Ｉ,,合同会社,愛知県,名古屋市緑区,大高町字鷲津１６７番地,,23,114,4598001,,,,,,,2024-02-14,1,,,,,ケーアンドアイ,0
1899,8200001042154,新規,0,2024-02-14,2024-02-14,株式会社東濃国産開発,,株式会社,岐阜県,中津川市,加子母３３５６番地１２,,21,206,5080421,,,,,,,2024-02-14,1,,,,,トウノウコクサンカイハツ,0
1901,8210003001751,新規,0,2024-02-14,2024-02-14,合同会社Ｂｅｓｔ　Ｖａｌｕｅ　Ｃｒｅａｔｉｏｎ,,合同会社,福井県,福井市,門前２丁目１１８番地カーサＨａｎａＡ２０３,,18,201,9188021,,,,,,,2024-02-14,1,,,,,ベストバリュークリエーション,0
1907,8230001020215,新規,0,2024-02-14,2024-02-14,株式会社Ｔｕｒｅｉｚ,,株式会社,富山県,富山市,向新庄町１丁目６番５５－１０２号ルミエールＢ棟,,16,201,9300916,,,,,,,2024-02-14,1,,,,,トュレイズ,0
1911,8240001062792,新規,0,2024-02-14,2024-02-14,株式会社ＦＲＥＣＴＡ　ＧＲＯＵＰ,,株式会社,広島県,東広島市,八本松町正力２５９－１０,,34,212,7390132,,,,,,,2024-02-14,1,,,,,フレクタグループ,0
1914,8260001038758,新規,0,2024-02-14,2024-02-14,株式会社キミイロドリ,,株式会社,岡山県,浅口郡里庄町,大字里見５３０１番地曽根本第ＩＩビル１０１,00133717,33,445,7190301,,,,,,,2024-02-14,1,,,,,キミイロドリ,0
1919,8290001104697,新規,0,2024-02-14,2024-02-14,株式会社古賀商店,,株式会社,福岡県,福岡市南区,三宅３丁目５－１２リスタ南大橋１０５,,40,134,8111344,,,,,,,2024-02-14,1,,,,,コガショウテン,0
1920,8290003014960,新規,0,2024-02-14,2024-02-14,エンスピール合同会社,,合同会社,福岡県,福岡市中央区,天神２丁目３番１０号天神パインクレスト７１９号,,40,133,8100001,,,,,,,2024-02-14,1,,,,,エンスピール,0
1924,8290801030283,新規,0,2024-02-14,2024-02-14,株式会社ＫＩＭＵＲＡ,,株式会社,福岡県,中間市,蓮花寺３丁目２３番１号,00133702,40,215,8090014,,,,,,,2024-02-14,1,,,,,キムラ,0
1925,8290801030309,新規,0,2024-02-14,2024-02-14,株式会社Ｍｉｎｄ　Ｓｅｎｓｅ,,株式会社,福岡県,北九州市小倉南区,湯川１丁目１０番７号,,40,107,8000257,,,,,,,2024-02-14,1,,,,,マインドセンス,0
1926,8290801030317,新規,0,2024-02-14,2024-02-14,株式会社かわな,,株式会社,福岡県,北九州市小倉北区,鍛冶町１丁目３番３号小倉かじまちビル奥２階,,40,106,8020004,,,,,,,2024-02-14,1,,,,,カワナ,0
1928,8290805009712,新規,0,2024-02-14,2024-02-14,医療法人よしひろ内科クリニック,,その他の設立登記法人,福岡県,北九州市小倉南区,上葛原２丁目１７番１４号－２Ｆ,,40,107,8000255,,,,,,,2024-02-14,1,,,,,ヨシヒロナイカクリニック,0
1931,8320001020296,新規,0,2024-02-14,2024-02-14,株式会社遊土里,,株式会社,大分県,大分市,大字三芳１８１７番地,,44,201,8700030,,,,,,,2024-02-14,1,,,,,ユトリ,0
1933,8320003004289,新規,0,2024-02-14,2024-02-14,合同会社Ｒｅアクティベーション,,合同会社,大分県,中津市,大字植野１８７０番地１０,,44,203,8790103,,,,,,,2024-02-14,1,,,,,リアクティベーション,0
1935,8330001031747,新規,0,2024-02-14,2024-02-14,株式会社マスト,,株式会社,熊本県,熊本市中央区,三郎１丁目６番４８号,,43,101,8620922,,,,,,,2024-02-14,1,,,,,マスト,0
1944,8360001033187,新規,0,2024-02-14,2024-02-14,株式会社ｋａｆｕｕ,,株式会社,沖縄県,那覇市,首里赤平町１丁目５０番地８,,47,201,9030811,,,,,,,2024-02-14,1,,,,,カフー,0
1956,8440001009385,新規,0,2024-02-14,2024-02-14,株式会社ＭＩＬＩＥＲ　ＣＡＲＥ,,株式会社,北海道,函館市,深堀町１番１４号,,01,202,0420941,,,,,,,2024-02-14,1,,,,,ミライエケア,0
1965,8700150123415,新規,0,2024-02-14,2024-01-19,維新の里　萩城下町マラソン大会実行委員会,,その他,山口県,萩市,大字椿３３９５番地１萩市民体育館内,,35,204,7580061,,,,,,,2024-01-19,1,,,,,イシンノサトハギジヨウカマチマラソンタイカイジツコウイインカイ,0
1985,9010403031946,新規,0,2024-02-14,2024-02-14,合同会社バテリア伊賀,,合同会社,東京都,港区,虎ノ門１丁目２番８号リニューアブル・ジャパン株式会社内,,13,103,1050001,,,,,,,2024-02-14,1,,,,,バテリアイガ,0
1986,9010403031954,新規,0,2024-02-14,2024-02-14,合同会社ユリイカ,,合同会社,東京都,港区,南青山３丁目１番３６号青山丸竹ビル６Ｆ,,13,103,1070062,,,,,,,2024-02-14,1,,,,,ユリイカ,0
1987,9010403031970,新規,0,2024-02-14,2024-02-14,マルシアンホールディングス合同会社,,合同会社,東京都,港区,六本木６丁目１０番１号六本木ヒルズ森タワー,,13,103,1060032,,,,,,,2024-02-14,1,,,,,マルシアンホールディングス,0
1992,9010801034773,新規,0,2024-02-14,2024-02-14,株式会社カタリテック,,株式会社,東京都,大田区,北千束１丁目２８番１６号,,13,111,1450062,,,,,,,2024-02-14,1,,,,,カタリテック,0
1993,9010803004849,新規,0,2024-02-14,2024-02-14,合同会社ゼスト,,合同会社,東京都,大田区,西蒲田５丁目１８番８号クレストコート蒲田２０２,,13,111,1440051,,,,,,,2024-02-14,1,,,,,ゼスト,0
2003,9011001159972,新規,0,2024-02-14,2024-02-14,株式会社ＬＡＣＨＡＴＯＮ,,株式会社,東京都,渋谷区,神宮前４丁目２１－１０ＵＲＡ表参道２Ｆ,,13,113,1500001,,,,,,,2024-02-14,1,,,,,ラシャトン,0
2006,9011003018482,新規,0,2024-02-14,2024-02-14,合同会社ＥＬ　ＴＯＰＯ,,合同会社,東京都,目黒区,上目黒４丁目３３番９号,,13,110,1530051,,,,,,,2024-02-14,1,,,,,エルトポ,0
2010,9011101106172,新規,0,2024-02-14,2024-02-14,株式会社ＳＳＫＮ,,株式会社,東京都,新宿区,北新宿３丁目７番１８号,,13,104,1690074,,,,,,,2024-02-14,1,,,,,エスエスケーエヌ,0
2011,9011101106180,新規,0,2024-02-14,2024-02-14,Ｈａｍａ　Ｂｒｉｄｇｅ株式会社,,株式会社,東京都,新宿区,西新宿３丁目７番２６－７０１号,,13,104,1600023,,,,,,,2024-02-14,1,,,,,ハマブリッジ,0
2014,9011105010940,新規,0,2024-02-14,2024-02-14,一般社団法人日本腸活士普及協会,,その他の設立登記法人,東京都,新宿区,西新宿１丁目６番１号新宿エルタワー１５階,,13,104,1600023,,,,,,,2024-02-14,1,,,,,ニホンチョウカツシフキュウキョウカイ,0
2018,9011403004272,新規,0,2024-02-14,2024-02-14,ＮＹＬＡ・ＣＯＲＰＯＲＡＴＩＯＮ合同会社,,合同会社,東京都,板橋区,板橋１丁目５１番１－２０２号コーポ初雁,,13,119,1730004,,,,,,,2024-02-14,1,,,,,ナイラコーポレーション,0
2022,9011601027521,新規,0,2024-02-14,2024-02-14,株式会社ＴＮＫＳ　ＣＯＭＰＡＮＹ,,株式会社,東京都,練馬区,三原台１丁目２３番２０号,,13,120,1770031,,,,,,,2024-02-14,1,,,,,ティーエヌケーエスカンパニー,0
2024,9011701027025,新規,0,2024-02-14,2024-02-14,株式会社Ｓ．Ｇ．Ｅ,,株式会社,東京都,江戸川区,東松本１丁目９番１７号,,13,123,1330071,,,,,,,2024-02-14,1,,,,,エスジーイー,0
2032,9011801043772,新規,0,2024-02-14,2024-02-14,株式会社夏組,,株式会社,東京都,足立区,入谷８丁目１７番１号,,13,121,1210836,,,,,,,2024-02-14,1,,,,,ナツグミ,0
2033,9011801043780,新規,0,2024-02-14,2024-02-14,株式会社ｃｏｒｒｅｃｔ,,株式会社,東京都,足立区,西綾瀬３丁目５番７号,,13,121,1200014,,,,,,,2024-02-14,1,,,,,コレクト,0
2034,9011801043789,新規,0,2024-02-14,2024-02-14,株式会社春華京,,株式会社,東京都,足立区,小台１丁目１８番８－１０１２号,,13,121,1200046,,,,,,,2024-02-14,1,,,,,シュンカキョウ,0
2039,9012401041514,新規,0,2024-02-14,2024-02-14,株式会社相続葬送支援センター,,株式会社,東京都,武蔵野市,境南町２丁目２８番９号３Ｆ,,13,203,1800023,,,,,,,2024-02-14,1,,,,,ソウゾクソウソウシエンセンター,0
2040,9012701018071,新規,0,2024-02-14,2024-02-14,株式会社ＦＴ,,株式会社,東京都,西東京市,柳沢２丁目４－８－４０６,,13,229,2020022,,,,,,,2024-02-14,1,,,,,エフティー,0
2042,9012801022964,新規,0,2024-02-14,2024-02-14,株式会社井関建装,,株式会社,東京都,東大和市,狭山４丁目１３９７番地の１ルードヴィッヒ１３９７－１０３,,13,220,2070003,,,,,,,2024-02-14,1,,,,,イゼキケンソウ,0
2046,9013301052072,新規,0,2024-02-14,2024-02-14,星川ジュエリー株式会社,,株式会社,東京都,豊島区,上池袋４丁目１２番９号ＤＡＮＴＥ１０６号,,13,116,1700012,,,,,,,2024-02-14,1,,,,,ホシカワジュエリー,0
2054,9020003025538,新規,0,2024-02-14,2024-02-14,合同会社ＮＩＴＲＯ,,合同会社,神奈川県,横浜市西区,北幸２丁目１０番４８号むつみビル３階,,14,103,2200004,,,,,,,2024-02-14,1,,,,,ニトロ,0
2059,9021001081465,新規,0,2024-02-14,2024-02-14,ダイマル石巻株式会社,,株式会社,神奈川県,小田原市,風祭２４５番地,,14,206,2500032,,,,,,,2024-02-14,1,,,,,ダイマルイシノマキ,0
2060,9021001081473,新規,0,2024-02-14,2024-02-14,株式会社ＨＥＪＩＲＡ　Ｉｎｃ．,,株式会社,神奈川県,足柄下郡箱根町,仙石原１２６０－４９,,14,382,2500631,,,,,,,2024-02-14,1,,,,,ヘジラインク,0
2072,9030001158611,新規,0,2024-02-14,2024-02-14,大板株式会社,,株式会社,埼玉県,川口市,坂下町２丁目９－１４ハイムコスモス２０１号室,,11,203,3340003,,,,,,,2024-02-14,1,,,,,オオイタ,0
2073,9030001158628,新規,0,2024-02-14,2024-02-14,億山株式会社,,株式会社,埼玉県,川口市,並木４丁目８番２３号,,11,203,3320034,,,,,,,2024-02-14,1,,,,,オクヤマ,0
2074,9030001158636,新規,0,2024-02-14,2024-02-14,株式会社オフィス田中,,株式会社,埼玉県,川口市,新井町１８番１４号エムハーベストリッジ５０１号,,11,203,3320005,,,,,,,2024-02-14,1,,,,,オフィスタナカ,0
2075,9030001158669,新規,0,2024-02-14,2024-02-14,株式会社エスケーセレクト,,株式会社,埼玉県,三郷市,早稲田６丁目１２番地５,,11,237,3410018,,,,,,,2024-02-14,1,,,,,エスケーセレクト,0
2083,9030003023607,新規,0,2024-02-14,2024-02-14,佳音合同会社,,合同会社,埼玉県,川口市,西川口１丁目３０番２０－３０３号,,11,203,3320021,,,,,,,2024-02-14,1,,,,,カオン,0
2084,9030003023615,新規,0,2024-02-14,2024-02-14,合同会社ＡＳＳＩＳＴ,,合同会社,埼玉県,川口市,元郷４丁目１７番１５号,,11,203,3320011,,,,,,,2024-02-14,1,,,,,アシスト,0
2085,9030003023631,新規,0,2024-02-14,2024-02-14,東新エレベーター施設合同会社,,合同会社,埼玉県,さいたま市大宮区,上小町３０８番地２,,11,103,3300855,,,,,,,2024-02-14,1,,,,,トウシンエレベーターシセツ,0
2091,9040001132185,新規,0,2024-02-14,2024-02-14,株式会社寿興業,,株式会社,千葉県,市原市,五井西２丁目２１番地７エトワールＢ－１０１,,12,219,2900038,,,,,,,2024-02-14,1,,,,,コトブキコウギョウ,0
2092,9040001132202,新規,0,2024-02-14,2024-02-14,株式会社ＳＴＡＲＴ‐ＵＰ,,株式会社,千葉県,八街市,東吉田８１４番地,,12,230,2891114,,,,,,,2024-02-14,1,,,,,スタートアップ,0
2093,9040001132227,新規,0,2024-02-14,2024-02-14,ハウジングサポートセンター株式会社,,株式会社,千葉県,佐倉市,岩富８７５番地２,,12,212,2850071,,,,,,,2024-02-14,1,,,,,ハウジングサポートセンター,0
2104,9070001041359,新規,0,2024-02-14,2024-02-14,株式会社篁,,株式会社,群馬県,桐生市,菱町１丁目４７０番地,,10,203,3760001,,,,,,,2024-02-14,1,,,,,タカムラ,0
2105,9070001041383,新規,0,2024-02-14,2024-02-14,株式会社カーナック,,株式会社,群馬県,伊勢崎市,境上渕名１０２８番地１,,10,204,3700102,,,,,,,2024-02-14,1,,,,,カーナック,0
2107,9080401026999,新規,0,2024-02-14,2024-02-14,トヨテツオーミ株式会社,,株式会社,静岡県,磐田市,向笠竹之内１３１５番地の１４,,22,211,4380013,,,,,,,2024-02-14,1,,,,,トヨテツオーミ,0
2108,9080403004953,新規,0,2024-02-14,2024-02-14,合同会社ハピネス,,合同会社,静岡県,浜松市中央区,渡瀬町２５７番地Ｈｅｉｍシュワン２０２号,,22,138,4350036,,,,,,,2024-02-14,1,,,,,ハピネス,0
2111,9100003007404,新規,0,2024-02-14,2024-02-14,ＨＥＲＯＳ合同会社,,合同会社,長野県,松本市,波田４８５７番地１ブライト・ヒルサイドＩＶ－２０１,00133705,20,202,3901401,,,,,,,2024-02-14,1,,,,,ヒーローズ,0
2122,9120001262024,新規,0,2024-02-14,2024-02-14,株式会社ＬＥＡＦ,,株式会社,大阪府,守口市,南寺方南通２丁目１２番６号,,27,209,5700044,,,,,,,2024-02-14,1,,,,,リーフ,0
2123,9120001262206,新規,0,2024-02-14,2024-02-14,ライフワーク株式会社,,株式会社,大阪府,大阪市淀川区,宮原４丁目１番４６号,,27,123,5320003,,,,,,,2024-02-14,1,,,,,ライフワーク,0
2124,9120001262222,新規,0,2024-02-14,2024-02-14,株式会社堂島松本ビル,,株式会社,大阪府,大阪市北区,堂島３丁目３番２２号,,27,127,5300003,,,,,,,2024-02-14,1,,,,,ドウジママツモトビル,0
2125,9120001262255,新規,0,2024-02-14,2024-02-14,株式会社平征,,株式会社,大阪府,大阪市浪速区,下寺１丁目２番１－１３０１号,,27,111,5560001,,,,,,,2024-02-14,1,,,,,ヒラマサ,0
2127,9120003025593,新規,0,2024-02-14,2024-02-14,合同会社ボナンザ,,合同会社,大阪府,枚方市,出口２丁目１－３４ライゼホビー２号,,27,210,5730065,,,,,,,2024-02-14,1,,,,,ボナンザ,0
2128,9120005024156,新規,0,2024-02-14,2024-02-14,一般社団法人近畿土地建物管理協会,,その他の設立登記法人,大阪府,大阪市天王寺区,生玉前町５番３１号,,27,109,5430072,,,,,,,2024-02-14,1,,,,,キンキトチタテモノカンリキョウカイ,0
2130,9120101069047,新規,0,2024-02-14,2024-02-14,株式会社ＳＡＮＫＯホールディングス,,株式会社,大阪府,堺市堺区,大浜西町６番地２,,27,141,5900977,,,,,,,2024-02-14,1,,,,,サンコウホールデイングス,0
2136,9130001076332,新規,0,2024-02-14,2024-02-14,ＫＹＯＴＯ　ＰＥＤＡＬ株式会社,,株式会社,京都府,京都市下京区,新日吉町１３５番地７ベルビュー京都駅北１階,,26,106,6008141,,,,,,,2024-02-14,1,,,,,キョウトペダル,0
2137,9130001076340,新規,0,2024-02-14,2024-02-14,株式会社ＴＡＧ　ＨＯＵＳＥ,,株式会社,京都府,京都市西京区,松尾鈴川町８５番地１０、２Ｆ,,26,111,6158216,,,,,,,2024-02-14,1,,,,,タグハウス,0
2138,9130001076349,新規,0,2024-02-14,2024-02-14,ＫＭＳｅｒｖｉｃｅ株式会社,,株式会社,京都府,亀岡市,曽我部町南条宮田筋１６,,26,206,6210022,,,,,,,2024-02-14,1,,,,,ケーエムサービス,0
2139,9130001076365,新規,0,2024-02-14,2024-02-14,株式会社田中工業,,株式会社,京都府,京都市伏見区,横大路天王前２５番,,26,109,6128294,,,,,,,2024-02-14,1,,,,,タナカコウギョウ,0
2146,9140003020163,新規,0,2024-02-14,2024-02-14,合同会社ＪＴＳ,,合同会社,兵庫県,神戸市灘区,弓木町３丁目２番１２号ベルエアー弓ノ木ＩＩ１階北,00133715,28,102,6570026,,,,,,,2024-02-14,1,,,,,ジェイティーエス,0
2157,9180003026322,新規,0,2024-02-14,2024-02-14,合同会社かのあ,,合同会社,愛知県,清須市,西市場１丁目１２番地２６,,23,233,4520941,,,,,,,2024-02-14,1,,,,,カノア,0
2165,9220001025825,新規,0,2024-02-14,2024-02-14,株式会社友結,,株式会社,石川県,野々市市,本町５丁目１４番１３号,,17,212,9218815,,,,,,,2024-02-14,1,,,,,ユウム,0
2178,9280001009120,新規,0,2024-02-14,2024-02-14,ｄｅｅｌ株式会社,,株式会社,島根県,浜田市,熱田町２０６０番地サニーコートＭ１０１号,,32,202,6970062,,,,,,,2024-02-14,1,,,,,ディール,0
2183,9290801030308,新規,0,2024-02-14,2024-02-14,株式会社ＲＨＹ,,株式会社,福岡県,北九州市八幡西区,則松６丁目３番２２号,,40,109,8070831,,,,,,,2024-02-14,1,,,,,アールエイチワイ,0
2188,9320001020295,新規,0,2024-02-14,2024-02-14,株式会社ロックシステムクニヒロ,,株式会社,大分県,大分市,大字杉原１２７０番地の４,,44,201,8797882,,,,,,,2024-02-14,1,,,,,ロックシステムクニヒロ,0
2193,9350005006214,新規,0,2024-02-14,2024-02-14,一般社団法人全日本スナックフォーラム,,その他の設立登記法人,宮崎県,宮崎市,橘通西３丁目１０－３２宮崎ナナイロ東館８Ｆ　ＡＴＯＭｉｃａ宮崎,,45,201,8800001,,,,,,,2024-02-14,1,,,,,ゼンニホンスナックフォーラム,0
2198,9370001050932,新規,0,2024-02-14,2024-02-14,株式会社オーヤス企画,,株式会社,宮城県,名取市,上余田字市坪６５番地の３,,04,207,9811222,,,,,,,2024-02-14,1,,,,,オーヤスキカク,0
2218,9440001009384,新規,0,2024-02-14,2024-02-14,株式会社Ｅ＆Ａファーマシー,,株式会社,北海道,北斗市,開発２２５番地７,,01,236,0411213,,,,,,,2024-02-14,1,,,,,イーアンドエーファーマシー,0
2220,9470001020033,新規,0,2024-02-14,2024-02-14,株式会社開出電気,,株式会社,香川県,東かがわ市,白鳥１１４０番地１,,37,207,7692705,,,,,,,2024-02-14,1,,,,,カイデデンキ,0
2222,9470003002582,新規,0,2024-02-14,2024-02-14,合同会社こどものみらい研究所,,合同会社,香川県,高松市,香川町浅野６６８番地５（２階）,,37,201,7611703,,,,,,,2024-02-14,1,,,,,コドモノミライケンキュウショ,0
2226,9490001010701,新規,0,2024-02-14,2024-02-14,株式会社リアンズ,,株式会社,高知県,南国市,岡豊町小蓮４３８番地１,,39,204,7830043,,,,,,,2024-02-14,1,,,,,リアンズ,0
