sequenceNumber,corporateNumber,process,correct,updateDate,changeDate,name,nameImageId,kind,prefectureName,cityName,streetNumber,addressImageId,prefectureCode,cityCode,postCode,addressOutside,addressOutsideImageId,closeDate,closeCause,successorCorporateNumber,changeCause,assignmentDate,latest,enName,enPrefectureName,enCityName,enAddressOutside,furigana,hihyoji
12,1010101002133,登記記録の閉鎖等,0,2025-07-17,2025-07-10,株式会社第一工業,,株式会社,東京都,八王子市,新町２番１号,,13,201,1920065,,,2025-07-10,清算の結了等,,,2015-10-05,1,,,,,ダイイチコウギョウ,0
19,1010401140707,登記記録の閉鎖等,0,2025-07-17,2025-06-26,株式会社和食社中,,株式会社,東京都,港区,芝浦３丁目１２番６号ＣＲＯＳＳ芝浦ビル４階,,13,103,1080023,,,2025-06-26,清算の結了等,,,2018-09-13,1,,,,,ワショクシャチュウ,0
35,1011001108243,登記記録の閉鎖等,0,2025-07-17,2025-06-19,株式会社プラスローア,,株式会社,東京都,渋谷区,渋谷３丁目６番２号,,13,113,1500002,,,2025-06-19,清算の結了等,,,2015-11-16,1,,,,,プラスローア,0
76,1021001061961,登記記録の閉鎖等,0,2025-07-17,2025-07-14,株式会社ＨＯＫＵＴＯ,,株式会社,神奈川県,平塚市,大神２７３０番地の７,,14,203,2540012,,,2025-07-14,清算の結了等,,,2017-04-25,1,,,,,ホクト,0
77,1021002025627,登記記録の閉鎖等,0,2025-07-17,2025-06-30,有限会社リユウブレーン,,有限会社,新潟県,上越市,南城町２丁目３番２９号,,15,222,9430837,,,2025-06-30,清算の結了等,,,2015-10-05,1,,,,,リユウブレーン,0
80,1021003002220,登記記録の閉鎖等,0,2025-07-17,2025-07-14,合同会社ふたば,,合同会社,神奈川県,大和市,上草柳８丁目１１番１４号,,14,213,2420029,,,2025-07-14,清算の結了等,,,2015-10-05,1,,,,,フタバ,0
84,1030001033516,登記記録の閉鎖等,0,2025-07-17,2025-07-09,株式会社岩槻工業,,株式会社,埼玉県,加須市,下三俣１０４４番地,,11,210,3470007,,,2025-07-09,清算の結了等,,,2015-10-05,1,,,,,イワツキコウギョウ,0
86,1030001051071,登記記録の閉鎖等,0,2025-07-17,2025-07-10,株式会社佐藤金属工業,,株式会社,埼玉県,春日部市,中央３丁目１９番２４号,,11,214,3440067,,,2025-07-10,清算の結了等,,,2015-10-05,1,,,,,サトウキンゾクコウギョウ,0
95,1030005016343,登記記録の閉鎖等,0,2025-07-17,2025-07-09,特定非営利活動法人帯津良一場の養生塾,,その他の設立登記法人,埼玉県,川越市,大字大中居５４５番地,,11,201,3500021,,,2025-07-09,清算の結了等,,,2015-10-05,1,,,,,オビツリョウイチバノヨウジョウジュク,0
98,1040001124818,登記記録の閉鎖等,0,2025-07-17,2025-06-30,株式会社フォレストホールディングス,,株式会社,千葉県,千葉市中央区,登戸２丁目３番１５号川村ビル１階,,12,101,2600032,,,2025-06-30,清算の結了等,,,2022-08-29,1,,,,,フォレストホールディングス,0
102,1040003010875,登記記録の閉鎖等,0,2025-07-17,2025-06-30,合同会社プランコンサルティング,,合同会社,千葉県,八千代市,村上１８９１番地１７０,,12,221,2760028,,,2025-06-30,清算の結了等,,,2017-11-17,1,,,,,プランコンサルティング,0
103,1040003013804,登記記録の閉鎖等,0,2025-07-17,2025-06-30,合同会社アフターグロウ,,合同会社,千葉県,松戸市,下矢切１７１番地の５,,12,207,2710096,,,2025-06-30,清算の結了等,,,2019-08-01,1,,,,,アフターグロウ,0
117,1100002017601,登記記録の閉鎖等,0,2025-07-17,2025-07-11,有限会社丸泰よしかわ,,有限会社,長野県,下高井郡木島平村,大字往郷５６７３番地１,,20,562,3892302,,,2025-07-11,清算の結了等,,,2015-10-05,1,,,,,マルヤスヨシカワ,0
122,1110002030917,登記記録の閉鎖等,0,2025-07-17,2025-06-26,有限会社原田建設,,有限会社,新潟県,長岡市,寺泊敦ケ曽根５６９番地ノ甲,,15,202,9590141,,,2025-06-26,清算の結了等,,,2015-10-05,1,,,,,ハラダケンセツ,0
123,1120001029736,登記記録の閉鎖等,0,2025-07-17,2025-07-07,富士冷凍株式会社,,株式会社,大阪府,大阪市西区,境川１丁目５番２７－９０５号,,27,106,5500024,,,2025-07-07,清算の結了等,,,2015-10-05,1,,,,,フジレイトウ,0
158,1160001016061,登記記録の閉鎖等,0,2025-07-17,2025-07-04,アオキエージェンシー株式会社,,株式会社,滋賀県,野洲市,小篠原１５６２番地２,,25,210,5202331,,,2025-07-04,清算の結了等,,,2015-10-05,1,,,,,,0
166,1180001138622,登記記録の閉鎖等,0,2025-07-17,2025-06-30,株式会社サンサンゴーゴー,,株式会社,愛知県,名古屋市緑区,桶狭間切戸２２１７番地,,23,114,4580922,,,2025-06-30,合併による解散等,5180001072990,令和７年６月３０日名古屋市緑区桶狭間切戸２２１７番地株式会社５５ｓｔｙｌｅ（5180001072990）に合併し解散,2019-10-25,1,,,,,サンサンゴーゴー,0
172,1180003026065,登記記録の閉鎖等,0,2025-07-17,2025-06-30,合同会社こもハウス,,合同会社,愛知県,名古屋市守山区,小幡中３丁目４番１号,,23,113,4630013,,,2025-06-30,清算の結了等,,,2023-12-13,1,,,,,コモハウス,0
174,1180301016362,登記記録の閉鎖等,0,2025-07-17,2025-07-01,東海開発株式会社,,株式会社,愛知県,刈谷市,野田町芝ノ中２４番,,23,210,4480803,,,2025-07-01,合併による解散等,1180301013987,令和７年７月１日愛知県刈谷市小垣江町大津崎１番地２８クレフォートグループ株式会社（1180301013987）に合併し解散,2015-10-05,1,,,,,トウカイカイハツ,0
204,1320005004327,登記記録の閉鎖等,0,2025-07-17,2025-07-03,農事組合法人米神ファーム,,その他の設立登記法人,大分県,宇佐市,大字上矢部１６８２番地,,44,211,8720112,,,2025-07-03,清算の結了等,,,2015-10-05,1,,,,,コメカミファーム,0
206,1330005004219,登記記録の閉鎖等,0,2025-07-17,2025-06-30,医療法人良心会,,その他の設立登記法人,熊本県,荒尾市,平山２２６８番地５,,43,204,8640015,,,2025-06-30,清算の結了等,,,2015-10-05,1,,,,,リョウシンカイ,0
213,1370003005710,登記記録の閉鎖等,0,2025-07-17,2025-07-01,合同会社Ｄふぁみりぃ,,合同会社,宮城県,仙台市太白区,袋原３丁目１５番３１号,,04,104,9811102,,,2025-07-01,清算の結了等,,,2022-06-01,1,,,,,デーファミリィ,0
221,1400002007183,登記記録の閉鎖等,0,2025-07-17,2025-07-01,有限会社丸藤工務店,,有限会社,岩手県,紫波郡紫波町,日詰西１丁目６番地２,,03,321,0283306,,,2025-07-01,清算の結了等,,,2015-10-05,1,,,,,マルフジコウムテン,0
223,1410001007159,登記記録の閉鎖等,0,2025-07-17,2025-06-30,塚本建設株式会社,,株式会社,秋田県,能代市,大手町３番５号,,05,202,0160805,,,2025-06-30,清算の結了等,,,2015-10-05,1,,,,,ツカモトケンセツ,0
230,1450001013310,登記記録の閉鎖等,0,2025-07-17,2025-07-10,株式会社黒田屋,,株式会社,北海道,紋別市,落石町４丁目１１番３３号,,01,219,0940007,,,2025-07-10,清算の結了等,,,2021-04-12,1,,,,,クロダヤ,0
250,2010001147548,登記記録の閉鎖等,0,2025-07-17,2025-06-23,ＴＳテクノロジー株式会社,,株式会社,東京都,千代田区,神田佐久間町３丁目２４番地イナバビル４Ｆ,,13,101,1010025,,,2025-06-23,清算の結了等,,,2015-10-05,1,,,,,,0
260,2010101008749,登記記録の閉鎖等,0,2025-07-17,2025-06-20,株式会社リビングホーム,,株式会社,東京都,八王子市,中野上町５丁目３２番５号,,13,201,1920041,,,2025-06-20,清算の結了等,,,2015-10-05,1,,,,,リビングホーム,0
270,2010501033751,登記記録の閉鎖等,0,2025-07-17,2025-06-30,株式会社オフィス・ドリニ,,株式会社,東京都,台東区,谷中２丁目１６番１０号,,13,106,1100001,,,2025-06-30,清算の結了等,,,2015-10-05,1,,,,,オフィスドリニ,0
277,2010601035672,登記記録の閉鎖等,0,2025-07-17,2025-07-14,株式会社ＩＮＧ,,株式会社,東京都,新宿区,西早稲田２丁目９番１号,,13,104,1690051,,,2025-07-14,合併による解散等,4010501029731,令和７年７月１日東京都豊島区南池袋一丁目１９番１４号株式会社エフ・イー・シー（4010501029731）に合併し解散,2015-10-05,1,,,,,アイエヌジー,0
278,2010601039335,登記記録の閉鎖等,0,2025-07-17,2025-07-04,株式会社リネットデリ,,株式会社,東京都,墨田区,千歳３丁目１７番１５号,,13,107,1300025,,,2025-07-04,清算の結了等,,,2015-10-05,1,,,,,リネットデリ,0
303,2011201005520,登記記録の閉鎖等,0,2025-07-17,2025-07-14,矢島商事株式会社,,株式会社,東京都,中野区,上高田２丁目１番７号,,13,114,1640002,,,2025-07-14,清算の結了等,,,2015-10-05,1,,,,,ヤジマショウジ,0
309,2011702002537,登記記録の閉鎖等,0,2025-07-17,2025-07-07,有限会社乙女屋商事,,有限会社,東京都,江戸川区,船堀３丁目１２番１１号,,13,123,1340091,,,2025-07-07,清算の結了等,,,2015-10-05,1,,,,,オトメヤショウジ,0
322,2013402003369,登記記録の閉鎖等,0,2025-07-17,2025-07-09,有限会社笠井デザインオフィス,,有限会社,埼玉県,川口市,中青木３丁目９番２－５２０号青木町ハイツ２号棟,,11,203,3320032,,,2025-07-09,清算の結了等,,,2015-10-05,1,,,,,カサイデザインオフィス,0
323,2020001010003,登記記録の閉鎖等,0,2025-07-17,2025-07-03,株式会社サンプリンティングシステム,,株式会社,神奈川県,横浜市保土ケ谷区,和田１丁目２０番２０号,,14,106,2400065,,,2025-07-03,清算の結了等,,,2015-10-05,1,,,,,サンプリンティングシステム,0
333,2021003007706,登記記録の閉鎖等,0,2025-07-17,2025-07-04,Ｎｏ．６合同会社,,合同会社,茨城県,つくば市,小茎３２５－２,,08,220,3001255,,,2025-07-04,清算の結了等,,,2018-08-08,1,,,,,ナンバーシックス,0
338,2030001086802,登記記録の閉鎖等,0,2025-07-17,2025-07-09,株式会社岸屋,,株式会社,埼玉県,行田市,駒形２丁目２番１号,,11,206,3610055,,,2025-07-09,清算の結了等,,,2015-10-05,1,,,,,キシヤ,0
347,2040002047298,登記記録の閉鎖等,0,2025-07-17,2025-06-30,有限会社テクノファインド,,有限会社,千葉県,松戸市,五香４丁目４４番地の２３,,12,207,2702213,,,2025-06-30,清算の結了等,,,2015-10-05,1,,,,,テクノファインド,0
349,2040002080241,登記記録の閉鎖等,0,2025-07-17,2025-06-30,有限会社トッティー・インターナショナル,,有限会社,千葉県,東金市,季美の森東１丁目１０番地９,,12,213,2830822,,,2025-06-30,清算の結了等,,,2015-10-05,1,,,,,トッティーインターナショナル,0
359,2090001015549,登記記録の閉鎖等,0,2025-07-17,2025-07-01,株式会社環境システム,,株式会社,山梨県,甲府市,塩部３丁目７番１５号,,19,201,4000026,,,2025-07-01,清算の結了等,,,2018-05-07,1,,,,,カンキョウシステム,0
361,2100003006164,登記記録の閉鎖等,0,2025-07-17,2025-07-11,ミチカ・システム企画合同会社,,合同会社,長野県,北佐久郡軽井沢町,大字追分１７７６番地１３,,20,321,3890115,,,2025-07-11,清算の結了等,,,2021-07-12,1,,,,,ミチカシステムキカク,0
364,2110001037664,登記記録の閉鎖等,0,2025-07-17,2025-06-30,株式会社信越機械,,株式会社,新潟県,三条市,桜木町１２番３８号２０６,,15,204,9550844,,,2025-06-30,清算の結了等,,,2023-07-07,1,,,,,シンエツキカイ,0
411,2180301013887,登記記録の閉鎖等,0,2025-07-17,2025-07-01,アルファ住宅販売刈谷株式会社,,株式会社,愛知県,刈谷市,野田町馬池３番地１,,23,210,4480803,,,2025-07-01,合併による解散等,1180301013987,令和７年７月１日愛知県刈谷市小垣江町大津崎１番地２８クレフォートグループ株式会社（1180301013987）に合併し解散,2015-10-05,1,,,,,アルファジュウタクハンバイカリヤ,0
427,2200003000446,登記記録の閉鎖等,0,2025-07-17,2025-07-07,桜木繊維工業合資会社,,合資会社,岐阜県,岐阜市,桜木町２丁目３４番地,,21,201,5008319,,,2025-07-07,清算の結了等,,,2015-10-05,1,,,,,サクラギセンイコウギョウ,0
440,2260002002132,登記記録の閉鎖等,0,2025-07-17,2025-06-27,有限会社岡促,,有限会社,岡山県,岡山市南区,市場１丁目１番地,,33,104,7028052,,,2025-06-27,清算の結了等,,,2015-10-05,1,,,,,オカソク,0
441,2270003000761,登記記録の閉鎖等,0,2025-07-17,2025-07-15,合同会社Ｓｎａｂａ　Ｓｈｏｐ,,合同会社,鳥取県,八頭郡若桜町,大字赤松２２番２５番合併地,,31,325,6800713,,,2025-07-15,清算の結了等,,,2015-10-05,1,,,,,スナバショップ,0
471,2380003000882,登記記録の閉鎖等,0,2025-07-17,2025-06-27,合資会社オフィス・ザイム,,合資会社,福島県,郡山市,久留米２丁目１１６番地の１２,,07,203,9638846,,,2025-06-27,清算の結了等,,,2015-10-05,1,,,,,オフィスザイム,0
478,2410002002694,登記記録の閉鎖等,0,2025-07-17,2025-07-08,株式会社東信,,株式会社,秋田県,秋田市,八橋大沼町１１番１９号,,05,201,0100963,,,2025-07-08,清算の結了等,,,2015-10-05,1,,,,,トウシン,0
486,2470001014454,登記記録の閉鎖等,0,2025-07-17,2025-07-08,高原建設興業株式会社,00005202,株式会社,香川県,仲多度郡多度津町,大字青木５７３番地１,,37,404,7640033,,,2025-07-08,清算の結了等,,,2015-10-05,1,,,,,タカハラケンセツコウギョウ,0
487,2470001017390,登記記録の閉鎖等,0,2025-07-17,2025-07-08,株式会社想建工,,株式会社,香川県,善通寺市,原田町５４９番地１ヴィ－タ・フェリーチェＢ２０２号,,37,204,7650032,,,2025-07-08,清算の結了等,,,2019-04-17,1,,,,,ソウケンコウ,0
489,2490002003512,登記記録の閉鎖等,0,2025-07-17,2025-07-15,有限会社土佐ガラス住器,,有限会社,高知県,高知市,針木本町１番２７号,,39,201,7808088,,,2025-07-15,清算の結了等,,,2015-10-05,1,,,,,トサガラスジュウキ,0
505,3010003034842,登記記録の閉鎖等,0,2025-07-17,2025-07-01,株式会社ＰＫＳＨＡ　Ｃｏｍｍｕｎｉｃａｔｉｏｎ,,株式会社,東京都,文京区,本郷２丁目３５番１０号本郷瀬川ビル４Ｆ,,13,105,1130033,,,2025-07-01,合併による解散等,5011101064787,令和７年７月１日東京都文京区本郷二丁目３５番１０号本郷瀬川ビル４Ｆ株式会社ＰＫＳＨＡ　Ｔｅｃｈｎｏｌｏｇｙ（5011101064787）に合併し解散,2021-05-18,1,,,,,パークシャコミュニケーション,0
506,3010005012367,登記記録の閉鎖等,0,2025-07-17,2025-07-02,特定非営利活動法人現代美術普及協会,,その他の設立登記法人,東京都,文京区,春日２丁目１－６春日ビューハイツ１Ａ（まつざき印刷内）,,13,105,1120003,,,2025-07-02,清算の結了等,,,2015-10-05,1,,,,,ゲンダイビジュツフキュウキョウカイ,0
507,3010005036333,登記記録の閉鎖等,0,2025-07-17,2025-07-03,一般社団法人Ｏｍｏｒｉ　ＭＭ２,,その他の設立登記法人,東京都,中央区,銀座２丁目１０番８号マニエラ銀座ビル４階,,13,102,1040061,,,2025-07-03,清算の結了等,,,2023-03-03,1,,,,,オオモリエムエムツー,0
510,3010401042653,登記記録の閉鎖等,0,2025-07-17,2025-06-25,株式会社エム・ビー・シー,,株式会社,東京都,港区,新橋３丁目１番１０号,,13,103,1050004,,,2025-06-25,清算の結了等,,,2015-10-05,1,,,,,エムビーシー,0
513,3010401156494,登記記録の閉鎖等,0,2025-07-17,2025-06-25,株式会社Ｃ－ＷＩＬＬ．ＮＥＴ,,株式会社,東京都,港区,新橋５丁目５番５号新橋ビル２階,,13,103,1050004,,,2025-06-25,清算の結了等,,,2020-11-16,1,,,,,シーウィルドットネット,0
531,3010901022089,登記記録の閉鎖等,0,2025-07-17,2025-07-04,株式会社オフィスクロダ,,株式会社,東京都,練馬区,石神井台４丁目１番２－５０３号,,13,120,1770045,,,2025-07-04,清算の結了等,,,2015-10-05,1,,,,,オフィスクロダ,0
534,3011001003905,登記記録の閉鎖等,0,2025-07-17,2025-07-03,株式会社エッグ,,株式会社,東京都,国立市,谷保６７７２番地の１４,,13,215,1860011,,,2025-07-03,清算の結了等,,,2015-10-05,1,,,,,エッグ,0
548,3011003019131,登記記録の閉鎖等,0,2025-07-17,2025-06-19,ＡＡＤ合同会社,,合同会社,東京都,目黒区,平町２丁目５－３,,13,110,1520032,,,2025-06-19,清算の結了等,,,2024-05-10,1,AAD LLC,Tokyo,"1-1-5-4F, Takaban, Meguro-ku",,エーエーディ,0
557,3011301003539,登記記録の閉鎖等,0,2025-07-17,2025-07-08,株式会社水恵設備工業,,株式会社,東京都,杉並区,今川２丁目１１番２１号,,13,115,1670035,,,2025-07-08,清算の結了等,,,2015-10-05,1,,,,,スイケイセツビコウギョウ,0
562,3011605002154,登記記録の閉鎖等,0,2025-07-17,2025-07-03,一般社団法人コード・フォー・ネリマ,,その他の設立登記法人,東京都,練馬区,練馬１丁目１９番２号Ｎｅｒｉｋｉｔａｂｌｄｇ２０２,,13,120,1760001,,,2025-07-03,清算の結了等,,,2018-03-07,1,,,,,コードフォーネリマ,0
567,3011801039545,登記記録の閉鎖等,0,2025-07-17,2025-07-14,株式会社梶田建設,,株式会社,東京都,足立区,中央本町３丁目１６番２２号サイジョウビル２０１,,13,121,1210011,,,2025-07-14,清算の結了等,,,2021-08-04,1,,,,,カジタケンセツ,0
568,3011803004902,登記記録の閉鎖等,0,2025-07-17,2025-07-09,合同会社ＰＲＯＣＡＲＥ,,合同会社,東京都,葛飾区,水元１丁目２５番２２号,,13,122,1250032,,,2025-07-09,清算の結了等,,,2021-12-23,1,,,,,プロケア,0
571,3012803002004,登記記録の閉鎖等,0,2025-07-17,2025-07-02,合同会社ｒｅ－ｃｒｅａｔｉｏｎ,,合同会社,東京都,立川市,錦町３丁目１２番２３号サンクレイドル立川錦町２０６号室,,13,202,1900022,,,2025-07-02,清算の結了等,,,2019-03-27,1,,,,,リクリエーション,0
585,3020003019586,登記記録の閉鎖等,0,2025-07-17,2025-07-03,合同会社ＴＭＮ－ｎｅｔｗｏｒｋ,,合同会社,神奈川県,横浜市南区,永田北１丁目２５－９メゾン永田北１０１,,14,105,2320071,,,2025-07-03,清算の結了等,,,2021-04-09,1,,,,,ティーエムエヌネットワーク,0
590,3021003011046,登記記録の閉鎖等,0,2025-07-17,2025-07-14,合同会社ｃｉｅｌ,,合同会社,神奈川県,足柄下郡湯河原町,吉浜６３４－４,,14,384,2590312,,,2025-07-14,清算の結了等,,,2021-11-04,1,,,,,シエル,0
593,3030001034710,登記記録の閉鎖等,0,2025-07-17,2025-07-08,永建工業株式会社,,株式会社,埼玉県,八潮市,大字八條３６５７番地１,,11,234,3400801,,,2025-07-08,清算の結了等,,,2015-10-05,1,,,,,エイケンコウギョウ,0
594,3030001085464,登記記録の閉鎖等,0,2025-07-17,2025-07-10,株式会社夢屋,,株式会社,埼玉県,熊谷市,弥藤吾５００番地１,,11,202,3600203,,,2025-07-10,清算の結了等,,,2015-10-05,1,,,,,ユメヤ,0
596,3030001120592,登記記録の閉鎖等,0,2025-07-17,2025-07-10,株式会社スイミー,,株式会社,埼玉県,春日部市,新川２２４番地２,,11,214,3440003,,,2025-07-10,清算の結了等,,,2017-06-02,1,,,,,スイミー,0
597,3030005016639,登記記録の閉鎖等,0,2025-07-17,2025-07-03,特定非営利活動法人マンション談話室ウィン・ウィン,,その他の設立登記法人,埼玉県,所沢市,大字上安松１３４１番地の６,,11,208,3590025,,,2025-07-03,清算の結了等,,,2015-10-05,1,,,,,マンションダンワシツウィンウィン,0
621,3130002010931,登記記録の閉鎖等,0,2025-07-17,2025-07-02,有限会社サンテクノサービス,,有限会社,京都府,京都市南区,吉祥院嶋出在家町１２番地,,26,107,6018373,,,2025-07-02,清算の結了等,,,2015-10-05,1,,,,,サンテクノサービス,0
625,3140001125671,登記記録の閉鎖等,0,2025-07-17,2025-07-14,プライムインベストメント株式会社,,株式会社,大阪府,堺市西区,上野芝向ヶ丘町６丁１番地３４号,,27,144,5938303,,,2025-07-14,合併による解散等,6030001066965,令和７年６月１日埼玉県北葛飾郡松伏町築比地７９５番地１株式会社ウィーズ（6030001066965）に合併し解散,2022-04-18,1,,,,,プライムインベストメント,0
631,3150001004916,登記記録の閉鎖等,0,2025-07-17,2025-07-15,株式会社城東プロセス,,株式会社,奈良県,生駒市,軽井沢町１０番１０号,,29,209,6300265,,,2025-07-15,清算の結了等,,,2015-10-05,1,,,,,ジョウトウプロセス,0
646,3180302002517,登記記録の閉鎖等,0,2025-07-17,2025-07-04,有限会社羽根会館,,有限会社,愛知県,岡崎市,戸崎元町５番地１０,,23,202,4440842,,,2025-07-04,清算の結了等,,,2015-10-05,1,,,,,ハネカイカン,0
651,3200001037068,登記記録の閉鎖等,0,2025-07-17,2025-07-08,Ｍファーム株式会社,,株式会社,岐阜県,瑞穂市,生津外宮前町１丁目５番地,,21,216,5010217,,,2025-07-08,清算の結了等,,,2020-01-16,1,,,,,エムファーム,0
666,3280001004804,登記記録の閉鎖等,0,2025-07-17,2025-07-15,株式会社エー・ケー企画,,株式会社,島根県,邑智郡川本町,大字川下１３６０番地１,,32,441,6960004,,,2025-07-15,清算の結了等,,,2015-10-05,1,,,,,エーケーキカク,0
678,3310005006181,登記記録の閉鎖等,0,2025-07-17,2025-06-27,中山生産森林組合,,その他の設立登記法人,長崎県,平戸市,西中山町６４５番地,,42,207,8595526,,,2025-06-27,清算の結了等,,,2015-10-05,1,,,,,ナカヤマ,0
697,3460302001696,登記記録の閉鎖等,0,2025-07-17,2025-07-14,有限会社渡辺装飾,,有限会社,北海道,北見市,東陵町１８１番地１５,,01,208,0900061,,,2025-07-14,清算の結了等,,,2015-10-05,1,,,,,ワタナベソウショク,0
699,3470002002325,登記記録の閉鎖等,0,2025-07-17,2025-07-02,共栄住宅有限会社,,有限会社,香川県,高松市,木太町３８６８番地,,37,201,7600080,,,2025-07-02,清算の結了等,,,2016-06-03,1,,,,,キョウエイジュウタク,0
700,3470002006053,登記記録の閉鎖等,0,2025-07-17,2025-07-09,有限会社プリモピアット,,有限会社,香川県,高松市,今新町７番地１０,,37,201,7600043,,,2025-07-09,清算の結了等,,,2015-10-05,1,,,,,プリモピアット,0
710,4010001208208,登記記録の閉鎖等,0,2025-07-17,2025-06-23,株式会社エージェント,,株式会社,東京都,千代田区,内神田１丁目１８番１１号東京ロイヤルプラザ２１３号室,,13,101,1010047,,,2025-06-23,清算の結了等,,,2020-03-13,1,,,,,エージェント,0
724,4010401175493,登記記録の閉鎖等,0,2025-07-17,2025-06-26,株式会社いろいろ,,株式会社,東京都,港区,虎ノ門４丁目３番１３号ヒューリック神谷町ビル,,13,103,1050001,,,2025-06-26,清算の結了等,,,2023-07-10,1,,,,,イロイロ,0
730,4010405020662,登記記録の閉鎖等,0,2025-07-17,2025-06-26,Ｊｅｔｔａ一般社団法人,,その他の設立登記法人,東京都,港区,虎ノ門２丁目６番１号,,13,103,1050001,,,2025-06-26,清算の結了等,,,2022-02-04,1,,,,,ジェッタ,0
731,4010501008487,登記記録の閉鎖等,0,2025-07-17,2025-06-30,東亜岩綿工業株式会社,,株式会社,東京都,台東区,雷門２丁目１３番１号,,13,106,1110034,,,2025-06-30,清算の結了等,,,2015-10-05,1,,,,,トウアガンメンコウギョウ,0
748,4011101033421,登記記録の閉鎖等,0,2025-07-17,2025-07-15,株式会社マル・ビ,,株式会社,東京都,新宿区,赤城下町４５番地,,13,104,1620803,,,2025-07-15,合併による解散等,8011501006700,令和７年７月１１日東京都荒川区西日暮里六丁目２８番１号三美印刷株式会社（8011501006700）に合併し解散,2015-10-05,1,,,,,マルビ,0
750,4011301015995,登記記録の閉鎖等,0,2025-07-17,2025-07-01,株式会社グリッド,,株式会社,愛知県,豊橋市,東小田原町１０４番地ロイヤルマンション東小田原７０３,,23,201,4400886,,,2025-07-01,清算の結了等,,,2015-10-05,1,,,,,グリッド,0
757,4012701014991,登記記録の閉鎖等,0,2025-07-17,2025-07-03,株式会社ソリッドシステムズ,,株式会社,東京都,豊島区,南池袋１丁目１６番１５号ダイヤゲート池袋５Ｆ,,13,116,1710022,,,2025-07-03,清算の結了等,,,2018-09-06,1,,,,,ソリッドシステムズ,0
776,4030002070472,登記記録の閉鎖等,0,2025-07-17,2025-07-09,有限会社大栄住宅,,有限会社,埼玉県,北葛飾郡杉戸町,大字深輪２４２番地１,,11,464,3450012,,,2025-07-09,清算の結了等,,,2015-10-05,1,,,,,ダイエイジュウタク,0
797,4050002032339,登記記録の閉鎖等,0,2025-07-17,2025-07-02,有限会社大竹建設,,有限会社,茨城県,北茨城市,中郷町上桜井７４６番地の８,,08,215,3191559,,,2025-07-02,清算の結了等,,,2015-10-05,1,,,,,オオタケケンセツ,0
801,4060001018354,登記記録の閉鎖等,0,2025-07-17,2025-07-04,株式会社魚米,,株式会社,栃木県,足利市,南大町２３７番地６,,09,202,3260836,,,2025-07-04,清算の結了等,,,2015-10-05,1,,,,,ウオヨネ,0
809,4100002010339,登記記録の閉鎖等,0,2025-07-17,2025-07-11,ＩＳ企画株式会社,,株式会社,長野県,佐久市,田口１０８２番地,,20,217,3840412,,,2025-07-11,清算の結了等,,,2015-10-05,1,,,,,アイエスキカク,0
810,4120001053592,登記記録の閉鎖等,0,2025-07-17,2025-07-01,株式会社アストックジャパン,,株式会社,大阪府,大阪市中央区,本町１丁目２番１号,,27,128,5410053,,,2025-07-01,清算の結了等,,,2015-10-05,1,,,,,アストックジャパン,0
823,4120101030954,登記記録の閉鎖等,0,2025-07-17,2025-07-08,宣洋産業株式会社,,株式会社,大阪府,富田林市,新青葉丘町１２番１５号,,27,214,5840077,,,2025-07-08,清算の結了等,,,2015-10-05,1,,,,,センヨウサンギョウ,0
832,4130001032174,登記記録の閉鎖等,0,2025-07-17,2025-07-07,ＨＳＫ．ＪＡＰＡＮ株式会社,,株式会社,滋賀県,大津市,坂本７丁目３０番５０号,,25,201,5200113,,,2025-07-07,清算の結了等,,,2015-10-05,1,,,,,,0
838,4140001093091,登記記録の閉鎖等,0,2025-07-17,2025-07-15,株式会社交洋フーズ,,株式会社,兵庫県,神戸市中央区,八幡通３丁目２番５号ＩＮ東洋ビル６０２,,28,110,6510085,,,2025-07-15,合併による解散等,2190001014805,令和７年７月１日三重県四日市市新正五丁目４番１９号株式会社交洋（2190001014805）に合併し解散,2015-10-05,1,,,,,コウヨウフーズ,0
843,4140002044341,登記記録の閉鎖等,0,2025-07-17,2025-07-08,有限会社エイトフラッグ,,有限会社,兵庫県,尼崎市,立花町２丁目１番７号,,28,202,6610025,,,2025-07-08,清算の結了等,,,2015-10-05,1,,,,,エイトフラッグ,0
846,4160002005960,登記記録の閉鎖等,0,2025-07-17,2025-07-01,滋賀容器運送有限会社,,有限会社,滋賀県,甲賀市,水口町三本柳２４４番地,,25,209,5280040,,,2025-07-01,合併による解散等,1160001005130,令和７年７月１日滋賀県甲賀市水口町三本柳３９番地滋賀酒造株式会社（1160001005130）に合併し解散,2015-10-05,1,,,,,シガヨウキウンソウ,0
849,4180002074491,登記記録の閉鎖等,0,2025-07-17,2025-07-02,有限会社布施工務店,,有限会社,愛知県,犬山市,上野新町２９９番地,,23,215,4840078,,,2025-07-02,清算の結了等,,,2015-10-05,1,,,,,フセコウムテン,0
877,4260001000639,登記記録の閉鎖等,0,2025-07-17,2025-07-03,株式会社ウエル,,株式会社,岡山県,岡山市北区,弓之町２番９号弓之町ビル３階,,33,101,7000817,,,2025-07-03,清算の結了等,,,2015-10-05,1,,,,,ウエル,0
878,4260001036559,登記記録の閉鎖等,0,2025-07-17,2025-07-10,株式会社ＰＬＡＹＯＵＴ　ＤＥＳＩＧＮ,,株式会社,岡山県,岡山市中区,中納言町７番３４号サンジェルマン中納言,,33,102,7038292,,,2025-07-10,清算の結了等,,,2022-02-24,1,,,,,プレイアウトデザイン,0
879,4260002030668,登記記録の閉鎖等,0,2025-07-17,2025-06-26,株式会社藤善建設工業,,株式会社,岡山県,美作市,土居２６４２－６,,33,215,7094244,,,2025-06-26,清算の結了等,,,2015-10-05,1,,,,,フジヨシケンセツコウギョウ,0
880,4260002033002,登記記録の閉鎖等,0,2025-07-17,2025-06-27,有限会社荘内中央オート,,有限会社,岡山県,玉野市,木目５５０番地の１,,33,204,7060143,,,2025-06-27,清算の結了等,,,2015-10-05,1,,,,,ショウナイチュウオウオート,0
909,4390002015706,登記記録の閉鎖等,0,2025-07-17,2025-07-03,有限会社田村印刷,,有限会社,山形県,寒河江市,八幡町２番２０号,,06,206,9910025,,,2025-07-03,清算の結了等,,,2015-10-05,1,,,,,タムラインサツ,0
919,4460301002240,登記記録の閉鎖等,0,2025-07-17,2025-07-14,株式会社アサカワ,,株式会社,北海道,紋別郡遠軽町,岩見通南２丁目２番地の２１,,01,555,0990415,,,2025-07-14,清算の結了等,,,2015-10-05,1,,,,,アサカワ,0
934,5010001178813,登記記録の閉鎖等,0,2025-07-17,2025-07-01,株式会社ＰＫＳＨＡ　Ｗｏｒｋｐｌａｃｅ,,株式会社,東京都,文京区,本郷２丁目３５番１０号本郷瀬川ビル４Ｆ,,13,105,1130033,,,2025-07-01,合併による解散等,5011101064787,令和７年７月１日東京都文京区本郷二丁目３５番１０号本郷瀬川ビル４Ｆ株式会社ＰＫＳＨＡ　Ｔｅｃｈｎｏｌｏｇｙ（5011101064787）に合併し解散,2016-10-11,1,,,,,パークシャワークプレイス,0
941,5010003024528,登記記録の閉鎖等,0,2025-07-17,2025-06-23,ジャパンバジル合同会社,,合同会社,東京都,中央区,銀座７丁目５番４号,,13,102,1040061,,,2025-06-23,清算の結了等,,,2016-12-19,1,,,,,,0
947,5010401118261,登記記録の閉鎖等,0,2025-07-17,2025-06-25,アンソン株式会社,,株式会社,東京都,港区,新橋４丁目３０番６号京急中はらビル５階,,13,103,1050004,,,2025-06-25,清算の結了等,,,2015-10-05,1,,,,,アンソン,0
954,5010405023301,登記記録の閉鎖等,0,2025-07-17,2025-06-27,一般社団法人津軽パワー,,その他の設立登記法人,東京都,港区,元赤坂１丁目１番８号赤坂コミュニティビル４階,,13,103,1070051,,,2025-06-27,清算の結了等,,,2024-06-03,1,,,,,ツガルパワー,0
993,5013201016263,登記記録の閉鎖等,0,2025-07-17,2025-07-10,ユニリーバ・ジャパン・サービス株式会社,,株式会社,東京都,目黒区,上目黒２丁目１番１号,,13,110,1530051,,,2025-07-10,合併による解散等,7013201007839,令和７年７月１日東京都目黒区上目黒二丁目１番１号ユニリーバ・ジャパン株式会社（7013201007839）に合併し解散,2015-10-05,1,,,,,ユニリーバジャパンサービス,0
1010,5021001037256,登記記録の閉鎖等,0,2025-07-17,2025-07-11,株式会社平果興産,,株式会社,神奈川県,平塚市,四之宮１丁目７番１号,,14,203,2540014,,,2025-07-11,清算の結了等,,,2015-10-05,1,,,,,ヒラカコウサン,0
1022,5030002077888,登記記録の閉鎖等,0,2025-07-17,2025-07-09,有限会社グッドリッチ,,有限会社,埼玉県,川越市,東田町９番地２４,,11,201,3501114,,,2025-07-09,清算の結了等,,,2015-10-05,1,,,,,グッドリッチ,0
1036,5050002041529,登記記録の閉鎖等,0,2025-07-17,2025-07-02,有限会社中島製作所,,有限会社,茨城県,常総市,国生１１５７番地,,08,211,3002741,,,2025-07-02,清算の結了等,,,2015-10-05,1,,,,,ナカジマセイサクショ,0
1038,5070001031751,登記記録の閉鎖等,0,2025-07-17,2025-07-04,株式会社ＹＥＳＮＥＴ,,株式会社,大阪府,大阪市淀川区,東三国２丁目３７番１０号,,27,123,5320002,,,2025-07-04,清算の結了等,,,2016-01-18,1,,,,,イエスネット,0
1039,5070002012494,登記記録の閉鎖等,0,2025-07-17,2025-07-03,有限会社えびすこ本場所,,有限会社,群馬県,高崎市,上佐野町６５５番地１,,10,202,3700857,,,2025-07-03,清算の結了等,,,2015-10-05,1,,,,,エビスコホンバショ,0
1062,5120005006463,登記記録の閉鎖等,0,2025-07-17,2025-07-10,大阪サンダル工業協同組合,,その他の設立登記法人,大阪府,大阪市中央区,東心斎橋１丁目１３番２０号,,27,128,5420083,,,2025-07-10,清算の結了等,,,2015-10-05,1,,,,,オオサカサンダルコウギョウ,0
1063,5120102007538,登記記録の閉鎖等,0,2025-07-17,2025-07-14,有限会社エコ薬局,,有限会社,大阪府,堺市西区,津久野町１丁８番１７号,,27,144,5938322,,,2025-07-14,合併による解散等,6030001066965,令和７年６月１日埼玉県北葛飾郡松伏町築比地７９５番地１株式会社ウィーズ（6030001066965）に合併し解散,2015-10-05,1,,,,,エコヤッキョク,0
1075,5140001103188,登記記録の閉鎖等,0,2025-07-17,2025-06-23,株式会社ＭｏｍＲｅｖｏｌｕｔｉｏｎ,,株式会社,東京都,中央区,銀座１丁目２２番１１号銀座大竹ビジデンス２階,,13,102,1040061,,,2025-06-23,清算の結了等,,,2016-08-23,1,,,,,,0
1082,5150001018939,登記記録の閉鎖等,0,2025-07-17,2025-07-15,株式会社ＦＤＫ,,株式会社,奈良県,奈良市,菅原東１丁目２１番９－２０３号,,29,201,6310842,,,2025-07-15,清算の結了等,,,2015-10-05,1,,,,,エフディーケー,0
1096,5180301014288,登記記録の閉鎖等,0,2025-07-17,2025-07-01,東海建物管理株式会社,,株式会社,愛知県,刈谷市,末広町２丁目２番地９,,23,210,4480802,,,2025-07-01,合併による解散等,1180301013987,令和７年７月１日愛知県刈谷市小垣江町大津崎１番地２８クレフォートグループ株式会社（1180301013987）に合併し解散,2015-10-05,1,,,,,トウカイタテモノカンリ,0
1102,5190001010355,登記記録の閉鎖等,0,2025-07-17,2025-07-03,株式会社中央開発,,株式会社,三重県,松阪市,田村町１２２６番地１,,24,204,5150055,,,2025-07-03,清算の結了等,,,2015-10-05,1,,,,,チュウオウカイハツ,0
1104,5190003004751,登記記録の閉鎖等,0,2025-07-17,2025-07-04,合同会社たなばた,,合同会社,三重県,四日市市,諏訪栄町６―２５プレミスト四日市駅前１５０２,,24,202,5100086,,,2025-07-04,清算の結了等,,,2024-07-23,1,,,,,タナバタ,0
1116,5240002042045,登記記録の閉鎖等,0,2025-07-17,2025-07-08,有限会社ナイスフィット,,有限会社,広島県,福山市,引野町１１０５番地６,,34,207,7210942,,,2025-07-08,清算の結了等,,,2015-10-05,1,,,,,ナイスフィット,0
1122,5270002004868,登記記録の閉鎖等,0,2025-07-17,2025-07-15,有限会社シュマン,,有限会社,鳥取県,鳥取市,扇町１１６番地,,31,201,6800846,,,2025-07-15,清算の結了等,,,2015-10-05,1,,,,,シュマン,0
1123,5280005000673,登記記録の閉鎖等,0,2025-07-17,2025-07-16,松江中央通商店街振興組合,,その他の設立登記法人,島根県,松江市,寺町２１４番地４,,32,201,6900063,,,2025-07-16,清算の結了等,,,2015-10-05,1,,,,,マツエチュウオウドオリ,0
1125,5290001039277,登記記録の閉鎖等,0,2025-07-17,2025-07-01,光輪商事株式会社,,株式会社,福岡県,福岡市早良区,百道１丁目２５番４２－３０２号,,40,137,8140006,,,2025-07-01,清算の結了等,,,2015-10-05,1,,,,,コウリンショウジ,0
1126,5290001063285,登記記録の閉鎖等,0,2025-07-17,2025-06-25,株式会社フレームワークス,,株式会社,東京都,港区,高輪１丁目２３番２３－１６０６号,,13,103,1080074,,,2025-06-25,清算の結了等,,,2015-10-05,1,,,,,フレームワークス,0
1128,5290001073276,登記記録の閉鎖等,0,2025-07-17,2025-07-01,株式会社コスモエステート,,株式会社,福岡県,春日市,春日原南町４丁目３７番地１０５,,40,218,8160803,,,2025-07-01,合併による解散等,4290001043131,令和７年７月１日福岡県春日市春日原南町四丁目３７番地１０５株式会社コスモメイト（4290001043131）に合併し解散,2016-03-22,1,,,,,コスモエステート,0
1154,5380001028725,登記記録の閉鎖等,0,2025-07-17,2025-06-30,株式会社ルート４９,,株式会社,福島県,会津若松市,北会津町中里３５番地の１,,07,202,9650110,,,2025-06-30,清算の結了等,,,2017-12-27,1,,,,,ルートヨンキュウ,0
1158,5400502001343,登記記録の閉鎖等,0,2025-07-17,2025-07-01,有限会社伊俊建設,,有限会社,岩手県,一関市,藤沢町黄海字川口沖９３番地,,03,209,0293311,,,2025-07-01,清算の結了等,,,2015-10-05,1,,,,,イシュンケンセツ,0
1173,6010001016880,登記記録の閉鎖等,0,2025-07-17,2025-07-14,三陽フレーバー株式会社,,株式会社,東京都,千代田区,岩本町１丁目２番１６号,,13,101,1010032,,,2025-07-14,清算の結了等,,,2015-10-05,1,,,,,サンヨウフレーバー,0
1177,6010001135805,登記記録の閉鎖等,0,2025-07-17,2025-06-30,株式会社ジーエスソフト,,株式会社,千葉県,松戸市,久保平賀２７４番地の１,,12,207,2700012,,,2025-06-30,清算の結了等,,,2015-10-05,1,,,,,ジーエスソフト,0
1192,6010402032304,登記記録の閉鎖等,0,2025-07-17,2025-06-25,有限会社ヨコザキ,,有限会社,東京都,港区,六本木４丁目３番１１号六本木ユニハウス２２３号,,13,103,1060032,,,2025-06-25,清算の結了等,,,2015-10-05,1,,,,,ヨコザキ,0
1197,6010602024274,登記記録の閉鎖等,0,2025-07-17,2025-07-07,有限会社志賀水産,,有限会社,東京都,江東区,亀戸３丁目５９番１２号,,13,108,1360071,,,2025-07-07,清算の結了等,,,2015-10-05,1,,,,,,0
1200,6011001068986,登記記録の閉鎖等,0,2025-07-17,2025-06-19,株式会社ことばの森,,株式会社,東京都,渋谷区,桜丘町２６－１セルリアンタワー１５階,,13,113,1500031,,,2025-06-19,清算の結了等,,,2015-10-05,1,,,,,コトバノモリ,0
1214,6011501000011,登記記録の閉鎖等,0,2025-07-17,2025-07-07,朝日建設株式会社,,株式会社,東京都,北区,上十条３丁目１２番７号,,13,117,1140034,,,2025-07-07,清算の結了等,,,2015-10-05,1,,,,,アサヒケンセツ,0
1216,6011602003846,登記記録の閉鎖等,0,2025-07-17,2025-07-03,有限会社児嶋工務店,,有限会社,東京都,練馬区,西大泉５丁目１２番１５号,,13,120,1780065,,,2025-07-03,清算の結了等,,,2015-10-05,1,,,,,コジマコウムテン,0
1233,6021001048046,登記記録の閉鎖等,0,2025-07-17,2025-07-08,うすもりデザインズ株式会社,,株式会社,神奈川県,平塚市,南金目１７８９番地,,14,203,2591201,,,2025-07-08,清算の結了等,,,2015-10-05,1,,,,,ウスモリデザインズ,0
1234,6021001082549,登記記録の閉鎖等,0,2025-07-17,2025-07-11,株式会社Ｙ’Ｓホールディングス,,株式会社,神奈川県,大和市,深見西６丁目３番２８号,,14,213,2420018,,,2025-07-11,清算の結了等,,,2024-06-21,1,,,,,ワイズホールディングス,0
1258,6080001007717,登記記録の閉鎖等,0,2025-07-17,2025-07-04,エンドー豆腐株式会社,,株式会社,静岡県,静岡市清水区,三保３２５３番地,,22,103,4240901,,,2025-07-04,清算の結了等,,,2015-10-05,1,,,,,エンドートウフ,0
1259,6080001017740,登記記録の閉鎖等,0,2025-07-17,2025-07-04,株式会社ｅｎ　ｃｏｍｐａｎｙ,,株式会社,静岡県,榛原郡吉田町,神戸２１４３番地の１８,,22,424,4210304,,,2025-07-04,清算の結了等,,,2015-10-05,1,,,,,エンカンパニー,0
1263,6100001006352,登記記録の閉鎖等,0,2025-07-17,2025-07-11,株式会社ＣＫＭ管財,,株式会社,長野県,千曲市,大字羽尾１５６２番地,,20,218,3890812,,,2025-07-11,清算の結了等,,,2015-10-05,1,,,,,シーケイエムカンザイ,0
1265,6120001247077,登記記録の閉鎖等,0,2025-07-17,2025-07-03,オリジン株式会社,,株式会社,東京都,練馬区,旭町１丁目３２－１６－２０１号室,,13,120,1790071,,,2025-07-03,清算の結了等,,,2022-07-12,1,,,,,オリジン,0
1287,6140001078603,登記記録の閉鎖等,0,2025-07-17,2025-07-04,株式会社だるまや,,株式会社,兵庫県,伊丹市,中央１丁目２番１号,,28,207,6640851,,,2025-07-04,清算の結了等,,,2015-10-05,1,,,,,ダルマヤ,0
1293,6150001017254,登記記録の閉鎖等,0,2025-07-17,2025-07-14,株式会社ウエカワ,,株式会社,奈良県,香芝市,下田西３丁目５番１９－２０６号,,29,210,6390231,,,2025-07-14,清算の結了等,,,2015-10-05,1,,,,,ウエカワ,0
1305,6180301016317,登記記録の閉鎖等,0,2025-07-17,2025-07-01,株式会社刈谷プラザホテル,,株式会社,愛知県,刈谷市,相生町２丁目３１番地,,23,210,4480027,,,2025-07-01,合併による解散等,1180301013987,令和７年７月１日愛知県刈谷市小垣江町大津崎１番地２８クレフォートグループ株式会社（1180301013987）に合併し解散,2015-10-05,1,,,,,カリヤプラザホテル,0
1306,6180301017422,登記記録の閉鎖等,0,2025-07-17,2025-07-01,東海不動産システム株式会社,,株式会社,愛知県,刈谷市,野田町馬池３番地１,,23,210,4480803,,,2025-07-01,合併による解散等,1180301013987,令和７年７月１日愛知県刈谷市小垣江町大津崎１番地２８クレフォートグループ株式会社（1180301013987）に合併し解散,2015-10-05,1,,,,,トウカイフドウサンシステム,0
1310,6200001001822,登記記録の閉鎖等,0,2025-07-17,2025-07-08,倉信青果株式会社,,株式会社,岐阜県,岐阜市,茜部新所２丁目５番地岐阜市中央卸売市場内,,21,201,5008263,,,2025-07-08,清算の結了等,,,2015-10-05,1,,,,,クラシンセイカ,0
1317,6230005008258,登記記録の閉鎖等,0,2025-07-17,2025-07-10,特定非営利活動法人中央スポーツクラブ,,その他の設立登記法人,富山県,富山市,清水町８丁目１番１号,,16,201,9300036,,,2025-07-10,清算の結了等,,,2015-10-05,1,,,,,チュウオウスポーツクラブ,0
1318,6230005009322,登記記録の閉鎖等,0,2025-07-17,2025-07-11,一般社団法人Ｔ‐Ｅｎｇｉｎｅ,,その他の設立登記法人,富山県,射水市,西高木７９５番地,,16,211,9390303,,,2025-07-11,清算の結了等,,,2023-07-25,1,,,,,ティーエンジン,0
1320,6260001030709,登記記録の閉鎖等,0,2025-07-17,2025-07-11,株式会社クオリティープランテーションズ,,株式会社,岡山県,美作市,海田１９６２番地,,33,215,7070044,,,2025-07-11,清算の結了等,,,2017-04-14,1,,,,,クオリティープランテーションズ,0
1336,6320002000274,登記記録の閉鎖等,0,2025-07-17,2025-07-04,有限会社大分電波サービス,,有限会社,大分県,大分市,大字小池原１０３９番地の４２,,44,201,8700147,,,2025-07-04,清算の結了等,,,2015-10-05,1,,,,,オオイタデンパサービス,0
1338,6330001007526,登記記録の閉鎖等,0,2025-07-17,2025-07-01,株式会社５ＳＴＡＲＳ,,株式会社,熊本県,熊本市中央区,世安１丁目４番１号,,43,101,8600827,,,2025-07-01,合併による解散等,5330001031758,令和７年７月１日熊本市中央区世安一丁目４番１号株式会社Ｅｎｇｉｎｅ（5330001031758）に合併し解散,2015-10-05,1,,,,,ファイブスターズ,0
1347,6390001012438,登記記録の閉鎖等,0,2025-07-17,2025-07-14,株式会社三栄メディカル,,株式会社,山形県,山形市,南栄町２丁目１５番２３号,,06,201,9902445,,,2025-07-14,合併による解散等,6030001066965,令和７年６月１日埼玉県北葛飾郡松伏町築比地７９５番地１株式会社ウィーズ（6030001066965）に合併し解散,2015-10-05,1,,,,,サンエイメディカル,0
1352,6430001031367,登記記録の閉鎖等,0,2025-07-17,2025-07-01,株式会社スペースフロアー,,株式会社,京都府,船井郡京丹波町,新水戸黒地４４番地,,26,407,6220222,,,2025-07-01,合併による解散等,8130001010738,令和７年７月１日京都府長岡京市神足七ノ坪５番地産交運輸倉庫株式会社（8130001010738）に合併し解散,2015-10-05,1,,,,,スペースフロアー,0
1358,6460102001745,登記記録の閉鎖等,0,2025-07-17,2025-07-14,有限会社相互建設工業,,有限会社,北海道,河東郡音更町,木野大通東１３丁目１番地２２,,01,631,0800111,,,2025-07-14,清算の結了等,,,2015-10-05,1,,,,,ソウゴケンセツコウギョウ,0
1360,7010001016871,登記記録の閉鎖等,0,2025-07-17,2025-07-14,三陽香料株式会社,,株式会社,東京都,千代田区,岩本町１丁目２番１６号,,13,101,1010032,,,2025-07-14,清算の結了等,,,2015-10-05,1,,,,,サンヨウコウリョウ,0
1362,7010001038321,登記記録の閉鎖等,0,2025-07-17,2025-07-15,株式会社エトバス,,株式会社,東京都,中央区,銀座７丁目１７番１５号,,13,102,1040061,,,2025-07-15,合併による解散等,1010001034813,令和７年７月１日東京都中央区銀座七丁目５番５号株式会社資生堂（1010001034813）に合併し解散,2015-10-05,1,,,,,エトバス,0
1374,7010002030021,登記記録の閉鎖等,0,2025-07-17,2025-06-23,有限会社フラッグス,,有限会社,東京都,中央区,新富２丁目１０番３号,,13,102,1040041,,,2025-06-23,清算の結了等,,,2015-10-05,1,,,,,,0
1377,7010401084824,登記記録の閉鎖等,0,2025-07-17,2025-06-19,ＩＣ‐Ｂｅｒｌｉｎ　Ｊａｐａｎ株式会社,,株式会社,東京都,渋谷区,道玄坂１丁目１０番８号渋谷道玄坂東急ビル２Ｆ－Ｃ,,13,113,1500043,,,2025-06-19,清算の結了等,,,2015-10-05,1,,,,,アイシーベルリンジャパン,0
1412,7011301022907,登記記録の閉鎖等,0,2025-07-17,2025-07-01,カワサキインターナショナル株式会社,,株式会社,東京都,杉並区,井草２丁目３５番１２－５－２０５号,,13,115,1670021,,,2025-07-01,清算の結了等,,,2017-02-06,1,,,,,カワサキインターナショナル,0
1425,7020001022084,登記記録の閉鎖等,0,2025-07-17,2025-07-01,株式会社横浜自働機エンジニアリング,,株式会社,神奈川県,横浜市港北区,新吉田東８丁目５４番１号,,14,109,2230058,,,2025-07-01,合併による解散等,6020001022085,令和７年７月１日横浜市港北区新吉田東八丁目５２番１号株式会社横浜自働機（6020001022085）に合併し解散,2015-10-05,1,,,,,ヨコハマジドウキエンジニアリング,0
1441,7030001119540,登記記録の閉鎖等,0,2025-07-17,2025-07-04,株式会社大塚工業,,株式会社,埼玉県,上尾市,大字西貝塚２０番地１,00109837,11,219,3620057,,,2025-07-04,清算の結了等,,,2017-04-11,1,,,,,オオツカコウギョウ,0
1450,7040002096167,登記記録の閉鎖等,0,2025-07-17,2025-06-30,有限会社トップロード,,有限会社,千葉県,柏市,柏５丁目３番２５号,,12,217,2770005,,,2025-06-30,清算の結了等,,,2015-10-05,1,,,,,トップロード,0
1483,7140001056847,登記記録の閉鎖等,0,2025-07-17,2025-07-10,株式会社清水商店,,株式会社,兵庫県,豊岡市,泉町１９番４号,,28,209,6680021,,,2025-07-10,清算の結了等,,,2015-10-05,1,,,,,シミズショウテン,0
1516,7240001061036,登記記録の閉鎖等,0,2025-07-17,2025-07-09,株式会社フェーズ・ワン,,株式会社,広島県,大竹市,本町２丁目９番１２号,,34,211,7390613,,,2025-07-09,清算の結了等,,,2023-02-03,1,,,,,フェーズワン,0
1523,7260002004322,登記記録の閉鎖等,0,2025-07-17,2025-07-09,阪本運送有限会社,,有限会社,岡山県,岡山市中区,高屋３６６番地４,,33,102,7038233,,,2025-07-09,清算の結了等,,,2015-10-05,1,,,,,サカモトウンソウ,0
1524,7260002031837,登記記録の閉鎖等,0,2025-07-17,2025-07-10,有限会社田中運送,,有限会社,岡山県,備前市,久々井１０７０番地,,33,211,7050024,,,2025-07-10,清算の結了等,,,2015-10-05,1,,,,,タナカウンソウ,0
1530,7290002020341,登記記録の閉鎖等,0,2025-07-17,2025-07-01,有限会社ＦＹ企画,,有限会社,福岡県,福岡市博多区,御供所町３番２９号,,40,132,8120037,,,2025-07-01,合併による解散等,5290001015658,令和７年７月１日福岡市博多区博多駅中央街５番１４号博多ステイションフード株式会社（5290001015658）に合併し解散,2015-10-05,1,,,,,エフワイキカク,0
1534,7290801020302,登記記録の閉鎖等,0,2025-07-17,2025-07-15,株式会社三光,,株式会社,福岡県,中間市,桜台２丁目２２番１１号,,40,215,8090017,,,2025-07-15,清算の結了等,,,2015-10-05,1,,,,,サンコウ,0
1542,7330005005649,登記記録の閉鎖等,0,2025-07-17,2025-07-02,農事組合法人宇土アグリパーク,,その他の設立登記法人,熊本県,宇土市,椿原町７２２番地１１,,43,211,8690455,,,2025-07-02,清算の結了等,,,2015-10-05,1,,,,,ウトアグリパーク,0
1544,7350002017042,登記記録の閉鎖等,0,2025-07-17,2025-07-03,有限会社南九州サンワード,,有限会社,宮崎県,日南市,中央通１丁目５番地２,,45,204,8870021,,,2025-07-03,清算の結了等,,,2015-10-05,1,,,,,ミナミキュウシュウサンワード,0
1567,7450003002041,登記記録の閉鎖等,0,2025-07-17,2025-07-14,合同会社しもかわドッとカム,,合同会社,北海道,上川郡下川町,共栄町５９番地１,,01,468,0981203,,,2025-07-14,清算の結了等,,,2021-02-04,1,,,,,シモカワドットカム,0
1587,8010102004080,登記記録の閉鎖等,0,2025-07-17,2025-07-14,有限会社ダイニチ電子,,有限会社,東京都,八王子市,大和田町５丁目２３番１０号,,13,201,1920045,,,2025-07-14,清算の結了等,,,2015-10-05,1,,,,,,0
1602,8010405020898,登記記録の閉鎖等,0,2025-07-17,2025-06-27,一般社団法人ＴＴＬＣ湯島,,その他の設立登記法人,東京都,港区,元赤坂１丁目１番８号赤坂コミュニティビル４階,,13,103,1070051,,,2025-06-27,清算の結了等,,,2022-04-06,1,,,,,ティーティーエルシーユシマユシマ,0
1615,8010902003802,登記記録の閉鎖等,0,2025-07-17,2025-07-15,有限会社関東電気温水器サービスセンター,,有限会社,東京都,世田谷区,太子堂２丁目１４番１９号,,13,112,1540004,,,2025-07-15,清算の結了等,,,2015-10-05,1,,,,,カントウデンキオンスイキサービスセンター,0
1626,8011101061699,登記記録の閉鎖等,0,2025-07-17,2025-07-14,ハウス東京株式会社,,株式会社,東京都,新宿区,新宿４丁目１番２２号,,13,104,1600022,,,2025-07-14,合併による解散等,9012802001372,令和７年７月１日東京都杉並区久我山五丁目３３番２５号株式会社ケー・クリエイション（9012802001372）に合併し解散,2015-10-05,1,,,,,ハウストウキョウ,0
1633,8011601014512,登記記録の閉鎖等,0,2025-07-17,2025-07-04,株式会社東北建装,,株式会社,東京都,練馬区,石神井台６丁目１９番３９号ハイツ辰美１０１,,13,120,1770045,,,2025-07-04,清算の結了等,,,2015-10-05,1,,,,,トウホクケンソウ,0
1634,8011701003010,登記記録の閉鎖等,0,2025-07-17,2025-07-07,株式会社コスモパック,,株式会社,東京都,江戸川区,大杉２丁目２０番８号,,13,123,1320022,,,2025-07-07,清算の結了等,,,2015-10-05,1,,,,,コスモパック,0
1636,8011801014394,登記記録の閉鎖等,0,2025-07-17,2025-07-11,報徳建設株式会社,,株式会社,東京都,江東区,南砂４丁目７番２６号,,13,108,1360076,,,2025-07-11,合併による解散等,3010001008674,令和７年７月１日東京都文京区音羽一丁目１番１号古久根建設株式会社（3010001008674）に合併し解散,2015-10-05,1,,,,,ホウトクケンセツ,0
1661,8040001054876,登記記録の閉鎖等,0,2025-07-17,2025-06-30,株式会社ギンレス,,株式会社,千葉県,市原市,潤井戸君ヶ台２０５３番,,12,219,2900171,,,2025-06-30,清算の結了等,,,2015-10-05,1,,,,,ギンレス,0
1663,8040001070543,登記記録の閉鎖等,0,2025-07-17,2025-06-17,株式会社工芸ぶんか舎,,株式会社,千葉県,流山市,向小金１丁目２７２番地の１６,,12,220,2700143,,,2025-06-17,清算の結了等,,,2015-10-05,1,,,,,コウゲイブンカシャ,0
1664,8040001082621,登記記録の閉鎖等,0,2025-07-17,2025-06-30,エクスビット株式会社,,株式会社,東京都,台東区,上野６丁目１番６号御徒町グリーンハイツ１００５号,,13,106,1100005,,,2025-06-30,清算の結了等,,,2015-10-05,1,,,,,エクスビット,0
1672,8050002043010,登記記録の閉鎖等,0,2025-07-17,2025-07-03,有限会社福島屋,,有限会社,茨城県,筑西市,横塚１３５７番地の１１,,08,227,3091116,,,2025-07-03,清算の結了等,,,2015-10-05,1,,,,,フクシマヤ,0
1680,8080102013232,登記記録の閉鎖等,0,2025-07-17,2025-07-04,有限会社東工業,,有限会社,静岡県,富士市,宮島２０４番地の２４,,22,210,4160945,,,2025-07-04,清算の結了等,,,2015-10-05,1,,,,,アズマコウギョウ,0
1702,8120101056772,登記記録の閉鎖等,0,2025-07-17,2025-07-14,株式会社エコファーマライズ,,株式会社,奈良県,橿原市,雲梯町１４０－１,,29,205,6340834,,,2025-07-14,合併による解散等,6030001066965,令和７年６月１日埼玉県北葛飾郡松伏町築比地７９５番地１株式会社ウィーズ（6030001066965）に合併し解散,2017-07-04,1,,,,,エコファーマライズ,0
1710,8140001099184,登記記録の閉鎖等,0,2025-07-17,2025-07-09,株式会社白樺訪問看護ステーション,,株式会社,兵庫県,姫路市,伊伝居４４４番地１,,28,201,6700871,,,2025-07-09,清算の結了等,,,2015-10-05,1,,,,,シラカバホウモンカイゴステーション,0
1725,8180301014525,登記記録の閉鎖等,0,2025-07-17,2025-07-01,株式会社プラナス設計,,株式会社,愛知県,刈谷市,野田町馬池３番地１,,23,210,4480803,,,2025-07-01,合併による解散等,1180301013987,令和７年７月１日愛知県刈谷市小垣江町大津崎１番地２８クレフォートグループ株式会社（1180301013987）に合併し解散,2015-10-05,1,,,,,プラナスセッケイ,0
1729,8180301025588,登記記録の閉鎖等,0,2025-07-17,2025-07-16,太田商店株式会社,,株式会社,愛知県,豊橋市,細谷町字上大附１９３番地,,23,201,4413113,,,2025-07-16,清算の結了等,,,2015-10-05,1,,,,,オオタショウテン,0
1736,8190002022355,登記記録の閉鎖等,0,2025-07-17,2025-07-07,有限会社名四ダイビング,,有限会社,三重県,四日市市,東日野町４６８番地１,,24,202,5100942,,,2025-07-07,清算の結了等,,,2015-10-05,1,,,,,メイヨンダイビング,0
1745,8240001022160,登記記録の閉鎖等,0,2025-07-17,2025-07-09,株式会社ＪｔｏＪ,,株式会社,広島県,広島市西区,楠木町１丁目１５番２９号,,34,104,7330002,,,2025-07-09,清算の結了等,,,2015-10-05,1,,,,,ジェイトゥージェイ,0
1748,8240003003407,登記記録の閉鎖等,0,2025-07-17,2025-07-07,合同会社Ｎ＆Ｉ,,合同会社,広島県,東広島市,西条中央６丁目４番２号,,34,212,7390025,,,2025-07-07,清算の結了等,,,2016-10-17,1,,,,,エヌアンドアイ,0
1751,8260002012159,登記記録の閉鎖等,0,2025-07-17,2025-06-30,有限会社アン企画,,有限会社,岡山県,岡山市北区,白石５３番地の１,,33,101,7010143,,,2025-06-30,清算の結了等,,,2015-10-05,1,,,,,アンキカク,0
1780,8380005012664,登記記録の閉鎖等,0,2025-07-17,2025-06-26,あさか税理士法人,,その他の設立登記法人,福島県,郡山市,富田町字五輪下８番地５,,07,203,9638041,,,2025-06-26,清算の結了等,,,2023-01-17,1,,,,,アサカ,0
1783,8430001021985,登記記録の閉鎖等,0,2025-07-17,2025-06-26,北海道総業株式会社,,株式会社,東京都,港区,芝浦４丁目５番４号,,13,103,1080023,,,2025-06-26,清算の結了等,,,2015-10-05,1,,,,,ホッカイドウソウギョウ,0
1800,9010001063516,登記記録の閉鎖等,0,2025-07-17,2025-06-23,株式会社資産工学研究所,,株式会社,東京都,千代田区,麹町１丁目６番９号,,13,101,1020083,,,2025-06-23,清算の結了等,,,2015-10-05,1,,,,,シサンコウガクケンキュウショ,0
1824,9010401108440,登記記録の閉鎖等,0,2025-07-17,2025-07-14,株式会社ＳＡＭＵＫＡＷＡ,,株式会社,東京都,港区,赤坂４丁目１４番１４号,,13,103,1070052,,,2025-07-14,合併による解散等,2010001173271,令和７年７月１日東京都千代田区丸の内二丁目３番２号株式会社スタートアップ・プランニング（2010001173271）に合併し解散,2015-10-05,1,,,,,,0
1840,9010501043463,登記記録の閉鎖等,0,2025-07-17,2025-06-30,株式会社モリグチ,,株式会社,東京都,台東区,三筋１丁目９番１０号パークグレイス４０３,,13,106,1110055,,,2025-06-30,清算の結了等,,,2018-12-18,1,,,,,モリグチ,0
1844,9010601039205,登記記録の閉鎖等,0,2025-07-17,2025-07-07,株式会社永友,,株式会社,東京都,江戸川区,南葛西６丁目３３番８号,,13,123,1340085,,,2025-07-07,清算の結了等,,,2015-10-05,1,,,,,エイユ,0
1872,9011201017393,登記記録の閉鎖等,0,2025-07-17,2025-07-11,ニチエイラバートレイディング株式会社,,株式会社,東京都,中野区,中野５丁目１番１８,,13,114,1640001,,,2025-07-11,清算の結了等,,,2015-10-05,1,,,,,ニチエイラバートレイディング,0
1878,9011601004710,登記記録の閉鎖等,0,2025-07-17,2025-07-03,東信石油株式会社,,株式会社,東京都,練馬区,中村北３丁目３番１５号,,13,120,1760023,,,2025-07-03,清算の結了等,,,2015-10-05,1,,,,,トウシンセキユ,0
1900,9021001057969,登記記録の閉鎖等,0,2025-07-17,2025-07-07,大栄建設株式会社,,株式会社,神奈川県,横須賀市,公郷町４丁目６７番地５,,14,201,2380022,,,2025-07-07,清算の結了等,,,2015-12-07,1,,,,,,0
1901,9021001065699,登記記録の閉鎖等,0,2025-07-17,2025-07-14,株式会社ファーストガレージＳ,,株式会社,神奈川県,平塚市,西真土３丁目１０番３４号,,14,203,2540019,,,2025-07-14,清算の結了等,,,2018-09-26,1,,,,,ファーストガレージエス,0
1905,9021003012682,登記記録の閉鎖等,0,2025-07-17,2025-07-04,合同会社つや子医療システムよろずや,,合同会社,神奈川県,茅ヶ崎市,幸町２１番３４号,,14,207,2530052,,,2025-07-04,清算の結了等,,,2023-01-31,1,,,,,ツヤコイリョウシステムヨロズヤ,0
1907,9030001058910,登記記録の閉鎖等,0,2025-07-17,2025-07-07,株式会社澤田屋,,株式会社,埼玉県,比企郡川島町,大字上伊草１９５３番地１６,,11,346,3500152,,,2025-07-07,清算の結了等,,,2015-10-05,1,,,,,サワダヤ,0
1908,9030002097040,登記記録の閉鎖等,0,2025-07-17,2025-07-10,有限会社南拓企画,,有限会社,埼玉県,東松山市,御茶山町１１番地２１号,,11,212,3550022,,,2025-07-10,清算の結了等,,,2015-10-05,1,,,,,ナンタクキカク,0
1925,9100002035430,登記記録の閉鎖等,0,2025-07-17,2025-07-11,有限会社横川精工,,有限会社,長野県,上伊那郡辰野町,大字伊那富４７１３番地,,20,382,3990428,,,2025-07-11,清算の結了等,,,2015-10-05,1,,,,,ヨコカワセイコウ,0
1928,9120001015885,登記記録の閉鎖等,0,2025-07-17,2025-07-04,株式会社西原商店,,株式会社,大阪府,大阪市城東区,中浜１丁目２０番１６号,,27,118,5360024,,,2025-07-04,清算の結了等,,,2015-10-05,1,,,,,ニシハラショウテン,0
1951,9140001098739,登記記録の閉鎖等,0,2025-07-17,2025-07-09,株式会社ライフバンクジャパン,,株式会社,兵庫県,神戸市中央区,港島南町１丁目６番５号,,28,110,6500047,,,2025-07-09,清算の結了等,,,2015-10-05,1,,,,,ライフバンクジャパン,0
1962,9170001001872,登記記録の閉鎖等,0,2025-07-17,2025-07-15,株式会社竹本毛糸店,,株式会社,和歌山県,和歌山市,中ノ店北ノ丁１５番地,,30,201,6408023,,,2025-07-15,清算の結了等,,,2015-10-05,1,,,,,タケモトケイトテン,0
1967,9180001119961,登記記録の閉鎖等,0,2025-07-17,2025-06-27,株式会社蘭欣,,株式会社,愛知県,春日井市,如意申町７丁目１０番地２,,23,206,4860918,,,2025-06-27,清算の結了等,,,2015-10-05,1,,,,,ランシン,0
1974,9180301013848,登記記録の閉鎖等,0,2025-07-17,2025-07-01,株式会社東海ビジネスパートナーズ,,株式会社,愛知県,刈谷市,相生町２丁目３１番地,,23,210,4480027,,,2025-07-01,合併による解散等,1180301013987,令和７年７月１日愛知県刈谷市小垣江町大津崎１番地２８クレフォートグループ株式会社（1180301013987）に合併し解散,2015-10-05,1,,,,,トウカイビジネスパートナーズ,0
1975,9200002021726,登記記録の閉鎖等,0,2025-07-17,2025-07-01,有限会社メープル,,有限会社,岐阜県,土岐市,肥田町肥田２８８６番地の３,,21,212,5095115,,,2025-07-01,合併による解散等,3200001021377,令和７年７月１日岐阜県土岐市肥田町肥田２８８６番地の３大東亜窯業株式会社（3200001021377）に合併し解散,2015-10-05,1,,,,,メープル,0
1984,9220002016567,登記記録の閉鎖等,0,2025-07-17,2025-07-10,有限会社源田建設,,有限会社,石川県,河北郡津幡町,字牛首ヘ８７番地,,17,361,9290303,,,2025-07-10,清算の結了等,,,2015-10-05,1,,,,,ゲンダケンセツ,0
1994,9260001025549,登記記録の閉鎖等,0,2025-07-17,2025-07-09,株式会社ノットプライム,,株式会社,岡山県,井原市,七日市町１６８番地１,,33,207,7150014,,,2025-07-09,清算の結了等,,,2015-10-05,1,,,,,,0
1996,9260002014575,登記記録の閉鎖等,0,2025-07-17,2025-06-27,有限会社尚古庵,,有限会社,岡山県,加賀郡吉備中央町,吉川７５７０番地の１１３,,33,681,7161241,,,2025-06-27,清算の結了等,,,2015-10-05,1,,,,,,0
1998,9290001067992,登記記録の閉鎖等,0,2025-07-17,2025-07-01,株式会社ライフキャンパス,,株式会社,福岡県,飯塚市,幸袋８０番地１泰平ビル１Ｆ,,40,205,8200066,,,2025-07-01,清算の結了等,,,2015-10-05,1,,,,,ライフキャンパス,0
2000,9290002040230,登記記録の閉鎖等,0,2025-07-17,2025-07-01,有限会社松村建設,,有限会社,福岡県,筑紫野市,むさしヶ丘２丁目２５番３号,,40,217,8180043,,,2025-07-01,清算の結了等,,,2015-10-05,1,,,,,マツムラケンセツ,0
2006,9320002018875,登記記録の閉鎖等,0,2025-07-17,2025-07-04,有限会社宇野工業所,,有限会社,大分県,日田市,大字小迫３９３番地の３,,44,204,8770000,,,2025-07-04,清算の結了等,,,2015-10-05,1,,,,,ウノコウギョウショ,0
2015,9380003004547,登記記録の閉鎖等,0,2025-07-17,2025-06-30,合同会社実りフーズ,,合同会社,福島県,いわき市,平中山字柳町２８番地の１,,07,204,9708031,,,2025-06-30,清算の結了等,,,2019-10-16,1,,,,,ミノリフーズ,0
2020,9390002015627,登記記録の閉鎖等,0,2025-07-17,2025-07-03,有限会社三光技研,,有限会社,山形県,寒河江市,大字西根字石川西２５０番地の５,,06,206,9910003,,,2025-07-03,清算の結了等,,,2015-10-05,1,,,,,サンコウギケン,0
2030,9450001004632,登記記録の閉鎖等,0,2025-07-17,2025-07-10,株式会社カネタ釼内商店,,株式会社,北海道,深川市,四条５番３号,,01,228,0740004,,,2025-07-10,清算の結了等,,,2015-10-05,1,,,,,カネタタチウチショウテン,0
