sequenceNumber,corporateNumber,process,correct,updateDate,changeDate,name,nameImageId,kind,prefectureName,cityName,streetNumber,addressImageId,prefectureCode,cityCode,postCode,addressOutside,addressOutsideImageId,closeDate,closeCause,successorCorporateNumber,changeCause,assignmentDate,latest,enName,enPrefectureName,enCityName,enAddressOutside,furigana,hihyoji
7,1010001166359,登記記録の閉鎖等,0,2025-03-31,2025-03-27,株式会社アドアール,,株式会社,埼玉県,川口市,大字安行領根岸１０２５番地１２,,11,203,3330834,,,2025-03-27,清算の結了等,,,2015-10-05,1,,,,,アドアール,0
13,1010001245435,登記記録の閉鎖等,0,2025-03-31,2025-03-18,株式会社ＩＴブリッジ,,株式会社,東京都,文京区,千石１丁目２２番１号－２０１,,13,105,1120011,,,2025-03-18,清算の結了等,,,2024-06-05,1,,,,,アイティーブリッジ,0
56,1011103014389,登記記録の閉鎖等,0,2025-03-31,2025-03-14,カイルーミン・ジャパン合同会社,,合同会社,東京都,新宿区,北新宿２丁目２１番１号,,13,104,1690074,,,2025-03-14,清算の結了等,,,2024-05-08,1,,,,,カイルーミンジャパン,0
81,1020002048927,登記記録の閉鎖等,0,2025-03-31,2025-03-26,有限会社エーオーテー産商,,有限会社,神奈川県,横浜市南区,中里４丁目１９番４号,,14,105,2320063,,,2025-03-26,清算の結了等,,,2015-10-05,1,,,,,エーオーテーサンショウ,0
84,1021001054981,登記記録の閉鎖等,0,2025-03-31,2025-03-27,株式会社アンディーン,,株式会社,神奈川県,横須賀市,久里浜５丁目１０番９号,,14,201,2390831,,,2025-03-27,清算の結了等,,,2015-10-05,1,,,,,アンディーン,0
91,1030002075359,登記記録の閉鎖等,0,2025-03-31,2025-03-26,有限会社盛田製作所,,有限会社,埼玉県,川越市,大字的場９５７番地１,,11,201,3501101,,,2025-03-26,清算の結了等,,,2015-10-05,1,,,,,モリタセイサクショ,0
110,1070002035706,登記記録の閉鎖等,0,2025-03-31,2025-03-27,有限会社西峰建設,,有限会社,群馬県,利根郡みなかみ町,西峰須川１３６３番地,,10,449,3791415,,,2025-03-27,清算の結了等,,,2015-10-05,1,,,,,ニシミネケンセツ,0
111,1070003001095,登記記録の閉鎖等,0,2025-03-31,2025-03-26,合資会社藤倉商店,,合資会社,群馬県,桐生市,梅田町２丁目４１０番地１,,10,203,3760601,,,2025-03-26,清算の結了等,,,2015-10-05,1,,,,,フジクラショウテン,0
117,1110002011306,登記記録の閉鎖等,0,2025-03-31,2025-03-26,有限会社南須原板金工業,,有限会社,新潟県,新潟市西蒲区,升岡１７２番地１,,15,108,9590418,,,2025-03-26,清算の結了等,,,2015-10-05,1,,,,,,0
119,1110002032707,登記記録の閉鎖等,0,2025-03-31,2025-03-26,有限会社ゑり晋,,有限会社,新潟県,南魚沼市,六日町２８１５番地１,,15,226,9496680,,,2025-03-26,清算の結了等,,,2015-10-05,1,,,,,エリシン,0
124,1120001246109,登記記録の閉鎖等,0,2025-03-31,2025-03-19,株式会社ｓｐｉｃｅ　ｕｐ,,株式会社,大阪府,大阪市淀川区,西宮原１丁目８番２４号,,27,123,5320004,,,2025-03-19,清算の結了等,,,2022-05-26,1,,,,,スパイスアップ,0
128,1120002029396,登記記録の閉鎖等,0,2025-03-31,2025-03-18,有限会社植山経営研究所,,有限会社,大阪府,大阪市北区,鶴野町４番Ａ－４１６号,,27,127,5300014,,,2025-03-18,清算の結了等,,,2015-10-05,1,,,,,ウエヤマケイエイケンキュウショ,0
147,1180001021167,登記記録の閉鎖等,0,2025-03-31,2025-03-26,株式会社ヤスダ,,株式会社,愛知県,名古屋市中川区,四女子町１丁目１０番地,,23,110,4540822,,,2025-03-26,清算の結了等,,,2015-10-05,1,,,,,ヤスダ,0
158,1180302023507,登記記録の閉鎖等,0,2025-03-31,2025-03-27,有限会社テクアート,,有限会社,愛知県,豊田市,西山町１丁目２０番地３,,23,211,4710062,,,2025-03-27,清算の結了等,,,2015-10-05,1,,,,,テクアート,0
161,1200003002674,登記記録の閉鎖等,0,2025-03-31,2025-03-26,佐藤建設合資会社,,合資会社,岐阜県,飛騨市,神岡町東雲１３４４番地４,,21,217,5061147,,,2025-03-26,清算の結了等,,,2015-10-05,1,,,,,サトウケンセツ,0
163,1220001006873,登記記録の閉鎖等,0,2025-03-31,2025-03-17,みどり物産株式会社,,株式会社,石川県,金沢市,泉野出町２丁目８番１１号,,17,201,9218116,,,2025-03-17,清算の結了等,,,2015-10-05,1,,,,,ミドリブッサン,0
188,1340002014062,登記記録の閉鎖等,0,2025-03-31,2025-03-24,有限会社平岡住宅,,有限会社,鹿児島県,霧島市,国分中央１丁目２４番３１号,,46,218,8994332,,,2025-03-24,清算の結了等,,,2015-10-05,1,,,,,,0
196,1380001034495,登記記録の閉鎖等,0,2025-03-31,2025-03-07,株式会社あったか,,株式会社,福島県,白河市,白坂三輪台６－５３,,07,205,9610835,,,2025-03-07,清算の結了等,,,2024-05-02,1,,,,,アッタカ,0
197,1390001001924,登記記録の閉鎖等,0,2025-03-31,2025-03-24,木の実管財株式会社,,株式会社,山形県,山形市,十日町２丁目４番１号,,06,201,9900031,,,2025-03-24,清算の結了等,,,2015-10-05,1,,,,,キノミカンザイ,0
199,1390001015684,登記記録の閉鎖等,0,2025-03-31,2025-03-24,株式会社クラウドモビリティ山形,,株式会社,山形県,山形市,南一番町１１番１６号,,06,201,9902441,,,2025-03-24,清算の結了等,,,2019-04-26,1,,,,,クラウドモビリティヤマガタ,0
203,1420001001813,登記記録の閉鎖等,0,2025-03-31,2025-03-27,株式会社古川一丁目,,株式会社,青森県,青森市,古川１丁目１４番５号,,02,201,0300862,,,2025-03-27,清算の結了等,,,2015-10-05,1,,,,,フルカワイッチョウメ,0
210,1430001088750,登記記録の閉鎖等,0,2025-03-31,2025-03-27,難陀株式会社,,株式会社,北海道,札幌市中央区,南五条西２丁目２番地,,01,101,0640805,,,2025-03-27,清算の結了等,,,2023-04-06,1,,,,,ナンダ,0
258,2011001147463,登記記録の閉鎖等,0,2025-03-31,2025-02-28,株式会社ｉＣａｒｅｔ,,株式会社,東京都,渋谷区,神宮前６丁目２３番４号桑野ビル２階,,13,113,1500001,,,2025-02-28,清算の結了等,,,2022-05-12,1,,,,,アイカレット,0
297,2021001050996,登記記録の閉鎖等,0,2025-03-31,2025-03-27,株式会社コムテック,,株式会社,神奈川県,相模原市中央区,清新７丁目１５番４号,,14,152,2520216,,,2025-03-27,清算の結了等,,,2015-10-05,1,,,,,コムテック,0
305,2030002049997,登記記録の閉鎖等,0,2025-03-31,2025-03-24,有限会社ミズホエンタープライズ,,有限会社,埼玉県,三郷市,彦沢１丁目３２番地１,,11,237,3410057,,,2025-03-24,清算の結了等,,,2015-10-05,1,,,,,,0
308,2040001123612,登記記録の閉鎖等,0,2025-03-31,2025-03-18,株式会社日清,,株式会社,千葉県,船橋市,松が丘３丁目３番７号,,12,204,2740064,,,2025-03-18,清算の結了等,,,2022-05-30,1,,,,,ニッセイ,0
325,2080002001854,登記記録の閉鎖等,0,2025-03-31,2025-03-26,有限会社ケイケイ・コーポレーション,,有限会社,静岡県,静岡市葵区,北安東５丁目２８番１号,,22,101,4200881,,,2025-03-26,清算の結了等,,,2015-10-05,1,,,,,ケイケイコーポレーション,0
326,2080002003339,登記記録の閉鎖等,0,2025-03-31,2025-03-26,晴美造園有限会社,,有限会社,静岡県,静岡市駿河区,池田１０２９番地の１,,22,102,4228005,,,2025-03-26,清算の結了等,,,2015-10-05,1,,,,,セイビゾウエン,0
329,2090003000417,登記記録の閉鎖等,0,2025-03-31,2025-03-25,合名会社塩澤本店,,合名会社,山梨県,大月市,大月２丁目５番２号,,19,206,4010013,,,2025-03-25,清算の結了等,,,2015-10-05,1,,,,,シオザワホンテン,0
344,2120003017597,登記記録の閉鎖等,0,2025-03-31,2025-03-17,合同会社ｅａｃｈ,,合同会社,大阪府,大阪市福島区,海老江７丁目１９番９号,,27,103,5530001,,,2025-03-17,清算の結了等,,,2020-06-16,1,,,,,,0
351,2122001025838,登記記録の閉鎖等,0,2025-03-31,2025-03-25,株式会社幸コーポレーション,,株式会社,大阪府,大東市,御領３丁目１３番１２号,,27,218,5740064,,,2025-03-25,清算の結了等,,,2015-10-05,1,,,,,ミユキコーポレーション,0
377,2190001024135,登記記録の閉鎖等,0,2025-03-31,2025-03-28,株式会社Ｃ．Ｅ．Ｉ．ＡＱＵＡＲＥＬＡ,,株式会社,三重県,四日市市,波木町２１５３番地,,24,202,5100961,,,2025-03-28,清算の結了等,,,2016-11-08,1,,,,,シーイーアイアクアレラ,0
378,2190002009317,登記記録の閉鎖等,0,2025-03-31,2025-03-28,有限会社ナカコー,,有限会社,三重県,度会郡度会町,上久具２４７番地,,24,470,5162112,,,2025-03-28,清算の結了等,,,2015-10-05,1,,,,,,0
380,2200001018770,登記記録の閉鎖等,0,2025-03-31,2025-03-27,株式会社エデュシーズ,,株式会社,岐阜県,美濃加茂市,中部台８丁目６番地６,,21,211,5050038,,,2025-03-27,清算の結了等,,,2015-10-05,1,,,,,エデュシーズ,0
399,2300002010766,登記記録の閉鎖等,0,2025-03-31,2025-03-26,有限会社やなぎや,,有限会社,佐賀県,唐津市,二タ子２丁目２番４２号,,41,202,8470861,,,2025-03-26,清算の結了等,,,2015-10-05,1,,,,,ヤナギヤ,0
404,2310002007175,登記記録の閉鎖等,0,2025-03-31,2025-03-26,有限会社瓊の浦工業,00095952,有限会社,長崎県,長崎市,香焼町２００１番地１６,,42,201,8510310,,,2025-03-26,清算の結了等,,,2015-10-05,1,,,,,タマノウラコウギョウ,0
433,3010001139858,登記記録の閉鎖等,0,2025-03-31,2025-03-19,株式会社みやびコンサルタンツ,,株式会社,東京都,文京区,関口２丁目５番１４号,,13,105,1120014,,,2025-03-19,清算の結了等,,,2015-10-05,1,,,,,ミヤビコンサルタンツ,0
434,3010001165838,登記記録の閉鎖等,0,2025-03-31,2025-03-19,ＪＷＤホールディングス株式会社,,株式会社,東京都,千代田区,丸の内１丁目１番１号,,13,101,1000005,,,2025-03-19,清算の結了等,,,2015-10-05,1,,,,,ジェイダブリューディーホールディングス,0
441,3010002000457,登記記録の閉鎖等,0,2025-03-31,2025-03-24,有限会社飯塚漆工所,00049630,有限会社,東京都,北区,西ケ原２丁目２７番１号,,13,117,1140024,,,2025-03-24,清算の結了等,,,2015-10-05,1,,,,,,0
442,3010002040387,登記記録の閉鎖等,0,2025-03-31,2025-03-07,有限会社恵山,,有限会社,東京都,港区,六本木１丁目９番１０号アークヒルズ仙石山森タワー４０階,,13,103,1060032,,,2025-03-07,清算の結了等,,,2015-10-05,1,,,,,ケイザン,0
443,3010002049825,登記記録の閉鎖等,0,2025-03-31,2025-03-19,有限会社ビー・イマージュ,,有限会社,東京都,中央区,東日本橋２丁目２８番４号日本橋イーストビル２Ｆ,,13,102,1030004,,,2025-03-19,清算の結了等,,,2015-10-05,1,,,,,ビーイマージュ,0
449,3010102002312,登記記録の閉鎖等,0,2025-03-31,2025-03-27,有限会社クワタハウジング,,有限会社,東京都,八王子市,並木町８番７号,,13,201,1930831,,,2025-03-27,清算の結了等,,,2015-10-05,1,,,,,クワタハウジング,0
450,3010401120038,登記記録の閉鎖等,0,2025-03-31,2025-03-18,株式会社デバイス＆システム・プラットフォーム開発センター,,株式会社,神奈川県,横浜市旭区,若葉台１丁目１１番９０４号,,14,112,2410801,,,2025-03-18,清算の結了等,,,2015-10-05,1,,,,,デバイスアンドシステムプラットフォームカイハツセンター,0
461,3010702003049,登記記録の閉鎖等,0,2025-03-31,2025-03-13,有限会社小西塗装,,有限会社,東京都,品川区,大井２丁目３番２０－２０４号,,13,109,1400014,,,2025-03-13,清算の結了等,,,2015-10-05,1,,,,,,0
465,3011001073329,登記記録の閉鎖等,0,2025-03-31,2025-02-19,株式会社にょん,,株式会社,東京都,渋谷区,神南１丁目１３番８－５０４号,,13,113,1500041,,,2025-02-19,清算の結了等,,,2015-10-05,1,,,,,ニョン,0
481,3011101076272,登記記録の閉鎖等,0,2025-03-31,2025-03-17,株式会社トライアンフアセットマネージメント,,株式会社,東京都,大田区,西馬込２丁目３０番４号ＡＷレジデンス西馬込５０１,,13,111,1430026,,,2025-03-17,清算の結了等,,,2016-03-09,1,,,,,トライアンフアセットマネージメント,0
488,3011301027348,登記記録の閉鎖等,0,2025-03-31,2025-03-27,株式会社Ｂｌｕｅ　Ｈｉｌｌｓ,,株式会社,東京都,杉並区,方南１丁目２４番３号,,13,115,1680062,,,2025-03-27,清算の結了等,,,2021-11-17,1,,,,,ブルーヒルズ,0
498,3012801022012,登記記録の閉鎖等,0,2025-03-31,2025-03-17,株式会社ＡＫＩＮＡ,,株式会社,東京都,国分寺市,本多５丁目２９番８号,,13,214,1850011,,,2025-03-17,清算の結了等,,,2022-12-14,1,,,,,アキナ,0
499,3013101000930,登記記録の閉鎖等,0,2025-03-31,2025-03-27,黒木自動車株式会社,,株式会社,東京都,あきる野市,瀬戸岡４２７番地１,,13,228,1970803,,,2025-03-27,清算の結了等,,,2015-10-05,1,,,,,クロキジドウシャ,0
503,3020001126153,登記記録の閉鎖等,0,2025-03-31,2025-03-19,株式会社プリマジェスト・ビジネスサービス,,株式会社,神奈川県,川崎市幸区,堀川町５８０番地ソリッドスクエア東館１２階,,14,132,2120013,,,2025-03-19,清算の結了等,,,2018-05-02,1,,,,,プリマジェストビジネスサービス,0
511,3020003015791,登記記録の閉鎖等,0,2025-03-31,2025-03-17,合同会社ｗｉｔｈ,,合同会社,神奈川県,川崎市多摩区,登戸１４４８番地５ＬＡＬＵＣＥ３０１,,14,135,2140014,,,2025-03-17,清算の結了等,,,2019-03-22,1,,,,,ウィズ,0
518,3030001037374,登記記録の閉鎖等,0,2025-03-31,2025-03-26,株式会社オーバル,,株式会社,埼玉県,草加市,高砂２丁目２番３２号,,11,221,3400015,,,2025-03-26,清算の結了等,,,2015-10-05,1,,,,,オーバル,0
529,3040001119741,登記記録の閉鎖等,0,2025-03-31,2025-03-19,大晴不動産株式会社,,株式会社,千葉県,野田市,宮崎４８番地の１サンビレッジＮ＆Ａ壱番館１０７号室,,12,208,2780005,,,2025-03-19,清算の結了等,,,2021-08-10,1,,,,,タイセイフドウサン,0
556,3110001028349,登記記録の閉鎖等,0,2025-03-31,2025-03-27,株式会社東新通機,,株式会社,新潟県,新潟市東区,中野山１丁目４番地１７,,15,102,9500841,,,2025-03-27,清算の結了等,,,2015-10-05,1,,,,,トウシンツウキ,0
557,3120001081504,登記記録の閉鎖等,0,2025-03-31,2025-03-25,株式会社三洋印刷,,株式会社,大阪府,大阪市生野区,林寺５丁目９番６号,,27,116,5440023,,,2025-03-25,清算の結了等,,,2015-10-05,1,,,,,サンヨウインサツ,0
570,3120101024503,登記記録の閉鎖等,0,2025-03-31,2025-03-27,畑中工務店株式会社,,株式会社,大阪府,高石市,千代田１丁目２３番２０号,,27,225,5920005,,,2025-03-27,合併による解散等,1140001042951,令和７年３月２１日兵庫県加古川市加古川町溝之口５８４番地株式会社三建（1140001042951）に合併し解散,2015-10-05,1,,,,,ハタナカコウムテン,0
594,3170002010688,登記記録の閉鎖等,0,2025-03-31,2025-03-27,有限会社平井,,有限会社,和歌山県,橋本市,東家４丁目１５番１４号,,30,203,6480072,,,2025-03-27,清算の結了等,,,2015-10-05,1,,,,,ヒライ,0
595,3180001037054,登記記録の閉鎖等,0,2025-03-31,2025-03-24,シンヨー興業株式会社,,株式会社,愛知県,名古屋市東区,大幸南２丁目２番１１－３０６号（アーバニア大幸南）,,23,102,4610047,,,2025-03-24,清算の結了等,,,2015-10-05,1,,,,,シンヨーコウギョウ,0
599,3180003015330,登記記録の閉鎖等,0,2025-03-31,2025-03-26,合同会社ステラ・マリス,,合同会社,愛知県,名古屋市港区,木場町２番地の５６ｓｃｍａ１－８１３号,,23,111,4550021,,,2025-03-26,清算の結了等,,,2015-10-05,1,,,,,ステラマリス,0
610,3240001049134,登記記録の閉鎖等,0,2025-03-31,2025-03-27,株式会社トライト,,株式会社,広島県,広島市南区,宇品神田１丁目８番２３号,,34,103,7340004,,,2025-03-27,清算の結了等,,,2016-04-08,1,,,,,,0
613,3290001060094,登記記録の閉鎖等,0,2025-03-31,2025-03-26,株式会社ＳＥＬＥＣＴＯＲ．,,株式会社,福岡県,久留米市,野中町４２０番１リーベンハォス野中１０２号,,40,203,8390862,,,2025-03-26,清算の結了等,,,2015-10-05,1,,,,,セレクター,0
617,3310001016036,登記記録の閉鎖等,0,2025-03-31,2025-03-28,株式会社ＦｒｅｅＳｔａｒ,,株式会社,長崎県,島原市,青葉町５３５３番地６,,42,203,8550855,,,2025-03-28,清算の結了等,,,2019-04-04,1,,,,,フリースター,0
621,3320001012991,登記記録の閉鎖等,0,2025-03-31,2025-03-27,株式会社エモーション,,株式会社,大分県,別府市,青山町１０番１２号,,44,202,8740902,,,2025-03-27,清算の結了等,,,2015-10-05,1,,,,,エモーション,0
625,3360001015594,登記記録の閉鎖等,0,2025-03-31,2025-03-26,往味株式会社,,株式会社,沖縄県,那覇市,松尾１丁目３番９号城間ビル２階,,47,201,9000014,,,2025-03-26,清算の結了等,,,2015-10-05,1,,,,,オウミ,0
628,3370201000420,登記記録の閉鎖等,0,2025-03-31,2025-03-19,ホンダオート販売株式会社,,株式会社,宮城県,大崎市,古川駅東１丁目５番１号,,04,215,9896115,,,2025-03-19,清算の結了等,,,2015-10-05,1,,,,,ホンダオートハンバイ,0
632,3410001005549,登記記録の閉鎖等,0,2025-03-31,2025-03-21,株式会社フォラックス教育,,株式会社,秋田県,湯沢市,倉内字才の神４１番地８,,05,207,0120015,,,2025-03-21,合併による解散等,7410002008043,令和７年３月１日秋田県湯沢市横堀字旭町１番地株式会社たなか（7410002008043）に合併し解散,2015-10-05,1,,,,,フォラックスキョウイク,0
633,3410001007363,登記記録の閉鎖等,0,2025-03-31,2025-03-26,株式会社浅間製作所,,株式会社,秋田県,山本郡三種町,志戸橋字霜谷地２２番地２,,05,348,0182301,,,2025-03-26,清算の結了等,,,2015-10-05,1,,,,,アサマセイサクショ,0
652,4010003027291,登記記録の閉鎖等,0,2025-03-31,2025-03-18,Ｇｌｏｂａｌ　Ｃａｒｅｅｒ　Ｐａｒｔｎｅｒｓ　Ｊａｐａｎ合同会社,,合同会社,東京都,中央区,銀座６丁目１６番１２号,,13,102,1040061,,,2025-03-18,清算の結了等,,,2018-04-12,1,,,,,グローバルキャリアパートナーズジャパン,0
653,4010003039774,登記記録の閉鎖等,0,2025-03-31,2025-03-12,ＲＢソーラークイナ合同会社,,合同会社,東京都,千代田区,麹町２丁目８番地ＭＬＣ麹町ビル４階フィンポート税理士法人内,,13,101,1020083,,,2025-03-12,清算の結了等,,,2023-02-07,1,,,,,アールビーソーラークイナ,0
679,4010901015620,登記記録の閉鎖等,0,2025-03-31,2025-03-25,株式会社ジェット,,株式会社,東京都,世田谷区,上用賀１丁目１番２号玉川サンケイハウス２０９号,,13,112,1580098,,,2025-03-25,清算の結了等,,,2015-10-05,1,,,,,ジェット,0
685,4011003014395,登記記録の閉鎖等,0,2025-03-31,2025-03-26,ジ・ジェイオブエルエフ合同会社,,合同会社,東京都,杉並区,高円寺南２丁目２１－６,,13,115,1660003,,,2025-03-26,清算の結了等,,,2022-03-24,1,,,,,ジジェイオブエルエフ,0
692,4011203003421,登記記録の閉鎖等,0,2025-03-31,2025-03-27,合同会社丈吉,,合同会社,東京都,中野区,中野５丁目５６番１０号第９８東京ビル２階,,13,114,1640001,,,2025-03-27,清算の結了等,,,2020-11-06,1,,,,,ジョウキチ,0
713,4020001011123,登記記録の閉鎖等,0,2025-03-31,2025-03-25,株式会社大貫電興社,,株式会社,神奈川県,横浜市青葉区,青葉台１丁目２４番地１,,14,117,2270062,,,2025-03-25,清算の結了等,,,2015-10-05,1,,,,,オオヌキデンコウシャ,0
716,4020001112524,登記記録の閉鎖等,0,2025-03-31,2025-03-25,株式会社ｂｅｌｌａｒｃａ,,株式会社,神奈川県,横浜市南区,別所５丁目８番２号,,14,105,2320064,,,2025-03-25,清算の結了等,,,2015-10-05,1,,,,,ベルアルカ,0
727,4030002050020,登記記録の閉鎖等,0,2025-03-31,2025-03-26,有限会社メイセイ工業,,有限会社,埼玉県,三郷市,新和３丁目２２５番地１,,11,237,3410034,,,2025-03-26,清算の結了等,,,2015-10-05,1,,,,,メイセイコウギョウ,0
732,4030005021225,登記記録の閉鎖等,0,2025-03-31,2025-03-14,一般社団法人ＱＵＡＴＥＲＮＩＴＹ総合施術協会,,その他の設立登記法人,東京都,新宿区,新宿１丁目７番２号藤和新宿御苑コープ９階９０１号室,,13,104,1600022,,,2025-03-14,清算の結了等,,,2023-04-24,1,,,,,クオタニティソウゴウセジュツキョウカイ,0
749,4080401024660,登記記録の閉鎖等,0,2025-03-31,2025-03-21,株式会社ひろくみ医療コーチング,,株式会社,静岡県,菊川市,堀之内５５７番地４０,,22,224,4390006,,,2025-03-21,清算の結了等,,,2020-11-16,1,,,,,ヒロクミイリョウコーチング,0
762,4120001207826,登記記録の閉鎖等,0,2025-03-31,2025-03-19,株式会社シンテック,,株式会社,大阪府,大阪市中央区,南船場２丁目１番３－２１号,,27,128,5420081,,,2025-03-19,清算の結了等,,,2017-09-01,1,,,,,シンテック,0
775,4122001025992,登記記録の閉鎖等,0,2025-03-31,2025-03-26,オスメディカル株式会社,,株式会社,大阪府,東大阪市,小阪本町２丁目２番２６号,,27,227,5770802,,,2025-03-26,清算の結了等,,,2015-10-05,1,,,,,オスメディカル,0
778,4122002001852,登記記録の閉鎖等,0,2025-03-31,2025-03-28,有限会社児島精機,,有限会社,大阪府,東大阪市,池島町８丁目１１番２５号,,27,227,5798064,,,2025-03-28,清算の結了等,,,2015-10-05,1,,,,,,0
789,4140001120523,登記記録の閉鎖等,0,2025-03-31,2025-03-26,株式会社スレッド・エリー,,株式会社,兵庫県,西宮市,苦楽園一番町２－４９－２Ｆ,,28,204,6620083,,,2025-03-26,清算の結了等,,,2021-02-25,1,,,,,スレッドエリー,0
803,4180002021907,登記記録の閉鎖等,0,2025-03-31,2025-03-21,有限会社な＿井,00072983,有限会社,愛知県,名古屋市天白区,山根町３３５番地,,23,116,4680038,,,2025-03-21,清算の結了等,,,2015-10-05,1,,,,,ナガイ,0
804,4180002052431,登記記録の閉鎖等,0,2025-03-31,2025-03-26,有限会社マルコ組,,有限会社,愛知県,西春日井郡豊山町,大字豊場字若宮３２番地,,23,342,4800202,,,2025-03-26,清算の結了等,,,2015-10-05,1,,,,,マルコグミ,0
810,4200001040343,登記記録の閉鎖等,0,2025-03-31,2025-03-25,株式会社井口林業,,株式会社,岐阜県,中津川市,茄子川１１１番地の６１,,21,206,5099132,,,2025-03-25,清算の結了等,,,2022-08-05,1,,,,,イグチリンギョウ,0
822,4280001005058,登記記録の閉鎖等,0,2025-03-31,2025-03-24,太成産業株式会社,,株式会社,島根県,益田市,高津６丁目１３番３号,,32,204,6980041,,,2025-03-24,清算の結了等,,,2015-10-05,1,,,,,タイセイサンギョウ,0
823,4290001004769,登記記録の閉鎖等,0,2025-03-31,2025-03-26,株式会社ぱとろーる,,株式会社,福岡県,福岡市城南区,松山２丁目５番１１号,,40,136,8140131,,,2025-03-26,清算の結了等,,,2015-10-05,1,,,,,パトロール,0
831,4290001077955,登記記録の閉鎖等,0,2025-03-31,2025-03-27,株式会社ＩＳＭ,,株式会社,福岡県,福岡市中央区,舞鶴３丁目７番１５号,,40,133,8100073,,,2025-03-27,清算の結了等,,,2017-05-22,1,,,,,イズム,0
838,4290801005207,登記記録の閉鎖等,0,2025-03-31,2025-03-27,関門開発株式会社,,株式会社,福岡県,北九州市小倉北区,馬借２丁目６番８号,,40,106,8020077,,,2025-03-27,清算の結了等,,,2015-10-05,1,,,,,カンモンカイハツ,0
854,4420001016544,登記記録の閉鎖等,0,2025-03-31,2025-03-28,株式会社ロイヤルガードシステム,,株式会社,青森県,八戸市,湊高台２丁目２０番２号駿河ビル１０１,,02,203,0310823,,,2025-03-28,清算の結了等,,,2019-04-03,1,,,,,ロイヤルガードシステム,0
856,4430001050716,登記記録の閉鎖等,0,2025-03-31,2025-03-27,株式会社ＦＸコンサルタント,,株式会社,北海道,小樽市,銭函３丁目４０４番地,,01,203,0470261,,,2025-03-27,清算の結了等,,,2015-10-05,1,,,,,エフエックスコンサルタント,0
864,4500001023375,登記記録の閉鎖等,0,2025-03-31,2025-03-25,株式会社Ａ‐テラス,,株式会社,愛媛県,松山市,正円寺３丁目１０番８号,,38,201,7900904,,,2025-03-25,合併による解散等,6320001015744,令和７年３月２５日愛媛県松山市正円寺三丁目１０番８号南海不動産管理株式会社（6320001015744）に合併し解散,2021-04-21,1,,,,,エーテラス,0
867,5000030200011,登記記録の閉鎖等,0,2025-03-31,2025-03-25,長野市日原財産区,,地方公共団体,長野県,長野市,信州新町新町１０００番地１（信州新町支所内）,,20,201,3812405,,,2025-03-25,その他の清算の結了等,,,2015-10-05,1,Naganoshi Hihara Property Ward,Nagano,"1000-1 Shinshu Shinmachi,Shinmachi (Shinsyu Shinmachi Branch), Nagano shi",,ナガノシヒハラザイサンク,0
869,5010001035329,登記記録の閉鎖等,0,2025-03-31,2025-03-19,株式会社アップルハウスアイアンドアイ,,株式会社,東京都,中央区,銀座５丁目７番１９号,,13,102,1040061,,,2025-03-19,清算の結了等,,,2015-10-05,1,,,,,アップルハウスアイアンドアイ,0
888,5010401149769,登記記録の閉鎖等,0,2025-03-31,2025-03-21,株式会社ＨＬＳ‐ＡＡ,,株式会社,北海道,札幌市西区,発寒十一条５丁目１０番１号,,01,107,0630831,,,2025-03-21,合併による解散等,3010401149770,令和７年３月２１日札幌市西区発寒十一条五丁目１０番１号株式会社ＣＴ‐Ａ（3010401149770）に合併し解散,2019-12-10,1,,,,,エイチエルエスエーエー,0
919,5011201005393,登記記録の閉鎖等,0,2025-03-31,2025-03-27,株式会社宗像デザイン研究所,,株式会社,東京都,杉並区,上井草２丁目３４番１７号,,13,115,1670023,,,2025-03-27,清算の結了等,,,2015-10-05,1,,,,,,0
922,5011402006372,登記記録の閉鎖等,0,2025-03-31,2025-03-19,有限会社ときわ台菊和,,有限会社,東京都,板橋区,常盤台１丁目３６番１６号,,13,119,1740071,,,2025-03-19,清算の結了等,,,2015-10-05,1,,,,,トキワダイキクワ,0
934,5020003007382,登記記録の閉鎖等,0,2025-03-31,2025-03-24,アセットマネジメント合同会社,,合同会社,神奈川県,横浜市青葉区,荏田西２丁目３７番地３８,,14,117,2250014,,,2025-03-24,清算の結了等,,,2015-10-05,1,,,,,アセットマネジメント,0
939,5021001040961,登記記録の閉鎖等,0,2025-03-31,2025-03-28,株式会社ヒーロー,,株式会社,神奈川県,横須賀市,三春町３丁目１１番地１８,,14,201,2380014,,,2025-03-28,清算の結了等,,,2015-10-05,1,,,,,ヒーロー,0
951,5040001119104,登記記録の閉鎖等,0,2025-03-31,2025-03-18,株式会社美楽ヘルスケア研究所,,株式会社,千葉県,木更津市,潮浜１丁目１７番地１０５,,12,206,2920838,,,2025-03-18,清算の結了等,,,2021-06-29,1,,,,,ビガクヘルスケアケンキュウショ,0
956,5050001039029,登記記録の閉鎖等,0,2025-03-31,2025-03-24,株式会社北関東フーズ,,株式会社,茨城県,古河市,谷貝７１３番地,,08,204,3060113,,,2025-03-24,清算の結了等,,,2015-10-05,1,,,,,キタカントウフーズ,0
957,5050001048228,登記記録の閉鎖等,0,2025-03-31,2025-03-24,株式会社石下デリカ,,株式会社,茨城県,常総市,馬場１２０番地１,,08,211,3002748,,,2025-03-24,清算の結了等,,,2020-10-20,1,,,,,イシゲデリカ,0
958,5050002012422,登記記録の閉鎖等,0,2025-03-31,2025-03-24,有限会社ユウキ,,有限会社,茨城県,土浦市,荒川沖字西山４９５番地の２,,08,203,3000873,,,2025-03-24,清算の結了等,,,2015-10-05,1,,,,,ユウキ,0
961,5060002004906,登記記録の閉鎖等,0,2025-03-31,2025-03-27,有限会社信頼工業,,有限会社,栃木県,宇都宮市,鶴田町３３３７番地,,09,201,3200851,,,2025-03-27,清算の結了等,,,2015-10-05,1,,,,,シンライコウギョウ,0
964,5070001037518,登記記録の閉鎖等,0,2025-03-31,2025-03-27,株式会社ＡＭＩＧＡ,,株式会社,群馬県,太田市,新田木崎町６３３番地３Ｋハイム１０２号,,10,205,3700321,,,2025-03-27,清算の結了等,,,2020-12-28,1,,,,,アミガ,0
966,5080005003787,登記記録の閉鎖等,0,2025-03-31,2025-03-21,一般社団法人静岡県療術師協会,,その他の設立登記法人,静岡県,浜松市中央区,入野町１６４１９番地の４,,22,138,4328061,,,2025-03-21,清算の結了等,,,2015-10-05,1,,,,,シズオカケンリョウジュツシキョウカイ,0
969,5110002029113,登記記録の閉鎖等,0,2025-03-31,2025-03-27,有限会社本多鉄工所,,有限会社,新潟県,長岡市,成沢町７５８番地乙,,15,202,9402465,,,2025-03-27,清算の結了等,,,2015-10-05,1,,,,,ホンダテッコウジョ,0
970,5110002030608,登記記録の閉鎖等,0,2025-03-31,2025-03-26,有限会社信濃設備,,有限会社,新潟県,長岡市,小国町小栗山６０７番地１,,15,202,9495341,,,2025-03-26,清算の結了等,,,2015-10-05,1,,,,,シナノセツビ,0
992,5140001030903,登記記録の閉鎖等,0,2025-03-31,2025-03-26,株式会社中央食品,,株式会社,兵庫県,神戸市西区,玉津町吉田４８４－３,,28,111,6512138,,,2025-03-26,清算の結了等,,,2015-10-05,1,,,,,チュウオウショクヒン,0
994,5140002009657,登記記録の閉鎖等,0,2025-03-31,2025-03-26,有限会社井上ボーリング,,有限会社,兵庫県,神戸市北区,淡河町勝雄６９番地の１,,28,109,6511604,,,2025-03-26,清算の結了等,,,2015-10-05,1,,,,,イノウエボーリング,0
998,5180001014828,登記記録の閉鎖等,0,2025-03-31,2025-03-26,株式会社タグチ,,株式会社,愛知県,名古屋市南区,元桜田町４丁目６０番地の２,,23,112,4570032,,,2025-03-26,合併による解散等,9180001014840,令和７年３月２６日名古屋市南区元桜田町四丁目２１番地の３株式会社ＴＡＧＵＣＨＩ（9180001014840）に合併し解散,2015-10-05,1,,,,,タグチ,0
1004,5180001131978,登記記録の閉鎖等,0,2025-03-31,2025-03-26,Ｇ’ｓ　ＬＯＧＩＣＯＭ株式会社,,株式会社,愛知県,稲沢市,祖父江町森上本郷五８０番地３,,23,220,4950011,,,2025-03-26,清算の結了等,,,2018-04-20,1,,,,,ジーズロジコム,0
1019,5230003001496,登記記録の閉鎖等,0,2025-03-31,2025-03-25,ＴａｍＴａｍレスキュー合同会社,,合同会社,富山県,富山市,千成町１３番３号,,16,201,9300815,,,2025-03-25,清算の結了等,,,2020-06-24,1,,,,,タムタムレスキュー,0
1026,5280001003250,登記記録の閉鎖等,0,2025-03-31,2025-03-27,大和建設株式会社,,株式会社,島根県,出雲市,知井宮町１１７番地１,,32,203,6930033,,,2025-03-27,清算の結了等,,,2015-10-05,1,,,,,ダイワケンセツ,0
1027,5280001005354,登記記録の閉鎖等,0,2025-03-31,2025-03-27,株式会社営農クラブ三華,,株式会社,島根県,益田市,あけぼの東町７番地１２,,32,204,6980027,,,2025-03-27,清算の結了等,,,2015-10-05,1,,,,,エイノウクラブミカ,0
1030,5290001075495,登記記録の閉鎖等,0,2025-03-31,2025-03-27,株式会社Ｓ．Ｍ．Ｃ　Ｐｌａｎｎｉｎｇ　Ｏｆｆｉｃｅ,,株式会社,福岡県,福岡市博多区,博多駅前３丁目１９番２３号簡ビル３階,,40,132,8120011,,,2025-03-27,清算の結了等,,,2016-10-14,1,,,,,エスエムシープランニングオフィス,0
1049,5360005004245,登記記録の閉鎖等,0,2025-03-31,2025-03-27,特定非営利活動法人タートルライフいしがき,,その他の設立登記法人,沖縄県,石垣市,字登野城６１７番地２,,47,207,9070004,,,2025-03-27,清算の結了等,,,2015-10-05,1,,,,,タートルライフイシガキ,0
1051,5370005003519,登記記録の閉鎖等,0,2025-03-31,2025-03-21,一般社団法人仙台グリーン・コミュニティ推進協議会,,その他の設立登記法人,宮城県,仙台市宮城野区,田子西２丁目６番地の１３,,04,102,9830026,,,2025-03-21,清算の結了等,,,2015-10-05,1,,,,,センダイグリーンコミュニティスイシンキョウギカイ,0
1054,5390002006704,登記記録の閉鎖等,0,2025-03-31,2025-03-24,有限会社ヨシダ歯科技工所,,有限会社,山形県,山形市,城南町１丁目１３番３号,,06,201,9900827,,,2025-03-24,清算の結了等,,,2015-10-05,1,,,,,ヨシダシカギコウショ,0
1055,5410001005299,登記記録の閉鎖等,0,2025-03-31,2025-03-26,株式会社ファーム鶯,,株式会社,秋田県,由利本荘市,久保田字久保田３３番地５,,05,210,0150302,,,2025-03-26,清算の結了等,,,2015-10-05,1,,,,,ファームウグイス,0
1056,5420001001140,登記記録の閉鎖等,0,2025-03-31,2025-03-27,株式会社新町一丁目,,株式会社,青森県,青森市,古川１丁目１４番５号,,02,201,0300862,,,2025-03-27,清算の結了等,,,2015-10-05,1,,,,,シンマチイッチョウメ,0
1057,5430001010033,登記記録の閉鎖等,0,2025-03-31,2025-03-27,株式会社タカヒコ,,株式会社,北海道,札幌市白石区,北郷八条８丁目１番１７号,,01,104,0030838,,,2025-03-27,清算の結了等,,,2015-10-05,1,,,,,タカヒコ,0
1060,5430001035988,登記記録の閉鎖等,0,2025-03-31,2025-03-27,クリエイト工務株式会社,,株式会社,北海道,札幌市中央区,大通西７丁目２番地アセットプランニング大通ビル,,01,101,0600042,,,2025-03-27,清算の結了等,,,2015-10-05,1,,,,,クリエイトコウム,0
1069,5470002009319,登記記録の閉鎖等,0,2025-03-31,2025-03-25,秋友設備工業有限会社,,有限会社,香川県,高松市,香川町大野１２８１番地１３,,37,201,7611701,,,2025-03-25,清算の結了等,,,2015-10-05,1,,,,,アキトモセツビコウギョウ,0
1074,6010001231793,登記記録の閉鎖等,0,2025-03-31,2025-03-14,スマはっちゅう株式会社,,株式会社,東京都,千代田区,神田須田町１丁目２３番地１,,13,101,1010041,,,2025-03-14,合併による解散等,7010001207272,令和７年３月１日東京都千代田区神田須田町一丁目２３番地１ネオス株式会社（7010001207272）に合併し解散,2022-12-26,1,,,,,スマハッチュウ,0
1075,6010001236504,登記記録の閉鎖等,0,2025-03-31,2025-03-19,株式会社ＳＹＨ,,株式会社,東京都,中央区,銀座１丁目１３番６号Ｄａｉｗａプレイス銀座ＩＶ３階,00131018,13,102,1040061,,,2025-03-19,清算の結了等,,,2023-06-30,1,,,,,エスワイエイチ,0
1095,6010802018919,登記記録の閉鎖等,0,2025-03-31,2025-03-17,有限会社グリーンコート,,有限会社,東京都,大田区,上池台４丁目２１番２９－１０７号,,13,111,1450064,,,2025-03-17,清算の結了等,,,2015-10-05,1,,,,,グリーンコート,0
1106,6011001164430,登記記録の閉鎖等,0,2025-03-31,2025-02-28,株式会社ＰＲＯＪＥ　ＳＨＩＢＵＹＡ,,株式会社,東京都,渋谷区,代々木１丁目３１番８号シティハウス代々木１４０４,,13,113,1510053,,,2025-02-28,清算の結了等,,,2024-09-10,1,,,,,ポジェシブヤ,0
1122,6011402007790,登記記録の閉鎖等,0,2025-03-31,2025-03-19,有限会社古木工務店,,有限会社,東京都,板橋区,熊野町１１番１４号,,13,119,1730025,,,2025-03-19,清算の結了等,,,2015-10-05,1,,,,,フルキコウムテン,0
1126,6011702000124,登記記録の閉鎖等,0,2025-03-31,2025-03-26,有限会社相川電設,,有限会社,東京都,江戸川区,西小岩３丁目１０番２号藤信ビル１階,,13,123,1330057,,,2025-03-26,清算の結了等,,,2015-10-05,1,,,,,,0
1136,6012701001385,登記記録の閉鎖等,0,2025-03-31,2025-03-28,株式会社ササキ工業,,株式会社,東京都,西多摩郡瑞穂町,大字二本木３８０番１４号,,13,303,1901201,,,2025-03-28,清算の結了等,,,2015-10-05,1,,,,,ササキコウギョウ,0
1166,6021001038807,登記記録の閉鎖等,0,2025-03-31,2025-03-28,株式会社天和,,株式会社,神奈川県,平塚市,横内３７１６番地の６,,14,203,2540002,,,2025-03-28,清算の結了等,,,2015-10-05,1,,,,,,0
1195,6040002094709,登記記録の閉鎖等,0,2025-03-31,2025-03-04,有限会社おとと屋,,有限会社,千葉県,我孫子市,つくし野５丁目１番２号,,12,222,2701164,,,2025-03-04,清算の結了等,,,2015-10-05,1,,,,,,0
1197,6050005012212,登記記録の閉鎖等,0,2025-03-31,2025-03-25,一般社団法人大子町特産品流通公社,,その他の設立登記法人,茨城県,久慈郡大子町,大字北田気６６２番地,,08,364,3193521,,,2025-03-25,清算の結了等,,,2017-11-27,1,,,,,ダイゴマチトクサンヒンリュウツウコウシャ,0
1207,6110002010088,登記記録の閉鎖等,0,2025-03-31,2025-03-26,有限会社木山,,有限会社,新潟県,新潟市南区,下木山字這上９１番地８,00070721,15,106,9501473,,,2025-03-26,清算の結了等,,,2015-10-05,1,,,,,,0
1211,6120001232806,登記記録の閉鎖等,0,2025-03-31,2025-03-26,大幸薬品インターナショナル株式会社,,株式会社,大阪府,大阪市西区,西本町１丁目４番１号,,27,106,5500005,,,2025-03-26,清算の結了等,,,2020-10-30,1,,,,,タイコウヤクヒンインターナショナル,0
1238,6150001001712,登記記録の閉鎖等,0,2025-03-31,2025-03-28,株式会社ＮＪ,,株式会社,奈良県,奈良市,北永井町３７２番地,,29,201,6308442,,,2025-03-28,清算の結了等,,,2015-10-05,1,,,,,エヌジェイ,0
1242,6180001124213,登記記録の閉鎖等,0,2025-03-31,2025-03-27,株式会社ＦＵＬＬＮＥＳＳ,,株式会社,愛知県,豊田市,水源町１丁目２３番地の５シンシア豊栄２Ｂ,,23,211,4710822,,,2025-03-27,清算の結了等,,,2016-07-27,1,,,,,フルネス,0
1245,6180002059846,登記記録の閉鎖等,0,2025-03-31,2025-03-25,有限会社ｅ－Ｐｅｒｓ,,有限会社,愛知県,名古屋市緑区,鳴海町字小森８番地の１,,23,114,4580841,,,2025-03-25,清算の結了等,,,2015-10-05,1,,,,,イーパース,0
1247,6180301022182,登記記録の閉鎖等,0,2025-03-31,2025-03-27,株式会社クラシカ,,株式会社,愛知県,豊田市,若林西町象面１８０番地５,,23,211,4730917,,,2025-03-27,清算の結了等,,,2015-10-05,1,,,,,クラシカ,0
1249,6180301033378,登記記録の閉鎖等,0,2025-03-31,2025-03-27,株式会社Ｐｉｎｋｉｓｈ,,株式会社,愛知県,豊田市,渋谷町２丁目１番地２１,,23,211,4710808,,,2025-03-27,清算の結了等,,,2020-01-31,1,,,,,ピンキッシュ,0
1255,6200001019212,登記記録の閉鎖等,0,2025-03-31,2025-03-27,株式会社シバタ,,株式会社,岐阜県,関市,弥生町３丁目３番３４号,,21,205,5013902,,,2025-03-27,清算の結了等,,,2015-10-05,1,,,,,シバタ,0
1262,6230005002252,登記記録の閉鎖等,0,2025-03-31,2025-03-24,白龍漁業協同組合,,その他の設立登記法人,富山県,中新川郡上市町,東種７２番地,,16,322,9300441,,,2025-03-24,清算の結了等,,,2015-10-05,1,,,,,ハクリュウ,0
1267,6250002014199,登記記録の閉鎖等,0,2025-03-31,2025-03-26,有限会社作道商店,,有限会社,山口県,長門市,仙崎８８８番地の１,,35,211,7594106,,,2025-03-26,清算の結了等,,,2015-10-05,1,,,,,サクミチショウテン,0
1271,6290001038055,登記記録の閉鎖等,0,2025-03-31,2025-03-27,株式会社ＴＯＳＡＫＡ,,株式会社,福岡県,那珂川市,片縄２丁目３２番地,,40,231,8111201,,,2025-03-27,清算の結了等,,,2015-10-05,1,,,,,,0
1293,6410001006049,登記記録の閉鎖等,0,2025-03-31,2025-03-24,株式会社タカハシ薬局,,株式会社,秋田県,大館市,有浦６丁目２番２２号,,05,204,0170043,,,2025-03-24,合併による解散等,6030001066965,令和７年３月１日埼玉県北葛飾郡松伏町築比地７９５番地１株式会社ウィーズ（6030001066965）に合併し解散,2015-10-05,1,,,,,タカハシヤッキョク,0
1294,6420001010900,登記記録の閉鎖等,0,2025-03-31,2025-03-27,株式会社グローバル,,株式会社,青森県,弘前市,大字平岡町１０２番地１,,02,202,0368367,,,2025-03-27,清算の結了等,,,2015-10-05,1,,,,,グローバル,0
1299,6460302000051,登記記録の閉鎖等,0,2025-03-31,2025-03-28,有限会社浅川美宣,,有限会社,北海道,北見市,西三輪１丁目６３７番地の４９,,01,208,0900838,,,2025-03-28,清算の結了等,,,2015-10-05,1,,,,,アサカワビセン,0
1301,6480002010506,登記記録の閉鎖等,0,2025-03-31,2025-03-28,重福海運有限会社,,有限会社,徳島県,鳴門市,鳴門町土佐泊浦字土佐泊２７４番地の２,,36,202,7720053,,,2025-03-28,清算の結了等,,,2015-10-05,1,,,,,シゲフクカイウン,0
1318,7010401091614,登記記録の閉鎖等,0,2025-03-31,2025-02-28,株式会社トライエイド,,株式会社,東京都,渋谷区,神山町３９番１１号,,13,113,1500047,,,2025-02-28,清算の結了等,,,2015-10-05,1,,,,,トライエイド,0
1322,7010803002301,登記記録の閉鎖等,0,2025-03-31,2025-03-17,Ｋ－トラストプラン合同会社,,合同会社,東京都,大田区,池上７丁目９番８号ガーデンホーム池上３０６,,13,111,1460082,,,2025-03-17,清算の結了等,,,2017-02-13,1,,,,,ケートラストプラン,0
1329,7011001153135,登記記録の閉鎖等,0,2025-03-31,2025-02-28,ｍｉｘｊｕｉｃｅ株式会社,,株式会社,東京都,渋谷区,渋谷１丁目１－３アミーホール３階,,13,113,1500002,,,2025-02-28,清算の結了等,,,2023-03-20,1,,,,,ミックスジュース,0
1343,7011501024439,登記記録の閉鎖等,0,2025-03-31,2025-03-21,株式会社ネギアップ,,株式会社,東京都,台東区,清川１丁目２１－５ＷＡＬＬａｐａｒｔｍｅｎｔ５階大区画号室,,13,106,1110022,,,2025-03-21,清算の結了等,,,2019-01-24,1,,,,,ネギアップ,0
1346,7011601017004,登記記録の閉鎖等,0,2025-03-31,2025-03-17,株式会社のどか,,株式会社,東京都,練馬区,三原台３丁目２５番２７号,,13,120,1770031,,,2025-03-17,清算の結了等,,,2015-10-05,1,,,,,ノドカ,0
1349,7011803006242,登記記録の閉鎖等,0,2025-03-31,2025-03-25,合同会社ＣＡＴＡＲＴＴｒｉｂｅ,,合同会社,東京都,足立区,江北４丁目２７番１８号,,13,121,1230872,,,2025-03-25,清算の結了等,,,2024-05-20,1,,,,,キャットアートトライブ,0
1358,7020001071511,登記記録の閉鎖等,0,2025-03-31,2025-03-24,平和電気株式会社,,株式会社,神奈川県,川崎市幸区,小向西町２丁目２２番地,,14,132,2120004,,,2025-03-24,清算の結了等,,,2015-10-05,1,,,,,ヘイワデンキ,0
1365,7020002015062,登記記録の閉鎖等,0,2025-03-31,2025-03-25,有限会社ティーエイチシー,,有限会社,神奈川県,横浜市青葉区,鉄町１４８９番地１,,14,117,2250025,,,2025-03-25,清算の結了等,,,2015-10-05,1,,,,,ティーエイチシー,0
1366,7020002015954,登記記録の閉鎖等,0,2025-03-31,2025-03-18,有限会社浅間工業,,有限会社,神奈川県,横浜市西区,浅間台９０番地,,14,103,2200071,,,2025-03-18,清算の結了等,,,2015-10-05,1,,,,,,0
1369,7020003019657,登記記録の閉鎖等,0,2025-03-31,2025-03-18,合同会社アズィオ,,合同会社,神奈川県,川崎市川崎区,浅田３丁目６－３,,14,131,2100847,,,2025-03-18,清算の結了等,,,2021-04-20,1,,,,,アズィオ,0
1370,7020003021654,登記記録の閉鎖等,0,2025-03-31,2025-03-25,シグナム合同会社,,合同会社,神奈川県,横浜市港南区,大久保２丁目２０－２,,14,111,2330007,,,2025-03-25,清算の結了等,,,2022-04-20,1,,,,,シグナム,0
1373,7021001026546,登記記録の閉鎖等,0,2025-03-31,2025-03-28,フジ工業株式会社,,株式会社,神奈川県,座間市,東原２丁目１６番２６号,,14,216,2520004,,,2025-03-28,清算の結了等,,,2015-10-05,1,,,,,フジコウギョウ,0
1393,7040002071905,登記記録の閉鎖等,0,2025-03-31,2025-03-19,有限会社オフィスサービス,,有限会社,千葉県,袖ケ浦市,蔵波２７６０番地４ラミアール５０６高尾方,00130899,12,229,2990243,,,2025-03-19,清算の結了等,,,2015-10-05,1,,,,,オフィスサービス,0
1394,7040003008848,登記記録の閉鎖等,0,2025-03-31,2025-03-27,株式会社Ｌｏｑｕａｔ,,株式会社,京都府,京都市下京区,西七条南西野町６０,,26,106,6008877,,,2025-03-27,清算の結了等,,,2016-07-27,1,,,,,ロクアット,0
1404,7080001016130,登記記録の閉鎖等,0,2025-03-31,2025-03-19,株式会社エイチ・ビー,,株式会社,静岡県,焼津市,惣右衛門１１４１番地の６,,22,212,4250065,,,2025-03-19,清算の結了等,,,2015-10-05,1,,,,,エイチビー,0
1409,7080102019949,登記記録の閉鎖等,0,2025-03-31,2025-03-24,有限会社シービー・サポート,,有限会社,静岡県,伊東市,川奈１２５５番地の３８１,,22,208,4140044,,,2025-03-24,清算の結了等,,,2015-10-05,1,,,,,シービーサポート,0
1411,7110001001608,登記記録の閉鎖等,0,2025-03-31,2025-03-26,株式会社シルクロード,,株式会社,新潟県,新潟市北区,新崎６９９番地１１,,15,101,9503134,,,2025-03-26,清算の結了等,,,2015-10-05,1,,,,,シルクロード,0
1418,7120001087010,登記記録の閉鎖等,0,2025-03-31,2025-03-17,野口株式会社,,株式会社,大阪府,大阪市中央区,農人橋２丁目１番２８号,,27,128,5400011,,,2025-03-17,清算の結了等,,,2015-10-05,1,,,,,ノグチ,0
1436,7130001058456,登記記録の閉鎖等,0,2025-03-31,2025-03-27,株式会社トレスヴィラ,,株式会社,京都府,京丹後市,網野町網野２７４２番地の３,,26,212,6293101,,,2025-03-27,清算の結了等,,,2016-10-14,1,,,,,トレスヴィラ,0
1444,7140001127383,登記記録の閉鎖等,0,2025-03-31,2025-03-25,ＮＥＮ株式会社,,株式会社,兵庫県,西宮市,六湛寺町９番２５号,,28,204,6620918,,,2025-03-25,清算の結了等,,,2022-09-20,1,,,,,ネン,0
1450,7140002065426,登記記録の閉鎖等,0,2025-03-31,2025-03-26,有限会社エフ・アイ・ティ川西,,有限会社,兵庫県,川西市,萩原２丁目１１番５号,,28,217,6660004,,,2025-03-26,清算の結了等,,,2015-10-05,1,,,,,エフアイティカワニシ,0
1451,7160001009803,登記記録の閉鎖等,0,2025-03-31,2025-03-28,近江石油株式会社,,株式会社,滋賀県,東近江市,五個荘石塚町７３番地の１,,25,213,5291444,,,2025-03-28,清算の結了等,,,2015-10-05,1,,,,,オウミセキユ,0
1460,7190002015418,登記記録の閉鎖等,0,2025-03-31,2025-03-26,有限会社トラスト,,有限会社,三重県,多気郡大台町,佐原４８９番地８,,24,443,5192404,,,2025-03-26,清算の結了等,,,2015-10-05,1,,,,,トラスト,0
1462,7210001000764,登記記録の閉鎖等,0,2025-03-31,2025-03-26,株式会社神谷,,株式会社,福井県,福井市,中央３丁目１４－３幸橋グランデＣＨＡ７０２,,18,201,9100006,,,2025-03-26,清算の結了等,,,2015-10-05,1,,,,,カミヤ,0
1463,7240001004168,登記記録の閉鎖等,0,2025-03-31,2025-03-28,株式会社サヌキヤ,,株式会社,広島県,広島市中区,江波本町１７番２号,,34,101,7300833,,,2025-03-28,清算の結了等,,,2015-10-05,1,,,,,サヌキヤ,0
1470,7290001086004,登記記録の閉鎖等,0,2025-03-31,2025-03-27,株式会社心花,,株式会社,福岡県,福岡市博多区,博多駅前１丁目１８番１５号,,40,132,8120011,,,2025-03-27,清算の結了等,,,2019-07-29,1,,,,,コハナ,0
1472,7290001096903,登記記録の閉鎖等,0,2025-03-31,2025-03-21,株式会社ラビリンチュラ,,株式会社,福岡県,筑紫野市,上古賀３丁目２番１６号,,40,217,8180041,,,2025-03-21,清算の結了等,,,2022-03-24,1,,,,,ラビリンチュラ,0
1479,7340002012556,登記記録の閉鎖等,0,2025-03-31,2025-03-28,有限会社インテリア笑,,有限会社,鹿児島県,日置市,東市来町湯田２１７８番地３,,46,216,8992201,,,2025-03-28,清算の結了等,,,2015-10-05,1,,,,,インテリアショウ,0
1480,7340003004478,登記記録の閉鎖等,0,2025-03-31,2025-03-27,合同会社ＧＬＯＢＡＬ,,合同会社,鹿児島県,鹿児島市,宇宿４丁目５番５号,,46,201,8900073,,,2025-03-27,清算の結了等,,,2024-05-10,1,,,,,グローバル,0
1482,7360001032941,登記記録の閉鎖等,0,2025-03-31,2025-03-26,株式会社ＫＳ　Ｃｏｒｐｏｒａｔｉｏｎ,,株式会社,沖縄県,沖縄市,嘉間良１丁目１７番３７号,,47,211,9040005,,,2025-03-26,清算の結了等,,,2023-12-15,1,,,,,ケイエスコーポレーション,0
1507,8010001154794,登記記録の閉鎖等,0,2025-03-31,2025-03-18,ＭＣＩ　ＪＡＰＡＮ株式会社,,株式会社,東京都,中央区,日本橋小網町１７番１０号,,13,102,1030016,,,2025-03-18,清算の結了等,,,2015-10-05,1,,,,,エムシーアイジャパン,0
1509,8010001229282,登記記録の閉鎖等,0,2025-03-31,2025-03-19,Ｄａｉｋｏ’ｓ株式会社,,株式会社,東京都,中央区,日本橋人形町３丁目１２番１－８０５号,,13,102,1030013,,,2025-03-19,清算の結了等,,,2022-09-05,1,,,,,ダイコーズ,0
1518,8010005028136,登記記録の閉鎖等,0,2025-03-31,2025-03-26,一般社団法人日本国際紛争解決センター,,その他の設立登記法人,東京都,千代田区,霞が関１丁目１番３号,,13,101,1000013,,,2025-03-26,清算の結了等,,,2018-02-19,1,,,,,ニホンコクサイフンソウカイケツセンター,0
1535,8011001130728,登記記録の閉鎖等,0,2025-03-31,2025-03-14,株式会社ＹＵＫＩＹＡＭＥＳＨＩ,,株式会社,東京都,千代田区,一ツ橋１丁目２番２号,,13,101,1000003,,,2025-03-14,合併による解散等,1011001065071,令和７年３月１日東京都千代田区一ツ橋一丁目２番２号株式会社ノンピ（1011001065071）に合併し解散,2019-11-08,1,,,,,ユキヤメシ,0
1553,8011501026896,登記記録の閉鎖等,0,2025-03-31,2025-03-24,新閃耀株式会社,,株式会社,東京都,北区,赤羽２丁目６９番２号,,13,117,1150045,,,2025-03-24,清算の結了等,,,2021-05-11,1,,,,,シンセンヨウ,0
1578,8020003019160,登記記録の閉鎖等,0,2025-03-31,2025-03-19,Ｏ－ｔｗｏコンサルティング合同会社,,合同会社,神奈川県,川崎市川崎区,宮前町８番１４号宮前カーネル１００３,,14,131,2100012,,,2025-03-19,清算の結了等,,,2021-01-29,1,,,,,オーツーコンサルティング,0
1583,8021001020580,登記記録の閉鎖等,0,2025-03-31,2025-03-27,株式会社ヤマ,,株式会社,神奈川県,厚木市,栄町２丁目５番４号,,14,212,2430017,,,2025-03-27,清算の結了等,,,2015-10-05,1,,,,,ヤマ,0
1584,8021001047062,登記記録の閉鎖等,0,2025-03-31,2025-03-17,株式会社アドバンス,,株式会社,東京都,大田区,西馬込２丁目３０番４号－５０１,,13,111,1430026,,,2025-03-17,清算の結了等,,,2015-10-05,1,,,,,アドバンス,0
1634,8140001074039,登記記録の閉鎖等,0,2025-03-31,2025-03-25,株式会社アノテック,,株式会社,兵庫県,西宮市,里中町１丁目３番２２号,,28,204,6638183,,,2025-03-25,清算の結了等,,,2015-10-05,1,,,,,アノテック,0
1635,8140001099820,登記記録の閉鎖等,0,2025-03-31,2025-03-26,株式会社ＬＩＮＤＡ,,株式会社,兵庫県,神戸市中央区,相生町５丁目１０番２１号,,28,110,6500025,,,2025-03-26,清算の結了等,,,2015-10-27,1,,,,,リンダ,0
1637,8140001135105,登記記録の閉鎖等,0,2025-03-31,2025-03-25,シデンエアフォース株式会社,,株式会社,兵庫県,明石市,本町１丁目２番２３号Ｋ’ｓビル５Ｆ,,28,203,6730892,,,2025-03-25,清算の結了等,,,2024-07-11,1,,,,,,0
1642,8140002067859,登記記録の閉鎖等,0,2025-03-31,2025-03-24,有限会社エイエムケイ,,有限会社,兵庫県,宝塚市,高松町１番７８号,,28,214,6650043,,,2025-03-24,清算の結了等,,,2015-10-05,1,,,,,エイエムケイ,0
1652,8180301010524,登記記録の閉鎖等,0,2025-03-31,2025-03-27,株式会社コモリ,,株式会社,愛知県,豊川市,樽井町土々川４７番地６,,23,207,4420004,,,2025-03-27,清算の結了等,,,2015-10-05,1,,,,,コモリ,0
1654,8190005011792,登記記録の閉鎖等,0,2025-03-31,2025-03-21,ＣａｍｐｉｎｇＳｐｅｃｉａｌｉｓｔ　ＫＡＷＡＧＯＥ労働者協同組合,,その他の設立登記法人,三重県,三重郡川越町,大字豊田３５３番地１,,24,344,5108122,,,2025-03-21,清算の結了等,,,2023-03-08,1,,,,,キャンピングスペシャリストカワゴエ,0
1663,8290001028938,登記記録の閉鎖等,0,2025-03-31,2025-03-21,Ｖａｒｉｏｕｓ＆Ｓｏｒａ株式会社,,株式会社,福岡県,福岡市東区,千早５丁目４番３５－１００７号,,40,131,8130044,,,2025-03-21,清算の結了等,,,2015-10-05,1,,,,,ヴァリアスアンドソラ,0
1664,8290001064495,登記記録の閉鎖等,0,2025-03-31,2025-03-26,グランレーベン株式会社,,株式会社,福岡県,福岡市中央区,小笹１丁目５－１第３三洋ビル１Ｆ,,40,133,8100033,,,2025-03-26,清算の結了等,,,2015-10-05,1,,,,,グランレーベン,0
1666,8290001083289,登記記録の閉鎖等,0,2025-03-31,2025-03-27,ＴＲＵＳＴ株式会社,,株式会社,福岡県,糟屋郡須惠町,大字植木１４９５番地,,40,344,8112112,,,2025-03-27,清算の結了等,,,2018-11-12,1,,,,,トラスト,0
1670,8290002023401,登記記録の閉鎖等,0,2025-03-31,2025-03-27,有限会社キョーワ電子,,有限会社,福岡県,福岡市中央区,笹丘１丁目１１番１１号,,40,133,8100034,,,2025-03-27,清算の結了等,,,2015-10-05,1,,,,,,0
1686,8360001022652,登記記録の閉鎖等,0,2025-03-31,2025-03-27,株式会社ＡＬＡ,,株式会社,沖縄県,那覇市,壺屋２丁目１３番２２号,,47,201,9020065,,,2025-03-27,清算の結了等,,,2017-07-19,1,,,,,アーラ,0
1690,8390002014976,登記記録の閉鎖等,0,2025-03-31,2025-03-24,有限会社トータルヌーウ,,有限会社,山形県,長井市,五十川１８６４番地の２,,06,209,9930072,,,2025-03-24,清算の結了等,,,2015-10-05,1,,,,,トータルヌーウ,0
1708,9010001216073,登記記録の閉鎖等,0,2025-03-31,2025-03-19,ＪＷＤホールディングス２株式会社,,株式会社,東京都,千代田区,丸の内１丁目１番１号パレスビル５階,,13,101,1000005,,,2025-03-19,清算の結了等,,,2021-03-01,1,,,,,ジェイダブリューディーホールディングスツー,0
1718,9010601056588,登記記録の閉鎖等,0,2025-03-31,2025-03-27,株式会社オズビー工業,,株式会社,埼玉県,草加市,西町１２５番地－７,,11,221,3400035,,,2025-03-27,清算の結了等,,,2019-12-18,1,,,,,オズビーコウギョウ,0
1720,9010603005964,登記記録の閉鎖等,0,2025-03-31,2025-03-27,合同会社ＳＳ４,,合同会社,東京都,江東区,有明１丁目４番２０－２２１６号,,13,108,1350063,,,2025-03-27,清算の結了等,,,2015-10-05,1,,,,,エスエスフォー,0
1721,9010603010139,登記記録の閉鎖等,0,2025-03-31,2025-03-13,イーサポ合同会社,,合同会社,東京都,豊島区,南大塚３丁目５０番地１号ウィンド大塚ビル３階,,13,116,1700005,,,2025-03-13,清算の結了等,,,2023-05-10,1,,,,,イーサポ,0
1724,9011001044836,登記記録の閉鎖等,0,2025-03-31,2025-02-28,今文株式会社,,株式会社,東京都,渋谷区,千駄ヶ谷１丁目９番１１号フレンシア外苑西６１２,,13,113,1510051,,,2025-02-28,清算の結了等,,,2015-10-05,1,,,,,イマブン,0
1733,9011103008549,登記記録の閉鎖等,0,2025-03-31,2025-03-21,合同会社奈良富雄インベスターズ,,合同会社,東京都,千代田区,大手町２丁目２番２号アーバンネット大手町ビル,,13,101,1000004,,,2025-03-21,清算の結了等,,,2019-02-06,1,,,,,ナラトミオインベスターズ,0
1734,9011203004464,登記記録の閉鎖等,0,2025-03-31,2025-03-27,優健合同会社,,合同会社,東京都,中野区,東中野１丁目５９番９号２階,,13,114,1640003,,,2025-03-27,清算の結了等,,,2024-08-14,1,,,,,ユウケン,0
1758,9030002038556,登記記録の閉鎖等,0,2025-03-31,2025-03-26,有限会社小川,,有限会社,埼玉県,白岡市,篠津９９６番地の５,,11,246,3490204,,,2025-03-26,清算の結了等,,,2015-10-05,1,,,,,オガワ,0
1763,9040005020667,登記記録の閉鎖等,0,2025-03-31,2025-03-18,一般社団法人行徳・妙典文化歴史保存会,,その他の設立登記法人,千葉県,市川市,妙典１丁目２０番２０号,,12,203,2720111,,,2025-03-18,清算の結了等,,,2020-01-15,1,,,,,ギョウトクミョウデンブンカレキシホゾンカイ,0
1768,9080101002061,登記記録の閉鎖等,0,2025-03-31,2025-03-24,戸田交通株式会社,,株式会社,静岡県,沼津市,戸田２４５番地の２,,22,203,4103402,,,2025-03-24,合併による解散等,7080101022103,令和７年３月１日静岡県沼津市戸田２４５番地の２戸田交通株式会社（7080101022103）に合併し解散,2015-10-05,1,,,,,ヘダコウツウ,0
1769,9080101017101,登記記録の閉鎖等,0,2025-03-31,2025-03-24,株式会社イナノビジネスサポート,,株式会社,静岡県,沼津市,町方町７３番地,,22,203,4100882,,,2025-03-24,清算の結了等,,,2015-10-05,1,,,,,イナノビジネスサポート,0
1775,9100001033699,登記記録の閉鎖等,0,2025-03-31,2025-03-17,株式会社ｓｏｉｌｚ,,株式会社,長野県,須坂市,大字塩川７２９番地１フレグランス１０２,,20,207,3820000,,,2025-03-17,清算の結了等,,,2020-11-19,1,,,,,ソイルス,0
1784,9120001025034,登記記録の閉鎖等,0,2025-03-31,2025-03-27,株式会社平岡商店,,株式会社,大阪府,大阪市天王寺区,夕陽丘町３番１９号,,27,109,5430075,,,2025-03-27,清算の結了等,,,2015-10-05,1,,,,,ヒラオカショウテン,0
1786,9120001119414,登記記録の閉鎖等,0,2025-03-31,2025-03-18,株式会社スカイレボリューション,,株式会社,大阪府,大阪市中央区,松屋町３番２３号松屋タワー５０３,,27,128,5420067,,,2025-03-18,清算の結了等,,,2015-10-05,1,,,,,スカイレボリューション,0
1790,9120001204959,登記記録の閉鎖等,0,2025-03-31,2025-03-26,株式会社北浜トレーディング,,株式会社,大阪府,大阪市中央区,東心斎橋１丁目１番１２号,,27,128,5420083,,,2025-03-26,清算の結了等,,,2017-04-13,1,,,,,キタハマトレーディング,0
1812,9140002053172,登記記録の閉鎖等,0,2025-03-31,2025-03-21,有限会社西日本ルーフ,,有限会社,兵庫県,神崎郡福崎町,田口２１８番地１,,28,443,6792218,,,2025-03-21,清算の結了等,,,2015-10-05,1,,,,,ニシニホンルーフ,0
1818,9180001072624,登記記録の閉鎖等,0,2025-03-31,2025-03-25,株式会社ウェルネスコンサルタンツ,,株式会社,愛知県,名古屋市中村区,名駅南１丁目１４番５号（プラウドタワー名駅南１１０５号）,,23,105,4500003,,,2025-03-25,清算の結了等,,,2015-10-05,1,,,,,ウェルネスコンサルタンツ,0
1840,9240005013972,登記記録の閉鎖等,0,2025-03-31,2025-03-28,一般社団法人日本パンフルート協会,,その他の設立登記法人,広島県,広島市東区,山根町２７番１－６１６号,,34,102,7320048,,,2025-03-28,清算の結了等,,,2015-10-05,1,,,,,ニホンパンフルートキョウカイ,0
1862,9370601000543,登記記録の閉鎖等,0,2025-03-31,2025-03-21,株式会社チャンピオン,,株式会社,宮城県,多賀城市,町前４丁目３番２４号,,04,209,9850845,,,2025-03-21,合併による解散等,1180001086004,令和７年３月１日名古屋市中村区名駅南二丁目１１番４３号株式会社日商（1180001086004）に合併し解散,2015-10-05,1,,,,,チャンピオン,0
