sequenceNumber,corporateNumber,process,correct,updateDate,changeDate,name,nameImageId,kind,prefectureName,cityName,streetNumber,addressImageId,prefectureCode,cityCode,postCode,addressOutside,addressOutsideImageId,closeDate,closeCause,successorCorporateNumber,changeCause,assignmentDate,latest,enName,enPrefectureName,enCityName,enAddressOutside,furigana,hihyoji
8,1010001217871,登記記録の閉鎖等,0,2024-09-04,2024-08-05,株式会社福水戸家ホールディングス,,株式会社,東京都,中央区,日本橋人形町２丁目２２番４号,,13,102,1030013,,,2024-08-05,合併による解散等,6010001171924,令和６年８月１日東京都中央区日本橋人形町二丁目２２番６号株式会社福水戸家（6010001171924）に合併し解散,2021-05-07,1,,,,,フクミトヤホールディングス,0
32,1010605003370,登記記録の閉鎖等,0,2024-09-04,2024-08-30,一般社団法人Ｃｈｉｉｎｅ,,その他の設立登記法人,東京都,世田谷区,岡本１丁目３５番２号,,13,112,1570076,,,2024-08-30,清算の結了等,,,2017-03-16,1,,,,,チイネ,0
35,1010701029113,登記記録の閉鎖等,0,2024-09-04,2024-09-02,ぺんぎんアソシエイツ株式会社,,株式会社,東京都,品川区,大井１丁目４９番１０号,,13,109,1400014,,,2024-09-02,清算の結了等,,,2015-10-05,1,,,,,ペンギンアソシエイツ,0
36,1010702001459,登記記録の閉鎖等,0,2024-09-04,2024-09-02,有限会社エムエムアミ,,有限会社,東京都,品川区,西大井１丁目１６番１５号,,13,109,1400015,,,2024-09-02,清算の結了等,,,2015-10-05,1,,,,,エムエムアミ,0
41,1011001057746,登記記録の閉鎖等,0,2024-09-04,2024-08-30,株式会社ワムシン,,株式会社,東京都,世田谷区,桜丘５丁目３０番４号,,13,112,1560054,,,2024-08-30,清算の結了等,,,2015-10-05,1,,,,,ワムシン,0
46,1011001156192,登記記録の閉鎖等,0,2024-09-04,2024-08-30,株式会社ふるさとＴｉｃｋｅｔ,,株式会社,東京都,渋谷区,恵比寿４丁目２０番３号恵比寿ガーデンプレイスタワー１８階,,13,113,1500013,,,2024-08-30,合併による解散等,1011101064097,令和６年８月１日東京都港区南青山２－１２－１５南青山二丁目ビル５Ｆディヴォートソリューション株式会社（1011101064097）に合併し解散,2023-08-14,1,,,,,フルサトチケット,0
60,1011401024354,登記記録の閉鎖等,0,2024-09-04,2024-08-30,株式会社エムシープラス,,株式会社,東京都,板橋区,南町５７番２号,,13,119,1730027,,,2024-08-30,清算の結了等,,,2022-06-28,1,,,,,エムシープラス,0
61,1011402000809,登記記録の閉鎖等,0,2024-09-04,2024-08-30,有限会社石井デンタルアート,,有限会社,東京都,板橋区,赤塚新町１丁目２１番６号,00065886,13,119,1750093,,,2024-08-30,清算の結了等,,,2015-10-05,1,,,,,イシイデンタルアート,0
62,1011502016060,登記記録の閉鎖等,0,2024-09-04,2024-08-30,有限会社美輪,,有限会社,東京都,荒川区,西尾久２丁目１７番１０号,,13,118,1160011,,,2024-08-30,清算の結了等,,,2015-10-05,1,,,,,ミワ,0
83,1020002014598,登記記録の閉鎖等,0,2024-09-04,2024-08-21,有限会社造形モデル,,有限会社,神奈川県,横浜市青葉区,さつきが丘２０番地５朝日さつきが丘マンション２０４号,,14,117,2270053,,,2024-08-21,清算の結了等,,,2015-10-05,1,,,,,ゾウケイモデル,0
105,1040001053629,登記記録の閉鎖等,0,2024-09-04,2024-08-27,株式会社梅田建設,,株式会社,千葉県,市原市,ちはら台東２丁目２０番地２ファミールハイツ４－２０３,,12,219,2900141,,,2024-08-27,清算の結了等,,,2015-10-05,1,,,,,ウメダケンセツ,0
111,1040005017225,登記記録の閉鎖等,0,2024-09-04,2024-08-28,特定非営利活動法人鴨川現代バレエ団,,その他の設立登記法人,千葉県,鴨川市,成川字女田ケ原３４番地２,,12,223,2960105,,,2024-08-28,清算の結了等,,,2015-10-05,1,,,,,カモガワゲンダイバレエダン,0
118,1060002010222,登記記録の閉鎖等,0,2024-09-04,2024-08-20,有限会社あゆ介護サービス,,有限会社,栃木県,宇都宮市,下栗町２２９１番地３１,,09,201,3210923,,,2024-08-20,清算の結了等,,,2015-10-05,1,,,,,アユカイゴサービス,0
119,1070001029304,登記記録の閉鎖等,0,2024-09-04,2024-09-02,株式会社ＡＣＣ,,株式会社,群馬県,吾妻郡東吾妻町,大字三島６９９９番地１,,10,429,3770813,,,2024-09-02,清算の結了等,,,2015-10-05,1,,,,,エイシーシー,0
122,1070002020427,登記記録の閉鎖等,0,2024-09-04,2024-09-02,有限会社ジーエルビー,,有限会社,群馬県,伊勢崎市,境伊与久１６６１番地の２,,10,204,3700105,,,2024-09-02,清算の結了等,,,2015-10-05,1,,,,,ジーエルビー,0
125,1080101015310,登記記録の閉鎖等,0,2024-09-04,2024-09-02,株式会社テクノ・ワン,,株式会社,静岡県,御殿場市,大坂１５６番地の１,,22,215,4120034,,,2024-09-02,清算の結了等,,,2015-10-05,1,,,,,テクノワン,0
138,1100002018780,登記記録の閉鎖等,0,2024-09-04,2024-08-30,有限会社竜王ヴィレッヂ,,有限会社,長野県,下高井郡山ノ内町,大字夜間瀬１２３４７番地４０,,20,561,3810405,,,2024-08-30,合併による解散等,1011001043432,令和６年８月８日東京都渋谷区恵比寿南一丁目１番１号ヒューマックス恵比寿ビル３Ｆ株式会社ヴァリエンテバルコ（1011001043432）に合併し解散,2015-10-05,1,,,,,リュウオウヴィレッヂ,0
154,1120003018183,登記記録の閉鎖等,0,2024-09-04,2024-08-30,合同会社ｏｍｋ,,合同会社,大阪府,枚方市,宗谷１丁目３番５号氷室第２ハイツ３０８号室,,27,210,5730113,,,2024-08-30,清算の結了等,,,2020-10-01,1,,,,,オーエムケー,0
161,1120101038348,登記記録の閉鎖等,0,2024-09-04,2024-08-30,株式会社ニッサン電気商会,,株式会社,大阪府,貝塚市,小瀬１丁目３番９号,,27,208,5970021,,,2024-08-30,清算の結了等,,,2015-10-05,1,,,,,ニッサンデンキショウカイ,0
167,1122001019502,登記記録の閉鎖等,0,2024-09-04,2024-08-30,中西乳業株式会社,,株式会社,大阪府,八尾市,旭ケ丘１丁目３３番地の１,,27,212,5810833,,,2024-08-30,清算の結了等,,,2015-10-05,1,,,,,ナカニシニュウギョウ,0
185,1180001112750,登記記録の閉鎖等,0,2024-09-04,2024-09-02,株式会社吉尾工業,,株式会社,岐阜県,岐阜市,芥見４丁目１７番地,,21,201,5013134,,,2024-09-02,清算の結了等,,,2015-10-05,1,,,,,ヨシオコウギョウ,0
195,1180003021529,登記記録の閉鎖等,0,2024-09-04,2024-08-27,ＫＫＩ合同会社,,合同会社,愛知県,尾張旭市,旭ケ丘町山の手１８２－１,,23,226,4880084,,,2024-08-27,清算の結了等,,,2020-08-21,1,,,,,ケイケイアイ,0
207,1200001028234,登記記録の閉鎖等,0,2024-09-04,2024-09-02,株式会社パレット,,株式会社,岐阜県,羽島郡岐南町,徳田２丁目１４５番地,,21,302,5016016,,,2024-09-02,清算の結了等,,,2015-10-05,1,,,,,パレット,0
209,1200002004003,登記記録の閉鎖等,0,2024-09-04,2024-09-02,有限会社フジモト・エイチ・エイ,,有限会社,岐阜県,岐阜市,松鴻町２丁目９番地３,,21,201,5008412,,,2024-09-02,清算の結了等,,,2015-10-05,1,,,,,フジモトエイチエイ,0
211,1210001013870,登記記録の閉鎖等,0,2024-09-04,2024-09-02,株式会社手づくりお惣菜じんべえ,,株式会社,福井県,丹生郡越前町,織田第９８号２４番地,,18,423,9160215,,,2024-09-02,清算の結了等,,,2015-10-05,1,,,,,テヅクリオソウザイジンベエ,0
238,1290803001925,登記記録の閉鎖等,0,2024-09-04,2024-09-02,合資会社ビーアールセブン,,合資会社,福岡県,田川市,大字伊田３５９０番地３０,,40,206,8250002,,,2024-09-02,清算の結了等,,,2015-10-05,1,,,,,ビーアールセブン,0
247,1370001006462,登記記録の閉鎖等,0,2024-09-04,2024-08-26,東北理科学機器株式会社,,株式会社,宮城県,仙台市宮城野区,福田町２丁目３３番１４号,,04,102,9830023,,,2024-08-26,清算の結了等,,,2015-10-05,1,,,,,トウホクリカガクキキ,0
248,1370001023441,登記記録の閉鎖等,0,2024-09-04,2024-08-21,庖巧株式会社,00081543,株式会社,宮城県,仙台市宮城野区,東仙台２丁目１４番１１－１０１号,,04,102,9830833,,,2024-08-21,清算の結了等,,,2015-10-05,1,,,,,クリヤタクミ,0
260,1420005003021,登記記録の閉鎖等,0,2024-09-04,2024-08-30,職業訓練法人八戸調理職業訓練協会,,その他の設立登記法人,青森県,八戸市,吹上５丁目１番２５号,,02,203,0310003,,,2024-08-30,清算の結了等,,,2015-10-05,1,,,,,ハチノヘチョウリショクギョウクンレンキョウカイ,0
266,1460302000312,登記記録の閉鎖等,0,2024-09-04,2024-09-03,有限会社小野設備,,有限会社,北海道,北見市,小泉２２９番地３９,,01,208,0900001,,,2024-09-03,清算の結了等,,,2015-10-05,1,,,,,オノセツビ,0
269,1480001010841,登記記録の閉鎖等,0,2024-09-04,2024-09-02,徳島電設工業株式会社,,株式会社,徳島県,板野郡松茂町,広島字二番越１３番地１,,36,401,7710220,,,2024-09-02,清算の結了等,,,2019-11-14,1,,,,,トクシマデンセツコウギョウ,0
288,2010401011386,登記記録の閉鎖等,0,2024-09-04,2024-09-02,三州精機株式会社,,株式会社,埼玉県,川越市,芳野台２丁目８番３９号,,11,201,3500833,,,2024-09-02,清算の結了等,,,2015-10-05,1,,,,,サンシュウセイキ,0
296,2010402009520,登記記録の閉鎖等,0,2024-09-04,2024-08-09,有限会社東京理容,,有限会社,東京都,港区,西新橋２丁目２番４号新生ビル,,13,103,1050003,,,2024-08-09,清算の結了等,,,2015-10-05,1,,,,,トウキョウリヨウ,0
305,2010501013596,登記記録の閉鎖等,0,2024-09-04,2024-09-02,株式会社三富,,株式会社,東京都,台東区,竜泉１丁目３４番５号,,13,106,1100012,,,2024-09-02,清算の結了等,,,2015-10-05,1,,,,,サントミ,0
316,2011001091612,登記記録の閉鎖等,0,2024-09-04,2024-08-21,株式会社ＡＫＡＴＳＵＫＩ,,株式会社,東京都,新宿区,新宿２丁目１２番１３号八洲学園ビル４階,,13,104,1600022,,,2024-08-21,清算の結了等,,,2015-10-05,1,,,,,アカツキ,0
320,2011001151671,登記記録の閉鎖等,0,2024-09-04,2024-08-15,株式会社太陽堂,,株式会社,東京都,目黒区,大岡山２丁目８番１－４０４号シーアイマンション大岡山,,13,110,1520033,,,2024-08-15,清算の結了等,,,2022-12-26,1,,,,,タイヨウドウ,0
337,2011802013970,登記記録の閉鎖等,0,2024-09-04,2024-09-02,有限会社霜田機電,,有限会社,東京都,足立区,大谷田１丁目３番２号,,13,121,1200001,,,2024-09-02,清算の結了等,,,2015-10-05,1,,,,,シモダキデン,0
344,2013201003561,登記記録の閉鎖等,0,2024-09-04,2024-07-23,株式会社立花ハジメデザイン,,株式会社,東京都,目黒区,東が丘１丁目３５番２８号,,13,110,1520021,,,2024-07-23,清算の結了等,,,2015-10-05,1,,,,,タチバナハジメデザイン,0
345,2013301026108,登記記録の閉鎖等,0,2024-09-04,2024-08-27,株式会社ハーモニープラザ,,株式会社,千葉県,柏市,旭町５丁目１番１７－２１７号,,12,217,2770852,,,2024-08-27,清算の結了等,,,2015-10-05,1,,,,,ハーモニープラザ,0
347,2013402007361,登記記録の閉鎖等,0,2024-09-04,2024-09-02,有限会社構造開発事務所,,有限会社,東京都,八王子市,別所２丁目３番地３号棟２０１号室,,13,201,1920363,,,2024-09-02,清算の結了等,,,2015-10-05,1,,,,,コウゾウカイハツジムショ,0
348,2020001052243,登記記録の閉鎖等,0,2024-09-04,2024-08-13,坂井機械株式会社,,株式会社,神奈川県,横浜市保土ケ谷区,権太坂３丁目２０番４３号,,14,106,2400026,,,2024-08-13,清算の結了等,,,2015-10-05,1,,,,,サカイキカイ,0
358,2021001061341,登記記録の閉鎖等,0,2024-09-04,2024-08-30,株式会社陽音,,株式会社,山梨県,南都留郡富士河口湖町,船津１５６４番地７,,19,430,4010301,,,2024-08-30,清算の結了等,,,2017-02-08,1,,,,,,0
363,2030001050428,登記記録の閉鎖等,0,2024-09-04,2024-08-30,株式会社ケーズホーム,,株式会社,埼玉県,朝霞市,本町２丁目４番２６号,,11,227,3510011,,,2024-08-30,清算の結了等,,,2015-10-05,1,,,,,ケーズホーム,0
366,2030002047043,登記記録の閉鎖等,0,2024-09-04,2024-08-29,有限会社ササザキ,,有限会社,埼玉県,八潮市,中央２丁目２２番地８,,11,234,3400816,,,2024-08-29,清算の結了等,,,2015-10-05,1,,,,,ササザキ,0
374,2040001132324,登記記録の閉鎖等,0,2024-09-04,2024-09-02,株式会社日進エステート,,株式会社,千葉県,千葉市中央区,鶴沢町２０番１６号,,12,101,2600003,,,2024-09-02,合併による解散等,1040001009812,令和６年９月１日千葉市中央区鶴沢町２０番１６号株式会社日進プランニング（1040001009812）に合併し解散,2024-02-22,1,,,,,,0
381,2050001021088,登記記録の閉鎖等,0,2024-09-04,2024-08-28,株式会社プロシステムホーム,,株式会社,茨城県,神栖市,太田２５９番地７,,08,232,3140254,,,2024-08-28,清算の結了等,,,2015-10-05,1,,,,,プロシステムホーム,0
393,2080102021091,登記記録の閉鎖等,0,2024-09-04,2024-08-29,有限会社呑三,,有限会社,静岡県,下田市,柿崎２６番９号,,22,219,4150013,,,2024-08-29,清算の結了等,,,2015-10-05,1,,,,,ノミサン,0
407,2120001035964,登記記録の閉鎖等,0,2024-09-04,2024-09-02,株式会社南部商会,,株式会社,大阪府,大阪市西区,新町４丁目１４番２号春日井ビル,,27,106,5500013,,,2024-09-02,合併による解散等,9120001042236,令和６年９月１日大阪市西区新町四丁目１３番９号株式会社春日井（9120001042236）に合併し解散,2015-10-05,1,,,,,ナンブショウカイ,0
408,2120001052118,登記記録の閉鎖等,0,2024-09-04,2024-09-02,染色試材株式会社谷頭商店,,株式会社,大阪府,大阪市東淀川区,小松４丁目１１番１５号,,27,114,5330004,,,2024-09-02,清算の結了等,,,2015-10-05,1,,,,,センショクシザイタニガシラショウテン,0
410,2120001113530,登記記録の閉鎖等,0,2024-09-04,2024-09-02,株式会社ゼニスフードサービス,,株式会社,大阪府,大阪市中央区,谷町２丁目４番５号,,27,128,5400012,,,2024-09-02,清算の結了等,,,2015-10-05,1,,,,,ゼニスフードサービス,0
416,2120001210303,登記記録の閉鎖等,0,2024-09-04,2024-09-02,エースプロパートナーズ株式会社,,株式会社,大阪府,大阪市城東区,諏訪３丁目１番２０号第二ミヤタビル２０２,,27,118,5360021,,,2024-09-02,清算の結了等,,,2017-12-22,1,,,,,エースプロパートナーズ,0
427,2120002060714,登記記録の閉鎖等,0,2024-09-04,2024-09-02,有限会社菊池鋼業,,有限会社,大阪府,大阪市住之江区,柴谷２丁目６番２４号,,27,125,5590021,,,2024-09-02,清算の結了等,,,2015-10-05,1,,,,,キクチコウギョウ,0
441,2130001051300,登記記録の閉鎖等,0,2024-09-04,2024-09-02,株式会社ニシヤマ・モダン・アート・プロフェッション,,株式会社,京都府,京都市北区,大宮西小野堀町４７番地３ラセットアベニュー３０２,,26,101,6038405,,,2024-09-02,清算の結了等,,,2015-10-05,1,,,,,ニシヤマモダンアートプロフェッション,0
445,2130003006632,登記記録の閉鎖等,0,2024-09-04,2024-09-02,Ｚ－Ｃｒｙｓｔａｌ合同会社,,合同会社,京都府,京都市西京区,御陵大枝山町１丁目１６番地１,,26,111,6101102,,,2024-09-02,清算の結了等,,,2020-07-13,1,,,,,ジークリスタル,0
452,2140001093861,登記記録の閉鎖等,0,2024-09-04,2024-08-27,株式会社ＧＴＳコーポレーション,,株式会社,兵庫県,西宮市,今津巽町７番３－１０６号,00040272,28,204,6638223,,,2024-08-27,清算の結了等,,,2015-10-05,1,,,,,ジーティーエスコーポレーション,0
455,2160001007539,登記記録の閉鎖等,0,2024-09-04,2024-09-02,株式会社ＪＹテキスタイル,,株式会社,滋賀県,長浜市,湖北町山脇３０３番地,,25,203,5290317,,,2024-09-02,清算の結了等,,,2015-10-05,1,,,,,ジェイワイテキスタイル,0
468,2180002072043,登記記録の閉鎖等,0,2024-09-04,2024-08-28,有限会社陶都看護婦家政婦紹介所,,有限会社,愛知県,尾張旭市,旭台２丁目１５番地２２,,23,226,4880001,,,2024-08-28,清算の結了等,,,2015-10-05,1,,,,,トウトカンゴフカセイフショウカイジョ,0
473,2180302023712,登記記録の閉鎖等,0,2024-09-04,2024-09-02,有限会社明和エンジニアリング,,有限会社,愛知県,岡崎市,美合町字山道１９番地７,,23,202,4440802,,,2024-09-02,清算の結了等,,,2015-10-05,1,,,,,メイワエンジニアリング,0
474,2190001017733,登記記録の閉鎖等,0,2024-09-04,2024-09-02,株式会社ＩＮ－ＳＨＯＣＫ,,株式会社,三重県,四日市市,久保田１丁目１番２１号,,24,202,5100821,,,2024-09-02,清算の結了等,,,2015-10-05,1,,,,,インショック,0
476,2190002011306,登記記録の閉鎖等,0,2024-09-04,2024-08-30,有限会社かばかん,,有限会社,三重県,鳥羽市,大明西町１番地１,,24,211,5170023,,,2024-08-30,清算の結了等,,,2015-10-05,1,,,,,カバカン,0
477,2200001006585,登記記録の閉鎖等,0,2024-09-04,2024-09-02,株式会社鈴木被服,,株式会社,岐阜県,山県市,高富１１８９番地の４,,21,215,5012105,,,2024-09-02,清算の結了等,,,2015-10-05,1,,,,,スズキヒフク,0
484,2200002004695,登記記録の閉鎖等,0,2024-09-04,2024-09-02,有限会社ミヤタ商会,,有限会社,岐阜県,岐阜市,萱場町１丁目６１番地,,21,201,5020937,,,2024-09-02,清算の結了等,,,2015-10-05,1,,,,,,0
525,2290005001987,登記記録の閉鎖等,0,2024-09-04,2024-08-20,サンセルコ商業協同組合,,その他の設立登記法人,福岡県,福岡市中央区,渡辺通１丁目１番１号サンセルコ商業ビル４階,,40,133,8100004,,,2024-08-20,清算の結了等,,,2015-10-05,1,,,,,サンセルコショウギョウ,0
528,2330001011928,登記記録の閉鎖等,0,2024-09-04,2024-08-28,株式会社タケモト真空サービス,,株式会社,熊本県,玉名市,岱明町大野下３２番地１,,43,206,8690224,,,2024-08-28,清算の結了等,,,2015-10-05,1,,,,,タケモトシンクウサービス,0
539,2370003005924,登記記録の閉鎖等,0,2024-09-04,2024-08-20,合同会社ハートミラー,,合同会社,宮城県,仙台市青葉区,中央４丁目８番１７号小林ビル１Ｆ,,04,101,9800021,,,2024-08-20,清算の結了等,,,2022-12-19,1,,,,,ハートミラー,0
548,2380002026292,登記記録の閉鎖等,0,2024-09-04,2024-08-27,緑川新聞有限会社,,有限会社,福島県,いわき市,小名浜字横町２番地,,07,204,9718101,,,2024-08-27,清算の結了等,,,2015-10-05,1,,,,,ミドリカワシンブン,0
554,2410002011877,登記記録の閉鎖等,0,2024-09-04,2024-09-02,有限会社武藤建材,,有限会社,秋田県,大仙市,神宮寺字荒屋３３番地３,,05,212,0191701,,,2024-09-02,清算の結了等,,,2015-10-05,1,,,,,ムトウケンザイ,0
569,2500002021041,登記記録の閉鎖等,0,2024-09-04,2024-08-30,有限会社エム企画,,有限会社,愛媛県,四国中央市,中之庄町６９４番地４,,38,213,7990422,,,2024-08-30,清算の結了等,,,2015-10-05,1,,,,,エムキカク,0
577,3010003029826,登記記録の閉鎖等,0,2024-09-04,2024-08-23,日光ベル合同会社６,,合同会社,東京都,千代田区,丸の内３丁目１番１号東京共同会計事務所内,,13,101,1000005,,,2024-08-23,清算の結了等,,,2019-05-16,1,,,,,ニッコウベルロク,0
604,3011002009125,登記記録の閉鎖等,0,2024-09-04,2024-09-02,有限会社ナイス,,有限会社,東京都,八王子市,打越町３５１番地４振栄ハイツＶ２０１号,00132190,13,201,1920911,,,2024-09-02,清算の結了等,,,2015-10-05,1,,,,,ナイス,0
611,3011303002365,登記記録の閉鎖等,0,2024-09-04,2024-08-28,ジェントル合同会社,,合同会社,静岡県,静岡市葵区,人宿町１丁目６番１２号タウンコート人宿町２０Ｂ,,22,101,4200037,,,2024-08-28,清算の結了等,,,2015-12-18,1,,,,,ジェントル,0
615,3011501004262,登記記録の閉鎖等,0,2024-09-04,2024-09-02,株式会社北通,,株式会社,東京都,北区,王子本町２丁目２４番１８号,,13,117,1140022,,,2024-09-02,清算の結了等,,,2015-10-05,1,,,,,ホクツウ,0
624,3011805001377,登記記録の閉鎖等,0,2024-09-04,2024-09-02,医療法人社団永徳会,,その他の設立登記法人,東京都,足立区,皿沼１丁目５番８号彰和ビルＩＩ１階,00057687,13,121,1230862,,,2024-09-02,清算の結了等,,,2015-10-05,1,,,,,エイトクカイ,0
635,3013303005091,登記記録の閉鎖等,0,2024-09-04,2024-08-28,合同会社リミレス・アーム,,合同会社,東京都,清瀬市,野塩５丁目２８６番地１号最上コーポ３０６,,13,221,2040004,,,2024-08-28,清算の結了等,,,2020-04-22,1,,,,,リミレスアーム,0
646,3021001016443,登記記録の閉鎖等,0,2024-09-04,2024-09-02,株式会社渓花,,株式会社,神奈川県,相模原市緑区,小渕１７２１番地３,,14,151,2520184,,,2024-09-02,清算の結了等,,,2015-10-05,1,,,,,ケイカ,0
655,3030001060285,登記記録の閉鎖等,0,2024-09-04,2024-08-30,慎和建装株式会社,,株式会社,埼玉県,本庄市,緑３丁目４番５号,,11,211,3670043,,,2024-08-30,清算の結了等,,,2015-10-05,1,,,,,シンワケンソウ,0
659,3030002004522,登記記録の閉鎖等,0,2024-09-04,2024-09-02,有限会社ケイツー,,有限会社,埼玉県,さいたま市見沼区,大字南中野３番地１４,,11,104,3370042,,,2024-09-02,清算の結了等,,,2015-10-05,1,,,,,ケイツー,0
660,3030002023118,登記記録の閉鎖等,0,2024-09-04,2024-08-29,有限会社井上工業所,,有限会社,埼玉県,さいたま市岩槻区,大字高曽根３２５番地,,11,110,3390022,,,2024-08-29,清算の結了等,,,2015-10-05,1,,,,,イノウエコウギョウショ,0
678,3040002006682,登記記録の閉鎖等,0,2024-09-04,2024-08-27,有限会社泰正塗装店,,有限会社,千葉県,千葉市若葉区,都賀の台４丁目８番１１号,,12,104,2640033,,,2024-08-27,清算の結了等,,,2015-10-05,1,,,,,タイセイトソウテン,0
680,3040002036936,登記記録の閉鎖等,0,2024-09-04,2024-08-27,有限会社村上工業不動産,,有限会社,千葉県,市川市,原木３丁目１０番１５－５０４号,,12,203,2720004,,,2024-08-27,清算の結了等,,,2015-10-05,1,,,,,ムラカミコウギョウフドウサン,0
681,3040002064367,登記記録の閉鎖等,0,2024-09-04,2024-08-15,有限会社和良比エンジニアリング,,有限会社,千葉県,四街道市,和良比１１２４番地,,12,228,2840044,,,2024-08-15,清算の結了等,,,2015-10-05,1,,,,,ワラビエンジニアリング,0
687,3050002007639,登記記録の閉鎖等,0,2024-09-04,2024-08-27,有限会社ノブサワ,,有限会社,茨城県,水戸市,見和２丁目５３５番地の２,,08,201,3100911,,,2024-08-27,清算の結了等,,,2015-10-05,1,,,,,ノブサワ,0
693,3080001021927,登記記録の閉鎖等,0,2024-09-04,2024-08-28,フワット株式会社,,株式会社,静岡県,藤枝市,駅前２丁目６番４号,,22,214,4260034,,,2024-08-28,清算の結了等,,,2017-11-20,1,,,,,フワット,0
703,3120001121169,登記記録の閉鎖等,0,2024-09-04,2024-09-02,株式会社エムエスティー,,株式会社,大阪府,大阪市住之江区,南港中４丁目７番２４－４１２号,,27,125,5590033,,,2024-09-02,清算の結了等,,,2015-10-05,1,,,,,エムエスティー,0
708,3120001253771,登記記録の閉鎖等,0,2024-09-04,2024-09-02,東昇株式会社,,株式会社,大阪府,大阪市西成区,千本北１丁目１０番２４号エリートパレス天下茶屋Ｉ３Ｆ,00129981,27,122,5570053,,,2024-09-02,清算の結了等,,,2023-04-07,1,,,,,トウショウ,0
725,3130002013406,登記記録の閉鎖等,0,2024-09-04,2024-09-03,有限会社エー・ピー・エス,,有限会社,京都府,京都市伏見区,竹田田中宮町１７番地,,26,109,6128444,,,2024-09-03,清算の結了等,,,2015-10-05,1,,,,,エーピーエス,0
771,3290001043058,登記記録の閉鎖等,0,2024-09-04,2024-08-26,株式会社西部環境,,株式会社,福岡県,筑紫野市,大字天山５９６番地４,,40,217,8180012,,,2024-08-26,清算の結了等,,,2015-10-05,1,,,,,セイブカンキョウ,0
772,3290001051011,登記記録の閉鎖等,0,2024-09-04,2024-07-22,株式会社宝屋運送,,株式会社,福岡県,久留米市,田主丸町八幡１２９６番地４,,40,203,8391226,,,2024-07-22,清算の結了等,,,2015-10-05,1,,,,,タカラヤウンソウ,0
783,3340002000580,登記記録の閉鎖等,0,2024-09-04,2024-09-02,有限会社茶圓建築設計,,有限会社,鹿児島県,日置市,伊集院町妙円寺２丁目５３番地１０,,46,216,8992503,,,2024-09-02,清算の結了等,,,2015-10-05,1,,,,,チャエンケンチクセッケイ,0
785,3340002016750,登記記録の閉鎖等,0,2024-09-04,2024-08-28,有限会社センタービル,,有限会社,鹿児島県,薩摩川内市,西向田町１４番２２号,,46,215,8950027,,,2024-08-28,清算の結了等,,,2015-10-05,1,,,,,センタービル,0
787,3350005006087,登記記録の閉鎖等,0,2024-09-04,2024-08-20,一般社団法人日南新選組,,その他の設立登記法人,宮崎県,日南市,南郷町中村甲２６６１番地,,45,204,8893202,,,2024-08-20,清算の結了等,,,2022-08-02,1,,,,,ニチナンシンセングミ,0
798,3390001016474,登記記録の閉鎖等,0,2024-09-04,2024-08-26,株式会社フォーリーフ企画,,株式会社,山形県,米沢市,大字川井４０１１番地の３,,06,202,9920117,,,2024-08-26,清算の結了等,,,2021-06-03,1,,,,,フォーリーフキカク,0
799,3390002001145,登記記録の閉鎖等,0,2024-09-04,2024-08-27,有限会社齋藤木箱製作所,,有限会社,山形県,山形市,深町３丁目１－２４,,06,201,9902462,,,2024-08-27,清算の結了等,,,2015-10-05,1,,,,,サイトウキバコセイサクショ,0
800,3390005007296,登記記録の閉鎖等,0,2024-09-04,2024-08-26,特定非営利活動法人ここ掘れ和ん話ん探検隊,,その他の設立登記法人,山形県,西置賜郡小国町,大字新原１２４番地,,06,401,9991337,,,2024-08-26,清算の結了等,,,2015-10-05,1,,,,,ココホレワンワンタンケンタイ,0
803,3430001015100,登記記録の閉鎖等,0,2024-09-04,2024-08-30,北武商事株式会社,,株式会社,北海道,札幌市東区,北十七条東４丁目４番１４号,,01,103,0650017,,,2024-08-30,清算の結了等,,,2015-10-05,1,,,,,ホクブショウジ,0
805,3430001055105,登記記録の閉鎖等,0,2024-09-04,2024-09-02,株式会社蒼建軌道工業,,株式会社,北海道,苫小牧市,東開町４丁目１７番２７号,,01,213,0591301,,,2024-09-02,清算の結了等,,,2015-10-05,1,,,,,ソウケンキドウコウギョウ,0
806,3430001084500,登記記録の閉鎖等,0,2024-09-04,2024-09-02,株式会社ｒｅ－ｃｒｅａｔｅ,,株式会社,北海道,札幌市中央区,南一条西１６丁目１番地３２３,,01,101,0600061,,,2024-09-02,清算の結了等,,,2021-07-07,1,,,,,リクリエイト,0
813,3470001010997,登記記録の閉鎖等,0,2024-09-04,2024-09-02,坂東建設株式会社,,株式会社,香川県,さぬき市,長尾西１１６８番地１,,37,206,7692302,,,2024-09-02,清算の結了等,,,2015-10-05,1,,,,,バンドウケンセツ,0
818,3490001002027,登記記録の閉鎖等,0,2024-09-04,2024-08-30,株式会社ブライダルみなと屋,,株式会社,高知県,高知市,はりまや町３丁目２０番５号,,39,201,7800822,,,2024-08-30,清算の結了等,,,2015-10-05,1,,,,,ブライダルミナトヤ,0
829,4010001194555,登記記録の閉鎖等,0,2024-09-04,2024-08-27,ピテクス株式会社,,株式会社,東京都,千代田区,平河町２丁目５番３号,,13,101,1020093,,,2024-08-27,清算の結了等,,,2018-08-31,1,,,,,ピテクス,0
838,4010002018399,登記記録の閉鎖等,0,2024-09-04,2024-09-03,有限会社オフィスクレール,,有限会社,東京都,江東区,冬木１５番９,,13,108,1350041,,,2024-09-03,清算の結了等,,,2015-10-05,1,,,,,オフィスクレール,0
844,4010401142618,登記記録の閉鎖等,0,2024-09-04,2024-08-27,株式会社ＫＡＮＥＳＨＯ　ＣＨＰ,,株式会社,東京都,千代田区,丸の内１丁目８番３号,,13,101,1000005,,,2024-08-27,清算の結了等,,,2018-12-12,1,,,,,カネショウシーエイチピー,0
855,4010601056089,登記記録の閉鎖等,0,2024-09-04,2024-08-29,ＵＥ株式会社,,株式会社,東京都,台東区,竜泉１丁目２番３号１２０４,,13,106,1100012,,,2024-08-29,清算の結了等,,,2019-09-10,1,,,,,ユイ,0
863,4010901026394,登記記録の閉鎖等,0,2024-09-04,2024-08-30,株式会社オリエントケアネット東京,,株式会社,東京都,世田谷区,野沢３丁目１６番１５－２１２号,,13,112,1540003,,,2024-08-30,清算の結了等,,,2015-10-05,1,,,,,,0
897,4012702003572,登記記録の閉鎖等,0,2024-09-04,2024-08-27,有限会社丸中商店,,有限会社,東京都,東村山市,恩多町３丁目２９番地１,,13,213,1890011,,,2024-08-27,清算の結了等,,,2015-10-05,1,,,,,マルナカショウテン,0
905,4020002056472,登記記録の閉鎖等,0,2024-09-04,2024-08-27,有限会社張幸電設,,有限会社,神奈川県,横浜市栄区,桂台東７番７－３０１号,,14,115,2470032,,,2024-08-27,清算の結了等,,,2015-10-05,1,,,,,チョウコウデンセツ,0
906,4020002080852,登記記録の閉鎖等,0,2024-09-04,2024-08-13,有限会社木博タイル工事店,,有限会社,神奈川県,川崎市幸区,南加瀬１丁目１７番１６－１０１号,,14,132,2120055,,,2024-08-13,清算の結了等,,,2015-10-05,1,,,,,,0
909,4020003011030,登記記録の閉鎖等,0,2024-09-04,2024-08-30,合同会社ｅ－ｓｔｙｌｅ　ｐｒｏｐｅｒｔｙ,,合同会社,北海道,札幌市豊平区,西岡五条２丁目２－１６フェリシアコート１０５,,01,105,0620035,,,2024-08-30,合併による解散等,3030003009512,令和６年８月１日埼玉県さいたま市大宮区櫛引町一丁目３２４番地２－２０４号Ａｓｓｅｔ　Ｉｎｖｅｓｔ合同会社（3030003009512）に合併し解散,2016-03-16,1,,,,,イースタイルプロパティ,0
947,4080001019697,登記記録の閉鎖等,0,2024-09-04,2024-08-28,株式会社元気カンパニー,,株式会社,静岡県,島田市,阪本７５６番地の６,,22,209,4270111,,,2024-08-28,清算の結了等,,,2015-10-05,1,,,,,ゲンキカンパニー,0
957,4080403000486,登記記録の閉鎖等,0,2024-09-04,2024-08-29,ミキファミリー合資会社,,合資会社,静岡県,浜松市中央区,遠州浜３丁目３３番２０号,,22,138,4300835,,,2024-08-29,清算の結了等,,,2015-10-05,1,,,,,ミキファミリー,0
961,4100003006996,登記記録の閉鎖等,0,2024-09-04,2024-08-26,ｔｒｙａｎｇｌｅ　ｒｅ．Ｄｅｓｉｇｎ　ａｎｄ合同会社,,合同会社,長野県,長野市,大字鶴賀上千歳町１１３７番地２３リアライズ長野ビル２階ＢＰＮ,,20,201,3800821,,,2024-08-26,清算の結了等,,,2023-05-02,1,,,,,トライアングルデザイン,0
969,4120001033941,登記記録の閉鎖等,0,2024-09-04,2024-08-29,株式会社山二金型製作所,,株式会社,大阪府,大阪市住吉区,長居東２丁目８番５号,,27,120,5580004,,,2024-08-29,清算の結了等,,,2015-10-05,1,,,,,ヤマニカナガタセイサクショ,0
970,4120001125573,登記記録の閉鎖等,0,2024-09-04,2024-09-02,株式会社シーピーエー・アシスト,,株式会社,大阪府,大阪市中央区,大手前１丁目３番５９号,,27,128,5400008,,,2024-09-02,清算の結了等,,,2015-10-05,1,,,,,シーピーエーアシスト,0
984,4120002053823,登記記録の閉鎖等,0,2024-09-04,2024-09-02,有限会社アーキテクノシステム,,有限会社,大阪府,大阪市阿倍野区,天王寺町北３丁目１４番３号シャーレ天王寺１０２号室,,27,119,5450001,,,2024-09-02,清算の結了等,,,2015-10-05,1,,,,,アーキテクノシステム,0
999,4130001039574,登記記録の閉鎖等,0,2024-09-04,2024-09-02,エムシートレーディング株式会社,,株式会社,京都府,八幡市,八幡福禄谷１４８番地の２３,,26,210,6148056,,,2024-09-02,清算の結了等,,,2015-10-05,1,,,,,エムシートレーディング,0
1016,4180003005842,登記記録の閉鎖等,0,2024-09-04,2024-08-30,合資会社松島書店,,合資会社,愛知県,名古屋市中区,栄１丁目６番３１号,,23,106,4600008,,,2024-08-30,清算の結了等,,,2015-10-05,1,,,,,マツシマショテン,0
1019,4180301012912,登記記録の閉鎖等,0,2024-09-04,2024-09-02,株式会社酒井工業,,株式会社,愛知県,安城市,福釜町蓬野７６番地,00074567,23,212,4460052,,,2024-09-02,清算の結了等,,,2015-10-05,1,,,,,サカイコウギョウ,0
1021,4180301033719,登記記録の閉鎖等,0,2024-09-04,2024-09-02,株式会社ＳＨＯＵ,,株式会社,愛知県,西尾市,寺津１丁目１番地３４,,23,213,4440327,,,2024-09-02,清算の結了等,,,2020-05-19,1,,,,,ショウ,0
1022,4180302018306,登記記録の閉鎖等,0,2024-09-04,2024-08-30,有限会社三洋精工,,有限会社,愛知県,刈谷市,青山町１丁目１５６番地１４,,23,210,4480014,,,2024-08-30,清算の結了等,,,2015-10-05,1,,,,,サンヨウセイコウ,0
1030,4190002020800,登記記録の閉鎖等,0,2024-09-04,2024-08-28,大甚有限会社,,有限会社,三重県,四日市市,生桑町１９２３番地の１,,24,202,5120911,,,2024-08-28,清算の結了等,,,2015-10-05,1,,,,,ダイジン,0
1035,4200002005782,登記記録の閉鎖等,0,2024-09-04,2024-09-02,有限会社イーワールド,,有限会社,岐阜県,各務原市,蘇原東島町３丁目４６番地,,21,213,5040816,,,2024-09-02,清算の結了等,,,2015-10-05,1,,,,,,0
1042,4250001014813,登記記録の閉鎖等,0,2024-09-04,2024-09-02,株式会社ＭＧＲ,,株式会社,山口県,下関市,大字田倉５６３番地７,,35,201,7510883,,,2024-09-02,清算の結了等,,,2015-10-05,1,,,,,エムジーアール,0
1048,4260005010997,登記記録の閉鎖等,0,2024-09-04,2024-08-28,特定非営利活動法人高梁川流域の持続可能な開発・ＳＤＧｓをアートで達成する会,,その他の設立登記法人,岡山県,倉敷市,玉島１２７５番地,,33,202,7138102,,,2024-08-28,清算の結了等,,,2021-11-29,1,,,,,タカハシガワリュウイキノジゾクカノウナカイハツエスディジーズヲアートデタッセイスルカイ,0
1076,4390001012027,登記記録の閉鎖等,0,2024-09-04,2024-08-27,鶴屋醤油株式会社,00084793,株式会社,山形県,西村山郡河北町,谷地戊２３番地,,06,321,9993511,,,2024-08-27,清算の結了等,,,2015-10-05,1,,,,,ツルヤショウユ,0
1086,4470002016992,登記記録の閉鎖等,0,2024-09-04,2024-08-27,有限会社栄宝産業,,有限会社,香川県,三豊市,詫間町詫間３３８８番地１,,37,208,7691101,,,2024-08-27,清算の結了等,,,2015-10-05,1,,,,,エイホウサンギョウ,0
1088,4480002014244,登記記録の閉鎖等,0,2024-09-04,2024-09-02,有限会社富増造船所,,有限会社,徳島県,海部郡美波町,日和佐浦４４４番地１２,,36,387,7792304,,,2024-09-02,清算の結了等,,,2015-10-05,1,,,,,トミマスゾウセンショ,0
1090,4490005004712,登記記録の閉鎖等,0,2024-09-04,2024-09-02,伊達野生産森林組合,,その他の設立登記法人,高知県,南国市,伊達野２０３番地,,39,204,7830008,,,2024-09-02,清算の結了等,,,2015-10-05,1,,,,,イタチノ,0
1124,5010502010061,登記記録の閉鎖等,0,2024-09-04,2024-08-29,有限会社堀川商店,,有限会社,東京都,台東区,柳橋２丁目１３番６号,,13,106,1110052,,,2024-08-29,清算の結了等,,,2015-10-05,1,,,,,ホリカワショウテン,0
1160,5020003011756,登記記録の閉鎖等,0,2024-09-04,2024-08-15,Ｃ・Ｔ・Ｓ合同会社,,合同会社,神奈川県,川崎市中原区,市ノ坪字下橋場５４８番地８５Ｇ・Ａヒルズ武蔵小杉１００号,,14,133,2110016,,,2024-08-15,清算の結了等,,,2016-09-07,1,,,,,シーティーエス,0
1177,5030005010739,登記記録の閉鎖等,0,2024-09-04,2024-08-29,一般社団法人日本マリッジアカデミー協会,,その他の設立登記法人,埼玉県,越谷市,相模町５丁目４０３番地,,11,222,3430823,,,2024-08-29,清算の結了等,,,2015-10-05,1,,,,,ニホンマリッジアカデミーキョウカイ,0
1185,5040002098966,登記記録の閉鎖等,0,2024-09-04,2024-08-08,有限会社アジル設計,,有限会社,千葉県,野田市,桜台１６２番地の４,,12,208,2780032,,,2024-08-08,清算の結了等,,,2015-10-05,1,,,,,アジルセッケイ,0
1190,5050001011573,登記記録の閉鎖等,0,2024-09-04,2024-08-30,新東電器株式会社,,株式会社,茨城県,小美玉市,下吉影６２２番地１,,08,236,3113406,,,2024-08-30,清算の結了等,,,2015-10-05,1,,,,,シントウデンキ,0
1195,5050001045423,登記記録の閉鎖等,0,2024-09-04,2024-08-29,株式会社にいぼりのうえん,,株式会社,茨城県,鉾田市,鳥栖１２７９番地５,,08,234,3111534,,,2024-08-29,清算の結了等,,,2019-01-16,1,,,,,ニイボリノウエン,0
1197,5050002022017,登記記録の閉鎖等,0,2024-09-04,2024-08-29,有限会社フランセ,,有限会社,茨城県,つくば市,花畑３丁目２５番地１１,,08,220,3003261,,,2024-08-29,清算の結了等,,,2015-10-05,1,,,,,フランセ,0
1199,5050002025754,登記記録の閉鎖等,0,2024-09-04,2024-08-29,大晃食品有限会社,,有限会社,茨城県,古河市,尾崎２９７６番地の１,,08,204,3060101,,,2024-08-29,清算の結了等,,,2015-10-05,1,,,,,タイコウショクヒン,0
1202,5070001026074,登記記録の閉鎖等,0,2024-09-04,2024-09-02,バイオツールズ株式会社,,株式会社,群馬県,高崎市,足門町８５４番地７,,10,202,3703531,,,2024-09-02,清算の結了等,,,2015-10-05,1,,,,,バイオツールズ,0
1209,5100001016105,登記記録の閉鎖等,0,2024-09-04,2024-08-26,株式会社イー・エム・アイ,,株式会社,長野県,安曇野市,豊科南穂高１１１５番地,,20,220,3998201,,,2024-08-26,清算の結了等,,,2015-10-05,1,,,,,イーエムアイ,0
1243,5140001134811,登記記録の閉鎖等,0,2024-09-04,2024-08-30,株式会社翔,,株式会社,兵庫県,南あわじ市,榎列小榎列甲２９４番地,,28,224,6560425,,,2024-08-30,清算の結了等,,,2024-06-21,1,,,,,ショウ,0
1262,5190001008184,登記記録の閉鎖等,0,2024-09-04,2024-08-30,株式会社ＩＣＭカンパニー,,株式会社,三重県,志摩市,阿児町鵜方４５３番地１９,,24,215,5170501,,,2024-08-30,清算の結了等,,,2015-10-05,1,,,,,アイシーエムカンパニー,0
1290,5290003013981,登記記録の閉鎖等,0,2024-09-04,2024-07-29,ＹＨＹコンサルティング合同会社,,合同会社,福岡県,福岡市城南区,七隈１丁目７番１１－３０３号,,40,136,8140133,,,2024-07-29,清算の結了等,,,2023-06-02,1,,,,,ワイエイチワイコンサルティング,0
1297,5320005000330,登記記録の閉鎖等,0,2024-09-04,2024-09-03,医療法人緒方内科,,その他の設立登記法人,大分県,大分市,南鶴崎２丁目７番３４号,,44,201,8700104,,,2024-09-03,清算の結了等,,,2015-10-05,1,,,,,オガタナイカ,0
1306,5340002024636,登記記録の閉鎖等,0,2024-09-04,2024-09-02,有限会社すなお園芸,,有限会社,鹿児島県,南九州市,頴娃町上別府４６１３番地,,46,223,8910705,,,2024-09-02,清算の結了等,,,2015-10-05,1,,,,,スナオエンゲイ,0
1318,5370301000665,登記記録の閉鎖等,0,2024-09-04,2024-08-23,信和エンジニアリング株式会社,,株式会社,宮城県,石巻市,不動町１丁目２番２３号,,04,202,9860017,,,2024-08-23,清算の結了等,,,2015-10-05,1,,,,,シンワエンジニアリング,0
1324,5410002008466,登記記録の閉鎖等,0,2024-09-04,2024-09-02,有限会社クラウン,,有限会社,秋田県,大館市,字中町４８番地３,,05,204,0170843,,,2024-09-02,清算の結了等,,,2015-10-05,1,,,,,クラウン,0
1333,5430003002037,登記記録の閉鎖等,0,2024-09-04,2024-09-02,合同会社トーシンリフォーム,,合同会社,北海道,札幌市豊平区,平岸七条１３丁目２番５７－３０３号,,01,105,0620937,,,2024-09-02,清算の結了等,,,2015-10-05,1,,,,,トーシンリフォーム,0
1336,5450002005781,登記記録の閉鎖等,0,2024-09-04,2024-09-02,有限会社メガネのイワタ,,有限会社,北海道,旭川市,四条通７丁目左１０号,,01,204,0700034,,,2024-09-02,清算の結了等,,,2015-10-05,1,,,,,メガネノイワタ,0
1340,6010001121631,登記記録の閉鎖等,0,2024-09-04,2024-08-23,ケーズシステムデザイン株式会社,,株式会社,東京都,千代田区,麹町３丁目５番地１７,,13,101,1020083,,,2024-08-23,清算の結了等,,,2015-10-05,1,,,,,,0
1341,6010001152296,登記記録の閉鎖等,0,2024-09-04,2024-08-23,株式会社大悠,,株式会社,東京都,文京区,水道２丁目１７番４号,,13,105,1120005,,,2024-08-23,清算の結了等,,,2015-10-05,1,,,,,,0
1349,6010003023545,登記記録の閉鎖等,0,2024-09-04,2024-08-23,エイジェイビズテック合同会社,,合同会社,東京都,中央区,日本橋中洲１番５号浜町グランドハイツ１００２号室,,13,102,1030008,,,2024-08-23,清算の結了等,,,2016-05-23,1,,,,,エイジェイビズテック,0
1367,6010402012693,登記記録の閉鎖等,0,2024-09-04,2024-08-09,有限会社ミワエンタープライズ,,有限会社,東京都,港区,新橋２丁目１２番２号,,13,103,1050004,,,2024-08-09,清算の結了等,,,2015-10-05,1,,,,,ミワエンタープライズ,0
1373,6010501029622,登記記録の閉鎖等,0,2024-09-04,2024-09-02,株式会社アスカ２１,,株式会社,東京都,台東区,台東２丁目１番３号,,13,106,1100016,,,2024-09-02,清算の結了等,,,2015-10-05,1,,,,,アスカニジュウイチ,0
1378,6010602005877,登記記録の閉鎖等,0,2024-09-04,2024-09-02,有限会社古川ヤスリ製作所,,有限会社,東京都,江東区,大島１丁目８番１４号,,13,108,1360072,,,2024-09-02,清算の結了等,,,2015-10-05,1,,,,,フルカワヤスリセイサクジョ,0
1416,6020001003614,登記記録の閉鎖等,0,2024-09-04,2024-08-23,株式会社インテリア・イン双葉,,株式会社,神奈川県,横浜市西区,南幸１丁目５番１号,,14,103,2200005,,,2024-08-23,清算の結了等,,,2015-10-05,1,,,,,インテリアインフタバ,0
1421,6020002075223,登記記録の閉鎖等,0,2024-09-04,2024-08-15,有限会社オフィスＤＨ,,有限会社,神奈川県,横浜市中区,本牧緑ケ丘９６番地,,14,104,2310832,,,2024-08-15,清算の結了等,,,2015-10-05,1,,,,,オフィスディーエイチ,0
1423,6020003012365,登記記録の閉鎖等,0,2024-09-04,2024-08-15,ＹＨＮ合同会社,,合同会社,神奈川県,横浜市西区,高島２丁目１０－１３,,14,103,2200011,,,2024-08-15,清算の結了等,,,2017-02-09,1,,,,,ワイエイチエヌ,0
1425,6021001058763,登記記録の閉鎖等,0,2024-09-04,2024-09-02,株式会社ＮＩＡ,,株式会社,神奈川県,相模原市中央区,矢部４丁目１０番６号,,14,152,2520232,,,2024-09-02,清算の結了等,,,2016-03-14,1,,,,,エヌアイエー,0
1443,6030002082747,登記記録の閉鎖等,0,2024-09-04,2024-08-30,有限会社武塚屋酒店,,有限会社,埼玉県,鴻巣市,天神１丁目３番２４号,,11,217,3650036,,,2024-08-30,清算の結了等,,,2015-10-05,1,,,,,タケツカヤサケテン,0
1456,6040002072929,登記記録の閉鎖等,0,2024-09-04,2024-08-30,有限会社木村屋,,有限会社,千葉県,市原市,牛久８９２番地の６,,12,219,2900225,,,2024-08-30,合併による解散等,2220001008745,令和６年８月２１日石川県白山市松本町２５１２番地株式会社クスリのアオキ（2220001008745）に合併し解散,2015-10-05,1,,,,,,0
1460,6040005002065,登記記録の閉鎖等,0,2024-09-04,2024-08-26,ＮＰＯ法人制度融資・金融相談・経済活動アドバイザー協会,,その他の設立登記法人,千葉県,千葉市若葉区,貝塚１丁目１２番８号,,12,104,2640020,,,2024-08-26,清算の結了等,,,2015-10-05,1,,,,,セイドユウシキンユウソウダンケイザイカツドウアドバイザーキョウカイ,0
1479,6080101001660,登記記録の閉鎖等,0,2024-09-04,2024-09-02,株式会社藤和工業,,株式会社,静岡県,沼津市,新沢田町７番３８号,,22,203,4100003,,,2024-09-02,清算の結了等,,,2015-10-05,1,,,,,フジワコウギョウ,0
1482,6080101009101,登記記録の閉鎖等,0,2024-09-04,2024-09-02,東海精機株式会社,,株式会社,静岡県,富士市,五貫島５４２番地,,22,210,4160946,,,2024-09-02,清算の結了等,,,2015-10-05,1,,,,,トウカイセイキ,0
1486,6080402020434,登記記録の閉鎖等,0,2024-09-04,2024-08-30,有限会社東海断熱,,有限会社,静岡県,静岡市葵区,竜南３丁目１１番３６－１号,,22,101,4200804,,,2024-08-30,清算の結了等,,,2015-10-05,1,,,,,トウカイダンネツ,0
1490,6090002009760,登記記録の閉鎖等,0,2024-09-04,2024-08-28,丸十運送株式会社,,株式会社,山梨県,上野原市,八ツ沢２１９３番地２５２,,19,212,4090133,,,2024-08-28,清算の結了等,,,2015-10-05,1,,,,,,0
1521,6120005016354,登記記録の閉鎖等,0,2024-09-04,2024-09-02,ＮＰＯ法人夢桜ホーム,,その他の設立登記法人,大阪府,枚方市,津田山手２丁目１８番１号,,27,210,5730128,,,2024-09-02,清算の結了等,,,2015-10-05,1,,,,,ユメサクラホーム,0
1562,6240002037696,登記記録の閉鎖等,0,2024-09-04,2024-09-02,有限会社栃木商会,,有限会社,広島県,大竹市,西栄３丁目８番１１号,,34,211,7390603,,,2024-09-02,清算の結了等,,,2015-10-05,1,,,,,トチギショウカイ,0
1590,6340001016682,登記記録の閉鎖等,0,2024-09-04,2024-08-28,大口マテリアル株式会社,,株式会社,鹿児島県,伊佐市,大口牛尾１７４６番地２,,46,224,8952501,,,2024-08-28,清算の結了等,,,2015-10-05,1,,,,,オオクチマテリアル,0
1591,6340001019396,登記記録の閉鎖等,0,2024-09-04,2024-09-02,株式会社中野一級建築士事務所,,株式会社,鹿児島県,大島郡知名町,大字正名１２０番地,,46,534,8919224,,,2024-09-02,清算の結了等,,,2016-06-09,1,,,,,ナカノイッキュウケンチクシジムショ,0
1603,6390001012058,登記記録の閉鎖等,0,2024-09-04,2024-08-27,株式会社マーケティング・トレジャー,,株式会社,山形県,山形市,十日町２丁目２番５－１８０９号,,06,201,9900031,,,2024-08-27,清算の結了等,,,2015-10-05,1,,,,,マーケテングトレジャー,0
1613,6460105001899,登記記録の閉鎖等,0,2024-09-04,2024-08-29,特定非営利活動法人とかちキムンカムイの森,,その他の設立登記法人,北海道,中川郡幕別町,札内青葉町３００番地の９７,,01,643,0890541,,,2024-08-29,清算の結了等,,,2015-10-05,1,,,,,トカチキムンカムイノモリ,0
1639,7010102004750,登記記録の閉鎖等,0,2024-09-04,2024-09-02,ドイツ技研有限会社,,有限会社,東京都,八王子市,子安町２丁目２６番１１号,,13,201,1920904,,,2024-09-02,清算の結了等,,,2015-10-05,1,,,,,ドイツギケン,0
1654,7010602020999,登記記録の閉鎖等,0,2024-09-04,2024-09-03,有限会社マスト,,有限会社,東京都,墨田区,向島３丁目７番２－６０６号,,13,107,1310033,,,2024-09-03,清算の結了等,,,2015-10-05,1,,,,,,0
1678,7011302006553,登記記録の閉鎖等,0,2024-09-04,2024-08-29,有限会社ファイン,,有限会社,東京都,杉並区,荻窪５丁目１６番５号,,13,115,1670051,,,2024-08-29,清算の結了等,,,2015-10-05,1,,,,,ファイン,0
1693,7013202012284,登記記録の閉鎖等,0,2024-09-04,2024-08-14,有限会社ＴＭＣ,,有限会社,東京都,目黒区,中目黒２丁目８番１７－５０１号,,13,110,1530061,,,2024-08-14,清算の結了等,,,2015-10-05,1,,,,,ティーエムシー,0
1695,7020001063533,登記記録の閉鎖等,0,2024-09-04,2024-08-15,株式会社ＭＣスタジオ,,株式会社,神奈川県,横浜市瀬谷区,阿久和西１丁目３７番地３,,14,114,2460025,,,2024-08-15,清算の結了等,,,2015-10-05,1,,,,,エムシースタジオ,0
1716,7030002013610,登記記録の閉鎖等,0,2024-09-04,2024-09-02,有限会社明和梱包,,有限会社,埼玉県,さいたま市西区,大字宝来１２１３番地,,11,101,3310074,,,2024-09-02,清算の結了等,,,2015-10-05,1,,,,,メイワコンポウ,0
1727,7050001006563,登記記録の閉鎖等,0,2024-09-04,2024-08-29,茨城住研株式会社,,株式会社,茨城県,ひたちなか市,大字足崎１４５７番地の２６,,08,221,3120003,,,2024-08-29,清算の結了等,,,2015-10-05,1,,,,,イバラキジュウケン,0
1738,7080102014999,登記記録の閉鎖等,0,2024-09-04,2024-08-30,有限会社ヴォーグ,,有限会社,静岡県,富士市,中央町１丁目６番１３号,,22,210,4170052,,,2024-08-30,清算の結了等,,,2015-10-05,1,,,,,ヴォーグ,0
1741,7100002015707,登記記録の閉鎖等,0,2024-09-04,2024-08-26,有限会社カクマハイヤー,,有限会社,長野県,東御市,島川原６９３番地の９,,20,219,3890401,,,2024-08-26,清算の結了等,,,2015-10-05,1,,,,,カクマハイヤー,0
1742,7100005010399,登記記録の閉鎖等,0,2024-09-04,2024-08-30,特定非営利活動法人楽々安曇野,,その他の設立登記法人,長野県,安曇野市,豊科高家６４９５番地４６,,20,220,3998204,,,2024-08-30,清算の結了等,,,2015-10-05,1,,,,,ラクラクアヅミノ,0
1744,7110002013585,登記記録の閉鎖等,0,2024-09-04,2024-08-30,有限会社宇田畳敷物店,,有限会社,新潟県,五泉市,本町１丁目７番１６号,,15,218,9591865,,,2024-08-30,清算の結了等,,,2015-10-05,1,,,,,ウダタタミシキモノテン,0
1750,7120001183627,登記記録の閉鎖等,0,2024-09-04,2024-09-02,株式会社お掃除バンク,,株式会社,大阪府,大阪市中央区,上汐１丁目２番１７号,,27,128,5420064,,,2024-09-02,清算の結了等,,,2015-10-05,1,,,,,,0
1754,7120001220041,登記記録の閉鎖等,0,2024-09-04,2024-09-02,丸金樹脂パイプ株式会社,,株式会社,大阪府,大阪市西区,立売堀４丁目４番２２号,,27,106,5500012,,,2024-09-02,合併による解散等,6120001220042,令和６年９月１日大阪市西区立売堀四丁目４番２２号丸金パイプ株式会社（6120001220042）に合併し解散,2019-04-12,1,,,,,マルキンジュシパイプ,0
1766,7120002044340,登記記録の閉鎖等,0,2024-09-04,2024-09-02,有限会社ケーティープランニング,,有限会社,奈良県,生駒郡平群町,大字梨本７７０番地の４,,29,342,6360931,,,2024-09-02,清算の結了等,,,2015-10-05,1,,,,,ケーティープランニング,0
1779,7120102001191,登記記録の閉鎖等,0,2024-09-04,2024-09-02,有限会社華山,,有限会社,大阪府,堺市東区,西野４１１番地の１０,,27,143,5998125,,,2024-09-02,清算の結了等,,,2015-10-05,1,,,,,カザン,0
1784,7122001020561,登記記録の閉鎖等,0,2024-09-04,2024-09-03,よしおか株式会社,,株式会社,大阪府,八尾市,山本町南４丁目１番１４号,,27,212,5810013,,,2024-09-03,清算の結了等,,,2015-10-05,1,,,,,ヨシオカ,0
1807,7180002069712,登記記録の閉鎖等,0,2024-09-04,2024-08-28,有限会社濱江工業所,,有限会社,愛知県,小牧市,東４丁目１７１番地,,23,219,4850831,,,2024-08-28,清算の結了等,,,2015-10-05,1,,,,,ハマエコウギョウショ,0
1809,7180005018591,登記記録の閉鎖等,0,2024-09-04,2024-08-26,医療法人明翠会,,その他の設立登記法人,愛知県,春日井市,松新町２丁目１１１番地,,23,206,4860931,,,2024-08-26,清算の結了等,,,2019-12-24,1,,,,,メイスイカイ,0
1817,7190002017240,登記記録の閉鎖等,0,2024-09-04,2024-09-02,有限会社水谷デンタルスタジオ,,有限会社,三重県,桑名市,相川町６５番地,,24,205,5110052,,,2024-09-02,清算の結了等,,,2015-10-05,1,,,,,ミズタニデンタルスタジオ,0
1823,7210001000938,登記記録の閉鎖等,0,2024-09-04,2024-09-02,株式会社技建調査設計,,株式会社,福井県,福井市,三ツ屋１丁目１０３番地,,18,201,9100038,,,2024-09-02,清算の結了等,,,2015-10-05,1,,,,,ギケンチョウサセッケイ,0
1830,7250001015783,登記記録の閉鎖等,0,2024-09-04,2024-09-02,高専ものづくりアドバンス株式会社,,株式会社,山口県,下松市,昭和町１丁目９番１５号,,35,207,7440062,,,2024-09-02,清算の結了等,,,2016-02-17,1,,,,,,0
1851,7320002016963,登記記録の閉鎖等,0,2024-09-04,2024-09-02,有限会社高谷商店,,有限会社,大分県,佐伯市,蒲江大字蒲江浦２３８８番地,,44,205,8762401,,,2024-09-02,清算の結了等,,,2015-10-05,1,,,,,,0
1856,7350002010146,登記記録の閉鎖等,0,2024-09-04,2024-08-28,有限会社富城工務店,,有限会社,宮崎県,児湯郡新富町,大字上富田７４７４番地,,45,402,8891403,,,2024-08-28,清算の結了等,,,2015-10-05,1,,,,,トミシロコウムテン,0
1865,7370105001073,登記記録の閉鎖等,0,2024-09-04,2024-08-21,農事組合法人山田契約組合,,その他の設立登記法人,宮城県,伊具郡丸森町,舘矢間山田字小原瀬東２５番地,,04,341,9812103,,,2024-08-21,清算の結了等,,,2015-10-05,1,,,,,ヤマダケイヤククミアイ,0
1955,8020001032306,登記記録の閉鎖等,0,2024-09-04,2024-08-13,株式会社豊受建設,,株式会社,神奈川県,横浜市港北区,新吉田東１丁目７８番３２号,,14,109,2230058,,,2024-08-13,清算の結了等,,,2015-10-05,1,,,,,トヨウケケンセツ,0
1959,8020001126875,登記記録の閉鎖等,0,2024-09-04,2024-08-13,株式会社ＭＳ－Ｏｎｅ,,株式会社,神奈川県,川崎市宮前区,有馬１丁目１番２５号,,14,136,2160003,,,2024-08-13,清算の結了等,,,2018-06-26,1,,,,,エムエスワン,0
1964,8021001020267,登記記録の閉鎖等,0,2024-09-04,2024-09-02,株式会社日本ソフトシステムズ,,株式会社,神奈川県,厚木市,旭町４丁目８番２３号,,14,212,2430014,,,2024-09-02,清算の結了等,,,2015-10-05,1,,,,,ニホンソフトシステムズ,0
1965,8021001048317,登記記録の閉鎖等,0,2024-09-04,2024-09-02,株式会社ユナイテッド・ワークス,,株式会社,神奈川県,鎌倉市,岡本１丁目１５番１６号,,14,204,2470072,,,2024-09-02,清算の結了等,,,2015-10-05,1,,,,,ユナイテッドワークス,0
1973,8021003008665,登記記録の閉鎖等,0,2024-09-04,2024-08-28,合同会社ひかり,,合同会社,神奈川県,茅ヶ崎市,柳島海岸１２８０番地６２,,14,207,2530063,,,2024-08-28,清算の結了等,,,2019-09-12,1,,,,,ヒカリ,0
1989,8040002028573,登記記録の閉鎖等,0,2024-09-04,2024-08-27,有限会社エンタープライズイワイ,,有限会社,千葉県,八千代市,大和田３２２番地１５,,12,221,2760045,,,2024-08-27,清算の結了等,,,2015-10-05,1,,,,,エンタープライズイワイ,0
2004,8080002007111,登記記録の閉鎖等,0,2024-09-04,2024-08-28,有限会社リカセミナー,,有限会社,静岡県,静岡市駿河区,下川原２丁目３４番３１号,,22,102,4210113,,,2024-08-28,清算の結了等,,,2015-10-05,1,,,,,,0
2005,8080102014453,登記記録の閉鎖等,0,2024-09-04,2024-09-02,有限会社津田辰,,有限会社,静岡県,富士市,津田町１８８番地,,22,210,4170035,,,2024-09-02,清算の結了等,,,2015-10-05,1,,,,,ツタタツ,0
2009,8080405006148,登記記録の閉鎖等,0,2024-09-04,2024-08-30,農事組合法人茶ピア茶業組合,,その他の設立登記法人,静岡県,袋井市,岡崎７１５７番地の１,,22,216,4371312,,,2024-08-30,清算の結了等,,,2015-10-05,1,,,,,チャピアチャギョウクミアイ,0
2011,8100002003545,登記記録の閉鎖等,0,2024-09-04,2024-08-23,長野県福祉企画設計有限会社,,有限会社,長野県,長野市,若里６丁目１３番１３号,,20,201,3800928,,,2024-08-23,清算の結了等,,,2015-10-05,1,,,,,ナガノケンフクシキカクセッケイ,0
2033,8120101057795,登記記録の閉鎖等,0,2024-09-04,2024-08-30,株式会社堺文殊の知恵,,株式会社,大阪府,堺市南区,高倉台４丁１７番８号,,27,145,5900117,,,2024-08-30,清算の結了等,,,2018-02-14,1,,,,,サカイモンジュノチエ,0
2035,8120102000738,登記記録の閉鎖等,0,2024-09-04,2024-08-29,有限会社エヌテイメデイカルサービス,,有限会社,大阪府,堺市南区,晴美台１丁２６番２号,,27,145,5900113,,,2024-08-29,清算の結了等,,,2015-10-05,1,,,,,エヌティメディカルサービス,0
2036,8120102011751,登記記録の閉鎖等,0,2024-09-04,2024-09-02,有限会社愛施多,,有限会社,大阪府,堺市南区,赤坂台４丁２０－６,,27,145,5900144,,,2024-09-02,清算の結了等,,,2015-10-05,1,,,,,,0
2037,8120102022113,登記記録の閉鎖等,0,2024-09-04,2024-09-02,ファサードホームコンストラクション有限会社,,有限会社,大阪府,泉佐野市,羽倉崎１丁目２番１５号,,27,213,5980046,,,2024-09-02,清算の結了等,,,2015-10-05,1,,,,,,0
2071,8180302016776,登記記録の閉鎖等,0,2024-09-04,2024-08-29,有限会社塩井川建材,,有限会社,愛知県,安城市,赤松町隅田川２８番地３,,23,212,4460046,,,2024-08-29,清算の結了等,,,2015-10-05,1,,,,,シオイガワケンザイ,0
2084,8250003002812,登記記録の閉鎖等,0,2024-09-04,2024-09-03,黒潟工業合同会社,,合同会社,山口県,山口市,小郡黄金町６番２５－１１０３号,,35,203,7540021,,,2024-09-03,清算の結了等,,,2021-04-19,1,,,,,クロカタコウギョウ,0
2086,8260001025137,登記記録の閉鎖等,0,2024-09-04,2024-08-27,株式会社プラスペリティ,,株式会社,岡山県,岡山市北区,平和町５－１５,,33,101,7000827,,,2024-08-27,清算の結了等,,,2015-10-05,1,,,,,プラスペリティ,0
2096,8290001095937,登記記録の閉鎖等,0,2024-09-04,2024-07-25,株式会社ＬＥＩＦ,,株式会社,福岡県,福岡市博多区,博多駅前３丁目２３番２２号,,40,132,8120011,,,2024-07-25,清算の結了等,,,2022-01-12,1,,,,,リーフ,0
2105,8290005016393,登記記録の閉鎖等,0,2024-09-04,2024-07-19,一般社団法人Ｒｅ　Ａｌｌ　Ａｃａｄｅｍｙ,,その他の設立登記法人,福岡県,福岡市東区,雁の巣２丁目１０番５６号,,40,131,8110206,,,2024-07-19,清算の結了等,,,2017-05-17,1,,,,,リオールアカデミー,0
2106,8290801011787,登記記録の閉鎖等,0,2024-09-04,2024-09-02,株式会社さくらサービス,,株式会社,福岡県,北九州市八幡西区,陣原１丁目１番５１号,,40,109,8070821,,,2024-09-02,合併による解散等,7290801009196,令和６年９月１日北九州市八幡西区陣原一丁目１番４５号株式会社サンシャイン（7290801009196）に合併し解散,2015-10-05,1,,,,,サクラサービス,0
2131,8370002016553,登記記録の閉鎖等,0,2024-09-04,2024-08-22,有限会社日本脳と人間科学・社会塾,,有限会社,宮城県,仙台市青葉区,広瀬町３番３１－１００２号,,04,101,9800873,,,2024-08-22,清算の結了等,,,2015-10-05,1,,,,,ニホンノウトニンゲンカガクシャカイジュク,0
2138,8380002023516,登記記録の閉鎖等,0,2024-09-04,2024-09-02,向陽物産有限会社,,有限会社,福島県,いわき市,泉町５丁目１９番地の２２,,07,204,9718185,,,2024-09-02,合併による解散等,8380001013492,令和６年９月１日福島県いわき市泉町下川字八合６１番地の４トラスト企画株式会社（8380001013492）に合併し解散,2015-10-05,1,,,,,,0
2145,8420002013537,登記記録の閉鎖等,0,2024-09-04,2024-08-30,有限会社スナダ種苗農材,,有限会社,青森県,弘前市,大字松原東２丁目９番地１,,02,202,0368141,,,2024-08-30,清算の結了等,,,2015-10-05,1,,,,,スナダシュビョウノウザイ,0
2180,9010003029119,登記記録の閉鎖等,0,2024-09-04,2024-08-27,合同会社ダブルオーエイト,,合同会社,東京都,中央区,日本橋１丁目４番１号,,13,102,1030027,,,2024-08-27,清算の結了等,,,2019-01-22,1,,,,,ダブルオーエイト,0
2185,9010102006670,登記記録の閉鎖等,0,2024-09-04,2024-09-03,有限会社ミツヤ,,有限会社,東京都,八王子市,中山４７番地５,,13,201,1920374,,,2024-09-03,清算の結了等,,,2015-10-05,1,,,,,ミツヤ,0
2199,9010501002312,登記記録の閉鎖等,0,2024-09-04,2024-09-02,株式会社音頭工業所,,株式会社,東京都,台東区,日本堤２丁目３１番１３号,,13,106,1110021,,,2024-09-02,清算の結了等,,,2015-10-05,1,,,,,オンドウコウギョウショ,0
2202,9010602027480,登記記録の閉鎖等,0,2024-09-04,2024-09-03,有限会社共立電機サービス,,有限会社,東京都,江東区,南砂４丁目１２番１０－８１１号,,13,108,1360076,,,2024-09-03,清算の結了等,,,2015-10-05,1,,,,,,0
2220,9011101017031,登記記録の閉鎖等,0,2024-09-04,2024-08-22,ノバコンサルティング株式会社,,株式会社,東京都,新宿区,四谷３丁目１２番地３,,13,104,1600004,,,2024-08-22,清算の結了等,,,2015-10-05,1,,,,,ノバコンサルティング,0
2238,9011603003652,登記記録の閉鎖等,0,2024-09-04,2024-07-22,合同会社ＬＥＸ,,合同会社,東京都,練馬区,上石神井１丁目２０番１７号ＷＡＲＡＫＵ上石神井１０２号,,13,120,1770044,,,2024-07-22,清算の結了等,,,2022-07-21,1,,,,,レックス,0
2255,9020001137731,登記記録の閉鎖等,0,2024-09-04,2024-08-13,株式会社スペースクリエイト,,株式会社,神奈川県,横浜市港北区,大倉山２丁目２９番２１号,,14,109,2220037,,,2024-08-13,清算の結了等,,,2020-09-15,1,,,,,スペースクリエイト,0
2260,9020005016023,登記記録の閉鎖等,0,2024-09-04,2024-08-13,一般財団法人小池汪記念財団,,その他の設立登記法人,神奈川県,川崎市宮前区,宮崎２丁目８番地５,,14,136,2160033,,,2024-08-13,清算の結了等,,,2023-06-07,1,,,,,コイケオウキネンザイダン,0
2272,9030002096587,登記記録の閉鎖等,0,2024-09-04,2024-08-30,有限会社新雄建設,,有限会社,埼玉県,東松山市,大字下青鳥３５１番地３,,11,212,3550075,,,2024-08-30,清算の結了等,,,2015-10-05,1,,,,,シンユウケンセツ,0
2276,9040001025042,登記記録の閉鎖等,0,2024-09-04,2024-08-21,ナミキ創業株式会社,,株式会社,千葉県,いすみ市,岬町中滝２８８１番１号,,12,238,2994623,,,2024-08-21,清算の結了等,,,2015-10-05,1,,,,,ナミキソウギョウ,0
2277,9040001066004,登記記録の閉鎖等,0,2024-09-04,2024-08-27,辻田商事株式会社,00019379,株式会社,千葉県,柏市,若柴２５７番地,,12,217,2770871,,,2024-08-27,清算の結了等,,,2015-10-05,1,,,,,ツジタショウジ,0
2287,9040005010387,登記記録の閉鎖等,0,2024-09-04,2024-08-28,松尾商工業協同組合,,その他の設立登記法人,千葉県,山武市,松尾町松尾１８３番地の４,,12,237,2891514,,,2024-08-28,清算の結了等,,,2015-10-05,1,,,,,マツオショウコウギョウ,0
2293,9060005001525,登記記録の閉鎖等,0,2024-09-04,2024-08-28,特定非営利活動法人ピュアライフ,,その他の設立登記法人,栃木県,宇都宮市,一条４丁目５番２８号,,09,201,3200821,,,2024-08-28,清算の結了等,,,2015-10-05,1,,,,,ピュアライフ,0
2294,9070001019578,登記記録の閉鎖等,0,2024-09-04,2024-09-02,大栄食品株式会社,,株式会社,群馬県,太田市,矢場町甲２８８２番地１,,10,205,3730803,,,2024-09-02,清算の結了等,,,2015-10-05,1,,,,,ダイエイショクヒン,0
2297,9080402000210,登記記録の閉鎖等,0,2024-09-04,2024-09-02,有限会社アイ・プランニング,,有限会社,静岡県,浜松市中央区,泉１丁目５番２１号,,22,138,4338124,,,2024-09-02,清算の結了等,,,2015-10-05,1,,,,,アイプランニング,0
2299,9100002017486,登記記録の閉鎖等,0,2024-09-04,2024-08-26,有限会社千代田酒店,,有限会社,長野県,下高井郡野沢温泉村,大字豊郷９７４０番地の１,,20,563,3892502,,,2024-08-26,清算の結了等,,,2015-10-05,1,,,,,チヨダサケテン,0
2307,9120001067019,登記記録の閉鎖等,0,2024-09-04,2024-09-02,段野昆布株式会社,,株式会社,大阪府,大阪市北区,天神橋１丁目１４番１４号,,27,127,5300041,,,2024-09-02,清算の結了等,,,2015-10-05,1,,,,,ダンノコンブ,0
2344,9150002005833,登記記録の閉鎖等,0,2024-09-04,2024-08-30,有限会社中澤加工所,,有限会社,奈良県,天理市,二階堂北菅田町５３番地２,,29,204,6320088,,,2024-08-30,清算の結了等,,,2015-10-05,1,,,,,ナカザワカコウショ,0
2348,9170001008174,登記記録の閉鎖等,0,2024-09-04,2024-09-02,ソノダ紙業印刷株式会社,,株式会社,和歌山県,紀の川市,杉原１８番地の１,,30,208,6496565,,,2024-09-02,清算の結了等,,,2015-10-05,1,,,,,ソノダシギョウインサツ,0
2350,9180001110111,登記記録の閉鎖等,0,2024-09-04,2024-08-28,株式会社経営者の親身の相談相手,,株式会社,愛知県,長久手市,蟹原２３０２番地,,23,238,4801142,,,2024-08-28,清算の結了等,,,2015-10-05,1,,,,,ケイエイシャノシンミノソウダンアイテ,0
2352,9180002069958,登記記録の閉鎖等,0,2024-09-04,2024-08-28,有限会社松浦管工設備,,有限会社,愛知県,小牧市,大字間々原新田字古天王６６８番地,,23,219,4850016,,,2024-08-28,清算の結了等,,,2015-10-05,1,,,,,マツウラカンコウセツビ,0
2371,9280001000079,登記記録の閉鎖等,0,2024-09-04,2024-09-04,株式会社井上建設,,株式会社,島根県,松江市,雑賀町６２８番地,,32,201,6900056,,,2024-09-04,清算の結了等,,,2015-10-05,1,,,,,イノウエケンセツ,0
2385,9290803004243,登記記録の閉鎖等,0,2024-09-04,2024-09-02,合同会社Ｆｉｌｌｉｎｇ　ｌｏｏｐ,,合同会社,福岡県,北九州市小倉北区,熊谷２丁目６番２－４０２号,,40,106,8030864,,,2024-09-02,清算の結了等,,,2022-11-04,1,,,,,フィリングループ,0
2397,9330003006589,登記記録の閉鎖等,0,2024-09-04,2024-08-29,合同会社グランフィーネ後福,,合同会社,熊本県,宇城市,松橋町萩尾２２０９番地３,,43,213,8690513,,,2024-08-29,清算の結了等,,,2016-01-14,1,,,,,グランフィーネゴフク,0
2398,9330003008107,登記記録の閉鎖等,0,2024-09-04,2024-08-27,合同会社起笑家,,合同会社,熊本県,熊本市中央区,水前寺３丁目２９番１４－３０１号,,43,101,8620950,,,2024-08-27,清算の結了等,,,2019-10-04,1,,,,,キショウヤ,0
2416,9430001082168,登記記録の閉鎖等,0,2024-09-04,2024-09-02,株式会社Ｇ’Ｄｅｔａｉｌ,,株式会社,北海道,札幌市中央区,北一条西２６丁目５番地１,,01,101,0640821,,,2024-09-02,清算の結了等,,,2020-08-25,1,,,,,ジーディテール,0
2424,9460002001702,登記記録の閉鎖等,0,2024-09-04,2024-09-03,有限会社谷技研,,有限会社,北海道,釧路市,鳥取南８丁目１２番３５号,,01,206,0840905,,,2024-09-03,清算の結了等,,,2015-10-05,1,,,,,タニギケン,0
