sequenceNumber,corporateNumber,process,correct,updateDate,changeDate,name,nameImageId,kind,prefectureName,cityName,streetNumber,addressImageId,prefectureCode,cityCode,postCode,addressOutside,addressOutsideImageId,closeDate,closeCause,successorCorporateNumber,changeCause,assignmentDate,latest,enName,enPrefectureName,enCityName,enAddressOutside,furigana,hihyoji
15,1010401121814,登記記録の閉鎖等,0,2024-07-22,2024-07-18,みずきフレンド株式会社,,株式会社,東京都,港区,六本木４丁目８番７号六本木嶋田ビル５Ｆ,,13,103,1060032,,,2024-07-18,合併による解散等,2040001053000,令和６年７月１日千葉県富津市亀沢６１９番地富津ブリストルヒル株式会社（2040001053000）に合併し解散,2015-12-01,1,,,,,,0
27,1010601059581,登記記録の閉鎖等,0,2024-07-22,2024-07-17,株式会社ｔｅＮｅｔ,,株式会社,東京都,墨田区,菊川２丁目２番１０号,,13,107,1300024,,,2024-07-17,清算の結了等,,,2021-07-05,1,,,,,テネット,0
45,1011001073207,登記記録の閉鎖等,0,2024-07-22,2024-07-16,株式会社リアルネットプロ,,株式会社,東京都,新宿区,西新宿６丁目１０－１日土地西新宿ビル１２Ｆ,,13,104,1600023,,,2024-07-16,合併による解散等,8350001008198,令和６年７月１日宮崎県都城市上町１３街区１８号日本情報クリエイト株式会社（8350001008198）に合併し解散,2015-10-05,1,,,,,リアルネットプロ,0
53,1011005007763,登記記録の閉鎖等,0,2024-07-22,2024-07-01,アセラス箱根特定目的会社,,その他の設立登記法人,東京都,渋谷区,広尾１丁目１１番２号ＡＩＯＳ広尾ビル５０５,,13,113,1500012,,,2024-07-01,清算の結了等,,,2018-07-12,1,,,,,アセラスハコネ,0
84,1013301022702,登記記録の閉鎖等,0,2024-07-22,2024-07-08,３Ｈクリニカルトライアル株式会社,,株式会社,東京都,豊島区,南池袋１丁目１３番２３号,,13,116,1710022,,,2024-07-08,合併による解散等,4013301027145,令和６年７月１日東京都豊島区南池袋一丁目１３番２３号３Ｈメディソリューション株式会社（4013301027145）に合併し解散,2015-10-05,1,,,,,スリーエイチクリニカルトライアル,0
85,1013301043599,登記記録の閉鎖等,0,2024-07-22,2024-07-10,株式会社ＢＡＬＲ,,株式会社,東京都,豊島区,南池袋１丁目２１－５第７野萩ビルＢ１,,13,116,1710022,,,2024-07-10,清算の結了等,,,2019-03-15,1,,,,,ボーラー,0
106,1030001084939,登記記録の閉鎖等,0,2024-07-22,2024-07-17,株式会社大秦,,株式会社,埼玉県,熊谷市,万吉２６１７番地,,11,202,3600161,,,2024-07-17,清算の結了等,,,2015-10-05,1,,,,,ダイシン,0
132,1070003001995,登記記録の閉鎖等,0,2024-07-22,2024-07-17,ケアサポート杉の子合同会社,,合同会社,群馬県,前橋市,駒形町４８０番地３２,,10,201,3792122,,,2024-07-17,清算の結了等,,,2015-10-05,1,,,,,ケアサポートスギノコ,0
134,1080101023478,登記記録の閉鎖等,0,2024-07-22,2024-07-11,デンネット株式会社,,株式会社,静岡県,伊豆の国市,古奈１６２番地の１朝日ビル２０２号,,22,225,4102201,,,2024-07-11,清算の結了等,,,2022-08-09,1,,,,,デンネット,0
139,1100005002402,登記記録の閉鎖等,0,2024-07-22,2024-07-04,医療法人あおば会,,その他の設立登記法人,長野県,須坂市,大字須坂１２２４番地２０,,20,207,3820000,,,2024-07-04,清算の結了等,,,2015-10-05,1,,,,,アオバカイ,0
157,1120002046160,登記記録の閉鎖等,0,2024-07-22,2024-07-12,有限会社ディディオー,,有限会社,滋賀県,大津市,荒川５番地の５－１３１４,,25,201,5200513,,,2024-07-12,清算の結了等,,,2015-10-05,1,,,,,ディディオー,0
158,1120003013663,登記記録の閉鎖等,0,2024-07-22,2024-07-05,合同会社ｗｉｓｈ,,合同会社,大阪府,大阪市北区,梅田１丁目２－２－２００大阪駅前第２ビル２階,,27,127,5300001,,,2024-07-05,合併による解散等,3120003013240,令和６年７月５日大阪市北区梅田一丁目２－２－２００大阪駅前第２ビル２階合同会社なな（3120003013240）に合併し解散,2017-12-07,1,,,,,ウィッシュ,0
160,1120005000643,登記記録の閉鎖等,0,2024-07-22,2024-07-18,企業組合阿倍野山兼食糧店,,その他の設立登記法人,大阪府,大阪市阿倍野区,天王寺町北２丁目２７番８号,,27,119,5450001,,,2024-07-18,清算の結了等,,,2015-10-05,1,,,,,アベノヤマカネショクリョウテン,0
170,1122001001641,登記記録の閉鎖等,0,2024-07-22,2024-07-17,河西ホーム株式会社,,株式会社,大阪府,東大阪市,加納８丁目１番５号,,27,227,5780901,,,2024-07-17,清算の結了等,,,2015-10-05,1,,,,,カワニシホーム,0
177,1140002062239,登記記録の閉鎖等,0,2024-07-22,2024-07-16,有限会社おうち,,有限会社,兵庫県,加西市,北条町古坂１丁目８６番地,,28,220,6752303,,,2024-07-16,清算の結了等,,,2015-10-05,1,,,,,オウチ,0
180,1150002011087,登記記録の閉鎖等,0,2024-07-22,2024-07-18,有限会社武田設計,,有限会社,奈良県,五條市,三在町１２７番地の１,,29,207,6370002,,,2024-07-18,清算の結了等,,,2015-10-05,1,,,,,タケダセッケイ,0
194,1180003024309,登記記録の閉鎖等,0,2024-07-22,2024-07-03,合同会社上村マネージメント,,合同会社,愛知県,名古屋市港区,港楽３丁目１３番２号,,23,111,4550014,,,2024-07-03,清算の結了等,,,2022-09-30,1,,,,,ウエムラマネージメント,0
199,1190001005409,登記記録の閉鎖等,0,2024-07-22,2024-07-18,三鈴建設株式会社,,株式会社,三重県,鈴鹿市,西条６丁目１００番地,,24,207,5130809,,,2024-07-18,清算の結了等,,,2015-10-05,1,,,,,ミスズケンセツ,0
206,1210001014910,登記記録の閉鎖等,0,2024-07-22,2024-07-11,アートボーン企画株式会社,,株式会社,福井県,勝山市,郡町２丁目６番４４号,,18,206,9110035,,,2024-07-11,清算の結了等,,,2015-10-05,1,,,,,アートボーンキカク,0
214,1260002019094,登記記録の閉鎖等,0,2024-07-22,2024-07-04,瀬戸内広告有限会社,,有限会社,岡山県,岡山市南区,当新田４４４－２６,,33,104,7000956,,,2024-07-04,清算の結了等,,,2015-10-05,1,,,,,セトウチコウコク,0
215,1260002025596,登記記録の閉鎖等,0,2024-07-22,2024-07-10,有限会社上野製作所,,有限会社,岡山県,井原市,岩倉町３４５２番地,,33,207,7150016,,,2024-07-10,清算の結了等,,,2015-10-05,1,,,,,ウエノセイサクショ,0
220,1290001004813,登記記録の閉鎖等,0,2024-07-22,2024-06-21,株式会社船越建築設計事務所,,株式会社,福岡県,福岡市東区,舞松原２丁目２８番１号,,40,131,8130042,,,2024-06-21,清算の結了等,,,2015-10-05,1,,,,,フナコシケンチクセッケイジムショ,0
245,1360001026635,登記記録の閉鎖等,0,2024-07-22,2024-07-17,福貿株式会社,,株式会社,沖縄県,沖縄市,美里５丁目２４番１８号２０２号室,,47,211,9042153,,,2024-07-17,清算の結了等,,,2019-12-23,1,,,,,フクボウ,0
248,1370001042598,登記記録の閉鎖等,0,2024-07-22,2024-07-03,株式会社トータスフーズ,,株式会社,宮城県,仙台市青葉区,本町２丁目１７番１７号,,04,101,9800014,,,2024-07-03,清算の結了等,,,2018-01-24,1,,,,,トータスフーズ,0
257,1380003004554,登記記録の閉鎖等,0,2024-07-22,2024-07-08,合同会社橘,,合同会社,福島県,福島市,野田町字道端２７番地バウム野田２０２,,07,201,9608055,,,2024-07-08,清算の結了等,,,2019-11-08,1,,,,,タチバナ,0
288,2010001190374,登記記録の閉鎖等,0,2024-07-22,2024-07-04,未来つなぐ基金株式会社,,株式会社,東京都,中央区,京橋２丁目２番１号京橋エドグラン１９階,,13,102,1040031,,,2024-07-04,清算の結了等,,,2018-03-20,1,,,,,ミライツナグキキン,0
289,2010001216229,登記記録の閉鎖等,0,2024-07-22,2024-06-24,株式会社ＧＩＲＩＧＩＲＩ,,株式会社,東京都,港区,南青山２丁目２番１５号,,13,103,1070062,,,2024-06-24,清算の結了等,,,2021-03-04,1,,,,,ギリギリ,0
309,2010403019460,登記記録の閉鎖等,0,2024-07-22,2024-07-08,合同会社ａｃｈｉｌｌｅａ,,合同会社,青森県,青森市,青葉１丁目１番地８,,02,201,0300846,,,2024-07-08,清算の結了等,,,2018-10-09,1,,,,,アキレア,0
312,2010405016019,登記記録の閉鎖等,0,2024-07-22,2024-07-02,一般社団法人日本デジタル動画マーケティング協会,,その他の設立登記法人,東京都,渋谷区,渋谷１丁目１５番１２号ＬＡＩＤＯＵＴＳＨＩＢＵＹＡ２０３,,13,113,1500002,,,2024-07-02,清算の結了等,,,2017-08-29,1,,,,,ニホンデジタルドウガマーケティングキョウカイ,0
322,2011001000721,登記記録の閉鎖等,0,2024-07-22,2024-07-02,株式会社亜貴,,株式会社,東京都,渋谷区,笹塚１丁目３０番３号ビラージュ笹塚ＩＩＩ１Ｆ,00053056,13,113,1510073,,,2024-07-02,清算の結了等,,,2015-10-05,1,,,,,アキ,0
323,2011001003071,登記記録の閉鎖等,0,2024-07-22,2024-07-01,株式会社ウエルネストゥエンティーワン,,株式会社,東京都,渋谷区,円山町５番４号フィールＡ渋谷７０２,,13,113,1500044,,,2024-07-01,合併による解散等,7011001032198,令和６年６月３０日東京都渋谷区円山町５番５号株式会社ウェル・エステート（7011001032198）に合併し解散,2015-10-05,1,,,,,ウェルネストゥエンティーワン,0
326,2011001109422,登記記録の閉鎖等,0,2024-07-22,2024-07-01,株式会社ディーンアンドデルーカカフェジャパン,,株式会社,東京都,目黒区,碑文谷５丁目１１番１１号,,13,110,1520003,,,2024-07-01,合併による解散等,5011001043791,令和６年７月１日東京都目黒区碑文谷五丁目１１番１１号株式会社ウェルカム（5011001043791）に合併し解散,2016-02-05,1,,,,,ディーンアンドデルーカカフェジャパン,0
329,2011001153924,登記記録の閉鎖等,0,2024-07-22,2024-07-02,株式会社ｓｅｒｉｎｙａ,,株式会社,東京都,渋谷区,神宮前６丁目２３番４号桑野ビル２階,,13,113,1500001,,,2024-07-02,清算の結了等,,,2023-04-19,1,,,,,セリニャ,0
349,2011801001324,登記記録の閉鎖等,0,2024-07-22,2024-07-17,株式会社京王地所,,株式会社,東京都,葛飾区,四つ木５丁目１４番１２号,,13,122,1240011,,,2024-07-17,合併による解散等,2011801016487,令和６年６月１日東京都品川区東五反田五丁目１７番１７号ＯＬＣ株式会社（2011801016487）に合併し解散,2015-10-05,1,,,,,ケイオウジショ,0
357,2012405002799,登記記録の閉鎖等,0,2024-07-22,2024-07-01,一般社団法人一橋大学コラボレーション・センター,,その他の設立登記法人,東京都,国立市,中２丁目１番地,,13,215,1860004,,,2024-07-01,合併による解散等,9012805002723,令和６年７月１日東京都国立市中二丁目１番地一般社団法人一橋大学知識共創機構（9012805002723）に合併し解散,2015-10-05,1,,,,,ヒトツバシダイガクコラボレーションセンター,0
363,2013301020795,登記記録の閉鎖等,0,2024-07-22,2024-07-10,株式会社カマタビル綜合管理,,株式会社,東京都,豊島区,南大塚２丁目３６番１号,,13,116,1700005,,,2024-07-10,清算の結了等,,,2015-10-05,1,,,,,カマタビルソウゴウカンリ,0
369,2013303004607,登記記録の閉鎖等,0,2024-07-22,2024-07-10,ＭＯＮＯ合同会社,,合同会社,東京都,豊島区,南大塚２丁目１１番地１０号ミモザビル３階,,13,116,1700005,,,2024-07-10,清算の結了等,,,2019-04-22,1,,,,,モノ,0
385,2021002030080,登記記録の閉鎖等,0,2024-07-22,2024-07-18,有限会社福健コーポレーション,,有限会社,神奈川県,相模原市南区,磯部４４４番地,,14,153,2520327,,,2024-07-18,清算の結了等,,,2015-10-05,1,,,,,フクケンコーポレーション,0
406,2040001089977,登記記録の閉鎖等,0,2024-07-22,2024-07-04,株式会社ガスモ,,株式会社,千葉県,八千代市,八千代台南１丁目１９番２６号,,12,221,2760033,,,2024-07-04,清算の結了等,,,2015-10-05,1,,,,,ガスモ,0
407,2040001104661,登記記録の閉鎖等,0,2024-07-22,2024-07-05,株式会社ＣＳＰアドバンスソリューションズ,,株式会社,千葉県,我孫子市,白山１丁目２６番１９号,,12,222,2701154,,,2024-07-05,清算の結了等,,,2018-05-16,1,,,,,シーエスピーアドバンスソリューションズ,0
416,2040005021969,登記記録の閉鎖等,0,2024-07-22,2024-07-04,一般社団法人千葉県住宅塗装機構,,その他の設立登記法人,千葉県,千葉市中央区,富士見１丁目１４番１３号千葉大栄ビル８階,,12,101,2600015,,,2024-07-04,清算の結了等,,,2023-04-17,1,,,,,チバケンジュウタクトソウキコウ,0
422,2070001031390,登記記録の閉鎖等,0,2024-07-22,2024-07-16,株式会社東洋ゴムチップ,,株式会社,群馬県,前橋市,粕川町深津１５７３番地,,10,201,3710215,,,2024-07-16,合併による解散等,2021001006445,令和６年７月１日神奈川県高座郡寒川町一之宮六丁目１番３号日東化工株式会社（2021001006445）に合併し解散,2015-10-05,1,,,,,,0
425,2070002015368,登記記録の閉鎖等,0,2024-07-22,2024-07-17,エートラスト有限会社,,有限会社,群馬県,高崎市,問屋町１丁目６番地１３,,10,202,3700006,,,2024-07-17,清算の結了等,,,2015-10-05,1,,,,,エートラスト,0
468,2130001056951,登記記録の閉鎖等,0,2024-07-22,2024-07-11,株式会社ｍｏｎｏｔｏｎｅ　ｔｅｃｈｎｏｌｏｇｙ,,株式会社,京都府,木津川市,相楽台２丁目１２番地１６,,26,214,6190223,,,2024-07-11,清算の結了等,,,2016-03-04,1,,,,,モノトーンテクノロジー,0
503,2230001011244,登記記録の閉鎖等,0,2024-07-22,2024-07-17,三昌技研株式会社,00078928,株式会社,富山県,高岡市,福岡町大滝５８６番地,,16,202,9390132,,,2024-07-17,合併による解散等,1230001011220,令和６年７月１日富山県高岡市福岡町大滝５８６番地関西三昌販売株式会社（1230001011220）に合併し解散,2015-10-05,1,,,,,サンショウギケン,0
506,2240001027677,登記記録の閉鎖等,0,2024-07-22,2024-07-17,株式会社わかば,,株式会社,広島県,呉市,川尻町原山１丁目５番４３号,,34,202,7372601,,,2024-07-17,清算の結了等,,,2015-10-05,1,,,,,ワカバ,0
508,2240002002142,登記記録の閉鎖等,0,2024-07-22,2024-07-18,有限会社エイム企画,,有限会社,広島県,広島市南区,丹那町２１番８号,,34,103,7340034,,,2024-07-18,清算の結了等,,,2015-10-05,1,,,,,エイムキカク,0
509,2240003004971,登記記録の閉鎖等,0,2024-07-22,2024-07-10,合同会社シンタク,,合同会社,広島県,広島市佐伯区,五日市４丁目１４－５,,34,108,7315127,,,2024-07-10,清算の結了等,,,2021-01-27,1,,,,,シンタク,0
520,2300001008010,登記記録の閉鎖等,0,2024-07-22,2024-07-17,株式会社ナテュルＨｅａｒｔ,,株式会社,佐賀県,佐賀市,諸富町大字諸富津２１番地２,,41,201,8402105,,,2024-07-17,清算の結了等,,,2015-10-05,1,,,,,ナテュルハート,0
535,2340002024416,登記記録の閉鎖等,0,2024-07-22,2024-07-16,有限会社用貝工務店,,有限会社,鹿児島県,南九州市,川辺町今田１０９３番地３,,46,223,8970212,,,2024-07-16,清算の結了等,,,2015-10-05,1,,,,,ヨウガイコウムテン,0
542,2350002014036,登記記録の閉鎖等,0,2024-07-22,2024-07-09,有限会社協和工業,,有限会社,宮崎県,都城市,神之山町４８５９番地,,45,202,8850005,,,2024-07-09,清算の結了等,,,2015-10-05,1,,,,,キョウワコウギョウ,0
551,2370001018589,登記記録の閉鎖等,0,2024-07-22,2024-07-19,株式会社アイ・ティコミュニケーションズ,,株式会社,宮城県,仙台市泉区,七北田字野山１番３９号,,04,105,9813131,,,2024-07-19,清算の結了等,,,2015-10-05,1,,,,,アイティコミュニケーションズ,0
555,2370801001298,登記記録の閉鎖等,0,2024-07-22,2024-07-02,中田物産株式会社,,株式会社,宮城県,名取市,大手町４丁目１番地の６,,04,207,9811232,,,2024-07-02,清算の結了等,,,2015-10-05,1,,,,,ナカダブッサン,0
564,2420005002468,登記記録の閉鎖等,0,2024-07-22,2024-07-08,公益財団法人青森県護国神社奉賛会,,その他の設立登記法人,青森県,青森市,中央３丁目２０番３０号,,02,201,0300822,,,2024-07-08,清算の結了等,,,2015-10-05,1,,,,,アオモリケンゴコクジンジャホウサンカイ,0
570,2450002011353,登記記録の閉鎖等,0,2024-07-22,2024-07-09,有限会社天塩商興,,有限会社,北海道,天塩郡天塩町,山手裏通６丁目１６１６番地の１,,01,487,0983302,,,2024-07-09,清算の結了等,,,2015-10-05,1,,,,,テシオショウコウ,0
584,3010001089054,登記記録の閉鎖等,0,2024-07-22,2024-06-28,株式会社真誠テック,,株式会社,東京都,中央区,新川２丁目６番２号,,13,102,1040033,,,2024-06-28,清算の結了等,,,2015-10-05,1,,,,,シンセイテック,0
608,3010402003860,登記記録の閉鎖等,0,2024-07-22,2024-07-03,有限会社木ノ下,,有限会社,東京都,港区,赤坂７丁目５番２７－５１０号,,13,103,1070052,,,2024-07-03,清算の結了等,,,2015-10-05,1,,,,,キノシタ,0
614,3010601043600,登記記録の閉鎖等,0,2024-07-22,2024-07-16,保険合理化センター株式会社,,株式会社,東京都,江東区,清澄３丁目３番３１号,,13,108,1350024,,,2024-07-16,清算の結了等,,,2015-10-05,1,,,,,ホケンゴウリカセンター,0
620,3010901053563,登記記録の閉鎖等,0,2024-07-22,2024-07-12,Ｇ．Ｈ．Ｙ．Ｃｕｌｔｕｒｅ＆Ｍｅｄｉａ　Ｊａｐａｎ株式会社,,株式会社,東京都,世田谷区,代沢４丁目１２番１５号,,13,112,1550032,,,2024-07-12,清算の結了等,,,2023-08-09,1,,,,,ジーエイチワイカルチャーアンドメディアジャパン,0
637,3011003017886,登記記録の閉鎖等,0,2024-07-22,2024-07-03,合同会社ＭＡＲＣＹ,,合同会社,東京都,渋谷区,神泉町１０番１５号アネックス神泉３０１,,13,113,1500045,,,2024-07-03,清算の結了等,,,2023-11-15,1,,,,,マーシー,0
651,3011601006935,登記記録の閉鎖等,0,2024-07-22,2024-07-16,森建築コンサルタント株式会社,,株式会社,東京都,練馬区,土支田１丁目３３番１８号,,13,120,1790076,,,2024-07-16,清算の結了等,,,2015-10-05,1,,,,,モリケンチクコンサルタント,0
675,3020001144213,登記記録の閉鎖等,0,2024-07-22,2024-07-02,株式会社星輝,,株式会社,神奈川県,横浜市中区,麦田町２丁目５９番２号,,14,104,2310849,,,2024-07-02,清算の結了等,,,2021-12-07,1,,,,,セイキ,0
680,3020002017616,登記記録の閉鎖等,0,2024-07-22,2024-07-02,有限会社宮崎歯科商会,,有限会社,神奈川県,横浜市西区,久保町１４番１号,,14,103,2200061,,,2024-07-02,清算の結了等,,,2015-10-05,1,,,,,ミヤザキシカショウカイ,0
686,3020005014387,登記記録の閉鎖等,0,2024-07-22,2024-07-02,一般社団法人日緬人材,,その他の設立登記法人,神奈川県,横浜市戸塚区,汲沢８丁目２番１４号,,14,110,2450061,,,2024-07-02,清算の結了等,,,2019-11-19,1,,,,,ニチメンンジンザイ,0
690,3021002070869,登記記録の閉鎖等,0,2024-07-22,2024-07-18,有限会社平尾システム,,有限会社,神奈川県,三浦郡葉山町,一色１８２２番地の１９,,14,301,2400111,,,2024-07-18,清算の結了等,,,2015-10-05,1,,,,,ヒラオシステム,0
693,3030001025131,登記記録の閉鎖等,0,2024-07-22,2024-07-16,株式会社ミヨシ,,株式会社,埼玉県,所沢市,和ケ原１丁目１６９番地,,11,208,3591162,,,2024-07-16,清算の結了等,,,2015-10-05,1,,,,,ミヨシ,0
704,3030002118982,登記記録の閉鎖等,0,2024-07-22,2024-07-16,有限会社日商,,有限会社,埼玉県,熊谷市,中央１丁目２３５番地,,11,202,3600018,,,2024-07-16,清算の結了等,,,2015-10-05,1,,,,,ニッショウ,0
709,3030005017546,登記記録の閉鎖等,0,2024-07-22,2024-07-16,特定非営利活動法人オンズプロダクション,,その他の設立登記法人,埼玉県,川越市,仲町２番地２（３Ｆ）,,11,201,3500065,,,2024-07-16,清算の結了等,,,2015-10-05,1,,,,,オンズプロダクション,0
725,3050005010573,登記記録の閉鎖等,0,2024-07-22,2024-07-17,特定非営利活動法人元気ＵＰヒアリングセンター,,その他の設立登記法人,茨城県,下妻市,原８８１番地１,,08,210,3040816,,,2024-07-17,清算の結了等,,,2015-10-05,1,,,,,ゲンキアップヒアリングセンター,0
736,3080101008898,登記記録の閉鎖等,0,2024-07-22,2024-07-12,株式会社第一設計室,,株式会社,静岡県,富士市,原田７３３番地の１,,22,210,4170852,,,2024-07-12,清算の結了等,,,2015-10-05,1,,,,,,0
743,3120001054393,登記記録の閉鎖等,0,2024-07-22,2024-07-12,株式会社オータニ礼服,,株式会社,大阪府,大阪市淀川区,新高３丁目２番２７号,,27,123,5320033,,,2024-07-12,清算の結了等,,,2015-10-05,1,,,,,オータニレイフク,0
762,3120103005220,登記記録の閉鎖等,0,2024-07-22,2024-07-16,合同会社ＡＲＣＨＥ,,合同会社,大阪府,泉佐野市,鶴原５０２番地（５－３０２）,,27,213,5980071,,,2024-07-16,清算の結了等,,,2023-05-16,1,,,,,アーチ,0
763,3120901014950,登記記録の閉鎖等,0,2024-07-22,2024-07-16,グッドコーポレーション株式会社,,株式会社,大阪府,茨木市,東奈良３丁目１５番２３号,,27,211,5670861,,,2024-07-16,清算の結了等,,,2015-10-05,1,,,,,グッドコーポレーション,0
764,3120901029833,登記記録の閉鎖等,0,2024-07-22,2024-07-16,ワンステップフォワード株式会社,,株式会社,大阪府,池田市,井口堂２丁目２番３号,,27,204,5630023,,,2024-07-16,清算の結了等,,,2015-10-05,1,,,,,ワンステップフォワード,0
790,3140002032198,登記記録の閉鎖等,0,2024-07-22,2024-07-17,有限会社翔建設,,有限会社,兵庫県,揖保郡太子町,阿曽１３１番地の３,,28,464,6711557,,,2024-07-17,清算の結了等,,,2015-10-05,1,,,,,ショウケンセツ,0
810,3220001024015,登記記録の閉鎖等,0,2024-07-22,2024-07-02,株式会社Ｇ．Ｇ,,株式会社,石川県,金沢市,片町２丁目２３番３号,,17,201,9200981,,,2024-07-02,清算の結了等,,,2021-03-05,1,,,,,ジージー,0
811,3220001025574,登記記録の閉鎖等,0,2024-07-22,2024-07-12,株式会社クロダホールディングス,,株式会社,石川県,金沢市,若宮１丁目１６８番地２,,17,201,9200054,,,2024-07-12,清算の結了等,,,2023-08-24,1,,,,,クロダホールディングス,0
821,3240001030184,登記記録の閉鎖等,0,2024-07-22,2024-07-16,オカケン株式会社,,株式会社,広島県,福山市,南蔵王町５丁目１５番２２号,,34,207,7210973,,,2024-07-16,清算の結了等,,,2015-10-05,1,,,,,オカケン,0
822,3240001043731,登記記録の閉鎖等,0,2024-07-22,2024-07-16,株式会社なでしこ,,株式会社,広島県,広島市安佐北区,あさひが丘６丁目８番９号,,34,106,7313361,,,2024-07-16,清算の結了等,,,2015-10-05,1,,,,,ナデシコ,0
825,3260001038102,登記記録の閉鎖等,0,2024-07-22,2024-07-19,いちいと工房株式会社,,株式会社,岡山県,倉敷市,生坂２４２９番地４,,33,202,7100002,,,2024-07-19,清算の結了等,,,2023-07-13,1,,,,,イチイトコウボウ,0
833,3290001055771,登記記録の閉鎖等,0,2024-07-22,2024-06-20,株式会社紅乙女酒販,,株式会社,福岡県,久留米市,田主丸町益生田２７０番地２,,40,203,8391213,,,2024-06-20,合併による解散等,1290001010159,令和６年６月２０日福岡市中央区天神三丁目３番３号株式会社ふくや（1290001010159）に合併し解散,2015-10-05,1,,,,,ベニオトメシュハン,0
838,3290003005254,登記記録の閉鎖等,0,2024-07-22,2024-06-20,里山のたね合同会社,,合同会社,福岡県,福岡市早良区,西新２丁目４番９号,,40,137,8140002,,,2024-06-20,清算の結了等,,,2015-10-05,1,,,,,サトヤマノタネ,0
842,3290803003531,登記記録の閉鎖等,0,2024-07-22,2024-07-04,合同会社英,,合同会社,福岡県,田川市,大字伊田２２６４番地２２,,40,206,8250002,,,2024-07-04,清算の結了等,,,2020-04-22,1,,,,,ハナブサ,0
868,3390001008991,登記記録の閉鎖等,0,2024-07-22,2024-07-01,株式会社トラベル東北,,株式会社,山形県,最上郡最上町,大字向町５８番地,,06,362,9996101,,,2024-07-01,合併による解散等,2390001008885,令和６年７月１日山形県最上郡最上町大字向町５８番地株式会社山口コーポレーション（2390001008885）に合併し解散,2015-10-05,1,,,,,,0
899,4010401039748,登記記録の閉鎖等,0,2024-07-22,2024-07-09,株式会社ワールド・リンク,,株式会社,埼玉県,さいたま市北区,本郷町３０８番,,11,102,3310802,,,2024-07-09,清算の結了等,,,2015-10-05,1,,,,,ワールドリンク,0
918,4010902003822,登記記録の閉鎖等,0,2024-07-22,2024-07-17,有限会社海水湯,,有限会社,東京都,世田谷区,尾山台３丁目２４番２０号,,13,112,1580086,,,2024-07-17,清算の結了等,,,2015-10-05,1,,,,,カイスイユ,0
944,4013202000226,登記記録の閉鎖等,0,2024-07-22,2024-07-03,有限会社アール・アンド・ティー,,有限会社,東京都,目黒区,自由が丘２丁目１８番１３号,,13,110,1520035,,,2024-07-03,清算の結了等,,,2015-10-05,1,,,,,アールアンドティー,0
949,4013305002994,登記記録の閉鎖等,0,2024-07-22,2024-07-09,特定非営利活動法人ネクストステージ・プランニング,,その他の設立登記法人,東京都,豊島区,南大塚３丁目３４番１５号メゾンＹ．Ｍ．Ｄ３０２号室,,13,116,1700005,,,2024-07-09,清算の結了等,,,2019-09-12,1,,,,,ネクストステージプランニング,0
950,4020001032937,登記記録の閉鎖等,0,2024-07-22,2024-07-01,株式会社ホンダプリモ旭,,株式会社,神奈川県,横浜市旭区,鶴ケ峰本町１丁目４２番３号,,14,112,2410021,,,2024-07-01,合併による解散等,6020001004439,令和６年７月１日横浜市港南区下永谷六丁目４番３０号ホンダカーズ神奈川中株式会社（6020001004439）に合併し解散,2015-10-05,1,,,,,ホンダプリモアサヒ,0
965,4021002066346,登記記録の閉鎖等,0,2024-07-22,2024-07-17,有限会社ピコット,,有限会社,神奈川県,横須賀市,グリーンハイツ３番３号,,14,201,2390846,,,2024-07-17,清算の結了等,,,2015-10-05,1,,,,,ピコット,0
992,4120001030063,登記記録の閉鎖等,0,2024-07-22,2024-07-11,株式会社りら,,株式会社,大阪府,大阪市港区,夕凪１丁目１０番１号,,27,107,5520004,,,2024-07-11,清算の結了等,,,2015-10-05,1,,,,,リラ,0
1025,4140001046818,登記記録の閉鎖等,0,2024-07-22,2024-07-11,株式会社正垣発條製作所,,株式会社,兵庫県,朝来市,和田山町宮内３４番地,,28,225,6695244,,,2024-07-11,清算の結了等,,,2015-10-05,1,,,,,ショウガキハツジョウセイサクショ,0
1041,4180005005527,登記記録の閉鎖等,0,2024-07-22,2024-07-09,特定非営利活動法人外国人医療センター,,その他の設立登記法人,愛知県,名古屋市中区,丸の内２丁目１－３０オフィスフォーラム６０１,,23,106,4600002,,,2024-07-09,清算の結了等,,,2015-10-05,1,,,,,ガイコクジンイリョウセンター,0
1043,4190005009972,登記記録の閉鎖等,0,2024-07-22,2024-07-16,一般社団法人四日市銀行協会,,その他の設立登記法人,三重県,四日市市,沖の島町３番６号,,24,202,5100083,,,2024-07-16,清算の結了等,,,2015-10-05,1,,,,,ヨッカイチギンコウキョウカイ,0
1049,4240001022841,登記記録の閉鎖等,0,2024-07-22,2024-07-17,新谷製作所株式会社,,株式会社,広島県,東広島市,志和町奥屋１３７２番地,,34,212,7390266,,,2024-07-17,清算の結了等,,,2015-10-05,1,,,,,シンタニセイサクショ,0
1071,4340001006231,登記記録の閉鎖等,0,2024-07-22,2024-07-16,株式会社スポーツフロンティア鹿児島,,株式会社,鹿児島県,鹿児島市,上荒田町２３番１３号２Ｆ,,46,201,8900055,,,2024-07-16,清算の結了等,,,2015-10-05,1,,,,,,0
1092,4500002002246,登記記録の閉鎖等,0,2024-07-22,2024-07-09,有限会社城戸内装,,有限会社,愛媛県,松山市,星岡４丁目１１番２９号,,38,201,7900922,,,2024-07-09,清算の結了等,,,2015-10-05,1,,,,,,0
1104,5010401114442,登記記録の閉鎖等,0,2024-07-22,2024-07-05,株式会社ウェイブダッシュ,,株式会社,東京都,千代田区,霞が関３丁目２番６号,,13,101,1000013,,,2024-07-05,合併による解散等,8010003041553,令和６年７月１日東京都千代田区霞が関三丁目２番６号Ｖｉｖｉｄ　ＷＤ株式会社（8010003041553）に合併し解散,2015-10-05,1,,,,,ウェイブダッシュ,0
1176,5020002037050,登記記録の閉鎖等,0,2024-07-22,2024-07-02,有限会社伊藤機械彫刻所,,有限会社,神奈川県,横浜市鶴見区,駒岡４丁目２０番１９号,,14,101,2300071,,,2024-07-02,清算の結了等,,,2015-10-05,1,,,,,イトウキカイチョウコクショ,0
1179,5021001048146,登記記録の閉鎖等,0,2024-07-22,2024-07-02,株式会社ＮＴＳ,,株式会社,東京都,渋谷区,東３丁目２５番４号,,13,113,1500011,,,2024-07-02,清算の結了等,,,2015-10-05,1,,,,,エヌティーエス,0
1183,5030001099306,登記記録の閉鎖等,0,2024-07-22,2024-07-16,株式会社星野ホームズ,,株式会社,埼玉県,朝霞市,三原２丁目３番１０号,,11,227,3510025,,,2024-07-16,清算の結了等,,,2015-10-05,1,,,,,,0
1187,5030002059449,登記記録の閉鎖等,0,2024-07-22,2024-07-18,有限会社山口工務店,,有限会社,埼玉県,朝霞市,溝沼５丁目５番１６号,,11,227,3510023,,,2024-07-18,清算の結了等,,,2015-10-05,1,,,,,ヤマグチコウムテン,0
1192,5040001112100,登記記録の閉鎖等,0,2024-07-22,2024-07-17,富士フイルムヘルスケア株式会社,,株式会社,千葉県,柏市,新十余二２番地１,,12,217,2770804,,,2024-07-17,合併による解散等,2010401064789,令和６年７月１日東京都港区西麻布二丁目２６番３０号富士フイルム株式会社（2010401064789）に合併し解散,2020-01-09,1,,,,,フジフイルムヘルスケア,0
1201,5060002022981,登記記録の閉鎖等,0,2024-07-22,2024-07-05,有限会社金子書店,,有限会社,栃木県,那須郡那須町,大字寺子丙４番地１,,09,407,3293222,,,2024-07-05,清算の結了等,,,2015-10-05,1,,,,,カネコショテン,0
1218,5120001094660,登記記録の閉鎖等,0,2024-07-22,2024-07-11,アイエスピー株式会社,,株式会社,大阪府,大阪市住之江区,安立１丁目１番２８－１０５号,,27,125,5590003,,,2024-07-11,清算の結了等,,,2015-10-05,1,,,,,アイエスピー,0
1240,5130001002647,登記記録の閉鎖等,0,2024-07-22,2024-07-11,株式会社大澤建設,,株式会社,京都府,京都市山科区,川田土仏５番地,,26,110,6078325,,,2024-07-11,清算の結了等,,,2015-10-05,1,,,,,オオサワケンセツ,0
1246,5130002017883,登記記録の閉鎖等,0,2024-07-22,2024-07-11,有限会社京都アシスト,,有限会社,京都府,京都市北区,大宮北箱ノ井町１番地２,,26,101,6038475,,,2024-07-11,清算の結了等,,,2015-10-05,1,,,,,キョウトアシスト,0
1260,5160002009424,登記記録の閉鎖等,0,2024-07-22,2024-07-16,有限会社親玉製菓舗,,有限会社,滋賀県,東近江市,垣見町７７２番地,,25,213,5211221,,,2024-07-16,清算の結了等,,,2015-10-05,1,,,,,オヤダマセイカホ,0
1265,5180001143503,登記記録の閉鎖等,0,2024-07-22,2024-07-04,名徳設備株式会社,,株式会社,愛知県,春日井市,神屋町６５４番地２３,,23,206,4800304,,,2024-07-04,清算の結了等,,,2020-11-09,1,,,,,メイトクセツビ,0
1272,5180002088375,登記記録の閉鎖等,0,2024-07-22,2024-07-05,花井工業有限会社,,有限会社,愛知県,知多市,新舞子字落２４番地の１３,,23,224,4780036,,,2024-07-05,清算の結了等,,,2015-10-05,1,,,,,ハナイコウギョウ,0
1276,5190001007112,登記記録の閉鎖等,0,2024-07-22,2024-07-18,ＹＡＭＡＳＨＩＴＡ株式会社,,株式会社,三重県,度会郡度会町,南中村９０３番地,,24,470,5161244,,,2024-07-18,清算の結了等,,,2015-10-05,1,,,,,ヤマシタ,0
1298,5280002002466,登記記録の閉鎖等,0,2024-07-22,2024-07-18,有限会社ゆうぶん,,有限会社,島根県,松江市,砂子町２４１番地８,,32,201,6900878,,,2024-07-18,清算の結了等,,,2015-10-05,1,,,,,ユウブン,0
1315,5320002018367,登記記録の閉鎖等,0,2024-07-22,2024-07-10,ナンバ水道設備有限会社,,有限会社,大分県,豊後大野市,三重町宮野２５９８番地,,44,212,8797101,,,2024-07-10,清算の結了等,,,2015-10-05,1,,,,,,0
1326,5370001020609,登記記録の閉鎖等,0,2024-07-22,2024-07-03,宮城野株式会社,,株式会社,宮城県,仙台市太白区,東中田５丁目１０番２８号,,04,104,9811107,,,2024-07-03,清算の結了等,,,2015-10-05,1,,,,,ミヤギノ,0
1327,5370602000711,登記記録の閉鎖等,0,2024-07-22,2024-07-02,有限会社サンアルファ,,有限会社,宮城県,宮城郡利府町,中央３丁目２０番地１,,04,406,9810104,,,2024-07-02,清算の結了等,,,2015-10-05,1,,,,,サンアルファ,0
1328,5370801001378,登記記録の閉鎖等,0,2024-07-22,2024-07-04,新東北空調管理株式会社,,株式会社,宮城県,名取市,飯野坂４丁目７番５４号,,04,207,9811225,,,2024-07-04,清算の結了等,,,2015-10-05,1,,,,,シントウホククウチョウカンリ,0
1360,6010001210698,登記記録の閉鎖等,0,2024-07-22,2024-07-05,株式会社アイ・グリッド・ラボ,,株式会社,東京都,千代田区,麹町３丁目７番地４,,13,101,1020083,,,2024-07-05,合併による解散等,3010001103145,令和６年７月１日東京都千代田区麹町三丁目７番地４株式会社アイ・グリッド・ソリューションズ（3010001103145）に合併し解散,2020-07-06,1,,,,,アイグリッドラボ,0
1385,6010405018548,登記記録の閉鎖等,0,2024-07-22,2024-07-02,ジャパンインフラホールディングス４号一般社団法人,,その他の設立登記法人,東京都,港区,元赤坂１丁目１番７号,,13,103,1070051,,,2024-07-02,清算の結了等,,,2020-02-26,1,,,,,ジャパンインフラホールディングスヨンゴウ,0
1406,6011002000948,登記記録の閉鎖等,0,2024-07-22,2024-07-02,有限会社上野工業,,有限会社,東京都,渋谷区,元代々木町９番３号,,13,113,1510062,,,2024-07-02,清算の結了等,,,2015-10-05,1,,,,,ウエノコウギョウ,0
1430,6013201006131,登記記録の閉鎖等,0,2024-07-22,2024-07-03,ユミコインテルニ株式会社,,株式会社,東京都,目黒区,五本木２丁目３３番１３号,,13,110,1530053,,,2024-07-03,清算の結了等,,,2015-10-05,1,,,,,ユミコインテルニ,0
1455,6021003005788,登記記録の閉鎖等,0,2024-07-22,2024-07-18,合同会社ｅａｇｌｅ４４１,,合同会社,神奈川県,小田原市,蓮正寺７７３番地,,14,206,2500865,,,2024-07-18,清算の結了等,,,2016-02-09,1,,,,,,0
1456,6030001040499,登記記録の閉鎖等,0,2024-07-22,2024-07-16,株式会社ベジグリーン,,株式会社,埼玉県,草加市,瀬崎３丁目３７番２６号,,11,221,3400022,,,2024-07-16,清算の結了等,,,2015-10-05,1,,,,,ベジグリーン,0
1471,6040001097464,登記記録の閉鎖等,0,2024-07-22,2024-07-05,株式会社ＮＯＥＭＡ,,株式会社,千葉県,袖ケ浦市,蔵波１０３６番地１,,12,229,2990243,,,2024-07-05,清算の結了等,,,2016-11-01,1,,,,,ノエマ,0
1494,6100002000222,登記記録の閉鎖等,0,2024-07-22,2024-07-02,有限会社アチーヴ,,有限会社,長野県,長野市,川中島町上氷鉋１６８５番地１３,,20,201,3812233,,,2024-07-02,清算の結了等,,,2015-10-05,1,,,,,アチーヴ,0
1520,6120002075403,登記記録の閉鎖等,0,2024-07-22,2024-07-17,有限会社和光エステート,,有限会社,大阪府,枚方市,菊丘町３１番６号,,27,210,5730091,,,2024-07-17,清算の結了等,,,2015-10-05,1,,,,,ワコウエステート,0
1593,6300001007504,登記記録の閉鎖等,0,2024-07-22,2024-07-16,株式会社むらい,,株式会社,佐賀県,唐津市,北波多徳須恵１０２６番地１,,41,202,8471201,,,2024-07-16,清算の結了等,,,2015-10-05,1,,,,,ムライ,0
1607,6340001017342,登記記録の閉鎖等,0,2024-07-22,2024-07-16,株式会社年永畜産,,株式会社,鹿児島県,鹿屋市,串良町岡崎２６７８番地２,,46,203,8931603,,,2024-07-16,清算の結了等,,,2015-10-05,1,,,,,,0
1648,7010001000181,登記記録の閉鎖等,0,2024-07-22,2024-07-05,株式会社アイ・ビー・シー,,株式会社,東京都,文京区,千駄木１丁目２２番３０号,,13,105,1130022,,,2024-07-05,清算の結了等,,,2015-10-05,1,,,,,アイビーシー,0
1649,7010001008191,登記記録の閉鎖等,0,2024-07-22,2024-07-05,ヨシカワ株式会社,,株式会社,東京都,文京区,春日１丁目１１番４号,,13,105,1120003,,,2024-07-05,清算の結了等,,,2015-10-05,1,,,,,ヨシカワ,0
1651,7010001211357,登記記録の閉鎖等,0,2024-07-22,2024-07-01,アリナミン製薬株式会社,,株式会社,東京都,千代田区,丸の内１丁目８番２号,,13,101,1000005,,,2024-07-01,合併による解散等,1010003032757,令和６年７月１日東京都千代田区丸の内一丁目８番２号Ｏｓｃａｒ　Ｈｏｌｄｉｎｇ株式会社（1010003032757）に合併し解散,2020-08-04,1,,,,,アリナミンセイヤク,0
1657,7010003034368,登記記録の閉鎖等,0,2024-07-22,2024-07-05,川西マネージメント合同会社,,合同会社,東京都,千代田区,丸の内１丁目１１番１号,,13,101,1000005,,,2024-07-05,清算の結了等,,,2021-03-09,1,,,,,カワニシマネージメント,0
1665,7010401128622,登記記録の閉鎖等,0,2024-07-22,2024-07-04,株式会社１Ｃａｒａｔ,,株式会社,東京都,中央区,銀座６丁目１３番１６号銀座ＷａｌｌビルＵＣＦ５階,,13,102,1040061,,,2024-07-04,清算の結了等,,,2016-12-12,1,,,,,イチカラット,0
1669,7010401150948,登記記録の閉鎖等,0,2024-07-22,2024-07-05,株式会社ＷＤホールディングス,,株式会社,東京都,千代田区,霞が関３丁目２番６号,,13,101,1000013,,,2024-07-05,合併による解散等,8010003041553,令和６年７月１日東京都千代田区霞が関三丁目２番６号Ｖｉｖｉｄ　ＷＤ株式会社（8010003041553）に合併し解散,2020-02-06,1,,,,,ダブリューディーホールディングス,0
1679,7010601058248,登記記録の閉鎖等,0,2024-07-22,2024-07-04,株式会社ニホンハツ,,株式会社,東京都,中央区,晴海３丁目１３番１号ＤＥＵＸ・ＴＯＵＲＳ・Ｅ４４１２,,13,102,1040053,,,2024-07-04,清算の結了等,,,2020-11-04,1,,,,,ニホンハツ,0
1685,7010701034339,登記記録の閉鎖等,0,2024-07-22,2024-07-05,株式会社ＶＰＰ　Ｊａｐａｎ,,株式会社,東京都,千代田区,麹町３丁目７番地４,,13,101,1020083,,,2024-07-05,合併による解散等,3010001103145,令和６年６月２９日東京都千代田区麹町三丁目７番地４株式会社アイ・グリッド・ソリューションズ（3010001103145）に合併し解散,2017-06-21,1,,,,,ブイピーピージャパン,0
1689,7010903006433,登記記録の閉鎖等,0,2024-07-22,2024-07-11,ｕｋｎ合同会社,,合同会社,東京都,世田谷区,太子堂１丁目１２－２７コンフォートテラス１００５号,,13,112,1540004,,,2024-07-11,清算の結了等,,,2021-04-07,1,,,,,ユーケーエヌ,0
1711,7011601024719,登記記録の閉鎖等,0,2024-07-22,2024-07-16,株式会社ＣＴＥ,,株式会社,東京都,練馬区,練馬１丁目２０番８号日建練馬ビル２Ｆ,,13,120,1760001,,,2024-07-16,清算の結了等,,,2020-12-10,1,,,,,シーティーイー,0
1721,7012402023281,登記記録の閉鎖等,0,2024-07-22,2024-07-17,株式会社ＬＩＧＵＮＡ,,株式会社,東京都,小金井市,梶野町５丁目８番２６号,,13,210,1840002,,,2024-07-17,合併による解散等,8010001112570,令和６年７月１日東京都港区芝五丁目２９番１１号株式会社ユーグレナ（8010001112570）に合併し解散,2015-10-05,1,,,,,リグナ,0
1722,7012701017109,登記記録の閉鎖等,0,2024-07-22,2024-07-10,ＭＩＲＡＩＥ株式会社,,株式会社,東京都,清瀬市,野塩４丁目１０５番地２２,,13,221,2040004,,,2024-07-10,清算の結了等,,,2022-06-21,1,,,,,ミライエ,0
1744,7021002029358,登記記録の閉鎖等,0,2024-07-22,2024-07-18,有限会社橋本薬局,,有限会社,神奈川県,相模原市緑区,与瀬本町１２番地,,14,151,2520172,,,2024-07-18,清算の結了等,,,2015-10-05,1,,,,,ハシモトヤッキョク,0
1745,7021003005176,登記記録の閉鎖等,0,2024-07-22,2024-07-16,オールドストーン合同会社,,合同会社,神奈川県,平塚市,宮松町２４番１１号,,14,203,2540036,,,2024-07-16,清算の結了等,,,2015-10-05,1,,,,,オールドストーン,0
1748,7030001109426,登記記録の閉鎖等,0,2024-07-22,2024-07-10,エース工業株式会社,,株式会社,埼玉県,川越市,大字鯨井１８０６番地（エスパース・リッシュ２０１号室）,,11,201,3500815,,,2024-07-10,清算の結了等,,,2015-10-05,1,,,,,エースコウギョウ,0
1752,7030002087745,登記記録の閉鎖等,0,2024-07-22,2024-07-12,有限会社深井商店,,有限会社,埼玉県,越谷市,川柳町２丁目２７０番地の１,,11,222,3430827,,,2024-07-12,清算の結了等,,,2015-10-05,1,,,,,フカイショウテン,0
1757,7040001099914,登記記録の閉鎖等,0,2024-07-22,2024-07-02,アリス株式会社,,株式会社,千葉県,我孫子市,新木野３丁目１３番１５号,,12,222,2701114,,,2024-07-02,清算の結了等,,,2017-05-09,1,,,,,アリス,0
1761,7040002006092,登記記録の閉鎖等,0,2024-07-22,2024-07-05,有限会社須藤材木店,,有限会社,千葉県,千葉市稲毛区,稲毛東３丁目６番１８号,,12,103,2630031,,,2024-07-05,清算の結了等,,,2015-10-05,1,,,,,,0
1763,7040003012247,登記記録の閉鎖等,0,2024-07-22,2024-06-28,合同会社ピーオーラボ,,合同会社,千葉県,習志野市,本大久保１丁目１８番１５号,,12,216,2750012,,,2024-06-28,清算の結了等,,,2018-10-03,1,,,,,ピーオーラボ,0
1768,7050002033788,登記記録の閉鎖等,0,2024-07-22,2024-07-11,有限会社篠本技研,,有限会社,茨城県,稲敷郡河内町,長竿３８３２番地,,08,447,3001312,,,2024-07-11,清算の結了等,,,2015-10-05,1,,,,,シノモトギケン,0
1775,7070002003252,登記記録の閉鎖等,0,2024-07-22,2024-07-17,有限会社ダウントン・デビジョン,,有限会社,群馬県,前橋市,文京町２丁目４番２１号,,10,201,3710801,,,2024-07-17,清算の結了等,,,2015-10-05,1,,,,,ダウントンデビジョン,0
1781,7080401023486,登記記録の閉鎖等,0,2024-07-22,2024-07-12,株式会社クロフネ,,株式会社,静岡県,磐田市,社山３１４番地,,22,211,4380108,,,2024-07-12,清算の結了等,,,2019-03-05,1,,,,,クロフネ,0
1791,7120001103683,登記記録の閉鎖等,0,2024-07-22,2024-07-11,株式会社セントラルコミュニケーションズ,,株式会社,大阪府,大阪市中央区,石町１丁目１番１号,,27,128,5400033,,,2024-07-11,清算の結了等,,,2015-10-05,1,,,,,セントラルコミュニケーションズ,0
1807,7120001263197,登記記録の閉鎖等,0,2024-07-22,2024-07-16,株式会社河本ＨＤ２,,株式会社,大阪府,大阪市城東区,鴫野西５丁目１９番３５－１４０２号,,27,118,5360014,,,2024-07-16,清算の結了等,,,2024-03-21,1,,,,,カワモトエイチディーツー,0
1818,7120003013666,登記記録の閉鎖等,0,2024-07-22,2024-07-01,合同会社アクア,,合同会社,大阪府,大阪市住吉区,遠里小野６丁目７－２２－２０５,,27,120,5580032,,,2024-07-01,合併による解散等,2120003013241,令和６年７月１日大阪市此花区朝日二丁目１８番８号３Ｆ合同会社ピクシー（2120003013241）に合併し解散,2017-12-07,1,,,,,アクア,0
1834,7140001042129,登記記録の閉鎖等,0,2024-07-22,2024-07-17,ドウシュウ産業株式会社,,株式会社,兵庫県,たつの市,新宮町仙正６１番地１,,28,229,6794322,,,2024-07-17,清算の結了等,,,2015-10-05,1,,,,,ドウシュウサンギョウ,0
1856,7190003003768,登記記録の閉鎖等,0,2024-07-22,2024-07-18,合同会社ふくろう,,合同会社,三重県,亀山市,野村１丁目１０番２６号,,24,210,5190165,,,2024-07-18,清算の結了等,,,2021-09-27,1,,,,,フクロウ,0
1860,7200002007272,登記記録の閉鎖等,0,2024-07-22,2024-07-12,有限会社カーサ,,有限会社,岐阜県,各務原市,蘇原瑞雲町４丁目１７番地１,,21,213,5040821,,,2024-07-12,清算の結了等,,,2015-10-05,1,,,,,カーサ,0
1862,7200002018451,登記記録の閉鎖等,0,2024-07-22,2024-07-18,有限会社井藤建装,,有限会社,岐阜県,関市,武芸川町跡部６６番地,,21,205,5012605,,,2024-07-18,清算の結了等,,,2015-10-05,1,,,,,,0
1881,7240002029098,登記記録の閉鎖等,0,2024-07-22,2024-07-17,有限会社きりん建設,,有限会社,広島県,東広島市,黒瀬町市飯田１１５４番地,,34,212,7392626,,,2024-07-17,清算の結了等,,,2015-10-05,1,,,,,キリンケンセツ,0
1886,7290001060867,登記記録の閉鎖等,0,2024-07-22,2024-07-01,ワウ九州ホールディングス株式会社,,株式会社,福岡県,久留米市,中央町３２番地４－３Ｆ,,40,203,8300023,,,2024-07-01,合併による解散等,8290001051931,令和６年７月１日福岡県久留米市中央町３２番地４－１Ｆワウハウス九州株式会社（8290001051931）に合併し解散,2015-10-05,1,,,,,ワウキュウシュウホールディングス,0
1895,7320001018762,登記記録の閉鎖等,0,2024-07-22,2024-07-10,株式会社Ｍｉｏｙａｍａ,,株式会社,大分県,日田市,大字有田１７２１番地５,,44,204,8770000,,,2024-07-10,清算の結了等,,,2021-12-06,1,,,,,ミオヤマ,0
1897,7320005007522,登記記録の閉鎖等,0,2024-07-22,2024-07-12,特定非営利活動法人日田移住サポートセンター,,その他の設立登記法人,大分県,日田市,中央１丁目１番２４号,,44,204,8770015,,,2024-07-12,清算の結了等,,,2015-10-05,1,,,,,ヒタイジュウサポートセンター,0
1910,7380002016396,登記記録の閉鎖等,0,2024-07-22,2024-07-10,有限会社大藤工務店,,有限会社,福島県,二本松市,田沢字北向２０番地,,07,210,9640431,,,2024-07-10,清算の結了等,,,2015-10-05,1,,,,,ダイトウコウムテン,0
1916,7430001051934,登記記録の閉鎖等,0,2024-07-22,2024-07-03,ノースベースニセコ株式会社,,株式会社,東京都,港区,港南１丁目２番７０号品川シーズンテラス,,13,103,1080075,,,2024-07-03,合併による解散等,8010401142795,令和６年７月１日東京都港区港南一丁目２番７０号品川シーズンテラススパークス・ＡＩ＆テクノロジーズ・インベストメント株式会社（8010401142795）に合併し解散,2015-10-05,1,,,,,ノースベースニセコ,0
1920,7470002017402,登記記録の閉鎖等,0,2024-07-22,2024-07-12,有限会社エムアンドエヌ,,有限会社,香川県,観音寺市,豊浜町姫浜１６１番地１,,37,205,7691601,,,2024-07-12,清算の結了等,,,2015-10-05,1,,,,,エムアンドエヌ,0
1921,7480001001174,登記記録の閉鎖等,0,2024-07-22,2024-07-18,株式会社尚建設,,株式会社,徳島県,徳島市,大原町内開８７番地５－１２号室,,36,201,7708012,,,2024-07-18,清算の結了等,,,2015-10-05,1,,,,,ヒサシケンセツ,0
1922,7480002013433,登記記録の閉鎖等,0,2024-07-22,2024-07-18,有限会社鍋浦ディベロップ,,有限会社,徳島県,阿南市,桑野町井ノ口原５２番地１０,,36,204,7791402,,,2024-07-18,清算の結了等,,,2015-10-05,1,,,,,ナベウラディベロップ,0
1935,8010001221644,登記記録の閉鎖等,0,2024-07-22,2024-07-01,ヴィジョンオブ株式会社,,株式会社,東京都,目黒区,上目黒１丁目１６番１２－４Ｆ,,13,110,1530051,,,2024-07-01,清算の結了等,,,2021-10-11,1,,,,,ヴィジョンオブ,0
1939,8010003036009,登記記録の閉鎖等,0,2024-07-22,2024-07-03,タカコン合同会社,,合同会社,東京都,千代田区,九段南１丁目４番１０号ｏｆｆｉｃｅｈｏｕｒＫｕｄａｎｓｈｉｔａ１０４,,13,101,1020074,,,2024-07-03,清算の結了等,,,2021-10-15,1,,,,,タカコン,0
1945,8010005024473,登記記録の閉鎖等,0,2024-07-22,2024-07-08,一般社団法人Ａｐｒｉｃｏｔ,,その他の設立登記法人,東京都,千代田区,丸の内３丁目１番１号東京共同会計事務所内,,13,101,1000005,,,2024-07-08,清算の結了等,,,2015-10-09,1,,,,,アプリコット,0
2003,8011501023869,登記記録の閉鎖等,0,2024-07-22,2024-07-01,株式会社ＦＯＲＬＩＦＥ　ＪＡＰＡＮ,,株式会社,東京都,渋谷区,恵比寿４丁目２０番３号,,13,113,1500013,,,2024-07-01,合併による解散等,8050001041543,令和６年７月１日東京都渋谷区恵比寿四丁目２０番３号株式会社Ｔｏｋｙｏ　Ｔｅａ　Ｔｒａｄｉｎｇ（8050001041543）に合併し解散,2018-07-11,1,,,,,フォーライフジャパン,0
2004,8011502008919,登記記録の閉鎖等,0,2024-07-22,2024-07-18,有限会社森泉堂,,有限会社,東京都,荒川区,荒川２丁目７番５号,,13,118,1160002,,,2024-07-18,清算の結了等,,,2015-10-05,1,,,,,,0
2019,8021001010755,登記記録の閉鎖等,0,2024-07-22,2024-07-17,株式会社ＢｌｕｅＢｉｒｄ　ＩＮＴＥＭＳ,,株式会社,神奈川県,鎌倉市,御成町７番８号,,14,204,2480012,,,2024-07-17,清算の結了等,,,2015-10-05,1,,,,,ブルーバードインテムズ,0
2021,8021002058430,登記記録の閉鎖等,0,2024-07-22,2024-07-18,有限会社セーフティレディ,,有限会社,神奈川県,平塚市,豊原町１６番２３号,,14,203,2540051,,,2024-07-18,清算の結了等,,,2015-10-05,1,,,,,セーフティレディ,0
2029,8030002060635,登記記録の閉鎖等,0,2024-07-22,2024-07-12,有限会社伊勢山工務店,,有限会社,埼玉県,新座市,北野３丁目１３番１０号,,11,230,3520003,,,2024-07-12,清算の結了等,,,2015-10-05,1,,,,,イセヤマコウムテン,0
2051,8070002030510,登記記録の閉鎖等,0,2024-07-22,2024-07-10,有限会社長谷川工業,,有限会社,群馬県,太田市,寄合町１９番地４８８,,10,205,3792303,,,2024-07-10,清算の結了等,,,2015-10-05,1,,,,,ハセガワコウギョウ,0
2052,8070003004851,登記記録の閉鎖等,0,2024-07-22,2024-07-17,合同会社藤巻商事,,合同会社,群馬県,高崎市,箕郷町柏木沢１５７７番地１４,,10,202,3703101,,,2024-07-17,清算の結了等,,,2023-03-08,1,,,,,フジマキショウジ,0
2060,8100001013009,登記記録の閉鎖等,0,2024-07-22,2024-07-03,共立化学株式会社,,株式会社,長野県,松本市,大字笹賀６００８番地,,20,202,3990033,,,2024-07-03,合併による解散等,8100001000881,令和６年７月１日長野県千曲市雨宮２４７３番地株式会社ミライ化成（8100001000881）に合併し解散,2015-10-05,1,,,,,キョウリツカガク,0
2064,8110002003453,登記記録の閉鎖等,0,2024-07-22,2024-07-08,有限会社スタジオジィップ,,有限会社,新潟県,新潟市西区,寺尾上４丁目６番２７号,,15,107,9502055,,,2024-07-08,清算の結了等,,,2015-10-05,1,,,,,スタジオジィップ,0
2067,8120001024879,登記記録の閉鎖等,0,2024-07-22,2024-07-18,株式会社バジル,,株式会社,大阪府,大阪市天王寺区,筆ケ崎町５番３９－３３０６,,27,109,5430027,,,2024-07-18,清算の結了等,,,2015-10-05,1,,,,,バジル,0
2068,8120001029903,登記記録の閉鎖等,0,2024-07-22,2024-07-18,株式会社三喜屋,,株式会社,大阪府,大阪市港区,築港３丁目５番２８号,,27,107,5520021,,,2024-07-18,清算の結了等,,,2015-10-05,1,,,,,ミキヤ,0
2070,8120001096646,登記記録の閉鎖等,0,2024-07-22,2024-07-17,株式会社エース鉄工,,株式会社,大阪府,大阪市大正区,小林西１丁目４番１号,,27,108,5510013,,,2024-07-17,清算の結了等,,,2015-10-05,1,,,,,エーステッコウ,0
2081,8120001263171,登記記録の閉鎖等,0,2024-07-22,2024-07-16,株式会社河本ＨＤ１,,株式会社,大阪府,大阪市城東区,鴫野西５丁目１９番３５－１４０２号,,27,118,5360014,,,2024-07-16,清算の結了等,,,2024-03-21,1,,,,,カワモトエイチディーワン,0
2124,8180001009890,登記記録の閉鎖等,0,2024-07-22,2024-07-04,エヌジーケイ・ロジスティクス株式会社,,株式会社,愛知県,名古屋市瑞穂区,須田町２番５６号,,23,108,4670871,,,2024-07-04,清算の結了等,,,2015-10-05,1,,,,,エヌジーケイロジスティクス,0
2134,8190002015490,登記記録の閉鎖等,0,2024-07-22,2024-07-19,有限会社ＩＢＡ,,有限会社,三重県,松阪市,嬉野中川新町２丁目１８３番地,,24,204,5152325,,,2024-07-19,清算の結了等,,,2015-10-05,1,,,,,イバ,0
2138,8200005003350,登記記録の閉鎖等,0,2024-07-22,2024-07-12,企業組合巣南グループホーム,,その他の設立登記法人,岐阜県,瑞穂市,古橋１３５７番地の１,,21,216,5010322,,,2024-07-12,清算の結了等,,,2015-10-05,1,,,,,スナミグループホーム,0
2140,8220001015075,登記記録の閉鎖等,0,2024-07-22,2024-07-12,株式会社北陸メディカルプラン,,株式会社,石川県,金沢市,末町拾六字２１番３,,17,201,9201302,,,2024-07-12,合併による解散等,4120001151248,令和６年７月１日大阪市浪速区元町二丁目５番８号株式会社オージープラン（4120001151248）に合併し解散,2015-10-05,1,,,,,,0
2155,8260002021746,登記記録の閉鎖等,0,2024-07-22,2024-07-05,有限会社森脇重機工業,,有限会社,岡山県,倉敷市,玉島阿賀崎２６６４番地の３,,33,202,7138121,,,2024-07-05,清算の結了等,,,2015-10-05,1,,,,,モリワキジュウキコウギョウ,0
2156,8260002026150,登記記録の閉鎖等,0,2024-07-22,2024-06-27,有限会社ヤマリ,,有限会社,岡山県,井原市,高屋町２丁目８番地の４,,33,207,7150024,,,2024-06-27,清算の結了等,,,2015-10-05,1,,,,,ヤマリ,0
2157,8270001007662,登記記録の閉鎖等,0,2024-07-22,2024-07-18,株式会社ＬｉＸＥＥＤ,,株式会社,鳥取県,西伯郡大山町,御来屋５３５番地１,,31,386,6893211,,,2024-07-18,清算の結了等,,,2018-12-21,1,,,,,リクシード,0
2159,8290001036932,登記記録の閉鎖等,0,2024-07-22,2024-06-24,オアシスコンサルタント株式会社,,株式会社,福岡県,宗像市,土穴２丁目４番２１号,,40,220,8114183,,,2024-06-24,清算の結了等,,,2015-10-05,1,,,,,オアシスコンサルタント,0
2189,8410001011773,登記記録の閉鎖等,0,2024-07-22,2024-07-16,株式会社Ｓｔａｒｓ　Ｃｏｒｐｏｒａｔｉｏｎ,,株式会社,秋田県,秋田市,旭北錦町５番２７号ロイヤルレジデンス３０１,,05,201,0100923,,,2024-07-16,清算の結了等,,,2018-02-23,1,,,,,スターズコーポレーション,0
2197,8440002000426,登記記録の閉鎖等,0,2024-07-22,2024-07-17,有限会社岩館設備,,有限会社,北海道,函館市,本通１丁目３３番１７号,,01,202,0410851,,,2024-07-17,清算の結了等,,,2015-10-05,1,,,,,イワダテセツビ,0
2198,8450001005400,登記記録の閉鎖等,0,2024-07-22,2024-07-11,株式会社アップルワード,,株式会社,北海道,旭川市,東光十条２丁目２番４号,,01,204,0788350,,,2024-07-11,清算の結了等,,,2015-10-05,1,,,,,アップルワード,0
2216,9010001129754,登記記録の閉鎖等,0,2024-07-22,2024-07-05,イーブリッドリレーションズ株式会社,,株式会社,東京都,千代田区,麹町３丁目１２番地３,,13,101,1020083,,,2024-07-05,清算の結了等,,,2015-10-05,1,,,,,イーブリッドリレーションズ,0
2227,9010003026421,登記記録の閉鎖等,0,2024-07-22,2024-07-05,川西プロパティー合同会社,,合同会社,東京都,千代田区,丸の内１丁目１１番１号,,13,101,1000005,,,2024-07-05,清算の結了等,,,2017-11-10,1,,,,,カワニシプロパティー,0
2230,9010101001219,登記記録の閉鎖等,0,2024-07-22,2024-07-18,株式会社光蓉エージェンシー,,株式会社,東京都,八王子市,台町４丁目３２番１８号,,13,201,1930931,,,2024-07-18,清算の結了等,,,2015-10-05,1,,,,,コウヨウエージェンシー,0
2265,9011201019092,登記記録の閉鎖等,0,2024-07-22,2024-07-10,株式会社ヴォイスグループ,,株式会社,東京都,板橋区,相生町１２番１２－４１３号,,13,119,1740044,,,2024-07-10,清算の結了等,,,2016-05-24,1,,,,,ヴォイスグループ,0
2266,9011201019489,登記記録の閉鎖等,0,2024-07-22,2024-07-18,株式会社ＭＹコーポレーション,,株式会社,東京都,中野区,南台２丁目４８番２０－３０４号,,13,114,1640014,,,2024-07-18,清算の結了等,,,2016-11-07,1,,,,,エムワイコーポレーション,0
2272,9011602020954,登記記録の閉鎖等,0,2024-07-22,2024-07-11,有限会社ボトム,,有限会社,東京都,練馬区,早宮１丁目３６番１１号,,13,120,1790085,,,2024-07-11,清算の結了等,,,2015-10-05,1,,,,,ボトム,0
2287,9020001108427,登記記録の閉鎖等,0,2024-07-22,2024-07-01,士業ネットワークのあかつき不動産株式会社,,株式会社,神奈川県,横浜市西区,高島２丁目５番５号－３０３号,,14,103,2200011,,,2024-07-01,清算の結了等,,,2015-10-05,1,,,,,シギョウネットワークノアカツキフドウサン,0
2297,9021003004572,登記記録の閉鎖等,0,2024-07-22,2024-07-11,合同会社ＫＴＮ,,合同会社,東京都,練馬区,高野台２丁目１３番１３－１０１号,,13,120,1770033,,,2024-07-11,清算の結了等,,,2015-10-05,1,,,,,,0
2314,9040002099878,登記記録の閉鎖等,0,2024-07-22,2024-07-03,有限会社モン,,有限会社,千葉県,館山市,北条２２０４番地,,12,205,2940045,,,2024-07-03,清算の結了等,,,2015-10-05,1,,,,,モン,0
2332,9080401004906,登記記録の閉鎖等,0,2024-07-22,2024-07-11,カンクローフーズ株式会社,,株式会社,静岡県,浜松市中央区,神田町１６番地の３,,22,138,4328047,,,2024-07-11,清算の結了等,,,2015-10-05,1,,,,,カンクローフーズ,0
2333,9080402014318,登記記録の閉鎖等,0,2024-07-22,2024-07-12,有限会社ＤＮＣ技研,,有限会社,静岡県,浜松市中央区,金折町１４１７番地の２３,,22,138,4350026,,,2024-07-12,清算の結了等,,,2015-10-05,1,,,,,ディーエヌシーギケン,0
2348,9120101062407,登記記録の閉鎖等,0,2024-07-22,2024-07-10,株式会社ＮＷ大阪,,株式会社,滋賀県,高島市,今津町浜分４２９番地２７,,25,212,5201604,,,2024-07-10,清算の結了等,,,2020-10-05,1,,,,,,0
2371,9180001027058,登記記録の閉鎖等,0,2024-07-22,2024-07-03,本州屋産業株式会社,,株式会社,愛知県,名古屋市西区,東岸町２丁目２２番地,,23,104,4510076,,,2024-07-03,清算の結了等,,,2015-10-05,1,,,,,ホンシュウヤサンギョウ,0
2372,9180001052551,登記記録の閉鎖等,0,2024-07-22,2024-07-03,株式会社ＢＩＢ,,株式会社,愛知県,名古屋市千種区,自由ケ丘３丁目２番２－１４０５号,,23,101,4640044,,,2024-07-03,清算の結了等,,,2015-10-05,1,,,,,ビーアイビー,0
2374,9180001079198,登記記録の閉鎖等,0,2024-07-22,2024-07-08,藤井窯業原料株式会社,,株式会社,愛知県,瀬戸市,太子町１９３番地,,23,204,4890846,,,2024-07-08,清算の結了等,,,2015-10-05,1,,,,,フジイヨウギョウゲンリョウ,0
2386,9180301020530,登記記録の閉鎖等,0,2024-07-22,2024-07-05,ＩＷＣファイナンシャルサービス株式会社,,株式会社,愛知県,豊田市,上野町７丁目３１番地,,23,211,4710015,,,2024-07-05,清算の結了等,,,2015-10-05,1,,,,,アイダブリュシーファイナンシャルサービス,0
2389,9180301024374,登記記録の閉鎖等,0,2024-07-22,2024-07-01,株式会社ログウェル日本,,株式会社,愛知県,新城市,能登瀬字上ノ段２番地１,,23,221,4411605,,,2024-07-01,清算の結了等,,,2015-10-05,1,,,,,ログウェルニッポン,0
2391,9190002012883,登記記録の閉鎖等,0,2024-07-22,2024-07-18,有限会社マルヒロ,,有限会社,三重県,伊賀市,緑ケ丘東町８８４番地,,24,216,5180833,,,2024-07-18,清算の結了等,,,2015-10-05,1,,,,,,0
2399,9240002042487,登記記録の閉鎖等,0,2024-07-22,2024-07-17,有限会社日高商事,,有限会社,広島県,福山市,東川口町４丁目８番９号,,34,207,7200821,,,2024-07-17,清算の結了等,,,2015-10-05,1,,,,,ヒダカショウジ,0
2402,9260002024962,登記記録の閉鎖等,0,2024-07-22,2024-07-08,吉川薬品有限会社,,有限会社,岡山県,浅口市,鴨方町鴨方１０７７番地,,33,216,7190243,,,2024-07-08,清算の結了等,,,2015-10-05,1,,,,,キッカワヤクヒン,0
2409,9290802001027,登記記録の閉鎖等,0,2024-07-22,2024-07-11,有限会社エム・ダブリュウ・エス,,有限会社,福岡県,北九州市小倉南区,守恒本町２丁目８番２０号,,40,107,8020971,,,2024-07-11,清算の結了等,,,2015-10-05,1,,,,,エムダブリュウエス,0
2418,9340002017009,登記記録の閉鎖等,0,2024-07-22,2024-07-16,有限会社弘金運輸,,有限会社,鹿児島県,薩摩川内市,御陵下町５４４９番地１,,46,215,8950061,,,2024-07-16,清算の結了等,,,2015-10-05,1,,,,,ヒロカネウンユ,0
2425,9360001012834,登記記録の閉鎖等,0,2024-07-22,2024-07-16,株式会社ホリ食品加工,,株式会社,沖縄県,国頭郡今帰仁村,字上運天９５６番地２,,47,306,9050404,,,2024-07-16,清算の結了等,,,2015-10-05,1,,,,,ホリショクヒンカコウ,0
2453,9480002012722,登記記録の閉鎖等,0,2024-07-22,2024-07-18,有限会社伊丹旅館,,有限会社,徳島県,阿南市,津乃峰町東分５２番地３,,36,204,7740021,,,2024-07-18,清算の結了等,,,2015-10-05,1,,,,,イタミリョカン,0
