sequenceNumber,corporateNumber,process,correct,updateDate,changeDate,name,nameImageId,kind,prefectureName,cityName,streetNumber,addressImageId,prefectureCode,cityCode,postCode,addressOutside,addressOutsideImageId,closeDate,closeCause,successorCorporateNumber,changeCause,assignmentDate,latest,enName,enPrefectureName,enCityName,enAddressOutside,furigana,hihyoji
5,1010401077239,登記記録の閉鎖等,0,2024-08-13,2024-07-11,株式会社Ｐｈｉｌｏ,,株式会社,東京都,港区,三田１丁目４番１号,,13,103,1080073,,,2024-07-11,合併による解散等,4010401086872,令和６年７月１日東京都港区三田一丁目４番１号株式会社ライツアパートメント（4010401086872）に合併し解散,2015-10-05,1,,,,,フィロ,0
7,1010401163781,登記記録の閉鎖等,0,2024-08-13,2024-07-23,株式会社セレナビジャパン,,株式会社,東京都,港区,新橋１丁目１６番４号りそな新橋ビル６Ｆ,,13,103,1050004,,,2024-07-23,清算の結了等,,,2021-11-11,1,,,,,セレナビジャパン,0
55,1011402003720,登記記録の閉鎖等,0,2024-08-13,2024-08-05,有限会社サンケイ測量設計,,有限会社,東京都,板橋区,板橋１丁目４４番５号,,13,119,1730004,,,2024-08-05,清算の結了等,,,2015-10-05,1,,,,,サンケイソクリョウセッケイ,0
60,1011702008659,登記記録の閉鎖等,0,2024-08-13,2024-08-06,有限会社梨本工務店不動産部,,有限会社,東京都,江戸川区,鹿骨３丁目１７番１７号,,13,123,1330073,,,2024-08-06,清算の結了等,,,2015-10-05,1,,,,,ナシモトコウムテンンフドウサンブ,0
61,1012701002280,登記記録の閉鎖等,0,2024-08-13,2024-07-12,城西パック株式会社,,株式会社,東京都,西東京市,芝久保町５丁目４番５５号,,13,229,1880014,,,2024-07-12,合併による解散等,9010801000057,令和６年７月１日東京都中央区日本橋浜町二丁目１３番６号ＭＵＴＯＨ浜町ビル４階旭段ボール株式会社（9010801000057）に合併し解散,2015-10-05,1,,,,,ジョウサイパック,0
68,1013301035670,登記記録の閉鎖等,0,2024-08-13,2024-08-01,株式会社富士山の天然水ホールディングス,,株式会社,東京都,豊島区,東池袋１丁目５番６号,,13,116,1700013,,,2024-08-01,合併による解散等,6013301021897,令和６年８月１日東京都豊島区東池袋一丁目５番６号株式会社ラ・ホールディングス（6013301021897）に合併し解散,2015-10-05,1,,,,,フジサンノテンネンスイホールディングス,0
72,1020001074321,登記記録の閉鎖等,0,2024-08-13,2024-07-09,株式会社プロジェクト・ケイ,,株式会社,神奈川県,川崎市川崎区,日進町１番地１１,,14,131,2100024,,,2024-07-09,合併による解散等,4011101004918,令和６年７月１日東京都新宿区新宿三丁目８番９号株式会社川村商事（4011101004918）に合併し解散,2015-10-05,1,,,,,プロジェクトケイ,0
73,1020001075575,登記記録の閉鎖等,0,2024-08-13,2024-07-22,株式会社メカテック,,株式会社,神奈川県,川崎市宮前区,馬絹５丁目１８番２号,,14,136,2160035,,,2024-07-22,清算の結了等,,,2015-10-05,1,,,,,メカテック,0
77,1020001122195,登記記録の閉鎖等,0,2024-08-13,2024-07-01,ＪＡＳ株式会社,,株式会社,神奈川県,横浜市戸塚区,上矢部町９２６番地,,14,110,2450053,,,2024-07-01,合併による解散等,4020001155267,令和６年７月１日横浜市戸塚区上矢部町９２６番地ＪＡＳ株式会社（4020001155267）に合併し解散,2017-07-05,1,,,,,ジェイエイエス,0
86,1020005003722,登記記録の閉鎖等,0,2024-08-13,2024-07-19,医療法人社団大倉山レディースクリニック,,その他の設立登記法人,神奈川県,横浜市港北区,大倉山３丁目４番３１号ヒルズ・カモ１Ｆ,,14,109,2220037,,,2024-07-19,清算の結了等,,,2015-10-05,1,,,,,オオクラヤマレディースクリニック,0
90,1030001000953,登記記録の閉鎖等,0,2024-08-13,2024-07-05,株式会社ウエイブエンジニアリング,,株式会社,埼玉県,さいたま市中央区,下落合５丁目４番６号,,11,105,3380002,,,2024-07-05,合併による解散等,7010001021401,令和６年７月１日東京都千代田区神田駿河台二丁目５番地１２第一エンジニアリング株式会社（7010001021401）に合併し解散,2015-10-05,1,,,,,ウエイブエンジニアリング,0
93,1030001049859,登記記録の閉鎖等,0,2024-08-13,2024-08-05,株式会社ＫＮサポート販売,,株式会社,埼玉県,志木市,館１丁目６番１１－３０２号,,11,228,3530006,,,2024-08-05,清算の結了等,,,2015-10-05,1,,,,,ケイエヌサポートハンバイ,0
101,1030002009928,登記記録の閉鎖等,0,2024-08-13,2024-08-05,有限会社ナカザワ電工サービス,,有限会社,埼玉県,吉川市,新栄２丁目８番地１０,,11,243,3420059,,,2024-08-05,清算の結了等,,,2015-10-05,1,,,,,ナカザワデンコウサービス,0
102,1030002040791,登記記録の閉鎖等,0,2024-08-13,2024-08-02,有限会社北斗,,有限会社,埼玉県,久喜市,菖蒲町小林２１１５番地,,11,232,3460115,,,2024-08-02,清算の結了等,,,2015-10-05,1,,,,,ホクト,0
108,1040002061234,登記記録の閉鎖等,0,2024-08-13,2024-07-30,有限会社トート機電,,有限会社,千葉県,富里市,中沢３６６番地６,,12,233,2860222,,,2024-07-30,清算の結了等,,,2015-10-05,1,,,,,トートキデン,0
113,1060003004644,登記記録の閉鎖等,0,2024-08-13,2024-07-30,神田総業合同会社,,合同会社,栃木県,栃木市,神田町４番１５号,,09,203,3280032,,,2024-07-30,清算の結了等,,,2023-07-13,1,,,,,カンダソウギョウ,0
132,1090001015153,登記記録の閉鎖等,0,2024-08-13,2024-08-02,株式会社八ヶ岳南麓スープ研究所,,株式会社,山梨県,北杜市,大泉町西井出７１０２番地１１,,19,209,4091501,,,2024-08-02,清算の結了等,,,2017-06-21,1,,,,,ヤツガタケナンロクスープケンキョウジョ,0
133,1100001017049,登記記録の閉鎖等,0,2024-08-13,2024-07-25,株式会社新生,,株式会社,長野県,塩尻市,大門六番町４番３０号,,20,215,3990731,,,2024-07-25,清算の結了等,,,2015-10-05,1,,,,,シンセイ,0
145,1120001212201,登記記録の閉鎖等,0,2024-08-13,2024-07-30,株式会社ＴＲＣ,,株式会社,大阪府,大阪市天王寺区,生玉町１１番２４号ＢＬＤＫＴＨＥＡＴＥＲ１１０２,,27,109,5430071,,,2024-07-30,清算の結了等,,,2018-03-27,1,,,,,ティーアールシー,0
190,1180302021659,登記記録の閉鎖等,0,2024-08-13,2024-08-06,有限会社岡田設計測量事務所,,有限会社,愛知県,豊田市,中町中郷６１番地,,23,211,4730904,,,2024-08-06,清算の結了等,,,2015-10-05,1,,,,,オカダセッケイソクリョウジムショ,0
191,1200001001117,登記記録の閉鎖等,0,2024-08-13,2024-08-08,株式会社川合建築設計事務所,,株式会社,岐阜県,岐阜市,切通６丁目２２番７号,,21,201,5008237,,,2024-08-08,清算の結了等,,,2015-10-05,1,,,,,カワイケンチクセッケイジムショ,0
194,1200005003539,登記記録の閉鎖等,0,2024-08-13,2024-07-17,稲荷神社,,その他の設立登記法人,岐阜県,羽島市,桑原町八神４６６５番地,,21,209,5016321,,,2024-07-17,合併による解散等,2200005003661,令和６年７月１７日岐阜県羽島市桑原町八神４６６５番地八剱神社（2200005003661）に合併し解散,2015-10-05,1,,,,,イナリジンジャ,0
202,1240001032323,登記記録の閉鎖等,0,2024-08-13,2024-07-05,株式会社宮本都市アークズ,,株式会社,広島県,福山市,川口町１丁目１０番２６号,,34,207,7200822,,,2024-07-05,清算の結了等,,,2015-10-05,1,,,,,ミヤモトトシ,0
203,1240001039269,登記記録の閉鎖等,0,2024-08-13,2024-08-08,株式会社エイト運輸,,株式会社,広島県,福山市,柳津町４丁目２４０８番地４,,34,207,7290114,,,2024-08-08,清算の結了等,,,2015-10-05,1,,,,,エイトウンユ,0
209,1250002003776,登記記録の閉鎖等,0,2024-08-13,2024-08-01,有限会社アイ不動産,,有限会社,山口県,防府市,国衙１丁目９番１３号,,35,206,7470024,,,2024-08-01,合併による解散等,6250001002056,令和６年８月１日山口県防府市国衙五丁目６番２８号みどり建設株式会社（6250001002056）に合併し解散,2015-10-05,1,,,,,アイフドウサン,0
215,1260002033566,登記記録の閉鎖等,0,2024-08-13,2024-07-26,有限会社武住,,有限会社,岡山県,真庭市,月田７４１０番地の７,,33,214,7170024,,,2024-07-26,清算の結了等,,,2015-10-05,1,,,,,タケジュウ,0
217,1280002010027,登記記録の閉鎖等,0,2024-08-13,2024-08-02,有限会社大畑石油,,有限会社,島根県,益田市,横田町２７５番地,,32,204,6995132,,,2024-08-02,合併による解散等,8280001005112,令和６年８月１日島根県益田市高津八丁目１０番９号益田石油株式会社（8280001005112）に合併し解散,2015-10-05,1,,,,,オオハタセキユ,0
238,1360003003285,登記記録の閉鎖等,0,2024-08-13,2024-08-02,合同会社さかき,,合同会社,沖縄県,沖縄市,胡屋６丁目１３番３０号,,47,211,9040021,,,2024-08-02,清算の結了等,,,2015-10-05,1,,,,,サカキ,0
257,1460005000072,登記記録の閉鎖等,0,2024-08-13,2024-07-22,天理教舞釧分教会,,その他の設立登記法人,北海道,釧路市,米町２丁目１番１５号,,01,206,0850842,,,2024-07-22,合併による解散等,5460005000077,令和６年７月２２日北海道釧路市浪花町七丁目５番地天理教西幣舞分教会（5460005000077）に合併し解散,2015-10-05,1,,,,,テンリキョウマイクシブンキョウカイ,0
259,1470005002522,登記記録の閉鎖等,0,2024-08-13,2024-07-01,丸亀市漁業協同組合,,その他の設立登記法人,香川県,丸亀市,富士見町２丁目１０番１６号,,37,202,7630011,,,2024-07-01,合併による解散等,5470005002519,令和６年７月１日香川県仲多度郡多度津町東港町２５番中讃西部漁業協同組合（5470005002519）に合併し解散,2015-10-05,1,,,,,マルガメシ,0
265,2010001112329,登記記録の閉鎖等,0,2024-08-13,2024-07-29,山佐産業ＲＹＲ４リース株式会社,,株式会社,東京都,千代田区,丸の内３丁目１番１号東京共同会計事務所内,,13,101,1000005,,,2024-07-29,清算の結了等,,,2015-10-05,1,,,,,ヤマササンギョウアールワイアールフォーリース,0
284,2010405020144,登記記録の閉鎖等,0,2024-08-13,2024-07-22,ＡＫＢプラチナ一般社団法人,,その他の設立登記法人,東京都,港区,西新橋１丁目２番９号メンターキャピタル税理士法人内,,13,103,1050003,,,2024-07-22,清算の結了等,,,2021-08-27,1,,,,,エーケービープラチナ,0
288,2010701007638,登記記録の閉鎖等,0,2024-08-13,2024-08-01,日本環境開発株式会社,,株式会社,東京都,品川区,東五反田４丁目７番１９号,,13,109,1410022,,,2024-08-01,合併による解散等,8010401016108,令和６年８月１日東京都品川区北品川一丁目８番２０号総合地質調査株式会社（8010401016108）に合併し解散,2015-10-05,1,,,,,ニホンカンキョウカイハツ,0
297,2011001094747,登記記録の閉鎖等,0,2024-08-13,2024-07-08,フリーサイン株式会社,,株式会社,東京都,品川区,大崎１丁目２番２号,,13,109,1410032,,,2024-07-08,合併による解散等,7010401100770,令和６年７月１日東京都品川区大崎一丁目２番２号フリー株式会社（7010401100770）に合併し解散,2015-10-05,1,,,,,フリーサイン,0
316,2011501029194,登記記録の閉鎖等,0,2024-08-13,2024-08-08,青花貿易株式会社,,株式会社,東京都,北区,浮間１丁目１番１４号リムジンビル１０１,,13,117,1150051,,,2024-08-08,清算の結了等,,,2023-04-20,1,,,,,アオバナボウエキ,0
320,2011701022420,登記記録の閉鎖等,0,2024-08-13,2024-08-06,株式会社ＲＦＴｅｃｈｎｏｌｏｇｙ,,株式会社,東京都,江戸川区,西一之江１丁目３番１３号,,13,123,1320023,,,2024-08-06,清算の結了等,,,2019-02-07,1,,,,,アールエフテクノロジー,0
326,2013301029746,登記記録の閉鎖等,0,2024-08-13,2024-08-01,株式会社富士山の天然水,,株式会社,東京都,豊島区,東池袋１丁目５番６号,,13,116,1700013,,,2024-08-01,合併による解散等,6013301021897,令和６年８月１日東京都豊島区東池袋一丁目５番６号株式会社ラ・ホールディングス（6013301021897）に合併し解散,2015-10-05,1,,,,,フジサンノテンネンスイ,0
328,2020001058810,登記記録の閉鎖等,0,2024-08-13,2024-07-22,株式会社エクスペリエンス総合研究所,,株式会社,神奈川県,横浜市港北区,大倉山１丁目１０番６号２０１,,14,109,2220037,,,2024-07-22,清算の結了等,,,2015-10-05,1,,,,,エクスペリエンスソウゴウケンキュウジョ,0
356,2030002120130,登記記録の閉鎖等,0,2024-08-13,2024-08-05,キタワキ設備有限会社,,有限会社,埼玉県,日高市,大字下鹿山９３番地の５,,11,242,3501233,,,2024-08-05,清算の結了等,,,2015-10-05,1,,,,,キタワキセツビ,0
361,2040002037225,登記記録の閉鎖等,0,2024-08-13,2024-07-30,有限会社ユニコックス,,有限会社,千葉県,市川市,市川南５丁目４番７号,,12,203,2720033,,,2024-07-30,清算の結了等,,,2015-10-05,1,,,,,ユニコックス,0
370,2050002039575,登記記録の閉鎖等,0,2024-08-13,2024-08-02,有限会社茨城ネダソー,,有限会社,茨城県,常総市,長助町１０５番地８,,08,211,3030015,,,2024-08-02,清算の結了等,,,2015-10-05,1,,,,,イバラキネダソー,0
382,2080402002997,登記記録の閉鎖等,0,2024-08-13,2024-08-05,有限会社小西不動産,,有限会社,静岡県,浜松市中央区,野口町６０６番地,,22,138,4300919,,,2024-08-05,清算の結了等,,,2015-10-05,1,,,,,コニシフドウサン,0
400,2120005010352,登記記録の閉鎖等,0,2024-08-13,2024-08-08,税理士法人ＦＡパートナーズ,,その他の設立登記法人,大阪府,大阪市東成区,神路３丁目１７番１号,,27,115,5370003,,,2024-08-08,清算の結了等,,,2015-10-05,1,,,,,エフエーパートナーズ,0
405,2120105003850,登記記録の閉鎖等,0,2024-08-13,2024-08-02,特定非営利活動法人愛の手,,その他の設立登記法人,大阪府,堺市堺区,香ヶ丘町４丁６番２３号,,27,141,5900011,,,2024-08-02,清算の結了等,,,2015-10-05,1,,,,,アイノテ,0
407,2122001025516,登記記録の閉鎖等,0,2024-08-13,2024-08-07,株式会社ＩＴ・技術サービス,,株式会社,大阪府,東大阪市,菱屋西５丁目６番１５号,,27,227,5770807,,,2024-08-07,合併による解散等,1120001113928,令和６年８月１日大阪市中央区南本町二丁目６番５－５０８号株式会社ＩＴ・アルファー（1120001113928）に合併し解散,2015-10-05,1,,,,,,0
441,2180005006353,登記記録の閉鎖等,0,2024-08-13,2024-07-31,特定非営利活動法人交通事故サポートプログラム,,その他の設立登記法人,愛知県,名古屋市西区,児玉１丁目９番５号,,23,104,4510066,,,2024-07-31,清算の結了等,,,2015-10-05,1,,,,,コウツウジコサポートプログラム,0
449,2220002008414,登記記録の閉鎖等,0,2024-08-13,2024-07-31,有限会社前田技建,,有限会社,石川県,金沢市,赤土町へ７８番地１,,17,201,9200353,,,2024-07-31,清算の結了等,,,2015-10-05,1,,,,,マエダギケン,0
458,2280001005365,登記記録の閉鎖等,0,2024-08-13,2024-07-29,株式会社ボンニー,,株式会社,島根県,益田市,神田町イ７４１番地,,32,204,6995133,,,2024-07-29,清算の結了等,,,2018-04-04,1,,,,,ボンニー,0
462,2290001075952,登記記録の閉鎖等,0,2024-08-13,2024-07-16,株式会社サンリアルエステート,,株式会社,福岡県,福岡市東区,多の津１丁目１２番２号,,40,131,8130034,,,2024-07-16,合併による解散等,9290001071458,令和６年６月３０日福岡市東区多の津一丁目１２番２号株式会社トライアルホールディングス（9290001071458）に合併し解散,2016-12-01,1,,,,,サンリアルエステート,0
468,2290002009884,登記記録の閉鎖等,0,2024-08-13,2024-07-04,有限会社遠藤和洋紙店,,有限会社,福岡県,福岡市中央区,御所ヶ谷２番３６－５０３号,,40,133,8100027,,,2024-07-04,清算の結了等,,,2015-10-05,1,,,,,エンドウワヨウシテン,0
477,2310002001517,登記記録の閉鎖等,0,2024-08-13,2024-07-29,有限会社霧島建設,,有限会社,長崎県,長崎市,田中町２２６番地２０,,42,201,8510134,,,2024-07-29,清算の結了等,,,2015-10-05,1,,,,,キリシマケンセツ,0
479,2310005007718,登記記録の閉鎖等,0,2024-08-13,2024-08-07,一般社団法人ライフエンディングサポート佐世保,,その他の設立登記法人,長崎県,佐世保市,有福町４１９９番地４,,42,202,8593241,,,2024-08-07,清算の結了等,,,2015-10-05,1,,,,,ライフエンディングサポートサセボ,0
496,2380001026467,登記記録の閉鎖等,0,2024-08-13,2024-08-05,株式会社ＢＬＵＥ,,株式会社,福島県,郡山市,三穂田町富岡字南森１０３番地,,07,203,9630125,,,2024-08-05,清算の結了等,,,2016-02-09,1,,,,,ブルー,0
499,2400003002422,登記記録の閉鎖等,0,2024-08-13,2024-07-30,ワイオー商事合同会社,,合同会社,岩手県,盛岡市,本町通１丁目１０番５号,,03,201,0200015,,,2024-07-30,清算の結了等,,,2019-01-15,1,,,,,ワイオーショウジ,0
523,3010001112328,登記記録の閉鎖等,0,2024-08-13,2024-07-29,山佐産業ＲＹＲ５リース株式会社,,株式会社,東京都,千代田区,丸の内３丁目１番１号東京共同会計事務所内,,13,101,1000005,,,2024-07-29,清算の結了等,,,2015-10-05,1,,,,,ヤマササンギョウアールワイアールファイブリース,0
525,3010001150468,登記記録の閉鎖等,0,2024-08-13,2024-08-07,シップファイナンスコンサルティング株式会社,,株式会社,東京都,港区,西新橋１丁目２０番３号,,13,103,1050003,,,2024-08-07,合併による解散等,3010902024357,令和６年８月１日東京都世田谷区代沢二丁目４８番１６号シップサービスパートナー株式会社（3010902024357）に合併し解散,2015-10-05,1,,,,,シップファイナンスコンサルティング,0
526,3010001233347,登記記録の閉鎖等,0,2024-08-13,2024-07-30,ログシスＢＰ株式会社,,株式会社,東京都,千代田区,九段北１丁目１４番１６号,,13,101,1020073,,,2024-07-30,清算の結了等,,,2023-03-02,1,,,,,ログシスビーピー,0
528,3010003031476,登記記録の閉鎖等,0,2024-08-13,2024-07-30,ａｎｅｗ合同会社,,合同会社,東京都,中央区,日本橋室町２丁目４番３号,,13,102,1030022,,,2024-07-30,清算の結了等,,,2020-01-20,1,,,,,アニュー,0
532,3010401064813,登記記録の閉鎖等,0,2024-08-13,2024-07-31,ストレージプラス株式会社,,株式会社,東京都,千代田区,九段南２丁目３番１０号,,13,101,1020074,,,2024-07-31,清算の結了等,,,2015-10-05,1,,,,,ストレージプラス,0
534,3010401169315,登記記録の閉鎖等,0,2024-08-13,2024-08-08,ＧＣＪＩ８株式会社,,株式会社,東京都,港区,元赤坂１丁目１番８号株式会社赤坂国際会計内,,13,103,1070051,,,2024-08-08,合併による解散等,8010701009868,令和６年７月３１日東京都品川区西大井四丁目２４番１４号山本シーリング工業株式会社（8010701009868）に合併し解散,2022-08-26,1,,,,,ジーシージェイアイエイト,0
539,3010402017794,登記記録の閉鎖等,0,2024-08-13,2024-07-25,有限会社フェイスティ,,有限会社,東京都,渋谷区,道玄坂１丁目１０番８号渋谷道玄坂東急ビル２Ｆ－Ｃ,,13,113,1500043,,,2024-07-25,清算の結了等,,,2015-10-05,1,,,,,フェイスティ,0
541,3010403017579,登記記録の閉鎖等,0,2024-08-13,2024-08-07,合同会社コンロンカ,,合同会社,沖縄県,中頭郡読谷村,字伊良皆２７９－１サンセット伊良皆６０４,,47,324,9040303,,,2024-08-07,清算の結了等,,,2017-11-10,1,,,,,コンロンカ,0
555,3010901027690,登記記録の閉鎖等,0,2024-08-13,2024-08-02,株式会社エフ・エム・ディー,,株式会社,東京都,世田谷区,深沢６丁目３０番２４号,,13,112,1580081,,,2024-08-02,合併による解散等,6010901023968,令和６年７月２９日東京都世田谷区深沢六丁目３０番２４号株式会社フォーティーン（6010901023968）に合併し解散,2015-10-05,1,,,,,エフエムディー,0
568,3011002034916,登記記録の閉鎖等,0,2024-08-13,2024-08-06,有限会社スタジオ・ミンツ,,有限会社,東京都,渋谷区,本町１丁目８番１０号,,13,113,1510071,,,2024-08-06,合併による解散等,2130001049600,令和６年８月１日京都市中京区寺町通三条下る永楽町２２８番地株式会社プライム（2130001049600）に合併し解散,2015-10-05,1,,,,,,0
586,3011602010655,登記記録の閉鎖等,0,2024-08-13,2024-08-05,有限会社横山自動車商会,,有限会社,東京都,練馬区,高野台５丁目３９番９号,,13,120,1770033,,,2024-08-05,清算の結了等,,,2015-10-05,1,,,,,ヨコヤマジドウシャショウカイ,0
594,3012802005008,登記記録の閉鎖等,0,2024-08-13,2024-08-08,丸栄食品有限会社,,有限会社,東京都,武蔵村山市,中原２丁目１８番地１２,,13,223,2080035,,,2024-08-08,清算の結了等,,,2015-10-05,1,,,,,マルエイショクヒン,0
601,3020001074815,登記記録の閉鎖等,0,2024-08-13,2024-07-22,株式会社ユニット工販,,株式会社,神奈川県,川崎市川崎区,殿町３丁目５番８号,,14,131,2100821,,,2024-07-22,清算の結了等,,,2015-10-05,1,,,,,,0
607,3020003022251,登記記録の閉鎖等,0,2024-08-13,2024-07-22,ｃｏ‐Ｌｉｎｋ合同会社,,合同会社,神奈川県,横浜市緑区,鴨居１丁目１６番２－１０１号,,14,113,2260003,,,2024-07-22,清算の結了等,,,2022-08-18,1,,,,,コリンク,0
615,3030001125526,登記記録の閉鎖等,0,2024-08-13,2024-08-05,株式会社明日,,株式会社,埼玉県,八潮市,大字垳４２１番地,,11,234,3400824,,,2024-08-05,清算の結了等,,,2018-05-09,1,,,,,アシタ,0
616,3030002024578,登記記録の閉鎖等,0,2024-08-13,2024-08-08,有限会社副島塗装,,有限会社,埼玉県,戸田市,川岸２丁目４番２０号,,11,224,3350015,,,2024-08-08,清算の結了等,,,2015-10-05,1,,,,,ソエジマトソウ,0
621,3030002122539,登記記録の閉鎖等,0,2024-08-13,2024-07-24,有限会社シンシア,,有限会社,埼玉県,秩父市,番場町６番４号,,11,207,3680041,,,2024-07-24,合併による解散等,1030001033549,令和６年７月１２日埼玉県加須市砂原２８７番地１ウイステリア株式会社（1030001033549）に合併し解散,2015-10-05,1,,,,,シンシア,0
628,3050001013027,登記記録の閉鎖等,0,2024-08-13,2024-07-31,株式会社米家,,株式会社,茨城県,土浦市,中村南３丁目６番２号,,08,203,3000843,,,2024-07-31,清算の結了等,,,2015-10-05,1,,,,,ヨネヤ,0
629,3050001017936,登記記録の閉鎖等,0,2024-08-13,2024-08-05,株式会社ＯＮＬＹ　ＪＡＰＡＮ,,株式会社,茨城県,つくば市,谷田部３３９５番地１,,08,220,3050861,,,2024-08-05,清算の結了等,,,2015-10-05,1,,,,,オンリージャパン,0
642,3060002040746,登記記録の閉鎖等,0,2024-08-13,2024-07-30,有限会社メディカルハイランド,,有限会社,栃木県,宇都宮市,西刑部町２４１１番地４,,09,201,3210917,,,2024-07-30,清算の結了等,,,2015-10-05,1,,,,,メディカルハイランド,0
682,3120902013555,登記記録の閉鎖等,0,2024-08-13,2024-08-05,有限会社イーサンシステム,,有限会社,大阪府,高槻市,西冠１丁目８番１２号,,27,207,5690055,,,2024-08-05,清算の結了等,,,2015-10-05,1,,,,,イーサンシステム,0
686,3130001063880,登記記録の閉鎖等,0,2024-08-13,2024-08-07,株式会社スタジオＧＯ,,株式会社,京都府,京都市東山区,今熊野日吉町４番地の１０,,26,105,6050925,,,2024-08-07,清算の結了等,,,2019-02-05,1,,,,,スタジオゴー,0
691,3140005006182,登記記録の閉鎖等,0,2024-08-13,2024-07-22,天理教美吉分教会,,その他の設立登記法人,兵庫県,三木市,口吉川町西中２３７番地の２,,28,215,6730735,,,2024-07-22,合併による解散等,4140005006132,令和６年７月２２日兵庫県三木市口吉川町大島８９１番地天理教口吉川分教会（4140005006132）に合併し解散,2015-10-05,1,,,,,テンリキョウミヨシブンキョウカイ,0
692,3140005006190,登記記録の閉鎖等,0,2024-08-13,2024-07-22,天理教美細分教会,,その他の設立登記法人,兵庫県,三木市,口吉川町西中４６０番地の１,,28,215,6730735,,,2024-07-22,合併による解散等,4140005006132,令和６年７月２２日兵庫県三木市口吉川町大島８９１番地天理教口吉川分教会（4140005006132）に合併し解散,2015-10-05,1,,,,,テンリキョウミサイブンキョウカイ,0
698,3180001098468,登記記録の閉鎖等,0,2024-08-13,2024-08-02,株式会社マシンビルド,,株式会社,愛知県,あま市,篠田八原１４番地,,23,237,4901211,,,2024-08-02,清算の結了等,,,2015-10-05,1,,,,,マシンビルド,0
724,3210005004030,登記記録の閉鎖等,0,2024-08-13,2024-08-06,公益財団法人坂井市農業振興公社,,その他の設立登記法人,福井県,坂井市,坂井町下新庄第１号１番地,,18,210,9190521,,,2024-08-06,清算の結了等,,,2015-10-05,1,,,,,サカイシノウギョウシンコウコウシャ,0
744,3300002008867,登記記録の閉鎖等,0,2024-08-13,2024-08-06,有限会社九州商事,,有限会社,佐賀県,鳥栖市,田代外町６４１番地,,41,203,8410016,,,2024-08-06,清算の結了等,,,2015-10-05,1,,,,,キュウシュウショウジ,0
751,3340001016504,登記記録の閉鎖等,0,2024-08-13,2024-08-05,株式会社武原保険事務所,,株式会社,鹿児島県,奄美市,名瀬仲勝町１８番地８,,46,222,8940063,,,2024-08-05,清算の結了等,,,2015-10-05,1,,,,,タケハラホケンジムショ,0
752,3340005004686,登記記録の閉鎖等,0,2024-08-13,2024-07-08,天理教芦大浦分教会,00100280,その他の設立登記法人,鹿児島県,奄美市,名瀬浦上町３４番地８,,46,222,8940068,,,2024-07-08,合併による解散等,4340005004669,令和６年７月８日鹿児島県奄美市笠利町大字外金久１５０番地天理教奄美笠分教会（4340005004669）に合併し解散,2015-10-05,1,,,,,,0
766,3370402001589,登記記録の閉鎖等,0,2024-08-13,2024-07-24,有限会社割烹鹿野,,有限会社,宮城県,登米市,迫町佐沼字西佐沼１３８番地,,04,212,9870511,,,2024-07-24,清算の結了等,,,2015-10-05,1,,,,,カッポウシカノ,0
768,3410001012999,登記記録の閉鎖等,0,2024-08-13,2024-08-07,株式会社淡路林業土木,,株式会社,秋田県,潟上市,飯田川和田妹川字山下３番地１,,05,211,0181503,,,2024-08-07,清算の結了等,,,2021-10-29,1,,,,,アワジリンギョウドボク,0
769,3410005001809,登記記録の閉鎖等,0,2024-08-13,2024-08-05,特定非営利活動法人ＷｅＬｏｖｅあきた歌のネットワーク,,その他の設立登記法人,秋田県,秋田市,桜４丁目８番７号,,05,201,0100042,,,2024-08-05,清算の結了等,,,2015-10-05,1,,,,,ウィーラブアキタウタノネットワーク,0
776,3430003003672,登記記録の閉鎖等,0,2024-08-13,2024-08-01,羊蹄不動産合資会社,,合資会社,北海道,伊達市,弄月町２２６番地６０,,01,233,0520013,,,2024-08-01,清算の結了等,,,2015-10-05,1,,,,,ヨウテイフドウサン,0
777,3450001000760,登記記録の閉鎖等,0,2024-08-13,2024-08-08,株式会社カリファドーニス,,株式会社,北海道,旭川市,忠和四条１丁目１番２６号,,01,204,0708044,,,2024-08-08,合併による解散等,7430001027538,令和６年８月１日札幌市豊平区福住一条七丁目１番地の１号株式会社フジシン北海道（7430001027538）に合併し解散,2015-10-05,1,,,,,カリファドーニス,0
781,3460103001276,登記記録の閉鎖等,0,2024-08-13,2024-08-07,合同会社Ｅｌａｎ,,合同会社,北海道,帯広市,西七条南２０丁目２ベルデハイツ１０６,,01,207,0800017,,,2024-08-07,清算の結了等,,,2020-04-02,1,,,,,エラン,0
785,3470002013396,登記記録の閉鎖等,0,2024-08-13,2024-08-05,有限会社大谷農機,,有限会社,香川県,仲多度郡まんのう町,炭所西１４９３番地,,37,406,7660017,,,2024-08-05,清算の結了等,,,2015-10-05,1,,,,,オオタニノウキ,0
792,4010001112327,登記記録の閉鎖等,0,2024-08-13,2024-07-29,山佐産業ＲＹＲ６リース株式会社,,株式会社,東京都,千代田区,丸の内３丁目１番１号東京共同会計事務所内,,13,101,1000005,,,2024-07-29,清算の結了等,,,2015-10-05,1,,,,,ヤマササンギョウアールワイアールシックスリース,0
797,4010101003194,登記記録の閉鎖等,0,2024-08-13,2024-08-08,株式会社橋本屋,,株式会社,東京都,八王子市,高尾町２２９２番地,,13,201,1930844,,,2024-08-08,清算の結了等,,,2015-10-05,1,,,,,ハシモトヤ,0
801,4010401097390,登記記録の閉鎖等,0,2024-08-13,2024-07-22,ＫＬａｂ　Ｖｅｎｔｕｒｅｓ株式会社,,株式会社,東京都,港区,虎ノ門５丁目９番１号,,13,103,1050001,,,2024-07-22,清算の結了等,,,2015-10-05,1,,,,,クラブベンチャーズ,0
811,4010501041645,登記記録の閉鎖等,0,2024-08-13,2024-07-01,株式会社カフェレオエンターテインメント,,株式会社,東京都,台東区,浅草橋１丁目２１番６号,,13,106,1110053,,,2024-07-01,合併による解散等,4010501020780,令和６年７月１日東京都台東区浅草橋一丁目２１番６号株式会社カフェレオ（4010501020780）に合併し解散,2017-10-04,1,,,,,カフェレオエンターテインメント,0
813,4010601030713,登記記録の閉鎖等,0,2024-08-13,2024-08-08,株式会社丸伝情報システム,,株式会社,東京都,江東区,東陽２丁目５番１５号セイワ東陽４０２,,13,108,1350016,,,2024-08-08,清算の結了等,,,2015-10-05,1,,,,,マルデンジョウホウシステム,0
821,4011001106285,登記記録の閉鎖等,0,2024-08-13,2024-08-06,税務特化型不動産鑑定株式会社,,株式会社,東京都,千代田区,九段北１丁目１２番４号徳海屋ビル３Ｆ,,13,101,1020073,,,2024-08-06,合併による解散等,2010401095966,令和６年６月３０日東京都港区海岸一丁目４番２２号株式会社ＫＡＣＨＩＥＬ（2010401095966）に合併し解散,2015-10-05,1,,,,,ゼイムトッカガタフドウサンカンテイ,0
841,4011202006020,登記記録の閉鎖等,0,2024-08-13,2024-08-08,有限会社門,,有限会社,東京都,中野区,新井５丁目２７番５号,,13,114,1650026,,,2024-08-08,清算の結了等,,,2015-10-05,1,,,,,モン,0
859,4020002067494,登記記録の閉鎖等,0,2024-08-13,2024-07-22,有限会社アイト,,有限会社,神奈川県,横浜市戸塚区,戸塚町２０６２番地,,14,110,2440003,,,2024-07-22,清算の結了等,,,2015-10-05,1,,,,,アイト,0
860,4020002093326,登記記録の閉鎖等,0,2024-08-13,2024-07-22,有限会社ファッシヨンハウスミワ,,有限会社,神奈川県,川崎市多摩区,登戸１８７６番地,,14,135,2140014,,,2024-07-22,清算の結了等,,,2015-10-05,1,,,,,ファッシヨンハウスミワ,0
863,4020005011417,登記記録の閉鎖等,0,2024-08-13,2024-07-22,日本交通横浜戸塚労働組合,,その他の設立登記法人,神奈川県,横浜市戸塚区,名瀬町１１５２番地,,14,110,2450051,,,2024-07-22,清算の結了等,,,2015-10-05,1,,,,,,0
870,4030002120442,登記記録の閉鎖等,0,2024-08-13,2024-08-05,有限会社北條製作所,,有限会社,埼玉県,日高市,大字新堀新田１５番地４,,11,242,3501204,,,2024-08-05,清算の結了等,,,2015-10-05,1,,,,,ホウジョウセイサクショ,0
875,4030005020747,登記記録の閉鎖等,0,2024-08-13,2024-08-01,コスモ川口並木町北公園管理組合法人,,その他の設立登記法人,埼玉県,川口市,並木２丁目４番１７号コスモ川口並木町北公園管理事務室,,11,203,3320034,,,2024-08-01,清算の結了等,,,2022-03-09,1,,,,,コスモカワグチナミキチョウキタコウエン,0
876,4040001019412,登記記録の閉鎖等,0,2024-08-13,2024-07-30,株式会社船橋よみうり新聞社,,株式会社,千葉県,船橋市,東船橋１丁目２９番１５号,,12,204,2730002,,,2024-07-30,清算の結了等,,,2015-10-05,1,,,,,フナバシヨミウリシンブンシャ,0
879,4040001100436,登記記録の閉鎖等,0,2024-08-13,2024-07-30,株式会社大正堂薬局,,株式会社,千葉県,鎌ケ谷市,南初富６丁目１番１７号,,12,224,2730123,,,2024-07-30,清算の結了等,,,2017-06-07,1,,,,,タイショウドウヤッキャク,0
890,4050005000986,登記記録の閉鎖等,0,2024-08-13,2024-08-05,特定非営利活動法人茨城県精神障害地域ケアー研究会,00023542,その他の設立登記法人,茨城県,水戸市,見川１丁目１１８３番地の２,,08,201,3100912,,,2024-08-05,清算の結了等,,,2015-10-05,1,,,,,イバラキケンセイシンショウガイチイキケアーケンキュウカイ,0
894,4070002024474,登記記録の閉鎖等,0,2024-08-13,2024-08-07,有限会社原田設備,,有限会社,群馬県,みどり市,大間々町大間々５３番地,,10,212,3760101,,,2024-08-07,清算の結了等,,,2015-10-05,1,,,,,ハラダセツビ,0
923,4120002041002,登記記録の閉鎖等,0,2024-08-13,2024-08-08,有限会社阪東建設,,有限会社,大阪府,大阪市港区,市岡元町１丁目６番９－７０８号,,27,107,5520002,,,2024-08-08,清算の結了等,,,2015-10-05,1,,,,,バンドウケンセツ,0
932,4122001034226,登記記録の閉鎖等,0,2024-08-13,2024-08-09,株式会社浜幸,,株式会社,大阪府,八尾市,八尾木北５丁目１１０－１,,27,212,5810016,,,2024-08-09,清算の結了等,,,2020-11-19,1,,,,,ハマコウ,0
949,4180001125857,登記記録の閉鎖等,0,2024-08-13,2024-07-31,オンアパートメント株式会社,,株式会社,愛知県,名古屋市熱田区,三本松町１５番１３号,,23,109,4560032,,,2024-07-31,清算の結了等,,,2016-12-09,1,,,,,オンアパートメント,0
959,4180002062190,登記記録の閉鎖等,0,2024-08-13,2024-07-26,有限会社ヤマグチ電化センター東郷店,,有限会社,愛知県,愛知郡東郷町,白鳥２丁目１番７号,,23,302,4700155,,,2024-07-26,清算の結了等,,,2015-10-05,1,,,,,ヤマグチデンカセンタートウゴウテン,0
968,4200001019742,登記記録の閉鎖等,0,2024-08-13,2024-08-07,岐阜豆腐食品株式会社,,株式会社,岐阜県,関市,戸田竹島６３番地,,21,205,5013958,,,2024-08-07,清算の結了等,,,2015-10-05,1,,,,,ギフトウフショクヒン,0
977,4220001018081,登記記録の閉鎖等,0,2024-08-13,2024-07-31,株式会社ＤＦＫ,,株式会社,石川県,河北郡津幡町,字横浜ほ４２番地１,,17,361,9290341,,,2024-07-31,清算の結了等,,,2015-10-05,1,,,,,ディーエフケー,0
990,4240002002933,登記記録の閉鎖等,0,2024-08-13,2024-08-05,有限会社邑智鉄筋,,有限会社,広島県,広島市佐伯区,皆賀３丁目２番１３号,,34,108,7315124,,,2024-08-05,清算の結了等,,,2015-10-05,1,,,,,オオチテッキン,0
1020,4340002011486,登記記録の閉鎖等,0,2024-08-13,2024-08-06,有限会社高崎建設,00099212,有限会社,鹿児島県,鹿児島市,錦江台１丁目２２番１３号,,46,201,8910145,,,2024-08-06,清算の結了等,,,2015-10-05,1,,,,,タカサキケンセツ,0
1051,4430002044295,登記記録の閉鎖等,0,2024-08-13,2024-08-06,有限会社北広島乗馬クラブ,,有限会社,北海道,札幌市中央区,南十二条西１丁目２番２０－２２０２号,,01,101,0640912,,,2024-08-06,清算の結了等,,,2015-10-05,1,,,,,,0
1053,4430002055292,登記記録の閉鎖等,0,2024-08-13,2024-08-05,有限会社丸斎工務店,,有限会社,北海道,小樽市,入船４丁目３０番２３号,,01,203,0470021,,,2024-08-05,清算の結了等,,,2015-10-05,1,,,,,マルサイコウムテン,0
1055,4430003004760,登記記録の閉鎖等,0,2024-08-13,2024-07-23,合同会社ＳＡＴＵＲＮ,,合同会社,北海道,札幌市中央区,大通西２１丁目１番１２号,,01,101,0640820,,,2024-07-23,合併による解散等,4430003004769,令和６年７月２２日札幌市中央区大通西二十一丁目１番１２号合同会社ＥＡＲＴＨ（4430003004769）に合併し解散,2015-10-05,1,,,,,サターン,0
1060,4450002006401,登記記録の閉鎖等,0,2024-08-13,2024-08-08,有限会社道北葬儀社,,有限会社,北海道,旭川市,春光四条６丁目１番２６号,,01,204,0700874,,,2024-08-08,清算の結了等,,,2015-10-05,1,,,,,ドウホクソウギシャ,0
1062,4460302001217,登記記録の閉鎖等,0,2024-08-13,2024-08-08,有限会社ビューティプラザ・サプライズ,,有限会社,北海道,北見市,桂町３丁目１６０番地３,,01,208,0900053,,,2024-08-08,清算の結了等,,,2015-10-05,1,,,,,ビューティプラザサプライズ,0
1064,4470005003047,登記記録の閉鎖等,0,2024-08-13,2024-07-10,天理教讃寳分教会,,その他の設立登記法人,香川県,仲多度郡琴平町,榎井７２３番地の１,,37,403,7660004,,,2024-07-10,合併による解散等,8470005004099,令和６年７月１０日香川県三豊市高瀬町上高瀬字竹田１７３３番地天理教讃豊分教会（8470005004099）に合併し解散,2015-10-05,1,,,,,,0
1068,4500002021592,登記記録の閉鎖等,0,2024-08-13,2024-08-06,有限会社サカモト企画,,有限会社,愛媛県,四国中央市,上分町３５８番地１,,38,213,7990121,,,2024-08-06,清算の結了等,,,2015-10-05,1,,,,,サカモトキカク,0
1071,5010001112326,登記記録の閉鎖等,0,2024-08-13,2024-07-29,山佐産業ＲＹＲ１リース株式会社,,株式会社,東京都,千代田区,丸の内３丁目１番１号東京共同会計事務所内,,13,101,1000005,,,2024-07-29,清算の結了等,,,2015-10-05,1,,,,,ヤマササンギョウアールワイアールワンリース,0
1076,5010001205170,登記記録の閉鎖等,0,2024-08-13,2024-08-06,株式会社テイチャク,,株式会社,東京都,渋谷区,千駄ヶ谷５丁目２３番６号,,13,113,1510051,,,2024-08-06,合併による解散等,9010401054486,令和６年７月１日東京都港区芝浦四丁目１２番３８号株式会社ブレイン・ラボ（9010401054486）に合併し解散,2019-11-08,1,,,,,テイチャク,0
1077,5010002032432,登記記録の閉鎖等,0,2024-08-13,2024-07-29,丸山井上有限会社,,有限会社,東京都,千代田区,六番町１３番地,,13,101,1020085,,,2024-07-29,清算の結了等,,,2015-10-05,1,,,,,マルヤマイノウエ,0
1085,5010403026017,登記記録の閉鎖等,0,2024-08-13,2024-07-22,ＡＫＢプラチナ合同会社,,合同会社,東京都,港区,西新橋１丁目２番９号メンターキャピタル税理士法人内,,13,103,1050003,,,2024-07-22,清算の結了等,,,2021-08-31,1,,,,,エーケービープラチナ,0
1086,5010405015315,登記記録の閉鎖等,0,2024-08-13,2024-07-23,ひすい一般社団法人,,その他の設立登記法人,東京都,港区,北青山１丁目２番３号,,13,103,1070061,,,2024-07-23,清算の結了等,,,2016-12-01,1,,,,,ヒスイ,0
1120,5011501009004,登記記録の閉鎖等,0,2024-08-13,2024-08-06,株式会社ムラマツ車輌,,株式会社,東京都,荒川区,南千住７丁目３１番３－４１５号,,13,118,1160003,,,2024-08-06,清算の結了等,,,2015-10-05,1,,,,,ムラマツシャリョウ,0
1121,5011501013427,登記記録の閉鎖等,0,2024-08-13,2024-07-30,リビオ株式会社,,株式会社,東京都,中央区,八丁堀２丁目４番１－１０４号,,13,102,1040032,,,2024-07-30,清算の結了等,,,2015-10-05,1,,,,,リビオ,0
1127,5011601004714,登記記録の閉鎖等,0,2024-08-13,2024-08-02,東信ホームセールス株式会社,,株式会社,東京都,練馬区,中村北３丁目３番１５号,,13,120,1760023,,,2024-08-02,清算の結了等,,,2015-10-05,1,,,,,トウシンホームセールス,0
1129,5011602008986,登記記録の閉鎖等,0,2024-08-13,2024-08-05,有限会社北條被膜,,有限会社,東京都,練馬区,旭町１丁目３９番１０号,,13,120,1790071,,,2024-08-05,清算の結了等,,,2015-10-05,1,,,,,ホウジョウヒマク,0
1130,5011602021840,登記記録の閉鎖等,0,2024-08-13,2024-08-05,有限会社ヴェル・クレール,,有限会社,東京都,練馬区,春日町６丁目１８番１５号,,13,120,1790074,,,2024-08-05,清算の結了等,,,2015-10-05,1,,,,,ヴェルクレール,0
1135,5012401032566,登記記録の閉鎖等,0,2024-08-13,2024-08-09,株式会社シグ研究所,,株式会社,東京都,三鷹市,上連雀４丁目１４番２－２０８号,,13,204,1810012,,,2024-08-09,清算の結了等,,,2017-04-05,1,,,,,シグケンキュウジョ,0
1163,5021005000425,登記記録の閉鎖等,0,2024-08-13,2024-07-10,学校法人湘南みどり学園,,その他の設立登記法人,神奈川県,藤沢市,大鋸１２１８番１号,,14,205,2510002,,,2024-07-10,合併による解散等,4021005003429,令和６年７月１０日神奈川県厚木市中町三丁目４番１１号学校法人鈴木学園（4021005003429）に合併し解散,2015-10-05,1,,,,,ショウナンミドリガクエン,0
1165,5030001010040,登記記録の閉鎖等,0,2024-08-13,2024-08-01,フジモリ商事株式会社,,株式会社,埼玉県,さいたま市中央区,本町西３丁目１番５号,,11,105,3380004,,,2024-08-01,合併による解散等,8030001008362,令和６年８月１日埼玉県さいたま市北区東大成町二丁目４５８番地１明邦興産株式会社（8030001008362）に合併し解散,2015-10-05,1,,,,,フジモリショウジ,0
1169,5030001153277,登記記録の閉鎖等,0,2024-08-13,2024-08-05,金象株式会社,,株式会社,埼玉県,和光市,南１丁目７番５８号グレイスハイム和光２０５号室,,11,229,3510104,,,2024-08-05,清算の結了等,,,2023-04-12,1,,,,,キンゾウ,0
1173,5030005015721,登記記録の閉鎖等,0,2024-08-13,2024-08-05,ＮＰＯ法人よつみ,,その他の設立登記法人,埼玉県,新座市,道場２丁目５番６号,,11,230,3520024,,,2024-08-05,清算の結了等,,,2015-10-05,1,,,,,ヨツミ,0
1179,5040002099741,登記記録の閉鎖等,0,2024-08-13,2024-07-29,有限会社美建設計,,有限会社,千葉県,館山市,北条１３５５番地の４５,,12,205,2940045,,,2024-07-29,清算の結了等,,,2015-10-05,1,,,,,ビケンセッケイ,0
1210,5120005000128,登記記録の閉鎖等,0,2024-08-13,2024-07-17,天理教郷道分教会,,その他の設立登記法人,大阪府,大阪市東住吉区,北田辺２丁目１３番２０号,,27,121,5460044,,,2024-07-17,合併による解散等,6120005000218,令和６年７月１７日大阪市東成区大今里南三丁目１４番２１号天理教城之分教会（6120005000218）に合併し解散,2015-10-05,1,,,,,テンリキョウキョウサトミチブンキョウカイ,0
1214,5120903001251,登記記録の閉鎖等,0,2024-08-13,2024-08-05,合同会社マルニシ,,合同会社,大阪府,豊中市,小曽根３丁目１４番１６号,,27,203,5610813,,,2024-08-05,清算の結了等,,,2015-10-05,1,,,,,マルニシ,0
1229,5140005001264,登記記録の閉鎖等,0,2024-08-13,2024-07-08,天理教鷹取分教会,,その他の設立登記法人,兵庫県,神戸市北区,山田町小部字西ノ岡谷１８番地９,,28,109,6511101,,,2024-07-08,合併による解散等,9140005017760,令和６年７月８日兵庫県小野市新部町４５２番地天理教中河合分教会（9140005017760）に合併し解散,2015-10-05,1,,,,,テンリキョウタカトリブンキョウカイ,0
1249,5180003019172,登記記録の閉鎖等,0,2024-08-13,2024-07-31,緑合同会社,,合同会社,愛知県,一宮市,奥町字野方１１１番地,,23,203,4910201,,,2024-07-31,清算の結了等,,,2018-08-09,1,,,,,ミドリ,0
1255,5180005015491,登記記録の閉鎖等,0,2024-08-13,2024-07-31,中央旭税理士法人,,その他の設立登記法人,愛知県,名古屋市中区,錦１丁目４番２７号,,23,106,4600003,,,2024-07-31,清算の結了等,,,2015-10-05,1,,,,,チュウオウアサヒ,0
1259,5180301035895,登記記録の閉鎖等,0,2024-08-13,2024-08-01,株式会社三日月,,株式会社,愛知県,安城市,篠目町池下１８４番地１,,23,212,4460073,,,2024-08-01,合併による解散等,2180301033935,令和６年８月１日愛知県安城市篠目町池下１８３番地１株式会社Ｂｏｎ　Ｌｕｎｅ（2180301033935）に合併し解散,2022-02-04,1,,,,,ミカヅキ,0
1309,5360005003040,登記記録の閉鎖等,0,2024-08-13,2024-08-08,特定非営利活動法人海洋情報技術研究センター,,その他の設立登記法人,沖縄県,那覇市,字松川５４１番地３,,47,201,9020062,,,2024-08-08,清算の結了等,,,2015-10-05,1,,,,,カイヨウジョウホウギジュツケンキュウセンター,0
1330,5430005007372,登記記録の閉鎖等,0,2024-08-13,2024-08-02,一般社団法人赤平市身体障害者福祉協会,,その他の設立登記法人,北海道,赤平市,錦町３丁目３番地１１,,01,218,0791135,,,2024-08-02,清算の結了等,,,2015-10-05,1,,,,,アカビラシシンタイショウガイシャフクシキョウカイ,0
1331,5430005008998,登記記録の閉鎖等,0,2024-08-13,2024-08-07,苫小牧個人タクシー協同組合,,その他の設立登記法人,北海道,苫小牧市,日新町１丁目２番５号,,01,213,0530833,,,2024-08-07,清算の結了等,,,2015-10-05,1,,,,,,0
1350,6010001112325,登記記録の閉鎖等,0,2024-08-13,2024-07-29,山佐産業ＲＹＲ２リース株式会社,,株式会社,東京都,千代田区,丸の内３丁目１番１号東京共同会計事務所内,,13,101,1000005,,,2024-07-29,清算の結了等,,,2015-10-05,1,,,,,ヤマササンギョウアールワイアールツーリース,0
1351,6010001186914,登記記録の閉鎖等,0,2024-08-13,2024-07-30,株式会社キャラバン,,株式会社,東京都,中央区,月島１丁目５番１－３３０４号,,13,102,1040052,,,2024-07-30,清算の結了等,,,2017-10-17,1,,,,,キャラバン,0
1356,6010005023725,登記記録の閉鎖等,0,2024-08-13,2024-08-01,一般社団法人美人化計画,,その他の設立登記法人,東京都,杉並区,桃井１丁目２７番２０号,,13,115,1670034,,,2024-08-01,合併による解散等,7010005023724,令和６年８月１日東京都杉並区桃井一丁目２７番２０号一般社団法人きてきて先生プロジェクト（7010005023724）に合併し解散,2015-10-05,1,,,,,ビジンカケイカク,0
1366,6010501019689,登記記録の閉鎖等,0,2024-08-13,2024-08-02,創元社設計株式会社,,株式会社,東京都,台東区,上野３丁目１８番１１号,,13,106,1100005,,,2024-08-02,清算の結了等,,,2024-05-14,1,,,,,ソウゲンシャセッケイ,0
1367,6010501052038,登記記録の閉鎖等,0,2024-08-13,2024-08-01,株式会社笛吹興業,,株式会社,東京都,台東区,寿４丁目１３番１１号,,13,106,1110042,,,2024-08-01,合併による解散等,3010501001245,令和６年８月１日東京都台東区寿四丁目１３番１１号株式会社ウスイ包装（3010501001245）に合併し解散,2024-04-10,1,,,,,ウスイコウギョウ,0
1369,6010701001975,登記記録の閉鎖等,0,2024-08-13,2024-07-03,富士フイルムヘルスケアシステムズ株式会社,,株式会社,東京都,港区,西麻布２丁目２６番３０号,,13,103,1060031,,,2024-07-03,合併による解散等,6011801003168,令和６年７月１日東京都港区西麻布二丁目２６番３０号富士フイルムメディカルサービスソリューション株式会社（6011801003168）に合併し解散,2015-10-05,1,,,,,フジフイルムヘルスケアシステムズ,0
1372,6010803003614,登記記録の閉鎖等,0,2024-08-13,2024-08-01,ナチュラルコスメ合同会社,,合同会社,東京都,大田区,蒲田５丁目２１－１３,,13,111,1440052,,,2024-08-01,合併による解散等,9010803003339,令和６年８月１日東京都大田区千鳥一丁目２３番１号Ｔ＆Ｆ合同会社（9010803003339）に合併し解散,2021-01-14,1,,,,,ナチュラルコスメ,0
1378,6011001102588,登記記録の閉鎖等,0,2024-08-13,2024-08-09,株式会社スマートホームズ,,株式会社,北海道,札幌市中央区,南二条西３丁目１３番地４,,01,101,0600062,,,2024-08-09,清算の結了等,,,2015-10-05,1,,,,,スマートホームズ,0
1409,6011305002567,登記記録の閉鎖等,0,2024-08-13,2024-08-02,一般社団法人日中アニメーション事業者団体,,その他の設立登記法人,東京都,杉並区,阿佐谷南３丁目１２番４号,,13,115,1660004,,,2024-08-02,清算の結了等,,,2019-07-08,1,,,,,ニッチュウアニメーションジギョウシャダンタイ,0
1416,6011801031565,登記記録の閉鎖等,0,2024-08-13,2024-08-01,株式会社ＮＥＸＴ　ＩＮＮＯＶＡＴＩＯＮ,,株式会社,東京都,豊島区,南池袋１丁目１６番２０号ぬかりやビル６階,,13,116,1710022,,,2024-08-01,清算の結了等,,,2016-03-22,1,,,,,ネクストイノベーション,0
1420,6012302003491,登記記録の閉鎖等,0,2024-08-13,2024-07-19,有限会社ナイト,,有限会社,神奈川県,横浜市青葉区,榎が丘８番地６,,14,117,2270063,,,2024-07-19,清算の結了等,,,2015-10-05,1,,,,,ナイト,0
1430,6013305000286,登記記録の閉鎖等,0,2024-08-13,2024-07-18,天理教瑞鶴分教会,,その他の設立登記法人,東京都,豊島区,長崎４丁目３９番１３号,,13,116,1710051,,,2024-07-18,合併による解散等,5011105000689,令和６年７月４日東京都新宿区高田馬場四丁目４番３２号天理教牛込大教会（5011105000689）に合併し解散,2015-10-05,1,,,,,,0
1434,6020001143600,登記記録の閉鎖等,0,2024-08-13,2024-07-22,株式会社光山住宅,,株式会社,神奈川県,横浜市中区,野毛町２丁目７８番地,,14,104,2310064,,,2024-07-22,清算の結了等,,,2021-10-22,1,,,,,,0
1454,6030001092235,登記記録の閉鎖等,0,2024-08-13,2024-08-08,株式会社日本総業,,株式会社,埼玉県,川口市,並木元町１番６７－１５０５号,,11,203,3320033,,,2024-08-08,清算の結了等,,,2015-10-05,1,,,,,,0
1457,6030002028114,登記記録の閉鎖等,0,2024-08-13,2024-08-05,有限会社アミコンサルティング,,有限会社,埼玉県,所沢市,中新井４丁目１６番１号,,11,208,3590041,,,2024-08-05,清算の結了等,,,2015-10-05,1,,,,,アミコンサルティング,0
1458,6030002069265,登記記録の閉鎖等,0,2024-08-13,2024-08-05,有限会社ぽっぷデザイン,,有限会社,埼玉県,春日部市,八木崎町８番地１７,,11,214,3440055,,,2024-08-05,清算の結了等,,,2015-10-05,1,,,,,ポップデザイン,0
1459,6030002072021,登記記録の閉鎖等,0,2024-08-13,2024-08-02,有限会社青木設計,,有限会社,埼玉県,川越市,大字上戸１８４番地１９,,11,201,3500816,,,2024-08-02,清算の結了等,,,2015-10-05,1,,,,,アオキセッケイ,0
1482,6080101017541,登記記録の閉鎖等,0,2024-08-13,2024-08-01,株式会社ネクサス・ジャパン,,株式会社,静岡県,静岡市葵区,昭和町３番地の１,,22,101,4200033,,,2024-08-01,清算の結了等,,,2015-10-05,1,,,,,ネクサスジャパン,0
1486,6080402019674,登記記録の閉鎖等,0,2024-08-13,2024-08-05,有限会社鈴木包装店,,有限会社,静岡県,磐田市,今之浦４丁目５番地の１９,,22,211,4380071,,,2024-08-05,清算の結了等,,,2015-10-05,1,,,,,スズキホウソウテン,0
1493,6120001095922,登記記録の閉鎖等,0,2024-08-13,2024-08-07,株式会社関西ガスファースト,,株式会社,大阪府,大阪市西淀川区,西島１丁目１番５１号,,27,113,5550042,,,2024-08-07,清算の結了等,,,2015-10-05,1,,,,,カンサイガスファースト,0
1494,6120001105565,登記記録の閉鎖等,0,2024-08-13,2024-08-07,ノイエス株式会社,,株式会社,大阪府,大阪市北区,天満橋３丁目３番５号,,27,127,5300042,,,2024-08-07,清算の結了等,,,2015-10-05,1,,,,,ノイエス,0
1508,6120003022148,登記記録の閉鎖等,0,2024-08-13,2024-08-08,合同会社パワーリーディング,,合同会社,大阪府,大阪市淀川区,十三東２丁目９番８号,,27,123,5320023,,,2024-08-08,清算の結了等,,,2022-07-22,1,,,,,パワーリーディング,0
1511,6120005001521,登記記録の閉鎖等,0,2024-08-13,2024-08-09,如来寺,,その他の設立登記法人,大阪府,大阪市淀川区,十三元今里３丁目４番６号,,27,123,5320028,,,2024-08-09,清算の結了等,,,2015-10-05,1,,,,,ニョライジ,0
1522,6130001056592,登記記録の閉鎖等,0,2024-08-13,2024-08-07,株式会社宝島,,株式会社,京都府,京都市西京区,嵐山中尾下町２０番地４３,,26,111,6160004,,,2024-08-07,清算の結了等,,,2016-01-06,1,,,,,タカラジマ,0
1565,6240001029208,登記記録の閉鎖等,0,2024-08-13,2024-08-05,開源貿易株式会社,,株式会社,広島県,東広島市,西条栄町４番５号,,34,212,7390015,,,2024-08-05,清算の結了等,,,2015-10-05,1,,,,,,0
1566,6240001033787,登記記録の閉鎖等,0,2024-08-13,2024-08-08,株式会社ヤックス,,株式会社,広島県,福山市,新市町大字新市７０８番地,,34,207,7293103,,,2024-08-08,清算の結了等,,,2015-10-05,1,,,,,,0
1595,6340003004017,登記記録の閉鎖等,0,2024-08-13,2024-08-05,合同会社辰己,,合同会社,鹿児島県,鹿屋市,笠之原町４１番１５－１号,,46,203,8930023,,,2024-08-05,清算の結了等,,,2023-01-11,1,,,,,タツミ,0
1613,6410003002599,登記記録の閉鎖等,0,2024-08-13,2024-08-05,合名会社山吉商店,,合名会社,秋田県,横手市,増田町増田字中町１０５番地,,05,203,0190701,,,2024-08-05,清算の結了等,,,2015-10-05,1,,,,,ヤマキチショウテン,0
1618,6430001043734,登記記録の閉鎖等,0,2024-08-13,2024-08-02,千代田運輸株式会社,,株式会社,北海道,恵庭市,黄金南１丁目３１３番地の１１,,01,231,0611409,,,2024-08-02,清算の結了等,,,2015-10-05,1,,,,,チヨダウンユ,0
1623,6430001083210,登記記録の閉鎖等,0,2024-08-13,2024-08-07,クリエイトエフホールディングス株式会社,,株式会社,北海道,札幌市中央区,南一条西１１丁目１番地コンチネンタルビル９階,,01,101,0600061,,,2024-08-07,清算の結了等,,,2021-01-20,1,,,,,クリエイトエフホールディングス,0
1629,6430003012019,登記記録の閉鎖等,0,2024-08-13,2024-08-05,合同会社ノースサポート,,合同会社,北海道,札幌市北区,屯田五条１１丁目１０－２０,,01,102,0020855,,,2024-08-05,清算の結了等,,,2020-10-06,1,,,,,ノースサポート,0
1632,6460005000084,登記記録の閉鎖等,0,2024-08-13,2024-07-22,天理教舞美分教会,,その他の設立登記法人,北海道,釧路市,星が浦大通５丁目６番地の６９,,01,206,0840912,,,2024-07-22,合併による解散等,5460005000077,令和６年７月２２日北海道釧路市浪花町七丁目５番地天理教西幣舞分教会（5460005000077）に合併し解散,2015-10-05,1,,,,,テンリキョウマイヨシブンキョウカイ,0
1640,6500005004056,登記記録の閉鎖等,0,2024-08-13,2024-07-12,天理教奥千里分教会,,その他の設立登記法人,愛媛県,西条市,千町１号９４番地,,38,206,7930101,,,2024-07-12,合併による解散等,1500005004052,令和６年７月１２日愛媛県西条市大町２６２番地５天理教千町山分教会（1500005004052）に合併し解散,2015-10-05,1,,,,,テンリキョウオクチサトブンキョウカイ,0
1643,7010001086502,登記記録の閉鎖等,0,2024-08-13,2024-07-31,株式会社八ヶ岳モールマネージメント,,株式会社,東京都,千代田区,西神田３丁目８番１号,,13,101,1010065,,,2024-07-31,清算の結了等,,,2015-10-05,1,,,,,ヤツガタケモールマネージメント,0
1646,7010001232502,登記記録の閉鎖等,0,2024-08-13,2024-07-30,Ｗａｒｍ株式会社,,株式会社,東京都,中央区,京橋１丁目１番５号セントラルビル２階ｆａｂｂｉｔ京橋内,,13,102,1040031,,,2024-07-30,清算の結了等,,,2023-01-25,1,,,,,ウォーム,0
1649,7010003030334,登記記録の閉鎖等,0,2024-08-13,2024-07-30,合同会社新生ＧＴＮファンド,,合同会社,東京都,中央区,日本橋室町２丁目４番３号,,13,102,1030022,,,2024-07-30,清算の結了等,,,2019-07-31,1,,,,,シンセイジーティーエヌファンド,0
1651,7010101002887,登記記録の閉鎖等,0,2024-08-13,2024-08-09,日本キャピタル・ファンディング株式会社,,株式会社,東京都,八王子市,子安町２丁目３１番１５号,,13,201,1920904,,,2024-08-09,清算の結了等,,,2015-10-05,1,,,,,ニホンキャピタルファンディング,0
1670,7010501044728,登記記録の閉鎖等,0,2024-08-13,2024-08-02,ＮｉｃｅｌｙＧａｍｅ株式会社,,株式会社,東京都,台東区,上野６丁目１番６号御徒町グリーンハイツ１００５号,,13,106,1100005,,,2024-08-02,清算の結了等,,,2019-10-08,1,,,,,ナイスリーゲーム,0
1678,7010701036533,登記記録の閉鎖等,0,2024-08-13,2024-07-08,フリーファイナンスラボ株式会社,,株式会社,東京都,品川区,大崎１丁目２番２号,,13,109,1410032,,,2024-07-08,合併による解散等,7010401100770,令和６年７月１日東京都品川区大崎一丁目２番２号フリー株式会社（7010401100770）に合併し解散,2018-10-02,1,,,,,フリーファイナンスラボ,0
1683,7010801031698,登記記録の閉鎖等,0,2024-08-13,2024-08-05,株式会社ＣＲＡＦＴＣＥＬＬＳ,,株式会社,東京都,大田区,中馬込１丁目５番１０－１０５号,,13,111,1430027,,,2024-08-05,清算の結了等,,,2021-02-22,1,,,,,クラフトセルズ,0
1714,7012402010734,登記記録の閉鎖等,0,2024-08-13,2024-08-09,有限会社金箱設備工業,,有限会社,東京都,調布市,国領町８丁目１番地３５,,13,208,1820022,,,2024-08-09,清算の結了等,,,2015-10-05,1,,,,,カネハコセツビコウギョウ,0
1744,7030001026126,登記記録の閉鎖等,0,2024-08-13,2024-08-06,株式会社一心舍,,株式会社,埼玉県,狭山市,入間川３丁目２番３３号,,11,215,3501305,,,2024-08-06,清算の結了等,,,2015-10-05,1,,,,,イッシンシャ,0
1745,7030001026365,登記記録の閉鎖等,0,2024-08-13,2024-08-02,株式会社昌栄商事,,株式会社,埼玉県,狭山市,大字南入曽８９５番地４,,11,215,3501316,,,2024-08-02,清算の結了等,,,2015-10-05,1,,,,,ショウエイショウジ,0
1751,7030001123740,登記記録の閉鎖等,0,2024-08-13,2024-08-05,株式会社オールドリバー,,株式会社,埼玉県,川口市,鳩ヶ谷本町３丁目１７番９号,,11,203,3340002,,,2024-08-05,清算の結了等,,,2018-01-12,1,,,,,オールドリバー,0
1753,7030002028955,登記記録の閉鎖等,0,2024-08-13,2024-08-05,有限会社共栄測量,,有限会社,埼玉県,所沢市,大字下安松２３４番地の２,,11,208,3590024,,,2024-08-05,清算の結了等,,,2015-10-05,1,,,,,キョウエイソクリョウ,0
1755,7030002097884,登記記録の閉鎖等,0,2024-08-13,2024-08-05,有限会社玉川アルミ建材,,有限会社,埼玉県,比企郡ときがわ町,大字田黒２３１番地,,11,349,3550341,,,2024-08-05,清算の結了等,,,2015-10-05,1,,,,,タマガワアルミケンザイ,0
1760,7040003019127,登記記録の閉鎖等,0,2024-08-13,2024-07-22,合同会社アイネ,,合同会社,千葉県,市川市,行徳駅前１丁目９－５－７０２,,12,203,2720133,,,2024-07-22,清算の結了等,,,2021-12-15,1,,,,,アイネ,0
1778,7080002003243,登記記録の閉鎖等,0,2024-08-13,2024-08-01,静岡ワーキングサービス有限会社,,有限会社,静岡県,静岡市葵区,五番町５番地の５,,22,101,4200075,,,2024-08-01,清算の結了等,,,2015-10-05,1,,,,,シズオカワーキングサービス,0
1781,7080102012029,登記記録の閉鎖等,0,2024-08-13,2024-08-07,有限会社ランド計算センター,,有限会社,静岡県,三島市,中田町３番２号,,22,206,4110838,,,2024-08-07,清算の結了等,,,2015-10-05,1,,,,,ランドケイサンセンター,0
1791,7080405000242,登記記録の閉鎖等,0,2024-08-13,2024-07-08,医療法人社団岡崎会,,その他の設立登記法人,静岡県,浜松市中央区,有玉南町１４３６番地,,22,138,4313122,,,2024-07-08,合併による解散等,3430005001716,令和６年７月１日札幌市東区北三十二条東一丁目６番１０号医療法人社団岡崎会（3430005001716）に合併し解散,2015-10-05,1,,,,,オカザキカイ,0
1820,7120901021274,登記記録の閉鎖等,0,2024-08-13,2024-08-02,株式会社フォーテック,,株式会社,大阪府,豊能郡能勢町,片山１４１番地の３１,,27,322,5630354,,,2024-08-02,清算の結了等,,,2015-10-05,1,,,,,フォーテック,0
1830,7130003003063,登記記録の閉鎖等,0,2024-08-13,2024-08-08,合資会社太平荘,,合資会社,京都府,京都市左京区,北白川大堂町６１番地,,26,103,6068274,,,2024-08-08,清算の結了等,,,2015-10-05,1,,,,,タイヘイソウ,0
1838,7140002051517,登記記録の閉鎖等,0,2024-08-13,2024-08-08,有限会社ヨシナガ,,有限会社,兵庫県,姫路市,下手野１丁目７番５６号,,28,201,6700063,,,2024-08-08,清算の結了等,,,2015-10-05,1,,,,,ヨシナガ,0
1851,7180301000484,登記記録の閉鎖等,0,2024-08-13,2024-08-08,株式会社営繕ロジエ,,株式会社,愛知県,岡崎市,土井町字西善道３４番地１,,23,202,4440204,,,2024-08-08,合併による解散等,6180301000444,令和６年８月１日愛知県岡崎市明大寺町字西郷中３７番地小原建設株式会社（6180301000444）に合併し解散,2015-10-05,1,,,,,エイゼンロジエ,0
1857,7180305005216,登記記録の閉鎖等,0,2024-08-13,2024-07-16,社会福祉法人同善福祉会,,その他の設立登記法人,愛知県,高浜市,沢渡町４丁目６番地２６,,23,227,4441333,,,2024-07-16,合併による解散等,1180005011783,令和６年７月１日愛知県知多郡東浦町大字緒川字石名平２５番地１２０社会福祉法人翌檜（1180005011783）に合併し解散,2015-10-05,1,,,,,ドウゼンフクシカイ,0
1879,7290801023296,登記記録の閉鎖等,0,2024-08-13,2024-07-02,株式会社トライアルゴルフ＆リゾート,,株式会社,福岡県,宮若市,乙野１１２１番地,,40,226,8220131,,,2024-07-02,合併による解散等,4330001025364,令和６年７月１日福岡市東区多の津一丁目１２番２号株式会社トライアルゴルフ＆リゾート（4330001025364）に合併し解散,2017-02-17,1,,,,,トライアルゴルフアンドリゾート,0
1887,7320001015958,登記記録の閉鎖等,0,2024-08-13,2024-08-06,株式会社大分大学先端医学研究所,,株式会社,高知県,高知市,仁井田４５６３番地１,,39,201,7810112,,,2024-08-06,清算の結了等,,,2017-10-17,1,,,,,オオイタダイガクセンタンイガクケンキュウショ,0
1896,7330005002472,登記記録の閉鎖等,0,2024-08-13,2024-08-01,ＥＬＶ熊本協同組合,,その他の設立登記法人,熊本県,熊本市南区,富合町南田尻深田５番地,,43,104,8614155,,,2024-08-01,清算の結了等,,,2015-10-05,1,,,,,イーエルブイ,0
1902,7350001010411,登記記録の閉鎖等,0,2024-08-13,2024-08-02,株式会社宮崎内装工業,,株式会社,宮崎県,宮崎市,大字恒久７２９番地１,,45,201,8800916,,,2024-08-02,清算の結了等,,,2015-10-05,1,,,,,ミヤザキナイソウコウギョウ,0
1908,7370001020532,登記記録の閉鎖等,0,2024-08-13,2024-07-10,株式会社アイエスビー東北,,株式会社,宮城県,仙台市青葉区,一番町１丁目１番３０号,,04,101,9800811,,,2024-07-10,合併による解散等,4010701000269,令和６年７月１日東京都品川区大崎五丁目１番１１号株式会社アイ・エス・ビー（4010701000269）に合併し解散,2015-10-05,1,,,,,アイエスビートウホク,0
1910,7370002005656,登記記録の閉鎖等,0,2024-08-13,2024-07-26,有限会社東翔建設,00081884,有限会社,宮城県,仙台市若林区,蒲町東９番地の１２,,04,103,9840016,,,2024-07-26,清算の結了等,,,2015-10-05,1,,,,,,0
1944,7500001009165,登記記録の閉鎖等,0,2024-08-13,2024-07-04,株式会社菱進テック,,株式会社,愛媛県,西条市,ひうち１８番地９,,38,206,7930003,,,2024-07-04,合併による解散等,7010001242583,令和６年７月１日東京都千代田区一番町５番地アトラスビル株式会社菱進テック（7010001242583）に合併し解散,2015-10-05,1,,,,,リョウシンテック,0
1971,8010501029050,登記記録の閉鎖等,0,2024-08-13,2024-07-01,株式会社アルジャーノンプロダクト,,株式会社,東京都,台東区,浅草橋１丁目２１番６号宝山ビル,,13,106,1110053,,,2024-07-01,合併による解散等,4010501020780,令和６年７月１日東京都台東区浅草橋一丁目２１番６号株式会社カフェレオ（4010501020780）に合併し解散,2015-10-05,1,,,,,アルジャーノンプロダクト,0
1980,8010701035666,登記記録の閉鎖等,0,2024-08-13,2024-08-08,株式会社Ｙ　ｂｙ　エイト,,株式会社,東京都,小金井市,前原町５丁目１６番１号,,13,210,1840013,,,2024-08-08,清算の結了等,,,2018-04-17,1,,,,,ワイバイエイト,0
1985,8010803003983,登記記録の閉鎖等,0,2024-08-13,2024-08-01,Ｖ３合同会社,,合同会社,東京都,大田区,千鳥１丁目２３番１号,,13,111,1460083,,,2024-08-01,合併による解散等,9010803003339,令和６年８月１日東京都大田区千鳥一丁目２３番１号Ｔ＆Ｆ合同会社（9010803003339）に合併し解散,2021-12-17,1,,,,,ブイスリー,0
2019,8011103013228,登記記録の閉鎖等,0,2024-08-13,2024-07-29,合同会社イイトコドリ,,合同会社,東京都,新宿区,西新宿３丁目３番１３号西新宿水間ビル６階,,13,104,1600023,,,2024-07-29,清算の結了等,,,2023-07-07,1,,,,,イイトコドリ,0
2022,8011302002849,登記記録の閉鎖等,0,2024-08-13,2024-08-02,有限会社木村電送,,有限会社,東京都,杉並区,高円寺南４丁目１３番９号,,13,115,1660003,,,2024-08-02,清算の結了等,,,2015-10-05,1,,,,,キムラデンソウ,0
2025,8011501022706,登記記録の閉鎖等,0,2024-08-13,2024-08-08,株式会社昌栄商事,,株式会社,東京都,北区,志茂４丁目２６番４号,,13,117,1150042,,,2024-08-08,清算の結了等,,,2017-06-05,1,,,,,ショウエイショウジ,0
2031,8012702004352,登記記録の閉鎖等,0,2024-08-13,2024-08-02,有限会社下田組,,有限会社,東京都,西東京市,泉町５丁目１番１２号,,13,229,2020011,,,2024-08-02,清算の結了等,,,2015-10-05,1,,,,,,0
2045,8020002076814,登記記録の閉鎖等,0,2024-08-13,2024-07-22,サンアンドプラネット有限会社,,有限会社,神奈川県,横浜市港北区,日吉本町４丁目１６番１２－４０２号,,14,109,2230062,,,2024-07-22,清算の結了等,,,2015-10-05,1,,,,,サンアンドプラネット,0
2051,8020003019631,登記記録の閉鎖等,0,2024-08-13,2024-07-22,ミルキーウェイ合同会社,,合同会社,神奈川県,横浜市西区,浅間町１丁目４番３号ウィザードビル４０２,,14,103,2200072,,,2024-07-22,清算の結了等,,,2021-04-15,1,,,,,ミルキーウェイ,0
2058,8021002020448,登記記録の閉鎖等,0,2024-08-13,2024-08-02,有限会社サイトー建販,,有限会社,神奈川県,相模原市中央区,星が丘２丁目１０番２３号,,14,152,2520238,,,2024-08-02,清算の結了等,,,2015-10-05,1,,,,,,0
2059,8021002055502,登記記録の閉鎖等,0,2024-08-13,2024-08-09,有限会社福富商事,,有限会社,神奈川県,足柄上郡大井町,上大井９７９番地,,14,362,2580016,,,2024-08-09,清算の結了等,,,2015-10-05,1,,,,,フクトミショウジ,0
2071,8040001089195,登記記録の閉鎖等,0,2024-08-13,2024-07-30,ファーレシステム株式会社,,株式会社,千葉県,八千代市,大和田新田１２２番地３７,,12,221,2760046,,,2024-07-30,清算の結了等,,,2015-10-05,1,,,,,ファーレシステム,0
2074,8040003003303,登記記録の閉鎖等,0,2024-08-13,2024-07-29,合同会社ＲＭサービス,,合同会社,千葉県,浦安市,舞浜１番地１,,12,227,2790031,,,2024-07-29,清算の結了等,,,2015-10-05,1,,,,,アールエムサービス,0
2079,8050002010844,登記記録の閉鎖等,0,2024-08-13,2024-08-06,有限会社ドリームワン,,有限会社,茨城県,笠間市,大古山６１１番地２７,,08,216,3091724,,,2024-08-06,清算の結了等,,,2015-10-05,1,,,,,ドリームワン,0
2085,8060002005604,登記記録の閉鎖等,0,2024-08-13,2024-07-31,有限会社大丸工務店,,有限会社,栃木県,宇都宮市,石井町２５６８番地１１,,09,201,3210912,,,2024-07-31,清算の結了等,,,2015-10-05,1,,,,,ダイマルコウムテン,0
2087,8060002032301,登記記録の閉鎖等,0,2024-08-13,2024-07-30,有限会社塚本運送,,有限会社,栃木県,栃木市,城内町２丁目２番５２号,,09,203,3280033,,,2024-07-30,清算の結了等,,,2015-10-05,1,,,,,ツカモトウンソウ,0
2099,8090001011138,登記記録の閉鎖等,0,2024-08-13,2024-08-02,東和エレベーター株式会社,,株式会社,山梨県,北杜市,須玉町穴平１５８５番地,,19,209,4080111,,,2024-08-02,清算の結了等,,,2015-10-05,1,,,,,トーワエレベーター,0
2101,8090005002331,登記記録の閉鎖等,0,2024-08-13,2024-07-05,蠶影神社,,その他の設立登記法人,山梨県,笛吹市,芦川町新井原,00069030,19,211,4093702,,,2024-07-05,合併による解散等,2090005002378,令和６年７月５日山梨県笛吹市芦川町上芦川７０４番地諏訪神社（2090005002378）に合併し解散,2015-10-05,1,,,,,,0
2105,8120001101892,登記記録の閉鎖等,0,2024-08-13,2024-08-07,福見産業株式会社,,株式会社,大阪府,大阪市淀川区,東三国４丁目２５番５号,,27,123,5320002,,,2024-08-07,合併による解散等,5011801023456,令和６年８月１日東京都足立区新田二丁目３番３号槙株式会社（5011801023456）に合併し解散,2015-10-05,1,,,,,フクミサンギョウ,0
2125,8120901041115,登記記録の閉鎖等,0,2024-08-13,2024-08-07,ＨＴＯ株式会社,,株式会社,大阪府,大阪市住吉区,万代３丁目１１番３号,,27,120,5580055,,,2024-08-07,合併による解散等,2220001006055,令和６年７月３１日石川県金沢市小橋町３番４７号北信テレネックス株式会社（2220001006055）に合併し解散,2019-04-04,1,,,,,エイチティオ,0
2140,8140001054676,登記記録の閉鎖等,0,2024-08-13,2024-08-02,Ｂｌｕｅ　Ｒｅｓｉｓｔａｎｃｅ株式会社,,株式会社,兵庫県,尼崎市,武庫之荘１丁目１９番１２号,,28,202,6610035,,,2024-08-02,清算の結了等,,,2015-10-05,1,,,,,ブルーレジスタンス,0
2158,8150005006953,登記記録の閉鎖等,0,2024-08-13,2024-07-17,須佐男神社,,その他の設立登記法人,奈良県,五條市,西吉野町津越２９５番地,,29,207,6370232,,,2024-07-17,合併による解散等,6150005006988,令和６年７月１７日奈良県五條市西吉野町立川渡３４８番地八坂神社（6150005006988）に合併し解散,2015-10-05,1,,,,,スサノオジンジャ,0
2184,8220003000067,登記記録の閉鎖等,0,2024-08-13,2024-07-31,合名会社安田商会,,合名会社,石川県,金沢市,長田２丁目１５番２２号,,17,201,9200043,,,2024-07-31,清算の結了等,,,2015-10-05,1,,,,,ヤスダショウカイ,0
2214,8290802004105,登記記録の閉鎖等,0,2024-08-13,2024-08-05,有限会社中央プランニング,,有限会社,福岡県,北九州市小倉北区,木町３丁目３番７号,,40,106,8030851,,,2024-08-05,清算の結了等,,,2015-10-05,1,,,,,チュウオウプランニング,0
2234,8370605000342,登記記録の閉鎖等,0,2024-08-13,2024-07-22,塩釜水産物流センター事業協同組合,,その他の設立登記法人,宮城県,塩竈市,新浜町３丁目２番１５号,,04,203,9850001,,,2024-07-22,清算の結了等,,,2015-10-05,1,,,,,シオガマスイサンブツリュウセンター,0
2247,8440005000274,登記記録の閉鎖等,0,2024-08-13,2024-07-12,医療法人同仁会,,その他の設立登記法人,北海道,函館市,亀田本町３６番１号,,01,202,0410813,,,2024-07-12,合併による解散等,1430005001478,令和６年７月１日札幌市南区石山東七丁目１番２８号医療法人同仁会（1430005001478）に合併し解散,2015-10-05,1,,,,,ドウジンカイ,0
2248,8470002015909,登記記録の閉鎖等,0,2024-08-13,2024-08-02,有限会社木村組,,有限会社,香川県,観音寺市,室本町９００番地３,,37,205,7680001,,,2024-08-02,清算の結了等,,,2015-10-05,1,,,,,キムラグミ,0
2252,8480002011080,登記記録の閉鎖等,0,2024-08-13,2024-08-08,有限会社オーケイシィ会計センター,,有限会社,徳島県,板野郡北島町,江尻字松ノ本８番地１９,,36,402,7710205,,,2024-08-08,清算の結了等,,,2015-10-05,1,,,,,オーケイシィカイケイセンター,0
2265,9010001032512,登記記録の閉鎖等,0,2024-08-13,2024-07-31,労務協会情報ネットワーク株式会社,,株式会社,東京都,千代田区,内神田２丁目３番９号,,13,101,1010047,,,2024-07-31,清算の結了等,,,2015-10-05,1,,,,,ロウムキョウカイジョウホウネットワーク,0
2266,9010001112330,登記記録の閉鎖等,0,2024-08-13,2024-07-29,山佐産業ＲＹＲ３リース株式会社,,株式会社,東京都,千代田区,丸の内３丁目１番１号東京共同会計事務所内,,13,101,1000005,,,2024-07-29,清算の結了等,,,2015-10-05,1,,,,,ヤマササンギョウアールワイアールスリーリース,0
2268,9010001173091,登記記録の閉鎖等,0,2024-08-13,2024-07-26,株式会社嘉惠不動産,,株式会社,東京都,新宿区,若葉１丁目９番２５号,,13,104,1600011,,,2024-07-26,清算の結了等,,,2016-01-21,1,,,,,カエフドウサン,0
2270,9010001204474,登記記録の閉鎖等,0,2024-08-13,2024-07-29,バブルリング株式会社,,株式会社,東京都,千代田区,神田小川町１丁目８番３号小川町北ビル３階,,13,101,1010052,,,2024-07-29,清算の結了等,,,2019-10-10,1,,,,,バブルリング,0
2272,9010001215620,登記記録の閉鎖等,0,2024-08-13,2024-08-01,株式会社Ｃａｍｅｌ　Ｖｉｌｌａｇｅ,,株式会社,東京都,台東区,浅草５丁目６２－３－１Ｆ,,13,106,1110032,,,2024-08-01,清算の結了等,,,2021-02-15,1,,,,,キャメルヴィレッジ,0
2284,9010403006758,登記記録の閉鎖等,0,2024-08-13,2024-08-05,合同会社ヴイエス・リーシング,,合同会社,東京都,江戸川区,東小岩３丁目７番１８号,,13,123,1330052,,,2024-08-05,清算の結了等,,,2015-10-05,1,,,,,ヴイエスリーシング,0
2286,9010403018175,登記記録の閉鎖等,0,2024-08-13,2024-07-22,合同会社ｒｅ－ｓｔｙｌｅ,,合同会社,神奈川県,横浜市中区,宮川町３丁目７９番３号,,14,104,2310065,,,2024-07-22,清算の結了等,,,2018-02-28,1,,,,,リスタイル,0
2288,9010405021111,登記記録の閉鎖等,0,2024-08-13,2024-07-22,一般社団法人ＭｗＭ　Ｊａｐａｎ,,その他の設立登記法人,東京都,港区,西麻布４丁目１１番１４号,,13,103,1060031,,,2024-07-22,清算の結了等,,,2022-07-01,1,,,,,ムゥウジャパン,0
2292,9010501032367,登記記録の閉鎖等,0,2024-08-13,2024-07-01,アシスト・ジャパン株式会社,,株式会社,東京都,豊島区,南池袋１丁目１３番２１号ＰＭＯ池袋ＩＩ,00135179,13,116,1710022,,,2024-07-01,合併による解散等,4010001007477,令和６年７月１日東京都豊島区南池袋一丁目１３番２１号ＰＭＯ池袋ＩＩブラッコ・ジャパン株式会社（4010001007477）に合併し解散,2015-10-05,1,,,,,アシストジャパン,0
2293,9010502008993,登記記録の閉鎖等,0,2024-08-13,2024-08-01,有限会社浜田屋商店,,有限会社,東京都,台東区,松が谷２丁目１３番１２号,,13,106,1110036,,,2024-08-01,清算の結了等,,,2015-10-05,1,,,,,ハマダヤショウテン,0
2307,9010801004289,登記記録の閉鎖等,0,2024-08-13,2024-08-02,サウンドデザインハウス株式会社,,株式会社,東京都,大田区,池上３丁目４１番１２号,,13,111,1460082,,,2024-08-02,清算の結了等,,,2015-10-05,1,,,,,サウンドデザインハウス,0
2312,9010901043344,登記記録の閉鎖等,0,2024-08-13,2024-08-06,会計事務所ＲＰＡ研究会株式会社,,株式会社,東京都,中央区,京橋１丁目３番２号,,13,102,1040031,,,2024-08-06,合併による解散等,6011001121349,令和６年６月３０日東京都港区海岸一丁目４番２２号Ｅｚテクノロジーズ株式会社（6011001121349）に合併し解散,2018-12-19,1,,,,,カイケイジムショアールピーエーケンキュウカイ,0
2332,9011501011906,登記記録の閉鎖等,0,2024-08-13,2024-08-08,株式会社インテリアニシカワ,,株式会社,東京都,北区,田端新町２丁目１８番２号,,13,117,1140012,,,2024-08-08,清算の結了等,,,2015-10-05,1,,,,,インテリアニシカワ,0
2370,9030002034407,登記記録の閉鎖等,0,2024-08-13,2024-08-02,有限会社マツオカ,,有限会社,埼玉県,狭山市,広瀬東４丁目１５番２４号,,11,215,3501320,,,2024-08-02,清算の結了等,,,2015-10-05,1,,,,,マツオカ,0
2372,9030002059536,登記記録の閉鎖等,0,2024-08-13,2024-08-05,有限会社アサヒ,,有限会社,埼玉県,志木市,幸町１丁目６番５２号,,11,228,3530005,,,2024-08-05,清算の結了等,,,2015-10-05,1,,,,,アサヒ,0
2377,9040002037887,登記記録の閉鎖等,0,2024-08-13,2024-07-29,有限会社齋藤ビニール,,有限会社,千葉県,鎌ケ谷市,くぬぎ山１丁目６番３９号,,12,224,2730128,,,2024-07-29,清算の結了等,,,2022-03-25,1,,,,,サイトウビニール,0
2390,9080001018083,登記記録の閉鎖等,0,2024-08-13,2024-08-01,株式会社ＳＥＩＥＩ,,株式会社,静岡県,静岡市葵区,吉野町４番７号,,22,101,4200046,,,2024-08-01,清算の結了等,,,2015-10-05,1,,,,,セイエイ,0
2398,9090005004178,登記記録の閉鎖等,0,2024-08-13,2024-08-02,向原染色株式会社,,株式会社,山梨県,富士吉田市,向原１丁目２２番２２号,,19,202,4030018,,,2024-08-02,清算の結了等,,,2015-10-05,1,,,,,,0
2405,9110005005058,登記記録の閉鎖等,0,2024-08-13,2024-06-27,山神社,,その他の設立登記法人,新潟県,新発田市,中川３１７番地１,,15,206,9592515,,,2024-06-27,合併による解散等,4110005004808,新潟県新発田市上石川４９３番地神明宮（4110005004808）に合併し解散,2015-10-05,1,,,,,ヤマガミシャ,0
2406,9110005012269,登記記録の閉鎖等,0,2024-08-13,2024-08-01,一般社団法人栃尾青年会議所,,その他の設立登記法人,新潟県,長岡市,谷内２丁目５番９号,,15,202,9400227,,,2024-08-01,清算の結了等,,,2015-10-05,1,,,,,トチオセイネンカイギショ,0
2407,9120001036865,登記記録の閉鎖等,0,2024-08-13,2024-08-08,菱西電機株式会社,,株式会社,大阪府,大阪市福島区,海老江７丁目８番３３号,,27,103,5530001,,,2024-08-08,清算の結了等,,,2015-10-05,1,,,,,リョウサイデンキ,0
2414,9120001214974,登記記録の閉鎖等,0,2024-08-13,2024-08-06,株式会社レア・ルマンド,,株式会社,石川県,金沢市,神宮寺３丁目６番１号,,17,201,9200806,,,2024-08-06,合併による解散等,1130001047539,令和６年７月３１日京都市下京区高辻通堀川西入富永町６７２番地株式会社レア・パートナーズ（1130001047539）に合併し解散,2018-07-27,1,,,,,,0
2438,9130002026864,登記記録の閉鎖等,0,2024-08-13,2024-08-07,有限会社プレハウジング,,有限会社,京都府,宇治市,広野町一里山６５の３丸井ビル３Ｆ,,26,204,6110031,,,2024-08-07,清算の結了等,,,2015-10-05,1,,,,,,0
2453,9180001149496,登記記録の閉鎖等,0,2024-08-13,2024-08-01,株式会社大熊農林水産研究所,,株式会社,愛知県,名古屋市港区,浜２丁目１２番３８号,,23,111,4550036,,,2024-08-01,清算の結了等,,,2022-01-13,1,,,,,オオクマノウリンスイサンケンキュウショ,0
2459,9180005013574,登記記録の閉鎖等,0,2024-08-13,2024-07-01,海部東農業協同組合,,その他の設立登記法人,愛知県,津島市,神守町字中町１５番地,,23,208,4960005,,,2024-07-01,合併による解散等,5180005013909,令和６年７月１日愛知県津島市大縄町九丁目６３番地あいち海部農業協同組合（5180005013909）に合併し解散,2015-10-05,1,,,,,アマヒガシ,0
2466,9200002014028,登記記録の閉鎖等,0,2024-08-13,2024-08-08,有限会社未来精器,,有限会社,岐阜県,養老郡養老町,橋爪１１５番地の３,,21,341,5031331,,,2024-08-08,清算の結了等,,,2015-10-05,1,,,,,ミライセイキ,0
2467,9200002014829,登記記録の閉鎖等,0,2024-08-13,2024-08-06,有限会社戸谷物流,,有限会社,岐阜県,海津市,平田町野寺６５３番地,,21,221,5030303,,,2024-08-06,清算の結了等,,,2015-10-05,1,,,,,トヤブツリュウ,0
2468,9200002022369,登記記録の閉鎖等,0,2024-08-13,2024-08-07,有限会社まるいち商会,,有限会社,岐阜県,多治見市,笠原町２０４２番地の１,,21,204,5070901,,,2024-08-07,清算の結了等,,,2015-10-05,1,,,,,,0
2469,9200005004182,登記記録の閉鎖等,0,2024-08-13,2024-07-01,医療法人同愛会,,その他の設立登記法人,岐阜県,大垣市,大外羽４丁目７番地,,21,202,5030956,,,2024-07-01,合併による解散等,8200005007153,令和６年７月１日岐阜県加茂郡富加町夕田３８０番地医療法人社団明星会（8200005007153）に合併し解散,2015-10-05,1,,,,,ドウアイカイ,0
2491,9290802006810,登記記録の閉鎖等,0,2024-08-13,2024-08-05,淀谷商事有限会社,,有限会社,福岡県,北九州市小倉北区,愛宕１丁目３番３号以和貴ビル９０３号,,40,106,8030828,,,2024-08-05,清算の結了等,,,2015-10-05,1,,,,,ヨドタニショウジ,0
2495,9320005009351,登記記録の閉鎖等,0,2024-08-13,2024-07-29,上入津養魚協同組合,,その他の設立登記法人,大分県,佐伯市,蒲江大字畑野浦２６４７番地６,,44,205,8762201,,,2024-07-29,清算の結了等,,,2016-03-14,1,,,,,カミニュウヅヨウギョ,0
2496,9330001027430,登記記録の閉鎖等,0,2024-08-13,2024-08-01,くまもとマスク株式会社,,株式会社,熊本県,宇城市,三角町三角浦１１５９番地１９５,,43,213,8693207,,,2024-08-01,合併による解散等,3330001006084,令和６年８月１日熊本市南区出仲間八丁目５番３３号株式会社ジェネフィット・ジャパン（3330001006084）に合併し解散,2020-05-08,1,,,,,クマモトマスク,0
2519,9380002030172,登記記録の閉鎖等,0,2024-08-13,2024-08-05,有限会社大洋信販,,有限会社,福島県,双葉郡大熊町,大字小入野字東大和久６５３番地,,07,545,9791302,,,2024-08-05,清算の結了等,,,2015-10-05,1,,,,,タイヨウシンパン,0
