sequenceNumber,corporateNumber,process,correct,updateDate,changeDate,name,nameImageId,kind,prefectureName,cityName,streetNumber,addressImageId,prefectureCode,cityCode,postCode,addressOutside,addressOutsideImageId,closeDate,closeCause,successorCorporateNumber,changeCause,assignmentDate,latest,enName,enPrefectureName,enCityName,enAddressOutside,furigana,hihyoji
9,1010001233010,新規,0,2023-02-15,2023-02-15,きわみＬｉｂｒａｒｙ株式会社,,株式会社,東京都,千代田区,神田富山町５番地１神田ビジネスキューブ５階,,13,101,1010043,,,,,,,2023-02-15,1,,,,,キワミライブラリー,0
10,1010001233027,新規,0,2023-02-15,2023-02-15,株式会社ティップ,,株式会社,東京都,千代田区,内神田１丁目１０－２－５０２,,13,101,1010047,,,,,,,2023-02-15,1,,,,,ティップ,0
11,1010001233043,新規,0,2023-02-15,2023-02-15,株式会社ＵＰ‐ＯＦＦＩＣＥ,,株式会社,東京都,千代田区,神田神保町１丁目８番地１１ＦＵＪＩビル５階,,13,101,1010051,,,,,,,2023-02-15,1,,,,,アップオフィス,0
12,1010003039835,新規,0,2023-02-15,2023-02-15,合同会社Ｕ‐Ｄｉｓｔｒｉｂｕｔｉｏｎ,,合同会社,東京都,中央区,銀座１丁目１２－４Ｎ＆ＥＢＬＤ．７階,,13,102,1040061,,,,,,,2023-02-15,1,,,,,ユーディストリビューション,0
14,1010005036260,新規,0,2023-02-15,2023-02-15,港北キャピタル一般社団法人,,その他の設立登記法人,東京都,千代田区,丸の内３丁目１番１号東京共同会計事務所内,,13,101,1000005,,,,,,,2023-02-15,1,,,,,コウホクキャピタル,0
19,1010401172493,新規,0,2023-02-15,2023-02-15,株式会社桃と花と咲と,,株式会社,東京都,港区,赤坂４丁目３番３号,,13,103,1070052,,,,,,,2023-02-15,1,,,,,モモトハナトサキト,0
20,1010401172551,新規,0,2023-02-15,2023-02-15,株式会社Ｈｅｌｅｎ,,株式会社,東京都,港区,南青山７丁目７番２１号,,13,103,1070062,,,,,,,2023-02-15,1,,,,,ヘレン,0
26,1010501050013,新規,0,2023-02-15,2023-02-15,株式会社ミュープランニング,,株式会社,東京都,台東区,上野７丁目３番９号アルベルコ上野４０２号室,,13,106,1100005,,,,,,,2023-02-15,1,,,,,ミュープランニング,0
31,1010701043865,新規,0,2023-02-15,2023-02-15,ＮＥＸＴ　ＢＯＸ株式会社,,株式会社,東京都,品川区,西品川１丁目１－１住友不動産大崎ガーデンタワー９階,,13,109,1410033,,,,,,,2023-02-15,1,,,,,ネクストボックス,0
39,1010901052534,新規,0,2023-02-15,2023-02-15,株式会社ライフワークス,,株式会社,東京都,世田谷区,駒沢２丁目１６番４－８０２号,,13,112,1540012,,,,,,,2023-02-15,1,,,,,ライフワークス,0
43,1011001152539,新規,0,2023-02-15,2023-02-15,株式会社評判,,株式会社,東京都,渋谷区,笹塚３丁目９－３ケイオービル４０３,,13,113,1510073,,,,,,,2023-02-15,1,,,,,ヒョウバン,0
44,1011001152563,新規,0,2023-02-15,2023-02-15,株式会社ｋａｆｕｕ,,株式会社,東京都,渋谷区,神宮前２丁目４－１８リッツ外苑４階,,13,113,1500001,,,,,,,2023-02-15,1,,,,,,0
45,1011001152613,新規,0,2023-02-15,2023-02-15,株式会社ｂｏｎｄ．,,株式会社,東京都,目黒区,碑文谷５丁目２番５号Ｔ＆Ａビル５Ｆ,,13,110,1520003,,,,,,,2023-02-15,1,,,,,ボンド,0
46,1011001152646,新規,0,2023-02-15,2023-02-15,株式会社ＫＯＺＯＮＯ　ＨＯＬＤＩＮＧＳ,,株式会社,東京都,目黒区,下目黒５丁目９番１３号,,13,110,1530064,,,,,,,2023-02-15,1,,,,,コゾノホールディングス,0
47,1011003016279,新規,0,2023-02-15,2023-02-15,合同会社トラスト,,合同会社,東京都,渋谷区,神山町１０番２－９０４号パークハビオ渋谷神山町,,13,113,1500047,,,,,,,2023-02-15,1,,,,,トラスト,0
48,1011003016304,新規,0,2023-02-15,2023-02-15,おなかラクト合同会社,,合同会社,東京都,渋谷区,神宮前６丁目２３番４号桑野ビル２階,,13,113,1500001,,,,,,,2023-02-15,1,,,,,オナカラクト,0
51,1011101101841,新規,0,2023-02-15,2023-02-15,株式会社ｕｎｄｅｒｌｉｎｅ,,株式会社,東京都,新宿区,中落合４丁目１４－１０ＴｈｅＳｅｒｒａｓ中落合２０１,,13,104,1610032,,,,,,,2023-02-15,1,,,,,アンダーライン,0
52,1011101101858,新規,0,2023-02-15,2023-02-15,株式会社ＪＰ・Ｃｏｍｐａｎｙ,,株式会社,東京都,新宿区,西新宿３丁目９番２５号ハーモニー西新宿ビル１Ｆ,,13,104,1600023,,,,,,,2023-02-15,1,,,,,ジェーピーカンパニー,0
53,1011101101866,新規,0,2023-02-15,2023-02-15,株式会社Ｓｔｏｒｍｂｒｉｎｇｅｒ　Ｊａｐａｎ,,株式会社,東京都,新宿区,神楽坂５丁目３２番地八潮第二ビル５Ｆ,,13,104,1620825,,,,,,,2023-02-15,1,,,,,ストームブリンガージャパン,0
54,1011103012707,新規,0,2023-02-15,2023-02-15,合同会社セイカンホールディングス,,合同会社,東京都,新宿区,下宮比町１番４号,,13,104,1620822,,,,,,,2023-02-15,1,,,,,セイカンホールディングス,0
58,1011201024422,新規,0,2023-02-15,2023-02-15,株式会社ナチュラルメッセージ,,株式会社,東京都,中野区,東中野１丁目５１番１３号,,13,114,1640003,,,,,,,2023-02-15,1,,,,,ナチュラルメッセージ,0
63,1011801041924,新規,0,2023-02-15,2023-02-15,株式会社佐々木工業,,株式会社,東京都,足立区,足立３丁目１８番１３号,,13,121,1200015,,,,,,,2023-02-15,1,,,,,ササキコウギョウ,0
65,1011803005522,新規,0,2023-02-15,2023-02-15,Ｈｉｌｕｍｅ　ｐｌｕｍｅ合同会社,,合同会社,東京都,足立区,東和４丁目１番１２号２Ｆ,,13,121,1200003,,,,,,,2023-02-15,1,,,,,ヒルメプリューム,0
67,1012301013315,新規,0,2023-02-15,2023-02-15,町田中学校給食サービス株式会社,,株式会社,東京都,町田市,成瀬７丁目１番１号,,13,209,1940044,,,,,,,2023-02-15,1,,,,,マチダチュウガッコウキュウショクサービス,0
68,1012401040184,新規,0,2023-02-15,2023-02-15,株式会社ｅｏ,,株式会社,東京都,小金井市,本町６丁目２番１０－２１０３号,,13,210,1840004,,,,,,,2023-02-15,1,,,,,エオ,0
69,1013103001210,新規,0,2023-02-15,2023-02-15,合同会社ＡＫＩＷＡＴＡ　ＴＲＡＤＩＮＧ,,合同会社,東京都,青梅市,二俣尾２丁目６１５番地,,13,205,1980171,,,,,,,2023-02-15,1,,,,,アキワタトレーディング,0
73,1013305003442,新規,0,2023-02-15,2023-02-15,一般社団法人キャリア協会,,その他の設立登記法人,東京都,豊島区,南大塚３丁目３０番１２－３０２号,,13,116,1700005,,,,,,,2023-02-15,1,,,,,,0
79,1020001150246,新規,0,2023-02-15,2023-02-15,株式会社慶西,,株式会社,神奈川県,横浜市中区,山下町２５２グランベル横浜ビル９階２号室,,14,104,2310023,,,,,,,2023-02-15,1,,,,,ケイセイ,0
80,1020001150270,新規,0,2023-02-15,2023-02-15,株式会社ＬＤラボ,,株式会社,神奈川県,川崎市川崎区,砂子２丁目１－７太陽軒ビル５階,,14,131,2100006,,,,,,,2023-02-15,1,,,,,エルディーラボ,0
81,1020001150279,新規,0,2023-02-15,2023-02-15,株式会社ＫＩＫＯ,,株式会社,神奈川県,横浜市青葉区,しらとり台２－４フェリーチェ青葉台５０２号室,,14,117,2270054,,,,,,,2023-02-15,1,,,,,キコ,0
82,1020001150287,新規,0,2023-02-15,2023-02-15,株式会社グリーン,,株式会社,神奈川県,横浜市南区,井土ケ谷中町１５８,,14,105,2320052,,,,,,,2023-02-15,1,,,,,グリーン,0
83,1020001150320,新規,0,2023-02-15,2023-02-15,株式会社ＴＳＭ,,株式会社,神奈川県,横浜市都筑区,北山田２丁目１２番２１号,,14,118,2240021,,,,,,,2023-02-15,1,,,,,ティーエスエム,0
86,1020003023301,新規,0,2023-02-15,2023-02-15,合同会社ＷＥＬＬＶＹ,,合同会社,神奈川県,川崎市多摩区,枡形２丁目１１番３８号第８ヤオキハイツ２０５,,14,135,2140032,,,,,,,2023-02-15,1,,,,,ウェルビー,0
90,1021001078205,新規,0,2023-02-15,2023-02-15,明石エンタープライズ株式会社,,株式会社,神奈川県,平塚市,明石町２６番６号中央ビル３Ｆ,,14,203,2540042,,,,,,,2023-02-15,1,,,,,アカシエンタープライズ,0
91,1021001078221,新規,0,2023-02-15,2023-02-15,株式会社リーベルホーム,,株式会社,神奈川県,横須賀市,大津町５丁目２２番９号,,14,201,2390808,,,,,,,2023-02-15,1,,,,,リーベルホーム,0
92,1021003012335,新規,0,2023-02-15,2023-02-15,Ａ．Ｍ．Ｒ．ｄｉａ合同会社,,合同会社,神奈川県,鎌倉市,岡本２丁目２－１－５１０,,14,204,2470072,,,,,,,2023-02-15,1,,,,,エーエムアールディーアイエー,0
93,1021003012764,新規,0,2023-02-15,2023-02-15,合同会社エルシーオー,,合同会社,神奈川県,相模原市中央区,光が丘２丁目１８番１１７号,,14,152,2520227,,,,,,,2023-02-15,1,,,,,エルシーオー,0
94,1021003012772,新規,0,2023-02-15,2023-02-15,合同会社イーズルームズ,,合同会社,神奈川県,海老名市,上今泉４丁目２１番５４－５０７号,,14,215,2430431,,,,,,,2023-02-15,1,,,,,イーズルームズ,0
97,1021005012738,新規,0,2023-02-15,2023-02-15,特定非営利活動法人まるほ横丁,,その他の設立登記法人,神奈川県,茅ヶ崎市,室田２丁目１７番１０号,,14,207,2530018,,,,,,,2023-02-15,1,,,,,マルホヨコチョウ,0
101,1030001152415,新規,0,2023-02-15,2023-02-15,株式会社ケートータルデザイン,,株式会社,埼玉県,吉川市,大字加藤１３０番地２,,11,243,3420022,,,,,,,2023-02-15,1,,,,,ケートータルデザイン,0
102,1030001152423,新規,0,2023-02-15,2023-02-15,株式会社サンデーパパ,,株式会社,埼玉県,坂戸市,泉町３番１３号,,11,239,3500231,,,,,,,2023-02-15,1,,,,,サンデーパパ,0
103,1030001152431,新規,0,2023-02-15,2023-02-15,ＯＮＥ　ＷＡＹ　ＧＯ株式会社,,株式会社,埼玉県,戸田市,上戸田２丁目４０番３－１０１号,,11,224,3350022,,,,,,,2023-02-15,1,,,,,ワンウェイゴー,0
105,1030003021155,新規,0,2023-02-15,2023-02-15,合同会社成和会,,合同会社,埼玉県,さいたま市緑区,美園５丁目３４－２１,,11,109,3360967,,,,,,,2023-02-15,1,,,,,セイワカイ,0
109,1040003021947,新規,0,2023-02-15,2023-02-15,Ｒｅａｃｈ合同会社,,合同会社,千葉県,柏市,若柴１７８番地４柏の葉キャンパス１４８街区２ショップ＆オフィス棟６Ｆ,,12,217,2770871,,,,,,,2023-02-15,1,,,,,リーチ,0
117,1060001035674,新規,0,2023-02-15,2023-02-15,株式会社ＭＡＬＩＫ　ＴＲＡＤＩＮＧ,,株式会社,栃木県,栃木市,藤岡町赤麻３２５６－１,,09,203,3231102,,,,,,,2023-02-15,1,,,,,マリクトレーディング,0
141,1120001252494,新規,0,2023-02-15,2023-02-15,株式会社シークエル,,株式会社,大阪府,大阪市福島区,福島７丁目１６番地１０吉村ビル２０４号室,,27,103,5530003,,,,,,,2023-02-15,1,,,,,シークエル,0
142,1120001252503,新規,0,2023-02-15,2023-02-15,Ｅ　Ｃｏｒｐｏｒａｔｉｏｎ株式会社,,株式会社,大阪府,大阪市東成区,玉津３丁目６－１８,,27,115,5370023,,,,,,,2023-02-15,1,,,,,イーコポレーション,0
143,1120001252544,新規,0,2023-02-15,2023-02-15,尚球社ホールディングス株式会社,,株式会社,大阪府,大阪市中央区,大手通１丁目４番１０号大手前フタバビル９階,,27,128,5400021,,,,,,,2023-02-15,1,,,,,ショウキュウシャホールディングス,0
144,1120001252577,新規,0,2023-02-15,2023-02-15,株式会社ＹＡＺＡＷＡ,,株式会社,大阪府,大阪市北区,大深町３－４０ＧＦＯＯＴ９１０,,27,127,5300011,,,,,,,2023-02-15,1,,,,,ヤザワ,0
147,1120003023431,新規,0,2023-02-15,2023-02-15,合同会社アンブラ,,合同会社,大阪府,大阪市北区,野崎町１－３０－２１１２,,27,127,5300055,,,,,,,2023-02-15,1,,,,,アンブラ,0
149,1120101066992,新規,0,2023-02-15,2023-02-15,株式会社ＧＲＡＮＤＩＲ．Ｊ＆Ｋ,,株式会社,大阪府,羽曳野市,碓井３丁目５７９番地の３,,27,222,5830851,,,,,,,2023-02-15,1,,,,,グランディールジェイアンドケー,0
151,1120103005081,新規,0,2023-02-15,2023-02-15,合同会社チャロ,,合同会社,大阪府,和泉市,山荘町１丁目１８番２８号,,27,219,5940021,,,,,,,2023-02-15,1,,,,,チャロ,0
154,1120901047135,新規,0,2023-02-15,2023-02-15,株式会社ＴＥＴＥ,,株式会社,大阪府,豊中市,曽根西町２丁目１２番２２号,,27,203,5610801,,,,,,,2023-02-15,1,,,,,テット,0
158,1130001073650,新規,0,2023-02-15,2023-02-15,ＫＡＫＵ株式会社,,株式会社,京都府,京都市伏見区,竹田久保町２番地８７－１Ｆ,,26,109,6128411,,,,,,,2023-02-15,1,,,,,カク,0
160,1140001129146,新規,0,2023-02-15,2023-02-15,株式会社キズナイズ,,株式会社,兵庫県,伊丹市,昆陽１丁目１１１番地森川ビル３０１号,,28,207,6640881,,,,,,,2023-02-15,1,,,,,キズナイズ,0
165,1150005009459,新規,0,2023-02-15,2023-02-15,一般社団法人モノモン,,その他の設立登記法人,奈良県,奈良市,大宮町２丁目１番地の１－２０４,,29,201,6308115,,,,,,,2023-02-15,1,,,,,モノモン,0
166,1170003001837,新規,0,2023-02-15,2023-02-15,ＳＨＩＮＹＵ合同会社,,合同会社,和歌山県,和歌山市,紀三井寺８３－１９,,30,201,6410012,,,,,,,2023-02-15,1,,,,,シンユウ,0
170,1180001155023,新規,0,2023-02-15,2023-02-15,株式会社ＴＡＳＫ,,株式会社,愛知県,名古屋市千種区,池下１丁目３番５号,,23,101,4640067,,,,,,,2023-02-15,1,,,,,タスク,0
177,1230001019718,新規,0,2023-02-15,2023-02-15,株式会社ほうおう,,株式会社,富山県,射水市,広上３２０番地５９,,16,211,9390256,,,,,,,2023-02-15,1,,,,,ホウオウ,0
178,1240001061099,新規,0,2023-02-15,2023-02-15,株式会社ＨＩＲＯＳＨＩＭＡ　Ｏｙｓｔｅｒｓ,,株式会社,広島県,三原市,本郷町善入寺６４番２,,34,204,7290416,,,,,,,2023-02-15,1,,,,,ヒロシマオイスターズ,0
182,1250001019963,新規,0,2023-02-15,2023-02-15,株式会社Ｇｒａｃｉｅｕｘ,,株式会社,山口県,下関市,古屋町１丁目１番１－１０１号ハイツフレグランスＩＩ,00129449,35,201,7510847,,,,,,,2023-02-15,1,,,,,グラシュー,0
189,1290003013531,新規,0,2023-02-15,2023-02-15,合同会社ＬＩＢ,,合同会社,福岡県,古賀市,谷山１０５４－１－１０２,,40,223,8113125,,,,,,,2023-02-15,1,,,,,エルアイビー,0
193,1300001013218,新規,0,2023-02-15,2023-02-15,株式会社Ｋｏｋｏ,,株式会社,佐賀県,鳥栖市,本鳥栖町５３７番地１フレスポ鳥栖１階,,41,203,8410026,,,,,,,2023-02-15,1,,,,,ココ,0
196,1310001018273,新規,0,2023-02-15,2023-02-15,株式会社対馬シーカヤックリゾート,,株式会社,長崎県,対馬市,美津島町根緒９番地８,,42,209,8170326,,,,,,,2023-02-15,1,,,,,ツシマシーカヤックリゾート,0
203,1360001031569,新規,0,2023-02-15,2023-02-15,株式会社美ら不動産,,株式会社,沖縄県,浦添市,字前田１１４０番地サンテラスＫＩＩ２０２号室,00129438,47,208,9012102,,,,,,,2023-02-15,1,,,,,チュラフドウサン,0
204,1360003012724,新規,0,2023-02-15,2023-02-15,合同会社Ｃａｌｍｅ,,合同会社,沖縄県,宮古島市,平良字下里１５２３番地３、１Ｆ,,47,214,9060013,,,,,,,2023-02-15,1,,,,,カルム,0
205,1370001049602,新規,0,2023-02-15,2023-02-15,株式会社ＺＥＮ,,株式会社,宮城県,仙台市若林区,河原町２丁目１番９号,,04,103,9840816,,,,,,,2023-02-15,1,,,,,ゼン,0
206,1370001049610,新規,0,2023-02-15,2023-02-15,株式会社木箱舎,,株式会社,宮城県,仙台市宮城野区,白鳥２丁目１番４０号,,04,102,9830006,,,,,,,2023-02-15,1,,,,,キバコヤ,0
220,1430003014738,新規,0,2023-02-15,2023-02-15,合同会社クリアプロジェクト,,合同会社,北海道,夕張市,千代田３番地１６,,01,209,0680424,,,,,,,2023-02-15,1,,,,,クリアプロジェクト,0
229,2010001233001,新規,0,2023-02-15,2023-02-15,ＡＩ　Ｇｉｎｇａ株式会社,,株式会社,東京都,中央区,銀座１丁目２２－１１銀座大竹ビジデンス２Ｆ,,13,102,1040061,,,,,,,2023-02-15,1,,,,,エーアイギンガ,0
239,2010401172443,新規,0,2023-02-15,2023-02-15,株式会社まえむきんぐ,,株式会社,東京都,港区,南青山３丁目３番１６号,,13,103,1070062,,,,,,,2023-02-15,1,,,,,マエムキング,0
240,2010401172518,新規,0,2023-02-15,2023-02-15,株式会社Ｃｈｅｒｉｓｈ,,株式会社,東京都,港区,芝４丁目７番６号芝ビルディング７０４,,13,103,1080014,,,,,,,2023-02-15,1,,,,,チェリッシュ,0
253,2010703006588,新規,0,2023-02-15,2023-02-15,リビング・クリエーターズホールディングス合同会社,,合同会社,東京都,品川区,上大崎３丁目１番１号目黒セントラルスクエア１５階,,13,109,1410021,,,,,,,2023-02-15,1,,,,,リビングクリエーターズホールディングス,0
258,2010803004450,新規,0,2023-02-15,2023-02-15,合同会社プリズムフーズ,,合同会社,東京都,大田区,南馬込５丁目２６番地５号,,13,111,1430025,,,,,,,2023-02-15,1,,,,,プリズムフーズ,0
264,2010901052533,新規,0,2023-02-15,2023-02-15,浩志株式会社,,株式会社,東京都,世田谷区,南烏山６丁目３０番１９号ジーエスハイム烏山４０７号室,,13,112,1570062,,,,,,,2023-02-15,1,,,,,コウシ,0
267,2011001152604,新規,0,2023-02-15,2023-02-15,株式会社ドットエレメントスタジオ,,株式会社,東京都,目黒区,中目黒３丁目６番７号,,13,110,1530061,,,,,,,2023-02-15,1,,,,,ドットエレメントスタジオ,0
272,2011101101840,新規,0,2023-02-15,2023-02-15,株式会社ＧＯＬＤ　ＰＹＴＨＯＮ,,株式会社,東京都,新宿区,山吹町２９７番地６ザ・パークハウス山吹神楽坂５０７,,13,104,1620801,,,,,,,2023-02-15,1,,,,,ゴールドパイソン,0
273,2011101101849,新規,0,2023-02-15,2023-02-15,株式会社ＡＹＵＭＩ,,株式会社,東京都,新宿区,西新宿３丁目２番９号新宿ワシントンホテルビル本館２Ｆ,,13,104,1600023,,,,,,,2023-02-15,1,,,,,アユミ,0
275,2011103012697,新規,0,2023-02-15,2023-02-15,合同会社Ｌｉｔｈｉｎｋ,,合同会社,東京都,新宿区,西新宿３丁目３番１３号西新宿水間ビル６階,,13,104,1600023,,,,,,,2023-02-15,1,,,,,リシンク,0
276,2011103012706,新規,0,2023-02-15,2023-02-15,合同会社一刀流,,合同会社,東京都,新宿区,西新宿３丁目７番２６号ハイネスロワイヤル６０５,,13,104,1600023,,,,,,,2023-02-15,1,,,,,イットーリュー,0
277,2011201024421,新規,0,2023-02-15,2023-02-15,ＧＨＯＳＴ　ＮＯＴＥ株式会社,,株式会社,東京都,中野区,中央５丁目４番２４号第５小河原ビル６０２号,,13,114,1640011,,,,,,,2023-02-15,1,,,,,ゴーストノート,0
285,2011703003385,新規,0,2023-02-15,2023-02-15,立松商事合同会社,,合同会社,東京都,江戸川区,南葛西３丁目１８番１２号山庄１０１,,13,123,1340085,,,,,,,2023-02-15,1,,,,,タテマツショウジ,0
287,2012401040175,新規,0,2023-02-15,2023-02-15,株式会社東日本設備サービス,,株式会社,東京都,多摩市,連光寺６丁目２３－１３グリーンリーブズ１０１号,,13,224,2060021,,,,,,,2023-02-15,1,,,,,ヒガシニホンセツビサービス,0
300,2020001150237,新規,0,2023-02-15,2023-02-15,蘭新商事株式会社,,株式会社,神奈川県,横浜市中区,常盤町２丁目２０ヴェラハイツ５０８,,14,104,2310014,,,,,,,2023-02-15,1,,,,,ランシンショウジ,0
301,2020001150278,新規,0,2023-02-15,2023-02-15,株式会社ＡＫコーポレーション,,株式会社,神奈川県,川崎市宮前区,宮前平３丁目８番地１－７０３,,14,136,2160006,,,,,,,2023-02-15,1,,,,,エーケーコーポレーション,0
302,2020001150286,新規,0,2023-02-15,2023-02-15,リサークレッジ株式会社,,株式会社,神奈川県,川崎市川崎区,東田町１番地２いちご川崎ビル２階,,14,131,2100005,,,,,,,2023-02-15,1,,,,,リサークレッジ,0
305,2020003023325,新規,0,2023-02-15,2023-02-15,合同会社Ａ＆Ａ投資会社,,合同会社,神奈川県,横浜市戸塚区,深谷町６３６番地１３,,14,110,2450067,,,,,,,2023-02-15,1,,,,,エーアンドエートウシカイシャ,0
306,2020003023333,新規,0,2023-02-15,2023-02-15,合同会社ＢＡＳＩＣ,,合同会社,神奈川県,横浜市保土ケ谷区,星川２丁目２－１０,,14,106,2400006,,,,,,,2023-02-15,1,,,,,,0
310,2021001078212,新規,0,2023-02-15,2023-02-15,アップサーフィス株式会社,,株式会社,神奈川県,逗子市,小坪３丁目２８番６号,,14,208,2490008,,,,,,,2023-02-15,1,,,,,アップサーフィス,0
311,2021001078220,新規,0,2023-02-15,2023-02-15,株式会社リードリバー,,株式会社,神奈川県,相模原市中央区,清新１丁目１番１７号荒木ビル３階,,14,152,2520216,,,,,,,2023-02-15,1,,,,,リードリバー,0
318,2030001152372,新規,0,2023-02-15,2023-02-15,株式会社ガレージ大友,,株式会社,埼玉県,上尾市,大字平方３８６２番地１,,11,219,3620059,,,,,,,2023-02-15,1,,,,,ガレージオオトモ,0
319,2030001152422,新規,0,2023-02-15,2023-02-15,株式会社木下克彦建築企画デザイン事務所,,株式会社,埼玉県,東松山市,五領町１２番地７５,,11,212,3550031,,,,,,,2023-02-15,1,,,,,キノシタカツヒコケンチクキカクデザインジムショ,0
328,2030003021154,新規,0,2023-02-15,2023-02-15,合同会社ＤＫ,,合同会社,埼玉県,本庄市,千代田３丁目１番３号,,11,211,3670054,,,,,,,2023-02-15,1,,,,,ディーケー,0
329,2030003021179,新規,0,2023-02-15,2023-02-15,ＨＡＹＵ合同会社,,合同会社,埼玉県,狭山市,大字下奥富６３３番地の１０,,11,215,3501332,,,,,,,2023-02-15,1,,,,,ハユ,0
331,2040003021938,新規,0,2023-02-15,2023-02-15,合同会社オフィスさくら,,合同会社,千葉県,佐倉市,六崎３０１番地２３,,12,212,2850812,,,,,,,2023-02-15,1,,,,,オフィスサクラ,0
332,2040003021946,新規,0,2023-02-15,2023-02-15,合同会社双福,,合同会社,千葉県,船橋市,西船７丁目１１番６０号,,12,204,2730031,,,,,,,2023-02-15,1,,,,,ソウフク,0
333,2040003021954,新規,0,2023-02-15,2023-02-15,ＥＭＣ　ＭＯＴＯＲＳ合同会社,,合同会社,千葉県,船橋市,薬円台６丁目１２番６－１０１号,,12,204,2740077,,,,,,,2023-02-15,1,,,,,イーエムシーモータース,0
339,2050003007242,新規,0,2023-02-15,2023-02-15,合同会社ＳＳＫ　ＩＮＴＥＲＮＡＴＩＯＮＡＬ,,合同会社,茨城県,下妻市,五箇１３１番地１６４,,08,210,3040823,,,,,,,2023-02-15,1,,,,,エスエスケーインターナショナル,0
342,2070005010085,新規,0,2023-02-15,2023-02-15,宗教法人石鎚本教宝光山関東石鎚教会,,その他の設立登記法人,群馬県,渋川市,渋川字折原３７８５番地１,,10,208,3770008,,,,,,,2023-02-15,1,,,,,イシヅチホンキョウホウコウザンカントウイシヅチキョウカイ,0
361,2120001252527,新規,0,2023-02-15,2023-02-15,株式会社Ｗｉｌｌ　Ｅａｒｔｈ,,株式会社,大阪府,大阪市平野区,喜連西５丁目３番４０号,,27,126,5470026,,,,,,,2023-02-15,1,,,,,ウィルアース,0
362,2120001252543,新規,0,2023-02-15,2023-02-15,株式会社サニーグレイス,,株式会社,大阪府,大阪市中央区,安土町１丁目７番２０号９Ｆ,,27,128,5410052,,,,,,,2023-02-15,1,,,,,サニーグレイス,0
363,2120001252551,新規,0,2023-02-15,2023-02-15,Ｘｂｅｔ株式会社,,株式会社,大阪府,大阪市北区,万歳町３－１２、ＲｅＺＯＮＥ梅田０１－４０４,,27,127,5300028,,,,,,,2023-02-15,1,,,,,クロスベット,0
365,2120003023447,新規,0,2023-02-15,2023-02-15,合同会社バトンタッチ,,合同会社,大阪府,大阪市中央区,本町２丁目３番４号,,27,128,5410053,,,,,,,2023-02-15,1,,,,,バトンタッチ,0
366,2120005023478,新規,0,2023-02-15,2023-02-15,特定非営利活動法人リトルリーグ関西連盟,,その他の設立登記法人,大阪府,大阪市中央区,大手通１丁目２番１号,,27,128,5400021,,,,,,,2023-02-15,1,,,,,リトルリーグカンサイレンメイ,0
370,2120901047142,新規,0,2023-02-15,2023-02-15,株式会社ＤＮＥＣＴ,,株式会社,大阪府,豊能郡能勢町,大里１４６番地の３８,,27,322,5630352,,,,,,,2023-02-15,1,,,,,ドネクト,0
379,2130001073699,新規,0,2023-02-15,2023-02-15,株式会社クロバー,,株式会社,京都府,京都市下京区,富小路通花屋町下る唐物町４４６番地２,,26,106,6008197,,,,,,,2023-02-15,1,,,,,クロバー,0
381,2130005016704,新規,0,2023-02-15,2023-02-15,一般社団法人ＤＮＡ多型鑑定研究会,,その他の設立登記法人,京都府,京都市左京区,吉田近衛町京都大学大学院医学研究科法医学講座内,,26,103,6068315,,,,,,,2023-02-15,1,,,,,ディーエヌエータケイカンテイケンキュウカイ,0
386,2140001129145,新規,0,2023-02-15,2023-02-15,株式会社西村建材工業,,株式会社,兵庫県,西脇市,前島町３０５番地の１４,,28,213,6770002,,,,,,,2023-02-15,1,,,,,ニシムラケンザイコウギョウ,0
388,2140003018668,新規,0,2023-02-15,2023-02-15,合同会社Ａｋｉｙｏｓｈｉ,,合同会社,兵庫県,明石市,二見町福里６９１－２,,28,203,6740091,,,,,,,2023-02-15,1,,,,,アキヨシ,0
401,2180001155006,新規,0,2023-02-15,2023-02-15,株式会社Ｒｅｌｉｅｆ,,株式会社,愛知県,春日井市,春日井上ノ町字上ノ町１６番地,,23,206,4860961,,,,,,,2023-02-15,1,,,,,リリーフカブ,0
405,2180301037110,新規,0,2023-02-15,2023-02-15,レヴィアン株式会社,,株式会社,愛知県,西尾市,東幡豆町御堂前３８番地,,23,213,4440701,,,,,,,2023-02-15,1,,,,,レヴィアン,0
409,2230001019717,新規,0,2023-02-15,2023-02-15,株式会社ヒロックス,,株式会社,富山県,富山市,大泉１４６６番地１６,,16,201,9398058,,,,,,,2023-02-15,1,,,,,ヒロックス,0
418,2260003004202,新規,0,2023-02-15,2023-02-15,合同会社ＴＲＦ,,合同会社,岡山県,倉敷市,矢部９８４番地,,33,202,7010105,,,,,,,2023-02-15,1,,,,,ティーアールエフ,0
426,2290001100561,新規,0,2023-02-15,2023-02-15,株式会社アイジープラン,,株式会社,福岡県,筑後市,大字野町６７５番地４,,40,211,8330032,,,,,,,2023-02-15,1,,,,,アイジープラン,0
427,2290001100578,新規,0,2023-02-15,2023-02-15,株式会社エスディ生命工学,,株式会社,福岡県,福岡市博多区,博多駅前２丁目１番１号,,40,132,8120011,,,,,,,2023-02-15,1,,,,,エスディセイメイコウガク,0
433,2290003013539,新規,0,2023-02-15,2023-02-15,ＷＩＮ合同会社,,合同会社,福岡県,福岡市東区,松島２丁目１－５Ｊ－ＰＬＡＮＺ松島２０５号,,40,131,8120062,,,,,,,2023-02-15,1,,,,,ウィン,0
435,2290805009635,新規,0,2023-02-15,2023-02-15,医療法人大手町いまながクリニック,,その他の設立登記法人,福岡県,北九州市小倉北区,大手町１３番３４号ハローパーク大手町２０３,,40,106,8030814,,,,,,,2023-02-15,1,,,,,オオテマチイマナガクリニック,0
438,2320001019575,新規,0,2023-02-15,2023-02-15,株式会社ＭＥＧＵＭＩ,,株式会社,大分県,大分市,大字片島１２１９番１,,44,201,8700943,,,,,,,2023-02-15,1,,,,,メグミ,0
440,2330003009722,新規,0,2023-02-15,2023-02-15,合同会社フォレスト,,合同会社,熊本県,合志市,須屋１９４４番地３,,43,216,8611102,,,,,,,2023-02-15,1,,,,,フォレスト,0
441,2330005010620,新規,0,2023-02-15,2023-02-15,ＮＰＯ法人わらびかみ,,その他の設立登記法人,熊本県,天草市,今釜新町３４３６番地１,,43,215,8630013,,,,,,,2023-02-15,1,,,,,ワラビカミ,0
442,2340001025373,新規,0,2023-02-15,2023-02-15,大福商事株式会社,,株式会社,鹿児島県,鹿児島市,東郡元町１５番３６号,,46,201,8900068,,,,,,,2023-02-15,1,,,,,ダイフクショウジ,0
443,2340003004045,新規,0,2023-02-15,2023-02-15,合同会社ＭＯＤＯＦ,,合同会社,鹿児島県,鹿児島市,原良７丁目２番１８号,,46,201,8900026,,,,,,,2023-02-15,1,,,,,モオドフ,0
450,2360001031568,新規,0,2023-02-15,2023-02-15,株式会社ＡＴＥＮＡ,,株式会社,沖縄県,浦添市,港川１丁目２９番８－４０２号ライオンズマンション港川,,47,208,9012134,,,,,,,2023-02-15,1,,,,,アテナ,0
461,2430001088444,新規,0,2023-02-15,2023-02-15,株式会社木下産業,,株式会社,北海道,江別市,見晴台２番地の４０,,01,217,0670042,,,,,,,2023-02-15,1,,,,,キノシタサンギョウ,0
462,2430003014737,新規,0,2023-02-15,2023-02-15,合同会社ＮＡＯ,,合同会社,北海道,札幌市南区,澄川五条１１丁目６番１４号,,01,106,0050005,,,,,,,2023-02-15,1,,,,,ナオ,0
463,2460101007334,新規,0,2023-02-15,2023-02-15,株式会社スリーベルファーム,,株式会社,北海道,中川郡池田町,字利別本町１７番地の１,,01,644,0830034,,,,,,,2023-02-15,1,,,,,スリーベルファーム,0
464,2480001012011,新規,0,2023-02-15,2023-02-15,株式会社あおい総建,,株式会社,徳島県,鳴門市,大津町吉永４４０番地１２,,36,202,7720032,,,,,,,2023-02-15,1,,,,,アオイソウケン,0
468,2700150114329,新規,0,2023-02-15,2023-02-15,エル・アルカサル三田マンション建替組合,,その他,東京都,千代田区,神田神保町１丁目１０５番地旭化成不動産レジデンス株式会社内,,13,101,1010051,,,,,,,2023-02-15,1,,,,,エルアルカサルミタマンシヨンタテカエクミアイ,0
474,3010001232976,新規,0,2023-02-15,2023-02-15,株式会社中麗,,株式会社,東京都,文京区,大塚５丁目８番１２－３０４号,,13,105,1120012,,,,,,,2023-02-15,1,,,,,チュウレイ,0
475,3010001232992,新規,0,2023-02-15,2023-02-15,ボタニカプライベート株式会社,,株式会社,東京都,中央区,月島１丁目５番１－４２１０号,,13,102,1040052,,,,,,,2023-02-15,1,,,,,ボタニカプライベート,0
476,3010001233009,新規,0,2023-02-15,2023-02-15,株式会社ウェリオｓｏｃｉａｌ　ｗｏｒｋｓ,,株式会社,東京都,千代田区,神田和泉町１番地６－１６ヤマトビル４０５,,13,101,1010024,,,,,,,2023-02-15,1,,,,,ウェリオソーシャルワークス,0
477,3010001233033,新規,0,2023-02-15,2023-02-15,クラハシリーガルサービス株式会社,,株式会社,東京都,千代田区,丸の内２丁目１番１号明治生命館８階,,13,101,1000005,,,,,,,2023-02-15,1,,,,,クラハシリーガルサービス,0
479,3010003039833,新規,0,2023-02-15,2023-02-15,Ｓｈａｉグループ合同会社,,合同会社,東京都,中央区,佃２丁目９番１号１５０８,,13,102,1040051,,,,,,,2023-02-15,1,,,,,シャイグループ,0
483,3010005036259,新規,0,2023-02-15,2023-02-15,一般社団法人ＷＥ　ａｓｓｏｃｉａｔｉｏｎ,,その他の設立登記法人,東京都,中央区,日本橋浜町３丁目１６番８号,,13,102,1030007,,,,,,,2023-02-15,1,,,,,ウィーアソシエイション,0
487,3010401172525,新規,0,2023-02-15,2023-02-15,Ｅ＆Ｆアカデミー株式会社,,株式会社,東京都,港区,浜松町２丁目２番１５号浜松町ダイヤビル２Ｆ,,13,103,1050013,,,,,,,2023-02-15,1,,,,,イーアンドエフアカデミー,0
491,3010403029517,新規,0,2023-02-15,2023-02-15,ＷＩＮ　ＷＩＮ合同会社,,合同会社,東京都,港区,赤坂９丁目５番２６号赤坂ハイツビル５階,,13,103,1070052,,,,,,,2023-02-15,1,,,,,ウィンウィン,0
497,3010603010004,新規,0,2023-02-15,2023-02-15,合同会社Ｄ‐Ｌａｂ,,合同会社,東京都,江東区,東雲１丁目１０番１４－７０７号,,13,108,1350062,,,,,,,2023-02-15,1,,,,,ディーラブ,0
499,3010801033698,新規,0,2023-02-15,2023-02-15,株式会社ｓｏｕｒｃｅ,,株式会社,東京都,大田区,田園調布本町１０番１号,,13,111,1450072,,,,,,,2023-02-15,1,,,,,ソウス,0
506,3010901052532,新規,0,2023-02-15,2023-02-15,川井製薬株式会社,,株式会社,東京都,世田谷区,南烏山６丁目１９番９－５０３号,,13,112,1570062,,,,,,,2023-02-15,1,,,,,カワイセイヤク,0
507,3010901052540,新規,0,2023-02-15,2023-02-15,株式会社ＡＬＬ　ＤＡＹ,,株式会社,東京都,世田谷区,若林４丁目８番３号,,13,112,1540023,,,,,,,2023-02-15,1,,,,,オールデイ,0
508,3010901052549,新規,0,2023-02-15,2023-02-15,株式会社ｖｉｓｉｏｎ　Ｙ,,株式会社,東京都,世田谷区,粕谷２丁目１８番２３－１０８号Ｄグラフォート,,13,112,1570063,,,,,,,2023-02-15,1,,,,,ビジョンワイ,0
522,3011003016277,新規,0,2023-02-15,2023-02-15,合同会社ラムスケープ,,合同会社,東京都,渋谷区,神宮前４丁目３番１５号東京セントラル表参道ビル５階,,13,113,1500001,,,,,,,2023-02-15,1,,,,,ラムスケープ,0
529,3011103012696,新規,0,2023-02-15,2023-02-15,Ｌｕｗｌｕｓ合同会社,,合同会社,東京都,新宿区,西新宿３丁目３番１３号西新宿水間ビル６階,,13,104,1600023,,,,,,,2023-02-15,1,,,,,ルーラス,0
531,3011201024420,新規,0,2023-02-15,2023-02-15,サポートエキスプレス株式会社,,株式会社,東京都,中野区,野方３丁目１８番１５号,,13,114,1650027,,,,,,,2023-02-15,1,,,,,サポートエキスプレス,0
532,3011203004008,新規,0,2023-02-15,2023-02-15,ＹＵＬ合同会社,,合同会社,東京都,中野区,中央２丁目１５番１９号日神デュオステージ中野坂上ＮＥＸＴ３０３号室,,13,114,1640011,,,,,,,2023-02-15,1,,,,,ワイユーエル,0
534,3011603003823,新規,0,2023-02-15,2023-02-15,合同会社ゴーマルゴ,,合同会社,東京都,練馬区,練馬４丁目２４番１９号１０２号室,,13,120,1760001,,,,,,,2023-02-15,1,,,,,ゴーマルゴ,0
536,3011801041939,新規,0,2023-02-15,2023-02-15,株式会社ハコブネ,,株式会社,東京都,足立区,梅田３丁目１８番２号,,13,121,1230851,,,,,,,2023-02-15,1,,,,,ハコブネ,0
537,3011801041947,新規,0,2023-02-15,2023-02-15,株式会社引間工業,,株式会社,東京都,足立区,入谷５丁目２番３５号,,13,121,1210836,,,,,,,2023-02-15,1,,,,,ヒキマコウギョウ,0
538,3011803005520,新規,0,2023-02-15,2023-02-15,合同会社エフ企画,,合同会社,東京都,葛飾区,南水元２丁目２６番１７号,,13,122,1250035,,,,,,,2023-02-15,1,,,,,エフキカク,0
540,3012703002640,新規,0,2023-02-15,2023-02-15,合同会社トライアングル,,合同会社,東京都,東村山市,野口町４丁目７番地５２,,13,213,1890022,,,,,,,2023-02-15,1,,,,,トライアングル,0
541,3013103001209,新規,0,2023-02-15,2023-02-15,合同会社まんまる村,,合同会社,東京都,あきる野市,入野１５１番地４,,13,228,1900161,,,,,,,2023-02-15,1,,,,,マンマルムラ,0
543,3013301050338,新規,0,2023-02-15,2023-02-15,株式会社Ｌｉｍ　ｅｓｔａｔｅ,,株式会社,東京都,豊島区,東池袋２丁目８番１－５０４号,,13,116,1700013,,,,,,,2023-02-15,1,,,,,リムエステート,0
549,3020001150277,新規,0,2023-02-15,2023-02-15,株式会社ココロ,,株式会社,神奈川県,横浜市保土ケ谷区,西久保町１７２番地１３,,14,106,2400022,,,,,,,2023-02-15,1,,,,,ココロ,0
550,3020001150302,新規,0,2023-02-15,2023-02-15,株式会社イースト１,,株式会社,神奈川県,横浜市鶴見区,生麦４丁目２９番１６号,,14,101,2300052,,,,,,,2023-02-15,1,,,,,イーストワン,0
551,3020001150310,新規,0,2023-02-15,2023-02-15,株式会社Ｕ‐Ｌｏｇｉ,,株式会社,神奈川県,横浜市都筑区,北山田２丁目１１番１４号,,14,118,2240021,,,,,,,2023-02-15,1,,,,,ユーロジ,0
556,3020003023316,新規,0,2023-02-15,2023-02-15,合同会社宏茂興業,,合同会社,神奈川県,横浜市神奈川区,子安台２丁目１１番１５－４１３号,,14,102,2210012,,,,,,,2023-02-15,1,,,,,コウボウコウギョウ,0
557,3020003023332,新規,0,2023-02-15,2023-02-15,Ａｒｏｍｙｘ　Ａｓｉａ　Ｐａｃｉｆｉｃ合同会社,,合同会社,神奈川県,横浜市西区,浅間町１丁目４番３号ウィザードビル４０２,,14,103,2200072,,,,,,,2023-02-15,1,,,,,アロミクスアジアパシフィック,0
559,3021001078211,新規,0,2023-02-15,2023-02-15,株式会社鈴木工務店,,株式会社,神奈川県,愛甲郡愛川町,田代１６２３番地の１,,14,401,2430306,,,,,,,2023-02-15,1,,,,,スズキコウムテン,0
567,3030001152421,新規,0,2023-02-15,2023-02-15,株式会社霞海,,株式会社,埼玉県,川越市,大字笠幡４４７７番地３,,11,201,3501175,,,,,,,2023-02-15,1,,,,,カスミ,0
571,3030003021161,新規,0,2023-02-15,2023-02-15,Ｒｅａｌ　Ｍｉｎｄ合同会社,,合同会社,埼玉県,川口市,川口２丁目１６番１５－３０２号サンケイハイツ川口,,11,203,3320015,,,,,,,2023-02-15,1,,,,,リアルマインド,0
574,3040001127083,新規,0,2023-02-15,2023-02-15,株式会社ラックフィールド,,株式会社,千葉県,松戸市,本町１７番地１１芹澤ビル６Ｆ,,12,207,2710091,,,,,,,2023-02-15,1,,,,,ラックフィールド,0
575,3040001127091,新規,0,2023-02-15,2023-02-15,Ｓｋｙ’ｓ　ｔｈｅ　ｌｉｍｉｔ株式会社,,株式会社,千葉県,流山市,大字東深井８４６－１３０,,12,220,2700101,,,,,,,2023-02-15,1,,,,,スカイリミット,0
576,3040001127100,新規,0,2023-02-15,2023-02-15,株式会社ＦＬワークス,,株式会社,千葉県,千葉市若葉区,みつわ台５丁目１番８３号,,12,104,2640032,,,,,,,2023-02-15,1,,,,,エフエルワークス,0
579,3040003021895,新規,0,2023-02-15,2023-02-15,ＷＢＣＣ合同会社,,合同会社,千葉県,香取市,佐原イ２４０７番地８,,12,236,2870003,,,,,,,2023-02-15,1,,,,,ダブビーシーシー,0
580,3040003021929,新規,0,2023-02-15,2023-02-15,＿達合同会社,00129440,合同会社,千葉県,八街市,八街ほ５３５－２－２Ｆ,,12,230,2891115,,,,,,,2023-02-15,1,,,,,シンタツ,0
581,3040003021953,新規,0,2023-02-15,2023-02-15,ＩＬＭＡ　ＴＲＡＤＩＮＧ合同会社,,合同会社,千葉県,山武市,松尾町借毛本郷２３０１番地４,,12,237,2891537,,,,,,,2023-02-15,1,,,,,イルマトレーディング,0
582,3040003021961,新規,0,2023-02-15,2023-02-15,合同会社ぷれーん,,合同会社,千葉県,市原市,惣社３２１番地１,,12,219,2900023,,,,,,,2023-02-15,1,,,,,プレーン,0
585,3050001052396,新規,0,2023-02-15,2023-02-15,清水物産潮来ＦＰ株式会社,,株式会社,茨城県,潮来市,日の出１丁目８番地１,,08,223,3112423,,,,,,,2023-02-15,1,,,,,シミズブッサンイタコエフピー,0
586,3050001052405,新規,0,2023-02-15,2023-02-15,株式会社Ｃｏｎｔｒｉｂｅ,,株式会社,茨城県,水戸市,開江町１４６１－２,,08,201,3114144,,,,,,,2023-02-15,1,,,,,コントライブ,0
588,3050003007241,新規,0,2023-02-15,2023-02-15,合同会社ＡＺＵＲＥ,,合同会社,茨城県,稲敷郡美浦村,大字美駒２５００番地２、Ａ－３７棟３１０号,,08,442,3000415,,,,,,,2023-02-15,1,,,,,アズール,0
590,3060001035706,新規,0,2023-02-15,2023-02-15,株式会社ジョイス,,株式会社,栃木県,宇都宮市,泉が丘５丁目８番１３号,,09,201,3210952,,,,,,,2023-02-15,1,,,,,ジョイス,0
595,3070003004831,新規,0,2023-02-15,2023-02-15,合同会社ｃｏｃｃｏｌｅ,,合同会社,群馬県,高崎市,聖石町５番７号,,10,202,3700863,,,,,,,2023-02-15,1,,,,,コッコレ,0
602,3080001025465,新規,0,2023-02-15,2023-02-15,株式会社ＤＥＬＵＸＥ,,株式会社,静岡県,焼津市,小川新町４丁目５番３７号,,22,212,4250031,,,,,,,2023-02-15,1,,,,,デラックス,0
608,3100001036162,新規,0,2023-02-15,2023-02-15,ＳＧホールディングス株式会社,,株式会社,長野県,東御市,加沢４３０番地２,,20,219,3890514,,,,,,,2023-02-15,1,,,,,エスジーホールディングス,0
614,3120001252170,新規,0,2023-02-15,2023-02-15,株式会社Ｆｕｎｔｅｎ,,株式会社,大阪府,大阪市北区,樋之口町１番２０－１４１１号,,27,127,5300032,,,,,,,2023-02-15,1,,,,,ファンテン,0
615,3120001252501,新規,0,2023-02-15,2023-02-15,株式会社タイヘイコーポレーション,,株式会社,大阪府,大阪市浪速区,戎本町２丁目８番９号,,27,111,5560013,,,,,,,2023-02-15,1,,,,,タイヘイコーポレーション,0
616,3120001252526,新規,0,2023-02-15,2023-02-15,Ｋｒｏｓｓ株式会社,,株式会社,大阪府,大阪市天王寺区,上本町８丁目２番１４－７０１号,,27,109,5430001,,,,,,,2023-02-15,1,,,,,クロス,0
617,3120001252542,新規,0,2023-02-15,2023-02-15,ＴＧＳ株式会社,,株式会社,大阪府,大阪市中央区,道頓堀１丁目東６番２１号,,27,128,5420071,,,,,,,2023-02-15,1,,,,,ティージーエス,0
618,3120001252550,新規,0,2023-02-15,2023-02-15,株式会社ＴＲＥＡＤＥＡＲＣＨ,,株式会社,大阪府,大阪市西区,立売堀３丁目７－１９－３０３号,,27,106,5500012,,,,,,,2023-02-15,1,,,,,トレードアーチ,0
619,3120001252575,新規,0,2023-02-15,2023-02-15,ＬＩＴ株式会社,,株式会社,大阪府,大阪市中央区,東心斎橋２丁目７番２２号日宝シルキータワー６階,,27,128,5420083,,,,,,,2023-02-15,1,,,,,リット,0
622,3120003023446,新規,0,2023-02-15,2023-02-15,合同会社種火,,合同会社,大阪府,大阪市北区,梅田１丁目２番２号大阪駅前第２ビル１２－１２,,27,127,5300001,,,,,,,2023-02-15,1,,,,,タネビ,0
628,3120901047141,新規,0,2023-02-15,2023-02-15,株式会社オーワークス,,株式会社,大阪府,高槻市,東五百住町１丁目３９－７リーベンハイム１０６,,27,207,5690811,,,,,,,2023-02-15,1,,,,,オーワークス,0
632,3130005016703,新規,0,2023-02-15,2023-02-15,一般社団法人ボンチプラス,,その他の設立登記法人,京都府,亀岡市,篠町篠中北裏６６番地,,26,206,6210826,,,,,,,2023-02-15,1,,,,,ボンチプラス,0
639,3140001129094,新規,0,2023-02-15,2023-02-15,株式会社モン・リシェス,,株式会社,兵庫県,赤穂市,坂越２８５１番地１６、１４－１,,28,212,6780172,,,,,,,2023-02-15,1,,,,,モンリシェス,0
640,3140001129144,新規,0,2023-02-15,2023-02-15,ＲＥＮＩＣＯ株式会社,,株式会社,兵庫県,神戸市垂水区,西舞子３丁目１８－１３グランブル２、２０４,,28,108,6550048,,,,,,,2023-02-15,1,,,,,レニコ,0
643,3140005026486,新規,0,2023-02-15,2023-02-15,一般社団法人Ｕ‐Ｊ　Ｂｒｉｄｇｅ,,その他の設立登記法人,兵庫県,神戸市中央区,北野町１丁目１番ＡＮＡクラウンプラザホテル神戸４Ｆ、Ｐｌｕｇ０７８内,,28,110,6500002,,,,,,,2023-02-15,1,,,,,ユージェイブリッジ,0
648,3170005006997,新規,0,2023-02-15,2023-02-15,一般社団法人まちづくり再開発友の会,,その他の設立登記法人,和歌山県,和歌山市,六番丁４３番地,,30,201,6408154,,,,,,,2023-02-15,1,,,,,マチヅクリサイカイハツトモノカイ,0
657,3180001155005,新規,0,2023-02-15,2023-02-15,株式会社ＩＮＶＥＲＮＥＴ,,株式会社,愛知県,名古屋市守山区,桜坂２丁目６０４番地,,23,113,4630018,,,,,,,2023-02-15,1,,,,,インヴァーネット,0
661,3180003024851,新規,0,2023-02-15,2023-02-15,合同会社ＭＬプランニング,,合同会社,愛知県,春日井市,六軒屋町６丁目１６番地１東館,,23,206,4860842,,,,,,,2023-02-15,1,,,,,エムエルプランニング,0
662,3180005020106,新規,0,2023-02-15,2023-02-15,行政書士法人Ｗｅ　ｗｉｌｌ,,その他の設立登記法人,愛知県,名古屋市中区,丸の内３丁目６番１１号２０１号,,23,106,4600002,,,,,,,2023-02-15,1,,,,,ウィーウィル,0
667,3200003005840,新規,0,2023-02-15,2023-02-15,合同会社砂防コーヒー,,合同会社,岐阜県,飛騨市,神岡町坂富町１１番地１２,,21,217,5061122,,,,,,,2023-02-15,1,,,,,サボウコーヒー,0
668,3220001025269,新規,0,2023-02-15,2023-02-15,株式会社上智,,株式会社,石川県,羽咋市,兵庫町申１０番地８,,17,207,9250046,,,,,,,2023-02-15,1,,,,,ジョウチ,0
672,3240001061089,新規,0,2023-02-15,2023-02-15,株式会社ＲＡ,,株式会社,広島県,広島市南区,東雲本町３丁目４番２３号,,34,103,7340023,,,,,,,2023-02-15,1,,,,,アールエー,0
673,3240001061097,新規,0,2023-02-15,2023-02-15,未来スケッチ株式会社,,株式会社,広島県,広島市西区,天満町４番１４－９０５号,,34,104,7330022,,,,,,,2023-02-15,1,,,,,ミライスケッチ,0
681,3260001037649,新規,0,2023-02-15,2023-02-15,株式会社農ファームサービス,,株式会社,岡山県,勝田郡勝央町,植月中２６１３番地１,,33,622,7094335,,,,,,,2023-02-15,1,,,,,ノウファームサービス,0
689,3290801029280,新規,0,2023-02-15,2023-02-15,株式会社ピージェイコーポレーション,,株式会社,福岡県,北九州市小倉北区,熊本３丁目５番１３号,,40,106,8020044,,,,,,,2023-02-15,1,,,,,ピージェイコーポレーション,0
690,3290801029289,新規,0,2023-02-15,2023-02-15,株式会社ＳＥＮＤ建設技術,,株式会社,福岡県,京都郡みやこ町,豊津５３３‐２,,40,625,8240121,,,,,,,2023-02-15,1,,,,,センドケンセツギジュツ,0
692,3310001018271,新規,0,2023-02-15,2023-02-15,株式会社ｔｏ１,,株式会社,長崎県,大村市,上諏訪町１６５１－４７,,42,205,8560023,,,,,,,2023-02-15,1,,,,,トゥーワン,0
700,3370001049609,新規,0,2023-02-15,2023-02-15,株式会社ノース・マリン,,株式会社,宮城県,気仙沼市,長磯船原５３番地１,,04,205,9880222,,,,,,,2023-02-15,1,,,,,ノースマリン,0
701,3370003005997,新規,0,2023-02-15,2023-02-15,合同会社タープ,,合同会社,宮城県,石巻市,広渕字柏木前１１８番地１,,04,202,9871222,,,,,,,2023-02-15,1,,,,,タープ,0
704,3390001017159,新規,0,2023-02-15,2023-02-15,株式会社電亀,,株式会社,山形県,酒田市,大町１８番１３号,,06,204,9980859,,,,,,,2023-02-15,1,,,,,デンキ,0
714,3430001088443,新規,0,2023-02-15,2023-02-15,株式会社ＴＫカンパニー,,株式会社,北海道,札幌市東区,北八条東１２丁目４番１２号,,01,103,0650008,,,,,,,2023-02-15,1,,,,,ティーケーカンパニー,0
715,3430001088451,新規,0,2023-02-15,2023-02-15,株式会社ＣＡＳ,,株式会社,北海道,千歳市,文京２丁目１番地の３,,01,224,0660052,,,,,,,2023-02-15,1,,,,,シーエーエス,0
720,3480003001936,新規,0,2023-02-15,2023-02-15,合同会社長岡活動写真館,,合同会社,徳島県,名東郡佐那河内村,上字東尾２８番地１,,36,321,7714102,,,,,,,2023-02-15,1,,,,,ナガオカカツドウシャシンカン,0
724,3700150114344,新規,0,2023-02-15,2023-02-15,ｓｈｅｎｚｈｅｎｓｈｉｘｉａｏｌｉｎｔｏｎｇｍａｏｙｉｙｏｕｘｉａｎｇｏｎｇｓｉ,,外国会社等,,,,,,,,中国広東省深セン市福田区梅林街道梅林一村宝翠居６Ｃ,,,,,,2023-02-15,1,,,,,シンセンシギヨウリンツウボウエキユウゲンコウシ,0
727,4010001232950,新規,0,2023-02-15,2023-02-15,株式会社つばさＨＤ,,株式会社,東京都,中央区,京橋１丁目１８番２‐１００３号,,13,102,1040031,,,,,,,2023-02-15,1,,,,,ツバサエイチディー,0
728,4010001232967,新規,0,2023-02-15,2023-02-15,ＰＲテック株式会社,,株式会社,東京都,中央区,新富２丁目１４番５号,,13,102,1040041,,,,,,,2023-02-15,1,,,,,ピーアールテック,0
729,4010001232991,新規,0,2023-02-15,2023-02-15,株式会社ＳＮＯＷ　ＦＥＶＥＲ,,株式会社,東京都,中央区,日本橋小伝馬町１７番１５号ＬＳＴビル,,13,102,1030001,,,,,,,2023-02-15,1,,,,,スノーフィーバー,0
730,4010001233008,新規,0,2023-02-15,2023-02-15,株式会社アルカイド,,株式会社,東京都,中央区,築地７丁目１０－１３－６０５,,13,102,1040045,,,,,,,2023-02-15,1,,,,,アルカイド,0
731,4010001233032,新規,0,2023-02-15,2023-02-15,株式会社ＢＲＥＴＨＲＥＮ,,株式会社,東京都,中央区,銀座６丁目７番６号,,13,102,1040061,,,,,,,2023-02-15,1,,,,,ブリジン,0
732,4010001233049,新規,0,2023-02-15,2023-02-15,Ａｂｂｉｎａｍｅｎｔｏ株式会社,,株式会社,東京都,中央区,銀座１丁目１２番４号Ｎ＆ＥＢＬＤ．７階,,13,102,1040061,,,,,,,2023-02-15,1,,,,,アッビナメント,0
740,4010103002079,新規,0,2023-02-15,2023-02-15,合同会社ＰＰタウン,,合同会社,東京都,八王子市,北野町５１１－１４,,13,201,1920906,,,,,,,2023-02-15,1,,,,,ピーピータウン,0
759,4010701043862,新規,0,2023-02-15,2023-02-15,株式会社ＡＲＫＡＲＴＷＯＲＫＳ,,株式会社,東京都,品川区,小山台１丁目２６番３号,,13,109,1420061,,,,,,,2023-02-15,1,,,,,アークアートワークス,0
760,4010703006586,新規,0,2023-02-15,2023-02-15,ライフバー合同会社,,合同会社,東京都,品川区,戸越４丁目１１番１５－３０３号,,13,109,1420041,,,,,,,2023-02-15,1,,,,,ライフバー,0
763,4010901052531,新規,0,2023-02-15,2023-02-15,株式会社Ｚｅｒｏ　ｔｏ　Ｄｅｓｉｇｎ,,株式会社,東京都,世田谷区,玉川台１丁目１－１ニューガイアリルーム用賀Ｎｏ．３２－５０１,,13,112,1580096,,,,,,,2023-02-15,1,,,,,ゼロトゥーデザイン,0
767,4011001152560,新規,0,2023-02-15,2023-02-15,株式会社Ｆｏｏｄ　Ｐｉｃｋｅｒ,,株式会社,東京都,渋谷区,道玄坂１丁目１０番８号渋谷道玄坂東急ビル２Ｆ－Ｃ,,13,113,1500043,,,,,,,2023-02-15,1,,,,,フードピッカー,0
768,4011001152619,新規,0,2023-02-15,2023-02-15,株式会社ワイエヌ管財,,株式会社,東京都,渋谷区,渋谷２丁目１０番６号,,13,113,1500002,,,,,,,2023-02-15,1,,,,,ワイエヌカンザイ,0
771,4011003016268,新規,0,2023-02-15,2023-02-15,アルゴテクニック合同会社,,合同会社,東京都,渋谷区,恵比寿２丁目２８番１０号ＳｈｕＢＬＤＧ２９８２,,13,113,1500013,,,,,,,2023-02-15,1,,,,,アルゴテクニック,0
774,4011105010549,新規,0,2023-02-15,2023-02-15,一般社団法人日本ウェルビーイング教育・保育協会,,その他の設立登記法人,東京都,新宿区,西新宿３丁目３番１３号西新宿水間ビル６階,,13,104,1600023,,,,,,,2023-02-15,1,,,,,ニホンウェルビーイングキョウイクホイクキョウカイ,0
778,4011603003822,新規,0,2023-02-15,2023-02-15,合同会社ＯＷＳ,,合同会社,東京都,練馬区,大泉町６丁目１４－１４,,13,120,1780062,,,,,,,2023-02-15,1,,,,,オーダブリューエス,0
780,4011701026015,新規,0,2023-02-15,2023-02-15,株式会社メビウス,,株式会社,東京都,江戸川区,中葛西５丁目１６番２－６０７号,,13,123,1340083,,,,,,,2023-02-15,1,,,,,メビウス,0
781,4011801041946,新規,0,2023-02-15,2023-02-15,株式会社ＲＩＤＧＥＬＩＮＥ,,株式会社,東京都,葛飾区,四つ木１丁目３３番１号－３０１号室,,13,122,1240011,,,,,,,2023-02-15,1,,,,,リッジライン,0
783,4012801022143,新規,0,2023-02-15,2023-02-15,Ｉ’Ｓプランニング株式会社,,株式会社,東京都,立川市,栄町５丁目２７番地の１４アネックス１０２,,13,202,1900003,,,,,,,2023-02-15,1,,,,,アイエスプランニング,0
786,4013301050345,新規,0,2023-02-15,2023-02-15,錦豪株式会社,,株式会社,東京都,豊島区,池袋４丁目９－１香取マンション５０１,,13,116,1710014,,,,,,,2023-02-15,1,,,,,キンゴウ,0
796,4020001150251,新規,0,2023-02-15,2023-02-15,株式会社みやび興業,,株式会社,神奈川県,横浜市泉区,下和泉３丁目２５番２９号,,14,116,2450021,,,,,,,2023-02-15,1,,,,,ミヤビコウギョウ,0
797,4020001150284,新規,0,2023-02-15,2023-02-15,株式会社莵道,,株式会社,神奈川県,横浜市港南区,港南２丁目１７番６１－３１０号,,14,111,2330003,,,,,,,2023-02-15,1,,,,,トドウ,0
798,4020001150301,新規,0,2023-02-15,2023-02-15,Ｎｅｗ　Ｖａｌｕｅ　Ｐａｒｔｎｅｒ株式会社,,株式会社,神奈川県,川崎市高津区,千年７４７番地２０,,14,134,2130022,,,,,,,2023-02-15,1,,,,,ニューバリューパートナー,0
800,4020003023298,新規,0,2023-02-15,2023-02-15,ＭＵＳＥＢＲＯＷＳ．合同会社,,合同会社,神奈川県,横浜市港北区,綱島東５丁目７－１８－５０５号,,14,109,2230052,,,,,,,2023-02-15,1,,,,,ミューズブロー,0
801,4020003023323,新規,0,2023-02-15,2023-02-15,ＩＣＬメンテナンス合同会社,,合同会社,神奈川県,横浜市中区,日本大通１１番地横浜情報文化センター,,14,104,2310021,,,,,,,2023-02-15,1,,,,,アイシーエルメンテナンス,0
802,4020003023331,新規,0,2023-02-15,2023-02-15,合同会社ＧＲＥＥＮ　ＳＥＥＤＩＮＧ,,合同会社,神奈川県,川崎市川崎区,駅前本町１１番地２川崎フロンティアビル４階,,14,131,2100007,,,,,,,2023-02-15,1,,,,,グリーンシーディング,0
807,4021001078202,新規,0,2023-02-15,2023-02-15,株式会社ＫｚＣａｒｇｏ,,株式会社,神奈川県,厚木市,下依知３丁目１３番１４号,,14,212,2430806,,,,,,,2023-02-15,1,,,,,ケーズカーゴ,0
808,4021001078219,新規,0,2023-02-15,2023-02-15,日本ＪＷ精工株式会社,,株式会社,神奈川県,海老名市,上今泉３丁目６－７－５,,14,215,2430431,,,,,,,2023-02-15,1,,,,,ニホンジェイダブリューセイコー,0
817,4030001152420,新規,0,2023-02-15,2023-02-15,株式会社ＣＵＤＤＬＥ　ＵＰ,,株式会社,埼玉県,さいたま市大宮区,宮町２丁目９３番地２,,11,103,3300802,,,,,,,2023-02-15,1,,,,,カドルアップ,0
818,4030001152437,新規,0,2023-02-15,2023-02-15,ＫＵＭＡＴＯＹＳ株式会社,,株式会社,埼玉県,越谷市,大間野町５丁目７５－１,,11,222,3430844,,,,,,,2023-02-15,1,,,,,クマトイズ,0
823,4030003021177,新規,0,2023-02-15,2023-02-15,格律詩合同会社,,合同会社,埼玉県,坂戸市,伊豆の山町１４番地２Ｍ＆Ｋ１０２号室,,11,239,3500275,,,,,,,2023-02-15,1,,,,,ゲリュシ,0
828,4040001127058,新規,0,2023-02-15,2023-02-15,株式会社Ｇｉｎｇｅｒ,,株式会社,千葉県,船橋市,印内２丁目３番１５号ＴＯＰ西船橋第一１０２,,12,204,2730039,,,,,,,2023-02-15,1,,,,,ジンジャー,0
829,4040001127074,新規,0,2023-02-15,2023-02-15,株式会社小林,,株式会社,千葉県,香取市,小見川９２６番地,,12,236,2890313,,,,,,,2023-02-15,1,,,,,コバヤシ,0
830,4040001127082,新規,0,2023-02-15,2023-02-15,株式会社岩永重量,,株式会社,千葉県,松戸市,高塚新田５９３番地１５８,,12,207,2702222,,,,,,,2023-02-15,1,,,,,イワナガジュウリョウ,0
831,4040001127099,新規,0,2023-02-15,2023-02-15,株式会社アステラスホーム,,株式会社,千葉県,市原市,ちはら台南４丁目６番地７,,12,219,2900142,,,,,,,2023-02-15,1,,,,,アステラスホーム,0
832,4040001127124,新規,0,2023-02-15,2023-02-15,ＳＯＬ株式会社,,株式会社,千葉県,松戸市,東松戸３丁目８番地の４,,12,207,2702225,,,,,,,2023-02-15,1,,,,,ソル,0
838,4040003021944,新規,0,2023-02-15,2023-02-15,合同会社アント,,合同会社,千葉県,千葉市中央区,大森町４７６番地１フィットパレス３０５号,,12,101,2600811,,,,,,,2023-02-15,1,,,,,アント,0
839,4040003021952,新規,0,2023-02-15,2023-02-15,大周商事合同会社,,合同会社,千葉県,市川市,市川南１丁目９－１７市川パブリックハイツ２０３号,,12,203,2720033,,,,,,,2023-02-15,1,,,,,ダイシュウショウジ,0
844,4060001035696,新規,0,2023-02-15,2023-02-15,株式会社ＦｏｒＷｈａｔ,,株式会社,栃木県,下野市,祇園２丁目１９番地ダイアパレス１番館４０８号,00129439,09,216,3290434,,,,,,,2023-02-15,1,,,,,フォーワット,0
845,4060003004419,新規,0,2023-02-15,2023-02-15,ＣＨ　ＴＲＡＤＩＮＧ合同会社,,合同会社,栃木県,小山市,神鳥谷２丁目１３番２号いずみコーポ１０２,,09,208,3230034,,,,,,,2023-02-15,1,,,,,シーエイチトレーディング,0
846,4070001040126,新規,0,2023-02-15,2023-02-15,株式会社ＭＩＴＳＵ　ＡＵＴＯ,,株式会社,群馬県,太田市,世良田町１３９４番地１,,10,205,3700426,,,,,,,2023-02-15,1,,,,,ミツオート,0
847,4070001040134,新規,0,2023-02-15,2023-02-15,株式会社零,,株式会社,群馬県,吾妻郡中之条町,大字中之条町６９５番地１,,10,421,3770424,,,,,,,2023-02-15,1,,,,,ゼロ,0
849,4080001025464,新規,0,2023-02-15,2023-02-15,株式会社富士ランカ,,株式会社,静岡県,焼津市,小川新町４丁目５番３７号,,22,212,4250031,,,,,,,2023-02-15,1,,,,,フジランカ,0
857,4100001036153,新規,0,2023-02-15,2023-02-15,株式会社山美,,株式会社,長野県,佐久市,田口５９４７番地１,,20,217,3840412,,,,,,,2023-02-15,1,,,,,ヤマビ,0
871,4120001252491,新規,0,2023-02-15,2023-02-15,天山紅株式会社,,株式会社,大阪府,大阪市阿倍野区,北畠３丁目４番１２－３０２号,,27,119,5450035,,,,,,,2023-02-15,1,,,,,テンザンコウ,0
872,4120001252500,新規,0,2023-02-15,2023-02-15,日本バモス株式会社,,株式会社,大阪府,大阪市浪速区,湊町１丁目２番１７－２５０５号,,27,111,5560017,,,,,,,2023-02-15,1,,,,,ニホンバモス,0
873,4120003023429,新規,0,2023-02-15,2023-02-15,合同会社ＹＮＳ,,合同会社,大阪府,大阪市平野区,長吉川辺３丁目１５番１１号,,27,126,5470014,,,,,,,2023-02-15,1,,,,,ワイエヌエス,0
874,4120003023445,新規,0,2023-02-15,2023-02-15,ＡＰＥＸＩＡ合同会社,,合同会社,大阪府,大阪市淀川区,西宮原２丁目６番８号プラウドシティ新大阪８０４,,27,123,5320004,,,,,,,2023-02-15,1,,,,,アペクシア,0
875,4120005023476,新規,0,2023-02-15,2023-02-15,一般社団法人こみらい,,その他の設立登記法人,大阪府,大阪市城東区,野江３丁目６番４号,,27,118,5360006,,,,,,,2023-02-15,1,,,,,コミライ,0
879,4120101066998,新規,0,2023-02-15,2023-02-15,Ｘ　ＩＮＤＵＳＴＲＹ株式会社,,株式会社,大阪府,藤井寺市,大井２丁目５番５９号,,27,226,5830008,,,,,,,2023-02-15,1,,,,,エックスインダストリー,0
880,4120103005079,新規,0,2023-02-15,2023-02-15,合同会社メディリレーション,,合同会社,大阪府,大阪狭山市,今熊７丁目１８９番地の１,,27,231,5890021,,,,,,,2023-02-15,1,,,,,メディリレーション,0
881,4120105009689,新規,0,2023-02-15,2023-02-15,特定非営利活動法人ジュニアホークスベースボールクラブ,,その他の設立登記法人,大阪府,堺市南区,豊田７４４番地１,,27,145,5900106,,,,,,,2023-02-15,1,,,,,ジュニアホークスベースボールクラブ,0
888,4130001073680,新規,0,2023-02-15,2023-02-15,株式会社ＣＡＴ　ｐｌａｎｎｉｎｇ,,株式会社,京都府,京都市左京区,吉田上阿達町１１番地１石井ハイツ１０３号,,26,103,6068307,,,,,,,2023-02-15,1,,,,,シーエーティープランニング,0
898,4140001129151,新規,0,2023-02-15,2023-02-15,イーリスリッジ株式会社,,株式会社,兵庫県,神戸市垂水区,桃山台２丁目９－２,,28,108,6550854,,,,,,,2023-02-15,1,,,,,イーリスリッジ,0
902,4140005026485,新規,0,2023-02-15,2023-02-15,一般社団法人りとる・ぱーてぃ,,その他の設立登記法人,兵庫県,尼崎市,浜２丁目２０番２１号,,28,202,6610967,,,,,,,2023-02-15,1,,,,,リトルパーティ,0
905,4150001026174,新規,0,2023-02-15,2023-02-15,株式会社ＳＹＵ,,株式会社,奈良県,北葛城郡上牧町,米山台１丁目７番９号,,29,424,6390213,,,,,,,2023-02-15,1,,,,,エスワイユー,0
914,4180001154922,新規,0,2023-02-15,2023-02-15,共和柩送株式会社,,株式会社,愛知県,清須市,清洲田中町１６１番地第一ニューライフ浅野３,,23,233,4520942,,,,,,,2023-02-15,1,,,,,キョウワキュウソウ,0
915,4180001154988,新規,0,2023-02-15,2023-02-15,ＳＵＭＯＴＯＲＩ　Ｔｒａｄｅ株式会社,,株式会社,愛知県,名古屋市西区,児玉３丁目６番２３号,,23,104,4510066,,,,,,,2023-02-15,1,,,,,スモウトリトレード,0
926,4200001040970,新規,0,2023-02-15,2023-02-15,株式会社Ｇ・ＥＸＣＥＥＤ,,株式会社,岐阜県,岐阜市,西鶉５丁目１５番地,,21,201,5008286,,,,,,,2023-02-15,1,,,,,ジエクシード,0
936,4230001019715,新規,0,2023-02-15,2023-02-15,株式会社北陸農機貿易,,株式会社,富山県,射水市,小島３２２番地３,,16,211,9390274,,,,,,,2023-02-15,1,,,,,ホクリクノウキボウエキ,0
944,4250001019960,新規,0,2023-02-15,2023-02-15,株式会社毛利庭園ゴルフ倶楽部,,株式会社,山口県,防府市,多々良１丁目１５番１号,,35,206,7470023,,,,,,,2023-02-15,1,,,,,モウリテイエンゴルフクラブ,0
948,4270005005542,新規,0,2023-02-15,2023-02-15,一般社団法人ＬＳＣ,,その他の設立登記法人,鳥取県,鳥取市,吉成南町１丁目２７番９号,,31,201,6800871,,,,,,,2023-02-15,1,,,,,エルエスシー,0
957,4290001100568,新規,0,2023-02-15,2023-02-15,株式会社りんりんゴルフ,,株式会社,福岡県,筑後市,大字山ノ井３０６番地１グリーンフォレスト３０４号,,40,211,8330031,,,,,,,2023-02-15,1,,,,,リンリンゴルフ,0
958,4290001100576,新規,0,2023-02-15,2023-02-15,株式会社ＮＳ工房,,株式会社,福岡県,朝倉市,下浦２４３５番地１,,40,228,8380055,,,,,,,2023-02-15,1,,,,,エヌエスコウボウ,0
965,4290003013529,新規,0,2023-02-15,2023-02-15,Ｓｉｇｎｅｄ　Ｌｏｏｐ合同会社,,合同会社,福岡県,福岡市博多区,博多駅前２丁目１番１号１Ｆ,,40,132,8120011,,,,,,,2023-02-15,1,,,,,サインドループ,0
966,4290801029288,新規,0,2023-02-15,2023-02-15,株式会社プラントビレッジ,,株式会社,福岡県,行橋市,行事４丁目２２番１号,,40,213,8240001,,,,,,,2023-02-15,1,,,,,プラントビレッジ,0
967,4310001018270,新規,0,2023-02-15,2023-02-15,株式会社ネクストプラス,,株式会社,長崎県,長崎市,花丘町１番２４号２０６号,,42,201,8528153,,,,,,,2023-02-15,1,,,,,,0
971,4330003009720,新規,0,2023-02-15,2023-02-15,合同会社ＧＯＬＤ　ＳＨＩＰ,,合同会社,熊本県,熊本市東区,三郎２丁目１３－３コーポＵ２０２,,43,102,8620922,,,,,,,2023-02-15,1,,,,,ゴールドシップ,0
973,4340001025371,新規,0,2023-02-15,2023-02-15,株式会社日本令和興業,,株式会社,鹿児島県,肝属郡東串良町,川西１５５８番地１６,,46,482,8931613,,,,,,,2023-02-15,1,,,,,ニホンレイワコウギョウ,0
976,4370001049616,新規,0,2023-02-15,2023-02-15,株式会社大和住建,,株式会社,宮城県,仙台市青葉区,柏木１丁目３番３７号ハートコート０１－Ｂ,,04,101,9810933,,,,,,,2023-02-15,1,,,,,ヤマトジュウケン,0
977,4370003005996,新規,0,2023-02-15,2023-02-15,合同会社ＬＫ　ＡＵＴＯ,,合同会社,宮城県,加美郡加美町,字赤塚２７１番地１コーポ千３番館１０１号室,,04,445,9814264,,,,,,,2023-02-15,1,,,,,エルケーオート,0
991,4430001088434,新規,0,2023-02-15,2023-02-15,株式会社ＧＬｅｅｄｏ,,株式会社,北海道,札幌市西区,西野三条９丁目１０番３０－２０１号,,01,107,0630033,,,,,,,2023-02-15,1,,,,,グリード,0
992,4430001088442,新規,0,2023-02-15,2023-02-15,株式会社ＮＫＧ,,株式会社,北海道,札幌市豊平区,月寒東三条１７丁目１５番４号,,01,105,0620053,,,,,,,2023-02-15,1,,,,,エヌケージー,0
993,4430001088450,新規,0,2023-02-15,2023-02-15,株式会社ＥＧＡＯ,,株式会社,北海道,札幌市中央区,南六条東２丁目１１番地１－４１０,,01,101,0600056,,,,,,,2023-02-15,1,,,,,エガオ,0
999,4700150113601,新規,0,2023-02-15,2023-01-11,小淵沢町食と健康を考える会の「小淵沢味噌」,,その他,山梨県,北杜市,小淵沢町上笹尾３３２９－３,,19,209,4080041,,,,,,,2023-01-11,1,,,,,コブチサワマチシヨクトケンコウヲカンガエルカイノコブチサワミソ,0
1000,4700150114343,新規,0,2023-02-15,2023-02-15,Ｓｈｅｎｚｈｅｎ　Ａｏ　Ｍａｉ　Ｋｅ　Ｊｉ　Ｙｏｕ　Ｘｉａｎ　Ｇｏｎｇ　Ｓｉ,,外国会社等,,,,,,,,中国広東省深＿市龍崗区坂田街道龍景小区３巷１号楼３０５,00129433,,,,,2023-02-15,1,,,,,シンセンオウメイカギユウゲンコウシ,0
1001,4700150114351,新規,0,2023-02-15,2023-02-15,パシュパティハンディクラフトアンドファニシングトレーディングプライベートリミテッド,,外国会社等,東京都,八王子市,横山町２３－１４ウイングビル３０１,,13,201,1920081,ネパール連邦民主共和国ラリットプール行政部ラリットプールメトロポリタンシティー４,,,,,,2023-02-15,1,,,,,パシユパテイハンデイクラフトアンドフアニシングトレーデイングプライベートリミテツド,0
1007,5010001232982,新規,0,2023-02-15,2023-02-15,Ｊａｐａｎ　Ｒｅｓａｌｅ　Ｃｅｎｔｅｒ株式会社,,株式会社,東京都,中央区,銀座１丁目１２番４号Ｎ＆ＥＢＬＤ．６Ｆ,,13,102,1040061,,,,,,,2023-02-15,1,,,,,ジャパンリセールセンター,0
1008,5010001232990,新規,0,2023-02-15,2023-02-15,ＮＡＺＡＣＳ株式会社,,株式会社,東京都,中央区,銀座１丁目１２番４号Ｎ＆ＥＢＬＤ．７階,,13,102,1040061,,,,,,,2023-02-15,1,,,,,ナザクス,0
1009,5010001232999,新規,0,2023-02-15,2023-02-15,株式会社大久保商事,,株式会社,東京都,中央区,日本橋人形町１丁目５番１号日本サンライズビル４０１号室,,13,102,1030013,,,,,,,2023-02-15,1,,,,,オオクボショウジ,0
1011,5010003039823,新規,0,2023-02-15,2023-02-15,Ｓｕｐｅｒｎｏｖａ　Ｎｉｓｅｋｏ合同会社,,合同会社,東京都,中央区,銀座１丁目６番１１号土志田ビルディング３Ｆ,,13,102,1040061,,,,,,,2023-02-15,1,,,,,スーパーノヴァニセコ,0
1012,5010005036257,新規,0,2023-02-15,2023-02-15,一般社団法人ＳａｖｅＣａｔｓＦｏｕｎｄａｔｉｏｎ,,その他の設立登記法人,東京都,千代田区,永田町２丁目１３番５号,,13,101,1000014,,,,,,,2023-02-15,1,,,,,セーブキャットファンデーション,0
1025,5010401172564,新規,0,2023-02-15,2023-02-15,株式会社Ｂａｄａｓｓ　Ｇｒｏｕｐ,,株式会社,東京都,港区,芝浦１丁目６番４１－１７１７号,,13,103,1050023,,,,,,,2023-02-15,1,,,,,バダスグループ,0
1027,5010403029523,新規,0,2023-02-15,2023-02-15,合同会社グリーンランド,,合同会社,東京都,港区,虎ノ門３丁目２２番１０－２０１号,,13,103,1050001,,,,,,,2023-02-15,1,,,,,グリーンランド,0
1034,5010701043861,新規,0,2023-02-15,2023-02-15,ＣＵＲＯＣＯ株式会社,,株式会社,東京都,品川区,大崎３丁目５番地２号エステージ大崎ビル６Ｆ,,13,109,1410032,,,,,,,2023-02-15,1,,,,,クロコ,0
1041,5010901052539,新規,0,2023-02-15,2023-02-15,株式会社フフフ,,株式会社,東京都,世田谷区,三宿２丁目３４－５,,13,112,1540005,,,,,,,2023-02-15,1,,,,,フフフ,0
1048,5011001152535,新規,0,2023-02-15,2023-02-15,株式会社モタ,,株式会社,東京都,渋谷区,宇田川町３－７ヒューリック渋谷公園通りビル５Ｆ－５７,,13,113,1500042,,,,,,,2023-02-15,1,,,,,モタ,0
1049,5011001152601,新規,0,2023-02-15,2023-02-15,株式会社ＡＬＬ　ＩＮｃ．,,株式会社,東京都,渋谷区,道玄坂１丁目１６番１０号渋谷ＤＴビル８Ｆ,,13,113,1500043,,,,,,,2023-02-15,1,,,,,オールインク,0
1062,5011403003906,新規,0,2023-02-15,2023-02-15,ＣｏｌｏｒＢｅｃｋ合同会社,,合同会社,東京都,板橋区,向原１丁目１番２４－３０６号,,13,119,1730036,,,,,,,2023-02-15,1,,,,,カラーベック,0
1072,5013301050344,新規,0,2023-02-15,2023-02-15,株式会社Ｈａｐｐｙ　Ｓｍｉｌｅ,,株式会社,東京都,豊島区,南池袋１丁目１６番１５号ダイヤゲート池袋５階,,13,116,1710022,,,,,,,2023-02-15,1,,,,,ハッピースマイル,0
1078,5020001150267,新規,0,2023-02-15,2023-02-15,株式会社ＲＨＹ,,株式会社,神奈川県,横浜市港北区,新横浜２丁目６番地１８－８Ｆ,,14,109,2220033,,,,,,,2023-02-15,1,,,,,アールエイチワイ,0
1079,5020001150283,新規,0,2023-02-15,2023-02-15,株式会社藤倉興業,,株式会社,神奈川県,川崎市宮前区,菅生１丁目１８番３８号,,14,136,2160015,,,,,,,2023-02-15,1,,,,,フジクラコウギョウ,0
1080,5020001150300,新規,0,2023-02-15,2023-02-15,株式会社ＫＮＫ,,株式会社,神奈川県,横浜市緑区,十日市場町８５４番地１６シャトレーグリーン横浜１０１号,,14,113,2260025,,,,,,,2023-02-15,1,,,,,ケーエヌケー,0
1086,5020003023314,新規,0,2023-02-15,2023-02-15,合同会社エーライフサポート,,合同会社,神奈川県,横浜市西区,高島２丁目１１番２号スカイメナー横浜５１９,,14,103,2200011,,,,,,,2023-02-15,1,,,,,エーライフサポート,0
1087,5020003023322,新規,0,2023-02-15,2023-02-15,合同会社ＥＶＥＲ　ＧＲＥＥＮ,,合同会社,神奈川県,横浜市旭区,上白根町１１７０番地８,,14,112,2410001,,,,,,,2023-02-15,1,,,,,エバーグリーン,0
1090,5021001078218,新規,0,2023-02-15,2023-02-15,株式会社ス．ト．レ．ン．ジ＆クール．,,株式会社,神奈川県,鎌倉市,腰越１５８８番地６１,,14,204,2480033,,,,,,,2023-02-15,1,,,,,ストレンジアンドクール,0
1091,5021003012760,新規,0,2023-02-15,2023-02-15,合同会社ｍｉｃｒｏ　ｄｅｓｉｇｎ　ｌａｂ．,,合同会社,神奈川県,相模原市中央区,南橋本３丁目５番１７－２０３号,,14,152,2520253,,,,,,,2023-02-15,1,,,,,マイクロデザインラボ,0
1095,5030001152428,新規,0,2023-02-15,2023-02-15,株式会社リアン・エル,,株式会社,埼玉県,さいたま市浦和区,仲町１丁目２番８号,,11,107,3300062,,,,,,,2023-02-15,1,,,,,リアンエル,0
1100,5030003021184,新規,0,2023-02-15,2023-02-15,ふれ愛サポート合同会社,,合同会社,埼玉県,深谷市,上柴町西４丁目２３－１２サンライズメゾン１０３,,11,218,3660052,,,,,,,2023-02-15,1,,,,,フレアイサポート,0
1103,5040001127098,新規,0,2023-02-15,2023-02-15,株式会社新陽警備保障,,株式会社,千葉県,市原市,ちはら台東９丁目７番地１０,,12,219,2900141,,,,,,,2023-02-15,1,,,,,シンヨウケイビホショウ,0
1104,5040001127107,新規,0,2023-02-15,2023-02-15,株式会社ムジナ,,株式会社,千葉県,八千代市,大学町４丁目３－１２,,12,221,2760003,,,,,,,2023-02-15,1,,,,,ムジナ,0
1107,5050001052394,新規,0,2023-02-15,2023-02-15,株式会社奈多里,,株式会社,茨城県,坂東市,菅谷９３５番地２,,08,228,3060505,,,,,,,2023-02-15,1,,,,,ナタリ,0
1109,5060003004418,新規,0,2023-02-15,2023-02-15,Ｄ．Ａ．ＬＡＮＫＡ合同会社,,合同会社,栃木県,栃木市,岩舟町新里１３０３番地２－２７号室,,09,203,3294316,,,,,,,2023-02-15,1,,,,,ディーエーランカ,0
1119,5080101023796,新規,0,2023-02-15,2023-02-15,株式会社ｃ．ｓ　ＦＵＮＡＴＳＵ,,株式会社,静岡県,賀茂郡松崎町,宮内３５２‐２,,22,305,4103612,,,,,,,2023-02-15,1,,,,,シードットエスフナツ,0
1121,5080401026318,新規,0,2023-02-15,2023-02-15,株式会社寺田,,株式会社,静岡県,袋井市,堀越３丁目１６番地の７,,22,216,4370065,,,,,,,2023-02-15,1,,,,,テラダ,0
1134,5120001252499,新規,0,2023-02-15,2023-02-15,株式会社芸友,,株式会社,大阪府,大阪市浪速区,下寺３丁目１－１４エクレール夕陽ケ丘５号２１５室,,27,111,5560001,,,,,,,2023-02-15,1,,,,,ゲイユウ,0
1140,5120105009688,新規,0,2023-02-15,2023-02-15,特定非営利活動法人ＲＩＳＥ,,その他の設立登記法人,大阪府,堺市中区,深井沢町３３１５グランパス深井８０２号,,27,142,5998236,,,,,,,2023-02-15,1,,,,,ライズ,0
1143,5120901047131,新規,0,2023-02-15,2023-02-15,ハイテックサービス株式会社,,株式会社,大阪府,豊中市,宮山町３丁目１番３４の１号,,27,203,5600056,,,,,,,2023-02-15,1,,,,,ハイテックサービス,0
1144,5120903004493,新規,0,2023-02-15,2023-02-15,ＤＲＡＧＯＮ合同会社,,合同会社,大阪府,豊中市,上津島２丁目５番１８の１０号,,27,203,5610843,,,,,,,2023-02-15,1,,,,,ドラゴン,0
1145,5120903004502,新規,0,2023-02-15,2023-02-15,合同会社ＲＯＡＭＡＩＲ　ＪＡＰＡＮ,,合同会社,大阪府,高槻市,千代田町８番２９号,,27,207,5690087,,,,,,,2023-02-15,1,,,,,ロームエアージャパン,0
1146,5122003002519,新規,0,2023-02-15,2023-02-15,合同会社中村,,合同会社,大阪府,東大阪市,小若江３丁目１４－２,,27,227,5770818,,,,,,,2023-02-15,1,,,,,ナカムラ,0
1147,5130001073688,新規,0,2023-02-15,2023-02-15,株式会社キーブロ,,株式会社,京都府,京都市山科区,御陵大津畑町１６番地３－５０６,,26,110,6078411,,,,,,,2023-02-15,1,,,,,キーブロ,0
1150,5140001129126,新規,0,2023-02-15,2023-02-15,株式会社Ｌｅｏ神戸,,株式会社,兵庫県,神戸市中央区,新港町１１番１号,,28,110,6500041,,,,,,,2023-02-15,1,,,,,レオコウベ,0
1158,5180001154847,新規,0,2023-02-15,2023-02-15,株式会社パイン,,株式会社,愛知県,あま市,篠田八原１８９番地,,23,237,4901211,,,,,,,2023-02-15,1,,,,,パイン,0
1159,5180001154946,新規,0,2023-02-15,2023-02-15,株式会社大紀興業,,株式会社,愛知県,海部郡蟹江町,学戸１丁目８８番地アプレシエ東棟２号,,23,425,4970050,,,,,,,2023-02-15,1,,,,,タイキコウギョウ,0
1160,5180001154995,新規,0,2023-02-15,2023-02-15,株式会社Ｒ’ｓサービス,,株式会社,愛知県,名古屋市南区,上浜町２９番地,,23,112,4570067,,,,,,,2023-02-15,1,,,,,アールズサービス,0
1165,5180303005616,新規,0,2023-02-15,2023-02-15,カサマイ合同会社,,合同会社,愛知県,安城市,御幸本町１番８号御幸ビル３０３号室,,23,212,4460032,,,,,,,2023-02-15,1,,,,,カサマイ,0
1172,5230001019714,新規,0,2023-02-15,2023-02-15,スマイルメイク株式会社,,株式会社,富山県,富山市,緑町１丁目１番１号,,16,201,9300038,,,,,,,2023-02-15,1,,,,,スマイルメイク,0
1180,5240003006024,新規,0,2023-02-15,2023-02-15,合同会社ＫＭＣ,,合同会社,広島県,福山市,東深津町３丁目１２番２１号,,34,207,7210974,,,,,,,2023-02-15,1,,,,,ケーエムシー,0
1191,5270003001492,新規,0,2023-02-15,2023-02-15,合同会社Ｒｅｌｉｅｆ,,合同会社,鳥取県,西伯郡大山町,鈑戸１０９７番地,,31,386,6893317,,,,,,,2023-02-15,1,,,,,リリーフ,0
1193,5290001100567,新規,0,2023-02-15,2023-02-15,株式会社下川総業,,株式会社,福岡県,柳川市,三橋町中山１１０２番地２,,40,207,8320811,,,,,,,2023-02-15,1,,,,,シモガワソウギョウ,0
1194,5290001100583,新規,0,2023-02-15,2023-02-15,株式会社Ｋ’ｓエステート,,株式会社,福岡県,福岡市早良区,西新４丁目１番１－３５０６号,,40,137,8140002,,,,,,,2023-02-15,1,,,,,ケイズエステート,0
1196,5290003013536,新規,0,2023-02-15,2023-02-15,合同会社ビーユアセルフ,,合同会社,福岡県,福岡市東区,箱崎３丁目７番３号,,40,131,8120053,,,,,,,2023-02-15,1,,,,,ビーユアセルフ,0
1198,5290801029287,新規,0,2023-02-15,2023-02-15,株式会社ＴｒｉＯｒｂ,,株式会社,福岡県,北九州市小倉北区,浅野３丁目８番１号ＡＩＭビル６階,,40,106,8020001,,,,,,,2023-02-15,1,,,,,トライオーブ,0
1203,5320001019572,新規,0,2023-02-15,2023-02-15,株式会社ＧＳ１,,株式会社,大分県,速見郡日出町,大字豊岡２４７６番地,,44,341,8791507,,,,,,,2023-02-15,1,,,,,ジーエスワン,0
1204,5330005010618,新規,0,2023-02-15,2023-02-15,特定非営利活動法人ｎｉｃｈｉ　ｎｉｃｈｉ,,その他の設立登記法人,熊本県,熊本市南区,近見６丁目３番１０号,,43,104,8614101,,,,,,,2023-02-15,1,,,,,ニチニチ,0
1215,5370001049607,新規,0,2023-02-15,2023-02-15,株式会社ＪｅｅＣ,,株式会社,宮城県,刈田郡蔵王町,大字矢附字川原１３番地３,,04,301,9890843,,,,,,,2023-02-15,1,,,,,ジェシー,0
1217,5370003005995,新規,0,2023-02-15,2023-02-15,合同会社びおら,,合同会社,宮城県,亘理郡亘理町,逢隈下郡字高躰４２番地１６,00129442,04,361,9892382,,,,,,,2023-02-15,1,,,,,ビオラ,0
1228,5430001088441,新規,0,2023-02-15,2023-02-15,株式会社レペティール,,株式会社,北海道,札幌市西区,二十四軒四条５丁目１番８号,,01,107,0630804,,,,,,,2023-02-15,1,,,,,レペティール,0
1233,5430003014742,新規,0,2023-02-15,2023-02-15,合同会社ＹあんどＴ．Ｃ,,合同会社,北海道,札幌市東区,北三十七条東４丁目２番８号ウエルドビル４０１号,,01,103,0070837,,,,,,,2023-02-15,1,,,,,ワイアンドティシー,0
1239,5700150113732,新規,0,2023-02-15,2023-01-16,ワーカーズ・コレクティブつきうさぎ,,その他,埼玉県,さいたま市浦和区,岸町６丁目１－４アズール調の杜１階,,11,107,3300064,,,,,,,2023-01-16,1,,,,,ワーカーズコレクテイブツキウサギ,0
1240,5700150114342,新規,0,2023-02-15,2023-02-15,ＳｈｅｎｚｈｅｎＱｉＹｕｅＤｉａｎＺｉＳｈａｎｇＷｕＹｏｕＸｉａｎＧｏｎｇｓｉ,,外国会社等,,,,,,,,中国広東省深＿市龍崗区龍城街道尚景社区龍福路栄超英隆大厦Ｂ座Ｂ６１０,00129432,,,,,2023-02-15,1,,,,,シンセンケイエツデンシシヨウムユウゲンコウシ,0
1241,5700150114350,新規,0,2023-02-15,2023-02-15,飯田橋駅東地区市街地再開発組合,,その他,東京都,千代田区,飯田橋３丁目６番７号,,13,101,1020072,,,,,,,2023-02-15,1,,,,,イイダバシエキヒガシチクシガイチサイカイハツクミアイ,0
1252,6010001233006,新規,0,2023-02-15,2023-02-15,凱宏達株式会社,,株式会社,東京都,中央区,銀座７丁目１３番２１号銀座ｓｉｎｒｏｋｕｓｙｕビル２階,,13,102,1040061,,,,,,,2023-02-15,1,,,,,ガイコウタツ,0
1253,6010001233014,新規,0,2023-02-15,2023-02-15,株式会社日本ドニン,,株式会社,東京都,中央区,日本橋堀留町１丁目９番１０号日本橋ライフサイエンスビルディング７,,13,102,1030012,,,,,,,2023-02-15,1,,,,,ニホンドニン,0
1254,6010001233030,新規,0,2023-02-15,2023-02-15,ゴールデンベアー・シアター株式会社,,株式会社,東京都,中央区,日本橋室町１丁目１３番１号ＤＫノア４階,,13,102,1030022,,,,,,,2023-02-15,1,,,,,ゴールデンベアーシアター,0
1260,6010103002077,新規,0,2023-02-15,2023-02-15,合同会社ノービー,,合同会社,東京都,八王子市,犬目町８７２番地４,,13,201,1930802,,,,,,,2023-02-15,1,,,,,ノービー,0
1264,6010401172571,新規,0,2023-02-15,2023-02-15,株式会社Ｒｅｄ　Ｇａｍｅｓ,,株式会社,東京都,港区,南青山１丁目２番６号,,13,103,1070062,,,,,,,2023-02-15,1,,,,,レッドゲームズ,0
1268,6010403029522,新規,0,2023-02-15,2023-02-15,クラリティ・パートナーズ合同会社,,合同会社,東京都,港区,南青山４丁目１８番１１号フォレストヒルズイーストウィング２階,,13,103,1070062,,,,,,,2023-02-15,1,,,,,クラリティパートナーズ,0
1271,6010501050017,新規,0,2023-02-15,2023-02-15,株式会社Ｏｎｅ　ｆｏｒ　ａｌｌ,,株式会社,東京都,台東区,松が谷４丁目１０番４号５０３号室,,13,106,1110036,,,,,,,2023-02-15,1,,,,,ワンフォーオール,0
1275,6010801033695,新規,0,2023-02-15,2023-02-15,ＡｃｔｉｖｅＭａｎａｇｅｍｅｎｔ株式会社,,株式会社,東京都,大田区,西嶺町２９番５－３０２号,,13,111,1450075,,,,,,,2023-02-15,1,,,,,アクティブマネジメント,0
1278,6010901052554,新規,0,2023-02-15,2023-02-15,株式会社フォーエステート,,株式会社,東京都,世田谷区,大原１丁目３７番１３－１０１号,,13,112,1560041,,,,,,,2023-02-15,1,,,,,フォーエステート,0
1282,6011001152534,新規,0,2023-02-15,2023-02-15,クロスイメージ株式会社,,株式会社,東京都,渋谷区,東３丁目８番２２号伊藤ビル２０１号室,,13,113,1500011,,,,,,,2023-02-15,1,,,,,クロスイメージ,0
1286,6011101101837,新規,0,2023-02-15,2023-02-15,リリベット株式会社,,株式会社,東京都,新宿区,市谷田町２丁目７－１２藤ビル２Ｆ,,13,104,1620843,,,,,,,2023-02-15,1,,,,,リリベット,0
1287,6011103012710,新規,0,2023-02-15,2023-02-15,合同会社ＲＥＡＬ,,合同会社,東京都,新宿区,西新宿３丁目３番１３号西新宿水間ビル６階,,13,104,1600023,,,,,,,2023-02-15,1,,,,,レアル,0
1288,6011201024418,新規,0,2023-02-15,2023-02-15,株式会社エシカルグリーン,,株式会社,東京都,中野区,中央４丁目４番５号,,13,114,1640011,,,,,,,2023-02-15,1,,,,,エシカルグリーン,0
1296,6011801041944,新規,0,2023-02-15,2023-02-15,株式会社ＴＡＫＡＨＡＭＡ,,株式会社,東京都,葛飾区,細田４丁目２０番８号,,13,122,1240021,,,,,,,2023-02-15,1,,,,,タカハマ,0
1297,6011803005518,新規,0,2023-02-15,2023-02-15,ＹＫ合同会社,,合同会社,東京都,足立区,一ツ家１丁目４－６,,13,121,1210075,,,,,,,2023-02-15,1,,,,,ワイケー,0
1301,6012401040188,新規,0,2023-02-15,2023-02-15,株式会社ｍｉｎｄ　ｍａｓｔｅｒ＆ｗｉｔｃｈ,,株式会社,東京都,稲城市,若葉台１丁目１６番地の１２,,13,225,2060824,,,,,,,2023-02-15,1,,,,,マインドマスターアンドウィッチ,0
1302,6012401040196,新規,0,2023-02-15,2023-02-15,株式会社ＳＨＩＮ,,株式会社,東京都,調布市,深大寺元町２丁目６番地４７,,13,208,1820017,,,,,,,2023-02-15,1,,,,,シン,0
1303,6012801022141,新規,0,2023-02-15,2023-02-15,艶澤株式会社,,株式会社,東京都,東大和市,新堀１丁目１４３２－８３ロイヤルコーポ３階３０１,,13,220,2070012,,,,,,,2023-02-15,1,,,,,エンタク,0
1304,6013103001206,新規,0,2023-02-15,2023-02-15,東京ひのまるトレーディング合同会社,,合同会社,東京都,青梅市,今井３丁目３０番地の６９,,13,205,1980023,,,,,,,2023-02-15,1,,,,,トウキョウヒノマルトレーディング,0
1309,6013301050335,新規,0,2023-02-15,2023-02-15,株式会社Ｂｌｏｏｍ　ｓｋｙ,,株式会社,東京都,豊島区,東池袋１丁目１７番１１号パークハイツ池袋１１０５号,,13,116,1700013,,,,,,,2023-02-15,1,,,,,ブルームスカイ,0
1310,6013301050343,新規,0,2023-02-15,2023-02-15,ＳＩＺＵ株式会社,,株式会社,東京都,豊島区,南大塚１丁目６０番２０号天翔大塚駅前ビルＳ５０８号室,,13,116,1700005,,,,,,,2023-02-15,1,,,,,シズ,0
1311,6013303006500,新規,0,2023-02-15,2023-02-15,ＭＮＫ合同会社,,合同会社,東京都,豊島区,西池袋３丁目２２番９号パークアクシス池袋７０５,,13,116,1710021,,,,,,,2023-02-15,1,,,,,エムエヌケー,0
1317,6020001150282,新規,0,2023-02-15,2023-02-15,株式会社エスクリエイト,,株式会社,神奈川県,横浜市都筑区,中川１丁目２番Ｆ－１４０１号,,14,118,2240001,,,,,,,2023-02-15,1,,,,,エスクリエイト,0
1323,6021003012735,新規,0,2023-02-15,2023-02-15,合同会社ハンドワークス,,合同会社,神奈川県,平塚市,東真土４丁目１０番４０ー４号,,14,203,2540018,,,,,,,2023-02-15,1,,,,,ハンドワークス,0
1324,6021003012751,新規,0,2023-02-15,2023-02-15,合同会社Ｔ’ｓ　Ｌａｂｏ,,合同会社,神奈川県,藤沢市,渡内４丁目２２番２３号,,14,205,2510011,,,,,,,2023-02-15,1,,,,,ティーズラボ,0
1332,6030001152402,新規,0,2023-02-15,2023-02-15,株式会社静ホールディングス,,株式会社,埼玉県,川口市,並木３丁目１４番７号ブライズＶ６０２,,11,203,3320034,,,,,,,2023-02-15,1,,,,,シズホールディングス,0
1333,6030001152427,新規,0,2023-02-15,2023-02-15,株式会社共盛,,株式会社,埼玉県,草加市,松原２丁目２番２７－７１８号,,11,221,3400041,,,,,,,2023-02-15,1,,,,,キョウセイ,0
1334,6030001152435,新規,0,2023-02-15,2023-02-15,株式会社ＢＬＡＮＣＯ,,株式会社,埼玉県,入間市,高倉１丁目３番４号,,11,225,3580021,,,,,,,2023-02-15,1,,,,,ブランコ,0
1335,6030001152443,新規,0,2023-02-15,2023-02-15,株式会社ＳｕＪ,,株式会社,埼玉県,蕨市,中央３丁目２４番１４号,,11,223,3350004,,,,,,,2023-02-15,1,,,,,エスユージェー,0
1342,6030003021159,新規,0,2023-02-15,2023-02-15,ＵＭＤ　ＩＮＴＥＲＮＡＴＩＯＮＡＬ合同会社,,合同会社,埼玉県,ふじみ野市,上福岡５丁目３番２２号,,11,245,3560004,,,,,,,2023-02-15,1,,,,,ユーエムディーインターナショナル,0
1343,6030003021183,新規,0,2023-02-15,2023-02-15,Ｌｉｙａ　Ｅｎｔｅｒｐｒｉｓｅｓ合同会社,,合同会社,埼玉県,蕨市,南町３丁目５番１５号パーク２１－３０２,,11,223,3350003,,,,,,,2023-02-15,1,,,,,リヤエンタープライゼス,0
1349,6040001127056,新規,0,2023-02-15,2023-02-15,株式会社道具屋,,株式会社,千葉県,市川市,香取２丁目１２番１８－４号,,12,203,2720141,,,,,,,2023-02-15,1,,,,,ドウグヤ,0
1350,6040001127080,新規,0,2023-02-15,2023-02-15,株式会社エムズネクスト,,株式会社,千葉県,流山市,市野谷２６番地の１,,12,220,2700137,,,,,,,2023-02-15,1,,,,,エムズネクスト,0
1351,6040001127097,新規,0,2023-02-15,2023-02-15,株式会社Ｊ‐ｎｉｎｅ,,株式会社,千葉県,千葉市緑区,誉田町２丁目２番地１８５９,,12,105,2660005,,,,,,,2023-02-15,1,,,,,ジェイナイン,0
1352,6040001127106,新規,0,2023-02-15,2023-02-15,株式会社まごはち,,株式会社,千葉県,成田市,上町８５８,,12,211,2860032,,,,,,,2023-02-15,1,,,,,マゴハチ,0
1356,6040003021926,新規,0,2023-02-15,2023-02-15,アンサンヒーロー合同会社,,合同会社,千葉県,松戸市,大谷口２６５－１－５０３,,12,207,2700005,,,,,,,2023-02-15,1,,,,,アンサンヒーロー,0
1377,6100003006887,新規,0,2023-02-15,2023-02-15,合同会社ｎｏｍ,,合同会社,長野県,飯田市,川路４９１９,,20,205,3992431,,,,,,,2023-02-15,1,,,,,ノム,0
1388,6120001252481,新規,0,2023-02-15,2023-02-15,株式会社ＧＬＯＷＢＩＧ,,株式会社,大阪府,寝屋川市,点野５丁目２５番９号,,27,215,5720077,,,,,,,2023-02-15,1,,,,,グロービッグ,0
1389,6120001252507,新規,0,2023-02-15,2023-02-15,株式会社島田,,株式会社,大阪府,大阪市此花区,春日出南３丁目３番４１－４０２号,,27,104,5540023,,,,,,,2023-02-15,1,,,,,シマダ,0
1390,6120001252515,新規,0,2023-02-15,2023-02-15,褐石芸術株式会社,,株式会社,大阪府,大阪市浪速区,下寺３丁目１番１４－２０５号,,27,111,5560001,,,,,,,2023-02-15,1,,,,,カツセキゲイジュツ,0
1391,6120001252556,新規,0,2023-02-15,2023-02-15,国猗株式会社,,株式会社,大阪府,大阪市中央区,上本町西３丁目２－６柴田第一ビル３０６Ａ,,27,128,5420062,,,,,,,2023-02-15,1,,,,,コッキ,0
1392,6120001252580,新規,0,2023-02-15,2023-02-15,株式会社Ｇｕｉｌｄ,,株式会社,大阪府,大阪市北区,梅田１丁目２番２号大阪駅前第２ビル１２－１２,,27,127,5300001,,,,,,,2023-02-15,1,,,,,ギルド,0
1395,6120003023435,新規,0,2023-02-15,2023-02-15,合同会社ＮＥＷ　ＬＩＦＥ,,合同会社,大阪府,大阪市生野区,新今里３丁目２２番１９号サンハイツ今里４０１号,,27,116,5440001,,,,,,,2023-02-15,1,,,,,ニューライフ,0
1396,6120003023443,新規,0,2023-02-15,2023-02-15,合同会社漫ダラ,,合同会社,大阪府,大阪市淀川区,三国本町２丁目１６－４０,,27,123,5320005,,,,,,,2023-02-15,1,,,,,マンダラ,0
1402,6120901047139,新規,0,2023-02-15,2023-02-15,株式会社エールホールディングス,,株式会社,大阪府,吹田市,新芦屋下２１番５号,00129447,27,205,5650803,,,,,,,2023-02-15,1,,,,,エールホールディングス,0
1403,6120901047147,新規,0,2023-02-15,2023-02-15,大阪不動産・ＦＰサービス株式会社,,株式会社,大阪府,吹田市,千里丘西８番Ｌ－３０２号,,27,205,5650814,,,,,,,2023-02-15,1,,,,,オオサカフドウサンエフピーサービス,0
1407,6130003008534,新規,0,2023-02-15,2023-02-15,合同会社Ｚｅｂｒａ,,合同会社,京都府,京都市伏見区,深草東伊達町３０番地１２,,26,109,6120874,,,,,,,2023-02-15,1,,,,,ゼブラ,0
1410,6140001129133,新規,0,2023-02-15,2023-02-15,宅盤サポート株式会社,,株式会社,兵庫県,神戸市灘区,畑原通３丁目２番１７号,,28,102,6570822,,,,,,,2023-02-15,1,,,,,タクバンサポート,0
1413,6170001017475,新規,0,2023-02-15,2023-02-15,株式会社Ｍ　ａｎｄ　Ｃｏｍｐａｎｙ,,株式会社,和歌山県,有田市,野３９３番地の２,,30,204,6490314,,,,,,,2023-02-15,1,,,,,エムアンドカンパニー,0
1419,6180001154846,新規,0,2023-02-15,2023-02-15,株式会社ヤングパイン,,株式会社,愛知県,あま市,篠田八原１８９番地,,23,237,4901211,,,,,,,2023-02-15,1,,,,,ヤングパイン,0
1420,6180001154986,新規,0,2023-02-15,2023-02-15,サイファークリエイト株式会社,,株式会社,愛知県,名古屋市東区,泉１丁目３番６号,,23,102,4610001,,,,,,,2023-02-15,1,,,,,サイファークリエイト,0
1421,6180001155002,新規,0,2023-02-15,2023-02-15,株式会社ミーミルライト,,株式会社,愛知県,名古屋市緑区,鎌倉台２丁目１０１番地の１,,23,114,4580829,,,,,,,2023-02-15,1,,,,,ミーミルライト,0
1425,6220001025274,新規,0,2023-02-15,2023-02-15,株式会社ＧＥＣＳ,,株式会社,石川県,河北郡津幡町,字川尻タ１３０番地,,17,361,9290334,,,,,,,2023-02-15,1,,,,,ジークス,0
1432,6240001061103,新規,0,2023-02-15,2023-02-15,株式会社オフィスＴｅｍｍａ,,株式会社,広島県,広島市安佐南区,西原９丁目１９番１０号,,34,105,7310113,,,,,,,2023-02-15,1,,,,,オフィステンマ,0
1434,6250001019959,新規,0,2023-02-15,2023-02-15,周南緑地スポレパーク株式会社,,株式会社,山口県,周南市,平和通１丁目２６番地,,35,215,7450015,,,,,,,2023-02-15,1,,,,,シュウナンリョクチスポレパーク,0
1438,6260001037654,新規,0,2023-02-15,2023-02-15,株式会社光,,株式会社,岡山県,津山市,中北上１８１８番地１６,,33,203,7094606,,,,,,,2023-02-15,1,,,,,ヒカリ,0
1439,6280001008884,新規,0,2023-02-15,2023-02-15,株式会社ＩＷＡ,,株式会社,島根県,隠岐郡隠岐の島町,下西６３７番地,,32,528,6850017,,,,,,,2023-02-15,1,,,,,イワ,0
1443,6290001100566,新規,0,2023-02-15,2023-02-15,株式会社ｅｓ，ｗｏｒｋｓ,,株式会社,福岡県,福岡市中央区,高砂１丁目１１番１号,,40,133,8100011,,,,,,,2023-02-15,1,,,,,エスワークス,0
1446,6290003013535,新規,0,2023-02-15,2023-02-15,合同会社ＡＭＯＯＮ,,合同会社,福岡県,福岡市中央区,赤坂２丁目５－５５－３０２,,40,133,8100042,,,,,,,2023-02-15,1,,,,,アムーン,0
1452,6290801029286,新規,0,2023-02-15,2023-02-15,株式会社ｓａｎｓ　ｎｏｍ,,株式会社,福岡県,遠賀郡遠賀町,田園３丁目２２‐１４,,40,384,8114343,,,,,,,2023-02-15,1,,,,,サンノーム,0
1454,6320001019571,新規,0,2023-02-15,2023-02-15,ＮＩＣＥ　ＷＯＲＬＤ株式会社,,株式会社,大分県,大分市,大字片島２４４６番地,,44,201,8700943,,,,,,,2023-02-15,1,,,,,ナイスワールド,0
1460,6350003004296,新規,0,2023-02-15,2023-02-15,ＮＯＲ　Ｉｎｎｏｖａｔｉｏｎ合同会社,,合同会社,宮崎県,宮崎市,潮見町２０番地３コオリナ潮見６０３号,,45,201,8800862,,,,,,,2023-02-15,1,,,,,ノアイノベーション,0
1465,6370001049606,新規,0,2023-02-15,2023-02-15,株式会社佐伯コーポレーション,,株式会社,宮城県,仙台市宮城野区,宮千代３丁目８番地の４,,04,102,9830044,,,,,,,2023-02-15,1,,,,,サエキコーポレーション,0
1466,6370001049614,新規,0,2023-02-15,2023-02-15,株式会社森馬,,株式会社,宮城県,仙台市若林区,保春院前丁９９－２０－２０２,,04,103,9840811,,,,,,,2023-02-15,1,,,,,モリウマ,0
1467,6370003005994,新規,0,2023-02-15,2023-02-15,ひとふく合同会社,,合同会社,宮城県,黒川郡大和町,吉岡字上道下４７番地の１,,04,421,9813621,,,,,,,2023-02-15,1,,,,,ヒトフク,0
1468,6370005010596,新規,0,2023-02-15,2023-02-15,事業協同組合栗原環境保全,,その他の設立登記法人,宮城県,栗原市,築館伊豆３丁目１番５号,,04,213,9872216,,,,,,,2023-02-15,1,,,,,クリハラカンキョウホゼン,0
1472,6380001033476,新規,0,2023-02-15,2023-02-15,株式会社ＧＲＡＮＤ　ＣＯＮＣＥＰＴ,,株式会社,福島県,須賀川市,森宿字苧畑５８番地１,,07,207,9620001,,,,,,,2023-02-15,1,,,,,グランドコンセプト,0
1473,6380003005390,新規,0,2023-02-15,2023-02-15,合同会社ブースト,,合同会社,福島県,郡山市,富田町字音路１番地の１－Ｂ３０１号,,07,203,9638041,,,,,,,2023-02-15,1,,,,,ブースト,0
1474,6380005012674,新規,0,2023-02-15,2023-02-15,特定非営利活動法人和,,その他の設立登記法人,福島県,喜多方市,岩月町喜多方字稲村８２０番地１,,07,208,9660004,,,,,,,2023-02-15,1,,,,,ナギ,0
1476,6400001016156,新規,0,2023-02-15,2023-02-15,株式会社砂壁製米舎,,株式会社,岩手県,岩手郡雫石町,上野砂壁２９番地１,,03,301,0200583,,,,,,,2023-02-15,1,,,,,シャッカベセイマイシャ,0
1480,6430001088449,新規,0,2023-02-15,2023-02-15,株式会社ｙｅｓ,,株式会社,北海道,札幌市白石区,北郷八条３丁目７番１４号,,01,104,0030838,,,,,,,2023-02-15,1,,,,,イエス,0
1488,6700150114341,新規,0,2023-02-15,2023-02-15,ＡＢＤＵＬＬＡ　ＥＮＴＥＲＰＲＩＳＥＳ,,外国会社等,千葉県,山武市,松ヶ谷ロ９２６番地２オフィスＦ２,,12,237,2891303,スリランカ民主社会主義共和国、ティハリヤ、コロンボロード、２８２,,,,,,2023-02-15,1,,,,,アブドウラエンタープライセス,0
1493,7010001232907,新規,0,2023-02-15,2023-02-15,株式会社ライクノウ,,株式会社,東京都,中央区,銀座１丁目１２番４号Ｎ＆ＥＢＬＤ．６Ｆ,,13,102,1040061,,,,,,,2023-02-15,1,,,,,ライクノウ,0
1494,7010001232948,新規,0,2023-02-15,2023-02-15,ＭＩＺＵＴＯＭＩ株式会社,,株式会社,東京都,中央区,日本橋小舟町８番１３号天翔日本橋ビル４階４０８－Ｄ号室,,13,102,1030024,,,,,,,2023-02-15,1,,,,,ミズトミ,0
1495,7010001233062,新規,0,2023-02-15,2023-02-15,株式会社ＦＥＬＩＺ,,株式会社,東京都,千代田区,神田平河町１番地第３東ビル５Ｆ３８号室,,13,101,1010027,,,,,,,2023-02-15,1,,,,,フェリス,0
1515,7010401172513,新規,0,2023-02-15,2023-02-15,ニューブリッジ５株式会社,,株式会社,東京都,港区,西新橋２丁目８番６号,,13,103,1050003,,,,,,,2023-02-15,1,,,,,ニューブリッジファイブ,0
1525,7010801033694,新規,0,2023-02-15,2023-02-15,株式会社鈴木日菜事務所,,株式会社,東京都,大田区,鵜の木３丁目１－１１,,13,111,1460091,,,,,,,2023-02-15,1,,,,,スズキヒナジムショ,0
1530,7010901052545,新規,0,2023-02-15,2023-02-15,ＥＬホールディングス株式会社,,株式会社,東京都,世田谷区,太子堂１丁目１２番３８号,,13,112,1540004,,,,,,,2023-02-15,1,,,,,エルホールディングス,0
1533,7010903007976,新規,0,2023-02-15,2023-02-15,合同会社Ｔｈｅ　Ｓｑｕａｒｅ,,合同会社,東京都,世田谷区,成城２丁目１７番１４号,,13,112,1570066,,,,,,,2023-02-15,1,,,,,ザスクエア,0
1537,7011001152533,新規,0,2023-02-15,2023-02-15,株式会社ＦＯＨＲＳ,,株式会社,東京都,渋谷区,桜丘町１２－８渋谷コーポラス９０１,,13,113,1500031,,,,,,,2023-02-15,1,,,,,フォルス,0
1538,7011001152558,新規,0,2023-02-15,2023-02-15,株式会社いい推しの日,,株式会社,東京都,目黒区,緑が丘２丁目２５番７号スイーツフォレスト３Ｆ,,13,110,1520034,,,,,,,2023-02-15,1,,,,,イイオシノヒ,0
1539,7011001152608,新規,0,2023-02-15,2023-02-15,株式会社Ｗｈｉｎｓｔｅｉｎ,,株式会社,東京都,渋谷区,神泉町１０番１５号,,13,113,1500045,,,,,,,2023-02-15,1,,,,,ウィンスタイン,0
1540,7011001152616,新規,0,2023-02-15,2023-02-15,株式会社ａｔ　Ｋ’ｓ,,株式会社,東京都,渋谷区,渋谷１丁目１２番１２号宮益坂東豊エステート３０１,,13,113,1500002,,,,,,,2023-02-15,1,,,,,アットケーズ,0
1541,7011003016273,新規,0,2023-02-15,2023-02-15,合同会社フィクト,,合同会社,東京都,渋谷区,東２丁目１８－６松岡ビル１階,,13,113,1500011,,,,,,,2023-02-15,1,,,,,フィクト,0
1542,7011101101860,新規,0,2023-02-15,2023-02-15,株式会社ＣＥＢＵ２１,,株式会社,東京都,新宿区,西新宿６丁目１１－３Ｄタワー西新宿１６Ｆ,,13,104,1600023,,,,,,,2023-02-15,1,,,,,セブニジュウイチ,0
1543,7011103012692,新規,0,2023-02-15,2023-02-15,ＦＲＥＹＩＡ合同会社,,合同会社,東京都,新宿区,高田馬場４丁目１８－１０サンハイツ高田馬場２０４,,13,104,1690075,,,,,,,2023-02-15,1,,,,,フレイヤ,0
1544,7011105010538,新規,0,2023-02-15,2023-02-15,一般社団法人日本グローバル医療人材育成協会,,その他の設立登記法人,東京都,新宿区,西新宿７丁目２番１２号,,13,104,1600023,,,,,,,2023-02-15,1,,,,,ニホングローバルイリョウジンザイイクセイキョウカイ,0
1545,7011201024417,新規,0,2023-02-15,2023-02-15,株式会社ＣＵＲＵ　ＪＡＰＡＮ,,株式会社,東京都,中野区,本町３丁目２６番４２号,,13,114,1640012,,,,,,,2023-02-15,1,,,,,クルジャパン,0
1558,7011803005517,新規,0,2023-02-15,2023-02-15,合同会社チムドンドン,,合同会社,東京都,足立区,一ツ家３丁目５番５号ピュアナチュレ（Ｎａｔｕｒｅ）一ツ家１０１,,13,121,1210075,,,,,,,2023-02-15,1,,,,,,0
1559,7011803005525,新規,0,2023-02-15,2023-02-15,合同会社エストウェイ,,合同会社,東京都,足立区,綾瀬１丁目１８番１２号,,13,121,1200005,,,,,,,2023-02-15,1,,,,,エストウェイ,0
1560,7012301013318,新規,0,2023-02-15,2023-02-15,株式会社ＢＯＮＩＣＲＯＷＮ,,株式会社,東京都,町田市,野津田町２４０５－８,,13,209,1950063,,,,,,,2023-02-15,1,,,,,ボニクラウン,0
1576,7020003023270,新規,0,2023-02-15,2023-02-15,Ｊｏｙｃａｓ　ＦｅＴｅｃｈ合同会社,,合同会社,神奈川県,川崎市川崎区,大島１丁目２４番２号,,14,131,2100834,,,,,,,2023-02-15,1,,,,,ジョイキャスフェテク,0
1577,7020003023329,新規,0,2023-02-15,2023-02-15,ＢＩＺ映像合同会社,,合同会社,神奈川県,横浜市神奈川区,栄町５－１横浜クリエーションスクエア１４階,,14,102,2210052,,,,,,,2023-02-15,1,,,,,ビズエイゾウ,0
1578,7020005015852,新規,0,2023-02-15,2023-02-15,一般社団法人地域医療支援機構ＳＯＣＯＭ,,その他の設立登記法人,神奈川県,横浜市西区,北幸２丁目１０番地２８むつみビル３Ｆ,,14,103,2200004,,,,,,,2023-02-15,1,,,,,チイキイリョウシエンキコウソコム,0
1581,7021001078208,新規,0,2023-02-15,2023-02-15,株式会社妃,,株式会社,神奈川県,海老名市,中野２丁目２５番１５－３０２号,,14,215,2430425,,,,,,,2023-02-15,1,,,,,キサキ,0
1586,7030001152442,新規,0,2023-02-15,2023-02-15,株式会社サンヘヴン,,株式会社,埼玉県,新座市,馬場２丁目１１番２号,,11,230,3520016,,,,,,,2023-02-15,1,,,,,サンヘヴン,0
1591,7030003021100,新規,0,2023-02-15,2023-02-15,啓合合同会社,,合同会社,埼玉県,川口市,西川口１丁目３０番２０－６０３号室,,11,203,3320021,,,,,,,2023-02-15,1,,,,,ケイゴウ,0
1592,7030003021182,新規,0,2023-02-15,2023-02-15,合同会社松本電設,,合同会社,埼玉県,春日部市,豊町４丁目２番地２６,,11,214,3440066,,,,,,,2023-02-15,1,,,,,マツモトデンセツ,0
1593,7030003021190,新規,0,2023-02-15,2023-02-15,合同会社スタジオン,,合同会社,埼玉県,所沢市,緑町４丁目３８番５号,,11,208,3591111,,,,,,,2023-02-15,1,,,,,スタジオン,0
1602,7040001127096,新規,0,2023-02-15,2023-02-15,株式会社ボンドン,,株式会社,千葉県,船橋市,飯山満町２丁目４８５番地９,,12,204,2740822,,,,,,,2023-02-15,1,,,,,ボンドン,0
1603,7040001127113,新規,0,2023-02-15,2023-02-15,株式会社ＣＨＲＯＮＯＳ,,株式会社,千葉県,市川市,新浜１丁目１番１号アビタシオン薮崎４０１,,12,203,2720136,,,,,,,2023-02-15,1,,,,,クロノス,0
1605,7040003021875,新規,0,2023-02-15,2023-02-15,合同会社Ａ．Ｙ’ｓ,,合同会社,千葉県,千葉市緑区,平川町２３０３番地,,12,105,2660004,,,,,,,2023-02-15,1,,,,,アユズ,0
1606,7040003021958,新規,0,2023-02-15,2023-02-15,ＳＴ合同会社,,合同会社,千葉県,松戸市,牧の原２丁目２５５番地ボンメゾン１０２号,,12,207,2702267,,,,,,,2023-02-15,1,,,,,エスティー,0
1607,7040003021966,新規,0,2023-02-15,2023-02-15,合同会社Ｍ＆Ｓ,,合同会社,千葉県,千葉市美浜区,浜田１丁目３番地コロンブスシティ１３１４号,,12,106,2610025,,,,,,,2023-02-15,1,,,,,エムアンドエス,0
1610,7050001052392,新規,0,2023-02-15,2023-02-15,Ｈｅｉｒｌｏｏｍ株式会社,,株式会社,茨城県,石岡市,国府７丁目１１番４５号,,08,205,3150014,,,,,,,2023-02-15,1,,,,,エアルーム,0
1616,7080103002747,新規,0,2023-02-15,2023-02-15,フェアリーファーム合同会社,,合同会社,静岡県,沼津市,大岡１８８７番地１,,22,203,4100022,,,,,,,2023-02-15,1,,,,,フェアリーファーム,0
1621,7100001036159,新規,0,2023-02-15,2023-02-15,株式会社トラストサービス,,株式会社,長野県,松本市,出川２丁目１６番９号,,20,202,3900827,,,,,,,2023-02-15,1,,,,,トラストサービス,0
1628,7120001252489,新規,0,2023-02-15,2023-02-15,Ｍ．Ｆ株式会社,,株式会社,大阪府,大阪市福島区,福島５丁目１３番１８－７２０号室,,27,103,5530003,,,,,,,2023-02-15,1,,,,,エムエフ,0
1629,7120001252530,新規,0,2023-02-15,2023-02-15,株式会社ハピネス,,株式会社,大阪府,大阪市平野区,加美東７丁目３番２１号,,27,126,5470002,,,,,,,2023-02-15,1,,,,,ハピネス,0
1630,7120001252547,新規,0,2023-02-15,2023-02-15,株式会社バロック,,株式会社,大阪府,大阪市旭区,清水２丁目１９番１３号,,27,117,5350021,,,,,,,2023-02-15,1,,,,,バロック,0
1631,7120001252555,新規,0,2023-02-15,2023-02-15,メノホーム株式会社,,株式会社,大阪府,大阪市浪速区,敷津西１丁目６－４－２０２号室,,27,111,5560015,,,,,,,2023-02-15,1,,,,,メノホーム,0
1632,7120001252563,新規,0,2023-02-15,2023-02-15,株式会社Ｋａ　Ｐｉｌｉｎａ,,株式会社,大阪府,大阪市北区,同心２丁目１０番２３－６０２号,,27,127,5300035,,,,,,,2023-02-15,1,,,,,カピリナ,0
1634,7120101067003,新規,0,2023-02-15,2023-02-15,福盛和株式会社,,株式会社,大阪府,泉大津市,東港町二丁目２６番,,27,206,5950051,,,,,,,2023-02-15,1,,,,,フクショウワ,0
1642,7130001073678,新規,0,2023-02-15,2023-02-15,一建設株式会社,,株式会社,京都府,綴喜郡井手町,大字井手小字野神４０番地の３,,26,343,6100302,,,,,,,2023-02-15,1,,,,,ハジメケンセツ,0
1646,7140001129099,新規,0,2023-02-15,2023-02-15,３Ｌｓ株式会社,,株式会社,兵庫県,西宮市,馬場町１－１３－１１０２,,28,204,6620915,,,,,,,2023-02-15,1,,,,,スリーエルエス,0
1647,7140001129132,新規,0,2023-02-15,2023-02-15,ｂ２株式会社,,株式会社,兵庫県,神戸市中央区,浜辺通４丁目１番２３号,,28,110,6510083,,,,,,,2023-02-15,1,,,,,ビーツー,0
1648,7140001129149,新規,0,2023-02-15,2023-02-15,Ｈａｒｉｍａ　Ｃｒｅａｔｉｖｅ株式会社,,株式会社,兵庫県,加西市,北条町北条４２番地の６,,28,220,6752312,,,,,,,2023-02-15,1,,,,,,0
1650,7140003018721,新規,0,2023-02-15,2023-02-15,合同会社Ｍｏｖｅｕｐ　Ｄｅｓｉｇｎ,,合同会社,兵庫県,神戸市西区,神出町小束野３５番地５１号,,28,111,6512304,,,,,,,2023-02-15,1,,,,,ムーヴアップデザイン,0
1654,7160001024835,新規,0,2023-02-15,2023-02-15,株式会社渡邉一工務店,,株式会社,滋賀県,草津市,橋岡町７５番地２,,25,206,5250065,,,,,,,2023-02-15,1,,,,,ワタナベイチコウムテン,0
1666,7180301037106,新規,0,2023-02-15,2023-02-15,株式会社Ｍ’ｓＴｒａｎｓｐｏｒｔ,,株式会社,愛知県,安城市,二本木新町２丁目１１番地１,,23,212,4460075,,,,,,,2023-02-15,1,,,,,エムズトランスポート,0
1668,7180303005614,新規,0,2023-02-15,2023-02-15,合同会社ふくしげ,,合同会社,愛知県,豊川市,高見町４丁目１３―２,,23,207,4420883,,,,,,,2023-02-15,1,,,,,フクシゲ,0
1672,7220001025273,新規,0,2023-02-15,2023-02-15,株式会社ＴＯＭＯＴＡＴＵ,,株式会社,石川県,白山市,村井町７９３番地１３,,17,210,9240032,,,,,,,2023-02-15,1,,,,,トモタツ,0
1674,7220003003450,新規,0,2023-02-15,2023-02-15,合同会社アーバインリサーチ,,合同会社,石川県,金沢市,堀川新町５番１号アリマビル３Ｆ,,17,201,9200849,,,,,,,2023-02-15,1,,,,,アーバインリサーチ,0
1677,7240001061093,新規,0,2023-02-15,2023-02-15,株式会社ＵＥＪＩ,,株式会社,広島県,広島市南区,翠３丁目１１番１７－２０４号,,34,103,7340005,,,,,,,2023-02-15,1,,,,,ウエジ,0
1678,7240001061102,新規,0,2023-02-15,2023-02-15,株式会社イーブン,,株式会社,広島県,広島市佐伯区,五日市駅前１丁目１２番９号,,34,108,7315125,,,,,,,2023-02-15,1,,,,,イーブン,0
1684,7250003003225,新規,0,2023-02-15,2023-02-15,合同会社おひさま居宅介護支援事業所,,合同会社,山口県,宇部市,西宇部北４丁目３番５号,,35,202,7590211,,,,,,,2023-02-15,1,,,,,オヒサマキョタクカイゴシエンジギョウショ,0
1693,7290001100565,新規,0,2023-02-15,2023-02-15,株式会社フィールドリゾート,,株式会社,福岡県,福岡市中央区,荒津２丁目１－７,,40,133,8100076,,,,,,,2023-02-15,1,,,,,フィールドリゾート,0
1694,7290001100581,新規,0,2023-02-15,2023-02-15,株式会社エド＆クロ,,株式会社,福岡県,福岡市博多区,博多駅東２丁目６－１４正和ビル２０１,,40,132,8120013,,,,,,,2023-02-15,1,,,,,エドアンドクロ,0
1697,7290801029285,新規,0,2023-02-15,2023-02-15,株式会社ベアフルーツ,,株式会社,福岡県,北九州市小倉北区,片野新町２丁目１番４－２０３号,,40,106,8020062,,,,,,,2023-02-15,1,,,,,ベアフルーツ,0
1701,7320001019570,新規,0,2023-02-15,2023-02-15,株式会社Ｌｏｆｔｙ,,株式会社,大分県,別府市,大字鉄輪８番地の６２,,44,202,8740000,,,,,,,2023-02-15,1,,,,,ラフティ,0
1707,7350003004295,新規,0,2023-02-15,2023-02-15,カエル訪問看護ステーション合同会社,,合同会社,宮崎県,日南市,吾田東９丁目１－３０,,45,204,8892541,,,,,,,2023-02-15,1,,,,,カエルホウモンカンゴステーション,0
1715,7370001049605,新規,0,2023-02-15,2023-02-15,永幸株式会社,,株式会社,宮城県,仙台市若林区,荒井７丁目３０番地の９,,04,103,9840032,,,,,,,2023-02-15,1,,,,,エイコウ,0
1716,7370003005993,新規,0,2023-02-15,2023-02-15,あんしんの杜合同会社,,合同会社,宮城県,仙台市泉区,将監１丁目８番４号,,04,105,9813132,,,,,,,2023-02-15,1,,,,,アンシンノモリ,0
1718,7380001033475,新規,0,2023-02-15,2023-02-15,株式会社ななみコーポレーション,,株式会社,福島県,郡山市,横塚２丁目１５番１３号,,07,203,9638803,,,,,,,2023-02-15,1,,,,,ナナミコーポレーション,0
1735,7430003014740,新規,0,2023-02-15,2023-02-15,合同会社Ｄ‐ＧＲＯＵＮＤ,,合同会社,北海道,札幌市東区,北二十六条東３丁目１番３２－９０３号,,01,103,0650026,,,,,,,2023-02-15,1,,,,,ディーグラウンド,0
1741,7700150108895,新規,0,2023-02-15,2022-05-20,ＣＩＲＣＵＩＴ,,その他,東京都,台東区,浅草５丁目７２－１１岩瀬様方,,13,106,1110032,,,,,,,2022-05-20,1,,,,,サーキツト,0
1742,7700150114340,新規,0,2023-02-15,2023-02-15,ＥＬＩＴＥ　ＬＡＮＫＡ　ＥＮＴＥＲＰＲＩＳＥＳ,,外国会社等,千葉県,山武市,松ヶ谷ロ９２６番地２オフィスＦ１,,12,237,2891303,スリランカ民主社会主義共和国、アビッサウェラ、コロンボロード、２９２,,,,,,2023-02-15,1,,,,,エリートランカエンタープライセス,0
1757,8010001232963,新規,0,2023-02-15,2023-02-15,２５株式会社,,株式会社,東京都,中央区,日本橋馬喰町２丁目３番３号,,13,102,1030002,,,,,,,2023-02-15,1,,,,,ニジュウゴ,0
1758,8010001233029,新規,0,2023-02-15,2023-02-15,株式会社ＹＮＤ,,株式会社,東京都,中央区,銀座１丁目１９－１０ＴＮＢビル２Ｆ,,13,102,1040061,,,,,,,2023-02-15,1,,,,,ワイエヌディー,0
1759,8010001233037,新規,0,2023-02-15,2023-02-15,ＰｉｇｅｏｎＥｙｅ株式会社,,株式会社,東京都,中央区,銀座１丁目１２－４Ｎ＆ＥＢＬＤ．７階,,13,102,1040061,,,,,,,2023-02-15,1,,,,,ピジョンアイ,0
1775,8010401172454,新規,0,2023-02-15,2023-02-15,Ｖｅｒｄａｓｈｉｏｎ株式会社,,株式会社,東京都,港区,南青山３丁目１番３６号青山丸竹ビル６Ｆ,,13,103,1070062,,,,,,,2023-02-15,1,,,,,ヴェルダシオン,0
1776,8010401172512,新規,0,2023-02-15,2023-02-15,ニューブリッジ４株式会社,,株式会社,東京都,港区,西新橋２丁目８番６号,,13,103,1050003,,,,,,,2023-02-15,1,,,,,ニューブリッジフォー,0
1777,8010401172561,新規,0,2023-02-15,2023-02-15,ＴＲ株式会社,,株式会社,東京都,港区,赤坂２丁目１９番４号関ビル４階,,13,103,1070052,,,,,,,2023-02-15,1,,,,,ティーアール,0
1781,8010405021780,新規,0,2023-02-15,2023-02-15,一般社団法人日本オブスタクルスポーツ協会,,その他の設立登記法人,東京都,港区,北青山３丁目１４番４号,,13,103,1070061,,,,,,,2023-02-15,1,,,,,ニホンオブスタクルスポーツキョウカイ,0
1788,8010801033702,新規,0,2023-02-15,2023-02-15,株式会社サキガケル,,株式会社,東京都,大田区,大森東１丁目３番１１号,,13,111,1430012,,,,,,,2023-02-15,1,,,,,,0
1789,8010901052528,新規,0,2023-02-15,2023-02-15,スパイスオブライフ株式会社,,株式会社,東京都,世田谷区,下馬５丁目１７－２,,13,112,1540002,,,,,,,2023-02-15,1,,,,,スパイスオブライフ,0
1790,8010901052536,新規,0,2023-02-15,2023-02-15,楽天トータルソリューション株式会社,,株式会社,東京都,世田谷区,玉川１丁目１４番１号,,13,112,1580094,,,,,,,2023-02-15,1,,,,,ラクテントータルソリューション,0
1791,8010901052544,新規,0,2023-02-15,2023-02-15,株式会社ＣＨＡＭＰＩＯＮＳ　ＯＲＤＥＲ,,株式会社,東京都,世田谷区,代田４丁目３番３０－２０１号,,13,112,1550033,,,,,,,2023-02-15,1,,,,,チャンピオンズオーダー,0
1797,8011001152383,新規,0,2023-02-15,2023-02-15,Ｈｕｍａｎ　Ｃａｐｉｔａｌ　Ｌｉｎｋｓ株式会社,,株式会社,東京都,渋谷区,渋谷２丁目１９番１５号宮益坂ビルディング６０９,,13,113,1500002,,,,,,,2023-02-15,1,,,,,ヒューマンキャピタルリンクス,0
1798,8011001152557,新規,0,2023-02-15,2023-02-15,株式会社ＰａｌｍＴｒｅｅｓ,,株式会社,東京都,渋谷区,神宮前６丁目２３番４号桑野ビル２階,,13,113,1500001,,,,,,,2023-02-15,1,,,,,パームツリーズ,0
1801,8011101101843,新規,0,2023-02-15,2023-02-15,株式会社ロケットスター,,株式会社,東京都,新宿区,新宿２丁目１１－７第３３宮庭ビル４１３,,13,104,1600022,,,,,,,2023-02-15,1,,,,,ロケットスター,0
1804,8011103012709,新規,0,2023-02-15,2023-02-15,ＡｉｒＢａｎｋ合同会社,,合同会社,東京都,新宿区,新宿７丁目３－４７Ｓｋｙｔｅｒｒａｃｅ東新宿Ａ棟３Ｆ,,13,104,1600022,,,,,,,2023-02-15,1,,,,,エアバンク,0
1806,8011201024424,新規,0,2023-02-15,2023-02-15,株式会社ジオニック,,株式会社,東京都,中野区,弥生町１丁目５５番５－６０５号,,13,114,1640013,,,,,,,2023-02-15,1,,,,,ジオニック,0
1814,8011801041942,新規,0,2023-02-15,2023-02-15,株式会社伊吹,,株式会社,東京都,足立区,梅田４丁目１１番３号,,13,121,1230851,,,,,,,2023-02-15,1,,,,,イブキ,0
1815,8011803005516,新規,0,2023-02-15,2023-02-15,合同会社チャバ２,,合同会社,東京都,足立区,綾瀬２丁目２９番３号２階,,13,121,1200005,,,,,,,2023-02-15,1,,,,,チャバニ,0
1818,8012403005807,新規,0,2023-02-15,2023-02-15,合同会社Ｃｒｙｓｔａｌ　Ｃｌｅａｒ　Ｌａｂｏ,,合同会社,東京都,稲城市,押立１６９８－６－６０３,,13,225,2060811,,,,,,,2023-02-15,1,,,,,クリスタルクリアラボ,0
1831,8020001150297,新規,0,2023-02-15,2023-02-15,株式会社ＩＷオフィス,,株式会社,神奈川県,横浜市中区,山下町１６８番地１レイトンハウス横浜１５０３号室,,14,104,2310023,,,,,,,2023-02-15,1,,,,,アイダブリュオフィス,0
1839,8020003023336,新規,0,2023-02-15,2023-02-15,にじいろ合同会社,,合同会社,神奈川県,川崎市幸区,塚越３丁目４８４番地４パークホームズ新川崎フォレストコート２１０,,14,132,2120024,,,,,,,2023-02-15,1,,,,,ニジイロ,0
1840,8020003023344,新規,0,2023-02-15,2023-02-15,合同会社コトウリ,,合同会社,神奈川県,横浜市西区,浅間町１丁目４番３号ウィザードビル４０２,,14,103,2200072,,,,,,,2023-02-15,1,,,,,コトウリ,0
1842,8021001078198,新規,0,2023-02-15,2023-02-15,株式会社カインドッグス,,株式会社,神奈川県,平塚市,桜ケ丘５番４８号,,14,203,2540053,,,,,,,2023-02-15,1,,,,,カインドッグス,0
1843,8021001078215,新規,0,2023-02-15,2023-02-15,株式会社メビウスノア,,株式会社,神奈川県,平塚市,南金目１８０１番地の８,,14,203,2591201,,,,,,,2023-02-15,1,,,,,メビウスノア,0
1855,8030001152359,新規,0,2023-02-15,2023-02-15,株式会社ＴＧＳ,,株式会社,埼玉県,川口市,大字赤井１３５８番地１,,11,203,3340073,,,,,,,2023-02-15,1,,,,,ティージーエス,0
1856,8030001152400,新規,0,2023-02-15,2023-02-15,株式会社ＤＸＳｕｍｉｙａ,,株式会社,埼玉県,三郷市,番匠免１丁目４番３号,,11,237,3410056,,,,,,,2023-02-15,1,,,,,ディーエックススミヤ,0
1857,8030001152425,新規,0,2023-02-15,2023-02-15,株式会社ＧＥＡＲＳＴＡＧＥ,,株式会社,埼玉県,川口市,西川口６丁目３番１０号,,11,203,3320021,,,,,,,2023-02-15,1,,,,,ギアステージ,0
1859,8030003021181,新規,0,2023-02-15,2023-02-15,鯉平メンテナンス合同会社,,合同会社,埼玉県,さいたま市見沼区,卸町１丁目２３番地,,11,104,3370004,,,,,,,2023-02-15,1,,,,,コイヘイメンテナンス,0
1864,8040001127087,新規,0,2023-02-15,2023-02-15,株式会社明孝建材,,株式会社,千葉県,野田市,親野井１６２番地４７,,12,208,2700227,,,,,,,2023-02-15,1,,,,,メイコウケンザイ,0
1872,8070003004827,新規,0,2023-02-15,2023-02-15,ボヌール合同会社,,合同会社,群馬県,伊勢崎市,大正寺町１７６番地５,,10,204,3720841,,,,,,,2023-02-15,1,,,,,ボヌール,0
1879,8080103002746,新規,0,2023-02-15,2023-02-15,合同会社ヒューマンテック,,合同会社,静岡県,沼津市,西沢田４４９番地アクシスビル２０２,,22,203,4100007,,,,,,,2023-02-15,1,,,,,ヒューマンテック,0
1890,8120001252488,新規,0,2023-02-15,2023-02-15,三宝ホールディングス株式会社,,株式会社,大阪府,大阪市都島区,高倉町３丁目１４番４－４０２号,,27,102,5340011,,,,,,,2023-02-15,1,,,,,サンポウホールディングス,0
1891,8120001252538,新規,0,2023-02-15,2023-02-15,株式会社ひやくグループ,,株式会社,大阪府,大阪市北区,同心１丁目８番２５号ガレット南森町２０３号室,,27,127,5300035,,,,,,,2023-02-15,1,,,,,ヒヤクグループ,0
1892,8120001252546,新規,0,2023-02-15,2023-02-15,株式会社ＩＴＬＭ,,株式会社,大阪府,大阪市北区,東天満１丁目１０番１２号３階,,27,127,5300044,,,,,,,2023-02-15,1,,,,,アイティーエルエム,0
1893,8120001252562,新規,0,2023-02-15,2023-02-15,エクスマーケティング株式会社,,株式会社,大阪府,大阪市淀川区,西中島３丁目９番１３号ＮＬＣ新大阪８号館６Ｆ,,27,123,5320011,,,,,,,2023-02-15,1,,,,,エクスマーケティング,0
1894,8120001252570,新規,0,2023-02-15,2023-02-15,株式会社ＰＯＮＳ,,株式会社,大阪府,大阪市北区,梅田１丁目２番２号大阪駅前第２ビル１２－１２,,27,127,5300001,,,,,,,2023-02-15,1,,,,,ポンス,0
1895,8120001252579,新規,0,2023-02-15,2023-02-15,株式会社ＹｏｕｒＰｏｃｋｅｔ,,株式会社,大阪府,大阪市北区,梅田１丁目２番２号大阪駅前第２ビル１２－１２,,27,127,5300001,,,,,,,2023-02-15,1,,,,,ユアポケット,0
1910,8150001026170,新規,0,2023-02-15,2023-02-15,株式会社フォレストサイド,,株式会社,奈良県,宇陀市,榛原萩原２４５３番地４５号,,29,212,6330253,,,,,,,2023-02-15,1,,,,,フォレストサイド,0
1911,8160001024834,新規,0,2023-02-15,2023-02-15,株式会社イーストテック,,株式会社,滋賀県,近江八幡市,牧町２５８８番地３,,25,204,5230072,,,,,,,2023-02-15,1,,,,,イーストテック,0
1922,8180001154992,新規,0,2023-02-15,2023-02-15,株式会社アスライト,,株式会社,愛知県,名古屋市千種区,千種通７丁目２５番地の１,,23,101,4640855,,,,,,,2023-02-15,1,,,,,アスライト,0
1923,8180001155000,新規,0,2023-02-15,2023-02-15,ＧＲＩＴ　Ｃｏ．，Ｌｔｄ．株式会社,,株式会社,愛知県,名古屋市中区,栄３丁目１５番３３号栄ガスビル１３Ｆ,,23,106,4600008,,,,,,,2023-02-15,1,,,,,グリットカンパニーリミテッド,0
1927,8180003024657,新規,0,2023-02-15,2023-02-15,合同会社ＨＭ企画,,合同会社,愛知県,長久手市,杁ケ池４１２番地川本Ａｐｔ２０６,,23,238,4801116,,,,,,,2023-02-15,1,,,,,エイチエムキカク,0
1930,8190001030169,新規,0,2023-02-15,2023-02-15,株式会社三大商事,,株式会社,三重県,度会郡大紀町,金輪３８４番地９,,24,471,5192733,,,,,,,2023-02-15,1,,,,,サンダイショウジ,0
1932,8200001040959,新規,0,2023-02-15,2023-02-15,岐阜羽島環境テクノロジー株式会社,,株式会社,岐阜県,羽島市,堀津町３８２番地,,21,209,5016330,,,,,,,2023-02-15,1,,,,,ギフハシマカンキョウテクノロジー,0
1942,8260001037652,新規,0,2023-02-15,2023-02-15,株式会社ＳＴＣ,,株式会社,岡山県,岡山市北区,青江４丁目３番２３号ＡコートヴィレッジＩＩＩ２０５,00129441,33,101,7000941,,,,,,,2023-02-15,1,,,,,エスティーシー,0
1943,8270001008727,新規,0,2023-02-15,2023-02-15,株式会社ｔｈｉｎｋ,,株式会社,鳥取県,岩美郡岩美町,大字浦富１０４１番地１２,,31,302,6810003,,,,,,,2023-02-15,1,,,,,スィンク,0
1949,8290001100580,新規,0,2023-02-15,2023-02-15,株式会社ＷＡＬＫ,,株式会社,福岡県,福岡市中央区,港３丁目３番２５－２０１号ポートサイド港,,40,133,8100075,,,,,,,2023-02-15,1,,,,,ウォーク,0
1951,8290005018951,新規,0,2023-02-15,2023-02-15,一般社団法人幸輪ホールディングス,,その他の設立登記法人,福岡県,筑後市,大字久富１１３３番地,,40,211,8330056,,,,,,,2023-02-15,1,,,,,コウリンホールディングス,0
1952,8290801029284,新規,0,2023-02-15,2023-02-15,輝株式会社,,株式会社,福岡県,北九州市八幡東区,日の出３丁目４番１号１階,,40,108,8050004,,,,,,,2023-02-15,1,,,,,カガヤキ,0
1953,8290803004343,新規,0,2023-02-15,2023-02-15,合同会社ライジングスター,,合同会社,福岡県,北九州市小倉南区,北方４丁目１番１５号ロイヤルパレス１０２,,40,107,8020841,,,,,,,2023-02-15,1,,,,,ライジングスター,0
1959,8310001018275,新規,0,2023-02-15,2023-02-15,空き家ま社中株式会社,,株式会社,長崎県,長崎市,平間町１５０－１,,42,201,8510136,,,,,,,2023-02-15,1,,,,,アキヤマシャチュウ,0
1966,8360001031562,新規,0,2023-02-15,2023-02-15,株式会社ｓｏｔｏｒｉａ,,株式会社,沖縄県,名護市,字伊差川２７９番地,,47,209,9051152,,,,,,,2023-02-15,1,,,,,ソトリア,0
1967,8360001031570,新規,0,2023-02-15,2023-02-15,株式会社ＨＩＴ　ＧＲＯＵＰ　ＪＡＰＡＮ,,株式会社,沖縄県,浦添市,字前田１３１９番地ハピネスコート３０２,,47,208,9012102,,,,,,,2023-02-15,1,,,,,ヒットグループジャパン,0
1969,8370001049579,新規,0,2023-02-15,2023-02-15,株式会社ＤＡＶＩＤ　ＪＡＰＡＮ,,株式会社,宮城県,栗原市,若柳字川北堤下１４番地,,04,213,9895501,,,,,,,2023-02-15,1,,,,,ダビデジャパン,0
1970,8370001049612,新規,0,2023-02-15,2023-02-15,株式会社ランドロード,,株式会社,宮城県,富谷市,成田６丁目１８番地５７,,04,216,9813341,,,,,,,2023-02-15,1,,,,,ランドロード,0
1971,8370003005992,新規,0,2023-02-15,2023-02-15,合同会社ｍｉｃｏｔ,,合同会社,宮城県,仙台市泉区,山の寺３丁目２９番３号,,04,105,9813103,,,,,,,2023-02-15,1,,,,,ミコット,0
1974,8380001033482,新規,0,2023-02-15,2023-02-15,株式会社ＳＴコーポレーション,,株式会社,福島県,福島市,森合字谷地１０番地の１５,,07,201,9608003,,,,,,,2023-02-15,1,,,,,エスティーコーポレーション,0
1978,8390001017162,新規,0,2023-02-15,2023-02-15,株式会社ヤマガタベース,,株式会社,山形県,山形市,鳥居ケ丘１０番２０号,,06,201,9902433,,,,,,,2023-02-15,1,,,,,ヤマガタベース,0
1980,8410001013398,新規,0,2023-02-15,2023-02-15,株式会社アクシュ,,株式会社,秋田県,秋田市,寺内蛭根３丁目２４番１６号,,05,201,0110904,,,,,,,2023-02-15,1,,,,,アクシュ,0
1987,8430001088439,新規,0,2023-02-15,2023-02-15,株式会社ＨＳ設備工業,,株式会社,北海道,札幌市北区,太平八条４丁目７番１０号,,01,102,0028008,,,,,,,2023-02-15,1,,,,,エイチエスセツビコウギョウ,0
1988,8430001088447,新規,0,2023-02-15,2023-02-15,北海道ＥＦホールディングス株式会社,,株式会社,北海道,札幌市北区,北二十四条西１４丁目８番１０号,,01,102,0010024,,,,,,,2023-02-15,1,,,,,ホッカイドウイーエフホールディングス,0
2005,9010001233003,新規,0,2023-02-15,2023-02-15,株式会社スピリットサイエンティフィック・ジャパン,,株式会社,東京都,中央区,湊３丁目９番７号,,13,102,1040043,,,,,,,2023-02-15,1,,,,,スピリットサイエンティフィックジャパン,0
2006,9010001233028,新規,0,2023-02-15,2023-02-15,株式会社ＤｅＡｒｔｓ,,株式会社,東京都,千代田区,六番町６番地２０,,13,101,1020085,,,,,,,2023-02-15,1,,,,,ディーアーツ,0
2010,9010003039786,新規,0,2023-02-15,2023-02-15,Ｂｌｏｏｍ　Ｃｏｎｓｕｌｔｉｎｇ合同会社,,合同会社,東京都,中央区,銀座１丁目１２番４号Ｎ＆ＥＢＬＤ．７階,,13,102,1040061,,,,,,,2023-02-15,1,,,,,ブルームコンサルティング,0
2011,9010003039828,新規,0,2023-02-15,2023-02-15,ＳＧＥＴ第１蓄電所合同会社,,合同会社,東京都,千代田区,丸の内３丁目１番１号東京共同会計事務所内,,13,101,1000005,,,,,,,2023-02-15,1,,,,,エスゲットダイイチチクデンショ,0
2012,9010005036261,新規,0,2023-02-15,2023-02-15,一般社団法人熊本北部発電,,その他の設立登記法人,東京都,千代田区,丸の内３丁目１番１号東京共同会計事務所内,,13,101,1000005,,,,,,,2023-02-15,1,,,,,クマモトホクブハツデン,0
2019,9010401172511,新規,0,2023-02-15,2023-02-15,Ｂｉｇ　ｂａｎａｎａ株式会社,,株式会社,東京都,港区,六本木４丁目９番２－８０４号,,13,103,1060032,,,,,,,2023-02-15,1,,,,,ビッグバナナ,0
2020,9010401172560,新規,0,2023-02-15,2023-02-15,Ｂｉｒｓｔｏｎａｓ　Ｍｉｎｅｒａｌ　Ｗａｔｅｒ　Ｊａｐａｎ株式会社,,株式会社,東京都,港区,赤坂３丁目１６番１１号東海赤坂ビル２階,,13,103,1070052,,,,,,,2023-02-15,1,,,,,ビルシュトナスミネラルウオータージャパン,0
2027,9010501050014,新規,0,2023-02-15,2023-02-15,株式会社Ｏｎｅ　Ｗａｙ　Ｓｔｒｅｅｔ　Ｔｏｋｙｏ,,株式会社,東京都,台東区,北上野２丁目１４番３号,,13,106,1100014,,,,,,,2023-02-15,1,,,,,ワンウェイストリートトーキョー,0
2028,9010503006889,新規,0,2023-02-15,2023-02-15,高嶺合同会社,,合同会社,東京都,台東区,根岸１丁目１番１７号鶯泉楼駅前ビル５１５,,13,106,1100003,,,,,,,2023-02-15,1,,,,,タカミネ,0
2030,9010701043858,新規,0,2023-02-15,2023-02-15,株式会社ＳＹＣｏｍｐａｎｙ,,株式会社,東京都,品川区,上大崎３丁目５番３号万代目黒ビル６Ｆ,,13,109,1410021,,,,,,,2023-02-15,1,,,,,エスワイカンパニー,0
2039,9011001152564,新規,0,2023-02-15,2023-02-15,株式会社ＮｉｎｅＣｒａｆｔ,,株式会社,東京都,渋谷区,道玄坂１丁目１０番８号渋谷道玄坂東急ビル２Ｆ－Ｃ,,13,113,1500043,,,,,,,2023-02-15,1,,,,,ナインクラフト,0
2044,9011101101859,新規,0,2023-02-15,2023-02-15,宏錦株式会社,,株式会社,東京都,新宿区,榎町３４－３榎町ビル７階０３号室,,13,104,1620806,,,,,,,2023-02-15,1,,,,,コウキン,0
2046,9011103012708,新規,0,2023-02-15,2023-02-15,合同会社ＪＲ九州地域ファンド,,合同会社,東京都,新宿区,下宮比町１番４号,,13,104,1620822,,,,,,,2023-02-15,1,,,,,ジェイアールキュウシュウチイキファンド,0
2048,9011201024423,新規,0,2023-02-15,2023-02-15,株式会社アタレ,,株式会社,東京都,中野区,白鷺２丁目３８－３,,13,114,1650035,,,,,,,2023-02-15,1,,,,,アタレ,0
2050,9011401024909,新規,0,2023-02-15,2023-02-15,株式会社エコライフセカンド,,株式会社,東京都,板橋区,熊野町１５番８号４階,,13,119,1730025,,,,,,,2023-02-15,1,,,,,エコライフセカンド,0
2052,9011403003910,新規,0,2023-02-15,2023-02-15,合同会社良原芝永,,合同会社,東京都,板橋区,南常盤台１丁目２２番１１－１２０３号,,13,119,1740072,,,,,,,2023-02-15,1,,,,,ヨシハラシエイ,0
2055,9011801041941,新規,0,2023-02-15,2023-02-15,ＲｅＶｉ株式会社,,株式会社,東京都,足立区,西綾瀬２丁目１８番１０－６０３号,,13,121,1200014,,,,,,,2023-02-15,1,,,,,レヴィ,0
2056,9012301013316,新規,0,2023-02-15,2023-02-15,株式会社オブアライズ,,株式会社,東京都,町田市,鶴間３丁目１６番地１２,,13,209,1940004,,,,,,,2023-02-15,1,,,,,オブアライズ,0
2057,9012401040185,新規,0,2023-02-15,2023-02-15,株式会社鼎盛,,株式会社,東京都,調布市,入間町２丁目２番地１,,13,208,1820004,,,,,,,2023-02-15,1,,,,,テイセイ,0
2059,9012403005806,新規,0,2023-02-15,2023-02-15,合同会社Ｃｒｙｓｔａｌ　Ｆｌｏｗｅｒｓ,,合同会社,東京都,稲城市,押立１６９８－６－６０３,,13,225,2060811,,,,,,,2023-02-15,1,,,,,クリスタルフラワーズ,0
2064,9013301050340,新規,0,2023-02-15,2023-02-15,株式会社ＨＡＬＡＫＩ,,株式会社,東京都,豊島区,西池袋５丁目１８番１１号第３愛和ビル５階,,13,116,1710021,,,,,,,2023-02-15,1,,,,,ハルアキ,0
2071,9020001150271,新規,0,2023-02-15,2023-02-15,株式会社砂子コンサルティング,,株式会社,神奈川県,川崎市川崎区,砂子２丁目１－７太陽軒ビル５階,,14,131,2100006,,,,,,,2023-02-15,1,,,,,イサゴコンサルティング,0
2072,9020001150288,新規,0,2023-02-15,2023-02-15,株式会社Ｌａｋｓｈｍｉ,,株式会社,神奈川県,横浜市中区,元町１丁目７６番１号アルタ元町２階,,14,104,2310861,,,,,,,2023-02-15,1,,,,,ラクシュミー,0
2083,9021001078206,新規,0,2023-02-15,2023-02-15,株式会社あさひ,,株式会社,神奈川県,横須賀市,三春町４丁目１７番地１０２,,14,201,2380014,,,,,,,2023-02-15,1,,,,,アサヒ,0
2086,9021003012773,新規,0,2023-02-15,2023-02-15,ＴＡＨＲ合同会社,,合同会社,神奈川県,逗子市,桜山２丁目２番５３号コウチテラスＡ,,14,208,2490005,,,,,,,2023-02-15,1,,,,,タハリ,0
2093,9030001152424,新規,0,2023-02-15,2023-02-15,エコデザインホールディングス株式会社,,株式会社,埼玉県,比企郡小川町,大字青山９２６番地１,,11,343,3550324,,,,,,,2023-02-15,1,,,,,エコデザインホールディングス,0
2094,9030001152432,新規,0,2023-02-15,2023-02-15,ｋ２ＣＬＵＢ株式会社,,株式会社,埼玉県,川口市,西青木３丁目３番６－７号,,11,203,3320035,,,,,,,2023-02-15,1,,,,,ケーツークラブ,0
2100,9030003021180,新規,0,2023-02-15,2023-02-15,合同会社ファインシステム,,合同会社,埼玉県,富士見市,水谷東３丁目４５番１２号,,11,235,3540013,,,,,,,2023-02-15,1,,,,,ファインシステム,0
2105,9040001127045,新規,0,2023-02-15,2023-02-15,株式会社ビノード,,株式会社,千葉県,松戸市,日暮４丁目１１番地の６,,12,207,2702253,,,,,,,2023-02-15,1,,,,,ビノード,0
2106,9040001127061,新規,0,2023-02-15,2023-02-15,株式会社Ｎ‐軽貨物団,,株式会社,千葉県,千葉市中央区,星久喜町４６９番地１４マノワールフルールＢ２０２,,12,101,2600808,,,,,,,2023-02-15,1,,,,,エヌケイカモツダン,0
2107,9040001127086,新規,0,2023-02-15,2023-02-15,株式会社ＣＺＣ,,株式会社,千葉県,柏市,桜台１番６－１０１号,,12,217,2770012,,,,,,,2023-02-15,1,,,,,シーゼットシー,0
2108,9040001127111,新規,0,2023-02-15,2023-02-15,株式会社ＡＲＣＳ,,株式会社,千葉県,富里市,御料９１３番地２２（コンフォート葉山ＩＶ２０３）,00129448,12,233,2860211,,,,,,,2023-02-15,1,,,,,アークス,0
2112,9040003021948,新規,0,2023-02-15,2023-02-15,合同会社ＨＯＴ＆ＩＣＥ,,合同会社,千葉県,佐倉市,南ユーカリが丘１番地１Ａ－７０３号,,12,212,2850859,,,,,,,2023-02-15,1,,,,,ホットアンドアイス,0
2113,9050001052408,新規,0,2023-02-15,2023-02-15,株式会社Ｓｙｍｂｉｏｓｉｓ,,株式会社,茨城県,土浦市,並木３丁目９番１０号,,08,203,3000061,,,,,,,2023-02-15,1,,,,,シンビオシス,0
2119,9060003004414,新規,0,2023-02-15,2023-02-15,Ｈａｓｈｍｉ　Ｍｏｔｏｒｓ合同会社,,合同会社,栃木県,日光市,室瀬５０９番地,,09,206,3211275,,,,,,,2023-02-15,1,,,,,ハシュミモータース,0
2142,9120001252479,新規,0,2023-02-15,2023-02-15,株式会社もず,,株式会社,大阪府,大阪市住之江区,南港北２丁目１番１０号ＡＴＣビル３Ｆ,,27,125,5590034,,,,,,,2023-02-15,1,,,,,モズ,0
2143,9120001252495,新規,0,2023-02-15,2023-02-15,匠心舍株式会社,,株式会社,大阪府,大阪市住吉区,遠里小野６丁目１７－１８（５０４号）,,27,120,5580032,,,,,,,2023-02-15,1,,,,,ショウシンシャ,0
2144,9120001252553,新規,0,2023-02-15,2023-02-15,株式会社ＭＪＰＩＲＡＴＥＳ,,株式会社,大阪府,大阪市西淀川区,柏里３丁目１２番６号中尾ビル３階,,27,113,5550022,,,,,,,2023-02-15,1,,,,,エムジェイパイレーツ,0
2145,9120001252561,新規,0,2023-02-15,2023-02-15,株式会社ＳＥＨ,,株式会社,大阪府,大阪市中央区,谷町２丁目９番３－３４０３号,,27,128,5400012,,,,,,,2023-02-15,1,,,,,エスイーエイチ,0
2149,9120101067001,新規,0,2023-02-15,2023-02-15,日本営業支援センター株式会社,,株式会社,大阪府,堺市北区,長曽根町１３０番４２,,27,146,5918025,,,,,,,2023-02-15,1,,,,,ニホンエイギョウシエンセンター,0
2152,9120901047136,新規,0,2023-02-15,2023-02-15,株式会社ＮＯＡＭ,,株式会社,大阪府,吹田市,山田西１丁目３０番Ａ－３０４号,,27,205,5650824,,,,,,,2023-02-15,1,,,,,ノアム,0
2153,9120901047144,新規,0,2023-02-15,2023-02-15,株式会社ジャパンビルド,,株式会社,大阪府,高槻市,芥川町１丁目１１番９号,,27,207,5691123,,,,,,,2023-02-15,1,,,,,ジャパンビルド,0
2159,9130001073676,新規,0,2023-02-15,2023-02-15,株式会社ｈａｃｈｉ,,株式会社,京都府,京田辺市,薪里ノ内６３番地１３,,26,211,6100341,,,,,,,2023-02-15,1,,,,,ハチ,0
2164,9140001129139,新規,0,2023-02-15,2023-02-15,株式会社ライティング・ラボ,,株式会社,兵庫県,明石市,小久保１２０番地の５５Ｃ－９０８号,,28,203,6730005,,,,,,,2023-02-15,1,,,,,ライティングラボ,0
2167,9150001026145,新規,0,2023-02-15,2023-02-15,西蓮株式会社,,株式会社,奈良県,奈良市,佐紀町２１６４番地宗教法人西蓮寺,,29,201,6308003,,,,,,,2023-02-15,1,,,,,サイレン,0
2187,9180303005612,新規,0,2023-02-15,2023-02-15,ワイズ合同会社,,合同会社,愛知県,高浜市,田戸町５丁目６番地１０７,,23,227,4441323,,,,,,,2023-02-15,1,,,,,ワイズ,0
2193,9240001061091,新規,0,2023-02-15,2023-02-15,株式会社ｉ‐Ｍｏｄｅｌｓ,,株式会社,広島県,広島市南区,向洋新町３丁目１５番１８号,,34,103,7340055,,,,,,,2023-02-15,1,,,,,アイモデルス,0
2194,9240001061100,新規,0,2023-02-15,2023-02-15,株式会社ｋ‐ｄｅｎ,,株式会社,広島県,広島市安佐南区,山本６丁目３０番２－６号,,34,105,7310137,,,,,,,2023-02-15,1,,,,,ケーデン,0
2199,9250001019964,新規,0,2023-02-15,2023-02-15,株式会社ＳａｋｕｒａＴｅｒｒａｃｅ,,株式会社,山口県,岩国市,車町１丁目１５番１号,,35,208,7400026,,,,,,,2023-02-15,1,,,,,サクラテラス,0
2204,9290001100563,新規,0,2023-02-15,2023-02-15,ラッキーアンドカンパニー株式会社,,株式会社,福岡県,福岡市城南区,鳥飼４丁目３番２５－１号,,40,136,8140103,,,,,,,2023-02-15,1,,,,,ラッキーアンドカンパニー,0
2205,9290001100588,新規,0,2023-02-15,2023-02-15,北嶋不動産株式会社,,株式会社,福岡県,福岡市中央区,舞鶴２丁目４番１号舞鶴Ｔ＆Ｋビル２０１号,,40,133,8100073,,,,,,,2023-02-15,1,,,,,キタジマフドウサン,0
2207,9290003013540,新規,0,2023-02-15,2023-02-15,合同会社はるひ,,合同会社,福岡県,春日市,星見ヶ丘３丁目１３２番地,,40,218,8160849,,,,,,,2023-02-15,1,,,,,ハルヒ,0
2213,9290801029283,新規,0,2023-02-15,2023-02-15,株式会社ファーストブルーム,,株式会社,福岡県,鞍手郡鞍手町,大字小牧２３３３番地４,,40,402,8071311,,,,,,,2023-02-15,1,,,,,ファーストブルーム,0
2214,9290801029291,新規,0,2023-02-15,2023-02-15,南峰株式会社,,株式会社,福岡県,北九州市八幡西区,小嶺台１丁目１２番２－２１３号,,40,109,8070082,,,,,,,2023-02-15,1,,,,,ナンポウ,0
2219,9320003004024,新規,0,2023-02-15,2023-02-15,合同会社ゼロイチＯＩＴＡ,,合同会社,大分県,日田市,大字日高９５番地３,,44,204,8770000,,,,,,,2023-02-15,1,,,,,ゼロイチオオイタ,0
2224,9330001030599,新規,0,2023-02-15,2023-02-15,株式会社ＬＩＧＨＴＳＷＥＬＬ,,株式会社,熊本県,熊本市東区,御領２丁目１－２－２,,43,102,8618035,,,,,,,2023-02-15,1,,,,,ライトスウェル,0
2227,9330003009724,新規,0,2023-02-15,2023-02-15,合同会社Ｓａｍｉｉ,,合同会社,熊本県,八代市,袋町１番１８号,,43,202,8660855,,,,,,,2023-02-15,1,,,,,サミイ,0
2237,9370001049603,新規,0,2023-02-15,2023-02-15,株式会社エドワードライヴエンターテインメント,,株式会社,宮城県,仙台市青葉区,本町１丁目１１番２号,,04,101,9800014,,,,,,,2023-02-15,1,,,,,エドワードライヴエンターテインメント,0
2238,9370001049611,新規,0,2023-02-15,2023-02-15,株式会社ＴＰＳホールディングス,,株式会社,宮城県,仙台市泉区,向陽台５丁目１８番４号,,04,105,9813102,,,,,,,2023-02-15,1,,,,,ティーピーエスホールディングス,0
2239,9370003005991,新規,0,2023-02-15,2023-02-15,合同会社堀内不動産,,合同会社,宮城県,登米市,中田町石森字加賀野田中５０番地５,,04,212,9870601,,,,,,,2023-02-15,1,,,,,ホリウチフドウサン,0
2242,9380003005388,新規,0,2023-02-15,2023-02-15,合同会社ＴＩＭＩＡ,,合同会社,福島県,いわき市,平中平窪字細田１２番地コーポ細田１階１０２号室,,07,204,9708002,,,,,,,2023-02-15,1,,,,,ティミア,0
2244,9390001017161,新規,0,2023-02-15,2023-02-15,株式会社ワタナベエンジニアリング,,株式会社,山形県,米沢市,大字花沢３０２７番地の１,,06,202,9920021,,,,,,,2023-02-15,1,,,,,ワタナベエンジニアリング,0
2261,9490001010404,新規,0,2023-02-15,2023-02-15,ＣＲＥＡＳ株式会社,,株式会社,高知県,高知市,瀬戸東町２丁目１４６番地,,39,201,7810252,,,,,,,2023-02-15,1,,,,,クレアス,0
2264,9700150114339,新規,0,2023-02-15,2023-02-15,エム・ビ・エベレスト・ハンディクラフト・プライベート・リミテッド,,外国会社等,千葉県,市川市,八幡３丁目１２番１５号ヴィライースト１０１号室,,12,203,2720021,ネパール連邦民主共和国タルケショル市第１３区カトマンズ,,,,,,2023-02-15,1,,,,,エムビエベレストハンデイクラフトプライベートリミテツド,0
