sequenceNumber,corporateNumber,process,correct,updateDate,changeDate,name,nameImageId,kind,prefectureName,cityName,streetNumber,addressImageId,prefectureCode,cityCode,postCode,addressOutside,addressOutsideImageId,closeDate,closeCause,successorCorporateNumber,changeCause,assignmentDate,latest,enName,enPrefectureName,enCityName,enAddressOutside,furigana,hihyoji
1,1010001080353,登記記録の閉鎖等,0,2024-03-14,2024-03-07,日本トライ株式会社,,株式会社,東京都,千代田区,飯田橋３丁目１番地６号,,13,101,1020072,,,2024-03-07,清算の結了等,,,2015-10-05,1,,,,,ニホントライ,0
10,1010003032658,登記記録の閉鎖等,0,2024-03-14,2024-03-08,合同会社ＳＩＭＡインヴェストメント,,合同会社,東京都,千代田区,鍛冶町２丁目５番４号,,13,101,1010044,,,2024-03-08,清算の結了等,,,2020-07-27,1,,,,,シマインヴェストメント,0
20,1010401138899,登記記録の閉鎖等,0,2024-03-14,2024-03-04,Ａｐｐｌｕｓ　Ｊａｐａｎ株式会社,,株式会社,東京都,港区,西新橋３丁目２４番８号山内ビル３Ｆ,,13,103,1050003,,,2024-03-04,清算の結了等,,,2018-06-12,1,,,,,アプラスジャパン,0
31,1010801008215,登記記録の閉鎖等,0,2024-03-14,2024-03-08,東信電機工業株式会社,,株式会社,東京都,大田区,矢口２丁目１３番３号,,13,111,1460093,,,2024-03-08,清算の結了等,,,2015-10-05,1,,,,,トウシンデンキコウギョウ,0
37,1011001115157,登記記録の閉鎖等,0,2024-03-14,2024-03-11,株式会社ｃｄ．,,株式会社,東京都,渋谷区,千駄ヶ谷５丁目１２番８号,,13,113,1510051,,,2024-03-11,合併による解散等,4140001022298,令和６年３月１日神戸市中央区新港町７番１号株式会社フェリシモ（4140001022298）に合併し解散,2017-03-08,1,,,,,シーディ,0
63,1011801029878,登記記録の閉鎖等,0,2024-03-14,2024-03-11,株式会社エコテクノ,,株式会社,東京都,足立区,中央本町４丁目１１番２２号,,13,121,1210011,,,2024-03-11,清算の結了等,,,2015-10-05,1,,,,,エコテクノ,0
69,1012702006066,登記記録の閉鎖等,0,2024-03-14,2024-03-11,有限会社ユー・プランナー,,有限会社,東京都,西東京市,南町５丁目２番１０－２０１号,,13,229,1880012,,,2024-03-11,清算の結了等,,,2015-10-05,1,,,,,ユープランナー,0
73,1013305003021,登記記録の閉鎖等,0,2024-03-14,2024-03-11,一般社団法人セミリタイア実践会,,その他の設立登記法人,東京都,中央区,新富２丁目２番１２号,,13,102,1040041,,,2024-03-11,清算の結了等,,,2019-12-04,1,,,,,セミリタイアジッセンカイ,0
80,1020002066193,登記記録の閉鎖等,0,2024-03-14,2024-03-11,キレイニナレル有限会社,,有限会社,神奈川県,横浜市中区,山下町９１番地,,14,104,2310023,,,2024-03-11,清算の結了等,,,2015-10-05,1,,,,,キレイニナレル,0
101,1040001028663,登記記録の閉鎖等,0,2024-03-14,2024-03-08,株式会社市原水道興業,,株式会社,千葉県,鎌ケ谷市,鎌ケ谷８丁目５番４５号,,12,224,2730105,,,2024-03-08,清算の結了等,,,2015-10-05,1,,,,,イチハラスイドウコウギョウ,0
103,1040001106964,登記記録の閉鎖等,0,2024-03-14,2024-03-08,鷹塗装工業株式会社,,株式会社,千葉県,松戸市,常盤平５丁目１７番地の１０シャルネ９５－６０６号,,12,207,2702261,,,2024-03-08,清算の結了等,,,2018-11-21,1,,,,,タカトソウコウギョウ,0
105,1040002025379,登記記録の閉鎖等,0,2024-03-14,2024-03-11,有限会社松田工務店,,有限会社,千葉県,船橋市,高根町１４８５番地,,12,204,2740817,,,2024-03-11,清算の結了等,,,2015-10-05,1,,,,,マツダコウムテン,0
118,1060001008267,登記記録の閉鎖等,0,2024-03-14,2024-03-08,株式会社ＫＹ和田,,株式会社,栃木県,那須烏山市,城東字改場北２２６番地１,,09,215,3210622,,,2024-03-08,清算の結了等,,,2015-10-05,1,,,,,ケイワイワダ,0
141,1120901045196,登記記録の閉鎖等,0,2024-03-14,2024-03-04,ＵＮｅＸ株式会社,,株式会社,大阪府,吹田市,山田北９番２－１４号,,27,205,5650825,,,2024-03-04,清算の結了等,,,2021-11-25,1,,,,,ユーネックス,0
148,1130001032821,登記記録の閉鎖等,0,2024-03-14,2024-03-07,大成企画株式会社,,株式会社,京都府,宇治市,木幡御蔵山３９番地の１０６６,,26,204,6110002,,,2024-03-07,清算の結了等,,,2015-10-05,1,,,,,タイセイキカク,0
157,1160005000342,登記記録の閉鎖等,0,2024-03-14,2024-03-13,医療法人社団井上医院,,その他の設立登記法人,滋賀県,大津市,一里山４丁目２９番３３号,,25,201,5202153,,,2024-03-13,清算の結了等,,,2015-10-05,1,,,,,イノウエイイン,0
158,1180001040332,登記記録の閉鎖等,0,2024-03-14,2024-03-11,フシミコーポレーション株式会社,,株式会社,愛知県,名古屋市瑞穂区,雁道町３丁目１８番地,,23,108,4670877,,,2024-03-11,清算の結了等,,,2015-10-05,1,,,,,フシミコーポレーション,0
162,1180001134175,登記記録の閉鎖等,0,2024-03-14,2024-03-11,株式会社メディック,,株式会社,愛知県,名古屋市守山区,白沢町２６番地,,23,113,4630092,,,2024-03-11,清算の結了等,,,2018-10-23,1,,,,,メディック,0
164,1190005011691,登記記録の閉鎖等,0,2024-03-14,2024-03-12,一般社団法人いろえんぴつ,,その他の設立登記法人,三重県,伊勢市,中村町桜が丘１８３番地１２,,24,203,5160028,,,2024-03-12,清算の結了等,,,2022-04-11,1,,,,,イロエンピツ,0
165,1200002004341,登記記録の閉鎖等,0,2024-03-14,2024-03-11,有限会社松波荘,,有限会社,岐阜県,岐阜市,桜通６丁目２５番地,,21,201,5008318,,,2024-03-11,清算の結了等,,,2015-10-05,1,,,,,マツナミソウ,0
166,1200003002022,登記記録の閉鎖等,0,2024-03-14,2024-03-11,合資会社モクトラス,,合資会社,岐阜県,美濃加茂市,古井町下古井４５０番地１,,21,211,5050034,,,2024-03-11,清算の結了等,,,2015-10-05,1,,,,,モクトラス,0
208,1370602003379,登記記録の閉鎖等,0,2024-03-14,2024-03-08,橋本宅建有限会社,,有限会社,宮城県,多賀城市,高橋２丁目２０番２３号,,04,209,9850853,,,2024-03-08,清算の結了等,,,2015-10-05,1,,,,,ハシモトタッケン,0
221,1470002018166,登記記録の閉鎖等,0,2024-03-14,2024-03-08,有限会社オレンジ動物病院,,有限会社,香川県,さぬき市,志度５０５５番地６５,,37,206,7692101,,,2024-03-08,清算の結了等,,,2015-10-05,1,,,,,オレンジドウブツビョウイン,0
227,2010001161383,登記記録の閉鎖等,0,2024-03-14,2024-03-11,アカデメイア・マーケティング株式会社,,株式会社,東京都,中央区,東日本橋２丁目２８番４号日本橋ＣＥＴビル２階,,13,102,1030004,,,2024-03-11,清算の結了等,,,2015-10-05,1,,,,,アカデメイアマーケティング,0
241,2010401157709,登記記録の閉鎖等,0,2024-03-14,2024-03-11,Ｓｕｎ　Ｓｕｍｍｅｒ　Ｇａｒｄｅｎ株式会社,,株式会社,大阪府,守口市,藤田町１丁目４０番１０号,,27,209,5700014,,,2024-03-11,清算の結了等,,,2021-01-21,1,,,,,サンサマーガーデン,0
260,2010903006999,登記記録の閉鎖等,0,2024-03-14,2024-03-12,ＣＨＯＰＣＨＯＰ合同会社,,合同会社,東京都,世田谷区,弦巻３丁目９番１８－５０２号,,13,112,1540016,,,2024-03-12,清算の結了等,,,2021-12-08,1,,,,,チョップチョップ,0
269,2011103009223,登記記録の閉鎖等,0,2024-03-14,2024-03-11,川崎ベイＧＰ合同会社,,合同会社,東京都,新宿区,四谷２丁目９番地１５東京ユナイテッド綜合事務所内,,13,104,1600004,,,2024-03-11,清算の結了等,,,2019-11-06,1,,,,,カワサキベイジーピー,0
280,2011801012305,登記記録の閉鎖等,0,2024-03-14,2024-03-12,ミスズ薬品株式会社,,株式会社,東京都,足立区,加平１丁目８番１２号,,13,121,1210055,,,2024-03-12,清算の結了等,,,2015-10-05,1,,,,,ミスズヤクヒン,0
289,2012801017748,登記記録の閉鎖等,0,2024-03-14,2024-03-11,株式会社ユーリード,,株式会社,東京都,国立市,中１丁目９番８号第７叶ビル８Ｆ,,13,215,1860004,,,2024-03-11,清算の結了等,,,2017-01-24,1,,,,,ユーリード,0
290,2012801020966,登記記録の閉鎖等,0,2024-03-14,2024-03-11,浩逸株式会社,,株式会社,東京都,立川市,曙町１丁目５番６－２０３号,,13,202,1900012,,,2024-03-11,清算の結了等,,,2021-07-20,1,,,,,コウイツ,0
304,2020002069534,登記記録の閉鎖等,0,2024-03-14,2024-03-11,有限会社佐野電気工事,,有限会社,神奈川県,横浜市神奈川区,西寺尾２丁目２６番５－１０３号,,14,102,2210001,,,2024-03-11,清算の結了等,,,2015-10-05,1,,,,,,0
325,2040002058353,登記記録の閉鎖等,0,2024-03-14,2024-03-11,有限会社愛和,,有限会社,千葉県,成田市,飯田町９番地４１,,12,211,2860041,,,2024-03-11,清算の結了等,,,2015-10-05,1,,,,,,0
335,2070003002555,登記記録の閉鎖等,0,2024-03-14,2024-03-11,合同会社槇の木,,合同会社,群馬県,高崎市,宿大類町１２６２番地,,10,202,3700032,,,2024-03-11,清算の結了等,,,2016-01-08,1,,,,,マキノキ,0
338,2090002008816,登記記録の閉鎖等,0,2024-03-14,2024-03-11,有限会社山宮精機製作所,,有限会社,山梨県,笛吹市,御坂町上黒駒３４０７番地,,19,211,4060813,,,2024-03-11,清算の結了等,,,2015-10-05,1,,,,,,0
342,2090003001951,登記記録の閉鎖等,0,2024-03-14,2024-03-13,合同会社ｓｏｌ,,合同会社,山梨県,甲府市,朝日２丁目１３番地９号,,19,201,4000025,,,2024-03-13,清算の結了等,,,2021-09-27,1,,,,,,0
355,2130002000520,登記記録の閉鎖等,0,2024-03-14,2024-03-08,有限会社清滝工務店,,有限会社,京都府,京都市右京区,西京極堤外町１８番地の３５,,26,108,6150854,,,2024-03-08,清算の結了等,,,2015-10-05,1,,,,,キヨタキコウムテン,0
359,2130002022738,登記記録の閉鎖等,0,2024-03-14,2024-03-07,有限会社ルナテクス,,有限会社,京都府,京都市西京区,上桂北村町１２３番地ヴェルデ桂３０９号,,26,111,6158213,,,2024-03-07,清算の結了等,,,2015-10-05,1,,,,,ルナテクス,0
369,2180001134562,登記記録の閉鎖等,0,2024-03-14,2024-03-11,株式会社ツーハート,,株式会社,愛知県,名古屋市中村区,長筬町３丁目５７番地,,23,105,4530839,,,2024-03-11,清算の結了等,,,2018-11-27,1,,,,,ツーハート,0
381,2200002021385,登記記録の閉鎖等,0,2024-03-14,2024-03-12,有限会社ツカサ,,有限会社,岐阜県,土岐市,泉町大富２２３番地の２,,21,212,5095132,,,2024-03-12,清算の結了等,,,2015-10-05,1,,,,,ツカサ,0
402,2290002039857,登記記録の閉鎖等,0,2024-03-14,2024-03-06,有限会社西原建材,,有限会社,福岡県,大野城市,大池２丁目２１番２４号,,40,219,8160904,,,2024-03-06,清算の結了等,,,2015-10-05,1,,,,,,0
417,2360005006005,登記記録の閉鎖等,0,2024-03-14,2024-03-11,一般社団法人てぃだわらび,,その他の設立登記法人,沖縄県,浦添市,港川２丁目１２番１号ＮＯ．５４,,47,208,9012134,,,2024-03-11,清算の結了等,,,2019-04-12,1,,,,,ティダワラビ,0
435,2480001005444,登記記録の閉鎖等,0,2024-03-14,2024-03-12,机不動産株式会社,,株式会社,徳島県,板野郡藍住町,矢上字安任１７３番地１２,,36,403,7711253,,,2024-03-12,清算の結了等,,,2017-09-26,1,,,,,ツクエフドウサン,0
442,3010001024762,登記記録の閉鎖等,0,2024-03-14,2024-03-08,株式会社トラフィックシステムズ,,株式会社,東京都,中央区,日本橋浜町２丁目１２番４号,,13,102,1030007,,,2024-03-08,清算の結了等,,,2015-10-05,1,,,,,トラフィックシステムズ,0
458,3010401009297,登記記録の閉鎖等,0,2024-03-14,2024-03-08,株式会社慶陽,,株式会社,東京都,港区,赤坂２丁目５番１７号,,13,103,1070052,,,2024-03-08,合併による解散等,4010401018017,令和５年７月３１日東京都港区赤坂二丁目５番１７号株式会社つる中（4010401018017）に合併し解散,2015-10-05,1,,,,,ケイヨウ,0
478,3010601050381,登記記録の閉鎖等,0,2024-03-14,2024-02-22,Ｓｔｙｌｅ’ｓ株式会社,,株式会社,東京都,墨田区,緑２丁目１５番１１－５０３ジェイパーク両国デュアルフォルム,,13,107,1300021,,,2024-02-22,清算の結了等,,,2016-09-21,1,,,,,スタイルズ,0
480,3010603009368,登記記録の閉鎖等,0,2024-03-14,2024-03-08,ＣｒｅａｔｉｖｅＴａｃｔ合同会社,,合同会社,東京都,江東区,豊洲４丁目１１番２０－１７２５号,,13,108,1350061,,,2024-03-08,清算の結了等,,,2022-02-02,1,,,,,クリエイティブタクト,0
482,3010801019391,登記記録の閉鎖等,0,2024-03-14,2024-03-08,株式会社三誠社,,株式会社,東京都,大田区,大森南１丁目１３番８号,,13,111,1430013,,,2024-03-08,清算の結了等,,,2015-10-05,1,,,,,サンセイシャ,0
495,3011001143404,登記記録の閉鎖等,0,2024-03-14,2024-03-12,株式会社ＵＰＤＲＡＦＴ,,株式会社,東京都,渋谷区,神宮前６丁目２３番４号桑野ビル２階,,13,113,1500001,,,2024-03-12,清算の結了等,,,2021-10-13,1,,,,,アップドラフト,0
515,3012801000091,登記記録の閉鎖等,0,2024-03-14,2024-03-11,株式会社アトリエハート,,株式会社,東京都,立川市,富士見町２丁目１３番２号,,13,202,1900013,,,2024-03-11,清算の結了等,,,2015-10-05,1,,,,,アトリエハート,0
522,3020001081613,登記記録の閉鎖等,0,2024-03-14,2024-03-08,株式会社ｔｒｅ’ｓｏｒ,,株式会社,神奈川県,川崎市中原区,新丸子東２丁目９０８番２号田村ビル１Ｆ,,14,133,2110004,,,2024-03-08,清算の結了等,,,2015-10-05,1,,,,,,0
546,3030001129551,登記記録の閉鎖等,0,2024-03-14,2024-03-08,株式会社アスリート,,株式会社,埼玉県,さいたま市南区,大字円正寺１８６番地１シルクロネオースＦ２０２,,11,108,3360043,,,2024-03-08,清算の結了等,,,2019-02-21,1,,,,,アスリート,0
548,3030002114742,登記記録の閉鎖等,0,2024-03-14,2024-03-12,有限会社モチヅキ,,有限会社,埼玉県,熊谷市,葛和田９１３番地１,,11,202,3600222,,,2024-03-12,清算の結了等,,,2015-10-05,1,,,,,モチヅキ,0
550,3040001031418,登記記録の閉鎖等,0,2024-03-14,2024-03-08,株式会社アイ・ティ・オー,,株式会社,千葉県,市川市,若宮２丁目２番１２号,,12,203,2720812,,,2024-03-08,清算の結了等,,,2015-10-05,1,,,,,アイティオー,0
565,3110002007847,登記記録の閉鎖等,0,2024-03-14,2024-03-11,有限会社京王,,有限会社,新潟県,新潟市東区,浜町一丁目１９番地,,15,102,9500046,,,2024-03-11,清算の結了等,,,2015-10-05,1,,,,,ケイオウ,0
566,3110002033389,登記記録の閉鎖等,0,2024-03-14,2024-03-12,有限会社八百重,,有限会社,新潟県,南魚沼市,一村尾１８３２番地,,15,226,9497316,,,2024-03-12,清算の結了等,,,2015-10-05,1,,,,,ヤオジュウ,0
568,3120001106525,登記記録の閉鎖等,0,2024-03-14,2024-03-11,株式会社オッキーニ,,株式会社,大阪府,大阪市阿倍野区,阿倍野筋３丁目１０番１－１０６号,,27,119,5450052,,,2024-03-11,清算の結了等,,,2015-10-05,1,,,,,オッキーニ,0
593,3130001013431,登記記録の閉鎖等,0,2024-03-14,2024-03-11,メイトサイエンス株式会社,,株式会社,京都府,京都市山科区,安朱馬場ノ西町３６番地リバーハイツ山科１０１,,26,110,6078007,,,2024-03-11,清算の結了等,,,2015-10-05,1,,,,,,0
596,3130001070852,登記記録の閉鎖等,0,2024-03-14,2024-03-11,Ｇｒａｔｉａ株式会社,,株式会社,京都府,京都市中京区,蛸薬師上ル奈良屋町２９１河原町ＤｅｃｋＢｙＣｏａｓｔ４Ｆ,,26,104,6040000,,,2024-03-11,清算の結了等,,,2022-01-07,1,,,,,,0
599,3130002019510,登記記録の閉鎖等,0,2024-03-14,2024-03-11,有限会社シルバーワークス,,有限会社,京都府,京都市上京区,猪熊通元誓願寺下る竪神明町４８２番地６,,26,102,6028228,,,2024-03-11,清算の結了等,,,2015-10-05,1,,,,,,0
605,3130002023520,登記記録の閉鎖等,0,2024-03-14,2024-03-11,株式会社ワスク,,株式会社,京都府,京都市右京区,西京極新明町１７番地ＳＳビル２階,,26,108,6150864,,,2024-03-11,清算の結了等,,,2015-10-05,1,,,,,,0
626,3200001033637,登記記録の閉鎖等,0,2024-03-14,2024-03-12,株式会社エスポワール,,株式会社,岐阜県,瑞穂市,本田２０９３番地９,,21,216,5010236,,,2024-03-12,清算の結了等,,,2017-01-10,1,,,,,エスポワール,0
627,3200002018439,登記記録の閉鎖等,0,2024-03-14,2024-03-13,有限会社井上管工,,有限会社,岐阜県,関市,武芸川町平３１１番地,,21,205,5012606,,,2024-03-13,清算の結了等,,,2015-10-05,1,,,,,イノウエカンコウ,0
631,3270002001421,登記記録の閉鎖等,0,2024-03-14,2024-03-11,有限会社ホープス・ジャパン,,有限会社,鳥取県,鳥取市,湖山町西２丁目５２７番地,,31,201,6800947,,,2024-03-11,清算の結了等,,,2015-10-05,1,,,,,ホープスジャパン,0
659,3430005004917,登記記録の閉鎖等,0,2024-03-14,2024-03-07,特定非営利活動法人ゆーとぴあ,,その他の設立登記法人,北海道,札幌市中央区,南五条西１４丁目１番３２号,,01,101,0640805,,,2024-03-07,清算の結了等,,,2015-10-05,1,,,,,ユートピア,0
677,4010001179309,登記記録の閉鎖等,0,2024-03-14,2024-03-12,ブレイクメディア株式会社,,株式会社,東京都,千代田区,一番町７番地１,,13,101,1020082,,,2024-03-12,合併による解散等,7010001069300,令和６年３月１日東京都千代田区一番町７番地１株式会社ブレイク・フィールド社（7010001069300）に合併し解散,2016-10-28,1,,,,,ブレイクメディア,0
678,4010001198903,登記記録の閉鎖等,0,2024-03-14,2024-03-06,株式会社ワイアールキャピタル,,株式会社,東京都,杉並区,宮前２丁目１３番９号パーク・コート杉並宮前３０１,,13,115,1680081,,,2024-03-06,清算の結了等,,,2019-03-04,1,,,,,ワイアールキャピタル,0
682,4010002038042,登記記録の閉鎖等,0,2024-03-14,2024-03-08,有限会社カスミガセキ・インベストメント,,有限会社,東京都,千代田区,丸の内３丁目１番１号東京共同会計事務所内,,13,101,1000005,,,2024-03-08,清算の結了等,,,2015-10-05,1,,,,,カスミガセキインベストメント,0
683,4010003031681,登記記録の閉鎖等,0,2024-03-14,2024-03-08,ＣＲ－ＬＯＣＡＬ　ＥＤＩＴＯＲＳ合同会社,,合同会社,東京都,千代田区,大手町１丁目６番１号,,13,101,1000004,,,2024-03-08,清算の結了等,,,2020-02-19,1,,,,,シーアールローカルエディターズ,0
708,4010901041955,登記記録の閉鎖等,0,2024-03-14,2024-03-06,株式会社アジア‐ラテンｅコンタクト,,株式会社,東京都,八王子市,八木町３番１５－４０６号,,13,201,1920055,,,2024-03-06,清算の結了等,,,2018-04-25,1,,,,,アジアラテンイーコンタクト,0
752,4030002108413,登記記録の閉鎖等,0,2024-03-14,2024-03-11,有限会社渡邉産商,,有限会社,埼玉県,川口市,赤井２丁目１５番１２号,,11,203,3340073,,,2024-03-11,清算の結了等,,,2015-10-05,1,,,,,ワタナベサンショウ,0
784,4120002082203,登記記録の閉鎖等,0,2024-03-14,2024-03-11,有限会社ブルーオーシャン,,有限会社,大阪府,大阪市北区,兎我野町４番２５号,,27,127,5300056,,,2024-03-11,清算の結了等,,,2015-10-05,1,,,,,ブルーオーシャン,0
792,4120901034857,登記記録の閉鎖等,0,2024-03-14,2024-03-12,サニーライフ株式会社,,株式会社,大阪府,吹田市,山田西３丁目５３番１－５０７号,,27,205,5650824,,,2024-03-12,清算の結了等,,,2015-10-05,1,,,,,サニーライフ,0
795,4122001022882,登記記録の閉鎖等,0,2024-03-14,2024-03-01,株式会社オオハシ,,株式会社,大阪府,八尾市,大竹２丁目１１番地,,27,212,5810854,,,2024-03-01,清算の結了等,,,2015-10-05,1,,,,,オオハシ,0
806,4130002020450,登記記録の閉鎖等,0,2024-03-14,2024-03-07,有限会社京都新聞壬生販売所,,有限会社,京都府,京都市中京区,壬生朱雀町５番地の６,,26,104,6048871,,,2024-03-07,清算の結了等,,,2015-10-05,1,,,,,キョウトシンブンミブハンバイショ,0
815,4170002006297,登記記録の閉鎖等,0,2024-03-14,2024-03-13,岩橋瓦工業有限会社,,有限会社,和歌山県,海南市,野上中３８３番地の５,,30,202,6401171,,,2024-03-13,清算の結了等,,,2015-10-05,1,,,,,イワハシカワラコウギョウ,0
817,4180001064650,登記記録の閉鎖等,0,2024-03-14,2024-03-11,フロンヴィルテクノ株式会社,,株式会社,愛知県,名古屋市瑞穂区,雁道町３丁目１８番地,,23,108,4670877,,,2024-03-11,清算の結了等,,,2015-10-05,1,,,,,フロンヴィルテクノ,0
818,4180001119636,登記記録の閉鎖等,0,2024-03-14,2024-03-11,株式会社タフロードコンサルティング,,株式会社,愛知県,稲沢市,小池３丁目１３番２号,,23,220,4928144,,,2024-03-11,合併による解散等,3180001104127,令和６年３月１日三重県松阪市大黒田町１６８７番地３株式会社ベックセントラル（3180001104127）に合併し解散,2015-10-05,1,,,,,タフロードコンサルティング,0
842,4320005001775,登記記録の閉鎖等,0,2024-03-14,2024-03-12,大分アクアサービス協同組合,,その他の設立登記法人,大分県,大分市,花園２丁目１１番５１－３０１号,,44,201,8700846,,,2024-03-12,清算の結了等,,,2015-10-05,1,,,,,オオイタアクアサービス,0
853,4380005006827,登記記録の閉鎖等,0,2024-03-14,2024-03-11,いわき地区生コン圧送協同組合,,その他の設立登記法人,福島県,いわき市,植田町月山下２９番地,,07,204,9748261,,,2024-03-11,清算の結了等,,,2015-10-05,1,,,,,イワキチクナマコンアッソウ,0
858,4430001052522,登記記録の閉鎖等,0,2024-03-14,2024-03-06,株式会社あん,,株式会社,北海道,札幌市北区,新川二条１３丁目２番３号,,01,102,0010922,,,2024-03-06,清算の結了等,,,2015-10-05,1,,,,,アン,0
871,4490002005969,登記記録の閉鎖等,0,2024-03-14,2024-03-13,有限会社中工機械,,有限会社,高知県,高知市,西秦泉寺８２番地４,,39,201,7800033,,,2024-03-13,清算の結了等,,,2015-10-05,1,,,,,ナカコウキカイ,0
873,4500002017343,登記記録の閉鎖等,0,2024-03-14,2024-03-13,有限会社夢ステージ,,有限会社,愛媛県,新居浜市,一宮町２丁目２番４６号,,38,205,7920025,,,2024-03-13,清算の結了等,,,2015-10-05,1,,,,,,0
880,5010001146002,登記記録の閉鎖等,0,2024-03-14,2024-03-12,アット比較株式会社,,株式会社,東京都,千代田区,一番町７番地１,,13,101,1020082,,,2024-03-12,合併による解散等,7010001069300,令和６年３月１日東京都千代田区一番町７番地１株式会社ブレイク・フィールド社（7010001069300）に合併し解散,2015-10-05,1,,,,,アットヒカク,0
892,5010401065875,登記記録の閉鎖等,0,2024-03-14,2024-03-06,株式会社クローラ研究所,,株式会社,東京都,渋谷区,上原３丁目１４番４号,,13,113,1510064,,,2024-03-06,清算の結了等,,,2015-10-05,1,,,,,クローラケンキュウショ,0
944,5012401024646,登記記録の閉鎖等,0,2024-03-14,2024-03-12,株式会社Ｆｏｒ　Ｓｉ　Ｒｏａｄ,,株式会社,東京都,渋谷区,千駄ヶ谷４丁目１番８号ＧｒａｎｄＳｔｏｒｙ千駄ヶ谷２－Ｂ０３,,13,113,1510051,,,2024-03-12,清算の結了等,,,2015-10-05,1,,,,,フォーシーロード,0
950,5013301025073,登記記録の閉鎖等,0,2024-03-14,2024-03-08,株式会社ＳＰＬ・スタッフ,,株式会社,千葉県,千葉市美浜区,磯辺６丁目１番７棟３０５号,,12,106,2610012,,,2024-03-08,清算の結了等,,,2015-10-05,1,,,,,エスピーエルスタッフ,0
960,5020003019295,登記記録の閉鎖等,0,2024-03-14,2024-03-11,ＣＬＪ合同会社,,合同会社,神奈川県,横浜市西区,北幸１丁目１１番１号,,14,103,2200004,,,2024-03-11,清算の結了等,,,2021-02-18,1,,,,,シーエルジェイ,0
1003,5110002032133,登記記録の閉鎖等,0,2024-03-14,2024-03-12,有限会社一測オリエント,,有限会社,新潟県,小千谷市,大字＿生甲１２２２番地,00071099,15,208,9470003,,,2024-03-12,清算の結了等,,,2015-10-05,1,,,,,イッソクオリエント,0
1004,5120001169611,登記記録の閉鎖等,0,2024-03-14,2024-03-07,株式会社１ｗａｙＬＯＶＥ,,株式会社,東京都,中央区,日本橋小舟町４番１号,,13,102,1030024,,,2024-03-07,清算の結了等,,,2015-10-05,1,,,,,ワンウェイラブ,0
1013,5120102020615,登記記録の閉鎖等,0,2024-03-14,2024-03-12,大和電器工業有限会社,,有限会社,大阪府,藤井寺市,沢田４丁目６番３７号,,27,226,5830011,,,2024-03-12,清算の結了等,,,2015-10-05,1,,,,,ダイワデンキコウギョウ,0
1037,5200002023098,登記記録の閉鎖等,0,2024-03-14,2024-03-12,有限会社中日本ファームズ,,有限会社,岐阜県,瑞浪市,釜戸町字川戸２５２９番地４０,,21,208,5096472,,,2024-03-12,清算の結了等,,,2015-10-05,1,,,,,ナカニホンファームズ,0
1039,5220001004683,登記記録の閉鎖等,0,2024-03-14,2024-03-12,株式会社トラックス,,株式会社,石川県,金沢市,本多町１丁目１番３号,,17,201,9200964,,,2024-03-12,清算の結了等,,,2015-10-05,1,,,,,トラックス,0
1041,5230001017049,登記記録の閉鎖等,0,2024-03-14,2024-03-11,株式会社海宝,,株式会社,富山県,富山市,婦中町上田島１５５番地,,16,201,9392717,,,2024-03-11,清算の結了等,,,2017-07-18,1,,,,,カイホウ,0
1042,5230003001892,登記記録の閉鎖等,0,2024-03-14,2024-03-06,合同会社たてやま産業社,,合同会社,富山県,中新川郡立山町,高原八ツ屋１６１番地,,16,323,9300268,,,2024-03-06,清算の結了等,,,2022-07-20,1,,,,,タテヤマサンギョウシャ,0
1047,5240002053694,登記記録の閉鎖等,0,2024-03-14,2024-03-11,有限会社三好鉄工所,,有限会社,広島県,三原市,長谷５丁目３番８号,,34,204,7230132,,,2024-03-11,清算の結了等,,,2015-10-05,1,,,,,ミヨシテッコウショ,0
1075,5360005005747,登記記録の閉鎖等,0,2024-03-14,2024-03-11,一般社団法人明徳学園,,その他の設立登記法人,沖縄県,浦添市,当山２丁目３４番３号２Ｆ,,47,208,9012104,,,2024-03-11,清算の結了等,,,2018-01-17,1,,,,,メイトクガクエン,0
1076,5370001019543,登記記録の閉鎖等,0,2024-03-14,2024-03-04,フーズロイヤル株式会社,,株式会社,宮城県,名取市,下余田字中荷６７２番地の１,,04,207,9811223,,,2024-03-04,合併による解散等,3370801000134,令和６年３月１日宮城県名取市下余田字中荷６７２番地の１センコン物流株式会社（3370801000134）に合併し解散,2015-10-05,1,,,,,フーズロイヤル,0
1080,5380002026298,登記記録の閉鎖等,0,2024-03-14,2024-03-11,有限会社みどり宅建,,有限会社,福島県,いわき市,仁井田町寺前１０番地,,07,204,9748252,,,2024-03-11,清算の結了等,,,2015-10-05,1,,,,,ミドリタクケン,0
1115,6010002046588,登記記録の閉鎖等,0,2024-03-14,2024-03-08,有限会社レギーナ,,有限会社,東京都,千代田区,丸の内３丁目１番１号東京共同会計事務所内,,13,101,1000005,,,2024-03-08,清算の結了等,,,2015-10-05,1,,,,,レギーナ,0
1116,6010003033511,登記記録の閉鎖等,0,2024-03-14,2024-03-08,ＣＲ－ＳｔａｒｋｉｄｓＴＯＳＵ合同会社,,合同会社,東京都,千代田区,大手町１丁目６番１号,,13,101,1000004,,,2024-03-08,清算の結了等,,,2020-11-16,1,,,,,シーアールスターキッズトス,0
1120,6010005030614,登記記録の閉鎖等,0,2024-03-14,2024-03-12,ＧＬＰトリトン一般社団法人,,その他の設立登記法人,東京都,千代田区,丸の内３丁目１番１号東京共同会計事務所内,,13,101,1000005,,,2024-03-12,清算の結了等,,,2019-08-15,1,,,,,ジーエルピートリトン,0
1130,6010402033269,登記記録の閉鎖等,0,2024-03-14,2024-03-08,有限会社アーカイブスフィフス,,有限会社,東京都,港区,高輪１丁目３番１３号,,13,103,1080074,,,2024-03-08,清算の結了等,,,2015-10-05,1,,,,,アーカイブスフィフス,0
1133,6010701041872,登記記録の閉鎖等,0,2024-03-14,2024-03-11,卓越株式会社,,株式会社,東京都,品川区,西五反田２丁目１１番１５－６０３室,,13,109,1410031,,,2024-03-11,清算の結了等,,,2021-12-06,1,,,,,タクエツ,0
1165,6011703001427,登記記録の閉鎖等,0,2024-03-14,2024-03-08,ヴィルタ・ネオ合同会社,,合同会社,東京都,江戸川区,東小岩３丁目７番１８号,,13,123,1330052,,,2024-03-08,清算の結了等,,,2016-03-01,1,,,,,ヴィルタネオ,0
1169,6012401038505,登記記録の閉鎖等,0,2024-03-14,2024-03-08,株式会社ＥＸＰＥＲＩＥＮＣＥ,,株式会社,東京都,新宿区,西新宿８丁目８番１３号ａｓｕａｐａｒｔｍｅｎｔ６０３,,13,104,1600023,,,2024-03-08,清算の結了等,,,2021-11-05,1,,,,,エクスペリエンス,0
1188,6021002051040,登記記録の閉鎖等,0,2024-03-14,2024-03-12,有限会社岩崎ライン,,有限会社,神奈川県,小田原市,小台３８２番地３,,14,206,2500858,,,2024-03-12,清算の結了等,,,2015-10-05,1,,,,,イワサキライン,0
1194,6030003012570,登記記録の閉鎖等,0,2024-03-14,2024-03-05,合同会社アンドＭ,,合同会社,茨城県,筑西市,乙８７武蔵屋ビル１階,,08,227,3080041,,,2024-03-05,清算の結了等,,,2018-10-17,1,,,,,アンドエム,0
1200,6040002070098,登記記録の閉鎖等,0,2024-03-14,2024-03-08,有限会社誠和不動産,,有限会社,千葉県,君津市,西坂田４丁目６番６号,,12,225,2991145,,,2024-03-08,清算の結了等,,,2015-10-05,1,,,,,セイワフドウサン,0
1236,6130001026050,登記記録の閉鎖等,0,2024-03-14,2024-03-11,株式会社ケーズプラン,,株式会社,京都府,京都市右京区,西京極新明町１７番地ＳＳビル２階,,26,108,6150864,,,2024-03-11,清算の結了等,,,2015-10-05,1,,,,,,0
1247,6140003016453,登記記録の閉鎖等,0,2024-03-14,2024-03-01,合同会社ＭｏｎｄｅＣｒｏｓｓ,,合同会社,兵庫県,伊丹市,行基町３丁目１５０番地２０３号室,,28,207,6640857,,,2024-03-01,清算の結了等,,,2021-06-23,1,,,,,モンドクロス,0
1249,6160002000571,登記記録の閉鎖等,0,2024-03-14,2024-03-11,有限会社禧亭,,有限会社,滋賀県,大津市,木下町１８番１０号,,25,201,5200812,,,2024-03-11,清算の結了等,,,2015-10-05,1,,,,,ヒジョン,0
1252,6180001133107,登記記録の閉鎖等,0,2024-03-14,2024-03-11,株式会社ＰＬＵＳ　ＥＩＧＨＴ,,株式会社,愛知県,名古屋市名東区,香流１丁目８２５,,23,115,4650005,,,2024-03-11,清算の結了等,,,2018-07-20,1,,,,,プラスエイト,0
1286,6360002012150,登記記録の閉鎖等,0,2024-03-14,2024-03-12,有限会社中頭工業,,有限会社,沖縄県,沖縄市,知花４丁目４２番８号,,47,211,9042143,,,2024-03-12,清算の結了等,,,2015-10-05,1,,,,,ナカガミコウギョウ,0
1292,6400002007047,登記記録の閉鎖等,0,2024-03-14,2024-03-08,有限会社熊谷牧場,,有限会社,岩手県,紫波郡紫波町,片寄字漆立２８番地,,03,321,0283452,,,2024-03-08,清算の結了等,,,2015-10-05,1,,,,,クマガイボクジョウ,0
1307,6470002013311,登記記録の閉鎖等,0,2024-03-14,2024-03-11,有限会社春屋,,有限会社,香川県,仲多度郡琴平町,五條１０５７番地１,,37,403,7660003,,,2024-03-11,清算の結了等,,,2015-10-05,1,,,,,ハルヤ,0
1320,7010005035835,登記記録の閉鎖等,0,2024-03-14,2024-03-13,一般社団法人Ｅｂｉｓｕ,,その他の設立登記法人,東京都,千代田区,丸の内３丁目１番１号東京共同会計事務所内,,13,101,1000005,,,2024-03-13,清算の結了等,,,2022-11-29,1,,,,,エビス,0
1339,7011002030853,登記記録の閉鎖等,0,2024-03-14,2024-03-08,有限会社ＳＰＬアドバタイジング,,有限会社,千葉県,市川市,若宮２丁目２番１２号,,12,203,2720812,,,2024-03-08,清算の結了等,,,2015-10-05,1,,,,,エスピーエルアドバタイジング,0
1345,7011101002183,登記記録の閉鎖等,0,2024-03-14,2024-03-08,株式会社岩城ビル,,株式会社,東京都,新宿区,大久保２丁目５番２０－１３０２号,,13,104,1690072,,,2024-03-08,清算の結了等,,,2015-10-05,1,,,,,イワキビル,0
1362,7012401004043,登記記録の閉鎖等,0,2024-03-14,2024-03-08,ミノトス株式会社,,株式会社,東京都,国立市,中１丁目１６番地の２８,,13,215,1860004,,,2024-03-08,清算の結了等,,,2015-10-05,1,,,,,,0
1376,7020001093679,登記記録の閉鎖等,0,2024-03-14,2024-03-08,株式会社リレーションシップ,,株式会社,神奈川県,横浜市緑区,長津田みなみ台６丁目１番地１４,,14,113,2260018,,,2024-03-08,清算の結了等,,,2015-10-05,1,,,,,リレーションシップ,0
1379,7020001139473,登記記録の閉鎖等,0,2024-03-14,2024-03-11,株式会社ｙｓｙ,,株式会社,神奈川県,横浜市青葉区,荏田北３丁目９番地４,,14,117,2250015,,,2024-03-11,清算の結了等,,,2021-01-14,1,,,,,ワイエスワイ,0
1384,7020002063739,登記記録の閉鎖等,0,2024-03-14,2024-03-08,有限会社天風舎アレックス,,有限会社,神奈川県,横浜市南区,吉野町３丁目７番４号ＳＩＣビル４Ｆ,,14,105,2320014,,,2024-03-08,清算の結了等,,,2015-10-05,1,,,,,,0
1388,7021002014979,登記記録の閉鎖等,0,2024-03-14,2024-03-11,有限会社ソーマプランニング,,有限会社,神奈川県,鎌倉市,梶原５丁目１７番１１号,,14,204,2470063,,,2024-03-11,清算の結了等,,,2015-10-05,1,,,,,ソーマプランニング,0
1404,7050001041552,登記記録の閉鎖等,0,2024-03-14,2024-03-08,株式会社ＡＬＯＮＺＡ,,株式会社,茨城県,水戸市,栄町２丁目７番２８号,,08,201,3100064,,,2024-03-08,清算の結了等,,,2016-09-07,1,,,,,アロンザ,0
1416,7100003006911,登記記録の閉鎖等,0,2024-03-14,2024-03-07,合同会社長野トータルコーポレイツ,,合同会社,長野県,長野市,吉田２丁目２９番１６号,,20,201,3810043,,,2024-03-07,清算の結了等,,,2023-03-07,1,,,,,ナガノトータルコーポレイツ,0
1435,7120902001762,登記記録の閉鎖等,0,2024-03-14,2024-03-08,有限会社リバス,,有限会社,大阪府,茨木市,南安威２丁目１１番３１号,00033687,27,211,5670007,,,2024-03-08,清算の結了等,,,2015-10-05,1,,,,,リバス,0
1440,7130001048077,登記記録の閉鎖等,0,2024-03-14,2024-03-11,株式会社ケンタツ,,株式会社,京都府,京都市左京区,松ケ崎樋ノ上町８番地１３,,26,103,6060942,,,2024-03-11,清算の結了等,,,2015-10-05,1,,,,,ケンタツ,0
1444,7130002035801,登記記録の閉鎖等,0,2024-03-14,2024-03-04,有限会社八尾鹿,,有限会社,京都府,京都市下京区,五条通寺町西入御影堂町９番地１,,26,106,6008101,,,2024-03-04,清算の結了等,,,2023-06-05,1,,,,,ヤオシカ,0
1448,7140005016608,登記記録の閉鎖等,0,2024-03-14,2024-03-11,ＮＰＯ法人西宮認知症予防会,,その他の設立登記法人,兵庫県,西宮市,甲陽園目神山町１０番４７号,,28,204,6620011,,,2024-03-11,清算の結了等,,,2015-10-05,1,,,,,ニシノミヤニンチショウヨボウカイ,0
1455,7180002040953,登記記録の閉鎖等,0,2024-03-14,2024-03-05,有限会社三栄工業,,有限会社,愛知県,北名古屋市,九之坪鴨田７５番地,,23,234,4810041,,,2024-03-05,清算の結了等,,,2015-10-05,1,,,,,サンエイコウギョウ,0
1462,7200001017248,登記記録の閉鎖等,0,2024-03-14,2024-03-11,パルプ運輸株式会社,,株式会社,岐阜県,美濃加茂市,古井町下古井４５０番地の１,,21,211,5050034,,,2024-03-11,清算の結了等,,,2015-10-05,1,,,,,パルプウンユ,0
1468,7240001015413,登記記録の閉鎖等,0,2024-03-14,2024-03-11,株式会社キール・ウエストジヤパン,,株式会社,広島県,広島市西区,楠木町１丁目１６番１６号,,34,104,7330002,,,2024-03-11,合併による解散等,4010601030283,令和６年３月１日東京都江東区新木場一丁目７番２２号日本パネフォーム株式会社（4010601030283）に合併し解散,2015-10-05,1,,,,,キールウエストジャパン,0
1472,7250001018803,登記記録の閉鎖等,0,2024-03-14,2024-03-11,株式会社襷,,株式会社,山口県,下関市,東大和町１丁目３番１号エバーライフグランポート下関駅南壱番館３１２号室,,35,201,7500066,,,2024-03-11,清算の結了等,,,2021-04-14,1,,,,,,0
1486,7320002004621,登記記録の閉鎖等,0,2024-03-14,2024-03-11,有限会社旭日工業,,有限会社,大分県,別府市,大字南立石６１５番地の１,,44,202,8740000,,,2024-03-11,清算の結了等,,,2015-10-05,1,,,,,アサヒコウギョウ,0
1499,7390001013773,登記記録の閉鎖等,0,2024-03-14,2024-03-08,株式会社尾花沢食品,,株式会社,山形県,尾花沢市,大字荻袋字西荻原１２８４番地１８,,06,212,9994552,,,2024-03-08,合併による解散等,2030001024893,令和６年３月１日埼玉県所沢市東住吉７番８号株式会社ピックルスコーポレーション（2030001024893）に合併し解散,2015-10-05,1,,,,,オバナザワショクヒン,0
1507,7430001087425,登記記録の閉鎖等,0,2024-03-14,2024-02-29,株式会社北日本マテリアル,,株式会社,北海道,江別市,上江別４６４番地の１エステリオン４０２号室,,01,217,0670064,,,2024-02-29,清算の結了等,,,2022-09-05,1,,,,,キタニホンマテリアル,0
1512,7430002050803,登記記録の閉鎖等,0,2024-03-14,2024-03-06,有限会社下原建設,,有限会社,北海道,岩見沢市,六条西６丁目２番地５,,01,210,0680026,,,2024-03-06,清算の結了等,,,2015-10-05,1,,,,,シモハラケンセツ,0
1516,7470002016239,登記記録の閉鎖等,0,2024-03-14,2024-03-12,有限会社ミキヤ,,有限会社,香川県,観音寺市,観音寺町甲３０８０番地２,,37,205,7680060,,,2024-03-12,清算の結了等,,,2015-10-05,1,,,,,ミキヤ,0
1535,8010003033591,登記記録の閉鎖等,0,2024-03-14,2024-03-11,ＬＦ物流ファンドワン合同会社,,合同会社,東京都,千代田区,丸の内３丁目１番１号東京共同会計事務所内,,13,101,1000005,,,2024-03-11,清算の結了等,,,2020-11-20,1,,,,,エルエフブツリュウファンドワン,0
1538,8010401103921,登記記録の閉鎖等,0,2024-03-14,2024-03-11,キャッスル・マネジメント株式会社,,株式会社,静岡県,熱海市,下多賀１４１番地の４,,22,205,4130102,,,2024-03-11,清算の結了等,,,2015-10-05,1,,,,,キャッスルマネジメント,0
1545,8010902018825,登記記録の閉鎖等,0,2024-03-14,2024-03-08,有限会社エス・アイ・エー,,有限会社,東京都,世田谷区,深沢１丁目２番７号,,13,112,1580081,,,2024-03-08,清算の結了等,,,2015-10-05,1,,,,,エスアイエー,0
1548,8011001110424,登記記録の閉鎖等,0,2024-03-14,2024-03-11,株式会社Ｅｎｔｈｒａｌｌ,,株式会社,東京都,千代田区,神田三崎町３丁目８番５号,,13,101,1010061,,,2024-03-11,清算の結了等,,,2016-04-14,1,,,,,エンスロール,0
1550,8011001147508,登記記録の閉鎖等,0,2024-03-14,2024-03-12,ＭＯＮＯＶＥＲＸ株式会社,,株式会社,東京都,渋谷区,桜丘町４－１４ＶＯＲＴ渋谷桜丘ビル５Ｆ,,13,113,1500031,,,2024-03-12,清算の結了等,,,2022-05-20,1,,,,,,0
1556,8011101049827,登記記録の閉鎖等,0,2024-03-14,2024-03-11,株式会社エムアール・アモン,,株式会社,東京都,新宿区,西新宿４丁目４番１５号,,13,104,1600023,,,2024-03-11,清算の結了等,,,2015-10-05,1,,,,,エムアールアモン,0
1560,8011301019349,登記記録の閉鎖等,0,2024-03-14,2024-03-08,株式会社オリオン,,株式会社,東京都,杉並区,下井草１丁目２５番３３号,,13,115,1670022,,,2024-03-08,清算の結了等,,,2015-10-05,1,,,,,オリオン,0
1562,8011302000464,登記記録の閉鎖等,0,2024-03-14,2024-03-04,有限会社アズマ工務店,,有限会社,東京都,杉並区,高円寺南５丁目３５番１号,,13,115,1660003,,,2024-03-04,清算の結了等,,,2015-10-05,1,,,,,アズマコウムテン,0
1567,8011501006097,登記記録の閉鎖等,0,2024-03-14,2024-03-05,株式会社北島商店,,株式会社,東京都,荒川区,西日暮里１丁目４１番３号,,13,118,1160013,,,2024-03-05,清算の結了等,,,2015-10-05,1,,,,,キタジマショウテン,0
1621,8060002003649,登記記録の閉鎖等,0,2024-03-14,2024-03-08,有限会社小池青果店,,有限会社,栃木県,宇都宮市,本町１１番３号,,09,201,3200033,,,2024-03-08,清算の結了等,,,2015-10-05,1,,,,,コイケセイカテン,0
1628,8090001014636,登記記録の閉鎖等,0,2024-03-14,2024-03-13,高和コーポレーション株式会社,,株式会社,山梨県,富士吉田市,大明見２丁目２２番３４号,,19,202,4030003,,,2024-03-13,清算の結了等,,,2016-06-08,1,,,,,タカワコーポレーション,0
1643,8130001051617,登記記録の閉鎖等,0,2024-03-14,2024-02-29,株式会社滝本,,株式会社,京都府,綾部市,上延町旦寺１番地の５,,26,203,6230043,,,2024-02-29,清算の結了等,,,2015-10-05,1,,,,,タキモト,0
1660,8180001110062,登記記録の閉鎖等,0,2024-03-14,2024-03-11,フロンヴィルホームデザイン株式会社,,株式会社,愛知県,名古屋市瑞穂区,雁道町３丁目１８番地,,23,108,4670877,,,2024-03-11,清算の結了等,,,2015-10-05,1,,,,,フロンヴィルホームデザイン,0
1668,8190001023610,登記記録の閉鎖等,0,2024-03-14,2024-03-11,株式会社ｂ．ｈｏｍｅ,,株式会社,三重県,松阪市,立野町４５４番地４,,24,204,5150054,,,2024-03-11,清算の結了等,,,2016-04-26,1,,,,,,0
1673,8230001003566,登記記録の閉鎖等,0,2024-03-14,2024-03-11,株式会社日本綜合栄養研究所,,株式会社,富山県,富山市,水橋二杉１番地の２,,16,201,9393546,,,2024-03-11,清算の結了等,,,2015-10-05,1,,,,,ニホンソウゴウエイヨウケンキュウショ,0
1683,8290001077737,登記記録の閉鎖等,0,2024-03-14,2024-03-06,株式会社先進医療研究所,,株式会社,福岡県,久留米市,諏訪野町１６６７番地,,40,203,8300037,,,2024-03-06,清算の結了等,,,2017-05-15,1,,,,,センシンイリョウケンキュウジョ,0
1692,8320002019362,登記記録の閉鎖等,0,2024-03-14,2024-03-11,マサキトレーデイング有限会社,,有限会社,大分県,日田市,淡窓２丁目８番２４号,,44,204,8770012,,,2024-03-11,清算の結了等,,,2015-10-05,1,,,,,マサキトレーディング,0
1693,8330001015881,登記記録の閉鎖等,0,2024-03-14,2024-03-11,株式会社球泉洞,,株式会社,熊本県,球磨郡球磨村,大字神瀬甲１１３０番地,,43,513,8696404,,,2024-03-11,清算の結了等,,,2015-10-05,1,,,,,キュウセンドウ,0
1695,8330002010345,登記記録の閉鎖等,0,2024-03-14,2024-03-11,有限会社宮木工務店,,有限会社,熊本県,熊本市東区,西原１丁目５番３７号,,43,102,8618029,,,2024-03-11,清算の結了等,,,2015-10-05,1,,,,,ミヤキコウムテン,0
1706,8370202004696,登記記録の閉鎖等,0,2024-03-14,2024-03-08,有限会社くりこま,,有限会社,宮城県,栗原市,築館宮野中央１丁目５番地８,,04,213,9872205,,,2024-03-08,清算の結了等,,,2015-10-05,1,,,,,クリコマ,0
1708,8380001026387,登記記録の閉鎖等,0,2024-03-14,2024-03-08,株式会社ＡｄｖａｎＣＥ,,株式会社,福島県,会津若松市,門田町大字飯寺字村東４８２番地の５８,,07,202,9650846,,,2024-03-08,清算の結了等,,,2016-01-21,1,,,,,アドバンス,0
1710,8420001000437,登記記録の閉鎖等,0,2024-03-14,2024-03-07,株式会社一番・リンクタクシー,,株式会社,青森県,青森市,問屋町１丁目５番４号,,02,201,0300131,,,2024-03-07,合併による解散等,8420001018413,令和６年３月１日青森市浜館二丁目１番地１株式会社リンクパワー（8420001018413）に合併し解散,2015-10-05,1,,,,,イチバンリンクタクシー,0
1712,8430001065693,登記記録の閉鎖等,0,2024-03-14,2024-03-04,株式会社神内ファーム二十一,,株式会社,北海道,樺戸郡浦臼町,字オサツナイ３１５番地１３１,,01,431,0610600,,,2024-03-04,清算の結了等,,,2015-10-05,1,,,,,ジンナイファームニジュウイチ,0
1714,8430002005434,登記記録の閉鎖等,0,2024-03-14,2024-03-07,有限会社川下自動車工業,,有限会社,北海道,札幌市白石区,北郷二条１２丁目１６番１０号,,01,104,0030832,,,2024-03-07,清算の結了等,,,2015-10-05,1,,,,,カワシモジドウシャコウギョウ,0
1741,9010005026931,登記記録の閉鎖等,0,2024-03-14,2024-03-12,Ｔｈｉｒｔｅｅｎ　ＥＢＭ　Ｊａｐａｎ一般社団法人,,その他の設立登記法人,東京都,千代田区,丸の内３丁目１番１号東京共同会計事務所内,,13,101,1000005,,,2024-03-12,清算の結了等,,,2017-06-02,1,,,,,サーティーンイービーエムジャパン,0
1745,9010401162413,登記記録の閉鎖等,0,2024-03-14,2024-03-11,つみな株式会社,,株式会社,東京都,港区,西新橋１丁目２３－９河野ビル１Ｆ,,13,103,1050003,,,2024-03-11,清算の結了等,,,2021-09-01,1,,,,,ツミナ,0
1747,9010403019751,登記記録の閉鎖等,0,2024-03-14,2024-03-08,合同会社Ｅｃｈｏ　Ｏｎｅ,,合同会社,東京都,港区,西新橋３丁目２４番８号山内ビル３Ｆ,,13,103,1050003,,,2024-03-08,清算の結了等,,,2018-11-30,1,,,,,エコーワン,0
1779,9011401015239,登記記録の閉鎖等,0,2024-03-14,2024-03-06,株式会社エス・ティー・シー,,株式会社,東京都,板橋区,成増１丁目７番４－３２０号,,13,119,1750094,,,2024-03-06,清算の結了等,,,2015-10-05,1,,,,,エスティーシー,0
1789,9011703002257,登記記録の閉鎖等,0,2024-03-14,2024-03-11,合同会社ＲＥＶＯる,,合同会社,東京都,江戸川区,小松川２丁目１０番１ー１２０４号,,13,123,1320034,,,2024-03-11,清算の結了等,,,2019-05-09,1,,,,,レボル,0
1795,9013301032058,登記記録の閉鎖等,0,2024-03-14,2024-03-08,ガールセン株式会社,,株式会社,千葉県,君津市,外箕輪２丁目７番２８号,,12,225,2991173,,,2024-03-08,清算の結了等,,,2015-10-05,1,,,,,ガールセン,0
1807,9021001044736,登記記録の閉鎖等,0,2024-03-14,2024-03-11,株式会社湘南企画,,株式会社,神奈川県,平塚市,山下２丁目１２番１号,,14,203,2540911,,,2024-03-11,清算の結了等,,,2015-10-05,1,,,,,ショウナンキカク,0
1821,9040001115867,登記記録の閉鎖等,0,2024-03-14,2024-03-08,株式会社なかねフーズ,,株式会社,千葉県,我孫子市,布佐平和台１丁目２番地の１,,12,222,2701108,,,2024-03-08,清算の結了等,,,2020-11-11,1,,,,,ナカネフーズ,0
1838,9070002008836,登記記録の閉鎖等,0,2024-03-14,2024-03-11,有限会社岩崎自動車鈑金塗装,,有限会社,群馬県,高崎市,沖町１８１番地１,,10,202,3700086,,,2024-03-11,清算の結了等,,,2015-10-05,1,,,,,イワサキジドウシャバンキントソウ,0
1871,9130005003290,登記記録の閉鎖等,0,2024-03-14,2024-03-11,丸の内センター協同組合,,その他の設立登記法人,京都府,京都市伏見区,淀池上町１３６番地,,26,109,6130904,,,2024-03-11,清算の結了等,,,2015-10-05,1,,,,,マルノウチセンター,0
1892,9240001044600,登記記録の閉鎖等,0,2024-03-14,2024-03-12,Ｍ’ｓエージェンシー株式会社,,株式会社,広島県,府中市,府川町１８１番地２,,34,208,7260004,,,2024-03-12,清算の結了等,,,2015-10-05,1,,,,,エムズエージェンシー,0
1905,9330002012885,登記記録の閉鎖等,0,2024-03-14,2024-03-06,有限会社関東興産,,有限会社,熊本県,熊本市中央区,水前寺６丁目６番４４号,,43,101,8620950,,,2024-03-06,清算の結了等,,,2015-10-05,1,,,,,,0
1913,9380005010048,登記記録の閉鎖等,0,2024-03-14,2024-03-08,医療法人みぎわ会,,その他の設立登記法人,福島県,南会津郡南会津町,田島字中町甲３９３６番地,,07,368,9670004,,,2024-03-08,清算の結了等,,,2015-10-05,1,,,,,ミギワカイ,0
1917,9430002041825,登記記録の閉鎖等,0,2024-03-14,2024-03-07,有限会社フェリーチェ,,有限会社,北海道,札幌市北区,北二十七条西１６丁目５番２１号,,01,102,0010027,,,2024-03-07,合併による解散等,9430002041957,令和６年３月１日札幌市中央区南十六条西九丁目１番３３号株式会社悠ライフ（9430002041957）に合併し解散,2015-10-05,1,,,,,フェリーチェ,0
