sequenceNumber,corporateNumber,process,correct,updateDate,changeDate,name,nameImageId,kind,prefectureName,cityName,streetNumber,addressImageId,prefectureCode,cityCode,postCode,addressOutside,addressOutsideImageId,closeDate,closeCause,successorCorporateNumber,changeCause,assignmentDate,latest,enName,enPrefectureName,enCityName,enAddressOutside,furigana,hihyoji
32,1010403023967,登記記録の閉鎖等,0,2024-09-27,2024-09-12,ＡＰ　Ｒｅｓｉｄｅｎｃｅ　Ｏｎｅ合同会社,,合同会社,東京都,中央区,日本橋３丁目９番１号日本橋三丁目スクエア１１階,,13,102,1030027,,,2024-09-12,清算の結了等,,,2020-10-23,1,,,,,エーピーレジデンスワン,0
61,1011101083345,登記記録の閉鎖等,0,2024-09-27,2024-09-12,株式会社大地,,株式会社,東京都,新宿区,高田馬場４丁目１９番７号グリーンハイム高橋１０１,,13,104,1690075,,,2024-09-12,清算の結了等,,,2018-03-01,1,,,,,ダイチ,0
70,1011105010618,登記記録の閉鎖等,0,2024-09-27,2024-09-12,一般社団法人日本症例学会,,その他の設立登記法人,東京都,新宿区,東五軒町５番１８－６０１号,,13,104,1620813,,,2024-09-12,清算の結了等,,,2023-04-10,1,,,,,ニホンショウレイガッカイ,0
90,1012405001042,登記記録の閉鎖等,0,2024-09-27,2024-09-24,特定非営利活動法人全国教育ボランティアの会,,その他の設立登記法人,東京都,調布市,国領町５丁目４９番地の１,,13,208,1820022,,,2024-09-24,清算の結了等,,,2015-10-05,1,,,,,ゼンコクキョウイクボランティアノカイ,0
94,1013301021200,登記記録の閉鎖等,0,2024-09-27,2024-09-17,株式会社ワイダー,,株式会社,東京都,豊島区,南池袋１丁目２２番２号,,13,116,1710022,,,2024-09-17,清算の結了等,,,2015-10-05,1,,,,,ワイダー,0
119,1021002060062,登記記録の閉鎖等,0,2024-09-27,2024-09-24,有限会社山本製作所,,有限会社,神奈川県,平塚市,東真土２丁目１５番２５号,,14,203,2540018,,,2024-09-24,清算の結了等,,,2015-10-05,1,,,,,ヤマモトセイサクショ,0
125,1030002002263,登記記録の閉鎖等,0,2024-09-27,2024-09-19,有限会社エー・エヌ・エス,,有限会社,埼玉県,さいたま市大宮区,桜木町１丁目６番地２５,,11,103,3300854,,,2024-09-19,清算の結了等,,,2015-10-05,1,,,,,エーエヌエス,0
138,1040002060079,登記記録の閉鎖等,0,2024-09-27,2024-09-19,有限会社ベストサーブ,,有限会社,千葉県,印旛郡栄町,竜角寺台６丁目１４番５号,,12,329,2701505,,,2024-09-19,清算の結了等,,,2015-10-05,1,,,,,ベストサーブ,0
150,1060002013646,登記記録の閉鎖等,0,2024-09-27,2024-09-20,有限会社Ｐｈｉ　Ｃｏｍｐａｎｙ,,有限会社,栃木県,塩谷郡高根沢町,大字宝積寺１４８２番地１,,09,386,3291233,,,2024-09-20,清算の結了等,,,2015-10-05,1,,,,,ファイカンパニー,0
162,1100001036404,登記記録の閉鎖等,0,2024-09-27,2024-09-17,風越タイヤ株式会社,,株式会社,長野県,飯田市,丸山町１丁目６番地７,,20,205,3950077,,,2024-09-17,清算の結了等,,,2023-05-19,1,,,,,フウエツタイヤ,0
181,1120905001542,登記記録の閉鎖等,0,2024-09-27,2024-09-13,医療法人向井診療所,,その他の設立登記法人,大阪府,吹田市,山田南３０番８号,,27,205,5650823,,,2024-09-13,清算の結了等,,,2015-10-05,1,,,,,ムカイシンリョウジョ,0
205,1180001146220,登記記録の閉鎖等,0,2024-09-27,2024-09-13,株式会社ＭＴＣ,,株式会社,愛知県,一宮市,大和町戸塚字町長５３番地１１,,23,203,4910927,,,2024-09-13,清算の結了等,,,2021-05-24,1,,,,,エムティーシー,0
213,1180305007192,登記記録の閉鎖等,0,2024-09-27,2024-09-19,慧光教会,,その他の設立登記法人,愛知県,西尾市,吉良町富田殿海戸２５番地,,23,213,4440525,,,2024-09-19,清算の結了等,,,2015-10-05,1,,,,,,0
226,1260001020714,登記記録の閉鎖等,0,2024-09-27,2024-09-19,旭産業株式会社,00003272,株式会社,岡山県,美作市,福本８２６番地,,33,215,7012604,,,2024-09-19,清算の結了等,,,2015-10-05,1,,,,,アサヒサンギョウ,0
245,1350001010152,登記記録の閉鎖等,0,2024-09-27,2024-09-18,株式会社ラズー,,株式会社,宮崎県,小林市,細野１６０番地１５,,45,205,8860004,,,2024-09-18,清算の結了等,,,2015-10-05,1,,,,,ラズー,0
246,1350003002536,登記記録の閉鎖等,0,2024-09-27,2024-09-18,合同会社ＳＵＫＩ．ＣＯＭ,,合同会社,宮崎県,小林市,須木鳥田町２９７９番地,,45,205,8860113,,,2024-09-18,清算の結了等,,,2015-10-05,1,,,,,スキドットコム,0
252,1370102000711,登記記録の閉鎖等,0,2024-09-27,2024-09-12,有限会社鈴木工業,,有限会社,宮城県,柴田郡柴田町,船岡東３丁目４番３号,,04,323,9891604,,,2024-09-12,清算の結了等,,,2015-10-05,1,,,,,スズキコウギョウ,0
257,1400002008280,登記記録の閉鎖等,0,2024-09-27,2024-09-10,有限会社高橋組,,有限会社,岩手県,花巻市,下根子５１０番地２,,03,205,0250025,,,2024-09-10,清算の結了等,,,2015-10-05,1,,,,,タカハシグミ,0
277,2010001179938,登記記録の閉鎖等,0,2024-09-27,2024-09-02,株式会社アップルバンク,,株式会社,東京都,港区,元麻布３丁目２番１３号,,13,103,1060046,,,2024-09-02,清算の結了等,,,2016-12-01,1,,,,,アップルバンク,0
287,2010002053448,登記記録の閉鎖等,0,2024-09-27,2024-09-17,有限会社アド・ヴィレッジ,,有限会社,埼玉県,さいたま市浦和区,東高砂町６番地２１レ・ジェイド４０１,,11,107,3300055,,,2024-09-17,清算の結了等,,,2015-10-05,1,,,,,アドビレッジ,0
312,2010802000764,登記記録の閉鎖等,0,2024-09-27,2024-09-18,有限会社アムカ,,有限会社,東京都,大田区,萩中３丁目１２番４号,,13,111,1440047,,,2024-09-18,清算の結了等,,,2015-10-05,1,,,,,アムカ,0
317,2010903002429,登記記録の閉鎖等,0,2024-09-27,2024-09-02,合同会社ボーズマン,,合同会社,東京都,世田谷区,奥沢７丁目４３番２９号,,13,112,1580083,,,2024-09-02,合併による解散等,4030002064689,令和６年９月１日東京都世田谷区奥沢七丁目４３番２９号株式会社自由が丘不動産（4030002064689）に合併し解散,2015-10-05,1,,,,,ボーズマン,0
328,2011002009753,登記記録の閉鎖等,0,2024-09-27,2024-09-24,株式会社ハイブリッジ・インターナショナル,,株式会社,東京都,渋谷区,神宮前５丁目４５番２号,,13,113,1500001,,,2024-09-24,清算の結了等,,,2015-10-05,1,,,,,ハイブリッジインターナショナル,0
343,2012301008099,登記記録の閉鎖等,0,2024-09-27,2024-09-02,株式会社ＤｅＰｒｏｐ,,株式会社,東京都,渋谷区,渋谷２丁目２２番３号渋谷東口ビル６階,,13,113,1500002,,,2024-09-02,合併による解散等,6011001149902,令和６年９月１日東京都渋谷区渋谷二丁目２２－３渋谷東口ビル６Ｆ株式会社Ｂｒａｎｄｉｎｇ　Ｅｎｇｉｎｅｅｒ（6011001149902）に合併し解散,2015-10-05,1,,,,,ディプロップ,0
344,2012301010303,登記記録の閉鎖等,0,2024-09-27,2024-09-20,株式会社ＶＩＤＯＣＱ研究所,,株式会社,東京都,町田市,中町２丁目１６－２３,,13,209,1940021,,,2024-09-20,清算の結了等,,,2015-11-04,1,,,,,ヴィドックケンキュウショ,0
351,2012402006803,登記記録の閉鎖等,0,2024-09-27,2024-09-27,デジタブル有限会社,,有限会社,東京都,府中市,多磨町２丁目１１番１１号,,13,206,1830002,,,2024-09-27,清算の結了等,,,2015-10-05,1,,,,,,0
354,2012802004381,登記記録の閉鎖等,0,2024-09-27,2024-09-19,公伸織物有限会社,,有限会社,東京都,武蔵村山市,三ツ木２丁目４７番地の４,,13,223,2080032,,,2024-09-19,清算の結了等,,,2015-10-05,1,,,,,コウシンオリモノ,0
369,2030001071119,登記記録の閉鎖等,0,2024-09-27,2024-09-18,株式会社カサハラ,,株式会社,埼玉県,比企郡吉見町,大字久米田６６１番地の２,,11,347,3550153,,,2024-09-18,清算の結了等,,,2015-10-05,1,,,,,カサハラ,0
395,2040003004513,登記記録の閉鎖等,0,2024-09-27,2024-09-19,合資会社ケアステーション・スズキ,,合資会社,千葉県,館山市,湊３４０番地１,,12,205,2940054,,,2024-09-19,清算の結了等,,,2015-10-05,1,,,,,ケアステーションスズキ,0
404,2070002016003,登記記録の閉鎖等,0,2024-09-27,2024-09-20,有限会社市川プラスチック,,有限会社,群馬県,富岡市,神農原３５５番地１７,,10,210,3702455,,,2024-09-20,清算の結了等,,,2015-10-05,1,,,,,イチカワプラスチック,0
433,2120901015660,登記記録の閉鎖等,0,2024-09-27,2024-09-18,株式会社ジェイ・クルー,,株式会社,大阪府,吹田市,垂水町２丁目６番２１号,,27,205,5640062,,,2024-09-18,清算の結了等,,,2015-10-05,1,,,,,ジェイクルー,0
434,2120901025742,登記記録の閉鎖等,0,2024-09-27,2024-09-18,株式会社真理,00033549,株式会社,大阪府,豊中市,本町２丁目４番１０号,,27,203,5600021,,,2024-09-18,清算の結了等,,,2015-10-05,1,,,,,マリ,0
456,2160001003380,登記記録の閉鎖等,0,2024-09-27,2024-09-17,株式会社土質工学,,株式会社,滋賀県,大津市,見世１丁目２番１９号,,25,201,5200004,,,2024-09-17,清算の結了等,,,2015-10-05,1,,,,,ドシツコウガク,0
458,2180001151500,登記記録の閉鎖等,0,2024-09-27,2024-09-11,株式会社中日本環境情報,,株式会社,愛知県,名古屋市西区,天神山町１番１９号,,23,104,4510065,,,2024-09-11,清算の結了等,,,2022-05-30,1,,,,,ナカニホンカンキョウジョウホウ,0
470,2220002005295,登記記録の閉鎖等,0,2024-09-27,2024-09-18,有限会社堀江不動産鑑定システム,,有限会社,石川県,金沢市,笠舞３丁目９番１７号,,17,201,9200965,,,2024-09-18,清算の結了等,,,2015-10-05,1,,,,,ホリエフドウサンカンテイシステム,0
494,2360003000026,登記記録の閉鎖等,0,2024-09-27,2024-09-18,アジア検査合資会社,,合資会社,沖縄県,那覇市,港町２丁目１７番１３号,,47,201,9000001,,,2024-09-18,清算の結了等,,,2015-10-05,1,,,,,アジアケンサ,0
500,2370402000063,登記記録の閉鎖等,0,2024-09-27,2024-09-12,有限会社北上興業,,有限会社,宮城県,登米市,豊里町新田町９５番地,,04,212,9870361,,,2024-09-12,清算の結了等,,,2015-10-05,1,,,,,キタカミコウギョウ,0
519,2480002001129,登記記録の閉鎖等,0,2024-09-27,2024-09-25,有限会社久保守商店,,有限会社,徳島県,徳島市,川内町榎瀬７６６番地５,,36,201,7710144,,,2024-09-25,清算の結了等,,,2015-10-05,1,,,,,クボマモルショウテン,0
531,3010003023325,登記記録の閉鎖等,0,2024-09-27,2024-09-12,ＪＡＩアビエーションファンド２０１６－０１合同会社,,合同会社,東京都,千代田区,神田神保町１丁目１１番地さくら綜合事務所内,,13,101,1010051,,,2024-09-12,清算の結了等,,,2016-03-29,1,,,,,ジェイエーアイアビエーションファンドニゼロイチロクゼロイチ,0
538,3010401138006,登記記録の閉鎖等,0,2024-09-27,2024-09-03,株式会社ＢｕｎＢｕホールディングス,,株式会社,東京都,目黒区,青葉台１丁目２７－３ＳＦビル２階,,13,110,1530042,,,2024-09-03,清算の結了等,,,2018-05-01,1,,,,,ブンブホールディングス,0
551,3010901026791,登記記録の閉鎖等,0,2024-09-27,2024-09-24,株式会社くにぎた不動産鑑定事務所,,株式会社,東京都,世田谷区,中町４丁目３８番８－４０３号,,13,112,1580091,,,2024-09-24,清算の結了等,,,2015-10-05,1,,,,,クニギタフドウサンカンテイジムショ,0
554,3010903002428,登記記録の閉鎖等,0,2024-09-27,2024-09-02,合同会社トライコ,,合同会社,東京都,世田谷区,奥沢７丁目４３番２９号,,13,112,1580083,,,2024-09-02,合併による解散等,4030002064689,令和６年９月１日東京都世田谷区奥沢七丁目４３番２９号株式会社自由が丘不動産（4030002064689）に合併し解散,2015-10-05,1,,,,,トライコ,0
559,3011002005090,登記記録の閉鎖等,0,2024-09-27,2024-09-02,有限会社笹塚ロック,00064733,有限会社,東京都,渋谷区,笹塚１丁目６０番８－１０１号,00064734,13,113,1510073,,,2024-09-02,清算の結了等,,,2015-10-05,1,,,,,ササヅカロック,0
581,3013101006993,登記記録の閉鎖等,0,2024-09-27,2024-09-25,株式会社ダイン,,株式会社,東京都,福生市,本町２０番地１,,13,218,1970022,,,2024-09-25,清算の結了等,,,2015-10-05,1,,,,,ダイン,0
582,3020001044826,登記記録の閉鎖等,0,2024-09-27,2024-09-11,株式会社ダイリーインターナショナル,,株式会社,神奈川県,横浜市金沢区,釜利谷西６丁目１３番５号,,14,108,2360046,,,2024-09-11,清算の結了等,,,2015-10-05,1,,,,,ダイリーインターナショナル,0
590,3021001079523,登記記録の閉鎖等,0,2024-09-27,2024-09-20,株式会社ＲＥＡＳＯＮＡＢＬＥ,,株式会社,神奈川県,藤沢市,辻堂西海岸１丁目５番１－３２５号,,14,205,2510046,,,2024-09-20,清算の結了等,,,2023-07-07,1,,,,,リーズナブル,0
593,3021002028958,登記記録の閉鎖等,0,2024-09-27,2024-09-24,有限会社佐々木建材,,有限会社,神奈川県,相模原市緑区,太井５７７番地１,,14,151,2520152,,,2024-09-24,清算の結了等,,,2015-10-05,1,,,,,ササキケンザイ,0
608,3030002001676,登記記録の閉鎖等,0,2024-09-27,2024-09-20,有限会社ウイングパートナー,,有限会社,埼玉県,さいたま市南区,内谷４丁目１０番８号５０１,,11,108,3360034,,,2024-09-20,清算の結了等,,,2015-10-05,1,,,,,ウイングパートナー,0
609,3030002007608,登記記録の閉鎖等,0,2024-09-27,2024-09-20,有限会社セイコー電機,,有限会社,埼玉県,さいたま市緑区,太田窪１丁目２５番８号,,11,109,3360936,,,2024-09-20,清算の結了等,,,2015-10-05,1,,,,,セイコーデンキ,0
610,3030002063320,登記記録の閉鎖等,0,2024-09-27,2024-09-17,有限会社たけなが薬局,,有限会社,埼玉県,さいたま市中央区,上落合４丁目２－３井山ビル２階,,11,105,3380001,,,2024-09-17,合併による解散等,6030001066965,令和６年９月１日埼玉県北葛飾郡松伏町築比地７９５番地１株式会社ウィーズ（6030001066965）に合併し解散,2015-10-05,1,,,,,タケナガヤッキョク,0
629,3060002037560,登記記録の閉鎖等,0,2024-09-27,2024-09-19,有限会社茂木保温,,有限会社,栃木県,足利市,伊勢町４丁目１７番１５,,09,202,3260053,,,2024-09-19,清算の結了等,,,2015-10-05,1,,,,,モテギホオン,0
631,3080401015859,登記記録の閉鎖等,0,2024-09-27,2024-09-18,誠真産業株式会社,,株式会社,静岡県,磐田市,新島８９０番地３,,22,211,4380062,,,2024-09-18,清算の結了等,,,2015-10-05,1,,,,,セイシンサンギョウ,0
640,3100005003002,登記記録の閉鎖等,0,2024-09-27,2024-09-20,農事組合法人東地組合,,その他の設立登記法人,長野県,佐久市,香坂１１２８番地東地公民館内,,20,217,3850005,,,2024-09-20,清算の結了等,,,2015-10-05,1,,,,,ヒガシチクミアイ,0
642,3110001028357,登記記録の閉鎖等,0,2024-09-27,2024-09-17,株式会社クロウム,,株式会社,新潟県,長岡市,柏町２丁目８番２０－１３０３号サーパス柏町１３０３号室,,15,202,9400088,,,2024-09-17,清算の結了等,,,2015-10-05,1,,,,,クロウム,0
661,3120101023736,登記記録の閉鎖等,0,2024-09-27,2024-09-20,株式会社大進興業,,株式会社,大阪府,堺市堺区,北清水町１丁３番３号,,27,141,5900004,,,2024-09-20,清算の結了等,,,2015-10-05,1,,,,,ダイシンコウギョウ,0
662,3120102028197,登記記録の閉鎖等,0,2024-09-27,2024-09-24,有限会社多賀井電機,,有限会社,大阪府,泉南郡岬町,淡輪４８７１番地,,27,366,5990301,,,2024-09-24,清算の結了等,,,2015-10-05,1,,,,,タガイデンキ,0
664,3120901028950,登記記録の閉鎖等,0,2024-09-27,2024-09-18,株式会社ベアーフット,,株式会社,大阪府,箕面市,如意谷２丁目７番５３号,,27,220,5620011,,,2024-09-18,清算の結了等,,,2015-10-05,1,,,,,ベアーフット,0
681,3180001128423,登記記録の閉鎖等,0,2024-09-27,2024-09-12,株式会社酒井工業,,株式会社,愛知県,海部郡蟹江町,西之森９丁目１１８番地,,23,425,4970052,,,2024-09-12,清算の結了等,,,2017-06-28,1,,,,,サカイコウギョウ,0
682,3180001134223,登記記録の閉鎖等,0,2024-09-27,2024-09-03,株式会社ハナムラ,,株式会社,愛知県,名古屋市西区,新道２丁目７番３１号,,23,104,4510043,,,2024-09-03,清算の結了等,,,2018-10-26,1,,,,,ハナムラ,0
683,3180001134743,登記記録の閉鎖等,0,2024-09-27,2024-09-25,株式会社知多環境サービス,,株式会社,愛知県,知多市,新知字仲田３６番地の１－３０６号室,,23,224,4780017,,,2024-09-25,清算の結了等,,,2018-12-11,1,,,,,チタカンキョウサービス,0
694,3240001044317,登記記録の閉鎖等,0,2024-09-27,2024-09-18,株式会社デザイン工房クアトロ,,株式会社,広島県,安芸高田市,向原町長田４０８６番地１,,34,214,7391203,,,2024-09-18,清算の結了等,,,2015-10-05,1,,,,,デザインコウボウクアトロ,0
696,3240002050727,登記記録の閉鎖等,0,2024-09-27,2024-09-24,有限会社シイエスエス計算センター,,有限会社,広島県,尾道市,新浜２丁目２番２１号,,34,205,7220014,,,2024-09-24,清算の結了等,,,2015-10-05,1,,,,,シイエスエスケイサンセンター,0
708,3330002012230,登記記録の閉鎖等,0,2024-09-27,2024-09-20,有限会社アイビーエス企画,,有限会社,熊本県,熊本市東区,湖東２丁目４５番１３号,,43,102,8620909,,,2024-09-20,清算の結了等,,,2015-10-05,1,,,,,アイビーエスキカク,0
709,3330002015175,登記記録の閉鎖等,0,2024-09-27,2024-09-20,有限会社旺伸,,有限会社,熊本県,熊本市中央区,手取本町４番７号,,43,101,8600808,,,2024-09-20,清算の結了等,,,2015-10-05,1,,,,,オウシン,0
716,3370002009710,登記記録の閉鎖等,0,2024-09-27,2024-09-11,有限会社インテリヤモイズミ,,有限会社,宮城県,仙台市青葉区,芋沢字新田５６番地の６,,04,101,9893212,,,2024-09-11,清算の結了等,,,2015-10-05,1,,,,,インテリヤモイズミ,0
717,3370101002062,登記記録の閉鎖等,0,2024-09-27,2024-09-12,ヤンベ株式会社,,株式会社,宮城県,刈田郡蔵王町,宮字荒子７２番地,,04,301,9890701,,,2024-09-12,清算の結了等,,,2015-10-05,1,,,,,ヤンベ,0
718,3370102002152,登記記録の閉鎖等,0,2024-09-27,2024-09-12,有限会社関口土木,,有限会社,宮城県,刈田郡蔵王町,大字曲竹字川原田１１番地の５,,04,301,9890851,,,2024-09-12,清算の結了等,,,2015-10-05,1,,,,,セキグチドボク,0
727,3430001072232,登記記録の閉鎖等,0,2024-09-27,2024-08-23,株式会社Ｂｏｏｋ　Ｓｔｏｒｙ,,株式会社,福岡県,福岡市中央区,天神２丁目３番１０号天神パインクレスト７１９号,,40,133,8100001,,,2024-08-23,清算の結了等,,,2016-08-26,1,,,,,ブックストーリー,0
742,4010001059246,登記記録の閉鎖等,0,2024-09-27,2024-09-12,株式会社山與,,株式会社,東京都,中央区,日本橋馬喰町１丁目７番１５号,,13,102,1030002,,,2024-09-12,清算の結了等,,,2015-10-05,1,,,,,ヤマヨ,0
756,4010002004325,登記記録の閉鎖等,0,2024-09-27,2024-09-11,有限会社豊田箔押所,,有限会社,東京都,文京区,小石川１丁目２６番１１号,,13,105,1120002,,,2024-09-11,清算の結了等,,,2015-10-05,1,,,,,トヨタハクオシショ,0
758,4010003028190,登記記録の閉鎖等,0,2024-09-27,2024-09-11,富山水橋太陽光発電合同会社,,合同会社,東京都,千代田区,丸の内３丁目１番１号東京共同会計事務所内,,13,101,1000005,,,2024-09-11,清算の結了等,,,2018-09-03,1,,,,,トヤマミズハシタイヨウコウハツデン,0
759,4010003034247,登記記録の閉鎖等,0,2024-09-27,2024-09-11,合同会社オーシャンプロパティ,,合同会社,東京都,中央区,銀座２丁目１０番８号マニエラ銀座ビル４階,,13,102,1040061,,,2024-09-11,清算の結了等,,,2021-02-25,1,,,,,オーシャンプロパティ,0
769,4010401160140,登記記録の閉鎖等,0,2024-09-27,2024-09-02,株式会社ブルーム,,株式会社,東京都,港区,芝浦４丁目１９番１号,,13,103,1080023,,,2024-09-02,清算の結了等,,,2021-05-17,1,,,,,ブルーム,0
775,4010605003129,登記記録の閉鎖等,0,2024-09-27,2024-09-24,税理士法人ＭＵＧＥＮ,,その他の設立登記法人,東京都,墨田区,江東橋４丁目２４番４号,,13,107,1300022,,,2024-09-24,清算の結了等,,,2015-10-05,1,,,,,ムゲン,0
782,4011001104173,登記記録の閉鎖等,0,2024-09-27,2024-09-24,ジオマーケティング株式会社,,株式会社,東京都,渋谷区,桜丘町２６－１セルリアンタワー１５階,,13,113,1500031,,,2024-09-24,清算の結了等,,,2015-10-05,1,,,,,ジオマーケティング,0
791,4011302007521,登記記録の閉鎖等,0,2024-09-27,2024-09-19,有限会社ビーグ,,有限会社,東京都,杉並区,宮前１丁目１４番３７号,,13,115,1680081,,,2024-09-19,清算の結了等,,,2015-10-05,1,,,,,ビーグ,0
801,4012401020092,登記記録の閉鎖等,0,2024-09-27,2024-09-02,株式会社ハートフィール,,株式会社,東京都,港区,芝公園２丁目４番１号,,13,103,1050011,,,2024-09-02,合併による解散等,6010001176345,令和６年９月１日東京都港区芝公園二丁目４番１号株式会社ナルミヤ・インターナショナル（6010001176345）に合併し解散,2015-10-05,1,,,,,ハートフィール,0
804,4013301001760,登記記録の閉鎖等,0,2024-09-27,2024-09-26,エヌ・ケイ・マレッツ株式会社,,株式会社,東京都,豊島区,長崎６丁目３３番２号,,13,116,1710051,,,2024-09-26,清算の結了等,,,2015-10-05,1,,,,,エヌケイマレッツ,0
827,4021002051752,登記記録の閉鎖等,0,2024-09-27,2024-09-25,有限会社後藤朝次郎商店,,有限会社,神奈川県,小田原市,浜町１丁目３番２６号,,14,206,2500004,,,2024-09-25,清算の結了等,,,2015-10-05,1,,,,,ゴウトウアサジロウショウテン,0
833,4030001109420,登記記録の閉鎖等,0,2024-09-27,2024-09-17,ウィーズグループ株式会社,,株式会社,埼玉県,北葛飾郡松伏町,大字築比地７９５番地１,,11,465,3430102,,,2024-09-17,合併による解散等,6030001066965,令和６年９月１日埼玉県北葛飾郡松伏町築比地７９５番地１株式会社ウィーズ（6030001066965）に合併し解散,2015-10-05,1,,,,,ウィーズグループ,0
848,4040001070316,登記記録の閉鎖等,0,2024-09-27,2024-09-20,株式会社ウィルハーツ,,株式会社,千葉県,我孫子市,我孫子３丁目１８番７－１０１号,,12,222,2701166,,,2024-09-20,清算の結了等,,,2015-10-05,1,,,,,ウィルハーツ,0
866,4060001035333,登記記録の閉鎖等,0,2024-09-27,2024-09-20,株式会社ＢｅＬ,,株式会社,栃木県,宇都宮市,屋板町６６４番地７,,09,201,3210112,,,2024-09-20,清算の結了等,,,2022-10-07,1,,,,,ベル,0
871,4070002018229,登記記録の閉鎖等,0,2024-09-27,2024-09-20,有限会社走水,,有限会社,群馬県,みどり市,大間々町上神梅６４２番地２１,,10,212,3760104,,,2024-09-20,清算の結了等,,,2015-10-05,1,,,,,ハシリミズ,0
873,4080002016801,登記記録の閉鎖等,0,2024-09-27,2024-09-18,有限会社カネクマルみはら,,有限会社,静岡県,焼津市,駅北２丁目１１番２１号,,22,212,4250028,,,2024-09-18,清算の結了等,,,2015-10-05,1,,,,,カネクマルミハラ,0
893,4120003009106,登記記録の閉鎖等,0,2024-09-27,2024-09-25,合同会社デューデリ＆ディール,,合同会社,大阪府,大阪市中央区,平野町２丁目２番１２号,,27,128,5410046,,,2024-09-25,清算の結了等,,,2015-10-05,1,,,,,デューデリアンドディール,0
913,4160001011605,登記記録の閉鎖等,0,2024-09-27,2024-09-24,株式会社Ｂｅｅｆ．Ｔｅｒｍｉｎａｌ,,株式会社,滋賀県,東近江市,妙法寺町８６９－４,,25,213,5270046,,,2024-09-24,清算の結了等,,,2015-10-05,1,,,,,,0
922,4180302007969,登記記録の閉鎖等,0,2024-09-27,2024-09-20,有限会社スギウラプリント,,有限会社,愛知県,豊橋市,花田町字北新起３８番６,,23,201,4418019,,,2024-09-20,清算の結了等,,,2015-10-05,1,,,,,スギウラプリント,0
923,4180302012515,登記記録の閉鎖等,0,2024-09-27,2024-09-17,有限会社タイガ,,有限会社,愛知県,豊橋市,山田町字瀬戸２３番地の８,,23,201,4418101,,,2024-09-17,清算の結了等,,,2015-10-05,1,,,,,タイガ,0
926,4200001008134,登記記録の閉鎖等,0,2024-09-27,2024-09-20,株式会社アメックス,,株式会社,岐阜県,岐阜市,柳津町上佐波西３丁目６８番地,,21,201,5016121,,,2024-09-20,合併による解散等,4010801014318,令和６年９月１日東京都港区東新橋一丁目９番１号株式会社ＧＥＮＤＡ　ＧｉＧＯ　Ｅｎｔｅｒｔａｉｎｍｅｎｔ（4010801014318）に合併し解散,2015-10-05,1,,,,,アメックス,0
939,4290001039385,登記記録の閉鎖等,0,2024-09-27,2024-08-23,株式会社白金,,株式会社,福岡県,糟屋郡志免町,別府北２丁目２番５－７０３号,,40,343,8112233,,,2024-08-23,清算の結了等,,,2015-10-05,1,,,,,シロガネ,0
940,4290001054368,登記記録の閉鎖等,0,2024-09-27,2024-09-05,ベストデザイン株式会社,,株式会社,福岡県,大牟田市,有明町１丁目４番地８,,40,202,8360842,,,2024-09-05,清算の結了等,,,2015-10-05,1,,,,,ベストデザイン,0
971,4410002000283,登記記録の閉鎖等,0,2024-09-27,2024-09-18,有限会社秋田アンテナ,,有限会社,秋田県,秋田市,飯島字古道２番地の１,,05,201,0110911,,,2024-09-18,清算の結了等,,,2015-10-05,1,,,,,アキタアンテナ,0
1004,5010403010557,登記記録の閉鎖等,0,2024-09-27,2024-09-11,ＨＯＭ合同会社,,合同会社,東京都,千代田区,丸の内３丁目１番１号東京共同会計事務所内,,13,101,1000005,,,2024-09-11,清算の結了等,,,2015-10-05,1,,,,,エイチオーエム,0
1010,5010602008914,登記記録の閉鎖等,0,2024-09-27,2024-09-25,有限会社小川シール印刷,,有限会社,東京都,墨田区,向島３丁目３３番１１号,,13,107,1310033,,,2024-09-25,清算の結了等,,,2015-10-05,1,,,,,オガワシールインサツ,0
1025,5011401001779,登記記録の閉鎖等,0,2024-09-27,2024-09-20,株式会社ケイエス,,株式会社,東京都,板橋区,成増３丁目５１番１６号,,13,119,1750094,,,2024-09-20,清算の結了等,,,2015-10-05,1,,,,,ケイエス,0
1026,5011501022270,登記記録の閉鎖等,0,2024-09-27,2024-09-24,バンリック株式会社,,株式会社,東京都,北区,赤羽１丁目７番９号４０２号室,,13,117,1150045,,,2024-09-24,清算の結了等,,,2017-01-19,1,,,,,バンリック,0
1037,5013101008600,登記記録の閉鎖等,0,2024-09-27,2024-09-26,ココカラーズ株式会社,,株式会社,東京都,福生市,牛浜８７番地,,13,218,1970024,,,2024-09-26,清算の結了等,,,2021-04-06,1,,,,,ココカラーズ,0
1038,5013202007047,登記記録の閉鎖等,0,2024-09-27,2024-09-02,有限会社ルース,,有限会社,東京都,目黒区,祐天寺２丁目４番１０号,,13,110,1530052,,,2024-09-02,清算の結了等,,,2015-10-05,1,,,,,ルース,0
1057,5021002020095,登記記録の閉鎖等,0,2024-09-27,2024-09-25,有限会社近藤家,,有限会社,神奈川県,海老名市,中新田１丁目１６番２７号,,14,215,2430422,,,2024-09-25,清算の結了等,,,2015-10-05,1,,,,,コンドウヤ,0
1059,5021002068754,登記記録の閉鎖等,0,2024-09-27,2024-09-24,有限会社片桐印刷,,有限会社,神奈川県,三浦郡葉山町,上山口２３９２番地,,14,301,2400115,,,2024-09-24,清算の結了等,,,2015-10-05,1,,,,,カタギリインサツ,0
1063,5030001069985,登記記録の閉鎖等,0,2024-09-27,2024-09-18,株式会社Ｔ＆Ｋ,,株式会社,埼玉県,入間郡越生町,大字越生６２４番地１１,,11,327,3500416,,,2024-09-18,清算の結了等,,,2015-10-05,1,,,,,ティーアンドケー,0
1095,5100002035509,登記記録の閉鎖等,0,2024-09-27,2024-09-18,有限会社森創,,有限会社,長野県,伊那市,荒井４００８番地６,,20,209,3960025,,,2024-09-18,清算の結了等,,,2015-10-05,1,,,,,シンソウ,0
1096,5120001149811,登記記録の閉鎖等,0,2024-09-27,2024-09-25,神道建設株式会社,,株式会社,大阪府,枚方市,星丘４丁目１５番１５号,,27,210,5730013,,,2024-09-25,清算の結了等,,,2015-10-05,1,,,,,コウノミチケンセツ,0
1128,5130003005516,登記記録の閉鎖等,0,2024-09-27,2024-09-25,合同会社ｅａ．＆ｅｖｅｒｙ,,合同会社,京都府,京都市中京区,西ノ京内畑町２３番地,,26,104,6048417,,,2024-09-25,清算の結了等,,,2018-05-23,1,,,,,イーチアンドエブリ,0
1148,5180302025326,登記記録の閉鎖等,0,2024-09-27,2024-09-19,プリンセスワールドジャパン有限会社,,有限会社,愛知県,豊田市,豊栄町１２丁目５２番地１,,23,211,4701201,,,2024-09-19,清算の結了等,,,2015-10-05,1,,,,,プリンセスワールドジャパン,0
1155,5200002013355,登記記録の閉鎖等,0,2024-09-27,2024-09-24,有限会社レディスファッション・サン,,有限会社,岐阜県,大垣市,東外側町１丁目２３番地,,21,202,5030903,,,2024-09-24,清算の結了等,,,2015-10-05,1,,,,,レディスファッションサン,0
1162,5220002012347,登記記録の閉鎖等,0,2024-09-27,2024-09-17,有限会社ケーティーオート,,有限会社,石川県,加賀市,湖城町２丁目３４５番地,,17,206,9220413,,,2024-09-17,清算の結了等,,,2015-10-05,1,,,,,ケーティーオート,0
1172,5250002011544,登記記録の閉鎖等,0,2024-09-27,2024-09-24,有限会社菱光興業,,有限会社,山口県,下関市,長府亀の甲１丁目１番２０－４０２号,,35,201,7520966,,,2024-09-24,清算の結了等,,,2015-10-05,1,,,,,リョウコウコウギョウ,0
1178,5290001034690,登記記録の閉鎖等,0,2024-09-27,2024-08-23,株式会社ケイツー,,株式会社,福岡県,福岡市早良区,荒江２丁目１１番３１－７０４号,,40,137,8140021,,,2024-08-23,清算の結了等,,,2015-10-05,1,,,,,ケイツー,0
1179,5290001052577,登記記録の閉鎖等,0,2024-09-27,2024-08-23,ＭＡＳ　Ｇｌｏｂａｌ　Ｊａｐａｎ株式会社,,株式会社,福岡県,福岡市中央区,谷１丁目１番８－６０６号,,40,133,8100031,,,2024-08-23,清算の結了等,,,2015-10-05,1,,,,,,0
1191,5330001010860,登記記録の閉鎖等,0,2024-09-27,2024-09-20,株式会社緑川商事,,株式会社,熊本県,上益城郡嘉島町,大字北甘木２３５０番地,,43,442,8613104,,,2024-09-20,清算の結了等,,,2015-10-05,1,,,,,ミドリカワショウジ,0
1202,5370002001319,登記記録の閉鎖等,0,2024-09-27,2024-09-12,有限会社テイアイ・イ,,有限会社,宮城県,仙台市泉区,加茂４丁目３６番地の３,,04,105,9813122,,,2024-09-12,清算の結了等,,,2015-10-05,1,,,,,テイアイイ,0
1206,5380002030548,登記記録の閉鎖等,0,2024-09-27,2024-09-13,有限会社吉岡保険事務所,,有限会社,福島県,双葉郡大熊町,大字小入野字西大和久３３０番地の３,,07,545,9791302,,,2024-09-13,清算の結了等,,,2015-10-05,1,,,,,ヨシオカホケンジムショ,0
1213,5430001081520,登記記録の閉鎖等,0,2024-09-27,2024-09-20,パイナル株式会社,,株式会社,北海道,札幌市手稲区,手稲本町二条４丁目７番１７－１００７号,,01,109,0060022,,,2024-09-20,清算の結了等,,,2020-05-20,1,,,,,パイナル,0
1217,5440001001618,登記記録の閉鎖等,0,2024-09-27,2024-09-20,株式会社函館花卉卸売市場,,株式会社,北海道,函館市,西桔梗町５８９番地２７２,,01,202,0410824,,,2024-09-20,清算の結了等,,,2015-10-05,1,,,,,ハコダテカキオロシウリイチバ,0
1221,5450002003793,登記記録の閉鎖等,0,2024-09-27,2024-09-20,有限会社トーハツ,,有限会社,北海道,旭川市,一条通９丁目左１号１条ビル,,01,204,0700031,,,2024-09-20,清算の結了等,,,2015-10-05,1,,,,,,0
1222,5460302005183,登記記録の閉鎖等,0,2024-09-27,2024-09-25,有限会社グリーンライフ,,有限会社,北海道,網走市,字中園２６７番地８,,01,211,0992424,,,2024-09-25,清算の結了等,,,2015-10-05,1,,,,,グリーンライフ,0
1225,5480001007727,登記記録の閉鎖等,0,2024-09-27,2024-09-25,株式会社幡鉾工務店,,株式会社,徳島県,三好郡東みよし町,昼間３７１４番地２,,36,489,7712501,,,2024-09-25,清算の結了等,,,2015-10-05,1,,,,,ハタホココウムテン,0
1245,6010001189776,登記記録の閉鎖等,0,2024-09-27,2024-08-19,株式会社アンテプリマ,,株式会社,東京都,渋谷区,恵比寿西１丁目３５－１１代官山タワー３０２号室,,13,113,1500021,,,2024-08-19,清算の結了等,,,2018-02-21,1,,,,,アンテプリマ,0
1249,6010001199726,登記記録の閉鎖等,0,2024-09-27,2024-09-12,株式会社ＴＳファーマ,,株式会社,東京都,千代田区,岩本町３丁目１１番６号ＰＭＯ秋葉原６階,,13,101,1010032,,,2024-09-12,清算の結了等,,,2019-04-04,1,,,,,ティーエスファーマ,0
1251,6010001226612,登記記録の閉鎖等,0,2024-09-27,2024-09-17,ＦｏｒｅｓｔＡＩ株式会社,,株式会社,東京都,中央区,銀座１丁目１２番４号Ｎ＆ＥＢＬＤ．７階,,13,102,1040061,,,2024-09-17,清算の結了等,,,2022-05-13,1,,,,,フォレストエイアイ,0
1261,6010003029385,登記記録の閉鎖等,0,2024-09-27,2024-09-11,合同会社ヒマワリ・フォー,,合同会社,東京都,千代田区,丸の内３丁目１番１号東京共同会計事務所内,,13,101,1000005,,,2024-09-11,清算の結了等,,,2019-03-01,1,,,,,ヒマワリフォー,0
1268,6010401172638,登記記録の閉鎖等,0,2024-09-27,2024-09-02,株式会社大分地所,,株式会社,東京都,港区,元赤坂１丁目１番７号,,13,103,1070051,,,2024-09-02,清算の結了等,,,2023-02-21,1,,,,,オオイタジショ,0
1273,6010403010556,登記記録の閉鎖等,0,2024-09-27,2024-09-11,ＳＫＭ合同会社,,合同会社,東京都,千代田区,丸の内３丁目１番１号東京共同会計事務所内,,13,101,1000005,,,2024-09-11,清算の結了等,,,2015-10-05,1,,,,,エスケーエム,0
1278,6010405020520,登記記録の閉鎖等,0,2024-09-27,2024-09-02,柊一般社団法人,,その他の設立登記法人,東京都,港区,西新橋１丁目１番１号ＥＰコンサルティングサービス内,,13,103,1050003,,,2024-09-02,清算の結了等,,,2021-12-15,1,,,,,ヒイラギ,0
1286,6010803001139,登記記録の閉鎖等,0,2024-09-27,2024-09-18,ＣＹＮＫ合同会社,,合同会社,東京都,大田区,鵜の木２丁目２７番７号,,13,111,1460091,,,2024-09-18,清算の結了等,,,2015-10-05,1,,,,,シンク,0
1292,6010902003985,登記記録の閉鎖等,0,2024-09-27,2024-09-24,有限会社神崎商事,,有限会社,東京都,世田谷区,赤堤１丁目３０番７号,,13,112,1560044,,,2024-09-24,清算の結了等,,,2015-10-05,1,,,,,カンザキショウジ,0
1293,6010903001798,登記記録の閉鎖等,0,2024-09-27,2024-09-02,合同会社オフィス安達,,合同会社,東京都,世田谷区,奥沢７丁目４３番２９号,,13,112,1580083,,,2024-09-02,合併による解散等,4030002064689,令和６年９月１日東京都世田谷区奥沢七丁目４３番２９号株式会社自由が丘不動産（4030002064689）に合併し解散,2015-10-05,1,,,,,オフィスアダチ,0
1310,6011502007732,登記記録の閉鎖等,0,2024-09-27,2024-09-20,有限会社加藤銀器製作所,00055892,有限会社,東京都,荒川区,西日暮里１丁目４６番１９号,,13,118,1160013,,,2024-09-20,清算の結了等,,,2015-10-05,1,,,,,カトウギンキ,0
1314,6011701017887,登記記録の閉鎖等,0,2024-09-27,2024-09-13,株式会社ポピンズ,,株式会社,東京都,江戸川区,西小岩５丁目１３番１０号,,13,123,1330057,,,2024-09-13,清算の結了等,,,2015-10-05,1,,,,,,0
1317,6011802007234,登記記録の閉鎖等,0,2024-09-27,2024-09-20,有限会社松本建具店,,有限会社,東京都,葛飾区,西新小岩４丁目１５番５号,,13,122,1240025,,,2024-09-20,清算の結了等,,,2015-10-05,1,,,,,マツモトタテグテン,0
1321,6012403000033,登記記録の閉鎖等,0,2024-09-27,2024-09-19,合同会社旭不動産,,合同会社,東京都,国分寺市,戸倉４丁目３９番地５４,,13,214,1850003,,,2024-09-19,清算の結了等,,,2015-10-05,1,,,,,アサヒフドウサン,0
1330,6020001111656,登記記録の閉鎖等,0,2024-09-27,2024-09-11,株式会社ＣＳＴ・コミュニケーションサポートチーム,,株式会社,神奈川県,横浜市戸塚区,品濃町５３５番地３中央街区Ｃ棟２２０８号,,14,110,2440801,,,2024-09-11,清算の結了等,,,2015-10-05,1,,,,,シーエスティコミュニケーションサポートチーム,0
1336,6020002002961,登記記録の閉鎖等,0,2024-09-27,2024-09-11,有限会社スズキ故繊維,,有限会社,神奈川県,横浜市泉区,和泉町４９２３番地３,,14,116,2450016,,,2024-09-11,清算の結了等,,,2015-10-05,1,,,,,スズキコセンイ,0
1348,6030003021753,登記記録の閉鎖等,0,2024-09-27,2024-09-18,ウィステリアカンパニー合同会社,,合同会社,埼玉県,川口市,川口１丁目１番２－１１０５号シティコート川口,,11,203,3320015,,,2024-09-18,清算の結了等,,,2023-05-15,1,,,,,ウィステリアカンパニー,0
1353,6040001077301,登記記録の閉鎖等,0,2024-09-27,2024-09-20,株式会社藤井建設,,株式会社,千葉県,旭市,清和甲１４０６番地３,,12,215,2890507,,,2024-09-20,清算の結了等,,,2015-10-05,1,,,,,フジイケンセツ,0
1356,6040001088174,登記記録の閉鎖等,0,2024-09-27,2024-09-10,Ｔｏｋｋａｎ　Ｉｎｔｅｒｎａｔｉｏｎａｌ株式会社,,株式会社,東京都,千代田区,麹町３丁目１０番地１２ザ・パーク麹町レジデンス６０５,,13,101,1020083,,,2024-09-10,清算の結了等,,,2015-10-05,1,,,,,トッカンインターナショナル,0
1363,6040002064199,登記記録の閉鎖等,0,2024-09-27,2024-09-20,有限会社エイテック・ジャパン,,有限会社,千葉県,四街道市,めいわ２丁目９番５号,,12,228,2840043,,,2024-09-20,清算の結了等,,,2015-10-05,1,,,,,エイテックジャパン,0
1371,6060002004640,登記記録の閉鎖等,0,2024-09-27,2024-09-20,有限会社下タ村建設,,有限会社,栃木県,宇都宮市,御幸本町４５５７番地,,09,201,3210983,,,2024-09-20,清算の結了等,,,2015-10-05,1,,,,,シタムラケンセツ,0
1372,6070001039406,登記記録の閉鎖等,0,2024-09-27,2024-09-20,Ｎｅｘｕｓ　Ｗｏｒｋｓ株式会社,,株式会社,群馬県,邑楽郡板倉町,大字西岡７６６番地の１０,,10,521,3740107,,,2024-09-20,清算の結了等,,,2022-07-08,1,,,,,ネクサスワークス,0
1408,6140001109341,登記記録の閉鎖等,0,2024-09-27,2024-09-24,株式会社ジャスミン・オリエンテ,,株式会社,兵庫県,神戸市中央区,三宮町２丁目６番１号ＤＥＮビル５Ｆ,,28,110,6500021,,,2024-09-24,清算の結了等,,,2018-03-07,1,,,,,,0
1429,6180302018378,登記記録の閉鎖等,0,2024-09-27,2024-09-20,有限会社白木製作所,,有限会社,愛知県,刈谷市,一里山町東吹戸３番地１２,,23,210,4480002,,,2024-09-20,清算の結了等,,,2015-10-05,1,,,,,シラキセイサクショ,0
1430,6200001011433,登記記録の閉鎖等,0,2024-09-27,2024-09-25,株式会社ヒカリカット,,株式会社,岐阜県,羽島郡笠松町,中野１９８番地,,21,303,5016034,,,2024-09-25,清算の結了等,,,2015-10-05,1,,,,,ヒカリカット,0
1444,6250002005132,登記記録の閉鎖等,0,2024-09-27,2024-09-20,有限会社太陽建設,,有限会社,山口県,宇部市,東芝中町２番２２号,,35,202,7550016,,,2024-09-20,清算の結了等,,,2015-10-05,1,,,,,タイヨウケンセツ,0
1447,6260002028181,登記記録の閉鎖等,0,2024-09-27,2024-09-20,有限会社くせや,,有限会社,岡山県,津山市,船頭町２４番地,,33,203,7080034,,,2024-09-20,清算の結了等,,,2015-10-05,1,,,,,クセヤ,0
1448,6260002030121,登記記録の閉鎖等,0,2024-09-27,2024-09-20,有限会社よりあい,,有限会社,岡山県,津山市,院庄７３５番地の４,,33,203,7080014,,,2024-09-20,清算の結了等,,,2015-10-05,1,,,,,ヨリアイ,0
1457,6310001011728,登記記録の閉鎖等,0,2024-09-27,2024-09-17,株式会社グロース,,株式会社,長崎県,佐世保市,卸本町２８３番地,,42,202,8571162,,,2024-09-17,清算の結了等,,,2015-10-05,1,,,,,グロース,0
1475,6360003005252,登記記録の閉鎖等,0,2024-09-27,2024-09-19,合資会社設備技研,,合資会社,沖縄県,宮古島市,平良字荷川取８３番地,,47,214,9060008,,,2024-09-19,清算の結了等,,,2015-10-05,1,,,,,セツビギケン,0
1478,6370201000038,登記記録の閉鎖等,0,2024-09-27,2024-09-11,株式会社ウェルネス,,株式会社,宮城県,大崎市,古川駅東４丁目１番３７号,,04,215,9896115,,,2024-09-11,清算の結了等,,,2015-10-05,1,,,,,ウェルネス,0
1482,6380001014732,登記記録の閉鎖等,0,2024-09-27,2024-09-13,株式会社うおしん,,株式会社,福島県,いわき市,小名浜住吉字飯塚４５番地の１,,07,204,9718124,,,2024-09-13,清算の結了等,,,2015-10-05,1,,,,,ウオシン,0
1492,6430002001476,登記記録の閉鎖等,0,2024-09-27,2024-09-19,有限会社池田デザイン工房,,有限会社,北海道,札幌市清田区,清田六条２丁目２３番５３号,,01,110,0040846,,,2024-09-19,清算の結了等,,,2015-10-05,1,,,,,,0
1497,6470002018871,登記記録の閉鎖等,0,2024-09-27,2024-09-20,有限会社オリーブ,,有限会社,香川県,小豆郡土庄町,小海甲３７６番地１,,37,322,7614144,,,2024-09-20,清算の結了等,,,2015-10-05,1,,,,,オリーブ,0
1507,7010001104255,登記記録の閉鎖等,0,2024-09-27,2024-09-12,ＧＥＳジャパン株式会社,,株式会社,東京都,中央区,日本橋茅場町１丁目１０番５号,,13,102,1030025,,,2024-09-12,清算の結了等,,,2015-10-05,1,,,,,ジーイーエスジャパン,0
1514,7010002009214,登記記録の閉鎖等,0,2024-09-27,2024-09-12,有限会社キングコング,,有限会社,東京都,千代田区,平河町２丁目１１番１０号パークウエストひらかわ３０２号,,13,101,1020093,,,2024-09-12,清算の結了等,,,2015-10-05,1,,,,,キングコング,0
1553,7010902004082,登記記録の閉鎖等,0,2024-09-27,2024-09-24,有限会社カンテック,,有限会社,東京都,世田谷区,深沢４丁目３５番５号,,13,112,1580081,,,2024-09-24,清算の結了等,,,2015-10-05,1,,,,,カンテック,0
1558,7011001032603,登記記録の閉鎖等,0,2024-09-27,2024-09-02,株式会社ブルーウイングスタジオ,,株式会社,東京都,渋谷区,東３丁目１４番２２号－３０２,,13,113,1500011,,,2024-09-02,清算の結了等,,,2015-10-05,1,,,,,ブルーウイングスタジオ,0
1569,7011101094378,登記記録の閉鎖等,0,2024-09-27,2024-09-17,株式会社フォレスト,,株式会社,東京都,新宿区,新宿３丁目１２番４号新宿Ｎタウンプラザ３０９号,,13,104,1600022,,,2024-09-17,清算の結了等,,,2021-03-12,1,,,,,フォレスト,0
1573,7013201018646,登記記録の閉鎖等,0,2024-09-27,2024-09-02,株式会社プレビス,,株式会社,東京都,目黒区,自由が丘１丁目３番５号Ｊｓｔｙｌｅ３０５号,,13,110,1520035,,,2024-09-02,清算の結了等,,,2015-10-05,1,,,,,プレビス,0
1582,7020002104294,登記記録の閉鎖等,0,2024-09-27,2024-09-11,有限会社ハートフル,,有限会社,神奈川県,川崎市中原区,今井南町１９番４３号,,14,133,2110064,,,2024-09-11,清算の結了等,,,2015-10-05,1,,,,,ハートフル,0
1593,7030001096870,登記記録の閉鎖等,0,2024-09-27,2024-09-19,株式会社Ｋ＆Ｍ,,株式会社,埼玉県,越谷市,南町１丁目１８番１１号,,11,222,3430832,,,2024-09-19,清算の結了等,,,2015-10-05,1,,,,,ケイアンドエム,0
1598,7030002002943,登記記録の閉鎖等,0,2024-09-27,2024-09-10,有限会社大宮蓮見ビル,,有限会社,埼玉県,さいたま市大宮区,宮町２丁目５０番地,,11,103,3300802,,,2024-09-10,清算の結了等,,,2015-10-05,1,,,,,オオミヤハスミビル,0
1615,7040003016140,登記記録の閉鎖等,0,2024-09-27,2024-09-20,合同会社Ｃｈｉｖａｓｏｍ　Ｒｅｐｕｂｌｉｃ,,合同会社,千葉県,千葉市中央区,白旗３丁目１２番１６号,,12,101,2600841,,,2024-09-20,清算の結了等,,,2020-09-25,1,,,,,チバソムリパブリック,0
1624,7080002012087,登記記録の閉鎖等,0,2024-09-27,2024-09-18,有限会社カワケン,,有限会社,静岡県,静岡市清水区,村松６３１番地の８,,22,103,4240926,,,2024-09-18,清算の結了等,,,2015-10-05,1,,,,,カワケン,0
1635,7110001026828,登記記録の閉鎖等,0,2024-09-27,2024-09-18,株式会社ユピオ,,株式会社,新潟県,魚沼市,大湯温泉１８２番地１,,15,225,9460088,,,2024-09-18,清算の結了等,,,2015-10-05,1,,,,,ユピオ,0
1652,7120905002659,登記記録の閉鎖等,0,2024-09-27,2024-09-17,特定非営利活動法人アリス,,その他の設立登記法人,大阪府,吹田市,内本町１丁目８番８号,,27,205,5640032,,,2024-09-17,清算の結了等,,,2015-10-05,1,,,,,アリス,0
1656,7130001067176,登記記録の閉鎖等,0,2024-09-27,2024-09-20,株式会社ＫＳＮ　ＧＲＯＵＰ,,株式会社,京都府,京都市伏見区,久我本町５番地４シャーメゾンＫ・Ｔ・Ｃ１０２号室,,26,109,6128492,,,2024-09-20,清算の結了等,,,2020-07-09,1,,,,,ケーエスエヌグループ,0
1660,7140001104291,登記記録の閉鎖等,0,2024-09-27,2024-09-24,丸一食品株式会社,,株式会社,兵庫県,神戸市灘区,篠原台２２番９号,,28,102,6570016,,,2024-09-24,清算の結了等,,,2016-12-08,1,,,,,マルイチショクヒン,0
1675,7180301035381,登記記録の閉鎖等,0,2024-09-27,2024-09-17,日光商事株式会社,,株式会社,愛知県,西尾市,戸ケ崎１丁目２番地３９,,23,213,4450075,,,2024-09-17,清算の結了等,,,2021-09-27,1,,,,,ニッコウショウジ,0
1695,7250002001270,登記記録の閉鎖等,0,2024-09-27,2024-09-24,有限会社ビースター,,有限会社,山口県,山口市,鋳銭司４９４６番地の１０,,35,203,7471221,,,2024-09-24,清算の結了等,,,2015-10-05,1,,,,,ビースター,0
1722,7370405000502,登記記録の閉鎖等,0,2024-09-27,2024-09-10,学校法人安永寺学園,,その他の設立登記法人,宮城県,登米市,中田町石森字町１３１番地,,04,212,9870601,,,2024-09-10,清算の結了等,,,2015-10-05,1,,,,,アンエイジガクエン,0
1739,8010001129557,登記記録の閉鎖等,0,2024-09-27,2024-09-12,セブンシーズロジスティクス株式会社,,株式会社,東京都,中央区,日本橋茅場町１丁目１０番５号,,13,102,1030025,,,2024-09-12,清算の結了等,,,2015-10-05,1,,,,,セブンシーズロジスティクス,0
1761,8010401167297,登記記録の閉鎖等,0,2024-09-27,2024-09-02,株式会社倫道,,株式会社,東京都,港区,芝浦４丁目１６番１７－１２０９号,,13,103,1080023,,,2024-09-02,合併による解散等,6010401064026,令和６年９月１日東京都港区芝五丁目３０番１１号株式会社越後屋（6010401064026）に合併し解散,2022-05-16,1,,,,,リンドウ,0
1781,8010903003784,登記記録の閉鎖等,0,2024-09-27,2024-09-02,合同会社マディソン,,合同会社,東京都,世田谷区,奥沢７丁目４３番２９号,,13,112,1580083,,,2024-09-02,合併による解散等,4030002064689,令和６年９月１日東京都世田谷区奥沢七丁目４３番２９号株式会社自由が丘不動産（4030002064689）に合併し解散,2017-07-28,1,,,,,マディソン,0
1807,8013301025483,登記記録の閉鎖等,0,2024-09-27,2024-09-18,世界設計社株式会社,,株式会社,東京都,豊島区,西巣鴨２丁目１番１５号ガーデンヒルズスガモ４０４号,,13,116,1700001,,,2024-09-18,清算の結了等,,,2015-10-05,1,,,,,セカイセッケイシャ,0
1817,8020002102693,登記記録の閉鎖等,0,2024-09-27,2024-09-11,有限会社風の舎,,有限会社,神奈川県,川崎市麻生区,王禅寺西７丁目２番９号,,14,137,2150017,,,2024-09-11,清算の結了等,,,2015-10-05,1,,,,,カゼノシャ,0
1863,8080001018712,登記記録の閉鎖等,0,2024-09-27,2024-09-18,株式会社ＲＩＳＥ,,株式会社,静岡県,静岡市清水区,辻２丁目６－２７,00067384,22,103,4240806,,,2024-09-18,清算の結了等,,,2015-10-05,1,,,,,ライズ,0
1873,8120001136781,登記記録の閉鎖等,0,2024-09-27,2024-09-24,モントレーホーム株式会社,,株式会社,大阪府,東大阪市,藤戸新田２丁目７番１７号,,27,227,5770017,,,2024-09-24,清算の結了等,,,2015-10-05,1,,,,,モントレーホーム,0
1880,8120102021882,登記記録の閉鎖等,0,2024-09-27,2024-09-24,株式会社ＴＭＫ,,株式会社,大阪府,貝塚市,二色中町６番７,,27,208,5970093,,,2024-09-24,清算の結了等,,,2015-10-05,1,,,,,ティーエムケー,0
1901,8180001020971,登記記録の閉鎖等,0,2024-09-27,2024-09-12,丸洋住宅株式会社,,株式会社,愛知県,名古屋市中川区,島井町１２０８番地,,23,110,4540974,,,2024-09-12,清算の結了等,,,2015-10-05,1,,,,,マルヒロジュウタク,0
1914,8210002013649,登記記録の閉鎖等,0,2024-09-27,2024-09-25,有限会社石野建設,,有限会社,福井県,小浜市,小浜貴船２７番地,,18,204,9170059,,,2024-09-25,清算の結了等,,,2015-10-05,1,,,,,イシノケンセツ,0
1915,8220002008557,登記記録の閉鎖等,0,2024-09-27,2024-09-17,有限会社Ｍｅｄｉｃａｌ・Ｌｉｎｋ,,有限会社,石川県,金沢市,寺地１丁目２１番６号,,17,201,9218178,,,2024-09-17,清算の結了等,,,2015-10-05,1,,,,,メディカルリンク,0
1916,8230002001701,登記記録の閉鎖等,0,2024-09-27,2024-09-24,有限会社信勇産業,,有限会社,富山県,富山市,奥田町１０番４号,,16,201,9300818,,,2024-09-24,清算の結了等,,,2015-10-05,1,,,,,シンユウサンギョウ,0
1945,8390002013136,登記記録の閉鎖等,0,2024-09-27,2024-09-18,有限会社天屋食品工場,,有限会社,山形県,米沢市,御廟１丁目２番３１号,,06,202,9920055,,,2024-09-18,清算の結了等,,,2015-10-05,1,,,,,テンヤショクヒンコウジョウ,0
1946,8430001004585,登記記録の閉鎖等,0,2024-09-27,2024-09-20,教育開発出版株式会社,,株式会社,北海道,札幌市東区,北二十条東１７丁目２番２６号ハイツ元町１０１号室,,01,103,0650020,,,2024-09-20,清算の結了等,,,2015-10-05,1,,,,,キョウイクカイハツシュッパン,0
1957,8450002004954,登記記録の閉鎖等,0,2024-09-27,2024-09-20,北振電業有限会社,,有限会社,北海道,旭川市,東光十六条８丁目３番２３号,,01,204,0788356,,,2024-09-20,清算の結了等,,,2015-10-05,1,,,,,ホクシンデンギョウ,0
1965,9010001176202,登記記録の閉鎖等,0,2024-09-27,2024-09-12,株式会社米専商事,,株式会社,東京都,新宿区,舟町１番１２号ＭＫビル３階,,13,104,1600006,,,2024-09-12,清算の結了等,,,2016-06-08,1,,,,,マイセンショウジ,0
1977,9010002023114,登記記録の閉鎖等,0,2024-09-27,2024-09-24,有限会社トーヨークリーン,,有限会社,東京都,町田市,野津田町３２１０番地３６５,,13,209,1950063,,,2024-09-24,清算の結了等,,,2015-10-05,1,,,,,トーヨークリーン,0
1992,9010602015849,登記記録の閉鎖等,0,2024-09-27,2024-09-24,有限会社酒井製作所,,有限会社,東京都,墨田区,東駒形２丁目１９番６号,,13,107,1300005,,,2024-09-24,清算の結了等,,,2015-10-05,1,,,,,サカイセイサクショ,0
1999,9010903002430,登記記録の閉鎖等,0,2024-09-27,2024-09-02,合同会社ギャラティン,,合同会社,東京都,世田谷区,奥沢７丁目４３番２９号,,13,112,1580083,,,2024-09-02,合併による解散等,4030002064689,令和６年９月１日東京都世田谷区奥沢七丁目４３番２９号株式会社自由が丘不動産（4030002064689）に合併し解散,2015-10-05,1,,,,,ギャラティン,0
2001,9010903003783,登記記録の閉鎖等,0,2024-09-27,2024-09-02,合同会社ヘンリーズフォーク,,合同会社,東京都,世田谷区,奥沢７丁目４３番２９号,,13,112,1580083,,,2024-09-02,合併による解散等,4030002064689,令和６年９月１日東京都世田谷区奥沢七丁目４３番２９号株式会社自由が丘不動産（4030002064689）に合併し解散,2017-07-28,1,,,,,ヘンリーズフォーク,0
2047,9021001022626,登記記録の閉鎖等,0,2024-09-27,2024-09-17,株式会社相武ゴルフ,,株式会社,神奈川県,足柄上郡中井町,田中４４７番地,,14,361,2590145,,,2024-09-17,清算の結了等,,,2015-10-05,1,,,,,ソウブゴルフ,0
2048,9021001031445,登記記録の閉鎖等,0,2024-09-27,2024-09-25,株式会社ｅｕｒａ,,株式会社,神奈川県,鎌倉市,扇ガ谷１丁目４番１３号,,14,204,2480011,,,2024-09-25,清算の結了等,,,2015-10-05,1,,,,,ユーラ,0
2049,9021001045692,登記記録の閉鎖等,0,2024-09-27,2024-09-11,株式会社中日本データ情報,,株式会社,愛知県,名古屋市西区,天神山町１番１９号,,23,104,4510065,,,2024-09-11,清算の結了等,,,2015-10-05,1,,,,,ナカニホンデータジョウホウ,0
2064,9030001145411,登記記録の閉鎖等,0,2024-09-27,2024-09-17,ウィーズメディケア株式会社,,株式会社,埼玉県,北葛飾郡松伏町,大字築比地７９５番地１,,11,465,3430102,,,2024-09-17,合併による解散等,6030001066965,令和６年９月１日埼玉県北葛飾郡松伏町築比地７９５番地１株式会社ウィーズ（6030001066965）に合併し解散,2021-11-17,1,,,,,ウィーズメディケア,0
2070,9030005021071,登記記録の閉鎖等,0,2024-09-27,2024-09-18,一般社団法人マンション修繕コンサルタント協会,,その他の設立登記法人,埼玉県,川口市,栄町２丁目２番１０－１３０２号,,11,203,3320017,,,2024-09-18,清算の結了等,,,2022-11-16,1,,,,,マンションシュウゼンコンサルタントキョウカイ,0
2073,9040001104382,登記記録の閉鎖等,0,2024-09-27,2024-09-20,スカイテックス株式会社,,株式会社,千葉県,船橋市,馬込西２丁目１３番３９号,,12,204,2730855,,,2024-09-20,清算の結了等,,,2018-04-20,1,,,,,スカイテックス,0
2075,9040002066259,登記記録の閉鎖等,0,2024-09-27,2024-09-20,有限会社尾形運輸,,有限会社,千葉県,木更津市,桜井新町３丁目５番地１７,,12,206,2920823,,,2024-09-20,清算の結了等,,,2015-10-05,1,,,,,,0
2080,9050001013104,登記記録の閉鎖等,0,2024-09-27,2024-09-17,株式会社カネコフーズ,,株式会社,茨城県,かすみがうら市,加茂３０５８番地２,,08,230,3000135,,,2024-09-17,清算の結了等,,,2015-10-05,1,,,,,カネコフーズ,0
2090,9070001036937,登記記録の閉鎖等,0,2024-09-27,2024-09-20,株式会社Ｌｉｖｌｙ,,株式会社,群馬県,安中市,安中４０１５番地２,,10,211,3790116,,,2024-09-20,清算の結了等,,,2020-06-18,1,,,,,リブリー,0
2096,9080105005242,登記記録の閉鎖等,0,2024-09-27,2024-09-19,特定非営利活動法人Ｈｏｕｓｉｎｇ　Ｃｏｎｓｕｍｅｒｓ　Ａｓｓｏｃｉａｔｉｏｎ,,その他の設立登記法人,静岡県,田方郡函南町,塚本１８１番地９,,22,325,4190124,,,2024-09-19,清算の結了等,,,2015-10-05,1,,,,,ハウジングコンシューマーアソシエイション,0
2097,9080402017353,登記記録の閉鎖等,0,2024-09-27,2024-09-18,有限会社小林工業,,有限会社,静岡県,掛川市,家代２１９５番地の１,,22,213,4360225,,,2024-09-18,清算の結了等,,,2015-10-05,1,,,,,コバヤシコウギョウ,0
2124,9120101004359,登記記録の閉鎖等,0,2024-09-27,2024-09-25,株式会社泉有,,株式会社,大阪府,堺市西区,上野芝向ヶ丘町５丁９番１２号,,27,144,5938303,,,2024-09-25,清算の結了等,,,2015-10-05,1,,,,,センユウ,0
2129,9120905001808,登記記録の閉鎖等,0,2024-09-27,2024-09-17,社会福祉法人高槻市社会福祉事業団,,その他の設立登記法人,大阪府,高槻市,桃園町４番１５号高槻市水道部北庁舎２階,,27,207,5690067,,,2024-09-17,清算の結了等,,,2015-10-05,1,,,,,タカツキシシャカイフクシジギョウダン,0
2143,9140003018488,登記記録の閉鎖等,0,2024-09-27,2024-09-24,合同会社Ｃｏｒｏｍｏ　Ｆａｃｔｏｒｙ,,合同会社,兵庫県,尼崎市,田能１丁目１６番１－６０６号,,28,202,6610951,,,2024-09-24,清算の結了等,,,2022-12-23,1,,,,,コロモファクトリー,0
2170,9210002013458,登記記録の閉鎖等,0,2024-09-27,2024-09-25,有限会社三上商事,,有限会社,福井県,鯖江市,石田上町第４０号９番地の１９,,18,207,9160083,,,2024-09-25,清算の結了等,,,2015-10-05,1,,,,,ミカミショウジ,0
2178,9250002008082,登記記録の閉鎖等,0,2024-09-27,2024-09-20,石川鉄工有限会社,,有限会社,山口県,下関市,上田中町２丁目２２番１８号,,35,201,7500009,,,2024-09-20,清算の結了等,,,2015-10-05,1,,,,,イシカワテッコウ,0
2185,9290002036550,登記記録の閉鎖等,0,2024-09-27,2024-08-21,有限会社寿司割烹大吉,,有限会社,福岡県,糟屋郡志免町,志免４丁目２０番１１号,,40,343,8112202,,,2024-08-21,清算の結了等,,,2015-10-05,1,,,,,スシカッポウダイキチ,0
2192,9310002015072,登記記録の閉鎖等,0,2024-09-27,2024-09-18,有限会社たいら,,有限会社,長崎県,諫早市,小船越町７番地３,,42,204,8540062,,,2024-09-18,清算の結了等,,,2015-10-05,1,,,,,タイラ,0
2193,9310002015915,登記記録の閉鎖等,0,2024-09-27,2024-09-19,有限会社香川土木,,有限会社,長崎県,長崎市,金堀町４３番２５号,,42,201,8528026,,,2024-09-19,清算の結了等,,,2015-10-05,1,,,,,カガワドボク,0
2205,9370002003369,登記記録の閉鎖等,0,2024-09-27,2024-09-11,有限会社タクテム,,有限会社,宮城県,仙台市太白区,富沢４丁目９番２４号,,04,104,9820032,,,2024-09-11,清算の結了等,,,2015-10-05,1,,,,,タクテム,0
2218,9460102007211,登記記録の閉鎖等,0,2024-09-27,2024-09-20,有限会社大地飼料販売,,有限会社,北海道,河西郡芽室町,新生南１１線１９番地２,,01,637,0820081,,,2024-09-20,清算の結了等,,,2015-10-05,1,,,,,ダイチシリョウハンバイ,0
2223,9490002009239,登記記録の閉鎖等,0,2024-09-27,2024-09-24,有限会社宮本化粧品店,,有限会社,高知県,宿毛市,中央６丁目２番１１号,,39,208,7880001,,,2024-09-24,清算の結了等,,,2015-10-05,1,,,,,ミヤモトケショウヒンテン,0
