sequenceNumber,corporateNumber,process,correct,updateDate,changeDate,name,nameImageId,kind,prefectureName,cityName,streetNumber,addressImageId,prefectureCode,cityCode,postCode,addressOutside,addressOutsideImageId,closeDate,closeCause,successorCorporateNumber,changeCause,assignmentDate,latest,enName,enPrefectureName,enCityName,enAddressOutside,furigana,hihyoji
13,1010005011214,登記記録の閉鎖等,0,2021-12-28,2021-12-23,特定非営利活動法人温故創新の会,,その他の設立登記法人,東京都,千代田区,麹町４丁目４番地３建設コンサルタンツ企業年金基金内,,13,101,1020083,,,2021-12-23,清算の結了等,,,2015-10-05,1,,,,,オンコソウシンノカイ,0
25,1010601007193,登記記録の閉鎖等,0,2021-12-28,2021-12-21,睦商事株式会社,,株式会社,東京都,江東区,海辺２番６号クレセント國安１０２号,,13,108,1350012,,,2021-12-21,清算の結了等,,,2015-10-05,1,,,,,ムツミショウジ,0
37,1011001091027,登記記録の閉鎖等,0,2021-12-28,2021-12-14,株式会社フィックスファイル,,株式会社,東京都,目黒区,大橋２丁目１６番２９号,,13,110,1530044,,,2021-12-14,清算の結了等,,,2015-10-05,1,,,,,フィックスファイル,0
77,1030002107062,登記記録の閉鎖等,0,2021-12-28,2021-12-24,有限会社増田金属,,有限会社,埼玉県,川口市,西川口６丁目１１番１号,,11,203,3320021,,,2021-12-24,清算の結了等,,,2015-10-05,1,,,,,マスダキンゾク,0
79,1040001018813,登記記録の閉鎖等,0,2021-12-28,2021-12-20,株式会社みさき給食,,株式会社,千葉県,船橋市,二和西６丁目１０番１号,,12,204,2740806,,,2021-12-20,清算の結了等,,,2015-10-05,1,,,,,,0
85,1040002053479,登記記録の閉鎖等,0,2021-12-28,2021-12-22,有限会社井上翠デザイン事務所,,有限会社,千葉県,松戸市,高塚新田１２３番地の１松戸ニッセイエデンの園２号館３１０号室,,12,207,2702222,,,2021-12-22,清算の結了等,,,2015-10-05,1,,,,,イノウエミドリデザインジムショ,0
98,1070002023363,登記記録の閉鎖等,0,2021-12-28,2021-12-24,有限会社健晃堂,,有限会社,群馬県,みどり市,笠懸町鹿４３５１番地,,10,212,3792313,,,2021-12-24,清算の結了等,,,2015-10-05,1,,,,,ケンコウドウ,0
104,1080002014048,登記記録の閉鎖等,0,2021-12-28,2021-12-24,有限会社オカムラ,,有限会社,静岡県,島田市,神谷城５４５番地,,22,209,4280036,,,2021-12-24,清算の結了等,,,2015-10-05,1,,,,,オカムラ,0
113,1120001096677,登記記録の閉鎖等,0,2021-12-28,2021-12-23,株式会社ＦＩＡ　ｍｅｄｉｃａｌ　ｃｏｎｓｕｌｔｉｎｇ,,株式会社,大阪府,大阪市北区,曾根崎２丁目１５番２４号４Ｆ,,27,127,5300057,,,2021-12-23,清算の結了等,,,2015-10-05,1,,,,,エフアイエーメディカルコンサルティング,0
116,1120101059294,登記記録の閉鎖等,0,2021-12-28,2021-12-22,株式会社ラプレ,,株式会社,大阪府,堺市東区,北野田４４３番地４,,27,143,5998123,,,2021-12-22,清算の結了等,,,2019-01-16,1,,,,,ラプレ,0
124,1122001024007,登記記録の閉鎖等,0,2021-12-28,2021-12-24,株式会社Ｔｗｉｎｋｌｅ　Ｂａｂｙ　Ｈｏｕｓｅ,,株式会社,大阪府,東大阪市,大蓮東３丁目７番６号,,27,227,5770824,,,2021-12-24,清算の結了等,,,2015-10-05,1,,,,,トゥインクルベイビーハウス,0
159,1180005009497,登記記録の閉鎖等,0,2021-12-28,2021-12-23,医療法人清心会大久保外科,,その他の設立登記法人,愛知県,一宮市,富士１丁目８番１８号,,23,203,4910024,,,2021-12-23,清算の結了等,,,2015-10-05,1,,,,,セイシンカイオオクボゲカ,0
168,1230002000222,登記記録の閉鎖等,0,2021-12-28,2021-12-23,有限会社アメニティ,,有限会社,富山県,富山市,花園町４丁目２番２８号,,16,201,9398201,,,2021-12-23,清算の結了等,,,2015-10-05,1,,,,,アメニティ,0
197,1320001002508,登記記録の閉鎖等,0,2021-12-28,2021-12-24,邦祥工業株式会社,,株式会社,大分県,大分市,三佐３丁目８番２０号オフィスワールドＭ２０１号,,44,201,8700108,,,2021-12-24,清算の結了等,,,2015-10-05,1,,,,,ホウショウコウギョウ,0
200,1350005005652,登記記録の閉鎖等,0,2021-12-28,2021-12-22,ＮＰＯ法人えびのフリッターズ,,その他の設立登記法人,宮崎県,えびの市,大字向江６４２番地,,45,209,8894151,,,2021-12-22,清算の結了等,,,2016-12-21,1,,,,,エビノフリッターズ,0
201,1360002002429,登記記録の閉鎖等,0,2021-12-28,2021-12-22,有限会社総合企画,,有限会社,沖縄県,那覇市,首里石嶺町１丁目１９番地の２,,47,201,9030804,,,2021-12-22,清算の結了等,,,2015-10-05,1,,,,,ソウゴウキカク,0
206,1370502000071,登記記録の閉鎖等,0,2021-12-28,2021-12-23,有限会社うつみ園芸,,有限会社,宮城県,気仙沼市,赤岩舘森１３６番地,,04,205,9880102,,,2021-12-23,清算の結了等,,,2015-10-05,1,,,,,ウツミエンゲイ,0
212,1390002009074,登記記録の閉鎖等,0,2021-12-28,2021-12-23,有限会社一久サービス,,有限会社,山形県,鶴岡市,湯野浜１丁目１０番２９号,,06,203,9971201,,,2021-12-23,清算の結了等,,,2015-10-05,1,,,,,イッキュウサービス,0
218,1430002062267,登記記録の閉鎖等,0,2021-12-28,2021-12-23,有限会社田中時計めがね店,,有限会社,北海道,浦河郡浦河町,大通４丁目４番地,,01,607,0570013,,,2021-12-23,清算の結了等,,,2015-10-05,1,,,,,タナカトケイメガネテン,0
219,1430005013952,登記記録の閉鎖等,0,2021-12-28,2021-12-21,一般社団法人発達をもつ大人の会,,その他の設立登記法人,北海道,札幌市西区,八軒十条東１丁目１番１０号,,01,107,0630870,,,2021-12-21,清算の結了等,,,2020-07-15,1,,,,,ハッタツヲモツオトナノカイ,0
230,2010001149874,登記記録の閉鎖等,0,2021-12-28,2021-12-17,株式会社ＭＩＴ　Ｌａｂ,,株式会社,東京都,中央区,八丁堀２丁目１２番７号,,13,102,1040032,,,2021-12-17,清算の結了等,,,2015-10-05,1,,,,,エムアイティーラボ,0
237,2010001217565,登記記録の閉鎖等,0,2021-12-28,2021-12-21,ＪＰＴ株式会社,,株式会社,東京都,千代田区,丸の内１丁目８番１号,,13,101,1000005,,,2021-12-21,清算の結了等,,,2021-04-20,1,,,,,ジェイピーティー,0
240,2010002049157,登記記録の閉鎖等,0,2021-12-28,2021-12-21,有限会社キューブＩＴ,,有限会社,東京都,千代田区,内幸町１丁目１番１号帝国ホテルタワー１５階,,13,101,1000011,,,2021-12-21,清算の結了等,,,2015-10-05,1,,,,,キューブアイティー,0
241,2010002052838,登記記録の閉鎖等,0,2021-12-28,2021-12-21,有限会社エフ・イー・エックス,,有限会社,東京都,港区,港南１丁目６番４１号芝浦クリスタル品川９０１,,13,103,1080075,,,2021-12-21,清算の結了等,,,2015-10-05,1,,,,,エフイーエックス,0
244,2010101007791,登記記録の閉鎖等,0,2021-12-28,2021-12-27,株式会社マルチカ,,株式会社,東京都,八王子市,台町３丁目６番１－７０４号,,13,201,1930931,,,2021-12-27,清算の結了等,,,2015-10-05,1,,,,,マルチカ,0
288,2011603002322,登記記録の閉鎖等,0,2021-12-28,2021-12-17,Ｊａｐａｎａａｎａ　Ｔｒａｖｅｌ　ａｎｄ　Ｂｕｓｉｎｅｓｓ　Ｓｏｌｕｔｉｏｎｓ合同会社,,合同会社,東京都,練馬区,桜台４丁目１９番１７号,,13,120,1760002,,,2021-12-17,清算の結了等,,,2018-04-26,1,,,,,ジャパナトラベルアンドビジネスソリューションズ,0
292,2011702010944,登記記録の閉鎖等,0,2021-12-28,2021-12-24,丸新運送有限会社,,有限会社,東京都,江戸川区,上篠崎４丁目１０番１１号,,13,123,1330054,,,2021-12-24,清算の結了等,,,2015-10-05,1,,,,,マルシンウンソウ,0
300,2020002005885,登記記録の閉鎖等,0,2021-12-28,2021-12-23,有限会社健運,,有限会社,神奈川県,横浜市都筑区,中川２丁目１０番１,,14,118,2240001,,,2021-12-23,清算の結了等,,,2015-10-05,1,,,,,ケンウン,0
303,2021001067891,登記記録の閉鎖等,0,2021-12-28,2021-12-27,ＣＲＯＯＺ　ＴＲＡＶＥＬ株式会社,,株式会社,東京都,品川区,西品川１丁目１番１号大崎ガーデンタワー,,13,109,1410033,,,2021-12-27,清算の結了等,,,2019-08-05,1,,,,,クルーズトラベル,0
339,2050002032811,登記記録の閉鎖等,0,2021-12-28,2021-12-22,有限会社ショー,,有限会社,茨城県,日立市,鹿島町１丁目１４番８号,,08,202,3170071,,,2021-12-22,清算の結了等,,,2015-10-05,1,,,,,ショー,0
345,2080002005921,登記記録の閉鎖等,0,2021-12-28,2021-12-27,有限会社望月バガス,,有限会社,静岡県,静岡市駿河区,中野新田７２３番地の２３６,,22,102,4228051,,,2021-12-27,清算の結了等,,,2015-10-05,1,,,,,モチヅキバガス,0
350,2080102010219,登記記録の閉鎖等,0,2021-12-28,2021-12-24,有限会社小松板金工業,,有限会社,静岡県,田方郡函南町,塚本北大久保９３３番地の１,,22,325,4190124,,,2021-12-24,清算の結了等,,,2015-10-05,1,,,,,コマツバンキンコウギョウ,0
352,2080402009869,登記記録の閉鎖等,0,2021-12-28,2021-12-23,有限会社フジ電子,,有限会社,静岡県,浜松市西区,雄踏町宇布見９２１９番地の１０,,22,133,4310102,,,2021-12-23,清算の結了等,,,2015-10-05,1,,,,,フジデンシ,0
353,2080403000249,登記記録の閉鎖等,0,2021-12-28,2021-12-22,合資会社藤村商店,,合資会社,静岡県,浜松市中区,元浜町２８７番地,,22,131,4300942,,,2021-12-22,清算の結了等,,,2015-10-05,1,,,,,フジムラショウテン,0
372,2120901011024,登記記録の閉鎖等,0,2021-12-28,2021-12-24,サンアイ信販株式会社,,株式会社,大阪府,高槻市,明野町３９番１３号,,27,207,5690082,,,2021-12-24,清算の結了等,,,2015-10-05,1,,,,,サンアイシンパン,0
390,2140002019551,登記記録の閉鎖等,0,2021-12-28,2021-12-23,有限会社ピア・ジュリアン,,有限会社,兵庫県,神戸市中央区,加納町４丁目３番２号,,28,110,6500001,,,2021-12-23,清算の結了等,,,2015-10-05,1,,,,,ピアジュリアン,0
404,2190002004243,登記記録の閉鎖等,0,2021-12-28,2021-12-24,有限会社宮崎工業,00075846,有限会社,三重県,津市,一志町高野２６番地４３,,24,201,5152504,,,2021-12-24,清算の結了等,,,2015-10-05,1,,,,,ミヤザキコウギョウ,0
410,2240001025689,登記記録の閉鎖等,0,2021-12-28,2021-12-24,菊間海運株式会社,,株式会社,広島県,呉市,中通１丁目２番２１号,,34,202,7370046,,,2021-12-24,清算の結了等,,,2015-10-05,1,,,,,キクマカイウン,0
418,2260003001190,登記記録の閉鎖等,0,2021-12-28,2021-12-27,水伸合同会社,,合同会社,岡山県,勝田郡奈義町,馬桑８２８番地,,33,623,7081301,,,2021-12-27,清算の結了等,,,2015-10-05,1,,,,,スイシン,0
423,2290002046449,登記記録の閉鎖等,0,2021-12-28,2021-12-22,有限会社愛ケア,,有限会社,福岡県,飯塚市,西町４番５３号,,40,205,8200043,,,2021-12-22,清算の結了等,,,2015-10-05,1,,,,,アイケア,0
426,2290005008504,登記記録の閉鎖等,0,2021-12-28,2021-12-27,特定非営利活動法人嘉穂劇場,,その他の設立登記法人,福岡県,飯塚市,飯塚５番２３号,,40,205,8200041,,,2021-12-27,清算の結了等,,,2015-10-05,1,,,,,カホゲキジョウ,0
432,2290802013012,登記記録の閉鎖等,0,2021-12-28,2021-12-27,丸清食品有限会社,,有限会社,福岡県,北九州市八幡東区,枝光２丁目７番５７号,,40,108,8050002,,,2021-12-27,清算の結了等,,,2015-10-05,1,,,,,マルセイショクヒン,0
438,2310001013967,登記記録の閉鎖等,0,2021-12-28,2021-12-27,株式会社ＬＩＮＫＳ,,株式会社,長崎県,長崎市,葉山１丁目８番１－５０６号,,42,201,8528053,,,2021-12-27,清算の結了等,,,2015-12-09,1,,,,,リンクス,0
441,2320002000823,登記記録の閉鎖等,0,2021-12-28,2021-12-27,有限会社荒友,,有限会社,大分県,大分市,東大道３丁目２番２８号,,44,201,8700823,,,2021-12-27,清算の結了等,,,2015-10-05,1,,,,,アラトモ,0
465,2420005005438,登記記録の閉鎖等,0,2021-12-28,2021-12-24,青森人材支援企業組合,,その他の設立登記法人,青森県,弘前市,大字東和徳町１番地１,,02,202,0368043,,,2021-12-24,清算の結了等,,,2015-10-05,1,,,,,アオモリジンザイシエン,0
478,2450001006420,登記記録の閉鎖等,0,2021-12-28,2021-12-24,株式会社下久根建設,,株式会社,北海道,空知郡中富良野町,新町１番３１号,,01,461,0710754,,,2021-12-24,清算の結了等,,,2015-10-05,1,,,,,シモクネケンセツ,0
479,2450002001783,登記記録の閉鎖等,0,2021-12-28,2021-12-27,旭宝商事有限会社,,有限会社,北海道,旭川市,神楽五条１３丁目１番３号,,01,204,0708005,,,2021-12-27,清算の結了等,,,2019-12-09,1,,,,,キョクホウショウジ,0
481,2470001010164,登記記録の閉鎖等,0,2021-12-28,2021-12-27,株式会社レディスファッション滝,,株式会社,香川県,三豊市,財田町財田上４１２９番地,,37,208,7690401,,,2021-12-27,清算の結了等,,,2015-10-05,1,,,,,レディスファッションタキ,0
485,3010001000549,登記記録の閉鎖等,0,2021-12-28,2021-12-01,ＥＰＳホールディングス株式会社,,株式会社,東京都,新宿区,津久戸町１番８号,,13,104,1620821,,,2021-12-01,合併による解散等,4011101095073,令和３年１２月１日東京都新宿区津久戸町１番８号新鷹株式会社（4011101095073）に合併し解散,2015-10-05,1,,,,,イーピーエスホールディングス,0
486,3010001002644,登記記録の閉鎖等,0,2021-12-28,2021-12-27,株式会社廣洋プロジェクト,,株式会社,東京都,文京区,本駒込４丁目６番１１号,,13,105,1130021,,,2021-12-27,清算の結了等,,,2015-10-05,1,,,,,コウヨウプロジェクト,0
491,3010001120693,登記記録の閉鎖等,0,2021-12-28,2021-12-22,クリアーエッジ・フィルトレーション・ジャパン株式会社,,株式会社,千葉県,千葉市中央区,中央４丁目８番８号日進ビル１００１号,,12,101,2600013,,,2021-12-22,清算の結了等,,,2015-10-05,1,,,,,クリアーエッジフィルトレーションジャパン,0
537,3011601017362,登記記録の閉鎖等,0,2021-12-28,2021-12-23,株式会社ライフマネージメント,,株式会社,東京都,練馬区,栄町１６番７号,,13,120,1760006,,,2021-12-23,清算の結了等,,,2015-10-05,1,,,,,ライフマネージメント,0
541,3011802027251,登記記録の閉鎖等,0,2021-12-28,2021-12-23,有限会社エムツーバテイ,,有限会社,東京都,足立区,東六月町１１番１６号,,13,121,1210071,,,2021-12-23,清算の結了等,,,2015-10-05,1,,,,,エムツーバテイ,0
552,3020001041889,登記記録の閉鎖等,0,2021-12-28,2021-12-23,株式会社セルシグナルズ,,株式会社,神奈川県,横浜市磯子区,洋光台３丁目２９番１８号,,14,107,2350045,,,2021-12-23,清算の結了等,,,2015-10-05,1,,,,,セルシグナルズ,0
569,3040001084903,登記記録の閉鎖等,0,2021-12-28,2021-12-22,株式会社悠徳会,,株式会社,千葉県,山武市,成東７５１番地７,,12,237,2891326,,,2021-12-22,清算の結了等,,,2015-10-05,1,,,,,ユウトクカイ,0
580,3060001003068,登記記録の閉鎖等,0,2021-12-28,2021-12-23,株式会社トーコー,,株式会社,栃木県,宇都宮市,御幸町６番地１,,09,201,3210984,,,2021-12-23,清算の結了等,,,2015-10-05,1,,,,,,0
581,3060002016630,登記記録の閉鎖等,0,2021-12-28,2021-12-21,有限会社福田工務店,00024467,有限会社,栃木県,塩谷郡塩谷町,大字東房３７０番地２,,09,384,3292214,,,2021-12-21,清算の結了等,,,2015-10-05,1,,,,,フクダコウムテン,0
599,3120001078434,登記記録の閉鎖等,0,2021-12-28,2021-12-23,株式会社熊商,,株式会社,大阪府,大阪市中央区,南船場３丁目２－２８－３０２,,27,128,5420081,,,2021-12-23,清算の結了等,,,2015-10-05,1,,,,,クマショウ,0
618,3122001007298,登記記録の閉鎖等,0,2021-12-28,2021-12-24,株式会社エム・ティ・ディー,,株式会社,大阪府,東大阪市,高井田元町１丁目７番１８号,,27,227,5770054,,,2021-12-24,清算の結了等,,,2015-10-05,1,,,,,エムティディー,0
621,3130001017060,登記記録の閉鎖等,0,2021-12-28,2021-12-23,株式会社京わらべ,,株式会社,京都府,京都市中京区,六丁目２７４番地プレ・ドゥ・ジャルダン１０１,,26,104,6040965,,,2021-12-23,清算の結了等,,,2015-10-05,1,,,,,キョウワラベ,0
644,3180302002896,登記記録の閉鎖等,0,2021-12-28,2021-12-23,有限会社豊化工藤川工場,,有限会社,愛知県,岡崎市,藤川町字唐沢２番地２,,23,202,4443523,,,2021-12-23,清算の結了等,,,2015-10-05,1,,,,,ユタカカコウフジカワコウジョウ,0
652,3210001003589,登記記録の閉鎖等,0,2021-12-28,2021-12-21,株式会社堀江幸,,株式会社,福井県,福井市,問屋町４丁目８０４番地,,18,201,9188231,,,2021-12-21,清算の結了等,,,2015-10-05,1,,,,,ホリエコウ,0
658,3240001040167,登記記録の閉鎖等,0,2021-12-28,2021-12-24,不動産総合サービス株式会社,,株式会社,広島県,三原市,城町３丁目８番２３号,,34,204,7230014,,,2021-12-24,清算の結了等,,,2015-10-05,1,,,,,フドウサンソウゴウサービス,0
661,3240001057376,登記記録の閉鎖等,0,2021-12-28,2021-12-23,株式会社チャスポ,,株式会社,広島県,広島市中区,橋本町９－７ビル博丈８階,,34,101,7300015,,,2021-12-23,清算の結了等,,,2021-02-05,1,,,,,チャスポ,0
672,3290001049501,登記記録の閉鎖等,0,2021-12-28,2021-12-22,株式会社福田屋紙店,,株式会社,福岡県,久留米市,日吉町１９番地の２５,,40,203,8300017,,,2021-12-22,清算の結了等,,,2015-10-05,1,,,,,フクダヤカミテン,0
685,3290802006898,登記記録の閉鎖等,0,2021-12-28,2021-12-24,有限会社ラナンウォーク,,有限会社,福岡県,北九州市小倉南区,守恒本町１丁目２１番１号,,40,107,8020971,,,2021-12-24,清算の結了等,,,2015-10-05,1,,,,,ラナンウォーク,0
686,3300001004834,登記記録の閉鎖等,0,2021-12-28,2021-12-24,株式会社旅サロンしろいし,,株式会社,佐賀県,杵島郡白石町,大字福田１５１４番地２,,41,425,8491112,,,2021-12-24,清算の結了等,,,2015-10-05,1,,,,,タビサロンシロイシ,0
690,3320002003841,登記記録の閉鎖等,0,2021-12-28,2021-12-27,有限会社セゾン大分,,有限会社,大分県,大分市,大字千歳２３９番地の４５,,44,201,8700132,,,2021-12-27,清算の結了等,,,2015-10-05,1,,,,,セゾンオオイタ,0
695,3360002011824,登記記録の閉鎖等,0,2021-12-28,2021-12-23,有限会社ジョイベント,,有限会社,沖縄県,沖縄市,上地３丁目３番２号,,47,211,9040031,,,2021-12-23,清算の結了等,,,2015-10-05,1,,,,,ジョイベント,0
704,3420002001546,登記記録の閉鎖等,0,2021-12-28,2021-12-23,有限会社スリークリーク商事,,有限会社,青森県,青森市,桜川３丁目３番１号,,02,201,0300945,,,2021-12-23,清算の結了等,,,2015-10-05,1,,,,,スリークリークショウジ,0
712,3500002006487,登記記録の閉鎖等,0,2021-12-28,2021-12-27,マルニシ産業有限会社,,有限会社,愛媛県,松山市,千舟町３丁目１番５,,38,201,7900011,,,2021-12-27,清算の結了等,,,2015-10-05,1,,,,,マルニシサンギョウ,0
735,4010901007080,登記記録の閉鎖等,0,2021-12-28,2021-12-23,拓信建設株式会社,,株式会社,東京都,世田谷区,上北沢５丁目３３番２３号,,13,112,1560057,,,2021-12-23,清算の結了等,,,2015-10-05,1,,,,,,0
767,4020001067314,登記記録の閉鎖等,0,2021-12-28,2021-12-14,株式会社アルファコーポレーション,,株式会社,神奈川県,川崎市宮前区,土橋４丁目８番２号,,14,136,2160005,,,2021-12-14,清算の結了等,,,2015-10-05,1,,,,,アルファコーポレーション,0
785,4030001022854,登記記録の閉鎖等,0,2021-12-28,2021-12-24,ＭＡ－Ｃ企画設計株式会社,,株式会社,埼玉県,蕨市,錦町４丁目８番３３号,,11,223,3350005,,,2021-12-24,清算の結了等,,,2015-10-05,1,,,,,エムエーシーキカクセッケイ,0
804,4040001117018,登記記録の閉鎖等,0,2021-12-28,2021-12-20,株式会社ＴＳホールディングス,,株式会社,千葉県,千葉市中央区,東千葉２丁目８番１５号,,12,101,2600041,,,2021-12-20,合併による解散等,4040001006468,令和３年１２月１６日千葉市中央区東千葉二丁目８番１５号株式会社ファミリー（4040001006468）に合併し解散,2021-02-05,1,,,,,ティーエスホールディングス,0
830,4070002013205,登記記録の閉鎖等,0,2021-12-28,2021-12-23,有限会社ワークアシスト,,有限会社,群馬県,高崎市,上小鳥町３１９番地６,,10,202,3700078,,,2021-12-23,清算の結了等,,,2015-10-05,1,,,,,ワークアシスト,0
834,4070002020770,登記記録の閉鎖等,0,2021-12-28,2021-12-24,有限会社伸栄光学,,有限会社,群馬県,佐波郡玉村町,大字樋越１６９９番地１２,,10,464,3701103,,,2021-12-24,清算の結了等,,,2015-10-05,1,,,,,,0
835,4070002022123,登記記録の閉鎖等,0,2021-12-28,2021-12-27,有限会社エステック,,有限会社,群馬県,伊勢崎市,赤堀鹿島町８５９番地,,10,204,3792202,,,2021-12-27,清算の結了等,,,2015-10-05,1,,,,,エステック,0
873,4130005009284,登記記録の閉鎖等,0,2021-12-28,2021-12-24,医療法人ふるき産婦人科,,その他の設立登記法人,京都府,京田辺市,河原北口４２番地の３,,26,211,6100361,,,2021-12-24,清算の結了等,,,2015-10-05,1,,,,,,0
877,4140001082838,登記記録の閉鎖等,0,2021-12-28,2021-12-22,株式会社ケーツープラスシステム,,株式会社,東京都,港区,南青山２丁目２７番２５号,,13,103,1070062,,,2021-12-22,清算の結了等,,,2015-10-05,1,,,,,ケーツープラスシステム,0
884,4160001021612,登記記録の閉鎖等,0,2021-12-28,2021-12-24,株式会社上田鉄筋,,株式会社,滋賀県,長浜市,西上坂町１２０３番地３,,25,203,5260803,,,2021-12-24,清算の結了等,,,2019-04-19,1,,,,,ウエダテッキン,0
889,4180002038554,登記記録の閉鎖等,0,2021-12-28,2021-12-23,有限会社良原設備,,有限会社,愛知県,名古屋市西区,大野木５丁目２３２番地の５,,23,104,4520803,,,2021-12-23,清算の結了等,,,2015-10-05,1,,,,,ヨシハラセツビ,0
894,4180302012135,登記記録の閉鎖等,0,2021-12-28,2021-12-24,有限会社東海福祉,,有限会社,愛知県,豊橋市,下地町字神田１６１番地の２,,23,201,4400084,,,2021-12-24,清算の結了等,,,2015-10-05,1,,,,,トウカイフクシ,0
917,4280002009859,登記記録の閉鎖等,0,2021-12-28,2021-12-27,小野自動車有限会社,,有限会社,島根県,益田市,喜阿弥町イ１５９０番地１４,,32,204,6993764,,,2021-12-27,清算の結了等,,,2015-10-05,1,,,,,オノジドウシャ,0
928,4310001012232,登記記録の閉鎖等,0,2021-12-28,2021-12-27,株式会社池田保険事務所,,株式会社,長崎県,南島原市,西有家町龍石８３８番地２,,42,214,8592216,,,2021-12-27,清算の結了等,,,2015-10-05,1,,,,,イケダホケンジムショ,0
964,4402701000663,登記記録の閉鎖等,0,2021-12-28,2021-12-27,株式会社渡邉工業,,株式会社,岩手県,陸前高田市,米崎町字和方１１１番地１,,03,210,0292206,,,2021-12-27,清算の結了等,,,2015-10-05,1,,,,,ワタナベコウギョウ,0
974,4430005001582,登記記録の閉鎖等,0,2021-12-28,2021-12-24,医療法人社団エルム歯科医院,,その他の設立登記法人,北海道,札幌市西区,八軒四条東１丁目２番１０号,,01,107,0630864,,,2021-12-24,清算の結了等,,,2015-10-05,1,,,,,エルムシカイイン,0
984,5010001151852,登記記録の閉鎖等,0,2021-12-28,2021-12-22,株式会社Ｅ　Ｌｉｔｅ　Ｊａｐａｎ,,株式会社,東京都,千代田区,永田町２丁目１１番１号山王パークタワー４階,,13,101,1000014,,,2021-12-22,清算の結了等,,,2015-10-05,1,,,,,イーライトジャパン,0
1010,5010901036673,登記記録の閉鎖等,0,2021-12-28,2021-12-24,アレンプロモーション株式会社,,株式会社,東京都,世田谷区,喜多見５丁目１２番６号,,13,112,1570067,,,2021-12-24,清算の結了等,,,2015-10-05,1,,,,,アレンプロモーション,0
1027,5011003012588,登記記録の閉鎖等,0,2021-12-28,2021-12-09,ｊｙｕｇｏ合同会社,,合同会社,東京都,渋谷区,神宮前６丁目２３－４桑野ビル２Ｆ,,13,113,1500001,,,2021-12-09,清算の結了等,,,2021-04-19,1,,,,,ジュゴー,0
1040,5011701006718,登記記録の閉鎖等,0,2021-12-28,2021-12-24,平山建設株式会社,,株式会社,東京都,江戸川区,江戸川６丁目１０番地１８,,13,123,1340013,,,2021-12-24,清算の結了等,,,2015-10-05,1,,,,,ヒラヤマケンセツ,0
1052,5020002081271,登記記録の閉鎖等,0,2021-12-28,2021-12-23,有限会社菅原製作所,,有限会社,神奈川県,川崎市幸区,南加瀬５丁目１６番２２号,,14,132,2120055,,,2021-12-23,清算の結了等,,,2015-10-05,1,,,,,スガワラセイサクショ,0
1093,5060002041148,登記記録の閉鎖等,0,2021-12-28,2021-12-23,有限会社岩本商店,,有限会社,栃木県,那須塩原市,五軒町３番２４号,,09,213,3292753,,,2021-12-23,清算の結了等,,,2021-09-28,1,,,,,イワモトショウテン,0
1098,5080001018087,登記記録の閉鎖等,0,2021-12-28,2021-12-24,株式会社レイフォー,,株式会社,静岡県,静岡市駿河区,稲川２丁目２番１号,,22,102,4228062,,,2021-12-24,清算の結了等,,,2015-10-05,1,,,,,レイフォー,0
1100,5080101016239,登記記録の閉鎖等,0,2021-12-28,2021-12-24,株式会社サンケンアタミ,,株式会社,静岡県,熱海市,水口町２丁目１８番２８号,,22,205,4130016,,,2021-12-24,清算の結了等,,,2015-10-05,1,,,,,サンケンアタミ,0
1102,5080405004162,登記記録の閉鎖等,0,2021-12-28,2021-12-21,特定非営利活動法人ヒューマンサポートＧｏｉｎｇまい・ペース,,その他の設立登記法人,静岡県,浜松市南区,楊子町２９３番地,,22,134,4300855,,,2021-12-21,清算の結了等,,,2015-10-05,1,,,,,ヒューマンサポートゴーイングマイペース,0
1107,5100005001318,登記記録の閉鎖等,0,2021-12-28,2021-12-27,長野織物加工協同組合,,その他の設立登記法人,長野県,長野市,アークス９番１７号,,20,201,3800918,,,2021-12-27,清算の結了等,,,2015-10-05,1,,,,,ナガノオリモノカコウ,0
1124,5120901038444,登記記録の閉鎖等,0,2021-12-28,2021-12-24,株式会社ｍｉｒａｉｅ,,株式会社,大阪府,高槻市,西面中２丁目１９番５号,,27,207,5690842,,,2021-12-24,清算の結了等,,,2017-05-12,1,,,,,,0
1126,5130001057435,登記記録の閉鎖等,0,2021-12-28,2021-12-24,株式会社イシン・キョウトホリカワ・オペレーションズ,,株式会社,東京都,中央区,銀座１丁目２番３号,,13,102,1040061,,,2021-12-24,清算の結了等,,,2016-05-13,1,,,,,イシンキョウトホリカワオペレーションズ,0
1150,5180302027537,登記記録の閉鎖等,0,2021-12-28,2021-12-24,有限会社ジェニスプロジェクトオブジャパン,,有限会社,愛知県,西尾市,新渡場町大西２６番地３１,,23,213,4450077,,,2021-12-24,清算の結了等,,,2015-10-05,1,,,,,ジェニスプロジェクトオブジャパン,0
1152,5190002001832,登記記録の閉鎖等,0,2021-12-28,2021-12-27,有限会社北亀瓦店,,有限会社,三重県,津市,久居野村町８６８番地,,24,201,5141113,,,2021-12-27,清算の結了等,,,2015-10-05,1,,,,,キタカメカワラテン,0
1153,5190002023744,登記記録の閉鎖等,0,2021-12-28,2021-12-24,菰野印刷有限会社,,有限会社,三重県,三重郡菰野町,大字菰野１１８９番地の１,,24,341,5101233,,,2021-12-24,清算の結了等,,,2015-10-05,1,,,,,コモノインサツ,0
1158,5220005001660,登記記録の閉鎖等,0,2021-12-28,2021-12-24,金沢木型工業協同組合,,その他の設立登記法人,石川県,金沢市,千日町８番９号,,17,201,9218023,,,2021-12-24,清算の結了等,,,2015-10-05,1,,,,,カナザワキガタコウギョウ,0
1169,5240002014738,登記記録の閉鎖等,0,2021-12-28,2021-12-24,有限会社フレグランス,,有限会社,広島県,広島市中区,上幟町１０番３０－８０１号,,34,101,7300014,,,2021-12-24,清算の結了等,,,2015-10-05,1,,,,,フレグランス,0
1170,5240002048884,登記記録の閉鎖等,0,2021-12-28,2021-12-24,有限会社ワキタモデル,,有限会社,広島県,安芸郡熊野町,新宮６丁目２１番１９号,,34,307,7314211,,,2021-12-24,清算の結了等,,,2015-10-05,1,,,,,ワキタモデル,0
1171,5240002050270,登記記録の閉鎖等,0,2021-12-28,2021-12-22,有限会社オカノ電器,,有限会社,広島県,尾道市,因島三庄町１６０５番地２,,34,205,7222322,,,2021-12-22,清算の結了等,,,2015-10-05,1,,,,,オカノデンキ,0
1178,5270002002830,登記記録の閉鎖等,0,2021-12-28,2021-12-23,有限会社サンロード商会,,有限会社,鳥取県,鳥取市,栄町７５３番地,,31,201,6800831,,,2021-12-23,清算の結了等,,,2015-10-05,1,,,,,サンロードショウカイ,0
1214,5380002025597,登記記録の閉鎖等,0,2021-12-28,2021-12-21,有限会社比佐屋商店,,有限会社,福島県,いわき市,小名浜字横町４０番地,,07,204,9718101,,,2021-12-21,清算の結了等,,,2015-10-05,1,,,,,,0
1218,5410003003425,登記記録の閉鎖等,0,2021-12-28,2021-12-24,毛馬内養蜂場合同会社,,合同会社,秋田県,鹿角市,十和田毛馬内字古下タ６７番地１,,05,209,0185334,,,2021-12-24,清算の結了等,,,2020-10-06,1,,,,,ケマナイヨウホウジョウ,0
1221,5420002018984,登記記録の閉鎖等,0,2021-12-28,2021-12-22,有限会社クスリのタムラ,,有限会社,青森県,三沢市,桜町１丁目２番４号,,02,207,0330031,,,2021-12-22,清算の結了等,,,2015-10-05,1,,,,,クスリノタムラ,0
1237,6010001058312,登記記録の閉鎖等,0,2021-12-28,2021-12-21,株式会社南本店,,株式会社,東京都,江東区,豊洲６丁目５番１号,,13,108,1350061,,,2021-12-21,清算の結了等,,,2015-10-05,1,,,,,ミナミホンテン,0
1240,6010001123999,登記記録の閉鎖等,0,2021-12-28,2021-12-22,ＡＢＣ株式会社,,株式会社,東京都,千代田区,内神田１丁目１０番１号,,13,101,1010047,,,2021-12-22,清算の結了等,,,2015-10-05,1,,,,,エービーシー,0
1241,6010001182376,登記記録の閉鎖等,0,2021-12-28,2021-12-21,株式会社ＫＯＺＵＣＨＩ,,株式会社,東京都,千代田区,内神田３丁目２３番８号第三唐澤ビル８階,,13,101,1010047,,,2021-12-21,清算の結了等,,,2017-03-24,1,,,,,コズチ,0
1249,6010005017958,登記記録の閉鎖等,0,2021-12-28,2021-12-21,一般財団法人日本支援機構,,その他の設立登記法人,東京都,港区,赤坂１丁目９番１３号,,13,103,1070052,,,2021-12-21,清算の結了等,,,2015-10-05,1,,,,,,0
1262,6010402024499,登記記録の閉鎖等,0,2021-12-28,2021-12-22,有限会社オレンヂ・スター,,有限会社,東京都,港区,三田１丁目５番５号,,13,103,1080073,,,2021-12-22,清算の結了等,,,2015-10-05,1,,,,,オレンヂスター,0
1263,6010403025273,登記記録の閉鎖等,0,2021-12-28,2021-12-21,合同会社きさき,,合同会社,東京都,港区,南麻布２丁目１３－１６－１１０４,,13,103,1060047,,,2021-12-21,清算の結了等,,,2021-05-14,1,,,,,キサキ,0
1265,6010501033814,登記記録の閉鎖等,0,2021-12-28,2021-12-24,株式会社タケテックグラス,,株式会社,東京都,台東区,寿１丁目１２番８－６１０号クリオ浅草参番館,,13,106,1110042,,,2021-12-24,清算の結了等,,,2015-10-05,1,,,,,タケテックグラス,0
1297,6011405001196,登記記録の閉鎖等,0,2021-12-28,2021-12-24,向原第二住宅団地管理組合法人,,その他の設立登記法人,東京都,板橋区,小茂根１丁目１番３,,13,119,1730037,,,2021-12-24,清算の結了等,,,2015-10-05,1,,,,,ムカイハラダイニジュウタクダンチ,0
1311,6013301034387,登記記録の閉鎖等,0,2021-12-28,2021-12-22,株式会社Ｓｍａｃｋ,,株式会社,東京都,豊島区,南大塚２丁目１１番１０号ミモザビル３階,,13,116,1700005,,,2021-12-22,清算の結了等,,,2015-10-05,1,,,,,スマック,0
1323,6021001034995,登記記録の閉鎖等,0,2021-12-28,2021-12-23,株式会社金川工務店,,株式会社,神奈川県,小田原市,北ノ窪１２番地の７,,14,206,2500051,,,2021-12-23,清算の結了等,,,2015-10-05,1,,,,,カネカワコウムテン,0
1328,6021003003668,登記記録の閉鎖等,0,2021-12-28,2021-12-23,合同会社ありがとう,,合同会社,神奈川県,横須賀市,内川１丁目８番４７号,,14,201,2390836,,,2021-12-23,清算の結了等,,,2015-10-05,1,,,,,アリガトウ,0
1333,6030005016933,登記記録の閉鎖等,0,2021-12-28,2021-12-22,特定非営利活動法人重度障害者相談支援協会,,その他の設立登記法人,埼玉県,所沢市,松葉町１２番３号アーガスヒルズ５８－１階,,11,208,3590044,,,2021-12-22,清算の結了等,,,2015-10-05,1,,,,,ジュウドショウガイシャソウダンシエンキョウカイ,0
1344,6050002007297,登記記録の閉鎖等,0,2021-12-28,2021-12-23,有限会社カルベ,,有限会社,茨城県,那珂郡東海村,大字石神外宿１４７０番地の５,,08,341,3191101,,,2021-12-23,清算の結了等,,,2015-10-05,1,,,,,カルベ,0
1345,6050002039522,登記記録の閉鎖等,0,2021-12-28,2021-12-24,有限会社エム・ティーリサーチ,,有限会社,茨城県,牛久市,田宮２丁目２０番地１１,,08,219,3001237,,,2021-12-24,清算の結了等,,,2015-10-05,1,,,,,,0
1347,6050005007484,登記記録の閉鎖等,0,2021-12-28,2021-12-22,高萩市土地開発公社,,その他の設立登記法人,茨城県,高萩市,本町１丁目１００番地,,08,214,3180033,,,2021-12-22,清算の結了等,,,2015-10-05,1,,,,,タカハギシ,0
1356,6080401015261,登記記録の閉鎖等,0,2021-12-28,2021-12-24,株式会社ミサト,,株式会社,静岡県,掛川市,下垂木１９７２番地の２,,22,213,4360222,,,2021-12-24,清算の結了等,,,2015-10-05,1,,,,,ミサト,0
1358,6100002029955,登記記録の閉鎖等,0,2021-12-28,2021-12-23,有限会社サンテック印刷,,有限会社,長野県,茅野市,豊平５４３６番地３,,20,214,3910213,,,2021-12-23,清算の結了等,,,2015-10-05,1,,,,,サンテックインサツ,0
1360,6110002030144,登記記録の閉鎖等,0,2021-12-28,2021-12-23,有限会社イワイ不動産,,有限会社,新潟県,長岡市,川崎町１７７０番地,,15,202,9400861,,,2021-12-23,清算の結了等,,,2015-10-05,1,,,,,イワイフドウサン,0
1365,6120001070454,登記記録の閉鎖等,0,2021-12-28,2021-12-24,マイクロエンジニアリング株式会社,,株式会社,大阪府,大阪市北区,天満２丁目７番１０号,,27,127,5300043,,,2021-12-24,合併による解散等,9170001002004,令和３年１２月２１日和歌山市有本６６１番地太洋工業株式会社（9170001002004）に合併し解散,2015-10-05,1,,,,,,0
1371,6120001204879,登記記録の閉鎖等,0,2021-12-28,2021-12-23,株式会社ＧＲＡＮＦＩＤＯ,,株式会社,大阪府,大阪市北区,天神橋４丁目７－２７,,27,127,5300041,,,2021-12-23,清算の結了等,,,2017-04-12,1,,,,,,0
1385,6140001104375,登記記録の閉鎖等,0,2021-12-28,2021-12-22,株式会社蘇文商事,,株式会社,兵庫県,神戸市東灘区,北青木４丁目１３番３号,,28,101,6580014,,,2021-12-22,清算の結了等,,,2016-12-14,1,,,,,ソブンショウジ,0
1386,6140001110605,登記記録の閉鎖等,0,2021-12-28,2021-12-22,株式会社ベル・クール,,株式会社,兵庫県,神戸市中央区,港島中町６丁目８番２,,28,110,6500046,,,2021-12-22,清算の結了等,,,2018-07-04,1,,,,,ベルクール,0
1389,6140002010341,登記記録の閉鎖等,0,2021-12-28,2021-12-23,有限会社日野峰,,有限会社,兵庫県,神戸市中央区,磯上通８丁目１番２９号カサベラＣ＆Ｍ,,28,110,6510086,,,2021-12-23,清算の結了等,,,2015-10-05,1,,,,,ヒノミネ,0
1403,6190005003552,登記記録の閉鎖等,0,2021-12-28,2021-12-24,一般社団法人熊野青年会議所,,その他の設立登記法人,三重県,熊野市,木本町１７１番地,,24,212,5194323,,,2021-12-24,清算の結了等,,,2015-10-05,1,,,,,クマノセイネンカイギショ,0
1411,6240002016642,登記記録の閉鎖等,0,2021-12-28,2021-12-24,明洋商事有限会社,,有限会社,広島県,広島市西区,三滝本町２丁目９番１４－４０４号,,34,104,7330802,,,2021-12-24,清算の結了等,,,2015-10-05,1,,,,,メイヨウショウジ,0
1412,6240002017293,登記記録の閉鎖等,0,2021-12-28,2021-12-23,有限会社山田屋洋服店,,有限会社,広島県,広島市中区,幟町７番１１号,,34,101,7300016,,,2021-12-23,清算の結了等,,,2015-10-05,1,,,,,ヤマダヤヨウフクテン,0
1442,6360001027471,登記記録の閉鎖等,0,2021-12-28,2021-12-24,株式会社ななつ星,,株式会社,沖縄県,浦添市,港川２丁目２番３号,,47,208,9012134,,,2021-12-24,清算の結了等,,,2020-07-20,1,,,,,ナナツボシ,0
1447,6370402001784,登記記録の閉鎖等,0,2021-12-28,2021-12-22,有限会社佐藤産業,,有限会社,宮城県,登米市,米山町字桜岡美野和田９２番地,,04,212,9870311,,,2021-12-22,清算の結了等,,,2015-10-05,1,,,,,サトウサンギョウ,0
1457,6430002050077,登記記録の閉鎖等,0,2021-12-28,2021-12-23,有限会社空知エステート,,有限会社,北海道,美唄市,西三条北６丁目６番１号,,01,215,0720032,,,2021-12-23,清算の結了等,,,2021-07-27,1,,,,,ソラチエステート,0
1462,6500001022680,登記記録の閉鎖等,0,2021-12-28,2021-12-24,國枝食品株式会社,,株式会社,愛媛県,松山市,束本２丁目１２－２４－２Ｆ,,38,201,7900916,,,2021-12-24,合併による解散等,4500001017815,令和３年１２月２４日愛媛県松山市束本２－１２－２４－２Ｆ株式会社デイドリーム（4500001017815）に合併し解散,2020-05-11,1,,,,,クニエダショクヒン,0
1473,7010003029384,登記記録の閉鎖等,0,2021-12-28,2021-12-24,合同会社オーピーエフ・ＡＧ,,合同会社,東京都,千代田区,丸の内３丁目１番１号東京共同会計事務所内,,13,101,1000005,,,2021-12-24,清算の結了等,,,2019-03-01,1,,,,,オーピーエフエージー,0
1482,7010501029869,登記記録の閉鎖等,0,2021-12-28,2021-12-22,パドマジャパン株式会社,,株式会社,千葉県,松戸市,栗山１５３番地,,12,207,2710097,,,2021-12-22,清算の結了等,,,2015-10-05,1,,,,,パドマジャパン,0
1513,7011602004414,登記記録の閉鎖等,0,2021-12-28,2021-12-24,有限会社サンシックス,,有限会社,東京都,練馬区,大泉学園町２丁目１番１９号,,13,120,1780061,,,2021-12-24,清算の結了等,,,2015-10-05,1,,,,,サンシックス,0
1514,7011603002532,登記記録の閉鎖等,0,2021-12-28,2021-12-21,合同会社Ｓｅｅｄｓ　ｏｆ　Ｌｉｆｅ,,合同会社,東京都,練馬区,土支田１丁目３５番６号,,13,120,1790076,,,2021-12-21,清算の結了等,,,2019-01-25,1,,,,,,0
1528,7020001001476,登記記録の閉鎖等,0,2021-12-28,2021-12-23,双信電機株式会社,,株式会社,神奈川県,横浜市瀬谷区,阿久和東１丁目４５番地５,,14,114,2460023,,,2021-12-23,清算の結了等,,,2015-10-05,1,,,,,ソウシンデンキ,0
1530,7020001023256,登記記録の閉鎖等,0,2021-12-28,2021-12-23,ＪＲＣサービス株式会社,,株式会社,神奈川県,横浜市神奈川区,白楽１番地３,,14,102,2210065,,,2021-12-23,清算の結了等,,,2015-10-05,1,,,,,ジェーアールシーサービス,0
1542,7021003008666,登記記録の閉鎖等,0,2021-12-28,2021-12-23,合同会社シルト,,合同会社,神奈川県,大和市,中央林間３丁目１８番２号グレースレジデンス４０２,,14,213,2420007,,,2021-12-23,清算の結了等,,,2019-09-13,1,,,,,シルト,0
1549,7030001083514,登記記録の閉鎖等,0,2021-12-28,2021-12-24,セブンアベニュー株式会社,,株式会社,埼玉県,川口市,末広１丁目１１番２号,,11,203,3320006,,,2021-12-24,合併による解散等,1030001075665,令和３年１２月２４日埼玉県川口市末広一丁目１１番２号セントラルインターナショナル株式会社（1030001075665）に合併し解散,2015-10-05,1,,,,,セブンアベニュー,0
1553,7030002103675,登記記録の閉鎖等,0,2021-12-28,2021-12-23,有限会社ジューキ工芸,,有限会社,埼玉県,川口市,柳根町２９－１０,,11,203,3330864,,,2021-12-23,清算の結了等,,,2015-10-05,1,,,,,ジューキコウゲイ,0
1557,7040001024946,登記記録の閉鎖等,0,2021-12-28,2021-12-23,ファストアート株式会社,,株式会社,千葉県,鎌ケ谷市,東中沢２丁目２１番２－２０７号,,12,224,2730112,,,2021-12-23,清算の結了等,,,2015-10-05,1,,,,,ファストアート,0
1564,7050001027923,登記記録の閉鎖等,0,2021-12-28,2021-12-21,東洋ハウス株式会社,,株式会社,茨城県,取手市,和田１１２４番地の２,,08,217,3001545,,,2021-12-21,清算の結了等,,,2015-10-05,1,,,,,トウヨウハウス,0
1569,7060001000094,登記記録の閉鎖等,0,2021-12-28,2021-12-22,アサヒ防水工業株式会社,,株式会社,栃木県,宇都宮市,下岡本町４０４３番地,,09,201,3291104,,,2021-12-22,清算の結了等,,,2015-10-05,1,,,,,アサヒボウスイコウギョウ,0
1570,7060002021395,登記記録の閉鎖等,0,2021-12-28,2021-12-22,有限会社アメニティ関東,,有限会社,栃木県,鹿沼市,貝島町６２８番地１,,09,205,3220027,,,2021-12-22,清算の結了等,,,2015-10-05,1,,,,,アメニティカントウ,0
1571,7070001012535,登記記録の閉鎖等,0,2021-12-28,2021-12-24,株式会社旭重機,,株式会社,群馬県,藤岡市,藤岡１５９０番地１６,,10,209,3750024,,,2021-12-24,清算の結了等,,,2015-10-05,1,,,,,アサヒジュウキ,0
1574,7080001017632,登記記録の閉鎖等,0,2021-12-28,2021-12-23,株式会社特ガスエンジニア,,株式会社,静岡県,静岡市駿河区,東新田２丁目８番２４－２号,,22,102,4210112,,,2021-12-23,清算の結了等,,,2015-10-05,1,,,,,トクガスエンジニア,0
1597,7122001025924,登記記録の閉鎖等,0,2021-12-28,2021-12-24,ダイエイ技建株式会社,,株式会社,大阪府,東大阪市,玉串町東１丁目３番２７号,,27,227,5780932,,,2021-12-24,清算の結了等,,,2015-10-05,1,,,,,,0
1606,7140001034803,登記記録の閉鎖等,0,2021-12-28,2021-12-23,株式会社グラフィカ,,株式会社,大阪府,大阪市淀川区,西中島３丁目１０番１３号,,27,123,5320011,,,2021-12-23,清算の結了等,,,2015-10-05,1,,,,,,0
1630,7180002088902,登記記録の閉鎖等,0,2021-12-28,2021-12-24,有限会社アルファベル,,有限会社,愛知県,東海市,高横須賀町西岨３８番地の８,,23,222,4770037,,,2021-12-24,清算の結了等,,,2015-10-05,1,,,,,アルファベル,0
1635,7190002023890,登記記録の閉鎖等,0,2021-12-28,2021-12-24,有限会社平松屋,,有限会社,三重県,三重郡菰野町,大字菰野８１６番地,,24,341,5101233,,,2021-12-24,清算の結了等,,,2015-10-05,1,,,,,ヒラマツヤ,0
1642,7200005009621,登記記録の閉鎖等,0,2021-12-28,2021-12-24,特定非営利活動法人えなここ,,その他の設立登記法人,岐阜県,恵那市,東野１７２番地,,21,210,5097202,,,2021-12-24,清算の結了等,,,2015-10-05,1,,,,,エナココ,0
1648,7240001046895,登記記録の閉鎖等,0,2021-12-28,2021-12-24,株式会社尾道熱帯植物研究センター,,株式会社,広島県,尾道市,御調町丸門田４９３番地,,34,205,7220344,,,2021-12-24,清算の結了等,,,2015-10-05,1,,,,,オノミチネッタイショクブツケンキュウセンター,0
1657,7260002021160,登記記録の閉鎖等,0,2021-12-28,2021-12-27,有限会社マスミック,,有限会社,岡山県,倉敷市,広江７丁目４番１２－９号,,33,202,7128043,,,2021-12-27,清算の結了等,,,2015-10-05,1,,,,,マスミック,0
1659,7270001005460,登記記録の閉鎖等,0,2021-12-28,2021-12-24,鍛冶町ガス株式会社,,株式会社,鳥取県,倉吉市,伊木２１０番地１,,31,203,6820024,,,2021-12-24,清算の結了等,,,2015-10-05,1,,,,,カジマチガス,0
1678,7340005001176,登記記録の閉鎖等,0,2021-12-28,2021-12-24,医療法人仁威会,00100048,その他の設立登記法人,鹿児島県,鹿児島市,下竜尾町６番１８号,,46,201,8920852,,,2021-12-24,清算の結了等,,,2015-10-05,1,,,,,,0
1692,7380001000260,登記記録の閉鎖等,0,2021-12-28,2021-12-23,株式会社扇屋,,株式会社,福島県,福島市,豊田町４番１５号,,07,201,9608104,,,2021-12-23,清算の結了等,,,2015-10-05,1,,,,,オウギヤ,0
1723,8010005030364,登記記録の閉鎖等,0,2021-12-28,2021-12-27,一般社団法人ＶＣ銀座ホールディング２号,,その他の設立登記法人,東京都,千代田区,丸の内３丁目１番１号東京共同会計事務所内,,13,101,1000005,,,2021-12-27,清算の結了等,,,2019-06-25,1,,,,,ブイシーギンザホールディングニゴウ,0
1724,8010005032914,登記記録の閉鎖等,0,2021-12-28,2021-12-27,一般社団法人ＰＪＰ,,その他の設立登記法人,東京都,千代田区,丸の内３丁目１番１号東京共同会計事務所内,,13,101,1000005,,,2021-12-27,清算の結了等,,,2021-02-09,1,,,,,ピージェーピー,0
1737,8010401126633,登記記録の閉鎖等,0,2021-12-28,2021-12-24,株式会社イシン・サッポロミナミ・オペレーションズ,,株式会社,東京都,中央区,銀座１丁目２番３号,,13,102,1040061,,,2021-12-24,清算の結了等,,,2016-08-24,1,,,,,イシンサッポロミナミオペレーションズ,0
1738,8010401129719,登記記録の閉鎖等,0,2021-12-28,2021-12-24,株式会社イシン・アサクサ・オペレーションズ,,株式会社,東京都,中央区,銀座１丁目２番３号,,13,102,1040061,,,2021-12-24,清算の結了等,,,2017-02-16,1,,,,,イシンアサクサオペレーションズ,0
1742,8010402034257,登記記録の閉鎖等,0,2021-12-28,2021-12-21,有限会社エヌビーエステート,,有限会社,東京都,港区,虎ノ門３丁目２２番１０－２０１号,,13,103,1050001,,,2021-12-21,清算の結了等,,,2015-10-05,1,,,,,エヌビーエステート,0
1754,8010801009306,登記記録の閉鎖等,0,2021-12-28,2021-12-22,株式会社日経ランド,,株式会社,東京都,大田区,西蒲田７丁目３８番１０号,,13,111,1440051,,,2021-12-22,清算の結了等,,,2015-10-05,1,,,,,ニッケイランド,0
1760,8011001045257,登記記録の閉鎖等,0,2021-12-28,2021-12-23,株式会社家庭教師合格センター,,株式会社,東京都,中央区,八丁堀２丁目１２番７号,,13,102,1040032,,,2021-12-23,清算の結了等,,,2015-10-05,1,,,,,カテイキョウシゴウカクセンター,0
1772,8011302006569,登記記録の閉鎖等,0,2021-12-28,2021-12-24,有限会社東京セントラル商事,,有限会社,東京都,杉並区,桃井４丁目１１番９号,,13,115,1670034,,,2021-12-24,清算の結了等,,,2015-10-05,1,,,,,トウキョウセントラルショウジ,0
1777,8011501006881,登記記録の閉鎖等,0,2021-12-28,2021-12-21,七田運送株式会社,,株式会社,東京都,荒川区,東日暮里１丁目６番９号,,13,118,1160014,,,2021-12-21,清算の結了等,,,2015-10-05,1,,,,,シチダウンソウ,0
1781,8011603002465,登記記録の閉鎖等,0,2021-12-28,2021-12-21,合同会社Ｉｎｖｅｓｔｍｅｎｔ＆Ｓａｌｅｓ,,合同会社,東京都,練馬区,土支田１丁目３５番６号,,13,120,1790076,,,2021-12-21,清算の結了等,,,2018-11-01,1,,,,,インベストメントアンドセールス,0
1792,8020002072680,登記記録の閉鎖等,0,2021-12-28,2021-12-23,有限会社相模制御システム,,有限会社,神奈川県,横浜市緑区,霧が丘４丁目１番地霧が丘グリーンタウン１０棟３０６号,,14,113,2260016,,,2021-12-23,清算の結了等,,,2015-10-05,1,,,,,サガミセイギョシステム,0
1799,8030001050819,登記記録の閉鎖等,0,2021-12-28,2021-12-24,上野設備株式会社,,株式会社,埼玉県,春日部市,藤塚１２４９番地２,,11,214,3440011,,,2021-12-24,清算の結了等,,,2015-10-05,1,,,,,ウエノセツビ,0
1801,8030001109540,登記記録の閉鎖等,0,2021-12-28,2021-12-20,株式会社真崎,,株式会社,埼玉県,蕨市,北町３丁目５番１６号,,11,223,3350001,,,2021-12-20,清算の結了等,,,2015-10-05,1,,,,,マサキ,0
1803,8030002034845,登記記録の閉鎖等,0,2021-12-28,2021-12-23,有限会社今井ブロック工業,,有限会社,埼玉県,入間市,上小谷田２丁目６番４６号,,11,225,3580027,,,2021-12-23,清算の結了等,,,2015-10-05,1,,,,,イマイブロックコウギョウ,0
1821,8050001030323,登記記録の閉鎖等,0,2021-12-28,2021-12-22,株式会社オフィス市川,,株式会社,茨城県,牛久市,下根町１３０９番地１１,,08,219,3001203,,,2021-12-22,清算の結了等,,,2015-10-05,1,,,,,オフィスイチカワ,0
1829,8080001014281,登記記録の閉鎖等,0,2021-12-28,2021-12-23,株式会社ユータック,,株式会社,静岡県,島田市,本通６丁目７８６４番地,,22,209,4270022,,,2021-12-23,清算の結了等,,,2015-10-05,1,,,,,ユータック,0
1831,8080002002599,登記記録の閉鎖等,0,2021-12-28,2021-12-23,新東亜有限会社,,有限会社,栃木県,佐野市,飛駒町３０２４番地,,09,204,3270231,,,2021-12-23,清算の結了等,,,2015-10-05,1,,,,,シントウア,0
1840,8110001025639,登記記録の閉鎖等,0,2021-12-28,2021-12-23,エルゴ・デザイン株式会社,,株式会社,新潟県,長岡市,表町２丁目３番地１吉原リースビル内,,15,202,9400071,,,2021-12-23,清算の結了等,,,2015-10-05,1,,,,,エルゴデザイン,0
1886,8180001129524,登記記録の閉鎖等,0,2021-12-28,2021-12-27,株式会社Ｓレジャーサービス,,株式会社,愛知県,名古屋市東区,葵３丁目２５番１５号,,23,102,4610004,,,2021-12-27,清算の結了等,,,2017-09-27,1,,,,,エスレジャーサービス,0
1905,8280002005292,登記記録の閉鎖等,0,2021-12-28,2021-12-27,有限会社お多幸,,有限会社,島根県,出雲市,今市町２８６番地２４,,32,203,6930001,,,2021-12-27,清算の結了等,,,2015-10-05,1,,,,,,0
1936,8430003008790,登記記録の閉鎖等,0,2021-12-28,2021-12-23,エニッシュトレーディングス合同会社,,合同会社,北海道,岩見沢市,八条西１８丁目２４番地,,01,210,0680028,,,2021-12-23,清算の結了等,,,2017-10-20,1,,,,,エニッシュトレーディングス,0
1943,8480002010561,登記記録の閉鎖等,0,2021-12-28,2021-12-27,ダイヤ電機有限会社,,有限会社,徳島県,鳴門市,撫養町小桑島字西浜２４番地,,36,202,7720012,,,2021-12-27,清算の結了等,,,2015-10-05,1,,,,,ダイヤデンキ,0
1950,9010001075734,登記記録の閉鎖等,0,2021-12-28,2021-12-22,株式会社ネットシーズ,,株式会社,東京都,千代田区,丸の内１丁目１１番１号パシフィックセンチュリープレイス丸の内８階,,13,101,1000005,,,2021-12-22,清算の結了等,,,2015-10-05,1,,,,,ネットシーズ,0
1955,9010003027659,登記記録の閉鎖等,0,2021-12-28,2021-12-24,合同会社トラノモンそば,,合同会社,東京都,千代田区,内神田３丁目２０番３号小鍛冶ビル８階,,13,101,1010047,,,2021-12-24,清算の結了等,,,2018-06-05,1,,,,,トラノモンソバ,0
1965,9010501045963,登記記録の閉鎖等,0,2021-12-28,2021-12-23,株式会社ｄｏｔ,,株式会社,東京都,台東区,上野５丁目８番５号,,13,106,1100005,,,2021-12-23,清算の結了等,,,2020-07-15,1,,,,,ドット,0
1999,9011501000099,登記記録の閉鎖等,0,2021-12-28,2021-12-21,株式会社アイム建築設計事務所,,株式会社,東京都,北区,赤羽１丁目３７番１３号７０３,,13,117,1150045,,,2021-12-21,清算の結了等,,,2015-10-05,1,,,,,アイムケンチクセッケイジムショ,0
2004,9011603001961,登記記録の閉鎖等,0,2021-12-28,2021-12-27,合同会社蒼い空,,合同会社,東京都,練馬区,大泉町３丁目３９番１４号,,13,120,1780062,,,2021-12-27,清算の結了等,,,2016-11-11,1,,,,,アオイソラ,0
2017,9012801009846,登記記録の閉鎖等,0,2021-12-28,2021-12-24,オプレント・ジャパン株式会社,,株式会社,東京都,立川市,曙町１丁目２５番１２号,00058969,13,202,1900012,,,2021-12-24,清算の結了等,,,2015-10-05,1,,,,,,0
2022,9020001027321,登記記録の閉鎖等,0,2021-12-28,2021-12-23,株式会社綜合写真脇本,,株式会社,神奈川県,横浜市中区,大芝台２６番地の８,,14,104,2310858,,,2021-12-23,清算の結了等,,,2015-10-05,1,,,,,ソウゴウシャシンワキモト,0
2046,9040001040272,登記記録の閉鎖等,0,2021-12-28,2021-12-24,株式会社エスアイ企画,,株式会社,千葉県,千葉市美浜区,幸町１丁目３番７棟１０４号,,12,106,2610001,,,2021-12-24,清算の結了等,,,2015-10-05,1,,,,,エスアイキカク,0
2055,9040002076695,登記記録の閉鎖等,0,2021-12-28,2021-12-22,エヌテック有限会社,,有限会社,千葉県,市原市,山田橋２４３番地２,,12,219,2900021,,,2021-12-22,清算の結了等,,,2015-10-05,1,,,,,エヌテック,0
2060,9050001004557,登記記録の閉鎖等,0,2021-12-28,2021-12-23,株式会社エーエムエル,,株式会社,茨城県,水戸市,石川１丁目４０８４番地の１,,08,201,3100905,,,2021-12-23,清算の結了等,,,2015-10-05,1,,,,,エーエムエル,0
2063,9070001012517,登記記録の閉鎖等,0,2021-12-28,2021-12-24,藤栄建設株式会社,,株式会社,群馬県,藤岡市,藤岡７２４番地の１,,10,209,3750024,,,2021-12-24,清算の結了等,,,2015-10-05,1,,,,,トウエイケンセツ,0
2069,9080402021710,登記記録の閉鎖等,0,2021-12-28,2021-12-23,有限会社名倉電気,,有限会社,静岡県,袋井市,彦島３１２番地の３,,22,216,4370045,,,2021-12-23,清算の結了等,,,2015-10-05,1,,,,,ナグラデンキ,0
2095,9140001029999,登記記録の閉鎖等,0,2021-12-28,2021-12-22,株式会社ビューティーフィールド,,株式会社,兵庫県,芦屋市,奥池南町５１番２０号,,28,206,6590004,,,2021-12-22,清算の結了等,,,2015-10-05,1,,,,,ビューティーフィールド,0
2105,9160001003440,登記記録の閉鎖等,0,2021-12-28,2021-12-27,株式会社ロイヤルオークリゾート,,株式会社,滋賀県,大津市,萱野浦２３番１号,,25,201,5202143,,,2021-12-27,清算の結了等,,,2015-10-05,1,,,,,ロイヤルオークリゾート,0
2111,9180001130951,登記記録の閉鎖等,0,2021-12-28,2021-12-27,株式会社ＳＵＲＡＬＩ,,株式会社,愛知県,名古屋市千種区,穂波町１丁目２４番地,,23,101,4640822,,,2021-12-27,清算の結了等,,,2018-01-26,1,,,,,スラリ,0
2118,9180301013047,登記記録の閉鎖等,0,2021-12-28,2021-12-27,ダイコーインテリア株式会社,,株式会社,愛知県,安城市,花ノ木町１５番１６号,,23,212,4460039,,,2021-12-27,清算の結了等,,,2015-10-05,1,,,,,ダイコーインテリア,0
2124,9230001005586,登記記録の閉鎖等,0,2021-12-28,2021-12-22,株式会社ＭＧガバナンス,,株式会社,富山県,富山市,大泉８番地２０,,16,201,9398058,,,2021-12-22,清算の結了等,,,2015-10-05,1,,,,,エムジーガバナンス,0
2140,9260002006275,登記記録の閉鎖等,0,2021-12-28,2021-12-27,有限会社タニガワ,,有限会社,岡山県,岡山市北区,天瀬南町１番３号の２,,33,101,7000834,,,2021-12-27,清算の結了等,,,2015-10-05,1,,,,,タニガワ,0
2142,9260005003369,登記記録の閉鎖等,0,2021-12-28,2021-12-27,倉敷酒造協同組合,,その他の設立登記法人,岡山県,倉敷市,白楽町２４９番地５,,33,202,7100824,,,2021-12-27,清算の結了等,,,2021-05-12,1,,,,,クラシキシュゾウ,0
2150,9290002036930,登記記録の閉鎖等,0,2021-12-28,2021-12-22,有限会社扶桑燃料,,有限会社,福岡県,糟屋郡志免町,志免中央４丁目６番７号,,40,343,8112244,,,2021-12-22,清算の結了等,,,2015-10-05,1,,,,,フソウネンリョウ,0
2163,9340002001400,登記記録の閉鎖等,0,2021-12-28,2021-12-24,有限会社インテリアピック,,有限会社,鹿児島県,鹿児島市,城山町１９番１６号なごみマンション城山２０３号,,46,201,8920853,,,2021-12-24,清算の結了等,,,2015-10-05,1,,,,,インテリアピック,0
2164,9350002004518,登記記録の閉鎖等,0,2021-12-28,2021-12-24,有限会社ミツタケ,,有限会社,宮崎県,宮崎市,大坪東１丁目７番１号,,45,201,8800934,,,2021-12-24,清算の結了等,,,2015-10-05,1,,,,,ミツタケ,0
2180,9380002027821,登記記録の閉鎖等,0,2021-12-28,2021-12-22,有限会社マエダ,,有限会社,福島県,いわき市,平字四町目２１番地の６,,07,204,9708026,,,2021-12-22,清算の結了等,,,2015-10-05,1,,,,,,0
2181,9400005000731,登記記録の閉鎖等,0,2021-12-28,2021-12-24,日戸牧野農業協同組合,,その他の設立登記法人,岩手県,盛岡市,日戸字古屋敷６８番地２,,03,201,0200201,,,2021-12-24,清算の結了等,,,2015-10-05,1,,,,,ヒノトボクヤ,0
2187,9430002056352,登記記録の閉鎖等,0,2021-12-28,2021-12-27,有限会社くるみ調剤薬局,,有限会社,北海道,余市郡余市町,黒川町２丁目２１番地,,01,408,0460003,,,2021-12-27,清算の結了等,,,2015-10-05,1,,,,,,0
