sequenceNumber,corporateNumber,process,correct,updateDate,changeDate,name,nameImageId,kind,prefectureName,cityName,streetNumber,addressImageId,prefectureCode,cityCode,postCode,addressOutside,addressOutsideImageId,closeDate,closeCause,successorCorporateNumber,changeCause,assignmentDate,latest,enName,enPrefectureName,enCityName,enAddressOutside,furigana,hihyoji
3,1010001248990,新規,0,2024-10-15,2024-10-15,株式会社ＰＭ,,株式会社,東京都,中央区,銀座４丁目８番１３号,,13,102,1040061,,,,,,,2024-10-15,1,,,,,ピーエム,0
4,1010001248999,新規,0,2024-10-15,2024-10-15,株式会社Ｓｏｌａｎａ　Ｍｅｄｉｃｓ,,株式会社,東京都,中央区,日本橋蛎殻町１丁目１９番１号,,13,102,1030014,,,,,,,2024-10-15,1,,,,,ソラーナメディクス,0
5,1010001249023,新規,0,2024-10-15,2024-10-15,株式会社ＡＬＡＮＤ,,株式会社,東京都,中央区,日本橋室町１丁目１１番１２号日本橋水野ビル７階,,13,102,1030022,,,,,,,2024-10-15,1,,,,,アランド,0
6,1010001249064,新規,0,2024-10-15,2024-10-15,Ｍｉｒａｓ株式会社,,株式会社,東京都,中央区,銀座１丁目２２番１１号銀座大竹ビジデンス２Ｆ,,13,102,1040061,,,,,,,2024-10-15,1,,,,,ミラス,0
8,1010003045148,新規,0,2024-10-15,2024-10-15,合同会社ムーバルペガサス,,合同会社,東京都,千代田区,丸の内１丁目４番１号東京共同会計事務所内,,13,101,1000005,,,,,,,2024-10-15,1,,,,,ムーバルペガサス,0
9,1010003045164,新規,0,2024-10-15,2024-10-15,合同会社スプリング４,,合同会社,東京都,千代田区,丸の内１丁目４番１号東京共同会計事務所内,,13,101,1000005,,,,,,,2024-10-15,1,,,,,スプリングフォー,0
10,1010005038950,新規,0,2024-10-15,2024-10-15,福知山ＢＦ一般社団法人,,その他の設立登記法人,東京都,中央区,日本橋１丁目４番１号,,13,102,1030027,,,,,,,2024-10-15,1,,,,,フクチヤマビーエフ,0
11,1010005038959,新規,0,2024-10-15,2024-10-15,ジェイ・アール・エイチ・ワン一般社団法人,,その他の設立登記法人,東京都,千代田区,丸の内１丁目４番１号東京共同会計事務所内,,13,101,1000005,,,,,,,2024-10-15,1,,,,,ジェイアールエイチワン,0
17,1010403033603,新規,0,2024-10-15,2024-10-15,合同会社ジャパンレジデンシャルコアプラス,,合同会社,東京都,港区,西新橋１丁目２番９号メンターキャピタル税理士法人内,,13,103,1050003,,,,,,,2024-10-15,1,,,,,ジャパンレジデンシャルコアプラス,0
21,1010405023577,新規,0,2024-10-15,2024-10-15,一般社団法人フリーランスビジョナリー協会,,その他の設立登記法人,東京都,港区,赤坂８丁目１１－２６ＳｈｉｆｔＮｏｇｉｚａｋａ４Ｆ,,13,103,1070052,,,,,,,2024-10-15,1,,,,,,0
22,1010501053040,新規,0,2024-10-15,2024-10-15,Ｓｃａｌｅ株式会社,,株式会社,東京都,台東区,元浅草３丁目１７番１３号,,13,106,1110041,,,,,,,2024-10-15,1,,,,,スケール,0
25,1010601066082,新規,0,2024-10-15,2024-10-15,株式会社日金商事,,株式会社,東京都,江東区,新砂３丁目４番４３－２２５号,,13,108,1360075,,,,,,,2024-10-15,1,,,,,ニッキンショウジ,0
28,1010701046694,新規,0,2024-10-15,2024-10-15,株式会社リアンパートナーズ,,株式会社,東京都,品川区,東品川４丁目１２番８号品川シーサイドイーストタワー１５Ｆ,,13,109,1400002,,,,,,,2024-10-15,1,,,,,リアンパートナーズ,0
33,1010901056122,新規,0,2024-10-15,2024-10-15,Ｆｕｂｅｅ株式会社,,株式会社,東京都,世田谷区,中町５丁目１４番６号,,13,112,1580091,,,,,,,2024-10-15,1,,,,,フービー,0
34,1010903009417,新規,0,2024-10-15,2024-10-15,合同会社ＬＡＲＧＥＤＯＧ,,合同会社,東京都,世田谷区,代田５丁目９番６号ストークマンション代田８０１,,13,112,1550033,,,,,,,2024-10-15,1,,,,,ラージドッグ,0
41,1011001165086,新規,0,2024-10-15,2024-10-15,株式会社ＣＨＩＥＩ,,株式会社,東京都,渋谷区,道玄坂１丁目１０番８号渋谷道玄坂東急ビル２Ｆ－Ｃ,,13,113,1500043,,,,,,,2024-10-15,1,,,,,チエイ,0
42,1011001165193,新規,0,2024-10-15,2024-10-15,株式会社Ｎｅｗ　Ｉｎｔｅｒｎ,,株式会社,東京都,渋谷区,恵比寿西２丁目４番８号ウィンド恵比寿ビル８Ｆ,,13,113,1500021,,,,,,,2024-10-15,1,,,,,ニューインターン,0
43,1011001165243,新規,0,2024-10-15,2024-10-15,ＡＶＡＮＴ株式会社,,株式会社,東京都,渋谷区,千駄ヶ谷４丁目９番５－２０５号,,13,113,1510051,,,,,,,2024-10-15,1,,,,,アヴァン,0
44,1011003020157,新規,0,2024-10-15,2024-10-15,ＰＯＰＨＯＴ合同会社,,合同会社,東京都,目黒区,五本木３丁目３１番６号ＫＹビル１０１号,,13,110,1530053,,,,,,,2024-10-15,1,,,,,ポポット,0
45,1011005010701,新規,0,2024-10-15,2024-10-15,一般社団法人フリーランスパートナー協会,,その他の設立登記法人,東京都,渋谷区,円山町１５－３グランエストビル３Ｆ,,13,113,1500044,,,,,,,2024-10-15,1,,,,,フリーランスパートナーキョウカイ,0
48,1011301030072,新規,0,2024-10-15,2024-10-15,グロービート・インターナショナル株式会社,,株式会社,東京都,杉並区,上荻１丁目１４番５号,,13,115,1670043,,,,,,,2024-10-15,1,,,,,グロービートインターナショナル,0
49,1011501031259,新規,0,2024-10-15,2024-10-15,高橋株式会社,,株式会社,東京都,北区,東田端１丁目６番６－４０３号,,13,117,1140013,,,,,,,2024-10-15,1,,,,,タカハシ,0
58,1012401042387,新規,0,2024-10-15,2024-10-15,株式会社イロドリ不動産,,株式会社,東京都,小金井市,本町２丁目６－７ペガサス第２武蔵小金井９０３,,13,210,1840004,,,,,,,2024-10-15,1,,,,,イロドリフドウサン,0
65,1013101009536,新規,0,2024-10-15,2024-10-15,株式会社ターントミエル,,株式会社,東京都,あきる野市,渕上２１０番地５クレストヒル１０３号室,,13,228,1970833,,,,,,,2024-10-15,1,,,,,ターントミエル,0
80,1020001159642,新規,0,2024-10-15,2024-10-15,株式会社ＡＫホールディングス,,株式会社,神奈川県,横浜市神奈川区,鶴屋町１丁目４１番地ＴＨＥＹＯＫＯＨＡＭＡＦＲＯＮＴＴＯＷＥＲ２１１６号,,14,102,2210835,,,,,,,2024-10-15,1,,,,,エーケーホールディングス,0
93,1030001162926,新規,0,2024-10-15,2024-10-15,ｃｌｅａｒ株式会社,,株式会社,埼玉県,草加市,金明町２４６番地１７－２０２号,,11,221,3400052,,,,,,,2024-10-15,1,,,,,クリア,0
94,1030001162950,新規,0,2024-10-15,2024-10-15,株式会社インターコンセプト,,株式会社,埼玉県,三郷市,幸房４８０番地,,11,237,3410026,,,,,,,2024-10-15,1,,,,,インターコンセプト,0
99,1030003025305,新規,0,2024-10-15,2024-10-15,４ＲＩＦＥ合同会社,,合同会社,埼玉県,川越市,大字笠幡１２６５番地５,,11,201,3501175,,,,,,,2024-10-15,1,,,,,フォーライフ,0
109,1040005022547,新規,0,2024-10-15,2024-10-15,医療法人社団山水会,,その他の設立登記法人,千葉県,市川市,市川１丁目１５番２１号リバーシティハイツＯｋａｄａ１階,,12,203,2720034,,,,,,,2024-10-15,1,,,,,サンスイカイ,0
121,1080001026548,新規,0,2024-10-15,2024-10-15,株式会社法月養鶏場,,株式会社,静岡県,焼津市,田尻１７１７番地,,22,212,4250052,,,,,,,2024-10-15,1,,,,,ノリヅキヨウケイジョウ,0
130,1100005013226,新規,0,2024-10-15,2024-10-15,社会保険労務士法人福島事務所,,その他の設立登記法人,長野県,長野市,篠ノ井布施五明１０６４番地,,20,201,3888011,,,,,,,2024-10-15,1,,,,,フクシマジムショ,0
147,1120001269324,新規,0,2024-10-15,2024-10-15,株式会社リタ,,株式会社,大阪府,大阪市中央区,上本町西５丁目３－９－２Ｆ,,27,128,5420062,,,,,,,2024-10-15,1,,,,,リタ,0
148,1120001269373,新規,0,2024-10-15,2024-10-15,造極株式会社,,株式会社,大阪府,大阪市浪速区,敷津西２丁目１６番４セルージュ朝日３０１４号,,27,111,5560015,,,,,,,2024-10-15,1,,,,,ゾウキョク,0
154,1120101070417,新規,0,2024-10-15,2024-10-15,株式会社ライズアクシス,,株式会社,大阪府,阪南市,桃の木台５丁目８番地の３５,,27,232,5990236,,,,,,,2024-10-15,1,,,,,ライズアクシス,0
161,1130003009917,新規,0,2024-10-15,2024-10-15,合同会社京都周遊アコースティックフェス実行委員会,,合同会社,京都府,京都市中京区,西ノ京小倉町４－２３,,26,104,6048414,,,,,,,2024-10-15,1,,,,,キョウトシュウユウアコースティックフェスジッコウイインカイ,0
171,1140001136084,新規,0,2024-10-15,2024-10-15,株式会社インテグリティ,,株式会社,兵庫県,宝塚市,山手台東１丁目８番１０号,,28,214,6650887,,,,,,,2024-10-15,1,,,,,インテグリティ,0
174,1140003021177,新規,0,2024-10-15,2024-10-15,合同会社ＭｅｔｅｏｒＢｌｕｅ,,合同会社,兵庫県,西宮市,本町９－１１,,28,204,6620914,,,,,,,2024-10-15,1,,,,,メテオブルー,0
196,1180001163463,新規,0,2024-10-15,2024-10-15,株式会社ノロッカ,,株式会社,愛知県,稲沢市,平和町下起東１７７番地１,,23,220,4901323,,,,,,,2024-10-15,1,,,,,ノロッカ,0
197,1180001163513,新規,0,2024-10-15,2024-10-15,株式会社はるたま,,株式会社,愛知県,名古屋市南区,内田橋１丁目４番２７号,,23,112,4570862,,,,,,,2024-10-15,1,,,,,ハルタマ,0
198,1180001163554,新規,0,2024-10-15,2024-10-15,株式会社ＣｉｒｃｏＶｉｔａ,,株式会社,愛知県,名古屋市中村区,名駅４丁目２４番５号第２森ビル４０１,,23,105,4500002,,,,,,,2024-10-15,1,,,,,キルコビタ,0
199,1180001163629,新規,0,2024-10-15,2024-10-15,ＺＡＤＤ株式会社,,株式会社,愛知県,名古屋市東区,東桜２丁目９番４号,,23,102,4610005,,,,,,,2024-10-15,1,,,,,ザッド,0
200,1180001163653,新規,0,2024-10-15,2024-10-15,Ａ＆Ｃ株式会社,,株式会社,愛知県,清須市,朝日天王８０番地グレイスガーデン１０３,,23,233,4520932,,,,,,,2024-10-15,1,,,,,エイアンドシー,0
210,1200001043035,新規,0,2024-10-15,2024-10-15,株式会社ＡＬ　ＡＳＡＲ自動車,,株式会社,岐阜県,岐阜市,折立１３０番地１千万アパート・ホ－４６,,21,201,5011132,,,,,,,2024-10-15,1,,,,,アールアサルジドウシャ,0
212,1220001026260,新規,0,2024-10-15,2024-10-15,株式会社ｂｅａｕｔｅ,,株式会社,石川県,金沢市,玉鉾２丁目１２３番地３,,17,201,9218002,,,,,,,2024-10-15,1,,,,,ボテ,0
215,1230001020568,新規,0,2024-10-15,2024-10-15,株式会社Ｂｒｉｇｈｔ　ｕｐ,,株式会社,富山県,富山市,本郷町６７‐２‐２‐２０２,,16,201,9398045,,,,,,,2024-10-15,1,,,,,ブライトアップ,0
233,1290001107491,新規,0,2024-10-15,2024-10-15,株式会社Ｍｅｍｂｅｒ,,株式会社,福岡県,久留米市,合川町１３５２番地２０,,40,203,8390861,,,,,,,2024-10-15,1,,,,,メンバー,0
234,1290001107574,新規,0,2024-10-15,2024-10-15,Ａｍｂｉｔｉｏｕｓ　Ｒｅａｌ　Ｅｓｔａｔｅ株式会社,,株式会社,福岡県,福岡市早良区,西新２丁目４番９号,,40,137,8140002,,,,,,,2024-10-15,1,,,,,アンビシャスリアルエステート,0
238,1290005019527,新規,0,2024-10-15,2024-10-15,特定非営利活動法人みらいシネマ福岡,,その他の設立登記法人,福岡県,福岡市城南区,樋井川２丁目２０番２５号,,40,136,8140153,,,,,,,2024-10-15,1,,,,,ミライシネマフクオカ,0
239,1290005019535,新規,0,2024-10-15,2024-10-15,社会保険労務士法人結いの木,,その他の設立登記法人,福岡県,福岡市博多区,博多駅東１丁目２番５－８０１号日之出ビル博多駅前,,40,132,8120013,,,,,,,2024-10-15,1,,,,,ユイノキ,0
240,1290801030959,新規,0,2024-10-15,2024-10-15,株式会社山本自動車サービス,,株式会社,福岡県,北九州市小倉南区,津田１丁目２番２０号,,40,107,8000242,,,,,,,2024-10-15,1,,,,,ヤマモトジドウシャサービス,0
241,1290801030967,新規,0,2024-10-15,2024-10-15,株式会社鈴屋,,株式会社,福岡県,北九州市八幡西区,大膳２丁目１２番１７号,,40,109,8070863,,,,,,,2024-10-15,1,,,,,スズヤ,0
242,1290803004853,新規,0,2024-10-15,2024-10-15,合同会社ＬＳ企画,,合同会社,福岡県,北九州市小倉北区,船頭町３番３９号,,40,106,8020008,,,,,,,2024-10-15,1,,,,,エルエスキカク,0
249,1330001032545,新規,0,2024-10-15,2024-10-15,株式会社ＨＫデザイン,,株式会社,熊本県,熊本市北区,麻生田５丁目１９番５号,,43,105,8618081,,,,,,,2024-10-15,1,,,,,エイチケイデザイン,0
254,1350003004763,新規,0,2024-10-15,2024-10-15,合同会社エポック,,合同会社,宮崎県,西都市,大字岡富８２６番地１,,45,208,8810001,,,,,,,2024-10-15,1,,,,,エポック,0
260,1360001034217,新規,0,2024-10-15,2024-10-15,株式会社ピット,,株式会社,沖縄県,宮古島市,平良字下里２５１１－７,,47,214,9060013,,,,,,,2024-10-15,1,,,,,ピット,0
261,1360001034308,新規,0,2024-10-15,2024-10-15,株式会社トキワ不動産,,株式会社,沖縄県,うるま市,字西原６７５番地１－２,,47,213,9042204,,,,,,,2024-10-15,1,,,,,トキワフドウサン,0
263,1360005007111,新規,0,2024-10-15,2024-10-15,特定非営利活動法人沖縄こどもホスピスのようなものプロジェクト,,その他の設立登記法人,沖縄県,うるま市,字江洲１３５番５,,47,213,9042244,,,,,,,2024-10-15,1,,,,,オキナワコドモホスピスノヨウナモノプロジェクト,0
268,1380005012885,新規,0,2024-10-15,2024-10-15,医療法人いがり歯科医院,,その他の設立登記法人,福島県,福島市,西中央４丁目７４番地の１,,07,201,9608074,,,,,,,2024-10-15,1,,,,,イガリシカイイン,0
274,1430001092868,新規,0,2024-10-15,2024-10-15,株式会社エリテ,,株式会社,北海道,恵庭市,恵南２４番地１３１,,01,231,0611411,,,,,,,2024-10-15,1,,,,,エリテ,0
276,1430003016882,新規,0,2024-10-15,2024-10-15,合同会社ＦＦＣ,,合同会社,北海道,札幌市豊平区,西岡五条２丁目１１番６号,,01,105,0620035,,,,,,,2024-10-15,1,,,,,エフエフシー,0
278,1480001012623,新規,0,2024-10-15,2024-10-15,株式会社手戸出山,,株式会社,徳島県,徳島市,八万町犬山８番地１,,36,201,7708070,,,,,,,2024-10-15,1,,,,,テトデヤマ,0
281,1700150127471,新規,0,2024-10-15,2024-10-15,株式会社三和Ｐ＆Ｃ,,外国会社等,東京都,豊島区,南長崎５丁目３３番２号ラ・メゾン長崎ＸＩ・Ｔ．Ｈ．Ｎ４０１号室,00136571,13,116,1710052,大韓民国慶尚北道浦項市北区新千年大路５２８（竹島洞）,,,,,,2024-10-15,1,,,,,カブシキガイシヤサンワピーアンドシー,0
289,2010001248767,新規,0,2024-10-15,2024-10-15,株式会社カナイ,,株式会社,東京都,文京区,湯島３丁目３９番１号武南ビル８階,,13,105,1130034,,,,,,,2024-10-15,1,,,,,カナイ,0
290,2010001249006,新規,0,2024-10-15,2024-10-15,Ｍｏｒｐｈｏ　Ｒｏｂｏｔｉｃｓ株式会社,,株式会社,東京都,中央区,築地１丁目４番１２号,,13,102,1040045,,,,,,,2024-10-15,1,,,,,モルフォロボティクス,0
291,2010001249014,新規,0,2024-10-15,2024-10-15,株式会社オーガスタツー,,株式会社,東京都,中央区,銀座１丁目１２番４号Ｎ＆ＥＢＬＤ６Ｆ,,13,102,1040061,,,,,,,2024-10-15,1,,,,,オーガスタツー,0
293,2010003045147,新規,0,2024-10-15,2024-10-15,合同会社のぞみプロパティーズ,,合同会社,東京都,千代田区,丸の内１丁目４番１号東京共同会計事務所内,,13,101,1000005,,,,,,,2024-10-15,1,,,,,ノゾミプロパティーズ,0
294,2010003045196,新規,0,2024-10-15,2024-10-15,虎ノ門一丁目東地区熱供給合同会社,,合同会社,東京都,千代田区,平河町１丁目６番１５号シルスフィア会計事務所内,,13,101,1020093,,,,,,,2024-10-15,1,,,,,トラノモンイッチョウメヒガシチクネツキョウキュウ,0
303,2010401185668,新規,0,2024-10-15,2024-10-15,ナヴァリノジャパン株式会社,,株式会社,東京都,港区,虎ノ門５丁目１１番２号,,13,103,1050001,,,,,,,2024-10-15,1,,,,,ナヴァリノジャパン,0
304,2010401185701,新規,0,2024-10-15,2024-10-15,三盛株式会社,,株式会社,東京都,港区,三田１丁目３－４０,,13,103,1080073,,,,,,,2024-10-15,1,,,,,サンセイ,0
308,2010403033577,新規,0,2024-10-15,2024-10-15,合同会社プロダクトクリエイターズ,,合同会社,東京都,港区,南青山３丁目１番３６号青山丸竹ビル６Ｆ,,13,103,1070062,,,,,,,2024-10-15,1,,,,,プロダクトクリエイターズ,0
309,2010405023675,新規,0,2024-10-15,2024-10-15,一般社団法人ジャパンレジデンシャルコアプラス,,その他の設立登記法人,東京都,港区,西新橋１丁目２番９号メンターキャピタル税理士法人内,,13,103,1050003,,,,,,,2024-10-15,1,,,,,ジャパンレジデンシャルコアプラス,0
318,2010701046693,新規,0,2024-10-15,2024-10-15,株式会社ラカリテプロパティ,,株式会社,東京都,品川区,西大井４丁目１８番９号,,13,109,1400015,,,,,,,2024-10-15,1,,,,,ラカリテプロパティ,0
320,2010901056113,新規,0,2024-10-15,2024-10-15,株式会社ＤｒｉｐＳｑｕａｒｅ,,株式会社,東京都,世田谷区,池尻３丁目２８－２３シャーメゾン池尻１０１,,13,112,1540001,,,,,,,2024-10-15,1,,,,,ドリップスクエア,0
321,2010901056121,新規,0,2024-10-15,2024-10-15,株式会社ＧＥＭホールディングス,,株式会社,東京都,世田谷区,代沢３丁目９番１２号,,13,112,1550032,,,,,,,2024-10-15,1,,,,,ジェムホールディングス,0
325,2011001165127,新規,0,2024-10-15,2024-10-15,株式会社ゆったり,,株式会社,東京都,渋谷区,恵比寿西２丁目８－４ＥＸ恵比寿西ビル５階,,13,113,1500021,,,,,,,2024-10-15,1,,,,,ユッタリ,0
326,2011001165275,新規,0,2024-10-15,2024-10-15,株式会社ラックコミュニケーションズ,,株式会社,東京都,渋谷区,恵比寿西２丁目４番８号ウィンド恵比寿ビル８Ｆ,,13,113,1500021,,,,,,,2024-10-15,1,,,,,ラックコミュニケーションズ,0
329,2011003020164,新規,0,2024-10-15,2024-10-15,ＳｋｉｌｌＹａｈ合同会社,,合同会社,東京都,渋谷区,東１丁目２９番３号渋谷ブリッジＢ－５,,13,113,1500011,,,,,,,2024-10-15,1,,,,,スキルヤー,0
330,2011003020189,新規,0,2024-10-15,2024-10-15,合同会社ＡｗｉｔＴ,,合同会社,東京都,渋谷区,代々木３丁目１４番１号代々木テラスＨ,,13,113,1510053,,,,,,,2024-10-15,1,,,,,エーウィッティー,0
331,2011005010700,新規,0,2024-10-15,2024-10-15,一般社団法人日本ダンサー整体セラピスト協会,,その他の設立登記法人,東京都,渋谷区,代々木２丁目２６番５号バロール代々木２１１号,,13,113,1510053,,,,,,,2024-10-15,1,,,,,,0
336,2011301030055,新規,0,2024-10-15,2024-10-15,株式会社ＭＫＴＹ,,株式会社,東京都,杉並区,浜田山４丁目１４番６号,,13,115,1680065,,,,,,,2024-10-15,1,,,,,エムケイティーワイ,0
337,2011301030071,新規,0,2024-10-15,2024-10-15,ゲッコー企画株式会社,,株式会社,東京都,杉並区,井草２丁目３３番８号,,13,115,1670021,,,,,,,2024-10-15,1,,,,,ゲッコーキカク,0
340,2011401026498,新規,0,2024-10-15,2024-10-15,株式会社ＯｋｏｊｏＡＩ,,株式会社,東京都,板橋区,南常盤台１丁目１１－６レフア南常盤台１０１号室,,13,119,1740072,,,,,,,2024-10-15,1,,,,,オコジョエーアイ,0
342,2011501031258,新規,0,2024-10-15,2024-10-15,株式会社ＭＥＬＩＳＴ,,株式会社,東京都,北区,十条仲原１丁目３－５鈴木ビル３Ｆ,,13,117,1140031,,,,,,,2024-10-15,1,,,,,メリスト,0
343,2011501031266,新規,0,2024-10-15,2024-10-15,株式会社ＢＴＤ　ＡＮＤ,,株式会社,東京都,荒川区,東日暮里３丁目１１番２４－２０５号,,13,118,1160014,,,,,,,2024-10-15,1,,,,,ビーティーディーアンド,0
347,2011803006503,新規,0,2024-10-15,2024-10-15,合同会社ＬＩＮＫ．ＳＢ,,合同会社,東京都,足立区,花畑６丁目２４番２０－３０５号,,13,121,1210061,,,,,,,2024-10-15,1,,,,,リンクドットエスビー,0
348,2012301014122,新規,0,2024-10-15,2024-10-15,エルアイコム株式会社,,株式会社,東京都,町田市,能ヶ谷６丁目２９番１２号,,13,209,1950053,,,,,,,2024-10-15,1,,,,,エルアイコム,0
349,2012303002059,新規,0,2024-10-15,2024-10-15,神気小虎合同会社,,合同会社,東京都,町田市,原町田４丁目１２－１５,,13,209,1940013,,,,,,,2024-10-15,1,,,,,シンキコトラ,0
360,2020001159468,新規,0,2024-10-15,2024-10-15,佳和投資株式会社,,株式会社,神奈川県,横浜市青葉区,荏田西４丁目１２番地３０,,14,117,2250014,,,,,,,2024-10-15,1,,,,,カワトウシ,0
361,2020001159575,新規,0,2024-10-15,2024-10-15,株式会社Ａｂｅｘｙｚ,,株式会社,神奈川県,川崎市川崎区,駅前本町１１番地２川崎フロンティアビル４階,,14,131,2100007,,,,,,,2024-10-15,1,,,,,アベクシーズ,0
369,2021001083476,新規,0,2024-10-15,2024-10-15,株式会社Ｖｅａｔｉｆｕｌ　ｗｏｒｋｓ,,株式会社,神奈川県,大和市,上草柳６丁目１４番３０－５号,,14,213,2420029,,,,,,,2024-10-15,1,,,,,ヴィーティフルワークス,0
373,2021005013198,新規,0,2024-10-15,2024-10-15,特定非営利活動法人湘南多文化ガーデン,,その他の設立登記法人,神奈川県,藤沢市,羽鳥４丁目６番８号１階,,14,205,2510056,,,,,,,2024-10-15,1,,,,,ショウナンタブンカガーデン,0
379,2030001162933,新規,0,2024-10-15,2024-10-15,株式会社ｓｏｅｌ,,株式会社,埼玉県,所沢市,小手指町３丁目２４番地の２０,,11,208,3591141,,,,,,,2024-10-15,1,,,,,ソエル,0
382,2030005021879,新規,0,2024-10-15,2024-10-15,医療法人社団しろくま,,その他の設立登記法人,埼玉県,川口市,戸塚２丁目２５番１０号コモンズビル２階,,11,203,3330811,,,,,,,2024-10-15,1,,,,,シロクマ,0
393,2040003025988,新規,0,2024-10-15,2024-10-15,合同会社チュラボ,,合同会社,千葉県,千葉市美浜区,浜田１丁目３番地コロンブスシティ９１４号,,12,106,2610025,,,,,,,2024-10-15,1,,,,,チュラボ,0
395,2040005022546,新規,0,2024-10-15,2024-10-15,医療法人社団ももせい,,その他の設立登記法人,千葉県,市川市,堀之内４丁目１１番２１号,,12,203,2720837,,,,,,,2024-10-15,1,,,,,モモセイ,0
402,2080001026547,新規,0,2024-10-15,2024-10-15,株式会社ＢＵＥＮＡＰＬＡＮＴ,,株式会社,静岡県,藤枝市,北方５４３番地の１７,,22,214,4260212,,,,,,,2024-10-15,1,,,,,ブエナプラント,0
405,2080401027500,新規,0,2024-10-15,2024-10-15,株式会社姿泉商事,,株式会社,静岡県,磐田市,豊岡１３６３番地２,,22,211,4380231,,,,,,,2024-10-15,1,,,,,シセンショウジ,0
406,2080401027509,新規,0,2024-10-15,2024-10-15,ファンピッキング株式会社,,株式会社,静岡県,浜松市中央区,鍛冶町１００番地の１ザザシティ中央館Ｂ１Ｆ,,22,138,4300933,,,,,,,2024-10-15,1,,,,,ファンピッキング,0
412,2090003002660,新規,0,2024-10-15,2024-10-15,えほんミュージアム清里合同会社,,合同会社,山梨県,北杜市,高根町清里３５４５－６０７９,,19,209,4070301,,,,,,,2024-10-15,1,,,,,エホンミュージアムキヨサト,0
415,2110001038761,新規,0,2024-10-15,2024-10-15,シュナガジャパン株式会社,,株式会社,新潟県,新潟市東区,東明２丁目５番地１,,15,102,9500853,,,,,,,2024-10-15,1,,,,,シュナガジャパン,0
423,2120001269224,新規,0,2024-10-15,2024-10-15,株式会社ＴＷｉＮｉＳＨ,,株式会社,大阪府,大阪市福島区,海老江１丁目５番３０‐１３１号,,27,103,5530001,,,,,,,2024-10-15,1,,,,,トゥイニッシュ,0
424,2120001269257,新規,0,2024-10-15,2024-10-15,株式会社Ｓｕｎすまいる,,株式会社,大阪府,大阪市中央区,備後町３丁目１番２号ｒｅＡｂｌｄｇ８Ｆ,,27,128,5410051,,,,,,,2024-10-15,1,,,,,サンスマイル,0
425,2120001269372,新規,0,2024-10-15,2024-10-15,正澤株式会社,,株式会社,大阪府,大阪市浪速区,敷津西２丁目１６番４セルージュ朝日３０１３号,,27,111,5560015,,,,,,,2024-10-15,1,,,,,セイタク,0
427,2120003027729,新規,0,2024-10-15,2024-10-15,晨星合同会社,,合同会社,大阪府,大阪市生野区,新今里３丁目５番１８号ＳＥＩＫＡビル３０１号室,,27,116,5440001,,,,,,,2024-10-15,1,,,,,シンセイ,0
428,2120003027745,新規,0,2024-10-15,2024-10-15,合同会社エムワイ,,合同会社,大阪府,大阪市中央区,南本町１丁目６－７ＭＪＲ堺筋本町２９０６,,27,128,5410054,,,,,,,2024-10-15,1,,,,,エムワイ,0
432,2120103006095,新規,0,2024-10-15,2024-10-15,Ｃｘｒｏｓｓ合同会社,,合同会社,大阪府,泉南郡熊取町,若葉１丁目１８－１,,27,361,5900433,,,,,,,2024-10-15,1,,,,,シークロス,0
441,2130001078129,新規,0,2024-10-15,2024-10-15,株式会社さき,,株式会社,京都府,京都市中京区,堺町通四条上る八百屋町５４９番地,,26,104,6048123,,,,,,,2024-10-15,1,,,,,サキ,0
447,2140001136034,新規,0,2024-10-15,2024-10-15,株式会社ノビシロ,,株式会社,兵庫県,姫路市,本町１２７番地大手前ダイネンＢＬＤ．ＩＩ３Ｆ,00136627,28,201,6700012,,,,,,,2024-10-15,1,,,,,ノビシロ,0
448,2140001136075,新規,0,2024-10-15,2024-10-15,株式会社ライタス,,株式会社,兵庫県,神戸市中央区,明石町４７番地ニッケ神戸ビル地下１階,,28,110,6500037,,,,,,,2024-10-15,1,,,,,ライタス,0
449,2140001136100,新規,0,2024-10-15,2024-10-15,株式会社ｋｕｍｕ,,株式会社,兵庫県,西宮市,郷免町２－１４クレセント夙川２０２,,28,204,6620965,,,,,,,2024-10-15,1,,,,,クム,0
450,2140003021176,新規,0,2024-10-15,2024-10-15,合同会社ＲＯＵＴＥ,,合同会社,兵庫県,西宮市,六湛寺町９－１０エヌエムヴァンシス３０２号室,,28,204,6620918,,,,,,,2024-10-15,1,,,,,ルート,0
451,2140003021201,新規,0,2024-10-15,2024-10-15,合同会社スタートオーバー,,合同会社,兵庫県,神戸市須磨区,衣掛町５丁目３－９－５０１,,28,107,6540048,,,,,,,2024-10-15,1,,,,,スタートオーバー,0
453,2170001018345,新規,0,2024-10-15,2024-10-15,株式会社出口弘工務店,,株式会社,和歌山県,和歌山市,和歌浦東２丁目１番１２号,,30,201,6410021,,,,,,,2024-10-15,1,,,,,デグチヒロコウムテン,0
462,2180001163628,新規,0,2024-10-15,2024-10-15,株式会社満や,,株式会社,愛知県,名古屋市中区,錦３丁目１１番１６号２Ｆ,,23,106,4600003,,,,,,,2024-10-15,1,,,,,マンヤ,0
463,2180001163644,新規,0,2024-10-15,2024-10-15,株式会社ＳＩＮアセット,,株式会社,愛知県,名古屋市中区,丸の内２丁目１４番１６号河合ビル４Ｆ,,23,106,4600002,,,,,,,2024-10-15,1,,,,,シンアセット,0
473,2190003004829,新規,0,2024-10-15,2024-10-15,合同会社ｉｃｈｉｇｏ３５,,合同会社,三重県,松阪市,嬉野権現前町７３２番地２,,24,204,5152323,,,,,,,2024-10-15,1,,,,,イチゴサンジュウゴ,0
474,2200001043034,新規,0,2024-10-15,2024-10-15,株式会社芦正建設,00136625,株式会社,岐阜県,安八郡安八町,牧３４１７番地の１,,21,383,5030125,,,,,,,2024-10-15,1,,,,,アシマサケンセツ,0
479,2230003002316,新規,0,2024-10-15,2024-10-15,合同会社渡辺地所,,合同会社,富山県,富山市,下大久保３２６０番地２,,16,201,9392251,,,,,,,2024-10-15,1,,,,,ワタナベジショ,0
499,2290001107458,新規,0,2024-10-15,2024-10-15,株式会社アクティネクト,,株式会社,福岡県,福岡市早良区,百道浜４丁目３１番１０－２２０１号,,40,137,8140001,,,,,,,2024-10-15,1,,,,,アクティネクト,0
501,2290003015948,新規,0,2024-10-15,2024-10-15,ネクサスワールドニュートリション合同会社,,合同会社,福岡県,福岡市早良区,干隈６丁目１１番６号,,40,137,8140163,,,,,,,2024-10-15,1,,,,,ネクサスワールドニュートリション,0
503,2290801030958,新規,0,2024-10-15,2024-10-15,株式会社ｅｓ,,株式会社,福岡県,北九州市八幡西区,竹末２丁目７番３号,,40,109,8060045,,,,,,,2024-10-15,1,,,,,エス,0
507,2330001032552,新規,0,2024-10-15,2024-10-15,株式会社盛川重建,,株式会社,熊本県,宇城市,松橋町両仲間３１５番地２,,43,213,8690533,,,,,,,2024-10-15,1,,,,,モリカワジュウケン,0
513,2360001034307,新規,0,2024-10-15,2024-10-15,株式会社ｋｉｚｕｋｉ　Ｌａｂ,,株式会社,沖縄県,中頭郡中城村,字南上原４９１番地１３０１号,,47,328,9012424,,,,,,,2024-10-15,1,,,,,キズキラボ,0
528,2430001092834,新規,0,2024-10-15,2024-10-15,株式会社アルファ,,株式会社,北海道,札幌市中央区,南四条西５丁目４番地１,,01,101,0640804,,,,,,,2024-10-15,1,,,,,アルファ,0
533,2490005006958,新規,0,2024-10-15,2024-10-15,一般社団法人アドバンス,,その他の設立登記法人,高知県,宿毛市,橋上町橋上１０２０番地,,39,208,7880046,,,,,,,2024-10-15,1,,,,,アドバンス,0
534,2500001025935,新規,0,2024-10-15,2024-10-15,株式会社ＬＩＧ,,株式会社,愛媛県,松山市,二番町１丁目８番地４,,38,201,7900002,,,,,,,2024-10-15,1,,,,,リグ,0
547,3010001248997,新規,0,2024-10-15,2024-10-15,ＭＵＳＨＩＮＹ　ＪＡＰＡＮ株式会社,,株式会社,東京都,中央区,銀座４丁目１３番８号岩藤ビル５階,,13,102,1040061,,,,,,,2024-10-15,1,,,,,ムシニージャパン,0
548,3010003045146,新規,0,2024-10-15,2024-10-15,エスティ１３合同会社,,合同会社,東京都,千代田区,丸の内１丁目４番１号東京共同会計事務所内,,13,101,1000005,,,,,,,2024-10-15,1,,,,,エスティジュウサン,0
552,3010401185700,新規,0,2024-10-15,2024-10-15,株式会社海宝苑,,株式会社,東京都,港区,六本木４丁目１１番１１号六本木ＧＭビル５Ｆ,,13,103,1060032,,,,,,,2024-10-15,1,,,,,カイホウエン,0
553,3010401185758,新規,0,2024-10-15,2024-10-15,シトリンリーシング２株式会社,,株式会社,東京都,港区,虎ノ門１丁目２番６号,,13,103,1050001,,,,,,,2024-10-15,1,,,,,シトリンリーシングツー,0
559,3010601066114,新規,0,2024-10-15,2024-10-15,株式会社Ｂｌｕｅ　Ｂｉｇｔｒｅｅ,,株式会社,東京都,江東区,豊洲４丁目１１―３５オークプレイス豊洲８１１,,13,108,1350061,,,,,,,2024-10-15,1,,,,,ブルービッグツリー,0
562,3010701046684,新規,0,2024-10-15,2024-10-15,株式会社ＥＳＳＥＮＣＥ,,株式会社,東京都,品川区,東五反田２丁目１０番３－１０２号,,13,109,1410022,,,,,,,2024-10-15,1,,,,,エッセンス,0
564,3010901056112,新規,0,2024-10-15,2024-10-15,アルパインファン株式会社,,株式会社,東京都,世田谷区,上祖師谷３丁目２０－１５,,13,112,1570065,,,,,,,2024-10-15,1,,,,,アルパインファン,0
565,3010901056129,新規,0,2024-10-15,2024-10-15,ＨＯＶＥＬ株式会社,,株式会社,東京都,世田谷区,野沢１丁目３５番６号,,13,112,1540003,,,,,,,2024-10-15,1,,,,,ホヴェル,0
572,3011001165101,新規,0,2024-10-15,2024-10-15,ＳＯＲＡ株式会社,,株式会社,東京都,渋谷区,恵比寿４丁目２０番３号恵比寿ガーデンプレイスタワー２７ＦコアＨ内,,13,113,1500013,,,,,,,2024-10-15,1,,,,,ソラ,0
573,3011001165142,新規,0,2024-10-15,2024-10-15,株式会社ＳＵＮＮＹ　ＰＲＩＤＥ,,株式会社,東京都,渋谷区,道玄坂１丁目１９番１３号トップヒル並木９Ｆ,,13,113,1500043,,,,,,,2024-10-15,1,,,,,サニープライド,0
574,3011001165241,新規,0,2024-10-15,2024-10-15,株式会社ＲＥＶＩＳＩＴ,,株式会社,東京都,渋谷区,道玄坂１丁目１２番１号渋谷マークシティ２２Ｆ,,13,113,1500043,,,,,,,2024-10-15,1,,,,,リビジット,0
583,3011501031257,新規,0,2024-10-15,2024-10-15,鐘米株式会社,,株式会社,東京都,北区,浮間１丁目１－１４－１１５号室,,13,117,1150051,,,,,,,2024-10-15,1,,,,,カネコメ,0
586,3011801044990,新規,0,2024-10-15,2024-10-15,足立電設株式会社,,株式会社,東京都,足立区,北加平町１２－９－１階,,13,121,1210056,,,,,,,2024-10-15,1,,,,,アダチデンセツ,0
588,3012303002058,新規,0,2024-10-15,2024-10-15,イエモン商事合同会社,,合同会社,東京都,町田市,三輪緑山４丁目３番地８,,13,209,1950055,,,,,,,2024-10-15,1,,,,,イエモンショウジ,0
589,3012401042385,新規,0,2024-10-15,2024-10-15,株式会社Ｆｏｒ１１,,株式会社,東京都,府中市,府中町１丁目２－１ぷらりと京王府中ぷらりと西７階ＫＥＩＯＢＩＺＰＬＡＺＡ府中内郵便ポスト１１,,13,206,1830055,,,,,,,2024-10-15,1,,,,,フォーエレヴァン,0
619,3021005013197,新規,0,2024-10-15,2024-10-15,一般社団法人サニープレイス,,その他の設立登記法人,神奈川県,相模原市南区,相模大野２丁目４番２号,,14,153,2520303,,,,,,,2024-10-15,1,,,,,サニープレイス,0
625,3030001162874,新規,0,2024-10-15,2024-10-15,株式会社Ｈ＆Ａ,,株式会社,埼玉県,飯能市,柳町７番１０号ＫＩＶ商会館飯能Ｂ号室,,11,209,3570035,,,,,,,2024-10-15,1,,,,,エイチアンドエイ,0
626,3030001162957,新規,0,2024-10-15,2024-10-15,株式会社Ｕｖａ,,株式会社,埼玉県,ふじみ野市,新駒林２丁目２番２号２,,11,245,3560030,,,,,,,2024-10-15,1,,,,,ウーバ,0
631,3030003025303,新規,0,2024-10-15,2024-10-15,合同会社創地,,合同会社,埼玉県,所沢市,くすのき台３丁目１０番地の２レジェンドくすのき台１０１,,11,208,3590037,,,,,,,2024-10-15,1,,,,,ソウチ,0
644,3040005022545,新規,0,2024-10-15,2024-10-15,一般社団法人おでかけ日和,,その他の設立登記法人,千葉県,船橋市,田喜野井４丁目２９番７棟１０３号,,12,204,2740073,,,,,,,2024-10-15,1,,,,,オデカケビヨリ,0
652,3060003005277,新規,0,2024-10-15,2024-10-15,ＨＡＧＡＮＥ合同会社,,合同会社,栃木県,小山市,大字喜沢４７６―３６,,09,208,3230014,,,,,,,2024-10-15,1,,,,,ハガネ,0
669,3100005013240,新規,0,2024-10-15,2024-10-15,医療法人チューリップ,,その他の設立登記法人,長野県,松本市,小屋南１丁目１番１０号,,20,202,3990038,,,,,,,2024-10-15,1,,,,,チューリップ,0
678,3120001269264,新規,0,2024-10-15,2024-10-15,星光株式会社,,株式会社,大阪府,大阪市西成区,萩之茶屋２丁目５番４号１０１号室,,27,122,5570004,,,,,,,2024-10-15,1,,,,,セイコウ,0
679,3120001269314,新規,0,2024-10-15,2024-10-15,株式会社マーキュリー・ファンド３,,株式会社,大阪府,大阪市中央区,瓦町４丁目８番５号ＮＫビル,,27,128,5410048,,,,,,,2024-10-15,1,,,,,マーキュリーファンドスリー,0
680,3120001269363,新規,0,2024-10-15,2024-10-15,昊輝株式会社,,株式会社,大阪府,大阪市此花区,春日出南２丁目３－７－１０２号,,27,104,5540023,,,,,,,2024-10-15,1,,,,,コウキ,0
683,3120003027728,新規,0,2024-10-15,2024-10-15,合同会社東京白金商会,,合同会社,大阪府,大阪市西区,靱本町３丁目１番７号－８１０,,27,106,5500004,,,,,,,2024-10-15,1,,,,,トウキョウシロカネショウカイ,0
687,3120101070415,新規,0,2024-10-15,2024-10-15,ピアネットサービス株式会社,,株式会社,大阪府,堺市東区,白鷺町１丁９番１６－１号,,27,143,5998107,,,,,,,2024-10-15,1,,,,,ピアネットサービス,0
692,3120903005378,新規,0,2024-10-15,2024-10-15,合同会社零壱堂,,合同会社,大阪府,豊中市,上新田１丁目２４番Ｃ－１５０２号,,27,203,5600085,,,,,,,2024-10-15,1,,,,,ゼロイチドウ,0
700,3150001027611,新規,0,2024-10-15,2024-10-15,株式会社みやこレンタカー,,株式会社,奈良県,奈良市,大宮町２丁目７番９号,,29,201,6308115,,,,,,,2024-10-15,1,,,,,ミヤコレンタカー,0
713,3180001163544,新規,0,2024-10-15,2024-10-15,株式会社ｇ．ｆ．ｇ　ＪＡＰＡＮ,,株式会社,愛知県,名古屋市中区,丸の内３丁目１６－１７－１００１,,23,106,4600002,,,,,,,2024-10-15,1,,,,,ジーエフジージャパン,0
714,3180001163610,新規,0,2024-10-15,2024-10-15,株式会社ＭＳ企画,,株式会社,愛知県,名古屋市中区,大須２丁目１３番１７号,,23,106,4600011,,,,,,,2024-10-15,1,,,,,エムエスキカク,0
715,3180001163651,新規,0,2024-10-15,2024-10-15,株式会社ＳＳＫ,,株式会社,愛知県,名古屋市中村区,名駅４丁目２４番５号第２森ビル４０１,,23,105,4500002,,,,,,,2024-10-15,1,,,,,エスエスケイ,0
721,3180003027482,新規,0,2024-10-15,2024-10-15,合同会社輪,,合同会社,愛知県,豊明市,間米町敷田１２７１番地３３,,23,229,4701132,,,,,,,2024-10-15,1,,,,,ワ,0
727,3200003006541,新規,0,2024-10-15,2024-10-15,合同会社＿和,00136624,合同会社,岐阜県,美濃加茂市,牧野１０７６番地１０６,,21,211,5050016,,,,,,,2024-10-15,1,,,,,キンワ,0
728,3210003001847,新規,0,2024-10-15,2024-10-15,合同会社Ｔａｃｔ．２９１,,合同会社,福井県,鯖江市,平井町第１８号５番地４,,18,207,9160061,,,,,,,2024-10-15,1,,,,,タクトフクイ,0
731,3230003002315,新規,0,2024-10-15,2024-10-15,Ｉｎｓｐｉｒｅ　Ｖｏｌｔ合同会社,,合同会社,富山県,射水市,戸破１１５８番地５,,16,211,9390351,,,,,,,2024-10-15,1,,,,,インスパイアヴォルト,0
742,3260001039538,新規,0,2024-10-15,2024-10-15,株式会社成山総建,,株式会社,岡山県,倉敷市,玉島中央町１丁目１２番６－１号プロムナード玉島Ａ棟,,33,202,7138122,,,,,,,2024-10-15,1,,,,,ナリヤマソウケン,0
744,3270001009069,新規,0,2024-10-15,2024-10-15,北村工業株式会社,,株式会社,鳥取県,東伯郡北栄町,北尾１５８番地,,31,372,6892114,,,,,,,2024-10-15,1,,,,,キタムラコウギョウ,0
754,3290001107572,新規,0,2024-10-15,2024-10-15,株式会社エムズジャパン,,株式会社,福岡県,福岡市中央区,今泉１丁目２番２０－１７０６号天神プレイスＷＥＳＴ棟,,40,133,8100021,,,,,,,2024-10-15,1,,,,,エムズジャパン,0
760,3290003015922,新規,0,2024-10-15,2024-10-15,合同会社小石原ラボ,,合同会社,福岡県,朝倉郡東峰村,大字小石原９６２番地１,,40,448,8381601,,,,,,,2024-10-15,1,,,,,コイシワララボ,0
762,3290801030957,新規,0,2024-10-15,2024-10-15,株式会社今井技研,,株式会社,福岡県,北九州市小倉南区,上吉田１丁目１１番３０号,,40,107,8000201,,,,,,,2024-10-15,1,,,,,イマイギケン,0
766,3310005008806,新規,0,2024-10-15,2024-10-15,農事組合法人沓石,,その他の設立登記法人,長崎県,壱岐市,芦辺町諸吉仲触１６００番地３,00136630,42,210,8115313,,,,,,,2024-10-15,1,,,,,クツイシ,0
767,3330001032535,新規,0,2024-10-15,2024-10-15,株式会社実工業,,株式会社,熊本県,合志市,須屋１２９２番地１,,43,216,8611102,,,,,,,2024-10-15,1,,,,,ミノルコウギョウ,0
769,3330003010596,新規,0,2024-10-15,2024-10-15,合同会社ともだちＫＭＪ,,合同会社,熊本県,熊本市中央区,南千反畑町３番１６号,,43,101,8600842,,,,,,,2024-10-15,1,,,,,トモダチケイエムジェイ,0
770,3330003010605,新規,0,2024-10-15,2024-10-15,合同会社ＧＯＫＡＮｇｒｅｅｎ,,合同会社,熊本県,熊本市西区,花園７丁目４１番４号,,43,103,8600072,,,,,,,2024-10-15,1,,,,,ゴカングリーン,0
773,3340001026858,新規,0,2024-10-15,2024-10-15,株式会社鶴将,,株式会社,鹿児島県,霧島市,隼人町小田４７７番地９,,46,218,8995105,,,,,,,2024-10-15,1,,,,,カクショウ,0
781,3360005007118,新規,0,2024-10-15,2024-10-15,医療法人とんぼ,,その他の設立登記法人,沖縄県,那覇市,具志１丁目１番１１号１階,,47,201,9010146,,,,,,,2024-10-15,1,,,,,トンボ,0
791,3410003003996,新規,0,2024-10-15,2024-10-15,合同会社こねくと,,合同会社,秋田県,能代市,二ツ井町小繋字神明社下３９番地１,,05,202,0183102,,,,,,,2024-10-15,1,,,,,,0
796,3480003002190,新規,0,2024-10-15,2024-10-15,合同会社笑楽,,合同会社,徳島県,三好郡東みよし町,西庄字出口１６番地１,,36,489,7794702,,,,,,,2024-10-15,1,,,,,ワラク,0
811,4010001248765,新規,0,2024-10-15,2024-10-15,株式会社ソフィー飯田橋,,株式会社,東京都,千代田区,飯田橋４丁目５番１４号,,13,101,1020072,,,,,,,2024-10-15,1,,,,,ソフィーイイダバシ,0
812,4010001248996,新規,0,2024-10-15,2024-10-15,ＣＯＦＲＥＥＬＩＦＥ株式会社,,株式会社,東京都,中央区,日本橋箱崎町２７番９号ヴェラハイツ日本橋箱崎１階,,13,102,1030015,,,,,,,2024-10-15,1,,,,,コフリーライフ,0
813,4010001249004,新規,0,2024-10-15,2024-10-15,株式会社ＡＴＯＲ,,株式会社,東京都,中央区,日本橋室町１丁目１１番１２号日本橋水野ビル７階,,13,102,1030022,,,,,,,2024-10-15,1,,,,,アトール,0
814,4010001249020,新規,0,2024-10-15,2024-10-15,日本桜花ビール株式会社,,株式会社,東京都,文京区,千石４丁目１４番９号,,13,105,1120011,,,,,,,2024-10-15,1,,,,,ニホンサクラビール,0
815,4010001249037,新規,0,2024-10-15,2024-10-15,ダイヤモンドエナジーストレージ１号株式会社,,株式会社,東京都,千代田区,丸の内２丁目３番１号,,13,101,1000005,,,,,,,2024-10-15,1,,,,,ダイヤモンドエナジーストレージイチゴウ,0
816,4010001249045,新規,0,2024-10-15,2024-10-15,株式会社Ｒｉｃｈ　Ｌｉｆｅ,,株式会社,東京都,中央区,日本橋横山町６番１３号,,13,102,1030003,,,,,,,2024-10-15,1,,,,,リッチライフ,0
817,4010001249128,新規,0,2024-10-15,2024-10-15,株式会社フルフィルメント,,株式会社,東京都,千代田区,神田駿河台２丁目１１番地１６－２０１号室,,13,101,1010062,,,,,,,2024-10-15,1,,,,,フルフィルメント,0
818,4010003045153,新規,0,2024-10-15,2024-10-15,ソプラカペリ合同会社,,合同会社,東京都,千代田区,丸の内２丁目１番１号,,13,101,1000005,,,,,,,2024-10-15,1,,,,,ソプラカペリ,0
819,4010003045178,新規,0,2024-10-15,2024-10-15,ティー・エル・ジェイ・心斎橋・ホールディング合同会社,,合同会社,東京都,千代田区,丸の内１丁目４番１号東京共同会計事務所内,,13,101,1000005,,,,,,,2024-10-15,1,,,,,ティーエルジェイシンサイバシホールディング,0
820,4010003045203,新規,0,2024-10-15,2024-10-15,合同会社ＴＯインベストメント,,合同会社,東京都,文京区,本駒込５丁目６８番５号１０１,,13,105,1130021,,,,,,,2024-10-15,1,,,,,ティーオーインベストメント,0
830,4010401185534,新規,0,2024-10-15,2024-10-15,ＬＮＳホールディングス２株式会社,,株式会社,東京都,港区,浜松町２丁目４番１号,,13,103,1050013,,,,,,,2024-10-15,1,,,,,エルエヌエスホールディングスツー,0
831,4010401185609,新規,0,2024-10-15,2024-10-15,株式会社ＥＴＯＣＡ,,株式会社,東京都,港区,南青山３丁目１番３６号青山丸竹ビル６Ｆ,,13,103,1070062,,,,,,,2024-10-15,1,,,,,エトカ,0
832,4010401185633,新規,0,2024-10-15,2024-10-15,シーエスビーシー株式会社,,株式会社,東京都,港区,南青山３丁目１番３６号青山丸竹ビル６Ｆ,,13,103,1070062,,,,,,,2024-10-15,1,,,,,シーエスビーシー,0
833,4010401185641,新規,0,2024-10-15,2024-10-15,株式会社Ｆｅｒｅｍｉｎｆｌｅｕｒ,,株式会社,東京都,港区,南青山２丁目２番１５号,,13,103,1070062,,,,,,,2024-10-15,1,,,,,フェレミンフルール,0
834,4010401185690,新規,0,2024-10-15,2024-10-15,株式会社Ｖｉｔａｍｉｎ,,株式会社,東京都,港区,新橋１丁目１８番２１号,,13,103,1050004,,,,,,,2024-10-15,1,,,,,ヴァイタミン,0
835,4010401185757,新規,0,2024-10-15,2024-10-15,シトリンリーシング１株式会社,,株式会社,東京都,港区,虎ノ門１丁目２番６号,,13,103,1050001,,,,,,,2024-10-15,1,,,,,シトリンリーシングワン,0
845,4010901056111,新規,0,2024-10-15,2024-10-15,Ｂｌｏｏｍｓ株式会社,,株式会社,東京都,世田谷区,池尻４丁目１０－１－Ｅ８０８,,13,112,1540001,,,,,,,2024-10-15,1,,,,,ブルームズ,0
851,4011001165091,新規,0,2024-10-15,2024-10-15,株式会社ＡＫＡＴＳＵＫＩ,,株式会社,東京都,渋谷区,道玄坂１丁目１０番８号渋谷道玄坂東急ビル２Ｆ－Ｃ,,13,113,1500043,,,,,,,2024-10-15,1,,,,,アカツキ,0
852,4011001165100,新規,0,2024-10-15,2024-10-15,株式会社Ｌ’Ｈｉｓｔｏｉｒｅ,,株式会社,東京都,渋谷区,道玄坂１丁目１０番８号渋谷道玄坂東急ビル２Ｆ－Ｃ,,13,113,1500043,,,,,,,2024-10-15,1,,,,,リストワール,0
853,4011001165133,新規,0,2024-10-15,2024-10-15,株式会社Ｂｏｕｑｕｅｔ＆Ｃｏ,,株式会社,東京都,目黒区,八雲４丁目７－８ＡＲＴＺ八雲Ｂ１０２,,13,110,1520023,,,,,,,2024-10-15,1,,,,,ブーケアンドカンパニー,0
854,4011001165208,新規,0,2024-10-15,2024-10-15,株式会社ＮＯＭＡＲＯ,,株式会社,東京都,渋谷区,恵比寿１丁目１３番１号鈴木ビル３Ｆ,,13,113,1500013,,,,,,,2024-10-15,1,,,,,ノマロ,0
855,4011001165216,新規,0,2024-10-15,2024-10-15,蔡合源株式会社,,株式会社,東京都,渋谷区,松濤２丁目１４番１号５０８室松濤アパートメント,,13,113,1500046,,,,,,,2024-10-15,1,,,,,サイゴウゲン,0
856,4011001165249,新規,0,2024-10-15,2024-10-15,ＯＭＯＲＯ１株式会社,,株式会社,東京都,渋谷区,神宮前１丁目９番１１号レインボービル１階,,13,113,1500001,,,,,,,2024-10-15,1,,,,,オモロファースト,0
859,4011003020154,新規,0,2024-10-15,2024-10-15,合同会社ｂｉｚ　ｂｕｉｌｄ,,合同会社,東京都,渋谷区,神泉町１０番１５号アネックス神泉３０１,,13,113,1500045,,,,,,,2024-10-15,1,,,,,ビズビル,0
860,4011003020195,新規,0,2024-10-15,2024-10-15,合同会社Ｒｉｔｔ,,合同会社,東京都,目黒区,下目黒６丁目５番２１－４０４号,,13,110,1530064,,,,,,,2024-10-15,1,,,,,リット,0
868,4011201025863,新規,0,2024-10-15,2024-10-15,みんなのための株式会社,,株式会社,東京都,中野区,中央１丁目２９番１０号,,13,114,1640011,,,,,,,2024-10-15,1,,,,,ミンナノタメノ,0
871,4011403004525,新規,0,2024-10-15,2024-10-15,合同会社Ｋ・Ｉ,,合同会社,東京都,板橋区,中丸町５８番９号３Ｆ,,13,119,1730026,,,,,,,2024-10-15,1,,,,,ケイアイ,0
875,4011701027715,新規,0,2024-10-15,2024-10-15,株式会社パール,,株式会社,東京都,江戸川区,東小松川３丁目３５番１３号ニックハイム船堀１０２,,13,123,1320033,,,,,,,2024-10-15,1,,,,,パール,0
876,4011701027731,新規,0,2024-10-15,2024-10-15,株式会社古内工務店,,株式会社,東京都,江戸川区,篠崎町３丁目１５番７号,,13,123,1330061,,,,,,,2024-10-15,1,,,,,フルウチコウムテン,0
881,4011801044973,新規,0,2024-10-15,2024-10-15,Ｕ‐ＪＩＮ株式会社,,株式会社,東京都,葛飾区,東新小岩２丁目１３番７－５０３号,,13,122,1240023,,,,,,,2024-10-15,1,,,,,ウジン,0
887,4013105001858,新規,0,2024-10-15,2024-10-15,一般社団法人ＷＴＢＡＳＥ,,その他の設立登記法人,東京都,羽村市,神明台４丁目２番２,,13,227,2050023,,,,,,,2024-10-15,1,,,,,ワットベース,0
889,4013301053182,新規,0,2024-10-15,2024-10-15,株式会社ＥＴＳグループ,,株式会社,東京都,豊島区,南池袋１丁目１０番１３号,,13,116,1710022,,,,,,,2024-10-15,1,,,,,イーティーエスグループ,0
892,4013303007343,新規,0,2024-10-15,2024-10-15,合同会社福丸,,合同会社,東京都,豊島区,上池袋１丁目９番９－１１０２号,,13,116,1700012,,,,,,,2024-10-15,1,,,,,フクマル,0
919,4021001083482,新規,0,2024-10-15,2024-10-15,龍佳株式会社,,株式会社,神奈川県,厚木市,長谷１１１０番地６厚木ホワイトハウス２０２号室,,14,212,2430036,,,,,,,2024-10-15,1,,,,,リュウカ,0
920,4021001083490,新規,0,2024-10-15,2024-10-15,株式会社まちの電器,,株式会社,神奈川県,茅ヶ崎市,室田２丁目１５番１号,,14,207,2530018,,,,,,,2024-10-15,1,,,,,マチノデンキ,0
928,4030001162709,新規,0,2024-10-15,2024-10-15,非対面販売支援研究所株式会社,,株式会社,埼玉県,さいたま市大宮区,仲町２丁目７１番地ソシオ大宮４階,,11,103,3300845,,,,,,,2024-10-15,1,,,,,ヒタイメンハンバイシエンケンキュウショ,0
929,4030001162915,新規,0,2024-10-15,2024-10-15,株式会社ＷＴＳ,,株式会社,埼玉県,川越市,大字藤間８７３番地１４,,11,201,3501142,,,,,,,2024-10-15,1,,,,,ダブリューティーエス,0
930,4030001162923,新規,0,2024-10-15,2024-10-15,株式会社玄輝,,株式会社,埼玉県,川越市,大字小ケ谷７１６番地１１,,11,201,3501104,,,,,,,2024-10-15,1,,,,,ゲンキ,0
931,4030001162931,新規,0,2024-10-15,2024-10-15,株式会社Ａｉｒｅａ,,株式会社,埼玉県,三郷市,栄３丁目１７５番地１,,11,237,3410043,,,,,,,2024-10-15,1,,,,,エアリア,0
932,4030001162956,新規,0,2024-10-15,2024-10-15,リムーヴ株式会社,,株式会社,埼玉県,さいたま市大宮区,桜木町２丁目１９４,,11,103,3300854,,,,,,,2024-10-15,1,,,,,リムーヴ,0
933,4030001162964,新規,0,2024-10-15,2024-10-15,株式会社筑邦永誠,,株式会社,埼玉県,朝霞市,三原１丁目７－１０,,11,227,3510025,,,,,,,2024-10-15,1,,,,,チクホウエイセイ,0
939,4030003025285,新規,0,2024-10-15,2024-10-15,合同会社金子商事,,合同会社,埼玉県,加須市,鴻茎４１２番地,,11,210,3470111,,,,,,,2024-10-15,1,,,,,カネコショウジ,0
940,4030003025293,新規,0,2024-10-15,2024-10-15,Ｌａｐｉｓｋａ合同会社,,合同会社,埼玉県,戸田市,下戸田１丁目１７番１２号,,11,224,3350011,,,,,,,2024-10-15,1,,,,,ラピスカ,0
950,4040005022544,新規,0,2024-10-15,2024-10-15,一般社団法人木曜の夜に,,その他の設立登記法人,千葉県,柏市,若柴１７８番地４柏の葉キャンパス１４８街区１－Ｅ－１３０７,,12,217,2770871,,,,,,,2024-10-15,1,,,,,モクヨウノヨルニ,0
957,4060001037577,新規,0,2024-10-15,2024-10-15,株式会社ＫＴＳ,,株式会社,栃木県,さくら市,上阿久津５２８番地１,,09,214,3291316,,,,,,,2024-10-15,1,,,,,ケイティーエス,0
971,4120001269263,新規,0,2024-10-15,2024-10-15,楽嘉株式会社,,株式会社,大阪府,大阪市西成区,萩之茶屋２丁目５番４号１０２号室,,27,122,5570004,,,,,,,2024-10-15,1,,,,,ラクヨシ,0
972,4120001269271,新規,0,2024-10-15,2024-10-15,ＥＳＳＥＮＴＩＡＬ　ＧＯ株式会社,,株式会社,大阪府,大阪市生野区,生野西２丁目１番３３－３０８号,,27,116,5440024,,,,,,,2024-10-15,1,,,,,エッセンシャルゴー,0
973,4120001269313,新規,0,2024-10-15,2024-10-15,株式会社ｃｒｅａｒ,,株式会社,大阪府,大阪市天王寺区,上本町７丁目１番１６－３００５号,,27,109,5430001,,,,,,,2024-10-15,1,,,,,クレア,0
974,4120001269321,新規,0,2024-10-15,2024-10-15,株式会社Ｂｒｉｇｈｔｌｙ,,株式会社,大阪府,大阪市天王寺区,舟橋町１５番２８－１７０１号,,27,109,5430024,,,,,,,2024-10-15,1,,,,,ブライトリー,0
975,4120001269412,新規,0,2024-10-15,2024-10-15,株式会社スプリングライブ,,株式会社,大阪府,大阪市都島区,東野田町４丁目１６‐８,,27,102,5340024,,,,,,,2024-10-15,1,,,,,スプリングライブ,0
976,4120001269420,新規,0,2024-10-15,2024-10-15,ザッツイット株式会社,,株式会社,大阪府,大阪市北区,梅田１丁目２番２号大阪駅前第２ビル１２‐１２,,27,127,5300001,,,,,,,2024-10-15,1,,,,,ザッツイット,0
981,4120003027727,新規,0,2024-10-15,2024-10-15,ＭＣ合同会社,,合同会社,大阪府,大阪市港区,弁天４丁目９番２５号ＪＰアパートメント港ＩＩＩ２０１号室,00136635,27,107,5520007,,,,,,,2024-10-15,1,,,,,エムシー,0
982,4120003027735,新規,0,2024-10-15,2024-10-15,ＤＩＮＨ　ＧＩＡ合同会社,,合同会社,大阪府,大阪市西成区,千本北２丁目１６番３号２０２号室,,27,122,5570053,,,,,,,2024-10-15,1,,,,,ディンジャー,0
984,4120101070430,新規,0,2024-10-15,2024-10-15,株式会社ＺＩＧＵ,,株式会社,大阪府,堺市西区,草部１２３５番地１,,27,144,5938312,,,,,,,2024-10-15,1,,,,,ジグ,0
986,4120901049896,新規,0,2024-10-15,2024-10-15,あさひ株式会社,,株式会社,大阪府,豊能郡能勢町,大里１４６番地の５７,,27,322,5630352,,,,,,,2024-10-15,1,,,,,アサヒ,0
987,4120903005377,新規,0,2024-10-15,2024-10-15,衛昇天合同会社,,合同会社,大阪府,高槻市,富田町６丁目３０番８号,,27,207,5690814,,,,,,,2024-10-15,1,,,,,マモルショウテン,0
992,4140001136065,新規,0,2024-10-15,2024-10-15,和物産株式会社,,株式会社,兵庫県,尼崎市,潮江１丁目８番１－５０２号,,28,202,6610976,,,,,,,2024-10-15,1,,,,,ヤマトブッサン,0
993,4140001136073,新規,0,2024-10-15,2024-10-15,株式会社ＫＡＮＯＮ．ｖ,,株式会社,兵庫県,神戸市西区,桜が丘中町１丁目２番地の１１,,28,111,6512226,,,,,,,2024-10-15,1,,,,,カノン,0
997,4160003003311,新規,0,2024-10-15,2024-10-15,合同会社ほほえみ,,合同会社,滋賀県,長浜市,高月町高月１１１番地,,25,203,5290241,,,,,,,2024-10-15,1,,,,,ホホエミ,0
999,4170001018343,新規,0,2024-10-15,2024-10-15,株式会社ＥＬｒｅｂｏｒｎ,,株式会社,和歌山県,和歌山市,加納２５３番地１４,,30,201,6408391,,,,,,,2024-10-15,1,,,,,エルリボーン,0
1000,4170003002114,新規,0,2024-10-15,2024-10-15,Ｎｏｃｅ　Ｃｒｅａｔｉｖｅ合同会社,,合同会社,和歌山県,紀の川市,花野６１番地７,,30,208,6496422,,,,,,,2024-10-15,1,,,,,ノーチェクリエイティブ,0
1006,4180001163642,新規,0,2024-10-15,2024-10-15,鴻源株式会社,,株式会社,愛知県,常滑市,久米字南沢２９番地の６４,,23,216,4790002,,,,,,,2024-10-15,1,,,,,コウゲン,0
1007,4180001163675,新規,0,2024-10-15,2024-10-15,株式会社ＣＦＯソリューション,,株式会社,愛知県,名古屋市中村区,名駅４丁目２４番５号第２森ビル４０１,,23,105,4500002,,,,,,,2024-10-15,1,,,,,シーエフオーソリューション,0
1010,4180005020798,新規,0,2024-10-15,2024-10-15,労働中央社会保険労務士法人,,その他の設立登記法人,愛知県,名古屋市中村区,名駅３丁目４番１０号アルティメイト名駅１ｓｔ２階,,23,105,4500002,,,,,,,2024-10-15,1,,,,,ロウドウチュウオウ,0
1011,4180005020807,新規,0,2024-10-15,2024-10-15,オールジャパン協同組合,,その他の設立登記法人,愛知県,名古屋市南区,道徳通２丁目５１番地,,23,112,4570846,,,,,,,2024-10-15,1,,,,,オールジャパン,0
1013,4180301039138,新規,0,2024-10-15,2024-10-15,株式会社ＢＡＮＰＲＯ,,株式会社,愛知県,刈谷市,野田町新上納８１番地１ｍｉｃａｄｏＪＩＩ号,00136623,23,210,4480803,,,,,,,2024-10-15,1,,,,,バンプロ,0
1015,4190003004827,新規,0,2024-10-15,2024-10-15,合同会社ゼウス,,合同会社,三重県,四日市市,西富田町２４９番地ローレルスクエア四日市富田８１２号,,24,202,5108024,,,,,,,2024-10-15,1,,,,,ゼウス,0
1017,4200003006540,新規,0,2024-10-15,2024-10-15,東海インターナショナル合同会社,,合同会社,岐阜県,岐阜市,西野町六丁目北町１１番地カーサソフィアＩＩＩ２０５号室,00136632,21,201,5008887,,,,,,,2024-10-15,1,,,,,トウカイインターナショナル,0
1027,4270001009068,新規,0,2024-10-15,2024-10-15,株式会社ＲｅＳａｌｔｕｓ,,株式会社,鳥取県,米子市,和田町３１４２番地３,,31,202,6830102,,,,,,,2024-10-15,1,,,,,リサルタス,0
1035,4290001107588,新規,0,2024-10-15,2024-10-15,株式会社レイ・フォード,,株式会社,福岡県,古賀市,小竹２７６－４,,40,223,8113135,,,,,,,2024-10-15,1,,,,,レイフォード,0
1042,4310001019236,新規,0,2024-10-15,2024-10-15,竜美丹株式会社,,株式会社,長崎県,西彼杵郡長与町,吉無田郷１２２１番地２７１,,42,307,8512126,,,,,,,2024-10-15,1,,,,,リュミニ,0
1043,4310001019260,新規,0,2024-10-15,2024-10-15,株式会社Ｍｅｔａ　Ｎａｇａｓａｋｉ,,株式会社,長崎県,西彼杵郡長与町,岡郷６１４番地１２,,42,307,8512121,,,,,,,2024-10-15,1,,,,,メタナガサキ,0
1046,4320001020762,新規,0,2024-10-15,2024-10-15,株式会社ＡＧＯＲＡ,,株式会社,大分県,中津市,大字万田１０１番地１,,44,203,8710025,,,,,,,2024-10-15,1,,,,,アゴラ,0
1055,4360005007117,新規,0,2024-10-15,2024-10-15,医療法人修和会,,その他の設立登記法人,沖縄県,中頭郡西原町,字小那覇２６６番１メディカルプラザにしはらハート２Ｆ,,47,329,9030103,,,,,,,2024-10-15,1,,,,,シュウワカイ,0
1063,4400003003336,新規,0,2024-10-15,2024-10-15,ＫＡＳＡＰＲＯ合同会社,,合同会社,岩手県,盛岡市,東黒石野３丁目４番３１号,,03,201,0200108,,,,,,,2024-10-15,1,,,,,,0
1067,4430001092857,新規,0,2024-10-15,2024-10-15,株式会社Ｗｈｉｓｋｙ　Ｓｔｕｄｅｎｔ,,株式会社,北海道,札幌市北区,新琴似十条５丁目３番１１号,,01,102,0010910,,,,,,,2024-10-15,1,,,,,ウイスキースチューデント,0
1068,4430003016888,新規,0,2024-10-15,2024-10-15,合同会社イコロ動物病院,,合同会社,北海道,千歳市,稲穂４丁目６番９号,,01,224,0660029,,,,,,,2024-10-15,1,,,,,イコロドウブツビョウイン,0
1071,4460301005251,新規,0,2024-10-15,2024-10-15,福達国際貿易株式会社,,株式会社,北海道,北見市,美芳町１０丁目４番１５号２Ｆ２０５号室,,01,208,0900064,,,,,,,2024-10-15,1,,,,,フクタツコクサイボウエキ,0
1092,5010001248962,新規,0,2024-10-15,2024-10-15,Ｍａｉｎｔａｉｎ　Ｂｒａｉｎ株式会社,,株式会社,東京都,文京区,湯島１丁目５－４５－８号館ＴＩＰラボ,,13,105,1130034,,,,,,,2024-10-15,1,,,,,メインテインブレイン,0
1093,5010001249003,新規,0,2024-10-15,2024-10-15,天麟商事株式会社,,株式会社,東京都,文京区,白山１丁目６－４文京ＶＥＮＴＵＲＥＢＡＳＥ２階２２８号室,,13,105,1130001,,,,,,,2024-10-15,1,,,,,テンリンショウジ,0
1094,5010001249110,新規,0,2024-10-15,2024-10-15,株式会社Ｉｎｆｉｎｉ,,株式会社,東京都,中央区,日本橋人形町２丁目２－３堀口ビル３Ｆ,,13,102,1030013,,,,,,,2024-10-15,1,,,,,アンフィニ,0
1096,5010003045177,新規,0,2024-10-15,2024-10-15,Ｂｌｕｅ　Ｐｏｎｄ合同会社,,合同会社,東京都,中央区,日本橋３丁目９番１号日本橋三丁目スクエア１１階,,13,102,1030027,,,,,,,2024-10-15,1,,,,,ブルーポンド,0
1107,5010401185640,新規,0,2024-10-15,2024-10-15,ヌサンタラポータル株式会社,,株式会社,東京都,港区,元麻布３丁目１－３４,,13,103,1060046,,,,,,,2024-10-15,1,,,,,ヌサンタラポータル,0
1108,5010403033566,新規,0,2024-10-15,2024-10-15,合同会社ＤＳＬ,,合同会社,東京都,港区,南青山３丁目１番３６号青山丸竹ビル６Ｆ,,13,103,1070062,,,,,,,2024-10-15,1,,,,,ディーエスエル,0
1110,5010405023680,新規,0,2024-10-15,2024-10-15,一般社団法人アセット投資事業１２号,,その他の設立登記法人,東京都,港区,西新橋１丁目２番９号メンターキャピタル税理士法人内,,13,103,1050003,,,,,,,2024-10-15,1,,,,,アセットトウシジギョウジュウニゴウ,0
1114,5010701046682,新規,0,2024-10-15,2024-10-15,株式会社Ｇｅｎ　Ｒ．,,株式会社,東京都,品川区,西五反田７丁目１３番５号ＤＫ五反田ビル８階,,13,109,1410031,,,,,,,2024-10-15,1,,,,,ジェンアール,0
1115,5010703007385,新規,0,2024-10-15,2024-10-15,Ｔｒａｉｎ　ＵＰ合同会社,,合同会社,東京都,品川区,上大崎３丁目１－１５－１０１,,13,109,1410021,,,,,,,2024-10-15,1,,,,,トレインアップ,0
1121,5010901056110,新規,0,2024-10-15,2024-10-15,株式会社Ｔ‐ｏｎｅ,,株式会社,東京都,世田谷区,深沢２丁目１番９－１０２号,,13,112,1580081,,,,,,,2024-10-15,1,,,,,ティーワン,0
1127,5011001165058,新規,0,2024-10-15,2024-10-15,フチコマ株式会社,,株式会社,東京都,渋谷区,円山町５番５号Ｎａｖｉ渋谷Ｖ３階,,13,113,1500044,,,,,,,2024-10-15,1,,,,,フチコマ,0
1128,5011001165090,新規,0,2024-10-15,2024-10-15,Ａｃｔａｎｄ株式会社,,株式会社,東京都,渋谷区,道玄坂１丁目１０番８号渋谷道玄坂東急ビル２Ｆ－Ｃ,,13,113,1500043,,,,,,,2024-10-15,1,,,,,アクタンド,0
1129,5011001165140,新規,0,2024-10-15,2024-10-15,インタークイップジャパン株式会社,,株式会社,東京都,渋谷区,神宮前４丁目１３番１０号リヒトハウスオモサンＢ１Ｆ,,13,113,1500001,,,,,,,2024-10-15,1,,,,,インタークイップジャパン,0
1130,5011001165198,新規,0,2024-10-15,2024-10-15,五百羅漢電影株式会社,,株式会社,東京都,渋谷区,神宮前６丁目３５番３号コープオリンピア２階（２０７）,,13,113,1500001,,,,,,,2024-10-15,1,,,,,ゴヒャクラカンデンエイ,0
1131,5011001165207,新規,0,2024-10-15,2024-10-15,株式会社ＢＩＧ２,,株式会社,東京都,目黒区,大橋１丁目１番５－４０３号ダイアパレス池尻大橋,,13,110,1530044,,,,,,,2024-10-15,1,,,,,ビッグツー,0
1132,5011001165215,新規,0,2024-10-15,2024-10-15,株式会社ハンメイ,,株式会社,東京都,目黒区,上目黒２丁目４０番２５号,,13,110,1530051,,,,,,,2024-10-15,1,,,,,ハンメイ,0
1133,5011003020178,新規,0,2024-10-15,2024-10-15,ズンズン合同会社,,合同会社,東京都,渋谷区,元代々木町３９－５－１Ｆ,,13,113,1510062,,,,,,,2024-10-15,1,,,,,ズンズン,0
1134,5011003020186,新規,0,2024-10-15,2024-10-15,合同会社七〇,,合同会社,東京都,渋谷区,恵比寿西２丁目８番４号ＥＸ恵比寿西ビル５階,,13,113,1500021,,,,,,,2024-10-15,1,,,,,ナナオ,0
1141,5011301030069,新規,0,2024-10-15,2024-10-15,株式会社ｎｅｗｂｏｒｎ,,株式会社,東京都,杉並区,高井戸西２丁目１５番７号,,13,115,1680071,,,,,,,2024-10-15,1,,,,,ニューボーン,0
1147,5011503006263,新規,0,2024-10-15,2024-10-15,Ｂｌｕｅ　Ｂｒｉｄｇｅ合同会社,,合同会社,東京都,北区,滝野川６丁目２１番７パークアクシス滝野川ラ・ブリーズ１１１９号,,13,117,1140023,,,,,,,2024-10-15,1,,,,,ブルーブリッジ,0
1161,5012801023504,新規,0,2024-10-15,2024-10-15,株式会社Ｉ‐ｓｅｌ,,株式会社,東京都,国立市,東１丁目３番地の５,,13,215,1860002,,,,,,,2024-10-15,1,,,,,アイセル,0
1169,5013301053207,新規,0,2024-10-15,2024-10-15,株式会社ユタカプロダクション,,株式会社,東京都,豊島区,東池袋１丁目３０番１４‐４０５号,,13,116,1700013,,,,,,,2024-10-15,1,,,,,ユタカプロダクション,0
1170,5013303007342,新規,0,2024-10-15,2024-10-15,合同会社未来,,合同会社,東京都,豊島区,南池袋１丁目９番１８号,,13,116,1710022,,,,,,,2024-10-15,1,,,,,ミライ,0
1180,5020001159531,新規,0,2024-10-15,2024-10-15,株式会社ＬＵＤＩ,,株式会社,神奈川県,横浜市港南区,上大岡西１丁目６番１号ウィング上大岡１Ｆ・ミスターミニットウィング上大岡店,,14,111,2330002,,,,,,,2024-10-15,1,,,,,ルディ,0
1181,5020001159548,新規,0,2024-10-15,2024-10-15,株式会社玖不動産,,株式会社,神奈川県,横浜市保土ケ谷区,月見台８番５７号,,14,106,2400012,,,,,,,2024-10-15,1,,,,,キュウ,0
1182,5020001159564,新規,0,2024-10-15,2024-10-15,株式会社クルーズ・コンタクト・ジャパン,,株式会社,神奈川県,横浜市青葉区,美しが丘４丁目４番地５６,,14,117,2250002,,,,,,,2024-10-15,1,,,,,クルーズコンタクトジャパンジャパン,0
1189,5021001083465,新規,0,2024-10-15,2024-10-15,株式会社ＹＩＫ,,株式会社,神奈川県,座間市,ひばりが丘１丁目２０番２４号,,14,216,2520003,,,,,,,2024-10-15,1,,,,,ワイアイケー,0
1204,5030001162807,新規,0,2024-10-15,2024-10-15,株式会社ｎ角形,,株式会社,埼玉県,本庄市,銀座２丁目２番１号,,11,211,3670052,,,,,,,2024-10-15,1,,,,,エヌカクケイ,0
1205,5030001162880,新規,0,2024-10-15,2024-10-15,白猟株式会社,,株式会社,埼玉県,草加市,柳島町７６２番地１サンハイツ２０２号,,11,221,3400033,,,,,,,2024-10-15,1,,,,,ハクリョウ,0
1206,5030001162922,新規,0,2024-10-15,2024-10-15,株式会社リリープランニング,,株式会社,埼玉県,さいたま市桜区,大字下大久保１０７番地第２スカイコーポ１０７,,11,106,3380825,,,,,,,2024-10-15,1,,,,,リリープランニング,0
1230,5080401027506,新規,0,2024-10-15,2024-10-15,株式会社スターパレス,,株式会社,静岡県,湖西市,鷲津１４０５番地,,22,221,4310431,,,,,,,2024-10-15,1,,,,,スターパレス,0
1236,5120001269262,新規,0,2024-10-15,2024-10-15,株式会社宏立,,株式会社,大阪府,大阪市生野区,巽北１丁目１番１号３Ｆ－Ａ,00136633,27,116,5440004,,,,,,,2024-10-15,1,,,,,コウリツ,0
1237,5120001269270,新規,0,2024-10-15,2024-10-15,旭日東昇株式会社,,株式会社,大阪府,大阪市生野区,生野西２丁目１番３３－２０３号,,27,116,5440024,,,,,,,2024-10-15,1,,,,,アサヒトウショウ,0
1238,5120001269304,新規,0,2024-10-15,2024-10-15,ＨＹＳ株式会社,,株式会社,大阪府,大阪市東淀川区,下新庄１丁目７－１３プレアール下新庄ＩＩ４０５号室,00136634,27,114,5330021,,,,,,,2024-10-15,1,,,,,エイチワイエス,0
1239,5120001269320,新規,0,2024-10-15,2024-10-15,ＬＨＴ株式会社,,株式会社,大阪府,大阪市浪速区,敷津西１丁目１２－２１,,27,111,5560015,,,,,,,2024-10-15,1,,,,,エルエイチティ,0
1240,5120001269329,新規,0,2024-10-15,2024-10-15,Ｔｈｏｍａｓ株式会社,,株式会社,大阪府,守口市,竜田通１丁目３番３号,,27,209,5700025,,,,,,,2024-10-15,1,,,,,トーマス,0
1241,5120001269337,新規,0,2024-10-15,2024-10-15,エコノハビプロ株式会社,,株式会社,大阪府,大阪市西区,新町１丁目６番２３号,,27,106,5500013,,,,,,,2024-10-15,1,,,,,エコノハビプロ,0
1242,5120001269485,新規,0,2024-10-15,2024-10-15,株式会社Ｔｓｕｎａｇｉ,,株式会社,大阪府,大阪市中央区,南本町２丁目３番１２号ＥＤＧＥ本町３Ｆ,,27,128,5410054,,,,,,,2024-10-15,1,,,,,ツナギ,0
1249,5120003027767,新規,0,2024-10-15,2024-10-15,合同会社あまのと,,合同会社,大阪府,大阪市東成区,大今里南６丁目２４‐４,,27,115,5370013,,,,,,,2024-10-15,1,,,,,アマノト,0
1258,5140001136064,新規,0,2024-10-15,2024-10-15,株式会社ｉｋｋｉ,,株式会社,兵庫県,芦屋市,川西町４番２２－３０２号,,28,206,6590072,,,,,,,2024-10-15,1,,,,,イッキ,0
1259,5140001136072,新規,0,2024-10-15,2024-10-15,株式会社水乃生,,株式会社,兵庫県,豊岡市,上陰２１１番地の５,,28,209,6680011,,,,,,,2024-10-15,1,,,,,ミズノオ,0
1277,5180001163484,新規,0,2024-10-15,2024-10-15,ＬＩＱＵＩＤ　ＦＡＭＩＬＹ株式会社,,株式会社,愛知県,名古屋市中区,錦３丁目１３番１号デリシアムマドーロビルＢ１Ｆ,,23,106,4600003,,,,,,,2024-10-15,1,,,,,リキッドファミリー,0
1278,5180001163501,新規,0,2024-10-15,2024-10-15,Ｆ．Ｌ．Ｆ株式会社,,株式会社,愛知県,名古屋市港区,秋葉２丁目３７番地の３,,23,111,4550857,,,,,,,2024-10-15,1,,,,,エフエルエフ,0
1279,5180001163559,新規,0,2024-10-15,2024-10-15,株式会社阿知和建装,,株式会社,愛知県,東海市,名和町一番畑１８番地の２,,23,222,4760002,,,,,,,2024-10-15,1,,,,,アチワケンソウ,0
1280,5180001163674,新規,0,2024-10-15,2024-10-15,株式会社Ｓｏｌｕｔｉｖｅ,,株式会社,愛知県,春日井市,東山町１丁目１２―３０,,23,206,4860811,,,,,,,2024-10-15,1,,,,,ソリューティブ,0
1282,5180003027448,新規,0,2024-10-15,2024-10-15,合同会社リバティー,,合同会社,愛知県,名古屋市中区,上前津２丁目２番４号（パークコート上前津プレミアプラス１２０４号）,,23,106,4600013,,,,,,,2024-10-15,1,,,,,リバティー,0
1283,5180003027456,新規,0,2024-10-15,2024-10-15,合同会社ＫＣＣ,,合同会社,愛知県,名古屋市中川区,前田西町２丁目２０１,,23,110,4540941,,,,,,,2024-10-15,1,,,,,ケーシーシー,0
1286,5180301039137,新規,0,2024-10-15,2024-10-15,株式会社長坂建設,,株式会社,愛知県,豊橋市,天伯町字西天伯１４７番地３,,23,201,4418122,,,,,,,2024-10-15,1,,,,,ナガサカケンセツ,0
1287,5190001031715,新規,0,2024-10-15,2024-10-15,株式会社ＥＦ１,,株式会社,三重県,四日市市,中部７番６号サンプラザビル４０３号室,,24,202,5100082,,,,,,,2024-10-15,1,,,,,エフワン,0
1295,5220001026257,新規,0,2024-10-15,2024-10-15,株式会社Ｏｆｆｉｃｅ　Ｊａｐａｎ　ＨＡＳＨＩＭＯＲＩ,,株式会社,石川県,金沢市,浅野本町ニ１２４‐１,,17,201,9200841,,,,,,,2024-10-15,1,,,,,オフィスジャパンハシモリ,0
1297,5230001020564,新規,0,2024-10-15,2024-10-15,株式会社Ｋａｈａｎａ,,株式会社,富山県,富山市,星井町３丁目３番１２号,,16,201,9300065,,,,,,,2024-10-15,1,,,,,カハナ,0
1301,5240003006899,新規,0,2024-10-15,2024-10-15,合同会社Ｈｅａｌｔｈ　Ｂ,,合同会社,広島県,広島市東区,戸坂南２丁目４番３号,,34,102,7320013,,,,,,,2024-10-15,1,,,,,ヘルスビー,0
1306,5260001039544,新規,0,2024-10-15,2024-10-15,株式会社スリースマイルズ,,株式会社,岡山県,岡山市北区,津島東１丁目３番８号,,33,101,7000081,,,,,,,2024-10-15,1,,,,,スリースマイルズ,0
1318,5290001107397,新規,0,2024-10-15,2024-10-15,株式会社ＣＵＢＥ,,株式会社,福岡県,糟屋郡志免町,別府東２丁目２番２６号,,40,343,8112231,,,,,,,2024-10-15,1,,,,,キューブ,0
1319,5290001107570,新規,0,2024-10-15,2024-10-15,株式会社ファルソラテラル,,株式会社,福岡県,福岡市中央区,天神２丁目２番１２号,,40,133,8100001,,,,,,,2024-10-15,1,,,,,ファルソラテラル,0
1320,5290001107595,新規,0,2024-10-15,2024-10-15,株式会社ＡＩＫＡＳＵ,,株式会社,福岡県,福岡市南区,高宮３丁目７－３アクアマリン高宮３０２,,40,134,8150083,,,,,,,2024-10-15,1,,,,,アイカス,0
1321,5290001107604,新規,0,2024-10-15,2024-10-15,株式会社豊梅,,株式会社,福岡県,福岡市中央区,薬院１丁目１４番１３号１階,,40,133,8100022,,,,,,,2024-10-15,1,,,,,ホウバイ,0
1328,5290005019515,新規,0,2024-10-15,2024-10-15,特定非営利活動法人Ｓｏｌａｒｅ　ａｔｈｌｅｔｅ　ｃｌｕｂ,,その他の設立登記法人,福岡県,筑紫野市,筑紫駅前通１丁目７８番地（１００１号）,,40,217,8180022,,,,,,,2024-10-15,1,,,,,ソラーレアスリートクラブ,0
1329,5290801030955,新規,0,2024-10-15,2024-10-15,株式会社ＢＩＧ　ＷＡＶＥ,,株式会社,福岡県,北九州市小倉北区,片野新町２丁目８番２１号,,40,106,8020062,,,,,,,2024-10-15,1,,,,,ビッグウェーブ,0
1331,5320005010189,新規,0,2024-10-15,2024-10-15,一般社団法人きのみ,,その他の設立登記法人,大分県,中津市,大字大塚３９７番地１,,44,203,8710008,,,,,,,2024-10-15,1,,,,,キノミ,0
1336,5350001019231,新規,0,2024-10-15,2024-10-15,株式会社ＳＭＣ,,株式会社,宮崎県,宮崎市,田代町１１１番地,,45,201,8800855,,,,,,,2024-10-15,1,,,,,,0
1339,5360001034304,新規,0,2024-10-15,2024-10-15,登越株式会社,,株式会社,沖縄県,島尻郡与那原町,字与那原６８番地の１７,,47,348,9011303,,,,,,,2024-10-15,1,,,,,トゴシ,0
1342,5360003014386,新規,0,2024-10-15,2024-10-15,合同会社スカイウィッシュ,,合同会社,沖縄県,島尻郡与那原町,字与那原２８２２番地,,47,348,9011303,,,,,,,2024-10-15,1,,,,,スカイウィッシュ,0
1343,5360003014394,新規,0,2024-10-15,2024-10-15,合同会社かなでるえいと,,合同会社,沖縄県,名護市,宮里１丁目２８－８南西ビル２Ｆ,,47,209,9050011,,,,,,,2024-10-15,1,,,,,カナデルエイト,0
1346,5370001051819,新規,0,2024-10-15,2024-10-15,株式会社Ｒ　Ｂｅｓｔ,,株式会社,宮城県,柴田郡大河原町,大谷字原前９８番地８１,,04,321,9891201,,,,,,,2024-10-15,1,,,,,アールベスト,0
1367,5450001014429,新規,0,2024-10-15,2024-10-15,株式会社ｎａｇｏｍ　ｇａｒｄｅｎ,,株式会社,北海道,深川市,三条９番３３号,,01,228,0740003,,,,,,,2024-10-15,1,,,,,ナゴムガーデン,0
1373,5480003002189,新規,0,2024-10-15,2024-10-15,合同会社やべケア,,合同会社,徳島県,徳島市,大谷町猿楽３番地の２４,,36,201,7708031,,,,,,,2024-10-15,1,,,,,ヤベケア,0
1383,6010001248846,新規,0,2024-10-15,2024-10-15,株式会社エノホイ,,株式会社,東京都,中央区,勝どき４丁目６番１号,,13,102,1040054,,,,,,,2024-10-15,1,,,,,エノホイ,0
1384,6010001249019,新規,0,2024-10-15,2024-10-15,ＧＩＰＰ株式会社,,株式会社,東京都,文京区,千石４丁目１４番９号,,13,105,1120011,,,,,,,2024-10-15,1,,,,,ジーアイピーピー,0
1388,6010005038954,新規,0,2024-10-15,2024-10-15,一般社団法人ＡＡＪ　Ｆ,,その他の設立登記法人,東京都,千代田区,霞が関３丁目２番５号,,13,101,1000013,,,,,,,2024-10-15,1,,,,,エーエージェイエフ,0
1389,6010005038962,新規,0,2024-10-15,2024-10-15,一般社団法人サファイア,,その他の設立登記法人,東京都,千代田区,二番町３番地麹町スクエア株式会社シリウス・アドバイザリー内,,13,101,1020084,,,,,,,2024-10-15,1,,,,,サファイア,0
1391,6010101016368,新規,0,2024-10-15,2024-10-15,Ｔ．Ｋブロスコンサルティング株式会社,,株式会社,東京都,八王子市,本町１６番１号フクダビル３階,,13,201,1920066,,,,,,,2024-10-15,1,,,,,ティーケーブロスコンサルティング,0
1392,6010103002432,新規,0,2024-10-15,2024-10-15,合同会社Ｄｒａｗ．,,合同会社,東京都,八王子市,台町２丁目２５番２２－２０８号,,13,201,1930931,,,,,,,2024-10-15,1,,,,,ドロウ,0
1397,6010401185615,新規,0,2024-10-15,2024-10-15,株式会社ＣＫＥ,,株式会社,東京都,港区,白金台５丁目１５番５号トゥワインデール２階,,13,103,1080071,,,,,,,2024-10-15,1,,,,,シーケーイー,0
1398,6010401185631,新規,0,2024-10-15,2024-10-15,ＳＡＮＯ　ＷＯＲＬＤ株式会社,,株式会社,東京都,港区,南青山４丁目１５－４パークヒルズ南青山４０１,,13,103,1070062,,,,,,,2024-10-15,1,,,,,サノワールド,0
1399,6010401185714,新規,0,2024-10-15,2024-10-15,株式会社ＧＸＤＸリンク,,株式会社,東京都,港区,西新橋１丁目２番９号,,13,103,1050003,,,,,,,2024-10-15,1,,,,,ジーエックスディーエックスリンク,0
1401,6010405023606,新規,0,2024-10-15,2024-10-15,一般社団法人サードプレイスＰＬＵＳ,,その他の設立登記法人,東京都,港区,東新橋２丁目１０番１０号,,13,103,1050021,,,,,,,2024-10-15,1,,,,,サードプレイスプラス,0
1402,6010405023655,新規,0,2024-10-15,2024-10-15,一般社団法人日本喜劇人協会,,その他の設立登記法人,東京都,港区,赤坂２丁目１０番１４号ミカワヤビル４Ｆ,,13,103,1070052,,,,,,,2024-10-15,1,,,,,,0
1403,6010501053036,新規,0,2024-10-15,2024-10-15,株式会社デルクイ,,株式会社,東京都,台東区,浅草橋５丁目６番１２号マルエイビル２Ｆ,,13,106,1110053,,,,,,,2024-10-15,1,,,,,デルクイ,0
1415,6010903009354,新規,0,2024-10-15,2024-10-15,キッズリターンズ合同会社,,合同会社,東京都,世田谷区,南烏山５丁目２４－１８－１０１,,13,112,1570062,,,,,,,2024-10-15,1,,,,,キッズリターンズ,0
1422,6011001165115,新規,0,2024-10-15,2024-10-15,株式会社ミッドサイン,,株式会社,東京都,渋谷区,道玄坂１丁目１０番８号渋谷道玄坂東急ビル２Ｆ－Ｃ,,13,113,1500043,,,,,,,2024-10-15,1,,,,,ミッドサイン,0
1423,6011001165156,新規,0,2024-10-15,2024-10-15,日本環智テクノロジー株式会社,,株式会社,東京都,目黒区,中目黒３丁目５番５号ＮＦビル４階,,13,110,1530061,,,,,,,2024-10-15,1,,,,,ニッポンカンチ,0
1424,6011001165206,新規,0,2024-10-15,2024-10-15,株式会社ｍａｒｃａ,,株式会社,東京都,渋谷区,代々木５丁目２１番９号グランジュ・代々木２０３,,13,113,1510053,,,,,,,2024-10-15,1,,,,,マルカ,0
1425,6011001165214,新規,0,2024-10-15,2024-10-15,株式会社ＭＳＴ,,株式会社,東京都,渋谷区,恵比寿西２丁目４番８号ウィンド恵比寿ビル８Ｆ,,13,113,1500021,,,,,,,2024-10-15,1,,,,,エムエスティ,0
1426,6011003020160,新規,0,2024-10-15,2024-10-15,合同会社ＴＩＣ,,合同会社,東京都,渋谷区,富ヶ谷１丁目２４番１１号,,13,113,1510063,,,,,,,2024-10-15,1,,,,,ティーアイシー,0
1427,6011003020185,新規,0,2024-10-15,2024-10-15,Ｓｙｎｔｚ合同会社,,合同会社,東京都,渋谷区,円山町５番５号Ｎａｖｉ渋谷Ｖ３階,,13,113,1500044,,,,,,,2024-10-15,1,,,,,シンツ,0
1433,6011301030068,新規,0,2024-10-15,2024-10-15,株式会社ボクラブロック,,株式会社,東京都,杉並区,西荻北５丁目１１番７号,,13,115,1670042,,,,,,,2024-10-15,1,,,,,ボクラブロック,0
1434,6011303005316,新規,0,2024-10-15,2024-10-15,ｒ空間設計合同会社,,合同会社,東京都,杉並区,高円寺北３丁目２－１９,,13,115,1660002,,,,,,,2024-10-15,1,,,,,アールクウカンセッケイ,0
1436,6011501031254,新規,0,2024-10-15,2024-10-15,株式会社はれのひ,,株式会社,東京都,北区,上十条３丁目２２番８号,,13,117,1140034,,,,,,,2024-10-15,1,,,,,ハレノヒ,0
1440,6011701027713,新規,0,2024-10-15,2024-10-15,株式会社沖山設備,,株式会社,東京都,江戸川区,南葛西７丁目１－６,,13,123,1340085,,,,,,,2024-10-15,1,,,,,オキヤマセツビ,0
1448,6012403006798,新規,0,2024-10-15,2024-10-15,合同会社アズール,,合同会社,東京都,小金井市,本町４丁目１９番２号小金井ＳＵコート２０６,,13,210,1840004,,,,,,,2024-10-15,1,,,,,アズール,0
1449,6012703003099,新規,0,2024-10-15,2024-10-15,合同会社ｅｃｈｏ,,合同会社,東京都,西東京市,下保谷２丁目５番１５号,,13,229,2020004,,,,,,,2024-10-15,1,,,,,エコー,0
1468,6021001083456,新規,0,2024-10-15,2024-10-15,株式会社アールテック,,株式会社,神奈川県,藤沢市,本町３丁目１０番１１号,,14,205,2510053,,,,,,,2024-10-15,1,,,,,アールテック,0
1469,6021001083464,新規,0,2024-10-15,2024-10-15,関東オイルテック株式会社,,株式会社,神奈川県,大和市,中央林間西４丁目２６番５号,,14,213,2420008,,,,,,,2024-10-15,1,,,,,カントウオイルテック,0
1470,6021001083472,新規,0,2024-10-15,2024-10-15,株式会社ＪＵＳＤＩＴ,,株式会社,神奈川県,茅ヶ崎市,菱沼１丁目１０番２０号,,14,207,2530011,,,,,,,2024-10-15,1,,,,,ジャスデイット,0
1471,6021003015102,新規,0,2024-10-15,2024-10-15,合同会社エシカルスタジオ湘南,,合同会社,神奈川県,平塚市,黒部丘７番１２－１号,,14,203,2540821,,,,,,,2024-10-15,1,,,,,エシカルスタジオショウナン,0
1480,6030001162921,新規,0,2024-10-15,2024-10-15,エムダ株式会社,,株式会社,埼玉県,北葛飾郡松伏町,ゆめみ野１丁目１７番１５号,,11,465,3430113,,,,,,,2024-10-15,1,,,,,エムダ,0
1481,6030001162946,新規,0,2024-10-15,2024-10-15,株式会社ＷＩＮＷＡＹ,,株式会社,埼玉県,川越市,新宿町５丁目８番地１５,,11,201,3501124,,,,,,,2024-10-15,1,,,,,ウィンウェイ,0
1482,6030001162962,新規,0,2024-10-15,2024-10-15,株式会社Ａｎｄｅｒｓｏｎ　Ｐａｐｅｒ,,株式会社,埼玉県,熊谷市,筑波２丁目５６番３号,,11,202,3600037,,,,,,,2024-10-15,1,,,,,アンダーソンペーパー,0
1484,6030003025242,新規,0,2024-10-15,2024-10-15,ルーナ合同会社,,合同会社,埼玉県,春日部市,西金野井１６８１番地２ボヌールＣ１０２,,11,214,3440112,,,,,,,2024-10-15,1,,,,,ルーナ,0
1485,6030003025317,新規,0,2024-10-15,2024-10-15,ユースタシア合同会社,,合同会社,埼玉県,所沢市,大字山口５０４４番地の１－３９－３－３０３,,11,208,3591145,,,,,,,2024-10-15,1,,,,,ユースタシア,0
1497,6050001055504,新規,0,2024-10-15,2024-10-15,株式会社ヒロフーズ,,株式会社,茨城県,土浦市,沢辺字下原５７番地２９,,08,203,3004104,,,,,,,2024-10-15,1,,,,,ヒロフーズ,0
1498,6050001055537,新規,0,2024-10-15,2024-10-15,株式会社ＡＴＩＯ,,株式会社,茨城県,日立市,西成沢町３丁目１２番１３号,,08,202,3160032,,,,,,,2024-10-15,1,,,,,アティオ,0
1501,6050003008716,新規,0,2024-10-15,2024-10-15,合同会社ｄｉｉｎｏ,,合同会社,茨城県,水戸市,見川町２１３１－１９８２ルミナスコート１０３,,08,201,3100913,,,,,,,2024-10-15,1,,,,,ディーノ,0
1502,6050003008724,新規,0,2024-10-15,2024-10-15,イナ・ラボ合同会社,,合同会社,茨城県,稲敷市,伊佐部１０３２番地１,,08,229,3000603,,,,,,,2024-10-15,1,,,,,イナラボ,0
1514,6080401027505,新規,0,2024-10-15,2024-10-15,株式会社小川,,株式会社,静岡県,浜松市中央区,砂山町３４３番地の１カーサブリランテ１０３,,22,138,4300926,,,,,,,2024-10-15,1,,,,,オガワ,0
1516,6080403005120,新規,0,2024-10-15,2024-10-15,合同会社ＲＥＢＥＬ,,合同会社,静岡県,磐田市,鎌田２０４８,,22,211,4380038,,,,,,,2024-10-15,1,,,,,レヴェル,0
1524,6120001269261,新規,0,2024-10-15,2024-10-15,栄豊株式会社,,株式会社,大阪府,大阪市生野区,巽北１丁目１番１号１Ｆ－Ｈ,00136631,27,116,5440004,,,,,,,2024-10-15,1,,,,,エイトヨ,0
1525,6120001269286,新規,0,2024-10-15,2024-10-15,梧桐旅行株式会社,,株式会社,大阪府,大阪市都島区,都島北通１丁目２２番３－４０２号室,,27,102,5340014,,,,,,,2024-10-15,1,,,,,ゴキリリョコウ,0
1526,6120001269311,新規,0,2024-10-15,2024-10-15,慕恩株式会社,,株式会社,大阪府,大阪市住之江区,南港中４丁目７番２２－６０５号,,27,125,5590033,,,,,,,2024-10-15,1,,,,,ムーエン,0
1527,6120001269328,新規,0,2024-10-15,2024-10-15,遠洋大起株式会社,,株式会社,大阪府,大阪市中央区,島之内１丁目２番１８号ビラアツミ２０３,,27,128,5420082,,,,,,,2024-10-15,1,,,,,エンヨウダイキ,0
1528,6120001269336,新規,0,2024-10-15,2024-10-15,株式会社ＲＡＢＥＩ,,株式会社,大阪府,大阪市浪速区,桜川４丁目５番１４号グランパシフィック桜川ＷＥＳＴ３０２号,,27,111,5560022,,,,,,,2024-10-15,1,,,,,ラベイ,0
1533,6120003027733,新規,0,2024-10-15,2024-10-15,合同会社ＫＩＴ,,合同会社,大阪府,大阪市天王寺区,味原町６番２６号フォレストビレッジ真田山６０１号,,27,109,5430023,,,,,,,2024-10-15,1,,,,,キット,0
1534,6120003027741,新規,0,2024-10-15,2024-10-15,大賀不動産管理合同会社,,合同会社,大阪府,大阪市中央区,北浜２丁目１番１７号,,27,128,5410041,,,,,,,2024-10-15,1,,,,,オオガフドウサンカンリ,0
1536,6120101070429,新規,0,2024-10-15,2024-10-15,株式会社リーウェイ,,株式会社,大阪府,堺市堺区,北瓦町２丁３番８号,,27,141,5900076,,,,,,,2024-10-15,1,,,,,リーウェイ,0
1541,6120103006091,新規,0,2024-10-15,2024-10-15,合同会社Ｋｎｉｔ,,合同会社,大阪府,堺市西区,下田町２３－１０－１００１,,27,144,5938329,,,,,,,2024-10-15,1,,,,,ニット,0
1551,6130001078067,新規,0,2024-10-15,2024-10-15,ＳｕｐｅｒＧｏ株式会社,,株式会社,京都府,京都市北区,小山下花ノ木町４９－４,,26,101,6038123,,,,,,,2024-10-15,1,,,,,スーパーゴー,0
1557,6140001136014,新規,0,2024-10-15,2024-10-15,株式会社Ｒｅｍｏｒｅ,,株式会社,兵庫県,神戸市西区,狩場台４丁目１０番地の１６,,28,111,6512272,,,,,,,2024-10-15,1,,,,,リモア,0
1558,6140001136063,新規,0,2024-10-15,2024-10-15,株式会社シンプルワン,,株式会社,兵庫県,尼崎市,西難波町２丁目１４－１５,,28,202,6600893,,,,,,,2024-10-15,1,,,,,シンプルワン,0
1559,6140001136096,新規,0,2024-10-15,2024-10-15,ＪＸ株式会社,,株式会社,兵庫県,神戸市中央区,国香通４丁目２番４号国香通四丁目ビル１階,,28,110,6510066,,,,,,,2024-10-15,1,,,,,ジェイエックス,0
1568,6140003021164,新規,0,2024-10-15,2024-10-15,合同会社Ｈ．Ｒ．Ｂ,,合同会社,兵庫県,宝塚市,月見山１丁目１０番３７号,,28,214,6650002,,,,,,,2024-10-15,1,,,,,エイチアールビー,0
1586,6180003027488,新規,0,2024-10-15,2024-10-15,合同会社ＡＲＵ,,合同会社,愛知県,名古屋市中区,丸の内３丁目６‐７プレサンス久屋大通レジェンド９０９,,23,106,4600002,,,,,,,2024-10-15,1,,,,,エーアールユー,0
1589,6180005020788,新規,0,2024-10-15,2024-10-15,ＮＰＯ法人名古屋駅西アーカイブス,,その他の設立登記法人,愛知県,名古屋市中村区,椿町１２番１２号,,23,105,4530015,,,,,,,2024-10-15,1,,,,,ナゴヤエキニシアーカイブス,0
1595,6190005011992,新規,0,2024-10-15,2024-10-15,一般社団法人フィールドミュージアム・ネット,,その他の設立登記法人,三重県,津市,白山町川口７１２番地,,24,201,5152603,,,,,,,2024-10-15,1,,,,,フィールドミュージアムネット,0
1598,6200001043039,新規,0,2024-10-15,2024-10-15,Ｎ’ｓ　ｃｏｌｌｅｃｔｉｏｎ株式会社,,株式会社,岐阜県,大垣市,開発町３丁目５６番地１,,21,202,5030002,,,,,,,2024-10-15,1,,,,,エヌズコレクション,0
1599,6200003006539,新規,0,2024-10-15,2024-10-15,Ｓｏｕｒｉｒｅ合同会社,,合同会社,岐阜県,岐阜市,則武東３丁目７番６号,,21,201,5020929,,,,,,,2024-10-15,1,,,,,スリール,0
1608,6240001063941,新規,0,2024-10-15,2024-10-15,株式会社柿木試験機,,株式会社,広島県,呉市,焼山東１丁目１１番１１号,,34,202,7370936,,,,,,,2024-10-15,1,,,,,カキギシケンキ,0
1612,6260001039535,新規,0,2024-10-15,2024-10-15,株式会社Ｓ＆ＲＭ,,株式会社,岡山県,岡山市中区,江並１９１－８,,33,102,7028004,,,,,,,2024-10-15,1,,,,,エスアンドアールエム,0
1613,6260001039543,新規,0,2024-10-15,2024-10-15,株式会社岡山防災センター,,株式会社,岡山県,岡山市北区,首部１３３番地８,,33,101,7011201,,,,,,,2024-10-15,1,,,,,オカヤマボウサイセンター,0
1633,6290001107578,新規,0,2024-10-15,2024-10-15,株式会社Ｂｅｅｆ　Ｂｌｉｓｓ,,株式会社,福岡県,嘉麻市,上山田１４３２番地１,,40,227,8210012,,,,,,,2024-10-15,1,,,,,ビーフブリス,0
1634,6290001107594,新規,0,2024-10-15,2024-10-15,聖フードサービス株式会社,,株式会社,福岡県,福岡市中央区,天神５丁目４番１号７０１号室,,40,133,8100001,,,,,,,2024-10-15,1,,,,,セイフードサービス,0
1642,6290003015928,新規,0,2024-10-15,2024-10-15,合同会社ＡＲＵＫＵ,,合同会社,福岡県,久留米市,御井朝妻１丁目１１番１１号,,40,203,8390842,,,,,,,2024-10-15,1,,,,,アルク,0
1643,6290003015936,新規,0,2024-10-15,2024-10-15,Ｃａｓｈ　Ｆｌｏｗ　Ｃｏｎｓｕｌｔｉｎｇ合同会社,,合同会社,福岡県,福岡市南区,若久５丁目１０番５号,,40,134,8150042,,,,,,,2024-10-15,1,,,,,キャッシュフローコンサルティング,0
1646,6290801030962,新規,0,2024-10-15,2024-10-15,池永建設株式会社,,株式会社,福岡県,北九州市小倉南区,長野東町５番４７号,,40,107,8000247,,,,,,,2024-10-15,1,,,,,イケナガケンセツ,0
1651,6320001020760,新規,0,2024-10-15,2024-10-15,株式会社Ｎａｚｋｏｄａｃｈｉ,,株式会社,大分県,大分市,大字野田６３０番地の２,,44,201,8700868,,,,,,,2024-10-15,1,,,,,ナツコダチ,0
1653,6350001019230,新規,0,2024-10-15,2024-10-15,株式会社ＯＷＫＳ,,株式会社,宮崎県,都城市,中町１街区７号ＩＴ産業ビル５Ｆ,,45,202,8850071,,,,,,,2024-10-15,1,,,,,オウクス,0
1654,6360001034303,新規,0,2024-10-15,2024-10-15,株式会社配食おきなわ,,株式会社,沖縄県,豊見城市,字真玉橋２９７,,47,212,9010201,,,,,,,2024-10-15,1,,,,,ハイショクオキナワ,0
1657,6360003014377,新規,0,2024-10-15,2024-10-15,合同会社星山,,合同会社,沖縄県,うるま市,字兼箇段３６２番地１６,,47,213,9042241,,,,,,,2024-10-15,1,,,,,ホシヤマ,0
1658,6360005007115,新規,0,2024-10-15,2024-10-15,行政書士法人ｗｏｒｋｓ,,その他の設立登記法人,沖縄県,那覇市,泊３丁目１３番７号ＣａｓａｄｅＴｏｍａｒｉｎｏ２０２号室,,47,201,9000012,,,,,,,2024-10-15,1,,,,,ワークス,0
1671,6430001092863,新規,0,2024-10-15,2024-10-15,株式会社Ｋ．ウォーム,,株式会社,北海道,札幌市西区,八軒三条西４丁目３番９号,,01,107,0630843,,,,,,,2024-10-15,1,,,,,ケイウォーム,0
1673,6430005015085,新規,0,2024-10-15,2024-10-15,特定非営利活動法人北海道日本中国友好協会,,その他の設立登記法人,北海道,札幌市中央区,北三条西７丁目１番地北海道水産ビル,,01,101,0600003,,,,,,,2024-10-15,1,,,,,ホッカイドウニホンチュウゴクユウコウキョウカイ,0
1680,6480003002188,新規,0,2024-10-15,2024-10-15,合同会社Ｓａｔｏｓｈｉ,,合同会社,徳島県,三好市,山城町国政３４３番地５,,36,208,7795321,,,,,,,2024-10-15,1,,,,,,0
1681,6490001010885,新規,0,2024-10-15,2024-10-15,株式会社エバーユニーク安芸,,株式会社,高知県,安芸市,本町２丁目５－１３クレスト安芸１階,,39,203,7840004,,,,,,,2024-10-15,1,,,,,エバーユニークアキ,0
1690,7010001248762,新規,0,2024-10-15,2024-10-15,株式会社ＵＰＳＩＤＥ,,株式会社,東京都,千代田区,飯田橋２丁目１番１０号ＴＵＧビル４Ｆ,,13,101,1020072,,,,,,,2024-10-15,1,,,,,,0
1691,7010001248985,新規,0,2024-10-15,2024-10-15,株式会社なゆたパートナーズ,,株式会社,東京都,中央区,銀座７丁目１３番２０号,,13,102,1040061,,,,,,,2024-10-15,1,,,,,ナユタパートナーズ,0
1694,7010103002431,新規,0,2024-10-15,2024-10-15,合同会社ぜんストア,,合同会社,東京都,八王子市,横川町６７番地１エスポワールイノウエ１０２号,,13,201,1930823,,,,,,,2024-10-15,1,,,,,ゼンストア,0
1700,7010401185639,新規,0,2024-10-15,2024-10-15,ジャパンオーナーズクラブ株式会社,,株式会社,東京都,港区,赤坂８丁目１３番１９号,,13,103,1070052,,,,,,,2024-10-15,1,,,,,ジャパンオーナーズクラブ,0
1701,7010401185696,新規,0,2024-10-15,2024-10-15,ワイエス商事株式会社,,株式会社,東京都,港区,六本木６丁目１０番１号六本木ヒルズ森タワー２３階,,13,103,1060032,,,,,,,2024-10-15,1,,,,,ワイエスショウジ,0
1710,7010501053002,新規,0,2024-10-15,2024-10-15,株式会社ＣＡＦ,,株式会社,東京都,台東区,台東４丁目３０番６号ＩＬＩＶＥＦＯＲＥＳＴ３０３号,,13,106,1100016,,,,,,,2024-10-15,1,,,,,カフ,0
1711,7010601066085,新規,0,2024-10-15,2024-10-15,株式会社ＰｈｒａＳｉｈｉｎｇ,,株式会社,東京都,墨田区,両国１丁目８番４号両国坂本ビル７０３,,13,107,1300026,,,,,,,2024-10-15,1,,,,,プラシン,0
1713,7010701046689,新規,0,2024-10-15,2024-10-15,株式会社Ｖａｇａｂｏｎ,,株式会社,東京都,品川区,豊町３丁目２番１０号,,13,109,1420042,,,,,,,2024-10-15,1,,,,,バガボン,0
1716,7010705003686,新規,0,2024-10-15,2024-10-15,特定非営利活動法人東京都ＩＤボウリング連盟,,その他の設立登記法人,東京都,品川区,東品川３丁目２番１２－４０７号,,13,109,1400002,,,,,,,2024-10-15,1,,,,,トウキョウトアイディーボウリングレンメイ,0
1719,7010901056117,新規,0,2024-10-15,2024-10-15,株式会社ファイヴ・ローゼス,,株式会社,東京都,世田谷区,奥沢５丁目２７番１０号,,13,112,1580083,,,,,,,2024-10-15,1,,,,,ファイヴローゼス,0
1725,7011001165122,新規,0,2024-10-15,2024-10-15,株式会社Ｂｉｂｉｙ,,株式会社,東京都,渋谷区,渋谷２丁目１９－１５宮益坂ビルディング６０９,,13,113,1500002,,,,,,,2024-10-15,1,,,,,ビビィ,0
1726,7011001165130,新規,0,2024-10-15,2024-10-15,株式会社ＰＬＵＧ,,株式会社,東京都,渋谷区,恵比寿西２丁目１６番１２号,,13,113,1500021,,,,,,,2024-10-15,1,,,,,プラグ,0
1727,7011001165155,新規,0,2024-10-15,2024-10-15,株式会社ＲＯＯＴＳ,,株式会社,東京都,渋谷区,渋谷２丁目１９番１５－６０９号,,13,113,1500002,,,,,,,2024-10-15,1,,,,,ルーツ,0
1728,7011001165188,新規,0,2024-10-15,2024-10-15,ブリッジオ株式会社,,株式会社,東京都,渋谷区,恵比寿４丁目２０番４号恵比寿ガーデンプレイスＦＤ－３７,,13,113,1500013,,,,,,,2024-10-15,1,,,,,ブリッジオ,0
1729,7011001165205,新規,0,2024-10-15,2024-10-15,株式会社ＴＯＪＩＮ　ＪＡＰＡＮ　Ｅｎｔｅｒｔａｉｎｍｅｎｔ,,株式会社,東京都,渋谷区,神宮前５丁目４６番２４号,,13,113,1500001,,,,,,,2024-10-15,1,,,,,トージンジャパンエンターテイメント,0
1730,7011001165221,新規,0,2024-10-15,2024-10-15,株式会社マイテイル,,株式会社,東京都,渋谷区,代々木５丁目１５番１０号－３０２号,,13,113,1510053,,,,,,,2024-10-15,1,,,,,マイテイル,0
1731,7011001165246,新規,0,2024-10-15,2024-10-15,株式会社Ｐｅａｃｅ　ｏｆ　ｍｉｎｄ,,株式会社,東京都,目黒区,平町１丁目１０番２６号,,13,110,1520032,,,,,,,2024-10-15,1,,,,,ピースオブマインド,0
1732,7011001165279,新規,0,2024-10-15,2024-10-15,ミッションドリブン株式会社,,株式会社,東京都,渋谷区,道玄坂１丁目１０番８号渋谷道玄坂東急ビル２Ｆ－Ｃ,,13,113,1500043,,,,,,,2024-10-15,1,,,,,ミッションドリブン,0
1733,7011003020192,新規,0,2024-10-15,2024-10-15,合同会社東中延,,合同会社,東京都,渋谷区,千駄ヶ谷４丁目２５番２号株式会社フジタ内,,13,113,1510051,,,,,,,2024-10-15,1,,,,,ヒガシナカノブ,0
1737,7011103015051,新規,0,2024-10-15,2024-10-15,合同会社ＮＧＹ,,合同会社,東京都,新宿区,西新宿３丁目３番１３号西新宿水間ビル６階,,13,104,1600023,,,,,,,2024-10-15,1,,,,,エヌジーワイ,0
1743,7011701027712,新規,0,2024-10-15,2024-10-15,株式会社日森,,株式会社,東京都,江戸川区,大杉４丁目９－２１,,13,123,1320022,,,,,,,2024-10-15,1,,,,,ニチモリ,0
1752,7012301014118,新規,0,2024-10-15,2024-10-15,株式会社カラダのフローラ研究所,,株式会社,東京都,町田市,南町田５丁目４番３号,,13,209,1940005,,,,,,,2024-10-15,1,,,,,カラダノフローラケンキュウショ,0
1753,7012303002062,新規,0,2024-10-15,2024-10-15,合同会社ＭＧＭ,,合同会社,東京都,町田市,旭町１丁目４番１号,,13,209,1940023,,,,,,,2024-10-15,1,,,,,エムジーエム,0
1762,7013305003651,新規,0,2024-10-15,2024-10-15,一般社団法人国際金融研究会,,その他の設立登記法人,東京都,豊島区,西池袋１丁目１１番１号メトロポリタンプラザビル１４階,,13,116,1710021,,,,,,,2024-10-15,1,,,,,コクサイキンユウケンキュウカイ,0
1781,7021001083471,新規,0,2024-10-15,2024-10-15,株式会社ＶＯＺＥＬ,,株式会社,神奈川県,相模原市中央区,淵野辺４丁目３７番２５号,,14,152,2520206,,,,,,,2024-10-15,1,,,,,ヴォゼル,0
1798,7030001162895,新規,0,2024-10-15,2024-10-15,久保元株式会社,,株式会社,埼玉県,川口市,西川口１丁目３０番２０－６１１号室,,11,203,3320021,,,,,,,2024-10-15,1,,,,,クボゲン,0
1799,7030001162929,新規,0,2024-10-15,2024-10-15,株式会社Ｒ＆Ｈパートナーズ,,株式会社,埼玉県,蕨市,中央５丁目２０番７号,,11,223,3350004,,,,,,,2024-10-15,1,,,,,アールアンドエッチパートナーズ,0
1800,7030001162961,新規,0,2024-10-15,2024-10-15,ただソレ株式会社,,株式会社,埼玉県,さいたま市北区,宮原町３丁目５９４番地１２,,11,102,3310812,,,,,,,2024-10-15,1,,,,,タダソレ,0
1807,7030003025241,新規,0,2024-10-15,2024-10-15,ソラリス合同会社,,合同会社,埼玉県,春日部市,西金野井１６８１番地２ボヌールＣ１０２,,11,214,3440112,,,,,,,2024-10-15,1,,,,,ソラリス,0
1808,7030003025299,新規,0,2024-10-15,2024-10-15,澤融合同会社,,合同会社,埼玉県,さいたま市南区,南浦和２丁目３６番１６号,,11,108,3360017,,,,,,,2024-10-15,1,,,,,サワユウ,0
1825,7060001037574,新規,0,2024-10-15,2024-10-15,株式会社ｋｕｕ,,株式会社,栃木県,那須郡那須町,大字高久乙１８７３番地１５４,,09,407,3250303,,,,,,,2024-10-15,1,,,,,クウ,0
1836,7080401027504,新規,0,2024-10-15,2024-10-15,株式会社Ｕ‐ＩＮ,,株式会社,静岡県,浜松市中央区,下江町５８６番地,,22,138,4300825,,,,,,,2024-10-15,1,,,,,ユーイン,0
1847,7110001038765,新規,0,2024-10-15,2024-10-15,株式会社ｍｉｔ,,株式会社,新潟県,上越市,板倉区下米沢９６番地１,,15,222,9440144,,,,,,,2024-10-15,1,,,,,ミット,0
1850,7110003005549,新規,0,2024-10-15,2024-10-15,合同会社グリフナス,,合同会社,新潟県,新潟市中央区,上大川前通６番町１１８０番地１トーカンマンション柾谷小路１１階１１０３号室,,15,103,9518068,,,,,,,2024-10-15,1,,,,,グリフナス,0
1856,7120001269260,新規,0,2024-10-15,2024-10-15,小椿稻和株式会社,,株式会社,大阪府,大阪市淀川区,西宮原２丁目６番１６－５２３号,,27,123,5320004,,,,,,,2024-10-15,1,,,,,ショウチントウワ,0
1860,7120003027732,新規,0,2024-10-15,2024-10-15,合同会社ケアこころ,,合同会社,大阪府,大阪市北区,西天満３丁目８番４－８０３号,,27,127,5300047,,,,,,,2024-10-15,1,,,,,ケアココロ,0
1863,7120901049844,新規,0,2024-10-15,2024-10-15,株式会社ＬＩＦＥ　ＮＩＮＥ,,株式会社,大阪府,高槻市,郡家本町４９番地,,27,207,5691131,,,,,,,2024-10-15,1,,,,,ライフナイン,0
1864,7120901049902,新規,0,2024-10-15,2024-10-15,もりあきクリニック医療サービス株式会社,,株式会社,大阪府,箕面市,船場西３丁目８番１１－２０１号,,27,220,5620036,,,,,,,2024-10-15,1,,,,,モリアキクリニックイリョウサービス,0
1875,7140001136070,新規,0,2024-10-15,2024-10-15,株式会社ＮＡＴＳＵ,,株式会社,兵庫県,尼崎市,御園２丁目７番１７号,,28,202,6610984,,,,,,,2024-10-15,1,,,,,ナツ,0
1878,7140003021171,新規,0,2024-10-15,2024-10-15,合同会社ＤＧＳ,,合同会社,兵庫県,尼崎市,武庫元町１丁目２０番１７号一二三ビル１０１号,,28,202,6610043,,,,,,,2024-10-15,1,,,,,ディージーエス,0
1882,7170001018340,新規,0,2024-10-15,2024-10-15,株式会社ＳＨＩＮＴＥＣ,,株式会社,和歌山県,海草郡紀美野町,安井４０番地１,,30,304,6401234,,,,,,,2024-10-15,1,,,,,シンテック,0
1892,7180001163499,新規,0,2024-10-15,2024-10-15,愛岐ホールディングス株式会社,,株式会社,愛知県,一宮市,高畑町２丁目５番１号,,23,203,4910073,,,,,,,2024-10-15,1,,,,,アイギホールディングス,0
1893,7180001163598,新規,0,2024-10-15,2024-10-15,株式会社ＭＳＩ,,株式会社,愛知県,名古屋市緑区,諸の木１丁目１００９番地の２,,23,114,4580817,,,,,,,2024-10-15,1,,,,,エムエスアイ,0
1894,7180001163714,新規,0,2024-10-15,2024-10-15,株式会社ＳＯＷＡＮＩ,,株式会社,愛知県,名古屋市中区,丸の内３丁目１９番１４号財形久屋林敬ビル,,23,106,4600002,,,,,,,2024-10-15,1,,,,,ソワニ,0
1900,7180003027421,新規,0,2024-10-15,2024-10-15,合同会社ＴＭ　ＩＮＮＯＶＡＴＩＯＮ,,合同会社,愛知県,小牧市,春日寺２丁目２５２番地,,23,219,4850025,,,,,,,2024-10-15,1,,,,,ティーエムイノベーション,0
1913,7240001063932,新規,0,2024-10-15,2024-10-15,株式会社２ｎｄ　ｉ　ｃｏｎｎｅｃｔｉｏｎ,,株式会社,広島県,広島市中区,東千田町１丁目１番５５－３４１０号,,34,101,7300053,,,,,,,2024-10-15,1,,,,,セカンドアイコネクション,0
1914,7240001063940,新規,0,2024-10-15,2024-10-15,株式会社Ｋｏｔｉ,,株式会社,広島県,広島市安佐南区,八木４丁目９－１８－２－１０４,,34,105,7310101,,,,,,,2024-10-15,1,,,,,コティ,0
1922,7260001039542,新規,0,2024-10-15,2024-10-15,株式会社うるわし農園,,株式会社,岡山県,岡山市北区,新庄下１４１４番地４,,33,101,7011344,,,,,,,2024-10-15,1,,,,,ウルワシノウエン,0
1936,7290005019513,新規,0,2024-10-15,2024-10-15,一般社団法人福岡地域ねこ連絡協議会,,その他の設立登記法人,福岡県,福岡市西区,生の松原３丁目３４番６号,,40,135,8190055,,,,,,,2024-10-15,1,,,,,フクオカチイキネコレンラクキョウギカイ,0
1938,7290801030945,新規,0,2024-10-15,2024-10-15,オールテレイン株式会社,,株式会社,福岡県,北九州市小倉南区,大字志井１０１２－１３,,40,107,8020985,,,,,,,2024-10-15,1,,,,,オールテレイン,0
1939,7310003004877,新規,0,2024-10-15,2024-10-15,合同会社えぬじー,,合同会社,長崎県,長崎市,南山手町１３－２４,,42,201,8500931,,,,,,,2024-10-15,1,,,,,エヌジー,0
1941,7320001020768,新規,0,2024-10-15,2024-10-15,若杉林業株式会社,,株式会社,大分県,玖珠郡九重町,大字菅原２１０４番地の２,,44,461,8794724,,,,,,,2024-10-15,1,,,,,ワカスギリンギョウ,0
1942,7320003004496,新規,0,2024-10-15,2024-10-15,合同会社セチリオ,,合同会社,大分県,大分市,大字曲１１５６番地,,44,201,8700946,,,,,,,2024-10-15,1,,,,,セチリオ,0
1944,7330001032531,新規,0,2024-10-15,2024-10-15,葉呂共同株式会社,,株式会社,熊本県,熊本市東区,京塚本町２２番１３号,,43,102,8620952,,,,,,,2024-10-15,1,,,,,イエルキョウドウ,0
1948,7340005009780,新規,0,2024-10-15,2024-10-15,医療法人葵蒼会,,その他の設立登記法人,鹿児島県,鹿児島市,谷山中央１丁目４１０４番地１４レジリエント・ハマダ１階,,46,201,8910141,,,,,,,2024-10-15,1,,,,,キソウカイ,0
1958,7420001018892,新規,0,2024-10-15,2024-10-15,パンボワ株式会社,,株式会社,青森県,上北郡東北町,上北北２丁目３３番地１１１,,02,408,0392404,,,,,,,2024-10-15,1,,,,,パンボワ,0
1961,7470003002733,新規,0,2024-10-15,2024-10-15,合同会社山下電工,,合同会社,香川県,高松市,三谷町１１５５番地１０,,37,201,7610450,,,,,,,2024-10-15,1,,,,,ヤマシタデンコウ,0
1986,8010003045109,新規,0,2024-10-15,2024-10-15,合同会社Ｓｐｒｉｎｇｗａｔｅｒ,,合同会社,東京都,中央区,銀座１丁目１２番４号Ｎ＆ＥＢＬＤ．６Ｆ,,13,102,1040061,,,,,,,2024-10-15,1,,,,,スプリングウォーター,0
1987,8010003045141,新規,0,2024-10-15,2024-10-15,合同会社ｔ’ａｂｅｌ,,合同会社,東京都,中央区,銀座１丁目１２－４Ｎ＆ＥＢＬＤ．７階,,13,102,1040061,,,,,,,2024-10-15,1,,,,,タベル,0
1988,8010003045166,新規,0,2024-10-15,2024-10-15,ＳＶＵＰ２号合同会社,,合同会社,東京都,千代田区,丸の内１丁目４番１号東京共同会計事務所内,,13,101,1000005,,,,,,,2024-10-15,1,,,,,エスブイユーピーニゴウ,0
1989,8010003045182,新規,0,2024-10-15,2024-10-15,神栖バッテリー合同会社,,合同会社,東京都,千代田区,霞が関３丁目２番５号霞が関ビルディング３３階,,13,101,1000013,,,,,,,2024-10-15,1,,,,,カミスバッテリー,0
1990,8010003045190,新規,0,2024-10-15,2024-10-15,晴海貿易合同会社,,合同会社,東京都,中央区,晴海２丁目３―３０―３２０９,,13,102,1040053,,,,,,,2024-10-15,1,,,,,ハルミボウエキ,0
1997,8010401185613,新規,0,2024-10-15,2024-10-15,株式会社ベルテクス・グローバルメソッド,,株式会社,東京都,港区,赤坂９丁目７－１ミッドタウン・タワー１８階,,13,103,1070052,,,,,,,2024-10-15,1,,,,,ベルテクスグローバルメソッド,0
2000,8010501053001,新規,0,2024-10-15,2024-10-15,株式会社Ｒｅｌａｔｉｏｎ　Ｔｉｍｅｓ,,株式会社,東京都,台東区,台東４丁目３０番６号ＩＬＩＶＥＦＯＲＥＳＴ３０３号,,13,106,1100016,,,,,,,2024-10-15,1,,,,,リレーションタイムズ,0
2001,8010501053042,新規,0,2024-10-15,2024-10-15,エヌシーエヌシーデザイン株式会社,,株式会社,東京都,台東区,小島２丁目１－５ラフィーネカワムラ５０２,,13,106,1110056,,,,,,,2024-10-15,1,,,,,エヌシーエヌシーデザイン,0
2002,8010503007599,新規,0,2024-10-15,2024-10-15,タビイエ合同会社,,合同会社,東京都,台東区,谷中１丁目５番１１－１０３号ＤＥＡＲＰＬＡＺＡ根津,,13,106,1100001,,,,,,,2024-10-15,1,,,,,タビイエ,0
2007,8010701046688,新規,0,2024-10-15,2024-10-15,株式会社ラウンドリー,,株式会社,東京都,品川区,南品川３丁目２番４号３０２,,13,109,1400004,,,,,,,2024-10-15,1,,,,,ラウンドリー,0
2011,8010901056082,新規,0,2024-10-15,2024-10-15,株式会社高濱史子小松智彦建築設計,00136626,株式会社,東京都,世田谷区,北沢２丁目３番１２－５０１号,,13,112,1550031,,,,,,,2024-10-15,1,,,,,タカハマフミココマツトモヒコケンチクセッケイ,0
2012,8010901056108,新規,0,2024-10-15,2024-10-15,楽思株式会社,,株式会社,東京都,世田谷区,喜多見９丁目８番８－２０１号,,13,112,1570067,,,,,,,2024-10-15,1,,,,,ラクシ,0
2018,8011001165105,新規,0,2024-10-15,2024-10-15,７‐ｓｅｃｏｎｄｓ株式会社,,株式会社,東京都,目黒区,自由が丘３丁目１５番１９号自由が丘テラスハウスＢ,,13,110,1520035,,,,,,,2024-10-15,1,,,,,セブンセカンズ,0
2019,8011001165121,新規,0,2024-10-15,2024-10-15,ＥＮＩＰＰＯＮ株式会社,,株式会社,東京都,渋谷区,神宮前６丁目２３番４号桑野ビル２階,,13,113,1500001,,,,,,,2024-10-15,1,,,,,エンニッポン,0
2020,8011003020175,新規,0,2024-10-15,2024-10-15,合同会社Ｐ２Ｄ,,合同会社,東京都,渋谷区,渋谷２丁目１９－１５宮益坂ビルディング６０９,,13,113,1500002,,,,,,,2024-10-15,1,,,,,ピーツーディー,0
2021,8011003020191,新規,0,2024-10-15,2024-10-15,合同会社Ｂａｂｅｌ,,合同会社,東京都,渋谷区,神南１丁目１１番４号ＦＰＧリンクス神南５階,,13,113,1500041,,,,,,,2024-10-15,1,,,,,バベル,0
2032,8011201025868,新規,0,2024-10-15,2024-10-15,ＤｅｅｐＥｃｈｏｅｓ株式会社,,株式会社,東京都,中野区,弥生町３丁目３４番８号ＴＫビル４Ｆ,,13,114,1640013,,,,,,,2024-10-15,1,,,,,ディープエコーズ,0
2036,8011401026501,新規,0,2024-10-15,2024-10-15,ＳＧ株式会社,,株式会社,東京都,板橋区,成増３丁目４８番１８,,13,119,1750094,,,,,,,2024-10-15,1,,,,,エスジー,0
2040,8011701027728,新規,0,2024-10-15,2024-10-15,ＳＤＥＥ株式会社,,株式会社,東京都,江戸川区,上一色３丁目８－５－３０２号,,13,123,1330041,,,,,,,2024-10-15,1,,,,,スディ,0
2047,8011801044986,新規,0,2024-10-15,2024-10-15,ＭＡＲＫＥＴ　ＤＯＣＫ　ＩＮＴＥＲＮＡＴＩＯＮＡＬ株式会社,,株式会社,東京都,葛飾区,四つ木３丁目１番２７号四ツ木三角ビル４階,,13,122,1240011,,,,,,,2024-10-15,1,,,,,マーケットドックインターナショナル,0
2049,8012301014117,新規,0,2024-10-15,2024-10-15,株式会社三葉,,株式会社,東京都,町田市,金森３丁目３６番６号,,13,209,1940012,,,,,,,2024-10-15,1,,,,,ミツバ,0
2051,8012401042372,新規,0,2024-10-15,2024-10-15,株式会社ＷＡＫＫＡ,,株式会社,東京都,稲城市,若葉台２丁目１４番地の３オーベル若葉台ヒルズ３０１号,,13,225,2060824,,,,,,,2024-10-15,1,,,,,ワッカ,0
2052,8012403006796,新規,0,2024-10-15,2024-10-15,合同会社シンシン,,合同会社,東京都,府中市,住吉町２丁目３－２ホクレア府中１０６Ｂ,,13,206,1830034,,,,,,,2024-10-15,1,,,,,シンシン,0
2054,8012701018493,新規,0,2024-10-15,2024-10-15,ビューマート株式会社,,株式会社,東京都,小平市,学園東町５９６番地の１９,,13,211,1870043,,,,,,,2024-10-15,1,,,,,ビューマート,0
2075,8020001159561,新規,0,2024-10-15,2024-10-15,株式会社グレイスフルホーム,,株式会社,神奈川県,横浜市戸塚区,品濃町５２４番地２－３Ｆ,,14,110,2440801,,,,,,,2024-10-15,1,,,,,グレイスフルホーム,0
2076,8020001159719,新規,0,2024-10-15,2024-10-15,株式会社観光文化デザインラボ,,株式会社,神奈川県,横浜市青葉区,奈良町２８６４番地３モアクレスト玉川学園３番館７１３号,,14,117,2270036,,,,,,,2024-10-15,1,,,,,カンコウブンカデザインラボ,0
2091,8021003015100,新規,0,2024-10-15,2024-10-15,合同会社グラビティ,,合同会社,神奈川県,相模原市南区,大野台５丁目２６番２２－２号,,14,153,2520331,,,,,,,2024-10-15,1,,,,,グラビティ,0
2099,8030001162944,新規,0,2024-10-15,2024-10-15,株式会社サンビック,,株式会社,埼玉県,加須市,東栄２丁目１番２０号,,11,210,3470064,,,,,,,2024-10-15,1,,,,,サンビック,0
2100,8030001162960,新規,0,2024-10-15,2024-10-15,テックジャパンツール株式会社,,株式会社,埼玉県,入間郡三芳町,大字上富１９７番地２,,11,324,3540045,,,,,,,2024-10-15,1,,,,,テックジャパンツール,0
2105,8030003025315,新規,0,2024-10-15,2024-10-15,天運合同会社,,合同会社,埼玉県,深谷市,荒川８４９番地,,11,218,3691245,,,,,,,2024-10-15,1,,,,,テンウン,0
2113,8050001055502,新規,0,2024-10-15,2024-10-15,株式会社ブレダ,,株式会社,茨城県,つくば市,臼井５８２番地,,08,220,3004211,,,,,,,2024-10-15,1,,,,,ブレダ,0
2117,8060001037573,新規,0,2024-10-15,2024-10-15,株式会社フクオカ商事,,株式会社,栃木県,宇都宮市,福岡町５０１番地２,,09,201,3210342,,,,,,,2024-10-15,1,,,,,フクオカショウジ,0
2127,8080401027503,新規,0,2024-10-15,2024-10-15,株式会社代名,,株式会社,静岡県,浜松市中央区,領家２丁目３１番１１号,,22,138,4300852,,,,,,,2024-10-15,1,,,,,ダイメイ,0
2133,8110001038772,新規,0,2024-10-15,2024-10-15,株式会社水倉不動産,,株式会社,新潟県,新潟市西蒲区,巻甲５４８０番地,,15,108,9530041,,,,,,,2024-10-15,1,,,,,ミズクラフドウサン,0
2141,8120001269326,新規,0,2024-10-15,2024-10-15,アイエスヴイ株式会社,,株式会社,大阪府,枚方市,津田南町１丁目４０－３４,,27,210,5730124,,,,,,,2024-10-15,1,,,,,アイエスヴイ,0
2142,8120001269375,新規,0,2024-10-15,2024-10-15,東葛株式会社,,株式会社,大阪府,大阪市阿倍野区,西田辺町２丁目１０番３号,,27,119,5450014,,,,,,,2024-10-15,1,,,,,トウカツ,0
2145,8120003027731,新規,0,2024-10-15,2024-10-15,合同会社ルパンダ,,合同会社,大阪府,大阪市浪速区,恵美須東１丁目１７番５号,,27,111,5560002,,,,,,,2024-10-15,1,,,,,ルパンダ,0
2146,8120003027756,新規,0,2024-10-15,2024-10-15,ＬＡＺＯＳ合同会社,,合同会社,大阪府,大阪市東淀川区,豊里２丁目１７番７号エスポワール豊里２０１号,,27,114,5330013,,,,,,,2024-10-15,1,,,,,ラソス,0
2160,8122005003784,新規,0,2024-10-15,2024-10-15,一般社団法人インフィニティ,,その他の設立登記法人,大阪府,大東市,諸福５丁目９番,,27,218,5740044,,,,,,,2024-10-15,1,,,,,インフィニティ,0
2172,8160001026285,新規,0,2024-10-15,2024-10-15,株式会社らいふシフト,,株式会社,滋賀県,大津市,真野６丁目２６番１３号,,25,201,5200232,,,,,,,2024-10-15,1,,,,,ライフシフト,0
2183,8180001163548,新規,0,2024-10-15,2024-10-15,株式会社ＬＩＨａ,,株式会社,愛知県,名古屋市中村区,名駅３丁目４番１０号,,23,105,4500002,,,,,,,2024-10-15,1,,,,,リハ,0
2184,8180001163597,新規,0,2024-10-15,2024-10-15,エス・ホールディングス株式会社,,株式会社,愛知県,名古屋市中区,錦３丁目６番１５号先名古屋テレビ塔３階,,23,106,4600003,,,,,,,2024-10-15,1,,,,,エスホールディングス,0
2185,8180001163639,新規,0,2024-10-15,2024-10-15,株式会社ＦＲＥＩ　ＨＥＩＴ,,株式会社,愛知県,一宮市,浅井町西浅井字神明３３番地,,23,203,4910113,,,,,,,2024-10-15,1,,,,,フライハイト,0
2186,8180001163647,新規,0,2024-10-15,2024-10-15,株式会社Ｕｎｂｅａｔｅｎ　Ｃａｐｉｔａｌ,,株式会社,愛知県,名古屋市中区,新栄２丁目１番９号雲竜フレックス西館１２０５号室,,23,106,4600007,,,,,,,2024-10-15,1,,,,,アンビーテンキャピタル,0
2190,8180003027494,新規,0,2024-10-15,2024-10-15,合同会社ターニ,,合同会社,愛知県,稲沢市,稲沢町下田９０番地１,,23,220,4928217,,,,,,,2024-10-15,1,,,,,ターニ,0
2193,8190001031712,新規,0,2024-10-15,2024-10-15,ファイブエイト株式会社,,株式会社,三重県,松阪市,猟師町４２９番地１０９,,24,204,5150802,,,,,,,2024-10-15,1,,,,,ファイブエイト,0
2194,8200001043037,新規,0,2024-10-15,2024-10-15,株式会社プロスパリンク,,株式会社,岐阜県,揖斐郡大野町,大字黒野３５０番地６,,21,403,5010521,,,,,,,2024-10-15,1,,,,,プロスパリンク,0
2198,8210001019944,新規,0,2024-10-15,2024-10-15,株式会社オクト,,株式会社,福井県,福井市,開発２丁目３０６ブルーハイツ７,,18,201,9100842,,,,,,,2024-10-15,1,,,,,オクト,0
2206,8240001063931,新規,0,2024-10-15,2024-10-15,株式会社ＷＩＬＬ,,株式会社,広島県,廿日市市,串戸３丁目１４－３２,,34,213,7380033,,,,,,,2024-10-15,1,,,,,ウィル,0
2211,8260001039541,新規,0,2024-10-15,2024-10-15,ＧＲＡＮＤ　ＬＡＳＴＩＮＧ　ＣＯＭＰＡＮＹ株式会社,,株式会社,岡山県,岡山市北区,磨屋町１番１５号,,33,101,7000826,,,,,,,2024-10-15,1,,,,,グランドラスティングカンパニー,0
2213,8260003004923,新規,0,2024-10-15,2024-10-15,合同会社ふれあい,,合同会社,岡山県,岡山市東区,光津５２３番地６,,33,103,7048164,,,,,,,2024-10-15,1,,,,,フレアイ,0
2226,8290001107436,新規,0,2024-10-15,2024-10-15,株式会社ＥＳＩＡ,,株式会社,福岡県,糟屋郡新宮町,杜の宮４丁目５番１１号,,40,345,8110122,,,,,,,2024-10-15,1,,,,,イーシア,0
2227,8290001107576,新規,0,2024-10-15,2024-10-15,株式会社ＴＥＴＴＡ,,株式会社,福岡県,朝倉郡筑前町,中牟田１１６３番地１０,,40,447,8380226,,,,,,,2024-10-15,1,,,,,テッタ,0
2232,8290003015950,新規,0,2024-10-15,2024-10-15,合同会社アウローラ,,合同会社,福岡県,福岡市中央区,薬院３丁目１０番４２号,,40,133,8100022,,,,,,,2024-10-15,1,,,,,アウローラ,0
2233,8290005019520,新規,0,2024-10-15,2024-10-15,一般社団法人美容カウンセラー協会,,その他の設立登記法人,福岡県,福岡市中央区,今泉１丁目７－１９,,40,133,8100021,,,,,,,2024-10-15,1,,,,,ビヨウカウンセラーキョウカイ,0
2234,8290801030960,新規,0,2024-10-15,2024-10-15,楽まち不動産株式会社,,株式会社,福岡県,北九州市小倉北区,砂津２丁目１１番３１－６０３号,,40,106,8020014,,,,,,,2024-10-15,1,,,,,ラクマチフドウサン,0
2238,8320001020767,新規,0,2024-10-15,2024-10-15,株式会社ＧＥＮ,,株式会社,大分県,大分市,舞鶴町１丁目６番１３号リバーパーク舞鶴１０２,,44,201,8700044,,,,,,,2024-10-15,1,,,,,ゲン,0
2243,8330001032547,新規,0,2024-10-15,2024-10-15,ＴＡＴＥＵＲＩ住宅ドットコム株式会社,,株式会社,熊本県,熊本市東区,御領４丁目１番３９号,,43,102,8618035,,,,,,,2024-10-15,1,,,,,,0
2246,8340003004634,新規,0,2024-10-15,2024-10-15,合同会社Ｎｕｍｂｅｒ,,合同会社,鹿児島県,姶良市,平松７５４６番地４６,,46,225,8995652,,,,,,,2024-10-15,1,,,,,ナンバー,0
2258,8380003005876,新規,0,2024-10-15,2024-10-15,サンセット・テクノロジーズ合同会社,,合同会社,福島県,須賀川市,長沼字北町４６番地１,,07,207,9620203,,,,,,,2024-10-15,1,,,,,サンセットテクノロジーズ,0
2261,8420001018891,新規,0,2024-10-15,2024-10-15,株式会社ＫＯＵＲＹＵ,,株式会社,青森県,むつ市,大字田名部字土手内７４番地７４８,,02,208,0350021,,,,,,,2024-10-15,1,,,,,コウリュウ,0
2280,9010001248785,新規,0,2024-10-15,2024-10-15,キャピタル・クエスト株式会社,,株式会社,東京都,千代田区,内神田１丁目１３番７号,,13,101,1010047,,,,,,,2024-10-15,1,,,,,キャピタルクエスト,0
2281,9010001248950,新規,0,2024-10-15,2024-10-15,株式会社ＭＩＫＩ,,株式会社,東京都,中央区,銀座１丁目１５番７号ＭＡＣ銀座ビル３階,,13,102,1040061,,,,,,,2024-10-15,1,,,,,ミキ,0
2282,9010001248991,新規,0,2024-10-15,2024-10-15,株式会社ＧＢプレミアム,,株式会社,東京都,千代田区,神田須田町１丁目１８番,,13,101,1010041,,,,,,,2024-10-15,1,,,,,ジービープレミアム,0
2283,9010001249008,新規,0,2024-10-15,2024-10-15,株式会社ｉｎｓｉｅｍｅ,,株式会社,東京都,中央区,銀座１丁目１２－４Ｎ＆ＥＢＬＤ．７階,,13,102,1040061,,,,,,,2024-10-15,1,,,,,インシエメ,0
2284,9010001249016,新規,0,2024-10-15,2024-10-15,株式会社Ｊ‐ＦＵＮ１４,,株式会社,東京都,千代田区,丸の内１丁目８番２号,,13,101,1000005,,,,,,,2024-10-15,1,,,,,ジェイファンフォーティーン,0
2285,9010003045108,新規,0,2024-10-15,2024-10-15,合同会社ＷＷ,,合同会社,東京都,中央区,銀座１丁目１２番４号Ｎ＆ＥＢＬＤ．６Ｆ,,13,102,1040061,,,,,,,2024-10-15,1,,,,,ダブリューダブリュー,0
2286,9010003045207,新規,0,2024-10-15,2024-10-15,合同会社Ｍｏｔｃｉｉ　Ａｓｓｅｔ　Ｄｅｓｉｇｎ,,合同会社,東京都,中央区,日本橋兜町２０－７パークアクシス日本橋兜町３０４,,13,102,1030026,,,,,,,2024-10-15,1,,,,,モッチーアセットデザイン,0
2293,9010401185505,新規,0,2024-10-15,2024-10-15,ＡＲＥＮＡ　ＪＡＰＡＮ株式会社,,株式会社,東京都,港区,芝大門１丁目１２番１５号,,13,103,1050012,,,,,,,2024-10-15,1,,,,,アリーナジャパン,0
2294,9010401185694,新規,0,2024-10-15,2024-10-15,大綜日本株式会社,,株式会社,東京都,港区,赤坂２丁目８番１４－５０４号,,13,103,1070052,,,,,,,2024-10-15,1,,,,,ダイソウニッポン,0
2297,9010403033570,新規,0,2024-10-15,2024-10-15,ウェブスキ合同会社,,合同会社,東京都,港区,浜松町２丁目７番１７号イーグル浜松町天翔オフィス浜松町大門１０階１０４９号室,,13,103,1050013,,,,,,,2024-10-15,1,,,,,ウェブスキ,0
2298,9010403033587,新規,0,2024-10-15,2024-10-15,合同会社セレンディピティ,,合同会社,東京都,港区,高輪２丁目１１番７－４０１号,,13,103,1080074,,,,,,,2024-10-15,1,,,,,セレンディピティ,0
2308,9011001165087,新規,0,2024-10-15,2024-10-15,Ｔｒａｉ株式会社,,株式会社,東京都,渋谷区,神南１丁目１１番４号５階,,13,113,1500041,,,,,,,2024-10-15,1,,,,,トライ,0
2309,9011001165104,新規,0,2024-10-15,2024-10-15,株式会社Ｐ．Ｂ３３３,,株式会社,東京都,渋谷区,神宮前３丁目１５番２２号パティオ原宿１０１,,13,113,1500001,,,,,,,2024-10-15,1,,,,,ピービースリースリースリー,0
2310,9011001165120,新規,0,2024-10-15,2024-10-15,神興リファイン株式会社,,株式会社,東京都,目黒区,東山２丁目１番２号,,13,110,1530043,,,,,,,2024-10-15,1,,,,,シンコウリファイン,0
2311,9011001165129,新規,0,2024-10-15,2024-10-15,株式会社ＴＡＩＩＮ,,株式会社,東京都,渋谷区,富ヶ谷１丁目５１番地６号,,13,113,1510063,,,,,,,2024-10-15,1,,,,,タイイン,0
2312,9011001165145,新規,0,2024-10-15,2024-10-15,ＤｙｎａＭｅｅｔ株式会社,,株式会社,東京都,渋谷区,猿楽町１７－１０代官山アートヴィレッジ２Ｃ,,13,113,1500033,,,,,,,2024-10-15,1,,,,,ダイナミート,0
2313,9011001165236,新規,0,2024-10-15,2024-10-15,株式会社オーガスタワン,,株式会社,東京都,目黒区,下目黒１丁目１番１４号コノトラビル７Ｆ,,13,110,1530064,,,,,,,2024-10-15,1,,,,,オーガスタワン,0
2314,9011001165252,新規,0,2024-10-15,2024-10-15,倉富ファミリーオフィス事業承継１号株式会社,,株式会社,東京都,渋谷区,桜丘町２６番１号セルリアンタワー１５階,,13,113,1500031,,,,,,,2024-10-15,1,,,,,クラトミファミリーオフィスジギョウショウケイイチゴウ,0
2315,9011001165277,新規,0,2024-10-15,2024-10-15,株式会社ＭＷＣＣ,,株式会社,東京都,渋谷区,道玄坂１丁目１０－８渋谷道玄坂東急ビル２Ｆ－Ｃ,,13,113,1500043,,,,,,,2024-10-15,1,,,,,エムダブシーシー,0
2320,9011201025867,新規,0,2024-10-15,2024-10-15,グッドルート株式会社,,株式会社,東京都,中野区,新井２丁目１番３号,,13,114,1650026,,,,,,,2024-10-15,1,,,,,グッドルート,0
2327,9011401026500,新規,0,2024-10-15,2024-10-15,太陽交通株式会社,,株式会社,東京都,板橋区,赤塚７丁目２３番１５号,,13,119,1750092,,,,,,,2024-10-15,1,,,,,タイヨウコウツウ,0
2328,9011701027719,新規,0,2024-10-15,2024-10-15,株式会社成葉,,株式会社,東京都,江戸川区,新堀１丁目１０番１５号,,13,123,1320001,,,,,,,2024-10-15,1,,,,,セイヨウ,0
2335,9011801044977,新規,0,2024-10-15,2024-10-15,株式会社アシスト１ホールディングス,,株式会社,東京都,足立区,加平２丁目１番地１号ＣＡＬＭＢＵＩＬＤＩＮＧ,,13,121,1210055,,,,,,,2024-10-15,1,,,,,アシストワンホールディングス,0
2336,9011803006505,新規,0,2024-10-15,2024-10-15,ＳＨＡＰＥ　ＰＩＥＣＥ合同会社,,合同会社,東京都,足立区,千住旭町４０番１０号ハウスショウワ１階,,13,121,1200026,,,,,,,2024-10-15,1,,,,,シェイプピース,0
2339,9012401042371,新規,0,2024-10-15,2024-10-15,株式会社暮らしと住まいの研究室,,株式会社,東京都,調布市,布田４丁目１０番地１２,,13,208,1820024,,,,,,,2024-10-15,1,,,,,クラシトスマイノケンキュウシツ,0
2342,9013101009537,新規,0,2024-10-15,2024-10-15,株式会社プラスワン,,株式会社,東京都,羽村市,神明台４丁目２番地１１,,13,227,2050023,,,,,,,2024-10-15,1,,,,,プラスワン,0
2364,9020001159692,新規,0,2024-10-15,2024-10-15,株式会社ＬＩＣＡ・パートナーズ,,株式会社,神奈川県,横浜市西区,浅間町１丁目４番３号,,14,103,2200072,,,,,,,2024-10-15,1,,,,,エルアイシーエイパートナーズ,0
2367,9020005016568,新規,0,2024-10-15,2024-10-15,一般社団法人神奈川県言語聴覚士会,,その他の設立登記法人,神奈川県,横浜市金沢区,並木２丁目８番１号横浜なみきリハビリテーション病院リハビリテーション科内,,14,108,2360005,,,,,,,2024-10-15,1,,,,,カナガワケンゲンゴチョウカクシカイ,0
2373,9021003015099,新規,0,2024-10-15,2024-10-15,西山アセットマネジメント合同会社,,合同会社,神奈川県,相模原市南区,東林間７丁目３１番８－２号,,14,153,2520311,,,,,,,2024-10-15,1,,,,,ニシヤマアセットマネジメント,0
2387,9030001162943,新規,0,2024-10-15,2024-10-15,クニハル株式会社,,株式会社,埼玉県,さいたま市北区,東大成町１丁目６番地３トップ大宮第九３０３号,,11,102,3310814,,,,,,,2024-10-15,1,,,,,クニハル,0
2390,9030003025322,新規,0,2024-10-15,2024-10-15,合同会社ＲＥＶＥＲＳＥ　ＣＡＲＥ,,合同会社,埼玉県,上尾市,大字中新井４５８番地１７,,11,219,3620052,,,,,,,2024-10-15,1,,,,,リバースケア,0
2405,9080001026549,新規,0,2024-10-15,2024-10-15,株式会社しずく,,株式会社,静岡県,静岡市葵区,人宿町２丁目１番地の２、１４０２号,,22,101,4200037,,,,,,,2024-10-15,1,,,,,シズク,0
2408,9080103003165,新規,0,2024-10-15,2024-10-15,合同会社シルバー,,合同会社,静岡県,沼津市,下香貫楊原６７０番地ドルチェヴィータ北館３０５,,22,203,4100822,,,,,,,2024-10-15,1,,,,,シルバー,0
2415,9100005013227,新規,0,2024-10-15,2024-10-15,一般社団法人遠山郷応援会,,その他の設立登記法人,長野県,飯田市,南信濃和田１２３９番地,,20,205,3991311,,,,,,,2024-10-15,1,,,,,トオヤマゴウオウエンカイ,0
2428,9120001269300,新規,0,2024-10-15,2024-10-15,株式会社ＲＥＶＥ,,株式会社,大阪府,大阪市中央区,道修町１丁目５番５号,,27,128,5410045,,,,,,,2024-10-15,1,,,,,レーヴ,0
2429,9120001269317,新規,0,2024-10-15,2024-10-15,ＳＵＮ株式会社,,株式会社,大阪府,大阪市西成区,萩之茶屋２丁目２番６－３０１号,,27,122,5570004,,,,,,,2024-10-15,1,,,,,サン,0
2430,9120001269325,新規,0,2024-10-15,2024-10-15,株式会社デイズ・クリエイト,,株式会社,大阪府,大阪市中央区,谷町９丁目２－２８エスペランサ谷町１０２,,27,128,5420012,,,,,,,2024-10-15,1,,,,,デイズクリエイト,0
2431,9120001269333,新規,0,2024-10-15,2024-10-15,株式会社颯聖,,株式会社,大阪府,大阪市浪速区,芦原１丁目２－３－３０３,,27,111,5560029,,,,,,,2024-10-15,1,,,,,ソウセイ,0
2434,9120003027730,新規,0,2024-10-15,2024-10-15,合同会社杜の雫,,合同会社,大阪府,大阪市東成区,中道１丁目８番８号,,27,115,5370025,,,,,,,2024-10-15,1,,,,,モリノシズク,0
2437,9120101070368,新規,0,2024-10-15,2024-10-15,株式会社Ｗｅｅｄ’ｚ,,株式会社,大阪府,羽曳野市,西浦６丁目４番２３号,,27,222,5830861,,,,,,,2024-10-15,1,,,,,ウィーズ,0
2438,9120101070384,新規,0,2024-10-15,2024-10-15,株式会社ＡＯＳ,,株式会社,大阪府,松原市,三宅中５丁目１３番８号,,27,217,5800046,,,,,,,2024-10-15,1,,,,,エーオーエス,0
2439,9120101070418,新規,0,2024-10-15,2024-10-15,星建株式会社,,株式会社,大阪府,和泉市,伏屋町２丁目１６番５３号,,27,219,5940031,,,,,,,2024-10-15,1,,,,,ホシケン,0
2440,9120101070434,新規,0,2024-10-15,2024-10-15,株式会社豊永,,株式会社,大阪府,富田林市,南大伴町１丁目１番２号,,27,214,5840043,,,,,,,2024-10-15,1,,,,,ホウエイ,0
2454,9140001135954,新規,0,2024-10-15,2024-10-15,株式会社神戸吉右衛門,,株式会社,兵庫県,神戸市灘区,城内通５丁目５番２３－６０１号,,28,102,6570836,,,,,,,2024-10-15,1,,,,,コウベキチエモン,0
2455,9140001135962,新規,0,2024-10-15,2024-10-15,ＴＡＫＭｅｄｉｃａｌ株式会社,,株式会社,兵庫県,西宮市,馬場町２番３２号シンヨコビル３階,,28,204,6620915,,,,,,,2024-10-15,1,,,,,タックメディカル,0
2457,9140001136085,新規,0,2024-10-15,2024-10-15,株式会社桜ベル,,株式会社,兵庫県,神戸市中央区,旭通４丁目１番３－４１１号室,,28,110,6510095,,,,,,,2024-10-15,1,,,,,オウベル,0
2465,9160001026276,新規,0,2024-10-15,2024-10-15,はるたん不動産株式会社,,株式会社,滋賀県,東近江市,大森町４４９番地,,25,213,5270063,,,,,,,2024-10-15,1,,,,,ハルタンフドウサン,0
2468,9170001018347,新規,0,2024-10-15,2024-10-15,株式会社ＲＥＩＭＡＧＩＮＥ．,,株式会社,和歌山県,日高郡印南町,大字印南１２５３－１,,30,390,6491534,,,,,,,2024-10-15,1,,,,,リマジン,0
2482,9200003006536,新規,0,2024-10-15,2024-10-15,合同会社ＧＥ,,合同会社,岐阜県,瑞穂市,本田１０８番地,,21,216,5010236,,,,,,,2024-10-15,1,,,,,ジーイー,0
2484,9220001026261,新規,0,2024-10-15,2024-10-15,株式会社スカイスペック・ジャパン,,株式会社,石川県,金沢市,利屋町１９５番地,,17,201,9200101,,,,,,,2024-10-15,1,,,,,スカイスペックジャパン,0
2486,9230003002318,新規,0,2024-10-15,2024-10-15,合同会社Ｅｓｓｅｎｔｉａ,,合同会社,富山県,南砺市,舘１６５番地３,,16,210,9391676,,,,,,,2024-10-15,1,,,,,,0
2489,9240003006895,新規,0,2024-10-15,2024-10-15,合同会社ｒｅｌｉｅｆ,,合同会社,広島県,呉市,広白石２丁目６番３９号２階,,34,202,7370143,,,,,,,2024-10-15,1,,,,,リリーフ,0
2510,9290001107575,新規,0,2024-10-15,2024-10-15,株式会社ＲＥＣＩＰＲＯ,,株式会社,福岡県,福岡市博多区,博多駅前１丁目２３番２号ＰａｒｋＦｒｏｎｔ博多駅前１丁目５Ｆ－Ｂ,,40,132,8120011,,,,,,,2024-10-15,1,,,,,レシプロ,0
2521,9320001020766,新規,0,2024-10-15,2024-10-15,株式会社ディーアイ・ウォーター,,株式会社,大分県,大分市,徳島２丁目１２番５号,,44,201,8700109,,,,,,,2024-10-15,1,,,,,ディーアイウォーター,0
2523,9330001032538,新規,0,2024-10-15,2024-10-15,株式会社ＷＢホールディングス,,株式会社,熊本県,熊本市南区,白藤４丁目２６番１号,,43,104,8614112,,,,,,,2024-10-15,1,,,,,ダブルビーホールディングス,0
2525,9330003010599,新規,0,2024-10-15,2024-10-15,合同会社ＴＫｆａｒｍ,,合同会社,熊本県,山鹿市,方保田１５９９番地,,43,208,8610382,,,,,,,2024-10-15,1,,,,,ティケイファーム,0
2526,9340001026860,新規,0,2024-10-15,2024-10-15,エスワンクロス株式会社,,株式会社,鹿児島県,鹿児島市,坂元町５９番１０号,,46,201,8920862,,,,,,,2024-10-15,1,,,,,エスワンクロス,0
2532,9350003004764,新規,0,2024-10-15,2024-10-15,合同会社ＭＯＲＵ,,合同会社,宮崎県,宮崎市,青島１丁目１３番１５号,,45,201,8892162,,,,,,,2024-10-15,1,,,,,,0
2533,9350005006263,新規,0,2024-10-15,2024-10-15,医療法人かわそえクリニック,,その他の設立登記法人,宮崎県,宮崎市,大島町原ノ前１４４５番地６５,,45,201,8800824,,,,,,,2024-10-15,1,,,,,カワソエクリニック,0
2546,9380003005867,新規,0,2024-10-15,2024-10-15,合同会社おざわ農園,,合同会社,福島県,須賀川市,前田川字広町６９番地,,07,207,9620814,,,,,,,2024-10-15,1,,,,,オザワノウエン,0
2548,9400001016822,新規,0,2024-10-15,2024-10-15,株式会社Ｋａｉｚｅｎ　Ｐａｒｔｎｅｒｓ,,株式会社,岩手県,盛岡市,北夕顔瀬町１０番１７号,,03,201,0200031,,,,,,,2024-10-15,1,,,,,カイゼンパートナーズ,0
2554,9430001092852,新規,0,2024-10-15,2024-10-15,株式会社ＳｌａｓｈＲｉｓｅ,,株式会社,北海道,札幌市西区,西野十一条９丁目１９番１８号,,01,107,0630041,,,,,,,2024-10-15,1,,,,,スラッシュライズ,0
2555,9430001092869,新規,0,2024-10-15,2024-10-15,株式会社ＭＩＮＥＲＭＯＳＡ,,株式会社,北海道,千歳市,上長都１１２４番地４,,01,224,0660077,,,,,,,2024-10-15,1,,,,,ミネルモサ,0
2559,9470001020413,新規,0,2024-10-15,2024-10-15,株式会社サステナブル・エコシステム,,株式会社,香川県,三豊市,山本町神田字長谷３７２９番１,,37,208,7680104,,,,,,,2024-10-15,1,,,,,サステナブルエコシステム,0
