sequenceNumber,corporateNumber,process,correct,updateDate,changeDate,name,nameImageId,kind,prefectureName,cityName,streetNumber,addressImageId,prefectureCode,cityCode,postCode,addressOutside,addressOutsideImageId,closeDate,closeCause,successorCorporateNumber,changeCause,assignmentDate,latest,enName,enPrefectureName,enCityName,enAddressOutside,furigana,hihyoji
17,1010402033661,登記記録の閉鎖等,0,2024-09-10,2024-08-19,有限会社東寿司,,有限会社,東京都,港区,芝大門１丁目１５番１０号,,13,103,1050012,,,2024-08-19,清算の結了等,,,2015-10-05,1,,,,,アズマズシ,0
25,1010502021186,登記記録の閉鎖等,0,2024-09-10,2024-09-02,有限会社フォクシー,,有限会社,東京都,台東区,千束４丁目２５番９号,,13,106,1110031,,,2024-09-02,清算の結了等,,,2015-10-05,1,,,,,フォクシー,0
53,1011103006741,登記記録の閉鎖等,0,2024-09-10,2024-09-02,グリーンディオ合同会社,,合同会社,東京都,江戸川区,松本１丁目２４番１５号,,13,123,1330043,,,2024-09-02,清算の結了等,,,2017-01-13,1,,,,,グリーンディオ,0
56,1011201021881,登記記録の閉鎖等,0,2024-09-10,2024-08-28,ＴＦＣ株式会社,,株式会社,東京都,中央区,八重洲２丁目４番１０号,,13,102,1040028,,,2024-08-28,清算の結了等,,,2019-12-27,1,,,,,ティーエフシー,0
66,1011801035637,登記記録の閉鎖等,0,2024-09-10,2024-09-04,株式会社Ａｌｔｈｏｕｇｈ,,株式会社,東京都,足立区,千住仲町１９番５号５０２,,13,121,1200036,,,2024-09-04,清算の結了等,,,2019-01-18,1,,,,,オールゾウ,0
71,1012802001165,登記記録の閉鎖等,0,2024-09-10,2024-08-29,有限会社スギエンジニアリング,,有限会社,東京都,立川市,西砂町３丁目１６番地の１６,,13,202,1900034,,,2024-08-29,清算の結了等,,,2015-10-05,1,,,,,スギエンジニアリング,0
76,1013301047971,登記記録の閉鎖等,0,2024-09-10,2024-09-04,株式会社原田管財,,株式会社,東京都,豊島区,西池袋１丁目２９番１４－１００６号,,13,116,1710021,,,2024-09-04,清算の結了等,,,2021-09-06,1,,,,,ハラダカンザイ,0
102,1030001124570,登記記録の閉鎖等,0,2024-09-10,2024-09-04,ＨＡＯＹＩＮＧ　ＪＡＰＡＮ株式会社,,株式会社,埼玉県,川越市,中台元町１丁目５番地７,,11,201,3501138,,,2024-09-04,清算の結了等,,,2018-03-07,1,,,,,ハオインジャパン,0
127,1070002033395,登記記録の閉鎖等,0,2024-09-10,2024-09-02,株式会社宏東,,株式会社,埼玉県,加須市,麦倉１４５番地,,11,210,3491212,,,2024-09-02,清算の結了等,,,2015-10-05,1,,,,,コウトウ,0
142,1110002011859,登記記録の閉鎖等,0,2024-09-10,2024-09-03,有限会社八木友材木店,,有限会社,新潟県,新潟市西蒲区,巻甲４４４番地,,15,108,9530041,,,2024-09-03,清算の結了等,,,2015-10-05,1,,,,,ヤギトモザイモクテン,0
148,1110005016186,登記記録の閉鎖等,0,2024-09-10,2024-09-03,一般社団法人ＵＲＢＡＮ　ＦＬＯＷ,,その他の設立登記法人,新潟県,新潟市中央区,南笹口１丁目１－３８コープオリンピア８０８,,15,103,9500912,,,2024-09-03,清算の結了等,,,2018-01-04,1,,,,,アーバンフロウ,0
152,1120001086075,登記記録の閉鎖等,0,2024-09-10,2024-09-06,中筋ガラス工芸株式会社,,株式会社,大阪府,大阪市中央区,高津３丁目８番１１号,,27,128,5420072,,,2024-09-06,清算の結了等,,,2015-10-05,1,,,,,ナカスジガラスコウゲイ,0
158,1120002014522,登記記録の閉鎖等,0,2024-09-10,2024-09-06,稲葉染工有限会社,,有限会社,大阪府,大阪市大正区,泉尾１丁目３７番９号,,27,108,5510031,,,2024-09-06,清算の結了等,,,2015-10-05,1,,,,,イナバセンコウ,0
174,1140001093037,登記記録の閉鎖等,0,2024-09-10,2024-09-06,阪神デーリー運輸株式会社,,株式会社,兵庫県,西宮市,上甲子園４丁目７番３１号,,28,204,6638114,,,2024-09-06,合併による解散等,7470001001844,令和６年８月２７日香川県高松市十川東町２０１７番地１四國牛乳輸送株式会社（7470001001844）に合併し解散,2015-10-05,1,,,,,ハンシンデーリーウンユ,0
179,1150002011491,登記記録の閉鎖等,0,2024-09-10,2024-09-06,ミキ貿易有限会社,,有限会社,奈良県,奈良市,川上町４３９番地の３,,29,201,6308202,,,2024-09-06,清算の結了等,,,2015-10-05,1,,,,,ミキボウエキ,0
180,1150005008460,登記記録の閉鎖等,0,2024-09-10,2024-09-06,特定非営利活動法人パパちから応援隊,,その他の設立登記法人,奈良県,大和郡山市,高田町２４５番,,29,203,6391132,,,2024-09-06,清算の結了等,,,2015-10-05,1,,,,,,0
197,1180005019802,登記記録の閉鎖等,0,2024-09-10,2024-09-02,社会保険労務士法人チームケイツ,,その他の設立登記法人,愛知県,名古屋市中区,丸の内３丁目７番２６号,,23,106,4600002,,,2024-09-02,清算の結了等,,,2022-06-13,1,,,,,チームケイツ,0
198,1180301013450,登記記録の閉鎖等,0,2024-09-10,2024-09-03,吉本電機工業株式会社,,株式会社,愛知県,安城市,東栄町６丁目１２番地１４,,23,212,4460007,,,2024-09-03,清算の結了等,,,2015-10-05,1,,,,,ヨシモトデンキコウギョウ,0
209,1200001041922,登記記録の閉鎖等,0,2024-09-10,2024-09-05,株式会社ＨＡＳＳＡＮ　ＴＲＡＤＩＮＧ,,株式会社,岐阜県,美濃加茂市,加茂野町今泉１５４７番地２４コーポモナリザ１０３号室,,21,211,5050052,,,2024-09-05,清算の結了等,,,2023-11-24,1,,,,,ハッサントレーディング,0
214,1240001041191,登記記録の閉鎖等,0,2024-09-10,2024-09-05,株式会社ＴＯＰ．ＬＩＮＥ,,株式会社,広島県,福山市,曙町３丁目２４番１７号,00000619,34,207,7210952,,,2024-09-05,清算の結了等,,,2015-10-05,1,,,,,トップライン,0
222,1290001092866,登記記録の閉鎖等,0,2024-09-10,2024-09-02,ヤマショウ株式会社,,株式会社,福岡県,福岡市東区,若宮５丁目２番１号,,40,131,8130036,,,2024-09-02,合併による解散等,3290001063469,令和６年９月１日福岡県小郡市三沢４１５９番地５ファーム九州株式会社（3290001063469）に合併し解散,2021-04-20,1,,,,,ヤマショウ,0
226,1290003009570,登記記録の閉鎖等,0,2024-09-10,2024-08-01,コスモ・ネットワークス合同会社,,合同会社,福岡県,飯塚市,伊川７９７,,40,205,8200054,,,2024-08-01,清算の結了等,,,2019-12-04,1,,,,,コスモネットワークス,0
237,1380002012938,登記記録の閉鎖等,0,2024-09-10,2024-09-02,有限会社ユニーク・デンタル,,有限会社,福島県,郡山市,堤１丁目６７番地,,07,203,9630205,,,2024-09-02,清算の結了等,,,2015-10-05,1,,,,,ユニークデンタル,0
240,1420001013098,登記記録の閉鎖等,0,2024-09-10,2024-09-02,友住技研工業株式会社,,株式会社,青森県,八戸市,大字市川町字古館５８番地５,,02,203,0392241,,,2024-09-02,合併による解散等,8420001011112,令和６年９月１日青森県十和田市東十六番町５１番２０号友住設備工業株式会社（8420001011112）に合併し解散,2015-10-05,1,,,,,トモスミギケンコウギョウ,0
251,1490001003299,登記記録の閉鎖等,0,2024-09-10,2024-09-05,株式会社アークリエイト,,株式会社,愛知県,田原市,緑が浜四号１番地６６,,23,231,4413401,,,2024-09-05,合併による解散等,5180001071381,令和６年９月３日名古屋市中区錦二丁目１８番５号株式会社名構設計（5180001071381）に合併し解散,2015-10-05,1,,,,,アークリエイト,0
252,1500001010888,登記記録の閉鎖等,0,2024-09-10,2024-09-05,株式会社坂本工業,,株式会社,愛媛県,西条市,喜多川４６７番地１メゾン石田２０１号室,,38,206,7930042,,,2024-09-05,清算の結了等,,,2015-10-05,1,,,,,,0
261,2010001228455,登記記録の閉鎖等,0,2024-09-10,2024-08-28,株式会社コンコーディアグローバル,,株式会社,東京都,中央区,銀座１丁目３番３号Ｇ１ビル７Ｆ,,13,102,1040061,,,2024-08-28,清算の結了等,,,2022-08-04,1,,,,,コンコーディアグローバル,0
262,2010001243347,登記記録の閉鎖等,0,2024-09-10,2024-09-02,オンサイトホールディングス株式会社,,株式会社,東京都,千代田区,丸の内３丁目１－１国際ビル,,13,101,1000005,,,2024-09-02,合併による解散等,9010001127519,令和６年９月１日東京都千代田区神田美土代町１番地オンサイト株式会社（9010001127519）に合併し解散,2024-03-26,1,,,,,オンサイトホールディングス,0
285,2010902012866,登記記録の閉鎖等,0,2024-09-10,2024-09-06,有限会社フアクス・フランツ,,有限会社,東京都,世田谷区,玉川１丁目１８番６号,,13,112,1580094,,,2024-09-06,清算の結了等,,,2015-10-05,1,,,,,ファクスフランツ,0
287,2011001050659,登記記録の閉鎖等,0,2024-09-10,2024-08-23,株式会社ＢＡＭＢＯＯコーポレーション,,株式会社,東京都,渋谷区,本町３丁目１３番１２号渋谷本町ビル,,13,113,1510071,,,2024-08-23,清算の結了等,,,2015-10-05,1,,,,,,0
297,2011401000726,登記記録の閉鎖等,0,2024-09-10,2024-09-03,植木プロセス株式会社,,株式会社,東京都,板橋区,大山金井町２８番５号,,13,119,1730024,,,2024-09-03,清算の結了等,,,2015-10-05,1,,,,,ウエキプロセス,0
312,2013401006934,登記記録の閉鎖等,0,2024-09-10,2024-09-02,株式会社ｋｅｅｐ　ａ　ｍｉｎｄ,,株式会社,東京都,日野市,大坂上４丁目１５番地の６０,,13,212,1910061,,,2024-09-02,清算の結了等,,,2015-10-05,1,,,,,キープアマインド,0
323,2020002035684,登記記録の閉鎖等,0,2024-09-10,2024-08-27,有限会社フラワーエステート,,有限会社,神奈川県,横浜市港北区,高田町２５３４番地の１,,14,109,2230063,,,2024-08-27,清算の結了等,,,2015-10-05,1,,,,,フラワーエステート,0
329,2020002086496,登記記録の閉鎖等,0,2024-09-10,2024-08-28,有限会社加藤商店,,有限会社,神奈川県,川崎市宮前区,水沢１丁目１番１号,,14,136,2160012,,,2024-08-28,清算の結了等,,,2015-10-05,1,,,,,カトウショウテン,0
330,2020002102245,登記記録の閉鎖等,0,2024-09-10,2024-08-20,有限会社タツヤママネジメントオフィス,,有限会社,神奈川県,川崎市麻生区,向原２丁目２５番２号,,14,137,2150007,,,2024-08-20,清算の結了等,,,2015-10-05,1,,,,,タツヤママネジメントオフィス,0
334,2021001024505,登記記録の閉鎖等,0,2024-09-10,2024-09-09,モバイル・エコロジー株式会社,,株式会社,神奈川県,愛甲郡清川村,煤ヶ谷１１０３番地の１０,,14,402,2430112,,,2024-09-09,清算の結了等,,,2015-10-05,1,,,,,モバイルエコロジー,0
357,2040001124115,登記記録の閉鎖等,0,2024-09-10,2024-09-02,ＡｄｍｉｒｅＸ株式会社,,株式会社,千葉県,柏市,若柴１７３番地８柏の葉キャンパス１５１街区Ｅ－３２０１,,12,217,2770871,,,2024-09-02,清算の結了等,,,2022-07-06,1,,,,,アドミレックス,0
366,2080001005518,登記記録の閉鎖等,0,2024-09-10,2024-09-04,富士テクノロジーサービス株式会社,,株式会社,静岡県,静岡市駿河区,八幡５丁目１６番３号,,22,102,4228076,,,2024-09-04,合併による解散等,1080001012804,令和６年９月１日静岡市駿河区南町１８番１号富士テクノロジー株式会社（1080001012804）に合併し解散,2015-10-05,1,,,,,フジテクノロジーサービス,0
370,2080102003552,登記記録の閉鎖等,0,2024-09-10,2024-09-04,有限会社メガネの川口,,有限会社,静岡県,沼津市,町方町７８番地,,22,203,4100882,,,2024-09-04,清算の結了等,,,2015-10-05,1,,,,,メガネノカワグチ,0
375,2110002023770,登記記録の閉鎖等,0,2024-09-10,2024-09-04,有限会社北川農場,,有限会社,新潟県,上越市,頸城区仁野分９０１番地の１,,15,222,9420224,,,2024-09-04,清算の結了等,,,2015-10-05,1,,,,,キタガワノウジョウ,0
379,2120001155647,登記記録の閉鎖等,0,2024-09-10,2024-09-05,芸陽精機株式会社,,株式会社,大阪府,守口市,金田町３丁目１７番７号,,27,209,5700011,,,2024-09-05,清算の結了等,,,2015-10-05,1,,,,,ゲイヨウセイキカブ,0
392,2120101007789,登記記録の閉鎖等,0,2024-09-10,2024-09-05,株式会社ヤマモト精機工業所,,株式会社,大阪府,堺市中区,陶器北３８３番地の１,,27,142,5998242,,,2024-09-05,清算の結了等,,,2015-10-05,1,,,,,ヤマモトセイキコウギョウショ,0
417,2140002065521,登記記録の閉鎖等,0,2024-09-10,2024-09-04,有限会社キワ防災,,有限会社,兵庫県,川西市,西多田１丁目５番２５号,,28,217,6660138,,,2024-09-04,清算の結了等,,,2015-10-05,1,,,,,キワボウサイ,0
439,2180001115645,登記記録の閉鎖等,0,2024-09-10,2024-09-02,株式会社クリアコスメティクス,,株式会社,愛知県,半田市,北二ツ坂町１丁目１２番地の８,,23,205,4750927,,,2024-09-02,合併による解散等,5180001092287,令和６年９月１日愛知県知多郡武豊町字祠峯一丁目３番地株式会社エヌワイシー（5180001092287）に合併し解散,2015-10-05,1,,,,,クリアコスメティクス,0
441,2180001134067,登記記録の閉鎖等,0,2024-09-10,2024-09-02,株式会社大登,,株式会社,愛知県,日進市,岩崎町神明１４４番地２８,,23,230,4700131,,,2024-09-02,合併による解散等,3180001104696,令和６年９月１日名古屋市北区丸新町３５３番地株式会社大輝（3180001104696）に合併し解散,2018-10-16,1,,,,,ダイト,0
465,2290001027549,登記記録の閉鎖等,0,2024-09-10,2024-08-01,株式会社マルイ商会,,株式会社,福岡県,福岡市博多区,須崎町２番１７号,,40,132,8120028,,,2024-08-01,清算の結了等,,,2015-10-05,1,,,,,マルイショウカイ,0
466,2290001034157,登記記録の閉鎖等,0,2024-09-10,2024-08-02,株式会社アルガ,,株式会社,福岡県,福岡市博多区,博多駅東１丁目１４番３４号,,40,132,8120013,,,2024-08-02,清算の結了等,,,2015-10-05,1,,,,,アルガ,0
467,2290001043190,登記記録の閉鎖等,0,2024-09-10,2024-08-01,マツナガ株式会社,,株式会社,福岡県,大野城市,中央２丁目１番１４号,,40,219,8160942,,,2024-08-01,清算の結了等,,,2015-10-05,1,,,,,,0
473,2290003007846,登記記録の閉鎖等,0,2024-09-10,2024-08-01,合同会社福間コンタクト,,合同会社,福岡県,福津市,中央６丁目１１－２７,,40,224,8113217,,,2024-08-01,清算の結了等,,,2018-02-22,1,,,,,,0
474,2290003009743,登記記録の閉鎖等,0,2024-09-10,2024-09-04,合同会社エコ・フーズ,,合同会社,佐賀県,武雄市,山内町大字宮野３６４０－１,,41,206,8492305,,,2024-09-04,清算の結了等,,,2020-02-07,1,,,,,エコフーズ,0
475,2290003012771,登記記録の閉鎖等,0,2024-09-10,2024-08-01,合同会社ピーススタッフ笹丘,,合同会社,福岡県,福岡市中央区,大名１丁目９番５２号,,40,133,8100041,,,2024-08-01,清算の結了等,,,2022-07-26,1,,,,,ピーススタッフササオカ,0
486,2340002020183,登記記録の閉鎖等,0,2024-09-10,2024-09-02,有限会社マルイ産業,,有限会社,鹿児島県,大島郡伊仙町,大字目手久１９１２番地２,,46,532,8918113,,,2024-09-02,清算の結了等,,,2015-10-05,1,,,,,マルイサンギョウ,0
490,2350003002048,登記記録の閉鎖等,0,2024-09-10,2024-09-04,合同会社ライフ企画,,合同会社,宮崎県,小林市,野尻町東麓２５５０番地１６,,45,205,8860212,,,2024-09-04,清算の結了等,,,2015-10-05,1,,,,,ライフキカク,0
498,2430002064535,登記記録の閉鎖等,0,2024-09-10,2024-09-04,有限会社遠塚谷鉄工所,00089847,有限会社,北海道,室蘭市,東町３丁目１番７号,,01,205,0500083,,,2024-09-04,清算の結了等,,,2015-10-05,1,,,,,トオヅカヤテッコウショ,0
513,3010001142721,登記記録の閉鎖等,0,2024-09-10,2024-08-28,株式会社メイクリング,,株式会社,東京都,中央区,東日本橋２丁目２８番４号日本橋ＣＥＴビル２階,,13,102,1030004,,,2024-08-28,清算の結了等,,,2015-10-05,1,,,,,メイクリング,0
520,3010005025484,登記記録の閉鎖等,0,2024-09-10,2024-09-03,ＲＷ１８特定目的会社,,その他の設立登記法人,東京都,中央区,日本橋１丁目４番１号日本橋一丁目ビルディング,,13,102,1030027,,,2024-09-03,清算の結了等,,,2016-06-27,1,,,,,アールダブリュージュウハチ,0
525,3010401124963,登記記録の閉鎖等,0,2024-09-10,2024-08-16,株式会社平和商会,,株式会社,東京都,港区,芝大門１丁目１０番１１号,,13,103,1050012,,,2024-08-16,清算の結了等,,,2016-05-24,1,,,,,ヘイワショウカイ,0
536,3010702007058,登記記録の閉鎖等,0,2024-09-10,2024-09-04,有限会社フォロミー,,有限会社,東京都,品川区,小山３丁目１３番６号－１０２,,13,109,1420062,,,2024-09-04,清算の結了等,,,2015-10-05,1,,,,,フォロミー,0
550,3011003017052,登記記録の閉鎖等,0,2024-09-10,2024-08-20,合同会社ＥＣテクノロジーズ,,合同会社,東京都,渋谷区,渋谷２丁目１９－１５宮益坂ビルディング６０９,,13,113,1500002,,,2024-08-20,清算の結了等,,,2023-06-28,1,,,,,イーシーテクノロジーズ,0
568,3011801037417,登記記録の閉鎖等,0,2024-09-10,2024-09-04,ル・スコルピオン株式会社,,株式会社,東京都,足立区,中央本町４丁目１５番９－４０５号,,13,121,1210011,,,2024-09-04,清算の結了等,,,2020-03-18,1,,,,,ルスコルピオン,0
570,3011802007162,登記記録の閉鎖等,0,2024-09-10,2024-09-04,有限会社マサランド,,有限会社,東京都,葛飾区,東立石２丁目２０番１４号,,13,122,1240013,,,2024-09-04,清算の結了等,,,2015-10-05,1,,,,,マサランド,0
580,3020001015637,登記記録の閉鎖等,0,2024-09-10,2024-08-27,日本パーソナルコンピュータ株式会社,,株式会社,神奈川県,横浜市南区,蒔田町字三度台１０１８番地の１５ワコーレロイヤルヒルズ横浜蒔田４１８号,,14,105,2320043,,,2024-08-27,清算の結了等,,,2015-10-05,1,,,,,,0
609,3030002001338,登記記録の閉鎖等,0,2024-09-10,2024-09-03,有限会社いいづか商事,,有限会社,埼玉県,さいたま市北区,本郷町８７５番地１,,11,102,3310802,,,2024-09-03,清算の結了等,,,2015-10-05,1,,,,,イイヅカショウジ,0
614,3030003014594,登記記録の閉鎖等,0,2024-09-10,2024-09-03,合同会社ＷＺ・ＴＲＡＮＳ,,合同会社,埼玉県,川口市,芝園町３番３,,11,203,3330853,,,2024-09-03,清算の結了等,,,2020-01-07,1,,,,,ダブリュジートランス,0
635,3050001051638,登記記録の閉鎖等,0,2024-09-10,2024-09-02,株式会社陽だまり,,株式会社,茨城県,稲敷郡阿見町,大字青宿６８７番地７,,08,443,3000301,,,2024-09-02,合併による解散等,5050001009634,令和６年９月１日茨城県つくばみらい市板橋２２１０番地日東商事株式会社（5050001009634）に合併し解散,2022-09-06,1,,,,,ヒダマリ,0
649,3100001035494,登記記録の閉鎖等,0,2024-09-10,2024-09-02,ダンクブックス株式会社,,株式会社,長野県,長野市,大字柳原２５５０番地,,20,201,3810012,,,2024-09-02,合併による解散等,5100001001651,令和６年９月１日長野市柳原２５５０番地ダンクセキ株式会社（5100001001651）に合併し解散,2022-07-06,1,,,,,ダンクブックス,0
655,3110002025080,登記記録の閉鎖等,0,2024-09-10,2024-09-04,有限会社サン、ホテル,,有限会社,新潟県,妙高市,大字赤倉字南５４９番地８９,,15,217,9492111,,,2024-09-04,清算の結了等,,,2015-10-05,1,,,,,サンホテル,0
658,3120001204114,登記記録の閉鎖等,0,2024-09-10,2024-09-04,ｗｅｌｐ株式会社,,株式会社,東京都,中央区,八丁堀３丁目１６番６号,,13,102,1040032,,,2024-09-04,合併による解散等,4120001163920,令和６年９月１日大阪市中央区南船場四丁目４番２１号キャル株式会社（4120001163920）に合併し解散,2017-03-03,1,,,,,ウェルプ,0
662,3120002054566,登記記録の閉鎖等,0,2024-09-10,2024-09-06,有限会社ケミカルヘルスサイエンス・ジャパン,,有限会社,大阪府,大阪市淀川区,三津屋北１丁目３６番１０号,,27,123,5320032,,,2024-09-06,清算の結了等,,,2015-10-05,1,,,,,ケミカルヘルスサイエンスジャパン,0
663,3120002080612,登記記録の閉鎖等,0,2024-09-10,2024-09-03,有限会社寿寿ファミリー,,有限会社,大阪府,大阪市東成区,深江南１丁目１２番３号たんぽぽ深江ビル２０２号,,27,115,5370002,,,2024-09-03,合併による解散等,5120003018865,令和６年９月１日大阪市東成区深江南一丁目１２番３号たんぽぽ深江ビル２０２号合同会社カラーズ（5120003018865）に合併し解散,2015-10-05,1,,,,,スズファミリー,0
667,3120101025815,登記記録の閉鎖等,0,2024-09-10,2024-09-05,株式会社ムラヤス,,株式会社,大阪府,松原市,新堂３丁目１２４番地の１２,,27,217,5800015,,,2024-09-05,清算の結了等,,,2015-10-05,1,,,,,ムラヤス,0
668,3120101048386,登記記録の閉鎖等,0,2024-09-10,2024-09-04,株式会社ハーモニー,,株式会社,大阪府,富田林市,津々山台１丁目２番２５号,,27,214,5840086,,,2024-09-04,清算の結了等,,,2015-10-05,1,,,,,ハーモニー,0
670,3120102024493,登記記録の閉鎖等,0,2024-09-10,2024-09-05,有限会社日納商会,,有限会社,大阪府,泉佐野市,南中安松１１０７番地,,27,213,5980033,,,2024-09-05,清算の結了等,,,2015-10-05,1,,,,,ヒノウショウカイ,0
693,3140005022824,登記記録の閉鎖等,0,2024-09-10,2024-09-03,ＮＰＯ法人アルコイリススポーツクラブ,,その他の設立登記法人,兵庫県,神戸市須磨区,桜木町１丁目４番１７号,,28,107,6540066,,,2024-09-03,清算の結了等,,,2016-03-04,1,,,,,アルコイリススポーツクラブ,0
700,3180001076622,登記記録の閉鎖等,0,2024-09-10,2024-09-06,株式会社ユニオン興産,,株式会社,愛知県,小牧市,川西１丁目２番地,,23,219,4850045,,,2024-09-06,合併による解散等,2120901009662,令和６年９月１日大阪府摂津市千里丘二丁目１４番６号株式会社田邊空気機械製作所（2120901009662）に合併し解散,2015-10-05,1,,,,,ユニオンコウサン,0
703,3180001151763,登記記録の閉鎖等,0,2024-09-10,2024-09-02,株式会社プエオジャパン,,株式会社,愛知県,名古屋市中区,丸の内２丁目１５番４号,,23,106,4600002,,,2024-09-02,清算の結了等,,,2022-06-17,1,,,,,プエオジャパン,0
704,3180003011206,登記記録の閉鎖等,0,2024-09-10,2024-09-02,合資会社江口屋,,合資会社,愛知県,犬山市,大字犬山字東古券１３４番地の２,,23,215,4840083,,,2024-09-02,清算の結了等,,,2015-10-05,1,,,,,エグチヤ,0
727,3250005004662,登記記録の閉鎖等,0,2024-09-10,2024-09-05,浄念寺,,その他の設立登記法人,山口県,長門市,油谷川尻４９５番地,,35,211,7594621,,,2024-09-05,清算の結了等,,,2015-10-05,1,,,,,ジョウネンジ,0
728,3260001017139,登記記録の閉鎖等,0,2024-09-10,2024-09-02,株式会社アクシーズソーイング,,株式会社,岡山県,倉敷市,児島田の口１丁目３番４４号,,33,202,7110903,,,2024-09-02,合併による解散等,2360001006438,令和６年８月３１日岡山県倉敷市児島田の口一丁目３番４４号アクシーズ株式会社（2360001006438）に合併し解散,2015-10-05,1,,,,,アクシーズソーイング,0
731,3260002025371,登記記録の閉鎖等,0,2024-09-10,2024-09-02,古川有限会社,,有限会社,岡山県,笠岡市,笠岡２４１８番地,,33,205,7140081,,,2024-09-02,清算の結了等,,,2015-10-05,1,,,,,フルカワ,0
732,3270002000340,登記記録の閉鎖等,0,2024-09-10,2024-09-09,有限会社大田商店,,有限会社,鳥取県,鳥取市,吉成南町１丁目５番３号,,31,201,6800871,,,2024-09-09,清算の結了等,,,2015-10-05,1,,,,,オオタショウテン,0
734,3270002010562,登記記録の閉鎖等,0,2024-09-10,2024-09-06,有限会社美建,,有限会社,鳥取県,倉吉市,関金町大鳥居１０６７番地３５,,31,203,6820402,,,2024-09-06,清算の結了等,,,2015-10-05,1,,,,,ビケン,0
744,3320002008031,登記記録の閉鎖等,0,2024-09-10,2024-09-06,甲斐鐵工有限会社,,有限会社,大分県,大分市,萩原１丁目５番１７号,,44,201,8700921,,,2024-09-06,清算の結了等,,,2015-10-05,1,,,,,カイテッコウ,0
745,3320002011596,登記記録の閉鎖等,0,2024-09-10,2024-09-06,有限会社ベストサインワークス,,有限会社,大分県,別府市,若草町５番１６号,,44,202,8740925,,,2024-09-06,清算の結了等,,,2015-10-05,1,,,,,,0
755,3380001016418,登記記録の閉鎖等,0,2024-09-10,2024-09-02,株式会社青田設備,,株式会社,福島県,双葉郡大熊町,大字下野上字大野４５５番地,,07,545,9791308,,,2024-09-02,清算の結了等,,,2015-10-05,1,,,,,アオタセツビ,0
758,3380002013050,登記記録の閉鎖等,0,2024-09-10,2024-09-05,有限会社ライフステーション,,有限会社,福島県,郡山市,池ノ台１９番３３号,,07,203,9638875,,,2024-09-05,清算の結了等,,,2015-10-05,1,,,,,,0
787,4010401100451,登記記録の閉鎖等,0,2024-09-10,2024-08-13,Ｄａｔａ　Ｔａｉｌｏｒ株式会社,,株式会社,東京都,港区,南青山５丁目１０番２号,,13,103,1070062,,,2024-08-13,合併による解散等,3010401068418,令和６年８月１日東京都港区南青山五丁目１０番２号ＩＮＣＬＵＳＩＶＥ株式会社（3010401068418）に合併し解散,2015-10-05,1,,,,,データテイラー,0
801,4010601013924,登記記録の閉鎖等,0,2024-09-10,2024-09-06,株式会社ナカヤマ,,株式会社,東京都,墨田区,東駒形４丁目１７番９号,,13,107,1300005,,,2024-09-06,清算の結了等,,,2015-10-05,1,,,,,ナカヤマ,0
823,4011101095965,登記記録の閉鎖等,0,2024-09-10,2024-08-26,株式会社ＧＣＭ,,株式会社,東京都,新宿区,新宿２丁目３番１１号ＶＯＲＴ新宿御苑３階,,13,104,1600022,,,2024-08-26,清算の結了等,,,2021-08-12,1,,,,,ジーシーエム,0
837,4011801005959,登記記録の閉鎖等,0,2024-09-10,2024-09-05,株式会社泉建築積算事務所,,株式会社,東京都,足立区,綾瀬４丁目９番１８号,,13,121,1200005,,,2024-09-05,清算の結了等,,,2015-10-05,1,,,,,イズミケンチクセキサンジムショ,0
841,4013102002090,登記記録の閉鎖等,0,2024-09-10,2024-09-09,有限会社セイエイ工業,,有限会社,東京都,青梅市,富岡２丁目６６４番３,,13,205,1980002,,,2024-09-09,清算の結了等,,,2015-10-05,1,,,,,セイエイコウギョウ,0
862,4020003005503,登記記録の閉鎖等,0,2024-09-10,2024-08-28,合資会社美和乃湯,,合資会社,神奈川県,川崎市川崎区,渡田４丁目２番４号,,14,131,2100837,,,2024-08-28,清算の結了等,,,2015-10-05,1,,,,,ミワノユ,0
871,4021002037520,登記記録の閉鎖等,0,2024-09-10,2024-09-04,有限会社ウィズ,,有限会社,神奈川県,秦野市,南矢名５丁目１２番１１号,,14,211,2570003,,,2024-09-04,清算の結了等,,,2015-10-05,1,,,,,ウィズ,0
881,4030002077286,登記記録の閉鎖等,0,2024-09-10,2024-09-04,有限会社深道製作所,,有限会社,埼玉県,入間郡三芳町,大字上富２２９７番地２４,,11,324,3540045,,,2024-09-04,清算の結了等,,,2015-10-05,1,,,,,フカミチセイサクジョ,0
883,4030003010361,登記記録の閉鎖等,0,2024-09-10,2024-09-03,合同会社永侑,,合同会社,埼玉県,蕨市,塚越１丁目７番３号,,11,223,3350002,,,2024-09-03,清算の結了等,,,2017-05-31,1,,,,,エイユウ,0
888,4040001118370,登記記録の閉鎖等,0,2024-09-10,2024-09-03,株式会社ＪＯＧ,,株式会社,千葉県,柏市,旭町５丁目３番９号,,12,217,2770852,,,2024-09-03,清算の結了等,,,2021-05-11,1,,,,,ジョグ,0
895,4050002025029,登記記録の閉鎖等,0,2024-09-10,2024-08-30,有限会社ツルミテクノ,,有限会社,茨城県,古河市,本町１丁目２番１５号,,08,204,3060023,,,2024-08-30,清算の結了等,,,2015-10-05,1,,,,,ツルミテクノ,0
896,4050002041819,登記記録の閉鎖等,0,2024-09-10,2024-09-04,有限会社インテリア塩屋,,有限会社,茨城県,筑西市,稲野辺２４１番地,,08,227,3080805,,,2024-09-04,清算の結了等,,,2015-10-05,1,,,,,インテリアシオヤ,0
912,4110002005866,登記記録の閉鎖等,0,2024-09-10,2024-09-04,有限会社ヘリオトロープ新潟,,有限会社,新潟県,新潟市中央区,近江２丁目１８番４号,,15,103,9500971,,,2024-09-04,清算の結了等,,,2015-10-05,1,,,,,ヘリオトロープニイガタ,0
931,4120902020154,登記記録の閉鎖等,0,2024-09-10,2024-09-03,有限会社吉田建装,,有限会社,大阪府,豊中市,上津島３丁目１番２９号,,27,203,5610843,,,2024-09-03,清算の結了等,,,2015-10-05,1,,,,,ヨシダケンソウ,0
935,4122005000331,登記記録の閉鎖等,0,2024-09-10,2024-09-06,大阪オーエヌ金属工業協同組合,,その他の設立登記法人,大阪府,東大阪市,箕輪３丁目６番８２号,,27,227,5780914,,,2024-09-06,清算の結了等,,,2015-10-05,1,,,,,オオサカオーエヌキンゾクコウギョウ,0
944,4140001067087,登記記録の閉鎖等,0,2024-09-10,2024-09-02,株式会社ウォーターシステム,,株式会社,兵庫県,三田市,武庫が丘２丁目１３番地の８,,28,219,6691544,,,2024-09-02,清算の結了等,,,2015-10-05,1,,,,,ウォーターシステム,0
954,4150001007629,登記記録の閉鎖等,0,2024-09-10,2024-09-06,株式会社タクエー,,株式会社,奈良県,奈良市,東登美ヶ丘４丁目７番１２号,,29,201,6310002,,,2024-09-06,清算の結了等,,,2015-10-05,1,,,,,タクエー,0
967,4180003015057,登記記録の閉鎖等,0,2024-09-10,2024-09-02,合同会社Ｌｅｉａｌｏｈａ,,合同会社,愛知県,北名古屋市,二子曙５９番地４,,23,234,4810013,,,2024-09-02,清算の結了等,,,2015-10-05,1,,,,,レイアロハ,0
989,4260002001223,登記記録の閉鎖等,0,2024-09-10,2024-09-03,有限会社栄進工業,,有限会社,岡山県,岡山市南区,万倍１１８番地の２５,,33,104,7000955,,,2024-09-03,清算の結了等,,,2015-10-05,1,,,,,エイシンコウギョウ,0
992,4280002008308,登記記録の閉鎖等,0,2024-09-10,2024-09-09,佐々木工業有限会社,,有限会社,島根県,浜田市,宇野町９０４番地,,32,202,6950102,,,2024-09-09,清算の結了等,,,2015-10-05,1,,,,,ササキコウギョウ,0
994,4290001058121,登記記録の閉鎖等,0,2024-09-10,2024-08-01,株式会社ＷＦ　Ｄｉｍｅｎｓｉｏｎ,,株式会社,福岡県,福岡市西区,横浜１丁目５番１号,,40,135,8190166,,,2024-08-01,清算の結了等,,,2015-10-05,1,,,,,ダブルエフディメンション,0
995,4290001099041,登記記録の閉鎖等,0,2024-09-10,2024-08-05,株式会社夢ｐｏｎｏ,,株式会社,福岡県,久留米市,小森野町２５２９－１－２－７０１,,40,203,8300019,,,2024-08-05,清算の結了等,,,2022-10-03,1,,,,,ユメポノ,0
1015,4360005004824,登記記録の閉鎖等,0,2024-09-10,2024-09-05,一般社団法人ジョブリッジ研究所,,その他の設立登記法人,沖縄県,那覇市,久米１丁目２４番１４号あきひろビル３階,,47,201,9000033,,,2024-09-05,清算の結了等,,,2015-10-05,1,,,,,ジョブリッジケンキュウショ,0
1016,4370001021533,登記記録の閉鎖等,0,2024-09-10,2024-09-02,株式会社ティ・ケイ・ワイ,,株式会社,宮城県,仙台市青葉区,荒巻中央１０番１２号ラ・パルク山の手２０７,,04,101,9810964,,,2024-09-02,清算の結了等,,,2015-10-05,1,,,,,ティケイワイ,0
1020,4380002023882,登記記録の閉鎖等,0,2024-09-10,2024-09-05,有限会社さはこ酒店,,有限会社,福島県,いわき市,常磐湯本町三凾９７番地,,07,204,9728321,,,2024-09-05,清算の結了等,,,2015-10-05,1,,,,,サハコサケテン,0
1033,4500001020257,登記記録の閉鎖等,0,2024-09-10,2024-09-04,株式会社ＹＳＰ松山東,,株式会社,愛媛県,松山市,来住町１２４０番地２０,,38,201,7911102,,,2024-09-04,清算の結了等,,,2016-12-07,1,,,,,ワイエスピーマツヤマヒガシ,0
1050,5010005017249,登記記録の閉鎖等,0,2024-09-10,2024-09-03,技術研究組合ＮＭＥＭＳ技術研究機構,,その他の設立登記法人,東京都,千代田区,神田佐久間河岸６７,,13,101,1010026,,,2024-09-03,清算の結了等,,,2015-10-05,1,,,,,エヌメムスギジュツケンキュウキコウ,0
1053,5010401010162,登記記録の閉鎖等,0,2024-09-10,2024-08-16,株式会社コスモサービス,,株式会社,東京都,港区,赤坂９丁目６番２９号,,13,103,1070052,,,2024-08-16,清算の結了等,,,2015-10-05,1,,,,,,0
1054,5010401065652,登記記録の閉鎖等,0,2024-09-10,2024-08-19,株式会社ＧＲＡＺＩＡ　ｐｉｕ　ＧＡ,,株式会社,東京都,港区,北青山２丁目７番２５号,,13,103,1070061,,,2024-08-19,清算の結了等,,,2015-10-05,1,,,,,グラッツィアピュウジーエー,0
1065,5010801015182,登記記録の閉鎖等,0,2024-09-10,2024-09-04,株式会社日本資材,,株式会社,東京都,大田区,久が原５丁目２２番９号,,13,111,1460085,,,2024-09-04,清算の結了等,,,2015-10-05,1,,,,,ニホンシザイ,0
1067,5010901008219,登記記録の閉鎖等,0,2024-09-10,2024-09-06,東光石油販売株式会社,,株式会社,東京都,世田谷区,玉川１丁目１８番６号,,13,112,1580094,,,2024-09-06,清算の結了等,,,2015-10-05,1,,,,,トウコウセキユハンバイ,0
1068,5010901015941,登記記録の閉鎖等,0,2024-09-10,2024-09-06,株式会社ＣＬＩＯＮＥ,,株式会社,神奈川県,厚木市,妻田西２丁目１４番１１号,,14,212,2430815,,,2024-09-06,清算の結了等,,,2015-10-05,1,,,,,クリオネ,0
1070,5011001042380,登記記録の閉鎖等,0,2024-09-10,2024-08-28,株式会社エフタイム,,株式会社,東京都,新宿区,左門町６番地３,,13,104,1600017,,,2024-08-28,清算の結了等,,,2015-10-05,1,,,,,エフタイム,0
1071,5011001071231,登記記録の閉鎖等,0,2024-09-10,2024-08-20,株式会社ｍｈ－ｗｏｒｋｓ,,株式会社,東京都,渋谷区,神宮前４丁目２６番２８号２Ｆ,,13,113,1500001,,,2024-08-20,清算の結了等,,,2015-10-05,1,,,,,エムエイチワークス,0
1103,5013303005370,登記記録の閉鎖等,0,2024-09-10,2024-09-05,株式会社グッドワン,,株式会社,東京都,豊島区,東池袋１丁目３４番５号いちご東池袋ビル６階,,13,116,1700013,,,2024-09-05,清算の結了等,,,2020-10-22,1,,,,,グッドワン,0
1127,5030001047272,登記記録の閉鎖等,0,2024-09-10,2024-09-06,マックホーム株式会社,,株式会社,埼玉県,朝霞市,東弁財３丁目１６番５号,,11,227,3510022,,,2024-09-06,合併による解散等,4011301002770,令和６年９月１日東京都杉並区西荻北二丁目１番１１号株式会社メルディア（4011301002770）に合併し解散,2015-10-05,1,,,,,マックホーム,0
1133,5030001128205,登記記録の閉鎖等,0,2024-09-10,2024-08-22,日信株式会社,,株式会社,埼玉県,三郷市,栄４丁目３１３番地４,,11,237,3410043,,,2024-08-22,清算の結了等,,,2018-11-12,1,,,,,ニッシン,0
1134,5030001132495,登記記録の閉鎖等,0,2024-09-10,2024-08-30,株式会社華彩,,株式会社,埼玉県,さいたま市大宮区,仲町１丁目９１吉建ビル１Ｆ,,11,103,3300845,,,2024-08-30,清算の結了等,,,2019-08-20,1,,,,,カサイ,0
1144,5040001095477,登記記録の閉鎖等,0,2024-09-10,2024-09-04,株式会社勝原福祉サービス,,株式会社,千葉県,千葉市花見川区,横戸台１８番地７,,12,102,2620006,,,2024-09-04,清算の結了等,,,2016-05-27,1,,,,,カツハラフクシサービス,0
1146,5040002004024,登記記録の閉鎖等,0,2024-09-10,2024-09-03,有限会社興亜建商,,有限会社,千葉県,千葉市若葉区,若松町２１６１番地１６,,12,104,2640021,,,2024-09-03,清算の結了等,,,2015-10-05,1,,,,,コウアケンショウ,0
1149,5040002089932,登記記録の閉鎖等,0,2024-09-10,2024-09-02,有限会社桜電健,,有限会社,千葉県,柏市,布施９９１番地１６,,12,217,2770825,,,2024-09-02,清算の結了等,,,2015-10-05,1,,,,,サクラデンケン,0
1150,5040003003264,登記記録の閉鎖等,0,2024-09-10,2024-09-04,エス・エス企画合同会社,,合同会社,千葉県,市川市,菅野６丁目１９番８号,,12,203,2720824,,,2024-09-04,清算の結了等,,,2015-10-05,1,,,,,エスエスキカク,0
1163,5050002028699,登記記録の閉鎖等,0,2024-09-10,2024-09-04,あさひタクシー有限会社,,有限会社,茨城県,行方市,麻生１２１４番地の１,,08,233,3113832,,,2024-09-04,清算の結了等,,,2015-10-05,1,,,,,アサヒタクシー,0
1172,5080402000890,登記記録の閉鎖等,0,2024-09-10,2024-09-02,有限会社一佑,,有限会社,静岡県,浜松市中央区,有玉台１丁目１３番２５号,,22,138,4313126,,,2024-09-02,清算の結了等,,,2015-10-05,1,,,,,イチユウ,0
1185,5120001022712,登記記録の閉鎖等,0,2024-09-10,2024-09-06,株式会社アップ・システムサービス,,株式会社,大阪府,大阪市天王寺区,上本町８丁目９番２３号,,27,109,5430001,,,2024-09-06,清算の結了等,,,2015-10-05,1,,,,,アップシステムサービス,0
1186,5120001086451,登記記録の閉鎖等,0,2024-09-10,2024-09-06,マルオカ株式会社,,株式会社,大阪府,大阪市中央区,心斎橋筋２丁目８番８号,,27,128,5420085,,,2024-09-06,清算の結了等,,,2015-10-05,1,,,,,マルオカ,0
1188,5120001236295,登記記録の閉鎖等,0,2024-09-10,2024-09-06,株式会社Ｃｏｎｃｅｐｔ３．０,,株式会社,大阪府,大阪市浪速区,難波中３丁目７－１７－２０２号,,27,111,5560011,,,2024-09-06,清算の結了等,,,2021-04-12,1,,,,,コンセプト,0
1193,5120002007646,登記記録の閉鎖等,0,2024-09-10,2024-09-06,有限会社アイテム建築事務所,,有限会社,大阪府,大阪市城東区,今福南１丁目９番１７号,,27,118,5360003,,,2024-09-06,清算の結了等,,,2015-10-05,1,,,,,アイテムケンチクジムショ,0
1211,5140001107437,登記記録の閉鎖等,0,2024-09-10,2024-09-06,株式会社ＫＡＴＹ,,株式会社,大阪府,大阪市城東区,諏訪４丁目３番５号グレース青木２０１,,27,118,5360021,,,2024-09-06,清算の結了等,,,2017-09-07,1,,,,,ケイティ,0
1214,5140005006395,登記記録の閉鎖等,0,2024-09-10,2024-09-06,特定非営利活動法人機械設計マイスター協会,,その他の設立登記法人,兵庫県,明石市,本町２丁目９番６号,,28,203,6730892,,,2024-09-06,清算の結了等,,,2015-10-05,1,,,,,キカイセッケイマイスターキョウカイ,0
1216,5140005022368,登記記録の閉鎖等,0,2024-09-10,2024-09-05,一般社団法人ｅｘｐａｎｄ,,その他の設立登記法人,兵庫県,神戸市東灘区,御影塚町２丁目２５番２号,,28,101,6580044,,,2024-09-05,清算の結了等,,,2015-10-05,1,,,,,エクスパンド,0
1220,5180001015371,登記記録の閉鎖等,0,2024-09-10,2024-09-02,平子精工株式会社,,株式会社,愛知県,名古屋市南区,道全町３丁目４６番地,,23,112,4570076,,,2024-09-02,合併による解散等,2180001047509,令和６年９月１日愛知県春日井市八田町二丁目１１番地２３株式会社カルテックス（2180001047509）に合併し解散,2015-10-05,1,,,,,ヒラコセイコウ,0
1223,5180001085308,登記記録の閉鎖等,0,2024-09-10,2024-09-02,株式会社濱工房,00072381,株式会社,愛知県,一宮市,大和町苅安賀字佐平治前５７番地２,,23,203,4910934,,,2024-09-02,清算の結了等,,,2015-10-05,1,,,,,ハマコウボウ,0
1231,5180003026978,登記記録の閉鎖等,0,2024-09-10,2024-09-02,合同会社ＹＵＪＩ２号,,合同会社,愛知県,名古屋市北区,辻本通１丁目５３番地,00135454,23,103,4620861,,,2024-09-02,清算の結了等,,,2024-07-03,1,,,,,ユージニゴウ,0
1233,5180301008843,登記記録の閉鎖等,0,2024-09-10,2024-09-06,渥美工業株式会社,,株式会社,愛知県,豊橋市,忠興３丁目１２番地３,,23,201,4400004,,,2024-09-06,清算の結了等,,,2015-10-05,1,,,,,アツミコウギョウ,0
1245,5220001024054,登記記録の閉鎖等,0,2024-09-10,2024-09-02,株式会社ＭＳＫ北陸,,株式会社,石川県,金沢市,二ツ屋町８番１号,,17,201,9200065,,,2024-09-02,清算の結了等,,,2021-03-26,1,,,,,エムエスケイホクリク,0
1270,5290802012366,登記記録の閉鎖等,0,2024-09-10,2024-09-06,有限会社今泉商店,,有限会社,福岡県,北九州市若松区,南二島２丁目２番１号,,40,103,8080109,,,2024-09-06,清算の結了等,,,2015-10-05,1,,,,,イマイズミショウテン,0
1288,5370201003215,登記記録の閉鎖等,0,2024-09-10,2024-09-06,株式会社小野酸素,,株式会社,宮城県,栗原市,若柳字川北東若柳１９８番地,,04,213,9895501,,,2024-09-06,合併による解散等,9030001003544,令和６年９月１日埼玉県さいたま市大宮区桜木町一丁目１１番地５株式会社サイサン（9030001003544）に合併し解散,2015-10-05,1,,,,,オノサンソ,0
1290,5370202001424,登記記録の閉鎖等,0,2024-09-10,2024-08-28,有限会社オラシオン,,有限会社,宮城県,遠田郡美里町,青生字新鳴瀬１７４番地,,04,505,9870015,,,2024-08-28,清算の結了等,,,2015-10-05,1,,,,,,0
1295,5380001026555,登記記録の閉鎖等,0,2024-09-10,2024-09-05,株式会社一京,,株式会社,福島県,郡山市,池ノ台１９番３３号,,07,203,9638875,,,2024-09-05,清算の結了等,,,2016-03-02,1,,,,,,0
1299,5380002030382,登記記録の閉鎖等,0,2024-09-10,2024-09-02,有限会社フレンドショップかねこ,,有限会社,福島県,双葉郡大熊町,大字下野上字大野４２３番地,,07,545,9791308,,,2024-09-02,清算の結了等,,,2015-10-05,1,,,,,フレンドショップカネコ,0
1303,5420002009983,登記記録の閉鎖等,0,2024-09-10,2024-09-05,川福製材有限会社,,有限会社,青森県,三戸郡南部町,大字剣吉字五合田９番地１,,02,445,0390612,,,2024-09-05,清算の結了等,,,2015-10-05,1,,,,,カワフクセイザイ,0
1314,5470002016884,登記記録の閉鎖等,0,2024-09-10,2024-09-06,有限会社モリ建工,,有限会社,香川県,三豊市,仁尾町仁尾丙９７８番地の１,,37,208,7691403,,,2024-09-06,清算の結了等,,,2015-10-05,1,,,,,モリケンコウ,0
1328,6010401107321,登記記録の閉鎖等,0,2024-09-10,2024-09-04,ＪＥＮ胎内ウインドファーム株式会社,,株式会社,新潟県,胎内市,松波１０１３番４０,,15,227,9592600,,,2024-09-04,清算の結了等,,,2015-10-05,1,,,,,ジェイイーエヌタイナイウインドファーム,0
1376,6013105001682,登記記録の閉鎖等,0,2024-09-10,2024-09-06,ＮＰＯ法人Ｍａｎａネコハウス,,その他の設立登記法人,東京都,羽村市,羽中２丁目１９番２号,,13,227,2050015,,,2024-09-06,清算の結了等,,,2017-06-14,1,,,,,マナネコハウス,0
1378,6013305003462,登記記録の閉鎖等,0,2024-09-10,2024-09-04,特定非営利活動法人ないｘない,,その他の設立登記法人,東京都,豊島区,西池袋５丁目１番３号メトロシティ２Ｆ,,13,116,1710021,,,2024-09-04,清算の結了等,,,2023-04-21,1,,,,,ナイトナイ,0
1389,6020002029179,登記記録の閉鎖等,0,2024-09-10,2024-08-27,有限会社豊玉,,有限会社,神奈川県,横浜市南区,蒔田町字三度台１０１８番地の１５ワコーレロイヤルヒルズ横浜蒔田４１８号,,14,105,2320043,,,2024-08-27,清算の結了等,,,2015-10-05,1,,,,,トヨタマ,0
1399,6021001047163,登記記録の閉鎖等,0,2024-09-10,2024-09-06,スクラム・サイエンス株式会社,,株式会社,神奈川県,鎌倉市,佐助２丁目２８番６号,,14,204,2480017,,,2024-09-06,清算の結了等,,,2015-10-05,1,,,,,スクラムサイエンス,0
1403,6021002022652,登記記録の閉鎖等,0,2024-09-10,2024-09-09,有限会社東南ゴム,,有限会社,神奈川県,相模原市中央区,田名２１６５番地１３,,14,152,2520244,,,2024-09-09,清算の結了等,,,2015-10-05,1,,,,,トウナンゴム,0
1419,6030002083150,登記記録の閉鎖等,0,2024-09-10,2024-09-03,有限会社小川美容院,,有限会社,埼玉県,北本市,北本１丁目１５０番地,,11,233,3640006,,,2024-09-03,清算の結了等,,,2015-10-05,1,,,,,オガワビヨウイン,0
1421,6040001111753,登記記録の閉鎖等,0,2024-09-10,2024-09-03,株式会社３１２,,株式会社,千葉県,習志野市,新栄１丁目１１番３－８０２号,,12,216,2750005,,,2024-09-03,清算の結了等,,,2019-12-09,1,,,,,サンイチニ,0
1431,6050001045538,登記記録の閉鎖等,0,2024-09-10,2024-09-03,株式会社銀座惣菜店,,株式会社,茨城県,つくば市,学園の森１丁目１４番地７,,08,220,3050816,,,2024-09-03,合併による解散等,9050001012626,令和６年９月１日茨城県つくば市研究学園五丁目２５番地１６株式会社ＫＳフロンティア（9050001012626）に合併し解散,2019-02-05,1,,,,,ギンザソウザイテン,0
1432,6050002003890,登記記録の閉鎖等,0,2024-09-10,2024-09-04,有限会社堀工業,,有限会社,茨城県,東茨城郡茨城町,大字上雨ヶ谷４５２番地,,08,302,3113145,,,2024-09-04,清算の結了等,,,2015-10-05,1,,,,,ホリコウギョウ,0
1437,6070002023029,登記記録の閉鎖等,0,2024-09-10,2024-09-06,有限会社角進建業,,有限会社,群馬県,桐生市,黒保根町下田沢２７７１番地１,,10,203,3760144,,,2024-09-06,清算の結了等,,,2015-10-05,1,,,,,カクシンケンギョウ,0
1447,6100002019320,登記記録の閉鎖等,0,2024-09-10,2024-08-30,有限会社エー・エイチ・クサマ,,有限会社,長野県,松本市,埋橋１丁目３番２１号,,20,202,3900813,,,2024-08-30,清算の結了等,,,2015-10-05,1,,,,,エーエイチクサマ,0
1449,6110001002012,登記記録の閉鎖等,0,2024-09-10,2024-09-06,株式会社近藤塗料,,株式会社,新潟県,新潟市東区,紫竹５丁目３番２号,,15,102,9500864,,,2024-09-06,合併による解散等,5180001091702,令和６年９月１日愛知県半田市住吉町三丁目３４番地株式会社榊原（5180001091702）に合併し解散,2015-10-05,1,,,,,コンドウトリョウ,0
1451,6110002021473,登記記録の閉鎖等,0,2024-09-10,2024-09-04,有限会社あめや,,有限会社,新潟県,村上市,安良町２番８号,,15,212,9580846,,,2024-09-04,清算の結了等,,,2015-10-05,1,,,,,アメヤ,0
1454,6120001104096,登記記録の閉鎖等,0,2024-09-10,2024-09-06,株式会社浜坂事務所,,株式会社,大阪府,大阪市浪速区,元町１丁目１１番１６－２０４号,,27,111,5560016,,,2024-09-06,清算の結了等,,,2015-10-05,1,,,,,ハマサカジムショ,0
1467,6120101035737,登記記録の閉鎖等,0,2024-09-10,2024-09-06,株式会社燦遊喜,,株式会社,大阪府,大阪市平野区,加美南３丁目３番３１号,,27,126,5470003,,,2024-09-06,清算の結了等,,,2015-10-05,1,,,,,サンユウキ,0
1475,6130001046759,登記記録の閉鎖等,0,2024-09-10,2024-09-02,株式会社ＢＲＩＤＡＬ　ＯＰＥＲＡＴＯＲ,,株式会社,京都府,京都市左京区,一乗寺北大丸町９番地,,26,103,6068114,,,2024-09-02,合併による解散等,8130001006224,令和６年９月１日京都市左京区一乗寺北大丸町９番地株式会社響映（8130001006224）に合併し解散,2015-10-05,1,,,,,ブライダルオペレーター,0
1488,6170001002171,登記記録の閉鎖等,0,2024-09-10,2024-09-09,テクノ関西株式会社,,株式会社,和歌山県,和歌山市,栄谷２３７番地の１,,30,201,6408441,,,2024-09-09,清算の結了等,,,2015-10-05,1,,,,,テクノカンサイ,0
1492,6180001152503,登記記録の閉鎖等,0,2024-09-10,2024-09-02,ＢａｂａＣｏｎｄａ　Ｔｅｃｈ株式会社,,株式会社,愛知県,名古屋市中村区,平池町４丁目６０番１２号グローバルゲート１１Ｆ,,23,105,4530872,,,2024-09-02,清算の結了等,,,2022-08-08,1,,,,,ババコンダテック,0
1523,6270001008522,登記記録の閉鎖等,0,2024-09-10,2024-09-06,株式会社鳥取砂丘ムーンパーク,,株式会社,鳥取県,鳥取市,千代水２丁目８８番地,,31,201,6800911,,,2024-09-06,清算の結了等,,,2022-05-20,1,,,,,トットリサキュウムーンパーク,0
1527,6290001088257,登記記録の閉鎖等,0,2024-09-10,2024-08-05,株式会社コスモウェル,,株式会社,福岡県,福岡市博多区,博多駅前４丁目３０番２２号,,40,132,8120011,,,2024-08-05,清算の結了等,,,2020-03-06,1,,,,,コスモウェル,0
1531,6290002028419,登記記録の閉鎖等,0,2024-09-10,2024-08-05,美術総業白美堂有限会社,,有限会社,福岡県,福岡市中央区,大名２丁目１２番１０号第２赤坂ビル３Ｆ,,40,133,8100041,,,2024-08-05,清算の結了等,,,2015-10-05,1,,,,,,0
1539,6310001013939,登記記録の閉鎖等,0,2024-09-10,2024-09-04,株式会社ミウラデザイン事ム所,,株式会社,長崎県,長崎市,出雲１丁目１０番２－７０１号,,42,201,8500924,,,2024-09-04,清算の結了等,,,2015-11-13,1,,,,,ミウラデザインジムショ,0
1540,6310002012064,登記記録の閉鎖等,0,2024-09-10,2024-09-04,有限会社ライフ企画社,,有限会社,長崎県,佐世保市,福石町１５番４号,,42,202,8570854,,,2024-09-04,清算の結了等,,,2015-10-05,1,,,,,ライフキカクシャ,0
1544,6330002008283,登記記録の閉鎖等,0,2024-09-10,2024-09-03,有限会社パツシヨンカツト・エス・ケープ,,有限会社,熊本県,熊本市中央区,上林町１番２８号上通センタービル３０２号,,43,101,8600847,,,2024-09-03,清算の結了等,,,2015-10-05,1,,,,,パツシヨンカツトエスケープ,0
1555,6370001045811,登記記録の閉鎖等,0,2024-09-10,2024-09-02,仙台みちのく商会株式会社,,株式会社,宮城県,仙台市青葉区,一番町２丁目１０番２６号旭コーポラス一番町Ｂ棟３１３号,,04,101,9800811,,,2024-09-02,清算の結了等,,,2020-06-03,1,,,,,センダイミチノクショウカイ,0
1570,6430001068079,登記記録の閉鎖等,0,2024-09-10,2024-09-03,株式会社ドゥーサ,,株式会社,千葉県,千葉市中央区,富士見２丁目７番９号富士見ビル６０９号,,12,101,2600015,,,2024-09-03,清算の結了等,,,2015-10-05,1,,,,,ドゥーサ,0
1596,7010003018189,登記記録の閉鎖等,0,2024-09-10,2024-08-30,ローズ・シッピング合同会社,,合同会社,東京都,千代田区,丸の内３丁目１番１号東京共同会計事務所内,,13,101,1000005,,,2024-08-30,清算の結了等,,,2015-10-05,1,,,,,ローズシッピング,0
1609,7010405021039,登記記録の閉鎖等,0,2024-09-10,2024-08-19,一般社団法人Ｐｅｎｉｎｓｕｌａ４,,その他の設立登記法人,東京都,港区,虎ノ門５丁目１番４号,,13,103,1050001,,,2024-08-19,清算の結了等,,,2022-05-24,1,,,,,ペニンシュラフォー,0
1617,7010801020180,登記記録の閉鎖等,0,2024-09-10,2024-09-03,ホンダシステムズ株式会社,,株式会社,東京都,大田区,山王３丁目８番９－３０２号,,13,111,1430023,,,2024-09-03,清算の結了等,,,2015-10-05,1,,,,,ホンダシステムズ,0
1633,7011401021668,登記記録の閉鎖等,0,2024-09-10,2024-08-28,株式会社永価,,株式会社,東京都,新宿区,新宿５丁目１８番２０号ルックハイツ新宿８０３号,,13,104,1600022,,,2024-08-28,清算の結了等,,,2019-03-06,1,,,,,エイカ,0
1635,7012401030799,登記記録の閉鎖等,0,2024-09-10,2024-09-05,共同ロジスティックス株式会社,,株式会社,埼玉県,狭山市,大字水野８４６番地の８,,11,215,3501317,,,2024-09-05,合併による解散等,3011101009760,令和６年７月３１日東京都新宿区百人町一丁目２５番１９号晋立印刷株式会社（3011101009760）に合併し解散,2015-12-02,1,,,,,キョウドウロジスティックス,0
1636,7012403001212,登記記録の閉鎖等,0,2024-09-10,2024-09-02,合名会社岩井,,合名会社,東京都,国立市,北３丁目３８番の１．２－５０４,,13,215,1860001,,,2024-09-02,清算の結了等,,,2015-10-05,1,,,,,イワイ,0
1642,7020001076758,登記記録の閉鎖等,0,2024-09-10,2024-08-26,ラ・サール進学会株式会社,,株式会社,神奈川県,川崎市中原区,小杉町２丁目２９７番地,,14,133,2110063,,,2024-08-26,清算の結了等,,,2015-10-05,1,,,,,ラサールシンガクカイ,0
1643,7020001084570,登記記録の閉鎖等,0,2024-09-10,2024-08-26,株式会社大友,,株式会社,神奈川県,横浜市戸塚区,秋葉町２０５番地１７,,14,110,2450052,,,2024-08-26,清算の結了等,,,2015-10-05,1,,,,,オオトモ,0
1675,7040001014369,登記記録の閉鎖等,0,2024-09-10,2024-09-02,株式会社カナイ,,株式会社,千葉県,習志野市,谷津３丁目２３番７号,,12,216,2750026,,,2024-09-02,清算の結了等,,,2015-10-05,1,,,,,カナイ,0
1679,7040001106216,登記記録の閉鎖等,0,2024-09-10,2024-09-03,株式会社ＤＡＧ,,株式会社,千葉県,千葉市中央区,中央３丁目１７番２号ライオンビル６０２Ａ,,12,101,2600013,,,2024-09-03,清算の結了等,,,2018-09-26,1,,,,,ダグ,0
1680,7040001119647,登記記録の閉鎖等,0,2024-09-10,2024-09-02,株式会社エフ・リアルティ,,株式会社,千葉県,千葉市緑区,おゆみ野３丁目２５番地３,,12,105,2660031,,,2024-09-02,清算の結了等,,,2021-08-06,1,,,,,エフリアルティ,0
1681,7040001129745,登記記録の閉鎖等,0,2024-09-10,2024-09-04,株式会社令天,,株式会社,千葉県,野田市,尾崎８４８番地の９,,12,208,2700235,,,2024-09-04,清算の結了等,,,2023-08-17,1,,,,,レイテン,0
1685,7040002028640,登記記録の閉鎖等,0,2024-09-10,2024-09-03,有限会社エコラインズ,,有限会社,千葉県,八千代市,八千代台東２丁目１２番７号,,12,221,2760032,,,2024-09-03,清算の結了等,,,2015-10-05,1,,,,,エコラインズ,0
1690,7040002092769,登記記録の閉鎖等,0,2024-09-10,2024-09-03,有限会社設計工房アウス,,有限会社,千葉県,我孫子市,並木６丁目１番３４号,,12,222,2701165,,,2024-09-03,清算の結了等,,,2015-10-05,1,,,,,セッケイコウボウアウス,0
1695,7050001042963,登記記録の閉鎖等,0,2024-09-10,2024-09-06,ケイアイネットクラウド株式会社,,株式会社,東京都,中央区,八重洲２丁目２番１号東京ミッドタウン八重洲八重洲セントラルタワー１２階,,13,102,1040028,,,2024-09-06,合併による解散等,3030001060211,令和６年９月１日埼玉県本庄市西富田７６２番地１ケイアイスター不動産株式会社（3030001060211）に合併し解散,2017-06-15,1,,,,,ケイアイネットクラウド,0
1703,7080101023084,登記記録の閉鎖等,0,2024-09-10,2024-09-04,株式会社プレミアムリゾート,,株式会社,静岡県,熱海市,渚町１５番１０号,,22,205,4130014,,,2024-09-04,清算の結了等,,,2022-02-04,1,,,,,プレミアムリゾート,0
1709,7090001013770,登記記録の閉鎖等,0,2024-09-10,2024-09-06,株式会社ムサシクリエーション,,株式会社,東京都,武蔵野市,吉祥寺南町２丁目６番１０号,,13,203,1800003,,,2024-09-06,合併による解散等,8012401018042,令和６年９月１日埼玉県入間市中神９１８番地１株式会社ムサシインテック（8012401018042）に合併し解散,2015-10-05,1,,,,,ムサシクリエーション,0
1713,7100002008306,登記記録の閉鎖等,0,2024-09-10,2024-09-02,小田切殖産有限会社,,有限会社,長野県,須坂市,田の神１２番地１４,,20,207,3820000,,,2024-09-02,清算の結了等,,,2015-10-05,1,,,,,オタギリショクサン,0
1714,7110001021374,登記記録の閉鎖等,0,2024-09-10,2024-09-04,株式会社善善,,株式会社,新潟県,十日町市,松代３７７３番地２７,,15,210,9421526,,,2024-09-04,清算の結了等,,,2015-10-05,1,,,,,ゼゼ,0
1719,7120001059546,登記記録の閉鎖等,0,2024-09-10,2024-09-06,大阪省力機械株式会社,,株式会社,奈良県,生駒市,真弓３丁目３番８号,,29,209,6300122,,,2024-09-06,清算の結了等,,,2015-10-05,1,,,,,オオサカショウリョクキカイ,0
1733,7120102005184,登記記録の閉鎖等,0,2024-09-10,2024-09-04,瞭佑有限会社,,有限会社,大阪府,堺市堺区,熊野町東１丁１番２９号,,27,141,5900946,,,2024-09-04,清算の結了等,,,2015-10-05,1,,,,,リョウユウ,0
1740,7122002014587,登記記録の閉鎖等,0,2024-09-10,2024-09-04,有限会社ヒロセ天地堂,,有限会社,大阪府,八尾市,本町４丁目３番４号,,27,212,5810003,,,2024-09-04,清算の結了等,,,2015-10-05,1,,,,,ヒロセテンチドウ,0
1756,7180001145497,登記記録の閉鎖等,0,2024-09-10,2024-09-02,株式会社まはろ,,株式会社,愛知県,名古屋市中区,栄１丁目１４番１４号御園パレス６０６号,,23,106,4600008,,,2024-09-02,清算の結了等,,,2021-04-07,1,,,,,マハロ,0
1759,7180002064614,登記記録の閉鎖等,0,2024-09-10,2024-09-02,有限会社新田自動車,,有限会社,愛知県,豊明市,新田町子持松６番地１,,23,229,4701112,,,2024-09-02,清算の結了等,,,2015-10-05,1,,,,,シンデンジドウシャ,0
1764,7190001014230,登記記録の閉鎖等,0,2024-09-10,2024-09-02,アポロン株式会社,,株式会社,三重県,四日市市,本町６番２号,,24,202,5100093,,,2024-09-02,合併による解散等,3190001015455,令和６年９月１日三重県四日市市桜町９６３番地の１株式会社竹屋（3190001015455）に合併し解散,2015-10-05,1,,,,,アポロン,0
1778,7240002031814,登記記録の閉鎖等,0,2024-09-10,2024-09-05,有限会社教育総合センターウイル,,有限会社,広島県,庄原市,中本町１丁目３番１号,,34,210,7270012,,,2024-09-05,清算の結了等,,,2015-10-05,1,,,,,キョウイクソウゴウセンターウイル,0
1785,7290001088009,登記記録の閉鎖等,0,2024-09-10,2024-09-09,株式会社ＳＴＥＫ,,株式会社,東京都,江東区,東陽７丁目４番２号東陽町ダイヤモンドマンション３０１,,13,108,1350016,,,2024-09-09,清算の結了等,,,2020-02-06,1,,,,,ステック,0
1813,7440003001201,登記記録の閉鎖等,0,2024-09-10,2024-09-03,ピア建築総合事務所合同会社,,合同会社,千葉県,柏市,柏６丁目５番３６号ハイム弥生２０４号,,12,217,2770005,,,2024-09-03,清算の結了等,,,2018-05-11,1,,,,,ピアケンチクソウゴウジムショ,0
1815,7440005002494,登記記録の閉鎖等,0,2024-09-10,2024-09-03,税理士法人鎌田総合事務所,,その他の設立登記法人,北海道,函館市,杉並町７番１８号,,01,202,0400004,,,2024-09-03,清算の結了等,,,2016-01-06,1,,,,,カマダソウゴウジムショ,0
1828,8010005019614,登記記録の閉鎖等,0,2024-09-10,2024-09-04,一般社団法人年金綜合研究所,,その他の設立登記法人,東京都,千代田区,霞が関３丁目２番５号,,13,101,1000013,,,2024-09-04,清算の結了等,,,2015-10-05,1,,,,,ネンキンソウゴウケンキュウジョ,0
1836,8010401157521,登記記録の閉鎖等,0,2024-09-10,2024-08-13,Ｎｅｗｓｌｅｔｔｅｒ　Ａｓｉａ株式会社,,株式会社,東京都,港区,南青山５丁目１０番２号,,13,103,1070062,,,2024-08-13,合併による解散等,3010401068418,令和６年８月１日東京都港区南青山五丁目１０番２号ＩＮＣＬＵＳＩＶＥ株式会社（3010401068418）に合併し解散,2021-01-08,1,,,,,ニュースレターアジア,0
1841,8010405017812,登記記録の閉鎖等,0,2024-09-10,2024-08-19,一般社団法人Ａ．Ｐ．１１,,その他の設立登記法人,東京都,港区,元赤坂１丁目１番８号赤坂コミュニティビル４階,,13,103,1070051,,,2024-08-19,清算の結了等,,,2019-06-21,1,,,,,エーピーイレブン,0
1850,8010801009545,登記記録の閉鎖等,0,2024-09-10,2024-09-04,株式会社野口電球製作所,00052176,株式会社,東京都,大田区,大森西１丁目１１番２２号,,13,111,1430015,,,2024-09-04,清算の結了等,,,2015-10-05,1,,,,,ノグチデンキュウセイサクショ,0
1852,8010802010758,登記記録の閉鎖等,0,2024-09-10,2024-09-03,有限会社中村鍍金工業所,,有限会社,東京都,大田区,南六郷１丁目２０番１６号,,13,111,1440045,,,2024-09-03,清算の結了等,,,2015-10-05,1,,,,,ナカムラメッキコウギョウショ,0
1853,8010901023685,登記記録の閉鎖等,0,2024-09-10,2024-09-06,株式会社総合環境デザイン,,株式会社,東京都,世田谷区,桜丘４丁目２４番１９号,,13,112,1560054,,,2024-09-06,清算の結了等,,,2015-10-05,1,,,,,ソウゴウカンキョウデザイン,0
1858,8011001108377,登記記録の閉鎖等,0,2024-09-10,2024-09-03,株式会社ＭＧＩコンサルティング,,株式会社,埼玉県,さいたま市大宮区,桜木町１丁目９番４号エクセレント大宮２Ｆ,,11,103,3300854,,,2024-09-03,清算の結了等,,,2015-11-26,1,,,,,エムジーアイコンサルティング,0
1890,8020002101217,登記記録の閉鎖等,0,2024-09-10,2024-08-23,有限会社ペガサスカンパニー,,有限会社,神奈川県,川崎市幸区,鹿島田２丁目９番１５号クォーターキューブ新川崎２０１,,14,132,2120058,,,2024-08-23,清算の結了等,,,2015-10-05,1,,,,,ペガサスカンパニー,0
1899,8021002013815,登記記録の閉鎖等,0,2024-09-10,2024-09-06,有限会社青澤工房,,有限会社,神奈川県,鎌倉市,浄明寺６丁目１６番１１号,,14,204,2480003,,,2024-09-06,清算の結了等,,,2015-10-05,1,,,,,アオサワコウボウ,0
1905,8030001141411,登記記録の閉鎖等,0,2024-09-10,2024-09-06,Ｃａｓａ　ｒｏｂｏｔｉｃｓ株式会社,,株式会社,東京都,中央区,八重洲２丁目２番１号東京ミッドタウン八重洲八重洲セントラルタワー１２階,,13,102,1040028,,,2024-09-06,合併による解散等,5070001033624,令和６年９月１日埼玉県本庄市早稲田の杜三丁目１番８号はなまるハウス株式会社（5070001033624）に合併し解散,2021-03-30,1,,,,,カーザロボティクス,0
1911,8030002071772,登記記録の閉鎖等,0,2024-09-10,2024-08-30,有限会社窪田商店,,有限会社,埼玉県,北葛飾郡杉戸町,大字下高野１５３０番地３,,11,464,3450043,,,2024-08-30,清算の結了等,,,2015-10-05,1,,,,,クボタショウテン,0
1912,8030002089939,登記記録の閉鎖等,0,2024-09-10,2024-09-04,有限会社エー・オー技研,,有限会社,埼玉県,吉川市,大字吉川１６４４番地１１,,11,243,3420055,,,2024-09-04,清算の結了等,,,2015-10-05,1,,,,,エーオーギケン,0
1940,8080401006036,登記記録の閉鎖等,0,2024-09-10,2024-09-02,名倉精工株式会社,,株式会社,静岡県,湖西市,入出３５０番地の１,,22,221,4310411,,,2024-09-02,合併による解散等,6080401006095,令和６年９月１日静岡県湖西市入出３５０番地の１ユニクラフトナグラ株式会社（6080401006095）に合併し解散,2015-10-05,1,,,,,ナグラセイコウ,0
1946,8110002020985,登記記録の閉鎖等,0,2024-09-10,2024-09-03,有限会社まるこ,,有限会社,新潟県,三島郡出雲崎町,大字石井町５９番地,,15,405,9494306,,,2024-09-03,清算の結了等,,,2015-10-05,1,,,,,マルコ,0
1949,8110002034143,登記記録の閉鎖等,0,2024-09-10,2024-09-03,有限会社ＭＥ,,有限会社,新潟県,魚沼市,七日市２５１番地３,,15,225,9460071,,,2024-09-03,清算の結了等,,,2015-10-05,1,,,,,エムイー,0
1954,8120001105778,登記記録の閉鎖等,0,2024-09-10,2024-09-06,株式会社タナック,,株式会社,大阪府,大阪市東住吉区,杭全４丁目９番１２号,,27,121,5460002,,,2024-09-06,清算の結了等,,,2015-10-05,1,,,,,タナック,0
1965,8120003018144,登記記録の閉鎖等,0,2024-09-10,2024-09-05,合同会社スウィングキャスト,,合同会社,大阪府,大阪市西区,南堀江４丁目２番１０号４Ｄ,,27,106,5500015,,,2024-09-05,清算の結了等,,,2020-09-25,1,,,,,スウィングキャスト,0
1974,8130001008237,登記記録の閉鎖等,0,2024-09-10,2024-09-06,株式会社サンケイユニット,,株式会社,京都府,船井郡京丹波町,高岡奥ノ谷１０番地１,,26,407,6220224,,,2024-09-06,清算の結了等,,,2015-10-05,1,,,,,サンケイユニット,0
1976,8130001034704,登記記録の閉鎖等,0,2024-09-10,2024-09-05,株式会社インテックスインターナショナル,,株式会社,京都府,宇治市,広野町尖山１４番地の１１,,26,204,6110031,,,2024-09-05,清算の結了等,,,2015-10-05,1,,,,,インテックスインターナショナル,0
1977,8130001050949,登記記録の閉鎖等,0,2024-09-10,2024-09-05,株式会社テントタウン,,株式会社,京都府,宇治市,南陵町１丁目１番地３７１,,26,204,6110028,,,2024-09-05,清算の結了等,,,2015-10-05,1,,,,,テントタウン,0
1993,8150002004167,登記記録の閉鎖等,0,2024-09-10,2024-09-06,新栄物産有限会社,,有限会社,奈良県,生駒市,谷田町１３７７番地,,29,209,6300251,,,2024-09-06,清算の結了等,,,2015-10-05,1,,,,,シンエイブッサン,0
2011,8220001024729,登記記録の閉鎖等,0,2024-09-10,2024-08-29,株式会社ふらっとビレッジ,,株式会社,石川県,金沢市,金石北１丁目１番４５号,,17,201,9200338,,,2024-08-29,清算の結了等,,,2022-03-04,1,,,,,フラットビレッジ,0
2021,8290001071046,登記記録の閉鎖等,0,2024-09-10,2024-08-02,輝宝株式会社,,株式会社,福岡県,古賀市,青柳町５７番地,,40,223,8113133,,,2024-08-02,清算の結了等,,,2015-10-05,1,,,,,キホウ,0
2022,8290001090772,登記記録の閉鎖等,0,2024-09-10,2024-08-05,株式会社アットコム,,株式会社,福岡県,福岡市南区,三宅１丁目２番１２号,,40,134,8111344,,,2024-08-05,清算の結了等,,,2020-11-04,1,,,,,アットコム,0
2024,8290005016245,登記記録の閉鎖等,0,2024-09-10,2024-07-17,一般社団法人いちごの丘,,その他の設立登記法人,福岡県,宗像市,田久２丁目５番２５号,,40,220,8114175,,,2024-07-17,清算の結了等,,,2017-01-13,1,,,,,イチゴノオカ,0
2026,8300001007659,登記記録の閉鎖等,0,2024-09-10,2024-08-26,株式会社コーセツ,,株式会社,佐賀県,唐津市,神田７０８番地,,41,202,8470824,,,2024-08-26,清算の結了等,,,2015-10-05,1,,,,,コーセツ,0
2029,8310002011964,登記記録の閉鎖等,0,2024-09-10,2024-09-09,有限会社安兵衛,,有限会社,長崎県,佐世保市,宮田町４番１１号,,42,202,8570032,,,2024-09-09,清算の結了等,,,2015-10-05,1,,,,,ヤスベエ,0
2047,8380001023673,登記記録の閉鎖等,0,2024-09-10,2024-08-30,株式会社ＪＡ　ＩＮＴＥＲＮＡＴＩＯＮＡＬ,,株式会社,福島県,西白河郡西郷村,大字小田倉字大平８０番地,,07,461,9618061,,,2024-08-30,清算の結了等,,,2015-10-05,1,,,,,ジェイエイインターナショナル,0
2049,8380001025307,登記記録の閉鎖等,0,2024-09-10,2024-09-02,株式会社原町西部ショッピングセンター,,株式会社,福島県,福島市,黒岩字浜井場３１番地,,07,201,9608153,,,2024-09-02,合併による解散等,7380001015606,令和６年９月１日福島県福島市黒岩字浜井場４０番地の１株式会社ジャスト（7380001015606）に合併し解散,2015-10-05,1,,,,,ハラマチセイブショッピングセンター,0
2055,8420002002721,登記記録の閉鎖等,0,2024-09-10,2024-09-04,有限会社松金製麺所,00087529,有限会社,青森県,青森市,浪岡大字徳才子字山本１６５番地,,02,201,0381303,,,2024-09-04,清算の結了等,,,2015-10-05,1,,,,,,0
2056,8430001053434,登記記録の閉鎖等,0,2024-09-10,2024-09-03,苫小牧印刷工業株式会社,,株式会社,北海道,苫小牧市,小糸井町１丁目３番１９号,,01,213,0530813,,,2024-09-03,清算の結了等,,,2015-10-05,1,,,,,トマコマイインサツコウギョウ,0
2079,9010001135265,登記記録の閉鎖等,0,2024-09-10,2024-08-23,株式会社タイガーアイ,,株式会社,東京都,目黒区,大岡山２丁目１番７号,,13,110,1520033,,,2024-08-23,清算の結了等,,,2015-10-05,1,,,,,タイガーアイ,0
2105,9010405020030,登記記録の閉鎖等,0,2024-09-10,2024-08-28,一般社団法人日本債権流動化企画,,その他の設立登記法人,東京都,新宿区,西新宿６丁目２１番１号アイタウン・プラザ２０３号,,13,104,1600023,,,2024-08-28,清算の結了等,,,2021-07-21,1,,,,,ニホンサイケンリュウドウカキカク,0
2111,9010602026292,登記記録の閉鎖等,0,2024-09-10,2024-09-06,日本コーディングセンター有限会社,,有限会社,東京都,墨田区,立花１丁目４番２０－１０２号,,13,107,1310043,,,2024-09-06,清算の結了等,,,2015-10-05,1,,,,,ニホンコーディングセンター,0
2113,9010701014891,登記記録の閉鎖等,0,2024-09-10,2024-09-06,株式会社モン・スイユ,,株式会社,東京都,千代田区,麹町３丁目７番２０号サンゴバンビル６階,,13,101,1020083,,,2024-09-06,合併による解散等,5013201014894,令和６年９月１日東京都渋谷区恵比寿西二丁目２１番１号株式会社マークスインターナショナル（5013201014894）に合併し解散,2015-10-05,1,,,,,モンスイユ,0
2116,9010703003463,登記記録の閉鎖等,0,2024-09-10,2024-09-02,Ｃａｎｔａｓ株式会社,,株式会社,北海道,札幌市中央区,南十六条西４丁目１番地１２,,01,101,0640916,,,2024-09-02,清算の結了等,,,2017-02-06,1,,,,,カンタス,0
2123,9011001125875,登記記録の閉鎖等,0,2024-09-10,2024-08-22,株式会社アンリム,,株式会社,東京都,渋谷区,渋谷２丁目２４番１２号渋谷スクランブルスクエア,,13,113,1500002,,,2024-08-22,清算の結了等,,,2019-01-09,1,,,,,アンリム,0
2171,9020005009274,登記記録の閉鎖等,0,2024-09-10,2024-08-19,一般社団法人白山まちづくり協議会,,その他の設立登記法人,神奈川県,川崎市麻生区,白山４丁目１番６新ゆりグリーンタウン管理センター,,14,137,2150014,,,2024-08-19,清算の結了等,,,2015-10-05,1,,,,,ハクサンマチヅクリキョウギカイ,0
2179,9030001096506,登記記録の閉鎖等,0,2024-09-10,2024-09-03,株式会社クヌート,,株式会社,埼玉県,越谷市,川柳町４丁目１０５番地１,,11,222,3430827,,,2024-09-03,清算の結了等,,,2015-10-05,1,,,,,クヌート,0
2195,9050002013937,登記記録の閉鎖等,0,2024-09-10,2024-09-02,有限会社ＭＫビルテク,,有限会社,茨城県,かすみがうら市,宍倉２５６５番地１,,08,230,3000121,,,2024-09-02,清算の結了等,,,2015-10-05,1,,,,,エムケイビルテク,0
2202,9070002035517,登記記録の閉鎖等,0,2024-09-10,2024-09-06,有限会社阿部電気設備,,有限会社,群馬県,利根郡みなかみ町,大穴７３２番地,,10,449,3791727,,,2024-09-06,清算の結了等,,,2015-10-05,1,,,,,アベデンキセツビ,0
2222,9120002055039,登記記録の閉鎖等,0,2024-09-10,2024-09-06,有限会社ユニックスプロインフォメーション,,有限会社,大阪府,大阪市東淀川区,東中島１丁目２０番１２号,,27,114,5330033,,,2024-09-06,清算の結了等,,,2015-10-05,1,,,,,ユニックスプロインフォメーション,0
2227,9120902019340,登記記録の閉鎖等,0,2024-09-10,2024-09-03,日新通信工業有限会社,,有限会社,大阪府,豊中市,柴原町２丁目５番７号,,27,203,5600055,,,2024-09-03,清算の結了等,,,2015-10-05,1,,,,,ニッシンツウシンコウギョウ,0
2238,9170001001807,登記記録の閉鎖等,0,2024-09-10,2024-09-06,株式会社総合建設柳瀬工業,,株式会社,和歌山県,和歌山市,田尻５２８番地の３,,30,201,6410005,,,2024-09-06,清算の結了等,,,2015-10-05,1,,,,,ソウゴウケンセツヤナセコウギョウ,0
2255,9200001005143,登記記録の閉鎖等,0,2024-09-10,2024-09-09,丸万建設株式会社,,株式会社,岐阜県,岐阜市,三田洞８９７番地,,21,201,5020004,,,2024-09-09,清算の結了等,,,2015-10-05,1,,,,,マルマンケンセツ,0
2256,9200001010845,登記記録の閉鎖等,0,2024-09-10,2024-09-06,株式会社岡田工業所,,株式会社,岐阜県,羽島市,桑原町西小薮２丁目８０番地,,21,209,5016327,,,2024-09-06,清算の結了等,,,2015-10-05,1,,,,,オカダコウギョウショ,0
2274,9250005006942,登記記録の閉鎖等,0,2024-09-10,2024-09-05,医療法人藤田医院,,その他の設立登記法人,山口県,熊毛郡田布施町,大字宿井１０２２番地,,35,343,7421503,,,2024-09-05,清算の結了等,,,2015-10-05,1,,,,,フジタイイン,0
2284,9290005017218,登記記録の閉鎖等,0,2024-09-10,2024-09-02,一般社団法人ＴＥＴＯＴＥ,,その他の設立登記法人,福岡県,北九州市小倉北区,清水３丁目１３番１９号,,40,106,8030841,,,2024-09-02,清算の結了等,,,2019-03-22,1,,,,,テトテ,0
2293,9380001025545,登記記録の閉鎖等,0,2024-09-10,2024-09-06,株式会社ＥＨＳＧプロジェクト,,株式会社,福島県,南会津郡只見町,大字小林字下前田４１２番地,,07,367,9680601,,,2024-09-06,清算の結了等,,,2015-10-05,1,,,,,,0
2297,9402702000154,登記記録の閉鎖等,0,2024-09-10,2024-08-30,有限会社けせんホーム,,有限会社,宮城県,仙台市宮城野区,中野１丁目５－９スモリ工業株式会社内,,04,102,9830013,,,2024-08-30,清算の結了等,,,2015-10-05,1,,,,,ケセンホーム,0
